CYQR;2009-01-01 01:00;CYQR 010100Z 14022G30KT 1 1/2SM -SN BLSN VV006 M13/M15 A2946 RMK SN8 SLP033

CYQR;2009-01-01 02:00;CYQR 010200Z 15019G25KT 1 1/2SM -SN BLSN SCT006 OVC024 M12/M14 A2941 RMK SF3SC5 SLP017

CYQR;2009-01-01 03:00;CYQR 010300Z 15018G24KT 1 1/2SM -SN BLSN BKN013 OVC046 M12/M14 A2938 RMK SF5SC3 SLP003

CYQR;2009-01-01 03:23;CYQR 010323Z 14014KT 3SM -SN DRSN BKN025 M13/ RMK SC7

CYQR;2009-01-01 04:00;CYQR 010400Z 16016KT 6SM -SN DRSN BKN016 BKN025 M12/M14 A2936 RMK SC5SC2 SLP995

CYQR;2009-01-01 05:00;CYQR 010500Z 17009KT 10SM -SN OVC013 M13/M15 A2935 RMK SC8 SLP994

CYQR;2009-01-01 06:00;CYQR 010600Z 29020KT 6SM -SN OVC014 M09/M11 A2937 RMK SC8 SLP993

CYQR;2009-01-01 06:28;CYQR 010628Z 30032KT 1SM R13/P6000FT/D -SN BLSN OVC017 M11/ RMK SC8

CYQR;2009-01-01 07:00;CYQR 010700Z 30026G32KT 3/4SM R13/P6000FT/D -SN BLSN VV004 M12/M13 A2940 RMK SN8 SLP002

CYQR;2009-01-01 08:00;CYQR 010800Z 29030KT 3/4SM R13/4500VP6000FT/U -SN BLSN SCT005 OVC018 M15/M16 A2943 RMK SF3SC5 SLP010

CYQR;2009-01-01 09:00;CYQR 010900Z 29029G35KT 3/4SM R13/4500VP6000FT/D -SN BLSN SCT018 OVC042 M16/M18 A2947 RMK SF3SC5 SLP030

CYQR;2009-01-01 10:00;CYQR 011000Z CCA 29033KT 1/2SM R13/5000FT/N SN OVC036 M19/M20 A2950 RMK SC8 /S02/ SLP040

CYQR;2009-01-01 11:00;CYQR 011100Z 30031G36KT 1/2SM R13/4000FT/N -SN BLSN OVC036 M20/M21 A2954 RMK SC8 SLP051

CYQR;2009-01-01 12:00;CYQR 011200Z CCA 30032KT 3/8SM R13/3500FT/N SN BLSN OVC044 M20/M22 A2957 RMK SC8 SLP064

CYQR;2009-01-01 13:00;CYQR 011300Z 30028G34KT 3/8SM R13/3500V4500FT/N -SN BLSN OVC046 M20/M21 A2960 RMK SC8 SLP075

CYQR;2009-01-01 13:18;CYQR 011318Z 30027G32KT 3/4SM R13/4000VP6000FT/U -SN BLSN OVC013 M20/ RMK BLSN2SC6 VIS VRB 1/2-1

CYQR;2009-01-01 14:00;CYQR 011400Z 32025G30KT 3/4SM R13/P6000FT/U -SN BLSN OVC013 M20/M21 A2965 RMK BLSN2SC6 VIS VRB 1/2-1 SLP091

CYQR;2009-01-01 14:38;CYQR 011438Z 32024KT 1 1/2SM -SN BLSN BKN067 M20/ RMK BLSN1SC6 VIS VRB 1-2

CYQR;2009-01-01 15:00;CYQR 011500Z 32024KT 1 1/2SM -SN BLSN FEW015 BKN073 M20/M22 A2969 RMK BLSN1SC1AC6 VIS VRB 1-2 SLP105

CYQR;2009-01-01 15:25;CYQR 011525Z 33024KT 2SM -SN BLSN FEW015 BKN075 OVC250 M21/ RMK BLSN1SC1AC5CI1 VIS VRB 1-3

CYQR;2009-01-01 16:00;CYQR 011600Z 33021G26KT 2 1/2SM -SN BLSN FEW015 OVC056 M21/M22 A2973 RMK BLSN1SC1SC6 VIS LWR SW-W SLP117

CYQR;2009-01-01 16:11;CYQR 011611Z 33022KT 3SM -SN BLSN FEW015 BKN056 OVC073 M21/ RMK SC1SC6AC2 VIS SW 2

CYQR;2009-01-01 17:00;CYQR 011700Z CCA 34018KT 6SM -SN DRSN VCBLSN FEW015 SCT056 BKN089 OVC250 M21/M23 A2976 RMK SC1SC3AC3CI1 VIS SW 3 SLP127

CYQR;2009-01-01 17:46;CYQR 011746Z 33017KT 8SM DRSN FEW015 FEW090 BKN250 M21/ RMK SC1AC1CI1

CYQR;2009-01-01 18:00;CYQR 011800Z 33018KT 12SM DRSN FEW015 FEW090 BKN250 M21/M23 A2977 RMK SC1AC1CI1 SLP132

CYQR;2009-01-01 19:00;CYQR 011900Z 33013KT 15SM DRSN FEW090 SCT250 M21/M23 A2978 RMK AC1CI0 SLP135

CYQR;2009-01-01 20:00;CYQR 012000Z 33013KT 15SM DRSN FEW250 M21/M23 A2979 RMK CI1 SLP138

CYQR;2009-01-01 21:00;CYQR 012100Z 32009KT 15SM FEW250 M21/M23 A2980 RMK CI1 SLP147

CYQR;2009-01-01 22:00;CYQR 012200Z 32005KT 15SM FEW100 FEW250 M21/M26 A2980 RMK AC1CI0 SLP148

CYQR;2009-01-01 23:00;CYQR 012300Z 34005KT 15SM FEW100 M23/M28 A2979 RMK AC1 SLP145

CYQR;2009-01-02 00:00;CYQR 020000Z 01002KT 15SM FEW100 M23/M27 A2979 RMK AC1 SLP147

CYQR;2009-01-02 01:00;CYQR 020100Z 10002KT 15SM FEW100 M24/M28 A2976 RMK AC1 SLP139

CYQR;2009-01-02 02:00;CYQR 020200Z 12004KT 15SM FEW100 M27/M32 A2974 RMK AC1 SLP132

CYQR;2009-01-02 03:00;CYQR 020300Z 15007KT 15SM SKC M26/M30 A2973 RMK SLP131

CYQR;2009-01-02 04:00;CYQR 020400Z 16008KT 15SM SKC M26/M31 A2975 RMK SLP138

CYQR;2009-01-02 05:00;CYQR 020500Z 16008KT 15SM SKC M25/M30 A2977 RMK SLP143

CYQR;2009-01-02 06:00;CYQR 020600Z 12008KT 15SM SCT120 M25/M29 A2975 RMK AC2 SLP138

CYQR;2009-01-02 07:00;CYQR 020700Z 12010KT 15SM SCT120 M24/M28 A2973 RMK AC2 SLP130

CYQR;2009-01-02 08:00;CYQR 020800Z 13013KT 15SM SCT120 M22/M26 A2971 RMK AC2 SLP125

CYQR;2009-01-02 09:00;CYQR 020900Z 15013KT 15SM BKN120 M22/M26 A2973 RMK AC5 SLP126

CYQR;2009-01-02 10:00;CYQR 021000Z 13014KT 15SM BKN090 M22/M26 A2971 RMK AC5 SLP121

CYQR;2009-01-02 11:00;CYQR 021100Z 12015KT 15SM OVC090 M22/M26 A2970 RMK AC8 SLP117

CYQR;2009-01-02 12:00;CYQR 021200Z 13016KT 15SM OVC072 M21/M25 A2969 RMK AC8 SLP115

CYQR;2009-01-02 13:00;CYQR 021300Z 13014KT 15SM OVC063 M20/M25 A2969 RMK SC8 SLP113

CYQR;2009-01-02 14:00;CYQR 021400Z 13017KT 15SM DRSN OVC063 M20/M24 A2965 RMK SC8 SLP103

CYQR;2009-01-02 15:00;CYQR 021500Z 13019KT 12SM DRSN OVC074 M19/M23 A2962 RMK AC8 SLP090

CYQR;2009-01-02 16:00;CYQR 021600Z 12020G26KT 12SM DRSN VCBLSN OVC070 M18/M22 A2962 RMK AC8 VIS W 3 BLSN SLP091

CYQR;2009-01-02 17:00;CYQR 021700Z 13021KT 12SM DRSN VCBLSN OVC070 M17/M21 A2962 RMK AC8 VIS W 3 BLSN SLP091

CYQR;2009-01-02 18:00;CYQR 021800Z 13026G32KT 6SM R13/2600VP6000FT/D BLSN SCT055 OVC062 M17/M21 A2960 RMK SC4SC4 VIS SW-NW 2 SLP080

CYQR;2009-01-02 19:00;CYQR 021900Z 13022G28KT 6SM BLSN OVC053 M16/M20 A2960 RMK SC8 VIS SW-NW 2 SLP081

CYQR;2009-01-02 20:00;CYQR 022000Z 12022G28KT 2SM -SN BLSN SCT013 OVC051 M16/M19 A2957 RMK SC3SC5 SLP072

CYQR;2009-01-02 20:12;CYQR 022012Z 12022KT 1 1/2SM -SN BLSN BKN013 OVC051 M15/ RMK SN2SC4SC2 VIS VRB 1-2

CYQR;2009-01-02 20:37;CYQR 022037Z 12026G31KT 3/4SM R13/5500FT/N -SN BLSN OVC009 M15/ RMK SN6SC2 VIS VRB 1/2-1

CYQR;2009-01-02 21:00;CYQR 022100Z 12023G31KT 3/4SM R13/3000V5000FT/D -SN BLSN BKN006 OVC030 M15/M18 A2954 RMK SN5SC2SC2 VIS VRB 1/2-1 SLP056

CYQR;2009-01-02 21:43;CYQR 022143Z 12021G29KT 1/2SM R13/3000FT/D -SN BLSN VV005 M15/ RMK SN8 VIS VRB 1/4 - 3/4

CYQR;2009-01-02 22:00;CYQR 022200Z 12020G27KT 1/2SM R13/2400V4500FT/U -SN BLSN VV005 M15/M18 A2957 RMK SN8 SLP067

CYQR;2009-01-02 23:00;CYQR 022300Z CCA 12023KT 1/2SM R13/3500V5000FT/U -SN BLSN VV003 M15/M17 A2960 RMK SN8 VIS VRB 1/4 - 3/4 /S02/ SLP075

CYQR;2009-01-02 23:38;CYQR 022338Z 14016G22KT 3/4SM R13/P6000FT/U -SN BLSN VV003 M14/ RMK SN8 VIS VRB 1/2 - 1

CYQR;2009-01-03 00:00;CYQR 030000Z CCA 14015KT 1SM R13/P6000FT/U -SN BLSN OVC006 M14/M17 A2966 RMK SN4SC4 VIS VRB 1/2-1 1/2 /S04/ PRESRR SLP098

CYQR;2009-01-03 00:16;CYQR 030016Z 13009KT 3/4SM R13/P6000FT/D -SN VV005 M14/ REBLSN RMK SN8 VIS VRB 1/2 - 1

CYQR;2009-01-03 01:00;CYQR 030100Z CCA 09011KT 3/4SM R13/3500VP6000FT/D -SN VV003 M16/M20 A2965 REBLSN RMK SN8 VIS VRB 1/2 - 1 /S02/ SLP094

CYQR;2009-01-03 01:25;CYQR 030125Z 09012KT 1SM R13/P6000FT/U -SN OVC030 M17/ RMK SN5SC3 VIS VRB 1/2 - 1 1/2

CYQR;2009-01-03 02:00;CYQR 030200Z CCA 10008KT 3/4SM R13/P6000FT/D -SN VV005 M17/M21 A2971 RMK SN8 VIS VRB 1/2-11/2 R13/P6000/D SLP112

CYQR;2009-01-03 02:52;CYQR 030252Z 10012KT 1SM R13/P6000FT/N -SN VV008 M17/ RMK SN8 VIS VRB 1/2-11/2 R13/P6000FT/N

CYQR;2009-01-03 03:00;CYQR 030300Z 10010KT 1SM R13/P6000FT/N -SN VV008 M17/M21 A2971 RMK SN8 VIS VRB 1/2-11/2 R13/P6000/N SLP116

CYQR;2009-01-03 03:36;CYQR 030336Z 10006KT 2SM -SN OVC016 M17/ RMK SC8

CYQR;2009-01-03 04:00;CYQR 030400Z 10005KT 2SM -SN OVC016 M17/M21 A2976 RMK SC8 SLP130

CYQR;2009-01-03 04:43;CYQR 030443Z 09008KT 4SM -SN OVC024 M17/ RMK SC8

CYQR;2009-01-03 05:00;CYQR 030500Z 09010KT 6SM -SN BKN024 OVC050 M18/M22 A2976 RMK SC5SC3 SLP132

CYQR;2009-01-03 06:00;CYQR 030600Z 09008KT 10SM -SN OVC068 M18/M22 A2977 RMK AC8 SLP135

CYQR;2009-01-03 07:00;CYQR 030700Z 04004KT 10SM -SN OVC075 M19/M23 A2979 RMK AC8 SLP139

CYQR;2009-01-03 08:00;CYQR 030800Z 07003KT 10SM -SN SCT031 OVC076 M18/M22 A2981 RMK SC3AC5 SLP148

CYQR;2009-01-03 09:00;CYQR 030900Z 03002KT 10SM -SN SCT034 OVC049 M18/M23 A2983 RMK SC3SC5 SLP155

CYQR;2009-01-03 10:00;CYQR 031000Z 00000KT 10SM -SN SCT034 OVC049 M18/M22 A2984 RMK SC3SC5 /S01/ SLP159

CYQR;2009-01-03 10:32;CYQR 031032Z 32004KT 2SM -SN OVC034 M18/ RMK SN3SC5

CYQR;2009-01-03 10:48;CYQR 031048Z 32005KT 3/4SM R13/P6000FT/N -SN VV008 M18/ RMK SN8 R13/P6000/N

CYQR;2009-01-03 11:00;CYQR 031100Z 32007KT 3/4SM R13/P6000FT/N -SN VV005 M18/M22 A2985 RMK SN8 SLP162

CYQR;2009-01-03 12:00;CYQR 031200Z CCA 32009KT 1SM R13/P6000FT/U -SN VV009 M19/M23 A2989 RMK SN8 R13/P6000/U /S02/ SLP174

CYQR;2009-01-03 13:00;CYQR 031300Z 31019KT 2SM -SN OVC095 M21/M25 A2992 RMK AC8 SLP185

CYQR;2009-01-03 13:41;CYQR 031341Z 30020G25KT 1SM R13/P6000FT/U -SN BLSN OVC095 M22/ RMK SN4AC4

CYQR;2009-01-03 14:00;CYQR 031400Z 31025KT 3/4SM R13/6000FT/N -SN BLSN OVC095 M22/M27 A2994 RMK SN5AC3 VIS VRB 1/2-1 SLP192

CYQR;2009-01-03 15:00;CYQR 031500Z 31025KT 3/4SM R13/5500FT/N BLSN BKN077 M24/M29 A2998 RMK SN2AC1 VIS VRB 1/2-1 SLP211

CYQR;2009-01-03 16:00;CYQR 031600Z CCA 31024KT 3/4SM R13/5000FT/N BLSN BKN090 M25/M29 A3000 RMK BLSN2AC0 VIS VRB 1/2-1 SLP218

CYQR;2009-01-03 17:00;CYQR 031700Z 31018G25KT 3/4SM R13/3000V5500FT/U BLSN OVC077 M25/M30 A3004 RMK BLSN2AC1 VIS VRB 1/2-1 SLP230

CYQR;2009-01-03 17:39;CYQR 031739Z 31023KT 1SM R13/3500VP6000FT/D BLSN OVC077 M25/ RMK BLSN2AC1 VIS E 2

CYQR;2009-01-03 18:00;CYQR 031800Z 31027KT 3/4SM R13/2800V4500FT/D BLSN OVC052 M26/M31 A3004 RMK BLSN3SC1 VIS VRB 1/2-1 SLP234

CYQR;2009-01-03 19:00;CYQR 031900Z 31021KT 1SM R13/P6000FT/U BLSN SKC M27/M32 A3007 RMK BLSN5 VIS VRB 3/4-11/4 SLP243

CYQR;2009-01-03 20:00;CYQR 032000Z 31022KT 1SM R13/P6000FT/U BLSN SKC M28/M33 A3007 RMK BLSN2 VIS VRB 3/4-11/4 SLP245

CYQR;2009-01-03 20:42;CYQR 032042Z 32017G22KT 2SM BLSN SKC M28/ RMK VIS VRB 11/2-21/2

CYQR;2009-01-03 21:00;CYQR 032100Z 32017KT 2SM BLSN SKC M28/M34 A3009 RMK VIS VRB 11/2-21/2 SLP256

CYQR;2009-01-03 21:35;CYQR 032135Z 31017KT 4SM BLSN FEW300 M29/ RMK CI0 VIS W 21/2

CYQR;2009-01-03 22:00;CYQR 032200Z 31016KT 6SM BLSN FEW300 M29/M34 A3013 RMK CI0 VIS SW-W 3 SLP267

CYQR;2009-01-03 23:00;CYQR 032300Z 30011KT 15SM FEW300 M30/M35 A3015 REBLSN RMK CI1 SLP273

CYQR;2009-01-04 00:00;CYQR 040000Z 28008KT 15SM FEW200 M32/M36 A3017 RMK CI1 SLP285

CYQR;2009-01-04 01:00;CYQR 040100Z 30009KT 15SM SKC M31/M36 A3017 RMK SLP284

CYQR;2009-01-04 02:00;CYQR 040200Z 30009KT 15SM SKC M32/M37 A3017 RMK SLP284

CYQR;2009-01-04 03:00;CYQR 040300Z 32008KT 15SM SKC M34/M38 A3016 RMK SLP288

CYQR;2009-01-04 04:00;CYQR 040400Z 31007KT 15SM SKC M34/M39 A3016 RMK SLP288

CYQR;2009-01-04 05:00;CYQR 040500Z 32006KT 15SM SKC M35/M40 A3015 RMK SLP286

CYQR;2009-01-04 06:00;CYQR 040600Z 29005KT 15SM SKC M35/M40 A3015 RMK SLP287

CYQR;2009-01-04 07:00;CYQR 040700Z 30009KT 10SM SKC M35/M40 A3014 RMK SLP283

CYQR;2009-01-04 08:00;CYQR 040800Z 29005KT 10SM SKC M35/M40 A3014 RMK SLP283

CYQR;2009-01-04 09:00;CYQR 040900Z 29008KT 10SM SKC M36/M41 A3014 RMK SLP285

CYQR;2009-01-04 10:00;CYQR 041000Z 28011KT 15SM SKC M36/M41 A3014 RMK SLP287

CYQR;2009-01-04 11:00;CYQR 041100Z 29010KT 15SM SKC M36/M41 A3014 RMK SLP287

CYQR;2009-01-04 12:00;CYQR 041200Z 31008KT 15SM SKC M35/M40 A3013 RMK SLP285

CYQR;2009-01-04 13:00;CYQR 041300Z CCA 30005KT 4SM BR SKC M36/M40 A3013 RMK VIS E 2 SLP284

CYQR;2009-01-04 14:00;CYQR 041400Z 28004KT 12SM SKC M37/M42 A3013 RMK VIS NE-SE 2 SLP284

CYQR;2009-01-04 15:00;CYQR 041500Z 30004KT 12SM SKC M37/M41 A3014 RMK SLP293

CYQR;2009-01-04 16:00;CYQR 041600Z 31003KT 8SM SKC M36/M40 A3014 RMK SLP293

CYQR;2009-01-04 17:00;CYQR 041700Z 30003KT 12SM SKC M33/M38 A3013 RMK SLP289

CYQR;2009-01-04 18:00;CYQR 041800Z 00000KT 15SM FEW250 M32/M36 A3011 RMK CI1 SLP280

CYQR;2009-01-04 19:00;CYQR 041900Z 19003KT 15SM FEW250 M30/M35 A3009 RMK CI1 SLP273

CYQR;2009-01-04 20:00;CYQR 042000Z 16006KT 15SM FEW210 M30/M35 A3006 RMK CI1 SLP262

CYQR;2009-01-04 21:00;CYQR 042100Z 13005KT 15SM FEW210 M29/M34 A3004 RMK CI1 SLP252

CYQR;2009-01-04 22:00;CYQR 042200Z 12006KT 15SM FEW210 M29/M35 A3003 RMK CI1 SLP250

CYQR;2009-01-04 23:00;CYQR 042300Z 13008KT 15SM FEW170 M30/M35 A3000 RMK AC1 SLP241

CYQR;2009-01-05 00:00;CYQR 050000Z 13009KT 15SM FEW100 M31/M36 A3000 RMK AC1 SLP241

CYQR;2009-01-05 01:00;CYQR 050100Z 12010KT 12SM SKC M31/M36 A2998 RMK SLP234

CYQR;2009-01-05 02:00;CYQR 050200Z 13009KT 15SM SKC M31/M36 A2996 RMK SLP228

CYQR;2009-01-05 03:00;CYQR 050300Z 13009KT 15SM SKC M31/M36 A2993 RMK SLP218

CYQR;2009-01-05 04:00;CYQR 050400Z 12009KT 15SM SKC M31/M36 A2990 RMK SLP210

CYQR;2009-01-05 05:00;CYQR 050500Z 13010KT 15SM SKC M31/M36 A2986 RMK SLP196

CYQR;2009-01-05 06:00;CYQR 050600Z 12012KT 15SM SKC M31/M35 A2982 RMK SLP173

CYQR;2009-01-05 07:00;CYQR 050700Z 13012KT 6SM BR SKC M30/M35 A2979 RMK SLP164

CYQR;2009-01-05 08:00;CYQR 050800Z 13012KT 6SM BR SKC M29/M34 A2976 RMK SLP155

CYQR;2009-01-05 09:00;CYQR 050900Z 12012KT 6SM IC SKC M29/M34 A2973 RMK SLP141

CYQR;2009-01-05 10:00;CYQR 051000Z 13014KT 3SM IC SKC M28/M33 A2969 RMK SLP126

CYQR;2009-01-05 11:00;CYQR 051100Z 14016KT 6SM IC SKC M28/M32 A2965 RMK SLP114

CYQR;2009-01-05 12:00;CYQR 051200Z 13016KT 6SM IC SKC M28/M32 A2961 RMK SLP100

CYQR;2009-01-05 13:00;CYQR 051300Z 13016KT 6SM IC SKC M27/M31 A2958 RMK SLP090

CYQR;2009-01-05 14:00;CYQR 051400Z 13017KT 4SM -SN DRSN OVC020 M25/M29 A2954 RMK SN2SC6 SLP077

CYQR;2009-01-05 14:22;CYQR 051422Z 14019KT 1 1/2SM -SN DRSN OVC020 M24/ RMK SN5SC3

CYQR;2009-01-05 15:00;CYQR 051500Z 14015KT 2SM -SN DRSN BKN200 M23/M28 A2953 RMK CI7 SLP066

CYQR;2009-01-05 16:00;CYQR 051600Z 13018KT 2 1/2SM BLSN SCT090 OVC200 M21/M25 A2951 RMK BLSN2AC2CI4 SLP060

CYQR;2009-01-05 16:37;CYQR 051637Z 13018KT 4SM BLSN FEW015 SCT087 OVC200 M20/ RMK SC1AC2CI5

CYQR;2009-01-05 17:00;CYQR 051700Z 13019KT 6SM BLSN SCT015 BKN025 OVC200 M20/M24 A2948 RMK SC3SC3CI2 SLP051

CYQR;2009-01-05 17:16;CYQR 051716Z 13019G24KT 6SM -SN BLSN FEW025 BKN094 OVC200 M19/ RMK SC2AC2CI3

CYQR;2009-01-05 18:00;CYQR 051800Z 13016G24KT 6SM -SN BLSN BKN025 OVC081 M18/M22 A2944 RMK SC5AC3 SLP031

CYQR;2009-01-05 19:00;CYQR 051900Z CCA 14021KT 10SM -SN DRSN BKN025 OVC085 M17/M21 A2943 REBLSN RMK SC6AC2 SLP027

CYQR;2009-01-05 19:11;CYQR 051911Z 14020G25KT 2 1/2SM -SN DRSN BKN025 OVC085 M17/ RMK SC6AC2

CYQR;2009-01-05 20:00;CYQR 052000Z 14019KT 10SM DRSN FEW025 BKN080 OVC200 M16/M20 A2940 RMK SC2AC4CI2 SLP020

CYQR;2009-01-05 21:00;CYQR 052100Z 14016G21KT 10SM DRSN SCT086 OVC200 M15/M19 A2939 RMK AC3CI4 SLP010

CYQR;2009-01-05 22:00;CYQR 052200Z 13017KT 15SM DRSN SCT070 BKN200 M16/M20 A2939 RMK AC4CI3 SLP011

CYQR;2009-01-05 23:00;CYQR 052300Z 14015KT 15SM DRSN SCT058 BKN140 OVC200 M16/M20 A2940 RMK SC3AC3CI2 SLP013

CYQR;2009-01-06 00:00;CYQR 060000Z 13015KT 15SM DRSN SCT058 BKN200 M16/M21 A2939 RMK SC3CI2 SLP011

CYQR;2009-01-06 00:32;CYQR 060032Z 13017KT 15SM -SN DRSN OVC047 M17/ RMK SC8

CYQR;2009-01-06 01:00;CYQR 060100Z 13016KT 15SM -SN DRSN SCT047 OVC090 M17/M21 A2938 RMK SC4AC2 SLP008

CYQR;2009-01-06 01:50;CYQR 060150Z 13014KT 15SM DRSN SCT049 BKN090 BKN260 M17/ RMK SC3AC2CI1

CYQR;2009-01-06 02:00;CYQR 060200Z 13015KT 15SM DRSN FEW050 BKN090 BKN260 M17/M21 A2939 RMK SC2AC2CI1 SLP010

CYQR;2009-01-06 03:00;CYQR 060300Z 13015KT 15SM DRSN FEW072 BKN100 BKN260 M16/M20 A2940 RMK AC2AC2CI1 SLP010

CYQR;2009-01-06 04:00;CYQR 060400Z 12016KT 15SM DRSN BKN055 BKN100 BKN260 M16/M20 A2941 RMK SC5AC1CI1 SLP014

CYQR;2009-01-06 05:00;CYQR 060500Z 12011G16KT 15SM DRSN FEW050 BKN096 BKN260 M16/M20 A2940 RMK SC2AC3CI1 SLP010

CYQR;2009-01-06 06:00;CYQR 060600Z 12012KT 15SM DRSN FEW022 BKN088 BKN260 M16/M20 A2941 RMK SC2AC3CI1 SLP009

CYQR;2009-01-06 07:00;CYQR 060700Z 14009KT 15SM FEW025 SCT088 BKN240 M16/M20 A2941 RMK SC2AC2CI2 SLP010

CYQR;2009-01-06 08:00;CYQR 060800Z 15006KT 15SM FEW030 SCT088 BKN240 M17/M20 A2943 RMK SC1AC2CI1 SLP015

CYQR;2009-01-06 09:00;CYQR 060900Z 16004KT 15SM SCT082 BKN240 M18/M21 A2943 RMK AC3CI1 SLP015

CYQR;2009-01-06 09:51;CYQR 060951Z 13003KT 10SM -SN SCT008 OVC063 M18/ RMK SF2SC6

CYQR;2009-01-06 10:00;CYQR 061000Z 12003KT 10SM -SN SCT008 OVC063 M18/M21 A2945 RMK SF2SC6 SLP022

CYQR;2009-01-06 11:00;CYQR 061100Z 00000KT 10SM -SN SCT010 BKN017 OVC060 M19/M22 A2946 RMK SF2SC2SC4 SLP027

CYQR;2009-01-06 12:00;CYQR 061200Z 01006KT 10SM -SN BKN010 OVC095 M18/M21 A2947 RMK SC5AC3 SLP030

CYQR;2009-01-06 13:00;CYQR 061300Z 01006KT 10SM -SN BKN010 OVC090 M18/M22 A2951 RMK SC7AC1 SLP042

CYQR;2009-01-06 13:06;CYQR 061306Z 35005KT 10SM -SN BKN009 OVC090 M17/ RMK SC7AC1

CYQR;2009-01-06 14:00;CYQR 061400Z 32011KT 10SM -SN BKN008 OVC090 M18/M22 A2954 RMK SC7AC1 SLP053

CYQR;2009-01-06 14:38;CYQR 061438Z 33010KT 10SM -SN SCT010 OVC018 M18/ RMK SC4SC4

CYQR;2009-01-06 15:00;CYQR 061500Z 32010KT 7SM -SN DRSN FEW010 OVC018 M18/M22 A2956 RMK SC1SC7 VIS W 11/2 SLP062

CYQR;2009-01-06 15:02;CYQR 061502Z 32012KT 1 1/2SM -SN DRSN FEW010 OVC018 M18/ RMK SN1SC1SC6

CYQR;2009-01-06 15:12;CYQR 061512Z 32011KT 3SM -SN DRSN OVC033 M18/ RMK SC8

CYQR;2009-01-06 15:46;CYQR 061546Z 32010KT 1SM R13/P6000FT/N -SHSN DRSN OVC018 M18/ RMK SN5SC3

CYQR;2009-01-06 16:00;CYQR 061600Z 32010KT 2SM -SHSN DRSN BKN018 OVC030 M18/M21 A2958 RMK SN2SC5SC2 SLP068

CYQR;2009-01-06 16:04;CYQR 061604Z 31010KT 12SM -SHSN DRSN BKN018 OVC028 M18/ RMK SC5SC3

CYQR;2009-01-06 16:47;CYQR 061647Z 32009KT 15SM DRSN BKN040 BKN250 M18/ RMK SC5CI1

CYQR;2009-01-06 17:00;CYQR 061700Z 32010KT 15SM DRSN BKN022 BKN250 M18/M22 A2959 RMK SC5CI1 SLP071

CYQR;2009-01-06 17:24;CYQR 061724Z 31010KT 10SM -SHSN DRSN BKN017 OVC250 M17/ RMK SC7CI1

CYQR;2009-01-06 18:00;CYQR 061800Z 30013KT 10SM -SHSN DRSN OVC017 M18/M22 A2961 RMK SC8 SLP078

CYQR;2009-01-06 18:31;CYQR 061831Z 31013KT 3SM -SHSN DRSN BKN013 OVC040 M18/ RMK SC7SC1

CYQR;2009-01-06 19:00;CYQR 061900Z 32016KT 5SM -SHSN DRSN OVC013 M18/M22 A2962 RMK SC8 SLP083

CYQR;2009-01-06 19:20;CYQR 061920Z 33013KT 12SM -SHSN DRSN BKN015 BKN250 M18/ RMK SC6CI0

CYQR;2009-01-06 19:43;CYQR 061943Z 32009KT 15SM FEW015 BKN250 M18/ RMK SC2CI1

CYQR;2009-01-06 20:00;CYQR 062000Z 32011KT 15SM FEW015 FEW060 BKN250 M18/M22 A2962 RMK SC1SC1CI2 SLP081

CYQR;2009-01-06 21:00;CYQR 062100Z 30012KT 15SM FEW250 M19/M23 A2963 RMK CI1 SLP087

CYQR;2009-01-06 22:00;CYQR 062200Z 31012KT 15SM FEW100 FEW250 M20/M24 A2965 RMK AC1CI1 SLP094

CYQR;2009-01-06 22:52;CYQR 062252Z 30005KT 15SM BKN013 OVC250 M20/ RMK SC7CI1

CYQR;2009-01-06 23:00;CYQR 062300Z 32005KT 15SM BKN013 BKN090 OVC250 M20/M24 A2964 RMK SC7AC1CI1 SLP092

CYQR;2009-01-06 23:13;CYQR 062313Z 33004KT 12SM BKN008 OVC090 M19/ RMK SC7AC1

CYQR;2009-01-06 23:27;CYQR 062327Z 31005KT 10SM -SN BKN007 OVC090 M19/ RMK SC7AC1

CYQR;2009-01-06 23:44;CYQR 062344Z 33005KT 10SM -SN BKN005 OVC090 M19/ RMK SC7AC1

CYQR;2009-01-07 00:00;CYQR 070000Z 34005KT 10SM -SN OVC005 M18/M22 A2965 RMK SF8 SLP093

CYQR;2009-01-07 00:28;CYQR 070028Z 33006KT 10SM -SN OVC004 OVC007 M18/ RMK SF7SC1

CYQR;2009-01-07 00:37;CYQR 070037Z 33005KT 10SM -SN OVC006 M18/ RMK SF8

CYQR;2009-01-07 01:00;CYQR 070100Z 34004KT 12SM -SN OVC005 M18/M22 A2964 RMK SF8 SLP090

CYQR;2009-01-07 01:30;CYQR 070130Z 31006KT 12SM -SN OVC008 M18/ RMK SC8

CYQR;2009-01-07 02:00;CYQR 070200Z 33006KT 12SM -SN BKN008 OVC013 M18/M22 A2964 RMK SF3SC5 SLP091

CYQR;2009-01-07 03:00;CYQR 070300Z 30008KT 10SM -SN OVC013 M17/M21 A2962 RMK SC8 SLP084

CYQR;2009-01-07 03:20;CYQR 070320Z 33012KT 3SM -SN OVC008 M17/ RMK SN1SF7

CYQR;2009-01-07 04:00;CYQR 070400Z 32011KT 6SM -SN OVC013 M17/M20 A2963 RMK SC8 SLP087

CYQR;2009-01-07 05:00;CYQR 070500Z 33014KT 6SM -SN OVC013 M17/M20 A2963 RMK SC8 SLP087

CYQR;2009-01-07 05:28;CYQR 070528Z 32014KT 15SM -SN OVC015 M17/ RMK SC8

CYQR;2009-01-07 06:00;CYQR 070600Z 32013KT 15SM -SN OVC015 M17/M21 A2962 RMK SC8 SLP083

CYQR;2009-01-07 07:00;CYQR 070700Z 32011KT 15SM -SN OVC015 M17/M21 A2960 RMK SC8 SLP076

CYQR;2009-01-07 08:00;CYQR 070800Z 32012KT 15SM -SN OVC015 M17/M21 A2959 RMK SC8 -SN INTMT SLP071

CYQR;2009-01-07 09:00;CYQR 070900Z 30011KT 10SM -SN OVC015 M17/M21 A2961 RMK SC8 SLP079

CYQR;2009-01-07 10:00;CYQR 071000Z 31011KT 10SM -SN OVC015 M17/M21 A2962 RMK SC8 SLP082

CYQR;2009-01-07 11:00;CYQR 071100Z 32009KT 10SM -SN OVC015 M17/M21 A2961 RMK SC8 SLP080

CYQR;2009-01-07 12:00;CYQR 071200Z 32011KT 6SM -SN OVC015 M17/M21 A2961 RMK SC8 SLP080

CYQR;2009-01-07 13:00;CYQR 071300Z 33008KT 7SM -SN OVC019 M17/M21 A2961 RMK SC8 SLP080

CYQR;2009-01-07 14:00;CYQR 071400Z 32008KT 6SM -SN OVC019 OVC090 M18/M22 A2964 RMK SC7AC1 SLP089

CYQR;2009-01-07 15:00;CYQR 071500Z 33006KT 3SM -SN BR OVC023 M20/M24 A2965 RMK SC8 SLP096

CYQR;2009-01-07 16:00;CYQR 071600Z 31007KT 3SM -SN BR BKN026 OVC090 M20/M24 A2970 RMK SC3AC2 SLP111

CYQR;2009-01-07 16:33;CYQR 071633Z 32005KT 3SM IC BR FEW008 SCT026 OVC230 M22/ RMK SC2SC1CI1 IC PARHELIA

CYQR;2009-01-07 17:00;CYQR 071700Z 33006KT 10SM FEW008 FEW026 BKN230 M22/M26 A2970 RMK SC1SC1CI2 IC SLP112

CYQR;2009-01-07 17:44;CYQR 071744Z 33006KT 15SM FEW025 BKN120 BKN230 M20/ RMK SC1AC5CI1

CYQR;2009-01-07 18:00;CYQR 071800Z 34005KT 15SM FEW025 BKN120 BKN230 M20/M24 A2969 RMK SC1AC6CI1 SLP110

CYQR;2009-01-07 19:00;CYQR 071900Z 32006KT 15SM FEW025 BKN091 M19/M23 A2968 RMK SC1AC5 SLP104

CYQR;2009-01-07 20:00;CYQR 072000Z 33007KT 15SM FEW140 BKN230 M19/M23 A2968 RMK AC1CI6 SLP105

CYQR;2009-01-07 21:00;CYQR 072100Z 31006KT 15SM FEW025 BKN140 BKN230 M19/M23 A2969 RMK SC1AC6CI1 SLP110

CYQR;2009-01-07 22:00;CYQR 072200Z 31005KT 15SM FEW025 BKN110 M20/M25 A2972 RMK SC1AC2 SLP119

CYQR;2009-01-07 23:00;CYQR 072300Z 29005KT 15SM BKN110 BKN230 M22/M26 A2974 RMK AC3CI0 SLP124

CYQR;2009-01-08 00:00;CYQR 080000Z 30003KT 15SM BKN095 BKN230 M23/M27 A2974 RMK AC3CI2 SLP128

CYQR;2009-01-08 01:00;CYQR 080100Z 31003KT 15SM OVC088 M21/M25 A2976 RMK AC8 SLP135

CYQR;2009-01-08 02:00;CYQR 080200Z 01003KT 15SM OVC086 M19/M23 A2976 RMK AC8 SLP134

CYQR;2009-01-08 03:00;CYQR 080300Z 04003KT 15SM OVC084 M18/M22 A2975 RMK AC8 SLP131

CYQR;2009-01-08 04:00;CYQR 080400Z 00000KT 15SM BKN084 OVC150 M18/M22 A2976 RMK AC6AC2 SLP135

CYQR;2009-01-08 05:00;CYQR 080500Z 18002KT 15SM BKN078 M18/M22 A2977 RMK AC7 SLP136

CYQR;2009-01-08 06:00;CYQR 080600Z 16003KT 15SM SCT057 BKN072 M19/M23 A2976 RMK SC3AC3 SLP135

CYQR;2009-01-08 07:00;CYQR 080700Z 15004KT 15SM SCT072 M21/M25 A2975 RMK AC4 SLP132

CYQR;2009-01-08 08:00;CYQR 080800Z 17004KT 15SM BKN095 M21/M25 A2976 RMK AC5 SLP133

CYQR;2009-01-08 09:00;CYQR 080900Z 15005KT 15SM FEW080 SCT095 M20/M24 A2976 RMK AC2AC2 SLP134

CYQR;2009-01-08 10:00;CYQR 081000Z 12005KT 15SM SCT072 M19/M23 A2975 RMK AC3 SLP132

CYQR;2009-01-08 11:00;CYQR 081100Z 10006KT 15SM SCT072 M20/M24 A2974 RMK AC3 SLP130

CYQR;2009-01-08 12:00;CYQR 081200Z 12011KT 15SM FEW072 M20/M25 A2972 RMK AC2 SLP123

CYQR;2009-01-08 13:00;CYQR 081300Z 16010KT 15SM SCT075 M22/M26 A2972 RMK AC2 SLP125

CYQR;2009-01-08 14:00;CYQR 081400Z 14009KT 15SM SCT075 SCT250 M21/M25 A2972 RMK AC2CI0 SLP124

CYQR;2009-01-08 15:00;CYQR 081500Z 13011KT 15SM FEW075 BKN110 OVC250 M20/M24 A2971 RMK AC2AC4CI1 SLP116

CYQR;2009-01-08 16:00;CYQR 081600Z 12015KT 15SM DRSN BKN078 BKN250 M19/M23 A2968 RMK AC6CI1 SLP107

CYQR;2009-01-08 17:00;CYQR 081700Z 13016KT 15SM DRSN BKN069 M18/M22 A2968 RMK AC7 SLP106

CYQR;2009-01-08 18:00;CYQR 081800Z 13015KT 15SM DRSN BKN069 OVC250 M17/M21 A2965 RMK AC7CI1 SLP095

CYQR;2009-01-08 19:00;CYQR 081900Z 13016KT 10SM DRSN BKN065 OVC250 M16/M21 A2963 RMK SC7CI0 SLP087

CYQR;2009-01-08 20:00;CYQR 082000Z 14016G21KT 12SM DRSN SCT049 BKN074 M16/M20 A2961 RMK SC3AC4 SLP081

CYQR;2009-01-08 21:00;CYQR 082100Z 13015G21KT 12SM DRSN SCT047 BKN110 OVC250 M15/M20 A2961 RMK SC3AC4CI0 SLP079

CYQR;2009-01-08 22:00;CYQR 082200Z 12017KT 10SM DRSN OVC022 OVC090 M15/M19 A2960 RMK SC7AC1 SLP077

CYQR;2009-01-08 22:16;CYQR 082216Z 11015G20KT 4SM -SN DRSN OVC018 M15/ RMK SC8

CYQR;2009-01-08 22:25;CYQR 082225Z 11020KT 2 1/2SM -SN DRSN OVC018 M15/ RMK SC8

CYQR;2009-01-08 22:34;CYQR 082234Z 11018G24KT 2SM -SN DRSN OVC014 M15/ RMK SC8 VIS VRB 1 1/2 - 2 1/2

CYQR;2009-01-08 23:00;CYQR 082300Z 12016G22KT 2SM -SN DRSN OVC014 M14/M18 A2959 RMK SC8 VIS VRB 1 1/2 - 2 1/2 SLP073

CYQR;2009-01-08 23:14;CYQR 082314Z 12017G25KT 1 1/4SM -SN DRSN OVC014 M14/ RMK SN3SC5 VIS VRB 3/4-2SM

CYQR;2009-01-09 00:00;CYQR 090000Z 12018G25KT 1SM R13/P6000FT/D -SN DRSN VV010 M14/M17 A2958 RMK SN8 VIS VRB 3/4-11/2 SLP069

CYQR;2009-01-09 00:22;CYQR 090022Z CCA 11016G21KT 2 1/2SM -SN DRSN VV009 M14/ RMK SN8

CYQR;2009-01-09 00:39;CYQR 090039Z 10016KT 1SM R13/P6000FT/D -SN DRSN VV009 M14/ RMK SN8

CYQR;2009-01-09 01:00;CYQR 090100Z 10012G19KT 1SM R13/P6000FT/U -SN DRSN VV009 M14/M17 A2961 RMK SN8 /S01/ SLP078

CYQR;2009-01-09 02:00;CYQR 090200Z 11010G15KT 1SM R13/P6000FT/U -SN DRSN VV007 M14/M18 A2964 RMK SN8 SLP086

CYQR;2009-01-09 02:20;CYQR 090220Z 10011KT 3/4SM R13/P6000FT/D -SN DRSN VV005 M14/ RMK SN8

CYQR;2009-01-09 02:31;CYQR 090231Z 11011KT 1/2SM R13/P6000FT/D SN DRSN VV004 M14/ RMK SN8

CYQR;2009-01-09 03:00;CYQR 090300Z 10010KT 1/2SM R13/P6000FT/D SN DRSN VV005 M14/M17 A2966 RMK SN8 /S03/ SLP095

CYQR;2009-01-09 03:28;CYQR 090328Z 09013KT 3/4SM R13/P6000FT/U -SN DRSN VV009 M14/ RESN RMK SN8

CYQR;2009-01-09 04:00;CYQR 090400Z 09011KT 3/4SM R13/P6000FT/D -SN DRSN VV007 M14/M17 A2968 RESN RMK SN8 SLP103

CYQR;2009-01-09 04:29;CYQR 090429Z 07013KT 2SM -SN DRSN OVC010 M14/ RMK SN3SC5

CYQR;2009-01-09 05:00;CYQR 090500Z 08010G16KT 1 1/2SM -SN DRSN OVC012 M14/M18 A2973 RMK SN3SC5 SLP117

CYQR;2009-01-09 05:45;CYQR 090545Z 07009KT 1SM R13/P6000FT/D -SN DRSN VV006 M15/ RMK SN8

CYQR;2009-01-09 06:00;CYQR 090600Z 07009KT 1SM R13/P6000FT/D -SN DRSN VV007 M15/M18 A2979 RMK SN8 PRESRR /S04/ SLP141

CYQR;2009-01-09 07:00;CYQR 090700Z 04005KT 1SM R13/P6000FT/U -SN VV008 M15/M19 A2984 RMK SN8 SLP154

CYQR;2009-01-09 07:23;CYQR 090723Z 35008KT 2SM -SN OVC014 M16/ RMK SN3SC5

CYQR;2009-01-09 07:41;CYQR 090741Z 01006KT 3SM -SN OVC014 M16/ RMK SN2SC6

CYQR;2009-01-09 08:00;CYQR 090800Z 35009KT 3SM -SN OVC014 M16/M19 A2990 RMK SN2SC6 PRESRR SLP175

CYQR;2009-01-09 09:00;CYQR 090900Z 01007KT 6SM -SN OVC011 M15/M19 A2994 RMK SC8 SLP191

CYQR;2009-01-09 09:45;CYQR 090945Z 03010KT 10SM SCT010 OVC051 M16/ RMK SC4SC4

CYQR;2009-01-09 10:00;CYQR 091000Z 04008KT 10SM FEW010 OVC055 M16/M20 A3000 RMK SC2SC6 SLP209

CYQR;2009-01-09 11:00;CYQR 091100Z 35010KT 10SM FEW010 OVC055 M16/M21 A3005 RMK SC2SC6 SLP224

CYQR;2009-01-09 12:00;CYQR 091200Z 01010KT 15SM OVC056 M16/M21 A3010 RMK SC8 SLP245

CYQR;2009-01-09 13:00;CYQR 091300Z 31013KT 15SM OVC064 M16/M20 A3016 RMK SC7 SLP263

CYQR;2009-01-09 14:00;CYQR 091400Z 33013KT 15SM OVC058 M16/M20 A3019 RMK SC7 SLP275

CYQR;2009-01-09 15:00;CYQR 091500Z 32010KT 15SM OVC054 M16/M20 A3022 RMK SC8 SLP286

CYQR;2009-01-09 15:48;CYQR 091548Z 31012KT 15SM -SN OVC051 M15/ RMK SC8

CYQR;2009-01-09 16:00;CYQR 091600Z 31009KT 12SM -SN OVC047 M15/M19 A3027 RMK SC8 SLP302

CYQR;2009-01-09 17:00;CYQR 091700Z 30010KT 12SM -SN SCT041 BKN055 M16/M19 A3028 RMK SC2SC2 SLP304

CYQR;2009-01-09 17:23;CYQR 091723Z 30006KT 12SM FEW015 FEW055 M17/ RMK SC1SC2

CYQR;2009-01-09 18:00;CYQR 091800Z 30008KT 15SM FEW015 FEW080 FEW230 M17/M21 A3029 RMK SC1AC1CI0 SLP311

CYQR;2009-01-09 18:11;CYQR 091811Z 27006KT 15SM BKN005 BKN055 M17/ RMK SC5SC2

CYQR;2009-01-09 18:24;CYQR 091824Z 30015KT 15SM SCT004 M16/ RMK SC3

CYQR;2009-01-09 19:00;CYQR 091900Z 29017KT 15SM FEW004 FEW094 M17/M22 A3030 RMK SC1AC1 TR AC SLP315

CYQR;2009-01-09 20:00;CYQR 092000Z 29013KT 15SM FEW170 M19/M24 A3028 RMK AC1 TR AC SLP310

CYQR;2009-01-09 21:00;CYQR 092100Z 29014KT 15SM FEW160 M19/M24 A3029 RMK AC1 SLP313

CYQR;2009-01-09 22:00;CYQR 092200Z 27007KT 15SM SCT240 M20/M25 A3027 RMK CI1 SLP308

CYQR;2009-01-09 23:00;CYQR 092300Z 26003KT 15SM FEW100 BKN240 M22/M27 A3027 RMK AC1CI1 SLP306

CYQR;2009-01-10 00:00;CYQR 100000Z 19005KT 15SM FEW100 BKN240 M23/M27 A3026 RMK AC2CI2 SLP307

CYQR;2009-01-10 01:00;CYQR 100100Z 21005KT 15SM SCT080 BKN240 M22/M26 A3026 RMK AC3CI1 SLP307

CYQR;2009-01-10 02:00;CYQR 100200Z 15006KT 15SM SCT090 BKN240 M21/M25 A3022 RMK AC3CI1 SLP295

CYQR;2009-01-10 03:00;CYQR 100300Z 13009KT 15SM FEW100 BKN240 M19/M23 A3019 RMK AC2CI2 SLP279

CYQR;2009-01-10 04:00;CYQR 100400Z 14014KT 15SM FEW100 BKN240 M20/M25 A3014 RMK AC1CI1 SLP265

CYQR;2009-01-10 05:00;CYQR 100500Z 15014KT 15SM FEW080 BKN240 M21/M25 A3012 RMK AC2CI1 SLP257

CYQR;2009-01-10 06:00;CYQR 100600Z 15015KT 15SM FEW080 SCT240 M20/M24 A3007 RMK AC1CI0 SLP240

CYQR;2009-01-10 07:00;CYQR 100700Z 15010KT 15SM SCT240 M21/M24 A3007 RMK CI0 SLP240

CYQR;2009-01-10 08:00;CYQR 100800Z 15013KT 15SM SCT240 M20/M23 A3002 RMK CI1 SLP225

CYQR;2009-01-10 09:00;CYQR 100900Z 16011KT 15SM FEW085 SCT240 M19/M23 A2999 RMK AC1CI0 SLP214

CYQR;2009-01-10 10:00;CYQR 101000Z 14008KT 15SM FEW100 SCT240 M20/M24 A2998 RMK AC1CI0 SLP209

CYQR;2009-01-10 11:00;CYQR 101100Z 13009KT 15SM FEW100 SCT240 M21/M25 A2994 RMK AC1CI0 SLP198

CYQR;2009-01-10 12:00;CYQR 101200Z 11007KT 15SM BKN090 OVC240 M20/M24 A2994 RMK AC5CI1 SLP198

CYQR;2009-01-10 13:00;CYQR 101300Z 17002KT 15SM SCT060 OVC090 M18/M22 A2994 RMK SC4AC4 SLP200

CYQR;2009-01-10 14:00;CYQR 101400Z 15004KT 15SM BKN064 M16/M19 A2992 RMK SC7 SLP193

CYQR;2009-01-10 15:00;CYQR 101500Z 00000KT 15SM BKN077 OVC110 M15/M18 A2993 RMK AC5AC3 SLP187

CYQR;2009-01-10 16:00;CYQR 101600Z 18002KT 15SM BKN070 BKN077 BKN110 M14/M17 A2992 RMK AC5AC1AC1 SLP185

CYQR;2009-01-10 17:00;CYQR 101700Z 24007KT 15SM FEW077 FEW110 M15/M19 A2993 RMK AC1AC1 SLP188

CYQR;2009-01-10 18:00;CYQR 101800Z 26006KT 15SM BKN084 BKN240 M09/M12 A2991 RMK AC3CI1 SLP178

CYQR;2009-01-10 19:00;CYQR 101900Z 31009KT 15SM FEW039 BKN048 BKN069 BKN240 M06/M09 A2993 RMK SC1SC6AC1CI1 SLP185

CYQR;2009-01-10 19:32;CYQR 101932Z 29009KT 12SM -SN FEW008 BKN031 BKN048 M05/ RMK SC2SC2SC2

CYQR;2009-01-10 20:00;CYQR 102000Z 29007KT 15SM FEW009 BKN045 BKN065 M05/M07 A2993 RMK SC1SC6AC1 SLP185

CYQR;2009-01-10 21:00;CYQR 102100Z 27007KT 15SM BKN031 BKN078 M05/M07 A2991 RMK SC5AC2 SLP176

CYQR;2009-01-10 22:00;CYQR 102200Z 28014KT 15SM FEW044 FEW082 M05/M07 A2993 RMK SC1AC1 SLP181

CYQR;2009-01-10 23:00;CYQR 102300Z 31018KT 15SM FEW042 FEW095 M05/M08 A2996 RMK SC1AC1 SLP190

CYQR;2009-01-10 23:29;CYQR 102329Z 31019KT 15SM BKN010 BKN026 OVC044 M05/ RMK SC5SC2SC1

CYQR;2009-01-11 00:00;CYQR 110000Z 32017KT 15SM -SN OVC014 M04/M07 A2999 RMK SC8 SLP204

CYQR;2009-01-11 01:00;CYQR 110100Z 34014KT 15SM -SN OVC010 M05/M07 A3002 RMK SC8 SLP213

CYQR;2009-01-11 01:31;CYQR 110131Z 33013KT 15SM -SN OVC009 M05/ RMK SC8

CYQR;2009-01-11 02:00;CYQR 110200Z 34012KT 15SM -SN OVC008 M06/M08 A3004 RMK SC8 SLP219

CYQR;2009-01-11 02:49;CYQR 110249Z 35010KT 15SM OVC008 M07/ RMK SC8

CYQR;2009-01-11 03:00;CYQR 110300Z 36012KT 15SM OVC008 M07/M09 A3008 RMK SC8 SLP231

CYQR;2009-01-11 04:00;CYQR 110400Z 35008KT 10SM OVC008 M08/M10 A3011 RMK SC8 SLP240

CYQR;2009-01-11 05:00;CYQR 110500Z 34006KT 10SM SCT009 OVC022 M08/M10 A3011 RMK SC4SC4 SLP240

CYQR;2009-01-11 05:40;CYQR 110540Z 35008KT 10SM -SN SCT010 OVC017 M08/ RMK SC4SC4

CYQR;2009-01-11 06:00;CYQR 110600Z 34010KT 10SM -SN SCT010 OVC017 M08/M10 A3012 RMK SC3SC5 SLP240

CYQR;2009-01-11 07:00;CYQR 110700Z 03005KT 10SM -SN SCT007 OVC015 M08/M10 A3011 RMK SC4SC4 SLP238

CYQR;2009-01-11 08:00;CYQR 110800Z 19003KT 10SM -SN SCT007 OVC015 M08/M10 A3012 RMK SC4SC4 SLP240

CYQR;2009-01-11 08:46;CYQR 110846Z 24004KT 10SM OVC009 M08/ RMK SC8

CYQR;2009-01-11 09:00;CYQR 110900Z 26003KT 10SM OVC009 M08/M10 A3013 RMK SC8 SLP240

CYQR;2009-01-11 09:41;CYQR 110941Z 21004KT 10SM OVC012 M08/ RMK SC8

CYQR;2009-01-11 10:00;CYQR 111000Z 22005KT 10SM OVC012 M08/M10 A3012 RMK SC8 SLP237

CYQR;2009-01-11 10:50;CYQR 111050Z 21008KT 10SM SCT005 M11/ RMK SC4

CYQR;2009-01-11 11:00;CYQR 111100Z 21007KT 10SM SCT005 M11/M12 A3010 RMK SC4 SLP233

CYQR;2009-01-11 12:00;CYQR 111200Z 27005KT 6SM BR FEW010 FEW140 M12/M14 A3009 RMK SC2AC1 SLP230

CYQR;2009-01-11 13:00;CYQR 111300Z 21004KT 3SM BR FEW010 FEW140 M15/M16 A3006 RMK SC2AC1 SLP222

CYQR;2009-01-11 14:00;CYQR 111400Z 22002KT 15SM BKN022 M16/M18 A3004 RMK SC6 SLP216

CYQR;2009-01-11 15:00;CYQR 111500Z 18002KT 15SM BKN020 BKN140 M15/M16 A3003 RMK SC5AC1 SLP214

CYQR;2009-01-11 16:00;CYQR 111600Z 11005KT 15SM FEW020 FEW140 M13/M15 A3001 RMK SC1AC1 SLP206

CYQR;2009-01-11 17:00;CYQR 111700Z 11005KT 15SM BKN140 BKN240 M13/M15 A2999 RMK AC2CI0 SLP200

CYQR;2009-01-11 18:00;CYQR 111800Z 11008KT 15SM BKN140 BKN240 M12/M13 A2997 RMK AC2CI0 SLP193

CYQR;2009-01-11 19:00;CYQR 111900Z 10007KT 15SM BKN140 OVC240 M11/M13 A2993 RMK AC5CI2 SLP180

CYQR;2009-01-11 20:00;CYQR 112000Z 13009KT 15SM FEW060 BKN140 OVC240 M10/M12 A2986 RMK SC1AC7CI1 PRESFR SLP156

CYQR;2009-01-11 21:00;CYQR 112100Z 14011KT 15SM OVC078 M10/M12 A2983 RMK AC8 SLP143

CYQR;2009-01-11 22:00;CYQR 112200Z 13011KT 15SM OVC065 M09/M11 A2981 RMK SC8 SLP136

CYQR;2009-01-11 23:00;CYQR 112300Z 12011KT 15SM OVC029 M08/M11 A2979 RMK SC8 SLP129

CYQR;2009-01-11 23:21;CYQR 112321Z 12010KT 6SM -SN OVC022 RMK SC8

CYQR;2009-01-11 23:33;CYQR 112333Z 11009KT 2SM -SN OVC014 RMK SC8

CYQR;2009-01-12 00:00;CYQR 120000Z 11010KT 2SM -SN OVC014 M08/M10 A2978 RMK SC8 SLP126

CYQR;2009-01-12 00:06;CYQR 120006Z 11012KT 1SM R13/P6000FT/D -SN OVC014 RMK SC8

CYQR;2009-01-12 00:27;CYQR 120027Z 11012KT 1/2SM R13/P6000FT/U SN VV006 RMK SN8

CYQR;2009-01-12 01:00;CYQR 120100Z 12010KT 1/2SM R13/P6000FT/D SN VV007 M08/M09 A2977 RMK SN8 SLP123

CYQR;2009-01-12 01:23;CYQR 120123Z 12010KT 1/2SM R13/P6000FT/N SN DRSN VV003 M08/ RMK SN8

CYQR;2009-01-12 02:00;CYQR 120200Z 10010KT 1/2SM R13/P6000FT/U SN DRSN VV006 M08/M09 A2978 RMK SN8 /S03/ SLP125

CYQR;2009-01-12 02:25;CYQR 120225Z 08008KT 1/2SM R13/P6000FT/U SN VV004 M07/ RMK SN8

CYQR;2009-01-12 03:00;CYQR 120300Z 06005KT 1/2SM R13/P6000FT/U SN VV005 M07/M09 A2980 RMK SN8 /S05/ SLP136

CYQR;2009-01-12 03:50;CYQR 120350Z 36007KT 1/2SM R13/6000FT/D SN VV003 M07/ RMK SN8

CYQR;2009-01-12 04:00;CYQR 120400Z 01009KT 1/2SM R13/6000FT/U SN VV003 M07/M08 A2985 RMK SN8 /S07/ SLP152

CYQR;2009-01-12 05:00;CYQR 120500Z 04014G19KT 1/2SM R13/P6000FT/U SN BLSN VV006 M07/M09 A2992 RMK SN8 /S08/ PRESRR SLP173

CYQR;2009-01-12 05:16;CYQR 120516Z 04020KT 3/4SM R13/P6000FT/N -SN BLSN VV010 M08/ RESN RMK SN8

CYQR;2009-01-12 05:40;CYQR 120540Z 03020KT 3/4SM R13/P6000FT/D -SN BLSN OVC016 M10/ RESN RMK BLSN4SC4

CYQR;2009-01-12 06:00;CYQR 120600Z 03021KT 2SM -SN BLSN OVC021 M11/M13 A3001 RESN RMK BLSN3SC5 PRESRR SLP208

CYQR;2009-01-12 06:49;CYQR 120649Z 03024G30KT 1SM R13/P6000FT/N -SN BLSN OVC010 M13/ RMK BLSN4SC4

CYQR;2009-01-12 07:00;CYQR 120700Z 03019G30KT 1SM R13/P6000FT/N -SN BLSN OVC010 M13/M15 A3010 RMK BLSN4SC4 SLP236

CYQR;2009-01-12 08:00;CYQR 120800Z 02016KT 1SM R13/P6000FT/N -SN BLSN OVC010 M14/M17 A3017 RMK BLSN3SC5 PRESRR SLP259

CYQR;2009-01-12 08:24;CYQR 120824Z 01015KT 3SM -SN DRSN OVC007 M15/ REBLSN RMK SN2SC6

CYQR;2009-01-12 09:00;CYQR 120900Z 36018KT 4SM -SN DRSN BKN007 BKN050 M16/M19 A3024 REBLSN RMK SC5SC1 PRESRR SLP291

CYQR;2009-01-12 09:41;CYQR 120941Z 35019G24KT 5SM -SN DRSN SCT007 BKN060 M18/ RMK SC3SC4

CYQR;2009-01-12 10:00;CYQR 121000Z 36014KT 5SM -SN DRSN FEW010 OVC060 M18/M20 A3032 RMK SC2SC6 PRESRR SLP315

CYQR;2009-01-12 11:00;CYQR 121100Z 35016KT 6SM -SN DRSN OVC075 M19/M21 A3037 RMK AC8 SLP331

CYQR;2009-01-12 11:29;CYQR 121129Z 34016KT 8SM DRSN OVC067 M20/ RMK AC8

CYQR;2009-01-12 11:51;CYQR 121151Z 34018KT 8SM -SN DRSN OVC067 M20/ RMK AC8

CYQR;2009-01-12 12:00;CYQR 121200Z 34018KT 8SM -SN DRSN OVC067 M20/M22 A3040 RMK AC8 SLP346

CYQR;2009-01-12 12:32;CYQR 121232Z 34016KT 8SM DRSN BKN065 M20/ RMK SC7

CYQR;2009-01-12 13:00;CYQR 121300Z 35014KT 15SM DRSN BKN065 M21/M24 A3043 RMK SC7 SLP356

CYQR;2009-01-12 14:00;CYQR 121400Z 35014KT 15SM DRSN OVC065 M21/M24 A3048 RMK SC8 SLP370

CYQR;2009-01-12 15:00;CYQR 121500Z 34010KT 15SM OVC063 M21/M23 A3048 RMK SC8 SLP376

CYQR;2009-01-12 16:00;CYQR 121600Z 34010KT 15SM BKN045 OVC058 M20/M22 A3049 RMK SC7SC1 SLP377

CYQR;2009-01-12 17:00;CYQR 121700Z 32006KT 15SM BKN042 OVC053 M20/M23 A3052 RMK SC6SC2 SLP386

CYQR;2009-01-12 18:00;CYQR 121800Z 31006KT 12SM FEW055 OVC140 M20/M22 A3051 RMK SC2AC4 SLP387

CYQR;2009-01-12 18:18;CYQR 121818Z 33004KT 4SM -SN FEW057 OVC140 M20/ RMK SC2AS6

CYQR;2009-01-12 18:29;CYQR 121829Z 32005KT 2 1/2SM -SN FEW057 OVC140 M20/ RMK SC2AS6

CYQR;2009-01-12 18:43;CYQR 121843Z 33005KT 2 1/2SM -SN FEW044 OVC140 M20/ RMK SC1AS5 VIS VRB 2-3

CYQR;2009-01-12 19:00;CYQR 121900Z 33006KT 4SM -SN SCT044 BKN140 M20/M23 A3049 RMK SC2AS2 SLP381

CYQR;2009-01-12 20:00;CYQR 122000Z 30005KT 12SM FEW044 SCT075 BKN240 M21/M24 A3047 RMK SC1AC2CI0 SLP374

CYQR;2009-01-12 21:00;CYQR 122100Z 34002KT 15SM FEW038 BKN082 OVC096 M21/M24 A3045 RMK SC2AC4AC2 SLP371

CYQR;2009-01-12 21:49;CYQR 122149Z 00000KT 6SM -SN SCT029 OVC045 M20/ RMK SC2SC6

CYQR;2009-01-12 22:00;CYQR 122200Z 00000KT 5SM -SN SCT029 OVC053 M20/M24 A3043 RMK SC2SC4 SLP365

CYQR;2009-01-12 23:00;CYQR 122300Z 20003KT 4SM -SN BKN024 OVC057 M20/M23 A3040 RMK SC5SC3 SLP355

CYQR;2009-01-13 00:00;CYQR 130000Z 17006KT 12SM -SN BKN049 M20/M25 A3038 RMK SC6 SLP351

CYQR;2009-01-13 01:00;CYQR 130100Z 13004KT 12SM -SN OVC035 M20/M24 A3036 RMK SC8 SLP342

CYQR;2009-01-13 01:34;CYQR 130134Z 14007KT 4SM -SN BKN013 OVC029 M20/ RMK SC5SC3

CYQR;2009-01-13 01:41;CYQR 130141Z 14008KT 2 1/2SM -SN OVC011 M20/ RMK SC8

CYQR;2009-01-13 02:00;CYQR 130200Z 15007KT 2SM -SN OVC011 M20/M24 A3031 RMK SC8 SLP328

CYQR;2009-01-13 02:36;CYQR 130236Z 13009KT 3SM -SN BKN009 OVC051 M20/ RMK SC6SC2

CYQR;2009-01-13 02:49;CYQR 130249Z 13009KT 5SM -SN SCT009 OVC051 M20/ RMK SC4SC4

CYQR;2009-01-13 03:00;CYQR 130300Z 13008KT 8SM -SN SCT009 OVC051 M20/M24 A3030 RMK SC3SC5 /S01/ SLP321

CYQR;2009-01-13 04:00;CYQR 130400Z 12009KT 6SM -SN FEW009 OVC028 M20/M24 A3026 RMK SC2SC6 SLP309

CYQR;2009-01-13 04:48;CYQR 130448Z 13011KT 8SM -SN BKN014 OVC028 M20/ RMK SC5SC3

CYQR;2009-01-13 05:00;CYQR 130500Z 13012KT 8SM -SN BKN014 OVC028 M20/M24 A3023 RMK SC6SC2 SLP299

CYQR;2009-01-13 05:16;CYQR 130516Z 14013KT 2SM -SN OVC015 M20/ RMK SC8

CYQR;2009-01-13 06:00;CYQR 130600Z 13013KT 2 1/2SM -SN BKN013 M20/M24 A3018 RMK SC7 PRESFR /S02/ SLP279

CYQR;2009-01-13 06:07;CYQR 130607Z 13012KT 3SM -SN BKN013 M20/ RMK SC7

CYQR;2009-01-13 07:00;CYQR 130700Z 14016KT 10SM -SN SCT013 OVC024 M20/M24 A3014 RMK SC4SC4 SLP266

CYQR;2009-01-13 07:47;CYQR 130747Z 13017KT 2 1/2SM -SN OVC021 M19/ RMK SC8

CYQR;2009-01-13 07:55;CYQR 130755Z 13017KT 2SM -SN DRSN BKN010 OVC021 M19/ RMK SC5SC3

CYQR;2009-01-13 08:00;CYQR 130800Z 13017KT 2SM -SN DRSN BKN009 OVC021 M19/M23 A3009 RMK SC5SC3 VIS VRB 1 1/2 - 2 1/2 SLP251

CYQR;2009-01-13 08:51;CYQR 130851Z 13019G24KT 3SM -SN DRSN OVC009 M19/ RMK SC8

CYQR;2009-01-13 09:00;CYQR 130900Z 13019KT 3SM -SN DRSN BKN009 OVC025 M19/M23 A3001 RMK SC6SC2 PRESFR SLP223

CYQR;2009-01-13 09:27;CYQR 130927Z 13021KT 3SM -SN DRSN SCT009 OVC021 M19/ RMK SC3SC5

CYQR;2009-01-13 09:52;CYQR 130952Z 14020KT 1 1/2SM -SN DRSN OVC006 M19/ RMK SN2SC6 VIS VRB 1 - 2

CYQR;2009-01-13 10:00;CYQR 131000Z 13022KT 1 1/2SM -SN DRSN OVC006 M19/M23 A2999 RMK SN2SC6 VIS VRB 1 - 2 /S01/ SLP217

CYQR;2009-01-13 11:00;CYQR 131100Z 13019G26KT 1 1/2SM -SN BLSN OVC011 M19/M23 A2994 RMK SN2SC6 VIS VRB 1 - 2 /SO2/ SLP200

CYQR;2009-01-13 11:34;CYQR 131134Z 14021G27KT 1SM R13/5500FT/D -SN BLSN OVC005 M19/ RMK SN5SC3 VIS VRB 1/2 - 1 1/2

CYQR;2009-01-13 12:00;CYQR 131200Z 14025G31KT 3/4SM R13/3500VP6000FT/U -SN BLSN VV004 M19/M22 A2989 RMK SN8 VIS VRB 1/2 - 1 /S04/ SLP179

CYQR;2009-01-13 12:17;CYQR 131217Z 14025KT 1SM R13/5500FT/U -SN BLSN OVC003 M19/ RMK SN6SC2 VIS VRB 1/2 - 1 1/2

CYQR;2009-01-13 12:38;CYQR 131238Z 14024KT 2SM -SN BLSN OVC003 M19/ RMK SC8 VIS VRB 1 1/2 - 2 1/2

CYQR;2009-01-13 12:42;CYQR 131242Z 14022G27KT 2SM -SN BLSN OVC007 M19/ RMK SC8 VIS VRB 1 1/2 - 2 1/2

CYQR;2009-01-13 13:00;CYQR 131300Z 14022G29KT 2SM R13/3500VP6000FT/D -SN BLSN BKN009 OVC083 M19/M22 A2984 RMK SC6AC2 VIS VRB 1 1/2 - 2 1/2 SLP165

CYQR;2009-01-13 13:24;CYQR 131324Z 15023G30KT 1SM R13/P6000FT/D -SN BLSN SCT013 OVC083 M19/ RMK SN1SC3AC4

CYQR;2009-01-13 13:53;CYQR 131353Z CCA 14022G27KT 3/4SM R13/5500FT/D -SN BLSN VV008 M19/ RMK SN8

CYQR;2009-01-13 14:00;CYQR 131400Z 14020G27KT 3/4SM R13/5500FT/D -SN BLSN VV007 M19/M22 A2980 RMK SN8 SLP151

CYQR;2009-01-13 15:00;CYQR 131500Z 13022G27KT 3/4SM R13/3000VP6000FT/U -SN BLSN VV005 M19/M22 A2977 RMK SN8 VIS VRB 1/2-1 SLP136

CYQR;2009-01-13 15:11;CYQR 131511Z 13021G26KT 5/8SM R13/4500FT/D -SN BLSN VV004 M19/ RMK SN8 VIS VRB 1/2-3/4

CYQR;2009-01-13 16:00;CYQR 131600Z 13021G27KT 5/8SM R13/3500V5500FT/U -SN BLSN VV008 M19/M22 A2977 RMK SN8 VIS VRB 1/2-3/4 SLP136

CYQR;2009-01-13 16:14;CYQR 131614Z 12021G26KT 3/4SM R13/5000FT/D -SN BLSN OVC030 M19/ RMK SN2SC6

CYQR;2009-01-13 16:29;CYQR 131629Z 13022G28KT 1/2SM R13/2600VP6000FT/D -SN BLSN VV006 M19/ RMK SN8 VIS VRB 3/8-5/8

CYQR;2009-01-13 17:00;CYQR 131700Z 13024KT 1/2SM R13/3500FT/N -SN BLSN OVC059 M19/M23 A2977 RMK SN2SC6 /S01/ SLP136

CYQR;2009-01-13 17:15;CYQR 131715Z 13022G30KT 3/4SM R13/4000VP6000FT/U -SN BLSN OVC060 M19/ RMK SN2SC6 VIS VRB 1/2-1

CYQR;2009-01-13 18:00;CYQR 131800Z 12018G27KT 3/4SM R13/3000V4500FT/N -SN BLSN BKN055 OVC091 M19/M23 A2979 RMK SN2SC3AC2 VIS VRB 1/2-1 SLP144

CYQR;2009-01-13 18:40;CYQR 131840Z 11015G21KT 1 1/2SM -SN BLSN BKN053 OVC091 M19/ RMK SN2SC5AC2 VIS VRB 1-2

CYQR;2009-01-13 19:00;CYQR 131900Z 11018G24KT 2SM -SN BLSN BKN036 OVC048 M19/M23 A2981 RMK SC6SC2 VIS VRB 11/2-21/2 SLP150

CYQR;2009-01-13 19:12;CYQR 131912Z 11017KT 3SM -SN DRSN OVC036 M19/ RMK SN1SC7

CYQR;2009-01-13 20:00;CYQR 132000Z 10013KT 3SM -SN DRSN BKN038 OVC120 M18/M22 A2983 RMK SN1SC6AC1 SLP156

CYQR;2009-01-13 21:00;CYQR 132100Z 09008KT 15SM BKN026 M18/M23 A2988 RMK SC7 SLP174

CYQR;2009-01-13 22:00;CYQR 132200Z 07010G15KT 13SM -SN BKN040 M19/M24 A2996 RMK SC6 PRESRR SLP201

CYQR;2009-01-13 23:00;CYQR 132300Z 06009KT 15SM -SN OVC046 M19/M24 A3004 RMK SC8 PRESRR SLP226

CYQR;2009-01-14 00:00;CYQR 140000Z 08010KT 15SM -SN OVC054 M20/M26 A3010 RMK SC8 SLP252

CYQR;2009-01-14 01:00;CYQR 140100Z 06016KT 6SM -SN DRSN OVC060 M21/M27 A3016 RMK SC8 SLP270

CYQR;2009-01-14 02:00;CYQR 140200Z 07008KT 15SM -SN SCT060 OVC074 M21/M26 A3020 RMK SC4AC4 SLP285

CYQR;2009-01-14 02:51;CYQR 140251Z 05006KT 15SM OVC070 M21/ RMK AC8

CYQR;2009-01-14 03:00;CYQR 140300Z 06006KT 15SM OVC070 M22/M27 A3027 RMK AC8 PRESRR SLP310

CYQR;2009-01-14 04:00;CYQR 140400Z 36006KT 15SM FEW070 M25/M31 A3032 RMK AC2 PRESRR SLP327

CYQR;2009-01-14 04:50;CYQR 140450Z 01005KT 15SM FEW080 M25/ RMK AC2

CYQR;2009-01-14 05:00;CYQR 140500Z 01005KT 15SM FEW080 M26/M30 A3035 RMK AC2 SLP337

CYQR;2009-01-14 06:00;CYQR 140600Z 33007KT 15SM SCT100 M27/M32 A3039 RMK AC3 SLP359

CYQR;2009-01-14 07:00;CYQR 140700Z 34009KT 15SM BKN100 M26/M30 A3043 RMK AC6 SLP369

CYQR;2009-01-14 08:00;CYQR 140800Z 33004KT 15SM BKN100 M25/M30 A3046 RMK AC6 SLP379

CYQR;2009-01-14 09:00;CYQR 140900Z 34006KT 15SM BKN100 M25/M30 A3047 RMK AC6 SLP383

CYQR;2009-01-14 10:00;CYQR 141000Z 33010KT 15SM BKN100 M27/M31 A3051 RMK AC6 SLP396

CYQR;2009-01-14 11:00;CYQR 141100Z 34006KT 15SM FEW092 M28/M33 A3054 RMK AC2 SLP404

CYQR;2009-01-14 12:00;CYQR 141200Z 01004KT 15SM FEW092 M29/M33 A3055 RMK AC2 SLP417

CYQR;2009-01-14 12:31;CYQR 141231Z 32005KT 12SM FEW092 M31/ RMK AC2

CYQR;2009-01-14 12:38;CYQR 141238Z CCA 32005KT 12SM FEW092 M31/ RMK AC2 IC

CYQR;2009-01-14 13:00;CYQR 141300Z 34007KT 12SM FEW090 FEW240 M33/M38 A3058 RMK AC1CI1 IC SLP426

CYQR;2009-01-14 14:00;CYQR 141400Z 35006KT 15SM SKC M33/M38 A3058 RMK SLP427

CYQR;2009-01-14 15:00;CYQR 141500Z 36007KT 6SM IC FEW120 M34/M38 A3058 RMK AC1 SLP431

CYQR;2009-01-14 16:00;CYQR 141600Z 36004KT 6SM IC FEW120 SCT230 BKN260 M35/M39 A3061 RMK AC1CI1CI0 TR AC SLP440

CYQR;2009-01-14 17:00;CYQR 141700Z 03009KT 6SM IC FEW120 SCT230 BKN260 M32/M35 A3063 RMK AC1CI2CI1 TR AC SLP446

CYQR;2009-01-14 18:00;CYQR 141800Z 01006KT 6SM IC FEW120 SCT230 BKN260 M28/M32 A3063 RMK AC1CI2CI1 TR AC SLP447

CYQR;2009-01-14 19:00;CYQR 141900Z 32005KT 10SM FEW120 M29/M34 A3062 RMK AC2 SLP445

CYQR;2009-01-14 20:00;CYQR 142000Z 32007KT 10SM FEW120 M28/M33 A3063 RMK AC2 SLP446

CYQR;2009-01-14 21:00;CYQR 142100Z 30009KT 15SM FEW120 M30/M35 A3063 RMK AC1 SLP449

CYQR;2009-01-14 22:00;CYQR 142200Z 30007KT 15SM SKC M31/M36 A3063 RMK SLP448

CYQR;2009-01-14 23:00;CYQR 142300Z 28006KT 15SM SKC M31/M36 A3065 RMK SLP455

CYQR;2009-01-15 00:00;CYQR 150000Z 34003KT 15SM FEW120 M32/M37 A3064 RMK AC1 SLP456

CYQR;2009-01-15 01:00;CYQR 150100Z 28002KT 15SM SKC M35/M42 A3064 RMK SLP458

CYQR;2009-01-15 02:00;CYQR 150200Z 10004KT 15SM SKC M35/M39 A3064 RMK SLP458

CYQR;2009-01-15 03:00;CYQR 150300Z 10003KT 15SM SKC M37/M43 A3066 RMK SLP474

CYQR;2009-01-15 04:00;CYQR 150400Z 10004KT 15SM SKC M37/M40 A3066 RMK SLP472

CYQR;2009-01-15 05:00;CYQR 150500Z 11006KT 15SM SKC M33/M39 A3064 RMK SLP466

CYQR;2009-01-15 05:46;CYQR 150546Z 13007KT 1SM R13/P6000FT/D BR SKC

CYQR;2009-01-15 06:00;CYQR 150600Z 15007KT 1SM R13/P6000FT/U BR SKC M40/M45 A3062 RMK R13/P6000/U SLP457

CYQR;2009-01-15 06:15;CYQR 150615Z 15008KT 1/2SM R13/3000FT/N FG SKC M38/ RMK R13/3000/N

CYQR;2009-01-15 06:17;CYQR 150617Z 15008KT 1/4SM R13/3500FT/N FG SKC M38/ RMK R13/3500/N

CYQR;2009-01-15 07:00;CYQR 150700Z 16007KT 15SM SKC M36/M41 A3062 RMK SLP456

CYQR;2009-01-15 07:06;CYQR 150706Z 15007KT 3/4SM R13/P6000FT/N BR SKC M36/ RMK R13/P6000/N

CYQR;2009-01-15 07:26;CYQR 150726Z 15006KT 2SM BR SKC M36/

CYQR;2009-01-15 07:32;CYQR 150732Z 16007KT 6SM BR SKC

CYQR;2009-01-15 08:00;CYQR 150800Z 14006KT 6SM BR SKC M36/M41 A3061 RMK SLP452

CYQR;2009-01-15 08:35;CYQR 150835Z 12008KT 1/2SM R13/5000FT/D FG SKC RMK VIS VRB 1/2-11/2 SM R13/5000/D

CYQR;2009-01-15 08:37;CYQR 150837Z 12008KT 1/8SM R13/3500V5500FT/D FG VV000 RMK FG8

CYQR;2009-01-15 09:00;CYQR 150900Z 11007KT 1/4SM R13/3500FT/N FG VV001 M35/M40 A3058 RMK FG8 R13/3500/N SLP439

CYQR;2009-01-15 09:30;CYQR 150930Z 11008KT 1SM R13/P6000FT/U BR SKC

CYQR;2009-01-15 10:00;CYQR 151000Z 12007KT 2SM BR SKC M35/M39 A3054 RMK SLP427

CYQR;2009-01-15 11:00;CYQR 151100Z 12010KT 10SM SKC M34/M38 A3053 RMK SLP423

CYQR;2009-01-15 12:00;CYQR 151200Z 13011KT 10SM SKC M33/M38 A3051 RMK SLP416

CYQR;2009-01-15 13:00;CYQR 151300Z 13012KT 8SM FEW040 M33/M38 A3048 RMK SC2 BR SLP405

CYQR;2009-01-15 14:00;CYQR 151400Z 13012KT 6SM BR BKN110 BKN250 M32/M36 A3047 RMK AC6CI1 SLP402

CYQR;2009-01-15 15:00;CYQR 151500Z 14012KT 10SM BKN092 BKN250 M30/M35 A3045 RMK AC5CI1 BR SLP396

CYQR;2009-01-15 16:00;CYQR 151600Z 13010KT 10SM BKN110 OVC250 M28/M33 A3044 RMK AC7CI1 BR SLP393

CYQR;2009-01-15 17:00;CYQR 151700Z 14012KT 10SM FEW110 BKN250 M27/M32 A3042 RMK AC2CI6 BR SLP386

CYQR;2009-01-15 18:00;CYQR 151800Z 14013KT 15SM FEW085 SCT200 BKN260 M27/M31 A3038 RMK AC1CC2CI2 SLP372

CYQR;2009-01-15 19:00;CYQR 151900Z 14013KT 15SM FEW090 BKN250 M25/M30 A3035 RMK AC2CI4 CC EMBD SLP364

CYQR;2009-01-15 20:00;CYQR 152000Z 14011KT 15SM FEW110 SCT200 BKN260 M23/M28 A3030 RMK AC1CC2CI2 PRESFR SLP348

CYQR;2009-01-15 21:00;CYQR 152100Z 13011KT 15SM FEW110 SCT240 OVC320 M23/M27 A3028 RMK AC2CI1CI2 SLP329

CYQR;2009-01-15 22:00;CYQR 152200Z 13012KT 15SM FEW080 BKN110 OVC250 M22/M26 A3024 RMK AC2AC6CI1 SLP317

CYQR;2009-01-15 23:00;CYQR 152300Z 14014KT 15SM -SN DRSN SCT030 BKN055 OVC091 M20/M24 A3022 RMK SC4SC1AC3 SLP310

CYQR;2009-01-15 23:28;CYQR 152328Z 14014KT 2 1/2SM -SN DRSN OVC020 M20/ RMK SN3SC5

CYQR;2009-01-15 23:56;CYQR 152356Z 14013KT 1SM R13/P6000FT/D -SN DRSN VV015 M20/ RMK SN8

CYQR;2009-01-16 00:00;CYQR 160000Z 14012KT 1SM R13/P6000FT/N -SN DRSN VV015 M20/M24 A3021 RMK SN8 SLP300

CYQR;2009-01-16 00:35;CYQR 160035Z 14014KT 3SM -SN DRSN OVC050 M19/ RMK SN2SC6

CYQR;2009-01-16 01:00;CYQR 160100Z 14015KT 2SM -SN DRSN VV013 M19/M23 A3018 RMK SN8 SLP290

CYQR;2009-01-16 01:23;CYQR 160123Z 14014KT 3SM -SN DRSN OVC013 M19/ RMK SC8

CYQR;2009-01-16 01:42;CYQR 160142Z 14015KT 4SM -SN DRSN SCT026 OVC050 M19/ RMK SC4SC4

CYQR;2009-01-16 02:00;CYQR 160200Z 14014KT 2 1/2SM -SN DRSN OVC047 M18/M22 A3017 RMK SC8 SLP287

CYQR;2009-01-16 03:00;CYQR 160300Z 14016KT 2 1/2SM -SN DRSN OVC055 M18/M21 A3014 RMK SN1SC7 SLP271

CYQR;2009-01-16 04:00;CYQR 160400Z 14013KT 2 1/2SM -SN DRSN OVC025 OVC055 M17/M21 A3010 RMK SC7SC1 SLP259

CYQR;2009-01-16 04:08;CYQR 160408Z 14012KT 5SM -SN DRSN BKN023 OVC055 M17/ RMK SC6SC2

CYQR;2009-01-16 04:29;CYQR 160429Z 15012KT 5SM -SN DRSN FEW003 BKN012 OVC055 M16/ RMK SF1SC5SC2

CYQR;2009-01-16 04:42;CYQR 160442Z 14011KT 10SM -SN FEW003 BKN006 OVC021 M16/ RMK SF1SF5SC2

CYQR;2009-01-16 04:52;CYQR 160452Z 14012KT 10SM -SN BKN005 OVC021 M16/ RMK SF7SC1

CYQR;2009-01-16 05:00;CYQR 160500Z 14012KT 10SM -SN BKN005 OVC021 M16/M19 A3008 RMK SF7SC1 SLP253

CYQR;2009-01-16 05:06;CYQR 160506Z 14012KT 10SM -SN OVC003 M16/ RMK SF8

CYQR;2009-01-16 05:18;CYQR 160518Z 13014KT 2SM -SN OVC003 M16/ RMK SF8

CYQR;2009-01-16 05:30;CYQR 160530Z 13011KT 2SM -SN OVC005 M16/ RMK SF8

CYQR;2009-01-16 05:45;CYQR 160545Z 13010KT 2SM -SN -FZDZ OVC005 M15/ RMK SF8

CYQR;2009-01-16 06:00;CYQR 160600Z 13010KT 2SM -SN -FZDZ OVC005 M15/M18 A3006 RMK SF8 SLP241

CYQR;2009-01-16 06:13;CYQR 160613Z 13010KT 5SM -SN -FZDZ OVC006 M15/ RMK SF8

CYQR;2009-01-16 07:00;CYQR 160700Z 13010KT 10SM -SN OVC006 M14/M17 A3004 REFZDZ RMK SF8 VIS E 4 SLP233

CYQR;2009-01-16 07:38;CYQR 160738Z 13009KT 12SM OVC005 M14/ RMK SF8

CYQR;2009-01-16 08:00;CYQR 160800Z 13010KT 12SM OVC004 M14/M16 A3003 RMK SF8 SLP230

CYQR;2009-01-16 08:21;CYQR 160821Z 14009KT 12SM OVC003 M14/ RMK SF8 VIS E 2

CYQR;2009-01-16 08:43;CYQR 160843Z 12008KT 6SM -SN OVC003 M14/ RMK SF8 VIS E 11/2

CYQR;2009-01-16 09:00;CYQR 160900Z 13009KT 3SM -SN BR OVC003 M14/M16 A3002 RMK SF8 VIS E 1 SLP221

CYQR;2009-01-16 09:09;CYQR 160909Z 13010KT 2SM -SN BR OVC003 M14/ RMK SF8 VIS E 1

CYQR;2009-01-16 09:32;CYQR 160932Z CCA 13008KT 1 1/2SM -SN BR OVC003 M14/ RMK SF8 FROIN

CYQR;2009-01-16 09:44;CYQR 160944Z CCA 13009KT 1SM R13/P6000FT/D -SN BR BKN002 OVC010 M14/ RMK SF6SC1 FROIN

CYQR;2009-01-16 10:00;CYQR 161000Z 13007KT 1 1/2SM -SN BR BKN002 OVC015 M13/M15 A3002 RMK SF6SC1 FROIN SLP222

CYQR;2009-01-16 10:44;CYQR 161044Z 14006KT 3SM -SN BR BKN001 OVC015 M14/ RMK SF6SC1 FROIN

CYQR;2009-01-16 11:00;CYQR 161100Z 13006KT 2SM BR BKN001 OVC015 M14/M16 A3001 RMK SF6SC1 SLP218

CYQR;2009-01-16 11:15;CYQR 161115Z 14005KT 3SM BR BKN002 OVC026 M13/ RMK SF5SC2

CYQR;2009-01-16 11:38;CYQR 161138Z 13007KT 4SM BR SCT002 BKN026 BKN300 M15/ RMK SF4SC2CI1 VIS E 2

CYQR;2009-01-16 12:00;CYQR 161200Z 14005KT 4SM BR SCT001 BKN025 BKN300 M14/M17 A2999 RMK SF4SC2CI1 VIS E 2 SLP210

CYQR;2009-01-16 13:00;CYQR 161300Z 12007KT 5SM BR FEW001 FEW300 M15/M18 A2998 RMK SF1CI1 SLP205

CYQR;2009-01-16 13:24;CYQR 161324Z 14006KT 3SM BR OVC002 OVC087 M16/ RMK SF7AC1

CYQR;2009-01-16 13:40;CYQR 161340Z 12006KT 3SM BR OVC001 OVC090 M16/ RMK SF7AC1

CYQR;2009-01-16 14:00;CYQR 161400Z 12008KT 3SM BR BKN001 OVC090 M16/M18 A2995 RMK SF6AC1 SLP197

CYQR;2009-01-16 14:47;CYQR 161447Z 11006KT 3SM BR SCT001 SCT030 BKN090 OVC300 M16/ RMK SF2SC2AC1CI1

CYQR;2009-01-16 15:00;CYQR 161500Z 12004KT 6SM BR FEW030 SCT090 BKN240 OVC300 M16/M19 A2992 RMK SC2AC2CI1CI0 SLP184

CYQR;2009-01-16 16:00;CYQR 161600Z 15006KT 6SM BR FEW030 BKN075 BKN240 M15/M18 A2990 RMK SC1AC4CI1 SLP180

CYQR;2009-01-16 17:00;CYQR 161700Z 16006KT 6SM BR BKN240 BKN300 M14/M16 A2987 RMK CI3CI2 SLP168

CYQR;2009-01-16 18:00;CYQR 161800Z 00000KT 10SM SCT088 BKN240 OVC300 M10/M12 A2983 RMK AC3CI2CI1 BR SLP149

CYQR;2009-01-16 19:00;CYQR 161900Z 31002KT 12SM SCT088 OVC240 M08/M09 A2981 RMK AC4CI2 SLP143

CYQR;2009-01-16 20:00;CYQR 162000Z 28018KT 12SM BKN240 BKN300 M04/M05 A2977 RMK CI5CI1 SLP130

CYQR;2009-01-16 21:00;CYQR 162100Z 28018KT 15SM SCT095 M01/M05 A2974 RMK AC4 SLP111

CYQR;2009-01-16 22:00;CYQR 162200Z 30026KT 12SM DRSN SCT092 BKN250 M01/M04 A2975 RMK AC4CI0 SLP113

CYQR;2009-01-16 23:00;CYQR 162300Z CCA 31026G31KT 10SM DRSN VCBLSN FEW110 SCT250 M01/M03 A2978 RMK AC2CI1 VIS SW-W 6 SLP122

CYQR;2009-01-17 00:00;CYQR 170000Z 32024G29KT 15SM DRSN VCBLSN SCT110 M02/M04 A2984 RMK AC3 SLP143

CYQR;2009-01-17 01:00;CYQR 170100Z 32025KT 15SM DRSN SKC M03/M05 A2986 RMK SLP152

CYQR;2009-01-17 02:00;CYQR 170200Z 31025KT 15SM DRSN SKC M03/M05 A2991 RMK SLP168

CYQR;2009-01-17 03:00;CYQR 170300Z 30020G25KT 15SM DRSN SKC M04/M05 A2994 RMK SLP180

CYQR;2009-01-17 04:00;CYQR 170400Z 29023KT 15SM DRSN SKC M04/M05 A2996 RMK SLP187

CYQR;2009-01-17 05:00;CYQR 170500Z 32014KT 15SM SKC M03/M05 A2999 RMK SLP197

CYQR;2009-01-17 06:00;CYQR 170600Z 32014KT 15SM SKC M03/M05 A3003 RMK SLP206

CYQR;2009-01-17 07:00;CYQR 170700Z 32018KT 15SM SKC M03/M05 A3003 RMK SLP207

CYQR;2009-01-17 08:00;CYQR 170800Z 33017KT 15SM SCT140 M03/M05 A3005 RMK AC2 SLP214

CYQR;2009-01-17 09:00;CYQR 170900Z 31015KT 15SM SCT160 M04/M06 A3007 RMK AC3 SLP216

CYQR;2009-01-17 10:00;CYQR 171000Z 30014KT 15SM FEW160 BKN250 M05/M07 A3010 RMK AC1CI2 SLP226

CYQR;2009-01-17 11:00;CYQR 171100Z 31017KT 15SM SCT250 M06/M08 A3009 RMK CI1 SLP223

CYQR;2009-01-17 12:00;CYQR 171200Z 30017KT 15SM FEW250 M07/M08 A3011 RMK CI0 SLP233

CYQR;2009-01-17 13:00;CYQR 171300Z 30013KT 15SM SKC M07/M09 A3014 RMK SLP240

CYQR;2009-01-17 14:00;CYQR 171400Z 28012KT 15SM FEW100 M08/M10 A3013 RMK AC1 SLP238

CYQR;2009-01-17 15:00;CYQR 171500Z 30012KT 15SM FEW100 BKN250 M08/M10 A3014 RMK AC1CI3 SLP243

CYQR;2009-01-17 16:00;CYQR 171600Z 28009KT 15SM FEW100 FEW250 M09/M11 A3013 RMK AC1CI0 SLP242

CYQR;2009-01-17 17:00;CYQR 171700Z 28013KT 15SM FEW250 M07/M10 A3012 RMK CI1 SLP237

CYQR;2009-01-17 18:00;CYQR 171800Z 30012KT 15SM FEW250 M06/M08 A3010 RMK CI0 SLP229

CYQR;2009-01-17 19:00;CYQR 171900Z 31015KT 15SM FEW250 M04/M07 A3010 RMK CI0 SLP230

CYQR;2009-01-17 20:00;CYQR 172000Z 31022KT 15SM DRSN FEW220 SCT250 M04/M06 A3009 RMK CI1CI0 SLP225

CYQR;2009-01-17 21:00;CYQR 172100Z 31023KT 15SM DRSN FEW250 M03/M06 A3008 RMK CI1 SLP220

CYQR;2009-01-17 22:00;CYQR 172200Z 32020KT 15SM DRSN FEW240 M03/M06 A3010 RMK CI1 SLP227

CYQR;2009-01-17 23:00;CYQR 172300Z 30016KT 15SM DRSN FEW160 SCT240 M04/M06 A3012 RMK AC1CI0 SLP233

CYQR;2009-01-18 00:00;CYQR 180000Z 32014KT 15SM DRSN FEW160 SCT240 M05/M08 A3012 RMK AC1CI1 TR AC SLP237

CYQR;2009-01-18 01:00;CYQR 180100Z 31009KT 15SM FEW240 M06/M09 A3013 RMK CI0 SLP241

CYQR;2009-01-18 02:00;CYQR 180200Z 30012KT 15SM FEW240 M07/M09 A3013 RMK CI0 SLP239

CYQR;2009-01-18 03:00;CYQR 180300Z 30015KT 15SM FEW250 M06/M08 A3011 RMK CI0 SLP237

CYQR;2009-01-18 04:00;CYQR 180400Z 30015KT 15SM SKC M05/M08 A3010 RMK SLP234

CYQR;2009-01-18 05:00;CYQR 180500Z 30010KT 15SM FEW240 M07/M09 A3010 RMK CI0 SLP234

CYQR;2009-01-18 06:00;CYQR 180600Z 28011KT 15SM FEW240 M06/M09 A3009 RMK CI0 SLP228

CYQR;2009-01-18 07:00;CYQR 180700Z 27011KT 15SM SCT240 M06/M08 A3007 RMK CI2 SLP222

CYQR;2009-01-18 08:00;CYQR 180800Z 28018KT 15SM BKN240 M05/M08 A3004 RMK CI2 SLP212

CYQR;2009-01-18 09:00;CYQR 180900Z 29016KT 15SM BKN240 M03/M06 A3003 RMK CI2 SLP203

CYQR;2009-01-18 10:00;CYQR 181000Z 31012KT 15SM FEW093 SCT240 M03/M06 A3004 RMK AC1CI1 SLP205

CYQR;2009-01-18 11:00;CYQR 181100Z 31013KT 15SM FEW250 M03/M06 A3003 RMK CI0 SLP203

CYQR;2009-01-18 12:00;CYQR 181200Z 32018KT 15SM FEW240 M03/M06 A3004 RMK CI0 SLP205

CYQR;2009-01-18 13:00;CYQR 181300Z 32019KT 15SM FEW240 M02/M05 A3007 RMK CI0 SLP216

CYQR;2009-01-18 14:00;CYQR 181400Z 32010KT 15SM SCT240 M04/M07 A3008 RMK CI2 SLP219

CYQR;2009-01-18 15:00;CYQR 181500Z 32015KT 15SM FEW090 BKN240 M03/M07 A3010 RMK AC1CI1 SLP228

CYQR;2009-01-18 16:00;CYQR 181600Z 32014KT 15SM FEW095 BKN240 M04/M07 A3011 RMK AC1CI0 SLP232

CYQR;2009-01-18 17:00;CYQR 181700Z 30013KT 15SM BKN240 M04/M07 A3013 RMK CI2 SLP238

CYQR;2009-01-18 18:00;CYQR 181800Z 30016KT 15SM FEW170 BKN240 M03/M06 A3013 RMK AC1CI5 TR AC SLP239

CYQR;2009-01-18 19:00;CYQR 181900Z 31015KT 15SM FEW170 BKN240 M02/M05 A3013 RMK AC2CI2 SLP239

CYQR;2009-01-18 20:00;CYQR 182000Z 31021KT 15SM FEW150 BKN240 M00/M03 A3010 RMK AC1CI1 SLP230

CYQR;2009-01-18 21:00;CYQR 182100Z 32019KT 15SM FEW150 BKN240 00/M03 A3011 RMK AC1CI1 SLP229

CYQR;2009-01-18 22:00;CYQR 182200Z 32016KT 15SM FEW150 BKN240 M00/M04 A3014 RMK AC1CI2 SLP236

CYQR;2009-01-18 23:00;CYQR 182300Z 31013KT 15SM FEW150 BKN240 M00/M03 A3016 RMK AC1CI2 SLP243

CYQR;2009-01-19 00:00;CYQR 190000Z 29010KT 15SM BKN120 BKN150 BKN240 M02/M05 A3016 RMK AC6AC1CI2 SLP247

CYQR;2009-01-19 01:00;CYQR 190100Z 29014KT 15SM BKN120 BKN240 M01/M04 A3014 RMK AC2CI2 SLP240

CYQR;2009-01-19 02:00;CYQR 190200Z 28018KT 15SM FEW120 BKN240 M01/M04 A3012 RMK AC1CI2 SLP234

CYQR;2009-01-19 03:00;CYQR 190300Z 30017KT 15SM FEW240 M02/M05 A3010 RMK CI0 SLP227

CYQR;2009-01-19 04:00;CYQR 190400Z 30016KT 15SM SKC M03/M06 A3010 RMK SLP226

CYQR;2009-01-19 05:00;CYQR 190500Z 30015KT 15SM SKC M04/M07 A3011 RMK SLP228

CYQR;2009-01-19 06:00;CYQR 190600Z 31013KT 15SM SKC M04/M08 A3011 RMK SLP230

CYQR;2009-01-19 07:00;CYQR 190700Z 32013KT 15SM SKC M04/M08 A3012 RMK SLP235

CYQR;2009-01-19 08:00;CYQR 190800Z 33015KT 15SM SKC M03/M07 A3013 RMK SLP236

CYQR;2009-01-19 09:00;CYQR 190900Z 33015KT 15SM SKC M05/M08 A3017 RMK SLP248

CYQR;2009-01-19 10:00;CYQR 191000Z 33017KT 15SM SKC M03/M07 A3019 RMK SLP254

CYQR;2009-01-19 11:00;CYQR 191100Z 34015KT 15SM SKC M04/M07 A3021 RMK SLP261

CYQR;2009-01-19 12:00;CYQR 191200Z 34015KT 15SM SKC M05/M08 A3023 RMK SLP270

CYQR;2009-01-19 13:00;CYQR 191300Z 34010KT 15SM FEW240 M07/M09 A3025 RMK CI0 SLP277

CYQR;2009-01-19 14:00;CYQR 191400Z 30008KT 15SM FEW240 M08/M10 A3027 RMK CI0 SLP284

CYQR;2009-01-19 15:00;CYQR 191500Z 30013KT 15SM FEW240 M07/M10 A3028 RMK CI1 SLP289

CYQR;2009-01-19 16:00;CYQR 191600Z 31013KT 15SM SKC M07/M10 A3029 RMK SLP294

CYQR;2009-01-19 17:00;CYQR 191700Z 30015KT 15SM SKC M06/M09 A3031 RMK SLP299

CYQR;2009-01-19 18:00;CYQR 191800Z 31007KT 15SM SKC M05/M08 A3032 RMK SLP304

CYQR;2009-01-19 19:00;CYQR 191900Z 30009KT 15SM SKC M05/M08 A3032 RMK SLP304

CYQR;2009-01-19 20:00;CYQR 192000Z 30007KT 15SM SKC M04/M07 A3030 RMK SLP299

CYQR;2009-01-19 21:00;CYQR 192100Z 32006KT 15SM SKC M04/M07 A3030 RMK SLP297

CYQR;2009-01-19 22:00;CYQR 192200Z 30007KT 15SM SKC M05/M08 A3031 RMK SLP299

CYQR;2009-01-19 23:00;CYQR 192300Z 27003KT 15SM SKC M06/M09 A3032 RMK SLP302

CYQR;2009-01-20 00:00;CYQR 200000Z 29003KT 15SM SKC M07/M10 A3030 RMK SLP300

CYQR;2009-01-20 01:00;CYQR 200100Z 25004KT 15SM SKC M07/M09 A3027 RMK SLP291

CYQR;2009-01-20 02:00;CYQR 200200Z 18005KT 15SM SKC M10/M11 A3025 RMK SLP283

CYQR;2009-01-20 03:00;CYQR 200300Z 16007KT 12SM SKC M11/M12 A3021 RMK SLP274

CYQR;2009-01-20 04:00;CYQR 200400Z 17005KT 12SM SKC M12/M14 A3020 RMK SLP269

CYQR;2009-01-20 05:00;CYQR 200500Z 18004KT 15SM SKC M10/M13 A3017 RMK SLP260

CYQR;2009-01-20 06:00;CYQR 200600Z 13006KT 15SM SKC M14/M16 A3013 RMK SLP247

CYQR;2009-01-20 07:00;CYQR 200700Z 13005KT 15SM SKC M15/M16 A3010 RMK SLP237

CYQR;2009-01-20 08:00;CYQR 200800Z 13002KT 15SM SKC M16/M17 A3008 RMK SLP231

CYQR;2009-01-20 09:00;CYQR 200900Z 27010KT 15SM SKC M16/M16 A3005 RMK SLP219

CYQR;2009-01-20 10:00;CYQR 201000Z 28006KT 15SM SKC M16/M17 A3003 RMK SLP213

CYQR;2009-01-20 11:00;CYQR 201100Z 28010KT 15SM SKC M15/M17 A3002 RMK SLP211

CYQR;2009-01-20 12:00;CYQR 201200Z 29011KT 15SM SKC M15/M17 A3002 RMK SLP211

CYQR;2009-01-20 13:00;CYQR 201300Z 31012KT 15SM SKC M13/M15 A3002 RMK FROIN SLP211

CYQR;2009-01-20 14:00;CYQR 201400Z 31013KT 15SM SKC M10/M13 A3003 RMK SLP214

CYQR;2009-01-20 15:00;CYQR 201500Z 30013KT 15SM SKC M09/M13 A3004 RMK SLP216

CYQR;2009-01-20 16:00;CYQR 201600Z 30009KT 15SM SKC M10/M13 A3006 RMK SLP223

CYQR;2009-01-20 17:00;CYQR 201700Z 31015KT 15SM SKC M08/M12 A3006 RMK SLP223

CYQR;2009-01-20 18:00;CYQR 201800Z 29008KT 15SM SKC M08/M11 A3007 RMK SLP227

CYQR;2009-01-20 19:00;CYQR 201900Z 30010KT 15SM FEW250 M06/M10 A3005 RMK CI1 SLP223

CYQR;2009-01-20 20:00;CYQR 202000Z 30009KT 15SM FEW250 M06/M10 A3004 RMK CI1 SLP217

CYQR;2009-01-20 21:00;CYQR 202100Z 31011KT 15SM FEW250 M05/M09 A3002 RMK CI0 SLP211

CYQR;2009-01-20 22:00;CYQR 202200Z 33007KT 15SM FEW250 FEW280 M07/M10 A3001 RMK CI1CI1 SLP208

CYQR;2009-01-20 23:00;CYQR 202300Z 34008KT 15SM SCT250 M08/M11 A3001 RMK CI1 SLP208

CYQR;2009-01-21 00:00;CYQR 210000Z 34005KT 15SM FEW250 M08/M11 A3001 RMK CI1 SLP209

CYQR;2009-01-21 01:00;CYQR 210100Z 25007KT 15SM FEW250 M13/M14 A3001 RMK CI1 SLP208

CYQR;2009-01-21 02:00;CYQR 210200Z 27007KT 15SM FEW250 M13/M14 A3000 RMK CI1 SLP204

CYQR;2009-01-21 03:00;CYQR 210300Z 30007KT 15SM FEW250 M13/M15 A2997 RMK CI1 SLP195

CYQR;2009-01-21 04:00;CYQR 210400Z 27007KT 15SM FEW250 M14/M15 A2997 RMK CI1 SLP195

CYQR;2009-01-21 05:00;CYQR 210500Z CCA 27008KT 15SM FEW250 M15/M16 A2996 RMK CI1 BR SLP192

CYQR;2009-01-21 06:00;CYQR 210600Z 27009KT 15SM SKC M13/M15 A2996 RMK SLP189

CYQR;2009-01-21 07:00;CYQR 210700Z 28011KT 15SM SKC M15/M16 A2995 RMK SLP187

CYQR;2009-01-21 08:00;CYQR 210800Z 29007KT 15SM FEW250 M15/M17 A2994 RMK CI1 SLP184

CYQR;2009-01-21 09:00;CYQR 210900Z CCB 30004KT 15SM FEW250 M15/M17 A2993 RMK CI2 FROIN SLP179

CYQR;2009-01-21 10:00;CYQR 211000Z 28010KT 15SM FEW250 M16/M18 A2993 RMK CI2 SLP178

CYQR;2009-01-21 11:00;CYQR 211100Z 29008KT 15SM SKC M16/M18 A2990 RMK SLP169

CYQR;2009-01-21 12:00;CYQR 211200Z 29008KT 15SM FEW250 M16/M17 A2990 RMK CI1 SLP170

CYQR;2009-01-21 13:00;CYQR 211300Z 30002KT 12SM FEW100 SCT250 M15/M17 A2988 RMK AC1CI1 FROIN SLP165

CYQR;2009-01-21 14:00;CYQR 211400Z 30005KT 15SM FEW120 BKN250 M15/M16 A2988 RMK AC2CI1 SLP163

CYQR;2009-01-21 15:00;CYQR 211500Z 31006KT 15SM FEW120 FEW250 M16/M18 A2988 RMK AC1CI1 SLP168

CYQR;2009-01-21 16:00;CYQR 211600Z 34003KT 15SM FEW100 FEW250 M15/M17 A2987 RMK AC1CI0 SLP166

CYQR;2009-01-21 17:00;CYQR 211700Z 20024KT 15SM FEW100 FEW250 M13/M16 A2988 RMK AC1CI1 SLP167

CYQR;2009-01-21 18:00;CYQR 211800Z 27006KT 15SM FEW100 FEW250 M11/M14 A2987 RMK AC1CI1 SLP160

CYQR;2009-01-21 19:00;CYQR 211900Z 30005KT 15SM FEW100 FEW250 M10/M14 A2986 RMK AC1CI1 SLP158

CYQR;2009-01-21 20:00;CYQR 212000Z 30003KT 15SM FEW250 M09/M13 A2983 RMK CI1 SLP149

CYQR;2009-01-21 21:00;CYQR 212100Z 31002KT 15SM FEW250 M08/M12 A2983 RMK CI1 SLP146

CYQR;2009-01-21 22:00;CYQR 212200Z 30003KT 15SM FEW250 M09/M12 A2982 RMK CI0 SLP144

CYQR;2009-01-21 23:00;CYQR 212300Z 31004KT 15SM FEW250 M10/M13 A2982 RMK CI0 SLP142

CYQR;2009-01-22 00:00;CYQR 220000Z 27002KT 15SM FEW250 M12/M14 A2980 RMK CI0 SLP139

CYQR;2009-01-22 01:00;CYQR 220100Z 32003KT 15SM SKC M11/M13 A2981 RMK SLP142

CYQR;2009-01-22 02:00;CYQR 220200Z 27004KT 15SM SKC M15/M16 A2980 RMK SLP138

CYQR;2009-01-22 03:00;CYQR 220300Z 28003KT 10SM SKC M16/M18 A2979 RMK BR SLP139

CYQR;2009-01-22 04:00;CYQR 220400Z 00000KT 10SM SKC M19/M21 A2978 RMK BR SLP137

CYQR;2009-01-22 05:00;CYQR 220500Z 00000KT 6SM BR SKC M15/M17 A2977 RMK SLP134

CYQR;2009-01-22 06:00;CYQR 220600Z 25004KT 6SM R13/3000VP6000FT/D BR MIFG SKC M18/M19 A2976 RMK SLP128

CYQR;2009-01-22 07:00;CYQR 220700Z 27005KT 2 1/2SM BR MIFG SKC M20/M22 A2975 RMK SLP123

CYQR;2009-01-22 08:00;CYQR 220800Z 34002KT 2 1/2SM R13/4500VP6000FT/U BR MIFG SKC M17/M19 A2974 RMK SLP120

CYQR;2009-01-22 09:00;CYQR 220900Z 00000KT 2 1/2SM BR MIFG SKC M18/M19 A2974 RMK SLP115

CYQR;2009-01-22 09:40;CYQR 220940Z 00000KT 4SM BR SKC M20/

CYQR;2009-01-22 10:00;CYQR 221000Z 17002KT 4SM BR SKC M20/M22 A2973 RMK SLP112

CYQR;2009-01-22 11:00;CYQR 221100Z 00000KT 6SM BR SKC M19/M21 A2972 RMK SLP109

CYQR;2009-01-22 12:00;CYQR 221200Z 15002KT 6SM BR SKC M20/M22 A2970 RMK SLP108

CYQR;2009-01-22 13:00;CYQR 221300Z 00000KT 5SM BR FEW002 M20/M21 A2971 RMK SF1 FROIN SLP112

CYQR;2009-01-22 14:00;CYQR 221400Z 00000KT 5SM BR SCT070 M20/M22 A2972 RMK AC4 SLP115

CYQR;2009-01-22 14:53;CYQR 221453Z 33007KT 3SM BR BKN005 M20/ RMK SF6

CYQR;2009-01-22 15:00;CYQR 221500Z 33008KT 3SM BR BKN004 M20/M21 A2974 RMK SF6 SLP124

CYQR;2009-01-22 15:16;CYQR 221516Z 32010KT 1/2SM R13/4000VP6000FT/D FZFG OVC070 M18/ RMK FG3AC4

CYQR;2009-01-22 15:51;CYQR 221551Z 34010KT 1SM R13/P6000FT/U BR OVC070 M18/ RMK FG2AC6

CYQR;2009-01-22 16:00;CYQR 221600Z 33011KT 1 1/2SM BR OVC070 M18/M20 A2977 RMK FG2AC6 SLP135

CYQR;2009-01-22 16:25;CYQR 221625Z 31013KT 1 1/2SM -SN BR OVC070 M18/ RMK FG5AC3 VIS VRB 1-2

CYQR;2009-01-22 17:00;CYQR 221700Z CCA 32011KT 1SM R13/P6000FT/N -SN BR OVC070 M18/M20 A2981 RMK FG6AC2 PRESRR SLP149

CYQR;2009-01-22 17:13;CYQR 221713Z 32010KT 1SM R13/P6000FT/N -SN BR BKN003 OVC070 M18/ RMK FG4SF1AC3

CYQR;2009-01-22 17:41;CYQR 221741Z 31013KT 1SM R13/P6000FT/N -SN DRSN BR OVC002 M17/ RMK FG4SF4

CYQR;2009-01-22 18:00;CYQR 221800Z 32012KT 1SM R13/P6000FT/D -SN BR BKN002 OVC070 M17/M18 A2986 RMK FG3SF2AC2 SLP164

CYQR;2009-01-22 18:34;CYQR 221834Z 32013KT 2SM -SN DRSN BR BKN003 OVC010 M16/ RMK FG2SF5SC2

CYQR;2009-01-22 18:44;CYQR 221844Z 32012KT 3SM -SN DRSN SCT003 BKN012 OVC070 M16/ RMK SN2SF2SC3AC2

CYQR;2009-01-22 19:00;CYQR 221900Z 33014KT 3SM -SN DRSN FEW003 BKN014 OVC070 M15/M17 A2989 RMK SN1SF1SC3AC3 SLP175

CYQR;2009-01-22 19:36;CYQR 221936Z 32014KT 2SM -SN DRSN BR OVC010 M13/ RMK SN3SC5 VIS VRB 11/2-21/2

CYQR;2009-01-22 19:51;CYQR 221951Z 33017KT 1 1/4SM -SN DRSN BR BKN010 OVC026 M13/ RMK SN2SC5SC2 VIS VRB 1-11/2

CYQR;2009-01-22 20:00;CYQR 222000Z 33019KT 1 1/2SM -SN DRSN BR BKN012 OVC018 M12/M14 A2992 RMK SN1SC6SC1 VIS VRB 1-2 SLP183

CYQR;2009-01-22 20:11;CYQR 222011Z 33015KT 4SM -SN DRSN BR OVC018 M12/ RMK SC7

CYQR;2009-01-22 20:45;CYQR 222045Z 33021G26KT 2SM -SN BLSN BKN022 BKN056 M11/ RMK SC6SC1

CYQR;2009-01-22 21:00;CYQR 222100Z 33020KT 2SM -SN BLSN BKN022 BKN060 M10/M12 A2994 RMK SC5SC2 SLP186

CYQR;2009-01-22 22:00;CYQR 222200Z 33019KT 3SM BLSN SCT007 BKN048 BKN075 BKN280 M10/M12 A2998 RMK SF2SC2AC1CI0 INTMT -SN SLP199

CYQR;2009-01-22 23:00;CYQR 222300Z 33022G28KT 3SM -SN BLSN FEW007 BKN046 BKN075 BKN260 M12/M14 A3004 RMK SF1SC5AC1CI0 PRESRR SLP220

CYQR;2009-01-23 00:00;CYQR 230000Z 34023G29KT 3SM -SN BLSN FEW010 SCT030 SCT075 BKN250 M15/M17 A3009 RMK SF1SC2AC1CI1 SLP247

CYQR;2009-01-23 01:00;CYQR 230100Z 35017G22KT 11SM -SN DRSN FEW010 BKN049 M16/M18 A3016 REBLSN RMK SF1SC6 PRESRR SLP269

CYQR;2009-01-23 02:00;CYQR 230200Z 34018KT 12SM -SN DRSN OVC049 M16/M18 A3021 RMK SC8 SLP285

CYQR;2009-01-23 03:00;CYQR 230300Z 36020G26KT 12SM -SN DRSN FEW010 OVC049 M17/M20 A3025 RMK SF1SC8 SLP301

CYQR;2009-01-23 03:50;CYQR 230350Z 35019KT 15SM FEW014 BKN055 M19/ RMK SC2SC3

CYQR;2009-01-23 04:00;CYQR 230400Z 34014KT 15SM FEW014 BKN055 M19/M21 A3029 RMK SC2SC3 SLP315

CYQR;2009-01-23 05:00;CYQR 230500Z 33013KT 15SM FEW014 FEW060 M20/M22 A3032 RMK SC1SC1 SLP324

CYQR;2009-01-23 06:00;CYQR 230600Z 34012KT 15SM SKC M21/M23 A3036 RMK SLP342

CYQR;2009-01-23 07:00;CYQR 230700Z 34012KT 15SM SKC M22/M24 A3040 RMK SLP355

CYQR;2009-01-23 08:00;CYQR 230800Z 32012KT 10SM -SN FEW003 FEW060 M23/M24 A3043 RMK ST1SC2 SLP365

CYQR;2009-01-23 09:00;CYQR 230900Z 32014KT 2 1/2SM -SN BR FEW060 M23/M25 A3046 RMK SC2 SLP372

CYQR;2009-01-23 10:00;CYQR 231000Z 33018KT 1 1/2SM -SN BR FEW060 M23/M25 A3049 RMK SC2 SLP380

CYQR;2009-01-23 11:00;CYQR 231100Z 33014KT 1 1/2SM -SN BR FEW060 M24/M26 A3050 RMK SC2 SLP385

CYQR;2009-01-23 12:00;CYQR 231200Z 31009KT 1 1/2SM -SN BR FEW060 M25/M27 A3054 RMK SC2 FROIN SLP404

CYQR;2009-01-23 12:39;CYQR 231239Z 33014KT 2 1/2SM -SN BR FEW060 M26/ RMK SC2

CYQR;2009-01-23 13:00;CYQR 231300Z 32015KT 3SM -SN BR FEW060 SCT240 M25/M27 A3054 RMK SC2CI0 FROIN SLP406

CYQR;2009-01-23 14:00;CYQR 231400Z 31014KT 6SM IC SCT080 BKN280 M26/M29 A3058 RMK AC3CI1 SLP416

CYQR;2009-01-23 14:41;CYQR 231441Z 29014KT 2 1/2SM IC FEW080 SCT280 M28/ RMK AC2CI1

CYQR;2009-01-23 15:00;CYQR 231500Z 30014KT 2 1/2SM IC FEW080 SCT280 M28/M33 A3060 RMK AC2CI1 SLP429

CYQR;2009-01-23 16:00;CYQR 231600Z 31017KT 3SM IC SKC M28/M33 A3061 RMK SLP431

CYQR;2009-01-23 17:00;CYQR 231700Z 31014KT 3SM IC SKC M27/M32 A3063 RMK SLP437

CYQR;2009-01-23 18:00;CYQR 231800Z 31013KT 5SM IC SKC M26/M31 A3064 RMK SLP444

CYQR;2009-01-23 19:00;CYQR 231900Z 31015KT 6SM IC FEW250 M25/M30 A3063 RMK CI1 SLP442

CYQR;2009-01-23 20:00;CYQR 232000Z 31016KT 6SM IC FEW250 M25/M30 A3062 RMK CI0 SLP438

CYQR;2009-01-23 21:00;CYQR 232100Z 30012KT 15SM FEW250 M25/M30 A3063 RMK CI0 SLP441

CYQR;2009-01-23 22:00;CYQR 232200Z 30012KT 12SM FEW250 M25/M30 A3062 RMK CI1 SLP440

CYQR;2009-01-23 23:00;CYQR 232300Z 30013KT 15SM FEW100 FEW250 M26/M31 A3062 RMK AC1CI0 SLP438

CYQR;2009-01-24 00:00;CYQR 240000Z 29013KT 15SM FEW250 M28/M33 A3062 RMK CI1 SLP441

CYQR;2009-01-24 01:00;CYQR 240100Z 28010KT 15SM FEW250 M29/M34 A3061 RMK CI1 SLP439

CYQR;2009-01-24 02:00;CYQR 240200Z 26006KT 15SM SKC M30/M34 A3060 RMK SLP437

CYQR;2009-01-24 03:00;CYQR 240300Z 31008KT 15SM SKC M31/M36 A3059 RMK SLP438

CYQR;2009-01-24 04:00;CYQR 240400Z 31008KT 15SM BCFG SKC M31/M36 A3058 RMK SLP435

CYQR;2009-01-24 04:33;CYQR 240433Z 29007KT 15SM BCFG SKC M31/

CYQR;2009-01-24 05:00;CYQR 240500Z 30013KT 15SM BCFG SKC M30/M35 A3057 RMK SLP431

CYQR;2009-01-24 06:00;CYQR 240600Z 31004KT 6SM BR SKC M31/M36 A3058 RMK SLP431

CYQR;2009-01-24 07:00;CYQR 240700Z 30009KT 15SM SKC M30/M35 A3056 RMK SLP425

CYQR;2009-01-24 08:00;CYQR 240800Z 30012KT 15SM SKC M30/M35 A3054 RMK SLP421

CYQR;2009-01-24 09:00;CYQR 240900Z 28010KT 15SM SKC M32/M36 A3053 RMK SLP416

CYQR;2009-01-24 10:00;CYQR 241000Z 30008KT 15SM SKC M32/M37 A3052 RMK SLP411

CYQR;2009-01-24 11:00;CYQR 241100Z 28010KT 15SM SKC M33/M38 A3050 RMK SLP405

CYQR;2009-01-24 12:00;CYQR 241200Z 30009KT 15SM SKC M33/M37 A3048 RMK SLP403

CYQR;2009-01-24 13:00;CYQR 241300Z 28006KT 12SM SKC M34/M38 A3047 RMK SLP399

CYQR;2009-01-24 14:00;CYQR 241400Z 28010KT 15SM FEW230 M34/M39 A3047 RMK CI0 SLP397

CYQR;2009-01-24 15:00;CYQR 241500Z 28011KT 6SM IC FEW240 M33/M38 A3047 RMK CI0 SLP399

CYQR;2009-01-24 16:00;CYQR 241600Z 30009KT 3SM IC FEW240 M32/M37 A3047 RMK CI0 SLP400

CYQR;2009-01-24 17:00;CYQR 241700Z 28010KT 3SM IC FEW230 M30/M35 A3047 RMK CI1 SLP399

CYQR;2009-01-24 18:00;CYQR 241800Z 29009KT 4SM IC FEW230 M29/M34 A3046 RMK CI1 SLP393

CYQR;2009-01-24 19:00;CYQR 241900Z 29009KT 8SM FEW230 M28/M32 A3043 RMK CI1 IC SLP383

CYQR;2009-01-24 20:00;CYQR 242000Z 31012KT 15SM FEW230 M26/M31 A3040 RMK CI1 IC SLP374

CYQR;2009-01-24 21:00;CYQR 242100Z 29009KT 15SM FEW230 M25/M30 A3040 RMK CI1 SLP369

CYQR;2009-01-24 22:00;CYQR 242200Z 28016KT 15SM FEW230 M25/M30 A3038 RMK CI1 SLP363

CYQR;2009-01-24 23:00;CYQR 242300Z 30008KT 15SM FEW230 M26/M30 A3038 RMK CI1 SLP362

CYQR;2009-01-25 00:00;CYQR 250000Z 29012KT 15SM FEW230 M26/M31 A3035 RMK CI1 SLP355

CYQR;2009-01-25 01:00;CYQR 250100Z 29015KT 15SM SKC M27/M32 A3034 RMK SLP353

CYQR;2009-01-25 02:00;CYQR 250200Z 29013KT 15SM SKC M27/M32 A3034 RMK SLP353

CYQR;2009-01-25 03:00;CYQR 250300Z 28015KT 15SM SKC M26/M31 A3034 RMK SLP351

CYQR;2009-01-25 04:00;CYQR 250400Z 27016KT 15SM SKC M27/M32 A3032 RMK SLP345

CYQR;2009-01-25 05:00;CYQR 250500Z 26015KT 15SM SKC M29/M34 A3032 RMK SLP344

CYQR;2009-01-25 06:00;CYQR 250600Z 28012KT 15SM SKC M29/M34 A3032 RMK SLP342

CYQR;2009-01-25 07:00;CYQR 250700Z 28015KT 15SM SKC M29/M34 A3030 RMK SLP338

CYQR;2009-01-25 08:00;CYQR 250800Z 28015KT 15SM SKC M28/M32 A3029 RMK SLP334

CYQR;2009-01-25 09:00;CYQR 250900Z 27012KT 15SM SKC M29/M34 A3028 RMK SLP328

CYQR;2009-01-25 10:00;CYQR 251000Z 27012KT 15SM SKC M30/M35 A3027 RMK SLP322

CYQR;2009-01-25 11:00;CYQR 251100Z 24006KT 15SM SKC M31/M35 A3026 RMK SLP319

CYQR;2009-01-25 12:00;CYQR 251200Z 27011KT 15SM SKC M30/M35 A3024 RMK SLP316

CYQR;2009-01-25 13:00;CYQR 251300Z 28009KT 15SM SKC M31/M36 A3023 RMK SLP312

CYQR;2009-01-25 14:00;CYQR 251400Z 28013KT 15SM FEW210 M31/M36 A3023 RMK CI1 SLP310

CYQR;2009-01-25 15:00;CYQR 251500Z 29014KT 15SM FEW210 M30/M35 A3023 RMK CI1 SLP310

CYQR;2009-01-25 16:00;CYQR 251600Z 27007KT 15SM FEW210 M29/M34 A3023 RMK CI1 SLP312

CYQR;2009-01-25 17:00;CYQR 251700Z 29016KT 15SM FEW210 M28/M33 A3023 RMK CI1 SLP312

CYQR;2009-01-25 18:00;CYQR 251800Z 29010KT 15SM FEW240 M27/M32 A3023 RMK CI0 SLP312

CYQR;2009-01-25 19:00;CYQR 251900Z 29010KT 15SM FEW240 M25/M31 A3023 RMK CI0 SLP311

CYQR;2009-01-25 20:00;CYQR 252000Z 28007KT 15SM FEW240 M25/M30 A3023 RMK CI1 SLP309

CYQR;2009-01-25 21:00;CYQR 252100Z 29007KT 15SM FEW240 M24/M30 A3023 RMK CI1 SLP307

CYQR;2009-01-25 22:00;CYQR 252200Z 30004KT 15SM SKC M24/M30 A3023 RMK SLP308

CYQR;2009-01-25 23:00;CYQR 252300Z 28007KT 15SM SKC M26/M31 A3023 RMK SLP309

CYQR;2009-01-26 00:00;CYQR 260000Z 28007KT 15SM SKC M28/M32 A3024 RMK SLP317

CYQR;2009-01-26 01:00;CYQR 260100Z 27007KT 15SM SKC M29/M34 A3025 RMK SLP320

CYQR;2009-01-26 02:00;CYQR 260200Z 28008KT 15SM SKC M30/M35 A3026 RMK SLP323

CYQR;2009-01-26 03:00;CYQR 260300Z 26008KT 15SM SKC M32/M38 A3027 RMK SLP330

CYQR;2009-01-26 04:00;CYQR 260400Z 30014KT 15SM SKC M31/M35 A3028 RMK SLP332

CYQR;2009-01-26 05:00;CYQR 260500Z 29009KT 8SM SKC M33/M37 A3029 RMK BR SLP336

CYQR;2009-01-26 05:35;CYQR 260535Z 30009KT 5SM IC SKC M32/

CYQR;2009-01-26 06:00;CYQR 260600Z 31006KT 5SM IC SKC M32/M37 A3029 RMK SLP336

CYQR;2009-01-26 06:19;CYQR 260619Z 28005KT 15SM SKC M32/

CYQR;2009-01-26 07:00;CYQR 260700Z 27009KT 15SM SKC M34/M38 A3030 RMK SLP338

CYQR;2009-01-26 08:00;CYQR 260800Z 29011KT 15SM SKC M34/M39 A3032 RMK SLP343

CYQR;2009-01-26 09:00;CYQR 260900Z 29007KT 15SM SKC M34/M38 A3032 RMK SLP342

CYQR;2009-01-26 10:00;CYQR 261000Z 29006KT 15SM SKC M35/M39 A3032 RMK SLP344

CYQR;2009-01-26 11:00;CYQR 261100Z 30007KT 15SM SKC M34/M39 A3031 RMK SLP340

CYQR;2009-01-26 12:00;CYQR 261200Z 32007KT 15SM SKC M34/M39 A3031 RMK FROIN BR SLP342

CYQR;2009-01-26 12:24;CYQR 261224Z 28005KT 15SM SKC M34/

CYQR;2009-01-26 12:33;CYQR 261233Z 27008KT 10SM SKC M35/

CYQR;2009-01-26 13:00;CYQR 261300Z 27009KT 10SM SKC M34/M39 A3031 RMK SLP342

CYQR;2009-01-26 14:00;CYQR 261400Z 28003KT 15SM SKC M35/M39 A3032 RMK SLP347

CYQR;2009-01-26 15:00;CYQR 261500Z 25004KT 15SM FEW140 M36/M41 A3033 RMK AC1 SLP355

CYQR;2009-01-26 16:00;CYQR 261600Z 27002KT 15SM SKC M32/M37 A3033 RMK SLP356

CYQR;2009-01-26 17:00;CYQR 261700Z 23002KT 15SM SKC M32/M37 A3033 RMK SLP356

CYQR;2009-01-26 18:00;CYQR 261800Z 28002KT 15SM FEW240 M30/M35 A3033 RMK CI0 SLP352

CYQR;2009-01-26 19:00;CYQR 261900Z 22003KT 15SM SKC M27/M32 A3032 RMK SLP347

CYQR;2009-01-26 20:00;CYQR 262000Z 27004KT 15SM SKC M25/M30 A3030 RMK SLP341

CYQR;2009-01-26 21:00;CYQR 262100Z 25008KT 15SM SKC M24/M29 A3029 RMK SLP332

CYQR;2009-01-26 22:00;CYQR 262200Z 23006KT 15SM SKC M24/M29 A3028 RMK SLP329

CYQR;2009-01-26 23:00;CYQR 262300Z 22007KT 15SM SKC M25/M31 A3026 RMK SLP324

CYQR;2009-01-27 00:00;CYQR 270000Z 22007KT 15SM SKC M27/M32 A3025 RMK SLP323

CYQR;2009-01-27 01:00;CYQR 270100Z 20006KT 15SM SKC M28/M33 A3024 RMK SLP318

CYQR;2009-01-27 02:00;CYQR 270200Z 19007KT 15SM SKC M27/M32 A3023 RMK SLP314

CYQR;2009-01-27 03:00;CYQR 270300Z 18008KT 15SM SKC M29/M33 A3021 RMK SLP310

CYQR;2009-01-27 04:00;CYQR 270400Z 19010KT 15SM SKC M28/M33 A3019 RMK SLP306

CYQR;2009-01-27 05:00;CYQR 270500Z 18010KT 15SM SKC M29/M34 A3017 RMK SLP297

CYQR;2009-01-27 06:00;CYQR 270600Z 20005KT 15SM SKC M27/M32 A3015 RMK SLP283

CYQR;2009-01-27 07:00;CYQR 270700Z 17008KT 15SM SKC M28/M33 A3011 RMK SLP271

CYQR;2009-01-27 08:00;CYQR 270800Z 16010KT 15SM SKC M27/M32 A3009 RMK SLP264

CYQR;2009-01-27 09:00;CYQR 270900Z 14011KT 15SM SKC M28/M34 A3004 RMK SLP244

CYQR;2009-01-27 10:00;CYQR 271000Z 14012KT 15SM SKC M30/M35 A3001 RMK SLP233

CYQR;2009-01-27 11:00;CYQR 271100Z 14011KT 10SM SKC M28/M33 A2997 RMK SLP219

CYQR;2009-01-27 12:00;CYQR 271200Z 13012KT 15SM SKC M30/M35 A2993 RMK PRESFR SLP207

CYQR;2009-01-27 13:00;CYQR 271300Z 15011KT 15SM FEW240 M27/M32 A2989 RMK CI1 FROIN SLP193

CYQR;2009-01-27 14:00;CYQR 271400Z 14010KT 15SM SKC M29/M33 A2985 RMK SLP181

CYQR;2009-01-27 15:00;CYQR 271500Z 13012KT 15SM SCT250 M27/M32 A2982 RMK CI1 SLP168

CYQR;2009-01-27 16:00;CYQR 271600Z 15015KT 15SM SCT095 OVC250 M21/M27 A2979 RMK AC3CI2 SLP160

CYQR;2009-01-27 17:00;CYQR 271700Z 14013KT 15SM FEW095 BKN250 M22/M27 A2975 RMK AC2CI3 SLP148

CYQR;2009-01-27 18:00;CYQR 271800Z 16013G18KT 15SM SCT095 OVC250 M18/M24 A2970 RMK AC3CI3 SLP120

CYQR;2009-01-27 19:00;CYQR 271900Z 17014KT 15SM BKN095 OVC250 M16/M22 A2966 RMK AC5CI2 SLP106

CYQR;2009-01-27 20:00;CYQR 272000Z 18014G19KT 15SM BKN095 OVC250 M14/M20 A2959 RMK AC6CI2 PRESFR SLP085

CYQR;2009-01-27 21:00;CYQR 272100Z 19008KT 15SM BKN095 OVC250 M12/M17 A2956 RMK AC6CI2 SLP068

CYQR;2009-01-27 22:00;CYQR 272200Z 22014KT 15SM BKN075 OVC250 M10/M10 A2953 RMK AC6CI2 SLP056

CYQR;2009-01-27 23:00;CYQR 272300Z 24015KT 15SM SCT074 OVC250 M09/M13 A2952 RMK AC4CI4 SLP053

CYQR;2009-01-28 00:00;CYQR 280000Z 25010KT 15SM SCT058 OVC250 M09/M12 A2949 RMK SC4CI4 SLP042

CYQR;2009-01-28 01:00;CYQR 280100Z 25011KT 15SM -SN OVC038 M08/M10 A2949 RMK SC8 SLP042

CYQR;2009-01-28 02:00;CYQR 280200Z 25010KT 3SM -SN BKN009 OVC055 M07/M09 A2948 RMK SN6SC1SC1 SLP038

CYQR;2009-01-28 03:00;CYQR 280300Z 25007KT 6SM -SN BKN009 OVC067 M06/M08 A2946 RMK SN2SC3AC3 SLP027

CYQR;2009-01-28 03:28;CYQR 280328Z 27007KT 6SM -SN BKN017 OVC061 M06/ RMK SC6SC2

CYQR;2009-01-28 04:00;CYQR 280400Z 25004KT 8SM -SN OVC019 M06/M08 A2947 RMK SC8 SLP029

CYQR;2009-01-28 04:45;CYQR 280445Z 28008KT 15SM SCT026 M07/ RMK SC3

CYQR;2009-01-28 05:00;CYQR 280500Z 26006KT 15SM FEW013 SCT026 BKN048 M09/M10 A2946 RMK SC1SC2SC1 SLP027

CYQR;2009-01-28 06:00;CYQR 280600Z 24009KT 15SM SCT045 M11/M12 A2946 RMK SC3 OBS TKN -03 SLP023

CYQR;2009-01-28 06:42;CYQR 280642Z 29014KT 15SM BKN014 OVC027 M07/ RMK SC7SC1

CYQR;2009-01-28 07:00;CYQR 280700Z 29015KT 15SM OVC017 M07/M09 A2946 RMK SC8 SLP023

CYQR;2009-01-28 07:39;CYQR 280739Z 28010KT 15SM OVC013 M07/ RMK SC8

CYQR;2009-01-28 08:00;CYQR 280800Z 28012KT 15SM OVC010 M07/M09 A2949 RMK SC8 SLP031

CYQR;2009-01-28 08:47;CYQR 280847Z 29013KT 15SM -SN OVC010 RMK SC8

CYQR;2009-01-28 08:48;CYQR 280848Z CCA 29013KT 15SM -SN OVC010 M07/ RMK SC8

CYQR;2009-01-28 09:00;CYQR 280900Z 29013KT 15SM -SN OVC010 M06/M08 A2950 RMK SC8 SLP029

CYQR;2009-01-28 10:00;CYQR 281000Z 28015KT 10SM -SN OVC009 M06/M07 A2952 RMK SC8 SLP034

CYQR;2009-01-28 10:54;CYQR 281054Z 29018KT 3SM -SN BKN007 OVC015 M05/ RMK SC7SC1

CYQR;2009-01-28 11:00;CYQR 281100Z 29017KT 2 1/2SM -SN VV007 M05/M07 A2952 RMK SN8 SLP035

CYQR;2009-01-28 11:27;CYQR 281127Z 29017KT 1 1/2SM -SN VV008 M05/ RMK SN8

CYQR;2009-01-28 11:34;CYQR 281134Z 29017KT 1 1/2SM -SN VV005 M05/ RMK SN8

CYQR;2009-01-28 12:00;CYQR 281200Z 30018KT 1 1/2SM -SN VV006 M05/M07 A2954 RMK SN8 SLP039

CYQR;2009-01-28 12:43;CYQR 281243Z 30016KT 1 1/2SM -SN VV008 M05/ RMK SN8

CYQR;2009-01-28 13:00;CYQR 281300Z 30015KT 2SM -SN OVC015 M05/M07 A2956 RMK SN3SC5 SLP045

CYQR;2009-01-28 13:12;CYQR 281312Z 31014KT 1 1/2SM -SN VV009 M05/ RMK SN8

CYQR;2009-01-28 13:31;CYQR 281331Z 31015KT 3SM -SN OVC008 M05/ RMK SN1SC7

CYQR;2009-01-28 13:51;CYQR 281351Z 33014KT 5SM -SN DRSN BKN005 OVC091 M05/ RMK SF6AC2

CYQR;2009-01-28 14:00;CYQR 281400Z 34017KT 5SM -SN DRSN BKN006 OVC089 M06/M07 A2959 RMK SF6AC2 SLP056

CYQR;2009-01-28 14:20;CYQR 281420Z 35013G18KT 5SM -SN DRSN SCT006 OVC071 M07/ RMK SF4AC4

CYQR;2009-01-28 15:00;CYQR 281500Z 34012KT 6SM -SN DRSN BKN011 OVC071 M08/M10 A2963 RMK SC5AC2 SLP069

CYQR;2009-01-28 15:33;CYQR 281533Z 33013KT 10SM -SN DRSN SCT012 BKN024 OVC048 M08/ RMK SC3SC3SC2

CYQR;2009-01-28 16:00;CYQR 281600Z 33012KT 2SM -SHSN DRSN BKN012 OVC026 M07/M09 A2966 RMK SC6SC2 SLP080

CYQR;2009-01-28 16:31;CYQR 281631Z 32011KT 6SM -SHSN DRSN BKN012 OVC042 M08/ RMK SC5SC3

CYQR;2009-01-28 17:00;CYQR 281700Z 33011KT 12SM -SHSN DRSN BKN010 OVC042 M07/M10 A2968 RMK SC5SC3 SLP087

CYQR;2009-01-28 18:00;CYQR 281800Z 34015KT 12SM -SHSN DRSN OVC010 M08/M10 A2971 RMK SC8 SLP103

CYQR;2009-01-28 19:00;CYQR 281900Z 35011KT 12SM -SHSN DRSN OVC012 M08/M11 A2973 RMK SC8 SLP108

CYQR;2009-01-28 20:00;CYQR 282000Z 34014KT 3SM -SHSN DRSN OVC018 M09/M12 A2975 RMK SC8 SLP115

CYQR;2009-01-28 20:30;CYQR 282030Z 33013KT 2SM -SHSN DRSN BKN015 OVC024 M11/ RMK SC5SC3

CYQR;2009-01-28 20:58;CYQR 282058Z 33014KT 10SM -SHSN DRSN OVC028 M12/ RMK SC8

CYQR;2009-01-28 21:00;CYQR 282100Z 33013KT 10SM -SHSN DRSN OVC028 M09/M12 A2976 RMK SC8 SLP116

CYQR;2009-01-28 21:27;CYQR 282127Z 33012KT 12SM DRSN FEW021 FEW057 BKN300 M10/ RMK SC1SC1CI1

CYQR;2009-01-28 21:45;CYQR 282145Z 33013KT 6SM -SN DRSN BKN016 BKN057 OVC300 M10/ RMK SC5SC2CI0

CYQR;2009-01-28 22:00;CYQR 282200Z 32013KT 6SM -SN DRSN BKN016 OVC057 M10/M12 A2979 RMK SC7SC1 SLP126

CYQR;2009-01-28 22:19;CYQR 282219Z 32013KT 7SM -SN DRSN BKN012 BKN066 OVC300 M10/ RMK SC5AC2CI2

CYQR;2009-01-28 23:00;CYQR 282300Z 32012KT 4SM -SN DRSN SCT016 BKN066 OVC300 M10/M12 A2982 RMK SC4AC2CI1 SLP136

CYQR;2009-01-29 00:00;CYQR 290000Z 33010KT 8SM R13/4000VP6000FT/D -SN DRSN OVC024 M10/M12 A2985 RMK SC8 SLP148

CYQR;2009-01-29 01:00;CYQR 290100Z 32007KT 15SM -SN OVC020 M10/M12 A2987 RMK SC8 SLP153

CYQR;2009-01-29 02:00;CYQR 290200Z 31004KT 15SM -SN OVC018 M10/M12 A2989 RMK SC8 SLP159

CYQR;2009-01-29 03:00;CYQR 290300Z 29011KT 15SM -SN OVC014 M09/M11 A2988 RMK SC8 SLP159

CYQR;2009-01-29 04:00;CYQR 290400Z 31016KT 15SM -SN OVC014 M08/M11 A2989 RMK SC8 SLP163

CYQR;2009-01-29 05:00;CYQR 290500Z 33018G24KT 10SM -SN OVC015 M09/M12 A2992 RMK SC8 OBS TAKEN +10 SLP172

CYQR;2009-01-29 06:00;CYQR 290600Z 32013KT 13SM -SN OVC024 M09/M11 A2994 RMK SC8 SLP180

CYQR;2009-01-29 07:00;CYQR 290700Z 31018KT 15SM -SN BKN033 M09/M12 A2995 RMK SC6 SLP182

CYQR;2009-01-29 08:00;CYQR 290800Z 30019KT 15SM -SN BKN033 M10/M13 A2996 RMK SC7 SLP186

CYQR;2009-01-29 09:00;CYQR 290900Z 31015G20KT 15SM FEW034 M14/M16 A2997 RMK SC2 SLP195

CYQR;2009-01-29 10:00;CYQR 291000Z 30014KT 15SM SKC M16/M18 A2998 RMK SLP197

CYQR;2009-01-29 11:00;CYQR 291100Z 30010KT 15SM BKN027 M17/M18 A2999 RMK SC5 SLP199

CYQR;2009-01-29 12:00;CYQR 291200Z 28011KT 15SM BKN025 BKN045 M16/M18 A2998 RMK SC5SC1 SLP201

CYQR;2009-01-29 13:00;CYQR 291300Z 29008KT 15SM FEW023 BKN034 M16/M18 A2999 RMK SC2SC3 SLP202

CYQR;2009-01-29 14:00;CYQR 291400Z 31006KT 15SM FEW006 FEW023 M17/M19 A2999 RMK SC1SC2 SLP202

CYQR;2009-01-29 15:00;CYQR 291500Z 28008KT 15SM BKN027 BKN094 M15/M16 A3000 RMK SC6AC1 SLP204

CYQR;2009-01-29 16:00;CYQR 291600Z 25005KT 15SM FEW027 SCT090 M17/M18 A3000 RMK SC1AC2 SLP205

CYQR;2009-01-29 17:00;CYQR 291700Z 27008KT 15SM SCT090 BKN250 M16/M17 A2999 RMK AC2CI3 SLP203

CYQR;2009-01-29 18:00;CYQR 291800Z 26007KT 15SM FEW093 BKN250 M13/M15 A2998 RMK AC2CI3 SLP195

CYQR;2009-01-29 19:00;CYQR 291900Z 25008KT 15SM FEW090 BKN250 M11/M14 A2995 RMK AC2CI4 CONTRAILS SLP186

CYQR;2009-01-29 20:00;CYQR 292000Z 25008KT 15SM SCT100 OVC250 M10/M12 A2992 RMK AC3CI5 SLP177

CYQR;2009-01-29 21:00;CYQR 292100Z 19006KT 15SM FEW100 SCT150 OVC250 M09/M12 A2989 RMK AC2AC2CI3 SLP168

CYQR;2009-01-29 22:00;CYQR 292200Z 16007KT 15SM BKN032 OVC095 M09/M11 A2990 RMK SC6AC2 SLP171

CYQR;2009-01-29 22:15;CYQR 292215Z 16006KT 12SM -SN OVC021 M09/ RMK SC8

CYQR;2009-01-29 22:39;CYQR 292239Z 16007KT 2SM -SN OVC021 M08/ RMK SN2SC6

CYQR;2009-01-29 23:00;CYQR 292300Z 15006KT 1 1/2SM -SN OVC017 M09/M11 A2989 RMK SN2SC6 SLP168

CYQR;2009-01-29 23:08;CYQR 292308Z 15007KT 1SM R13/P6000FT/N -SN VV011 M09/ RMK SN8

CYQR;2009-01-29 23:34;CYQR 292334Z 15006KT 1SM R13/P6000FT/U -SN VV008 M09/ RMK SN8

CYQR;2009-01-30 00:00;CYQR 300000Z 14007KT 2SM -SN VV008 M08/M10 A2987 RMK SN8 SLP162

CYQR;2009-01-30 00:17;CYQR 300017Z 14007KT 4SM -SN OVC010 M08/ RMK SC8

CYQR;2009-01-30 00:42;CYQR 300042Z 13007KT 12SM -SN OVC022 M08/ RMK SC8

CYQR;2009-01-30 01:00;CYQR 300100Z 14007KT 15SM -SN OVC024 M08/M10 A2986 RMK SC8 SLP157

CYQR;2009-01-30 01:45;CYQR 300145Z 16007KT 15SM BKN052 M08/ RMK SC6 /S01/

CYQR;2009-01-30 02:00;CYQR 300200Z 16007KT 15SM BKN052 BKN250 M08/M10 A2983 RMK SC6CI0 SLP149

CYQR;2009-01-30 03:00;CYQR 300300Z 16006KT 15SM BKN056 M10/M12 A2981 RMK SC7 SLP141

CYQR;2009-01-30 04:00;CYQR 300400Z 18006KT 15SM BKN043 M10/M12 A2981 RMK SC6 SLP139

CYQR;2009-01-30 05:00;CYQR 300500Z 27006KT 15SM FEW020 BKN035 M08/M10 A2982 RMK SC1SC7 SLP143

CYQR;2009-01-30 06:00;CYQR 300600Z 26009KT 15SM OVC014 M06/M08 A2982 RMK SC8 SLP140

CYQR;2009-01-30 07:00;CYQR 300700Z 29006KT 15SM OVC012 M05/M07 A2984 RMK SC8 SLP144

CYQR;2009-01-30 08:00;CYQR 300800Z 33008KT 15SM OVC012 M04/M06 A2984 RMK SC8 SLP147

CYQR;2009-01-30 09:00;CYQR 300900Z 31010KT 15SM BKN014 OVC035 M05/M06 A2986 RMK SC6SC2 SLP151

CYQR;2009-01-30 10:00;CYQR 301000Z 30009KT 15SM BKN014 OVC022 M04/M06 A2988 RMK SC7SC1 SLP157

CYQR;2009-01-30 11:00;CYQR 301100Z 29012KT 15SM BKN016 OVC031 M04/M05 A2989 RMK SC7SC1 SLP158

CYQR;2009-01-30 12:00;CYQR 301200Z 29007KT 15SM BKN022 M06/M07 A2988 RMK SC5 SLP157

CYQR;2009-01-30 12:38;CYQR 301238Z 30006KT 12SM -SN OVC026 M05/ RMK SC8

CYQR;2009-01-30 13:00;CYQR 301300Z 29007KT 10SM -SN OVC024 M05/M07 A2989 RMK SC8 SLP159

CYQR;2009-01-30 14:00;CYQR 301400Z 25005KT 12SM -SN SCT024 OVC056 M05/M06 A2988 RMK SC3SC5 SLP155

CYQR;2009-01-30 14:25;CYQR 301425Z 25007KT 12SM BKN019 OVC035 M04/ RMK SC5SC3

CYQR;2009-01-30 14:49;CYQR 301449Z 24008KT 6SM -FZRA BR BKN019 OVC031 M03/ RMK SC6SC2

CYQR;2009-01-30 15:00;CYQR 301500Z 24010KT 5SM -FZRA BR BKN019 OVC027 M02/M04 A2985 RMK SC6SC2 SLP146

CYQR;2009-01-30 15:16;CYQR 301516Z 25007KT 6SM BR BKN006 OVC015 M02/ REFZRA RMK ST6SC2

CYQR;2009-01-30 16:00;CYQR 301600Z 21007KT 6SM BR SCT006 OVC009 M02/M03 A2984 REFZRA RMK SF3SC5 SLP143

CYQR;2009-01-30 16:29;CYQR 301629Z 19005KT 10SM OVC005 M01/ RMK ST8

CYQR;2009-01-30 17:00;CYQR 301700Z 19007KT 12SM SCT006 BKN054 OVC100 M02/M03 A2983 RMK ST4SC2AC1 SLP137

CYQR;2009-01-30 18:00;CYQR 301800Z 26008KT 15SM FEW054 OVC250 M01/M03 A2980 RMK SC2CI3 SLP123

CYQR;2009-01-30 19:00;CYQR 301900Z 27007KT 15SM FEW054 BKN250 M00/M04 A2977 RMK SC2CI3 SLP115

CYQR;2009-01-30 20:00;CYQR 302000Z 28008KT 15SM FEW079 OVC250 M00/M04 A2973 RMK AC2CI3 SLP102

CYQR;2009-01-30 21:00;CYQR 302100Z 28021KT 15SM SCT085 OVC250 02/M02 A2971 RMK AC4CI3 SLP089

CYQR;2009-01-30 22:00;CYQR 302200Z 27015KT 15SM FEW091 OVC250 01/M02 A2969 RMK AC2CI6 SLP085

CYQR;2009-01-30 23:00;CYQR 302300Z 28016KT 15SM FEW091 OVC250 00/M03 A2968 RMK AC2CI6 SLP079

CYQR;2009-01-31 00:00;CYQR 310000Z 26013KT 15SM FEW100 OVC250 M00/M04 A2964 RMK AC2CI4 SLP070

CYQR;2009-01-31 01:00;CYQR 310100Z 24009KT 15SM FEW100 OVC250 M02/M05 A2961 RMK AC2CI4 SLP058

CYQR;2009-01-31 02:00;CYQR 310200Z 29004KT 15SM OVC250 M03/M05 A2956 RMK CI6 SLP042

CYQR;2009-01-31 03:00;CYQR 310300Z 27014KT 15SM OVC250 M01/M05 A2952 RMK CI6 SLP024

CYQR;2009-01-31 04:00;CYQR 310400Z 27015KT 15SM OVC120 M01/M04 A2948 RMK AC8 SLP012

CYQR;2009-01-31 05:00;CYQR 310500Z 27015KT 15SM OVC120 M01/M04 A2945 RMK AC8 SLP004

CYQR;2009-01-31 06:00;CYQR 310600Z 27013KT 15SM OVC120 M01/M04 A2943 RMK AC8 SLP993

CYQR;2009-01-31 07:00;CYQR 310700Z 26011G17KT 15SM OVC120 M01/M04 A2939 RMK AC8 SLP981

CYQR;2009-01-31 08:00;CYQR 310800Z 22009KT 15SM OVC120 M01/M04 A2935 RMK AC8 SLP968

CYQR;2009-01-31 09:00;CYQR 310900Z 19008KT 15SM OVC120 M02/M05 A2932 RMK AC8 SLP954

CYQR;2009-01-31 10:00;CYQR 311000Z 25011KT 15SM BKN120 00/M05 A2930 RMK AC6 SLP948

CYQR;2009-01-31 11:00;CYQR 311100Z 28023KT 15SM FEW250 02/M03 A2926 RMK CI0 SLP935

CYQR;2009-01-31 12:00;CYQR 311200Z 30031KT 10SM BKN092 M01/M02 A2927 RMK AC5 SLP937

CYQR;2009-01-31 12:29;CYQR 311229Z 30034G41KT 5SM BLSN OVC064 M01/ RMK SC8

CYQR;2009-01-31 12:45;CYQR 311245Z 30034G41KT 5SM -SHSN BLSN OVC030 M01/ RMK SC8

CYQR;2009-01-31 13:00;CYQR 311300Z 31034G41KT 5SM -SHSN BLSN OVC030 M01/M02 A2931 RMK SC8 SLP950

CYQR;2009-01-31 14:00;CYQR 311400Z 30037G42KT 6SM -SHSN BLSN BKN041 M01/M04 A2936 RMK SC6 VIS SW-NW 3 SLP967

CYQR;2009-01-31 14:23;CYQR 311423Z 30032G38KT 12SM DRSN FEW040 BKN073 M02/ REBLSN RMK SC2AC1 VIRGA

CYQR;2009-01-31 15:00;CYQR 311500Z 30035KT 3SM R13/4500VP6000FT/D BLSN FEW075 BKN250 M03/M05 A2942 RMK AC2CI2 SLP991

CYQR;2009-01-31 16:00;CYQR 311600Z 31032G37KT 3SM BLSN FEW075 FEW250 M04/M07 A2946 RMK AC1CI1 SLP004

CYQR;2009-01-31 17:00;CYQR 311700Z 30034KT 3SM BLSN FEW075 M04/M07 A2950 RMK AC2 SLP018

CYQR;2009-01-31 18:00;CYQR 311800Z 30023G28KT 15SM DRSN FEW092 M04/M08 A2954 RMK AC1 SLP035

CYQR;2009-01-31 19:00;CYQR 311900Z 30026KT 15SM FEW150 M04/M08 A2954 RMK AC1 SLP033

CYQR;2009-01-31 20:00;CYQR 312000Z 30023KT 15SM FEW150 M04/M08 A2956 RMK AC1 SLP040

CYQR;2009-01-31 21:00;CYQR 312100Z 29018G25KT 15SM FEW080 FEW160 M03/M08 A2957 RMK AC1AC1 SLP045

CYQR;2009-01-31 22:00;CYQR 312200Z 29023KT 15SM FEW080 M03/M08 A2958 RMK AC1 SLP048

CYQR;2009-01-31 23:00;CYQR 312300Z 29027KT 15SM SCT250 M04/M09 A2959 RMK CI2 SLP052

CYQR;2009-02-01 01:00;CYQR 010100Z 29024KT 15SM FEW250 M05/M09 A2964 RMK CI2 SLP066

CYQR;2009-02-01 02:00;CYQR 010200Z 28022KT 15SM FEW250 M06/M10 A2965 RMK CI1 SLP072

CYQR;2009-02-01 03:00;CYQR 010300Z 28022KT 15SM FEW250 M07/M11 A2967 RMK CI2 SLP081

CYQR;2009-02-01 04:00;CYQR 010400Z 28018KT 15SM SKC M08/M12 A2969 RMK SLP087

CYQR;2009-02-01 05:00;CYQR 010500Z 29023KT 15SM SKC M08/M12 A2970 RMK SLP092

CYQR;2009-02-01 06:00;CYQR 010600Z 28024G29KT 15SM SKC M08/M12 A2973 RMK SLP102

CYQR;2009-02-01 07:00;CYQR 010700Z 29020KT 15SM FEW250 M08/M13 A2975 RMK CI0 SLP109

CYQR;2009-02-01 08:00;CYQR 010800Z 29023KT 15SM BKN095 M08/M13 A2977 RMK AC3 SLP115

CYQR;2009-02-01 09:00;CYQR 010900Z 28018KT 15SM FEW066 M09/M14 A2979 RMK AC2 SLP123

CYQR;2009-02-01 10:00;CYQR 011000Z 29021KT 15SM FEW070 M09/M14 A2980 RMK AC1 SLP129

CYQR;2009-02-01 11:00;CYQR 011100Z 28021KT 15SM -SN SKC M10/M14 A2982 RMK SLP135

CYQR;2009-02-01 12:00;CYQR 011200Z 29020KT 15SM BKN088 M09/M14 A2984 RMK AC6 SLP142

CYQR;2009-02-01 13:00;CYQR 011300Z 29022KT 15SM SCT088 SCT300 M09/M14 A2985 RMK AC3CI0 SLP146

CYQR;2009-02-01 14:00;CYQR 011400Z 28021KT 15SM SCT088 BKN280 M10/M14 A2987 RMK AC4CI1 SLP153

CYQR;2009-02-01 15:00;CYQR 011500Z 30025KT 15SM SCT090 BKN280 M09/M13 A2990 RMK AC3CI2 SLP165

CYQR;2009-02-01 16:00;CYQR 011600Z 31030KT 12SM FEW025 SCT084 BKN280 M09/M12 A2992 RMK SC1AC2CI1 OCNL BLSN S-NW VIS 6 SLP171

CYQR;2009-02-01 17:00;CYQR 011700Z 31028KT 15SM FEW025 FEW084 SCT280 M09/M12 A2994 RMK SC2AC1CI0 SLP179

CYQR;2009-02-01 17:37;CYQR 011737Z 34022G28KT 12SM -SN FEW010 FEW025 FEW084 SCT280 M11/ RMK CU1SC2AC1CI0

CYQR;2009-02-01 18:00;CYQR 011800Z 34024KT 15SM BKN011 M12/M15 A2997 RMK SC6 SLP193

CYQR;2009-02-01 18:35;CYQR 011835Z 34023KT 15SM SCT011 BKN040 M14/ RMK SC4SC2

CYQR;2009-02-01 19:00;CYQR 011900Z 33024KT 15SM FEW011 BKN040 M14/M17 A2999 RMK SC1SC6 SLP199

CYQR;2009-02-01 20:00;CYQR 012000Z 34017G24KT 15SM SCT055 BKN260 M15/M19 A3003 RMK SC4CI1 SLP211

CYQR;2009-02-01 21:00;CYQR 012100Z 34014G19KT 15SM SCT027 BKN100 BKN260 M16/M19 A3003 RMK SC3AC2CI1 SLP217

CYQR;2009-02-01 21:48;CYQR 012148Z 33013KT 15SM -SN BKN025 BKN100 M16/ RMK SC5AC2

CYQR;2009-02-01 22:00;CYQR 012200Z 33013KT 15SM -SN BKN025 BKN100 M16/M19 A3004 RMK SC5AC2 SLP221

CYQR;2009-02-01 22:35;CYQR 012235Z 33010KT 15SM FEW025 FEW100 FEW250 M16/ RMK SC1AC1CI0

CYQR;2009-02-01 23:00;CYQR 012300Z 33010KT 15SM FEW250 M16/M20 A3006 RMK CI0 SLP226

CYQR;2009-02-02 00:00;CYQR 020000Z 30009KT 15SM FEW250 M18/M21 A3007 RMK CI1 SLP231

CYQR;2009-02-02 01:00;CYQR 020100Z 29007KT 15SM SKC M21/M23 A3006 RMK SLP230

CYQR;2009-02-02 02:00;CYQR 020200Z 33006KT 15SM SKC M22/M23 A3007 RMK SLP232

CYQR;2009-02-02 03:00;CYQR 020300Z 34007KT 15SM SKC M21/M23 A3008 RMK SLP236

CYQR;2009-02-02 04:00;CYQR 020400Z 35006KT 15SM SKC M22/M22 A3009 RMK SLP240

CYQR;2009-02-02 05:00;CYQR 020500Z 36003KT 15SM SKC M22/M24 A3011 RMK SLP248

CYQR;2009-02-02 06:00;CYQR 020600Z 32003KT 15SM SKC M24/M25 A3014 RMK SLP264

CYQR;2009-02-02 07:00;CYQR 020700Z 32004KT 15SM SKC M26/M28 A3016 RMK SLP270

CYQR;2009-02-02 08:00;CYQR 020800Z 34008KT 15SM SKC M27/M29 A3018 RMK SLP274

CYQR;2009-02-02 09:00;CYQR 020900Z 33008KT 15SM SKC M27/M30 A3019 RMK SLP285

CYQR;2009-02-02 10:00;CYQR 021000Z 36004KT 15SM SKC M26/M30 A3020 RMK SLP290

CYQR;2009-02-02 11:00;CYQR 021100Z 36004KT 15SM SKC M28/M32 A3022 RMK SLP295

CYQR;2009-02-02 12:00;CYQR 021200Z 03005KT 15SM SKC M27/M31 A3022 RMK SLP298

CYQR;2009-02-02 13:00;CYQR 021300Z 04002KT 15SM FEW240 M28/M32 A3022 RMK CI0 FROIN SLP299

CYQR;2009-02-02 14:00;CYQR 021400Z 00000KT 15SM BKN240 M30/M35 A3023 RMK CI0 SLP302

CYQR;2009-02-02 15:00;CYQR 021500Z 13004KT 15SM FEW240 M31/M37 A3024 RMK CI0 SLP312

CYQR;2009-02-02 16:00;CYQR 021600Z 18006KT 15SM SCT240 M30/M35 A3024 RMK CI0 SLP313

CYQR;2009-02-02 17:00;CYQR 021700Z 16007KT 15SM FEW210 SCT260 M28/M33 A3025 RMK CI1CI1 SLP316

CYQR;2009-02-02 18:00;CYQR 021800Z 16007KT 15SM FEW100 BKN260 M26/M30 A3025 RMK AC1CI1 SLP313

CYQR;2009-02-02 19:00;CYQR 021900Z 16011KT 15SM FEW083 BKN260 M25/M30 A3025 RMK AC2CI1 SLP311

CYQR;2009-02-02 20:00;CYQR 022000Z 14012KT 15SM FEW086 BKN200 BKN300 M24/M29 A3023 RMK AC1CI2CI1 SLP305

CYQR;2009-02-02 21:00;CYQR 022100Z 13015KT 15SM FEW092 OVC300 M23/M29 A3021 RMK AC2CS4 SLP299

CYQR;2009-02-02 22:00;CYQR 022200Z 14014G20KT 15SM SCT092 OVC300 M23/M29 A3021 RMK AC4CS4 SLP299

CYQR;2009-02-02 23:00;CYQR 022300Z 14016KT 15SM OVC087 M22/M28 A3020 RMK AC6 SLP296

CYQR;2009-02-03 00:00;CYQR 030000Z 14017KT 15SM OVC067 M22/M28 A3021 RMK AC8 SLP296

CYQR;2009-02-03 01:00;CYQR 030100Z 14016KT 15SM -SN OVC061 M21/M27 A3021 RMK SC8 SLP298

CYQR;2009-02-03 02:00;CYQR 030200Z 14018KT 15SM -SN OVC049 M21/M27 A3020 RMK SC8 SLP293

CYQR;2009-02-03 03:00;CYQR 030300Z 14020KT 10SM -SN OVC037 M20/M26 A3020 RMK SC8 SLP296

CYQR;2009-02-03 04:00;CYQR 030400Z 14018G24KT 4SM -SN OVC032 M20/M25 A3019 RMK SC8 SLP292

CYQR;2009-02-03 05:00;CYQR 030500Z 14019KT 15SM -SN DRSN BKN045 OVC090 M20/M24 A3020 RMK SC6AC2 SLP296

CYQR;2009-02-03 06:00;CYQR 030600Z 14019KT 15SM -SN DRSN BKN050 OVC075 M19/M24 A3020 RMK SC5AC3 SLP292

CYQR;2009-02-03 07:00;CYQR 030700Z 14019KT 15SM -SN DRSN FEW050 OVC090 M19/M24 A3020 RMK SC2AC6 SLP291

CYQR;2009-02-03 08:00;CYQR 030800Z 14018KT 12SM -SN DRSN BKN030 OVC070 M18/M23 A3020 RMK SC6AC2 SLP292

CYQR;2009-02-03 09:00;CYQR 030900Z 14016KT 15SM -SN DRSN SCT030 M19/M23 A3020 RMK SC3 SLP289

CYQR;2009-02-03 10:00;CYQR 031000Z 14018KT 15SM DRSN FEW030 M19/M24 A3020 RMK SC2 SLP290

CYQR;2009-02-03 11:00;CYQR 031100Z 15016KT 15SM -SN SKC M19/M23 A3020 RMK SLP288

CYQR;2009-02-03 12:00;CYQR 031200Z 14013KT 15SM FEW012 M19/M23 A3023 RMK SC1 SLP296

CYQR;2009-02-03 13:00;CYQR 031300Z 14015KT 15SM FEW010 FEW250 M19/M23 A3021 RMK SC1CI0 FROIN SLP292

CYQR;2009-02-03 14:00;CYQR 031400Z 14014KT 15SM FEW010 FEW110 SCT250 M19/M23 A3022 RMK SC1AC1CI2 CONTRAILS SLP295

CYQR;2009-02-03 15:00;CYQR 031500Z CCB 15015KT 15SM DRSN FEW120 SCT250 M19/M23 A3023 RMK AC1CI3 SLP295

CYQR;2009-02-03 16:00;CYQR 031600Z 15015KT 15SM DRSN FEW120 BKN250 M18/M23 A3024 RMK AC2CI2 SLP301

CYQR;2009-02-03 17:00;CYQR 031700Z 15013KT 15SM SCT250 M18/M22 A3026 RMK CI1 SLP305

CYQR;2009-02-03 18:00;CYQR 031800Z 16010KT 15SM SCT250 M17/M21 A3026 RMK CI2 SLP303

CYQR;2009-02-03 19:00;CYQR 031900Z 15007KT 15SM FEW210 SCT250 M15/M19 A3025 RMK CI1CI1 SLP300

CYQR;2009-02-03 20:00;CYQR 032000Z 15004KT 15SM SCT250 M13/M17 A3023 RMK CI1 SLP295

CYQR;2009-02-03 21:00;CYQR 032100Z 12007KT 15SM SCT250 M13/M17 A3022 RMK CI1 SLP288

CYQR;2009-02-03 22:00;CYQR 032200Z 14009KT 15SM SCT250 M13/M17 A3022 RMK CI1 SLP288

CYQR;2009-02-03 23:00;CYQR 032300Z 13010KT 15SM BKN250 M13/M17 A3020 RMK CI2 CONTRAILS SLP282

CYQR;2009-02-04 00:00;CYQR 040000Z 14010KT 15SM BKN250 M14/M16 A3021 RMK CI2 SLP283

CYQR;2009-02-04 01:00;CYQR 040100Z 14012KT 15SM FEW097 BKN250 M14/M17 A3019 RMK AC1CI2 SLP278

CYQR;2009-02-04 02:00;CYQR 040200Z 14013KT 15SM SCT095 BKN250 M14/M17 A3018 RMK AC3CI1 SLP275

CYQR;2009-02-04 03:00;CYQR 040300Z 14014KT 15SM BKN091 M13/M15 A3016 RMK AC7 SLP267

CYQR;2009-02-04 04:00;CYQR 040400Z 13015KT 10SM FEW090 OVC120 M14/M15 A3014 RMK AC2AC6 BR SLP259

CYQR;2009-02-04 05:00;CYQR 040500Z 13017KT 15SM OVC120 M13/M15 A3011 RMK AC8 SLP250

CYQR;2009-02-04 05:41;CYQR 040541Z 13020KT 10SM -SN SCT025 OVC120 M13/ RMK SC3AC5

CYQR;2009-02-04 06:00;CYQR 040600Z 14019KT 10SM -SN BKN025 OVC120 M14/M15 A3009 RMK SC5AC3 SLP242

CYQR;2009-02-04 07:00;CYQR 040700Z 14019KT 15SM -SN OVC120 M14/M15 A3007 RMK AC8 SLP235

CYQR;2009-02-04 08:00;CYQR 040800Z 14019KT 15SM -SN OVC120 M14/M15 A3004 RMK AC7 SLP227

CYQR;2009-02-04 09:00;CYQR 040900Z 14018KT 15SM -SN OVC120 M13/M15 A3002 RMK AC8 SLP213

CYQR;2009-02-04 10:00;CYQR 041000Z 14017KT 15SM -SN FEW025 OVC120 M13/M15 A2999 RMK SC2AC6 SLP204

CYQR;2009-02-04 11:00;CYQR 041100Z 14019KT 15SM -SN OVC120 M13/M14 A2995 RMK AC8 SLP192

CYQR;2009-02-04 12:00;CYQR 041200Z 14018KT 15SM -SN DRSN FEW025 OVC120 M13/M15 A2992 RMK SC2AC6 SLP181

CYQR;2009-02-04 13:00;CYQR 041300Z 14018KT 15SM -SN DRSN BKN025 OVC120 M13/M14 A2989 RMK SC5AC3 SLP172

CYQR;2009-02-04 14:00;CYQR 041400Z 14018KT 15SM -SN DRSN SCT025 BKN120 M12/M14 A2986 RMK SC3AC3 SLP161

CYQR;2009-02-04 14:40;CYQR 041440Z 14017KT 15SM FEW025 BKN120 M12/ RMK SC2AC6

CYQR;2009-02-04 15:00;CYQR 041500Z 14018KT 15SM FEW025 BKN120 M11/M13 A2984 RMK SC1AC6 SLP149

CYQR;2009-02-04 16:00;CYQR 041600Z 14018KT 15SM DRSN BKN160 OVC250 M11/M13 A2980 RMK AC5CI2 SLP139

CYQR;2009-02-04 17:00;CYQR 041700Z 14016KT 15SM FEW160 OVC250 M09/M12 A2978 RMK AC2CI3 SLP131

CYQR;2009-02-04 18:00;CYQR 041800Z 14012KT 15SM SCT076 SCT099 OVC250 M06/M10 A2976 RMK AC3AC1CI2 SLP120

CYQR;2009-02-04 19:00;CYQR 041900Z 14009KT 15SM SCT085 OVC250 M05/M08 A2973 RMK AC3CI4 SLP109

CYQR;2009-02-04 20:00;CYQR 042000Z 13003KT 15SM FEW091 OVC250 M01/M05 A2971 RMK AC2CI5 SLP103

CYQR;2009-02-04 21:00;CYQR 042100Z 32009KT 15SM FEW120 OVC250 01/M03 A2972 RMK AC2CI4 CONTRAILS SLP100

CYQR;2009-02-04 22:00;CYQR 042200Z 30013KT 15SM FEW120 BKN250 01/M02 A2974 RMK AC2CI2 SLP105

CYQR;2009-02-04 23:00;CYQR 042300Z 28010KT 15SM FEW085 BKN250 M02/M04 A2974 RMK AC1CI0 SLP106

CYQR;2009-02-05 00:00;CYQR 050000Z 27003KT 15SM FEW120 BKN250 M04/M06 A2978 RMK AC1CI1 TR AC SLP123

CYQR;2009-02-05 01:00;CYQR 050100Z 27007KT 15SM FEW250 M05/M07 A2979 RMK CI1 SLP128

CYQR;2009-02-05 02:00;CYQR 050200Z 28008KT 15SM SKC M05/M07 A2981 RMK SLP134

CYQR;2009-02-05 03:00;CYQR 050300Z 29007KT 15SM SCT250 M08/M10 A2983 RMK CI1 SLP142

CYQR;2009-02-05 04:00;CYQR 050400Z 26004KT 8SM SCT250 M09/M10 A2983 RMK CI1 SLP144

CYQR;2009-02-05 05:00;CYQR 050500Z 25009KT 15SM BKN160 M10/M11 A2984 RMK AC6 SLP148

CYQR;2009-02-05 06:00;CYQR 050600Z 27006KT 15SM BKN160 M09/M10 A2986 RMK AC6 SLP149

CYQR;2009-02-05 07:00;CYQR 050700Z 32004KT 15SM BKN120 M09/M11 A2988 RMK AC6 SLP157

CYQR;2009-02-05 08:00;CYQR 050800Z 35002KT 15SM BKN120 M08/M09 A2987 RMK AC6 SLP153

CYQR;2009-02-05 09:00;CYQR 050900Z 13004KT 12SM BCFG SCT120 M10/M11 A2986 RMK AC3 SLP145

CYQR;2009-02-05 10:00;CYQR 051000Z 18008KT 12SM BCFG FEW250 M14/M15 A2985 RMK CI1 SLP144

CYQR;2009-02-05 11:00;CYQR 051100Z 16007KT 10SM BCFG SKC M12/M13 A2984 RMK SLP141

CYQR;2009-02-05 12:00;CYQR 051200Z 11007KT 15SM SKC M11/M12 A2983 RMK SLP139

CYQR;2009-02-05 13:00;CYQR 051300Z 11009KT 15SM FEW120 BKN250 M12/M14 A2981 RMK AC2CI3 SLP133

CYQR;2009-02-05 14:00;CYQR 051400Z 13011KT 15SM BKN250 M11/M13 A2980 RMK CI3 SLP129

CYQR;2009-02-05 15:00;CYQR 051500Z 14012KT 15SM FEW120 BKN250 M09/M11 A2979 RMK AC1CI2 SLP129

CYQR;2009-02-05 16:00;CYQR 051600Z 14013KT 15SM FEW120 BKN250 M08/M10 A2978 RMK AC1CI2 SLP125

CYQR;2009-02-05 17:00;CYQR 051700Z 14013KT 15SM BKN220 M08/M10 A2977 RMK CI2 SLP120

CYQR;2009-02-05 18:00;CYQR 051800Z 14010KT 15SM SCT220 BKN250 M06/M09 A2976 RMK CI1CI1 SLP116

CYQR;2009-02-05 19:00;CYQR 051900Z 14009KT 15SM BKN220 M05/M08 A2974 RMK CI2 SLP110

CYQR;2009-02-05 20:00;CYQR 052000Z 13009KT 15SM BKN220 M03/M07 A2972 RMK CI2 SLP102

CYQR;2009-02-05 21:00;CYQR 052100Z 13007KT 15SM BKN220 M01/M05 A2970 RMK CI2 SLP092

CYQR;2009-02-05 22:00;CYQR 052200Z 13010KT 15SM FEW140 BKN250 M02/M06 A2969 RMK AC2CI2 SLP089

CYQR;2009-02-05 23:00;CYQR 052300Z 15006KT 15SM SCT140 OVC220 M03/M06 A2968 RMK AC3CI3 SLP086

CYQR;2009-02-06 00:00;CYQR 060000Z 13005KT 15SM BKN140 BKN220 M04/M07 A2967 RMK AC5CI0 SLP084

CYQR;2009-02-06 01:00;CYQR 060100Z 12005KT 15SM BKN110 M06/M08 A2966 RMK AC6 SLP082

CYQR;2009-02-06 02:00;CYQR 060200Z 17005KT 15SM BKN110 M06/M08 A2966 RMK AC6 SLP080

CYQR;2009-02-06 03:00;CYQR 060300Z 13003KT 15SM BKN110 M08/M10 A2966 RMK AC6 SLP083

CYQR;2009-02-06 04:00;CYQR 060400Z 17002KT 15SM BKN110 M10/M12 A2965 RMK AC6 SLP079

CYQR;2009-02-06 05:00;CYQR 060500Z 17006KT 15SM BKN110 M10/M12 A2964 RMK AC6 SLP077

CYQR;2009-02-06 06:00;CYQR 060600Z 11003KT 15SM OVC110 M09/M11 A2964 RMK AC6 SLP073

CYQR;2009-02-06 07:00;CYQR 060700Z 15005KT 15SM OVC110 M10/M11 A2962 RMK AC6 SLP068

CYQR;2009-02-06 08:00;CYQR 060800Z 11006KT 15SM OVC110 M09/M11 A2960 RMK AC6 SLP062

CYQR;2009-02-06 09:00;CYQR 060900Z 10005KT 15SM OVC110 M08/M10 A2959 RMK AC6 SLP052

CYQR;2009-02-06 10:00;CYQR 061000Z 10006KT 15SM OVC100 M08/M10 A2958 RMK AC8 SLP049

CYQR;2009-02-06 11:00;CYQR 061100Z 12005KT 15SM OVC100 M07/M09 A2957 RMK AC8 SLP047

CYQR;2009-02-06 12:00;CYQR 061200Z 13006KT 15SM OVC100 M07/M09 A2957 RMK AC8 SLP046

CYQR;2009-02-06 13:00;CYQR 061300Z 13007KT 15SM SCT060 OVC100 M07/M08 A2954 RMK SC3AC5 SLP037

CYQR;2009-02-06 14:00;CYQR 061400Z 11006KT 15SM OVC120 M06/M08 A2953 RMK AC8 SLP033

CYQR;2009-02-06 15:00;CYQR 061500Z 08008KT 15SM FEW040 OVC120 M05/M07 A2951 RMK SC2AC6 SLP030

CYQR;2009-02-06 16:00;CYQR 061600Z 10004KT 15SM OVC090 M03/M05 A2952 RMK AC8 SLP033

CYQR;2009-02-06 17:00;CYQR 061700Z 33003KT 15SM OVC085 M03/M05 A2953 RMK AC8 SLP035

CYQR;2009-02-06 18:00;CYQR 061800Z 12007KT 15SM OVC088 M02/M04 A2951 RMK AC8 SLP028

CYQR;2009-02-06 19:00;CYQR 061900Z 11008KT 15SM BKN070 OVC120 M01/M04 A2952 RMK AC6AC2 SLP030

CYQR;2009-02-06 20:00;CYQR 062000Z 11008G15KT 15SM SCT060 OVC090 M01/M05 A2952 RMK SC3AC5 SLP030

CYQR;2009-02-06 21:00;CYQR 062100Z 13006KT 15SM SCT050 OVC085 M01/M04 A2953 RMK SC4AC4 SLP031

CYQR;2009-02-06 22:00;CYQR 062200Z 12004KT 15SM SCT050 BKN075 M00/M04 A2954 RMK SC3AC3 SLP036

CYQR;2009-02-06 23:00;CYQR 062300Z 04008KT 15SM FEW050 SCT083 BKN250 M02/M05 A2955 RMK SC2AC2CI2 SLP040

CYQR;2009-02-07 00:00;CYQR 070000Z 05010KT 15SM BKN080 BKN250 M03/M06 A2958 RMK AC5CI2 SLP051

CYQR;2009-02-07 01:00;CYQR 070100Z 07010KT 15SM FEW086 SCT250 M03/M06 A2960 RMK AC2CI1 SLP056

CYQR;2009-02-07 02:00;CYQR 070200Z 07010G15KT 15SM SCT091 M03/M06 A2962 RMK AC2 SLP064

CYQR;2009-02-07 03:00;CYQR 070300Z 08009KT 15SM BKN091 M03/M07 A2966 RMK AC5 SLP076

CYQR;2009-02-07 04:00;CYQR 070400Z 05009KT 15SM BKN085 M04/M08 A2969 RMK AC5 SLP086

CYQR;2009-02-07 05:00;CYQR 070500Z 03006KT 15SM FEW031 BKN081 M04/M08 A2972 RMK SC2AC5 SLP097

CYQR;2009-02-07 06:00;CYQR 070600Z 02009KT 15SM OVC031 M05/M09 A2976 RMK SC8 SLP110

CYQR;2009-02-07 07:00;CYQR 070700Z 05012KT 15SM OVC032 M05/M08 A2979 RMK SC8 SLP121

CYQR;2009-02-07 08:00;CYQR 070800Z 04010KT 15SM OVC034 M05/M08 A2983 RMK SC8 SLP131

CYQR;2009-02-07 09:00;CYQR 070900Z 06014G20KT 15SM OVC036 M06/M10 A2987 RMK SC8 SLP148

CYQR;2009-02-07 10:00;CYQR 071000Z 05010G15KT 15SM OVC040 M06/M09 A2991 RMK SC8 SLP160

CYQR;2009-02-07 10:45;CYQR 071045Z 03007KT 10SM -SN OVC034 M06/ RMK SC8

CYQR;2009-02-07 11:00;CYQR 071100Z 03003KT 6SM -SN OVC021 M06/M09 A2994 RMK SC8 SLP171

CYQR;2009-02-07 12:00;CYQR 071200Z 30007KT 15SM -SN SCT027 BKN093 M11/M12 A2997 RMK SC3AC3 SLP186

CYQR;2009-02-07 13:00;CYQR 071300Z 35006KT 15SM BKN017 OVC087 M10/M12 A3000 RMK SC7AC1 SLP197

CYQR;2009-02-07 14:00;CYQR 071400Z 29008KT 15SM BKN015 M12/M14 A3002 RMK SC7 SLP203

CYQR;2009-02-07 15:00;CYQR 071500Z 28007KT 15SM SCT014 BKN038 BKN090 M12/M14 A3004 RMK SC2SC1AC1 SLP214

CYQR;2009-02-07 16:00;CYQR 071600Z 25004KT 15SM FEW015 BKN036 BKN100 M12/M14 A3006 RMK SC2SC4AC2 SLP220

CYQR;2009-02-07 17:00;CYQR 071700Z 25008KT 15SM BKN032 M11/M13 A3008 RMK SC7 SLP226

CYQR;2009-02-07 18:00;CYQR 071800Z 24006KT 15SM FEW030 FEW250 M10/M13 A3009 RMK SC1CI1 SLP231

CYQR;2009-02-07 19:00;CYQR 071900Z 23004KT 15SM FEW250 M09/M13 A3008 RMK CI1 SLP227

CYQR;2009-02-07 20:00;CYQR 072000Z 21009KT 15SM FEW250 M08/M11 A3005 RMK CI1 SLP218

CYQR;2009-02-07 21:00;CYQR 072100Z 19009KT 15SM SCT250 M08/M11 A3004 RMK CI0 SLP211

CYQR;2009-02-07 22:00;CYQR 072200Z 17009KT 15SM SCT250 M08/M10 A3002 RMK CI1 SLP205

CYQR;2009-02-07 23:00;CYQR 072300Z 17010KT 15SM SCT095 BKN250 M08/M11 A2998 RMK AC3CI1 SLP193

CYQR;2009-02-08 00:00;CYQR 080000Z 15007KT 15SM FEW095 BKN250 M08/M10 A2996 RMK AC2CI1 SLP187

CYQR;2009-02-08 01:00;CYQR 080100Z 16011KT 15SM FEW100 SCT250 M09/M11 A2996 RMK AC2CI0 SLP188

CYQR;2009-02-08 02:00;CYQR 080200Z 17007KT 15SM FEW100 SCT250 M10/M12 A2995 RMK AC2CI0 SLP185

CYQR;2009-02-08 03:00;CYQR 080300Z 16006KT 15SM FEW250 M10/M12 A2994 RMK CI0 SLP183

CYQR;2009-02-08 04:00;CYQR 080400Z 17005KT 15SM SKC M12/M14 A2992 RMK SLP177

CYQR;2009-02-08 05:00;CYQR 080500Z 20005KT 15SM SKC M11/M12 A2993 RMK SLP179

CYQR;2009-02-08 06:00;CYQR 080600Z 24009KT 15SM SKC M11/M12 A2993 RMK SLP178

CYQR;2009-02-08 07:00;CYQR 080700Z 19006KT 15SM SKC M10/M12 A2991 RMK SLP174

CYQR;2009-02-08 08:00;CYQR 080800Z 29008KT 15SM FEW078 SCT210 M09/M10 A2993 RMK AC2CI0 SLP179

CYQR;2009-02-08 09:00;CYQR 080900Z 00000KT 15SM BKN070 M07/M09 A2994 RMK AC6 SLP176

CYQR;2009-02-08 10:00;CYQR 081000Z 17002KT 15SM OVC070 M07/M10 A2992 RMK AC8 SLP172

CYQR;2009-02-08 11:00;CYQR 081100Z 17006KT 15SM BKN072 M10/M11 A2992 RMK AC5 SLP171

CYQR;2009-02-08 12:00;CYQR 081200Z 14006KT 15SM BKN070 M12/M14 A2993 RMK AC5 SLP177

CYQR;2009-02-08 13:00;CYQR 081300Z 12008KT 15SM FEW070 BKN210 M13/M14 A2993 RMK AC2CI0 SLP177

CYQR;2009-02-08 14:00;CYQR 081400Z 13011KT 15SM FEW070 BKN250 M13/M14 A2991 RMK AC1CI0 SLP173

CYQR;2009-02-08 15:00;CYQR 081500Z 13008KT 15SM FEW250 M13/M15 A2992 RMK CI1 SLP177

CYQR;2009-02-08 16:00;CYQR 081600Z 14012KT 15SM FEW250 M11/M13 A2991 RMK CI1 SLP175

CYQR;2009-02-08 17:00;CYQR 081700Z 14013KT 15SM FEW250 M08/M11 A2990 RMK CI1 SLP170

CYQR;2009-02-08 18:00;CYQR 081800Z 13012KT 15SM FEW250 M08/M11 A2988 RMK CI1 SLP159

CYQR;2009-02-08 19:00;CYQR 081900Z 14012KT 15SM FEW250 M06/M09 A2985 RMK CI1 SLP151

CYQR;2009-02-08 20:00;CYQR 082000Z 13012KT 15SM FEW250 M04/M08 A2983 RMK CI1 SLP143

CYQR;2009-02-08 21:00;CYQR 082100Z 12012KT 15SM FEW250 M04/M07 A2980 RMK CI1 SLP128

CYQR;2009-02-08 22:00;CYQR 082200Z 12014KT 15SM SKC M04/M07 A2978 RMK SLP120

CYQR;2009-02-08 23:00;CYQR 082300Z 13016KT 15SM SKC M04/M07 A2977 RMK SLP117

CYQR;2009-02-09 00:00;CYQR 090000Z 13017KT 15SM SKC M05/M07 A2974 RMK SLP112

CYQR;2009-02-09 01:00;CYQR 090100Z 13016KT 15SM SKC M05/M08 A2972 RMK SLP104

CYQR;2009-02-09 02:00;CYQR 090200Z 14019KT 15SM SKC M05/M08 A2970 RMK SLP098

CYQR;2009-02-09 03:00;CYQR 090300Z 13012KT 15SM SKC M06/M09 A2968 RMK SLP090

CYQR;2009-02-09 04:00;CYQR 090400Z 14020KT 15SM SKC M07/M09 A2964 RMK SLP080

CYQR;2009-02-09 05:00;CYQR 090500Z 12016KT 15SM FEW100 M07/M09 A2962 RMK AC0 SLP072

CYQR;2009-02-09 06:00;CYQR 090600Z 13019KT 15SM FEW100 M07/M09 A2959 RMK AC0 SLP056

CYQR;2009-02-09 07:00;CYQR 090700Z 13016KT 15SM SKC M07/M09 A2955 RMK SLP044

CYQR;2009-02-09 08:00;CYQR 090800Z 14016KT 15SM SKC M08/M09 A2952 RMK SLP035

CYQR;2009-02-09 09:00;CYQR 090900Z 15012KT 8SM FEW100 BKN210 M07/M09 A2951 RMK AC2CI0 SLP028

CYQR;2009-02-09 10:00;CYQR 091000Z 14009KT 5SM BR FEW100 OVC210 M07/M09 A2949 RMK AC2CI0 SLP022

CYQR;2009-02-09 11:00;CYQR 091100Z 13013KT 5SM BR SCT004 OVC100 M07/M08 A2945 RMK SC4AC4 SLP009

CYQR;2009-02-09 11:05;CYQR 091105Z 14012KT 5SM BR BKN004 OVC100 M07/ RMK SC7AC1

CYQR;2009-02-09 12:00;CYQR 091200Z 13012KT 4SM BR OVC003 M06/M08 A2944 RMK SC8 SLP005

CYQR;2009-02-09 12:34;CYQR 091234Z 13011KT 1 1/2SM BR OVC002 M06/ RMK ST8

CYQR;2009-02-09 12:42;CYQR 091242Z 13010KT 1SM R13/P6000FT/D BR OVC002 M06/ RMK ST8

CYQR;2009-02-09 12:52;CYQR 091252Z 13009KT 3/4SM R13/P6000FT/N BR OVC001 M06/ RMK ST8 VIS VRB 1/2-1

CYQR;2009-02-09 13:00;CYQR 091300Z 13010KT 1/4SM R13/2400V3500FT/D FZFG VV001 M05/M07 A2941 RMK FG8 SLP995

CYQR;2009-02-09 14:00;CYQR 091400Z 15009KT 1/4SM R13/2000FT/N FZFG VV001 M05/M06 A2942 RMK FG8 SLP998

CYQR;2009-02-09 15:00;CYQR 091500Z 14012KT 1/4SM R13/1400FT/N FZFG VV001 M03/M05 A2940 RMK FG8 SLP989

CYQR;2009-02-09 16:00;CYQR 091600Z 18007KT 1/4SM R13/1200FT/N FZFG VV001 M04/M05 A2940 RMK FG8 SLP989

CYQR;2009-02-09 17:00;CYQR 091700Z 18003KT 1/8SM R13/1200FT/N FZFG VV001 M04/M05 A2940 RMK FG8 RIME ON INDICATOR SLP989

CYQR;2009-02-09 18:00;CYQR 091800Z 16002KT 1/2SM R13/2800FT/N FZFG VV002 M03/M04 A2938 RMK FG8 SLP980

CYQR;2009-02-09 19:00;CYQR 091900Z 21003KT 3/8SM R13/1800V3000FT/D FZFG VV001 M02/M03 A2936 RMK FG8 SLP974

CYQR;2009-02-09 20:00;CYQR 092000Z 25002KT 1/4SM R13/1200V2000FT/D FZFG VV001 M01/M02 A2933 RMK FG8 SLP965

CYQR;2009-02-09 21:00;CYQR 092100Z 00000KT 3/8SM R13/1000FT/N FZFG VV001 M01/M02 A2933 RMK FG8 SLP964

CYQR;2009-02-09 21:09;CYQR 092109Z 00000KT 1/2SM R13/1400FT/N FZFG VV002 M01/ RMK FG8

CYQR;2009-02-09 21:38;CYQR 092138Z 28003KT 2SM BR OVC004 M01/ RMK ST8

CYQR;2009-02-09 22:00;CYQR 092200Z 33005KT 1 1/2SM R13/1600FT/N BR OVC002 M01/M02 A2933 RMK ST8 CIG VRB 1-3 VIS VRB 1-2 SLP964

CYQR;2009-02-09 22:40;CYQR 092240Z 33006KT 3/8SM R13/1400V2000FT/N FZFG VV001 M01/ RMK FG8

CYQR;2009-02-09 23:00;CYQR 092300Z 33006KT 3/8SM R13/2000FT/N FZFG VV001 M01/M02 A2933 RMK FG8 SLP963

CYQR;2009-02-10 00:00;CYQR 100000Z 32008KT 3/8SM R13/2000FT/N FZFG VV001 M01/M02 A2932 RMK FG8 SLP960

CYQR;2009-02-10 01:00;CYQR 100100Z 32007KT 3/8SM R13/2800FT/N -FZDZ FZFG VV001 M02/M03 A2933 RMK FG8 SLP963

CYQR;2009-02-10 02:00;CYQR 100200Z 32008KT 3/8SM R13/3000FT/N -FZDZ FZFG VV001 M02/M03 A2932 RMK FG8 SLP960

CYQR;2009-02-10 03:00;CYQR 100300Z 33009KT 3/8SM R13/5000FT/U FZDZ FZFG VV001 M03/M05 A2931 RMK FG8 SLP956

CYQR;2009-02-10 03:19;CYQR 100319Z 33013KT 3/4SM R13/P6000FT/D BR VV001 M04/ RMK FG8

CYQR;2009-02-10 04:00;CYQR 100400Z 33012KT 3/4SM R13/5500FT/D BR VV002 M05/M06 A2931 RMK FG8 SLP956

CYQR;2009-02-10 04:29;CYQR 100429Z 33014KT 3/8SM R13/5000FT/N FZFG VV001 M05/ RMK FG8

CYQR;2009-02-10 04:49;CYQR 100449Z 33014KT 3/8SM R13/3500V5000FT/D -FZDZ FZFG VV001 M06/ RMK FG8

CYQR;2009-02-10 05:00;CYQR 100500Z 33015KT 3/8SM R13/3000FT/N -FZDZ FZFG VV001 M06/M07 A2933 RMK FG8 SLP960

CYQR;2009-02-10 05:31;CYQR 100531Z 33013KT 1/2SM R13/5000FT/N -FZDZ FZFG VV001 M06/ RMK FG8

CYQR;2009-02-10 06:00;CYQR 100600Z 34014KT 1/2SM R13/5500FT/D -FZDZ FZFG VV001 M06/M07 A2933 RMK FG8 SLP963

CYQR;2009-02-10 07:00;CYQR 100700Z 33012KT 1/2SM R13/5500FT/D -FZDZ FZFG VV001 M06/M07 A2933 RMK FG8 SLP963

CYQR;2009-02-10 08:00;CYQR 100800Z 33014KT 1/2SM R13/5500FT/U -FZDZ FZFG VV001 M05/M06 A2933 RMK FG8 SLP962

CYQR;2009-02-10 08:43;CYQR 100843Z 33014KT 3/4SM R13/P6000FT/D -FZDZ BR VV003 M05/ RMK FG8

CYQR;2009-02-10 09:00;CYQR 100900Z 33013KT 3/4SM R13/P6000FT/U -FZDZ BR VV003 M05/M06 A2934 RMK FG8 SLP965

CYQR;2009-02-10 09:14;CYQR 100914Z 33014KT 1SM R13/P6000FT/U -FZDZ BR OVC003 M05/ RMK FG3SF5

CYQR;2009-02-10 09:37;CYQR 100937Z 32012KT 1 1/2SM BR OVC003 M05/ RMK FG2SF6

CYQR;2009-02-10 10:00;CYQR 101000Z 32012KT 1 1/2SM BR OVC003 M04/M06 A2934 RMK FG2SF6 SLP967

CYQR;2009-02-10 10:18;CYQR 101018Z 32013KT 2SM BR OVC003 M04/ RMK FG2SF6

CYQR;2009-02-10 10:51;CYQR 101051Z 33015KT 3SM BR OVC004 M04/ RMK FG1SF7

CYQR;2009-02-10 11:00;CYQR 101100Z 32016KT 3SM BR OVC004 M04/M06 A2935 RMK FG1SF7 SLP970

CYQR;2009-02-10 11:39;CYQR 101139Z 32017KT 3SM -SN OVC005 M05/ RMK SN1SF7

CYQR;2009-02-10 12:00;CYQR 101200Z 32017KT 3SM -SN OVC006 M06/M07 A2937 RMK SN1SF7 SLP977

CYQR;2009-02-10 12:42;CYQR 101242Z CCA 32018KT 3SM -SN DRSN BKN007 OVC013 M06/ RMK SN1SF6SC2

CYQR;2009-02-10 13:00;CYQR 101300Z 32018KT 5SM -SN DRSN BKN007 OVC013 M06/M07 A2939 RMK SF5SC3 SLP982

CYQR;2009-02-10 14:00;CYQR 101400Z 33016KT 4SM -SN DRSN BKN006 OVC023 M05/M07 A2941 RMK SF6SC2 SLP990

CYQR;2009-02-10 15:00;CYQR 101500Z 32016KT 3SM -SN DRSN BKN005 OVC023 M05/M07 A2944 RMK SF7SC1 RIME ON INDICATOR SLP999

CYQR;2009-02-10 15:18;CYQR 101518Z 32019KT 2 1/2SM R13/5500FT/D -SN DRSN OVC005 M05/ RMK SF8

CYQR;2009-02-10 15:26;CYQR 101526Z 32017G22KT 1 1/4SM R13/4500FT/D -SN DRSN OVC005 M05/ RMK SF8

CYQR;2009-02-10 15:46;CYQR 101546Z 32016KT 1SM R13/4500FT/N DRSN -FZDZ OVC005 M05/ RMK SF8

CYQR;2009-02-10 16:00;CYQR 101600Z 32017KT 1SM R13/4000FT/N -SN DRSN -FZDZ OVC004 M05/M06 A2945 RMK SF8 RIME ON INDICATOR SLP004

CYQR;2009-02-10 17:00;CYQR 101700Z CCA 32015KT 1SM R13/3000FT/N -SN DRSN -FZDZ OVC005 M05/M06 A2947 RMK SF8 RIME ON INDICATOR SLP010

CYQR;2009-02-10 17:44;CYQR 101744Z 32016KT 2SM R13/4500FT/N -SN DRSN -FZDZ OVC004 M05/ RMK SF8

CYQR;2009-02-10 18:00;CYQR 101800Z 31016KT 2 1/2SM R13/4500FT/N -SN DRSN -FZDZ OVC004 M05/M06 A2948 RMK SF8 RIME ON INDICATOR SLP017

CYQR;2009-02-10 18:12;CYQR 101812Z 32016KT 1 1/2SM R13/3500FT/D -SN DRSN -FZDZ BR OVC003 M04/ RMK SF8

CYQR;2009-02-10 18:47;CYQR 101847Z 32016KT 2 1/2SM R13/3000FT/N -SN BR OVC004 M04/ REFZDZ RMK SF8

CYQR;2009-02-10 19:00;CYQR 101900Z 32017KT 3SM R13/3000FT/N -SN BR OVC004 M04/M05 A2949 REFZDZ RMK SF8 SLP019

CYQR;2009-02-10 19:29;CYQR 101929Z 32018KT 8SM R13/3000FT/U -SN OVC006 M04/ RMK SF8

CYQR;2009-02-10 20:00;CYQR 102000Z 32020KT 8SM -SN OVC007 M03/M05 A2950 RMK SF8 SLP024

CYQR;2009-02-10 21:00;CYQR 102100Z 32022KT 8SM -SN OVC008 M04/M05 A2953 RMK SF8 SLP033

CYQR;2009-02-10 21:53;CYQR 102153Z 32017G26KT 8SM OVC008 M03/ RMK SF8

CYQR;2009-02-10 22:00;CYQR 102200Z 32022KT 8SM OVC007 M04/M05 A2956 RMK SF8 SLP042

CYQR;2009-02-10 23:00;CYQR 102300Z 32018G24KT 12SM -SN OVC007 M04/M05 A2960 RMK SF8 SLP055

CYQR;2009-02-10 23:41;CYQR 102341Z 31021G26KT 12SM OVC007 M04/ RMK SF8

CYQR;2009-02-11 00:00;CYQR 110000Z 32021KT 15SM OVC007 M04/M06 A2962 RMK SF8 SLP065

CYQR;2009-02-11 01:00;CYQR 110100Z 31020G27KT 15SM OVC008 M04/M06 A2965 RMK SC8 SLP073

CYQR;2009-02-11 02:00;CYQR 110200Z 31022KT 15SM OVC008 M04/M06 A2966 RMK SF8 SLP078

CYQR;2009-02-11 03:00;CYQR 110300Z 32019KT 15SM OVC007 M05/M06 A2969 RMK SF8 SLP086

CYQR;2009-02-11 04:00;CYQR 110400Z 32019KT 15SM OVC007 M05/M07 A2970 RMK SF8 SLP090

CYQR;2009-02-11 05:00;CYQR 110500Z 31022KT 15SM OVC007 M05/M07 A2970 RMK SF8 SLP092

CYQR;2009-02-11 06:00;CYQR 110600Z 32018KT 15SM OVC008 M05/M07 A2972 RMK SF8 SLP097

CYQR;2009-02-11 07:00;CYQR 110700Z 31015KT 15SM OVC008 M06/M08 A2972 RMK SF8 SLP099

CYQR;2009-02-11 07:49;CYQR 110749Z 31017KT 15SM -SN OVC010 M06/ RMK SC8

CYQR;2009-02-11 08:00;CYQR 110800Z 31016KT 15SM -SN OVC010 M06/M09 A2973 RMK SC8 SLP100

CYQR;2009-02-11 09:00;CYQR 110900Z 31017KT 15SM -SN OVC012 M06/M09 A2973 RMK SC8 SLP103

CYQR;2009-02-11 10:00;CYQR 111000Z 31018KT 10SM -SN OVC010 M07/M09 A2973 RMK SC8 SLP102

CYQR;2009-02-11 11:00;CYQR 111100Z 31018KT 10SM -SN OVC010 M07/M09 A2973 RMK SC8 SLP102

CYQR;2009-02-11 12:00;CYQR 111200Z 31020KT 10SM -SN OVC010 M07/M10 A2974 RMK SC8 SLP108

CYQR;2009-02-11 13:00;CYQR 111300Z 31019KT 10SM -SN FEW014 OVC024 M08/M10 A2977 RMK SC2SC6 SLP115

CYQR;2009-02-11 13:30;CYQR 111330Z 31019KT 12SM -SN BKN014 OVC026 M08/ RMK SC5SC3

CYQR;2009-02-11 14:00;CYQR 111400Z 31019KT 15SM -SN BKN014 OVC029 M08/M10 A2978 RMK SC5SC3 SLP120

CYQR;2009-02-11 15:00;CYQR 111500Z 31018G25KT 15SM BKN012 OVC029 M08/M11 A2979 RMK SC5SC3 SLP124

CYQR;2009-02-11 16:00;CYQR 111600Z 31021G26KT 12SM BKN012 OVC033 M09/M11 A2979 RMK SC6SC2 SLP126

CYQR;2009-02-11 16:34;CYQR 111634Z 32021KT 8SM -SN BKN012 OVC021 M09/ RMK SC6SC2

CYQR;2009-02-11 17:00;CYQR 111700Z 31020G27KT 8SM -SN DRSN SCT012 OVC020 M09/M11 A2980 RMK SC4SC4 SLP127

CYQR;2009-02-11 17:31;CYQR 111731Z 32024KT 8SM DRSN SCT011 OVC020 M09/ RMK SC4SC4

CYQR;2009-02-11 18:00;CYQR 111800Z 31023KT 10SM SCT010 BKN020 BKN220 BKN250 M10/M12 A2980 RMK SC3SC2CI1CI2 SLP130

CYQR;2009-02-11 19:00;CYQR 111900Z 31022KT 15SM FEW010 SCT020 BKN220 M10/M12 A2980 RMK SC2SC2CI0 SLP129

CYQR;2009-02-11 20:00;CYQR 112000Z 31022G28KT 15SM FEW013 FEW220 M10/M12 A2979 RMK SC1CI1 SLP128

CYQR;2009-02-11 21:00;CYQR 112100Z 32024KT 15SM FEW010 FEW220 M10/M13 A2981 RMK SF2CI1 SLP133

CYQR;2009-02-11 22:00;CYQR 112200Z 31019KT 15SM FEW010 M10/M13 A2983 RMK SF2 SLP139

CYQR;2009-02-11 22:11;CYQR 112211Z 30017KT 15SM FEW009 FEW220 M11/ RMK SF2CI1

CYQR;2009-02-11 23:00;CYQR 112300Z 30020KT 15SM FEW006 SCT013 M12/M14 A2984 RMK SF1SF3 SLP143

CYQR;2009-02-12 00:00;CYQR 120000Z 30018KT 15SM FEW003 BKN005 M13/M15 A2986 RMK SF1SF5 SLP154

CYQR;2009-02-12 00:32;CYQR 120032Z 30020KT 15SM FEW005 BKN024 M12/ RMK SF1SC7

CYQR;2009-02-12 00:44;CYQR 120044Z 31017G22KT 10SM -SN FEW005 BKN024 M12/ RMK SF1SC7

CYQR;2009-02-12 01:00;CYQR 120100Z 31021KT 10SM -SN FEW005 BKN024 M12/M15 A2987 RMK SF1SC7 SLP158

CYQR;2009-02-12 02:00;CYQR 120200Z 31019KT 6SM -SN OVC024 M12/M15 A2987 RMK SC8 SLP156

CYQR;2009-02-12 03:00;CYQR 120300Z 30016KT 3SM -SN OVC021 M12/M14 A2987 RMK SN1SC7 SLP158

CYQR;2009-02-12 04:00;CYQR 120400Z 31018KT 6SM -SN BKN012 OVC081 M12/M14 A2987 RMK SC5AC3 SLP159

CYQR;2009-02-12 05:00;CYQR 120500Z 30018KT 6SM -SN SCT012 OVC090 M11/M14 A2989 RMK SC4AC4 SLP163

CYQR;2009-02-12 06:00;CYQR 120600Z 31015KT 6SM -SN BKN046 OVC090 M11/M13 A2990 RMK SC6AC2 SLP168

CYQR;2009-02-12 07:00;CYQR 120700Z 31017KT 6SM -SN SCT030 OVC050 M11/M13 A2990 RMK SC3SC5 SLP169

CYQR;2009-02-12 08:00;CYQR 120800Z 30018KT 6SM -SN BKN039 OVC057 M12/M14 A2993 RMK SC6SC2 SLP177

CYQR;2009-02-12 09:00;CYQR 120900Z 30017KT 15SM FEW020 BKN051 M15/M17 A2994 RMK SC2SC4 INTMT -SN SLP186

CYQR;2009-02-12 09:13;CYQR 120913Z 30014KT 15SM BKN051 M15/ RMK SC5

CYQR;2009-02-12 10:00;CYQR 121000Z 30015KT 15SM SCT055 M17/M19 A2995 RMK SC4 SLP190

CYQR;2009-02-12 11:00;CYQR 121100Z 30009KT 15SM SCT059 M19/M21 A2997 RMK SC3 SLP195

CYQR;2009-02-12 12:00;CYQR 121200Z 31012KT 15SM FEW070 M19/M21 A2999 RMK AC2 SLP207

CYQR;2009-02-12 12:48;CYQR 121248Z 30014KT 12SM -SN BKN012 OVC070 M17/ RMK SC6AC2

CYQR;2009-02-12 13:00;CYQR 121300Z 30015KT 12SM -SN BKN012 OVC070 M17/M19 A3000 RMK SC6AC1 SLP211

CYQR;2009-02-12 14:00;CYQR 121400Z 29010KT 15SM -SN BKN005 M18/M20 A3002 RMK SC7 SLP217

CYQR;2009-02-12 14:07;CYQR 121407Z 29010KT 15SM BKN007 M18/ RMK SC5

CYQR;2009-02-12 14:13;CYQR 121413Z 30010KT 15SM SCT007 M18/ RMK SC3

CYQR;2009-02-12 15:00;CYQR 121500Z 29010KT 15SM VCFG SKC M19/M21 A3004 RMK VCFG NE OF AD SLP225

CYQR;2009-02-12 15:28;CYQR 121528Z 29009KT 15SM SKC M19/ RMK IC

CYQR;2009-02-12 16:00;CYQR 121600Z 29005KT 15SM SKC M19/M21 A3007 RMK IC OBS TKN +03 SLP234

CYQR;2009-02-12 16:53;CYQR 121653Z 30010KT 15SM SKC M17/

CYQR;2009-02-12 17:00;CYQR 121700Z 30010KT 15SM SKC M17/M20 A3008 RMK SLP238

CYQR;2009-02-12 18:00;CYQR 121800Z 30013KT 15SM SKC M16/M19 A3009 RMK SLP239

CYQR;2009-02-12 18:49;CYQR 121849Z 32016KT 15SM DRSN FEW088 M15/ RMK AC1 IC

CYQR;2009-02-12 19:00;CYQR 121900Z 31013G18KT 15SM DRSN SCT004 SCT088 M15/M18 A3009 RMK ST3AC1 IC TR AC SLP238

CYQR;2009-02-12 20:00;CYQR 122000Z 32012KT 15SM SCT004 M15/M18 A3010 RMK ST3 IC SLP242

CYQR;2009-02-12 21:00;CYQR 122100Z 32010KT 15SM FEW004 FEW220 M16/M18 A3011 RMK SF1CI0 SLP249

CYQR;2009-02-12 22:00;CYQR 122200Z 30014KT 15SM FEW220 M16/M18 A3012 RMK CI0 IC SLP250

CYQR;2009-02-12 22:39;CYQR 122239Z 31011KT 15SM FEW220 M16/ RMK CI0

CYQR;2009-02-12 23:00;CYQR 122300Z 30011KT 15SM FEW220 M16/M19 A3014 RMK CI1 SLP256

CYQR;2009-02-13 00:00;CYQR 130000Z 31008KT 15SM FEW010 FEW220 FEW250 M17/M20 A3014 RMK ST1CI1CI1 TR ST SLP263

CYQR;2009-02-13 01:00;CYQR 130100Z 32003KT 15SM FEW250 M18/M20 A3015 RMK CI1 SLP266

CYQR;2009-02-13 02:00;CYQR 130200Z 31005KT 15SM SKC M19/M21 A3016 RMK SLP270

CYQR;2009-02-13 03:00;CYQR 130300Z 30004KT 15SM SKC M19/M21 A3017 RMK SLP275

CYQR;2009-02-13 04:00;CYQR 130400Z 27006KT 15SM SKC M23/M26 A3018 RMK SLP279

CYQR;2009-02-13 05:00;CYQR 130500Z 30007KT 15SM SKC M22/M24 A3019 RMK SLP281

CYQR;2009-02-13 06:00;CYQR 130600Z 30006KT 15SM SKC M21/M23 A3020 RMK SLP284

CYQR;2009-02-13 07:00;CYQR 130700Z 29011KT 6SM BR SKC M23/M25 A3020 RMK SLP286

CYQR;2009-02-13 08:00;CYQR 130800Z 29009KT 15SM SKC M24/M26 A3021 RMK SLP289

CYQR;2009-02-13 09:00;CYQR 130900Z 30011KT 15SM SKC M22/M26 A3022 RMK SLP292

CYQR;2009-02-13 10:00;CYQR 131000Z 29008KT 15SM SKC M24/M28 A3023 RMK SLP296

CYQR;2009-02-13 11:00;CYQR 131100Z 28005KT 15SM SCT076 M26/M30 A3025 RMK AC3 SLP301

CYQR;2009-02-13 12:00;CYQR 131200Z 29005KT 15SM FEW016 BKN081 M25/M29 A3026 RMK SC1AC5 SLP309

CYQR;2009-02-13 13:00;CYQR 131300Z 28004KT 15SM VCFG FEW010 FEW080 M26/M30 A3026 RMK SC1AC1 FROIN SLP309

CYQR;2009-02-13 14:00;CYQR 131400Z 28005KT 15SM FEW220 M27/M31 A3026 RMK CI1 SLP308

CYQR;2009-02-13 15:00;CYQR 131500Z 27007KT 15SM FEW220 M27/M32 A3027 RMK CI1 SLP317

CYQR;2009-02-13 16:00;CYQR 131600Z 28005KT 15SM FEW220 M26/M30 A3028 RMK CI1 SLP320

CYQR;2009-02-13 16:38;CYQR 131638Z 27002KT 15SM FEW220 M25/ RMK CI1 IC

CYQR;2009-02-13 17:00;CYQR 131700Z 00000KT 15SM BKN220 M24/M28 A3030 RMK CI6 IC SLP325

CYQR;2009-02-13 18:00;CYQR 131800Z 28003KT 8SM OVC019 M22/M25 A3030 RMK SC7 IC SLP323

CYQR;2009-02-13 19:00;CYQR 131900Z 29006KT 15SM FEW017 BKN220 M20/M23 A3028 RMK SC2CI3 IC SLP319

CYQR;2009-02-13 20:00;CYQR 132000Z 29008KT 15SM SCT220 M19/M22 A3027 RMK CI2 IC SLP313

CYQR;2009-02-13 21:00;CYQR 132100Z 29011KT 15SM FEW220 M18/M22 A3026 RMK CI1 IC SLP309

CYQR;2009-02-13 22:00;CYQR 132200Z 29012KT 15SM FEW220 M18/M22 A3026 RMK CI1 IC SLP307

CYQR;2009-02-13 23:00;CYQR 132300Z 29010KT 15SM FEW220 M18/M22 A3025 RMK CI1 IC SLP305

CYQR;2009-02-14 00:00;CYQR 140000Z 28006KT 15SM FEW150 M20/M24 A3024 RMK AC1 IC SLP307

CYQR;2009-02-14 01:00;CYQR 140100Z 29007KT 15SM FEW140 M22/M27 A3025 RMK AC1 IC SLP308

CYQR;2009-02-14 01:51;CYQR 140151Z 29009KT 15SM SKC M24/

CYQR;2009-02-14 02:00;CYQR 140200Z 29011KT 15SM SKC M23/M28 A3024 RMK SLP307

CYQR;2009-02-14 03:00;CYQR 140300Z 28007KT 15SM SKC M24/M29 A3024 RMK SLP312

CYQR;2009-02-14 04:00;CYQR 140400Z 28009KT 15SM SKC M24/M28 A3024 RMK SLP311

CYQR;2009-02-14 05:00;CYQR 140500Z 27006KT 15SM SKC M26/M30 A3024 RMK SLP312

CYQR;2009-02-14 06:00;CYQR 140600Z 28004KT 15SM SKC M27/M32 A3023 RMK SLP306

CYQR;2009-02-14 07:00;CYQR 140700Z 00000KT 15SM SKC M27/M31 A3024 RMK SLP307

CYQR;2009-02-14 08:00;CYQR 140800Z 28004KT 15SM SKC M26/M31 A3023 RMK SLP303

CYQR;2009-02-14 09:00;CYQR 140900Z 27002KT 15SM SKC M29/M33 A3023 RMK SLP303

CYQR;2009-02-14 10:00;CYQR 141000Z 32003KT 15SM SKC M27/M31 A3023 RMK SLP302

CYQR;2009-02-14 11:00;CYQR 141100Z 00000KT 15SM SKC M27/M32 A3022 RMK SLP301

CYQR;2009-02-14 12:00;CYQR 141200Z 25005KT 15SM SKC M30/M34 A3023 RMK SLP305

CYQR;2009-02-14 13:00;CYQR 141300Z 31003KT 15SM SKC M29/M34 A3023 RMK SLP304

CYQR;2009-02-14 14:00;CYQR 141400Z 30003KT 8SM FEW120 M30/M34 A3023 RMK AC1 SLP304

CYQR;2009-02-14 15:00;CYQR 141500Z 31002KT 10SM FEW120 FEW210 M29/M34 A3023 RMK AC1CI0 SLP310

CYQR;2009-02-14 16:00;CYQR 141600Z 29003KT 12SM FEW120 FEW210 M28/M32 A3024 RMK AC1CI0 IC SLP313

CYQR;2009-02-14 17:00;CYQR 141700Z 30002KT 12SM FEW210 M26/M30 A3024 RMK CI0 IC SLP314

CYQR;2009-02-14 18:00;CYQR 141800Z 33004KT 10SM FEW010 SCT210 M23/M27 A3024 RMK SC1CI1 IC VIS W 2 SLP311

CYQR;2009-02-14 19:00;CYQR 141900Z 30005KT 12SM FEW010 FEW210 M22/M26 A3025 RMK SC1CI0 SLP314

CYQR;2009-02-14 20:00;CYQR 142000Z 30005KT 15SM FEW210 M21/M25 A3025 RMK CI1 SLP314

CYQR;2009-02-14 21:00;CYQR 142100Z 27004KT 15SM FEW210 M20/M23 A3026 RMK CI1 SLP315

CYQR;2009-02-14 22:00;CYQR 142200Z 31002KT 15SM FEW210 M19/M22 A3026 RMK CI0 SLP316

CYQR;2009-02-14 23:00;CYQR 142300Z 33005KT 15SM FEW210 M19/M23 A3027 RMK CI0 SLP317

CYQR;2009-02-15 00:00;CYQR 150000Z 31004KT 15SM BKN210 M21/M25 A3026 RMK CI0 SLP317

CYQR;2009-02-15 01:00;CYQR 150100Z 23003KT 15SM BKN250 M22/M26 A3027 RMK CI0 SLP321

CYQR;2009-02-15 02:00;CYQR 150200Z 21003KT 15SM SCT250 M24/M28 A3028 RMK CI0 SLP323

CYQR;2009-02-15 03:00;CYQR 150300Z 23004KT 15SM SCT250 M26/M30 A3028 RMK CI0 SLP327

CYQR;2009-02-15 04:00;CYQR 150400Z 19002KT 15SM FEW250 M26/M31 A3028 RMK CI0 SLP328

CYQR;2009-02-15 05:00;CYQR 150500Z 20003KT 3SM BR FEW001 FEW250 M26/M30 A3029 RMK SF1CI0 SLP331

CYQR;2009-02-15 05:31;CYQR 150531Z 17005KT 1SM R13/1800VP6000FT/D BR SCT250 M28/ RMK FG2CI0

CYQR;2009-02-15 06:00;CYQR 150600Z 12003KT 6SM BR FEW250 M27/M31 A3029 RMK CI0 SLP328

CYQR;2009-02-15 07:00;CYQR 150700Z 12002KT 10SM SCT250 M26/M30 A3030 RMK CI0 SLP329

CYQR;2009-02-15 08:00;CYQR 150800Z 18003KT 10SM FEW090 M29/M33 A3030 RMK AC2 SLP331

CYQR;2009-02-15 09:00;CYQR 150900Z 07005KT 10SM FEW090 M26/M30 A3029 RMK AC2 SLP323

CYQR;2009-02-15 10:00;CYQR 151000Z 16004KT 10SM FEW040 FEW090 M28/M32 A3029 RMK SC1AC2 SLP324

CYQR;2009-02-15 11:00;CYQR 151100Z 13004KT 10SM FEW040 BKN080 M26/M31 A3029 RMK SC2AC3 SLP322

CYQR;2009-02-15 12:00;CYQR 151200Z 10004KT 10SM FEW040 BKN080 OVC250 M26/M30 A3028 RMK SC2AC3CI2 SLP318

CYQR;2009-02-15 13:00;CYQR 151300Z 15002KT 10SM FEW060 SCT090 OVC250 M25/M30 A3027 RMK SC2AC2CI2 SLP317

CYQR;2009-02-15 14:00;CYQR 151400Z 00000KT 15SM SCT059 BKN100 M26/M30 A3027 RMK SC4AC2 SLP317

CYQR;2009-02-15 15:00;CYQR 151500Z 15002KT 12SM FEW062 BKN100 M26/M30 A3028 RMK SC2AC1 VSBY LWR W SLP323

CYQR;2009-02-15 16:00;CYQR 151600Z 00000KT 8SM FEW062 BKN100 BKN300 M24/M28 A3028 RMK SC1AC2CI1 SLP323

CYQR;2009-02-15 17:00;CYQR 151700Z 17004KT 8SM FEW062 BKN100 BKN300 M21/M25 A3027 RMK SC1AC2CI1 SLP320

CYQR;2009-02-15 18:00;CYQR 151800Z 13003KT 12SM FEW100 BKN300 M19/M22 A3026 RMK AC1CI1 SLP311

CYQR;2009-02-15 19:00;CYQR 151900Z 18006KT 12SM FEW100 BKN300 M19/M22 A3024 RMK AC1CI0 SLP307

CYQR;2009-02-15 20:00;CYQR 152000Z 18006KT 15SM FEW100 FEW300 M17/M20 A3023 RMK AC1CI1 SLP302

CYQR;2009-02-15 21:00;CYQR 152100Z 18003KT 15SM FEW270 M17/M20 A3021 RMK CC1 SLP294

CYQR;2009-02-15 22:00;CYQR 152200Z 14003KT 15SM FEW270 M16/M19 A3021 RMK CI1 SLP294

CYQR;2009-02-15 23:00;CYQR 152300Z 12005KT 15SM FEW170 FEW270 M16/M20 A3020 RMK AC1CI0 SLP291

CYQR;2009-02-16 00:00;CYQR 160000Z 12006KT 15SM FEW150 M18/M23 A3019 RMK AC1 SLP288

CYQR;2009-02-16 01:00;CYQR 160100Z 11005KT 15SM FEW150 M19/M24 A3019 RMK AC1 SLP286

CYQR;2009-02-16 02:00;CYQR 160200Z 13006KT 15SM FEW150 M21/M25 A3018 RMK AC1 SLP282

CYQR;2009-02-16 03:00;CYQR 160300Z 14006KT 15SM FEW160 M21/M24 A3017 RMK AC1 SLP281

CYQR;2009-02-16 04:00;CYQR 160400Z 13007KT 15SM FEW160 M22/M26 A3016 RMK AC1 SLP278

CYQR;2009-02-16 05:00;CYQR 160500Z 14007KT 15SM FEW100 M22/M26 A3014 RMK AC2 SLP274

CYQR;2009-02-16 06:00;CYQR 160600Z 14007KT 15SM FEW040 M23/M28 A3014 RMK SC2 SLP269

CYQR;2009-02-16 07:00;CYQR 160700Z 13007KT 15SM FEW040 M24/M28 A3014 RMK SC2 SLP267

CYQR;2009-02-16 08:00;CYQR 160800Z 13008KT 15SM FEW040 M23/M27 A3012 RMK SC2 SLP262

CYQR;2009-02-16 09:00;CYQR 160900Z 14009KT 15SM BKN028 M23/M27 A3011 RMK SC5 SLP256

CYQR;2009-02-16 10:00;CYQR 161000Z 14007KT 10SM SCT010 BKN027 M23/M27 A3008 RMK SC3SC3 SLP247

CYQR;2009-02-16 10:03;CYQR 161003Z 13009KT 10SM BKN002 BKN027 BKN090 M23/ RMK SF5SC2AC1

CYQR;2009-02-16 11:00;CYQR 161100Z 13007KT 10SM BKN002 BKN027 BKN090 M24/M28 A3008 RMK SF5SC2AC1 SLP245

CYQR;2009-02-16 12:00;CYQR 161200Z 13008KT 10SM BKN002 BKN090 M23/M28 A3006 RMK SF6AC1 SLP241

CYQR;2009-02-16 12:28;CYQR 161228Z 12007KT 10SM SCT002 BKN090 M23/ RMK SF3AC3

CYQR;2009-02-16 13:00;CYQR 161300Z 12009KT 12SM SCT002 BKN090 M23/M27 A3004 RMK SF2AC5 SLP232

CYQR;2009-02-16 14:00;CYQR 161400Z 14010KT 12SM FEW002 SCT050 OVC096 M22/M26 A3002 RMK ST2SC2AC4 SLP228

CYQR;2009-02-16 15:00;CYQR 161500Z 15009KT 10SM SCT050 BKN098 M21/M26 A3002 RMK SC3AC3 SLP225

CYQR;2009-02-16 16:00;CYQR 161600Z 14012KT 5SM BR FEW059 BKN090 M20/M24 A3000 RMK SC2AC1 FROIN VIS S-NW 2 SLP219

CYQR;2009-02-16 17:00;CYQR 161700Z 14012KT 4SM -SN DRSN BR FEW057 BKN088 M19/M23 A2999 RMK SC2AC2 VIS S-NW 2 SLP217

CYQR;2009-02-16 18:00;CYQR 161800Z 14010KT 4SM -SN DRSN BR SCT043 BKN088 M18/M21 A2999 RMK SC3AC2 SLP214

CYQR;2009-02-16 19:00;CYQR 161900Z 15016KT 12SM -SN DRSN BKN039 OVC088 M17/M20 A2996 RMK SC6AC2 SLP206

CYQR;2009-02-16 20:00;CYQR 162000Z 14016KT 15SM -SN DRSN SCT026 OVC042 M16/M19 A2992 RMK SC3SC5 SLP192

CYQR;2009-02-16 20:32;CYQR 162032Z 14017KT 15SM DRSN SCT026 OVC040 M15/ RMK SC3SC5

CYQR;2009-02-16 21:00;CYQR 162100Z 16013KT 15SM DRSN BKN026 OVC038 M15/M18 A2989 RMK SC5SC3 SLP180

CYQR;2009-02-16 22:00;CYQR 162200Z 14015KT 15SM DRSN OVC026 M14/M17 A2987 RMK SC8 SLP173

CYQR;2009-02-16 23:00;CYQR 162300Z 14015KT 15SM DRSN OVC026 M14/M17 A2985 RMK SC8 SLP167

CYQR;2009-02-17 00:00;CYQR 170000Z 16014KT 15SM FEW026 BKN037 BKN080 M14/M17 A2984 RMK SC2SC4AC2 SLP161

CYQR;2009-02-17 01:00;CYQR 170100Z 15012KT 15SM BKN039 M14/M17 A2983 RMK SC6 SLP156

CYQR;2009-02-17 02:00;CYQR 170200Z 15011KT 15SM FEW040 OVC080 M14/M17 A2982 RMK SC2AC6 SLP154

CYQR;2009-02-17 03:00;CYQR 170300Z 14011KT 10SM -SN SCT045 OVC080 M14/M17 A2979 RMK SC4AC4 SLP142

CYQR;2009-02-17 04:00;CYQR 170400Z 16011KT 6SM -SN DRSN SCT014 OVC025 M14/M22 A2978 RMK SC4SC4 SLP138

CYQR;2009-02-17 05:00;CYQR 170500Z 16012KT 6SM -SN DRSN OVC022 M14/M15 A2977 RMK SC8 SLP136

CYQR;2009-02-17 06:00;CYQR 170600Z 16012KT 10SM -SN DRSN OVC034 M14/M15 A2974 RMK SC8 SLP123

CYQR;2009-02-17 07:00;CYQR 170700Z 15011KT 10SM -SN DRSN BKN016 OVC030 M14/M15 A2973 RMK SC5SC3 SLP119

CYQR;2009-02-17 08:00;CYQR 170800Z 15007KT 10SM -SN BKN014 OVC028 M14/M15 A2972 RMK SC6SC2 SLP114

CYQR;2009-02-17 09:00;CYQR 170900Z 13007KT 10SM -SN OVC014 M14/M15 A2971 RMK SC8 SLP110

CYQR;2009-02-17 10:00;CYQR 171000Z 13007KT 10SM -SN OVC014 M14/M15 A2970 RMK SC8 SLP107

CYQR;2009-02-17 11:00;CYQR 171100Z 12005KT 10SM -SN OVC012 M13/M15 A2969 RMK SC8 SLP104

CYQR;2009-02-17 12:00;CYQR 171200Z 12005KT 10SM -SN OVC012 M13/M15 A2970 RMK SC8 SLP104

CYQR;2009-02-17 12:37;CYQR 171237Z 13003KT 10SM -SN OVC009 M13/ RMK SC8

CYQR;2009-02-17 13:00;CYQR 171300Z 11002KT 10SM -SN OVC008 M13/M15 A2970 RMK SC8 SLP106

CYQR;2009-02-17 14:00;CYQR 171400Z 00000KT 6SM -SN OVC007 M13/M15 A2970 RMK SC8 SLP106

CYQR;2009-02-17 14:33;CYQR 171433Z 00000KT 2SM -SN BR OVC006 M13/ RMK SC8

CYQR;2009-02-17 15:00;CYQR 171500Z 32003KT 2SM -SN BR OVC007 M13/M15 A2972 RMK SC8 SLP111

CYQR;2009-02-17 16:00;CYQR 171600Z 34005KT 2 1/2SM -SN BKN009 OVC017 M13/M15 A2972 RMK SC5SC3 SLP112

CYQR;2009-02-17 17:00;CYQR 171700Z 35005KT 3SM -SN BR OVC022 M12/M15 A2973 RMK SC8 SLP114

CYQR;2009-02-17 18:00;CYQR 171800Z 34008KT 3SM -SN BR OVC026 M12/M14 A2974 RMK SC8 SLP119

CYQR;2009-02-17 19:00;CYQR 171900Z 34009KT 5SM -SN BR OVC026 M12/M14 A2975 RMK SC8 SLP120

CYQR;2009-02-17 20:00;CYQR 172000Z 33009KT 5SM -SN BR OVC026 M12/M14 A2975 RMK SC8 SLP122

CYQR;2009-02-17 21:00;CYQR 172100Z 33007KT 5SM -SN BR OVC026 M11/M14 A2977 RMK SC8 SLP128

CYQR;2009-02-17 22:00;CYQR 172200Z 33009KT 2 1/2SM -SN BR BKN017 OVC028 M11/M13 A2979 RMK SC6SC2 VIS VRB 2-3 SLP133

CYQR;2009-02-17 23:00;CYQR 172300Z 33009KT 3SM -SN OVC028 M12/M14 A2980 RMK SC8 SLP138

CYQR;2009-02-18 00:00;CYQR 180000Z 34007KT 6SM -SN FEW010 OVC030 M12/M14 A2983 RMK SF2SC6 SLP146

CYQR;2009-02-18 01:00;CYQR 180100Z 32006KT 8SM -SN OVC030 M12/M14 A2985 RMK SC8 SLP153

CYQR;2009-02-18 02:00;CYQR 180200Z 33006KT 10SM -SN OVC030 M12/M14 A2986 RMK SC8 SLP158

CYQR;2009-02-18 03:00;CYQR 180300Z 34006KT 12SM -SN FEW015 OVC032 M14/M15 A2989 RMK SC2SC6 SLP169

CYQR;2009-02-18 04:00;CYQR 180400Z 34005KT 12SM -SN OVC034 M15/M17 A2991 RMK SC7 SLP176

CYQR;2009-02-18 05:00;CYQR 180500Z 34006KT 12SM -SN OVC034 M17/M18 A2993 RMK SC7 SLP181

CYQR;2009-02-18 06:00;CYQR 180600Z 36004KT 10SM -SN OVC037 M16/M18 A2995 RMK SC8 SLP191

CYQR;2009-02-18 07:00;CYQR 180700Z 01002KT 12SM -SN OVC037 M16/M18 A2997 RMK SC7 SLP198

CYQR;2009-02-18 08:00;CYQR 180800Z 29004KT 12SM -SN OVC039 M19/M20 A2999 RMK SC7 SLP206

CYQR;2009-02-18 09:00;CYQR 180900Z 32003KT 12SM FEW040 M20/M21 A3001 RMK SC2 IC SLP216

CYQR;2009-02-18 09:32;CYQR 180932Z 00000KT 12SM SKC M21/

CYQR;2009-02-18 10:00;CYQR 181000Z 30002KT 12SM SKC M21/M23 A3002 RMK SLP219

CYQR;2009-02-18 10:51;CYQR 181051Z 28004KT 10SM FEW005 M25/ RMK SF1

CYQR;2009-02-18 11:00;CYQR 181100Z 27005KT 8SM FEW005 M25/M27 A3004 RMK SF1 VIS E-SE 2 SLP225

CYQR;2009-02-18 11:06;CYQR 181106Z 29006KT 4SM BR BKN003 M25/ RMK SF3 VIS NE-SE 11/2

CYQR;2009-02-18 11:17;CYQR 181117Z 29005KT 8SM OVC003 M26/ RMK SF6 VIS NE-SE 2

CYQR;2009-02-18 11:42;CYQR 181142Z 33003KT 6SM BR OVC002 M25/ RMK SF8

CYQR;2009-02-18 12:00;CYQR 181200Z 03002KT 5SM BR OVC002 M24/M26 A3007 RMK SF8 VIS NE-SE 1 SLP237

CYQR;2009-02-18 12:12;CYQR 181212Z 05002KT 1SM R13/P6000FT/N BR OVC002 M23/ RMK FG5SF3

CYQR;2009-02-18 12:15;CYQR 181215Z 00000KT 1/4SM R13/P6000FT/N FZFG OVC002 M24/ RMK FG6SF2

CYQR;2009-02-18 12:42;CYQR 181242Z 00000KT 1SM R13/1600V3500FT/D BR OVC001 M23/ RMK FG3SF2

CYQR;2009-02-18 12:52;CYQR 181252Z 00000KT 1 1/2SM R13/1600V2200FT/N BR BKN001 M23/ RMK FG2ST4

CYQR;2009-02-18 13:00;CYQR 181300Z 00000KT 1 1/2SM R13/1800V2200FT/N BR OVC001 M24/M26 A3008 RMK FG2ST4 SLP240

CYQR;2009-02-18 13:19;CYQR 181319Z 16003KT 3/4SM R13/2800V4000FT/U BR OVC006 M23/ RMK FG4ST2 VIS VRB 1/2-1

CYQR;2009-02-18 13:33;CYQR 181333Z 18004KT 1/2SM R13/3000VP6000FT/D FZFG OVC002 M25/ RMK FG2ST1 VIS VRB 3/8-5/8

CYQR;2009-02-18 14:00;CYQR 181400Z 17002KT 1/2SM R13/2400V5500FT/D FZFG OVC001 M24/M25 A3009 RMK FG4ST1 VIS VRB 3/8-5/8 SLP246

CYQR;2009-02-18 15:00;CYQR 181500Z 17003KT 1/2SM R13/2000FT/N IC FZFG OVC001 M23/M25 A3011 RMK FG4ST0 VIS VRB 3/8-5/8 IC SLP252

CYQR;2009-02-18 15:25;CYQR 181525Z 13004KT 2SM R13/1600V2200FT/N IC BR SCT001 M23/ RMK ST2 VIS W 3/4

CYQR;2009-02-18 16:00;CYQR 181600Z 15004KT 4SM IC SCT002 M23/M24 A3011 RMK ST2 VIS W 2 SLP254

CYQR;2009-02-18 17:00;CYQR 181700Z 15004KT 7SM SCT002 SCT250 M22/M23 A3013 RMK ST1CI1 IC SLP258

CYQR;2009-02-18 18:00;CYQR 181800Z 15004KT 15SM FEW250 M20/M22 A3013 RMK CI1 SLP259

CYQR;2009-02-18 19:00;CYQR 181900Z 16005KT 13SM FEW220 BKN250 M19/M21 A3013 RMK CC1CI0 SLP259

CYQR;2009-02-18 20:00;CYQR 182000Z 14008KT 13SM FEW100 BKN250 M18/M21 A3010 RMK AC1CI1 CC ASOCTD SLP252

CYQR;2009-02-18 21:00;CYQR 182100Z 14008KT 14SM FEW150 BKN250 M17/M20 A3010 RMK AC1CI2 CC ASOCTD SLP250

CYQR;2009-02-18 22:00;CYQR 182200Z 15009KT 15SM FEW120 BKN250 M17/M20 A3008 RMK AC1CI2 CC ASOCTD SLP245

CYQR;2009-02-18 23:00;CYQR 182300Z 15007KT 15SM FEW120 BKN250 M17/M20 A3008 RMK AC1CI4 CC ASOCTD SLP245

CYQR;2009-02-19 00:00;CYQR 190000Z 14008KT 15SM BKN082 BKN120 BKN250 M17/M20 A3007 RMK AC5AC0CI1 CC ASOCTD SLP241

CYQR;2009-02-19 01:00;CYQR 190100Z 14009KT 12SM BKN120 BKN250 M18/M20 A3006 RMK AC5CI0 SLP239

CYQR;2009-02-19 02:00;CYQR 190200Z 13008KT 12SM FEW120 M19/M21 A3004 RMK AC1 SLP234

CYQR;2009-02-19 03:00;CYQR 190300Z 13008KT 10SM SKC M20/M23 A3003 RMK SLP232

CYQR;2009-02-19 04:00;CYQR 190400Z 13007KT 12SM SKC M21/M24 A3003 RMK SLP231

CYQR;2009-02-19 04:35;CYQR 190435Z 11005KT 8SM BKN077 M19/ RMK AC6 IC

CYQR;2009-02-19 05:00;CYQR 190500Z 11005KT 12SM OVC075 M19/M21 A3003 RMK AC7 IC SLP230

CYQR;2009-02-19 05:10;CYQR 190510Z 13005KT 12SM OVC073 M19/ RMK AC8

CYQR;2009-02-19 06:00;CYQR 190600Z 12003KT 10SM FEW073 M19/M22 A3002 RMK AC2 SLP225

CYQR;2009-02-19 06:12;CYQR 190612Z 12004KT 10SM FEW075 M20/ RMK AC2 IC VIS SE 5

CYQR;2009-02-19 07:00;CYQR 190700Z 00000KT 12SM SKC M21/M24 A3003 RMK IC SLP227

CYQR;2009-02-19 07:29;CYQR 190729Z 00000KT 12SM SKC M21/

CYQR;2009-02-19 08:00;CYQR 190800Z 00000KT 12SM SKC M21/M25 A3004 RMK VIS E 5 SLP230

CYQR;2009-02-19 09:00;CYQR 190900Z 00000KT 6SM IC BKN003 M21/M25 A3005 RMK SF3 SLP234

CYQR;2009-02-19 09:12;CYQR 190912Z 32005KT 2SM IC OVC002 M21/ RMK SF7

CYQR;2009-02-19 10:00;CYQR 191000Z 33007KT 3SM IC OVC002 M20/M23 A3007 RMK SF8 SLP240

CYQR;2009-02-19 11:00;CYQR 191100Z 31006KT 2SM IC OVC002 M18/M21 A3008 RMK SF8 SLP244

CYQR;2009-02-19 11:38;CYQR 191138Z 34007KT 3SM IC OVC003 M19/ RMK SF8

CYQR;2009-02-19 12:00;CYQR 191200Z 32006KT 4SM IC OVC002 M20/M23 A3010 RMK SF8 VIS E 2 SLP250

CYQR;2009-02-19 12:27;CYQR 191227Z 29006KT 5SM IC OVC003 M22/ RMK SF8 VIS E 2

CYQR;2009-02-19 12:45;CYQR 191245Z 31008KT 6SM IC OVC004 M23/ RMK SF7

CYQR;2009-02-19 12:53;CYQR 191253Z 32009KT 8SM BKN004 M23/ RMK ST4 IC

CYQR;2009-02-19 13:00;CYQR 191300Z 33009KT 8SM BKN004 M23/M26 A3011 RMK ST4 IC SLP253

CYQR;2009-02-19 13:26;CYQR 191326Z 34008KT 8SM FEW190 BKN260 M21/ RMK AC1CI2

CYQR;2009-02-19 14:00;CYQR 191400Z 34008KT 8SM SCT190 BKN260 M22/M26 A3013 RMK AC2CI1 SLP258

CYQR;2009-02-19 14:18;CYQR 191418Z 27003KT 8SM SCT190 BKN260 M22/ RMK AC2CI1 VIS S-SW-W-NW 3/4 DCRSNG RPDLY FRM W

CYQR;2009-02-19 14:25;CYQR 191425Z 28005KT 1/2SM R13/3500VP6000FT/D FZFG SCT190 BKN260 M23/ RMK AC2CI1 VIS N-NE 2

CYQR;2009-02-19 14:31;CYQR 191431Z 27006KT 2SM R13/3500VP6000FT/U BR SCT190 BKN260 M23/ RMK AC2CI1

CYQR;2009-02-19 14:36;CYQR 191436Z 27007KT 4SM BR FEW003 FEW190 BKN260 M23/ RMK ST2AC1CI1 VIS NE-E 2

CYQR;2009-02-19 15:00;CYQR 191500Z 27006KT 6SM BR FEW003 FEW190 BKN260 M23/M26 A3014 RMK ST1AC1CI2 VIS NE-E 2 SLP268

CYQR;2009-02-19 16:00;CYQR 191600Z 30007KT 6SM BR FEW003 FEW190 BKN260 M21/M24 A3014 RMK ST1AC2CI1 SLP270

CYQR;2009-02-19 17:00;CYQR 191700Z 30004KT 15SM SCT180 BKN260 M20/M23 A3014 RMK AC2CI2 SLP270

CYQR;2009-02-19 18:00;CYQR 191800Z 30004KT 8SM BKN260 M18/M22 A3013 RMK CI3 BR SLP261

CYQR;2009-02-19 19:00;CYQR 191900Z 26002KT 10SM BKN260 M16/M20 A3011 RMK CI2 SLP255

CYQR;2009-02-19 20:00;CYQR 192000Z 26003KT 15SM SCT210 BKN250 OVC300 M15/M19 A3010 RMK CI2CI2CI2 SLP251

CYQR;2009-02-19 21:00;CYQR 192100Z 23002KT 15SM SCT150 OVC250 M13/M17 A3008 RMK AC3CI3 SLP241

CYQR;2009-02-19 22:00;CYQR 192200Z 24002KT 15SM SCT150 OVC250 M13/M15 A3006 RMK AC3CI3 SLP235

CYQR;2009-02-19 23:00;CYQR 192300Z 30002KT 15SM FEW150 BKN250 M13/M15 A3006 RMK AC2CI2 SLP234

CYQR;2009-02-20 00:00;CYQR 200000Z 19003KT 15SM FEW150 BKN250 M14/M15 A3004 RMK AC2CI2 SLP225

CYQR;2009-02-20 01:00;CYQR 200100Z 17002KT 12SM FEW061 SCT087 BKN250 M15/M17 A3002 RMK SC2AC2CI0 SLP220

CYQR;2009-02-20 02:00;CYQR 200200Z 15004KT 9SM OVC043 M14/M16 A2999 RMK SC7 SLP209

CYQR;2009-02-20 03:00;CYQR 200300Z 16003KT 8SM BKN045 OVC093 M14/M16 A2996 RMK SC7AC1 SLP201

CYQR;2009-02-20 04:00;CYQR 200400Z 16004KT 12SM OVC028 M14/M16 A2994 RMK SC8 SLP194

CYQR;2009-02-20 04:46;CYQR 200446Z 18004KT 10SM -SN SCT031 BKN065 OVC090 M14/ RMK SC3SC4AC1

CYQR;2009-02-20 05:00;CYQR 200500Z 19004KT 12SM SCT031 BKN076 OVC090 M14/M16 A2991 RMK SC3AC4AC1 SLP187

CYQR;2009-02-20 05:03;CYQR 200503Z 17004KT 10SM -SHSN SCT034 BKN076 OVC090 M14/ RMK SC3AC4AC1

CYQR;2009-02-20 06:00;CYQR 200600Z 00000KT 12SM -SHSN BKN025 OVC078 M13/M15 A2991 RMK SC7AC1 SLP180

CYQR;2009-02-20 06:10;CYQR 200610Z 28002KT 1 1/2SM -SHSN OVC022 M13/ RMK SC8

CYQR;2009-02-20 06:23;CYQR 200623Z 29003KT 1 1/2SM -SHSN VV013 M13/ RMK SN8

CYQR;2009-02-20 07:00;CYQR 200700Z 29006KT 1 1/2SM -SHSN VV010 M12/M14 A2990 RMK SN8 SLP178

CYQR;2009-02-20 07:12;CYQR 200712Z 30008KT 1SM R13/P6000FT/D -SHSN VV006 M11/ RMK SN8

CYQR;2009-02-20 08:00;CYQR 200800Z CCA 33011KT 1SM R13/P6000FT/N -SN VV006 M10/M12 A2991 RMK SN8 /S01/ SLP180

CYQR;2009-02-20 08:17;CYQR 200817Z 34013KT 2SM -SN OVC007 M10/ RMK SF8

CYQR;2009-02-20 09:00;CYQR 200900Z 34011KT 2 1/2SM -SN DRSN OVC012 M12/M14 A2992 RMK SC8 SLP178

CYQR;2009-02-20 09:35;CYQR 200935Z 34013KT 1 1/2SM -SN DRSN VV009 M12/ RMK SN8

CYQR;2009-02-20 10:00;CYQR 201000Z 35013KT 1 1/2SM -SN DRSN VV009 M11/M13 A2992 RMK SN8 SLP180

CYQR;2009-02-20 10:07;CYQR 201007Z 34012KT 3SM -SN DRSN OVC013 M12/ RMK SC8 VIS E 2

CYQR;2009-02-20 10:27;CYQR 201027Z 34012KT 8SM -SN DRSN FEW005 OVC013 M14/ RMK SF2SC6

CYQR;2009-02-20 10:33;CYQR 201033Z CCB 34012KT 1 1/2SM -SHSN DRSN VV009 M13/ RMK SN8

CYQR;2009-02-20 11:00;CYQR 201100Z 34014KT 2SM -SHSN DRSN VV009 M13/M15 A2994 RMK SN8 /S02/ VIS VRB 1-3 SLP187

CYQR;2009-02-20 11:26;CYQR 201126Z 34015KT 2SM -SHSN DRSN VV010 M13/ RMK SN8 VIS VRB 1-3

CYQR;2009-02-20 12:00;CYQR 201200Z 34016KT 2SM -SHSN DRSN VV010 M13/M15 A2997 RMK SN8 /S03/ VIS VRB 1-3 SLP197

CYQR;2009-02-20 12:09;CYQR 201209Z 34016KT 5SM -SHSN DRSN OVC010 M14/ RMK SC8

CYQR;2009-02-20 13:00;CYQR 201300Z 34016KT 3SM -SHSN DRSN OVC012 M14/M15 A3001 RMK SC8 SLP209

CYQR;2009-02-20 14:00;CYQR 201400Z 34017KT 4SM -SN DRSN BKN013 BKN030 OVC120 M14/M16 A3005 RMK SC5SC2AC1 SLP224

CYQR;2009-02-20 14:35;CYQR 201435Z 34018KT 4SM -SHSN DRSN FEW015 SCT045 BKN120 BKN280 M15/ RMK SC2SC2AC2CI1

CYQR;2009-02-20 15:00;CYQR 201500Z 34016G21KT 4SM -SN DRSN FEW027 BKN035 BKN280 M15/M17 A3009 RMK SC2SC3CI1 SLP242

CYQR;2009-02-20 16:00;CYQR 201600Z 34015KT 4SM -SN DRSN OVC018 M16/M18 A3013 RMK SC8 SLP252

CYQR;2009-02-20 16:38;CYQR 201638Z 34016KT 2SM -SN BLSN OVC022 M15/ RMK SN2SC6

CYQR;2009-02-20 17:00;CYQR 201700Z 34020KT 2SM -SN BLSN OVC022 M15/M17 A3016 RMK SN2SC6 SLP262

CYQR;2009-02-20 17:10;CYQR 201710Z 34020KT 3SM -SN BLSN BKN022 BKN088 OVC260 M15/ RMK SC5AC2CI0

CYQR;2009-02-20 18:00;CYQR 201800Z 33019KT 6SM BLSN SCT025 BKN090 OVC260 M14/M16 A3018 RMK SC3AC2CI1 SLP269

CYQR;2009-02-20 19:00;CYQR 201900Z 33021KT 6SM BLSN FEW007 FEW020 SCT090 BKN260 M14/M17 A3020 RMK CF1SC2AC2CI0 SLP277

CYQR;2009-02-20 20:00;CYQR 202000Z 33018KT 6SM BLSN FEW006 FEW020 SCT090 BKN260 M14/M16 A3021 RMK CF1SC2AC2CI0 SLP278

CYQR;2009-02-20 21:00;CYQR 202100Z 34017KT 10SM DRSN FEW005 FEW020 SCT260 M14/M17 A3021 RMK SF1SC2CI0 CONTRAILS SLP279

CYQR;2009-02-20 22:00;CYQR 202200Z 32016KT 10SM DRSN SCT006 BKN120 OVC260 M15/M17 A3022 RMK SC4AC2CI1 SLP284

CYQR;2009-02-20 23:00;CYQR 202300Z 31017KT 15SM DRSN BKN015 OVC260 M15/M18 A3024 RMK SC7CI0 SLP290

CYQR;2009-02-21 00:00;CYQR 210000Z CCA 32014KT 15SM DRSN SCT017 BKN120 BKN260 M16/M19 A3025 RMK SC4AC2CI0 SLP295

CYQR;2009-02-21 01:00;CYQR 210100Z 32008KT 15SM SCT120 BKN260 M18/M20 A3026 RMK AC4CI2 SLP298

CYQR;2009-02-21 02:00;CYQR 210200Z 29004KT 15SM SCT120 BKN260 M20/M22 A3024 RMK AC3CI2 SLP293

CYQR;2009-02-21 03:00;CYQR 210300Z 25006KT 15SM SCT120 OVC260 M21/M22 A3022 RMK AC3CI3 SLP292

CYQR;2009-02-21 04:00;CYQR 210400Z 28009KT 15SM FEW120 BKN260 M19/M21 A3022 RMK AC2CI3 SLP290

CYQR;2009-02-21 05:00;CYQR 210500Z 29009KT 15SM BKN260 M19/M21 A3022 RMK CI3 SLP291

CYQR;2009-02-21 06:00;CYQR 210600Z 28009KT 15SM FEW260 M19/M21 A3022 RMK CI0 SLP288

CYQR;2009-02-21 07:00;CYQR 210700Z 28008KT 15SM FEW250 M19/M21 A3021 RMK CI0 SLP284

CYQR;2009-02-21 08:00;CYQR 210800Z 29010KT 15SM SCT088 BKN250 M18/M20 A3020 RMK AC3CI0 SLP281

CYQR;2009-02-21 09:00;CYQR 210900Z 28008KT 15SM SCT080 BKN250 M17/M19 A3020 RMK AC4CI1 SLP281

CYQR;2009-02-21 10:00;CYQR 211000Z 32006KT 15SM SCT070 OVC250 M17/M19 A3022 RMK AC4CI2 SLP286

CYQR;2009-02-21 11:00;CYQR 211100Z 32004KT 15SM SCT057 BKN250 M17/M19 A3023 RMK SC3CI1 SLP289

CYQR;2009-02-21 12:00;CYQR 211200Z 33005KT 15SM SCT091 BKN250 M17/M19 A3023 RMK AC4CI2 SLP294

CYQR;2009-02-21 13:00;CYQR 211300Z 27008KT 15SM FEW090 FEW250 M19/M20 A3023 RMK AC1CI0 SLP292

CYQR;2009-02-21 14:00;CYQR 211400Z 32006KT 15SM FEW082 BKN250 M19/M21 A3024 RMK AC2CI1 SLP297

CYQR;2009-02-21 15:00;CYQR 211500Z 28010KT 15SM FEW082 BKN250 M20/M21 A3024 RMK AC2CI1 SLP301

CYQR;2009-02-21 16:00;CYQR 211600Z 28007KT 15SM FEW082 BKN250 M17/M19 A3024 RMK AC1CI1 SLP301

CYQR;2009-02-21 17:00;CYQR 211700Z 34003KT 15SM FEW090 SCT200 BKN250 M15/M17 A3025 RMK AC1CC1CI2 SLP305

CYQR;2009-02-21 18:00;CYQR 211800Z 30003KT 15SM FEW090 BKN200 M13/M15 A3026 RMK AC1CI1 SLP301

CYQR;2009-02-21 19:00;CYQR 211900Z 27005KT 15SM FEW090 BKN200 M11/M14 A3026 RMK AC1CI1 SLP303

CYQR;2009-02-21 20:00;CYQR 212000Z 28005KT 15SM SCT200 BKN250 M11/M14 A3026 RMK CI2CI1 SLP301

CYQR;2009-02-21 21:00;CYQR 212100Z 30005KT 15SM SCT200 BKN250 M10/M13 A3026 RMK CI2CI1 SLP298

CYQR;2009-02-21 22:00;CYQR 212200Z 30006KT 15SM SCT200 BKN250 M10/M12 A3028 RMK CI2CI1 SLP303

CYQR;2009-02-21 23:00;CYQR 212300Z 30005KT 15SM FEW200 FEW250 M09/M12 A3028 RMK CI1CI0 SLP303

CYQR;2009-02-22 00:00;CYQR 220000Z 35005KT 15SM FEW100 FEW200 SCT250 M11/M13 A3028 RMK AC1CI1CI0 SLP306

CYQR;2009-02-22 01:00;CYQR 220100Z 34004KT 15SM FEW100 SCT250 M13/M15 A3030 RMK AC1CI0 SLP313

CYQR;2009-02-22 02:00;CYQR 220200Z 02005KT 15SM FEW100 FEW250 M13/M15 A3031 RMK AC1CI0 SLP316

CYQR;2009-02-22 03:00;CYQR 220300Z 01005KT 15SM FEW090 FEW250 M13/M15 A3032 RMK AC1CI0 SLP323

CYQR;2009-02-22 04:00;CYQR 220400Z 04004KT 15SM FEW079 SCT250 M14/M15 A3033 RMK AC2CI0 SLP325

CYQR;2009-02-22 05:00;CYQR 220500Z 05008KT 15SM FEW086 SCT250 M14/M16 A3034 RMK AC1CI0 SLP329

CYQR;2009-02-22 06:00;CYQR 220600Z 08009KT 15SM BKN070 M12/M15 A3035 RMK AC4 SLP326

CYQR;2009-02-22 07:00;CYQR 220700Z 09007KT 15SM BKN086 M13/M15 A3038 RMK AC5 SLP336

CYQR;2009-02-22 08:00;CYQR 220800Z 10009KT 15SM OVC082 M12/M15 A3039 RMK AC7 SLP339

CYQR;2009-02-22 09:00;CYQR 220900Z 11011KT 15SM OVC080 M13/M15 A3039 RMK AC7 SLP339

CYQR;2009-02-22 10:00;CYQR 221000Z 11011KT 15SM OVC070 M13/M15 A3039 RMK AC8 SLP340

CYQR;2009-02-22 11:00;CYQR 221100Z 12012KT 15SM OVC061 M13/M16 A3039 RMK SC8 SLP339

CYQR;2009-02-22 12:00;CYQR 221200Z 12013KT 15SM OVC063 M13/M15 A3040 RMK SC8 SLP343

CYQR;2009-02-22 13:00;CYQR 221300Z 14015KT 15SM OVC059 M13/M15 A3042 RMK SC8 SLP349

CYQR;2009-02-22 14:00;CYQR 221400Z 14013KT 15SM OVC059 M14/M16 A3043 RMK SC8 SLP353

CYQR;2009-02-22 15:00;CYQR 221500Z CCA 14015KT 15SM DRSN BKN059 OVC220 M14/M17 A3044 RMK SC5CI3 SLP359

CYQR;2009-02-22 16:00;CYQR 221600Z 14015KT 15SM DRSN BKN075 OVC220 M14/M16 A3044 RMK AC6CI2 SLP361

CYQR;2009-02-22 17:00;CYQR 221700Z 14018KT 10SM DRSN SCT050 BKN220 M13/M16 A3044 RMK SC4CI2 SLP359

CYQR;2009-02-22 18:00;CYQR 221800Z 14019KT 12SM DRSN FEW055 SCT082 BKN220 M13/M16 A3043 RMK SC2AC2CI1 SLP353

CYQR;2009-02-22 19:00;CYQR 221900Z 14022KT 12SM DRSN FEW045 BKN069 BKN220 M12/M15 A3042 RMK SC2AC3CI1 SLP350

CYQR;2009-02-22 20:00;CYQR 222000Z 14019KT 12SM DRSN BKN070 OVC220 M12/M15 A3041 RMK AC6CI2 SLP348

CYQR;2009-02-22 21:00;CYQR 222100Z 14020G25KT 12SM DRSN BKN070 BKN220 M11/M14 A3038 RMK AC6CI1 SLP336

CYQR;2009-02-22 22:00;CYQR 222200Z 14022G29KT 12SM DRSN BKN070 BKN220 M11/M14 A3037 RMK AC6CI0 SLP333

CYQR;2009-02-22 23:00;CYQR 222300Z 13019G26KT 12SM DRSN FEW067 SCT220 M12/M15 A3035 RMK AC2CI1 SLP328

CYQR;2009-02-23 00:00;CYQR 230000Z 14020KT 12SM DRSN FEW070 SCT220 M13/M16 A3035 RMK AC2CI1 SLP327

CYQR;2009-02-23 01:00;CYQR 230100Z 13021KT 12SM DRSN FEW090 FEW220 M14/M16 A3032 RMK AC1CI1 SLP318

CYQR;2009-02-23 02:00;CYQR 230200Z 13021G26KT 12SM DRSN FEW025 FEW090 FEW220 M14/M17 A3031 RMK SC1AC1CI2 SLP314

CYQR;2009-02-23 03:00;CYQR 230300Z 13020G25KT 12SM DRSN FEW090 SCT220 M15/M17 A3029 RMK AC1CI2 SLP311

CYQR;2009-02-23 04:00;CYQR 230400Z 14021G26KT 12SM DRSN FEW090 SCT220 M15/M17 A3027 RMK AC1CI2 SLP304

CYQR;2009-02-23 05:00;CYQR 230500Z 14021KT 12SM DRSN FEW220 M16/M18 A3026 RMK CI1 SLP300

CYQR;2009-02-23 06:00;CYQR 230600Z 14022G27KT 12SM DRSN FEW220 M16/M18 A3023 RMK CI1 SLP289

CYQR;2009-02-23 07:00;CYQR 230700Z 14022KT 12SM DRSN FEW220 M16/M18 A3021 RMK CI0 SLP282

CYQR;2009-02-23 08:00;CYQR 230800Z 14022KT 10SM DRSN SKC M16/M19 A3017 RMK SLP270

CYQR;2009-02-23 09:00;CYQR 230900Z 14022KT 10SM DRSN SCT220 M17/M19 A3014 RMK CI2 SLP256

CYQR;2009-02-23 10:00;CYQR 231000Z 14022G27KT 10SM DRSN SCT080 BKN220 M16/M19 A3010 RMK AC2CI2 SLP243

CYQR;2009-02-23 10:38;CYQR 231038Z 14021KT 10SM DRSN FEW005 BKN080 OVC220 M16/ RMK SF1AC3CI2

CYQR;2009-02-23 11:00;CYQR 231100Z 14020G25KT 10SM DRSN FEW005 BKN080 OVC220 M16/M18 A3007 RMK SF1AC2CI2 SLP233

CYQR;2009-02-23 12:00;CYQR 231200Z 14020KT 10SM DRSN FEW005 BKN080 OVC220 M16/M18 A3004 RMK SF1AC3CI2 SLP221

CYQR;2009-02-23 13:00;CYQR 231300Z 14019KT 10SM DRSN FEW005 BKN080 OVC220 M15/M17 A3002 RMK SF1AC4CI2 SLP215

CYQR;2009-02-23 14:00;CYQR 231400Z 15016G22KT 10SM DRSN BKN120 M15/M17 A2998 RMK AS7 OCNL BLSN SLP204

CYQR;2009-02-23 15:00;CYQR 231500Z 14020KT 10SM DRSN FEW050 OVC120 M14/M17 A2995 RMK SC2AC6 SLP194

CYQR;2009-02-23 16:00;CYQR 231600Z 15017KT 10SM DRSN OVC120 M14/M16 A2993 RMK AC8 SLP186

CYQR;2009-02-23 17:00;CYQR 231700Z 15016KT 14SM DRSN BKN110 OVC250 M13/M15 A2991 RMK AS7CI1 SLP180

CYQR;2009-02-23 18:00;CYQR 231800Z 16013G18KT 10SM DRSN BKN070 OVC110 M12/M15 A2991 RMK AC6AC2 SLP178

CYQR;2009-02-23 18:35;CYQR 231835Z 16011KT 10SM -SNPL DRSN BKN025 OVC110 M11/ RMK SC6AC2

CYQR;2009-02-23 19:00;CYQR 231900Z 16011KT 10SM -SNPL DRSN FEW006 BKN025 OVC055 M11/M13 A2989 RMK SF1SC6SC2 SLP172

CYQR;2009-02-23 19:25;CYQR 231925Z 16011KT 1 1/4SM -SN DRSN OVC035 M10/ RMK SN3SC5 VIS VRB 1-11/2

CYQR;2009-02-23 19:31;CYQR 231931Z 15009KT 3SM -SN DRSN BKN025 OVC035 M10/ RMK SC7SC1 VIS VRB 2-4

CYQR;2009-02-23 20:00;CYQR 232000Z 17007KT 15SM -SN BKN025 OVC041 M09/M12 A2988 RMK SC7SC1 SLP168

CYQR;2009-02-23 20:23;CYQR 232023Z 19006KT 15SM BKN019 OVC067 M09/ RMK SC6AC2

CYQR;2009-02-23 21:00;CYQR 232100Z 26005KT 15SM BKN017 OVC067 M07/M10 A2988 RMK SC6AC2 SLP164

CYQR;2009-02-23 22:00;CYQR 232200Z 31012KT 15SM FEW017 BKN031 OVC090 M08/M10 A2988 RMK SC1SC6AC2 SLP163

CYQR;2009-02-23 23:00;CYQR 232300Z 31015KT 15SM FEW020 BKN031 BKN090 M08/M11 A2989 RMK SC1SC6AC1 SLP167

CYQR;2009-02-24 00:00;CYQR 240000Z 31015KT 15SM OVC018 M09/M12 A2989 RMK SC8 SLP168

CYQR;2009-02-24 00:44;CYQR 240044Z 34016KT 15SM DRSN OVC012 M10/ RMK SC8

CYQR;2009-02-24 01:00;CYQR 240100Z 34015KT 15SM DRSN OVC012 M10/M13 A2990 RMK SC8 SLP171

CYQR;2009-02-24 01:37;CYQR 240137Z 33013KT 15SM DRSN OVC018 M10/ RMK SC8

CYQR;2009-02-24 01:42;CYQR 240142Z 33016KT 10SM -SN DRSN OVC014 M10/ RMK SC8

CYQR;2009-02-24 02:00;CYQR 240200Z 34016KT 10SM -SN DRSN OVC014 M10/M13 A2992 RMK SC8 SLP177

CYQR;2009-02-24 03:00;CYQR 240300Z 34013KT 12SM -SN SCT014 OVC021 M11/M14 A2993 RMK SC4SC4 SLP182

CYQR;2009-02-24 04:00;CYQR 240400Z 34012KT 15SM -SN BKN024 OVC079 M11/M14 A2992 RMK SC6AC2 SLP178

CYQR;2009-02-24 04:49;CYQR 240449Z 32010KT 15SM -SN FEW005 SCT019 OVC070 M12/ RMK SF2SC2AC4

CYQR;2009-02-24 05:00;CYQR 240500Z 33009KT 15SM -SN FEW005 SCT019 OVC068 M12/M14 A2992 RMK SF2SC2AC4 SLP180

CYQR;2009-02-24 06:00;CYQR 240600Z 33011KT 15SM -SN FEW019 OVC060 M12/M14 A2993 RMK SC2SC6 SLP181

CYQR;2009-02-24 07:00;CYQR 240700Z 33012KT 15SM -SN FEW010 OVC048 M12/M14 A2993 RMK SF1SC7 SLP182

CYQR;2009-02-24 08:00;CYQR 240800Z 35007KT 15SM -SN FEW010 OVC041 M12/M14 A2992 RMK SF2SC6 SLP178

CYQR;2009-02-24 09:00;CYQR 240900Z 34005KT 15SM -SN FEW010 OVC037 M12/M14 A2992 RMK SF1SC7 SLP175

CYQR;2009-02-24 10:00;CYQR 241000Z 34006KT 15SM -SN FEW010 OVC033 M12/M14 A2989 RMK SF1SC7 SLP166

CYQR;2009-02-24 11:00;CYQR 241100Z 36004KT 15SM -SN FEW010 OVC035 M11/M14 A2989 RMK SF2SC6 SLP165

CYQR;2009-02-24 12:00;CYQR 241200Z 03007KT 10SM -SN SCT017 OVC032 M11/M14 A2988 RMK SC3SC5 SLP162

CYQR;2009-02-24 13:00;CYQR 241300Z 08006KT 15SM -SN FEW017 OVC032 M11/M14 A2986 RMK SC2SC6 SLP154

CYQR;2009-02-24 14:00;CYQR 241400Z 08010KT 15SM -SN FEW015 OVC030 M11/M13 A2982 RMK SC2SC6 SLP143

CYQR;2009-02-24 14:28;CYQR 241428Z 08012KT 2SM -SN DRSN OVC020 M11/ RMK SN1SC7

CYQR;2009-02-24 14:36;CYQR 241436Z 09011KT 1SM R13/P6000FT/D -SN DRSN OVC008 M11/ RMK SN3SC5

CYQR;2009-02-24 14:41;CYQR 241441Z 09008KT 3/4SM R13/P6000FT/D -SN DRSN VV005 M11/ RMK SN8

CYQR;2009-02-24 14:46;CYQR 241446Z 09010KT 1/2SM R13/5500FT/D SN DRSN VV004 M11/ RMK SN8

CYQR;2009-02-24 15:00;CYQR 241500Z 09011KT 1/2SM R13/4500FT/N SN DRSN VV004 M11/M13 A2980 RMK SN8 /S01/ SLP134

CYQR;2009-02-24 15:32;CYQR 241532Z 10006KT 1SM R13/P6000FT/N -SN DRSN OVC004 M10/ RESN RMK SN4SC4

CYQR;2009-02-24 15:47;CYQR 241547Z 10006KT 3/4SM R13/P6000FT/D -SN VV007 M10/ RESN RMK SN8

CYQR;2009-02-24 16:00;CYQR 241600Z 11006KT 1/2SM R13/5500FT/N SN VV005 M10/M13 A2983 RMK SN8 VIS VRB 3/8-5/8 SLP145

CYQR;2009-02-24 16:15;CYQR 241615Z 12008KT 3/8SM R13/2400V4000FT/D SN VV002 M11/ RMK SN8 VIS VRB 1/4-1/2

CYQR;2009-02-24 17:00;CYQR 241700Z 11006KT 3/8SM R13/3500FT/D SN VV002 M10/M12 A2986 RMK SN8 VSBY VRB 1/4-1/2 SLP153

CYQR;2009-02-24 17:22;CYQR 241722Z 08007KT 1/2SM R13/5000FT/N SN VV005 M11/ RMK SN8 VIS VRB 1/4-3/4

CYQR;2009-02-24 18:00;CYQR 241800Z 04007KT 1/2SM R13/5500FT/U SN VV004 M11/M13 A2985 RMK SN8 VIS VRB 1/4-3/4 SLP153

CYQR;2009-02-24 18:51;CYQR 241851Z 06011KT 2SM -SN OVC006 M11/ RESN RMK SN3SC5

CYQR;2009-02-24 19:00;CYQR 241900Z 06011KT 2SM -SN OVC007 M11/M13 A2984 RESN RMK SN2SC6 /S01/ SLP148

CYQR;2009-02-24 19:09;CYQR 241909Z 06011KT 8SM -SN BKN012 OVC043 M11/ RMK SF5SC3

CYQR;2009-02-24 20:00;CYQR 242000Z 07011KT 10SM -SN DRSN SCT012 OVC037 M11/M14 A2982 RMK SC3SC5 SLP143

CYQR;2009-02-24 21:00;CYQR 242100Z 07015KT 10SM DRSN OVC037 M11/M14 A2980 RMK SC8 SLP136

CYQR;2009-02-24 22:00;CYQR 242200Z 08010KT 12SM -SN DRSN OVC033 M11/M14 A2982 RMK SC8 SLP143

CYQR;2009-02-24 23:00;CYQR 242300Z 07009KT 2 1/2SM -SN DRSN OVC020 M12/M15 A2985 RMK SC8 SLP153

CYQR;2009-02-25 00:00;CYQR 250000Z 08011KT 6SM -SN DRSN OVC035 M12/M15 A2988 RMK SC8 SLP162

CYQR;2009-02-25 01:00;CYQR 250100Z 07010KT 10SM -SN DRSN OVC035 M13/M16 A2989 RMK SC8 SLP168

CYQR;2009-02-25 02:00;CYQR 250200Z 05008KT 10SM -SN BKN037 OVC089 M13/M16 A2992 RMK SC6AC2 SLP175

CYQR;2009-02-25 02:27;CYQR 250227Z 04010KT 2SM -SN BKN006 OVC052 M13/ RMK SC6SC2

CYQR;2009-02-25 02:33;CYQR 250233Z 04009KT 1 1/2SM -SN BKN006 OVC052 M13/ RMK SC6SC2

CYQR;2009-02-25 02:46;CYQR 250246Z 05009KT 2 1/2SM -SN BKN006 OVC052 M13/ RMK SC6SC2

CYQR;2009-02-25 03:00;CYQR 250300Z 03006KT 3SM -SN BKN007 OVC052 M13/M16 A2995 RMK SC6SC2 SLP189

CYQR;2009-02-25 03:49;CYQR 250349Z 02008KT 10SM -SN BKN012 M15/ RMK SC6

CYQR;2009-02-25 04:00;CYQR 250400Z 02006KT 10SM -SN FEW006 SCT012 M16/M18 A2999 RMK SF2SC2 /S01/ SLP200

CYQR;2009-02-25 05:00;CYQR 250500Z 02008KT 15SM FEW008 SCT066 M17/M19 A3000 RMK SF2AC2 SLP205

CYQR;2009-02-25 06:00;CYQR 250600Z 01006KT 15SM FEW004 M22/M24 A3003 RMK SF2 SLP222

CYQR;2009-02-25 07:00;CYQR 250700Z 02005KT 15SM FEW005 M22/M23 A3004 RMK SF1 SLP226

CYQR;2009-02-25 08:00;CYQR 250800Z 33008KT 15SM SKC M25/M27 A3008 RMK SLP239

CYQR;2009-02-25 09:00;CYQR 250900Z 35009KT 15SM SKC M26/M27 A3010 RMK SLP250

CYQR;2009-02-25 10:00;CYQR 251000Z 36006KT 15SM SKC M26/M27 A3011 RMK SLP254

CYQR;2009-02-25 11:00;CYQR 251100Z 34004KT 15SM SKC M27/M28 A3014 RMK SLP263

CYQR;2009-02-25 12:00;CYQR 251200Z 35004KT 15SM SKC M27/M28 A3015 RMK SLP268

CYQR;2009-02-25 13:00;CYQR 251300Z 36007KT 15SM SCT230 M27/M29 A3017 RMK CI0 SLP276

CYQR;2009-02-25 14:00;CYQR 251400Z 34002KT 15SM FEW080 FEW230 M26/M28 A3020 RMK AC1CI0 CC ASOCTD SLP284

CYQR;2009-02-25 15:00;CYQR 251500Z CCA 32006KT 15SM SCT100 BKN220 M24/M26 A3022 RMK AC4CI2 SLP292

CYQR;2009-02-25 16:00;CYQR 251600Z 05009KT 12SM BKN093 BKN220 M21/M24 A3023 RMK AC5CI1 SLP293

CYQR;2009-02-25 17:00;CYQR 251700Z 09011KT 14SM BKN049 OVC230 M21/M24 A3023 RMK SC5CI2 SLP296

CYQR;2009-02-25 17:03;CYQR 251703Z 10009KT 10SM -SN FEW020 BKN050 OVC230 M20/ RMK SC2SC3CI2

CYQR;2009-02-25 18:00;CYQR 251800Z 04008KT 10SM -SN FEW020 BKN060 BKN090 OVC220 M20/M23 A3024 RMK SC2SC2AC1CI1 SLP304

CYQR;2009-02-25 18:32;CYQR 251832Z 06008KT 2 1/2SM -SN BKN017 BKN060 OVC220 M19/ RMK SC5SC2CI2

CYQR;2009-02-25 19:00;CYQR 251900Z 03007KT 2 1/2SM -SN FEW009 BKN060 OVC220 M19/M23 A3025 RMK SF1SC5CI2 SLP306

CYQR;2009-02-25 20:00;CYQR 252000Z 03005KT 2 1/2SM -SN BKN014 OVC060 M19/M23 A3025 RMK SC5SC2 VIS VRB 2-3 SLP306

CYQR;2009-02-25 20:45;CYQR 252045Z 04006KT 1 1/2SM -SN OVC011 M19/ RMK SN2SC6

CYQR;2009-02-25 21:00;CYQR 252100Z 03006KT 1SM R13/P6000FT/D -SN OVC008 M19/M23 A3026 RMK SN3SC5 SLP311

CYQR;2009-02-25 22:00;CYQR 252200Z 01010KT 1 1/4SM R13/4500VP6000FT/U -SN OVC013 M20/M23 A3026 RMK SN4SC4 SLP312

CYQR;2009-02-25 22:41;CYQR 252241Z 02011KT 2 1/2SM -SN OVC012 M19/ RMK SN2SC5 VIS VRB 2-3

CYQR;2009-02-25 23:00;CYQR 252300Z 03009KT 4SM -SN BKN012 OVC062 M20/M23 A3026 RMK SC3SC2 SLP311

CYQR;2009-02-26 00:00;CYQR 260000Z 03011KT 10SM -SN DRSN SCT016 BKN060 OVC090 M20/M24 A3027 RMK SC3SC2AC2 SLP317

CYQR;2009-02-26 01:00;CYQR 260100Z 04010KT 10SM -SN DRSN OVC019 M20/M24 A3028 RMK SC8 SLP318

CYQR;2009-02-26 01:43;CYQR 260143Z 04010KT 3SM -SN DRSN BKN009 OVC070 M20/ RMK SC6AC2

CYQR;2009-02-26 02:00;CYQR 260200Z 03009KT 3SM -SN DRSN BKN012 OVC081 M20/M24 A3029 RMK SC6AC2 SLP324

CYQR;2009-02-26 02:26;CYQR 260226Z 03010KT 2SM -SN OVC015 M20/ RMK SC8

CYQR;2009-02-26 03:00;CYQR 260300Z 03011KT 1 1/2SM -SN VV009 M20/M24 A3029 RMK SN8 SLP322

CYQR;2009-02-26 03:29;CYQR 260329Z 03009KT 3SM -SN OVC052 M20/ RMK SC8

CYQR;2009-02-26 04:00;CYQR 260400Z 03008KT 6SM -SN OVC015 M20/M24 A3030 RMK SC8 SLP326

CYQR;2009-02-26 04:30;CYQR 260430Z 02012KT 6SM -SN OVC012 M21/ RMK SC8

CYQR;2009-02-26 05:00;CYQR 260500Z 03010KT 6SM -SN BKN012 OVC023 M21/M25 A3032 RMK SC5SC3 SLP330

CYQR;2009-02-26 05:36;CYQR 260536Z 03011KT 2SM -SN BKN012 OVC070 M21/ RMK SC6AC2

CYQR;2009-02-26 06:00;CYQR 260600Z 03011KT 2SM -SN OVC012 M21/M26 A3032 RMK SC8 /S01/ SLP329

CYQR;2009-02-26 07:00;CYQR 260700Z 02010KT 4SM -SN BKN012 M23/M27 A3033 RMK SC5 SLP331

CYQR;2009-02-26 07:15;CYQR 260715Z 03011KT 8SM -SN BKN017 M23/ RMK SC5

CYQR;2009-02-26 08:00;CYQR 260800Z 03009KT 10SM -SN OVC022 M23/M28 A3034 RMK SC6 SLP335

CYQR;2009-02-26 09:00;CYQR 260900Z 03007KT 15SM -SN SCT022 M25/M30 A3034 RMK SC2 SLP340

CYQR;2009-02-26 10:00;CYQR 261000Z 05006KT 15SM -SN FEW020 M27/M32 A3034 RMK SC1 SLP338

CYQR;2009-02-26 10:15;CYQR 261015Z 04006KT 15SM FEW020 M27/ RMK SC1

CYQR;2009-02-26 11:00;CYQR 261100Z 36006KT 15SM SKC M29/M34 A3034 RMK SLP339

CYQR;2009-02-26 12:00;CYQR 261200Z 01007KT 15SM R13/3500VP6000FT/D SCT250 M31/M35 A3034 RMK CI1 RVR VIS REDUCTION DUE SNOW CLRNG RWY 13 SLP345

CYQR;2009-02-26 13:00;CYQR 261300Z 03005KT 15SM SCT250 M27/M32 A3033 RMK CI2 SLP342

CYQR;2009-02-26 14:00;CYQR 261400Z 02006KT 15SM FEW140 BKN250 M27/M32 A3034 RMK AC2CI1 SLP345

CYQR;2009-02-26 14:14;CYQR 261414Z 02006KT 6SM IC BKN140 BKN220 M26/ RMK AC3CI1

CYQR;2009-02-26 15:00;CYQR 261500Z 10007KT 10SM SCT140 OVC220 M25/M29 A3036 RMK AC4CI3 IC SLP346

CYQR;2009-02-26 16:00;CYQR 261600Z 11005KT 12SM FEW068 FEW140 OVC220 M24/M29 A3036 RMK AC1AC2CI4 SLP346

CYQR;2009-02-26 17:00;CYQR 261700Z 11007KT 15SM BKN120 OVC220 OVC250 M23/M29 A3036 RMK AC5CI2CC1 CC TR SLP347

CYQR;2009-02-26 18:00;CYQR 261800Z 13005KT 15SM SCT083 BKN220 M22/M28 A3036 RMK AC4CI2 SLP346

CYQR;2009-02-26 19:00;CYQR 261900Z 13004KT 15SM FEW083 FEW120 BKN220 M22/M28 A3035 RMK AC1AC1CI1 SLP343

CYQR;2009-02-26 20:00;CYQR 262000Z 16007KT 15SM FEW120 BKN220 M22/M27 A3034 RMK AC1CI2 SLP340

CYQR;2009-02-26 21:00;CYQR 262100Z 14004KT 15SM FEW230 M21/M27 A3033 RMK CI1 SLP336

CYQR;2009-02-26 22:00;CYQR 262200Z 05002KT 15SM FEW230 M21/M27 A3032 RMK CI1 SLP334

CYQR;2009-02-26 23:00;CYQR 262300Z 00000KT 15SM FEW230 M21/M27 A3033 RMK CI1 SLP335

CYQR;2009-02-27 00:00;CYQR 270000Z 11008KT 15SM FEW230 M22/M29 A3032 RMK CI1 SLP340

CYQR;2009-02-27 01:00;CYQR 270100Z 10007KT 15SM FEW230 M23/M30 A3031 RMK CI1 SLP337

CYQR;2009-02-27 02:00;CYQR 270200Z 12006KT 15SM SKC M27/M32 A3033 RMK SLP341

CYQR;2009-02-27 03:00;CYQR 270300Z 11007KT 15SM SKC M27/M32 A3032 RMK SLP339

CYQR;2009-02-27 04:00;CYQR 270400Z 11008KT 15SM SKC M27/M32 A3031 RMK SLP336

CYQR;2009-02-27 05:00;CYQR 270500Z 12008KT 15SM SKC M29/M34 A3031 RMK SLP334

CYQR;2009-02-27 06:00;CYQR 270600Z 14007KT 15SM SKC M31/M36 A3031 RMK SLP337

CYQR;2009-02-27 07:00;CYQR 270700Z 14007KT 15SM SKC M30/M35 A3030 RMK SLP334

CYQR;2009-02-27 08:00;CYQR 270800Z 14009KT 15SM SKC M30/M35 A3031 RMK SLP335

CYQR;2009-02-27 09:00;CYQR 270900Z 14010KT 15SM SKC M31/M36 A3030 RMK SLP333

CYQR;2009-02-27 10:00;CYQR 271000Z 14009KT 15SM SKC M31/M36 A3030 RMK SLP333

CYQR;2009-02-27 11:00;CYQR 271100Z 14013KT 15SM SKC M30/M35 A3028 RMK SLP327

CYQR;2009-02-27 12:00;CYQR 271200Z 14015KT 15SM VCFG SKC M31/M36 A3028 RMK BR W-NW VIS 5 SLP324

CYQR;2009-02-27 13:00;CYQR 271300Z 14015KT 4SM BR SKC M30/M34 A3026 RMK VIS SW-W-NW 2 SLP320

CYQR;2009-02-27 14:00;CYQR 271400Z 14017KT 4SM IC FEW160 FEW300 M29/M34 A3027 RMK AC1CI0 VIS SW-NW 2 SLP321

CYQR;2009-02-27 15:00;CYQR 271500Z 15016KT 4SM IC DRSN FEW051 FEW300 M29/M34 A3028 RMK SC2CI0 VIS W 3 SLP330

CYQR;2009-02-27 16:00;CYQR 271600Z 15015KT 15SM DRSN SCT300 M29/M34 A3029 RMK CI1 SLP332

CYQR;2009-02-27 17:00;CYQR 271700Z 15015KT 12SM DRSN FEW300 M26/M31 A3029 RMK CI1 IC SLP333

CYQR;2009-02-27 17:26;CYQR 271726Z 15013KT 15SM DRSN SCT300 M25/ RMK CI1

CYQR;2009-02-27 18:00;CYQR 271800Z CCA 15015KT 15SM DRSN FEW300 M24/M29 A3029 RMK CI1 SLP331

CYQR;2009-02-27 19:00;CYQR 271900Z 16012KT 15SM FEW300 M23/M27 A3029 RMK CI0 SLP331

CYQR;2009-02-27 20:00;CYQR 272000Z CCA 16013KT 15SM DRSN FEW300 M20/M25 A3027 RMK CI0 CONTRAILS SLP325

CYQR;2009-02-27 21:00;CYQR 272100Z 16010KT 15SM DRSN SCT300 M18/M22 A3025 RMK CI0 SLP313

CYQR;2009-02-27 22:00;CYQR 272200Z 18009KT 15SM FEW150 SCT300 M16/M20 A3025 RMK AC1CI0 SLP313

CYQR;2009-02-27 23:00;CYQR 272300Z 20011KT 15SM SCT300 M16/M21 A3025 RMK CI0 SLP313

CYQR;2009-02-28 00:00;CYQR 280000Z 23007KT 15SM FEW300 M18/M23 A3026 RMK CI0 SLP314

CYQR;2009-02-28 01:00;CYQR 280100Z 22008KT 15SM FEW300 M22/M26 A3026 RMK CI1 CONTRAILS SLP316

CYQR;2009-02-28 02:00;CYQR 280200Z 25009KT 15SM SKC M23/M26 A3027 RMK SLP318

CYQR;2009-02-28 03:00;CYQR 280300Z 27009KT 15SM SKC M22/M26 A3028 RMK SLP324

CYQR;2009-02-28 04:00;CYQR 280400Z 28008KT 15SM FEW300 M24/M28 A3030 RMK CI1 SLP330

CYQR;2009-02-28 05:00;CYQR 280500Z 30014KT 15SM FEW300 M23/M27 A3032 RMK CI0 SLP336

CYQR;2009-02-28 06:00;CYQR 280600Z 30010KT 15SM FEW300 M23/M27 A3035 RMK CI0 SLP345

CYQR;2009-02-28 07:00;CYQR 280700Z 26004KT 15SM SKC M23/M28 A3038 RMK SLP354

CYQR;2009-02-28 08:00;CYQR 280800Z 32011KT 15SM SKC M24/M28 A3039 RMK SLP359

CYQR;2009-02-28 09:00;CYQR 280900Z 33011KT 15SM SKC M24/M28 A3042 RMK SLP364

CYQR;2009-02-28 10:00;CYQR 281000Z 33008KT 15SM SKC M25/M29 A3043 RMK SLP368

CYQR;2009-02-28 11:00;CYQR 281100Z 34012KT 15SM SKC M25/M30 A3045 RMK SLP374

CYQR;2009-02-28 12:00;CYQR 281200Z 34011KT 15SM SKC M25/M30 A3048 RMK SLP385

CYQR;2009-02-28 13:00;CYQR 281300Z 30005KT 15SM SKC M27/M32 A3051 RMK SLP396

CYQR;2009-02-28 14:00;CYQR 281400Z 25007KT 15SM SKC M29/M34 A3053 RMK SLP401

CYQR;2009-02-28 15:00;CYQR 281500Z 29006KT 12SM SKC M28/M33 A3055 RMK SLP415

CYQR;2009-02-28 16:00;CYQR 281600Z 32004KT 15SM SKC M26/M30 A3057 RMK SLP421

CYQR;2009-02-28 17:00;CYQR 281700Z 28004KT 15SM SKC M23/M28 A3059 RMK SLP430

CYQR;2009-02-28 18:00;CYQR 281800Z 32007KT 15SM SKC M21/M27 A3061 RMK SLP432

CYQR;2009-02-28 19:00;CYQR 281900Z 30006KT 15SM SKC M19/M25 A3063 RMK SLP439

CYQR;2009-02-28 20:00;CYQR 282000Z 33006KT 15SM SKC M18/M24 A3062 RMK SLP434

CYQR;2009-02-28 21:00;CYQR 282100Z 32007KT 15SM SKC M18/M24 A3062 RMK SLP433

CYQR;2009-02-28 22:00;CYQR 282200Z 33005KT 15SM SKC M17/M23 A3063 RMK SLP435

CYQR;2009-02-28 23:00;CYQR 282300Z 29005KT 15SM SKC M18/M23 A3063 RMK SLP438

CYQR;2009-03-01 01:00;CYQR 010100Z 33005KT 15SM FEW350 M22/M27 A3063 RMK CI1 CONTRAILS SLP438

CYQR;2009-03-01 02:00;CYQR 010200Z 35003KT 15SM SKC M21/M26 A3063 RMK SLP439

CYQR;2009-03-01 03:00;CYQR 010300Z 00000KT 15SM SKC M26/M28 A3061 RMK SLP440

CYQR;2009-03-01 04:00;CYQR 010400Z 15006KT 15SM SKC M28/M32 A3061 RMK SLP440

CYQR;2009-03-01 05:00;CYQR 010500Z 13007KT 15SM SKC M26/M30 A3058 RMK SLP430

CYQR;2009-03-01 06:00;CYQR 010600Z 13008KT 15SM SKC M27/M31 A3056 RMK SLP419

CYQR;2009-03-01 07:00;CYQR 010700Z 12010KT 15SM FEW001 M28/M32 A3053 RMK ST1 CLD LYR FM UPWND AREA OF CITY SLP409

CYQR;2009-03-01 08:00;CYQR 010800Z 13010KT 6SM BR SCT001 M26/M30 A3052 RMK ST1 SLP406

CYQR;2009-03-01 09:00;CYQR 010900Z 14012KT 4SM BR FEW002 M26/M31 A3050 RMK ST1 SLP395

CYQR;2009-03-01 10:00;CYQR 011000Z 14014KT 3SM R13/3500V6000FT/D BR SKC M25/M30 A3048 RMK FG2 VIS VAR 2-4 SLP386

CYQR;2009-03-01 10:04;CYQR 011004Z 14015KT 2SM R13/3000V4500FT/D BR SKC M26/ RMK FG2 VIS VAR 1-2

CYQR;2009-03-01 10:12;CYQR 011012Z 14015KT 1 1/2SM R13/3000FT/N BR SKC M26/ RMK FG2 VIS VAR 1-2

CYQR;2009-03-01 10:19;CYQR 011019Z 14015KT 3/4SM R13/2800V5500FT/U BR SKC M25/ RMK FG4

CYQR;2009-03-01 10:39;CYQR 011039Z 14016KT 1/2SM R13/P6000FT/U FZFG SKC M24/ RMK FG5

CYQR;2009-03-01 11:00;CYQR 011100Z 14019KT 1/2SM R13/4500VP6000FT/D FZFG VV001 M24/M29 A3043 RMK FG8 SLP371

CYQR;2009-03-01 12:00;CYQR 011200Z 14018KT 1/2SM R13/6000FT/N DRSN FZFG VV001 M24/M28 A3040 RMK FG8 SLP360

CYQR;2009-03-01 12:22;CYQR 011222Z 14020KT 3/4SM R13/6000FT/U DRSN BR VV001 M24/ RMK FG8

CYQR;2009-03-01 12:30;CYQR 011230Z 14018G24KT 1 1/2SM DRSN BR OVC002 M24/ RMK ST8

CYQR;2009-03-01 12:43;CYQR 011243Z 14018KT 1 1/2SM DRSN BR OVC003 M23/ RMK ST8

CYQR;2009-03-01 13:00;CYQR 011300Z 14017G22KT 1 1/2SM DRSN BR OVC003 M23/M27 A3037 RMK SF6 SLP348

CYQR;2009-03-01 13:25;CYQR 011325Z 14020KT 2SM DRSN BR OVC100 M21/ RMK AC6

CYQR;2009-03-01 13:35;CYQR 011335Z 14020G25KT 3SM BLSN OVC100 M21/ RMK AC6

CYQR;2009-03-01 14:00;CYQR 011400Z CCA 14019KT 12SM DRSN OVC100 M21/M25 A3033 REBLSN RMK AC8 VIS SW-NW 2 BLSN SLP336

CYQR;2009-03-01 15:00;CYQR 011500Z 14019G24KT 12SM DRSN BKN099 M19/M23 A3028 RMK AC7 VIS SW-NW 2 PRESFR SLP316

CYQR;2009-03-01 15:24;CYQR 011524Z 15021G26KT 2SM BLSN OVC092 M18/ RMK AC7 VIS NE-SE 8

CYQR;2009-03-01 15:46;CYQR 011546Z 15019G26KT 10SM DRSN SCT089 OVC096 M18/ REBLSN RMK AC3AC4 VIS W 2 BLSN

CYQR;2009-03-01 16:00;CYQR 011600Z 14021KT 15SM DRSN BKN089 OVC096 M18/M22 A3026 REBLSN RMK AC6AC2 VIS W 3 BLSN SLP312

CYQR;2009-03-01 16:07;CYQR 011607Z 14020G25KT 6SM -SN DRSN OVC089 RMK AC8

CYQR;2009-03-01 17:00;CYQR 011700Z 15022G27KT 6SM -SN DRSN OVC093 M17/M21 A3023 RMK AC8 HVY DRSN OCNL BLSN SLP301

CYQR;2009-03-01 17:49;CYQR 011749Z 16021G27KT 6SM BLSN BKN089 M16/ RMK AC6

CYQR;2009-03-01 18:00;CYQR 011800Z 15022G29KT 3SM BLSN BKN089 M16/M20 A3019 RMK AC6 SLP285

CYQR;2009-03-01 19:00;CYQR 011900Z 15018G29KT 12SM DRSN BKN091 BKN220 M15/M19 A3016 REBLSN RMK AC5CI2 VIS W 4 BLSN SLP277

CYQR;2009-03-01 20:00;CYQR 012000Z 15017G26KT 12SM DRSN SCT093 BKN220 M14/M18 A3014 RMK AC4CI2 VIS W 6 SLP268

CYQR;2009-03-01 21:00;CYQR 012100Z 15016KT 10SM DRSN FEW099 BKN220 M12/M18 A3015 RMK AC2CI2 SLP270

CYQR;2009-03-01 22:00;CYQR 012200Z 14018KT 15SM DRSN SCT220 M12/M14 A3012 RMK CI2 SLP259

CYQR;2009-03-01 23:00;CYQR 012300Z 14017KT 15SM DRSN SCT200 BKN300 M12/M14 A3010 RMK CI2CI1 SLP252

CYQR;2009-03-02 00:00;CYQR 020000Z CCA 13016KT 15SM DRSN FEW200 BKN300 M12/M15 A3009 RMK CI2CI2 SLP248

CYQR;2009-03-02 01:00;CYQR 020100Z 14016KT 15SM DRSN FEW200 BKN300 M13/M15 A3009 RMK CI1CI2 SLP246

CYQR;2009-03-02 02:00;CYQR 020200Z 14014KT 15SM DRSN FEW200 BKN300 M14/M16 A3009 RMK CI1CI2 SLP246

CYQR;2009-03-02 03:00;CYQR 020300Z 13015KT 15SM DRSN FEW200 BKN300 M14/M16 A3008 RMK CI1CI2 SLP241

CYQR;2009-03-02 04:00;CYQR 020400Z 13015KT 15SM DRSN BKN300 M15/M17 A3007 RMK CI1 SLP237

CYQR;2009-03-02 05:00;CYQR 020500Z 14016KT 15SM DRSN BKN300 M15/M17 A3009 RMK CI1 SLP243

CYQR;2009-03-02 06:00;CYQR 020600Z 14015KT 15SM DRSN BKN300 M14/M16 A3008 RMK CI6 SLP237

CYQR;2009-03-02 07:00;CYQR 020700Z 14015KT 15SM DRSN BKN300 M15/M17 A3007 RMK CI6 SLP234

CYQR;2009-03-02 08:00;CYQR 020800Z 13015KT 15SM DRSN BKN240 BKN300 M15/M17 A3007 RMK CI1CI2 SLP233

CYQR;2009-03-02 09:00;CYQR 020900Z 14015KT 15SM DRSN FEW240 M15/M18 A3005 RMK CI2 SLP226

CYQR;2009-03-02 10:00;CYQR 021000Z 14015KT 15SM DRSN BKN120 M16/M18 A3005 RMK AC7 SLP227

CYQR;2009-03-02 11:00;CYQR 021100Z 14014KT 15SM DRSN BKN120 M16/M18 A3004 RMK AC6 SLP223

CYQR;2009-03-02 12:00;CYQR 021200Z 13012KT 15SM DRSN BKN120 M15/M18 A3004 RMK AC7 SLP223

CYQR;2009-03-02 13:00;CYQR 021300Z 13016KT 15SM DRSN BKN120 M15/M18 A3003 RMK AC6 SLP219

CYQR;2009-03-02 14:00;CYQR 021400Z 14018KT 15SM DRSN FEW050 BKN120 OVC300 M15/M17 A3003 RMK SC2AC5CI1 SLP218

CYQR;2009-03-02 15:00;CYQR 021500Z 14016KT 15SM DRSN SCT088 BKN240 OVC300 M15/M17 A3003 RMK AC4CI2CI1 SLP219

CYQR;2009-03-02 16:00;CYQR 021600Z 14018KT 12SM DRSN SCT090 OVC240 M14/M16 A3002 RMK AC3CI4 SLP216

CYQR;2009-03-02 17:00;CYQR 021700Z 14019G24KT 12SM DRSN SCT090 OVC240 M13/M15 A3001 RMK AS4CI3 SLP214

CYQR;2009-03-02 18:00;CYQR 021800Z 14021KT 15SM DRSN SCT084 BKN240 OVC300 M12/M14 A2999 RMK AC3CI2CI2 SLP204

CYQR;2009-03-02 19:00;CYQR 021900Z 14024KT 8SM DRSN SCT090 BKN240 M12/M14 A2997 RMK AC4CI2 SLP198

CYQR;2009-03-02 20:00;CYQR 022000Z 14021KT 8SM DRSN SCT092 OVC240 M10/M13 A2996 RMK AC4CI3 SLP194

CYQR;2009-03-02 21:00;CYQR 022100Z 14019G24KT 15SM FEW093 BKN200 OVC240 M10/M13 A2995 RMK AC2CI2CI3 SLP191

CYQR;2009-03-02 22:00;CYQR 022200Z 13023KT 10SM DRSN FEW090 BKN200 OVC240 M10/M12 A2994 RMK AC2CI2CI3 SLP187

CYQR;2009-03-02 23:00;CYQR 022300Z 14019G27KT 8SM DRSN BKN100 M10/M12 A2994 RMK AC7 SLP186

CYQR;2009-03-03 00:00;CYQR 030000Z 14023G30KT 6SM BLSN BKN100 BKN250 M10/M12 A2992 RMK AC6CI0 SLP179

CYQR;2009-03-03 01:00;CYQR 030100Z 14023G28KT 6SM BLSN BKN100 BKN250 M10/M13 A2991 RMK AC6CI0 SLP177

CYQR;2009-03-03 02:00;CYQR 030200Z 14021KT 6SM BLSN BKN100 BKN250 M10/M12 A2990 RMK AC6CI1 SLP174

CYQR;2009-03-03 03:00;CYQR 030300Z 14019G24KT 6SM BLSN BKN100 BKN250 M10/M12 A2988 RMK AC6CI1 SLP165

CYQR;2009-03-03 04:00;CYQR 030400Z 14019G24KT 6SM BLSN BKN099 BKN250 M10/M12 A2988 RMK AC6CI1 SLP165

CYQR;2009-03-03 05:00;CYQR 030500Z 14020G25KT 6SM BLSN BKN097 BKN250 M10/M12 A2986 RMK AC6CI1 SLP158

CYQR;2009-03-03 06:00;CYQR 030600Z 14016G21KT 6SM BLSN SKC M10/M13 A2984 RMK SLP150

CYQR;2009-03-03 07:00;CYQR 030700Z 14016G21KT 6SM BLSN SKC M11/M13 A2983 RMK SLP145

CYQR;2009-03-03 08:00;CYQR 030800Z 14017KT 10SM DRSN SKC M11/M13 A2980 REBLSN RMK SLP138

CYQR;2009-03-03 09:00;CYQR 030900Z 14016KT 10SM DRSN SKC M12/M14 A2979 REBLSN RMK SLP131

CYQR;2009-03-03 10:00;CYQR 031000Z 14016KT 10SM DRSN SKC M12/M14 A2976 RMK SLP122

CYQR;2009-03-03 11:00;CYQR 031100Z 14016KT 10SM DRSN SKC M12/M14 A2975 RMK OBS TKN +04 SLP118

CYQR;2009-03-03 12:00;CYQR 031200Z 13017KT 15SM DRSN SKC M12/M14 A2974 RMK FROIN SLP113

CYQR;2009-03-03 13:00;CYQR 031300Z 13019KT 15SM DRSN BKN025 BKN230 M12/M14 A2971 RMK SC4CI2 SLP106

CYQR;2009-03-03 14:00;CYQR 031400Z 14020KT 12SM DRSN FEW025 BKN230 M12/M14 A2969 RMK SC2CI2 SLP100

CYQR;2009-03-03 15:00;CYQR 031500Z 14016KT 10SM DRSN BKN120 BKN230 M12/M14 A2971 RMK AC5CI2 SLP104

CYQR;2009-03-03 16:00;CYQR 031600Z 14018KT 10SM DRSN BKN088 BKN240 M10/M13 A2969 RMK AC5CI2 SLP096

CYQR;2009-03-03 17:00;CYQR 031700Z 13022KT 10SM DRSN SCT088 BKN240 M09/M12 A2967 RMK AC4CI3 SLP090

CYQR;2009-03-03 18:00;CYQR 031800Z 12018KT 10SM DRSN FEW025 SCT087 BKN240 M08/M11 A2966 RMK SC1AC2CI2 SLP084

CYQR;2009-03-03 19:00;CYQR 031900Z 13018KT 10SM DRSN FEW025 BKN076 BKN240 M07/M10 A2966 RMK SC1AC4CI2 SLP084

CYQR;2009-03-03 20:00;CYQR 032000Z 14014KT 10SM DRSN FEW025 BKN090 BKN240 M06/M09 A2966 RMK SC1AC5CI1 SLP083

CYQR;2009-03-03 21:00;CYQR 032100Z 14017KT 10SM DRSN FEW025 SCT090 BKN240 M05/M08 A2965 RMK SC1AC3CI2 SLP081

CYQR;2009-03-03 22:00;CYQR 032200Z 14016KT 10SM DRSN FEW025 SCT085 BKN240 M05/M08 A2967 RMK SC2AC2CI2 SLP085

CYQR;2009-03-03 23:00;CYQR 032300Z 14013KT 12SM DRSN FEW025 BKN085 OVC240 M05/M08 A2967 RMK SC1AC5CI2 SLP087

CYQR;2009-03-04 00:00;CYQR 040000Z 14016KT 12SM DRSN FEW025 BKN089 OVC240 M05/M08 A2968 RMK SC2AC4CI1 SLP090

CYQR;2009-03-04 01:00;CYQR 040100Z 14014KT 10SM BKN090 BKN240 M06/M08 A2968 RMK AC6CI1 SLP090

CYQR;2009-03-04 02:00;CYQR 040200Z 14011KT 15SM FEW090 FEW240 M06/M08 A2969 RMK AC2CI1 SLP095

CYQR;2009-03-04 03:00;CYQR 040300Z 12007KT 7SM SKC M09/M10 A2969 RMK BR SLP097

CYQR;2009-03-04 04:00;CYQR 040400Z 16003KT 7SM SKC M09/M11 A2971 RMK BR SLP101

CYQR;2009-03-04 04:47;CYQR 040447Z 00000KT 2 1/2SM BR SKC M09/

CYQR;2009-03-04 05:00;CYQR 040500Z 00000KT 2 1/2SM BR SKC M09/M11 A2971 RMK SLP101

CYQR;2009-03-04 05:21;CYQR 040521Z 18003KT 2 1/2SM BR OVC001 M11/ RMK SF8

CYQR;2009-03-04 05:29;CYQR 040529Z 18003KT 1 1/2SM BR OVC001 M10/ RMK FG2SF6

CYQR;2009-03-04 05:33;CYQR 040533Z 18004KT 1SM R13/P6000FT/U BR OVC001 M10/ RMK FG5SF3

CYQR;2009-03-04 05:38;CYQR 040538Z 18003KT 1SM R13/P6000FT/U BR VV000 M10/ RMK FG8

CYQR;2009-03-04 05:40;CYQR 040540Z 18003KT 0SM R13/P6000FT/U FZFG VV000 M10/ RMK FG8

CYQR;2009-03-04 06:00;CYQR 040600Z 00000KT 0SM R13/0800V1000FT/N FZFG VV000 M09/M11 A2971 RMK FG8 SLP100

CYQR;2009-03-04 06:48;CYQR 040648Z 15005KT 3/4SM R13/1600FT/N BR FEW001 OVC006 M09/ RMK FG2SF1SF6

CYQR;2009-03-04 07:00;CYQR 040700Z 15003KT 1SM R13/1800VP6000FT/U BR SCT001 OVC006 M09/M11 A2970 RMK SF4SF4 SLP099

CYQR;2009-03-04 07:09;CYQR 040709Z 17002KT 3/4SM R13/1100VP6000FT/D BR OVC001 OVC006 M10/ RMK SF5SF3

CYQR;2009-03-04 07:15;CYQR 040715Z 18005KT 0SM R13/0800V1400FT/D FZFG VV000 M10/ RMK FG8

CYQR;2009-03-04 07:42;CYQR 040742Z 17007KT 1/8SM R13/1200V1800FT/U FZFG VV000 M10/ RMK FG8 FROIN

CYQR;2009-03-04 08:00;CYQR 040800Z 18004KT 1/8SM R13/1800FT/N FZFG VV001 M09/M10 A2971 RMK FG8 SLP102

CYQR;2009-03-04 08:18;CYQR 040818Z 18005KT 1 1/2SM R13/3500V5500FT/U BR OVC001 M08/ RMK FG4SF4

CYQR;2009-03-04 08:30;CYQR 040830Z 25002KT 2 1/2SM BR FEW001 BKN026 M08/ RMK FG1SF2SC5

CYQR;2009-03-04 09:00;CYQR 040900Z 14007KT 4SM BR BKN083 M07/M08 A2972 RMK FG1AC6 SLP101

CYQR;2009-03-04 10:00;CYQR 041000Z 18003KT 6SM BR OVC071 M06/M07 A2972 RMK AC8 FROIN BR SLP100

CYQR;2009-03-04 11:00;CYQR 041100Z 13003KT 6SM BR BKN074 BKN240 M07/M08 A2972 RMK AC6CI1 SLP101

CYQR;2009-03-04 12:00;CYQR 041200Z 09006KT 6SM BR BKN085 BKN240 M08/M10 A2970 RMK AC2CI1 SLP096

CYQR;2009-03-04 13:00;CYQR 041300Z 14008KT 3SM BR BKN001 BKN085 BKN240 M09/M11 A2969 RMK SF5AC2CI0 SLP092

CYQR;2009-03-04 13:09;CYQR 041309Z 15007KT 1 1/2SM BR BKN001 BKN085 BKN240 RMK SF5AC2CI0

CYQR;2009-03-04 13:23;CYQR 041323Z 14009KT 1/2SM R13/2000VP6000FT/D FZFG BKN007 BKN069 M07/ RMK FG3SC2SC2

CYQR;2009-03-04 13:31;CYQR 041331Z 14009KT 1/2SM R13/2000VP6000FT/D FZFG BKN007 BKN069 M07/ RMK FG3SC2SC2 R13/2000VP6000/D

CYQR;2009-03-04 13:48;CYQR 041348Z 10006KT 1SM R13/P6000FT/D BR SCT007 BKN043 BKN067 M08/ RMK SF3SC2SC2

CYQR;2009-03-04 14:00;CYQR 041400Z 07004KT 3SM BR FEW007 BKN041 BKN067 M07/M08 A2970 RMK SF2SC3SC2 VIS W 1 SLP095

CYQR;2009-03-04 14:31;CYQR 041431Z 11006KT 2SM BR FEW001 BKN038 M07/ RMK SF2SC4

CYQR;2009-03-04 15:00;CYQR 041500Z 10005KT 2 1/2SM BR FEW001 BKN037 M06/M07 A2968 RMK SF2SC5 SLP089

CYQR;2009-03-04 15:15;CYQR 041515Z 13005KT 3SM BR FEW001 BKN037 BKN062 M05/ RMK SF2SC4SC2

CYQR;2009-03-04 16:00;CYQR 041600Z 09002KT 3SM BR FEW002 OVC031 M04/M05 A2968 RMK SF2SC6 SLP087

CYQR;2009-03-04 17:00;CYQR 041700Z 16009KT 2SM BR BKN001 OVC031 M04/M05 A2966 RMK SF5SC3 VIS W 1 SLP082

CYQR;2009-03-04 17:03;CYQR 041703Z 16010KT 5/8SM R13/1600VP6000FT/D BR BKN001 OVC040 M04/ RMK SF6SC2

CYQR;2009-03-04 17:07;CYQR 041707Z 16010KT 1/4SM R13/1400V3000FT/D FZFG VV001 M04/ RMK FG8

CYQR;2009-03-04 17:47;CYQR 041747Z 16011KT 1/2SM R13/1600FT/N FZFG OVC001 M03/ RMK FG6SF2

CYQR;2009-03-04 17:51;CYQR 041751Z 16011KT 3/4SM R13/1600FT/N BR OVC001 M02/ RMK FG3SF5

CYQR;2009-03-04 18:00;CYQR 041800Z 16011KT 3/4SM R13/1600V2200FT/N BR BKN001 OVC040 M02/M03 A2965 RMK FG3SF2SC1 SLP075

CYQR;2009-03-04 18:07;CYQR 041807Z 15010KT 1 1/2SM R13/2200V4000FT/U BR SCT001 BKN040 BKN120 M02/ RMK SF3SC2AC2

CYQR;2009-03-04 18:38;CYQR 041838Z 15011KT 3SM BR FEW001 SCT040 BKN120 BKN240 M02/ RMK SF2SC2AC2CI0

CYQR;2009-03-04 19:00;CYQR 041900Z 15010KT 6SM BR FEW001 FEW040 SCT080 BKN240 M01/M02 A2963 RMK SF1SC1AC2CI1 SLP069

CYQR;2009-03-04 20:00;CYQR 042000Z 18011KT 15SM FEW040 SCT080 BKN240 01/00 A2961 RMK SC1AC3CI1 SLP063

CYQR;2009-03-04 21:00;CYQR 042100Z 18008KT 15SM FEW240 01/M00 A2959 RMK CI1 SLP050

CYQR;2009-03-04 22:00;CYQR 042200Z 20002KT 15SM FEW240 02/M00 A2956 RMK CI1 SLP042

CYQR;2009-03-04 23:00;CYQR 042300Z 17003KT 15SM FEW240 01/M01 A2957 RMK CI1 SLP043

CYQR;2009-03-05 00:00;CYQR 050000Z 17006KT 15SM SCT240 00/M01 A2957 RMK CI1 SLP046

CYQR;2009-03-05 01:00;CYQR 050100Z 16008KT 15SM SCT240 M01/M03 A2958 RMK CI1 SLP047

CYQR;2009-03-05 02:00;CYQR 050200Z 19003KT 4SM BR BCFG SCT240 M03/M04 A2958 RMK CI2 SLP048

CYQR;2009-03-05 02:17;CYQR 050217Z 19004KT 2 1/2SM R13/2000FT/D BR PRFG SCT240 M03/ RMK CI2

CYQR;2009-03-05 02:43;CYQR 050243Z 00000KT 1/4SM R13/1100V1600FT/N FZFG SKC M05/ RMK FG5

CYQR;2009-03-05 03:00;CYQR 050300Z 00000KT 1/4SM R13/1100V1800FT/D FZFG SKC M04/M06 A2958 RMK FG6 SLP049

CYQR;2009-03-05 03:18;CYQR 050318Z 12003KT 1SM R13/1200V1800FT/N BR SKC M05/ RMK FG6 VIS W-NW 1/4

CYQR;2009-03-05 03:30;CYQR 050330Z 12002KT 2SM R13/1200V6000FT/U BR SKC M05/ RMK FG3 VIS W-NW 11/2

CYQR;2009-03-05 03:42;CYQR 050342Z 09003KT 3SM R13/1400VP6000FT/U BR SKC M05/ RMK FG2

CYQR;2009-03-05 04:00;CYQR 050400Z 09003KT 3SM BR SKC M05/M06 A2955 RMK FG2 SLP042

CYQR;2009-03-05 04:31;CYQR 050431Z 09005KT 1/2SM R13/4500VP6000FT/D FZFG VV001 M06/ RMK FG8

CYQR;2009-03-05 04:40;CYQR 050440Z 10005KT 1/4SM R13/1600V5500FT/D FZFG VV001 M06/ RMK FG8

CYQR;2009-03-05 05:00;CYQR 050500Z CCA 10006KT 1/4SM R13/1600V3500FT/D FZFG VV001 M06/M08 A2955 RMK FG8 FROIN SLP040

CYQR;2009-03-05 06:00;CYQR 050600Z 12008KT 1/4SM R13/1600V3000FT/U FZFG VV006 M07/M09 A2954 RMK FG8 FROIN SLP038

CYQR;2009-03-05 06:41;CYQR 050641Z 14005KT 1/8SM R13/1400FT/N FZFG VV004 M07/ RMK FG8

CYQR;2009-03-05 07:00;CYQR 050700Z 12005KT 1/8SM R13/1200V1800FT/N FZFG VV006 M07/M09 A2954 RMK FG8 SLP036

CYQR;2009-03-05 07:48;CYQR 050748Z 14004KT 1/2SM R13/3500V5500FT/U FZFG VV006 M08/ RMK FG8

CYQR;2009-03-05 08:00;CYQR 050800Z 13005KT 1/2SM R13/3500V5000FT/N FZFG VV006 M08/M10 A2954 RMK FG8 SLP035

CYQR;2009-03-05 09:00;CYQR 050900Z 12006KT 1/4SM R13/3000FT/U FZFG VV006 M09/M11 A2953 RMK FG8 FROIN SLP031

CYQR;2009-03-05 10:00;CYQR 051000Z 12003KT 5/8SM R13/2800FT/N BR OVC006 M09/M11 A2952 RMK FG6SF1 SLP029

CYQR;2009-03-05 11:00;CYQR 051100Z 12005KT 5/8SM R13/2400VP6000FT/U BR OVC004 M10/M12 A2951 RMK FG6SF2 SLP026

CYQR;2009-03-05 12:00;CYQR 051200Z CCA 13006KT 5/8SM R13/P6000FT/D BR VV006 M10/M12 A2951 RMK FG8 FROIN SLP026

CYQR;2009-03-05 12:12;CYQR 051212Z 13005KT 3/8SM R13/3500VP6000FT/D FZFG VV006 M10/ RMK FG8

CYQR;2009-03-05 12:36;CYQR 051236Z 14005KT 2SM BR SKC M10/ RMK FG3

CYQR;2009-03-05 12:49;CYQR 051249Z 12005KT 5SM BR SCT030 M10/ RMK SC2 VIS W 2

CYQR;2009-03-05 13:00;CYQR 051300Z 12007KT 6SM BR SCT030 SCT230 M10/M12 A2951 RMK SC2CI0 VIS W 2 SLP025

CYQR;2009-03-05 14:00;CYQR 051400Z 14008KT 10SM FEW030 SCT160 BKN240 M10/M12 A2950 RMK SC2AC2CI2 SLP023

CYQR;2009-03-05 14:29;CYQR 051429Z 14007KT 1SM R13/P6000FT/N BR SCT001 BKN040 BKN160 BKN240 M10/ RMK SF3SC2AC1CI0

CYQR;2009-03-05 14:34;CYQR 051434Z 14007KT 1/2SM R13/P6000FT/N FZFG BKN040 BKN160 BKN240 M10/ RMK FG3SC2AC1CI0

CYQR;2009-03-05 14:53;CYQR 051453Z 13008KT 1SM R13/4000VP6000FT/U BR BKN001 BKN069 M10/ RMK SF5AC2

CYQR;2009-03-05 15:00;CYQR 051500Z 14007KT 1SM R13/P6000FT/U BR SCT001 BKN069 M09/M11 A2950 RMK SF3AC2 SLP025

CYQR;2009-03-05 15:28;CYQR 051528Z 14006KT 3SM BR BKN002 BKN072 M09/ RMK SF5AC1

CYQR;2009-03-05 16:00;CYQR 051600Z 14007KT 4SM BR SCT002 SCT070 BKN098 M08/M10 A2950 RMK SF3AC1AC2 SLP026

CYQR;2009-03-05 17:00;CYQR 051700Z 12005KT 10SM FEW030 FEW095 BKN250 M07/M09 A2950 RMK SC1AC1CI2 SLP025

CYQR;2009-03-05 18:00;CYQR 051800Z 14005KT 15SM FEW030 BKN250 M05/M06 A2951 RMK SC1CI2 SLP027

CYQR;2009-03-05 19:00;CYQR 051900Z 20005KT 15SM FEW030 SCT250 M04/M04 A2951 RMK SC1CI1 SLP028

CYQR;2009-03-05 19:43;CYQR 051943Z 28022KT 15SM BKN009 BKN085 BKN250 M02/ RMK SF5AC1CI0

CYQR;2009-03-05 19:53;CYQR 051953Z 28022G28KT 15SM FEW008 SCT085 BKN250 M02/ RMK SF2AC1CI0

CYQR;2009-03-05 20:00;CYQR 052000Z 28023G28KT 15SM FEW008 SCT085 BKN250 M02/M03 A2952 RMK SF2AC1CI0 SLP032

CYQR;2009-03-05 20:10;CYQR 052010Z 28023G28KT 10SM BKN009 OVC085 M02/ RMK SC7AC1

CYQR;2009-03-05 21:00;CYQR 052100Z 30016KT 10SM OVC009 M02/M04 A2955 RMK SC8 SLP042

CYQR;2009-03-05 21:51;CYQR 052151Z 28027KT 10SM OVC013 M03/ RMK SC8

CYQR;2009-03-05 22:00;CYQR 052200Z 29025G30KT 10SM OVC013 M03/M06 A2958 RMK SC8 SLP049

CYQR;2009-03-05 23:00;CYQR 052300Z 28030KT 10SM BKN010 OVC019 M05/M07 A2959 RMK SC5SC3 SLP055

CYQR;2009-03-05 23:47;CYQR 052347Z 28026G32KT 10SM BKN008 OVC038 M07/ RMK SC5SC3

CYQR;2009-03-06 00:00;CYQR 060000Z 28028G34KT 10SM BKN008 OVC038 M08/M10 A2962 RMK SC6SC2 SLP070

CYQR;2009-03-06 01:00;CYQR 060100Z 28031G37KT 10SM OVC010 M09/M11 A2965 RMK SC8 SLP081

CYQR;2009-03-06 01:34;CYQR 060134Z 29031G37KT 10SM -SN OVC010 M09/ RMK SC8

CYQR;2009-03-06 02:00;CYQR 060200Z 29032KT 6SM -SN OVC012 M10/M12 A2969 RMK SC8 SLP093

CYQR;2009-03-06 03:00;CYQR 060300Z 29031KT 12SM -SN OVC014 M12/M15 A2972 RMK SC8 SLP107

CYQR;2009-03-06 03:12;CYQR 060312Z 30026G33KT 15SM OVC016 M12/ RMK SC8

CYQR;2009-03-06 04:00;CYQR 060400Z 30028KT 15SM OVC020 M13/M16 A2976 RMK SC8 SLP119

CYQR;2009-03-06 04:09;CYQR 060409Z 30026G32KT 12SM -SN OVC020 M13/ RMK SC8

CYQR;2009-03-06 05:00;CYQR 060500Z 30030KT 10SM -SN OVC020 M14/M17 A2977 RMK SC8 SLP122

CYQR;2009-03-06 06:00;CYQR 060600Z 31026G32KT 2 1/2SM -SN BKN022 OVC031 M15/M17 A2980 RMK SC6SC2 SLP132

CYQR;2009-03-06 07:00;CYQR 060700Z 31024G29KT 2SM -SN DRSN OVC032 M15/M17 A2982 RMK SC8 SLP140

CYQR;2009-03-06 07:17;CYQR 060717Z 31022KT 3SM -SN DRSN OVC032 M15/ RMK SC8

CYQR;2009-03-06 08:00;CYQR 060800Z 31021G30KT 6SM -SN DRSN OVC028 M15/M18 A2986 RMK SC8 SLP153

CYQR;2009-03-06 09:00;CYQR 060900Z 31022KT 6SM -SN DRSN OVC026 M16/M18 A2988 RMK SC8 SLP161

CYQR;2009-03-06 10:00;CYQR 061000Z 32022KT 4SM -SN DRSN OVC035 M16/M19 A2990 RMK SC8 SLP166

CYQR;2009-03-06 11:00;CYQR 061100Z 31015G21KT 10SM -SN DRSN FEW007 FEW018 OVC032 M17/M20 A2992 RMK ST1SC2SC6 SLP174

CYQR;2009-03-06 12:00;CYQR 061200Z 31019KT 12SM -SN DRSN BKN037 M18/M21 A2994 RMK SC3 SLP187

CYQR;2009-03-06 12:40;CYQR 061240Z 31015KT 15SM FEW025 M19/ RMK SC1

CYQR;2009-03-06 13:00;CYQR 061300Z 30016KT 15SM FEW030 FEW080 BKN230 M19/M22 A2997 RMK SC2AC1CI0 SLP195

CYQR;2009-03-06 14:00;CYQR 061400Z 30014KT 15SM FEW080 FEW230 M20/M23 A2998 RMK AC1CI0 SLP200

CYQR;2009-03-06 15:00;CYQR 061500Z 30014KT 15SM FEW080 SCT230 M20/M22 A3000 RMK AC2CI0 SLP210

CYQR;2009-03-06 16:00;CYQR 061600Z 32017G22KT 15SM FEW080 FEW230 M17/M21 A3001 RMK AC1CI0 SLP213

CYQR;2009-03-06 17:00;CYQR 061700Z 33015KT 15SM FEW017 M18/M21 A3004 RMK SC2 SLP223

CYQR;2009-03-06 18:00;CYQR 061800Z 31019KT 15SM FEW015 M17/M20 A3005 RMK SC2 SLP228

CYQR;2009-03-06 19:00;CYQR 061900Z 30019KT 15SM FEW015 M17/M21 A3007 RMK SC2 SLP235

CYQR;2009-03-06 20:00;CYQR 062000Z 31019KT 15SM FEW017 BKN240 M17/M21 A3007 RMK SC2CI2 SLP234

CYQR;2009-03-06 21:00;CYQR 062100Z 32020KT 15SM FEW015 FEW240 M18/M22 A3005 RMK SC1CI1 SLP230

CYQR;2009-03-06 22:00;CYQR 062200Z 31020KT 15SM FEW015 M18/M22 A3004 RMK SC1 SLP228

CYQR;2009-03-06 23:00;CYQR 062300Z 32016KT 15SM SKC M18/M22 A3005 RMK SLP231

CYQR;2009-03-07 00:00;CYQR 070000Z 31014KT 15SM SKC M18/M22 A3006 RMK SLP236

CYQR;2009-03-07 01:00;CYQR 070100Z 33006KT 15SM SKC M20/M24 A3007 RMK SLP240

CYQR;2009-03-07 02:00;CYQR 070200Z 32004KT 15SM SKC M21/M24 A3007 RMK SLP240

CYQR;2009-03-07 03:00;CYQR 070300Z 26002KT 15SM SKC M23/M26 A3007 RMK SLP245

CYQR;2009-03-07 04:00;CYQR 070400Z 23004KT 15SM SKC M25/M29 A3006 RMK SLP242

CYQR;2009-03-07 05:00;CYQR 070500Z 19007KT 15SM SKC M26/M30 A3004 RMK SLP235

CYQR;2009-03-07 06:00;CYQR 070600Z 20007KT 15SM SKC M27/M31 A3003 RMK SLP232

CYQR;2009-03-07 07:00;CYQR 070700Z 17006KT 15SM SKC M26/M30 A3000 RMK SLP223

CYQR;2009-03-07 08:00;CYQR 070800Z 14009KT 15SM SKC M23/M27 A2999 RMK SLP218

CYQR;2009-03-07 09:00;CYQR 070900Z 13009KT 15SM SKC M25/M30 A2996 RMK SLP206

CYQR;2009-03-07 10:00;CYQR 071000Z 13010KT 15SM SKC M25/M29 A2993 RMK SLP197

CYQR;2009-03-07 11:00;CYQR 071100Z 13012KT 15SM FEW250 M25/M29 A2989 RMK CI1 SLP186

CYQR;2009-03-07 12:00;CYQR 071200Z 14013KT 15SM FEW250 M25/M29 A2986 RMK CI1 SLP173

CYQR;2009-03-07 12:20;CYQR 071220Z 14013KT 12SM FEW250 M25/ RMK CI1 IC

CYQR;2009-03-07 12:33;CYQR 071233Z 14014KT 2SM BR FEW250 M24/ RMK CI1 VIS NE-E 5

CYQR;2009-03-07 13:00;CYQR 071300Z 14014KT 1 1/2SM IC FEW250 M25/M29 A2984 RMK CI1 SLP166

CYQR;2009-03-07 14:00;CYQR 071400Z 14015KT 2SM IC SCT250 M24/M28 A2982 RMK CI2 VIS E 1 SLP159

CYQR;2009-03-07 14:16;CYQR 071416Z 14015KT 1 1/2SM IC BKN250 M24/ RMK CI4

CYQR;2009-03-07 15:00;CYQR 071500Z 14018KT 1 1/2SM IC BKN250 M23/M27 A2980 RMK CI2 SLP153

CYQR;2009-03-07 16:00;CYQR 071600Z 14018KT 1 1/2SM IC DRSN BKN250 M20/M24 A2978 RMK CI4 SLP147

CYQR;2009-03-07 17:00;CYQR 071700Z 15019KT 1 3/4SM IC BKN250 M18/M22 A2976 RMK CI2 SLP141

CYQR;2009-03-07 18:00;CYQR 071800Z 14022KT 2SM IC BKN250 M16/M19 A2973 RMK CI2 SLP128

CYQR;2009-03-07 19:00;CYQR 071900Z 15019G27KT 2SM IC BKN250 M14/M17 A2970 RMK CI2 SLP118

CYQR;2009-03-07 20:00;CYQR 072000Z 14022G30KT 3SM IC BKN250 M12/M15 A2966 RMK CI2 VIS W 21/2 SLP106

CYQR;2009-03-07 20:29;CYQR 072029Z 15023G28KT 12SM DRSN OVC250 M11/ RMK CI3

CYQR;2009-03-07 21:00;CYQR 072100Z 15022KT 10SM DRSN BKN250 M11/M13 A2964 RMK CI3 SLP090

CYQR;2009-03-07 22:00;CYQR 072200Z 16020G26KT 15SM DRSN BKN250 M09/M11 A2962 RMK CI2 SLP084

CYQR;2009-03-07 23:00;CYQR 072300Z 16021G26KT 15SM BKN220 M08/M10 A2960 RMK CI6 SLP077

CYQR;2009-03-08 00:00;CYQR 080000Z 15020G25KT 15SM BKN220 M07/M10 A2959 RMK CI4 SLP070

CYQR;2009-03-08 01:00;CYQR 080100Z 15018KT 15SM BKN220 M08/M10 A2959 RMK CI2 SLP071

CYQR;2009-03-08 02:00;CYQR 080200Z 16018KT 15SM FEW220 M09/M11 A2959 RMK CI1 SLP071

CYQR;2009-03-08 03:00;CYQR 080300Z 15016KT 15SM SKC M10/M11 A2958 RMK SLP068

CYQR;2009-03-08 04:00;CYQR 080400Z 12006KT 15SM SKC M10/M12 A2960 RMK SLP073

CYQR;2009-03-08 05:00;CYQR 080500Z 12005KT 15SM SKC M12/M14 A2962 RMK SLP079

CYQR;2009-03-08 06:00;CYQR 080600Z 09004KT 15SM BKN014 M13/M15 A2963 RMK SC7 SLP082

CYQR;2009-03-08 06:41;CYQR 080641Z 17004KT 15SM SCT014 BKN220 M13/ RMK SC2CI1

CYQR;2009-03-08 07:00;CYQR 080700Z 00000KT 15SM FEW014 BKN220 M13/M15 A2964 RMK SC1CI4 SLP086

CYQR;2009-03-08 08:00;CYQR 080800Z 22005KT 15SM BKN220 M15/M17 A2965 RMK CI2 SLP089

CYQR;2009-03-08 09:00;CYQR 080900Z 30006KT 8SM SCT002 BKN220 M16/M17 A2968 RMK ST1CI2 SLP096

CYQR;2009-03-08 09:29;CYQR 080929Z 31008KT 2SM R13/3000VP6000FT/U BR SKC M14/ RMK FG2

CYQR;2009-03-08 09:37;CYQR 080937Z 32009KT 1SM R13/1600VP6000FT/D BR SKC M15/ RMK FG2

CYQR;2009-03-08 09:50;CYQR 080950Z 31009KT 1/2SM R13/1400FT/N FZFG SKC M14/ RMK FG4

CYQR;2009-03-08 10:00;CYQR 081000Z 32007KT 3/4SM R13/1400V2200FT/U BR SKC M14/M15 A2967 RMK FG3 SLP093

CYQR;2009-03-08 10:17;CYQR 081017Z 32006KT 1 1/2SM R13/2200V4000FT/U BR SKC M16/ RMK FG2

CYQR;2009-03-08 10:37;CYQR 081037Z 31005KT 1/2SM R13/1200FT/N FZFG SKC M16/ RMK FG2

CYQR;2009-03-08 11:00;CYQR 081100Z 30003KT 1/4SM R13/1200FT/N FZFG SKC M18/M19 A2968 RMK FG6 SLP096

CYQR;2009-03-08 12:00;CYQR 081200Z 20004KT 1/4SM R13/2000FT/N FZFG SKC M19/M20 A2970 RMK FG7 FROIN SLP105

CYQR;2009-03-08 13:00;CYQR 081300Z 30006KT 1/4SM R13/1200FT/N FZFG BKN090 M19/M20 A2973 RMK FG6AC1 FROIN SLP112

CYQR;2009-03-08 13:32;CYQR 081332Z 32004KT 1/2SM R13/1600FT/N FZFG BKN091 M19/ RMK FG6AC2

CYQR;2009-03-08 13:40;CYQR 081340Z 34004KT 1 1/2SM R13/1600VP6000FT/U BR BKN091 M19/ RMK FG3AC3

CYQR;2009-03-08 14:00;CYQR 081400Z 33007KT 6SM BR FEW080 FEW350 M18/M19 A2974 RMK AC2CI0 VIS W 2 SLP116

CYQR;2009-03-08 15:00;CYQR 081500Z 35008KT 10SM SCT064 SCT350 M13/M14 A2974 RMK SC3CI0 SLP114

CYQR;2009-03-08 15:43;CYQR 081543Z 34008KT 10SM BKN009 BKN055 BKN250 M13/ RMK SC5SC1CI1

CYQR;2009-03-08 15:55;CYQR 081555Z 34009KT 10SM -SHSN SCT010 BKN052 OVC300 M12/ RMK SC3SC4CI0 CF ASOCTD

CYQR;2009-03-08 16:00;CYQR 081600Z CCA 34009KT 10SM -SHSN SCT010 OVC052 M12/M13 A2978 RMK SC3SC5 CF ASOCTD SLP127

CYQR;2009-03-08 16:11;CYQR 081611Z 34012KT 6SM -SHSN DRSN BKN010 OVC058 M12/ RMK SC6SC2

CYQR;2009-03-08 16:23;CYQR 081623Z 34015KT 1 1/2SM -SHSN DRSN OVC010 M12/ RMK SC8 CVCTV CLD EMBDD

CYQR;2009-03-08 17:00;CYQR 081700Z 34018KT 2SM -SHSN DRSN OVC013 M11/M12 A2980 RMK SC8 CVCTV CLD EMBDD SLP134

CYQR;2009-03-08 17:13;CYQR 081713Z 34016G21KT 4SM -SHSN DRSN OVC011 M11/ RMK SC8

CYQR;2009-03-08 17:51;CYQR 081751Z 34017KT 8SM -SHSN DRSN FEW014 OVC036 M11/ RMK SC2SC6

CYQR;2009-03-08 18:00;CYQR 081800Z 34017KT 8SM -SHSN DRSN FEW014 OVC036 M11/M12 A2984 RMK SC2SC6 VIS W 3 SLP150

CYQR;2009-03-08 18:05;CYQR 081805Z 34017KT 1 1/2SM -SHSN DRSN VV011 M11/ RMK SN8

CYQR;2009-03-08 18:52;CYQR 081852Z 34021KT 1 3/4SM -SHSN DRSN OVC039 M12/ RMK SN6SC2

CYQR;2009-03-08 19:00;CYQR 081900Z 34019G24KT 1 3/4SM -SHSN DRSN OVC041 M11/M13 A2986 RMK SN6SC2 SLP158

CYQR;2009-03-08 19:26;CYQR 081926Z 33021KT 10SM -SHSN DRSN SCT013 OVC043 M11/ RMK SC3SC5 VIS W 3 BLSN

CYQR;2009-03-08 19:53;CYQR 081953Z 32021KT 2SM -SHSN BLSN OVC014 M11/ RMK SC8

CYQR;2009-03-08 20:00;CYQR 082000Z 32018KT 2SM R13/4500VP6000FT/D -SHSN BLSN OVC014 M11/M14 A2989 RMK SC8 SLP165

CYQR;2009-03-08 20:25;CYQR 082025Z 32021KT 2SM -SHSN BLSN SCT014 BKN057 BKN300 M11/ RMK SC3SC3CI0

CYQR;2009-03-08 21:00;CYQR 082100Z 32023KT 2SM R13/3000VP6000FT/N -SN BLSN FEW010 BKN057 BKN300 M12/M14 A2991 RMK SC2SC4CI0 SLP176

CYQR;2009-03-08 21:16;CYQR 082116Z 32024KT 2SM R13/3500V5500FT/D BLSN SCT009 BKN060 BKN300 M12/ RMK SC4SC1CI1 VIS SW-NW 1

CYQR;2009-03-08 21:32;CYQR 082132Z 32026KT 1 3/4SM R13/3000VP6000FT/U BLSN BKN006 BKN020 M13/ RMK SF6SC1 VIS W 1

CYQR;2009-03-08 21:49;CYQR 082149Z 32023G29KT 5SM R13/3500VP6000FT/U BLSN SCT006 BKN350 M13/ RMK SF4CI1 VIS W 2

CYQR;2009-03-08 22:00;CYQR 082200Z 33026KT 5SM R13/4000VP6000FT/D BLSN FEW006 BKN350 M13/M17 A2993 RMK SF2CI2 VIS W 2 SLP184

CYQR;2009-03-08 23:00;CYQR 082300Z 32026KT 12SM DRSN FEW006 FEW350 M14/M17 A2996 REBLSN RMK SF1CI1 VIS SW-NW 2 BLSN SLP193

CYQR;2009-03-09 00:00;CYQR 090000Z 32025G30KT 12SM DRSN FEW006 FEW350 M14/M17 A2998 RMK SF1CI1 VIS SW-NW 2 BLSN SLP204

CYQR;2009-03-09 01:00;CYQR 090100Z 31017KT 15SM DRSN BKN020 BKN350 M15/M18 A3003 RMK SC5CI1 SLP222

CYQR;2009-03-09 02:00;CYQR 090200Z 31019KT 15SM FEW022 FEW350 M17/M20 A3007 RMK SC1CI1 SLP234

CYQR;2009-03-09 03:00;CYQR 090300Z 31019KT 15SM SKC M18/M21 A3009 RMK SLP240

CYQR;2009-03-09 04:00;CYQR 090400Z 31018KT 15SM BKN350 M19/M22 A3010 RMK CI3 SLP244

CYQR;2009-03-09 05:00;CYQR 090500Z 30015KT 15SM BKN350 M20/M23 A3014 RMK CI2 SLP257

CYQR;2009-03-09 06:00;CYQR 090600Z 30015KT 15SM FEW050 M21/M24 A3016 RMK SC1 SLP266

CYQR;2009-03-09 07:00;CYQR 090700Z 30011KT 15SM SKC M23/M25 A3018 RMK SLP273

CYQR;2009-03-09 08:00;CYQR 090800Z 30013KT 15SM SKC M23/M26 A3020 RMK SLP280

CYQR;2009-03-09 09:00;CYQR 090900Z 33011KT 15SM FEW050 M23/M26 A3022 RMK SC1 SLP289

CYQR;2009-03-09 10:00;CYQR 091000Z 33012KT 15SM SKC M24/M26 A3022 RMK SLP291

CYQR;2009-03-09 11:00;CYQR 091100Z 34012KT 15SM SKC M26/M28 A3023 RMK SLP295

CYQR;2009-03-09 12:00;CYQR 091200Z 34007KT 15SM SKC M27/M29 A3027 RMK SLP311

CYQR;2009-03-09 13:00;CYQR 091300Z 30009KT 15SM FEW110 M28/M31 A3030 RMK AC2 SLP322

CYQR;2009-03-09 14:00;CYQR 091400Z 30006KT 15SM FEW110 M29/M33 A3031 RMK AC1 SLP326

CYQR;2009-03-09 15:00;CYQR 091500Z 32011KT 15SM SKC M26/M31 A3033 RMK SLP336

CYQR;2009-03-09 16:00;CYQR 091600Z 34013KT 15SM FEW350 M26/M31 A3034 RMK CI1 SLP340

CYQR;2009-03-09 17:00;CYQR 091700Z 34017KT 15SM FEW350 M25/M31 A3035 RMK CI1 SLP342

CYQR;2009-03-09 18:00;CYQR 091800Z 33014KT 15SM SKC M25/M31 A3038 RMK SLP352

CYQR;2009-03-09 19:00;CYQR 091900Z 33015KT 15SM SKC M24/M31 A3038 RMK SLP352

CYQR;2009-03-09 20:00;CYQR 092000Z 33015KT 15SM SKC M24/M31 A3038 RMK SLP354

CYQR;2009-03-09 21:00;CYQR 092100Z 34017KT 15SM SKC M24/M31 A3036 RMK SLP348

CYQR;2009-03-09 22:00;CYQR 092200Z 33017KT 15SM SKC M24/M30 A3037 RMK SLP352

CYQR;2009-03-09 23:00;CYQR 092300Z 34014KT 15SM SKC M24/M30 A3038 RMK SLP356

CYQR;2009-03-10 00:00;CYQR 100000Z 33012KT 15SM FEW350 M24/M30 A3039 RMK CI1 SLP363

CYQR;2009-03-10 01:00;CYQR 100100Z 35008KT 15SM FEW350 M25/M31 A3040 RMK CI1 SLP366

CYQR;2009-03-10 02:00;CYQR 100200Z 35008KT 15SM FEW030 M27/M32 A3040 RMK SC2 SLP365

CYQR;2009-03-10 03:00;CYQR 100300Z 34008KT 15SM SKC M27/M33 A3040 RMK SLP368

CYQR;2009-03-10 04:00;CYQR 100400Z 34006KT 15SM SKC M28/M33 A3042 RMK SLP374

CYQR;2009-03-10 05:00;CYQR 100500Z 36007KT 15SM SKC M29/M34 A3040 RMK SLP369

CYQR;2009-03-10 06:00;CYQR 100600Z 35006KT 15SM SKC M29/M34 A3041 RMK SLP372

CYQR;2009-03-10 07:00;CYQR 100700Z 34006KT 15SM SKC M30/M35 A3040 RMK SLP369

CYQR;2009-03-10 08:00;CYQR 100800Z 34006KT 15SM BKN097 M30/M35 A3041 RMK AC7 SLP371

CYQR;2009-03-10 09:00;CYQR 100900Z 34007KT 15SM BKN099 M29/M34 A3040 RMK AC7 SLP367

CYQR;2009-03-10 10:00;CYQR 101000Z 34007KT 15SM BKN097 M31/M36 A3039 RMK AC7 SLP364

CYQR;2009-03-10 11:00;CYQR 101100Z 35006KT 15SM SKC M31/M36 A3039 RMK SLP364

CYQR;2009-03-10 12:00;CYQR 101200Z 32007KT 12SM SKC M32/M37 A3040 RMK SLP371

CYQR;2009-03-10 13:00;CYQR 101300Z 02004KT 15SM SKC M31/M36 A3041 RMK SLP373

CYQR;2009-03-10 14:00;CYQR 101400Z 34005KT 3SM IC SCT078 BKN120 BKN350 M32/M37 A3040 RMK AC3AC1CI0 VIS W-NW 10 SLP371

CYQR;2009-03-10 15:00;CYQR 101500Z 33008KT 10SM FEW001 FEW078 FEW120 BKN350 M31/M36 A3040 RMK SF1AC1AC1CI2 IC VIS SW-NW 11/2 SLP372

CYQR;2009-03-10 15:30;CYQR 101530Z 35006KT 12SM SCT092 SCT120 BKN350 M30/ RMK AC3AC1CI1 VIS SW-NW 2

CYQR;2009-03-10 16:00;CYQR 101600Z 32005KT 12SM SCT090 BKN120 BKN350 M29/M33 A3041 RMK AC4AC1CI1 VIS W 21/2 SLP373

CYQR;2009-03-10 17:00;CYQR 101700Z 33008KT 15SM BKN099 BKN240 BKN350 M27/M32 A3042 RMK AC5CI1CI0 SLP376

CYQR;2009-03-10 18:00;CYQR 101800Z 32009KT 15SM BKN096 OVC240 M26/M31 A3042 RMK AC6CI2 SLP375

CYQR;2009-03-10 19:00;CYQR 101900Z 33010KT 15SM BKN240 M25/M31 A3041 RMK CI2 SLP373

CYQR;2009-03-10 20:00;CYQR 102000Z 34014KT 15SM SCT088 OVC240 M24/M30 A3039 RMK AC3CI1 SLP368

CYQR;2009-03-10 20:44;CYQR 102044Z 34011KT 3SM -SHSN OVC037 M24/ RMK SC8

CYQR;2009-03-10 21:00;CYQR 102100Z 34011KT 3SM -SHSN DRSN OVC034 M24/M30 A3037 RMK SC8 SLP357

CYQR;2009-03-10 21:15;CYQR 102115Z 34012KT 2SM -SHSN DRSN OVC054 M24/ RMK SN2SC6

CYQR;2009-03-10 21:33;CYQR 102133Z 33013KT 3SM -SHSN DRSN OVC054 M23/ RMK SN1SC7

CYQR;2009-03-10 21:55;CYQR 102155Z 34012KT 3SM -SHSN DRSN SCT005 OVC055 M23/ RMK SN1SF2SC6

CYQR;2009-03-10 22:00;CYQR 102200Z 33012KT 3SM -SHSN DRSN SCT005 BKN055 OVC073 M23/M29 A3038 RMK SN1SF2SC3AC2 SLP359

CYQR;2009-03-10 22:38;CYQR 102238Z 33013KT 15SM DRSN SCT073 OVC240 M23/ RMK AC4CI2

CYQR;2009-03-10 23:00;CYQR 102300Z 33013KT 15SM DRSN FEW073 BKN240 M24/M29 A3038 RMK AC2CI2 SLP360

CYQR;2009-03-11 00:00;CYQR 110000Z 33015KT 15SM FEW010 BKN240 M24/M30 A3038 RMK SF1CI3 SLP364

CYQR;2009-03-11 01:00;CYQR 110100Z 33012KT 15SM BKN240 M25/M31 A3040 RMK CI2 SLP370

CYQR;2009-03-11 02:00;CYQR 110200Z 33010KT 15SM SKC M26/M31 A3042 RMK SLP374

CYQR;2009-03-11 03:00;CYQR 110300Z 33009KT 12SM -SN FEW037 M26/M32 A3043 RMK SC2 SLP380

CYQR;2009-03-11 04:00;CYQR 110400Z 32009KT 10SM -SN SCT030 BKN140 M27/M32 A3043 RMK SC3AC2 SLP381

CYQR;2009-03-11 05:00;CYQR 110500Z 29008KT 10SM -SN BKN023 M28/M33 A3043 RMK SC6 SLP380

CYQR;2009-03-11 05:53;CYQR 110553Z 28007KT 15SM FEW025 M30/ RMK SC2

CYQR;2009-03-11 06:00;CYQR 110600Z 28008KT 15SM FEW025 M30/M35 A3043 RMK SC2 SLP381

CYQR;2009-03-11 07:00;CYQR 110700Z 29010KT 15SM FEW080 M31/M36 A3044 RMK AC2 IC SLP382

CYQR;2009-03-11 08:00;CYQR 110800Z 28009KT 15SM SKC M32/M37 A3044 RMK SLP382

CYQR;2009-03-11 09:00;CYQR 110900Z 28008KT 15SM SKC M33/M38 A3044 RMK SLP385

CYQR;2009-03-11 10:00;CYQR 111000Z 27007KT 15SM SKC M33/M38 A3044 RMK SLP385

CYQR;2009-03-11 11:00;CYQR 111100Z 28005KT 15SM SKC M35/M39 A3044 RMK SLP384

CYQR;2009-03-11 12:00;CYQR 111200Z 25002KT 15SM SKC M34/M39 A3045 RMK SLP388

CYQR;2009-03-11 13:00;CYQR 111300Z 26007KT 15SM FEW230 M35/M40 A3044 RMK CI1 FROIN SLP387

CYQR;2009-03-11 14:00;CYQR 111400Z 25005KT 15SM SKC M35/M40 A3045 RMK SLP389

CYQR;2009-03-11 15:00;CYQR 111500Z 26006KT 15SM SKC M32/M37 A3046 RMK SLP391

CYQR;2009-03-11 16:00;CYQR 111600Z 25010KT 15SM SKC M29/M34 A3046 RMK SLP392

CYQR;2009-03-11 17:00;CYQR 111700Z 25007KT 15SM SKC M27/M32 A3046 RMK SLP392

CYQR;2009-03-11 18:00;CYQR 111800Z 23008KT 15SM SKC M25/M31 A3045 RMK SLP387

CYQR;2009-03-11 19:00;CYQR 111900Z 20009KT 15SM SKC M23/M29 A3043 RMK SLP381

CYQR;2009-03-11 20:00;CYQR 112000Z 19011KT 15SM SKC M22/M28 A3042 RMK SLP377

CYQR;2009-03-11 21:00;CYQR 112100Z 22008KT 15SM SKC M21/M27 A3040 RMK SLP367

CYQR;2009-03-11 22:00;CYQR 112200Z 20007KT 15SM SKC M20/M27 A3038 RMK SLP361

CYQR;2009-03-11 23:00;CYQR 112300Z 19004KT 15SM SKC M20/M26 A3037 RMK SLP357

CYQR;2009-03-12 00:00;CYQR 120000Z 20007KT 15SM SKC M21/M26 A3035 RMK SLP351

CYQR;2009-03-12 01:00;CYQR 120100Z 19007KT 15SM SKC M23/M28 A3034 RMK SLP349

CYQR;2009-03-12 02:00;CYQR 120200Z 19008KT 15SM SKC M23/M28 A3033 RMK SLP347

CYQR;2009-03-12 03:00;CYQR 120300Z 19008KT 15SM SKC M24/M29 A3033 RMK SLP344

CYQR;2009-03-12 04:00;CYQR 120400Z 16006KT 15SM SKC M24/M29 A3032 RMK SLP341

CYQR;2009-03-12 05:00;CYQR 120500Z 18007KT 15SM SKC M25/M29 A3031 RMK SLP340

CYQR;2009-03-12 06:00;CYQR 120600Z 19007KT 15SM SKC M26/M31 A3031 RMK SLP333

CYQR;2009-03-12 07:00;CYQR 120700Z 19006KT 15SM SKC M26/M30 A3030 RMK SLP331

CYQR;2009-03-12 08:00;CYQR 120800Z 18006KT 15SM SKC M25/M29 A3029 RMK SLP328

CYQR;2009-03-12 09:00;CYQR 120900Z 08005KT 15SM SKC M28/M32 A3029 RMK SLP325

CYQR;2009-03-12 10:00;CYQR 121000Z 11005KT 15SM SKC M29/M34 A3027 RMK SLP320

CYQR;2009-03-12 11:00;CYQR 121100Z 17004KT 15SM SKC M28/M33 A3027 RMK SLP318

CYQR;2009-03-12 12:00;CYQR 121200Z 13005KT 15SM SKC M29/M34 A3026 RMK SLP317

CYQR;2009-03-12 13:00;CYQR 121300Z 14006KT 15SM FEW230 M29/M34 A3026 RMK CI1 FROIN SLP316

CYQR;2009-03-12 14:00;CYQR 121400Z 13005KT 15SM FEW230 M28/M33 A3025 RMK CI0 SLP314

CYQR;2009-03-12 15:00;CYQR 121500Z 12005KT 15SM SCT250 M25/M30 A3025 RMK CI1 SLP312

CYQR;2009-03-12 16:00;CYQR 121600Z 15005KT 15SM FEW350 M21/M25 A3024 RMK CI1 SLP310

CYQR;2009-03-12 17:00;CYQR 121700Z 18004KT 15SM SCT350 M20/M25 A3025 RMK CI1 SLP312

CYQR;2009-03-12 18:00;CYQR 121800Z 17006KT 15SM FEW350 M18/M23 A3024 RMK CI2 SLP304

CYQR;2009-03-12 19:00;CYQR 121900Z 17006KT 15SM BKN350 M16/M21 A3024 RMK CI2 SLP303

CYQR;2009-03-12 20:00;CYQR 122000Z 18006KT 15SM FEW350 M14/M19 A3023 RMK CI1 SLP299

CYQR;2009-03-12 21:00;CYQR 122100Z 16005KT 15SM BKN350 M12/M17 A3020 RMK CI1 SLP288

CYQR;2009-03-12 22:00;CYQR 122200Z 16009KT 15SM SCT240 BKN350 M11/M15 A3019 RMK CI1CI1 SLP282

CYQR;2009-03-12 23:00;CYQR 122300Z 16009KT 15SM SCT240 BKN350 M10/M14 A3016 RMK CI1CI1 SLP275

CYQR;2009-03-13 00:00;CYQR 130000Z 16010KT 15SM FEW240 M11/M14 A3014 RMK CI1 SLP267

CYQR;2009-03-13 01:00;CYQR 130100Z 16008KT 15SM FEW240 M12/M15 A3012 RMK CI1 SLP260

CYQR;2009-03-13 02:00;CYQR 130200Z 16009KT 15SM FEW240 M14/M17 A3011 RMK CI1 SLP255

CYQR;2009-03-13 03:00;CYQR 130300Z 18010KT 15SM SKC M15/M17 A3009 RMK SLP249

CYQR;2009-03-13 04:00;CYQR 130400Z 21007KT 15SM SKC M16/M18 A3008 RMK SLP245

CYQR;2009-03-13 05:00;CYQR 130500Z 25014KT 15SM SKC M13/M15 A3007 RMK SLP241

CYQR;2009-03-13 06:00;CYQR 130600Z 25012KT 15SM SKC M12/M15 A3004 RMK SLP225

CYQR;2009-03-13 07:00;CYQR 130700Z 25007KT 15SM SKC M14/M16 A3003 RMK SLP219

CYQR;2009-03-13 08:00;CYQR 130800Z 24010KT 15SM SKC M13/M16 A3001 RMK SLP215

CYQR;2009-03-13 09:00;CYQR 130900Z 20004KT 15SM SKC M15/M17 A3000 RMK SLP208

CYQR;2009-03-13 10:00;CYQR 131000Z 25012KT 15SM BKN084 M09/M13 A2998 RMK AC7 SLP201

CYQR;2009-03-13 11:00;CYQR 131100Z 24006KT 15SM OVC065 M09/M12 A2996 RMK SC8 SLP196

CYQR;2009-03-13 12:00;CYQR 131200Z 21010KT 15SM OVC075 M09/M12 A2993 RMK AC8 SLP177

CYQR;2009-03-13 13:00;CYQR 131300Z 23010G15KT 15SM BKN075 M06/M10 A2991 RMK AC7 SLP171

CYQR;2009-03-13 14:00;CYQR 131400Z 23011KT 15SM BKN075 M06/M10 A2990 RMK AC7 SLP169

CYQR;2009-03-13 15:00;CYQR 131500Z 24006KT 15SM BKN070 M05/M09 A2989 RMK AC6 SLP163

CYQR;2009-03-13 16:00;CYQR 131600Z 26009KT 15SM SCT070 BKN250 M04/M09 A2988 RMK AC3CI0 SLP161

CYQR;2009-03-13 17:00;CYQR 131700Z 27006KT 15SM SCT085 BKN250 M03/M07 A2987 RMK AC4CI0 SLP157

CYQR;2009-03-13 18:00;CYQR 131800Z 24009KT 15SM FEW084 BKN250 M02/M06 A2986 RMK AC1CI3 SLP149

CYQR;2009-03-13 19:00;CYQR 131900Z 25013KT 15SM FEW084 BKN250 M00/M06 A2984 RMK AC1CI4 SLP144

CYQR;2009-03-13 20:00;CYQR 132000Z 25014KT 15SM FEW100 BKN250 00/M05 A2981 RMK AC1CI4 SLP134

CYQR;2009-03-13 21:00;CYQR 132100Z 25007KT 15SM FEW100 BKN250 01/M04 A2980 RMK AC1CI3 SLP128

CYQR;2009-03-13 22:00;CYQR 132200Z 18006KT 15SM BKN250 01/M03 A2977 RMK CI2 SLP118

CYQR;2009-03-13 23:00;CYQR 132300Z 17008KT 15SM BKN250 01/M03 A2975 RMK CI3 SLP113

CYQR;2009-03-14 00:00;CYQR 140000Z 20006KT 15SM BKN250 01/M04 A2973 RMK CI2 SLP100

CYQR;2009-03-14 01:00;CYQR 140100Z 24012KT 15SM SCT250 00/M04 A2970 RMK CI2 SLP092

CYQR;2009-03-14 02:00;CYQR 140200Z 21008KT 15SM SCT250 M03/M06 A2968 RMK CI2 SLP084

CYQR;2009-03-14 03:00;CYQR 140300Z 22006KT 15SM FEW250 M03/M06 A2968 RMK CI0 SLP082

CYQR;2009-03-14 04:00;CYQR 140400Z 17005KT 15SM FEW250 M02/M06 A2967 RMK CI0 SLP080

CYQR;2009-03-14 05:00;CYQR 140500Z 16005KT 15SM SKC M05/M07 A2966 RMK SLP077

CYQR;2009-03-14 06:00;CYQR 140600Z 15007KT 15SM FEW250 M07/M09 A2965 RMK CI0 SLP073

CYQR;2009-03-14 07:00;CYQR 140700Z 12006KT 15SM FEW250 M07/M10 A2964 RMK CI0 SLP070

CYQR;2009-03-14 08:00;CYQR 140800Z 11006KT 15SM FEW250 M09/M11 A2963 RMK CI0 SLP068

CYQR;2009-03-14 09:00;CYQR 140900Z 15006KT 15SM FEW250 M09/M11 A2962 RMK CI0 SLP061

CYQR;2009-03-14 10:00;CYQR 141000Z 15006KT 15SM SCT250 M09/M11 A2960 RMK CI0 SLP056

CYQR;2009-03-14 11:00;CYQR 141100Z 16004KT 15SM SCT250 M10/M12 A2959 RMK CI0 SLP053

CYQR;2009-03-14 12:00;CYQR 141200Z 16005KT 15SM SCT250 M11/M13 A2959 RMK CI0 SLP055

CYQR;2009-03-14 13:00;CYQR 141300Z 21006KT 15SM SCT250 M09/M11 A2958 RMK CI0 SLP052

CYQR;2009-03-14 14:00;CYQR 141400Z 18002KT 15SM BKN250 M09/M12 A2957 RMK CI0 SLP048

CYQR;2009-03-14 15:00;CYQR 141500Z 18005KT 15SM BKN250 M06/M09 A2957 RMK CI1 SLP047

CYQR;2009-03-14 16:00;CYQR 141600Z 13010KT 15SM BKN250 M05/M09 A2956 RMK CI5 SLP044

CYQR;2009-03-14 17:00;CYQR 141700Z 13008KT 15SM BKN250 M04/M08 A2957 RMK CI5 SLP045

CYQR;2009-03-14 18:00;CYQR 141800Z 13008KT 15SM BKN250 M01/M06 A2956 RMK CI5 SLP043

CYQR;2009-03-14 19:00;CYQR 141900Z 14008KT 15SM BKN250 00/M04 A2955 RMK CI2 SLP040

CYQR;2009-03-14 20:00;CYQR 142000Z 16004KT 15SM BKN250 03/M02 A2953 RMK CI1 SLP033

CYQR;2009-03-14 21:00;CYQR 142100Z 21008KT 15SM FEW250 03/M02 A2952 RMK CI1 SLP027

CYQR;2009-03-14 22:00;CYQR 142200Z 23010KT 15SM SCT250 03/M02 A2951 RMK CI1 SLP025

CYQR;2009-03-14 23:00;CYQR 142300Z 22009KT 15SM SCT250 02/M02 A2951 RMK CI1 SLP025

CYQR;2009-03-15 00:00;CYQR 150000Z 20009KT 15SM FEW250 02/M02 A2952 RMK CI1 SLP028

CYQR;2009-03-15 01:00;CYQR 150100Z 19008KT 15SM FEW250 M00/M03 A2952 RMK CI1 SLP030

CYQR;2009-03-15 02:00;CYQR 150200Z 20011KT 15SM FEW250 M01/M04 A2953 RMK CI0 SLP031

CYQR;2009-03-15 03:00;CYQR 150300Z 19010KT 15SM FEW250 M02/M04 A2954 RMK CI0 SLP033

CYQR;2009-03-15 04:00;CYQR 150400Z 17006KT 15SM FEW250 M02/M05 A2953 RMK CI0 SLP032

CYQR;2009-03-15 05:00;CYQR 150500Z 15008KT 15SM FEW250 M02/M05 A2953 RMK CI0 SLP030

CYQR;2009-03-15 06:00;CYQR 150600Z 13010KT 15SM FEW250 M04/M07 A2953 RMK CI0 SLP028

CYQR;2009-03-15 07:00;CYQR 150700Z 14009KT 15SM FEW250 M04/M08 A2952 RMK CI0 SLP026

CYQR;2009-03-15 08:00;CYQR 150800Z 13010KT 15SM FEW083 SCT250 M05/M08 A2951 RMK AC2CI0 SLP022

CYQR;2009-03-15 09:00;CYQR 150900Z 12010KT 15SM SCT079 BKN250 M05/M08 A2950 RMK AC4CI0 SLP016

CYQR;2009-03-15 10:00;CYQR 151000Z 12009KT 15SM SCT090 BKN250 M04/M08 A2949 RMK AC4CI0 SLP012

CYQR;2009-03-15 11:00;CYQR 151100Z 11010KT 15SM SCT090 BKN250 M05/M08 A2947 RMK AC4CI0 SLP006

CYQR;2009-03-15 12:00;CYQR 151200Z 12010KT 15SM SCT090 BKN250 M05/M08 A2947 RMK AC4CI1 SLP007

CYQR;2009-03-15 13:00;CYQR 151300Z 12007KT 15SM SCT090 OVC250 M05/M08 A2948 RMK AC4CI3 SLP010

CYQR;2009-03-15 14:00;CYQR 151400Z 14005KT 15SM BKN090 OVC250 M05/M07 A2949 RMK AC6CI2 SLP013

CYQR;2009-03-15 15:00;CYQR 151500Z 10006KT 15SM SCT077 BKN250 M04/M06 A2947 RMK AC4CI3 SLP010

CYQR;2009-03-15 16:00;CYQR 151600Z 12006KT 15SM FEW120 BKN250 M02/M05 A2948 RMK AC2CI5 SLP012

CYQR;2009-03-15 17:00;CYQR 151700Z 14007KT 15SM SCT095 OVC250 M02/M05 A2949 RMK AC3CI4 SLP017

CYQR;2009-03-15 18:00;CYQR 151800Z 15005KT 15SM SCT080 OVC250 M01/M04 A2950 RMK AC4CI3 SLP021

CYQR;2009-03-15 19:00;CYQR 151900Z 15007KT 15SM BKN250 01/M03 A2950 RMK CI6 SLP021

CYQR;2009-03-15 20:00;CYQR 152000Z 17005KT 15SM BKN250 01/M02 A2949 RMK CI5 SLP018

CYQR;2009-03-15 21:00;CYQR 152100Z 13005KT 15SM FEW250 03/M01 A2949 RMK CI1 SLP015

CYQR;2009-03-15 22:00;CYQR 152200Z 14009KT 15SM FEW250 02/M01 A2949 RMK CI0 SLP015

CYQR;2009-03-15 23:00;CYQR 152300Z 14009KT 15SM FEW100 FEW250 02/M01 A2949 RMK AC1CI0 SLP014

CYQR;2009-03-16 00:00;CYQR 160000Z 13013KT 15SM FEW100 SCT250 01/M02 A2950 RMK AC1CI2 SLP019

CYQR;2009-03-16 01:00;CYQR 160100Z 15009KT 15SM FEW250 00/M02 A2950 RMK CI0 SLP020

CYQR;2009-03-16 02:00;CYQR 160200Z 15010KT 15SM FEW250 M00/M03 A2951 RMK CI0 SLP022

CYQR;2009-03-16 03:00;CYQR 160300Z 15011KT 15SM FEW250 M01/M03 A2949 RMK CI0 SLP016

CYQR;2009-03-16 04:00;CYQR 160400Z 14012KT 15SM FEW250 M01/M04 A2948 RMK CI0 SLP012

CYQR;2009-03-16 05:00;CYQR 160500Z 14012KT 15SM FEW080 SCT250 M01/M04 A2947 RMK AC2CI0 SLP009

CYQR;2009-03-16 06:00;CYQR 160600Z 15014KT 15SM BKN080 BKN250 M01/M05 A2945 RMK AC5CI0 SLP001

CYQR;2009-03-16 07:00;CYQR 160700Z 14013KT 15SM BKN110 OVC250 M01/M05 A2944 RMK AC6CI2 SLP995

CYQR;2009-03-16 08:00;CYQR 160800Z 15014KT 15SM BKN110 OVC250 M01/M04 A2943 RMK AC6CI2 SLP992

CYQR;2009-03-16 09:00;CYQR 160900Z 16010KT 15SM BKN090 OVC250 01/M02 A2942 RMK AC6CI2 SLP987

CYQR;2009-03-16 10:00;CYQR 161000Z 22014KT 15SM BKN080 OVC250 02/M02 A2943 RMK AC6CI2 SLP989

CYQR;2009-03-16 11:00;CYQR 161100Z 25019KT 15SM BKN080 03/M01 A2945 RMK AC6 SLP996

CYQR;2009-03-16 12:00;CYQR 161200Z 23016KT 15SM BKN080 02/M01 A2949 RMK AC6 SLP012

CYQR;2009-03-16 13:00;CYQR 161300Z 24020KT 15SM BKN092 02/M02 A2951 RMK AC5 SLP017

CYQR;2009-03-16 14:00;CYQR 161400Z 25023KT 15SM FEW030 FEW092 FEW250 02/M03 A2954 RMK SC1AC1CI0 SLP025

CYQR;2009-03-16 15:00;CYQR 161500Z 25020G27KT 15SM FEW086 FEW120 FEW250 01/M03 A2956 RMK AC1AC1CI1 SLP036

CYQR;2009-03-16 16:00;CYQR 161600Z 26020KT 15SM FEW120 FEW250 02/M03 A2958 RMK AC1CI1 SLP041

CYQR;2009-03-16 17:00;CYQR 161700Z 28024G30KT 15SM FEW010 FEW230 01/M03 A2960 RMK SC1CI1 SLP050

CYQR;2009-03-16 17:23;CYQR 161723Z CCA 29024G34KT 15SM FEW009 SCT230 01/ RMK SC1CI0

CYQR;2009-03-16 17:50;CYQR 161750Z 33018KT 15SM FEW009 BKN013 BKN084 M01/ RMK SF1SC7AC1

CYQR;2009-03-16 18:00;CYQR 161800Z 34018KT 15SM FEW009 OVC011 M01/M04 A2967 RMK SF1SC6 SLP076

CYQR;2009-03-16 19:00;CYQR 161900Z 30022KT 15SM BKN015 M01/M04 A2969 RMK SC6 SLP083

CYQR;2009-03-16 20:00;CYQR 162000Z 31019G24KT 12SM OVC015 M01/M05 A2971 RMK SC7 SLP090

CYQR;2009-03-16 21:00;CYQR 162100Z CCA 30018KT 12SM BKN015 M02/M05 A2973 RMK SC5 SLP094

CYQR;2009-03-16 22:00;CYQR 162200Z 32013KT 12SM FEW015 BKN200 M02/M06 A2977 RMK SC1CI4 SLP107

CYQR;2009-03-16 23:00;CYQR 162300Z 33009KT 12SM SCT095 OVC200 M03/M06 A2977 RMK AC3CI4 SLP109

CYQR;2009-03-17 00:00;CYQR 170000Z 33011KT 15SM SCT086 BKN130 OVC200 M04/M07 A2978 RMK AC3AC2CI2 SLP112

CYQR;2009-03-17 01:00;CYQR 170100Z 33010KT 15SM FEW086 BKN130 BKN200 M04/M07 A2980 RMK AC1AC4CI2 SLP119

CYQR;2009-03-17 02:00;CYQR 170200Z 35007KT 15SM FEW086 BKN130 BKN200 M05/M08 A2981 RMK AC1AC4CI2 SLP124

CYQR;2009-03-17 03:00;CYQR 170300Z 35007KT 15SM FEW090 BKN130 M06/M09 A2983 RMK AC2AC5 SLP133

CYQR;2009-03-17 04:00;CYQR 170400Z 35006KT 15SM OVC080 M07/M10 A2984 RMK AC8 SLP137

CYQR;2009-03-17 05:00;CYQR 170500Z 34006KT 15SM BKN080 M09/M11 A2986 RMK AC3 SLP142

CYQR;2009-03-17 06:00;CYQR 170600Z 32003KT 15SM BKN080 M11/M13 A2987 RMK AC3 SLP152

CYQR;2009-03-17 07:00;CYQR 170700Z 30007KT 15SM SCT080 M12/M14 A2989 RMK AC2 SLP159

CYQR;2009-03-17 08:00;CYQR 170800Z 27005KT 15SM SCT080 M13/M15 A2991 RMK AC2 SLP163

CYQR;2009-03-17 09:00;CYQR 170900Z 28008KT 15SM BKN023 BKN080 M11/M13 A2992 RMK SC5AC2 SLP168

CYQR;2009-03-17 10:00;CYQR 171000Z 27007KT 15SM SCT023 BKN080 M12/M14 A2993 RMK SC4AC1 SLP171

CYQR;2009-03-17 11:00;CYQR 171100Z 30008KT 15SM SCT026 BKN076 M14/M16 A2994 RMK SC4AC1 SLP177

CYQR;2009-03-17 12:00;CYQR 171200Z 29009KT 15SM FEW026 SCT080 M15/M17 A2997 RMK SC2AC2 SLP191

CYQR;2009-03-17 13:00;CYQR 171300Z 31009KT 15SM FEW240 M15/M17 A2998 RMK CI0 SLP193

CYQR;2009-03-17 14:00;CYQR 171400Z 32007KT 15SM SKC M14/M16 A2999 RMK SLP198

CYQR;2009-03-17 15:00;CYQR 171500Z 31009KT 15SM SKC M13/M15 A3000 RMK SLP203

CYQR;2009-03-17 16:00;CYQR 171600Z 31009KT 15SM FEW300 M12/M15 A3002 RMK CI1 SLP209

CYQR;2009-03-17 17:00;CYQR 171700Z 30009KT 15SM SKC M10/M14 A3004 RMK SLP214

CYQR;2009-03-17 18:00;CYQR 171800Z 30013KT 15SM SKC M09/M13 A3004 RMK SLP216

CYQR;2009-03-17 19:00;CYQR 171900Z 32010KT 15SM FEW120 M08/M12 A3005 RMK AC1 SLP218

CYQR;2009-03-17 20:00;CYQR 172000Z 32010KT 15SM FEW120 FEW250 M07/M12 A3005 RMK AC1CI1 SLP219

CYQR;2009-03-17 21:00;CYQR 172100Z 30010KT 15SM FEW120 FEW250 M07/M12 A3004 RMK AC1CI1 SLP216

CYQR;2009-03-17 22:00;CYQR 172200Z 33010KT 15SM FEW250 M06/M12 A3004 RMK CI1 SLP216

CYQR;2009-03-17 23:00;CYQR 172300Z 34010KT 15SM FEW120 FEW250 M06/M11 A3006 RMK AC1CI1 SLP221

CYQR;2009-03-18 00:00;CYQR 180000Z 33006KT 15SM FEW120 FEW250 M07/M11 A3008 RMK AC1CI0 SLP231

CYQR;2009-03-18 01:00;CYQR 180100Z 33008KT 15SM FEW120 FEW250 M08/M12 A3009 RMK AC1CI1 SLP236

CYQR;2009-03-18 02:00;CYQR 180200Z 33006KT 15SM FEW250 M11/M13 A3012 RMK CI0 SLP243

CYQR;2009-03-18 03:00;CYQR 180300Z 28006KT 15SM SKC M12/M14 A3013 RMK SLP251

CYQR;2009-03-18 04:00;CYQR 180400Z 32006KT 15SM SKC M13/M15 A3014 RMK SLP255

CYQR;2009-03-18 05:00;CYQR 180500Z 33009KT 15SM SKC M12/M15 A3016 RMK SLP259

CYQR;2009-03-18 06:00;CYQR 180600Z 33008KT 15SM SKC M14/M16 A3017 RMK SLP263

CYQR;2009-03-18 07:00;CYQR 180700Z 30005KT 15SM SKC M15/M17 A3019 RMK SLP270

CYQR;2009-03-18 08:00;CYQR 180800Z 32005KT 15SM SKC M16/M18 A3021 RMK SLP276

CYQR;2009-03-18 09:00;CYQR 180900Z 29008KT 15SM SKC M18/M20 A3023 RMK SLP285

CYQR;2009-03-18 10:00;CYQR 181000Z 31011KT 15SM SKC M17/M19 A3023 RMK SLP287

CYQR;2009-03-18 11:00;CYQR 181100Z 34008KT 15SM SKC M17/M19 A3025 RMK SLP291

CYQR;2009-03-18 12:00;CYQR 181200Z 35005KT 15SM SKC M18/M20 A3027 RMK SLP297

CYQR;2009-03-18 13:00;CYQR 181300Z 32004KT 15SM SKC M17/M19 A3029 RMK SLP304

CYQR;2009-03-18 14:00;CYQR 181400Z 31006KT 15SM SKC M19/M21 A3031 RMK SLP312

CYQR;2009-03-18 15:00;CYQR 181500Z 31004KT 15SM SKC M17/M19 A3033 RMK SLP324

CYQR;2009-03-18 16:00;CYQR 181600Z 29005KT 15SM SKC M15/M18 A3035 RMK SLP330

CYQR;2009-03-18 17:00;CYQR 181700Z 28007KT 15SM SKC M14/M17 A3037 RMK SLP336

CYQR;2009-03-18 18:00;CYQR 181800Z 33008KT 15SM SKC M12/M16 A3037 RMK SLP335

CYQR;2009-03-18 19:00;CYQR 181900Z 32008KT 15SM SKC M11/M16 A3037 RMK SLP335

CYQR;2009-03-18 20:00;CYQR 182000Z 32007KT 15SM SKC M10/M16 A3037 RMK SLP334

CYQR;2009-03-18 21:00;CYQR 182100Z 32009KT 15SM SKC M10/M15 A3037 RMK SLP335

CYQR;2009-03-18 22:00;CYQR 182200Z 32007KT 15SM SKC M09/M15 A3037 RMK SLP335

CYQR;2009-03-18 23:00;CYQR 182300Z 31005KT 15SM SKC M09/M15 A3036 RMK SLP334

CYQR;2009-03-19 00:00;CYQR 190000Z 27003KT 15SM SKC M09/M14 A3036 RMK SLP333

CYQR;2009-03-19 01:00;CYQR 190100Z 16006KT 15SM SKC M11/M15 A3035 RMK SLP330

CYQR;2009-03-19 02:00;CYQR 190200Z 15006KT 15SM SKC M11/M15 A3035 RMK SLP328

CYQR;2009-03-19 03:00;CYQR 190300Z 13007KT 15SM SKC M13/M16 A3033 RMK SLP323

CYQR;2009-03-19 04:00;CYQR 190400Z 15009KT 15SM SKC M12/M16 A3032 RMK SLP321

CYQR;2009-03-19 05:00;CYQR 190500Z 15009KT 15SM SKC M13/M16 A3031 RMK SLP318

CYQR;2009-03-19 06:00;CYQR 190600Z 14012KT 15SM SKC M13/M17 A3030 RMK SLP311

CYQR;2009-03-19 07:00;CYQR 190700Z 14017KT 15SM FEW018 M13/M16 A3029 RMK SC1 SLP307

CYQR;2009-03-19 07:48;CYQR 190748Z 14015KT 15SM SCT007 OVC017 M13/ RMK SF3SC5

CYQR;2009-03-19 08:00;CYQR 190800Z 14015KT 15SM SCT004 OVC017 M12/M15 A3028 RMK SF3SC5 SLP305

CYQR;2009-03-19 08:36;CYQR 190836Z 14014KT 15SM BKN005 OVC015 M11/ RMK SF6SC2

CYQR;2009-03-19 09:00;CYQR 190900Z 14016KT 15SM OVC005 M11/M14 A3026 RMK SF8 SLP294

CYQR;2009-03-19 09:17;CYQR 190917Z 14016KT 15SM BKN003 OVC010 M11/ RMK SF6SC2

CYQR;2009-03-19 09:48;CYQR 190948Z 14016KT 15SM SCT003 BKN079 M11/ RMK SF3SC4

CYQR;2009-03-19 09:49;CYQR 190949Z CCA 14016KT 15SM SCT003 BKN079 M11/ RMK SF3AC4

CYQR;2009-03-19 10:00;CYQR 191000Z 14015KT 15SM FEW003 BKN079 M11/M13 A3023 RMK SF2AC5 SLP285

CYQR;2009-03-19 11:00;CYQR 191100Z 13017KT 15SM BKN074 M13/M15 A3022 RMK AC6 SLP279

CYQR;2009-03-19 12:00;CYQR 191200Z 13021KT 15SM BKN072 M13/M16 A3020 RMK AC6 SLP272

CYQR;2009-03-19 13:00;CYQR 191300Z 14020KT 15SM FEW076 BKN220 M13/M16 A3018 RMK AC1CI2 SLP267

CYQR;2009-03-19 14:00;CYQR 191400Z 14020KT 15SM FEW076 SCT130 BKN220 M13/M15 A3016 RMK AC2AC2CI2 SLP259

CYQR;2009-03-19 15:00;CYQR 191500Z 14021KT 15SM FEW130 BKN220 M11/M14 A3013 RMK AC1CI2 SLP251

CYQR;2009-03-19 16:00;CYQR 191600Z 14016KT 15SM FEW130 BKN220 M10/M12 A3012 RMK AC1CI4 SLP248

CYQR;2009-03-19 17:00;CYQR 191700Z 14018KT 8SM BKN200 M08/M10 A3011 RMK CI6 SLP243

CYQR;2009-03-19 18:00;CYQR 191800Z 14019KT 8SM FEW025 SCT098 OVC200 M06/M08 A3009 RMK SC1AC4CI3 SLP231

CYQR;2009-03-19 19:00;CYQR 191900Z 14017KT 8SM SCT025 BKN089 OVC200 M03/M06 A3007 RMK SC3AC3CI1 SLP225

CYQR;2009-03-19 20:00;CYQR 192000Z 14016KT 8SM SCT025 BKN089 OVC200 M02/M05 A3004 RMK SC3AC3CI1 SLP217

CYQR;2009-03-19 21:00;CYQR 192100Z 14016KT 7SM SCT077 BKN120 OVC200 M02/M04 A3002 RMK AC3AC4CI1 SLP203

CYQR;2009-03-19 22:00;CYQR 192200Z 15014KT 7SM FEW077 OVC120 M01/M03 A3001 RMK AC2AS6 SLP199

CYQR;2009-03-19 23:00;CYQR 192300Z 15014KT 7SM SCT063 BKN120 OVC200 M00/M02 A3000 RMK SC3AS4CI1 SLP198

CYQR;2009-03-20 00:00;CYQR 200000Z 14014KT 8SM SCT076 BKN110 OVC200 M00/M02 A2998 RMK AC3AC3CI1 SLP191

CYQR;2009-03-20 01:00;CYQR 200100Z 15015KT 8SM FEW094 SCT140 BKN200 M01/M02 A2996 RMK AC2AC2CI3 SLP184

CYQR;2009-03-20 02:00;CYQR 200200Z 15016KT 15SM BKN210 M01/M03 A2995 RMK CI4 SLP181

CYQR;2009-03-20 03:00;CYQR 200300Z 13014KT 15SM BKN210 M02/M04 A2994 RMK CI3 SLP176

CYQR;2009-03-20 04:00;CYQR 200400Z 14014KT 15SM SCT210 M03/M05 A2993 RMK CI2 SLP174

CYQR;2009-03-20 05:00;CYQR 200500Z 14013KT 6SM BR SCT210 M04/M06 A2992 RMK CI2 SLP170

CYQR;2009-03-20 06:00;CYQR 200600Z CCA 14013KT 6SM BR SCT210 M05/M06 A2990 RMK CI2 SLP162

CYQR;2009-03-20 07:00;CYQR 200700Z 14014KT 6SM BR SCT003 BKN210 M05/M06 A2989 RMK SF2CI2 SLP156

CYQR;2009-03-20 08:00;CYQR 200800Z 13014KT 3SM BR BKN002 M05/M07 A2987 RMK FG1SF3 SLP152

CYQR;2009-03-20 08:08;CYQR 200808Z 13013KT 3/4SM R13/P4500FT/D BR SKC M05/ RMK FG6

CYQR;2009-03-20 08:29;CYQR 200829Z 13013KT 1/4SM R13/3000V4500FT/D FZFG SKC M06/ RMK FG7

CYQR;2009-03-20 08:49;CYQR 200849Z 14014KT 1/4SM R13/3000FT/N FZFG VV001 M06/ RMK FG8

CYQR;2009-03-20 09:00;CYQR 200900Z 13012KT 1/4SM R13/3000FT/U FZFG SKC M06/M07 A2987 RMK FG7 SLP147

CYQR;2009-03-20 10:00;CYQR 201000Z 12010KT 1/4SM R13/3500FT/N FZFG SKC M06/M07 A2985 RMK FG7 SLP143

CYQR;2009-03-20 10:47;CYQR 201047Z 13009KT 1/2SM R13/5500FT/U FZFG SKC M06/ RMK FG6

CYQR;2009-03-20 10:56;CYQR 201056Z 13008KT 3/4SM R13/P6000FT/U BR SKC M06/ RMK FG5

CYQR;2009-03-20 11:00;CYQR 201100Z 13008KT 1SM R13/P6000FT/U BR SKC M06/M08 A2986 RMK FG3 SLP144

CYQR;2009-03-20 11:21;CYQR 201121Z 14004KT 1 1/2SM BR SKC M06/ RMK FG3

CYQR;2009-03-20 12:00;CYQR 201200Z 12007KT 1 1/2SM BR SKC M07/M08 A2986 RMK FG3 SLP146

CYQR;2009-03-20 13:00;CYQR 201300Z 13007KT 1 1/2SM BR SKC M07/M09 A2987 RMK FG2 SLP148

CYQR;2009-03-20 13:27;CYQR 201327Z 13006KT 2 1/2SM BR SKC M08/

CYQR;2009-03-20 13:41;CYQR 201341Z 13005KT 3SM BR SKC M07/

CYQR;2009-03-20 14:00;CYQR 201400Z 13006KT 4SM BR SKC M07/M09 A2988 RMK SLP150

CYQR;2009-03-20 15:00;CYQR 201500Z 12005KT 6SM BR SKC M06/M07 A2989 RMK SLP156

CYQR;2009-03-20 16:00;CYQR 201600Z 13004KT 8SM SKC M04/M05 A2991 RMK SLP163

CYQR;2009-03-20 17:00;CYQR 201700Z 16003KT 10SM FEW250 M02/M04 A2993 RMK CI1 SLP169

CYQR;2009-03-20 18:00;CYQR 201800Z 21004KT 12SM FEW250 M02/M04 A2994 RMK CI1 SLP174

CYQR;2009-03-20 19:00;CYQR 201900Z 32005KT 12SM FEW250 M01/M03 A2996 RMK CI1 SLP178

CYQR;2009-03-20 20:00;CYQR 202000Z 33008KT 12SM SCT250 00/M02 A2996 RMK CI1 SLP180

CYQR;2009-03-20 21:00;CYQR 202100Z 01005KT 12SM BKN250 02/M01 A2997 RMK CI1 SLP179

CYQR;2009-03-20 22:00;CYQR 202200Z 19004KT 12SM SCT250 03/M01 A2998 RMK CI1 SLP183

CYQR;2009-03-20 23:00;CYQR 202300Z 12003KT 12SM BKN250 02/M01 A2999 RMK CI2 SLP185

CYQR;2009-03-20 23:53;CYQR 202353Z 10010KT 12SM FEW009 BKN250 00/ RMK SC1CI2

CYQR;2009-03-21 00:00;CYQR 210000Z 09010KT 12SM FEW009 BKN250 00/M02 A2999 RMK SC2CI1 SLP190

CYQR;2009-03-21 00:08;CYQR 210008Z 10010KT 10SM BKN006 M00/ RMK SC6

CYQR;2009-03-21 00:19;CYQR 210019Z 10010KT 10SM BKN004 M01/ RMK SC7

CYQR;2009-03-21 00:25;CYQR 210025Z 10008KT 8SM OVC003 M01/ RMK SC8

CYQR;2009-03-21 00:53;CYQR 210053Z 12012KT 3SM BR OVC002 M01/ RMK ST8

CYQR;2009-03-21 01:00;CYQR 210100Z 12012KT 2SM BR OVC002 M01/M02 A3001 RMK ST8 SLP196

CYQR;2009-03-21 01:49;CYQR 210149Z 13012KT 1 1/2SM BR OVC001 M02/ RMK FG2SF6

CYQR;2009-03-21 02:00;CYQR 210200Z 12009KT 1 1/2SM BR OVC001 M02/M03 A3002 RMK FG2SF6 SLP199

CYQR;2009-03-21 02:46;CYQR 210246Z 12011KT 3/4SM R13/P6000FT/U BR VV001 M02/ RMK FG8

CYQR;2009-03-21 03:00;CYQR 210300Z 11012KT 1/2SM R13/P6000FT/D FZFG VV001 M02/M03 A3003 RMK FG8 SLP202

CYQR;2009-03-21 04:00;CYQR 210400Z 12011G17KT 1/2SM R13/5500FT/D FZFG VV001 M02/M03 A3002 RMK FG8 SLP201

CYQR;2009-03-21 05:00;CYQR 210500Z 14014KT 1/2SM R13/6000FT/U FZFG VV001 M02/M03 A3003 RMK FG8 SLP203

CYQR;2009-03-21 06:00;CYQR 210600Z 13016KT 1/2SM R13/4500VP6000FT/U FZFG VV001 M02/M03 A3002 RMK FG8 SLP196

CYQR;2009-03-21 07:00;CYQR 210700Z 12020KT 1/2SM R13/6000FT/D FZFG VV001 M01/M02 A3000 RMK FG8 SLP192

CYQR;2009-03-21 08:00;CYQR 210800Z 13018KT 3/4SM R13/P6000FT/U BR VV001 M02/M03 A3002 RMK FG8 SLP196

CYQR;2009-03-21 08:13;CYQR 210813Z 14018G24KT 3/4SM R13/P6000FT/U -FZDZ BR VV001 M02/ RMK FG8

CYQR;2009-03-21 08:40;CYQR 210840Z 14019KT 3/4SM R13/6000FT/U BR VV001 M02/ RMK FG8 HVY RIME

CYQR;2009-03-21 09:00;CYQR 210900Z CCA 14019KT 3/4SM R13/6000FT/D BR VV001 M02/M03 A3002 REFZDZ RMK FG8 HVY RIME METAL SFCS SLIPPERY SLP195

CYQR;2009-03-21 10:00;CYQR 211000Z 14020G25KT 3/4SM R13/P6000FT/U BR VV001 M02/M04 A3001 RMK FG8 RIME SLP192

CYQR;2009-03-21 11:00;CYQR 211100Z 14019KT 3/4SM R13/P6000FT/U BR VV001 M02/M04 A3000 RMK FG8 SLP190

CYQR;2009-03-21 12:00;CYQR 211200Z 13020G26KT 3/4SM R13/5500FT/N BR VV001 M02/M04 A3000 RMK FG8 SLP188

CYQR;2009-03-21 13:00;CYQR 211300Z 13017G22KT 5/8SM R13/6000FT/N BR VV001 M02/M03 A2999 RMK FG8 SLP186

CYQR;2009-03-21 13:07;CYQR 211307Z 13019G25KT 1/2SM R13/5500FT/N FZFG VV001 M02/ RMK FG8

CYQR;2009-03-21 13:47;CYQR 211347Z 13022KT 3/4SM R13/4500FT/N BR VV001 M01/ RMK FG8

CYQR;2009-03-21 14:00;CYQR 211400Z 13019G28KT 3/4SM R13/4500FT/D BR VV001 M01/M02 A2999 RMK FG8 SLP184

CYQR;2009-03-21 15:00;CYQR 211500Z 13020G27KT 3/4SM R13/5000FT/D BR VV002 M01/M02 A2998 RMK FG8 SLP182

CYQR;2009-03-21 16:00;CYQR 211600Z 13022G29KT 1SM R13/P6000FT/U BR VV002 M01/M02 A2998 RMK FG8 SLP184

CYQR;2009-03-21 16:31;CYQR 211631Z 14024KT 1 1/2SM BR VV002 M01/ RMK FG8

CYQR;2009-03-21 17:00;CYQR 211700Z 14023G28KT 2SM BR VV003 M01/M02 A2999 RMK FG8 SLP187

CYQR;2009-03-21 18:00;CYQR 211800Z 14026G31KT 3SM BR OVC003 M00/M01 A2999 RMK ST8 SLP186

CYQR;2009-03-21 19:00;CYQR 211900Z 14024G30KT 4SM BR OVC004 M00/M01 A2998 RMK ST8 SLP183

CYQR;2009-03-21 20:00;CYQR 212000Z 14024KT 5SM BR OVC004 M00/M01 A2997 RMK ST8 SLP179

CYQR;2009-03-21 21:00;CYQR 212100Z 14023G29KT 5SM BR OVC004 M00/M01 A2996 RMK ST8 SLP175

CYQR;2009-03-21 21:36;CYQR 212136Z 14022G27KT 5SM BR OVC005 M00/ RMK ST8

CYQR;2009-03-21 22:00;CYQR 212200Z 14021G29KT 5SM BR OVC005 M00/M01 A2995 RMK ST8 SLP173

CYQR;2009-03-21 23:00;CYQR 212300Z 13020G27KT 5SM BR OVC005 M00/M01 A2994 RMK ST8 SLP171

CYQR;2009-03-22 00:00;CYQR 220000Z 14020G27KT 5SM BR OVC005 00/M01 A2995 RMK ST8 SLP172

CYQR;2009-03-22 00:40;CYQR 220040Z 14024G29KT 4SM BR OVC004 00/ RMK ST8

CYQR;2009-03-22 01:00;CYQR 220100Z 14025G30KT 4SM BR OVC004 00/M01 A2994 RMK ST8 SLP169

CYQR;2009-03-22 02:00;CYQR 220200Z 14025G30KT 4SM BR OVC004 00/M01 A2994 RMK ST8 SLP169

CYQR;2009-03-22 03:00;CYQR 220300Z 14022G29KT 5SM BR OVC003 00/M01 A2993 RMK ST8 SLP164

CYQR;2009-03-22 04:00;CYQR 220400Z 13022G29KT 5SM BR OVC003 00/M01 A2990 RMK ST8 SLP156

CYQR;2009-03-22 05:00;CYQR 220500Z 13021G29KT 5SM BR OVC003 00/M01 A2990 RMK ST8 SLP154

CYQR;2009-03-22 06:00;CYQR 220600Z 13023G28KT 5SM BR OVC003 00/M01 A2988 RMK ST8 SLP146

CYQR;2009-03-22 07:00;CYQR 220700Z 14025G32KT 6SM BR OVC004 01/M00 A2986 RMK SF8 SLP140

CYQR;2009-03-22 08:00;CYQR 220800Z 13023KT 6SM BR OVC004 01/M00 A2982 RMK SF8 SLP127

CYQR;2009-03-22 09:00;CYQR 220900Z 12021G28KT 6SM BR OVC008 01/M00 A2977 RMK SC8 SLP109

CYQR;2009-03-22 09:36;CYQR 220936Z 12018G24KT 6SM BR OVC010 01/ RMK SC8

CYQR;2009-03-22 10:00;CYQR 221000Z 13019G27KT 6SM BR OVC008 01/M00 A2976 RMK SC8 SLP106

CYQR;2009-03-22 10:45;CYQR 221045Z 12021G27KT 6SM BR OVC005 01/ RMK SC8

CYQR;2009-03-22 11:00;CYQR 221100Z 12023G29KT 6SM BR OVC005 01/M00 A2972 RMK SC8 SLP093

CYQR;2009-03-22 12:00;CYQR 221200Z 12020G27KT 6SM BR OVC006 01/M00 A2969 RMK SC8 SLP080

CYQR;2009-03-22 13:00;CYQR 221300Z 12013G21KT 6SM BR OVC006 01/M00 A2966 RMK SC8 SLP071

CYQR;2009-03-22 14:00;CYQR 221400Z 14024G30KT 3SM BR OVC004 01/00 A2965 RMK ST8 SLP067

CYQR;2009-03-22 14:27;CYQR 221427Z 13025G30KT 2SM BR OVC003 01/ RMK ST8

CYQR;2009-03-22 14:33;CYQR 221433Z 13023G30KT 1 1/2SM BR OVC003 01/ RMK ST8

CYQR;2009-03-22 14:43;CYQR 221443Z 14022G27KT 1SM R13/P6000FT/D BR OVC002 01/ RMK FG2ST6

CYQR;2009-03-22 14:52;CYQR 221452Z 13025G30KT 3/4SM R13/P6000FT/D BR OVC002 01/ RMK FG5ST3

CYQR;2009-03-22 15:00;CYQR 221500Z 13025G30KT 3/4SM R13/P6000FT/D BR OVC002 01/00 A2964 RMK FG6ST2 SLP061

CYQR;2009-03-22 16:00;CYQR 221600Z 13025G30KT 3/4SM R13/5000FT/N BR OVC002 01/00 A2961 RMK FG6ST2 SLP054

CYQR;2009-03-22 17:00;CYQR 221700Z 12020KT 3/4SM R13/6000FT/N BR OVC002 01/01 A2960 RMK FG6ST2 R13/6000FT/N SLP049

CYQR;2009-03-22 18:00;CYQR 221800Z 13018G24KT 3/4SM BR OVC002 01/M01 A2959 RMK FG6ST2 R13/6000FT/N SLP045

CYQR;2009-03-22 18:54;CYQR 221854Z 13015G21KT 1/2SM R13/5000FT/D FG OVC001 02/ RMK FG6ST2

CYQR;2009-03-22 19:00;CYQR 221900Z 13017KT 1/2SM R13/3500V5500FT/D FG OVC001 02/01 A2956 RMK FG6ST2 SLP035

CYQR;2009-03-22 19:09;CYQR 221909Z 12013KT 1/4SM R13/3000FT/N FG VV001 01/ RMK FG8

CYQR;2009-03-22 19:43;CYQR 221943Z 12011KT 1/2SM R13/2600FT/N FG VV001 01/ RMK FG8

CYQR;2009-03-22 20:00;CYQR 222000Z 13015KT 1/2SM R13/2800FT/N FG VV001 02/01 A2953 RMK FG8 R13/2800FT/N SLP027

CYQR;2009-03-22 20:15;CYQR 222015Z 13017G22KT 1/4SM R13/2600FT/N FG VV001 02/ RMK FG8

CYQR;2009-03-22 20:35;CYQR 222035Z 12017KT 1/4SM R13/2000FT/N -DZ FG VV001 01/ RMK FG8 R13/2000FT/N

CYQR;2009-03-22 21:00;CYQR 222100Z 13013KT 1/4SM R13/1800FT/N -DZ FG VV001 01/01 A2951 RMK FG8 SLP017

CYQR;2009-03-22 21:43;CYQR 222143Z 13010KT 1/2SM R13/3000FT/U -DZ FG VV001 01/ RMK FG8 VIS VRBL 1/4-3/4

CYQR;2009-03-22 22:00;CYQR 222200Z 13011KT 3/4SM R13/4000FT/U -DZ BR OVC002 01/01 A2950 RMK FG6ST2 SLP015

CYQR;2009-03-22 23:00;CYQR 222300Z 13011KT 3/4SM R13/5500FT/N -DZ BR OVC002 01/01 A2949 RMK FG6ST2 SLP011

CYQR;2009-03-23 00:00;CYQR 230000Z 14006KT 3/4SM R13/4000FT/N BR OVC002 01/01 A2949 RMK FG6ST2 SLP009

CYQR;2009-03-23 01:00;CYQR 230100Z 12004KT 3/4SM R13/P6000FT/U -DZ BR OVC002 01/00 A2948 RMK FG6SF2 SLP007

CYQR;2009-03-23 02:00;CYQR 230200Z 12004KT 3/4SM R13/3000V5500FT/U -DZ BR OVC001 01/00 A2949 RMK FG6SF2 SLP011

CYQR;2009-03-23 02:27;CYQR 230227Z 14002KT 1/2SM R13/3000V4500FT/N -DZ FG VV001 01/ RMK FG8

CYQR;2009-03-23 03:00;CYQR 230300Z 18002KT 1/2SM R13/2600V4000FT/D -DZ FG VV001 01/M00 A2949 RMK FG8 SLP011

CYQR;2009-03-23 03:54;CYQR 230354Z 26009KT 3/4SM R13/4000VP6000FT/U -DZ BR OVC001 00/ RMK FG6SF2

CYQR;2009-03-23 04:00;CYQR 230400Z 26009KT 1SM R13/4500VP6000FT/U -DZ BR OVC001 00/M00 A2949 RMK FG6SF2 SLP012

CYQR;2009-03-23 04:25;CYQR 230425Z 30011KT 2SM -DZ BR SCT002 OVC016 01/ RMK FG2SF2SC4

CYQR;2009-03-23 04:50;CYQR 230450Z 29011KT 1 1/2SM -DZ BR BKN002 OVC019 00/ RMK FG2SF3SC3

CYQR;2009-03-23 05:00;CYQR 230500Z 29011KT 1 1/2SM -DZ BR BKN002 OVC019 00/M00 A2950 RMK FG2SF4SC2 SLP015

CYQR;2009-03-23 05:23;CYQR 230523Z 28012KT 1SM R13/P6000FT/N -DZ BR OVC001 00/ RMK FG2SF6

CYQR;2009-03-23 06:00;CYQR 230600Z 28014KT 2SM -DZ BR OVC001 00/M00 A2952 RMK FG2SF6 SLP022

CYQR;2009-03-23 06:18;CYQR 230618Z 28017KT 2SM -DZ BR BKN003 OVC010 00/ RMK SF6SC2

CYQR;2009-03-23 06:28;CYQR 230628Z 28018KT 2SM -RA BR OVC003 00/ RMK SC8

CYQR;2009-03-23 07:00;CYQR 230700Z 28022KT 3SM -RA BR OVC003 00/M00 A2954 RMK SC8 SLP029

CYQR;2009-03-23 07:19;CYQR 230719Z 30022G28KT 3SM -RASN BR OVC004 00/ RMK SC8

CYQR;2009-03-23 07:50;CYQR 230750Z 30025G31KT 4SM -SN BR OVC005 00/ RMK SC8

CYQR;2009-03-23 08:00;CYQR 230800Z 30027KT 5SM -SN BR BKN006 OVC043 M00/M01 A2957 RMK SC6SC2 SLP036

CYQR;2009-03-23 09:00;CYQR 230900Z 32034KT 10SM -SN BKN008 OVC060 M00/M02 A2952 RMK SC6SC2 SLP023

CYQR;2009-03-23 10:00;CYQR 231000Z 32020G30KT 10SM -SN OVC008 M02/M04 A2962 RMK SC8 PRESRR SLP055

CYQR;2009-03-23 11:00;CYQR 231100Z 28021KT 5SM -SN BR OVC007 M03/M04 A2972 RMK SC8 PRESRR SLP086

CYQR;2009-03-23 11:07;CYQR 231107Z 28026KT 1SM R13/P6000FT/D -SN BLSN OVC007 M03/ RMK SC8

CYQR;2009-03-23 12:00;CYQR 231200Z 30026KT 1SM R13/P6000FT/U -SN BLSN OVC008 M04/M05 A2973 RMK SC8 SLP096

CYQR;2009-03-23 12:31;CYQR 231231Z 31024KT 1 1/2SM -SN BLSN BKN008 OVC040 M04/ RMK SC6SC2

CYQR;2009-03-23 12:40;CYQR 231240Z 31023KT 3SM -SN DRSN VCBLSN BKN008 OVC040 M04/ REBLSN RMK SC6SC2

CYQR;2009-03-23 13:00;CYQR 231300Z 31023KT 3SM -SN DRSN VCBLSN BKN009 OVC039 M04/M06 A2974 REBLSN RMK SC5SC3 SLP101

CYQR;2009-03-23 13:29;CYQR 231329Z 31030G35KT 2SM -SN DRSN BKN010 OVC039 M04/ RMK SC6SC2 VIS VRB 11/2-21/2

CYQR;2009-03-23 13:47;CYQR 231347Z 31025KT 5SM -SN DRSN BKN017 OVC032 M04/ RMK SC6SC2

CYQR;2009-03-23 14:00;CYQR 231400Z 31029KT 8SM -SN DRSN SCT012 BKN032 M05/M07 A2975 RMK SC3SC4 VIS SW-NW 3 SLP104

CYQR;2009-03-23 14:23;CYQR 231423Z 31028G34KT 8SM -SN DRSN BKN009 OVC032 M05/ RMK SC5SC3 VIS SW-NW 3

CYQR;2009-03-23 15:00;CYQR 231500Z 32029G34KT 8SM -SN DRSN BKN009 OVC039 M04/M07 A2978 RMK SC6SC2 VIS SW-NW 3 SLP116

CYQR;2009-03-23 15:55;CYQR 231555Z 32032G39KT 4SM -SN DRSN OVC010 M05/ RMK SC8

CYQR;2009-03-23 16:00;CYQR 231600Z 32032G39KT 4SM -SN DRSN OVC010 M05/M07 A2979 RMK SC8 SLP118

CYQR;2009-03-23 17:00;CYQR 231700Z 33030G35KT 12SM OVC012 M05/M08 A2983 RMK SC8 SLP130

CYQR;2009-03-23 18:00;CYQR 231800Z 33025G32KT 12SM OVC010 M05/M08 A2985 RMK SC8 SLP141

CYQR;2009-03-23 19:00;CYQR 231900Z 33022G29KT 12SM OVC012 M05/M08 A2987 RMK SC8 SLP147

CYQR;2009-03-23 20:00;CYQR 232000Z 32022KT 15SM OVC012 M05/M08 A2988 RMK SC8 SLP150

CYQR;2009-03-23 21:00;CYQR 232100Z 32018G25KT 15SM OVC012 M05/M08 A2990 RMK SC8 SLP158

CYQR;2009-03-23 22:00;CYQR 232200Z 31021KT 15SM OVC012 M05/M09 A2992 RMK SC8 SLP165

CYQR;2009-03-23 23:00;CYQR 232300Z 32019G25KT 15SM OVC014 M06/M09 A2994 RMK SC8 SLP172

CYQR;2009-03-24 00:00;CYQR 240000Z 32018G24KT 15SM OVC014 M06/M09 A2996 RMK SC8 SLP182

CYQR;2009-03-24 01:00;CYQR 240100Z 33020KT 15SM OVC014 M06/M09 A2998 RMK SC8 SLP187

CYQR;2009-03-24 02:00;CYQR 240200Z 33020KT 15SM OVC014 M06/M09 A2998 RMK SC8 SLP186

CYQR;2009-03-24 03:00;CYQR 240300Z 33017G22KT 15SM OVC012 M06/M09 A3000 RMK SC8 SLP197

CYQR;2009-03-24 04:00;CYQR 240400Z 34015KT 15SM OVC014 M06/M09 A3003 RMK SC8 SLP204

CYQR;2009-03-24 05:00;CYQR 240500Z 34014KT 15SM OVC014 M06/M08 A3004 RMK SC8 SLP207

CYQR;2009-03-24 06:00;CYQR 240600Z 33018KT 15SM OVC014 M06/M08 A3002 RMK SC8 SLP202

CYQR;2009-03-24 07:00;CYQR 240700Z 34019KT 15SM OVC014 M06/M09 A3000 RMK SC8 SLP196

CYQR;2009-03-24 08:00;CYQR 240800Z 34019G24KT 15SM -SN OVC015 M06/M09 A3000 RMK SC8 SLP197

CYQR;2009-03-24 09:00;CYQR 240900Z 34016KT 10SM -SN OVC014 M07/M09 A3001 RMK SC8 SLP201

CYQR;2009-03-24 10:00;CYQR 241000Z 34018KT 10SM -SN OVC012 M07/M10 A3001 RMK SC8 SLP199

CYQR;2009-03-24 11:00;CYQR 241100Z 35015G21KT 10SM -SN BKN012 OVC025 M07/M11 A3002 RMK SC5SC3 SLP203

CYQR;2009-03-24 11:26;CYQR 241126Z 34015KT 10SM -SN BKN009 OVC025 M09/ RMK SC6SC2

CYQR;2009-03-24 12:00;CYQR 241200Z 35013KT 10SM -SN SCT014 BKN025 M09/M12 A3003 RMK SC3SC2 SLP208

CYQR;2009-03-24 12:33;CYQR 241233Z 34015KT 15SM FEW014 FEW025 SCT250 M10/ RMK SF1SC1CI0

CYQR;2009-03-24 13:00;CYQR 241300Z 35017KT 15SM FEW012 BKN250 M10/M13 A3003 RMK SC2CI1 SLP208

CYQR;2009-03-24 14:00;CYQR 241400Z 35015KT 15SM SCT011 BKN250 M11/M14 A3005 RMK SF1CI2 SLP215

CYQR;2009-03-24 15:00;CYQR 241500Z 36016KT 6SM BR SCT008 BKN250 M11/M14 A3006 RMK SF4CI1 SLP222

CYQR;2009-03-24 15:07;CYQR 241507Z 36017KT 5SM -SN BKN008 OVC250 M11/ RMK SF4CI3

CYQR;2009-03-24 16:00;CYQR 241600Z 34016KT 3SM -SN DRSN BKN008 BKN021 OVC250 M11/M14 A3006 RMK SF4SC2CI2 VIS VRB 2-4 SLP220

CYQR;2009-03-24 16:50;CYQR 241650Z 35015G20KT 4SM -SN DRSN SCT008 OVC027 M11/ RMK SF2SC6

CYQR;2009-03-24 17:00;CYQR 241700Z 34017KT 5SM -SN DRSN SCT014 OVC027 M11/M14 A3006 RMK SF2SC6 SLP220

CYQR;2009-03-24 18:00;CYQR 241800Z 35016KT 5SM -SN DRSN SCT014 OVC027 M11/M15 A3004 RMK SF2SC6 SLP215

CYQR;2009-03-24 19:00;CYQR 241900Z 35016KT 6SM -SN DRSN FEW014 OVC029 M12/M15 A3004 RMK SF1SC7 SLP212

CYQR;2009-03-24 20:00;CYQR 242000Z 35016KT 9SM -SN DRSN FEW014 OVC025 M11/M15 A3002 RMK SF1SC8 SLP206

CYQR;2009-03-24 21:00;CYQR 242100Z 35015KT 10SM -SN DRSN OVC027 M11/M14 A2999 RMK SC8 SLP198

CYQR;2009-03-24 22:00;CYQR 242200Z 02011KT 15SM -SN SCT022 OVC029 M10/M14 A2998 RMK SC2SC6 SLP195

CYQR;2009-03-24 23:00;CYQR 242300Z 36010KT 15SM -SN BKN022 OVC029 M10/M14 A2999 RMK SC6SC2 SLP196

CYQR;2009-03-25 00:00;CYQR 250000Z 36010KT 5SM -SN SCT015 BKN022 OVC029 M11/M14 A2999 RMK SC3SC3SC2 SLP198

CYQR;2009-03-25 01:00;CYQR 250100Z 35012KT 10SM -SN FEW015 BKN024 OVC037 M11/M14 A2998 RMK SC1SC6SC2 SLP196

CYQR;2009-03-25 02:00;CYQR 250200Z 36011KT 10SM -SN OVC026 M11/M14 A2998 RMK SC8 SLP196

CYQR;2009-03-25 03:00;CYQR 250300Z 34011KT 15SM -SN OVC020 M11/M14 A2997 RMK SC8 SLP194

CYQR;2009-03-25 04:00;CYQR 250400Z 35012KT 15SM -SN OVC024 M11/M14 A2995 RMK SC8 SLP188

CYQR;2009-03-25 05:00;CYQR 250500Z 35011KT 15SM -SN OVC024 M11/M13 A2992 RMK SC8 SLP179

CYQR;2009-03-25 06:00;CYQR 250600Z 36008KT 15SM -SN OVC021 M10/M13 A2991 RMK SC8 SLP173

CYQR;2009-03-25 07:00;CYQR 250700Z 35008KT 10SM -SN OVC021 M10/M12 A2989 RMK SC8 SLP166

CYQR;2009-03-25 08:00;CYQR 250800Z 35008KT 10SM -SN OVC021 M10/M12 A2987 RMK SC8 SLP161

CYQR;2009-03-25 09:00;CYQR 250900Z 33010KT 10SM -SN OVC021 M10/M12 A2985 RMK SC8 SLP153

CYQR;2009-03-25 10:00;CYQR 251000Z 34011KT 6SM -SN SCT006 OVC021 M10/M12 A2983 RMK SC3SC5 SLP145

CYQR;2009-03-25 11:00;CYQR 251100Z 33011KT 6SM -SN SCT006 OVC021 M10/M11 A2982 RMK SC4SC4 SLP141

CYQR;2009-03-25 12:00;CYQR 251200Z 33010KT 6SM -SN FEW006 OVC023 M09/M11 A2981 RMK SC2SC6 SLP138

CYQR;2009-03-25 13:00;CYQR 251300Z 34010KT 6SM -SN DRSN FEW006 OVC023 M09/M11 A2980 RMK SC1SC7 SLP134

CYQR;2009-03-25 13:25;CYQR 251325Z 36010KT 2 1/2SM -SN DRSN OVC023 M09/ RMK SC8

CYQR;2009-03-25 14:00;CYQR 251400Z 36012KT 4SM -SN DRSN FEW006 OVC023 M09/M12 A2979 RMK SF1SC7 SLP131

CYQR;2009-03-25 14:31;CYQR 251431Z 36013KT 6SM -SN DRSN BKN010 OVC047 M09/ RMK SF5SC3

CYQR;2009-03-25 14:41;CYQR 251441Z 35014KT 2 1/2SM -SN DRSN BKN010 OVC047 M09/ RMK SF6SC2 VIS VRB 2-3

CYQR;2009-03-25 15:00;CYQR 251500Z 35014KT 2SM -SN DRSN OVC010 M09/M12 A2978 RMK SC8 SLP126

CYQR;2009-03-25 15:07;CYQR 251507Z 35012KT 1SM R13/P6000FT/D -SN DRSN VV006 M09/ RMK SN8

CYQR;2009-03-25 16:00;CYQR 251600Z 36013KT 1 1/2SM -SN DRSN VV010 M09/M12 A2978 RMK SN8 SLP126

CYQR;2009-03-25 17:00;CYQR 251700Z 34016KT 1 1/2SM -SN DRSN VV009 M09/M12 A2978 RMK SN8 SLP125

CYQR;2009-03-25 18:00;CYQR 251800Z 35014KT 3SM -SN DRSN OVC011 M09/M12 A2979 RMK SC8 SLP128

CYQR;2009-03-25 19:00;CYQR 251900Z 33017KT 2 1/2SM -SN DRSN BKN009 OVC039 M09/M12 A2979 RMK SF6SC2 VIS VRB 2-3 SLP129

CYQR;2009-03-25 20:00;CYQR 252000Z 34017KT 2 1/2SM -SN DRSN VV007 M09/M11 A2979 RMK SN8 VIS VRB 2-3 SLP130

CYQR;2009-03-25 20:37;CYQR 252037Z 35018KT 1 1/4SM -SN DRSN VV007 M09/ RMK SN8 VIS VRB 1-11/2

CYQR;2009-03-25 20:46;CYQR 252046Z 35017KT 3/4SM R13/P6000FT/D -SN DRSN VV007 M10/ RMK SN8

CYQR;2009-03-25 21:00;CYQR 252100Z 34018KT 3/4SM R13/P6000FT/U -SN DRSN VV007 M10/M12 A2980 RMK SN8 R13/P6000FT/U SLP135

CYQR;2009-03-25 21:44;CYQR 252144Z 35019KT 1 1/4SM -SN DRSN VV007 M10/ RMK SN8 VIS VRB 1-11/2

CYQR;2009-03-25 22:00;CYQR 252200Z 35019KT 2SM -SN DRSN BKN007 OVC030 M10/M13 A2983 RMK SN2SF5SC2 VIS VRB 11/2-21/2 SLP144

CYQR;2009-03-25 22:14;CYQR 252214Z 35020KT 1 1/2SM -SN DRSN OVC008 M10/ RMK SN3SF5 VIS VRB 11/4-13/4

CYQR;2009-03-25 23:00;CYQR 252300Z 35017G24KT 1 1/2SM -SN DRSN OVC008 M10/M12 A2985 RMK SN3SF5 VIS VRB 11/4-13/4 SLP151

CYQR;2009-03-26 00:00;CYQR 260000Z 35017KT 2SM -SN DRSN OVC008 M09/M12 A2988 RMK SN3SF5 SLP161

CYQR;2009-03-26 01:00;CYQR 260100Z 36016KT 1 1/4SM -SN DRSN VV011 M09/M11 A2991 RMK SN8 SLP170

CYQR;2009-03-26 01:14;CYQR 260114Z 36015KT 2SM -SN DRSN OVC011 M09/ RMK SN3SC5

CYQR;2009-03-26 02:00;CYQR 260200Z 01014KT 2SM -SN DRSN OVC019 M09/M11 A2993 RMK SN2SC6 SLP177

CYQR;2009-03-26 03:00;CYQR 260300Z 35014KT 2 1/2SM -SN DRSN OVC022 M09/M11 A2996 RMK SC8 SLP187

CYQR;2009-03-26 03:10;CYQR 260310Z 35015KT 4SM -SN DRSN OVC022 M08/ RMK SC8 /S01/

CYQR;2009-03-26 03:40;CYQR 260340Z 35013KT 15SM DRSN OVC022 M08/ RMK SC8

CYQR;2009-03-26 04:00;CYQR 260400Z 01014KT 15SM DRSN OVC037 M08/M11 A2998 RMK SC8 SLP193

CYQR;2009-03-26 05:00;CYQR 260500Z 36014KT 15SM BKN076 M08/M12 A2999 RMK AC6 SLP198

CYQR;2009-03-26 06:00;CYQR 260600Z 34010KT 15SM FEW100 M10/M13 A3002 RMK AC2 SLP207

CYQR;2009-03-26 07:00;CYQR 260700Z 36008KT 15SM OVC120 M09/M12 A3004 RMK AC7 SLP214

CYQR;2009-03-26 08:00;CYQR 260800Z 36011KT 15SM SCT073 BKN120 OVC300 M09/M12 A3006 RMK AC3AC2CI2 SLP221

CYQR;2009-03-26 09:00;CYQR 260900Z 36014KT 15SM SCT087 OVC099 M09/M12 A3008 RMK AC3AC5 SLP229

CYQR;2009-03-26 10:00;CYQR 261000Z 35015KT 15SM OVC100 M10/M13 A3010 RMK AC7 SLP235

CYQR;2009-03-26 11:00;CYQR 261100Z 35012KT 15SM SCT088 OVC110 M11/M13 A3013 RMK AC4AC4 SLP243

CYQR;2009-03-26 12:00;CYQR 261200Z 35013KT 15SM SCT092 BKN110 M10/M13 A3015 RMK AC3AC4 SLP255

CYQR;2009-03-26 13:00;CYQR 261300Z 35014KT 15SM BKN092 M11/M14 A3017 RMK AC7 SLP261

CYQR;2009-03-26 14:00;CYQR 261400Z 35013KT 15SM SCT110 BKN250 M11/M14 A3020 RMK AC3CI3 SLP271

CYQR;2009-03-26 15:00;CYQR 261500Z 35015KT 15SM FEW110 FEW250 BKN280 M11/M14 A3023 RMK AC1CI1CS1 HALO SLP280

CYQR;2009-03-26 16:00;CYQR 261600Z 35014KT 15SM FEW077 FEW110 SCT250 BKN300 M10/M13 A3024 RMK AC1AC2CI1CI0 SLP285

CYQR;2009-03-26 17:00;CYQR 261700Z 34013KT 15SM BKN250 M09/M13 A3027 RMK CI6 SLP294

CYQR;2009-03-26 18:00;CYQR 261800Z 33010KT 15SM BKN250 M08/M12 A3028 RMK CI1 CS ASOCTD SLP297

CYQR;2009-03-26 19:00;CYQR 261900Z 33015KT 15SM SCT250 BKN300 BKN350 M07/M12 A3029 RMK CI1CI1CI1 SLP300

CYQR;2009-03-26 20:00;CYQR 262000Z 33015KT 15SM BKN300 M06/M12 A3029 RMK CI2 SLP302

CYQR;2009-03-26 21:00;CYQR 262100Z 33019KT 15SM FEW250 SCT300 M06/M12 A3030 RMK CI1CI0 SLP302

CYQR;2009-03-26 22:00;CYQR 262200Z 33016KT 15SM SCT250 BKN300 M06/M11 A3029 RMK CI1CI0 SLP300

CYQR;2009-03-26 23:00;CYQR 262300Z 33015KT 15SM SCT250 M06/M11 A3029 RMK CI1 CC ASOCTD CONTRAILS SLP299

CYQR;2009-03-27 00:00;CYQR 270000Z 33011KT 15SM FEW250 BKN280 M06/M11 A3028 RMK CI1CI1 CC ASOCTD CONTRAILS SLP296

CYQR;2009-03-27 01:00;CYQR 270100Z 32007KT 15SM FEW250 BKN280 M08/M11 A3028 RMK CI1CI0 SLP295

CYQR;2009-03-27 02:00;CYQR 270200Z 32007KT 15SM FEW280 M10/M13 A3027 RMK CI1 SLP293

CYQR;2009-03-27 03:00;CYQR 270300Z 30005KT 15SM FEW280 M12/M14 A3028 RMK CI0 SLP299

CYQR;2009-03-27 04:00;CYQR 270400Z 29004KT 15SM SKC M13/M15 A3028 RMK SLP299

CYQR;2009-03-27 05:00;CYQR 270500Z 00000KT 15SM SKC M14/M16 A3026 RMK SLP294

CYQR;2009-03-27 06:00;CYQR 270600Z 00000KT 15SM SKC M15/M17 A3024 RMK SLP288

CYQR;2009-03-27 07:00;CYQR 270700Z 16003KT 15SM SKC M15/M17 A3022 RMK SLP282

CYQR;2009-03-27 08:00;CYQR 270800Z 14007KT 15SM SKC M15/M17 A3019 RMK FROIN SLP273

CYQR;2009-03-27 09:00;CYQR 270900Z 12006KT 15SM FEW280 M16/M18 A3018 RMK CI0 SLP264

CYQR;2009-03-27 10:00;CYQR 271000Z 14007KT 15SM FEW280 M16/M18 A3015 RMK CI0 FROIN SLP256

CYQR;2009-03-27 11:00;CYQR 271100Z 14008KT 15SM SKC M16/M17 A3014 RMK SLP251

CYQR;2009-03-27 12:00;CYQR 271200Z 14010KT 15SM SKC M16/M18 A3011 RMK VIS E 6 BR SLP243

CYQR;2009-03-27 13:00;CYQR 271300Z 14009KT 15SM FEW280 M16/M18 A3010 RMK CI1 SLP240

CYQR;2009-03-27 14:00;CYQR 271400Z 14012KT 15SM SKC M15/M17 A3009 RMK SLP235

CYQR;2009-03-27 15:00;CYQR 271500Z 14013KT 15SM FEW280 M14/M17 A3006 RMK CI1 SLP227

CYQR;2009-03-27 16:00;CYQR 271600Z 14015KT 15SM FEW280 M12/M16 A3004 RMK CI1 SLP219

CYQR;2009-03-27 17:00;CYQR 271700Z 13014KT 15SM SCT280 M10/M14 A3001 RMK CI1 SLP211

CYQR;2009-03-27 18:00;CYQR 271800Z 15015KT 15SM OVC280 M08/M12 A2998 RMK CI7 SLP199

CYQR;2009-03-27 19:00;CYQR 271900Z 15016G21KT 15SM OVC280 M07/M10 A2996 RMK CI6 SLP193

CYQR;2009-03-27 20:00;CYQR 272000Z 15018G24KT 15SM SCT035 BKN081 OVC280 M06/M10 A2994 RMK SC3AC3CI1 SLP185

CYQR;2009-03-27 21:00;CYQR 272100Z 14017KT 15SM SCT092 OVC250 M05/M09 A2990 RMK AC3CS5 SLP170

CYQR;2009-03-27 22:00;CYQR 272200Z 14019G27KT 15SM BKN096 OVC250 M05/M09 A2989 RMK AC6CI2 SLP164

CYQR;2009-03-27 23:00;CYQR 272300Z 13020KT 15SM BKN100 OVC200 M05/M08 A2987 RMK AC6CI2 SLP158

CYQR;2009-03-28 00:00;CYQR 280000Z 14018KT 15SM DRSN SCT100 OVC200 M05/M08 A2986 RMK AC3CI4 SLP154

CYQR;2009-03-28 01:00;CYQR 280100Z 14016G24KT 15SM DRSN FEW090 BKN200 M06/M09 A2984 RMK AC2CI2 SLP150

CYQR;2009-03-28 02:00;CYQR 280200Z 14014KT 15SM DRSN BKN200 M07/M10 A2984 RMK CI2 SLP147

CYQR;2009-03-28 03:00;CYQR 280300Z 14015KT 15SM DRSN FEW200 M08/M10 A2983 RMK CI0 SLP146

CYQR;2009-03-28 04:00;CYQR 280400Z 13012G17KT 15SM FEW200 M09/M11 A2984 RMK CI0 SLP147

CYQR;2009-03-28 05:00;CYQR 280500Z 13013KT 15SM SKC M09/M11 A2982 RMK SLP142

CYQR;2009-03-28 06:00;CYQR 280600Z 14013KT 15SM SKC M10/M12 A2981 RMK SLP136

CYQR;2009-03-28 07:00;CYQR 280700Z 13012KT 15SM SKC M11/M13 A2980 RMK SLP134

CYQR;2009-03-28 08:00;CYQR 280800Z 14008KT 15SM SKC M12/M14 A2982 RMK SLP138

CYQR;2009-03-28 09:00;CYQR 280900Z 13008KT 12SM SKC M13/M15 A2981 RMK SLP136

CYQR;2009-03-28 10:00;CYQR 281000Z 12007KT 10SM SCT049 BKN068 M13/M15 A2980 RMK SC4AC2 SLP134

CYQR;2009-03-28 11:00;CYQR 281100Z 13004KT 10SM FEW028 M13/M15 A2981 RMK SC2 SLP136

CYQR;2009-03-28 12:00;CYQR 281200Z 10004KT 12SM FEW030 M15/M17 A2981 RMK SC1 SLP136

CYQR;2009-03-28 13:00;CYQR 281300Z 17002KT 15SM FEW030 BKN250 M14/M16 A2980 RMK SC1CI4 SLP135

CYQR;2009-03-28 14:00;CYQR 281400Z 19003KT 15SM BKN250 M14/M17 A2980 RMK CI4 SLP134

CYQR;2009-03-28 15:00;CYQR 281500Z 19004KT 15SM BKN250 M14/M16 A2980 RMK CI4 SLP136

CYQR;2009-03-28 16:00;CYQR 281600Z 00000KT 15SM BKN250 M10/M13 A2981 RMK CI5 SLP138

CYQR;2009-03-28 17:00;CYQR 281700Z 28003KT 15SM OVC250 M07/M10 A2982 RMK CI6 SLP140

CYQR;2009-03-28 18:00;CYQR 281800Z 00000KT 15SM FEW200 BKN260 OVC300 M04/M08 A2981 RMK CC1CI3CI0 SLP134

CYQR;2009-03-28 19:00;CYQR 281900Z 28005KT 15SM FEW200 BKN260 BKN300 M02/M06 A2981 RMK CC1CI3CI0 SLP134

CYQR;2009-03-28 20:00;CYQR 282000Z 28007KT 15SM FEW150 BKN250 M00/M04 A2981 RMK AC1CI3 SLP132

CYQR;2009-03-28 21:00;CYQR 282100Z 26007KT 15SM FEW150 BKN250 01/M03 A2979 RMK AC1CI2 SLP126

CYQR;2009-03-28 22:00;CYQR 282200Z 28007KT 15SM FEW150 SCT250 01/M04 A2979 RMK AC1CI1 SLP125

CYQR;2009-03-28 23:00;CYQR 282300Z 26004KT 15SM FEW200 SCT300 01/M03 A2978 RMK CC1CI0 SLP122

CYQR;2009-03-29 00:00;CYQR 290000Z 27005KT 15SM SKC 01/M03 A2978 RMK SLP122

CYQR;2009-03-29 01:00;CYQR 290100Z 27004KT 15SM SKC M01/M04 A2978 RMK SLP121

CYQR;2009-03-29 02:00;CYQR 290200Z 27004KT 15SM SKC M03/M05 A2977 RMK SLP120

CYQR;2009-03-29 03:00;CYQR 290300Z 24006KT 15SM SKC M06/M07 A2977 RMK SLP124

CYQR;2009-03-29 04:00;CYQR 290400Z 25005KT 15SM SKC M07/M08 A2978 RMK SLP125

CYQR;2009-03-29 05:00;CYQR 290500Z 27003KT 12SM SKC M07/M08 A2977 RMK SLP123

CYQR;2009-03-29 05:47;CYQR 290547Z 21005KT 10SM FEW001 M08/ RMK SF0

CYQR;2009-03-29 06:00;CYQR 290600Z 24004KT 10SM FEW001 M09/M10 A2976 RMK SF0 SLP114

CYQR;2009-03-29 07:00;CYQR 290700Z 22002KT 10SM SKC M07/M09 A2975 RMK SLP110

CYQR;2009-03-29 08:00;CYQR 290800Z 06004KT 12SM SKC M08/M10 A2974 RMK FROIN SLP108

CYQR;2009-03-29 09:00;CYQR 290900Z 00000KT 15SM SKC M12/M14 A2974 RMK FROIN SLP105

CYQR;2009-03-29 10:00;CYQR 291000Z 08002KT 10SM SKC M12/M14 A2973 RMK FROIN SLP103

CYQR;2009-03-29 10:24;CYQR 291024Z CCA 00000KT 6SM BR SCT001 M14/ RMK SF2

CYQR;2009-03-29 10:49;CYQR 291049Z 00000KT 2SM BR SKC M15/ RMK FG6

CYQR;2009-03-29 11:00;CYQR 291100Z 00000KT 2SM BR SKC M15/M17 A2974 RMK FG6 VIS E 1 SLP104

CYQR;2009-03-29 12:00;CYQR 291200Z 12002KT 5SM BR SKC M16/M18 A2973 RMK FG1 VIS E 2 VIS W 1 SLP106

CYQR;2009-03-29 13:00;CYQR 291300Z 21002KT 8SM FEW200 M16/M18 A2973 RMK CI0 SLP106

CYQR;2009-03-29 14:00;CYQR 291400Z 23003KT 8SM FEW200 M15/M17 A2975 RMK CI1 SLP113

CYQR;2009-03-29 15:00;CYQR 291500Z 23003KT 15SM FEW200 BKN300 M14/M16 A2976 RMK CI1CI0 SLP121

CYQR;2009-03-29 16:00;CYQR 291600Z 24002KT 12SM FEW200 BKN300 M11/M12 A2978 RMK CI1CI0 SLP125

CYQR;2009-03-29 17:00;CYQR 291700Z 32003KT 8SM FEW200 BKN300 M08/M10 A2978 RMK CI1CI0 SLP125

CYQR;2009-03-29 18:00;CYQR 291800Z 31006KT 8SM BKN300 M04/M06 A2979 RMK CI1 SLP124

CYQR;2009-03-29 19:00;CYQR 291900Z 13003KT 15SM BKN300 00/M04 A2979 RMK CI2 SLP125

CYQR;2009-03-29 20:00;CYQR 292000Z 06010KT 15SM SCT300 01/M06 A2980 RMK CI2 SLP128

CYQR;2009-03-29 21:00;CYQR 292100Z 02010KT 15SM BKN300 02/M06 A2983 RMK CI2 SLP136

CYQR;2009-03-29 22:00;CYQR 292200Z 05007KT 15SM BKN300 02/M07 A2985 RMK CI2 SLP142

CYQR;2009-03-29 23:00;CYQR 292300Z 03009KT 15SM SCT230 BKN300 01/M06 A2987 RMK CI2CI2 SLP149

CYQR;2009-03-30 00:00;CYQR 300000Z 36007KT 15SM SCT230 BKN300 01/M05 A2989 RMK CI2CI2 SLP161

CYQR;2009-03-30 01:00;CYQR 300100Z 36007KT 15SM SCT230 OVC300 M00/M05 A2992 RMK CI2CI2 SLP169

CYQR;2009-03-30 02:00;CYQR 300200Z 34007KT 15SM SCT092 BKN300 M03/M06 A2995 RMK AC3CI2 SLP179

CYQR;2009-03-30 03:00;CYQR 300300Z 35006KT 15SM BKN300 M03/M05 A2997 RMK CI3 SLP189

CYQR;2009-03-30 04:00;CYQR 300400Z 35008KT 15SM SCT300 M04/M06 A2998 RMK CI2 SLP194

CYQR;2009-03-30 05:00;CYQR 300500Z 36006KT 15SM FEW300 M05/M07 A2999 RMK CI0 SLP198

CYQR;2009-03-30 06:00;CYQR 300600Z 36005KT 15SM SKC M07/M08 A3001 RMK SLP198

CYQR;2009-03-30 07:00;CYQR 300700Z 34002KT 15SM SKC M07/M08 A3002 RMK SLP201

CYQR;2009-03-30 08:00;CYQR 300800Z 34003KT 15SM SKC M08/M09 A3003 RMK SLP206

CYQR;2009-03-30 09:00;CYQR 300900Z 34004KT 10SM SKC M08/M09 A3004 RMK SLP208

CYQR;2009-03-30 10:00;CYQR 301000Z 32006KT 5SM BR SKC M10/M12 A3004 RMK SLP208

CYQR;2009-03-30 10:36;CYQR 301036Z 30005KT 2 1/2SM BR SKC M11/

CYQR;2009-03-30 10:44;CYQR 301044Z 31007KT 2SM BR SCT001 M12/ RMK SF3

CYQR;2009-03-30 11:00;CYQR 301100Z 30005KT 1 1/2SM BR SCT001 M11/M13 A3006 RMK SF2 SLP213

CYQR;2009-03-30 11:12;CYQR 301112Z 31004KT 1SM R13/2400FT/N BR BKN001 M11/ RMK SF4

CYQR;2009-03-30 11:20;CYQR 301120Z 32003KT 2SM R13/2600VP6000FT/N BR SCT001 M11/ RMK SF3

CYQR;2009-03-30 11:27;CYQR 301127Z 32003KT 3SM BR FEW001 M11/ RMK SF2

CYQR;2009-03-30 12:00;CYQR 301200Z 30005KT 10SM FEW001 FEW300 M12/M14 A3007 RMK SF1CI1 SLP220

CYQR;2009-03-30 13:00;CYQR 301300Z 30005KT 10SM FEW001 FEW080 BKN300 M13/M15 A3008 RMK SF1AC1CI0 SLP223

CYQR;2009-03-30 14:00;CYQR 301400Z 35002KT 10SM FEW001 FEW092 BKN300 M10/M12 A3009 RMK SF1AC1CI0 SLP227

CYQR;2009-03-30 15:00;CYQR 301500Z 29005KT 15SM FEW001 FEW090 BKN300 M09/M11 A3009 RMK SF1AC1CI1 SLP229

CYQR;2009-03-30 16:00;CYQR 301600Z 31005KT 15SM FEW300 M06/M09 A3010 RMK CI1 SLP231

CYQR;2009-03-30 17:00;CYQR 301700Z 28002KT 15SM FEW300 M02/M06 A3009 RMK CI1 SLP229

CYQR;2009-03-30 18:00;CYQR 301800Z 26004KT 15SM FEW300 M01/M05 A3009 RMK CI1 SLP223

CYQR;2009-03-30 19:00;CYQR 301900Z 28005KT 15SM FEW002 FEW300 M01/M05 A3008 RMK SF1CI0 SLP219

CYQR;2009-03-30 20:00;CYQR 302000Z 27005KT 15SM FEW016 FEW300 00/M04 A3006 RMK CF1CI1 TR CF SLP215

CYQR;2009-03-30 21:00;CYQR 302100Z 29002KT 15SM FEW020 FEW300 01/M04 A3005 RMK CF1CI1 SLP210

CYQR;2009-03-30 22:00;CYQR 302200Z 25003KT 15SM FEW020 FEW300 02/M04 A3004 RMK CF1CI1 TR CF SLP205

CYQR;2009-03-30 23:00;CYQR 302300Z 19005KT 15SM FEW020 FEW300 01/M03 A3003 RMK CF1CI1 SLP203

CYQR;2009-03-31 00:00;CYQR 310000Z 17005KT 15SM FEW020 FEW300 M00/M03 A3002 RMK CF1CI1 SLP204

CYQR;2009-03-31 01:00;CYQR 310100Z 17006KT 15SM FEW020 FEW300 M01/M05 A3002 RMK CF1CI1 SLP203

CYQR;2009-03-31 02:00;CYQR 310200Z 16007KT 15SM FEW300 M02/M06 A3001 RMK CI1 SLP200

CYQR;2009-03-31 03:00;CYQR 310300Z 15008KT 15SM SKC M03/M05 A3001 RMK SLP200

CYQR;2009-03-31 04:00;CYQR 310400Z 15009KT 15SM SKC M04/M06 A3000 RMK SLP197

CYQR;2009-03-31 05:00;CYQR 310500Z 15011KT 15SM SKC M05/M07 A2998 RMK SLP191

CYQR;2009-03-31 06:00;CYQR 310600Z 16010KT 15SM SKC M06/M08 A2996 RMK SLP178

CYQR;2009-03-31 07:00;CYQR 310700Z 16010KT 15SM SKC M06/M08 A2994 RMK SLP172

CYQR;2009-03-31 08:00;CYQR 310800Z 16010KT 15SM SKC M06/M09 A2993 RMK SLP168

CYQR;2009-03-31 09:00;CYQR 310900Z 15010KT 15SM SCT060 M07/M09 A2991 RMK SC2 SLP161

CYQR;2009-03-31 10:00;CYQR 311000Z 16011KT 15SM SCT060 M08/M10 A2989 RMK SC3 SLP155

CYQR;2009-03-31 11:00;CYQR 311100Z 12010KT 15SM SKC M09/M11 A2987 RMK SLP149

CYQR;2009-03-31 12:00;CYQR 311200Z 12010KT 15SM FEW300 M10/M12 A2986 RMK CI1 SLP145

CYQR;2009-03-31 13:00;CYQR 311300Z 13011KT 15SM SCT300 M09/M11 A2984 RMK CI1 SLP141

CYQR;2009-03-31 14:00;CYQR 311400Z 13012KT 15SM SCT300 M09/M11 A2984 RMK CI1 SLP138

CYQR;2009-03-31 15:00;CYQR 311500Z 13008KT 15SM FEW230 BKN300 M07/M10 A2982 RMK CI1CI0 SLP134

CYQR;2009-03-31 16:00;CYQR 311600Z 14012KT 15SM BKN300 M05/M08 A2981 RMK CI2 SLP129

CYQR;2009-03-31 17:00;CYQR 311700Z 14014KT 15SM BKN300 M02/M06 A2979 RMK CI2 SLP123

CYQR;2009-03-31 18:00;CYQR 311800Z 14012KT 15SM BKN300 M01/M05 A2976 RMK CI2 SLP111

CYQR;2009-03-31 19:00;CYQR 311900Z 15014KT 15SM BKN300 M01/M04 A2975 RMK CI2 SLP107

CYQR;2009-03-31 20:00;CYQR 312000Z 15019KT 15SM SCT300 00/M03 A2973 RMK CI1 SLP099

CYQR;2009-03-31 21:00;CYQR 312100Z 14015KT 15SM SCT300 01/M04 A2971 RMK CI1 SLP091

CYQR;2009-03-31 22:00;CYQR 312200Z 14015KT 15SM SCT300 01/M05 A2969 RMK CI1 SLP087

CYQR;2009-03-31 23:00;CYQR 312300Z 13017KT 15SM FEW020 SCT300 00/M05 A2968 RMK CF1CI0 SLP083

CYQR;2009-04-01 01:00;CYQR 010100Z 13012KT 15SM FEW300 M01/M07 A2967 RMK CI1 SLP081

CYQR;2009-04-01 02:00;CYQR 010200Z 12011KT 15SM FEW300 M02/M06 A2968 RMK CI0 SLP083

CYQR;2009-04-01 03:00;CYQR 010300Z 13010KT 15SM SKC M03/M07 A2968 RMK SLP084

CYQR;2009-04-01 04:00;CYQR 010400Z 11008KT 15SM SKC M05/M08 A2968 RMK SLP085

CYQR;2009-04-01 05:00;CYQR 010500Z 10010KT 15SM SKC M04/M08 A2967 RMK SLP082

CYQR;2009-04-01 06:00;CYQR 010600Z 10009KT 15SM SKC M05/M09 A2967 RMK SLP078

CYQR;2009-04-01 07:00;CYQR 010700Z 09008KT 15SM SKC M07/M09 A2967 RMK SLP079

CYQR;2009-04-01 08:00;CYQR 010800Z 28003KT 15SM SKC M09/M10 A2968 RMK SLP083

CYQR;2009-04-01 09:00;CYQR 010900Z 30006KT 15SM SKC M10/M12 A2968 RMK SLP085

CYQR;2009-04-01 10:00;CYQR 011000Z 32004KT 15SM SKC M11/M12 A2969 RMK SLP087

CYQR;2009-04-01 11:00;CYQR 011100Z 32006KT 15SM SKC M11/M13 A2969 RMK SLP089

CYQR;2009-04-01 12:00;CYQR 011200Z 35008KT 15SM FEW300 M10/M12 A2970 RMK CI1 SLP092

CYQR;2009-04-01 13:00;CYQR 011300Z 34006KT 15SM BKN300 M10/M12 A2972 RMK CI4 SLP097

CYQR;2009-04-01 14:00;CYQR 011400Z 35007KT 15SM BKN300 M07/M09 A2973 RMK CI2 SLP101

CYQR;2009-04-01 15:00;CYQR 011500Z 36007KT 15SM BKN300 M04/M08 A2973 RMK CI2 SLP100

CYQR;2009-04-01 16:00;CYQR 011600Z 34008KT 15SM SCT300 M03/M07 A2974 RMK CI1 SLP104

CYQR;2009-04-01 17:00;CYQR 011700Z 34010KT 15SM FEW300 M01/M07 A2974 RMK CI1 SLP104

CYQR;2009-04-01 18:00;CYQR 011800Z 35008KT 15SM FEW300 00/M06 A2975 RMK CI0 SLP104

CYQR;2009-04-01 19:00;CYQR 011900Z 33011KT 15SM SCT300 01/M05 A2974 RMK CI1 SLP102

CYQR;2009-04-01 20:00;CYQR 012000Z 33012KT 15SM FEW300 01/M05 A2974 RMK CI1 CONTRAILS SLP102

CYQR;2009-04-01 21:00;CYQR 012100Z 33012KT 15SM BKN300 01/M05 A2974 RMK CI2 SLP103

CYQR;2009-04-01 22:00;CYQR 012200Z 32011KT 15SM FEW016 BKN300 01/M06 A2973 RMK CU1CI2 SLP102

CYQR;2009-04-01 23:00;CYQR 012300Z 32011KT 15SM FEW016 SCT300 01/M05 A2974 RMK SF1CI2 SLP103

CYQR;2009-04-02 00:00;CYQR 020000Z 34010KT 15SM FEW300 01/M05 A2974 RMK CI1 SLP105

CYQR;2009-04-02 01:00;CYQR 020100Z 34008KT 15SM FEW300 M00/M06 A2975 RMK CI1 SLP107

CYQR;2009-04-02 02:00;CYQR 020200Z 34007KT 15SM FEW300 M03/M06 A2975 RMK CI0 SLP107

CYQR;2009-04-02 03:00;CYQR 020300Z 35004KT 15SM SKC M03/M07 A2975 RMK SLP106

CYQR;2009-04-02 04:00;CYQR 020400Z 01002KT 15SM SKC M05/M07 A2975 RMK SLP107

CYQR;2009-04-02 05:00;CYQR 020500Z 27005KT 15SM SKC M05/M07 A2975 RMK SLP106

CYQR;2009-04-02 06:00;CYQR 020600Z 00000KT 15SM SKC M07/M08 A2974 RMK SLP104

CYQR;2009-04-02 07:00;CYQR 020700Z 25002KT 15SM SKC M07/M08 A2974 RMK SLP101

CYQR;2009-04-02 08:00;CYQR 020800Z 00000KT 15SM SKC M08/M09 A2973 RMK SLP100

CYQR;2009-04-02 09:00;CYQR 020900Z 00000KT 15SM SKC M08/M09 A2973 RMK SLP098

CYQR;2009-04-02 10:00;CYQR 021000Z 12003KT 15SM SKC M08/M10 A2972 RMK SLP096

CYQR;2009-04-02 11:00;CYQR 021100Z 10007KT 10SM SKC M08/M10 A2971 RMK SLP094

CYQR;2009-04-02 12:00;CYQR 021200Z 10007KT 12SM SKC M08/M10 A2971 RMK SLP094

CYQR;2009-04-02 13:00;CYQR 021300Z 13004KT 12SM SKC M08/M09 A2971 RMK SLP094

CYQR;2009-04-02 14:00;CYQR 021400Z 14006KT 15SM FEW250 FEW300 M07/M09 A2972 RMK CI1CI0 SLP095

CYQR;2009-04-02 15:00;CYQR 021500Z 12005KT 10SM FEW250 FEW300 M03/M07 A2971 RMK CI1CI0 SLP093

CYQR;2009-04-02 16:00;CYQR 021600Z 14008KT 15SM FEW300 M02/M07 A2971 RMK CI0 SLP092

CYQR;2009-04-02 17:00;CYQR 021700Z 12009KT 15SM FEW300 M01/M06 A2971 RMK CI0 SLP093

CYQR;2009-04-02 18:00;CYQR 021800Z 14010KT 15SM FEW300 M00/M06 A2971 RMK CI0 SLP092

CYQR;2009-04-02 19:00;CYQR 021900Z 13010KT 15SM FEW300 01/M07 A2970 RMK CI0 SLP090

CYQR;2009-04-02 20:00;CYQR 022000Z 15011KT 15SM FEW300 01/M08 A2970 RMK CI0 SLP089

CYQR;2009-04-02 21:00;CYQR 022100Z 14010KT 15SM FEW030 FEW300 02/M07 A2969 RMK CF1CI1 SLP087

CYQR;2009-04-02 22:00;CYQR 022200Z 14010KT 15SM FEW030 FEW300 02/M07 A2969 RMK CF1CI1 SLP087

CYQR;2009-04-02 23:00;CYQR 022300Z 14010KT 15SM FEW030 FEW300 02/M07 A2970 RMK SC1CI1 SLP088

CYQR;2009-04-03 00:00;CYQR 030000Z 14009KT 15SM FEW150 FEW300 01/M08 A2970 RMK AC1CI1 SLP090

CYQR;2009-04-03 01:00;CYQR 030100Z 14008KT 15SM FEW150 FEW300 M00/M07 A2971 RMK AC1CI1 SLP094

CYQR;2009-04-03 02:00;CYQR 030200Z 12006KT 15SM FEW130 FEW300 M03/M07 A2972 RMK AC1CI1 SLP096

CYQR;2009-04-03 03:00;CYQR 030300Z 11005KT 15SM SKC M03/M07 A2973 RMK SLP100

CYQR;2009-04-03 04:00;CYQR 030400Z 10006KT 15SM SKC M04/M07 A2973 RMK SLP100

CYQR;2009-04-03 05:00;CYQR 030500Z 10008KT 15SM SKC M04/M08 A2973 RMK SLP100

CYQR;2009-04-03 06:00;CYQR 030600Z 10009KT 15SM SKC M03/M08 A2973 RMK SLP095

CYQR;2009-04-03 07:00;CYQR 030700Z 11009KT 15SM SKC M03/M08 A2974 RMK SLP098

CYQR;2009-04-03 08:00;CYQR 030800Z 10009KT 15SM SKC M04/M08 A2974 RMK SLP100

CYQR;2009-04-03 09:00;CYQR 030900Z 11009KT 15SM SKC M04/M08 A2974 RMK SLP101

CYQR;2009-04-03 10:00;CYQR 031000Z 11008KT 15SM SKC M04/M08 A2975 RMK SLP103

CYQR;2009-04-03 11:00;CYQR 031100Z 11007KT 15SM SKC M05/M08 A2975 RMK SLP104

CYQR;2009-04-03 12:00;CYQR 031200Z 10005KT 15SM BKN250 M05/M08 A2978 RMK CI2 SLP114

CYQR;2009-04-03 13:00;CYQR 031300Z 11006KT 15SM FEW030 BKN250 M04/M07 A2980 RMK SC1CI3 SLP122

CYQR;2009-04-03 14:00;CYQR 031400Z 12008KT 15SM BKN250 M03/M07 A2982 RMK CI3 SLP129

CYQR;2009-04-03 15:00;CYQR 031500Z 12008KT 15SM BKN250 M02/M06 A2984 RMK CI5 SLP135

CYQR;2009-04-03 16:00;CYQR 031600Z 10009KT 15SM OVC250 M00/M06 A2985 RMK CI3 SLP139

CYQR;2009-04-03 17:00;CYQR 031700Z 09009KT 15SM FEW015 BKN280 00/M04 A2986 RMK CF1CI1 SLP144

CYQR;2009-04-03 18:00;CYQR 031800Z 12007KT 15SM FEW015 BKN280 01/M06 A2987 RMK CF1CI1 SLP144

CYQR;2009-04-03 19:00;CYQR 031900Z 14010KT 15SM BKN029 BKN280 01/M06 A2989 RMK SC6CI0 SLP151

CYQR;2009-04-03 20:00;CYQR 032000Z 15006KT 15SM BKN028 BKN280 01/M04 A2991 RMK CU7CI1 SLP157

CYQR;2009-04-03 21:00;CYQR 032100Z 16004KT 15SM BKN028 BKN280 01/M04 A2993 RMK SC6CI1 SLP164

CYQR;2009-04-03 22:00;CYQR 032200Z 23004KT 15SM BKN034 BKN280 01/M05 A2994 RMK SC6CI0 CB TOP SW SLP169

CYQR;2009-04-03 23:00;CYQR 032300Z CCA 27006KT 15SM FEW015 BKN026 BKN280 01/M04 A2996 RMK SC1CU7CI1 VIRGA SW SLP175

CYQR;2009-04-03 23:39;CYQR 032339Z 00000KT 10SM -SHSN FEW015 BKN026 00/ RMK SC2CU5

CYQR;2009-04-04 00:00;CYQR 040000Z 15003KT 10SM -SHSN FEW015 BKN026 00/M05 A2998 RMK SC2CU5 SLP184

CYQR;2009-04-04 00:27;CYQR 040027Z 07004KT 15SM SCT024 BKN046 00/ RMK SC3SC4

CYQR;2009-04-04 01:00;CYQR 040100Z 07005KT 15SM BKN024 BKN280 M00/M04 A3000 RMK CU7CI1 VIRGA SW SLP192

CYQR;2009-04-04 02:00;CYQR 040200Z 09009KT 15SM BKN022 OVC051 M01/M05 A3004 RMK CU6SC2 SLP202

CYQR;2009-04-04 02:33;CYQR 040233Z 10007KT 12SM -SN OVC024 M01/ RMK SC8

CYQR;2009-04-04 03:00;CYQR 040300Z 10007KT 10SM -SN OVC028 M01/M05 A3007 RMK SC8 SLP215

CYQR;2009-04-04 04:00;CYQR 040400Z 12004KT 12SM -SN BKN032 OVC049 M02/M05 A3010 RMK CU6SC2 SLP223

CYQR;2009-04-04 05:00;CYQR 040500Z 13006KT 15SM -SN OVC037 M02/M06 A3012 RMK SC8 SLP229

CYQR;2009-04-04 05:12;CYQR 040512Z 13004KT 15SM OVC041 M02/ RMK SC8

CYQR;2009-04-04 06:00;CYQR 040600Z 00000KT 15SM OVC047 M02/M06 A3013 RMK SC8 SLP233

CYQR;2009-04-04 07:00;CYQR 040700Z 18003KT 15SM OVC049 M02/M05 A3015 RMK SC8 SLP240

CYQR;2009-04-04 08:00;CYQR 040800Z 23002KT 15SM OVC049 M03/M05 A3016 RMK SC8 SLP244

CYQR;2009-04-04 09:00;CYQR 040900Z 30002KT 15SM FEW020 BKN051 BKN100 M03/M05 A3018 RMK SC2SC3AC1 SLP251

CYQR;2009-04-04 09:24;CYQR 040924Z 33005KT 15SM -SN SCT028 BKN051 OVC100 M03/ RMK SC2SC4AC2

CYQR;2009-04-04 10:00;CYQR 041000Z 34003KT 15SM -SN FEW018 FEW025 OVC045 M03/M05 A3019 RMK SC1SC1SC6 SLP255

CYQR;2009-04-04 11:00;CYQR 041100Z 35005KT 15SM -SN FEW018 OVC045 M02/M05 A3021 RMK SC1SC7 SLP261

CYQR;2009-04-04 12:00;CYQR 041200Z 03004KT 15SM -SN OVC047 M03/M05 A3023 RMK SC7 SLP270

CYQR;2009-04-04 13:00;CYQR 041300Z 33003KT 15SM -SN OVC042 M03/M04 A3025 RMK SC8 SLP276

CYQR;2009-04-04 14:00;CYQR 041400Z 36006KT 15SM -SN OVC037 M02/M06 A3028 RMK SC8 SLP284

CYQR;2009-04-04 15:00;CYQR 041500Z 34007KT 15SM -SN OVC039 M02/M06 A3029 RMK SC8 SLP291

CYQR;2009-04-04 15:36;CYQR 041536Z 34007KT 15SM FEW020 BKN043 OVC098 M01/ RMK CF1SC5AC2

CYQR;2009-04-04 16:00;CYQR 041600Z 34007KT 15SM FEW020 SCT045 BKN098 M01/M05 A3031 RMK CU1SC3AC2 SLP295

CYQR;2009-04-04 17:00;CYQR 041700Z 01007KT 15SM SCT021 M00/M06 A3031 RMK CU4 SLP296

CYQR;2009-04-04 17:51;CYQR 041751Z 36009KT 15SM -SN FEW020 OVC030 M00/ RMK CF2SC6

CYQR;2009-04-04 18:00;CYQR 041800Z 36008KT 15SM -SN FEW020 OVC030 M01/M07 A3032 RMK CF2SC6 SLP301

CYQR;2009-04-04 19:00;CYQR 041900Z 36008KT 15SM -SN BKN030 OVC080 00/M06 A3033 RMK SC6AC2 SLP304

CYQR;2009-04-04 19:38;CYQR 041938Z 01008KT 15SM SCT029 OVC076 01/ RMK SC3AC5

CYQR;2009-04-04 20:00;CYQR 042000Z 02007KT 15SM BKN029 OVC076 01/M07 A3034 RMK SC5AC3 SLP307

CYQR;2009-04-04 20:19;CYQR 042019Z 33005KT 15SM -SN BKN020 OVC076 00/ RMK SC6AC2

CYQR;2009-04-04 21:00;CYQR 042100Z 33011KT 15SM -SN FEW010 BKN030 OVC080 00/M06 A3034 RMK CF1SC6AC1 SLP308

CYQR;2009-04-04 22:00;CYQR 042200Z 34012KT 15SM -SN BKN030 OVC080 01/M05 A3035 RMK SC6AC1 SLP310

CYQR;2009-04-04 22:38;CYQR 042238Z 35014KT 15SM BKN023 BKN090 BKN250 00/ RMK SC5AC2CI1

CYQR;2009-04-04 23:00;CYQR 042300Z 35013KT 15SM BKN026 BKN090 BKN250 M00/M06 A3035 RMK SC5AC1CI2 SLP311

CYQR;2009-04-05 00:00;CYQR 050000Z 36012KT 15SM SCT030 SCT100 BKN250 M00/M06 A3036 RMK SC3AC1CI1 SLP313

CYQR;2009-04-05 01:00;CYQR 050100Z 34010KT 15SM SCT035 SCT100 BKN250 M01/M06 A3037 RMK SC3AC1CI0 SLP316

CYQR;2009-04-05 02:00;CYQR 050200Z 36008KT 15SM FEW033 M01/M06 A3039 RMK SC2 SLP324

CYQR;2009-04-05 03:00;CYQR 050300Z 34006KT 15SM FEW035 FEW250 M03/M05 A3041 RMK SC1CI0 SLP333

CYQR;2009-04-05 04:00;CYQR 050400Z 33006KT 15SM SKC M04/M06 A3043 RMK SLP337

CYQR;2009-04-05 05:00;CYQR 050500Z 33006KT 15SM SKC M05/M06 A3043 RMK SLP340

CYQR;2009-04-05 06:00;CYQR 050600Z 27002KT 15SM SKC M06/M08 A3044 RMK SLP345

CYQR;2009-04-05 07:00;CYQR 050700Z 29006KT 15SM SKC M06/M08 A3045 RMK SLP346

CYQR;2009-04-05 08:00;CYQR 050800Z 31005KT 15SM SKC M06/M08 A3045 RMK FROIN SLP346

CYQR;2009-04-05 09:00;CYQR 050900Z 32007KT 15SM SKC M05/M07 A3044 RMK SLP344

CYQR;2009-04-05 10:00;CYQR 051000Z 34007KT 15SM SKC M06/M08 A3044 RMK SLP344

CYQR;2009-04-05 11:00;CYQR 051100Z 33007KT 15SM SKC M06/M08 A3046 RMK SLP349

CYQR;2009-04-05 12:00;CYQR 051200Z 34006KT 15SM SKC M07/M08 A3048 RMK FROIN SLP358

CYQR;2009-04-05 13:00;CYQR 051300Z 33007KT 15SM SKC M07/M08 A3049 RMK SLP362

CYQR;2009-04-05 14:00;CYQR 051400Z 35005KT 15SM FEW037 M05/M07 A3051 RMK CU1 SLP366

CYQR;2009-04-05 15:00;CYQR 051500Z 36004KT 15SM FEW040 M03/M06 A3052 RMK SC1 SLP370

CYQR;2009-04-05 16:00;CYQR 051600Z 34005KT 15SM SKC M01/M06 A3053 RMK SLP374

CYQR;2009-04-05 17:00;CYQR 051700Z 03006KT 15SM FEW036 00/M08 A3053 RMK CU1 CU TOPS DISTANT WEST SLP376

CYQR;2009-04-05 18:00;CYQR 051800Z 04008KT 15SM FEW040 01/M08 A3053 RMK CU1 SLP375

CYQR;2009-04-05 19:00;CYQR 051900Z 04010KT 15SM FEW041 02/M07 A3053 RMK CU2 SLP374

CYQR;2009-04-05 20:00;CYQR 052000Z 08008KT 15SM FEW041 02/M07 A3053 RMK SC2 CU ASOCTD SLP374

CYQR;2009-04-05 21:00;CYQR 052100Z 02006KT 15SM FEW043 01/M07 A3053 RMK SC2 CU ASOCTD SLP374

CYQR;2009-04-05 22:00;CYQR 052200Z 01008KT 15SM FEW043 02/M08 A3053 RMK SC1 SLP375

CYQR;2009-04-05 23:00;CYQR 052300Z 01007KT 15SM FEW045 02/M08 A3054 RMK SC1 SLP376

CYQR;2009-04-06 00:00;CYQR 060000Z 04005KT 15SM FEW045 02/M07 A3053 RMK SC1 SLP375

CYQR;2009-04-06 01:00;CYQR 060100Z 04007KT 15SM FEW045 00/M07 A3054 RMK SC1 SLP376

CYQR;2009-04-06 02:00;CYQR 060200Z 07005KT 15SM FEW045 FEW250 M02/M09 A3054 RMK SC1CI1 SLP378

CYQR;2009-04-06 03:00;CYQR 060300Z 11007KT 15SM SKC M03/M08 A3054 RMK SLP378

CYQR;2009-04-06 04:00;CYQR 060400Z 15006KT 15SM SKC M04/M08 A3055 RMK SLP380

CYQR;2009-04-06 05:00;CYQR 060500Z 17005KT 15SM SKC M05/M08 A3054 RMK SLP377

CYQR;2009-04-06 06:00;CYQR 060600Z 16005KT 15SM SKC M05/M08 A3054 RMK SLP376

CYQR;2009-04-06 07:00;CYQR 060700Z 15005KT 15SM SKC M06/M08 A3054 RMK SLP376

CYQR;2009-04-06 08:00;CYQR 060800Z 16006KT 15SM SKC M06/M08 A3052 RMK SLP371

CYQR;2009-04-06 09:00;CYQR 060900Z 15008KT 15SM SKC M06/M08 A3051 RMK SLP365

CYQR;2009-04-06 10:00;CYQR 061000Z 16008KT 15SM SKC M06/M09 A3048 RMK SLP356

CYQR;2009-04-06 11:00;CYQR 061100Z 16009KT 15SM FEW250 M07/M09 A3047 RMK CI1 FROIN SLP352

CYQR;2009-04-06 12:00;CYQR 061200Z 16010KT 15SM FEW250 M07/M10 A3044 RMK CI1 SLP344

CYQR;2009-04-06 13:00;CYQR 061300Z 15010KT 15SM BKN250 M07/M10 A3043 RMK CI2 SLP340

CYQR;2009-04-06 14:00;CYQR 061400Z 16012KT 15SM SCT250 M06/M09 A3043 RMK CI2 SLP339

CYQR;2009-04-06 15:00;CYQR 061500Z 17012KT 15SM BKN250 M04/M07 A3040 RMK CI1 SLP332

CYQR;2009-04-06 16:00;CYQR 061600Z 17013KT 15SM BKN250 M02/M05 A3037 RMK CI2 SLP321

CYQR;2009-04-06 17:00;CYQR 061700Z 19017G24KT 15SM SCT220 BKN260 BKN300 M01/M05 A3034 RMK CI1CI1CI1 SLP313

CYQR;2009-04-06 18:00;CYQR 061800Z 17020KT 15SM FEW150 BKN220 BKN300 00/M05 A3030 RMK AC2CI2CI2 SLP295

CYQR;2009-04-06 19:00;CYQR 061900Z 17016KT 15SM FEW150 BKN220 01/M04 A3027 RMK AC2CI6 SLP285

CYQR;2009-04-06 20:00;CYQR 062000Z 15018G24KT 15SM BKN150 BKN220 OVC300 01/M04 A3021 RMK AC5CI2CI1 SLP267

CYQR;2009-04-06 21:00;CYQR 062100Z 16018KT 15SM BKN150 OVC220 01/M03 A3017 RMK AC6CI2 PRESFR SLP249

CYQR;2009-04-06 22:00;CYQR 062200Z 16018G26KT 15SM BKN150 OVC220 02/M03 A3014 RMK AC5CI3 PRESFR SLP238

CYQR;2009-04-06 23:00;CYQR 062300Z 15016KT 15SM BKN150 OVC220 01/M02 A3010 RMK AC5CI3 SLP228

CYQR;2009-04-07 00:00;CYQR 070000Z 14020KT 15SM SCT150 OVC220 01/M02 A3005 RMK AC3CI3 SLP210

CYQR;2009-04-07 01:00;CYQR 070100Z 14015G20KT 15SM SCT150 BKN220 01/M03 A3000 RMK AC3CI2 SLP194

CYQR;2009-04-07 02:00;CYQR 070200Z 14018KT 15SM FEW150 BKN220 00/M03 A2996 RMK AC2CI2 SLP180

CYQR;2009-04-07 03:00;CYQR 070300Z 14013G18KT 15SM FEW150 BKN220 M00/M04 A2992 RMK AC1CI1 SLP163

CYQR;2009-04-07 04:00;CYQR 070400Z 16014KT 15SM FEW150 SCT220 M01/M04 A2990 RMK AC1CI1 SLP158

CYQR;2009-04-07 05:00;CYQR 070500Z 14009KT 15SM FEW220 M01/M04 A2988 RMK CI0 SLP151

CYQR;2009-04-07 06:00;CYQR 070600Z 12007KT 15SM SKC M03/M05 A2986 RMK SLP141

CYQR;2009-04-07 07:00;CYQR 070700Z 08003KT 15SM SKC M04/M06 A2986 RMK SLP141

CYQR;2009-04-07 08:00;CYQR 070800Z 35002KT 15SM FEW120 FEW230 M04/M06 A2987 RMK AC1CI0 SLP144

CYQR;2009-04-07 09:00;CYQR 070900Z 30007KT 15SM BKN230 M04/M06 A2988 RMK CI1 SLP147

CYQR;2009-04-07 10:00;CYQR 071000Z 28007KT 15SM SCT230 M04/M06 A2989 RMK CI1 FROIN SLP150

CYQR;2009-04-07 11:00;CYQR 071100Z 33008KT 15SM SCT230 M03/M04 A2989 RMK CI1 FROIN SLP153

CYQR;2009-04-07 12:00;CYQR 071200Z 29005KT 15SM FEW120 BKN230 M04/M05 A2990 RMK AC1CI1 SLP154

CYQR;2009-04-07 13:00;CYQR 071300Z 30004KT 15SM FEW230 M04/M05 A2991 RMK CI1 SLP157

CYQR;2009-04-07 14:00;CYQR 071400Z 29005KT 15SM FEW230 M02/M04 A2990 RMK CI1 SLP156

CYQR;2009-04-07 15:00;CYQR 071500Z 28009KT 15SM FEW140 FEW230 00/M02 A2990 RMK AC1CI1 SLP154

CYQR;2009-04-07 16:00;CYQR 071600Z 30011KT 15SM FEW230 03/M00 A2991 RMK CI1 SLP156

CYQR;2009-04-07 17:00;CYQR 071700Z 30012KT 15SM FEW090 FEW230 05/00 A2990 RMK AC1CI0 SLP155

CYQR;2009-04-07 18:00;CYQR 071800Z 31013KT 15SM FEW094 FEW230 07/00 A2990 RMK AC1CI0 SLP152

CYQR;2009-04-07 19:00;CYQR 071900Z 31011KT 15SM FEW094 FEW230 08/02 A2990 RMK AC1CI0 SLP151

CYQR;2009-04-07 20:00;CYQR 072000Z 32016G22KT 15SM FEW030 FEW120 SCT230 09/01 A2990 RMK CU1AC1CI0 SLP150

CYQR;2009-04-07 21:00;CYQR 072100Z 32020G27KT 15SM FEW030 SCT090 BKN230 09/M00 A2990 RMK CU1AC2CI0 SLP150

CYQR;2009-04-07 22:00;CYQR 072200Z 34017G24KT 15SM FEW030 SCT110 BKN230 09/02 A2990 RMK CU1AC3CI0 SLP150

CYQR;2009-04-07 23:00;CYQR 072300Z 34013G18KT 15SM FEW110 FEW230 08/01 A2991 RMK AC1CI1 SLP153

CYQR;2009-04-08 00:00;CYQR 080000Z 34013KT 15SM FEW110 07/00 A2991 RMK AC1 SLP155

CYQR;2009-04-08 01:00;CYQR 080100Z CCA 34011KT 15SM FEW110 SCT260 05/M01 A2992 RMK AC1CI0 CONTRAILS SLP158

CYQR;2009-04-08 02:00;CYQR 080200Z 34007KT 15SM FEW030 FEW260 02/M01 A2992 RMK SC1CI0 SLP158

CYQR;2009-04-08 03:00;CYQR 080300Z 36007KT 15SM FEW030 FEW260 02/M02 A2994 RMK SC1CI0 SLP166

CYQR;2009-04-08 04:00;CYQR 080400Z 02008KT 15SM SKC 01/M02 A2994 RMK SLP165

CYQR;2009-04-08 05:00;CYQR 080500Z 00000KT 15SM SKC M00/M03 A2994 RMK SLP164

CYQR;2009-04-08 06:00;CYQR 080600Z 00000KT 15SM SKC M02/M04 A2994 RMK SLP162

CYQR;2009-04-08 07:00;CYQR 080700Z 01002KT 15SM SKC M03/M04 A2994 RMK SLP164

CYQR;2009-04-08 08:00;CYQR 080800Z 04002KT 15SM FEW240 M02/M04 A2994 RMK CI0 FROIN SLP162

CYQR;2009-04-08 09:00;CYQR 080900Z 27006KT 15SM SKC M04/M05 A2994 RMK FROIN SLP164

CYQR;2009-04-08 10:00;CYQR 081000Z 00000KT 15SM SKC M04/M05 A2995 RMK SLP166

CYQR;2009-04-08 11:00;CYQR 081100Z 33002KT 15SM SKC M04/M05 A2995 RMK FROIN SLP167

CYQR;2009-04-08 12:00;CYQR 081200Z 03002KT 15SM SKC M04/M05 A2995 RMK FROIN SLP167

CYQR;2009-04-08 13:00;CYQR 081300Z 00000KT 15SM SKC M03/M05 A2995 RMK SLP168

CYQR;2009-04-08 14:00;CYQR 081400Z 00000KT 15SM SKC M00/M02 A2995 RMK SLP168

CYQR;2009-04-08 15:00;CYQR 081500Z 16003KT 15SM SKC 02/M01 A2995 RMK SLP168

CYQR;2009-04-08 16:00;CYQR 081600Z 14006KT 15SM SKC 03/M03 A2994 RMK SLP165

CYQR;2009-04-08 17:00;CYQR 081700Z 16007KT 15SM SKC 04/M02 A2994 RMK SLP165

CYQR;2009-04-08 18:00;CYQR 081800Z 11009KT 15SM FEW035 FEW230 06/M03 A2993 RMK CF1CI1 SLP161

CYQR;2009-04-08 19:00;CYQR 081900Z 14013KT 15SM FEW230 05/M02 A2992 RMK CI1 SLP157

CYQR;2009-04-08 20:00;CYQR 082000Z 15011KT 15SM FEW250 05/M01 A2991 RMK CI0 SLP153

CYQR;2009-04-08 21:00;CYQR 082100Z 14011KT 15SM FEW030 SCT250 06/M01 A2990 RMK CF1CI1 SLP151

CYQR;2009-04-08 22:00;CYQR 082200Z 13012KT 15SM FEW250 06/M03 A2989 RMK CI1 SLP148

CYQR;2009-04-08 23:00;CYQR 082300Z 13010KT 15SM FEW250 06/M02 A2989 RMK CI1 SLP147

CYQR;2009-04-09 00:00;CYQR 090000Z 14011KT 15SM FEW250 05/M02 A2989 RMK CI1 SLP147

CYQR;2009-04-09 01:00;CYQR 090100Z 15009KT 15SM BKN250 04/M02 A2989 RMK CI2 SLP147

CYQR;2009-04-09 01:53;CYQR 090153Z 14007KT 15SM SCT085 BKN250 02/ RMK AC1CI2

CYQR;2009-04-09 02:00;CYQR 090200Z 13006KT 15SM FEW085 BKN250 02/M03 A2989 RMK AC2CI2 SLP147

CYQR;2009-04-09 03:00;CYQR 090300Z 12006KT 15SM FEW082 FEW250 01/M03 A2990 RMK AC1CI1 SLP151

CYQR;2009-04-09 04:00;CYQR 090400Z 11005KT 15SM SCT250 00/M03 A2991 RMK CI2 SLP154

CYQR;2009-04-09 05:00;CYQR 090500Z 11007KT 15SM SCT250 M00/M04 A2991 RMK CI2 SLP155

CYQR;2009-04-09 06:00;CYQR 090600Z 11008KT 15SM SCT250 M00/M04 A2991 RMK CI2 SLP153

CYQR;2009-04-09 07:00;CYQR 090700Z 11008KT 15SM SCT250 M00/M05 A2991 RMK CI2 SLP154

CYQR;2009-04-09 08:00;CYQR 090800Z 11009KT 15SM BKN250 M00/M05 A2991 RMK CI2 SLP154

CYQR;2009-04-09 09:00;CYQR 090900Z 12009KT 15SM BKN250 M00/M05 A2991 RMK CI1 SLP154

CYQR;2009-04-09 10:00;CYQR 091000Z 12009KT 15SM BKN250 M01/M05 A2992 RMK CI1 SLP157

CYQR;2009-04-09 11:00;CYQR 091100Z 14007KT 15SM BKN250 M02/M05 A2994 RMK CI2 SLP162

CYQR;2009-04-09 12:00;CYQR 091200Z 14007KT 15SM SCT250 M02/M05 A2995 RMK CI2 OBS TKN -02 SLP170

CYQR;2009-04-09 13:00;CYQR 091300Z 12007KT 15SM FEW240 BKN290 M02/M05 A2996 RMK CI0CI1 CONTRAILS SLP173

CYQR;2009-04-09 14:00;CYQR 091400Z 14009KT 15SM BKN250 01/M04 A2997 RMK CI1 SLP175

CYQR;2009-04-09 15:00;CYQR 091500Z 14009KT 15SM BKN250 02/M03 A2999 RMK CI1 SLP181

CYQR;2009-04-09 16:00;CYQR 091600Z 15009KT 15SM BKN250 03/M03 A3000 RMK CI1 SLP186

CYQR;2009-04-09 17:00;CYQR 091700Z 14012KT 15SM OVC250 05/M01 A3001 RMK CI2 SLP189

CYQR;2009-04-09 18:00;CYQR 091800Z 16010G15KT 15SM BKN250 05/M01 A3002 RMK CI2 SLP191

CYQR;2009-04-09 19:00;CYQR 091900Z 15012KT 15SM FEW020 BKN250 06/M01 A3002 RMK CF1CI2 SLP192

CYQR;2009-04-09 20:00;CYQR 092000Z 14015G21KT 15SM FEW020 BKN250 06/M01 A3002 RMK CF1CI1 SLP191

CYQR;2009-04-09 21:00;CYQR 092100Z 14017KT 15SM BKN250 06/00 A3001 RMK CI1 SLP188

CYQR;2009-04-09 22:00;CYQR 092200Z 14015G20KT 15SM BKN250 06/00 A3001 RMK CI1 SLP188

CYQR;2009-04-09 23:00;CYQR 092300Z 14014G19KT 15SM BKN250 06/00 A3001 RMK CI2 SLP188

CYQR;2009-04-10 00:00;CYQR 100000Z 14015KT 15SM BKN250 05/00 A3001 RMK CI2 SLP188

CYQR;2009-04-10 01:00;CYQR 100100Z 13013KT 15SM BKN250 04/M01 A3001 RMK CI2 SLP189

CYQR;2009-04-10 02:00;CYQR 100200Z 13012KT 15SM FEW075 BKN250 02/M02 A3001 RMK AC1CI2 SLP190

CYQR;2009-04-10 03:00;CYQR 100300Z 14014KT 15SM BKN250 02/M03 A3003 RMK CI2 SLP194

CYQR;2009-04-10 03:53;CYQR 100353Z 14013G18KT 15SM FEW089 BKN250 02/ RMK AC2CI2

CYQR;2009-04-10 04:00;CYQR 100400Z 14014KT 15SM FEW089 BKN250 02/M03 A3003 RMK AC2CI2 SLP196

CYQR;2009-04-10 05:00;CYQR 100500Z 15013G18KT 15SM SCT250 01/M03 A3004 RMK CI1 SLP197

CYQR;2009-04-10 06:00;CYQR 100600Z 16011KT 15SM SCT250 01/M03 A3004 RMK CI2 SLP197

CYQR;2009-04-10 07:00;CYQR 100700Z 15011KT 15SM SCT250 00/M03 A3003 RMK CI1 SLP195

CYQR;2009-04-10 08:00;CYQR 100800Z 14011KT 15SM SCT250 M00/M03 A3003 RMK CI1 SLP193

CYQR;2009-04-10 09:00;CYQR 100900Z 14012KT 15SM FEW220 M01/M04 A3002 RMK CI1 SLP192

CYQR;2009-04-10 10:00;CYQR 101000Z 14013KT 15SM SCT049 BKN220 M01/M04 A3003 RMK SC2CI2 SLP193

CYQR;2009-04-10 11:00;CYQR 101100Z 14012KT 15SM SCT052 BKN250 M01/M04 A3003 RMK SC3CI1 SLP194

CYQR;2009-04-10 12:00;CYQR 101200Z 14014KT 15SM SCT050 BKN250 M01/M04 A3003 RMK SC3CI2 SLP194

CYQR;2009-04-10 13:00;CYQR 101300Z 14017KT 15SM BKN041 BKN068 M00/M03 A3002 RMK SC5AC2 SLP193

CYQR;2009-04-10 14:00;CYQR 101400Z 15016KT 15SM OVC039 00/M03 A3002 RMK SC8 SLP193

CYQR;2009-04-10 15:00;CYQR 101500Z 14015G20KT 15SM BKN037 OVC090 01/M02 A3002 RMK SC6AC2 SLP192

CYQR;2009-04-10 16:00;CYQR 101600Z 15018G25KT 15SM BKN039 OVC090 01/M02 A3003 RMK SC7AC1 SLP194

CYQR;2009-04-10 17:00;CYQR 101700Z 15022KT 15SM BKN034 OVC050 02/M01 A3003 RMK SC7SC1 SLP196

CYQR;2009-04-10 18:00;CYQR 101800Z 15022KT 15SM SCT048 OVC074 03/M01 A3004 RMK SC4AC4 SLP197

CYQR;2009-04-10 19:00;CYQR 101900Z 15022KT 15SM OVC050 03/M01 A3003 RMK SC8 SLP194

CYQR;2009-04-10 20:00;CYQR 102000Z 15024G30KT 15SM OVC042 03/M01 A3002 RMK SC8 SLP192

CYQR;2009-04-10 21:00;CYQR 102100Z 15023G30KT 15SM FEW015 BKN030 OVC090 04/M00 A3001 RMK SF2SC6AC1 SLP188

CYQR;2009-04-10 22:00;CYQR 102200Z 15023G30KT 15SM FEW015 OVC030 03/M01 A3000 RMK SF2SC6 SLP186

CYQR;2009-04-10 23:00;CYQR 102300Z 14021KT 15SM FEW015 BKN031 OVC076 02/M01 A2999 RMK SF1SC6AC2 SLP182

CYQR;2009-04-11 00:00;CYQR 110000Z 14017G24KT 15SM BKN037 OVC080 02/M02 A2998 RMK SC7AC1 SLP179

CYQR;2009-04-11 01:00;CYQR 110100Z 14019G25KT 15SM BKN045 OVC250 02/M02 A2997 RMK SC7CI1 SLP176

CYQR;2009-04-11 02:00;CYQR 110200Z 14022KT 15SM BKN049 BKN160 BKN260 01/M03 A2995 RMK SC6AC1CI0 SLP172

CYQR;2009-04-11 03:00;CYQR 110300Z 14022G28KT 15SM SCT052 SCT260 01/M03 A2995 RMK SC3CI0 SLP171

CYQR;2009-04-11 04:00;CYQR 110400Z 14021G26KT 15SM FEW052 01/M02 A2996 RMK SC1 SLP172

CYQR;2009-04-11 05:00;CYQR 110500Z 14018G25KT 15SM FEW260 01/M02 A2995 RMK CI1 SLP171

CYQR;2009-04-11 06:00;CYQR 110600Z 15017G24KT 15SM FEW260 01/M02 A2995 RMK CI0 SLP169

CYQR;2009-04-11 07:00;CYQR 110700Z 14021G26KT 15SM FEW250 00/M02 A2995 RMK CI0 SLP167

CYQR;2009-04-11 08:00;CYQR 110800Z 14018KT 15SM SCT250 M00/M02 A2994 RMK CI0 SLP164

CYQR;2009-04-11 09:00;CYQR 110900Z 14019G25KT 15SM BKN250 M00/M02 A2993 RMK CI0 SLP162

CYQR;2009-04-11 10:00;CYQR 111000Z 14016KT 15SM FEW130 SCT250 M00/M03 A2993 RMK AC1CI0 SLP161

CYQR;2009-04-11 11:00;CYQR 111100Z 14014G19KT 15SM SCT095 M00/M03 A2993 RMK AC2 AC INVDG FM W SLP161

CYQR;2009-04-11 12:00;CYQR 111200Z 14014KT 15SM FEW095 FEW210 BKN270 M01/M03 A2992 RMK AC1CI1CI0 SLP159

CYQR;2009-04-11 13:00;CYQR 111300Z 14015G20KT 15SM FEW095 BKN270 M01/M03 A2992 RMK AC1CI0 SLP158

CYQR;2009-04-11 14:00;CYQR 111400Z 14015G21KT 15SM FEW095 BKN270 01/M03 A2992 RMK AC1CI1 SLP160

CYQR;2009-04-11 15:00;CYQR 111500Z 15017KT 15SM BKN270 02/M02 A2992 RMK CI0 SLP159

CYQR;2009-04-11 16:00;CYQR 111600Z 16016G21KT 15SM BKN270 03/M01 A2992 RMK CI1 SLP158

CYQR;2009-04-11 17:00;CYQR 111700Z 14016KT 15SM BKN250 05/01 A2991 RMK CI2 SLP156

CYQR;2009-04-11 18:00;CYQR 111800Z 16017KT 15SM BKN250 05/01 A2991 RMK CI6 CONTRAILS SLP152

CYQR;2009-04-11 19:00;CYQR 111900Z 14014KT 15SM BKN250 07/03 A2990 RMK CI6 SLP148

CYQR;2009-04-11 20:00;CYQR 112000Z 12017KT 15SM SCT095 BKN250 07/04 A2988 RMK AC3CI3 SLP143

CYQR;2009-04-11 21:00;CYQR 112100Z 14017KT 15SM SCT095 BKN250 07/03 A2988 RMK AC3CI3 SLP140

CYQR;2009-04-11 22:00;CYQR 112200Z 14018KT 15SM FEW120 BKN250 08/04 A2987 RMK AC1CI1 SLP138

CYQR;2009-04-11 23:00;CYQR 112300Z 13018KT 15SM FEW120 SCT250 08/03 A2986 RMK AC1CI0 SLP135

CYQR;2009-04-12 00:00;CYQR 120000Z 14018KT 15SM FEW120 BKN250 BKN300 08/03 A2987 RMK ACC1CI2CC1 SLP139

CYQR;2009-04-12 01:00;CYQR 120100Z 13017KT 15SM FEW120 SCT250 07/03 A2985 RMK AC1CI1 SLP133

CYQR;2009-04-12 02:00;CYQR 120200Z 13011G16KT 15SM FEW120 FEW250 05/02 A2985 RMK AC1CI1 CC ASOCTD SLP133

CYQR;2009-04-12 03:00;CYQR 120300Z 13013KT 15SM FEW120 SCT270 05/01 A2985 RMK AC2CI0 SLP131

CYQR;2009-04-12 04:00;CYQR 120400Z 13010KT 15SM FEW120 FEW250 04/01 A2984 RMK AC1CI0 SLP130

CYQR;2009-04-12 05:00;CYQR 120500Z 13010KT 15SM FEW120 FEW270 03/00 A2984 RMK AC1CI0 SLP129

CYQR;2009-04-12 06:00;CYQR 120600Z 12007KT 15SM FEW120 FEW270 02/00 A2984 RMK AC1CI0 SLP127

CYQR;2009-04-12 07:00;CYQR 120700Z 13011KT 15SM FEW092 02/M00 A2983 RMK AC2 SLP124

CYQR;2009-04-12 08:00;CYQR 120800Z 12007KT 15SM FEW092 FEW260 01/M00 A2983 RMK AC1CI0 SLP123

CYQR;2009-04-12 09:00;CYQR 120900Z 12008KT 15SM FEW260 01/M01 A2981 RMK CI0 SLP116

CYQR;2009-04-12 10:00;CYQR 121000Z 12008KT 15SM SCT260 01/M01 A2981 RMK CI0 SLP116

CYQR;2009-04-12 11:00;CYQR 121100Z 11006KT 15SM FEW260 00/M01 A2981 RMK CI1 SLP118

CYQR;2009-04-12 12:00;CYQR 121200Z 12004KT 8SM FEW070 SCT110 SCT150 SCT260 M00/M01 A2981 RMK AC1AC2AC1CI0 BR SLP118

CYQR;2009-04-12 13:00;CYQR 121300Z 12003KT 15SM FEW070 SCT110 BKN260 01/M01 A2982 RMK AC1AC2CI2 SLP120

CYQR;2009-04-12 14:00;CYQR 121400Z CCA 12004KT 15SM FEW085 SCT110 BKN260 03/01 A2983 RMK AC1AC2CI1 ACC ASOCTD VIRGA SLP123

CYQR;2009-04-12 15:00;CYQR 121500Z 09007KT 15SM FEW085 BKN260 04/01 A2981 RMK ACC1CI5 SLP115

CYQR;2009-04-12 16:00;CYQR 121600Z 28004KT 15SM FEW085 BKN260 07/02 A2982 RMK ACC1CI5 SLP118

CYQR;2009-04-12 17:00;CYQR 121700Z 30005KT 15SM SCT085 BKN260 08/03 A2982 RMK AC4CI2 SLP119

CYQR;2009-04-12 18:00;CYQR 121800Z 28002KT 15SM FEW091 SCT140 BKN260 10/05 A2982 RMK AC2AC2CI2 SLP116

CYQR;2009-04-12 19:00;CYQR 121900Z 29011KT 15SM FEW020 SCT032 BKN091 BKN140 11/05 A2981 RMK SC1SC3AC2AC1 SLP113

CYQR;2009-04-12 19:45;CYQR 121945Z 28012KT 15SM -RA FEW018 BKN035 OVC097 10/ RMK SC2SC4AC2 CVCTV CLD EMBD

CYQR;2009-04-12 20:00;CYQR 122000Z 27014KT 15SM -RA FEW018 SCT037 OVC083 09/06 A2981 RMK SC2SC2AC4 CVCTV CLD EMBD SLP115

CYQR;2009-04-12 20:19;CYQR 122019Z 28011KT 15SM -RA FEW007 FEW018 SCT049 OVC083 08/ RMK CF1SC2SC2AC4 CVCTV CLD EMBD

CYQR;2009-04-12 21:00;CYQR 122100Z 28009KT 15SM -RA FEW014 SCT025 BKN043 BKN083 08/07 A2981 RMK SC1SC2SC4AC1 SLP117

CYQR;2009-04-12 21:20;CYQR 122120Z 28011KT 12SM -RA BKN006 BKN020 OVC075 07/ RMK SF6SC2AC1

CYQR;2009-04-12 21:36;CYQR 122136Z 28009KT 12SM -RA SCT006 BKN018 BKN041 BKN075 08/ RMK SF3SC2SC1AC1

CYQR;2009-04-12 22:00;CYQR 122200Z 29008KT 15SM -RA FEW006 BKN018 BKN041 BKN075 08/07 A2982 RMK SF2SC3SC2AC1 SLP119

CYQR;2009-04-12 22:23;CYQR 122223Z 28006KT 15SM FEW006 FEW018 BKN044 OVC075 08/ RMK SF1SC2SC5AC1

CYQR;2009-04-12 23:00;CYQR 122300Z 30004KT 15SM FEW006 FEW018 OVC046 08/07 A2981 RMK SF1SC2SC6 SLP118

CYQR;2009-04-13 00:00;CYQR 130000Z 30003KT 15SM FEW023 BKN039 OVC094 08/07 A2981 RMK CU2SC6AC1 SLP117

CYQR;2009-04-13 01:00;CYQR 130100Z 29004KT 15SM BKN014 OVC032 08/07 A2982 RMK CU5SC3 SLP120

CYQR;2009-04-13 02:00;CYQR 130200Z CCA 31007KT 15SM FEW014 BKN029 BKN048 07/06 A2983 RMK SC1SC6SC2 CU ASOCTD SLP123

CYQR;2009-04-13 03:00;CYQR 130300Z 31006KT 15SM FEW030 BKN054 06/05 A2984 RMK SC1SC6 SLP125

CYQR;2009-04-13 04:00;CYQR 130400Z 31006KT 15SM BKN054 05/05 A2984 RMK SC7 SLP126

CYQR;2009-04-13 05:00;CYQR 130500Z 30005KT 15SM BKN048 05/05 A2984 RMK SC7 SLP125

CYQR;2009-04-13 06:00;CYQR 130600Z 33003KT 15SM BKN054 04/03 A2983 RMK SC6 SLP118

CYQR;2009-04-13 06:54;CYQR 130654Z 30005KT 1/2SM R13/3000VP6000FT/D FG SCT056 02/ RMK FG3SC1 FG DVLPG OVR AERODROME

CYQR;2009-04-13 07:00;CYQR 130700Z 33005KT 1/2SM R13/2600VP6000FT/D FG SKC 02/01 A2984 RMK FG6 VIS E 4 SLP121

CYQR;2009-04-13 07:11;CYQR 130711Z 30004KT 1/4SM R13/1800FT/N FG SKC 02/ RMK FG5 VIS E 1

CYQR;2009-04-13 07:45;CYQR 130745Z 27003KT 1/8SM R13/1000FT/D FG SKC 01/ RMK FG6

CYQR;2009-04-13 08:00;CYQR 130800Z 26003KT 1/8SM R13/1400FT/N FG SKC 01/00 A2983 RMK FG7 SLP118

CYQR;2009-04-13 09:00;CYQR 130900Z 25004KT 1/8SM R13/1200V1800FT/N FZFG SKC M00/M01 A2981 RMK FG6 SLP118

CYQR;2009-04-13 10:00;CYQR 131000Z 28003KT 1/8SM R13/0800FT/N FG OVC004 01/M00 A2981 RMK FG7SF1 SLP118

CYQR;2009-04-13 11:00;CYQR 131100Z 00000KT 1/8SM R13/1200FT/N FZFG OVC004 M00/M01 A2981 RMK FG7SF1 SLP117

CYQR;2009-04-13 12:00;CYQR 131200Z 00000KT 1/8SM R13/0700FT/N FZFG OVC001 M00/M01 A2980 RMK FG6SF0 SLP113

CYQR;2009-04-13 12:35;CYQR 131235Z 11003KT 1/4SM R13/0900V1800FT/U FZFG BKN003 M00/ RMK FG2SF2

CYQR;2009-04-13 12:41;CYQR 131241Z 12003KT 5/8SM R13/1200V2200FT/U BR BKN004 BKN020 M00/ RMK FG1SF2SC1

CYQR;2009-04-13 12:53;CYQR 131253Z 12003KT 1SM R13/2600V4000FT/N BR BKN004 BKN020 00/ RMK FG1SF2SC1

CYQR;2009-04-13 13:00;CYQR 131300Z 13002KT 1SM R13/2600V4500FT/N BR BKN004 BKN020 00/M00 A2979 RMK FG1SF1SC1 SLP112

CYQR;2009-04-13 13:20;CYQR 131320Z 14003KT 2SM BR BKN250 RMK FG1CI1

CYQR;2009-04-13 13:50;CYQR 131350Z 13004KT 3SM BR BKN250 02/ RMK CI2 VSBY E 2

CYQR;2009-04-13 14:00;CYQR 131400Z 15004KT 3SM BR BKN250 03/02 A2978 RMK CI2 VSBY E 2 SLP107

CYQR;2009-04-13 14:24;CYQR 131424Z 16005KT 3/4SM R13/P6000FT/D BR SKC 03/ RMK FG7

CYQR;2009-04-13 14:34;CYQR 131434Z 16004KT 1/2SM R13/2600VP6000FT/U FG SKC 03/ RMK FG7

CYQR;2009-04-13 15:00;CYQR 131500Z 14005KT 1SM R13/3000V5000FT/N BR BKN250 03/03 A2977 RMK FG5CI2 SLP101

CYQR;2009-04-13 15:08;CYQR 131508Z 15005KT 1 1/2SM BR SCT001 BKN250 04/ RMK SF3CI1

CYQR;2009-04-13 15:21;CYQR 131521Z 13005KT 8SM FEW001 BKN250 04/ RMK SF1CI2

CYQR;2009-04-13 16:00;CYQR 131600Z 14005KT 12SM FEW002 BKN250 05/05 A2975 RMK SF1CI4 SLP096

CYQR;2009-04-13 17:00;CYQR 131700Z 16006KT 15SM FEW097 SCT200 BKN250 OVC300 10/08 A2974 RMK AC1CI2CI2CI1 SLP093

CYQR;2009-04-13 18:00;CYQR 131800Z 16008KT 15SM FEW099 BKN250 13/06 A2972 RMK AC2CI3 SLP078

CYQR;2009-04-13 19:00;CYQR 131900Z 16009G17KT 15SM FEW097 BKN250 14/06 A2969 RMK AC1CI4 SLP071

CYQR;2009-04-13 20:00;CYQR 132000Z 18013KT 15SM FEW058 FEW100 SCT200 BKN260 BKN320 15/06 A2969 RMK CU1AC1CI2CI1CI1 SLP069

CYQR;2009-04-13 21:00;CYQR 132100Z 14012KT 15SM FEW058 FEW100 SCT260 16/08 A2966 RMK CU1AC1CI2 SLP061

CYQR;2009-04-13 22:00;CYQR 132200Z 14015KT 15SM FEW058 FEW100 SCT260 16/08 A2965 RMK CU1AC1CI2 SLP057

CYQR;2009-04-13 23:00;CYQR 132300Z 14017KT 15SM FEW076 FEW150 SCT200 BKN250 BKN320 15/08 A2964 RMK AC1AC1CI1CI1CI1 TR AC CU ASOCTD SLP054

CYQR;2009-04-14 00:00;CYQR 140000Z 13018KT 15SM FEW030 SCT085 SCT250 15/08 A2964 RMK CU1AC2CI2 SLP056

CYQR;2009-04-14 01:00;CYQR 140100Z 13013G19KT 15SM FEW030CB FEW085 SCT250 13/06 A2964 RMK CB1ACC1CI2 CB NW SLP055

CYQR;2009-04-14 02:00;CYQR 140200Z 13012KT 15SM FEW010 FEW030 FEW085 10/06 A2964 RMK SF1CU1ACC1 SLP055

CYQR;2009-04-14 03:00;CYQR 140300Z 14010KT 15SM FEW030 FEW090 09/05 A2965 RMK CU1AC0 SLP060

CYQR;2009-04-14 04:00;CYQR 140400Z 33011KT 15SM OVC087 10/05 A2968 RMK AC8 SLP069

CYQR;2009-04-14 05:00;CYQR 140500Z 34010KT 15SM OVC048 09/05 A2970 RMK SC8 SLP074

CYQR;2009-04-14 06:00;CYQR 140600Z 36007KT 15SM OVC045 10/05 A2972 RMK SC8 SLP075

CYQR;2009-04-14 06:04;CYQR 140604Z 30009G20KT 12SM -SHRA OVC033 09/ RMK SC8 PRESRR

CYQR;2009-04-14 07:00;CYQR 140700Z 27002KT 12SM -SHRA OVC033 07/06 A2975 RMK SC8 SLP086

CYQR;2009-04-14 08:00;CYQR 140800Z 14003KT 15SM BKN033 06/05 A2974 RMK SC5 SLP080

CYQR;2009-04-14 09:00;CYQR 140900Z 25008KT 15SM FEW140 03/02 A2975 RMK AC1 SLP089

CYQR;2009-04-14 10:00;CYQR 141000Z 27007KT 15SM FEW140 02/M01 A2976 RMK AC0 SLP093

CYQR;2009-04-14 11:00;CYQR 141100Z 25008KT 15SM FEW140 01/M03 A2977 RMK AC0 SLP096

CYQR;2009-04-14 12:00;CYQR 141200Z 26009KT 15SM FEW020 FEW140 FEW270 00/M03 A2977 RMK CU1AC1CI0 SLP099

CYQR;2009-04-14 13:00;CYQR 141300Z 26007KT 15SM FEW060 FEW270 01/M03 A2979 RMK SC1CI1 SLP104

CYQR;2009-04-14 14:00;CYQR 141400Z 25008KT 15SM FEW060 FEW270 02/M02 A2981 RMK SC1CI1 SLP112

CYQR;2009-04-14 15:00;CYQR 141500Z 27009KT 15SM FEW060 FEW270 05/M01 A2982 RMK SC1CI1 SLP117

CYQR;2009-04-14 16:00;CYQR 141600Z 28007KT 15SM BKN270 08/M01 A2983 RMK CI1 SLP119

CYQR;2009-04-14 17:00;CYQR 141700Z 26006KT 15SM FEW060 SCT270 09/M01 A2983 RMK SC1CI1 SLP119

CYQR;2009-04-14 18:00;CYQR 141800Z 23008KT 15SM FEW060 FEW270 11/M01 A2983 RMK SC1CI1 SLP114

CYQR;2009-04-14 19:00;CYQR 141900Z 23008KT 15SM FEW200 SCT270 13/M02 A2982 RMK CI1CI0 SLP112

CYQR;2009-04-14 20:00;CYQR 142000Z 25012G17KT 15SM FEW200 FEW270 14/M04 A2983 RMK CI1CI1 SLP114

CYQR;2009-04-14 21:00;CYQR 142100Z 26012G17KT 15SM FEW200 FEW270 15/M04 A2982 RMK CI1CI1 SLP114

CYQR;2009-04-14 22:00;CYQR 142200Z 25008G15KT 15SM FEW140 FEW200 SCT270 15/M06 A2982 RMK AC1CI1CI0 TR AC SLP114

CYQR;2009-04-14 23:00;CYQR 142300Z 27008KT 15SM FEW140 FEW200 BKN270 16/M06 A2982 RMK AC1CI1CI1 SLP113

CYQR;2009-04-15 00:00;CYQR 150000Z 27008KT 15SM FEW140 BKN270 14/M03 A2984 RMK AC1CI4 SLP121

CYQR;2009-04-15 01:00;CYQR 150100Z 31010KT 15SM FEW140 OVC270 11/M03 A2985 RMK ACC2CI5 VIRGA SLP126

CYQR;2009-04-15 02:00;CYQR 150200Z 33006KT 15SM FEW088 BKN140 OVC270 09/M00 A2986 RMK AC1AC5CI3 VIRGA SLP129

CYQR;2009-04-15 03:00;CYQR 150300Z 34006KT 15SM OVC140 08/M01 A2987 RMK AC8 SLP134

CYQR;2009-04-15 04:00;CYQR 150400Z 03003KT 15SM BKN072 OVC140 09/M01 A2989 RMK AC5AC3 SLP139

CYQR;2009-04-15 05:00;CYQR 150500Z 35016KT 15SM OVC066 10/M03 A2989 RMK AC8 SLP141

CYQR;2009-04-15 06:00;CYQR 150600Z 36017KT 15SM BKN058 OVC095 08/M01 A2987 RMK SC6AC2 SLP130

CYQR;2009-04-15 06:39;CYQR 150639Z 35012G18KT 15SM -RA OVC038 06/ RMK SC8

CYQR;2009-04-15 07:00;CYQR 150700Z 36015KT 12SM -RA OVC031 06/02 A2988 RMK SC8 SLP134

CYQR;2009-04-15 08:00;CYQR 150800Z 36008KT 12SM -RA BKN031 OVC060 05/03 A2992 RMK SC6SC2 SLP145

CYQR;2009-04-15 09:00;CYQR 150900Z 01014KT 10SM -RA BKN027 OVC050 04/03 A2991 RMK SC6SC2 SLP143

CYQR;2009-04-15 10:00;CYQR 151000Z 01012KT 10SM -RA OVC021 04/03 A2992 RMK SC8 SLP146

CYQR;2009-04-15 10:23;CYQR 151023Z 36016KT 10SM -RA FEW006 OVC021 04/ RMK SF2SC6

CYQR;2009-04-15 10:30;CYQR 151030Z 36016KT 10SM -RA BKN005 OVC020 04/ RMK SF5SC3

CYQR;2009-04-15 11:00;CYQR 151100Z 01017KT 10SM -RA SCT006 OVC033 04/02 A2990 RMK SF4SC4 SLP140

CYQR;2009-04-15 12:00;CYQR 151200Z 02017KT 8SM -RA FEW006 BKN038 OVC090 04/02 A2987 RMK SF2SC4AC2 SLP132

CYQR;2009-04-15 13:00;CYQR 151300Z 02016G21KT 15SM -SHRA FEW007 SCT037 OVC087 04/02 A2987 RMK SF1SC3AC4 SLP131

CYQR;2009-04-15 14:00;CYQR 151400Z 03015KT 15SM -SHRA FEW007 BKN035 OVC052 04/02 A2988 RMK SF2SC5SC2 SLP134

CYQR;2009-04-15 14:31;CYQR 151431Z 02013KT 15SM FEW007 SCT014 OVC035 04/ RMK SF2SC2SC4

CYQR;2009-04-15 15:00;CYQR 151500Z 03011KT 15SM FEW007 BKN012 OVC035 04/02 A2990 RMK SF1SC6SC2 SLP146

CYQR;2009-04-15 15:08;CYQR 151508Z 02012KT 15SM -SHRA BKN010 OVC033 04/ RMK SC7SC1

CYQR;2009-04-15 15:32;CYQR 151532Z 02012KT 15SM -SHRA OVC009 04/ RMK SC8

CYQR;2009-04-15 16:00;CYQR 151600Z 02013KT 15SM -SHRA OVC011 04/03 A2989 RMK SC8 SLP140

CYQR;2009-04-15 16:24;CYQR 151624Z 01012KT 15SM -SHRA BKN009 OVC025 05/ RMK SC6SC2

CYQR;2009-04-15 17:00;CYQR 151700Z CCA 01011KT 10SM -SHRA BKN008 OVC025 05/03 A2990 RMK SC7SC1 SLP145

CYQR;2009-04-15 18:00;CYQR 151800Z 02015KT 12SM -SHRA OVC008 05/04 A2989 RMK SC8 SLP142

CYQR;2009-04-15 19:00;CYQR 151900Z 02015KT 12SM -SHRA OVC008 05/03 A2989 RMK SC8 SLP142

CYQR;2009-04-15 20:00;CYQR 152000Z 01012G17KT 15SM -SHRA BKN007 OVC030 05/04 A2991 RMK SC6SC2 SLP148

CYQR;2009-04-15 21:00;CYQR 152100Z 36014KT 15SM -SHRA OVC006 05/04 A2991 RMK SC8 SLP151

CYQR;2009-04-15 21:28;CYQR 152128Z 01016KT 15SM OVC006 05/ RMK SC8

CYQR;2009-04-15 22:00;CYQR 152200Z 01014G20KT 15SM OVC006 05/04 A2992 RMK SC8 SLP153

CYQR;2009-04-15 23:00;CYQR 152300Z 01016G21KT 15SM OVC007 05/03 A2993 RMK SC8 SLP156

CYQR;2009-04-15 23:29;CYQR 152329Z 36012G17KT 15SM -SHRA OVC006 04/ RMK SC8

CYQR;2009-04-16 00:00;CYQR 160000Z 36016KT 12SM -SHRA OVC005 03/02 A2994 RMK SC8 SLP163

CYQR;2009-04-16 01:00;CYQR 160100Z 01016KT 10SM -SHRA OVC005 03/02 A2994 RMK SC8 SLP164

CYQR;2009-04-16 01:37;CYQR 160137Z 01013KT 6SM -SHRA BR OVC006 03/ RMK SC8

CYQR;2009-04-16 02:00;CYQR 160200Z 01014KT 6SM -SHRA BR OVC006 03/02 A2996 RMK SC8 SLP168

CYQR;2009-04-16 02:39;CYQR 160239Z 01011G16KT 5SM -SHRA BR OVC005 02/ RMK SC8

CYQR;2009-04-16 03:00;CYQR 160300Z 01010KT 5SM -SHRA BR OVC005 02/02 A2998 RMK SC8 SLP175

CYQR;2009-04-16 04:00;CYQR 160400Z 35010KT 5SM -SHRA BR OVC005 02/01 A2999 RMK SC8 SLP178

CYQR;2009-04-16 04:08;CYQR 160408Z 35011KT 5SM -SHRA BR OVC004 RMK SC8

CYQR;2009-04-16 05:00;CYQR 160500Z 36011KT 10SM -SHRA OVC005 02/01 A2999 RMK SC8 SLP178

CYQR;2009-04-16 06:00;CYQR 160600Z 36012KT 10SM -SHRA OVC004 02/01 A2999 RMK SC8 SLP178

CYQR;2009-04-16 06:10;CYQR 160610Z 36011KT 10SM -SHRA OVC003 02/ RMK SC8

CYQR;2009-04-16 07:00;CYQR 160700Z 36011G16KT 10SM -SHRA OVC003 02/01 A2999 RMK SC8 SLP181

CYQR;2009-04-16 08:00;CYQR 160800Z 36009KT 8SM -SHRA OVC004 02/01 A3000 RMK SC8 SLP183

CYQR;2009-04-16 09:00;CYQR 160900Z 35011KT 10SM -SHRA OVC004 02/01 A3001 RMK SC8 SLP186

CYQR;2009-04-16 10:00;CYQR 161000Z 35010KT 10SM -SHRA OVC004 02/01 A3001 RMK SC8 SLP187

CYQR;2009-04-16 11:00;CYQR 161100Z 35012KT 12SM -SHRA OVC004 02/01 A3002 RMK SC8 SLP188

CYQR;2009-04-16 12:00;CYQR 161200Z 36012KT 12SM -SHRA OVC004 01/00 A3002 RMK SC8 SLP192

CYQR;2009-04-16 12:49;CYQR 161249Z 36009KT 12SM -SHRA OVC005 02/ RMK SC8

CYQR;2009-04-16 13:00;CYQR 161300Z 36010KT 12SM -SHRA OVC005 02/00 A3005 RMK SC8 SLP200

CYQR;2009-04-16 14:00;CYQR 161400Z 36012KT 12SM -SHRA OVC006 02/01 A3005 RMK SC8 SLP200

CYQR;2009-04-16 15:00;CYQR 161500Z 01014KT 15SM -SHRA OVC006 02/01 A3007 RMK SC8 SLP208

CYQR;2009-04-16 15:54;CYQR 161554Z 03013KT 15SM -SHRA OVC004 02/ RMK SC8

CYQR;2009-04-16 16:00;CYQR 161600Z 02012KT 15SM -SHRA OVC004 02/01 A3007 RMK SC8 SLP209

CYQR;2009-04-16 16:24;CYQR 161624Z 01015KT 5SM -SHRA BR OVC006 02/ RMK SC8

CYQR;2009-04-16 17:00;CYQR 161700Z 01012KT 5SM -SHRA BR OVC006 02/01 A3009 RMK SC8 SLP216

CYQR;2009-04-16 18:00;CYQR 161800Z 35014KT 6SM -SHRA BR OVC007 02/01 A3009 RMK SC8 SLP216

CYQR;2009-04-16 19:00;CYQR 161900Z 36014KT 4SM -SHRA BR OVC008 02/01 A3011 RMK SC8 SLP221

CYQR;2009-04-16 20:00;CYQR 162000Z 01013G19KT 5SM -SHRA BR BKN008 OVC034 03/02 A3011 RMK SC7SC1 SLP223

CYQR;2009-04-16 21:00;CYQR 162100Z 35014KT 6SM -SHRA BR OVC008 03/01 A3014 RMK SC8 SLP231

CYQR;2009-04-16 22:00;CYQR 162200Z 35011KT 8SM -SHRAPL OVC007 02/01 A3016 RMK SC8 CIG RAG SLP238

CYQR;2009-04-16 22:24;CYQR 162224Z 33015KT 8SM -SHRA OVC004 02/ RMK SC8

CYQR;2009-04-16 23:00;CYQR 162300Z 35017KT 4SM -SHRA BR OVC004 01/00 A3016 RMK SF8 SLP240

CYQR;2009-04-16 23:16;CYQR 162316Z 01016KT 6SM -SHRA BR BKN005 BKN034 OVC053 02/ RMK SF5SC2SC2

CYQR;2009-04-17 00:00;CYQR 170000Z CCA 36014G20KT 6SM -SHRA BR OVC006 02/00 A3018 RMK SF8 CIG RAG SLP247

CYQR;2009-04-17 01:00;CYQR 170100Z 36011KT 6SM -SHRA BR OVC008 02/00 A3019 RMK SC8 SLP249

CYQR;2009-04-17 02:00;CYQR 170200Z 36010KT 6SM -SHRA BR OVC008 01/M00 A3021 RMK SC8 SLP256

CYQR;2009-04-17 03:00;CYQR 170300Z 34008KT 10SM -SHRA OVC006 01/M00 A3025 RMK SF8 SLP272

CYQR;2009-04-17 03:30;CYQR 170330Z 34008KT 4SM -SHRA BR OVC005 01/ RMK SF8

CYQR;2009-04-17 03:52;CYQR 170352Z 34008KT 3SM -DZ BR OVC004 01/ RMK SF8

CYQR;2009-04-17 04:00;CYQR 170400Z 34007KT 2 1/2SM -DZ BR OVC003 01/M00 A3028 RMK SF8 SLP280

CYQR;2009-04-17 05:00;CYQR 170500Z 33009KT 3SM -DZ BR OVC004 00/M00 A3029 RMK SF8 SLP284

CYQR;2009-04-17 06:00;CYQR 170600Z 34013KT 6SM -DZ BR OVC003 00/M00 A3028 RMK SF8 SLP284

CYQR;2009-04-17 07:00;CYQR 170700Z 01010KT 6SM -DZ BR OVC003 00/M01 A3028 RMK SF8 SLP282

CYQR;2009-04-17 08:00;CYQR 170800Z 34008KT 10SM OVC005 00/M01 A3029 RMK SF8 SLP287

CYQR;2009-04-17 09:00;CYQR 170900Z 33006KT 10SM OVC005 00/M01 A3031 RMK SF8 SLP292

CYQR;2009-04-17 10:00;CYQR 171000Z 33007KT 10SM OVC004 00/M01 A3032 RMK SF8 SLP296

CYQR;2009-04-17 11:00;CYQR 171100Z 34006KT 10SM OVC005 00/M01 A3032 RMK SF8 SLP294

CYQR;2009-04-17 12:00;CYQR 171200Z 35008KT 10SM OVC007 00/M01 A3033 RMK SF8 SLP298

CYQR;2009-04-17 13:00;CYQR 171300Z 36007KT 15SM OVC007 01/M01 A3034 RMK SF8 SLP304

CYQR;2009-04-17 14:00;CYQR 171400Z 35006KT 15SM OVC007 01/M01 A3035 RMK SF8 SLP307

CYQR;2009-04-17 15:00;CYQR 171500Z 33008KT 15SM OVC008 01/M01 A3036 RMK SF8 SLP310

CYQR;2009-04-17 16:00;CYQR 171600Z 34007KT 15SM OVC009 02/M01 A3037 RMK SF8 SLP314

CYQR;2009-04-17 17:00;CYQR 171700Z 36008KT 15SM OVC010 03/00 A3037 RMK SF8 SLP313

CYQR;2009-04-17 18:00;CYQR 171800Z 01007KT 15SM OVC012 04/00 A3037 RMK SC8 SLP313

CYQR;2009-04-17 19:00;CYQR 171900Z 36008KT 15SM OVC012 05/01 A3036 RMK SC8 SLP310

CYQR;2009-04-17 20:00;CYQR 172000Z 36007KT 15SM OVC017 05/01 A3035 RMK SC8 SLP307

CYQR;2009-04-17 21:00;CYQR 172100Z 06002KT 15SM OVC019 06/01 A3034 RMK SC8 SLP301

CYQR;2009-04-17 22:00;CYQR 172200Z 04007KT 15SM OVC024 06/00 A3032 RMK SC8 SLP295

CYQR;2009-04-17 23:00;CYQR 172300Z 06003KT 15SM OVC026 07/00 A3031 RMK SC8 SLP290

CYQR;2009-04-18 00:00;CYQR 180000Z 11005KT 15SM OVC026 06/00 A3030 RMK SC8 SLP287

CYQR;2009-04-18 01:00;CYQR 180100Z 11003KT 15SM OVC028 06/00 A3029 RMK SC8 SLP284

CYQR;2009-04-18 02:00;CYQR 180200Z 14005KT 15SM OVC030 06/00 A3028 RMK SC8 SLP280

CYQR;2009-04-18 03:00;CYQR 180300Z 12010KT 15SM OVC028 05/00 A3029 RMK SC8 SLP282

CYQR;2009-04-18 04:00;CYQR 180400Z 13006KT 15SM OVC028 04/M00 A3029 RMK SC8 SLP284

CYQR;2009-04-18 05:00;CYQR 180500Z 14007KT 15SM BKN026 04/M00 A3029 RMK SC7 SLP283

CYQR;2009-04-18 06:00;CYQR 180600Z 13006KT 15SM BKN026 03/M00 A3028 RMK SC7 SLP279

CYQR;2009-04-18 07:00;CYQR 180700Z 14007KT 15SM BKN024 03/00 A3027 RMK SC7 SLP275

CYQR;2009-04-18 08:00;CYQR 180800Z 12009KT 15SM OVC026 02/M01 A3024 RMK SC8 SLP267

CYQR;2009-04-18 09:00;CYQR 180900Z 13011KT 15SM BKN024 02/M01 A3023 RMK SC7 SLP262

CYQR;2009-04-18 10:00;CYQR 181000Z 12008KT 15SM BKN022 02/M01 A3022 RMK SC7 SLP258

CYQR;2009-04-18 11:00;CYQR 181100Z 13009KT 15SM OVC022 02/M01 A3021 RMK SC8 SLP254

CYQR;2009-04-18 12:00;CYQR 181200Z 14009KT 15SM BKN022 02/M01 A3020 RMK SC6 SLP252

CYQR;2009-04-18 13:00;CYQR 181300Z 14011KT 15SM BKN024 02/M00 A3020 RMK SC6 SLP251

CYQR;2009-04-18 14:00;CYQR 181400Z 15011KT 15SM BKN022 04/01 A3020 RMK SC6 SLP250

CYQR;2009-04-18 15:00;CYQR 181500Z 16015G21KT 15SM BKN018 05/00 A3019 RMK SC7 SLP248

CYQR;2009-04-18 16:00;CYQR 181600Z 17019KT 15SM SCT020 BKN300 05/00 A3018 RMK SC4CI0 SLP244

CYQR;2009-04-18 17:00;CYQR 181700Z 14018G25KT 15SM BKN022 BKN300 07/01 A3017 RMK SC5CI1 SLP240

CYQR;2009-04-18 18:00;CYQR 181800Z 16017G22KT 15SM BKN019 OVC300 06/01 A3017 RMK SC7CI1 SLP240

CYQR;2009-04-18 19:00;CYQR 181900Z 16016G21KT 15SM BKN021 BKN300 08/03 A3014 RMK SC6CI1 SLP232

CYQR;2009-04-18 19:53;CYQR 181953Z 16015G21KT 15SM -SHRA OVC023 08/ RMK SC8

CYQR;2009-04-18 20:00;CYQR 182000Z 16015G20KT 15SM -SHRA OVC023 08/03 A3013 RMK SC8 SLP228

CYQR;2009-04-18 21:00;CYQR 182100Z 16016KT 15SM BKN023 BKN300 09/04 A3012 RMK SC6CI1 CU ASOCTD SLP221

CYQR;2009-04-18 22:00;CYQR 182200Z 14021KT 15SM SCT020 BKN300 10/05 A3007 RMK SC4CI1 CU ASOCTD SLP204

CYQR;2009-04-18 22:40;CYQR 182240Z 16017G24KT 15SM TS VCSH SCT019 BKN070CB BKN300 09/ RMK SC3CB2CI1 LTGCG W

CYQR;2009-04-18 22:51;CYQR 182251Z 16013G19KT 15SM -TSRA SCT019 BKN060CB BKN300 09/ RMK SC4CB2CI1

CYQR;2009-04-18 23:00;CYQR 182300Z 17009G18KT 15SM -TSRA BKN019 BKN060CB OVC300 08/05 A3009 RMK SC5CB2CI0 SLP211

CYQR;2009-04-18 23:13;CYQR 182313Z 16011KT 15SM -SHRA BKN021 BKN060CB OVC300 08/ RETS RMK SC5CB2CI1

CYQR;2009-04-19 00:00;CYQR 190000Z 14011KT 15SM -SHRA BKN014 BKN069 BKN300 08/06 A3006 RETS RMK SC5AC1CI1 CB EMBD SLP200

CYQR;2009-04-19 00:29;CYQR 190029Z 13009KT 15SM FEW039 SCT061 SCT120 08/ RMK SC2SC2AC1 CB ASOCTD E

CYQR;2009-04-19 01:00;CYQR 190100Z 26004KT 15SM SCT037 SCT061 BKN120 09/05 A3006 RMK SC3SC1AC1 CB ASOCTD E SLP201

CYQR;2009-04-19 02:00;CYQR 190200Z 27012KT 15SM BKN042 BKN072 BKN300 08/04 A3006 RMK SC5AC1CI1 SLP202

CYQR;2009-04-19 03:00;CYQR 190300Z 28005KT 15SM BKN038 06/03 A3008 RMK SC5 SLP207

CYQR;2009-04-19 04:00;CYQR 190400Z 21008KT 15SM OVC037 06/03 A3006 RMK SC8 SLP201

CYQR;2009-04-19 05:00;CYQR 190500Z 30015G29KT 15SM OVC035 06/03 A3005 RMK SC8 SLP199

CYQR;2009-04-19 06:00;CYQR 190600Z 28017KT 15SM OVC026 05/02 A3003 RMK SC8 SLP191

CYQR;2009-04-19 07:00;CYQR 190700Z 29019G27KT 15SM OVC024 05/01 A3002 RMK SC8 SLP188

CYQR;2009-04-19 07:48;CYQR 190748Z 29021G28KT 10SM -SHRA OVC016 04/ RMK SC8

CYQR;2009-04-19 08:00;CYQR 190800Z 29021G28KT 10SM -SHRA OVC016 04/02 A3001 RMK SC8 SLP185

CYQR;2009-04-19 09:00;CYQR 190900Z 30017G25KT 10SM -SHRA OVC012 03/02 A3002 RMK SC8 SLP186

CYQR;2009-04-19 10:00;CYQR 191000Z 30021G29KT 8SM -SHRA OVC012 03/01 A3004 RMK SC8 SLP192

CYQR;2009-04-19 10:32;CYQR 191032Z 31022G27KT 8SM OVC008 03/ RMK SC8

CYQR;2009-04-19 11:00;CYQR 191100Z 31018G26KT 8SM OVC008 03/01 A3005 RMK SC8 SLP196

CYQR;2009-04-19 12:00;CYQR 191200Z 31021G28KT 10SM OVC007 02/01 A3008 RMK SC8 SLP207

CYQR;2009-04-19 13:00;CYQR 191300Z 31017G22KT 15SM OVC006 02/01 A3011 RMK SC8 SLP216

CYQR;2009-04-19 13:23;CYQR 191323Z 31020G25KT 15SM OVC003 02/ RMK SC8

CYQR;2009-04-19 13:46;CYQR 191346Z 31021KT 15SM OVC005 02/ RMK SC8

CYQR;2009-04-19 14:00;CYQR 191400Z 32015G25KT 15SM OVC005 02/00 A3012 RMK SC8 SLP221

CYQR;2009-04-19 14:27;CYQR 191427Z 33014G24KT 15SM OVC007 02/ RMK SC8

CYQR;2009-04-19 15:00;CYQR 191500Z 31016KT 15SM OVC007 03/01 A3014 RMK SC8 SLP229

CYQR;2009-04-19 16:00;CYQR 191600Z 32013KT 15SM OVC009 04/01 A3014 RMK SC8 SLP229

CYQR;2009-04-19 16:24;CYQR 191624Z 32017KT 15SM BKN010 05/ RMK SC7

CYQR;2009-04-19 17:00;CYQR 191700Z 32013G18KT 15SM BKN012 06/02 A3014 RMK SC7 SLP231

CYQR;2009-04-19 18:00;CYQR 191800Z 33015G20KT 15SM BKN018 08/03 A3014 RMK SC5 CU ASOCTD SLP226

CYQR;2009-04-19 19:00;CYQR 191900Z 34015G22KT 15SM FEW030 11/02 A3012 RMK CF2 SLP219

CYQR;2009-04-19 20:00;CYQR 192000Z 34021G28KT 15SM FEW052 12/M03 A3011 RMK CU2 SLP217

CYQR;2009-04-19 21:00;CYQR 192100Z 34024G29KT 15SM FEW065 13/M05 A3010 RMK CU2 SLP212

CYQR;2009-04-19 22:00;CYQR 192200Z 35024G29KT 15SM FEW074 13/M06 A3010 RMK CU2 SLP210

CYQR;2009-04-19 23:00;CYQR 192300Z 33023KT 15SM FEW075 13/M06 A3010 RMK CU1 SLP211

CYQR;2009-04-20 00:00;CYQR 200000Z 33017G22KT 15SM FEW074 FEW300 12/M07 A3011 RMK CU1CI1 SLP214

CYQR;2009-04-20 01:00;CYQR 200100Z 34016KT 15SM FEW072 FEW300 11/M07 A3011 RMK CU1CI1 SLP216

CYQR;2009-04-20 02:00;CYQR 200200Z 34007KT 15SM FEW072 FEW300 06/M04 A3011 RMK AC1CI1 SLP216

CYQR;2009-04-20 03:00;CYQR 200300Z 32005KT 15SM SKC 05/M04 A3012 RMK SLP224

CYQR;2009-04-20 04:00;CYQR 200400Z 34003KT 15SM SKC 03/M03 A3013 RMK SLP225

CYQR;2009-04-20 05:00;CYQR 200500Z 05002KT 15SM SKC 02/M04 A3011 RMK SLP221

CYQR;2009-04-20 06:00;CYQR 200600Z 00000KT 15SM SKC 01/M03 A3012 RMK SLP221

CYQR;2009-04-20 07:00;CYQR 200700Z 11005KT 15SM SKC M01/M04 A3011 RMK SLP220

CYQR;2009-04-20 08:00;CYQR 200800Z 21005KT 15SM SKC M02/M05 A3013 RMK SLP224

CYQR;2009-04-20 09:00;CYQR 200900Z 00000KT 15SM SKC M03/M06 A3010 RMK SLP216

CYQR;2009-04-20 10:00;CYQR 201000Z CCA 20002KT 15SM FEW079 M02/M05 A3010 RMK AC2 SLP215

CYQR;2009-04-20 11:00;CYQR 201100Z 19005KT 15SM SCT079 M01/M05 A3011 RMK AC3 SLP217

CYQR;2009-04-20 12:00;CYQR 201200Z 13003KT 15SM FEW079 SCT210 M02/M05 A3010 RMK AC2CC1 SLP216

CYQR;2009-04-20 13:00;CYQR 201300Z 12004KT 15SM FEW080 BKN240 00/M03 A3010 RMK AC1CI0 SLP214

CYQR;2009-04-20 14:00;CYQR 201400Z 12002KT 15SM FEW100 SCT240 03/M02 A3009 RMK AC1CI0 SLP213

CYQR;2009-04-20 15:00;CYQR 201500Z 19002KT 15SM FEW095 SCT250 07/M02 A3009 RMK AC1CI0 SLP208

CYQR;2009-04-20 16:00;CYQR 201600Z 24004KT 15SM FEW110 FEW300 12/M04 A3008 RMK AC1CI0 ACC ASOCTD SLP207

CYQR;2009-04-20 17:00;CYQR 201700Z 00000KT 15SM FEW110 SCT300 13/M09 A3007 RMK AC1CI0 ACC ASOCTD SLP203

CYQR;2009-04-20 18:00;CYQR 201800Z 19002KT 15SM FEW100 SCT240 BKN300 14/M09 A3006 RMK AC1CI2CI2 ACC ASOCTD SLP197

CYQR;2009-04-20 19:00;CYQR 201900Z 16005KT 15SM FEW098 BKN300 15/M08 A3003 RMK ACC1CI6 SLP189

CYQR;2009-04-20 20:00;CYQR 202000Z 18007KT 15SM BKN095 OVC300 15/M07 A3000 RMK ACC6CI2 SLP179

CYQR;2009-04-20 21:00;CYQR 202100Z 15003KT 15SM BKN095 OVC300 15/M07 A2999 RMK ACC7CI1 SLP176

CYQR;2009-04-20 22:00;CYQR 202200Z 15009KT 15SM BKN090 OVC300 16/M05 A2996 RMK AC6CI1 SLP167

CYQR;2009-04-20 23:00;CYQR 202300Z 14007KT 15SM BKN090 OVC300 15/M04 A2995 RMK AC7CI1 SLP162

CYQR;2009-04-21 00:00;CYQR 210000Z 11011KT 15SM SCT068 BKN083 OVC300 15/M03 A2994 RMK ACC3AC3CI2 VIRGA SLP160

CYQR;2009-04-21 01:00;CYQR 210100Z 12011KT 15SM SCT070 BKN095 OVC300 14/M03 A2993 RMK ACC3AC3CI2 VIRGA SLP156

CYQR;2009-04-21 02:00;CYQR 210200Z 13011KT 15SM SCT074 BKN090 OVC300 13/M02 A2994 RMK AC3AC2CI2 SLP158

CYQR;2009-04-21 03:00;CYQR 210300Z 14008KT 15SM OVC092 11/M02 A2995 RMK AC8 SLP158

CYQR;2009-04-21 04:00;CYQR 210400Z 15004KT 15SM OVC092 10/M01 A2995 RMK AC8 SLP157

CYQR;2009-04-21 05:00;CYQR 210500Z 26003KT 15SM BKN081 05/M00 A2995 RMK AC6 SLP158

CYQR;2009-04-21 06:00;CYQR 210600Z 35005KT 15SM SCT079 06/M01 A2996 RMK AC3 SLP160

CYQR;2009-04-21 07:00;CYQR 210700Z 03002KT 15SM SCT071 04/M01 A2997 RMK AC3 SLP163

CYQR;2009-04-21 08:00;CYQR 210800Z 13004KT 15SM SCT071 03/M02 A2996 RMK AC3 SLP159

CYQR;2009-04-21 09:00;CYQR 210900Z 24003KT 15SM FEW071 00/M02 A2995 RMK AC2 SLP160

CYQR;2009-04-21 10:00;CYQR 211000Z 30005KT 15SM FEW071 01/M02 A2994 RMK AC2 SLP157

CYQR;2009-04-21 11:00;CYQR 211100Z 32005KT 15SM BKN071 01/M01 A2997 RMK AC6 SLP165

CYQR;2009-04-21 12:00;CYQR 211200Z 27005KT 15SM BKN086 01/M01 A2997 RMK AC6 SLP168

CYQR;2009-04-21 13:00;CYQR 211300Z 33007KT 15SM FEW070 BKN087 BKN250 04/01 A2997 RMK AC1AC6CI0 ACC EMBD SLP167

CYQR;2009-04-21 14:00;CYQR 211400Z 34007KT 15SM OVC085 06/01 A2999 RMK AC8 ACC EMBD SLP172

CYQR;2009-04-21 15:00;CYQR 211500Z 34012KT 15SM SCT083 BKN250 08/01 A2998 RMK AC3CI2 ACC ASOCTD SLP168

CYQR;2009-04-21 16:00;CYQR 211600Z 35012KT 15SM FEW080 SCT120 BKN250 11/M00 A2999 RMK AC2AC1CI1 SLP169

CYQR;2009-04-21 17:00;CYQR 211700Z 36010KT 15SM BKN080 BKN250 12/M02 A2999 RMK AC5CI1 SLP169

CYQR;2009-04-21 18:00;CYQR 211800Z 02012G19KT 15SM FEW080 SCT120 BKN250 13/M02 A2998 RMK AC2AC1CI2 SLP168

CYQR;2009-04-21 19:00;CYQR 211900Z 01006G16KT 15SM SCT085 BKN120 BKN250 13/M03 A2997 RMK AC3AC2CI2 SLP163

CYQR;2009-04-21 20:00;CYQR 212000Z 33012KT 15SM SCT085 BKN120 15/M02 A2996 RMK AC3AC2 SLP161

CYQR;2009-04-21 21:00;CYQR 212100Z 33012KT 15SM FEW077 SCT120 BKN250 14/M02 A2995 RMK AC2AC1CI1 SLP161

CYQR;2009-04-21 22:00;CYQR 212200Z 02010G15KT 15SM SCT077 BKN120 BKN250 15/M02 A2994 RMK AC2AC3CI1 SLP159

CYQR;2009-04-21 23:00;CYQR 212300Z 33008KT 15SM FEW077 BKN120 BKN250 14/M03 A2994 RMK AC1AC4CI1 SLP159

CYQR;2009-04-22 00:00;CYQR 220000Z 01008KT 15SM FEW120 BKN250 14/M02 A2993 RMK AC1CI5 SLP153

CYQR;2009-04-22 01:00;CYQR 220100Z 02006KT 15SM FEW120 BKN250 13/M03 A2991 RMK AC1CI1 SLP148

CYQR;2009-04-22 02:00;CYQR 220200Z 05005KT 15SM FEW120 FEW250 10/M03 A2990 RMK AC1CI2 SLP144

CYQR;2009-04-22 03:00;CYQR 220300Z 08006KT 15SM FEW120 FEW250 08/M03 A2988 RMK AC1CI2 SLP135

CYQR;2009-04-22 04:00;CYQR 220400Z 10011KT 15SM FEW250 09/M03 A2986 RMK CI0 SLP128

CYQR;2009-04-22 05:00;CYQR 220500Z 11013KT 15SM SKC 08/M03 A2984 RMK SLP121

CYQR;2009-04-22 06:00;CYQR 220600Z 11011G16KT 15SM SKC 07/M04 A2983 RMK SLP115

CYQR;2009-04-22 07:00;CYQR 220700Z 12012KT 15SM SKC 05/M05 A2981 RMK SLP109

CYQR;2009-04-22 08:00;CYQR 220800Z 14016G21KT 15SM FEW094 06/M04 A2979 RMK AC2 SLP101

CYQR;2009-04-22 09:00;CYQR 220900Z 14017KT 15SM OVC094 06/M03 A2977 RMK AC8 SLP095

CYQR;2009-04-22 10:00;CYQR 221000Z 14018G24KT 15SM BKN094 04/M02 A2973 RMK AC6 SLP083

CYQR;2009-04-22 11:00;CYQR 221100Z 14021G26KT 15SM FEW090 04/M03 A2970 RMK AC2 SLP073

CYQR;2009-04-22 12:00;CYQR 221200Z 14020G25KT 15SM FEW090 03/M03 A2968 RMK AC2 SLP064

CYQR;2009-04-22 13:00;CYQR 221300Z 14021G29KT 15SM FEW090 BKN300 04/M02 A2965 RMK AC1CI2 SLP056

CYQR;2009-04-22 14:00;CYQR 221400Z 14020G30KT 15SM FEW210 OVC300 05/M02 A2964 RMK CI1CI4 SLP051

CYQR;2009-04-22 15:00;CYQR 221500Z 15024G30KT 15SM FEW210 OVC300 07/M02 A2960 RMK CI1CI2 SLP041

CYQR;2009-04-22 16:00;CYQR 221600Z 16024G31KT 15SM FEW210 BKN300 10/M01 A2958 RMK CI1CI2 SLP032

CYQR;2009-04-22 17:00;CYQR 221700Z 16023G29KT 15SM FEW210 BKN300 12/01 A2955 RMK CI1CS1 SLP025

CYQR;2009-04-22 18:00;CYQR 221800Z 16019G27KT 15SM FEW210 BKN300 15/03 A2953 RMK CI1CI1 SLP012

CYQR;2009-04-22 19:00;CYQR 221900Z 16019G27KT 15SM FEW210 BKN300 18/05 A2950 RMK CI2CI2 SLP002

CYQR;2009-04-22 20:00;CYQR 222000Z 16016KT 15SM FEW210 OVC300 19/05 A2948 RMK CI1CI2 SLP994

CYQR;2009-04-22 21:00;CYQR 222100Z 14014G19KT 15SM FEW060 OVC300 22/06 A2945 RMK SC1CI3 SLP982

CYQR;2009-04-22 22:00;CYQR 222200Z 15013KT 15SM FEW068 OVC300 22/05 A2943 RMK AC1CI5 SLP975

CYQR;2009-04-22 23:00;CYQR 222300Z 30021G28KT 15SM FEW070 SCT200 OVC300 23/00 A2942 RMK AC1CI3CI3 SLP970

CYQR;2009-04-23 00:00;CYQR 230000Z 30023G28KT 15SM FEW080 FEW200 OVC300 21/02 A2945 RMK ACC1CI2CI4 SLP982

CYQR;2009-04-23 01:00;CYQR 230100Z 31019G24KT 15SM FEW080TCU FEW120 SCT300 17/02 A2949 RMK TCU1AC1CI2 SLP993

CYQR;2009-04-23 02:00;CYQR 230200Z 30013KT 15SM FEW120 SCT240 BKN300 13/02 A2950 RMK AC2CI1CI0 SLP999

CYQR;2009-04-23 03:00;CYQR 230300Z 29010KT 15SM FEW120 SCT240 BKN300 10/02 A2952 RMK AC2CI1CI0 SLP010

CYQR;2009-04-23 04:00;CYQR 230400Z 32014KT 15SM FEW120 BKN240 BKN300 11/02 A2953 RMK AC2CI2CI0 SLP013

CYQR;2009-04-23 05:00;CYQR 230500Z 35019G25KT 15SM SCT120 BKN240 BKN300 10/02 A2954 RMK AC3CI1CI0 SLP016

CYQR;2009-04-23 06:00;CYQR 230600Z 35014KT 15SM SCT120 BKN240 BKN300 07/01 A2956 RMK AC3CI1CI0 SLP022

CYQR;2009-04-23 07:00;CYQR 230700Z 35015KT 15SM SCT093 BKN240 BKN300 07/00 A2959 RMK AC3CI1CI0 SLP030

CYQR;2009-04-23 08:00;CYQR 230800Z 36009G15KT 15SM SCT098 BKN240 BKN300 06/00 A2959 RMK AC3CI1CI0 SLP033

CYQR;2009-04-23 09:00;CYQR 230900Z 32007KT 15SM SCT088 BKN240 BKN300 03/M01 A2960 RMK AC3CI2CI0 SLP035

CYQR;2009-04-23 10:00;CYQR 231000Z 33007KT 15SM SCT086 BKN240 BKN300 03/M01 A2963 RMK AC3CI2CI0 SLP042

CYQR;2009-04-23 11:00;CYQR 231100Z 32007KT 15SM SCT037 BKN085 BKN240 BKN300 01/M02 A2964 RMK SC3AC2CI1CI0 SLP046

CYQR;2009-04-23 12:00;CYQR 231200Z 34007KT 15SM SCT042 BKN078 BKN240 02/M01 A2965 RMK SC3AC2CI2 SLP053

CYQR;2009-04-23 13:00;CYQR 231300Z 32006KT 15SM BKN059 BKN240 04/M00 A2967 RMK SC6CI1 SLP058

CYQR;2009-04-23 14:00;CYQR 231400Z 34009KT 15SM OVC056 04/M03 A2969 RMK SC8 SLP065

CYQR;2009-04-23 15:00;CYQR 231500Z 34014G19KT 15SM OVC065 05/M04 A2969 RMK SC8 SLP072

CYQR;2009-04-23 16:00;CYQR 231600Z 34020KT 15SM FEW040 BKN069 OVC085 05/M06 A2971 RMK SC1AC6AC2 SLP078

CYQR;2009-04-23 17:00;CYQR 231700Z 34019G26KT 15SM FEW040 SCT089 OVC150 05/M06 A2972 RMK SC1AC2AS6 SLP080

CYQR;2009-04-23 18:00;CYQR 231800Z 33020KT 15SM FEW089 BKN150 06/M09 A2974 RMK AC2AC5 SLP091

CYQR;2009-04-23 19:00;CYQR 231900Z 33017G25KT 15SM FEW090 FEW150 BKN300 05/M08 A2975 RMK AC1AC1CI3 SLP093

CYQR;2009-04-23 20:00;CYQR 232000Z 33017G29KT 15SM FEW060 FEW090 BKN150 BKN300 06/M08 A2976 RMK SC1AC1AC4CI2 SLP096

CYQR;2009-04-23 21:00;CYQR 232100Z 33019G26KT 15SM FEW074 BKN150 BKN300 06/M07 A2976 RMK AC2AC3CI2 SLP099

CYQR;2009-04-23 22:00;CYQR 232200Z 33019G26KT 15SM FEW060 BKN150 BKN300 05/M08 A2977 RMK SC2AC2CI2 SLP102

CYQR;2009-04-23 23:00;CYQR 232300Z 32022KT 15SM FEW060 FEW150 BKN300 05/M09 A2977 RMK SC1AC1CI1 SLP102

CYQR;2009-04-24 00:00;CYQR 240000Z 33024KT 15SM FEW150 BKN300 04/M10 A2978 RMK AC1CI1 SLP109

CYQR;2009-04-24 01:00;CYQR 240100Z 33017G22KT 15SM FEW092 FEW150 BKN300 02/M10 A2983 RMK ACC1AC1CI2 TR ACC SLP123

CYQR;2009-04-24 02:00;CYQR 240200Z 33011G16KT 15SM FEW093 FEW150 SCT210 BKN260 BKN320 00/M10 A2984 RMK ACC1AC1CC1CI1CI0 SLP129

CYQR;2009-04-24 03:00;CYQR 240300Z 32009KT 15SM FEW095 FEW150 SCT210 BKN260 BKN320 M01/M10 A2988 RMK ACC1AC1CI1CI1CI0 SLP144

CYQR;2009-04-24 04:00;CYQR 240400Z 34008KT 15SM FEW095 FEW150 BKN270 M03/M10 A2990 RMK AC1AC1CI1 SLP150

CYQR;2009-04-24 05:00;CYQR 240500Z 34008KT 15SM FEW120 BKN270 M04/M10 A2989 RMK AC1CI1 SLP148

CYQR;2009-04-24 06:00;CYQR 240600Z 32008KT 15SM FEW120 BKN270 M05/M10 A2990 RMK AC1CI1 SLP153

CYQR;2009-04-24 07:00;CYQR 240700Z 30006KT 15SM BKN260 M07/M10 A2990 RMK CI1 SLP154

CYQR;2009-04-24 08:00;CYQR 240800Z 30006KT 15SM BKN260 M06/M09 A2992 RMK CI1 SLP158

CYQR;2009-04-24 09:00;CYQR 240900Z 30006KT 15SM BKN260 M07/M10 A2991 RMK CI1 SLP158

CYQR;2009-04-24 10:00;CYQR 241000Z 27004KT 15SM BKN260 M08/M11 A2993 RMK CI1 SLP163

CYQR;2009-04-24 11:00;CYQR 241100Z 27003KT 15SM BKN260 M10/M12 A2993 RMK CI1 SLP165

CYQR;2009-04-24 12:00;CYQR 241200Z 27006KT 15SM BKN260 M10/M12 A2994 RMK CI1 SLP172

CYQR;2009-04-24 13:00;CYQR 241300Z 27004KT 15SM BKN060 OVC260 M06/M09 A2995 RMK SC6CI1 SLP174

CYQR;2009-04-24 14:00;CYQR 241400Z 28007KT 15SM BKN060 BKN260 M03/M08 A2996 RMK SC5CI1 SLP177

CYQR;2009-04-24 15:00;CYQR 241500Z 27005KT 15SM FEW260 M00/M10 A2995 RMK CI0 SLP173

CYQR;2009-04-24 16:00;CYQR 241600Z 28007KT 15SM SCT120 SCT260 01/M10 A2995 RMK AC3CI0 SLP171

CYQR;2009-04-24 17:00;CYQR 241700Z 28009G15KT 15SM FEW045 FEW280 03/M11 A2994 RMK CU2CI1 SLP168

CYQR;2009-04-24 18:00;CYQR 241800Z 24011G17KT 15SM FEW053 BKN280 04/M11 A2994 RMK CU2CI1 SLP168

CYQR;2009-04-24 19:00;CYQR 241900Z 31010G16KT 15SM FEW059 BKN280 04/M12 A2992 RMK CU2CI1 SLP160

CYQR;2009-04-24 20:00;CYQR 242000Z 27008G15KT 15SM FEW068 FEW280 05/M13 A2990 RMK CU1CI1 SLP155

CYQR;2009-04-24 21:00;CYQR 242100Z 26013G18KT 15SM FEW076 FEW280 06/M12 A2988 RMK CU2CI0 SLP148

CYQR;2009-04-24 22:00;CYQR 242200Z 27011KT 15SM SCT076 SCT280 06/M11 A2986 RMK CU2CI1 SLP140

CYQR;2009-04-24 23:00;CYQR 242300Z 25015KT 15SM BKN076 BKN280 06/M12 A2984 RMK CU6CI1 VIRGA OVRHD AND E SHWRS W-NW SLP133

CYQR;2009-04-25 00:00;CYQR 250000Z 32018KT 15SM BKN060 04/M08 A2984 RMK CU7 CVCTV CLD EMBD VIRGA SLP135

CYQR;2009-04-25 00:23;CYQR 250023Z 30020KT 15SM -SHSN BKN042 03/ RMK CU7 CVCTV CLD EMBD

CYQR;2009-04-25 00:50;CYQR 250050Z 30022KT 15SM BKN042 03/ RMK CU7 CVCTV CLD EMBD VIRGA

CYQR;2009-04-25 01:00;CYQR 250100Z 31015G24KT 15SM FEW029 BKN090 OVC150 03/M05 A2984 RMK CU2ACC6AC1 VIRGA SLP136

CYQR;2009-04-25 01:22;CYQR 250122Z 29025KT 15SM -SHSN BKN027 OVC079 02/ RMK CU5ACC3 VIS W 3

CYQR;2009-04-25 02:00;CYQR 250200Z 32012KT 6SM -SHSN BKN079 OVC086 01/M03 A2986 RMK ACC6AC2 SLP142

CYQR;2009-04-25 02:05;CYQR 250205Z 33013KT 2SM -SHSN BKN079 OVC280 00/ RMK SN2ACC6CI0

CYQR;2009-04-25 02:11;CYQR 250211Z 32012KT 10SM -SHSN FEW018 BKN080 BKN280 00/ RMK SC2ACC4CI0

CYQR;2009-04-25 02:33;CYQR 250233Z 31005KT 15SM SCT032 BKN096 BKN280 00/ RMK SC3ACC2CI0

CYQR;2009-04-25 03:00;CYQR 250300Z 28005KT 15SM SCT037 BKN096 BKN280 00/M03 A2987 RMK SC3ACC2CI0 SLP144

CYQR;2009-04-25 04:00;CYQR 250400Z 31004KT 15SM SCT045 BKN090 BKN280 M01/M04 A2987 RMK SC3ACC2CI0 SLP144

CYQR;2009-04-25 05:00;CYQR 250500Z 24006KT 15SM SCT054 BKN280 M04/M07 A2987 RMK SC3CI1 SLP142

CYQR;2009-04-25 06:00;CYQR 250600Z 25008KT 15SM FEW080 BKN280 M06/M08 A2987 RMK AC2CI0 SLP143

CYQR;2009-04-25 07:00;CYQR 250700Z 26007KT 15SM FEW081 SCT260 M07/M09 A2988 RMK AC2CI0 SLP148

CYQR;2009-04-25 08:00;CYQR 250800Z 30004KT 15SM FEW074 SCT260 M08/M11 A2989 RMK AC2CI0 SLP150

CYQR;2009-04-25 09:00;CYQR 250900Z 27003KT 15SM FEW063 BKN094 M08/M10 A2989 RMK SC2AC2 SLP153

CYQR;2009-04-25 10:00;CYQR 251000Z 30002KT 15SM FEW065 BKN091 M07/M09 A2990 RMK SC2AC2 SLP156

CYQR;2009-04-25 11:00;CYQR 251100Z 36003KT 15SM FEW087 M07/M10 A2991 RMK AC2 SLP158

CYQR;2009-04-25 12:00;CYQR 251200Z 10002KT 15SM FEW087 M08/M10 A2991 RMK AC2 SLP160

CYQR;2009-04-25 13:00;CYQR 251300Z 12002KT 15SM FEW067 M05/M08 A2993 RMK AC2 SLP167

CYQR;2009-04-25 14:00;CYQR 251400Z 11005KT 15SM SCT056 M01/M06 A2994 RMK SC1 SLP170

CYQR;2009-04-25 15:00;CYQR 251500Z 13006KT 15SM BKN300 01/M07 A2995 RMK CI2 SLP169

CYQR;2009-04-25 16:00;CYQR 251600Z 14006KT 15SM BKN300 03/M08 A2995 RMK CI1 SLP170

CYQR;2009-04-25 17:00;CYQR 251700Z 15006KT 15SM BKN300 06/M08 A2994 RMK CI2 SLP168

CYQR;2009-04-25 18:00;CYQR 251800Z 15009KT 15SM FEW040 SCT300 08/M07 A2993 RMK SC1CI1 TR SC SLP163

CYQR;2009-04-25 19:00;CYQR 251900Z 18008KT 15SM FEW060 BKN300 09/M06 A2992 RMK CF1CI1 TR CF SLP158

CYQR;2009-04-25 20:00;CYQR 252000Z 11006KT 15SM FEW076 OVC300 11/M06 A2990 RMK CU2CI1 SLP152

CYQR;2009-04-25 21:00;CYQR 252100Z 29012G17KT 15SM FEW074 OVC300 13/M06 A2989 RMK CU2CI5 SLP145

CYQR;2009-04-25 22:00;CYQR 252200Z 28010KT 15SM FEW072 OVC300 12/M07 A2988 RMK CU2CI6 SLP143

CYQR;2009-04-25 23:00;CYQR 252300Z 27006KT 15SM FEW077 OVC300 12/M07 A2988 RMK AC2CS6 SLP144

CYQR;2009-04-26 00:00;CYQR 260000Z 36007KT 15SM FEW077 OVC300 12/M06 A2990 RMK AC2CS6 SLP150

CYQR;2009-04-26 01:00;CYQR 260100Z 36003KT 15SM SCT066 OVC300 11/M06 A2991 RMK AC4CS4 SLP153

CYQR;2009-04-26 02:00;CYQR 260200Z 03013KT 15SM BKN069 OVC098 09/M06 A2992 RMK AC5AC3 ACC ASOCTD VIRGA SLP157

CYQR;2009-04-26 03:00;CYQR 260300Z 05011KT 15SM BKN074 OVC300 08/M06 A2995 RMK AC6CI1 SLP164

CYQR;2009-04-26 04:00;CYQR 260400Z 04009KT 15SM OVC071 07/M05 A2996 RMK AC8 ACC ASOCTD SLP167

CYQR;2009-04-26 05:00;CYQR 260500Z 06012KT 15SM BKN071 OVC086 06/M05 A2994 RMK ACC5AC3 SLP163

CYQR;2009-04-26 06:00;CYQR 260600Z 05010KT 15SM OVC077 05/M05 A2994 RMK AC8 SLP160

CYQR;2009-04-26 07:00;CYQR 260700Z 05009KT 15SM OVC082 04/M05 A2996 RMK AC8 SLP164

CYQR;2009-04-26 08:00;CYQR 260800Z 07008KT 15SM BKN074 04/M05 A2996 RMK AC6 SLP164

CYQR;2009-04-26 09:00;CYQR 260900Z 03007KT 15SM BKN069 BKN280 03/M05 A2995 RMK AC5CI1 SLP159

CYQR;2009-04-26 10:00;CYQR 261000Z 02009KT 15SM BKN072 BKN085 02/M05 A2996 RMK AC5AC2 SLP162

CYQR;2009-04-26 11:00;CYQR 261100Z 03010KT 15SM SCT060 BKN090 03/M05 A2997 RMK SC4AC2 SLP165

CYQR;2009-04-26 12:00;CYQR 261200Z 05008KT 15SM SCT062 BKN090 OVC280 03/M05 A2999 RMK SC3AC2CI1 VIRGA SLP173

CYQR;2009-04-26 13:00;CYQR 261300Z 03006KT 15SM FEW058 SCT076 OVC280 03/M05 A3000 RMK SC2AC2CI3 SLP177

CYQR;2009-04-26 14:00;CYQR 261400Z 04008KT 15SM SCT060 BKN280 06/M05 A3001 RMK SC3CI2 SLP182

CYQR;2009-04-26 15:00;CYQR 261500Z 04015KT 15SM SCT083 OVC280 08/M05 A3002 RMK AC3CI4 SLP184

CYQR;2009-04-26 16:00;CYQR 261600Z 04012KT 15SM BKN079 OVC280 08/M02 A3002 RMK AC6CI2 SLP184

CYQR;2009-04-26 17:00;CYQR 261700Z 03010KT 15SM SCT042 OVC076 08/M02 A3003 RMK SC4AC4 SLP186

CYQR;2009-04-26 18:00;CYQR 261800Z 35012KT 15SM FEW035 SCT058 BKN063 OVC110 08/M01 A3002 RMK SC2SC2SC2AC2 SLP186

CYQR;2009-04-26 19:00;CYQR 261900Z 02014KT 15SM SCT046 BKN061 OVC280 11/M01 A3001 RMK SC3SC3CS2 SLP183

CYQR;2009-04-26 20:00;CYQR 262000Z 04013KT 15SM BKN044 BKN280 10/M03 A3002 RMK SC5CI1 SLP184

CYQR;2009-04-26 21:00;CYQR 262100Z 06013KT 15SM FEW061 BKN280 12/M05 A3001 RMK SC2CS4 SLP180

CYQR;2009-04-26 22:00;CYQR 262200Z 03009G15KT 15SM SCT066 OVC280 11/M06 A3000 RMK AC4CS4 SLP179

CYQR;2009-04-26 23:00;CYQR 262300Z 36011KT 15SM SCT068 OVC280 11/M07 A3000 RMK CU4CS3 VIRGA SLP179

CYQR;2009-04-27 00:00;CYQR 270000Z 01014KT 15SM BKN070 BKN280 10/M07 A3001 RMK CU5CI1 SLP182

CYQR;2009-04-27 01:00;CYQR 270100Z 03014KT 15SM SCT067 BKN280 10/M08 A3002 RMK AC3CI1 SLP185

CYQR;2009-04-27 02:00;CYQR 270200Z 02011G16KT 15SM FEW070 SCT280 08/M08 A3004 RMK AC2CI0 SLP192

CYQR;2009-04-27 03:00;CYQR 270300Z 36011KT 15SM FEW070 SCT250 06/M08 A3007 RMK AC1CI0 SLP202

CYQR;2009-04-27 04:00;CYQR 270400Z 01011KT 15SM FEW075 SCT280 05/M08 A3009 RMK AC2CI0 SLP209

CYQR;2009-04-27 05:00;CYQR 270500Z 02009KT 15SM SCT075 BKN280 04/M08 A3009 RMK AC3CI0 SLP208

CYQR;2009-04-27 06:00;CYQR 270600Z 01009KT 15SM FEW075 SCT280 03/M07 A3009 RMK AC2CI0 SLP211

CYQR;2009-04-27 07:00;CYQR 270700Z 03008KT 15SM FEW085 SCT280 03/M07 A3009 RMK AC1CI0 SLP212

CYQR;2009-04-27 08:00;CYQR 270800Z 36006KT 15SM FEW080 FEW260 M02/M08 A3010 RMK AC1CI0 SLP215

CYQR;2009-04-27 09:00;CYQR 270900Z 02004KT 15SM FEW085 FEW280 M04/M08 A3011 RMK AC1CI0 SLP220

CYQR;2009-04-27 10:00;CYQR 271000Z 03005KT 15SM FEW090 FEW280 M05/M08 A3012 RMK AC1CI0 SLP222

CYQR;2009-04-27 11:00;CYQR 271100Z 03004KT 15SM FEW085 FEW280 M03/M06 A3013 RMK AC1CI0 SLP227

CYQR;2009-04-27 12:00;CYQR 271200Z 04006KT 15SM FEW085 FEW280 M04/M07 A3014 RMK AC1CI0 SLP232

CYQR;2009-04-27 13:00;CYQR 271300Z 06005KT 15SM FEW020 FEW085 FEW260 00/M05 A3017 RMK CF1AC1CI0 SLP240

CYQR;2009-04-27 14:00;CYQR 271400Z 07006KT 15SM FEW260 03/M05 A3018 RMK CI1 SLP244

CYQR;2009-04-27 15:00;CYQR 271500Z 06003KT 15SM FEW260 05/M04 A3019 RMK CI1 SLP245

CYQR;2009-04-27 16:00;CYQR 271600Z 26002KT 15SM FEW260 06/M03 A3019 RMK CI1 SLP246

CYQR;2009-04-27 17:00;CYQR 271700Z 34007KT 15SM FEW045 BKN260 09/M03 A3019 RMK CU2CI1 TCU ASOCTD SLP245

CYQR;2009-04-27 18:00;CYQR 271800Z 09005KT 15SM BKN048 OVC260 08/M04 A3019 RMK CU6CI1 TCU EMBD VIRGA SLP244

CYQR;2009-04-27 18:52;CYQR 271852Z 07008KT 12SM -SHRA OVC029TCU 07/ RMK TCU8

CYQR;2009-04-27 19:00;CYQR 271900Z 13004KT 10SM -SHRA FEW014 OVC031TCU 06/M03 A3020 RMK SC2TCU6 SLP248

CYQR;2009-04-27 19:33;CYQR 271933Z 02007KT 15SM BKN018 OVC062 07/ RMK SC6SC2 TCU EMBD

CYQR;2009-04-27 20:00;CYQR 272000Z 02008KT 15SM SCT018 OVC062 08/M02 A3019 RMK SC3SC5 TCU EMBD SLP246

CYQR;2009-04-27 21:00;CYQR 272100Z 03014KT 15SM FEW031 OVC062 08/M02 A3019 RMK SC2SC6 TCU EMBD VIRGA SLP250

CYQR;2009-04-27 21:44;CYQR 272144Z 07012KT 12SM -SHRA BKN025 OVC061 08/ RMK SC6SC2 TCU EMBD

CYQR;2009-04-27 22:00;CYQR 272200Z 11005G21KT 12SM -SHRA OVC015 06/M01 A3019 RMK SC8 SLP252

CYQR;2009-04-27 23:00;CYQR 272300Z 08009KT 15SM FEW050 OVC260 08/M02 A3018 RMK SC2CI4 SLP247

CYQR;2009-04-28 00:00;CYQR 280000Z 05015KT 15SM BKN042 OVC074 07/M03 A3019 RMK SC5AC3 SLP249

CYQR;2009-04-28 01:00;CYQR 280100Z 06014KT 15SM BKN032 OVC075 07/M04 A3019 RMK SC6AC2 SLP249

CYQR;2009-04-28 02:00;CYQR 280200Z 04016KT 15SM BKN036 OVC067 06/M04 A3020 RMK SC7AC1 SLP253

CYQR;2009-04-28 03:00;CYQR 280300Z 04020G25KT 15SM BKN039 OVC089 04/M03 A3022 RMK SC7AC1 SLP257

CYQR;2009-04-28 03:45;CYQR 280345Z 05015G21KT 15SM -SHRA OVC019 04/ RMK SC8

CYQR;2009-04-28 04:00;CYQR 280400Z 06016KT 15SM -SHRA OVC019 04/M02 A3025 RMK SC8 SLP265

CYQR;2009-04-28 04:08;CYQR 280408Z 06017G24KT 10SM -SHRASN OVC010 03/ RMK SC8

CYQR;2009-04-28 04:49;CYQR 280449Z 07015G21KT 15SM -SHRA OVC019 03/ RMK SC8

CYQR;2009-04-28 05:00;CYQR 280500Z 07015G21KT 15SM -SHRA OVC019 03/M01 A3023 RMK SC8 SLP261

CYQR;2009-04-28 06:00;CYQR 280600Z 07017G24KT 15SM -SHRA OVC034 03/M01 A3022 RMK SC8 SLP257

CYQR;2009-04-28 06:44;CYQR 280644Z 08017G22KT 10SM -SHRASN OVC028 02/ RMK SC8

CYQR;2009-04-28 07:00;CYQR 280700Z 08016G24KT 6SM -SHRASN OVC015 02/00 A3023 RMK SC8 SLP260

CYQR;2009-04-28 07:06;CYQR 280706Z 08016G21KT 6SM -SHRASN OVC008 01/ RMK SC8

CYQR;2009-04-28 07:49;CYQR 280749Z 07016KT 3SM -SHSN OVC004 01/ RMK SC8

CYQR;2009-04-28 08:00;CYQR 280800Z 07016KT 3SM -SHSN OVC004 01/M01 A3022 RMK SC8 SLP256

CYQR;2009-04-28 08:43;CYQR 280843Z 07013KT 1SM R13/P6000FT/N -SHSN VV003 00/ RMK SN8

CYQR;2009-04-28 09:00;CYQR 280900Z 07012G18KT 1SM -SHSN VV003 00/M01 A3022 RMK SN8 SLP257

CYQR;2009-04-28 09:38;CYQR 280938Z 07015G21KT 1SM -SHSN VV004 00/ RMK SN8

CYQR;2009-04-28 09:53;CYQR 280953Z 06014KT 3/4SM -SHSN VV003 00/ RMK SN8

CYQR;2009-04-28 10:00;CYQR 281000Z 06014KT 3/4SM -SHSN VV003 00/M01 A3021 RMK SN8 SLP255

CYQR;2009-04-28 10:20;CYQR 281020Z 06015G22KT 1SM -SHSN VV005 00/ RMK SN8

CYQR;2009-04-28 11:00;CYQR 281100Z 05015G20KT 2SM -SHRASN OVC007 00/M01 A3021 RMK SN2SC6 SLP254

CYQR;2009-04-28 12:00;CYQR 281200Z 06015G21KT 1 1/2SM -SHRASN OVC008 01/M01 A3021 RMK SN1SC7 SLP255

CYQR;2009-04-28 12:20;CYQR 281220Z 05021KT 1 1/2SM -SHRASN OVC010 01/ RMK SN1SC7

CYQR;2009-04-28 12:42;CYQR 281242Z 05020G25KT 2SM -SHRASN OVC009 01/ RMK SN1SC7

CYQR;2009-04-28 12:53;CYQR 281253Z 06016G28KT 3SM -SHRASN BKN009 OVC015 01/ RMK SC6SC2

CYQR;2009-04-28 13:00;CYQR 281300Z 07012G20KT 3SM -SHRASN BKN009 OVC015 00/M01 A3023 RMK SC6SC2 VIS SE 11/2 SLP260

CYQR;2009-04-28 13:22;CYQR 281322Z 07013KT 2SM -SHRASN BKN008 OVC014 00/ RMK SC6SC2

CYQR;2009-04-28 14:00;CYQR 281400Z 06015G22KT 1SM R13/6000FT/D -SHSN VV006 00/M01 A3023 RMK SN8 SLP263

CYQR;2009-04-28 15:00;CYQR 281500Z 06018KT 1 1/2SM -SHSN OVC006 00/M01 A3023 RMK SN2SC6 SLP265

CYQR;2009-04-28 15:38;CYQR 281538Z 06018KT 4SM -SHSN BKN008 OVC015 01/ RMK SC5SC3

CYQR;2009-04-28 15:49;CYQR 281549Z 06020G25KT 10SM BKN008 OVC015 RMK SC5SC3

CYQR;2009-04-28 16:00;CYQR 281600Z 06019G25KT 10SM BKN008 OVC015 01/M01 A3024 RMK SC5SC3 SLP268

CYQR;2009-04-28 16:04;CYQR 281604Z 06017G24KT 6SM -SHSN BKN009 OVC024 01/ RMK SC5SC3 VIS W 3

CYQR;2009-04-28 16:37;CYQR 281637Z 07016G21KT 2SM -SHSN BKN009 OVC024 01/ RMK SC5SC3 VIS S 3

CYQR;2009-04-28 17:00;CYQR 281700Z 06016KT 2SM -SHSN BKN007 OVC030 01/M00 A3026 RMK SC6SC2 SLP272

CYQR;2009-04-28 17:15;CYQR 281715Z 06018KT 3SM -SHSN BKN006 OVC030 01/ RMK SC6SC2

CYQR;2009-04-28 17:41;CYQR 281741Z 06017KT 10SM BKN007 OVC029 02/ RMK SC6SC2

CYQR;2009-04-28 17:51;CYQR 281751Z 06015G22KT 10SM -SHRA BKN008 OVC029 02/ RMK SC6SC2

CYQR;2009-04-28 18:00;CYQR 281800Z 06020KT 10SM -SHRA BKN007 OVC029 02/00 A3026 RMK SC6SC2 SLP273

CYQR;2009-04-28 18:24;CYQR 281824Z 05018KT 15SM BKN009 OVC037 03/ RMK SC6SC2

CYQR;2009-04-28 19:00;CYQR 281900Z 05019KT 15SM OVC010 03/00 A3026 RMK SC8 SLP273

CYQR;2009-04-28 20:00;CYQR 282000Z 06016G22KT 15SM FEW010 BKN035 OVC065 03/00 A3026 RMK SF1SC6SC1 SLP274

CYQR;2009-04-28 21:00;CYQR 282100Z 05019KT 15SM SCT012 BKN035 OVC056 03/01 A3026 RMK SC4SC2SC2 SLP276

CYQR;2009-04-28 22:00;CYQR 282200Z 05022KT 15SM SCT012 BKN047 OVC061 03/01 A3026 RMK SC4SC2SC2 SLP275

CYQR;2009-04-28 23:00;CYQR 282300Z 06022G27KT 15SM FEW010 FEW045 BKN067 03/00 A3026 RMK SF1SC1AC6 SLP274

CYQR;2009-04-29 00:00;CYQR 290000Z 06021G26KT 15SM SCT013 BKN058 OVC070 03/M00 A3026 RMK SF3SC2AC3 SLP275

CYQR;2009-04-29 01:00;CYQR 290100Z 06021G26KT 15SM FEW013 BKN064 OVC097 02/M01 A3027 RMK SF1SC6AC2 SLP277

CYQR;2009-04-29 02:00;CYQR 290200Z 07018G26KT 15SM FEW015 BKN064 OVC097 02/M01 A3028 RMK SF1SC6AC2 SLP282

CYQR;2009-04-29 03:00;CYQR 290300Z 07019G29KT 15SM BKN060 OVC100 02/M01 A3030 RMK SC5AC3 SLP289

CYQR;2009-04-29 04:00;CYQR 290400Z 07020KT 15SM BKN050 OVC080 02/M01 A3030 RMK SC6AC2 SLP291

CYQR;2009-04-29 05:00;CYQR 290500Z 07018G25KT 15SM BKN055 OVC080 01/M01 A3030 RMK SC6AC2 SLP291

CYQR;2009-04-29 06:00;CYQR 290600Z 07016G22KT 15SM BKN047 OVC078 01/M01 A3030 RMK SC6AC2 SLP290

CYQR;2009-04-29 07:00;CYQR 290700Z 07016G25KT 15SM OVC045 01/M01 A3030 RMK SC8 SLP290

CYQR;2009-04-29 08:00;CYQR 290800Z 08016KT 15SM OVC055 01/M01 A3029 RMK SC8 SLP285

CYQR;2009-04-29 09:00;CYQR 290900Z 07018KT 15SM OVC073 01/M01 A3027 RMK AC8 SLP278

CYQR;2009-04-29 10:00;CYQR 291000Z 07015KT 15SM OVC065 01/M02 A3026 RMK SC8 SLP275

CYQR;2009-04-29 11:00;CYQR 291100Z 07017G22KT 15SM -SHRA OVC039 01/M02 A3026 RMK SC8 SLP273

CYQR;2009-04-29 12:00;CYQR 291200Z 07017KT 10SM -SHRA OVC028 01/M01 A3025 RMK SC8 SLP272

CYQR;2009-04-29 13:00;CYQR 291300Z 07017KT 10SM -SHRA FEW012 OVC028 01/M01 A3026 RMK SF1SC8 SLP273

CYQR;2009-04-29 14:00;CYQR 291400Z 06014KT 15SM -RA FEW012 OVC030 02/00 A3025 RMK SF1SC8 SLP272

CYQR;2009-04-29 14:41;CYQR 291441Z 06014G21KT 15SM -RA SCT009 OVC028 02/ RMK SF2SC6

CYQR;2009-04-29 15:00;CYQR 291500Z 06019KT 10SM -RA BKN009 OVC026 02/00 A3024 RMK SF5SC3 SLP267

CYQR;2009-04-29 15:25;CYQR 291525Z 06016G21KT 15SM FEW010 OVC043 03/ RMK SF2SC6

CYQR;2009-04-29 15:47;CYQR 291547Z 06016G25KT 15SM -RA BKN010 OVC031 03/ RMK SF6SC2

CYQR;2009-04-29 16:00;CYQR 291600Z 06018G25KT 15SM -RA BKN010 OVC031 03/01 A3023 RMK SF6SC2 SLP264

CYQR;2009-04-29 17:00;CYQR 291700Z 05019G24KT 15SM BKN012 OVC030 04/01 A3022 RMK SC7SC1 SLP260

CYQR;2009-04-29 17:26;CYQR 291726Z 05019KT 15SM -RA BKN012 OVC030 04/ RMK SC7SC1 -RA INTMT

CYQR;2009-04-29 18:00;CYQR 291800Z 06017G26KT 15SM -RA BKN012 OVC030 04/02 A3019 RMK SC7SC1 -RA INTMT SLP249

CYQR;2009-04-29 19:00;CYQR 291900Z 05022G31KT 15SM -RA BKN014 OVC030 04/01 A3015 RMK SC7SC1 -RA INTMT SLP236

CYQR;2009-04-29 20:00;CYQR 292000Z 06022G31KT 15SM BKN016 OVC030 05/01 A3013 RMK SC6SC2 INTMT -RA SLP230

CYQR;2009-04-29 21:00;CYQR 292100Z 06019G26KT 15SM BKN016 OVC030 05/01 A3013 RMK SC6SC2 SLP228

CYQR;2009-04-29 22:00;CYQR 292200Z 06023KT 15SM BKN018 OVC040 04/00 A3012 RMK SC7SC1 INTMT -RA SLP224

CYQR;2009-04-29 23:00;CYQR 292300Z 05020G25KT 15SM BKN014 OVC025 04/00 A3013 RMK SC5SC3 SLP227

CYQR;2009-04-30 00:00;CYQR 300000Z 04019G25KT 13SM -RA FEW014 OVC026 04/00 A3013 RMK SF2SC6 -RA INTMT SLP230

CYQR;2009-04-30 01:00;CYQR 300100Z 04018KT 10SM -SHRA BKN013 OVC025 03/01 A3014 RMK SC6SC2 SLP231

CYQR;2009-04-30 02:00;CYQR 300200Z 03016G25KT 8SM -RA OVC019 03/01 A3014 RMK SC8 SLP231

CYQR;2009-04-30 03:00;CYQR 300300Z 04019G25KT 8SM -RA OVC020 03/01 A3014 RMK SC8 SLP233

CYQR;2009-04-30 04:00;CYQR 300400Z 04015KT 8SM -RA OVC027 03/01 A3015 RMK SC8 SLP235

CYQR;2009-04-30 05:00;CYQR 300500Z 04014KT 10SM -RA OVC031 02/01 A3014 RMK SC8 SLP232

CYQR;2009-04-30 06:00;CYQR 300600Z 03010KT 10SM -RA OVC030 02/01 A3014 RMK SC8 SLP229

CYQR;2009-04-30 07:00;CYQR 300700Z 36008KT 10SM -RA OVC035 02/01 A3014 RMK SC8 SLP231

CYQR;2009-04-30 08:00;CYQR 300800Z 03008KT 15SM -RA OVC029 03/M00 A3013 RMK SC8 SLP228

CYQR;2009-04-30 08:44;CYQR 300844Z 33007KT 15SM OVC036 02/ RMK SC8

CYQR;2009-04-30 09:00;CYQR 300900Z 31006KT 15SM OVC041 02/00 A3013 RMK SC8 SLP228

CYQR;2009-04-30 10:00;CYQR 301000Z 30005KT 15SM OVC054 01/00 A3013 RMK SC8 SLP228

CYQR;2009-04-30 11:00;CYQR 301100Z 32007KT 15SM BKN060 M00/M02 A3014 RMK SC6 SLP230

CYQR;2009-04-30 12:00;CYQR 301200Z 32006KT 15SM BKN060 BKN280 M01/M03 A3014 RMK SC5CI0 SLP236

CYQR;2009-04-30 13:00;CYQR 301300Z CCA 34008KT 15SM FEW110 OVC280 M00/M03 A3015 RMK AC1CI3 CONTRAILS SLP239

CYQR;2009-04-30 14:00;CYQR 301400Z 34007KT 15SM FEW250 BKN280 01/M03 A3016 RMK CC1CI2 SLP241

CYQR;2009-04-30 15:00;CYQR 301500Z 32008KT 15SM FEW250 BKN280 04/M01 A3016 RMK CC1CI2 SLP237

CYQR;2009-04-30 16:00;CYQR 301600Z 33011KT 15SM BKN280 06/M05 A3015 RMK CI5 CC ASOCTD SLP234

CYQR;2009-04-30 17:00;CYQR 301700Z 32014KT 15SM FEW058 BKN280 08/M06 A3014 RMK CF1CI2 SLP230

CYQR;2009-04-30 18:00;CYQR 301800Z 31014G24KT 15SM FEW060 BKN280 08/M09 A3013 RMK CF1CS2 SLP223

CYQR;2009-04-30 19:00;CYQR 301900Z 32017G24KT 15SM FEW060 BKN280 10/M09 A3011 RMK CF1CS7 SLP219

CYQR;2009-04-30 20:00;CYQR 302000Z 33011G21KT 15SM FEW080 BKN300 10/M10 A3011 RMK CU1CS5 SLP217

CYQR;2009-04-30 21:00;CYQR 302100Z 31011G22KT 15SM FEW080 OVC300 10/M11 A3010 RMK CU2CS5 SLP213

CYQR;2009-04-30 22:00;CYQR 302200Z 33015G20KT 15SM FEW088 OVC300 11/M11 A3007 RMK CU2CS5 CONTRAILS SLP205

CYQR;2009-04-30 23:00;CYQR 302300Z 31014G20KT 15SM FEW088 OVC300 11/M11 A3007 RMK CU1CS2 CONTRAILS HALO SLP203

CYQR;2009-05-01 01:00;CYQR 010100Z 30012G17KT 15SM FEW220 OVC300 09/M10 A3006 RMK CS2CS3 SLP203

CYQR;2009-05-01 02:00;CYQR 010200Z 28010KT 15SM FEW220 OVC300 07/M08 A3006 RMK CS2CS3 SLP202

CYQR;2009-05-01 03:00;CYQR 010300Z 28008KT 15SM SCT300 03/M07 A3007 RMK CI1 SLP207

CYQR;2009-05-01 04:00;CYQR 010400Z 27008KT 15SM FEW300 00/M07 A3007 RMK CI0 SLP207

CYQR;2009-05-01 05:00;CYQR 010500Z 27009KT 15SM SKC M01/M07 A3006 RMK SLP204

CYQR;2009-05-01 06:00;CYQR 010600Z 27009KT 15SM FEW300 M01/M07 A3006 RMK CI0 SLP205

CYQR;2009-05-01 07:00;CYQR 010700Z 36008KT 15SM SCT082 BKN300 M01/M07 A3007 RMK AC4CI0 SLP207

CYQR;2009-05-01 08:00;CYQR 010800Z 30007KT 15SM BKN078 BKN300 M01/M07 A3006 RMK AC6CI1 SLP203

CYQR;2009-05-01 09:00;CYQR 010900Z 35007KT 15SM BKN080 OVC300 M02/M06 A3006 RMK AC6CI1 SLP203

CYQR;2009-05-01 10:00;CYQR 011000Z 34003KT 15SM BKN087 M02/M05 A3007 RMK AC7 SLP207

CYQR;2009-05-01 11:00;CYQR 011100Z 33004KT 15SM BKN067 M00/M03 A3008 RMK AC7 SLP209

CYQR;2009-05-01 12:00;CYQR 011200Z 29007KT 15SM SCT074 BKN300 M01/M03 A3009 RMK AC4CI0 SLP210

CYQR;2009-05-01 13:00;CYQR 011300Z 30007KT 15SM SCT050 BKN080 BKN300 02/M01 A3010 RMK SC2AC3CI0 VIRGA SLP214

CYQR;2009-05-01 14:00;CYQR 011400Z 30007KT 15SM FEW040 FEW080 SCT300 03/M01 A3009 RMK SC1ACC1CI2 VIRGA SLP212

CYQR;2009-05-01 15:00;CYQR 011500Z 28010KT 15SM FEW040 FEW100 FEW300 06/M00 A3007 RMK CU1AC0CI1 ACC ASOCTD SLP206

CYQR;2009-05-01 16:00;CYQR 011600Z 28012G19KT 15SM FEW068 FEW075 FEW120 SCT240 SCT280 BKN320 09/M02 A3005 RMK ACC1AC1AC1CI1CI0CI0 SLP198

CYQR;2009-05-01 17:00;CYQR 011700Z 30020G28KT 15SM BKN057 OVC120 11/M04 A3001 RMK CU5AC3 TCU ASOCTD SLP186

CYQR;2009-05-01 18:00;CYQR 011800Z 32024G31KT 15SM VCSH FEW057 BKN300 11/M05 A3000 RMK CU2CI2 SHWRS S-SW SLP181

CYQR;2009-05-01 19:00;CYQR 011900Z 32024G31KT 15SM VCSH FEW069 FEW082 SCT240 BKN300 11/M06 A2999 RMK CU2AC1CI2CI0 SLP176

CYQR;2009-05-01 20:00;CYQR 012000Z 31022G30KT 15SM FEW068 SCT093 BKN300 12/M07 A2997 RMK CU2AC1CI3 SLP171

CYQR;2009-05-01 21:00;CYQR 012100Z 33022G30KT 15SM SCT081 BKN300 13/M08 A2996 RMK CU3CI2 VIRGA S SLP165

CYQR;2009-05-01 22:00;CYQR 012200Z 32022G29KT 15SM SCT087 BKN240 BKN300 13/M08 A2994 RMK CU3CI2CI1 VIRGA SLP159

CYQR;2009-05-01 23:00;CYQR 012300Z 32021G33KT 15SM FEW071 BKN240 12/M09 A2994 RMK CU2CI2 VIRGA SLP158

CYQR;2009-05-02 00:00;CYQR 020000Z 32020G27KT 15SM FEW071 SCT095 BKN240 BKN300 13/M11 A2993 RMK CU2AC2CI2CI0 SLP155

CYQR;2009-05-02 01:00;CYQR 020100Z 33016G21KT 15SM FEW095 BKN250 11/M11 A2992 RMK AC1CI1 SLP152

CYQR;2009-05-02 02:00;CYQR 020200Z 33007KT 15SM FEW095 BKN250 08/M09 A2991 RMK AC1CI1 SLP150

CYQR;2009-05-02 03:00;CYQR 020300Z 32005KT 15SM FEW085 BKN250 06/M09 A2992 RMK AC2CI0 SLP150

CYQR;2009-05-02 04:00;CYQR 020400Z 27005KT 15SM OVC075 04/M06 A2992 RMK AC8 SLP150

CYQR;2009-05-02 05:00;CYQR 020500Z 24008KT 15SM BKN064 04/M05 A2990 RMK SC6 SLP145

CYQR;2009-05-02 06:00;CYQR 020600Z 29002KT 15SM OVC072 05/M06 A2989 RMK AC7 SLP141

CYQR;2009-05-02 07:00;CYQR 020700Z 23003KT 15SM OVC078 03/M04 A2988 RMK AC8 SLP137

CYQR;2009-05-02 08:00;CYQR 020800Z 31005KT 15SM OVC074 03/M04 A2987 RMK AC7 SLP134

CYQR;2009-05-02 08:25;CYQR 020825Z 35004KT 15SM BKN077 02/ RMK AC6

CYQR;2009-05-02 09:00;CYQR 020900Z 31004KT 15SM FEW077 01/M05 A2988 RMK AC2 SLP135

CYQR;2009-05-02 10:00;CYQR 021000Z 31009KT 15SM FEW077 M02/M06 A2989 RMK AC1 SLP138

CYQR;2009-05-02 11:00;CYQR 021100Z 34007KT 15SM FEW077 M03/M06 A2989 RMK AC1 SLP139

CYQR;2009-05-02 12:00;CYQR 021200Z 28006KT 15SM FEW077 FEW300 M04/M07 A2989 RMK AC1CI0 SLP145

CYQR;2009-05-02 13:00;CYQR 021300Z 30006KT 15SM FEW086 SCT200 BKN300 01/M04 A2990 RMK AC1CI1CI0 SLP147

CYQR;2009-05-02 14:00;CYQR 021400Z 31006KT 15SM BKN074 BKN280 04/M03 A2991 RMK AC5CI0 SLP149

CYQR;2009-05-02 15:00;CYQR 021500Z 32009KT 15SM FEW070 FEW280 07/M03 A2990 RMK AC2CI0 ACC ASOCTD SLP146

CYQR;2009-05-02 16:00;CYQR 021600Z 33011G19KT 15SM FEW061 SCT083 BKN280 BKN300 09/M04 A2990 RMK SC1AC2CI1CI0 ACC ASOCTD SLP145

CYQR;2009-05-02 17:00;CYQR 021700Z 34014G19KT 15SM FEW068 SCT085 BKN280 BKN320 11/M06 A2989 RMK CU1AC2CI1CI0 ACC ASOCTD SLP143

CYQR;2009-05-02 18:00;CYQR 021800Z 33012G20KT 15SM SCT068 11/M05 A2989 RMK CU4 SLP138

CYQR;2009-05-02 19:00;CYQR 021900Z 33010G25KT 15SM FEW068 12/M05 A2988 RMK CU2 SLP134

CYQR;2009-05-02 20:00;CYQR 022000Z 31014G19KT 15SM FEW074 BKN300 13/M05 A2987 RMK CU2CI0 SLP132

CYQR;2009-05-02 21:00;CYQR 022100Z 33017G27KT 15SM FEW070 SCT300 13/M05 A2987 RMK AC2CI0 SLP134

CYQR;2009-05-02 22:00;CYQR 022200Z 34019G25KT 15SM FEW070 SCT300 13/M07 A2986 RMK CU1CI0 TR CU SLP131

CYQR;2009-05-02 23:00;CYQR 022300Z 34022G28KT 15SM FEW300 13/M07 A2986 RMK CI1 SLP130

CYQR;2009-05-03 00:00;CYQR 030000Z 34017G24KT 15SM FEW240 SCT300 12/M08 A2987 RMK CI0CI0 SLP136

CYQR;2009-05-03 01:00;CYQR 030100Z 34018KT 15SM FEW300 11/M07 A2986 RMK CI1 SLP134

CYQR;2009-05-03 02:00;CYQR 030200Z 35008KT 15SM FEW300 09/M06 A2986 RMK CI1 SLP133

CYQR;2009-05-03 03:00;CYQR 030300Z 29004KT 15SM FEW300 05/M06 A2987 RMK CI1 SLP136

CYQR;2009-05-03 03:53;CYQR 030353Z 31008KT 15SM SKC 02/

CYQR;2009-05-03 04:00;CYQR 030400Z 31008KT 15SM SKC 02/M07 A2989 RMK SLP142

CYQR;2009-05-03 05:00;CYQR 030500Z 25007KT 15SM SKC M01/M07 A2991 RMK SLP148

CYQR;2009-05-03 06:00;CYQR 030600Z 28008KT 15SM SKC M01/M07 A2992 RMK SLP152

CYQR;2009-05-03 07:00;CYQR 030700Z 27008KT 15SM SKC M02/M07 A2993 RMK SLP154

CYQR;2009-05-03 08:00;CYQR 030800Z 29003KT 15SM SKC M02/M07 A2993 RMK SLP156

CYQR;2009-05-03 09:00;CYQR 030900Z 24004KT 15SM SKC M04/M08 A2994 RMK SLP159

CYQR;2009-05-03 10:00;CYQR 031000Z 23004KT 15SM SKC M04/M07 A2994 RMK SLP161

CYQR;2009-05-03 11:00;CYQR 031100Z 00000KT 15SM SKC M04/M07 A2994 RMK SLP159

CYQR;2009-05-03 12:00;CYQR 031200Z 00000KT 15SM SKC M05/M07 A2995 RMK SLP165

CYQR;2009-05-03 13:00;CYQR 031300Z 25002KT 15SM SKC M00/M05 A2996 RMK SLP168

CYQR;2009-05-03 14:00;CYQR 031400Z 25003KT 15SM SKC 07/M03 A2997 RMK SLP171

CYQR;2009-05-03 15:00;CYQR 031500Z 27004KT 15SM SKC 11/M02 A2996 RMK SLP164

CYQR;2009-05-03 16:00;CYQR 031600Z 21007KT 15SM SKC 14/M03 A2996 RMK SLP162

CYQR;2009-05-03 17:00;CYQR 031700Z 19010KT 15SM SKC 14/M04 A2995 RMK SLP159

CYQR;2009-05-03 18:00;CYQR 031800Z 21010G15KT 15SM FEW300 16/M04 A2993 RMK CI1 CONTRAILS SLP153

CYQR;2009-05-03 19:00;CYQR 031900Z 22008G21KT 15SM FEW300 16/M04 A2991 RMK CI1 CONTRAILS SLP147

CYQR;2009-05-03 20:00;CYQR 032000Z 21014KT 15SM SKC 17/M04 A2989 RMK SLP142

CYQR;2009-05-03 21:00;CYQR 032100Z 19013KT 15SM SKC 18/M04 A2987 RMK SLP134

CYQR;2009-05-03 22:00;CYQR 032200Z 17010G18KT 15SM FEW300 19/M03 A2984 RMK CI1 SLP125

CYQR;2009-05-03 23:00;CYQR 032300Z 20014KT 15SM FEW300 19/M03 A2982 RMK CI0 SLP117

CYQR;2009-05-04 00:00;CYQR 040000Z 18014KT 15SM FEW300 19/M03 A2980 RMK CI0 CONTRAILS SLP110

CYQR;2009-05-04 01:00;CYQR 040100Z 19013KT 15SM FEW300 18/M03 A2979 RMK CI1 SLP105

CYQR;2009-05-04 02:00;CYQR 040200Z 16009KT 15SM BKN300 15/M02 A2977 RMK CI2 SLP100

CYQR;2009-05-04 03:00;CYQR 040300Z 15010KT 15SM FEW300 12/M02 A2977 RMK CI1 SLP092

CYQR;2009-05-04 04:00;CYQR 040400Z 15011KT 15SM FEW300 10/M01 A2977 RMK CI0 SLP093

CYQR;2009-05-04 05:00;CYQR 040500Z 15012KT 15SM FEW300 09/M00 A2976 RMK CI0 SLP091

CYQR;2009-05-04 06:00;CYQR 040600Z 16012KT 15SM SKC 08/M00 A2976 RMK SLP088

CYQR;2009-05-04 07:00;CYQR 040700Z 15012KT 15SM FEW300 07/00 A2975 RMK CI0 SLP086

CYQR;2009-05-04 08:00;CYQR 040800Z 14011KT 15SM FEW085 SCT300 06/00 A2974 RMK AC2CI0 SLP082

CYQR;2009-05-04 09:00;CYQR 040900Z 14011KT 15SM FEW090 SCT300 06/00 A2972 RMK AC1CI0 SLP076

CYQR;2009-05-04 10:00;CYQR 041000Z 14014KT 15SM BKN087 07/00 A2971 RMK AC5 SLP072

CYQR;2009-05-04 11:00;CYQR 041100Z 14014KT 15SM BKN085 BKN096 BKN300 08/00 A2969 RMK AC5AC2CI0 SLP067

CYQR;2009-05-04 11:37;CYQR 041137Z 14013KT 15SM -SHRA BKN064 BKN300 08/ RMK SC6CI1 ACC EMBD

CYQR;2009-05-04 12:00;CYQR 041200Z 14013KT 15SM VCSH BKN064 BKN300 08/01 A2969 RMK SC5CI2 ACC EMBD SLP061

CYQR;2009-05-04 12:12;CYQR 041212Z 15013KT 15SM -SHRA SCT029 BKN043 OVC300 08/ RMK SC3SC3CI1 CVCTV CLD EMBD

CYQR;2009-05-04 12:42;CYQR 041242Z CCA 14012G17KT 15SM VCSH FEW024 BKN040 BKN090 07/ RMK SC1SC6AC1 CVCTV CLD EMBD

CYQR;2009-05-04 13:00;CYQR 041300Z 14012KT 15SM VCSH FEW024 BKN038 OVC090 07/02 A2968 RMK SC1SC6AC1 CVCTV CLD EMBD SLP060

CYQR;2009-05-04 14:00;CYQR 041400Z 14013KT 15SM VCSH FEW064 SCT084 BKN240 BKN300 08/03 A2968 RMK SC2ACC2CI1CI0 SLP059

CYQR;2009-05-04 15:00;CYQR 041500Z 14017KT 15SM FEW066 SCT086 BKN240 11/03 A2966 RMK AC2ACC2CI0 SLP056

CYQR;2009-05-04 16:00;CYQR 041600Z 15015G20KT 15SM BKN079 BKN240 12/04 A2965 RMK AC5CI2 ACC ASOCTD SLP052

CYQR;2009-05-04 17:00;CYQR 041700Z CCA 16011G16KT 15SM BKN077 BKN240 14/04 A2965 RMK AC6CI1 ACC ASOCTD VIRGA SLP052

CYQR;2009-05-04 18:00;CYQR 041800Z 15011KT 15SM FEW067 SCT090 BKN240 OVC300 16/06 A2964 RMK AC2ACC2CI2CI0 SLP047

CYQR;2009-05-04 19:00;CYQR 041900Z 16018KT 15SM FEW067 SCT096 BKN240 OVC300 19/06 A2961 RMK CU2ACC2CI2CI1 VIRGA SLP039

CYQR;2009-05-04 20:00;CYQR 042000Z CCA 19018G24KT 15SM VCSH SCT062 BKN240 21/05 A2960 RMK CU4CI2 TCU EMBD SLP034

CYQR;2009-05-04 21:00;CYQR 042100Z 19014G20KT 15SM VCSH FEW070 SCT085 BKN240 20/02 A2958 RMK CU2AC2CI2 TCU ASOCTD SLP026

CYQR;2009-05-04 22:00;CYQR 042200Z 24014KT 15SM VCSH SCT072 BKN084 BKN250 21/04 A2957 RMK CU3AC2CI2 TCU ASOCTD SLP021

CYQR;2009-05-04 22:07;CYQR 042207Z 24016KT 15SM -SHRA SCT072 BKN084 BKN250 20/ RMK CU3AC2CI2 TCU ASOCTD

CYQR;2009-05-04 23:00;CYQR 042300Z 26014G19KT 10SM -SHRA BKN070CB OVC089 19/06 A2958 RMK CB5ACC3 SLP025

CYQR;2009-05-04 23:42;CYQR 042342Z 32011G17KT 15SM -SHRA BKN082TCU BKN091 BKN240 14/ RMK TCU5ACC1CI1 WND SHFT 2333Z

CYQR;2009-05-05 00:00;CYQR 050000Z 30010G15KT 15SM -SHRA BKN082TCU BKN094 BKN240 15/08 A2958 RMK TCU5ACC1CI1 SLP029

CYQR;2009-05-05 00:25;CYQR 050025Z 28009KT 15SM VCSH SCT058TCU BKN083 BKN240 14/ RMK TCU3ACC2CI2

CYQR;2009-05-05 01:00;CYQR 050100Z 30008KT 15SM VCSH SCT061TCU BKN083 BKN240 14/08 A2959 RMK TCU4ACC2CI1 SLP030

CYQR;2009-05-05 01:55;CYQR 050155Z 01003KT 15SM -SHRA BKN043TCU OVC080 13/ RMK TCU6AC2

CYQR;2009-05-05 02:00;CYQR 050200Z 36004KT 15SM -SHRA BKN043TCU OVC080 13/08 A2958 RMK TCU6AC2 SLP029

CYQR;2009-05-05 03:00;CYQR 050300Z 13006KT 15SM VCSH BKN062 BKN087 12/09 A2959 RMK SC6AC1 TCU EMBD SLP032

CYQR;2009-05-05 03:29;CYQR 050329Z 20008KT 15SM -SHRA BKN062 11/ RMK SC7 CVCTV CLD EMBD

CYQR;2009-05-05 04:00;CYQR 050400Z 20005KT 15SM -SHRA BKN062 11/08 A2959 RMK SC7 CVCTV CLD EMBD SLP033

CYQR;2009-05-05 04:23;CYQR 050423Z 24006KT 15SM VCSH BKN066 10/ RMK AC7

CYQR;2009-05-05 05:00;CYQR 050500Z 20007KT 15SM BKN063 10/08 A2959 RMK SC7 SLP031

CYQR;2009-05-05 06:00;CYQR 050600Z 22006KT 15SM BKN063 10/07 A2959 RMK SC7 SLP028

CYQR;2009-05-05 07:00;CYQR 050700Z 25003KT 15SM BKN063 09/06 A2959 RMK SC7 SLP029

CYQR;2009-05-05 08:00;CYQR 050800Z 36005KT 15SM BKN063 09/05 A2958 RMK SC6 SLP027

CYQR;2009-05-05 09:00;CYQR 050900Z 04003KT 15SM BKN067 07/03 A2957 RMK AC4 SLP020

CYQR;2009-05-05 10:00;CYQR 051000Z 28005KT 15SM FEW078 06/02 A2957 RMK AC2 SLP022

CYQR;2009-05-05 11:00;CYQR 051100Z 26009KT 15SM FEW080 03/M00 A2958 RMK AC1 SLP023

CYQR;2009-05-05 12:00;CYQR 051200Z 25004KT 15SM FEW080 01/M01 A2958 RMK AC1 SLP031

CYQR;2009-05-05 13:00;CYQR 051300Z 26004KT 15SM FEW100 FEW250 03/00 A2958 RMK AC1CI0 SLP033

CYQR;2009-05-05 14:00;CYQR 051400Z 26007KT 15SM FEW100 SCT250 09/01 A2959 RMK AC1CI0 SLP035

CYQR;2009-05-05 15:00;CYQR 051500Z 27004KT 15SM FEW100 BKN250 12/01 A2958 RMK AC1CI3 SLP028

CYQR;2009-05-05 16:00;CYQR 051600Z 25006KT 15SM FEW120 SCT220 OVC280 16/M04 A2958 RMK AC1CS3CI3 SLP027

CYQR;2009-05-05 17:00;CYQR 051700Z 25012KT 15SM FEW120 BKN220 OVC280 17/M03 A2957 RMK AC1CS4CI2 SLP025

CYQR;2009-05-05 18:00;CYQR 051800Z 24007KT 15SM FEW120 BKN280 19/M03 A2955 RMK AC1CI2 SLP015

CYQR;2009-05-05 19:00;CYQR 051900Z 22013G18KT 15SM FEW120 BKN280 20/M04 A2954 RMK AC1CI1 SLP010

CYQR;2009-05-05 20:00;CYQR 052000Z 21008G19KT 15SM FEW120 SCT280 20/M05 A2952 RMK AC1CI2 TR AC SLP003

CYQR;2009-05-05 21:00;CYQR 052100Z 19013G21KT 15SM FEW120 SCT280 21/M04 A2950 RMK AC2CI2 VIRGA SLP997

CYQR;2009-05-05 22:00;CYQR 052200Z 21011G16KT 15SM FEW095 FEW150 BKN280 20/M04 A2949 RMK CU1AC2CI1 SLP992

CYQR;2009-05-05 23:00;CYQR 052300Z 19012G22KT 15SM FEW100 BKN280 21/M02 A2947 RMK CU2CI0 SLP988

CYQR;2009-05-06 00:00;CYQR 060000Z 19011G16KT 15SM SCT100 BKN250 20/M02 A2946 RMK CU4CI0 SLP987

CYQR;2009-05-06 01:00;CYQR 060100Z 19011KT 15SM SCT090 BKN280 21/M01 A2944 RMK CU3CI0 SLP981

CYQR;2009-05-06 02:00;CYQR 060200Z 22008KT 15SM SCT090 BKN280 16/00 A2943 RMK AC3CI0 SH W SLP978

CYQR;2009-05-06 03:00;CYQR 060300Z 20009KT 15SM BKN099 15/01 A2944 RMK AC7 SLP975

CYQR;2009-05-06 04:00;CYQR 060400Z 25008KT 15SM BKN046 15/01 A2945 RMK SC7 SLP979

CYQR;2009-05-06 04:10;CYQR 060410Z 26018KT 15SM -SHRA OVC046 16/ RMK SC8

CYQR;2009-05-06 04:32;CYQR 060432Z 25014KT 15SM BKN052 OVC280 15/ RMK SC6CI1

CYQR;2009-05-06 05:00;CYQR 060500Z 25011KT 15SM SCT052 BKN100 14/01 A2946 RMK SC4AC2 SLP983

CYQR;2009-05-06 06:00;CYQR 060600Z 23014KT 15SM FEW050 SCT088 12/02 A2946 RMK SC2AC2 SLP982

CYQR;2009-05-06 07:00;CYQR 060700Z 23015KT 15SM SKC 10/00 A2946 RMK SLP983

CYQR;2009-05-06 08:00;CYQR 060800Z 24015KT 15SM FEW090 10/M01 A2947 RMK AC1 SLP984

CYQR;2009-05-06 09:00;CYQR 060900Z 24013KT 15SM FEW088 08/M01 A2946 RMK AC2 SLP983

CYQR;2009-05-06 10:00;CYQR 061000Z 24014KT 15SM FEW092 08/M00 A2946 RMK AC2 SLP983

CYQR;2009-05-06 11:00;CYQR 061100Z 24011KT 15SM FEW090 SCT280 07/M00 A2946 RMK AC1CI0 SLP982

CYQR;2009-05-06 12:00;CYQR 061200Z 23014KT 15SM FEW090 SCT280 07/M00 A2946 RMK AC1CI1 TR AC SLP985

CYQR;2009-05-06 13:00;CYQR 061300Z 25016G22KT 15SM FEW090 FEW280 09/00 A2948 RMK AC1CI0 SLP989

CYQR;2009-05-06 14:00;CYQR 061400Z 24020G27KT 15SM FEW100 FEW280 11/01 A2948 RMK AC1CI0 SLP989

CYQR;2009-05-06 15:00;CYQR 061500Z 26021G27KT 15SM FEW100 FEW280 13/01 A2947 RMK AC1CI0 SLP988

CYQR;2009-05-06 16:00;CYQR 061600Z 27020G29KT 15SM FEW046 FEW100 BKN280 13/02 A2947 RMK CF1AC2CI3 SLP987

CYQR;2009-05-06 17:00;CYQR 061700Z 26023KT 15SM BKN050 BKN090 OVC280 15/02 A2945 RMK SC6AC1CI1 CU ASOCTD SLP981

CYQR;2009-05-06 18:00;CYQR 061800Z 28020G27KT 15SM BKN045 BKN090 OVC280 14/04 A2947 RMK SC6AC1CI0 CU ASOCTD SLP988

CYQR;2009-05-06 19:00;CYQR 061900Z 27021G27KT 15SM VCSH BKN042 BKN096 BKN280 17/05 A2944 RMK SC6AC1CI1 TCU EMBD SLP978

CYQR;2009-05-06 19:10;CYQR 061910Z 26024G30KT 15SM TS BKN040 BKN090 OVC280 15/ RMK SC6AC2CI1 CB EMBD

CYQR;2009-05-06 19:14;CYQR 061914Z 29029G36KT 10SM -TSRA BKN040CB OVC090 12/ RMK CB6AC2

CYQR;2009-05-06 19:35;CYQR 061935Z 29017KT 15SM VCSH BKN040TCU BKN095 14/ RETS RMK TCU5AC2 CB CELL S+NW QUAD

CYQR;2009-05-06 20:00;CYQR 062000Z 30033G39KT 15SM VCSH BKN030TCU BKN090 12/05 A2946 RETS RMK TCU6AC1 CB ASOCTD SLP984

CYQR;2009-05-06 20:05;CYQR 062005Z 30024G38KT 15SM -SHRA BKN030TCU BKN090 13/ RETS RMK TCU6AC1 CB ASOCTD

CYQR;2009-05-06 20:34;CYQR 062034Z 33026G32KT 15SM VCSH FEW020 BKN035TCU BKN091 13/ RMK CU1TCU5AC1 CB ASOCTD

CYQR;2009-05-06 21:00;CYQR 062100Z 34027G34KT 8SM VCSH SCT023 BKN038TCU BKN091 12/06 A2951 RMK SC3TCU3AC1 CB ASOCTD PRESRR SLP006

CYQR;2009-05-06 22:00;CYQR 062200Z 34020G28KT 15SM BKN020 BKN035TCU BKN090 10/04 A2954 RMK SC5TCU2AC1 SLP015

CYQR;2009-05-06 23:00;CYQR 062300Z 32017G24KT 15SM BKN021 BKN036 BKN090 09/03 A2958 RMK SC5CU2AC1 SLP027

CYQR;2009-05-07 00:00;CYQR 070000Z 35019KT 15SM FEW020 BKN060 BKN095 BKN280 07/02 A2960 RMK CU2SC3AC2CI0 SLP040

CYQR;2009-05-07 01:00;CYQR 070100Z 34017KT 15SM FEW022 BKN051 BKN095 BKN280 07/02 A2962 RMK CU2SC3AC1CI1 SLP047

CYQR;2009-05-07 02:00;CYQR 070200Z 35015G20KT 15SM FEW020 BKN046 BKN084 BKN280 06/01 A2963 RMK CF2SC3AC1CI2 SLP050

CYQR;2009-05-07 03:00;CYQR 070300Z 35012KT 15SM FEW049 04/M00 A2965 RMK SC2 SLP057

CYQR;2009-05-07 04:00;CYQR 070400Z 36005KT 15SM FEW030 SCT280 02/M01 A2968 RMK SC2CI1 SLP066

CYQR;2009-05-07 05:00;CYQR 070500Z 01011KT 15SM BKN021 03/M00 A2969 RMK SC7 SLP070

CYQR;2009-05-07 06:00;CYQR 070600Z 35008KT 15SM OVC015 03/M01 A2970 RMK SC8 SLP075

CYQR;2009-05-07 06:11;CYQR 070611Z 36009G15KT 15SM OVC013 02/ RMK SC8

CYQR;2009-05-07 07:00;CYQR 070700Z 35010KT 15SM FEW015 FEW280 01/M02 A2971 RMK SC1CI0 SLP076

CYQR;2009-05-07 08:00;CYQR 070800Z 34007KT 15SM BKN013 OVC031 M00/M03 A2973 RMK SC5SC3 SLP083

CYQR;2009-05-07 09:00;CYQR 070900Z 34006KT 15SM SCT012 BKN035 M01/M03 A2974 RMK SC3SC2 SLP089

CYQR;2009-05-07 10:00;CYQR 071000Z 31004KT 15SM FEW037 M03/M05 A2975 RMK SC2 SLP093

CYQR;2009-05-07 11:00;CYQR 071100Z 31008KT 15SM FEW011 M03/M05 A2975 RMK SC1 SLP094

CYQR;2009-05-07 12:00;CYQR 071200Z 28005KT 15SM BKN010 M03/M05 A2976 RMK SC2 SLP102

CYQR;2009-05-07 12:21;CYQR 071221Z 32007KT 15SM FEW012 M03/ RMK SC1

CYQR;2009-05-07 12:46;CYQR 071246Z 33007KT 15SM BKN010 M02/ RMK SC6

CYQR;2009-05-07 13:00;CYQR 071300Z 34010KT 15SM SCT010 M02/M04 A2978 RMK SC2 SLP107

CYQR;2009-05-07 13:33;CYQR 071333Z 34010KT 15SM BKN010 M01/ RMK SC7

CYQR;2009-05-07 14:00;CYQR 071400Z 35009KT 15SM BKN010 M01/M04 A2979 RMK SC7 SLP110

CYQR;2009-05-07 15:00;CYQR 071500Z 32011KT 15SM BKN012 00/M04 A2979 RMK SC6 SLP114

CYQR;2009-05-07 15:31;CYQR 071531Z 01010G15KT 15SM SCT014 BKN100 01/ RMK SC4AC1

CYQR;2009-05-07 16:00;CYQR 071600Z 35012KT 15SM FEW015 SCT120 BKN280 02/M03 A2979 RMK CF2AC1CI0 SLP112

CYQR;2009-05-07 17:00;CYQR 071700Z 34010G15KT 15SM FEW015 FEW120 BKN280 05/M03 A2979 RMK CF2AC1CI1 SLP113

CYQR;2009-05-07 18:00;CYQR 071800Z 35012KT 15SM FEW020 FEW120 BKN280 06/M03 A2979 RMK CF1AC1CI0 SLP110

CYQR;2009-05-07 19:00;CYQR 071900Z 35010KT 15SM FEW020 SCT120 BKN280 06/M03 A2979 RMK SC1AC2CI3 SLP109

CYQR;2009-05-07 20:00;CYQR 072000Z 01014KT 15SM FEW020 SCT120 BKN280 07/M03 A2979 RMK SC1AC2CI3 SLP108

CYQR;2009-05-07 21:00;CYQR 072100Z 36007G17KT 15SM FEW020 SCT120 BKN280 07/M03 A2978 RMK SC1AC2CI2 SLP108

CYQR;2009-05-07 22:00;CYQR 072200Z 01014KT 15SM SCT120 BKN280 08/M02 A2978 RMK AC3CI1 SLP108

CYQR;2009-05-07 23:00;CYQR 072300Z 02012G18KT 15SM SCT120 BKN280 07/M03 A2979 RMK AC2CI2 SLP110

CYQR;2009-05-08 00:00;CYQR 080000Z 01015KT 15SM FEW030 FEW120 BKN280 07/M03 A2980 RMK SC1AC2CI2 ACC ASOCTD W SLP117

CYQR;2009-05-08 01:00;CYQR 080100Z 35010KT 15SM FEW120 FEW280 07/M03 A2982 RMK AC1CI1 TR AC SLP123

CYQR;2009-05-08 02:00;CYQR 080200Z 04009KT 15SM FEW120 SCT280 05/M03 A2983 RMK AC1CI1 TR AC SLP125

CYQR;2009-05-08 03:00;CYQR 080300Z 04009KT 15SM FEW280 04/M03 A2984 RMK CI1 SLP128

CYQR;2009-05-08 04:00;CYQR 080400Z 05010KT 15SM FEW280 03/M04 A2985 RMK CI1 SLP132

CYQR;2009-05-08 05:00;CYQR 080500Z 07008KT 15SM FEW280 02/M04 A2986 RMK CI1 SLP135

CYQR;2009-05-08 06:00;CYQR 080600Z 09005KT 15SM FEW280 00/M05 A2987 RMK CI0 SLP139

CYQR;2009-05-08 07:00;CYQR 080700Z 16003KT 15SM FEW280 M04/M07 A2990 RMK CI0 SLP150

CYQR;2009-05-08 08:00;CYQR 080800Z 00000KT 15SM FEW280 M04/M06 A2989 RMK CI0 SLP147

CYQR;2009-05-08 09:00;CYQR 080900Z 35002KT 15SM FEW280 M05/M07 A2990 RMK CI1 SLP152

CYQR;2009-05-08 10:00;CYQR 081000Z 35005KT 15SM BKN049 M03/M06 A2990 RMK SC5 SLP153

CYQR;2009-05-08 11:00;CYQR 081100Z 35004KT 15SM BKN049 M03/M05 A2992 RMK SC7 SLP157

CYQR;2009-05-08 12:00;CYQR 081200Z 02005KT 15SM BKN047 M01/M04 A2993 RMK SC7 SLP157

CYQR;2009-05-08 13:00;CYQR 081300Z 02007KT 8SM BKN047 M00/M04 A2994 RMK SC7 HZ SLP162

CYQR;2009-05-08 13:39;CYQR 081339Z 36006KT 8SM -SN BKN036 OVC060 00/ RMK SC5SC3 HZ

CYQR;2009-05-08 14:00;CYQR 081400Z 01007KT 8SM -SN BKN036 OVC060 00/M04 A2996 RMK SC6SC2 HZ SLP167

CYQR;2009-05-08 15:00;CYQR 081500Z 35009KT 15SM -SN SCT036 OVC050 01/M04 A2997 RMK SC4SC4 SLP174

CYQR;2009-05-08 16:00;CYQR 081600Z 35009KT 15SM -SN SCT019 OVC038 01/M05 A2998 RMK SC4SC4 SLP177

CYQR;2009-05-08 16:37;CYQR 081637Z 36010KT 15SM SCT024 OVC038 02/ RMK SC4SC4

CYQR;2009-05-08 17:00;CYQR 081700Z 35012KT 12SM BKN026 OVC045 03/M05 A2999 RMK SC6SC2 SLP180

CYQR;2009-05-08 18:00;CYQR 081800Z 02013KT 15SM OVC028 03/M05 A3000 RMK SC8 SLP186

CYQR;2009-05-08 19:00;CYQR 081900Z 36012G17KT 15SM OVC028 04/M04 A3001 RMK SC8 SLP189

CYQR;2009-05-08 19:40;CYQR 081940Z 36012KT 12SM -SN OVC030 03/ RMK SC8

CYQR;2009-05-08 20:00;CYQR 082000Z 34012KT 12SM -SN OVC030 03/M05 A3001 RMK SC8 SLP190

CYQR;2009-05-08 20:35;CYQR 082035Z 34011G17KT 3SM -SN BR OVC015 03/ RMK SC8

CYQR;2009-05-08 21:00;CYQR 082100Z 33012G17KT 8SM -SN OVC015 03/M01 A3003 RMK SC8 SLP198

CYQR;2009-05-08 22:00;CYQR 082200Z 36010KT 15SM -SN OVC026 03/M03 A3002 RMK SC8 SLP197

CYQR;2009-05-08 22:53;CYQR 082253Z 36009KT 15SM OVC030 04/ RMK SC8

CYQR;2009-05-08 23:00;CYQR 082300Z 34008KT 15SM OVC030 04/M04 A3003 RMK SC8 SLP198

CYQR;2009-05-09 00:00;CYQR 090000Z 35006KT 15SM BKN032 OVC075 04/M04 A3003 RMK SC6AC2 SLP196

CYQR;2009-05-09 01:00;CYQR 090100Z 03009KT 15SM OVC032 03/M05 A3004 RMK SC8 SLP198

CYQR;2009-05-09 02:00;CYQR 090200Z 01008KT 15SM OVC032 03/M05 A3005 RMK SC8 SLP204

CYQR;2009-05-09 03:00;CYQR 090300Z 01010KT 15SM OVC032 02/M06 A3008 RMK SC8 SLP213

CYQR;2009-05-09 03:47;CYQR 090347Z 36008KT 15SM OVC030 02/ RMK SC8

CYQR;2009-05-09 04:00;CYQR 090400Z 36008KT 15SM OVC030 02/M06 A3009 RMK SC8 SLP216

CYQR;2009-05-09 05:00;CYQR 090500Z 05010KT 15SM OVC032 01/M05 A3009 RMK SC8 SLP217

CYQR;2009-05-09 06:00;CYQR 090600Z 04007KT 15SM OVC034 01/M06 A3010 RMK SC8 SLP221

CYQR;2009-05-09 07:00;CYQR 090700Z 04004KT 15SM OVC034 00/M06 A3011 RMK SC8 SLP224

CYQR;2009-05-09 08:00;CYQR 090800Z 36004KT 15SM BKN034 M01/M06 A3011 RMK SC6 SLP223

CYQR;2009-05-09 09:00;CYQR 090900Z 35004KT 15SM SCT048 BKN077 M03/M06 A3012 RMK SC3AC2 SLP229

CYQR;2009-05-09 10:00;CYQR 091000Z 33004KT 15SM SCT047 BKN061 M02/M05 A3013 RMK SC3SC2 SLP231

CYQR;2009-05-09 11:00;CYQR 091100Z 32002KT 15SM FEW030 SCT047 BKN069 M02/M06 A3014 RMK SC1SC2AC2 SLP234

CYQR;2009-05-09 12:00;CYQR 091200Z 34005KT 12SM FEW030 FEW073 BKN280 M05/M08 A3014 RMK SC1AC2CI1 HZ SLP238

CYQR;2009-05-09 13:00;CYQR 091300Z 34005KT 12SM FEW030 BKN088 M03/M06 A3015 RMK SC2AC2 HZ SLP241

CYQR;2009-05-09 14:00;CYQR 091400Z 34005KT 12SM FEW030 BKN099 M01/M05 A3017 RMK SC1AC5 HZ SLP246

CYQR;2009-05-09 15:00;CYQR 091500Z 01006KT 15SM FEW030 BKN110 02/M04 A3017 RMK CF1AC6 SLP243

CYQR;2009-05-09 16:00;CYQR 091600Z 34006KT 15SM FEW030 BKN110 BKN210 03/M05 A3017 RMK SC2AC3CC1 SLP243

CYQR;2009-05-09 17:00;CYQR 091700Z 34002KT 15SM FEW030 FEW095 BKN210 OVC300 04/M04 A3017 RMK CF1AC1CI2CI1 SLP244

CYQR;2009-05-09 18:00;CYQR 091800Z 03005KT 15SM FEW035 FEW095 SCT210 OVC300 06/M04 A3017 RMK CF1AC1CI2CI3 SLP242

CYQR;2009-05-09 19:00;CYQR 091900Z 02006KT 15SM FEW040 FEW210 OVC300 08/M03 A3016 RMK SC1CI1CI2 SLP238

CYQR;2009-05-09 20:00;CYQR 092000Z 01003KT 15SM FEW040 FEW210 09/M03 A3014 RMK CF1CI1 SLP234

CYQR;2009-05-09 21:00;CYQR 092100Z 33010KT 15SM FEW040 FEW210 11/M03 A3014 RMK CF1CI1 SLP229

CYQR;2009-05-09 22:00;CYQR 092200Z 34006KT 15SM FEW040 FEW210 11/M03 A3013 RMK CF1CI1 SLP226

CYQR;2009-05-09 23:00;CYQR 092300Z 35006KT 15SM FEW150 BKN210 11/M04 A3012 RMK AC2CI2 SLP223

CYQR;2009-05-10 00:00;CYQR 100000Z 34009KT 15SM SCT067 BKN089 BKN210 12/M04 A3012 RMK AC3AC2CI1 SLP223

CYQR;2009-05-10 01:00;CYQR 100100Z 35006KT 15SM SCT067 BKN210 11/M06 A3012 RMK AC4CI2 SLP223

CYQR;2009-05-10 02:00;CYQR 100200Z 35005KT 15SM FEW065 FEW082 FEW210 09/M04 A3012 RMK SC1AC2CI0 SLP225

CYQR;2009-05-10 03:00;CYQR 100300Z 01002KT 15SM FEW065 FEW082 08/M06 A3014 RMK SC1AC2 SLP227

CYQR;2009-05-10 04:00;CYQR 100400Z 05004KT 15SM FEW086 06/M06 A3014 RMK AC2 SLP227

CYQR;2009-05-10 05:00;CYQR 100500Z 16002KT 15SM SCT062 BKN084 06/M05 A3014 RMK SC2AC3 SLP228

CYQR;2009-05-10 06:00;CYQR 100600Z 17005KT 15SM SCT069 04/M05 A3014 RMK AC3 SLP229

CYQR;2009-05-10 07:00;CYQR 100700Z 13003KT 15SM SCT060 BKN085 04/M05 A3014 RMK SC3AC2 SLP230

CYQR;2009-05-10 08:00;CYQR 100800Z 11005KT 15SM FEW060 BKN092 02/M03 A3014 RMK SC2AC4 SLP230

CYQR;2009-05-10 09:00;CYQR 100900Z 09005KT 15SM FEW056 SCT088 01/M03 A3014 RMK SC1AC2 SLP226

CYQR;2009-05-10 10:00;CYQR 101000Z 08006KT 15SM FEW056 FEW079 00/M03 A3014 RMK SC1AC1 TR SC SLP226

CYQR;2009-05-10 11:00;CYQR 101100Z 10005KT 15SM FEW049 FEW210 M00/M03 A3014 RMK SC1CI1 TR SC SLP226

CYQR;2009-05-10 12:00;CYQR 101200Z 13004KT 15SM FEW049 FEW210 M00/M03 A3014 RMK SC1CI0 SLP228

CYQR;2009-05-10 13:00;CYQR 101300Z 07002KT 15SM SKC 04/M00 A3014 RMK SLP229

CYQR;2009-05-10 14:00;CYQR 101400Z 03002KT 15SM SKC 08/01 A3015 RMK SLP230

CYQR;2009-05-10 15:00;CYQR 101500Z 03007KT 15SM SKC 11/M03 A3015 RMK SLP225

CYQR;2009-05-10 16:00;CYQR 101600Z 05006KT 15SM SKC 12/M03 A3014 RMK SLP224

CYQR;2009-05-10 17:00;CYQR 101700Z 35007KT 15SM SKC 13/M03 A3014 RMK SLP222

CYQR;2009-05-10 18:00;CYQR 101800Z 34008KT 15SM FEW065 14/M03 A3013 RMK SC1 SLP220

CYQR;2009-05-10 19:00;CYQR 101900Z 36009G17KT 15SM FEW070 16/M02 A3012 RMK CF1 SLP216

CYQR;2009-05-10 20:00;CYQR 102000Z 36005KT 15SM FEW078 FEW089 15/M03 A3010 RMK CU1AC1 SLP211

CYQR;2009-05-10 21:00;CYQR 102100Z 36008KT 15SM FEW080 FEW095 16/M03 A3009 RMK CU1AC1 SLP205

CYQR;2009-05-10 22:00;CYQR 102200Z 32007KT 15SM FEW082 FEW300 16/M03 A3007 RMK CU1CI1 SLP200

CYQR;2009-05-10 23:00;CYQR 102300Z 26004KT 15SM FEW082 FEW300 16/M04 A3007 RMK AC1CI1 SLP199

CYQR;2009-05-11 00:00;CYQR 110000Z 01004KT 15SM FEW082 FEW300 16/M04 A3006 RMK AC1CI1 SLP197

CYQR;2009-05-11 01:00;CYQR 110100Z 29005KT 15SM FEW082 FEW300 16/M04 A3005 RMK AC1CI1 SLP194

CYQR;2009-05-11 02:00;CYQR 110200Z 33004KT 15SM FEW080 FEW300 13/M03 A3004 RMK ACC1CI1 SLP193

CYQR;2009-05-11 03:00;CYQR 110300Z 04002KT 15SM FEW080 FEW300 11/M05 A3005 RMK ACC1CI1 SLP189

CYQR;2009-05-11 04:00;CYQR 110400Z 09003KT 15SM SKC 10/M05 A3004 RMK SLP188

CYQR;2009-05-11 05:00;CYQR 110500Z 10005KT 15SM SKC 08/M04 A3004 RMK SLP186

CYQR;2009-05-11 06:00;CYQR 110600Z 12005KT 15SM SKC 06/M04 A3003 RMK SLP184

CYQR;2009-05-11 07:00;CYQR 110700Z 13006KT 15SM FEW080 03/M05 A3002 RMK AC1 SLP180

CYQR;2009-05-11 08:00;CYQR 110800Z 17005KT 15SM FEW010 SCT089 01/M06 A3001 RMK ST1AC2 SLP178

CYQR;2009-05-11 09:00;CYQR 110900Z 16006KT 8SM SCT082 03/M04 A3000 RMK AC2 FU SLP175

CYQR;2009-05-11 10:00;CYQR 111000Z 14004KT 4SM FU FEW082 02/M05 A2999 RMK AC1 SLP171

CYQR;2009-05-11 11:00;CYQR 111100Z 11007KT 6SM FU FEW082 02/M04 A2997 RMK AC1 SLP166

CYQR;2009-05-11 12:00;CYQR 111200Z 12005KT 15SM FEW082 01/M04 A2996 RMK AC1 FU SLP163

CYQR;2009-05-11 13:00;CYQR 111300Z 14005KT 12SM SKC 06/M01 A2996 RMK FU SLP162

CYQR;2009-05-11 14:00;CYQR 111400Z 16005KT 15SM SKC 09/00 A2994 RMK SLP158

CYQR;2009-05-11 15:00;CYQR 111500Z 17003KT 15SM FEW080 13/02 A2992 RMK AC1 SLP145

CYQR;2009-05-11 16:00;CYQR 111600Z 23004KT 15SM FEW050 16/02 A2990 RMK CF1 SLP138

CYQR;2009-05-11 17:00;CYQR 111700Z 15004KT 15SM SCT066 17/02 A2988 RMK CU3 SLP132

CYQR;2009-05-11 18:00;CYQR 111800Z 17007G16KT 15SM BKN066 19/02 A2986 RMK CU6 SLP123

CYQR;2009-05-11 19:00;CYQR 111900Z 21013KT 15SM BKN076 18/01 A2984 RMK CU6 SLP115

CYQR;2009-05-11 20:00;CYQR 112000Z 22013G18KT 15SM BKN076 BKN093 20/01 A2981 RMK CU6AC1 VIRGA SLP108

CYQR;2009-05-11 21:00;CYQR 112100Z 22011G19KT 15SM BKN085 BKN250 20/00 A2979 RMK CU5CI1 VIRGA SLP101

CYQR;2009-05-11 22:00;CYQR 112200Z 16008KT 15SM SCT086 BKN250 19/M01 A2976 RMK CU3CI3 VIRGA SLP091

CYQR;2009-05-11 23:00;CYQR 112300Z 23004KT 15SM SCT089 BKN096 BKN230 BKN280 19/M01 A2974 RMK CU3AC2CI2CI0 TCU ASOCTD VIRGA SLP085

CYQR;2009-05-12 00:00;CYQR 120000Z 21004KT 15SM SCT091TCU BKN230 18/M01 A2974 RMK TCU4CI2 VIRGA SLP083

CYQR;2009-05-12 00:30;CYQR 120030Z 16015G20KT 15SM -SHRA BKN087TCU BKN230 18/ RMK TCU5CI2

CYQR;2009-05-12 01:00;CYQR 120100Z 17005G17KT 15SM VCSH SCT067TCU BKN230 16/03 A2973 RMK TCU4CI3 SLP081

CYQR;2009-05-12 02:00;CYQR 120200Z 01002KT 15SM VCSH FEW061TCU SCT083 BKN100 BKN230 15/03 A2970 RMK TCU2ACC2AC2CI1 SLP073

CYQR;2009-05-12 03:00;CYQR 120300Z 12004KT 15SM VCSH SCT094 BKN110 BKN230 14/03 A2969 RMK ACC3AC2CI2 SLP065

CYQR;2009-05-12 04:00;CYQR 120400Z 22010KT 15SM OVC058 14/02 A2970 RMK SC8 SLP067

CYQR;2009-05-12 05:00;CYQR 120500Z 16005KT 15SM -SHRA OVC045 13/04 A2969 RMK SC8 SLP063

CYQR;2009-05-12 05:36;CYQR 120536Z 15007KT 15SM OVC045 13/ RMK SC8

CYQR;2009-05-12 06:00;CYQR 120600Z 14008KT 15SM FEW045 BKN071 BKN099 12/03 A2966 RMK SC2AC2AC2 SLP051

CYQR;2009-05-12 07:00;CYQR 120700Z 16006KT 15SM BKN067 12/03 A2965 RMK AC7 SLP046

CYQR;2009-05-12 07:47;CYQR 120747Z 16008KT 15SM -SHRA OVC030 11/ RMK SC8

CYQR;2009-05-12 08:00;CYQR 120800Z 16009KT 15SM OVC030 11/04 A2964 RMK SC8 SLP042

CYQR;2009-05-12 08:18;CYQR 120818Z 16011KT 15SM OVC030 12/ RMK SC8

CYQR;2009-05-12 09:00;CYQR 120900Z 16011KT 15SM SCT042 BKN071 10/04 A2962 RMK SC3AC2 SLP038

CYQR;2009-05-12 10:00;CYQR 121000Z 17008KT 15SM FEW075 08/04 A2961 RMK ACC2 CB TOP DSNT N SLP034

CYQR;2009-05-12 11:00;CYQR 121100Z 16009KT 15SM FEW077 FEW250 07/04 A2959 RMK ACC1CI1 CB TOP DSNT NNW SLP027

CYQR;2009-05-12 12:00;CYQR 121200Z 35007KT 15SM FEW080 SCT250 07/04 A2959 RMK ACC2CI1 SLP028

CYQR;2009-05-12 13:00;CYQR 121300Z 13008KT 15SM FEW080 SCT250 08/05 A2957 RMK ACC1CI0 CB TOP N SLP022

CYQR;2009-05-12 14:00;CYQR 121400Z 16010KT 15SM FEW080 BKN250 11/06 A2954 RMK ACC2CI1 CB TOP N SLP015

CYQR;2009-05-12 15:00;CYQR 121500Z 20010KT 15SM BKN075 BKN250 13/06 A2952 RMK ACC5CI1 VIRGA SLP003

CYQR;2009-05-12 16:00;CYQR 121600Z 22014KT 15SM FEW051TCU SCT070CB BKN085 BKN240 BKN300 15/06 A2949 RMK TCU2CB2ACC2CI1CI0 VIRGA SLP996

CYQR;2009-05-12 17:00;CYQR 121700Z 21010KT 15SM SCT063TCU BKN095 BKN240 17/06 A2948 RMK TCU3AC2CI0 CB EMBD VIRGA SLP991

CYQR;2009-05-12 18:00;CYQR 121800Z 18011G18KT 15SM FEW045 FEW240 17/05 A2946 RMK CU1CI1 SLP981

CYQR;2009-05-12 19:00;CYQR 121900Z 24009KT 15SM FEW051 SCT093 BKN280 19/04 A2942 RMK CU2AC2CI1 CB TOPS E SLP968

CYQR;2009-05-12 20:00;CYQR 122000Z 23008KT 15SM SCT064 BKN280 20/03 A2940 RMK CU3CI1 SLP962

CYQR;2009-05-12 21:00;CYQR 122100Z 20008G15KT 15SM SCT069 BKN280 20/02 A2937 RMK CU3CI1 SLP951

CYQR;2009-05-12 22:00;CYQR 122200Z 27011G22KT 15SM FEW070 BKN240 OVC300 21/00 A2934 RMK CU2CI2CI0 SLP941

CYQR;2009-05-12 23:00;CYQR 122300Z 24016KT 15SM FEW090 BKN240 21/M01 A2933 RMK CU2CI2 SLP938

CYQR;2009-05-13 00:00;CYQR 130000Z 27012G24KT 15SM FEW097 BKN240 21/M02 A2932 RMK CU1CI2 SLP934

CYQR;2009-05-13 01:00;CYQR 130100Z 25010G15KT 15SM FEW097 BKN240 19/M03 A2931 RMK AC1CI2 SLP933

CYQR;2009-05-13 02:00;CYQR 130200Z 24008KT 15SM FEW100 BKN240 15/M03 A2931 RMK AC1CI2 VIRGA SLP931

CYQR;2009-05-13 03:00;CYQR 130300Z 22010KT 15SM FEW100 BKN240 12/M03 A2930 RMK AC2CI2 SLP930

CYQR;2009-05-13 04:00;CYQR 130400Z 24010KT 15SM BKN098 BKN240 13/M01 A2930 RMK AC6CI0 SLP931

CYQR;2009-05-13 05:00;CYQR 130500Z 28013KT 15SM SCT091 BKN240 11/M01 A2930 RMK AC3CI1 SLP931

CYQR;2009-05-13 06:00;CYQR 130600Z 28019G24KT 15SM FEW084 BKN240 11/01 A2932 RMK AC2CI2 SLP935

CYQR;2009-05-13 07:00;CYQR 130700Z 28021KT 15SM SCT097 BKN240 11/04 A2931 RMK AC2CI1 SLP932

CYQR;2009-05-13 08:00;CYQR 130800Z 29019G25KT 15SM SCT100 BKN240 10/05 A2931 RMK AC4CI2 SLP932

CYQR;2009-05-13 09:00;CYQR 130900Z 29022G30KT 15SM SCT066 BKN240 09/05 A2931 RMK AC3CI2 SLP932

CYQR;2009-05-13 10:00;CYQR 131000Z 30016KT 15SM SCT066 BKN240 08/04 A2932 RMK AC3CI2 SLP935

CYQR;2009-05-13 10:55;CYQR 131055Z 32023G30KT 15SM BKN013 BKN240 09/ RMK SC6CI2 CIG RAG

CYQR;2009-05-13 11:00;CYQR 131100Z 32021G30KT 15SM BKN013 BKN240 09/06 A2934 RMK SC6CI2 CIG RAG SLP940

CYQR;2009-05-13 12:00;CYQR 131200Z 33024G30KT 15SM BKN013 OVC240 09/06 A2935 RMK SC7CI1 CIG RAG SLP946

CYQR;2009-05-13 12:08;CYQR 131208Z 32022G29KT 15SM FEW009 BKN013 OVC240 09/ RMK SF1SC7CI1

CYQR;2009-05-13 12:18;CYQR 131218Z 31024G30KT 15SM BKN007 OVC240 07/ RMK SC7CI1 CIG RAG

CYQR;2009-05-13 12:34;CYQR 131234Z 32021G28KT 15SM -RA BKN005 BKN008 OVC240 07/ RMK SC5SC2CI1

CYQR;2009-05-13 13:00;CYQR 131300Z 34019G27KT 8SM -RA OVC005 07/06 A2942 RMK SC8 CIG RAG SLP966

CYQR;2009-05-13 13:28;CYQR 131328Z 35026G38KT 2 1/2SM -RA BR OVC003 05/ RMK ST8

CYQR;2009-05-13 13:50;CYQR 131350Z 35025G33KT 3SM -RA BR BKN004 OVC030 03/ RMK SF7SC1

CYQR;2009-05-13 14:00;CYQR 131400Z 35026G33KT 8SM -RA BKN004 OVC025 03/01 A2948 RMK SF6SC2 PRESRR SLP987

CYQR;2009-05-13 14:13;CYQR 131413Z 35026G32KT 1 1/2SM SHRA BR BKN007 OVC033 01/ RMK SF6SC2

CYQR;2009-05-13 14:31;CYQR 131431Z 35024G31KT 1 1/2SM +SHRA OVC010 01/ RMK FG1SC7

CYQR;2009-05-13 14:37;CYQR 131437Z 35021G31KT 1SM R13/P6000FT/U +SHRAPLSN OVC009 00/ RMK FG1SC7

CYQR;2009-05-13 14:40;CYQR 131440Z CCA 35021G31KT 1SM R13/P6000FT/U +SHRAPLSN BR OVC009 00/ RMK FG1SC7

CYQR;2009-05-13 14:46;CYQR 131446Z 34024KT 1SM R13/P6000FT/D -SHRASN BKN006 OVC048 00/ RERA RMK SN1SF6SC2

CYQR;2009-05-13 15:00;CYQR 131500Z 35021G27KT 3SM -SHSN SCT006 OVC048 00/00 A2955 RERA RMK SF3SC5 SLP026

CYQR;2009-05-13 15:20;CYQR 131520Z 35020G25KT 2 1/2SM -SHRASN BKN005 OVC050 01/ RMK SF6SC2

CYQR;2009-05-13 15:38;CYQR 131538Z 35024G29KT 8SM SCT005 OVC012 01/ RMK SF4SC4

CYQR;2009-05-13 16:00;CYQR 131600Z 35025G34KT 15SM FEW005 OVC012 01/00 A2959 RMK SF2SC6 SLP038

CYQR;2009-05-13 17:00;CYQR 131700Z 34023G33KT 12SM BKN007 OVC012 01/01 A2964 RMK SF5SC3 SLP053

CYQR;2009-05-13 18:00;CYQR 131800Z 34021G30KT 15SM OVC011 01/01 A2970 RMK SC8 PRESRR SLP077

CYQR;2009-05-13 19:00;CYQR 131900Z 33028G34KT 15SM OVC014 01/01 A2974 RMK SC8 SLP089

CYQR;2009-05-13 20:00;CYQR 132000Z 33026G36KT 15SM BKN018 OVC090 02/02 A2977 RMK SC7AC1 SLP100

CYQR;2009-05-13 21:00;CYQR 132100Z 32025G33KT 15SM BKN024 OVC091 04/01 A2980 RMK SC7AC1 SLP109

CYQR;2009-05-13 22:00;CYQR 132200Z 32024G31KT 15SM OVC028 04/M00 A2983 RMK SC8 SLP118

CYQR;2009-05-13 23:00;CYQR 132300Z 33020G27KT 15SM BKN030 05/M02 A2984 RMK SC7 SLP122

CYQR;2009-05-14 00:00;CYQR 140000Z 33023G29KT 15SM SCT036 BKN260 06/01 A2986 RMK SC3CI0 SLP128

CYQR;2009-05-14 01:00;CYQR 140100Z 34018G26KT 15SM FEW038 06/01 A2988 RMK SC2 SLP135

CYQR;2009-05-14 02:00;CYQR 140200Z 34013KT 15SM FEW100 05/01 A2989 RMK AC2 SLP140

CYQR;2009-05-14 03:00;CYQR 140300Z 34006KT 15SM FEW240 01/M05 A2992 RMK CI2 OBS TKN +02 SLP160

CYQR;2009-05-14 04:00;CYQR 140400Z 35003KT 15SM FEW240 M01/M04 A2994 RMK CI2 OBS TKN -04 SLP166

CYQR;2009-05-14 05:00;CYQR 140500Z 06008KT 15SM FEW240 00/M00 A2994 RMK CI2 SLP166

CYQR;2009-05-14 06:00;CYQR 140600Z 07009KT 15SM FEW240 M00/M01 A2993 RMK CI2 SLP164

CYQR;2009-05-14 07:00;CYQR 140700Z 10008KT 15SM FEW240 M02/M03 A2994 RMK CI0 SLP168

CYQR;2009-05-14 08:00;CYQR 140800Z 14006KT 15SM FEW240 M04/M04 A2994 RMK CI2 SLP166

CYQR;2009-05-14 09:00;CYQR 140900Z 15006KT 15SM FEW240 M03/M04 A2994 RMK CI2 SLP165

CYQR;2009-05-14 10:00;CYQR 141000Z CCA 15007KT 15SM FEW240 M03/M04 A2993 RMK CI2 FROIN SLP162

CYQR;2009-05-14 11:00;CYQR 141100Z 14009KT 15SM FEW110 SCT240 M03/M05 A2991 RMK AC1CI2 SLP158

CYQR;2009-05-14 12:00;CYQR 141200Z 16010KT 15SM SCT093 SCT240 M03/M04 A2992 RMK AC1CI2 SLP158

CYQR;2009-05-14 13:00;CYQR 141300Z 15010KT 15SM FEW070 SCT130 OVC260 M01/M02 A2993 RMK AC2AC2CI2 ACC EMBD VIRGA SLP161

CYQR;2009-05-14 14:00;CYQR 141400Z 13016KT 15SM SCT050 BKN093 OVC260 00/ A2990 RMK SC3AC4CI1 SLP151

CYQR;2009-05-14 15:00;CYQR 141500Z 13019KT 15SM FEW035 OVC068 01/M00 A2988 RMK SC2AC6 SLP146

CYQR;2009-05-14 16:00;CYQR 141600Z 14017G24KT 15SM FEW040 OVC066 03/ A2987 RMK SC2AC6 SLP143

CYQR;2009-05-14 17:00;CYQR 141700Z 14019G24KT 15SM FEW043 OVC099 04/ A2984 RMK SC2AS6 SLP134

CYQR;2009-05-14 17:26;CYQR 141726Z 14017G22KT 15SM -SN BKN020 OVC037 04/ RMK SC5SC3

CYQR;2009-05-14 18:00;CYQR 141800Z 13016G21KT 15SM -SN BKN023 OVC045 05/ A2981 RMK SC6SC2 SLP120

CYQR;2009-05-14 18:52;CYQR 141852Z 13020G25KT 15SM BKN020 OVC034 07/ RMK SC5SC3

CYQR;2009-05-14 19:00;CYQR 141900Z 14021KT 15SM BKN020 OVC034 07/ A2978 RMK SC5SC3 SLP109

CYQR;2009-05-14 20:00;CYQR 142000Z 14022G29KT 15SM FEW020 OVC046 09/ A2977 RMK SC2SC6 SLP105

CYQR;2009-05-14 21:00;CYQR 142100Z 15020KT 15SM BKN024 OVC045 09/ A2976 RMK SC5SC3 SLP103

CYQR;2009-05-14 22:00;CYQR 142200Z 13022G27KT 15SM SCT025 OVC040 10/M01 A2973 RMK SC3SC5 SLP093

CYQR;2009-05-14 23:00;CYQR 142300Z 12021G29KT 15SM FEW045 BKN085 10/M02 A2969 RMK SC2AC4 SLP081

CYQR;2009-05-15 00:00;CYQR 150000Z 11022G29KT 15SM SCT045 BKN081 OVC250 09/M02 A2968 RMK SC3AC2CI2 SLP073

CYQR;2009-05-15 01:00;CYQR 150100Z 12021G29KT 15SM SCT062 OVC078 08/M03 A2968 RMK SC3AC5 SLP072

CYQR;2009-05-15 01:27;CYQR 150127Z 12020G26KT 10SM -RA SCT029 BKN043 OVC068 08/ RMK SC4SC3AC1 CIG RAG

CYQR;2009-05-15 02:00;CYQR 150200Z 10017G24KT 15SM -SHRA SCT029 OVC037 07/M01 A2969 RMK SC4SC4 CIG RAG SLP078

CYQR;2009-05-15 03:00;CYQR 150300Z 09014G21KT 15SM -SHRA BKN038 OVC063 05/00 A2970 RMK SC6SC2 SLP079

CYQR;2009-05-15 03:30;CYQR 150330Z 07016KT 15SM BKN045 OVC071 05/ RMK SC6AC2

CYQR;2009-05-15 03:52;CYQR 150352Z 08016G21KT 10SM -SHRA BKN045 OVC080 04/ RMK SC5AC3

CYQR;2009-05-15 04:00;CYQR 150400Z 08016G21KT 10SM -SHRA BKN045 OVC080 04/M00 A2970 RMK SC5AC3 SLP079

CYQR;2009-05-15 04:50;CYQR 150450Z 06015KT 10SM BKN045 OVC059 04/ RMK SC6SC1

CYQR;2009-05-15 05:00;CYQR 150500Z 05011G22KT 10SM FEW010 SCT045 BKN063 BKN250 03/00 A2973 RMK SF1SC3SC2CI0 SLP088

CYQR;2009-05-15 06:00;CYQR 150600Z 04016G22KT 10SM BKN012 OVC045 03/01 A2976 RMK SF5SC3 SLP099

CYQR;2009-05-15 06:25;CYQR 150625Z 04014G25KT 10SM OVC009 03/ RMK SF8

CYQR;2009-05-15 07:00;CYQR 150700Z 06017G26KT 8SM BKN010 OVC025 03/00 A2979 RMK SF6SC2 SLP109

CYQR;2009-05-15 07:34;CYQR 150734Z 08015KT 8SM OVC031 03/ RMK SC8

CYQR;2009-05-15 08:00;CYQR 150800Z 05011KT 10SM -DZ SCT014 OVC029 03/00 A2982 RMK SC3SC5 SLP118

CYQR;2009-05-15 08:52;CYQR 150852Z 35011KT 7SM -SHSN OVC005 02/ RMK SF8

CYQR;2009-05-15 09:00;CYQR 150900Z 36014KT 7SM -SN OVC005 01/M00 A2986 RMK SF8 SLP132

CYQR;2009-05-15 09:41;CYQR 150941Z 01012G17KT 7SM -SN OVC007 01/ RMK SF8

CYQR;2009-05-15 10:00;CYQR 151000Z 01012KT 7SM -SN OVC007 01/M01 A2989 RMK SF8 SLP142

CYQR;2009-05-15 11:00;CYQR 151100Z 01013G18KT 7SM -SN OVC007 OVC024 00/M02 A2994 RMK SF7SC1 PRESRR SLP158

CYQR;2009-05-15 11:56;CYQR 151156Z 01009G16KT 2SM -SN OVC008 M00/ RMK SN2SF6

CYQR;2009-05-15 12:00;CYQR 151200Z 01011KT 2 1/2SM -SN OVC007 M00/M02 A2998 RMK SN1SF7 PRESRR SLP175

CYQR;2009-05-15 12:19;CYQR 151219Z 36013KT 4SM -SN BKN008 OVC020 M00/ RMK SF6SC2 PRESRR

CYQR;2009-05-15 13:00;CYQR 151300Z 36015G21KT 8SM -SN OVC007 M00/M03 A3003 RMK SC8 SLP190

CYQR;2009-05-15 14:00;CYQR 151400Z 36013KT 7SM -SN OVC008 00/M02 A3006 RMK SC8 SLP200

CYQR;2009-05-15 14:23;CYQR 151423Z 36017KT 15SM OVC009 00/ RMK SC8

CYQR;2009-05-15 14:33;CYQR 151433Z 36014G21KT 15SM OVC010 00/ RMK SC8

CYQR;2009-05-15 15:00;CYQR 151500Z 35019KT 15SM OVC012 01/M02 A3009 RMK SC8 SLP215

CYQR;2009-05-15 16:00;CYQR 151600Z 01016KT 15SM OVC012 01/M02 A3012 RMK SC8 SLP223

CYQR;2009-05-15 17:00;CYQR 151700Z 36016KT 15SM OVC016 02/M03 A3014 RMK SC8 SLP232

CYQR;2009-05-15 18:00;CYQR 151800Z 36018G24KT 15SM BKN027 04/M05 A3016 RMK SC6 SLP238

CYQR;2009-05-15 19:00;CYQR 151900Z 01019G26KT 15SM BKN033 05/M05 A3017 RMK SC6 SLP241

CYQR;2009-05-15 20:00;CYQR 152000Z 34018G26KT 15SM BKN033 06/M05 A3019 RMK SC6 SLP247

CYQR;2009-05-15 21:00;CYQR 152100Z 01013G20KT 15SM FEW047 FEW300 06/M06 A3021 RMK CU2CI0 SLP256

CYQR;2009-05-15 22:00;CYQR 152200Z 36010G21KT 15SM FEW052 BKN300 06/M07 A3022 RMK CU2CI1 SLP258

CYQR;2009-05-15 23:00;CYQR 152300Z 35012KT 15SM FEW052 FEW300 08/M07 A3022 RMK CU2CI0 SLP258

CYQR;2009-05-16 00:00;CYQR 160000Z 34010KT 15SM FEW060 07/M07 A3022 RMK CF1 SLP259

CYQR;2009-05-16 01:00;CYQR 160100Z 34006KT 15SM SKC 07/M07 A3023 RMK SLP261

CYQR;2009-05-16 02:00;CYQR 160200Z 34006KT 15SM SKC 06/M07 A3024 RMK SLP265

CYQR;2009-05-16 03:00;CYQR 160300Z 34004KT 15SM FEW100 03/M07 A3025 RMK AC1 SLP271

CYQR;2009-05-16 04:00;CYQR 160400Z 25003KT 15SM FEW100 M01/M08 A3027 RMK AC1 SLP276

CYQR;2009-05-16 05:00;CYQR 160500Z 16007KT 15SM FEW100 M01/M08 A3027 RMK AC1 SLP276

CYQR;2009-05-16 06:00;CYQR 160600Z 17009KT 15SM SKC M02/M08 A3026 RMK SLP276

CYQR;2009-05-16 07:00;CYQR 160700Z 17009KT 15SM FEW100 M01/M07 A3026 RMK AC1 SLP276

CYQR;2009-05-16 08:00;CYQR 160800Z 18011KT 15SM FEW079 SCT092 M01/M06 A3026 RMK AC2AC2 SLP274

CYQR;2009-05-16 09:00;CYQR 160900Z 18010KT 15SM FEW074 M02/M06 A3024 RMK AC2 SLP269

CYQR;2009-05-16 10:00;CYQR 161000Z 18009KT 15SM SCT082 M02/M06 A3024 RMK AC3 SLP269

CYQR;2009-05-16 11:00;CYQR 161100Z 18011KT 15SM BKN060 M01/M05 A3023 RMK SC5 SLP264

CYQR;2009-05-16 12:00;CYQR 161200Z 17010KT 15SM SCT065 BKN097 M00/M05 A3023 RMK SC4AC2 SLP264

CYQR;2009-05-16 13:00;CYQR 161300Z 18007KT 15SM FEW065 BKN300 01/M04 A3024 RMK SC2CI1 SLP265

CYQR;2009-05-16 14:00;CYQR 161400Z 20006KT 15SM FEW065 BKN300 05/M03 A3024 RMK SC1CI2 SLP265

CYQR;2009-05-16 15:00;CYQR 161500Z 24010KT 15SM FEW065 BKN300 10/M01 A3022 RMK SC1CI2 SLP255

CYQR;2009-05-16 16:00;CYQR 161600Z 25011KT 15SM BKN300 12/M01 A3020 RMK CI1 SLP248

CYQR;2009-05-16 17:00;CYQR 161700Z 26011KT 15SM FEW055 BKN300 14/00 A3018 RMK CU1CI1 SLP242

CYQR;2009-05-16 18:00;CYQR 161800Z 26010G16KT 15SM FEW064 BKN300 14/M01 A3017 RMK CU1CI3 SLP236

CYQR;2009-05-16 19:00;CYQR 161900Z 28005G15KT 15SM FEW067 OVC300 15/M02 A3014 RMK CU1CI6 SLP228

CYQR;2009-05-16 20:00;CYQR 162000Z 25005KT 15SM FEW076 OVC300 17/M01 A3013 RMK CU2CS6 SLP225

CYQR;2009-05-16 21:00;CYQR 162100Z 29008KT 15SM SCT078 OVC300 16/M03 A3011 RMK CU4CI4 SLP217

CYQR;2009-05-16 22:00;CYQR 162200Z 25006G15KT 15SM FEW083 FEW140 OVC300 18/M01 A3010 RMK CU2AC1CI3 SLP212

CYQR;2009-05-16 23:00;CYQR 162300Z 16010G17KT 15SM FEW077 SCT220 OVC300 18/M02 A3007 RMK CU2CI1CI0 SLP204

CYQR;2009-05-17 00:00;CYQR 170000Z 00000KT 15SM BKN090 BKN220 OVC300 17/M03 A3007 RMK AC5CI1CI0 CU ASOCTD SLP199

CYQR;2009-05-17 01:00;CYQR 170100Z 23016G21KT 15SM BKN083 OVC300 16/M02 A3007 RMK AC6CI1 SLP200

CYQR;2009-05-17 02:00;CYQR 170200Z 24014G19KT 15SM BKN054 BKN087 BKN300 15/M01 A3007 RMK SC6AC1CI1 VIRGA E SLP199

CYQR;2009-05-17 03:00;CYQR 170300Z 11005KT 15SM FEW058 FEW080 BKN300 12/00 A3004 RMK SC2AC1CI1 SLP188

CYQR;2009-05-17 04:00;CYQR 170400Z 12007KT 15SM SCT080 BKN300 11/01 A3004 RMK AC4CI3 SLP185

CYQR;2009-05-17 05:00;CYQR 170500Z 13010KT 15SM SCT080 11/M01 A3003 RMK AC3 SLP183

CYQR;2009-05-17 06:00;CYQR 170600Z 14013KT 15SM BKN080 10/M00 A3002 RMK AC3 SLP177

CYQR;2009-05-17 07:00;CYQR 170700Z 16012KT 15SM BKN110 09/01 A3000 RMK AC7 SLP173

CYQR;2009-05-17 08:00;CYQR 170800Z 15011KT 15SM BKN110 08/02 A2999 RMK AC3 SLP167

CYQR;2009-05-17 09:00;CYQR 170900Z 15012KT 15SM FEW110 07/01 A2998 RMK AC2 SLP165

CYQR;2009-05-17 10:00;CYQR 171000Z 16011KT 15SM SCT270 06/00 A2997 RMK CI1 SLP162

CYQR;2009-05-17 11:00;CYQR 171100Z 15008KT 15SM BKN270 06/00 A2997 RMK CI3 SLP161

CYQR;2009-05-17 12:00;CYQR 171200Z 14007KT 15SM BKN160 BKN270 06/01 A2995 RMK AC3CI4 SLP155

CYQR;2009-05-17 13:00;CYQR 171300Z 14007KT 15SM BKN160 OVC270 08/02 A2995 RMK AC3CI5 SLP154

CYQR;2009-05-17 14:00;CYQR 171400Z 15007KT 15SM BKN160 OVC270 10/03 A2993 RMK AC5CI2 SLP149

CYQR;2009-05-17 15:00;CYQR 171500Z 17007KT 15SM SCT073 OVC089 13/04 A2992 RMK AC4AC4 SLP144

CYQR;2009-05-17 16:00;CYQR 171600Z 18003KT 15SM OVC120 15/04 A2990 RMK AC8 SLP137

CYQR;2009-05-17 17:00;CYQR 171700Z 16003KT 15SM OVC120 17/05 A2989 RMK AC8 SLP132

CYQR;2009-05-17 18:00;CYQR 171800Z 14007KT 15SM OVC120 19/05 A2987 RMK AC8 SLP122

CYQR;2009-05-17 19:00;CYQR 171900Z 18007KT 15SM BKN120 OVC280 21/04 A2985 RMK AC4CI3 SLP117

CYQR;2009-05-17 20:00;CYQR 172000Z 18009KT 15SM BKN120 BKN280 23/04 A2981 RMK AC4CI2 SLP105

CYQR;2009-05-17 21:00;CYQR 172100Z 27012G22KT 15SM FEW075 BKN140 OVC280 23/04 A2979 RMK CU1AC4CI2 SLP097

CYQR;2009-05-17 22:00;CYQR 172200Z 28011G21KT 15SM FEW085 BKN160 OVC280 23/05 A2979 RMK CU1AC5CI2 SLP094

CYQR;2009-05-17 23:00;CYQR 172300Z 28016G25KT 15SM FEW090 SCT160 OVC280 24/04 A2978 RMK CU1AC2CI1 SLP091

CYQR;2009-05-18 00:00;CYQR 180000Z 28017G24KT 15SM FEW090 FEW160 OVC280 23/02 A2978 RMK CU1AC2CI1 SLP091

CYQR;2009-05-18 01:00;CYQR 180100Z 28018G24KT 15SM FEW160 OVC280 21/02 A2976 RMK AC2CI2 SLP087

CYQR;2009-05-18 02:00;CYQR 180200Z 28013KT 15SM SCT200 BKN280 19/03 A2977 RMK CI3CI3 SLP089

CYQR;2009-05-18 03:00;CYQR 180300Z 30010KT 15SM FEW200 BKN280 15/03 A2979 RMK CI2CI0 SLP096

CYQR;2009-05-18 04:00;CYQR 180400Z 29008KT 15SM FEW200 SCT280 11/02 A2979 RMK CI1CI1 SLP098

CYQR;2009-05-18 05:00;CYQR 180500Z 26006KT 15SM FEW270 08/00 A2979 RMK CI1 SLP098

CYQR;2009-05-18 06:00;CYQR 180600Z 36004KT 15SM FEW270 08/01 A2980 RMK CI1 SLP102

CYQR;2009-05-18 07:00;CYQR 180700Z 36009KT 15SM SKC 07/02 A2982 RMK SLP108

CYQR;2009-05-18 08:00;CYQR 180800Z 04008KT 15SM SKC 10/02 A2983 RMK SLP110

CYQR;2009-05-18 09:00;CYQR 180900Z 02015G21KT 15SM SKC 10/03 A2989 RMK PRESRR SLP128

CYQR;2009-05-18 10:00;CYQR 181000Z 03013KT 15SM FEW270 09/04 A2992 RMK CI1 SLP136

CYQR;2009-05-18 11:00;CYQR 181100Z 01015G20KT 15SM FEW160 FEW270 07/04 A2995 RMK AC1CI0 CONTRAILS SLP146

CYQR;2009-05-18 11:32;CYQR 181132Z 02014G19KT 15SM FEW013 BKN270 07/ RMK SC2CI0 CONTRAILS

CYQR;2009-05-18 11:47;CYQR 181147Z 01020KT 15SM BKN011 07/ RMK SC7

CYQR;2009-05-18 12:00;CYQR 181200Z 02018G24KT 15SM BKN011 07/04 A2998 RMK SC6 SLP160

CYQR;2009-05-18 13:00;CYQR 181300Z 02020G25KT 15SM OVC011 06/03 A3001 RMK SC8 SLP170

CYQR;2009-05-18 13:09;CYQR 181309Z 03021KT 15SM OVC009 05/ RMK SC8

CYQR;2009-05-18 13:37;CYQR 181337Z 04018G27KT 15SM OVC010 05/ RMK SC8

CYQR;2009-05-18 14:00;CYQR 181400Z 02016KT 15SM OVC010 05/01 A3006 RMK SC8 SLP187

CYQR;2009-05-18 15:00;CYQR 181500Z 03018G24KT 15SM OVC014 05/00 A3009 RMK SC8 SLP203

CYQR;2009-05-18 15:18;CYQR 181518Z 04015G21KT 15SM OVC016 05/ RMK SC8

CYQR;2009-05-18 16:00;CYQR 181600Z 04016KT 15SM OVC018 06/00 A3012 RMK SC8 SLP215

CYQR;2009-05-18 17:00;CYQR 181700Z 03012G18KT 15SM SCT026 BKN210 07/M00 A3013 RMK SC3CI3 SLP217

CYQR;2009-05-18 18:00;CYQR 181800Z 04011G19KT 15SM BKN032 BKN160 BKN240 07/M01 A3015 RMK SC4AC1CI1 CONTRAILS SLP229

CYQR;2009-05-18 19:00;CYQR 181900Z 07010G17KT 15SM BKN032 BKN240 07/M01 A3016 RMK SC5CI2 SLP231

CYQR;2009-05-18 20:00;CYQR 182000Z 04015KT 15SM BKN030 BKN160 OVC240 06/M01 A3017 RMK SC6AC1CI0 SLP235

CYQR;2009-05-18 21:00;CYQR 182100Z 03010KT 15SM BKN030 OVC090 06/M01 A3017 RMK SC6AC2 SLP236

CYQR;2009-05-18 22:00;CYQR 182200Z 07011KT 15SM FEW030 BKN083 OVC240 06/M02 A3017 RMK SC1AC6CI2 SLP235

CYQR;2009-05-18 23:00;CYQR 182300Z 07010G15KT 15SM FEW030 OVC069 06/M03 A3017 RMK SC2AC6 SLP234

CYQR;2009-05-19 00:00;CYQR 190000Z 07013KT 15SM BKN067 OVC210 05/M04 A3017 RMK AC6CI2 SLP237

CYQR;2009-05-19 01:00;CYQR 190100Z 07010KT 15SM BKN067 OVC210 05/M05 A3016 RMK AC6CI2 SLP236

CYQR;2009-05-19 02:00;CYQR 190200Z 09008KT 15SM BKN067 BKN260 05/M09 A3016 RMK AC7CI1 SLP236

CYQR;2009-05-19 03:00;CYQR 190300Z 08009KT 15SM BKN065 BKN260 05/M09 A3016 RMK AC7CI1 SLP235

CYQR;2009-05-19 04:00;CYQR 190400Z 09012G17KT 15SM OVC065 04/M08 A3016 RMK AC8 SLP236

CYQR;2009-05-19 05:00;CYQR 190500Z 09010G15KT 15SM OVC065 04/M08 A3016 RMK AC8 SLP235

CYQR;2009-05-19 06:00;CYQR 190600Z 09011KT 15SM FEW065 03/M08 A3015 RMK AC2 SLP232

CYQR;2009-05-19 07:00;CYQR 190700Z 11010KT 15SM SKC 03/M07 A3014 RMK SLP228

CYQR;2009-05-19 08:00;CYQR 190800Z 11013KT 15SM SKC 02/M07 A3013 RMK SLP224

CYQR;2009-05-19 09:00;CYQR 190900Z 12012KT 15SM SKC 01/M07 A3012 RMK SLP223

CYQR;2009-05-19 10:00;CYQR 191000Z 12011G16KT 15SM BKN064 01/M07 A3011 RMK SC5 SLP220

CYQR;2009-05-19 11:00;CYQR 191100Z 13015KT 15SM BKN062 BKN260 02/M06 A3010 RMK SC7CI1 SLP217

CYQR;2009-05-19 12:00;CYQR 191200Z 12018KT 15SM BKN052 BKN090 02/M06 A3006 RMK SC6ACC1 SLP203

CYQR;2009-05-19 13:00;CYQR 191300Z 12019G27KT 15SM BKN052 BKN094 OVC130 03/M06 A3004 RMK SC3AC3AC2 SLP195

CYQR;2009-05-19 14:00;CYQR 191400Z 12018G27KT 15SM SCT052 BKN087 OVC150 03/M06 A3000 RMK SC2AC4AS2 SLP185

CYQR;2009-05-19 15:00;CYQR 191500Z 13024G30KT 15SM FEW050 BKN130 OVC270 04/M06 A2996 RMK SC1AC5CS3 SLP167

CYQR;2009-05-19 16:00;CYQR 191600Z 13024G30KT 15SM SCT050 BKN084 OVC250 05/M08 A2995 RMK SC3ACC3CI2 CU ASOCTD SLP164

CYQR;2009-05-19 17:00;CYQR 191700Z 13028G38KT 15SM VCSH FEW044 SCT084 BKN250 06/M07 A2987 RMK SC1ACC2CI4 SLP140

CYQR;2009-05-19 18:00;CYQR 191800Z 12027G36KT 15SM FEW044 FEW084 BKN250 08/M05 A2984 RMK SC1AC1CI3 SLP124

CYQR;2009-05-19 19:00;CYQR 191900Z 14024G31KT 15SM FEW086 BKN230 BKN280 09/M04 A2986 RMK ACC2CI2CI1 SLP132

CYQR;2009-05-19 20:00;CYQR 192000Z 13026G31KT 15SM FEW086 BKN280 09/M04 A2979 RMK ACC1CI5 SLP110

CYQR;2009-05-19 21:00;CYQR 192100Z 13026G34KT 15SM FEW096 BKN280 10/M03 A2974 RMK AC2CI5 SLP090

CYQR;2009-05-19 22:00;CYQR 192200Z 14023G34KT 15SM SCT210 BKN250 BKN300 13/M02 A2971 RMK CI2CI2CI1 CC ASOCTD SLP082

CYQR;2009-05-19 23:00;CYQR 192300Z 13025G31KT 15SM BKN300 13/M01 A2967 RMK CI2 SLP068

CYQR;2009-05-20 00:00;CYQR 200000Z 14023G32KT 15SM FEW100 FEW300 14/M00 A2963 RMK AC1CI1 SLP049

CYQR;2009-05-20 01:00;CYQR 200100Z CCA 13022G30KT 15SM SCT100 BKN300 14/M01 A2960 RMK ACC3CI2 VIRGA SLP039

CYQR;2009-05-20 02:00;CYQR 200200Z 13021G27KT 15SM BKN120 OVC300 14/M00 A2959 RMK AC6CI2 ACC EMBD VIRGA SLP037

CYQR;2009-05-20 03:00;CYQR 200300Z 13022KT 15SM BKN120 BKN300 13/M00 A2956 RMK AC5CI1 ACC EMBD VIRGA SLP026

CYQR;2009-05-20 03:37;CYQR 200337Z 13014G22KT 15SM -SHRA BKN092 OVC120 11/ RMK AC5AC3 CVCTV CLD EMBD

CYQR;2009-05-20 04:00;CYQR 200400Z 12009KT 15SM -SHRA BKN080 OVC120 12/02 A2961 RMK AC5AC3 CVCTV CLD EMBD SLP040

CYQR;2009-05-20 05:00;CYQR 200500Z 16006KT 15SM -SHRA BKN053 OVC090 11/02 A2967 RMK SC6AC2 CVCTV CLD EMBD SLP059

CYQR;2009-05-20 06:00;CYQR 200600Z 12012KT 15SM -SHRA BKN063 OVC080 09/02 A2963 RMK SC6AC2 CVCTV CLD EMBD SLP049

CYQR;2009-05-20 07:00;CYQR 200700Z 14015KT 15SM -SHRA SCT040 OVC080 08/03 A2961 RMK SC3AC5 CVCTV CLD EMBD SLP043

CYQR;2009-05-20 08:00;CYQR 200800Z 16010KT 15SM BKN040 OVC110 09/06 A2958 RMK SC6AC2 SLP034

CYQR;2009-05-20 09:00;CYQR 200900Z 29018KT 15SM SCT040 BKN080 OVC120 10/06 A2960 RMK SC3AC2AC2 SLP037

CYQR;2009-05-20 10:00;CYQR 201000Z 30020G26KT 15SM SCT080 OVC120 08/03 A2963 RMK AC4AC4 SLP046

CYQR;2009-05-20 11:00;CYQR 201100Z 30017KT 15SM -SHRA SCT089 BKN120 06/02 A2965 RMK AC4AC3 ACC EMBD SLP053

CYQR;2009-05-20 11:29;CYQR 201129Z 30025KT 15SM SCT089 BKN120 05/ RMK AC3AC3

CYQR;2009-05-20 12:00;CYQR 201200Z 30018KT 15SM SCT090 BKN120 04/01 A2969 RMK AC3AC3 SLP070

CYQR;2009-05-20 12:42;CYQR 201242Z 31022KT 15SM FEW008 BKN086 BKN120 03/ RMK SF1AC6AC2

CYQR;2009-05-20 13:00;CYQR 201300Z 31021KT 15SM FEW006 BKN086 BKN120 03/M00 A2973 RMK SF1AC6AC2 SLP082

CYQR;2009-05-20 14:00;CYQR 201400Z 31019G24KT 15SM SCT012 BKN098 BKN280 04/00 A2977 RMK CF4AC2CI1 SLP093

CYQR;2009-05-20 14:34;CYQR 201434Z 31025KT 15SM BKN014 05/ RMK SC6

CYQR;2009-05-20 15:00;CYQR 201500Z 32023G28KT 15SM BKN018 BKN100 06/00 A2979 RMK SC6AC1 SLP104

CYQR;2009-05-20 16:00;CYQR 201600Z 33015G20KT 15SM OVC016 05/M00 A2983 RMK SC8 SLP115

CYQR;2009-05-20 17:00;CYQR 201700Z 31016KT 15SM OVC016 05/00 A2984 RMK SC8 SLP119

CYQR;2009-05-20 18:00;CYQR 201800Z 30016G24KT 15SM BKN024 BKN092 07/00 A2985 RMK SC6AC1 SLP125

CYQR;2009-05-20 19:00;CYQR 201900Z 32018G28KT 15SM BKN029 BKN091 09/M00 A2986 RMK SC6AC2 SLP128

CYQR;2009-05-20 20:00;CYQR 202000Z 29023KT 15SM BKN031 BKN081 10/M00 A2987 RMK SC6AC1 SLP132

CYQR;2009-05-20 21:00;CYQR 202100Z 30024G29KT 15SM BKN038 BKN080 10/00 A2989 RMK SC5AC2 CU ASOCTD SLP138

CYQR;2009-05-20 22:00;CYQR 202200Z 31019G24KT 15SM SCT036 BKN084 BKN300 10/M00 A2991 RMK SC4AC1CI0 CU ASOCTD SLP143

CYQR;2009-05-20 23:00;CYQR 202300Z 32019KT 15SM SCT045 SCT090 BKN300 10/M02 A2992 RMK SC3AC1CI0 CU ASOCTD SLP146

CYQR;2009-05-21 00:00;CYQR 210000Z 31021G27KT 15SM FEW050 SCT090 BKN300 10/M03 A2994 RMK SC2AC1CI0 SLP155

CYQR;2009-05-21 01:00;CYQR 210100Z 33021KT 15SM FEW053 SCT090 BKN300 08/M03 A2997 RMK SC2AC2CI1 SLP165

CYQR;2009-05-21 02:00;CYQR 210200Z 33014G19KT 15SM FEW030 FEW090 07/M04 A2999 RMK SC1AC1 SLP174

CYQR;2009-05-21 03:00;CYQR 210300Z 34009KT 15SM FEW090 04/M04 A3002 RMK AC1 SLP187

CYQR;2009-05-21 04:00;CYQR 210400Z 32007KT 15SM SKC 01/M05 A3004 RMK SLP196

CYQR;2009-05-21 05:00;CYQR 210500Z 28007KT 15SM SKC M02/M06 A3006 RMK SLP202

CYQR;2009-05-21 06:00;CYQR 210600Z 27010KT 15SM SKC M03/M07 A3007 RMK SLP210

CYQR;2009-05-21 07:00;CYQR 210700Z 26008KT 15SM SKC M04/M07 A3009 RMK SLP215

CYQR;2009-05-21 08:00;CYQR 210800Z 26008KT 15SM SKC M04/M07 A3010 RMK SLP220

CYQR;2009-05-21 09:00;CYQR 210900Z 26007KT 15SM SKC M05/M07 A3011 RMK SLP223

CYQR;2009-05-21 10:00;CYQR 211000Z 25006KT 15SM SKC M05/M08 A3012 RMK SLP226

CYQR;2009-05-21 11:00;CYQR 211100Z 24007KT 15SM SKC M06/M08 A3014 RMK SLP230

CYQR;2009-05-21 12:00;CYQR 211200Z 24006KT 15SM SKC M02/M06 A3015 RMK SLP234

CYQR;2009-05-21 13:00;CYQR 211300Z 25012KT 15SM FEW260 03/M04 A3016 RMK CI0 SLP237

CYQR;2009-05-21 14:00;CYQR 211400Z 26012KT 15SM SKC 07/M03 A3016 RMK SLP237

CYQR;2009-05-21 15:00;CYQR 211500Z 27013KT 15SM FEW098 FEW260 10/M04 A3017 RMK AC1CI1 SLP236

CYQR;2009-05-21 16:00;CYQR 211600Z 23007G16KT 15SM FEW098 FEW260 11/M05 A3016 RMK AC1CI1 SLP234

CYQR;2009-05-21 17:00;CYQR 211700Z 26009G16KT 15SM FEW070 FEW100 13/M06 A3015 RMK CU1AC1 SLP229

CYQR;2009-05-21 18:00;CYQR 211800Z 24014G22KT 15SM FEW070 FEW100 14/M06 A3013 RMK CU1AC2 SLP225

CYQR;2009-05-21 19:00;CYQR 211900Z 24015G28KT 15SM SCT078 SCT087 15/M04 A3011 RMK AC4AC1 SLP219

CYQR;2009-05-21 20:00;CYQR 212000Z 26014G22KT 15SM SCT077TCU BKN091 BKN260 17/M01 A3009 RMK TCU3AC2CI1 SHWRS S-SW SLP213

CYQR;2009-05-21 21:00;CYQR 212100Z 27013G18KT 15SM VCSH BKN077TCU BKN091 BKN260 16/M01 A3007 RMK TCU5AC2CI1 SHWRS SE-S-SW-W-NW SLP205

CYQR;2009-05-21 21:28;CYQR 212128Z 30016KT 15SM -SHRA BKN033TCU BKN068 14/ RMK TCU6AC1

CYQR;2009-05-21 22:00;CYQR 212200Z 27010KT 15SM VCSH FEW025 BKN033TCU BKN075 14/00 A3008 RMK CF1TCU4AC2 OCNL -SHRA SLP207

CYQR;2009-05-21 23:00;CYQR 212300Z 21007KT 15SM VCSH SCT073TCU BKN100 BKN210 OVC280 15/00 A3006 RMK TCU4AC1CI2CI0 SLP202

CYQR;2009-05-21 23:35;CYQR 212335Z 25015KT 15SM -SHRA BKN073TCU BKN210 13/ RMK TCU5CI2

CYQR;2009-05-22 00:00;CYQR 220000Z 00000KT 15SM -SHRA SCT072TCU BKN100 BKN210 13/05 A3007 RMK TCU4AC2CI1 SLP204

CYQR;2009-05-22 00:06;CYQR 220006Z 00000KT 15SM VCSH SCT072TCU BKN100 BKN210 13/ RMK TCU3AC2CI1

CYQR;2009-05-22 01:00;CYQR 220100Z 12002KT 15SM VCSH SCT055TCU BKN089 BKN240 13/03 A3007 RMK TCU4AC2CI0 SLP204

CYQR;2009-05-22 02:00;CYQR 220200Z 13003KT 15SM VCSH SCT055TCU BKN099 BKN240 12/03 A3007 RMK TCU3AC2CI1 SLP203

CYQR;2009-05-22 03:00;CYQR 220300Z 18004KT 15SM FEW055TCU BKN087 BKN250 10/02 A3007 RMK TCU2AC4CI0 VIRGA SLP197

CYQR;2009-05-22 04:00;CYQR 220400Z 16007KT 15SM BKN071 09/03 A3008 RMK AC6 SLP200

CYQR;2009-05-22 05:00;CYQR 220500Z 16007KT 15SM FEW080 05/01 A3008 RMK AC2 SLP200

CYQR;2009-05-22 06:00;CYQR 220600Z 19006KT 15SM SKC 03/00 A3008 RMK SLP203

CYQR;2009-05-22 06:28;CYQR 220628Z 33006KT 15SM SKC 02/

CYQR;2009-05-22 07:00;CYQR 220700Z 25006KT 15SM SKC 04/M01 A3009 RMK SLP205

CYQR;2009-05-22 07:34;CYQR 220734Z 22007KT 15SM SKC 02/

CYQR;2009-05-22 08:00;CYQR 220800Z 19007KT 15SM SKC 02/M01 A3007 RMK SLP200

CYQR;2009-05-22 09:00;CYQR 220900Z 27007KT 15SM SKC M01/M04 A3009 RMK SLP208

CYQR;2009-05-22 10:00;CYQR 221000Z 32008KT 15SM SKC M01/M04 A3010 RMK SLP211

CYQR;2009-05-22 11:00;CYQR 221100Z 29012KT 15SM FEW080 01/M02 A3012 RMK AC1 SLP218

CYQR;2009-05-22 12:00;CYQR 221200Z 30010KT 15SM FEW030 02/M01 A3015 RMK SC1 SLP229

CYQR;2009-05-22 13:00;CYQR 221300Z 31015KT 15SM FEW015 04/01 A3018 RMK CF1 SLP237

CYQR;2009-05-22 14:00;CYQR 221400Z 31019G24KT 15SM SCT015 05/01 A3019 RMK CF4 SLP241

CYQR;2009-05-22 15:00;CYQR 221500Z 32019G25KT 15SM BKN016 05/00 A3021 RMK SC7 SLP248

CYQR;2009-05-22 16:00;CYQR 221600Z 32021G27KT 15SM BKN018 07/01 A3022 RMK SC7 CU ASOCTD SLP251

CYQR;2009-05-22 17:00;CYQR 221700Z 35018G26KT 15SM BKN024 09/01 A3024 RMK SC6 CU ASOCTD SLP258

CYQR;2009-05-22 18:00;CYQR 221800Z 33021G28KT 15SM BKN026 09/00 A3025 RMK SC5 CU ASOCTD SLP265

CYQR;2009-05-22 19:00;CYQR 221900Z 35016G25KT 15SM BKN035 09/00 A3026 RMK SC6 CU ASOCTD SLP268

CYQR;2009-05-22 20:00;CYQR 222000Z 01014G21KT 15SM BKN033 10/00 A3027 RMK SC5 CU ASOCTD SLP270

CYQR;2009-05-22 21:00;CYQR 222100Z 35010G18KT 15SM SCT035 10/01 A3027 RMK SC4 CU ASOCTD SLP275

CYQR;2009-05-22 22:00;CYQR 222200Z 36011KT 15SM FEW035 10/00 A3027 RMK SC2 SLP273

CYQR;2009-05-22 23:00;CYQR 222300Z 35011KT 15SM FEW035 11/M00 A3026 RMK SC1 SLP272

CYQR;2009-05-23 00:00;CYQR 230000Z 36009G15KT 15SM SKC 10/M01 A3025 RMK SLP264

CYQR;2009-05-23 01:00;CYQR 230100Z 34008KT 15SM SKC 10/M02 A3024 RMK SLP263

CYQR;2009-05-23 02:00;CYQR 230200Z 01005KT 15SM SKC 09/M02 A3025 RMK SLP264

CYQR;2009-05-23 03:00;CYQR 230300Z 01004KT 15SM SKC 06/M04 A3026 RMK SLP268

CYQR;2009-05-23 04:00;CYQR 230400Z 30003KT 15SM SKC 05/M03 A3027 RMK SLP272

CYQR;2009-05-23 05:00;CYQR 230500Z 19002KT 15SM SKC 00/M06 A3027 RMK SLP272

CYQR;2009-05-23 06:00;CYQR 230600Z 14002KT 15SM SKC M01/M07 A3027 RMK SLP274

CYQR;2009-05-23 07:00;CYQR 230700Z 12006KT 15SM SKC M01/M05 A3026 RMK SLP273

CYQR;2009-05-23 08:00;CYQR 230800Z 13006KT 15SM SKC M02/M06 A3026 RMK SLP272

CYQR;2009-05-23 09:00;CYQR 230900Z 14007KT 12SM SKC M03/M07 A3026 RMK SLP272

CYQR;2009-05-23 10:00;CYQR 231000Z 15006KT 12SM SKC M02/M06 A3025 RMK SLP269

CYQR;2009-05-23 11:00;CYQR 231100Z 14007KT 10SM SKC M04/M07 A3024 RMK FU SLP266

CYQR;2009-05-23 12:00;CYQR 231200Z 14006KT 10SM SKC M01/M05 A3024 RMK FU SLP263

CYQR;2009-05-23 13:00;CYQR 231300Z 17008KT 15SM SKC 01/M03 A3023 RMK SLP262

CYQR;2009-05-23 14:00;CYQR 231400Z 17006KT 15SM SKC 07/M01 A3022 RMK SLP257

CYQR;2009-05-23 15:00;CYQR 231500Z 19008KT 15SM SKC 11/M01 A3021 RMK SLP249

CYQR;2009-05-23 16:00;CYQR 231600Z 20003KT 15SM SKC 12/M03 A3020 RMK SLP246

CYQR;2009-05-23 17:00;CYQR 231700Z 29005KT 15SM SKC 14/M04 A3019 RMK SLP243

CYQR;2009-05-23 18:00;CYQR 231800Z 00000KT 15SM FEW120 16/M04 A3018 RMK AC1 SLP239

CYQR;2009-05-23 19:00;CYQR 231900Z 01003KT 15SM FEW120 16/M04 A3016 RMK AC1 SLP234

CYQR;2009-05-23 20:00;CYQR 232000Z 19003KT 15SM SKC 18/M04 A3014 RMK SLP227

CYQR;2009-05-23 21:00;CYQR 232100Z 27006KT 15SM SKC 19/M03 A3012 RMK SLP217

CYQR;2009-05-23 22:00;CYQR 232200Z 36002KT 15SM SKC 19/M02 A3010 RMK SLP211

CYQR;2009-05-23 23:00;CYQR 232300Z 28003KT 15SM SKC 20/M04 A3009 RMK SLP207

CYQR;2009-05-24 00:00;CYQR 240000Z 36007KT 15SM SKC 20/M04 A3007 RMK SLP199

CYQR;2009-05-24 01:00;CYQR 240100Z 02005KT 15SM SKC 19/M03 A3006 RMK SLP196

CYQR;2009-05-24 02:00;CYQR 240200Z 05007KT 15SM FEW320 16/M01 A3006 RMK CI1 SLP196

CYQR;2009-05-24 03:00;CYQR 240300Z 08009KT 15SM FEW310 14/M04 A3006 RMK CI1 SLP193

CYQR;2009-05-24 04:00;CYQR 240400Z 09009KT 15SM SKC 12/M04 A3007 RMK SLP196

CYQR;2009-05-24 05:00;CYQR 240500Z 10010KT 15SM SKC 12/M05 A3008 RMK SLP197

CYQR;2009-05-24 06:00;CYQR 240600Z 12011KT 15SM SKC 11/M05 A3008 RMK SLP196

CYQR;2009-05-24 07:00;CYQR 240700Z 12011KT 15SM SKC 10/M05 A3007 RMK SLP193

CYQR;2009-05-24 08:00;CYQR 240800Z 12010KT 15SM SKC 09/M04 A3006 RMK SLP192

CYQR;2009-05-24 09:00;CYQR 240900Z 12009KT 15SM SKC 07/M03 A3006 RMK SLP189

CYQR;2009-05-24 10:00;CYQR 241000Z 13011KT 15SM SKC 07/M03 A3005 RMK SLP186

CYQR;2009-05-24 11:00;CYQR 241100Z 13013KT 15SM FEW100 FEW160 BKN280 07/M02 A3003 RMK AC2AC1CI1 SLP181

CYQR;2009-05-24 12:00;CYQR 241200Z 12008KT 15SM SCT100 SCT160 BKN280 08/M01 A3003 RMK AC3AC1CI2 SLP179

CYQR;2009-05-24 13:00;CYQR 241300Z 12008KT 15SM SCT095 SCT160 BKN280 09/01 A3003 RMK AC3AC1CI2 SLP180

CYQR;2009-05-24 14:00;CYQR 241400Z 13010KT 15SM FEW095 FEW160 BKN280 12/02 A3002 RMK AC1AC2CI1 SLP176

CYQR;2009-05-24 15:00;CYQR 241500Z 15015KT 15SM FEW100 BKN280 16/04 A3001 RMK AC2CI1 SLP170

CYQR;2009-05-24 16:00;CYQR 241600Z 15017KT 15SM FEW120 BKN280 20/06 A2999 RMK AC2CI1 SLP163

CYQR;2009-05-24 17:00;CYQR 241700Z 16017G27KT 15SM FEW120 BKN280 22/05 A2996 RMK AC2CI2 SLP155

CYQR;2009-05-24 18:00;CYQR 241800Z 15021G30KT 15SM FEW076 FEW120 BKN280 23/05 A2994 RMK CF1AC2CI2 SLP146

CYQR;2009-05-24 19:00;CYQR 241900Z 16021G30KT 15SM FEW073 SCT093 BKN280 24/06 A2993 RMK CU2AC2CI3 SLP141

CYQR;2009-05-24 20:00;CYQR 242000Z 16025G33KT 15SM BKN064 BKN090 BKN270 23/07 A2993 RMK CU5AC1CI2 SLP140

CYQR;2009-05-24 21:00;CYQR 242100Z 15022G27KT 15SM BKN058 BKN084 OVC280 22/08 A2990 RMK CU5AC2CI1 SLP135

CYQR;2009-05-24 22:00;CYQR 242200Z 16023KT 15SM FEW060 OVC080 21/06 A2990 RMK CU2AC6 SLP133

CYQR;2009-05-24 23:00;CYQR 242300Z 15023KT 15SM -RA BKN051 OVC071 20/07 A2988 RMK CU5AC3 SLP126

CYQR;2009-05-24 23:33;CYQR 242333Z 15021KT 15SM BKN073 OVC095 20/ RMK AC5AC3

CYQR;2009-05-24 23:50;CYQR 242350Z 17018G25KT 10SM -RA BKN077 OVC097 19/ RMK AC6AC2

CYQR;2009-05-25 00:00;CYQR 250000Z 17019G26KT 10SM -RA BKN082 OVC097 19/06 A2990 RMK AC6AC2 SLP135

CYQR;2009-05-25 01:00;CYQR 250100Z 14008KT 10SM -RA BKN053 OVC070 15/09 A2991 RMK SC7AC1 SLP139

CYQR;2009-05-25 02:00;CYQR 250200Z 09005KT 10SM -RA BKN039 OVC070 14/10 A2991 RMK SC7AC1 SLP138

CYQR;2009-05-25 02:25;CYQR 250225Z 07006KT 10SM OVC039 14/ RMK SC8

CYQR;2009-05-25 03:00;CYQR 250300Z 10010KT 10SM BKN040 OVC055 14/07 A2991 RMK SC5SC3 SLP137

CYQR;2009-05-25 03:35;CYQR 250335Z 09006KT 8SM -SHRA OVC046 13/ RMK SC8

CYQR;2009-05-25 04:00;CYQR 250400Z 07007KT 8SM -SHRA OVC046 12/07 A2992 RMK SC8 SLP141

CYQR;2009-05-25 05:00;CYQR 250500Z 06007KT 8SM -SHRA OVC048 12/07 A2992 RMK SC8 SLP141

CYQR;2009-05-25 06:00;CYQR 250600Z 11007KT 8SM -SHRA OVC045 11/07 A2994 RMK SC8 SLP143

CYQR;2009-05-25 07:00;CYQR 250700Z 10007KT 8SM -SHRA OVC041 10/08 A2993 RMK SC8 SLP140

CYQR;2009-05-25 07:30;CYQR 250730Z 11009KT 1 1/2SM RA OVC019 10/ RMK SC8

CYQR;2009-05-25 08:00;CYQR 250800Z CCA 11010KT 8SM -RA OVC024 10/09 A2991 RMK SC8 /R30/ SLP135

CYQR;2009-05-25 09:00;CYQR 250900Z 11009G15KT 2SM -RA OVC030 10/08 A2990 RMK SC8 /R40/ SLP133

CYQR;2009-05-25 10:00;CYQR 251000Z 11012KT 1 1/2SM -RA BKN004 OVC022 10/09 A2989 RMK SF5SC3 SLP130

CYQR;2009-05-25 11:00;CYQR 251100Z 11013KT 2SM -RA FEW004 OVC031 10/08 A2990 RMK SF2SC6 SLP131

CYQR;2009-05-25 11:29;CYQR 251129Z 07007KT 2SM -RA SCT006 OVC014 10/ RMK SF4SC4

CYQR;2009-05-25 11:52;CYQR 251152Z 08009KT 2SM -RA OVC007 10/ RMK SF8

CYQR;2009-05-25 12:00;CYQR 251200Z 09009KT 2SM -RA OVC007 10/08 A2992 RMK SF8 SLP141

CYQR;2009-05-25 13:00;CYQR 251300Z 13008KT 3SM -RA BR BKN007 OVC020 10/09 A2993 RMK SF5SC3 SLP145

CYQR;2009-05-25 13:41;CYQR 251341Z 11006KT 10SM -RA SCT007 OVC022 10/ RMK SF4SC4

CYQR;2009-05-25 14:00;CYQR 251400Z 10008KT 10SM BKN006 OVC022 10/09 A2993 RMK SF6SC2 SLP145

CYQR;2009-05-25 15:00;CYQR 251500Z 09006KT 10SM BKN009 OVC022 11/09 A2994 RMK SF6SC2 SLP151

CYQR;2009-05-25 16:00;CYQR 251600Z 06007KT 12SM BKN010 OVC036 11/09 A2995 RMK SC7SC1 SLP155

CYQR;2009-05-25 17:00;CYQR 251700Z 07007KT 13SM BKN012 OVC041 12/09 A2997 RMK SC6SC2 SLP159

CYQR;2009-05-25 18:00;CYQR 251800Z 07007KT 13SM BKN014 OVC041 12/09 A2998 RMK SC6SC2 SLP163

CYQR;2009-05-25 19:00;CYQR 251900Z 05008KT 15SM OVC018 14/10 A2997 RMK SC8 SLP160

CYQR;2009-05-25 20:00;CYQR 252000Z 03010KT 15SM BKN020 OVC041 14/09 A2998 RMK SC6SC2 SLP164

CYQR;2009-05-25 21:00;CYQR 252100Z 05009KT 15SM BKN024 BKN280 15/10 A2998 RMK SC6CI0 SLP164

CYQR;2009-05-25 22:00;CYQR 252200Z 03005KT 15SM BKN030 BKN280 16/09 A2997 RMK SC6CI0 SLP162

CYQR;2009-05-25 23:00;CYQR 252300Z 35002KT 15SM BKN034 BKN280 17/09 A2997 RMK CU6CI0 SLP160

CYQR;2009-05-26 00:00;CYQR 260000Z 35015G22KT 15SM FEW024CB BKN034 BKN280 15/10 A2997 RMK CB2CU5CI1 SHWRS NW SLP160

CYQR;2009-05-26 01:00;CYQR 260100Z 34004KT 15SM BKN041 BKN050 BKN280 14/10 A2997 RMK CU6CU1CI1 TCU EMBD SLP160

CYQR;2009-05-26 02:00;CYQR 260200Z 33006KT 15SM FEW040 BKN073 BKN280 14/09 A2998 RMK CU1ACC7CI1 TCU EMBD SLP164

CYQR;2009-05-26 03:00;CYQR 260300Z 32005KT 15SM FEW040 BKN073 BKN280 13/10 A2999 RMK CU1AC6CI0 SLP167

CYQR;2009-05-26 04:00;CYQR 260400Z 32003KT 15SM SCT070 BKN280 11/09 A3000 RMK AC4CI1 SLP171

CYQR;2009-05-26 05:00;CYQR 260500Z 30006KT 15SM SCT070 BKN280 09/08 A3001 RMK AC4CI1 SLP174

CYQR;2009-05-26 06:00;CYQR 260600Z 28007KT 15SM SCT070 BKN280 08/07 A3003 RMK AC4CI1 SLP182

CYQR;2009-05-26 07:00;CYQR 260700Z 27005KT 15SM SCT070 BKN280 07/06 A3003 RMK AC4CI1 SLP182

CYQR;2009-05-26 08:00;CYQR 260800Z 20002KT 15SM FEW070 SCT280 06/05 A3003 RMK AC2CI1 SLP183

CYQR;2009-05-26 09:00;CYQR 260900Z CCA 24007KT 1SM BR FEW070 SCT280 04/03 A3004 RMK AC2CI1 SLP187

CYQR;2009-05-26 09:26;CYQR 260926Z 24006KT 15SM FEW070 SCT280 RMK AC2CI1

CYQR;2009-05-26 10:00;CYQR 261000Z 32003KT 8SM MIFG FEW070 03/03 A3004 RMK AC2 SLP189

CYQR;2009-05-26 10:33;CYQR 261033Z 31006KT 2SM BR FEW070 03/ RMK AC2 VIS W 1/2

CYQR;2009-05-26 11:00;CYQR 261100Z 33004KT 2SM BR MIFG SKC 03/02 A3005 RMK VIS W 1/2 SLP191

CYQR;2009-05-26 12:00;CYQR 261200Z 03002KT 2SM BR MIFG SCT070 05/04 A3006 RMK AC3 SLP193

CYQR;2009-05-26 12:23;CYQR 261223Z 04002KT 3/4SM BR MIFG SCT070 07/ RMK AC3 VIS W 1/2 VIS S 2

CYQR;2009-05-26 12:41;CYQR 261241Z 05002KT 3SM BR PRFG FEW002 FEW250 07/ RMK FG1SF1CI0 VIS SW-NW 1/2

CYQR;2009-05-26 13:00;CYQR 261300Z 00000KT 4SM BR PRFG FEW002 08/07 A3006 RMK FG1SF1 VIS SW-NW 1 SLP195

CYQR;2009-05-26 14:00;CYQR 261400Z 12005KT 8SM FEW002 11/09 A3007 RMK SF1 VIS E 4 SLP197

CYQR;2009-05-26 14:35;CYQR 261435Z 06007KT 9SM FEW002 BKN008 12/ RMK SF2SF0 VIS E 4

CYQR;2009-05-26 15:00;CYQR 261500Z 10008KT 9SM BKN009 11/10 A3008 RMK SF3 SLP199

CYQR;2009-05-26 15:13;CYQR 261513Z 09006KT 6SM BR BKN003 11/ RMK SF6

CYQR;2009-05-26 16:00;CYQR 261600Z 12008KT 8SM BKN005 12/10 A3008 RMK SF6 SLP199

CYQR;2009-05-26 16:23;CYQR 261623Z 11008KT 10SM BKN007 13/ RMK SF5 BR

CYQR;2009-05-26 16:30;CYQR 261630Z 12007KT 12SM SCT008 13/ RMK CU3

CYQR;2009-05-26 17:00;CYQR 261700Z 11008KT 15SM FEW010 15/11 A3007 RMK CU1 SLP196

CYQR;2009-05-26 18:00;CYQR 261800Z 14009KT 13SM FEW020 16/11 A3006 RMK CU1 SLP191

CYQR;2009-05-26 19:00;CYQR 261900Z 16006KT 15SM FEW030 18/10 A3004 RMK CU2 SLP186

CYQR;2009-05-26 20:00;CYQR 262000Z 14005KT 15SM FEW045 20/09 A3003 RMK CU2 SLP180

CYQR;2009-05-26 21:00;CYQR 262100Z 17005KT 15SM FEW058 FEW170 21/08 A3000 RMK CU2ACC1 SLP172

CYQR;2009-05-26 22:00;CYQR 262200Z 13008KT 15SM FEW060 SCT280 22/08 A2998 RMK CU2CI0 SLP163

CYQR;2009-05-26 23:00;CYQR 262300Z 21012KT 15SM FEW069 SCT280 22/07 A2995 RMK CU2CI0 SLP156

CYQR;2009-05-27 00:00;CYQR 270000Z 17015G20KT 15SM FEW071 FEW320 22/06 A2994 RMK CU1CI0 SLP148

CYQR;2009-05-27 01:00;CYQR 270100Z 19013KT 15SM FEW075 FEW170 BKN320 21/05 A2993 RMK CU1ACC1CI0 SLP145

CYQR;2009-05-27 02:00;CYQR 270200Z 18013G19KT 15SM FEW075 BKN320 20/06 A2992 RMK AC1CI0 SLP143

CYQR;2009-05-27 03:00;CYQR 270300Z 16011KT 15SM FEW075 BKN320 16/07 A2990 RMK AC1CI0 SLP136

CYQR;2009-05-27 04:00;CYQR 270400Z 16014KT 15SM FEW075 SCT320 15/07 A2989 RMK AC2CI1 SLP131

CYQR;2009-05-27 05:00;CYQR 270500Z 16014KT 15SM FEW075 SCT320 15/07 A2988 RMK AC2CI1 SLP127

CYQR;2009-05-27 06:00;CYQR 270600Z 18014KT 15SM FEW030 BKN075 14/07 A2985 RMK SC2AC4 SLP117

CYQR;2009-05-27 07:00;CYQR 270700Z 17014KT 15SM FEW030 BKN075 13/07 A2984 RMK SC2AC4 SLP113

CYQR;2009-05-27 08:00;CYQR 270800Z 17016KT 15SM FEW075 13/06 A2982 RMK AC2 SLP106

CYQR;2009-05-27 09:00;CYQR 270900Z 17013KT 15SM FEW055 BKN070 12/06 A2981 RMK SC2AC2 SLP099

CYQR;2009-05-27 09:04;CYQR 270904Z 17012KT 15SM -RA SCT055 BKN070 12/ RMK SC3AC3

CYQR;2009-05-27 09:34;CYQR 270934Z 17012KT 15SM SCT055 BKN068 12/ RMK SC3AC3

CYQR;2009-05-27 10:00;CYQR 271000Z 18016KT 15SM FEW055 BKN068 13/07 A2979 RMK SC2AC2 SLP092

CYQR;2009-05-27 11:00;CYQR 271100Z 20015KT 15SM SCT055 BKN068 BKN097 13/07 A2978 RMK SC3AC2AC2 SLP090

CYQR;2009-05-27 11:49;CYQR 271149Z 21015KT 15SM -RA SCT035 BKN061 OVC080 13/ RMK SC3SC3AC1

CYQR;2009-05-27 12:00;CYQR 271200Z 21019G24KT 15SM -SHRA SCT035 BKN061 OVC080 14/08 A2977 RMK SC3SC3AC1 SLP083

CYQR;2009-05-27 12:16;CYQR 271216Z 22020KT 15SM FEW035 BKN061 BKN280 14/ RMK SC2SC2CI1

CYQR;2009-05-27 13:00;CYQR 271300Z 22020G27KT 15SM FEW063 BKN110 BKN280 14/07 A2976 RMK SC2AC3CI1 SLP081

CYQR;2009-05-27 14:00;CYQR 271400Z 23020G25KT 15SM SCT070 BKN120 BKN280 16/08 A2976 RMK AC3AC2CI1 SLP080

CYQR;2009-05-27 15:00;CYQR 271500Z 27020G27KT 15SM FEW140 BKN320 19/08 A2975 RMK AC1CI1 SLP077

CYQR;2009-05-27 16:00;CYQR 271600Z 28021KT 15SM FEW140 FEW320 20/07 A2975 RMK AC1CI2 SLP078

CYQR;2009-05-27 17:00;CYQR 271700Z 30016G21KT 15SM FEW140 FEW320 21/09 A2977 RMK ACC1CI1 SLP083

CYQR;2009-05-27 18:00;CYQR 271800Z 30024G30KT 15SM FEW052 FEW140 FEW330 21/08 A2978 RMK CF1ACC1CI0 SLP087

CYQR;2009-05-27 19:00;CYQR 271900Z 30023G32KT 15SM FEW060 FEW330 22/07 A2979 RMK CU1CI1 SLP091

CYQR;2009-05-27 20:00;CYQR 272000Z 30024G29KT 15SM FEW090 FEW330 23/00 A2979 RMK CU1CI1 SLP091

CYQR;2009-05-27 21:00;CYQR 272100Z 31024G34KT 15SM FEW080 FEW330 23/03 A2979 RMK CU1CI1 SLP091

CYQR;2009-05-27 22:00;CYQR 272200Z 31021G32KT 15SM FEW080 23/02 A2979 RMK CU1 SLP091

CYQR;2009-05-27 23:00;CYQR 272300Z 30021G28KT 15SM FEW080 22/01 A2979 RMK CU1 SLP092

CYQR;2009-05-28 00:00;CYQR 280000Z 30025G30KT 15SM FEW088 FEW330 22/M00 A2979 RMK CU1CI1 SLP090

CYQR;2009-05-28 01:00;CYQR 280100Z 31016G26KT 15SM FEW088 20/M01 A2979 RMK AC1 SLP093

CYQR;2009-05-28 02:00;CYQR 280200Z 31013KT 15SM FEW084 FEW330 20/M01 A2980 RMK AC1CI1 SLP095

CYQR;2009-05-28 03:00;CYQR 280300Z 34007KT 15SM FEW084 FEW330 14/M01 A2981 RMK AC1CI1 SLP101

CYQR;2009-05-28 04:00;CYQR 280400Z 36012KT 15SM FEW084 FEW330 14/M01 A2984 RMK AC1CI1 SLP109

CYQR;2009-05-28 05:00;CYQR 280500Z 03009KT 15SM FEW300 13/03 A2985 RMK CI1 SLP113

CYQR;2009-05-28 06:00;CYQR 280600Z 04008KT 15SM FEW085 SCT300 12/04 A2986 RMK AC2CI2 SLP117

CYQR;2009-05-28 07:00;CYQR 280700Z 01004KT 15SM BKN074 12/04 A2988 RMK AC6 SLP124

CYQR;2009-05-28 08:00;CYQR 280800Z 03009KT 15SM BKN084 11/05 A2989 RMK AC6 SLP128

CYQR;2009-05-28 09:00;CYQR 280900Z 01003KT 15SM BKN084 10/04 A2993 RMK AC6 SLP140

CYQR;2009-05-28 10:00;CYQR 281000Z 35006KT 15SM BKN075 08/05 A2994 RMK AC6 SLP144

CYQR;2009-05-28 11:00;CYQR 281100Z 34002KT 15SM BKN061 08/05 A2994 RMK SC6 SLP144

CYQR;2009-05-28 11:49;CYQR 281149Z 22002KT 15SM -SHRA BKN061 BKN083 08/ RMK SC5AC2 TCU EMBD

CYQR;2009-05-28 12:00;CYQR 281200Z 24009G17KT 8SM -SHRA FEW027 BKN061 BKN083 08/06 A2995 RMK SF2SC2AC2 TCU EMBD SLP152

CYQR;2009-05-28 12:43;CYQR 281243Z 30005KT 15SM VCSH FEW016 BKN076 BKN260 09/ RMK SC2AC2CI1 TCU EMBD

CYQR;2009-05-28 13:00;CYQR 281300Z 20004KT 15SM VCSH FEW016 FEW100 BKN260 10/06 A2995 RMK SC2AC1CI2 TCU EMBD SLP152

CYQR;2009-05-28 14:00;CYQR 281400Z 27004KT 15SM VCSH FEW016TCU FEW100 SCT260 11/07 A2996 RMK TCU1AC1CI1 SLP154

CYQR;2009-05-28 15:00;CYQR 281500Z 34010KT 15SM FEW020TCU FEW100 FEW260 14/07 A2997 RMK TCU1AC1CI0 ACC ASOCTD SLP157

CYQR;2009-05-28 16:00;CYQR 281600Z 34012G18KT 15SM FEW100 FEW260 16/07 A2997 RMK ACC1CI1 SLP159

CYQR;2009-05-28 17:00;CYQR 281700Z 36010G18KT 15SM FEW040 FEW100 FEW260 16/05 A2998 RMK CU1ACC1CI1 SLP161

CYQR;2009-05-28 18:00;CYQR 281800Z 32010G15KT 15SM FEW050 FEW280 17/05 A2997 RMK CU1CI0 SLP157

CYQR;2009-05-28 19:00;CYQR 281900Z 31020G25KT 15SM FEW060 SCT280 19/04 A2996 RMK CU2CI1 SLP155

CYQR;2009-05-28 20:00;CYQR 282000Z 29017G24KT 15SM SCT062 SCT280 19/03 A2994 RMK CU3CI0 SLP149

CYQR;2009-05-28 21:00;CYQR 282100Z 33019G24KT 15SM SCT075 SCT280 20/01 A2993 RMK CU4CI1 SLP143

CYQR;2009-05-28 22:00;CYQR 282200Z 31026G32KT 15SM FEW090 SCT280 21/M04 A2993 RMK CU2CI0 SLP142

CYQR;2009-05-28 23:00;CYQR 282300Z 30018KT 15SM FEW090 SCT280 21/M03 A2993 RMK CU2CI1 SLP143

CYQR;2009-05-29 00:00;CYQR 290000Z 29018G29KT 15SM FEW095 FEW280 21/M05 A2993 RMK CU1CI1 SLP143

CYQR;2009-05-29 01:00;CYQR 290100Z 31020G29KT 15SM FEW095 FEW280 20/M06 A2993 RMK CU1CI1 TR CU SLP144

CYQR;2009-05-29 02:00;CYQR 290200Z 30014G20KT 15SM SCT240 BKN280 18/M06 A2993 RMK CI2CI1 SLP144

CYQR;2009-05-29 03:00;CYQR 290300Z 32008KT 15SM SCT240 BKN280 13/M04 A2994 RMK CI2CI1 SLP147

CYQR;2009-05-29 04:00;CYQR 290400Z 36006KT 15SM BKN280 10/M04 A2994 RMK CI2 SLP149

CYQR;2009-05-29 05:00;CYQR 290500Z 00000KT 15SM BKN280 11/M04 A2994 RMK CI2 SLP150

CYQR;2009-05-29 06:00;CYQR 290600Z 24007KT 15SM SCT280 06/M05 A2995 RMK CI2 SLP156

CYQR;2009-05-29 07:00;CYQR 290700Z 24006KT 15SM SCT260 06/M05 A2995 RMK CI2 SLP156

CYQR;2009-05-29 08:00;CYQR 290800Z 25006KT 15SM SCT260 05/M05 A2996 RMK CI1 SLP157

CYQR;2009-05-29 09:00;CYQR 290900Z 23002KT 15SM SCT260 05/M04 A2995 RMK CI1 SLP154

CYQR;2009-05-29 10:00;CYQR 291000Z 00000KT 15SM FEW100 BKN260 04/M04 A2996 RMK AC2CI1 SLP156

CYQR;2009-05-29 11:00;CYQR 291100Z 04002KT 15SM FEW100 BKN260 05/M01 A2996 RMK AC2CI2 SLP158

CYQR;2009-05-29 12:00;CYQR 291200Z 01002KT 15SM FEW100 BKN260 07/M01 A2997 RMK AC2CI2 SLP157

CYQR;2009-05-29 13:00;CYQR 291300Z 00000KT 15SM FEW100 FEW260 11/02 A2997 RMK AC1CI0 SLP158

CYQR;2009-05-29 14:00;CYQR 291400Z 32003KT 15SM FEW100 BKN260 16/01 A2997 RMK AC1CI1 SLP158

CYQR;2009-05-29 15:00;CYQR 291500Z 30009KT 15SM FEW100 FEW260 19/M01 A2997 RMK AC1CI1 SLP156

CYQR;2009-05-29 16:00;CYQR 291600Z 32013G19KT 15SM FEW100 BKN260 20/M04 A2996 RMK AC1CI1 CONTRAILS SLP154

CYQR;2009-05-29 17:00;CYQR 291700Z 34020G27KT 15SM SCT280 21/M03 A2996 RMK CI2 CC ASOCTD CONTRAILS SLP152

CYQR;2009-05-29 18:00;CYQR 291800Z 30019G28KT 15SM BKN280 21/M03 A2996 RMK CI1 CONTRAILS SLP155

CYQR;2009-05-29 19:00;CYQR 291900Z 33026KT 15SM FEW100 FEW280 22/M03 A2996 RMK AC1CI1 TR AC CONTRAILS SLP155

CYQR;2009-05-29 20:00;CYQR 292000Z 32027G39KT 15SM SCT280 22/M02 A2995 RMK CI1 CONTRAILS SLP151

CYQR;2009-05-29 21:00;CYQR 292100Z 32028G42KT 15SM SCT280 23/M02 A2994 RMK CI1 CONTRAILS SLP149

CYQR;2009-05-29 22:00;CYQR 292200Z 34019G31KT 15SM BKN280 22/M01 A2995 RMK CI2 CONTRAILS SLP152

CYQR;2009-05-29 23:00;CYQR 292300Z 35021G27KT 15SM BKN280 21/M01 A2996 RMK CI3 CONTRAILS SLP156

CYQR;2009-05-30 00:00;CYQR 300000Z 35017G24KT 15SM BKN280 20/M01 A2997 RMK CI2 CONTRAILS SLP160

CYQR;2009-05-30 01:00;CYQR 300100Z 36015G22KT 15SM SCT280 18/M03 A2998 RMK CI2 CONTRAILS SLP163

CYQR;2009-05-30 02:00;CYQR 300200Z 01015KT 15SM BKN280 16/M01 A2999 RMK CI1 SLP166

CYQR;2009-05-30 03:00;CYQR 300300Z 01010KT 15SM FEW095 SCT230 BKN280 14/M02 A3000 RMK AC1CI1CI1 SLP167

CYQR;2009-05-30 04:00;CYQR 300400Z 03007KT 15SM FEW095 SCT230 BKN280 11/M01 A3002 RMK AC1CI1CI1 SLP172

CYQR;2009-05-30 05:00;CYQR 300500Z 04008KT 15SM FEW095 SCT230 BKN280 10/M00 A3003 RMK AC1CI1CI1 SLP174

CYQR;2009-05-30 06:00;CYQR 300600Z 05008KT 15SM SCT230 BKN280 08/00 A3003 RMK CI1CI1 SLP178

CYQR;2009-05-30 07:00;CYQR 300700Z 21003KT 15SM SCT270 06/M01 A3003 RMK CI1 SLP179

CYQR;2009-05-30 08:00;CYQR 300800Z 18002KT 15SM SKC 04/M03 A3003 RMK SLP179

CYQR;2009-05-30 09:00;CYQR 300900Z 22004KT 15SM SKC 03/M04 A3003 RMK SLP181

CYQR;2009-05-30 10:00;CYQR 301000Z 15002KT 15SM SKC 04/M03 A3003 RMK SLP179

CYQR;2009-05-30 11:00;CYQR 301100Z 17006KT 15SM FEW092 SCT260 02/M02 A3002 RMK ACC1CI0 SLP176

CYQR;2009-05-30 12:00;CYQR 301200Z 19002KT 15SM FEW095 BKN260 05/M01 A3004 RMK ACC2CI0 SLP185

CYQR;2009-05-30 13:00;CYQR 301300Z 15003KT 15SM FEW030 FEW100 BKN260 08/01 A3003 RMK CF2ACC1CI1 VIRGA SLP180

CYQR;2009-05-30 14:00;CYQR 301400Z 16009KT 15SM FEW036 SCT079 SCT260 11/02 A3001 RMK CF1ACC3CI0 SLP174

CYQR;2009-05-30 15:00;CYQR 301500Z 17016KT 15SM FEW036 FEW079 FEW260 15/02 A2998 RMK CF1ACC2CI0 SLP162

CYQR;2009-05-30 16:00;CYQR 301600Z 17015KT 15SM FEW080 FEW260 17/02 A2996 RMK AC1CI0 SLP155

CYQR;2009-05-30 17:00;CYQR 301700Z 16014G19KT 15SM FEW080 FEW260 19/02 A2991 RMK AC1CI0 SLP140

CYQR;2009-05-30 18:00;CYQR 301800Z 17015G21KT 15SM FEW260 22/02 A2987 RMK CI1 SLP122

CYQR;2009-05-30 19:00;CYQR 301900Z 19018KT 15SM SCT260 25/02 A2983 RMK CI2 SLP109

CYQR;2009-05-30 20:00;CYQR 302000Z 18021G30KT 15SM FEW120 FEW260 27/03 A2979 RMK ACC1CI2 SLP097

CYQR;2009-05-30 21:00;CYQR 302100Z 19014G30KT 15SM FEW120 FEW260 28/02 A2975 RMK AC1CI2 SLP080

CYQR;2009-05-30 22:00;CYQR 302200Z 20020G29KT 15SM FEW120 FEW260 29/04 A2970 RMK AC1CI1 SLP066

CYQR;2009-05-30 23:00;CYQR 302300Z 19018G25KT 15SM FEW120 FEW260 30/05 A2965 RMK AC1CI1 SLP049

CYQR;2009-05-31 00:00;CYQR 310000Z 23018G24KT 15SM SCT100TCU BKN260 29/05 A2958 RMK TCU4CI1 SH W-NE PRESFR SLP021

CYQR;2009-05-31 01:00;CYQR 310100Z 00000G17KT 15SM VCSH FEW049TCU SCT088 BKN260 25/09 A2957 RMK TCU2AC2CI1 SLP017

CYQR;2009-05-31 02:00;CYQR 310200Z 12007KT 15SM SCT088 BKN260 24/10 A2955 RMK ACC4CI1 CB TOPS EAST SLP012

CYQR;2009-05-31 03:00;CYQR 310300Z 08008G18KT 15SM SCT085 BKN240 BKN300 21/10 A2955 RMK ACC4CI1CI0 SLP008

CYQR;2009-05-31 04:00;CYQR 310400Z 08005KT 15SM SCT090 BKN280 17/09 A2957 RMK ACC3CI1 SLP014

CYQR;2009-05-31 05:00;CYQR 310500Z 11008KT 15SM SCT090 BKN280 15/09 A2956 RMK ACC3CI0 SLP011

CYQR;2009-05-31 06:00;CYQR 310600Z 11003KT 15SM SCT090 BKN280 15/08 A2955 RMK ACC3CI0 SLP010

CYQR;2009-05-31 07:00;CYQR 310700Z 29009KT 15SM FEW040 SCT100 BKN250 12/07 A2960 RMK SC2AC2CI2 SLP024

CYQR;2009-05-31 08:00;CYQR 310800Z 33010G18KT 15SM BKN094 BKN250 15/08 A2960 RMK AC5CI1 SLP025

CYQR;2009-05-31 09:00;CYQR 310900Z 32013KT 15SM BKN089 OVC250 15/07 A2964 RMK AC6CI1 SLP034

CYQR;2009-05-31 09:45;CYQR 310945Z 34022G27KT 15SM -SHRA BKN083 OVC250 13/ RMK ACC6CI1

CYQR;2009-05-31 10:00;CYQR 311000Z 36018G28KT 15SM -SHRA BKN083 OVC300 12/06 A2968 RMK ACC6CI0 SLP047

CYQR;2009-05-31 10:19;CYQR 311019Z 01016KT 15SM BKN080 BKN300 12/ RMK ACC6CI0 VIRGA

CYQR;2009-05-31 11:00;CYQR 311100Z 01014KT 15SM SCT070 BKN230 BKN300 11/05 A2972 RMK AC3CI1CI0 TCU TOPS S VIRGA SLP061

CYQR;2009-05-31 12:00;CYQR 311200Z 01009KT 15SM FEW075 BKN230 BKN300 10/05 A2975 RMK AC2CI2CI0 SLP077

CYQR;2009-05-31 13:00;CYQR 311300Z 35007KT 15SM FEW140 SCT230 BKN300 11/05 A2976 RMK AC2CI2CI0 SLP080

CYQR;2009-05-31 14:00;CYQR 311400Z 32006KT 15SM FEW140 BKN260 13/06 A2979 RMK AC1CI4 SLP088

CYQR;2009-05-31 15:00;CYQR 311500Z 32008KT 15SM BKN260 15/07 A2979 RMK CI4 SLP093

CYQR;2009-05-31 16:00;CYQR 311600Z 33013G18KT 15SM BKN260 18/05 A2980 RMK CI2 SLP095

CYQR;2009-05-31 17:00;CYQR 311700Z 34011G18KT 15SM BKN260 19/03 A2980 RMK CI3 SLP095

CYQR;2009-05-31 18:00;CYQR 311800Z 33011G21KT 15SM BKN260 22/04 A2980 RMK CI4 SLP096

CYQR;2009-05-31 19:00;CYQR 311900Z 30022G30KT 15SM FEW080 FEW160 BKN260 22/M03 A2980 RMK CU1AC1CI3 SLP094

CYQR;2009-05-31 20:00;CYQR 312000Z 30022G33KT 15SM FEW100 FEW160 BKN260 23/M03 A2981 RMK CU1AC1CI3 SLP097

CYQR;2009-05-31 21:00;CYQR 312100Z 31024G30KT 15SM FEW120 FEW170 BKN270 23/M06 A2980 RMK CU1AC1CI2 SLP095

CYQR;2009-05-31 22:00;CYQR 312200Z 32028G33KT 15SM FEW120 FEW160 SCT270 23/M04 A2980 RMK CU1AC1CI1 SLP095

CYQR;2009-05-31 23:00;CYQR 312300Z 33021G31KT 15SM FEW100 BKN260 22/M04 A2981 RMK CU1CI2 SLP098

CYQR;2009-06-01 01:00;CYQR 010100Z 32018G26KT 15SM FEW100 FEW260 21/M05 A2983 RMK AC1CI1 SLP107

CYQR;2009-06-01 02:00;CYQR 010200Z 35014G21KT 15SM FEW100 FEW260 19/M03 A2984 RMK AC1CI1 SLP112

CYQR;2009-06-01 03:00;CYQR 010300Z 36009KT 15SM FEW100 FEW260 14/M03 A2986 RMK AC1CI1 SLP119

CYQR;2009-06-01 04:00;CYQR 010400Z 01006KT 15SM FEW100 FEW260 13/M03 A2988 RMK AC1CI1 SLP125

CYQR;2009-06-01 05:00;CYQR 010500Z 00000KT 15SM SKC 09/M05 A2987 RMK SLP124

CYQR;2009-06-01 06:00;CYQR 010600Z 33002KT 15SM SKC 11/M04 A2989 RMK SLP126

CYQR;2009-06-01 07:00;CYQR 010700Z 27005KT 15SM SKC 05/M05 A2989 RMK SLP128

CYQR;2009-06-01 08:00;CYQR 010800Z 27007KT 15SM FEW120 BKN260 06/M03 A2991 RMK AC2CI1 SLP134

CYQR;2009-06-01 09:00;CYQR 010900Z 30003KT 15SM FEW120 BKN260 07/M01 A2993 RMK AC2CI1 SLP142

CYQR;2009-06-01 10:00;CYQR 011000Z 28005KT 15SM BKN120 BKN260 08/M01 A2994 RMK AC6CI0 SLP148

CYQR;2009-06-01 11:00;CYQR 011100Z 30008KT 15SM OVC094 09/M01 A2996 RMK AC8 VIRGA SLP153

CYQR;2009-06-01 12:00;CYQR 011200Z 31012KT 15SM FEW062 OVC091 12/00 A2998 RMK SC2AC6 VIRGA SLP159

CYQR;2009-06-01 13:00;CYQR 011300Z 31016KT 15SM FEW060 FEW080 BKN140 OVC270 13/01 A3000 RMK SC1AC2AS5CI2 SLP166

CYQR;2009-06-01 14:00;CYQR 011400Z 30018KT 15SM FEW067 BKN090 OVC270 13/02 A3003 RMK AC2AC6CI1 SLP173

CYQR;2009-06-01 14:50;CYQR 011450Z 32018G24KT 15SM -SHRA SCT050 BKN090 OVC270 13/ RMK SC3AC3CI0 CVCTV CLD EMBD

CYQR;2009-06-01 15:00;CYQR 011500Z 32019KT 15SM FEW049 SCT090 BKN140 BKN270 13/03 A3004 RMK SC2AC2AC2CI0 SLP182

CYQR;2009-06-01 16:00;CYQR 011600Z 32018G28KT 15SM FEW049 SCT084 BKN270 15/03 A3004 RMK SC2AC2CI1 SLP182

CYQR;2009-06-01 17:00;CYQR 011700Z 32020G29KT 15SM SCT050 BKN270 16/03 A3006 RMK CU4CI1 SLP188

CYQR;2009-06-01 18:00;CYQR 011800Z 31018G31KT 15SM SCT052 BKN270 16/03 A3007 RMK CU4CI1 SLP193

CYQR;2009-06-01 19:00;CYQR 011900Z 33018G25KT 15SM BKN050 15/02 A3009 RMK SC6 TCU EMBD SLP199

CYQR;2009-06-01 20:00;CYQR 012000Z 32026G33KT 15SM BKN055 BKN100 15/03 A3010 RMK SC6AC2 SLP204

CYQR;2009-06-01 21:00;CYQR 012100Z 35023G28KT 15SM BKN040 BKN095 14/04 A3012 RMK CU5AC2 SLP215

CYQR;2009-06-01 22:00;CYQR 012200Z 35018G26KT 15SM BKN038 OVC080 14/04 A3015 RMK CU5AC3 SLP223

CYQR;2009-06-01 23:00;CYQR 012300Z 35022G29KT 15SM BKN040 BKN280 13/02 A3017 RMK CU6CI1 SLP230

CYQR;2009-06-02 00:00;CYQR 020000Z 01019KT 15SM BKN040 BKN280 11/01 A3020 RMK CU6CI1 SLP242

CYQR;2009-06-02 01:00;CYQR 020100Z 01015KT 15SM FEW044 BKN280 11/00 A3022 RMK CU2CI0 SLP246

CYQR;2009-06-02 02:00;CYQR 020200Z CCA 32005KT 15SM FEW050 08/M01 A3023 RMK SC1 SLP251

CYQR;2009-06-02 03:00;CYQR 020300Z 33005KT 15SM FEW055 09/M01 A3023 RMK SC1 SLP252

CYQR;2009-06-02 04:00;CYQR 020400Z 35003KT 15SM FEW080 04/M03 A3026 RMK AC1 SLP260

CYQR;2009-06-02 05:00;CYQR 020500Z 30002KT 15SM FEW080 05/M03 A3028 RMK AC1 SLP266

CYQR;2009-06-02 06:00;CYQR 020600Z 29008KT 15SM SKC 02/M05 A3029 RMK SLP276

CYQR;2009-06-02 07:00;CYQR 020700Z 32006KT 15SM SKC 01/M04 A3030 RMK SLP280

CYQR;2009-06-02 08:00;CYQR 020800Z 31003KT 15SM SKC 00/M05 A3032 RMK SLP284

CYQR;2009-06-02 09:00;CYQR 020900Z 32003KT 15SM SKC M01/M05 A3033 RMK SLP290

CYQR;2009-06-02 10:00;CYQR 021000Z 33004KT 15SM SKC M00/M04 A3033 RMK SLP293

CYQR;2009-06-02 11:00;CYQR 021100Z 35002KT 15SM SKC 00/M04 A3035 RMK SLP298

CYQR;2009-06-02 12:00;CYQR 021200Z 34003KT 15SM SKC M02/M05 A3036 RMK SLP305

CYQR;2009-06-02 13:00;CYQR 021300Z 00000KT 15SM SKC 05/M01 A3038 RMK SLP311

CYQR;2009-06-02 14:00;CYQR 021400Z 31004KT 15SM SKC 11/M00 A3038 RMK SLP311

CYQR;2009-06-02 15:00;CYQR 021500Z 01006KT 15SM SKC 13/M03 A3038 RMK HZ SLP304

CYQR;2009-06-02 16:00;CYQR 021600Z 36008KT 15SM SKC 14/M03 A3038 RMK SLP305

CYQR;2009-06-02 17:00;CYQR 021700Z 35008KT 15SM SKC 14/M04 A3037 RMK SLP301

CYQR;2009-06-02 18:00;CYQR 021800Z 31006KT 15SM SKC 15/M04 A3037 RMK HZ SLP302

CYQR;2009-06-02 19:00;CYQR 021900Z 00000KT 15SM SKC 16/M03 A3035 RMK SLP297

CYQR;2009-06-02 20:00;CYQR 022000Z 29006KT 15SM SKC 18/M02 A3033 RMK SLP292

CYQR;2009-06-02 21:00;CYQR 022100Z 33007KT 15SM FEW080 18/M03 A3032 RMK CF1 SLP286

CYQR;2009-06-02 22:00;CYQR 022200Z 29002KT 15SM FEW084 18/M04 A3031 RMK CF1 SLP282

CYQR;2009-06-02 23:00;CYQR 022300Z 35007KT 15SM SKC 19/M03 A3029 RMK SLP276

CYQR;2009-06-03 00:00;CYQR 030000Z 33007KT 15SM SKC 18/M03 A3027 RMK SLP270

CYQR;2009-06-03 01:00;CYQR 030100Z 34005KT 15SM SKC 18/M04 A3026 RMK SLP265

CYQR;2009-06-03 02:00;CYQR 030200Z 30007KT 15SM FEW280 16/M03 A3025 RMK CI0 SLP263

CYQR;2009-06-03 03:00;CYQR 030300Z 31004KT 15SM FEW280 15/M05 A3025 RMK CI0 SLP255

CYQR;2009-06-03 04:00;CYQR 030400Z 00000KT 15SM SKC 11/M05 A3025 RMK SLP256

CYQR;2009-06-03 05:00;CYQR 030500Z 21003KT 15SM SKC 10/M06 A3025 RMK SLP255

CYQR;2009-06-03 06:00;CYQR 030600Z 19005KT 15SM SKC 07/M07 A3025 RMK SLP259

CYQR;2009-06-03 07:00;CYQR 030700Z 21006KT 15SM SKC 06/M08 A3025 RMK SLP259

CYQR;2009-06-03 08:00;CYQR 030800Z 21006KT 15SM SKC 03/M07 A3024 RMK SLP255

CYQR;2009-06-03 09:00;CYQR 030900Z 20002KT 15SM SKC 03/M06 A3023 RMK SLP252

CYQR;2009-06-03 10:00;CYQR 031000Z 20002KT 15SM SKC 03/M05 A3022 RMK SLP250

CYQR;2009-06-03 11:00;CYQR 031100Z 23005KT 15SM SKC 04/M05 A3022 RMK SLP250

CYQR;2009-06-03 12:00;CYQR 031200Z 21005KT 15SM FEW280 05/M04 A3022 RMK CI0 SLP248

CYQR;2009-06-03 13:00;CYQR 031300Z 27009KT 15SM BKN280 11/01 A3021 RMK CI0 CONTRAILS SLP245

CYQR;2009-06-03 14:00;CYQR 031400Z 27016KT 15SM BKN280 16/02 A3020 RMK CI2 SLP241

CYQR;2009-06-03 15:00;CYQR 031500Z 28016KT 15SM BKN280 18/01 A3019 RMK CI1 SLP229

CYQR;2009-06-03 16:00;CYQR 031600Z 29016KT 15SM BKN280 20/M01 A3017 RMK CI1 SLP225

CYQR;2009-06-03 17:00;CYQR 031700Z 32007G21KT 15SM SCT280 20/M03 A3016 RMK CI1 SLP221

CYQR;2009-06-03 18:00;CYQR 031800Z 27018G25KT 15SM FEW100 BKN300 22/M03 A3014 RMK AC1CI1 CONTRAILS SLP217

CYQR;2009-06-03 19:00;CYQR 031900Z 28009G26KT 15SM FEW089 FEW300 23/M02 A3012 RMK CF1CI1 SLP211

CYQR;2009-06-03 20:00;CYQR 032000Z 30019G24KT 15SM FEW100 BKN300 23/M02 A3009 RMK CU2CI0 SLP202

CYQR;2009-06-03 21:00;CYQR 032100Z 28021G26KT 15SM FEW100 BKN300 24/M02 A3008 RMK CU2CI0 SLP195

CYQR;2009-06-03 22:00;CYQR 032200Z 30016G26KT 15SM FEW100 BKN300 24/M03 A3006 RMK CU2CI1 SLP189

CYQR;2009-06-03 23:00;CYQR 032300Z 29018G25KT 15SM FEW100 SCT300 24/M03 A3004 RMK CU2CI1 SLP184

CYQR;2009-06-04 00:00;CYQR 040000Z 32014G29KT 15SM FEW100 SCT300 23/M04 A3003 RMK AC2CI1 SLP179

CYQR;2009-06-04 01:00;CYQR 040100Z 30020G25KT 15SM FEW120 SCT300 23/M04 A3001 RMK AC2CI1 SLP173

CYQR;2009-06-04 02:00;CYQR 040200Z 30013KT 15SM FEW120 SCT280 22/M04 A3001 RMK AC2CI0 SLP172

CYQR;2009-06-04 03:00;CYQR 040300Z 33007KT 15SM FEW120 FEW280 16/M02 A3001 RMK AC1CI0 SLP168

CYQR;2009-06-04 04:00;CYQR 040400Z 35004KT 15SM FEW120 FEW280 15/M03 A3001 RMK AC1CI0 SLP169

CYQR;2009-06-04 05:00;CYQR 040500Z 28003KT 15SM FEW120 FEW280 13/M02 A3001 RMK AC1CI0 SLP168

CYQR;2009-06-04 06:00;CYQR 040600Z 25006KT 15SM FEW120 08/M05 A3001 RMK AC0 SLP170

CYQR;2009-06-04 07:00;CYQR 040700Z 28005KT 15SM FEW120 08/M03 A3000 RMK AC1 SLP168

CYQR;2009-06-04 08:00;CYQR 040800Z 34008KT 15SM SCT120 10/M00 A3000 RMK AC3 SLP167

CYQR;2009-06-04 09:00;CYQR 040900Z 31003KT 15SM FEW120 09/M02 A2998 RMK AC2 SLP160

CYQR;2009-06-04 10:00;CYQR 041000Z 25008KT 15SM FEW120 05/M04 A2997 RMK AC1 SLP157

CYQR;2009-06-04 11:00;CYQR 041100Z 28007KT 15SM FEW120 FEW280 04/M03 A2998 RMK AC1CI0 SLP158

CYQR;2009-06-04 12:00;CYQR 041200Z 30003KT 15SM FEW120 BKN280 05/M03 A2998 RMK AC1CI1 SLP161

CYQR;2009-06-04 13:00;CYQR 041300Z 30004KT 15SM FEW095 BKN280 10/02 A2997 RMK AC2CI0 SLP159

CYQR;2009-06-04 14:00;CYQR 041400Z 33010KT 15SM BKN088 BKN280 15/06 A2998 RMK AC5CI1 SLP162

CYQR;2009-06-04 15:00;CYQR 041500Z 33018G25KT 15SM SCT061 BKN088 BKN280 16/07 A2998 RMK SC3AC2CI0 SLP159

CYQR;2009-06-04 16:00;CYQR 041600Z 33015KT 15SM SCT061 BKN082 15/07 A2997 RMK SC4AC3 SH E SLP156

CYQR;2009-06-04 16:14;CYQR 041614Z 32018KT 15SM -RA FEW032 SCT061 OVC082 15/ RMK CU1SC3AC4

CYQR;2009-06-04 17:00;CYQR 041700Z 32015KT 15SM -RA FEW030 BKN061 OVC082 14/10 A2996 RMK CU1SC5AC2 SLP153

CYQR;2009-06-04 17:17;CYQR 041717Z 32015KT 15SM FEW022 SCT030 OVC061 14/ RMK CU2SC2SC4

CYQR;2009-06-04 18:00;CYQR 041800Z 34016G21KT 15SM SCT023 BKN030 OVC062 14/08 A2997 RMK CU3SC3SC2 SLP161

CYQR;2009-06-04 19:00;CYQR 041900Z 33021G27KT 15SM BKN031 BKN057 17/07 A2995 RMK SC5SC2 CVTCV CLD EMBD SH SE-SW SLP156

CYQR;2009-06-04 20:00;CYQR 042000Z 34018G31KT 15SM FEW031 SCT052 SCT100 17/01 A2995 RMK CU1SC2AC1 SLP157

CYQR;2009-06-04 21:00;CYQR 042100Z 35024G32KT 15SM FEW031 FEW052 SCT100 18/M02 A2996 RMK CU1SC2AC1 SLP156

CYQR;2009-06-04 22:00;CYQR 042200Z 35026G32KT 15SM FEW030 FEW100 17/M03 A2997 RMK CU1AC1 SLP158

CYQR;2009-06-04 23:00;CYQR 042300Z 36017G33KT 15SM FEW030 FEW100 17/M03 A2997 RMK CU1AC1 SLP160

CYQR;2009-06-05 00:00;CYQR 050000Z 36020G28KT 15SM FEW100 15/M05 A2999 RMK AC1 SLP171

CYQR;2009-06-05 01:00;CYQR 050100Z 35021G30KT 15SM FEW100 14/M03 A3001 RMK AC1 SLP178

CYQR;2009-06-05 02:00;CYQR 050200Z 36016G22KT 15SM FEW100 FEW280 12/M03 A3003 RMK AC1CI0 SLP183

CYQR;2009-06-05 03:00;CYQR 050300Z 03016G22KT 15SM FEW100 FEW280 10/M03 A3006 RMK AC1CI0 SLP192

CYQR;2009-06-05 04:00;CYQR 050400Z 01013G18KT 15SM FEW100 08/M03 A3009 RMK AC1 SLP201

CYQR;2009-06-05 05:00;CYQR 050500Z 01012G18KT 15SM FEW120 07/M03 A3010 RMK AC1 SLP205

CYQR;2009-06-05 06:00;CYQR 050600Z 36008KT 15SM FEW120 04/M02 A3012 RMK AC1 SLP215

CYQR;2009-06-05 07:00;CYQR 050700Z 02006KT 15SM FEW280 03/M02 A3013 RMK CI0 SLP218

CYQR;2009-06-05 08:00;CYQR 050800Z 04006KT 15SM FEW280 03/M02 A3013 RMK CI0 SLP220

CYQR;2009-06-05 09:00;CYQR 050900Z 04005KT 15SM FEW280 01/M02 A3014 RMK CI0 SLP222

CYQR;2009-06-05 10:00;CYQR 051000Z 30003KT 15SM SCT020 BKN050 M00/M04 A3015 RMK SC4SC3 SLP227

CYQR;2009-06-05 11:00;CYQR 051100Z 08008KT 15SM FEW020 BKN050 BKN095 04/M01 A3017 RMK SC2SC3AC2 SLP231

CYQR;2009-06-05 12:00;CYQR 051200Z 11006KT 15SM FEW020 BKN050 OVC100 04/M02 A3017 RMK SC2SC5AC1 SLP234

CYQR;2009-06-05 13:00;CYQR 051300Z 16005KT 15SM FEW027 BKN044 04/M01 A3018 RMK SC1SC6 SLP235

CYQR;2009-06-05 14:00;CYQR 051400Z 08002KT 15SM FEW025 BKN044 BKN100 05/M01 A3019 RMK SC1SC5AC2 SLP238

CYQR;2009-06-05 15:00;CYQR 051500Z 27004KT 15SM BKN026 OVC044 06/M01 A3019 RMK SC6SC2 SLP243

CYQR;2009-06-05 16:00;CYQR 051600Z 00000KT 15SM BKN029 OVC049 06/M01 A3018 RMK SC6SC2 SLP238

CYQR;2009-06-05 17:00;CYQR 051700Z 33002KT 15SM BKN029 OVC060 06/M01 A3017 RMK SC7SC1 SLP235

CYQR;2009-06-05 18:00;CYQR 051800Z 33002KT 15SM OVC035 08/M01 A3016 RMK SC8 SLP233

CYQR;2009-06-05 19:00;CYQR 051900Z 32002KT 15SM BKN040 OVC065 08/M02 A3014 RMK SC7SC1 SLP229

CYQR;2009-06-05 20:00;CYQR 052000Z 01006KT 15SM BKN042 OVC150 09/M02 A3013 RMK SC7AS1 SLP224

CYQR;2009-06-05 21:00;CYQR 052100Z 06003KT 15SM BKN045 OVC150 10/M00 A3013 RMK SC7AS1 SLP223

CYQR;2009-06-05 22:00;CYQR 052200Z 26006KT 15SM BKN048 OVC150 10/M01 A3010 RMK SC6AS2 SLP216

CYQR;2009-06-05 23:00;CYQR 052300Z 00000KT 15SM FEW050 BKN260 11/M01 A3008 RMK CU2CI1 SLP209

CYQR;2009-06-06 00:00;CYQR 060000Z 34006KT 15SM FEW054 SCT260 11/M01 A3005 RMK CU2CI0 SLP194

CYQR;2009-06-06 01:00;CYQR 060100Z 13006KT 15SM FEW054 FEW110 SCT260 12/M02 A3004 RMK SC2AC1CI0 SLP193

CYQR;2009-06-06 02:00;CYQR 060200Z 10004KT 15SM FEW060 FEW110 BKN260 10/M01 A3003 RMK SC1AC1CI1 SLP188

CYQR;2009-06-06 03:00;CYQR 060300Z 03005KT 15SM BKN066 BKN110 BKN260 09/M02 A3003 RMK AC5AC1CI1 SLP188

CYQR;2009-06-06 04:00;CYQR 060400Z 05006KT 15SM BKN066 BKN110 09/M02 A3004 RMK AC6AC1 SLP189

CYQR;2009-06-06 05:00;CYQR 060500Z 08006KT 15SM BKN066 BKN110 07/M02 A3003 RMK AC6AC1 SLP188

CYQR;2009-06-06 06:00;CYQR 060600Z 07012G17KT 15SM FEW069 SCT110 BKN260 08/M04 A3002 RMK AC2AC1CI0 SLP183

CYQR;2009-06-06 07:00;CYQR 060700Z 07014KT 15SM FEW110 SCT260 07/M04 A3000 RMK AC1CI0 SLP179

CYQR;2009-06-06 08:00;CYQR 060800Z 08014G19KT 15SM SCT072 OVC097 06/M04 A3000 RMK AC4AC3 SLP177

CYQR;2009-06-06 09:00;CYQR 060900Z 08015G20KT 15SM BKN064 OVC097 06/M03 A3000 RMK SC7AC1 SLP177

CYQR;2009-06-06 10:00;CYQR 061000Z 08014KT 15SM OVC064 05/M02 A2999 RMK SC8 SLP174

CYQR;2009-06-06 11:00;CYQR 061100Z 08012KT 15SM BKN066 05/M01 A2998 RMK AC7 SLP169

CYQR;2009-06-06 12:00;CYQR 061200Z 08011KT 15SM BKN068 OVC260 04/M01 A2999 RMK AC7CI0 SLP172

CYQR;2009-06-06 13:00;CYQR 061300Z 08014KT 15SM BKN037 OVC068 04/M00 A2999 RMK SC7AC1 SLP173

CYQR;2009-06-06 13:51;CYQR 061351Z 09013KT 15SM -SHRA SCT042 OVC075 04/ RMK SC3AC5 ACC ASOCTD

CYQR;2009-06-06 14:00;CYQR 061400Z 08013KT 15SM -SHRA SCT023 BKN075 OVC092 04/M00 A3001 RMK SC3AC3ACC2 SLP179

CYQR;2009-06-06 14:35;CYQR 061435Z 09012G17KT 15SM FEW023 OVC081 06/ RMK SC1AS7

CYQR;2009-06-06 15:00;CYQR 061500Z 08012G17KT 15SM FEW029 SCT036 OVC100 07/01 A3000 RMK SC2SC2AS4 SLP178

CYQR;2009-06-06 16:00;CYQR 061600Z 09013KT 15SM OVC100 08/00 A3000 RMK AC8 SLP177

CYQR;2009-06-06 17:00;CYQR 061700Z 08013KT 15SM FEW032 FEW066 OVC097 08/00 A3000 RMK CU1AC2AC6 TR CU SLP176

CYQR;2009-06-06 18:00;CYQR 061800Z 08012G18KT 15SM FEW040 OVC100 10/01 A2999 RMK CU2AC6 SLP174

CYQR;2009-06-06 19:00;CYQR 061900Z 09009G15KT 15SM VCSH BKN040 BKN058 OVC100 11/01 A2998 RMK CU5SC2AC2 SLP170

CYQR;2009-06-06 19:18;CYQR 061918Z 09012KT 15SM -SHRA BKN043 OVC100 10/ RMK CU5AC3

CYQR;2009-06-06 20:00;CYQR 062000Z 16014G21KT 15SM -SHRA SCT051 OVC084 08/04 A3000 RMK CU4AC4 SLP175

CYQR;2009-06-06 21:00;CYQR 062100Z 11007KT 6SM -SHRA BR SCT021 OVC055 07/04 A3001 RMK SC4SC4 SLP183

CYQR;2009-06-06 22:00;CYQR 062200Z 12007KT 6SM -SHRA BR SCT021 OVC082 07/04 A3002 RMK SC4AC4 SLP186

CYQR;2009-06-06 23:00;CYQR 062300Z 09006KT 6SM -RA BR BKN015 OVC082 06/04 A3003 RMK SC6AC2 CU EMBD SLP188

CYQR;2009-06-07 00:00;CYQR 070000Z 04009KT 6SM -SHRA BR BKN023 OVC060 07/05 A3003 RMK SC6SC2 SLP189

CYQR;2009-06-07 01:00;CYQR 070100Z 06010KT 10SM -SHRA OVC023 07/04 A3004 RMK SC8 CU EMBD SLP192

CYQR;2009-06-07 02:00;CYQR 070200Z 06010KT 12SM -RA BKN027 OVC063 06/03 A3005 RMK SC7SC1 SLP196

CYQR;2009-06-07 03:00;CYQR 070300Z 08011KT 5SM -RA BR OVC017 06/03 A3006 RMK SC8 CIG RAG SLP201

CYQR;2009-06-07 04:00;CYQR 070400Z 07008KT 8SM -RA OVC026 05/03 A3008 RMK SC8 SLP207

CYQR;2009-06-07 05:00;CYQR 070500Z 05008KT 10SM -RA OVC022 05/03 A3008 RMK SC8 SLP207

CYQR;2009-06-07 06:00;CYQR 070600Z 06008KT 10SM -RA OVC019 05/03 A3008 RMK SC8 SLP206

CYQR;2009-06-07 07:00;CYQR 070700Z 07008KT 12SM -RA BKN009 OVC026 05/03 A3008 RMK SC5SC3 SLP206

CYQR;2009-06-07 07:37;CYQR 070737Z 08007KT 12SM -RA BKN013 OVC042 05/ RMK SC6SC2

CYQR;2009-06-07 08:00;CYQR 070800Z 09009KT 12SM -RA BKN013 OVC042 05/03 A3008 RMK SC7SC1 SLP205

CYQR;2009-06-07 08:11;CYQR 070811Z 08008KT 12SM -RA FEW010 BKN016 OVC043 04/ RMK SC1SC7SC1

CYQR;2009-06-07 08:28;CYQR 070828Z 09008KT 12SM -RA BKN010 OVC030 04/ RMK SC6SC2

CYQR;2009-06-07 09:00;CYQR 070900Z 09006KT 12SM -RA FEW010 OVC022 04/03 A3008 RMK SC2SC6 SLP207

CYQR;2009-06-07 10:00;CYQR 071000Z 07006KT 15SM -RA OVC027 04/03 A3007 RMK SC8 SLP204

CYQR;2009-06-07 11:00;CYQR 071100Z 09004KT 15SM BKN045 OVC080 04/03 A3007 RMK SC7AC1 SLP205

CYQR;2009-06-07 12:00;CYQR 071200Z 08006KT 15SM FEW010 BKN038 OVC088 05/03 A3007 RMK SC1SC6AC2 SLP204

CYQR;2009-06-07 13:00;CYQR 071300Z 08006KT 15SM FEW010 SCT032 OVC067 05/03 A3009 RMK SC1SC3AC5 SLP209

CYQR;2009-06-07 13:52;CYQR 071352Z 10012KT 15SM -SHRA FEW012 OVC039 05/ RMK SC2SC6

CYQR;2009-06-07 14:00;CYQR 071400Z 10011KT 10SM -SHRA BKN012 OVC047 05/02 A3009 RMK SC5SC3 SLP209

CYQR;2009-06-07 15:00;CYQR 071500Z 09010KT 10SM -RA OVC014 06/04 A3009 RMK SC8 CVCTV CLD EMBD SLP210

CYQR;2009-06-07 16:00;CYQR 071600Z 08009KT 10SM -SHRA BKN012 OVC050 06/04 A3009 RMK SC6SC2 CVCTV CLD ASOCTD SLP211

CYQR;2009-06-07 17:00;CYQR 071700Z 10008KT 10SM -SHRA BKN012 OVC050 07/05 A3009 RMK SC6SC2 CVCTV CLD EMBDD SLP210

CYQR;2009-06-07 18:00;CYQR 071800Z 11007KT 15SM -SHRA BKN015 OVC050 07/04 A3008 RMK SC6SC2 CVCTV CLD ASOCTD SLP206

CYQR;2009-06-07 19:00;CYQR 071900Z 09005KT 15SM -SHRA BKN015 OVC039 08/05 A3007 RMK CU6SC2 SLP204

CYQR;2009-06-07 20:00;CYQR 072000Z 17009KT 10SM -SHRA BKN017 OVC068 08/05 A3007 RMK SC6AC2 SLP202

CYQR;2009-06-07 21:00;CYQR 072100Z 09007KT 15SM -SHRA FEW010 SCT017 BKN041 OVC080 09/06 A3006 RMK CF1SC4SC2AC2 SLP199

CYQR;2009-06-07 22:00;CYQR 072200Z 13008KT 6SM -SHRA BR SCT011 BKN018 OVC095 07/06 A3007 RMK CF3SC3AC2 SLP203

CYQR;2009-06-07 23:00;CYQR 072300Z 08006KT 12SM -SHRA FEW015 BKN024 OVC095 09/06 A3006 RMK CU2SC4AC2 SLP199

CYQR;2009-06-08 00:00;CYQR 080000Z 10010KT 15SM -SHRA SCT026 BKN049 OVC069 09/05 A3006 RMK CU3SC3AC2 SLP199

CYQR;2009-06-08 01:00;CYQR 080100Z 09008KT 15SM -SHRA BKN020 OVC058 07/05 A3006 RMK CU5SC3 SLP200

CYQR;2009-06-08 02:00;CYQR 080200Z 09007KT 15SM -RA OVC021 07/05 A3007 RMK SC8 CIG RAG SLP203

CYQR;2009-06-08 03:00;CYQR 080300Z 09003KT 15SM -RA OVC016 07/06 A3008 RMK SC8 CIG RAG SLP205

CYQR;2009-06-08 04:00;CYQR 080400Z 11006KT 15SM -RA OVC020 07/06 A3009 RMK SC8 CIG RAG SLP209

CYQR;2009-06-08 04:36;CYQR 080436Z 10005KT 12SM -RA OVC014 RMK SC8 CIG RAG

CYQR;2009-06-08 04:47;CYQR 080447Z 10005KT 12SM -RA OVC009 07/ RMK SC8

CYQR;2009-06-08 05:00;CYQR 080500Z 10006KT 12SM -RA OVC007 07/06 A3009 RMK SF8 SLP210

CYQR;2009-06-08 05:22;CYQR 080522Z 08009KT 12SM -RA SCT008 BKN025 OVC048 07/ RMK SF3SC3SC2

CYQR;2009-06-08 06:00;CYQR 080600Z 08010KT 10SM -RA FEW008 OVC023 07/05 A3008 RMK SF1SC7 SLP205

CYQR;2009-06-08 07:00;CYQR 080700Z 08007KT 10SM -RA OVC023 07/05 A3007 RMK SC8 SLP201

CYQR;2009-06-08 08:00;CYQR 080800Z 08007KT 12SM -RA OVC026 06/05 A3006 RMK SC8 SLP198

CYQR;2009-06-08 09:00;CYQR 080900Z 09009KT 12SM -RA BKN009 OVC017 06/05 A3004 RMK SC6SC2 SLP192

CYQR;2009-06-08 10:00;CYQR 081000Z 09008KT 12SM -RA OVC008 06/05 A3005 RMK SF8 SLP193

CYQR;2009-06-08 10:22;CYQR 081022Z 10008KT 10SM -RA FEW007 OVC021 06/ RMK SF2SC6

CYQR;2009-06-08 11:00;CYQR 081100Z 09008KT 4SM -RA BR OVC023 06/05 A3005 RMK SC8 SLP194

CYQR;2009-06-08 11:06;CYQR 081106Z 09008KT 4SM -RA BR BKN008 OVC023 06/ RMK SF5SC3

CYQR;2009-06-08 11:40;CYQR 081140Z 09012KT 4SM -RA BR SCT010 OVC019 06/ RMK SC4SC4

CYQR;2009-06-08 12:00;CYQR 081200Z 09009KT 6SM -RA BR FEW010 OVC023 06/04 A3005 RMK SC2SC6 SLP196

CYQR;2009-06-08 12:34;CYQR 081234Z 09008KT 10SM -RA SCT008 OVC013 06/ RMK SF4SC4

CYQR;2009-06-08 12:53;CYQR 081253Z 09007KT 10SM -RA BKN009 OVC015 06/ RMK SF6SC2

CYQR;2009-06-08 13:00;CYQR 081300Z 08008KT 10SM -RA BKN009 OVC015 06/05 A3005 RMK SF7SC1 CIG RAG SLP194

CYQR;2009-06-08 13:30;CYQR 081330Z 09007KT 10SM -RA OVC010 OVC030 06/ RMK SF7SC1

CYQR;2009-06-08 14:00;CYQR 081400Z 08009KT 10SM -RA BKN009 OVC034 07/05 A3005 RMK SF7SC1 SLP194

CYQR;2009-06-08 14:19;CYQR 081419Z 09010KT 10SM -RA BKN014 OVC032 07/ RMK SF7SC1

CYQR;2009-06-08 15:00;CYQR 081500Z 08010KT 10SM -RA BKN012 OVC059 07/05 A3005 RMK SC7SC1 SLP195

CYQR;2009-06-08 15:25;CYQR 081525Z 08012KT 10SM -RA BKN017 OVC059 07/ RMK SC6SC2

CYQR;2009-06-08 16:00;CYQR 081600Z 06010KT 15SM -SHRA BKN015 OVC045 08/05 A3004 RMK SC6SC2 SLP192

CYQR;2009-06-08 17:00;CYQR 081700Z 09012G17KT 15SM -SHRA BKN015 OVC038 08/05 A3004 RMK SC5SC3 SLP190

CYQR;2009-06-08 17:48;CYQR 081748Z 07011G19KT 15SM BKN022 OVC065 09/ RMK SC5SC3

CYQR;2009-06-08 18:00;CYQR 081800Z 09016KT 15SM SCT022 BKN065 OVC230 09/05 A3003 RMK SC4SC2CI1 SLP185

CYQR;2009-06-08 18:36;CYQR 081836Z 09012KT 15SM -SHRA BKN024 BKN058 OVC065 10/ RMK SC5SC2SC1

CYQR;2009-06-08 19:00;CYQR 081900Z 08012KT 15SM -SHRA BKN024 OVC058 09/04 A3002 RMK SC6SC2 SLP183

CYQR;2009-06-08 20:00;CYQR 082000Z 06007KT 15SM -SHRA SCT016 BKN023 OVC052 09/06 A3002 RMK SC4SC3SC1 SLP182

CYQR;2009-06-08 21:00;CYQR 082100Z 05011KT 15SM -SHRA FEW023 SCT038 OVC061 10/05 A3001 RMK CF2SC2SC5 SLP180

CYQR;2009-06-08 22:00;CYQR 082200Z 08009KT 15SM SCT024 BKN045 BKN051 BKN059 10/05 A3000 RMK CF3SC2SC2SC1 SLP178

CYQR;2009-06-08 23:00;CYQR 082300Z 09007KT 15SM VCSH SCT031 BKN047 BKN067 BKN230 11/04 A2999 RMK CU4SC2AC1CI1 SHR W SLP175

CYQR;2009-06-08 23:31;CYQR 082331Z 04012KT 15SM -SHRA SCT031 BKN041 BKN067 BKN230 10/ RMK CU4SC2AC1CI1

CYQR;2009-06-09 00:00;CYQR 090000Z 10005KT 15SM SCT035 BKN055 BKN080 OVC240 09/04 A2999 RMK CU4SC2AC2CI0 SLP175

CYQR;2009-06-09 01:00;CYQR 090100Z 07005KT 15SM SCT026 BKN062 10/05 A2999 RMK CU4SC3 SH W-NW TCU EMBD SLP175

CYQR;2009-06-09 02:00;CYQR 090200Z 16002KT 15SM SCT029 BKN040 BKN077 10/04 A3000 RMK SC3SC2AC2 SH S SLP178

CYQR;2009-06-09 02:53;CYQR 090253Z 20004KT 15SM SCT025TCU BKN078 08/ RMK TCU4AC3 FUNNEL CLOUD NW

CYQR;2009-06-09 03:00;CYQR 090300Z 21003KT 15SM SCT025TCU BKN078 08/06 A3000 RMK TCU4AC3 FUNNEL CLOUD NW SH NE SLP178

CYQR;2009-06-09 03:06;CYQR 090306Z 27003KT 15SM BKN025TCU BKN078 08/ RMK TCU5AC2

CYQR;2009-06-09 03:19;CYQR 090319Z 03009KT 15SM -SHRA BKN014TCU BKN078 08/ RMK TCU6AC2

CYQR;2009-06-09 04:00;CYQR 090400Z 05004KT 4SM SHRA BR BKN017 BKN080 07/06 A3002 RMK SC6AC1 CVCTV CLD EMBD SLP184

CYQR;2009-06-09 04:26;CYQR 090426Z 13005KT 15SM BKN017 BKN080 07/ RERA RMK SC6AC2

CYQR;2009-06-09 05:00;CYQR 090500Z 30002KT 15SM BKN034 BKN094 06/05 A3001 RERA RMK SC5AC2 SLP182

CYQR;2009-06-09 06:00;CYQR 090600Z 36002KT 15SM FEW010 SCT058 OVC092 06/05 A3000 RMK SC1SC3AC4 SLP178

CYQR;2009-06-09 07:00;CYQR 090700Z 35003KT 15SM OVC092 06/05 A3000 RMK AC7 SLP178

CYQR;2009-06-09 08:00;CYQR 090800Z 01003KT 15SM BKN052 OVC096 05/05 A3000 RMK SC5AC2 SLP177

CYQR;2009-06-09 09:00;CYQR 090900Z 32002KT 15SM BKN014 OVC095 05/04 A3000 RMK SC6AC2 SLP178

CYQR;2009-06-09 09:21;CYQR 090921Z 36002KT 15SM BKN029 OVC054 05/ RMK SC5SC3

CYQR;2009-06-09 10:00;CYQR 091000Z 03005KT 15SM FEW036 SCT052 OVC097 05/04 A3000 RMK SC2SC2AC4 SLP179

CYQR;2009-06-09 11:00;CYQR 091100Z 03005KT 15SM BKN039 BKN097 06/05 A3000 RMK SC6AC1 SLP179

CYQR;2009-06-09 12:00;CYQR 091200Z 04003KT 15SM FEW023 SCT033 BKN049 OVC073 06/05 A3001 RMK SC2SC2SC2AC1 SLP179

CYQR;2009-06-09 12:21;CYQR 091221Z 06003KT 15SM -SHRA FEW008 BKN031 OVC049 06/ RMK SF2SC5SC1 CVCTV CLD EMBD

CYQR;2009-06-09 12:30;CYQR 091230Z 04002KT 15SM -SHRA BKN006 BKN019 OVC049 06/ RMK SF5SC2SC1 CVCTV CLD EMBD

CYQR;2009-06-09 12:52;CYQR 091252Z 04003KT 15SM SCT006 BKN019 07/ RMK SF4SC3 CVCTV CLD EMBD

CYQR;2009-06-09 13:00;CYQR 091300Z 05002KT 15SM BKN006 BKN019 BKN050 07/05 A3001 RMK SF5SC2SC1 CVCTV CLD EMBD SLP180

CYQR;2009-06-09 14:00;CYQR 091400Z 04003KT 15SM BKN010 OVC042 07/05 A3002 RMK SC6SC2 SLP183

CYQR;2009-06-09 15:00;CYQR 091500Z 04005KT 15SM BKN012 BKN044 OVC080 08/05 A3003 RMK SC5SC2AC2 SLP188

CYQR;2009-06-09 15:34;CYQR 091534Z 35007KT 15SM -SHRA FEW009 BKN016 OVC034 07/ RMK SF1SC7SC1

CYQR;2009-06-09 16:00;CYQR 091600Z 36006KT 15SM -SHRA FEW009 BKN016 OVC034 07/05 A3004 RMK SF1SC7SC1 SLP191

CYQR;2009-06-09 16:35;CYQR 091635Z 05005KT 15SM SCT019 BKN051 BKN090 09/ RMK CU3SC2AC2

CYQR;2009-06-09 17:00;CYQR 091700Z 00000KT 15SM SCT027 SCT051 BKN090 09/03 A3003 RMK CU3SC1AC2 SLP188

CYQR;2009-06-09 18:00;CYQR 091800Z 35004KT 15SM SCT027 SCT051 BKN090 10/04 A3003 RMK CU3SC1AC2 SLP185

CYQR;2009-06-09 18:50;CYQR 091850Z 34014KT 15SM -SHRA SCT032 BKN046 OVC090 10/ RMK CU3SC3AC2

CYQR;2009-06-09 19:00;CYQR 091900Z 34011G17KT 15SM -SHRA SCT040 BKN049 BKN099 09/05 A3002 RMK CU3SC2AC2 TCU ASOCTD SLP184

CYQR;2009-06-09 19:47;CYQR 091947Z 34006KT 15SM SCT040TCU BKN099 BKN270 12/ RMK TCU3AC3CI0

CYQR;2009-06-09 20:00;CYQR 092000Z 31006KT 15SM SCT040TCU BKN068 BKN075 11/04 A3002 RMK TCU3AC2AC1 SLP182

CYQR;2009-06-09 21:00;CYQR 092100Z 34007KT 15SM BKN032TCU BKN080 12/04 A3000 RMK TCU5AC2 SLP177

CYQR;2009-06-09 22:00;CYQR 092200Z 33005KT 15SM BKN035 BKN073 11/04 A3001 RMK CU6AC2 TCU ASOCTD SLP178

CYQR;2009-06-09 23:00;CYQR 092300Z 31011KT 15SM BKN035 BKN073 12/04 A3001 RMK CU6AC2 TCU ASOCTD SLP178

CYQR;2009-06-10 00:00;CYQR 100000Z 33011KT 15SM SCT035TCU BKN064 BKN085 13/04 A3000 RMK TCU3CU2AC2 SLP176

CYQR;2009-06-10 01:00;CYQR 100100Z 31008KT 15SM FEW035 SCT075 12/03 A3000 RMK CU2AC1 SLP174

CYQR;2009-06-10 02:00;CYQR 100200Z 30007KT 15SM FEW030 FEW075 10/03 A3000 RMK CU2AC1 SLP174

CYQR;2009-06-10 03:00;CYQR 100300Z 36005KT 15SM SCT069 BKN100 10/04 A3001 RMK AC3AC2 SLP178

CYQR;2009-06-10 04:00;CYQR 100400Z 34005KT 15SM BKN084 07/04 A3002 RMK AC5 SLP181

CYQR;2009-06-10 05:00;CYQR 100500Z 34005KT 15SM FEW084 06/03 A3001 RMK AC1 SLP180

CYQR;2009-06-10 06:00;CYQR 100600Z 00000KT 15SM FEW250 06/03 A3002 RMK CI1 SLP182

CYQR;2009-06-10 07:00;CYQR 100700Z 00000KT 15SM FEW077 FEW250 03/01 A3001 RMK AC1CI0 SLP181

CYQR;2009-06-10 08:00;CYQR 100800Z 19002KT 15SM FEW077 02/01 A3001 RMK AC1 SLP180

CYQR;2009-06-10 09:00;CYQR 100900Z 21003KT 15SM SCT077 02/01 A3001 RMK AC3 SLP180

CYQR;2009-06-10 10:00;CYQR 101000Z 30002KT 15SM SCT076 00/M01 A3000 RMK AC3 SLP179

CYQR;2009-06-10 11:00;CYQR 101100Z 00000KT 15SM FEW061 BKN096 02/01 A3001 RMK SC2AC4 SLP181

CYQR;2009-06-10 12:00;CYQR 101200Z 36002KT 15SM FEW063 BKN089 05/03 A3001 RMK SC2AC3 SLP179

CYQR;2009-06-10 13:00;CYQR 101300Z 00000KT 15SM BKN059 BKN260 07/05 A3002 RMK SC6CI1 SLP181

CYQR;2009-06-10 14:00;CYQR 101400Z 00000KT 15SM FEW046 FEW092 BKN260 10/06 A3002 RMK SC2AC1CI0 SLP181

CYQR;2009-06-10 15:00;CYQR 101500Z 30004KT 15SM FEW030 FEW090 BKN280 11/04 A3002 RMK CU1AC1CI1 SLP179

CYQR;2009-06-10 16:00;CYQR 101600Z 32003KT 15SM BKN036 BKN280 12/03 A3001 RMK CU6CI1 SLP177

CYQR;2009-06-10 17:00;CYQR 101700Z 25003KT 15SM BKN040TCU BKN280 12/04 A3000 RMK TCU6CI0 SLP174

CYQR;2009-06-10 17:17;CYQR 101717Z 26006KT 15SM -SHRA BKN034 BKN280 12/ RMK CU6CI0 TCU ASOCTD

CYQR;2009-06-10 17:43;CYQR 101743Z 25005KT 15SM BKN034 BKN280 13/ RMK CU6CI0 TCU ASOCTD VIRGA

CYQR;2009-06-10 18:00;CYQR 101800Z 23003KT 15SM -SHRA BKN037 OVC280 12/04 A2999 RMK CU6CI0 TCU EMBD SLP172

CYQR;2009-06-10 18:16;CYQR 101816Z 22002KT 15SM BKN037 BKN280 12/ RMK CU5CI0 TCU EMBD

CYQR;2009-06-10 19:00;CYQR 101900Z 00000KT 15SM BKN039 13/04 A2998 RMK CU7 TCU EMBD SLP169

CYQR;2009-06-10 19:16;CYQR 101916Z 18005KT 15SM -SHRA BKN041 BKN096 BKN280 12/ RMK CU5AC2CI0 TCU EMBD

CYQR;2009-06-10 20:00;CYQR 102000Z CCA 12006KT 15SM VCSH BKN040 BKN100 BKN280 11/06 A2999 RERA RMK CU5AC1CI0 TCU EMBD SLP171

CYQR;2009-06-10 21:00;CYQR 102100Z 18006KT 15SM BKN040 BKN100 13/05 A2998 RMK CU5AC2 SH W TCU EMBD SLP171

CYQR;2009-06-10 22:00;CYQR 102200Z 28007KT 15SM -SHRA BKN047 BKN100 13/06 A2998 RMK CU6AC2 TCU EMBD SLP171

CYQR;2009-06-10 22:19;CYQR 102219Z 27005KT 15SM BKN047 BKN100 BKN280 14/ RMK CU5AC2CI1 TCU EMBD

CYQR;2009-06-10 23:00;CYQR 102300Z 23004KT 15SM BKN053 BKN095 BKN280 14/05 A2998 RMK CU5AC2CI0 SLP169

CYQR;2009-06-11 00:00;CYQR 110000Z 22005KT 15SM SCT055 BKN120 BKN280 14/05 A2996 RMK CU3AC2CI1 SLP162

CYQR;2009-06-11 01:00;CYQR 110100Z 20002KT 15SM FEW045 BKN120 14/04 A2996 RMK CU2AC5 SLP160

CYQR;2009-06-11 02:00;CYQR 110200Z 28003KT 15SM FEW045 BKN095 BKN280 13/06 A2995 RMK SC1AC6CI0 SLP159

CYQR;2009-06-11 03:00;CYQR 110300Z 24003KT 15SM FEW045 BKN095 OVC280 12/07 A2996 RMK SC2AC4CI2 SLP158

CYQR;2009-06-11 04:00;CYQR 110400Z 23005KT 15SM FEW045 BKN110 OVC280 10/07 A2997 RMK SC2AC6CI0 SLP161

CYQR;2009-06-11 05:00;CYQR 110500Z 27005KT 15SM BKN093 08/06 A2997 RMK AC6 SLP161

CYQR;2009-06-11 06:00;CYQR 110600Z 21004KT 15SM FEW050 SCT093 08/06 A2997 RMK SC2AC2 SLP163

CYQR;2009-06-11 07:00;CYQR 110700Z 26004KT 15SM FEW058 SCT095 08/05 A2996 RMK SC2AC2 SLP161

CYQR;2009-06-11 08:00;CYQR 110800Z 18003KT 15SM FEW056 BKN094 07/06 A2996 RMK SC2AC6 SLP161

CYQR;2009-06-11 09:00;CYQR 110900Z 12003KT 15SM FEW055 OVC095 07/06 A2995 RMK SC2AC6 SLP158

CYQR;2009-06-11 10:00;CYQR 111000Z 16002KT 15SM FEW055 SCT100 BKN280 07/06 A2995 RMK SC1AC3CI1 SLP157

CYQR;2009-06-11 11:00;CYQR 111100Z 19004KT 15SM FEW074 BKN280 06/05 A2994 RMK AC1CI2 SLP155

CYQR;2009-06-11 12:00;CYQR 111200Z 15002KT 15SM BKN100 07/06 A2994 RMK AC6 SH SW SLP152

CYQR;2009-06-11 13:00;CYQR 111300Z 22005KT 15SM FEW010 FEW045 SCT095 BKN280 08/07 A2994 RMK SF1SC2AC2CI2 SH DIST SW SLP154

CYQR;2009-06-11 14:00;CYQR 111400Z 19004KT 15SM FEW045 SCT075 BKN082 BKN280 11/07 A2994 RMK SC2AC2AC1CI2 SLP154

CYQR;2009-06-11 15:00;CYQR 111500Z CCA 22003KT 15SM FEW030 FEW068 BKN280 12/07 A2994 RMK CU1AC2CI2 SLP149

CYQR;2009-06-11 16:00;CYQR 111600Z 00000KT 15SM FEW030TCU FEW068 BKN280 14/05 A2993 RMK TCU2AC1CI2 SLP147

CYQR;2009-06-11 17:00;CYQR 111700Z 27003KT 15SM SCT045TCU BKN073 BKN280 15/05 A2992 RMK TCU4AC1CI2 SLP144

CYQR;2009-06-11 18:00;CYQR 111800Z 21003KT 15SM BKN050 BKN280 16/05 A2991 RMK CU6CI0 TCU EMBD SLP139

CYQR;2009-06-11 19:00;CYQR 111900Z 27006KT 15SM BKN053 BKN280 18/06 A2989 RMK CU6CI0 TCU EMBD SLP133

CYQR;2009-06-11 20:00;CYQR 112000Z 32008KT 15SM SCT050 BKN280 17/04 A2988 RMK CU3CI0 SLP130

CYQR;2009-06-11 21:00;CYQR 112100Z 33006KT 15SM FEW060 BKN280 18/04 A2987 RMK CU2CI0 SLP124

CYQR;2009-06-11 22:00;CYQR 112200Z 35004KT 15SM SCT070 BKN280 18/03 A2986 RMK CU4CI0 SLP122

CYQR;2009-06-11 23:00;CYQR 112300Z 24002KT 15SM SCT070 BKN280 20/04 A2985 RMK CU4CI0 SLP118

CYQR;2009-06-12 00:00;CYQR 120000Z 30006KT 15SM FEW070 BKN280 20/04 A2983 RMK CU2CI0 SLP112

CYQR;2009-06-12 01:00;CYQR 120100Z 28003KT 15SM FEW080 BKN280 20/04 A2983 RMK CU1CI0 SLP111

CYQR;2009-06-12 02:00;CYQR 120200Z 23008KT 15SM FEW080 19/04 A2983 RMK AC1 SLP110

CYQR;2009-06-12 03:00;CYQR 120300Z 21008KT 15SM FEW080 14/05 A2982 RMK AC1 SLP109

CYQR;2009-06-12 04:00;CYQR 120400Z 21009KT 15SM FEW080 11/05 A2982 RMK AC1 SLP108

CYQR;2009-06-12 05:00;CYQR 120500Z 21009KT 15SM SCT100 11/05 A2982 RMK AC4 SLP108

CYQR;2009-06-12 06:00;CYQR 120600Z 21012KT 15SM SCT100 12/05 A2981 RMK AC3 SLP104

CYQR;2009-06-12 07:00;CYQR 120700Z 22012KT 15SM FEW100 12/04 A2981 RMK AC2 SLP102

CYQR;2009-06-12 08:00;CYQR 120800Z 32007G18KT 15SM BKN100 11/05 A2982 RMK AC6 SLP105

CYQR;2009-06-12 09:00;CYQR 120900Z 24008KT 15SM SCT100 08/04 A2981 RMK AC4 SLP103

CYQR;2009-06-12 10:00;CYQR 121000Z 31005KT 15SM -SHRA OVC057 11/05 A2983 RMK SC8 SLP111

CYQR;2009-06-12 10:53;CYQR 121053Z 16002KT 15SM OVC057 12/ RMK SC8

CYQR;2009-06-12 11:00;CYQR 121100Z 27011KT 15SM BKN057 11/06 A2984 RMK SC7 SLP114

CYQR;2009-06-12 12:00;CYQR 121200Z 35008KT 15SM FEW042 BKN060 13/06 A2985 RMK SC2SC5 SLP113

CYQR;2009-06-12 12:09;CYQR 121209Z 34006KT 15SM -SHRA BKN052 12/ RMK SC7

CYQR;2009-06-12 12:47;CYQR 121247Z 18007KT 15SM VCSH SCT013 BKN096 11/ RMK SC3AC2 SH E-SW

CYQR;2009-06-12 13:00;CYQR 121300Z 17003KT 15SM FEW025 BKN096 13/09 A2983 RMK SC2AC2 SLP107

CYQR;2009-06-12 14:00;CYQR 121400Z 26005KT 15SM FEW025 SCT091 BKN280 16/11 A2985 RMK SC1AC2CI0 SLP114

CYQR;2009-06-12 15:00;CYQR 121500Z 31007KT 15SM SCT080 BKN280 17/09 A2985 RMK AC3CI1 SLP115

CYQR;2009-06-12 16:00;CYQR 121600Z 35007KT 15SM SCT090 BKN280 18/09 A2986 RMK AC4CI0 SLP117

CYQR;2009-06-12 17:00;CYQR 121700Z 35005KT 15SM FEW045 FEW095 BKN280 19/09 A2986 RMK CU1AC1CI1 SLP117

CYQR;2009-06-12 18:00;CYQR 121800Z 35008KT 15SM FEW050 SCT300 20/06 A2987 RMK CU2CI0 SLP120

CYQR;2009-06-12 19:00;CYQR 121900Z 34007KT 15SM SCT050 BKN300 21/06 A2987 RMK CU3CI1 SLP121

CYQR;2009-06-12 20:00;CYQR 122000Z 33012KT 15SM BKN075 BKN280 20/06 A2987 RMK CU5CI0 SLP122

CYQR;2009-06-12 21:00;CYQR 122100Z 32005G16KT 15SM BKN073 22/05 A2987 RMK CU5 SLP124

CYQR;2009-06-12 22:00;CYQR 122200Z 30004KT 15SM FEW080 BKN280 21/04 A2988 RMK CU2CI0 SLP125

CYQR;2009-06-12 23:00;CYQR 122300Z 31010KT 15SM FEW080 BKN280 22/05 A2987 RMK CU1CI1 SLP124

CYQR;2009-06-13 00:00;CYQR 130000Z 36009KT 15SM FEW080 BKN280 22/05 A2987 RMK CU1CI1 SLP120

CYQR;2009-06-13 01:00;CYQR 130100Z 35008KT 15SM FEW060 BKN280 20/05 A2987 RMK CU1CI2 SLP119

CYQR;2009-06-13 02:00;CYQR 130200Z 35006KT 15SM FEW045 BKN280 19/07 A2987 RMK CU1CI2 SLP121

CYQR;2009-06-13 03:00;CYQR 130300Z 36007KT 15SM FEW040 SCT280 16/06 A2988 RMK SC1CI1 TR SC SLP124

CYQR;2009-06-13 04:00;CYQR 130400Z 03006KT 15SM FEW280 15/04 A2990 RMK CI1 SLP130

CYQR;2009-06-13 05:00;CYQR 130500Z 04006KT 15SM FEW280 15/03 A2990 RMK CI1 SLP132

CYQR;2009-06-13 06:00;CYQR 130600Z 09009KT 15SM SKC 13/05 A2992 RMK SLP136

CYQR;2009-06-13 07:00;CYQR 130700Z 10010KT 15SM SKC 12/05 A2992 RMK SLP138

CYQR;2009-06-13 08:00;CYQR 130800Z 11010KT 15SM SKC 12/05 A2993 RMK SLP140

CYQR;2009-06-13 09:00;CYQR 130900Z 11009KT 15SM SKC 11/05 A2993 RMK SLP142

CYQR;2009-06-13 10:00;CYQR 131000Z 14007KT 15SM FEW280 10/04 A2994 RMK CI1 SLP145

CYQR;2009-06-13 11:00;CYQR 131100Z 12006KT 15SM FEW280 07/04 A2994 RMK CI1 SLP146

CYQR;2009-06-13 12:00;CYQR 131200Z 13006KT 15SM FEW280 09/06 A2995 RMK CI1 SLP149

CYQR;2009-06-13 13:00;CYQR 131300Z 14008KT 15SM FEW280 12/06 A2996 RMK CI1 SLP153

CYQR;2009-06-13 14:00;CYQR 131400Z 15007KT 15SM FEW076 FEW280 14/07 A2997 RMK AC1CI1 SLP155

CYQR;2009-06-13 15:00;CYQR 131500Z 13006KT 15SM FEW076 FEW280 18/08 A2996 RMK AC1CI1 SLP152

CYQR;2009-06-13 16:00;CYQR 131600Z 14005KT 15SM FEW280 21/06 A2996 RMK CI0 SLP151

CYQR;2009-06-13 17:00;CYQR 131700Z 00000KT 15SM FEW088 FEW280 22/05 A2995 RMK CF1CI0 SLP149

CYQR;2009-06-13 18:00;CYQR 131800Z 06005KT 15SM FEW088 FEW280 23/07 A2995 RMK CF1CI0 SLP145

CYQR;2009-06-13 19:00;CYQR 131900Z 36002KT 15SM FEW088 24/06 A2994 RMK CF1 SLP142

CYQR;2009-06-13 20:00;CYQR 132000Z CCA 11006KT 15SM FEW094 FEW280 24/06 A2992 RMK CF1CI0 CONTRAILS SLP136

CYQR;2009-06-13 21:00;CYQR 132100Z 00000KT 15SM FEW091 25/05 A2991 RMK CF1 SLP133

CYQR;2009-06-13 22:00;CYQR 132200Z 14006KT 15SM FEW091 26/05 A2990 RMK CF1 SLP129

CYQR;2009-06-13 23:00;CYQR 132300Z 19007KT 15SM FEW091 26/06 A2988 RMK CF1 SLP124

CYQR;2009-06-14 00:00;CYQR 140000Z 26004KT 15SM FEW090 26/05 A2987 RMK AC1 CB TOPS DIST SW SLP118

CYQR;2009-06-14 01:00;CYQR 140100Z 16007KT 15SM FEW090 FEW300 25/06 A2986 RMK AC1CI0 SLP117

CYQR;2009-06-14 02:00;CYQR 140200Z 17007KT 15SM FEW096 FEW300 24/07 A2986 RMK AC2CI0 SLP115

CYQR;2009-06-14 03:00;CYQR 140300Z 12007KT 15SM FEW096 FEW290 20/07 A2985 RMK AC2CI1 SLP112

CYQR;2009-06-14 04:00;CYQR 140400Z 14011KT 15SM FEW096 19/05 A2987 RMK AC1 SLP116

CYQR;2009-06-14 05:00;CYQR 140500Z 15011KT 15SM SKC 17/05 A2987 RMK SLP118

CYQR;2009-06-14 06:00;CYQR 140600Z 15010KT 15SM SKC 15/05 A2988 RMK SLP122

CYQR;2009-06-14 07:00;CYQR 140700Z 15010KT 15SM SKC 14/05 A2988 RMK SLP122

CYQR;2009-06-14 08:00;CYQR 140800Z 15011KT 15SM SKC 14/06 A2989 RMK SLP125

CYQR;2009-06-14 09:00;CYQR 140900Z 15013KT 15SM BKN120 14/07 A2990 RMK AC5 SLP127

CYQR;2009-06-14 10:00;CYQR 141000Z 15011G16KT 15SM FEW026CB BKN120 14/08 A2989 RMK CB1AC6 DIST CB N ACC ASOCTD SLP126

CYQR;2009-06-14 11:00;CYQR 141100Z 15012KT 15SM FEW024CB BKN120 14/08 A2990 RMK CB1AC6 DIST CB N ACC ASOCTD SLP129

CYQR;2009-06-14 12:00;CYQR 141200Z 15012KT 15SM BKN120 14/07 A2991 RMK AC6 VIRGA ACC ASOCTD SLP129

CYQR;2009-06-14 13:00;CYQR 141300Z 16013KT 15SM BKN120 15/08 A2990 RMK AC6 ACC EMBD SLP127

CYQR;2009-06-14 14:00;CYQR 141400Z 16013KT 15SM BKN120 17/09 A2990 RMK AC6 ACC EMBD SH W SLP126

CYQR;2009-06-14 15:00;CYQR 141500Z 15011KT 15SM BKN099 19/10 A2989 RMK AC6 ACC EMBD SLP126

CYQR;2009-06-14 16:00;CYQR 141600Z 18011KT 15SM BKN100 23/12 A2989 RMK AC6 ACC EMBD VIRGA SLP124

CYQR;2009-06-14 17:00;CYQR 141700Z 20011KT 15SM SCT071 BKN300 26/11 A2988 RMK AC4CI0 SLP120

CYQR;2009-06-14 18:00;CYQR 141800Z 23010G15KT 15SM SCT071 BKN300 27/09 A2986 RMK AC4CI0 SLP112

CYQR;2009-06-14 19:00;CYQR 141900Z 23012KT 15SM BKN091 BKN300 28/09 A2985 RMK CU5CI1 TCU EMBD SLP109

CYQR;2009-06-14 20:00;CYQR 142000Z 20008KT 15SM BKN100 BKN300 29/09 A2984 RMK CU6CI1 TCU EMBD SLP104

CYQR;2009-06-14 21:00;CYQR 142100Z 18008KT 15SM SCT093CB BKN300 28/09 A2982 RMK CB4CI1 CB NW+E SLP098

CYQR;2009-06-14 22:00;CYQR 142200Z 21015KT 15SM BKN097 BKN300 29/08 A2980 RMK CU5CI1 CB TOP E SLP093

CYQR;2009-06-14 23:00;CYQR 142300Z 18009KT 15SM BKN097 BKN300 28/07 A2979 RMK CU5CI1 CB TOP E SLP090

CYQR;2009-06-15 00:00;CYQR 150000Z 09015KT 15SM BKN097CB 24/09 A2980 RMK CB6 CB NW+E OCNL LTGIC SLP093

CYQR;2009-06-15 01:00;CYQR 150100Z 08007KT 15SM BKN100 BKN300 23/09 A2980 RMK AC5CI2 TCU EMBD SH W-N-E SLP093

CYQR;2009-06-15 02:00;CYQR 150200Z 06008KT 15SM BKN100 BKN300 23/10 A2980 RMK AC5CI2 SLP095

CYQR;2009-06-15 03:00;CYQR 150300Z 09006KT 15SM BKN100 BKN300 19/10 A2981 RMK AC5CI1 CB EMBD N-E SHR N SLP098

CYQR;2009-06-15 04:00;CYQR 150400Z 10005KT 15SM BKN100 BKN290 18/10 A2983 RMK AC5CI1 SLP102

CYQR;2009-06-15 05:00;CYQR 150500Z 17004KT 15SM SCT100 16/07 A2983 RMK AC4 SLP103

CYQR;2009-06-15 06:00;CYQR 150600Z 16009KT 15SM FEW100 16/08 A2983 RMK AC2 SLP100

CYQR;2009-06-15 07:00;CYQR 150700Z 15009KT 15SM SCT088 15/08 A2983 RMK AC3 SLP099

CYQR;2009-06-15 08:00;CYQR 150800Z 16008KT 15SM FEW100 14/08 A2983 RMK AC1 SLP100

CYQR;2009-06-15 09:00;CYQR 150900Z 13006KT 15SM FEW100 11/07 A2983 RMK AC1 SLP101

CYQR;2009-06-15 10:00;CYQR 151000Z 12006KT 15SM FEW100 10/07 A2982 RMK AC2 SLP100

CYQR;2009-06-15 11:00;CYQR 151100Z 10006KT 15SM SCT280 09/06 A2983 RMK CI1 SLP102

CYQR;2009-06-15 12:00;CYQR 151200Z 09006KT 15SM FEW280 12/09 A2983 RMK CI0 SLP104

CYQR;2009-06-15 13:00;CYQR 151300Z 13007KT 15SM BKN280 15/09 A2983 RMK CI0 SLP106

CYQR;2009-06-15 14:00;CYQR 151400Z 14009KT 15SM FEW300 18/11 A2984 RMK CI0 SLP107

CYQR;2009-06-15 15:00;CYQR 151500Z 13007KT 15SM FEW035 SCT300 21/12 A2984 RMK CF1CI0 SLP106

CYQR;2009-06-15 16:00;CYQR 151600Z 11005KT 15SM FEW040 SCT300 24/14 A2982 RMK CU1CI0 SLP101

CYQR;2009-06-15 17:00;CYQR 151700Z 15008KT 15SM FEW060 SCT300 25/07 A2982 RMK CU1CI0 SLP099

CYQR;2009-06-15 18:00;CYQR 151800Z 14009KT 15SM FEW060 SCT300 27/09 A2981 RMK CU1CI0 SLP093

CYQR;2009-06-15 19:00;CYQR 151900Z 14006G16KT 15SM FEW060 SCT300 26/08 A2980 RMK CU1CI0 SLP091

CYQR;2009-06-15 20:00;CYQR 152000Z 12011KT 15SM FEW075 FEW300 27/07 A2979 RMK CU1CI0 SLP088

CYQR;2009-06-15 21:00;CYQR 152100Z 10009KT 15SM FEW080 FEW300 28/08 A2977 RMK CU1CI1 CB TOPS DIST NW-NE SLP084

CYQR;2009-06-15 22:00;CYQR 152200Z 16010G15KT 15SM FEW080 FEW300 28/08 A2976 RMK CU1CI0 SLP080

CYQR;2009-06-15 23:00;CYQR 152300Z 00000KT 15SM FEW080 FEW300 28/06 A2975 RMK CU1CI2 SLP076

CYQR;2009-06-16 00:00;CYQR 160000Z 13010KT 15SM FEW080 FEW300 28/09 A2974 RMK CU1CI2 SLP073

CYQR;2009-06-16 01:00;CYQR 160100Z 11011KT 15SM FEW072 BKN300 27/09 A2975 RMK CU1CI1 TCU ASOCTD SLP076

CYQR;2009-06-16 02:00;CYQR 160200Z CCA 10008KT 15SM FEW068 BKN300 25/08 A2975 RMK CU1CI1 TCU ASOCTD SLP077

CYQR;2009-06-16 03:00;CYQR 160300Z 12008KT 15SM FEW100 SCT300 22/08 A2976 RMK AC1CI2 SLP078

CYQR;2009-06-16 04:00;CYQR 160400Z 15008KT 15SM FEW083 FEW300 21/10 A2978 RMK AC1CI1 SLP084

CYQR;2009-06-16 05:00;CYQR 160500Z 14008KT 15SM FEW300 19/11 A2979 RMK CI1 SLP088

CYQR;2009-06-16 06:00;CYQR 160600Z 13008KT 15SM FEW300 16/11 A2980 RMK CI1 SLP090

CYQR;2009-06-16 07:00;CYQR 160700Z 13007KT 15SM SKC 16/12 A2981 RMK SLP094

CYQR;2009-06-16 08:00;CYQR 160800Z 14011KT 15SM SKC 16/12 A2981 RMK SLP093

CYQR;2009-06-16 09:00;CYQR 160900Z 13006KT 15SM SKC 14/12 A2979 RMK SLP089

CYQR;2009-06-16 10:00;CYQR 161000Z 13006KT 15SM SKC 12/11 A2979 RMK SLP089

CYQR;2009-06-16 11:00;CYQR 161100Z 12006KT 15SM SKC 13/12 A2980 RMK SLP091

CYQR;2009-06-16 12:00;CYQR 161200Z 13008KT 15SM SKC 14/13 A2982 RMK SLP098

CYQR;2009-06-16 12:24;CYQR 161224Z 13009KT 10SM BKN004 14/ RMK ST7

CYQR;2009-06-16 12:35;CYQR 161235Z 13009KT 6SM BR OVC003 14/ RMK SF8

CYQR;2009-06-16 12:45;CYQR 161245Z 14007KT 2SM BR SCT002 14/ RMK SF4

CYQR;2009-06-16 12:50;CYQR 161250Z 13005KT 6SM BR FEW002 14/ RMK SF2

CYQR;2009-06-16 13:00;CYQR 161300Z 14006KT 6SM BR FEW002 SCT300 15/13 A2982 RMK SF1CI1 VIS W 4 SLP099

CYQR;2009-06-16 14:00;CYQR 161400Z 14007KT 12SM FEW008 FEW300 17/14 A2983 RMK SF1CI1 SLP100

CYQR;2009-06-16 15:00;CYQR 161500Z 15007KT 15SM BKN015 BKN300 19/14 A2983 RMK SC5CI0 SLP102

CYQR;2009-06-16 16:00;CYQR 161600Z 14007KT 15SM BKN020 BKN300 20/14 A2983 RMK SC5CI0 SLP102

CYQR;2009-06-16 17:00;CYQR 161700Z 12008KT 15SM BKN030 BKN300 21/14 A2981 RMK SC5CI0 SLP097

CYQR;2009-06-16 18:00;CYQR 161800Z 00000KT 15SM FEW033 SCT300 22/14 A2980 RMK CU2CI1 SLP094

CYQR;2009-06-16 19:00;CYQR 161900Z 10007KT 15SM BKN036 22/14 A2980 RMK CU6 SLP094

CYQR;2009-06-16 20:00;CYQR 162000Z 11011KT 15SM BKN039 23/14 A2979 RMK CU6 SLP090

CYQR;2009-06-16 21:00;CYQR 162100Z 17006KT 15SM BKN048 BKN071 25/14 A2978 RMK CU5AC1 SLP086

CYQR;2009-06-16 22:00;CYQR 162200Z CCA 17006KT 15SM SCT048 BKN074 BKN300 24/13 A2977 RMK CU4AC2CI0 TCU ASOCTD SLP082

CYQR;2009-06-16 23:00;CYQR 162300Z 15008KT 15SM FEW050 BKN095 BKN300 24/13 A2976 RMK CU2AC2CI0 SLP081

CYQR;2009-06-17 00:00;CYQR 170000Z 16010KT 15SM FEW054 SCT074 BKN300 25/13 A2976 RMK CU2AC2CI1 SLP079

CYQR;2009-06-17 01:00;CYQR 170100Z 17013KT 15SM FEW058TCU FEW080 FEW300 24/13 A2976 RMK TCU1AC1CI0 SLP081

CYQR;2009-06-17 02:00;CYQR 170200Z 16010KT 15SM FEW060 FEW084 FEW300 23/13 A2977 RMK CU1AC1CI1 TR CU TCU ASOCTD SLP082

CYQR;2009-06-17 03:00;CYQR 170300Z 15007KT 15SM FEW085 SCT300 22/13 A2976 RMK AC2CI1 SLP080

CYQR;2009-06-17 04:00;CYQR 170400Z 15007KT 15SM FEW085 FEW300 21/13 A2977 RMK AC2CI0 SLP082

CYQR;2009-06-17 05:00;CYQR 170500Z 16006KT 15SM FEW300 18/12 A2977 RMK CI1 SLP083

CYQR;2009-06-17 06:00;CYQR 170600Z 15007KT 15SM FEW300 17/13 A2976 RMK CI0 SLP080

CYQR;2009-06-17 07:00;CYQR 170700Z 15009KT 15SM FEW100 SCT300 17/13 A2975 RMK AC1CI1 SLP076

CYQR;2009-06-17 08:00;CYQR 170800Z 16009KT 15SM FEW300 16/13 A2975 RMK CI0 SLP075

CYQR;2009-06-17 09:00;CYQR 170900Z 16007KT 15SM FEW100 FEW300 15/12 A2974 RMK AC1CI0 SLP074

CYQR;2009-06-17 10:00;CYQR 171000Z 13007KT 15SM FEW100 FEW300 14/12 A2974 RMK AC1CI0 SLP072

CYQR;2009-06-17 11:00;CYQR 171100Z 14006KT 10SM FEW100 BKN300 14/12 A2973 RMK AC1CI2 HZ SLP069

CYQR;2009-06-17 12:00;CYQR 171200Z 14008KT 15SM BKN300 15/13 A2973 RMK CI2 CC ASOCTD CONTRAILS SLP069

CYQR;2009-06-17 13:00;CYQR 171300Z 14009KT 12SM FEW180 BKN300 16/14 A2973 RMK AC1CI1 BR/HZ CONTRAILS SLP068

CYQR;2009-06-17 14:00;CYQR 171400Z 13010KT 12SM BKN330 18/14 A2973 RMK CI0 CONTRAILS SLP067

CYQR;2009-06-17 15:00;CYQR 171500Z 14010KT 15SM BKN330 21/15 A2972 RMK CI0 CONTRAILS SLP063

CYQR;2009-06-17 16:00;CYQR 171600Z 16010KT 15SM SCT330 23/15 A2971 RMK CI0 CONTRAILS SLP060

CYQR;2009-06-17 17:00;CYQR 171700Z 17011KT 15SM FEW045 FEW090 BKN300 25/14 A2970 RMK CF1AC1CI1 TR AC SLP056

CYQR;2009-06-17 18:00;CYQR 171800Z 15005KT 15SM FEW052 SCT330 26/14 A2968 RMK CU2CI0 SLP050

CYQR;2009-06-17 19:00;CYQR 171900Z 19008KT 15SM SCT054 BKN330 28/14 A2967 RMK CU4CI0 TCU ASOCTD SLP045

CYQR;2009-06-17 19:42;CYQR 171942Z 19005KT 15SM TS BKN059TCU BKN091 BKN300 27/ RMK TCU5AC1CI0 CB N

CYQR;2009-06-17 20:00;CYQR 172000Z 34004KT 15SM TS BKN059TCU BKN091 BKN300 26/15 A2964 RMK TCU5AC1CI0 CB N LTGCCCG SLP037

CYQR;2009-06-17 20:24;CYQR 172024Z 01010G15KT 15SM -TSRA SCT061CB BKN079TCU BKN300 22/ RMK CB3TCU3CI0 CB E LTGCG

CYQR;2009-06-17 21:00;CYQR 172100Z 11012G18KT 12SM -TSRA BKN062CB BKN300 19/15 A2965 RMK CB6CI0 CB NE-S LTGCG SLP045

CYQR;2009-06-17 21:20;CYQR 172120Z 07009G16KT 15SM BKN062CB BKN300 22/ RETS RMK CB5CI0 SH AND LTGCG NE-SE

CYQR;2009-06-17 22:00;CYQR 172200Z 09009KT 15SM FEW045CB SCT300 26/16 A2962 RETS RMK CB2CI0 CB NE-SE SLP035

CYQR;2009-06-17 23:00;CYQR 172300Z 12017KT 15SM FEW044TCU SCT090 BKN230 BKN300 25/15 A2962 RMK TCU2AC1CI1CI0 CB SOUTH SLP034

CYQR;2009-06-18 00:00;CYQR 180000Z 14009KT 15SM SCT044 BKN300 24/13 A2962 RMK SC3CI2 CVCTV CLD EMBD SLP030

CYQR;2009-06-18 01:00;CYQR 180100Z 14012KT 15SM FEW044 BKN300 25/14 A2961 RMK SC1CI2 CVCTV CLD EMBD SLP029

CYQR;2009-06-18 02:00;CYQR 180200Z 15007KT 15SM FEW044 BKN300 24/15 A2961 RMK SC1CI2 CB TOPS DIST N+SE-S SLP027

CYQR;2009-06-18 03:00;CYQR 180300Z 14009KT 15SM FEW044TCU BKN300 21/14 A2961 RMK TCU1CI2 CB ASOCTD N+S SLP026

CYQR;2009-06-18 04:00;CYQR 180400Z 16008KT 15SM FEW044 FEW300 19/13 A2961 RMK CU1CI1 TR CU SLP027

CYQR;2009-06-18 05:00;CYQR 180500Z 17008KT 15SM FEW044 FEW300 17/13 A2961 RMK CU1CI1 TR CU SLP027

CYQR;2009-06-18 06:00;CYQR 180600Z 16006KT 15SM FEW300 16/13 A2960 RMK CI0 SLP023

CYQR;2009-06-18 07:00;CYQR 180700Z 14006KT 15SM FEW300 14/12 A2960 RMK CI0 SLP022

CYQR;2009-06-18 08:00;CYQR 180800Z 17003KT 15SM FEW300 13/12 A2959 RMK CI0 SLP019

CYQR;2009-06-18 09:00;CYQR 180900Z 00000KT 15SM SKC 14/12 A2959 RMK SLP023

CYQR;2009-06-18 10:00;CYQR 181000Z 00000KT 15SM FEW300 12/10 A2959 RMK CI1 SLP023

CYQR;2009-06-18 11:00;CYQR 181100Z 12006KT 15SM FEW100 FEW300 11/10 A2959 RMK AC1CI1 TR AC ACC ASOCTD SLP024

CYQR;2009-06-18 12:00;CYQR 181200Z 00000KT 15SM FEW100 FEW300 12/11 A2960 RMK AC1CI1 TR AC SLP026

CYQR;2009-06-18 13:00;CYQR 181300Z 31002KT 15SM FEW100 FEW300 16/13 A2961 RMK AC1CI1 ACC ASOCTD SLP030

CYQR;2009-06-18 14:00;CYQR 181400Z 01005KT 15SM FEW100 BKN300 20/14 A2962 RMK AC1CI0 SLP031

CYQR;2009-06-18 15:00;CYQR 181500Z 35011KT 15SM FEW028 FEW120 FEW210 BKN300 22/14 A2962 RMK CF1ACC1CC1CI1 TR CF ACC SLP030

CYQR;2009-06-18 16:00;CYQR 181600Z 01010KT 15SM FEW120 OVC300 23/15 A2961 RMK AC1CI2 SLP027

CYQR;2009-06-18 17:00;CYQR 181700Z 01008KT 15SM FEW098 BKN210 OVC300 25/14 A2960 RMK ACC1CI2CI0 TR ACC SLP023

CYQR;2009-06-18 18:00;CYQR 181800Z 36007KT 15SM FEW055 FEW100 OVC300 27/13 A2959 RMK CU1ACC2CI4 SLP018

CYQR;2009-06-18 19:00;CYQR 181900Z 29006KT 15SM FEW055TCU FEW095 OVC300 28/13 A2959 RMK TCU2ACC1CI4 SLP020

CYQR;2009-06-18 19:55;CYQR 181955Z 25009G16KT 10SM -SHRA BKN064TCU BKN097 BKN230 OVC300 29/ RMK TCU5ACC2CI1CI0 CB E

CYQR;2009-06-18 20:00;CYQR 182000Z 28002G16KT 10SM -SHRA SCT064TCU BKN097 BKN230 OVC300 28/13 A2959 RMK TCU4ACC2CI1CI0 SLP019

CYQR;2009-06-18 20:24;CYQR 182024Z 25011G22KT 15SM SCT061TCU BKN083 BKN230 OVC300 29/ RMK TCU3ACC2CI1CI0

CYQR;2009-06-18 21:00;CYQR 182100Z 30024G30KT 15SM SCT061TCU BKN088 BKN300 26/13 A2960 RMK TCU4ACC2CI1 CB N-SE SLP023

CYQR;2009-06-18 22:00;CYQR 182200Z 36011G17KT 15SM FEW053TCU BKN078 BKN300 22/14 A2962 RMK TCU2AC3CI2 SLP029

CYQR;2009-06-18 23:00;CYQR 182300Z 35016G25KT 15SM FEW050CB FEW080 BKN300 23/14 A2960 RMK CB1AC1CI1 CONTRAILS SLP024

CYQR;2009-06-19 00:00;CYQR 190000Z 33013KT 15SM FEW050CB FEW094 SCT210 BKN260 OVC300 21/13 A2961 RMK CB1ACC2CC1CI1CI0 SLP031

CYQR;2009-06-19 01:00;CYQR 190100Z 01010KT 15SM FEW024 BKN088 BKN250 OVC300 20/14 A2961 RMK CF1AC5CI2CI0 SLP032

CYQR;2009-06-19 01:24;CYQR 190124Z 01007KT 12SM -SHRA OVC086 19/ RMK AC8 ACC EMBD

CYQR;2009-06-19 02:00;CYQR 190200Z 32005KT 15SM VCSH BKN084 OVC150 18/15 A2963 RMK AC7AC1 ACC EMBD SLP038

CYQR;2009-06-19 02:15;CYQR 190215Z 34005KT 12SM -SHRA SCT040 OVC084 18/ RMK CU3AC5 ACC EMBD

CYQR;2009-06-19 03:00;CYQR 190300Z 27005KT 15SM -SHRA BKN040 BKN084 OVC250 18/15 A2964 RMK SC5AC2CI0 CVCTV CLD EMBD SLP036

CYQR;2009-06-19 04:00;CYQR 190400Z 21005KT 10SM -SHRA BKN029 BKN074 BKN250 17/16 A2965 RMK SC5AC2CI1 CVCTV CLD EMBD SLP041

CYQR;2009-06-19 05:00;CYQR 190500Z 24005KT 15SM -SHRA BKN027 OVC100 16/15 A2966 RMK SC6AC2 CVCTV CLD EMBD SLP043

CYQR;2009-06-19 05:21;CYQR 190521Z 26007KT 15SM FEW027 SCT051 OVC100 16/ RMK SC2SC2AC4

CYQR;2009-06-19 06:00;CYQR 190600Z 23005KT 15SM SCT067 OVC100 14/13 A2965 RMK AC4AC4 SLP041

CYQR;2009-06-19 07:00;CYQR 190700Z 23006KT 15SM BKN046 BKN250 14/13 A2964 RMK SC5CI1 SLP039

CYQR;2009-06-19 08:00;CYQR 190800Z 26007KT 15SM SCT250 13/12 A2964 RMK CI1 SLP036

CYQR;2009-06-19 09:00;CYQR 190900Z 26005KT 15SM SCT050 13/11 A2963 RMK SC3 CU ASOCTD SLP034

CYQR;2009-06-19 10:00;CYQR 191000Z 28008KT 15SM SCT039 SCT100 13/12 A2964 RMK SC3AC1 CU ASOCTD SLP037

CYQR;2009-06-19 11:00;CYQR 191100Z 29008KT 15SM FEW041 FEW100 SCT250 11/10 A2964 RMK SC1AC1CI1 CU+ACC ASOCTD SLP039

CYQR;2009-06-19 12:00;CYQR 191200Z 28010KT 15SM FEW036 SCT080 SCT250 12/11 A2965 RMK SC2AC1CI1 CU ASOCTD SLP046

CYQR;2009-06-19 13:00;CYQR 191300Z 30015KT 15SM FEW040 SCT280 13/11 A2966 RMK SC2CI0 SLP049

CYQR;2009-06-19 14:00;CYQR 191400Z 30011KT 15SM FEW043 15/12 A2967 RMK SC1 SLP052

CYQR;2009-06-19 15:00;CYQR 191500Z 29016KT 15SM FEW023 18/12 A2967 RMK CF1 SLP052

CYQR;2009-06-19 16:00;CYQR 191600Z 31019G25KT 15SM BKN027 18/13 A2968 RMK CU5 SLP053

CYQR;2009-06-19 17:00;CYQR 191700Z 32014G21KT 15SM BKN027 20/12 A2968 RMK CU6 SLP054

CYQR;2009-06-19 18:00;CYQR 191800Z 32017G22KT 15SM BKN034 21/11 A2968 RMK CU6 SLP054

CYQR;2009-06-19 19:00;CYQR 191900Z 32012G18KT 15SM BKN038 22/12 A2967 RMK CU5 SLP052

CYQR;2009-06-19 20:00;CYQR 192000Z 30017KT 15SM BKN044 24/11 A2966 RMK CU5 SLP049

CYQR;2009-06-19 21:00;CYQR 192100Z 31017G24KT 15SM SCT051 24/09 A2966 RMK CU4 SLP047

CYQR;2009-06-19 22:00;CYQR 192200Z 31015KT 15SM SCT057 25/10 A2967 RMK CU4 SLP048

CYQR;2009-06-19 23:00;CYQR 192300Z 32016G21KT 15SM FEW061 24/08 A2967 RMK CU2 SLP050

CYQR;2009-06-20 00:00;CYQR 200000Z 35012G17KT 15SM FEW067 23/09 A2968 RMK CU1 SLP055

CYQR;2009-06-20 01:00;CYQR 200100Z 36011KT 15SM FEW055 22/09 A2969 RMK CU1 SLP059

CYQR;2009-06-20 02:00;CYQR 200200Z 02008KT 15SM SKC 21/09 A2972 RMK SLP066

CYQR;2009-06-20 03:00;CYQR 200300Z 05006KT 15SM FEW080 18/09 A2973 RMK AC1 SLP071

CYQR;2009-06-20 04:00;CYQR 200400Z 09006KT 15SM FEW080 FEW250 16/09 A2974 RMK AC1CI1 SLP074

CYQR;2009-06-20 05:00;CYQR 200500Z 09007KT 15SM FEW080 FEW250 14/09 A2973 RMK AC1CI1 SLP072

CYQR;2009-06-20 06:00;CYQR 200600Z 11008KT 15SM SKC 14/09 A2973 RMK SLP071

CYQR;2009-06-20 07:00;CYQR 200700Z 13009KT 15SM SKC 13/08 A2972 RMK SLP069

CYQR;2009-06-20 08:00;CYQR 200800Z 12008KT 15SM SKC 12/08 A2972 RMK SLP069

CYQR;2009-06-20 09:00;CYQR 200900Z 14009KT 15SM FEW080 FEW250 11/08 A2973 RMK AC1CI1 SLP071

CYQR;2009-06-20 10:00;CYQR 201000Z 15008KT 15SM BKN100 12/08 A2973 RMK AC5 SLP071

CYQR;2009-06-20 11:00;CYQR 201100Z 14011KT 15SM SCT100 SCT250 12/08 A2972 RMK AC3CI0 SLP068

CYQR;2009-06-20 12:00;CYQR 201200Z 14014KT 15SM BKN097 BKN120 13/09 A2972 RMK AC6AC1 SLP067

CYQR;2009-06-20 13:00;CYQR 201300Z 14013KT 15SM BKN089 BKN120 BKN250 15/10 A2972 RMK AC5AC1CI1 SLP066

CYQR;2009-06-20 14:00;CYQR 201400Z 14011KT 15SM BKN090 BKN120 18/11 A2970 RMK AC5AC2 SLP061

CYQR;2009-06-20 15:00;CYQR 201500Z 16005KT 15SM BKN090 19/11 A2971 RMK AC7 SLP062

CYQR;2009-06-20 16:00;CYQR 201600Z 15008KT 15SM BKN090 20/11 A2969 RMK AC7 SLP056

CYQR;2009-06-20 17:00;CYQR 201700Z 20007KT 15SM OVC090 22/12 A2968 RMK AC7 SLP053

CYQR;2009-06-20 18:00;CYQR 201800Z 21004KT 15SM FEW090 BKN280 24/12 A2968 RMK AC2CI1 SLP052

CYQR;2009-06-20 19:00;CYQR 201900Z 28006KT 15SM FEW050 SCT120 BKN280 25/11 A2967 RMK CU1AC3CI1 SLP048

CYQR;2009-06-20 20:00;CYQR 202000Z 34008KT 15SM FEW050 SCT120 BKN280 25/12 A2966 RMK CU2AC2CI1 SLP045

CYQR;2009-06-20 21:00;CYQR 202100Z 35009KT 15SM FEW050 SCT120 BKN280 25/12 A2966 RMK CU2AC2CI1 TCU ASOCTD SLP046

CYQR;2009-06-20 22:00;CYQR 202200Z 36008KT 15SM FEW050 BKN120 BKN280 24/13 A2966 RMK SC1AC5CI1 TCU ASOCTD SLP046

CYQR;2009-06-20 23:00;CYQR 202300Z 36008KT 15SM FEW055 SCT120 BKN280 25/12 A2964 RMK SC1AC3CI1 SLP041

CYQR;2009-06-21 00:00;CYQR 210000Z 36009KT 15SM FEW060 BKN087 BKN280 25/11 A2964 RMK SC1AC5CI1 SLP037

CYQR;2009-06-21 01:00;CYQR 210100Z 02011KT 15SM FEW060CB BKN092 BKN280 25/13 A2963 RMK CB1AC5CI0 CB S SLP034

CYQR;2009-06-21 02:00;CYQR 210200Z 03011KT 15SM FEW060CB BKN099 BKN280 24/13 A2963 RMK CB2AC4CI1 CB E-S ACC EMBD SLP035

CYQR;2009-06-21 03:00;CYQR 210300Z 03009KT 15SM FEW060CB SCT084 BKN280 23/14 A2962 RMK CB2AC2CI2 CB NE-S SLP031

CYQR;2009-06-21 04:00;CYQR 210400Z 07010KT 15SM FEW060CB SCT088 BKN280 22/15 A2961 RMK CB2AC1CI2 CB NE-SE LTGICCCCG SLP028

CYQR;2009-06-21 04:09;CYQR 210409Z 09013KT 15SM TS SCT060CB SCT083 BKN280 21/ RMK CB3ACC1CI2 CB NE-S LTGICCCCG

CYQR;2009-06-21 04:30;CYQR 210430Z 11011G19KT 4SM TSRA SCT023CB BKN077 20/ RMK CB4ACC2 LTGICCCCG

CYQR;2009-06-21 05:00;CYQR 210500Z 13018KT 8SM TSRA SCT023CB OVC077 18/16 A2963 RMK CB4ACC4 LTGICCCCG SLP034

CYQR;2009-06-21 06:00;CYQR 210600Z 10017KT 15SM -TSRA OVC030CB 19/15 A2961 RERA RMK CB7 LTGICCCCG W-N-E SLP027

CYQR;2009-06-21 06:20;CYQR 210620Z 09017G22KT 15SM BKN030CB OVC080 20/ RETS RMK CB5AC3 LTNG NW-NE

CYQR;2009-06-21 07:00;CYQR 210700Z 09015G20KT 15SM SCT030CB BKN097 19/15 A2961 RETS RMK CB4AC2 LTNG N-NE SLP026

CYQR;2009-06-21 07:46;CYQR 210746Z 10016G21KT 12SM -SHRA FEW030CB OVC081 20/ RMK CB2ACC6 LTNG N-NE

CYQR;2009-06-21 08:00;CYQR 210800Z 10012G18KT 15SM FEW030CB BKN088 OVC120 19/15 A2961 RMK CB2ACC5AC2 SLP026

CYQR;2009-06-21 09:00;CYQR 210900Z 08013KT 15SM SCT051 OVC097 20/15 A2961 RMK SC4AC4 CVCTV CLD EMBD SLP024

CYQR;2009-06-21 10:00;CYQR 211000Z CCA 07015G22KT 15SM FEW040CB SCT072 BKN300 19/14 A2960 RMK CB2AC2CI2 CB NW-NE LTNG SLP021

CYQR;2009-06-21 11:00;CYQR 211100Z 08012KT 15SM FEW050CB BKN067 OVC300 18/14 A2960 RMK CB2ACC6CI1 CB LTNG SH ALQDS SLP023

CYQR;2009-06-21 11:16;CYQR 211116Z 08011G16KT 15SM -SHRA FEW050CB BKN061 OVC300 18/ RMK CB2SC6CI1 CB LTNG ALQDS

CYQR;2009-06-21 12:00;CYQR 211200Z 10013KT 15SM -SHRA FEW050CB BKN094 BKN130 OVC300 18/15 A2959 RMK CB1AC4AC2CI1 CB W+NE OCNL LTNG SLP017

CYQR;2009-06-21 12:15;CYQR 211215Z 10010KT 15SM FEW020 BKN094 BKN130 OVC300 18/ RMK SC1AC5AC2CI1 CB EMBD NW-N

CYQR;2009-06-21 13:00;CYQR 211300Z 11009KT 15SM FEW020 FEW050 SCT098 BKN130 OVC300 18/15 A2959 RMK SC1SC2AC2AC3CI1 SLP017

CYQR;2009-06-21 14:00;CYQR 211400Z 08010KT 15SM FEW020 FEW050 SCT098 OVC130 18/16 A2958 RMK SC1SC2AC2AC4 SLP014

CYQR;2009-06-21 14:14;CYQR 211414Z 07009KT 15SM -SHRA FEW020 SCT050 BKN098 OVC130 18/ RMK SF1SC2AC3AC2

CYQR;2009-06-21 15:00;CYQR 211500Z 05005KT 15SM -SHRA BKN015 BKN060 OVC090 18/16 A2958 RMK SC5SC2AC2 SLP017

CYQR;2009-06-21 15:35;CYQR 211535Z 07010KT 5SM SHRA BKN015 OVC070 18/ RMK SC6AC2

CYQR;2009-06-21 15:41;CYQR 211541Z 09010KT 3SM TSRA OVC014 18/ RMK SC8 CB EMBD

CYQR;2009-06-21 16:00;CYQR 211600Z 10016KT 3SM TSRA OVC014 17/16 A2957 RMK SC8 CB EMBD SLP012

CYQR;2009-06-21 16:26;CYQR 211626Z 09012G21KT 10SM -SHRA FEW005 BKN015 OVC090 17/ RETS RMK CF2SC6AC1

CYQR;2009-06-21 17:00;CYQR 211700Z 10014G20KT 10SM -SHRA FEW005 BKN015 OVC090 18/17 A2956 RMK CF2SC6AC1 RETS TCU EMBD SLP009

CYQR;2009-06-21 18:00;CYQR 211800Z 10018KT 3SM -SHRA FEW005 BKN012 OVC090 18/17 A2952 RMK CF2SC6AC1 SLP999

CYQR;2009-06-21 18:49;CYQR 211849Z 12012G17KT 10SM -TSRA BKN010 OVC055 19/ RMK SC5SC3 CB EMBD

CYQR;2009-06-21 19:00;CYQR 211900Z 12013KT 10SM -TSRA BKN010 OVC055TCU 19/18 A2952 RMK SC5TCU3 CB EMBD SLP999

CYQR;2009-06-21 19:22;CYQR 211922Z 14013G18KT 10SM -SHRA FEW010 BKN040TCU OVC070 21/ RETS RMK CF2TCU5AC2

CYQR;2009-06-21 20:00;CYQR 212000Z 16027G32KT 10SM -SHRA BKN015 OVC040 21/18 A2953 RMK SC5SC3 RETS CB EMBD SLP001

CYQR;2009-06-21 21:00;CYQR 212100Z CCA 15017G24KT 10SM -SHRA BKN016 OVC040 20/18 A2953 RMK SC6SC2 CB EMBD SLP000

CYQR;2009-06-21 21:31;CYQR 212131Z 15018KT 10SM -TSRA BKN009 OVC050TCU 20/ RMK SC6TCU2 CB EMBD

CYQR;2009-06-21 22:00;CYQR 212200Z 16017G29KT 10SM -TSRA BKN012TCU OVC055CB 19/18 A2954 RMK TCU6CB2 SLP002

CYQR;2009-06-21 22:32;CYQR 212232Z 14014KT 10SM -SHRA BKN010TCU OVC090 19/ RETS RMK TCU7AC1

CYQR;2009-06-21 23:00;CYQR 212300Z 16017G26KT 8SM -SHRA BKN010TCU OVC090 19/17 A2953 RETS RMK TCU7AC1 SLP001

CYQR;2009-06-21 23:08;CYQR 212308Z 15016KT 8SM -TSRA BKN010CB BKN025 OVC090 19/ RMK CB6SC1AC1

CYQR;2009-06-21 23:47;CYQR 212347Z 13014KT 10SM -SHRA BKN010TCU OVC090 19/ RETS RMK TCU6AC2

CYQR;2009-06-22 00:00;CYQR 220000Z 13016G21KT 15SM -SHRA SCT010 BKN020TCU OVC090 19/17 A2950 RETS RMK CF4TCU3AC1 SLP991

CYQR;2009-06-22 00:39;CYQR 220039Z 13015G20KT 15SM -TSRA SCT010 BKN050CB OVC090 20/ RMK CF3CB3AC2

CYQR;2009-06-22 01:00;CYQR 220100Z 13013KT 15SM -TSRA FEW010 BKN045TCU OVC090 19/17 A2949 RMK CF2TCU5AC2 CB EMBD SLP990

CYQR;2009-06-22 01:16;CYQR 220116Z 16011G19KT 15SM FEW010 BKN045TCU OVC090 20/ RETS RMK CF1TCU4AC2

CYQR;2009-06-22 02:00;CYQR 220200Z 17009KT 15SM BKN046TCU BKN089 BKN340 20/18 A2951 RMK TCU6ACC1CI1 CI TR SLP994

CYQR;2009-06-22 03:00;CYQR 220300Z 23013G18KT 15SM FEW058 FEW089 BKN140 BKN340 19/15 A2954 RMK CU1CU2AC1CI1 SLP003

CYQR;2009-06-22 04:00;CYQR 220400Z 23012KT 15SM FEW055 FEW090 BKN140 16/14 A2956 RMK CU1AC2AC1 SLP012

CYQR;2009-06-22 05:00;CYQR 220500Z 22010KT 15SM FEW065 FEW130 14/12 A2958 RMK CU1AC0 SLP017

CYQR;2009-06-22 06:00;CYQR 220600Z 22012KT 15SM BKN021 14/12 A2960 RMK SC6 SLP028

CYQR;2009-06-22 07:00;CYQR 220700Z 23008KT 15SM FEW026 13/11 A2959 RMK SC2 SLP027

CYQR;2009-06-22 08:00;CYQR 220800Z 21006KT 15SM FEW018 12/11 A2961 RMK SC1 SLP032

CYQR;2009-06-22 09:00;CYQR 220900Z 24009KT 15SM BKN019 13/11 A2962 RMK SC7 SLP034

CYQR;2009-06-22 10:00;CYQR 221000Z 25008KT 15SM BKN019 13/11 A2962 RMK SC7 SLP034

CYQR;2009-06-22 11:00;CYQR 221100Z 24008KT 15SM FEW019 12/10 A2962 RMK SC1 SLP036

CYQR;2009-06-22 12:00;CYQR 221200Z 24010KT 15SM FEW020 13/11 A2963 RMK SC1 SLP038

CYQR;2009-06-22 13:00;CYQR 221300Z 25012G17KT 15SM FEW020 14/11 A2964 RMK SC1 SLP042

CYQR;2009-06-22 14:00;CYQR 221400Z 25012G17KT 15SM FEW015 FEW080 FEW250 16/12 A2963 RMK CF1AC1CI1 SLP039

CYQR;2009-06-22 15:00;CYQR 221500Z 26013KT 15SM FEW021 FEW260 17/13 A2964 RMK CF1CI0 SLP038

CYQR;2009-06-22 16:00;CYQR 221600Z 25015G20KT 15SM FEW025 FEW260 19/12 A2963 RMK CU1CI1 SLP037

CYQR;2009-06-22 17:00;CYQR 221700Z 26015KT 15SM FEW033 FEW080 FEW250 20/13 A2963 RMK CU1AC1CI0 SLP037

CYQR;2009-06-22 18:00;CYQR 221800Z 26016KT 15SM FEW037 SCT150 BKN250 21/13 A2964 RMK CU2AC0CI1 SLP039

CYQR;2009-06-22 19:00;CYQR 221900Z 26016G21KT 15SM FEW039 SCT095 BKN250 22/12 A2964 RMK CU2AC2CI1 SLP042

CYQR;2009-06-22 20:00;CYQR 222000Z 27018G25KT 15SM FEW040 SCT089 BKN120 BKN240 BKN300 22/12 A2964 RMK CU2AC2AC1CI1CI0 SLP041

CYQR;2009-06-22 21:00;CYQR 222100Z 26015G20KT 15SM FEW050 SCT090 BKN120 BKN240 BKN300 23/12 A2964 RMK CU2AC2AC1CI1CI0 SLP042

CYQR;2009-06-22 22:00;CYQR 222200Z 26012G17KT 15SM FEW052 BKN093 BKN240 22/12 A2965 RMK CU2AC2CI2 SLP043

CYQR;2009-06-22 23:00;CYQR 222300Z 25013KT 15SM FEW058TCU SCT092 BKN240 BKN300 23/11 A2964 RMK TCU2AC1CI2CI0 CB SOUTH SLP039

CYQR;2009-06-23 00:00;CYQR 230000Z 25013G20KT 15SM SCT065TCU BKN090 BKN270 22/10 A2965 RMK TCU3ACC2CI1 SLP046

CYQR;2009-06-23 01:00;CYQR 230100Z 27017KT 15SM VCSH SCT050TCU BKN083 BKN270 20/12 A2966 RMK TCU3ACC2CI1 CB ASOCTD E+SE SLP047

CYQR;2009-06-23 02:00;CYQR 230200Z 27016G21KT 15SM FEW037TCU FEW076 FEW320 19/12 A2968 RMK TCU2ACC1CI0 SLP053

CYQR;2009-06-23 03:00;CYQR 230300Z 25014KT 15SM FEW035TCU FEW080 FEW320 16/11 A2970 RMK TCU1AC1CI1 SLP063

CYQR;2009-06-23 04:00;CYQR 230400Z 24017KT 15SM FEW035TCU FEW080 15/10 A2973 RMK TCU1AC1 SLP071

CYQR;2009-06-23 05:00;CYQR 230500Z 24017KT 15SM FEW035 13/09 A2975 RMK SC1 SLP078

CYQR;2009-06-23 06:00;CYQR 230600Z 25014KT 15SM FEW300 12/09 A2976 RMK CI0 SLP083

CYQR;2009-06-23 07:00;CYQR 230700Z 25011G17KT 15SM FEW300 11/07 A2977 RMK CI0 SLP086

CYQR;2009-06-23 08:00;CYQR 230800Z 22003KT 15SM SKC 08/06 A2976 RMK SLP083

CYQR;2009-06-23 09:00;CYQR 230900Z 25013KT 15SM FEW030 FEW090 09/07 A2976 RMK SC1AC0 SLP083

CYQR;2009-06-23 10:00;CYQR 231000Z 23011KT 15SM FEW035 08/06 A2976 RMK SC1 SLP084

CYQR;2009-06-23 11:00;CYQR 231100Z 23017KT 15SM FEW100 08/05 A2977 RMK AC1 ACC ASOCTD SLP086

CYQR;2009-06-23 12:00;CYQR 231200Z 23017KT 15SM FEW100 BKN300 09/05 A2977 RMK AC2CI0 SLP087

CYQR;2009-06-23 13:00;CYQR 231300Z 25018KT 15SM FEW046 SCT100 BKN300 11/07 A2978 RMK SC2AC2CI0 SLP090

CYQR;2009-06-23 14:00;CYQR 231400Z 26016G24KT 15SM FEW015 FEW057 FEW100 BKN300 13/09 A2978 RMK SC1SC1AC1CI1 SLP091

CYQR;2009-06-23 15:00;CYQR 231500Z 26016KT 15SM FEW022 BKN300 15/10 A2979 RMK CF1CI2 SLP096

CYQR;2009-06-23 16:00;CYQR 231600Z 27018G24KT 15SM FEW028 SCT300 18/10 A2979 RMK CU1CI2 SLP096

CYQR;2009-06-23 17:00;CYQR 231700Z 26019G26KT 15SM FEW300 20/11 A2980 RMK CI1 SLP097

CYQR;2009-06-23 18:00;CYQR 231800Z 28021G28KT 15SM FEW045 SCT300 22/10 A2980 RMK CU1CI1 SLP095

CYQR;2009-06-23 19:00;CYQR 231900Z 29022G32KT 15SM FEW059 FEW300 22/09 A2980 RMK CU1CI1 SLP096

CYQR;2009-06-23 20:00;CYQR 232000Z 29019G31KT 15SM FEW064 BKN300 23/07 A2981 RMK CU1CI1 SLP100

CYQR;2009-06-23 21:00;CYQR 232100Z 28017G29KT 15SM FEW064 FEW300 23/07 A2981 RMK CU1CI1 SLP101

CYQR;2009-06-23 22:00;CYQR 232200Z 31023G30KT 15SM FEW071 FEW300 24/06 A2982 RMK AC1CI1 SLP103

CYQR;2009-06-23 23:00;CYQR 232300Z 30022G29KT 15SM FEW073 FEW300 24/07 A2982 RMK CU1CI1 SLP103

CYQR;2009-06-24 00:00;CYQR 240000Z 28018KT 15SM FEW077 FEW300 23/07 A2982 RMK CU1CI1 SLP103

CYQR;2009-06-24 01:00;CYQR 240100Z 27013KT 15SM FEW077 FEW300 23/08 A2982 RMK CU1CI1 SLP103

CYQR;2009-06-24 02:00;CYQR 240200Z 28010KT 15SM FEW077 FEW300 21/08 A2982 RMK CU1CI0 SLP104

CYQR;2009-06-24 03:00;CYQR 240300Z 23007KT 15SM BKN034 BKN077 BKN300 18/10 A2983 RMK CU6AC1CI0 SLP105

CYQR;2009-06-24 04:00;CYQR 240400Z 25005KT 15SM BKN035 BKN300 16/10 A2984 RMK CU5CI1 SLP111

CYQR;2009-06-24 05:00;CYQR 240500Z 25008KT 15SM FEW069 15/10 A2986 RMK CU2 SLP115

CYQR;2009-06-24 06:00;CYQR 240600Z 26007KT 15SM FEW067 14/09 A2987 RMK CU1 SLP118

CYQR;2009-06-24 07:00;CYQR 240700Z 23007KT 15SM FEW070 11/08 A2987 RMK CU1 SLP119

CYQR;2009-06-24 08:00;CYQR 240800Z 23008KT 15SM SKC 10/08 A2987 RMK SLP119

CYQR;2009-06-24 09:00;CYQR 240900Z 23007KT 15SM FEW082 09/08 A2987 RMK AC1 SLP122

CYQR;2009-06-24 10:00;CYQR 241000Z 24005KT 15SM FEW080 FEW300 09/07 A2986 RMK AC1CI0 SLP119

CYQR;2009-06-24 11:00;CYQR 241100Z 23007KT 15SM FEW080 FEW300 09/07 A2987 RMK AC1CI0 SLP120

CYQR;2009-06-24 12:00;CYQR 241200Z 23006KT 15SM FEW080 BKN320 11/08 A2987 RMK AC1CI0 SLP120

CYQR;2009-06-24 13:00;CYQR 241300Z 22006KT 15SM FEW080 FEW320 15/10 A2987 RMK AC1CI0 SLP121

CYQR;2009-06-24 14:00;CYQR 241400Z 23008KT 15SM FEW080 SCT240 BKN300 18/11 A2987 RMK AC1CI1CI0 SLP119

CYQR;2009-06-24 15:00;CYQR 241500Z 24010KT 15SM FEW080 FEW240 20/10 A2986 RMK ACC1CI1 TR ACC SLP115

CYQR;2009-06-24 16:00;CYQR 241600Z 24007KT 15SM FEW080 BKN240 23/10 A2985 RMK AC1CI2 SLP112

CYQR;2009-06-24 17:00;CYQR 241700Z 28014G24KT 15SM FEW080 SCT220 BKN250 OVC340 24/06 A2984 RMK AC1CI1CI1CI1 TR AC SLP109

CYQR;2009-06-24 18:00;CYQR 241800Z 29015G25KT 15SM FEW075 BKN250 24/06 A2984 RMK CU1CI6 SLP108

CYQR;2009-06-24 19:00;CYQR 241900Z 29019G25KT 15SM FEW079 FEW140 BKN250 25/07 A2983 RMK CU1AC1CI5 SLP105

CYQR;2009-06-24 20:00;CYQR 242000Z 28018G25KT 15SM FEW076 FEW140 SCT230 BKN260 OVC330 25/04 A2983 RMK CU1AC1CI2CI1CI0 SLP104

CYQR;2009-06-24 21:00;CYQR 242100Z 28013G24KT 15SM FEW076 FEW140 FEW260 26/05 A2983 RMK CU1AC1CI0 SLP104

CYQR;2009-06-24 22:00;CYQR 242200Z 31017G24KT 15SM FEW089 26/06 A2983 RMK CU1 SLP105

CYQR;2009-06-24 23:00;CYQR 242300Z 32018KT 15SM FEW089 25/05 A2984 RMK CU1 SLP109

CYQR;2009-06-25 00:00;CYQR 250000Z 31016KT 15SM FEW089 24/07 A2984 RMK CU1 SLP110

CYQR;2009-06-25 01:00;CYQR 250100Z 32013KT 15SM FEW100 24/06 A2986 RMK ACC1 SLP114

CYQR;2009-06-25 02:00;CYQR 250200Z 33007KT 15SM FEW100 FEW340 22/08 A2986 RMK AC1CI0 SLP116

CYQR;2009-06-25 03:00;CYQR 250300Z 34005KT 15SM FEW100 FEW140 SCT340 18/08 A2988 RMK AC1AC0CI0 SLP119

CYQR;2009-06-25 04:00;CYQR 250400Z 35002KT 15SM FEW100 FEW340 17/08 A2989 RMK AC1CI1 SLP125

CYQR;2009-06-25 05:00;CYQR 250500Z 00000KT 15SM SKC 13/08 A2990 RMK SLP127

CYQR;2009-06-25 06:00;CYQR 250600Z 15002KT 15SM SKC 12/07 A2990 RMK SLP130

CYQR;2009-06-25 07:00;CYQR 250700Z 11004KT 15SM SKC 11/07 A2991 RMK SLP131

CYQR;2009-06-25 08:00;CYQR 250800Z 13006KT 15SM SKC 09/06 A2991 RMK SLP131

CYQR;2009-06-25 09:00;CYQR 250900Z 14004KT 15SM FEW140 09/06 A2991 RMK AC1 SLP134

CYQR;2009-06-25 10:00;CYQR 251000Z 13005KT 15SM FEW140 09/06 A2990 RMK AC1 SLP130

CYQR;2009-06-25 11:00;CYQR 251100Z 12007KT 15SM FEW140 FEW320 08/06 A2991 RMK AC1CI1 SLP133

CYQR;2009-06-25 12:00;CYQR 251200Z 14006KT 15SM FEW140 11/08 A2992 RMK AC1 SLP137

CYQR;2009-06-25 13:00;CYQR 251300Z 14007KT 15SM FEW140 15/08 A2992 RMK AC1 SLP136

CYQR;2009-06-25 14:00;CYQR 251400Z 15009KT 15SM FEW140 18/10 A2991 RMK AC1 SLP134

CYQR;2009-06-25 15:00;CYQR 251500Z 15013KT 15SM SKC 21/11 A2990 RMK SLP126

CYQR;2009-06-25 16:00;CYQR 251600Z 16015G20KT 15SM FEW170 23/10 A2987 RMK AC1 SLP117

CYQR;2009-06-25 17:00;CYQR 251700Z 17017G24KT 15SM FEW060 FEW350 26/11 A2986 RMK CF1CI1 SLP113

CYQR;2009-06-25 18:00;CYQR 251800Z 15018KT 15SM FEW060 FEW100 27/12 A2982 RMK CU1AC1 SLP100

CYQR;2009-06-25 19:00;CYQR 251900Z 16016G26KT 15SM FEW100 29/12 A2979 RMK AC1 SLP090

CYQR;2009-06-25 20:00;CYQR 252000Z 15020G26KT 15SM FEW100 30/12 A2976 RMK AC1 SLP081

CYQR;2009-06-25 21:00;CYQR 252100Z 17023G29KT 15SM FEW100 31/12 A2973 RMK ACC1 SLP069

CYQR;2009-06-25 22:00;CYQR 252200Z 17023G31KT 15SM FEW080TCU 31/12 A2970 RMK TCU1 SLP060

CYQR;2009-06-25 23:00;CYQR 252300Z 15018G27KT 15SM -SHRA FEW060CB FEW080TCU SCT140 BKN350 30/12 A2965 RMK CB2TCU1AC1CI2 CB S SLP044

CYQR;2009-06-25 23:17;CYQR 252317Z 15021G28KT 15SM FEW060CB FEW080 BKN250 30/ RMK CB2CU1CI2 CB SE

CYQR;2009-06-26 00:00;CYQR 260000Z 15020G27KT 15SM SCT056CB SCT090 BKN280 30/14 A2963 RMK CB3ACC1CI2 SLP033

CYQR;2009-06-26 01:00;CYQR 260100Z 15011KT 15SM SCT060TCU SCT090 BKN280 29/15 A2964 RMK TCU3ACC1CI1 CB W+E SLP036

CYQR;2009-06-26 02:00;CYQR 260200Z 18013G19KT 15SM SCT050TCU BKN120 OVC280 26/14 A2962 RMK TCU4ACC2CI1 CB W-SW SLP031

CYQR;2009-06-26 02:25;CYQR 260225Z CCA 32015G20KT 15SM TS BKN060CB OVC120 28/ RMK CB6ACC2 LTGCG

CYQR;2009-06-26 02:34;CYQR 260234Z 26024G30KT 10SM TSRA BKN060CB OVC090 26/ RMK CB6ACC2 LTGCCCG

CYQR;2009-06-26 03:00;CYQR 260300Z 25020G28KT 15SM -TSRA BKN060CB OVC090 22/13 A2971 RMK CB6ACC2 PRESRR SLP061

CYQR;2009-06-26 03:24;CYQR 260324Z 28017G29KT 15SM -SHRA SCT060TCU BKN120 BKN280 21/ RETS RMK TCU4AC2CI1 CB ASOCTD

CYQR;2009-06-26 03:47;CYQR 260347Z 26012KT 15SM SCT060TCU BKN120 BKN280 22/ RETS RMK TCU3AC2CI1

CYQR;2009-06-26 04:00;CYQR 260400Z 28015G22KT 15SM SCT060TCU BKN120 BKN280 22/12 A2970 RETS RMK TCU3AC2CI1 SLP057

CYQR;2009-06-26 05:00;CYQR 260500Z 28012KT 15SM FEW060TCU BKN120 BKN280 21/12 A2973 RMK TCU2AC5CI1 SLP067

CYQR;2009-06-26 06:00;CYQR 260600Z 27007KT 15SM FEW060 BKN120 18/13 A2976 RMK SC1AC6 SLP076

CYQR;2009-06-26 07:00;CYQR 260700Z 24003KT 15SM BKN120 16/12 A2977 RMK AC6 SLP078

CYQR;2009-06-26 08:00;CYQR 260800Z 29006KT 15SM BKN120 15/09 A2980 RMK AC6 SLP088

CYQR;2009-06-26 09:00;CYQR 260900Z 30008KT 15SM BKN120 15/09 A2981 RMK AC6 SLP092

CYQR;2009-06-26 10:00;CYQR 261000Z 23003KT 15SM FEW120 12/08 A2982 RMK AC2 SLP096

CYQR;2009-06-26 11:00;CYQR 261100Z 23005KT 15SM FEW120 10/07 A2983 RMK AC2 SLP100

CYQR;2009-06-26 12:00;CYQR 261200Z 27005KT 15SM FEW120 FEW280 10/07 A2984 RMK AC1CI0 SLP107

CYQR;2009-06-26 13:00;CYQR 261300Z 30002KT 15SM FEW280 13/09 A2984 RMK CI0 SLP107

CYQR;2009-06-26 14:00;CYQR 261400Z 34004KT 15SM FEW120 BKN280 17/11 A2985 RMK AC1CI1 SLP109

CYQR;2009-06-26 15:00;CYQR 261500Z 35009KT 15SM FEW140 SCT220 BKN280 20/11 A2984 RMK ACC1CI1CI1 SLP107

CYQR;2009-06-26 16:00;CYQR 261600Z 35008KT 15SM FEW140 SCT220 BKN300 21/09 A2984 RMK AC1CI2CI2 ACC ASOCTD SLP107

CYQR;2009-06-26 17:00;CYQR 261700Z 34005KT 15SM FEW140 SCT220 BKN280 OVC300 22/08 A2985 RMK AC1CI3CI1CI0 SLP108

CYQR;2009-06-26 18:00;CYQR 261800Z 32003KT 15SM FEW140 FEW220 BKN330 23/07 A2984 RMK AC1CI2CI2 SLP106

CYQR;2009-06-26 19:00;CYQR 261900Z 03005KT 15SM SCT230 BKN330 24/06 A2983 RMK CI2CI1 SLP102

CYQR;2009-06-26 20:00;CYQR 262000Z 00000KT 15SM FEW080 FEW110 SCT220 OVC330 25/06 A2982 RMK CF1ACC1CI3CI3 SLP100

CYQR;2009-06-26 21:00;CYQR 262100Z 17006KT 15SM FEW080 BKN220 OVC330 25/08 A2983 RMK AC1CI3CI2 SLP102

CYQR;2009-06-26 22:00;CYQR 262200Z 15005KT 15SM FEW079 BKN210 OVC300 24/09 A2981 RMK AC1CI5CI1 SLP098

CYQR;2009-06-26 23:00;CYQR 262300Z 14004KT 15SM FEW080 OVC180 24/10 A2979 RMK AC1AS6 SLP092

CYQR;2009-06-27 00:00;CYQR 270000Z 14007KT 15SM FEW050 FEW095 BKN160 OVC300 24/09 A2978 RMK SC1AC1AS6CI1 SLP088

CYQR;2009-06-27 01:00;CYQR 270100Z 16008KT 15SM FEW050 FEW095 OVC160 23/11 A2976 RMK SC1AC1AS6 SLP083

CYQR;2009-06-27 02:00;CYQR 270200Z 17006KT 15SM FEW080 BKN180 OVC280 21/13 A2975 RMK AC2AS5CI1 SLP080

CYQR;2009-06-27 03:00;CYQR 270300Z 16006KT 15SM SCT085 BKN200 BKN280 20/12 A2975 RMK AC4CS1CI1 SLP076

CYQR;2009-06-27 04:00;CYQR 270400Z 18003KT 15SM BKN085 BKN280 17/12 A2977 RMK AC5CI1 SLP083

CYQR;2009-06-27 05:00;CYQR 270500Z 17008KT 15SM SCT090 BKN280 16/12 A2978 RMK AC3CI0 SLP084

CYQR;2009-06-27 06:00;CYQR 270600Z 16006KT 15SM FEW090 16/11 A2977 RMK AC2 SLP082

CYQR;2009-06-27 07:00;CYQR 270700Z 16010KT 15SM FEW100 16/11 A2976 RMK AC2 SLP080

CYQR;2009-06-27 08:00;CYQR 270800Z 16006KT 15SM BKN100 13/11 A2975 RMK AC5 SLP078

CYQR;2009-06-27 09:00;CYQR 270900Z 16005KT 15SM BKN100 13/11 A2975 RMK AC5 SLP077

CYQR;2009-06-27 10:00;CYQR 271000Z 26009KT 15SM BKN100 11/10 A2975 RMK AC5 SLP076

CYQR;2009-06-27 11:00;CYQR 271100Z 31009KT 15SM FEW030 BKN120 BKN280 12/10 A2977 RMK SC2AC5CI1 SLP083

CYQR;2009-06-27 12:00;CYQR 271200Z 36015G21KT 15SM FEW050 BKN160 OVC280 14/10 A2979 RMK SC2AC4CI1 SLP090

CYQR;2009-06-27 13:00;CYQR 271300Z 33013KT 15SM SCT035 BKN160 OVC280 14/09 A2982 RMK SC4AC2CI1 SLP101

CYQR;2009-06-27 14:00;CYQR 271400Z 32019KT 15SM FEW050 SCT160 BKN220 OVC300 16/10 A2985 RMK SC2AC2CI2CI0 SLP109

CYQR;2009-06-27 15:00;CYQR 271500Z 33023KT 15SM FEW077 BKN300 16/07 A2987 RMK AC1CI2 SLP118

CYQR;2009-06-27 16:00;CYQR 271600Z 33021G27KT 15SM FEW054 BKN300 17/07 A2988 RMK SC1CI2 SLP121

CYQR;2009-06-27 17:00;CYQR 271700Z 32022G29KT 15SM SCT230 BKN300 18/07 A2989 RMK CI1CI1 SLP125

CYQR;2009-06-27 18:00;CYQR 271800Z 30031G37KT 15SM FEW055 FEW300 19/06 A2989 RMK CU1CI0 SLP127

CYQR;2009-06-27 19:00;CYQR 271900Z 32024G34KT 15SM SCT053 BKN300 18/06 A2991 RMK CU4CI0 SLP133

CYQR;2009-06-27 20:00;CYQR 272000Z 31022G33KT 15SM SCT053 BKN086 BKN300 19/05 A2991 RMK SC3AC2CI1 SLP132

CYQR;2009-06-27 21:00;CYQR 272100Z 29027G36KT 15SM BKN061 BKN090 BKN300 19/04 A2991 RMK SC5AC2CI0 SLP136

CYQR;2009-06-27 22:00;CYQR 272200Z 30023G32KT 15SM SCT056 BKN086 BKN300 19/06 A2991 RMK SC3AC2CI0 SLP137

CYQR;2009-06-27 23:00;CYQR 272300Z 32021G31KT 15SM BKN045 BKN090 BKN300 17/07 A2992 RMK SC6AC1CI0 SLP138

CYQR;2009-06-28 00:00;CYQR 280000Z 32019KT 15SM BKN043 BKN080 BKN300 17/08 A2993 RMK SC5AC2CI0 SLP141

CYQR;2009-06-28 01:00;CYQR 280100Z 34017KT 15SM BKN045 BKN080 BKN300 17/08 A2993 RMK SC5AC1CI0 SLP143

CYQR;2009-06-28 02:00;CYQR 280200Z 33013G18KT 15SM FEW045 SCT080 BKN300 17/08 A2994 RMK SC2AC1CI1 SLP146

CYQR;2009-06-28 03:00;CYQR 280300Z 32007KT 15SM FEW045 FEW080 FEW300 14/08 A2994 RMK SC1AC1CI0 SLP149

CYQR;2009-06-28 04:00;CYQR 280400Z 32009KT 15SM FEW045 FEW080 FEW300 12/08 A2995 RMK SC1AC1CI0 SLP151

CYQR;2009-06-28 05:00;CYQR 280500Z 28006KT 15SM SKC 10/07 A2996 RMK SLP155

CYQR;2009-06-28 06:00;CYQR 280600Z 32005KT 15SM SKC 09/07 A2997 RMK SLP158

CYQR;2009-06-28 07:00;CYQR 280700Z 29005KT 15SM SKC 09/07 A2997 RMK SLP159

CYQR;2009-06-28 08:00;CYQR 280800Z 28004KT 15SM SKC 08/06 A2996 RMK SLP154

CYQR;2009-06-28 09:00;CYQR 280900Z 27008KT 15SM SKC 07/06 A2997 RMK SLP161

CYQR;2009-06-28 10:00;CYQR 281000Z 28006KT 15SM SKC 06/05 A2997 RMK SLP161

CYQR;2009-06-28 11:00;CYQR 281100Z 29007KT 15SM SKC 07/06 A2999 RMK SLP165

CYQR;2009-06-28 12:00;CYQR 281200Z 31004KT 15SM SKC 08/07 A2999 RMK SLP165

CYQR;2009-06-28 13:00;CYQR 281300Z 30006KT 15SM SKC 11/10 A2999 RMK SLP165

CYQR;2009-06-28 14:00;CYQR 281400Z 31007KT 15SM SKC 14/11 A2999 RMK SLP165

CYQR;2009-06-28 15:00;CYQR 281500Z 31007KT 15SM FEW025 17/11 A2998 RMK CF1 SLP161

CYQR;2009-06-28 16:00;CYQR 281600Z 32007KT 15SM FEW030 18/10 A2997 RMK CU1 SLP158

CYQR;2009-06-28 17:00;CYQR 281700Z 33008KT 15SM FEW035 19/09 A2996 RMK CF1 SLP154

CYQR;2009-06-28 18:00;CYQR 281800Z 29004KT 15SM SKC 20/09 A2995 RMK SLP152

CYQR;2009-06-28 19:00;CYQR 281900Z 23002KT 15SM SKC 22/09 A2994 RMK SLP147

CYQR;2009-06-28 20:00;CYQR 282000Z 27002KT 15SM SKC 22/09 A2992 RMK SLP141

CYQR;2009-06-28 21:00;CYQR 282100Z 18003KT 15SM SKC 24/10 A2990 RMK SLP134

CYQR;2009-06-28 22:00;CYQR 282200Z 05003KT 15SM FEW055 24/09 A2989 RMK CU1 SLP131

CYQR;2009-06-28 23:00;CYQR 282300Z 08006KT 15SM FEW060 25/10 A2987 RMK CU1 SLP123

CYQR;2009-06-29 00:00;CYQR 290000Z 11008KT 15SM FEW055 FEW300 25/10 A2984 RMK CU1CI1 SLP110

CYQR;2009-06-29 01:00;CYQR 290100Z 11014KT 15SM FEW080 SCT300 23/10 A2983 RMK AC1CI0 SLP107

CYQR;2009-06-29 02:00;CYQR 290200Z 11011G16KT 15SM FEW080 FEW300 22/10 A2982 RMK AC1CI0 SLP105

CYQR;2009-06-29 03:00;CYQR 290300Z 12012G17KT 15SM FEW080 FEW300 21/10 A2984 RMK AC1CI0 SLP107

CYQR;2009-06-29 04:00;CYQR 290400Z 12009KT 15SM FEW080 FEW300 19/11 A2986 RMK AC1CI0 SLP113

CYQR;2009-06-29 05:00;CYQR 290500Z 12009KT 15SM FEW080 FEW300 17/10 A2986 RMK AC1CI0 SLP113

CYQR;2009-06-29 06:00;CYQR 290600Z 11009KT 15SM FEW080 FEW300 16/10 A2987 RMK AC1CI0 SLP120

CYQR;2009-06-29 07:00;CYQR 290700Z 09007KT 15SM FEW080 FEW300 15/10 A2988 RMK AC1CI0 SLP123

CYQR;2009-06-29 08:00;CYQR 290800Z 11011KT 15SM SKC 16/09 A2989 RMK SLP124

CYQR;2009-06-29 09:00;CYQR 290900Z 12014G19KT 15SM SKC 15/09 A2989 RMK SLP122

CYQR;2009-06-29 10:00;CYQR 291000Z 12013KT 15SM SKC 13/09 A2989 RMK SLP125

CYQR;2009-06-29 11:00;CYQR 291100Z 10012KT 15SM SKC 13/10 A2991 RMK SLP131

CYQR;2009-06-29 12:00;CYQR 291200Z 09012G18KT 15SM SKC 13/10 A2995 RMK SLP144

CYQR;2009-06-29 13:00;CYQR 291300Z 10013G18KT 15SM SKC 14/10 A2996 RMK SLP147

CYQR;2009-06-29 14:00;CYQR 291400Z 11013KT 15SM SKC 16/11 A2996 RMK SLP149

CYQR;2009-06-29 15:00;CYQR 291500Z 13012KT 15SM FEW030 19/12 A2998 RMK CF1 SLP154

CYQR;2009-06-29 16:00;CYQR 291600Z 10009KT 15SM FEW035 20/12 A2997 RMK CF1 SLP151

CYQR;2009-06-29 17:00;CYQR 291700Z 10011G16KT 15SM FEW035 22/13 A2997 RMK CF1 SLP150

CYQR;2009-06-29 18:00;CYQR 291800Z 08012KT 15SM FEW044 FEW090 FEW300 23/12 A2997 RMK CF1AC1CI0 SLP150

CYQR;2009-06-29 19:00;CYQR 291900Z 09010G16KT 15SM FEW050 FEW090 SCT300 23/11 A2997 RMK CU1AC1CI0 SLP150

CYQR;2009-06-29 20:00;CYQR 292000Z 09013G18KT 15SM FEW050 FEW300 24/12 A2997 RMK CU1CI1 TR CI SLP150

CYQR;2009-06-29 21:00;CYQR 292100Z 07012G18KT 15SM FEW050 FEW090 BKN300 24/12 A2997 RMK CU2AC1CI0 SLP151

CYQR;2009-06-29 22:00;CYQR 292200Z 10010G15KT 15SM FEW048 SCT300 24/12 A2997 RMK CU2CI0 SLP152

CYQR;2009-06-29 23:00;CYQR 292300Z 06010G19KT 15SM SCT045 BKN300 23/12 A2997 RMK CU4CI1 SLP152

CYQR;2009-06-30 00:00;CYQR 300000Z 10008KT 15SM FEW046 SCT300 22/11 A2997 RMK CU2CI1 CB TOP DIST S SLP153

CYQR;2009-06-30 01:00;CYQR 300100Z 07013G18KT 15SM FEW051 FEW098 22/11 A2996 RMK CU1AC2 TR CU SLP151

CYQR;2009-06-30 02:00;CYQR 300200Z 09014G20KT 15SM FEW051 FEW098 22/10 A2996 RMK CU1AC2 SLP150

CYQR;2009-06-30 03:00;CYQR 300300Z 10012KT 15SM BKN082 BKN300 21/11 A2996 RMK AC5CI1 SLP147

CYQR;2009-06-30 04:00;CYQR 300400Z 10010G16KT 15SM BKN081 OVC300 20/11 A2996 RMK AC6CI2 SLP148

CYQR;2009-06-30 05:00;CYQR 300500Z 11013G19KT 15SM BKN085 BKN300 19/11 A2996 RMK AC5CI1 SLP149

CYQR;2009-06-30 06:00;CYQR 300600Z 12015G20KT 15SM BKN085 BKN300 17/11 A2997 RMK AC5CI1 SLP149

CYQR;2009-06-30 07:00;CYQR 300700Z 14015KT 15SM BKN092 17/12 A2997 RMK AC6 SLP150

CYQR;2009-06-30 08:00;CYQR 300800Z 14019KT 15SM BKN085 16/11 A2996 RMK AC6 SLP148

CYQR;2009-06-30 09:00;CYQR 300900Z 14018G24KT 15SM BKN085 15/11 A2996 RMK AC5 SLP148

CYQR;2009-06-30 10:00;CYQR 301000Z 14017G22KT 15SM SCT045 BKN060 15/11 A2996 RMK SC3SC3 SLP149

CYQR;2009-06-30 11:00;CYQR 301100Z 13015KT 15SM FEW045 SCT280 14/11 A2997 RMK SC2CI1 SLP151

CYQR;2009-06-30 12:00;CYQR 301200Z 14019KT 15SM FEW045 SCT280 14/11 A2997 RMK SC2CI1 SLP153

CYQR;2009-06-30 13:00;CYQR 301300Z 14021G26KT 15SM BKN049 BKN080 BKN280 15/11 A2996 RMK SC4AC1CI1 SLP151

CYQR;2009-06-30 14:00;CYQR 301400Z 14024KT 15SM FEW049 FEW280 17/12 A2994 RMK SC1CI0 SLP145

CYQR;2009-06-30 15:00;CYQR 301500Z 14018G29KT 15SM FEW130 FEW330 18/12 A2994 RMK AC1CI1 SLP142

CYQR;2009-06-30 16:00;CYQR 301600Z 14024G30KT 15SM FEW030 FEW130 20/12 A2993 RMK CF1AC1 SLP138

CYQR;2009-06-30 17:00;CYQR 301700Z 16019G28KT 15SM FEW035 FEW170 FEW340 21/12 A2992 RMK CU1AC1CI1 SLP134

CYQR;2009-06-30 18:00;CYQR 301800Z 15019G27KT 15SM FEW035 FEW170 FEW340 23/13 A2990 RMK CU1AC1CI0 SLP126

CYQR;2009-06-30 19:00;CYQR 301900Z 15021G29KT 15SM FEW035 FEW180 FEW340 24/13 A2989 RMK CU1AC2CI1 SLP125

CYQR;2009-06-30 20:00;CYQR 302000Z 15020G27KT 15SM FEW048 FEW180 FEW340 25/13 A2989 RMK CU1AC1CC1 SLP122

CYQR;2009-06-30 21:00;CYQR 302100Z 15022KT 15SM FEW095 26/14 A2988 RMK ACC1 SLP118

CYQR;2009-06-30 22:00;CYQR 302200Z 14018G26KT 15SM FEW048 BKN095 BKN180 BKN340 26/14 A2988 RMK CU1ACC5AC1CI1 SLP118

CYQR;2009-06-30 23:00;CYQR 302300Z 14014G25KT 15SM FEW048 FEW095 FEW180 FEW340 27/15 A2985 RMK CU1ACC1AC1CI1 CU DVLPG W SLP110

CYQR;2009-07-01 01:00;CYQR 010100Z 14019KT 15SM FEW048TCU FEW340 25/14 A2984 RMK TCU1CI1 TR TCU CI ASOCTD WITH CB S SLP108

CYQR;2009-07-01 02:00;CYQR 010200Z 13016G27KT 15SM FEW048TCU FEW340 24/13 A2985 RMK TCU1CI1 TR TCU CI ASOCTD WITH CB S SLP110

CYQR;2009-07-01 03:00;CYQR 010300Z 14017G22KT 15SM FEW045CB FEW340 22/12 A2983 RMK CB2CI0 CB NW AND N SLP102

CYQR;2009-07-01 04:00;CYQR 010400Z 13013KT 15SM SCT042CB BKN300 20/12 A2985 RMK CB4CI1 SLP110

CYQR;2009-07-01 04:53;CYQR 010453Z 11011G17KT 15SM TS BKN040CB 20/ RMK CB7 LTGICCCCG

CYQR;2009-07-01 05:00;CYQR 010500Z 10010G16KT 15SM TS BKN040CB 19/12 A2986 RMK CB7 LTGICCCCG SLP111

CYQR;2009-07-01 05:28;CYQR 010528Z 10007KT 15SM -TSRA OVC073CB 19/ RMK CB8 LTGICCCCG

CYQR;2009-07-01 06:00;CYQR 010600Z 15007KT 10SM -TSRA SCT028 OVC039CB 19/13 A2993 RMK CF3CB5 LTGICCCCG PRESRR SLP136

CYQR;2009-07-01 07:00;CYQR 010700Z 13021G27KT 10SM -TSRA BKN019CB 16/13 A2987 RMK CB6 SLP117

CYQR;2009-07-01 07:09;CYQR 010709Z 14022G27KT 15SM BKN019CB 16/ RETS RMK CB6

CYQR;2009-07-01 08:00;CYQR 010800Z 14017G24KT 15SM SCT019 16/13 A2987 RETS RMK SC3 SLP118

CYQR;2009-07-01 09:00;CYQR 010900Z 12008KT 15SM FEW019 15/12 A2989 RMK SC2 SLP123

CYQR;2009-07-01 10:00;CYQR 011000Z 12007KT 15SM FEW019 14/12 A2990 RMK SC2 SLP127

CYQR;2009-07-01 11:00;CYQR 011100Z 11006KT 15SM FEW045 13/12 A2992 RMK SC2 SLP132

CYQR;2009-07-01 12:00;CYQR 011200Z 12004KT 15SM FEW045 FEW080 FEW220 14/12 A2995 RMK SC1AC1CI0 SLP143

CYQR;2009-07-01 13:00;CYQR 011300Z 12007KT 15SM BKN016 15/12 A2996 RMK SC6 SLP146

CYQR;2009-07-01 14:00;CYQR 011400Z 05005KT 15SM BKN015 16/12 A2997 RMK SC7 SLP149

CYQR;2009-07-01 14:36;CYQR 011436Z 09008KT 15SM FEW015 17/ RMK SC1

CYQR;2009-07-01 15:00;CYQR 011500Z 13004KT 15SM FEW015 FEW085 18/13 A2998 RMK SC1ACC1 SLP154

CYQR;2009-07-01 16:00;CYQR 011600Z 34006KT 15SM BKN019 19/14 A2999 RMK SC7 CU EMBD SLP158

CYQR;2009-07-01 17:00;CYQR 011700Z 01011G17KT 15SM OVC021 19/14 A2999 RMK SC8 CU EMBD SLP159

CYQR;2009-07-01 18:00;CYQR 011800Z 34011G17KT 15SM OVC021 19/14 A3002 RMK CU8 SLP170

CYQR;2009-07-01 19:00;CYQR 011900Z 36010KT 15SM BKN021 20/14 A3003 RMK CU7 SLP172

CYQR;2009-07-01 20:00;CYQR 012000Z 02008KT 15SM BKN025 OVC069 21/14 A3003 RMK CU6AC2 SLP173

CYQR;2009-07-01 21:00;CYQR 012100Z 36011KT 15SM BKN023 BKN090 21/15 A3004 RMK CU6ACC1 TCU DVLPG W SLP177

CYQR;2009-07-01 22:00;CYQR 012200Z 03013KT 15SM BKN027 BKN130 22/15 A3004 RMK CU5ACC1 SLP176

CYQR;2009-07-01 23:00;CYQR 012300Z 01011G17KT 15SM FEW031 SCT130 SCT250 22/14 A3004 RMK CU2ACC1CI0 SLP176

CYQR;2009-07-02 00:00;CYQR 020000Z 01008G16KT 15SM FEW033 SCT130 22/14 A3004 RMK CU2ACC1 SLP176

CYQR;2009-07-02 01:00;CYQR 020100Z 36011KT 15SM FEW033 FEW053 SCT130 SCT250 22/14 A3004 RMK CU2SC1ACC1CI0 SLP178

CYQR;2009-07-02 02:00;CYQR 020200Z 34014KT 15SM FEW033 SCT130 SCT330 20/14 A3006 RMK CU2ACC2CC1 SLP184

CYQR;2009-07-02 03:00;CYQR 020300Z 36012KT 15SM FEW033 SCT130 SCT330 18/13 A3008 RMK CU2AC2CI1 SLP190

CYQR;2009-07-02 04:00;CYQR 020400Z 35007KT 15SM FEW033 SCT130 SCT330 16/13 A3010 RMK SC2AC2CI1 SLP197

CYQR;2009-07-02 05:00;CYQR 020500Z 36007KT 15SM FEW098 16/13 A3011 RMK AC2 SLP201

CYQR;2009-07-02 06:00;CYQR 020600Z 35008KT 15SM BKN093 15/13 A3012 RMK AC5 SLP206

CYQR;2009-07-02 07:00;CYQR 020700Z 34007KT 15SM BKN092 14/12 A3013 RMK AC6 SLP209

CYQR;2009-07-02 08:00;CYQR 020800Z 34006KT 15SM OVC091 12/10 A3014 RMK AC8 SLP211

CYQR;2009-07-02 09:00;CYQR 020900Z 36006KT 15SM SCT091 10/07 A3013 RMK AC3 SLP212

CYQR;2009-07-02 10:00;CYQR 021000Z 36005KT 15SM FEW091 08/06 A3014 RMK AC2 SLP214

CYQR;2009-07-02 11:00;CYQR 021100Z 33006KT 15SM FEW091 07/06 A3015 RMK AC1 SLP218

CYQR;2009-07-02 12:00;CYQR 021200Z 34007KT 15SM FEW030 FEW091 09/08 A3017 RMK SC2AC0 SLP225

CYQR;2009-07-02 12:30;CYQR 021230Z 35006KT 6SM BR FEW010 FEW091 11/ RMK ST2AC0 FG INVADING FM N VIS NW-N 1SM

CYQR;2009-07-02 12:41;CYQR 021241Z 36008KT 1SM BR FEW091 11/ RMK AC0 VIS NW-N 1/2

CYQR;2009-07-02 12:50;CYQR 021250Z CCA 36009KT 3/8SM FG SKC 11/ RMK FG7 RVR RWY 13 1800FT

CYQR;2009-07-02 13:00;CYQR 021300Z 01009KT 3/8SM FG SKC 11/10 A3018 RMK FG7 RVR RWY 13 2000FT SLP228

CYQR;2009-07-02 13:21;CYQR 021321Z 36007KT 1/2SM FG SKC 12/ RMK FG7 R13/4000FT/U

CYQR;2009-07-02 13:32;CYQR 021332Z 36008KT 1SM BR SKC 12/ RMK FG6 R13/P6000FT/U

CYQR;2009-07-02 13:39;CYQR 021339Z 01007KT 1 1/2SM BR SKC 12/ RMK FG4

CYQR;2009-07-02 13:44;CYQR 021344Z 36008KT 2SM BR FEW002 12/ RMK SF2

CYQR;2009-07-02 14:00;CYQR 021400Z 34006KT 10SM FEW003 13/12 A3019 RMK SF1 SLP232

CYQR;2009-07-02 15:00;CYQR 021500Z 36009KT 15SM FEW022 FEW100 17/12 A3019 RMK CU1AC1 SLP230

CYQR;2009-07-02 16:00;CYQR 021600Z 03011KT 15SM FEW040 FEW140 19/10 A3019 RMK CU1AC1 SLP230

CYQR;2009-07-02 17:00;CYQR 021700Z 02010KT 15SM FEW048 FEW140 21/08 A3019 RMK CU1AC0 SLP230

CYQR;2009-07-02 18:00;CYQR 021800Z 04009G16KT 15SM FEW052 FEW140 21/07 A3019 RMK CU1AC1 SLP230

CYQR;2009-07-02 19:00;CYQR 021900Z 03009G17KT 15SM FEW058 FEW140 21/06 A3019 RMK CU1AC1 SLP229

CYQR;2009-07-02 20:00;CYQR 022000Z 05006G18KT 15SM FEW066 FEW140 22/06 A3018 RMK CU1AC1 SLP226

CYQR;2009-07-02 21:00;CYQR 022100Z 04011G16KT 15SM FEW072 FEW150 21/05 A3018 RMK CU1AC1 SLP228

CYQR;2009-07-02 22:00;CYQR 022200Z 03010KT 15SM FEW075 FEW150 23/05 A3017 RMK CU1AC1 SLP226

CYQR;2009-07-02 23:00;CYQR 022300Z 04008KT 15SM FEW075 23/05 A3016 RMK CU1 SLP223

CYQR;2009-07-03 00:00;CYQR 030000Z 35005KT 15SM FEW075 FEW150 22/05 A3016 RMK CU1AC1 SLP220

CYQR;2009-07-03 01:00;CYQR 030100Z 05008KT 15SM FEW071 FEW150 22/06 A3015 RMK AC1AC1 LWR LYR TR SLP219

CYQR;2009-07-03 02:00;CYQR 030200Z 09005KT 15SM FEW068 FEW150 21/06 A3016 RMK AC1AC1 SLP222

CYQR;2009-07-03 03:00;CYQR 030300Z 07005KT 15SM FEW068 FEW150 17/08 A3018 RMK AC1AC1 SLP225

CYQR;2009-07-03 04:00;CYQR 030400Z 14003KT 15SM FEW150 13/07 A3019 RMK AC1 SLP230

CYQR;2009-07-03 05:00;CYQR 030500Z 08003KT 15SM FEW150 14/07 A3019 RMK AC1 SLP228

CYQR;2009-07-03 06:00;CYQR 030600Z 10006KT 15SM SKC 13/07 A3018 RMK SLP225

CYQR;2009-07-03 07:00;CYQR 030700Z 10004KT 15SM SKC 10/06 A3018 RMK SLP227

CYQR;2009-07-03 08:00;CYQR 030800Z 10005KT 15SM SKC 12/06 A3018 RMK SLP225

CYQR;2009-07-03 09:00;CYQR 030900Z 10008KT 15SM SKC 10/06 A3016 RMK SLP221

CYQR;2009-07-03 10:00;CYQR 031000Z 12005KT 15SM FEW150 09/06 A3017 RMK AC2 SLP225

CYQR;2009-07-03 11:00;CYQR 031100Z 11006KT 15SM BKN150 10/06 A3017 RMK AC6 SLP224

CYQR;2009-07-03 12:00;CYQR 031200Z 11006KT 15SM BKN097 BKN150 13/07 A3017 RMK AC5AC2 SLP222

CYQR;2009-07-03 13:00;CYQR 031300Z 12004KT 15SM FEW055 BKN095 BKN150 14/08 A3019 RMK SC2AC4AC2 ACC ASOCTD VIRGA SLP229

CYQR;2009-07-03 14:00;CYQR 031400Z 15006KT 15SM BKN110 BKN150 15/09 A3019 RMK AC7ACC1 VIRGA S SLP227

CYQR;2009-07-03 15:00;CYQR 031500Z 15008KT 15SM BKN110 BKN150 17/10 A3018 RMK AC7ACC1 VIRGA S SLP227

CYQR;2009-07-03 16:00;CYQR 031600Z 12009KT 15SM BKN110 BKN150 BKN250 19/09 A3016 RMK AC6ACC1CI0 VIRGA SLP220

CYQR;2009-07-03 17:00;CYQR 031700Z CCA 10009KT 15SM FEW042 BKN082 OVC150 19/09 A3014 RMK CU1AC7ACC1 SLP215

CYQR;2009-07-03 18:00;CYQR 031800Z 36003KT 15SM -SHRA FEW042 BKN061 BKN150 18/09 A3019 RMK CU1SC5ACC2 CB EMBD SC LYR PRESRR SLP231

CYQR;2009-07-03 18:20;CYQR 031820Z 03013G18KT 10SM -TSRA SCT035CB BKN060 OVC150 16/ RMK CB4SC2AC2

CYQR;2009-07-03 18:40;CYQR 031840Z CCA 05004KT 15SM -SHRA FEW010 SCT030 BKN060 OVC150 17/ RETS RMK SF1SC4SC2AC2 CB EMBD

CYQR;2009-07-03 19:00;CYQR 031900Z 08003KT 15SM VCSH FEW010 FEW030 BKN060 BKN150 17/10 A3019 RETS RMK SF1SC2SC3AC2 CB EMBD SLP230

CYQR;2009-07-03 19:04;CYQR 031904Z 07007KT 15SM -SHRA FEW010 FEW030 BKN060 BKN150 17/ RMK SF1SC2SC3AC2 CB EMBD

CYQR;2009-07-03 19:24;CYQR 031924Z 08009KT 15SM FEW013 FEW041 SCT150 BKN300 19/ RMK SF1SC2AC1CI0 CB EMBD N+E

CYQR;2009-07-03 20:00;CYQR 032000Z 10013KT 15SM FEW040 SCT070 BKN330 20/09 A3014 RMK CU1AC2CI0 SLP216

CYQR;2009-07-03 21:00;CYQR 032100Z 10013KT 15SM FEW040 SCT074 SCT150 BKN330 20/08 A3013 RMK CU1AC3AC1CI0 SLP211

CYQR;2009-07-03 22:00;CYQR 032200Z 14010KT 15SM SCT069 BKN081 BKN330 22/09 A3011 RMK CU4AC2CI0 SLP204

CYQR;2009-07-03 23:00;CYQR 032300Z 14010G15KT 15SM SCT067 BKN089 BKN330 21/09 A3010 RMK CU3AC3CI1 SLP202

CYQR;2009-07-04 00:00;CYQR 040000Z 14008KT 15SM FEW064 BKN100 BKN330 21/11 A3009 RMK CU2AC3CI2 SLP196

CYQR;2009-07-04 01:00;CYQR 040100Z 14007KT 15SM FEW035 SCT062 BKN100 BKN330 20/11 A3009 RMK CU1SC2AC3CI1 SLP195

CYQR;2009-07-04 02:00;CYQR 040200Z 12008KT 15SM BKN093 20/11 A3008 RMK AC6 ACC AND CB ASOCTD CB WEST SLP192

CYQR;2009-07-04 03:00;CYQR 040300Z 11003KT 15SM SCT090 BKN260 18/12 A3008 RMK ACC3CI1 SLP191

CYQR;2009-07-04 04:00;CYQR 040400Z 09008KT 15SM SCT086 BKN260 17/12 A3009 RMK ACC3CI1 SLP194

CYQR;2009-07-04 05:00;CYQR 040500Z 10005KT 15SM FEW060 SCT080 BKN240 17/12 A3009 RMK SC2AC2CI2 SLP196

CYQR;2009-07-04 06:00;CYQR 040600Z 10004KT 15SM FEW060 SCT083 BKN240 14/11 A3009 RMK SC2AC2CI1 SLP197

CYQR;2009-07-04 07:00;CYQR 040700Z 03002KT 15SM SCT070 BKN250 13/11 A3009 RMK AC3CI1 SLP197

CYQR;2009-07-04 08:00;CYQR 040800Z 03003KT 15SM FEW070 BKN250 12/10 A3009 RMK AC2CI1 SLP197

CYQR;2009-07-04 09:00;CYQR 040900Z 07005KT 15SM FEW070 BKN250 11/10 A3009 RMK AC2CI1 SLP199

CYQR;2009-07-04 10:00;CYQR 041000Z 30002KT 15SM FEW070 10/10 A3010 RMK AC2 SLP201

CYQR;2009-07-04 11:00;CYQR 041100Z 34003KT 15SM FEW070 08/08 A3012 RMK ACC2 SLP206

CYQR;2009-07-04 12:00;CYQR 041200Z 32003KT 15SM FEW070 10/09 A3014 RMK ACC1 SLP214

CYQR;2009-07-04 13:00;CYQR 041300Z 28006KT 15SM FEW012 13/11 A3015 RMK SC1 SLP219

CYQR;2009-07-04 13:08;CYQR 041308Z 31007KT 15SM FEW003 13/ RMK SF2

CYQR;2009-07-04 13:24;CYQR 041324Z 32010KT 15SM BKN004 13/ RMK SF5

CYQR;2009-07-04 13:53;CYQR 041353Z 36005KT 15SM FEW004 14/ RMK SF0

CYQR;2009-07-04 14:00;CYQR 041400Z 36006KT 15SM FEW004 15/12 A3016 RMK SF1 SLP221

CYQR;2009-07-04 15:00;CYQR 041500Z 34010KT 15SM FEW025 FEW080 17/11 A3017 RMK CU1AC1 SLP221

CYQR;2009-07-04 16:00;CYQR 041600Z 33011KT 15SM FEW028 FEW080 FEW280 19/11 A3017 RMK CU1AC1CI1 SLP221

CYQR;2009-07-04 17:00;CYQR 041700Z 32012KT 15SM FEW032 FEW080 19/11 A3016 RMK CU1AC1 SLP218

CYQR;2009-07-04 18:00;CYQR 041800Z 33009G15KT 15SM FEW040 FEW080 FEW280 20/10 A3016 RMK CU1ACC1CI1 SLP219

CYQR;2009-07-04 19:00;CYQR 041900Z 33013G18KT 15SM FEW050 FEW080 FEW280 21/09 A3016 RMK CU1AC1CI0 SLP218

CYQR;2009-07-04 20:00;CYQR 042000Z 34014G19KT 15SM FEW050 FEW100 FEW280 21/08 A3015 RMK CU1AC1CI1 SLP216

CYQR;2009-07-04 21:00;CYQR 042100Z 32013KT 15SM FEW050 FEW100 FEW280 21/08 A3014 RMK CU1AC1CI1 SLP213

CYQR;2009-07-04 22:00;CYQR 042200Z 34011KT 15SM FEW050 FEW280 22/09 A3013 RMK CU1CI1 SLP211

CYQR;2009-07-04 23:00;CYQR 042300Z 35009G15KT 15SM FEW050 FEW280 22/10 A3013 RMK CU1CI1 SLP209

CYQR;2009-07-05 00:00;CYQR 050000Z 33009G18KT 15SM FEW045 FEW280 21/10 A3012 RMK CF1CI1 SLP207

CYQR;2009-07-05 01:00;CYQR 050100Z 36010KT 15SM FEW045 SCT260 20/10 A3010 RMK CF1CI1 SLP202

CYQR;2009-07-05 02:00;CYQR 050200Z 36007KT 15SM FEW045 SCT230 BKN280 19/10 A3011 RMK SC1CI2CI1 TR SC SLP205

CYQR;2009-07-05 03:00;CYQR 050300Z 36004KT 15SM FEW210 SCT230 BKN280 16/10 A3012 RMK CC1CI2CI1 SLP206

CYQR;2009-07-05 04:00;CYQR 050400Z 36004KT 15SM FEW210 SCT230 BKN280 14/09 A3013 RMK CC1CI2CI1 SLP209

CYQR;2009-07-05 05:00;CYQR 050500Z 01005KT 15SM BKN230 BKN280 12/09 A3014 RMK CI2CI1 SLP211

CYQR;2009-07-05 06:00;CYQR 050600Z 04006KT 15SM SCT230 BKN280 13/09 A3013 RMK CI2CI1 SLP208

CYQR;2009-07-05 07:00;CYQR 050700Z 12002KT 15SM BKN260 11/07 A3011 RMK CI2 SLP204

CYQR;2009-07-05 08:00;CYQR 050800Z 10004KT 15SM BKN240 10/07 A3011 RMK CI2 SLP202

CYQR;2009-07-05 09:00;CYQR 050900Z 12003KT 15SM SCT260 08/05 A3010 RMK CI1 SLP202

CYQR;2009-07-05 10:00;CYQR 051000Z 19004KT 15SM FEW210 BKN260 07/05 A3010 RMK CI1CI1 SLP203

CYQR;2009-07-05 11:00;CYQR 051100Z 31004KT 15SM FEW140 SCT210 BKN260 07/06 A3011 RMK ACC2CI2CI0 SLP205

CYQR;2009-07-05 12:00;CYQR 051200Z 31003KT 15SM BKN076 BKN210 BKN260 10/08 A3011 RMK ACC5CI1CI0 SLP204

CYQR;2009-07-05 13:00;CYQR 051300Z 36002KT 15SM BKN089 BKN210 OVC280 11/08 A3012 RMK ACC5CI2CI0 VIRGA SLP207

CYQR;2009-07-05 13:45;CYQR 051345Z 19002KT 15SM -SHRA SCT050 OVC089 12/ RMK SC3AC5

CYQR;2009-07-05 14:00;CYQR 051400Z 32004KT 12SM -SHRA BKN055 OVC089 12/10 A3014 RMK SC6AC2 SLP212

CYQR;2009-07-05 15:00;CYQR 051500Z 06005KT 12SM -SHRA FEW011 BKN052 OVC095 14/12 A3012 RMK SF2SC5AC2 SLP210

CYQR;2009-07-05 16:00;CYQR 051600Z 10006KT 15SM FEW014 OVC098 15/12 A3011 RMK SC2AC6 SLP206

CYQR;2009-07-05 16:31;CYQR 051631Z 14002KT 15SM -SHRA FEW057 OVC091 15/ RMK SC2AC6

CYQR;2009-07-05 17:00;CYQR 051700Z 14004KT 15SM FEW055 BKN072 15/12 A3011 RMK SC2AC6 SLP206

CYQR;2009-07-05 18:00;CYQR 051800Z 09004KT 15SM FEW015 OVC059 16/12 A3011 RMK CF1SC8 SLP207

CYQR;2009-07-05 19:00;CYQR 051900Z 09008KT 15SM FEW015 BKN055 OVC070 16/09 A3011 RMK CF1SC5AC3 SLP205

CYQR;2009-07-05 20:00;CYQR 052000Z 10008KT 15SM FEW030 BKN055 17/09 A3010 RMK CU1SC6 SLP202

CYQR;2009-07-05 21:00;CYQR 052100Z 10010KT 15SM FEW040 BKN059 BKN100 18/08 A3009 RMK CU1SC5AC1 SLP200

CYQR;2009-07-05 22:00;CYQR 052200Z 10005KT 15SM FEW040 FEW080 20/09 A3008 RMK CU1AC1 SLP197

CYQR;2009-07-05 23:00;CYQR 052300Z 15002KT 15SM FEW043 FEW080 FEW280 20/11 A3007 RMK CU1AC1CI0 SLP193

CYQR;2009-07-06 00:00;CYQR 060000Z 18002KT 15SM FEW043 FEW080 BKN280 20/10 A3005 RMK CU1AC1CI0 TR AC SLP184

CYQR;2009-07-06 01:00;CYQR 060100Z 07007KT 15SM FEW045 FEW280 20/10 A3004 RMK SC1CI0 SLP182

CYQR;2009-07-06 02:00;CYQR 060200Z 03007KT 15SM FEW050 SCT230 BKN280 19/09 A3005 RMK SC1CI1CI0 TR SC SLP184

CYQR;2009-07-06 03:00;CYQR 060300Z 02003KT 15SM FEW090 SCT230 BKN280 16/09 A3006 RMK AC1CI1CI0 SLP188

CYQR;2009-07-06 04:00;CYQR 060400Z 04004KT 15SM SCT230 BKN300 14/08 A3007 RMK CI1CI0 SLP191

CYQR;2009-07-06 05:00;CYQR 060500Z 04003KT 15SM SCT230 BKN300 14/08 A3007 RMK CI1CI0 SLP190

CYQR;2009-07-06 06:00;CYQR 060600Z 03004KT 15SM SCT230 BKN300 13/09 A3007 RMK CI1CI0 SLP192

CYQR;2009-07-06 07:00;CYQR 060700Z 18005KT 15SM BKN260 09/07 A3007 RMK CI1 SLP193

CYQR;2009-07-06 08:00;CYQR 060800Z 01002KT 15SM SKC 08/06 A3006 RMK SLP189

CYQR;2009-07-06 09:00;CYQR 060900Z 03002KT 15SM SKC 07/06 A3006 RMK SLP190

CYQR;2009-07-06 10:00;CYQR 061000Z 18004KT 15SM FEW075 SCT260 06/05 A3006 RMK AC1CI1 SLP190

CYQR;2009-07-06 11:00;CYQR 061100Z 09003KT 15SM MIFG FEW075 SCT260 07/06 A3005 RMK AC1CI1 SLP188

CYQR;2009-07-06 12:00;CYQR 061200Z 00000KT 15SM FEW075 SCT260 09/08 A3006 RMK AC1CI1 SLP190

CYQR;2009-07-06 13:00;CYQR 061300Z 00000KT 15SM FEW075 SCT280 13/10 A3006 RMK AC1CI1 SLP190

CYQR;2009-07-06 14:00;CYQR 061400Z 07004KT 15SM SCT280 18/11 A3005 RMK CI1 SLP187

CYQR;2009-07-06 15:00;CYQR 061500Z 09009KT 15SM BKN280 20/11 A3005 RMK CI2 SLP180

CYQR;2009-07-06 16:00;CYQR 061600Z 09008KT 15SM FEW040 SCT280 21/11 A3004 RMK CF1CI2 SLP176

CYQR;2009-07-06 17:00;CYQR 061700Z 12006KT 15SM FEW040 BKN280 21/11 A3002 RMK CU1CI2 CC ASOCTD SLP171

CYQR;2009-07-06 18:00;CYQR 061800Z 13007KT 15SM FEW048 FEW090 BKN280 22/10 A3002 RMK CU1AC1CI1 AC TR CC ASOCTD SLP170

CYQR;2009-07-06 19:00;CYQR 061900Z 10011G16KT 15SM FEW052 FEW160 BKN280 23/10 A3000 RMK CU1AC2CI1 SLP165

CYQR;2009-07-06 20:00;CYQR 062000Z 09010KT 15SM FEW054 FEW087 BKN280 24/09 A2998 RMK CU1AC2CI1 SLP159

CYQR;2009-07-06 21:00;CYQR 062100Z 12007KT 15SM FEW062 SCT100 BKN280 23/10 A2997 RMK CU1AC4CI1 TR CU SLP157

CYQR;2009-07-06 22:00;CYQR 062200Z 13009KT 15SM FEW062 SCT076 BKN280 23/09 A2995 RMK CU1AC3CI1 SLP152

CYQR;2009-07-06 23:00;CYQR 062300Z 12007KT 15SM FEW090 SCT280 24/10 A2993 RMK AC2CI1 SLP144

CYQR;2009-07-07 00:00;CYQR 070000Z 13011KT 15SM SCT090 BKN280 23/10 A2992 RMK AC3CI0 SLP137

CYQR;2009-07-07 01:00;CYQR 070100Z 10013KT 15SM FEW090 BKN280 22/09 A2989 RMK AC2CI2 SLP130

CYQR;2009-07-07 02:00;CYQR 070200Z 10011KT 15SM SCT090 OVC280 22/09 A2988 RMK AC3CI3 SLP125

CYQR;2009-07-07 03:00;CYQR 070300Z 09011KT 15SM SCT120 OVC260 21/10 A2989 RMK ACC4CI2 SLP125

CYQR;2009-07-07 04:00;CYQR 070400Z 09011KT 15SM FEW062 BKN120 OVC260 20/10 A2990 RMK SC2ACC4CI2 SLP128

CYQR;2009-07-07 05:00;CYQR 070500Z 10016G21KT 15SM FEW062 BKN120 OVC260 19/09 A2990 RMK SC2ACC4CI1 SLP126

CYQR;2009-07-07 06:00;CYQR 070600Z 10018KT 15SM BKN064 OVC120 18/09 A2988 RMK SC5ACC3 SLP119

CYQR;2009-07-07 07:00;CYQR 070700Z 10015G21KT 15SM SCT060 OVC120 18/09 A2986 RMK SC4AC4 SLP112

CYQR;2009-07-07 08:00;CYQR 070800Z 11014G21KT 15SM SCT060 OVC120 18/09 A2986 RMK SC3AC5 SLP113

CYQR;2009-07-07 08:37;CYQR 070837Z 11014G19KT 10SM -SHRA SCT053 OVC120 17/ RMK SC3ACC5

CYQR;2009-07-07 09:00;CYQR 070900Z 11015G20KT 15SM -SHRA BKN053 OVC072 17/11 A2985 RMK SC5AC3 SLP111

CYQR;2009-07-07 10:00;CYQR 071000Z 12018G25KT 10SM -SHRA BKN050 OVC090 17/12 A2985 RMK SC6AC2 SLP109

CYQR;2009-07-07 10:18;CYQR 071018Z 12017G27KT 15SM BKN053 OVC094 17/ RMK SC6AC2

CYQR;2009-07-07 11:00;CYQR 071100Z 13012G19KT 15SM -SHRA SCT055 BKN095 OVC260 16/11 A2984 RMK SC4ACC2CI1 SLP107

CYQR;2009-07-07 12:00;CYQR 071200Z 13016G21KT 10SM -SHRA SCT029 OVC084 15/12 A2985 RMK SC4ACC4 SLP112

CYQR;2009-07-07 12:46;CYQR 071246Z 12016G21KT 15SM SCT027 BKN074 OVC100 14/ RMK SC4AC2AC2 CVCTV CLD EMBD

CYQR;2009-07-07 13:00;CYQR 071300Z 11017G25KT 15SM BKN027 OVC074 14/10 A2985 RMK SC6AC2 CVCTV CLD EMBD SLP112

CYQR;2009-07-07 14:00;CYQR 071400Z 12016G26KT 15SM -SHRA FEW009 BKN016 OVC094 13/11 A2987 RMK SF1SC7AC1 CVCTV CLD EMBD SLP117

CYQR;2009-07-07 14:51;CYQR 071451Z 12016G22KT 8SM -SHRA FEW009 BKN014 OVC094 13/ RMK SF1SC7AC1 CVCTV CLD EMBD

CYQR;2009-07-07 15:00;CYQR 071500Z 12017G24KT 5SM -SHRA BR OVC012 13/11 A2987 RMK SC8 CVCTV CLD EMBD SLP120

CYQR;2009-07-07 15:10;CYQR 071510Z 11019G25KT 3SM -SHRA BR OVC008 13/ RMK SC8 CVCTV CLD EMBD

CYQR;2009-07-07 15:48;CYQR 071548Z 12018G24KT 5SM -SHRA BR OVC005 13/ RMK SC8 CIG RAG

CYQR;2009-07-07 16:00;CYQR 071600Z 12017G24KT 4SM -SHRA BR OVC005 13/11 A2986 RMK SC8 CIG RAG SLP118

CYQR;2009-07-07 17:00;CYQR 071700Z 13016G22KT 10SM OVC006 13/11 A2987 RMK SC8 SLP119

CYQR;2009-07-07 18:00;CYQR 071800Z 13015G21KT 15SM OVC007 14/12 A2988 RMK SC8 SLP124

CYQR;2009-07-07 19:00;CYQR 071900Z 14017G25KT 8SM -SHRA OVC008 15/13 A2988 RMK SC8 SLP124

CYQR;2009-07-07 19:26;CYQR 071926Z 13019G25KT 15SM OVC009 16/ RMK SC8

CYQR;2009-07-07 20:00;CYQR 072000Z 13019KT 15SM OVC009 16/13 A2988 RMK SC8 SLP125

CYQR;2009-07-07 20:39;CYQR 072039Z 12015G20KT 15SM OVC010 17/ RMK SC8

CYQR;2009-07-07 21:00;CYQR 072100Z 13016KT 15SM OVC010 17/14 A2988 RMK SC8 CIG RAG SLP123

CYQR;2009-07-07 22:00;CYQR 072200Z 13016KT 15SM BKN012 19/15 A2988 RMK SC6 SLP122

CYQR;2009-07-07 23:00;CYQR 072300Z 13017KT 15SM BKN016 19/15 A2987 RMK CU5 SLP121

CYQR;2009-07-08 00:00;CYQR 080000Z 12012G22KT 15SM FEW018 BKN300 19/15 A2987 RMK CU2CI1 SLP119

CYQR;2009-07-08 01:00;CYQR 080100Z 12016G21KT 15SM FEW020TCU BKN300 19/15 A2986 RMK TCU2CI2 SLP118

CYQR;2009-07-08 02:00;CYQR 080200Z 13016G22KT 15SM FEW020TCU BKN300 18/14 A2986 RMK TCU1CI1 SLP116

CYQR;2009-07-08 03:00;CYQR 080300Z 12012KT 15SM FEW020TCU FEW150 BKN300 16/14 A2987 RMK TCU2AC1CI2 DSPTG CB TOP NW AND SW SLP124

CYQR;2009-07-08 04:00;CYQR 080400Z 13013G18KT 15SM FEW020 FEW065 BKN300 16/13 A2989 RMK CU1AC2CI1 SLP128

CYQR;2009-07-08 05:00;CYQR 080500Z 13014KT 15SM FEW020 FEW300 15/13 A2988 RMK CU1CI1 SLP125

CYQR;2009-07-08 06:00;CYQR 080600Z 13015KT 15SM SCT300 14/12 A2988 RMK CI2 SLP128

CYQR;2009-07-08 07:00;CYQR 080700Z 13014KT 15SM BKN300 13/12 A2986 RMK CI6 SLP122

CYQR;2009-07-08 08:00;CYQR 080800Z 15015KT 15SM FEW030 BKN150 OVC300 14/12 A2987 RMK SC1AC7CI0 SLP124

CYQR;2009-07-08 09:00;CYQR 080900Z 14010G15KT 15SM BKN059 OVC150 14/12 A2988 RMK SC6AC2 SLP126

CYQR;2009-07-08 09:37;CYQR 080937Z 15012KT 15SM BKN006 OVC059 14/ RMK SC6SC2

CYQR;2009-07-08 10:00;CYQR 081000Z 15013KT 15SM BKN006 OVC059 14/12 A2986 RMK SC7SC1 SLP120

CYQR;2009-07-08 11:00;CYQR 081100Z 13014KT 13SM BKN006 OVC071 14/13 A2985 RMK SC7AC1 SLP116

CYQR;2009-07-08 12:00;CYQR 081200Z 13015KT 15SM BKN006 OVC070 14/13 A2984 RMK SC7AC1 SLP109

CYQR;2009-07-08 13:00;CYQR 081300Z 13013G18KT 8SM OVC006 15/13 A2984 RMK SC8 SLP111

CYQR;2009-07-08 14:00;CYQR 081400Z 13010KT 8SM FEW007 FEW090 OVC150 16/14 A2983 RMK SF1AC1AS6 SLP107

CYQR;2009-07-08 15:00;CYQR 081500Z 13010G15KT 8SM SCT005 OVC076 16/14 A2983 RMK SF4AC4 HZ SLP106

CYQR;2009-07-08 15:22;CYQR 081522Z 14010KT 6SM BR BKN004 OVC076 16/ RMK ST6AC2

CYQR;2009-07-08 16:00;CYQR 081600Z 15008KT 5SM BR OVC004 16/15 A2984 RMK ST8 SLP109

CYQR;2009-07-08 16:22;CYQR 081622Z 15009KT 5SM BR OVC005 16/ RMK ST8

CYQR;2009-07-08 17:00;CYQR 081700Z 16006KT 5SM -SHRA BR OVC008 17/15 A2983 RMK SC8 CVCTV CLD EMBD SLP106

CYQR;2009-07-08 17:20;CYQR 081720Z 15013KT 2 1/2SM -SHRA BR OVC006 16/ RMK SC8 CVCTV CLD EMBD

CYQR;2009-07-08 17:26;CYQR 081726Z 16012G17KT 2SM TSRA BR BKN006 OVC019 16/ RMK SC7SC1 CB EMBD

CYQR;2009-07-08 17:30;CYQR 081730Z 16015KT 2SM TSRA BR BKN005 OVC019 15/ RMK SC7SC1 CB EMBD

CYQR;2009-07-08 18:12;CYQR 081812Z 27005KT 4SM -SHRA BR SCT005 BKN011 OVC030 15/  RMK SF3SC4SC1 CB EMBD

CYQR;2009-07-08 18:55;CYQR 081855Z 35002KT 6SM -TSRA FEW005 BKN012 OVC059 15/ RETSRA RMK SF2SC5SC2 CB EMBD

CYQR;2009-07-08 19:00;CYQR 081900Z 00000KT 6SM -TSRA FEW005 BKN012 OVC059 15/14 A2982 RERA RMK SF2SC6SC1 CB EMBD SLP107

CYQR;2009-07-08 19:24;CYQR 081924Z 10005KT 5SM -SHRA FEW005 BKN012 OVC050 15/ RETS RMK SF1SC6SC1 CB EMBD

CYQR;2009-07-08 20:00;CYQR 082000Z 07005KT 5SM -SHRA BR FEW005 BKN014 OVC075 15/14 A2978 RETS RMK SF1SC5AC3 CB EMBD SLP094

CYQR;2009-07-08 20:45;CYQR 082045Z 19006KT 5SM -SHRA BR FEW005 BKN016 OVC069 15/ RMK SF2SC5AC2 CVCTV CLD EMBD

CYQR;2009-07-08 21:00;CYQR 082100Z 19008KT 5SM -SHRA BR BKN008 OVC076 15/14 A2981 RMK SF5AC3 CVCTV CLD EMBD SLP102

CYQR;2009-07-08 22:00;CYQR 082200Z 16003KT 5SM -SHRA BR BKN009 OVC088 15/13 A2978 RMK SF5AC3 CVCTV CLD EMBD SLP093

CYQR;2009-07-08 22:26;CYQR 082226Z 14002KT 12SM -SHRA FEW009 BKN083 15/ RMK SF2AC5

CYQR;2009-07-08 22:53;CYQR 082253Z 09002KT 15SM FEW009 SCT027 BKN074 15/ RMK SF2SC2AC3 SH SW

CYQR;2009-07-08 23:00;CYQR 082300Z 08002KT 15SM VCSH FEW009 SCT027 BKN074 15/13 A2976 RMK SF1SC3AC3 CVCTV CLD EMBD SLP088

CYQR;2009-07-08 23:13;CYQR 082313Z 00000KT 15SM -SHRA SCT021 BKN071 15/ RMK SC3AC4 CVCTV CLD EMBD

CYQR;2009-07-09 00:00;CYQR 090000Z 21005KT 15SM -SHRA BKN054 BKN088 16/14 A2975 RMK SC6AC2 CVCTV CLD EMBD SLP083

CYQR;2009-07-09 01:00;CYQR 090100Z 16005KT 15SM -SHRA BKN049 BKN080 BKN280 16/14 A2974 RMK SC5AC2CI0 TCU EMBD SLP078

CYQR;2009-07-09 02:00;CYQR 090200Z 18004KT 15SM FEW050 FEW080 BKN300 16/14 A2974 RMK CU1AC1CI3 TCU SE-S SLP077

CYQR;2009-07-09 03:00;CYQR 090300Z 11004KT 15SM FEW050 BKN120 BKN300 14/13 A2974 RMK CU1AC2CI1 CB S SLP078

CYQR;2009-07-09 04:00;CYQR 090400Z 15006KT 15SM FEW080 SCT140 BKN300 14/13 A2972 RMK AC1ACC3CI2 SLP070

CYQR;2009-07-09 05:00;CYQR 090500Z 15005KT 15SM FEW080 SCT140 BKN300 14/13 A2971 RMK AC1AC2CI2 SLP067

CYQR;2009-07-09 06:00;CYQR 090600Z 16008KT 15SM FEW080 SCT150 BKN300 14/13 A2970 RMK AC1AC4CI1 SLP066

CYQR;2009-07-09 07:00;CYQR 090700Z 17007KT 15SM BKN063 BKN150 BKN300 14/13 A2970 RMK SC5AC1CI0 SLP065

CYQR;2009-07-09 08:00;CYQR 090800Z 21009KT 15SM FEW072 FEW150 13/12 A2968 RMK AC1AC1 SLP059

CYQR;2009-07-09 09:00;CYQR 090900Z 23007KT 15SM FEW070 FEW150 12/10 A2965 RMK AC1AC1 SLP050

CYQR;2009-07-09 10:00;CYQR 091000Z 30016KT 15SM BKN088 BKN150 BKN300 14/10 A2965 RMK AC5AC1CI1 CB LTGCC SE SLP050

CYQR;2009-07-09 11:00;CYQR 091100Z 29015G26KT 15SM -SHRA FEW020 BKN046TCU BKN076 BKN300 15/08 A2966 RMK CU1TCU5ACC1CI1 ACC TR PSBL MICROBURST ACTVTY VCNTY THRSHLD RWY 13 SLP052

CYQR;2009-07-09 11:36;CYQR 091136Z 30011KT 15SM FEW017CB FEW026 FEW076 FEW150 BKN300 13/ RMK CB2CU1AC1ACC1CI0 CB SE MAMMATUS

CYQR;2009-07-09 12:00;CYQR 091200Z 29015KT 15SM FEW033CB FEW072 SCT300 13/09 A2969 RMK CB1AC1CI0 CB SE DSPTG SLP064

CYQR;2009-07-09 13:00;CYQR 091300Z 26010KT 15SM FEW035 SCT075 BKN300 13/10 A2970 RMK SC1AC1CI1 TCU EMBD CB TOP DIST ENE SLP065

CYQR;2009-07-09 14:00;CYQR 091400Z 28018KT 15SM SCT075 15/10 A2969 RMK AC3 SLP061

CYQR;2009-07-09 15:00;CYQR 091500Z 27018G24KT 15SM FEW020 SCT070 BKN095 15/11 A2969 RMK SC1AC3AC1 SLP062

CYQR;2009-07-09 16:00;CYQR 091600Z 26019KT 15SM SCT022 BKN280 17/11 A2970 RMK SC3CI1 SLP065

CYQR;2009-07-09 17:00;CYQR 091700Z 28016G24KT 15SM SCT024 BKN100 17/11 A2970 RMK CU3AC2 SLP065

CYQR;2009-07-09 17:44;CYQR 091744Z 28015G21KT 15SM -SHRA BKN030TCU 18/ RMK TCU6

CYQR;2009-07-09 18:00;CYQR 091800Z 29017KT 15SM -SHRA FEW016 BKN032TCU 17/11 A2970 RMK CF1TCU6 SLP063

CYQR;2009-07-09 18:19;CYQR 091819Z 28020KT 15SM VCSH FEW020CB BKN032TCU 20/ RMK CB1TCU6

CYQR;2009-07-09 19:00;CYQR 091900Z 27019G27KT 15SM FEW020CB BKN034TCU 20/12 A2969 RMK CB1TCU6 SLP059

CYQR;2009-07-09 19:14;CYQR 091914Z 28023G28KT 15SM -TSRA BKN034CB RMK CB7

CYQR;2009-07-09 20:00;CYQR 092000Z 28019G26KT 10SM -TSRA BKN034CB 17/13 A2970 RMK CB7 SLP064

CYQR;2009-07-09 21:00;CYQR 092100Z CCA 29018G29KT 12SM -TSRA SCT016CB BKN070 BKN280 17/13 A2972 RERA RMK CB3AC2CI2 SLP071

CYQR;2009-07-09 21:12;CYQR 092112Z 30023G29KT 15SM VCSH FEW016CB BKN057 BKN280 18/ RETS RMK CB2SC3CI2

CYQR;2009-07-09 22:00;CYQR 092200Z 31022G28KT 15SM FEW027TCU BKN280 18/11 A2973 RETS RMK TCU2CI1 CB TOP S SLP076

CYQR;2009-07-09 23:00;CYQR 092300Z 29022G27KT 15SM SCT035TCU SCT079 BKN280 17/11 A2976 RMK TCU3AC1CI1 CB TOP S SLP085

CYQR;2009-07-10 00:00;CYQR 100000Z 30019G26KT 15SM BKN033TCU BKN280 18/11 A2978 RMK TCU5CI2 SLP090

CYQR;2009-07-10 00:03;CYQR 100003Z 30021G27KT 10SM -SHRA BKN033TCU BKN280 15/ RMK TCU5CI2

CYQR;2009-07-10 00:26;CYQR 100026Z 31020G26KT 15SM BKN033TCU BKN280 16/ RMK TCU5CI2

CYQR;2009-07-10 01:00;CYQR 100100Z 31017G24KT 15SM -SHRA FEW027TCU SCT080 BKN280 16/12 A2982 RMK TCU2AC1CI2 CB ASOCTD SW SLP104

CYQR;2009-07-10 02:00;CYQR 100200Z 31018KT 15SM FEW037TCU FEW078 SCT280 SCT350 15/12 A2985 RMK TCU1AC1CI0CI1 TCU SW AND E SLP115

CYQR;2009-07-10 03:00;CYQR 100300Z 32011KT 15SM FEW025TCU FEW078 SCT350 14/11 A2989 RMK TCU1AC1CI1 TCU SW AND SE SLP130

CYQR;2009-07-10 04:00;CYQR 100400Z 31008KT 15SM FEW025 FEW080 FEW340 12/10 A2992 RMK CU1AC1CI0 SLP140

CYQR;2009-07-10 05:00;CYQR 100500Z 32009KT 15SM FEW025 FEW340 12/10 A2994 RMK SC1CI0 SLP147

CYQR;2009-07-10 06:00;CYQR 100600Z 30007KT 15SM FEW032 10/09 A2996 RMK SC1 SLP156

CYQR;2009-07-10 07:00;CYQR 100700Z 02004KT 15SM FEW340 09/08 A2996 RMK CI1 SLP157

CYQR;2009-07-10 08:00;CYQR 100800Z 28008KT 15SM BKN063 10/09 A2999 RMK SC7 SLP164

CYQR;2009-07-10 09:00;CYQR 100900Z 31006KT 15SM FEW024 OVC061 11/10 A3000 RMK SC1SC7 SLP168

CYQR;2009-07-10 09:41;CYQR 100941Z CCA 29006KT 15SM -SHRA BKN014 OVC037 11/ RMK SC7SC1

CYQR;2009-07-10 10:00;CYQR 101000Z 29007KT 12SM -SHRA BKN012 OVC037 11/10 A3000 RMK SC7SC1 SLP168

CYQR;2009-07-10 10:26;CYQR 101026Z 30010KT 10SM -SHRA BKN008 OVC035 11/ RMK SC7SC1

CYQR;2009-07-10 11:00;CYQR 101100Z 35010G15KT 15SM VCSH SCT008 OVC014 10/09 A3002 RMK SC4SC4 TCU EMBD SLP174

CYQR;2009-07-10 11:07;CYQR 101107Z 35012KT 5SM -SHRA BR FEW005 OVC014 10/ RMK SF1SC8

CYQR;2009-07-10 11:17;CYQR 101117Z 35010G16KT 2SM -SHRA BR FEW005 OVC014 10/ RMK SF1SC7

CYQR;2009-07-10 11:39;CYQR 101139Z 34008KT 2SM -SHRA BR BKN005 OVC014 09/ RMK SF6SC2

CYQR;2009-07-10 12:00;CYQR 101200Z 34011G18KT 3SM -SHRA BR BKN006 OVC014 09/08 A3004 RMK SF7SC1 SLP184

CYQR;2009-07-10 12:21;CYQR 101221Z 34015KT 15SM FEW006 OVC015 09/ RMK SF1SC7

CYQR;2009-07-10 13:00;CYQR 101300Z 34014KT 15SM FEW005 BKN025 BKN055 BKN280 09/07 A3006 RMK SF1SC6SC1CI1 SLP191

CYQR;2009-07-10 14:00;CYQR 101400Z 34011KT 15SM FEW005 SCT029 BKN051 BKN084 10/07 A3008 RMK SF1SC3SC3AC1 SLP197

CYQR;2009-07-10 15:00;CYQR 101500Z 33011KT 15SM FEW016 BKN034 OVC056 11/07 A3010 RMK SF1SC4SC3 SLP204

CYQR;2009-07-10 16:00;CYQR 101600Z 33011KT 15SM BKN020 OVC026 11/06 A3011 RMK CU5SC3 SLP209

CYQR;2009-07-10 17:00;CYQR 101700Z 32011KT 15SM SCT023 BKN039 BKN100 11/06 A3012 RMK CU3SC3AC1 SLP212

CYQR;2009-07-10 18:00;CYQR 101800Z 32010KT 15SM BKN024 BKN042 12/06 A3012 RMK CU5SC2 SLP213

CYQR;2009-07-10 19:00;CYQR 101900Z CCA 28012G17KT 15SM BKN037 BKN058 14/05 A3012 RMK CU5SC2 SLP215

CYQR;2009-07-10 20:00;CYQR 102000Z 31012KT 15SM BKN041 14/04 A3012 RMK SC6 SLP215

CYQR;2009-07-10 21:00;CYQR 102100Z 30011KT 15SM BKN047 15/04 A3012 RMK SC6 SLP211

CYQR;2009-07-10 22:00;CYQR 102200Z 30015KT 15SM SCT047 BKN099 16/04 A3011 RMK SC4AC1 SLP209

CYQR;2009-07-10 23:00;CYQR 102300Z 29013KT 15SM SCT054 SCT099 SCT280 17/05 A3011 RMK SC3AC1CI0 SLP207

CYQR;2009-07-11 00:00;CYQR 110000Z 30012G17KT 15SM FEW054 SCT280 16/04 A3011 RMK SC2CI1 SLP208

CYQR;2009-07-11 01:00;CYQR 110100Z 30011KT 15SM FEW056 FEW280 16/04 A3011 RMK SC1CI1 SLP209

CYQR;2009-07-11 02:00;CYQR 110200Z 30007KT 15SM FEW056 FEW280 15/05 A3012 RMK SC1CI0 SLP212

CYQR;2009-07-11 03:00;CYQR 110300Z 24005KT 15SM FEW020 FEW320 11/07 A3013 RMK SC1CI0 SLP217

CYQR;2009-07-11 04:00;CYQR 110400Z 33003KT 15SM FEW020 FEW320 11/06 A3015 RMK SC1CI1 SLP224

CYQR;2009-07-11 05:00;CYQR 110500Z 22004KT 15SM SKC 06/04 A3016 RMK SLP226

CYQR;2009-07-11 06:00;CYQR 110600Z 22006KT 15SM SKC 06/04 A3017 RMK SLP233

CYQR;2009-07-11 07:00;CYQR 110700Z 21007KT 15SM SKC 05/03 A3017 RMK SLP234

CYQR;2009-07-11 08:00;CYQR 110800Z 20004KT 15SM SKC 05/03 A3017 RMK SLP234

CYQR;2009-07-11 09:00;CYQR 110900Z 18004KT 15SM SKC 05/03 A3017 RMK SLP232

CYQR;2009-07-11 10:00;CYQR 111000Z 16005KT 15SM SKC 05/03 A3017 RMK SLP232

CYQR;2009-07-11 11:00;CYQR 111100Z 13006KT 15SM FEW080 FEW350 03/02 A3017 RMK AC1CI0 SLP231

CYQR;2009-07-11 12:00;CYQR 111200Z 13005KT 15SM FEW080 FEW350 05/04 A3017 RMK AC1CI1 SLP231

CYQR;2009-07-11 13:00;CYQR 111300Z 15005KT 15SM FEW050 FEW080 FEW250 09/06 A3016 RMK SC1AC1CI0 SLP229

CYQR;2009-07-11 14:00;CYQR 111400Z 15007KT 15SM FEW050 FEW080 FEW350 12/08 A3016 RMK SC1AC1CI0 SLP229

CYQR;2009-07-11 15:00;CYQR 111500Z 15007KT 15SM FEW080 SCT350 14/10 A3015 RMK AC1CI2 SLP223

CYQR;2009-07-11 16:00;CYQR 111600Z 15009KT 15SM BKN063 BKN080 15/11 A3015 RMK SC5AC2 SLP221

CYQR;2009-07-11 17:00;CYQR 111700Z 15010KT 15SM SCT053 BKN096 BKN300 18/11 A3014 RMK SC4AC2CI1 SLP217

CYQR;2009-07-11 18:00;CYQR 111800Z 17012KT 15SM BKN053 BKN096 18/09 A3012 RMK SC6AC2 SLP212

CYQR;2009-07-11 19:00;CYQR 111900Z 14011G17KT 15SM SCT053 BKN085 20/10 A3009 RMK SC4AC2 SLP203

CYQR;2009-07-11 20:00;CYQR 112000Z 17017G22KT 15SM FEW053 FEW081 FEW120 SCT300 21/09 A3007 RMK CU1AC1AC1CI1 SLP195

CYQR;2009-07-11 21:00;CYQR 112100Z 16012G17KT 15SM FEW053CB BKN079 BKN300 21/10 A3004 RMK CB2AC3CI1 SLP184

CYQR;2009-07-11 22:00;CYQR 112200Z 14007KT 15SM SCT038CB BKN050 BKN083 20/13 A3004 RMK CB4SC2AC1 SLP182

CYQR;2009-07-11 23:00;CYQR 112300Z 15013KT 15SM SCT065CB BKN090 22/13 A3000 RMK CB3AC1 SLP172

CYQR;2009-07-12 00:00;CYQR 120000Z 15010KT 15SM FEW065CB FEW090 SCT300 22/14 A2999 RMK CB1ACC1CI1 SLP166

CYQR;2009-07-12 01:00;CYQR 120100Z 17009KT 15SM FEW049 BKN300 22/14 A3000 RMK SC2CI0 CB EMBD SLP168

CYQR;2009-07-12 02:00;CYQR 120200Z 10012KT 15SM FEW050 FEW300 18/11 A3001 RMK SC1CI1 SLP173

CYQR;2009-07-12 03:00;CYQR 120300Z 09012G17KT 15SM FEW050 FEW300 14/08 A3004 RMK SC1CI1 SLP183

CYQR;2009-07-12 04:00;CYQR 120400Z 08013G19KT 15SM FEW050 FEW300 11/07 A3008 RMK SC1CI1 SLP195

CYQR;2009-07-12 05:00;CYQR 120500Z 08015KT 15SM FEW050 FEW300 11/06 A3010 RMK SC1CI1 SLP203

CYQR;2009-07-12 06:00;CYQR 120600Z 08014G20KT 15SM SKC 10/07 A3012 RMK SLP210

CYQR;2009-07-12 07:00;CYQR 120700Z 08013KT 15SM SKC 10/07 A3013 RMK SLP213

CYQR;2009-07-12 08:00;CYQR 120800Z 07011KT 15SM SKC 10/07 A3014 RMK SLP216

CYQR;2009-07-12 09:00;CYQR 120900Z 07011KT 15SM SKC 09/07 A3015 RMK SLP218

CYQR;2009-07-12 10:00;CYQR 121000Z 08009KT 15SM FEW300 09/07 A3016 RMK CI1 SLP222

CYQR;2009-07-12 11:00;CYQR 121100Z 10004KT 15SM FEW050 FEW300 08/07 A3018 RMK SC1CI0 SLP228

CYQR;2009-07-12 12:00;CYQR 121200Z 04004KT 15SM FEW050 FEW300 08/07 A3019 RMK SC1CI0 SLP234

CYQR;2009-07-12 13:00;CYQR 121300Z 07005KT 15SM BKN033 BKN300 11/08 A3022 RMK SC6CI0 SLP241

CYQR;2009-07-12 14:00;CYQR 121400Z 09007KT 15SM FEW015 FEW033 FEW300 13/09 A3021 RMK CU1SC1CI0 SLP238

CYQR;2009-07-12 15:00;CYQR 121500Z 11008KT 15SM FEW020 FEW300 15/10 A3021 RMK CU1CI0 SLP240

CYQR;2009-07-12 16:00;CYQR 121600Z 09009KT 15SM FEW024 16/10 A3021 RMK CU2 SLP241

CYQR;2009-07-12 17:00;CYQR 121700Z 12008KT 15SM FEW027 FEW300 17/10 A3020 RMK CU1CI0 SLP237

CYQR;2009-07-12 18:00;CYQR 121800Z 12010KT 15SM FEW032 FEW300 18/11 A3020 RMK SC2CI0 SLP237

CYQR;2009-07-12 19:00;CYQR 121900Z 14007KT 15SM BKN034 19/11 A3021 RMK SC7 SLP239

CYQR;2009-07-12 20:00;CYQR 122000Z 14007KT 15SM BKN036 BKN100 19/11 A3019 RMK SC5AC2 SLP235

CYQR;2009-07-12 21:00;CYQR 122100Z 14012KT 15SM BKN036 20/12 A3019 RMK CU7 SLP232

CYQR;2009-07-12 22:00;CYQR 122200Z 14010G15KT 15SM BKN037 BKN090 21/12 A3017 RMK CU6AC1 SLP227

CYQR;2009-07-12 23:00;CYQR 122300Z 15010KT 15SM BKN037 BKN090 21/13 A3016 RMK CU5AC1 SLP222

CYQR;2009-07-13 00:00;CYQR 130000Z 13004KT 15SM FEW037 SCT300 20/12 A3013 RMK CU2CI1 SLP213

CYQR;2009-07-13 01:00;CYQR 130100Z 13010KT 15SM FEW041 BKN300 21/13 A3012 RMK CU1CI1 SLP210

CYQR;2009-07-13 02:00;CYQR 130200Z 12008KT 15SM FEW040 SCT300 20/13 A3012 RMK SC1CI0 SLP208

CYQR;2009-07-13 03:00;CYQR 130300Z 12008KT 15SM FEW044 FEW170 SCT300 18/13 A3011 RMK SC1AC1CC1 SLP203

CYQR;2009-07-13 04:00;CYQR 130400Z 12010KT 15SM FEW045 FEW170 SCT220 BKN300 17/13 A3013 RMK SC1AC1CI2CI2 SLP209

CYQR;2009-07-13 05:00;CYQR 130500Z 13010KT 15SM SCT220 BKN300 15/13 A3012 RMK CI2CI2 SLP206

CYQR;2009-07-13 06:00;CYQR 130600Z 14012KT 15SM FEW110 SCT220 OVC300 15/12 A3012 RMK AC1CI3CI2 SLP205

CYQR;2009-07-13 07:00;CYQR 130700Z 14012G17KT 15SM FEW020 FEW110 SCT220 OVC300 15/12 A3010 RMK SC1AC2CI2CI2 SLP199

CYQR;2009-07-13 08:00;CYQR 130800Z 14012KT 15SM SCT110 BKN220 OVC300 15/12 A3009 RMK AC4CI2CI2 SLP195

CYQR;2009-07-13 09:00;CYQR 130900Z 13012KT 15SM BKN110 OVC220 14/12 A3006 RMK AC6CI2 SLP184

CYQR;2009-07-13 10:00;CYQR 131000Z 14010G15KT 15SM BKN110 OVC220 15/12 A3006 RMK AC7CI1 SLP186

CYQR;2009-07-13 11:00;CYQR 131100Z 13009KT 15SM BKN110 BKN220 14/12 A3005 RMK AC6CI0 SLP181

CYQR;2009-07-13 12:00;CYQR 131200Z 12011KT 15SM FEW020 BKN110 OVC220 14/12 A3003 RMK SC1AC6CI1 SLP174

CYQR;2009-07-13 13:00;CYQR 131300Z 13015G20KT 15SM FEW020 BKN070 BKN110 OVC260 15/12 A3000 RMK SC1AC5AC2CI0 SLP164

CYQR;2009-07-13 14:00;CYQR 131400Z 14013G21KT 15SM BKN070 BKN110 OVC260 15/12 A2999 RMK AC4AC3CI1 SLP161

CYQR;2009-07-13 15:00;CYQR 131500Z 15015KT 15SM FEW040 SCT070 OVC110 16/12 A2998 RMK SC1AC3AC4 SLP157

CYQR;2009-07-13 16:00;CYQR 131600Z 14016G24KT 15SM FEW017 BKN110 OVC150 17/13 A2995 RMK SC1AC6AC2 SLP150

CYQR;2009-07-13 17:00;CYQR 131700Z 14020G26KT 15SM FEW016 BKN035 BKN150 18/14 A2995 RMK CF1SC5AC2 SLP148

CYQR;2009-07-13 18:00;CYQR 131800Z 15020G26KT 15SM SCT016 BKN041 BKN150 19/15 A2992 RMK CU3SC2AC1 SLP136

CYQR;2009-07-13 19:00;CYQR 131900Z 14022G28KT 15SM FEW016 SCT049 BKN150 BKN260 21/16 A2990 RMK CU2SC2AC1CI0 SLP131

CYQR;2009-07-13 20:00;CYQR 132000Z 14021G28KT 15SM SCT017 BKN150 BKN260 22/16 A2988 RMK CU3AC2CI1 SLP123

CYQR;2009-07-13 21:00;CYQR 132100Z 14022G28KT 15SM BKN017 BKN150 21/16 A2986 RMK CU5AC2 SLP117

CYQR;2009-07-13 22:00;CYQR 132200Z 15021G30KT 15SM SCT021 BKN150 BKN260 22/16 A2984 RMK CU3AC2CI1 SLP111

CYQR;2009-07-13 23:00;CYQR 132300Z 13021G28KT 15SM BKN019 BKN150 OVC260 20/15 A2983 RMK CU6AC2CI0 TCU EMBD SLP106

CYQR;2009-07-14 00:00;CYQR 140000Z 14016G26KT 15SM OVC017 20/15 A2980 RMK CU8 TCU EMBD SLP097

CYQR;2009-07-14 01:00;CYQR 140100Z 14017G22KT 15SM OVC017 18/15 A2979 RMK SC8 SLP092

CYQR;2009-07-14 02:00;CYQR 140200Z 13023G28KT 15SM OVC019 18/14 A2977 RMK SC8 SLP087

CYQR;2009-07-14 03:00;CYQR 140300Z 14017G22KT 15SM OVC019 17/14 A2976 RMK SC8 SLP082

CYQR;2009-07-14 04:00;CYQR 140400Z 15018G27KT 15SM OVC017 17/13 A2978 RMK SC8 CB EMBD LTNG DIST SW-W SLP088

CYQR;2009-07-14 04:04;CYQR 140404Z 15019G26KT 12SM -TSRA OVC017CB 17/ RMK CB8 LTNG SW-NW

CYQR;2009-07-14 04:25;CYQR 140425Z 14019G25KT 8SM TSRA BKN014CB OVC038 16/ RMK CB7SC1 LTGCCCG SW-N-NE

CYQR;2009-07-14 05:00;CYQR 140500Z 15016G24KT 8SM -TSRA FEW009 BKN012CB OVC092 15/14 A2974 RERA RMK SF1CB6ACC2 LGTCCCG ALQDS SLP078

CYQR;2009-07-14 05:21;CYQR 140521Z 14017KT 5SM SHRA BR FEW009 OVC017 15/ RETS RMK SF1SC7 CB EMBD

CYQR;2009-07-14 06:00;CYQR 140600Z 15010G15KT 12SM -SHRA FEW010 OVC015 15/14 A2972 RETSRA RMK SC2SC6 SLP068

CYQR;2009-07-14 06:21;CYQR 140621Z 15014KT 15SM BKN009 OVC033 15/ RMK SF6SC2

CYQR;2009-07-14 07:00;CYQR 140700Z 14011KT 15SM OVC007 15/14 A2971 RMK SF8 SLP064

CYQR;2009-07-14 07:32;CYQR 140732Z 14011KT 15SM SCT006 OVC120 15/ RMK SF4AC3

CYQR;2009-07-14 08:00;CYQR 140800Z 14013KT 12SM BKN004 OVC120 14/13 A2967 RMK SF5AC3 SLP053

CYQR;2009-07-14 09:00;CYQR 140900Z 15014G19KT 15SM SCT004 OVC011 15/13 A2964 RMK SF3SC5 SLP042

CYQR;2009-07-14 09:21;CYQR 140921Z 15018KT 15SM BKN005 OVC011 14/ RMK SF6SC2

CYQR;2009-07-14 10:00;CYQR 141000Z 16016KT 15SM OVC004 14/13 A2967 RMK SF8 SLP049

CYQR;2009-07-14 10:39;CYQR 141039Z 17015G20KT 12SM OVC003 14/ RMK SF8

CYQR;2009-07-14 11:00;CYQR 141100Z 16014KT 3SM BR OVC002 14/14 A2967 RMK ST8 SLP049

CYQR;2009-07-14 11:06;CYQR 141106Z 16014KT 1 1/2SM BR OVC002 14/ RMK ST8

CYQR;2009-07-14 12:00;CYQR 141200Z 17010KT 2SM BR BKN002 OVC022 15/14 A2965 RMK ST7SC1 SLP044

CYQR;2009-07-14 12:05;CYQR 141205Z CCA 17008KT 3SM BR BKN003 BKN027 15/ RMK ST5SC1 VIS E 2

CYQR;2009-07-14 12:19;CYQR 141219Z 16008KT 8SM SCT002 SCT027 BKN320 15/ RMK SF3SC1CI1 VIS E 2

CYQR;2009-07-14 12:39;CYQR 141239Z 17009KT 10SM BKN004 BKN030 16/ RMK ST5SC2 VIS NE 1 1/2

CYQR;2009-07-14 12:51;CYQR 141251Z 20009KT 10SM SCT004 SCT030 BKN120 BKN300 16/ RMK SF3SC1AC1CI0 VIS NE 2

CYQR;2009-07-14 13:00;CYQR 141300Z CCA 20009KT 12SM SCT004 SCT030 BKN120 BKN300 16/14 A2962 RMK SF3SC1AC1CI1 VIS NE 2 SLP034

CYQR;2009-07-14 14:00;CYQR 141400Z 21013KT 15SM FEW004 BKN016 OVC030 16/14 A2961 RMK SF1SC6SC2 SLP031

CYQR;2009-07-14 14:32;CYQR 141432Z 22010KT 15SM FEW004 BKN012 OVC030 16/ RMK SF1SC7SC1

CYQR;2009-07-14 15:00;CYQR 141500Z 23011KT 15SM BKN012 OVC030 16/14 A2959 RMK SC7SC1 SLP025

CYQR;2009-07-14 15:18;CYQR 141518Z 23013KT 15SM OVC009 16/ RMK SC8 CIG RAG

CYQR;2009-07-14 16:00;CYQR 141600Z 22010KT 15SM OVC006 17/15 A2958 RMK SC8 CIG RAG SLP021

CYQR;2009-07-14 16:53;CYQR 141653Z CCA 25009KT 2 1/2SM -DZ OVC006 17/ RMK SC8

CYQR;2009-07-14 17:00;CYQR 141700Z 26009KT 1 1/2SM -DZ BR OVC004 17/16 A2958 RMK ST8 CIG RAG SLP022

CYQR;2009-07-14 17:16;CYQR 141716Z 30007KT 1 1/2SM R13/6000FT/D -DZ BR OVC003 17/ RMK SF8

CYQR;2009-07-14 17:20;CYQR 141720Z 34009KT 3SM -DZ BR BKN003 OVC026 17/ RMK SF6SC2

CYQR;2009-07-14 17:31;CYQR 141731Z 33011KT 12SM BKN003 OVC037 18/ RMK SF6SC2

CYQR;2009-07-14 17:36;CYQR 141736Z 34014KT 15SM SCT003 BKN008 BKN035 OVC280 18/ RMK SF3SF2SC2CI0

CYQR;2009-07-14 17:54;CYQR 141754Z 34013KT 15SM FEW003 BKN010 OVC035 18/ RMK SF2SC5SC2 CIG RAG

CYQR;2009-07-14 18:00;CYQR 141800Z 32014KT 15SM FEW003 BKN010 OVC035 18/15 A2958 RMK SF1SC7SC1 CIG RAG SLP021

CYQR;2009-07-14 18:37;CYQR 141837Z 33015G20KT 2 1/2SM -SHRA BR OVC014 16/ RMK SC8

CYQR;2009-07-14 18:46;CYQR 141846Z 33014KT 1 3/4SM -SHRA BR BKN005 OVC012 16/ RMK SC7SC1 CIG RAG

CYQR;2009-07-14 18:52;CYQR 141852Z 33022G30KT 1 1/4SM R13/6000FT/D -SHRA BR OVC004 RMK SC8 CIG RAG

CYQR;2009-07-14 19:00;CYQR 141900Z 33027G32KT 1 1/4SM R13/5500FT/D -SHRA BR OVC004 15/14 A2962 RMK FG2SC6 SLP034

CYQR;2009-07-14 19:17;CYQR 141917Z 33027G34KT 3SM -SHRA BR OVC006 14/ RMK FG1SC7 CIG RAG

CYQR;2009-07-14 20:00;CYQR 142000Z 32029G34KT 3SM -SHRA BR OVC007 13/ A2967 RMK SC8 CIG RAG SLP049

CYQR;2009-07-14 20:04;CYQR 142004Z 33026G33KT 2SM -SHRA BR OVC007 13/ RMK FG1SC7 CIG RAG

CYQR;2009-07-14 20:36;CYQR 142036Z 33029G34KT 3SM -SHRA BR OVC008 12/ RMK SC8

CYQR;2009-07-14 21:00;CYQR 142100Z 33024G32KT 12SM -SHRA BKN008 OVC025 12/ A2972 RMK SC7SC1 SLP073

CYQR;2009-07-14 21:16;CYQR 142116Z 33022G32KT 10SM -SHRA OVC010 12/ RMK SC8

CYQR;2009-07-14 21:22;CYQR 142122Z 32022G31KT 10SM -SHRA OVC007 12/ RMK SC8 CIG RAG

CYQR;2009-07-14 22:00;CYQR 142200Z 33025G32KT 12SM -SHRA OVC009 12/ A2976 RMK SC8 CIG RAG SLP086

CYQR;2009-07-14 22:52;CYQR 142252Z 32022G31KT 15SM BKN011 OVC030 12/ RMK SC7SC1 CIG RAG

CYQR;2009-07-14 22:54;CYQR 142254Z 32022G31KT 15SM BKN011 OVC030 12/ RMK SC7SC1 CIG RAG

CYQR;2009-07-14 23:00;CYQR 142300Z 32020G27KT 12SM -SHRA OVC013 12/ A2979 RMK SC8 VIS NE 3 CIG RAG SLP095

CYQR;2009-07-14 23:22;CYQR 142322Z 32022G27KT 15SM BKN013 OVC030 13/ RMK SC6SC2

CYQR;2009-07-14 23:46;CYQR 142346Z 33021G31KT 12SM -SHRA BKN010 OVC030 12/ RMK SC7SC1

CYQR;2009-07-15 00:00;CYQR 150000Z 33018G26KT 12SM -SHRA BKN010 OVC022 12/ A2982 RMK SC6SC2 SLP108

CYQR;2009-07-15 00:26;CYQR 150026Z 33016G21KT 15SM SCT012 OVC028 13/ RMK SC3SC5

CYQR;2009-07-15 01:00;CYQR 150100Z 33016G22KT 15SM FEW012 OVC024 13/ A2984 RMK SC1SC8 SLP114

CYQR;2009-07-15 02:00;CYQR 150200Z 31019G25KT 15SM OVC026 13/ A2986 RMK SC8 SLP121

CYQR;2009-07-15 03:00;CYQR 150300Z 31018G26KT 15SM OVC027 13/ A2988 RMK SC8 SLP128

CYQR;2009-07-15 03:52;CYQR 150352Z 31022G29KT 15SM -RA OVC018 12/ RMK SC8

CYQR;2009-07-15 04:00;CYQR 150400Z 31023G30KT 15SM -RA OVC018 12/ A2990 RMK SC8 SLP134

CYQR;2009-07-15 04:17;CYQR 150417Z 32019G29KT 15SM FEW010 OVC021 11/ RMK SC1SC8

CYQR;2009-07-15 04:48;CYQR 150448Z 31021G27KT 15SM -RA FEW010 OVC026 11/ RMK SC1SC8

CYQR;2009-07-15 05:00;CYQR 150500Z 31019G28KT 15SM FEW010 BKN026 11/ A2991 RMK SC1SC7 SLP138

CYQR;2009-07-15 05:45;CYQR 150545Z 32019G28KT 12SM -DZ BKN018 OVC037 11/ RMK SC7SC1

CYQR;2009-07-15 06:00;CYQR 150600Z 32015KT 15SM BKN018 BKN037 11/ A2993 RMK SC6SC1 SLP145

CYQR;2009-07-15 06:33;CYQR 150633Z 32017KT 12SM -DZ BKN018 OVC035 11/ RMK SC7SC1

CYQR;2009-07-15 07:00;CYQR 150700Z 31016KT 15SM -DZ OVC016 10/ A2994 RMK SC7 SLP147

CYQR;2009-07-15 08:00;CYQR 150800Z 31015G21KT 15SM FEW012 OVC025 10/ A2994 RMK SC1SC7 SLP149

CYQR;2009-07-15 09:00;CYQR 150900Z 32016G21KT 15SM FEW014 BKN023 OVC041 10/10 A2995 RMK SC1SC6SC2 SLP155

CYQR;2009-07-15 10:00;CYQR 151000Z 31015KT 15SM BKN020 OVC047 10/ A2996 RMK SC6SC2 SLP157

CYQR;2009-07-15 10:29;CYQR 151029Z 31012G17KT 15SM OVC013 10/ RMK SC7

CYQR;2009-07-15 11:00;CYQR 151100Z 30011G20KT 15SM BKN015 09/ A2997 RMK SC6 SLP161

CYQR;2009-07-15 12:00;CYQR 151200Z 31013G19KT 15SM BKN019 09/ A2998 RMK SC7 SLP167

CYQR;2009-07-15 13:00;CYQR 151300Z 31017G22KT 15SM FEW007 BKN015 10/08 A3000 RMK SF1SC6 TCU EMBD SLP173

CYQR;2009-07-15 14:00;CYQR 151400Z 32018KT 15SM BKN013 10/07 A3002 RMK SC7 SLP179

CYQR;2009-07-15 15:00;CYQR 151500Z 32018KT 15SM BKN015 11/06 A3004 RMK SC7 SLP185

CYQR;2009-07-15 16:00;CYQR 151600Z 31016G24KT 15SM BKN021 11/06 A3004 RMK SC7 SLP187

CYQR;2009-07-15 17:00;CYQR 151700Z 32020G25KT 15SM BKN026 14/07 A3004 RMK CU6 SLP187

CYQR;2009-07-15 18:00;CYQR 151800Z 33021KT 15SM BKN030 15/06 A3005 RMK CU6 SLP187

CYQR;2009-07-15 19:00;CYQR 151900Z 32022G30KT 15SM SCT040 15/05 A3005 RMK CU4 SLP188

CYQR;2009-07-15 20:00;CYQR 152000Z 32021G28KT 15SM BKN046 16/05 A3005 RMK CU6 SLP189

CYQR;2009-07-15 21:00;CYQR 152100Z 33019G26KT 15SM BKN048 19/07 A3005 RMK CU5 SLP185

CYQR;2009-07-15 22:00;CYQR 152200Z 32018G28KT 15SM SCT048 17/05 A3006 RMK CU3 SLP188

CYQR;2009-07-15 23:00;CYQR 152300Z 34019G25KT 15SM FEW053 FEW062 17/06 A3007 RMK CU2SC1 SLP192

CYQR;2009-07-16 00:00;CYQR 160000Z 35017KT 15SM FEW045 FEW069 17/06 A3008 RMK CU1AC1 SLP198

CYQR;2009-07-16 01:00;CYQR 160100Z 36014KT 15SM FEW045 FEW070 16/06 A3009 RMK CU1AC1 SLP202

CYQR;2009-07-16 02:00;CYQR 160200Z 01011KT 15SM FEW070 14/06 A3010 RMK AC1 SLP205

CYQR;2009-07-16 03:00;CYQR 160300Z 04007KT 15SM FEW070 FEW280 12/06 A3012 RMK AC1CI0 SLP212

CYQR;2009-07-16 04:00;CYQR 160400Z 05006KT 15SM FEW070 10/06 A3013 RMK AC1 SLP217

CYQR;2009-07-16 05:00;CYQR 160500Z 00000KT 15SM SKC 09/05 A3014 RMK SLP218

CYQR;2009-07-16 06:00;CYQR 160600Z 23002KT 15SM SKC 07/05 A3014 RMK SLP221

CYQR;2009-07-16 07:00;CYQR 160700Z 24005KT 15SM SKC 04/03 A3014 RMK SLP222

CYQR;2009-07-16 08:00;CYQR 160800Z 25002KT 15SM SKC 03/02 A3015 RMK SLP225

CYQR;2009-07-16 09:00;CYQR 160900Z 26004KT 15SM SKC 03/02 A3016 RMK SLP229

CYQR;2009-07-16 10:00;CYQR 161000Z 28003KT 15SM SKC 03/02 A3017 RMK SLP232

CYQR;2009-07-16 11:00;CYQR 161100Z 31002KT 15SM FEW040 03/02 A3018 RMK SC1 SLP234

CYQR;2009-07-16 12:00;CYQR 161200Z 00000KT 15SM FEW050 05/03 A3019 RMK SC1 SLP240

CYQR;2009-07-16 13:00;CYQR 161300Z 31003KT 15SM FEW050 08/06 A3020 RMK SC1 SLP241

CYQR;2009-07-16 14:00;CYQR 161400Z 28004KT 15SM FEW050 FEW280 12/09 A3021 RMK SC1CI0 SLP245

CYQR;2009-07-16 15:00;CYQR 161500Z 30004KT 15SM FEW050 14/07 A3022 RMK SC1 SLP245

CYQR;2009-07-16 16:00;CYQR 161600Z 01003KT 15SM FEW040 FEW280 15/06 A3022 RMK CU1CI0 SLP246

CYQR;2009-07-16 17:00;CYQR 161700Z 34004KT 15SM FEW035 FEW280 16/04 A3022 RMK CF1CI0 SLP246

CYQR;2009-07-16 18:00;CYQR 161800Z 36004KT 15SM FEW050 FEW280 17/05 A3022 RMK CF1CI1 SLP247

CYQR;2009-07-16 19:00;CYQR 161900Z 34008KT 15SM FEW050 FEW280 19/05 A3022 RMK CF1CI1 SLP247

CYQR;2009-07-16 20:00;CYQR 162000Z 33006KT 15SM FEW050 FEW280 18/05 A3021 RMK CF1CI1 SLP245

CYQR;2009-07-16 21:00;CYQR 162100Z 29004KT 15SM FEW054 FEW300 19/05 A3021 RMK CU1CI1 SLP245

CYQR;2009-07-16 22:00;CYQR 162200Z 29004KT 15SM FEW055 FEW300 19/06 A3021 RMK CU1CI1 SLP244

CYQR;2009-07-16 23:00;CYQR 162300Z 30003KT 15SM SCT300 19/06 A3020 RMK CI2 SLP241

CYQR;2009-07-17 00:00;CYQR 170000Z 34006KT 15SM BKN300 19/06 A3019 RMK CI2 SLP236

CYQR;2009-07-17 01:00;CYQR 170100Z 28002KT 15SM BKN300 20/06 A3019 RMK CI2 SLP235

CYQR;2009-07-17 02:00;CYQR 170200Z 00000KT 15SM SCT300 19/07 A3019 RMK CI1 SLP235

CYQR;2009-07-17 03:00;CYQR 170300Z 12002KT 15SM SCT300 15/08 A3019 RMK CI0 SLP233

CYQR;2009-07-17 04:00;CYQR 170400Z 11006KT 15SM FEW300 13/06 A3020 RMK CI1 SLP236

CYQR;2009-07-17 05:00;CYQR 170500Z 12005KT 15SM SKC 10/06 A3020 RMK SLP235

CYQR;2009-07-17 06:00;CYQR 170600Z 15004KT 15SM SKC 08/06 A3020 RMK SLP239

CYQR;2009-07-17 07:00;CYQR 170700Z 13004KT 15SM SKC 07/06 A3020 RMK SLP240

CYQR;2009-07-17 08:00;CYQR 170800Z 18005KT 15SM SKC 06/04 A3021 RMK SLP243

CYQR;2009-07-17 09:00;CYQR 170900Z 12003KT 15SM SKC 06/04 A3021 RMK SLP243

CYQR;2009-07-17 10:00;CYQR 171000Z 12004KT 15SM FEW300 06/04 A3022 RMK CI1 SLP245

CYQR;2009-07-17 11:00;CYQR 171100Z 11005KT 15SM FEW300 05/04 A3023 RMK CI1 SLP250

CYQR;2009-07-17 12:00;CYQR 171200Z 11006KT 15SM FEW300 06/05 A3024 RMK CI1 SLP252

CYQR;2009-07-17 13:00;CYQR 171300Z 11004KT 15SM FEW300 10/07 A3024 RMK CI1 SLP253

CYQR;2009-07-17 14:00;CYQR 171400Z 13005KT 15SM FEW300 13/09 A3024 RMK CI1 SLP252

CYQR;2009-07-17 15:00;CYQR 171500Z 14006KT 15SM FEW140 FEW300 16/09 A3025 RMK AC1CI0 SLP252

CYQR;2009-07-17 16:00;CYQR 171600Z 13006KT 15SM FEW140 SCT300 19/10 A3025 RMK AC1CI0 SLP252

CYQR;2009-07-17 17:00;CYQR 171700Z 18007KT 15SM FEW140 SCT300 20/08 A3024 RMK AC1CI1 SLP249

CYQR;2009-07-17 18:00;CYQR 171800Z 17005KT 15SM FEW140 BKN300 21/10 A3024 RMK AC1CI2 SLP252

CYQR;2009-07-17 19:00;CYQR 171900Z 05003KT 15SM FEW120 BKN300 22/10 A3024 RMK AC2CI1 SLP250

CYQR;2009-07-17 20:00;CYQR 172000Z 21004KT 15SM BKN120 BKN300 22/11 A3023 RMK AC5CI1 SLP246

CYQR;2009-07-17 21:00;CYQR 172100Z 18005KT 15SM FEW060 BKN120 BKN300 23/11 A3022 RMK SC2AC3CI1 SLP243

CYQR;2009-07-17 22:00;CYQR 172200Z 18006KT 15SM FEW055 SCT120 BKN300 23/12 A3020 RMK SC2AC2CI1 SLP238

CYQR;2009-07-17 23:00;CYQR 172300Z 18006KT 15SM FEW120 BKN300 23/09 A3020 RMK AC1CI1 SLP237

CYQR;2009-07-18 00:00;CYQR 180000Z 19006KT 15SM FEW085 BKN300 23/11 A3019 RMK AC1CI2 SLP234

CYQR;2009-07-18 01:00;CYQR 180100Z 17004KT 15SM BKN300 23/11 A3019 RMK CI2 SLP232

CYQR;2009-07-18 02:00;CYQR 180200Z 17004KT 15SM FEW085 BKN300 20/14 A3019 RMK AC1CI2 TR AC SLP233

CYQR;2009-07-18 03:00;CYQR 180300Z 16005KT 15SM BKN300 18/12 A3019 RMK CI2 SLP230

CYQR;2009-07-18 04:00;CYQR 180400Z 15007KT 15SM BKN300 17/10 A3020 RMK CI1 SLP233

CYQR;2009-07-18 05:00;CYQR 180500Z 14006KT 15SM FEW300 14/09 A3019 RMK CI0 SLP231

CYQR;2009-07-18 06:00;CYQR 180600Z 15007KT 15SM FEW300 13/09 A3019 RMK CI0 SLP232

CYQR;2009-07-18 07:00;CYQR 180700Z 15007KT 15SM SKC 12/08 A3019 RMK SLP230

CYQR;2009-07-18 08:00;CYQR 180800Z 16006KT 15SM SKC 12/09 A3019 RMK SLP229

CYQR;2009-07-18 09:00;CYQR 180900Z 13007KT 15SM SKC 11/09 A3018 RMK SLP227

CYQR;2009-07-18 10:00;CYQR 181000Z 12007KT 15SM FEW090 SCT300 10/08 A3019 RMK AC1CI0 SLP228

CYQR;2009-07-18 11:00;CYQR 181100Z 14005KT 15SM FEW089 BKN280 10/08 A3018 RMK AC1CI2 SLP226

CYQR;2009-07-18 12:00;CYQR 181200Z 13006KT 15SM FEW091 BKN140 11/09 A3018 RMK AC1AC3 SLP227

CYQR;2009-07-18 13:00;CYQR 181300Z 13006KT 15SM FEW077 BKN280 13/10 A3017 RMK AC1CI2 SLP224

CYQR;2009-07-18 14:00;CYQR 181400Z 14008KT 15SM FEW100 BKN340 15/11 A3017 RMK AC1CI1 SLP224

CYQR;2009-07-18 15:00;CYQR 181500Z 15007KT 15SM FEW100 BKN300 18/12 A3017 RMK AC1CI0 SLP222

CYQR;2009-07-18 16:00;CYQR 181600Z 16007KT 15SM FEW078 FEW300 BKN350 21/13 A3017 RMK AC1CC1CI1 SLP220

CYQR;2009-07-18 17:00;CYQR 181700Z 17007KT 15SM FEW078 FEW300 BKN350 23/14 A3015 RMK AC1CI1CI0 SLP215

CYQR;2009-07-18 18:00;CYQR 181800Z 18009KT 15SM FEW100 BKN300 25/14 A3014 RMK AC1CI0 SLP210

CYQR;2009-07-18 19:00;CYQR 181900Z 17010G15KT 15SM FEW100 BKN300 26/15 A3012 RMK AC1CI0 SLP204

CYQR;2009-07-18 20:00;CYQR 182000Z 16012G17KT 15SM FEW300 SCT350 27/14 A3010 RMK CI1CI0 SLP198

CYQR;2009-07-18 21:00;CYQR 182100Z 17008G18KT 15SM FEW300 FEW350 27/14 A3009 RMK CI1CI0 SLP193

CYQR;2009-07-18 22:00;CYQR 182200Z 18010G17KT 15SM FEW300 BKN350 27/14 A3007 RMK CI1CI0 SLP187

CYQR;2009-07-18 23:00;CYQR 182300Z 16012G18KT 15SM FEW300 BKN350 27/13 A3006 RMK CI2CI0 SLP183

CYQR;2009-07-19 00:00;CYQR 190000Z 16011KT 15SM BKN300 26/14 A3004 RMK CI2 SLP176

CYQR;2009-07-19 01:00;CYQR 190100Z 15011KT 15SM BKN300 25/14 A3003 RMK CI2 SLP172

CYQR;2009-07-19 02:00;CYQR 190200Z 15012KT 15SM BKN300 23/14 A3001 RMK CI4 SLP166

CYQR;2009-07-19 03:00;CYQR 190300Z 15012KT 15SM SCT240 BKN300 21/14 A3000 RMK CI2CI0 SLP160

CYQR;2009-07-19 04:00;CYQR 190400Z 16012KT 15SM BKN240 19/14 A2999 RMK CI3 SLP158

CYQR;2009-07-19 05:00;CYQR 190500Z 15013KT 15SM SCT240 19/12 A2996 RMK CI2 SLP148

CYQR;2009-07-19 06:00;CYQR 190600Z 15012KT 15SM FEW240 17/12 A2994 RMK CI2 SLP140

CYQR;2009-07-19 07:00;CYQR 190700Z 15012G17KT 15SM FEW240 17/12 A2992 RMK CI1 SLP132

CYQR;2009-07-19 08:00;CYQR 190800Z 15013KT 15SM FEW240 16/12 A2990 RMK CI0 SLP127

CYQR;2009-07-19 09:00;CYQR 190900Z 14015G21KT 15SM FEW240 16/11 A2988 RMK CI1 SLP117

CYQR;2009-07-19 10:00;CYQR 191000Z 15015G20KT 15SM FEW280 15/11 A2984 RMK CI1 SLP106

CYQR;2009-07-19 11:00;CYQR 191100Z 15017G25KT 15SM FEW050 15/11 A2980 RMK SC1 SLP094

CYQR;2009-07-19 12:00;CYQR 191200Z 15016KT 15SM FEW080 15/11 A2979 RMK AC2 SLP086

CYQR;2009-07-19 13:00;CYQR 191300Z 16014G24KT 15SM FEW080 16/12 A2977 RMK AC1 SLP082

CYQR;2009-07-19 14:00;CYQR 191400Z 16015G21KT 15SM FEW080 FEW330 18/12 A2975 RMK AC1CI1 SLP076

CYQR;2009-07-19 15:00;CYQR 191500Z 17014G19KT 15SM FEW100 FEW300 20/13 A2974 RMK AC1CI0 SLP069

CYQR;2009-07-19 16:00;CYQR 191600Z 17012G17KT 15SM FEW300 23/16 A2972 RMK CI0 SLP065

CYQR;2009-07-19 17:00;CYQR 191700Z CCA 20009KT 15SM FEW350 26/16 A2970 RMK CI1 SLP058

CYQR;2009-07-19 18:00;CYQR 191800Z 24010KT 15SM SKC 28/17 A2970 RMK SLP054

CYQR;2009-07-19 19:00;CYQR 191900Z 27010G16KT 15SM SKC 29/16 A2969 RMK SLP053

CYQR;2009-07-19 20:00;CYQR 192000Z 29014G19KT 15SM FEW052 29/15 A2971 RMK CF1 SLP057

CYQR;2009-07-19 21:00;CYQR 192100Z 31016G22KT 15SM FEW044 28/17 A2972 RMK CU1 SLP063

CYQR;2009-07-19 22:00;CYQR 192200Z 34019G24KT 15SM FEW044 28/17 A2973 RMK CU1 SLP066

CYQR;2009-07-19 23:00;CYQR 192300Z 34018G25KT 15SM FEW052 27/14 A2975 RMK CU1 SLP073

CYQR;2009-07-20 00:00;CYQR 200000Z 35018G27KT 15SM FEW054 FEW350 26/13 A2976 RMK CU1CI0 TCU E SLP079

CYQR;2009-07-20 01:00;CYQR 200100Z 34013G20KT 15SM FEW054CB FEW100 FEW350 24/12 A2979 RMK CB1ACC1CI1 CB E SLP089

CYQR;2009-07-20 02:00;CYQR 200200Z 33013KT 15SM FEW054CB FEW100 22/12 A2981 RMK CB1ACC1 CB E SLP093

CYQR;2009-07-20 03:00;CYQR 200300Z 33010KT 15SM FEW100 FEW350 19/09 A2982 RMK AC1CI0 SLP100

CYQR;2009-07-20 04:00;CYQR 200400Z 32007KT 15SM FEW100 FEW350 17/10 A2985 RMK AC1CI0 SLP109

CYQR;2009-07-20 05:00;CYQR 200500Z 28007KT 15SM SKC 13/09 A2985 RMK SLP109

CYQR;2009-07-20 06:00;CYQR 200600Z 31010KT 15SM SKC 12/08 A2986 RMK SLP113

CYQR;2009-07-20 07:00;CYQR 200700Z 30009KT 15SM SKC 12/08 A2987 RMK SLP115

CYQR;2009-07-20 08:00;CYQR 200800Z 29008KT 15SM SKC 10/08 A2987 RMK SLP117

CYQR;2009-07-20 09:00;CYQR 200900Z 28008KT 15SM SKC 10/08 A2989 RMK SLP123

CYQR;2009-07-20 10:00;CYQR 201000Z 26008KT 15SM FEW080 FEW250 10/08 A2989 RMK AC1CI1 SLP124

CYQR;2009-07-20 11:00;CYQR 201100Z 25009KT 15SM FEW080 FEW250 10/08 A2989 RMK AC1CI1 TR AC SLP125

CYQR;2009-07-20 12:00;CYQR 201200Z 26011KT 15SM FEW020 FEW080 FEW250 11/09 A2989 RMK CU1AC1CI1 SLP127

CYQR;2009-07-20 13:00;CYQR 201300Z 27014G19KT 15SM FEW020 FEW080 FEW250 13/10 A2990 RMK SC1AC1CI1 SLP128

CYQR;2009-07-20 14:00;CYQR 201400Z 28014G21KT 15SM BKN030 BKN300 15/11 A2990 RMK SC4CI1 SLP128

CYQR;2009-07-20 15:00;CYQR 201500Z 29016G21KT 15SM SCT020 17/12 A2990 RMK SC3 SLP128

CYQR;2009-07-20 16:00;CYQR 201600Z 29022G27KT 15SM BKN022 18/11 A2990 RMK SC5 CU EMBD SLP128

CYQR;2009-07-20 17:00;CYQR 201700Z 31024G31KT 15SM SCT032 SCT150 BKN350 20/10 A2990 RMK SC3AC1CI1 CU EMBD SLP128

CYQR;2009-07-20 18:00;CYQR 201800Z 29021G29KT 15SM BKN037 BKN300 19/10 A2990 RMK CU6CI0 SLP133

CYQR;2009-07-20 19:00;CYQR 201900Z 30025G32KT 15SM BKN046 BKN300 21/09 A2989 RMK CU6CI1 SLP131

CYQR;2009-07-20 20:00;CYQR 202000Z 30023G28KT 15SM BKN045 BKN300 21/10 A2989 RMK CU6CI1 SLP131

CYQR;2009-07-20 21:00;CYQR 202100Z 30024G30KT 15SM BKN043 BKN140 BKN300 22/11 A2990 RMK CU5AC2CI0 SLP131

CYQR;2009-07-20 22:00;CYQR 202200Z 32018G29KT 15SM -SHRA SCT045 BKN140 BKN300 21/11 A2991 RMK CU4AC1CI1 TCU EMBD SLP135

CYQR;2009-07-20 22:21;CYQR 202221Z 30017G29KT 15SM VCSH SCT039TCU BKN140 BKN300 18/ RMK TCU3AC2CI1

CYQR;2009-07-20 23:00;CYQR 202300Z 31020G25KT 15SM FEW043TCU BKN083 BKN300 21/12 A2991 RMK TCU2AC2CI1 SLP136

CYQR;2009-07-21 00:00;CYQR 210000Z 31018KT 15SM FEW045TCU SCT085 22/10 A2991 RMK TCU2AC2 SLP136

CYQR;2009-07-21 01:00;CYQR 210100Z 30019KT 15SM FEW050 BKN079 21/09 A2992 RMK SC2AC2 CU EMBD SLP139

CYQR;2009-07-21 02:00;CYQR 210200Z 31012KT 15SM FEW050 BKN090 20/09 A2993 RMK SC1AC6 CU EMBD SLP142

CYQR;2009-07-21 03:00;CYQR 210300Z 31008KT 15SM FEW050TCU BKN090 BKN300 17/09 A2994 RMK TCU2AC3CI1 SLP146

CYQR;2009-07-21 04:00;CYQR 210400Z 01011G16KT 15SM SCT049 BKN076 BKN300 17/09 A2997 RMK CU3AC2CI0 SLP155

CYQR;2009-07-21 05:00;CYQR 210500Z 35003KT 15SM SCT064 14/09 A2997 RMK SC2 SLP155

CYQR;2009-07-21 06:00;CYQR 210600Z 24009KT 15SM SCT077 10/08 A2998 RMK AC3 SLP160

CYQR;2009-07-21 07:00;CYQR 210700Z 26007KT 15SM SCT300 08/07 A2997 RMK CI1 SLP159

CYQR;2009-07-21 08:00;CYQR 210800Z 27007KT 15SM FEW300 08/07 A2997 RMK CI0 SLP157

CYQR;2009-07-21 09:00;CYQR 210900Z 28004KT 15SM SKC 07/06 A2997 RMK SLP157

CYQR;2009-07-21 10:00;CYQR 211000Z 29004KT 15SM FEW300 07/06 A2997 RMK CI0 SLP158

CYQR;2009-07-21 11:00;CYQR 211100Z 27004KT 15SM FEW073 FEW300 06/05 A2998 RMK AC1CI0 SLP161

CYQR;2009-07-21 12:00;CYQR 211200Z 27004KT 15SM BKN073 08/07 A2999 RMK AC5 SLP165

CYQR;2009-07-21 13:00;CYQR 211300Z 28007KT 15SM FEW073 11/09 A3000 RMK AC1 SLP167

CYQR;2009-07-21 14:00;CYQR 211400Z 28008KT 15SM FEW077 14/10 A3000 RMK AC1 SLP169

CYQR;2009-07-21 15:00;CYQR 211500Z 31010G15KT 15SM FEW080 17/10 A3000 RMK AC1 SLP166

CYQR;2009-07-21 16:00;CYQR 211600Z 28010KT 15SM SKC 20/11 A2999 RMK SLP163

CYQR;2009-07-21 17:00;CYQR 211700Z 31015KT 15SM FEW050 22/11 A2999 RMK CU1 SLP162

CYQR;2009-07-21 18:00;CYQR 211800Z 32015G22KT 15SM SCT057 24/09 A2998 RMK CU4 SLP159

CYQR;2009-07-21 19:00;CYQR 211900Z 31016G22KT 15SM BKN061 25/08 A2998 RMK CU5 SLP157

CYQR;2009-07-21 20:00;CYQR 212000Z 31014KT 15SM BKN066 25/08 A2997 RMK CU5 SLP155

CYQR;2009-07-21 21:00;CYQR 212100Z 30019G25KT 15SM SCT072 25/08 A2996 RMK CU4 SLP153

CYQR;2009-07-21 22:00;CYQR 212200Z 33015KT 15SM BKN072 BKN094 24/09 A2995 RMK CU6AC1 SLP151

CYQR;2009-07-21 23:00;CYQR 212300Z 32010G25KT 15SM FEW072 25/09 A2994 RMK CU2 SLP148

CYQR;2009-07-22 00:00;CYQR 220000Z 32011KT 15SM VCSH FEW072 23/10 A2994 RMK CU2 SLP146

CYQR;2009-07-22 01:00;CYQR 220100Z 31009KT 15SM FEW073 23/10 A2994 RMK CU2 SLP148

CYQR;2009-07-22 02:00;CYQR 220200Z 29007KT 15SM FEW073 FEW300 19/11 A2994 RMK AC1CI1 SLP148

CYQR;2009-07-22 03:00;CYQR 220300Z 26006KT 15SM FEW073 FEW300 15/11 A2995 RMK AC1CI1 SLP148

CYQR;2009-07-22 04:00;CYQR 220400Z 26006KT 15SM FEW073 FEW300 14/11 A2995 RMK AC1CI1 SLP150

CYQR;2009-07-22 05:00;CYQR 220500Z 24006KT 15SM SKC 11/09 A2996 RMK SLP151

CYQR;2009-07-22 06:00;CYQR 220600Z 25004KT 15SM SKC 10/09 A2996 RMK SLP150

CYQR;2009-07-22 07:00;CYQR 220700Z 26006KT 15SM SKC 11/09 A2995 RMK SLP148

CYQR;2009-07-22 08:00;CYQR 220800Z 27003KT 15SM SKC 10/08 A2995 RMK SLP147

CYQR;2009-07-22 09:00;CYQR 220900Z 27005KT 15SM SKC 10/08 A2995 RMK AURBO SLP147

CYQR;2009-07-22 10:00;CYQR 221000Z 31002KT 15SM SKC 09/07 A2995 RMK SLP147

CYQR;2009-07-22 11:00;CYQR 221100Z 00000KT 15SM FEW080 FEW300 08/07 A2995 RMK AC1CI1 SLP149

CYQR;2009-07-22 12:00;CYQR 221200Z 24002KT 15SM FEW080 FEW300 09/07 A2996 RMK ACC1CI1 SLP154

CYQR;2009-07-22 13:00;CYQR 221300Z 00000KT 15SM FEW080 BKN300 13/09 A2997 RMK AC1CI1 SLP156

CYQR;2009-07-22 14:00;CYQR 221400Z 23002KT 15SM FEW080 BKN300 15/10 A2997 RMK AC2CI1 SLP157

CYQR;2009-07-22 15:00;CYQR 221500Z 18002KT 15SM BKN086 BKN320 18/12 A2997 RMK AC6CI1 SLP155

CYQR;2009-07-22 16:00;CYQR 221600Z 23005KT 15SM BKN028 BKN083 BKN320 19/12 A2997 RMK CU5ACC1CI0 SLP154

CYQR;2009-07-22 17:00;CYQR 221700Z 24004KT 15SM FEW040 FEW083 BKN320 23/12 A2996 RMK CU1AC1CI2 CONTRAILS SLP151

CYQR;2009-07-22 18:00;CYQR 221800Z 24003KT 15SM FEW092 OVC320 24/10 A2995 RMK AC1CI3 CONTRAILS SLP146

CYQR;2009-07-22 19:00;CYQR 221900Z 27004KT 15SM FEW058 BKN270 OVC320 26/12 A2994 RMK CU1CI1CI0 CONTRAILS SLP142

CYQR;2009-07-22 20:00;CYQR 222000Z 27014KT 15SM FEW064 FEW290 FEW350 28/12 A2993 RMK CU1CC1CI0 CONTRAILS SLP139

CYQR;2009-07-22 21:00;CYQR 222100Z 30008G15KT 15SM FEW069 FEW150 SCT350 29/12 A2991 RMK CU2AC1CI1 SLP131

CYQR;2009-07-22 22:00;CYQR 222200Z 30008KT 15SM FEW071 FEW150 BKN350 29/12 A2990 RMK CU2AC1CI1 SLP127

CYQR;2009-07-22 23:00;CYQR 222300Z 24006KT 15SM FEW070 FEW150 BKN350 29/14 A2989 RMK CU1AC1CI1 SLP123

CYQR;2009-07-23 00:00;CYQR 230000Z 24006KT 15SM FEW081 FEW150 BKN350 28/13 A2987 RMK CU1AC1CI2 SLP119

CYQR;2009-07-23 01:00;CYQR 230100Z 21005KT 15SM FEW150 FEW230 BKN350 26/17 A2987 RMK AC1CI2CI1 CONTRAILS SLP117

CYQR;2009-07-23 02:00;CYQR 230200Z 20005KT 15SM FEW080 SCT150 BKN350 23/19 A2986 RMK ACC1AC2CI3 CONTRAILS SLP115

CYQR;2009-07-23 03:00;CYQR 230300Z 18007KT 15SM FEW080 FEW150 BKN350 19/15 A2986 RMK ACC1AC1CI4 SLP116

CYQR;2009-07-23 04:00;CYQR 230400Z 16009KT 15SM FEW080 BKN350 19/14 A2985 RMK AC1CI4 SLP113

CYQR;2009-07-23 05:00;CYQR 230500Z 17008KT 15SM BKN350 18/14 A2984 RMK CI2 SLP109

CYQR;2009-07-23 06:00;CYQR 230600Z 17008KT 15SM SKC 16/13 A2984 RMK SLP104

CYQR;2009-07-23 07:00;CYQR 230700Z 18008KT 15SM SKC 15/12 A2982 RMK SLP098

CYQR;2009-07-23 08:00;CYQR 230800Z 18007KT 15SM SKC 13/11 A2981 RMK SLP095

CYQR;2009-07-23 09:00;CYQR 230900Z 20007KT 15SM SKC 13/11 A2979 RMK SLP089

CYQR;2009-07-23 10:00;CYQR 231000Z 00000KT 15SM FEW300 13/10 A2979 RMK CI1 SLP088

CYQR;2009-07-23 11:00;CYQR 231100Z 00000KT 15SM FEW080 FEW300 12/09 A2979 RMK ACC1CI1 TR ACC SLP087

CYQR;2009-07-23 12:00;CYQR 231200Z 07003KT 15SM FEW080 SCT300 14/10 A2980 RMK ACC1CI1 SLP092

CYQR;2009-07-23 13:00;CYQR 231300Z 18005KT 15SM FEW080 BKN300 14/12 A2980 RMK AC1CI1 SLP091

CYQR;2009-07-23 14:00;CYQR 231400Z 30002KT 15SM SCT080 BKN300 19/14 A2981 RMK AC4CI0 SLP093

CYQR;2009-07-23 15:00;CYQR 231500Z 31006KT 12SM SCT088 BKN120 20/13 A2982 RMK AC3AC2 ACC EMBD -SHRA N SLP098

CYQR;2009-07-23 16:00;CYQR 231600Z 36011G16KT 15SM FEW084 FEW120 SCT300 24/13 A2981 RMK AC2AC1CI0 SLP096

CYQR;2009-07-23 17:00;CYQR 231700Z 35019KT 15SM FEW084 SCT120 BKN300 25/14 A2983 RMK AC2AC2CI0 SLP101

CYQR;2009-07-23 18:00;CYQR 231800Z 01018KT 15SM SCT085 BKN120 25/11 A2984 RMK AC4AC3 SLP107

CYQR;2009-07-23 19:00;CYQR 231900Z 36014G22KT 15SM FEW090 FEW140 BKN300 26/14 A2986 RMK AC1AC1CI1 CC EMBD SLP111

CYQR;2009-07-23 20:00;CYQR 232000Z 34020KT 15SM FEW060 FEW140 BKN300 26/11 A2986 RMK CF1AC1CI2 SLP112

CYQR;2009-07-23 21:00;CYQR 232100Z 34015G21KT 15SM FEW060 FEW140 BKN300 26/10 A2986 RMK CF1AC1CI2 SLP115

CYQR;2009-07-23 22:00;CYQR 232200Z 36017G24KT 15SM FEW060 FEW140 BKN300 25/10 A2987 RMK CF1AC1CI2 SLP116

CYQR;2009-07-23 23:00;CYQR 232300Z 33015KT 15SM FEW060 BKN300 25/10 A2988 RMK CU1CI2 SLP119

CYQR;2009-07-24 00:00;CYQR 240000Z 34014G21KT 15SM FEW064 FEW150 SCT300 25/09 A2988 RMK CU1AC1CI2 SLP119

CYQR;2009-07-24 01:00;CYQR 240100Z 01014G19KT 15SM FEW064 SCT300 24/10 A2988 RMK CU1CI2 SLP119

CYQR;2009-07-24 02:00;CYQR 240200Z 36006KT 15SM FEW300 22/10 A2988 RMK CI1 CC ASOCTD SLP121

CYQR;2009-07-24 03:00;CYQR 240300Z 34005KT 15SM FEW100 FEW300 18/11 A2989 RMK AC1CI0 SLP125

CYQR;2009-07-24 04:00;CYQR 240400Z 32003KT 15SM FEW100 FEW300 17/11 A2990 RMK AC1CI0 SLP128

CYQR;2009-07-24 05:00;CYQR 240500Z 28004KT 15SM SCT300 14/10 A2990 RMK CI1 SLP129

CYQR;2009-07-24 06:00;CYQR 240600Z 28004KT 15SM FEW080 12/09 A2991 RMK AC2 SLP132

CYQR;2009-07-24 07:00;CYQR 240700Z 28007KT 15SM SKC 12/09 A2991 RMK SLP133

CYQR;2009-07-24 08:00;CYQR 240800Z 32003KT 15SM SKC 10/08 A2992 RMK SLP136

CYQR;2009-07-24 09:00;CYQR 240900Z 33003KT 15SM SKC 12/09 A2992 RMK SLP136

CYQR;2009-07-24 10:00;CYQR 241000Z 29004KT 15SM SKC 09/07 A2994 RMK SLP140

CYQR;2009-07-24 11:00;CYQR 241100Z 30006KT 15SM FEW030 FEW100 FEW300 09/07 A2995 RMK SC1AC1CI1 SLP144

CYQR;2009-07-24 12:00;CYQR 241200Z 34005KT 15SM FEW100 FEW300 11/09 A2997 RMK AC1CI1 TR AC SLP153

CYQR;2009-07-24 13:00;CYQR 241300Z 34004KT 15SM FEW100 FEW300 13/11 A2998 RMK AC1CI0 TR AC SLP155

CYQR;2009-07-24 14:00;CYQR 241400Z 33005KT 15SM FEW100 FEW300 17/13 A2999 RMK AC1CI0 SLP158

CYQR;2009-07-24 15:00;CYQR 241500Z 34009KT 15SM FEW035 FEW300 20/11 A2999 RMK CF1CI0 SLP160

CYQR;2009-07-24 16:00;CYQR 241600Z 36010KT 15SM BKN300 23/11 A2999 RMK CI1 SLP160

CYQR;2009-07-24 17:00;CYQR 241700Z 35013KT 15SM BKN300 23/10 A3000 RMK CI1 SLP162

CYQR;2009-07-24 18:00;CYQR 241800Z 34013KT 15SM FEW045 SCT300 24/11 A2999 RMK CF1CI1 SLP160

CYQR;2009-07-24 19:00;CYQR 241900Z 35012G19KT 15SM FEW060 SCT300 26/11 A2999 RMK CU2CI0 SLP159

CYQR;2009-07-24 20:00;CYQR 242000Z 34014G20KT 15SM FEW058 BKN300 25/11 A2999 RMK CU2CI0 SLP160

CYQR;2009-07-24 21:00;CYQR 242100Z 01014KT 15SM FEW058 BKN300 26/10 A2999 RMK CU2CI0 SLP160

CYQR;2009-07-24 22:00;CYQR 242200Z 35015KT 15SM FEW060 26/10 A2999 RMK CU2 SLP158

CYQR;2009-07-24 23:00;CYQR 242300Z 35012G17KT 15SM FEW060 26/11 A2999 RMK CU2 SLP158

CYQR;2009-07-25 00:00;CYQR 250000Z 01013KT 15SM FEW060 26/11 A2998 RMK CU1 SLP156

CYQR;2009-07-25 01:00;CYQR 250100Z 01013KT 15SM SKC 25/10 A2997 RMK SLP154

CYQR;2009-07-25 02:00;CYQR 250200Z 02010KT 15SM SKC 23/11 A2998 RMK SLP155

CYQR;2009-07-25 03:00;CYQR 250300Z 04004KT 15SM SKC 20/11 A2998 RMK SLP155

CYQR;2009-07-25 04:00;CYQR 250400Z 09006KT 15SM SKC 18/11 A3000 RMK SLP160

CYQR;2009-07-25 05:00;CYQR 250500Z 14002KT 15SM SKC 15/11 A3000 RMK SLP162

CYQR;2009-07-25 06:00;CYQR 250600Z 21006KT 15SM SKC 12/11 A3003 RMK SLP172

CYQR;2009-07-25 07:00;CYQR 250700Z 12002KT 15SM SKC 13/11 A3003 RMK SLP173

CYQR;2009-07-25 08:00;CYQR 250800Z 18002KT 15SM SKC 14/11 A3002 RMK SLP170

CYQR;2009-07-25 09:00;CYQR 250900Z 10005KT 15SM SKC 12/10 A3002 RMK SLP168

CYQR;2009-07-25 10:00;CYQR 251000Z 10003KT 15SM SKC 12/11 A3001 RMK SLP167

CYQR;2009-07-25 11:00;CYQR 251100Z 17006KT 15SM SKC 09/08 A3003 RMK SLP171

CYQR;2009-07-25 12:00;CYQR 251200Z 17002KT 15SM FEW280 11/09 A3004 RMK CI1 SLP175

CYQR;2009-07-25 13:00;CYQR 251300Z 16002KT 15SM FEW280 16/12 A3004 RMK CI1 SLP177

CYQR;2009-07-25 14:00;CYQR 251400Z 14004KT 15SM FEW140 18/12 A3004 RMK ACC1 SLP176

CYQR;2009-07-25 15:00;CYQR 251500Z 15005KT 15SM FEW140 21/13 A3004 RMK AC1 ACC ASOCTD SLP172

CYQR;2009-07-25 16:00;CYQR 251600Z 19008KT 15SM FEW140 24/15 A3003 RMK AC2 ACC ASOCTD SLP169

CYQR;2009-07-25 17:00;CYQR 251700Z 20007KT 15SM SCT140 26/14 A3003 RMK AC3 ACC ASOCTD SLP169

CYQR;2009-07-25 18:00;CYQR 251800Z 23007KT 15SM FEW140 27/14 A3002 RMK AC2 SLP169

CYQR;2009-07-25 19:00;CYQR 251900Z 22006KT 15SM FEW140 28/14 A3001 RMK AC1 SLP166

CYQR;2009-07-25 20:00;CYQR 252000Z 23006KT 15SM FEW140 29/14 A3000 RMK AC2 ACC ASOCTD SLP162

CYQR;2009-07-25 21:00;CYQR 252100Z 21004KT 15SM FEW060 FEW120 30/15 A2999 RMK CF1AC2 ACC ASOCTD SLP155

CYQR;2009-07-25 22:00;CYQR 252200Z 16004KT 15SM FEW060 FEW120 31/14 A2997 RMK CU1ACC1 SLP150

CYQR;2009-07-25 23:00;CYQR 252300Z 25004KT 15SM FEW060 FEW120 31/13 A2996 RMK CU1ACC1 SLP147

CYQR;2009-07-26 00:00;CYQR 260000Z 21005KT 15SM FEW060 FEW120 30/15 A2995 RMK CU1ACC1 SLP142

CYQR;2009-07-26 01:00;CYQR 260100Z 36008KT 15SM FEW070 31/12 A2994 RMK CU1 SLP141

CYQR;2009-07-26 02:00;CYQR 260200Z 02009KT 15SM FEW081 29/13 A2995 RMK AC1 CB TOP DIST E SLP144

CYQR;2009-07-26 03:00;CYQR 260300Z CCA 36007KT 15SM FEW080 FEW300 25/15 A2997 RMK AC1CI0 SLP148

CYQR;2009-07-26 04:00;CYQR 260400Z 01005KT 15SM FEW080 23/15 A3000 RMK AC1 SLP156

CYQR;2009-07-26 05:00;CYQR 260500Z 33007KT 15SM FEW080 19/15 A3000 RMK AC1 SLP158

CYQR;2009-07-26 06:00;CYQR 260600Z 33008KT 15SM FEW080 17/14 A3001 RMK AC1 SLP162

CYQR;2009-07-26 07:00;CYQR 260700Z 31009KT 15SM SKC 15/13 A3002 RMK SLP165

CYQR;2009-07-26 08:00;CYQR 260800Z 35009KT 15SM SKC 15/13 A3002 RMK SLP165

CYQR;2009-07-26 09:00;CYQR 260900Z 35006KT 15SM SKC 14/13 A3002 RMK SLP166

CYQR;2009-07-26 10:00;CYQR 261000Z 35005KT 15SM FEW080 FEW300 14/13 A3002 RMK AC1CI0 SLP165

CYQR;2009-07-26 11:00;CYQR 261100Z 31005KT 12SM FEW280 11/10 A3003 RMK CI0 SLP168

CYQR;2009-07-26 11:41;CYQR 261141Z 32003KT 10SM FEW001 FEW220 FEW270 11/ RMK ST1CI0CI0 TR ST SW-W

CYQR;2009-07-26 12:00;CYQR 261200Z 27002KT 12SM FEW001 FEW270 11/10 A3003 RMK ST1CI0 VIS LWR SW-NW SLP171

CYQR;2009-07-26 13:00;CYQR 261300Z 34004KT 15SM FEW050 FEW270 15/14 A3004 RMK SC1CI0 SLP175

CYQR;2009-07-26 14:00;CYQR 261400Z 02006KT 15SM FEW270 20/15 A3005 RMK CI0 SLP177

CYQR;2009-07-26 15:00;CYQR 261500Z CCA 02004KT 15SM FEW120 FEW210 BKN280 23/14 A3006 RMK ACC1CI1CI0 SLP177

CYQR;2009-07-26 16:00;CYQR 261600Z 32007KT 15SM FEW120 FEW280 24/16 A3006 RMK ACC1CI1 SLP178

CYQR;2009-07-26 17:00;CYQR 261700Z 32004KT 15SM FEW097 SCT210 BKN280 25/15 A3006 RMK ACC1CI1CI0 SLP178

CYQR;2009-07-26 18:00;CYQR 261800Z 35009KT 15SM FEW064 FEW140 SCT210 BKN280 26/11 A3006 RMK CF1ACC1CI1CI0 TR CF SLP179

CYQR;2009-07-26 19:00;CYQR 261900Z 36010G18KT 15SM FEW064TCU FEW080 SCT140 BKN280 27/11 A3004 RMK TCU1ACC1AC2CI2 SLP174

CYQR;2009-07-26 20:00;CYQR 262000Z 35013KT 15SM FEW058TCU BKN091 BKN280 28/12 A3005 RMK TCU2ACC3CI2 SLP178

CYQR;2009-07-26 20:52;CYQR 262052Z 36017G28KT 15SM -SHRA SCT058TCU BKN091 BKN210 OVC280 24/ RMK TCU3ACC2CI2CI0

CYQR;2009-07-26 21:00;CYQR 262100Z 35022G27KT 15SM -SHRA SCT058TCU BKN091 OVC210 23/16 A3008 RMK TCU4ACC2CI2 SLP189

CYQR;2009-07-26 22:00;CYQR 262200Z 01009G17KT 15SM -SHRA SCT075 OVC089 19/15 A3007 RMK ACC4AC4 SLP186

CYQR;2009-07-26 22:40;CYQR 262240Z 03003KT 15SM VCSH BKN077 OVC100 20/ RMK ACC5AC3

CYQR;2009-07-26 23:00;CYQR 262300Z 33002KT 15SM FEW046 FEW081 BKN100 OVC290 20/15 A3004 RMK SC1ACC2AC2CI2 SLP178

CYQR;2009-07-27 00:00;CYQR 270000Z 31006KT 15SM SCT072 BKN100 BKN290 20/16 A3004 RMK AC4AC2CI2 SLP182

CYQR;2009-07-27 01:00;CYQR 270100Z 30008KT 15SM SCT075 BKN099 BKN210 BKN300 20/15 A3004 RMK AC3AC2CI1CI0 SLP180

CYQR;2009-07-27 02:00;CYQR 270200Z 29005KT 15SM FEW075 FEW250 BKN300 20/15 A3004 RMK AC1CI1CI0 CONTRAILS SLP179

CYQR;2009-07-27 03:00;CYQR 270300Z 30006KT 15SM FEW036 FEW075 SCT250 BKN300 18/15 A3004 RMK SC2AC1CI1CI0 SLP173

CYQR;2009-07-27 04:00;CYQR 270400Z 30007KT 15SM FEW030 FEW075 BKN300 17/15 A3004 RMK SC2AC1CI0 SLP174

CYQR;2009-07-27 05:00;CYQR 270500Z 31008KT 15SM FEW030 SCT300 16/15 A3005 RMK SC1CI0 SLP177

CYQR;2009-07-27 06:00;CYQR 270600Z 34007KT 15SM BKN052 17/16 A3004 RMK SC7 SLP173

CYQR;2009-07-27 07:00;CYQR 270700Z 33006KT 15SM FEW079 15/15 A3006 RMK AC2 SLP179

CYQR;2009-07-27 08:00;CYQR 270800Z 33007KT 15SM FEW080 14/13 A3008 RMK AC1 SLP184

CYQR;2009-07-27 09:00;CYQR 270900Z 34007KT 15SM SKC 13/11 A3008 RMK SLP192

CYQR;2009-07-27 10:00;CYQR 271000Z 34007KT 15SM FEW030 12/11 A3009 RMK SC1 SLP194

CYQR;2009-07-27 11:00;CYQR 271100Z 34007KT 15SM FEW056 FEW300 11/10 A3009 RMK SC1CI1 SLP196

CYQR;2009-07-27 12:00;CYQR 271200Z 35008KT 15SM FEW055 FEW300 12/11 A3010 RMK SC1CI1 VIS SE-E 6 SLP201

CYQR;2009-07-27 13:00;CYQR 271300Z 34007KT 15SM FEW055 FEW300 14/12 A3011 RMK SC1CI1 SLP204

CYQR;2009-07-27 14:00;CYQR 271400Z 34010KT 15SM FEW055 FEW090 FEW300 16/12 A3012 RMK SC1AC1CI0 CONTRAILS SLP206

CYQR;2009-07-27 15:00;CYQR 271500Z 35015KT 15SM FEW050 BKN300 19/12 A3012 RMK SC1CI2 TCU EMBD SLP204

CYQR;2009-07-27 16:00;CYQR 271600Z 36014G20KT 15SM FEW050 SCT073 BKN300 20/11 A3011 RMK CU2AC1CI2 SLP202

CYQR;2009-07-27 17:00;CYQR 271700Z 36014KT 15SM FEW049 FEW073 BKN300 21/11 A3011 RMK CU2ACC1CI1 TCU ASOCTD CONTRAILS SLP202

CYQR;2009-07-27 18:00;CYQR 271800Z 34014G24KT 15SM SCT046 SCT088 BKN300 23/09 A3010 RMK CU3AC1CI2 TCU ASOCTD SLP196

CYQR;2009-07-27 19:00;CYQR 271900Z 34018G27KT 15SM FEW054 BKN300 23/08 A3009 RMK CU2CI2 TCU ASOCTD CONTRAILS SLP193

CYQR;2009-07-27 20:00;CYQR 272000Z 33018G26KT 15SM FEW058 SCT300 23/08 A3009 RMK CU2CI0 SLP193

CYQR;2009-07-27 21:00;CYQR 272100Z 34020G30KT 15SM FEW060 SCT300 22/07 A3009 RMK CU2CI0 TCU ASOCTD SLP195

CYQR;2009-07-27 22:00;CYQR 272200Z 35019G25KT 15SM FEW064 SCT300 22/06 A3008 RMK CU2CI0 SLP193

CYQR;2009-07-27 23:00;CYQR 272300Z 35017G25KT 15SM FEW064 FEW300 22/07 A3008 RMK CU1CI0 SLP192

CYQR;2009-07-28 00:00;CYQR 280000Z 34015KT 15SM FEW064 22/07 A3007 RMK CU2 TCU ASOCTD SLP190

CYQR;2009-07-28 01:00;CYQR 280100Z 36015KT 15SM FEW060 21/08 A3008 RMK CU1 TCU ASOCTD SLP191

CYQR;2009-07-28 02:00;CYQR 280200Z 36011KT 15SM BKN056 BKN330 20/08 A3008 RMK CU5CI0 TCU ASOCTD SLP191

CYQR;2009-07-28 03:00;CYQR 280300Z 36005KT 15SM BKN054 BKN330 17/09 A3009 RMK CU5CI0 SLP193

CYQR;2009-07-28 04:00;CYQR 280400Z 35005KT 15SM FEW054 FEW320 14/09 A3009 RMK CU2CI1 SLP195

CYQR;2009-07-28 05:00;CYQR 280500Z 36003KT 15SM BKN062 13/09 A3009 RMK SC5 SLP194

CYQR;2009-07-28 06:00;CYQR 280600Z 31005KT 15SM FEW057 11/07 A3009 RMK SC1 SLP196

CYQR;2009-07-28 07:00;CYQR 280700Z 28005KT 15SM FEW050 09/06 A3009 RMK SC1 SLP197

CYQR;2009-07-28 08:00;CYQR 280800Z 30005KT 15SM FEW072 08/06 A3009 RMK AC1 SLP195

CYQR;2009-07-28 09:00;CYQR 280900Z 27003KT 15SM FEW068 07/05 A3008 RMK AC2 SLP195

CYQR;2009-07-28 10:00;CYQR 281000Z 31002KT 15SM FEW070 06/04 A3008 RMK AC1 SLP194

CYQR;2009-07-28 11:00;CYQR 281100Z 28003KT 15SM FEW050 FEW074 BKN120 BKN300 07/05 A3007 RMK CU1AC2AC1CI0 SLP191

CYQR;2009-07-28 12:00;CYQR 281200Z 27003KT 15SM SCT074 BKN120 BKN300 08/06 A3006 RMK AC2AC2CI1 SLP188

CYQR;2009-07-28 13:00;CYQR 281300Z 25003KT 15SM SCT090 BKN120 BKN300 10/08 A3006 RMK AC2AC3CI1 SLP189

CYQR;2009-07-28 14:00;CYQR 281400Z 31004KT 15SM SCT090 BKN120 OVC300 13/09 A3006 RMK AC2AC1CI1 SLP189

CYQR;2009-07-28 15:00;CYQR 281500Z 33007KT 15SM FEW061 OVC120 16/09 A3005 RMK SC2AC6 SLP181

CYQR;2009-07-28 16:00;CYQR 281600Z 30007KT 15SM FEW066 BKN120 OVC300 17/10 A3004 RMK SC2AC2CI2 SLP180

CYQR;2009-07-28 17:00;CYQR 281700Z 33007KT 15SM FEW055 FEW120 OVC300 18/10 A3004 RMK CU1AC1CI2 SLP179

CYQR;2009-07-28 18:00;CYQR 281800Z 30005KT 15SM FEW034 SCT220 OVC300 20/11 A3003 RMK CU2CI2CI2 SLP178

CYQR;2009-07-28 19:00;CYQR 281900Z 34009KT 15SM BKN042 BKN073 OVC300 20/08 A3002 RMK CU5AC2CI1 TCU ASOCTD SLP175

CYQR;2009-07-28 20:00;CYQR 282000Z 33008KT 15SM SCT059 BKN140 OVC300 20/07 A3002 RMK CU3AS2CI2 SLP174

CYQR;2009-07-28 21:00;CYQR 282100Z 33016KT 15SM FEW059 FEW140 OVC300 22/06 A3001 RMK CU1AS2CI5 SLP170

CYQR;2009-07-28 22:00;CYQR 282200Z 01015KT 15SM FEW070 OVC300 22/05 A3000 RMK CU2CI6 SLP168

CYQR;2009-07-28 23:00;CYQR 282300Z 01012G17KT 15SM FEW068 OVC300 21/06 A3000 RMK CU2CI5 SLP167

CYQR;2009-07-29 00:00;CYQR 290000Z 01010KT 15SM FEW065 FEW140 BKN300 21/05 A2999 RMK CU2AC1CI3 TCU ASOCTD SLP164

CYQR;2009-07-29 01:00;CYQR 290100Z 35010G16KT 15SM FEW065 FEW100 SCT300 20/06 A2998 RMK CU1AC1CI1 SLP162

CYQR;2009-07-29 02:00;CYQR 290200Z 35008KT 15SM FEW044TCU FEW065 FEW270 BKN350 17/07 A2999 RMK TCU1AC1CI1CI0 TCU SE + W SLP164

CYQR;2009-07-29 03:00;CYQR 290300Z 36010KT 15SM FEW085 BKN330 16/08 A3000 RMK AC2CI0 SLP166

CYQR;2009-07-29 04:00;CYQR 290400Z 35007KT 15SM FEW085 SCT330 12/08 A3000 RMK AC1CI0 SLP167

CYQR;2009-07-29 05:00;CYQR 290500Z 32007KT 15SM SCT084 11/07 A3000 RMK AC4 SLP166

CYQR;2009-07-29 06:00;CYQR 290600Z 29005KT 15SM FEW072 BKN320 09/07 A3000 RMK AC2CI0 SLP168

CYQR;2009-07-29 07:00;CYQR 290700Z 31005KT 15SM BKN120 09/07 A3001 RMK AC6 SLP170

CYQR;2009-07-29 08:00;CYQR 290800Z 33003KT 15SM SCT071 11/09 A3000 RMK AC3 SLP169

CYQR;2009-07-29 09:00;CYQR 290900Z 32006KT 15SM BKN066 11/09 A2999 RMK AC7 SLP163

CYQR;2009-07-29 09:32;CYQR 290932Z 31005KT 15SM -RA BKN066 11/ RMK AC7 -RA INTMT

CYQR;2009-07-29 10:00;CYQR 291000Z 32006KT 15SM BKN066 11/09 A3000 RMK AC7 SLP164

CYQR;2009-07-29 11:00;CYQR 291100Z 32006KT 15SM BKN079 10/09 A2999 RMK AC6 SLP163

CYQR;2009-07-29 12:00;CYQR 291200Z 29003KT 15SM BKN082 BKN120 10/08 A3000 RMK AC6AC1 SLP168

CYQR;2009-07-29 13:00;CYQR 291300Z 32004KT 15SM BKN076 OVC120 11/09 A3001 RMK AC7AC0 SLP169

CYQR;2009-07-29 14:00;CYQR 291400Z 30003KT 15SM -SHRA OVC054 12/10 A3002 RMK SC8 CVCTV CLD EMBD SLP173

CYQR;2009-07-29 14:28;CYQR 291428Z 32008KT 15SM VCSH BKN048 BKN100 12/ RMK SC6AC1 CVCTV CLD EMBD

CYQR;2009-07-29 15:00;CYQR 291500Z 33008KT 15SM VCSH BKN048 BKN092 13/10 A3002 RMK SC5AC2 CVCTV CLD EMBD SLP175

CYQR;2009-07-29 16:00;CYQR 291600Z 34010KT 15SM FEW018 BKN046 OVC095 15/10 A3002 RMK CU1SC5AC2 SLP175

CYQR;2009-07-29 17:00;CYQR 291700Z 33015KT 15SM SCT021 BKN055 17/10 A3003 RMK CU3SC3 SLP176

CYQR;2009-07-29 18:00;CYQR 291800Z 36015G20KT 15SM BKN028 BKN060 18/09 A3002 RMK CU5SC2 SLP177

CYQR;2009-07-29 18:22;CYQR 291822Z CCA 33012G17KT 15SM -SHRA BKN028 OVC069 17/ RMK CU6AC2

CYQR;2009-07-29 18:51;CYQR 291851Z 33015G20KT 15SM VCSH BKN030 OVC069 17/ RMK CU6AC2 TCU ASOCTD

CYQR;2009-07-29 19:00;CYQR 291900Z 34017KT 15SM VCSH BKN030 BKN069 17/09 A3002 RMK CU6AC1 TCU ASOCTD SLP176

CYQR;2009-07-29 20:00;CYQR 292000Z 35017G24KT 15SM SCT029 BKN048 17/10 A3002 RMK CU4SC3 CVCTV CLD EMBD SLP176

CYQR;2009-07-29 21:00;CYQR 292100Z 34018G25KT 15SM SCT028 BKN041 17/10 A3002 RMK CU4SC3 TCU EMBD SLP175

CYQR;2009-07-29 21:17;CYQR 292117Z 34019KT 15SM -SHRA SCT028 BKN035 19/ RMK CU4SC3 TCU EMBD

CYQR;2009-07-29 22:00;CYQR 292200Z 01017G24KT 15SM VCSH SCT031 BKN050 BKN078 BKN300 18/10 A3002 RMK CU3SC2AC1CI1 TCU ASOCTD SLP175

CYQR;2009-07-29 23:00;CYQR 292300Z 36018G24KT 15SM VCSH SCT031 BKN071 BKN300 18/10 A3002 RMK CU4AC2CI1 TCU ASOCTD SLP175

CYQR;2009-07-30 00:00;CYQR 300000Z 34021KT 15SM SCT029 BKN087 17/11 A3002 RMK CU3AC2 CVCTV CLD EMBD SLP175

CYQR;2009-07-30 01:00;CYQR 300100Z 36014KT 15SM SCT029 SCT062 BKN300 17/10 A3003 RMK CU3SC1CI1 TCU ASOCTD SLP178

CYQR;2009-07-30 02:00;CYQR 300200Z 35014KT 15SM FEW029 BKN058 16/10 A3004 RMK CU2SC4 TCU ASOCTD SLP182

CYQR;2009-07-30 03:00;CYQR 300300Z 35009KT 15SM BKN058 BKN320 15/10 A3004 RMK CU5CI1 SLP184

CYQR;2009-07-30 04:00;CYQR 300400Z 36007KT 15SM BKN055 12/10 A3005 RMK SC3 SLP186

CYQR;2009-07-30 05:00;CYQR 300500Z 33005KT 15SM FEW051 11/09 A3005 RMK SC2 SLP185

CYQR;2009-07-30 06:00;CYQR 300600Z 32006KT 15SM BKN057 11/09 A3005 RMK SC2 SLP186

CYQR;2009-07-30 07:00;CYQR 300700Z 28002KT 15SM BKN057 11/09 A3004 RMK SC6 SLP184

CYQR;2009-07-30 08:00;CYQR 300800Z 29004KT 15SM FEW057 OVC083 11/10 A3004 RMK SC1AC8 SLP183

CYQR;2009-07-30 09:00;CYQR 300900Z 27003KT 15SM OVC075 11/10 A3003 RMK AC8 SLP178

CYQR;2009-07-30 10:00;CYQR 301000Z 31004KT 15SM BKN073 11/10 A3002 RMK AC7 SLP175

CYQR;2009-07-30 11:00;CYQR 301100Z 29002KT 15SM BKN071 BKN320 11/10 A3002 RMK AC4CI0 SLP174

CYQR;2009-07-30 12:00;CYQR 301200Z 28005KT 15SM MIFG FEW062 BKN320 09/08 A3002 RMK SC1CI0 MIFG SE-W AND OVR RWYS CONTRAILS SLP177

CYQR;2009-07-30 13:00;CYQR 301300Z 27003KT 15SM FEW062 FEW320 11/10 A3002 RMK SC1CI0 SLP177

CYQR;2009-07-30 14:00;CYQR 301400Z 29004KT 15SM FEW060 SCT120 BKN260 15/10 A3002 RMK SC2AC2CI0 SLP177

CYQR;2009-07-30 15:00;CYQR 301500Z 25006KT 15SM SCT038 BKN054 BKN120 BKN260 16/10 A3002 RMK CU3SC2AC1CI1 TCU ASOCTD SLP173

CYQR;2009-07-30 16:00;CYQR 301600Z 26006KT 15SM FEW041TCU BKN260 18/10 A3000 RMK TCU1CI0 SLP169

CYQR;2009-07-30 17:00;CYQR 301700Z 26011KT 15SM BKN041 BKN260 19/09 A2999 RMK CU5CI0 TCU ASOCTD SLP163

CYQR;2009-07-30 18:00;CYQR 301800Z 31008KT 15SM FEW043 SCT260 20/07 A2996 RMK CU2CI1 SLP154

CYQR;2009-07-30 19:00;CYQR 301900Z 26014KT 15SM SCT051 BKN260 22/07 A2994 RMK CU3CI1 SLP146

CYQR;2009-07-30 20:00;CYQR 302000Z 26006KT 15SM SCT055 BKN230 BKN280 21/08 A2993 RMK CU3CI1CI2 SLP142

CYQR;2009-07-30 21:00;CYQR 302100Z 26009KT 15SM SCT052 BKN280 22/08 A2991 RMK CU3CI3 SLP133

CYQR;2009-07-30 22:00;CYQR 302200Z 27007KT 15SM FEW058 OVC280 22/07 A2988 RMK CU1CI6 SLP125

CYQR;2009-07-30 23:00;CYQR 302300Z 26005KT 15SM FEW063 SCT210 BKN260 OVC320 22/07 A2986 RMK CU1CC2CI2CI2 SLP119

CYQR;2009-07-31 00:00;CYQR 310000Z 29005KT 15SM FEW063 SCT120 BKN260 22/07 A2985 RMK CU1AC2CI3 ACC ASOCTD SLP114

CYQR;2009-07-31 01:00;CYQR 310100Z 20003KT 15SM FEW120 BKN260 20/10 A2982 RMK AC2CI4 SLP106

CYQR;2009-07-31 02:00;CYQR 310200Z 18006KT 15SM FEW086 FEW120 OVC260 18/11 A2981 RMK AC1AC2CI6 SLP101

CYQR;2009-07-31 03:00;CYQR 310300Z 18006KT 15SM OVC100 16/11 A2980 RMK AC8 SLP097

CYQR;2009-07-31 04:00;CYQR 310400Z 17006KT 15SM SCT070 OVC120 16/10 A2978 RMK AC3AC5 SLP090

CYQR;2009-07-31 04:17;CYQR 310417Z 18006KT 12SM -SHRA BKN050 OVC120 16/ RMK SC5AC3 CVCTV CLD EMBD

CYQR;2009-07-31 05:00;CYQR 310500Z 19007KT 12SM -SHRA OVC050 15/11 A2978 RMK SC8 CVCTV CLD EMBD SLP089

CYQR;2009-07-31 05:31;CYQR 310531Z 34007G15KT 15SM -SHRA OVC050 RMK SC8

CYQR;2009-07-31 06:00;CYQR 310600Z 30006KT 12SM -SHRA OVC050 15/11 A2979 RMK SC8 CVCTV CLD EMBD SLP093

CYQR;2009-07-31 07:00;CYQR 310700Z 07003KT 15SM -SHRA OVC069 14/12 A2977 RMK AC8 CVCTV CLD EMBD SLP085

CYQR;2009-07-31 07:17;CYQR 310717Z 06003KT 15SM OVC069 14/ RMK AC8

CYQR;2009-07-31 08:00;CYQR 310800Z 20004KT 15SM BKN069 OVC120 13/11 A2974 RMK AC6AC2 SLP078

CYQR;2009-07-31 09:00;CYQR 310900Z 34006KT 15SM OVC051 13/12 A2976 RMK SC8 SLP081

CYQR;2009-07-31 09:34;CYQR 310934Z 34006KT 15SM -SHRA BKN019 OVC080 13/ RMK SC6AC2 CVCTV CLD EMBD

CYQR;2009-07-31 10:00;CYQR 311000Z 32009KT 12SM -SHRA BKN026 OVC080 13/12 A2975 RMK SC7AC1 CVCTV CLD EMBD SLP080

CYQR;2009-07-31 11:00;CYQR 311100Z 34016KT 15SM FEW008 BKN024 OVC080 14/12 A2976 RMK SF2SC4AC2 SLP083

CYQR;2009-07-31 11:47;CYQR 311147Z 34013G18KT 15SM -SHRA FEW009 BKN019 BKN060 13/ RMK SF2SC4SC2 CVCTV CLD EMBD

CYQR;2009-07-31 12:00;CYQR 311200Z 35014G19KT 12SM -SHRA SCT008 BKN024 OVC065 13/11 A2979 RMK SF3SC3SC2 CVCTV CLD EMBD SLP091

CYQR;2009-07-31 12:43;CYQR 311243Z 34014G25KT 15SM BKN010 BKN048 12/ RMK SC7SC1 CVCTV CLD EMBD

CYQR;2009-07-31 12:51;CYQR 311251Z 34018G24KT 15SM BKN009 OVC026 12/ RMK SC7SC1 CVCTV CLD EMBD

CYQR;2009-07-31 13:00;CYQR 311300Z 34018G24KT 15SM BKN009 OVC026 12/10 A2980 RMK SC6SC2 CVCTV CLD EMBD SLP095

CYQR;2009-07-31 14:00;CYQR 311400Z 35017KT 15SM OVC005 12/11 A2983 RMK SC8 SLP103

CYQR;2009-07-31 14:01;CYQR 311401Z 35017KT 10SM -DZ OVC006 12/ RMK SC8

CYQR;2009-07-31 14:18;CYQR 311418Z 35019G26KT 2 1/2SM -RA BR OVC006 12/ RMK SC8

CYQR;2009-07-31 14:28;CYQR 311428Z 35017G25KT 15SM OVC006 12/ RMK SC8 VIS NE-SE 21/2

CYQR;2009-07-31 15:00;CYQR 311500Z CCA 35016KT 15SM OVC012 13/11 A2985 RMK SC8 CIG RAG SLP118

CYQR;2009-07-31 16:00;CYQR 311600Z 35021G28KT 15SM BKN014 OVC032 13/10 A2988 RMK SC6SC2 SLP126

CYQR;2009-07-31 17:00;CYQR 311700Z 35021KT 15SM OVC014 14/10 A2990 RMK SC8 SLP134

CYQR;2009-07-31 17:36;CYQR 311736Z 35022G27KT 15SM OVC016 14/ RMK SC8

CYQR;2009-07-31 18:00;CYQR 311800Z 36019G28KT 15SM BKN016 OVC030 14/09 A2993 RMK SC5SC3 CF ASOCTD SLP143

CYQR;2009-07-31 19:00;CYQR 311900Z 01019KT 15SM SCT019 BKN037 15/09 A2994 RMK SC3SC4 CU ASOCTD SLP147

CYQR;2009-07-31 20:00;CYQR 312000Z 35019G25KT 15SM FEW019 SCT031 OVC050 16/08 A2996 RMK CU1SC3SC4 SLP154

CYQR;2009-07-31 21:00;CYQR 312100Z 34019KT 15SM FEW038 BKN060 BKN250 18/08 A2997 RMK CU2SC3CI2 SLP155

CYQR;2009-07-31 22:00;CYQR 312200Z 34015G21KT 15SM FEW042 BKN073 BKN250 18/06 A2997 RMK CU2AC5CI0 SLP157

CYQR;2009-07-31 23:00;CYQR 312300Z 34017KT 15SM FEW049 SCT075 BKN230 BKN300 18/05 A2998 RMK CU2AC2CI1CI0 SLP160

CYQR;2009-08-01 01:00;CYQR 010100Z 35013KT 15SM BKN048 17/08 A2999 RMK SC6 SLP163

CYQR;2009-08-01 02:00;CYQR 010200Z 35008KT 15SM FEW045 BKN070 BKN300 16/07 A2999 RMK SC2AC3CI1 SLP164

CYQR;2009-08-01 03:00;CYQR 010300Z 30003KT 15SM FEW080 BKN300 13/08 A3000 RMK AC2CI2 SLP171

CYQR;2009-08-01 04:00;CYQR 010400Z 30006KT 15SM FEW080 OVC300 10/07 A3001 RMK AC2CI2 SLP174

CYQR;2009-08-01 05:00;CYQR 010500Z 27003KT 15SM BKN060 OVC300 11/08 A3001 RMK SC6CI2 SLP173

CYQR;2009-08-01 06:00;CYQR 010600Z 28003KT 15SM BKN055 BKN075 11/09 A3000 RMK SC5AC2 SLP169

CYQR;2009-08-01 07:00;CYQR 010700Z 27006KT 15SM SCT055 09/07 A2999 RMK SC4 SLP166

CYQR;2009-08-01 08:00;CYQR 010800Z 29004KT 15SM FEW070 07/06 A2998 RMK AC2 SLP163

CYQR;2009-08-01 09:00;CYQR 010900Z 26007KT 15SM SKC 06/04 A2997 RMK SLP161

CYQR;2009-08-01 10:00;CYQR 011000Z 32002KT 15SM FEW050 05/03 A2998 RMK SC2 SLP163

CYQR;2009-08-01 11:00;CYQR 011100Z 27003KT 15SM FEW050 05/04 A2997 RMK SC2 SLP161

CYQR;2009-08-01 12:00;CYQR 011200Z 28003KT 15SM FEW080 FEW300 05/03 A2997 RMK AC1CI0 SLP160

CYQR;2009-08-01 13:00;CYQR 011300Z 00000KT 15SM FEW080 FEW300 06/05 A2995 RMK AC1CI0 SLP156

CYQR;2009-08-01 14:00;CYQR 011400Z 00000KT 15SM FEW080 SCT300 10/07 A2996 RMK AC1CI0 SLP157

CYQR;2009-08-01 15:00;CYQR 011500Z 24002KT 15SM FEW080 BKN300 14/08 A2994 RMK AC1CI2 CONTRAILS SLP149

CYQR;2009-08-01 16:00;CYQR 011600Z 25003KT 15SM BKN300 18/10 A2993 RMK CI1 SLP145

CYQR;2009-08-01 17:00;CYQR 011700Z 29006KT 15SM BKN300 20/09 A2991 RMK CI1 SLP139

CYQR;2009-08-01 18:00;CYQR 011800Z 24004KT 15SM FEW050 BKN300 21/08 A2989 RMK CF1CI2 CC ASOCTD SLP129

CYQR;2009-08-01 19:00;CYQR 011900Z 24008KT 15SM FEW060 FEW089 BKN300 23/08 A2987 RMK CF1AC1CI1 SLP123

CYQR;2009-08-01 20:00;CYQR 012000Z 29006KT 15SM FEW060 FEW090 SCT230 BKN300 24/08 A2985 RMK CF1AC1CI2CI0 SLP115

CYQR;2009-08-01 21:00;CYQR 012100Z 33007G17KT 15SM FEW063 FEW090 SCT230 BKN300 25/09 A2982 RMK CF1AC1CI2CI0 SLP106

CYQR;2009-08-01 22:00;CYQR 012200Z 26008KT 15SM FEW068 FEW090 BKN300 26/09 A2981 RMK CU1AC1CI1 SLP102

CYQR;2009-08-01 23:00;CYQR 012300Z 26008KT 15SM FEW070 FEW130 BKN300 27/10 A2979 RMK CU1AC1CI2 SLP095

CYQR;2009-08-02 00:00;CYQR 020000Z 29009KT 15SM FEW072 FEW160 BKN300 27/09 A2977 RMK CU1AC1CI1 SLP087

CYQR;2009-08-02 01:00;CYQR 020100Z 25005KT 15SM SCT160 BKN300 25/11 A2974 RMK AC3CI0 SLP078

CYQR;2009-08-02 02:00;CYQR 020200Z 19007KT 15SM FEW150 BKN300 20/15 A2972 RMK AC1CI1 SLP072

CYQR;2009-08-02 03:00;CYQR 020300Z 17008KT 15SM FEW140 SCT300 18/13 A2971 RMK AC1CI1 SLP068

CYQR;2009-08-02 04:00;CYQR 020400Z 17009KT 15SM SKC 17/12 A2969 RMK SLP062

CYQR;2009-08-02 05:00;CYQR 020500Z 16009KT 15SM FEW120 17/10 A2967 RMK AC2 SLP055

CYQR;2009-08-02 06:00;CYQR 020600Z 16010KT 15SM FEW090 16/10 A2965 RMK AC2 SLP044

CYQR;2009-08-02 07:00;CYQR 020700Z 14007KT 15SM SCT090 BKN300 15/10 A2964 RMK AC4CI2 SLP039

CYQR;2009-08-02 08:00;CYQR 020800Z 09007KT 15SM BKN120 14/10 A2965 RMK AC7 SLP042

CYQR;2009-08-02 09:00;CYQR 020900Z 34003KT 15SM BKN120 14/10 A2964 RMK AC7 SLP039

CYQR;2009-08-02 10:00;CYQR 021000Z 26005KT 12SM BKN097 12/10 A2963 RMK AC6 SLP035

CYQR;2009-08-02 11:00;CYQR 021100Z 31009KT 15SM BKN097 BKN300 12/10 A2964 RMK AC6CI1 SLP037

CYQR;2009-08-02 12:00;CYQR 021200Z 34010KT 15SM SCT100 OVC300 12/10 A2966 RMK AC3CI1 SLP046

CYQR;2009-08-02 13:00;CYQR 021300Z 35009KT 15SM BKN095 OVC300 13/10 A2969 RMK AC6CI1 SLP054

CYQR;2009-08-02 14:00;CYQR 021400Z 34008KT 15SM FEW093 SCT210 BKN250 OVC300 15/11 A2972 RMK AC1CI2CI2CI1 SLP064

CYQR;2009-08-02 15:00;CYQR 021500Z 35011KT 15SM FEW100 SCT210 BKN300 16/11 A2975 RMK AC1CI2CI1 SLP078

CYQR;2009-08-02 16:00;CYQR 021600Z 34014KT 15SM BKN300 19/11 A2976 RMK CI0 SLP082

CYQR;2009-08-02 17:00;CYQR 021700Z 36013G18KT 15SM FEW044 BKN300 21/11 A2978 RMK CU1CI0 SLP087

CYQR;2009-08-02 18:00;CYQR 021800Z 02013KT 15SM FEW045 BKN300 22/11 A2978 RMK CU1CI0 SLP087

CYQR;2009-08-02 19:00;CYQR 021900Z 01012KT 15SM BKN040 BKN300 22/11 A2979 RMK CU6CI0 SLP088

CYQR;2009-08-02 20:00;CYQR 022000Z 33014KT 15SM SCT044 BKN070 BKN230 OVC300 24/12 A2979 RMK CU4AC2CI1CI0 SLP089

CYQR;2009-08-02 21:00;CYQR 022100Z 34010KT 15SM SCT044 BKN280 23/11 A2978 RMK CU3CI1 SLP087

CYQR;2009-08-02 22:00;CYQR 022200Z 31010G15KT 15SM SCT052 BKN280 24/12 A2978 RMK CU3CI0 TCU ASOCTD SLP087

CYQR;2009-08-02 23:00;CYQR 022300Z 31011KT 15SM FEW052 BKN280 24/12 A2977 RMK CU2CI1 SLP084

CYQR;2009-08-03 00:00;CYQR 030000Z 30010KT 15SM FEW052 OVC280 25/12 A2975 RMK SC1CI2 SLP079

CYQR;2009-08-03 01:00;CYQR 030100Z 26006KT 15SM FEW059 OVC280 24/13 A2974 RMK SC1CI2 SLP076

CYQR;2009-08-03 02:00;CYQR 030200Z 29003KT 15SM FEW070 OVC300 22/13 A2973 RMK AC2CI3 SLP071

CYQR;2009-08-03 03:00;CYQR 030300Z 27005KT 15SM BKN080 OVC300 18/13 A2973 RMK AC6CI2 SLP071

CYQR;2009-08-03 04:00;CYQR 030400Z 24006KT 15SM BKN080 OVC300 16/13 A2972 RMK AC6CI2 SLP069

CYQR;2009-08-03 04:13;CYQR 030413Z 24007KT 12SM -TSRA FEW060 OVC100 RMK SC2AC6 CB EMBD

CYQR;2009-08-03 05:00;CYQR 030500Z 25011G18KT 2 1/2SM -TSRA OVC024 16/14 A2972 RMK SC8 CB EMBD SLP067

CYQR;2009-08-03 05:27;CYQR 030527Z 26011KT 10SM BKN019 OVC120 16/ RETS RMK SC6AC2

CYQR;2009-08-03 05:34;CYQR 030534Z 26012KT 10SM -RA OVC019 RMK SC8 RETS CVCTV CLD EMBD

CYQR;2009-08-03 05:40;CYQR 030540Z 27016KT 2 1/2SM +SHRA OVC012 RETS RMK SC8 CVCTV CLD EMBD

CYQR;2009-08-03 05:47;CYQR 030547Z 29013G27KT 6SM -SHRA OVC012 RETSRA RMK SC8 CVCTV CLD EMBD

CYQR;2009-08-03 06:00;CYQR 030600Z 26010G16KT 10SM -SHRA BKN012 16/14 A2971 RETSRA RMK SC7 CVCTV CLD EMBD SLP062

CYQR;2009-08-03 07:00;CYQR 030700Z 27010KT 10SM SCT012 OVC051 16/14 A2971 RMK SC4SC4 SLP064

CYQR;2009-08-03 08:00;CYQR 030800Z 31012KT 15SM SCT050 16/14 A2973 RMK SC4 SLP068

CYQR;2009-08-03 09:00;CYQR 030900Z 35012KT 15SM BKN008 15/13 A2974 RMK SC7 SLP075

CYQR;2009-08-03 10:00;CYQR 031000Z 35011KT 15SM SCT008 OVC012 14/11 A2978 RMK SC4SC4 SLP086

CYQR;2009-08-03 11:00;CYQR 031100Z 35014G25KT 15SM FEW012 BKN029 OVC300 13/09 A2980 RMK SC1SC4CI0 SLP093

CYQR;2009-08-03 12:00;CYQR 031200Z 34011G16KT 15SM FEW030 BKN300 11/09 A2984 RMK SC2CI2 SLP111

CYQR;2009-08-03 13:00;CYQR 031300Z 34009KT 15SM BKN090 OVC300 11/09 A2987 RMK AC7CI1 -SHRA W SLP118

CYQR;2009-08-03 14:00;CYQR 031400Z 31012KT 15SM BKN090 OVC300 12/09 A2989 RMK AC6CI2 SLP127

CYQR;2009-08-03 15:00;CYQR 031500Z 35013KT 15SM FEW018 SCT090 BKN300 12/08 A2989 RMK SC1AC2CS4 SLP129

CYQR;2009-08-03 16:00;CYQR 031600Z 32015KT 15SM BKN019 BKN090 OVC300 13/08 A2992 RMK SC5AC2CS1 SLP139

CYQR;2009-08-03 17:00;CYQR 031700Z 34018KT 15SM BKN022 BKN090 14/08 A2993 RMK SC6AC2 SLP142

CYQR;2009-08-03 18:00;CYQR 031800Z 34017G25KT 15SM BKN029 14/07 A2995 RMK SC7 SLP149

CYQR;2009-08-03 19:00;CYQR 031900Z 34016KT 15SM OVC029 15/07 A2996 RMK SC8 SLP154

CYQR;2009-08-03 20:00;CYQR 032000Z 36016G21KT 15SM OVC031 15/08 A2998 RMK SC8 SLP158

CYQR;2009-08-03 21:00;CYQR 032100Z 36015G27KT 15SM BKN034 16/07 A2999 RMK SC7 SLP162

CYQR;2009-08-03 22:00;CYQR 032200Z 34011KT 15SM FEW033 BKN037 17/08 A3000 RMK CU1SC6 SLP167

CYQR;2009-08-03 23:00;CYQR 032300Z 34013KT 15SM FEW033 BKN036 17/07 A3001 RMK CU1SC6 SLP169

CYQR;2009-08-04 00:00;CYQR 040000Z 36010KT 15SM FEW033 BKN038 16/08 A3003 RMK CU2SC4 SLP178

CYQR;2009-08-04 01:00;CYQR 040100Z 33007KT 15SM FEW048 16/08 A3003 RMK SC2 CU ASOCTD SLP179

CYQR;2009-08-04 02:00;CYQR 040200Z 34007KT 15SM FEW036 FEW048 FEW300 15/09 A3003 RMK CU1SC1CI0 TR CU + SC SLP178

CYQR;2009-08-04 03:00;CYQR 040300Z 33006KT 15SM FEW035 FEW080 FEW300 11/08 A3005 RMK SC1AC1CI0 SLP188

CYQR;2009-08-04 04:00;CYQR 040400Z 33003KT 15SM FEW300 09/07 A3006 RMK CI1 SLP192

CYQR;2009-08-04 05:00;CYQR 040500Z 34006KT 15SM FEW080 08/06 A3007 RMK AC1 SLP196

CYQR;2009-08-04 06:00;CYQR 040600Z 33005KT 15SM FEW300 07/05 A3008 RMK CI1 SLP201

CYQR;2009-08-04 07:00;CYQR 040700Z 32003KT 15SM BKN300 07/05 A3009 RMK CI2 SLP203

CYQR;2009-08-04 08:00;CYQR 040800Z 36003KT 15SM FEW120 SCT300 06/05 A3009 RMK AC1CI1 SLP202

CYQR;2009-08-04 09:00;CYQR 040900Z 00000KT 15SM OVC120 06/04 A3010 RMK AC8 SLP206

CYQR;2009-08-04 10:00;CYQR 041000Z 29003KT 15SM FEW120 04/03 A3010 RMK AC2 SLP207

CYQR;2009-08-04 11:00;CYQR 041100Z 31002KT 15SM SCT300 04/03 A3010 RMK CI2 SLP207

CYQR;2009-08-04 12:00;CYQR 041200Z 28003KT 15SM BKN120 OVC300 05/04 A3011 RMK AC6CI2 SLP212

CYQR;2009-08-04 13:00;CYQR 041300Z 00000KT 15SM FEW030 BKN120 OVC300 08/06 A3011 RMK SC1AC6CI1 SLP212

CYQR;2009-08-04 14:00;CYQR 041400Z 31003KT 15SM FEW050 SCT095 BKN120 BKN300 09/08 A3012 RMK SC1AC2AC2CI1 SLP215

CYQR;2009-08-04 15:00;CYQR 041500Z 31003KT 15SM FEW050 FEW095 FEW120 BKN300 13/09 A3013 RMK SC1AC2AC1CI0 SLP215

CYQR;2009-08-04 16:00;CYQR 041600Z 28003KT 15SM FEW028 FEW083 SCT120 BKN320 16/09 A3014 RMK CU1AC2AC1CI0 SLP217

CYQR;2009-08-04 17:00;CYQR 041700Z 32003KT 15SM FEW031 BKN100 BKN140 16/09 A3014 RMK CU1AC5AC2 SLP219

CYQR;2009-08-04 18:00;CYQR 041800Z 26006KT 15SM FEW028 BKN100 BKN120 17/09 A3014 RMK CU2AC4AC2 SLP218

CYQR;2009-08-04 19:00;CYQR 041900Z 27007KT 15SM FEW028 SCT079 OVC120 16/09 A3013 RMK CU1AC4AC4 SLP217

CYQR;2009-08-04 20:00;CYQR 042000Z 29007KT 15SM FEW032 FEW079 BKN120 OVC320 17/09 A3014 RMK CU1AC1AC6CI1 SLP218

CYQR;2009-08-04 21:00;CYQR 042100Z 27007KT 15SM FEW032 SCT089 BKN120 OVC320 16/09 A3014 RMK CU1AC3AC3CI1 SLP220

CYQR;2009-08-04 22:00;CYQR 042200Z 32010KT 15SM FEW032 FEW087 BKN120 OVC320 17/09 A3014 RMK CU1AC1AC6CI1 SLP222

CYQR;2009-08-04 23:00;CYQR 042300Z 31008KT 15SM FEW032 BKN087 OVC120 16/09 A3015 RMK CU1AC7AC1 SLP224

CYQR;2009-08-05 00:00;CYQR 050000Z 32008KT 15SM BKN085 BKN110 OVC320 16/09 A3015 RMK AC6AC1CI2 SLP224

CYQR;2009-08-05 01:00;CYQR 050100Z 33007KT 15SM FEW085 OVC320 16/09 A3014 RMK AC2CI2 SLP223

CYQR;2009-08-05 02:00;CYQR 050200Z 36006KT 15SM FEW085 OVC320 15/09 A3015 RMK AC2CI2 SLP226

CYQR;2009-08-05 03:00;CYQR 050300Z 34005KT 15SM FEW085 OVC300 13/10 A3016 RMK AC1CI4 SLP226

CYQR;2009-08-05 04:00;CYQR 050400Z 35005KT 15SM SCT078 BKN300 11/09 A3016 RMK AC4CI2 SLP226

CYQR;2009-08-05 05:00;CYQR 050500Z 33004KT 15SM FEW075 BKN300 09/08 A3017 RMK AC2CI0 SLP228

CYQR;2009-08-05 06:00;CYQR 050600Z 29004KT 15SM FEW075 BKN280 07/06 A3018 RMK AC1CI1 SLP234

CYQR;2009-08-05 07:00;CYQR 050700Z 27006KT 15SM FEW065 SCT280 05/04 A3020 RMK SC2CI0 SLP239

CYQR;2009-08-05 08:00;CYQR 050800Z 28006KT 15SM FEW065 SCT280 06/05 A3019 RMK SC2CI0 SLP238

CYQR;2009-08-05 09:00;CYQR 050900Z 27006KT 15SM FEW065 SCT280 05/04 A3019 RMK SC2CI0 SLP239

CYQR;2009-08-05 10:00;CYQR 051000Z 32003KT 15SM FEW050 BKN260 06/04 A3020 RMK SC2CI0 SLP241

CYQR;2009-08-05 11:00;CYQR 051100Z 30002KT 15SM FEW050 FEW260 05/04 A3021 RMK SC1CI0 SLP244

CYQR;2009-08-05 12:00;CYQR 051200Z 32005KT 15SM FEW260 05/04 A3021 RMK CI0 SLP246

CYQR;2009-08-05 13:00;CYQR 051300Z 00000KT 15SM SCT260 06/05 A3023 RMK CI1 SLP250

CYQR;2009-08-05 14:00;CYQR 051400Z 34005KT 15SM FEW300 11/09 A3023 RMK CI0 SLP253

CYQR;2009-08-05 15:00;CYQR 051500Z 26006KT 15SM SCT300 13/10 A3024 RMK CI1 SLP253

CYQR;2009-08-05 16:00;CYQR 051600Z 30005KT 15SM FEW030 FEW300 15/09 A3024 RMK CU1CI1 SLP253

CYQR;2009-08-05 17:00;CYQR 051700Z 30009KT 15SM FEW038 FEW150 BKN330 17/08 A3025 RMK CU1AC1CI0 SLP254

CYQR;2009-08-05 18:00;CYQR 051800Z 30011G16KT 15SM FEW049 FEW330 19/06 A3024 RMK CU1CI1 SLP252

CYQR;2009-08-05 19:00;CYQR 051900Z 32008KT 15SM FEW050 FEW330 18/05 A3022 RMK CU2CI1 SLP246

CYQR;2009-08-05 20:00;CYQR 052000Z 34013KT 15SM SCT054 20/05 A3022 RMK CU3 SLP245

CYQR;2009-08-05 21:00;CYQR 052100Z 31007KT 15SM FEW058 20/06 A3021 RMK CU2 SLP241

CYQR;2009-08-05 22:00;CYQR 052200Z 01009KT 15SM FEW061 21/05 A3019 RMK CU1 SLP237

CYQR;2009-08-05 23:00;CYQR 052300Z 03003KT 15SM FEW064 FEW330 20/04 A3019 RMK CU1CI0 SLP234

CYQR;2009-08-06 00:00;CYQR 060000Z 34003KT 15SM FEW064 BKN330 21/04 A3018 RMK CU1CI1 SLP233

CYQR;2009-08-06 01:00;CYQR 060100Z 02005KT 15SM FEW062 FEW150 BKN330 20/04 A3017 RMK CU1AC1CI2 SLP229

CYQR;2009-08-06 02:00;CYQR 060200Z 03007KT 15SM FEW330 18/05 A3016 RMK CI1 SLP227

CYQR;2009-08-06 03:00;CYQR 060300Z 09004KT 15SM FEW330 15/05 A3018 RMK CI1 VIA YEG FIC SLP230

CYQR;2009-08-06 04:00;CYQR 060400Z 11006KT 15SM SKC 12/07 A3017 RMK SLP227

CYQR;2009-08-06 05:00;CYQR 060500Z 11007KT 15SM SKC 11/07 A3016 RMK SLP225

CYQR;2009-08-06 06:00;CYQR 060600Z 13005KT 15SM FEW300 11/06 A3017 RMK CI0 SLP225

CYQR;2009-08-06 07:00;CYQR 060700Z 14005KT 15SM FEW300 10/06 A3016 RMK CI0 SLP222

CYQR;2009-08-06 08:00;CYQR 060800Z 12005KT 15SM FEW300 09/06 A3014 RMK CI0 SLP217

CYQR;2009-08-06 09:00;CYQR 060900Z 14007KT 15SM SCT080 10/06 A3013 RMK AC2 SLP211

CYQR;2009-08-06 10:00;CYQR 061000Z 14007KT 15SM BKN069 10/06 A3013 RMK AC5 SLP211

CYQR;2009-08-06 11:00;CYQR 061100Z 15005KT 15SM BKN069 10/06 A3013 RMK AC6 SLP212

CYQR;2009-08-06 12:00;CYQR 061200Z 13007KT 15SM BKN071 BKN280 10/06 A3012 RMK AC6CI1 SLP207

CYQR;2009-08-06 13:00;CYQR 061300Z 12006KT 15SM SCT077 BKN280 12/06 A3010 RMK AC4CI0 SLP201

CYQR;2009-08-06 14:00;CYQR 061400Z 15010KT 15SM FEW081 FEW280 14/07 A3008 RMK AC1CI1 SLP194

CYQR;2009-08-06 15:00;CYQR 061500Z 14010KT 15SM SCT090 SCT140 BKN280 15/08 A3007 RMK AC3AC1CI1 SLP191

CYQR;2009-08-06 16:00;CYQR 061600Z 15011KT 15SM FEW110 FEW150 BKN320 18/09 A3005 RMK AC1AC2CI0 SLP185

CYQR;2009-08-06 17:00;CYQR 061700Z 14012KT 15SM BKN074 BKN150 BKN320 20/09 A3004 RMK AC6AC1CI1 SLP181

CYQR;2009-08-06 18:00;CYQR 061800Z 17015KT 15SM BKN074 BKN150 BKN320 22/08 A3003 RMK AC5AC2CI1 SLP174

CYQR;2009-08-06 19:00;CYQR 061900Z 14011G17KT 15SM BKN120 BKN330 22/09 A3000 RMK AC5CI2 SLP165

CYQR;2009-08-06 20:00;CYQR 062000Z 16016KT 15SM FEW090 FEW140 BKN330 23/09 A2997 RMK AC1AC2CI4 SLP157

CYQR;2009-08-06 21:00;CYQR 062100Z 12015KT 15SM FEW095 BKN140 BKN330 23/08 A2995 RMK AC1AC1CI1 SLP150

CYQR;2009-08-06 22:00;CYQR 062200Z 13013G18KT 15SM SCT070 OVC140 22/09 A2994 RMK AC4AC3 SLP144

CYQR;2009-08-06 23:00;CYQR 062300Z 13012KT 15SM BKN059 OVC097 22/09 A2992 RMK SC5AC3 CVCTV CLD EMBD SLP138

CYQR;2009-08-07 00:00;CYQR 070000Z 16012G18KT 15SM -SHRA BKN042 OVC078 19/12 A2991 RMK SC7AC1 SLP138

CYQR;2009-08-07 01:00;CYQR 070100Z 13012KT 12SM -SHRA SCT037 BKN057 OVC100 16/13 A2989 RMK SC4SC2AC2 CVCTV CLD EMBD VIS W 5 SLP130

CYQR;2009-08-07 02:00;CYQR 070200Z 14015KT 15SM -SHRA FEW044 SCT096 BKN120 OVC300 16/13 A2988 RMK SC2AC2AC3CI1 CVCTV CLD EMBD SLP126

CYQR;2009-08-07 03:00;CYQR 070300Z 13010G15KT 10SM -RA OVC023 15/13 A2989 RMK ST8 SLP128

CYQR;2009-08-07 04:00;CYQR 070400Z 13009KT 10SM -RA OVC023 15/13 A2988 RMK ST8 SLP126

CYQR;2009-08-07 04:29;CYQR 070429Z 13010KT 15SM SCT023 OVC039 15/ RMK ST3SC5

CYQR;2009-08-07 05:00;CYQR 070500Z 12009KT 15SM SCT023 OVC063 15/13 A2988 RMK ST3SC5 SLP126

CYQR;2009-08-07 05:38;CYQR 070538Z 11010KT 6SM -RA OVC018 15/ RMK SC8

CYQR;2009-08-07 06:00;CYQR 070600Z 10010KT 6SM -RA OVC018 15/13 A2985 RMK SC8 SLP113

CYQR;2009-08-07 07:00;CYQR 070700Z 10011KT 10SM -RA OVC018 15/13 A2985 RMK SC8 SLP111

CYQR;2009-08-07 08:00;CYQR 070800Z 10012KT 10SM -RA OVC018 15/13 A2983 RMK SC8 SLP104

CYQR;2009-08-07 09:00;CYQR 070900Z 10010KT 2SM -RA OVC006 15/14 A2981 RMK SC8 SLP096

CYQR;2009-08-07 10:00;CYQR 071000Z 09008KT 5SM -RA BKN003 OVC013 15/14 A2977 RMK ST5SC3 SLP085

CYQR;2009-08-07 10:33;CYQR 071033Z 09006KT 7SM SCT003 OVC010 15/ RMK ST4SC4

CYQR;2009-08-07 10:48;CYQR 071048Z 09005KT 6SM -RA BKN003 OVC009 14/ RMK ST5SC3

CYQR;2009-08-07 11:00;CYQR 071100Z 09006KT 6SM -RA BKN004 OVC007 15/14 A2977 RMK ST5SC3 SLP083

CYQR;2009-08-07 12:00;CYQR 071200Z 11003KT 3SM -RA OVC004 16/15 A2977 RMK ST8 SLP085

CYQR;2009-08-07 12:29;CYQR 071229Z 14004KT 2SM BR OVC003 RMK ST8

CYQR;2009-08-07 13:00;CYQR 071300Z 17002KT 1 1/2SM BR OVC002 16/15 A2976 RMK ST8 SLP084

CYQR;2009-08-07 13:35;CYQR 071335Z 16003KT 1 1/2SM -RA BR OVC002 17/ RMK ST8

CYQR;2009-08-07 14:00;CYQR 071400Z 17003KT 1 3/4SM -RA BR OVC002 17/16 A2976 RMK ST8 SLP083

CYQR;2009-08-07 15:00;CYQR 071500Z 20002KT 2SM -RA BR OVC003 17/16 A2976 RMK ST8 SLP085

CYQR;2009-08-07 15:45;CYQR 071545Z 23002KT 2SM -RA BR OVC004 17/ RMK ST8

CYQR;2009-08-07 16:00;CYQR 071600Z 00000KT 2 1/4SM -RA BR BKN003 OVC010 17/16 A2976 RMK SF7SC1 VIS VRB 2-21/2 SLP085

CYQR;2009-08-07 16:34;CYQR 071634Z 27002KT 5SM -RA BR BKN004 OVC010 17/ RMK SF7SC1 CIG RAG VIS W 3

CYQR;2009-08-07 17:00;CYQR 071700Z 31005KT 3SM -RA BR BKN003 OVC010 17/16 A2977 RMK SF7SC1 CIG RAG VIS VRB 2-4 SLP086

CYQR;2009-08-07 18:00;CYQR 071800Z 34010KT 12SM -RA OVC004 17/16 A2977 RMK SF8 CIG RAG SLP087

CYQR;2009-08-07 18:31;CYQR 071831Z 36008KT 15SM BKN005 OVC025 18/ RMK SF7SC1 CIG RAG

CYQR;2009-08-07 19:00;CYQR 071900Z 34009KT 15SM BKN008 OVC027 18/16 A2977 RMK SC7SC1 SLP088

CYQR;2009-08-07 20:00;CYQR 072000Z 35011KT 15SM BKN008 OVC054 18/15 A2978 RMK SC7SC1 SLP089

CYQR;2009-08-07 20:15;CYQR 072015Z 35009KT 6SM -RA BR BKN006 OVC049 17/ RMK SC7SC1 VIS W 2

CYQR;2009-08-07 21:00;CYQR 072100Z 34012KT 12SM BKN009 OVC051 17/15 A2979 RMK SC7SC1 SLP092

CYQR;2009-08-07 21:33;CYQR 072133Z 34011KT 15SM FEW009 BKN012 OVC051 18/ RMK SF1SC7SC1

CYQR;2009-08-07 22:00;CYQR 072200Z 35011KT 15SM OVC012 17/15 A2979 RMK SC8 SLP095

CYQR;2009-08-07 23:00;CYQR 072300Z 33012KT 15SM OVC013 17/14 A2981 RMK SC8 SLP100

CYQR;2009-08-07 23:40;CYQR 072340Z 35013KT 15SM -RA OVC010 17/ RMK SC8 VIS S 5

CYQR;2009-08-08 00:00;CYQR 080000Z 35013KT 15SM OVC013 17/14 A2981 RMK SC8 SLP102

CYQR;2009-08-08 01:00;CYQR 080100Z 35010KT 15SM BKN013 OVC038 16/14 A2983 RMK SC7SC1 SLP106

CYQR;2009-08-08 02:00;CYQR 080200Z 36012KT 15SM BKN009 OVC035 16/14 A2984 RMK SC7SC1 SLP111

CYQR;2009-08-08 03:00;CYQR 080300Z 01013KT 15SM OVC011 15/13 A2987 RMK SC8 SLP122

CYQR;2009-08-08 04:00;CYQR 080400Z 36011KT 15SM BKN014 OVC033 15/13 A2989 RMK SC6SC2 SLP128

CYQR;2009-08-08 05:00;CYQR 080500Z 36008KT 15SM BKN013 OVC033 15/13 A2990 RMK SC6SC2 SLP131

CYQR;2009-08-08 06:00;CYQR 080600Z 35009KT 15SM OVC012 14/13 A2991 RMK SC8 SLP135

CYQR;2009-08-08 07:00;CYQR 080700Z 35010KT 15SM OVC011 14/12 A2993 RMK SC8 SLP142

CYQR;2009-08-08 08:00;CYQR 080800Z 34008KT 8SM OVC002 13/12 A2992 RMK SC8 SLP140

CYQR;2009-08-08 09:00;CYQR 080900Z 36009KT 15SM BKN004 12/11 A2992 RMK SC5 SLP140

CYQR;2009-08-08 10:00;CYQR 081000Z 36005KT 15SM FEW004 BKN260 12/11 A2993 RMK SC1CI0 SLP142

CYQR;2009-08-08 11:00;CYQR 081100Z 32006KT 15SM FEW004 BKN260 10/09 A2992 RMK SC1CI1 SLP140

CYQR;2009-08-08 11:14;CYQR 081114Z 34008KT 2SM BR FEW004 BKN260 10/ RMK SC1CI1

CYQR;2009-08-08 11:21;CYQR 081121Z 34007KT 1SM R13/5500FT/D BR FEW003 BKN260 10/ RMK SC2CI0 FG BANK INVDG FM NW VIS SE 10

CYQR;2009-08-08 11:51;CYQR 081151Z 33005KT 6SM BR FEW003 BKN260 10/ RMK SC1CI1 VIS NW 2

CYQR;2009-08-08 12:00;CYQR 081200Z 33006KT 4SM BR FEW001 BKN260 10/10 A2994 RMK SC2CI0 VIS NW 1/2 SLP148

CYQR;2009-08-08 12:02;CYQR 081202Z 32006KT 1/2SM R13/2600FT/N FG BKN260 11/ RMK FG4CI1 VIS E 4

CYQR;2009-08-08 12:06;CYQR 081206Z 33006KT 1/4SM R13/1800FT/N FG VV001 11/ RMK FG8 VIS E 2 R13/1800/N

CYQR;2009-08-08 12:12;CYQR 081212Z 32007KT 1/8SM R13/1600FT/N FG VV001 11/ RMK FG8 R13/1600/N

CYQR;2009-08-08 12:32;CYQR 081232Z 33007KT 1/4SM R13/2400FT/N FG VV001 11/ RMK FG8 R13/2400/N

CYQR;2009-08-08 13:00;CYQR 081300Z 33007KT 1/4SM R13/1400V2400FT/U FG VV001 11/11 A2996 RMK FG8 SLP154

CYQR;2009-08-08 13:15;CYQR 081315Z 33007KT 3/8SM R13/2200FT/N FG VV001 12/ RMK FG8

CYQR;2009-08-08 13:27;CYQR 081327Z 32007KT 1/2SM R13/2600V4000FT/U FG VV001 12/ RMK FG8

CYQR;2009-08-08 13:29;CYQR 081329Z 34009KT 3/4SM R13/2800V5000FT/U BR VV001 12/ RMK FG8

CYQR;2009-08-08 13:40;CYQR 081340Z 33009KT 3SM BR BKN001 12/ RMK ST6

CYQR;2009-08-08 14:00;CYQR 081400Z 33007KT 12SM FEW002 BKN077 13/12 A2996 RMK SF1AC5 SLP154

CYQR;2009-08-08 15:00;CYQR 081500Z 33007KT 15SM FEW008 BKN067 15/13 A2997 RMK SF1AC6 SLP156

CYQR;2009-08-08 16:00;CYQR 081600Z 33005KT 15SM FEW012 BKN047 16/13 A2997 RMK SF1SC6 SLP158

CYQR;2009-08-08 17:00;CYQR 081700Z 12003KT 15SM BKN017 OVC049 16/12 A2999 RMK SC6SC2 SLP162

CYQR;2009-08-08 17:02;CYQR 081702Z 11007KT 15SM -SHRA BKN017 OVC046 16/ RMK SC6SC2 CU ASOCTD

CYQR;2009-08-08 17:40;CYQR 081740Z 05005KT 15SM FEW017 SCT037 BKN100 OVC300 17/ RMK SC1SC2AC2CI1

CYQR;2009-08-08 18:00;CYQR 081800Z 04004KT 15SM FEW017 BKN050 BKN100 BKN320 18/13 A2996 RMK SC1CU3AC2CI1 SLP153

CYQR;2009-08-08 19:00;CYQR 081900Z 05006KT 15SM FEW028 BKN054 BKN097 BKN320 20/12 A2994 RMK CU2SC3AC2CI0 SLP147

CYQR;2009-08-08 20:00;CYQR 082000Z 05008KT 15SM FEW033 BKN054 BKN098 BKN320 20/11 A2994 RMK CU2SC3AC1CI1 SLP144

CYQR;2009-08-08 21:00;CYQR 082100Z 09008KT 15SM SCT040 BKN054 BKN100 20/10 A2994 RMK CU3SC2AC2 SLP146

CYQR;2009-08-08 22:00;CYQR 082200Z 03006KT 15SM SCT044 BKN067 BKN090 21/10 A2994 RMK SC3AC3AC1 CVCTV CLD EMBD SLP145

CYQR;2009-08-08 23:00;CYQR 082300Z 03006KT 15SM SCT046 BKN090 OVC160 21/10 A2993 RMK SC3AC3AC1 CVCTV CLD EMBD SLP142

CYQR;2009-08-09 00:00;CYQR 090000Z 36006KT 15SM BKN050 BKN077 BKN160 21/10 A2993 RMK SC5AC2AC1 SLP141

CYQR;2009-08-09 01:00;CYQR 090100Z 03003KT 15SM BKN060 20/11 A2994 RMK SC7 SLP144

CYQR;2009-08-09 02:00;CYQR 090200Z 28004KT 15SM BKN071 18/14 A2994 RMK AC7 SLP146

CYQR;2009-08-09 03:00;CYQR 090300Z 29003KT 15SM BKN080 17/14 A2995 RMK AC6 SLP150

CYQR;2009-08-09 04:00;CYQR 090400Z 28005KT 15SM BKN097 OVC120 15/13 A2996 RMK AC5AC3 SLP152

CYQR;2009-08-09 05:00;CYQR 090500Z 30003KT 15SM SCT120 14/12 A2996 RMK AC3 SLP153

CYQR;2009-08-09 06:00;CYQR 090600Z 30002KT 15SM FEW120 13/12 A2996 RMK AC1 SLP154

CYQR;2009-08-09 07:00;CYQR 090700Z 27005KT 15SM BKN048 11/10 A2997 RMK SC6 SLP157

CYQR;2009-08-09 08:00;CYQR 090800Z 29006KT 15SM FEW048 11/10 A2997 RMK SC2 SLP155

CYQR;2009-08-09 09:00;CYQR 090900Z 35003KT 15SM FEW030 10/09 A2997 RMK SC1 SLP156

CYQR;2009-08-09 10:00;CYQR 091000Z 02002KT 12SM SKC 10/09 A2997 RMK SLP157

CYQR;2009-08-09 11:00;CYQR 091100Z 03003KT 12SM FEW040 09/08 A2998 RMK SC1 SLP161

CYQR;2009-08-09 12:00;CYQR 091200Z 00000KT 10SM BCFG FEW040 07/07 A2999 RMK SC1 SLP167

CYQR;2009-08-09 12:17;CYQR 091217Z 26003KT 2 1/2SM R13/1600V2800FT/N BR SKC 07/ RMK FG2

CYQR;2009-08-09 12:19;CYQR 091219Z 26007KT 1SM R13/2800FT/N BR SKC 07/ RMK FG3

CYQR;2009-08-09 12:29;CYQR 091229Z 28005KT 2SM R13/2800FT/N BR SKC 08/ RMK FG2

CYQR;2009-08-09 12:41;CYQR 091241Z 28004KT 3SM BR SKC 09/ RMK FG1 VIS S-W 2

CYQR;2009-08-09 13:00;CYQR 091300Z 00000KT 6SM BR FEW050 10/10 A3000 RMK SC1 SLP168

CYQR;2009-08-09 14:00;CYQR 091400Z 23005KT 10SM FEW050 13/12 A2999 RMK SC1 SLP167

CYQR;2009-08-09 15:00;CYQR 091500Z 21003KT 15SM SKC 17/13 A2999 RMK SLP161

CYQR;2009-08-09 16:00;CYQR 091600Z 23003KT 15SM FEW030 19/12 A2999 RMK CU1 SLP163

CYQR;2009-08-09 17:00;CYQR 091700Z 26003KT 15SM FEW040 FEW350 21/12 A3000 RMK CU1CI1 SLP164

CYQR;2009-08-09 18:00;CYQR 091800Z 17003KT 15SM FEW044 FEW350 22/12 A2999 RMK CU1CI0 SLP162

CYQR;2009-08-09 19:00;CYQR 091900Z 27004KT 15SM FEW045 FEW350 23/12 A2998 RMK CU2CI0 SLP158

CYQR;2009-08-09 20:00;CYQR 092000Z 24009KT 15SM SCT048 SCT350 25/12 A2998 RMK CU3CI0 SLP156

CYQR;2009-08-09 21:00;CYQR 092100Z 18008KT 15SM FEW052 FEW350 24/12 A2997 RMK CU2CI1 SLP154

CYQR;2009-08-09 22:00;CYQR 092200Z 25007KT 15SM FEW052 FEW350 24/12 A2995 RMK CU2CI1 SLP149

CYQR;2009-08-09 23:00;CYQR 092300Z 20004KT 15SM FEW052 FEW350 24/12 A2994 RMK CU2CI0 SLP146

CYQR;2009-08-10 00:00;CYQR 100000Z 22003KT 15SM FEW052 FEW350 24/12 A2993 RMK CU1CI0 SLP143

CYQR;2009-08-10 01:00;CYQR 100100Z 18006KT 15SM FEW036 FEW320 FEW350 22/13 A2993 RMK CU1CI1CI0 SLP143

CYQR;2009-08-10 02:00;CYQR 100200Z 16006KT 15SM FEW035 FEW320 20/14 A2993 RMK SC1CI1 SLP142

CYQR;2009-08-10 03:00;CYQR 100300Z 15006KT 15SM SCT300 18/13 A2994 RMK CI1 SLP143

CYQR;2009-08-10 04:00;CYQR 100400Z 16007KT 15SM SKC 17/13 A2994 RMK SLP144

CYQR;2009-08-10 05:00;CYQR 100500Z 17007KT 15SM FEW300 15/12 A2995 RMK CI0 SLP147

CYQR;2009-08-10 06:00;CYQR 100600Z 17007KT 15SM SKC 13/11 A2995 RMK SLP147

CYQR;2009-08-10 07:00;CYQR 100700Z 18006KT 15SM SKC 13/11 A2995 RMK SLP147

CYQR;2009-08-10 08:00;CYQR 100800Z 19007KT 15SM FEW030 11/10 A2995 RMK SC1 SLP147

CYQR;2009-08-10 09:00;CYQR 100900Z 16005KT 15SM FEW080 12/10 A2995 RMK AC1 SLP147

CYQR;2009-08-10 10:00;CYQR 101000Z 14004KT 15SM SKC 11/10 A2995 RMK SLP146

CYQR;2009-08-10 11:00;CYQR 101100Z 12003KT 15SM FEW080 11/09 A2995 RMK AC1 SLP147

CYQR;2009-08-10 12:00;CYQR 101200Z 14007KT 15SM FEW080 FEW300 10/09 A2995 RMK AC1CI0 SLP148

CYQR;2009-08-10 13:00;CYQR 101300Z 16005KT 15SM FEW078 12/10 A2995 RMK AC1 SLP149

CYQR;2009-08-10 14:00;CYQR 101400Z 17004KT 15SM FEW080 15/11 A2995 RMK AC1 SLP149

CYQR;2009-08-10 15:00;CYQR 101500Z 19006KT 15SM SKC 18/13 A2996 RMK SLP148

CYQR;2009-08-10 16:00;CYQR 101600Z 21005KT 15SM SKC 21/13 A2995 RMK SLP147

CYQR;2009-08-10 17:00;CYQR 101700Z 20003KT 15SM SKC 24/14 A2995 RMK SLP147

CYQR;2009-08-10 18:00;CYQR 101800Z 21006KT 15SM FEW350 26/14 A2995 RMK CI0 CONTRAILS SLP144

CYQR;2009-08-10 19:00;CYQR 101900Z 23008KT 15SM FEW060 BKN350 27/13 A2994 RMK CF1CI0 SLP142

CYQR;2009-08-10 20:00;CYQR 102000Z 23005KT 12SM FEW065 BKN350 28/12 A2993 RMK CF1CI0 HZ SLP138

CYQR;2009-08-10 21:00;CYQR 102100Z 27009KT 12SM FEW078 BKN350 29/10 A2992 RMK CF1CI0 HZ SLP132

CYQR;2009-08-10 22:00;CYQR 102200Z 25008KT 12SM FEW080 SCT350 30/11 A2991 RMK CU1CI0 HZ SLP129

CYQR;2009-08-10 23:00;CYQR 102300Z 24006KT 12SM FEW080 SCT350 30/11 A2990 RMK CU1CI0 HZ SLP127

CYQR;2009-08-11 00:00;CYQR 110000Z 22009KT 12SM FEW080 SCT350 29/13 A2989 RMK CF1CI1 SLP125

CYQR;2009-08-11 01:00;CYQR 110100Z 21005KT 12SM FEW080 OVC350 26/16 A2989 RMK AC1CI3 HZ SLP122

CYQR;2009-08-11 02:00;CYQR 110200Z 19007KT 10SM BKN350 22/16 A2988 RMK CI5 HZ SLP120

CYQR;2009-08-11 03:00;CYQR 110300Z 18008KT 10SM BKN320 20/15 A2988 RMK CI3 HZ SLP122

CYQR;2009-08-11 04:00;CYQR 110400Z 17009KT 10SM SCT320 18/13 A2989 RMK CI2 HZ SLP123

CYQR;2009-08-11 05:00;CYQR 110500Z 17008KT 10SM FEW300 17/12 A2988 RMK CI1 HZ SLP121

CYQR;2009-08-11 06:00;CYQR 110600Z 18009KT 12SM FEW140 16/12 A2987 RMK AC2 SLP116

CYQR;2009-08-11 07:00;CYQR 110700Z 17008KT 12SM SKC 14/11 A2987 RMK SLP116

CYQR;2009-08-11 08:00;CYQR 110800Z 18008KT 12SM SCT140 13/11 A2987 RMK AC2 SLP115

CYQR;2009-08-11 09:00;CYQR 110900Z 19007KT 12SM FEW140 14/11 A2987 RMK AC2 SLP114

CYQR;2009-08-11 10:00;CYQR 111000Z 20006KT 12SM SKC 13/10 A2988 RMK SLP116

CYQR;2009-08-11 11:00;CYQR 111100Z 16005KT 12SM FEW300 13/10 A2988 RMK CI1 SLP116

CYQR;2009-08-11 12:00;CYQR 111200Z 14006KT 12SM FEW300 12/09 A2987 RMK CI1 SLP116

CYQR;2009-08-11 13:00;CYQR 111300Z 17004KT 15SM SKC 15/11 A2989 RMK SLP122

CYQR;2009-08-11 14:00;CYQR 111400Z 19003KT 15SM SKC 17/11 A2989 RMK SLP123

CYQR;2009-08-11 15:00;CYQR 111500Z 26006KT 15SM FEW050 21/12 A2989 RMK SC1 SLP122

CYQR;2009-08-11 16:00;CYQR 111600Z 27011KT 15SM SKC 25/13 A2989 RMK SLP122

CYQR;2009-08-11 17:00;CYQR 111700Z 26012KT 15SM FEW250 28/12 A2988 RMK CI1 SLP120

CYQR;2009-08-11 18:00;CYQR 111800Z 25010G19KT 15SM FEW250 29/10 A2987 RMK CI1 SLP114

CYQR;2009-08-11 19:00;CYQR 111900Z 24011G17KT 15SM FEW250 30/10 A2986 RMK CI1 SLP110

CYQR;2009-08-11 20:00;CYQR 112000Z 25017G25KT 15SM FEW250 32/09 A2985 RMK CI1 SLP107

CYQR;2009-08-11 21:00;CYQR 112100Z 25017G22KT 15SM FEW180 FEW250 32/08 A2984 RMK AC1CI0 SLP103

CYQR;2009-08-11 22:00;CYQR 112200Z 23012G18KT 15SM FEW250 33/10 A2982 RMK CI1 SLP097

CYQR;2009-08-11 23:00;CYQR 112300Z 24013KT 15SM FEW250 33/09 A2981 RMK CI1 SLP092

CYQR;2009-08-12 00:00;CYQR 120000Z 27012KT 15SM FEW250 32/08 A2980 RMK CI1 SLP089

CYQR;2009-08-12 01:00;CYQR 120100Z 27006KT 15SM FEW250 29/13 A2980 RMK CI1 SLP089

CYQR;2009-08-12 02:00;CYQR 120200Z 25004KT 15SM FEW160 24/14 A2980 RMK AC1 SLP091

CYQR;2009-08-12 03:00;CYQR 120300Z 24006KT 15SM FEW120 19/12 A2981 RMK AC1 SLP095

CYQR;2009-08-12 04:00;CYQR 120400Z 21006KT 15SM SKC 17/10 A2981 RMK SLP096

CYQR;2009-08-12 05:00;CYQR 120500Z 19008KT 15SM FEW080 15/10 A2981 RMK AC1 SLP095

CYQR;2009-08-12 06:00;CYQR 120600Z 33003KT 15SM BKN120 15/10 A2982 RMK AC6 SLP097

CYQR;2009-08-12 06:30;CYQR 120630Z 26006KT 12SM -TSRA OVC080 16/ RMK AC8 CB EMBD

CYQR;2009-08-12 06:54;CYQR 120654Z 25002KT 15SM FEW023 BKN084 16/ RETS RMK SC2AC4

CYQR;2009-08-12 07:00;CYQR 120700Z 00000KT 15SM FEW023 BKN084 16/11 A2983 RETS RMK SC2AC4 SLP099

CYQR;2009-08-12 08:00;CYQR 120800Z 16002KT 15SM BKN120 14/11 A2982 RMK AC6 SLP097

CYQR;2009-08-12 09:00;CYQR 120900Z 03002KT 15SM BKN120 14/11 A2983 RMK AC6 SLP100

CYQR;2009-08-12 10:00;CYQR 121000Z 35003KT 15SM FEW120 11/09 A2984 RMK AC2 SLP103

CYQR;2009-08-12 11:00;CYQR 121100Z 35005KT 15SM FEW120 12/10 A2985 RMK AC1 SLP105

CYQR;2009-08-12 12:00;CYQR 121200Z 26006KT 15SM FEW120 FEW300 09/08 A2986 RMK ACC1CI0 SLP112

CYQR;2009-08-12 13:00;CYQR 121300Z 29006KT 15SM SCT093 12/11 A2990 RMK AC3 ACC ASOCTD SLP124

CYQR;2009-08-12 14:00;CYQR 121400Z 35006KT 15SM BKN096 15/13 A2990 RMK AC6 SLP125

CYQR;2009-08-12 15:00;CYQR 121500Z 36007KT 15SM BKN096 17/13 A2990 RMK AC4 ACC EMBD VIRGA SLP128

CYQR;2009-08-12 16:00;CYQR 121600Z 33009KT 15SM FEW050 SCT090 BKN300 20/14 A2991 RMK SC1AC2CI0 SLP133

CYQR;2009-08-12 17:00;CYQR 121700Z 16003KT 15SM FEW050 BKN072 BKN300 22/14 A2991 RMK SC1AC6CI0 ACC ASOCTD SLP131

CYQR;2009-08-12 18:00;CYQR 121800Z 16007KT 15SM -SHRA FEW050 BKN080 BKN300 24/14 A2989 RMK SC2AC4CI0 SLP122

CYQR;2009-08-12 18:44;CYQR 121844Z 30007KT 15SM FEW050 SCT080 BKN110 24/ RMK SC2AC2AC3

CYQR;2009-08-12 19:00;CYQR 121900Z 28009KT 15SM BKN072 BKN110 24/15 A2994 RMK AC5AC2 SLP139

CYQR;2009-08-12 20:00;CYQR 122000Z 00000KT 15SM FEW036 BKN080 BKN300 24/15 A2990 RMK SC1AC5CI2 SLP128

CYQR;2009-08-12 21:00;CYQR 122100Z 33007KT 15SM FEW100 FEW300 26/15 A2989 RMK ACC2CI1 SLP125

CYQR;2009-08-12 22:00;CYQR 122200Z 28008KT 15SM FEW050 SCT100 BKN300 27/12 A2989 RMK SC1AC2CI0 TR SC SLP124

CYQR;2009-08-12 23:00;CYQR 122300Z 30010KT 15SM FEW050 FEW100 FEW170 BKN300 26/12 A2989 RMK SC1AC1AC1CI1 TR SC SLP123

CYQR;2009-08-13 00:00;CYQR 130000Z 35007KT 15SM FEW050 BKN091 BKN300 25/13 A2988 RMK SC1AC4CI1 SLP124

CYQR;2009-08-13 01:00;CYQR 130100Z 01008KT 15SM FEW050 SCT083 BKN120 BKN300 24/12 A2987 RMK SC1AC2AC5CI1 ACC ASOCTD SLP120

CYQR;2009-08-13 02:00;CYQR 130200Z 35010KT 15SM SCT079 BKN120 BKN300 22/13 A2990 RMK AC4AC2CI2 SLP130

CYQR;2009-08-13 02:08;CYQR 130208Z 02008G17KT 15SM -TSRA FEW055 BKN079CB OVC120 22/ RMK SC2CB4AC2

CYQR;2009-08-13 02:33;CYQR 130233Z 36003KT 15SM BKN055 OVC080 21/ RETS RMK SC6AC2 CB ASOCTD

CYQR;2009-08-13 03:00;CYQR 130300Z 36007KT 15SM BKN055 BKN080 21/14 A2993 RETS RMK SC5AC2 SLP138

CYQR;2009-08-13 03:28;CYQR 130328Z 03002KT 10SM -SHRA BKN026 OVC055 18/ RMK SC6SC2

CYQR;2009-08-13 04:00;CYQR 130400Z 10005KT 15SM -SHRA BKN026 BKN050 17/14 A2991 RMK SC5SC2 SLP133

CYQR;2009-08-13 05:00;CYQR 130500Z 07005KT 15SM -SHRA SCT028 BKN050 18/14 A2992 RMK SC4SC3 SLP134

CYQR;2009-08-13 05:09;CYQR 130509Z 11003KT 15SM FEW026 BKN050 17/ RMK SC2SC3

CYQR;2009-08-13 06:00;CYQR 130600Z 16004KT 15SM FEW055 BKN120 16/14 A2990 RMK SC2AC3 SLP127

CYQR;2009-08-13 07:00;CYQR 130700Z 00000KT 15SM SCT055 BKN120 15/14 A2992 RMK SC3AC3 SLP132

CYQR;2009-08-13 08:00;CYQR 130800Z 36006KT 15SM SCT055 BKN120 16/14 A2991 RMK SC4AC2 SLP130

CYQR;2009-08-13 09:00;CYQR 130900Z 04004KT 15SM OVC066 15/14 A2990 RMK AC8 SLP125

CYQR;2009-08-13 10:00;CYQR 131000Z 27004KT 15SM SCT066 OVC096 14/13 A2991 RMK AC4AC4 SLP130

CYQR;2009-08-13 11:00;CYQR 131100Z 18005KT 15SM FEW060 SCT080 BKN098 14/12 A2992 RMK SC2AC2AC2 SLP131

CYQR;2009-08-13 12:00;CYQR 131200Z 19005KT 15SM FEW060 SCT080 BKN098 14/13 A2993 RMK SC2AC2AC2 SLP136

CYQR;2009-08-13 13:00;CYQR 131300Z 00000KT 15SM FEW055 BKN077 OVC300 16/14 A2993 RMK SC2AC5CI1 SLP137

CYQR;2009-08-13 14:00;CYQR 131400Z 23003KT 15SM BKN077 BKN096 16/14 A2993 RMK AC6AC2 SLP138

CYQR;2009-08-13 15:00;CYQR 131500Z 00000KT 15SM BKN071 BKN320 17/14 A2992 RMK AC7CI1 SLP136

CYQR;2009-08-13 16:00;CYQR 131600Z 07002KT 15SM SCT071 BKN330 20/14 A2992 RMK AC3CI0 SLP136

CYQR;2009-08-13 17:00;CYQR 131700Z 24003KT 15SM FEW026 SCT070 BKN120 BKN320 22/15 A2993 RMK CF1AC3AC2CI0 CC ASOCTD SLP138

CYQR;2009-08-13 18:00;CYQR 131800Z 24005KT 15SM FEW028 FEW070 BKN120 22/15 A2993 RMK CU1AC2AC6 SHWRS SW SLP139

CYQR;2009-08-13 18:38;CYQR 131838Z 25004KT 15SM -SHRA FEW026 BKN120 OVC330 22/ RMK CU1AC7CI1

CYQR;2009-08-13 19:00;CYQR 131900Z 00000KT 15SM -SHRA FEW026 BKN120 OVC330 22/15 A2993 RMK CU1AC7CI1 ACC ASOCTD SLP138

CYQR;2009-08-13 19:18;CYQR 131918Z 21002KT 15SM FEW026 BKN120 OVC330 22/ RMK CU1AC7CI1

CYQR;2009-08-13 20:00;CYQR 132000Z 00000KT 15SM FEW026 BKN120 OVC330 22/15 A2993 RMK CU1AC7CI1 SLP138

CYQR;2009-08-13 21:00;CYQR 132100Z 23003KT 15SM FEW030 BKN120 OVC330 23/15 A2992 RMK CU1AC6CI2 SLP134

CYQR;2009-08-13 22:00;CYQR 132200Z 21003KT 15SM FEW040 SCT084 BKN120 OVC330 24/14 A2992 RMK CU1AC3AC4CI1 ACC ASOCTD SLP134

CYQR;2009-08-13 23:00;CYQR 132300Z 23003KT 15SM BKN041 BKN120 OVC330 24/14 A2992 RMK CU5AC2CI1 SLP134

CYQR;2009-08-14 00:00;CYQR 140000Z 29002KT 15SM FEW040 BKN091 OVC330 23/14 A2992 RMK CU2AC5CI1 SLP136

CYQR;2009-08-14 01:00;CYQR 140100Z 36014KT 15SM FEW040 BKN090 OVC330 19/14 A2995 RMK CU2AC5CI1 SLP144

CYQR;2009-08-14 01:26;CYQR 140126Z 02014KT 15SM -SHRA FEW040 BKN090 OVC330 RMK CU2AC5CI1

CYQR;2009-08-14 02:00;CYQR 140200Z 03015KT 15SM -SHRA FEW040 BKN080 OVC330 17/14 A2996 RMK SC2AC6CI1 SLP147

CYQR;2009-08-14 02:16;CYQR 140216Z 03011KT 15SM BKN036 OVC081 17/ RMK SC5AC3

CYQR;2009-08-14 03:00;CYQR 140300Z 05014KT 15SM BKN040 OVC080 17/14 A2997 RMK SC5AC3 SLP155

CYQR;2009-08-14 03:50;CYQR 140350Z 08010KT 15SM -SHRA BKN033 OVC080 16/ RMK SC6AC2

CYQR;2009-08-14 04:00;CYQR 140400Z 08011KT 15SM -SHRA BKN033 OVC080 16/14 A2997 RMK SC6AC2 SLP154

CYQR;2009-08-14 05:00;CYQR 140500Z CCA 06008KT 15SM -SHRA SCT033 BKN080 16/13 A2996 RMK SC3AC4 LTG DIST S SLP152

CYQR;2009-08-14 05:36;CYQR 140536Z 34007KT 15SM FEW033 BKN080 14/ RMK SC1AC6 LTG DIST S

CYQR;2009-08-14 06:00;CYQR 140600Z 35003KT 15SM FEW033 BKN080 14/13 A2998 RMK SC1AC5 LTG DIST SE SLP157

CYQR;2009-08-14 06:43;CYQR 140643Z 36005KT 6SM BR SCT003 OVC080 14/ RMK ST4AC4

CYQR;2009-08-14 07:00;CYQR 140700Z 36005KT 6SM BR BKN003 OVC080 14/13 A3000 RMK ST6AC2 SLP163

CYQR;2009-08-14 08:00;CYQR 140800Z 33006KT 6SM BR OVC004 14/13 A2999 RMK ST8 SLP160

CYQR;2009-08-14 09:00;CYQR 140900Z 06007KT 6SM -RA OVC005 14/13 A2996 RMK ST8 SLP149

CYQR;2009-08-14 10:00;CYQR 141000Z 04007KT 15SM -RA FEW004 SCT010 OVC061 14/13 A2996 RMK SF2SC2SC4 SLP149

CYQR;2009-08-14 10:27;CYQR 141027Z 06009KT 15SM BKN005 OVC010 14/ RMK ST6SC2

CYQR;2009-08-14 11:00;CYQR 141100Z 05009KT 15SM OVC007 14/13 A2996 RMK ST8 SLP150

CYQR;2009-08-14 11:41;CYQR 141141Z 06010KT 15SM SCT006 BKN080 14/ RMK ST3AC2

CYQR;2009-08-14 12:00;CYQR 141200Z 06009KT 15SM SCT006 BKN080 14/12 A2996 RMK ST4AC2 SLP149

CYQR;2009-08-14 12:19;CYQR 141219Z 06012KT 15SM BKN006 OVC080 14/ RMK ST6AC2

CYQR;2009-08-14 13:00;CYQR 141300Z 07011KT 15SM BKN006 OVC080 14/12 A2996 RMK SC7AC1 SLP148

CYQR;2009-08-14 13:50;CYQR 141350Z 06010G15KT 15SM BKN010 BKN039 BKN120 15/ RMK SC6SC1AC1

CYQR;2009-08-14 14:00;CYQR 141400Z 06011G16KT 15SM FEW010 BKN021 BKN120 15/13 A2995 RMK SC2SC6AC1 SLP146

CYQR;2009-08-14 15:00;CYQR 141500Z 07008KT 15SM FEW012 BKN019 BKN064 16/13 A2994 RMK SC2SC4SC2 SLP147

CYQR;2009-08-14 16:00;CYQR 141600Z 07010KT 15SM BKN012 OVC028 18/13 A2996 RMK SC7SC1 CIG RAG SLP152

CYQR;2009-08-14 17:00;CYQR 141700Z 09008KT 15SM BKN012 OVC028 17/13 A2997 RMK SC7SC1 SLP155

CYQR;2009-08-14 18:00;CYQR 141800Z 09012KT 15SM OVC012 17/13 A2997 RMK SC8 SLP156

CYQR;2009-08-14 19:00;CYQR 141900Z 10011KT 15SM OVC014 18/13 A2996 RMK SC8 SLP153

CYQR;2009-08-14 20:00;CYQR 142000Z 12007KT 15SM OVC018 18/14 A2997 RMK SC8 SLP155

CYQR;2009-08-14 20:46;CYQR 142046Z 12007KT 15SM -SHRA BKN024 OVC036 18/ RMK SC6SC2

CYQR;2009-08-14 21:00;CYQR 142100Z 12008KT 15SM BKN024 OVC041 19/14 A2996 RMK SC6SC2 SLP153

CYQR;2009-08-14 22:00;CYQR 142200Z 13008KT 15SM BKN018 OVC045 18/14 A2996 RMK SC6SC2 SLP152

CYQR;2009-08-14 23:00;CYQR 142300Z 10009G15KT 15SM SCT018 BKN045 BKN140 BKN320 19/14 A2993 RMK SC4SC1AC2CI1 SLP142

CYQR;2009-08-15 00:00;CYQR 150000Z 11009KT 15SM FEW020 BKN034 BKN140 19/14 A2994 RMK SC1SC6AC1 SLP143

CYQR;2009-08-15 01:00;CYQR 150100Z 09011KT 15SM FEW018 FEW047 BKN110 19/14 A2991 RMK SC2SC1AC3 SLP134

CYQR;2009-08-15 02:00;CYQR 150200Z 09008KT 15SM FEW018 FEW047 BKN110 18/14 A2992 RMK SC2SC1AC3 SLP137

CYQR;2009-08-15 02:53;CYQR 150253Z 09013KT 15SM -RA OVC032 17/ RMK SC8

CYQR;2009-08-15 03:00;CYQR 150300Z 09013KT 15SM -RA OVC032 17/14 A2990 RMK SC8 SLP131

CYQR;2009-08-15 04:00;CYQR 150400Z 11013G19KT 4SM -RA OVC020 16/14 A2990 RMK SC8 SLP130

CYQR;2009-08-15 04:29;CYQR 150429Z 10013KT 10SM -RA BKN009 OVC020 16/ RMK ST5SC3

CYQR;2009-08-15 05:00;CYQR 150500Z 10013KT 3SM -RA OVC010 15/14 A2990 RMK SC8 SLP132

CYQR;2009-08-15 06:00;CYQR 150600Z 11011G16KT 5SM -RA SCT010 OVC020 15/14 A2991 RMK SC4SC4 SLP134

CYQR;2009-08-15 06:40;CYQR 150640Z 12011KT 2SM RA OVC017 15/ RMK SC8

CYQR;2009-08-15 07:00;CYQR 150700Z 12011KT 2SM RA OVC017 15/14 A2991 RMK SC8 SLP136

CYQR;2009-08-15 08:00;CYQR 150800Z 12014KT 2SM RA OVC017 15/13 A2986 RMK SC8 SLP120

CYQR;2009-08-15 09:00;CYQR 150900Z 12012G18KT 2SM RA OVC009 14/13 A2986 RMK SC8 SLP117

CYQR;2009-08-15 10:00;CYQR 151000Z 11010KT 2SM RA SCT006 OVC020 14/13 A2984 RMK SC4SC4 SLP111

CYQR;2009-08-15 11:00;CYQR 151100Z 10008KT 3SM RA SCT008 OVC020 14/13 A2982 RMK SC4SC4 /R20/ SLP105

CYQR;2009-08-15 12:00;CYQR 151200Z 09006KT 3SM RA OVC017 14/13 A2981 RMK ST8 SLP100

CYQR;2009-08-15 12:47;CYQR 151247Z 08011KT 3SM -RA FEW005 OVC017 14/ RMK SF1ST8

CYQR;2009-08-15 13:00;CYQR 151300Z 09011KT 3SM -RA FEW005 OVC017 14/13 A2979 RMK SF1ST8 SLP093

CYQR;2009-08-15 13:49;CYQR 151349Z 10014KT 10SM -RA FEW007 BKN058 BKN120 BKN320 14/ RMK SF1SC7AC1CI1

CYQR;2009-08-15 14:00;CYQR 151400Z 10015KT 12SM -RA FEW007 FEW020 BKN058 BKN120 BKN320 14/12 A2977 RMK SF1SC1SC7AC1CI1 SLP088

CYQR;2009-08-15 14:37;CYQR 151437Z 10015G21KT 15SM FEW007 FEW019 BKN072 BKN120 BKN320 14/ RMK SF1SC1AC6AC1CI1

CYQR;2009-08-15 15:00;CYQR 151500Z 08014G19KT 15SM FEW007 FEW019 BKN070 BKN100 15/13 A2976 RMK SF1SC2AC4AC1 SLP083

CYQR;2009-08-15 16:00;CYQR 151600Z 10008KT 15SM FEW007 FEW014 FEW058 BKN100 17/14 A2977 RMK SF1SC1SC2AC4 SLP088

CYQR;2009-08-15 17:00;CYQR 151700Z 00000KT 15SM FEW009 BKN019 17/13 A2978 RMK SF1SC7 SLP089

CYQR;2009-08-15 17:33;CYQR 151733Z 34006KT 15SM -SHRA OVC016 17/ RMK SC8

CYQR;2009-08-15 18:00;CYQR 151800Z 34007KT 15SM BKN016 OVC060 17/14 A2977 RMK SC7SC1 SLP087

CYQR;2009-08-15 19:00;CYQR 151900Z 33010KT 15SM BKN020 OVC060 17/14 A2977 RMK SC7SC1 SLP087

CYQR;2009-08-15 20:00;CYQR 152000Z 36009KT 15SM BKN021 BKN056 BKN300 19/14 A2977 RMK SC5SC2CI1 TCU EMBD SLP086

CYQR;2009-08-15 21:00;CYQR 152100Z 34008KT 15SM FEW020 BKN050 BKN120 18/13 A2978 RMK SC1CU6AC1 TCU EMBD SHWRS S + NE SLP089

CYQR;2009-08-15 22:00;CYQR 152200Z 29012KT 15SM VCSH FEW018 OVC040 17/14 A2979 RMK SC2SC6 SHWRS S + W VIS W 4 SLP092

CYQR;2009-08-15 22:15;CYQR 152215Z 31009KT 3SM -SHRA FEW018 OVC046TCU 15/ RMK SC2TCU6 VIS W + E 2

CYQR;2009-08-15 23:00;CYQR 152300Z 01004KT 12SM -SHRA FEW024 BKN042TCU 15/14 A2979 RMK SC2TCU6 VIS E 3 SLP092

CYQR;2009-08-15 23:16;CYQR 152316Z 06005KT 15SM FEW030 BKN063TCU BKN320 16/ RMK SC1TCU6CI1 VIS E 4 CIG LWR E

CYQR;2009-08-16 00:00;CYQR 160000Z 36007KT 15SM FEW036 FEW050 SCT120 BKN320 17/14 A2977 RMK SC1SC2AS2CI1 TCU EMBD N-E CONTRAILS SLP089

CYQR;2009-08-16 01:00;CYQR 160100Z 00000KT 15SM FEW030 BKN060 BKN120 BKN320 17/14 A2979 RMK CU1SC2AC1CI1 SLP095

CYQR;2009-08-16 02:00;CYQR 160200Z 21003KT 15SM FEW030 BKN095 BKN120 BKN320 15/14 A2979 RMK SC1AC3AC2CI1 SLP094

CYQR;2009-08-16 03:00;CYQR 160300Z 11002KT 15SM FEW030 BKN095 BKN120 BKN320 15/14 A2979 RMK SC1AC3AC2CI1 SLP096

CYQR;2009-08-16 04:00;CYQR 160400Z 10003KT 15SM FEW095 SCT120 BKN320 14/13 A2979 RMK AC2AC2CI1 SLP094

CYQR;2009-08-16 05:00;CYQR 160500Z 16005KT 15SM FEW058 SCT120 BKN320 13/13 A2978 RMK SC2AC2CI1 SLP092

CYQR;2009-08-16 06:00;CYQR 160600Z 22005KT 15SM SCT026 OVC050 13/13 A2979 RMK SC3SC5 SLP094

CYQR;2009-08-16 06:06;CYQR 160606Z 19003KT 8SM BKN004 OVC012 13/ RMK ST5SC3

CYQR;2009-08-16 07:00;CYQR 160700Z 26006KT 15SM FEW004 BKN012 12/10 A2976 RMK SF1SC5 SLP087

CYQR;2009-08-16 08:00;CYQR 160800Z 23005KT 15SM FEW012 BKN050 10/09 A2976 RMK SC2SC3 SLP087

CYQR;2009-08-16 09:00;CYQR 160900Z 24006KT 15SM FEW012 BKN050 10/09 A2975 RMK SC2SC3 SLP084

CYQR;2009-08-16 10:00;CYQR 161000Z 20005KT 15SM BKN050 09/08 A2974 RMK SC5 SLP081

CYQR;2009-08-16 11:00;CYQR 161100Z 25005KT 15SM SCT015 BKN028 09/08 A2974 RMK SC3SC2 SLP079

CYQR;2009-08-16 12:00;CYQR 161200Z 22003KT 15SM SCT009 BKN028 BKN280 08/08 A2973 RMK SC3SC2CI2 SLP078

CYQR;2009-08-16 12:18;CYQR 161218Z 27004KT 15SM OVC005 09/ RMK ST8

CYQR;2009-08-16 13:00;CYQR 161300Z 31002KT 15SM OVC005 10/09 A2973 RMK ST8 SLP077

CYQR;2009-08-16 13:18;CYQR 161318Z 00000KT 12SM BKN003 OVC009 11/ RMK SF5SC3

CYQR;2009-08-16 13:49;CYQR 161349Z 33004KT 1SM R13/3500V5000FT/D -DZ BR OVC001 11/ RMK FG4ST4

CYQR;2009-08-16 13:55;CYQR 161355Z 33004KT 5/8SM R13/3500V4500FT/N -DZ BR VV001 11/ RMK FG8

CYQR;2009-08-16 14:00;CYQR 161400Z 34005KT 1/2SM R13/2600V4000FT/D FG VV001 11/11 A2973 RMK FG8 SLP077

CYQR;2009-08-16 14:51;CYQR 161451Z 36007KT 3/4SM R13/P6000FT/U -DZ BR OVC002 12/ RMK FG5ST3

CYQR;2009-08-16 15:00;CYQR 161500Z 35011KT 1SM R13/P6000FT/D -DZ BR OVC003 12/12 A2972 RMK FG3ST5 SLP073

CYQR;2009-08-16 15:12;CYQR 161512Z 36008KT 10SM BKN003 OVC024 13/ RMK SF6SC2

CYQR;2009-08-16 15:39;CYQR 161539Z 36011KT 15SM SCT004 OVC009 14/ RMK SF4SC4

CYQR;2009-08-16 16:00;CYQR 161600Z 34013KT 15SM BKN008 OVC030 14/12 A2972 RMK SC6SC2 SLP073

CYQR;2009-08-16 16:52;CYQR 161652Z 33013KT 10SM -DZ OVC010 13/ RMK SC8

CYQR;2009-08-16 17:00;CYQR 161700Z CCA 34011G16KT 13SM BKN010 OVC027 13/11 A2972 RMK SC7SC1 SLP073

CYQR;2009-08-16 17:09;CYQR 161709Z 34014KT 5SM -DZ BR OVC010 13/ RMK SC8

CYQR;2009-08-16 17:24;CYQR 161724Z 34012KT 13SM -DZ BKN012 OVC027 14/ RMK SC7SC1 -DZ INTMT

CYQR;2009-08-16 17:43;CYQR 161743Z 33013KT 10SM -DZ BKN009 OVC019 13/ RMK SC5SC3 -DZ INTMT

CYQR;2009-08-16 18:00;CYQR 161800Z 34012KT 4SM -DZ BKN006 OVC019 13/11 A2972 RMK SF6SC2 VIS VRB 3-5 -DZ INTMT SLP075

CYQR;2009-08-16 18:10;CYQR 161810Z 34012KT 2 1/2SM -DZ OVC006 13/ RMK SF8

CYQR;2009-08-16 18:30;CYQR 161830Z 34012KT 5SM -DZ OVC008 13/ RMK SF8

CYQR;2009-08-16 18:36;CYQR 161836Z 34015G20KT 2 1/2SM -DZ OVC009 13/ RMK SF8

CYQR;2009-08-16 19:00;CYQR 161900Z 32014KT 10SM -DZ BKN012 BKN100 13/12 A2973 RMK SC7AC1 CIG RAG -DZ INTMT SLP076

CYQR;2009-08-16 20:00;CYQR 162000Z 34019G26KT 15SM BKN014 BKN045 14/10 A2974 RMK SC6SC2 CIG RAG SLP080

CYQR;2009-08-16 20:21;CYQR 162021Z 34017G24KT 15SM SCT017 BKN036 BKN045 BKN100 14/ RMK SC3SC2SC1AC1

CYQR;2009-08-16 20:49;CYQR 162049Z 31019G24KT 15SM -RA SCT019 BKN050 BKN100 13/ RMK SC4SC2AC2

CYQR;2009-08-16 21:00;CYQR 162100Z 32015G24KT 12SM -RA BKN013 BKN050 OVC100 12/10 A2975 RMK SC5SC2AC2 SLP086

CYQR;2009-08-16 22:00;CYQR 162200Z 31017G24KT 12SM -SHRA BKN016 BKN100 12/09 A2975 RMK SC7AC1 CU EMBD HVYR SHWRS W SLP086

CYQR;2009-08-16 23:00;CYQR 162300Z 30017KT 12SM -SHRA BKN012 OVC036 12/10 A2976 RMK SC6SC2 CU EMBD SLP088

CYQR;2009-08-16 23:20;CYQR 162320Z 31016G22KT 6SM -SHRA BKN009 OVC032 12/ RMK SC7SC1 CU EMBD

CYQR;2009-08-16 23:38;CYQR 162338Z 31021KT 2 1/2SM -SHRA BKN005 OVC041 11/ RMK SF7SC1 CVCTV CLD EMBD

CYQR;2009-08-17 00:00;CYQR 170000Z 31018G24KT 3SM -SHRA BKN005 BKN008 OVC041 11/10 A2977 RMK SF5SC2SC1 CVCTV CLD EMBD SLP094

CYQR;2009-08-17 00:14;CYQR 170014Z 32022KT 2 1/2SM -SHRA BKN007 OVC020 12/ RMK SF7SC1 VIS VRB 2-3 CVCTV CLD EMBD

CYQR;2009-08-17 01:00;CYQR 170100Z 32018KT 3SM -SHRA BKN007 OVC026 11/10 A2979 RMK SF7SC1 VIS W 2 SLP100

CYQR;2009-08-17 02:00;CYQR 170200Z 32015KT 2 1/2SM -SHRA BKN006 OVC033 10/09 A2979 RMK SF7SC1 VIS VRB 2-3 SLP103

CYQR;2009-08-17 02:31;CYQR 170231Z 32014G20KT 4SM -SHRA OVC005 10/ RMK SF8 VIS E 2

CYQR;2009-08-17 03:00;CYQR 170300Z 32014KT 12SM -DZ OVC004 10/09 A2981 RMK SF8 SLP106

CYQR;2009-08-17 03:48;CYQR 170348Z 32013KT 2SM -DZ BR OVC004 10/ RMK SF8

CYQR;2009-08-17 04:00;CYQR 170400Z 33015KT 6SM -DZ BR OVC005 10/09 A2982 RMK SF8 SLP109

CYQR;2009-08-17 04:22;CYQR 170422Z 32015KT 2SM -DZ BR OVC005 10/ RMK SF8

CYQR;2009-08-17 04:49;CYQR 170449Z 32013KT 10SM -DZ OVC004 10/ RMK SF8

CYQR;2009-08-17 05:00;CYQR 170500Z 32014KT 4SM -DZ OVC004 10/09 A2982 RMK SF8 SLP110

CYQR;2009-08-17 05:33;CYQR 170533Z 34012KT 2SM -DZ OVC004 10/ RMK SF8

CYQR;2009-08-17 06:00;CYQR 170600Z 34015KT 2 1/2SM -DZ OVC004 10/09 A2983 RMK SF8 SLP114

CYQR;2009-08-17 06:14;CYQR 170614Z 34019KT 3SM -DZ BKN005 OVC019 10/ RMK SF7SC1 VIS VRB 2-4

CYQR;2009-08-17 07:00;CYQR 170700Z 34014KT 4SM -DZ OVC005 10/08 A2984 RMK SF8 SLP116

CYQR;2009-08-17 07:05;CYQR 170705Z 34013G18KT 6SM -SHRA OVC005 10/ RMK SF8

CYQR;2009-08-17 07:37;CYQR 170737Z 34014G20KT 4SM -SHRA OVC006 10/ RMK SF8

CYQR;2009-08-17 08:00;CYQR 170800Z 34013G18KT 12SM -SHRA BKN007 OVC024 10/09 A2984 RMK SF7SC1 SLP118

CYQR;2009-08-17 09:00;CYQR 170900Z 33013KT 12SM -SHRA BKN009 OVC051 10/08 A2985 RMK SC7SC1 SLP121

CYQR;2009-08-17 09:35;CYQR 170935Z 34015KT 8SM -SHRA OVC005 10/ RMK SF8

CYQR;2009-08-17 10:00;CYQR 171000Z 32013KT 6SM -SHRA OVC006 OVC023 10/09 A2986 RMK SF7SC1 SLP124

CYQR;2009-08-17 10:25;CYQR 171025Z 32015G20KT 2 1/2SM -SHRA OVC004 10/ RMK SF8

CYQR;2009-08-17 11:00;CYQR 171100Z 32018KT 2SM -SHRA OVC004 10/09 A2987 RMK SF8 SLP127

CYQR;2009-08-17 11:27;CYQR 171127Z 32015G21KT 4SM -SHRA BR BKN004 OVC026 10/ RMK SF6SC2

CYQR;2009-08-17 11:41;CYQR 171141Z 31015KT 12SM -SHRA BKN007 OVC037 10/ RMK SF7SC1

CYQR;2009-08-17 12:00;CYQR 171200Z 31016KT 15SM OVC007 10/08 A2989 RMK SF8 SLP134

CYQR;2009-08-17 13:00;CYQR 171300Z 32016KT 15SM BKN007 OVC048 10/09 A2990 RMK SF6SC2 SLP138

CYQR;2009-08-17 13:44;CYQR 171344Z 32015G21KT 15SM SCT007 BKN050 BKN300 11/ RMK SF4SC2CI0

CYQR;2009-08-17 14:00;CYQR 171400Z 32015G20KT 15SM SCT007 BKN050 11/10 A2991 RMK SF4SC3 SLP141

CYQR;2009-08-17 14:36;CYQR 171436Z 32016G24KT 15SM BKN009 11/ RMK CU6

CYQR;2009-08-17 15:00;CYQR 171500Z 33017G22KT 15SM SCT010 SCT300 12/10 A2992 RMK CU4CI1 SLP146

CYQR;2009-08-17 16:00;CYQR 171600Z 32020KT 15SM FEW019 BKN300 15/10 A2993 RMK CF2CI0 SLP149

CYQR;2009-08-17 17:00;CYQR 171700Z 33020G29KT 15SM SCT029 BKN300 16/08 A2994 RMK CU3CI0 SLP151

CYQR;2009-08-17 18:00;CYQR 171800Z 34021G26KT 15SM FEW040 FEW300 17/07 A2995 RMK CU1CI1 SLP151

CYQR;2009-08-17 19:00;CYQR 171900Z 33018G26KT 15SM FEW045 FEW120 19/07 A2995 RMK CU1AC1 SLP151

CYQR;2009-08-17 20:00;CYQR 172000Z 34019G24KT 15SM FEW045 FEW120 20/08 A2994 RMK CU1AC1 SLP150

CYQR;2009-08-17 21:00;CYQR 172100Z 33015G25KT 15SM FEW050 21/08 A2993 RMK CU1 SLP144

CYQR;2009-08-17 22:00;CYQR 172200Z 33016G25KT 15SM FEW050 21/07 A2994 RMK CU1 SLP145

CYQR;2009-08-17 23:00;CYQR 172300Z 31018KT 15SM FEW050 FEW300 21/07 A2994 RMK CU1CI0 SLP146

CYQR;2009-08-18 00:00;CYQR 180000Z 32012KT 15SM FEW050 FEW300 21/07 A2993 RMK CU1CI0 SLP144

CYQR;2009-08-18 01:00;CYQR 180100Z 33007KT 15SM FEW050 FEW300 19/08 A2993 RMK SC1CI0 SLP144

CYQR;2009-08-18 02:00;CYQR 180200Z 32006KT 15SM FEW090 FEW300 16/09 A2993 RMK AC1CI1 SLP144

CYQR;2009-08-18 03:00;CYQR 180300Z 28003KT 15SM FEW300 13/09 A2994 RMK CI1 SLP150

CYQR;2009-08-18 04:00;CYQR 180400Z 23003KT 15SM FEW300 10/07 A2994 RMK CI1 SLP149

CYQR;2009-08-18 05:00;CYQR 180500Z 24005KT 15SM FEW300 09/07 A2993 RMK CI1 SLP147

CYQR;2009-08-18 06:00;CYQR 180600Z 18004KT 15SM SKC 09/06 A2992 RMK SLP143

CYQR;2009-08-18 07:00;CYQR 180700Z 19004KT 15SM FEW077 09/07 A2991 RMK AC2 SLP139

CYQR;2009-08-18 08:00;CYQR 180800Z 19007KT 15SM FEW080 09/07 A2990 RMK AC1 SLP135

CYQR;2009-08-18 09:00;CYQR 180900Z 16006KT 15SM SKC 10/07 A2988 RMK SLP125

CYQR;2009-08-18 10:00;CYQR 181000Z 14006KT 15SM SKC 09/07 A2987 RMK SLP121

CYQR;2009-08-18 11:00;CYQR 181100Z 12006KT 15SM FEW080 FEW300 08/06 A2986 RMK AC1CI0 SLP118

CYQR;2009-08-18 12:00;CYQR 181200Z 12005KT 15SM FEW080 FEW300 08/06 A2984 RMK AC1CI1 SLP115

CYQR;2009-08-18 13:00;CYQR 181300Z 14005KT 15SM FEW120 SCT300 09/08 A2984 RMK AC2CI0 SLP114

CYQR;2009-08-18 14:00;CYQR 181400Z 13004KT 15SM FEW080 BKN120 12/10 A2981 RMK AC1AC6 SLP105

CYQR;2009-08-18 15:00;CYQR 181500Z 15006KT 15SM FEW080 BKN120 15/10 A2979 RMK AC1AC6 ACC ASOCTD SLP095

CYQR;2009-08-18 16:00;CYQR 181600Z 18006KT 15SM FEW080 BKN120 BKN280 17/12 A2977 RMK ACC1AC5CI1 SLP090

CYQR;2009-08-18 17:00;CYQR 181700Z 21004KT 15SM FEW080 BKN120 BKN280 20/12 A2975 RMK ACC1AC5CI1 SLP084

CYQR;2009-08-18 18:00;CYQR 181800Z 28006KT 15SM FEW080 BKN120 BKN280 21/12 A2974 RMK ACC2AC5CI1 SLP080

CYQR;2009-08-18 19:00;CYQR 181900Z 29007KT 15SM FEW080 BKN120 OVC280 22/11 A2974 RMK ACC2AC5CI2 SLP078

CYQR;2009-08-18 20:00;CYQR 182000Z 23005KT 15SM SCT080 OVC120 22/12 A2973 RMK ACC3AC5 VIRGA SLP074

CYQR;2009-08-18 21:00;CYQR 182100Z 31011KT 15SM FEW048 SCT075 OVC120 23/11 A2972 RMK CU1ACC3AC4 SLP071

CYQR;2009-08-18 22:00;CYQR 182200Z 30008KT 15SM -RA FEW048 BKN075 OVC120 19/14 A2972 RMK CU1ACC4AC3 SLP070

CYQR;2009-08-18 22:48;CYQR 182248Z 25007KT 15SM VCSH FEW048 BKN070 OVC120 19/ RMK CU1AC6AC2 ACC EMBD

CYQR;2009-08-18 23:00;CYQR 182300Z 25007KT 15SM VCSH FEW048 BKN070 OVC120 18/14 A2970 RMK CU1AC6AC2 ACC EMBD SLP064

CYQR;2009-08-19 00:00;CYQR 190000Z 22007KT 15SM FEW048 BKN100 OVC280 19/14 A2969 RMK CU1AC5CI1 ACC ASOCTD SLP062

CYQR;2009-08-19 01:00;CYQR 190100Z 23008KT 15SM SCT050 BKN280 18/13 A2967 RMK SC3CI1 SLP057

CYQR;2009-08-19 01:52;CYQR 190152Z 22005KT 15SM TS FEW040CB BKN050 BKN280 16/ RMK CB1SC6CI0 ACC EMBD LTGCG W

CYQR;2009-08-19 02:00;CYQR 190200Z 25013KT 15SM -TSRA FEW040CB BKN050 BKN280 17/13 A2968 RMK CB2SC4CI0 LTGCG SW-W SLP061

CYQR;2009-08-19 03:00;CYQR 190300Z 23012KT 15SM -SHRA FEW050CB SCT070 BKN090 16/13 A2967 RETS RMK CB2ACC2AC3 CB SE-SW LTGCG SLP053

CYQR;2009-08-19 03:18;CYQR 190318Z 24010KT 15SM FEW050CB SCT070 BKN090 15/ RMK CB2ACC2AC4 CB S LTGCG

CYQR;2009-08-19 04:00;CYQR 190400Z 22008KT 15SM FEW050CB FEW070 OVC090 15/13 A2966 RMK CB2ACC1AC6 CB S OCNL LTNG SLP050

CYQR;2009-08-19 05:00;CYQR 190500Z 27008KT 15SM FEW050CB FEW090 14/12 A2965 RMK CB1AC1 CB SE-S OCNL LTNG SLP049

CYQR;2009-08-19 06:00;CYQR 190600Z 30010KT 15SM FEW350 13/12 A2966 RMK CI0 SLP049

CYQR;2009-08-19 07:00;CYQR 190700Z 30010KT 15SM BKN050 13/12 A2967 RMK SC6 SLP050

CYQR;2009-08-19 08:00;CYQR 190800Z 31011KT 15SM FEW350 13/11 A2967 RMK CI0 SLP050

CYQR;2009-08-19 09:00;CYQR 190900Z 30009KT 15SM SKC 12/11 A2967 RMK SLP052

CYQR;2009-08-19 10:00;CYQR 191000Z 31009KT 15SM SKC 11/10 A2967 RMK SLP052

CYQR;2009-08-19 11:00;CYQR 191100Z 26005KT 15SM FEW020 SCT090 09/09 A2967 RMK SC1AC2 SLP051

CYQR;2009-08-19 12:00;CYQR 191200Z CCA 28008KT 15SM FEW020CB SCT042 BKN086 BKN350 12/11 A2967 RMK CB1SC2AC2CI0 CB SW OCNL LTGCG SLP055

CYQR;2009-08-19 13:00;CYQR 191300Z 28010KT 15SM FEW030 FEW092 12/11 A2968 RMK SC2AC1 TCU ASOCTD SLP056

CYQR;2009-08-19 14:00;CYQR 191400Z 30013G18KT 15SM FEW012 SCT085 BKN120 BKN300 14/12 A2968 RMK CF1AC2AC2CI0 TCU WEST SLP058

CYQR;2009-08-19 15:00;CYQR 191500Z CCA 30018KT 15SM BKN013 BKN085 BKN300 15/12 A2968 RMK CF5AC1CI1 TCU ASOCTD SLP057

CYQR;2009-08-19 16:00;CYQR 191600Z 30018KT 15SM BKN013 OVC050 16/12 A2968 RMK SC7SC1 SLP058

CYQR;2009-08-19 16:53;CYQR 191653Z 32017G24KT 15SM BKN016 OVC045 16/ RMK SC7SC1

CYQR;2009-08-19 17:00;CYQR 191700Z 32017G24KT 15SM BKN016 OVC045 16/12 A2969 RMK SC7SC1 SLP060

CYQR;2009-08-19 17:09;CYQR 191709Z 31018KT 15SM -RA OVC016 15/ RMK SC8 CU EMBD

CYQR;2009-08-19 18:00;CYQR 191800Z 32019G26KT 15SM -RA OVC018 16/12 A2969 RMK CU8 SLP063

CYQR;2009-08-19 19:00;CYQR 191900Z 32019G25KT 12SM -RA BKN018 OVC050 16/13 A2970 RMK CU5SC3 SLP066

CYQR;2009-08-19 20:00;CYQR 192000Z 33015G20KT 6SM -RA BR SCT016 OVC046 14/13 A2973 RMK CU3SC5 SLP073

CYQR;2009-08-19 20:21;CYQR 192021Z 32023KT 2SM -RA BR BKN011 OVC016 14/ RMK CU5SC3

CYQR;2009-08-19 21:00;CYQR 192100Z 32018G24KT 3SM -RA BR SCT009 OVC018 14/13 A2973 RMK CF4SC4 VIS W 6 SLP078

CYQR;2009-08-19 21:10;CYQR 192110Z 32016KT 2 1/2SM -RA BR SCT009 OVC014 14/ RMK CF4SC4

CYQR;2009-08-19 22:00;CYQR 192200Z 33012G21KT 10SM FEW009 OVC016 15/13 A2974 RMK CF2SC6 SLP080

CYQR;2009-08-19 23:00;CYQR 192300Z 33020G25KT 15SM BKN027 OVC049 16/12 A2974 RMK SC6SC2 SLP081

CYQR;2009-08-19 23:14;CYQR 192314Z 33023G29KT 15SM -RA FEW016 BKN025 BKN055 16/ RMK CF1SC6SC2

CYQR;2009-08-20 00:00;CYQR 200000Z 32018G24KT 15SM -RA FEW016 BKN019 OVC055 15/13 A2977 RMK CF1SC6SC2 CU EMBD SLP092

CYQR;2009-08-20 00:24;CYQR 200024Z 33018G24KT 15SM VCSH SCT019 OVC029 15/ RMK SC4SC4 CU EMBD

CYQR;2009-08-20 01:00;CYQR 200100Z 34022G28KT 15SM BKN021 OVC052 15/12 A2979 RMK SC7SC1 SH SW SLP099

CYQR;2009-08-20 02:00;CYQR 200200Z 34021KT 15SM BKN021 BKN052 15/12 A2982 RMK SC6SC1 SLP107

CYQR;2009-08-20 03:00;CYQR 200300Z 33012G18KT 15SM BKN029 15/12 A2984 RMK SC7 SLP114

CYQR;2009-08-20 04:00;CYQR 200400Z 33013KT 15SM BKN041 15/12 A2986 RMK SC6 SLP118

CYQR;2009-08-20 05:00;CYQR 200500Z 33012KT 15SM SCT041 OVC058 15/12 A2987 RMK SC4SC4 SLP122

CYQR;2009-08-20 06:00;CYQR 200600Z 33012KT 15SM FEW032 BKN046 BKN062 15/11 A2988 RMK SC2SC3SC2 SLP126

CYQR;2009-08-20 06:26;CYQR 200626Z 34012KT 12SM -DZ OVC029 14/ RMK SC8

CYQR;2009-08-20 06:40;CYQR 200640Z 33014G19KT 15SM OVC029 14/ RMK SC8

CYQR;2009-08-20 07:00;CYQR 200700Z 33010KT 15SM OVC029 14/11 A2989 RMK SC8 SLP129

CYQR;2009-08-20 08:00;CYQR 200800Z 33010KT 15SM SCT045 13/11 A2989 RMK SC3 SLP131

CYQR;2009-08-20 09:00;CYQR 200900Z 32009KT 15SM FEW058 13/11 A2990 RMK SC2 SLP136

CYQR;2009-08-20 10:00;CYQR 201000Z 33009KT 15SM BKN016 OVC060 13/11 A2992 RMK SC7SC1 SLP141

CYQR;2009-08-20 10:31;CYQR 201031Z 32011KT 15SM OVC014 13/ RMK SC8

CYQR;2009-08-20 11:00;CYQR 201100Z 32011KT 15SM OVC014 12/10 A2995 RMK SC8 SLP151

CYQR;2009-08-20 12:00;CYQR 201200Z 33010KT 15SM OVC010 12/10 A2997 RMK SC8 SLP160

CYQR;2009-08-20 12:29;CYQR 201229Z 34010KT 15SM OVC008 12/ RMK SC8

CYQR;2009-08-20 13:00;CYQR 201300Z 34011KT 15SM BKN006 12/11 A2999 RMK SC7 SLP165

CYQR;2009-08-20 14:00;CYQR 201400Z 34012KT 15SM OVC008 13/11 A3000 RMK SC8 SLP170

CYQR;2009-08-20 15:00;CYQR 201500Z 35013G18KT 15SM OVC007 14/11 A3001 RMK SC8 SLP173

CYQR;2009-08-20 15:52;CYQR 201552Z 34014KT 15SM SCT009 BKN300 16/ RMK SC4CI1 CU EMBD

CYQR;2009-08-20 16:00;CYQR 201600Z 36015G20KT 15SM BKN016 BKN300 16/12 A3002 RMK SC6CI1 CU EMBD SLP176

CYQR;2009-08-20 16:28;CYQR 201628Z 35016KT 15SM BKN014 BKN050 16/ RMK SC6SC1 CU ASOCTD

CYQR;2009-08-20 16:53;CYQR 201653Z 35017G22KT 15SM BKN016 BKN065 17/ RMK SC6SC1 CU ASOCTD

CYQR;2009-08-20 17:00;CYQR 201700Z 35017G22KT 15SM BKN016 BKN065 17/12 A3004 RMK SC6SC1 CU ASOCTD SLP181

CYQR;2009-08-20 18:00;CYQR 201800Z 34018G24KT 15SM BKN018 17/12 A3004 RMK CU6 SLP181

CYQR;2009-08-20 19:00;CYQR 201900Z 33011G18KT 15SM BKN026 BKN300 18/11 A3005 RMK CU6CI0 SLP184

CYQR;2009-08-20 20:00;CYQR 202000Z 34016KT 15SM BKN032 19/10 A3005 RMK CU5 SLP183

CYQR;2009-08-20 21:00;CYQR 202100Z 34016KT 15SM SCT038 21/11 A3005 RMK CU4 SLP182

CYQR;2009-08-20 22:00;CYQR 202200Z 35016G24KT 15SM SCT038 21/11 A3006 RMK CU4 SLP186

CYQR;2009-08-20 23:00;CYQR 202300Z 35017KT 15SM SCT046 21/10 A3007 RMK CU3 SLP188

CYQR;2009-08-21 00:00;CYQR 210000Z 35016KT 15SM FEW046 21/10 A3007 RMK CU2 SLP191

CYQR;2009-08-21 01:00;CYQR 210100Z 35011G17KT 15SM FEW050 FEW120 19/10 A3009 RMK CU1AC1 SLP195

CYQR;2009-08-21 02:00;CYQR 210200Z 36008KT 15SM FEW040 FEW300 17/10 A3010 RMK CU1CI1 SLP199

CYQR;2009-08-21 03:00;CYQR 210300Z 36006KT 15SM FEW300 13/10 A3011 RMK CI1 SLP208

CYQR;2009-08-21 04:00;CYQR 210400Z 35006KT 15SM SKC 12/10 A3013 RMK SLP213

CYQR;2009-08-21 05:00;CYQR 210500Z 01005KT 15SM SKC 10/09 A3014 RMK SLP216

CYQR;2009-08-21 06:00;CYQR 210600Z 03004KT 15SM SKC 12/09 A3015 RMK SLP219

CYQR;2009-08-21 07:00;CYQR 210700Z 12002KT 15SM SKC 07/06 A3015 RMK SLP221

CYQR;2009-08-21 08:00;CYQR 210800Z 00000KT 15SM SKC 07/06 A3016 RMK SLP223

CYQR;2009-08-21 09:00;CYQR 210900Z 29003KT 5SM R13/3500V5000FT/U BR SKC 06/05 A3018 RMK VIS S 2 SLP230

CYQR;2009-08-21 09:14;CYQR 210914Z 30002KT 2 1/2SM BR SCT001 05/ RMK ST3 VIS 8 N-SE

CYQR;2009-08-21 09:48;CYQR 210948Z 00000KT 1 1/2SM R13/2800V6000FT/D BR SCT001 05/ RMK ST4 VIS 8 N-E

CYQR;2009-08-21 10:00;CYQR 211000Z 00000KT 1SM R13/3500VP6000FT/U BR FEW001 04/03 A3018 RMK ST2 VIS 8 N-E SLP231

CYQR;2009-08-21 10:25;CYQR 211025Z 02002KT 6SM R13/4000VP6000FT/U BR FEW001 06/ RMK ST1 VIS 2 S-NW

CYQR;2009-08-21 11:00;CYQR 211100Z 06002KT 12SM FEW001 05/04 A3017 RMK ST1 SLP229

CYQR;2009-08-21 12:00;CYQR 211200Z 10004KT 12SM MIFG FEW300 06/05 A3017 RMK CI0 SLP228

CYQR;2009-08-21 13:00;CYQR 211300Z 12003KT 15SM VCFG FEW300 06/05 A3018 RMK CI0 SLP230

CYQR;2009-08-21 14:00;CYQR 211400Z 16004KT 15SM FEW300 12/10 A3018 RMK CI1 SLP232

CYQR;2009-08-21 15:00;CYQR 211500Z 15008KT 15SM FEW016 SCT300 14/10 A3018 RMK CU1CI1 TR CU SLP231

CYQR;2009-08-21 16:00;CYQR 211600Z 12005KT 15SM FEW020 BKN300 15/10 A3018 RMK CU1CI4 CC ACOCTD SLP230

CYQR;2009-08-21 17:00;CYQR 211700Z 16004KT 15SM FEW024 FEW300 17/10 A3017 RMK CF1CI2 SLP229

CYQR;2009-08-21 18:00;CYQR 211800Z 15006KT 15SM FEW024 FEW300 18/10 A3016 RMK CF1CI2 SLP223

CYQR;2009-08-21 19:00;CYQR 211900Z 16008KT 15SM FEW035 FEW300 19/10 A3013 RMK CF1CI0 SLP212

CYQR;2009-08-21 20:00;CYQR 212000Z 15009KT 15SM FEW040 FEW160 FEW300 20/10 A3011 RMK CF1AC1CI0 SLP207

CYQR;2009-08-21 21:00;CYQR 212100Z 15010KT 15SM FEW160 FEW300 21/10 A3009 RMK AC1CI1 SLP202

CYQR;2009-08-21 22:00;CYQR 212200Z 15010G15KT 15SM FEW094 SCT300 21/10 A3007 RMK AC2CI1 SLP195

CYQR;2009-08-21 23:00;CYQR 212300Z 16014KT 15SM FEW050 FEW160 FEW300 22/10 A3004 RMK CF1AC1CI1 SLP185

CYQR;2009-08-22 00:00;CYQR 220000Z 15015KT 15SM FEW050 FEW160 FEW300 21/09 A3000 RMK CF1AC1CI1 SLP170

CYQR;2009-08-22 01:00;CYQR 220100Z 14009KT 15SM FEW300 20/10 A3001 RMK CI1 SLP174

CYQR;2009-08-22 02:00;CYQR 220200Z 13009KT 15SM FEW300 17/10 A2999 RMK CI1 SLP168

CYQR;2009-08-22 03:00;CYQR 220300Z 13011KT 15SM FEW300 16/10 A3000 RMK CI1 SLP167

CYQR;2009-08-22 04:00;CYQR 220400Z 14013KT 15SM SKC 15/09 A2998 RMK SLP162

CYQR;2009-08-22 05:00;CYQR 220500Z 14014KT 15SM SKC 14/09 A2999 RMK SLP164

CYQR;2009-08-22 06:00;CYQR 220600Z 14014KT 15SM SKC 13/10 A2998 RMK SLP160

CYQR;2009-08-22 07:00;CYQR 220700Z 14014KT 15SM FEW100 12/10 A2997 RMK AC1 SLP157

CYQR;2009-08-22 08:00;CYQR 220800Z 14015G20KT 15SM FEW100 12/10 A2996 RMK AC1 SLP153

CYQR;2009-08-22 09:00;CYQR 220900Z 14017KT 15SM SKC 12/09 A2992 RMK SLP139

CYQR;2009-08-22 10:00;CYQR 221000Z 15017G22KT 15SM FEW250 12/09 A2990 RMK CI0 SLP131

CYQR;2009-08-22 11:00;CYQR 221100Z 15015G21KT 15SM FEW060CB BKN300 12/09 A2986 RMK CB2CI2 LTGCG SW AND W SLP120

CYQR;2009-08-22 12:00;CYQR 221200Z 16017KT 15SM FEW060CB SCT100 BKN300 12/09 A2985 RMK CB2AC2CI2 LTGCG SW AND W SLP114

CYQR;2009-08-22 13:00;CYQR 221300Z 14015G20KT 15SM FEW060CB SCT100 13/10 A2982 RMK CB2AC2 SLP105

CYQR;2009-08-22 14:00;CYQR 221400Z 15015KT 15SM BKN087CB BKN300 13/10 A2983 RMK CB5CI0 SLP107

CYQR;2009-08-22 15:00;CYQR 221500Z 17014G21KT 15SM BKN085CB BKN300 15/10 A2982 RMK CB5CI0 SLP106

CYQR;2009-08-22 15:05;CYQR 221505Z 16013G19KT 15SM -SHRA BKN085CB BKN300 14/ RMK CB5CI0

CYQR;2009-08-22 15:35;CYQR 221535Z 18013G18KT 15SM FEW085 BKN300 16/ RMK AC2CI2 ACC EMBD

CYQR;2009-08-22 16:00;CYQR 221600Z 17014G19KT 15SM FEW085 BKN300 17/11 A2982 RMK AC1CI2 SLP104

CYQR;2009-08-22 17:00;CYQR 221700Z 18012G21KT 15SM FEW030 FEW300 21/12 A2979 RMK CF1CI1 SLP097

CYQR;2009-08-22 18:00;CYQR 221800Z 21011KT 15SM FEW040 FEW080 FEW300 23/13 A2979 RMK CF1ACC1CI1 SLP091

CYQR;2009-08-22 19:00;CYQR 221900Z 27011G17KT 15SM FEW300 28/15 A2978 RMK CI0 SLP087

CYQR;2009-08-22 20:00;CYQR 222000Z 30018KT 15SM FEW110 FEW300 30/15 A2978 RMK ACC1CI0 TR ACC DIST S SLP087

CYQR;2009-08-22 21:00;CYQR 222100Z 29014G21KT 15SM FEW110 FEW300 30/15 A2979 RMK ACC1CI1 SLP088

CYQR;2009-08-22 22:00;CYQR 222200Z 32018KT 15SM FEW300 29/14 A2980 RMK CI1 SLP093

CYQR;2009-08-22 23:00;CYQR 222300Z 33014G19KT 15SM FEW300 27/15 A2983 RMK CI0 SLP100

CYQR;2009-08-23 00:00;CYQR 230000Z 34013KT 15SM FEW300 26/15 A2984 RMK CI1 SLP107

CYQR;2009-08-23 01:00;CYQR 230100Z 34010KT 15SM FEW300 24/14 A2985 RMK CI1 SLP111

CYQR;2009-08-23 02:00;CYQR 230200Z 35008KT 15SM FEW300 21/14 A2986 RMK CI0 SLP115

CYQR;2009-08-23 03:00;CYQR 230300Z 03003KT 15SM FEW300 19/13 A2989 RMK CI0 SLP127

CYQR;2009-08-23 04:00;CYQR 230400Z 34002KT 15SM SKC 15/12 A2991 RMK SLP133

CYQR;2009-08-23 05:00;CYQR 230500Z 04005KT 15SM SKC 15/12 A2991 RMK SLP135

CYQR;2009-08-23 06:00;CYQR 230600Z 04006KT 15SM SKC 15/13 A2991 RMK SLP132

CYQR;2009-08-23 07:00;CYQR 230700Z 18005KT 15SM SKC 11/10 A2993 RMK SLP137

CYQR;2009-08-23 08:00;CYQR 230800Z 00000KT 15SM SKC 11/09 A2991 RMK SLP131

CYQR;2009-08-23 09:00;CYQR 230900Z 00000KT 10SM R13/3000V5000FT/N BCFG SKC 10/09 A2990 RMK VIS W 1 BR SLP128

CYQR;2009-08-23 09:26;CYQR 230926Z 23002KT 1SM R13/2400FT/N BR SKC 08/ RMK FG2 VIS LWR SW-NW

CYQR;2009-08-23 09:30;CYQR 230930Z 21002KT 1/4SM R13/1600FT/N FG SKC 08/ RMK FG5 VIS NE-E 10

CYQR;2009-08-23 09:38;CYQR 230938Z 00000KT 1/2SM R13/2600FT/N FG SKC 08/ RMK FG4

CYQR;2009-08-23 09:51;CYQR 230951Z 03002KT 6SM R13/3500FT/N BR SKC 09/ RMK VIS SW-NW 1 BR

CYQR;2009-08-23 10:00;CYQR 231000Z 03003KT 12SM R13/3000V4500FT/N PRFG SKC 10/09 A2990 RMK VIS W 3/4 BR SLP128

CYQR;2009-08-23 11:00;CYQR 231100Z 09003KT 12SM SKC 10/10 A2991 RMK SLP129

CYQR;2009-08-23 12:00;CYQR 231200Z 12005KT 12SM SKC 09/09 A2993 RMK VIS 1 1/2 SW-NW DUE FG BNK SLP139

CYQR;2009-08-23 12:34;CYQR 231234Z 12005KT 3/4SM R13/P6000FT/N BR SKC 10/ RMK FG3

CYQR;2009-08-23 12:38;CYQR 231238Z 11005KT 1/2SM R13/P6000FT/D FG SKC 11/ RMK FG6

CYQR;2009-08-23 12:42;CYQR 231242Z 12005KT 1/4SM R13/3500VP6000FT/D FG VV001 11/ RMK FG8

CYQR;2009-08-23 13:00;CYQR 231300Z 10004KT 1/2SM R13/2400FT/N FG SKC 11/11 A2992 RMK FG6 SLP137

CYQR;2009-08-23 13:04;CYQR 231304Z 10003KT 1 1/2SM BR FEW300 12/ RMK FG2CI1 VIS S 1

CYQR;2009-08-23 13:14;CYQR 231314Z 11003KT 3SM BR FEW001 FEW300 13/ RMK SF2CI0 VIS NE-SE 2

CYQR;2009-08-23 14:00;CYQR 231400Z 14004KT 15SM FEW002 FEW300 14/13 A2994 RMK SF1CI0 SLP142

CYQR;2009-08-23 15:00;CYQR 231500Z 14008KT 15SM FEW012 FEW300 17/14 A2994 RMK SC1CI0 SLP143

CYQR;2009-08-23 16:00;CYQR 231600Z 12012KT 15SM SCT300 20/14 A2992 RMK CI0 SLP136

CYQR;2009-08-23 17:00;CYQR 231700Z 11013KT 15SM FEW120 BKN300 22/13 A2992 RMK AC2CI1 SLP136

CYQR;2009-08-23 18:00;CYQR 231800Z 13013KT 15SM FEW120 OVC300 24/13 A2990 RMK AC2CI2 SLP127

CYQR;2009-08-23 19:00;CYQR 231900Z 14015G20KT 15SM SCT120 OVC300 25/13 A2988 RMK AC3CI2 SLP121

CYQR;2009-08-23 20:00;CYQR 232000Z 13014G19KT 15SM VCSH SCT120 OVC300 24/14 A2985 RMK AC4CI2 ACC ASOCTD SLP113

CYQR;2009-08-23 20:41;CYQR 232041Z 11011KT 15SM -SHRA FEW010 FEW027 BKN078 OVC120 24/ RMK SC1CU2AC2AC2 ACC ASOCTD

CYQR;2009-08-23 21:00;CYQR 232100Z 11012KT 15SM VCSH SCT027 BKN071 BKN120 24/14 A2984 RMK SC3AC2AC2 ACC EMBD SLP109

CYQR;2009-08-23 22:00;CYQR 232200Z 10010G15KT 15SM FEW027 SCT071 BKN120 OVC300 25/15 A2983 RMK SC1AC2AC4CI0 ACC EMBD SLP105

CYQR;2009-08-23 23:00;CYQR 232300Z 11013KT 15SM FEW027 SCT071 BKN120 OVC300 24/15 A2981 RMK SC1AC2AC4CI0 ACC EMBD SLP099

CYQR;2009-08-24 00:00;CYQR 240000Z 11011KT 15SM FEW027 SCT071 BKN120 OVC300 24/15 A2979 RMK SC1AC2AC4CI0 CB EMBD SLP093

CYQR;2009-08-24 01:00;CYQR 240100Z 11016KT 15SM FEW030 BKN089 OVC300 23/13 A2977 RMK SC1AC5CI2 SLP086

CYQR;2009-08-24 02:00;CYQR 240200Z 12014KT 15SM BKN100 OVC300 22/14 A2978 RMK AC6CI2 CVCTV CLD EMBD SLP089

CYQR;2009-08-24 02:21;CYQR 240221Z 12012G18KT 15SM TS BKN100 OVC300 21/ RMK AC6CI2 CB EMBD

CYQR;2009-08-24 02:24;CYQR 240224Z 12010G16KT 12SM -TSRA OVC100 21/ RMK AC8 CB EMBD

CYQR;2009-08-24 03:00;CYQR 240300Z 08006G22KT 15SM -TSRA BKN024CB OVC100 20/14 A2983 RMK CB5AC3 PRESRR SLP105

CYQR;2009-08-24 03:11;CYQR 240311Z 11011G16KT 15SM -SHRA OVC024 20/ RETS RMK SC8 CB EMBD

CYQR;2009-08-24 04:00;CYQR 240400Z 12022G27KT 15SM -SHRA OVC048 19/14 A2977 RETS RMK SC8 CVCTV CLD EMBD PRESFR SLP085

CYQR;2009-08-24 05:00;CYQR 240500Z 14021G31KT 15SM -SHRA SCT041CB OVC065 18/14 A2976 RMK CB3SC5 LTGCG S-SW SLP083

CYQR;2009-08-24 05:05;CYQR 240505Z 14020G30KT 15SM -TSRA SCT041CB OVC065 17/ RMK CB4SC4

CYQR;2009-08-24 05:38;CYQR 240538Z 14020G30KT 12SM -SHRA BKN024 OVC065 17/ RETS RMK SC5SC3 CB EMBD

CYQR;2009-08-24 06:00;CYQR 240600Z 14018G28KT 12SM -SHRA OVC021 17/14 A2976 RETS RMK SC8 CVCTV CLD EMBD SLP079

CYQR;2009-08-24 07:00;CYQR 240700Z 15022G31KT 15SM SCT040 OVC060 17/13 A2974 RMK SC4SC4 SLP073

CYQR;2009-08-24 07:27;CYQR 240727Z 14021G29KT 15SM SCT043 OVC080 16/ RMK SC4AC4

CYQR;2009-08-24 08:00;CYQR 240800Z 15019G27KT 15SM -SHRA SCT043 OVC074 16/13 A2974 RMK SC3AC5 SLP073

CYQR;2009-08-24 08:27;CYQR 240827Z 14013G22KT 15SM SCT043 OVC074 16/ RMK SC3AC5

CYQR;2009-08-24 09:00;CYQR 240900Z 16010KT 15SM FEW043 OVC100 15/12 A2975 RMK SC2AC6 SLP076

CYQR;2009-08-24 10:00;CYQR 241000Z 19003KT 15SM FEW040 BKN100 14/12 A2979 RMK SC2AC6 SLP089

CYQR;2009-08-24 11:00;CYQR 241100Z 27003KT 15SM SCT016 BKN076 13/12 A2980 RMK SC3AC4 SLP092

CYQR;2009-08-24 11:39;CYQR 241139Z 30004KT 15SM BKN014 OVC093 13/ RMK SC6AC2

CYQR;2009-08-24 12:00;CYQR 241200Z 28003KT 15SM OVC014 14/13 A2980 RMK SC8 SLP093

CYQR;2009-08-24 13:00;CYQR 241300Z 30005KT 15SM OVC012 OVC079 14/13 A2983 RMK SC7AC1 SLP104

CYQR;2009-08-24 14:00;CYQR 241400Z 00000KT 15SM OVC012 15/13 A2984 RMK SC8 SLP108

CYQR;2009-08-24 14:23;CYQR 241423Z 19002KT 15SM BKN017 OVC045 16/ RMK SC7SC1

CYQR;2009-08-24 15:00;CYQR 241500Z 21003KT 15SM BKN021 OVC045 16/14 A2985 RMK SC6SC2 SLP112

CYQR;2009-08-24 16:00;CYQR 241600Z 27005KT 15SM BKN011 OVC024 17/14 A2986 RMK SC6SC2 SLP115

CYQR;2009-08-24 17:00;CYQR 241700Z 30010KT 12SM OVC010 16/13 A2989 RMK SC8 SLP123

CYQR;2009-08-24 18:00;CYQR 241800Z 30010KT 12SM OVC009 17/14 A2989 RMK SC8 SLP129

CYQR;2009-08-24 18:07;CYQR 241807Z 31009KT 12SM SCT008 OVC013 17/ RMK SC4SC4

CYQR;2009-08-24 19:00;CYQR 241900Z 33010G15KT 15SM BKN015 OVC030 19/14 A2990 RMK SC6SC1 SLP130

CYQR;2009-08-24 20:00;CYQR 242000Z 33016KT 15SM FEW027 BKN120 OVC300 20/13 A2991 RMK SC2AC3CI2 SLP134

CYQR;2009-08-24 21:00;CYQR 242100Z 32017KT 15SM FEW030 BKN120 BKN300 20/10 A2992 RMK SC1AC6CI2 SLP137

CYQR;2009-08-24 22:00;CYQR 242200Z 33013KT 15SM FEW120 BKN300 20/09 A2994 RMK AC2CI3 SLP144

CYQR;2009-08-24 23:00;CYQR 242300Z 34010KT 15SM FEW300 21/08 A2995 RMK CI2 SLP145

CYQR;2009-08-25 00:00;CYQR 250000Z 34011KT 15SM FEW300 20/06 A2995 RMK CI1 SLP149

CYQR;2009-08-25 01:00;CYQR 250100Z 36004KT 15SM FEW100 19/09 A2996 RMK ACC1 SLP152

CYQR;2009-08-25 02:00;CYQR 250200Z 00000KT 15SM FEW300 17/10 A2997 RMK CI0 SLP154

CYQR;2009-08-25 03:00;CYQR 250300Z 23006KT 15SM SKC 12/09 A2999 RMK SLP164

CYQR;2009-08-25 04:00;CYQR 250400Z 23004KT 15SM SKC 11/08 A2999 RMK SLP165

CYQR;2009-08-25 05:00;CYQR 250500Z 22005KT 15SM SKC 09/07 A3000 RMK SLP168

CYQR;2009-08-25 06:00;CYQR 250600Z 21004KT 15SM SKC 08/06 A3000 RMK SLP170

CYQR;2009-08-25 07:00;CYQR 250700Z 19003KT 15SM SKC 07/06 A3000 RMK SLP172

CYQR;2009-08-25 08:00;CYQR 250800Z 20002KT 15SM SKC 07/05 A3001 RMK SLP175

CYQR;2009-08-25 09:00;CYQR 250900Z 16004KT 15SM SKC 07/05 A3002 RMK SLP175

CYQR;2009-08-25 10:00;CYQR 251000Z 15004KT 15SM SKC 06/04 A3002 RMK SLP175

CYQR;2009-08-25 11:00;CYQR 251100Z 15006KT 15SM SKC 06/05 A3002 RMK SLP175

CYQR;2009-08-25 12:00;CYQR 251200Z 12006KT 15SM SKC 06/05 A3002 RMK SLP175

CYQR;2009-08-25 13:00;CYQR 251300Z 14007KT 15SM SKC 09/07 A3002 RMK SLP176

CYQR;2009-08-25 14:00;CYQR 251400Z 14006KT 15SM SKC 12/09 A3002 RMK SLP175

CYQR;2009-08-25 15:00;CYQR 251500Z 17008KT 15SM SKC 15/10 A3001 RMK SLP173

CYQR;2009-08-25 16:00;CYQR 251600Z 18008KT 15SM SKC 19/11 A3000 RMK SLP171

CYQR;2009-08-25 17:00;CYQR 251700Z 21008KT 15SM SKC 21/13 A3000 RMK SLP170

CYQR;2009-08-25 18:00;CYQR 251800Z 19005KT 15SM SKC 24/14 A2998 RMK SLP160

CYQR;2009-08-25 19:00;CYQR 251900Z 25007KT 15SM FEW050 26/13 A2997 RMK CU1 SLP155

CYQR;2009-08-25 20:00;CYQR 252000Z 20006KT 15SM FEW055 27/14 A2995 RMK CU1 SLP150

CYQR;2009-08-25 21:00;CYQR 252100Z 26004KT 15SM FEW063 28/11 A2994 RMK CU1 SLP144

CYQR;2009-08-25 22:00;CYQR 252200Z 18003KT 15SM FEW072 28/10 A2993 RMK CU1 SLP141

CYQR;2009-08-25 23:00;CYQR 252300Z 18009KT 15SM FEW075 29/10 A2992 RMK CF1 SLP138

CYQR;2009-08-26 00:00;CYQR 260000Z 18009KT 15SM SKC 27/09 A2992 RMK SLP136

CYQR;2009-08-26 01:00;CYQR 260100Z 16009KT 15SM SKC 25/11 A2991 RMK SLP135

CYQR;2009-08-26 02:00;CYQR 260200Z 14012KT 15SM FEW300 23/12 A2992 RMK CI1 SLP136

CYQR;2009-08-26 03:00;CYQR 260300Z 15012KT 15SM SKC 21/14 A2994 RMK SLP141

CYQR;2009-08-26 04:00;CYQR 260400Z 15013KT 15SM SKC 19/13 A2994 RMK SLP142

CYQR;2009-08-26 05:00;CYQR 260500Z 14012KT 15SM SKC 18/13 A2994 RMK SLP143

CYQR;2009-08-26 06:00;CYQR 260600Z 14012KT 15SM SKC 16/12 A2994 RMK SLP139

CYQR;2009-08-26 07:00;CYQR 260700Z 14008KT 15SM SKC 15/12 A2994 RMK SLP140

CYQR;2009-08-26 08:00;CYQR 260800Z 12009KT 15SM SKC 13/11 A2994 RMK SLP139

CYQR;2009-08-26 09:00;CYQR 260900Z 14008KT 15SM SKC 13/11 A2994 RMK SLP140

CYQR;2009-08-26 10:00;CYQR 261000Z 13010KT 15SM SKC 13/10 A2994 RMK SLP141

CYQR;2009-08-26 11:00;CYQR 261100Z 13010KT 15SM SKC 13/10 A2994 RMK SLP141

CYQR;2009-08-26 12:00;CYQR 261200Z 13011KT 15SM FEW300 12/10 A2995 RMK CI1 SLP144

CYQR;2009-08-26 13:00;CYQR 261300Z 13010KT 15SM FEW140 FEW300 12/10 A2995 RMK AC1CI1 SLP145

CYQR;2009-08-26 14:00;CYQR 261400Z 14011KT 15SM FEW300 14/10 A2995 RMK CI1 SLP145

CYQR;2009-08-26 15:00;CYQR 261500Z 14010KT 15SM FEW300 18/12 A2995 RMK CI0 SLP145

CYQR;2009-08-26 16:00;CYQR 261600Z 17006KT 15SM FEW120 BKN300 21/12 A2994 RMK ACC1CI0 SLP143

CYQR;2009-08-26 17:00;CYQR 261700Z 22008KT 15SM FEW120 BKN300 25/12 A2995 RMK ACC2CI1 SLP146

CYQR;2009-08-26 18:00;CYQR 261800Z 25008KT 15SM FEW120 BKN300 26/10 A2996 RMK ACC2CI1 SLP145

CYQR;2009-08-26 19:00;CYQR 261900Z 30007KT 15SM FEW070 SCT130 BKN300 28/11 A2995 RMK ACC1AC2CI2 SLP144

CYQR;2009-08-26 20:00;CYQR 262000Z 31008KT 15SM SCT130 SCT160 BKN300 28/10 A2995 RMK ACC3AC1CI2 SLP144

CYQR;2009-08-26 21:00;CYQR 262100Z 31003KT 15SM FEW130 SCT160 OVC300 30/10 A2996 RMK ACC2AC2CI2 SLP145

CYQR;2009-08-26 22:00;CYQR 262200Z 27004KT 15SM FEW120 BKN300 30/11 A2994 RMK AC2CI3 SLP141

CYQR;2009-08-26 23:00;CYQR 262300Z 01011KT 15SM FEW120 FEW160 OVC300 29/10 A2995 RMK AC1AC1CI2 SLP142

CYQR;2009-08-27 00:00;CYQR 270000Z 36004KT 15SM FEW120 FEW160 BKN240 OVC300 27/13 A2996 RMK AC1AC1CI2CI1 SLP148

CYQR;2009-08-27 01:00;CYQR 270100Z 04002KT 15SM FEW120 FEW160 BKN300 26/12 A2996 RMK AC1AC1CI3 ACC ASOCTD SLP147

CYQR;2009-08-27 02:00;CYQR 270200Z 09003KT 15SM FEW120 SCT300 22/12 A2996 RMK AC1CI2 ACC AOCTD SLP147

CYQR;2009-08-27 03:00;CYQR 270300Z 03005KT 15SM SCT120 BKN300 20/12 A2997 RMK AC3CI3 SLP152

CYQR;2009-08-27 04:00;CYQR 270400Z 05008KT 15SM -RA SCT046 OVC120 21/12 A2998 RMK SC4AC4 SLP154

CYQR;2009-08-27 05:00;CYQR 270500Z 04007KT 15SM FEW033 FEW059 OVC120 20/12 A2998 RMK SC1SC2AC6 SLP154

CYQR;2009-08-27 05:29;CYQR 270529Z 31006KT 15SM SCT039 SCT059 OVC120 17/ RMK SC3SC1AC4 CB EMBD LTGCG DSNT SE + S

CYQR;2009-08-27 06:00;CYQR 270600Z 04004KT 15SM FEW039 SCT063 OVC120 17/13 A3001 RMK SC2SC2AC4 SLP162

CYQR;2009-08-27 07:00;CYQR 270700Z 34005KT 15SM FEW040 OVC120 16/13 A3000 RMK SC2AC6 SLP161

CYQR;2009-08-27 08:00;CYQR 270800Z 09008KT 15SM FEW040 OVC120 18/14 A2999 RMK SC2AC6 SLP155

CYQR;2009-08-27 09:00;CYQR 270900Z 07005KT 15SM FEW040 SCT120 16/14 A3000 RMK SC1AC2 SLP157

CYQR;2009-08-27 10:00;CYQR 271000Z 07007KT 15SM FEW008 16/14 A3001 RMK SF1 CLD LYR OVER CITY SLP160

CYQR;2009-08-27 10:23;CYQR 271023Z 02006KT 12SM BKN006 15/ RMK SF5

CYQR;2009-08-27 10:43;CYQR 271043Z 02007KT 12SM OVC004 15/ RMK SF7

CYQR;2009-08-27 11:00;CYQR 271100Z 05008KT 12SM OVC004 15/14 A3005 RMK ST8 SLP173

CYQR;2009-08-27 12:00;CYQR 271200Z 06006KT 12SM OVC003 15/13 A3008 RMK ST8 SLP187

CYQR;2009-08-27 12:27;CYQR 271227Z 08009KT 5SM BR OVC002 15/ RMK ST8

CYQR;2009-08-27 12:43;CYQR 271243Z 07008KT 2 1/2SM BR OVC003 14/ RMK ST8

CYQR;2009-08-27 12:52;CYQR 271252Z 07009KT 1 1/2SM BR OVC003 14/ RMK ST8

CYQR;2009-08-27 13:00;CYQR 271300Z 07008KT 2SM BR OVC002 14/13 A3009 RMK FG2ST6 SLP190

CYQR;2009-08-27 13:19;CYQR 271319Z 06008KT 3SM BR OVC003 14/ RMK ST8

CYQR;2009-08-27 13:33;CYQR 271333Z 07010KT 3SM BR OVC004 15/ RMK ST8

CYQR;2009-08-27 14:00;CYQR 271400Z 07010KT 3SM BR OVC004 15/13 A3011 RMK ST8 SLP198

CYQR;2009-08-27 14:30;CYQR 271430Z 04009KT 12SM OVC005 15/ RMK ST8

CYQR;2009-08-27 14:48;CYQR 271448Z 07008KT 15SM OVC007 15/ RMK SC8

CYQR;2009-08-27 15:00;CYQR 271500Z 07010KT 15SM OVC009 16/13 A3013 RMK SC8 SLP207

CYQR;2009-08-27 16:00;CYQR 271600Z 04009KT 15SM OVC008 16/13 A3014 RMK SC8 SLP213

CYQR;2009-08-27 17:00;CYQR 271700Z 04008KT 15SM OVC009 16/14 A3017 RMK SC8 SLP221

CYQR;2009-08-27 17:05;CYQR 271705Z 05007KT 15SM OVC010 16/ RMK SC8

CYQR;2009-08-27 18:00;CYQR 271800Z 03007KT 15SM OVC010 17/14 A3018 RMK SC8 SLP227

CYQR;2009-08-27 19:00;CYQR 271900Z 03006KT 15SM OVC012 17/14 A3019 RMK SC8 SLP231

CYQR;2009-08-27 20:00;CYQR 272000Z 04008KT 15SM BKN014 OVC024 18/14 A3020 RMK SC7SC1 SLP233

CYQR;2009-08-27 20:20;CYQR 272020Z 03007KT 15SM BKN016 OVC041 18/ RMK SC7SC1

CYQR;2009-08-27 21:00;CYQR 272100Z 01007KT 15SM BKN018 OVC041 19/14 A3022 RMK SC7SC1 SLP238

CYQR;2009-08-27 22:00;CYQR 272200Z 34008KT 15SM SCT023 BKN040 20/14 A3022 RMK SC4SC3 SLP240

CYQR;2009-08-27 23:00;CYQR 272300Z 36007KT 15SM BKN034 BKN091 20/13 A3023 RMK SC6AC2 SLP242

CYQR;2009-08-28 00:00;CYQR 280000Z 33007KT 15SM BKN042 19/14 A3024 RMK SC7 CU ASOCTD SLP248

CYQR;2009-08-28 01:00;CYQR 280100Z 04009KT 15SM BKN028 18/13 A3025 RMK SC6 SLP250

CYQR;2009-08-28 02:00;CYQR 280200Z 04010KT 15SM FEW039 BKN300 16/12 A3027 RMK SC2CI2 SLP257

CYQR;2009-08-28 03:00;CYQR 280300Z 03008KT 15SM BKN028 OVC300 16/12 A3029 RMK SC6CI2 SLP265

CYQR;2009-08-28 04:00;CYQR 280400Z 04007KT 15SM OVC035 15/12 A3029 RMK SC8 SLP267

CYQR;2009-08-28 05:00;CYQR 280500Z 02006KT 15SM OVC035 15/12 A3030 RMK SC8 SLP269

CYQR;2009-08-28 06:00;CYQR 280600Z 01004KT 15SM OVC035 14/12 A3031 RMK SC8 SLP272

CYQR;2009-08-28 07:00;CYQR 280700Z 01005KT 15SM SCT035 13/11 A3030 RMK SC3 SLP271

CYQR;2009-08-28 08:00;CYQR 280800Z 34007KT 15SM FEW035 11/10 A3030 RMK SC2 SLP271

CYQR;2009-08-28 09:00;CYQR 280900Z 01006KT 15SM SCT028 11/10 A3031 RMK SC3 SLP272

CYQR;2009-08-28 10:00;CYQR 281000Z 01004KT 15SM OVC028 13/11 A3032 RMK SC8 SLP275

CYQR;2009-08-28 11:00;CYQR 281100Z 31004KT 15SM OVC026 12/11 A3032 RMK SC8 SLP277

CYQR;2009-08-28 12:00;CYQR 281200Z 28002KT 15SM FEW014 OVC026 12/11 A3032 RMK SC2SC6 SLP277

CYQR;2009-08-28 13:00;CYQR 281300Z 31004KT 15SM BKN011 BKN023 12/11 A3033 RMK SC5SC2 SLP280

CYQR;2009-08-28 13:19;CYQR 281319Z 33004KT 15SM FEW010 OVC027 13/ RMK SF2SC6

CYQR;2009-08-28 14:00;CYQR 281400Z CCA 32005KT 12SM BKN030 13/12 A3033 RMK SC7 SLP281

CYQR;2009-08-28 14:18;CYQR 281418Z 32007KT 10SM FEW004 BKN030 14/ RMK SF2SC6

CYQR;2009-08-28 15:00;CYQR 281500Z 36005KT 15SM SCT008 BKN030 15/12 A3034 RMK CU4SC2 SLP283

CYQR;2009-08-28 16:00;CYQR 281600Z 01007KT 15SM BKN021 17/11 A3033 RMK CU5 SLP281

CYQR;2009-08-28 17:00;CYQR 281700Z 34008KT 15SM BKN025 17/11 A3033 RMK SC6 CU ASOCTD SLP282

CYQR;2009-08-28 18:00;CYQR 281800Z 33007KT 15SM FEW033 FEW350 19/11 A3032 RMK CU2CI0 SLP275

CYQR;2009-08-28 19:00;CYQR 281900Z 33009KT 15SM FEW040 20/10 A3030 RMK CF1 SLP270

CYQR;2009-08-28 20:00;CYQR 282000Z 33008KT 15SM FEW040 21/10 A3029 RMK CU1 SLP266

CYQR;2009-08-28 21:00;CYQR 282100Z 34008KT 15SM FEW045 22/09 A3028 RMK CF1 SLP262

CYQR;2009-08-28 22:00;CYQR 282200Z 03009G15KT 15SM FEW060 FEW300 22/08 A3027 RMK CF1CI0 SLP257

CYQR;2009-08-28 23:00;CYQR 282300Z 02007KT 15SM FEW056 22/08 A3026 RMK CF1 SLP255

CYQR;2009-08-29 00:00;CYQR 290000Z 03005KT 15SM FEW056 FEW300 22/08 A3025 RMK CF1CI1 SLP252

CYQR;2009-08-29 01:00;CYQR 290100Z 01007KT 15SM FEW060 FEW300 21/08 A3025 RMK CF1CI1 SLP250

CYQR;2009-08-29 02:00;CYQR 290200Z 11002KT 15SM FEW300 18/08 A3024 RMK CI1 SLP247

CYQR;2009-08-29 03:00;CYQR 290300Z 19005KT 15SM SKC 15/08 A3024 RMK SLP251

CYQR;2009-08-29 04:00;CYQR 290400Z 18005KT 15SM SKC 14/09 A3025 RMK SLP252

CYQR;2009-08-29 05:00;CYQR 290500Z 19005KT 15SM SKC 12/08 A3025 RMK SLP252

CYQR;2009-08-29 06:00;CYQR 290600Z 21005KT 15SM SKC 10/07 A3024 RMK SLP251

CYQR;2009-08-29 07:00;CYQR 290700Z 00000KT 15SM SKC 09/07 A3024 RMK SLP251

CYQR;2009-08-29 08:00;CYQR 290800Z 00000KT 15SM SKC 10/07 A3024 RMK SLP252

CYQR;2009-08-29 09:00;CYQR 290900Z 01002KT 15SM FEW065 09/07 A3024 RMK SC1 SLP251

CYQR;2009-08-29 10:00;CYQR 291000Z 35002KT 15SM FEW054 10/07 A3025 RMK SC1 SLP252

CYQR;2009-08-29 11:00;CYQR 291100Z 10003KT 15SM FEW015 FEW056 09/07 A3025 RMK SC2SC1 SLP252

CYQR;2009-08-29 12:00;CYQR 291200Z 09002KT 15SM FEW058 09/08 A3025 RMK SC2 SLP254

CYQR;2009-08-29 14:00;CYQR 291400Z 20002KT 15SM FEW060 10/08 A3027 RMK SC2 SLP259

CYQR;2009-08-29 15:00;CYQR 291500Z 12007KT 15SM FEW057 FEW140 17/10 A3027 RMK SC1AC1 SLP258

CYQR;2009-08-29 16:00;CYQR 291600Z 13010KT 15SM FEW059 FEW140 19/09 A3027 RMK SC1AC1 SLP260

CYQR;2009-08-29 17:00;CYQR 291700Z 14004KT 15SM FEW050 20/09 A3027 RMK CF1 SLP260

CYQR;2009-08-29 18:00;CYQR 291800Z 12005KT 15SM FEW052 FEW098 21/08 A3026 RMK CU2AC1 SLP257

CYQR;2009-08-29 19:00;CYQR 291900Z 01004KT 15SM SCT061 21/08 A3025 RMK CU3 SLP252

CYQR;2009-08-29 20:00;CYQR 292000Z 05004KT 15SM FEW060 22/08 A3024 RMK CU1 SLP249

CYQR;2009-08-29 21:00;CYQR 292100Z 05004KT 15SM FEW060 22/07 A3023 RMK CU1 SLP245

CYQR;2009-08-29 22:00;CYQR 292200Z 15003KT 15SM FEW060 23/07 A3022 RMK SC1 SLP242

CYQR;2009-08-29 23:00;CYQR 292300Z 00000KT 15SM FEW080 24/07 A3022 RMK AC1 SLP242

CYQR;2009-08-30 00:00;CYQR 300000Z 11005KT 15SM FEW060 22/07 A3022 RMK CF1 SLP240

CYQR;2009-08-30 01:00;CYQR 300100Z 14007KT 15SM SKC 21/07 A3021 RMK SLP238

CYQR;2009-08-30 02:00;CYQR 300200Z 11007KT 15SM FEW120 FEW300 17/08 A3021 RMK AC1CI0 SLP237

CYQR;2009-08-30 03:00;CYQR 300300Z 12008KT 15SM FEW080 FEW300 13/07 A3022 RMK AC1CI0 SLP243

CYQR;2009-08-30 04:00;CYQR 300400Z 12008KT 15SM FEW300 14/08 A3022 RMK CI0 SLP244

CYQR;2009-08-30 05:00;CYQR 300500Z 14007KT 15SM SKC 12/07 A3023 RMK SLP245

CYQR;2009-08-30 06:00;CYQR 300600Z 15007KT 15SM SKC 12/07 A3023 RMK SLP243

CYQR;2009-08-30 07:00;CYQR 300700Z 14008KT 15SM SKC 10/07 A3022 RMK SLP242

CYQR;2009-08-30 08:00;CYQR 300800Z 13007KT 15SM FEW300 08/06 A3022 RMK CI0 SLP240

CYQR;2009-08-30 09:00;CYQR 300900Z 13008KT 15SM FEW300 08/06 A3021 RMK CI0 SLP240

CYQR;2009-08-30 10:00;CYQR 301000Z 12007KT 15SM SKC 07/06 A3021 RMK SLP239

CYQR;2009-08-30 11:00;CYQR 301100Z 12006KT 15SM SKC 07/06 A3021 RMK SLP238

CYQR;2009-08-30 12:00;CYQR 301200Z 12006KT 15SM FEW300 07/05 A3021 RMK CI1 SLP239

CYQR;2009-08-30 13:00;CYQR 301300Z 13007KT 15SM SCT300 08/06 A3021 RMK CI0 SLP241

CYQR;2009-08-30 14:00;CYQR 301400Z 13006KT 15SM SKC 10/07 A3022 RMK SLP242

CYQR;2009-08-30 15:00;CYQR 301500Z 14006KT 15SM SKC 12/08 A3021 RMK SLP242

CYQR;2009-08-30 16:00;CYQR 301600Z 14004KT 15SM SKC 16/09 A3019 RMK SLP237

CYQR;2009-08-30 17:00;CYQR 301700Z 11005KT 15SM SKC 19/10 A3019 RMK SLP235

CYQR;2009-08-30 18:00;CYQR 301800Z 15006KT 15SM SKC 22/07 A3018 RMK SLP225

CYQR;2009-08-30 19:00;CYQR 301900Z 13006KT 15SM SKC 23/08 A3016 RMK SLP219

CYQR;2009-08-30 20:00;CYQR 302000Z 19009KT 15SM SKC 23/08 A3014 RMK SLP215

CYQR;2009-08-30 21:00;CYQR 302100Z 20011KT 15SM SKC 24/08 A3013 RMK SLP210

CYQR;2009-08-30 22:00;CYQR 302200Z 19008KT 15SM SKC 24/08 A3011 RMK SLP205

CYQR;2009-08-30 23:00;CYQR 302300Z 20006KT 15SM SKC 24/07 A3010 RMK SLP200

CYQR;2009-08-31 00:00;CYQR 310000Z 19007KT 15SM SKC 23/07 A3009 RMK SLP200

CYQR;2009-08-31 01:00;CYQR 310100Z 16006KT 15SM FEW280 21/09 A3008 RMK CI2 SLP195

CYQR;2009-08-31 02:00;CYQR 310200Z 14007KT 15SM FEW280 17/08 A3007 RMK CI1 SLP193

CYQR;2009-08-31 03:00;CYQR 310300Z 15008KT 15SM FEW280 18/09 A3008 RMK CI1 SLP193

CYQR;2009-08-31 04:00;CYQR 310400Z 15009KT 15SM SKC 16/09 A3008 RMK SLP193

CYQR;2009-08-31 05:00;CYQR 310500Z 16009KT 15SM SKC 13/08 A3007 RMK SLP191

CYQR;2009-08-31 06:00;CYQR 310600Z 16008KT 15SM SKC 12/08 A3007 RMK SLP189

CYQR;2009-08-31 07:00;CYQR 310700Z 15008KT 15SM SKC 12/08 A3006 RMK SLP187

CYQR;2009-08-31 08:00;CYQR 310800Z 16009KT 15SM SKC 11/07 A3005 RMK SLP184

CYQR;2009-08-31 09:00;CYQR 310900Z 14008KT 15SM SKC 10/07 A3005 RMK SLP181

CYQR;2009-08-31 10:00;CYQR 311000Z 14008KT 15SM SKC 09/06 A3004 RMK SLP180

CYQR;2009-08-31 11:00;CYQR 311100Z 13008KT 15SM SKC 09/06 A3004 RMK SLP179

CYQR;2009-08-31 12:00;CYQR 311200Z 12009KT 15SM FEW300 09/06 A3004 RMK CI1 SLP180

CYQR;2009-08-31 13:00;CYQR 311300Z 13009KT 15SM FEW300 10/06 A3004 RMK CI1 SLP180

CYQR;2009-08-31 14:00;CYQR 311400Z 14010KT 15SM FEW300 12/08 A3004 RMK CI0 SLP179

CYQR;2009-08-31 15:00;CYQR 311500Z 14009KT 15SM SKC 14/09 A3004 RMK SLP178

CYQR;2009-08-31 16:00;CYQR 311600Z 15008KT 15SM SKC 17/10 A3003 RMK SLP176

CYQR;2009-08-31 17:00;CYQR 311700Z 15010KT 15SM SKC 20/11 A3003 RMK SLP175

CYQR;2009-08-31 18:00;CYQR 311800Z 16013KT 15SM SKC 24/11 A3001 RMK SLP166

CYQR;2009-08-31 19:00;CYQR 311900Z 16016G22KT 15SM SKC 25/09 A2999 RMK SLP160

CYQR;2009-08-31 20:00;CYQR 312000Z 17013G24KT 15SM SKC 25/10 A2997 RMK SLP155

CYQR;2009-08-31 21:00;CYQR 312100Z 15011G18KT 15SM SKC 26/10 A2996 RMK SLP150

CYQR;2009-08-31 22:00;CYQR 312200Z 16013G21KT 15SM SKC 27/10 A2995 RMK SLP146

CYQR;2009-08-31 23:00;CYQR 312300Z 16013KT 15SM SKC 26/10 A2994 RMK SLP142

CYQR;2009-09-01 01:00;CYQR 010100Z 13009KT 15SM FEW300 23/12 A2992 RMK CI1 SLP136

CYQR;2009-09-01 02:00;CYQR 010200Z 12010KT 15SM FEW300 20/13 A2992 RMK CI1 SLP137

CYQR;2009-09-01 03:00;CYQR 010300Z 13011KT 15SM FEW300 20/12 A2993 RMK CI1 SLP141

CYQR;2009-09-01 04:00;CYQR 010400Z 14010KT 15SM FEW300 19/12 A2994 RMK CI1 SLP143

CYQR;2009-09-01 05:00;CYQR 010500Z 14012KT 15SM FEW300 18/12 A2993 RMK CI1 SLP140

CYQR;2009-09-01 06:00;CYQR 010600Z 14010KT 15SM SKC 16/11 A2992 RMK SLP133

CYQR;2009-09-01 07:00;CYQR 010700Z 14009KT 15SM SKC 15/11 A2992 RMK SLP133

CYQR;2009-09-01 08:00;CYQR 010800Z 15012KT 15SM SKC 14/11 A2992 RMK SLP133

CYQR;2009-09-01 09:00;CYQR 010900Z 14011KT 15SM SKC 13/10 A2993 RMK SLP136

CYQR;2009-09-01 10:00;CYQR 011000Z 12008KT 15SM SKC 12/10 A2993 RMK SLP136

CYQR;2009-09-01 11:00;CYQR 011100Z 11008KT 15SM SKC 12/10 A2992 RMK SLP133

CYQR;2009-09-01 12:00;CYQR 011200Z 12009KT 15SM FEW300 12/10 A2992 RMK CI0 SLP135

CYQR;2009-09-01 13:00;CYQR 011300Z 13010KT 15SM FEW300 12/10 A2993 RMK CI0 SLP137

CYQR;2009-09-01 14:00;CYQR 011400Z 14010G15KT 15SM SKC 14/10 A2994 RMK SLP143

CYQR;2009-09-01 15:00;CYQR 011500Z 13009KT 15SM SKC 16/11 A2995 RMK SLP147

CYQR;2009-09-01 16:00;CYQR 011600Z 13007KT 15SM SKC 19/13 A2995 RMK SLP148

CYQR;2009-09-01 17:00;CYQR 011700Z 11005KT 15SM SKC 22/14 A2996 RMK SLP149

CYQR;2009-09-01 18:00;CYQR 011800Z 16007KT 15SM FEW300 25/14 A2995 RMK CI1 SLP144

CYQR;2009-09-01 19:00;CYQR 011900Z 16008KT 15SM SKC 27/13 A2994 RMK SLP140

CYQR;2009-09-01 20:00;CYQR 012000Z 18004KT 15SM SKC 28/13 A2994 RMK SLP138

CYQR;2009-09-01 21:00;CYQR 012100Z 15006KT 15SM SKC 28/14 A2994 RMK SLP140

CYQR;2009-09-01 22:00;CYQR 012200Z 19007KT 15SM SKC 28/13 A2994 RMK SLP139

CYQR;2009-09-01 23:00;CYQR 012300Z 12004KT 15SM SKC 27/14 A2993 RMK SLP137

CYQR;2009-09-02 00:00;CYQR 020000Z 13007KT 15SM SKC 27/14 A2993 RMK SLP139

CYQR;2009-09-02 01:00;CYQR 020100Z 12005KT 12SM SKC 24/15 A2994 RMK HZ SLP141

CYQR;2009-09-02 02:00;CYQR 020200Z 10004KT 12SM FEW300 22/14 A2994 RMK CI1 HZ SLP142

CYQR;2009-09-02 03:00;CYQR 020300Z 12006KT 15SM SKC 20/13 A2996 RMK SLP151

CYQR;2009-09-02 04:00;CYQR 020400Z 10005KT 15SM SKC 19/14 A2996 RMK SLP151

CYQR;2009-09-02 05:00;CYQR 020500Z 08005KT 15SM SKC 19/14 A2997 RMK SLP154

CYQR;2009-09-02 06:00;CYQR 020600Z 12008KT 15SM SKC 16/13 A2998 RMK SLP153

CYQR;2009-09-02 07:00;CYQR 020700Z 12007KT 15SM SKC 16/13 A2999 RMK SLP156

CYQR;2009-09-02 08:00;CYQR 020800Z 12007KT 15SM SKC 14/12 A2999 RMK SLP157

CYQR;2009-09-02 09:00;CYQR 020900Z 10006KT 15SM SKC 13/11 A2999 RMK SLP158

CYQR;2009-09-02 10:00;CYQR 021000Z 12006KT 15SM SKC 13/11 A3000 RMK SLP160

CYQR;2009-09-02 11:00;CYQR 021100Z 12007KT 15SM SKC 13/11 A3000 RMK SLP160

CYQR;2009-09-02 12:00;CYQR 021200Z 12005KT 12SM SKC 13/11 A3001 RMK HZ SLP166

CYQR;2009-09-02 13:00;CYQR 021300Z 14004KT 10SM FEW280 13/11 A3003 RMK CI1 HZ SLP171

CYQR;2009-09-02 14:00;CYQR 021400Z 15004KT 15SM FEW085 15/12 A3005 RMK AC2 SLP177

CYQR;2009-09-02 15:00;CYQR 021500Z 11003KT 15SM FEW080 FEW280 18/13 A3006 RMK AC1CI0 SLP182

CYQR;2009-09-02 16:00;CYQR 021600Z 11003KT 15SM FEW300 21/15 A3007 RMK CI0 SLP185

CYQR;2009-09-02 17:00;CYQR 021700Z 12004KT 15SM SKC 24/16 A3006 RMK SLP184

CYQR;2009-09-02 18:00;CYQR 021800Z 12008KT 15SM FEW050 27/15 A3006 RMK CF1 SLP179

CYQR;2009-09-02 19:00;CYQR 021900Z 13006KT 15SM FEW055 28/15 A3005 RMK CU1 SLP178

CYQR;2009-09-02 20:00;CYQR 022000Z 15005KT 15SM FEW055 28/14 A3005 RMK CU1 SLP177

CYQR;2009-09-02 21:00;CYQR 022100Z 14002KT 15SM FEW060 28/13 A3004 RMK CU1 SLP174

CYQR;2009-09-02 22:00;CYQR 022200Z 11006KT 15SM FEW060 29/13 A3004 RMK CU1 SLP172

CYQR;2009-09-02 23:00;CYQR 022300Z 17006KT 15SM FEW300 28/12 A3004 RMK CI1 SLP172

CYQR;2009-09-03 00:00;CYQR 030000Z 14008KT 15SM FEW300 27/13 A3003 RMK CI1 SLP171

CYQR;2009-09-03 01:00;CYQR 030100Z 14005KT 15SM FEW300 25/13 A3003 RMK CI1 SLP172

CYQR;2009-09-03 02:00;CYQR 030200Z 11005KT 15SM FEW130 FEW300 21/13 A3004 RMK AC1CI0 SLP173

CYQR;2009-09-03 03:00;CYQR 030300Z 12008KT 15SM FEW300 19/13 A3005 RMK CI1 SLP179

CYQR;2009-09-03 04:00;CYQR 030400Z 12007KT 15SM SKC 17/13 A3006 RMK SLP184

CYQR;2009-09-03 05:00;CYQR 030500Z 12007KT 15SM SKC 18/13 A3006 RMK SLP184

CYQR;2009-09-03 06:00;CYQR 030600Z 14010KT 15SM SKC 18/13 A3006 RMK SLP180

CYQR;2009-09-03 07:00;CYQR 030700Z 13009KT 15SM FEW300 16/13 A3007 RMK CI1 SLP181

CYQR;2009-09-03 08:00;CYQR 030800Z 12009KT 15SM FEW300 15/12 A3006 RMK CI1 SLP180

CYQR;2009-09-03 09:00;CYQR 030900Z 14009KT 15SM SKC 15/12 A3007 RMK SLP182

CYQR;2009-09-03 10:00;CYQR 031000Z 13009KT 15SM SKC 14/12 A3008 RMK SLP185

CYQR;2009-09-03 11:00;CYQR 031100Z 13009KT 15SM SKC 14/12 A3008 RMK SLP185

CYQR;2009-09-03 12:00;CYQR 031200Z 12010KT 12SM FEW300 13/11 A3008 RMK CI1 HZ SLP187

CYQR;2009-09-03 13:00;CYQR 031300Z 13010KT 12SM FEW080 FEW300 13/12 A3008 RMK AC1CI0 SLP189

CYQR;2009-09-03 14:00;CYQR 031400Z 13009KT 15SM FEW300 16/13 A3009 RMK CI0 SLP190

CYQR;2009-09-03 15:00;CYQR 031500Z 14010KT 15SM FEW300 19/14 A3008 RMK CI1 SLP189

CYQR;2009-09-03 16:00;CYQR 031600Z 14013KT 15SM FEW300 22/14 A3007 RMK CI0 SLP186

CYQR;2009-09-03 17:00;CYQR 031700Z 16015G21KT 15SM FEW300 25/14 A3006 RMK CI0 SLP184

CYQR;2009-09-03 18:00;CYQR 031800Z 14017KT 15SM FEW300 26/14 A3004 RMK CI0 SLP174

CYQR;2009-09-03 19:00;CYQR 031900Z 17014G20KT 15SM BKN300 27/14 A3003 RMK CI2 SLP168

CYQR;2009-09-03 20:00;CYQR 032000Z 17018KT 15SM BKN300 28/14 A3001 RMK CI2 SLP164

CYQR;2009-09-03 21:00;CYQR 032100Z 16019KT 15SM BKN300 28/14 A2999 RMK CI2 SLP157

CYQR;2009-09-03 22:00;CYQR 032200Z 16018G25KT 15SM BKN300 28/14 A2997 RMK CI1 SLP149

CYQR;2009-09-03 23:00;CYQR 032300Z 17018KT 15SM SCT300 28/14 A2995 RMK CI0 SLP144

CYQR;2009-09-04 00:00;CYQR 040000Z 17018KT 15SM FEW300 28/14 A2994 RMK CI1 SLP138

CYQR;2009-09-04 01:00;CYQR 040100Z 16018KT 15SM FEW300 26/14 A2993 RMK CI1 SLP135

CYQR;2009-09-04 02:00;CYQR 040200Z 15014KT 15SM FEW120 FEW300 23/14 A2992 RMK AC1CI1 SLP132

CYQR;2009-09-04 03:00;CYQR 040300Z 15013KT 15SM FEW300 20/14 A2993 RMK CI1 SLP137

CYQR;2009-09-04 04:00;CYQR 040400Z 15014KT 15SM FEW300 19/14 A2993 RMK CI1 SLP138

CYQR;2009-09-04 05:00;CYQR 040500Z 15015G20KT 15SM FEW150 BKN300 19/14 A2992 RMK AC1CI1 CB TOPS LTNG DIST NW-N SLP134

CYQR;2009-09-04 06:00;CYQR 040600Z 15017KT 15SM FEW150 SCT300 18/14 A2991 RMK AC2CI0 SLP128

CYQR;2009-09-04 07:00;CYQR 040700Z 15015KT 15SM FEW130 17/14 A2989 RMK AC2 SLP123

CYQR;2009-09-04 08:00;CYQR 040800Z 15013G19KT 15SM FEW130 16/14 A2988 RMK AC1 SLP118

CYQR;2009-09-04 09:00;CYQR 040900Z 15013G18KT 15SM FEW050CB 16/14 A2987 RMK CB1 CB LTNG W-NW SLP114

CYQR;2009-09-04 09:44;CYQR 040944Z 29011G21KT 15SM BKN130 16/ RMK AC6 WSHFT 0944

CYQR;2009-09-04 09:50;CYQR 040950Z 00000G21KT 15SM FEW009 BKN130 16/ RMK SC2AC6

CYQR;2009-09-04 10:00;CYQR 041000Z 31003G21KT 15SM FEW009 BKN130 16/14 A2992 RMK SC2AC4 SLP129

CYQR;2009-09-04 11:00;CYQR 041100Z 12009KT 15SM BKN120 16/14 A2989 RMK AC7 SLP119

CYQR;2009-09-04 12:00;CYQR 041200Z 14014KT 15SM BKN120 BKN300 15/13 A2986 RMK AC5CI0 SLP111

CYQR;2009-09-04 13:00;CYQR 041300Z 15013KT 15SM FEW090 BKN120 OVC300 15/13 A2985 RMK AC2AC3CI1 CONTRAILS SLP108

CYQR;2009-09-04 14:00;CYQR 041400Z 15014KT 15SM FEW095 SCT120 BKN300 16/14 A2985 RMK AC1AC3CI1 SLP109

CYQR;2009-09-04 15:00;CYQR 041500Z 17014KT 15SM FEW120 BKN300 17/14 A2986 RMK AC2CI0 SLP115

CYQR;2009-09-04 16:00;CYQR 041600Z 18014KT 15SM FEW140 SCT330 20/14 A2987 RMK AC1CI0 SLP116

CYQR;2009-09-04 17:00;CYQR 041700Z 21006KT 15SM FEW140 FEW350 22/14 A2987 RMK AC1CI0 SLP117

CYQR;2009-09-04 18:00;CYQR 041800Z 27005KT 15SM FEW140 FEW350 24/13 A2987 RMK AC1CI1 SLP114

CYQR;2009-09-04 19:00;CYQR 041900Z 00000KT 15SM FEW350 26/12 A2986 RMK CI0 SLP111

CYQR;2009-09-04 20:00;CYQR 042000Z 33007KT 15SM FEW092 FEW370 28/05 A2985 RMK CU1CI1 CONTRAILS SLP109

CYQR;2009-09-04 21:00;CYQR 042100Z 27008KT 15SM FEW100 FEW350 28/03 A2985 RMK AC1CI1 SLP108

CYQR;2009-09-04 22:00;CYQR 042200Z 26005KT 15SM FEW370 28/03 A2984 RMK CI1 CONTRAILS SLP106

CYQR;2009-09-04 23:00;CYQR 042300Z 22011KT 15SM BKN370 29/02 A2984 RMK CI2 SLP104

CYQR;2009-09-05 00:00;CYQR 050000Z 26008KT 15SM BKN350 27/01 A2984 RMK CI2 SLP104

CYQR;2009-09-05 01:00;CYQR 050100Z 26007KT 15SM BKN350 23/04 A2984 RMK CI2 SLP106

CYQR;2009-09-05 02:00;CYQR 050200Z 27006KT 15SM BKN350 20/03 A2985 RMK CI2 SLP109

CYQR;2009-09-05 03:00;CYQR 050300Z 28005KT 15SM BKN350 18/03 A2986 RMK CI2 SLP116

CYQR;2009-09-05 04:00;CYQR 050400Z 24004KT 15SM FEW350 15/04 A2987 RMK CI1 SLP120

CYQR;2009-09-05 05:00;CYQR 050500Z 21005KT 15SM FEW350 12/04 A2988 RMK CI1 SLP122

CYQR;2009-09-05 06:00;CYQR 050600Z 24004KT 15SM FEW350 11/03 A2989 RMK CI1 SLP124

CYQR;2009-09-05 07:00;CYQR 050700Z 25002KT 15SM FEW350 11/03 A2990 RMK CI1 SLP130

CYQR;2009-09-05 08:00;CYQR 050800Z 00000KT 15SM SKC 09/03 A2991 RMK SLP131

CYQR;2009-09-05 09:00;CYQR 050900Z 29003KT 15SM SKC 09/03 A2992 RMK SLP135

CYQR;2009-09-05 10:00;CYQR 051000Z 26003KT 15SM FEW350 08/03 A2993 RMK CI1 SLP139

CYQR;2009-09-05 11:00;CYQR 051100Z 27004KT 15SM SKC 08/03 A2995 RMK SLP144

CYQR;2009-09-05 12:00;CYQR 051200Z 26006KT 15SM FEW350 07/04 A2995 RMK CI1 SLP148

CYQR;2009-09-05 13:00;CYQR 051300Z 32004KT 15SM FEW350 07/05 A2997 RMK CI1 SLP155

CYQR;2009-09-05 14:00;CYQR 051400Z 31005KT 15SM SKC 13/09 A2999 RMK SLP159

CYQR;2009-09-05 15:00;CYQR 051500Z 34007KT 15SM FEW350 17/12 A2999 RMK CI1 SLP162

CYQR;2009-09-05 16:00;CYQR 051600Z 32009KT 15SM FEW350 20/13 A3000 RMK CI1 SLP164

CYQR;2009-09-05 17:00;CYQR 051700Z 29008KT 15SM FEW350 22/12 A3000 RMK CI1 SLP164

CYQR;2009-09-05 18:00;CYQR 051800Z 33010KT 15SM FEW360 25/12 A2999 RMK CI1 SLP161

CYQR;2009-09-05 19:00;CYQR 051900Z 29009KT 15SM FEW370 26/12 A2998 RMK CI0 SLP157

CYQR;2009-09-05 20:00;CYQR 052000Z 34005KT 15SM FEW370 27/10 A2997 RMK CI1 SLP155

CYQR;2009-09-05 21:00;CYQR 052100Z 30005KT 15SM FEW370 27/08 A2996 RMK CI2 SLP150

CYQR;2009-09-05 22:00;CYQR 052200Z 31004KT 15SM FEW370 28/08 A2995 RMK CI0 CONTRAILS SLP148

CYQR;2009-09-05 23:00;CYQR 052300Z 01005KT 15SM FEW370 28/08 A2994 RMK CI0 CONTRAILS SLP145

CYQR;2009-09-06 00:00;CYQR 060000Z 03004KT 15SM FEW160 FEW370 27/07 A2994 RMK AC1CI1 TR AC SLP146

CYQR;2009-09-06 01:00;CYQR 060100Z 03006KT 15SM FEW350 23/10 A2994 RMK CI1 SLP145

CYQR;2009-09-06 02:00;CYQR 060200Z 08005KT 15SM FEW350 21/09 A2994 RMK CI1 SLP146

CYQR;2009-09-06 03:00;CYQR 060300Z 10008KT 15SM FEW350 18/09 A2995 RMK CI0 SLP147

CYQR;2009-09-06 04:00;CYQR 060400Z 10007KT 15SM FEW140 17/09 A2996 RMK AC1 SLP150

CYQR;2009-09-06 05:00;CYQR 060500Z 09008KT 15SM FEW140 16/10 A2995 RMK AC1 SLP146

CYQR;2009-09-06 06:00;CYQR 060600Z 10009KT 15SM FEW140 17/10 A2994 RMK AC1 SLP138

CYQR;2009-09-06 07:00;CYQR 060700Z 11011KT 15SM FEW140 18/10 A2994 RMK AC1 SLP141

CYQR;2009-09-06 08:00;CYQR 060800Z 11010KT 15SM FEW140 18/10 A2994 RMK AC1 SLP138

CYQR;2009-09-06 09:00;CYQR 060900Z 11012KT 15SM FEW140 17/10 A2993 RMK AC1 SLP133

CYQR;2009-09-06 10:00;CYQR 061000Z 11013KT 15SM SKC 17/09 A2992 RMK SLP131

CYQR;2009-09-06 11:00;CYQR 061100Z 11015KT 15SM FEW140 17/10 A2991 RMK AC2 CB EMBD SW SLP127

CYQR;2009-09-06 12:00;CYQR 061200Z 11015KT 15SM FEW140 18/09 A2990 RMK ACC2 CB EMBD SW SLP124

CYQR;2009-09-06 13:00;CYQR 061300Z 12015G20KT 15SM FEW140 FEW300 18/10 A2989 RMK ACC2CI0 CB EMBD W VIRGA SLP122

CYQR;2009-09-06 14:00;CYQR 061400Z 12019G26KT 15SM BKN140 BKN330 20/10 A2986 RMK ACC5CI1 TCU EMBD WITH SHWRS W SLP110

CYQR;2009-09-06 15:00;CYQR 061500Z 12021KT 15SM FEW044TCU SCT140 SCT330 22/11 A2984 RMK TCU2ACC2CI1 TCU AND SHWRS W SLP108

CYQR;2009-09-06 16:00;CYQR 061600Z 13018G25KT 15SM FEW044 FEW140 SCT330 24/13 A2984 RMK CU2ACC1CI0 CB TOP + SHRWRS W SLP108

CYQR;2009-09-06 17:00;CYQR 061700Z 12017KT 15SM FEW044 BKN140 BKN330 26/14 A2983 RMK CU2ACC3CI0 TCU EMBD VIRGA SLP103

CYQR;2009-09-06 18:00;CYQR 061800Z 15019G25KT 15SM SCT068 BKN140 BKN350 29/14 A2982 RMK CU3ACC2CI1 TCU ASOCTD SLP096

CYQR;2009-09-06 19:00;CYQR 061900Z 15024G31KT 15SM FEW072 FEW140 FEW370 32/14 A2980 RMK CU1ACC1CI1 SLP088

CYQR;2009-09-06 20:00;CYQR 062000Z 16022KT 15SM FEW140 SCT370 32/13 A2979 RMK AC2CI1 ACC ASOCTD SLP086

CYQR;2009-09-06 21:00;CYQR 062100Z 16014G22KT 15SM BKN120 BKN370 32/12 A2978 RMK ACC5CI1 VIRGA SLP081

CYQR;2009-09-06 22:00;CYQR 062200Z 17014KT 15SM BKN070 BKN140 BKN370 31/11 A2977 RMK CU5AC2CI0 VIRGA S-NW SLP078

CYQR;2009-09-06 23:00;CYQR 062300Z 16013KT 15SM SCT070 BKN120 BKN370 31/10 A2976 RMK CU4ACC2CI0 VIRGA SLP074

CYQR;2009-09-07 00:00;CYQR 070000Z 15011KT 15SM SCT069 BKN120 BKN370 30/10 A2975 RMK CU3ACC2CI1 SHWRS W+NW SLP071

CYQR;2009-09-07 01:00;CYQR 070100Z 14012KT 15SM FEW070TCU SCT120 BKN370 27/11 A2974 RMK TCU2ACC2CI1 VIRGA+SHWRS W+NW SLP067

CYQR;2009-09-07 02:00;CYQR 070200Z 13013G18KT 15SM BKN120 BKN350 26/11 A2974 RMK ACC5CI0 SLP066

CYQR;2009-09-07 03:00;CYQR 070300Z 14015G20KT 15SM BKN120 BKN350 24/11 A2974 RMK AC6CI0 SLP066

CYQR;2009-09-07 04:00;CYQR 070400Z 16014G20KT 15SM FEW045 BKN120 BKN350 24/10 A2975 RMK SC2AC4CI0 SLP072

CYQR;2009-09-07 05:00;CYQR 070500Z 15012G19KT 15SM FEW070 BKN120 23/10 A2974 RMK AC2AC6 SLP068

CYQR;2009-09-07 06:00;CYQR 070600Z 15014KT 15SM OVC120 22/10 A2974 RMK AC8 CB EMBD OCNL LGTCG SW SLP067

CYQR;2009-09-07 07:00;CYQR 070700Z 16009KT 15SM FEW075 OVC120 22/11 A2975 RMK AC2AC6 CB EMBD LGTCG SW SLP069

CYQR;2009-09-07 07:15;CYQR 070715Z 23010KT 15SM -SHRA FEW075 OVC120 21/ RMK AC2AC6 CB EMBD SW ACC EMBD

CYQR;2009-09-07 08:00;CYQR 070800Z 15007KT 15SM -SHRA SCT031 OVC120 19/13 A2978 RMK SC3AC5 CVCTV CLD EMBD SLP078

CYQR;2009-09-07 08:34;CYQR 070834Z 31015KT 15SM -TSRA SCT033 OVC120 20/ RMK SC3AC5 CB/ACC EMBD

CYQR;2009-09-07 08:41;CYQR 070841Z 30012G18KT 10SM TSRA FEW006 SCT035 OVC120 18/ RMK SF1SC2AC5 CB/ACC EMBD

CYQR;2009-09-07 09:00;CYQR 070900Z 31014KT 15SM -TSRA FEW006 SCT035 OVC120 18/12 A2981 RERA RMK SF1SC2AC5 CB/ACC EMBD SLP089

CYQR;2009-09-07 10:00;CYQR 071000Z 34014G20KT 15SM FEW045 BKN120 17/08 A2984 RETS RMK SC2AC4 CB EMBD E SLP100

CYQR;2009-09-07 11:00;CYQR 071100Z 02008KT 15SM OVC120 16/09 A2985 RMK AC8 CB EMBD LGTNG E SLP103

CYQR;2009-09-07 12:00;CYQR 071200Z 02007KT 15SM BKN056 BKN120 OVC350 15/09 A2981 RMK SC5AC2CI2 SLP094

CYQR;2009-09-07 12:46;CYQR 071246Z 33005KT 15SM -SHRA SCT056 BKN120 OVC350 15/ RMK SC4AC2CI2

CYQR;2009-09-07 13:00;CYQR 071300Z 30005KT 15SM -SHRA FEW056 BKN075 BKN120 OVC350 14/11 A2983 RMK SC2AC4AC2CI1 CVCTV CLD EMBD SLP100

CYQR;2009-09-07 14:00;CYQR 071400Z 00000KT 15SM -SHRA SCT056 BKN093 BKN120 13/11 A2985 RMK SC3AC2AC2 CVCTV CLD EMBD SLP105

CYQR;2009-09-07 15:00;CYQR 071500Z 26006KT 15SM -SHRA FEW050 OVC085 14/11 A2987 RMK SC1AC7 CVCTV CLD EMBD SLP119

CYQR;2009-09-07 15:41;CYQR 071541Z 24005KT 15SM VCSH FEW050 BKN089 14/ RMK SC2AC5

CYQR;2009-09-07 16:00;CYQR 071600Z 25007KT 15SM FEW050 BKN091 BKN300 15/12 A2989 RMK SC2AC3CI2 SLP126

CYQR;2009-09-07 17:00;CYQR 071700Z 21008KT 15SM -SHRA SCT050 OVC098 16/11 A2990 RMK SC4AC4 CVCTV CLD EMBD SLP128

CYQR;2009-09-07 17:44;CYQR 071744Z 25008KT 15SM VCSH FEW044 BKN098 BKN300 17/ RMK SC2AC3CI2 CVCTV CLD EMBD

CYQR;2009-09-07 18:00;CYQR 071800Z 25006KT 15SM VCSH FEW044 SCT084 SCT120 BKN300 18/09 A2988 RMK SC1AC2ACC1CI2 SLP119

CYQR;2009-09-07 19:00;CYQR 071900Z 20004KT 15SM FEW084 BKN120 BKN300 19/07 A2987 RMK AC2AC2CI1 SLP115

CYQR;2009-09-07 20:00;CYQR 072000Z 28008KT 15SM FEW051 FEW120 SCT300 22/05 A2986 RMK SC1AC1CI1 SLP113

CYQR;2009-09-07 21:00;CYQR 072100Z 27013KT 15SM FEW120 SCT300 23/04 A2984 RMK AC1CI0 SLP107

CYQR;2009-09-07 22:00;CYQR 072200Z 25012G19KT 15SM FEW120 SCT300 23/02 A2983 RMK AC1CI1 CB TOPS NE+E SLP103

CYQR;2009-09-07 23:00;CYQR 072300Z 23010KT 15SM FEW120 BKN300 22/04 A2984 RMK AC2CI1 CB TOPS E SLP104

CYQR;2009-09-08 00:00;CYQR 080000Z 21009KT 15SM FEW098 BKN300 23/03 A2984 RMK AC2CI1 SLP106

CYQR;2009-09-08 01:00;CYQR 080100Z 21007KT 15SM FEW100 BKN300 17/05 A2984 RMK AC2CI1 SLP106

CYQR;2009-09-08 02:00;CYQR 080200Z 24005KT 15SM FEW100 SCT300 13/05 A2984 RMK AC1CI1 SLP109

CYQR;2009-09-08 03:00;CYQR 080300Z 18007KT 15SM BKN300 12/04 A2984 RMK CI2 SLP116

CYQR;2009-09-08 04:00;CYQR 080400Z 16008KT 15SM OVC300 13/05 A2985 RMK CI5 SLP118

CYQR;2009-09-08 05:00;CYQR 080500Z 19005KT 15SM OVC300 11/05 A2986 RMK CI6 SLP123

CYQR;2009-09-08 06:00;CYQR 080600Z 18007KT 15SM OVC120 13/05 A2986 RMK AC8 SLP117

CYQR;2009-09-08 07:00;CYQR 080700Z 14005KT 15SM OVC120 13/05 A2984 RMK AC6 SLP112

CYQR;2009-09-08 08:00;CYQR 080800Z 16009KT 15SM OVC120 14/05 A2981 RMK AC8 SLP102

CYQR;2009-09-08 09:00;CYQR 080900Z 18004KT 15SM OVC120 12/06 A2980 RMK AC8 SLP097

CYQR;2009-09-08 10:00;CYQR 081000Z 17007KT 15SM OVC120 12/07 A2982 RMK AC8 SLP102

CYQR;2009-09-08 11:00;CYQR 081100Z 15002KT 15SM OVC120 11/07 A2981 RMK AC8 SLP099

CYQR;2009-09-08 12:00;CYQR 081200Z 29006KT 15SM OVC120 10/06 A2982 RMK AC8 SLP102

CYQR;2009-09-08 13:00;CYQR 081300Z 26007KT 15SM SCT090 OVC120 11/05 A2983 RMK AC3AC5 SLP105

CYQR;2009-09-08 14:00;CYQR 081400Z 28006KT 15SM SCT053 BKN098 OVC280 12/04 A2982 RMK SC3AC2CI2 SLP103

CYQR;2009-09-08 15:00;CYQR 081500Z 28010KT 15SM BKN120 OVC280 13/04 A2983 RMK AC6CI2 SLP113

CYQR;2009-09-08 16:00;CYQR 081600Z 27013G18KT 15SM BKN050 OVC090 14/03 A2983 RMK SC5AC3 SLP113

CYQR;2009-09-08 17:00;CYQR 081700Z 27013G18KT 15SM FEW050 BKN090 OVC300 15/03 A2985 RMK SC2AC6CI1 SLP120

CYQR;2009-09-08 18:00;CYQR 081800Z 21010KT 15SM FEW050 OVC090 16/03 A2986 RMK SC2AC6 SLP121

CYQR;2009-09-08 19:00;CYQR 081900Z 24012G17KT 15SM FEW050 BKN086 19/03 A2985 RMK SC2AC3 SLP116

CYQR;2009-09-08 20:00;CYQR 082000Z 23012KT 15SM FEW060 BKN083 19/02 A2983 RMK CU1AC6 SLP111

CYQR;2009-09-08 21:00;CYQR 082100Z 24020KT 15SM FEW060 BKN090 BKN300 20/01 A2983 RMK CU1AC4CI1 SLP106

CYQR;2009-09-08 22:00;CYQR 082200Z 26016G22KT 15SM FEW075 FEW100 BKN300 22/02 A2981 RMK CU1AC2CI1 SLP101

CYQR;2009-09-08 23:00;CYQR 082300Z 23017G24KT 15SM FEW075 SCT300 22/01 A2980 RMK CU1CI0 SLP099

CYQR;2009-09-09 00:00;CYQR 090000Z 25014G19KT 15SM FEW075 FEW300 21/M00 A2981 RMK CU1CI0 SLP100

CYQR;2009-09-09 01:00;CYQR 090100Z 24010KT 15SM SKC 19/01 A2981 RMK SLP100

CYQR;2009-09-09 02:00;CYQR 090200Z 23006KT 15SM SKC 12/01 A2982 RMK SLP104

CYQR;2009-09-09 03:00;CYQR 090300Z 21010KT 15SM SKC 09/00 A2983 RMK SLP115

CYQR;2009-09-09 04:00;CYQR 090400Z 23007KT 15SM SKC 08/00 A2984 RMK SLP119

CYQR;2009-09-09 05:00;CYQR 090500Z 22007KT 15SM SKC 07/M00 A2986 RMK SLP123

CYQR;2009-09-09 06:00;CYQR 090600Z 22007KT 15SM SKC 06/M00 A2987 RMK SLP127

CYQR;2009-09-09 07:00;CYQR 090700Z 23006KT 15SM SKC 06/M00 A2988 RMK SLP130

CYQR;2009-09-09 08:00;CYQR 090800Z 22006KT 15SM SKC 05/M01 A2989 RMK SLP133

CYQR;2009-09-09 09:00;CYQR 090900Z 21003KT 15SM SKC 05/M01 A2990 RMK SLP135

CYQR;2009-09-09 10:00;CYQR 091000Z 21006KT 15SM SKC 05/M01 A2992 RMK SLP141

CYQR;2009-09-09 11:00;CYQR 091100Z 18007KT 15SM SKC 04/M01 A2992 RMK SLP141

CYQR;2009-09-09 12:00;CYQR 091200Z 18007KT 15SM SKC 04/M01 A2993 RMK SLP145

CYQR;2009-09-09 13:00;CYQR 091300Z 21005KT 15SM SKC 04/M00 A2994 RMK SLP149

CYQR;2009-09-09 14:00;CYQR 091400Z 21008KT 15SM FEW300 09/02 A2995 RMK CI1 SLP154

CYQR;2009-09-09 15:00;CYQR 091500Z 24015KT 15SM FEW300 15/02 A2996 RMK CI1 SLP157

CYQR;2009-09-09 16:00;CYQR 091600Z 24014KT 15SM FEW300 18/02 A2996 RMK CI0 SLP157

CYQR;2009-09-09 17:00;CYQR 091700Z 26019G24KT 15SM FEW300 21/03 A2994 RMK CI1 SLP153

CYQR;2009-09-09 18:00;CYQR 091800Z 26020G26KT 15SM BKN300 23/01 A2994 RMK CI0 SLP148

CYQR;2009-09-09 19:00;CYQR 091900Z 26014G24KT 15SM BKN300 24/01 A2993 RMK CI2 SLP145

CYQR;2009-09-09 20:00;CYQR 092000Z 25014KT 15SM BKN300 23/00 A2993 RMK CI6 SLP143

CYQR;2009-09-09 21:00;CYQR 092100Z 28011G22KT 15SM BKN300 25/01 A2992 RMK CI5 SLP139

CYQR;2009-09-09 22:00;CYQR 092200Z 28013G20KT 15SM BKN300 25/00 A2992 RMK CI4 SLP139

CYQR;2009-09-09 23:00;CYQR 092300Z 23012KT 15SM FEW100 BKN300 24/M00 A2992 RMK AC1CI2 SLP141

CYQR;2009-09-10 00:00;CYQR 100000Z 24003KT 15SM FEW100 BKN300 23/01 A2991 RMK AC1CI3 SLP139

CYQR;2009-09-10 01:00;CYQR 100100Z 25005KT 15SM FEW100 BKN300 20/01 A2992 RMK AC1CI2 SLP140

CYQR;2009-09-10 02:00;CYQR 100200Z 26005KT 15SM BKN300 16/01 A2992 RMK CI2 SLP142

CYQR;2009-09-10 03:00;CYQR 100300Z 19004KT 15SM SCT300 13/01 A2993 RMK CI2 SLP143

CYQR;2009-09-10 04:00;CYQR 100400Z 18004KT 15SM SCT300 13/M00 A2993 RMK CI2 SLP143

CYQR;2009-09-10 05:00;CYQR 100500Z 15003KT 15SM FEW300 13/01 A2993 RMK CI1 SLP143

CYQR;2009-09-10 06:00;CYQR 100600Z 12007KT 15SM BKN300 12/02 A2992 RMK CI4 SLP138

CYQR;2009-09-10 07:00;CYQR 100700Z 14009KT 15SM BKN260 09/02 A2992 RMK CI4 SLP136

CYQR;2009-09-10 08:00;CYQR 100800Z 15009KT 15SM SCT260 11/02 A2991 RMK CI2 SLP135

CYQR;2009-09-10 09:00;CYQR 100900Z 13007KT 15SM SCT260 09/02 A2991 RMK CI2 SLP134

CYQR;2009-09-10 10:00;CYQR 101000Z 16002KT 15SM SCT260 08/02 A2993 RMK CI3 SLP139

CYQR;2009-09-10 11:00;CYQR 101100Z 16004KT 15SM SCT260 06/02 A2993 RMK CI2 SLP140

CYQR;2009-09-10 12:00;CYQR 101200Z 13005KT 15SM FEW240 06/02 A2993 RMK CI2 SLP143

CYQR;2009-09-10 13:00;CYQR 101300Z 18005KT 15SM FEW100 BKN260 06/02 A2994 RMK AC1CI2 SLP147

CYQR;2009-09-10 14:00;CYQR 101400Z 26002KT 15SM FEW100 BKN260 11/02 A2996 RMK AC1CI4 SLP152

CYQR;2009-09-10 15:00;CYQR 101500Z 27008KT 15SM FEW100 BKN260 17/04 A2996 RMK AC1CI2 SLP155

CYQR;2009-09-10 16:00;CYQR 101600Z 28006KT 15SM BKN260 BKN300 19/05 A2997 RMK CI5CI2 SLP158

CYQR;2009-09-10 17:00;CYQR 101700Z 27007KT 15SM BKN260 OVC300 20/06 A2998 RMK CI6CI2 SLP160

CYQR;2009-09-10 18:00;CYQR 101800Z 27009KT 15SM FEW070 OVC260 22/06 A2998 RMK AC2CI6 SLP158

CYQR;2009-09-10 19:00;CYQR 101900Z 26008KT 15SM BKN260 OVC300 24/06 A2997 RMK CI5CI3 SLP156

CYQR;2009-09-10 20:00;CYQR 102000Z 28012KT 15SM FEW100 BKN260 OVC300 23/06 A2998 RMK AC1CS6CI2 SLP159

CYQR;2009-09-10 21:00;CYQR 102100Z 28009KT 15SM SCT100 OVC260 23/06 A2999 RMK AC2CI6 ACC ASOCTD SLP161

CYQR;2009-09-10 22:00;CYQR 102200Z 32013KT 15SM BKN090 OVC260 23/06 A3001 RMK AC5CI3 SLP168

CYQR;2009-09-10 23:00;CYQR 102300Z 32024G32KT 15SM FEW032 SCT090 OVC260 21/05 A3003 RMK SC2AC2CI2 SLP176

CYQR;2009-09-11 00:00;CYQR 110000Z 30018G28KT 15SM -SHRA SCT092 OVC260 16/07 A3009 RMK AC4CI4 ACC EMBD SLP204

CYQR;2009-09-11 00:25;CYQR 110025Z 35014KT 15SM VCSH SCT065TCU BKN095 BKN260 15/ RMK TCU3ACC2CI2 MAMMATUS

CYQR;2009-09-11 01:00;CYQR 110100Z 02007KT 15SM VCSH SCT065TCU BKN100 BKN260 15/09 A3009 RMK TCU3ACC3CI1 MAMMATUS SLP204

CYQR;2009-09-11 02:00;CYQR 110200Z 32009KT 15SM VCSH BKN076 BKN100 BKN260 15/10 A3012 RMK ACC5AC2CI1 SLP212

CYQR;2009-09-11 03:00;CYQR 110300Z 32007KT 15SM SCT057 BKN100 BKN260 14/10 A3012 RMK SC3AC2CI1 SLP207

CYQR;2009-09-11 04:00;CYQR 110400Z 32015KT 15SM SCT057 BKN100 BKN260 14/10 A3014 RMK SC3AC2CI1 SLP213

CYQR;2009-09-11 05:00;CYQR 110500Z 33014KT 15SM BKN061 BKN097 14/09 A3015 RMK SC5AC2 SLP219

CYQR;2009-09-11 06:00;CYQR 110600Z 34008KT 15SM SCT054 BKN069 BKN088 12/09 A3016 RMK SC3AC3AC1 SLP221

CYQR;2009-09-11 07:00;CYQR 110700Z 34011KT 15SM FEW060 BKN080 12/10 A3017 RMK SC2AC5 SLP224

CYQR;2009-09-11 08:00;CYQR 110800Z 34011KT 15SM FEW022 SCT060 BKN080 13/10 A3020 RMK SC2SC2AC3 SLP232

CYQR;2009-09-11 09:00;CYQR 110900Z 36009KT 15SM FEW022 SCT060 BKN084 11/10 A3020 RMK SC2SC2AC3 SLP234

CYQR;2009-09-11 10:00;CYQR 111000Z 35011KT 15SM SCT045 BKN080 11/10 A3023 RMK SC4AC3 SLP242

CYQR;2009-09-11 11:00;CYQR 111100Z 35010KT 15SM SCT045 OVC071 12/10 A3025 RMK SC4AC4 SLP250

CYQR;2009-09-11 12:00;CYQR 111200Z 35008KT 15SM FEW045 SCT079 10/09 A3027 RMK SC2AC2 SLP261

CYQR;2009-09-11 13:00;CYQR 111300Z 33008KT 15SM FEW090 09/08 A3028 RMK AC1 SLP266

CYQR;2009-09-11 14:00;CYQR 111400Z 35009KT 15SM FEW090 11/09 A3029 RMK AC1 SLP269

CYQR;2009-09-11 15:00;CYQR 111500Z 36011KT 15SM FEW100 13/09 A3031 RMK AC1 SLP276

CYQR;2009-09-11 16:00;CYQR 111600Z 36010KT 15SM FEW100 16/10 A3033 RMK AC1 SLP281

CYQR;2009-09-11 17:00;CYQR 111700Z 02012KT 15SM FEW100 18/09 A3033 RMK AC1 SLP281

CYQR;2009-09-11 18:00;CYQR 111800Z 01012G19KT 15SM FEW036 19/08 A3033 RMK CU1 SLP279

CYQR;2009-09-11 19:00;CYQR 111900Z 02018G25KT 15SM FEW051 21/08 A3032 RMK CU1 SLP275

CYQR;2009-09-11 20:00;CYQR 112000Z 03012G18KT 15SM FEW049 21/09 A3032 RMK CU2 SLP275

CYQR;2009-09-11 21:00;CYQR 112100Z 36014KT 15SM SCT049 20/08 A3031 RMK CU3 SLP274

CYQR;2009-09-11 22:00;CYQR 112200Z 02013G18KT 15SM FEW053 20/07 A3030 RMK CU2 SLP271

CYQR;2009-09-11 23:00;CYQR 112300Z 36010KT 15SM FEW057 21/08 A3030 RMK CU2 SLP270

CYQR;2009-09-12 00:00;CYQR 120000Z 04009KT 15SM FEW057 20/08 A3030 RMK SC1 SLP270

CYQR;2009-09-12 01:00;CYQR 120100Z 02005KT 15SM FEW057 FEW300 18/08 A3030 RMK SC1CI1 SLP271

CYQR;2009-09-12 02:00;CYQR 120200Z 04003KT 15SM FEW060 FEW300 16/08 A3031 RMK SC1CI1 SLP273

CYQR;2009-09-12 03:00;CYQR 120300Z 08004KT 15SM SKC 14/08 A3032 RMK SLP277

CYQR;2009-09-12 04:00;CYQR 120400Z 12003KT 15SM SKC 14/08 A3032 RMK SLP277

CYQR;2009-09-12 05:00;CYQR 120500Z 09002KT 15SM SKC 10/06 A3032 RMK SLP277

CYQR;2009-09-12 06:00;CYQR 120600Z 14002KT 15SM SKC 07/04 A3032 RMK SLP278

CYQR;2009-09-12 07:00;CYQR 120700Z 10003KT 15SM SKC 07/05 A3031 RMK SLP275

CYQR;2009-09-12 08:00;CYQR 120800Z 13003KT 15SM SKC 06/04 A3030 RMK SLP274

CYQR;2009-09-12 09:00;CYQR 120900Z 24005KT 15SM SKC 05/04 A3030 RMK SLP273

CYQR;2009-09-12 10:00;CYQR 121000Z 00000KT 15SM SKC 04/03 A3030 RMK SLP273

CYQR;2009-09-12 11:00;CYQR 121100Z 00000KT 15SM SKC 06/05 A3029 RMK SLP271

CYQR;2009-09-12 12:00;CYQR 121200Z 05003KT 15SM SKC 06/04 A3029 RMK SLP271

CYQR;2009-09-12 13:00;CYQR 121300Z 11003KT 15SM FEW300 06/05 A3029 RMK CI0 SLP270

CYQR;2009-09-12 14:00;CYQR 121400Z 15003KT 15SM SKC 09/07 A3030 RMK SLP273

CYQR;2009-09-12 15:00;CYQR 121500Z 15004KT 15SM SKC 13/08 A3029 RMK SLP270

CYQR;2009-09-12 16:00;CYQR 121600Z 15002KT 15SM FEW300 16/09 A3028 RMK CI0 SLP266

CYQR;2009-09-12 17:00;CYQR 121700Z 15004KT 15SM FEW040 19/09 A3027 RMK CU1 SLP262

CYQR;2009-09-12 18:00;CYQR 121800Z 08005KT 15SM FEW044 20/09 A3025 RMK CU1 SLP254

CYQR;2009-09-12 19:00;CYQR 121900Z 10004KT 15SM FEW045 21/09 A3023 RMK CU1 SLP247

CYQR;2009-09-12 20:00;CYQR 122000Z 14004KT 15SM FEW052 21/08 A3020 RMK CU1 SLP240

CYQR;2009-09-12 21:00;CYQR 122100Z 18008KT 15SM SKC 22/08 A3019 RMK SLP234

CYQR;2009-09-12 22:00;CYQR 122200Z 17008KT 15SM SKC 22/08 A3017 RMK SLP228

CYQR;2009-09-12 23:00;CYQR 122300Z 14008KT 15SM SKC 22/08 A3015 RMK SLP223

CYQR;2009-09-13 00:00;CYQR 130000Z 16006KT 15SM SKC 22/08 A3014 RMK SLP217

CYQR;2009-09-13 01:00;CYQR 130100Z 16005KT 15SM SKC 19/07 A3013 RMK SLP214

CYQR;2009-09-13 02:00;CYQR 130200Z 14006KT 15SM SKC 15/06 A3012 RMK SLP212

CYQR;2009-09-13 03:00;CYQR 130300Z 16008KT 15SM SKC 15/06 A3012 RMK SLP210

CYQR;2009-09-13 04:00;CYQR 130400Z 16007KT 15SM SKC 14/06 A3011 RMK SLP208

CYQR;2009-09-13 05:00;CYQR 130500Z 13008KT 15SM SKC 12/06 A3011 RMK SLP206

CYQR;2009-09-13 06:00;CYQR 130600Z 15008KT 15SM SKC 12/08 A3010 RMK SLP201

CYQR;2009-09-13 07:00;CYQR 130700Z 14006KT 15SM SKC 11/08 A3010 RMK SLP200

CYQR;2009-09-13 08:00;CYQR 130800Z 16008KT 15SM SKC 11/08 A3009 RMK SLP198

CYQR;2009-09-13 09:00;CYQR 130900Z 13008KT 15SM SKC 10/08 A3009 RMK SLP195

CYQR;2009-09-13 10:00;CYQR 131000Z 14010KT 6SM BR FEW008 10/09 A3008 RMK SF2 SLP193

CYQR;2009-09-13 10:13;CYQR 131013Z 14011KT 6SM BR BKN002 10/ RMK SF5

CYQR;2009-09-13 10:32;CYQR 131032Z 15010KT 1/2SM R13/P6000FT/D FG BKN001 10/ RMK SF6

CYQR;2009-09-13 11:00;CYQR 131100Z 14010KT 1/4SM R13/3500V5500FT/U FG OVC006 10/09 A3008 RMK FG5SF3 R13/3500V5500/U SLP192

CYQR;2009-09-13 11:29;CYQR 131129Z 13008KT 1SM R13/P6000FT/U BR BKN001 RMK SF6

CYQR;2009-09-13 11:54;CYQR 131154Z 13009KT 3SM BR BKN002 10/ RMK SF5

CYQR;2009-09-13 12:00;CYQR 131200Z 14010KT 2SM BR SCT002 10/09 A3008 RMK SF4 SLP194

CYQR;2009-09-13 12:05;CYQR 131205Z 13009KT 1SM R13/P6000FT/D BR BKN001 10/ RMK SF6

CYQR;2009-09-13 12:32;CYQR 131232Z 12008KT 1/2SM R13/5000FT/N FG VV001 09/ RMK FG8 R13/5000/N

CYQR;2009-09-13 12:38;CYQR 131238Z 13008KT 1/4SM R13/3000V6000FT/D FG VV001 10/ RMK FG8

CYQR;2009-09-13 13:00;CYQR 131300Z 12009KT 1/4SM R13/2800V5000FT/U FG VV001 10/09 A3008 RMK FG8 SLP192

CYQR;2009-09-13 14:00;CYQR 131400Z 13011KT 3/4SM R13/4000VP6000FT/U BR OVC001 11/10 A3008 RMK ST7 SLP194

CYQR;2009-09-13 14:27;CYQR 131427Z 14011KT 1 1/2SM BR OVC002 11/ RMK ST7

CYQR;2009-09-13 14:35;CYQR 131435Z 14012KT 2 1/4SM BR OVC002 11/ RMK ST7

CYQR;2009-09-13 15:00;CYQR 131500Z 15015KT 4SM BR OVC004 12/11 A3008 RMK ST8 SLP198

CYQR;2009-09-13 16:00;CYQR 131600Z 14012KT 4SM BR OVC004 14/12 A3007 RMK SF7 SLP193

CYQR;2009-09-13 16:06;CYQR 131606Z 13013KT 10SM BKN006 15/ RMK SF6

CYQR;2009-09-13 16:21;CYQR 131621Z 14012KT 10SM BKN008 16/ RMK SF3

CYQR;2009-09-13 17:00;CYQR 131700Z 14010G16KT 15SM FEW012 17/12 A3006 RMK CF1 SLP190

CYQR;2009-09-13 18:00;CYQR 131800Z 14011KT 15SM FEW030 21/12 A3003 RMK CF1 SLP177

CYQR;2009-09-13 19:00;CYQR 131900Z 16013KT 15SM FEW040 22/11 A3001 RMK SC1 SLP169

CYQR;2009-09-13 20:00;CYQR 132000Z 15014G19KT 15SM FEW056 24/10 A2998 RMK CU1 SLP159

CYQR;2009-09-13 21:00;CYQR 132100Z 15010G22KT 15SM FEW063 25/09 A2996 RMK CU1 SLP151

CYQR;2009-09-13 22:00;CYQR 132200Z 15014G21KT 15SM FEW065 25/09 A2994 RMK CU1 SLP143

CYQR;2009-09-13 23:00;CYQR 132300Z 13012G17KT 15SM SCT065 BKN090 24/10 A2993 RMK CU3AC1 SLP140

CYQR;2009-09-14 00:00;CYQR 140000Z 12013KT 15SM SCT065 BKN090 23/10 A2991 RMK CU3AC1 SLP134

CYQR;2009-09-14 01:00;CYQR 140100Z 13011KT 15SM BKN080 23/09 A2990 RMK AC6 SLP132

CYQR;2009-09-14 02:00;CYQR 140200Z 11010KT 15SM BKN071 21/10 A2990 RMK AC7 SLP132

CYQR;2009-09-14 03:00;CYQR 140300Z 10011KT 15SM BKN067 20/11 A2989 RMK AC7 SLP128

CYQR;2009-09-14 04:00;CYQR 140400Z 12017KT 15SM BKN069 BKN089 20/11 A2988 RMK AC5AC2 SLP125

CYQR;2009-09-14 05:00;CYQR 140500Z 12017G24KT 15SM BKN087 20/11 A2987 RMK AC7 LTGCC DISTANT SW SLP121

CYQR;2009-09-14 06:00;CYQR 140600Z 16007KT 15SM SCT054 BKN073 OVC099 19/09 A2988 RMK SC4AC3AC1 LTGCC DSTNT W+SW SLP120

CYQR;2009-09-14 06:20;CYQR 140620Z 19015KT 10SM -SHRA BKN050 OVC085 17/ RMK SC6ACC2

CYQR;2009-09-14 06:38;CYQR 140638Z 12004KT 10SM TSRA BKN048 OVC085 15/ RMK SC6ACC2 CB ASCOCTD

CYQR;2009-09-14 07:00;CYQR 140700Z 08010KT 10SM -TSRA SCT050 OVC090CB 15/12 A2984 RMK SC4CB4 CB ASOCTD PRESFR SLP109

CYQR;2009-09-14 07:18;CYQR 140718Z 09010KT 15SM -SHRA SCT050 OVC090 15/ RMK SC4AC4

CYQR;2009-09-14 07:38;CYQR 140738Z 10009KT 15SM SCT050 BKN090 15/ RMK SC3AC2

CYQR;2009-09-14 08:00;CYQR 140800Z 09008KT 15SM SCT050 15/13 A2984 RMK SC4 SLP106

CYQR;2009-09-14 09:00;CYQR 140900Z 10009KT 15SM SCT052 BKN072 BKN240 15/12 A2981 RMK SC3AC2CI0 SLP095

CYQR;2009-09-14 09:55;CYQR 140955Z 10011KT 15SM -SHRA SCT035 BKN057 16/ RMK SC3SC3

CYQR;2009-09-14 10:00;CYQR 141000Z 11011KT 15SM -SHRA SCT035 BKN057 16/13 A2978 RMK SC3SC3 SLP085

CYQR;2009-09-14 10:01;CYQR 141001Z 11011KT 15SM -TSRA SCT035CB BKN060 16/ RMK CB3SC3 LTGCC

CYQR;2009-09-14 10:25;CYQR 141025Z 11013KT 15SM BKN021 RMK SC6

CYQR;2009-09-14 11:00;CYQR 141100Z CCA 12013KT 15SM TS BKN023CB BKN086 16/14 A2975 RMK CB5AC1 LTGCCIC SLP078

CYQR;2009-09-14 11:20;CYQR 141120Z 13012KT 15SM TS BKN038CB BKN089 17/ RMK CB5AC1 LTGCCIC

CYQR;2009-09-14 11:35;CYQR 141135Z 15012G17KT 10SM TSRA BKN026CB OVC089 17/ RMK CB6AC2

CYQR;2009-09-14 11:42;CYQR 141142Z CCA 15012G17KT 10SM TSRA BKN026CB OVC089 17/ RMK CB6AC2

CYQR;2009-09-14 11:50;CYQR 141150Z 21008KT 15SM -TSRA BKN020CB OVC089 16/ RMK CB6AC2 LTGICCC

CYQR;2009-09-14 12:00;CYQR 141200Z 15006KT 15SM -TSRA BKN020CB OVC089 16/14 A2978 RMK CB6AC2 LTGICCC SLP085

CYQR;2009-09-14 12:16;CYQR 141216Z 14013KT 15SM -TSRA BKN020CB BKN099 16/ RMK CB6AC2

CYQR;2009-09-14 12:27;CYQR 141227Z 13011KT 15SM -TSRA BKN020CB BKN099 OVC240 16/ RMK CB6AC1CI0

CYQR;2009-09-14 12:42;CYQR 141242Z 12016G21KT 10SM TS FEW038CB BKN060 BKN100 BKN280 16/ RMK CB2SC4AC2CI0 CB NE-E LTGCCCG

CYQR;2009-09-14 13:00;CYQR 141300Z 13012KT 12SM -SHRA FEW036CB BKN058 BKN100 BKN280 16/15 A2975 RETS RMK CB2SC2AC2CI1 SLP077

CYQR;2009-09-14 13:17;CYQR 141317Z 14013KT 8SM FEW048 FEW100 17/ RMK SC2ACC1 CB SW-N BR

CYQR;2009-09-14 14:00;CYQR 141400Z 13013KT 8SM FEW048 SCT100 SCT350 17/15 A2976 RMK CU2ACC1CI1 CB SW-NW BR SLP080

CYQR;2009-09-14 15:00;CYQR 141500Z 14013KT 6SM BR FEW050 BKN120 BKN350 17/15 A2977 RMK CU2ACC3CI1 SLP082

CYQR;2009-09-14 16:00;CYQR 141600Z 16012G19KT 8SM SCT014 BKN090 BKN320 20/16 A2979 RMK SC4AC1CI0 BR SLP088

CYQR;2009-09-14 16:08;CYQR 141608Z 17015KT 8SM BKN014 BKN090 BKN350 19/ RMK SC6ACC2CI1 BR

CYQR;2009-09-14 16:42;CYQR 141642Z 17015KT 11SM BKN018 BKN090 20/ RMK SC6ACC1 BR

CYQR;2009-09-14 17:00;CYQR 141700Z 15012G19KT 11SM FEW018 BKN076 BKN350 20/16 A2977 RMK SC2ACC3CI2 BR SLP084

CYQR;2009-09-14 18:00;CYQR 141800Z 17015KT 10SM FEW022 SCT075 BKN350 21/16 A2979 RMK SC2ACC1CI0 BR SLP089

CYQR;2009-09-14 19:00;CYQR 141900Z 18010KT 15SM FEW025 FEW350 23/15 A2979 RMK CU1CI0 SLP090

CYQR;2009-09-14 20:00;CYQR 142000Z 18012KT 15SM FEW034 FEW350 25/15 A2979 RMK CU1CI1 SLP090

CYQR;2009-09-14 21:00;CYQR 142100Z 18007KT 15SM FEW040 SCT350 26/15 A2979 RMK CU2CI0 SLP088

CYQR;2009-09-14 22:00;CYQR 142200Z 21008KT 15SM FEW050 26/14 A2979 RMK CU2 TCU ASOCTD SLP087

CYQR;2009-09-14 23:00;CYQR 142300Z 17009KT 15SM FEW050 FEW350 27/14 A2979 RMK CU1CI1 LN TCU NE-S SLP087

CYQR;2009-09-15 00:00;CYQR 150000Z 19005KT 15SM FEW050 FEW350 26/14 A2979 RMK CU1CI0 LN TCU NE-S SLP087

CYQR;2009-09-15 01:00;CYQR 150100Z 00000KT 15SM FEW070 FEW350 26/15 A2980 RMK CU1CI0 LN TCU E-NE SLP090

CYQR;2009-09-15 02:00;CYQR 150200Z 00000KT 15SM FEW077TCU 21/14 A2981 RMK TCU2 SLP094

CYQR;2009-09-15 03:00;CYQR 150300Z 18007KT 15SM FEW075TCU BKN260 18/13 A2983 RMK TCU2CI1 SLP105

CYQR;2009-09-15 04:00;CYQR 150400Z 19005KT 15SM FEW075 BKN260 15/12 A2984 RMK ACC2CI1 SLP109

CYQR;2009-09-15 05:00;CYQR 150500Z 19008KT 15SM FEW075 BKN260 14/11 A2986 RMK AC2CI1 SLP114

CYQR;2009-09-15 06:00;CYQR 150600Z 13005KT 15SM FEW090 13/11 A2987 RMK AC2 SLP121

CYQR;2009-09-15 07:00;CYQR 150700Z 13009KT 15SM SKC 13/11 A2987 RMK SLP121

CYQR;2009-09-15 08:00;CYQR 150800Z 13010KT 15SM SKC 13/11 A2988 RMK SLP123

CYQR;2009-09-15 09:00;CYQR 150900Z 14011KT 15SM FEW090 14/13 A2990 RMK AC1 SLP126

CYQR;2009-09-15 10:00;CYQR 151000Z 14011KT 15SM SKC 14/12 A2991 RMK SLP130

CYQR;2009-09-15 11:00;CYQR 151100Z 16007KT 15SM SCT100 13/12 A2994 RMK AC3 SLP139

CYQR;2009-09-15 12:00;CYQR 151200Z 17006KT 15SM FEW100 12/11 A2997 RMK AC1 SLP151

CYQR;2009-09-15 13:00;CYQR 151300Z 16006KT 10SM FEW100 FEW300 12/10 A2999 RMK AC1CI0 SLP160

CYQR;2009-09-15 14:00;CYQR 151400Z 00000KT 15SM FEW300 13/11 A3001 RMK CI0 SLP166

CYQR;2009-09-15 15:00;CYQR 151500Z 29008KT 15SM FEW300 17/11 A3004 RMK CI0 SLP177

CYQR;2009-09-15 16:00;CYQR 151600Z 30008KT 15SM FEW300 18/12 A3006 RMK CI1 SLP184

CYQR;2009-09-15 17:00;CYQR 151700Z 33006KT 15SM BKN350 21/13 A3009 RMK CI1 SLP193

CYQR;2009-09-15 18:00;CYQR 151800Z 35011KT 15SM BKN350 23/14 A3009 RMK CI1 SLP196

CYQR;2009-09-15 19:00;CYQR 151900Z 34011KT 15SM BKN350 24/13 A3009 RMK CI1 SLP196

CYQR;2009-09-15 20:00;CYQR 152000Z 33010G15KT 15SM BKN350 25/12 A3011 RMK CI1 SLP200

CYQR;2009-09-15 21:00;CYQR 152100Z 32006KT 15SM BKN350 25/11 A3013 RMK CI1 SLP205

CYQR;2009-09-15 22:00;CYQR 152200Z 33010KT 15SM SCT350 26/11 A3013 RMK CI1 SLP206

CYQR;2009-09-15 23:00;CYQR 152300Z 33008KT 15SM FEW350 26/11 A3014 RMK CI1 SLP208

CYQR;2009-09-16 00:00;CYQR 160000Z 32008KT 15SM SCT350 25/11 A3015 RMK CI1 SLP214

CYQR;2009-09-16 01:00;CYQR 160100Z 32006KT 15SM FEW350 21/12 A3015 RMK CI1 SLP216

CYQR;2009-09-16 02:00;CYQR 160200Z 35003KT 15SM SKC 18/11 A3017 RMK SLP221

CYQR;2009-09-16 03:00;CYQR 160300Z 35003KT 15SM SKC 16/10 A3018 RMK SLP228

CYQR;2009-09-16 04:00;CYQR 160400Z 00000KT 15SM SKC 14/10 A3019 RMK SLP232

CYQR;2009-09-16 05:00;CYQR 160500Z 00000KT 15SM SKC 13/10 A3020 RMK SLP234

CYQR;2009-09-16 06:00;CYQR 160600Z 00000KT 15SM SKC 12/09 A3021 RMK SLP235

CYQR;2009-09-16 07:00;CYQR 160700Z 00000KT 15SM SKC 10/07 A3022 RMK SLP239

CYQR;2009-09-16 08:00;CYQR 160800Z 22004KT 15SM SKC 09/07 A3023 RMK SLP243

CYQR;2009-09-16 09:00;CYQR 160900Z 24002KT 15SM SKC 09/07 A3023 RMK SLP245

CYQR;2009-09-16 10:00;CYQR 161000Z 00000KT 15SM SKC 09/07 A3023 RMK SLP245

CYQR;2009-09-16 11:00;CYQR 161100Z 16003KT 15SM SKC 09/07 A3023 RMK SLP245

CYQR;2009-09-16 12:00;CYQR 161200Z 00000KT 15SM FEW120 08/07 A3024 RMK AC1 SLP247

CYQR;2009-09-16 13:00;CYQR 161300Z 18002KT 15SM FEW120 09/08 A3024 RMK AC1 SLP248

CYQR;2009-09-16 14:00;CYQR 161400Z 13002KT 15SM FEW300 13/10 A3025 RMK CI1 SLP250

CYQR;2009-09-16 15:00;CYQR 161500Z 20002KT 15SM FEW300 16/10 A3025 RMK CI1 SLP252

CYQR;2009-09-16 16:00;CYQR 161600Z 21002KT 15SM FEW300 21/12 A3025 RMK CI1 SLP252

CYQR;2009-09-16 17:00;CYQR 161700Z 28004KT 15SM FEW320 24/12 A3024 RMK CI0 SLP249

CYQR;2009-09-16 18:00;CYQR 161800Z 22003KT 15SM FEW320 26/11 A3023 RMK CI0 SLP241

CYQR;2009-09-16 19:00;CYQR 161900Z 25004KT 15SM FEW320 27/11 A3022 RMK CI0 SLP237

CYQR;2009-09-16 20:00;CYQR 162000Z 21006KT 15SM FEW320 28/10 A3020 RMK CI0 SLP233

CYQR;2009-09-16 21:00;CYQR 162100Z 28004KT 15SM FEW320 29/10 A3019 RMK CI1 SLP226

CYQR;2009-09-16 22:00;CYQR 162200Z 21004KT 15SM SKC 29/10 A3017 RMK SLP222

CYQR;2009-09-16 23:00;CYQR 162300Z 30003KT 15SM FEW340 29/09 A3016 RMK CI1 SLP219

CYQR;2009-09-17 00:00;CYQR 170000Z 00000KT 15SM FEW340 28/09 A3015 RMK CI1 SLP216

CYQR;2009-09-17 01:00;CYQR 170100Z 17005KT 15SM FEW340 24/10 A3015 RMK CI0 SLP214

CYQR;2009-09-17 02:00;CYQR 170200Z 17008KT 15SM FEW340 20/10 A3015 RMK CI0 SLP214

CYQR;2009-09-17 03:00;CYQR 170300Z 17007KT 15SM SKC 18/09 A3015 RMK SLP216

CYQR;2009-09-17 04:00;CYQR 170400Z 12007KT 15SM SKC 17/10 A3014 RMK SLP214

CYQR;2009-09-17 05:00;CYQR 170500Z 13008KT 15SM SKC 15/09 A3014 RMK SLP214

CYQR;2009-09-17 06:00;CYQR 170600Z 14007KT 15SM SKC 14/09 A3014 RMK SLP209

CYQR;2009-09-17 07:00;CYQR 170700Z 13008KT 15SM SKC 13/09 A3014 RMK SLP208

CYQR;2009-09-17 08:00;CYQR 170800Z 13009KT 15SM SKC 13/09 A3014 RMK SLP207

CYQR;2009-09-17 09:00;CYQR 170900Z 14008KT 15SM SKC 13/08 A3013 RMK SLP205

CYQR;2009-09-17 10:00;CYQR 171000Z 13008KT 15SM SKC 13/08 A3013 RMK SLP204

CYQR;2009-09-17 11:00;CYQR 171100Z 12010KT 15SM SKC 12/08 A3012 RMK SLP202

CYQR;2009-09-17 12:00;CYQR 171200Z 12010KT 15SM FEW260 12/09 A3012 RMK CI0 SLP201

CYQR;2009-09-17 13:00;CYQR 171300Z 13009KT 15SM FEW260 12/09 A3012 RMK CI0 SLP202

CYQR;2009-09-17 14:00;CYQR 171400Z 12009KT 15SM FEW260 15/10 A3012 RMK CI1 SLP201

CYQR;2009-09-17 15:00;CYQR 171500Z 13010KT 15SM FEW260 17/11 A3012 RMK CI1 SLP204

CYQR;2009-09-17 16:00;CYQR 171600Z 14012KT 15SM SKC 21/13 A3011 RMK SLP202

CYQR;2009-09-17 17:00;CYQR 171700Z 15016G21KT 15SM SKC 25/13 A3009 RMK SLP197

CYQR;2009-09-17 18:00;CYQR 171800Z 16017G24KT 15SM SKC 28/12 A3007 RMK SLP185

CYQR;2009-09-17 19:00;CYQR 171900Z 16018G26KT 15SM SKC 29/12 A3005 RMK SLP178

CYQR;2009-09-17 20:00;CYQR 172000Z 15017G26KT 15SM SKC 31/11 A3003 RMK SLP172

CYQR;2009-09-17 21:00;CYQR 172100Z 17018KT 15SM SKC 31/10 A3001 RMK SLP162

CYQR;2009-09-17 22:00;CYQR 172200Z 16018G24KT 15SM SKC 31/10 A3000 RMK SLP159

CYQR;2009-09-17 23:00;CYQR 172300Z 16018KT 15SM SKC 31/12 A2999 RMK SLP155

CYQR;2009-09-18 00:00;CYQR 180000Z 15014G20KT 15SM SKC 30/13 A2998 RMK SLP153

CYQR;2009-09-18 01:00;CYQR 180100Z 14012KT 15SM FEW140 27/12 A2997 RMK AC1 SLP150

CYQR;2009-09-18 02:00;CYQR 180200Z 14013G18KT 15SM FEW140 25/13 A2996 RMK AC1 SLP148

CYQR;2009-09-18 03:00;CYQR 180300Z 14017KT 15SM FEW140 24/13 A2996 RMK AC1 SLP148

CYQR;2009-09-18 04:00;CYQR 180400Z 14017KT 15SM FEW140 22/14 A2997 RMK AC1 SLP149

CYQR;2009-09-18 05:00;CYQR 180500Z 15015G20KT 15SM FEW140 21/14 A2997 RMK AC1 SLP151

CYQR;2009-09-18 06:00;CYQR 180600Z 14014KT 15SM FEW120 19/14 A2996 RMK AC1 SLP144

CYQR;2009-09-18 07:00;CYQR 180700Z 14015KT 15SM FEW120 19/14 A2996 RMK AC1 SLP142

CYQR;2009-09-18 08:00;CYQR 180800Z 17011KT 15SM FEW100 17/13 A2997 RMK AC1 SLP146

CYQR;2009-09-18 09:00;CYQR 180900Z 16012KT 15SM FEW100 17/13 A2997 RMK AC1 SLP145

CYQR;2009-09-18 10:00;CYQR 181000Z 18006KT 15SM FEW100 14/11 A2998 RMK AC1 SLP150

CYQR;2009-09-18 11:00;CYQR 181100Z 18006KT 15SM FEW100 12/10 A2998 RMK AC1 SLP150

CYQR;2009-09-18 12:00;CYQR 181200Z 28007KT 15SM FEW120 12/10 A3000 RMK AC2 SLP159

CYQR;2009-09-18 13:00;CYQR 181300Z 30006KT 15SM FEW120 FEW300 11/09 A3001 RMK AC1CI0 SLP163

CYQR;2009-09-18 14:00;CYQR 181400Z 30007KT 15SM BKN096 15/12 A3002 RMK AC6 SLP166

CYQR;2009-09-18 15:00;CYQR 181500Z 32013KT 15SM FEW012 BKN077 BKN330 17/14 A3003 RMK SC1AC6CI0 SLP172

CYQR;2009-09-18 16:00;CYQR 181600Z 32010KT 15SM FEW012 BKN094 17/13 A3005 RMK SC1AC6 SLP177

CYQR;2009-09-18 17:00;CYQR 181700Z 32008KT 15SM FEW079 BKN330 18/13 A3005 RMK AC2CI1 SLP178

CYQR;2009-09-18 18:00;CYQR 181800Z 31010KT 15SM FEW080 BKN330 22/13 A3005 RMK AC1CI2 SLP177

CYQR;2009-09-18 19:00;CYQR 181900Z 35011KT 15SM SCT330 24/13 A3004 RMK CI2 SLP176

CYQR;2009-09-18 20:00;CYQR 182000Z 34010KT 15SM FEW170 SCT350 24/11 A3003 RMK AC1CI1 SLP172

CYQR;2009-09-18 21:00;CYQR 182100Z 35007KT 15SM FEW170 BKN350 25/10 A3002 RMK AC1CI2 SLP167

CYQR;2009-09-18 22:00;CYQR 182200Z 35006KT 15SM FEW170 BKN350 25/10 A3002 RMK AC1CI3 SLP168

CYQR;2009-09-18 23:00;CYQR 182300Z 36007KT 15SM BKN350 24/10 A3002 RMK CI4 SLP166

CYQR;2009-09-19 00:00;CYQR 190000Z 36006KT 15SM FEW067 BKN350 22/10 A3002 RMK AC2CI2 SLP173

CYQR;2009-09-19 01:00;CYQR 190100Z 02004KT 15SM FEW085 BKN350 20/10 A3003 RMK AC2CI2 SLP174

CYQR;2009-09-19 02:00;CYQR 190200Z 07004KT 15SM FEW090 BKN350 18/10 A3002 RMK AC2CI1 SLP172

CYQR;2009-09-19 03:00;CYQR 190300Z 07006KT 15SM FEW100 BKN350 16/10 A3002 RMK AC2CI0 SLP171

CYQR;2009-09-19 04:00;CYQR 190400Z 09006KT 15SM FEW100 BKN350 15/10 A3001 RMK AC2CI0 SLP169

CYQR;2009-09-19 05:00;CYQR 190500Z 08006KT 15SM FEW120 SCT350 14/09 A3001 RMK AC2CI0 SLP168

CYQR;2009-09-19 06:00;CYQR 190600Z 15005KT 15SM FEW120 SCT350 12/08 A3000 RMK AC1CI0 SLP164

CYQR;2009-09-19 07:00;CYQR 190700Z 13008KT 15SM FEW120 SCT300 11/08 A2999 RMK AC1CI0 SLP161

CYQR;2009-09-19 08:00;CYQR 190800Z 13008KT 15SM FEW120 FEW300 11/08 A2998 RMK AC1CI0 SLP159

CYQR;2009-09-19 09:00;CYQR 190900Z 16009KT 15SM FEW120 FEW300 10/08 A2997 RMK AC1CI0 SLP155

CYQR;2009-09-19 10:00;CYQR 191000Z 15008KT 15SM FEW120 FEW300 11/09 A2996 RMK AC1CI0 SLP152

CYQR;2009-09-19 11:00;CYQR 191100Z 15008KT 15SM FEW120 FEW300 11/09 A2995 RMK AC1CI0 SLP147

CYQR;2009-09-19 12:00;CYQR 191200Z 13010KT 15SM FEW300 11/10 A2993 RMK CI0 SLP142

CYQR;2009-09-19 13:00;CYQR 191300Z 14010KT 15SM FEW300 11/10 A2993 RMK CI0 SLP140

CYQR;2009-09-19 14:00;CYQR 191400Z 14012KT 15SM FEW320 14/11 A2991 RMK CI1 SLP135

CYQR;2009-09-19 15:00;CYQR 191500Z 15011G16KT 15SM FEW340 16/12 A2990 RMK CI1 SLP131

CYQR;2009-09-19 16:00;CYQR 191600Z 16014KT 15SM FEW340 21/13 A2988 RMK CI1 SLP124

CYQR;2009-09-19 17:00;CYQR 191700Z 15015KT 15SM SKC 24/13 A2985 RMK SLP116

CYQR;2009-09-19 18:00;CYQR 191800Z 15013G18KT 15SM SKC 28/13 A2982 RMK SLP100

CYQR;2009-09-19 19:00;CYQR 191900Z 16016KT 15SM SKC 31/11 A2979 RMK SLP089

CYQR;2009-09-19 20:00;CYQR 192000Z 19020G26KT 15SM SKC 33/09 A2975 RMK SLP078

CYQR;2009-09-19 21:00;CYQR 192100Z 17023G28KT 15SM SKC 34/07 A2972 RMK SLP064

CYQR;2009-09-19 22:00;CYQR 192200Z 17022KT 15SM SKC 34/05 A2970 RMK SLP056

CYQR;2009-09-19 23:00;CYQR 192300Z 18018KT 15SM SKC 33/05 A2968 RMK SLP049

CYQR;2009-09-20 00:00;CYQR 200000Z 18015G21KT 15SM SKC 31/03 A2965 RMK SLP041

CYQR;2009-09-20 01:00;CYQR 200100Z 16009KT 15SM SKC 26/04 A2964 RMK SLP036

CYQR;2009-09-20 02:00;CYQR 200200Z 14012KT 15SM FEW300 24/05 A2963 RMK CI0 SLP032

CYQR;2009-09-20 03:00;CYQR 200300Z 14015KT 15SM FEW300 23/07 A2962 RMK CI0 SLP031

CYQR;2009-09-20 04:00;CYQR 200400Z 15013KT 15SM FEW300 22/09 A2961 RMK CI0 SLP027

CYQR;2009-09-20 05:00;CYQR 200500Z 15012G17KT 15SM FEW300 21/09 A2959 RMK CI0 SLP021

CYQR;2009-09-20 06:00;CYQR 200600Z 16014KT 15SM FEW300 20/08 A2958 RMK CI1 SLP011

CYQR;2009-09-20 07:00;CYQR 200700Z 15012KT 15SM FEW120 19/07 A2957 RMK AC1 SLP009

CYQR;2009-09-20 08:00;CYQR 200800Z 14013KT 15SM FEW120 17/07 A2956 RMK AC1 SLP005

CYQR;2009-09-20 09:00;CYQR 200900Z 14007KT 15SM FEW120 15/07 A2958 RMK AC1 SLP012

CYQR;2009-09-20 10:00;CYQR 201000Z 16003KT 15SM FEW120 13/06 A2958 RMK AC1 SLP011

CYQR;2009-09-20 11:00;CYQR 201100Z 24009KT 15SM SKC 14/06 A2960 RMK SLP018

CYQR;2009-09-20 12:00;CYQR 201200Z 25012KT 15SM FEW120 14/06 A2960 RMK AC2 SLP021

CYQR;2009-09-20 13:00;CYQR 201300Z 27017KT 15SM SCT120 18/07 A2959 RMK AC4 SLP019

CYQR;2009-09-20 14:00;CYQR 201400Z 29011KT 15SM BKN120 BKN170 BKN330 17/09 A2959 RMK AC6AC1CI0 CB TOPS W SLP017

CYQR;2009-09-20 15:00;CYQR 201500Z 27014KT 15SM SCT120 SCT170 SCT330 18/10 A2958 RMK AC3AC1CI1 SLP016

CYQR;2009-09-20 15:53;CYQR 201553Z 27018KT 15SM -SHRA FEW010 SCT045 BKN120 18/ RMK SF2SC2AC2

CYQR;2009-09-20 16:00;CYQR 201600Z 27016KT 15SM -SHRA FEW010 SCT045 BKN120 19/10 A2962 RMK SF2SC2AC2 SLP030

CYQR;2009-09-20 17:00;CYQR 201700Z 25017KT 15SM -SHRA FEW010 SCT023 BKN120 BKN170 17/11 A2964 RMK SF1SC3AC3AC1 SLP034

CYQR;2009-09-20 17:54;CYQR 201754Z 27020G26KT 15SM FEW010 FEW023 SCT054 BKN120 19/ RMK SF1SC2SC2AC3

CYQR;2009-09-20 18:00;CYQR 201800Z 27019G26KT 15SM FEW010 FEW023 SCT054 BKN120 19/11 A2963 RMK SF1SC2SC2AC3 SLP035

CYQR;2009-09-20 18:22;CYQR 201822Z 28021KT 15SM -SHRA FEW023 BKN054 BKN120 RMK SC1SC5AC2 ACC ASOCTD

CYQR;2009-09-20 18:49;CYQR 201849Z 30021G28KT 15SM FEW033 SCT053 BKN120 BKN330 20/ RMK SC1SC3AC3CI1

CYQR;2009-09-20 19:00;CYQR 201900Z 30024G29KT 15SM FEW033 SCT053 BKN120 BKN330 20/12 A2963 RMK SC1SC3AC3CI1 SLP036

CYQR;2009-09-20 20:00;CYQR 202000Z 32022G28KT 15SM BKN033 BKN120 19/10 A2966 RMK SC6AC1 SLP046

CYQR;2009-09-20 21:00;CYQR 202100Z 33021G28KT 15SM OVC025 15/09 A2971 RMK SC8 PRESRR SLP069

CYQR;2009-09-20 21:50;CYQR 202150Z 33024G31KT 3SM -RA OVC023 13/ RMK SC8

CYQR;2009-09-20 22:00;CYQR 202200Z 32024G29KT 3SM -RA OVC016 12/10 A2975 RMK SC8 SLP080

CYQR;2009-09-20 22:33;CYQR 202233Z 32022G29KT 3SM -RA OVC009 12/ RMK SC8

CYQR;2009-09-20 23:00;CYQR 202300Z 31021KT 2SM -RA OVC006 11/10 A2978 RMK SC8 SLP091

CYQR;2009-09-20 23:39;CYQR 202339Z 31019G24KT 1 1/4SM -RA BR OVC005 11/ RMK SC8 VIS VRB 1-11/2

CYQR;2009-09-21 00:00;CYQR 210000Z 32018G24KT 1 1/2SM -RA BR OVC005 11/10 A2980 RMK SC8 SLP102

CYQR;2009-09-21 00:42;CYQR 210042Z 32019G24KT 3SM -RA OVC006 11/ RMK SC8

CYQR;2009-09-21 01:00;CYQR 210100Z 31020G25KT 3SM -RA BR OVC006 11/09 A2982 RMK SC8 SLP109

CYQR;2009-09-21 02:00;CYQR 210200Z 32015G24KT 3SM -RA BR OVC006 10/09 A2985 RMK SC8 SLP118

CYQR;2009-09-21 03:00;CYQR 210300Z 32019G24KT 4SM -RA BR BKN007 OVC027 11/10 A2986 RMK SC6SC2 SLP120

CYQR;2009-09-21 04:00;CYQR 210400Z 34023G30KT 6SM -RA BR BKN008 OVC030 11/09 A2988 RMK SC6SC2 SLP127

CYQR;2009-09-21 04:30;CYQR 210430Z 34027G36KT 6SM -RA BR SCT006 OVC015 10/ RMK SC4SC4

CYQR;2009-09-21 05:00;CYQR 210500Z 34021G30KT 6SM -RA BR SCT006 OVC013 10/09 A2991 RMK SC4SC4 SLP136

CYQR;2009-09-21 06:00;CYQR 210600Z 33024G30KT 6SM -RA BR FEW006 OVC017 09/09 A2993 RMK SC2SC6 SLP145

CYQR;2009-09-21 07:00;CYQR 210700Z 34020G27KT 6SM -RA BR OVC030 10/09 A2996 RMK SC8 SLP155

CYQR;2009-09-21 08:00;CYQR 210800Z 33019G25KT 6SM -RA BR OVC025 10/09 A2999 RMK SC8 SLP163

CYQR;2009-09-21 09:00;CYQR 210900Z 35020G26KT 6SM -RA BR OVC028 09/08 A3002 RMK SC8 SLP176

CYQR;2009-09-21 10:00;CYQR 211000Z 34011KT 6SM -RA BR OVC015 09/08 A3004 RMK SC8 SLP182

CYQR;2009-09-21 11:00;CYQR 211100Z 32013KT 10SM -RA OVC019 10/09 A3005 RMK SC8 SLP187

CYQR;2009-09-21 11:31;CYQR 211131Z 33016G21KT 10SM OVC045 10/ RMK SC8

CYQR;2009-09-21 12:00;CYQR 211200Z 34016KT 15SM OVC050 10/09 A3007 RMK SC8 SLP197

CYQR;2009-09-21 13:00;CYQR 211300Z 32014KT 15SM FEW015 BKN060 BKN120 OVC280 10/ A3009 RMK SC1SC5AC2CI0 SLP205

CYQR;2009-09-21 14:00;CYQR 211400Z 32015KT 15SM FEW015 FEW060 BKN120 BKN300 10/ A3012 RMK SC1SC2AC2CI2 SLP214

CYQR;2009-09-21 15:00;CYQR 211500Z 33021G26KT 15SM FEW012 FEW060 FEW120 BKN300 10/ A3014 RMK SC1SC1AC2CI2 SLP221

CYQR;2009-09-21 16:00;CYQR 211600Z 33013KT 15SM FEW010 BKN140 BKN300 11/ A3017 RMK SC1AC3CI0 CC ASOCTD SLP230

CYQR;2009-09-21 16:53;CYQR 211653Z 33016KT 15SM BKN012 BKN140 12/ RMK SC6AC1

CYQR;2009-09-21 17:00;CYQR 211700Z 33018KT 15SM BKN012 BKN140 12/ A3018 RMK SC7AC1 SLP234

CYQR;2009-09-21 17:51;CYQR 211751Z 34019KT 15SM SCT018 SCT140 14/ RMK CU3AC1

CYQR;2009-09-21 18:00;CYQR 211800Z 34018G24KT 15SM SCT018 SCT140 14/ A3018 RMK CU3AC1 TCU DVPLG W-NW SLP232

CYQR;2009-09-21 19:00;CYQR 211900Z 34015G21KT 15SM BKN024 13/ A3019 RMK CU6 SLP235

CYQR;2009-09-21 20:00;CYQR 212000Z 34015KT 15SM BKN030 14/ A3018 RMK CU5 SLP232

CYQR;2009-09-21 21:00;CYQR 212100Z 34016KT 15SM BKN039 15/ A3018 RMK CU5 SLP232

CYQR;2009-09-21 22:00;CYQR 212200Z 36016KT 15SM SCT039 15/ A3018 RMK CU3 SLP233

CYQR;2009-09-21 23:00;CYQR 212300Z 34015KT 15SM FEW042 FEW310 15/14 A3017 RMK CU1CI1 SLP230

CYQR;2009-09-22 00:00;CYQR 220000Z 34011KT 15SM FEW040 FEW310 15/12 A3019 RMK CU1CI1 SLP234

CYQR;2009-09-22 01:00;CYQR 220100Z 34005KT 15SM SCT310 11/09 A3019 RMK CI1 SLP234

CYQR;2009-09-22 02:00;CYQR 220200Z 34006KT 15SM SCT300 08/06 A3020 RMK CI1 SLP239

CYQR;2009-09-22 03:00;CYQR 220300Z 00000KT 15SM SKC 06/05 A3021 RMK SLP247

CYQR;2009-09-22 04:00;CYQR 220400Z 22005KT 15SM SKC 05/04 A3020 RMK SLP246

CYQR;2009-09-22 05:00;CYQR 220500Z 21006KT 15SM SKC 04/02 A3022 RMK SLP250

CYQR;2009-09-22 06:00;CYQR 220600Z 26006KT 15SM SKC 03/03 A3021 RMK SLP249

CYQR;2009-09-22 07:00;CYQR 220700Z 27006KT 15SM SKC 03/03 A3021 RMK SLP248

CYQR;2009-09-22 08:00;CYQR 220800Z 25005KT 15SM SKC 03/02 A3021 RMK SLP248

CYQR;2009-09-22 09:00;CYQR 220900Z 23005KT 15SM SKC 02/02 A3020 RMK SLP245

CYQR;2009-09-22 10:00;CYQR 221000Z 27004KT 15SM SKC 03/03 A3022 RMK SLP249

CYQR;2009-09-22 11:00;CYQR 221100Z 22005KT 15SM SKC 03/02 A3022 RMK SLP250

CYQR;2009-09-22 12:00;CYQR 221200Z 25007KT 15SM SKC 04/03 A3020 RMK SLP244

CYQR;2009-09-22 13:00;CYQR 221300Z 25005KT 15SM FEW120 FEW280 04/03 A3021 RMK AC1CI0 CONTRAILS SLP248

CYQR;2009-09-22 14:00;CYQR 221400Z 25007KT 15SM BKN280 07/05 A3021 RMK CI2 CONTRAILS SLP248

CYQR;2009-09-22 15:00;CYQR 221500Z 27009KT 15SM BKN300 11/08 A3020 RMK CI0 SLP245

CYQR;2009-09-22 16:00;CYQR 221600Z 28010KT 15SM BKN310 14/10 A3021 RMK CI0 CONTRAILS SLP247

CYQR;2009-09-22 17:00;CYQR 221700Z 31010KT 15SM SCT320 18/06 A3021 RMK CI0 CONTRAILS SLP248

CYQR;2009-09-22 18:00;CYQR 221800Z 30011KT 15SM BKN320 20/06 A3020 RMK CI5 CONTRAILS SLP241

CYQR;2009-09-22 19:00;CYQR 221900Z 30013G19KT 15SM BKN320 22/05 A3019 RMK CI5 CONTRAILS SLP236

CYQR;2009-09-22 20:00;CYQR 222000Z 32014KT 15SM BKN340 23/07 A3017 RMK CI2 CONTRAILS SLP231

CYQR;2009-09-22 21:00;CYQR 222100Z 33019G27KT 15SM BKN340 24/08 A3017 RMK CI1 SLP227

CYQR;2009-09-22 22:00;CYQR 222200Z 33016G21KT 15SM FEW062 BKN340 24/08 A3016 RMK CF1CI3 CONTRAILS SLP226

CYQR;2009-09-22 23:00;CYQR 222300Z 36013G18KT 15SM BKN340 23/09 A3016 RMK CI2 SLP225

CYQR;2009-09-23 00:00;CYQR 230000Z 35007KT 15SM BKN340 22/10 A3017 RMK CI1 CONTRAILS SLP229

CYQR;2009-09-23 01:00;CYQR 230100Z 00000KT 15SM SCT340 18/09 A3017 RMK CI2 CONTROLS SLP228

CYQR;2009-09-23 02:00;CYQR 230200Z 17002KT 15SM SCT290 16/08 A3018 RMK CI1 SLP231

CYQR;2009-09-23 03:00;CYQR 230300Z 18008KT 15SM SCT290 12/08 A3017 RMK CI1 SLP231

CYQR;2009-09-23 04:00;CYQR 230400Z 18007KT 15SM SKC 11/07 A3016 RMK SLP228

CYQR;2009-09-23 05:00;CYQR 230500Z 19008KT 15SM SKC 10/07 A3016 RMK SLP228

CYQR;2009-09-23 06:00;CYQR 230600Z 19008KT 15SM SKC 10/07 A3017 RMK SLP225

CYQR;2009-09-23 07:00;CYQR 230700Z 19008KT 15SM SKC 10/07 A3017 RMK SLP225

CYQR;2009-09-23 08:00;CYQR 230800Z 18006KT 15SM SKC 10/07 A3016 RMK SLP223

CYQR;2009-09-23 09:00;CYQR 230900Z 17005KT 15SM SKC 10/06 A3015 RMK SLP218

CYQR;2009-09-23 10:00;CYQR 231000Z 21004KT 15SM SKC 10/06 A3015 RMK SLP217

CYQR;2009-09-23 11:00;CYQR 231100Z 20004KT 15SM SKC 09/06 A3016 RMK SLP220

CYQR;2009-09-23 12:00;CYQR 231200Z 21004KT 15SM SKC 08/05 A3017 RMK SLP227

CYQR;2009-09-23 13:00;CYQR 231300Z 23004KT 15SM SKC 08/05 A3018 RMK SLP230

CYQR;2009-09-23 14:00;CYQR 231400Z 23002KT 15SM SKC 11/07 A3019 RMK SLP233

CYQR;2009-09-23 15:00;CYQR 231500Z 27003KT 15SM SKC 15/08 A3019 RMK SLP235

CYQR;2009-09-23 16:00;CYQR 231600Z 27006KT 15SM SKC 20/09 A3019 RMK SLP236

CYQR;2009-09-23 17:00;CYQR 231700Z 28007KT 15SM SKC 23/09 A3019 RMK SLP236

CYQR;2009-09-23 18:00;CYQR 231800Z 27007KT 15SM SKC 26/10 A3019 RMK SLP228

CYQR;2009-09-23 19:00;CYQR 231900Z 29009KT 15SM SKC 28/09 A3017 RMK SLP223

CYQR;2009-09-23 20:00;CYQR 232000Z 26008KT 15SM SKC 30/09 A3015 RMK SLP216

CYQR;2009-09-23 21:00;CYQR 232100Z 24007KT 15SM SKC 30/08 A3014 RMK SLP209

CYQR;2009-09-23 22:00;CYQR 232200Z 27009KT 15SM SKC 30/08 A3013 RMK SLP206

CYQR;2009-09-23 23:00;CYQR 232300Z 25009KT 15SM SKC 30/07 A3012 RMK SLP202

CYQR;2009-09-24 00:00;CYQR 240000Z 22007KT 15SM SKC 28/07 A3011 RMK SLP202

CYQR;2009-09-24 01:00;CYQR 240100Z 20008KT 15SM SKC 20/08 A3011 RMK SLP201

CYQR;2009-09-24 02:00;CYQR 240200Z 18008KT 15SM SKC 18/08 A3011 RMK SLP201

CYQR;2009-09-24 03:00;CYQR 240300Z 19009KT 15SM SKC 16/08 A3010 RMK SLP202

CYQR;2009-09-24 04:00;CYQR 240400Z 19008KT 15SM SKC 14/08 A3010 RMK SLP202

CYQR;2009-09-24 05:00;CYQR 240500Z 18010KT 15SM SKC 14/07 A3011 RMK SLP203

CYQR;2009-09-24 06:00;CYQR 240600Z 18009KT 15SM SKC 13/07 A3010 RMK SLP196

CYQR;2009-09-24 07:00;CYQR 240700Z 18010KT 15SM SKC 12/07 A3009 RMK SLP194

CYQR;2009-09-24 08:00;CYQR 240800Z 18009KT 15SM SKC 12/07 A3009 RMK SLP192

CYQR;2009-09-24 09:00;CYQR 240900Z 18007KT 15SM SKC 11/06 A3009 RMK SLP189

CYQR;2009-09-24 10:00;CYQR 241000Z 17009KT 15SM SKC 11/06 A3008 RMK SLP187

CYQR;2009-09-24 11:00;CYQR 241100Z 17009KT 15SM SKC 11/06 A3007 RMK SLP185

CYQR;2009-09-24 12:00;CYQR 241200Z 16008KT 15SM SKC 11/06 A3007 RMK SLP186

CYQR;2009-09-24 13:00;CYQR 241300Z 16009KT 15SM FEW300 11/06 A3007 RMK CI1 SLP185

CYQR;2009-09-24 14:00;CYQR 241400Z 17012KT 15SM FEW300 12/06 A3007 RMK CI1 SLP185

CYQR;2009-09-24 15:00;CYQR 241500Z 17008KT 15SM FEW300 17/09 A3006 RMK CI1 SLP187

CYQR;2009-09-24 16:00;CYQR 241600Z 20017KT 15SM FEW300 24/09 A3006 RMK CI1 SLP185

CYQR;2009-09-24 17:00;CYQR 241700Z 20018G25KT 15SM FEW300 27/09 A3004 RMK CI1 SLP181

CYQR;2009-09-24 18:00;CYQR 241800Z 21028KT 15SM FEW300 28/08 A3003 RMK CI1 SLP170

CYQR;2009-09-24 19:00;CYQR 241900Z 20025G31KT 15SM FEW300 29/07 A3001 RMK CI1 SLP163

CYQR;2009-09-24 20:00;CYQR 242000Z 21028KT 15SM FEW300 30/06 A2999 RMK CI1 SLP159

CYQR;2009-09-24 21:00;CYQR 242100Z 19026G33KT 15SM FEW300 30/06 A2997 RMK CI1 SLP151

CYQR;2009-09-24 22:00;CYQR 242200Z 20019G30KT 15SM FEW300 30/06 A2996 RMK CI1 SLP146

CYQR;2009-09-24 23:00;CYQR 242300Z 19023G28KT 15SM FEW300 29/06 A2995 RMK CI1 SLP144

CYQR;2009-09-25 00:00;CYQR 250000Z 19017G22KT 15SM FEW300 27/06 A2994 RMK CI1 SLP142

CYQR;2009-09-25 01:00;CYQR 250100Z 18010KT 15SM FEW300 22/07 A2994 RMK CI1 SLP142

CYQR;2009-09-25 02:00;CYQR 250200Z 18012KT 15SM SKC 19/06 A2994 RMK SLP140

CYQR;2009-09-25 03:00;CYQR 250300Z 18011KT 15SM SKC 17/06 A2993 RMK SLP142

CYQR;2009-09-25 04:00;CYQR 250400Z 17011KT 15SM SKC 16/06 A2993 RMK SLP141

CYQR;2009-09-25 05:00;CYQR 250500Z 17009KT 15SM SKC 14/06 A2993 RMK SLP141

CYQR;2009-09-25 06:00;CYQR 250600Z 17009KT 15SM SKC 13/05 A2993 RMK SLP135

CYQR;2009-09-25 07:00;CYQR 250700Z 15009KT 15SM SKC 13/05 A2992 RMK SLP134

CYQR;2009-09-25 08:00;CYQR 250800Z 14010KT 15SM SKC 12/05 A2992 RMK SLP132

CYQR;2009-09-25 09:00;CYQR 250900Z 00000KT 15SM SKC 10/05 A2994 RMK SLP140

CYQR;2009-09-25 10:00;CYQR 251000Z 14010KT 15SM SKC 09/05 A2993 RMK SLP138

CYQR;2009-09-25 11:00;CYQR 251100Z 19003KT 15SM SKC 08/04 A2994 RMK SLP140

CYQR;2009-09-25 12:00;CYQR 251200Z 22003KT 15SM SCT260 07/04 A2993 RMK CI1 SLP142

CYQR;2009-09-25 13:00;CYQR 251300Z 21002KT 15SM FEW260 06/03 A2995 RMK CI1 SLP147

CYQR;2009-09-25 14:00;CYQR 251400Z 30008KT 15SM FEW260 08/06 A2997 RMK CI1 SLP153

CYQR;2009-09-25 15:00;CYQR 251500Z 36006KT 15SM FEW260 11/07 A2998 RMK CI1 SLP162

CYQR;2009-09-25 16:00;CYQR 251600Z 36017KT 15SM FEW260 16/08 A2999 RMK CI1 SLP164

CYQR;2009-09-25 17:00;CYQR 251700Z 02017KT 15SM SKC 18/09 A3001 RMK SLP170

CYQR;2009-09-25 18:00;CYQR 251800Z CCA 02013G18KT 15SM SKC 21/08 A3001 RMK SLP168

CYQR;2009-09-25 19:00;CYQR 251900Z 02016KT 15SM SKC 23/06 A3001 RMK SLP167

CYQR;2009-09-25 20:00;CYQR 252000Z 03012G21KT 15SM SKC 23/05 A3001 RMK SLP169

CYQR;2009-09-25 21:00;CYQR 252100Z 35013KT 15SM SKC 23/05 A3002 RMK SLP171

CYQR;2009-09-25 22:00;CYQR 252200Z 01013KT 15SM SKC 23/04 A3001 RMK SLP170

CYQR;2009-09-25 23:00;CYQR 252300Z 01012KT 15SM SKC 22/03 A3001 RMK SLP170

CYQR;2009-09-26 00:00;CYQR 260000Z 35009KT 15SM SKC 20/03 A3001 RMK SLP172

CYQR;2009-09-26 01:00;CYQR 260100Z 36007KT 15SM FEW300 15/03 A3001 RMK CI1 SLP172

CYQR;2009-09-26 02:00;CYQR 260200Z 34008KT 15SM FEW300 12/04 A3000 RMK CI1 SLP171

CYQR;2009-09-26 03:00;CYQR 260300Z 36005KT 15SM FEW300 11/04 A2999 RMK CI1 SLP170

CYQR;2009-09-26 04:00;CYQR 260400Z 35002KT 15SM FEW300 10/04 A2999 RMK CI1 SLP169

CYQR;2009-09-26 05:00;CYQR 260500Z 31004KT 15SM FEW300 07/03 A2999 RMK CI1 SLP167

CYQR;2009-09-26 06:00;CYQR 260600Z 00000KT 15SM FEW300 07/02 A2996 RMK CI1 SLP155

CYQR;2009-09-26 07:00;CYQR 260700Z 00000KT 15SM FEW300 07/02 A2993 RMK CI1 SLP146

CYQR;2009-09-26 08:00;CYQR 260800Z 19005KT 15SM FEW300 05/02 A2991 RMK CI1 SLP138

CYQR;2009-09-26 09:00;CYQR 260900Z 17003KT 15SM FEW300 04/02 A2989 RMK CI1 SLP132

CYQR;2009-09-26 10:00;CYQR 261000Z 16005KT 15SM SCT300 06/02 A2986 RMK CI2 SLP121

CYQR;2009-09-26 11:00;CYQR 261100Z 17006KT 15SM BKN300 07/02 A2984 RMK CI6 SLP117

CYQR;2009-09-26 12:00;CYQR 261200Z 16008KT 15SM SCT300 08/02 A2983 RMK CI1 SLP110

CYQR;2009-09-26 13:00;CYQR 261300Z 17009KT 15SM FEW100 SCT300 07/03 A2980 RMK AC1CI1 SLP102

CYQR;2009-09-26 14:00;CYQR 261400Z 16012KT 15SM FEW150 BKN300 09/03 A2976 RMK AC1CI3 SLP087

CYQR;2009-09-26 15:00;CYQR 261500Z 16009KT 15SM FEW150 BKN300 11/05 A2972 RMK AC2CI1 SLP075

CYQR;2009-09-26 16:00;CYQR 261600Z 19014KT 15SM FEW150 BKN300 18/05 A2968 RMK AC2CI0 SLP062

CYQR;2009-09-26 17:00;CYQR 261700Z 22015KT 15SM FEW150 BKN300 21/05 A2965 RMK AC2CI0 SLP053

CYQR;2009-09-26 18:00;CYQR 261800Z 25019G24KT 15SM FEW100 BKN300 23/05 A2960 RMK AC1CI2 SLP032

CYQR;2009-09-26 19:00;CYQR 261900Z 29015G22KT 15SM FEW120 SCT300 22/05 A2959 RMK AC1CI0 SLP028

CYQR;2009-09-26 20:00;CYQR 262000Z 31016KT 15SM FEW150 FEW300 22/05 A2958 RMK AC1CI0 SLP023

CYQR;2009-09-26 21:00;CYQR 262100Z 34015KT 15SM SCT150 BKN300 21/05 A2958 RMK AC3CI1 SLP027

CYQR;2009-09-26 22:00;CYQR 262200Z 34017G25KT 15SM SCT100 BKN300 21/05 A2959 RMK AC4CI1 SLP029

CYQR;2009-09-26 23:00;CYQR 262300Z 34021G27KT 15SM BKN120 BKN300 22/01 A2960 RMK AC5CI1 SLP034

CYQR;2009-09-27 00:00;CYQR 270000Z 34032G38KT 15SM BKN090 BKN300 18/00 A2963 RMK AC6CI1 SLP044

CYQR;2009-09-27 00:37;CYQR 270037Z 36017G24KT 15SM -SHRA BKN090 BKN300 15/ RMK AC6CI1 ACC ASOCTD

CYQR;2009-09-27 01:00;CYQR 270100Z CCA 36015G20KT 15SM -SHRA OVC090 15/05 A2964 RMK AC7 SLP046

CYQR;2009-09-27 01:14;CYQR 270114Z 36013KT 15SM VCSH BKN090 15/ RMK AC6

CYQR;2009-09-27 02:00;CYQR 270200Z CCA 31011KT 15SM BKN067 14/05 A2965 RMK AC6 LTG DIST SE SLP050

CYQR;2009-09-27 02:41;CYQR 270241Z 35014KT 15SM -SHRA BKN067 12/ RMK AC7

CYQR;2009-09-27 03:00;CYQR 270300Z 34011G16KT 15SM -SHRA BKN077 12/06 A2965 RMK AC6 SLP053

CYQR;2009-09-27 04:00;CYQR 270400Z 33007KT 15SM FEW024 SCT087 09/05 A2963 RMK SC2AC2 SLP044

CYQR;2009-09-27 05:00;CYQR 270500Z 34012KT 15SM FEW087 08/03 A2962 RMK AC2 SLP043

CYQR;2009-09-27 06:00;CYQR 270600Z 34011KT 15SM SCT099 10/03 A2964 RMK AC4 SLP042

CYQR;2009-09-27 07:00;CYQR 270700Z 31023G32KT 15SM BKN080 13/03 A2970 RMK AC6 PRESRR SLP061

CYQR;2009-09-27 08:00;CYQR 270800Z 32025G35KT 15SM BKN053 BKN080 14/M00 A2971 RMK SC5AC2 SLP064

CYQR;2009-09-27 09:00;CYQR 270900Z 29020G25KT 15SM BKN053 11/02 A2971 RMK SC6 SLP067

CYQR;2009-09-27 10:00;CYQR 271000Z 30022G28KT 15SM SCT053 BKN080 11/M02 A2972 RMK SC3AC4 SLP070

CYQR;2009-09-27 11:00;CYQR 271100Z 30024G32KT 15SM SCT096 08/M01 A2973 RMK AC3 SLP073

CYQR;2009-09-27 11:31;CYQR 271131Z 30024G30KT 15SM -SHRA FEW055 BKN079 08/ RMK SC2AC4

CYQR;2009-09-27 12:00;CYQR 271200Z 31023G29KT 15SM -SHRA BKN036 BKN079 07/01 A2975 RMK SC5AC2 SLP085

CYQR;2009-09-27 12:29;CYQR 271229Z 30024G31KT 15SM FEW047 SCT080 07/ RMK SC2AC2

CYQR;2009-09-27 13:00;CYQR 271300Z 30024G32KT 15SM SCT031 BKN080 07/01 A2976 RMK SC3AC2 SLP089

CYQR;2009-09-27 13:37;CYQR 271337Z 31027G33KT 10SM -SHRA OVC025 07/ RMK SC8

CYQR;2009-09-27 14:00;CYQR 271400Z 31021G31KT 8SM -SHRA OVC016 06/04 A2978 RMK SC8 SLP094

CYQR;2009-09-27 15:00;CYQR 271500Z 30026G32KT 10SM -SHRA OVC016 OVC080 07/04 A2979 RMK SC7ACC1 SLP102

CYQR;2009-09-27 15:10;CYQR 271510Z 30025G33KT 15SM BKN020 OVC080 08/ RMK SC6ACC2

CYQR;2009-09-27 16:00;CYQR 271600Z 31026G34KT 15SM BKN023 BKN042 BKN080 08/03 A2981 RMK SC5SC2AC1 SLP108

CYQR;2009-09-27 17:00;CYQR 271700Z 31031G38KT 15SM SCT023 BKN039 BKN080 10/02 A2981 RMK SC4SC2AC2 SLP108

CYQR;2009-09-27 18:00;CYQR 271800Z 32032G38KT 15SM BKN032 10/02 A2982 RMK SC7 SLP113

CYQR;2009-09-27 19:00;CYQR 271900Z 31031G40KT 15SM OVC034 10/02 A2984 RMK SC8 SLP119

CYQR;2009-09-27 20:00;CYQR 272000Z 32032G37KT 15SM OVC036 10/01 A2986 RMK SC8 SLP124

CYQR;2009-09-27 21:00;CYQR 272100Z 31027G35KT 15SM OVC036 11/02 A2988 RMK SC8 SLP131

CYQR;2009-09-27 22:00;CYQR 272200Z 31031KT 15SM OVC036 11/02 A2989 RMK SC8 SLP135

CYQR;2009-09-27 22:46;CYQR 272246Z 32035G41KT 10SM -SHRA OVC032 10/ RMK SC8

CYQR;2009-09-27 23:00;CYQR 272300Z 32022G41KT 15SM -SHRA OVC032 09/05 A2992 RMK SC8 SLP145

CYQR;2009-09-28 00:00;CYQR 280000Z 33024G29KT 15SM -SHRA BKN026 BKN080 09/05 A2997 RMK SC6AC2 SLP165

CYQR;2009-09-28 00:28;CYQR 280028Z 32020G28KT 15SM SCT036 BKN080 08/ RMK SC3AC1

CYQR;2009-09-28 01:00;CYQR 280100Z 33020G29KT 15SM SCT045 BKN090 08/05 A2998 RMK SC3AC1 SLP170

CYQR;2009-09-28 02:00;CYQR 280200Z 32019G25KT 15SM BKN052 BKN092 09/05 A3002 RMK SC6AC2 SLP181

CYQR;2009-09-28 03:00;CYQR 280300Z 32015KT 15SM FEW054 08/05 A3004 RMK SC2 SLP190

CYQR;2009-09-28 04:00;CYQR 280400Z 32015KT 15SM BKN044 08/05 A3006 RMK SC7 SLP197

CYQR;2009-09-28 05:00;CYQR 280500Z 33011KT 15SM BKN038 BKN090 09/05 A3008 RMK SC6AC1 SLP204

CYQR;2009-09-28 06:00;CYQR 280600Z 33010KT 15SM BKN024 OVC044 08/05 A3011 RMK SC6SC2 SLP214

CYQR;2009-09-28 07:00;CYQR 280700Z 33008KT 15SM OVC032 07/05 A3013 RMK SC8 SLP220

CYQR;2009-09-28 08:00;CYQR 280800Z 32010KT 15SM OVC035 07/04 A3015 RMK SC8 SLP226

CYQR;2009-09-28 09:00;CYQR 280900Z 34009KT 15SM OVC039 07/05 A3015 RMK SC8 SLP226

CYQR;2009-09-28 10:00;CYQR 281000Z 32008KT 15SM SCT026 OVC039 07/05 A3017 RMK SC3SC5 SLP233

CYQR;2009-09-28 11:00;CYQR 281100Z 35005KT 15SM BKN019 OVC044 07/03 A3018 RMK SC6SC2 SLP236

CYQR;2009-09-28 12:00;CYQR 281200Z 36005KT 15SM BKN034 05/03 A3019 RMK SC6 SLP241

CYQR;2009-09-28 13:00;CYQR 281300Z 34006KT 15SM FEW034 02/01 A3020 RMK SC2 SLP247

CYQR;2009-09-28 14:00;CYQR 281400Z 03007KT 15SM BKN021 06/02 A3022 RMK SC7 SLP251

CYQR;2009-09-28 15:00;CYQR 281500Z 05006KT 15SM BKN028 06/02 A3022 RMK SC7 SLP254

CYQR;2009-09-28 16:00;CYQR 281600Z 04007KT 15SM FEW024 SCT030 07/00 A3022 RMK CU1SC3 SLP255

CYQR;2009-09-28 17:00;CYQR 281700Z CCA 05004KT 15SM FEW028 FEW320 08/01 A3023 RMK CU1CI1 SLP257

CYQR;2009-09-28 18:00;CYQR 281800Z 00000KT 15SM FEW040 SCT350 10/00 A3021 RMK CU1CI0 SLP246

CYQR;2009-09-28 19:00;CYQR 281900Z 08007KT 15SM FEW040 FEW093 SCT350 11/M00 A3018 RMK CU1AC2CI1 TR CU SLP238

CYQR;2009-09-28 20:00;CYQR 282000Z 10006KT 15SM FEW050 FEW100 FEW350 11/M02 A3016 RMK CU1AC1CI1 SLP230

CYQR;2009-09-28 21:00;CYQR 282100Z 15011KT 15SM FEW054 FEW100 FEW350 12/M02 A3014 RMK CU1AC1CI1 SLP223

CYQR;2009-09-28 22:00;CYQR 282200Z 11011KT 15SM FEW055 FEW120 SCT350 12/M01 A3013 RMK CU1AC1CI0 SLP218

CYQR;2009-09-28 23:00;CYQR 282300Z 12014KT 15SM FEW120 BKN350 11/M01 A3013 RMK AC1CI2 SLP220

CYQR;2009-09-29 00:00;CYQR 290000Z 12013G20KT 15SM FEW120 BKN300 10/M01 A3012 RMK AC1CI2 SLP218

CYQR;2009-09-29 01:00;CYQR 290100Z 12011KT 15SM FEW120 BKN300 08/M00 A3011 RMK AC1CI0 SLP216

CYQR;2009-09-29 02:00;CYQR 290200Z 12016KT 15SM FEW120 SCT300 07/01 A3009 RMK AC1CI0 SLP210

CYQR;2009-09-29 03:00;CYQR 290300Z 12017KT 15SM FEW120 BKN300 06/01 A3008 RMK AC1CI1 SLP208

CYQR;2009-09-29 04:00;CYQR 290400Z 12017G22KT 15SM FEW120 SCT300 06/01 A3007 RMK AC1CI1 SLP205

CYQR;2009-09-29 05:00;CYQR 290500Z 13020KT 15SM FEW120 FEW300 06/01 A3007 RMK AC1CI0 SLP204

CYQR;2009-09-29 06:00;CYQR 290600Z 13017KT 15SM FEW120 FEW300 05/01 A3005 RMK AC1CI0 SLP195

CYQR;2009-09-29 07:00;CYQR 290700Z 14020G27KT 15SM FEW300 05/01 A3004 RMK CI0 SLP193

CYQR;2009-09-29 08:00;CYQR 290800Z 13019G24KT 15SM FEW300 05/01 A3004 RMK CI0 SLP190

CYQR;2009-09-29 09:00;CYQR 290900Z 14024G30KT 15SM FEW300 05/02 A3001 RMK CI0 SLP180

CYQR;2009-09-29 10:00;CYQR 291000Z 13023G32KT 15SM FEW120 SCT300 05/02 A2999 RMK AC1CI2 SLP174

CYQR;2009-09-29 11:00;CYQR 291100Z 13022G29KT 15SM FEW120 BKN300 05/02 A2998 RMK AC2CI2 SLP169

CYQR;2009-09-29 12:00;CYQR 291200Z 13022G31KT 15SM FEW120 SCT300 05/02 A2997 RMK AC1CI1 SLP167

CYQR;2009-09-29 13:00;CYQR 291300Z 14029G34KT 15SM FEW010 BKN300 05/02 A2996 RMK SF1CI2 SLP163

CYQR;2009-09-29 14:00;CYQR 291400Z 14026G33KT 15SM SCT012 BKN300 06/03 A2994 RMK SF4CI1 SLP159

CYQR;2009-09-29 15:00;CYQR 291500Z 14029G38KT 15SM SCT014 BKN300 07/03 A2992 RMK SF4CI1 SLP152

CYQR;2009-09-29 16:00;CYQR 291600Z 14033G40KT 15SM FEW016 BKN300 09/04 A2990 RMK SF2CI2 SLP145

CYQR;2009-09-29 17:00;CYQR 291700Z 14028G41KT 15SM FEW020 BKN300 10/04 A2989 RMK SF1CI0 SLP140

CYQR;2009-09-29 18:00;CYQR 291800Z 13030G36KT 15SM BKN300 12/04 A2985 RMK CI2 SLP125

CYQR;2009-09-29 19:00;CYQR 291900Z 13032G41KT 15SM FEW100 FEW320 14/04 A2980 RMK AC1CI2 SLP110

CYQR;2009-09-29 20:00;CYQR 292000Z 15027G36KT 15SM FEW100 BKN300 15/03 A2980 RMK AC1CI1 SLP109

CYQR;2009-09-29 21:00;CYQR 292100Z 15030G38KT 15SM FEW100 BKN300 16/03 A2978 RMK AC1CI1 SLP096

CYQR;2009-09-29 22:00;CYQR 292200Z 15030G37KT 15SM FEW100 BKN350 16/03 A2974 RMK AC1CI4 SLP084

CYQR;2009-09-29 23:00;CYQR 292300Z 15025G33KT 15SM FEW090 OVC300 17/03 A2975 RMK AC1CI3 SLP088

CYQR;2009-09-30 00:00;CYQR 300000Z 14017G29KT 15SM BKN120 OVC300 15/03 A2974 RMK AC5CI2 SLP086

CYQR;2009-09-30 01:00;CYQR 300100Z 14020G27KT 15SM BKN120 OVC300 15/03 A2975 RMK AC5CI2 SLP087

CYQR;2009-09-30 02:00;CYQR 300200Z 14020KT 15SM SCT120 13/02 A2975 RMK AC2 SLP087

CYQR;2009-09-30 03:00;CYQR 300300Z 13020G26KT 15SM BKN120 12/02 A2974 RMK AC3 SLP087

CYQR;2009-09-30 04:00;CYQR 300400Z 13023G29KT 15SM BKN120 12/02 A2973 RMK AC4 SLP082

CYQR;2009-09-30 05:00;CYQR 300500Z 13020G27KT 15SM BKN120 11/02 A2972 RMK AC6 SLP080

CYQR;2009-09-30 06:00;CYQR 300600Z 14022G27KT 15SM SCT120 OVC300 10/01 A2971 RMK AC3CI3 SLP074

CYQR;2009-09-30 07:00;CYQR 300700Z 13018G27KT 15SM SCT120 OVC300 10/01 A2972 RMK AC4CI2 SLP076

CYQR;2009-09-30 08:00;CYQR 300800Z 13019G26KT 15SM FEW120 OVC300 09/01 A2970 RMK AC2CS3 SLP070

CYQR;2009-09-30 09:00;CYQR 300900Z 12015KT 15SM FEW120 OVC300 08/01 A2967 RMK AC2CS3 SLP059

CYQR;2009-09-30 10:00;CYQR 301000Z 12014KT 15SM OVC300 08/01 A2967 RMK CS6 SLP058

CYQR;2009-09-30 11:00;CYQR 301100Z 11017KT 15SM OVC300 07/01 A2963 RMK CS8 SLP046

CYQR;2009-09-30 12:00;CYQR 301200Z 12015G20KT 15SM OVC300 07/01 A2962 RMK CS7 SLP040

CYQR;2009-09-30 13:00;CYQR 301300Z 12015G21KT 15SM FEW050 BKN120 OVC300 08/02 A2959 RMK SC1AC3CI2 SLP030

CYQR;2009-09-30 14:00;CYQR 301400Z 13009KT 15SM BKN091 BKN300 08/02 A2962 RMK ACC6CI1 PRESRR MAMMATUS VIRGA SLP040

CYQR;2009-09-30 15:00;CYQR 301500Z 11014KT 15SM SCT098 BKN300 10/03 A2959 RMK ACC3CI2 VIRGA W-NE SLP032

CYQR;2009-09-30 16:00;CYQR 301600Z 14015KT 15SM SCT081 BKN300 11/03 A2958 RMK ACC3CI3 VIRGA NW SLP028

CYQR;2009-09-30 17:00;CYQR 301700Z 12014KT 15SM FEW043 BKN081 BKN300 12/04 A2958 RMK SC1ACC5CI1 SLP027

CYQR;2009-09-30 18:00;CYQR 301800Z 14006KT 15SM BKN035 OVC300 12/04 A2960 RMK SC7CI1 SLP037

CYQR;2009-09-30 19:00;CYQR 301900Z 10005KT 15SM OVC035 12/04 A2959 RMK SC8 SLP034

CYQR;2009-09-30 20:00;CYQR 302000Z 03011KT 15SM BKN037 BKN090 OVC260 12/05 A2959 RMK SC5ACC2CI1 SLP033

CYQR;2009-09-30 21:00;CYQR 302100Z 02007KT 15SM BKN039 OVC300 12/05 A2963 RMK SC7CI1 SLP047

CYQR;2009-09-30 22:00;CYQR 302200Z 36010KT 15SM BKN041 OVC300 12/05 A2963 RMK SC7CI1 SLP046

CYQR;2009-09-30 23:00;CYQR 302300Z 35015KT 15SM BKN041 OVC270 11/04 A2963 RMK SC6CI2 SLP045

CYQR;2009-10-01 01:00;CYQR 010100Z CCA 36014G20KT 15SM -SHRA OVC052 10/04 A2967 RMK SC8 CVCTV CLD EMBD SLP061

CYQR;2009-10-01 02:00;CYQR 010200Z 35015G20KT 15SM -SHRA OVC052 09/04 A2968 RMK SC8 CVCTV CLD EMBD SLP064

CYQR;2009-10-01 03:00;CYQR 010300Z 34015KT 15SM -SHRA OVC046 09/04 A2969 RMK SC8 CVCTV CLD EMBD SLP069

CYQR;2009-10-01 04:00;CYQR 010400Z 33019G25KT 15SM VCSH OVC039 08/04 A2971 RMK SC8 SLP074

CYQR;2009-10-01 04:21;CYQR 010421Z 33021KT 10SM -DZ OVC039 07/ RMK SC8

CYQR;2009-10-01 04:42;CYQR 010442Z 34019G24KT 8SM -DZ SCT006 OVC043 07/ RMK SF3SC5

CYQR;2009-10-01 05:00;CYQR 010500Z 34019G25KT 6SM -DZ BKN005 OVC036 07/06 A2971 RMK SF5SC3 SLP075

CYQR;2009-10-01 05:24;CYQR 010524Z 34020G28KT 3SM -RA BR BKN004 OVC038 07/ RMK SF6SC2

CYQR;2009-10-01 06:00;CYQR 010600Z 35017G24KT 5SM -RA OVC005 07/06 A2970 RERA RMK ST8 SLP072

CYQR;2009-10-01 06:35;CYQR 010635Z 34020KT 6SM -RA OVC004 07/ RMK ST8

CYQR;2009-10-01 07:00;CYQR 010700Z 34020G28KT 6SM -RA OVC005 07/06 A2969 RMK ST8 SLP068

CYQR;2009-10-01 08:00;CYQR 010800Z 35019G29KT 8SM -RA OVC006 07/06 A2969 RMK ST8 SLP070

CYQR;2009-10-01 09:00;CYQR 010900Z 34022G27KT 6SM RA OVC006 07/ A2969 RMK ST8 SLP070

CYQR;2009-10-01 10:00;CYQR 011000Z 35023G28KT 6SM RA OVC006 06/ A2971 RERA RMK ST8 /R10/ SLP075

CYQR;2009-10-01 11:00;CYQR 011100Z 35024G30KT 6SM -RA OVC006 06/ A2970 RERA RMK ST8 SLP071

CYQR;2009-10-01 12:00;CYQR 011200Z 35027G35KT 6SM RA OVC007 05/ A2969 RMK ST8 /R16/ SLP070

CYQR;2009-10-01 13:00;CYQR 011300Z 35021G31KT 8SM -RA OVC008 05/ A2972 RERA RMK SC8 SLP079

CYQR;2009-10-01 14:00;CYQR 011400Z 34021G29KT 3SM -RA BR OVC008 05/ A2972 RMK SC8 SLP080

CYQR;2009-10-01 14:44;CYQR 011444Z 35024KT 3SM RA BR BKN006 OVC024 05/ RMK SC6SC2

CYQR;2009-10-01 15:00;CYQR 011500Z 34023G29KT 3SM RA BR OVC007 05/ A2973 RMK SC8 /R10/ SLP086

CYQR;2009-10-01 16:00;CYQR 011600Z 35021G30KT 3SM RA BR BKN008 OVC016 05/ A2974 RMK SC6SC2 SLP088

CYQR;2009-10-01 17:00;CYQR 011700Z 34020G25KT 3SM RA BR OVC009 05/ A2975 RMK SC8 SLP092

CYQR;2009-10-01 17:23;CYQR 011723Z 35025G30KT 3SM RA BR OVC010 04/ RMK FG2SC6

CYQR;2009-10-01 17:36;CYQR 011736Z 35023G32KT 2SM -RA BR OVC009 04/ RMK FG2SC6

CYQR;2009-10-01 18:00;CYQR 011800Z 35023G29KT 2SM RA OVC012 04/ A2976 RMK FG2SC6 /R10/ SLP097

CYQR;2009-10-01 18:46;CYQR 011846Z 35021G26KT 4SM -RA BR OVC012 04/ RMK SC8

CYQR;2009-10-01 19:00;CYQR 011900Z 35023G29KT 6SM -RA BR OVC012 04/ A2976 RMK SC8 SLP099

CYQR;2009-10-01 20:00;CYQR 012000Z 35023G31KT 6SM -RA BR OVC009 05/ A2977 RMK SC8 SLP100

CYQR;2009-10-01 21:00;CYQR 012100Z 34025G30KT 10SM -RA OVC009 05/ A2976 RMK SC8 BR SLP098

CYQR;2009-10-01 21:53;CYQR 012153Z 34021G29KT 15SM -RA OVC010 05/ RMK SC8

CYQR;2009-10-01 22:00;CYQR 012200Z 34020G28KT 15SM OVC010 05/ A2980 RMK SC8 INTMT -RA SLP110

CYQR;2009-10-01 23:00;CYQR 012300Z 34020G28KT 15SM -RA OVC012 04/ A2982 RMK SC8 -RA INTMT SLP115

CYQR;2009-10-01 23:22;CYQR 012322Z 34021G31KT 15SM OVC012 04/ RMK SC8

CYQR;2009-10-02 00:00;CYQR 020000Z 34024KT 15SM OVC010 04/ A2983 RMK SC8 SLP121

CYQR;2009-10-02 01:00;CYQR 020100Z 34019G27KT 15SM OVC010 04/ A2985 RMK SC8 SLP129

CYQR;2009-10-02 01:08;CYQR 020108Z 33019G25KT 4SM -DZ OVC009 04/ RMK SC8

CYQR;2009-10-02 02:00;CYQR 020200Z 34021KT 10SM -DZ OVC007 04/ A2986 RMK SC8 SLP132

CYQR;2009-10-02 03:00;CYQR 020300Z 34018KT 12SM -DZ OVC007 04/ A2987 RMK SC8 SLP136

CYQR;2009-10-02 03:16;CYQR 020316Z 33020G28KT 12SM -RA OVC009 04/ RMK SC8

CYQR;2009-10-02 03:32;CYQR 020332Z 33019KT 15SM OVC008 RMK SC8

CYQR;2009-10-02 04:00;CYQR 020400Z 33020KT 15SM OVC008 04/ A2985 RMK SC8 SLP130

CYQR;2009-10-02 05:00;CYQR 020500Z 34017G26KT 12SM -DZ OVC008 04/ A2987 RMK SC8 SLP136

CYQR;2009-10-02 05:42;CYQR 020542Z 34014G21KT 12SM -DZ OVC005 04/ RMK SC8

CYQR;2009-10-02 06:00;CYQR 020600Z 34018KT 5SM -RA BR OVC004 04/ A2986 RMK SC8 SLP135

CYQR;2009-10-02 06:39;CYQR 020639Z 34016G24KT 8SM -RA OVC006 04/ RMK SC8

CYQR;2009-10-02 07:00;CYQR 020700Z 33014G21KT 8SM -RA OVC005 04/ A2987 RMK SC8 SLP136

CYQR;2009-10-02 08:00;CYQR 020800Z 34014G20KT 10SM -RA OVC007 04/ A2987 RMK SC8 SLP136

CYQR;2009-10-02 09:00;CYQR 020900Z 34017KT 8SM -RA OVC009 04/ A2988 RMK SC8 SLP140

CYQR;2009-10-02 10:00;CYQR 021000Z 34017KT 8SM -RA OVC008 04/ A2989 RMK SC8 SLP143

CYQR;2009-10-02 11:00;CYQR 021100Z 34015KT 8SM -RA OVC010 04/ A2990 RMK SC8 CIG RAG SLP147

CYQR;2009-10-02 11:11;CYQR 021111Z 34014KT 8SM -RA OVC008 04/ RMK SC8 CIG RAG

CYQR;2009-10-02 12:00;CYQR 021200Z CCA 35014G20KT 10SM -RA OVC010 04/ A2990 RMK SC8 CIG RAG /R10/ SLP149

CYQR;2009-10-02 12:40;CYQR 021240Z 34014KT 12SM -RA BKN009 OVC030 04/ RMK SC7SC1

CYQR;2009-10-02 13:00;CYQR 021300Z 35015KT 12SM -RA BKN009 OVC030 04/ A2991 RMK SC7SC1 CIG RAG SLP152

CYQR;2009-10-02 13:07;CYQR 021307Z 34014KT 12SM -RA SCT009 BKN011 OVC030 04/ RMK SF4SC3SC1

CYQR;2009-10-02 14:00;CYQR 021400Z 34013KT 12SM -RA BKN008 OVC030 04/ A2993 RMK SC6SC2 CIG RAG SLP157

CYQR;2009-10-02 15:00;CYQR 021500Z 34014KT 15SM -RA BKN008 OVC024 04/ A2994 RMK SC6SC2 SLP161

CYQR;2009-10-02 16:00;CYQR 021600Z 35013KT 10SM -RA BKN008 OVC026 04/ A2996 RMK SC6SC2 SLP168

CYQR;2009-10-02 17:00;CYQR 021700Z 35013KT 10SM -RA BKN007 OVC024 05/ A2996 RMK SC6SC2 CIG RAG SLP168

CYQR;2009-10-02 18:00;CYQR 021800Z 34010KT 10SM -RA BKN007 OVC026 05/ A2997 RMK SC6SC2 SLP172

CYQR;2009-10-02 18:38;CYQR 021838Z 34010KT 15SM BKN008 OVC035 06/ RMK SC5SC3

CYQR;2009-10-02 19:00;CYQR 021900Z 01010KT 15SM BKN007 OVC035 06/ A2997 RMK SC6SC2 SLP172

CYQR;2009-10-02 20:00;CYQR 022000Z 36008KT 15SM SCT007 OVC011 07/ A2997 RMK SF4SC4 SLP171

CYQR;2009-10-02 21:00;CYQR 022100Z 34008KT 15SM SCT012 BKN016 OVC024 07/ A2998 RMK SF3SC2SC2 SLP173

CYQR;2009-10-02 22:00;CYQR 022200Z 33010KT 15SM SCT011 OVC022 07/ A2999 RMK SF4SC4 SLP175

CYQR;2009-10-02 23:00;CYQR 022300Z 34008KT 15SM SCT012 BKN024 OVC038 07/ A2999 RMK SF3SC2SC2 SLP177

CYQR;2009-10-03 00:00;CYQR 030000Z 34007KT 15SM FEW010 BKN036 BKN075 BKN260 06/ A2999 RMK SF2SC3AC1CI1 SLP178

CYQR;2009-10-03 01:00;CYQR 030100Z 33005KT 15SM FEW020 BKN041 BKN075 BKN260 04/ A3000 RMK SC2SC3AC1CI1 SLP182

CYQR;2009-10-03 02:00;CYQR 030200Z 32007KT 15SM OVC042 04/ A3000 RMK SC8 SLP182

CYQR;2009-10-03 03:00;CYQR 030300Z 34006KT 15SM OVC044 05/ A3001 RMK SC8 SLP184

CYQR;2009-10-03 04:00;CYQR 030400Z 34007KT 15SM BKN044 05/ A3001 RMK SC7 SLP184

CYQR;2009-10-03 05:00;CYQR 030500Z 36007KT 15SM BKN046 05/ A3001 RMK SC7 SLP185

CYQR;2009-10-03 06:00;CYQR 030600Z 04003KT 15SM FEW026 BKN050 05/ A3001 RMK SC2SC6 SLP183

CYQR;2009-10-03 07:00;CYQR 030700Z 33005KT 15SM FEW026 BKN045 03/ A3001 RMK SC1SC5 SLP184

CYQR;2009-10-03 08:00;CYQR 030800Z 35005KT 15SM SCT006 OVC045 04/ A3001 RMK ST4SC4 SLP184

CYQR;2009-10-03 08:14;CYQR 030814Z 36006KT 15SM BKN003 OVC046 04/ RMK ST6SC2

CYQR;2009-10-03 08:27;CYQR 030827Z 35008KT 12SM -DZ OVC004 05/ RMK ST8

CYQR;2009-10-03 08:46;CYQR 030846Z 35006KT 12SM -DZ OVC003 05/ RMK ST8

CYQR;2009-10-03 09:00;CYQR 030900Z 36007KT 12SM -DZ OVC002 05/ A3000 RMK ST8 SLP181

CYQR;2009-10-03 09:17;CYQR 030917Z 02006KT 15SM OVC002 05/ RMK ST8

CYQR;2009-10-03 09:36;CYQR 030936Z 36006KT 2 1/2SM BR OVC002 05/ RMK ST8

CYQR;2009-10-03 09:41;CYQR 030941Z 36006KT 1 3/4SM BR OVC001 05/ RMK ST8

CYQR;2009-10-03 10:00;CYQR 031000Z 03006KT 1SM R13/P6000FT/D BR VV001 05/ A3000 RMK FG8 SLP181

CYQR;2009-10-03 10:10;CYQR 031010Z 01007KT 1/2SM R13/5500FT/D FG VV001 05/ RMK FG8

CYQR;2009-10-03 10:17;CYQR 031017Z 36006KT 3/4SM R13/P6000FT/U BR VV001 05/ RMK FG8 VIS VRB 1/2-1

CYQR;2009-10-03 10:32;CYQR 031032Z 02006KT 1 1/4SM BR VV001 04/ RMK FG8

CYQR;2009-10-03 11:00;CYQR 031100Z 02006KT 1 1/2SM BR OVC002 04/ A3001 RMK ST8 VIS VRB 11/4-13/4 SLP182

CYQR;2009-10-03 11:20;CYQR 031120Z 01007KT 2 1/2SM BR OVC001 05/ RMK ST8 VIS W 4

CYQR;2009-10-03 11:31;CYQR 031131Z CCA 36009KT 4SM BR OVC003 05/ RMK ST8

CYQR;2009-10-03 12:00;CYQR 031200Z 01008KT 8SM OVC003 05/ A3001 RMK ST8 SLP183

CYQR;2009-10-03 13:00;CYQR 031300Z 03004KT 8SM OVC004 05/ A3002 RMK ST8 SLP185

CYQR;2009-10-03 13:42;CYQR 031342Z 04007KT 10SM BKN005 BKN047 05/ RMK SC6SC2

CYQR;2009-10-03 13:53;CYQR 031353Z 05005KT 12SM SCT006 BKN045 05/ RMK SC4SC3

CYQR;2009-10-03 14:00;CYQR 031400Z 05006KT 12SM SCT006 BKN045 05/ A3003 RMK SC3SC4 SLP189

CYQR;2009-10-03 15:00;CYQR 031500Z 02002KT 15SM FEW007 BKN045 05/ A3004 RMK SC2SC6 SLP193

CYQR;2009-10-03 16:00;CYQR 031600Z 11002KT 15SM FEW007 BKN045 BKN099 06/ A3004 RMK CF2SC3AC2 SLP193

CYQR;2009-10-03 17:00;CYQR 031700Z 21003KT 15SM FEW012 BKN045 BKN100 07/ A3004 RMK CF2SC4AC1 SLP194

CYQR;2009-10-03 18:00;CYQR 031800Z 16002KT 15SM FEW012 BKN039 OVC140 08/ A3002 RMK CF2SC6AC1 SLP187

CYQR;2009-10-03 19:00;CYQR 031900Z 02005KT 15SM FEW012 BKN025 OVC140 08/08 A3002 RMK CF1SC6AC1 SLP186

CYQR;2009-10-03 20:00;CYQR 032000Z 05007KT 15SM BKN034 OVC094 08/08 A3002 RMK SC6AC2 SLP186

CYQR;2009-10-03 21:00;CYQR 032100Z 07007KT 15SM SCT029 OVC063 08/08 A3003 RMK SC3SC5 SLP190

CYQR;2009-10-03 22:00;CYQR 032200Z 09004KT 15SM SCT028 BKN037 OVC070 07/07 A3004 RMK SC3SC4AC1 SLP193

CYQR;2009-10-03 23:00;CYQR 032300Z 05011KT 15SM SCT022 OVC041 06/04 A3005 RMK SC4SC4 SLP197

CYQR;2009-10-04 00:00;CYQR 040000Z 06010KT 15SM FEW012 OVC031 06/03 A3007 RMK SC2SC6 SLP203

CYQR;2009-10-04 01:00;CYQR 040100Z 07002KT 15SM FEW012 OVC029 05/03 A3008 RMK SC2SC6 SLP207

CYQR;2009-10-04 02:00;CYQR 040200Z 35002KT 15SM OVC035 05/03 A3008 RMK SC8 SLP208

CYQR;2009-10-04 03:00;CYQR 040300Z 02005KT 15SM OVC031 05/03 A3010 RMK SC8 SLP215

CYQR;2009-10-04 04:00;CYQR 040400Z 02006KT 15SM BKN025 OVC050 05/03 A3010 RMK SC5SC3 SLP216

CYQR;2009-10-04 05:00;CYQR 040500Z 02006KT 15SM SCT034 OVC048 05/03 A3011 RMK SC4SC4 SLP218

CYQR;2009-10-04 06:00;CYQR 040600Z 01004KT 15SM SCT024 OVC050 05/03 A3012 RMK SC3SC5 SLP219

CYQR;2009-10-04 07:00;CYQR 040700Z 36004KT 15SM BKN024 OVC050 05/04 A3012 RMK SC5SC3 SLP221

CYQR;2009-10-04 08:00;CYQR 040800Z 03003KT 15SM OVC042 05/04 A3014 RMK SC8 SLP226

CYQR;2009-10-04 08:56;CYQR 040856Z 09003KT 10SM -RA SCT012 OVC043 05/ RMK SC3SC5

CYQR;2009-10-04 09:00;CYQR 040900Z 08004KT 8SM -RA SCT012 OVC043 05/04 A3014 RMK SC3SC5 SLP226

CYQR;2009-10-04 09:41;CYQR 040941Z 07004KT 10SM OVC019 05/ RMK SC8

CYQR;2009-10-04 10:00;CYQR 041000Z 08005KT 10SM OVC017 05/04 A3014 RMK SC8 SLP226

CYQR;2009-10-04 11:00;CYQR 041100Z 08006KT 10SM BKN021 OVC036 05/04 A3014 RMK SC6SC2 SLP227

CYQR;2009-10-04 11:33;CYQR 041133Z 09007KT 8SM BKN007 OVC020 05/ RMK SC5SC3

CYQR;2009-10-04 12:00;CYQR 041200Z 08005KT 8SM BKN004 OVC023 05/04 A3014 RMK SC6SC2 SLP230

CYQR;2009-10-04 13:00;CYQR 041300Z 07003KT 10SM SCT007 BKN050 BKN078 04/03 A3015 RMK SC3SC2AC2 SLP232

CYQR;2009-10-04 13:20;CYQR 041320Z 07007KT 10SM BKN004 OVC078 04/ RMK ST6AC2

CYQR;2009-10-04 13:49;CYQR 041349Z 07007KT 10SM OVC003 04/ RMK ST8

CYQR;2009-10-04 14:00;CYQR 041400Z 07007KT 10SM OVC003 04/03 A3016 RMK ST8 SLP236

CYQR;2009-10-04 14:15;CYQR 041415Z 07009KT 10SM BKN004 OVC030 04/ RMK ST6SC1

CYQR;2009-10-04 14:37;CYQR 041437Z 08005KT 12SM SCT004 BKN100 05/ RMK ST3AC2

CYQR;2009-10-04 15:00;CYQR 041500Z 08005KT 15SM FEW004 BKN023 BKN100 05/03 A3017 RMK SF2SC5AC1 SLP238

CYQR;2009-10-04 16:00;CYQR 041600Z 07004KT 15SM BKN009 BKN026 06/03 A3018 RMK SC5SC2 SLP241

CYQR;2009-10-04 16:23;CYQR 041623Z 08003KT 15SM BKN010 OVC033 06/ RMK SC7SC1

CYQR;2009-10-04 17:00;CYQR 041700Z 09004KT 15SM BKN012 BKN033 07/04 A3017 RMK SC6SC1 SLP239

CYQR;2009-10-04 17:47;CYQR 041747Z 10006KT 15SM BKN016 BKN048 08/ RMK SC6SC2 CU EMBD

CYQR;2009-10-04 18:00;CYQR 041800Z 12006KT 15SM BKN018 BKN048 09/04 A3017 RMK SC6SC2 CU EMBD SLP235

CYQR;2009-10-04 19:00;CYQR 041900Z 09006KT 15SM BKN018 BKN045 07/03 A3016 RMK SC6SC2 CU EMBD SLP234

CYQR;2009-10-04 20:00;CYQR 042000Z 05002KT 15SM SCT020 BKN036 07/02 A3016 RMK SC4SC3 SLP232

CYQR;2009-10-04 21:00;CYQR 042100Z 05004KT 15SM -SHRA BKN029TCU OVC055 08/02 A3015 RMK TCU6SC2 SLP231

CYQR;2009-10-04 22:00;CYQR 042200Z 16004KT 15SM -SHRA BKN019 OVC043 07/04 A3015 RMK SC6SC2 TCU EMBD SLP232

CYQR;2009-10-04 23:00;CYQR 042300Z 00000KT 15SM -SHRA BKN025 OVC070 07/03 A3015 RMK SC6AC2 TCU EMBD SLP231

CYQR;2009-10-05 00:00;CYQR 050000Z 36003KT 10SM -SHRA BKN015 OVC070 06/04 A3016 RMK SC6AC2 TCU EMBD SLP234

CYQR;2009-10-05 01:00;CYQR 050100Z 07006KT 15SM -SHRA BKN022 BKN060 06/04 A3016 RMK SC5SC2 CVCTV CLD EMBD SLP234

CYQR;2009-10-05 02:00;CYQR 050200Z 05005KT 15SM -SHRA SCT022 BKN044 BKN089 04/03 A3016 RMK SC4SC2AC1 SLP235

CYQR;2009-10-05 02:27;CYQR 050227Z 06007KT 15SM FEW022 BKN044 BKN089 04/ RMK SC2SC2AC1

CYQR;2009-10-05 03:00;CYQR 050300Z 06006KT 15SM FEW022 BKN038 BKN089 04/02 A3017 RMK SC2SC2AC1 SLP238

CYQR;2009-10-05 04:00;CYQR 050400Z 07005KT 15SM FEW022 BKN038 BKN090 04/02 A3017 RMK SC2SC3AC1 SLP240

CYQR;2009-10-05 05:00;CYQR 050500Z 08005KT 15SM BKN036 04/02 A3018 RMK SC7 SLP241

CYQR;2009-10-05 06:00;CYQR 050600Z 05002KT 15SM BKN023 OVC036 04/02 A3018 RMK SC5SC3 SLP240

CYQR;2009-10-05 06:33;CYQR 050633Z 03004KT 15SM OVC013 04/ RMK SC8

CYQR;2009-10-05 07:00;CYQR 050700Z 05006KT 15SM OVC013 04/02 A3017 RMK SC8 SLP237

CYQR;2009-10-05 08:00;CYQR 050800Z 05005KT 2SM -DZ BR OVC008 04/03 A3017 RMK ST8 SLP237

CYQR;2009-10-05 09:00;CYQR 050900Z 03003KT 3SM -DZ BR OVC007 04/03 A3017 RMK ST8 SLP238

CYQR;2009-10-05 10:00;CYQR 051000Z 03004KT 6SM -DZ BKN010 OVC021 04/02 A3016 RMK ST5SC3 SLP236

CYQR;2009-10-05 11:00;CYQR 051100Z 01005KT 6SM -DZ SCT010 OVC018 04/02 A3014 RMK ST4SC4 SLP229

CYQR;2009-10-05 11:21;CYQR 051121Z 02005KT 10SM FEW010 OVC018 04/ RMK SF2SC6

CYQR;2009-10-05 11:35;CYQR 051135Z 01005KT 5SM -DZ BR OVC014 03/ RMK ST8

CYQR;2009-10-05 11:38;CYQR 051138Z 01006KT 3SM -DZ BR BKN006 OVC014 03/ RMK SF5ST3

CYQR;2009-10-05 12:00;CYQR 051200Z 36005KT 6SM -DZ BR BKN005 OVC014 03/02 A3015 RMK ST6ST2 SLP234

CYQR;2009-10-05 12:40;CYQR 051240Z 03004KT 10SM -DZ BKN006 OVC014 03/ RMK ST6SC2 CIG RAG

CYQR;2009-10-05 12:54;CYQR 051254Z 01004KT 8SM -DZ BKN005 OVC014 03/ RMK SF7SC1 CIG RAG

CYQR;2009-10-05 13:00;CYQR 051300Z 01004KT 8SM -DZ BKN005 OVC014 03/02 A3017 RMK ST7SC1 CIG RAG SLP238

CYQR;2009-10-05 13:09;CYQR 051309Z 02006KT 2 1/2SM -DZ BR OVC006 03/ RMK SF8 CIG RAG

CYQR;2009-10-05 13:38;CYQR 051338Z 02004KT 4SM BR BKN005 OVC030 03/ RMK SF6SC2 CIG RAG

CYQR;2009-10-05 14:00;CYQR 051400Z 03006KT 8SM BKN006 OVC014 03/02 A3017 RMK SF6SC2 CIG RAG SLP239

CYQR;2009-10-05 14:27;CYQR 051427Z 02008KT 8SM -SHRA BKN007 OVC024 03/ RMK SF6SC2 CIG RAG

CYQR;2009-10-05 15:00;CYQR 051500Z 08006KT 8SM -SHRA BKN006 OVC012 03/02 A3017 RMK SF6SC2 CIG RAG SLP241

CYQR;2009-10-05 16:00;CYQR 051600Z 12004KT 8SM -SHRA BKN008 OVC091 04/02 A3018 RMK SC6AC2 CIG RAG SLP243

CYQR;2009-10-05 16:53;CYQR 051653Z 02003KT 15SM -SHRA OVC007 04/ RMK SC8 CIG RAG

CYQR;2009-10-05 17:00;CYQR 051700Z 03003KT 8SM -SHRA OVC007 04/02 A3015 RMK SC8 CIG RAG SLP236

CYQR;2009-10-05 18:00;CYQR 051800Z 04005KT 8SM -SHRA SCT007 OVC011 04/02 A3014 RMK SF3SC5 CIG RAG SLP230

CYQR;2009-10-05 18:17;CYQR 051817Z 05005KT 10SM -SHRA BKN009 OVC034 04/ RMK SC6SC2

CYQR;2009-10-05 18:35;CYQR 051835Z 05006KT 15SM BKN013 05/ RMK SC7

CYQR;2009-10-05 19:00;CYQR 051900Z 03008KT 15SM OVC015 05/02 A3012 RMK SC8 SLP223

CYQR;2009-10-05 20:00;CYQR 052000Z 03009KT 15SM OVC019 05/01 A3012 RMK SC8 SLP223

CYQR;2009-10-05 21:00;CYQR 052100Z 07006KT 15SM OVC021 05/01 A3012 RMK SC8 SLP221

CYQR;2009-10-05 22:00;CYQR 052200Z 03006KT 15SM BKN023 OVC097 05/00 A3010 RMK SC6AC2 SLP217

CYQR;2009-10-05 23:00;CYQR 052300Z 06004KT 15SM BKN025 OVC095 06/01 A3009 RMK SC7AC1 SLP214

CYQR;2009-10-06 00:00;CYQR 060000Z 36005KT 15SM BKN025 06/01 A3009 RMK SC7 SLP213

CYQR;2009-10-06 01:00;CYQR 060100Z 35007KT 15SM BKN022 05/02 A3009 RMK SC7 SLP213

CYQR;2009-10-06 02:00;CYQR 060200Z 02006KT 15SM BKN024 BKN085 05/01 A3009 RMK SC6AC2 SLP212

CYQR;2009-10-06 03:00;CYQR 060300Z 00000KT 15SM SCT024 BKN084 04/01 A3008 RMK SC4AC3 SLP210

CYQR;2009-10-06 04:00;CYQR 060400Z 23003KT 15SM SCT034 BKN084 03/01 A3007 RMK SC4AC3 SLP208

CYQR;2009-10-06 05:00;CYQR 060500Z 27003KT 15SM SCT034 BKN084 03/01 A3005 RMK SC4AC3 SLP200

CYQR;2009-10-06 06:00;CYQR 060600Z 28005KT 15SM BKN034 BKN084 02/00 A3003 RMK SC6AC2 SLP192

CYQR;2009-10-06 07:00;CYQR 060700Z 29005KT 15SM OVC079 02/00 A3001 RMK AC8 SLP188

CYQR;2009-10-06 08:00;CYQR 060800Z 23004KT 15SM OVC077 01/M00 A2999 RMK AC8 SLP181

CYQR;2009-10-06 09:00;CYQR 060900Z 19006KT 15SM OVC077 M00/M01 A2997 RMK AC8 SLP173

CYQR;2009-10-06 10:00;CYQR 061000Z 26004KT 15SM SCT077 M01/M02 A2995 RMK AC4 SLP168

CYQR;2009-10-06 11:00;CYQR 061100Z 19005KT 15SM SCT044 BKN067 M01/M02 A2992 RMK SC3AC2 SLP159

CYQR;2009-10-06 12:00;CYQR 061200Z 19005KT 15SM SCT039 OVC063 00/M01 A2989 RMK SC3SC5 SLP146

CYQR;2009-10-06 13:00;CYQR 061300Z 18006KT 15SM FEW040 BKN061 01/M00 A2986 RMK SC1SC7 SLP136

CYQR;2009-10-06 14:00;CYQR 061400Z 21008KT 15SM BKN052 OVC100 02/00 A2983 RMK SC6AC1 SLP127

CYQR;2009-10-06 15:00;CYQR 061500Z 20010KT 15SM SCT059 OVC120 03/01 A2980 RMK SC3AC4 SLP113

CYQR;2009-10-06 16:00;CYQR 061600Z 20012G17KT 15SM FEW075 OVC100 04/01 A2976 RMK AC2AC6 SLP102

CYQR;2009-10-06 17:00;CYQR 061700Z 20017KT 15SM FEW080 OVC120 05/02 A2972 RMK AC2AC6 SLP088

CYQR;2009-10-06 18:00;CYQR 061800Z 19018KT 15SM SCT048 OVC120 06/02 A2967 RMK SC3AC5 PRESFR SLP069

CYQR;2009-10-06 19:00;CYQR 061900Z 21014G19KT 15SM FEW036 OVC120 07/03 A2963 RMK SC2AS6 SLP057

CYQR;2009-10-06 19:26;CYQR 061926Z 22015KT 15SM -SHRA SCT032 OVC120 08/ RMK SC3AS5

CYQR;2009-10-06 19:51;CYQR 061951Z 22018KT 15SM FEW020 SCT032 OVC120 08/ RMK SC2SC2AS4

CYQR;2009-10-06 20:00;CYQR 062000Z 21015G21KT 15SM -SHRA FEW020 BKN035 OVC120 08/03 A2959 RMK SC2SC3AS3 SLP044

CYQR;2009-10-06 21:00;CYQR 062100Z 25016G22KT 15SM -SHRA SCT027 BKN047 OVC120 08/01 A2957 RMK SC3SC2AS2 SLP033

CYQR;2009-10-06 22:00;CYQR 062200Z 21012G17KT 10SM -SHRA BKN015 OVC092 06/04 A2953 RMK SC7AC1 SLP022

CYQR;2009-10-06 23:00;CYQR 062300Z 20012KT 15SM BKN034 OVC080 07/05 A2951 RMK SC5AC3 SLP015

CYQR;2009-10-07 00:00;CYQR 070000Z 19009KT 15SM BKN050 OVC100 07/05 A2949 RMK SC6AC1 SLP006

CYQR;2009-10-07 01:00;CYQR 070100Z 19008KT 15SM BKN048 OVC100 07/04 A2945 RMK SC6AC2 SLP996

CYQR;2009-10-07 02:00;CYQR 070200Z 21005KT 15SM BKN043 OVC100 07/05 A2944 RMK SC6AC2 SLP992

CYQR;2009-10-07 03:00;CYQR 070300Z 25007KT 15SM SCT033 BKN054 07/05 A2942 RMK SC3SC3 SLP982

CYQR;2009-10-07 04:00;CYQR 070400Z 28010KT 15SM FEW030 SCT054 BKN065 08/05 A2942 RMK SC2SC2SC2 SLP982

CYQR;2009-10-07 04:21;CYQR 070421Z 29020G26KT 10SM -RA OVC039 09/ RMK SC8

CYQR;2009-10-07 05:00;CYQR 070500Z 29010G15KT 10SM -RA OVC037 09/08 A2943 RMK SC8 SLP984

CYQR;2009-10-07 06:00;CYQR 070600Z 29013KT 6SM -RA BKN013 OVC033 09/08 A2944 RMK SC5SC3 SLP983

CYQR;2009-10-07 06:31;CYQR 070631Z 34020G26KT 3SM -RA BKN006 OVC027 08/ RMK SC6SC2

CYQR;2009-10-07 07:00;CYQR 070700Z 34021G27KT 3SM -RA OVC006 07/05 A2948 RMK SC8 /R10/ SLP996

CYQR;2009-10-07 08:00;CYQR 070800Z 32025KT 3SM -RA OVC006 06/04 A2952 RMK SC8 SLP009

CYQR;2009-10-07 09:00;CYQR 070900Z 32023G33KT 6SM -RA OVC010 03/01 A2955 RMK SC8 SLP024

CYQR;2009-10-07 09:28;CYQR 070928Z 32023G29KT 10SM OVC014 03/ RMK SC8

CYQR;2009-10-07 10:00;CYQR 071000Z 31027KT 3SM -RA OVC007 03/02 A2958 RMK SC8 SLP034

CYQR;2009-10-07 11:00;CYQR 071100Z CCA 32021G28KT 1 1/2SM -RA BR OVC006 02/01 A2962 RMK SC8 SLP046

CYQR;2009-10-07 11:38;CYQR 071138Z 33023G29KT 4SM -RA BR OVC006 02/ RMK SC8

CYQR;2009-10-07 12:00;CYQR 071200Z 32025G30KT 8SM -RA OVC007 02/00 A2965 RMK SC8 SLP061

CYQR;2009-10-07 13:00;CYQR 071300Z 33024G33KT 8SM -RA OVC007 02/01 A2969 RMK SC8 SLP073

CYQR;2009-10-07 13:50;CYQR 071350Z 32023G29KT 8SM -RA OVC011 02/ RMK SC8

CYQR;2009-10-07 14:00;CYQR 071400Z 32022G29KT 8SM -RA OVC010 02/01 A2972 RMK SC8 SLP084

CYQR;2009-10-07 14:28;CYQR 071428Z 32025G30KT 8SM -RA OVC008 02/ RMK SC8

CYQR;2009-10-07 15:00;CYQR 071500Z 32024G33KT 8SM -RA OVC009 02/01 A2974 RMK SC8 SLP092

CYQR;2009-10-07 16:00;CYQR 071600Z 33027G35KT 8SM -RA OVC009 03/01 A2978 RMK SC8 CIG RAG SLP103

CYQR;2009-10-07 16:48;CYQR 071648Z 33026G33KT 10SM -RA OVC012 03/ RMK SC8

CYQR;2009-10-07 17:00;CYQR 071700Z 34026G33KT 10SM -RA OVC012 04/01 A2980 RMK SC8 SLP112

CYQR;2009-10-07 18:00;CYQR 071800Z 32027G34KT 10SM -RA OVC012 03/01 A2983 RMK SC8 SLP122

CYQR;2009-10-07 19:00;CYQR 071900Z 32027G36KT 15SM -RA OVC014 03/M00 A2985 RMK SC8 SLP128

CYQR;2009-10-07 19:39;CYQR 071939Z 33024G33KT 15SM -RA OVC016 03/ RMK SC8

CYQR;2009-10-07 20:00;CYQR 072000Z 32027G33KT 15SM -RA BKN016 OVC068 03/M01 A2986 RMK SC7AC1 SLP131

CYQR;2009-10-07 20:49;CYQR 072049Z 32024G30KT 15SM OVC021 03/ RMK SC8

CYQR;2009-10-07 21:00;CYQR 072100Z 32025G34KT 15SM OVC021 03/M02 A2988 RMK SC8 SLP142

CYQR;2009-10-07 22:00;CYQR 072200Z 32022G34KT 15SM OVC025 03/M03 A2990 RMK SC8 SLP148

CYQR;2009-10-07 23:00;CYQR 072300Z 32019G25KT 15SM OVC028 02/M03 A2992 RMK SC8 SLP154

CYQR;2009-10-08 00:00;CYQR 080000Z 33018G26KT 15SM OVC033 02/M05 A2995 RMK SC8 SLP168

CYQR;2009-10-08 01:00;CYQR 080100Z 32013G18KT 15SM OVC035 02/M04 A2997 RMK SC8 SLP173

CYQR;2009-10-08 02:00;CYQR 080200Z 31016KT 15SM BKN028 01/M03 A2999 RMK SC7 SLP179

CYQR;2009-10-08 02:19;CYQR 080219Z 33018G25KT 8SM -SHSN OVC025 01/ RMK SC8

CYQR;2009-10-08 03:00;CYQR 080300Z 32019G25KT 15SM -SHSN BKN029 01/M04 A3000 RMK SC7 SLP187

CYQR;2009-10-08 04:00;CYQR 080400Z 32018KT 15SM FEW029 BKN051 01/M05 A3002 RMK SC2SC6 SLP191

CYQR;2009-10-08 05:00;CYQR 080500Z 32014G21KT 15SM -SHSN OVC053 01/M05 A3003 RMK SC8 SLP194

CYQR;2009-10-08 06:00;CYQR 080600Z 32018G24KT 15SM -SHSN BKN030 OVC053 00/M05 A3003 RMK SC7SC1 SLP196

CYQR;2009-10-08 07:00;CYQR 080700Z 32015G20KT 15SM -SHSN BKN028 00/M05 A3003 RMK SC7 SLP196

CYQR;2009-10-08 08:00;CYQR 080800Z 32012G21KT 15SM BKN024 M00/M05 A3004 RMK SC7 SLP198

CYQR;2009-10-08 09:00;CYQR 080900Z 32014KT 15SM FEW024 BKN069 M01/M05 A3004 RMK SC1AC6 SLP202

CYQR;2009-10-08 10:00;CYQR 081000Z 31014G20KT 15SM -SHSN FEW024 BKN068 M01/M05 A3005 RMK SC1AC6 SLP203

CYQR;2009-10-08 11:00;CYQR 081100Z 31012KT 15SM -SHSN FEW045 BKN065 M01/M05 A3005 RMK SC2AC6 SLP204

CYQR;2009-10-08 11:39;CYQR 081139Z 31012KT 15SM FEW041 BKN069 M02/ RMK SC1AC6

CYQR;2009-10-08 12:00;CYQR 081200Z 31010KT 15SM FEW024 FEW041 SCT067 M02/M05 A3006 RMK SC1SC1AC2 SLP210

CYQR;2009-10-08 13:00;CYQR 081300Z 29006KT 15SM FEW060 FEW100 M03/M06 A3007 RMK SC2AC1 SLP212

CYQR;2009-10-08 14:00;CYQR 081400Z 30008KT 15SM FEW055 FEW120 M03/M05 A3008 RMK SC1AC0 SLP214

CYQR;2009-10-08 15:00;CYQR 081500Z 28011KT 15SM FEW015 BKN280 M01/M05 A3009 RMK CF1CI1 SLP217

CYQR;2009-10-08 16:00;CYQR 081600Z 30009KT 15SM FEW015 OVC280 M01/M05 A3008 RMK CF1CI2 SLP214

CYQR;2009-10-08 17:00;CYQR 081700Z 29010KT 15SM FEW020 FEW120 OVC280 01/M05 A3005 RMK CF2AC1CI2 SLP207

CYQR;2009-10-08 18:00;CYQR 081800Z 29013KT 15SM SCT030 SCT090 OVC300 01/M06 A3003 RMK SC3AC1CI1 SLP198

CYQR;2009-10-08 19:00;CYQR 081900Z 30012G18KT 15SM FEW034 BKN080 OVC300 02/M07 A3001 RMK SC2AC2CI1 SLP191

CYQR;2009-10-08 20:00;CYQR 082000Z 27012KT 15SM SCT045 BKN056 OVC300 02/M06 A2999 RMK SC3SC3CI1 SLP185

CYQR;2009-10-08 21:00;CYQR 082100Z 24008KT 15SM BKN040 OVC076 03/M06 A2997 RMK SC7AC1 SLP176

CYQR;2009-10-08 21:39;CYQR 082139Z 25010KT 12SM -SN BKN014 OVC076 03/ RMK SC7AC1

CYQR;2009-10-08 22:00;CYQR 082200Z 22010KT 15SM -SN SCT014 BKN029 OVC094 03/M04 A2995 RMK SC3CU3AC2 SLP169

CYQR;2009-10-08 22:14;CYQR 082214Z 23014KT 15SM VCSH FEW014 BKN031 OVC094 03/ RMK SC2SC4AC2 CU ASOCTD

CYQR;2009-10-08 23:00;CYQR 082300Z 18009KT 15SM VCSH SCT031 OVC091 03/M03 A2991 RMK SC3AC5 CVCTV CLD EMB SHWRS SW-W-NW SLP158

CYQR;2009-10-08 23:33;CYQR 082333Z 21010KT 1/2SM R13/P6000FT/D SN VV005 03/ RMK SN8

CYQR;2009-10-08 23:40;CYQR 082340Z 23012KT 1SM R13/P6000FT/U -SN VV003 01/ RESN RMK SN8

CYQR;2009-10-08 23:46;CYQR 082346Z 28014KT 1/2SM R13/P6000FT/N SN VV002 01/ RMK SN8

CYQR;2009-10-09 00:00;CYQR 090000Z 25010G16KT 3SM -SN BKN005 OVC080 01/M01 A2992 RESN RMK SN2SC4AC2 VIS E 1SN SLP162

CYQR;2009-10-09 00:30;CYQR 090030Z 28005KT 10SM FEW005 BKN030 OVC080 01/ RMK SC2SC5AC2

CYQR;2009-10-09 00:47;CYQR 090047Z 31009KT 10SM -SN OVC023 01/ RMK SC8

CYQR;2009-10-09 01:00;CYQR 090100Z 30010KT 5SM -SN OVC010 01/M01 A2993 RMK SC8 SLP165

CYQR;2009-10-09 02:00;CYQR 090200Z 34006KT 15SM -SN BKN004 OVC041 M00/M01 A2994 RMK SF6SC2 SLP167

CYQR;2009-10-09 02:50;CYQR 090250Z 30011G17KT 15SM BKN009 OVC025 M00/ RMK SF7SC1

CYQR;2009-10-09 03:00;CYQR 090300Z 30013KT 15SM -SN BKN007 OVC043 M00/M02 A2994 RMK SF7SC1 -SN INTMT SLP169

CYQR;2009-10-09 04:00;CYQR 090400Z 35023G30KT 10SM -SHSN BKN010 OVC034 M02/M05 A2999 RMK SF7SC1 SLP184

CYQR;2009-10-09 04:42;CYQR 090442Z 34020G28KT 4SM -SHSN BKN009 OVC042 M03/ RMK SF7SC1

CYQR;2009-10-09 05:00;CYQR 090500Z 34022G27KT 6SM -SHSN OVC013 M04/M06 A3003 RMK SC8 SLP196

CYQR;2009-10-09 05:26;CYQR 090526Z 34021G27KT 3SM -SHSN OVC009 M04/ RMK SC8

CYQR;2009-10-09 06:00;CYQR 090600Z 34021KT 3SM -SHSN OVC008 M04/M06 A3005 RMK SC8 VIS VRB 2-4 SLP206

CYQR;2009-10-09 07:00;CYQR 090700Z 33014G21KT 6SM -SHSN OVC009 M04/M07 A3007 RMK SC8 SLP214

CYQR;2009-10-09 08:00;CYQR 090800Z 33017KT 15SM BKN019 BKN056 M06/M09 A3009 RMK SC5SC2 SLP219

CYQR;2009-10-09 09:00;CYQR 090900Z 33014KT 15SM FEW056 M07/M10 A3011 RMK SC1 SLP229

CYQR;2009-10-09 10:00;CYQR 091000Z 32014G19KT 15SM FEW025 M08/M11 A3012 RMK SC1 SLP232

CYQR;2009-10-09 11:00;CYQR 091100Z 32014KT 15SM BKN018 M08/M10 A3014 RMK SC6 SLP238

CYQR;2009-10-09 11:27;CYQR 091127Z 32018KT 15SM -SHSN BKN022 M08/ RMK SC7

CYQR;2009-10-09 12:00;CYQR 091200Z 32016G22KT 15SM -SHSN BKN022 M08/M10 A3015 RMK SC7 SLP244

CYQR;2009-10-09 12:47;CYQR 091247Z 31014KT 15SM -SHSN BKN014 BKN022 M07/ RMK SC5SC2

CYQR;2009-10-09 13:00;CYQR 091300Z 31016KT 10SM -SHSN BKN014 OVC022 M07/M10 A3016 RMK SC6SC2 SLP248

CYQR;2009-10-09 14:00;CYQR 091400Z 31014KT 15SM VCSH SCT012 BKN020 M07/M10 A3017 RMK SC4SC3 SLP250

CYQR;2009-10-09 14:17;CYQR 091417Z 30016KT 15SM -SN FEW012 BKN020 M07/ RMK SC2SC6

CYQR;2009-10-09 15:00;CYQR 091500Z 30017G22KT 15SM -SN SCT011 OVC028 M07/M09 A3017 RMK SC3SC5 SLP250

CYQR;2009-10-09 15:10;CYQR 091510Z 31020KT 12SM -SN BKN011 OVC032 M07/ RMK SC6SC2

CYQR;2009-10-09 16:00;CYQR 091600Z 31019G24KT 15SM -SN OVC012 M06/M09 A3016 RMK SC8 SLP249

CYQR;2009-10-09 17:00;CYQR 091700Z 30020KT 15SM -SN OVC014 M06/M09 A3016 RMK SC7 SLP249

CYQR;2009-10-09 18:00;CYQR 091800Z 30018G24KT 10SM -SN OVC014 M05/M08 A3016 RMK SC8 CU EMBD SLP249

CYQR;2009-10-09 18:20;CYQR 091820Z 30016G24KT 15SM -SN OVC016 M04/ RMK SC8

CYQR;2009-10-09 19:00;CYQR 091900Z 30020G25KT 15SM -SN BKN020 OVC041 M04/M08 A3015 RMK SC7SC1 SLP245

CYQR;2009-10-09 19:43;CYQR 091943Z 31020G27KT 2SM -SN OVC005 M04/ RMK SN2SC6

CYQR;2009-10-09 20:00;CYQR 092000Z 31022KT 2SM -SN OVC005 M04/M07 A3014 RMK SN2SC6 SLP243

CYQR;2009-10-09 20:06;CYQR 092006Z 30019G27KT 2SM -SN OVC009 M04/ RMK SN3SC5

CYQR;2009-10-09 20:31;CYQR 092031Z 31022KT 2SM -SN BKN010 OVC030 M04/ RMK SN2SC6SC1

CYQR;2009-10-09 20:37;CYQR 092037Z 31020G26KT 1 1/2SM -SN BKN008 OVC030 M04/ RMK SN2SC6SC1 VIS E 2

CYQR;2009-10-09 20:51;CYQR 092051Z 31020G25KT 3SM -SN BKN008 OVC035 M04/ RMK SC7SC1 VIS W 2

CYQR;2009-10-09 21:00;CYQR 092100Z 31023G31KT 3SM -SN BKN009 OVC035 M04/M07 A3014 RMK SC7SC1 VIS W 2 SLP244

CYQR;2009-10-09 21:10;CYQR 092110Z 31019G25KT 1 1/2SM -SN OVC008 M04/ RMK SN2SC6

CYQR;2009-10-09 21:16;CYQR 092116Z 30018KT 1SM R13/P6000FT/D -SN OVC006 M04/ RMK SN2SC6

CYQR;2009-10-09 21:39;CYQR 092139Z 31023G28KT 3SM -SN OVC006 M04/ RMK SN1SC7

CYQR;2009-10-09 22:00;CYQR 092200Z 31024G29KT 2SM -SN OVC009 M04/M06 A3014 RMK SN1SC7 SLP244

CYQR;2009-10-09 22:22;CYQR 092222Z 32024G32KT 3SM -SN OVC013 M03/ RMK SC8

CYQR;2009-10-09 23:00;CYQR 092300Z CCA 31019G28KT 4SM -SN DRSN BKN013 OVC080 M04/M06 A3016 RMK SC6AC2 CU ASOCTD SLP249

CYQR;2009-10-10 00:00;CYQR 100000Z 31019G28KT 5SM -SN DRSN SCT013 OVC086 M04/M07 A3017 RMK SC4AC2 SLP255

CYQR;2009-10-10 01:00;CYQR 100100Z 31019G24KT 10SM -SN DRSN SCT022 OVC084 M05/M08 A3018 RMK SC4AC3 SLP259

CYQR;2009-10-10 02:00;CYQR 100200Z 31018KT 4SM -SN DRSN OVC016 M05/M07 A3019 RMK SC8 SLP261

CYQR;2009-10-10 03:00;CYQR 100300Z 30019G24KT 3SM -SN OVC011 M05/M07 A3019 RMK SC8 SLP261

CYQR;2009-10-10 03:38;CYQR 100338Z 30019KT 2 1/2SM -SN DRSN OVC008 M05/ RMK SC8 VIS VRB 2-3

CYQR;2009-10-10 04:00;CYQR 100400Z 30019G24KT 5SM -SN DRSN OVC015 M05/M07 A3019 RMK SC8 SLP263

CYQR;2009-10-10 05:00;CYQR 100500Z 30018KT 10SM -SN DRSN BKN015 M05/M08 A3019 RMK SC7 SLP261

CYQR;2009-10-10 06:00;CYQR 100600Z 30019KT 6SM -SN DRSN BKN019 M05/M07 A3018 RMK SC7 SLP256

CYQR;2009-10-10 07:00;CYQR 100700Z 30017KT 12SM -SN DRSN BKN024 M05/M07 A3017 RMK SC6 SLP254

CYQR;2009-10-10 08:00;CYQR 100800Z 31019KT 8SM -SN DRSN BKN026 M05/M07 A3017 RMK SC7 SLP253

CYQR;2009-10-10 09:00;CYQR 100900Z 31017G25KT 15SM -SN DRSN SCT023 M06/M08 A3017 RMK SC3 SLP252

CYQR;2009-10-10 10:00;CYQR 101000Z 31016KT 15SM -SN DRSN BKN026 M06/M09 A3017 RMK SC6 SLP252

CYQR;2009-10-10 11:00;CYQR 101100Z 31016G21KT 15SM -SN DRSN SCT031 BKN054 M05/M08 A3017 RMK SC4SC3 SLP253

CYQR;2009-10-10 11:39;CYQR 101139Z 32017G24KT 15SM DRSN FEW037 M06/ RMK SC2

CYQR;2009-10-10 12:00;CYQR 101200Z 31018KT 15SM DRSN FEW035 M06/M09 A3017 RMK SC1 SLP253

CYQR;2009-10-10 13:00;CYQR 101300Z 31017KT 15SM DRSN FEW015 FEW044 SCT068 M06/M09 A3018 RMK SC1SC1AC2 SLP255

CYQR;2009-10-10 13:40;CYQR 101340Z 31020G25KT 15SM -SN DRSN FEW053 SCT068 BKN250 M06/ RMK SC2AC2CI1

CYQR;2009-10-10 14:00;CYQR 101400Z 31019KT 15SM -SN DRSN FEW010 FEW057 SCT075 BKN250 M06/M09 A3018 RMK CF1SC2AC2CI1 SLP257

CYQR;2009-10-10 15:00;CYQR 101500Z 31024G30KT 15SM -SN DRSN FEW010 SCT057 BKN080 BKN230 OVC300 M05/M09 A3019 RMK SC2SC2AC1CI2CI0 SLP258

CYQR;2009-10-10 16:00;CYQR 101600Z 31021G26KT 15SM -SN DRSN SCT017 BKN029 OVC066 M04/M08 A3018 RMK SC3SC3AC1 SLP257

CYQR;2009-10-10 16:52;CYQR 101652Z 31018G26KT 2SM -SN DRSN OVC017 M04/ RMK SC8

CYQR;2009-10-10 17:00;CYQR 101700Z 31021KT 1 1/2SM -SN DRSN OVC017 M04/M07 A3019 RMK SC8 VIS VRB 1-2 SLP258

CYQR;2009-10-10 17:24;CYQR 101724Z 31022G27KT 4SM -SN DRSN BKN017 OVC030 M04/ RMK SC7SC1

CYQR;2009-10-10 17:36;CYQR 101736Z 31021G28KT 2SM -SHSN DRSN OVC017 M04/ RMK SN2SC6 VIS VRB 1-3

CYQR;2009-10-10 17:53;CYQR 101753Z 31022KT 6SM -SHSN OVC017 M03/ RMK SC8 VIS E 3

CYQR;2009-10-10 18:00;CYQR 101800Z 31020G26KT 12SM -SHSN OVC017 M04/M07 A3019 RMK SC8 SLP257

CYQR;2009-10-10 19:00;CYQR 101900Z 32020G26KT 5SM -SHSN BKN017 OVC057 M03/M07 A3018 RMK SC7SC1 SLP256

CYQR;2009-10-10 20:00;CYQR 102000Z 31017G22KT 15SM -SHSN BKN017 OVC055 M03/M07 A3018 RMK SC7SC1 SLP256

CYQR;2009-10-10 21:00;CYQR 102100Z 31016KT 15SM -SHSN OVC019 M03/M07 A3019 RMK SC8 SLP258

CYQR;2009-10-10 21:33;CYQR 102133Z 31018KT 2SM -SHSN OVC012 M03/ RMK SC8

CYQR;2009-10-10 21:44;CYQR 102144Z 31016KT 4SM -SHSN OVC012 M03/ RMK SC8

CYQR;2009-10-10 22:00;CYQR 102200Z 31017KT 6SM -SHSN SCT012 OVC038 M03/M07 A3019 RMK SC4SC3 SLP259

CYQR;2009-10-10 22:31;CYQR 102231Z 31015KT 12SM VCSH BKN014 OVC047 M03/ RMK SC5SC3

CYQR;2009-10-10 23:00;CYQR 102300Z 31014G19KT 12SM VCSH SCT014 BKN017 OVC047 M03/M06 A3019 RMK SC3SC3SC2 SLP261

CYQR;2009-10-11 00:00;CYQR 110000Z 31013KT 15SM VCSH FEW017 BKN025 OVC088 M03/M06 A3019 RMK SC2SC5AC2 SLP261

CYQR;2009-10-11 01:00;CYQR 110100Z 32014KT 15SM VCSH FEW017 BKN022 M03/M06 A3020 RMK SC2SC6 SLP264

CYQR;2009-10-11 02:00;CYQR 110200Z 33011G16KT 15SM FEW012 OVC022 M03/M07 A3021 RMK CF1SC7 SLP267

CYQR;2009-10-11 03:00;CYQR 110300Z 31011KT 15SM OVC020 M04/M07 A3022 RMK SC8 SLP268

CYQR;2009-10-11 04:00;CYQR 110400Z 29008KT 15SM FEW010 OVC020 M04/M06 A3022 RMK SF1SC8 SLP268

CYQR;2009-10-11 05:00;CYQR 110500Z 29009KT 15SM FEW010 OVC028 M04/M07 A3022 RMK SF1SC8 SLP269

CYQR;2009-10-11 05:02;CYQR 110502Z 29009KT 15SM -SHSN FEW010 OVC024 M04/ RMK SF1SC8

CYQR;2009-10-11 06:00;CYQR 110600Z 31009KT 15SM -SHSN FEW010 OVC024 M04/M07 A3021 RMK SF1SC8 SLP266

CYQR;2009-10-11 07:00;CYQR 110700Z 30008KT 15SM -SHSN FEW012 OVC035 M04/M07 A3021 RMK SF1SC8 SLP265

CYQR;2009-10-11 08:00;CYQR 110800Z 32006KT 15SM -SN FEW012 OVC035 M04/M07 A3021 RMK SF1SC8 SLP264

CYQR;2009-10-11 09:00;CYQR 110900Z 31010KT 15SM -SN FEW012 BKN035 M04/M07 A3020 RMK SF1SC7 SLP263

CYQR;2009-10-11 10:00;CYQR 111000Z 30007KT 15SM -SN FEW012 OVC030 M04/M06 A3020 RMK SF1SC8 SLP262

CYQR;2009-10-11 11:00;CYQR 111100Z 30006KT 6SM -SN OVC042 M05/M06 A3020 RMK SC8 SLP262

CYQR;2009-10-11 12:00;CYQR 111200Z 28005KT 8SM -SN FEW012 OVC035 M05/M07 A3019 RMK SF1SC8 /S01/ SLP260

CYQR;2009-10-11 13:00;CYQR 111300Z 29003KT 8SM -SN FEW012 OVC040 M05/M07 A3019 RMK SF1SC8 SLP259

CYQR;2009-10-11 14:00;CYQR 111400Z 31006KT 10SM -SN FEW010 BKN038 OVC091 M05/M07 A3019 RMK SF2SC6AC1 SLP260

CYQR;2009-10-11 15:00;CYQR 111500Z 34009KT 10SM -SN SCT008 BKN040 M04/M07 A3019 RMK CF2SC6 SLP260

CYQR;2009-10-11 16:00;CYQR 111600Z 33008KT 10SM -SN SCT009 BKN033 OVC091 M04/M07 A3019 RMK SC3SC3AC2 -SN INTMT CIG RGD SLP260

CYQR;2009-10-11 17:00;CYQR 111700Z 31005KT 15SM SCT011 BKN030 BKN093 OVC240 M04/M07 A3020 RMK SC3SC2AC1CI1 INTMT -SN SLP261

CYQR;2009-10-11 18:00;CYQR 111800Z 34004KT 12SM SCT013 OVC031 M03/M07 A3019 RMK CU3SC5 INTMT -SN SLP258

CYQR;2009-10-11 19:00;CYQR 111900Z 30006KT 15SM SCT017 OVC029 M03/M08 A3018 RMK CU4SC4 INTMT -SN SLP254

CYQR;2009-10-11 19:48;CYQR 111948Z 28006KT 15SM BKN022 BKN094 OVC240 M02/ RMK CU5AC2CI0

CYQR;2009-10-11 20:00;CYQR 112000Z 30006KT 15SM BKN022 BKN094 OVC240 M02/M08 A3016 RMK CU5AC2CI0 SLP249

CYQR;2009-10-11 20:26;CYQR 112026Z 34006KT 10SM -SN BKN022 OVC094 M03/ RMK CU6AC2

CYQR;2009-10-11 21:00;CYQR 112100Z 28006KT 10SM -SN BKN022 OVC094 M03/M07 A3016 RMK CU7AC1 SLP247

CYQR;2009-10-11 22:00;CYQR 112200Z 28007KT 12SM BKN025 OVC054 M03/M08 A3014 RMK CU6SC2 INTMT -SN SLP243

CYQR;2009-10-11 23:00;CYQR 112300Z 34004KT 15SM BKN023 OVC039 M03/M08 A3014 RMK CU6SC2 INTMT -SN SLP243

CYQR;2009-10-12 00:00;CYQR 120000Z 30004KT 15SM -SN SCT036 OVC093 M03/M08 A3014 RMK SC4AC4 -SN INTMT SLP243

CYQR;2009-10-12 01:00;CYQR 120100Z 29004KT 15SM SCT036 BKN093 M04/M08 A3015 RMK SC4AC3 SLP245

CYQR;2009-10-12 02:00;CYQR 120200Z 30004KT 15SM FEW036 OVC099 M04/M07 A3016 RMK SC2AC6 SLP247

CYQR;2009-10-12 03:00;CYQR 120300Z 28003KT 15SM FEW035 OVC099 M05/M07 A3016 RMK SC1AC7 SLP248

CYQR;2009-10-12 04:00;CYQR 120400Z 27004KT 15SM FEW035 OVC099 M05/M07 A3016 RMK SC1AC7 SLP250

CYQR;2009-10-12 05:00;CYQR 120500Z 27004KT 15SM FEW035 OVC099 M05/M07 A3016 RMK SC1AC7 SLP249

CYQR;2009-10-12 06:00;CYQR 120600Z 28003KT 15SM FEW035 OVC097 M05/M07 A3015 RMK SC1AC7 SLP246

CYQR;2009-10-12 07:00;CYQR 120700Z 27003KT 15SM SCT035 OVC095 M06/M07 A3015 RMK SC3AC5 SLP245

CYQR;2009-10-12 08:00;CYQR 120800Z 29004KT 15SM -SN FEW035 OVC095 M06/M08 A3014 RMK SC2AC6 SLP243

CYQR;2009-10-12 09:00;CYQR 120900Z 30003KT 15SM FEW035 OVC095 M06/M08 A3014 RMK SC2AC6 SLP243

CYQR;2009-10-12 10:00;CYQR 121000Z 31002KT 15SM -SN FEW035 OVC093 M06/M08 A3014 RMK SC2AC6 SLP244

CYQR;2009-10-12 11:00;CYQR 121100Z 34002KT 12SM -SN SCT035 OVC073 M06/M07 A3014 RMK SC4AC4 SLP244

CYQR;2009-10-12 12:00;CYQR 121200Z 30002KT 12SM -SN BKN035 OVC078 M06/M07 A3016 RMK SC5AC3 SLP248

CYQR;2009-10-12 13:00;CYQR 121300Z 29002KT 15SM FEW015 BKN091 M06/M08 A3016 RMK SC1AC3 SLP249

CYQR;2009-10-12 14:00;CYQR 121400Z 30002KT 15SM FEW015 OVC091 M06/M08 A3017 RMK SC1AC5 SLP252

CYQR;2009-10-12 15:00;CYQR 121500Z 23002KT 15SM FEW015 SCT040 BKN091 OVC260 M05/M07 A3018 RMK CF1SC2AC2CI1 SLP257

CYQR;2009-10-12 16:00;CYQR 121600Z 00000KT 15SM FEW015 BKN093 M04/M06 A3019 RMK CU1AC2 SLP259

CYQR;2009-10-12 17:00;CYQR 121700Z 18002KT 15SM FEW017 SCT095 M03/M07 A3019 RMK SC2AC1 SLP260

CYQR;2009-10-12 18:00;CYQR 121800Z 28002KT 15SM VCSH BKN030 M02/M08 A3019 RMK SC7 MOD CU ASOCTD SLP258

CYQR;2009-10-12 18:02;CYQR 121802Z 35004KT 15SM -SHSN BKN030 M02/ RMK SC7 MOD CU ASOCTD

CYQR;2009-10-12 19:00;CYQR 121900Z 00000KT 15SM -SHSN BKN028 M02/M08 A3019 RMK SC7 TCU ASOCTD SLP259

CYQR;2009-10-12 20:00;CYQR 122000Z 21003KT 15SM -SHSN BKN033 OVC042 M02/M09 A3019 RMK SC6SC2 TCU ASOCTD SLP258

CYQR;2009-10-12 21:00;CYQR 122100Z 00000KT 15SM -SHSN BKN039 BKN056 M02/M09 A3020 RMK SC6SC1 TCU ASOCTD SLP261

CYQR;2009-10-12 21:47;CYQR 122147Z 03003KT 15SM SCT038 BKN050 BKN230 M01/ RMK SC3SC2CI2 TCU ASOCTD

CYQR;2009-10-12 22:00;CYQR 122200Z 05002KT 15SM BKN038 BKN230 M02/M08 A3020 RMK SC5CI1 TCU ASOCTD SLP262

CYQR;2009-10-12 23:00;CYQR 122300Z 06004KT 15SM SCT027 BKN091 BKN260 M02/M08 A3021 RMK SC3AC2CI0 SLP264

CYQR;2009-10-13 00:00;CYQR 130000Z 08004KT 15SM BKN064 BKN084 M02/M08 A3022 RMK SC5AC2 SLP269

CYQR;2009-10-13 01:00;CYQR 130100Z 09006KT 15SM BKN062 M03/M08 A3024 RMK SC6 SLP276

CYQR;2009-10-13 02:00;CYQR 130200Z 10006KT 15SM BKN063 M03/M08 A3025 RMK SC6 SLP279

CYQR;2009-10-13 03:00;CYQR 130300Z 11007KT 15SM OVC065 M03/M08 A3026 RMK SC8 SLP284

CYQR;2009-10-13 04:00;CYQR 130400Z 12007KT 15SM OVC061 M03/M09 A3028 RMK SC8 SLP289

CYQR;2009-10-13 05:00;CYQR 130500Z 11006KT 15SM OVC059 M04/M08 A3029 RMK SC8 SLP292

CYQR;2009-10-13 06:00;CYQR 130600Z 12008KT 15SM OVC059 M04/M09 A3030 RMK SC8 SLP294

CYQR;2009-10-13 07:00;CYQR 130700Z 12007KT 15SM OVC061 M04/M09 A3030 RMK SC8 SLP295

CYQR;2009-10-13 08:00;CYQR 130800Z 12008KT 15SM OVC053 M04/M08 A3031 RMK SC8 SLP297

CYQR;2009-10-13 09:00;CYQR 130900Z 12009KT 15SM OVC053 M04/M08 A3030 RMK SC8 SLP296

CYQR;2009-10-13 10:00;CYQR 131000Z 12009KT 15SM OVC047 M04/M08 A3030 RMK SC8 SLP296

CYQR;2009-10-13 11:00;CYQR 131100Z 12010KT 15SM OVC049 M04/M08 A3031 RMK SC8 SLP298

CYQR;2009-10-13 12:00;CYQR 131200Z 12009G15KT 15SM OVC049 M04/M09 A3031 RMK SC8 SLP300

CYQR;2009-10-13 13:00;CYQR 131300Z 13010KT 15SM BKN057 BKN300 M05/M09 A3032 RMK SC5CI0 SLP301

CYQR;2009-10-13 14:00;CYQR 131400Z 12011KT 15SM BKN055 BKN080 BKN300 M05/M09 A3033 RMK SC6AC1CI1 SLP304

CYQR;2009-10-13 15:00;CYQR 131500Z 12008KT 15SM SCT055 BKN077 OVC300 M04/M07 A3033 RMK SC4AC2CI1 SLP305

CYQR;2009-10-13 16:00;CYQR 131600Z 12013G18KT 15SM SCT050 BKN080 OVC300 M03/M07 A3033 RMK SC4AC2CI1 SLP306

CYQR;2009-10-13 17:00;CYQR 131700Z 13013KT 15SM SCT050 BKN090 OVC300 M01/M07 A3033 RMK SC3AC3CI1 SLP307

CYQR;2009-10-13 18:00;CYQR 131800Z 12017KT 15SM FEW025 BKN047 OVC090 M00/M09 A3032 RMK CF1SC5AC3 SLP301

CYQR;2009-10-13 19:00;CYQR 131900Z 11017KT 15SM FEW025 BKN043 OVC097 00/M08 A3030 RMK CF1SC5AC3 SLP296

CYQR;2009-10-13 20:00;CYQR 132000Z 12017G22KT 15SM FEW040 BKN050 OVC090 01/M07 A3028 RMK CF1SC4AC3 SLP290

CYQR;2009-10-13 21:00;CYQR 132100Z 13022KT 15SM BKN043 OVC090 01/M07 A3027 RMK SC6AC2 SLP281

CYQR;2009-10-13 22:00;CYQR 132200Z 12016KT 15SM OVC036 01/M06 A3025 RMK SC8 SLP276

CYQR;2009-10-13 23:00;CYQR 132300Z 13017G22KT 15SM OVC038 01/M06 A3024 RMK SC8 SLP273

CYQR;2009-10-14 00:00;CYQR 140000Z 12013KT 15SM BKN040 OVC098 01/M06 A3024 RMK SC5AC3 SLP273

CYQR;2009-10-14 01:00;CYQR 140100Z 10012KT 15SM BKN046 OVC090 00/M06 A3023 RMK SC6AC2 SLP271

CYQR;2009-10-14 02:00;CYQR 140200Z 10012KT 15SM BKN046 OVC090 M00/M06 A3024 RMK SC7AC1 SLP272

CYQR;2009-10-14 03:00;CYQR 140300Z 11012KT 15SM BKN046 OVC088 M00/M06 A3023 RMK SC7AC1 SLP268

CYQR;2009-10-14 04:00;CYQR 140400Z 12012KT 15SM BKN048 OVC088 M00/M06 A3022 RMK SC7AC1 SLP267

CYQR;2009-10-14 05:00;CYQR 140500Z 11012KT 15SM SCT050 BKN080 M01/M06 A3020 RMK SC3AC3 SLP261

CYQR;2009-10-14 05:52;CYQR 140552Z 11013KT 15SM -SHSN SCT030 OVC062 M01/ RMK SC4SC4

CYQR;2009-10-14 06:00;CYQR 140600Z 11011G16KT 15SM -SHSN BKN028 OVC072 M01/M06 A3016 RMK SC5AC3 SLP245

CYQR;2009-10-14 06:39;CYQR 140639Z 12011KT 15SM BKN028 OVC072 M01/ RMK SC7AC1

CYQR;2009-10-14 07:00;CYQR 140700Z 13014KT 15SM BKN028 OVC070 M00/M06 A3016 RMK SC6AC2 SLP244

CYQR;2009-10-14 08:00;CYQR 140800Z 11013KT 15SM BKN036 OVC085 M01/M06 A3015 RMK SC6AC2 SLP240

CYQR;2009-10-14 08:08;CYQR 140808Z 10013KT 15SM -SHSN BKN036 OVC085 M01/ RMK SC7AC1

CYQR;2009-10-14 08:30;CYQR 140830Z 11012KT 15SM BKN036 OVC083 M01/ RMK SC6AC2 OCNL -SHSN

CYQR;2009-10-14 09:00;CYQR 140900Z 10014KT 15SM BKN040 OVC083 M01/M06 A3013 RMK SC6AC2 SLP231

CYQR;2009-10-14 10:00;CYQR 141000Z 10013KT 15SM BKN040 OVC070 M01/M06 A3010 RMK SC6AC2 SLP222

CYQR;2009-10-14 11:00;CYQR 141100Z 10011G18KT 15SM SCT050 OVC061 M01/M06 A3008 RMK SC4SC4 SLP215

CYQR;2009-10-14 12:00;CYQR 141200Z 12015G22KT 15SM FEW025 OVC048 M01/M06 A3004 RMK SC1SC8 SLP202

CYQR;2009-10-14 13:00;CYQR 141300Z 12019KT 15SM BKN019 OVC050 M01/M05 A3004 RMK SC6SC2 SLP201

CYQR;2009-10-14 14:00;CYQR 141400Z 12019G24KT 15SM BKN017 OVC042 M01/M05 A3003 RMK SC7SC1 SLP198

CYQR;2009-10-14 14:52;CYQR 141452Z 12017G22KT 15SM OVC013 M01/ RMK SC8

CYQR;2009-10-14 15:00;CYQR 141500Z 12016KT 15SM OVC013 M01/M04 A3003 RMK SC8 SLP198

CYQR;2009-10-14 16:00;CYQR 141600Z 12016G22KT 10SM -SHSN OVC011 M01/M04 A3001 RMK SC8 VIS W 4 SLP193

CYQR;2009-10-14 16:13;CYQR 141613Z CCA 08015G20KT 3SM -SN -FZDZ OVC013 M01/ RMK SC8

CYQR;2009-10-14 16:34;CYQR 141634Z 11012G20KT 3SM -SN BR OVC010 M01/ REFZDZ RMK SC8

CYQR;2009-10-14 17:00;CYQR 141700Z 12014G20KT 3SM -SN DRSN OVC010 M01/M03 A2999 REFZDZ RMK SC8 SLP188

CYQR;2009-10-14 17:05;CYQR 141705Z 12016G21KT 2SM -SN DRSN OVC010 M01/ RMK SC8

CYQR;2009-10-14 17:36;CYQR 141736Z 11016KT 3SM -SN OVC010 M01/ RMK SC8

CYQR;2009-10-14 18:00;CYQR 141800Z 12015G24KT 12SM -SN OVC010 OVC078 M00/M03 A2998 RMK SC7AC1 SLP181

CYQR;2009-10-14 18:32;CYQR 141832Z 13019KT 15SM OVC012 M00/ RMK SC8

CYQR;2009-10-14 19:00;CYQR 141900Z 12014G21KT 15SM OVC012 M00/M03 A2996 RMK SC8 SLP177

CYQR;2009-10-14 20:00;CYQR 142000Z 12015G22KT 15SM OVC014 M00/M03 A2997 RMK SC8 SLP178

CYQR;2009-10-14 21:00;CYQR 142100Z 11015KT 15SM OVC014 M00/M03 A2996 RMK SC8 SLP176

CYQR;2009-10-14 21:47;CYQR 142147Z 11012KT 7SM -SN OVC014 M00/ RMK SC8

CYQR;2009-10-14 22:00;CYQR 142200Z 10012KT 4SM -SN OVC014 M00/M03 A2998 RMK SC8 SLP180

CYQR;2009-10-14 22:19;CYQR 142219Z 11011KT 2SM -SN OVC014 M00/ RMK SC8

CYQR;2009-10-14 22:36;CYQR 142236Z 10010KT 2 1/2SM -SN OVC016 M00/ RMK SC8

CYQR;2009-10-14 23:00;CYQR 142300Z 10008KT 3SM -SN OVC013 M00/M02 A2997 RMK SC8 SLP179

CYQR;2009-10-15 00:00;CYQR 150000Z 10009G15KT 6SM -SN BR BKN012 OVC018 M00/M02 A2998 RMK CU5SC3 SLP180

CYQR;2009-10-15 00:34;CYQR 150034Z 10011KT 12SM OVC014 M00/ RMK SC8

CYQR;2009-10-15 00:42;CYQR 150042Z 10010G15KT 15SM OVC018 M00/ RMK SC8

CYQR;2009-10-15 01:00;CYQR 150100Z 10011G17KT 15SM SCT011 OVC018 M00/M02 A2998 RMK CF2SC6 SLP182

CYQR;2009-10-15 01:54;CYQR 150154Z 11011KT 15SM -SHSN OVC015 M00/ RMK SC8

CYQR;2009-10-15 02:00;CYQR 150200Z 10010G15KT 15SM -SHSN OVC015 M00/M03 A2999 RMK SC8 SLP186

CYQR;2009-10-15 02:43;CYQR 150243Z 11010KT 15SM FEW012 BKN021 OVC078 M01/ RMK SC1SC6AC1 OCNL -SHSN

CYQR;2009-10-15 03:00;CYQR 150300Z 11010KT 15SM FEW012 BKN023 OVC078 M01/M03 A3000 RMK SF1SC6AC2 OCNL -SHSN SLP188

CYQR;2009-10-15 04:00;CYQR 150400Z 11011KT 15SM SCT025 OVC078 M01/M03 A3000 RMK SC4AC4 SLP190

CYQR;2009-10-15 05:00;CYQR 150500Z 11012KT 15SM FEW025 OVC044 OVC080 M01/M03 A3001 RMK SC1SC6AC2 SLP193

CYQR;2009-10-15 05:51;CYQR 150551Z 10010KT 15SM -SHSN BKN017 OVC045 M01/ RMK SC6SC2

CYQR;2009-10-15 06:00;CYQR 150600Z 10011KT 15SM -SHSN BKN017 OVC050 M01/M03 A3002 RMK SC6SC2 SLP194

CYQR;2009-10-15 06:12;CYQR 150612Z 11008KT 15SM BKN017 OVC050 M01/ RMK SC6SC2

CYQR;2009-10-15 07:00;CYQR 150700Z 11009KT 15SM OVC019 M01/M03 A3003 RMK SC8 SLP198

CYQR;2009-10-15 07:18;CYQR 150718Z 10009KT 15SM -SHSN OVC019 M01/ RMK SC8

CYQR;2009-10-15 08:00;CYQR 150800Z 12008KT 8SM -SHSN OVC023 M01/M03 A3004 RMK SC8 SLP202

CYQR;2009-10-15 09:00;CYQR 150900Z 11007KT 5SM -SN OVC023 M01/M03 A3005 RMK SC8 SLP205

CYQR;2009-10-15 10:00;CYQR 151000Z 11007KT 6SM -SN OVC016 M01/M02 A3005 RMK SC8 SLP206

CYQR;2009-10-15 10:19;CYQR 151019Z 11007KT 6SM -SN FEW006 OVC016 M01/ RMK SF1SC7

CYQR;2009-10-15 11:00;CYQR 151100Z 11007KT 5SM -SN FEW006 OVC016 M01/M03 A3007 RMK SF1SC7 /S01/ SLP211

CYQR;2009-10-15 11:29;CYQR 151129Z 11006KT 4SM -SN BKN007 OVC016 M01/ RMK SF5SC3

CYQR;2009-10-15 12:00;CYQR 151200Z 12006KT 4SM -SN BKN006 OVC016 M01/M02 A3009 RMK SN2SF4SC2 /S02/ SLP218

CYQR;2009-10-15 12:31;CYQR 151231Z 12007KT 2 1/2SM -SN OVC006 M01/ RMK SN4ST4

CYQR;2009-10-15 12:51;CYQR 151251Z 11006KT 3SM -SN OVC006 M01/ RMK SN4ST4 VIS VRB 2-4

CYQR;2009-10-15 13:00;CYQR 151300Z 11006KT 3SM -SN BKN006 OVC016 M01/M02 A3009 RMK SN3ST3SC2 VIS VRB 2-4 SLP221

CYQR;2009-10-15 13:39;CYQR 151339Z 12006KT 1 1/2SM -SN OVC005 M01/ RMK SN2SC6

CYQR;2009-10-15 14:00;CYQR 151400Z 12006KT 1 1/2SM -SN OVC007 M01/M02 A3010 RMK SN2SC6 SLP224

CYQR;2009-10-15 14:17;CYQR 151417Z 11007KT 2SM -SN OVC005 M01/ RMK SC8

CYQR;2009-10-15 14:29;CYQR 151429Z 11006KT 3SM -SN OVC004 M01/ RMK SC8 VIS E 21/2

CYQR;2009-10-15 14:49;CYQR 151449Z 12009KT 2SM -SN OVC005 M01/ RMK SC8

CYQR;2009-10-15 15:00;CYQR 151500Z 12009KT 2SM -SN OVC005 M01/M02 A3011 RMK SC8 SLP228

CYQR;2009-10-15 16:00;CYQR 151600Z 13009KT 5SM -SN OVC007 M00/M02 A3012 RMK SC8 SLP231

CYQR;2009-10-15 17:00;CYQR 151700Z 15009KT 8SM -SN OVC008 M00/M02 A3013 RMK SC8 SLP234

CYQR;2009-10-15 18:00;CYQR 151800Z 16008KT 8SM -SN OVC009 00/M01 A3014 RMK SC8 SLP235

CYQR;2009-10-15 19:00;CYQR 151900Z 16007KT 6SM -SN OVC010 01/M01 A3014 RMK SC8 SLP236

CYQR;2009-10-15 20:00;CYQR 152000Z 17007KT 8SM -SN OVC012 01/M01 A3014 RMK SC8 SLP236

CYQR;2009-10-15 20:46;CYQR 152046Z 15005KT 12SM SCT011 OVC014 01/ RMK SC4SC4

CYQR;2009-10-15 21:00;CYQR 152100Z 16004KT 15SM SCT011 OVC014 01/M01 A3013 RMK SC4SC4 SLP233

CYQR;2009-10-15 21:53;CYQR 152153Z 16003KT 12SM -SN OVC012 01/ RMK SC8

CYQR;2009-10-15 22:00;CYQR 152200Z 15004KT 12SM -PL OVC012 01/M01 A3014 RMK SC8 SLP234

CYQR;2009-10-15 22:18;CYQR 152218Z 15003KT 15SM OVC015 01/ RMK SC8

CYQR;2009-10-15 22:46;CYQR 152246Z 16003KT 15SM OVC012 01/ RMK SC8

CYQR;2009-10-15 23:00;CYQR 152300Z 14004KT 15SM BKN012 OVC046 01/M01 A3014 RMK SC6SC2 SLP235

CYQR;2009-10-15 23:41;CYQR 152341Z 13002KT 15SM -SHGS FEW012 BKN023 OVC044 01/ RMK SF1SC6SC2

CYQR;2009-10-16 00:00;CYQR 160000Z 11002KT 12SM -SN FEW012 BKN023 OVC044 01/M01 A3015 RMK SC1SC7SC1 SLP241

CYQR;2009-10-16 01:00;CYQR 160100Z 10003KT 12SM -SN FEW012 BKN023 OVC038 01/M01 A3016 RMK SC1SC6SC2 SLP244

CYQR;2009-10-16 02:00;CYQR 160200Z 15003KT 12SM -SN OVC031 00/M00 A3017 RMK SC8 SLP245

CYQR;2009-10-16 03:00;CYQR 160300Z 19002KT 12SM -SN OVC029 00/M00 A3017 RMK SC8 SLP247

CYQR;2009-10-16 03:17;CYQR 160317Z 00000KT 15SM OVC027 00/ RMK SC8

CYQR;2009-10-16 03:47;CYQR 160347Z 00000KT 15SM BKN010 OVC027 00/ RMK SF5SC3

CYQR;2009-10-16 04:00;CYQR 160400Z 00000KT 15SM BKN008 OVC027 00/M00 A3017 RMK ST6SC2 SLP248

CYQR;2009-10-16 05:00;CYQR 160500Z 30002KT 12SM -SN OVC007 00/M00 A3018 RMK ST8 SLP251

CYQR;2009-10-16 06:00;CYQR 160600Z 32003KT 12SM -SN OVC007 00/M00 A3019 RMK ST8 SLP251

CYQR;2009-10-16 07:00;CYQR 160700Z 31005KT 6SM -SN SCT003 OVC007 00/M00 A3019 RMK ST4ST4 SLP251

CYQR;2009-10-16 08:00;CYQR 160800Z 33004KT 6SM -SN SCT003 OVC011 00/M00 A3019 RMK ST2SC6 SLP254

CYQR;2009-10-16 08:27;CYQR 160827Z 34005KT 6SM -SN BKN003 OVC014 00/ RMK ST6SC2

CYQR;2009-10-16 09:00;CYQR 160900Z 34004KT 6SM -SN OVC003 00/M00 A3020 RMK ST8 SLP257

CYQR;2009-10-16 10:00;CYQR 161000Z 32006KT 6SM -SN OVC004 00/M00 A3022 RMK ST8 CIG RAG SLP261

CYQR;2009-10-16 11:00;CYQR 161100Z 32005KT 2SM -SN OVC003 M00/M00 A3023 RMK ST8 CIG RAG SLP265

CYQR;2009-10-16 12:00;CYQR 161200Z 34007KT 3SM -SN OVC004 M00/M01 A3025 RMK ST8 CIG RAG SLP272

CYQR;2009-10-16 12:53;CYQR 161253Z 33005KT 6SM BR BKN004 OVC021 M00/ RMK ST6SC2

CYQR;2009-10-16 13:00;CYQR 161300Z 32005KT 6SM BR BKN004 OVC021 M00/M01 A3026 RMK ST6SC2 CIG RAG SLP275

CYQR;2009-10-16 13:11;CYQR 161311Z 32005KT 5SM BR BKN003 OVC021 M00/ RMK SC6SC2 CIG RAG

CYQR;2009-10-16 14:00;CYQR 161400Z 32004KT 4SM BR OVC003 M00/M01 A3027 RMK SC8 CIG RAG SLP280

CYQR;2009-10-16 14:40;CYQR 161440Z 31005KT 4SM BR OVC004 00/ RMK SC8

CYQR;2009-10-16 15:00;CYQR 161500Z 33005KT 4SM BR OVC004 00/M01 A3029 RMK SC8 SLP288

CYQR;2009-10-16 15:14;CYQR 161514Z 33005KT 4SM BR OVC005 01/ RMK SC8

CYQR;2009-10-16 16:00;CYQR 161600Z 33004KT 6SM BR BKN006 OVC025 01/M01 A3029 RMK SC7SC1 SLP289

CYQR;2009-10-16 17:00;CYQR 161700Z 30006KT 12SM BKN007 BKN020 OVC091 01/M01 A3031 RMK SC5SC2AC1 SLP295

CYQR;2009-10-16 17:47;CYQR 161747Z 30007KT 12SM BKN010 OVC091 01/ RMK SC7AC1

CYQR;2009-10-16 18:00;CYQR 161800Z 30007KT 12SM BKN010 OVC100 01/M01 A3033 RMK SC7AC1 SLP300

CYQR;2009-10-16 18:12;CYQR 161812Z 30006KT 15SM BKN012 OVC100 02/ RMK SC6AC2

CYQR;2009-10-16 18:24;CYQR 161824Z 30004KT 15SM SCT012 OVC021 02/ RMK SC3SC5

CYQR;2009-10-16 19:00;CYQR 161900Z 28006KT 15SM FEW012 BKN019 OVC095 02/M02 A3033 RMK SC2SC5AC2 SLP299

CYQR;2009-10-16 20:00;CYQR 162000Z 26008KT 15SM BKN019 OVC094 02/M02 A3031 RMK SC7AC1 SLP294

CYQR;2009-10-16 21:00;CYQR 162100Z 24006KT 13SM BKN019 OVC031 02/M02 A3030 RMK SC7SC1 SLP289

CYQR;2009-10-16 22:00;CYQR 162200Z 23008KT 15SM BKN017 OVC051 01/M02 A3030 RMK SC7SC1 SLP289

CYQR;2009-10-16 23:00;CYQR 162300Z 22008KT 15SM BKN015 01/M02 A3029 RMK SC7 SLP287

CYQR;2009-10-17 00:00;CYQR 170000Z 20010KT 15SM BKN015 01/M02 A3028 RMK SC7 SLP284

CYQR;2009-10-17 01:00;CYQR 170100Z 21009KT 15SM BKN017 01/M02 A3028 RMK SC7 SLP283

CYQR;2009-10-17 02:00;CYQR 170200Z 18008KT 15SM SCT017 M00/M02 A3025 RMK SC2 SLP275

CYQR;2009-10-17 03:00;CYQR 170300Z 15010KT 15SM SKC M00/M02 A3023 RMK SLP265

CYQR;2009-10-17 04:00;CYQR 170400Z 15011KT 15SM SKC M01/M03 A3022 RMK SLP262

CYQR;2009-10-17 05:00;CYQR 170500Z 15012KT 15SM SKC M01/M03 A3019 RMK SLP254

CYQR;2009-10-17 06:00;CYQR 170600Z 15013KT 15SM SKC M01/M03 A3016 RMK SLP244

CYQR;2009-10-17 07:00;CYQR 170700Z 15012KT 15SM BKN250 M02/M03 A3016 RMK CI2 SLP242

CYQR;2009-10-17 08:00;CYQR 170800Z 15012KT 15SM BKN250 M01/M03 A3014 RMK CI2 SLP235

CYQR;2009-10-17 09:00;CYQR 170900Z 14013KT 15SM BKN250 M01/M03 A3009 RMK CI3 SLP218

CYQR;2009-10-17 10:00;CYQR 171000Z 14014KT 15SM OVC250 M01/M02 A3004 RMK CI6 SLP204

CYQR;2009-10-17 11:00;CYQR 171100Z 14012KT 15SM OVC250 M00/M02 A3003 RMK CI6 SLP199

CYQR;2009-10-17 12:00;CYQR 171200Z 15011KT 15SM BKN250 M00/M01 A2999 RMK CI2 SLP183

CYQR;2009-10-17 13:00;CYQR 171300Z 14010KT 15SM BKN250 M00/M01 A2998 RMK CI6 SLP179

CYQR;2009-10-17 14:00;CYQR 171400Z 12010KT 15SM FEW100 BKN250 00/M01 A2996 RMK AC1CI2 SLP175

CYQR;2009-10-17 15:00;CYQR 171500Z 16008KT 15SM FEW250 02/M00 A2995 RMK CI1 SLP169

CYQR;2009-10-17 16:00;CYQR 171600Z 18006KT 15SM FEW100 BKN270 06/03 A2994 RMK AC1CI2 CONTRAILS SLP164

CYQR;2009-10-17 17:00;CYQR 171700Z CCA 23008KT 15SM FEW100 BKN280 11/06 A2990 RMK AC1CI2 CONTRAILS SLP154

CYQR;2009-10-17 18:00;CYQR 171800Z 25010G15KT 15SM FEW100 BKN280 13/06 A2989 RMK AC1CI2 CONTRAILS SLP140

CYQR;2009-10-17 19:00;CYQR 171900Z 25009KT 15SM FEW100 BKN280 15/07 A2986 RMK AC1CI1 SLP133

CYQR;2009-10-17 20:00;CYQR 172000Z 26008KT 15SM FEW100 FEW160 BKN280 17/07 A2984 RMK AC1AC1CI1 CONTRAILS SLP126

CYQR;2009-10-17 21:00;CYQR 172100Z 26008KT 15SM FEW100 FEW160 BKN280 18/07 A2983 RMK AC1AC1CI2 ACSL CONTRAILS SLP117

CYQR;2009-10-17 22:00;CYQR 172200Z 27005KT 15SM FEW100 FEW160 BKN280 19/07 A2981 RMK AC1AC1CI2 ACSL CONTRAILS SLP110

CYQR;2009-10-17 23:00;CYQR 172300Z 00000KT 15SM FEW100 BKN280 19/07 A2979 RMK AC1CI1 SLP105

CYQR;2009-10-18 00:00;CYQR 180000Z 12004KT 15SM BKN280 16/07 A2977 RMK CI2 SLP098

CYQR;2009-10-18 01:00;CYQR 180100Z 16007KT 15SM FEW280 12/06 A2976 RMK CI1 SLP096

CYQR;2009-10-18 02:00;CYQR 180200Z 17008KT 15SM BKN280 10/06 A2975 RMK CI3 SLP091

CYQR;2009-10-18 03:00;CYQR 180300Z 16007KT 15SM SCT280 10/06 A2972 RMK CI2 SLP082

CYQR;2009-10-18 04:00;CYQR 180400Z 18005KT 15SM BKN280 08/05 A2970 RMK CI6 SLP077

CYQR;2009-10-18 05:00;CYQR 180500Z 17010KT 15SM SCT100 OVC280 09/06 A2966 RMK AC3CI5 SLP063

CYQR;2009-10-18 06:00;CYQR 180600Z 15008KT 15SM FEW100 SCT280 10/06 A2965 RMK AC1CI2 SLP052

CYQR;2009-10-18 07:00;CYQR 180700Z 13009KT 15SM BKN100 08/05 A2964 RMK AC5 SLP047

CYQR;2009-10-18 08:00;CYQR 180800Z 14009KT 15SM OVC100 07/05 A2962 RMK AC8 SLP043

CYQR;2009-10-18 09:00;CYQR 180900Z 13006KT 15SM SKC 06/04 A2962 RMK SLP040

CYQR;2009-10-18 10:00;CYQR 181000Z 12006KT 15SM SKC 04/03 A2959 RMK SLP033

CYQR;2009-10-18 11:00;CYQR 181100Z 12006KT 15SM SCT280 04/03 A2959 RMK CI2 SLP030

CYQR;2009-10-18 12:00;CYQR 181200Z 12005KT 15SM BKN080 04/03 A2958 RMK AC5 SLP028

CYQR;2009-10-18 13:00;CYQR 181300Z 15004KT 15SM SCT100 BKN280 03/02 A2958 RMK AC4CI1 SLP028

CYQR;2009-10-18 14:00;CYQR 181400Z 12004KT 15SM SCT085 OVC280 04/03 A2956 RMK AC4CI2 SLP024

CYQR;2009-10-18 15:00;CYQR 181500Z 18005KT 15SM BKN055 OVC280 06/04 A2956 RMK SC5CI2 SLP024

CYQR;2009-10-18 16:00;CYQR 181600Z 26013KT 15SM SCT070 BKN280 13/07 A2957 RMK AC4CI2 SLP029

CYQR;2009-10-18 17:00;CYQR 181700Z 26018G26KT 15SM FEW070 FEW280 16/05 A2957 RMK AC1CI1 SLP028

CYQR;2009-10-18 18:00;CYQR 181800Z 28024G30KT 15SM FEW090 FEW280 17/05 A2956 RMK AC1CI1 SLP018

CYQR;2009-10-18 19:00;CYQR 181900Z 28026G36KT 15SM FEW090 FEW280 17/06 A2956 RMK AC1CI1 SLP019

CYQR;2009-10-18 20:00;CYQR 182000Z 29027G36KT 15SM SCT089 SCT280 13/06 A2960 RMK AC3CI0 SLP031

CYQR;2009-10-18 21:00;CYQR 182100Z 30026KT 15SM OVC018 09/04 A2964 RMK SC8 SLP054

CYQR;2009-10-18 21:44;CYQR 182144Z 32029KT 15SM OVC014 08/ RMK SC8

CYQR;2009-10-18 22:00;CYQR 182200Z 33025G31KT 15SM OVC012 07/04 A2969 RMK SC8 SLP071

CYQR;2009-10-18 23:00;CYQR 182300Z 35023G31KT 15SM OVC014 08/04 A2975 RMK SC8 PRESRR SLP088

CYQR;2009-10-19 00:00;CYQR 190000Z 35022KT 15SM SCT014 BKN020 OVC065 07/03 A2981 RMK SC3SC2SC2 SLP113

CYQR;2009-10-19 01:00;CYQR 190100Z 33011KT 15SM BKN020 BKN040 06/03 A2984 RMK SC5SC2 SLP125

CYQR;2009-10-19 02:00;CYQR 190200Z 32010KT 15SM SKC 05/03 A2987 RMK SLP133

CYQR;2009-10-19 03:00;CYQR 190300Z 32014KT 15SM SKC 05/03 A2989 RMK SLP144

CYQR;2009-10-19 04:00;CYQR 190400Z 31010KT 15SM SKC 04/02 A2991 RMK SLP150

CYQR;2009-10-19 05:00;CYQR 190500Z 32009KT 15SM BKN015 01/01 A2994 RMK SC6 SLP158

CYQR;2009-10-19 05:37;CYQR 190537Z 31007KT 15SM BKN011 OVC028 01/ RMK SC6SC2

CYQR;2009-10-19 05:48;CYQR 190548Z 31008KT 15SM SCT011 SCT028 M00/ RMK SC2SC1

CYQR;2009-10-19 06:00;CYQR 190600Z 32007KT 15SM FEW011 00/M00 A2994 RMK SC1 SLP155

CYQR;2009-10-19 06:40;CYQR 190640Z 33008KT 15SM BKN006 M01/ RMK ST5

CYQR;2009-10-19 07:00;CYQR 190700Z 33009KT 15SM OVC004 M00/M01 A2994 RMK ST8 SLP156

CYQR;2009-10-19 07:15;CYQR 190715Z 34006KT 15SM OVC003 00/ RMK ST8

CYQR;2009-10-19 08:00;CYQR 190800Z 20002KT 2SM R13/2600FT/N BR OVC001 M02/M02 A2997 RMK ST8 VIS DCRSNG RPDLY SLP165

CYQR;2009-10-19 08:09;CYQR 190809Z 21003KT 3/4SM R13/2400FT/N BR VV001 M02/ RMK FG8

CYQR;2009-10-19 08:12;CYQR 190812Z 21003KT 3/8SM R13/2600FT/N FZFG VV001 M02/ RMK FG8

CYQR;2009-10-19 09:00;CYQR 190900Z 35003KT 3/8SM R13/1600FT/N FZFG SKC M02/M02 A2997 RMK FG6 SLP172

CYQR;2009-10-19 09:35;CYQR 190935Z 23002KT 1/2SM R13/4000VP6000FT/U FZFG BKN019 M03/ RMK FG3SC4 VIS W 3/4

CYQR;2009-10-19 10:00;CYQR 191000Z 23004KT 1/2SM R13/P6000FT/N FZFG OVC019 M02/M02 A2999 RMK FG3SC5 VIS N 3/4 SLP177

CYQR;2009-10-19 10:09;CYQR 191009Z 21004KT 3/4SM R13/P6000FT/N BR BKN019 M02/ RMK FG2SC2

CYQR;2009-10-19 10:30;CYQR 191030Z 19004KT 1 1/2SM BR OVC019 M02/ RMK FG2SC6

CYQR;2009-10-19 10:44;CYQR 191044Z 24007KT 1SM R13/P6000FT/D BR OVC021 M02/ RMK FG4SC4 VIS VRB 3/4-11/2

CYQR;2009-10-19 10:50;CYQR 191050Z 24007KT 1/2SM R13/4500VP6000FT/D FZFG VV001 M02/ RMK FG8

CYQR;2009-10-19 11:00;CYQR 191100Z 26002KT 1/2SM R13/2800V5500FT/D FZFG VV001 M02/M02 A3000 RMK FG8 FROIN SLP182

CYQR;2009-10-19 12:00;CYQR 191200Z 17002KT 3/8SM R13/3500FT/N FZFG VV001 M01/M01 A3000 RMK FG8 SLP183

CYQR;2009-10-19 12:10;CYQR 191210Z 00000KT 1/4SM R13/2200FT/N FZFG VV001 M01/ RMK FG8

CYQR;2009-10-19 12:22;CYQR 191222Z 00000KT 1/8SM R13/1200FT/N FZFG VV000 M01/ RMK FG8

CYQR;2009-10-19 13:00;CYQR 191300Z 19007KT 1/2SM R13/0900V1100FT/N FZFG VV000 M00/M01 A3001 RMK FG8 SLP185

CYQR;2009-10-19 13:09;CYQR 191309Z 19004KT 3/8SM R13/2600FT/N FZFG VV001 M00/ RMK FG8

CYQR;2009-10-19 13:47;CYQR 191347Z 21005KT 5/8SM R13/3500VP6000FT/U BR BKN003 OVC280 M00/ RMK FG2ST3CI2

CYQR;2009-10-19 13:52;CYQR 191352Z 21004KT 3/4SM R13/5500FT/D BR BKN003 OVC031 M00/ RMK FG2SC3SC2

CYQR;2009-10-19 14:00;CYQR 191400Z 19002KT 3/4SM R13/4500VP6000FT/U BR BKN001 OVC017 M00/M00 A3001 RMK FG2SF4SC2 SLP186

CYQR;2009-10-19 14:15;CYQR 191415Z 15002KT 3/4SM R13/P6000FT/N BR BKN003 OVC017 M00/ RMK FG2SF3SC2

CYQR;2009-10-19 14:30;CYQR 191430Z 00000KT 1SM R13/P6000FT/D BR BKN001 OVC033 M00/ RMK FG2SF4SC2

CYQR;2009-10-19 14:40;CYQR 191440Z 00000KT 1 1/2SM BR BKN002 OVC033 00/ RMK SF6SC2

CYQR;2009-10-19 15:00;CYQR 191500Z 00000KT 2SM BR OVC001 00/00 A3002 RMK SF8 VIS SE-S 5 SLP191

CYQR;2009-10-19 15:36;CYQR 191536Z 08002KT 4SM BR OVC002 01/ RMK SF8

CYQR;2009-10-19 16:00;CYQR 191600Z 15002KT 5SM BR OVC003 02/02 A3003 RMK SF8 SLP195

CYQR;2009-10-19 17:00;CYQR 191700Z 14004KT 10SM BKN003 OVC013 02/02 A3004 RMK SF6SC2 SLP197

CYQR;2009-10-19 17:12;CYQR 191712Z 12003KT 12SM BKN004 OVC013 02/ RMK SF6SC2

CYQR;2009-10-19 17:25;CYQR 191725Z 09003KT 12SM OVC005 03/ RMK SC8

CYQR;2009-10-19 17:46;CYQR 191746Z 05002KT 12SM BKN006 OVC009 03/ RMK SC6SC2

CYQR;2009-10-19 18:00;CYQR 191800Z 07004KT 12SM SCT006 OVC010 03/02 A3003 RMK SC4SC4 SLP196

CYQR;2009-10-19 19:00;CYQR 191900Z 00000KT 12SM FEW006 OVC010 04/02 A3004 RMK SC2SC6 SLP198

CYQR;2009-10-19 20:00;CYQR 192000Z 01003KT 12SM BKN014 05/02 A3002 RMK SC6 SLP193

CYQR;2009-10-19 21:00;CYQR 192100Z 27002KT 12SM SCT019 BKN280 06/01 A3002 RMK SC3CI2 SLP190

CYQR;2009-10-19 22:00;CYQR 192200Z 28004KT 15SM FEW021 BKN120 BKN280 06/01 A3002 RMK SC2AC4CI1 SLP191

CYQR;2009-10-19 23:00;CYQR 192300Z 25004KT 15SM FEW020 SCT097 BKN280 05/01 A3003 RMK SC2AC2CI3 SLP193

CYQR;2009-10-20 00:00;CYQR 200000Z 28004KT 15SM SCT027 BKN069 OVC280 04/01 A3004 RMK SC4AC1CI2 SLP200

CYQR;2009-10-20 01:00;CYQR 200100Z 31007KT 15SM SCT030 BKN280 02/00 A3004 RMK SC3CI3 SLP201

CYQR;2009-10-20 02:00;CYQR 200200Z 34007KT 15SM SCT120 OVC260 01/M00 A3005 RMK AC3CI3 SLP204

CYQR;2009-10-20 03:00;CYQR 200300Z 01007KT 15SM OVC240 01/M00 A3007 RMK CI6 SLP209

CYQR;2009-10-20 04:00;CYQR 200400Z 36007KT 15SM OVC240 01/M01 A3008 RMK CI6 SLP213

CYQR;2009-10-20 05:00;CYQR 200500Z 01004KT 15SM SCT120 OVC240 M00/M02 A3009 RMK AC3CI5 SLP217

CYQR;2009-10-20 06:00;CYQR 200600Z 07003KT 15SM BKN120 OVC240 M00/M02 A3010 RMK AC5CI3 SLP220

CYQR;2009-10-20 07:00;CYQR 200700Z 13005KT 15SM SCT035 OVC120 01/M01 A3010 RMK SC3AC5 SLP221

CYQR;2009-10-20 08:00;CYQR 200800Z 14008KT 15SM SCT037 OVC120 02/M01 A3011 RMK SC4AC4 SLP224

CYQR;2009-10-20 09:00;CYQR 200900Z 11006KT 15SM SCT044 OVC094 01/M02 A3011 RMK SC4AC4 SLP222

CYQR;2009-10-20 10:00;CYQR 201000Z 12005KT 15SM BKN037 OVC094 01/M01 A3013 RMK SC5AC3 SLP226

CYQR;2009-10-20 11:00;CYQR 201100Z 13004KT 15SM BKN030 OVC100 02/M01 A3014 RMK SC6AC2 SLP231

CYQR;2009-10-20 12:00;CYQR 201200Z 17003KT 15SM BKN034 OVC100 01/M01 A3015 RMK SC6AC2 SLP237

CYQR;2009-10-20 13:00;CYQR 201300Z 12004KT 15SM FEW030 OVC046 01/M01 A3016 RMK SC1SC8 SLP239

CYQR;2009-10-20 14:00;CYQR 201400Z 10002KT 15SM BKN037 OVC075 01/M01 A3017 RMK SC6AC2 SLP241

CYQR;2009-10-20 15:00;CYQR 201500Z 09002KT 15SM BKN044 BKN086 OVC300 02/M00 A3018 RMK SC5AC1CI2 SLP247

CYQR;2009-10-20 16:00;CYQR 201600Z 11004KT 15SM BKN044 BKN086 OVC300 04/M01 A3019 RMK SC5AC2CI1 SLP249

CYQR;2009-10-20 17:00;CYQR 201700Z 12004KT 15SM FEW045 SCT120 OVC300 05/M01 A3019 RMK SC1AC3CI2 SLP251

CYQR;2009-10-20 18:00;CYQR 201800Z 18004KT 15SM BKN033 BKN120 BKN300 06/M02 A3020 RMK CU6AC1CI1 SLP252

CYQR;2009-10-20 19:00;CYQR 201900Z 09005KT 15SM BKN033 OVC120 06/M02 A3020 RMK SC7AC1 SLP252

CYQR;2009-10-20 20:00;CYQR 202000Z 15003KT 15SM BKN035 OVC085 06/M03 A3020 RMK SC7AC1 SLP253

CYQR;2009-10-20 21:00;CYQR 202100Z 10005KT 15SM OVC035 06/M03 A3020 RMK SC8 SLP252

CYQR;2009-10-20 22:00;CYQR 202200Z 14005KT 15SM BKN035 06/M02 A3021 RMK SC7 SLP254

CYQR;2009-10-20 23:00;CYQR 202300Z 16003KT 15SM BKN035 06/M02 A3021 RMK SC7 SLP255

CYQR;2009-10-21 00:00;CYQR 210000Z 19004KT 15SM BKN035 05/M02 A3022 RMK SC7 SLP258

CYQR;2009-10-21 01:00;CYQR 210100Z 13004KT 15SM BKN037 04/M01 A3023 RMK SC7 SLP261

CYQR;2009-10-21 02:00;CYQR 210200Z 14003KT 15SM BKN037 04/M01 A3023 RMK SC7 SLP264

CYQR;2009-10-21 03:00;CYQR 210300Z 15005KT 15SM BKN037 02/M02 A3024 RMK SC5 SLP267

CYQR;2009-10-21 04:00;CYQR 210400Z 15004KT 15SM FEW040 M00/M03 A3023 RMK SC2 SLP266

CYQR;2009-10-21 05:00;CYQR 210500Z 16004KT 15SM SCT040 M02/M04 A3025 RMK SC3 SLP270

CYQR;2009-10-21 06:00;CYQR 210600Z 18006KT 15SM BKN040 00/M02 A3025 RMK SC5 SLP270

CYQR;2009-10-21 07:00;CYQR 210700Z 17005KT 15SM BKN039 M00/M03 A3025 RMK SC6 SLP269

CYQR;2009-10-21 08:00;CYQR 210800Z 18005KT 15SM BKN039 M00/M02 A3025 RMK SC7 SLP269

CYQR;2009-10-21 09:00;CYQR 210900Z 17006KT 15SM BKN039 00/M01 A3023 RMK SC7 SLP263

CYQR;2009-10-21 10:00;CYQR 211000Z 16007KT 15SM BKN039 01/M01 A3022 RMK SC7 SLP260

CYQR;2009-10-21 11:00;CYQR 211100Z 16006KT 15SM BKN020 OVC040 01/M01 A3023 RMK SC5SC3 SLP261

CYQR;2009-10-21 12:00;CYQR 211200Z 16006KT 15SM BKN022 OVC035 01/M01 A3022 RMK SC5SC3 SLP260

CYQR;2009-10-21 12:52;CYQR 211252Z 16006KT 12SM -RA OVC024 01/ RMK SC8

CYQR;2009-10-21 13:00;CYQR 211300Z 16007KT 12SM -RA OVC024 01/M00 A3022 RMK SC8 SLP259

CYQR;2009-10-21 13:42;CYQR 211342Z 16006KT 12SM VCSH BKN026 01/ RMK SC7

CYQR;2009-10-21 14:00;CYQR 211400Z 16006KT 10SM -SHRA OVC023 01/00 A3023 RMK SC8 SLP261

CYQR;2009-10-21 15:00;CYQR 211500Z 16007KT 15SM -SHRA BKN027 OVC040 02/01 A3023 RMK SC5SC3 SLP262

CYQR;2009-10-21 15:34;CYQR 211534Z 17007KT 15SM OVC031 02/ RMK SC8

CYQR;2009-10-21 16:00;CYQR 211600Z 18007KT 15SM VCSH BKN031 OVC100 03/01 A3023 RMK SC7AC1 SLP262

CYQR;2009-10-21 17:00;CYQR 211700Z 18007KT 15SM BKN039 BKN083 BKN150 05/02 A3021 RMK SC5AC1AC2 SLP257

CYQR;2009-10-21 18:00;CYQR 211800Z 20010G18KT 15SM FEW022 FEW044 SCT140 08/01 A3020 RMK CU1SC2AC1 SLP250

CYQR;2009-10-21 19:00;CYQR 211900Z 22006KT 15SM BKN034 08/M01 A3017 RMK CU5 SLP242

CYQR;2009-10-21 20:00;CYQR 212000Z 19011KT 15SM SCT039 09/M01 A3016 RMK CU4 SLP238

CYQR;2009-10-21 21:00;CYQR 212100Z 21013G18KT 15SM BKN043 09/M02 A3015 RMK SC5 SLP234

CYQR;2009-10-21 22:00;CYQR 212200Z 19011G17KT 15SM SCT043 08/M02 A3014 RMK SC3 SLP229

CYQR;2009-10-21 23:00;CYQR 212300Z 19011KT 15SM FEW045 07/M02 A3014 RMK SC2 SLP229

CYQR;2009-10-22 00:00;CYQR 220000Z 16010KT 15SM FEW045 FEW280 05/M02 A3013 RMK SC1CI0 SLP229

CYQR;2009-10-22 00:37;CYQR 220037Z 18009KT 15SM FEW040 FEW280 02/ RMK SC1CI0

CYQR;2009-10-22 01:00;CYQR 220100Z 17009KT 15SM FEW280 02/M02 A3014 RMK CI0 SLP230

CYQR;2009-10-22 02:00;CYQR 220200Z 16008KT 15SM FEW280 00/M03 A3013 RMK CI0 SLP229

CYQR;2009-10-22 03:00;CYQR 220300Z 16009KT 15SM SKC M00/M03 A3013 RMK SLP230

CYQR;2009-10-22 04:00;CYQR 220400Z 17008KT 15SM SKC M01/M04 A3012 RMK SLP228

CYQR;2009-10-22 05:00;CYQR 220500Z 16008KT 15SM FEW026 M00/M03 A3011 RMK SC2 SLP225

CYQR;2009-10-22 06:00;CYQR 220600Z 16010KT 15SM SCT026 01/M01 A3010 RMK SC4 SLP217

CYQR;2009-10-22 07:00;CYQR 220700Z 16011KT 15SM FEW028 01/M01 A3010 RMK SC1 SLP216

CYQR;2009-10-22 08:00;CYQR 220800Z 16011KT 15SM FEW025 01/M01 A3009 RMK SC2 SLP214

CYQR;2009-10-22 09:00;CYQR 220900Z 15012KT 15SM FEW025 02/M00 A3008 RMK SC2 SLP209

CYQR;2009-10-22 10:00;CYQR 221000Z 15012KT 15SM FEW030 01/M01 A3006 RMK SC2 SLP203

CYQR;2009-10-22 11:00;CYQR 221100Z 15010KT 15SM SKC 01/M01 A3005 RMK SLP198

CYQR;2009-10-22 12:00;CYQR 221200Z 14014KT 15SM FEW030 00/M01 A3003 RMK SC1 SLP194

CYQR;2009-10-22 13:00;CYQR 221300Z 14012G18KT 15SM FEW012 FEW030 BKN090 01/00 A3002 RMK SF1SC2AC6 SLP191

CYQR;2009-10-22 13:09;CYQR 221309Z 14010KT 15SM FEW005 FEW030 BKN110 02/ RMK SF1SC1AC6

CYQR;2009-10-22 13:40;CYQR 221340Z 15014KT 15SM BKN006 BKN110 02/ RMK SF2AC4

CYQR;2009-10-22 14:00;CYQR 221400Z 15014KT 15SM BKN007 OVC110 03/01 A3001 RMK SF5AC3 SLP189

CYQR;2009-10-22 14:46;CYQR 221446Z 16017G22KT 15SM SCT007 OVC110 03/ RMK SF4AC4

CYQR;2009-10-22 15:00;CYQR 221500Z 16015KT 15SM FEW008 OVC110 03/01 A3001 RMK SF2AC6 SLP189

CYQR;2009-10-22 16:00;CYQR 221600Z 16013KT 15SM -RA FEW008 FEW055 BKN079 OVC090 03/01 A3000 RMK SF1SC2AC4AC2 SLP187

CYQR;2009-10-22 17:00;CYQR 221700Z 15015KT 15SM -RA FEW043 OVC053 04/02 A3000 RMK SC2SC6 SLP187

CYQR;2009-10-22 18:00;CYQR 221800Z 16014KT 15SM FEW028 OVC049 06/03 A2999 RMK SC1SC7 SLP181

CYQR;2009-10-22 19:00;CYQR 221900Z 18021KT 12SM -RA FEW008 SCT016 OVC044 07/03 A2997 RMK SF1SC2SC5 SLP174

CYQR;2009-10-22 19:22;CYQR 221922Z 18017G27KT 12SM -RA BKN014 OVC030 06/ RMK SC6SC2

CYQR;2009-10-22 20:00;CYQR 222000Z 18015G20KT 12SM -RA BKN024 OVC110 06/04 A2995 RMK SC6AC2 CVCTV CLD EMBD SLP166

CYQR;2009-10-22 21:00;CYQR 222100Z 18015KT 12SM -RA SCT016 OVC042 06/05 A2994 RMK SC3SC5 SLP161

CYQR;2009-10-22 22:00;CYQR 222200Z 19017KT 15SM BKN010 OVC065 07/05 A2993 RMK SC5SC3 SLP158

CYQR;2009-10-22 23:00;CYQR 222300Z 19014KT 15SM SCT010 BKN062 OVC110 06/05 A2993 RMK SC3SC2AC2 SLP157

CYQR;2009-10-23 00:00;CYQR 230000Z 18010KT 15SM BKN072 OVC200 06/05 A2991 RMK AC5CI3 SLP154

CYQR;2009-10-23 01:00;CYQR 230100Z 18010KT 15SM FEW005 SCT042 OVC067 05/04 A2990 RMK SF1SC3AC5 SLP151

CYQR;2009-10-23 01:10;CYQR 230110Z 29004KT 15SM BKN009 OVC070 05/ RMK SF5AC3

CYQR;2009-10-23 01:47;CYQR 230147Z 30006KT 15SM SCT009 BKN021 OVC042 06/ RMK SF3SC2SC2

CYQR;2009-10-23 02:00;CYQR 230200Z 32006KT 15SM SCT009 OVC021 07/05 A2991 RMK SF3SC5 SLP153

CYQR;2009-10-23 03:00;CYQR 230300Z 27005KT 15SM FEW009 BKN044 02/01 A2991 RMK SF2SC4 SLP153

CYQR;2009-10-23 04:00;CYQR 230400Z 29007KT 15SM OVC029 05/03 A2992 RMK SC8 SLP156

CYQR;2009-10-23 05:00;CYQR 230500Z 28007KT 15SM BKN027 03/02 A2993 RMK SC6 SLP158

CYQR;2009-10-23 05:54;CYQR 230554Z 26007KT 15SM FEW030 BKN260 01/ RMK SC2CI1

CYQR;2009-10-23 06:00;CYQR 230600Z 26007KT 15SM FEW030 BKN260 01/M00 A2991 RMK SC2CI1 SLP152

CYQR;2009-10-23 07:00;CYQR 230700Z 26006KT 15SM BKN040 01/M00 A2990 RMK SC6 SLP150

CYQR;2009-10-23 08:00;CYQR 230800Z 27007KT 15SM BKN048 00/M01 A2989 RMK SC6 SLP147

CYQR;2009-10-23 09:00;CYQR 230900Z 27008KT 15SM BKN053 M00/M01 A2988 RMK SC6 SLP143

CYQR;2009-10-23 10:00;CYQR 231000Z 26007KT 15SM SCT050 M01/M02 A2987 RMK SC3 SLP138

CYQR;2009-10-23 11:00;CYQR 231100Z 26008KT 15SM SKC M01/M02 A2986 RMK SLP137

CYQR;2009-10-23 12:00;CYQR 231200Z 27007KT 15SM SKC M02/M03 A2985 RMK SLP135

CYQR;2009-10-23 13:00;CYQR 231300Z 27007KT 15SM FEW250 M03/M04 A2984 RMK CI0 FROIN SLP131

CYQR;2009-10-23 14:00;CYQR 231400Z 26004KT 15SM FEW010 FEW250 M03/M05 A2984 RMK SC1CI1 TR SC SLP131

CYQR;2009-10-23 15:00;CYQR 231500Z 31004KT 15SM FEW050 FEW250 M00/M01 A2984 RMK SC1CI1 SLP129

CYQR;2009-10-23 16:00;CYQR 231600Z 30007KT 15SM FEW250 03/01 A2983 RMK CI0 SLP127

CYQR;2009-10-23 17:00;CYQR 231700Z 34006KT 15SM FEW013 06/03 A2980 RMK CF1 SLP117

CYQR;2009-10-23 18:00;CYQR 231800Z 28006KT 15SM FEW013 07/03 A2979 RMK CF1 SLP108

CYQR;2009-10-23 19:00;CYQR 231900Z 29004KT 15SM FEW020 FEW160 FEW250 09/03 A2977 RMK CF1AC1CI1 SLP102

CYQR;2009-10-23 20:00;CYQR 232000Z 32004KT 15SM FEW025 FEW250 10/03 A2973 RMK CU1CI1 TR CU SLP090

CYQR;2009-10-23 21:00;CYQR 232100Z 28003KT 15SM FEW025 FEW140 FEW250 11/03 A2969 RMK CF1AC1CI1 SLP075

CYQR;2009-10-23 22:00;CYQR 232200Z 32002KT 15SM BKN250 11/02 A2968 RMK CI4 SLP071

CYQR;2009-10-23 23:00;CYQR 232300Z 36004KT 15SM FEW024 SCT250 10/02 A2967 RMK SC1CI2 SLP067

CYQR;2009-10-24 00:00;CYQR 240000Z 07003KT 15SM FEW150 BKN250 07/01 A2965 RMK AC2CI1 SLP065

CYQR;2009-10-24 01:00;CYQR 240100Z 07004KT 15SM FEW030 FEW160 BKN250 05/01 A2964 RMK SC1AC2CI1 SLP059

CYQR;2009-10-24 02:00;CYQR 240200Z 08005KT 15SM FEW025 FEW160 BKN250 04/01 A2962 RMK SC2AC1CI1 SLP055

CYQR;2009-10-24 03:00;CYQR 240300Z 09007KT 15SM FEW025 SCT160 BKN250 04/01 A2960 RMK SC2AC1CI2 SLP047

CYQR;2009-10-24 04:00;CYQR 240400Z 09005KT 15SM SCT030 OVC250 04/01 A2959 RMK SC3CI2 SLP046

CYQR;2009-10-24 05:00;CYQR 240500Z 11005KT 15SM FEW025 OVC250 04/01 A2958 RMK SC2CI4 SLP042

CYQR;2009-10-24 06:00;CYQR 240600Z 10009KT 15SM FEW020 SCT096 OVC250 04/02 A2957 RMK SC2AC2CI3 SLP032

CYQR;2009-10-24 07:00;CYQR 240700Z 10009KT 15SM FEW020 BKN070 OVC250 03/01 A2955 RMK SC2AC3CI2 SLP025

CYQR;2009-10-24 08:00;CYQR 240800Z 09005KT 15SM BKN048 OVC093 03/01 A2955 RMK SC6AC2 SLP026

CYQR;2009-10-24 09:00;CYQR 240900Z 10011KT 15SM OVC038 03/01 A2954 RMK SC8 SLP021

CYQR;2009-10-24 09:10;CYQR 240910Z 09008KT 15SM -SHRA OVC038 03/ RMK SC8

CYQR;2009-10-24 10:00;CYQR 241000Z 08006KT 15SM -SHRA OVC036 03/02 A2954 RMK SC8 SLP021

CYQR;2009-10-24 11:00;CYQR 241100Z 08008KT 15SM -SHRA SCT055 OVC092 03/02 A2954 RMK SC3AC5 SLP019

CYQR;2009-10-24 12:00;CYQR 241200Z 08006KT 15SM -SHRA SCT050 OVC088 03/01 A2955 RMK SC3AC5 SLP026

CYQR;2009-10-24 13:00;CYQR 241300Z 10007KT 15SM -SHRA BKN039 OVC084 02/01 A2955 RMK SC6AC2 SLP027

CYQR;2009-10-24 14:00;CYQR 241400Z 08008KT 15SM -RA FEW006 SCT041 OVC069 02/01 A2958 RMK SF2SC2AC4 SLP035

CYQR;2009-10-24 14:21;CYQR 241421Z 06008KT 10SM -SHRA BKN005 OVC077 02/ RMK SF6AC2

CYQR;2009-10-24 15:00;CYQR 241500Z 09003KT 10SM -SHRA BKN005 OVC047 02/01 A2961 RMK SF7SC1 SLP048

CYQR;2009-10-24 16:00;CYQR 241600Z 06005KT 15SM OVC007 03/02 A2962 RMK ST8 INTMT -RA SLP053

CYQR;2009-10-24 16:14;CYQR 241614Z 07003KT 15SM OVC007 03/ RMK ST8

CYQR;2009-10-24 17:00;CYQR 241700Z 01003KT 15SM OVC009 04/02 A2964 RMK SC8 SLP058

CYQR;2009-10-24 18:00;CYQR 241800Z 34005KT 15SM OVC012 04/02 A2965 RMK SC8 SLP063

CYQR;2009-10-24 19:00;CYQR 241900Z 34004KT 15SM OVC012 04/02 A2966 RMK SC8 SLP066

CYQR;2009-10-24 20:00;CYQR 242000Z 02004KT 15SM OVC014 05/01 A2967 RMK SC8 SLP069

CYQR;2009-10-24 21:00;CYQR 242100Z 30007KT 15SM OVC019 05/01 A2969 RMK SC8 SLP076

CYQR;2009-10-24 22:00;CYQR 242200Z 32007KT 15SM BKN018 OVC087 05/01 A2971 RMK SC6AC2 SLP082

CYQR;2009-10-24 23:00;CYQR 242300Z 30005KT 15SM FEW020 BKN062 OVC100 04/01 A2973 RMK SC1SC4AC3 SLP087

CYQR;2009-10-25 00:00;CYQR 250000Z 28005KT 15SM BKN050 BKN090 04/01 A2975 RMK SC6AC2 SLP099

CYQR;2009-10-25 00:47;CYQR 250047Z 28005KT 15SM -SHRA BKN038 OVC050 03/ RMK SC5SC3

CYQR;2009-10-25 01:00;CYQR 250100Z 29006KT 15SM -SHRA BKN038 OVC050 03/01 A2978 RMK SC6SC2 SLP106

CYQR;2009-10-25 01:50;CYQR 250150Z 00000KT 15SM BKN036 OVC090 03/ RMK SC6AC2

CYQR;2009-10-25 02:00;CYQR 250200Z 14003KT 15SM BKN036 BKN090 03/01 A2979 RMK SC5AC2 SLP109

CYQR;2009-10-25 02:46;CYQR 250246Z 18003KT 15SM -SHRA BKN035 OVC085 03/ RMK SC6AC2

CYQR;2009-10-25 03:00;CYQR 250300Z 18004KT 15SM -SHRA BKN035 OVC085 03/01 A2979 RMK SC6AC2 SLP110

CYQR;2009-10-25 04:00;CYQR 250400Z 20003KT 15SM -SHRA BKN030 OVC075 03/02 A2980 RMK SC6AC2 SLP114

CYQR;2009-10-25 05:00;CYQR 250500Z 20005KT 15SM -SHRA OVC025 03/02 A2981 RMK SC8 SLP117

CYQR;2009-10-25 05:38;CYQR 250538Z 22006KT 15SM BKN025 OVC085 03/ RMK SC6AC2

CYQR;2009-10-25 06:00;CYQR 250600Z 25006KT 15SM BKN038 OVC080 03/02 A2982 RMK SC6AC2 SLP122

CYQR;2009-10-25 07:00;CYQR 250700Z 33010KT 15SM OVC053 03/02 A2983 RMK SC8 SLP124

CYQR;2009-10-25 08:00;CYQR 250800Z 31013KT 15SM OVC057 04/02 A2985 RMK SC8 SLP130

CYQR;2009-10-25 09:00;CYQR 250900Z 29009G15KT 15SM OVC057 04/02 A2987 RMK SC8 SLP136

CYQR;2009-10-25 10:00;CYQR 251000Z 28009KT 15SM SCT022 BKN057 03/02 A2988 RMK SC3SC3 SLP139

CYQR;2009-10-25 11:00;CYQR 251100Z 28008KT 15SM BKN028 OVC063 03/01 A2989 RMK SC6SC2 SLP143

CYQR;2009-10-25 12:00;CYQR 251200Z 29011KT 15SM SCT015 OVC028 03/02 A2990 RMK SC4SC4 SLP150

CYQR;2009-10-25 13:00;CYQR 251300Z 29009KT 15SM BKN013 OVC062 03/02 A2992 RMK SC5SC3 SLP156

CYQR;2009-10-25 13:37;CYQR 251337Z 30011KT 15SM OVC016 03/ RMK SC8

CYQR;2009-10-25 14:00;CYQR 251400Z 30010KT 15SM BKN016 03/01 A2994 RMK SC7 SLP162

CYQR;2009-10-25 14:42;CYQR 251442Z 29013KT 15SM -SHRA OVC013 03/ RMK SC8

CYQR;2009-10-25 15:00;CYQR 251500Z 30012KT 15SM BKN013 03/02 A2996 RMK SC7 SLP169

CYQR;2009-10-25 16:00;CYQR 251600Z 30012KT 15SM OVC010 04/02 A2998 RMK SC8 SLP175

CYQR;2009-10-25 17:00;CYQR 251700Z 31014KT 15SM OVC015 04/02 A2999 RMK SC8 SLP181

CYQR;2009-10-25 18:00;CYQR 251800Z 31014KT 15SM BKN015 OVC050 04/01 A3001 RMK SC7SC1 SLP186

CYQR;2009-10-25 19:00;CYQR 251900Z 32012KT 15SM BKN011 OVC050 04/02 A3002 RMK SC6SC2 SLP189

CYQR;2009-10-25 19:56;CYQR 251956Z 30017KT 15SM BKN019 OVC051 05/ RMK SC7SC1

CYQR;2009-10-25 20:00;CYQR 252000Z 30013G19KT 15SM BKN019 BKN051 05/01 A3002 RMK SC7SC1 SLP189

CYQR;2009-10-25 21:00;CYQR 252100Z 30015KT 15SM BKN019 BKN054 04/00 A3003 RMK SC7SC1 SLP193

CYQR;2009-10-25 22:00;CYQR 252200Z 30013G18KT 15SM BKN021 BKN042 05/00 A3004 RMK SC6SC1 SLP196

CYQR;2009-10-25 23:00;CYQR 252300Z 31008KT 15SM BKN025 05/01 A3005 RMK SC7 SLP199

CYQR;2009-10-26 00:00;CYQR 260000Z 28005KT 15SM SCT036 04/01 A3004 RMK SC4 SLP198

CYQR;2009-10-26 01:00;CYQR 260100Z 28004KT 15SM SCT040 01/M01 A3004 RMK SC4 SLP197

CYQR;2009-10-26 02:00;CYQR 260200Z 22005KT 15SM FEW040 M01/M03 A3004 RMK SC2 SLP196

CYQR;2009-10-26 03:00;CYQR 260300Z 23007KT 15SM FEW040 M04/M06 A3005 RMK SC1 SLP206

CYQR;2009-10-26 04:00;CYQR 260400Z 23005KT 15SM FEW250 M05/M07 A3003 RMK CI0 SLP199

CYQR;2009-10-26 05:00;CYQR 260500Z 23007KT 15SM FEW250 M05/M07 A3002 RMK CI0 SLP197

CYQR;2009-10-26 06:00;CYQR 260600Z 23007KT 15SM FEW250 M05/M07 A3000 RMK CI0 SLP189

CYQR;2009-10-26 07:00;CYQR 260700Z 19006KT 15SM FEW250 M05/M07 A2998 RMK CI0 SLP180

CYQR;2009-10-26 08:00;CYQR 260800Z 16006KT 15SM FEW250 M05/M07 A2994 RMK CI0 SLP170

CYQR;2009-10-26 09:00;CYQR 260900Z 15007KT 15SM FEW250 M05/M07 A2993 RMK CI0 SLP163

CYQR;2009-10-26 10:00;CYQR 261000Z 15009KT 15SM FEW250 M03/M06 A2988 RMK CI0 SLP147

CYQR;2009-10-26 11:00;CYQR 261100Z 15009KT 15SM FEW250 M04/M06 A2985 RMK CI0 SLP137

CYQR;2009-10-26 12:00;CYQR 261200Z 15010G16KT 15SM FEW160 BKN250 M02/M06 A2981 RMK AC2CI3 SLP121

CYQR;2009-10-26 13:00;CYQR 261300Z 15011KT 15SM BKN120 BKN250 M02/M05 A2978 RMK AC6CI2 SLP110

CYQR;2009-10-26 14:00;CYQR 261400Z 16011KT 15SM BKN093 BKN250 M01/M04 A2975 RMK AC5CI1 SLP101

CYQR;2009-10-26 15:00;CYQR 261500Z 16012KT 15SM BKN093 OVC250 00/M03 A2969 RMK AC6CI2 PRESFR SLP085

CYQR;2009-10-26 16:00;CYQR 261600Z 16013KT 15SM BKN091 BKN250 01/M02 A2967 RMK AC6CI1 SLP078

CYQR;2009-10-26 17:00;CYQR 261700Z 16014G19KT 15SM BKN091 BKN250 03/M01 A2963 RMK AC7CI1 SLP065

CYQR;2009-10-26 18:00;CYQR 261800Z 17011G16KT 15SM BKN093 BKN250 04/M01 A2960 RMK AC6CI1 SLP050

CYQR;2009-10-26 19:00;CYQR 261900Z 17013KT 15SM BKN081 BKN250 06/M01 A2955 RMK AC6CI1 SLP035

CYQR;2009-10-26 20:00;CYQR 262000Z 21016KT 15SM FEW077 FEW120 BKN270 10/M01 A2951 RMK AC1AC1CI2 SLP023

CYQR;2009-10-26 21:00;CYQR 262100Z 21015KT 15SM FEW077 FEW120 BKN270 12/M00 A2947 RMK AC1AC1CI2 PRESFR SLP001

CYQR;2009-10-26 22:00;CYQR 262200Z 25014KT 15SM FEW095 BKN270 12/M01 A2947 RMK AC2CI2 SLP999

CYQR;2009-10-26 23:00;CYQR 262300Z 23007KT 15SM SCT086 BKN270 11/M01 A2944 RMK AC4CI2 SLP990

CYQR;2009-10-27 00:00;CYQR 270000Z 19006KT 15SM FEW090 BKN270 07/M01 A2942 RMK AC2CI2 SLP986

CYQR;2009-10-27 01:00;CYQR 270100Z 18009KT 15SM FEW030 SCT090 OVC250 07/M00 A2940 RMK SC2AC2CI4 SLP978

CYQR;2009-10-27 02:00;CYQR 270200Z 17006KT 15SM FEW030 BKN090 OVC250 06/00 A2937 RMK SC2AC3CI3 SLP970

CYQR;2009-10-27 03:00;CYQR 270300Z 19007KT 15SM FEW030 BKN076 OVC250 06/01 A2936 RMK SC2AC5CI2 SLP962

CYQR;2009-10-27 04:00;CYQR 270400Z 25005KT 15SM OVC050 08/01 A2934 RMK SC8 SLP958

CYQR;2009-10-27 04:40;CYQR 270440Z 21014KT 15SM -SHRA OVC038 08/ RMK SC8

CYQR;2009-10-27 05:00;CYQR 270500Z 21010G16KT 15SM -SHRA OVC038 08/03 A2934 RMK SC8 SLP958

CYQR;2009-10-27 06:00;CYQR 270600Z 17003KT 12SM -SHRA OVC038 07/05 A2933 RMK SC8 SLP948

CYQR;2009-10-27 07:00;CYQR 270700Z 14004KT 10SM -SHRA OVC034 06/05 A2931 RMK SC8 SLP944

CYQR;2009-10-27 08:00;CYQR 270800Z 10006KT 8SM -SHRA OVC022 06/06 A2929 RMK SC8 SLP937

CYQR;2009-10-27 08:47;CYQR 270847Z 10005KT 6SM -RA BR BKN003 OVC019 06/ RMK SF6SC2

CYQR;2009-10-27 09:00;CYQR 270900Z 10005KT 6SM -RA BR BKN003 OVC019 06/05 A2929 RMK SF6SC2 SLP930

CYQR;2009-10-27 10:00;CYQR 271000Z 09008KT 6SM -RA BR BKN002 OVC009 06/05 A2926 RMK SF6SC2 SLP923

CYQR;2009-10-27 10:40;CYQR 271040Z 07008KT 5SM -RA BR OVC003 06/ RMK SC8

CYQR;2009-10-27 11:00;CYQR 271100Z 07009KT 5SM -RA BR OVC003 06/05 A2925 RMK SC8 SLP918

CYQR;2009-10-27 11:11;CYQR 271111Z 06006KT 6SM -RA BR OVC004 06/ RMK SC8

CYQR;2009-10-27 11:44;CYQR 271144Z 09008KT 6SM -RA BR OVC007 06/ RMK SC8

CYQR;2009-10-27 11:52;CYQR 271152Z 09007KT 5SM -RA BR OVC004 06/ RMK SC8

CYQR;2009-10-27 12:00;CYQR 271200Z 08007KT 5SM -RA BR OVC004 06/05 A2925 RMK SC8 SLP923

CYQR;2009-10-27 12:27;CYQR 271227Z 07006KT 6SM -RA BR OVC006 06/ RMK SC8

CYQR;2009-10-27 13:00;CYQR 271300Z 06008KT 6SM -RA BR OVC005 06/05 A2925 RMK SC8 SLP923

CYQR;2009-10-27 13:45;CYQR 271345Z 05009KT 5SM -RA BR OVC006 06/ RMK SC8

CYQR;2009-10-27 14:00;CYQR 271400Z 05009KT 6SM -RA BR OVC003 06/05 A2925 RMK SC8 CIG RAG SLP923

CYQR;2009-10-27 14:27;CYQR 271427Z 03009KT 6SM -RA BR OVC004 05/ RMK SC8 CIG RAG

CYQR;2009-10-27 15:00;CYQR 271500Z 01008KT 3SM -RA BR BKN005 OVC040 05/04 A2929 RMK SF7SC1 CIG RAG SLP934

CYQR;2009-10-27 16:00;CYQR 271600Z 01014KT 4SM -RA BR OVC008 05/04 A2929 RMK SF8 CIG RAG SLP936

CYQR;2009-10-27 16:19;CYQR 271619Z 02013G18KT 10SM -RA FEW008 OVC014 05/ RMK SF2SC6

CYQR;2009-10-27 16:49;CYQR 271649Z 36013G18KT 12SM -RA BKN008 OVC014 05/ RMK SF7SC1 CIG RAG

CYQR;2009-10-27 17:00;CYQR 271700Z 36013KT 10SM -RA BKN007 OVC014 05/04 A2932 RMK SF7SC1 CIG RAG SLP946

CYQR;2009-10-27 17:25;CYQR 271725Z 36015G20KT 12SM BKN005 OVC019 05/ RMK SF7SC1 CIG RAG

CYQR;2009-10-27 18:00;CYQR 271800Z 36017G22KT 15SM BKN006 OVC024 05/04 A2933 RMK SC7SC1 SLP949

CYQR;2009-10-27 18:35;CYQR 271835Z 35015KT 15SM BKN009 OVC024 04/ RMK SC7SC1

CYQR;2009-10-27 19:00;CYQR 271900Z 34015KT 15SM BKN006 OVC024 04/03 A2937 RMK SC6SC2 SLP961

CYQR;2009-10-27 19:54;CYQR 271954Z CCA 36013G18KT 15SM BKN005 OVC024 03/ RMK SC6SC2

CYQR;2009-10-27 20:00;CYQR 272000Z 36014G20KT 15SM BKN005 OVC024 03/02 A2939 RMK SC6SC2 SLP967

CYQR;2009-10-27 20:12;CYQR 272012Z 35013KT 10SM -RA BKN006 OVC024 03/ RMK SC7SC1 CIG RAG

CYQR;2009-10-27 20:45;CYQR 272045Z 35015KT 5SM -RA BR BKN005 OVC024 03/ RMK SC7SC1 VIS S-NW 3

CYQR;2009-10-27 21:00;CYQR 272100Z 34014G19KT 4SM -RA BR BKN005 OVC024 02/01 A2941 RMK SC7SC1 SLP980

CYQR;2009-10-27 21:28;CYQR 272128Z 34016KT 11SM -RA BKN004 OVC025 02/ RMK SC7SC1

CYQR;2009-10-27 22:00;CYQR 272200Z 34016KT 4SM -RA BR OVC005 02/01 A2944 RMK SC8 CIG RAG SLP989

CYQR;2009-10-27 22:14;CYQR 272214Z 34016KT 10SM -RASN BKN005 OVC023 02/ RMK SC7SC1

CYQR;2009-10-27 23:00;CYQR 272300Z 34013G18KT 8SM -RASN BKN005 OVC025 01/01 A2947 RMK SC7SC1 SLP998

CYQR;2009-10-27 23:14;CYQR 272314Z 35015KT 4SM -RASN BR BKN003 OVC025 01/ RMK SC7SC1 CIG RAG

CYQR;2009-10-28 00:00;CYQR 280000Z 34014KT 3SM -RASN BR OVC004 01/00 A2950 RMK SC8 CIG VRB 3-5 SLP010

CYQR;2009-10-28 00:29;CYQR 280029Z 34014G19KT 10SM -SN OVC003 01/ RMK SC8

CYQR;2009-10-28 01:00;CYQR 280100Z 35015KT 8SM -SN OVC004 01/00 A2953 RMK SC8 SLP019

CYQR;2009-10-28 01:41;CYQR 280141Z 36018KT 12SM -SN BKN004 OVC042 01/ RMK SF7SC1 CIG VRB 3-5

CYQR;2009-10-28 02:00;CYQR 280200Z 36015G20KT 12SM -SN OVC004 OVC042 01/00 A2954 RMK SF7SC1 CIG VRB 3-5 SLP022

CYQR;2009-10-28 02:25;CYQR 280225Z 35016KT 15SM OVC004 01/ RMK SF8 CIG VRB 3-5

CYQR;2009-10-28 02:45;CYQR 280245Z 35018KT 12SM -DZ OVC004 01/ RMK SF8

CYQR;2009-10-28 03:00;CYQR 280300Z 34016KT 12SM -SN OVC004 01/00 A2956 RMK SF8 SLP032

CYQR;2009-10-28 04:00;CYQR 280400Z 36014KT 10SM -SN OVC004 01/00 A2958 RMK SF8 SLP038

CYQR;2009-10-28 05:00;CYQR 280500Z 36014G20KT 7SM -DZ OVC005 01/01 A2959 RMK SF8 SLP040

CYQR;2009-10-28 06:00;CYQR 280600Z 36014KT 12SM -DZ OVC005 02/01 A2959 RMK SF8 SLP042

CYQR;2009-10-28 06:24;CYQR 280624Z 36013G22KT 15SM -DZ OVC006 02/ RMK SF8

CYQR;2009-10-28 06:43;CYQR 280643Z 36013G21KT 15SM OVC007 02/ RMK SF8

CYQR;2009-10-28 07:00;CYQR 280700Z 36016KT 15SM OVC006 02/01 A2961 RMK SF8 SLP049

CYQR;2009-10-28 07:37;CYQR 280737Z 35013KT 12SM -DZ OVC006 01/ RMK SF8

CYQR;2009-10-28 08:00;CYQR 280800Z 34014KT 3SM -DZ BR OVC006 01/01 A2965 RMK SF8 SLP062

CYQR;2009-10-28 08:17;CYQR 280817Z 34013KT 3SM -SN OVC005 01/ RMK SF8

CYQR;2009-10-28 09:00;CYQR 280900Z 36013KT 5SM -SN OVC004 01/M00 A2966 RMK SF8 SLP069

CYQR;2009-10-28 10:00;CYQR 281000Z 35013KT 2 1/2SM -SN OVC004 00/M00 A2966 RMK SF8 SLP070

CYQR;2009-10-28 11:00;CYQR 281100Z 34013KT 2SM -SN OVC004 00/M00 A2969 RMK SC8 SLP078

CYQR;2009-10-28 12:00;CYQR 281200Z 34014KT 3SM -SN OVC004 00/M00 A2971 RMK SF8 SLP086

CYQR;2009-10-28 12:41;CYQR 281241Z 34014KT 5SM -SN OVC005 00/ RMK SF8 CIG RAG

CYQR;2009-10-28 12:52;CYQR 281252Z 34014KT 3SM -SN OVC004 00/ RMK SF8 CIG VRB 3-5 VIS VRB 2-4

CYQR;2009-10-28 13:00;CYQR 281300Z 34015KT 2 1/2SM -SN OVC004 00/M00 A2972 RMK SN2ST6 CIG VRB 3-5 VIS VRB 2-4 SLP091

CYQR;2009-10-28 13:22;CYQR 281322Z 34014KT 1 1/2SM -SN OVC004 00/ RMK SN2SF6 VIS VRB 1-2

CYQR;2009-10-28 13:50;CYQR 281350Z 34014KT 3/4SM R13/P6000FT/N -SN OVC004 00/ RMK SN2ST6

CYQR;2009-10-28 14:00;CYQR 281400Z 34014KT 3/4SM R13/P6000FT/D -SN OVC004 00/M00 A2974 RMK SN2ST6 SLP098

CYQR;2009-10-28 14:24;CYQR 281424Z 34013KT 1SM R13/P6000FT/N -SN OVC005 00/ RMK SN2ST6

CYQR;2009-10-28 15:00;CYQR 281500Z 34014KT 1 1/4SM -SN OVC004 00/M00 A2976 RMK SN2ST6 VIS VRB 1-11/2 SLP103

CYQR;2009-10-28 16:00;CYQR 281600Z 34013KT 1 1/4SM -SN OVC004 00/M00 A2978 RMK SN2SC6 VIS VRBL 1-11/2 SLP109

CYQR;2009-10-28 16:35;CYQR 281635Z 34013KT 2SM -SN OVC005 00/ RMK SN2SC6 VIS VRB 11/2-21/2

CYQR;2009-10-28 16:46;CYQR 281646Z 34012KT 2SM -SN OVC004 00/ RMK SN2SC6 VIS VRB 11/2-21/2

CYQR;2009-10-28 17:00;CYQR 281700Z 34013KT 2SM -SN BR OVC004 01/00 A2980 RMK SF8 CIG RAG VIS VRB 11/2-21/2 SLP117

CYQR;2009-10-28 18:00;CYQR 281800Z 34015KT 2 1/2SM -SN BR OVC004 01/00 A2981 RMK ST8 VIS VRB 2-3 SLP120

CYQR;2009-10-28 19:00;CYQR 281900Z 34014KT 3SM -SN BR OVC005 01/00 A2982 RMK ST8 CIG RAG SLP123

CYQR;2009-10-28 19:37;CYQR 281937Z 34014G22KT 10SM -SN OVC007 01/ RMK SC8

CYQR;2009-10-28 20:00;CYQR 282000Z 34014KT 10SM -SN OVC007 01/00 A2983 RMK SC8 SLP127

CYQR;2009-10-28 21:00;CYQR 282100Z 34016KT 8SM -SN OVC008 01/00 A2984 RMK SC8 SLP129

CYQR;2009-10-28 22:00;CYQR 282200Z 34015KT 6SM -SN BKN007 OVC071 02/01 A2986 RMK SC5AC2 SLP138

CYQR;2009-10-28 22:35;CYQR 282235Z 34015G20KT 10SM -RA BKN010 BKN026 OVC071 01/ RMK SC5SC2AC1

CYQR;2009-10-28 22:40;CYQR 282240Z 35014G19KT 10SM -RASN BKN008 BKN026 OVC071 01/ RMK SC5SC2AC1

CYQR;2009-10-28 23:00;CYQR 282300Z 34014KT 10SM -RASN BKN008 BKN039 OVC071 01/M00 A2989 RMK SC5SC2AC1 SLP146

CYQR;2009-10-28 23:14;CYQR 282314Z 35011KT 10SM -SN BKN008 BKN039 OVC075 01/ RMK SC5SC1AC2

CYQR;2009-10-29 00:00;CYQR 290000Z 34011KT 8SM -SN BKN006 BKN053 OVC075 01/M00 A2991 RMK SC5SC1AC2 CIG VRB 5-7 SLP155

CYQR;2009-10-29 01:00;CYQR 290100Z 34009KT 2 1/2SM -SN FEW004 BKN012 OVC080 00/M00 A2992 RMK SF2SC3AC1 SLP159

CYQR;2009-10-29 01:27;CYQR 290127Z 33008KT 4SM -SN FEW003 SCT012 OVC068 00/ RMK SF2SC1AC2

CYQR;2009-10-29 01:49;CYQR 290149Z 32009KT 4SM -SN BKN003 OVC049 00/ RMK SF5SC2

CYQR;2009-10-29 02:00;CYQR 290200Z 32009KT 4SM -SN BKN004 BKN022 OVC049 00/M00 A2994 RMK SF6SC1SC2 SLP164

CYQR;2009-10-29 03:00;CYQR 290300Z 34010KT 15SM OVC006 OVC041 00/M00 A2995 RMK SF7SC1 SLP169

CYQR;2009-10-29 03:44;CYQR 290344Z 34006KT 15SM OVC011 00/ RMK SC8

CYQR;2009-10-29 04:00;CYQR 290400Z 32007KT 15SM OVC011 00/M00 A2996 RMK SC8 SLP173

CYQR;2009-10-29 04:14;CYQR 290414Z 31006KT 15SM BKN007 OVC017 00/ RMK SF5SC3

CYQR;2009-10-29 05:00;CYQR 290500Z 32007KT 15SM BKN005 BKN012 OVC054 00/M00 A2998 RMK SF6SC2SC1 SLP179

CYQR;2009-10-29 05:19;CYQR 290519Z 32005KT 15SM OVC004 OVC054 00/ RMK SF6SC2

CYQR;2009-10-29 05:27;CYQR 290527Z 32004KT 15SM OVC003 OVC057 01/ RMK SF7SC1

CYQR;2009-10-29 05:46;CYQR 290546Z 32005KT 15SM -SN FEW003 BKN009 OVC014 00/ RMK SF2SC4SC2

CYQR;2009-10-29 06:00;CYQR 290600Z 32005KT 15SM -SN FEW003 BKN009 OVC053 01/M00 A2999 RMK SF2SC5SC2 SLP184

CYQR;2009-10-29 07:00;CYQR 290700Z 32005KT 15SM -SN BKN007 OVC055 00/M00 A2998 RMK SF6SC2 SLP181

CYQR;2009-10-29 07:17;CYQR 290717Z 33005KT 15SM -SN BKN004 OVC068 00/ RMK SF7AC1

CYQR;2009-10-29 08:00;CYQR 290800Z 33007KT 15SM -SN BKN004 OVC021 00/M00 A2996 RMK SF7SC1 SLP174

CYQR;2009-10-29 08:46;CYQR 290846Z 32005KT 15SM BKN004 OVC021 00/ RMK SF6SC2 CIG VRB 3-5

CYQR;2009-10-29 09:00;CYQR 290900Z 32007KT 14SM SCT006 BKN009 OVC021 00/M00 A2999 RMK SF3SC3SC2 SLP181

CYQR;2009-10-29 09:33;CYQR 290933Z 31008KT 15SM -SHSN SCT006 OVC021 00/ RMK SF4SC4

CYQR;2009-10-29 10:00;CYQR 291000Z 31008KT 15SM -SHSN FEW003 BKN006 OVC019 00/M00 A2999 RMK SF1SF4SC3 SLP184

CYQR;2009-10-29 10:26;CYQR 291026Z 32007KT 15SM BKN004 OVC019 01/ RMK SF6SC2

CYQR;2009-10-29 10:48;CYQR 291048Z 32007KT 15SM FEW003 SCT006 OVC026 01/ RMK SF1SF3SC4

CYQR;2009-10-29 11:00;CYQR 291100Z 33006KT 15SM FEW003 SCT006 OVC026 01/M00 A3001 RMK SF1SF3SC4 SLP189

CYQR;2009-10-29 12:00;CYQR 291200Z 31005KT 15SM BKN028 M00/M01 A3002 RMK SC7 SLP195

CYQR;2009-10-29 12:19;CYQR 291219Z 30005KT 15SM FEW007 BKN031 M00/ RMK SF2SC6

CYQR;2009-10-29 13:00;CYQR 291300Z 30007KT 15SM FEW008 SCT036 M01/M02 A3001 RMK SF1SC2 SLP190

CYQR;2009-10-29 13:26;CYQR 291326Z 30007KT 15SM BKN009 BKN032 M01/ RMK SF5SC2

CYQR;2009-10-29 13:44;CYQR 291344Z 30004KT 15SM SCT009 BKN032 M00/ RMK SF2SC5

CYQR;2009-10-29 14:00;CYQR 291400Z 28004KT 15SM FEW009 BKN032 M01/M01 A3003 RMK SF2SC6 SLP196

CYQR;2009-10-29 15:00;CYQR 291500Z 30004KT 15SM FEW009 BKN030 M00/M01 A3001 RMK SF1SC7 SLP192

CYQR;2009-10-29 16:00;CYQR 291600Z 32006KT 15SM FEW008 BKN026 00/M02 A3002 RMK CU2SC6 SLP194

CYQR;2009-10-29 17:00;CYQR 291700Z 31009KT 15SM FEW016 BKN021 BKN056 01/M03 A2999 RMK CU2SC5SC1 SLP185

CYQR;2009-10-29 18:00;CYQR 291800Z 27004KT 15SM OVC019 01/M04 A2999 RMK SC8 CVCTV CLD EMBD SLP183

CYQR;2009-10-29 19:00;CYQR 291900Z 35006KT 15SM OVC021 02/M02 A2997 RMK SC8 CU EMBD SLP178

CYQR;2009-10-29 20:00;CYQR 292000Z 30005KT 15SM OVC021 02/M03 A2995 RMK SC8 CU EMBD SLP170

CYQR;2009-10-29 21:00;CYQR 292100Z 30003KT 15SM BKN025 02/M03 A2993 RMK SC7 CU EMBD SLP163

CYQR;2009-10-29 22:00;CYQR 292200Z 23003KT 15SM BKN023 BKN060 02/M03 A2991 RMK SC6SC1 SLP156

CYQR;2009-10-29 23:00;CYQR 292300Z 14002KT 15SM FEW022 BKN031 BKN082 02/M03 A2987 RMK CU2SC5AC1 SLP142

CYQR;2009-10-30 00:00;CYQR 300000Z 11002KT 15SM BKN031 BKN076 01/M04 A2984 RMK SC6AC1 SLP133

CYQR;2009-10-30 01:00;CYQR 300100Z 22003KT 15SM BKN035 OVC092 01/M02 A2985 RMK SC6AC1 SLP136

CYQR;2009-10-30 02:00;CYQR 300200Z 18006KT 15SM OVC028 00/M02 A2982 RMK SC8 SLP125

CYQR;2009-10-30 03:00;CYQR 300300Z 17008KT 15SM OVC032 00/M03 A2979 RMK SC8 SLP114

CYQR;2009-10-30 04:00;CYQR 300400Z 16008KT 15SM BKN036 M00/M03 A2975 RMK SC7 SLP104

CYQR;2009-10-30 05:00;CYQR 300500Z 15009KT 15SM FEW040 OVC120 M01/M03 A2972 RMK SC1AC6 SLP093

CYQR;2009-10-30 06:00;CYQR 300600Z 16009KT 15SM FEW042 SCT079 OVC120 M01/M03 A2969 RMK SC2AC2AC4 SLP082

CYQR;2009-10-30 07:00;CYQR 300700Z 16009KT 15SM SCT092 OVC120 M01/M03 A2965 RMK AC3AC5 SLP068

CYQR;2009-10-30 08:00;CYQR 300800Z 16009KT 15SM SCT095 OVC120 M01/M03 A2962 RMK AC3AC4 SLP060

CYQR;2009-10-30 09:00;CYQR 300900Z 15009KT 15SM BKN039 OVC069 M01/M03 A2959 RMK SC6AC2 SLP047

CYQR;2009-10-30 10:00;CYQR 301000Z 14009KT 15SM OVC037 M01/M03 A2956 RMK SC8 SLP038

CYQR;2009-10-30 10:16;CYQR 301016Z 15010KT 15SM -SN OVC030 M01/ RMK SC8

CYQR;2009-10-30 11:00;CYQR 301100Z 13008KT 2 1/2SM -SN OVC024 M01/M03 A2956 RMK SC8 SLP037

CYQR;2009-10-30 11:18;CYQR 301118Z 13006KT 1 1/2SM -SN VV013 M01/ RMK SN8

CYQR;2009-10-30 11:25;CYQR 301125Z 14006KT 1SM R13/P6000FT/D -SN VV013 M01/ RMK SN8

CYQR;2009-10-30 11:40;CYQR 301140Z 14008KT 1SM R13/P6000FT/U -SN VV008 M01/ RMK SN8

CYQR;2009-10-30 12:00;CYQR 301200Z CCA 14008KT 1SM R13/P6000FT/U -SN VV005 M01/M02 A2955 RMK SN8 /S01/ SLP034

CYQR;2009-10-30 12:37;CYQR 301237Z 14009KT 1 1/2SM -SN VV009 M02/ RMK SN8

CYQR;2009-10-30 12:52;CYQR 301252Z 14009KT 2SM -SN OVC009 M01/ RMK SN5SC3

CYQR;2009-10-30 13:00;CYQR 301300Z 14010KT 2SM -SN OVC009 M01/M03 A2953 RMK SN5SC3 SLP027

CYQR;2009-10-30 13:40;CYQR 301340Z 13010KT 2 1/2SM -SN SCT005 BKN012 OVC079 M02/ RMK SN2SF2SC2AC2 VIS VRB 2-3

CYQR;2009-10-30 14:00;CYQR 301400Z 13009KT 4SM -SN BKN004 BKN019 OVC075 M02/M03 A2951 RMK SF5SC2AC1 SLP021

CYQR;2009-10-30 14:32;CYQR 301432Z 13009KT 2SM -SN BKN004 OVC046 M02/ RMK SF6SC2

CYQR;2009-10-30 14:47;CYQR 301447Z 13007KT 3SM -SN SCT004 OVC046 M01/ RMK SF3SC5

CYQR;2009-10-30 15:00;CYQR 301500Z 12006KT 3SM -SN SCT005 OVC046 M01/M02 A2953 RMK SF3SC5 SLP026

CYQR;2009-10-30 15:20;CYQR 301520Z 12005KT 4SM -SN SCT005 BKN014 OVC046 M01/ RMK SF3SC3SC2

CYQR;2009-10-30 16:00;CYQR 301600Z 08004KT 5SM -SN SCT011 OVC037 M01/M02 A2954 RMK SF4SF4 SLP031

CYQR;2009-10-30 16:25;CYQR 301625Z 08004KT 10SM -SN BKN005 BKN010 OVC033 M01/ RMK SF5SC2SC1

CYQR;2009-10-30 17:00;CYQR 301700Z 08003KT 12SM -SN SCT005 OVC014 M00/M02 A2955 RMK SF3SC5 SLP034

CYQR;2009-10-30 17:37;CYQR 301737Z 00000KT 15SM -SN FEW012 SCT031 OVC055 M00/ RMK SC2SC2SC5

CYQR;2009-10-30 18:00;CYQR 301800Z 32004KT 10SM -SN BKN017 OVC052 M00/M01 A2957 RMK SC6SC2 SLP039

CYQR;2009-10-30 19:00;CYQR 301900Z 34008KT 10SM -SN BKN016 OVC055 01/M01 A2959 RMK SC6SC2 -SN INTMT SLP046

CYQR;2009-10-30 19:10;CYQR 301910Z 34011KT 12SM -SN SCT007 OVC016 01/ RMK SF3SC5

CYQR;2009-10-30 19:17;CYQR 301917Z 34011KT 15SM BKN007 OVC016 01/ RMK SF6SC2

CYQR;2009-10-30 20:00;CYQR 302000Z 34011KT 15SM OVC008 01/M01 A2960 RMK SC8 SLP049

CYQR;2009-10-30 20:32;CYQR 302032Z 34009KT 15SM BKN011 01/ RMK SC7

CYQR;2009-10-30 21:00;CYQR 302100Z 35011KT 15SM OVC013 01/M02 A2962 RMK SC8 CU EMBD SLP058

CYQR;2009-10-30 22:00;CYQR 302200Z 34012KT 15SM OVC018 01/M01 A2965 RMK SC8 SLP066

CYQR;2009-10-30 23:00;CYQR 302300Z 35013KT 15SM OVC016 01/M02 A2966 RMK SC8 SLP070

CYQR;2009-10-31 00:00;CYQR 310000Z 35006KT 15SM FEW024 SCT250 M01/M03 A2967 RMK SC2CI0 SLP075

CYQR;2009-10-31 01:00;CYQR 310100Z 31006KT 15SM SCT035 M01/M03 A2969 RMK SC4 SLP083

CYQR;2009-10-31 02:00;CYQR 310200Z 29006KT 15SM FEW045 M03/M04 A2969 RMK SC2 SLP083

CYQR;2009-10-31 03:00;CYQR 310300Z 30006KT 15SM BKN041 M04/M05 A2972 RMK SC4 SLP094

CYQR;2009-10-31 04:00;CYQR 310400Z 29008KT 15SM FEW041 M04/M05 A2972 RMK SC1 SLP094

CYQR;2009-10-31 05:00;CYQR 310500Z 30006KT 15SM SKC M05/M07 A2971 RMK SLP092

CYQR;2009-10-31 06:00;CYQR 310600Z 30005KT 15SM SKC M05/M07 A2972 RMK FROIN SLP094

CYQR;2009-10-31 07:00;CYQR 310700Z 28003KT 15SM SKC M06/M07 A2972 RMK SLP094

CYQR;2009-10-31 08:00;CYQR 310800Z 00000KT 15SM SKC M07/M08 A2973 RMK SLP099

CYQR;2009-10-31 09:00;CYQR 310900Z 31002KT 15SM FEW300 M06/M08 A2972 RMK CI0 FROIN SLP096

CYQR;2009-10-31 10:00;CYQR 311000Z 24003KT 12SM FEW300 M08/M09 A2972 RMK CI0 SLP094

CYQR;2009-10-31 10:39;CYQR 311039Z 23005KT 12SM FEW001 M08/ RMK SF1

CYQR;2009-10-31 11:00;CYQR 311100Z 21003KT 12SM FEW001 M07/M09 A2973 RMK SF0 SLP097

CYQR;2009-10-31 12:00;CYQR 311200Z 10002KT 12SM SKC M07/M08 A2973 RMK FROIN SLP099

CYQR;2009-10-31 13:00;CYQR 311300Z 15003KT 12SM FEW072 M06/M07 A2971 RMK AC2 SLP095

CYQR;2009-10-31 13:23;CYQR 311323Z 12006KT 10SM FEW003 SCT068 M06/ RMK ST2AC2 VIS E 5

CYQR;2009-10-31 13:30;CYQR 311330Z 12005KT 5SM BR BKN002 BKN066 M06/ RMK ST2AC2 VIS E 21/2

CYQR;2009-10-31 13:35;CYQR 311335Z 12004KT 2 1/2SM BR BKN002 BKN066 M06/ RMK ST2AC2 VIS SE 3/4

CYQR;2009-10-31 13:41;CYQR 311341Z 12005KT 1SM R13/P6000FT/D BR BKN066 M06/ RMK FG2AC2 VIS NE 2

CYQR;2009-10-31 13:48;CYQR 311348Z 12005KT 3/4SM R13/P6000FT/D BR BKN066 BKN250 M06/ RMK FG2AC2CI1

CYQR;2009-10-31 14:00;CYQR 311400Z 12006KT 1 1/2SM BR SCT066 BKN250 M06/M07 A2972 RMK FG1AC3CI0 VIS NE 5 SLP096

CYQR;2009-10-31 14:20;CYQR 311420Z 12005KT 10SM SCT062 SCT120 BKN250 M05/ RMK SC3AC1CI1 BR

CYQR;2009-10-31 15:00;CYQR 311500Z 12008KT 10SM FEW046 BKN085 BKN280 M04/M05 A2972 RMK SC2AC3CI0 BR SLP097

CYQR;2009-10-31 16:00;CYQR 311600Z 13012KT 15SM FEW046 BKN053 M02/M04 A2969 RMK SC2SC6 SLP088

CYQR;2009-10-31 17:00;CYQR 311700Z 14012KT 12SM -SN BKN016 OVC030 M01/M03 A2969 RMK SC6SC2 SLP089

CYQR;2009-10-31 18:00;CYQR 311800Z 13010G15KT 10SM -SN FEW039 OVC051 M00/M02 A2969 RMK SC2SC6 SLP086

CYQR;2009-10-31 18:50;CYQR 311850Z 15016KT 15SM SCT054 BKN064 02/ RMK SC3SC3

CYQR;2009-10-31 19:00;CYQR 311900Z 14017KT 15SM SCT054 BKN064 BKN250 02/M02 A2965 RMK SC3SC3CI0 SLP072

CYQR;2009-10-31 20:00;CYQR 312000Z 15021G27KT 15SM FEW014 BKN044 BKN250 02/M02 A2962 RMK SC1SC5CI1 SLP063

CYQR;2009-10-31 20:10;CYQR 312010Z 15022G28KT 15SM -RA FEW014 BKN044 BKN250 02/ RMK SC1SC5CI1 CU ASOCTD

CYQR;2009-10-31 21:00;CYQR 312100Z 16018G24KT 15SM VCSH SCT058 BKN100 03/M02 A2961 RMK SC3AC2 ACC ASOCTD SLP055

CYQR;2009-10-31 22:00;CYQR 312200Z 15021G26KT 15SM FEW055 SCT093 BKN260 04/M01 A2959 RMK SC2AC2CI0 SLP051

CYQR;2009-10-31 23:00;CYQR 312300Z 14019KT 15SM FEW060 SCT100 03/M02 A2957 RMK SC1AC2 SLP044

CYQR;2009-11-01 01:00;CYQR 010100Z 13019KT 15SM SCT094 02/M02 A2956 RMK AC4 SLP039

CYQR;2009-11-01 02:00;CYQR 010200Z 14017KT 15SM FEW097 01/M02 A2956 RMK AC2 SLP039

CYQR;2009-11-01 03:00;CYQR 010300Z 14012KT 15SM FEW095 01/M02 A2957 RMK AC1 SLP040

CYQR;2009-11-01 04:00;CYQR 010400Z 13005KT 15SM FEW095 M00/M02 A2959 RMK AC1 SLP047

CYQR;2009-11-01 05:00;CYQR 010500Z 00000KT 15SM FEW095 M01/M03 A2962 RMK AC1 SLP057

CYQR;2009-11-01 06:00;CYQR 010600Z 31007KT 15SM BKN100 M03/M04 A2965 RMK AC6 SLP071

CYQR;2009-11-01 07:00;CYQR 010700Z 30013KT 15SM BKN100 M01/M02 A2970 RMK AC5 SLP085

CYQR;2009-11-01 08:00;CYQR 010800Z 31015KT 15SM BKN015 OVC020 02/00 A2975 RMK SC5SC3 PRESRR SLP103

CYQR;2009-11-01 09:00;CYQR 010900Z 31015KT 15SM BKN019 BKN100 02/M00 A2979 RMK SC5AC1 SLP112

CYQR;2009-11-01 10:00;CYQR 011000Z 32014KT 15SM FEW015 FEW100 01/M01 A2981 RMK SC1AC1 SLP120

CYQR;2009-11-01 10:51;CYQR 011051Z 32015KT 12SM BKN010 OVC100 01/ RMK SC6AC2

CYQR;2009-11-01 11:00;CYQR 011100Z 32016KT 12SM BKN010 OVC100 01/M01 A2985 RMK SC7AC1 SLP133

CYQR;2009-11-01 12:00;CYQR 011200Z 32016KT 15SM OVC009 01/M01 A2988 RMK SC8 SLP144

CYQR;2009-11-01 13:00;CYQR 011300Z 32008KT 15SM OVC008 01/M00 A2990 RMK SC8 SLP152

CYQR;2009-11-01 13:11;CYQR 011311Z 32005KT 15SM OVC011 01/ RMK SC8

CYQR;2009-11-01 13:48;CYQR 011348Z 28004KT 8SM OVC008 01/ RMK SC8

CYQR;2009-11-01 14:00;CYQR 011400Z 29005KT 6SM BR OVC007 01/M00 A2992 RMK SC8 SLP158

CYQR;2009-11-01 14:41;CYQR 011441Z 28005KT 6SM BR OVC005 01/ RMK ST8

CYQR;2009-11-01 15:00;CYQR 011500Z 28005KT 15SM SCT005 BKN050 BKN260 01/00 A2994 RMK ST4SC2CI1 SLP167

CYQR;2009-11-01 16:00;CYQR 011600Z 30013G19KT 15SM FEW005 FEW050 BKN100 BKN260 03/00 A2996 RMK SF1SC1AC7CI1 SLP173

CYQR;2009-11-01 17:00;CYQR 011700Z 31018KT 15SM FEW006 FEW050 BKN100 05/M01 A2999 RMK SF1SC1AC6 SLP181

CYQR;2009-11-01 18:00;CYQR 011800Z 32015G22KT 15SM FEW032 SCT093 BKN230 BKN300 06/M01 A3001 RMK CF1AC2CI2CI0 SLP188

CYQR;2009-11-01 19:00;CYQR 011900Z 31021KT 15SM FEW030 SCT093 BKN230 BKN300 07/M03 A3001 RMK CF1AC3CC2CI0 TR CF SLP190

CYQR;2009-11-01 20:00;CYQR 012000Z 30022G28KT 15SM FEW030 BKN100 BKN300 07/M05 A3002 RMK SC1AC5CI1 SLP191

CYQR;2009-11-01 21:00;CYQR 012100Z 31025G32KT 15SM FEW030 FEW100 BKN140 BKN300 07/M05 A3001 RMK SC1AC1AC2CI1 SLP186

CYQR;2009-11-01 22:00;CYQR 012200Z 29022G28KT 15SM FEW054 FEW087 BKN140 BKN300 07/M04 A3003 RMK SC1AC1AC2CI1 TR SC SLP192

CYQR;2009-11-01 23:00;CYQR 012300Z 30020G27KT 15SM FEW059 SCT090 06/M05 A3005 RMK SC2AC2 SLP197

CYQR;2009-11-02 00:00;CYQR 020000Z 30011KT 15SM FEW060 FEW083 02/M05 A3008 RMK SC1AC2 SLP211

CYQR;2009-11-02 01:00;CYQR 020100Z 30015KT 15SM FEW060 FEW090 02/M06 A3010 RMK SC1AC2 SLP218

CYQR;2009-11-02 02:00;CYQR 020200Z 30010KT 15SM FEW060 M00/M06 A3012 RMK SC1 SLP224

CYQR;2009-11-02 03:00;CYQR 020300Z 31013KT 15SM FEW060 M01/M06 A3014 RMK SC2 SLP235

CYQR;2009-11-02 04:00;CYQR 020400Z 32009KT 15SM SKC M02/M06 A3016 RMK SLP243

CYQR;2009-11-02 05:00;CYQR 020500Z 30007KT 15SM SKC M04/M07 A3017 RMK SLP246

CYQR;2009-11-02 06:00;CYQR 020600Z 31010G15KT 15SM SKC M03/M07 A3018 RMK SLP248

CYQR;2009-11-02 07:00;CYQR 020700Z 30013KT 15SM SKC M04/M07 A3020 RMK SLP255

CYQR;2009-11-02 08:00;CYQR 020800Z 30012KT 15SM SKC M05/M08 A3022 RMK SLP261

CYQR;2009-11-02 09:00;CYQR 020900Z 28010KT 15SM SKC M06/M08 A3024 RMK SLP271

CYQR;2009-11-02 10:00;CYQR 021000Z 29007KT 15SM SKC M07/M09 A3026 RMK SLP277

CYQR;2009-11-02 11:00;CYQR 021100Z 30008KT 15SM SKC M07/M09 A3028 RMK SLP282

CYQR;2009-11-02 12:00;CYQR 021200Z 32011KT 15SM SKC M07/M10 A3028 RMK SLP287

CYQR;2009-11-02 13:00;CYQR 021300Z 31009KT 15SM SKC M08/M10 A3029 RMK SLP290

CYQR;2009-11-02 14:00;CYQR 021400Z 28004KT 15SM FEW160 M10/M12 A3030 RMK AC1 SLP294

CYQR;2009-11-02 15:00;CYQR 021500Z 28002KT 15SM FEW160 M08/M10 A3031 RMK AC1 SLP302

CYQR;2009-11-02 16:00;CYQR 021600Z 31003KT 15SM FEW160 M05/M08 A3032 RMK AC1 SLP303

CYQR;2009-11-02 17:00;CYQR 021700Z 23005KT 15SM FEW160 FEW270 M03/M08 A3032 RMK AC1CI1 SLP303

CYQR;2009-11-02 18:00;CYQR 021800Z 22004KT 15SM FEW080 M01/M07 A3030 RMK AC1 SLP294

CYQR;2009-11-02 19:00;CYQR 021900Z 21004KT 15SM FEW080 01/M07 A3027 RMK AC1 SLP283

CYQR;2009-11-02 20:00;CYQR 022000Z 17007KT 15SM FEW093 FEW210 SCT280 03/M07 A3023 RMK AC1CI1CI0 TR AC SLP271

CYQR;2009-11-02 21:00;CYQR 022100Z 19010KT 15SM FEW044 FEW100 BKN280 04/M07 A3021 RMK SC1AC1CI2 SLP260

CYQR;2009-11-02 22:00;CYQR 022200Z 15009KT 15SM FEW066 FEW075 BKN280 05/M06 A3018 RMK AC2AC1CI1 SLP250

CYQR;2009-11-02 23:00;CYQR 022300Z 14009KT 15SM FEW066 FEW075 BKN280 04/M05 A3015 RMK AC1AC1CI2 SLP242

CYQR;2009-11-03 00:00;CYQR 030000Z 13010KT 15SM FEW078 BKN270 02/M05 A3013 RMK AC1CI2 SLP235

CYQR;2009-11-03 01:00;CYQR 030100Z 13011KT 15SM FEW075 FEW270 01/M06 A3009 RMK AC1CI0 SLP225

CYQR;2009-11-03 02:00;CYQR 030200Z 13012KT 15SM SKC M01/M05 A3007 RMK SLP218

CYQR;2009-11-03 03:00;CYQR 030300Z 13010KT 15SM SKC M02/M05 A3005 RMK SLP212

CYQR;2009-11-03 04:00;CYQR 030400Z 13009KT 15SM FEW270 M02/M05 A3003 RMK CI1 SLP206

CYQR;2009-11-03 05:00;CYQR 030500Z 13007KT 15SM FEW270 M03/M05 A3001 RMK CI1 SLP200

CYQR;2009-11-03 06:00;CYQR 030600Z 13010KT 15SM BKN270 M03/M05 A2999 RMK CI2 SLP185

CYQR;2009-11-03 07:00;CYQR 030700Z 14010KT 15SM FEW100 FEW270 M04/M06 A2998 RMK AC2CI1 SLP182

CYQR;2009-11-03 08:00;CYQR 030800Z 13011KT 15SM FEW100 FEW270 M04/M06 A2996 RMK AC1CI0 SLP178

CYQR;2009-11-03 09:00;CYQR 030900Z 13008KT 15SM FEW100 BKN270 M04/M06 A2994 RMK AC1CI2 SLP168

CYQR;2009-11-03 10:00;CYQR 031000Z 13007KT 15SM FEW100 BKN270 M04/M06 A2993 RMK AC2CI2 SLP163

CYQR;2009-11-03 11:00;CYQR 031100Z 13005KT 15SM FEW100 BKN270 M04/M06 A2993 RMK AC2CI1 SLP163

CYQR;2009-11-03 12:00;CYQR 031200Z 12003KT 15SM FEW100 BKN270 M05/M06 A2993 RMK AC2CI2 SLP166

CYQR;2009-11-03 13:00;CYQR 031300Z 07003KT 15SM BKN120 BKN270 M05/M06 A2994 RMK AC5CI2 SLP169

CYQR;2009-11-03 14:00;CYQR 031400Z 35004KT 15SM SCT079 BKN093 BKN270 M05/M07 A2998 RMK AC3AC2CI2 SLP182

CYQR;2009-11-03 15:00;CYQR 031500Z 32004KT 15SM BKN110 BKN270 M04/M05 A3001 RMK AC5CI1 SLP194

CYQR;2009-11-03 16:00;CYQR 031600Z 00000KT 15SM FEW084 SCT270 M01/M04 A3002 RMK AC2CI0 SLP197

CYQR;2009-11-03 17:00;CYQR 031700Z 34015KT 15SM SCT079 SCT270 01/M03 A3005 RMK AC2CI0 SLP208

CYQR;2009-11-03 18:00;CYQR 031800Z 34016KT 15SM BKN075 BKN140 04/M02 A3008 RMK AC4AC1 SLP213

CYQR;2009-11-03 19:00;CYQR 031900Z 34016KT 15SM BKN081 04/M03 A3008 RMK AC6 SLP215

CYQR;2009-11-03 20:00;CYQR 032000Z 35010KT 15SM FEW076 BKN270 03/M03 A3010 RMK AC2CI0 SLP221

CYQR;2009-11-03 21:00;CYQR 032100Z 33017KT 15SM FEW082 SCT270 04/M03 A3012 RMK AC1CI0 SLP229

CYQR;2009-11-03 22:00;CYQR 032200Z 34017KT 15SM FEW082 FEW270 03/M03 A3014 RMK AC1CI0 SLP236

CYQR;2009-11-03 23:00;CYQR 032300Z 34007KT 15SM FEW085 FEW240 BKN270 02/M03 A3016 RMK AC1CC0CI0 SLP242

CYQR;2009-11-04 00:00;CYQR 040000Z 34009KT 15SM FEW086 BKN240 M01/M03 A3018 RMK AC2CI0 SLP253

CYQR;2009-11-04 01:00;CYQR 040100Z 26002KT 15SM BKN240 M04/M05 A3019 RMK CI0 SLP256

CYQR;2009-11-04 02:00;CYQR 040200Z 29005KT 15SM BKN054 M03/M04 A3020 RMK SC6 SLP259

CYQR;2009-11-04 03:00;CYQR 040300Z 28005KT 15SM FEW039 BKN054 M02/M03 A3020 RMK SC2SC4 SLP262

CYQR;2009-11-04 04:00;CYQR 040400Z 28005KT 15SM FEW240 M02/M03 A3021 RMK CI1 SLP263

CYQR;2009-11-04 05:00;CYQR 040500Z 23005KT 15SM SCT037 M04/M05 A3021 RMK SC2 SLP264

CYQR;2009-11-04 06:00;CYQR 040600Z 23006KT 15SM SKC M05/M06 A3020 RMK SLP258

CYQR;2009-11-04 07:00;CYQR 040700Z 23006KT 15SM FEW100 M06/M07 A3019 RMK AC1 SLP255

CYQR;2009-11-04 08:00;CYQR 040800Z 26006KT 15SM FEW100 M05/M07 A3019 RMK AC1 SLP255

CYQR;2009-11-04 09:00;CYQR 040900Z 26008KT 15SM SKC M05/M07 A3018 RMK SLP251

CYQR;2009-11-04 10:00;CYQR 041000Z 26008KT 15SM SKC M04/M06 A3018 RMK SLP249

CYQR;2009-11-04 11:00;CYQR 041100Z 27007KT 15SM SKC M04/M05 A3018 RMK SLP250

CYQR;2009-11-04 12:00;CYQR 041200Z 28008KT 15SM SKC M04/M05 A3019 RMK SLP255

CYQR;2009-11-04 13:00;CYQR 041300Z 30003KT 15SM SKC M05/M07 A3019 RMK SLP255

CYQR;2009-11-04 14:00;CYQR 041400Z 27006KT 12SM FEW080 M06/M07 A3019 RMK AC1 SLP256

CYQR;2009-11-04 15:00;CYQR 041500Z 26003KT 15SM FEW080 FEW240 M05/M07 A3020 RMK AC1CI0 SLP260

CYQR;2009-11-04 16:00;CYQR 041600Z 29006KT 15SM FEW080 FEW240 M01/M02 A3020 RMK AC1CI0 SLP262

CYQR;2009-11-04 17:00;CYQR 041700Z 33006KT 15SM FEW240 01/M01 A3020 RMK CI0 SLP262

CYQR;2009-11-04 18:00;CYQR 041800Z 01003KT 15SM FEW240 03/M01 A3019 RMK CI1 SLP256

CYQR;2009-11-04 19:00;CYQR 041900Z 35004KT 15SM FEW240 05/M01 A3019 RMK CI1 SLP254

CYQR;2009-11-04 20:00;CYQR 042000Z 36006KT 15SM SCT240 06/M03 A3018 RMK CI0 SLP251

CYQR;2009-11-04 21:00;CYQR 042100Z 05003KT 15SM BKN240 06/M03 A3016 RMK CI2 SLP243

CYQR;2009-11-04 22:00;CYQR 042200Z 03003KT 15SM BKN240 06/M03 A3015 RMK CI2 SLP239

CYQR;2009-11-04 23:00;CYQR 042300Z 01003KT 15SM FEW150 BKN240 03/M04 A3015 RMK AC1CI2 SLP238

CYQR;2009-11-05 00:00;CYQR 050000Z 07003KT 15SM FEW150 FEW240 01/M04 A3014 RMK AC1CI0 SLP239

CYQR;2009-11-05 01:00;CYQR 050100Z 08006KT 15SM FEW240 M00/M04 A3015 RMK CI0 SLP240

CYQR;2009-11-05 02:00;CYQR 050200Z 10008KT 15SM FEW240 M01/M04 A3014 RMK CI0 SLP238

CYQR;2009-11-05 03:00;CYQR 050300Z 12007KT 15SM SKC M02/M04 A3014 RMK SLP239

CYQR;2009-11-05 04:00;CYQR 050400Z 12009KT 15SM SKC M02/M05 A3013 RMK SLP237

CYQR;2009-11-05 05:00;CYQR 050500Z 13011KT 15SM SKC M02/M05 A3012 RMK SLP234

CYQR;2009-11-05 06:00;CYQR 050600Z 13013KT 15SM SKC M03/M06 A3011 RMK SLP224

CYQR;2009-11-05 07:00;CYQR 050700Z 13012KT 15SM SKC M03/M06 A3009 RMK SLP219

CYQR;2009-11-05 08:00;CYQR 050800Z 13013KT 15SM SKC M03/M06 A3007 RMK SLP211

CYQR;2009-11-05 09:00;CYQR 050900Z 14016KT 15SM SKC M03/M06 A3004 RMK SLP200

CYQR;2009-11-05 10:00;CYQR 051000Z 14014G19KT 15SM BKN240 M03/M06 A3002 RMK CI1 SLP193

CYQR;2009-11-05 11:00;CYQR 051100Z 14015KT 15SM BKN100 BKN240 M03/M06 A2998 RMK AC2CI2 SLP181

CYQR;2009-11-05 12:00;CYQR 051200Z 14015G21KT 15SM OVC240 M03/M06 A2995 RMK CS8 SLP173

CYQR;2009-11-05 13:00;CYQR 051300Z 14015KT 15SM SCT100 BKN240 M02/M06 A2993 RMK AC3CI2 SLP165

CYQR;2009-11-05 14:00;CYQR 051400Z 15019KT 15SM BKN110 OVC240 M02/M06 A2990 RMK AC6CI1 SLP156

CYQR;2009-11-05 15:00;CYQR 051500Z 14017KT 15SM SCT110 OVC240 M02/M05 A2989 RMK AC3CI2 SLP151

CYQR;2009-11-05 16:00;CYQR 051600Z 15018G24KT 15SM BKN120 OVC250 M00/M04 A2985 RMK AC6CI2 SLP139

CYQR;2009-11-05 17:00;CYQR 051700Z 15021G26KT 15SM BKN080 BKN250 02/M03 A2982 RMK AC6CI1 SLP131

CYQR;2009-11-05 18:00;CYQR 051800Z 14020KT 15SM BKN080 BKN250 03/M02 A2980 RMK AC6CI1 SLP119

CYQR;2009-11-05 19:00;CYQR 051900Z 14018G26KT 15SM FEW086 BKN250 04/M01 A2975 RMK AC2CI3 SLP103

CYQR;2009-11-05 20:00;CYQR 052000Z 16016G21KT 15SM FEW084 OVC250 06/M00 A2971 RMK AC2CI5 SLP090

CYQR;2009-11-05 21:00;CYQR 052100Z 16018KT 15SM SCT100 BKN250 08/00 A2967 RMK AC4CI2 SLP071

CYQR;2009-11-05 22:00;CYQR 052200Z 16014G19KT 15SM FEW100 BKN250 09/00 A2964 RMK AC2CI2 SLP063

CYQR;2009-11-05 23:00;CYQR 052300Z 15012KT 15SM SCT090 BKN250 07/M00 A2962 RMK AC4CI1 SLP056

CYQR;2009-11-06 00:00;CYQR 060000Z 15012KT 15SM FEW090 BKN250 06/M00 A2960 RMK AC1CI2 SLP047

CYQR;2009-11-06 01:00;CYQR 060100Z 15011KT 15SM SCT250 04/M01 A2959 RMK CI1 SLP043

CYQR;2009-11-06 02:00;CYQR 060200Z 16010KT 15SM FEW250 03/M01 A2957 RMK CI0 SLP037

CYQR;2009-11-06 03:00;CYQR 060300Z 15011KT 15SM BKN250 03/M01 A2954 RMK CI0 SLP029

CYQR;2009-11-06 04:00;CYQR 060400Z 14009KT 15SM SCT250 02/M02 A2952 RMK CI0 SLP023

CYQR;2009-11-06 05:00;CYQR 060500Z 13009KT 15SM BKN250 01/M02 A2950 RMK CI4 SLP016

CYQR;2009-11-06 06:00;CYQR 060600Z 13010KT 15SM SCT250 01/M02 A2947 RMK CI2 SLP003

CYQR;2009-11-06 07:00;CYQR 060700Z 12009KT 15SM FEW250 01/M02 A2946 RMK CI1 SLP999

CYQR;2009-11-06 08:00;CYQR 060800Z 12010KT 15SM FEW250 00/M03 A2944 RMK CI1 SLP994

CYQR;2009-11-06 09:00;CYQR 060900Z 13009KT 15SM SKC M00/M03 A2944 RMK SLP988

CYQR;2009-11-06 10:00;CYQR 061000Z 14008KT 15SM SCT250 M01/M03 A2942 RMK CI2 SLP984

CYQR;2009-11-06 11:00;CYQR 061100Z 12007KT 15SM SKC M01/M04 A2941 RMK SLP979

CYQR;2009-11-06 12:00;CYQR 061200Z 13010KT 15SM SKC M02/M04 A2939 RMK SLP974

CYQR;2009-11-06 13:00;CYQR 061300Z 13008KT 15SM BKN250 M02/M04 A2939 RMK CI2 SLP973

CYQR;2009-11-06 14:00;CYQR 061400Z 12007KT 15SM FEW080 SCT250 M02/M04 A2937 RMK AC1CI1 SLP968

CYQR;2009-11-06 15:00;CYQR 061500Z 17009KT 15SM FEW170 SCT250 02/M02 A2936 RMK AC2CI0 SLP965

CYQR;2009-11-06 16:00;CYQR 061600Z 18007KT 15SM SCT170 BKN250 06/01 A2934 RMK AC3CI1 SLP959

CYQR;2009-11-06 17:00;CYQR 061700Z 23011KT 15SM FEW170 FEW250 13/02 A2933 RMK AC1CI1 SLP954

CYQR;2009-11-06 18:00;CYQR 061800Z 26021G26KT 15SM FEW170 FEW250 18/01 A2930 RMK AC1CI1 SLP935

CYQR;2009-11-06 19:00;CYQR 061900Z 25019G25KT 15SM SCT160 17/01 A2930 RMK AC3 SLP934

CYQR;2009-11-06 20:00;CYQR 062000Z 26024G32KT 15SM FEW150 19/01 A2929 RMK AC2 SLP930

CYQR;2009-11-06 21:00;CYQR 062100Z 27019G33KT 15SM FEW093 BKN150 17/01 A2929 RMK AC2AC4 SLP931

CYQR;2009-11-06 22:00;CYQR 062200Z 26023G29KT 15SM FEW095 FEW150 BKN300 17/02 A2929 RMK AC1AC2CI2 SLP933

CYQR;2009-11-06 23:00;CYQR 062300Z 27022G32KT 15SM FEW100 FEW170 FEW300 15/M01 A2932 RMK AC2AC1CI1 SLP941

CYQR;2009-11-07 00:00;CYQR 070000Z 27023G28KT 15SM FEW100 12/M04 A2936 RMK AC1 SLP959

CYQR;2009-11-07 01:00;CYQR 070100Z 27023G28KT 15SM SKC 10/M04 A2939 RMK SLP970

CYQR;2009-11-07 02:00;CYQR 070200Z 27015KT 15SM SKC 08/M01 A2943 RMK SLP982

CYQR;2009-11-07 03:00;CYQR 070300Z 26013KT 15SM FEW100 06/M01 A2944 RMK AC1 SLP991

CYQR;2009-11-07 04:00;CYQR 070400Z 25013KT 15SM BKN100 05/M02 A2945 RMK AC5 SLP994

CYQR;2009-11-07 05:00;CYQR 070500Z 26017KT 15SM SCT063 05/M04 A2947 RMK SC3 SLP999

CYQR;2009-11-07 06:00;CYQR 070600Z 26020G26KT 15SM SKC 05/M04 A2949 RMK SLP996

CYQR;2009-11-07 07:00;CYQR 070700Z 26018KT 15SM FEW250 03/M04 A2952 RMK CI2 SLP006

CYQR;2009-11-07 08:00;CYQR 070800Z 24014KT 15SM SKC 02/M04 A2954 RMK SLP014

CYQR;2009-11-07 09:00;CYQR 070900Z 27017KT 15SM SKC 02/M04 A2954 RMK SLP016

CYQR;2009-11-07 10:00;CYQR 071000Z 27015KT 15SM SKC 02/M04 A2956 RMK SLP022

CYQR;2009-11-07 11:00;CYQR 071100Z 26012KT 15SM SKC 01/M04 A2958 RMK SLP029

CYQR;2009-11-07 12:00;CYQR 071200Z 26010KT 15SM SKC M01/M05 A2960 RMK SLP041

CYQR;2009-11-07 13:00;CYQR 071300Z 26013KT 15SM SKC M00/M05 A2961 RMK SLP045

CYQR;2009-11-07 14:00;CYQR 071400Z 25014KT 15SM SKC M00/M05 A2963 RMK SLP050

CYQR;2009-11-07 15:00;CYQR 071500Z 25015G20KT 15SM SKC 01/M05 A2964 RMK SLP061

CYQR;2009-11-07 16:00;CYQR 071600Z 26018G25KT 15SM SKC 03/M04 A2965 RMK SLP063

CYQR;2009-11-07 17:00;CYQR 071700Z 27017KT 15SM SKC 07/M04 A2966 RMK SLP066

CYQR;2009-11-07 18:00;CYQR 071800Z 27016G22KT 15SM SKC 09/M04 A2967 RMK SLP065

CYQR;2009-11-07 19:00;CYQR 071900Z 26019G25KT 15SM FEW240 10/M04 A2966 RMK CI0 SLP063

CYQR;2009-11-07 20:00;CYQR 072000Z 26018KT 15SM FEW250 10/M04 A2966 RMK CI0 SLP061

CYQR;2009-11-07 21:00;CYQR 072100Z 25018KT 15SM FEW250 11/M05 A2967 RMK CI0 SLP065

CYQR;2009-11-07 22:00;CYQR 072200Z 26015G20KT 15SM FEW090 FEW210 SCT250 10/M05 A2967 RMK AC1CI1CI0 TR AC SLP066

CYQR;2009-11-07 23:00;CYQR 072300Z 25010KT 15SM FEW093 FEW210 SCT250 08/M06 A2967 RMK AC1CI1CI0 SLP065

CYQR;2009-11-08 00:00;CYQR 080000Z 20008KT 15SM FEW095 02/M07 A2969 RMK AC1 SLP080

CYQR;2009-11-08 01:00;CYQR 080100Z 19007KT 15SM FEW090 00/M07 A2969 RMK AC1 SLP078

CYQR;2009-11-08 02:00;CYQR 080200Z 15009KT 15SM SKC 01/M06 A2969 RMK SLP080

CYQR;2009-11-08 03:00;CYQR 080300Z 18007KT 15SM SCT100 M01/M07 A2968 RMK AC3 SLP077

CYQR;2009-11-08 04:00;CYQR 080400Z 23011KT 15SM SKC 01/M06 A2970 RMK SLP083

CYQR;2009-11-08 05:00;CYQR 080500Z 23010KT 15SM SKC 01/M06 A2970 RMK SLP083

CYQR;2009-11-08 06:00;CYQR 080600Z 25015KT 15SM SKC 02/M05 A2971 RMK SLP082

CYQR;2009-11-08 07:00;CYQR 080700Z 25014KT 15SM SKC 02/M06 A2973 RMK SLP088

CYQR;2009-11-08 08:00;CYQR 080800Z 25014KT 15SM SKC 02/M06 A2974 RMK SLP091

CYQR;2009-11-08 09:00;CYQR 080900Z 23007KT 15SM SKC M01/M06 A2975 RMK SLP094

CYQR;2009-11-08 10:00;CYQR 081000Z 18006KT 15SM SKC M02/M07 A2975 RMK SLP094

CYQR;2009-11-08 11:00;CYQR 081100Z 17009KT 15SM SKC M02/M06 A2975 RMK SLP095

CYQR;2009-11-08 12:00;CYQR 081200Z 13009KT 15SM SKC M04/M07 A2977 RMK SLP108

CYQR;2009-11-08 13:00;CYQR 081300Z 18009KT 15SM FEW270 M05/M07 A2978 RMK CI1 SLP113

CYQR;2009-11-08 14:00;CYQR 081400Z 19007KT 15SM BKN092 M04/M07 A2979 RMK AC6 SLP115

CYQR;2009-11-08 15:00;CYQR 081500Z 16004KT 15SM SCT092 BKN230 BKN300 M02/M06 A2981 RMK AC4CI1CI0 SLP123

CYQR;2009-11-08 16:00;CYQR 081600Z 19010KT 15SM FEW090 BKN300 02/M04 A2980 RMK AC2CI4 SLP121

CYQR;2009-11-08 17:00;CYQR 081700Z 21012KT 15SM FEW090 BKN230 BKN300 05/M04 A2981 RMK AC1CI2CI2 SLP123

CYQR;2009-11-08 18:00;CYQR 081800Z 26013G18KT 15SM FEW098 BKN230 BKN300 07/M04 A2979 RMK AC2CI2CI2 SLP110

CYQR;2009-11-08 19:00;CYQR 081900Z 26014G20KT 15SM FEW100 BKN230 BKN300 09/M04 A2978 RMK AC1CI4CI1 SLP106

CYQR;2009-11-08 20:00;CYQR 082000Z 26015G21KT 15SM BKN071 BKN230 08/M04 A2979 RMK AC6CI1 SLP109

CYQR;2009-11-08 21:00;CYQR 082100Z 26009KT 15SM SCT051 BKN090 OVC230 07/M04 A2980 RMK SC3AC4CI1 SLP113

CYQR;2009-11-08 22:00;CYQR 082200Z 26012G17KT 15SM FEW050 FEW085 BKN230 OVC300 07/M04 A2981 RMK SC1AC1CI4CI1 SLP118

CYQR;2009-11-08 23:00;CYQR 082300Z CCA 25010KT 15SM FEW050 FEW086 BKN230 BKN300 06/M03 A2984 RMK SC1AC1CI4CI1 TCU S SLP125

CYQR;2009-11-09 00:00;CYQR 090000Z 31008KT 15SM FEW050 SCT230 02/M05 A2987 RMK SC1CI2 SLP144

CYQR;2009-11-09 01:00;CYQR 090100Z 29004KT 15SM FEW050 SCT230 M00/M05 A2991 RMK SC1CI2 SLP156

CYQR;2009-11-09 02:00;CYQR 090200Z 28009KT 15SM BKN100 M01/M04 A2993 RMK AC6 SLP164

CYQR;2009-11-09 03:00;CYQR 090300Z 27005KT 15SM FEW100 M04/M07 A2995 RMK AC1 SLP174

CYQR;2009-11-09 04:00;CYQR 090400Z 24005KT 15SM SKC M06/M08 A2996 RMK SLP178

CYQR;2009-11-09 05:00;CYQR 090500Z 32002KT 15SM SKC M06/M08 A2998 RMK SLP184

CYQR;2009-11-09 06:00;CYQR 090600Z 23003KT 15SM SKC M06/M08 A2999 RMK SLP183

CYQR;2009-11-09 07:00;CYQR 090700Z 27009KT 15SM SKC M06/M09 A3001 RMK SLP191

CYQR;2009-11-09 08:00;CYQR 090800Z 20004KT 15SM SKC M07/M10 A3003 RMK SLP196

CYQR;2009-11-09 09:00;CYQR 090900Z 27006KT 15SM SKC M06/M08 A3004 RMK SLP201

CYQR;2009-11-09 10:00;CYQR 091000Z 25004KT 15SM SKC M08/M10 A3007 RMK SLP210

CYQR;2009-11-09 11:00;CYQR 091100Z 00000KT 15SM SKC M08/M11 A3009 RMK SLP218

CYQR;2009-11-09 12:00;CYQR 091200Z 24002KT 15SM SKC M08/M10 A3011 RMK SLP231

CYQR;2009-11-09 13:00;CYQR 091300Z 19003KT 15SM SKC M07/M10 A3014 RMK SLP238

CYQR;2009-11-09 14:00;CYQR 091400Z 15003KT 15SM SKC M09/M11 A3015 RMK SLP243

CYQR;2009-11-09 15:00;CYQR 091500Z 16005KT 15SM SKC M05/M08 A3018 RMK SLP256

CYQR;2009-11-09 16:00;CYQR 091600Z 16004KT 15SM SKC M02/M06 A3020 RMK SLP262

CYQR;2009-11-09 17:00;CYQR 091700Z 20004KT 15SM SKC 02/M04 A3020 RMK SLP264

CYQR;2009-11-09 18:00;CYQR 091800Z 23007KT 15SM SKC 05/M04 A3020 RMK SLP257

CYQR;2009-11-09 19:00;CYQR 091900Z 22009KT 15SM SKC 07/M04 A3019 RMK SLP253

CYQR;2009-11-09 20:00;CYQR 092000Z 23010KT 15SM FEW300 09/M06 A3018 RMK CI1 SLP250

CYQR;2009-11-09 21:00;CYQR 092100Z 22010KT 15SM FEW300 09/M06 A3017 RMK CI1 SLP245

CYQR;2009-11-09 22:00;CYQR 092200Z 24009KT 15SM FEW300 09/M07 A3017 RMK CI1 SLP243

CYQR;2009-11-09 23:00;CYQR 092300Z 21005KT 15SM FEW300 04/M08 A3016 RMK CI0 SLP241

CYQR;2009-11-10 00:00;CYQR 100000Z 18007KT 15SM FEW300 01/M08 A3016 RMK CI0 SLP248

CYQR;2009-11-10 02:00;CYQR 100200Z 17011KT 15SM SKC M02/M08 A3016 RMK SLP246

CYQR;2009-11-10 03:00;CYQR 100300Z 17010KT 15SM SKC M03/M08 A3014 RMK SLP243

CYQR;2009-11-10 04:00;CYQR 100400Z 16010KT 15SM SKC M03/M07 A3014 RMK SLP243

CYQR;2009-11-10 05:00;CYQR 100500Z 16013KT 15SM SKC M02/M07 A3012 RMK SLP236

CYQR;2009-11-10 06:00;CYQR 100600Z 16013KT 15SM SKC M03/M07 A3010 RMK SLP222

CYQR;2009-11-10 07:00;CYQR 100700Z 15011KT 15SM SKC M02/M07 A3009 RMK SLP218

CYQR;2009-11-10 08:00;CYQR 100800Z 15014KT 15SM FEW250 M02/M07 A3006 RMK CI1 SLP208

CYQR;2009-11-10 09:00;CYQR 100900Z 15013KT 15SM FEW250 M02/M07 A3004 RMK CI0 SLP197

CYQR;2009-11-10 10:00;CYQR 101000Z 15014G19KT 15SM FEW250 M02/M07 A3003 RMK CI0 SLP193

CYQR;2009-11-10 11:00;CYQR 101100Z 15016KT 15SM SCT250 M01/M07 A3000 RMK CI0 SLP185

CYQR;2009-11-10 12:00;CYQR 101200Z 15016KT 15SM SCT250 M01/M07 A2996 RMK CI0 SLP175

CYQR;2009-11-10 13:00;CYQR 101300Z 16012KT 15SM FEW120 SCT250 M02/M07 A2996 RMK AC1CI0 SLP175

CYQR;2009-11-10 14:00;CYQR 101400Z 15013KT 15SM FEW120 BKN250 M02/M07 A2994 RMK AC2CI2 SLP169

CYQR;2009-11-10 15:00;CYQR 101500Z 14009KT 15SM FEW091 BKN250 M01/M06 A2995 RMK AC2CI4 SLP174

CYQR;2009-11-10 16:00;CYQR 101600Z 15010KT 15SM BKN090 OVC250 01/M05 A2994 RMK AC5CI3 SLP170

CYQR;2009-11-10 17:00;CYQR 101700Z 14007KT 15SM BKN085 OVC250 03/M04 A2994 RMK AC6CI2 SLP170

CYQR;2009-11-10 18:00;CYQR 101800Z 16007KT 15SM BKN095 BKN250 05/M03 A2992 RMK AC6CI2 SLP160

CYQR;2009-11-10 19:00;CYQR 101900Z 18010KT 15SM FEW095 BKN250 10/M03 A2990 RMK AC1CI2 SLP154

CYQR;2009-11-10 20:00;CYQR 102000Z 26014KT 15SM FEW100 SCT250 12/M05 A2989 RMK AC1CI1 SLP151

CYQR;2009-11-10 21:00;CYQR 102100Z 28014G19KT 15SM FEW095 FEW250 13/M04 A2990 RMK AC1CI0 SLP145

CYQR;2009-11-10 22:00;CYQR 102200Z 26010G15KT 15SM FEW250 13/M04 A2990 RMK CI1 SLP145

CYQR;2009-11-10 23:00;CYQR 102300Z 22010KT 15SM FEW250 09/M05 A2990 RMK CI0 SLP147

CYQR;2009-11-11 00:00;CYQR 110000Z 22009KT 15SM FEW250 01/M07 A2991 RMK CI0 SLP156

CYQR;2009-11-11 01:00;CYQR 110100Z 22011KT 15SM SKC 01/M06 A2992 RMK SLP160

CYQR;2009-11-11 02:00;CYQR 110200Z 23012KT 15SM SKC 02/M05 A2993 RMK SLP164

CYQR;2009-11-11 03:00;CYQR 110300Z 21011KT 15SM SKC 02/M05 A2993 RMK SLP164

CYQR;2009-11-11 04:00;CYQR 110400Z 25016KT 15SM SKC 05/M04 A2995 RMK SLP169

CYQR;2009-11-11 05:00;CYQR 110500Z 22011KT 15SM SKC 00/M06 A2995 RMK SLP171

CYQR;2009-11-11 06:00;CYQR 110600Z 23011KT 15SM SKC M01/M06 A2996 RMK SLP170

CYQR;2009-11-11 07:00;CYQR 110700Z 24012KT 15SM SKC 00/M06 A2997 RMK SLP174

CYQR;2009-11-11 08:00;CYQR 110800Z 25011KT 15SM SKC M00/M07 A2998 RMK SLP177

CYQR;2009-11-11 09:00;CYQR 110900Z 27007KT 15SM SKC M03/M08 A2999 RMK SLP177

CYQR;2009-11-11 10:00;CYQR 111000Z 24004KT 15SM SKC M03/M08 A3002 RMK SLP186

CYQR;2009-11-11 11:00;CYQR 111100Z 24006KT 15SM SKC M05/M10 A3002 RMK SLP187

CYQR;2009-11-11 12:00;CYQR 111200Z 20010KT 15SM SKC M07/M10 A3002 RMK SLP200

CYQR;2009-11-11 13:00;CYQR 111300Z 24009KT 15SM FEW340 M06/M09 A3003 RMK CI0 SLP201

CYQR;2009-11-11 14:00;CYQR 111400Z 24002KT 15SM FEW070 SCT340 M07/M10 A3002 RMK ACC1CI0 SLP200

CYQR;2009-11-11 15:00;CYQR 111500Z 14005KT 15SM FEW035 FEW070 BKN340 M04/M07 A3002 RMK SC1AC1CI2 SLP195

CYQR;2009-11-11 16:00;CYQR 111600Z 18006KT 15SM FEW070 BKN340 M01/M06 A3001 RMK ACC1CI2 SLP193

CYQR;2009-11-11 17:00;CYQR 111700Z 20008KT 15SM FEW070 BKN340 03/M06 A3000 RMK ACC1CI2 SLP189

CYQR;2009-11-11 18:00;CYQR 111800Z 20008KT 15SM FEW070 BKN340 07/M06 A2997 RMK ACC1AC2 SLP173

CYQR;2009-11-11 19:00;CYQR 111900Z 19013KT 15SM FEW070 BKN340 08/M06 A2993 RMK ACC2CI1 SLP161

CYQR;2009-11-11 20:00;CYQR 112000Z 19012G18KT 15SM SCT084 BKN340 08/M07 A2990 RMK ACC3CI4 VIRGA SLP151

CYQR;2009-11-11 21:00;CYQR 112100Z 19011KT 15SM FEW070 BKN140 OVC340 08/M07 A2987 RMK AC2AS3CI2 SLP138

CYQR;2009-11-11 22:00;CYQR 112200Z 16009KT 15SM BKN089 OVC140 07/M05 A2983 RMK AC5AC3 SLP126

CYQR;2009-11-11 23:00;CYQR 112300Z 14012KT 15SM SCT085 BKN100 OVC140 06/M05 A2980 RMK AC3AC2AC2 SLP117

CYQR;2009-11-12 00:00;CYQR 120000Z 15010KT 15SM FEW100 BKN140 05/M06 A2979 RMK AC2AS5 SLP116

CYQR;2009-11-12 01:00;CYQR 120100Z 16010KT 15SM FEW100 BKN140 04/M05 A2976 RMK AC2AS5 SLP107

CYQR;2009-11-12 02:00;CYQR 120200Z 16009KT 15SM OVC140 04/M05 A2973 RMK AC8 SLP098

CYQR;2009-11-12 03:00;CYQR 120300Z 17008KT 15SM FEW140 02/M05 A2970 RMK AC1 SLP086

CYQR;2009-11-12 04:00;CYQR 120400Z 16009KT 15SM BKN130 01/M05 A2968 RMK AC6 SLP080

CYQR;2009-11-12 05:00;CYQR 120500Z 18007KT 15SM BKN093 M01/M06 A2967 RMK AC5 SLP076

CYQR;2009-11-12 06:00;CYQR 120600Z 18005KT 15SM OVC100 M01/M06 A2966 RMK AC8 SLP067

CYQR;2009-11-12 07:00;CYQR 120700Z 21004KT 15SM OVC100 M00/M05 A2964 RMK AC8 SLP062

CYQR;2009-11-12 08:00;CYQR 120800Z 21005KT 15SM OVC100 M00/M04 A2964 RMK AC8 SLP059

CYQR;2009-11-12 09:00;CYQR 120900Z 22007KT 15SM OVC100 03/M04 A2962 RMK AC8 SLP049

CYQR;2009-11-12 10:00;CYQR 121000Z 23008KT 15SM OVC100 01/M04 A2961 RMK AC8 SLP046

CYQR;2009-11-12 11:00;CYQR 121100Z 28008KT 15SM OVC100 01/M05 A2961 RMK AC8 SLP046

CYQR;2009-11-12 12:00;CYQR 121200Z 27007KT 15SM OVC100 00/M05 A2962 RMK AC8 SLP055

CYQR;2009-11-12 13:00;CYQR 121300Z 27006KT 15SM OVC100 M02/M06 A2962 RMK AS8 SLP053

CYQR;2009-11-12 14:00;CYQR 121400Z 30010KT 15SM BKN100 OVC320 M02/M06 A2963 RMK AS7CI1 SLP056

CYQR;2009-11-12 15:00;CYQR 121500Z 30004KT 15SM BKN120 BKN320 M03/M06 A2963 RMK AS6CI0 SLP061

CYQR;2009-11-12 16:00;CYQR 121600Z 30012KT 15SM BKN120 BKN320 M02/M06 A2964 RMK AC6CI2 SLP066

CYQR;2009-11-12 17:00;CYQR 121700Z 31015KT 15SM SCT120 BKN320 M02/M06 A2964 RMK AC4CS3 SLP065

CYQR;2009-11-12 18:00;CYQR 121800Z 30011KT 15SM FEW100 SCT150 BKN320 M01/M06 A2965 RMK AC2AS2CS3 SLP070

CYQR;2009-11-12 19:00;CYQR 121900Z 28009KT 15SM FEW100 FEW150 BKN320 M00/M05 A2965 RMK AC1AS2CS4 SLP070

CYQR;2009-11-12 20:00;CYQR 122000Z 32008KT 15SM FEW100 SCT150 BKN320 00/M05 A2965 RMK AC2AC2CS2 SLP068

CYQR;2009-11-12 21:00;CYQR 122100Z 31008KT 15SM FEW100 FEW150 BKN320 01/M05 A2965 RMK AC1AC1CI5 SLP064

CYQR;2009-11-12 22:00;CYQR 122200Z 33008KT 15SM FEW100 FEW150 BKN320 01/M05 A2965 RMK AC1AC1CI3 SLP066

CYQR;2009-11-12 23:00;CYQR 122300Z 28004KT 15SM FEW150 BKN320 M00/M05 A2967 RMK AC1CI2 SLP072

CYQR;2009-11-13 00:00;CYQR 130000Z 25004KT 15SM SCT320 M04/M07 A2968 RMK CI1 SLP081

CYQR;2009-11-13 01:00;CYQR 130100Z 25004KT 15SM FEW320 M06/M09 A2969 RMK CI1 SLP085

CYQR;2009-11-13 02:00;CYQR 130200Z 26006KT 15SM SKC M08/M10 A2970 RMK SLP088

CYQR;2009-11-13 03:00;CYQR 130300Z 28006KT 15SM SKC M09/M11 A2971 RMK SLP095

CYQR;2009-11-13 04:00;CYQR 130400Z 27007KT 15SM SKC M08/M10 A2972 RMK SLP098

CYQR;2009-11-13 05:00;CYQR 130500Z 24004KT 15SM SKC M09/M11 A2972 RMK SLP099

CYQR;2009-11-13 06:00;CYQR 130600Z 25002KT 15SM SKC M09/M11 A2972 RMK SLP099

CYQR;2009-11-13 07:00;CYQR 130700Z 23003KT 15SM SKC M10/M12 A2972 RMK SLP098

CYQR;2009-11-13 08:00;CYQR 130800Z 17005KT 15SM FEW030 M10/M12 A2971 RMK SC1 SLP096

CYQR;2009-11-13 09:00;CYQR 130900Z 14003KT 15SM SKC M10/M12 A2970 RMK SLP092

CYQR;2009-11-13 10:00;CYQR 131000Z 16005KT 15SM SKC M09/M11 A2970 RMK SLP090

CYQR;2009-11-13 11:00;CYQR 131100Z 12005KT 15SM SKC M11/M13 A2970 RMK SLP090

CYQR;2009-11-13 12:00;CYQR 131200Z 12006KT 15SM SKC M11/M13 A2970 RMK SLP097

CYQR;2009-11-13 13:00;CYQR 131300Z 12006KT 15SM SKC M12/M13 A2970 RMK SLP096

CYQR;2009-11-13 14:00;CYQR 131400Z 14007KT 15SM SKC M12/M14 A2970 RMK SLP096

CYQR;2009-11-13 15:00;CYQR 131500Z 14005KT 15SM SKC M09/M11 A2970 RMK SLP099

CYQR;2009-11-13 16:00;CYQR 131600Z 18008KT 15SM SKC M05/M08 A2969 RMK SLP096

CYQR;2009-11-13 17:00;CYQR 131700Z 22010KT 15SM SKC 01/M03 A2968 RMK SLP092

CYQR;2009-11-13 18:00;CYQR 131800Z 22012KT 15SM SKC 03/M04 A2968 RMK SLP081

CYQR;2009-11-13 19:00;CYQR 131900Z 21013KT 15SM SKC 05/M04 A2966 RMK SLP076

CYQR;2009-11-13 20:00;CYQR 132000Z 23013G18KT 15SM SKC 06/M05 A2964 RMK SLP070

CYQR;2009-11-13 21:00;CYQR 132100Z 21015KT 15SM SKC 06/M07 A2963 RMK SLP062

CYQR;2009-11-13 22:00;CYQR 132200Z 21010G15KT 15SM SKC 05/M07 A2962 RMK SLP061

CYQR;2009-11-13 23:00;CYQR 132300Z 19006KT 15SM SKC 01/M09 A2964 RMK SLP065

CYQR;2009-11-14 00:00;CYQR 140000Z 18008KT 15SM SKC M04/M10 A2965 RMK SLP078

CYQR;2009-11-14 01:00;CYQR 140100Z 18009KT 15SM SKC M04/M09 A2966 RMK SLP082

CYQR;2009-11-14 02:00;CYQR 140200Z 18008KT 15SM SKC M07/M10 A2967 RMK SLP084

CYQR;2009-11-14 03:00;CYQR 140300Z 19009KT 15SM SKC M08/M11 A2968 RMK SLP090

CYQR;2009-11-14 04:00;CYQR 140400Z 18009KT 15SM SKC M08/M10 A2969 RMK SLP095

CYQR;2009-11-14 05:00;CYQR 140500Z 18009KT 15SM SKC M09/M11 A2969 RMK SLP095

CYQR;2009-11-14 06:00;CYQR 140600Z 19010KT 15SM SKC M09/M12 A2970 RMK SLP088

CYQR;2009-11-14 07:00;CYQR 140700Z 18009KT 15SM SKC M09/M11 A2970 RMK SLP090

CYQR;2009-11-14 08:00;CYQR 140800Z 18010KT 15SM SKC M09/M11 A2970 RMK SLP090

CYQR;2009-11-14 09:00;CYQR 140900Z 17010KT 15SM SKC M08/M11 A2971 RMK SLP090

CYQR;2009-11-14 10:00;CYQR 141000Z 17009KT 15SM SKC M09/M11 A2971 RMK SLP091

CYQR;2009-11-14 11:00;CYQR 141100Z 17008KT 12SM SKC M09/M11 A2972 RMK SLP092

CYQR;2009-11-14 12:00;CYQR 141200Z 16010KT 15SM SKC M09/M11 A2973 RMK SLP104

CYQR;2009-11-14 13:00;CYQR 141300Z 15009KT 15SM SKC M09/M11 A2975 RMK SLP110

CYQR;2009-11-14 14:00;CYQR 141400Z 16007KT 15SM SKC M09/M11 A2976 RMK SLP113

CYQR;2009-11-14 15:00;CYQR 141500Z 16007KT 15SM SKC M08/M11 A2978 RMK SLP122

CYQR;2009-11-14 16:00;CYQR 141600Z 19005KT 15SM SKC M05/M09 A2979 RMK SLP128

CYQR;2009-11-14 17:00;CYQR 141700Z 25008KT 15SM SKC M01/M06 A2980 RMK SLP130

CYQR;2009-11-14 18:00;CYQR 141800Z 26009KT 15SM SKC 01/M07 A2981 RMK SLP128

CYQR;2009-11-14 19:00;CYQR 141900Z 25009KT 15SM SKC 02/M07 A2982 RMK SLP130

CYQR;2009-11-14 20:00;CYQR 142000Z 27007KT 15SM FEW150 03/M07 A2982 RMK AC1 SLP132

CYQR;2009-11-14 21:00;CYQR 142100Z 29010KT 15SM FEW150 02/M07 A2983 RMK AC1 SLP133

CYQR;2009-11-14 22:00;CYQR 142200Z 29011KT 15SM SCT260 02/M07 A2985 RMK CI1 SLP140

CYQR;2009-11-14 23:00;CYQR 142300Z 30009KT 15SM FEW260 M03/M09 A2987 RMK CI1 SLP147

CYQR;2009-11-15 00:00;CYQR 150000Z 29009KT 15SM FEW260 M05/M10 A2989 RMK CI1 SLP159

CYQR;2009-11-15 01:00;CYQR 150100Z 29007KT 15SM SKC M07/M10 A2991 RMK SLP167

CYQR;2009-11-15 02:00;CYQR 150200Z 30007KT 15SM SKC M09/M11 A2993 RMK SLP171

CYQR;2009-11-15 03:00;CYQR 150300Z 28004KT 15SM SKC M09/M12 A2994 RMK SLP180

CYQR;2009-11-15 04:00;CYQR 150400Z 23003KT 15SM SCT250 M10/M12 A2996 RMK CI2 SLP187

CYQR;2009-11-15 05:00;CYQR 150500Z 31006KT 15SM FEW250 M10/M12 A2997 RMK CI1 SLP190

CYQR;2009-11-15 06:00;CYQR 150600Z 28009KT 15SM SKC M09/M11 A2999 RMK SLP188

CYQR;2009-11-15 07:00;CYQR 150700Z 30004KT 15SM SKC M10/M12 A2999 RMK SLP191

CYQR;2009-11-15 08:00;CYQR 150800Z 21003KT 15SM SKC M11/M13 A3000 RMK SLP192

CYQR;2009-11-15 09:00;CYQR 150900Z 19005KT 15SM SKC M11/M13 A3001 RMK SLP197

CYQR;2009-11-15 10:00;CYQR 151000Z 20003KT 15SM SKC M11/M13 A3001 RMK SLP197

CYQR;2009-11-15 11:00;CYQR 151100Z 20005KT 15SM SKC M11/M13 A3001 RMK SLP197

CYQR;2009-11-15 12:00;CYQR 151200Z 17007KT 15SM SKC M10/M12 A3001 RMK SLP203

CYQR;2009-11-15 13:00;CYQR 151300Z 17008KT 15SM SKC M10/M12 A3000 RMK SLP200

CYQR;2009-11-15 14:00;CYQR 151400Z 17009KT 15SM FEW150 FEW350 M10/M12 A3002 RMK AC1CI0 SLP204

CYQR;2009-11-15 15:00;CYQR 151500Z 17009KT 15SM SCT310 M08/M10 A3002 RMK CI0 SLP206

CYQR;2009-11-15 16:00;CYQR 151600Z 18007KT 15SM SCT310 M05/M08 A3003 RMK CI1 SLP209

CYQR;2009-11-15 17:00;CYQR 151700Z 21013KT 15SM BKN310 M00/M06 A3002 RMK CI2 SLP208

CYQR;2009-11-15 18:00;CYQR 151800Z 21017KT 15SM BKN310 03/M06 A3001 RMK CI2 SLP195

CYQR;2009-11-15 19:00;CYQR 151900Z 22022KT 15SM BKN310 05/M09 A2999 RMK CI2 SLP189

CYQR;2009-11-15 20:00;CYQR 152000Z 22018G27KT 15SM FEW230 BKN310 06/M09 A2999 RMK CI2CI2 SLP188

CYQR;2009-11-15 21:00;CYQR 152100Z 22020KT 15SM FEW230 BKN310 06/M10 A2996 RMK CI1CI1 SLP179

CYQR;2009-11-15 22:00;CYQR 152200Z 22015KT 15SM FEW230 BKN310 06/M11 A2996 RMK CI1CI1 SLP178

CYQR;2009-11-15 23:00;CYQR 152300Z 21009KT 15SM FEW230 BKN310 01/M12 A2996 RMK CI1CI1 SLP179

CYQR;2009-11-16 00:00;CYQR 160000Z 19011KT 15SM FEW230 BKN310 M04/M12 A2997 RMK CI1CI1 SLP188

CYQR;2009-11-16 01:00;CYQR 160100Z 18009KT 15SM BKN290 M03/M11 A2998 RMK CI1 SLP190

CYQR;2009-11-16 02:00;CYQR 160200Z 18010KT 15SM BKN290 M03/M10 A2997 RMK CI1 SLP187

CYQR;2009-11-16 03:00;CYQR 160300Z 17010KT 15SM BKN290 M03/M10 A2997 RMK CI2 SLP184

CYQR;2009-11-16 04:00;CYQR 160400Z 17009KT 15SM BKN290 M03/M10 A2996 RMK CI2 SLP183

CYQR;2009-11-16 05:00;CYQR 160500Z 18008KT 15SM BKN290 M03/M09 A2995 RMK CI2 SLP180

CYQR;2009-11-16 06:00;CYQR 160600Z 20008KT 15SM BKN290 M02/M08 A2995 RMK CI0 SLP169

CYQR;2009-11-16 07:00;CYQR 160700Z 19009KT 15SM SKC M02/M08 A2995 RMK SLP171

CYQR;2009-11-16 08:00;CYQR 160800Z 21011KT 15SM SKC M00/M08 A2995 RMK SLP170

CYQR;2009-11-16 09:00;CYQR 160900Z 21007KT 15SM SKC M01/M08 A2996 RMK SLP169

CYQR;2009-11-16 10:00;CYQR 161000Z 21006KT 15SM SKC M01/M07 A2995 RMK SLP167

CYQR;2009-11-16 11:00;CYQR 161100Z 20008KT 15SM FEW230 M02/M07 A2994 RMK CI0 SLP164

CYQR;2009-11-16 12:00;CYQR 161200Z 18010KT 15SM FEW230 M02/M07 A2994 RMK CI0 SLP172

CYQR;2009-11-16 13:00;CYQR 161300Z 17008KT 15SM SCT230 M02/M07 A2994 RMK CI1 SLP170

CYQR;2009-11-16 14:00;CYQR 161400Z 18009KT 15SM FEW230 BKN300 M02/M07 A2994 RMK CI1CI2 SLP170

CYQR;2009-11-16 15:00;CYQR 161500Z 18009KT 15SM FEW100 SCT230 BKN300 M01/M06 A2993 RMK AC1CI2CI1 SLP167

CYQR;2009-11-16 16:00;CYQR 161600Z 20011KT 15SM FEW100 FEW230 BKN300 04/M04 A2993 RMK AC1CI2CI4 SLP165

CYQR;2009-11-16 17:00;CYQR 161700Z 20012KT 15SM FEW230 BKN300 07/M03 A2993 RMK CI2CI4 SLP165

CYQR;2009-11-16 18:00;CYQR 161800Z 22017G24KT 15SM SCT092 BKN230 BKN300 11/M03 A2992 RMK AC3CI2CI1 SLP154

CYQR;2009-11-16 19:00;CYQR 161900Z 23019G25KT 15SM FEW059 BKN092 BKN230 OVC300 12/M03 A2989 RMK SC2AC3CI2CI0 SLP144

CYQR;2009-11-16 20:00;CYQR 162000Z 22020G26KT 15SM SCT082 BKN230 BKN300 13/M02 A2988 RMK AC3CI2CI1 SLP140

CYQR;2009-11-16 21:00;CYQR 162100Z 22021KT 15SM FEW100 SCT230 BKN300 13/M03 A2986 RMK AC2CI2CI1 SLP132

CYQR;2009-11-16 22:00;CYQR 162200Z 20014KT 15SM FEW078 SCT230 BKN300 11/M03 A2986 RMK AC2CI2CI1 SLP132

CYQR;2009-11-16 23:00;CYQR 162300Z 19011KT 15SM FEW096 SCT230 BKN300 09/M03 A2985 RMK AC2CI2CI1 SLP129

CYQR;2009-11-17 00:00;CYQR 170000Z 17009KT 15SM FEW230 BKN300 05/M04 A2985 RMK CI2CI1 SLP135

CYQR;2009-11-17 01:00;CYQR 170100Z 18013KT 15SM FEW230 BKN300 05/M04 A2985 RMK CI2CI1 SLP135

CYQR;2009-11-17 02:00;CYQR 170200Z 17010KT 15SM FEW230 BKN300 03/M05 A2985 RMK CI2CI0 SLP135

CYQR;2009-11-17 03:00;CYQR 170300Z 17010KT 15SM BKN230 02/M05 A2985 RMK CI2 SLP136

CYQR;2009-11-17 04:00;CYQR 170400Z 16008KT 15SM BKN230 00/M05 A2985 RMK CI2 SLP135

CYQR;2009-11-17 05:00;CYQR 170500Z 18013KT 15SM BKN230 01/M05 A2984 RMK CI4 SLP131

CYQR;2009-11-17 06:00;CYQR 170600Z 18010KT 15SM BKN230 02/M04 A2983 RMK CI4 SLP119

CYQR;2009-11-17 07:00;CYQR 170700Z 18009KT 15SM BKN230 02/M04 A2983 RMK CI4 SLP119

CYQR;2009-11-17 08:00;CYQR 170800Z 16007KT 15SM BKN230 01/M04 A2983 RMK CI4 SLP118

CYQR;2009-11-17 09:00;CYQR 170900Z 17009KT 15SM BKN230 02/M03 A2982 RMK CI4 SLP116

CYQR;2009-11-17 10:00;CYQR 171000Z 14008KT 15SM BKN230 01/M04 A2982 RMK CI2 SLP114

CYQR;2009-11-17 11:00;CYQR 171100Z 10009KT 15SM BKN230 M01/M04 A2980 RMK CI2 SLP110

CYQR;2009-11-17 12:00;CYQR 171200Z 12009KT 15SM SCT230 M03/M06 A2980 RMK CI0 SLP118

CYQR;2009-11-17 13:00;CYQR 171300Z 13011KT 15SM SCT250 M02/M05 A2978 RMK CI1 SLP112

CYQR;2009-11-17 14:00;CYQR 171400Z 15011KT 15SM FEW270 M00/M05 A2978 RMK CI0 SLP111

CYQR;2009-11-17 15:00;CYQR 171500Z 15013KT 15SM SCT270 01/M04 A2976 RMK CI1 SLP105

CYQR;2009-11-17 16:00;CYQR 171600Z 16009KT 15SM FEW100 BKN270 03/M03 A2976 RMK AC1CI1 SLP103

CYQR;2009-11-17 17:00;CYQR 171700Z 16010KT 15SM FEW100 FEW170 BKN290 09/M01 A2974 RMK AC1AC1CI1 CC ASOCTD SLP099

CYQR;2009-11-17 18:00;CYQR 171800Z 19013KT 15SM FEW100 SCT270 14/M02 A2972 RMK AC1CI0 SLP081

CYQR;2009-11-17 19:00;CYQR 171900Z 19018KT 15SM FEW120 BKN290 16/M04 A2971 RMK AC2CI0 SLP077

CYQR;2009-11-17 20:00;CYQR 172000Z 20016KT 15SM FEW120 BKN290 17/M04 A2969 RMK AC1CI3 SLP072

CYQR;2009-11-17 21:00;CYQR 172100Z 18011KT 15SM BKN120 BKN290 16/M05 A2969 RMK AC6CI2 SLP068

CYQR;2009-11-17 22:00;CYQR 172200Z 18012KT 15SM BKN120 BKN290 15/M05 A2969 RMK AC6CI2 SLP069

CYQR;2009-11-17 23:00;CYQR 172300Z 18014KT 15SM BKN120 BKN290 12/M05 A2969 RMK AC5CI1 SLP067

CYQR;2009-11-18 00:00;CYQR 180000Z 17011KT 15SM BKN110 BKN280 07/M05 A2969 RMK AC2CI2 SLP079

CYQR;2009-11-18 01:00;CYQR 180100Z 16011KT 15SM BKN110 BKN280 07/M05 A2969 RMK AC6CI1 SLP080

CYQR;2009-11-18 02:00;CYQR 180200Z 14011KT 15SM BKN110 BKN280 04/M06 A2970 RMK AC6CI1 SLP081

CYQR;2009-11-18 03:00;CYQR 180300Z 15012KT 15SM BKN110 BKN280 04/M05 A2969 RMK AC6CI1 SLP079

CYQR;2009-11-18 04:00;CYQR 180400Z 15010KT 15SM BKN110 BKN280 04/M05 A2970 RMK AC6CI1 SLP081

CYQR;2009-11-18 05:00;CYQR 180500Z 12009KT 15SM SCT110 BKN280 02/M05 A2971 RMK AC3CI1 SLP084

CYQR;2009-11-18 06:00;CYQR 180600Z 12009KT 15SM SCT110 BKN280 00/M06 A2971 RMK AC3CI1 SLP078

CYQR;2009-11-18 07:00;CYQR 180700Z 12007KT 15SM SCT110 BKN280 M00/M06 A2973 RMK AC3CI1 SLP085

CYQR;2009-11-18 08:00;CYQR 180800Z 14008KT 15SM SCT110 BKN280 M02/M06 A2974 RMK AC3CI1 SLP088

CYQR;2009-11-18 09:00;CYQR 180900Z 11006KT 15SM FEW250 M02/M07 A2975 RMK CI0 SLP093

CYQR;2009-11-18 10:00;CYQR 181000Z 12005KT 15SM SKC M03/M07 A2975 RMK SLP093

CYQR;2009-11-18 11:00;CYQR 181100Z 12006KT 15SM SKC M04/M07 A2976 RMK SLP096

CYQR;2009-11-18 12:00;CYQR 181200Z 12006KT 15SM SKC M05/M08 A2975 RMK SLP101

CYQR;2009-11-18 13:00;CYQR 181300Z 13008KT 15SM SKC M05/M07 A2974 RMK SLP098

CYQR;2009-11-18 14:00;CYQR 181400Z 10003KT 15SM SKC M06/M08 A2976 RMK SLP104

CYQR;2009-11-18 15:00;CYQR 181500Z 12005KT 15SM SKC M04/M07 A2976 RMK SLP105

CYQR;2009-11-18 16:00;CYQR 181600Z 00000KT 15SM FEW120 M00/M05 A2978 RMK AC1 SLP111

CYQR;2009-11-18 17:00;CYQR 181700Z 30003KT 15SM SKC 04/M03 A2978 RMK SLP112

CYQR;2009-11-18 18:00;CYQR 181800Z 01005KT 15SM SKC 08/M02 A2977 RMK SLP103

CYQR;2009-11-18 19:00;CYQR 181900Z 34008KT 15SM FEW120 11/M02 A2978 RMK AC1 SLP104

CYQR;2009-11-18 20:00;CYQR 182000Z 33011KT 15SM FEW120 12/M02 A2979 RMK AC1 SLP108

CYQR;2009-11-18 21:00;CYQR 182100Z 32013KT 15SM FEW140 12/M01 A2979 RMK AC1 SLP109

CYQR;2009-11-18 22:00;CYQR 182200Z 33010KT 15SM FEW140 FEW290 12/M02 A2980 RMK AC1CI1 SLP112

CYQR;2009-11-18 23:00;CYQR 182300Z 32009KT 8SM FEW140 FEW290 06/M03 A2983 RMK AC1CI1 HZ SLP120

CYQR;2009-11-19 00:00;CYQR 190000Z 32010KT 12SM FEW140 FEW290 04/M04 A2986 RMK AC1CI1 SLP139

CYQR;2009-11-19 01:00;CYQR 190100Z 33010KT 12SM SKC 01/M06 A2988 RMK SLP146

CYQR;2009-11-19 02:00;CYQR 190200Z 32005KT 15SM SKC M00/M07 A2990 RMK SLP152

CYQR;2009-11-19 03:00;CYQR 190300Z 29008KT 15SM SKC M02/M07 A2992 RMK SLP165

CYQR;2009-11-19 04:00;CYQR 190400Z 29007KT 15SM SKC M04/M07 A2994 RMK SLP171

CYQR;2009-11-19 05:00;CYQR 190500Z 27005KT 15SM SKC M05/M08 A2995 RMK SLP176

CYQR;2009-11-19 06:00;CYQR 190600Z 28007KT 15SM SCT250 M03/M07 A2998 RMK CI2 SLP176

CYQR;2009-11-19 07:00;CYQR 190700Z 29004KT 15SM SKC M04/M08 A2999 RMK SLP179

CYQR;2009-11-19 08:00;CYQR 190800Z 30005KT 15SM SKC M06/M10 A3000 RMK SLP183

CYQR;2009-11-19 09:00;CYQR 190900Z 28007KT 15SM SKC M07/M10 A3001 RMK SLP189

CYQR;2009-11-19 10:00;CYQR 191000Z 27006KT 15SM SKC M09/M11 A3001 RMK SLP189

CYQR;2009-11-19 11:00;CYQR 191100Z 26004KT 15SM SKC M09/M11 A3003 RMK SLP193

CYQR;2009-11-19 12:00;CYQR 191200Z 25004KT 15SM SKC M11/M13 A3003 RMK SLP203

CYQR;2009-11-19 13:00;CYQR 191300Z 22004KT 15SM SKC M12/M14 A3004 RMK SLP207

CYQR;2009-11-19 14:00;CYQR 191400Z 23003KT 15SM FEW280 M11/M14 A3005 RMK CI1 SLP210

CYQR;2009-11-19 15:00;CYQR 191500Z 17005KT 15SM FEW280 M08/M11 A3005 RMK CI0 SLP213

CYQR;2009-11-19 16:00;CYQR 191600Z 15005KT 15SM FEW280 M04/M09 A3005 RMK CI1 SLP214

CYQR;2009-11-19 17:00;CYQR 191700Z 18005KT 15SM BKN280 M01/M08 A3005 RMK CI1 SLP212

CYQR;2009-11-19 18:00;CYQR 191800Z 15010KT 15SM FEW090 BKN270 02/M05 A3002 RMK AC1CI2 SLP193

CYQR;2009-11-19 19:00;CYQR 191900Z 19015KT 15SM FEW090 BKN270 08/M07 A2999 RMK AC1CI2 SLP184

CYQR;2009-11-19 20:00;CYQR 192000Z 22016G21KT 15SM FEW090 BKN270 09/M08 A2997 RMK AC1CI1 SLP177

CYQR;2009-11-19 21:00;CYQR 192100Z 22014G19KT 15SM FEW090 FEW270 09/M09 A2995 RMK AC1CI0 SLP170

CYQR;2009-11-19 22:00;CYQR 192200Z 21012KT 15SM FEW120 SCT270 08/M09 A2995 RMK AC1CI0 SLP169

CYQR;2009-11-19 23:00;CYQR 192300Z 17011KT 15SM FEW270 03/M09 A2993 RMK CI1 SLP162

CYQR;2009-11-20 00:00;CYQR 200000Z 17012KT 15SM FEW270 01/M09 A2992 RMK CI1 SLP168

CYQR;2009-11-20 01:00;CYQR 200100Z 17011KT 15SM FEW270 00/M09 A2993 RMK CI1 SLP169

CYQR;2009-11-20 02:00;CYQR 200200Z 17009KT 15SM BKN270 M01/M08 A2993 RMK CI2 SLP169

CYQR;2009-11-20 03:00;CYQR 200300Z 16010KT 15SM SCT270 M00/M08 A2992 RMK CI1 SLP166

CYQR;2009-11-20 04:00;CYQR 200400Z 16008KT 15SM BKN270 M01/M08 A2992 RMK CI2 SLP165

CYQR;2009-11-20 05:00;CYQR 200500Z 17009KT 15SM OVC270 M01/M07 A2990 RMK CI8 SLP159

CYQR;2009-11-20 06:00;CYQR 200600Z 13007KT 15SM OVC270 M01/M07 A2989 RMK CI8 SLP150

CYQR;2009-11-20 07:00;CYQR 200700Z 14008KT 15SM OVC270 M01/M07 A2988 RMK CI8 SLP146

CYQR;2009-11-20 08:00;CYQR 200800Z 12007KT 15SM OVC270 M01/M06 A2988 RMK CI8 SLP146

CYQR;2009-11-20 09:00;CYQR 200900Z 13008KT 15SM SCT270 M03/M07 A2987 RMK CI1 SLP137

CYQR;2009-11-20 10:00;CYQR 201000Z 13010KT 15SM SKC M03/M07 A2987 RMK SLP137

CYQR;2009-11-20 11:00;CYQR 201100Z 15009KT 15SM SKC M03/M07 A2985 RMK SLP133

CYQR;2009-11-20 12:00;CYQR 201200Z 14010KT 15SM SKC M04/M07 A2985 RMK SLP137

CYQR;2009-11-20 13:00;CYQR 201300Z 14009KT 15SM SKC M04/M07 A2984 RMK SLP134

CYQR;2009-11-20 14:00;CYQR 201400Z 14010KT 15SM FEW280 M04/M07 A2984 RMK CI1 SLP133

CYQR;2009-11-20 15:00;CYQR 201500Z 13008KT 15SM SCT080 BKN270 M03/M07 A2983 RMK AC3CI2 SLP130

CYQR;2009-11-20 16:00;CYQR 201600Z 13008KT 15SM BKN120 OVC270 M02/M06 A2982 RMK AC5CI2 SLP127

CYQR;2009-11-20 17:00;CYQR 201700Z 14010KT 15SM FEW120 OVC270 01/M04 A2980 RMK AC2CS6 SLP122

CYQR;2009-11-20 18:00;CYQR 201800Z 15011G16KT 15SM FEW120 OVC270 04/M03 A2978 RMK AC2CS6 SLP108

CYQR;2009-11-20 19:00;CYQR 201900Z 16010KT 15SM FEW120 OVC270 09/M01 A2974 RMK AC2CI4 SLP098

CYQR;2009-11-20 20:00;CYQR 202000Z 18014KT 15SM FEW074 BKN270 12/M02 A2972 RMK AC2CI2 SLP090

CYQR;2009-11-20 21:00;CYQR 202100Z 18015KT 15SM FEW080 OVC270 12/M03 A2969 RMK AC2CI3 SLP073

CYQR;2009-11-20 22:00;CYQR 202200Z 15012KT 15SM FEW110 BKN270 11/M04 A2966 RMK AC2CI1 SLP064

CYQR;2009-11-20 23:00;CYQR 202300Z 15014G19KT 15SM SCT095 BKN270 09/M04 A2964 RMK AC4CI2 SLP060

CYQR;2009-11-21 00:00;CYQR 210000Z 15014KT 15SM SCT100 BKN270 07/M04 A2962 RMK AC3CI2 SLP056

CYQR;2009-11-21 01:00;CYQR 210100Z 15015KT 15SM FEW120 BKN250 05/M04 A2960 RMK AC2CI2 SLP048

CYQR;2009-11-21 02:00;CYQR 210200Z 15014KT 15SM BKN270 05/M04 A2958 RMK CI3 SLP042

CYQR;2009-11-21 03:00;CYQR 210300Z 15016KT 15SM BKN270 04/M04 A2955 RMK CI3 SLP032

CYQR;2009-11-21 04:00;CYQR 210400Z 14014KT 15SM BKN270 04/M05 A2953 RMK CI3 SLP026

CYQR;2009-11-21 05:00;CYQR 210500Z 13012KT 15SM BKN270 04/M05 A2950 RMK CI3 SLP016

CYQR;2009-11-21 06:00;CYQR 210600Z 15011KT 15SM BKN270 04/M05 A2947 RMK CI3 SLP001

CYQR;2009-11-21 07:00;CYQR 210700Z 15013KT 15SM BKN240 04/M05 A2944 RMK CI3 SLP992

CYQR;2009-11-21 08:00;CYQR 210800Z 15015KT 15SM BKN240 04/M05 A2941 RMK CI3 SLP980

CYQR;2009-11-21 09:00;CYQR 210900Z 14012KT 15SM BKN240 03/M06 A2939 RMK CI2 SLP969

CYQR;2009-11-21 10:00;CYQR 211000Z 14012KT 15SM BKN240 02/M06 A2937 RMK CI2 SLP961

CYQR;2009-11-21 11:00;CYQR 211100Z 14013KT 15SM BKN240 02/M06 A2934 RMK CI2 SLP952

CYQR;2009-11-21 12:00;CYQR 211200Z 15012KT 15SM BKN240 01/M06 A2933 RMK CI2 SLP952

CYQR;2009-11-21 13:00;CYQR 211300Z 15012KT 15SM BKN240 00/M06 A2932 RMK CI2 SLP949

CYQR;2009-11-21 14:00;CYQR 211400Z 16006KT 15SM BKN240 M01/M06 A2932 RMK CI3 SLP948

CYQR;2009-11-21 15:00;CYQR 211500Z 14005KT 15SM SCT091 BKN240 M01/M06 A2930 RMK AC3CI2 SLP946

CYQR;2009-11-21 16:00;CYQR 211600Z 17006KT 15SM FEW086 OVC240 M01/M06 A2932 RMK AC2CI5 SLP950

CYQR;2009-11-21 17:00;CYQR 211700Z 23007KT 15SM SCT080 OVC240 05/M04 A2932 RMK AC3CI5 SLP952

CYQR;2009-11-21 18:00;CYQR 211800Z 27013G18KT 15SM BKN084 OVC240 08/M05 A2932 RMK AC5CI2 SLP947

CYQR;2009-11-21 19:00;CYQR 211900Z 28019G24KT 15SM FEW074 BKN240 10/M04 A2934 RMK AC2CI1 SLP952

CYQR;2009-11-21 20:00;CYQR 212000Z 27020G25KT 15SM BKN240 10/M04 A2934 RMK CI3 CC ASOCTD SLP953

CYQR;2009-11-21 21:00;CYQR 212100Z 28020G26KT 15SM FEW080 SCT240 11/M05 A2936 RMK AC1CI2 SLP957

CYQR;2009-11-21 22:00;CYQR 212200Z 26022G29KT 15SM SCT100 10/M06 A2939 RMK AC2 SLP966

CYQR;2009-11-21 23:00;CYQR 212300Z 26018G25KT 15SM FEW100 07/M04 A2942 RMK AC1 SLP978

CYQR;2009-11-22 00:00;CYQR 220000Z 28022G27KT 15SM FEW100 FEW240 04/M05 A2946 RMK AC1CI1 TR AC SLP998

CYQR;2009-11-22 01:00;CYQR 220100Z 29013KT 15SM BKN027 OVC100 01/M05 A2949 RMK SC5AC3 SLP010

CYQR;2009-11-22 02:00;CYQR 220200Z 29016G25KT 15SM OVC025 03/M03 A2952 RMK SC8 SLP019

CYQR;2009-11-22 02:51;CYQR 220251Z 29018KT 15SM -RA OVC021 02/ RMK SC8

CYQR;2009-11-22 03:00;CYQR 220300Z 28017KT 15SM -RA OVC021 02/M03 A2956 RMK SC8 SLP034

CYQR;2009-11-22 03:44;CYQR 220344Z 30019G26KT 6SM -RASN OVC017 02/ RMK SC8

CYQR;2009-11-22 04:00;CYQR 220400Z 30021G27KT 3SM -RASN BKN017 OVC046 01/M01 A2959 RMK SC6SC2 SLP045

CYQR;2009-11-22 04:11;CYQR 220411Z 30018G24KT 2SM -SN OVC017 01/ RMK SN2SC6

CYQR;2009-11-22 04:37;CYQR 220437Z 29013KT 1SM R13/P6000FT/D -SN OVC046 00/ RMK SN2SC6

CYQR;2009-11-22 04:44;CYQR 220444Z 29012KT 1/2SM R13/P6000FT/D SN VV003 00/ RMK SN8

CYQR;2009-11-22 05:00;CYQR 220500Z 29015KT 1/2SM R13/P6000FT/U SN VV003 00/M00 A2963 RMK SN8 SLP056

CYQR;2009-11-22 05:08;CYQR 220508Z 29014KT 1 1/2SM -SN OVC020 00/ RESN RMK SN2SC6

CYQR;2009-11-22 05:15;CYQR 220515Z 28014KT 6SM -SN OVC020 01/ RMK SC8

CYQR;2009-11-22 05:43;CYQR 220543Z CCA 28014KT 6SM -SN OVC020 01/ RESN RMK SC8

CYQR;2009-11-22 05:44;CYQR 220544Z 29016KT 15SM SCT028 OVC072 01/ RESN RMK SC3AC5

CYQR;2009-11-22 06:00;CYQR 220600Z 29015KT 15SM FEW028 SCT072 00/M02 A2965 RESN RMK SC2AC2 /S01/ SLP061

CYQR;2009-11-22 07:00;CYQR 220700Z 28012KT 15SM FEW093 M01/M03 A2967 RMK AC2 SLP067

CYQR;2009-11-22 08:00;CYQR 220800Z 27011KT 15SM SKC M02/M04 A2969 RMK SLP074

CYQR;2009-11-22 09:00;CYQR 220900Z 28013G19KT 15SM SKC M03/M05 A2972 RMK SLP085

CYQR;2009-11-22 10:00;CYQR 221000Z 27009KT 15SM SKC M04/M07 A2974 RMK SLP092

CYQR;2009-11-22 11:00;CYQR 221100Z 26010KT 15SM SKC M08/M10 A2975 RMK SLP096

CYQR;2009-11-22 12:00;CYQR 221200Z 22006KT 15SM SKC M10/M12 A2976 RMK SLP111

CYQR;2009-11-22 13:00;CYQR 221300Z 25008KT 15SM SKC M10/M12 A2978 RMK SLP115

CYQR;2009-11-22 14:00;CYQR 221400Z 20004KT 15SM FEW080 M10/M13 A2978 RMK AC1 SLP117

CYQR;2009-11-22 15:00;CYQR 221500Z 21007KT 15SM FEW080 FEW350 M10/M12 A2978 RMK AC1CI1 SLP118

CYQR;2009-11-22 16:00;CYQR 221600Z 17007KT 15SM FEW080 M06/M08 A2978 RMK AC1 SLP118

CYQR;2009-11-22 17:00;CYQR 221700Z 20005KT 15SM FEW080 FEW250 M03/M06 A2979 RMK AC1CI1 SLP121

CYQR;2009-11-22 18:00;CYQR 221800Z 19006KT 15SM FEW250 M01/M04 A2978 RMK CI1 SLP112

CYQR;2009-11-22 19:00;CYQR 221900Z 20008KT 15SM FEW250 01/M03 A2977 RMK CI1 SLP110

CYQR;2009-11-22 20:00;CYQR 222000Z 21010KT 15SM FEW080 FEW250 03/M03 A2977 RMK AC1CI1 SLP109

CYQR;2009-11-22 21:00;CYQR 222100Z 23012KT 15SM FEW250 04/M04 A2977 RMK CI1 SLP108

CYQR;2009-11-22 22:00;CYQR 222200Z 23009KT 15SM FEW250 03/M05 A2978 RMK CI0 SLP111

CYQR;2009-11-22 23:00;CYQR 222300Z 21006KT 15SM FEW250 M00/M05 A2979 RMK CI0 SLP114

CYQR;2009-11-23 00:00;CYQR 230000Z 20006KT 15SM FEW250 M02/M06 A2980 RMK CI1 SLP129

CYQR;2009-11-23 01:00;CYQR 230100Z 16006KT 15SM FEW250 M03/M07 A2982 RMK CI1 SLP133

CYQR;2009-11-23 02:00;CYQR 230200Z 15006KT 15SM SKC M05/M09 A2983 RMK SLP138

CYQR;2009-11-23 03:00;CYQR 230300Z 14006KT 15SM SKC M05/M09 A2984 RMK SLP144

CYQR;2009-11-23 04:00;CYQR 230400Z 12008KT 15SM SKC M07/M10 A2986 RMK SLP149

CYQR;2009-11-23 05:00;CYQR 230500Z 12006KT 15SM SKC M08/M11 A2987 RMK SLP152

CYQR;2009-11-23 06:00;CYQR 230600Z 12007KT 15SM FEW094 M09/M12 A2988 RMK AC2 SLP153

CYQR;2009-11-23 07:00;CYQR 230700Z 12006KT 15SM FEW094 M08/M11 A2989 RMK AC1 SLP155

CYQR;2009-11-23 08:00;CYQR 230800Z 12008KT 15SM FEW095 M07/M10 A2989 RMK AC1 SLP155

CYQR;2009-11-23 09:00;CYQR 230900Z 13009KT 15SM FEW100 BKN260 M06/M09 A2989 RMK AC1CI2 SLP151

CYQR;2009-11-23 10:00;CYQR 231000Z 14009KT 15SM FEW100 BKN260 M06/M09 A2990 RMK AC2CI2 SLP154

CYQR;2009-11-23 11:00;CYQR 231100Z 14008KT 15SM FEW100 SCT260 M06/M09 A2991 RMK AC1CI1 SLP158

CYQR;2009-11-23 12:00;CYQR 231200Z 15008KT 15SM SCT260 M06/M09 A2993 RMK CI1 SLP168

CYQR;2009-11-23 13:00;CYQR 231300Z 13009KT 15SM SCT260 M07/M09 A2993 RMK CI1 SLP168

CYQR;2009-11-23 14:00;CYQR 231400Z 16006KT 15SM FEW120 BKN260 M07/M10 A2995 RMK AC1CI2 SLP176

CYQR;2009-11-23 15:00;CYQR 231500Z 14005KT 15SM FEW120 BKN260 M07/M10 A2997 RMK AC2CI5 SLP185

CYQR;2009-11-23 16:00;CYQR 231600Z 14007KT 15SM FEW120 BKN260 M05/M08 A2998 RMK AC1CI4 SLP188

CYQR;2009-11-23 17:00;CYQR 231700Z 17007KT 15SM FEW120 BKN260 M02/M05 A2998 RMK AC1CI3 SLP188

CYQR;2009-11-23 18:00;CYQR 231800Z 14006KT 15SM FEW120 SCT260 00/M05 A2997 RMK AC1CI2 SLP184

CYQR;2009-11-23 19:00;CYQR 231900Z 19003KT 15SM FEW120 BKN260 01/M04 A2997 RMK AC1CI2 SLP184

CYQR;2009-11-23 20:00;CYQR 232000Z 16005KT 15SM FEW210 SCT300 03/M04 A2997 RMK CI1CI1 SLP182

CYQR;2009-11-23 21:00;CYQR 232100Z 16003KT 15SM FEW210 SCT300 04/M04 A2996 RMK CI2CI1 SLP177

CYQR;2009-11-23 22:00;CYQR 232200Z 27011KT 15SM FEW210 FEW300 04/M05 A2998 RMK CI1CI1 SLP181

CYQR;2009-11-23 23:00;CYQR 232300Z 28004KT 15SM FEW210 01/M06 A2998 RMK CI1 SLP183

CYQR;2009-11-24 00:00;CYQR 240000Z 25003KT 15SM SKC M01/M06 A2999 RMK SLP188

CYQR;2009-11-24 01:00;CYQR 240100Z 27008KT 15SM SKC M05/M08 A3000 RMK SLP194

CYQR;2009-11-24 02:00;CYQR 240200Z 28010KT 15SM SKC M06/M08 A3001 RMK SLP196

CYQR;2009-11-24 03:00;CYQR 240300Z 28008KT 15SM FEW085 M06/M08 A3003 RMK AC2 SLP208

CYQR;2009-11-24 04:00;CYQR 240400Z 28005KT 15SM FEW090 M09/M10 A3003 RMK AC2 SLP207

CYQR;2009-11-24 05:00;CYQR 240500Z 30004KT 15SM SKC M09/M11 A3003 RMK SLP207

CYQR;2009-11-24 06:00;CYQR 240600Z 28006KT 15SM SKC M09/M11 A3002 RMK SLP202

CYQR;2009-11-24 07:00;CYQR 240700Z 27005KT 15SM FEW093 M10/M11 A3001 RMK AC2 SLP199

CYQR;2009-11-24 08:00;CYQR 240800Z 26003KT 15SM SCT095 M11/M12 A3002 RMK AC3 SLP200

CYQR;2009-11-24 09:00;CYQR 240900Z 25002KT 15SM FEW095 M10/M12 A3001 RMK AC2 SLP196

CYQR;2009-11-24 10:00;CYQR 241000Z 00000KT 15SM SCT080 M10/M11 A3001 RMK AC3 SLP196

CYQR;2009-11-24 11:00;CYQR 241100Z 19004KT 15SM SCT080 M09/M10 A3000 RMK AC3 SLP194

CYQR;2009-11-24 12:00;CYQR 241200Z 14005KT 15SM FEW085 M09/M11 A2998 RMK AC2 SLP189

CYQR;2009-11-24 13:00;CYQR 241300Z 12007KT 15SM SKC M09/M11 A2995 RMK SLP180

CYQR;2009-11-24 14:00;CYQR 241400Z 14008KT 15SM FEW100 BKN250 M09/M11 A2993 RMK AC2CI1 SLP172

CYQR;2009-11-24 15:00;CYQR 241500Z 15008KT 15SM FEW100 OVC250 M08/M10 A2993 RMK AC2CI6 SLP174

CYQR;2009-11-24 16:00;CYQR 241600Z 13007KT 15SM BKN110 OVC250 M06/M09 A2992 RMK AC6CI2 SLP171

CYQR;2009-11-24 17:00;CYQR 241700Z 14004KT 15SM BKN100 BKN250 M04/M07 A2993 RMK AC5CI2 SLP173

CYQR;2009-11-24 18:00;CYQR 241800Z 15003KT 15SM FEW100 BKN250 M01/M04 A2990 RMK AC2CI2 SLP160

CYQR;2009-11-24 19:00;CYQR 241900Z 29010KT 15SM SCT075 BKN100 BKN250 01/M03 A2989 RMK AC3AC2CI2 SLP159

CYQR;2009-11-24 20:00;CYQR 242000Z 30017KT 15SM FEW047 BKN086 BKN250 01/M04 A2990 RMK SC2AC2CI2 SLP162

CYQR;2009-11-24 21:00;CYQR 242100Z 31014KT 15SM SCT045 BKN080 BKN250 01/M03 A2991 RMK SC3AC3CI1 SLP163

CYQR;2009-11-24 22:00;CYQR 242200Z 32016KT 15SM FEW060 FEW085 BKN250 02/M04 A2994 RMK SC1AC1CI0 SLP171

CYQR;2009-11-24 23:00;CYQR 242300Z 32013KT 15SM FEW250 01/M04 A2995 RMK CI1 SLP177

CYQR;2009-11-25 00:00;CYQR 250000Z 32011KT 15SM FEW250 M01/M06 A2999 RMK CI0 SLP190

CYQR;2009-11-25 01:00;CYQR 250100Z 34005KT 15SM FEW250 M03/M07 A3000 RMK CI0 SLP196

CYQR;2009-11-25 02:00;CYQR 250200Z 30008KT 15SM FEW250 M05/M08 A3002 RMK CI0 SLP200

CYQR;2009-11-25 03:00;CYQR 250300Z 32015KT 15SM FEW045 FEW250 M01/M06 A3004 RMK SC1CI0 SLP208

CYQR;2009-11-25 04:00;CYQR 250400Z 30012KT 15SM FEW045 SCT250 M03/M07 A3007 RMK SC2CI0 SLP217

CYQR;2009-11-25 05:00;CYQR 250500Z 32011KT 15SM BKN037 M01/M05 A3009 RMK SC6 SLP222

CYQR;2009-11-25 06:00;CYQR 250600Z 32011KT 15SM BKN045 M02/M05 A3009 RMK SC6 SLP222

CYQR;2009-11-25 07:00;CYQR 250700Z 30008KT 15SM BKN049 M02/M04 A3011 RMK SC6 SLP228

CYQR;2009-11-25 08:00;CYQR 250800Z 32007KT 15SM BKN047 M02/M04 A3013 RMK SC6 SLP232

CYQR;2009-11-25 09:00;CYQR 250900Z 32008KT 15SM BKN041 M01/M04 A3014 RMK SC6 SLP236

CYQR;2009-11-25 10:00;CYQR 251000Z 31006KT 15SM OVC037 M01/M04 A3014 RMK SC8 SLP235

CYQR;2009-11-25 11:00;CYQR 251100Z 28006KT 15SM OVC026 M02/M04 A3016 RMK SC8 SLP241

CYQR;2009-11-25 12:00;CYQR 251200Z 29004KT 15SM OVC031 M02/M04 A3016 RMK SC8 SLP246

CYQR;2009-11-25 13:00;CYQR 251300Z 31006KT 15SM OVC033 M02/M05 A3017 RMK SC8 SLP248

CYQR;2009-11-25 14:00;CYQR 251400Z 31006KT 15SM OVC033 M02/M05 A3017 RMK SC8 SLP248

CYQR;2009-11-25 15:00;CYQR 251500Z 29005KT 15SM BKN038 M02/M05 A3018 RMK SC7 SLP251

CYQR;2009-11-25 16:00;CYQR 251600Z 30008KT 15SM SCT040 BKN250 M03/M06 A3018 RMK SC3CI0 SLP251

CYQR;2009-11-25 17:00;CYQR 251700Z 31005KT 15SM FEW040 FEW095 SCT250 M02/M06 A3019 RMK SC1AC1CI0 SLP254

CYQR;2009-11-25 18:00;CYQR 251800Z 31004KT 15SM FEW020 FEW095 FEW250 M00/M05 A3019 RMK CF1AC1CI0 SLP253

CYQR;2009-11-25 19:00;CYQR 251900Z 32003KT 15SM FEW020 BKN250 01/M05 A3019 RMK CF1CI0 CONTRAILS SLP253

CYQR;2009-11-25 20:00;CYQR 252000Z 28005KT 15SM FEW024 BKN250 01/M06 A3017 RMK CF1CI0 SLP249

CYQR;2009-11-25 21:00;CYQR 252100Z 26005KT 15SM FEW029 BKN250 02/M06 A3016 RMK CF1CI1 SLP242

CYQR;2009-11-25 22:00;CYQR 252200Z 22004KT 15SM FEW030 FEW130 SCT250 01/M06 A3015 RMK SC1AC1CI0 CONTRAILS SLP239

CYQR;2009-11-25 23:00;CYQR 252300Z 18005KT 15SM FEW030 FEW130 FEW250 M01/M07 A3014 RMK SC1AC1CI0 SLP234

CYQR;2009-11-26 00:00;CYQR 260000Z 17005KT 15SM FEW250 M03/M07 A3013 RMK CI1 SLP237

CYQR;2009-11-26 01:00;CYQR 260100Z 15006KT 15SM SKC M05/M08 A3012 RMK SLP233

CYQR;2009-11-26 02:00;CYQR 260200Z 16008KT 15SM SKC M05/M08 A3012 RMK SLP233

CYQR;2009-11-26 03:00;CYQR 260300Z 16009KT 15SM SKC M04/M07 A3011 RMK SLP230

CYQR;2009-11-26 04:00;CYQR 260400Z 16012KT 15SM SKC M06/M09 A3008 RMK SLP221

CYQR;2009-11-26 05:00;CYQR 260500Z 14012KT 15SM SKC M06/M09 A3004 RMK SLP209

CYQR;2009-11-26 06:00;CYQR 260600Z 14012KT 15SM SKC M06/M09 A3002 RMK SLP200

CYQR;2009-11-26 07:00;CYQR 260700Z 14014KT 15SM SKC M07/M09 A2999 RMK SLP189

CYQR;2009-11-26 08:00;CYQR 260800Z 13014KT 15SM SKC M06/M09 A2996 RMK SLP179

CYQR;2009-11-26 09:00;CYQR 260900Z 14013KT 15SM SKC M06/M09 A2995 RMK SLP175

CYQR;2009-11-26 10:00;CYQR 261000Z 14016KT 15SM SKC M06/M08 A2991 RMK PRESFF SLP162

CYQR;2009-11-26 11:00;CYQR 261100Z 14015KT 15SM SKC M06/M09 A2988 RMK SLP150

CYQR;2009-11-26 12:00;CYQR 261200Z 15013KT 15SM SKC M06/M08 A2986 RMK SLP146

CYQR;2009-11-26 13:00;CYQR 261300Z 14013KT 15SM SKC M06/M08 A2984 RMK SLP141

CYQR;2009-11-26 14:00;CYQR 261400Z 14014KT 15SM FEW100 BKN240 M06/M08 A2982 RMK AC1CI2 SLP132

CYQR;2009-11-26 15:00;CYQR 261500Z 14011KT 15SM FEW100 BKN240 M06/M08 A2981 RMK AC2CI2 SLP130

CYQR;2009-11-26 16:00;CYQR 261600Z 14014KT 15SM BKN095 BKN240 M04/M06 A2978 RMK AC6CI1 SLP120

CYQR;2009-11-26 17:00;CYQR 261700Z 15009KT 15SM SCT088 OVC240 M03/M05 A2979 RMK AC4CI3 SLP124

CYQR;2009-11-26 18:00;CYQR 261800Z 14006KT 15SM SCT085 BKN240 BKN300 M01/M04 A2977 RMK AC3CI2CI0 SLP113

CYQR;2009-11-26 19:00;CYQR 261900Z 13007KT 15SM FEW085 BKN240 BKN300 02/M02 A2974 RMK AC2CI2CI1 SLP102

CYQR;2009-11-26 20:00;CYQR 262000Z 16006KT 15SM FEW085 BKN240 BKN300 04/M01 A2973 RMK AC2CI2CI1 SLP100

CYQR;2009-11-26 21:00;CYQR 262100Z 13004KT 15SM FEW090 BKN240 BKN300 06/M00 A2972 RMK AC2CI2CI1 SLP091

CYQR;2009-11-26 22:00;CYQR 262200Z 15004KT 15SM FEW100 OVC300 05/M00 A2973 RMK AC2CI5 SLP094

CYQR;2009-11-26 23:00;CYQR 262300Z 13006KT 15SM FEW100 BKN300 02/M02 A2971 RMK AC2CI1 SLP089

CYQR;2009-11-27 00:00;CYQR 270000Z 16005KT 15SM FEW100 BKN300 01/M02 A2972 RMK AC2CI2 SLP094

CYQR;2009-11-27 01:00;CYQR 270100Z 10003KT 15SM FEW100 BKN300 M01/M03 A2971 RMK AC2CI2 SLP091

CYQR;2009-11-27 02:00;CYQR 270200Z 10003KT 15SM FEW100 BKN300 M03/M04 A2968 RMK AC2CI2 SLP083

CYQR;2009-11-27 03:00;CYQR 270300Z 15004KT 15SM FEW100 BKN300 M04/M06 A2967 RMK AC2CI2 SLP082

CYQR;2009-11-27 04:00;CYQR 270400Z 18008KT 15SM FEW100 BKN300 M04/M05 A2967 RMK AC2CI2 SLP080

CYQR;2009-11-27 05:00;CYQR 270500Z 00000KT 15SM FEW100 BKN300 M03/M05 A2965 RMK AC2CI2 SLP076

CYQR;2009-11-27 06:00;CYQR 270600Z 12002KT 15SM SCT280 M04/M05 A2964 RMK CI2 SLP068

CYQR;2009-11-27 07:00;CYQR 270700Z 10004KT 15SM SCT280 M04/M06 A2963 RMK CI0 SLP065

CYQR;2009-11-27 08:00;CYQR 270800Z 12004KT 15SM SCT280 M05/M06 A2963 RMK CI0 SLP064

CYQR;2009-11-27 09:00;CYQR 270900Z 31010KT 15SM SCT280 M07/M09 A2967 RMK CI0 SLP075

CYQR;2009-11-27 10:00;CYQR 271000Z 33011KT 15SM SCT280 M05/M06 A2969 RMK CI0 SLP082

CYQR;2009-11-27 11:00;CYQR 271100Z 32013KT 10SM VCFG SKC M04/M05 A2973 RMK SLP093

CYQR;2009-11-27 12:00;CYQR 271200Z 31010KT 15SM SKC M04/M06 A2976 RMK SLP107

CYQR;2009-11-27 13:00;CYQR 271300Z 32009KT 15SM SCT054 BKN300 M05/M06 A2975 RMK SC4CI2 SLP106

CYQR;2009-11-27 14:00;CYQR 271400Z 30010KT 15SM SCT049 BKN120 BKN300 M05/M07 A2979 RMK SC2AC1CI1 SLP116

CYQR;2009-11-27 15:00;CYQR 271500Z 32007KT 15SM FEW045 FEW120 BKN300 M05/M06 A2980 RMK SC1AC1CI0 SLP124

CYQR;2009-11-27 16:00;CYQR 271600Z 25002KT 15SM FEW083 SCT300 M03/M05 A2981 RMK AC2CI0 SLP128

CYQR;2009-11-27 17:00;CYQR 271700Z 31005KT 15SM FEW100 SCT300 M03/M04 A2982 RMK AC1CI0 SLP130

CYQR;2009-11-27 17:47;CYQR 271747Z 33008KT 15SM BKN005 BKN100 BKN300 M01/ RMK SF2AC1CI1

CYQR;2009-11-27 18:00;CYQR 271800Z 33008KT 15SM BKN005 BKN100 BKN300 00/M01 A2981 RMK SF5AC1CI1 SLP126

CYQR;2009-11-27 18:33;CYQR 271833Z 34011KT 10SM BKN004 00/ RMK SF6

CYQR;2009-11-27 18:46;CYQR 271846Z 34011KT 9SM BKN003 01/ RMK SF7

CYQR;2009-11-27 19:00;CYQR 271900Z 32011KT 6SM BR BKN002 01/M00 A2981 RMK SF7 SLP125

CYQR;2009-11-27 19:06;CYQR 271906Z 32011KT 5/8SM R13/4000VP6000FT/D BR OVC001 00/ RMK FG3SF5 VIS HIER E

CYQR;2009-11-27 19:09;CYQR 271909Z 32010KT 3/8SM R13/3500VP6000FT/D FZFG VV001 M00/ RMK FG8

CYQR;2009-11-27 19:26;CYQR 271926Z 31007KT 1/4SM R13/1400V2000FT/N FZFG VV001 M00/ RMK FG8 VIS VRB 1/8-3/8

CYQR;2009-11-27 19:44;CYQR 271944Z 30010KT 1/2SM R13/2800VP6000FT/U FZFG VV001 M00/ RMK FG8 VIS VRB 3/8-5/8

CYQR;2009-11-27 19:49;CYQR 271949Z 30008KT 3/4SM R13/3500VP6000FT/N BR OVC001 M00/ RMK FG3SF5

CYQR;2009-11-27 20:00;CYQR 272000Z 27006KT 3/4SM R13/3500V6000FT/D BR OVC001 M00/M00 A2980 RMK FG3SF5 VIS VRB 1/2-1 SLP123

CYQR;2009-11-27 20:35;CYQR 272035Z 32007KT 1 1/2SM R13/4500VP6000FT/U BR OVC001 01/ RMK SF8

CYQR;2009-11-27 20:40;CYQR 272040Z 31009KT 5SM BR OVC001 01/ RMK SF8

CYQR;2009-11-27 20:50;CYQR 272050Z 33007KT 10SM OVC002 01/ RMK SF8

CYQR;2009-11-27 21:00;CYQR 272100Z 33009KT 10SM OVC002 01/00 A2980 RMK SF8 SLP123

CYQR;2009-11-27 21:31;CYQR 272131Z 32007KT 12SM OVC003 01/ RMK SF8 CIG LWR E

CYQR;2009-11-27 22:00;CYQR 272200Z 30005KT 12SM OVC004 02/01 A2980 RMK SF8 SLP124

CYQR;2009-11-27 22:25;CYQR 272225Z 25003KT 12SM BKN005 OVC079 01/ RMK SC6AC2

CYQR;2009-11-27 22:32;CYQR 272232Z 24005KT 12SM SCT005 OVC079 01/ RMK SC4AC4

CYQR;2009-11-27 23:00;CYQR 272300Z 23004KT 15SM FEW005 OVC076 00/M01 A2981 RMK SC2AC6 SLP126

CYQR;2009-11-28 00:00;CYQR 280000Z 23005KT 15SM OVC066 00/M01 A2980 RMK AC8 SLP122

CYQR;2009-11-28 01:00;CYQR 280100Z 28006KT 15SM OVC077 01/M00 A2980 RMK AC8 SLP123

CYQR;2009-11-28 02:00;CYQR 280200Z 30009KT 10SM BKN042 OVC077 01/M00 A2982 RMK SC6AC2 SLP128

CYQR;2009-11-28 03:00;CYQR 280300Z 31008KT 10SM OVC042 01/M00 A2983 RMK SC8 SLP131

CYQR;2009-11-28 04:00;CYQR 280400Z 34007KT 10SM OVC049 01/M01 A2984 RMK SC8 SLP134

CYQR;2009-11-28 05:00;CYQR 280500Z 32005KT 15SM OVC044 M01/M02 A2984 RMK SC8 SLP137

CYQR;2009-11-28 06:00;CYQR 280600Z 30006KT 15SM SCT044 OVC067 M00/M01 A2985 RMK SC3AC5 SLP138

CYQR;2009-11-28 06:21;CYQR 280621Z 29005KT 10SM -SN OVC062 M01/ RMK SC8

CYQR;2009-11-28 07:00;CYQR 280700Z 31007KT 15SM -SN OVC067 M01/M02 A2986 RMK AC8 SLP141

CYQR;2009-11-28 07:38;CYQR 280738Z 31007KT 15SM OVC067 M01/ RMK AC8

CYQR;2009-11-28 08:00;CYQR 280800Z 32007KT 15SM OVC067 M01/M03 A2987 RMK AC8 SLP143

CYQR;2009-11-28 09:00;CYQR 280900Z 30007KT 15SM OVC067 M02/M04 A2989 RMK AC8 SLP149

CYQR;2009-11-28 10:00;CYQR 281000Z 27004KT 15SM BKN065 M04/M05 A2989 RMK SC6 SLP152

CYQR;2009-11-28 11:00;CYQR 281100Z 30009KT 15SM BKN062 M03/M05 A2990 RMK SC6 SLP154

CYQR;2009-11-28 11:40;CYQR 281140Z 30010KT 10SM -SN OVC050 M03/ RMK SC8

CYQR;2009-11-28 12:00;CYQR 281200Z 30009KT 8SM -SN OVC050 M03/M04 A2991 RMK SC8 SLP159

CYQR;2009-11-28 13:00;CYQR 281300Z 30009KT 5SM -SN OVC024 M02/M03 A2993 RMK SC8 SLP164

CYQR;2009-11-28 13:14;CYQR 281314Z 30008KT 5SM -SN BKN009 OVC024 M02/ RMK SF6SC2

CYQR;2009-11-28 13:37;CYQR 281337Z 30008KT 1 1/2SM -SN VV005 M02/ RMK SN8

CYQR;2009-11-28 14:00;CYQR 281400Z 29008KT 3SM -SN BKN006 OVC046 M02/M03 A2994 RMK SF6SC2 SLP167

CYQR;2009-11-28 14:32;CYQR 281432Z 30012KT 1 1/4SM -SN OVC015 M02/ RMK SN5SC3 VIS VRB 1-11/2

CYQR;2009-11-28 15:00;CYQR 281500Z 31010KT 1 1/2SM -SN OVC008 M01/M03 A2995 RMK SN2SC6 VIS VRB 1-2 SLP170

CYQR;2009-11-28 15:23;CYQR 281523Z 31009KT 4SM -SN BKN008 OVC058 M01/ RMK SC7SC1

CYQR;2009-11-28 15:40;CYQR 281540Z 30010KT 1 1/4SM -SN OVC006 M01/ RMK SN6SC2 VIS VRB 1-11/2

CYQR;2009-11-28 16:00;CYQR 281600Z 31011KT 3SM -SN BKN006 OVC058 M01/M03 A2997 RMK SC6SC2 VIS VRB 2-4 SLP177

CYQR;2009-11-28 17:00;CYQR 281700Z 31010KT 15SM BKN006 BKN025 M01/M03 A2999 RMK SF6SC1 /S01/ SLP182

CYQR;2009-11-28 18:00;CYQR 281800Z 29012KT 15SM BKN007 BKN025 M01/M02 A2999 RMK SC6SC1 CIG RAG SLP184

CYQR;2009-11-28 18:25;CYQR 281825Z 30010G15KT 15SM FEW008 BKN052 BKN120 M01/ RMK SF1SC3AC1

CYQR;2009-11-28 19:00;CYQR 281900Z 30013KT 15SM FEW009 BKN052 BKN120 M01/M04 A2999 RMK SF1SC5AC1 SLP183

CYQR;2009-11-28 20:00;CYQR 282000Z 30013KT 15SM FEW009 FEW052 FEW120 M01/M04 A2998 RMK SF1SC2AC1 SLP182

CYQR;2009-11-28 21:00;CYQR 282100Z 30010G15KT 15SM FEW052 FEW120 M01/M04 A2998 RMK SC1AC1 SLP183

CYQR;2009-11-28 22:00;CYQR 282200Z 30007KT 15SM FEW050 M01/M05 A2999 RMK SC1 SLP185

CYQR;2009-11-28 23:00;CYQR 282300Z 29008KT 15SM FEW120 FEW280 M04/M07 A2999 RMK AC1CI1 SLP185

CYQR;2009-11-29 00:00;CYQR 290000Z 27005KT 15SM FEW120 M09/M11 A2999 RMK AC1 SLP191

CYQR;2009-11-29 01:00;CYQR 290100Z 24005KT 15SM SKC M08/M10 A2999 RMK SLP191

CYQR;2009-11-29 02:00;CYQR 290200Z 30003KT 15SM SKC M10/M11 A2999 RMK SLP192

CYQR;2009-11-29 03:00;CYQR 290300Z 30005KT 15SM SKC M10/M11 A2999 RMK SLP192

CYQR;2009-11-29 03:17;CYQR 290317Z 32004KT 15SM FEW002 M11/ RMK ST1

CYQR;2009-11-29 03:31;CYQR 290331Z 33005KT 5SM BR BKN005 M11/ RMK ST5

CYQR;2009-11-29 03:39;CYQR 290339Z 34006KT 2SM BR OVC004 M11/ RMK ST8

CYQR;2009-11-29 03:43;CYQR 290343Z 33006KT 1 1/4SM BR OVC002 M10/ RMK ST8

CYQR;2009-11-29 04:00;CYQR 290400Z CCA 34005KT 1/2SM R13/P6000FT/D FZFG VV001 M09/M10 A2999 RMK FG8 FROIN SLP193

CYQR;2009-11-29 04:08;CYQR 290408Z 31005KT 1/4SM R13/3000FT/N FZFG VV001 M08/ RMK FG8

CYQR;2009-11-29 05:00;CYQR 290500Z 27007KT 1/4SM R13/2400FT/U FZFG VV001 M08/M09 A2999 RMK FG8 SLP194

CYQR;2009-11-29 06:00;CYQR 290600Z 28003KT 1/4SM R13/3000VP6000FT/U FZFG VV001 M08/M09 A2999 RMK FG8 SLP192

CYQR;2009-11-29 06:04;CYQR 290604Z 28003KT 1/2SM R13/4500VP6000FT/U FZFG VV001 M08/ RMK FG8

CYQR;2009-11-29 06:39;CYQR 290639Z 32002KT 3/8SM R13/3000VP6000FT/D FZFG SKC M09/ RMK FG7 FROIN

CYQR;2009-11-29 07:00;CYQR 290700Z 32003KT 1/4SM R13/2400FT/N FZFG SKC M09/M10 A2999 RMK FG7 FROIN SLP190

CYQR;2009-11-29 07:16;CYQR 290716Z 28002KT 1/8SM R13/2000FT/N FZFG VV001 M10/ RMK FG8

CYQR;2009-11-29 08:00;CYQR 290800Z 25002KT 1/8SM R13/1400FT/N FZFG VV001 M12/M13 A2999 RMK FG8 SLP191

CYQR;2009-11-29 09:00;CYQR 290900Z 00000KT 1/4SM R13/2000FT/N FZFG BKN006 M14/M15 A2999 RMK FG4SF2 FROIN SLP196

CYQR;2009-11-29 10:00;CYQR 291000Z 00000KT 1/2SM R13/3000V4500FT/D FZFG SKC M14/M16 A2999 RMK FG4 FROIN SLP194

CYQR;2009-11-29 10:47;CYQR 291047Z 15002KT 1SM R13/3000FT/N BR SKC M15/ RMK FG3

CYQR;2009-11-29 11:00;CYQR 291100Z 17002KT 1SM R13/3500FT/D BR SKC M14/M16 A2998 RMK FG3 SLP190

CYQR;2009-11-29 11:03;CYQR 291103Z 00000KT 3SM R13/3000FT/N BR SCT001 M14/ RMK SF2 VIS NW 1/2

CYQR;2009-11-29 11:32;CYQR 291132Z 14002KT 2SM R13/3000FT/N BR BKN004 M14/ RMK SF6 VIS NW 1/2

CYQR;2009-11-29 11:42;CYQR 291142Z 00000KT 1/2SM R13/2200FT/D FZFG BKN001 M14/ RMK FG3SF3 VIS SE 11/2

CYQR;2009-11-29 12:00;CYQR 291200Z 16002KT 3SM R13/3000FT/N BR SCT001 M14/M15 A2998 RMK SF2 VIS NW-NE 1/2 SLP196

CYQR;2009-11-29 13:00;CYQR 291300Z 14003KT 15SM SKC M14/M15 A2998 RMK SLP196

CYQR;2009-11-29 14:00;CYQR 291400Z 12003KT 15SM BKN100 BKN240 M15/M16 A2997 RMK AC2CI1 SLP193

CYQR;2009-11-29 15:00;CYQR 291500Z 14005KT 15SM BKN130 BKN240 M15/M16 A2996 RMK AC2CI1 SLP192

CYQR;2009-11-29 16:00;CYQR 291600Z 13004KT 15SM BKN130 BKN240 M12/M13 A2995 RMK AC2CI1 SLP188

CYQR;2009-11-29 17:00;CYQR 291700Z 14005KT 15SM BKN130 BKN250 M09/M11 A2994 RMK AC2CI1 SLP185

CYQR;2009-11-29 18:00;CYQR 291800Z 16005KT 15SM FEW050 BKN089 BKN120 BKN250 M07/M07 A2992 RMK SC1AC5AC1CI1 AC INVDG FM W SLP172

CYQR;2009-11-29 19:00;CYQR 291900Z 17004KT 15SM BKN066 BKN090 M04/M04 A2991 RMK SC6AC1 SLP169

CYQR;2009-11-29 20:00;CYQR 292000Z 18003KT 15SM BKN058 BKN085 BKN120 M02/M02 A2989 RMK SC6AC1AC1 SLP160

CYQR;2009-11-29 21:00;CYQR 292100Z 25007KT 15SM SCT060 BKN120 BKN250 M01/M03 A2988 RMK SC2AC3CI2 SLP157

CYQR;2009-11-29 22:00;CYQR 292200Z 19003KT 15SM SCT068 BKN130 BKN250 M01/M03 A2986 RMK AC2AC3CI1 SLP150

CYQR;2009-11-29 23:00;CYQR 292300Z 22003KT 15SM BKN049 BKN120 BKN250 M02/M04 A2986 RMK SC3AC1CI1 SLP150

CYQR;2009-11-30 00:00;CYQR 300000Z 23006KT 15SM BKN050 BKN120 BKN250 M02/M04 A2985 RMK SC2AC1CI0 SLP148

CYQR;2009-11-30 01:00;CYQR 300100Z 23008KT 15SM FEW058 SCT250 M03/M05 A2983 RMK SC1CI0 SLP141

CYQR;2009-11-30 02:00;CYQR 300200Z 26008KT 15SM SCT250 M02/M04 A2983 RMK CI0 SLP142

CYQR;2009-11-30 03:00;CYQR 300300Z 27009KT 15SM OVC082 M01/M03 A2982 RMK AC7 SLP138

CYQR;2009-11-30 04:00;CYQR 300400Z 28010KT 15SM SKC M02/M04 A2980 RMK SLP132

CYQR;2009-11-30 05:00;CYQR 300500Z 28011KT 15SM BKN094 M01/M03 A2982 RMK AC5 SLP137

CYQR;2009-11-30 06:00;CYQR 300600Z 31005KT 15SM BKN091 M02/M04 A2981 RMK AC5 SLP129

CYQR;2009-11-30 07:00;CYQR 300700Z 27009KT 15SM BKN083 M02/M03 A2979 RMK AC6 SLP124

CYQR;2009-11-30 08:00;CYQR 300800Z 26008KT 15SM BKN081 M01/M03 A2978 RMK AC6 SLP118

CYQR;2009-11-30 09:00;CYQR 300900Z 27005KT 15SM BKN090 M01/M03 A2979 RMK AC6 SLP117

CYQR;2009-11-30 10:00;CYQR 301000Z 28005KT 15SM BKN100 M01/M03 A2978 RMK AC6 SLP114

CYQR;2009-11-30 11:00;CYQR 301100Z 26009KT 15SM BKN100 M02/M04 A2978 RMK AC6 SLP113

CYQR;2009-11-30 12:00;CYQR 301200Z 28005KT 15SM BKN061 M03/M05 A2978 RMK SC5 SLP114

CYQR;2009-11-30 13:00;CYQR 301300Z 30006KT 15SM BKN070 M04/M05 A2978 RMK AC6 SLP114

CYQR;2009-11-30 14:00;CYQR 301400Z 31006KT 15SM FEW079 SCT250 M05/M07 A2977 RMK AC1CI2 SLP112

CYQR;2009-11-30 15:00;CYQR 301500Z 27005KT 15SM BKN079 BKN250 M05/M07 A2977 RMK AC5CI1 SLP114

CYQR;2009-11-30 16:00;CYQR 301600Z 26006KT 15SM SCT056 BKN250 M04/M05 A2979 RMK SC3CI2 CONTRAILS SLP119

CYQR;2009-11-30 17:00;CYQR 301700Z 25006KT 15SM BKN080 BKN250 M01/M03 A2978 RMK AC5CI2 CONTRAILS SLP117

CYQR;2009-11-30 18:00;CYQR 301800Z 27005KT 15SM SCT080 BKN280 01/M02 A2977 RMK AC3CI4 SLP111

CYQR;2009-11-30 19:00;CYQR 301900Z 27005KT 15SM FEW080 BKN097 BKN280 02/M02 A2976 RMK AC2AC4CI2 SLP106

CYQR;2009-11-30 20:00;CYQR 302000Z 26003KT 15SM BKN066 BKN100 BKN280 02/M01 A2971 RMK AC6AC1CI1 SLP092

CYQR;2009-11-30 21:00;CYQR 302100Z 27002KT 15SM BKN064 BKN100 02/M01 A2970 RMK SC7AC1 SLP084

CYQR;2009-11-30 22:00;CYQR 302200Z 10003KT 15SM BKN057 BKN100 OVC280 01/M01 A2967 RMK SC5AC2CI1 SLP073

CYQR;2009-11-30 23:00;CYQR 302300Z 11002KT 15SM OVC055 01/M01 A2966 RMK SC8 SLP070

CYQR;2009-11-30 23:41;CYQR 302341Z 11005KT 15SM -SN OVC029 01/ RMK SC8

CYQR;2009-12-01 01:00;CYQR 010100Z 11004KT 8SM -SN OVC022 01/M02 A2962 RMK SC8 SLP058

CYQR;2009-12-01 01:29;CYQR 010129Z 08007KT 1 1/2SM -SN VV012 00/ RMK SN8

CYQR;2009-12-01 01:44;CYQR 010144Z 08009KT 1SM R13/P6000FT/D -SN VV007 01/ RMK SN8

CYQR;2009-12-01 02:00;CYQR 010200Z 08010KT 3/4SM R13/P6000FT/U -SN VV004 M00/M01 A2960 RMK SN8 SLP054

CYQR;2009-12-01 03:00;CYQR 010300Z 08012KT 3/4SM R13/P6000FT/N -SN VV004 M00/M02 A2958 RMK SN8 /S01/ SLP046

CYQR;2009-12-01 03:27;CYQR 010327Z 07014KT 3/4SM R13/P6000FT/U -SN VV005 M01/ RMK SN8

CYQR;2009-12-01 03:40;CYQR 010340Z 08015KT 2 1/2SM -SN OVC033 M00/ RMK SN4SC4

CYQR;2009-12-01 04:00;CYQR 010400Z 08013G18KT 2SM -SN BKN006 OVC031 M01/M02 A2957 RMK SN4SF3SC1 SLP043

CYQR;2009-12-01 04:23;CYQR 010423Z 06012KT 3/4SM R13/P6000FT/D -SN VV006 M01/ RMK SN8

CYQR;2009-12-01 05:00;CYQR 010500Z 06012KT 1/2SM R13/P6000FT/N SN VV003 M01/M02 A2958 RMK SN8 /S02/ SLP048

CYQR;2009-12-01 05:25;CYQR 010525Z 04009KT 3/4SM R13/P6000FT/U -SN VV003 M01/ RESN RMK SN8

CYQR;2009-12-01 05:45;CYQR 010545Z 04009KT 3/4SM R13/P6000FT/D -SN VV005 M01/ RESN RMK SN8

CYQR;2009-12-01 06:00;CYQR 010600Z 04010KT 1SM R13/P6000FT/U -SN VV006 M01/M02 A2961 RESN RMK SN8 /S03/ SLP055

CYQR;2009-12-01 06:25;CYQR 010625Z 03015KT 1 1/2SM -SN OVC005 M01/ RMK SN4SF4

CYQR;2009-12-01 07:00;CYQR 010700Z 01012KT 1 1/2SM -SN OVC006 M01/M02 A2964 RMK SN4SF4 SLP064

CYQR;2009-12-01 07:14;CYQR 010714Z CCA 01010G15KT 2SM -SN OVC006 M01/ RMK SN3SF5 /S02/

CYQR;2009-12-01 08:00;CYQR 010800Z 36013KT 2SM -SN OVC005 M01/M02 A2968 RMK SN2SF6 /S03/ SLP075

CYQR;2009-12-01 09:00;CYQR 010900Z 34011KT 3SM -SN OVC004 M01/M02 A2971 RMK SN2SF6 /S04/ SLP087

CYQR;2009-12-01 09:19;CYQR 010919Z 33010KT 2SM -SN BKN004 OVC017 M01/ RMK SN2SF6SC1

CYQR;2009-12-01 09:31;CYQR 010931Z 32010KT 1 1/2SM -SN VV015 M01/ RMK SN8

CYQR;2009-12-01 09:45;CYQR 010945Z 31008KT 1SM R13/P6000FT/U -SN VV009 M01/ RMK SN8

CYQR;2009-12-01 10:00;CYQR 011000Z 31010KT 1SM R13/P6000FT/D -SN VV008 M01/M02 A2972 RMK SN8 SLP091

CYQR;2009-12-01 10:02;CYQR 011002Z 31011KT 3/4SM R13/P6000FT/D -SN VV003 M01/ RMK SN8

CYQR;2009-12-01 10:14;CYQR 011014Z 30011KT 1 1/4SM -SN OVC003 M01/ RMK SN5SF3

CYQR;2009-12-01 10:45;CYQR 011045Z 32017KT 1 1/2SM -SN OVC007 M01/ RMK SN2SF6

CYQR;2009-12-01 11:00;CYQR 011100Z 33020KT 1 1/2SM -SN OVC007 M02/M03 A2973 RMK SN2SF6 /S05/ SLP095

CYQR;2009-12-01 11:26;CYQR 011126Z 33016KT 1SM R13/P6000FT/D -SN VV007 M02/ RMK SN8

CYQR;2009-12-01 11:53;CYQR 011153Z 33016KT 3SM -SN OVC007 M02/ RMK SF8

CYQR;2009-12-01 12:00;CYQR 011200Z CCA 33016KT 3SM -SN OVC007 M02/M03 A2976 RMK SF8 /S06/ SLP105

CYQR;2009-12-01 12:17;CYQR 011217Z 32017KT 12SM BKN008 OVC053 M02/ RMK SF7SC1

CYQR;2009-12-01 12:34;CYQR 011234Z 34020KT 15SM DRSN SCT008 BKN012 OVC049 M03/ RMK SF3SC3SC2

CYQR;2009-12-01 12:46;CYQR 011246Z 34021KT 15SM DRSN FEW008 SCT012 BKN049 OVC076 M03/ RMK SF1SC3SC3AC1

CYQR;2009-12-01 13:00;CYQR 011300Z 34019G26KT 15SM DRSN FEW008 SCT014 BKN065 M03/M05 A2979 RMK SF1SC3SC4 SLP115

CYQR;2009-12-01 14:00;CYQR 011400Z 32016KT 15SM DRSN FEW010 FEW065 SCT096 BKN250 M06/M08 A2982 RMK SF1SC1AC2CI0 SLP124

CYQR;2009-12-01 15:00;CYQR 011500Z 32015KT 15SM DRSN FEW020 BKN075 BKN250 M07/M08 A2985 RMK SC1AC6CI0 SLP141

CYQR;2009-12-01 16:00;CYQR 011600Z 32017KT 15SM DRSN FEW018 BKN068 OVC091 M05/M07 A2987 RMK SC1AC6AC2 SLP148

CYQR;2009-12-01 17:00;CYQR 011700Z 32013KT 15SM DRSN FEW022 BKN038 OVC068 M05/M06 A2989 RMK SC2SC5AC2 SLP154

CYQR;2009-12-01 17:34;CYQR 011734Z 32013KT 15SM DRSN BKN010 BKN027 OVC070 M04/ RMK SC5SC1AC2

CYQR;2009-12-01 18:00;CYQR 011800Z 31011KT 10SM DRSN FEW010 SCT030 SCT080 BKN250 M05/M06 A2990 RMK SF2SC2AC1CI0 SLP158

CYQR;2009-12-01 19:00;CYQR 011900Z 32021KT 6SM -SN DRSN BKN016 OVC070 M05/M07 A2990 RMK SC6AC2 SLP157

CYQR;2009-12-01 20:00;CYQR 012000Z 32014KT 15SM -SN DRSN FEW016 FEW025 BKN060 BKN250 M05/M07 A2991 RMK CU1SC1SC1CI1 SLP161

CYQR;2009-12-01 20:15;CYQR 012015Z 33017KT 15SM DRSN FEW016 FEW028 BKN052 BKN250 M05/ RMK CU1SC1SC4CI2

CYQR;2009-12-01 21:00;CYQR 012100Z 32013G18KT 15SM DRSN FEW016 BKN048 M05/M07 A2992 RMK CU1SC7 SLP165

CYQR;2009-12-01 21:53;CYQR 012153Z 31014G19KT 15SM -SN DRSN SCT025 OVC043 M05/ RMK SC3SC5

CYQR;2009-12-01 22:00;CYQR 012200Z 31015KT 10SM -SN DRSN SCT025 OVC043 M05/M08 A2994 RMK SC3SC5 SLP172

CYQR;2009-12-01 23:00;CYQR 012300Z 33006KT 10SM -SN BKN009 OVC052 M05/M07 A2995 RMK SC6SC2 SLP174

CYQR;2009-12-01 23:32;CYQR 012332Z 34006KT 8SM -SN SCT009 OVC017 M05/ RMK SC4SC4

CYQR;2009-12-02 00:00;CYQR 020000Z 33011KT 10SM -SN FEW009 OVC017 M05/M07 A2996 RMK SC2SC6 SLP178

CYQR;2009-12-02 00:23;CYQR 020023Z 33012KT 2SM -SN OVC020 M05/ RMK SC8

CYQR;2009-12-02 01:00;CYQR 020100Z 34015KT 6SM -SN DRSN OVC030 M06/M08 A2997 RMK SC8 SLP181

CYQR;2009-12-02 02:00;CYQR 020200Z 35016KT 8SM -SN DRSN OVC032 M07/M10 A2999 RMK SC7 SLP189

CYQR;2009-12-02 03:00;CYQR 020300Z 35016KT 6SM -SN DRSN OVC026 M08/M11 A3000 RMK SC7 SLP198

CYQR;2009-12-02 03:25;CYQR 020325Z 34013KT 3SM -SN DRSN OVC014 M08/ RMK SC8

CYQR;2009-12-02 03:46;CYQR 020346Z 34012KT 3SM -SN BKN009 OVC014 M08/ RMK SC6SC2

CYQR;2009-12-02 04:00;CYQR 020400Z 35011KT 4SM -SN DRSN BKN009 BKN014 M08/M10 A3002 RMK SC6SC2 SLP205

CYQR;2009-12-02 04:43;CYQR 020443Z 34010KT 6SM -SN BKN013 M08/ RMK SC6

CYQR;2009-12-02 05:00;CYQR 020500Z 35010KT 8SM -SN BKN013 OVC070 M08/M11 A3004 RMK SC6AC1 SLP210

CYQR;2009-12-02 06:00;CYQR 020600Z 34010KT 10SM -SN BKN013 BKN070 OVC300 M09/M11 A3006 RMK SC5AC1CS0 SLP218

CYQR;2009-12-02 07:00;CYQR 020700Z 32010KT 4SM -SN BKN010 BKN076 OVC300 M11/M13 A3007 RMK SC5AC2CS0 SLP223

CYQR;2009-12-02 07:25;CYQR 020725Z 32010KT 12SM -SN BKN008 BKN076 BKN300 M12/ RMK SC5AC2CS0

CYQR;2009-12-02 07:49;CYQR 020749Z 32008KT 12SM -SN FEW008 BKN018 M11/ RMK SC2SC5

CYQR;2009-12-02 08:00;CYQR 020800Z 31006KT 10SM -SN FEW008 BKN018 M12/M13 A3009 RMK SC2SC6 SLP227

CYQR;2009-12-02 09:00;CYQR 020900Z 31007KT 12SM -SN FEW011 BKN028 M11/M13 A3010 RMK SC2SC5 SLP233

CYQR;2009-12-02 10:00;CYQR 021000Z 34007KT 10SM -SN BKN020 M09/M11 A3011 RMK SC7 SLP238

CYQR;2009-12-02 10:27;CYQR 021027Z 34008KT 15SM BKN024 M11/ RMK SC6

CYQR;2009-12-02 10:35;CYQR 021035Z 33007KT 15SM -SN BKN024 M10/ RMK SC6

CYQR;2009-12-02 11:00;CYQR 021100Z 34005KT 6SM -SN OVC021 M10/M11 A3013 RMK SC8 SLP242

CYQR;2009-12-02 12:00;CYQR 021200Z 34011KT 8SM -SN OVC021 M08/M10 A3014 RMK SC8 SLP245

CYQR;2009-12-02 13:00;CYQR 021300Z 35009KT 10SM -SN BKN018 M10/M12 A3016 RMK SC7 SLP251

CYQR;2009-12-02 14:00;CYQR 021400Z 36009KT 10SM -SN OVC015 M10/M12 A3017 RMK SC8 SLP255

CYQR;2009-12-02 15:00;CYQR 021500Z 33008KT 15SM -SN SCT017 BKN046 BKN100 BKN200 M12/M14 A3020 RMK SC2SC3AC1CI1 SLP270

CYQR;2009-12-02 15:18;CYQR 021518Z 34010KT 15SM FEW017 BKN046 BKN100 BKN200 M12/ RMK SC1SC4AC1CI1

CYQR;2009-12-02 16:00;CYQR 021600Z 34008KT 10SM -SN FEW016 BKN058 BKN100 BKN200 M12/M13 A3022 RMK SC1SC4AC1CI1 VIS W 3 SLP276

CYQR;2009-12-02 17:00;CYQR 021700Z 34011KT 10SM -SN BKN039 BKN100 BKN260 M12/M13 A3023 RMK SC5AC1CI1 -SN INTMT SLP281

CYQR;2009-12-02 18:00;CYQR 021800Z 34011KT 15SM -SN FEW014 SCT040 SCT100 BKN260 M10/M12 A3023 RMK CF2SC2AC1CI2 -SN INTMT SLP282

CYQR;2009-12-02 18:30;CYQR 021830Z 35013KT 15SM -SN BKN010 BKN100 BKN260 M10/ RMK SC5AC1CI1

CYQR;2009-12-02 19:00;CYQR 021900Z 36016G21KT 15SM -SN BKN010 BKN054 M09/M12 A3024 RMK SC6AC1 SLP285

CYQR;2009-12-02 20:00;CYQR 022000Z 35013KT 15SM -SN SCT012 BKN097 M09/M12 A3025 RMK SC4AC2 SLP287

CYQR;2009-12-02 21:00;CYQR 022100Z 34010KT 15SM -SN BKN010 BKN097 M10/M12 A3026 RMK SC5AC2 SLP292

CYQR;2009-12-02 22:00;CYQR 022200Z 34011KT 15SM BKN015 BKN089 M10/M13 A3027 RMK SC6AC1 INTMT -SN SLP296

CYQR;2009-12-02 22:43;CYQR 022243Z 35011KT 15SM BKN015 BKN089 BKN280 M11/ RMK SC5AC2CI0

CYQR;2009-12-02 23:00;CYQR 022300Z 34010KT 15SM BKN015 BKN030 M12/M15 A3028 RMK SC6SC2 SLP301

CYQR;2009-12-02 23:09;CYQR 022309Z 34010KT 15SM -SN BKN015 M12/ RMK SC7

CYQR;2009-12-03 00:00;CYQR 030000Z 35014KT 15SM -SN OVC015 M09/M12 A3029 RMK SC8 SLP301

CYQR;2009-12-03 01:00;CYQR 030100Z 35014KT 6SM -SN OVC015 M10/M13 A3029 RMK SC8 SLP302

CYQR;2009-12-03 02:00;CYQR 030200Z 35012KT 15SM -SN SCT015 M11/M14 A3030 RMK SC3 SLP305

CYQR;2009-12-03 03:00;CYQR 030300Z CCA 33010KT 8SM -SN BKN008 M12/M14 A3030 RMK SC6 SLP308

CYQR;2009-12-03 03:28;CYQR 030328Z CCA 33011KT 12SM -SN BKN005 M12/ RMK SC6

CYQR;2009-12-03 04:00;CYQR 030400Z 34012KT 5SM -SN SCT005 OVC017 M12/M14 A3029 RMK SC4SC3 SLP307

CYQR;2009-12-03 04:21;CYQR 030421Z 33012KT 3SM -SN BKN006 M12/ RMK SC6

CYQR;2009-12-03 05:00;CYQR 030500Z CCA 34015KT 8SM -SN DRSN BKN007 M11/M13 A3030 RMK SC6 SLP308

CYQR;2009-12-03 05:19;CYQR 030519Z 34014KT 8SM -SN SCT007 BKN013 M11/ RMK SC4SC2

CYQR;2009-12-03 06:00;CYQR 030600Z 34015G20KT 4SM -SN OVC010 M11/M13 A3030 RMK SC8 SLP307

CYQR;2009-12-03 07:00;CYQR 030700Z 35012KT 6SM -SN OVC010 M12/M14 A3030 RMK SC7 SLP307

CYQR;2009-12-03 08:00;CYQR 030800Z 35018KT 8SM -SN DRSN BKN010 OVC020 M12/M14 A3030 RMK SC6SC2 SLP308

CYQR;2009-12-03 09:00;CYQR 030900Z 35014KT 12SM -SN BKN008 OVC300 M13/M15 A3031 RMK SC5CS0 SLP310

CYQR;2009-12-03 09:28;CYQR 030928Z 32012KT 12SM -SN DRSN BKN006 OVC300 M14/ RMK SC5CS0

CYQR;2009-12-03 10:00;CYQR 031000Z 32014KT 12SM -SN DRSN BKN005 OVC300 M15/M16 A3031 RMK SC6CS0 SLP312

CYQR;2009-12-03 10:12;CYQR 031012Z 32014KT 12SM -SN DRSN BKN004 OVC300 M15/ RMK SC5CS0

CYQR;2009-12-03 10:34;CYQR 031034Z 32014KT 15SM -SN DRSN FEW004 BKN010 OVC300 M15/ RMK SC2SC3CS0

CYQR;2009-12-03 11:00;CYQR 031100Z 32013KT 15SM -SN FEW005 BKN025 OVC300 M15/M16 A3031 RMK SC2SC4CS0 SLP312

CYQR;2009-12-03 11:50;CYQR 031150Z 33016KT 12SM -SN BKN003 OVC025 M15/ RMK SC5SC2

CYQR;2009-12-03 12:00;CYQR 031200Z 32016KT 12SM -SN SCT003 OVC023 M15/M17 A3031 RMK SC3SC4 SLP314

CYQR;2009-12-03 13:00;CYQR 031300Z 33014KT 12SM -SN FEW003 OVC023 M14/M16 A3032 RMK SC2SC5 SLP317

CYQR;2009-12-03 14:00;CYQR 031400Z 32014KT 12SM -SN FEW005 OVC021 M14/M16 A3033 RMK SC2SC6 SLP318

CYQR;2009-12-03 15:00;CYQR 031500Z 32014KT 6SM -SN FEW005 OVC021 M13/M15 A3033 RMK SF1SC7 SLP320

CYQR;2009-12-03 16:00;CYQR 031600Z 32014KT 3SM -SN FEW005 OVC019 M13/M15 A3033 RMK SF1SC8 SLP320

CYQR;2009-12-03 17:00;CYQR 031700Z 33013KT 3SM -SN OVC021 M12/M14 A3033 RMK SC8 SLP320

CYQR;2009-12-03 18:00;CYQR 031800Z 32014KT 6SM -SN OVC021 M12/M15 A3032 RMK SC8 SLP314

CYQR;2009-12-03 19:00;CYQR 031900Z 31013KT 6SM -SN FEW012 BKN021 BKN120 BKN280 M12/M15 A3030 RMK SC1SC4AC1CI1 SLP310

CYQR;2009-12-03 20:00;CYQR 032000Z 31013KT 6SM -SN FEW012 BKN021 BKN120 M12/M15 A3030 RMK SC1SC4AC2 SLP310

CYQR;2009-12-03 21:00;CYQR 032100Z 30014KT 10SM -SN BKN012 OVC021 M12/M15 A3029 RMK SC6SC2 SLP307

CYQR;2009-12-03 22:00;CYQR 032200Z 32013KT 6SM -SN OVC013 M13/M15 A3029 RMK SC8 SLP306

CYQR;2009-12-03 23:00;CYQR 032300Z 32009KT 6SM -SN OVC013 M13/M15 A3028 RMK SC7 SLP303

CYQR;2009-12-04 00:00;CYQR 040000Z 31009KT 6SM -SN OVC013 M13/M15 A3027 RMK SC8 SLP300

CYQR;2009-12-04 01:00;CYQR 040100Z 33007KT 4SM -SN OVC013 M14/M17 A3025 RMK SC8 SLP294

CYQR;2009-12-04 02:00;CYQR 040200Z 31008KT 12SM -SN OVC013 M16/M18 A3023 RMK SC8 SLP288

CYQR;2009-12-04 03:00;CYQR 040300Z 31007KT 12SM -SN OVC011 M14/M16 A3021 RMK SC8 SLP279

CYQR;2009-12-04 04:00;CYQR 040400Z 29006KT 10SM -SN OVC010 M14/M15 A3018 RMK SC8 SLP270

CYQR;2009-12-04 04:19;CYQR 040419Z 30006KT 10SM -SN OVC009 M14/ RMK SC8

CYQR;2009-12-04 05:00;CYQR 040500Z 29004KT 12SM -SN OVC008 M14/M16 A3015 RMK SC8 SLP260

CYQR;2009-12-04 06:00;CYQR 040600Z 30006KT 12SM -SN OVC007 M14/M16 A3013 RMK SC8 SLP251

CYQR;2009-12-04 07:00;CYQR 040700Z 00000KT 10SM -SN OVC006 M15/M17 A3009 RMK SC8 SLP241

CYQR;2009-12-04 08:00;CYQR 040800Z 00000KT 15SM SCT006 M17/M18 A3008 RMK SC3 SLP235

CYQR;2009-12-04 08:11;CYQR 040811Z 00000KT 4SM BR BKN007 M18/ RMK SC6

CYQR;2009-12-04 08:21;CYQR 040821Z 23005KT 3/8SM R13/2400FT/N FZFG VV003 M22/ RMK FG8

CYQR;2009-12-04 08:27;CYQR 040827Z 23005KT 1/8SM R13/2600FT/N FZFG VV003 M22/ RMK FG8

CYQR;2009-12-04 09:00;CYQR 040900Z 22003KT 1/4SM R13/2200FT/N FZFG VV003 M22/M24 A3006 RMK FG8 SLP236

CYQR;2009-12-04 09:04;CYQR 040904Z 20003KT 3/4SM R13/2600V5000FT/N BR OVC004 M22/ RMK FG3ST5

CYQR;2009-12-04 09:14;CYQR 040914Z 19003KT 1/2SM R13/3500VP6000FT/U FZFG VV003 M22/ RMK FG8 VIS VRB 1/4-3/4

CYQR;2009-12-04 09:36;CYQR 040936Z 18002KT 1SM R13/4000VP6000FT/U BR OVC001 M21/ RMK FG4ST4

CYQR;2009-12-04 09:39;CYQR 040939Z 19003KT 1 1/2SM BR OVC001 M21/ RMK ST7

CYQR;2009-12-04 10:00;CYQR 041000Z 19004KT 2SM BR OVC001 M21/M23 A3003 RMK ST7 SLP226

CYQR;2009-12-04 10:32;CYQR 041032Z 15003KT 5/8SM R13/P6000FT/D BR VV001 M20/ RMK FG8

CYQR;2009-12-04 10:42;CYQR 041042Z 16004KT 1/2SM R13/3000V5500FT/D FZFG VV001 M19/ RMK FG8

CYQR;2009-12-04 10:47;CYQR 041047Z 15004KT 1/4SM R13/3500FT/N FZFG VV001 M19/ RMK FG8

CYQR;2009-12-04 10:53;CYQR 041053Z 15005KT 1/8SM R13/3000FT/N FZFG VV001 M18/ RMK FG8

CYQR;2009-12-04 11:00;CYQR 041100Z 15006KT 1/8SM R13/2200FT/N FZFG VV001 M18/M20 A2999 RMK FG8 SLP214

CYQR;2009-12-04 11:47;CYQR 041147Z 15008KT 1/4SM R13/2600FT/N FZFG VV001 M17/ RMK FG8

CYQR;2009-12-04 12:00;CYQR 041200Z 16005KT 1/4SM R13/2800FT/N FZFG VV001 M17/M19 A2996 RMK FG8 SLP197

CYQR;2009-12-04 12:44;CYQR 041244Z 15007KT 1/2SM R13/3000FT/D FZFG VV001 M18/ RMK FG8

CYQR;2009-12-04 13:00;CYQR 041300Z 14007KT 1/2SM R13/2800V4000FT/N FZFG VV001 M18/M20 A2994 RMK FG8 SLP190

CYQR;2009-12-04 14:00;CYQR 041400Z 14006KT 1/2SM R13/P6000FT/U FZFG VV001 M18/M21 A2991 RMK FG8 SLP181

CYQR;2009-12-04 15:00;CYQR 041500Z 14008KT 1/2SM R13/3500VP6000FT/U FZFG VV001 M18/M21 A2989 RMK FG8 VIS VRB 3/8-5/8 SLP175

CYQR;2009-12-04 16:00;CYQR 041600Z 14007KT 1/2SM R13/P6000FT/N FZFG OVC002 M19/M21 A2989 RMK ST8 SLP173

CYQR;2009-12-04 16:45;CYQR 041645Z 15008KT 1 1/2SM BR OVC002 M19/ RMK ST6 VIS VRB 1-2

CYQR;2009-12-04 17:00;CYQR 041700Z 14008KT 1 1/2SM BR OVC002 M19/M22 A2988 RMK ST6 SLP170

CYQR;2009-12-04 17:47;CYQR 041747Z 14007KT 3SM BR OVC003 M18/ RMK ST5

CYQR;2009-12-04 18:00;CYQR 041800Z 14008KT 3SM BR BKN003 M18/M22 A2986 RMK ST2 VIS VRB 2-4 SLP163

CYQR;2009-12-04 18:50;CYQR 041850Z 13007KT 8SM FEW003 FEW240 M18/ RMK ST1CI1

CYQR;2009-12-04 19:00;CYQR 041900Z 13007KT 9SM FEW002 FEW240 M17/M20 A2983 RMK ST1CI1 BR SLP154

CYQR;2009-12-04 20:00;CYQR 042000Z 13007KT 9SM FEW002 FEW240 M17/M20 A2981 RMK ST1CI1 BR SLP147

CYQR;2009-12-04 21:00;CYQR 042100Z 12010KT 15SM SCT240 M17/M20 A2979 RMK CI2 SLP143

CYQR;2009-12-04 22:00;CYQR 042200Z 14009KT 12SM BKN240 M17/M21 A2979 RMK CI1 SLP144

CYQR;2009-12-04 23:00;CYQR 042300Z 12009KT 12SM FEW240 M19/M22 A2979 RMK CI1 SLP145

CYQR;2009-12-05 00:00;CYQR 050000Z 12009KT 15SM FEW240 M19/M23 A2979 RMK CI1 SLP143

CYQR;2009-12-05 01:00;CYQR 050100Z 12009KT 15SM FEW240 M19/M23 A2979 RMK CI0 SLP142

CYQR;2009-12-05 02:00;CYQR 050200Z 12009KT 15SM FEW083 SCT240 M20/M23 A2978 RMK AC2CI0 SLP140

CYQR;2009-12-05 03:00;CYQR 050300Z 13008KT 15SM BKN083 M19/M23 A2978 RMK AC4 SLP141

CYQR;2009-12-05 04:00;CYQR 050400Z 12007KT 15SM BKN100 M19/M22 A2978 RMK AC6 SLP141

CYQR;2009-12-05 05:00;CYQR 050500Z 12007KT 15SM BKN100 M18/M21 A2980 RMK AC6 SLP146

CYQR;2009-12-05 06:00;CYQR 050600Z 10008KT 15SM FEW010 BKN240 M18/M21 A2981 RMK ST1CI2 SLP148

CYQR;2009-12-05 07:00;CYQR 050700Z 10005KT 15SM SCT090 OVC240 M17/M20 A2981 RMK AC3CI2 SLP149

CYQR;2009-12-05 08:00;CYQR 050800Z 00000KT 15SM OVC090 M17/M19 A2983 RMK AC7 SLP155

CYQR;2009-12-05 09:00;CYQR 050900Z 35002KT 15SM OVC089 M16/M19 A2986 RMK AC6 SLP164

CYQR;2009-12-05 10:00;CYQR 051000Z 35003KT 15SM OVC079 M16/M19 A2987 RMK AC7 SLP168

CYQR;2009-12-05 11:00;CYQR 051100Z 30004KT 15SM OVC069 M15/M17 A2988 RMK AC7 SLP171

CYQR;2009-12-05 12:00;CYQR 051200Z 34005KT 15SM OVC054 M16/M19 A2991 RMK SC8 SLP184

CYQR;2009-12-05 13:00;CYQR 051300Z 34006KT 15SM OVC071 M16/M19 A2994 RMK AC8 SLP192

CYQR;2009-12-05 14:00;CYQR 051400Z 35005KT 15SM BKN071 M18/M21 A2996 RMK AC4 SLP199

CYQR;2009-12-05 15:00;CYQR 051500Z 35006KT 10SM SCT071 M21/M25 A2999 RMK AC3 VIS NW-N 5 / VIA YEG FIC SLP214

CYQR;2009-12-05 16:00;CYQR 051600Z 36005KT 10SM FEW084 SCT280 M21/M25 A3001 RMK AC1CI0 VIA YEG FIC SLP222

CYQR;2009-12-05 17:00;CYQR 051700Z 03005KT 8SM SCT083 BKN280 M16/M19 A3005 RMK AC0CI0 VIA YEG FIC SLP234

CYQR;2009-12-05 18:00;CYQR 051800Z 36003KT 8SM BKN280 M16/M19 A3007 RMK CI0 VIS NW-N 5 SM/ VIA YEG FIC SLP237

CYQR;2009-12-05 19:00;CYQR 051900Z 03004KT 10SM FEW280 M16/M18 A3009 RMK CI1 VIA YEG FIC SLP245

CYQR;2009-12-05 20:00;CYQR 052000Z 03006KT 10SM FEW280 M15/M18 A3012 RMK CI1 SLP252

CYQR;2009-12-05 21:00;CYQR 052100Z 02005KT 10SM FEW280 M15/M18 A3015 RMK CI1 SLP263

CYQR;2009-12-05 22:00;CYQR 052200Z 02004KT 10SM BKN033 BKN280 M14/M17 A3018 RMK SC6CI1 VIA CYEG FIC SLP272

CYQR;2009-12-05 23:00;CYQR 052300Z 35006KT 10SM BKN033 BKN280 M15/M18 A3021 RMK SC6CI1 SLP281

CYQR;2009-12-05 23:22;CYQR 052322Z 34006KT 10SM -SN BKN033 BKN280 M15/ RMK SC6CI1

CYQR;2009-12-06 00:00;CYQR 060000Z 34007KT 10SM -SN OVC033 M15/M17 A3024 RMK SC8 SLP293

CYQR;2009-12-06 01:00;CYQR 060100Z 33005KT 10SM -SN OVC033 M14/M16 A3025 RMK SC8 SLP297

CYQR;2009-12-06 02:00;CYQR 060200Z 01005KT 12SM -SN OVC031 M13/M15 A3026 RMK SC8 SLP300

CYQR;2009-12-06 03:00;CYQR 060300Z 02006KT 12SM -SN OVC029 M12/M13 A3028 RMK SC8 SLP307

CYQR;2009-12-06 04:00;CYQR 060400Z 33006KT 15SM -SN OVC031 M12/M14 A3030 RMK SC8 SLP316

CYQR;2009-12-06 05:00;CYQR 060500Z 34008KT 12SM -SN OVC031 M12/M14 A3032 RMK SC8 SLP322

CYQR;2009-12-06 06:00;CYQR 060600Z 34009KT 10SM -SN OVC031 M11/M13 A3034 RMK SC8 SLP325

CYQR;2009-12-06 07:00;CYQR 060700Z 35007KT 12SM -SN OVC033 M12/M13 A3034 RMK SC8 SLP326

CYQR;2009-12-06 08:00;CYQR 060800Z 34008KT 8SM -SN OVC035 M11/M13 A3035 RMK SC8 SLP328

CYQR;2009-12-06 09:00;CYQR 060900Z 34008KT 8SM -SN OVC037 M11/M13 A3036 RMK SC8 SLP330

CYQR;2009-12-06 10:00;CYQR 061000Z 34010KT 6SM -SN OVC041 M11/M13 A3036 RMK SC7 SLP330

CYQR;2009-12-06 11:00;CYQR 061100Z 35010KT 8SM -SN FEW008 OVC041 M12/M14 A3037 RMK SF1SC8 SLP333

CYQR;2009-12-06 12:00;CYQR 061200Z 36015KT 12SM -SN FEW008 OVC041 M12/M15 A3037 RMK SF1SC8 SLP336

CYQR;2009-12-06 13:00;CYQR 061300Z 01013KT 12SM -SN OVC043 M13/M16 A3038 RMK SC8 SLP338

CYQR;2009-12-06 14:00;CYQR 061400Z 35011KT 12SM -SN OVC043 M13/M16 A3039 RMK SC8 SLP341

CYQR;2009-12-06 15:00;CYQR 061500Z 34013KT 12SM OVC047 M14/M18 A3040 RMK SC8 SLP346

CYQR;2009-12-06 16:00;CYQR 061600Z 35013KT 15SM FEW047 BKN080 M16/M19 A3043 RMK SC1AC3 SLP353

CYQR;2009-12-06 17:00;CYQR 061700Z 34008KT 15SM FEW049 M17/M20 A3043 RMK SC1 SLP356

CYQR;2009-12-06 18:00;CYQR 061800Z 33010KT 15SM FEW080 M16/M19 A3042 RMK AC1 SLP354

CYQR;2009-12-06 19:00;CYQR 061900Z 32009KT 15SM FEW080 M15/M18 A3042 RMK AC0 SLP354

CYQR;2009-12-06 20:00;CYQR 062000Z 33011KT 15SM BKN080 M15/M19 A3041 RMK AC0 SLP349

CYQR;2009-12-06 21:00;CYQR 062100Z 32011KT 7SM FEW010 BKN080 OVC280 M15/M18 A3039 RMK SF1AC2CI0 SLP342

CYQR;2009-12-06 22:00;CYQR 062200Z 29007KT 3SM BR FEW008 BKN080 OVC280 M18/M21 A3039 RMK SF1AC2CI0 SLP341

CYQR;2009-12-06 23:00;CYQR 062300Z 30010KT 7SM FEW080 SCT280 M21/M24 A3039 RMK AC1CI0 SLP342

CYQR;2009-12-07 00:00;CYQR 070000Z 30009KT 12SM BKN031 BKN080 BKN280 M21/M25 A3039 RMK SC2AC1CI1 SLP349

CYQR;2009-12-07 01:00;CYQR 070100Z 30009KT 7SM -SN SCT015 BKN031 BKN094 M23/M26 A3039 RMK SC3SC2AC2 SLP349

CYQR;2009-12-07 02:00;CYQR 070200Z 33010KT 4SM -SN OVC024 M18/M22 A3039 RMK SC8 SLP347

CYQR;2009-12-07 03:00;CYQR 070300Z 34009KT 12SM -SN BKN031 OVC092 M19/M23 A3039 RMK SC6AC2 SLP346

CYQR;2009-12-07 04:00;CYQR 070400Z 33008KT 10SM -SN FEW031 OVC088 M19/M23 A3039 RMK SC1AC7 SLP346

CYQR;2009-12-07 05:00;CYQR 070500Z 34008KT 8SM -SN OVC088 M20/M24 A3038 RMK AC8 SLP345

CYQR;2009-12-07 06:00;CYQR 070600Z 33004KT 8SM -SN SCT024 BKN090 M21/M25 A3039 RMK SC2AC4 SLP350

CYQR;2009-12-07 07:00;CYQR 070700Z 31006KT 8SM -SN FEW030 OVC090 M22/M26 A3038 RMK SC2AC5 SLP347

CYQR;2009-12-07 08:00;CYQR 070800Z 30005KT 5SM -SN OVC090 M22/M26 A3037 RMK AC8 SLP344

CYQR;2009-12-07 09:00;CYQR 070900Z 31004KT 4SM -SN OVC070 M21/M24 A3036 RMK AC8 SLP339

CYQR;2009-12-07 10:00;CYQR 071000Z 28004KT 6SM -SN OVC088 M21/M24 A3036 RMK AC8 SLP339

CYQR;2009-12-07 11:00;CYQR 071100Z 30006KT 8SM -SN OVC088 M22/M26 A3035 RMK AC8 SLP335

CYQR;2009-12-07 12:00;CYQR 071200Z 29006KT 8SM -SN OVC090 M22/M26 A3034 RMK AC8 SLP338

CYQR;2009-12-07 13:00;CYQR 071300Z 29007KT 12SM -SN FEW043 BKN090 OVC350 M24/M28 A3033 RMK SC2AC3CI0 SLP335

CYQR;2009-12-07 14:00;CYQR 071400Z 29005KT 9SM -SN BKN043 BKN090 OVC350 M24/M28 A3033 RMK SC5AC1CI0 SLP334

CYQR;2009-12-07 15:00;CYQR 071500Z 27004KT 6SM -SN BR OVC041 M23/M27 A3032 RMK SC8 SLP330

CYQR;2009-12-07 15:25;CYQR 071525Z 29005KT 1 1/2SM -SN BR OVC039 M23/ RMK SC8

CYQR;2009-12-07 15:37;CYQR 071537Z 28005KT 2SM -SN BR OVC039 M23/ RMK SC8

CYQR;2009-12-07 16:00;CYQR 071600Z 28005KT 3SM -SN BR OVC037 M22/M26 A3033 RMK SC8 SLP332

CYQR;2009-12-07 17:00;CYQR 071700Z 27007KT 3SM -SN BR BKN037 OVC090 M23/M27 A3032 RMK SC6AC2 SLP330

CYQR;2009-12-07 17:27;CYQR 071727Z 28006KT 4SM BR FEW037 BKN044 OVC090 M22/ RMK SC2SC3AC2

CYQR;2009-12-07 18:00;CYQR 071800Z 27007KT 8SM SCT044 BKN140 OVC350 M22/M26 A3031 RMK SC4AC2CI2 SLP327

CYQR;2009-12-07 19:00;CYQR 071900Z 27007KT 8SM SCT044 BKN140 OVC350 M21/M26 A3029 RMK SC3AC2CI0 SLP320

CYQR;2009-12-07 20:00;CYQR 072000Z 29007KT 8SM SCT140 OVC350 M22/M26 A3027 RMK AC3CI1 SLP314

CYQR;2009-12-07 21:00;CYQR 072100Z 34006KT 10SM FEW140 BKN350 M21/M26 A3026 RMK AC1CI1 SLP308

CYQR;2009-12-07 22:00;CYQR 072200Z 30006KT 10SM FEW140 SCT350 M23/M28 A3025 RMK AC1CI1 TR AC SLP307

CYQR;2009-12-07 23:00;CYQR 072300Z 28006KT 10SM FEW140 SCT350 M27/M31 A3026 RMK AC1CI1 SLP309

CYQR;2009-12-08 00:00;CYQR 080000Z 29008KT 10SM FEW140 FEW350 M28/M32 A3026 RMK AC1CI1 IC SLP316

CYQR;2009-12-08 01:00;CYQR 080100Z 31007KT 12SM FEW350 M29/M34 A3025 RMK CI1 IC SLP314

CYQR;2009-12-08 02:00;CYQR 080200Z 29004KT 15SM SKC M31/M36 A3025 RMK IC SLP313

CYQR;2009-12-08 03:00;CYQR 080300Z 29004KT 15SM SKC M32/M36 A3024 RMK IC SLP313

CYQR;2009-12-08 04:00;CYQR 080400Z 32004KT 15SM SKC M30/M35 A3023 RMK IC SLP311

CYQR;2009-12-08 05:00;CYQR 080500Z 30004KT 15SM SKC M30/M34 A3024 RMK SLP313

CYQR;2009-12-08 06:00;CYQR 080600Z 29005KT 15SM SKC M31/M36 A3025 RMK IC SLP314

CYQR;2009-12-08 07:00;CYQR 080700Z 30004KT 15SM FEW005 M31/M35 A3023 RMK ST2 IC SLP310

CYQR;2009-12-08 08:00;CYQR 080800Z 26002KT 12SM SCT008 M32/M36 A3023 RMK ST2 IC SLP309

CYQR;2009-12-08 09:00;CYQR 080900Z 35002KT 15SM FEW008 SCT250 M31/M35 A3023 RMK ST1CI0 IC SLP308

CYQR;2009-12-08 10:00;CYQR 081000Z 27002KT 15SM SCT008 M32/M36 A3023 RMK ST2 IC SLP307

CYQR;2009-12-08 10:19;CYQR 081019Z 00000KT 12SM BKN009 M31/ RMK ST5 IC

CYQR;2009-12-08 11:00;CYQR 081100Z 28003KT 12SM BKN009 M32/M36 A3022 RMK ST6 SLP305

CYQR;2009-12-08 12:00;CYQR 081200Z 30004KT 12SM BKN009 M32/M37 A3022 RMK ST4 SLP311

CYQR;2009-12-08 13:00;CYQR 081300Z 00000KT 12SM SCT008 M32/M37 A3023 RMK SF2 SLP313

CYQR;2009-12-08 14:00;CYQR 081400Z 25002KT 12SM FEW350 M33/M37 A3022 RMK CI1 IC SLP312

CYQR;2009-12-08 15:00;CYQR 081500Z 00000KT 10SM FEW350 M33/M38 A3023 RMK CI1 IC SLP318

CYQR;2009-12-08 16:00;CYQR 081600Z 30003KT 6SM IC FEW350 M31/M35 A3025 RMK CI0 IC SLP324

CYQR;2009-12-08 17:00;CYQR 081700Z 26003KT 6SM IC SKC M31/M35 A3025 RMK IC2 IC SLP325

CYQR;2009-12-08 18:00;CYQR 081800Z 28002KT 6SM IC FEW250 M29/M32 A3024 RMK IC1CI0 IC SLP317

CYQR;2009-12-08 19:00;CYQR 081900Z 29004KT 10SM FEW250 M29/M33 A3023 RMK CI1 VIS SW-NW 4 IC SLP313

CYQR;2009-12-08 20:00;CYQR 082000Z 26003KT 15SM FEW250 M28/M32 A3021 RMK CI0 SLP308

CYQR;2009-12-08 21:00;CYQR 082100Z 24004KT 12SM FEW250 M28/M32 A3020 RMK CI1 IC SLP301

CYQR;2009-12-08 22:00;CYQR 082200Z 28003KT 12SM FEW250 M27/M32 A3019 RMK CI1 IC SLP300

CYQR;2009-12-08 23:00;CYQR 082300Z 26003KT 12SM FEW250 M29/M33 A3020 RMK CI1 IC SLP302

CYQR;2009-12-09 00:00;CYQR 090000Z 23004KT 12SM FEW250 M30/M34 A3019 RMK CI1 IC SLP304

CYQR;2009-12-09 00:25;CYQR 090025Z 24004KT 12SM FEW001 FEW250 M31/ RMK ST1CI0 IC

CYQR;2009-12-09 01:00;CYQR 090100Z 23005KT 12SM SCT003 M32/M36 A3019 RMK ST1 IC SLP301

CYQR;2009-12-09 02:00;CYQR 090200Z 20005KT 12SM FEW030 M32/M36 A3016 RMK SC1 IC SLP294

CYQR;2009-12-09 03:00;CYQR 090300Z 21005KT 15SM SCT250 M32/M37 A3014 RMK CI1 IC SLP288

CYQR;2009-12-09 04:00;CYQR 090400Z 23004KT 15SM SKC M31/M35 A3011 RMK IC SLP278

CYQR;2009-12-09 05:00;CYQR 090500Z 22003KT 15SM SKC M32/M36 A3010 RMK IC SLP275

CYQR;2009-12-09 06:00;CYQR 090600Z 17005KT 15SM SKC M31/M36 A3008 RMK IC SLP261

CYQR;2009-12-09 07:00;CYQR 090700Z 20002KT 15SM SKC M31/M35 A3004 RMK IC SLP250

CYQR;2009-12-09 08:00;CYQR 090800Z 17005KT 15SM SKC M31/M35 A3003 RMK IC SLP246

CYQR;2009-12-09 09:00;CYQR 090900Z 15005KT 15SM SKC M30/M35 A3000 RMK IC SLP233

CYQR;2009-12-09 10:00;CYQR 091000Z 14004KT 15SM SKC M32/M36 A2998 RMK IC SLP226

CYQR;2009-12-09 11:00;CYQR 091100Z 15005KT 15SM SKC M33/M38 A2996 RMK IC SLP219

CYQR;2009-12-09 12:00;CYQR 091200Z 12005KT 15SM SKC M33/M37 A2992 RMK IC SLP211

CYQR;2009-12-09 13:00;CYQR 091300Z CCA 13004KT 15SM SKC M33/M38 A2990 RMK SLP204

CYQR;2009-12-09 14:00;CYQR 091400Z 16003KT 15SM FEW091 M33/M38 A2989 RMK AC1 IC SLP202

CYQR;2009-12-09 15:00;CYQR 091500Z 18003KT 15SM SCT080 BKN250 M32/M37 A2988 RMK AC2CI1 SLP198

CYQR;2009-12-09 16:00;CYQR 091600Z 20004KT 15SM FEW090 BKN230 BKN280 M31/M36 A2987 RMK AC2CI2CI1 SLP195

CYQR;2009-12-09 17:00;CYQR 091700Z 18003KT 15SM FEW092 BKN230 BKN280 M29/M33 A2985 RMK AC2CI2CI1 SLP187

CYQR;2009-12-09 18:00;CYQR 091800Z 18003KT 12SM SCT055 BKN230 OVC280 M27/M31 A2983 RMK SC3CI2CI0 SLP174

CYQR;2009-12-09 18:45;CYQR 091845Z 22003KT 10SM FEW011 FEW060 BKN230 OVC280 M26/ RMK SF1SC2CI2CI0 IC

CYQR;2009-12-09 19:00;CYQR 091900Z 28004KT 10SM FEW011 FEW060 BKN230 OVC280 M24/M28 A2979 RMK SF1SC2CI2CI0 IC SLP162

CYQR;2009-12-09 20:00;CYQR 092000Z 26004KT 10SM FEW059 SCT091 BKN250 OVC280 M23/M27 A2976 RMK SC1AC2CI2CI1 IC SLP151

CYQR;2009-12-09 21:00;CYQR 092100Z 26005KT 10SM FEW063 SCT093 BKN230 OVC280 M23/M27 A2974 RMK SC2AC2CI2CI1 IC SLP140

CYQR;2009-12-09 22:00;CYQR 092200Z CCA 21003KT 10SM FEW060 FEW090 BKN220 OVC280 M23/M27 A2974 RMK SC1AC2CI1CI1 IC SLP139

CYQR;2009-12-09 23:00;CYQR 092300Z 22002KT 10SM BKN220 OVC280 M25/M29 A2974 RMK CI2CI2 IC SLP138

CYQR;2009-12-10 00:00;CYQR 100000Z 22005KT 10SM SCT074 BKN230 OVC300 M25/M29 A2972 RMK AC4CI2CI1 IC SLP136

CYQR;2009-12-10 00:47;CYQR 100047Z 26002KT 5SM -SN OVC022 M24/ RMK SC8

CYQR;2009-12-10 01:00;CYQR 100100Z 22002KT 5SM -SN OVC022 M24/M28 A2972 RMK SC8 SLP135

CYQR;2009-12-10 02:00;CYQR 100200Z 29007KT 3SM -SN SCT018 OVC024 M21/M25 A2970 RMK SC3SC5 SLP130

CYQR;2009-12-10 02:25;CYQR 100225Z 29010KT 2SM -SN VV010 M21/ RMK SN8

CYQR;2009-12-10 02:45;CYQR 100245Z 30010KT 2 1/2SM -SN VV008 M21/ RMK SN8

CYQR;2009-12-10 03:00;CYQR 100300Z 30010KT 3SM -SN DRSN VV008 M21/M25 A2969 RMK SN8 SLP123

CYQR;2009-12-10 03:09;CYQR 100309Z 29010KT 3SM -SN DRSN OVC015 M22/ RMK SC8

CYQR;2009-12-10 04:00;CYQR 100400Z 32012KT 3SM -SN DRSN BKN015 OVC085 M22/M25 A2969 RMK SC5AC3 SLP124

CYQR;2009-12-10 05:00;CYQR 100500Z 32014KT 3SM -SN DRSN SCT009 OVC060 M22/M26 A2970 RMK SC3SC5 SLP125

CYQR;2009-12-10 05:19;CYQR 100519Z 32013KT 2SM -SN DRSN SCT006 OVC060 M22/ RMK SC4SC4

CYQR;2009-12-10 06:00;CYQR 100600Z 32012KT 4SM -SN DRSN FEW006 OVC065 M22/M26 A2969 RMK SC2SC6 SLP120

CYQR;2009-12-10 07:00;CYQR 100700Z 31009KT 6SM -SN DRSN SCT017 BKN068 M23/M27 A2969 RMK SC1AC5 SLP119

CYQR;2009-12-10 08:00;CYQR 100800Z 31011KT 10SM -SN DRSN FEW017 BKN057 M23/M27 A2969 RMK SC1SC4 SLP120

CYQR;2009-12-10 08:42;CYQR 100842Z 30009KT 12SM FEW060 M24/ RMK SC1 IC

CYQR;2009-12-10 09:00;CYQR 100900Z 31011KT 12SM FEW060 M24/M28 A2970 RMK SC1 IC SLP119

CYQR;2009-12-10 10:00;CYQR 101000Z 29006KT 12SM FEW044 M26/M31 A2970 RMK SC0 IC SLP120

CYQR;2009-12-10 10:14;CYQR 101014Z 29010KT 2SM BR SKC M26/ RMK FG2

CYQR;2009-12-10 10:20;CYQR 101020Z 29012KT 4SM BR SKC M27/

CYQR;2009-12-10 11:00;CYQR 101100Z 29010KT 6SM BR SKC M27/M32 A2970 RMK SLP120

CYQR;2009-12-10 11:12;CYQR 101112Z 29010KT 2SM IC BR SKC M28/ RMK FG2 IC

CYQR;2009-12-10 11:19;CYQR 101119Z 28008KT 1SM R13/P6000FT/D BR SKC M28/ RMK FG2

CYQR;2009-12-10 11:39;CYQR 101139Z 27009KT 1 1/2SM BR SKC M28/ RMK FG2

CYQR;2009-12-10 11:46;CYQR 101146Z 28009KT 3SM BR SKC M28/

CYQR;2009-12-10 12:00;CYQR 101200Z 27009KT 3SM BR FEW001 M29/M34 A2972 RMK ST1 SLP132

CYQR;2009-12-10 12:09;CYQR 101209Z 27007KT 2 1/2SM BR FEW001 M29/ RMK ST1 VIS VRB 2-3

CYQR;2009-12-10 12:32;CYQR 101232Z 28010KT 4SM BR FEW001 M28/ RMK ST1

CYQR;2009-12-10 13:00;CYQR 101300Z 27009KT 4SM BR FEW002 SCT080 M28/M33 A2971 RMK ST1AC2 SLP131

CYQR;2009-12-10 14:00;CYQR 101400Z 27005KT 12SM FEW052 SCT300 M29/M34 A2971 RMK SC1CI1 SLP130

CYQR;2009-12-10 15:00;CYQR 101500Z CCA 27008KT 3SM IC FEW050 FEW300 M30/M35 A2971 RMK SC1CI0 VIS E 2 IC SLP128

CYQR;2009-12-10 16:00;CYQR 101600Z 31008KT 10SM FEW094 FEW300 M29/M34 A2972 RMK AC1CI1 IC SLP132

CYQR;2009-12-10 17:00;CYQR 101700Z 00000KT 6SM IC FEW095 FEW230 SCT300 M26/M30 A2974 RMK AC1CI1CI1 IC SLP137

CYQR;2009-12-10 18:00;CYQR 101800Z 30009KT 7SM FEW100 BKN230 M24/M28 A2974 RMK AC2CI1 IC SLP132

CYQR;2009-12-10 19:00;CYQR 101900Z 28010KT 12SM DRSN FEW081 BKN230 M22/M26 A2974 RMK AC2CI1 IC SLP134

CYQR;2009-12-10 20:00;CYQR 102000Z 30015KT 10SM DRSN FEW016 FEW080 BKN230 M21/M25 A2973 RMK CF1AC2CI1 IC SLP130

CYQR;2009-12-10 21:00;CYQR 102100Z 30012KT 10SM FEW010 SCT080 BKN280 M21/M25 A2976 RMK SC2AC1CI1 IC SLP138

CYQR;2009-12-10 22:00;CYQR 102200Z 29007KT 15SM FEW010 FEW280 M21/M26 A2977 RMK SC1CI0 SLP141

CYQR;2009-12-10 23:00;CYQR 102300Z 27008KT 15SM BKN018 BKN280 M24/M28 A2978 RMK SC2CI0 SLP146

CYQR;2009-12-11 00:00;CYQR 110000Z 25010KT 15SM SCT210 BKN280 M27/M31 A2979 RMK CI1CI1 SLP159

CYQR;2009-12-11 01:00;CYQR 110100Z 27007KT 15SM FEW280 M28/M33 A2978 RMK CI0 SLP156

CYQR;2009-12-11 02:00;CYQR 110200Z 25003KT 15SM BKN043 M28/M33 A2979 RMK SC6 SLP160

CYQR;2009-12-11 03:00;CYQR 110300Z 26009KT 15SM FEW037 M26/M31 A2978 RMK SC2 SLP156

CYQR;2009-12-11 04:00;CYQR 110400Z 23005KT 15SM FEW035 SCT082 M28/M33 A2979 RMK SC1AC4 SLP158

CYQR;2009-12-11 05:00;CYQR 110500Z 22006KT 15SM BKN038 M28/M32 A2977 RMK SC6 SLP153

CYQR;2009-12-11 06:00;CYQR 110600Z 24007KT 15SM -SN BKN040 M24/M28 A2976 RMK SC7 SLP141

CYQR;2009-12-11 07:00;CYQR 110700Z 22010KT 8SM -SN OVC044 M22/M26 A2974 RMK SC8 SLP134

CYQR;2009-12-11 08:00;CYQR 110800Z 18007KT 12SM -SN OVC032 M20/M24 A2971 RMK SC8 SLP127

CYQR;2009-12-11 08:52;CYQR 110852Z 18007KT 15SM BKN028 M20/ RMK SC7

CYQR;2009-12-11 09:00;CYQR 110900Z 18008KT 15SM BKN028 M20/M24 A2970 RMK SC7 SLP114

CYQR;2009-12-11 10:00;CYQR 111000Z 19010KT 10SM -SN OVC027 M19/M23 A2968 RMK SC8 SLP109

CYQR;2009-12-11 11:00;CYQR 111100Z 25005KT 6SM -SN OVC015 M18/M22 A2968 RMK SC8 SLP109

CYQR;2009-12-11 12:00;CYQR 111200Z 27009KT 4SM -SN BKN017 M17/M20 A2968 RMK SC7 SLP110

CYQR;2009-12-11 13:00;CYQR 111300Z 24007KT 3SM -SN OVC017 M15/M18 A2968 RMK SC8 SLP109

CYQR;2009-12-11 14:00;CYQR 111400Z 26005KT 3SM -SN OVC022 M15/M18 A2966 RMK SC6 SLP104

CYQR;2009-12-11 15:00;CYQR 111500Z 24005KT 5SM -SN BKN016 OVC300 M16/M20 A2967 RMK SC3CI1 SLP105

CYQR;2009-12-11 16:00;CYQR 111600Z 21006KT 3SM -SN BKN019 M15/M18 A2967 RMK SC7 SLP107

CYQR;2009-12-11 17:00;CYQR 111700Z 22006KT 6SM -SN SCT023 OVC054 M15/M18 A2968 RMK SC4SC4 SLP109

CYQR;2009-12-11 18:00;CYQR 111800Z 28004KT 15SM SCT025 OVC052 M14/M18 A2969 RMK SC4SC4 INTMT -SN SLP108

CYQR;2009-12-11 19:00;CYQR 111900Z 27007KT 15SM FEW024 BKN046 M15/M19 A2967 RMK SC2SC2 SLP104

CYQR;2009-12-11 20:00;CYQR 112000Z 28004KT 15SM FEW028 FEW095 BKN230 BKN300 M15/M20 A2968 RMK SC1AC2CI2CI1 SLP106

CYQR;2009-12-11 21:00;CYQR 112100Z 29006KT 15SM FEW020 FEW095 SCT230 BKN300 M16/M20 A2969 RMK SC1AC1CI1CI1 SLP109

CYQR;2009-12-11 22:00;CYQR 112200Z 33010KT 15SM OVC015 M16/M19 A2973 RMK SC7 SLP119

CYQR;2009-12-11 23:00;CYQR 112300Z 36012KT 15SM BKN020 OVC100 M16/M20 A2976 RMK SC6AC2 SLP129

CYQR;2009-12-11 23:49;CYQR 112349Z 36009KT 15SM -SN OVC022 M17/ RMK SC7

CYQR;2009-12-12 00:00;CYQR 120000Z 35009KT 15SM -SN BKN022 M17/M21 A2978 RMK SC7 SLP136

CYQR;2009-12-12 01:00;CYQR 120100Z 36010KT 15SM -SN SCT024 M21/M26 A2979 RMK SC4 SLP140

CYQR;2009-12-12 02:00;CYQR 120200Z 02006KT 15SM -SN BKN022 M21/M26 A2980 RMK SC7 SLP145

CYQR;2009-12-12 03:00;CYQR 120300Z 36010KT 15SM -SN FEW022 BKN080 M22/M27 A2981 RMK SC1AC6 SLP151

CYQR;2009-12-12 04:00;CYQR 120400Z 35006KT 15SM -SN BKN058 M23/M27 A2983 RMK SC7 SLP158

CYQR;2009-12-12 05:00;CYQR 120500Z 01010KT 15SM -SN OVC056 M23/M28 A2984 RMK SC8 SLP160

CYQR;2009-12-12 06:00;CYQR 120600Z 03007KT 15SM OVC043 M23/M30 A2985 RMK SC8 SLP164

CYQR;2009-12-12 06:41;CYQR 120641Z 03007KT 15SM -SN OVC050 M23/ RMK SC8

CYQR;2009-12-12 07:00;CYQR 120700Z 04005KT 15SM -SN OVC032 M23/M30 A2985 RMK SC8 SLP163

CYQR;2009-12-12 08:00;CYQR 120800Z 36003KT 8SM -SN OVC015 M23/M29 A2986 RMK SC8 SLP166

CYQR;2009-12-12 09:00;CYQR 120900Z 03007KT 8SM -SN OVC019 M23/M28 A2987 RMK SC8 SLP172

CYQR;2009-12-12 10:00;CYQR 121000Z 03008KT 8SM -SN OVC026 M23/M29 A2988 RMK SC8 SLP176

CYQR;2009-12-12 11:00;CYQR 121100Z 01009KT 15SM BKN031 OVC065 M24/M29 A2987 RMK SC6SC2 SLP173

CYQR;2009-12-12 11:04;CYQR 121104Z 03009KT 15SM -SN BKN031 OVC065 M24/ RMK SC6SC2

CYQR;2009-12-12 12:00;CYQR 121200Z 02007KT 12SM -SN OVC071 M24/M30 A2989 RMK AC8 SLP182

CYQR;2009-12-12 13:00;CYQR 121300Z 04006KT 12SM -SN OVC066 M24/M33 A2990 RMK AC8 SLP185

CYQR;2009-12-12 14:00;CYQR 121400Z 03006KT 10SM -SN OVC064 M25/M31 A2991 RMK SC8 SLP188

CYQR;2009-12-12 15:00;CYQR 121500Z 36005KT 8SM -SN OVC064 M25/M31 A2993 RMK SC8 SLP198

CYQR;2009-12-12 16:00;CYQR 121600Z 35006KT 10SM -SN BKN046 OVC066 M25/M31 A2996 RMK SC5AC3 SLP208

CYQR;2009-12-12 16:38;CYQR 121638Z 34007KT 15SM BKN064 OVC120 M25/ RMK SC5AC3

CYQR;2009-12-12 17:00;CYQR 121700Z 33007KT 15SM BKN060 OVC092 M25/M32 A2998 RMK SC5AC3 SLP216

CYQR;2009-12-12 17:23;CYQR 121723Z 34006KT 12SM -SN FEW012 BKN043 OVC092 M25/ RMK SC2SC4AC2

CYQR;2009-12-12 18:00;CYQR 121800Z 35007KT 10SM -SN FEW012 BKN043 OVC090 M25/M31 A2998 RMK SC2SC4AC2 SLP218

CYQR;2009-12-12 18:36;CYQR 121836Z 34010KT 10SM DRSN FEW012 SCT043 OVC090 M25/ RMK SC1SC2AC2

CYQR;2009-12-12 19:00;CYQR 121900Z 33012KT 8SM DRSN FEW012 SCT043 OVC090 M25/M31 A2999 RMK SC1SC2AC2 SLP221

CYQR;2009-12-12 20:00;CYQR 122000Z 34012KT 15SM DRSN FEW043 BKN087 M25/M32 A2999 RMK SC2AC6 SLP221

CYQR;2009-12-12 21:00;CYQR 122100Z 33014KT 15SM DRSN BKN089 M27/M34 A3000 RMK AC3 SLP227

CYQR;2009-12-12 22:00;CYQR 122200Z 31013KT 15SM DRSN BKN080 M27/M33 A3003 RMK AC3 SLP236

CYQR;2009-12-12 23:00;CYQR 122300Z 32017KT 15SM DRSN BKN067 M28/M35 A3004 RMK AC6 SLP239

CYQR;2009-12-13 00:00;CYQR 130000Z 32020KT 15SM DRSN BKN070 M30/M36 A3006 RMK AC5 SLP251

CYQR;2009-12-13 01:00;CYQR 130100Z 32013KT 15SM DRSN FEW090 M31/M37 A3009 RMK AC2 SLP260

CYQR;2009-12-13 02:00;CYQR 130200Z 32011KT 15SM FEW090 M32/M38 A3009 RMK AC2 SLP258

CYQR;2009-12-13 03:00;CYQR 130300Z 32015KT 15SM DRSN FEW100 M31/M38 A3008 RMK AC1 SLP260

CYQR;2009-12-13 04:00;CYQR 130400Z 29008KT 15SM SKC M33/M39 A3009 RMK SLP263

CYQR;2009-12-13 05:00;CYQR 130500Z 31011KT 15SM SKC M33/M39 A3009 RMK SLP264

CYQR;2009-12-13 06:00;CYQR 130600Z 31007KT 15SM SKC M34/M39 A3011 RMK SLP271

CYQR;2009-12-13 07:00;CYQR 130700Z 27006KT 15SM SKC M34/M40 A3011 RMK SLP273

CYQR;2009-12-13 08:00;CYQR 130800Z 28010KT 15SM SKC M35/M40 A3012 RMK SLP274

CYQR;2009-12-13 09:00;CYQR 130900Z 28008KT 15SM SKC M35/M40 A3011 RMK SLP275

CYQR;2009-12-13 10:00;CYQR 131000Z 28010KT 15SM SKC M34/M39 A3012 RMK SLP276

CYQR;2009-12-13 11:00;CYQR 131100Z 29013KT 15SM SKC M33/M38 A3010 RMK SLP271

CYQR;2009-12-13 12:00;CYQR 131200Z 30013KT 15SM SKC M33/M38 A3009 RMK SLP269

CYQR;2009-12-13 13:00;CYQR 131300Z 30009KT 15SM SKC M34/M39 A3010 RMK SLP271

CYQR;2009-12-13 14:00;CYQR 131400Z 27008KT 15SM FEW300 M35/M40 A3009 RMK CI1 SLP269

CYQR;2009-12-13 15:00;CYQR 131500Z 30010KT 15SM FEW300 M34/M39 A3010 RMK CI1 SLP274

CYQR;2009-12-13 16:00;CYQR 131600Z 26007KT 15SM FEW120 M34/M39 A3011 RMK AC1 SLP277

CYQR;2009-12-13 17:00;CYQR 131700Z 28008KT 15SM FEW120 FEW300 M33/M38 A3012 RMK AC1CI1 SLP281

CYQR;2009-12-13 18:00;CYQR 131800Z 29012KT 15SM FEW120 FEW300 M32/M38 A3010 RMK AC1CI1 SLP276

CYQR;2009-12-13 19:00;CYQR 131900Z 30013KT 15SM FEW120 FEW300 M31/M36 A3009 RMK AC1CI0 SLP270

CYQR;2009-12-13 20:00;CYQR 132000Z 30010KT 15SM BKN300 M30/M36 A3007 RMK CI1 SLP264

CYQR;2009-12-13 21:00;CYQR 132100Z 29007KT 15SM SCT300 M29/M35 A3007 RMK CI1 SLP261

CYQR;2009-12-13 22:00;CYQR 132200Z 29010KT 15SM FEW120 FEW300 M29/M35 A3007 RMK AC1CI0 SLP261

CYQR;2009-12-13 23:00;CYQR 132300Z 28005KT 15SM FEW120 FEW300 M30/M35 A3007 RMK AC1CI0 SLP261

CYQR;2009-12-14 00:00;CYQR 140000Z 28007KT 15SM FEW300 M31/M36 A3007 RMK CI1 SLP262

CYQR;2009-12-14 01:00;CYQR 140100Z 29006KT 15SM BKN300 M30/M35 A3008 RMK CI3 SLP265

CYQR;2009-12-14 02:00;CYQR 140200Z 30009KT 15SM BKN300 M28/M33 A3009 RMK CI2 SLP267

CYQR;2009-12-14 03:00;CYQR 140300Z 30008KT 15SM BKN300 M28/M33 A3009 RMK CI3 SLP266

CYQR;2009-12-14 04:00;CYQR 140400Z 30010KT 15SM BKN250 M27/M32 A3009 RMK CI5 SLP266

CYQR;2009-12-14 05:00;CYQR 140500Z 31013KT 15SM BKN040 OVC250 M27/M32 A3010 RMK SC6CI2 SLP272

CYQR;2009-12-14 05:53;CYQR 140553Z 31012KT 12SM -SN BKN044 OVC092 M26/ RMK SC5AC3

CYQR;2009-12-14 06:00;CYQR 140600Z 31011KT 12SM -SN BKN044 OVC092 M26/M32 A3011 RMK SC5AC3 SLP271

CYQR;2009-12-14 07:00;CYQR 140700Z 31012KT 15SM FEW035 OVC110 M26/M31 A3011 RMK SC2AC6 SLP270

CYQR;2009-12-14 08:00;CYQR 140800Z 30012KT 15SM BKN023 OVC060 M26/M31 A3012 RMK SC6SC2 SLP274

CYQR;2009-12-14 09:00;CYQR 140900Z 31015KT 12SM -SN BKN030 OVC082 M26/M31 A3013 RMK SC6AC2 SLP275

CYQR;2009-12-14 10:00;CYQR 141000Z 30013KT 15SM BKN026 M26/M31 A3014 RMK SC6 SLP278

CYQR;2009-12-14 10:49;CYQR 141049Z 29013KT 15SM -SN BKN064 OVC120 M26/ RMK SC6AC2

CYQR;2009-12-14 11:00;CYQR 141100Z 29012KT 15SM -SN SCT043 BKN064 OVC120 M26/M31 A3013 RMK SC3SC2AC2 SLP274

CYQR;2009-12-14 12:00;CYQR 141200Z 29018KT 4SM -SN BKN019 OVC078 M26/M31 A3013 RMK SC6AC2 SLP276

CYQR;2009-12-14 13:00;CYQR 141300Z 29014KT 10SM -SN DRSN FEW019 SCT057 BKN076 M27/M31 A3013 RMK SC2SC2AC1 SLP277

CYQR;2009-12-14 14:00;CYQR 141400Z 29016KT 15SM FEW019 SCT057 BKN080 M28/M33 A3014 RMK SC2SC2AC1 SLP278

CYQR;2009-12-14 15:00;CYQR 141500Z 28016KT 15SM DRSN FEW060 FEW250 M29/M34 A3015 RMK SC1CI0 SLP283

CYQR;2009-12-14 16:00;CYQR 141600Z 28011KT 15SM FEW087 SCT250 M29/M34 A3017 RMK AC1CI0 SLP290

CYQR;2009-12-14 17:00;CYQR 141700Z 28019KT 15SM FEW087 BKN230 M28/M33 A3017 RMK AC1CI1 SLP291

CYQR;2009-12-14 18:00;CYQR 141800Z 28020KT 15SM DRSN FEW090 FEW250 M27/M33 A3017 RMK AC1CI0 SLP288

CYQR;2009-12-14 19:00;CYQR 141900Z 29017KT 15SM DRSN FEW100 FEW250 M27/M32 A3017 RMK AC1CI0 SLP288

CYQR;2009-12-14 20:00;CYQR 142000Z 29016KT 15SM FEW250 M26/M31 A3018 RMK CI1 SLP291

CYQR;2009-12-14 21:00;CYQR 142100Z 28013KT 15SM DRSN SCT250 M25/M31 A3019 RMK CI0 SLP292

CYQR;2009-12-14 22:00;CYQR 142200Z 29016KT 15SM DRSN FEW250 M25/M31 A3019 RMK CI0 SLP293

CYQR;2009-12-14 23:00;CYQR 142300Z 28017KT 15SM DRSN FEW250 M26/M31 A3019 RMK CI0 SLP294

CYQR;2009-12-15 00:00;CYQR 150000Z 28010KT 15SM FEW250 M27/M32 A3023 RMK CI0 SLP306

CYQR;2009-12-15 01:00;CYQR 150100Z 29013KT 15SM FEW250 M28/M33 A3022 RMK CI0 SLP305

CYQR;2009-12-15 02:00;CYQR 150200Z 29018KT 15SM DRSN SKC M28/M33 A3022 RMK SLP303

CYQR;2009-12-15 03:00;CYQR 150300Z 30014KT 15SM DRSN SKC M28/M33 A3024 RMK SLP314

CYQR;2009-12-15 04:00;CYQR 150400Z 29012KT 15SM DRSN SKC M29/M34 A3024 RMK SLP315

CYQR;2009-12-15 05:00;CYQR 150500Z 29013KT 15SM DRSN SKC M29/M34 A3025 RMK SLP319

CYQR;2009-12-15 06:00;CYQR 150600Z 29013KT 15SM DRSN SKC M30/M35 A3027 RMK SLP324

CYQR;2009-12-15 07:00;CYQR 150700Z 30015KT 15SM DRSN SKC M29/M35 A3027 RMK SLP325

CYQR;2009-12-15 08:00;CYQR 150800Z 30011KT 15SM DRSN SKC M31/M36 A3028 RMK SLP327

CYQR;2009-12-15 09:00;CYQR 150900Z 29005KT 15SM SKC M31/M36 A3027 RMK SLP326

CYQR;2009-12-15 10:00;CYQR 151000Z 22003KT 15SM SKC M33/M38 A3028 RMK SLP327

CYQR;2009-12-15 11:00;CYQR 151100Z 20007KT 15SM SKC M34/M39 A3028 RMK SLP329

CYQR;2009-12-15 12:00;CYQR 151200Z 00000KT 15SM SKC M34/M38 A3027 RMK SLP328

CYQR;2009-12-15 13:00;CYQR 151300Z 12004KT 15SM SKC M33/M38 A3023 RMK SLP316

CYQR;2009-12-15 14:00;CYQR 151400Z 17007KT 15SM SKC M34/M39 A3023 RMK SLP314

CYQR;2009-12-15 15:00;CYQR 151500Z 14008KT 15SM SCT280 M33/M37 A3024 RMK CI1 CONTRAILS SLP318

CYQR;2009-12-15 16:00;CYQR 151600Z 13007KT 15SM FEW160 SCT240 BKN290 M31/M36 A3020 RMK AC2CI2CI2 SLP306

CYQR;2009-12-15 17:00;CYQR 151700Z 14008KT 15SM SCT094 BKN230 BKN280 M29/M34 A3018 RMK AC3CI2CI1 SLP299

CYQR;2009-12-15 18:00;CYQR 151800Z 14013KT 15SM BKN230 M27/M32 A3015 RMK CI7 SLP285

CYQR;2009-12-15 19:00;CYQR 151900Z 14014KT 15SM FEW100 BKN230 M24/M30 A3012 RMK AC1CI6 SLP274

CYQR;2009-12-15 20:00;CYQR 152000Z 14015G20KT 15SM SCT098 OVC230 M23/M29 A3009 RMK AC3CI5 SLP264

CYQR;2009-12-15 20:52;CYQR 152052Z CCA 14016KT 15SM -SN DRSN SCT062 BKN093 OVC230 M22/ RMK SC3AC3CI2

CYQR;2009-12-15 21:00;CYQR 152100Z 14017KT 6SM -SN DRSN FEW018 SCT062 OVC093 M21/M27 A3006 RMK SC2SC2AC4 SLP249

CYQR;2009-12-15 21:06;CYQR 152106Z 14015G20KT 2SM -SN DRSN SCT018 OVC062 RMK SC3SC5

CYQR;2009-12-15 22:00;CYQR 152200Z 13018G25KT 1 1/4SM -SN DRSN SCT016 OVC055 M21/M25 A3001 RMK SC3SC5 VIS VRB 1-11/2 SLP233

CYQR;2009-12-15 22:20;CYQR 152220Z 14018G24KT 3/4SM R13/P6000FT/D -SN DRSN VV007 M21/ RMK SN8

CYQR;2009-12-15 22:28;CYQR 152228Z 14019KT 1/2SM R13/5500FT/N -SN BLSN VV007 M20/ RMK SN8

CYQR;2009-12-15 22:48;CYQR 152248Z 15018G25KT 3/4SM R13/P6000FT/U -SN BLSN VV007 M20/ RMK SN8

CYQR;2009-12-15 23:00;CYQR 152300Z 14018KT 1SM R13/P6000FT/U -SN BLSN VV008 M20/M24 A2999 RMK SN8 SLP228

CYQR;2009-12-15 23:11;CYQR 152311Z 14020KT 1 1/2SM -SN BLSN VV012 M20/ RMK SN8

CYQR;2009-12-16 00:00;CYQR 160000Z 14019KT 1 1/2SM -SN DRSN VV014 M20/M24 A2999 REBLSN RMK SN8 /S01/ SLP224

CYQR;2009-12-16 00:11;CYQR 160011Z 14020KT 4SM -SN DRSN OVC017 M20/ RMK SC8

CYQR;2009-12-16 01:00;CYQR 160100Z 15017KT 4SM -SN DRSN OVC028 M19/M24 A3000 RMK SC8 SLP230

CYQR;2009-12-16 01:26;CYQR 160126Z 15015G22KT 3SM -SN DRSN FEW006 OVC028 M19/ RMK SF1SC7

CYQR;2009-12-16 02:00;CYQR 160200Z 14016KT 8SM -SN DRSN FEW004 BKN042 OVC110 M20/M24 A2999 RMK SF1SC6AC2 SLP227

CYQR;2009-12-16 03:00;CYQR 160300Z 14015KT 15SM DRSN SCT040 M21/M25 A2999 RMK SC3 SLP227

CYQR;2009-12-16 04:00;CYQR 160400Z 13015KT 15SM DRSN SKC M21/M26 A2999 RMK SLP224

CYQR;2009-12-16 05:00;CYQR 160500Z 13013KT 15SM DRSN SKC M21/M26 A2999 RMK SLP225

CYQR;2009-12-16 06:00;CYQR 160600Z 13013KT 15SM DRSN SKC M21/M26 A2999 RMK SLP222

CYQR;2009-12-16 07:00;CYQR 160700Z 14012KT 15SM SKC M22/M26 A3001 RMK SLP227

CYQR;2009-12-16 08:00;CYQR 160800Z 14011KT 15SM SKC M22/M26 A3002 RMK SLP232

CYQR;2009-12-16 09:00;CYQR 160900Z 14011KT 15SM SKC M22/M26 A3003 RMK SLP231

CYQR;2009-12-16 10:00;CYQR 161000Z 13009KT 15SM SKC M23/M27 A3002 RMK SLP229

CYQR;2009-12-16 11:00;CYQR 161100Z 12007KT 15SM SKC M23/M27 A3001 RMK SLP226

CYQR;2009-12-16 12:00;CYQR 161200Z 13010KT 15SM SKC M23/M27 A3001 RMK SLP223

CYQR;2009-12-16 13:00;CYQR 161300Z 13013KT 15SM SKC M22/M26 A2999 RMK SLP218

CYQR;2009-12-16 14:00;CYQR 161400Z 14013KT 15SM BKN094 M21/M25 A3000 RMK AC6 SLP219

CYQR;2009-12-16 15:00;CYQR 161500Z 14013KT 15SM BKN100 BKN250 M20/M24 A3002 RMK AC6CI2 SLP224

CYQR;2009-12-16 16:00;CYQR 161600Z 13014KT 15SM DRSN SCT078 BKN230 OVC300 M19/M22 A3000 RMK AC3CI1CI2 SLP218

CYQR;2009-12-16 17:00;CYQR 161700Z 13017KT 15SM DRSN FEW085 BKN230 BKN300 M16/M20 A2996 RMK AC2CI2CI1 SLP207

CYQR;2009-12-16 18:00;CYQR 161800Z 14017KT 15SM DRSN FEW094 SCT230 M14/M18 A2993 RMK AC2CI1 SLP191

CYQR;2009-12-16 19:00;CYQR 161900Z 14020KT 15SM DRSN FEW084 FEW230 M13/M16 A2991 RMK AC1CI1 SLP183

CYQR;2009-12-16 20:00;CYQR 162000Z 15018KT 15SM DRSN FEW080 SCT230 BKN280 M13/M16 A2988 RMK AC1CI2CI1 SLP175

CYQR;2009-12-16 21:00;CYQR 162100Z 14015KT 15SM DRSN FEW063 FEW090 SCT230 BKN280 M11/M14 A2987 RMK SC1AC1CI2CI1 SLP169

CYQR;2009-12-16 22:00;CYQR 162200Z 14016KT 15SM DRSN FEW063 FEW090 SCT230 M12/M15 A2987 RMK SC1AC1CI1 SLP167

CYQR;2009-12-16 23:00;CYQR 162300Z 13011KT 15SM DRSN FEW090 FEW230 M12/M15 A2988 RMK AC1CI1 SLP171

CYQR;2009-12-17 00:00;CYQR 170000Z 13009KT 15SM DRSN FEW090 SCT230 M13/M16 A2987 RMK AC1CI2 SLP171

CYQR;2009-12-17 01:00;CYQR 170100Z 12011KT 15SM SKC M13/M17 A2987 RMK SLP171

CYQR;2009-12-17 02:00;CYQR 170200Z 13007KT 15SM SKC M13/M16 A2988 RMK SLP173

CYQR;2009-12-17 03:00;CYQR 170300Z 12005KT 15SM SKC M14/M17 A2989 RMK SLP174

CYQR;2009-12-17 04:00;CYQR 170400Z 14002KT 15SM SKC M15/M18 A2989 RMK SLP176

CYQR;2009-12-17 05:00;CYQR 170500Z 24007KT 15SM SKC M15/M18 A2989 RMK SLP175

CYQR;2009-12-17 06:00;CYQR 170600Z 22004KT 15SM SKC M16/M19 A2990 RMK SLP176

CYQR;2009-12-17 07:00;CYQR 170700Z 00000KT 15SM SKC M16/M18 A2991 RMK SLP179

CYQR;2009-12-17 07:37;CYQR 170737Z 23002KT 2 1/2SM R13/2400FT/N BR SKC M16/

CYQR;2009-12-17 08:00;CYQR 170800Z 00000KT 2 1/2SM R13/4000VP6000FT/D BR SKC M14/M17 A2991 RMK SLP180

CYQR;2009-12-17 08:34;CYQR 170834Z 00000KT 4SM R13/2600FT/N BR SKC M16/

CYQR;2009-12-17 09:00;CYQR 170900Z 04003KT 10SM BCFG SKC M17/M19 A2993 RMK SLP183

CYQR;2009-12-17 10:00;CYQR 171000Z 12007KT 10SM BCFG SKC M16/M19 A2994 RMK SLP186

CYQR;2009-12-17 11:00;CYQR 171100Z 10005KT 8SM BCFG SKC M18/M21 A2994 RMK SLP186

CYQR;2009-12-17 12:00;CYQR 171200Z 13005KT 10SM BCFG BKN001 M17/M20 A2993 RMK SF2 SLP187

CYQR;2009-12-17 13:00;CYQR 171300Z 14005KT 10SM BCFG BKN001 M17/M20 A2993 RMK SF1 SLP187

CYQR;2009-12-17 14:00;CYQR 171400Z 12005KT 10SM BCFG BKN001 BKN230 M16/M19 A2994 RMK SF3CI1 SLP188

CYQR;2009-12-17 14:11;CYQR 171411Z 13006KT 12SM BCFG SCT001 SCT230 M16/ RMK SF2CI1

CYQR;2009-12-17 15:00;CYQR 171500Z 12005KT 12SM BCFG FEW001 FEW230 M16/M19 A2994 RMK ST1CI1 TR ST OVR CITY SLP188

CYQR;2009-12-17 16:00;CYQR 171600Z 12006KT 10SM FEW001 FEW087 SCT230 BKN260 M15/M18 A2994 RMK SF1AC1CI2CI2 BR SLP191

CYQR;2009-12-17 17:00;CYQR 171700Z 12006KT 15SM FEW096 SCT230 BKN260 M13/M15 A2996 RMK AC1CI2CI1 SLP195

CYQR;2009-12-17 18:00;CYQR 171800Z 12006KT 15SM FEW230 M12/M14 A2996 RMK CI1 SLP194

CYQR;2009-12-17 19:00;CYQR 171900Z 12007KT 15SM FEW230 M10/M11 A2994 RMK CI1 SLP188

CYQR;2009-12-17 20:00;CYQR 172000Z 13003KT 15SM FEW230 M08/M10 A2994 RMK CI1 SLP189

CYQR;2009-12-17 21:00;CYQR 172100Z 09003KT 15SM FEW230 SCT280 M07/M09 A2995 RMK CI1CI1 SLP189

CYQR;2009-12-17 22:00;CYQR 172200Z 16003KT 15SM FEW078 SCT230 M10/M11 A2997 RMK AC1CI2 SLP194

CYQR;2009-12-17 23:00;CYQR 172300Z 18003KT 15SM FEW099 BKN230 M11/M12 A2998 RMK AC1CI3 SLP198

CYQR;2009-12-18 00:00;CYQR 180000Z 29003KT 15SM FEW100 BKN230 M12/M14 A3001 RMK AC2CI2 SLP214

CYQR;2009-12-18 01:00;CYQR 180100Z 34005KT 15SM FEW100 M12/M13 A3004 RMK AC2 SLP221

CYQR;2009-12-18 02:00;CYQR 180200Z 32008KT 15SM FEW100 M13/M14 A3005 RMK AC2 SLP226

CYQR;2009-12-18 03:00;CYQR 180300Z 33008KT 15SM FEW100 M13/M15 A3007 RMK AC2 SLP234

CYQR;2009-12-18 04:00;CYQR 180400Z 31009KT 10SM FEW100 M14/M15 A3009 RMK AC2 SLP239

CYQR;2009-12-18 04:24;CYQR 180424Z 30010KT 10SM BCFG BKN005 RMK SF2

CYQR;2009-12-18 04:30;CYQR 180430Z 31011KT 10SM BCFG OVC002 RMK SF5

CYQR;2009-12-18 05:00;CYQR 180500Z 32011KT 6SM BR BCFG OVC002 M12/M13 A3011 RMK SF5 SLP248

CYQR;2009-12-18 05:11;CYQR 180511Z 33011KT 10SM BCFG OVC003 M12/ RMK SF6

CYQR;2009-12-18 06:00;CYQR 180600Z 34010KT 10SM BCFG BKN003 OVC011 M11/M13 A3013 RMK SF7SC1 SLP250

CYQR;2009-12-18 07:00;CYQR 180700Z 31011KT 10SM BCFG OVC003 M10/M12 A3014 RMK ST8 SLP251

CYQR;2009-12-18 07:52;CYQR 180752Z 32009KT 2SM BR OVC002 M10/ RMK ST8

CYQR;2009-12-18 08:00;CYQR 180800Z 32009KT 3/4SM R13/5000FT/N BR OVC001 M10/M12 A3015 RMK ST8 SLP257

CYQR;2009-12-18 08:32;CYQR 180832Z 33010KT 2SM BR OVC002 M10/ RMK ST8

CYQR;2009-12-18 09:00;CYQR 180900Z 33012KT 1SM R13/P6000FT/D BR OVC001 M11/M12 A3018 RMK ST8 SLP264

CYQR;2009-12-18 09:14;CYQR 180914Z 34015KT 1 1/2SM -SN BR OVC002 RMK ST8

CYQR;2009-12-18 10:00;CYQR 181000Z 32011KT 1 1/2SM -SN BR OVC003 M11/M13 A3019 RMK ST8 SLP267

CYQR;2009-12-18 10:46;CYQR 181046Z 31009KT 1SM R13/P6000FT/N -SN BR OVC001 M12/ RMK ST8

CYQR;2009-12-18 11:00;CYQR 181100Z 30010KT 2SM -SN BR OVC002 M13/M14 A3020 RMK ST8 SLP269

CYQR;2009-12-18 11:15;CYQR 181115Z 31008KT 3SM BR BKN002 M14/ RMK SF6

CYQR;2009-12-18 11:33;CYQR 181133Z 31006KT 10SM FEW002 M15/ RMK SF2

CYQR;2009-12-18 12:00;CYQR 181200Z 31009KT 10SM FEW002 M16/M18 A3020 RMK SF1 SLP277

CYQR;2009-12-18 13:00;CYQR 181300Z 30009KT 10SM SKC M17/M19 A3020 RMK SLP279

CYQR;2009-12-18 14:00;CYQR 181400Z 31003KT 15SM SKC M18/M20 A3022 RMK SLP283

CYQR;2009-12-18 15:00;CYQR 181500Z 29004KT 6SM BR SKC M19/M22 A3022 RMK SLP288

CYQR;2009-12-18 16:00;CYQR 181600Z 00000KT 3SM BR SKC M19/M21 A3023 RMK SLP291

CYQR;2009-12-18 17:00;CYQR 181700Z 26004KT 3SM BR SKC M17/M20 A3023 RMK SLP292

CYQR;2009-12-18 18:00;CYQR 181800Z 24003KT 3SM BR FEW080 SCT240 M16/M18 A3022 RMK AC1CI0 SLP283

CYQR;2009-12-18 18:35;CYQR 181835Z 00000KT 2SM BR FEW240 M16/ RMK CI0

CYQR;2009-12-18 19:00;CYQR 181900Z 25002KT 3SM BR FEW240 M15/M17 A3020 RMK CI0 SLP276

CYQR;2009-12-18 20:00;CYQR 182000Z 00000KT 3SM BR SKC M14/M16 A3017 RMK SLP268

CYQR;2009-12-18 21:00;CYQR 182100Z 23002KT 15SM FEW015 FEW120 BKN210 BKN280 M14/M16 A3018 RMK SC1AC1CI2CI1 SLP266

CYQR;2009-12-18 21:41;CYQR 182141Z 13003KT 3SM BR BKN004 OVC100 M13/ RMK SF6AC2

CYQR;2009-12-18 21:57;CYQR 182157Z 14003KT 3SM BR OVC005 M12/ RMK SF8

CYQR;2009-12-18 22:00;CYQR 182200Z 14003KT 3SM BR OVC005 M12/M14 A3017 RMK SF8 SLP264

CYQR;2009-12-18 22:44;CYQR 182244Z 17004KT 3SM BR OVC003 M13/ RMK SF8

CYQR;2009-12-18 23:00;CYQR 182300Z 16005KT 1 1/2SM BR OVC002 M12/M14 A3017 RMK SF8 SLP263

CYQR;2009-12-18 23:03;CYQR 182303Z 15005KT 3/4SM R13/P6000FT/D BR OVC001 M12/ RMK FG2SF6

CYQR;2009-12-18 23:08;CYQR 182308Z 15004KT 5/8SM R13/3500VP6000FT/D BR OVC001 M12/ RMK FG5SF3

CYQR;2009-12-18 23:23;CYQR 182323Z 13004KT 3/8SM R13/2200V3000FT/N FZFG VV001 M12/ RMK FG8

CYQR;2009-12-18 23:30;CYQR 182330Z 12004KT 3/4SM R13/2200FT/N BR OVC002 12/ RMK FG2SF6

CYQR;2009-12-18 23:42;CYQR 182342Z 12004KT 1/2SM R13/3000FT/N FZFG VV002 M12/ RMK FG8

CYQR;2009-12-18 23:51;CYQR 182351Z 12005KT 1/2SM R13/3000VP6000FT/D FZFG VV005 M12/ RMK FG8

CYQR;2009-12-19 00:00;CYQR 190000Z 13004KT 1/2SM R13/3000VP6000FT/D FZFG VV005 M12/M14 A3016 RMK FG8 SLP264

CYQR;2009-12-19 00:43;CYQR 190043Z 15005KT 1/2SM R13/3500V6000FT/D FZFG VV003 M12/ RMK FG8

CYQR;2009-12-19 01:00;CYQR 190100Z 14005KT 1/2SM R13/3000V4500FT/U FZFG VV003 M12/M14 A3016 RMK FG8 SLP263

CYQR;2009-12-19 02:00;CYQR 190200Z 13009KT 1/2SM R13/5000FT/N FZFG VV001 M13/M15 A3014 RMK FG8 R13/5000/N VIS VRB 1/4 - 1SM SLP259

CYQR;2009-12-19 02:33;CYQR 190233Z 13009KT 1 1/2SM BR OVC003 M13/ RMK FG3ST5

CYQR;2009-12-19 03:00;CYQR 190300Z 12007KT 1 1/2SM BR OVC003 M13/M15 A3012 RMK FG3ST5 SLP254

CYQR;2009-12-19 03:29;CYQR 190329Z 12009KT 3/4SM R13/P6000FT/D BR OVC002 M12/ RMK FG3ST5 VIS VRB 1/2 - 1 SM

CYQR;2009-12-19 03:47;CYQR 190347Z 12008KT 1/4SM R13/3000V4500FT/U FZFG VV001 M12/ RMK FG8 R13/3000V5000/U

CYQR;2009-12-19 04:00;CYQR 190400Z 13009KT 1 1/2SM R13/3000VP6000FT/U BR OVC005 M12/M14 A3011 RMK FG2ST6 R13/3000VP6000/U VIS VRB 1/2 11/2 SM SLP249

CYQR;2009-12-19 04:16;CYQR 190416Z 13010KT 3SM BR OVC005 M13/ RMK ST8

CYQR;2009-12-19 05:00;CYQR 190500Z 13009KT 5SM BR OVC004 M13/M15 A3010 RMK ST8 SLP247

CYQR;2009-12-19 06:00;CYQR 190600Z 15006KT 5SM BR OVC008 M14/M16 A3011 RMK ST8 SLP249

CYQR;2009-12-19 07:00;CYQR 190700Z 12012KT 4SM BR OVC003 M13/M14 A3008 RMK ST8 SLP237

CYQR;2009-12-19 07:39;CYQR 190739Z 13014KT 1/2SM R13/3000VP6000FT/U FZFG OVC003 M12/ RMK ST8

CYQR;2009-12-19 08:00;CYQR 190800Z 15012KT 1/2SM R13/3000V5000FT/N FZFG VV001 M12/M14 A3004 RMK FG8 SLP227

CYQR;2009-12-19 09:00;CYQR 190900Z 13010KT 1/2SM R13/P6000FT/N FZFG OVC004 M13/M15 A3003 RMK ST8 SLP218

CYQR;2009-12-19 09:08;CYQR 190908Z 13010KT 2SM BR OVC004 M13/ RMK ST8

CYQR;2009-12-19 10:00;CYQR 191000Z CCA 13012KT 2SM -SN BR OVC004 M13/M15 A3000 RMK ST8 SLP208

CYQR;2009-12-19 11:00;CYQR 191100Z 14012KT 1 1/2SM -SN BR OVC003 M13/M15 A2998 RMK SC8 SLP200

CYQR;2009-12-19 12:00;CYQR 191200Z 14011KT 1 1/2SM -SN BR OVC003 M12/M14 A2995 RMK SC8 SLP190

CYQR;2009-12-19 12:49;CYQR 191249Z 13010KT 4SM -SN OVC004 M12/ RMK SC8

CYQR;2009-12-19 13:00;CYQR 191300Z 14011KT 6SM -SN OVC006 M12/M14 A2992 RMK SC8 SLP178

CYQR;2009-12-19 14:00;CYQR 191400Z 14010KT 6SM -SN BKN006 OVC015 M11/M13 A2991 RMK SC5SC3 SLP176

CYQR;2009-12-19 14:34;CYQR 191434Z 13009KT 6SM BR SCT006 OVC110 M11/ RMK SC3AC5

CYQR;2009-12-19 15:00;CYQR 191500Z 14009KT 10SM FEW006 OVC110 M11/M12 A2990 RMK SC1AC7 SLP170

CYQR;2009-12-19 16:00;CYQR 191600Z 13010KT 10SM BKN092 OVC250 M10/M12 A2988 RMK AC6CI2 SLP165

CYQR;2009-12-19 17:00;CYQR 191700Z 13009KT 10SM FEW006 BKN094 OVC250 M10/M12 A2988 RMK SF1AC6CI2 SLP164

CYQR;2009-12-19 18:00;CYQR 191800Z 13010KT 10SM FEW006 BKN095 OVC140 M09/M11 A2985 RMK SF1AC5AC2 SLP154

CYQR;2009-12-19 19:00;CYQR 191900Z 14007KT 10SM FEW006 BKN085 OVC140 M09/M10 A2987 RMK SF1AC4AC3 SLP158

CYQR;2009-12-19 20:00;CYQR 192000Z 13004KT 8SM SCT006 BKN087 OVC140 M08/M09 A2986 RMK SF2AC5AC1 SLP156

CYQR;2009-12-19 21:00;CYQR 192100Z 10002KT 8SM SCT006 BKN054 OVC090 M08/M09 A2986 RMK SF2SC4AC2 SLP155

CYQR;2009-12-19 21:37;CYQR 192137Z 04003KT 6SM -SN BKN007 OVC054 M08/ RMK SF5SC3

CYQR;2009-12-19 22:00;CYQR 192200Z CCA 02003KT 6SM -SN BKN009 OVC013 M08/M09 A2989 RMK SF6SC2 SLP163

CYQR;2009-12-19 23:00;CYQR 192300Z 34005KT 6SM -SN BR OVC008 M08/M09 A2992 RMK SC8 SLP173

CYQR;2009-12-20 00:00;CYQR 200000Z 34007KT 6SM -SN BR OVC007 M08/M10 A2994 RMK SC8 SLP180

CYQR;2009-12-20 01:00;CYQR 200100Z 36008KT 10SM OVC006 M08/M10 A2995 RMK SC8 SLP185

CYQR;2009-12-20 02:00;CYQR 200200Z 01006KT 8SM OVC005 M08/M09 A2996 RMK SC8 SLP188

CYQR;2009-12-20 02:44;CYQR 200244Z 36006KT 8SM OVC004 M08/ RMK SC8

CYQR;2009-12-20 03:00;CYQR 200300Z 36006KT 8SM OVC004 M08/M09 A2997 RMK SC8 SLP190

CYQR;2009-12-20 04:00;CYQR 200400Z 34006KT 4SM BR OVC004 M08/M09 A2998 RMK SC8 SLP193

CYQR;2009-12-20 05:00;CYQR 200500Z 33008KT 4SM BR OVC003 M08/M09 A2999 RMK SC8 SLP197

CYQR;2009-12-20 06:00;CYQR 200600Z 32007KT 3SM BR OVC003 M08/M09 A3000 RMK SC8 SLP201

CYQR;2009-12-20 06:31;CYQR 200631Z 32008KT 1 1/2SM BR OVC002 M08/ RMK SC8

CYQR;2009-12-20 06:43;CYQR 200643Z 29008KT 1SM R13/P6000FT/U -SN BR OVC002 M08/ RMK SC8

CYQR;2009-12-20 07:00;CYQR 200700Z 32007KT 1SM R13/P6000FT/D -SN BR OVC002 M09/M10 A3002 RMK SC8 SLP207

CYQR;2009-12-20 08:00;CYQR 200800Z 29006KT 1SM R13/P6000FT/N -SN BR OVC003 M09/M10 A3002 RMK SC8 SLP207

CYQR;2009-12-20 08:45;CYQR 200845Z 30008KT 1/2SM R13/P6000FT/U FZFG VV001 M10/ RMK FG8

CYQR;2009-12-20 09:00;CYQR 200900Z 30009KT 1/2SM R13/P6000FT/U FZFG VV001 M10/M11 A3004 RMK FG8 SLP214

CYQR;2009-12-20 10:00;CYQR 201000Z 33007KT 1/2SM R13/3500V5000FT/U FZFG VV001 M10/M11 A3004 RMK FG8 SLP214

CYQR;2009-12-20 10:32;CYQR 201032Z 31005KT 1/4SM R13/2600FT/N FZFG VV001 M10/ RMK FG8

CYQR;2009-12-20 11:00;CYQR 201100Z 27006KT 1/4SM R13/3000FT/N FZFG VV001 M10/M12 A3004 RMK FG8 SLP214

CYQR;2009-12-20 11:43;CYQR 201143Z 29005KT 1/2SM R13/4500VP6000FT/D FZFG VV001 M11/ RMK FG8

CYQR;2009-12-20 12:00;CYQR 201200Z 29005KT 1/2SM R13/4000VP6000FT/D FZFG VV001 M11/M13 A3006 RMK FG8 SLP221

CYQR;2009-12-20 12:08;CYQR 201208Z 28004KT 3/4SM R13/P6000FT/U BR OVC001 M11/ RMK ST8

CYQR;2009-12-20 12:36;CYQR 201236Z 31004KT 3SM BR SCT001 OVC088 M12/ RMK ST4AC4

CYQR;2009-12-20 13:00;CYQR 201300Z 32004KT 6SM BR FEW002 BKN088 M13/M15 A3007 RMK SF1AC6 SLP226

CYQR;2009-12-20 14:00;CYQR 201400Z 29002KT 6SM BR FEW002 OVC075 M13/M15 A3007 RMK SF2AC6 SLP226

CYQR;2009-12-20 14:41;CYQR 201441Z 00000KT 10SM -SN BKN055 OVC075 M13/ RMK SC5AC3

CYQR;2009-12-20 15:00;CYQR 201500Z 00000KT 10SM -SN BKN055 OVC075 M13/M15 A3005 RMK SC6AC2 SLP221

CYQR;2009-12-20 16:00;CYQR 201600Z 26002KT 15SM SCT030 BKN055 OVC092 M12/M14 A3006 RMK SC3SC3AC1 SLP224

CYQR;2009-12-20 16:53;CYQR 201653Z 28003KT 10SM -SN BKN007 BKN025 OVC055 M10/ RMK SC5SC2SC2

CYQR;2009-12-20 17:00;CYQR 201700Z 28003KT 10SM -SN BKN007 BKN025 OVC055 M10/M12 A3007 RMK SC5SC2SC2 SLP225

CYQR;2009-12-20 17:07;CYQR 201707Z 31003KT 1 1/2SM -SN OVC007 M10/ RMK SC8

CYQR;2009-12-20 17:18;CYQR 201718Z 28003KT 4SM -SN BKN008 OVC025 M09/ RMK SC6SC2

CYQR;2009-12-20 18:00;CYQR 201800Z 28004KT 10SM -SN BKN014 OVC039 M08/M10 A3007 RMK SC6SC2 SLP224

CYQR;2009-12-20 18:43;CYQR 201843Z 31004KT 10SM -SN BKN019 OVC042 M07/ RMK SC6SC2

CYQR;2009-12-20 19:00;CYQR 201900Z 29007KT 8SM -SN BKN019 OVC042 M07/M09 A3005 RMK SC6SC2 SLP219

CYQR;2009-12-20 19:49;CYQR 201949Z 30008KT 15SM FEW010 SCT055 SCT076 BKN250 M07/ RMK SC2SC2AC1CI1

CYQR;2009-12-20 20:00;CYQR 202000Z 30009KT 15SM FEW010 FEW055 SCT090 BKN250 M07/M08 A3004 RMK SC1SC1AC2CI1 SLP216

CYQR;2009-12-20 21:00;CYQR 202100Z 31010KT 15SM FEW010 FEW250 M08/M09 A3004 RMK SC1CI0 SLP213

CYQR;2009-12-20 21:38;CYQR 202138Z 32007KT 15SM BKN011 M09/ RMK SC6

CYQR;2009-12-20 22:00;CYQR 202200Z 32007KT 15SM BKN014 M09/M11 A3005 RMK SC7 SLP217

CYQR;2009-12-20 22:19;CYQR 202219Z 32008KT 15SM FEW015 SCT250 M11/ RMK SC2CI0

CYQR;2009-12-20 23:00;CYQR 202300Z 32009KT 15SM FEW015 FEW250 M11/M13 A3005 RMK SC1CI0 SLP216

CYQR;2009-12-20 23:49;CYQR 202349Z 31007KT 15SM BKN011 M15/ RMK SC5

CYQR;2009-12-21 00:00;CYQR 210000Z 32008KT 15SM BKN011 M14/M16 A3006 RMK SC7 SLP226

CYQR;2009-12-21 00:26;CYQR 210026Z 31007KT 15SM -SN OVC010 M13/ RMK SC8

CYQR;2009-12-21 01:00;CYQR 210100Z 34006KT 15SM -SN OVC009 M12/M14 A3007 RMK SC8 SLP230

CYQR;2009-12-21 02:00;CYQR 210200Z 35007KT 15SM -SN OVC007 M13/M15 A3006 RMK SC8 SLP227

CYQR;2009-12-21 03:00;CYQR 210300Z 34006KT 15SM -SN OVC004 M13/M15 A3006 RMK SC8 SLP227

CYQR;2009-12-21 04:00;CYQR 210400Z 32006KT 15SM -SN OVC004 M14/M16 A3005 RMK SC8 SLP223

CYQR;2009-12-21 05:00;CYQR 210500Z 26004KT 15SM -SN OVC005 M16/M18 A3005 RMK SC8 SLP223

CYQR;2009-12-21 06:00;CYQR 210600Z 31004KT 15SM -SN OVC003 M16/M18 A3004 RMK SC8 SLP219

CYQR;2009-12-21 07:00;CYQR 210700Z 27006KT 10SM -SN OVC004 M17/M20 A3005 RMK SC8 SLP223

CYQR;2009-12-21 08:00;CYQR 210800Z 31002KT 10SM -SN OVC002 M17/M19 A3004 RMK SC8 SLP220

CYQR;2009-12-21 09:00;CYQR 210900Z 02002KT 10SM -SN OVC001 M18/M20 A3003 RMK SC8 SLP217

CYQR;2009-12-21 09:24;CYQR 210924Z 35002KT 10SM -SN OVC003 M18/ RMK ST6

CYQR;2009-12-21 10:00;CYQR 211000Z 26004KT 10SM R13/5500FT/U -SN OVC003 M18/M20 A3004 RMK ST8 SLP219

CYQR;2009-12-21 10:36;CYQR 211036Z 00000KT 3SM -SN BR OVC001 M18/ RMK ST8 VIS N NW 3/4

CYQR;2009-12-21 10:54;CYQR 211054Z 34002KT 1SM R13/P6000FT/U -SN BR OVC001 M18/ RMK ST8 VIS N-NW 1/2

CYQR;2009-12-21 11:00;CYQR 211100Z 34002KT 1SM R13/P6000FT/N -SN BR VV001 M18/M20 A3002 RMK FG8 VIS N-NW 1/2 SLP215

CYQR;2009-12-21 11:06;CYQR 211106Z 30002KT 1/2SM R13/P6000FT/U SN FZFG VV001 M18/ RMK FG8

CYQR;2009-12-21 11:24;CYQR 211124Z 00000KT 1/4SM R13/3500V5500FT/D SN FZFG VV001 M17/ RMK FG8

CYQR;2009-12-21 11:50;CYQR 211150Z 00000KT 1/2SM R13/3500VP6000FT/D SN FZFG VV001 M17/ RMK FG8

CYQR;2009-12-21 12:00;CYQR 211200Z 31002KT 3/4SM R13/P6000FT/D -SN BR VV001 M17/M19 A3003 RMK FG8 VIS S-SW 11/2 SLP220

CYQR;2009-12-21 12:11;CYQR 211211Z 00000KT 1/4SM R13/P6000FT/D SN FZFG VV001 M16/ RMK FG8

CYQR;2009-12-21 13:00;CYQR 211300Z 05002KT 1/2SM R13/3000V4500FT/U SN FZFG VV001 M16/M18 A3002 RMK FG8 SLP218

CYQR;2009-12-21 13:49;CYQR 211349Z 10002KT 3/4SM R13/P6000FT/U -SN BR OVC002 RMK FG6SF2

CYQR;2009-12-21 14:00;CYQR 211400Z 13004KT 1 1/2SM -SN BR OVC002 M15/M16 A3003 RMK FG5SF3 SLP219

CYQR;2009-12-21 15:00;CYQR 211500Z 15004KT 2SM -SN BR OVC003 M15/M17 A3002 RMK SN1SC7 SLP215

CYQR;2009-12-21 15:31;CYQR 211531Z 13003KT 2SM -SN BR OVC002 M14/ RMK SN1SC7

CYQR;2009-12-21 16:00;CYQR 211600Z 12004KT 3SM -SN BR OVC003 M14/M16 A3004 RMK SC8 SLP220

CYQR;2009-12-21 16:25;CYQR 211625Z 13003KT 5SM -SN BR BKN005 OVC040 M14/ RMK SC6SC1

CYQR;2009-12-21 17:00;CYQR 211700Z 13003KT 6SM -SN BR BKN004 OVC040 M14/M16 A3004 RMK SC5SC2 SLP220

CYQR;2009-12-21 18:00;CYQR 211800Z 14005KT 6SM -SN BR SCT004 OVC095 M14/M16 A3003 RMK SC4AC3 SLP219

CYQR;2009-12-21 18:48;CYQR 211848Z 16004KT 15SM FEW004 OVC082 M14/ RMK SF1AC7

CYQR;2009-12-21 19:00;CYQR 211900Z 14003KT 15SM FEW002 OVC082 M14/M16 A3002 RMK SF1AC6 SLP217

CYQR;2009-12-21 20:00;CYQR 212000Z 13002KT 15SM FEW003 BKN066 OVC140 M13/M15 A3001 RMK SF1SC5AC2 SLP214

CYQR;2009-12-21 21:00;CYQR 212100Z 13005KT 15SM FEW015 BKN069 OVC140 M13/M15 A3001 RMK SC1AC6AC2 SLP215

CYQR;2009-12-21 22:00;CYQR 212200Z 10003KT 15SM BKN067 OVC087 M13/M15 A3001 RMK AC7AC1 SLP215

CYQR;2009-12-21 23:00;CYQR 212300Z 10006KT 15SM BKN067 OVC090 M13/M15 A3001 RMK AC7AC1 SLP216

CYQR;2009-12-22 00:00;CYQR 220000Z 12004KT 15SM OVC060 M13/M15 A3002 RMK SC8 SLP217

CYQR;2009-12-22 01:00;CYQR 220100Z 14005KT 15SM OVC057 M13/M14 A3002 RMK SC8 SLP217

CYQR;2009-12-22 02:00;CYQR 220200Z 14005KT 15SM OVC067 M12/M14 A3001 RMK AC8 SLP214

CYQR;2009-12-22 03:00;CYQR 220300Z 15007KT 15SM OVC067 M11/M13 A3000 RMK AC8 SLP207

CYQR;2009-12-22 04:00;CYQR 220400Z 13007KT 15SM OVC065 M11/M12 A3000 RMK SC8 SLP206

CYQR;2009-12-22 05:00;CYQR 220500Z 11006KT 15SM OVC065 M10/M12 A3000 RMK SC8 SLP206

CYQR;2009-12-22 06:00;CYQR 220600Z 09006KT 15SM BKN038 OVC080 M10/M12 A3000 RMK SC6AC2 SLP207

CYQR;2009-12-22 06:45;CYQR 220645Z 12007KT 10SM -SN OVC038 M10/ RMK SC8

CYQR;2009-12-22 07:00;CYQR 220700Z 12007KT 6SM -SN OVC038 M10/M12 A3000 RMK SC8 SLP205

CYQR;2009-12-22 08:00;CYQR 220800Z 12009KT 4SM -SN OVC017 M10/M11 A2999 RMK SC8 SLP204

CYQR;2009-12-22 09:00;CYQR 220900Z 13012KT 3SM -SN OVC019 M10/M12 A3000 RMK SC8 SLP204

CYQR;2009-12-22 10:00;CYQR 221000Z 13012KT 6SM -SN OVC024 M10/M12 A3000 RMK SC8 SLP204

CYQR;2009-12-22 11:00;CYQR 221100Z 13012KT 4SM -SN SCT024 OVC058 M10/M12 A3000 RMK SN2SC2SC4 SLP204

CYQR;2009-12-22 12:00;CYQR 221200Z 12011KT 4SM -SN OVC076 M10/M12 A2999 RMK SN2AC6 SLP200

CYQR;2009-12-22 13:00;CYQR 221300Z 12013KT 4SM -SN SCT015 OVC074 M10/M12 A3000 RMK SN2SC2AC4 SLP205

CYQR;2009-12-22 14:00;CYQR 221400Z 13014KT 10SM -SN DRSN FEW015 OVC065 M09/M11 A3001 RMK SC1SC7 SLP207

CYQR;2009-12-22 15:00;CYQR 221500Z 12013KT 12SM -SN DRSN OVC059 M10/M12 A3001 RMK SC8 SLP206

CYQR;2009-12-22 16:00;CYQR 221600Z 13013G18KT 2 1/2SM -SN DRSN OVC013 M09/M11 A3002 RMK SC8 SLP209

CYQR;2009-12-22 16:45;CYQR 221645Z 13016KT 1 1/2SM -SN DRSN OVC013 M09/ RMK SN2SC6

CYQR;2009-12-22 16:53;CYQR 221653Z 13015KT 1SM R13/P6000FT/U -SN DRSN OVC011 M09/ RMK SN3SC5

CYQR;2009-12-22 17:00;CYQR 221700Z 13015KT 3/4SM R13/P6000FT/U -SN BR OVC010 M09/M11 A3003 RMK SN4SC4 SLP211

CYQR;2009-12-22 17:34;CYQR 221734Z 13015KT 1 1/2SM -SN DRSN VV008 M09/ RMK SN8 VIS VRB 1-2

CYQR;2009-12-22 17:40;CYQR 221740Z 13013KT 2 1/2SM -SN DRSN OVC010 M09/ RMK SC8 VIS VRB 2-3

CYQR;2009-12-22 17:45;CYQR 221745Z 13013KT 3SM -SN DRSN OVC038 M09/ RMK SC8

CYQR;2009-12-22 18:00;CYQR 221800Z 13012G19KT 5SM -SN DRSN SCT009 OVC038 M09/M11 A3002 RMK SC2SC6 SLP207

CYQR;2009-12-22 18:19;CYQR 221819Z 13015G21KT 4SM -SN DRSN BKN011 OVC038 M09/ RMK SC5SC3 VIS W 2

CYQR;2009-12-22 18:25;CYQR 221825Z 13015KT 2SM -SN DRSN BKN011 OVC038 M09/ RMK SC6SC2

CYQR;2009-12-22 18:31;CYQR 221831Z 13015G20KT 1SM R13/P6000FT/N -SN DRSN BKN011 OVC038 M09/ RMK SC6SC2

CYQR;2009-12-22 18:47;CYQR 221847Z 13016KT 3/4SM R13/P6000FT/D -SN DRSN OVC038 M09/ RMK SN3SC5

CYQR;2009-12-22 19:00;CYQR 221900Z 13015KT 1/2SM R13/5500FT/D SN DRSN SCT038 OVC053 M09/M11 A3001 RMK SN3SC1SC4 SLP206

CYQR;2009-12-22 19:27;CYQR 221927Z 13014KT 1 1/2SM -SN DRSN OVC030 M09/ RMK SN4SC4

CYQR;2009-12-22 20:00;CYQR 222000Z 13016KT 3SM -SN DRSN FEW006 OVC061 M09/M11 A3002 RMK SF1SC7 SLP207

CYQR;2009-12-22 21:00;CYQR 222100Z 13011KT 2 1/2SM -SN DRSN BKN015 OVC060 M08/M10 A3002 RMK SN2SC3SC3 SLP209

CYQR;2009-12-22 22:00;CYQR 222200Z 14013KT 2 1/2SM -SN DRSN FEW015 OVC057 M08/M10 A3004 RMK SC1SC7 VIS VRB 2-3 SLP213

CYQR;2009-12-22 23:00;CYQR 222300Z 12011KT 2 1/2SM -SN DRSN SCT012 OVC063 M08/M10 A3004 RMK SC3SC5 VIS VRB 2-3 SLP215

CYQR;2009-12-23 00:00;CYQR 230000Z 14013KT 2 1/2SM -SN DRSN OVC050 M08/M10 A3006 RMK SC8 VIS VRB 2-3 SLP223

CYQR;2009-12-23 01:00;CYQR 230100Z 13011KT 2 1/2SM -SN DRSN OVC039 M08/M10 A3007 RMK SC8 VIS VRB 2-3 SLP225

CYQR;2009-12-23 02:00;CYQR 230200Z 14010KT 2 1/2SM -SN DRSN OVC034 M08/M10 A3008 RMK SC8 VSBY VRB 2-3 SLP228

CYQR;2009-12-23 03:00;CYQR 230300Z 14013KT 2 1/2SM -SN DRSN OVC032 M08/M10 A3008 RMK SC8 SLP227

CYQR;2009-12-23 04:00;CYQR 230400Z 14012KT 2 1/2SM -SN DRSN OVC025 M08/M10 A3007 RMK SC8 VIS VRBL 2-3 /S01/ SLP225

CYQR;2009-12-23 05:00;CYQR 230500Z 15013KT 2 1/2SM -SN DRSN OVC034 M08/M10 A3007 RMK SC8 VSBY VRB 2-3 SLP224

CYQR;2009-12-23 06:00;CYQR 230600Z 15011KT 2 1/2SM -SN DRSN OVC035 M08/M10 A3007 RMK SC8 VIS VRBL 2-3 /S02/ SLP224

CYQR;2009-12-23 07:00;CYQR 230700Z 15009KT 2 1/2SM -SN DRSN OVC035 M08/M10 A3007 RMK SC8 VIS VRBL 2-3 SLP225

CYQR;2009-12-23 08:00;CYQR 230800Z 15008KT 2 1/2SM -SN DRSN BKN039 OVC055 M08/M10 A3007 RMK SC6SC2 VIS VRBL 2-3 SLP224

CYQR;2009-12-23 09:00;CYQR 230900Z CCA 15009KT 2 1/2SM -SN DRSN OVC044 M08/M10 A3007 RMK SC8 /S01/ SLP222

CYQR;2009-12-23 10:00;CYQR 231000Z 15008KT 2 1/2SM -SN DRSN OVC042 M08/M09 A3006 RMK SC8 VIS VRBL 2-3 SLP220

CYQR;2009-12-23 10:38;CYQR 231038Z 16008KT 3/4SM R13/P6000FT/D -SN DRSN VV006 M07/ RMK SN8

CYQR;2009-12-23 10:46;CYQR 231046Z 16006KT 1/2SM R13/P6000FT/U SN VV005 M07/ RMK SN8

CYQR;2009-12-23 11:00;CYQR 231100Z 17007KT 1/2SM R13/P6000FT/N SN VV005 M07/M09 A3006 RMK SN8 SLP220

CYQR;2009-12-23 11:16;CYQR 231116Z 18005KT 3/4SM R13/P6000FT/U -SN VV005 M07/ RESN RMK SN8

CYQR;2009-12-23 11:32;CYQR 231132Z 18005KT 1SM R13/P6000FT/U -SN OVC035 M07/ RESN RMK SN2SC6

CYQR;2009-12-23 11:55;CYQR 231155Z 21005KT 1 1/2SM -SN OVC035 M07/ RESN RMK SN2SC6

CYQR;2009-12-23 12:00;CYQR 231200Z 21005KT 1 1/2SM -SN OVC035 M07/M09 A3007 RESN RMK SN2SC6 /S03/ SLP222

CYQR;2009-12-23 13:00;CYQR 231300Z 31011KT 3/4SM R13/P6000FT/D -SN VV003 M10/M11 A3007 RMK SN8 SLP223

CYQR;2009-12-23 13:17;CYQR 231317Z 30009KT 5/8SM R13/P6000FT/U -SN VV004 M10/ RMK SN8

CYQR;2009-12-23 13:41;CYQR 231341Z 30015KT 3/4SM R13/P6000FT/U -SN VV003 M10/ RMK SN8 VIS VRB 1/2-1

CYQR;2009-12-23 14:00;CYQR 231400Z 30019KT 3/4SM R13/P6000FT/U -SN DRSN VV004 M11/M13 A3009 RMK SN8 VIS VRB 1/2-1 SLP229

CYQR;2009-12-23 14:09;CYQR 231409Z 30017KT 3/4SM R13/P6000FT/D -SN DRSN VV009 M11/ RMK SN8 VIS VRB 1/2-1

CYQR;2009-12-23 15:00;CYQR 231500Z CCA 32018KT 1SM R13/P6000FT/D -SN DRSN VV007 M12/M14 A3010 RMK SN8 VIS VRB 3/4-11/2 SLP237

CYQR;2009-12-23 15:18;CYQR 231518Z 32017KT 3/4SM R13/P6000FT/D -SN DRSN VV004 M12/ RMK SN8 VIS VRB 1/2-1

CYQR;2009-12-23 16:00;CYQR 231600Z 32015G21KT 1/2SM R13/6000FT/N -SN BLSN VV005 M12/M14 A3011 RMK SN8 SLP240

CYQR;2009-12-23 16:53;CYQR 231653Z 32019KT 3/4SM R13/P6000FT/D -SN BLSN VV007 M13/ RMK SN8 VIS VRB 1/2-1

CYQR;2009-12-23 17:00;CYQR 231700Z 32020KT 3/4SM R13/P6000FT/D -SN BLSN VV006 M13/M15 A3013 RMK SN8 VIS VRB 1/2-1 /S01/ SLP245

CYQR;2009-12-23 17:32;CYQR 231732Z 32019KT 1SM R13/P6000FT/U -SN BLSN VV007 M13/ RMK SN8 VIS VRB 3/4-11/2

CYQR;2009-12-23 18:00;CYQR 231800Z 32020KT 3/4SM R13/P6000FT/D -SN BLSN VV006 M13/M15 A3013 RMK SN8 /S02/ SLP246

CYQR;2009-12-23 18:34;CYQR 231834Z 31017KT 5/8SM R13/6000FT/D -SN BLSN VV005 M13/ RMK SN8

CYQR;2009-12-23 19:00;CYQR 231900Z 31016KT 5/8SM R13/5500FT/N -SN BLSN VV004 M13/M16 A3014 RMK SN8 SLP252

CYQR;2009-12-23 20:00;CYQR 232000Z 31017G22KT 1/2SM R13/6000FT/N -SN BLSN VV005 M14/M16 A3015 RMK SN8 SLP254

CYQR;2009-12-23 20:36;CYQR 232036Z 31019KT 3/4SM R13/P6000FT/U -SN BLSN VV006 M14/ RMK SN8 VIS VRB 1/2-1

CYQR;2009-12-23 21:00;CYQR 232100Z 31018KT 3/4SM R13/P6000FT/D -SN BLSN VV006 M14/M16 A3015 RMK SN8 SLP257

CYQR;2009-12-23 22:00;CYQR 232200Z 31019G24KT 1SM R13/P6000FT/D -SN BLSN VV008 M15/M17 A3017 RMK SN8 VIS VRB 3/4-11/2 /S01/ SLP262

CYQR;2009-12-23 22:22;CYQR 232222Z 31019G24KT 1 1/2SM -SN BLSN VV006 M16/ RMK SN8

CYQR;2009-12-23 23:00;CYQR 232300Z 31018KT 2SM -SN BLSN VV011 M16/M19 A3019 RMK SN8 SLP270

CYQR;2009-12-24 00:00;CYQR 240000Z 30022KT 2 1/2SM -SN BLSN VV011 M18/M20 A3021 RMK SN8 SLP278

CYQR;2009-12-24 00:25;CYQR 240025Z 30021KT 3SM -SN BLSN BKN035 M18/ RMK SN4SC2

CYQR;2009-12-24 01:00;CYQR 240100Z 31020KT 5SM -SN BLSN BKN056 M18/M21 A3022 RMK BLSN2SC5 SLP281

CYQR;2009-12-24 02:00;CYQR 240200Z 31019KT 10SM -SN BKN050 OVC120 M20/M22 A3023 RMK SC6AC2 SLP285

CYQR;2009-12-24 03:00;CYQR 240300Z 31019KT 6SM -SN OVC050 M19/M21 A3023 RMK SC8 SLP291

CYQR;2009-12-24 04:00;CYQR 240400Z 31020KT 6SM -SN DRSN OVC050 M20/M22 A3023 RMK SC8 SLP291

CYQR;2009-12-24 05:00;CYQR 240500Z 31017KT 6SM -SN DRSN BKN050 M21/M23 A3023 RMK SC6 SLP292

CYQR;2009-12-24 05:28;CYQR 240528Z 31014KT 15SM DRSN SCT050 M22/ RMK SC3

CYQR;2009-12-24 06:00;CYQR 240600Z 31012KT 15SM SCT043 M23/M25 A3024 RMK SC3 SLP298

CYQR;2009-12-24 07:00;CYQR 240700Z 31014KT 15SM SCT040 M22/M25 A3024 RMK SC3 IC SLP297

CYQR;2009-12-24 08:00;CYQR 240800Z 30013KT 6SM IC FEW040 M22/M25 A3025 RMK SC2 IC SLP300

CYQR;2009-12-24 09:00;CYQR 240900Z 31016KT 15SM FEW014 BKN040 M22/M25 A3026 RMK SC2SC2 IC SLP303

CYQR;2009-12-24 09:19;CYQR 240919Z 31016KT 15SM -SN BKN014 M21/ RMK SC6

CYQR;2009-12-24 10:00;CYQR 241000Z 31018KT 15SM -SN BKN012 OVC045 M21/M25 A3026 RMK SC6SC2 -SN INTMT SLP303

CYQR;2009-12-24 10:22;CYQR 241022Z 31015KT 15SM -SN OVC007 M21/ RMK SC8

CYQR;2009-12-24 11:00;CYQR 241100Z 32013KT 15SM -SN OVC006 M21/M24 A3025 RMK SC8 SLP301

CYQR;2009-12-24 11:23;CYQR 241123Z 31013KT 10SM -SN OVC005 M21/ RMK SC8

CYQR;2009-12-24 12:00;CYQR 241200Z 32013KT 3SM -SN BCFG OVC005 M21/M24 A3024 RMK ST8 SLP301

CYQR;2009-12-24 12:18;CYQR 241218Z 32015KT 6SM BR OVC005 M21/ RMK ST8

CYQR;2009-12-24 12:49;CYQR 241249Z 32015KT 2SM BR SKC M21/ RMK FG6

CYQR;2009-12-24 13:00;CYQR 241300Z 33017KT 1SM R13/P6000FT/D BR OVC002 M22/M25 A3025 RMK FG2SF6 SLP302

CYQR;2009-12-24 13:11;CYQR 241311Z 32015KT 1SM R13/P6000FT/D DRSN BR BKN003 OVC007 M22/ RMK FG2SF3SC2

CYQR;2009-12-24 13:33;CYQR 241333Z 31013G18KT 1SM R13/P6000FT/D IC DRSN SCT002 OVC008 M22/ RMK IC2SF2SC4 IC

CYQR;2009-12-24 14:00;CYQR 241400Z 31014KT 1 1/2SM IC DRSN SCT002 OVC007 M23/M27 A3025 RMK IC2SF2SC4 IC SLP303

CYQR;2009-12-24 15:00;CYQR 241500Z 31013KT 1 1/4SM IC DRSN OVC004 M23/M27 A3026 RMK IC2ST6 IC VIS VRB 1-11/2 SLP308

CYQR;2009-12-24 15:10;CYQR 241510Z 31011KT 3/4SM R13/P6000FT/D IC DRSN OVC002 M23/ RMK IC3ST5 IC

CYQR;2009-12-24 15:37;CYQR 241537Z 31014KT 1SM R13/P6000FT/N IC DRSN OVC006 M23/ RMK IC2SC6 IC

CYQR;2009-12-24 16:00;CYQR 241600Z 31015KT 3/4SM R13/P6000FT/D IC DRSN OVC006 M23/M27 A3026 RMK IC2SC6 VIS VRB 1/2-1 SLP310

CYQR;2009-12-24 16:22;CYQR 241622Z 32014KT 1/2SM R13/P6000FT/D DRSN FZFG BKN002 OVC006 M23/ RMK FG3SF2SC3 VIS VRB 3/8-3/4

CYQR;2009-12-24 17:00;CYQR 241700Z 31014KT 1/2SM R13/P6000FT/N DRSN FZFG BKN002 OVC005 M23/M27 A3027 RMK FG3SF2SC3 VIS VRB 3/8-3/4 SLP313

CYQR;2009-12-24 17:03;CYQR 241703Z 31013KT 1SM R13/P6000FT/U DRSN BR OVC003 M23/ RMK FG3ST5

CYQR;2009-12-24 17:34;CYQR 241734Z 32013KT 3/4SM R13/P6000FT/U DRSN BR OVC004 M23/ RMK FG3ST5 VIS VRB 1/2-1

CYQR;2009-12-24 18:00;CYQR 241800Z 32016KT 3/4SM R13/P6000FT/U DRSN BR OVC005 M23/M27 A3025 RMK FG3ST5 VIS VRB 1/2-1 VIS E 13/4 SLP310

CYQR;2009-12-24 18:10;CYQR 241810Z 32015KT 1 1/2SM DRSN BR BKN005 OVC230 M23/ RMK FG2ST3CI1 VIS E 2

CYQR;2009-12-24 19:00;CYQR 241900Z 32013KT 1 1/4SM DRSN BR OVC002 M23/M27 A3025 RMK FG3ST5 VIS VRB 1-11/2 VIS E 13/4 SLP309

CYQR;2009-12-24 19:29;CYQR 241929Z 32015KT 1 1/2SM DRSN BR OVC004 M23/ RMK FG3ST5 VIS VRB 1-2

CYQR;2009-12-24 20:00;CYQR 242000Z 33014KT 1 1/4SM DRSN BR OVC004 M22/M26 A3023 RMK FG3ST5 VIS VRB 1-11/2 SLP303

CYQR;2009-12-24 20:17;CYQR 242017Z 33014KT 1 3/4SM DRSN BR BKN004 M22/ RMK FG2SF3

CYQR;2009-12-24 20:52;CYQR 242052Z 34016KT 3SM DRSN BR BKN003 OVC080 M22/ RMK ST5AC3

CYQR;2009-12-24 21:00;CYQR 242100Z 34016KT 3SM DRSN BR BKN003 OVC080 M22/M26 A3023 RMK SF5AC3 SLP300

CYQR;2009-12-24 22:00;CYQR 242200Z 34016KT 4SM DRSN BR SCT002 BKN080 OVC230 M22/M26 A3023 RMK SF2AC3CI2 SLP299

CYQR;2009-12-24 23:00;CYQR 242300Z 32012KT 4SM DRSN BR SCT003 BKN080 BKN230 M22/M26 A3024 RMK ST1AC3CI2 SLP303

CYQR;2009-12-24 23:45;CYQR 242345Z 32013KT 6SM IC DRSN FEW003 BKN080 OVC230 M22/ RMK SF1AC3CI2

CYQR;2009-12-25 00:00;CYQR 250000Z 33013KT 4SM IC DRSN SCT003 BKN100 OVC230 M22/M26 A3025 RMK SF2AC3CI1 SLP306

CYQR;2009-12-25 01:00;CYQR 250100Z 32011KT 6SM IC DRSN FEW002 BKN100 BKN230 M23/M27 A3026 RMK SF2AC2CI1 SLP309

CYQR;2009-12-25 02:00;CYQR 250200Z 33012KT 6SM IC FEW100 M23/M27 A3026 RMK AC2 IC SLP310

CYQR;2009-12-25 03:00;CYQR 250300Z 33010KT 6SM IC FEW066 M24/M28 A3027 RMK AC2 SLP317

CYQR;2009-12-25 04:00;CYQR 250400Z 33012KT 6SM IC FEW070 M25/M29 A3025 RMK AC2 SLP311

CYQR;2009-12-25 05:00;CYQR 250500Z 33010KT 6SM IC FEW070 M26/M30 A3026 RMK AC2 SLP314

CYQR;2009-12-25 06:00;CYQR 250600Z 34011KT 6SM IC FEW070 M26/M31 A3028 RMK AC2 IC SLP321

CYQR;2009-12-25 07:00;CYQR 250700Z 33012KT 6SM IC SKC M27/M32 A3028 RMK SLP324

CYQR;2009-12-25 08:00;CYQR 250800Z 35009KT 6SM IC SCT079 M27/M31 A3029 RMK AC4 SLP325

CYQR;2009-12-25 09:00;CYQR 250900Z 34010KT 6SM IC SCT079 M26/M30 A3029 RMK AC3 SLP324

CYQR;2009-12-25 10:00;CYQR 251000Z 33011KT 6SM IC FEW075 M26/M30 A3029 RMK AC2 SLP325

CYQR;2009-12-25 11:00;CYQR 251100Z CCA 34014KT 1SM R13/P6000FT/N IC SKC M25/M30 A3028 RMK IC5 SLP320

CYQR;2009-12-25 11:41;CYQR 251141Z 34014KT 3SM IC SKC M26/ RMK IC2

CYQR;2009-12-25 12:00;CYQR 251200Z 34013KT 6SM IC SKC M26/M30 A3029 RMK SLP326

CYQR;2009-12-25 13:00;CYQR 251300Z 34012KT 6SM IC SKC M26/M30 A3031 RMK SLP330

CYQR;2009-12-25 14:00;CYQR 251400Z 33010KT 6SM IC SKC M26/M30 A3031 RMK SLP332

CYQR;2009-12-25 14:31;CYQR 251431Z 33011KT 2 1/2SM IC SKC M26/ RMK IC6

CYQR;2009-12-25 15:00;CYQR 251500Z 34010KT 2SM IC FEW250 M26/M30 A3032 RMK IC1CI1 SLP336

CYQR;2009-12-25 16:00;CYQR 251600Z 34012KT 2SM R13/6000FT/U IC SCT250 M25/M30 A3033 RMK IC1CI1 VIS VRB 11/2-21/2 SLP339

CYQR;2009-12-25 17:00;CYQR 251700Z 33012KT 2 1/2SM IC BKN250 M24/M28 A3034 RMK IC1CI1 SLP342

CYQR;2009-12-25 18:00;CYQR 251800Z 34007KT 2SM IC BKN250 M23/M27 A3035 RMK IC1CI1 VIS VRB 11/2-21/2 SLP345

CYQR;2009-12-25 19:00;CYQR 251900Z 34012KT 2 1/2SM IC BKN250 M21/M26 A3034 RMK IC1CI2 SLP342

CYQR;2009-12-25 19:24;CYQR 251924Z 32012KT 3SM IC BKN250 M21/ RMK IC1CI1

CYQR;2009-12-25 20:00;CYQR 252000Z CCA 33013KT 5SM IC DRSN BKN250 M21/M25 A3033 RMK CI1 SLP339

CYQR;2009-12-25 20:11;CYQR 252011Z 33012KT 8SM DRSN BKN250 M20/ RMK CI1 IC

CYQR;2009-12-25 21:00;CYQR 252100Z 33018KT 7SM DRSN SCT250 M20/M24 A3033 RMK CI1 IC SLP338

CYQR;2009-12-25 22:00;CYQR 252200Z 34013KT 6SM IC DRSN BKN250 M20/M24 A3035 RMK CI2 SLP343

CYQR;2009-12-25 23:00;CYQR 252300Z 34013KT 10SM DRSN BKN250 M20/M24 A3035 RMK CI2 SLP343

CYQR;2009-12-25 23:35;CYQR 252335Z 34014KT 6SM IC DRSN BKN250 M20/ RMK CI1

CYQR;2009-12-26 00:00;CYQR 260000Z 34014KT 6SM IC DRSN BKN250 M20/M24 A3035 RMK CI2 SLP343

CYQR;2009-12-26 01:00;CYQR 260100Z 34012KT 4SM IC DRSN SCT250 M21/M24 A3035 RMK CI1 SLP345

CYQR;2009-12-26 02:00;CYQR 260200Z 34012KT 3SM IC SCT250 M20/M24 A3034 RMK CI1 SLP342

CYQR;2009-12-26 02:17;CYQR 260217Z 34014KT 2 1/2SM IC SCT250 M21/ RMK CI1

CYQR;2009-12-26 02:45;CYQR 260245Z 34014KT 2SM IC SCT250 M21/ RMK CI2

CYQR;2009-12-26 03:00;CYQR 260300Z 34016KT 2SM IC SCT250 M21/M25 A3034 RMK CI2 SLP340

CYQR;2009-12-26 04:00;CYQR 260400Z 34016KT 2SM IC SCT250 M21/M25 A3035 RMK CI2 SLP343

CYQR;2009-12-26 04:31;CYQR 260431Z 34014KT 2 1/2SM IC FEW250 M21/ RMK CI1

CYQR;2009-12-26 05:00;CYQR 260500Z 34015KT 3SM IC DRSN FEW250 M21/M25 A3035 RMK CI1 SLP345

CYQR;2009-12-26 06:00;CYQR 260600Z 34015KT 3SM IC DRSN FEW250 M22/M26 A3036 RMK CI1 SLP345

CYQR;2009-12-26 07:00;CYQR 260700Z 33012KT 5SM IC FEW250 M23/M27 A3036 RMK CI1 SLP346

CYQR;2009-12-26 08:00;CYQR 260800Z 33010KT 8SM FEW250 M23/M27 A3035 RMK CI1 IC SLP344

CYQR;2009-12-26 09:00;CYQR 260900Z 32012KT 12SM FEW250 M23/M27 A3036 RMK CI1 SLP346

CYQR;2009-12-26 10:00;CYQR 261000Z 32013KT 10SM FEW250 M23/M27 A3036 RMK CI1 SLP344

CYQR;2009-12-26 11:00;CYQR 261100Z 33011KT 3SM IC FEW250 M23/M28 A3036 RMK CI1 SLP344

CYQR;2009-12-26 11:19;CYQR 261119Z 33013KT 2 1/2SM IC FEW250 M24/ RMK CI1

CYQR;2009-12-26 11:30;CYQR 261130Z 33014KT 2SM IC FEW250 M24/ RMK CI1

CYQR;2009-12-26 12:00;CYQR 261200Z 33012KT 2SM IC FEW250 M24/M28 A3034 RMK CI1 SLP338

CYQR;2009-12-26 12:07;CYQR 261207Z 33013KT 4SM IC FEW250 M24/ RMK CI1

CYQR;2009-12-26 13:00;CYQR 261300Z 32009KT 15SM FEW250 M25/M29 A3034 RMK CI1 SLP339

CYQR;2009-12-26 14:00;CYQR 261400Z 33012KT 15SM FEW250 M25/M29 A3034 RMK CI1 SLP339

CYQR;2009-12-26 14:48;CYQR 261448Z 33010KT 2SM IC FEW250 M25/ RMK CI1

CYQR;2009-12-26 15:00;CYQR 261500Z CCA 33012KT 1 1/2SM IC FEW250 M25/M29 A3034 RMK CI1 SLP339

CYQR;2009-12-26 15:33;CYQR 261533Z 33010KT 10SM FEW250 M25/ RMK CI1

CYQR;2009-12-26 16:00;CYQR 261600Z 33010KT 10SM FEW250 M25/M29 A3033 RMK CI1 SLP335

CYQR;2009-12-26 17:00;CYQR 261700Z 34010KT 15SM FEW250 M24/M28 A3033 RMK CI1 SLP336

CYQR;2009-12-26 18:00;CYQR 261800Z 34009KT 15SM FEW250 M23/M27 A3033 RMK CI1 SLP334

CYQR;2009-12-26 19:00;CYQR 261900Z 32007KT 15SM FEW250 M22/M26 A3033 RMK CI1 SLP334

CYQR;2009-12-26 20:00;CYQR 262000Z 35003KT 15SM FEW250 M21/M26 A3032 RMK CI0 SLP331

CYQR;2009-12-26 21:00;CYQR 262100Z 32006KT 15SM FEW250 M21/M26 A3031 RMK CI0 SLP327

CYQR;2009-12-26 22:00;CYQR 262200Z 33004KT 15SM FEW250 M21/M26 A3031 RMK CI1 SLP328

CYQR;2009-12-26 23:00;CYQR 262300Z 30005KT 15SM FEW250 M23/M28 A3030 RMK CI0 SLP324

CYQR;2009-12-27 00:00;CYQR 270000Z 30008KT 15SM SKC M24/M28 A3029 RMK SLP325

CYQR;2009-12-27 01:00;CYQR 270100Z 31008KT 15SM SKC M24/M28 A3029 RMK SLP326

CYQR;2009-12-27 02:00;CYQR 270200Z 33007KT 15SM SKC M25/M29 A3028 RMK SLP322

CYQR;2009-12-27 03:00;CYQR 270300Z 32006KT 15SM SKC M24/M29 A3028 RMK SLP323

CYQR;2009-12-27 04:00;CYQR 270400Z 19003KT 15SM SKC M26/M30 A3028 RMK SLP322

CYQR;2009-12-27 05:00;CYQR 270500Z 32004KT 15SM SKC M27/M32 A3027 RMK SLP318

CYQR;2009-12-27 06:00;CYQR 270600Z 31004KT 15SM SKC M24/M28 A3026 RMK SLP313

CYQR;2009-12-27 07:00;CYQR 270700Z 00000KT 15SM SKC M23/M27 A3025 RMK SLP309

CYQR;2009-12-27 08:00;CYQR 270800Z 00000KT 15SM FEW250 M23/M27 A3024 RMK CI1 SLP308

CYQR;2009-12-27 09:00;CYQR 270900Z 18005KT 15SM FEW250 M26/M31 A3025 RMK CI0 SLP309

CYQR;2009-12-27 10:00;CYQR 271000Z 16004KT 15SM SKC M26/M30 A3023 RMK SLP302

CYQR;2009-12-27 11:00;CYQR 271100Z 14002KT 15SM SKC M25/M29 A3022 RMK SLP300

CYQR;2009-12-27 12:00;CYQR 271200Z 17003KT 15SM SKC M25/M30 A3021 RMK SLP297

CYQR;2009-12-27 13:00;CYQR 271300Z 19003KT 15SM SKC M25/M29 A3020 RMK SLP294

CYQR;2009-12-27 14:00;CYQR 271400Z 17004KT 15SM BKN130 M25/M29 A3019 RMK AC1 SLP291

CYQR;2009-12-27 15:00;CYQR 271500Z 17003KT 15SM BKN130 BKN240 M24/M28 A3018 RMK AC5CI0 SLP288

CYQR;2009-12-27 16:00;CYQR 271600Z 00000KT 15SM FEW130 SCT240 M22/M26 A3018 RMK AC2CI0 SLP287

CYQR;2009-12-27 17:00;CYQR 271700Z 23003KT 15SM FEW130 SCT240 M22/M26 A3019 RMK AC2CI0 SLP289

CYQR;2009-12-27 18:00;CYQR 271800Z 28006KT 15SM FEW130 FEW240 M17/M21 A3018 RMK AC1CI1 SLP280

CYQR;2009-12-27 19:00;CYQR 271900Z 30007KT 15SM FEW130 FEW240 M14/M18 A3017 RMK AC1CI1 SLP276

CYQR;2009-12-27 20:00;CYQR 272000Z 30009KT 15SM FEW250 M12/M16 A3016 RMK CI1 SLP274

CYQR;2009-12-27 21:00;CYQR 272100Z 32009KT 15SM FEW250 M12/M15 A3016 RMK CI1 SLP271

CYQR;2009-12-27 22:00;CYQR 272200Z 31010KT 15SM FEW250 M12/M15 A3017 RMK CI1 SLP276

CYQR;2009-12-27 23:00;CYQR 272300Z 32006KT 15SM FEW250 M14/M17 A3019 RMK CI1 SLP282

CYQR;2009-12-28 00:00;CYQR 280000Z 32009KT 15SM FEW120 FEW250 M14/M17 A3022 RMK AC1CI1 SLP292

CYQR;2009-12-28 01:00;CYQR 280100Z 32007KT 15SM SKC M16/M20 A3023 RMK SLP296

CYQR;2009-12-28 02:00;CYQR 280200Z 32007KT 15SM SKC M16/M20 A3025 RMK SLP304

CYQR;2009-12-28 03:00;CYQR 280300Z 32007KT 15SM SKC M16/M19 A3025 RMK SLP306

CYQR;2009-12-28 04:00;CYQR 280400Z 34008KT 15SM SKC M16/M20 A3027 RMK SLP310

CYQR;2009-12-28 05:00;CYQR 280500Z 34008KT 15SM FEW250 M17/M20 A3029 RMK CI0 SLP317

CYQR;2009-12-28 05:31;CYQR 280531Z 35008KT 15SM FEW009 M17/ RMK SC1

CYQR;2009-12-28 06:00;CYQR 280600Z 36007KT 12SM FEW009 M18/M21 A3032 RMK SC1 SLP323

CYQR;2009-12-28 06:22;CYQR 280622Z 04005KT 15SM BKN005 M18/ RMK ST5

CYQR;2009-12-28 06:34;CYQR 280634Z 01004KT 12SM OVC003 M16/ RMK ST8

CYQR;2009-12-28 06:51;CYQR 280651Z 34004KT 10SM OVC002 M17/ RMK ST8

CYQR;2009-12-28 07:00;CYQR 280700Z 35004KT 4SM BR OVC001 M17/M20 A3033 RMK ST8 SLP326

CYQR;2009-12-28 07:06;CYQR 280706Z 33005KT 2SM BR OVC001 M16/ RMK ST8

CYQR;2009-12-28 07:11;CYQR 280711Z 34005KT 3/4SM R13/P6000FT/N BR OVC001 M16/ RMK FG2ST6

CYQR;2009-12-28 07:18;CYQR 280718Z 35005KT 1/2SM R13/P6000FT/D FZFG VV001 M16/ RMK FG8

CYQR;2009-12-28 07:37;CYQR 280737Z 34005KT 3/8SM R13/3500FT/D FZFG VV001 M16/ RMK FG8

CYQR;2009-12-28 08:00;CYQR 280800Z 33005KT 3/8SM R13/4000VP6000FT/U FZFG VV001 M15/M18 A3035 RMK FG8 SLP333

CYQR;2009-12-28 08:27;CYQR 280827Z 33005KT 2SM BR OVC002 M14/ RMK ST8

CYQR;2009-12-28 08:31;CYQR 280831Z 32004KT 4SM BR OVC002 M14/ RMK ST8

CYQR;2009-12-28 09:00;CYQR 280900Z 31005KT 10SM OVC003 M14/M17 A3036 RMK ST8 SLP332

CYQR;2009-12-28 10:00;CYQR 281000Z 34005KT 15SM BKN006 M14/M17 A3037 RMK SF6 SLP335

CYQR;2009-12-28 10:29;CYQR 281029Z 34005KT 15SM SCT007 M16/ RMK SF2

CYQR;2009-12-28 11:00;CYQR 281100Z 36004KT 15SM BKN014 M16/M20 A3038 RMK SC5 SLP339

CYQR;2009-12-28 11:20;CYQR 281120Z 00000KT 10SM FEW007 OVC012 M17/ RMK SC2SC6

CYQR;2009-12-28 11:48;CYQR 281148Z 00000KT 12SM FEW007 SCT011 M18/ RMK SF1SC3

CYQR;2009-12-28 12:00;CYQR 281200Z 34002KT 12SM FEW007 SCT011 M17/M21 A3038 RMK SF1SC2 SLP344

CYQR;2009-12-28 13:00;CYQR 281300Z 00000KT 12SM FEW007 FEW013 M17/M21 A3039 RMK SF1SC2 SLP347

CYQR;2009-12-28 14:00;CYQR 281400Z 00000KT 15SM SKC M18/M22 A3040 RMK SLP348

CYQR;2009-12-28 14:37;CYQR 281437Z 27006KT 1SM R13/3000VP6000FT/D BR SKC M21/ RMK FG6 VIS E 6

CYQR;2009-12-28 14:41;CYQR 281441Z 27005KT 1/2SM R13/2600FT/N FZFG SKC M21/ RMK FG6

CYQR;2009-12-28 15:00;CYQR 281500Z 00000KT 1/2SM R13/1800FT/N FZFG SKC M21/M25 A3040 RMK FG5 SLP355

CYQR;2009-12-28 15:09;CYQR 281509Z 00000KT 1/4SM R13/1400FT/N FZFG SKC M22/ RMK FG6 R13/1400/N

CYQR;2009-12-28 15:23;CYQR 281523Z 24003KT 1/2SM R13/1400FT/N FZFG SKC M22/ RMK FG5

CYQR;2009-12-28 16:00;CYQR 281600Z 00000KT 1/2SM R13/1100V2000FT/U FZFG SKC M21/M25 A3040 RMK FG5 R13/1100V2000/U SLP355

CYQR;2009-12-28 16:24;CYQR 281624Z 08005KT 4SM R13/1800FT/N BR SCT004 M19/ RMK ST3

CYQR;2009-12-28 17:00;CYQR 281700Z 14004KT 8SM SCT010 M16/M20 A3039 RMK SC1 SLP351

CYQR;2009-12-28 18:00;CYQR 281800Z 12009KT 10SM FEW010 FEW250 M14/M17 A3036 RMK SC1CI1 SLP337

CYQR;2009-12-28 19:00;CYQR 281900Z 14007KT 12SM FEW010 FEW120 FEW250 M16/M19 A3034 RMK SC0AC1CI1 SLP330

CYQR;2009-12-28 20:00;CYQR 282000Z 14013KT 8SM FEW010 FEW120 FEW250 M15/M18 A3031 RMK SC1AC1CI0 SLP321

CYQR;2009-12-28 21:00;CYQR 282100Z 14011KT 10SM FEW010 FEW250 M16/M19 A3028 RMK SC1CI1 SLP308

CYQR;2009-12-28 21:44;CYQR 282144Z 14012KT 10SM OVC007 M16/ RMK ST8

CYQR;2009-12-28 21:58;CYQR 282158Z 14011KT 6SM -SN OVC007 M15/ RMK ST8

CYQR;2009-12-28 22:00;CYQR 282200Z 14011KT 4SM -SN OVC007 M15/M18 A3026 RMK ST8 SLP302

CYQR;2009-12-28 23:00;CYQR 282300Z 14011KT 4SM -SN OVC007 M13/M16 A3024 RMK ST8 SLP295

CYQR;2009-12-29 00:00;CYQR 290000Z 14012KT 4SM -SN OVC005 M12/M15 A3021 RMK ST8 SLP282

CYQR;2009-12-29 01:00;CYQR 290100Z 16015KT 12SM -SN OVC007 M11/M13 A3019 RMK ST8 SLP275

CYQR;2009-12-29 02:00;CYQR 290200Z 16015KT 10SM -SN OVC006 M11/M12 A3016 RMK ST7 SLP266

CYQR;2009-12-29 02:12;CYQR 290212Z 16015KT 3SM -SN OVC005 M11/ RMK ST8

CYQR;2009-12-29 02:20;CYQR 290220Z 16017KT 1 1/2SM -SN OVC005 M11/ RMK ST8

CYQR;2009-12-29 02:41;CYQR 290241Z 17018KT 1 1/2SM -SN OVC003 M11/ RMK ST8

CYQR;2009-12-29 02:50;CYQR 290250Z 16015G20KT 3SM -SN BKN002 BKN250 M11/ RMK ST5CI0

CYQR;2009-12-29 03:00;CYQR 290300Z 17016KT 4SM -SN SCT002 BKN250 M11/M13 A3013 RMK ST4CI0 SLP257

CYQR;2009-12-29 04:00;CYQR 290400Z 16017KT 6SM -SN DRSN SCT003 BKN250 M12/M13 A3010 RMK ST3CS0 SLP248

CYQR;2009-12-29 05:00;CYQR 290500Z 16014KT 6SM -SN DRSN FEW003 SCT026 BKN250 M12/M14 A3008 RMK ST2SC2CS0 SLP239

CYQR;2009-12-29 05:21;CYQR 290521Z 16014G19KT 12SM DRSN FEW003 FEW026 OVC250 M12/ RMK ST1SC2CS0

CYQR;2009-12-29 06:00;CYQR 290600Z 16014KT 15SM DRSN BKN003 OVC250 M12/M13 A3005 RMK ST2CS2 SLP224

CYQR;2009-12-29 07:00;CYQR 290700Z 15014G19KT 15SM SCT003 BKN025 OVC250 M12/M14 A3001 RMK ST3SC2CS0 SLP211

CYQR;2009-12-29 08:00;CYQR 290800Z 15014KT 15SM FEW003 FEW250 M13/M14 A2998 RMK ST1CI1 SLP200

CYQR;2009-12-29 09:00;CYQR 290900Z 16013KT 15SM FEW004 FEW250 M14/M16 A2995 RMK ST1CI1 SLP192

CYQR;2009-12-29 10:00;CYQR 291000Z 15013KT 15SM FEW004 SCT250 M14/M16 A2992 RMK ST1CI1 SLP183

CYQR;2009-12-29 10:28;CYQR 291028Z 16012KT 4SM IC FEW004 SCT250 M15/ RMK ST1CI1

CYQR;2009-12-29 11:00;CYQR 291100Z 15013KT 3SM IC FEW004 M15/M17 A2989 RMK ST1 SLP174

CYQR;2009-12-29 12:00;CYQR 291200Z 16011KT 15SM SKC M16/M18 A2986 RMK SLP161

CYQR;2009-12-29 13:00;CYQR 291300Z 15008KT 15SM SKC M16/M18 A2985 RMK SLP157

CYQR;2009-12-29 14:00;CYQR 291400Z 15009KT 15SM FEW050 FEW250 M17/M19 A2983 RMK SC1CI1 TR SC SLP151

CYQR;2009-12-29 15:00;CYQR 291500Z 15005KT 15SM FEW050 BKN250 M18/M20 A2981 RMK SC1CI0 SLP145

CYQR;2009-12-29 16:00;CYQR 291600Z 20003KT 15SM FEW050 SCT250 M19/M21 A2981 RMK SC1CI1 TR SC SLP145

CYQR;2009-12-29 16:37;CYQR 291637Z 21003KT 15SM BKN009 BKN250 M18/ RMK ST5CI2

CYQR;2009-12-29 16:49;CYQR 291649Z 20005KT 15SM SCT009 BKN250 M17/ RMK ST2CI2

CYQR;2009-12-29 17:00;CYQR 291700Z 23007KT 15SM FEW009 FEW100 BKN250 M16/M18 A2982 RMK ST1AC1CI2 SLP146

CYQR;2009-12-29 18:00;CYQR 291800Z 29022KT 6SM BLSN FEW007 SCT100 BKN250 M15/M17 A2982 RMK ST2AC2CI0 VIS S-NW 2 SLP144

CYQR;2009-12-29 18:13;CYQR 291813Z 29023G30KT 4SM BLSN BKN008 BKN100 BKN250 M15/ RMK BLSN1SF5AC1CI0 VIS S-NW 2

CYQR;2009-12-29 19:00;CYQR 291900Z 28017G33KT 3SM R13/4500VP6000FT/U BLSN BKN010 BKN100 OVC250 M16/M18 A2980 RMK SC5AC2CI0 PTCHY VIS 1 SLP138

CYQR;2009-12-29 19:25;CYQR 291925Z 28026G31KT 1 1/2SM R13/4500VP6000FT/D BLSN BKN012 OVC100 M15/ RMK SN2SC4AC2 VIS VRB 1-2

CYQR;2009-12-29 19:48;CYQR 291948Z 28019KT 2 1/2SM BLSN OVC014 M15/ RMK SN2SC6 VIS VRB 2-3

CYQR;2009-12-29 20:00;CYQR 292000Z 29018KT 2 1/2SM BLSN OVC017 M15/M17 A2979 RMK SN2SC6 VIS VRB 2-3 SLP137

CYQR;2009-12-29 20:13;CYQR 292013Z 29022KT 2 1/2SM -SN BLSN OVC017 M15/ RMK SN2SC6 VIS VRB 2-3

CYQR;2009-12-29 20:36;CYQR 292036Z 30023KT 1 1/2SM -SN BLSN OVC019 M14/ RMK SN2SC6 VIS VRB 1-2

CYQR;2009-12-29 21:00;CYQR 292100Z 30021KT 2 1/2SM -SN BLSN OVC019 M14/M17 A2979 RMK SC8 SLP137

CYQR;2009-12-29 21:12;CYQR 292112Z 30019G24KT 6SM -SN BLSN BKN019 BKN100 M14/ RMK SC6AC1

CYQR;2009-12-29 22:00;CYQR 292200Z 30021KT 5SM -SN BLSN OVC017 M14/M17 A2980 RMK SC8 SLP140

CYQR;2009-12-29 23:00;CYQR 292300Z 31016KT 4SM -SN DRSN BR OVC017 M14/M16 A2981 REBLSN RMK ST8 SLP143

CYQR;2009-12-30 00:00;CYQR 300000Z 32017KT 4SM -SN BLSN OVC015 M13/M16 A2981 RMK ST8 SLP145

CYQR;2009-12-30 01:00;CYQR 300100Z 31015KT 8SM -SN DRSN OVC017 M13/M15 A2981 REBLSN RMK SC8 SLP144

CYQR;2009-12-30 02:00;CYQR 300200Z 30014KT 10SM -SN DRSN OVC017 M12/M15 A2981 RMK SC8 SLP144

CYQR;2009-12-30 03:00;CYQR 300300Z 31014KT 10SM -SN DRSN OVC015 M12/M14 A2983 RMK SC8 SLP150

CYQR;2009-12-30 04:00;CYQR 300400Z 35013KT 6SM -SN DRSN OVC013 M12/M15 A2984 RMK SC8 SLP153

CYQR;2009-12-30 04:27;CYQR 300427Z 34014KT 8SM -SN DRSN OVC015 M13/ RMK SC8

CYQR;2009-12-30 05:00;CYQR 300500Z 34015KT 12SM -SN DRSN OVC015 M13/M16 A2984 RMK SC8 SLP156

CYQR;2009-12-30 06:00;CYQR 300600Z 33013KT 15SM -SN OVC017 M13/M16 A2986 RMK SC8 SLP159

CYQR;2009-12-30 07:00;CYQR 300700Z 31008KT 15SM -SN OVC021 M13/M16 A2987 RMK SC8 SLP162

CYQR;2009-12-30 08:00;CYQR 300800Z 33010KT 15SM OVC019 M13/M16 A2986 RMK SC8 SLP160

CYQR;2009-12-30 09:00;CYQR 300900Z 31008KT 15SM -SN OVC015 M12/M15 A2986 RMK SC8 SLP158

CYQR;2009-12-30 10:00;CYQR 301000Z 32008KT 15SM -SN OVC015 M12/M15 A2985 RMK SC8 SLP157

CYQR;2009-12-30 10:19;CYQR 301019Z 32007KT 10SM -SN OVC012 M12/ RMK SC8

CYQR;2009-12-30 11:00;CYQR 301100Z 31006KT 10SM -SN OVC012 M12/M14 A2985 RMK SC8 SLP157

CYQR;2009-12-30 12:00;CYQR 301200Z 31013KT 12SM -SN OVC014 M12/M14 A2986 RMK SC8 SLP157

CYQR;2009-12-30 13:00;CYQR 301300Z 32013KT 12SM -SN OVC011 M12/M14 A2987 RMK SC8 SLP160

CYQR;2009-12-30 14:00;CYQR 301400Z 33007KT 12SM -SN SCT012 OVC018 M13/M15 A2987 RMK SC3SC5 SLP162

CYQR;2009-12-30 15:00;CYQR 301500Z 35007KT 12SM -SN FEW010 BKN016 OVC100 M13/M16 A2989 RMK SF1SC7AC1 SLP168

CYQR;2009-12-30 15:43;CYQR 301543Z 34007KT 15SM -SN FEW010 BKN014 OVC100 M14/ RMK SF1SC6AC2

CYQR;2009-12-30 16:00;CYQR 301600Z 34006KT 15SM -SN FEW010 BKN012 OVC100 M14/M16 A2989 RMK SF1SC6AC2 SLP170

CYQR;2009-12-30 17:00;CYQR 301700Z 33008KT 3SM -SN DRSN OVC010 M14/M16 A2991 RMK SC8 SLP176

CYQR;2009-12-30 18:00;CYQR 301800Z 33014KT 6SM -SN DRSN OVC019 M14/M17 A2992 RMK SC8 SLP180

CYQR;2009-12-30 19:00;CYQR 301900Z 33016KT 8SM -SN DRSN BKN023 OVC088 M15/M18 A2993 RMK SC7AC1 SLP183

CYQR;2009-12-30 20:00;CYQR 302000Z 34015KT 12SM -SN DRSN FEW012 BKN020 OVC088 M15/M18 A2994 RMK SF1SC5AC3 SLP185

CYQR;2009-12-30 21:00;CYQR 302100Z 33017KT 15SM -SN DRSN FEW012 BKN023 OVC100 M15/M19 A2996 RMK SF1SC6AC2 SLP194

CYQR;2009-12-30 21:53;CYQR 302153Z 34016KT 15SM FEW012 FEW038 BKN250 M16/ RMK SC1SC2CI0

CYQR;2009-12-30 22:00;CYQR 302200Z CCA 34014KT 15SM DRSN FEW012 FEW038 FEW100 BKN250 M16/M19 A2998 RMK SC1SC2AC1CI0 SLP199

CYQR;2009-12-30 23:00;CYQR 302300Z 34009KT 15SM FEW046 FEW100 BKN250 M18/M21 A3000 RMK SC1AC1CI0 SLP208

CYQR;2009-12-31 00:00;CYQR 310000Z 33009KT 15SM FEW013 SCT046 BKN100 BKN250 M18/M21 A3002 RMK SF1SC1AC1CI2 SLP218

CYQR;2009-12-31 01:00;CYQR 310100Z 31006KT 15SM SCT048 BKN090 BKN250 M17/M20 A3003 RMK SC2AC1CI0 SLP221

CYQR;2009-12-31 02:00;CYQR 310200Z 34009KT 15SM OVC082 M17/M20 A3005 RMK AC4 SLP226

CYQR;2009-12-31 03:00;CYQR 310300Z 35010KT 15SM FEW080 OVC140 M17/M20 A3007 RMK AC1AC2 SLP234

CYQR;2009-12-31 04:00;CYQR 310400Z 34009KT 15SM FEW057 SCT140 BKN300 M18/M21 A3009 RMK SC1AC2CI0 SLP241

CYQR;2009-12-31 04:33;CYQR 310433Z 33012KT 12SM -SN FEW005 SCT036 BKN074 BKN140 OVC300 RMK SF1SC3AC2AC0CI0

CYQR;2009-12-31 05:00;CYQR 310500Z 32009KT 12SM -SN FEW011 BKN067 BKN093 OVC300 M18/M21 A3011 RMK SC2AC2AC2CI0 SLP247

CYQR;2009-12-31 06:00;CYQR 310600Z 32009KT 12SM -SN FEW016 BKN100 OVC300 M18/M20 A3013 RMK SC2AC2CI0 SLP257

CYQR;2009-12-31 07:00;CYQR 310700Z 32010KT 8SM -SN SCT010 BKN100 OVC300 M18/M20 A3014 RMK SC3AC3CI0 SLP259

CYQR;2009-12-31 08:00;CYQR 310800Z 32009KT 8SM -SN SCT022 OVC100 M18/M21 A3016 RMK SC3AC3 SLP266

CYQR;2009-12-31 08:51;CYQR 310851Z 32010KT 2SM -SN OVC021 M17/ RMK SN5SC2

CYQR;2009-12-31 09:00;CYQR 310900Z 32011KT 2SM -SN OVC021 M17/M20 A3018 RMK SN5SC2 SLP272

CYQR;2009-12-31 09:31;CYQR 310931Z 32012KT 1 1/2SM -SN OVC013 M17/ RMK SN6SC2

CYQR;2009-12-31 09:50;CYQR 310950Z 32011KT 3SM -SN SCT008 OVC094 M17/ RMK SC3AC4

CYQR;2009-12-31 10:00;CYQR 311000Z 32012KT 2SM -SN SCT009 OVC086 M17/M20 A3020 RMK SC3AC4 SLP280

CYQR;2009-12-31 10:10;CYQR 311010Z 32011KT 4SM -SN FEW009 SCT057 OVC086 M17/ RMK SC2SC2AC3

CYQR;2009-12-31 11:00;CYQR 311100Z 33014KT 10SM -SN FEW010 SCT037 BKN062 OVC150 M18/M21 A3021 RMK SC1SC3SC2AC2 SLP282

CYQR;2009-12-31 12:00;CYQR 311200Z 33009KT 5SM -SN FEW037 BKN084 M19/M22 A3021 RMK SC2AC1 /S01/ SLP289

CYQR;2009-12-31 12:33;CYQR 311233Z 31006KT 12SM FEW085 M21/ RMK AC1 IC

CYQR;2009-12-31 13:00;CYQR 311300Z 30007KT 12SM FEW085 M22/M25 A3024 RMK AC1 IC SLP297

CYQR;2009-12-31 14:00;CYQR 311400Z 32010KT 8SM -SN SCT029 SCT046 BKN094 M21/M24 A3025 RMK SC2SC1AC2 SLP300

CYQR;2009-12-31 15:00;CYQR 311500Z 32010KT 8SM -SN BKN022 BKN094 M20/M24 A3026 RMK SC6AC1 SLP306

CYQR;2009-12-31 16:00;CYQR 311600Z 31011KT 15SM FEW020 FEW100 FEW250 M22/M26 A3028 RMK SC1AC1CI1 TR SC SLP311

CYQR;2009-12-31 17:00;CYQR 311700Z 29007KT 15SM FEW026 FEW100 FEW250 M23/M27 A3030 RMK SC1AC1CI1 TR SC SLP319

CYQR;2009-12-31 18:00;CYQR 311800Z 30009KT 15SM FEW100 FEW250 M23/M27 A3030 RMK AC1CI1 SLP323

CYQR;2009-12-31 19:00;CYQR 311900Z 29008KT 15SM FEW220 FEW250 M23/M27 A3031 RMK CI1CI1 SLP326

CYQR;2009-12-31 20:00;CYQR 312000Z 31010KT 15SM FEW250 M23/M27 A3032 RMK CI1 SLP329

CYQR;2009-12-31 21:00;CYQR 312100Z 31008KT 15SM FEW100 FEW250 M23/M28 A3033 RMK AC1CI1 SLP331

CYQR;2009-12-31 22:00;CYQR 312200Z 30010KT 15SM FEW090 FEW250 M24/M29 A3035 RMK AC1CI1 SLP338

CYQR;2009-12-31 23:00;CYQR 312300Z 31011KT 15SM FEW090 FEW250 M26/M31 A3036 RMK AC1CI1 SLP342

