CYQM;2003-08-15 00:00;METAR CYQM 150000Z 02003KT 15SM FEW040 FEW060 17/15 A3011 RMK CU1SC1 TR CU SLP196
CYQM;2003-08-15 02:00;METAR CYQM 150200Z 00000KT 15SM FEW060 16/14 A3012 RMK SC1 TR SC SLP200
CYQM;2003-08-15 03:00;METAR CYQM 150300Z 28002KT 15SM FEW060 16/14 A3013 RMK SC1 TR SC SLP203
CYQM;2003-08-15 04:00;METAR CYQM 150400Z 24005KT 15SM FEW060 14/14 A3012 RMK SC1 TR SC SLP200
CYQM;2003-08-15 05:00;METAR CYQM 150500Z 22006KT 15SM FEW060 13/13 A3011 RMK SC1 SLP197
CYQM;2003-08-15 06:00;METAR CYQM 150600Z 23006KT 15SM FEW060 13/13 A3011 RMK SC1 SLP196
CYQM;2003-08-15 07:00;METAR CYQM 150700Z 22007KT 15SM BKN075 13/13 A3009 RMK AC5 SLP191
CYQM;2003-08-15 08:00;METAR CYQM 150800Z 24006KT 15SM SCT075 13/13 A3009 RMK AC3 SLP190
CYQM;2003-08-15 09:00;METAR CYQM 150900Z 23007KT 15SM FEW070 FEW260 12/12 A3009 RMK AC1CI2 SLP192
CYQM;2003-08-15 10:00;METAR CYQM 151000Z 23006KT 15SM FEW010 FEW070 FEW260 13/12 A3010 RMK CF1AC1CI2 SLP195 SLP195
CYQM;2003-08-15 11:00;METAR CYQM 151100Z 23005KT 15SM FEW010 FEW070 FEW260 14/14 A3011 RMK CF1AC1CI2 SLP198 SLP198
CYQM;2003-08-15 12:00;METAR CYQM 151200Z 23005KT 15SM FEW070 FEW260 16/14 A3011 RMK AC1CI2 SLP197
CYQM;2003-08-15 13:00;METAR CYQM 151300Z 26005KT 15SM FEW100 FEW260 18/15 A3010 RMK AC1CI2
CYQM;2003-08-15 14:00;METAR CYQM 151400Z 25005KT 15SM FEW025 FEW100 SCT260 21/15 A3008 RMK CU1AC1CI2 TR CU SLP188
CYQM;2003-08-15 15:00;METAR CYQM 151500Z 24005KT 15SM FEW030 FEW100 BKN260 23/15 A3007 RMK CU1AC1CI2 TR AC SLP184 AC SLP184
CYQM;2003-08-15 16:00;METAR CYQM 151600Z 17005KT 15SM FEW040 BKN260 23/13 A3004 RMK CU2CI2 SLP174
CYQM;2003-08-15 17:00;METAR CYQM 151700Z 29002KT 15SM FEW045 BKN260 25/14 A3002 RMK CU2CI2 SLP167
CYQM;2003-08-15 18:00;METAR CYQM 151800Z 19003KT 15SM FEW040 BKN260 25/15 A3000 RMK CU1CI5 SLP158
CYQM;2003-08-15 19:00;METAR CYQM 151900Z 23007KT 15SM FEW040 BKN260 25/14 A2997 RMK CU2CI5 SLP151
CYQM;2003-08-15 20:00;METAR CYQM 152000Z 16008KT 15SM FEW030 FEW140 BKN260 23/15 A2996 RMK CU2AC1CI4 SLP147 SLP147
CYQM;2003-08-15 21:00;METAR CYQM 152100Z 16010KT 15SM FEW030 FEW140 BKN250 23/15 A2995 RMK CU2AC1CI2 SLP142 SLP142
CYQM;2003-08-15 22:00;METAR CYQM 152200Z 23007KT 15SM FEW030 FEW140 SCT250 23/16 A2992 RMK CU1AC1CI1 TR CU SLP133 CU SLP133
CYQM;2003-08-15 23:00;METAR CYQM 152300Z 20006KT 15SM FEW140 FEW250 22/16 A2992 RMK AC2CI0 SLP133
CYQM;2003-08-16 00:00;METAR CYQM 160000Z 19007KT 15SM FEW140 FEW250 20/15 A2992 RMK AC1CI1 SLP132
CYQM;2003-08-16 01:00;METAR CYQM 160100Z 20006KT 15SM FEW140 FEW250 18/13 A2992 RMK AC1CI0
CYQM;2003-08-16 02:00;METAR CYQM 160200Z 21005KT 15SM FEW140 FEW250 17/12 A2990 RMK AC1CI0 SLP127
CYQM;2003-08-16 03:00;METAR CYQM 160300Z 18004KT 15SM FEW140 FEW250 16/11 A2988 RMK AC1CI0 SLP120
CYQM;2003-08-16 04:00;METAR CYQM 160400Z 18005KT 15SM FEW250 15/12 A2986 RMK CI0 SLP114
CYQM;2003-08-16 05:00;METAR CYQM 160500Z 20006KT 15SM FEW120 FEW250 15/12 A2986 RMK AC2CI0 SLP114
CYQM;2003-08-16 06:00;METAR CYQM 160600Z 19007KT 15SM FEW100 15/12 A2984 RMK AC2 SLP105
CYQM;2003-08-16 07:00;METAR CYQM 160700Z 18006KT 15SM FEW100 15/12 A2981 RMK AC1 SLP096
CYQM;2003-08-16 08:00;METAR CYQM 160800Z 17006KT 15SM FEW100 14/12 A2979 RMK AC2 SLP088
CYQM;2003-08-16 09:00;METAR CYQM 160900Z 19006KT 15SM FEW016 FEW100 SCT260 16/12 A2978 RMK CU1AC1CI2 TR CU SLP085 CU SLP085
CYQM;2003-08-16 10:00;METAR CYQM 161000Z 16005KT 15SM FEW030 FEW100 FEW260 15/12 A2977 RMK SC1AC1CI1 TR SC SLP081 SC SLP081
CYQM;2003-08-16 11:00;METAR CYQM 161100Z 17004KT 15SM FEW100 FEW260 18/14 A2976 RMK AC1CI1 SLP079
CYQM;2003-08-16 12:00;METAR CYQM 161200Z 20007KT 15SM FEW100 FEW260 21/15 A2974 RMK AC1CI1 SLP071
CYQM;2003-08-16 13:00;METAR CYQM 161300Z 19007KT 15SM FEW100 SCT260 23/16 A2973 RMK AC1CI2 SLP066
CYQM;2003-08-16 14:00;METAR CYQM 161400Z 18010KT 15SM FEW030 FEW100 BKN260 25/18 A2971 RMK CU1AC1CI3 TR CU SLP060 CU SLP060
CYQM;2003-08-16 15:00;METAR CYQM 161500Z 17009G18KT 15SM FEW030 FEW100 BKN260 25/19 A2969 RMK CU1AC1CI3 TR CU SLP055 TR CU SLP055
CYQM;2003-08-16 16:00;METAR CYQM 161600Z 18021KT 12SM FEW030 BKN260 26/19 A2969 RMK CU1CI4 SLP053
CYQM;2003-08-16 17:00;METAR CYQM 161700Z 21019KT 12SM FEW030 FEW160 BKN260 26/19 A2968 RMK CU1AC1CI4 SLP050 SLP050
CYQM;2003-08-16 18:00;METAR CYQM 161800Z 22018G24KT 12SM FEW035 FEW160 BKN260 27/18 A2965 RMK CU1AC1CI3 SLP042 SLP042
CYQM;2003-08-16 19:00;METAR CYQM 161900Z 20020G25KT 12SM FEW035 FEW160 BKN260 27/18 A2963 RMK CU1AC1CI3 SLP033 SLP033
CYQM;2003-08-16 20:00;METAR CYQM 162000Z 21014G20KT 12SM FEW030 FEW140 BKN260 27/19 A2963 RMK CU1AC1CI2 TCU TOPS SE TR CU SLP035 TCU TOPS SE TR CU SLP035
CYQM;2003-08-16 21:00;METAR CYQM 162100Z 18015G21KT 12SM FEW030 BKN260 26/19 A2962 RMK CU1CI2 TCU ASOCTD SE SLP030
CYQM;2003-08-16 22:00;METAR CYQM 162200Z 18011KT 12SM SCT050 BKN120 BKN260 25/19 A2963 RMK SC3AC2CI1 SLP033
CYQM;2003-08-16 23:00;METAR CYQM 162300Z 20010KT 12SM FEW035 FEW120 BKN260 24/19 A2964 RMK CU1AC2CI2 CB TOPS ON HRZN W SLP039 TOPS ON HRZN W SLP039
CYQM;2003-08-17 00:00;METAR CYQM 170000Z 20010KT 10SM FEW035CB FEW120 BKN260 22/19 A2965 RMK CB2AC1CI2 CB NW-N SLP040 CB NW-N SLP040
CYQM;2003-08-17 01:00;METAR CYQM 170100Z 18009KT 8SM FEW020 SCT120 OVC260 21/19 A2964 RMK SC2AC2CI4 SLP039
CYQM;2003-08-17 02:00;METAR CYQM 170200Z 20007KT 8SM -SHRA BKN018 OVC050 21/19 A2965 RMK SC7SC1 CB EMBDD OCNL LTGIC SLP041 EMBDD OCNL LTGIC SLP041 SLP030
CYQM;2003-08-17 04:00;METAR CYQM 170400Z 18008KT 8SM BKN013 OVC090 20/19 A2965 RMK SC7AC1 SLP040
CYQM;2003-08-17 05:00;METAR CYQM 170500Z 20005KT 8SM FEW013 BKN060 BKN240 20/19 A2965 RMK SC2SC4CI1 SLP042 SLP042
CYQM;2003-08-17 06:00;METAR CYQM 170600Z 18007KT 8SM FEW025 SCT120 BKN240 19/18 A2966 RMK SC1AC3CI2 SLP043 SLP043
CYQM;2003-08-17 07:00;METAR CYQM 170700Z 20004KT 8SM BKN022 BKN120 19/18 A2967 RMK SC6AC2 SLP047
CYQM;2003-08-17 08:00;METAR CYQM 170800Z 22004KT 8SM OVC017 19/18 A2970 RMK SC8 SLP056
CYQM;2003-08-17 09:00;METAR CYQM 170900Z 22005KT 10SM OVC010 18/18 A2970 RMK SC8 SLP059
CYQM;2003-08-17 10:00;METAR CYQM 171000Z 20005KT 6SM BR SCT008 OVC010 18/17 A2973 RMK SF3SC5 SLP068 SF6SC2 SLP078 SLP078
CYQM;2003-08-17 12:00;METAR CYQM 171200Z 35011G16KT 1 1/2SM -SHRA BR FEW003 BKN006 OVC010 17/17 A2979 RMK SF2SF6SC1 SLP088 RMK SF2SF6SC1 SLP088
CYQM;2003-08-17 13:00;METAR CYQM 171300Z 01011KT 8SM VCSH SCT006 OVC011 17/17 A2980 RMK SF4SC4 SLP093
CYQM;2003-08-17 14:00;METAR CYQM 171400Z 36016KT 1 3/4SM -SHRA BR BKN006 OVC011 18/18 A2983 RMK SF6SC2 SLP101 SLP101
CYQM;2003-08-17 15:00;METAR CYQM 171500Z 01012G18KT 10SM VCSH BKN006 OVC011 17/16 A2984 RMK SF6SC2 SLP106 SLP106
CYQM;2003-08-17 16:00;METAR CYQM 171600Z 36011G16KT 15SM SCT006 BKN011 OVC020 17/16 A2986 RMK SF4SC3SC1 SLP112 SLP112
CYQM;2003-08-17 17:00;METAR CYQM 171700Z 01008KT 15SM FEW006 BKN011 BKN020 18/15 A2988 RMK SF2SC3SC2 SLP119 SLP119
CYQM;2003-08-17 18:00;METAR CYQM 171800Z 04012KT 15SM FEW006 BKN012 BKN020 BKN100 19/16 A2989 RMK SF1CU4SC2AC1 SLP124
CYQM;2003-08-17 19:00;METAR CYQM 171900Z 03012G19KT 15SM FEW016 SCT030 BKN100 BKN260 20/16 A2990 RMK CU2SC1AC2CI2 SLP127 CU2SC1AC2CI2 SLP127
CYQM;2003-08-17 20:00;METAR CYQM 172000Z 01012KT 15SM FEW016 FEW030 BKN100 BKN260 19/15 A2992 RMK CU2SC1AC2CI2 SLP133
CYQM;2003-08-17 21:00;METAR CYQM 172100Z 36012KT 15SM FEW030 BKN045 BKN100 BKN260 19/14 A2994 RMK CU2SC4AC1CI1 SLP140
CYQM;2003-08-17 22:00;METAR CYQM 172200Z 36009G15KT 15SM FEW022 SCT040 BKN260 18/14 A2995 RMK CU2SC2CI1 SLP143 SLP143
CYQM;2003-08-17 23:00;METAR CYQM 172300Z 01011KT 15SM FEW022 FEW040 FEW140 SCT260 17/14 A2996 RMK CU1SC1AC1CI1 SLP147
CYQM;2003-08-18 00:00;METAR CYQM 180000Z 03007KT 15SM FEW030 FEW140 SCT260 15/13 A2997 RMK SC1AC1CI2 SLP150 SLP150
CYQM;2003-08-18 01:00;METAR CYQM 180100Z 04007KT 15SM FEW030 FEW120 FEW260 15/12 A2998 RMK SC1AC1CI1 SLP154 SLP154
CYQM;2003-08-18 02:00;METAR CYQM 180200Z 05004KT 15SM FEW120 FEW260 14/11 A2997 RMK AC1CI1 SLP152
CYQM;2003-08-18 03:00;METAR CYQM 180300Z 03003KT 15SM FEW120 BKN260 13/11 A2999 RMK AC1CI2 SLP156
CYQM;2003-08-18 04:00;METAR CYQM 180400Z 01002KT 15SM SCT140 BKN260 13/12 A2999 RMK AC3CI2 SLP157
CYQM;2003-08-18 05:00;METAR CYQM 180500Z 36003KT 15SM BKN140 BKN260 13/12 A2999 RMK AC5CI2 SLP158
CYQM;2003-08-18 06:00;METAR CYQM 180600Z 36005KT 15SM FEW008 FEW100 OVC150 12/11 A2998 RMK SF1AC2AS6 SLP153 SLP153
CYQM;2003-08-18 07:00;METAR CYQM 180700Z 36004KT 15SM FEW007 FEW100 OVC150 13/12 A2998 RMK SF2AC1AS6 SLP154
CYQM;2003-08-18 08:00;METAR CYQM 180800Z 35007KT 15SM FEW007 FEW100 BKN150 OVC250 12/12 A2999 RMK SF1AC1AS4CS2 SLP156
CYQM;2003-08-18 09:00;METAR CYQM 180900Z 36006KT 15SM FEW007 SCT100 BKN150 BKN250 12/11 A2999 RMK SF1AC3AS2CI0 SLP157
CYQM;2003-08-18 10:00;METAR CYQM 181000Z 34007KT 15SM FEW008 FEW100 BKN250 11/11 A3000 RMK SF1AC2CI1 SLP162 SLP162
CYQM;2003-08-18 11:00;METAR CYQM 181100Z 34006KT 15SM FEW008 SCT100 BKN250 12/12 A3002 RMK SF2AC2CI1 SLP167 SLP167
CYQM;2003-08-18 12:00;METAR CYQM 181200Z 35007KT 15SM FEW010 SCT100 BKN250 14/13 A3002 RMK CU2AC2CI1 SLP168 SLP168
CYQM;2003-08-18 13:00;METAR CYQM 181300Z 36013G20KT 15SM SCT015 BKN100 BKN250 17/12 A3003 RMK CU4AC2CI0 SLP170 SLP170
CYQM;2003-08-18 14:00;METAR CYQM 181400Z 36012G19KT 15SM FEW015 BKN100 BKN250 18/12 A3004 RMK CU2AC3CI1 SLP173 SLP173
CYQM;2003-08-18 15:00;METAR CYQM 181500Z 36013G18KT 15SM FEW015 SCT120 BKN250 18/12 A3004 RMK CU2AC2CI1 SLP174 SLP174
CYQM;2003-08-18 16:00;METAR CYQM 181600Z 02010G18KT 15SM FEW015 SCT120 SCT250 19/11 A3003 RMK CU2AC2CI0 SLP171 SLP171
CYQM;2003-08-18 17:00;METAR CYQM 181700Z 01010G15KT 15SM FEW015 SCT120 SCT250 19/11 A3003 RMK CU2AC1CI0 SLP171
CYQM;2003-08-18 19:00;METAR CYQM 181900Z 02009KT 15SM FEW017 FEW250 20/11 A3003 RMK CU1CI1 TR CI SLP169
CYQM;2003-08-18 20:00;METAR CYQM 182000Z 01006KT 15SM FEW017 FEW250 19/10 A3002 RMK CU1CI1 TR CI
CYQM;2003-08-18 21:00;METAR CYQM 182100Z 04007KT 15SM FEW035 19/10 A3003 RMK CU1 SLP169
CYQM;2003-08-18 22:00;METAR CYQM 182200Z 05004KT 15SM FEW035 18/11 A3002 RMK CU1 SLP167
CYQM;2003-08-18 23:00;METAR CYQM 182300Z 09003KT 15SM FEW035 17/09 A3003 RMK SC1 SLP169
CYQM;2003-08-19 00:00;METAR CYQM 190000Z 14002KT 15SM FEW035 16/10 A3003 RMK SC1 SLP172
CYQM;2003-08-19 01:00;METAR CYQM 190100Z 16006KT 15SM SKC 15/09 A3004 RMK SLP174
CYQM;2003-08-19 02:00;METAR CYQM 190200Z 19005KT 15SM SKC 13/08 A3003 RMK AURBO SLP172
CYQM;2003-08-19 03:00;METAR CYQM 190300Z 23006KT 15SM SKC 11/10 A3003 RMK AURBO SLP172
CYQM;2003-08-19 04:00;METAR CYQM 190400Z 22007KT 15SM SKC 11/10 A3003 RMK AURBO SLP172
CYQM;2003-08-19 05:00;METAR CYQM 190500Z 22007KT 15SM SKC 10/10 A3002 RMK SLP166
CYQM;2003-08-19 06:00;METAR CYQM 190600Z 24007KT 15SM SKC 10/09 A3001 RMK SLP164
CYQM;2003-08-19 07:00;METAR CYQM 190700Z 23007KT 15SM SKC 09/09 A3000 RMK SLP161
CYQM;2003-08-19 08:00;METAR CYQM 190800Z 23007KT 15SM SKC 10/09 A3000 RMK SLP161
CYQM;2003-08-19 09:00;METAR CYQM 190900Z 22008KT 15SM FEW250 09/09 A3000 RMK CI0 SLP161
CYQM;2003-08-19 10:00;METAR CYQM 191000Z 24007KT 15SM FEW120 10/10 A3001 RMK AC1 TR AC SLP163
CYQM;2003-08-19 11:00;METAR CYQM 191100Z 22006KT 15SM FEW120 12/11 A3001 RMK AC1 TR AC SLP164
CYQM;2003-08-19 12:00;METAR CYQM 191200Z 24009KT 15SM FEW120 FEW250 15/12 A3000 RMK AC1CI0 SLP162
CYQM;2003-08-19 13:00;METAR CYQM 191300Z 23009KT 15SM FEW120 18/13 A3000 RMK AC1 ACC ASOCTD NW SLP161
CYQM;2003-08-19 14:00;METAR CYQM 191400Z 26008KT 15SM FEW120 FEW250 21/15 A2999 RMK AC1CI0 TR AC SLP156
CYQM;2003-08-19 15:00;METAR CYQM 191500Z 23012KT 15SM FEW120 FEW250 23/14 A2996 RMK AC1CI0 TR AC SLP146
CYQM;2003-08-19 16:00;METAR CYQM 191600Z 23011G18KT 15SM FEW120 FEW250 25/14 A2994 RMK AC1CI1 TR AC SLP139 SLP139
CYQM;2003-08-19 17:00;METAR CYQM 191700Z 23014G20KT 15SM FEW050 FEW120 FEW250 26/13 A2993 RMK CU1AC1CI1 TR CU AC CC ASOCTD SLP137 TR CU AC CC ASOCTD SLP137
CYQM;2003-08-19 18:00;METAR CYQM 191800Z 23017G25KT 15SM FEW050 FEW120 BKN250 27/13 A2991 RMK CU1AC1CI1 TR CU AC SLP130 TR CU AC SLP130
CYQM;2003-08-19 19:00;METAR CYQM 191900Z 25013G24KT 15SM FEW120 BKN250 27/14 A2989 RMK AC1CI1 TR AC SLP122 SLP122
CYQM;2003-08-19 20:00;METAR CYQM 192000Z 24014G19KT 15SM BKN250 27/14 A2987 RMK CI2 SLP116
CYQM;2003-08-19 21:00;METAR CYQM 192100Z 25018KT 15SM SCT250 27/15 A2987 RMK CI2 SLP117
CYQM;2003-08-19 22:00;METAR CYQM 192200Z 24017G26KT 15SM FEW140 SCT250 26/14 A2987 RMK AC1CI2 SLP115
CYQM;2003-08-19 23:00;METAR CYQM 192300Z 23013KT 15SM FEW050 FEW120 FEW250 24/14 A2987 RMK SC1AC1CI2 SLP116 SLP116
CYQM;2003-08-20 00:00;METAR CYQM 200000Z 23010KT 15SM FEW120 FEW250 22/16 A2989 RMK AC1CI2 SLP121
CYQM;2003-08-20 01:00;METAR CYQM 200100Z 23009KT 15SM FEW250 20/15 A2989 RMK CI1 SLP124
CYQM;2003-08-20 02:00;METAR CYQM 200200Z 24011KT 15SM FEW250 20/15 A2989 RMK CI1 SLP124
CYQM;2003-08-20 03:00;METAR CYQM 200300Z 24012KT 15SM FEW140 20/15 A2989 RMK AC1 SLP122
CYQM;2003-08-20 04:00;METAR CYQM 200400Z 24009KT 15SM SKC 19/15 A2989 RMK SLP122
CYQM;2003-08-20 05:00;METAR CYQM 200500Z 24008KT 15SM FEW140 18/15 A2990 RMK AC1 SLP125
CYQM;2003-08-20 06:00;METAR CYQM 200600Z 22010KT 15SM SKC 17/15 A2990 RMK SLP125
CYQM;2003-08-20 07:00;METAR CYQM 200700Z 24008KT 15SM FEW140 17/15 A2991 RMK AC2 SLP128
CYQM;2003-08-20 08:00;METAR CYQM 200800Z 25007KT 15SM FEW140 SCT250 17/15 A2991 RMK AC1CI2 SLP127
CYQM;2003-08-20 09:00;METAR CYQM 200900Z 25008KT 15SM SCT250 17/15 A2992 RMK CI2 SLP131
CYQM;2003-08-20 10:00;METAR CYQM 201000Z 24007KT 15SM BKN200 18/15 A2994 RMK CI5 SLP138
CYQM;2003-08-20 11:00;METAR CYQM 201100Z 25008KT 15SM BKN200 18/16 A2995 RMK CI5 SLP144
CYQM;2003-08-20 12:00;METAR CYQM 201200Z 25006KT 15SM BKN240 19/17 A2997 RMK CI2 SLP148
CYQM;2003-08-20 13:00;METAR CYQM 201300Z 31008KT 15SM SCT240 21/17 A2996 RMK CI2 SLP147
CYQM;2003-08-20 14:00;METAR CYQM 201400Z 34006KT 15SM SCT240 24/17 A2996 RMK CI2 SLP147
CYQM;2003-08-20 15:00;METAR CYQM 201500Z 36007KT 15SM SCT240 26/17 A2997 RMK CI2 SLP149
CYQM;2003-08-20 16:00;METAR CYQM 201600Z 02003KT 15SM FEW030 BKN250 26/16 A2996 RMK CU2CI2 SLP145
CYQM;2003-08-20 17:00;METAR CYQM 201700Z 31003KT 15SM FEW035 BKN250 27/15 A2995 RMK CU2CI2 SLP144
CYQM;2003-08-20 18:00;METAR CYQM 201800Z 04007KT 15SM FEW035 BKN250 28/15 A2995 RMK CU2CI2 SLP143
CYQM;2003-08-20 19:00;METAR CYQM 201900Z 00000KT 15SM FEW035 BKN250 28/15 A2994 RMK CU2CI2 SLP140
CYQM;2003-08-20 20:00;METAR CYQM 202000Z 34003KT 15SM FEW035 BKN250 27/14 A2994 RMK CU2CI2 SLP139
CYQM;2003-08-20 21:00;METAR CYQM 202100Z 30005KT 12SM FEW035 FEW140 BKN250 28/15 A2994 RMK CU1AC1CI2 TR AC SLP138 AC SLP138
CYQM;2003-08-20 22:00;METAR CYQM 202200Z 27004KT 12SM FEW040 FEW140 BKN250 26/15 A2994 RMK SC1AC1CI5 SLP140
CYQM;2003-08-20 23:00;METAR CYQM 202300Z 26005KT 10SM FEW140 BKN250 24/16 A2995 RMK AC1CI4
CYQM;2003-08-21 00:00;METAR CYQM 210000Z 21004KT 10SM FEW140 BKN250 22/18 A2997 RMK AC1CI4 SLP149
CYQM;2003-08-21 01:00;METAR CYQM 210100Z 24005KT 12SM BKN250 21/17 A2998 RMK CI4 SLP154
CYQM;2003-08-21 03:00;METAR CYQM 210300Z 22006KT 12SM BKN250 19/17 A3000 RMK CI4 SLP158
CYQM;2003-08-21 04:00;METAR CYQM 210400Z 21006KT 12SM SCT250 18/17 A3000 RMK CI3 SLP158
CYQM;2003-08-21 05:00;METAR CYQM 210500Z 21004KT 12SM SCT250 18/17 A2999 RMK CI3 SLP157
CYQM;2003-08-21 06:00;METAR CYQM 210600Z 21006KT 12SM BKN250 18/17 A3000 RMK CI4 SLP160
CYQM;2003-08-21 07:00;METAR CYQM 210700Z 22005KT 12SM BKN250 17/16 A3000 RMK CI3 SLP158
CYQM;2003-08-21 08:00;METAR CYQM 210800Z 26005KT 12SM SCT250 17/17 A3000 RMK CI3 SLP159
CYQM;2003-08-21 09:00;METAR CYQM 210900Z 36006KT 12SM FEW100 SCT260 18/17 A3000 RMK AC2CI2 SLP161
CYQM;2003-08-21 10:00;METAR CYQM 211000Z 22005KT 6SM BR FEW100 SCT260 18/16 A3002 RMK AC2CI2 SLP165
CYQM;2003-08-21 11:00;METAR CYQM 211100Z 00000KT 7SM FEW120 SCT260 19/16 A3003 RMK AC2CI2 SLP169
CYQM;2003-08-21 12:00;METAR CYQM 211200Z 05002KT 7SM FEW120 SCT260 19/17 A3003 RMK AC2CI2 SLP170
CYQM;2003-08-21 13:00;METAR CYQM 211300Z 14003KT 7SM BKN120 BKN260 21/17 A3003 RMK AC5CI1 SLP168
CYQM;2003-08-21 14:00;METAR CYQM 211400Z 00000KT 7SM FEW070 BKN120 BKN250 23/17 A3002 RMK AC2AC3CI1 SLP165
CYQM;2003-08-21 15:00;METAR CYQM 211500Z 14005KT 7SM FEW070 BKN120 BKN250 24/17 A3001 RMK AC2AC3CI1 SLP162 SLP162
CYQM;2003-08-21 16:00;METAR CYQM 211600Z 13004KT 8SM FEW070 SCT120 BKN250 26/19 A2999 RMK AC2AC2CI2 SLP157 SLP157
CYQM;2003-08-21 17:00;METAR CYQM 211700Z 10004KT 8SM FEW070 SCT120 BKN250 26/19 A2997 RMK AC1AC2CI2 SLP149
CYQM;2003-08-21 18:00;METAR CYQM 211800Z 11004KT 8SM FEW035 SCT120 BKN250 28/21 A2995 RMK CU1AC2CI2 SLP143 SLP143
CYQM;2003-08-21 19:00;METAR CYQM 211900Z 09007KT 8SM FEW035 SCT120 BKN250 28/21 A2994 RMK SC2AC2CI2 SLP139 SLP139
CYQM;2003-08-21 20:00;METAR CYQM 212000Z 14007KT 8SM FEW035 SCT120 BKN250 27/21 A2993 RMK SC2AC2CI2 SLP137 SLP137
CYQM;2003-08-21 21:00;METAR CYQM 212100Z 15007KT 10SM VCSH FEW030 BKN120 BKN220 26/20 A2993 RMK SC2AC2CI1 CB SW MOVG E SLP135
CYQM;2003-08-21 22:00;METAR CYQM 212200Z 21006KT 8SM -SHRA BKN030 BKN100 OVC220 22/21 A2993 RMK SC6AC1CI1 TCU EMBD SLP135
CYQM;2003-08-21 23:00;METAR CYQM 212300Z 15007KT 12SM FEW030 SCT040 BKN140 BKN260 22/21 A2992 RMK SC2SC1AC2CI2 SLP131
CYQM;2003-08-22 00:00;METAR CYQM 220000Z 18006KT 12SM FEW030 SCT120 BKN260 21/20 A2992 RMK SC2AC2CI1 SLP131 SLP131
CYQM;2003-08-22 01:00;METAR CYQM 220100Z 17005KT 12SM FEW140 SCT260 20/19 A2992 RMK AC1CI2
CYQM;2003-08-22 03:00;METAR CYQM 220300Z 18003KT 12SM SCT260 19/18 A2990 RMK CI2 SLP126
CYQM;2003-08-22 04:00;METAR CYQM 220400Z 18004KT 12SM SCT120 BKN260 18/18 A2989 RMK AC3CI1 SLP121
CYQM;2003-08-22 05:00;METAR CYQM 220500Z 18004KT 12SM BKN100 18/18 A2986 RMK AC6 SLP113
CYQM;2003-08-22 06:00;METAR CYQM 220600Z 18006KT 15SM SCT050 BKN100 18/18 A2985 RMK SC3AC2 SLP107
CYQM;2003-08-22 07:00;METAR CYQM 220700Z 18006KT 15SM BKN050 18/17 A2984 RMK SC5 SLP106
CYQM;2003-08-22 08:00;METAR CYQM 220800Z 18004KT 15SM BKN050 18/17 A2984 RMK SC5 SLP106
CYQM;2003-08-22 09:00;METAR CYQM 220900Z 16004KT 12SM FEW120 18/17 A2983 RMK AC2 ACC ASOCTD SLP101
CYQM;2003-08-22 10:00;METAR CYQM 221000Z 20004KT 12SM FEW120 18/17 A2982 RMK AC1 SLP099
CYQM;2003-08-22 11:00;METAR CYQM 221100Z 20004KT 12SM FEW120 19/17 A2982 RMK AC1 SLP097
CYQM;2003-08-22 12:00;METAR CYQM 221200Z 18006KT 12SM SKC 21/19 A2979 RMK SLP087
CYQM;2003-08-22 13:00;METAR CYQM 221300Z 18006KT 12SM SKC 24/19 A2977 RMK SLP080
CYQM;2003-08-22 14:00;METAR CYQM 221400Z 20016G21KT 12SM FEW025 26/18 A2975 RMK CU1 SLP074
CYQM;2003-08-22 15:00;METAR CYQM 221500Z 20016G21KT 12SM FEW030 27/19 A2973 RMK CU1 SLP069
CYQM;2003-08-22 16:00;METAR CYQM 221600Z 20016G25KT 10SM FEW030 27/19 A2971 RMK CU1 SLP061
CYQM;2003-08-22 17:00;METAR CYQM 221700Z 21022KT 8SM SCT035 27/19 A2970 RMK CU3 SLP056
CYQM;2003-08-22 18:00;METAR CYQM 221800Z 22017G25KT 8SM BKN035 27/20 A2968 RMK CU6 SLP051
CYQM;2003-08-22 19:00;METAR CYQM 221900Z 20013G26KT 5SM HZ BKN035 28/20 A2966 RMK CU6 SLP045
CYQM;2003-08-22 20:00;METAR CYQM 222000Z 21021G27KT 4SM HZ BKN035 27/20 A2965 RMK CU5 SLP041
CYQM;2003-08-22 21:00;METAR CYQM 222100Z 21015G25KT 4SM HZ FEW080 26/20 A2964 RMK AC1 SLP036
CYQM;2003-08-22 22:00;METAR CYQM 222200Z 21008KT 4SM HZ FEW120 26/20 A2963 RMK AC1 SLP033
CYQM;2003-08-23 00:00;METAR CYQM 230000Z 20007KT 3SM HZ FEW250 23/20 A2964 RMK CI1 SLP039
CYQM;2003-08-23 01:00;METAR CYQM 230100Z 21009KT 4SM HZ FEW250 22/19 A2965 RMK CI1 SLP042
CYQM;2003-08-23 02:00;METAR CYQM 230200Z 21008KT 6SM HZ BKN120 22/19 A2966 RMK AC6 SLP044
CYQM;2003-08-23 03:00;METAR CYQM 230300Z 21007KT 6SM HZ OVC120 21/19 A2965 RMK AC8 SLP040
CYQM;2003-08-23 04:00;METAR CYQM 230400Z 22005KT 6SM HZ BKN120 21/19 A2964 RMK AC6 SLP036
CYQM;2003-08-23 05:00;METAR CYQM 230500Z 23003KT 6SM HZ BKN120 20/19 A2962 RMK AC6 SLP032
CYQM;2003-08-23 06:00;METAR CYQM 230600Z 23004KT 6SM HZ BKN120 19/19 A2962 RMK AC6 SLP030
CYQM;2003-08-23 07:00;METAR CYQM 230700Z 21002KT 6SM HZ OVC100 19/19 A2960 RMK AC8 SLP023
CYQM;2003-08-23 08:00;METAR CYQM 230800Z 23004KT 6SM HZ OVC100 19/18 A2961 RMK AC8 SLP026
CYQM;2003-08-23 09:00;METAR CYQM 230900Z 24003KT 6SM BR HZ BKN070 OVC100 19/18 A2959 RMK AC6AC2 SLP022
CYQM;2003-08-23 10:00;METAR CYQM 231000Z 23008KT 3SM BR HZ FEW060 OVC100 19/18 A2961 RMK SC1AC7 SLP028
CYQM;2003-08-23 11:00;METAR CYQM 231100Z 25008KT 6SM BR HZ FEW035 FEW060 BKN090 OVC250 19/18 A2960 RMK SC1SC2AC5CI1 SLP024 SC1SC2AC5CI1 SLP024
CYQM;2003-08-23 12:00;METAR CYQM 231200Z 23010KT 7SM FEW010 BKN100 BKN250 19/18 A2960 RMK SF1AC6CI1 SLP025 SLP025
CYQM;2003-08-23 13:00;METAR CYQM 231300Z 23009KT 15SM FEW070 FEW100 22/18 A2960 RMK AC1AC1 SLP024
CYQM;2003-08-23 14:00;METAR CYQM 231400Z 24013KT 15SM FEW025 FEW120 FEW240 24/14 A2958 RMK CU1AC1CI1 SLP016 SLP016
CYQM;2003-08-23 15:00;METAR CYQM 231500Z 25016G25KT 15SM FEW030 FEW240 24/14 A2957 RMK CU2CI1 SLP013
CYQM;2003-08-23 16:00;METAR CYQM 231600Z 24018G25KT 15SM FEW035 FEW240 24/12 A2956 RMK CU2CI1 SLP011
CYQM;2003-08-23 17:00;METAR CYQM 231700Z 23018G26KT 15SM FEW035 FEW240 25/09 A2955 RMK CU2CI1 SLP007
CYQM;2003-08-23 18:00;METAR CYQM 231800Z 26019G28KT 15SM FEW040 FEW240 25/05 A2956 RMK CU2CI1 SLP009
CYQM;2003-08-23 19:00;METAR CYQM 231900Z 25015G28KT 15SM FEW040 FEW240 24/08 A2957 RMK CU2CI1
CYQM;2003-08-23 20:00;METAR CYQM 232000Z 28016G24KT 15SM FEW040 FEW050 FEW240 22/09 A2959 RMK CU1SC2CI1 SLP020 SLP020
CYQM;2003-08-23 21:00;METAR CYQM 232100Z 28013G22KT 15SM FEW040 BKN050 BKN250 19/08 A2963 RMK CU2SC5CI1 TR CI SLP033 TR CI SLP033
CYQM;2003-08-23 22:00;METAR CYQM 232200Z 28013G18KT 15SM FEW040 BKN050 BKN250 19/08 A2964 RMK CU1SC4CI1 TR CI SLP036 TR CI SLP036
CYQM;2003-08-23 23:00;METAR CYQM 232300Z 27013KT 15SM FEW040 FEW050 16/07 A2964 RMK CU1SC1 SLP037
CYQM;2003-08-24 00:00;METAR CYQM 240000Z 26015KT 15SM FEW040 FEW050 FEW250 15/06 A2967 RMK CU1SC1CI1 TR CU CI SLP047 CU CI SLP047
CYQM;2003-08-24 01:00;METAR CYQM 240100Z 26012KT 15SM FEW050 13/06 A2968 RMK SC1 TR SC SLP051
CYQM;2003-08-24 02:00;METAR CYQM 240200Z 26009G16KT 15SM FEW050 12/06 A2967 RMK SC1 SLP050
CYQM;2003-08-24 03:00;METAR CYQM 240300Z 27008G15KT 15SM FEW050 11/05 A2968 RMK SC2 SLP051
CYQM;2003-08-24 04:00;METAR CYQM 240400Z 27011KT 15SM BKN040 10/03 A2968 RMK SC7 SLP052
CYQM;2003-08-24 05:00;METAR CYQM 240500Z 27016KT 15SM BKN040 09/04 A2968 RMK SC5 SLP052
CYQM;2003-08-24 06:00;METAR CYQM 240600Z 25009KT 15SM FEW040 09/02 A2968 RMK SC2 SLP053
CYQM;2003-08-24 07:00;METAR CYQM 240700Z 27012KT 15SM FEW040 07/04 A2967 RMK SC2 SLP050
CYQM;2003-08-24 08:00;METAR CYQM 240800Z 25013KT 15SM BKN040 08/04 A2967 RMK SC6 SLP050
CYQM;2003-08-24 09:00;METAR CYQM 240900Z 25012KT 15SM FEW012 FEW050 SCT130 BKN260 08/05 A2968 RMK CF1SC1AC2CI2 SLP051
CYQM;2003-08-24 10:00;METAR CYQM 241000Z 24009KT 15SM FEW012 FEW035 SCT100 SCT140 BKN260 08/06 A2969 RMK CF1SC1AS2AC1CI2 SLP056 RMK CF1SC1AS2AC1CI2 SLP056
CYQM;2003-08-24 11:00;METAR CYQM 241100Z 24011KT 15SM FEW012 SCT030 BKN120 BKN260 08/06 A2971 RMK CF1SC2AC2CI2 SLP061
CYQM;2003-08-24 12:00;METAR CYQM 241200Z 26013KT 15SM FEW015 SCT120 BKN260 11/07 A2970 RMK CU2AC2CI1 SLP060 SLP060
CYQM;2003-08-24 13:00;METAR CYQM 241300Z 26013G19KT 15SM BKN022 BKN120 12/06 A2972 RMK CU7AC1 SLP064
CYQM;2003-08-24 14:00;METAR CYQM 241400Z 28014G20KT 15SM BKN025 BKN260 12/05 A2972 RMK CU6CI1
CYQM;2003-08-24 15:00;METAR CYQM 241500Z 27015G20KT 15SM SCT025 BKN032 BKN260 14/06 A2971 RMK CU3SC2CI1 SLP062 SLP062
CYQM;2003-08-24 16:00;METAR CYQM 241600Z 27012G19KT 15SM SCT027 BKN035 14/06 A2972 RMK CU3SC4 TCU ASOCTD SHS N-NE SLP064
CYQM;2003-08-24 17:00;METAR CYQM 241700Z 26011G18KT 15SM SCT027 BKN035 BKN260 14/05 A2971 RMK CU3SC4CI1 TCU ASOCTD SHS NW-NE SLP062 TCU ASOCTD SHS NW-NE SLP062
CYQM;2003-08-24 18:00;METAR CYQM 241800Z 26014G20KT 15SM VCSH BKN030TCU BKN040 14/05 A2971 RMK TCU5SC2 SHS NW-SE SLP063 SHS NW-SE SLP063
CYQM;2003-08-24 19:00;METAR CYQM 241900Z 26014G21KT 15SM -SHRA BKN032 BKN260 15/04 A2970 RMK CU6CI1 TCU ASOCTD SLP061 ASOCTD SLP061
CYQM;2003-08-24 20:00;METAR CYQM 242000Z 28012G18KT 15SM BKN035 BKN120 15/04 A2971 RMK CU5AC1 TCU ASOCTD SHS ALQDS SLP062
CYQM;2003-08-24 21:00;METAR CYQM 242100Z 25012G20KT 15SM SCT035 BKN120 15/05 A2972 RMK CU3AC2 TCU ASOCTD SHS DIST ALQDS SLP065
CYQM;2003-08-24 22:00;METAR CYQM 242200Z 27010G18KT 15SM VCSH BKN035TCU BKN120 14/05 A2973 RMK TCU5AC2 SHS DIST S NE SLP069 SHS DIST S NE SLP069
CYQM;2003-08-24 23:00;METAR CYQM 242300Z 28008KT 15SM FEW030 BKN100 11/07 A2975 RMK CU2AC2 SHS DIST ALQDS TCU ASOCTD RERA SLP078 ALQDS TCU ASOCTD RERA SLP078
CYQM;2003-08-25 00:00;METAR CYQM 250000Z 27009KT 15SM SCT030 BKN080 11/07 A2978 RMK SC3AC2 CU ASOCTD SLP086 SLP086
CYQM;2003-08-25 01:00;METAR CYQM 250100Z 27009KT 15SM BKN070 11/06 A2979 RMK AC5 SLP091
CYQM;2003-08-25 02:00;METAR CYQM 250200Z 26009KT 15SM BKN070 11/06 A2979 RMK AC6 SLP089
CYQM;2003-08-25 03:00;METAR CYQM 250300Z 25009KT 15SM FEW070 10/06 A2978 RMK AC2 SLP087
CYQM;2003-08-25 04:00;METAR CYQM 250400Z 27009G15KT 15SM BKN070 10/06 A2978 RMK AC6 SLP086
CYQM;2003-08-25 05:00;METAR CYQM 250500Z 26010KT 15SM FEW070 08/05 A2978 RMK AC2 SLP086
CYQM;2003-08-25 06:00;METAR CYQM 250600Z 24009KT 15SM SKC 07/04 A2978 RMK SLP087
CYQM;2003-08-25 07:00;METAR CYQM 250700Z 25009KT 15SM FEW070 06/04 A2979 RMK AC1 SLP090
CYQM;2003-08-25 08:00;METAR CYQM 250800Z 24008KT 15SM FEW070 06/04 A2979 RMK AC1 SLP091
CYQM;2003-08-25 09:00;METAR CYQM 250900Z 24007KT 15SM FEW012 FEW070 FEW260 05/04 A2980 RMK CU1AC1CI1 SLP094 SLP094
CYQM;2003-08-25 10:00;METAR CYQM 251000Z 26008KT 15SM FEW012 FEW070 FEW260 06/04 A2981 RMK CU1AC1CI1 SLP097 SLP097
CYQM;2003-08-25 11:00;METAR CYQM 251100Z 27007KT 15SM FEW016 FEW090 FEW260 08/04 A2982 RMK CU1AC1CI1 SLP101 SLP101
CYQM;2003-08-25 12:00;METAR CYQM 251200Z 29011G17KT 15SM FEW025 FEW100 FEW260 10/04 A2983 RMK CU1AC1CI1 SLP103 SLP103
CYQM;2003-08-25 13:00;METAR CYQM 251300Z 30013KT 15SM FEW040 FEW100 FEW260 13/03 A2984 RMK CU1AC1CI1 SLP106 SLP106
CYQM;2003-08-25 14:00;METAR CYQM 251400Z 29013G21KT 15SM FEW050 FEW100 FEW260 14/M00 A2984 RMK
CYQM;2003-08-25 15:00;METAR CYQM 251500Z 29012G20KT 15SM FEW050 FEW120 FEW260 15/01 A2984 RMK CU1AC1CI1 SLP105 SLP105
CYQM;2003-08-25 16:00;METAR CYQM 251600Z 24008G18KT 15SM FEW050 FEW120 FEW260 16/02 A2983 RMK CU1AC1CI1 SLP104 SLP104
CYQM;2003-08-25 17:00;METAR CYQM 251700Z 30012G19KT 15SM FEW050 FEW120 FEW260 18/03 A2982 RMK CU1AC1CI2 SLP100 SLP100
CYQM;2003-08-25 18:00;METAR CYQM 251800Z 25014KT 15SM FEW055 SCT260 19/03 A2981 RMK CU1CI3
CYQM;2003-08-25 19:00;METAR CYQM 251900Z 24012G19KT 15SM FEW055 BKN240 18/04 A2980 RMK CU1CI5 SLP093
CYQM;2003-08-25 20:00;METAR CYQM 252000Z 27013G18KT 15SM FEW050 FEW100 SCT240 19/02 A2980 RMK CU1AC1CI2 TR CU SLP093 TR CU SLP093
CYQM;2003-08-25 21:00;METAR CYQM 252100Z 25015KT 15SM FEW050 FEW100 FEW240 19/04 A2980 RMK CU1AC1CI1 TR CU SLP094 CU SLP094
CYQM;2003-08-25 23:00;METAR CYQM 252300Z 26008KT 15SM FEW100 15/06 A2984 RMK AC2 SLP107
CYQM;2003-08-26 00:00;METAR CYQM 260000Z 23006KT 15SM FEW100 13/05 A2984 RMK AC2 SLP108
CYQM;2003-08-26 01:00;METAR CYQM 260100Z 25006KT 15SM FEW100 12/07 A2985 RMK AC2 SLP111
CYQM;2003-08-26 02:00;METAR CYQM 260200Z 24007KT 15SM FEW100 11/07 A2986 RMK AC2 SLP114
CYQM;2003-08-26 03:00;METAR CYQM 260300Z 26004KT 15SM SKC 10/07 A2986 RMK SLP113
CYQM;2003-08-26 04:00;METAR CYQM 260400Z 22006KT 15SM SKC 10/07 A2987 RMK SLP116
CYQM;2003-08-26 05:00;METAR CYQM 260500Z 22005KT 15SM SKC 08/07 A2987 RMK SLP118
CYQM;2003-08-26 06:00;METAR CYQM 260600Z 22007KT 15SM FEW100 08/07 A2988 RMK AC1 SLP119
CYQM;2003-08-26 07:00;METAR CYQM 260700Z 22006KT 15SM FEW100 08/07 A2989 RMK AC1 SLP122
CYQM;2003-08-26 08:00;METAR CYQM 260800Z 20006KT 15SM FEW100 07/07 A2988 RMK AC1 SLP121
CYQM;2003-08-26 09:00;METAR CYQM 260900Z 21006KT 15SM FEW100 07/07 A2987 RMK AC2 SLP118
CYQM;2003-08-26 10:00;METAR CYQM 261000Z 23005KT 15SM FEW030 FEW100 SCT220 06/06 A2987 RMK SC1AC1CI2 TR AC SLP118 AC SLP118
CYQM;2003-08-26 11:00;METAR CYQM 261100Z 24005KT 15SM FEW030 FEW100 SCT220 08/08 A2989 RMK SC1AC1CI2 TR AC SLP123 AC SLP123
CYQM;2003-08-26 12:00;METAR CYQM 261200Z 22005KT 15SM FEW030 FEW080 FEW180 FEW220 11/09 A2989 RMK SC1AC1AC1CI1 TR AC SLP122
CYQM;2003-08-26 13:00;METAR CYQM 261300Z 24006KT 15SM FEW040 FEW180 FEW220 15/09 A2988 RMK SC1AC1CI1 TR SC SLP121 SC SLP121
CYQM;2003-08-26 14:00;METAR CYQM 261400Z 19005KT 15SM FEW040 FEW160 SCT260 18/10 A2987 RMK SC1AC1CI2 TR SC SLP118 SC SLP118
CYQM;2003-08-26 15:00;METAR CYQM 261500Z 25007KT 15SM FEW030 FEW120 BKN260 19/08 A2986 RMK CU1AC1CI2 TR CU SLP114 CU SLP114
CYQM;2003-08-26 16:00;METAR CYQM 261600Z 22009KT 15SM FEW045 BKN260 21/09 A2985 RMK CU1CI2 SLP109
CYQM;2003-08-26 17:00;METAR CYQM 261700Z 22011KT 15SM FEW045 BKN260 22/11 A2983 RMK CU2CI2 SLP103
CYQM;2003-08-26 18:00;METAR CYQM 261800Z 23006G15KT 15SM FEW045 BKN260 22/11 A2982 RMK CU2CC3 SLP098
CYQM;2003-08-26 19:00;METAR CYQM 261900Z 20005KT 15SM SCT045 BKN140 BKN260 22/11 A2981 RMK CU3AC2CI2 CC ASOCTD SLP094 ASOCTD SLP094
CYQM;2003-08-26 20:00;METAR CYQM 262000Z 23009KT 15SM FEW035 BKN045 BKN140 BKN260 21/12 A2980 RMK CU1SC6AC1CI1 TR CU SLP091
CYQM;2003-08-26 21:00;METAR CYQM 262100Z 24008KT 15SM FEW035 BKN045 BKN140 BKN260 21/11 A2979 RMK CU1SC6AC1CI1 TR CU SLP088
CYQM;2003-08-26 22:00;METAR CYQM 262200Z 22006KT 15SM FEW035 BKN075 19/11 A2979 RMK SC2AC6 SLP088
CYQM;2003-08-26 23:00;METAR CYQM 262300Z 19003KT 15SM SCT080 SCT220 19/11 A2978 RMK AC3CI1 SLP084
CYQM;2003-08-27 00:00;METAR CYQM 270000Z 17006KT 15SM FEW080 SCT220 17/11 A2978 RMK AC2CI1 SLP085
CYQM;2003-08-27 01:00;METAR CYQM 270100Z 20007KT 15SM FEW100 15/11 A2978 RMK AC2 SLP087
CYQM;2003-08-27 02:00;METAR CYQM 270200Z 18005KT 15SM FEW100 14/10 A2977 RMK AC2 SLP083
CYQM;2003-08-27 03:00;METAR CYQM 270300Z 18004KT 15SM FEW100 FEW250 13/11 A2977 RMK AC1CI1 SLP081
CYQM;2003-08-27 04:00;METAR CYQM 270400Z 18004KT 15SM FEW100 BKN220 13/12 A2975 RMK AC1CI4 SLP077
CYQM;2003-08-27 05:00;METAR CYQM 270500Z 19004KT 15SM FEW100 BKN220 13/12 A2976 RMK AC1CI4 SLP078
CYQM;2003-08-27 06:00;METAR CYQM 270600Z 18003KT 15SM FEW100 BKN220 13/12 A2975 RMK AC1CI6 SLP075
CYQM;2003-08-27 07:00;METAR CYQM 270700Z 17004KT 15SM FEW060 OVC150 13/12 A2972 RMK SC2AC6 SLP065
CYQM;2003-08-27 08:00;METAR CYQM 270800Z 15004KT 15SM OVC080 13/12 A2970 RMK AC8 SLP057
CYQM;2003-08-27 09:00;METAR CYQM 270900Z 14009KT 12SM -SHRA OVC060 13/12 A2968 RMK SC8 SLP052
CYQM;2003-08-27 10:00;METAR CYQM 271000Z 14007KT 15SM -SHRA FEW020 BKN060 OVC100 13/13 A2968 RMK CF1SC6AC2 SLP051
CYQM;2003-08-27 11:00;METAR CYQM 271100Z 14006KT 10SM -SHRA SCT060 OVC100 14/14 A2968 RMK SC3AC5 SLP053
CYQM;2003-08-27 12:00;METAR CYQM 271200Z 15009KT 12SM -SHRA FEW010 FEW060 OVC080 14/13 A2966 RMK CF1SC2AC6 SLP046
CYQM;2003-08-27 13:00;METAR CYQM 271300Z 15011KT 15SM FEW010 BKN080 OVC250 14/14 A2964 RMK CF1AC6CI1 SLP040 SLP040
CYQM;2003-08-27 14:00;METAR CYQM 271400Z 15011KT 15SM FEW010 SCT060 OVC080 16/14 A2962 RMK CF1SC3AC5 TR CF SLP031 CF SLP031
CYQM;2003-08-27 15:00;METAR CYQM 271500Z 21016G21KT 12SM BKN016 OVC020 18/15 A2963 RMK SC6SC2 SLP035
CYQM;2003-08-27 16:00;METAR CYQM 271600Z 22013KT 12SM BKN018 19/16 A2960 RMK SC7 CU ASOCTD SLP025
CYQM;2003-08-27 17:00;METAR CYQM 271700Z 26015KT 12SM BKN020 BKN080 22/17 A2960 RMK CU5AC1 SLP024
CYQM;2003-08-27 18:00;METAR CYQM 271800Z 24016KT 15SM FEW020 SCT080 24/17 A2959 RMK CU2AC1 SLP021
CYQM;2003-08-27 19:00;METAR CYQM 271900Z 22012G19KT 15SM FEW020 FEW070 25/17 A2957 RMK CU2AC1 TCU ASOCTD SLP015
CYQM;2003-08-27 20:00;METAR CYQM 272000Z 22007G18KT 12SM SCT020TCU SCT070 BKN250 25/17 A2955 RMK TCU3AC1CI1 SHS DIST SW-NE CB TOPS DIST SW-NE SLP008
CYQM;2003-08-27 21:00;METAR CYQM 272100Z 26014G22KT 15SM VCSH FEW010 BKN030CB BKN120 BKN250 20/15 A2960 RMK SF1CB6AC1CI1 SHS NW-E VIS NW-E 8 PRESRR SLP023 RMK SF1CB6AC1CI1 SHS NW-E VIS NW-E 8 PRESRR SLP023
CYQM;2003-08-27 22:00;METAR CYQM 272200Z 22014G20KT 15SM FEW035 SCT100 BKN250 22/14 A2960 RMK CU2AC2CI1 TCU ASOCTD SLP023 TCU ASOCTD SLP023
CYQM;2003-08-27 23:00;METAR CYQM 272300Z 23008KT 15SM SCT035TCU BKN100 20/15 A2962 RMK TCU3AC3 SHS W-N SLP032
CYQM;2003-08-28 00:00;METAR CYQM 280000Z 26008KT 15SM BKN100 20/14 A2964 RMK AC6 SLP037
CYQM;2003-08-28 01:00;METAR CYQM 280100Z 24010KT 15SM SCT100 18/13 A2967 RMK AC3 SLP046
CYQM;2003-08-28 02:00;METAR CYQM 280200Z 23008KT 15SM FEW120 17/12 A2969 RMK AC2 SLP053
CYQM;2003-08-28 03:00;METAR CYQM 280300Z 22007KT 15SM SKC 15/12 A2970 RMK SLP059
CYQM;2003-08-28 04:00;METAR CYQM 280400Z 25009KT 15SM SKC 14/12 A2970 RMK SLP060
CYQM;2003-08-28 05:00;METAR CYQM 280500Z 25013KT 15SM SKC 15/12 A2971 RMK SLP061
CYQM;2003-08-28 06:00;METAR CYQM 280600Z 24008KT 15SM SKC 13/11 A2972 RMK SLP064
CYQM;2003-08-28 07:00;METAR CYQM 280700Z 22009KT 15SM SKC 13/11 A2973 RMK SLP068
CYQM;2003-08-28 08:00;METAR CYQM 280800Z 22008KT 15SM SKC 12/10 A2974 RMK SLP071
CYQM;2003-08-28 09:00;METAR CYQM 280900Z 22008KT 15SM FEW250 11/09 A2975 RMK CI0 SLP075
CYQM;2003-08-28 10:00;METAR CYQM 281000Z 23009KT 15SM FEW250 12/09 A2977 RMK CI0 SLP082
CYQM;2003-08-28 11:00;METAR CYQM 281100Z 24016KT 15SM FEW100 FEW250 13/09 A2978 RMK AC1CI1 TR AC SLP087
CYQM;2003-08-28 12:00;METAR CYQM 281200Z 25017G26KT 15SM FEW015 FEW100 FEW250 14/10 A2979 RMK CF1AC1CI1 TR CF AC SLP090 TR CF AC SLP090
CYQM;2003-08-28 13:00;METAR CYQM 281300Z 26020G26KT 15SM FEW015 FEW080 SCT250 16/09 A2981 RMK CF2AC1CI1 SLP096 SLP096
CYQM;2003-08-28 14:00;METAR CYQM 281400Z 27017G25KT 15SM SCT015 BKN080 BKN250 18/10 A2982 RMK CU4AC1CI1 SLP099 SLP099
CYQM;2003-08-28 15:00;METAR CYQM 281500Z 26015G24KT 15SM BKN015 17/09 A2983 RMK CU5 SLP103
CYQM;2003-08-28 16:00;METAR CYQM 281600Z 27016G21KT 15SM SCT020 19/10 A2983 RMK CU4 SLP103
CYQM;2003-08-28 17:00;METAR CYQM 281700Z 28018G26KT 15SM SCT020 19/09 A2984 RMK CU3 SLP105
CYQM;2003-08-28 18:00;METAR CYQM 281800Z 26016G26KT 15SM BKN040 22/09 A2983 RMK CU6 SLP102
CYQM;2003-08-28 19:00;METAR CYQM 281900Z 28015G24KT 15SM BKN040 21/10 A2983 RMK CU5 SLP103
CYQM;2003-08-28 20:00;METAR CYQM 282000Z 26017G25KT 15SM SCT040 SCT250 21/09 A2984 RMK CU3CI1 TR CI SLP106 SLP106
CYQM;2003-08-28 21:00;METAR CYQM 282100Z 27015G26KT 15SM SCT040 21/09 A2986 RMK CU3 SLP112
CYQM;2003-08-28 22:00;METAR CYQM 282200Z 27014KT 15SM FEW040 FEW250 20/09 A2987 RMK CU2CI1 SLP117
CYQM;2003-08-28 23:00;METAR CYQM 282300Z 27009KT 15SM FEW040 FEW130 FEW250 18/09 A2990 RMK CU1AC1CI1 SLP125 SLP125
CYQM;2003-08-29 00:00;METAR CYQM 290000Z 27008KT 15SM FEW120 FEW250 16/09 A2993 RMK AC1CI1 SLP137
CYQM;2003-08-29 01:00;METAR CYQM 290100Z 25007KT 15SM SCT250 15/09 A2996 RMK CI2 SLP146
CYQM;2003-08-29 02:00;METAR CYQM 290200Z 23006KT 15SM FEW250 13/09 A2997 RMK CI1 SLP151
CYQM;2003-08-29 03:00;METAR CYQM 290300Z 25005KT 15SM SKC 12/09 A2999 RMK SLP157
CYQM;2003-08-29 04:00;METAR CYQM 290400Z 23008KT 15SM FEW250 11/09 A3000 RMK CI1 SLP162
CYQM;2003-08-29 05:00;METAR CYQM 290500Z 25012KT 15SM SKC 12/09 A3003 RMK SLP169
CYQM;2003-08-29 06:00;METAR CYQM 290600Z 26012G17KT 15SM SKC 11/08 A3004 RMK SLP173
CYQM;2003-08-29 07:00;METAR CYQM 290700Z 25010KT 15SM SKC 10/07 A3005 RMK SLP177
CYQM;2003-08-29 08:00;METAR CYQM 290800Z 27008KT 15SM SKC 09/06 A3006 RMK SLP179
CYQM;2003-08-29 09:00;METAR CYQM 290900Z 25008KT 15SM SKC 08/06 A3008 RMK SLP186
CYQM;2003-08-29 10:00;METAR CYQM 291000Z 24008KT 15SM FEW120 BKN250 08/06 A3009 RMK AC1CI2 SLP192
CYQM;2003-08-29 11:00;METAR CYQM 291100Z 25008KT 15SM FEW120 BKN250 09/06 A3009 RMK AC1CI2 SLP191
CYQM;2003-08-29 12:00;METAR CYQM 291200Z 25009KT 15SM FEW120 FEW250 10/08 A3010 RMK AC1CI1 SLP194
CYQM;2003-08-29 13:00;METAR CYQM 291300Z 26011KT 15SM FEW150 SCT250 13/07 A3010 RMK AC1CI1 SLP195
CYQM;2003-08-29 14:00;METAR CYQM 291400Z 25010G18KT 15SM SCT150 BKN220 16/07 A3011 RMK AC3CI1 SLP196
CYQM;2003-08-29 15:00;METAR CYQM 291500Z 24011KT 15SM SCT150 BKN220 17/06 A3010 RMK AC3CI1
CYQM;2003-08-29 16:00;METAR CYQM 291600Z 24011G18KT 15SM FEW150 BKN220 17/06 A3008 RMK AC2CI2 SLP187
CYQM;2003-08-29 17:00;METAR CYQM 291700Z 24012G18KT 15SM FEW150 BKN200 18/05 A3006 RMK AC2CI2 SLP181
CYQM;2003-08-29 18:00;METAR CYQM 291800Z 23013G18KT 15SM SCT150 BKN200 20/06 A3006 RMK AC3CI2 SLP179
CYQM;2003-08-29 19:00;METAR CYQM 291900Z 25015KT 15SM SCT150 BKN200 20/07 A3005 RMK AC3CI2 SLP176
CYQM;2003-08-29 20:00;METAR CYQM 292000Z 23008KT 15SM SCT150 BKN200 20/07 A3003 RMK AC3CI2 CC ASOCTD SLP169 SLP169
CYQM;2003-08-29 21:00;METAR CYQM 292100Z 23009KT 15SM FEW160 BKN200 19/08 A3003 RMK AS2CS5 CC
CYQM;2003-08-29 22:00;METAR CYQM 292200Z 18010G15KT 15SM FEW040 SCT100 BKN160 OVC220 17/09 A3002 RMK SC1AC2AS3CI1 SLP166 SC1AC2AS3CI1 SLP166
CYQM;2003-08-29 23:00;METAR CYQM 292300Z 20010KT 15SM SCT100 BKN140 BKN220 16/09 A3000 RMK AC3AS2CI1 SLP162
CYQM;2003-08-30 00:00;METAR CYQM 300000Z 20010KT 15SM BKN100 OVC220 16/08 A3000 RMK AC6CI2 SLP162
CYQM;2003-08-30 01:00;METAR CYQM 300100Z 20012KT 15SM FEW040 BKN100 16/08 A2997 RMK SC2AC6 SLP152
CYQM;2003-08-30 02:00;METAR CYQM 300200Z 20017G22KT 15SM -SHRA BKN040 OVC100 17/09 A2995 RMK SC5AC3 SLP145 SLP145
CYQM;2003-08-30 03:00;METAR CYQM 300300Z 19016KT 15SM -SHRA BKN040 OVC100 17/10 A2992 RMK SC5AC3 SLP134
CYQM;2003-08-30 04:00;METAR CYQM 300400Z 20013G22KT 15SM BKN040 OVC100 17/12 A2992 RMK SC5AC3 OCNL RW- SLP133
CYQM;2003-08-30 05:00;METAR CYQM 300500Z 21017G26KT 15SM BKN040 OVC080 16/12 A2990 RMK SC5AC3 SLP126
CYQM;2003-08-30 06:00;METAR CYQM 300600Z 21016G22KT 15SM BKN040 OVC080 17/14 A2987 RMK SC6AC2 SLP117
CYQM;2003-08-30 07:00;METAR CYQM 300700Z 22016G21KT 15SM FEW020 OVC040 18/15 A2986 RMK SC2SC6 SLP113
CYQM;2003-08-30 08:00;METAR CYQM 300800Z 22014G20KT 15SM SCT016 OVC040 18/16 A2986 RMK SC3SC5
CYQM;2003-08-30 09:00;METAR CYQM 300900Z 20015G20KT 15SM BKN016 OVC040 17/16 A2985 RMK SC6SC2 SLP110
CYQM;2003-08-30 10:00;METAR CYQM 301000Z 21012G17KT 10SM FEW007 BKN015 OVC040 17/16 A2986 RMK SF2SC5SC2 SLP113
CYQM;2003-08-30 11:00;METAR CYQM 301100Z 20011KT 10SM FEW007 BKN015 OVC040 17/16 A2986 RMK SF2SC5SC2 SLP112
CYQM;2003-08-30 12:00;METAR CYQM 301200Z 18009KT 10SM OVC015 18/17 A2985 RMK SC8 SLP109
CYQM;2003-08-30 13:00;METAR CYQM 301300Z 18006KT 10SM -SHRA BKN015 OVC040 18/17 A2984 RMK SC6SC2 SLP106
CYQM;2003-08-30 14:00;METAR CYQM 301400Z 18008KT 5SM -SHRA BR SCT007 BKN015 OVC040 18/17 A2984 RMK SF3SC3SC2 SLP106 SF3SC3SC2 SLP106
CYQM;2003-08-30 15:00;METAR CYQM 301500Z 19005KT 10SM FEW015 BKN040 OVC080 17/17 A2984 RMK SC2SC4AC2 SLP106
CYQM;2003-08-30 16:00;METAR CYQM 301600Z 22003KT 10SM SCT007 BKN020 OVC040 18/17 A2984 RMK SF3SC2SC2 SLP105 SLP105
CYQM;2003-08-30 17:00;METAR CYQM 301700Z 22011KT 10SM FEW007 SCT020 OVC060 19/18 A2982 RMK SF2SC2SC5 SLP100 SLP100
CYQM;2003-08-30 18:00;METAR CYQM 301800Z 21012KT 15SM FEW012 SCT040 BKN070 BKN250 23/19 A2982 RMK CU2SC2AC2CI1 SLP099
CYQM;2003-08-30 19:00;METAR CYQM 301900Z 24010G15KT 12SM FEW020 FEW040 BKN120 23/19 A2983 RMK CU2SC1AC3 SLP103
CYQM;2003-08-30 20:00;METAR CYQM 302000Z 28011G16KT 15SM FEW020 SCT040 BKN120 BKN250 23/18 A2985 RMK CU2SC1AC2CI1 SLP108 CU2SC1AC2CI1 SLP108
CYQM;2003-08-30 21:00;METAR CYQM 302100Z 30010KT 15SM FEW035 BKN150 BKN200 20/15 A2989 RMK CU2AC4CI1 SLP124 SLP124
CYQM;2003-08-30 22:00;METAR CYQM 302200Z 27010KT 15SM FEW030 BKN120 19/12 A2996 RMK SC1AC6 PRESRR
CYQM;2003-08-30 23:00;METAR CYQM 302300Z 27006KT 15SM FEW030 BKN050 BKN220 18/11 A2997 RMK SC1SC5CI1 CU ASOCTD SLP148
CYQM;2003-08-31 00:00;METAR CYQM 310000Z 29010KT 15SM BKN050 BKN220 17/10 A3000 RMK SC5CI1 SLP159
CYQM;2003-08-31 01:00;METAR CYQM 310100Z 30006KT 15SM SCT050 15/09 A3004 RMK SC3 SLP173
CYQM;2003-08-31 02:00;METAR CYQM 310200Z 32006KT 15SM FEW050 13/08 A3007 RMK SC2 SLP182
CYQM;2003-08-31 03:00;METAR CYQM 310300Z 30006KT 15SM FEW050 11/07 A3009 RMK SC1 SLP190
CYQM;2003-08-31 04:00;METAR CYQM 310400Z 28006KT 15SM SKC 10/06 A3010 RMK SLP194
CYQM;2003-08-31 05:00;METAR CYQM 310500Z 23006KT 15SM SKC 08/06 A3011 RMK SLP198
CYQM;2003-08-31 06:00;METAR CYQM 310600Z 23005KT 15SM SKC 07/06 A3011 RMK SLP199
CYQM;2003-08-31 07:00;METAR CYQM 310700Z 22005KT 15SM SKC 07/05 A3012 RMK SLP201
CYQM;2003-08-31 08:00;METAR CYQM 310800Z 23005KT 15SM SKC 05/05 A3013 RMK SLP205
CYQM;2003-08-31 09:00;METAR CYQM 310900Z 22008KT 15SM SKC 05/05 A3015 RMK SLP212
CYQM;2003-08-31 10:00;METAR CYQM 311000Z 22009KT 15SM SKC 06/05 A3018 RMK SLP222
CYQM;2003-08-31 11:00;METAR CYQM 311100Z 24005KT 15SM SKC 07/05 A3020 RMK SLP228
CYQM;2003-08-31 12:00;METAR CYQM 311200Z 20005KT 15SM SKC 09/06 A3020 RMK SLP229
CYQM;2003-08-31 13:00;METAR CYQM 311300Z 22005KT 15SM FEW250 11/07 A3022 RMK CI0 SLP234
CYQM;2003-08-31 14:00;METAR CYQM 311400Z 20007KT 15SM FEW250 16/09 A3022 RMK CI1 SLP236
CYQM;2003-08-31 15:00;METAR CYQM 311500Z 17007KT 15SM FEW030 SCT250 17/09 A3022 RMK CU1CI2 SLP235
CYQM;2003-08-31 16:00;METAR CYQM 311600Z 26010KT 15SM FEW040 BKN250 19/08 A3021 RMK CU2CI2 SLP231
CYQM;2003-08-31 17:00;METAR CYQM 311700Z 22008KT 15SM FEW045 BKN250 19/07 A3019 RMK CU2CI2 SLP225
CYQM;2003-08-31 18:00;METAR CYQM 311800Z 28008KT 15SM FEW045 BKN250 20/08 A3018 RMK CU2CI2 SLP222
CYQM;2003-08-31 19:00;METAR CYQM 311900Z 26009G15KT 15SM FEW045 BKN250 20/09 A3018 RMK CU2CI3 SLP221
CYQM;2003-08-31 20:00;METAR CYQM 312000Z 27008G15KT 15SM FEW050 BKN250 20/07 A3017 RMK CU2CI3 SLP220
CYQM;2003-08-31 21:00;METAR CYQM 312100Z 27013KT 15SM FEW050 BKN250 20/08 A3017 RMK CU2CI3 SLP218
CYQM;2003-08-31 22:00;METAR CYQM 312200Z 26013KT 15SM FEW040 FEW140 BKN250 18/08 A3017 RMK SC1AC1CI2 CU ASOCTD SLP219 ASOCTD SLP219
CYQM;2003-08-31 23:00;METAR CYQM 312300Z 26007KT 15SM FEW040 FEW140 FEW250 16/07 A3017 RMK SC1AC1CI1 TR SC SLP219 SC SLP219
CYQM;2003-09-01 00:00;METAR CYQM 010000Z 21005KT 15SM FEW140 14/08 A3018 RMK AC1 SLP221
CYQM;2003-09-01 01:00;METAR CYQM 010100Z 21006KT 15SM SKC 13/07 A3017 RMK SLP219
CYQM;2003-09-01 02:00;METAR CYQM 010200Z 21007KT 15SM SKC 11/07 A3017 RMK SLP220
CYQM;2003-09-01 03:00;METAR CYQM 010300Z 23007KT 15SM SKC 10/07 A3018 RMK SLP221
CYQM;2003-09-01 04:00;METAR CYQM 010400Z 22006KT 15SM SKC 09/08 A3017 RMK SLP220
CYQM;2003-09-01 05:00;METAR CYQM 010500Z 23005KT 15SM SKC 09/08 A3017 RMK SLP218
CYQM;2003-09-01 06:00;METAR CYQM 010600Z 24005KT 15SM SKC 08/07 A3016 RMK SLP213
CYQM;2003-09-01 07:00;METAR CYQM 010700Z 24005KT 15SM FEW250 08/07 A3015 RMK CI2 SLP210
CYQM;2003-09-01 08:00;METAR CYQM 010800Z 22005KT 15SM FEW120 SCT250 08/08 A3014 RMK AC1CI2 SLP208
CYQM;2003-09-01 09:00;METAR CYQM 010900Z 22005KT 15SM BKN120 08/08 A3013 RMK AC7 SLP205
CYQM;2003-09-01 10:00;METAR CYQM 011000Z 22005KT 15SM SCT090 BKN130 BKN270 08/08 A3012 RMK AS3AC2CI1 SLP202 SLP202
CYQM;2003-09-01 11:00;METAR CYQM 011100Z 22004KT 15SM FEW040 SCT090 BKN130 OVC270 09/09 A3012 RMK SC1AS3AC3CI1 SLP202
CYQM;2003-09-01 12:00;METAR CYQM 011200Z 23006KT 15SM SCT090 BKN130 OVC270 12/10 A3011 RMK AS3AC3CI1 SLP199 SLP199
CYQM;2003-09-01 13:00;METAR CYQM 011300Z 23009KT 15SM SCT090 BKN130 BKN270 14/10 A3010 RMK AS4AC1CI2 SLP196
CYQM;2003-09-01 14:00;METAR CYQM 011400Z 23013KT 15SM FEW090 SCT130 BKN270 16/11 A3009 RMK AS2AC2CI2 SLP193
CYQM;2003-09-01 15:00;METAR CYQM 011500Z 23016KT 15SM FEW030 FEW130 SCT270 19/10 A3007 RMK CU1AC1CI2 SLP185 SLP185
CYQM;2003-09-01 16:00;METAR CYQM 011600Z 24018KT 15SM FEW035 FEW130 SCT270 22/11 A3004 RMK CU1AC1CI2 SLP173 SLP173
CYQM;2003-09-01 17:00;METAR CYQM 011700Z 22015G21KT 15SM FEW040 FEW130 FEW270 23/10 A3001 RMK CU1AC1CI1 SLP164 SLP164
CYQM;2003-09-01 18:00;METAR CYQM 011800Z 24015G25KT 15SM FEW040 FEW130 FEW270 24/12 A3000 RMK CU1AC1CI1 SLP160 SLP160
CYQM;2003-09-01 19:00;METAR CYQM 011900Z 25017G25KT 15SM FEW040 FEW130 SCT270 25/12 A2997 RMK CU1AC1CI1 SLP151 SLP151
CYQM;2003-09-01 20:00;METAR CYQM 012000Z 22014G22KT 15SM FEW045 SCT240 23/10 A2996 RMK CU2CI2 SLP146
CYQM;2003-09-01 21:00;METAR CYQM 012100Z 24015KT 15SM SCT045TCU BKN140 BKN250 21/11 A2997 RMK TCU3AC2CI1 SHS DIST NW-NE SLP152
CYQM;2003-09-01 22:00;METAR CYQM 012200Z 23015KT 15SM FEW045TCU BKN140 BKN250 19/11 A2999 RMK TCU2AC3CI0 SHS DIST W-N SLP157
CYQM;2003-09-01 23:00;METAR CYQM 012300Z 23010G15KT 15SM FEW045 BKN140 BKN250 18/11 A3000 RMK CU2AC5CI0 TCU EMBD SHS DIST W-NE SLP159 TCU EMBD SHS DIST W-NE SLP159
CYQM;2003-09-02 00:00;METAR CYQM 020000Z 23012KT 15SM FEW045 BKN120 BKN250 17/11 A3002 RMK SC2AC3CI1 CU ASOCTD SLP166 ASOCTD SLP166
CYQM;2003-09-02 01:00;METAR CYQM 020100Z 26012KT 15SM FEW040 OVC100 17/11 A3004 RMK SC2AC6 SLP174
CYQM;2003-09-02 02:00;METAR CYQM 020200Z 27007KT 15SM BKN100 OVC250 16/12 A3005 RMK AC7CI0 SLP176
CYQM;2003-09-02 03:00;METAR CYQM 020300Z 27005KT 15SM OVC100 15/13 A3007 RMK AC8 SLP183
CYQM;2003-09-02 04:00;METAR CYQM 020400Z 31008KT 15SM SCT100 14/12 A3008 RMK AC3 SLP188
CYQM;2003-09-02 05:00;METAR CYQM 020500Z 33008KT 15SM FEW100 13/09 A3010 RMK AC2 SLP194
CYQM;2003-09-02 08:00;METAR CYQM 020800Z 32009KT 15SM BKN250 11/05 A3012 RMK CI2 SLP202
CYQM;2003-09-02 09:00;METAR CYQM 020900Z 31006KT 15SM FEW010 FEW120 BKN250 10/05 A3014 RMK CF1AC2CI4 SLP206 SLP206
CYQM;2003-09-02 10:00;METAR CYQM 021000Z 31006KT 15SM BKN120 BKN250 09/04 A3015 RMK AS3CI2 SLP211
CYQM;2003-09-02 11:00;METAR CYQM 021100Z 31007KT 15SM BKN120 BKN250 10/04 A3017 RMK AS5CI1 SLP216
CYQM;2003-09-02 12:00;METAR CYQM 021200Z 32007KT 15SM SCT120 BKN250 11/04 A3017 RMK AS4CS2 SLP220
CYQM;2003-09-02 13:00;METAR CYQM 021300Z 31008KT 15SM SCT120 BKN250 13/05 A3018 RMK AS3CS2 SLP223
CYQM;2003-09-02 14:00;METAR CYQM 021400Z 35006KT 15SM SCT120 BKN250 13/04 A3019 RMK AS3CS3 SLP224
CYQM;2003-09-02 15:00;METAR CYQM 021500Z 36006KT 15SM FEW120 BKN250 14/05 A3018 RMK AS2CS3 HALO SLP222
CYQM;2003-09-02 16:00;METAR CYQM 021600Z 02005KT 15SM FEW140 BKN250 16/04 A3019 RMK AS2CS2
CYQM;2003-09-02 17:00;METAR CYQM 021700Z 29006KT 15SM FEW030 SCT250 17/03 A3018 RMK CU1CI2
CYQM;2003-09-02 18:00;METAR CYQM 021800Z 25002KT 15SM FEW030 FEW250 18/03 A3017 RMK CU1CI1 SLP217
CYQM;2003-09-02 19:00;METAR CYQM 021900Z 27007KT 15SM FEW035 FEW250 19/03 A3016 RMK CU1CI1 SLP214
CYQM;2003-09-02 20:00;METAR CYQM 022000Z 00000KT 15SM FEW035 FEW250 19/05 A3016 RMK CU1CI1
CYQM;2003-09-02 21:00;METAR CYQM 022100Z 27002KT 15SM FEW035 FEW250 19/04 A3016 RMK CU1CI1 SLP215
CYQM;2003-09-02 23:00;METAR CYQM 022300Z 12007KT 15SM FEW030 FEW250 16/06 A3018 RMK SC1CI1 TR SC CI SLP221 SLP221
CYQM;2003-09-03 00:00;METAR CYQM 030000Z 15006KT 15SM FEW030 FEW250 12/07 A3019 RMK SC1CI1 TR SC CI SLP227 SLP227
CYQM;2003-09-03 01:00;METAR CYQM 030100Z 16005KT 15SM FEW250 11/05 A3019 RMK CI0 SLP226
CYQM;2003-09-03 02:00;METAR CYQM 030200Z 18004KT 15SM FEW250 11/05 A3019 RMK CI0 SLP226
CYQM;2003-09-03 03:00;METAR CYQM 030300Z 20006KT 15SM SKC 09/05 A3020 RMK SLP228
CYQM;2003-09-03 04:00;METAR CYQM 030400Z 21007KT 15SM SKC 08/06 A3020 RMK SLP230
CYQM;2003-09-03 05:00;METAR CYQM 030500Z 22008KT 15SM SKC 07/06 A3021 RMK SLP231
CYQM;2003-09-03 06:00;METAR CYQM 030600Z 25003KT 15SM SKC 07/04 A3021 RMK SLP231
CYQM;2003-09-03 07:00;METAR CYQM 030700Z 25007KT 15SM SKC 05/04 A3021 RMK SLP233
CYQM;2003-09-03 08:00;METAR CYQM 030800Z 22008KT 15SM SKC 05/05 A3021 RMK SLP233
CYQM;2003-09-03 09:00;METAR CYQM 030900Z 22009KT 15SM FEW030 05/04 A3022 RMK SC1 SLP235
CYQM;2003-09-03 10:00;METAR CYQM 031000Z 23005KT 15SM FEW030 05/05 A3023 RMK SC1 SLP238
CYQM;2003-09-03 11:00;METAR CYQM 031100Z 23006KT 15SM FEW030 FEW220 07/05 A3024 RMK SC1CI1 TR CI SLP241
CYQM;2003-09-03 12:00;METAR CYQM 031200Z 22006KT 15SM FEW080 FEW220 10/07 A3024 RMK AC1CI1
CYQM;2003-09-03 13:00;METAR CYQM 031300Z 24004KT 15SM FEW030 FEW080 FEW260 14/07 A3024 RMK CU1AC1CI1 SLP242 SLP242
CYQM;2003-09-03 14:00;METAR CYQM 031400Z 22005KT 15SM FEW035 FEW100 FEW260 16/07 A3023 RMK CU1AC1CI1 SLP238 SLP238
CYQM;2003-09-03 15:00;METAR CYQM 031500Z 25006KT 15SM FEW050 FEW100 FEW260 20/07 A3021 RMK CU1AC1CI1 SLP233 SLP233
CYQM;2003-09-03 16:00;METAR CYQM 031600Z 29004KT 15SM FEW050 FEW260 20/05 A3019 RMK CU1CI1 SLP226
CYQM;2003-09-03 17:00;METAR CYQM 031700Z 26008KT 15SM FEW050 SCT260 21/06 A3017 RMK CU2CI1 SLP220
CYQM;2003-09-03 18:00;METAR CYQM 031800Z 18004KT 15SM FEW050 SCT260 21/05 A3016 RMK CU2CI1 SLP214
CYQM;2003-09-03 19:00;METAR CYQM 031900Z 18010KT 15SM FEW050 SCT260 21/07 A3015 RMK CU2CI1 SLP212
CYQM;2003-09-03 20:00;METAR CYQM 032000Z 14009G15KT 15SM FEW050 SCT260 19/06 A3016 RMK CU2CI1 SLP213
CYQM;2003-09-03 21:00;METAR CYQM 032100Z 15011KT 15SM FEW050 SCT260 19/06 A3015 RMK SC2CI1 CU ASOCTD SLP211 SLP211
CYQM;2003-09-03 22:00;METAR CYQM 032200Z 17008KT 15SM FEW050 SCT260 18/05 A3015 RMK CU2CI1
CYQM;2003-09-03 23:00;METAR CYQM 032300Z 18006KT 15SM FEW060 SCT260 16/05 A3016 RMK CU1CI1
CYQM;2003-09-04 00:00;METAR CYQM 040000Z 18005KT 15SM FEW060 FEW260 15/04 A3016 RMK CU1CI1 SLP216
CYQM;2003-09-04 01:00;METAR CYQM 040100Z 15005KT 15SM FEW260 15/07 A3016 RMK CI2 SLP214
CYQM;2003-09-04 02:00;METAR CYQM 040200Z 14008KT 15SM FEW060 FEW260 14/08 A3016 RMK CU1CI2 SLP214
CYQM;2003-09-04 03:00;METAR CYQM 040300Z 16006KT 15SM SKC 11/05 A3015 RMK SLP211
CYQM;2003-09-04 04:00;METAR CYQM 040400Z 21005KT 15SM SKC 10/05 A3015 RMK SLP212
CYQM;2003-09-04 05:00;METAR CYQM 040500Z 19005KT 15SM SKC 10/05 A3015 RMK SLP211
CYQM;2003-09-04 06:00;METAR CYQM 040600Z 20002KT 15SM SKC 09/05 A3014 RMK SLP208
CYQM;2003-09-04 07:00;METAR CYQM 040700Z 20004KT 15SM FEW100 09/05 A3012 RMK AC1 SLP201
CYQM;2003-09-04 08:00;METAR CYQM 040800Z 16004KT 15SM SCT100 10/07 A3011 RMK AC4 SLP198
CYQM;2003-09-04 09:00;METAR CYQM 040900Z 15004KT 15SM FEW060 BKN100 10/09 A3010 RMK SC2AC5 SLP194
CYQM;2003-09-04 10:00;METAR CYQM 041000Z 15005KT 15SM BKN070 BKN100 OVC260 11/09 A3009 RMK AC5AC2CI1 SLP191 SLP191
CYQM;2003-09-04 11:00;METAR CYQM 041100Z 17008KT 15SM FEW012 BKN070 BKN100 BKN260 12/10 A3009 RMK SC1AC5AC2CI1 TR SC SLP191
CYQM;2003-09-04 12:00;METAR CYQM 041200Z 17009KT 15SM FEW012 SCT070 BKN100 OVC260 14/11 A3007 RMK SC1AC3AC2CI2 SLP184
CYQM;2003-09-04 13:00;METAR CYQM 041300Z 15010KT 15SM FEW012 BKN070 BKN120 OVC260 15/12 A3006 RMK SC1AC5AC1CI1 CU ASOCTD SLP179
CYQM;2003-09-04 14:00;METAR CYQM 041400Z 17007KT 15SM -SHRA SCT015 OVC070 15/12 A3005 RMK SC3AC5 SLP176
CYQM;2003-09-04 15:00;METAR CYQM 041500Z 17004KT 3SM SHRA BR FEW008 BKN012 OVC070 14/13 A3003 RMK SF1SC6AC1 SLP172
CYQM;2003-09-04 16:00;METAR CYQM 041600Z 15003KT 2SM -SHRA BR FEW008 BKN012 OVC070 14/14 A3001 RERA RMK SF1SC6AC1 SLP165
CYQM;2003-09-04 17:00;METAR CYQM 041700Z 15006KT 3SM -SHRA BR FEW008 OVC012 15/15 A2998 /R11/ SLP154 SF2SC6 PRESFR SLP134 SLP097
CYQM;2003-09-04 21:00;METAR CYQM 042100Z 11009KT 3SM -RA BR BKN005 OVC012 16/16 A2978 RMK SF7SC1 SLP088
CYQM;2003-09-05 22:00;METAR CYQM 042200Z 10003KT 4SM -RA BR BKN004 OVC012 16/16 A2976 RMK SF7SC1 SLP080 SLP075
CYQM;2003-09-05 00:00;METAR CYQM 050000Z 14003KT 15SM FEW004 OVC013 17/16 A2975 RMK SF1SC7
CYQM;2003-09-05 01:00;METAR CYQM 050100Z 18003KT 15SM FEW003 OVC012 17/17 A2975 RMK SF1SC7 SLP074
CYQM;2003-09-05 02:00;METAR CYQM 050200Z 20003KT 1 1/4SM BR SCT003 OVC007 17/17 A2974 RMK SF3SF5 SLP072 17/17 A2976 RMK SF8 SLP078 17/17 A2975 RMK FG8 SLP074 A2975 RMK FG8 SLP074
CYQM;2003-09-05 05:00;METAR CYQM 050500Z 25007KT 5SM BR FEW002 OVC004 17/16 A2976 RMK SF1SF7 SLP079
CYQM;2003-09-05 06:00;METAR CYQM 050600Z 23006KT 5SM BR FEW002 OVC006 16/16 A2977 RMK SF1SF7 SLP081
CYQM;2003-09-05 07:00;METAR CYQM 050700Z 26005KT 12SM OVC007 16/16 A2976 RMK SF8 SLP080
CYQM;2003-09-05 08:00;METAR CYQM 050800Z 24005KT 12SM OVC007 16/15 A2978 RMK SF8 SLP087
CYQM;2003-09-05 09:00;METAR CYQM 050900Z 24003KT 15SM FEW007 OVC014 16/15 A2978 RMK SF2SC6 SLP086
CYQM;2003-09-05 10:00;METAR CYQM 051000Z 25005KT 12SM BKN008 OVC014 16/16 A2980 RMK SF5SC3 SLP093
CYQM;2003-09-05 11:00;METAR CYQM 051100Z 21003KT 8SM BKN008 OVC014 16/16 A2981 RMK SF6SC2 SLP097
CYQM;2003-09-05 12:00;METAR CYQM 051200Z 23006KT 12SM BKN007 OVC014 16/16 A2983 RMK SF6SC2 SLP101
CYQM;2003-09-05 13:00;METAR CYQM 051300Z 21004KT 15SM BKN008 OVC010 16/16 A2983 RMK SF5SC3 SLP103
CYQM;2003-09-05 14:00;METAR CYQM 051400Z 22006KT 15SM BKN007 OVC010 17/17 A2984 RMK SF6SC2 SLP107
CYQM;2003-09-05 15:00;METAR CYQM 051500Z 24009KT 15SM BKN008 OVC010 17/16 A2985 RMK SF6SC2 SLP108
CYQM;2003-09-05 16:00;METAR CYQM 051600Z 23008KT 15SM BKN008 OVC011 17/16 A2985 RMK SF5SC3
CYQM;2003-09-05 17:00;METAR CYQM 051700Z 26009KT 15SM BKN009 OVC011 18/16 A2984 RMK SF5SC3 B11 OVC SLP106 SLP106
CYQM;2003-09-05 18:00;METAR CYQM 051800Z 23011KT 15SM SCT011 BKN016 19/16 A2984 RMK CU3SC4 SLP105
CYQM;2003-09-05 19:00;METAR CYQM 051900Z 23007KT 15SM SCT016 SCT020 BKN250 20/16 A2984 RMK CU3SC1CS1 SLP104 SLP104
CYQM;2003-09-05 20:00;METAR CYQM 052000Z 25009KT 15SM FEW020 BKN250 20/15 A2983 RMK CU2CI2 TCU ASOCTD W-NW SLP102 W-NW SLP102
CYQM;2003-09-05 21:00;METAR CYQM 052100Z 24009KT 15SM FEW025TCU BKN250 20/15 A2984 RMK TCU1CI3
CYQM;2003-09-06 00:00;METAR CYQM 060000Z 19006KT 15SM SCT050 SCT080 BKN250 17/15 A2988 RMK SC3AC1CI1 SLP118
CYQM;2003-09-06 01:00;METAR CYQM 060100Z 20006KT 15SM FEW080 15/15 A2989 RMK AC2 FG IN VLY SLP123
CYQM;2003-09-06 02:00;METAR CYQM 060200Z 18004KT 15SM FEW050 14/14 A2990 RMK SC1 FG IN VLY SLP125
CYQM;2003-09-06 03:00;METAR CYQM 060300Z 22007KT 12SM VCFG FEW090 13/13 A2990 RMK AC1 VIS W 3/4 SLP128
CYQM;2003-09-06 04:00;METAR CYQM 060400Z 23007KT 12SM FEW090 14/14 A2991 RMK AC1 VIS SE 3 SLP129
CYQM;2003-09-06 05:00;METAR CYQM 060500Z CCA 24007KT 10SM FEW090 14/14 A2991 RMK AC1 VIS E-S 2
CYQM;2003-09-06 06:00;METAR CYQM 060600Z 25007KT 1 1/2SM R29/2000FT/N R06/P6000FT/N BR VCFG SKC 13/13 A2992 RMK FG2 VIS E 3/4 SLP133 SLP118
CYQM;2003-09-06 08:00;METAR CYQM 060800Z 23007KT 1/4SM R29/1600V2400FT/U R06/1200FT/N FG OVC001 13/13 A2993 RMK FG6SF2 SLP136 A2992 RMK FG2 VIS E 3/4 SLP133 13/13 A2993 RMK FG8 SLP135 A2993 RMK FG6SF2 SLP136
CYQM;2003-09-06 09:00;METAR CYQM 060900Z 23007KT 1/8SM R29/2400FT/N R06/3000V5500FT/U FG VV001 12/12 A2993 RMK FG8 SLP137 A2993 RMK FG8 SLP137
CYQM;2003-09-06 10:00;METAR CYQM 061000Z 24008KT 1/8SM R29/2800FT/U R06/1800V3500FT/D FG VV001 12/12 A2995 RMK FG8 SLP144 A2995 RMK FG8 SLP144
CYQM;2003-09-06 11:00;METAR CYQM 061100Z 24007KT 1/4SM R29/1600FT/N R06/2000FT/N FG SKC 12/12 A2998 RMK FG7 SLP152 FG7 SLP152
CYQM;2003-09-06 12:00;METAR CYQM 061200Z 24004KT 15SM VCFG FEW002 13/13 A2998 RMK SF2 VIS SE-SW 1/2FG TR AC SLP155 TR AC SLP155
CYQM;2003-09-06 13:00;METAR CYQM 061300Z 23005KT 15SM FEW001 FEW100 14/14 A2998 RMK SF1AC1 TR AC SLP155
CYQM;2003-09-06 14:00;METAR CYQM 061400Z 24005KT 15SM FEW010 17/15 A2998 RMK CU2 SLP153
CYQM;2003-09-06 15:00;METAR CYQM 061500Z 26006KT 15SM SCT020 19/14 A2997 RMK CU3 SLP150
CYQM;2003-09-06 16:00;METAR CYQM 061600Z 21003KT 15SM SCT028 20/13 A2996 RMK CU3 SLP146
CYQM;2003-09-06 17:00;METAR CYQM 061700Z 30003KT 15SM SCT037 21/11 A2995 RMK CU3 SLP144
CYQM;2003-09-06 18:00;METAR CYQM 061800Z 32006KT 15SM FEW053 23/10 A2994 RMK CU2 SLP138
CYQM;2003-09-06 19:00;METAR CYQM 061900Z 22003KT 15SM FEW055 FEW250 22/10 A2992 RMK CU2CI1 TR CI SLP134
CYQM;2003-09-06 20:00;METAR CYQM 062000Z 25008KT 15SM FEW050 SCT250 23/11 A2991 RMK CU2CI1 CU ASOCTD SLP130 SLP130
CYQM;2003-09-06 21:00;METAR CYQM 062100Z 23006KT 15SM FEW050 SCT250 22/10 A2990 RMK SC2CI1 SLP127
CYQM;2003-09-06 22:00;METAR CYQM 062200Z 24006KT 15SM FEW050 SCT250 21/12 A2990 RMK SC1CI1
CYQM;2003-09-06 23:00;METAR CYQM 062300Z 18004KT 15SM FEW050 FEW250 18/12 A2991 RMK SC1CI2 SLP129
CYQM;2003-09-07 00:00;METAR CYQM 070000Z 16005KT 15SM FEW050 FEW120 FEW250 17/14 A2992 RMK SC1AC1CI1 SLP132 SLP132
CYQM;2003-09-07 01:00;METAR CYQM 070100Z 18005KT 15SM FEW120 FEW250 15/13 A2992 RMK AC1CI1
CYQM;2003-09-07 02:00;METAR CYQM 070200Z 20007KT 15SM FEW100 15/13 A2991 RMK AC1 SLP131
CYQM;2003-09-07 04:00;METAR CYQM 070400Z 22006KT 15SM FEW020 13/12 A2990 RMK SC1 SLP125
CYQM;2003-09-07 05:00;METAR CYQM 070500Z 22005KT 15SM SKC 12/12 A2989 RMK SLP121
CYQM;2003-09-07 06:00;METAR CYQM 070600Z 25005KT 15SM SKC 12/12 A2987 RMK SLP116
CYQM;2003-09-07 07:00;METAR CYQM 070700Z 21007KT 15SM MIFG SKC 11/11 A2986 RMK SLP111
CYQM;2003-09-07 08:00;METAR CYQM 070800Z 23006KT 15SM SKC 11/11 A2984 RMK SLP107
CYQM;2003-09-07 09:00;METAR CYQM 070900Z 23006KT 15SM BCFG FEW100 FEW250 10/10 A2984 RMK AC1CI0 TR AC MIFG SLP105 MIFG SLP105 FG IN VLY SLP106
CYQM;2003-09-07 11:00;METAR CYQM 071100Z 23008KT 15SM FEW100 FEW250 11/11 A2984 RMK AC1CI1 TR AC SLP106
CYQM;2003-09-07 12:00;METAR CYQM 071200Z 22009KT 15SM FEW100 SCT250 14/12 A2985 RMK AC2CI1 SLP109
CYQM;2003-09-07 13:00;METAR CYQM 071300Z 24008G15KT 15SM BKN090 BKN250 16/13 A2985 RMK AC5CI0 SLP108
CYQM;2003-09-07 14:00;METAR CYQM 071400Z 27009KT 15SM SCT090 SCT250 19/12 A2985 RMK AC3CI0
CYQM;2003-09-07 15:00;METAR CYQM 071500Z 28010KT 15SM FEW028 FEW090 FEW250 20/13 A2984 RMK CU1AC1CI0 TR CU SLP106 CU SLP106
CYQM;2003-09-07 16:00;METAR CYQM 071600Z 29006KT 15SM FEW032 BKN100 21/13 A2984 RMK CU2AC4 SLP104
CYQM;2003-09-07 17:00;METAR CYQM 071700Z 33009KT 15SM FEW032 BKN080 21/14 A2983 RMK CU2AC6 SLP102
CYQM;2003-09-07 18:00;METAR CYQM 071800Z 31002KT 15SM FEW030 BKN050 20/13 A2983 RMK CU2SC5 SLP101
CYQM;2003-09-07 19:00;METAR CYQM 071900Z 27007KT 15SM SCT030 BKN050 20/13 A2982 RMK CU3SC4 SLP100
CYQM;2003-09-07 20:00;METAR CYQM 072000Z 26008KT 15SM FEW030 BKN050 BKN250 20/14 A2982 RMK CU2SC3CI0 SLP100
CYQM;2003-09-07 21:00;METAR CYQM 072100Z 28007KT 15SM SCT040 SCT050 BKN140 BKN250 21/14 A2983 RMK CU3SC1AC1CI1 TCU ASOCTD SLP101
CYQM;2003-09-07 22:00;METAR CYQM 072200Z 03010G15KT 15SM FEW032TCU BKN040 BKN140 BKN250 18/12 A2984 RMK TCU2SC2AC1CI1 SLP107 TCU2SC2AC1CI1 SLP107
CYQM;2003-09-07 23:00;METAR CYQM 072300Z 02005KT 15SM FEW032 BKN040 BKN140 BKN250 16/12 A2987 RMK CU2SC4AC1CI1 TCU EMBD SLP117
CYQM;2003-09-08 00:00;METAR CYQM 080000Z 33006KT 15SM FEW035 BKN050 16/11 A2990 RMK CU2SC5 SLP126
CYQM;2003-09-08 01:00;METAR CYQM 080100Z 33006KT 15SM FEW035 BKN050 15/10 A2991 RMK CU1SC6 SLP129
CYQM;2003-09-08 02:00;METAR CYQM 080200Z 28005KT 15SM FEW050 BKN075 14/09 A2992 RMK SC2AC5 SLP133
CYQM;2003-09-08 03:00;METAR CYQM 080300Z 29006KT 15SM FEW075 FEW120 SCT250 13/08 A2992 RMK AC1AC1CI1 SLP133
CYQM;2003-09-08 04:00;METAR CYQM 080400Z 26005KT 15SM FEW250 11/08 A2993 RMK CI2 SLP135
CYQM;2003-09-08 05:00;METAR CYQM 080500Z 21006KT 15SM FEW250 10/08 A2993 RMK CI1 SLP136
CYQM;2003-09-08 06:00;METAR CYQM 080600Z 23006KT 15SM SKC 09/07 A2993 RMK SLP138
CYQM;2003-09-08 07:00;METAR CYQM 080700Z 23006KT 15SM SKC 08/07 A2993 RMK SLP138
CYQM;2003-09-08 08:00;METAR CYQM 080800Z 21007KT 15SM SKC 07/06 A2995 RMK SLP142
CYQM;2003-09-08 09:00;METAR CYQM 080900Z 22007KT 15SM SKC 06/05 A2995 RMK SLP144
CYQM;2003-09-08 10:00;METAR CYQM 081000Z 26005KT 15SM FEW100 07/05 A2997 RMK AC1 SLP149
CYQM;2003-09-08 11:00;METAR CYQM 081100Z 24006KT 15SM FEW100 07/06 A2998 RMK AC1 AC TR SLP155
CYQM;2003-09-08 12:00;METAR CYQM 081200Z 29009KT 15SM FEW100 09/06 A3000 RMK AC1 AC TR SLP160
CYQM;2003-09-08 13:00;METAR CYQM 081300Z 28009KT 15SM SKC 10/05 A3001 RMK SLP164
CYQM;2003-09-08 14:00;METAR CYQM 081400Z 28006KT 15SM FEW035 FEW100 15/08 A3001 RMK CU1AC1 SLP165
CYQM;2003-09-08 15:00;METAR CYQM 081500Z 29015KT 15SM FEW035 17/08 A3001 RMK CU2 SLP164
CYQM;2003-09-08 16:00;METAR CYQM 081600Z 32015KT 15SM FEW040 17/06 A3001 RMK CU2 SLP165
CYQM;2003-09-08 17:00;METAR CYQM 081700Z 30011G22KT 15SM FEW035 18/06 A3003 RMK CU2 SLP169
CYQM;2003-09-08 18:00;METAR CYQM 081800Z 33009G19KT 15SM FEW045 18/05 A3003 RMK CU2 SLP172
CYQM;2003-09-08 19:00;METAR CYQM 081900Z 33012KT 15SM SCT045 17/05 A3003 RMK CU3 SLP172
CYQM;2003-09-08 20:00;METAR CYQM 082000Z 32009KT 15SM BKN050 17/05 A3004 RMK SC5 SLP173
CYQM;2003-09-08 21:00;METAR CYQM 082100Z 35008KT 15SM BKN045 17/06 A3005 RMK SC6 SLP178
CYQM;2003-09-08 22:00;METAR CYQM 082200Z 31006KT 15SM BKN040 15/07 A3007 RMK SC6 SLP184
CYQM;2003-09-08 23:00;METAR CYQM 082300Z 33005KT 15SM FEW030 BKN040 14/07 A3009 RMK CU1SC6 SLP192
CYQM;2003-09-09 00:00;METAR CYQM 090000Z 31008KT 15SM SCT040 BKN100 13/06 A3012 RMK SC3AC3 SLP202
CYQM;2003-09-09 01:00;METAR CYQM 090100Z 32008KT 15SM FEW040 SCT100 12/05 A3014 RMK SC1AC2 SLP207
CYQM;2003-09-09 02:00;METAR CYQM 090200Z 32011KT 15SM FEW100 11/05 A3016 RMK AC1 SLP214
CYQM;2003-09-09 03:00;METAR CYQM 090300Z 34007KT 15SM FEW100 09/05 A3017 RMK AC1 SLP219
CYQM;2003-09-09 04:00;METAR CYQM 090400Z 33007KT 15SM FEW100 09/05 A3019 RMK AC1 SLP225
CYQM;2003-09-09 05:00;METAR CYQM 090500Z 32011KT 15SM SKC 08/04 A3020 RMK SLP228
CYQM;2003-09-09 06:00;METAR CYQM 090600Z 33010KT 15SM FEW030 07/04 A3021 RMK SC1 SLP232
CYQM;2003-09-09 07:00;METAR CYQM 090700Z 33008KT 15SM FEW030 07/04 A3022 RMK SC1 SLP237
CYQM;2003-09-09 08:00;METAR CYQM 090800Z 32007KT 15SM SKC 07/03 A3024 RMK SLP242
CYQM;2003-09-09 09:00;METAR CYQM 090900Z 32006KT 15SM FEW030 06/03 A3026 RMK SC1 SLP249
CYQM;2003-09-09 10:00;METAR CYQM 091000Z 30005KT 15SM FEW030 FEW250 05/03 A3029 RMK CU1CI0 SLP258
CYQM;2003-09-09 11:00;METAR CYQM 091100Z 31005KT 15SM FEW030 06/04 A3031 RMK CU1 SLP265
CYQM;2003-09-09 12:00;METAR CYQM 091200Z 33012KT 15SM FEW030 07/03 A3032 RMK CU1 SLP271
CYQM;2003-09-09 13:00;METAR CYQM 091300Z 34010KT 15SM FEW030 10/04 A3034 RMK CU1 SLP276
CYQM;2003-09-09 14:00;METAR CYQM 091400Z 34005KT 15SM FEW035 FEW250 14/05 A3034 RMK CU1CI1 SLP278
CYQM;2003-09-09 15:00;METAR CYQM 091500Z 35008KT 15SM FEW035 FEW250 15/06 A3034 RMK CU1CI1 SLP275
CYQM;2003-09-09 16:00;METAR CYQM 091600Z 32004KT 15SM FEW035 FEW250 15/05 A3034 RMK CU2CI0
CYQM;2003-09-09 17:00;METAR CYQM 091700Z 01006KT 15SM FEW045 FEW250 15/04 A3033 RMK CU2CI0 SLP273
CYQM;2003-09-09 18:00;METAR CYQM 091800Z 04006KT 15SM FEW045 FEW250 16/06 A3032 RMK CU1CI1 SLP270
CYQM;2003-09-09 19:00;METAR CYQM 091900Z 06007KT 15SM FEW045 FEW250 16/05 A3030 RMK CU1CI1 SLP263
CYQM;2003-09-09 20:00;METAR CYQM 092000Z 01002KT 15SM FEW045 FEW250 16/05 A3030 RMK CU1CI1 SLP261
CYQM;2003-09-09 21:00;METAR CYQM 092100Z 09003KT 15SM FEW045 FEW250 16/06 A3029 RMK CU1CI1 CU TR SLP259
CYQM;2003-09-09 22:00;METAR CYQM 092200Z 10004KT 15SM FEW250 15/05 A3028 RMK CI1 SLP256
CYQM;2003-09-09 23:00;METAR CYQM 092300Z 13005KT 15SM FEW120 FEW250 12/06 A3028 RMK AC1CI2 SLP256
CYQM;2003-09-10 00:00;METAR CYQM 100000Z 16006KT 15SM FEW250 11/05 A3028 RMK CI2 SLP256
CYQM;2003-09-10 01:00;METAR CYQM 100100Z 21005KT 15SM SKC 10/05 A3027 RMK SLP254
CYQM;2003-09-10 02:00;METAR CYQM 100200Z 22006KT 15SM SKC 08/05 A3026 RMK SLP251
CYQM;2003-09-10 03:00;METAR CYQM 100300Z 21006KT 15SM SKC 07/04 A3025 RMK SLP244
CYQM;2003-09-10 04:00;METAR CYQM 100400Z 23005KT 15SM SKC 06/05 A3024 RMK SLP243
CYQM;2003-09-10 05:00;METAR CYQM 100500Z 22008KT 15SM SKC 05/04 A3023 RMK SLP238
CYQM;2003-09-10 06:00;METAR CYQM 100600Z 22008KT 15SM SKC 05/04 A3021 RMK SLP233
CYQM;2003-09-10 07:00;METAR CYQM 100700Z 25009KT 15SM SKC 05/04 A3021 RMK SLP231
CYQM;2003-09-10 08:00;METAR CYQM 100800Z 23009KT 15SM SKC 05/04 A3019 RMK SLP225
CYQM;2003-09-10 09:00;METAR CYQM 100900Z 23009KT 15SM SKC 05/04 A3016 RMK SLP216
CYQM;2003-09-10 10:00;METAR CYQM 101000Z 23009KT 15SM FEW250 05/04 A3014 RMK CI1 SLP210
CYQM;2003-09-10 11:00;METAR CYQM 101100Z 23013KT 15SM FEW250 06/04 A3013 RMK CI1 SLP206
CYQM;2003-09-10 12:00;METAR CYQM 101200Z 24013KT 15SM FEW250 08/04 A3011 RMK CI1 SLP197
CYQM;2003-09-10 13:00;METAR CYQM 101300Z 24013KT 15SM FEW250 11/04 A3010 RMK CI1 SLP196
CYQM;2003-09-10 14:00;METAR CYQM 101400Z 25016KT 15SM FEW250 15/06 A3005 RMK CI1 SLP178
CYQM;2003-09-10 15:00;METAR CYQM 101500Z 26015KT 15SM FEW150 FEW250 17/05 A3003 RMK AC1CI1 SLP171
CYQM;2003-09-10 16:00;METAR CYQM 101600Z 25020KT 15SM FEW150 SCT250 19/07 A3000 RMK AC2CI1 SLP160
CYQM;2003-09-10 17:00;METAR CYQM 101700Z 24017G25KT 15SM FEW150 SCT250 20/06 A2997 RMK AC2CI1 SLP149
CYQM;2003-09-10 18:00;METAR CYQM 101800Z 25019G26KT 15SM FEW090 SCT250 21/06 A2995 RMK AC2CI1 SLP143
CYQM;2003-09-10 19:00;METAR CYQM 101900Z 25015G26KT 15SM FEW090 FEW150 SCT250 21/07 A2995 RMK AC2AC1CI1 SLP144 SLP144
CYQM;2003-09-10 20:00;METAR CYQM 102000Z 27012G18KT 15SM FEW090 BKN130 BKN250 20/08 A2996 RMK AC2AC3CI1 SLP148 SLP148
CYQM;2003-09-10 21:00;METAR CYQM 102100Z 32008KT 15SM FEW045 BKN100 19/08 A2999 RMK CU1AC7 TR CU VIRGA SW-NE SLP156 SW-NE SLP156
CYQM;2003-09-10 22:00;METAR CYQM 102200Z 33007KT 15SM FEW080 BKN100 18/10 A3001 RMK AC2AC5 ACC ASOCTD SHWRS DIST SE-SW SLP164 SHWRS DIST SE-SW SLP164
CYQM;2003-09-10 23:00;METAR CYQM 102300Z 04002KT 15SM FEW080 16/11 A3004 RMK AC2 ACC ASOCTD SLP174
CYQM;2003-09-11 00:00;METAR CYQM 110000Z 05011G17KT 15SM FEW080 14/11 A3008 RMK AC2 ACC ASSOCTD SLP187
CYQM;2003-09-11 01:00;METAR CYQM 110100Z 03015G21KT 15SM BKN080 13/07 A3011 RMK AC6 ACC ASOCTD SLP199
CYQM;2003-09-11 02:00;METAR CYQM 110200Z 03012KT 15SM BKN080 13/07 A3014 RMK AC5 SLP208
CYQM;2003-09-11 03:00;METAR CYQM 110300Z 36009KT 15SM FEW080 09/04 A3016 RMK AC2 SLP216
CYQM;2003-09-11 04:00;METAR CYQM 110400Z 36006KT 15SM FEW080 07/05 A3018 RMK AC1 SLP221
CYQM;2003-09-11 05:00;METAR CYQM 110500Z 01006KT 15SM SKC 07/05 A3020 RMK SLP229
CYQM;2003-09-11 08:00;METAR CYQM 110800Z 30004KT 15SM SKC 05/03 A3022 RMK SLP237
CYQM;2003-09-11 09:00;METAR CYQM 110900Z 30002KT 15SM FEW030 05/03 A3024 RMK SC1 SLP243
CYQM;2003-09-11 10:00;METAR CYQM 111000Z 26003KT 15SM FEW030 FEW250 06/03 A3025 RMK CU1CI1 CUTR SLP247
CYQM;2003-09-11 11:00;METAR CYQM 111100Z 31004KT 15SM FEW030 FEW250 07/04 A3028 RMK CU1CI1 CU TR SLP254
CYQM;2003-09-11 12:00;METAR CYQM 111200Z 24009KT 15SM FEW030 FEW250 09/05 A3028 RMK CU1CI1 CU TR SLP257
CYQM;2003-09-11 13:00;METAR CYQM 111300Z 35009KT 15SM FEW030 FEW250 12/05 A3030 RMK CU1CI1 SLP263
CYQM;2003-09-11 14:00;METAR CYQM 111400Z 33010G16KT 15SM FEW030 FEW250 14/04 A3032 RMK CU1CI1 SLP270
CYQM;2003-09-11 15:00;METAR CYQM 111500Z 34011KT 15SM FEW030 FEW250 17/04 A3032 RMK CU1CI1
CYQM;2003-09-11 16:00;METAR CYQM 111600Z 01008G15KT 15SM FEW030 FEW250 16/03 A3032 RMK CU1CI1 SLP269
CYQM;2003-09-11 17:00;METAR CYQM 111700Z 30003KT 15SM SCT250 16/02 A3032 RMK CI1 SLP268
CYQM;2003-09-11 18:00;METAR CYQM 111800Z 07003KT 15SM SCT270 15/03 A3030 RMK CI1 SLP264
CYQM;2003-09-11 19:00;METAR CYQM 111900Z 06006KT 15SM SCT270 16/04 A3030 RMK CI1 SLP263
CYQM;2003-09-11 20:00;METAR CYQM 112000Z 08005KT 15SM SCT270 16/04 A3031 RMK CI1 SLP265
CYQM;2003-09-11 21:00;METAR CYQM 112100Z 07006KT 15SM SCT250 15/06 A3032 RMK CI0 SLP270
CYQM;2003-09-11 22:00;METAR CYQM 112200Z 09006KT 15SM FEW250 15/05 A3033 RMK CI0 SLP273
CYQM;2003-09-11 23:00;METAR CYQM 112300Z 12006KT 15SM FEW250 13/06 A3033 RMK CI0 SLP274
CYQM;2003-09-12 00:00;METAR CYQM 120000Z 16004KT 15SM SKC 10/06 A3034 RMK SLP277
CYQM;2003-09-12 01:00;METAR CYQM 120100Z 18006KT 15SM SKC 10/05 A3035 RMK SLP279
CYQM;2003-09-12 02:00;METAR CYQM 120200Z 21008KT 15SM SKC 08/06 A3035 RMK SLP281
CYQM;2003-09-12 03:00;METAR CYQM 120300Z 21007KT 15SM SKC 08/05 A3034 RMK SLP276
CYQM;2003-09-12 04:00;METAR CYQM 120400Z 23007KT 15SM SKC 06/05 A3035 RMK SLP278
CYQM;2003-09-12 05:00;METAR CYQM 120500Z 22006KT 15SM SKC 06/05 A3034 RMK SLP276
CYQM;2003-09-12 06:00;METAR CYQM 120600Z 22007KT 15SM SKC 05/05 A3034 RMK SLP277
CYQM;2003-09-12 07:00;METAR CYQM 120700Z 22007KT 15SM SKC 05/04 A3033 RMK SLP275
CYQM;2003-09-12 08:00;METAR CYQM 120800Z 22008KT 15SM SKC 05/04 A3033 RMK SLP275
CYQM;2003-09-12 09:00;METAR CYQM 120900Z 23008KT 15SM SKC 04/03 A3034 RMK SLP278
CYQM;2003-09-12 10:00;METAR CYQM 121000Z 22009KT 15SM FEW260 05/04 A3035 RMK CI1 SLP280
CYQM;2003-09-12 11:00;METAR CYQM 121100Z 23009KT 15SM FEW260 07/05 A3035 RMK CI1 SLP281
CYQM;2003-09-12 12:00;METAR CYQM 121200Z 23008KT 15SM FEW260 09/07 A3035 RMK CI1 SLP281
CYQM;2003-09-12 13:00;METAR CYQM 121300Z 23012KT 15SM FEW260 13/07 A3036 RMK CI1 SLP282
CYQM;2003-09-12 14:00;METAR CYQM 121400Z 23012KT 15SM FEW260 17/08 A3036 RMK CI1 SLP284
CYQM;2003-09-12 15:00;METAR CYQM 121500Z 23016KT 15SM SCT260 20/08 A3035 RMK CI2 SLP280
CYQM;2003-09-12 16:00;METAR CYQM 121600Z 26011G21KT 15SM SCT260 22/10 A3033 RMK CI2 SLP274
CYQM;2003-09-12 17:00;METAR CYQM 121700Z 23012G18KT 15SM SCT260 23/11 A3032 RMK CI2 SLP270
CYQM;2003-09-12 18:00;METAR CYQM 121800Z 25015KT 15SM SCT260 24/12 A3030 RMK CI2 SLP264
CYQM;2003-09-12 19:00;METAR CYQM 121900Z 27011G16KT 15SM SCT260 25/13 A3028 RMK CI2 SLP257
CYQM;2003-09-12 20:00;METAR CYQM 122000Z 27010G16KT 15SM SCT260 25/09 A3028 RMK CI2 SLP254
CYQM;2003-09-12 21:00;METAR CYQM 122100Z 25008G15KT 15SM SCT260 24/11 A3027 RMK CI2 SLP251
CYQM;2003-09-12 22:00;METAR CYQM 122200Z 25009KT 15SM BKN260 23/11 A3026 RMK CI1 SLP250
CYQM;2003-09-12 23:00;METAR CYQM 122300Z 20006KT 15SM SCT260 20/12 A3027 RMK CI1 SLP251
CYQM;2003-09-13 00:00;METAR CYQM 130000Z 20007KT 15SM FEW260 17/13 A3028 RMK CI1 SLP256
CYQM;2003-09-13 01:00;METAR CYQM 130100Z 22008KT 15SM FEW260 14/12 A3028 RMK CI1 SLP255
CYQM;2003-09-13 02:00;METAR CYQM 130200Z 23009KT 15SM FEW260 15/12 A3028 RMK CI1 SLP257
CYQM;2003-09-13 03:00;METAR CYQM 130300Z 24008KT 15SM FEW260 14/11 A3029 RMK CI1 SLP257
CYQM;2003-09-13 04:00;METAR CYQM 130400Z 23010G15KT 15SM FEW260 14/11 A3029 RMK CI0 SLP259
CYQM;2003-09-13 05:00;METAR CYQM 130500Z 23012KT 15SM SKC 14/10 A3030 RMK SLP260
CYQM;2003-09-13 06:00;METAR CYQM 130600Z 24011KT 15SM SKC 13/10 A3029 RMK SLP259
CYQM;2003-09-13 07:00;METAR CYQM 130700Z 24010KT 15SM SKC 12/10 A3028 RMK SLP256
CYQM;2003-09-13 08:00;METAR CYQM 130800Z 24009KT 15SM SKC 12/10 A3029 RMK SLP257
CYQM;2003-09-13 09:00;METAR CYQM 130900Z 23010KT 15SM SKC 12/10 A3030 RMK SLP262
CYQM;2003-09-13 10:00;METAR CYQM 131000Z 23009KT 15SM FEW260 11/10 A3030 RMK CI2 SLP260
CYQM;2003-09-13 11:00;METAR CYQM 131100Z 23009KT 15SM FEW260 12/10 A3030 RMK CI1 SLP263
CYQM;2003-09-13 12:00;METAR CYQM 131200Z 24011KT 15SM FEW260 15/11 A3031 RMK CI1 SLP266
CYQM;2003-09-13 13:00;METAR CYQM 131300Z 23013KT 15SM FEW260 17/12 A3031 RMK CI1 SLP267
CYQM;2003-09-13 14:00;METAR CYQM 131400Z 22007KT 15SM FEW260 19/13 A3032 RMK CI1 SLP268
CYQM;2003-09-13 15:00;METAR CYQM 131500Z 21011KT 15SM FEW260 22/15 A3031 RMK CI1 SLP264
CYQM;2003-09-13 16:00;METAR CYQM 131600Z 25011KT 15SM FEW260 23/15 A3030 RMK CI1 SLP260
CYQM;2003-09-13 17:00;METAR CYQM 131700Z 24008KT 15SM FEW260 25/15 A3028 RMK CI1 SLP255
CYQM;2003-09-13 18:00;METAR CYQM 131800Z 23010KT 15SM FEW260 27/15 A3027 RMK CI1 SLP250
CYQM;2003-09-13 19:00;METAR CYQM 131900Z 23006KT 15SM FEW260 27/15 A3025 RMK CI1 SLP246
CYQM;2003-09-13 20:00;METAR CYQM 132000Z 23010KT 15SM SCT260 28/15 A3025 RMK CI2 SLP246
CYQM;2003-09-13 21:00;METAR CYQM 132100Z 23011KT 15SM BKN260 27/14 A3026 RMK CI2 SLP248
CYQM;2003-09-13 22:00;METAR CYQM 132200Z 20006KT 15SM BKN260 24/13 A3027 RMK CI2 SLP252
CYQM;2003-09-13 23:00;METAR CYQM 132300Z 20007KT 15SM BKN260 22/12 A3028 RMK CI2 SLP254
CYQM;2003-09-14 00:00;METAR CYQM 140000Z 20007KT 15SM BKN260 16/13 A3030 RMK CI2 SLP261
CYQM;2003-09-14 01:00;METAR CYQM 140100Z 20008KT 15SM BKN260 14/12 A3029 RMK CI3 SLP260
CYQM;2003-09-14 02:00;METAR CYQM 140200Z 21006KT 15SM BKN200 13/12 A3030 RMK CI3 SLP261
CYQM;2003-09-14 03:00;METAR CYQM 140300Z 23009KT 15SM BKN200 12/11 A3030 RMK CI3 SLP260
CYQM;2003-09-14 04:00;METAR CYQM 140400Z 24008KT 15SM FEW150 BKN250 13/11 A3030 RMK AC2CI2 SLP260
CYQM;2003-09-14 05:00;METAR CYQM 140500Z 22008KT 15SM FEW150 BKN250 13/11 A3030 RMK AC2CI2 SLP262
CYQM;2003-09-14 06:00;METAR CYQM 140600Z 22007KT 15SM BKN250 12/10 A3030 RMK CI2 SLP263
CYQM;2003-09-14 07:00;METAR CYQM 140700Z 20005KT 15SM BKN250 12/10 A3030 RMK CI2 SLP261
CYQM;2003-09-14 08:00;METAR CYQM 140800Z 21006KT 15SM BKN250 11/10 A3029 RMK CI3 SLP258
CYQM;2003-09-14 09:00;METAR CYQM 140900Z 21007KT 15SM BKN250 10/09 A3029 RMK CI2 SLP259
CYQM;2003-09-14 10:00;METAR CYQM 141000Z 21008KT 15SM FEW140 SCT250 09/08 A3030 RMK AC1CI2
CYQM;2003-09-14 11:00;METAR CYQM 141100Z 22006KT 15SM FEW140 SCT250 10/09 A3030 RMK AC1CI2 SLP263
CYQM;2003-09-14 12:00;METAR CYQM 141200Z 23008KT 15SM FEW140 SCT260 12/11 A3031 RMK AC1CI2 SLP265
CYQM;2003-09-14 13:00;METAR CYQM 141300Z 23014KT 15SM FEW140 SCT250 16/14 A3030 RMK AC1CI2
CYQM;2003-09-14 14:00;METAR CYQM 141400Z 24012KT 15SM BKN250 20/15 A3029 RMK CI2 SLP259
CYQM;2003-09-14 15:00;METAR CYQM 141500Z 24010KT 15SM BKN250 23/16 A3028 RMK CI2 SLP256
CYQM;2003-09-14 16:00;METAR CYQM 141600Z 23010G16KT 15SM FEW160 BKN250 25/15 A3027 RMK AC1CI2 SLP251
CYQM;2003-09-14 17:00;METAR CYQM 141700Z 24009KT 15SM FEW050 FEW160 SCT250 26/13 A3025 RMK CU1AC1CI2 TR CU SLP246 CU SLP246
CYQM;2003-09-14 18:00;METAR CYQM 141800Z 26009KT 15SM FEW055 FEW160 SCT250 27/13 A3024 RMK CU1AC1CI2 TR CU SLP241 CU SLP241
CYQM;2003-09-14 19:00;METAR CYQM 141900Z 24010KT 15SM FEW080 FEW160 SCT250 27/08 A3023 RMK AC1AC1CI2 SLP238 SLP238
CYQM;2003-09-14 20:00;METAR CYQM 142000Z 24011G16KT 15SM FEW080 FEW160 SCT250 27/13 A3021 RMK AC1AC1CI2 SLP232 SLP232
CYQM;2003-09-14 21:00;METAR CYQM 142100Z 20006KT 15SM FEW160 SCT250 25/13 A3021 RMK AC1CI2 SLP230
CYQM;2003-09-14 22:00;METAR CYQM 142200Z 18005KT 15SM FEW160 SCT250 22/16 A3021 RMK AC1CI2
CYQM;2003-09-14 23:00;METAR CYQM 142300Z 16006KT 15SM FEW120 SCT250 20/16 A3021 RMK AC1CI2
CYQM;2003-09-15 00:00;METAR CYQM 150000Z 18006KT 15SM FEW120 FEW250 17/15 A3023 RMK AC1CI1 SLP239
CYQM;2003-09-15 01:00;METAR CYQM 150100Z 19006KT 15SM FEW120 SCT250 16/15 A3023 RMK AC2CI1
CYQM;2003-09-15 02:00;METAR CYQM 150200Z 19006KT 15SM FEW250 16/15 A3023 RMK CI2 SLP238
CYQM;2003-09-15 03:00;METAR CYQM 150300Z 20007KT 15SM FEW250 15/14 A3022 RMK CI2 SLP234
CYQM;2003-09-15 04:00;METAR CYQM 150400Z 20006KT 15SM FEW250 14/13 A3021 RMK CI2 SLP232
CYQM;2003-09-15 05:00;METAR CYQM 150500Z 20007KT 15SM FEW250 14/13 A3021 RMK CI2 SLP231
CYQM;2003-09-15 06:00;METAR CYQM 150600Z 21007KT 15SM FEW250 14/14 A3020 RMK CI2 SLP229
CYQM;2003-09-15 07:00;METAR CYQM 150700Z 21008KT 15SM FEW250 14/13 A3020 RMK CI2 SLP228
CYQM;2003-09-15 08:00;METAR CYQM 150800Z 21007KT 15SM SKC 14/14 A3019 RMK SLP225
CYQM;2003-09-15 09:00;METAR CYQM 150900Z 20007KT 15SM SKC 14/14 A3019 RMK SLP223
CYQM;2003-09-15 10:00;METAR CYQM 151000Z 20006KT 8SM FEW100 13/13 A3019 RMK AC1 TR AC VIS SW-NW 2F SLP225 SLP225
CYQM;2003-09-15 11:00;METAR CYQM 151100Z 20007KT 1/4SM FG SKC 14/14 A3019 RMK FG2 VIS NE 1
CYQM;2003-09-15 12:00;METAR CYQM 151200Z 21006KT 12SM FEW001 FEW100 FEW250 15/15 A3019 RMK SF2AC1CI1 TR AC CI VIS S-SW 4F SLP224 AC CI VIS S-SW 4F SLP224
CYQM;2003-09-15 13:00;METAR CYQM 151300Z 24007KT 15SM FEW020 FEW100 FEW250 19/14 A3019 RMK CF1AC1CI0 TR CF AC SLP223 CF AC SLP223
CYQM;2003-09-15 14:00;METAR CYQM 151400Z 25011KT 15SM FEW020 FEW100 FEW250 23/19 A3018 RMK CF1AC1CI0 TR CF AC SLP220 CF AC SLP220
CYQM;2003-09-15 15:00;METAR CYQM 151500Z 23010KT 15SM FEW024 FEW100 FEW250 25/20 A3017 RMK CF1AC1CI0 TR CF AC COTRA SLP216 CF AC COTRA SLP216
CYQM;2003-09-15 16:00;METAR CYQM 151600Z 23007KT 15SM FEW028 FEW250 27/20 A3015 RMK CF1CI1 TR CF TCU TOP DIST NW SLP211 TOP DIST NW SLP211
CYQM;2003-09-15 17:00;METAR CYQM 151700Z 20003KT 15SM FEW037 FEW140 SCT280 28/20 A3014 RMK CU1ACC1CI1 TR ACC W COTRA TCU TOPS DIST NW SLP209 TR ACC W COTRA TCU TOPS DIST NW SLP209
CYQM;2003-09-15 18:00;METAR CYQM 151800Z 11007KT 15SM FEW037 FEW140 SCT280 28/20 A3013 RMK CU1ACC1CI1 TR ACC W COTRA TCU TOPS DIST NW CC ASOCTD SLP204 TR ACC W COTRA TCU TOPS DIST NW CC ASOCTD SLP204
CYQM;2003-09-15 19:00;METAR CYQM 151900Z 16006KT 15SM FEW040 FEW140 SCT280 28/20 A3012 RMK CU1ACC1CI1 TCU TOPS DIST NW SLP200 TCU TOPS DIST NW SLP200
CYQM;2003-09-15 20:00;METAR CYQM 152000Z 15009KT 15SM FEW040 FEW140 SCT280 27/19 A3011 RMK CU1AC1CI1 SLP197 SLP197
CYQM;2003-09-15 21:00;METAR CYQM 152100Z 13007KT 15SM FEW040 FEW140 SCT280 25/19 A3010 RMK CU1AC1CI1 SLP192 SLP192
CYQM;2003-09-15 23:00;METAR CYQM 152300Z 14005KT 15SM FEW140 FEW280 19/16 A3009 RMK AC1CI1 SLP191
CYQM;2003-09-16 00:00;METAR CYQM 160000Z 18006KT 15SM SKC 18/16 A3010 RMK SLP195
CYQM;2003-09-16 01:00;METAR CYQM 160100Z 17006KT 15SM SKC 17/16 A3010 RMK SLP195
CYQM;2003-09-16 02:00;METAR CYQM 160200Z 18005KT 15SM SKC 16/15 A3010 RMK SLP195
CYQM;2003-09-16 03:00;METAR CYQM 160300Z 19006KT 15SM FEW250 16/16 A3010 RMK CI2 SLP192
CYQM;2003-09-16 04:00;METAR CYQM 160400Z 19006KT 15SM FEW250 15/15 A3009 RMK CI2 SLP191
CYQM;2003-09-16 05:00;METAR CYQM 160500Z 20006KT 15SM FEW250 15/14 A3010 RMK CI2 SLP192
CYQM;2003-09-16 06:00;METAR CYQM 160600Z 21007KT 15SM FEW250 15/15 A3010 RMK CI2 SLP193
CYQM;2003-09-16 07:00;METAR CYQM 160700Z 22006KT 15SM FEW250 15/15 A3010 RMK CI2 SLP194
CYQM;2003-09-16 08:00;METAR CYQM 160800Z 23008KT 15SM FEW250 15/15 A3010 RMK CI2 SLP193
CYQM;2003-09-16 09:00;METAR CYQM 160900Z 24008KT 15SM BKN050 16/15 A3010 RMK SC6 SLP194
CYQM;2003-09-16 10:00;METAR CYQM 161000Z 23009KT 15SM SCT040 BKN060 17/16 A3011 RMK SC3SC4 CU ASOCTD LWR LYR SLP198 LWR LYR SLP198
CYQM;2003-09-16 11:00;METAR CYQM 161100Z 24010KT 15SM FEW040 BKN060 18/16 A3012 RMK SC2SC5 CU ASOCTD LWR LYR SLP199 LWR LYR SLP199
CYQM;2003-09-16 12:00;METAR CYQM 161200Z 24009KT 15SM FEW040 BKN060 19/16 A3012 RMK SC2SC6 SLP202
CYQM;2003-09-16 13:00;METAR CYQM 161300Z 23008KT 15SM FEW040 BKN060 19/16 A3013 RMK SC1SC6 SLP203
CYQM;2003-09-16 14:00;METAR CYQM 161400Z 23011KT 15SM BKN070 BKN250 21/17 A3012 RMK AC4CI1 COTRA SLP201
CYQM;2003-09-16 15:00;METAR CYQM 161500Z 22008KT 15SM FEW028 FEW070 BKN250 23/16 A3011 RMK CF1AC2CI2 TR CF SLP196 CF SLP196
CYQM;2003-09-16 16:00;METAR CYQM 161600Z 24007KT 15SM FEW032 FEW100 BKN280 24/16 A3010 RMK CF1AC2CS2 HALO SLP192 HALO SLP192
CYQM;2003-09-16 17:00;METAR CYQM 161700Z 23006KT 15SM FEW037 FEW100 BKN280 25/16 A3008 RMK CU1AC1CI2 COTRA SLP186 COTRA SLP186
CYQM;2003-09-16 18:00;METAR CYQM 161800Z 24012G18KT 15SM FEW041 SCT120 BKN280 26/16 A3006 RMK CU2AC2CI1 COTRA SLP181 COTRA SLP181
CYQM;2003-09-16 19:00;METAR CYQM 161900Z 25009G18KT 15SM FEW045 FEW140 BKN280 27/16 A3005 RMK CU1AC1CI2 COTRA SLP177 COTRA SLP177
CYQM;2003-09-16 20:00;METAR CYQM 162000Z 24008KT 15SM FEW045 FEW140 BKN280 25/16 A3005 RMK CU1AC1CI2 COTRA TR AC SLP176 COTRA TR AC SLP176
CYQM;2003-09-16 21:00;METAR CYQM 162100Z 22010KT 15SM FEW045 FEW120 BKN280 25/16 A3005 RMK CU1AC2CI1 SLP175 SLP175
CYQM;2003-09-16 22:00;METAR CYQM 162200Z 19008KT 15SM FEW030 BKN040 BKN120 BKN260 23/15 A3005 RMK CU1SC5AC1CI1 TR CU SLP176
CYQM;2003-09-16 23:00;METAR CYQM 162300Z 18006KT 15SM SCT040 BKN120 BKN260 22/17 A3006 RMK SC3AC2CI2 SLP178 SLP178
CYQM;2003-09-17 00:00;METAR CYQM 170000Z 17007KT 15SM FEW040 BKN100 21/17 A3006 RMK SC2AC5 SLP179
CYQM;2003-09-17 01:00;METAR CYQM 170100Z 16009KT 15SM FEW040 BKN100 21/17 A3005 RMK SC2AC5 SLP175
CYQM;2003-09-17 02:00;METAR CYQM 170200Z 16009KT 15SM -SHRA FEW040 BKN100 20/17 A3004 RMK SC2AC5 SLP173
CYQM;2003-09-17 03:00;METAR CYQM 170300Z 17009KT 15SM -SHRA SCT040 OVC100 19/18 A3003 RMK SC3AC5 SLP170
CYQM;2003-09-17 04:00;METAR CYQM 170400Z 15008KT 15SM BKN040 BKN100 19/18 A3002 RMK SC5AC2 SLP167
CYQM;2003-09-17 05:00;METAR CYQM 170500Z 17009KT 12SM SCT015 BKN040 OVC100 19/19 A3003 RMK SC4SC3AC1 SLP168 SLP168
CYQM;2003-09-17 06:00;METAR CYQM 170600Z 18007KT 15SM FEW006 BKN012 OVC018 19/19 A3003 RMK SF1SC6SC1 OCNL RW- SLP170 OCNL RW- SLP170
CYQM;2003-09-17 07:00;METAR CYQM 170700Z 24011KT 15SM BKN008 OVC012 19/19 A3005 RMK SF5SC3
CYQM;2003-09-17 08:00;METAR CYQM 170800Z 24009KT 15SM BKN008 OVC012 19/18 A3006 RMK SF6SC2 SLP180
CYQM;2003-09-17 09:00;METAR CYQM 170900Z 25014KT 15SM BKN008 OVC014 19/17 A3008 RMK SF6SC2 SLP186
CYQM;2003-09-17 10:00;METAR CYQM 171000Z 25009KT 15SM FEW008 FEW070 16/15 A3010 RMK SF1AC1 SLP194
CYQM;2003-09-17 12:00;METAR CYQM 171200Z 25012KT 15SM FEW008 FEW250 16/13 A3015 RMK SF1CI1 SLP212
CYQM;2003-09-17 13:00;METAR CYQM 171300Z 25009KT 15SM FEW008 FEW250 18/14 A3017 RMK SF1CI1 SLP216
CYQM;2003-09-17 14:00;METAR CYQM 171400Z 27009G15KT 15SM FEW008 FEW250 19/15 A3017 RMK SF1CI1
CYQM;2003-09-17 15:00;METAR CYQM 171500Z 24009G15KT 15SM FEW012 FEW250 21/13 A3016 RMK CU1CI1 SLP213
CYQM;2003-09-17 16:00;METAR CYQM 171600Z 26014G20KT 15SM FEW040 FEW250 23/11 A3015 RMK CU1CI1 SLP211
CYQM;2003-09-17 17:00;METAR CYQM 171700Z 25018KT 15SM FEW045 FEW250 23/12 A3015 RMK CU1CI1 SLP210
CYQM;2003-09-17 18:00;METAR CYQM 171800Z 26014G24KT 15SM FEW050 FEW250 24/09 A3015 RMK CU1CI1 SLP209
CYQM;2003-09-17 19:00;METAR CYQM 171900Z 27014G20KT 15SM FEW050 FEW250 24/11 A3017 RMK CU1CI1
CYQM;2003-09-17 20:00;METAR CYQM 172000Z 28012G18KT 15SM FEW050 FEW250 23/10 A3019 RMK CU1CI1 SLP222
CYQM;2003-09-17 21:00;METAR CYQM 172100Z 27014KT 15SM FEW250 22/10 A3020 RMK CI2 SLP227
CYQM;2003-09-17 22:00;METAR CYQM 172200Z 29010G15KT 15SM FEW250 21/09 A3022 RMK CI1 SLP235
CYQM;2003-09-17 23:00;METAR CYQM 172300Z 27005KT 15SM FEW250 17/10 A3026 RMK CI1 SLP247
CYQM;2003-09-18 00:00;METAR CYQM 180000Z 28005KT 15SM SKC 16/09 A3029 RMK SLP258
CYQM;2003-09-18 01:00;METAR CYQM 180100Z 28007KT 15SM SKC 15/09 A3031 RMK SLP265
CYQM;2003-09-18 02:00;METAR CYQM 180200Z 27006KT 15SM SKC 14/08 A3032 RMK SLP268
CYQM;2003-09-18 03:00;METAR CYQM 180300Z 22007KT 15SM SKC 13/08 A3033 RMK SLP272
CYQM;2003-09-18 04:00;METAR CYQM 180400Z 21005KT 15SM SKC 11/09 A3034 RMK SLP275
CYQM;2003-09-18 05:00;METAR CYQM 180500Z 25007KT 15SM SKC 10/08 A3035 RMK SLP279
CYQM;2003-09-18 06:00;METAR CYQM 180600Z 25008KT 15SM SKC 09/08 A3036 RMK SLP282
CYQM;2003-09-18 07:00;METAR CYQM 180700Z 22007KT 15SM SKC 08/08 A3037 RMK SLP287
CYQM;2003-09-18 08:00;METAR CYQM 180800Z 23005KT 15SM SKC 09/08 A3038 RMK SLP288
CYQM;2003-09-18 09:00;METAR CYQM 180900Z 21006KT 15SM SKC 08/07 A3040 RMK SLP295
CYQM;2003-09-18 10:00;METAR CYQM 181000Z 23008KT 15SM SKC 07/07 A3041 RMK SLP300
CYQM;2003-09-18 11:00;METAR CYQM 181100Z 21004KT 15SM SKC 09/07 A3044 RMK SLP311
CYQM;2003-09-18 12:00;METAR CYQM 181200Z 23004KT 15SM SKC 12/06 A3047 RMK SLP319
CYQM;2003-09-18 13:00;METAR CYQM 181300Z 22004KT 15SM FEW250 14/10 A3049 RMK CI2 SLP327
CYQM;2003-09-18 14:00;METAR CYQM 181400Z 23004KT 15SM FEW250 16/10 A3048 RMK CI2 SLP322
CYQM;2003-09-18 15:00;METAR CYQM 181500Z 00000KT 15SM FEW250 20/12 A3047 RMK CI2 SLP321
CYQM;2003-09-18 16:00;METAR CYQM 181600Z 30003KT 15SM FEW250 22/12 A3046 RMK CI2 SLP317
CYQM;2003-09-18 17:00;METAR CYQM 181700Z 00000KT 15SM FEW250 23/10 A3044 RMK CI2 SLP310
CYQM;2003-09-18 18:00;METAR CYQM 181800Z 05003KT 15SM FEW250 24/08 A3044 RMK CI2 SLP309
CYQM;2003-09-18 19:00;METAR CYQM 181900Z 35003KT 15SM FEW250 24/08 A3043 RMK CI2 SLP306
CYQM;2003-09-18 20:00;METAR CYQM 182000Z 06002KT 15SM FEW250 25/09 A3043 RMK CI2 SLP306
CYQM;2003-09-18 21:00;METAR CYQM 182100Z 00000KT 15SM SCT250 24/09 A3043 RMK CI2 SLP305
CYQM;2003-09-18 22:00;METAR CYQM 182200Z 18004KT 15SM SCT250 21/11 A3042 RMK CI2 SLP304
CYQM;2003-09-18 23:00;METAR CYQM 182300Z 17005KT 15SM FEW250 18/11 A3042 RMK CI2 SLP303
CYQM;2003-09-19 00:00;METAR CYQM 190000Z 22008KT 15SM FEW250 17/11 A3043 RMK CI2 SLP307
CYQM;2003-09-19 01:00;METAR CYQM 190100Z 21007KT 15SM FEW250 16/10 A3044 RMK CI2 SLP308
CYQM;2003-09-19 02:00;METAR CYQM 190200Z 21007KT 15SM FEW250 14/11 A3044 RMK CI2 SLP308
CYQM;2003-09-19 03:00;METAR CYQM 190300Z 23007KT 15SM FEW250 14/11 A3044 RMK CI1 SLP308
CYQM;2003-09-19 05:00;METAR CYQM 190500Z 22006KT 15SM BKN250 12/11 A3044 RMK CI3 SLP308
CYQM;2003-09-19 06:00;METAR CYQM 190600Z 22005KT 15SM SCT250 12/11 A3043 RMK CI2 SLP307
CYQM;2003-09-19 07:00;METAR CYQM 190700Z 22006KT 15SM SCT260 11/10 A3042 RMK CI2 SLP304
CYQM;2003-09-19 08:00;METAR CYQM 190800Z 22008KT 15SM SCT260 11/10 A3042 RMK CI2 SLP302
CYQM;2003-09-19 09:00;METAR CYQM 190900Z 22003KT 15SM SCT260 10/09 A3043 RMK CI2 SLP305
CYQM;2003-09-19 10:00;METAR CYQM 191000Z 22006KT 15SM FEW120 BKN260 09/09 A3043 RMK AS1CI3 SLP307
CYQM;2003-09-19 11:00;METAR CYQM 191100Z 23004KT 15SM FEW140 BKN260 10/10 A3044 RMK AC1CI2 SLP309
CYQM;2003-09-19 12:00;METAR CYQM 191200Z 23004KT 15SM FEW140 BKN260 13/11 A3045 RMK AC1CI2 SLP313
CYQM;2003-09-19 13:00;METAR CYQM 191300Z 24002KT 15SM FEW140 BKN260 17/12 A3045 RMK AC1CI4
CYQM;2003-09-19 14:00;METAR CYQM 191400Z 24004G15KT 15SM FEW210 BKN260 20/12 A3044 RMK CC2CI2
CYQM;2003-09-19 15:00;METAR CYQM 191500Z 21003KT 15SM FEW140 BKN260 23/13 A3043 RMK AC2CI2 SLP305
CYQM;2003-09-19 16:00;METAR CYQM 191600Z 18003KT 15SM FEW140 BKN260 24/12 A3041 RMK AC1CI2 SLP298
CYQM;2003-09-19 17:00;METAR CYQM 191700Z 17006KT 15SM BKN260 25/09 A3039 RMK CI2 CS ASOCTD SLP291
CYQM;2003-09-19 18:00;METAR CYQM 191800Z 18005KT 15SM FEW130 BKN260 27/10 A3037 RMK AC1CI2 SLP286
CYQM;2003-09-19 19:00;METAR CYQM 191900Z 14007KT 15SM FEW130 OVC260 27/09 A3036 RMK AC2CI2 SLP280
CYQM;2003-09-19 20:00;METAR CYQM 192000Z 16007KT 15SM FEW130 BKN260 25/10 A3035 RMK AC1CI2 SLP277
CYQM;2003-09-19 21:00;METAR CYQM 192100Z 17007KT 15SM FEW120 BKN250 23/11 A3034 RMK AC2CS2 HALO SLP276
CYQM;2003-09-19 22:00;METAR CYQM 192200Z 15006KT 15SM FEW120 BKN250 21/11 A3033 RMK AC2CI2 SLP273
CYQM;2003-09-19 23:00;METAR CYQM 192300Z 16006KT 15SM FEW120 BKN250 20/13 A3033 RMK AC2CI2 SLP274
CYQM;2003-09-20 00:00;METAR CYQM 200000Z 14002KT 15SM FEW120 BKN250 19/11 A3033 RMK AC1CI2 SLP274
CYQM;2003-09-20 01:00;METAR CYQM 200100Z 20004KT 15SM FEW250 16/09 A3033 RMK CI1 SLP271
CYQM;2003-09-20 02:00;METAR CYQM 200200Z 13005KT 15SM FEW250 16/12 A3032 RMK CI1 SLP268
CYQM;2003-09-20 03:00;METAR CYQM 200300Z 18004KT 15SM SKC 15/12 A3030 RMK SLP263
CYQM;2003-09-20 04:00;METAR CYQM 200400Z 22004KT 15SM FEW250 13/13 A3029 RMK CI0 SLP258
CYQM;2003-09-20 05:00;METAR CYQM 200500Z 20004KT 15SM FEW250 13/12 A3028 RMK CI0 SLP254
CYQM;2003-09-20 06:00;METAR CYQM 200600Z 19005KT 15SM FEW250 12/12 A3027 RMK CI0 SLP250
CYQM;2003-09-20 07:00;METAR CYQM 200700Z 20003KT 15SM BCFG FEW250 12/12 A3026 RMK CI0 SLP247
CYQM;2003-09-20 08:00;METAR CYQM 200800Z 20006KT 15SM MIFG FEW250 12/12 A3025 RMK CI0 PTCHY FG IN VLY SE-SW SLP244 SE-SW SLP244
CYQM;2003-09-20 09:00;METAR CYQM 200900Z 17006KT 15SM MIFG FEW120 11/10 A3025 RMK AC1 SLP244
CYQM;2003-09-20 10:00;METAR CYQM 201000Z 20005KT 15SM R06/1600VP6000FT/D R29/P6000FT/D VCFG FEW120 BKN250 08/08 A3025 RMK AC2CI1 VIS W 1/4 SLP244 BKN250 08/08 A3025 RMK AC2CI1 VIS W 1/4 SLP244
CYQM;2003-09-20 11:00;METAR CYQM 201100Z 16007KT 15SM FEW120 BKN270 08/08 A3025 RMK AC2CI1 FG IN VLY SLP243 SLP243
CYQM;2003-09-20 12:00;METAR CYQM 201200Z 14006KT 15SM BKN120 BKN270 13/08 A3024 RMK AC6CI1 FG IN VLY SLP242 SLP242
CYQM;2003-09-20 13:00;METAR CYQM 201300Z 15007KT 15SM BKN090 BKN120 BKN270 14/11 A3024 RMK AC5AC2CI1 SLP240 SLP240
CYQM;2003-09-20 14:00;METAR CYQM 201400Z 16006KT 15SM FEW090 BKN120 BKN270 17/10 A3022 RMK AC2AC4CI1 SLP236 SLP236
CYQM;2003-09-20 15:00;METAR CYQM 201500Z 16004KT 15SM BKN120 BKN270 19/08 A3021 RMK AC6CI1 SLP232
CYQM;2003-09-20 16:00;METAR CYQM 201600Z 18003KT 15SM FEW090 BKN120 OVC270 21/09 A3020 RMK AC2AC6CI1 SLP227 SLP227
CYQM;2003-09-20 17:00;METAR CYQM 201700Z 15006KT 15SM FEW090 BKN120 OVC270 22/09 A3017 RMK AC2AC6CI1 VIRGA SLP218 VIRGA SLP218
CYQM;2003-09-20 18:00;METAR CYQM 201800Z 13006KT 15SM BKN100 OVC130 21/11 A3016 RMK AC5AS3 VIRGA SLP215
CYQM;2003-09-20 19:00;METAR CYQM 201900Z 15008KT 15SM FEW027 SCT090 OVC120 20/10 A3016 RMK SC2AC2AS5 VIRGA SLP213 VIRGA SLP213
CYQM;2003-09-20 20:00;METAR CYQM 202000Z 14006KT 15SM SCT025 BKN090 BKN120 20/12 A3015 RMK SC4AC2AS1 SLP210 SLP210
CYQM;2003-09-20 21:00;METAR CYQM 202100Z 18006KT 15SM BKN030 BKN090 20/13 A3015 RMK SC5AC2 CU ASOCTD SLP210
CYQM;2003-09-20 22:00;METAR CYQM 202200Z 16005KT 15SM BKN030 BKN090 19/13 A3014 RMK SC5AC2 SHS DIST NW CU ASOCTD SLP208 CU ASOCTD SLP208
CYQM;2003-09-20 23:00;METAR CYQM 202300Z 15005KT 15SM BKN040 BKN090 18/13 A3014 RMK SC6AC2 SLP207
CYQM;2003-09-21 00:00;METAR CYQM 210000Z 17006KT 15SM -SHRA SCT040 OVC090 18/13 A3014 RMK SC3AC5 SLP209
CYQM;2003-09-21 01:00;METAR CYQM 210100Z 13005KT 15SM BKN040 OVC090 17/14 A3013 RMK SC6AC2 RERA SLP205
CYQM;2003-09-21 02:00;METAR CYQM 210200Z 14005KT 15SM BKN025 OVC080 17/15 A3013 RMK SC6AC2
CYQM;2003-09-21 03:00;METAR CYQM 210300Z 16007KT 15SM SCT025 OVC050 17/15 A3013 RMK SC3SC5 SLP204
CYQM;2003-09-21 04:00;METAR CYQM 210400Z 17006KT 15SM BKN030 BKN050 16/16 A3012 RMK SC5SC2 SLP200
CYQM;2003-09-21 05:00;METAR CYQM 210500Z 17004KT 15SM OVC018 17/16 A3012 RMK SC8 SLP201
CYQM;2003-09-21 06:00;METAR CYQM 210600Z 16006KT 15SM OVC012 17/16 A3011 RMK SC8 SLP198
CYQM;2003-09-21 07:00;METAR CYQM 210700Z 18005KT 8SM OVC010 17/17 A3011 RMK SC8 SLP198 SLP199
CYQM;2003-09-21 09:00;METAR CYQM 210900Z 21005KT 10SM BKN004 OVC007 17/17 A3012 RMK SF6SF2
CYQM;2003-09-21 10:00;METAR CYQM 211000Z 23004KT 10SM BKN004 OVC010 17/17 A3013 RMK SF6SF2
CYQM;2003-09-21 11:00;METAR CYQM 211100Z 25007KT 6SM BR BKN002 OVC007 18/18 A3014 RMK SF6SF2 SLP208
CYQM;2003-09-21 12:00;METAR CYQM 211200Z 27008KT 8SM BKN005 OVC012 18/17 A3015 RMK SF7SC1 SLP211
CYQM;2003-09-21 13:00;METAR CYQM 211300Z 26008KT 8SM BKN007 19/17 A3016 RMK CF7 SLP215
CYQM;2003-09-21 14:00;METAR CYQM 211400Z 28008KT 10SM BKN010 BKN120 20/17 A3016 RMK CF5AC1 SLP215
CYQM;2003-09-21 15:00;METAR CYQM 211500Z 32011KT 12SM BKN015 BKN120 21/17 A3016 RMK SC6AC1
CYQM;2003-09-21 16:00;METAR CYQM 211600Z 35004KT 15SM BKN018 22/18 A3016 RMK SC7 SLP214
CYQM;2003-09-21 17:00;METAR CYQM 211700Z 03006KT 15SM BKN022 BKN045 22/17 A3016 RMK CU6SC2 TCU ASOCTD SLP213 SLP213
CYQM;2003-09-21 18:00;METAR CYQM 211800Z 04007KT 15SM SCT027TCU BKN050 21/16 A3016 RMK TCU3SC4
CYQM;2003-09-21 19:00;METAR CYQM 211900Z 04008KT 15SM FEW030 OVC050 20/16 A3017 RMK CU1SC7 SLP216
CYQM;2003-09-21 20:00;METAR CYQM 212000Z 04007KT 15SM FEW020 BKN050 OVC070 20/16 A3017 RMK CU1SC5AC2 SLP219 SLP219
CYQM;2003-09-21 21:00;METAR CYQM 212100Z 05006KT 15SM FEW014 BKN050 BKN070 18/17 A3018 RMK CF1SC4AC2 SLP220 SLP220
CYQM;2003-09-21 22:00;METAR CYQM 212200Z 05003KT 15SM FEW014 SCT050 BKN070 18/17 A3020 RMK CF1SC2AC3 SLP227 SLP227
CYQM;2003-09-21 23:00;METAR CYQM 212300Z 07004KT 15SM FEW050 BKN070 18/16 A3021 RMK SC2AC3 SLP230
CYQM;2003-09-22 00:00;METAR CYQM 220000Z 07003KT 15SM FEW070 16/14 A3022 RMK AC2 SLP236
CYQM;2003-09-22 01:00;METAR CYQM 220100Z 03002KT 15SM FEW070 15/15 A3023 RMK AC2 SLP238
CYQM;2003-09-22 02:00;METAR CYQM 220200Z 04003KT 15SM SKC 14/13 A3023 RMK SLP239
CYQM;2003-09-22 03:00;METAR CYQM 220300Z 03003KT 1/2SM R29/P6000FT/N R06/P6000FT/N FG SKC 12/12 A3025 RMK FG5 VIS S 2 SLP243 RMK FG5 VIS S 2 SLP243
CYQM;2003-09-22 04:00;METAR CYQM 220400Z 08004KT 1/2SM R29/1000FT/N R06/1000FT/N FG SKC 14/14 A3024 RMK FG2 SLP240 FG2 SLP240
CYQM;2003-09-22 05:00;METAR CYQM 220500Z 00000KT 0SM R29/0600FT/N R06/0700V1200FT/N FG VV000 13/13 A3024 RMK FG8 SLP242 A3024 RMK FG8 SLP242
CYQM;2003-09-22 06:00;METAR CYQM 220600Z 00000KT 1/8SM R29/1100V1600FT/N R06/2000V3000FT/N FG SKC 11/11 A3025 RMK FG7 SLP246 A3025 RMK FG7 SLP246
CYQM;2003-09-22 07:00;METAR CYQM 220700Z 35003KT 1/8SM R29/1200V4000FT/D R06/1000V1600FT/U FG SKC 10/10 A3026 RMK FG6 SLP248 A3026 RMK FG6 SLP248
CYQM;2003-09-22 08:00;METAR CYQM 220800Z 32002KT 1/2SM R29/1200V1800FT/N R06/2200V3500FT/U FG SKC 10/10 A3026 RMK FG5 SLP249 A3026 RMK FG5 SLP249
CYQM;2003-09-22 09:00;METAR CYQM 220900Z 36004KT 1SM R06/3000V6000FT/U R29/3000V6000FT/U BR SKC 10/10 A3028 RMK FG5 SLP256 A3028 RMK FG5 SLP256
CYQM;2003-09-22 10:00;METAR CYQM 221000Z 00000KT 1SM R29/1400VP6000FT/D R06/3500VP6000FT/D BR FEW080 SCT260 10/10 A3028 RMK AC2CI1 VIS HIR S QUAD SLP256 SCT260 10/10 A3028 RMK AC2CI1 VIS HIR S QUAD SLP256
CYQM;2003-09-22 11:00;METAR CYQM 221100Z 03002KT 10SM MIFG FEW100 SCT260 11/11 A3029 RMK AC2CI1 SLP259
CYQM;2003-09-22 12:00;METAR CYQM 221200Z 34003KT 10SM FEW100 SCT260 13/13 A3030 RMK AC2CI1 SLP261
CYQM;2003-09-22 13:00;METAR CYQM 221300Z 04003KT 15SM FEW010 FEW260 16/14 A3030 RMK CF1CI1 TR CF SLP262
CYQM;2003-09-22 14:00;METAR CYQM 221400Z 10004KT 15SM FEW020 FEW260 18/13 A3029 RMK CU1CI1 TR CU SLP260
CYQM;2003-09-22 15:00;METAR CYQM 221500Z 10003KT 15SM FEW030 FEW260 20/13 A3029 RMK CU1CI1
CYQM;2003-09-22 16:00;METAR CYQM 221600Z 33005KT 15SM FEW045 SCT260 21/12 A3028 RMK CU2CI1 SLP256
CYQM;2003-09-22 17:00;METAR CYQM 221700Z 02004KT 15SM FEW045 SCT260 22/13 A3028 RMK CU2CI1 SLP254
CYQM;2003-09-22 18:00;METAR CYQM 221800Z 02009KT 15SM FEW030 SCT260 22/14 A3026 RMK CU2CI2 SLP248
CYQM;2003-09-22 19:00;METAR CYQM 221900Z 02010KT 15SM FEW030 BKN260 21/14 A3025 RMK CU1CI2 SLP243
CYQM;2003-09-22 20:00;METAR CYQM 222000Z 03009KT 15SM FEW030 BKN260 20/12 A3025 RMK SC1CI3 CU ASOCTD SLP244 SLP244
CYQM;2003-09-22 21:00;METAR CYQM 222100Z 03007KT 15SM FEW030 BKN260 20/12 A3026 RMK SC2CI3 CU ASOCTD SLP248
CYQM;2003-09-22 22:00;METAR CYQM 222200Z 04005KT 15SM FEW030 BKN260 18/11 A3025 RMK SC2CI3
CYQM;2003-09-22 23:00;METAR CYQM 222300Z 06005KT 15SM FEW030 BKN260 15/13 A3024 RMK SC2CI3
CYQM;2003-09-23 01:00;METAR CYQM 230100Z 07007KT 15SM BKN050 14/13 A3025 RMK SC6 SLP245
CYQM;2003-09-23 02:00;METAR CYQM 230200Z 07005KT 15SM BKN050 14/13 A3024 RMK SC7 SLP243
CYQM;2003-09-23 03:00;METAR CYQM 230300Z 09006KT 15SM BKN060 14/13 A3023 RMK SC7 SLP239
CYQM;2003-09-23 04:00;METAR CYQM 230400Z 08005KT 15SM BKN060 14/14 A3021 RMK SC6 SLP231
CYQM;2003-09-23 05:00;METAR CYQM 230500Z 10004KT 15SM FEW015 BKN060 14/14 A3019 RMK SC2SC6 SLP225
CYQM;2003-09-23 06:00;METAR CYQM 230600Z 08003KT 15SM FEW015 BKN060 13/13 A3018 RMK SC2SC6 SLP221
CYQM;2003-09-23 07:00;METAR CYQM 230700Z 19004KT 15SM BKN060 13/13 A3017 RMK SC7 SLP219
CYQM;2003-09-23 08:00;METAR CYQM 230800Z 15006KT 15SM BKN060 13/13 A3016 RMK SC6 SLP215
CYQM;2003-09-23 09:00;METAR CYQM 230900Z 13004KT 12SM BKN025 13/13 A3015 RMK SC5 SLP212
CYQM;2003-09-23 10:00;METAR CYQM 231000Z 13005KT 6SM BR FEW010 BKN025 OVC260 14/14 A3015 RMK CF2SC5CI1 SLP212 SLP212
CYQM;2003-09-23 11:00;METAR CYQM 231100Z 14007KT 8SM FEW025 BKN100 OVC260 15/14 A3014 RMK SC2AC3CI2 SLP208 SLP208
CYQM;2003-09-23 12:00;METAR CYQM 231200Z 14006KT 8SM FEW025 SCT140 BKN260 16/15 A3013 RMK SC2AC2CI2 SLP205 SLP205
CYQM;2003-09-23 13:00;METAR CYQM 231300Z 15008G15KT 10SM SCT007 OVC020 17/15 A3013 RMK SF3SC5 SLP203
CYQM;2003-09-23 14:00;METAR CYQM 231400Z 14007KT 10SM FEW007 OVC020 17/15 A3010 RMK SF2SC6 SLP194
CYQM;2003-09-23 15:00;METAR CYQM 231500Z 15012KT 8SM FEW007 BKN012 OVC020 18/16 A3007 RMK SF2SC4SC2 SLP185 SLP185
CYQM;2003-09-23 16:00;METAR CYQM 231600Z 15013KT 10SM BKN012 OVC020 19/16 A3006 RMK SC5SC3 SLP179
CYQM;2003-09-23 17:00;METAR CYQM 231700Z 14021G26KT 15SM FEW020 SCT140 BKN180 BKN260 22/17 A3001 RMK CU2AC2AC1CI1 SLP165 CU2AC2AC1CI1 SLP165
CYQM;2003-09-23 18:00;METAR CYQM 231800Z 16017G24KT 15SM SCT020 SCT140 BKN180 BKN260 22/17 A2999 RMK SC3AC1AC2CI1 SLP157 SC3AC1AC2CI1 SLP157
CYQM;2003-09-23 19:00;METAR CYQM 231900Z 16023G30KT 15SM SCT025 SCT140 BKN180 BKN260 23/17 A2997 RMK SC3AC1AC2CI1 SLP148 SC3AC1AC2CI1 SLP148
CYQM;2003-09-23 20:00;METAR CYQM 232000Z 16010G21KT 15SM FEW016 BKN025 BKN140 BKN260 22/18 A2995 RMK CU2SC3AC1CI1 SLP141 CU2SC3AC1CI1 SLP141
CYQM;2003-09-23 21:00;METAR CYQM 232100Z 16018G25KT 15SM SCT016 SCT025 BKN140 BKN260 23/18 A2993 RMK CU3SC1AC2CI1 SLP135 CU3SC1AC2CI1 SLP135
CYQM;2003-09-23 22:00;METAR CYQM 232200Z 16014G19KT 15SM SCT016 SCT025 BKN140 BKN260 21/17 A2992 RMK CU3SC1AC2CI1 SLP131 CU3SC1AC2CI1 SLP131
CYQM;2003-09-23 23:00;METAR CYQM 232300Z 15012KT 15SM FEW020 SCT140 BKN250 21/18 A2991 RMK CU1AC3CI1 SLP129 SLP129
CYQM;2003-09-24 00:00;METAR CYQM 240000Z 16013KT 15SM FEW100 SCT250 20/18 A2990 RMK AC2CI1 SLP125
CYQM;2003-09-24 01:00;METAR CYQM 240100Z 15017G26KT 15SM -SHRA SCT025 BKN040 21/19 A2989 RMK SC3SC3 SLP121 SLP121
CYQM;2003-09-24 02:00;METAR CYQM 240200Z 15013G21KT 10SM -SHRA SCT009 OVC025 20/19 A2987 RMK SF3SC5 SLP116 SLP116
CYQM;2003-09-24 03:00;METAR CYQM 240300Z 16013G21KT 15SM OVC009 20/19 A2985 RMK SF8 SLP108
CYQM;2003-09-24 04:00;METAR CYQM 240400Z 17014G20KT 15SM SCT009 OVC035 20/19 A2983 RMK SF3SC5 SLP103
CYQM;2003-09-24 05:00;METAR CYQM 240500Z 17017KT 15SM FEW009 OVC035 20/19 A2982 RMK SF2SC6 SLP098
CYQM;2003-09-24 06:00;METAR CYQM 240600Z 15014G19KT 15SM SCT011 BKN035 19/19 A2978 RMK SC3SC2 SLP085
CYQM;2003-09-24 07:00;METAR CYQM 240700Z 17014G19KT 15SM -SHRA SCT011 BKN035 19/18 A2978 RMK SC3SC2 SLP084 SLP084
CYQM;2003-09-24 08:00;METAR CYQM 240800Z 18017KT 12SM -SHRA FEW012 OVC040 19/19 A2978 RMK SC2SC6 SLP086
CYQM;2003-09-24 09:00;METAR CYQM 240900Z 18009KT 15SM -SHRA FEW007 OVC040 18/18 A2979 RMK SF2SC6 SLP088
CYQM;2003-09-24 10:00;METAR CYQM 241000Z 23014KT 15SM OVC016 18/17 A2982 RMK SC8 SLP098
CYQM;2003-09-24 11:00;METAR CYQM 241100Z 23012G17KT 15SM BKN012 BKN040 BKN070 17/16 A2986 RMK SC5SC1AC2 SLP111 SLP111
CYQM;2003-09-24 12:00;METAR CYQM 241200Z 25012G22KT 15SM FEW012 BKN070 BKN250 17/15 A2989 RMK SC2AC3CI1 SLP121
CYQM;2003-09-24 13:00;METAR CYQM 241300Z 25019G24KT 15SM FEW016 FEW090 BKN250 18/14 A2991 RMK CU2AC1CI2 SLP128 SLP128
CYQM;2003-09-24 14:00;METAR CYQM 241400Z 25015KT 15SM FEW020 FEW090 BKN250 17/12 A2993 RMK CU1AC1CI2 TR AC SLP136 AC SLP136
CYQM;2003-09-24 15:00;METAR CYQM 241500Z 27014KT 15SM FEW028 BKN250 19/12 A2994 RMK CF1CI2 SLP138
CYQM;2003-09-24 16:00;METAR CYQM 241600Z 23012G19KT 15SM FEW032 SCT250 20/12 A2993 RMK CF1CI2 SLP137
CYQM;2003-09-24 17:00;METAR CYQM 241700Z 22016G21KT 15SM FEW041 BKN250 21/11 A2994 RMK CF1CI2
CYQM;2003-09-24 18:00;METAR CYQM 241800Z 24016G22KT 15SM FEW049 SCT250 21/09 A2995 RMK CF1CI1 SLP142
CYQM;2003-09-24 19:00;METAR CYQM 241900Z 25013G20KT 15SM FEW050 SCT250 22/09 A2995 RMK CU1CI1 SLP144
CYQM;2003-09-24 20:00;METAR CYQM 242000Z 27014G19KT 15SM FEW050 FEW250 21/09 A2997 RMK CU1CI1 SLP150
CYQM;2003-09-24 21:00;METAR CYQM 242100Z 25010G20KT 15SM FEW045 FEW250 20/09 A3000 RMK SC1CI1 SLP158
CYQM;2003-09-24 22:00;METAR CYQM 242200Z 26011KT 15SM FEW045 FEW250 19/09 A3002 RMK SC1CI1 SLP166
CYQM;2003-09-24 23:00;METAR CYQM 242300Z 24007KT 15SM FEW045 FEW250 16/09 A3005 RMK SC1CI1 SLP175
CYQM;2003-09-25 00:00;METAR CYQM 250000Z 25006KT 15SM SKC 15/09 A3007 RMK SLP183
CYQM;2003-09-25 01:00;METAR CYQM 250100Z 20005KT 15SM SKC 13/09 A3008 RMK SLP189
CYQM;2003-09-25 02:00;METAR CYQM 250200Z 20005KT 15SM SKC 13/09 A3009 RMK SLP191
CYQM;2003-09-25 03:00;METAR CYQM 250300Z 19006KT 15SM SKC 12/08 A3010 RMK SLP193
CYQM;2003-09-25 04:00;METAR CYQM 250400Z 20005KT 15SM SKC 11/08 A3009 RMK SLP191
CYQM;2003-09-25 05:00;METAR CYQM 250500Z 21004KT 15SM SKC 09/09 A3010 RMK SLP193
CYQM;2003-09-25 06:00;METAR CYQM 250600Z 21006KT 15SM SKC 09/09 A3011 RMK SLP197
CYQM;2003-09-25 07:00;METAR CYQM 250700Z 20003KT 15SM MIFG SKC 09/09 A3011 RMK SLP196
CYQM;2003-09-25 08:00;METAR CYQM 250800Z 20004KT 15SM MIFG SKC 09/09 A3011 RMK SLP196
CYQM;2003-09-25 09:00;METAR CYQM 250900Z 19005KT 3/4SM R06/P6000FT/U R29/P6000FT/U BR SKC 08/08 A3011 RMK FG2 VIS NE-E 10 SLP197 RMK FG2 VIS NE-E 10 SLP197
CYQM;2003-09-25 10:00;METAR CYQM 251000Z 21006KT 5SM BR BCFG FEW250 07/07 A3012 RMK CI0 VIS W-N 3/4 SLP202 SLP202
CYQM;2003-09-25 11:00;METAR CYQM 251100Z 18005KT 3/8SM R29/P6000FT/U R06/1400V2200FT/U FG SCT250 07/07 A3013 RMK FG2CI1 VIS NE-SE 4 SLP204 A3013 RMK FG2CI1 VIS NE-SE 4 SLP204 E SLP203
CYQM;2003-09-25 13:00;METAR CYQM 251300Z 15008KT 15SM FEW250 15/11 A3013 RMK CI1 FG BANK DIST E-SE SLP204 SLP204
CYQM;2003-09-25 14:00;METAR CYQM 251400Z 18010G17KT 15SM BKN250 18/09 A3011 RMK CI2 FG BANK DIST SE COTRA SLP199 COTRA SLP199 COTRA SLP191
CYQM;2003-09-25 16:00;METAR CYQM 251600Z 19012G17KT 15SM FEW050 BKN250 20/09 A3007 RMK CU1CI2 TR CU COTRA SLP185 COTRA SLP185
CYQM;2003-09-25 17:00;METAR CYQM 251700Z 17014KT 15SM FEW050 BKN250 21/07 A3006 RMK CU1CI2 TR CU COTRA CS ASOCTD SLP179 CS ASOCTD SLP179
CYQM;2003-09-25 18:00;METAR CYQM 251800Z 20016G29KT 15SM FEW050 BKN250 22/08 A3004 RMK CU1CI2 TR CU COTRA SLP173 COTRA SLP173
CYQM;2003-09-25 19:00;METAR CYQM 251900Z 20019G24KT 15SM BKN250 21/05 A3003 RMK CI2 SLP172
CYQM;2003-09-25 20:00;METAR CYQM 252000Z 21017G22KT 15SM BKN250 21/05 A3002 RMK CI2 COTRA SLP168
CYQM;2003-09-25 21:00;METAR CYQM 252100Z 20015G20KT 15SM BKN250 20/05 A3001 RMK CI2 SLP165
CYQM;2003-09-25 22:00;METAR CYQM 252200Z 20007KT 15SM BKN250 19/08 A3002 RMK CI3 SLP167
CYQM;2003-09-25 23:00;METAR CYQM 252300Z 18010KT 15SM BKN250 17/08 A3001 RMK CI3 SLP165
CYQM;2003-09-26 00:00;METAR CYQM 260000Z 18008KT 15SM BKN250 15/08 A3002 RMK CI2 SLP167
CYQM;2003-09-26 01:00;METAR CYQM 260100Z 18008KT 15SM SCT250 14/09 A3002 RMK CI2 SLP166
CYQM;2003-09-26 02:00;METAR CYQM 260200Z 19008KT 15SM BKN250 12/09 A3003 RMK CI2 SLP169
CYQM;2003-09-26 03:00;METAR CYQM 260300Z 21006KT 15SM BKN250 12/09 A3003 RMK CI3 SLP172
CYQM;2003-09-26 04:00;METAR CYQM 260400Z 20009KT 15SM FEW120 BKN250 14/10 A3004 RMK AC1CI3 SLP175
CYQM;2003-09-26 05:00;METAR CYQM 260500Z 17009KT 15SM SCT250 13/09 A3005 RMK CI2 SLP178
CYQM;2003-09-26 06:00;METAR CYQM 260600Z 16004KT 15SM FEW030 SCT250 12/09 A3007 RMK SC2CI1 SLP184
CYQM;2003-09-26 07:00;METAR CYQM 260700Z 19004KT 15SM BKN022 OVC030 13/10 A3007 RMK SC6SC2 SLP185
CYQM;2003-09-26 08:00;METAR CYQM 260800Z 18004KT 15SM OVC018 13/09 A3007 RMK SC8 SLP184
CYQM;2003-09-26 09:00;METAR CYQM 260900Z 19004KT 15SM OVC016 13/10 A3008 RMK SC8 SLP186
CYQM;2003-09-26 10:00;METAR CYQM 261000Z 18003KT 15SM BKN015 OVC040 13/10 A3008 RMK SC6SC2 SLP189
CYQM;2003-09-26 11:00;METAR CYQM 261100Z 14003KT 15SM BKN015 BKN040 BKN250 14/12 A3010 RMK SC6SC1CI1 SLP193 SLP193
CYQM;2003-09-26 12:00;METAR CYQM 261200Z 17002KT 15SM FEW012 SCT250 16/12 A3013 RMK SC2CI1 SLP204
CYQM;2003-09-26 13:00;METAR CYQM 261300Z 16005KT 15SM FEW150 SCT250 17/13 A3014 RMK AC2CI1 SLP207
CYQM;2003-09-26 14:00;METAR CYQM 261400Z 00000KT 15SM SCT120 19/13 A3014 RMK AC2 SLP208
CYQM;2003-09-26 15:00;METAR CYQM 261500Z 18005KT 12SM FEW025 SCT250 20/15 A3014 RMK CU2CI1 SLP209
CYQM;2003-09-26 16:00;METAR CYQM 261600Z 18006KT 12SM SCT025 BKN250 21/16 A3014 RMK CU3CI1
CYQM;2003-09-26 17:00;METAR CYQM 261700Z 16011KT 12SM SCT030 BKN070 BKN250 22/15 A3014 RMK CU3AC2CI1 SLP209
CYQM;2003-09-26 18:00;METAR CYQM 261800Z 16011KT 12SM SCT030 BKN070 BKN250 21/15 A3015 RMK CU3AC2CI2 SLP211 SLP211
CYQM;2003-09-26 19:00;METAR CYQM 261900Z 22004KT 12SM SCT030 BKN070 BKN250 21/15 A3016 RMK CU3AC2CI2 SLP213 SLP213
CYQM;2003-09-26 20:00;METAR CYQM 262000Z 20007KT 12SM BKN035 BKN200 21/15 A3015 RMK SC6CI2
CYQM;2003-09-26 21:00;METAR CYQM 262100Z 00000KT 12SM BKN035 OVC200 21/14 A3016 RMK SC6CI2 SLP215
CYQM;2003-09-26 22:00;METAR CYQM 262200Z 00000KT 15SM FEW030 SCT140 BKN260 19/15 A3017 RMK SC2AC2CI1 SLP218 SLP218
CYQM;2003-09-26 23:00;METAR CYQM 262300Z 04007KT 15SM FEW030 FEW140 SCT260 16/12 A3018 RMK SC1AC2CI1 SLP222 SLP222
CYQM;2003-09-27 00:00;METAR CYQM 270000Z 05003KT 15SM FEW030 SCT120 15/14 A3020 RMK SC1AC2 SLP228
CYQM;2003-09-27 01:00;METAR CYQM 270100Z 09006KT 15SM SCT100 14/14 A3020 RMK AC3 SLP229
CYQM;2003-09-27 02:00;METAR CYQM 270200Z 12006KT 15SM SCT080 15/14 A3020 RMK AC3 SLP229
CYQM;2003-09-27 04:00;METAR CYQM 270400Z 10006KT 15SM FEW050 SCT100 16/14 A3020 RMK SC1AC3 SLP227
CYQM;2003-09-27 05:00;METAR CYQM 270500Z 10002KT 15SM FEW050 SCT100 16/14 A3021 RMK SC1AC3 SLP232
CYQM;2003-09-27 06:00;METAR CYQM 270600Z 13006KT 15SM FEW050 SCT100 16/13 A3022 RMK SC1AC3 SLP233
CYQM;2003-09-27 07:00;METAR CYQM 270700Z 16005KT 15SM FEW050 SCT100 16/13 A3021 RMK SC2AC2 SLP231
CYQM;2003-09-27 08:00;METAR CYQM 270800Z 16006KT 15SM SCT050 BKN100 16/15 A3021 RMK SC3AC2
CYQM;2003-09-27 09:00;METAR CYQM 270900Z 16009KT 15SM FEW020 SCT050 SCT100 17/16 A3021 RMK SC1SC2AC1 SLP230 SLP230
CYQM;2003-09-27 10:00;METAR CYQM 271000Z 17004KT 10SM SCT006 BKN020 17/16 A3023 RMK SF4SC3 SLP237
CYQM;2003-09-27 11:00;METAR CYQM 271100Z 15007KT 12SM FEW009 FEW020 SCT040 16/15 A3023 RMK SF2SC1SC1 SLP238 SLP238
CYQM;2003-09-27 12:00;METAR CYQM 271200Z 18006KT 10SM BKN004 BKN015 18/18 A3025 RMK SF5SC2 SLP243
CYQM;2003-09-27 13:00;METAR CYQM 271300Z 17012KT 12SM FEW004 SCT015 BKN030 19/18 A3025 RMK SF2SC1SC2 SLP246 SLP246
CYQM;2003-09-27 14:00;METAR CYQM 271400Z 17014KT 12SM FEW012 FEW080 21/18 A3025 RMK SC2AC1
CYQM;2003-09-27 15:00;METAR CYQM 271500Z 17010KT 12SM SCT020 SCT080 22/18 A3026 RMK CU3AC1 SLP247
CYQM;2003-09-27 16:00;METAR CYQM 271600Z 17016G21KT 15SM FEW030 SCT250 25/18 A3025 RMK CU2CI1 SLP244
CYQM;2003-09-27 17:00;METAR CYQM 271700Z 16017KT 15SM FEW030 SCT250 25/16 A3024 RMK CU2CI1 TCU ASOCTD SLP241 SLP241
CYQM;2003-09-27 18:00;METAR CYQM 271800Z 17016KT 15SM FEW030 SCT250 25/16 A3023 RMK CU2CI1 TCU ASOCTD SLP238
CYQM;2003-09-27 19:00;METAR CYQM 271900Z 17013G20KT 15SM FEW035 FEW250 24/15 A3022 RMK CU2CI1 SLP236
CYQM;2003-09-27 20:00;METAR CYQM 272000Z 16015KT 15SM FEW035 FEW250 25/14 A3022 RMK CU2CI1 SLP235
CYQM;2003-09-27 21:00;METAR CYQM 272100Z 16011G19KT 15SM FEW040 FEW250 24/13 A3022 RMK CU1CI1
CYQM;2003-09-27 22:00;METAR CYQM 272200Z 16007KT 15SM FEW035 FEW260 22/13 A3023 RMK SC1CI1 CU ASOCTD SLP239 SLP239
CYQM;2003-09-27 23:00;METAR CYQM 272300Z 13006KT 15SM FEW030 FEW260 20/13 A3023 RMK SC1CI1
CYQM;2003-09-28 00:00;METAR CYQM 280000Z 12009KT 15SM FEW030 19/13 A3022 RMK SC2 SLP235
CYQM;2003-09-28 01:00;METAR CYQM 280100Z 12008KT 15SM FEW030 SCT260 19/14 A3022 RMK SC2CI1 SLP233
CYQM;2003-09-28 02:00;METAR CYQM 280200Z 14006KT 15SM SCT030 BKN260 18/16 A3021 RMK SC3CI1 SLP232
CYQM;2003-09-28 03:00;METAR CYQM 280300Z 13009KT 15SM BKN040 18/16 A3022 RMK SC6 SLP233
CYQM;2003-09-28 04:00;METAR CYQM 280400Z 12008KT 12SM -SHRA SCT015 OVC040 18/16 A3020 RMK SC3SC5 PCPN VRY LGT SLP229 VRY LGT SLP229
CYQM;2003-09-28 05:00;METAR CYQM 280500Z 12010KT 12SM BKN020 OVC040 19/17 A3019 RMK SC5SC3 SLP224
CYQM;2003-09-28 06:00;METAR CYQM 280600Z 11009KT 15SM SCT020 BKN040 18/16 A3018 RMK SC3SC2 SLP220
CYQM;2003-09-28 07:00;METAR CYQM 280700Z 10011KT 15SM SCT020 BKN040 18/16 A3017 RMK SC3SC3 SLP216
CYQM;2003-09-28 08:00;METAR CYQM 280800Z 09009KT 12SM -SHRA SCT020 OVC040 18/16 A3015 RMK SC3SC5 SLP211
CYQM;2003-09-28 09:00;METAR CYQM 280900Z 10007KT 12SM FEW020 BKN040 OVC100 18/16 A3014 RMK SC2SC6AC1 SLP206 SLP206
CYQM;2003-09-28 10:00;METAR CYQM 281000Z 10009KT 10SM SCT011 BKN035 BKN200 17/17 A3012 RMK SF3SC2CI1 SLP201 SLP201
CYQM;2003-09-28 11:00;METAR CYQM 281100Z 11008KT 10SM FEW011 BKN035 BKN200 18/17 A3012 RMK SC2SC3CI1 SLP199 SLP199
CYQM;2003-09-28 12:00;METAR CYQM 281200Z 14008KT 12SM VCSH SCT011 OVC020 19/17 A3012 RMK SC4SC4 SLP200
CYQM;2003-09-28 13:00;METAR CYQM 281300Z 12015G20KT 10SM BKN010 BKN020 20/16 A3010 RMK SC6SC2 SLP193
CYQM;2003-09-28 14:00;METAR CYQM 281400Z 13009KT 10SM BKN010 OVC020 20/17 A3009 RMK SC6SC2 SLP191
CYQM;2003-09-28 15:00;METAR CYQM 281500Z 14010G19KT 12SM BKN010 OVC020 21/17 A3007 RMK SC6SC2 SLP183
CYQM;2003-09-28 16:00;METAR CYQM 281600Z 13012G20KT 12SM BKN012 OVC020 20/17 A3004 RMK SC6SC2 SLP173
CYQM;2003-09-28 17:00;METAR CYQM 281700Z 14010G21KT 12SM VCSH BKN016 BKN030 23/17 A3002 RMK CU5SC2 SLP165 SLP165
CYQM;2003-09-28 18:00;METAR CYQM 281800Z 13016G21KT 12SM BKN016 BKN030 22/16 A3000 RMK CU6SC2 SLP159
CYQM;2003-09-28 19:00;METAR CYQM 281900Z 14016G21KT 12SM SCT016 BKN030 BKN080 22/17 A2997 RMK CU3SC2AC1 SLP149 SLP149
CYQM;2003-09-28 20:00;METAR CYQM 282000Z 12014G21KT 12SM FEW012 BKN020 BKN080 22/17 A2995 RMK CU2SC4AC1 SLP143 SLP143
CYQM;2003-09-28 21:00;METAR CYQM 282100Z 13015G20KT 15SM FEW012 BKN020 21/17 A2993 RMK SC2SC5 SLP137
CYQM;2003-09-28 22:00;METAR CYQM 282200Z 12010G20KT 15SM OVC030 21/17 A2992 RMK SC8 SLP134
CYQM;2003-09-28 23:00;METAR CYQM 282300Z 12014G20KT 12SM BKN020 OVC030 21/18 A2992 RMK SC5SC3 SLP132
CYQM;2003-09-29 00:00;METAR CYQM 290000Z 10011KT 12SM OVC020 20/17 A2989 RMK SC8 SLP123
CYQM;2003-09-29 01:00;METAR CYQM 290100Z 10014KT 12SM OVC020 20/17 A2986 RMK SC8 SLP112
CYQM;2003-09-29 02:00;METAR CYQM 290200Z 06008KT 12SM OVC020 19/17 A2980 RMK SC8 PRESFR SLP091 SC1SC6AC1 PRESFR SLP072 SC1SC6AC1 SLP072
CYQM;2003-09-29 04:00;METAR CYQM 290400Z 04013G18KT 6SM -RA BR SCT010 OVC020 18/18 A2963 SF3SC5 SLP033
CYQM;2003-09-29 05:00;METAR CYQM 290500Z 02022G29KT 2SM +RA BR FEW006 OVC010 18/18 A2946 RMK SF2NS6 PRESFR SLP976 PRESFR SLP976
CYQM;2003-09-29 06:00;METAR CYQM 290600Z 34019G27KT 8SM -RA BKN006 OVC010 18/18 A2938 RERA RMK SF6NS2 PRESFR /R17/ SLP949 PRESFR /R17/ SLP949 SF6SC2 PRESRR SLP979
CYQM;2003-09-29 08:00;METAR CYQM 290800Z 23017KT 5SM -SHRA BR OVC006 18/18 A2959 RMK SF8 PRESRR SLP018
CYQM;2003-09-29 09:00;METAR CYQM 290900Z 21010G16KT 12SM BKN005 OVC011 18/18 A2966 RMK SF7SC1 PRESRR SLP044 SLP044
CYQM;2003-09-29 10:00;METAR CYQM 291000Z 17006KT 15SM BKN008 BKN017 BKN250 18/18 A2970 RMK SF6SC1CI1 SLP058 SLP058
CYQM;2003-09-29 11:00;METAR CYQM 291100Z 16010KT 7SM -SHRA FEW007 BKN017 BKN100 OVC250 18/18 A2973 RMK SF2SC3AC2CI1 SLP066 SF2SC3AC2CI1 SLP066
CYQM;2003-09-29 12:00;METAR CYQM 291200Z 16012KT 15SM BKN005 BKN017 OVC120 19/19 A2975 RMK SF6SC2AC1 SLP074 SLP074
CYQM;2003-09-29 13:00;METAR CYQM 291300Z 16009KT 15SM FEW002 SCT005 BKN016 BKN120 BKN250 20/19 A2976 RMK SF2SF2SC2AC1CI1 SLP078 RMK SF2SF2SC2AC1CI1 SLP078
CYQM;2003-09-29 14:00;METAR CYQM 291400Z 16015KT 4SM -SHRA BR SCT003 BKN006 OVC016 20/20 A2977 RMK SF3SF3SC2 SLP081 SF3SF3SC2 SLP081
CYQM;2003-09-29 15:00;METAR CYQM 291500Z 16011G17KT 15SM OVC006 22/20 A2978 RMK SF8 SHS S SLP084
CYQM;2003-09-29 16:00;METAR CYQM 291600Z 22011G18KT 15SM BKN012 BKN250 24/21 A2980 RMK CU6CI1 SH N TCU ASOCTD SLP091 ASOCTD SLP091
CYQM;2003-09-29 17:00;METAR CYQM 291700Z 19017G25KT 15SM BKN025 BKN250 24/18 A2981 RMK CU5CI1 SLP095
CYQM;2003-09-29 18:00;METAR CYQM 291800Z 21021G29KT 15SM BKN027 24/18 A2982 RMK CU6 SLP099 RMK CU2SC2AC1CI1 SLP104
CYQM;2003-09-29 21:00;METAR CYQM 292100Z 20008KT 15SM FEW015 SCT030 BKN120 BKN260 21/18 A2984 RMK CU1SC2AC2CI1 SLP105
CYQM;2003-09-29 22:00;METAR CYQM 292200Z 17007KT 15SM FEW015 BKN025 BKN120 OVC260 21/18 A2983 RMK CU1SC5AC1CI1 SLP103
CYQM;2003-09-29 23:00;METAR CYQM 292300Z 13006KT 15SM SCT025 BKN040 OVC260 20/18 A2982 RMK SC3SC2CI2 SLP100 SLP100
CYQM;2003-09-30 00:00;METAR CYQM 300000Z 14005KT 15SM BKN040 OVC260 19/18 A2981 RMK SC6CI2 SLP097
CYQM;2003-09-30 01:00;METAR CYQM 300100Z 14013KT 15SM -SHRA BKN012 BKN040 OVC100 19/18 A2978 RMK SC5SC2AC1 SLP086
CYQM;2003-09-30 02:00;METAR CYQM 300200Z 24013G29KT 6SM -SHRA BR FEW007 OVC012 17/17 A2981
CYQM;2003-09-30 03:00;METAR CYQM 300300Z 24010KT 12SM -SHRA FEW007 BKN012 OVC020 16/16 A2982 RERA RMK SF2SC5SC2 PCPN VRY LGT SLP099
CYQM;2003-09-30 04:00;METAR CYQM 300400Z 22005KT 15SM SCT012 OVC080 16/16 A2981 RERA RMK SC3AC5 SLP096
CYQM;2003-09-30 05:00;METAR CYQM 300500Z 19006KT 15SM FEW030 BKN100 16/16 A2983 RMK SC2AC5 SLP101
CYQM;2003-09-30 06:00;METAR CYQM 300600Z 21010G16KT 15SM SCT025 16/15 A2984 RMK SC3 SLP106
CYQM;2003-09-30 07:00;METAR CYQM 300700Z 23009G20KT 15SM SKC 14/13 A2987 RMK SLP115
CYQM;2003-09-30 08:00;METAR CYQM 300800Z 24013KT 15SM SKC 13/11 A2988 RMK SLP120
CYQM;2003-09-30 09:00;METAR CYQM 300900Z 23013KT 15SM FEW020 12/10 A2991 RMK SC1 SLP130
CYQM;2003-09-30 10:00;METAR CYQM 301000Z 23012KT 15SM FEW020 FEW120 11/11 A2994 RMK CU1AC1 SLP140
CYQM;2003-09-30 11:00;METAR CYQM 301100Z 23009KT 15SM FEW020 11/11 A2998 RMK CU1 SLP154
CYQM;2003-09-30 12:00;METAR CYQM 301200Z 21009KT 15SM FEW008 12/11 A3001 RMK CF1 SLP165
CYQM;2003-09-30 13:00;METAR CYQM 301300Z 24011KT 15SM FEW012 14/11 A3004 RMK CU2 SLP175
CYQM;2003-09-30 14:00;METAR CYQM 301400Z 24007KT 15SM FEW016 15/11 A3005 RMK CU2 SLP178
CYQM;2003-09-30 15:00;METAR CYQM 301500Z 23013KT 15SM FEW022 17/10 A3006 RMK CU2 SLP179
CYQM;2003-09-30 16:00;METAR CYQM 301600Z 23011G17KT 15SM FEW030 18/09 A3005 RMK CU2 SLP176
CYQM;2003-09-30 17:00;METAR CYQM 301700Z 22007G18KT 15SM FEW032 19/09 A3003 RMK CU2 SLP172
CYQM;2003-09-30 18:00;METAR CYQM 301800Z 23014KT 15SM SCT035 19/09 A3003 RMK CU3 SLP170
CYQM;2003-09-30 19:00;METAR CYQM 301900Z 26012G17KT 15SM SCT035 19/08 A3004 RMK CU4 SLP173
CYQM;2003-09-30 20:00;METAR CYQM 302000Z 26007KT 15SM SCT035 18/08 A3004 RMK CU4 SLP174
CYQM;2003-09-30 21:00;METAR CYQM 302100Z 24009KT 15SM FEW035 18/07 A3004 RMK CU2 SLP175
CYQM;2003-09-30 22:00;METAR CYQM 302200Z 21007KT 15SM FEW030 15/10 A3006 RMK SC2 SLP180
CYQM;2003-09-30 23:00;METAR CYQM 302300Z 21006KT 15SM FEW030 13/10 A3008 RMK SC2 SLP188
CYQM;2003-10-01 00:00;METAR CYQM 010000Z 23007KT 15SM SKC 12/09 A3010 RMK SLP196
CYQM;2003-10-01 01:00;METAR CYQM 010100Z 22007KT 15SM SKC 11/09 A3012 RMK SLP201
CYQM;2003-10-01 02:00;METAR CYQM 010200Z 23005KT 15SM SKC 10/08 A3012 RMK SLP202
CYQM;2003-10-01 03:00;METAR CYQM 010300Z 27005KT 15SM FEW045 10/08 A3013 RMK SC2 SLP203
CYQM;2003-10-01 04:00;METAR CYQM 010400Z 24007KT 15SM FEW045 09/08 A3014 RMK SC2 SLP207
CYQM;2003-10-01 05:00;METAR CYQM 010500Z 24006KT 15SM FEW045 08/07 A3013 RMK SC2 SLP205
CYQM;2003-10-01 06:00;METAR CYQM 010600Z 20004KT 15SM FEW045 08/07 A3013 RMK SC2 SLP204
CYQM;2003-10-01 07:00;METAR CYQM 010700Z 25006KT 15SM FEW045 07/07 A3014 RMK SC2 SLP208
CYQM;2003-10-01 08:00;METAR CYQM 010800Z 23004KT 1/2SM R06/1800V3500FT/U R29/1800V6000FT/D FG VV002 06/06 A3015 RMK FG8 SLP210 06/06 A3015 RMK FG8 SLP210
CYQM;2003-10-01 09:00;METAR CYQM 010900Z 00000KT 4SM R06/P6000FT/N R29/3000V5500FT/D BR PRFG SKC 06/06 A3014 RMK FG2 VIS LWR S-W SLP210 A3014 RMK FG2 VIS LWR S-W SLP210
CYQM;2003-10-01 10:00;METAR CYQM 011000Z 22006KT 1/4SM R06/1600V3000FT/D R29/P6000FT FG SCT070 05/05 A3016 RMK FG2AC2 VIS HIER NE SLP216 A3016 RMK FG2AC2 VIS HIER NE SLP216
CYQM;2003-10-01 11:00;METAR CYQM 011100Z 27002KT 10SM R06/P6000FT/N R29/1400V2600FT/N MIFG FEW050 FEW100 SCT250 04/04 A3017 RMK SC2AC1CI1 VIS S-W 2 SLP220
CYQM;2003-10-01 12:00;METAR CYQM 011200Z 22002KT 12SM VCFG FEW060 FEW100 SCT250 06/06 A3017 RMK SC2AC1CI1 VIS S-W 1 SLP218
CYQM;2003-10-01 13:00;METAR CYQM 011300Z 22002KT 15SM VCFG BKN060 BKN250 09/09 A3017 RMK SC6CI1 VIS SW 3 SLP218 3 SLP218
CYQM;2003-10-01 14:00;METAR CYQM 011400Z 09003KT 15SM FEW030 SCT120 BKN250 13/10 A3015 RMK CU2AC1CI1 SLP212 SLP212
CYQM;2003-10-01 15:00;METAR CYQM 011500Z 17005KT 15SM SCT030 OVC250 16/09 A3014 RMK CU4CI2 SLP208
CYQM;2003-10-01 16:00;METAR CYQM 011600Z 16007KT 15SM SCT030 BKN250 16/08 A3011 RMK CU4CI1 SLP200
CYQM;2003-10-01 17:00;METAR CYQM 011700Z 21004KT 15SM BKN032 BKN250 18/06 A3011 RMK CU5CI2 SLP197
CYQM;2003-10-01 18:00;METAR CYQM 011800Z 19008KT 15SM SCT035 BKN250 18/07 A3008 RMK CU4CI2 SLP189
CYQM;2003-10-01 19:00;METAR CYQM 011900Z 17006KT 15SM SCT035 SCT120 OVC220 17/07 A3007 RMK CU3AC1CI3 SLP185 SLP185
CYQM;2003-10-01 20:00;METAR CYQM 012000Z 17004KT 15SM FEW035 BKN120 BKN160 BKN220 16/08 A3007 RMK CU2AC2AS2CI1 SLP184
CYQM;2003-10-01 21:00;METAR CYQM 012100Z 31005KT 15SM FEW040 BKN110 BKN220 15/08 A3008 RMK SC2AC3CI1 SLP187 SLP187
CYQM;2003-10-01 22:00;METAR CYQM 012200Z 23008KT 15SM SCT050 BKN140 BKN220 14/08 A3008 RMK SC3AC3CI1 SLP190 SLP190
CYQM;2003-10-01 23:00;METAR CYQM 012300Z 26004KT 15SM FEW050 BKN140 BKN220 13/09 A3010 RMK SC2AC5CI1 SLP195 SLP195
CYQM;2003-10-02 00:00;METAR CYQM 020000Z 25007KT 15SM FEW100 11/07 A3010 RMK AC2 SLP194
CYQM;2003-10-02 01:00;METAR CYQM 020100Z 25005KT 15SM FEW100 10/07 A3010 RMK AC2 SLP194
CYQM;2003-10-02 02:00;METAR CYQM 020200Z 23003KT 15SM SKC 09/08 A3010 RMK SLP195
CYQM;2003-10-02 03:00;METAR CYQM 020300Z 25003KT 15SM SKC 09/07 A3010 RMK SLP194
CYQM;2003-10-02 04:00;METAR CYQM 020400Z 22004KT 15SM SKC 08/07 A3009 RMK SLP192
CYQM;2003-10-02 05:00;METAR CYQM 020500Z 23004KT 15SM SKC 08/07 A3008 RMK SLP187
CYQM;2003-10-02 06:00;METAR CYQM 020600Z 21004KT 15SM SKC 06/06 A3008 RMK SLP186
CYQM;2003-10-02 07:00;METAR CYQM 020700Z 23006KT 12SM PRFG SKC 06/06 A3007 RMK SLP183
CYQM;2003-10-02 08:00;METAR CYQM 020800Z 20002KT 3/4SM R29/2600V6000FT/D R06/3500V6000FT/U BR SKC 05/05 A3007 RMK FG5 SLP183 A3007 RMK FG5 SLP183
CYQM;2003-10-02 09:00;METAR CYQM 020900Z 19002KT 15SM BCFG SKC 04/04 A3007 RMK SLP186
CYQM;2003-10-02 10:00;METAR CYQM 021000Z 25003KT 8SM PRFG FEW260 03/03 A3007 RMK CI1 VIS 3/4F SE-W SLP185 SLP185
CYQM;2003-10-02 11:00;METAR CYQM 021100Z 18004KT 4SM BR SCT100 03/03 A3006 RMK AC3 SLP183
CYQM;2003-10-02 12:00;METAR CYQM 021200Z 12006KT 15SM BKN050 BKN260 07/06 A3006 RMK SC5CI1 SLP182
CYQM;2003-10-02 13:00;METAR CYQM 021300Z 25003KT 15SM FEW010 FEW050 FEW260 10/08 A3006 RMK CF1SC1CI1 TR CF SLP182 CF SLP182
CYQM;2003-10-02 14:00;METAR CYQM 021400Z 00000KT 15SM FEW016 FEW140 13/09 A3005 RMK CU1AC1 TR CU SLP179
CYQM;2003-10-02 15:00;METAR CYQM 021500Z 17007KT 15SM FEW040 FEW140 16/06 A3003 RMK CU1AC2 SLP170
CYQM;2003-10-02 16:00;METAR CYQM 021600Z 16008KT 15SM FEW045 FEW140 16/05 A3000 RMK CU1AC2 SLP161
CYQM;2003-10-02 17:00;METAR CYQM 021700Z 14005KT 15SM FEW045 SCT140 17/06 A2997 RMK CU2AC2 SLP150
CYQM;2003-10-02 18:00;METAR CYQM 021800Z 07006KT 15SM FEW050 FEW140 17/03 A2994 RMK CU1AC2 SLP140
CYQM;2003-10-02 19:00;METAR CYQM 021900Z 13008KT 15SM FEW050 FEW140 17/03 A2992 RMK CU1AC1 SLP133
CYQM;2003-10-02 20:00;METAR CYQM 022000Z 14010KT 15SM FEW050 FEW140 17/05 A2991 RMK CU1AC1 SLP129
CYQM;2003-10-02 21:00;METAR CYQM 022100Z 15007KT 15SM FEW045 FEW100 17/05 A2989 RMK CU1AC2 SLP125
CYQM;2003-10-02 22:00;METAR CYQM 022200Z 11008KT 15SM FEW045 FEW100 14/07 A2988 RMK SC1AC2 SLP121
CYQM;2003-10-02 23:00;METAR CYQM 022300Z 11005KT 15SM BKN075 13/07 A2987 RMK AC5 SLP116
CYQM;2003-10-03 00:00;METAR CYQM 030000Z 11007KT 15SM BKN070 12/08 A2985 RMK AC6 SLP110
CYQM;2003-10-03 01:00;METAR CYQM 030100Z 13005KT 15SM -SHRA OVC070 12/09 A2982 RMK AC8 SLP099
CYQM;2003-10-03 03:00;METAR CYQM 030300Z 13006KT 15SM -SHRA OVC090 11/10 A2976 RMK AC8 SLP079
CYQM;2003-10-03 04:00;METAR CYQM 030400Z 18003KT 15SM OVC100 11/09 A2972 RMK AC8 SLP065
CYQM;2003-10-03 05:00;METAR CYQM 030500Z 00000KT 15SM -SHRA OVC100 11/10 A2970 RMK AC8 SLP057
CYQM;2003-10-03 06:00;METAR CYQM 030600Z 18006KT 15SM OVC100 11/09 A2969 RMK AC8 SLP055
CYQM;2003-10-03 07:00;METAR CYQM 030700Z 18004KT 15SM OVC100 11/09 A2969 RMK AC8 SLP054
CYQM;2003-10-03 08:00;METAR CYQM 030800Z 18006KT 15SM -SHRA OVC075 11/09 A2964 RMK AC8 SLP040
CYQM;2003-10-03 09:00;METAR CYQM 030900Z 19009KT 15SM BKN075 10/09 A2963 RMK AC7 SLP035
CYQM;2003-10-03 10:00;METAR CYQM 031000Z 23020G31KT 15SM FEW008 BKN012 08/06 A2967 RMK SF2SC5 SLP049
CYQM;2003-10-03 11:00;METAR CYQM 031100Z 24025G33KT 15SM FEW008 BKN012 06/04 A2972 RMK SF2SC6 SLP065
CYQM;2003-10-03 12:00;METAR CYQM 031200Z 24026G31KT 15SM FEW008 BKN012 06/03 A2975 RMK SF1SC6 SLP078
CYQM;2003-10-03 13:00;METAR CYQM 031300Z 23019G27KT 15SM BKN012 BKN100 06/03 A2979 RMK CF6AC1 SLP089
CYQM;2003-10-03 14:00;METAR CYQM 031400Z 24026G32KT 15SM FEW012 BKN016 07/02 A2984 RMK CF1CU6 SLP105
CYQM;2003-10-03 15:00;METAR CYQM 031500Z 25022G29KT 15SM BKN020 07/01 A2986 RMK CU7 SLP114
CYQM;2003-10-03 16:00;METAR CYQM 031600Z 25021G28KT 15SM BKN030 09/01 A2988 RMK CU6 SLP121
CYQM;2003-10-03 17:00;METAR CYQM 031700Z 26017G25KT 15SM SCT035 10/01 A2989 RMK CU3 SLP125
CYQM;2003-10-03 18:00;METAR CYQM 031800Z 25022G30KT 15SM FEW045 12/M00 A2991 RMK CU2 SLP131
CYQM;2003-10-03 19:00;METAR CYQM 031900Z 25018G27KT 15SM FEW050 12/M01 A2993 RMK CU1 SLP138
CYQM;2003-10-03 20:00;METAR CYQM 032000Z 25018KT 15SM FEW050 12/M01 A2996 RMK CU1 SLP148
CYQM;2003-10-03 21:00;METAR CYQM 032100Z 23015KT 15SM FEW035 11/M02 A2999 RMK CU1 SLP158
CYQM;2003-10-03 22:00;METAR CYQM 032200Z 23008KT 15SM FEW030 09/M01 A3002 RMK CU1 SLP168
CYQM;2003-10-03 23:00;METAR CYQM 032300Z 18005KT 15SM FEW250 07/M01 A3005 RMK CI1 SLP179
CYQM;2003-10-04 00:00;METAR CYQM 040000Z 19006KT 15SM SKC 06/M01 A3009 RMK SLP194
CYQM;2003-10-04 01:00;METAR CYQM 040100Z 22006KT 15SM SKC 05/01 A3011 RMK SLP199
CYQM;2003-10-04 02:00;METAR CYQM 040200Z 22007KT 15SM SKC 05/01 A3012 RMK SLP203
CYQM;2003-10-04 03:00;METAR CYQM 040300Z 22004KT 15SM FEW250 04/02 A3013 RMK CI1 SLP205
CYQM;2003-10-04 04:00;METAR CYQM 040400Z 18003KT 15SM FEW250 04/02 A3014 RMK CI1 SLP208
CYQM;2003-10-04 05:00;METAR CYQM 040500Z 00000KT 15SM FEW250 04/03 A3014 RMK CI1 SLP209
CYQM;2003-10-04 06:00;METAR CYQM 040600Z 12003KT 15SM SKC 03/02 A3015 RMK SLP211
CYQM;2003-10-04 07:00;METAR CYQM 040700Z 18003KT 15SM SKC 03/02 A3015 RMK SLP212
CYQM;2003-10-04 08:00;METAR CYQM 040800Z 20004KT 15SM SKC 04/03 A3016 RMK SLP215
CYQM;2003-10-04 09:00;METAR CYQM 040900Z 12003KT 15SM SKC 03/02 A3015 RMK SLP213
CYQM;2003-10-04 10:00;METAR CYQM 041000Z 16004KT 15SM VCFG FEW012 FEW090 03/01 A3016 RMK CU1AC1 TR CU SLP217 SLP217
CYQM;2003-10-04 11:00;METAR CYQM 041100Z 16005KT 15SM VCFG FEW012 FEW100 FEW260 03/01 A3017 RMK CU1AC1CI1 SLP221
CYQM;2003-10-04 12:00;METAR CYQM 041200Z 22003KT 15SM PRFG FEW012 FEW260 05/04 A3019 RMK CU1CI1 TR CU SLP227 SLP227
CYQM;2003-10-04 13:00;METAR CYQM 041300Z 14007KT 15SM VCFG FEW003 FEW012 SCT260 09/07 A3020 RMK SF1CU1CI2 SLP229
CYQM;2003-10-04 14:00;METAR CYQM 041400Z 17014G19KT 15SM FEW020 SCT220 BKN260 11/04 A3018 RMK CU2CS2CI2 SLP224 SLP224
CYQM;2003-10-04 15:00;METAR CYQM 041500Z 18016KT 15SM FEW030 BKN260 11/04 A3017 RMK CU1CI3 SLP219
CYQM;2003-10-04 16:00;METAR CYQM 041600Z 15010G19KT 15SM FEW030 SCT260 12/02 A3016 RMK CU1CI2 SLP215
CYQM;2003-10-04 17:00;METAR CYQM 041700Z 17009G17KT 15SM FEW040 FEW160 SCT260 13/00 A3013 RMK CU1AC1CI2 SLP205 SLP205
CYQM;2003-10-04 18:00;METAR CYQM 041800Z 18014G20KT 15SM FEW040 FEW160 SCT260 13/M00 A3011 RMK CU1AC1CI2 TR CU SLP198
CYQM;2003-10-04 19:00;METAR CYQM 041900Z 16010G18KT 15SM FEW040 SCT120 SCT160 BKN260 13/02 A3008 RMK CU1AC3AC1CI1 TR CU SLP190 CU1AC3AC1CI1 TR CU SLP190
CYQM;2003-10-04 20:00;METAR CYQM 042000Z 17010KT 15SM FEW035 SCT120 BKN160 BKN260 13/03 A3006 RMK CU1AC4AC1CI1 TR CU SLP182
CYQM;2003-10-04 21:00;METAR CYQM 042100Z 15007KT 15SM FEW035 SCT120 BKN160 BKN260 13/02 A3005 RMK CU1AC3AS2CI1 SLP177
CYQM;2003-10-04 22:00;METAR CYQM 042200Z 13010G18KT 15SM FEW035 FEW120 SCT140 BKN260 12/02 A3001 RMK CU1AC1AS2CI1 SLP166 CU1AC1AS2CI1 SLP166
CYQM;2003-10-04 23:00;METAR CYQM 042300Z 14009KT 15SM FEW120 SCT140 BKN260 11/05 A3001 RMK AC2AS2CI1 SLP165 SLP165
CYQM;2003-10-05 00:00;METAR CYQM 050000Z 14007KT 15SM BKN120 BKN140 BKN260 11/05 A3000 RMK AC6AS1CI1 SLP163 SLP163
CYQM;2003-10-05 01:00;METAR CYQM 050100Z 12010G16KT 15SM FEW020 FEW120 OVC140 11/06 A2996 RMK SC1AC2AS6 SLP147 SLP147
CYQM;2003-10-05 02:00;METAR CYQM 050200Z 15010G15KT 15SM FEW120 BKN140 BKN260 11/07 A2994 RMK AC2AC3CI1 SLP141 SLP141
CYQM;2003-10-05 03:00;METAR CYQM 050300Z 14020G27KT 15SM FEW020 BKN100 BKN140 12/08 A2989 RMK SC1AC6AC1 SLP125 SLP125
CYQM;2003-10-05 04:00;METAR CYQM 050400Z 13011G16KT 15SM BKN070 BKN100 OVC140 12/08 A2987 RMK AC6AC2AS1 SLP116 SLP116
CYQM;2003-10-05 06:00;METAR CYQM 050600Z 14015G20KT 15SM -SHRA BKN070 OVC100 12/08 A2981 RMK AC6AC2 SLP095 SLP095
CYQM;2003-10-05 07:00;METAR CYQM 050700Z 15015G24KT 15SM -SHRA FEW035 OVC075 12/10 A2976 RMK SC1AC7 SLP079 SLP079
CYQM;2003-10-05 08:00;METAR CYQM 050800Z 16020G28KT 12SM -RA FEW008 OVC070 13/12 A2974 RMK SF1AC7 SLP072
CYQM;2003-10-05 09:00;METAR CYQM 050900Z 18009KT 8SM -RA FEW008 BKN016 OVC070 13/13 A2975 RMK SF2SC4AC2 SLP075 SLP075 RERA RMK SF1SC4SC2AC1 SLP069 SF1SC4SC2AC1 SLP069
CYQM;2003-10-05 11:00;METAR CYQM 051100Z 18005KT 8SM -RA FEW008 SCT016 BKN030 OVC080 13/12 A2973 RMK SF1SC3SC3AC2 SLP067 SF1SC3SC3AC2 SLP067
CYQM;2003-10-05 12:00;METAR CYQM 051200Z 18007KT 12SM -SHRA FEW008 FEW016 BKN030 OVC080 12/12 A2975 RMK SF1SC2SC3AC2 SLP076 SF1SC2SC3AC2 SLP076
CYQM;2003-10-05 13:00;METAR CYQM 051300Z 20005KT 6SM -SHRA BR FEW008 SCT016 OVC080 12/12 A2975 RMK SF1SC3AC4 SLP075 SF1SC3AC4 SLP075
CYQM;2003-10-05 14:00;METAR CYQM 051400Z 22005KT 10SM -SHRA FEW008 BKN016 OVC040 12/12 A2973 RMK SF2SC6SC1 PCPN VRY LGT SLP070
CYQM;2003-10-05 15:00;METAR CYQM 051500Z 21007KT 15SM FEW010 BKN016 BKN030 OVC100 12/10 A2973 RMK CF1SC4SC2AC1 SLP071
CYQM;2003-10-05 16:00;METAR CYQM 051600Z 22009G15KT 15SM FEW016 BKN030 BKN100 OVC260 13/09 A2973 RMK CU1SC4AC2CI1 BINOVC SLP069 CU1SC4AC2CI1 BINOVC SLP069
CYQM;2003-10-05 17:00;METAR CYQM 051700Z 25013KT 15SM FEW020 SCT030 BKN100 OVC260 14/09 A2973 RMK CU2SC2AC2CI1 SLP071
CYQM;2003-10-05 18:00;METAR CYQM 051800Z 26012KT 15SM FEW025 FEW040 SCT120 BKN260 14/08 A2974 RMK CU2SC1AC2CI2 SLP071
CYQM;2003-10-05 19:00;METAR CYQM 051900Z 24011KT 15SM FEW030 FEW040 BKN260 14/06 A2973 RMK CU2SC1CI2 SLP068 SLP068
CYQM;2003-10-05 20:00;METAR CYQM 052000Z 26011KT 15SM FEW035 FEW050 BKN260 14/04 A2974 RMK CU2SC1CI2 SLP073 SLP073
CYQM;2003-10-05 21:00;METAR CYQM 052100Z 26014KT 15SM FEW030 FEW040 SCT260 12/03 A2976 RMK CU1SC1CI1 SLP080 SLP080
CYQM;2003-10-05 22:00;METAR CYQM 052200Z 27006KT 15SM FEW030 FEW040 SCT260 10/03 A2978 RMK CU1SC1CI1 SH W SLP087 W SLP087
CYQM;2003-10-05 23:00;METAR CYQM 052300Z 23006KT 15SM FEW030 FEW045 FEW260 08/04 A2980 RMK CU1SC1CI2 SLP093 SLP093
CYQM;2003-10-06 00:00;METAR CYQM 060000Z 22006KT 15SM FEW030 FEW045 FEW260 07/03 A2983 RMK CU1SC1CI1 SLP102 SLP102
CYQM;2003-10-06 01:00;METAR CYQM 060100Z 21008KT 15SM FEW050 06/04 A2985 RMK SC1 SLP109
CYQM;2003-10-06 02:00;METAR CYQM 060200Z 20008KT 15SM SKC 06/04 A2986 RMK SLP112
CYQM;2003-10-06 03:00;METAR CYQM 060300Z 24007KT 15SM SKC 05/04 A2986 RMK SLP116
CYQM;2003-10-06 04:00;METAR CYQM 060400Z 18006KT 15SM FEW040 05/04 A2988 RMK SC1 SLP121
CYQM;2003-10-06 05:00;METAR CYQM 060500Z 22007KT 15SM SKC 04/04 A2989 RMK SLP124
CYQM;2003-10-06 06:00;METAR CYQM 060600Z 24010KT 15SM SKC 05/03 A2989 RMK SLP125
CYQM;2003-10-06 07:00;METAR CYQM 060700Z 25010KT 15SM SKC 04/02 A2989 RMK SLP123
CYQM;2003-10-06 08:00;METAR CYQM 060800Z 23008KT 15SM SKC 03/02 A2990 RMK SLP127
CYQM;2003-10-06 09:00;METAR CYQM 060900Z 21006KT 15SM SKC 02/01 A2992 RMK SLP135
CYQM;2003-10-06 10:00;METAR CYQM 061000Z 22006KT 15SM FEW250 02/00 A2993 RMK CI1 SLP138
CYQM;2003-10-06 11:00;METAR CYQM 061100Z 22008KT 15SM FEW250 02/00 A2993 RMK CI1 SLP139
CYQM;2003-10-06 12:00;METAR CYQM 061200Z 22005KT 15SM FEW250 04/00 A2995 RMK CI1 SLP144
CYQM;2003-10-06 13:00;METAR CYQM 061300Z 23011G17KT 15SM FEW250 07/02 A2997 RMK CI2 SLP150
CYQM;2003-10-06 14:00;METAR CYQM 061400Z 25007G15KT 15SM FEW025 SCT250 08/03 A2997 RMK CU2CI1 SLP151
CYQM;2003-10-06 15:00;METAR CYQM 061500Z 23013KT 15SM FEW025 SCT250 10/03 A2996 RMK CU2CI1 SLP148
CYQM;2003-10-06 16:00;METAR CYQM 061600Z 24015KT 15SM FEW035 SCT250 11/03 A2993 RMK CU2CI1 SLP139
CYQM;2003-10-06 17:00;METAR CYQM 061700Z 23016G21KT 15SM FEW035 SCT250 11/03 A2991 RMK CU2CI1 SLP132
CYQM;2003-10-06 18:00;METAR CYQM 061800Z 26011G19KT 15SM FEW035 SCT250 12/03 A2991 RMK CU2CI1 SLP130
CYQM;2003-10-06 19:00;METAR CYQM 061900Z 26011G19KT 15SM FEW040 SCT250 13/01 A2990 RMK CU2CI1 SLP129
CYQM;2003-10-06 20:00;METAR CYQM 062000Z 26012KT 15SM FEW045 SCT250 12/02 A2992 RMK SC2CI1 SLP133
CYQM;2003-10-06 21:00;METAR CYQM 062100Z 28011KT 15SM SCT045 11/00 A2993 RMK SC3 SLP137
CYQM;2003-10-06 23:00;METAR CYQM 062300Z 22005KT 15SM FEW030 07/02 A2995 RMK SC2 SLP146
CYQM;2003-10-07 00:00;METAR CYQM 070000Z 22005KT 15SM SCT035 06/03 A2996 RMK SC4 SLP149
CYQM;2003-10-07 01:00;METAR CYQM 070100Z 22007KT 15SM FEW035 06/02 A2997 RMK SC2 SLP151
CYQM;2003-10-07 02:00;METAR CYQM 070200Z 23007KT 15SM FEW035 05/02 A2997 RMK SC1 SLP153
CYQM;2003-10-07 03:00;METAR CYQM 070300Z 22007KT 15SM FEW035 04/02 A2997 RMK SC1 SLP153
CYQM;2003-10-07 04:00;METAR CYQM 070400Z 22008KT 15SM SKC 03/02 A2998 RMK SLP154
CYQM;2003-10-07 05:00;METAR CYQM 070500Z 23008KT 15SM SKC 03/01 A2998 RMK SLP156
CYQM;2003-10-07 06:00;METAR CYQM 070600Z 23009KT 15SM SKC 02/01 A2999 RMK SLP159
CYQM;2003-10-07 08:00;METAR CYQM 070800Z 23007KT 15SM SKC 01/00 A3001 RMK SLP164
CYQM;2003-10-07 09:00;METAR CYQM 070900Z 23008KT 15SM SKC 01/M00 A3002 RMK SLP167
CYQM;2003-10-07 10:00;METAR CYQM 071000Z 23008KT 12SM SKC 01/00 A3003 RMK SLP171
CYQM;2003-10-07 11:00;METAR CYQM 071100Z 23009KT 12SM FEW100 02/00 A3004 RMK AC1 SLP176
CYQM;2003-10-07 12:00;METAR CYQM 071200Z 26011KT 12SM FEW120 03/M02 A3006 RMK AC1 SLP181
CYQM;2003-10-07 13:00;METAR CYQM 071300Z 26010G15KT 12SM FEW120 05/00 A3006 RMK AC1 SLP183
CYQM;2003-10-07 15:00;METAR CYQM 071500Z 25007KT 15SM FEW025 08/02 A3005 RMK CU2 SLP179
CYQM;2003-10-07 16:00;METAR CYQM 071600Z 21010G16KT 15SM SCT040 09/M01 A3004 RMK CU4 SLP176
CYQM;2003-10-07 17:00;METAR CYQM 071700Z 24012G17KT 15SM BKN040 10/M01 A3003 RMK SC6 SLP173
CYQM;2003-10-07 18:00;METAR CYQM 071800Z 27011G17KT 15SM FEW030 BKN050 10/M01 A3003 RMK CU1SC6 SLP171
CYQM;2003-10-07 19:00;METAR CYQM 071900Z 26013KT 15SM FEW035 BKN060 10/M01 A3003 RMK CU1SC6
CYQM;2003-10-07 20:00;METAR CYQM 072000Z 24013KT 15SM FEW040 BKN060 BKN250 09/M01 A3003 RMK CU1SC4CI1 SLP171
CYQM;2003-10-07 21:00;METAR CYQM 072100Z 24009KT 15SM FEW050 SCT250 08/M01 A3004 RMK SC2CI1 SLP175
CYQM;2003-10-07 22:00;METAR CYQM 072200Z 22006KT 15SM FEW030 FEW220 06/M02 A3005 RMK SC1CI1 SLP179
CYQM;2003-10-07 23:00;METAR CYQM 072300Z 19005KT 15SM FEW030 FEW220 05/M01 A3006 RMK SC1CI1 SLP183
CYQM;2003-10-08 00:00;METAR CYQM 080000Z 19005KT 15SM FEW030 04/M01 A3007 RMK SC1 SLP185
CYQM;2003-10-08 01:00;METAR CYQM 080100Z 20006KT 15SM FEW100 04/M01 A3007 RMK AC1 SLP187
CYQM;2003-10-08 02:00;METAR CYQM 080200Z 20006KT 15SM FEW100 04/M01 A3009 RMK AC2 SLP192
CYQM;2003-10-08 03:00;METAR CYQM 080300Z 21004KT 15SM SCT040 BKN100 03/M00 A3009 RMK SC3AC2 SLP194
CYQM;2003-10-08 04:00;METAR CYQM 080400Z 20005KT 15SM BKN040 BKN100 04/01 A3009 RMK SC5AC2 SLP192
CYQM;2003-10-08 05:00;METAR CYQM 080500Z 23004KT 15SM SCT040 BKN100 05/01 A3008 RMK SC3AC4 SLP191
CYQM;2003-10-08 06:00;METAR CYQM 080600Z 22006KT 15SM SCT040 BKN100 04/01 A3008 RMK SC3AC4 SLP188
CYQM;2003-10-08 07:00;METAR CYQM 080700Z 18006KT 15SM BKN050 OVC100 06/03 A3006 RMK SC6AC2 SLP180
CYQM;2003-10-08 08:00;METAR CYQM 080800Z 20005KT 15SM OVC050 07/03 A3005 RMK SC8 SLP177
CYQM;2003-10-08 09:00;METAR CYQM 080900Z 21005KT 15SM OVC042 08/04 A3005 RMK SC8 SLP178
CYQM;2003-10-08 10:00;METAR CYQM 081000Z 21006KT 15SM OVC048 08/04 A3005 RMK SC8 SLP178
CYQM;2003-10-08 11:00;METAR CYQM 081100Z 21006KT 15SM FEW012 BKN050 BKN075 09/05 A3005 RMK CF1SC6AC1 SLP179 SLP179
CYQM;2003-10-08 12:00;METAR CYQM 081200Z 22008KT 15SM FEW012 FEW050 BKN075 10/06 A3006 RMK CF1SC1AC7 SLP181 SLP181
CYQM;2003-10-08 13:00;METAR CYQM 081300Z 23010KT 15SM FEW012 BKN075 12/06 A3006 RMK CU1AC5 SLP182
CYQM;2003-10-08 14:00;METAR CYQM 081400Z 24018KT 15SM FEW015 FEW100 14/05 A3005 RMK CU1AC1
CYQM;2003-10-08 15:00;METAR CYQM 081500Z 23022G28KT 15SM FEW020 FEW120 16/06 A3003 RMK CU1AC1 SLP173
CYQM;2003-10-08 16:00;METAR CYQM 081600Z 23017G24KT 15SM FEW030 FEW250 17/06 A3002 RMK CU1CI1 SLP167
CYQM;2003-10-08 17:00;METAR CYQM 081700Z 24020G25KT 15SM FEW040 FEW250 19/06 A2999 RMK CU1CI1 SLP158
CYQM;2003-10-08 18:00;METAR CYQM 081800Z 23017G27KT 15SM FEW045 FEW250 19/07 A2997 RMK CU1CI1 SLP149
CYQM;2003-10-08 19:00;METAR CYQM 081900Z 22019G25KT 15SM FEW045 FEW250 19/07 A2995 RMK CU1CI1 SLP145
CYQM;2003-10-08 20:00;METAR CYQM 082000Z 22015G20KT 15SM FEW230 19/08 A2995 RMK CI1 SLP143
CYQM;2003-10-08 21:00;METAR CYQM 082100Z 22015G24KT 15SM FEW250 18/07 A2994 RMK CI1 SLP141
CYQM;2003-10-08 22:00;METAR CYQM 082200Z 21010G15KT 15SM SKC 15/07 A2995 RMK SLP143
CYQM;2003-10-08 23:00;METAR CYQM 082300Z 21009KT 15SM SKC 13/06 A2995 RMK SLP144
CYQM;2003-10-09 00:00;METAR CYQM 090000Z 23014KT 15SM SKC 13/07 A2995 RMK SLP145
CYQM;2003-10-09 01:00;METAR CYQM 090100Z 22011KT 15SM SKC 12/06 A2995 RMK SLP144
CYQM;2003-10-09 02:00;METAR CYQM 090200Z 22010KT 15SM SKC 10/06 A2995 RMK SLP142
CYQM;2003-10-09 03:00;METAR CYQM 090300Z 23009KT 15SM SKC 09/06 A2994 RMK SLP140
CYQM;2003-10-09 04:00;METAR CYQM 090400Z 24009KT 15SM SKC 09/07 A2994 RMK SLP141
CYQM;2003-10-09 05:00;METAR CYQM 090500Z 23010KT 15SM SKC 10/07 A2994 RMK SLP139
CYQM;2003-10-09 06:00;METAR CYQM 090600Z 24011KT 15SM FEW120 10/08 A2994 RMK AC1 SLP140
CYQM;2003-10-09 07:00;METAR CYQM 090700Z 25010G15KT 15SM FEW100 11/07 A2995 RMK AC2 SLP145
CYQM;2003-10-09 08:00;METAR CYQM 090800Z 24010KT 15SM FEW100 10/08 A2997 RMK AC1 SLP151
CYQM;2003-10-09 09:00;METAR CYQM 090900Z 25007KT 15SM BKN100 11/08 A3000 RMK AC7 SLP160
CYQM;2003-10-09 10:00;METAR CYQM 091000Z 26004KT 15SM FEW100 09/08 A3005 RMK AC2 SLP178
CYQM;2003-10-09 11:00;METAR CYQM 091100Z 35004KT 15SM FEW025 BKN030 OVC250 10/08 A3009 RMK CU1SC6CI0 SLP190 SLP190
CYQM;2003-10-09 12:00;METAR CYQM 091200Z 36010KT 15SM FEW022 BKN030 11/06 A3014 RMK CF1SC6 SLP210
CYQM;2003-10-09 13:00;METAR CYQM 091300Z 33015G20KT 15SM FEW022 SCT035 11/00 A3017 RMK CU1SC2 SLP220
CYQM;2003-10-09 14:00;METAR CYQM 091400Z 34009G16KT 15SM FEW030 12/M00 A3020 RMK CU1 SLP229
CYQM;2003-10-09 15:00;METAR CYQM 091500Z 34010G15KT 15SM FEW030 12/01 A3022 RMK CU1 SLP237
CYQM;2003-10-09 16:00;METAR CYQM 091600Z 31008KT 15SM FEW030 13/00 A3022 RMK CU1 SLP236
CYQM;2003-10-09 17:00;METAR CYQM 091700Z 34010KT 15SM FEW030 FEW250 13/M01 A3023 RMK CU1CI1 SLP238
CYQM;2003-10-09 18:00;METAR CYQM 091800Z 36004KT 15SM FEW030 FEW250 14/M00 A3023 RMK CU1CI1
CYQM;2003-10-09 19:00;METAR CYQM 091900Z 04006KT 15SM FEW030 FEW250 13/01 A3023 RMK CU1CI1 SLP240
CYQM;2003-10-09 20:00;METAR CYQM 092000Z 36002KT 15SM FEW250 13/02 A3023 RMK CI1 SLP239
CYQM;2003-10-09 21:00;METAR CYQM 092100Z 05004KT 15SM FEW250 12/02 A3025 RMK CI0 SLP245
CYQM;2003-10-09 22:00;METAR CYQM 092200Z 08004KT 15SM FEW250 10/02 A3026 RMK CI1 TR CI SLP250
CYQM;2003-10-09 23:00;METAR CYQM 092300Z 09005KT 15SM SKC 09/02 A3028 RMK SLP254
CYQM;2003-10-10 00:00;METAR CYQM 100000Z 14008KT 15SM SKC 08/01 A3030 RMK SLP262
CYQM;2003-10-10 01:00;METAR CYQM 100100Z 14003KT 15SM SKC 06/02 A3030 RMK SLP264
CYQM;2003-10-10 02:00;METAR CYQM 100200Z 00000KT 15SM SKC 06/01 A3030 RMK SLP264
CYQM;2003-10-10 03:00;METAR CYQM 100300Z 20006KT 15SM SKC 04/02 A3030 RMK SLP263
CYQM;2003-10-10 04:00;METAR CYQM 100400Z 24003KT 15SM SKC 03/02 A3030 RMK SLP262
CYQM;2003-10-10 05:00;METAR CYQM 100500Z 21005KT 15SM SKC 01/01 A3030 RMK SLP263
CYQM;2003-10-10 06:00;METAR CYQM 100600Z 23008KT 15SM SKC 00/00 A3030 RMK SLP263
CYQM;2003-10-10 07:00;METAR CYQM 100700Z 23007KT 15SM VCFG FEW250 M00/M00 A3029 RMK CI1 TR CI SLP261
CYQM;2003-10-10 08:00;METAR CYQM 100800Z 23004KT 15SM VCFG FEW250 M01/M01 A3029 RMK CI0 FROIN
CYQM;2003-10-10 09:00;METAR CYQM 100900Z 22006KT 15SM FEW250 M01/M01 A3030 RMK CI1 FROIN SLP264
CYQM;2003-10-10 10:00;METAR CYQM 101000Z 23008KT 15SM FEW250 M01/M02 A3031 RMK CI1 FROIN SLP266
CYQM;2003-10-10 11:00;METAR CYQM 101100Z 22007KT 15SM FEW100 FEW250 M01/M02 A3031 RMK AC1CI1 SLP268
CYQM;2003-10-10 12:00;METAR CYQM 101200Z 22005KT 15SM FEW100 FEW250 01/M01 A3033 RMK AC1CI1 TR AC SLP275
CYQM;2003-10-10 13:00;METAR CYQM 101300Z 23007KT 15SM FEW250 04/02 A3033 RMK CI1 SLP275
CYQM;2003-10-10 14:00;METAR CYQM 101400Z 22009KT 15SM FEW025 FEW250 09/03 A3032 RMK CU1CI2 SLP272
CYQM;2003-10-10 15:00;METAR CYQM 101500Z 23006KT 15SM FEW030 FEW100 FEW250 12/03 A3032 RMK CU1AC1CI1 TR CU TR AC SLP271 CU TR AC SLP271
CYQM;2003-10-10 16:00;METAR CYQM 101600Z 21009KT 15SM FEW100 FEW250 15/01 A3031 RMK AC1CI1 TR AC SLP266
CYQM;2003-10-10 17:00;METAR CYQM 101700Z 22009KT 15SM FEW100 FEW250 15/02 A3027 RMK AC1CI1 TR AC SLP254
CYQM;2003-10-10 18:00;METAR CYQM 101800Z 22011KT 15SM FEW250 17/04 A3025 RMK CI1 SLP247
CYQM;2003-10-10 19:00;METAR CYQM 101900Z 23009KT 15SM FEW250 17/05 A3024 RMK CI2 SLP242
CYQM;2003-10-10 20:00;METAR CYQM 102000Z 23008KT 15SM SCT250 18/05 A3022 RMK CI2 SLP237
CYQM;2003-10-10 21:00;METAR CYQM 102100Z 23005KT 15SM SCT250 17/06 A3021 RMK CI2 SLP234
CYQM;2003-10-10 22:00;METAR CYQM 102200Z 16004KT 15SM SCT250 14/07 A3022 RMK CI2 SLP235
CYQM;2003-10-10 23:00;METAR CYQM 102300Z 20006KT 15SM SCT250 13/06 A3022 RMK CI2 SLP237
CYQM;2003-10-11 00:00;METAR CYQM 110000Z 20005KT 15SM FEW250 10/08 A3022 RMK CI1 SLP237
CYQM;2003-10-11 01:00;METAR CYQM 110100Z 23009KT 15SM FEW250 09/07 A3021 RMK CI1 SLP234
CYQM;2003-10-11 02:00;METAR CYQM 110200Z 22007KT 15SM FEW250 10/07 A3021 RMK CI2 SLP233
CYQM;2003-10-11 03:00;METAR CYQM 110300Z 23007KT 15SM FEW250 10/07 A3021 RMK CI2 SLP232
CYQM;2003-10-11 04:00;METAR CYQM 110400Z 23008KT 15SM FEW250 09/07 A3021 RMK CI2 SLP231
CYQM;2003-10-11 05:00;METAR CYQM 110500Z 21008KT 15SM FEW250 09/08 A3022 RMK CI2 SLP234
CYQM;2003-10-11 06:00;METAR CYQM 110600Z 22006KT 15SM FEW250 08/08 A3021 RMK CI2 SLP232
CYQM;2003-10-11 07:00;METAR CYQM 110700Z 25007KT 15SM FEW250 08/07 A3021 RMK CI2 SLP232
CYQM;2003-10-11 08:00;METAR CYQM 110800Z 23007KT 15SM SKC 07/07 A3021 RMK SLP233
CYQM;2003-10-11 09:00;METAR CYQM 110900Z 23008KT 15SM SKC 07/07 A3021 RMK SLP231
CYQM;2003-10-11 10:00;METAR CYQM 111000Z 23009KT 15SM SKC 07/06 A3022 RMK SLP235
CYQM;2003-10-11 11:00;METAR CYQM 111100Z 22007KT 12SM SKC 07/06 A3022 RMK SLP237
CYQM;2003-10-11 12:00;METAR CYQM 111200Z 22008KT 15SM SKC 09/08 A3023 RMK SLP238
CYQM;2003-10-11 13:00;METAR CYQM 111300Z 24010KT 15SM SKC 12/09 A3023 RMK SLP238
CYQM;2003-10-11 14:00;METAR CYQM 111400Z 23007KT 15SM SKC 16/10 A3022 RMK SLP234
CYQM;2003-10-11 15:00;METAR CYQM 111500Z 25006KT 15SM SKC 18/11 A3020 RMK SLP229
CYQM;2003-10-11 16:00;METAR CYQM 111600Z 23006KT 15SM SKC 21/12 A3018 RMK SLP222
CYQM;2003-10-11 17:00;METAR CYQM 111700Z 25006KT 15SM FEW040 23/12 A3016 RMK CU1 SLP215
CYQM;2003-10-11 18:00;METAR CYQM 111800Z 21007KT 15SM SKC 24/11 A3014 RMK SLP207
CYQM;2003-10-11 19:00;METAR CYQM 111900Z 24008KT 15SM SKC 25/10 A3012 RMK SLP202
CYQM;2003-10-11 20:00;METAR CYQM 112000Z 22009KT 15SM SKC 24/09 A3011 RMK SLP198
CYQM;2003-10-11 21:00;METAR CYQM 112100Z 21003KT 15SM SKC 23/12 A3012 RMK SLP200
CYQM;2003-10-11 22:00;METAR CYQM 112200Z 18005KT 15SM SKC 18/11 A3011 RMK SLP199
CYQM;2003-10-11 23:00;METAR CYQM 112300Z 19007KT 15SM FEW220 15/09 A3011 RMK CI1 SLP197
CYQM;2003-10-12 00:00;METAR CYQM 120000Z 20009KT 15SM FEW220 14/11 A3010 RMK CI1 SLP196
CYQM;2003-10-12 01:00;METAR CYQM 120100Z 20007KT 15SM FEW220 12/11 A3010 RMK CI1 SLP195
CYQM;2003-10-12 02:00;METAR CYQM 120200Z 22006KT 15SM SKC 13/11 A3009 RMK SLP193
CYQM;2003-10-12 03:00;METAR CYQM 120300Z 22006KT 15SM SKC 11/10 A3008 RMK SLP189
CYQM;2003-10-12 04:00;METAR CYQM 120400Z 23006KT 15SM SKC 10/09 A3008 RMK SLP188
CYQM;2003-10-12 05:00;METAR CYQM 120500Z 23007KT 15SM SKC 09/09 A3008 RMK SLP188
CYQM;2003-10-12 06:00;METAR CYQM 120600Z 23007KT 15SM SKC 10/09 A3007 RMK SLP183
CYQM;2003-10-12 07:00;METAR CYQM 120700Z 23009KT 12SM SKC 10/09 A3006 RMK SLP180
CYQM;2003-10-12 08:00;METAR CYQM 120800Z 24008KT 12SM SKC 09/09 A3004 RMK SLP175
CYQM;2003-10-12 09:00;METAR CYQM 120900Z 23008KT 12SM SKC 09/09 A3003 RMK SLP170
CYQM;2003-10-12 10:00;METAR CYQM 121000Z 26006KT 15SM SKC 09/08 A3002 RMK SLP168
CYQM;2003-10-12 11:00;METAR CYQM 121100Z 23006KT 15SM SKC 10/09 A3003 RMK SLP169
CYQM;2003-10-12 12:00;METAR CYQM 121200Z 23006KT 15SM SKC 11/10 A3003 RMK SLP170
CYQM;2003-10-12 13:00;METAR CYQM 121300Z 24006KT 15SM SKC 14/12 A3003 RMK SLP169
CYQM;2003-10-12 14:00;METAR CYQM 121400Z 23009KT 15SM SKC 18/12 A3002 RMK SLP166
CYQM;2003-10-12 15:00;METAR CYQM 121500Z 23005KT 15SM FEW030 20/12 A3000 RMK CU1 SLP162
CYQM;2003-10-12 16:00;METAR CYQM 121600Z 24006KT 15SM FEW040 23/13 A2998 RMK CU1 SLP153
CYQM;2003-10-12 17:00;METAR CYQM 121700Z 26003KT 15SM FEW050 FEW140 24/11 A2995 RMK CU1AC1 SLP145
CYQM;2003-10-12 18:00;METAR CYQM 121800Z 18003KT 15SM FEW050 FEW140 25/11 A2993 RMK CU1AC1 TR AC SLP136
CYQM;2003-10-12 19:00;METAR CYQM 121900Z 14009KT 15SM FEW050 FEW140 24/08 A2991 RMK CU1AC1 TR CU SLP129
CYQM;2003-10-12 20:00;METAR CYQM 122000Z 15010KT 15SM FEW050 FEW140 23/07 A2989 RMK CU1AC2 SLP124
CYQM;2003-10-12 21:00;METAR CYQM 122100Z 16007KT 15SM FEW140 FEW260 22/06 A2989 RMK AC2CI1 SLP121
CYQM;2003-10-12 22:00;METAR CYQM 122200Z 18005KT 15SM FEW140 SCT260 19/07 A2989 RMK AC2CI1
CYQM;2003-10-12 23:00;METAR CYQM 122300Z 17003KT 15SM SCT140 17/09 A2989 RMK AC4 SLP121
CYQM;2003-10-13 00:00;METAR CYQM 130000Z 16006KT 15SM BKN130 17/10 A2987 RMK AC6 SLP117
CYQM;2003-10-13 01:00;METAR CYQM 130100Z 15006KT 15SM BKN120 16/11 A2986 RMK AC7 SLP112
CYQM;2003-10-13 03:00;METAR CYQM 130300Z 14008KT 15SM BKN120 16/10 A2984 RMK AC7 SLP106
CYQM;2003-10-13 04:00;METAR CYQM 130400Z 14010KT 15SM BKN100 15/10 A2984 RMK AC6 SLP106
CYQM;2003-10-13 05:00;METAR CYQM 130500Z 11003KT 15SM OVC090 15/10 A2978 RMK AC8 PRESFR SLP086
CYQM;2003-10-13 06:00;METAR CYQM 130600Z 13007KT 15SM OVC090 14/12 A2976 RMK AC8 SLP077
CYQM;2003-10-13 07:00;METAR CYQM 130700Z 14004KT 15SM FEW050 OVC090 14/12 A2974 RMK SC2AC6 SLP071
CYQM;2003-10-13 08:00;METAR CYQM 130800Z 07002KT 4SM SHRA BR SCT050 OVC090 14/13 A2973 RMK NS3AC5 SLP068
CYQM;2003-10-13 09:00;METAR CYQM 130900Z 36005KT 2SM SHRA BR BKN011 OVC030 14/14 A2971 RMK NS5SC3 SLP063
CYQM;2003-10-13 10:00;METAR CYQM 131000Z 04010KT 1 1/2SM +RA BR FEW001 BKN005 OVC011 14/14 A2970 RMK SF2SF5SC2 /R10/ SLP059 SF2SF5SC2 /R10/ SLP059
CYQM;2003-10-13 11:00;METAR CYQM 131100Z 04007KT 1 1/2SM RA BR SCT005 OVC012 14/14 A2967 RMK SF3NS5 /R20/ RERA SLP047 /R20/ RERA SLP047
CYQM;2003-10-13 12:00;METAR CYQM 131200Z 03009KT 1 1/2SM -RA BR SCT005 OVC012 15/15 A2965 RMK SF4SC4 RERA SLP042 RERA SLP042
CYQM;2003-10-13 13:00;METAR CYQM 131300Z 05005KT 4SM -RA BR BKN003 OVC012 15/15 A2961 RMK SF6SC2 SLP028
CYQM;2003-10-13 14:00;METAR CYQM 131400Z 08009KT 5SM -RA BR OVC003 15/15 A2959 RMK SF8 SLP023
CYQM;2003-10-13 15:00;METAR CYQM 131500Z 08007KT 5SM -RA BR BKN003 OVC007 16/16 A2958 RMK SF6SF2 B7 OVC SLP017 SLP017
CYQM;2003-10-13 16:00;METAR CYQM 131600Z 34003KT 3SM -RA BR BKN006 OVC010 16/15 A2956 RMK SF6ST2 SLP012 SLP996 SF6ST2 SLP007 SLP007 B9 OVC VIS SE-SW 11/2 SLP013 VIS SE-SW 11/2 SLP013
CYQM;2003-10-13 21:00;METAR CYQM 132100Z 31013G18KT 15SM BKN005 BKN040 14/14 A2959 RMK SF5SC2 SLP023
CYQM;2003-10-13 22:00;METAR CYQM 132200Z 32010KT 15SM FEW006 SCT040 14/13 A2962 RMK SF2SC2 SLP032
CYQM;2003-10-14 00:00;METAR CYQM 140000Z 29008KT 15SM FEW040 FEW250 12/10 A2968 RMK SC1CI1 SLP051
CYQM;2003-10-14 01:00;METAR CYQM 140100Z 31013KT 15SM FEW040 12/09 A2970 RMK SC1 SLP059
CYQM;2003-10-14 02:00;METAR CYQM 140200Z 29009KT 15SM FEW040 10/08 A2974 RMK SC1 SLP072
CYQM;2003-10-14 03:00;METAR CYQM 140300Z 31012KT 15SM SKC 10/07 A2975 RMK SLP075
CYQM;2003-10-14 04:00;METAR CYQM 140400Z 29010G15KT 15SM SKC 09/05 A2977 RMK SLP081
CYQM;2003-10-14 05:00;METAR CYQM 140500Z 29012KT 15SM SKC 08/04 A2978 RMK SLP086
CYQM;2003-10-14 06:00;METAR CYQM 140600Z 29010KT 15SM SKC 08/03 A2980 RMK SLP092
CYQM;2003-10-14 07:00;METAR CYQM 140700Z 26009KT 15SM SKC 07/03 A2982 RMK SLP099
CYQM;2003-10-14 08:00;METAR CYQM 140800Z 26007KT 15SM SKC 06/03 A2983 RMK SLP103
CYQM;2003-10-14 09:00;METAR CYQM 140900Z 20006KT 15SM SKC 04/03 A2985 RMK SLP110
CYQM;2003-10-14 10:00;METAR CYQM 141000Z 23008KT 15SM SKC 04/02 A2987 RMK SLP118
CYQM;2003-10-14 11:00;METAR CYQM 141100Z 23009KT 15SM SKC 03/02 A2990 RMK SLP127
CYQM;2003-10-14 12:00;METAR CYQM 141200Z 23009KT 15SM SKC 05/03 A2992 RMK SLP135
CYQM;2003-10-14 13:00;METAR CYQM 141300Z 25007KT 15SM SKC 08/04 A2994 RMK SLP142
CYQM;2003-10-14 14:00;METAR CYQM 141400Z 31010KT 15SM FEW250 11/05 A2995 RMK CI1 TR CI SLP143
CYQM;2003-10-14 15:00;METAR CYQM 141500Z 32008KT 15SM FEW250 13/04 A2994 RMK CI1 TR CI SLP140
CYQM;2003-10-14 16:00;METAR CYQM 141600Z 31011KT 15SM FEW250 14/04 A2993 RMK CI1 TR CI SLP137
CYQM;2003-10-14 17:00;METAR CYQM 141700Z 32007KT 15SM SKC 15/04 A2993 RMK SLP136
CYQM;2003-10-14 18:00;METAR CYQM 141800Z 25004KT 15SM FEW250 16/03 A2992 RMK CI1 TR CI SLP133
CYQM;2003-10-14 19:00;METAR CYQM 141900Z 29004KT 15SM FEW250 17/03 A2992 RMK CI1 TR CI SLP133
CYQM;2003-10-14 20:00;METAR CYQM 142000Z 27003KT 15SM FEW250 16/02 A2991 RMK CI0 SLP130
CYQM;2003-10-14 21:00;METAR CYQM 142100Z 20003KT 15SM FEW250 15/03 A2992 RMK CI1 SLP134
CYQM;2003-10-14 22:00;METAR CYQM 142200Z 18003KT 15SM FEW120 FEW250 13/04 A2993 RMK AC1CI1 SLP136
CYQM;2003-10-14 23:00;METAR CYQM 142300Z 15007KT 15SM FEW120 FEW250 10/07 A2992 RMK AC1CI1 AURBO SLP135
CYQM;2003-10-15 00:00;METAR CYQM 150000Z 16006KT 15SM FEW120 BKN250 10/06 A2992 RMK AC2CI2 SLP136
CYQM;2003-10-15 01:00;METAR CYQM 150100Z 16003KT 15SM BKN130 BKN250 09/06 A2992 RMK AC6CI1
CYQM;2003-10-15 02:00;METAR CYQM 150200Z 17002KT 15SM BKN130 09/06 A2992 RMK AC7 SLP134
CYQM;2003-10-15 03:00;METAR CYQM 150300Z 19003KT 15SM FEW130 BKN250 06/05 A2992 RMK AC2CI2 SLP132
CYQM;2003-10-15 04:00;METAR CYQM 150400Z 18002KT 15SM OVC120 07/06 A2992 RMK AC8 SLP135
CYQM;2003-10-15 05:00;METAR CYQM 150500Z 10005KT 15SM BKN120 OVC250 08/06 A2990 RMK AC6CI1 SLP126
CYQM;2003-10-15 06:00;METAR CYQM 150600Z 14006KT 15SM FEW120 OVC160 08/05 A2990 RMK AC2AS5 SLP127
CYQM;2003-10-15 07:00;METAR CYQM 150700Z 14008KT 15SM FEW120 OVC160 09/05 A2989 RMK AC2AS6 SLP123
CYQM;2003-10-15 08:00;METAR CYQM 150800Z 12009KT 15SM FEW120 OVC160 09/05 A2987 RMK AC2AS6 SLP117
CYQM;2003-10-15 09:00;METAR CYQM 150900Z 10011KT 15SM FEW050 SCT120 OVC160 09/05 A2984 RMK SC2AC2AS5 SLP106 SLP106
CYQM;2003-10-15 10:00;METAR CYQM 151000Z 12013KT 15SM SCT120 BKN160 10/05 A2983 RMK AC3AS2 SLP102
CYQM;2003-10-15 11:00;METAR CYQM 151100Z 09009KT 15SM FEW060 SCT120 BKN250 10/05 A2980 RMK SC2AC2CI1 SLP093 SLP093
CYQM;2003-10-15 12:00;METAR CYQM 151200Z 08007KT 15SM BKN016 OVC035 11/08 A2979 RMK SC6SC2 SLP091
CYQM;2003-10-15 13:00;METAR CYQM 151300Z 10009KT 15SM SCT016 BKN035 OVC100 12/09 A2974 RMK SC3SC2AC2 SLP073 SLP073
CYQM;2003-10-15 14:00;METAR CYQM 151400Z 12018G26KT 15SM FEW030 BKN120 OVC160 13/08 A2968 RMK SC2AC4AS2 PRESFR SLP054 PRESFR SLP054
CYQM;2003-10-15 15:00;METAR CYQM 151500Z 11017G27KT 15SM FEW035 BKN120 OVC160 13/06 A2966 RMK SC2AC4AS2 SLP047 SLP047
CYQM;2003-10-15 16:00;METAR CYQM 151600Z 11019G25KT 15SM SCT035 OVC120 14/08 A2963 RMK SC4AC4 SLP036
CYQM;2003-10-15 17:00;METAR CYQM 151700Z 12023G30KT 12SM VCSH SCT025 OVC080 14/10 A2956 RMK SC3AC5 PRESFR SLP013 PRESFR SLP013
CYQM;2003-10-15 18:00;METAR CYQM 151800Z 11028G37KT 12SM VCSH BKN025 OVC080 15/11 A2944 RMK SC6AC2 PRESFR SLP971 PRESFR SLP971
CYQM;2003-10-15 19:00;METAR CYQM 151900Z 10024G34KT 4SM -SHRA BR BKN020 OVC040 15/14 A2938 RMK SC6SC2 PRESFR SLP951
CYQM;2003-10-15 20:00;METAR CYQM 152000Z 10025G32KT 7SM -SHRA BKN015 OVC030 15/13 A2931 RMK SC6SC2 PRESFR SLP927 PRESFR SLP927 RMK SF2SC4SC2 PRESFR SLP904
CYQM;2003-10-15 22:00;METAR CYQM 152200Z 13027G36KT 3SM -SHRA BR SCT008 OVC012 14/14 A2921
CYQM;2003-10-15 23:00;METAR CYQM 152300Z 18017G25KT 15SM FEW007 SCT012 BKN100 14/13 A2927 SF1SC2AC2 SLP912
CYQM;2003-10-16 00:00;METAR CYQM 160000Z 16017KT 15SM FEW007 BKN060 13/12 A2927 RMK SF1SC6 SLP912
CYQM;2003-10-16 01:00;METAR CYQM 160100Z 18016G22KT 15SM BKN035 BKN060 14/11 A2927 RMK SC6SC2 SLP914
CYQM;2003-10-16 02:00;METAR CYQM 160200Z 18017G25KT 15SM OVC035 13/10 A2929 RMK SC8 SLP918
CYQM;2003-10-16 03:00;METAR CYQM 160300Z 19015G21KT 15SM BKN035 BKN080 13/10 A2930 RMK SC5AC1 SLP922
CYQM;2003-10-16 04:00;METAR CYQM 160400Z 19014G21KT 15SM SCT035 BKN050 BKN080 13/08 A2931 RMK SC3SC2AC2 SLP925 SLP925
CYQM;2003-10-16 05:00;METAR CYQM 160500Z 18017G24KT 15SM SCT035 SCT050 BKN080 12/07 A2931 RMK SC3SC1AC2 SLP928 SLP928
CYQM;2003-10-16 06:00;METAR CYQM 160600Z 18016G24KT 15SM FEW035 BKN090 11/06 A2933 RMK SC1AC6 SLP933
CYQM;2003-10-16 07:00;METAR CYQM 160700Z 20021G27KT 15SM FEW035 FEW050 BKN090 11/07 A2935 RMK SC1SC2AC4 SLP939 SLP939
CYQM;2003-10-16 08:00;METAR CYQM 160800Z 21019G26KT 15SM FEW035 BKN050 BKN090 11/06 A2938 RMK SC1SC5AC2 SLP951 SLP951
CYQM;2003-10-16 09:00;METAR CYQM 160900Z 22017G26KT 15SM BKN040 10/07 A2942 RMK SC6 SLP965
CYQM;2003-10-16 10:00;METAR CYQM 161000Z 22018G25KT 15SM FEW050 10/06 A2947 RMK SC2 SLP981
CYQM;2003-10-16 11:00;METAR CYQM 161100Z 22020G27KT 15SM FEW050 09/06 A2951 RMK SC2 SLP995
CYQM;2003-10-16 12:00;METAR CYQM 161200Z 21018G29KT 15SM FEW050 09/01 A2955 RMK SC2 SLP007
CYQM;2003-10-16 13:00;METAR CYQM 161300Z 22025G33KT 15SM SCT035 09/01 A2959 RMK CU3 SLP020
CYQM;2003-10-16 14:00;METAR CYQM 161400Z 24024G31KT 15SM SCT040 10/01 A2962 RMK CU4 SLP030
CYQM;2003-10-16 15:00;METAR CYQM 161500Z 23022G28KT 15SM SCT040 10/01 A2964 RMK CU3 SLP037
CYQM;2003-10-16 16:00;METAR CYQM 161600Z 22019G29KT 15SM BKN040 11/01 A2965 RMK SC6 SLP042
CYQM;2003-10-16 17:00;METAR CYQM 161700Z 23019KT 15SM BKN040 11/02 A2966 RMK SC7 SLP044
CYQM;2003-10-16 18:00;METAR CYQM 161800Z 23016KT 15SM BKN045 11/00 A2967 RMK SC7 SLP048
CYQM;2003-10-16 19:00;METAR CYQM 161900Z 25017G24KT 15SM BKN045 10/M01 A2968 RMK SC7 SLP054
CYQM;2003-10-16 20:00;METAR CYQM 162000Z 26018G25KT 15SM BKN040 10/00 A2972 RMK SC6 SLP066
CYQM;2003-10-16 21:00;METAR CYQM 162100Z 25016G25KT 15SM BKN040 10/M02 A2976 RMK SC6 SLP080
CYQM;2003-10-16 22:00;METAR CYQM 162200Z 23008KT 15SM FEW040 08/M02 A2978 RMK SC2 CU ASOCTD SLP086
CYQM;2003-10-16 23:00;METAR CYQM 162300Z 19006KT 15SM FEW040 07/M03 A2980 RMK SC1 SLP092
CYQM;2003-10-17 00:00;METAR CYQM 170000Z 18006KT 15SM SKC 05/M02 A2981 RMK SLP098
CYQM;2003-10-17 01:00;METAR CYQM 170100Z 20007KT 15SM FEW040 05/M01 A2982 RMK SC1 SLP101
CYQM;2003-10-17 02:00;METAR CYQM 170200Z 21004KT 15SM FEW100 05/M00 A2981 RMK AC1 LTGIC SW PAST HR SLP099 SLP099
CYQM;2003-10-17 03:00;METAR CYQM 170300Z 20007KT 15SM BKN100 06/01 A2981 RMK AC6 FRQ LTGICCCCG SSE-SW SLP096 SLP096
CYQM;2003-10-17 04:00;METAR CYQM 170400Z 22007KT 15SM BKN100 06/02 A2983 RMK AC6 LTGIC S PAST HR SLP102
CYQM;2003-10-17 05:00;METAR CYQM 170500Z 23012KT 15SM BKN100 06/02 A2984 RMK AC5 SLP106
CYQM;2003-10-17 06:00;METAR CYQM 170600Z 23010KT 15SM FEW100 05/02 A2985 RMK AC2 SLP110
CYQM;2003-10-17 07:00;METAR CYQM 170700Z 24010KT 15SM FEW100 04/02 A2987 RMK AC1 SLP117
CYQM;2003-10-17 08:00;METAR CYQM 170800Z 23008KT 15SM FEW100 04/01 A2989 RMK AC2 SLP125
CYQM;2003-10-17 09:00;METAR CYQM 170900Z 23009KT 15SM FEW100 03/00 A2991 RMK AC1 SLP131
CYQM;2003-10-17 10:00;METAR CYQM 171000Z 24010KT 15SM FEW012 FEW100 02/00 A2993 RMK CF1AC1 SLP138
CYQM;2003-10-17 11:00;METAR CYQM 171100Z 23010KT 15SM FEW015 FEW100 FEW250 02/M00 A2995 RMK CU1AC1CI1 SLP143 SLP143
CYQM;2003-10-17 12:00;METAR CYQM 171200Z 24013G19KT 15SM FEW020 FEW120 FEW250 03/00 A2996 RMK CU1AC1CI1 SLP150 SLP150
CYQM;2003-10-17 13:00;METAR CYQM 171300Z 26013G21KT 15SM FEW020 FEW120 FEW250 05/M00 A2998 RMK CU1AC1CI1 SLP156
CYQM;2003-10-17 14:00;METAR CYQM 171400Z 25019KT 15SM FEW025 FEW250 07/00 A2999 RMK CU2CI1 SLP159
CYQM;2003-10-17 16:00;METAR CYQM 171600Z 25020G25KT 15SM FEW032 FEW250 09/M03 A2997 RMK CU2CI1 SLP152
CYQM;2003-10-17 17:00;METAR CYQM 171700Z 25016G24KT 15SM BKN035 BKN250 08/M03 A2997 RMK CU5CI1
CYQM;2003-10-17 18:00;METAR CYQM 171800Z 26015G24KT 15SM FEW035 BKN040 09/M02 A2998 RMK CU2SC5 SLP154
CYQM;2003-10-17 19:00;METAR CYQM 171900Z 25023G33KT 15SM FEW035 BKN040 BKN090 09/M03 A2999 RMK CU2SC5AC1 SLP158
CYQM;2003-10-17 20:00;METAR CYQM 172000Z 26015KT 15SM FEW035 BKN050 BKN250 08/M02 A3001 RMK CU1SC5CI0 SLP164 SLP164
CYQM;2003-10-17 21:00;METAR CYQM 172100Z 27012G18KT 15SM FEW035 SCT050 BKN250 07/M02 A3003 RMK CU1SC3CI0 SLP171
CYQM;2003-10-17 22:00;METAR CYQM 172200Z 27008KT 15SM FEW035 SCT050 06/M03 A3005 RMK CU1SC4 TR CU SLP178
CYQM;2003-10-17 23:00;METAR CYQM 172300Z 24007KT 15SM FEW050 04/M01 A3006 RMK SC2 SLP183
CYQM;2003-10-18 00:00;METAR CYQM 180000Z 23007KT 15SM SKC 03/M03 A3008 RMK SLP188
CYQM;2003-10-18 01:00;METAR CYQM 180100Z 21007KT 15SM SKC 02/M01 A3008 RMK SLP191
CYQM;2003-10-18 02:00;METAR CYQM 180200Z 23008KT 15SM SKC 01/M01 A3009 RMK SLP193
CYQM;2003-10-18 03:00;METAR CYQM 180300Z 22005KT 15SM SKC 00/M01 A3008 RMK SLP190
CYQM;2003-10-18 04:00;METAR CYQM 180400Z 21005KT 15SM SKC 00/M02 A3009 RMK SLP193
CYQM;2003-10-18 06:00;METAR CYQM 180600Z 19004KT 15SM FEW250 M01/M02 A3008 RMK CI0 FROIN SLP191
CYQM;2003-10-18 07:00;METAR CYQM 180700Z 22004KT 15SM FEW250 M01/M02 A3008 RMK CI0 FROIN SLP189
CYQM;2003-10-18 08:00;METAR CYQM 180800Z 22005KT 15SM BKN250 M01/M02 A3008 RMK CI1 FROIN SLP189
CYQM;2003-10-18 09:00;METAR CYQM 180900Z 27002KT 15SM FEW120 OVC250 M01/M02 A3008 RMK AC1CS2 FROIN HALO SLP189 SLP189
CYQM;2003-10-18 10:00;METAR CYQM 181000Z 22005KT 15SM BKN120 OVC250 M01/M02 A3008 RMK AC6CS1 SLP190
CYQM;2003-10-18 11:00;METAR CYQM 181100Z 27002KT 15SM FEW050 BKN120 OVC250 M00/M02 A3008 RMK SC2AC4CI1 SLP190
CYQM;2003-10-18 12:00;METAR CYQM 181200Z 00000KT 15SM FEW050 BKN100 OVC250 00/M02 A3008 RMK SC2AC4CI1 SLP191 SLP191
CYQM;2003-10-18 13:00;METAR CYQM 181300Z 17003KT 15SM BKN045 OVC100 02/01 A3008 RMK SC6AC2
CYQM;2003-10-18 14:00;METAR CYQM 181400Z 00000KT 15SM SCT040 BKN080 OVC140 05/00 A3007 RMK SC3AC4AS1 SLP187 SLP187
CYQM;2003-10-18 15:00;METAR CYQM 181500Z 07003KT 15SM SCT040 OVC090 07/M01 A3005 RMK SC4AC4 SHS S AND W-NW SLP179 W-NW SLP179
CYQM;2003-10-18 16:00;METAR CYQM 181600Z 04004KT 15SM FEW040 OVC090 07/M01 A3002 RMK SC2AC6 SHS SE-S AND W-N SLP169 AND W-N SLP169
CYQM;2003-10-18 17:00;METAR CYQM 181700Z 03004KT 15SM -SHRA FEW035 OVC090 08/01 A3000 RMK SC2AC6 SLP162
CYQM;2003-10-18 18:00;METAR CYQM 181800Z 03005KT 15SM -SHRA BKN035 OVC080 08/01 A2998 RMK SC5AS3 SLP156
CYQM;2003-10-18 19:00;METAR CYQM 181900Z 06004KT 15SM -SHRA SCT035 OVC080 07/02 A2997 RMK SC3AS5 SLP153
CYQM;2003-10-18 20:00;METAR CYQM 182000Z 08003KT 15SM -RA BKN025 OVC070 06/04 A2998 RMK SC5AS3 SLP157
CYQM;2003-10-18 21:00;METAR CYQM 182100Z 05003KT 15SM -RA FEW030 OVC070 06/04 A2997 RMK SC2AC6 SLP151
CYQM;2003-10-18 22:00;METAR CYQM 182200Z 06003KT 15SM -RA FEW030 OVC070 05/04 A2995 RMK SC1AC7 SLP145
CYQM;2003-10-18 23:00;METAR CYQM 182300Z 04003KT 15SM -RA BKN030 OVC070 05/04 A2994 RMK SC5AC3 SLP141
CYQM;2003-10-19 00:00;METAR CYQM 190000Z 04002KT 15SM OVC030 05/04 A2992 RMK SC8 SLP136
CYQM;2003-10-19 01:00;METAR CYQM 190100Z 00000KT 15SM -SHRA OVC030 05/04 A2992 RMK SC8 SLP135
CYQM;2003-10-19 02:00;METAR CYQM 190200Z 00000KT 15SM OVC020 05/04 A2989 RMK SC8 SLP126
CYQM;2003-10-19 03:00;METAR CYQM 190300Z 31004KT 15SM -SHRA FEW005 OVC025 04/04 A2987 RMK SF1SC7 SLP117
CYQM;2003-10-19 04:00;METAR CYQM 190400Z 32004KT 15SM -SHRA OVC025 04/04 A2985 RMK SC8 SLP112
CYQM;2003-10-19 05:00;METAR CYQM 190500Z 30005KT 15SM FEW025 OVC055 04/03 A2984 RMK SC2SC6 SLP108
CYQM;2003-10-19 06:00;METAR CYQM 190600Z 33003KT 15SM -SHRA FEW025 OVC055 04/03 A2983 RMK SC2SC6 SLP104
CYQM;2003-10-19 07:00;METAR CYQM 190700Z 31007KT 15SM -RA OVC050 04/03 A2982 RMK SC8 SLP100
CYQM;2003-10-19 08:00;METAR CYQM 190800Z 31005KT 15SM BKN055 OVC070 04/03 A2981 RMK SC6AC2 SLP098
CYQM;2003-10-19 09:00;METAR CYQM 190900Z 34004KT 15SM -SHRA FEW005 OVC024 04/03 A2981 RMK SF1SC7 SLP096
CYQM;2003-10-19 10:00;METAR CYQM 191000Z 28006KT 15SM FEW006 OVC070 04/02 A2980 RMK SF2AC6 SLP095
CYQM;2003-10-19 11:00;METAR CYQM 191100Z 25005KT 15SM -SHRA FEW006 FEW025 OVC070 03/02 A2980 RMK SF1CU1AC6 SLP095
CYQM;2003-10-19 12:00;METAR CYQM 191200Z 31008KT 15SM -SHRA FEW004 BKN027 OVC060 04/02 A2981 RMK SF1SC5SC2 SLP097
CYQM;2003-10-19 13:00;METAR CYQM 191300Z 29006KT 15SM -SHRA SCT005 BKN015 OVC030 04/03 A2982 RMK SF3SC3SC2 SLP102
CYQM;2003-10-19 14:00;METAR CYQM 191400Z 31005KT 15SM -SHRA SCT005 OVC030 04/04 A2982 RMK SF3SC5 SLP100
CYQM;2003-10-19 15:00;METAR CYQM 191500Z 31006KT 15SM -SHRA BKN006 OVC030 05/04 A2982 RMK SF6SC2
CYQM;2003-10-19 16:00;METAR CYQM 191600Z 24007KT 15SM -SHRAPL SCT008 BKN016 OVC030 05/04 A2981 RMK SF3SC4SC1 VIS LWR SE SLP099 SF3SC4SC1 VIS LWR SE SLP099
CYQM;2003-10-19 17:00;METAR CYQM 191700Z 28009KT 15SM -SHRA FEW008 BKN016 OVC030 06/04 A2981 RMK SF2SC5SC1 SLP096
CYQM;2003-10-19 18:00;METAR CYQM 191800Z 30002KT 15SM -SHRA FEW008 BKN018 OVC030 05/02 A2981 RMK SF1SC5SC2 SLP098
CYQM;2003-10-19 19:00;METAR CYQM 191900Z 28006KT 15SM -SHRA FEW008 BKN025 OVC070 05/03 A2982 RMK SF1CU4AC3 SLP100
CYQM;2003-10-19 20:00;METAR CYQM 192000Z 23007KT 15SM FEW008 FEW025 BKN100 06/03 A2982 RMK SF1CU2AC5 SHS NE-SE SLP102 SHS NE-SE SLP102
CYQM;2003-10-19 21:00;METAR CYQM 192100Z 27005KT 15SM FEW025 BKN100 05/02 A2984 RMK CU1AC6 SHS DIST N-SE SLP107 N-SE SLP107
CYQM;2003-10-19 22:00;METAR CYQM 192200Z 22005KT 15SM FEW025 BKN080 04/01 A2985 RMK CU2AC5 SHS DIST SW-NW NE-E SLP111 SW-NW NE-E SLP111
CYQM;2003-10-19 23:00;METAR CYQM 192300Z 23006KT 15SM FEW025 BKN080 04/01 A2986 RMK CU1AC6 SLP116
CYQM;2003-10-20 00:00;METAR CYQM 200000Z 29006KT 15SM OVC080 03/00 A2988 RMK AC8 SLP122
CYQM;2003-10-20 01:00;METAR CYQM 200100Z 29006KT 15SM OVC080 03/02 A2989 RMK AC8 SLP126
CYQM;2003-10-20 02:00;METAR CYQM 200200Z 26006KT 15SM OVC080 03/01 A2991 RMK AC8 SLP130
CYQM;2003-10-20 03:00;METAR CYQM 200300Z 26007KT 15SM OVC090 02/M01 A2991 RMK AC8 SLP133
CYQM;2003-10-20 04:00;METAR CYQM 200400Z 23006KT 15SM FEW090 00/M01 A2992 RMK AC2 SLP134
CYQM;2003-10-20 05:00;METAR CYQM 200500Z 23008KT 15SM FEW090 00/M02 A2993 RMK AC2 SLP139
CYQM;2003-10-20 06:00;METAR CYQM 200600Z 24007KT 15SM FEW090 M01/M03 A2994 RMK AC1 SLP143
CYQM;2003-10-20 07:00;METAR CYQM 200700Z 22007KT 15SM FEW090 M02/M04 A2995 RMK AC2 FROIN SLP146
CYQM;2003-10-20 08:00;METAR CYQM 200800Z 24007KT 15SM BKN075 M01/M03 A2996 RMK AC7 SLP148
CYQM;2003-10-20 09:00;METAR CYQM 200900Z 22007KT 15SM BKN075 M01/M03 A2996 RMK AC7 SLP150
CYQM;2003-10-20 10:00;METAR CYQM 201000Z 23006KT 15SM BKN070 M00/M03 A2998 RMK AC7 SLP155
CYQM;2003-10-20 11:00;METAR CYQM 201100Z 25006KT 15SM FEW012 BKN030 BKN100 00/M03 A2999 RMK CU1SC6AC1 CU TR SLP158 CU TR SLP158
CYQM;2003-10-20 12:00;METAR CYQM 201200Z 23009KT 15SM FEW012 FEW030 01/M02 A3000 RMK CU1SC2 SLP162
CYQM;2003-10-20 13:00;METAR CYQM 201300Z 25008KT 15SM FEW020 BKN030 02/M03 A3000 RMK CU1SC6 SLP161
CYQM;2003-10-20 14:00;METAR CYQM 201400Z 27015KT 15SM FEW030 SCT040 04/M04 A2998 RMK CU1SC3 SLP156
CYQM;2003-10-20 15:00;METAR CYQM 201500Z 27015KT 15SM FEW030 BKN040 04/M05 A2997 RMK CU1SC6 SLP152
CYQM;2003-10-20 16:00;METAR CYQM 201600Z 25017KT 15SM SCT040 05/M05 A2995 RMK SC3 SLP144
CYQM;2003-10-20 17:00;METAR CYQM 201700Z 27016G22KT 15SM FEW040 06/M05 A2992 RMK SC2 SLP136
CYQM;2003-10-20 18:00;METAR CYQM 201800Z 27015G21KT 15SM FEW040 SCT140 07/M06 A2990 RMK SC2AC2 SLP129
CYQM;2003-10-20 19:00;METAR CYQM 201900Z 25017G25KT 15SM FEW040 SCT140 07/M05 A2989 RMK SC2AC1 SLP126
CYQM;2003-10-20 20:00;METAR CYQM 202000Z 24014G19KT 15SM BKN040 BKN140 06/M05 A2989 RMK SC6AC1 SLP125
CYQM;2003-10-20 21:00;METAR CYQM 202100Z 25010KT 15SM FEW035 SCT120 05/M05 A2988 RMK SC2AC1 SLP123
CYQM;2003-10-20 22:00;METAR CYQM 202200Z 21005KT 15SM FEW030 FEW100 03/M05 A2989 RMK SC2AC1
CYQM;2003-10-20 23:00;METAR CYQM 202300Z 20006KT 15SM SCT100 02/M03 A2989 RMK AC4 SLP125
CYQM;2003-10-21 00:00;METAR CYQM 210000Z 23005KT 15SM BKN100 02/M03 A2989 RMK AC5 SLP127
CYQM;2003-10-21 01:00;METAR CYQM 210100Z 28005KT 15SM FEW020 OVC038 03/M04 A2992 RMK SC2SC6 SH DIST NW SLP134 SLP134
CYQM;2003-10-21 02:00;METAR CYQM 210200Z 23010KT 15SM -SHSN FEW015 OVC032 03/M03 A2991 RMK SC2SC6 SLP131
CYQM;2003-10-21 03:00;METAR CYQM 210300Z 22008KT 15SM FEW025 OVC050 03/M02 A2991 RMK SC1SC7 SLP132
CYQM;2003-10-21 04:00;METAR CYQM 210400Z 21006KT 15SM SCT100 02/M04 A2992 RMK AC3 SLP135
CYQM;2003-10-21 05:00;METAR CYQM 210500Z 22004KT 15SM FEW100 00/M05 A2992 RMK AC2 SLP134
CYQM;2003-10-21 06:00;METAR CYQM 210600Z 22005KT 15SM FEW100 00/M03 A2992 RMK AC2 SLP135
CYQM;2003-10-21 07:00;METAR CYQM 210700Z 24003KT 15SM FEW100 00/M03 A2991 RMK AC2 SLP131
CYQM;2003-10-21 08:00;METAR CYQM 210800Z 30002KT 15SM SCT100 M00/M02 A2990 RMK AC4 SLP128
CYQM;2003-10-21 09:00;METAR CYQM 210900Z 00000KT 15SM BKN090 M01/M02 A2989 RMK AC6 SLP125
CYQM;2003-10-21 10:00;METAR CYQM 211000Z 14006KT 15SM BKN100 M00/M01 A2990 RMK AC7 FROIN SLP129 CU1SC5AC2CI1 SLP121
CYQM;2003-10-21 12:00;METAR CYQM 211200Z 10004KT 15SM -SHRA FEW012 BKN040 BKN100 OVC220 01/M01 A2987 RMK CU1SC5AC2CI1 SLP118 RMK CU1SC5AC2CI1 SLP118
CYQM;2003-10-21 13:00;METAR CYQM 211300Z 09006KT 8SM -SHRA SCT020 OVC040 01/00 A2984 RMK SC3SC5 SLP107
CYQM;2003-10-21 14:00;METAR CYQM 211400Z 10005KT 6SM -SHRA BR FEW008 BKN013 OVC040 02/01 A2981 RMK SF1SC5SC2 BLN EST SLP097 SF1SC5SC2 BLN EST SLP097
CYQM;2003-10-21 15:00;METAR CYQM 211500Z 09005KT 5SM -RA BR SCT006 OVC013 03/03 A2978 RMK SF3SC5 SLP089
CYQM;2003-10-21 16:00;METAR CYQM 211600Z 11007KT 3SM -RA BR BKN006 OVC013 04/04 A2974 RMK SF5SC3 SLP073 /R10/ PRESFR SLP046 PREFR SLP046
CYQM;2003-10-21 18:00;METAR CYQM 211800Z 09012G17KT 8SM -RA BKN006 OVC013 04/04 A2958 RMK SF7SC1 PRESFR SLP020 SLP020
CYQM;2003-10-21 19:00;METAR CYQM 211900Z 09010KT 8SM -RA BKN006 OVC013 05/05 A2951 RMK SF7SC1 PRESFR SLP997 SLP997
CYQM;2003-10-21 21:00;METAR CYQM 212100Z 15009KT 2 1/2SM -RA BR OVC006 10/09 A2941 RMK SF8 SLP963
CYQM;2003-10-21 22:00;METAR CYQM 212200Z 16016G22KT 8SM -RA SCT006 OVC025 10/09 A2939 RERA RMK SF3SC5 SLP955 SLP955
CYQM;2003-10-21 23:00;METAR CYQM 212300Z 17015G20KT 8SM -RA FEW006 OVC035 10/09 A2935 RMK SF2SC6 SLP942
CYQM;2003-10-22 00:00;METAR CYQM 220000Z 17007KT 12SM -RA FEW012 OVC030 12/11 A2933 RMK SC2SC6 SLP934
CYQM;2003-10-22 02:00;METAR CYQM 220200Z 32007KT 12SM -RA BKN005 OVC015 07/07 A2936 RERA RMK SF6SC2 SLP944 SLP944
CYQM;2003-10-22 04:00;METAR CYQM 220400Z 33010G15KT 12SM OVC004 07/06 A2940 RMK SF8 SLP959 SLP004 SLP008 SF6SC2 SLP008 SLP012 SLP014
CYQM;2003-10-22 15:00;METAR CYQM 221500Z 02012KT 8SM -RA BKN007 OVC012 05/04 A2955 RMK SF6SC2 VIS LWR S SLP008 SF6SC2 SLP003 SLP003 SF6SC2 SLP999 SLP999
CYQM;2003-10-22 19:00;METAR CYQM 221900Z 04014KT 1 1/2SM -RADZ BR BKN004 OVC012 06/06 A2950 RMK SF6SC2 SLP991 SLP991
CYQM;2003-10-22 20:00;METAR CYQM 222000Z 03009G16KT 1 1/2SM -RA BR BKN005 OVC012 06/06 A2950 RMK SF6SC2 SLP993 SLP993
CYQM;2003-10-22 21:00;METAR CYQM 222100Z 03016G21KT 2SM -RA BR BKN005 OVC010 06/06 A2948 RMK SF7SC1 SLP986 SLP986
CYQM;2003-10-22 22:00;METAR CYQM 222200Z 03018KT 2 1/2SM -RA BR FEW003 OVC005 06/06 A2947 RMK SF2SF6 SLP982 SLP982
CYQM;2003-10-22 23:00;METAR CYQM 222300Z 01013KT 6SM -RADZ BR FEW003 OVC005 06/05 A2946 RMK SF2SF6 SLP979 SLP979
CYQM;2003-10-23 00:00;METAR CYQM 230000Z 36017KT 2 1/2SM -RADZ BR FEW003 OVC006 05/05 A2947 RMK SF2SF6 SLP981 SLP981
CYQM;2003-10-23 01:00;METAR CYQM 230100Z 01016G21KT 8SM -RA FEW004 BKN006 OVC012 05/05 A2945 RMK SF1SF6SC2 SLP976
CYQM;2003-10-23 02:00;METAR CYQM 230200Z 01017G22KT 7SM -RA FEW004 BKN006 OVC012 05/05 A2943 RMK SF1SF6SC1 SLP970
CYQM;2003-10-23 03:00;METAR CYQM 230300Z 01016G26KT 7SM -RA BKN007 OVC012 05/05 A2940 RMK SF6SF2 SLP959
CYQM;2003-10-23 04:00;METAR CYQM 230400Z 02017G25KT 10SM -RA FEW003 BKN006 OVC010 06/05 A2938 RMK SF1SF6SF1 SLP952
CYQM;2003-10-23 05:00;METAR CYQM 230500Z 01016G24KT 10SM -RA BKN007 OVC011 06/05 A2935 RMK SF6SC2 SLP943
CYQM;2003-10-23 06:00;METAR CYQM 230600Z 01018KT 12SM -RA BKN007 OVC011 06/05 A2934 RMK SF7SC1 SLP936
CYQM;2003-10-23 07:00;METAR CYQM 230700Z 01017G25KT 8SM -RADZ OVC005 06/05 A2929 RMK SF8 SLP919
CYQM;2003-10-23 08:00;METAR CYQM 230800Z 36018G30KT 6SM -DZRA BR OVC005 06/05 A2924 RMK SF8 SLP903
CYQM;2003-10-23 09:00;METAR CYQM 230900Z 36018G24KT 6SM -RADZ BR OVC005 06/05 A2922 RMK SF8 SLP896
CYQM;2003-10-23 10:00;METAR CYQM 231000Z 36016G22KT 3SM -RADZ BR OVC005 06/05 A2918 RMK SF8 SLP882
CYQM;2003-10-23 11:00;METAR CYQM 231100Z 36017G24KT 3SM -RADZ BR OVC005 06/06 A2914 RMK SF8 SLP871
CYQM;2003-10-23 12:00;METAR CYQM 231200Z 36017KT 4SM -RADZ BR OVC006 06/06 A2912 RMK SF8 SLP865
CYQM;2003-10-23 13:00;METAR CYQM 231300Z 34011KT 1 1/2SM -DZRA BR OVC005 06/06 A2913 RMK SF8 SLP868
CYQM;2003-10-23 14:00;METAR CYQM 231400Z 30008KT 1 1/2SM -RADZ BR BKN006 OVC011 06/05 A2915 RMK SF6SC2 SLP872 SLP872
CYQM;2003-10-23 15:00;METAR CYQM 231500Z 26013KT 2SM -DZRA BR OVC004 04/04 A2918 RMK SF8 PRESRR SLP883
CYQM;2003-10-23 16:00;METAR CYQM 231600Z 27011KT 15SM OVC006 04/04 A2916 RMK SF8 SLP877
CYQM;2003-10-23 17:00;METAR CYQM 231700Z 27011KT 15SM OVC006 04/04 A2916 RMK SF8 SLP878
CYQM;2003-10-23 18:00;METAR CYQM 231800Z 23010KT 15SM OVC007 04/03 A2919 RMK SF8 VCSH SW VIS SW 8 SLP886
CYQM;2003-10-23 19:00;METAR CYQM 231900Z 24011KT 15SM BKN011 OVC020 04/03 A2920 RMK SC6SC2 CIG RAD SLP892 SLP892 SLP901
CYQM;2003-10-23 21:00;METAR CYQM 232100Z 23010KT 8SM SCT002 OVC020 05/05 A2925 RMK SF3SC4 INTMT L- SLP908 SLP908 SLP929
CYQM;2003-10-24 00:00;METAR CYQM 240000Z 20007KT 12SM SCT008 BKN015 OVC030 05/04 A2934 RMK SF3SC4SC1 SLP937 SLP937
CYQM;2003-10-24 01:00;METAR CYQM 240100Z 20010KT 15SM FEW008 BKN019 05/03 A2936 RMK SF2SC5 SLP944
CYQM;2003-10-24 02:00;METAR CYQM 240200Z 22008KT 15SM FEW008 BKN022 04/02 A2938 RMK SF2SC6 SLP952
CYQM;2003-10-24 03:00;METAR CYQM 240300Z 22010KT 15SM FEW020 FEW100 03/01 A2939 RMK CF2AC1 SLP956
CYQM;2003-10-24 04:00;METAR CYQM 240400Z 23011KT 15SM FEW010 FEW050 SCT100 02/00 A2942 RMK SF1SC1AC2 SLP965 SLP965
CYQM;2003-10-24 05:00;METAR CYQM 240500Z 22012KT 15SM SCT010 SCT050 02/00 A2945 RMK SF3SC1 SLP976
CYQM;2003-10-24 06:00;METAR CYQM 240600Z 21014KT 15SM BKN018 02/00 A2949 RMK SC7 SLP988
CYQM;2003-10-24 07:00;METAR CYQM 240700Z 22012G18KT 15SM OVC017 02/M01 A2951 RMK SC8 SLP997
CYQM;2003-10-24 08:00;METAR CYQM 240800Z 22010KT 15SM FEW017 BKN030 01/M01 A2954 RMK SC2SC2 SLP007
CYQM;2003-10-24 09:00;METAR CYQM 240900Z 22007KT 15SM FEW030 M00/M01 A2957 RMK SC2 SLP017
CYQM;2003-10-24 10:00;METAR CYQM 241000Z 23014KT 15SM FEW009 SCT020 M01/M02 A2960 RMK SF2SC2 SLP028
CYQM;2003-10-24 11:00;METAR CYQM 241100Z 23011G16KT 15SM FEW009 SCT020 00/M01 A2963 RMK SF2SC1 SLP038
CYQM;2003-10-24 12:00;METAR CYQM 241200Z 23016KT 15SM FEW009 FEW020 01/M01 A2967 RMK SF1SC1 SLP050
CYQM;2003-10-24 13:00;METAR CYQM 241300Z 25014G19KT 15SM FEW009 SCT020 03/M01 A2970 RMK SF1SC2 SLP062
CYQM;2003-10-24 14:00;METAR CYQM 241400Z 23019G26KT 15SM BKN022 03/M01 A2972 RMK SC6 SLP066
CYQM;2003-10-24 15:00;METAR CYQM 241500Z 24015G21KT 15SM BKN022 04/M01 A2975 RMK SC6 SLP077
CYQM;2003-10-24 17:00;METAR CYQM 241700Z 23013KT 15SM FEW012 BKN020 05/M01 A2978 RMK SC2SC6 SLP086
CYQM;2003-10-24 18:00;METAR CYQM 241800Z 23010G16KT 15SM VCSH FEW012 BKN025 05/M00 A2980 RMK SC2SC6 SLP094 SLP094 SLP102
CYQM;2003-10-24 20:00;METAR CYQM 242000Z 23014KT 12SM -SHRA FEW012 BKN025 04/01 A2986 RMK SC2SC6 SLP113
CYQM;2003-10-24 21:00;METAR CYQM 242100Z 25014G19KT 15SM FEW012 FEW030 SCT140 BKN250 04/01 A2989 RMK CU1SC2AC1CI1 SLP125 CU1SC2AC1CI1 SLP125
CYQM;2003-10-24 22:00;METAR CYQM 242200Z 26010KT 15SM FEW030 SCT140 BKN250 03/01 A2993 RMK SC1AC2CI2 SLP140 SLP140
CYQM;2003-10-24 23:00;METAR CYQM 242300Z 25009KT 15SM FEW030 BKN250 03/00 A2997 RMK SC2CI4 SLP154
CYQM;2003-10-25 00:00;METAR CYQM 250000Z 26011KT 15SM FEW030 BKN250 03/00 A3002 RMK SC2CI4 SLP168
CYQM;2003-10-25 01:00;METAR CYQM 250100Z 26009KT 15SM BKN050 02/M00 A3005 RMK SC6 SLP180
CYQM;2003-10-25 02:00;METAR CYQM 250200Z 27011KT 15SM SCT050 02/M01 A3008 RMK SC4 SLP190
CYQM;2003-10-25 03:00;METAR CYQM 250300Z 27011KT 15SM BKN040 02/M01 A3010 RMK SC6 SLP197
CYQM;2003-10-25 04:00;METAR CYQM 250400Z 27011G16KT 15SM FEW040 01/M01 A3013 RMK SC2 SLP207
CYQM;2003-10-25 05:00;METAR CYQM 250500Z 26011KT 15SM SKC 00/M02 A3015 RMK SLP213
CYQM;2003-10-25 06:00;METAR CYQM 250600Z 25011KT 15SM SKC M00/M02 A3019 RMK SLP226
CYQM;2003-10-25 07:00;METAR CYQM 250700Z 26011KT 15SM SKC M00/M02 A3022 RMK SLP239
CYQM;2003-10-25 08:00;METAR CYQM 250800Z 26010KT 15SM SKC M00/M02 A3026 RMK SLP250
CYQM;2003-10-25 09:00;METAR CYQM 250900Z 26009KT 15SM SKC M01/M02 A3029 RMK SLP260
CYQM;2003-10-25 10:00;METAR CYQM 251000Z 24009KT 15SM SKC M01/M02 A3031 RMK SLP268
CYQM;2003-10-25 11:00;METAR CYQM 251100Z 24009KT 15SM FEW250 M00/M03 A3036 RMK CI1 SLP283
CYQM;2003-10-25 12:00;METAR CYQM 251200Z 23008KT 15SM FEW250 02/M01 A3037 RMK CI1 SLP289
CYQM;2003-10-25 13:00;METAR CYQM 251300Z 26010KT 15SM SCT250 02/M02 A3039 RMK CI2 SLP295
CYQM;2003-10-25 14:00;METAR CYQM 251400Z 22008KT 15SM BKN250 05/M03 A3041 RMK CI3 SLP300
CYQM;2003-10-25 15:00;METAR CYQM 251500Z 25008KT 15SM BKN250 05/M03 A3040 RMK CI3 SLP298
CYQM;2003-10-25 16:00;METAR CYQM 251600Z 23010G17KT 15SM FEW035 BKN250 06/M02 A3040 RMK CU1CI2 SLP298
CYQM;2003-10-25 17:00;METAR CYQM 251700Z 24016G21KT 15SM FEW035 SCT180 BKN220 06/M02 A3039 RMK CU1AC2CI2 SLP293
CYQM;2003-10-25 18:00;METAR CYQM 251800Z 23014G22KT 15SM FEW035 SCT180 BKN220 08/M01 A3038 RMK CU1AC2CI2 SLP291
CYQM;2003-10-25 19:00;METAR CYQM 251900Z 26010G16KT 15SM FEW035 SCT180 BKN220 08/M01 A3039 RMK CU1AC2CI2 SLP294
CYQM;2003-10-25 20:00;METAR CYQM 252000Z 25011KT 15SM FEW035 BKN120 BKN220 08/00 A3039 RMK CU1AC4CI2 SLP296 SLP296
CYQM;2003-10-25 21:00;METAR CYQM 252100Z 25006KT 15SM BKN110 BKN220 07/M02 A3040 RMK AC6CI2 SLP297
CYQM;2003-10-25 22:00;METAR CYQM 252200Z 18003KT 15SM BKN100 BKN220 06/M01 A3039 RMK AC5CI2
CYQM;2003-10-25 23:00;METAR CYQM 252300Z 20006KT 15SM OVC100 06/M01 A3041 RMK AC8 SLP300
CYQM;2003-10-26 00:00;METAR CYQM 260000Z 19008KT 15SM OVC100 06/M01 A3040 RMK AC8 SLP298
CYQM;2003-10-26 01:00;METAR CYQM 260100Z 20006KT 15SM BKN100 OVC140 05/M01 A3040 RMK AC5AC3 SLP298
CYQM;2003-10-26 02:00;METAR CYQM 260200Z 20006KT 15SM BKN100 OVC140 06/M00 A3039 RMK AC5AC3 SLP295
CYQM;2003-10-26 03:00;METAR CYQM 260300Z 21009KT 15SM BKN100 OVC140 06/00 A3039 RMK AC5AC3 SLP293
CYQM;2003-10-26 04:00;METAR CYQM 260400Z 20010KT 15SM BKN100 OVC140 06/01 A3038 RMK AC5AC3 SLP291
CYQM;2003-10-26 05:00;METAR CYQM 260500Z 20009KT 15SM BKN080 OVC100 06/02 A3036 RMK AC5AC3 SLP286
CYQM;2003-10-26 06:00;METAR CYQM 260600Z 21009KT 15SM BKN080 OVC100 07/02 A3036 RMK AC5AC3 SLP282
CYQM;2003-10-26 07:00;METAR CYQM 260700Z 21009KT 15SM OVC080 07/03 A3035 RMK AC8 SLP281
CYQM;2003-10-26 08:00;METAR CYQM 260800Z 21009KT 15SM OVC080 07/03 A3035 RMK AC8 SLP280
CYQM;2003-10-26 09:00;METAR CYQM 260900Z 19009KT 15SM OVC060 07/04 A3034 RMK SC8 SLP277
CYQM;2003-10-26 10:00;METAR CYQM 261000Z 20007KT 15SM OVC060 07/05 A3034 RMK SC8 SLP278
CYQM;2003-10-26 11:00;METAR CYQM 261100Z 20006KT 15SM OVC060 08/05 A3035 RMK SC8 SLP280
CYQM;2003-10-26 12:00;METAR CYQM 261200Z 20006KT 15SM FEW050 BKN070 07/04 A3035 RMK SC1AC6 SLP281
CYQM;2003-10-26 13:00;METAR CYQM 261300Z 21011KT 15SM FEW020 BKN070 10/06 A3035 RMK SC2AC4 SLP279
CYQM;2003-10-26 14:00;METAR CYQM 261400Z 20011G16KT 15SM FEW012 BKN035 10/07 A3033 RMK SC2SC6 SLP275
CYQM;2003-10-26 15:00;METAR CYQM 261500Z 22012G17KT 15SM FEW012 BKN030 11/07 A3033 RMK SC2SC6
CYQM;2003-10-26 16:00;METAR CYQM 261600Z 19010KT 15SM OVC013 12/08 A3030 RMK SC8 SLP265
CYQM;2003-10-26 17:00;METAR CYQM 261700Z 16008KT 15SM -SHRA FEW008 OVC013 10/08 A3028 RMK SF2SC6 SLP255
CYQM;2003-10-26 18:00;METAR CYQM 261800Z 16010KT 15SM -SHRA FEW008 BKN013 OVC035 10/08 A3025 RMK SF2SC5SC2 SLP245
CYQM;2003-10-26 19:00;METAR CYQM 261900Z 16012G18KT 10SM SCT008 OVC013 10/08 A3022 RMK SF3SC5 SLP236
CYQM;2003-10-26 20:00;METAR CYQM 262000Z 17015KT 10SM SCT008 BKN014 OVC025 10/09 A3019 RMK SF3SC3SC2 SLP228 SLP228
CYQM;2003-10-26 21:00;METAR CYQM 262100Z 17016G22KT 15SM FEW008 BKN014 OVC060 11/09 A3018 RMK SF2SC2SC3 SLP223 SLP223
CYQM;2003-10-26 22:00;METAR CYQM 262200Z 18016KT 15SM FEW008 BKN030 BKN060 11/09 A3017 RMK SF1SC6SC1 SLP220 SLP220
CYQM;2003-10-26 23:00;METAR CYQM 262300Z 18018KT 15SM FEW008 SCT030 OVC040 11/09 A3016 RMK SF1SC2SC5 SLP216 SLP216
CYQM;2003-10-27 00:00;METAR CYQM 270000Z 19014G25KT 15SM FEW008 BKN040 OVC100 12/09 A3017 RMK SF1SC6AC1 SLP217 SLP217
CYQM;2003-10-27 01:00;METAR CYQM 270100Z 19019G25KT 15SM BKN040 OVC100 12/07 A3016 RMK SC6AC2 SLP215
CYQM;2003-10-27 02:00;METAR CYQM 270200Z 19019G27KT 15SM BKN040 OVC100 12/07 A3015 RMK SC6AC2 SLP211
CYQM;2003-10-27 03:00;METAR CYQM 270300Z 19013G22KT 15SM BKN040 BKN100 12/07 A3013 RMK SC5AC2 SLP205
CYQM;2003-10-27 04:00;METAR CYQM 270400Z 18015G20KT 15SM FEW040 BKN080 12/07 A3011 RMK SC2AC5 SLP197
CYQM;2003-10-27 05:00;METAR CYQM 270500Z 18015KT 15SM FEW020 SCT040 BKN080 12/07 A3010 RMK SC1SC2AC4 SLP195 SLP195
CYQM;2003-10-27 06:00;METAR CYQM 270600Z 18014KT 15SM BKN018 BKN080 11/09 A3011 RMK SC5AC2 SLP198
CYQM;2003-10-27 07:00;METAR CYQM 270700Z 18012G19KT 15SM BKN018 OVC100 12/10 A3010 RMK SC5AC3 SLP194
CYQM;2003-10-27 08:00;METAR CYQM 270800Z 19014G20KT 15SM SCT020 OVC100 14/10 A3008 RMK SC3AC5 SLP189
CYQM;2003-10-27 09:00;METAR CYQM 270900Z 19017KT 15SM FEW020 SCT050 OVC100 14/10 A3007 RMK SC1SC2AC5 SLP185 SLP185
CYQM;2003-10-27 10:00;METAR CYQM 271000Z 19013KT 15SM FEW020 SCT040 BKN120 BKN250 14/11 A3005 RMK SC1SC2AC2CI1 SLP178
CYQM;2003-10-27 11:00;METAR CYQM 271100Z 18016G21KT 15SM SCT019 BKN040 BKN120 OVC250 13/11 A3005 RMK SC4SC2AC1CI1 SLP177 SC4SC2AC1CI1 SLP177
CYQM;2003-10-27 12:00;METAR CYQM 271200Z 17013KT 15SM BKN018 BKN040 BKN120 OVC220 14/12 A3005 RMK SC5SC1AC2CI1 SLP178
CYQM;2003-10-27 13:00;METAR CYQM 271300Z 18011KT 15SM BKN018 BKN120 OVC220 15/13 A3004 RMK SC6AC1CI1 SLP175 SLP175
CYQM;2003-10-27 14:00;METAR CYQM 271400Z 18012G17KT 15SM VCSH BKN012 BKN120 OVC220 16/13 A3003 RMK SC6AC1CI1 SLP172 SC6AC1CI1 SLP172
CYQM;2003-10-27 15:00;METAR CYQM 271500Z 18012G17KT 15SM -SHRA BKN012 BKN120 OVC220 16/13 A3003 RMK SC5AC2CI1 SLP170 SC5AC2CI1 SLP170
CYQM;2003-10-27 16:00;METAR CYQM 271600Z 19014G26KT 15SM FEW012 BKN022 OVC120 18/14 A3001 RMK SF1SC6AC1 SLP165 SLP165
CYQM;2003-10-27 17:00;METAR CYQM 271700Z 20014G30KT 15SM FEW012 BKN022 OVC120 18/14 A2999 RMK SF1SC6AC2 SHS SW-N AND NE SLP156 SHS SW-N AND NE SLP156
CYQM;2003-10-27 18:00;METAR CYQM 271800Z 19019KT 15SM SCT022 OVC120 19/14 A2996 RMK SC3AS5 SLP147
CYQM;2003-10-27 19:00;METAR CYQM 271900Z 18021G28KT 15SM BKN027 BKN090 OVC120 18/14 A2994 RMK SC6AC1AS2 SHS SW-N SLP141 SHS SW-N SLP141
CYQM;2003-10-27 20:00;METAR CYQM 272000Z 18013G20KT 15SM FEW022 BKN035 BKN110 OVC140 18/14 A2993 RMK SC1SC4AC1AS2 SHS E-S SLP136 SC1SC4AC1AS2 SHS E-S SLP136
CYQM;2003-10-27 21:00;METAR CYQM 272100Z 17012G20KT 15SM BKN022 BKN035 OVC120 17/15 A2992 RMK SC6SC1AS1 SLP132 SLP132
CYQM;2003-10-27 22:00;METAR CYQM 272200Z 16011G18KT 15SM -SHRA FEW025 OVC040 16/15 A2989 RMK CU2SC6 SLP124 SLP124
CYQM;2003-10-27 23:00;METAR CYQM 272300Z 16015KT 15SM -SHRA FEW025 OVC040 16/15 A2986 RMK CU1SC7 SLP114
CYQM;2003-10-28 00:00;METAR CYQM 280000Z 17015G25KT 15SM -SHRA FEW020 SCT040 OVC100 17/15 A2984 RMK CF1SC2AC5 SLP105 CF1SC2AC5 SLP105
CYQM;2003-10-28 01:00;METAR CYQM 280100Z 17020G26KT 8SM -RA OVC020 16/16 A2981 RMK SC8 SLP097
CYQM;2003-10-28 02:00;METAR CYQM 280200Z 16017KT 15SM -RA OVC020 16/16 A2979 RMK SC8 SLP088
CYQM;2003-10-28 03:00;METAR CYQM 280300Z 17018G28KT 15SM -RA FEW008 OVC020 16/16 A2976 RMK SF2SC6 SLP078
CYQM;2003-10-28 04:00;METAR CYQM 280400Z 17018G26KT 15SM -RA FEW008 OVC016 17/16 A2973 RMK SF2SC6 SLP070
CYQM;2003-10-28 05:00;METAR CYQM 280500Z 16019G27KT 15SM -RA SCT008 OVC016 17/16 A2970 RMK SF3SC5 SLP057
CYQM;2003-10-28 06:00;METAR CYQM 280600Z 17018G31KT 15SM -RA FEW008 OVC015 17/16 A2966 RMK SF2SC6 SLP044
CYQM;2003-10-28 07:00;METAR CYQM 280700Z 17021G30KT 15SM -RA OVC024 18/16 A2962 RMK SC8 SLP032
CYQM;2003-10-28 09:00;METAR CYQM 280900Z 20015G24KT 6SM RA BR OVC016 18/17 A2962 RMK SC8 SLP030
CYQM;2003-10-28 10:00;METAR CYQM 281000Z 20018G25KT 15SM -RA FEW010 SCT025 OVC120 17/16 A2962 RERA RMK SF1SC2AC5 SLP031
CYQM;2003-10-28 11:00;METAR CYQM 281100Z 21017G24KT 15SM -SHRA FEW010 BKN018 OVC120 16/15 A2967 RMK SF2SC4AC2 SLP047 SF2SC4AC2 SLP047
CYQM;2003-10-28 12:00;METAR CYQM 281200Z 22016G26KT 15SM SCT012 BKN110 OVC160 15/12 A2973 RMK SC4AC3AC1 PRESRR SLP068 PRESRR SLP068
CYQM;2003-10-28 13:00;METAR CYQM 281300Z 22013G18KT 15SM FEW010 SCT080 OVC120 14/12 A2976 RMK SF2AC1AS5 SLP078
CYQM;2003-10-28 14:00;METAR CYQM 281400Z 23015G20KT 15SM BKN013 BKN030 BKN120 14/12 A2980 RMK SC6SC1AC1 SH SW SLP093 SH SW SLP093
CYQM;2003-10-28 15:00;METAR CYQM 281500Z 27010G15KT 15SM FEW015 BKN045 BKN250 13/09 A2986 RMK SC1SC6CI1 PRESRR SLP111 PRESRR SLP111
CYQM;2003-10-28 16:00;METAR CYQM 281600Z 23011KT 15SM FEW030 BKN120 12/07 A2987 RMK SC2AS6 SLP116
CYQM;2003-10-28 17:00;METAR CYQM 281700Z 22009KT 15SM FEW030 FEW100 BKN120 BKN250 11/07 A2990 RMK SC2AC1AS4CI1 SLP125
CYQM;2003-10-28 18:00;METAR CYQM 281800Z 27010KT 15SM FEW030 BKN140 BKN250 12/07 A2992 RMK SC2AS4CI2 SLP132 SLP132
CYQM;2003-10-28 19:00;METAR CYQM 281900Z 27008KT 15SM FEW030 FEW140 BKN250 12/07 A2995 RMK SC1AS2CI2 SLP142 SLP142
CYQM;2003-10-28 20:00;METAR CYQM 282000Z 23006KT 15SM FEW030 FEW140 BKN250 11/07 A2997 RMK SC1AS2CI2 SLP149 SLP149
CYQM;2003-10-28 21:00;METAR CYQM 282100Z 25006KT 15SM FEW030 FEW140 BKN250 11/06 A2998 RMK SC1AS2CI1 SLP155 SLP155
CYQM;2003-10-28 22:00;METAR CYQM 282200Z 24004KT 15SM FEW030 SCT250 09/06 A3001 RMK SC1CI1 SLP165
CYQM;2003-10-28 23:00;METAR CYQM 282300Z 20004KT 15SM FEW250 09/06 A3004 RMK CI1 SLP175
CYQM;2003-10-29 00:00;METAR CYQM 290000Z 24003KT 15SM SKC 08/06 A3005 RMK SLP179
CYQM;2003-10-29 01:00;METAR CYQM 290100Z 00000KT 15SM SKC 07/06 A3007 RMK SLP185
CYQM;2003-10-29 02:00;METAR CYQM 290200Z 22003KT 15SM FEW070 06/05 A3009 RMK AC2 SLP191
CYQM;2003-10-29 03:00;METAR CYQM 290300Z 31005KT 15SM FEW070 BKN250 05/04 A3008 RMK AC2CI1 SLP190
CYQM;2003-10-29 04:00;METAR CYQM 290400Z 17003KT 15SM OVC080 05/04 A3010 RMK AC8 SLP196
CYQM;2003-10-29 05:00;METAR CYQM 290500Z 36003KT 15SM SCT080 OVC250 05/04 A3009 RMK AC4CI1 SLP191
CYQM;2003-10-29 07:00;METAR CYQM 290700Z 36003KT 15SM OVC090 06/05 A3009 RMK AC8 SLP191
CYQM;2003-10-29 08:00;METAR CYQM 290800Z 34002KT 15SM FEW070 OVC090 06/05 A3010 RMK AC2AC6 SLP194
CYQM;2003-10-29 09:00;METAR CYQM 290900Z 03002KT 15SM -SHRA FEW025 OVC090 07/06 A3010 RMK SC2AC6 SLP195
CYQM;2003-10-29 10:00;METAR CYQM 291000Z 05006KT 12SM -RA SCT030 BKN100 OVC250 07/06 A3008 RMK SC3AC4CI1 SLP189
CYQM;2003-10-29 11:00;METAR CYQM 291100Z 03005KT 6SM -RA BR FEW012 BKN020 OVC100 07/07 A3008 RMK SC2SC6AC1 SLP189
CYQM;2003-10-29 12:00;METAR CYQM 291200Z 07006KT 2SM -RA BR FEW008 BKN014 OVC020 09/09 A3008 RMK SF1SC6SC1 SLP187
CYQM;2003-10-29 13:00;METAR CYQM 291300Z 07008KT 8SM -RA FEW008 BKN014 OVC020 10/10 A3003 RMK SF1SC6SC1 SLP172 SLP172
CYQM;2003-10-29 14:00;METAR CYQM 291400Z 06008KT 1 1/2SM -RA BR BKN003 OVC006 10/10 A3000 RMK SF6SF2 SLP163 SLP163
CYQM;2003-10-29 15:00;METAR CYQM 291500Z 08010G15KT 1 1/2SM -RA BR BKN003 OVC005 11/11 A2997 RERA RMK SF7SF1 SLP150
CYQM;2003-10-29 16:00;METAR CYQM 291600Z 08008KT 4SM -RA BR FEW003 OVC005 12/11 A2995 RERA RMK SF2SF6 SLP143 SLP143 SLP139 FG3SF5 SLP127
CYQM;2003-10-29 19:00;METAR CYQM 291900Z 10002KT 6SM BR BKN004 OVC015 14/14 A2988 RMK SF7SC1 VIS E 2F SLP120 SLP120
CYQM;2003-10-29 20:00;METAR CYQM 292000Z 15012G17KT 12SM VCSH SCT005 BKN030 BKN120 BKN220 18/18 A2986 RMK SF3SC2AC1CI2 SLP114 RMK SF3SC2AC1CI2 SLP114
CYQM;2003-10-29 21:00;METAR CYQM 292100Z 15012G19KT 12SM VCSH FEW005 SCT030 BKN120 BKN220 19/18 A2981 RMK SF1SC2AC2CI2 SLP097 RMK SF1SC2AC2CI2 SLP097
CYQM;2003-10-29 22:00;METAR CYQM 292200Z 15016G22KT 12SM -SHRA SCT005 OVC020 19/18 A2981 RMK SF3SC5 SLP095 SLP095
CYQM;2003-10-29 23:00;METAR CYQM 292300Z 16017G24KT 10SM -SHRA BKN008 OVC020 19/18 A2978 RMK SF6SC2 SLP087 SLP087
CYQM;2003-10-30 00:00;METAR CYQM 300000Z 16023G32KT 12SM -SHRA FEW007 SCT014 OVC055 18/18 A2975 RMK SF2SC2SC4 SLP077 SF2SC2SC4 SLP077
CYQM;2003-10-30 01:00;METAR CYQM 300100Z 15025G32KT 12SM FEW007 FEW014 OVC060 18/17 A2972 RMK SF1SC1SC6 SLP065 SLP065
CYQM;2003-10-30 02:00;METAR CYQM 300200Z 15018G28KT 15SM FEW007 FEW014 OVC060 17/17 A2970 RMK SF1SC1SC6 SLP058 SLP058
CYQM;2003-10-30 03:00;METAR CYQM 300300Z 15022G29KT 15SM FEW007 FEW014 BKN060 18/17 A2964 RMK SF1SC1SC3 PRESFR SLP037 PRESFR SLP037
CYQM;2003-10-30 04:00;METAR CYQM 300400Z 15023G32KT 15SM FEW007 OVC022 18/17 A2960 RMK SF2SC6 SLP025
CYQM;2003-10-30 05:00;METAR CYQM 300500Z 17023G29KT 2SM SHRA BR SCT007 OVC020 17/17 A2958 RMK SF3SC5 SLP019 SLP019
CYQM;2003-10-30 06:00;METAR CYQM 300600Z 20012G17KT 10SM -SHRA FEW012 OVC070 17/17 A2961 SC2AC6 SLP028
CYQM;2003-10-30 07:00;METAR CYQM 300700Z 16012KT 15SM -SHRA FEW012 OVC070 17/16 A2959 RMK SC2AC6 SLP023
CYQM;2003-10-30 08:00;METAR CYQM 300800Z 16013G19KT 15SM -SHRA FEW012 OVC040 17/16 A2957 RMK SC2SC6 SLP016 SLP016
CYQM;2003-10-30 09:00;METAR CYQM 300900Z 20013KT 15SM FEW012 OVC050 16/14 A2958 RMK SC2SC6
CYQM;2003-10-30 10:00;METAR CYQM 301000Z 22021G27KT 15SM FEW012 BKN050 OVC100 15/13 A2962 RMK SC2SC5AC2 SLP032 SLP032
CYQM;2003-10-30 11:00;METAR CYQM 301100Z 21016G21KT 15SM FEW010 SCT015 BKN100 OVC250 12/10 A2964 RMK SF1SC3AC2CI2 SLP038 SF1SC3AC2CI2 SLP038
CYQM;2003-10-30 12:00;METAR CYQM 301200Z 25018G32KT 15SM -SHRA FEW008 BKN015 OVC100 10/09 A2969 RMK SF1SC6AC1 SLP056 SF1SC6AC1 SLP056
CYQM;2003-10-30 13:00;METAR CYQM 301300Z 24018G26KT 15SM FEW008 SCT030 BKN100 BKN250 09/07 A2973 RMK SF2SC2AC1CI1 SLP069 SF2SC2AC1CI1 SLP069
CYQM;2003-10-30 14:00;METAR CYQM 301400Z 23019G27KT 15SM BKN012 BKN100 10/07 A2979 RMK CF6AC1 SLP088
CYQM;2003-10-30 15:00;METAR CYQM 301500Z 25020G31KT 15SM BKN015 10/06 A2981 RMK SC7 SLP097
CYQM;2003-10-30 16:00;METAR CYQM 301600Z 24015G26KT 15SM BKN015 10/06 A2984 RMK SC7 SLP106
CYQM;2003-10-30 17:00;METAR CYQM 301700Z 23019G28KT 15SM BKN015 11/05 A2987 RMK SC7 SLP116
CYQM;2003-10-30 18:00;METAR CYQM 301800Z 24020G27KT 15SM BKN020 10/05 A2990 RMK SC7 SLP128
CYQM;2003-10-30 19:00;METAR CYQM 301900Z 24016G22KT 15SM FEW025 BKN035 11/04 A2994 RMK CU2SC5 SLP141
CYQM;2003-10-30 20:00;METAR CYQM 302000Z 24018KT 15SM FEW025 SCT040 SCT140 11/05 A2996 RMK CU1SC2AC1 SLP146 SLP146
CYQM;2003-10-30 21:00;METAR CYQM 302100Z 24018G26KT 15SM FEW025 FEW040 10/03 A2997 RMK CU1SC2 SLP151
CYQM;2003-10-30 22:00;METAR CYQM 302200Z 23011G17KT 15SM FEW025 FEW040 09/01 A3002 RMK CU1SC1 TR CU SLP168 SLP168
CYQM;2003-10-30 23:00;METAR CYQM 302300Z 23015KT 15SM FEW040 07/02 A3005 RMK SC1 SLP178
CYQM;2003-10-31 00:00;METAR CYQM 310000Z 24013KT 15SM FEW040 07/02 A3006 RMK SC1 SLP182
CYQM;2003-10-31 01:00;METAR CYQM 310100Z 24017G22KT 15SM FEW040 06/01 A3008 RMK SC1 SLP188
CYQM;2003-10-31 02:00;METAR CYQM 310200Z 23013G19KT 15SM FEW040 06/01 A3010 RMK SC1 SLP195
CYQM;2003-10-31 03:00;METAR CYQM 310300Z 23010KT 15SM SKC 06/01 A3012 RMK SLP201
CYQM;2003-10-31 04:00;METAR CYQM 310400Z 23012KT 15SM SKC 06/01 A3013 RMK SLP205
CYQM;2003-10-31 05:00;METAR CYQM 310500Z 24013G19KT 15SM SKC 05/03 A3014 RMK SLP210
CYQM;2003-10-31 06:00;METAR CYQM 310600Z 23011KT 15SM FEW050 06/01 A3018 RMK SC2 SLP221
CYQM;2003-10-31 07:00;METAR CYQM 310700Z 24011KT 15SM FEW050 05/01 A3020 RMK SC2 SLP228
CYQM;2003-10-31 08:00;METAR CYQM 310800Z 24010KT 15SM SKC 05/01 A3023 RMK SLP238
CYQM;2003-10-31 09:00;METAR CYQM 310900Z 24012KT 15SM SKC 05/01 A3025 RMK SLP245
CYQM;2003-10-31 10:00;METAR CYQM 311000Z 24008KT 15SM FEW040 05/01 A3025 RMK SC2 SLP248
CYQM;2003-10-31 11:00;METAR CYQM 311100Z 25011KT 15SM FEW012 FEW030 FEW090 04/02 A3028 RMK CF1SC1AC1 TR CF SLP256 CF SLP256
CYQM;2003-10-31 12:00;METAR CYQM 311200Z 26010KT 15SM FEW120 05/02 A3030 RMK AC1 SLP264
CYQM;2003-10-31 13:00;METAR CYQM 311300Z 26010KT 15SM FEW016 FEW120 07/03 A3030 RMK CU1AC1 TR CU SLP265
CYQM;2003-10-31 14:00;METAR CYQM 311400Z 29009KT 15SM FEW020 FEW120 FEW260 08/03 A3032 RMK CU1AC1CI1 TR CU SLP270 CU SLP270
CYQM;2003-10-31 15:00;METAR CYQM 311500Z 29005KT 15SM FEW030 FEW120 FEW260 09/01 A3031 RMK CU1AC1CI1 TR CU TR AC SLP266 CU TR AC SLP266
CYQM;2003-10-31 16:00;METAR CYQM 311600Z 26007KT 15SM FEW120 SCT260 10/00 A3029 RMK AC1CI2 SLP261
CYQM;2003-10-31 17:00;METAR CYQM 311700Z 26008KT 15SM FEW120 SCT260 11/00 A3027 RMK AC1CI2 SLP252
CYQM;2003-10-31 18:00;METAR CYQM 311800Z 25008KT 15SM FEW120 BKN260 11/M00 A3026 RMK AC1CI2 SLP250
CYQM;2003-10-31 19:00;METAR CYQM 311900Z 19002KT 15SM FEW040 FEW120 BKN260 12/01 A3025 RMK CU1AC2CI2 SLP247 SLP247
CYQM;2003-10-31 20:00;METAR CYQM 312000Z 15007KT 15SM SCT100 BKN260 11/03 A3024 RMK AC3CI2 SLP242
CYQM;2003-10-31 21:00;METAR CYQM 312100Z 15004KT 15SM FEW100 BKN260 10/04 A3023 RMK AC2CI2 SLP240
CYQM;2003-10-31 22:00;METAR CYQM 312200Z 17004KT 15SM SCT260 08/05 A3023 RMK CI2 SLP241
CYQM;2003-10-31 23:00;METAR CYQM 312300Z 18005KT 15SM FEW120 SCT260 07/04 A3023 RMK AC1CI1 SLP239
CYQM;2003-11-01 00:00;METAR CYQM 010000Z 22007KT 15SM FEW120 BKN260 07/03 A3022 RMK AC2CI2 SLP235
CYQM;2003-11-01 01:00;METAR CYQM 010100Z 21006KT 15SM BKN100 08/03 A3021 RMK AC6 SLP233
CYQM;2003-11-01 02:00;METAR CYQM 010200Z 18006KT 15SM BKN100 08/04 A3019 RMK AC7 SLP228
CYQM;2003-11-01 03:00;METAR CYQM 010300Z 17007KT 15SM FEW100 08/04 A3018 RMK AC1 SLP222
CYQM;2003-11-01 04:00;METAR CYQM 010400Z 18009KT 15SM FEW260 08/02 A3015 RMK CI1 SLP213
CYQM;2003-11-01 05:00;METAR CYQM 010500Z 18008KT 15SM SCT260 08/05 A3013 RMK CI3 SLP206
CYQM;2003-11-01 06:00;METAR CYQM 010600Z 19008KT 15SM SCT100 BKN260 09/05 A3012 RMK AC4CI2 SLP201
CYQM;2003-11-01 07:00;METAR CYQM 010700Z 19009KT 15SM OVC100 10/06 A3010 RMK AC8 SLP194
CYQM;2003-11-01 08:00;METAR CYQM 010800Z 19008KT 15SM BKN100 10/07 A3006 RMK AC7 SLP183
CYQM;2003-11-01 09:00;METAR CYQM 010900Z 20011KT 15SM OVC100 10/07 A3006 RMK AC8 SLP181
CYQM;2003-11-01 10:00;METAR CYQM 011000Z 19006KT 15SM FEW100 09/07 A3003 RMK AC2 SLP172
CYQM;2003-11-01 11:00;METAR CYQM 011100Z 20006KT 15SM FEW070 BKN100 08/07 A3003 RMK AC2AC3 SLP172
CYQM;2003-11-01 12:00;METAR CYQM 011200Z 21008KT 15SM FEW012 BKN080 10/08 A3002 RMK CF1AC7 TR CF SLP169
CYQM;2003-11-01 13:00;METAR CYQM 011300Z 21008KT 15SM FEW015 BKN070 BKN090 11/09 A3001 RMK CF1AC5AC2 TR CF SLP164 CF SLP164
CYQM;2003-11-01 14:00;METAR CYQM 011400Z 22014KT 15SM FEW015 FEW070 BKN090 12/10 A2999 RMK CU1AC2AC3 SLP158 SLP158
CYQM;2003-11-01 15:00;METAR CYQM 011500Z 21013KT 15SM FEW090 14/10 A2997 RMK AC2 SLP150
CYQM;2003-11-01 16:00;METAR CYQM 011600Z 23015G20KT 15SM FEW090 16/11 A2995 RMK AC1 SLP143
CYQM;2003-11-01 17:00;METAR CYQM 011700Z 22014KT 15SM FEW090 18/11 A2992 RMK AC2 SLP132
CYQM;2003-11-01 18:00;METAR CYQM 011800Z 20014KT 15SM FEW024 BKN080 18/11 A2990 RMK CU1AC7 TR CU SLP127
CYQM;2003-11-01 19:00;METAR CYQM 011900Z 22013KT 15SM FEW024 BKN080 17/11 A2989 RMK CU1AC7 TR CU SLP125
CYQM;2003-11-01 20:00;METAR CYQM 012000Z 22010G15KT 15SM BKN070 16/12 A2989 RMK AC6 SLP125
CYQM;2003-11-01 21:00;METAR CYQM 012100Z 22006KT 15SM SCT070 15/11 A2990 RMK AC3 SLP126
CYQM;2003-11-01 22:00;METAR CYQM 012200Z 24012KT 15SM BKN100 10/05 A2992 RMK AC5 SLP134
CYQM;2003-11-01 23:00;METAR CYQM 012300Z 24011KT 15SM FEW100 13/11 A2993 RMK AC2 SLP136
CYQM;2003-11-02 00:00;METAR CYQM 020000Z 27009G15KT 12SM SCT035 OVC050 13/11 A2996 RMK SC3SC5 SLP147
CYQM;2003-11-02 01:00;METAR CYQM 020100Z 05005KT 15SM FEW030 SCT050 BKN250 11/10 A3000 RMK SC1SC2CI1 SLP161 SLP161
CYQM;2003-11-02 02:00;METAR CYQM 020200Z 29008KT 15SM FEW030 BKN040 11/08 A3004 RMK SC1SC6 SLP174
CYQM;2003-11-02 03:00;METAR CYQM 020300Z 29011KT 15SM SCT040 BKN090 09/03 A3007 RMK SC3AC2 SLP185
CYQM;2003-11-02 04:00;METAR CYQM 020400Z 30007KT 15SM FEW040 07/01 A3009 RMK SC1 SLP191
CYQM;2003-11-02 05:00;METAR CYQM 020500Z 29005KT 15SM SKC 06/M00 A3010 RMK SLP195
CYQM;2003-11-02 06:00;METAR CYQM 020600Z 30006KT 15SM SKC 05/M00 A3012 RMK SLP201
CYQM;2003-11-02 07:00;METAR CYQM 020700Z 29009KT 15SM SKC 04/M02 A3012 RMK SLP203
CYQM;2003-11-02 08:00;METAR CYQM 020800Z 27007KT 15SM BKN250 03/M01 A3013 RMK CI6 SLP206
CYQM;2003-11-02 09:00;METAR CYQM 020900Z 28009KT 15SM SCT250 03/M02 A3014 RMK CI2 SLP210
CYQM;2003-11-02 10:00;METAR CYQM 021000Z 29009KT 15SM BKN250 02/M03 A3014 RMK CI2 SLP209
CYQM;2003-11-02 11:00;METAR CYQM 021100Z 21006KT 15SM FEW080 BKN140 OVC250 01/M02 A3016 RMK AC2AC2CI1 SLP215 SLP215
CYQM;2003-11-02 12:00;METAR CYQM 021200Z 23006KT 15SM FEW012 SCT090 SCT140 BKN250 01/M02 A3018 RMK CU1AC2AC1CI1 TR CU ACC ASOCTD LWR LYR SLP222 CU1AC2AC1CI1 TR CU ACC ASOCTD LWR LYR SLP222
CYQM;2003-11-02 13:00;METAR CYQM 021300Z 28006KT 15SM FEW012 BKN090 BKN250 03/M04 A3018 RMK CU1AC5CI1 TR CU ACC ASOCTD VIRGA DIST N-NE SLP224 TR CU ACC ASOCTD VIRGA DIST N-NE SLP224 TR CU ACC ASOCTD VIRGA NE SLP224
CYQM;2003-11-02 16:00;METAR CYQM 021600Z 29011KT 15SM FEW025 BKN090 OVC250 04/M05 A3019 RMK CU1AC7CI0 TR CU ACC ASOCTD VIRGA NE SLP225 TR CU ACC ASOCTD VIRGA NE SLP225
CYQM;2003-11-02 17:00;METAR CYQM 021700Z 30010KT 15SM FEW025 BKN090 BKN140 OVC250 04/M05 A3017 RMK CU1AC5AS2CI0 TR CU SUN DIMLY VISBL SLP218 CU1AC5AS2CI0 TR CU SUN DIMLY VISBL SLP218 DIMLY VISBL SLP210
CYQM;2003-11-02 19:00;METAR CYQM 021900Z 27008KT 15SM BKN090 OVC140 04/M04 A3015 RMK AC6AS1 SUN DIMLY VISBL SLP213 VISBL SLP213
CYQM;2003-11-02 20:00;METAR CYQM 022000Z 27009KT 15SM BKN100 BKN140 OVC250 04/M04 A3015 RMK AC5AS2CI0 SUN DIMLY VISBL SLP212 SUN DIMLY VISBL SLP212
CYQM;2003-11-02 21:00;METAR CYQM 022100Z 27009KT 15SM BKN100 BKN140 OVC250 04/M04 A3017 RMK AC6AS2CI0 SLP218 SLP218
CYQM;2003-11-02 22:00;METAR CYQM 022200Z 27005KT 15SM BKN120 OVC150 03/M03 A3017 RMK AC6AS2 SLP220
CYQM;2003-11-02 23:00;METAR CYQM 022300Z 27005KT 15SM OVC120 03/M03 A3019 RMK AC8 SLP226
CYQM;2003-11-03 00:00;METAR CYQM 030000Z 26004KT 15SM OVC100 03/M03 A3019 RMK AC8 SLP229
CYQM;2003-11-03 01:00;METAR CYQM 030100Z 26006KT 15SM OVC100 03/M03 A3018 RMK AC8 SLP224
CYQM;2003-11-03 02:00;METAR CYQM 030200Z 27005KT 15SM BKN100 02/M03 A3018 RMK AC7 SLP224
CYQM;2003-11-03 03:00;METAR CYQM 030300Z 29005KT 15SM FEW100 FEW250 01/M04 A3019 RMK AC1CI1 SLP227
CYQM;2003-11-03 04:00;METAR CYQM 030400Z 28005KT 15SM FEW250 00/M04 A3019 RMK CI1 SLP227
CYQM;2003-11-03 05:00;METAR CYQM 030500Z 31006KT 15SM FEW120 M01/M08 A3019 RMK AC1 SLP226
CYQM;2003-11-03 06:00;METAR CYQM 030600Z 31006KT 15SM SKC M01/M04 A3019 RMK SLP229
CYQM;2003-11-03 07:00;METAR CYQM 030700Z 34005KT 15SM SKC M01/M05 A3019 RMK SLP228
CYQM;2003-11-03 08:00;METAR CYQM 030800Z 30003KT 15SM SKC M02/M05 A3020 RMK SLP231
CYQM;2003-11-03 09:00;METAR CYQM 030900Z 29004KT 15SM SKC M03/M05 A3021 RMK SLP233
CYQM;2003-11-03 10:00;METAR CYQM 031000Z 23003KT 15SM FEW100 M03/M05 A3020 RMK AC2 SLP232
CYQM;2003-11-03 11:00;METAR CYQM 031100Z 25005KT 15SM FEW020 BKN100 M04/M06 A3022 RMK SC1AC4 SLP237
CYQM;2003-11-03 12:00;METAR CYQM 031200Z 23004KT 15SM FEW020 BKN100 M03/M05 A3022 RMK SC1AC4
CYQM;2003-11-03 13:00;METAR CYQM 031300Z 24005KT 15SM FEW020 FEW050 BKN100 BKN260 M01/M04 A3023 RMK SC1SC1AC4CI1 SLP242 SC1SC1AC4CI1 SLP242
CYQM;2003-11-03 14:00;METAR CYQM 031400Z 28006KT 15SM FEW020 SCT120 BKN260 01/M03 A3022 RMK SC1AC3CI2 SLP237
CYQM;2003-11-03 15:00;METAR CYQM 031500Z 24004KT 15SM FEW020 SCT080 BKN120 BKN260 02/M04 A3019 RMK SC1AC3AC2CI1 TR SC SLP228 SC1AC3AC2CI1 TR SC SLP228
CYQM;2003-11-03 16:00;METAR CYQM 031600Z 26007KT 15SM FEW030 BKN080 BKN120 BKN260 03/M05 A3018 RMK SC1AC4AC1CI1 SLP224 SC1AC4AC1CI1 SLP224
CYQM;2003-11-03 17:00;METAR CYQM 031700Z 28005KT 15SM FEW030 BKN080 BKN120 BKN260 03/M05 A3017 RMK SC1AC4AC1CI1 SLP219 SC1AC4AC1CI1 SLP219
CYQM;2003-11-03 18:00;METAR CYQM 031800Z 23005KT 15SM FEW030 BKN080 BKN260 03/M05 A3014 RMK SC2AC3CI1 SLP211 SLP211
CYQM;2003-11-03 19:00;METAR CYQM 031900Z 23008KT 15SM FEW030 BKN080 BKN260 03/M06 A3013 RMK SC2AC4CI1 SLP207 SLP207
CYQM;2003-11-03 20:00;METAR CYQM 032000Z 25007KT 15SM FEW030 BKN080 BKN260 04/M05 A3012 RMK SC1AC5CI1 SLP205 SLP205
CYQM;2003-11-03 21:00;METAR CYQM 032100Z 23004KT 15SM BKN030 BKN080 BKN260 04/M04 A3011 RMK SC5AC2CI1 SLP202 SLP202
CYQM;2003-11-03 22:00;METAR CYQM 032200Z 21004KT 15SM BKN030 BKN080 OVC260 03/M04 A3010 RMK SC6AC1CI1 SLP198 SLP198
CYQM;2003-11-03 23:00;METAR CYQM 032300Z 23006KT 15SM BKN035 BKN080 OVC260 03/M03 A3009 RMK SC6AC1CI1 SLP195 SLP195
CYQM;2003-11-04 00:00;METAR CYQM 040000Z 23006KT 15SM OVC032 03/M02 A3008 RMK SC8 SLP192
CYQM;2003-11-04 01:00;METAR CYQM 040100Z 22007KT 15SM -SHRA BKN022 OVC035 03/M02 A3007 RMK SC6SC2 SLP188
CYQM;2003-11-04 02:00;METAR CYQM 040200Z 25008KT 15SM BKN019 OVC035 03/M01 A3006 RMK SC6SC2 SLP185
CYQM;2003-11-04 03:00;METAR CYQM 040300Z 26010KT 15SM BKN016 OVC035 04/01 A3006 RMK SC6SC2 SLP182
CYQM;2003-11-04 04:00;METAR CYQM 040400Z 26009KT 15SM FEW015 OVC040 04/01 A3006 RMK SC2SC6
CYQM;2003-11-04 05:00;METAR CYQM 040500Z 26009KT 15SM OVC045 04/00 A3005 RMK SC8 SLP180
CYQM;2003-11-04 06:00;METAR CYQM 040600Z 25010KT 15SM OVC045 05/01 A3005 RMK SC8 SLP178
CYQM;2003-11-04 07:00;METAR CYQM 040700Z 30016G24KT 15SM BKN025 OVC045 05/01 A3006 RMK SC6SC2 SLP183
CYQM;2003-11-04 08:00;METAR CYQM 040800Z 29013G21KT 15SM -SHRA BKN025 OVC045 03/00 A3007 RMK SC6SC2 SLP186 SLP186
CYQM;2003-11-04 09:00;METAR CYQM 040900Z 27010KT 15SM FEW025 BKN050 02/00 A3009 RMK SC2SC6 SLP192
CYQM;2003-11-04 10:00;METAR CYQM 041000Z 28012KT 15SM FEW030 02/M00 A3012 RMK SC2 SLP203
CYQM;2003-11-04 11:00;METAR CYQM 041100Z 31013G18KT 15SM FEW016 FEW030 SCT100 00/M04 A3017 RMK CU1SC2AC1 SLP221 CU1SC1AC1 PRESRR SLP242
CYQM;2003-11-04 13:00;METAR CYQM 041300Z 32019G25KT 15SM FEW030 FEW140 FEW260 M01/M09 A3028 RMK CU1AC1CI1 TR CU SLP256
CYQM;2003-11-04 14:00;METAR CYQM 041400Z 32017G22KT 15SM FEW040 FEW140 SCT260 M00/M11 A3029 RMK CU1AC2CI1 TR CU SLP262
CYQM;2003-11-04 15:00;METAR CYQM 041500Z 32020G26KT 15SM FEW040 FEW140 FEW260 00/M12 A3030 RMK CU1AC1CI1 TR CU SLP265
CYQM;2003-11-04 16:00;METAR CYQM 041600Z 34014G20KT 15SM FEW040 FEW140 SCT260 02/M09 A3030 RMK CU1AC1CI2 TR CU SLP263
CYQM;2003-11-04 17:00;METAR CYQM 041700Z 32013G18KT 15SM FEW040 FEW140 BKN260 03/M11 A3032 RMK CU1AC2CI3 SLP271
CYQM;2003-11-04 18:00;METAR CYQM 041800Z 32014KT 15SM FEW040 SCT140 BKN260 03/M10 A3033 RMK CU1AC3CI3 SLP275 SLP275
CYQM;2003-11-04 19:00;METAR CYQM 041900Z 32010G18KT 15SM FEW140 FEW180 BKN260 03/M13 A3034 RMK AC2AC1CI2 SLP278
CYQM;2003-11-04 20:00;METAR CYQM 042000Z 35009KT 15SM BKN120 BKN260 02/M12 A3034 RMK AC6CI1 SLP278
CYQM;2003-11-04 22:00;METAR CYQM 042200Z 29004KT 15SM BKN100 BKN260 00/M12 A3041 RMK AC5CI2 SLP300
CYQM;2003-11-04 23:00;METAR CYQM 042300Z 29003KT 15SM BKN100 BKN220 00/M09 A3042 RMK AC5CI2 SLP304
CYQM;2003-11-05 01:00;METAR CYQM 050100Z 34003KT 15SM OVC100 M00/M08 A3044 RMK AC8 SLP312
CYQM;2003-11-05 02:00;METAR CYQM 050200Z 33004KT 15SM OVC100 00/M08 A3045 RMK AC8 SLP317
CYQM;2003-11-05 03:00;METAR CYQM 050300Z 33004KT 15SM BKN100 BKN220 M00/M07 A3046 RMK AC5CI2 SLP318
CYQM;2003-11-05 04:00;METAR CYQM 050400Z 35004KT 15SM OVC090 M00/M06 A3046 RMK AC8 SLP318
CYQM;2003-11-05 05:00;METAR CYQM 050500Z 31003KT 15SM OVC080 M00/M06 A3046 RMK AC8 SLP320
CYQM;2003-11-05 06:00;METAR CYQM 050600Z 22003KT 15SM OVC080 M00/M05 A3049 RMK AC8 SLP329
CYQM;2003-11-05 07:00;METAR CYQM 050700Z 00000KT 15SM OVC080 M01/M05 A3046 RMK AC8 SLP320
CYQM;2003-11-05 08:00;METAR CYQM 050800Z 00000KT 15SM OVC080 M01/M04 A3047 RMK AC8 SLP322
CYQM;2003-11-05 09:00;METAR CYQM 050900Z 00000KT 15SM OVC080 M00/M05 A3045 RMK AC8 SLP317
CYQM;2003-11-05 10:00;METAR CYQM 051000Z 19002KT 15SM OVC070 M00/M04 A3046 RMK AC8 SLP320
CYQM;2003-11-05 11:00;METAR CYQM 051100Z 08003KT 15SM -SN FEW050 BKN070 OVC100 00/M05 A3046 RMK SC1AC5AS2 SLP319
CYQM;2003-11-05 12:00;METAR CYQM 051200Z 12004KT 10SM -SN FEW040 OVC070 00/M04 A3046 RMK SC1AS7
CYQM;2003-11-05 13:00;METAR CYQM 051300Z 13004KT 10SM -PL FEW020 OVC070 01/M02 A3044 RMK SC1AS7 SLP314
CYQM;2003-11-05 15:00;METAR CYQM 051500Z 14011KT 15SM BKN022 OVC050 02/M00 A3037 RMK SC6SC2 SLP289
CYQM;2003-11-05 16:00;METAR CYQM 051600Z 14012G18KT 15SM BKN022 OVC040 03/01 A3031 RMK SC7SC1 PRESFR SLP268 SLP268
CYQM;2003-11-05 17:00;METAR CYQM 051700Z 15015KT 15SM BKN018 OVC040 04/02 A3023 RMK SC7SC1 PRESFR SLP240
CYQM;2003-11-05 18:00;METAR CYQM 051800Z 16015G24KT 15SM OVC013 05/03 A3017 RMK SC8 PRESFR SLP222
CYQM;2003-11-05 19:00;METAR CYQM 051900Z 17014G19KT 15SM OVC009 05/04 A3015 RMK SC8 SLP215
CYQM;2003-11-05 20:00;METAR CYQM 052000Z 17012G18KT 12SM -SHRA BKN007 OVC020 05/04 A3010 RMK SF7SC1 PRESFR SLP198 PRESFR SLP198
CYQM;2003-11-05 21:00;METAR CYQM 052100Z 17014KT 8SM -SHRA BKN007 OVC016 07/06 A3006 RMK SF6SC2 SLP181
CYQM;2003-11-05 22:00;METAR CYQM 052200Z 18013KT 8SM -SHRA FEW008 OVC014 08/08 A3004 RMK SF2SC6 SLP177
CYQM;2003-11-05 23:00;METAR CYQM 052300Z 18015KT 8SM -RA FEW007 OVC017 09/09 A3000 RMK SF2SC6 SLP162
CYQM;2003-11-06 00:00;METAR CYQM 060000Z 19007KT 12SM -RA OVC015 10/09 A2998 RMK SC8 SLP156 SLP139
CYQM;2003-11-06 02:00;METAR CYQM 060200Z 17005KT 15SM SCT018 OVC040 11/10 A2991 RMK SC3SC5 SLP131
CYQM;2003-11-06 03:00;METAR CYQM 060300Z 17005KT 1 1/2SM -SHRA BR BKN006 OVC016 11/10 A2988 RMK SF6SC2 SLP122 SLP122 RMK FG6SF1 SLP108
CYQM;2003-11-06 05:00;METAR CYQM 060500Z 19005KT 6SM BR FEW001 OVC025 11/11 A2983 RMK SF2SC6 SLP103
CYQM;2003-11-06 06:00;METAR CYQM 060600Z 24004KT 1/2SM R29/P6000FT/N R06/3000V4500FT/U FG OVC010 11/11 A2984 RMK FG6SC2 SLP106 A2984 RMK FG6SC2 SLP106
CYQM;2003-11-06 07:00;METAR CYQM 060700Z 24008KT 1/2SM R29/P6000FT/U R06/P6000FT/D FG VV003 11/11 A2984 RMK FG8 VIS LWR SW SLP107 RMK FG8 VIS LWR SW SLP107
CYQM;2003-11-06 08:00;METAR CYQM 060800Z 25008KT 15SM OVC003 11/11 A2986 RMK SF8 SLP116
CYQM;2003-11-06 09:00;METAR CYQM 060900Z 25011KT 15SM BKN005 OVC025 11/10 A2988 RMK SF5SC3 SLP120
CYQM;2003-11-06 10:00;METAR CYQM 061000Z 29009G17KT 15SM BKN008 OVC012 12/11 A2992 RMK SF7SC1 SLP132
CYQM;2003-11-06 11:00;METAR CYQM 061100Z 27008KT 15SM BKN011 OVC120 11/10 A2994 RMK SF7AC1 SLP141
CYQM;2003-11-06 12:00;METAR CYQM 061200Z 27009KT 15SM BKN010 BKN250 11/10 A2998 RMK SF6CI1 SLP154
CYQM;2003-11-06 13:00;METAR CYQM 061300Z 28008KT 15SM SCT010 BKN035 BKN120 BKN250 10/09 A3001 RMK CF3SC2AC1CI1 SLP164
CYQM;2003-11-06 14:00;METAR CYQM 061400Z 30010G15KT 15SM SCT014 BKN120 BKN250 10/08 A3002 RMK CU4AC1CI1 SLP168 SLP168
CYQM;2003-11-06 15:00;METAR CYQM 061500Z 32014KT 15SM BKN018 BKN250 10/07 A3004 RMK CU6CI1 SLP176
CYQM;2003-11-06 16:00;METAR CYQM 061600Z 32012KT 15SM BKN023 BKN250 10/05 A3004 RMK SC6CI1
CYQM;2003-11-06 17:00;METAR CYQM 061700Z 29006KT 15SM BKN030 BKN250 11/06 A3003 RMK CU5CI1 SLP173
CYQM;2003-11-06 18:00;METAR CYQM 061800Z 26008KT 15SM FEW035 BKN250 11/04 A3005 RMK CU2CI2 CS ASOCTD SLP177 SLP177
CYQM;2003-11-06 19:00;METAR CYQM 061900Z 29005KT 15SM FEW035 SCT160 BKN250 10/04 A3005 RMK SC1AS3CI2 SLP177
CYQM;2003-11-06 20:00;METAR CYQM 062000Z 30004KT 15SM FEW035 SCT160 BKN250 09/04 A3004 RMK SC1AS2CI2 SLP174 SLP174
CYQM;2003-11-06 21:00;METAR CYQM 062100Z 29004KT 15SM FEW080 SCT150 BKN250 08/04 A3006 RMK AC1AS2CI2 SLP182 SLP182
CYQM;2003-11-06 22:00;METAR CYQM 062200Z 29003KT 15SM FEW120 BKN250 06/03 A3008 RMK AC2CI2 SLP189
CYQM;2003-11-06 23:00;METAR CYQM 062300Z 28005KT 15SM FEW080 OVC120 05/03 A3010 RMK AC2AS5 MOON DIMLY VISBL SLP194 VISBL SLP194 VISBL SLP196
CYQM;2003-11-07 01:00;METAR CYQM 070100Z 32006KT 15SM OVC120 04/01 A3011 RMK AC8 SLP199
CYQM;2003-11-07 02:00;METAR CYQM 070200Z 34006KT 15SM OVC120 05/M00 A3010 RMK AC8 SLP195
CYQM;2003-11-07 03:00;METAR CYQM 070300Z 36002KT 15SM OVC120 03/01 A3011 RMK AC8 SLP201
CYQM;2003-11-07 04:00;METAR CYQM 070400Z 35004KT 15SM OVC120 03/00 A3010 RMK AC8 SLP196
CYQM;2003-11-07 05:00;METAR CYQM 070500Z 04004KT 15SM OVC120 02/00 A3009 RMK AC8 SLP192
CYQM;2003-11-07 06:00;METAR CYQM 070600Z CCA 02005KT 15SM BKN120 BKN250 02/00 A3008 RMK AC6CI0
CYQM;2003-11-07 08:00;METAR CYQM 070800Z 36006KT 15SM SCT060 BKN140 OVC250 02/M01 A3006 RMK SC3AC3CI1 SLP181 SLP181
CYQM;2003-11-07 09:00;METAR CYQM 070900Z 35004KT 15SM BKN030 OVC140 01/M01 A3006 RMK SC6AC2 SLP184
CYQM;2003-11-07 10:00;METAR CYQM 071000Z 36003KT 15SM BKN030 BKN120 01/M01 A3007 RMK SC6AC2 SLP185
CYQM;2003-11-07 11:00;METAR CYQM 071100Z 36004KT 15SM BKN030 02/M00 A3006 RMK SC7 SLP181
CYQM;2003-11-07 13:00;METAR CYQM 071300Z 34003KT 15SM BKN030 02/00 A3006 RMK SC7 SLP184
CYQM;2003-11-07 14:00;METAR CYQM 071400Z 31003KT 15SM FEW012 BKN020 03/00 A3006 RMK CU1SC7
CYQM;2003-11-07 15:00;METAR CYQM 071500Z 32003KT 15SM FEW012 BKN020 04/01 A3004 RMK CU1SC7 SLP177
CYQM;2003-11-07 16:00;METAR CYQM 071600Z 34005KT 15SM FEW012 OVC020 04/01 A3002 RMK CU1SC8 SLP168
CYQM;2003-11-07 17:00;METAR CYQM 071700Z 36003KT 15SM FEW012 BKN020 OVC100 05/01 A3000 RMK CU1SC7AC1 TR CU SLP161 CU SLP161
CYQM;2003-11-07 18:00;METAR CYQM 071800Z 05003KT 15SM FEW012 BKN020 05/02 A2997 RMK CU1SC7 SLP154
CYQM;2003-11-07 19:00;METAR CYQM 071900Z 08002KT 15SM FEW012 OVC020 05/02 A2997 RMK CU1SC8 SLP152
CYQM;2003-11-07 20:00;METAR CYQM 072000Z 00000KT 15SM FEW012 OVC020 05/02 A2997 RMK CU1SC8 SLP151
CYQM;2003-11-07 21:00;METAR CYQM 072100Z 17005KT 15SM BKN020 BKN030 OVC250 04/02 A2996 RMK SC6SC2CI1 SLP149 SLP149
CYQM;2003-11-07 22:00;METAR CYQM 072200Z 17004KT 15SM BKN025 BKN035 04/02 A2995 RMK SC6SC2 SLP147
CYQM;2003-11-07 23:00;METAR CYQM 072300Z 17003KT 15SM BKN025 BKN035 03/02 A2995 RMK SC6SC2
CYQM;2003-11-08 00:00;METAR CYQM 080000Z 20003KT 15SM SCT100 02/01 A2995 RMK AC3 SLP144
CYQM;2003-11-08 01:00;METAR CYQM 080100Z 20005KT 15SM SCT100 02/01 A2995 RMK AC3 SLP144
CYQM;2003-11-08 02:00;METAR CYQM 080200Z 21005KT 15SM BKN240 00/M00 A2994 RMK CI2 SLP143
CYQM;2003-11-08 03:00;METAR CYQM 080300Z 20005KT 15SM BKN240 00/M00 A2992 RMK CS2 HALO SLP135
CYQM;2003-11-08 04:00;METAR CYQM 080400Z 19006KT 15SM BKN240 M00/M01 A2990 RMK CI2 SLP128
CYQM;2003-11-08 05:00;METAR CYQM 080500Z 20005KT 15SM BKN240 M01/M02 A2986 RMK CI2 SLP115
CYQM;2003-11-08 06:00;METAR CYQM 080600Z 19006KT 15SM BKN240 M02/M03 A2984 RMK CI2 SLP108
CYQM;2003-11-08 07:00;METAR CYQM 080700Z 24006KT 15SM BKN050 01/M01 A2983 RMK SC6 SLP104
CYQM;2003-11-08 08:00;METAR CYQM 080800Z 23008KT 15SM BKN050 01/M02 A2981 RMK SC6 SLP099
CYQM;2003-11-08 09:00;METAR CYQM 080900Z 24007KT 15SM SCT055 01/M01 A2981 RMK SC4 SLP097
CYQM;2003-11-08 10:00;METAR CYQM 081000Z 26012G18KT 15SM SCT055 01/M01 A2981 RMK SC4 SLP099
CYQM;2003-11-08 11:00;METAR CYQM 081100Z 29023G31KT 15SM VCSH FEW016 BKN030 BKN050 M00/M04 A2986 RMK CU1SC4SC2 SLP113 CU1SC4SC2 SLP113
CYQM;2003-11-08 12:00;METAR CYQM 081200Z 28018G24KT 15SM FEW020 SCT030 BKN050 M01/M06 A2989 RMK CU1SC2SC2 SLP126
CYQM;2003-11-08 13:00;METAR CYQM 081300Z 29025G30KT 10SM -SHSN FEW020 BKN030 BKN100 M02/M08 A2991 RMK CU2SC5AC1 VIS W QUAD 2 SLP132 CU2SC5AC1 VIS W QUAD 2 SLP132
CYQM;2003-11-08 14:00;METAR CYQM 081400Z 27028G36KT 15SM FEW025 M02/M09 A2991 RMK CU2 SLP133
CYQM;2003-11-08 15:00;METAR CYQM 081500Z 28021G31KT 15SM FEW040 M02/M15 A2991 RMK CU1 SLP131
CYQM;2003-11-08 16:00;METAR CYQM 081600Z 27028G33KT 15SM FEW040 M01/M15 A2990 RMK CU1 SLP129
CYQM;2003-11-08 17:00;METAR CYQM 081700Z 27030G37KT 15SM FEW040 M02/M15 A2989 RMK CU1 SLP124
CYQM;2003-11-08 18:00;METAR CYQM 081800Z 26030G37KT 15SM FEW040 M02/M14 A2989 RMK CU1 SLP125
CYQM;2003-11-08 19:00;METAR CYQM 081900Z 27033G41KT 15SM FEW040 M02/M15 A2990 RMK CU1 SLP130
CYQM;2003-11-08 20:00;METAR CYQM 082000Z 28021G34KT 15SM FEW040 FEW220 M02/M15 A2994 RMK SC1CI1 CU ASOCTD SLP141 ASOCTD SLP141
CYQM;2003-11-08 21:00;METAR CYQM 082100Z 28020G32KT 15SM FEW030 FEW100 M03/M15 A2997 RMK SC1AC1 TR AC SLP154 SLP154
CYQM;2003-11-08 22:00;METAR CYQM 082200Z 27021G28KT 15SM FEW030 M04/M15 A3000 RMK SC1 SLP165
CYQM;2003-11-08 23:00;METAR CYQM 082300Z 26017G25KT 15SM FEW030 M04/M14 A3003 RMK SC1 SLP173
CYQM;2003-11-09 00:00;METAR CYQM 090000Z 25020G26KT 15SM FEW040 M05/M14 A3006 RMK SC1 SLP182
CYQM;2003-11-09 01:00;METAR CYQM 090100Z 27017G29KT 15SM FEW040 M05/M13 A3007 RMK SC1 SLP186
CYQM;2003-11-09 02:00;METAR CYQM 090200Z 27021G26KT 15SM SKC M05/M12 A3008 RMK SLP190
CYQM;2003-11-09 03:00;METAR CYQM 090300Z 28020KT 15SM SKC M05/M12 A3009 RMK SLP194
CYQM;2003-11-09 04:00;METAR CYQM 090400Z 27017G22KT 15SM SKC M06/M11 A3011 RMK SLP200
CYQM;2003-11-09 05:00;METAR CYQM 090500Z 26016G22KT 15SM SKC M06/M11 A3011 RMK SLP202
CYQM;2003-11-09 06:00;METAR CYQM 090600Z 27015G22KT 15SM SKC M06/M11 A3013 RMK SLP208
CYQM;2003-11-09 07:00;METAR CYQM 090700Z 26017KT 15SM SKC M06/M11 A3015 RMK SLP215
CYQM;2003-11-09 08:00;METAR CYQM 090800Z 26013G18KT 15SM SKC M06/M11 A3016 RMK SLP219
CYQM;2003-11-09 09:00;METAR CYQM 090900Z 27018G24KT 15SM SKC M06/M11 A3019 RMK SLP227
CYQM;2003-11-09 10:00;METAR CYQM 091000Z 28016G27KT 15SM FEW040 M06/M11 A3021 RMK SC1 SLP236
CYQM;2003-11-09 11:00;METAR CYQM 091100Z 26017KT 15SM FEW020 FEW030 M07/M12 A3024 RMK CU1SC1 TR CU SLP245 SLP245
CYQM;2003-11-09 12:00;METAR CYQM 091200Z 27016G22KT 15SM FEW020 FEW030 M07/M12 A3027 RMK CU1SC1 TR CU SLP254 SLP254
CYQM;2003-11-09 13:00;METAR CYQM 091300Z 27018G24KT 15SM FEW020 FEW030 M05/M12 A3026 RMK CU1SC1 TR CU SLP252 SLP252
CYQM;2003-11-09 14:00;METAR CYQM 091400Z 29024G30KT 15SM FEW030 FEW040 M03/M12 A3028 RMK CU1SC2 SLP258
CYQM;2003-11-09 15:00;METAR CYQM 091500Z 30020G28KT 15SM FEW040 M02/M12 A3029 RMK CU2 SLP261
CYQM;2003-11-09 16:00;METAR CYQM 091600Z 27018KT 15SM FEW040 M01/M11 A3028 RMK CU2 SLP258
CYQM;2003-11-09 17:00;METAR CYQM 091700Z 30016G27KT 15SM FEW040 FEW160 M00/M11 A3027 RMK CU1AC1 TR AC SLP256 SLP256
CYQM;2003-11-09 18:00;METAR CYQM 091800Z 28016G24KT 15SM FEW040 FEW220 00/M11 A3027 RMK CU1CI1
CYQM;2003-11-09 19:00;METAR CYQM 091900Z 30015G20KT 15SM FEW040 FEW220 00/M12 A3027 RMK CU1CI1 SLP255
CYQM;2003-11-09 20:00;METAR CYQM 092000Z 28013KT 15SM FEW040 FEW220 M00/M14 A3028 RMK CU1CI1 SLP259
CYQM;2003-11-09 21:00;METAR CYQM 092100Z 27009KT 15SM FEW040 M02/M14 A3029 RMK CU1 SLP262
CYQM;2003-11-09 22:00;METAR CYQM 092200Z 27009KT 15SM FEW040 M03/M13 A3030 RMK CU1 SLP267
CYQM;2003-11-09 23:00;METAR CYQM 092300Z 27009KT 15SM FEW040 M03/M12 A3032 RMK CU1 SLP273
CYQM;2003-11-10 00:00;METAR CYQM 100000Z 26010KT 15SM FEW040 M04/M12 A3032 RMK CU1 SLP272
CYQM;2003-11-10 01:00;METAR CYQM 100100Z 25009KT 15SM FEW040 M04/M12 A3032 RMK CU1 SLP272
CYQM;2003-11-10 02:00;METAR CYQM 100200Z 25009KT 15SM SKC M04/M11 A3033 RMK SLP276
CYQM;2003-11-10 03:00;METAR CYQM 100300Z 27009KT 15SM SKC M05/M11 A3033 RMK SLP277
CYQM;2003-11-10 04:00;METAR CYQM 100400Z 26009KT 15SM SKC M05/M12 A3034 RMK SLP278
CYQM;2003-11-10 05:00;METAR CYQM 100500Z 24008KT 15SM SKC M06/M11 A3033 RMK SLP276
CYQM;2003-11-10 06:00;METAR CYQM 100600Z 24010KT 15SM SKC M06/M11 A3034 RMK SLP279
CYQM;2003-11-10 07:00;METAR CYQM 100700Z 25011KT 15SM SKC M07/M12 A3033 RMK SLP275
CYQM;2003-11-10 08:00;METAR CYQM 100800Z 25010KT 15SM SKC M07/M11 A3032 RMK SLP273
CYQM;2003-11-10 09:00;METAR CYQM 100900Z 22010KT 15SM FEW100 M07/M11 A3032 RMK AC2 SLP273
CYQM;2003-11-10 10:00;METAR CYQM 101000Z 23010KT 15SM SCT120 M07/M11 A3032 RMK AC2 SLP271
CYQM;2003-11-10 11:00;METAR CYQM 101100Z 23010KT 15SM FEW120 M07/M10 A3032 RMK AC2 SLP271
CYQM;2003-11-10 12:00;METAR CYQM 101200Z 24011KT 15SM FEW120 M06/M10 A3031 RMK AC2 SLP269
CYQM;2003-11-10 13:00;METAR CYQM 101300Z 24015KT 15SM FEW120 M04/M09 A3031 RMK AC1 SLP269
CYQM;2003-11-10 14:00;METAR CYQM 101400Z 24016KT 15SM FEW120 M02/M08 A3030 RMK AC1 SLP265
CYQM;2003-11-10 15:00;METAR CYQM 101500Z 24017KT 15SM FEW080 SCT120 M00/M06 A3028 RMK AC2AC1 SLP257
CYQM;2003-11-10 16:00;METAR CYQM 101600Z 25013G20KT 15SM BKN040 00/M03 A3025 RMK SC7 SLP250
CYQM;2003-11-10 17:00;METAR CYQM 101700Z 26019G25KT 15SM -SHSN SCT040 BKN070 01/M02 A3023 RMK SC4AC3 SLP241 SLP241
CYQM;2003-11-10 18:00;METAR CYQM 101800Z 27019G24KT 15SM SCT040 BKN080 BKN250 01/M02 A3021 RMK SC3AC2CI1 CU ASOCTD SLP235
CYQM;2003-11-10 19:00;METAR CYQM 101900Z 27013G22KT 15SM FEW040 SCT080 BKN250 01/M01 A3022 RMK CU2AC2CI1 SLP237
CYQM;2003-11-10 20:00;METAR CYQM 102000Z 27015KT 15SM FEW040 SCT080 01/M05 A3022 RMK CU2AC1 SLP238
CYQM;2003-11-10 21:00;METAR CYQM 102100Z 28007KT 15SM FEW040 FEW080 FEW250 M00/M06 A3023 RMK CU2AC1CI1 SLP242 SLP242
CYQM;2003-11-10 22:00;METAR CYQM 102200Z 27003KT 15SM BKN037 M01/M06 A3024 RMK SC6 SLP245
CYQM;2003-11-10 23:00;METAR CYQM 102300Z 25007KT 15SM BKN037 M01/M06 A3025 RMK SC7 SLP247
CYQM;2003-11-11 00:00;METAR CYQM 110000Z 25006KT 15SM BKN037 M00/M04 A3025 RMK SC7 SLP250
CYQM;2003-11-11 01:00;METAR CYQM 110100Z 22005KT 15SM FEW035 M01/M04 A3025 RMK SC1 SLP247
CYQM;2003-11-11 02:00;METAR CYQM 110200Z 21006KT 15SM FEW040 M02/M08 A3026 RMK SC1 SLP251
CYQM;2003-11-11 03:00;METAR CYQM 110300Z 23006KT 15SM SCT120 M03/M05 A3026 RMK AC3 SLP250
CYQM;2003-11-11 04:00;METAR CYQM 110400Z 23006KT 15SM FEW120 M03/M06 A3025 RMK AC2 SLP249
CYQM;2003-11-11 05:00;METAR CYQM 110500Z 23008KT 15SM SKC M03/M06 A3026 RMK SLP250
CYQM;2003-11-11 06:00;METAR CYQM 110600Z 24007KT 15SM BKN100 M03/M06 A3025 RMK AC6 SLP249
CYQM;2003-11-11 07:00;METAR CYQM 110700Z 23008KT 15SM BKN075 M04/M06 A3025 RMK AC6 FROIN SLP246
CYQM;2003-11-11 08:00;METAR CYQM 110800Z 23007KT 15SM OVC070 M03/M04 A3025 RMK AC8 SLP247
CYQM;2003-11-11 09:00;METAR CYQM 110900Z 23007KT 15SM FEW040 OVC070 M03/M04 A3025 RMK SC1AC7 SLP249
CYQM;2003-11-11 10:00;METAR CYQM 111000Z 24009KT 15SM FEW070 M03/M05 A3026 RMK AC2 SLP250
CYQM;2003-11-11 11:00;METAR CYQM 111100Z 24008KT 15SM FEW070 M05/M06 A3028 RMK AC1 SLP258
CYQM;2003-11-11 12:00;METAR CYQM 111200Z 22006KT 15SM FEW070 M04/M05 A3028 RMK AC1 FROIN SLP259
CYQM;2003-11-11 13:00;METAR CYQM 111300Z 23008KT 15SM FEW010 FEW070 M02/M03 A3029 RMK CU1AC1 TR CU AC SLP261 SLP261
CYQM;2003-11-11 14:00;METAR CYQM 111400Z 23008KT 15SM FEW015 FEW070 00/M03 A3029 RMK CU1AC1 TR CU AC SLP262 SLP262 SLP259
CYQM;2003-11-11 16:00;METAR CYQM 111600Z 26004KT 15SM FEW032 FEW250 03/M05 A3026 RMK CU1CI1 TR CU CI SLP251 SLP251
CYQM;2003-11-11 17:00;METAR CYQM 111700Z 23009KT 15SM FEW037 FEW250 05/M04 A3024 RMK CU2CI0 SLP245
CYQM;2003-11-11 18:00;METAR CYQM 111800Z 25005KT 15SM FEW040 SCT250 05/M04 A3024 RMK CU2CI0 SLP243
CYQM;2003-11-11 19:00;METAR CYQM 111900Z 24006KT 15SM FEW040 FEW250 06/M04 A3022 RMK CU1CI1 SLP238
CYQM;2003-11-11 20:00;METAR CYQM 112000Z 19005KT 15SM FEW040 FEW070 BKN250 04/M05 A3021 RMK CU1AC1CI2 TR CU AC COTRA SLP233 TR CU AC COTRA SLP233
CYQM;2003-11-11 21:00;METAR CYQM 112100Z 15003KT 15SM FEW040 BKN250 03/M04 A3020 RMK SC1CI2 COTRA SLP231
CYQM;2003-11-11 22:00;METAR CYQM 112200Z 16006KT 15SM FEW120 BKN250 01/M03 A3018 RMK AC1CI2 SLP225
CYQM;2003-11-11 23:00;METAR CYQM 112300Z 17005KT 15SM FEW120 SCT160 OVC250 01/M03 A3016 RMK AC1AS3CS3 SLP218 SLP218
CYQM;2003-11-12 00:00;METAR CYQM 120000Z 15004KT 15SM FEW120 BKN160 OVC250 01/M02 A3013 RMK AC2AS3CS2 SLP207 SLP207
CYQM;2003-11-12 01:00;METAR CYQM 120100Z 18004KT 15SM BKN160 OVC250 02/M01 A3011 RMK AS5CS2 SLP202
CYQM;2003-11-12 02:00;METAR CYQM 120200Z 15007KT 15SM SCT160 BKN250 02/M02 A3011 RMK AS3CI2 CS ASOCTD SLP199 SLP199
CYQM;2003-11-12 03:00;METAR CYQM 120300Z 14006KT 15SM BKN120 OVC250 02/M01 A3007 RMK AC7CI1 SLP187
CYQM;2003-11-12 04:00;METAR CYQM 120400Z 16007KT 15SM OVC080 02/M01 A3006 RMK AS8 SLP184
CYQM;2003-11-12 05:00;METAR CYQM 120500Z 16010KT 15SM -SHRA BKN020 OVC080 04/00 A3003 RMK SC6AS2 SLP174
CYQM;2003-11-12 06:00;METAR CYQM 120600Z 16011KT 12SM -RA OVC017 03/01 A2999 RMK SC8 SLP160
CYQM;2003-11-12 07:00;METAR CYQM 120700Z 16010KT 15SM -RA FEW017 OVC032 03/02 A2995 RMK SC2SC6 SLP144
CYQM;2003-11-12 08:00;METAR CYQM 120800Z 17013KT 15SM -SHRA BKN010 OVC014 03/02 A2991 RMK SF6SC2 SLP133
CYQM;2003-11-12 09:00;METAR CYQM 120900Z 16011G16KT 15SM -SHRA FEW008 OVC011 04/02 A2988 RMK SF2SC6 SLP122 SLP122
CYQM;2003-11-12 10:00;METAR CYQM 121000Z 16011KT 15SM FEW007 OVC012 04/03 A2985 RMK SF2SC6 SLP111
CYQM;2003-11-12 11:00;METAR CYQM 121100Z 16013KT 15SM FEW007 OVC012 04/03 A2982 RMK SF2SC6 SLP100
CYQM;2003-11-12 12:00;METAR CYQM 121200Z 17009G15KT 15SM FEW007 BKN012 OVC020 05/02 A2981 RMK SF2SC5SC1 SLP099 SLP099
CYQM;2003-11-12 13:00;METAR CYQM 121300Z 19007G15KT 12SM VCSH SCT007 BKN012 OVC020 06/04 A2981 RMK SF3SC4SC1 SLP097 SF3SC4SC1 SLP097
CYQM;2003-11-12 14:00;METAR CYQM 121400Z 18007KT 12SM SCT007 BKN012 OVC020 06/04 A2980 RMK SF3SC4SC1 SLP095 SLP095
CYQM;2003-11-12 15:00;METAR CYQM 121500Z 18006KT 5SM -SHRA BR FEW007 BKN013 OVC020 06/05 A2978 RMK SF2SC5SC2 SLP088 SF2SC5SC2 SLP088
CYQM;2003-11-12 16:00;METAR CYQM 121600Z 19005KT 5SM -SHRA BR FEW007 BKN012 OVC020 06/06 A2977 RMK SF2SC5SC2 SLP084 SF2SC5SC2 SLP084
CYQM;2003-11-12 17:00;METAR CYQM 121700Z 23008KT 12SM FEW007 BKN015 BKN030 07/06 A2976 RMK SF1SC5SC2 SLP080 SLP080
CYQM;2003-11-12 18:00;METAR CYQM 121800Z 27013KT 15SM FEW012 BKN030 BKN045 08/05 A2975 RMK SC2SC4SC1 SLP079 SLP079
CYQM;2003-11-12 19:00;METAR CYQM 121900Z 27014KT 15SM FEW015 BKN030 BKN055 08/04 A2976 RMK SC1SC4SC1 SLP080
CYQM;2003-11-12 20:00;METAR CYQM 122000Z 26008KT 15SM FEW015 BKN030 BKN055 07/04 A2976 RMK SC2SC4SC1 SLP081 SLP081
CYQM;2003-11-12 21:00;METAR CYQM 122100Z 25006KT 15SM FEW025 BKN035 BKN250 07/03 A2976 RMK SC2SC3CI1 SLP082 SLP082
CYQM;2003-11-12 22:00;METAR CYQM 122200Z 24007KT 15SM BKN030 05/02 A2978 RMK SC5 SLP086
CYQM;2003-11-12 23:00;METAR CYQM 122300Z 23006KT 15SM SCT030 OVC050 05/03 A2978 RMK SC3SC5 SLP089
CYQM;2003-11-13 00:00;METAR CYQM 130000Z 24007KT 15SM FEW030 OVC050 05/04 A2978 RMK SC2SC6 SLP089
CYQM;2003-11-13 01:00;METAR CYQM 130100Z 23006KT 15SM OVC050 05/04 A2978 RMK SC8 SLP087
CYQM;2003-11-13 02:00;METAR CYQM 130200Z 23005KT 15SM OVC050 05/04 A2977 RMK SC8 SLP085
CYQM;2003-11-13 03:00;METAR CYQM 130300Z 23004KT 15SM BKN050 05/04 A2977 RMK SC7 SLP084
CYQM;2003-11-13 04:00;METAR CYQM 130400Z 26004KT 15SM BKN050 04/03 A2975 RMK SC6 SLP078
CYQM;2003-11-13 05:00;METAR CYQM 130500Z 22004KT 15SM SCT050 04/03 A2975 RMK SC3 SLP076
CYQM;2003-11-13 06:00;METAR CYQM 130600Z 20006KT 15SM FEW050 03/03 A2975 RMK SC1 SLP078
CYQM;2003-11-13 07:00;METAR CYQM 130700Z 20006KT 15SM SKC 02/02 A2974 RMK SLP073
CYQM;2003-11-13 08:00;METAR CYQM 130800Z 19004KT 15SM FEW050 02/02 A2971 RMK SC2 SLP065
CYQM;2003-11-13 09:00;METAR CYQM 130900Z 00000KT 15SM BKN050 03/02 A2969 RMK SC7 SLP056
CYQM;2003-11-13 10:00;METAR CYQM 131000Z 13006KT 15SM BKN050 01/01 A2967 RMK SC6 SLP049
CYQM;2003-11-13 11:00;METAR CYQM 131100Z 09007KT 15SM BKN045 BKN080 02/00 A2962 RMK SC6AC1 SLP032
CYQM;2003-11-13 12:00;METAR CYQM 131200Z 10006KT 8SM BKN045 BKN080 04/02 A2959 RMK SC5AC2 SLP021
CYQM;2003-11-13 13:00;METAR CYQM 131300Z 10011KT 10SM SCT020 OVC045 05/02 A2954 RMK SC3SC5 SLP007
CYQM;2003-11-13 14:00;METAR CYQM 131400Z 11010KT 12SM FEW020 BKN045 BKN100 05/03 A2950 RMK SC2SC4AC2 SLP991 SLP991 SC2SC5AC2 PRESFR SLP967 SC2SC5AC2 SLP967
CYQM;2003-11-13 16:00;METAR CYQM 131600Z 09018KT 10SM -SHRA FEW012 BKN040 OVC100 06/04 A2930 RMK SC2SC5AC1 PRESFR SLP925
CYQM;2003-11-13 17:00;METAR CYQM 131700Z 10021G27KT 4SM -SHRA BR SCT008 OVC020 05/04 A2920
CYQM;2003-11-13 18:00;METAR CYQM 131800Z 11022G30KT 7SM -SHRA SCT008 OVC012 04/03 A2909 RMK SF3SC5 PRESFR SLP852 PRESFR SLP852 PRESFR SLP825 SLP825
CYQM;2003-11-13 20:00;METAR CYQM 132000Z 13018G32KT 4SM RA BR BKN008 OVC012 06/05 A2892 RMK SF6SC2 PRESFR SLP797 PRESFR SLP797
CYQM;2003-11-13 21:00;METAR CYQM 132100Z 14018G28KT 2 1/2SM RA BR BKN008 OVC012 06/06 A2893 RMK SF6SC2 SLP798 SLP798
CYQM;2003-11-13 22:00;METAR CYQM 132200Z 17006KT 15SM FEW012 BKN040 BKN080 08/07 A2893 RERA RMK SC2SC3AC2 /R10/ SLP798
CYQM;2003-11-13 23:00;METAR CYQM 132300Z 22014G26KT 15SM BKN025 07/04 A2893 RMK SC5 SLP799
CYQM;2003-11-14 00:00;METAR CYQM 140000Z 23012G17KT 15SM FEW025 FEW070 05/03 A2892 RMK SC1AC2 SLP794
CYQM;2003-11-14 01:00;METAR CYQM 140100Z 23014G19KT 15SM FEW025 BKN040 BKN070 05/04 A2890 RMK SC1SC5AC1 SLP790 SLP790
CYQM;2003-11-14 02:00;METAR CYQM 140200Z 17008KT 15SM FEW040 SCT070 04/03 A2888 RMK SC2AC1 SLP781
CYQM;2003-11-14 03:00;METAR CYQM 140300Z 21010KT 15SM FEW040 05/02 A2888 RMK SC2 SLP781
CYQM;2003-11-14 04:00;METAR CYQM 140400Z 20009KT 15SM SCT040 04/02 A2886 RMK SC3 SLP774
CYQM;2003-11-14 05:00;METAR CYQM 140500Z 19009KT 15SM FEW040 BKN075 04/01 A2885 RMK SC2AC5 SLP773
CYQM;2003-11-14 06:00;METAR CYQM 140600Z 20011KT 15SM FEW040 BKN075 04/01 A2884 RMK SC2AC5 SLP767
CYQM;2003-11-14 07:00;METAR CYQM 140700Z 19009KT 15SM FEW040 BKN075 03/M00 A2882 RMK SC2AC4 SLP760
CYQM;2003-11-14 08:00;METAR CYQM 140800Z 17006KT 15SM FEW040 BKN075 02/M00 A2881 RMK SC2AC4 SLP758
CYQM;2003-11-14 09:00;METAR CYQM 140900Z 18004KT 15SM FEW040 BKN100 02/00 A2880 RMK SC2AC5 SLP755
CYQM;2003-11-14 10:00;METAR CYQM 141000Z 19005KT 15SM FEW040 OVC100 02/M00 A2880 RMK SC1AC7
CYQM;2003-11-14 11:00;METAR CYQM 141100Z 20008KT 15SM FEW020 FEW040 BKN100 BKN140 OVC250 02/M01 A2880 RMK CF1SC2AC3AC2CI1 SLP755 RMK CF1SC2AC3AC2CI1 SLP755
CYQM;2003-11-14 12:00;METAR CYQM 141200Z 21010KT 15SM BKN014 BKN100 02/M00 A2881 RMK SC6AC1 SHS W-NW SLP757 SLP757
CYQM;2003-11-14 13:00;METAR CYQM 141300Z 24017KT 15SM OVC009 02/00 A2881 RMK SF8 SLP759
CYQM;2003-11-14 14:00;METAR CYQM 141400Z 24015KT 15SM BKN012 03/00 A2883 RMK SC7 SLP765
CYQM;2003-11-14 15:00;METAR CYQM 141500Z 24022G28KT 10SM -SHRASN BKN012 OVC040 03/01 A2884 RMK SC7SC1 SLP768 SLP768
CYQM;2003-11-14 16:00;METAR CYQM 141600Z 23022G30KT 1 1/2SM -SHSN BKN011 OVC250 02/M00 A2886 RMK CU6CI2 SLP774 SLP774
CYQM;2003-11-14 17:00;METAR CYQM 141700Z 25022G28KT 6SM -SHSN BKN011 OVC250 01/M01 A2887 RMK CU6CI2 SLP779 SLP779
CYQM;2003-11-14 18:00;METAR CYQM 141800Z 24024G34KT 10SM -SHSN BKN016 OVC250 01/M02 A2888 RMK CU7CI1 SLP783 SLP783
CYQM;2003-11-14 19:00;METAR CYQM 141900Z 25026G33KT 15SM BKN022 OVC030 00/M03 A2890 RMK CU6SC2
CYQM;2003-11-14 20:00;METAR CYQM 142000Z 24027G33KT 15SM BKN025 BKN100 BKN250 M00/M04 A2892 RMK CU5AC1CI1 SLP796
CYQM;2003-11-14 21:00;METAR CYQM 142100Z 24019G27KT 5SM -SHSN DRSN SCT017 SCT120 BKN250 M01/M04 A2894 RMK CF3AC1CI1 SLP803 RMK CF3AC1CI1 SLP803
CYQM;2003-11-14 22:00;METAR CYQM 142200Z 24020G28KT 15SM -SHSN SCT017 BKN120 M02/M05 A2897 RMK CF3AC2 DRSN SLP812 DRSN SLP812
CYQM;2003-11-14 23:00;METAR CYQM 142300Z 24019G25KT 15SM -SHSN SCT017 M02/M05 A2898 RMK CF3 DRSN SLP817
CYQM;2003-11-15 00:00;METAR CYQM 150000Z 24025G30KT 6SM -SHSN FEW017 BKN120 OVC250 M02/M05 A2899 RMK CF2AC3CI1 DRSN SLP820 CF2AC3CI1 DRSN SLP820
CYQM;2003-11-15 01:00;METAR CYQM 150100Z 24021G26KT 6SM -SHSN FEW017 SCT120 OVC250 M03/M05 A2901 RMK CF2AC2CI1 DRSN SLP826 CF2AC2CI1 DRSN SLP826
CYQM;2003-11-15 02:00;METAR CYQM 150200Z 25019G30KT 15SM -SHSN FEW017 SCT120 BKN250 M02/M06 A2903 RMK CF2AC2CI1 DRSN SN FINE SLP832 CF2AC2CI1 DRSN SN FINE SLP832
CYQM;2003-11-15 03:00;METAR CYQM 150300Z 25020G30KT 15SM -SHSN BKN022 OVC120 M02/M06 A2904 RMK SC6AC2 SN FINE SLP836 SN FINE SLP836
CYQM;2003-11-15 04:00;METAR CYQM 150400Z 24020G27KT 15SM BKN022 M02/M05 A2905 RMK SC6 SLP840
CYQM;2003-11-15 05:00;METAR CYQM 150500Z 25025G33KT 15SM BKN025 M02/M05 A2905 RMK SC6 SLP841
CYQM;2003-11-15 06:00;METAR CYQM 150600Z 25020G28KT 15SM FEW025 BKN050 M03/M05 A2906 RMK SC2SC5 SLP845
CYQM;2003-11-15 07:00;METAR CYQM 150700Z 25022G32KT 15SM -SHSN FEW025 SCT050 BKN250 M02/M06 A2908 RMK CF1SC2CI1 SN FINE SLP852 CF1SC2CI1 SN FINE SLP852
CYQM;2003-11-15 08:00;METAR CYQM 150800Z 24019G26KT 8SM -SHSN BKN016 OVC250 M03/M05 A2909 RMK SC5CI1 SLP856 SLP856
CYQM;2003-11-15 10:00;METAR CYQM 151000Z 25015G26KT 12SM -SHSN BKN040 M02/M05 A2914 RMK SC6 SLP870
CYQM;2003-11-15 11:00;METAR CYQM 151100Z 26023G29KT 15SM OVC035 M01/M05 A2916 RMK SC8 SLP879
CYQM;2003-11-15 12:00;METAR CYQM 151200Z 26022G28KT 15SM BKN035 OVC250 M01/M05 A2920 RMK SC6CI1 SLP891
CYQM;2003-11-15 13:00;METAR CYQM 151300Z 26021G29KT 15SM FEW018 BKN030 M01/M05 A2922 RMK CF1SC6 SLP899
CYQM;2003-11-15 14:00;METAR CYQM 151400Z 26021G30KT 15SM FEW018 OVC030 00/M04 A2925 RMK CF2SC6 SLP909
CYQM;2003-11-15 15:00;METAR CYQM 151500Z 26025G31KT 15SM SCT020 OVC028 00/M04 A2927 RMK CF3SC5 SLP915
CYQM;2003-11-15 16:00;METAR CYQM 151600Z 26020G32KT 15SM BKN025 OVC030 00/M04 A2929 RMK SC6SC2 SLP921
CYQM;2003-11-15 17:00;METAR CYQM 151700Z 27022G29KT 15SM OVC030 01/M04 A2931 RMK SC8 SLP930
CYQM;2003-11-15 18:00;METAR CYQM 151800Z 27019G30KT 15SM OVC032 01/M04 A2934 RMK SC8 SLP939
CYQM;2003-11-15 19:00;METAR CYQM 151900Z 27018G30KT 15SM OVC032 01/M03 A2937 RMK SC8 SLP951
CYQM;2003-11-15 20:00;METAR CYQM 152000Z 26020G25KT 15SM BKN032 01/M03 A2941 RMK SC7 SLP963
CYQM;2003-11-15 21:00;METAR CYQM 152100Z 27018G27KT 15SM BKN032 01/M03 A2945 RMK SC7 SLP975
CYQM;2003-11-15 22:00;METAR CYQM 152200Z 27020G27KT 15SM OVC036 00/M03 A2948 RMK SC8 SLP988
CYQM;2003-11-15 23:00;METAR CYQM 152300Z 27018G24KT 15SM OVC032 00/M03 A2952 RMK SC8 SLP001
CYQM;2003-11-16 00:00;METAR CYQM 160000Z 27017G29KT 15SM OVC032 00/M03 A2955 RMK SC8 SLP009
CYQM;2003-11-16 01:00;METAR CYQM 160100Z 27021G28KT 15SM OVC032 00/M03 A2957 RMK SC8 SLP018
CYQM;2003-11-16 02:00;METAR CYQM 160200Z 28019G29KT 15SM SCT032 M00/M04 A2958 RMK SC3 SLP020
CYQM;2003-11-16 03:00;METAR CYQM 160300Z 27024KT 15SM BKN032 00/M03 A2961 RMK SC6 SLP029
CYQM;2003-11-16 04:00;METAR CYQM 160400Z 27018G24KT 15SM BKN032 00/M04 A2964 RMK SC6 SLP041
CYQM;2003-11-16 05:00;METAR CYQM 160500Z 28015G28KT 15SM BKN030 M00/M04 A2966 RMK SC6 SLP047
CYQM;2003-11-16 06:00;METAR CYQM 160600Z 28016G21KT 15SM BKN030 M00/M05 A2968 RMK SC6 SLP055
CYQM;2003-11-16 07:00;METAR CYQM 160700Z 28016G24KT 15SM BKN030 M00/M04 A2971 RMK SC6 SLP065
CYQM;2003-11-16 08:00;METAR CYQM 160800Z 28017G22KT 15SM BKN030 00/M03 A2975 RMK SC7 SLP076
CYQM;2003-11-16 09:00;METAR CYQM 160900Z 28014G21KT 15SM OVC030 00/M03 A2978 RMK SC8 SLP087
CYQM;2003-11-16 10:00;METAR CYQM 161000Z 29014G21KT 15SM OVC030 00/M04 A2981 RMK SC8 SLP099
CYQM;2003-11-16 11:00;METAR CYQM 161100Z 29012G24KT 15SM BKN030 00/M04 A2984 RMK SC7 SLP110
CYQM;2003-11-16 12:00;METAR CYQM 161200Z 28015KT 15SM BKN030 00/M04 A2989 RMK SC7 SLP124
CYQM;2003-11-16 13:00;METAR CYQM 161300Z 28012G18KT 15SM BKN030 00/M03 A2993 RMK SC6 SLP138
CYQM;2003-11-16 14:00;METAR CYQM 161400Z 28016KT 15SM BKN030 01/M02 A2994 RMK SC5 SLP143
CYQM;2003-11-16 15:00;METAR CYQM 161500Z 28016G21KT 15SM BKN030 02/M04 A2997 RMK SC6 SLP153
CYQM;2003-11-16 16:00;METAR CYQM 161600Z 28014G19KT 15SM FEW030 04/M04 A2996 RMK SC2 SLP150
CYQM;2003-11-16 17:00;METAR CYQM 161700Z 28011G19KT 15SM FEW030 04/M04 A2998 RMK SC2 SLP156
CYQM;2003-11-16 18:00;METAR CYQM 161800Z 31010G15KT 15SM BKN035 05/M04 A3000 RMK SC5 SLP162
CYQM;2003-11-16 19:00;METAR CYQM 161900Z 28009KT 15SM FEW035 04/M05 A3002 RMK SC2 SLP168
CYQM;2003-11-16 20:00;METAR CYQM 162000Z 27011KT 15SM FEW035 03/M04 A3004 RMK SC1 SLP177
CYQM;2003-11-16 21:00;METAR CYQM 162100Z 27008KT 15SM FEW035 02/M04 A3007 RMK SC1 SLP185
CYQM;2003-11-16 22:00;METAR CYQM 162200Z 27006KT 15SM SKC 00/M04 A3009 RMK SLP193
CYQM;2003-11-16 23:00;METAR CYQM 162300Z 28010KT 15SM SKC M01/M05 A3011 RMK SLP199
CYQM;2003-11-17 00:00;METAR CYQM 170000Z 28006KT 15SM SKC M02/M05 A3013 RMK SLP206
CYQM;2003-11-17 01:00;METAR CYQM 170100Z 27004KT 15SM SKC M03/M06 A3014 RMK SLP210
CYQM;2003-11-17 02:00;METAR CYQM 170200Z 27005KT 15SM SKC M03/M06 A3015 RMK SLP213
CYQM;2003-11-17 03:00;METAR CYQM 170300Z 23008KT 15SM SKC M03/M05 A3016 RMK SLP217
CYQM;2003-11-17 04:00;METAR CYQM 170400Z 23007KT 15SM SKC M04/M06 A3018 RMK SLP223
CYQM;2003-11-17 05:00;METAR CYQM 170500Z 24006KT 15SM SKC M05/M06 A3018 RMK FROIN SLP224
CYQM;2003-11-17 06:00;METAR CYQM 170600Z 25006KT 15SM SKC M05/M06 A3019 RMK FROIN SLP226
CYQM;2003-11-17 07:00;METAR CYQM 170700Z 21005KT 15SM SKC M05/M06 A3019 RMK FROIN SLP229
CYQM;2003-11-17 08:00;METAR CYQM 170800Z 20006KT 15SM SKC M06/M06 A3021 RMK FROIN SLP234
CYQM;2003-11-17 09:00;METAR CYQM 170900Z 20005KT 15SM SKC M06/M07 A3021 RMK FROIN SLP236
CYQM;2003-11-17 10:00;METAR CYQM 171000Z 22005KT 15SM SKC M06/M06 A3022 RMK FROIN SLP238
CYQM;2003-11-17 11:00;METAR CYQM 171100Z 25005KT 15SM FEW020 M06/M07 A3023 RMK SC1 FROIN SLP243
CYQM;2003-11-17 12:00;METAR CYQM 171200Z 26005KT 15SM FEW020 M06/M07 A3026 RMK SC1 SLP251
CYQM;2003-11-17 13:00;METAR CYQM 171300Z 25003KT 15SM FEW020 M04/M06 A3027 RMK SC1 SLP255
CYQM;2003-11-17 14:00;METAR CYQM 171400Z 23004KT 15SM FEW010 FEW020 FEW140 M02/M04 A3028 RMK CF1SC1AC1 SLP259 SLP259
CYQM;2003-11-17 16:00;METAR CYQM 171600Z 24005KT 15SM FEW020 FEW140 01/M04 A3026 RMK CU1AC1 SLP253
CYQM;2003-11-17 17:00;METAR CYQM 171700Z 27005KT 15SM FEW025 FEW140 02/M04 A3025 RMK CU1AC1 SLP249
CYQM;2003-11-17 18:00;METAR CYQM 171800Z 25004KT 15SM FEW140 03/M04 A3024 RMK AC1 SLP245
CYQM;2003-11-17 19:00;METAR CYQM 171900Z 26004KT 15SM FEW140 04/M03 A3024 RMK AC1 SLP243
CYQM;2003-11-17 20:00;METAR CYQM 172000Z 20002KT 15SM FEW140 04/M03 A3025 RMK AC1 SLP246
CYQM;2003-11-17 21:00;METAR CYQM 172100Z 16003KT 15SM FEW140 FEW240 03/M03 A3026 RMK AC1CI1 SLP251
CYQM;2003-11-17 22:00;METAR CYQM 172200Z 20003KT 15SM FEW140 FEW240 02/M03 A3027 RMK AC1CI1 SLP256
CYQM;2003-11-17 23:00;METAR CYQM 172300Z 22006KT 15SM FEW140 01/M04 A3028 RMK AC1 SLP259
CYQM;2003-11-18 00:00;METAR CYQM 180000Z 20003KT 15SM SKC M01/M07 A3028 RMK SLP260
CYQM;2003-11-18 01:00;METAR CYQM 180100Z 20003KT 15SM SKC M02/M06 A3029 RMK SLP262
CYQM;2003-11-18 02:00;METAR CYQM 180200Z 23007KT 15SM SKC M02/M06 A3029 RMK SLP263
CYQM;2003-11-18 03:00;METAR CYQM 180300Z 22006KT 15SM SKC M03/M08 A3030 RMK SLP264
CYQM;2003-11-18 04:00;METAR CYQM 180400Z 24007KT 15SM SKC M04/M08 A3030 RMK SLP266
CYQM;2003-11-18 05:00;METAR CYQM 180500Z 22007KT 15SM SKC M04/M08 A3031 RMK SLP269
CYQM;2003-11-18 06:00;METAR CYQM 180600Z 22008KT 15SM SKC M05/M08 A3032 RMK SLP272
CYQM;2003-11-18 07:00;METAR CYQM 180700Z 24009KT 15SM SKC M06/M08 A3033 RMK SLP274
CYQM;2003-11-18 08:00;METAR CYQM 180800Z 23009KT 15SM SKC M06/M08 A3032 RMK SLP272
CYQM;2003-11-18 09:00;METAR CYQM 180900Z 24008KT 15SM SKC M06/M08 A3034 RMK SLP280
CYQM;2003-11-18 10:00;METAR CYQM 181000Z 22006KT 15SM SKC M06/M08 A3036 RMK SLP285
CYQM;2003-11-18 11:00;METAR CYQM 181100Z 23007KT 15SM SKC M06/M07 A3038 RMK FROIN SLP293
CYQM;2003-11-18 13:00;METAR CYQM 181300Z 23006KT 15SM FEW260 M03/M05 A3038 RMK CI1 SLP291
CYQM;2003-11-18 14:00;METAR CYQM 181400Z 24004KT 15SM FEW260 00/M03 A3039 RMK CI1 SLP295
CYQM;2003-11-18 15:00;METAR CYQM 181500Z 20003KT 15SM SCT260 02/M04 A3038 RMK CI2 SLP292
CYQM;2003-11-18 16:00;METAR CYQM 181600Z 30003KT 15SM FEW180 BKN260 06/M03 A3037 RMK AC1CI3 SLP290
CYQM;2003-11-18 17:00;METAR CYQM 181700Z 00000KT 15SM FEW180 BKN260 07/M04 A3037 RMK AC1CI5
CYQM;2003-11-18 18:00;METAR CYQM 181800Z 00000KT 15SM FEW140 BKN260 08/M04 A3038 RMK AC2CI4
CYQM;2003-11-18 19:00;METAR CYQM 181900Z 00000KT 15SM FEW140 BKN260 08/M03 A3038 RMK AC2CI4
CYQM;2003-11-18 20:00;METAR CYQM 182000Z 17002KT 15SM FEW140 BKN260 07/M03 A3037 RMK AC2CI4 SLP289
CYQM;2003-11-18 21:00;METAR CYQM 182100Z 08004KT 15SM FEW140 SCT260 04/M03 A3038 RMK AC1CI2 SLP291
CYQM;2003-11-18 22:00;METAR CYQM 182200Z 12007KT 15SM FEW140 FEW260 04/M03 A3037 RMK AC1CI1
CYQM;2003-11-18 23:00;METAR CYQM 182300Z 10003KT 15SM FEW140 03/M02 A3039 RMK AC2 SLP297
CYQM;2003-11-19 00:00;METAR CYQM 190000Z 00000KT 15SM FEW140 02/M03 A3039 RMK AC2 SLP295
CYQM;2003-11-19 01:00;METAR CYQM 190100Z 18006KT 15SM FEW140 02/M02 A3038 RMK AC2 SLP292
CYQM;2003-11-19 02:00;METAR CYQM 190200Z 20006KT 15SM SKC 00/M03 A3038 RMK SLP292
CYQM;2003-11-19 03:00;METAR CYQM 190300Z 17006KT 15SM SKC M01/M04 A3036 RMK SLP283
CYQM;2003-11-19 04:00;METAR CYQM 190400Z 18005KT 15SM SKC M01/M04 A3034 RMK SLP278
CYQM;2003-11-19 05:00;METAR CYQM 190500Z 18002KT 15SM SKC M01/M04 A3032 RMK SLP272
CYQM;2003-11-19 06:00;METAR CYQM 190600Z 20006KT 15SM SKC M01/M04 A3032 RMK SLP271
CYQM;2003-11-19 07:00;METAR CYQM 190700Z 19003KT 15SM SKC M02/M04 A3032 RMK FROIN SLP271
CYQM;2003-11-19 08:00;METAR CYQM 190800Z 15006KT 15SM FEW100 M02/M03 A3030 RMK AC2 FROIN SLP265
CYQM;2003-11-19 09:00;METAR CYQM 190900Z 18004KT 15SM FEW140 M01/M03 A3031 RMK AC2 FROIN SLP267
CYQM;2003-11-19 11:00;METAR CYQM 191100Z 16005KT 15SM FEW140 BKN250 01/M01 A3030 RMK AC2CI1 SLP263
CYQM;2003-11-19 12:00;METAR CYQM 191200Z 18003KT 15SM FEW140 BKN250 01/00 A3028 RMK AC2CI3 SLP258
CYQM;2003-11-19 13:00;METAR CYQM 191300Z 15012G17KT 15SM FEW100 BKN140 BKN250 04/M00 A3025 RMK AC2AS3CI1 SLP248
CYQM;2003-11-19 14:00;METAR CYQM 191400Z 17013KT 15SM FEW100 SCT140 BKN250 05/01 A3025 RMK AC2AS2CI2 SLP247 SLP247
CYQM;2003-11-19 15:00;METAR CYQM 191500Z 16014KT 15SM FEW016 FEW100 BKN120 BKN250 06/02 A3022 RMK CF1AC1AC4CI1 TR CF VIRGA DIST SW-NE SLP238
CYQM;2003-11-19 16:00;METAR CYQM 191600Z 16013G18KT 15SM FEW016 FEW100 BKN120 BKN250 07/03 A3018 RMK CF1AC2AC3CI1 TR CF VIRGA DIST NE ACC ASOCTD LWR LYR SLP225 CF1AC2AC3CI1 TR CF VIRGA DIST NE ACC ASOCTD LWR LYR SLP225
CYQM;2003-11-19 17:00;METAR CYQM 191700Z 17012KT 15SM FEW016 FEW100 BKN120 BKN250 08/04 A3014 RMK CF1AC2AC4CI1 TR CF VIRGA DIST NW-NE SLP211
CYQM;2003-11-19 18:00;METAR CYQM 191800Z 17014KT 15SM FEW020 SCT100 BKN120 OVC250 09/04 A3013 RMK CU1AC2AC2CI1 VIRGA DIST ALQDS ACC ASOCTD SLP205
CYQM;2003-11-19 19:00;METAR CYQM 191900Z 16013G20KT 15SM FEW020 FEW100 BKN120 OVC250 08/05 A3010 RMK CF1AC1AC6CI0 VIRGA DIST ALQDS SLP196 CF1AC1AC6CI0 VIRGA DIST ALQDS SLP196 RMK CF1AC1AC6CI0 TR SC VIRGA DIST ALQDS SLP189 CF1AC1AC6CI0 VIRGA DIST ALQDS SLP189
CYQM;2003-11-19 20:00;METAR CYQM 192000Z CCB 16015G20KT 15SM FEW020 FEW100 BKN120 OVC250 09/05 A3008 RMK CF1AC1AC6CI0 TR CF VIRGA DIST ALQDS SLP189
CYQM;2003-11-19 21:00;METAR CYQM 192100Z 16015G20KT 15SM FEW020 SCT100 OVC120 09/05 A3006 RMK SC1AC2AC5 VIRGA SW-NE SLP183 RMK CF1AC1AC6CI0 TR CF VIRGA DIST ALQDS SLP189 VIRGA SW-NE SLP183
CYQM;2003-11-19 22:00;METAR CYQM 192200Z 15017G24KT 15SM FEW120 OVC160 08/06 A3006 RMK AC2AS6 SLP181
CYQM;2003-11-19 23:00;METAR CYQM 192300Z 16020G27KT 15SM SCT120 OVC160 08/06 A3003 RMK AC3AS4 SLP173
CYQM;2003-11-20 00:00;METAR CYQM 200000Z 16019G27KT 15SM FEW030 OVC130 09/06 A3003 RMK SC1AS7 SLP172
CYQM;2003-11-20 01:00;METAR CYQM 200100Z 17013KT 15SM FEW015 FEW100 OVC130 08/06 A3002 RMK SF2AC1AS6 SLP169 SLP169
CYQM;2003-11-20 02:00;METAR CYQM 200200Z 16012G20KT 15SM BKN012 OVC090 09/07 A2999 RMK SF6AC2 SLP158
CYQM;2003-11-20 03:00;METAR CYQM 200300Z 16014G21KT 15SM FEW012 SCT026 OVC120 09/07 A2997 RMK SF1SC2AC5 SLP151 SLP151
CYQM;2003-11-20 04:00;METAR CYQM 200400Z 16017G22KT 15SM FEW012 FEW030 OVC120 09/08 A2995 RMK SF1SC2AC6 SLP143 SLP143
CYQM;2003-11-20 05:00;METAR CYQM 200500Z 16012G22KT 15SM SCT035 OVC120 10/08 A2992 RMK SC3AC5 SLP136
CYQM;2003-11-20 06:00;METAR CYQM 200600Z 16016G21KT 15SM SCT012 OVC120 11/09 A2990 RMK SF3AC5 SLP128
CYQM;2003-11-20 07:00;METAR CYQM 200700Z 15014G25KT 15SM BKN008 BKN012 OVC120 11/09 A2987 RMK SF6SF2AC1 SLP118 SLP118
CYQM;2003-11-20 08:00;METAR CYQM 200800Z 15013G21KT 15SM BKN008 OVC012 11/10 A2985 RMK SF6SF2 SLP109
CYQM;2003-11-20 09:00;METAR CYQM 200900Z 16011KT 15SM OVC007 12/11 A2983 RMK SF8 SLP104
CYQM;2003-11-20 10:00;METAR CYQM 201000Z 14012G19KT 15SM OVC006 13/12 A2981 RMK SF8 SLP095
CYQM;2003-11-20 11:00;METAR CYQM 201100Z 15017G25KT 15SM OVC006 13/12 A2980 RMK SF8 SLP093
CYQM;2003-11-20 12:00;METAR CYQM 201200Z 16020G27KT 15SM BKN006 BKN080 14/13 A2979 RMK SF6AC2 SLP091 SLP087 SLP077 SLP070
CYQM;2003-11-20 17:00;METAR CYQM 201700Z 16015G24KT 15SM BKN007 OVC015 15/15 A2971 RMK SF6SC2 SLP064
CYQM;2003-11-20 18:00;METAR CYQM 201800Z 16017G24KT 15SM OVC006 15/14 A2969 RMK SF8 SLP054
CYQM;2003-11-20 20:00;METAR CYQM 202000Z 15019G26KT 3SM -DZRA BR BKN005 OVC020 15/14 A2969 RMK SF6SC2 SLP054 SLP054
CYQM;2003-11-20 21:00;METAR CYQM 202100Z 15017G25KT 5SM -DZRA BR BKN005 OVC020 15/14 A2969 RMK SF6SC2 SLP056 SLP056
CYQM;2003-11-20 22:00;METAR CYQM 202200Z 16019G25KT 2SM RA BR SCT006 OVC019 15/14 A2970 RMK SF4SC4 SLP060 SLP060
CYQM;2003-11-20 23:00;METAR CYQM 202300Z 15014KT 10SM -SHRA BKN005 BKN018 OVC042 15/14 A2973 RERA RMK SF6SC2SC1 SLP067
CYQM;2003-11-21 00:00;METAR CYQM 210000Z 16016G25KT 15SM SCT006 BKN016 OVC023 16/15 A2973 RMK SF3SC4SC1 SLP070 SLP070
CYQM;2003-11-21 01:00;METAR CYQM 210100Z 16019G25KT 15SM FEW007 BKN012 OVC025 16/15 A2974 RMK SF1SC6SC1 SLP071 SLP071
CYQM;2003-11-21 02:00;METAR CYQM 210200Z 15015G20KT 10SM -SHRA SCT006 BKN014 OVC020 15/15 A2975 RERA RMK SF4SC3SC1 SLP075 RMK SF4SC3SC1 SLP075
CYQM;2003-11-21 03:00;METAR CYQM 210300Z 16020KT 12SM -SHRA SCT006 BKN015 16/15 A2974 RMK SF3SC3 SLP072
CYQM;2003-11-21 04:00;METAR CYQM 210400Z 15013G20KT 10SM -SHRA SCT007 OVC013 16/16 A2974 RMK SF4SC4 SLP071
CYQM;2003-11-21 06:00;METAR CYQM 210600Z 15015G20KT 12SM FEW008 OVC013 17/16 A2975 RMK SF1SC7 SLP074
CYQM;2003-11-21 07:00;METAR CYQM 210700Z 15012KT 12SM FEW008 OVC012 17/15 A2975 RMK SF1SC7 SLP076
CYQM;2003-11-21 08:00;METAR CYQM 210800Z 15013G19KT 8SM FEW008 OVC013 16/15 A2976 RMK SF2SC6 SLP079 SLP083
CYQM;2003-11-21 11:00;METAR CYQM 211100Z 14009KT 2 1/2SM -SHRA BR BKN007 OVC012 15/15 A2980
CYQM;2003-11-21 12:00;METAR CYQM 211200Z 15008KT 2SM -SHRA BR BKN006 OVC012 16/15 A2981 RMK SF6SC2 SLP096 SLP096 SF6SC2 SLP100 SLP100 SF6SC2 SLP098 SLP098
CYQM;2003-11-21 15:00;METAR CYQM 211500Z 17008KT 6SM BR BKN006 OVC012 15/15 A2981 RMK SF6SC2 SLP095 SLP093 SLP091 SF6SC2 SLP091
CYQM;2003-11-21 18:00;METAR CYQM 211800Z 17010KT 8SM BKN007 OVC012 16/16 A2979 RMK SF6SC2 SLP090
CYQM;2003-11-21 19:00;METAR CYQM 211900Z 17008KT 10SM BKN007 OVC012 16/16 A2980 RMK SF5SC3
CYQM;2003-11-21 20:00;METAR CYQM 212000Z 16005KT 10SM SCT005 BKN012 OVC050 15/15 A2981 RMK SF3SC3SC2 SLP096
CYQM;2003-11-21 21:00;METAR CYQM 212100Z 14004KT 10SM FEW012 BKN030 OVC075 15/15 A2981 RMK SF2SC3AC2 SLP096
CYQM;2003-11-21 22:00;METAR CYQM 212200Z 14004KT 15SM BKN008 OVC030 15/15 A2983 RMK SF6SC2 SLP101 SLP127
CYQM;2003-11-22 00:00;METAR CYQM 220000Z 26004KT 1 1/2SM BR BKN006 OVC030 13/13 A2984 RMK SF5SC3 SLP105 QUAD SLP104 SLP104
CYQM;2003-11-22 02:00;METAR CYQM 220200Z 03003KT 15SM BKN008 OVC030 14/14 A2983 RMK SF5SC3 SLP103 SLP101
CYQM;2003-11-22 04:00;METAR CYQM 220400Z 35013G18KT 4SM BR OVC006 10/10 A2984 RMK SF8 SLP106
CYQM;2003-11-22 05:00;METAR CYQM 220500Z 02013KT 6SM BR BKN006 OVC015 09/09 A2986 RMK SF7SC1 SLP113
CYQM;2003-11-22 06:00;METAR CYQM 220600Z 36012KT 15SM BKN006 OVC016 08/08 A2987 RMK SF6SC2 SLP118
CYQM;2003-11-22 07:00;METAR CYQM 220700Z 36014KT 15SM SCT006 OVC020 08/07 A2989 RMK SF3SC5 SLP122
CYQM;2003-11-22 08:00;METAR CYQM 220800Z 36015KT 15SM FEW006 SCT012 OVC025 07/05 A2991 RMK SF1SC3SC4 SLP129 SLP129
CYQM;2003-11-22 09:00;METAR CYQM 220900Z 36017G24KT 15SM BKN010 OVC025 06/04 A2993 RMK SC6SC2 SLP138 SF6SC2 SLP148 SLP148 SF2SF5SC2 SLP162 SF2SF5SC1 SLP173 RMK SF2SF5SC1 SLP180 SF2SF5SC1 SLP180
CYQM;2003-11-22 14:00;METAR CYQM 221400Z 36012G19KT 12SM FEW005 BKN012 BKN050 05/04 A3006 RMK SF2SC3SC2 SLP182 SLP182
CYQM;2003-11-22 15:00;METAR CYQM 221500Z 01011G20KT 12SM FEW012 BKN060 05/04 A3006 RMK SF2SC3 SLP181
CYQM;2003-11-22 16:00;METAR CYQM 221600Z 01016KT 12SM FEW012 SCT060 BKN220 06/04 A3006 RMK SC1SC3CI1 SLP181
CYQM;2003-11-22 18:00;METAR CYQM 221800Z 01020G25KT 15SM FEW020 FEW220 06/M00 A3007 RMK CU1CI1 SLP185
CYQM;2003-11-22 19:00;METAR CYQM 221900Z 36020KT 15SM FEW020 FEW220 06/M00 A3009 RMK CU1CI1 SLP193
CYQM;2003-11-22 20:00;METAR CYQM 222000Z 36019G28KT 15SM FEW100 BKN220 05/M00 A3011 RMK AC2CI2 SLP197
CYQM;2003-11-22 21:00;METAR CYQM 222100Z 01014G20KT 15SM FEW120 BKN220 04/M00 A3011 RMK AC2CI2 SLP201
CYQM;2003-11-22 22:00;METAR CYQM 222200Z 01013KT 15SM FEW120 BKN220 03/M00 A3013 RMK AC2CI2 SLP205
CYQM;2003-11-22 23:00;METAR CYQM 222300Z 02010KT 15SM SKC 02/M00 A3015 RMK SLP213
CYQM;2003-11-23 00:00;METAR CYQM 230000Z 02010KT 15SM FEW012 03/01 A3016 RMK SC2 SLP215
CYQM;2003-11-23 01:00;METAR CYQM 230100Z 02009KT 15SM FEW015 02/00 A3017 RMK SC2 SLP218
CYQM;2003-11-23 02:00;METAR CYQM 230200Z 03012KT 15SM FEW015 02/M01 A3017 RMK SC1 SLP221
CYQM;2003-11-23 03:00;METAR CYQM 230300Z 03009KT 15SM SKC 01/M02 A3019 RMK SLP225
CYQM;2003-11-23 04:00;METAR CYQM 230400Z 01011KT 15SM FEW015 01/M02 A3019 RMK SC1 SLP226
CYQM;2003-11-23 05:00;METAR CYQM 230500Z 02011KT 15SM FEW015 00/M02 A3019 RMK SC1 SLP225
CYQM;2003-11-23 06:00;METAR CYQM 230600Z 01010KT 15SM FEW015 00/M02 A3020 RMK SC1 SLP229
CYQM;2003-11-23 07:00;METAR CYQM 230700Z 02010KT 15SM FEW015 01/M01 A3019 RMK SC2 SLP227
CYQM;2003-11-23 08:00;METAR CYQM 230800Z 01011KT 15SM SCT015 01/M01 A3022 RMK SC3 SLP238
CYQM;2003-11-23 09:00;METAR CYQM 230900Z 02013G18KT 15SM BKN017 02/M01 A3022 RMK SC5 SLP239
CYQM;2003-11-23 10:00;METAR CYQM 231000Z 01015KT 15SM BKN017 01/M01 A3024 RMK SC6 SLP243
CYQM;2003-11-23 11:00;METAR CYQM 231100Z 02013G21KT 15SM BKN016 02/M00 A3023 RMK SC6 SLP241
CYQM;2003-11-23 12:00;METAR CYQM 231200Z 01015KT 15SM SCT016 BKN220 01/M02 A3026 RMK SC4CI1 SLP252
CYQM;2003-11-23 13:00;METAR CYQM 231300Z 02014KT 15SM BKN016 BKN220 01/M01 A3027 RMK SC5CI1 SLP255
CYQM;2003-11-23 14:00;METAR CYQM 231400Z 02015KT 15SM BKN016 02/M01 A3029 RMK SC6 SLP260
CYQM;2003-11-23 15:00;METAR CYQM 231500Z 02015KT 15SM SCT016 BKN250 03/M00 A3029 RMK SC3CI1 SLP262
CYQM;2003-11-23 16:00;METAR CYQM 231600Z 03018KT 15SM FEW016 BKN250 04/M01 A3028 RMK CU1CI2 SLP258
CYQM;2003-11-23 17:00;METAR CYQM 231700Z 03015KT 15SM FEW015 BKN250 04/M00 A3028 RMK CU2CI2 SLP256
CYQM;2003-11-23 18:00;METAR CYQM 231800Z 04014KT 15SM FEW015 BKN250 04/M01 A3026 RMK CU2CI2 SLP251
CYQM;2003-11-23 19:00;METAR CYQM 231900Z 03013G19KT 15SM FEW020 BKN250 04/M01 A3027 RMK CU2CI2 SLP254
CYQM;2003-11-23 20:00;METAR CYQM 232000Z 02013KT 15SM BKN015 BKN250 03/M01 A3028 RMK CU5CI1
CYQM;2003-11-23 21:00;METAR CYQM 232100Z 02009KT 15SM BKN014 BKN250 02/M00 A3028 RMK SC6CI1
CYQM;2003-11-23 22:00;METAR CYQM 232200Z 04011KT 15SM OVC016 02/M02 A3028 RMK SC8 SLP258
CYQM;2003-11-23 23:00;METAR CYQM 232300Z 03009KT 15SM OVC015 02/M01 A3029 RMK SC8 SLP260
CYQM;2003-11-24 00:00;METAR CYQM 240000Z 04009KT 15SM OVC015 02/M01 A3028 RMK SC8 SLP257
CYQM;2003-11-24 01:00;METAR CYQM 240100Z 06007KT 15SM OVC015 02/M01 A3026 RMK SC8 SLP252
CYQM;2003-11-24 02:00;METAR CYQM 240200Z 07004KT 15SM OVC015 02/M01 A3025 RMK SC8 SLP247
CYQM;2003-11-24 03:00;METAR CYQM 240300Z 05009KT 15SM OVC013 02/M01 A3024 RMK SC8 SLP244
CYQM;2003-11-24 04:00;METAR CYQM 240400Z 06006KT 15SM OVC013 02/M00 A3023 RMK SC8 SLP241
CYQM;2003-11-24 05:00;METAR CYQM 240500Z 08002KT 15SM OVC013 02/M00 A3022 RMK SC8 SLP237
CYQM;2003-11-24 06:00;METAR CYQM 240600Z 09004KT 15SM OVC011 02/M00 A3021 RMK SC8 SLP232
CYQM;2003-11-24 07:00;METAR CYQM 240700Z 04003KT 15SM OVC011 02/00 A3021 RMK SC8 SLP233
CYQM;2003-11-24 08:00;METAR CYQM 240800Z 08003KT 15SM OVC011 02/00 A3019 RMK SC8 SLP228
CYQM;2003-11-24 09:00;METAR CYQM 240900Z 10004KT 15SM OVC008 02/00 A3019 RMK SF8 SLP228 ST8 BLN VISBL TO 800FT SLP233 BLN VISBL TO 800FT SLP233 A3021 RMK SF7 SLP234 SF7 SLP234 SF8 SLP231 SLP231 SF8 SLP223 SLP223 VISBL TO 400FT SLP216
CYQM;2003-11-24 17:00;METAR CYQM 241700Z 19004KT 5SM BR OVC002 04/04 A3013 RMK ST8 BLN VISBL TO 400FT SLP208 SLP208 ST8 SLP196 SLP196 RMK ST8 SLP190 ST8 SLP190
CYQM;2003-11-24 20:00;METAR CYQM 242000Z 16007KT 2SM BR FEW002 OVC004 05/05 A3007 RMK SF2SF6 VIS LWR N-SE SLP185 N-SE SLP185 11/2 SLP182 SLP182 LWR N-NE SLP169 SLP169 SLP168
CYQM;2003-11-25 02:00;METAR CYQM 250200Z 16007KT 15SM OVC004 05/05 A2999 RMK SF8 SLP159 R29/P6000FT/U SLP141 SLP133
CYQM;2003-11-25 07:00;METAR CYQM 250700Z 14006KT 15SM OVC003 06/05 A2989 RMK SF8 SLP125 SLP116 SF2SF5SC1 L- INTMT SLP107
CYQM;2003-11-25 11:00;METAR CYQM 251100Z 16008KT 15SM OVC005 06/06 A2985 RMK SF8 INTMT L- SLP110
CYQM;2003-11-25 12:00;METAR CYQM 251200Z 18008KT 15SM FEW003 OVC005 07/06 A2986 RMK SF1SF7 SLP113
CYQM;2003-11-25 13:00;METAR CYQM 251300Z 15009KT 15SM BKN005 BKN250 07/06 A2982 RMK SF6CI1 SLP101
CYQM;2003-11-25 14:00;METAR CYQM 251400Z 16006KT 15SM BKN003 OVC012 07/07 A2983 RMK SF6SC2 SLP105
CYQM;2003-11-25 15:00;METAR CYQM 251500Z 15007KT 15SM FEW005 BKN017 BKN100 BKN250 09/07 A2981 RMK SF2SC3AC2CI1 SLP096
CYQM;2003-11-25 16:00;METAR CYQM 251600Z 18007KT 15SM FEW009 OVC022 09/07 A2979 RMK SF2SC6 SLP090
CYQM;2003-11-25 17:00;METAR CYQM 251700Z 23012KT 15SM FEW008 BKN015 OVC110 10/07 A2979 RMK SF1SC4AC3 SHS N-NE SLP090 SHS N-NE SLP090
CYQM;2003-11-25 18:00;METAR CYQM 251800Z 24013KT 15SM FEW008 BKN015 BKN100 10/08 A2979 RMK SF1SC4AC2 SLP089 SLP089
CYQM;2003-11-25 19:00;METAR CYQM 251900Z 24014KT 15SM -SHRA FEW012 BKN015 BKN100 10/07 A2981 RMK CU2SC4AC1 VIS W 6 SLP098
CYQM;2003-11-25 20:00;METAR CYQM 252000Z 29013KT 15SM BKN008 BKN020 06/04 A2985 RMK SF6SC1 SLP111
CYQM;2003-11-25 21:00;METAR CYQM 252100Z 26009KT 15SM FEW010 BKN025 05/02 A2989 RMK SF2SC4 SLP123
CYQM;2003-11-25 22:00;METAR CYQM 252200Z 27008KT 15SM FEW010 FEW025 04/M00 A2991 RMK SF1SC1 SLP132
CYQM;2003-11-25 23:00;METAR CYQM 252300Z 27005KT 15SM FEW025 03/M01 A2994 RMK SC2 SLP140
CYQM;2003-11-26 00:00;METAR CYQM 260000Z 25009KT 15SM SKC 01/M01 A2997 RMK SLP151
CYQM;2003-11-26 01:00;METAR CYQM 260100Z 27007KT 15SM SKC M00/M02 A2999 RMK SLP159
CYQM;2003-11-26 02:00;METAR CYQM 260200Z 26006KT 15SM SKC M01/M04 A3000 RMK SLP163
CYQM;2003-11-26 03:00;METAR CYQM 260300Z 26007KT 15SM SKC M02/M04 A3003 RMK SLP174
CYQM;2003-11-26 04:00;METAR CYQM 260400Z 24005KT 15SM SKC M02/M04 A3002 RMK FROIN SLP170
CYQM;2003-11-26 05:00;METAR CYQM 260500Z 24006KT 15SM SKC M03/M05 A3003 RMK FROIN SLP174
CYQM;2003-11-26 06:00;METAR CYQM 260600Z 24006KT 15SM SKC M04/M05 A3006 RMK FROIN SLP181
CYQM;2003-11-26 07:00;METAR CYQM 260700Z 23006KT 15SM SKC M04/M05 A3006 RMK FROIN SLP182
CYQM;2003-11-26 08:00;METAR CYQM 260800Z 25006KT 15SM SKC M04/M06 A3007 RMK FROIN SLP186
CYQM;2003-11-26 09:00;METAR CYQM 260900Z 25007KT 15SM SKC M04/M06 A3008 RMK FROIN SLP189
CYQM;2003-11-26 10:00;METAR CYQM 261000Z 23007KT 15SM SKC M05/M07 A3008 RMK SLP192
CYQM;2003-11-26 11:00;METAR CYQM 261100Z 23008KT 15SM FEW080 FEW220 M05/M06 A3012 RMK AC1CI1 SLP203
CYQM;2003-11-26 12:00;METAR CYQM 261200Z 24005KT 15SM FEW100 BKN220 M05/M07 A3012 RMK AC2CI2
CYQM;2003-11-26 13:00;METAR CYQM 261300Z 23007KT 15SM FEW100 BKN220 M03/M05 A3013 RMK AC1CI5 SLP207
CYQM;2003-11-26 14:00;METAR CYQM 261400Z 23008KT 15SM FEW100 BKN220 M02/M05 A3013 RMK AC1CI4
CYQM;2003-11-26 15:00;METAR CYQM 261500Z 23008KT 15SM FEW100 SCT220 M00/M04 A3012 RMK AC1CI2 SLP204
CYQM;2003-11-26 16:00;METAR CYQM 261600Z 24008KT 15SM FEW030 FEW220 01/M02 A3010 RMK SC1CI2 SLP198
CYQM;2003-11-26 17:00;METAR CYQM 261700Z 23014KT 15SM FEW030 FEW220 03/M05 A3009 RMK SC1CI2 SLP194
CYQM;2003-11-26 18:00;METAR CYQM 261800Z 22010G16KT 15SM FEW150 SCT220 03/M06 A3008 RMK AC1CI2 SLP191
CYQM;2003-11-26 19:00;METAR CYQM 261900Z 21010KT 15SM FEW150 SCT220 03/M06 A3008 RMK AC1CI2 SLP190
CYQM;2003-11-26 20:00;METAR CYQM 262000Z 24011KT 15SM SCT100 SCT150 BKN220 03/M05 A3010 RMK AC3AC1CI2 SLP197 SLP197
CYQM;2003-11-26 21:00;METAR CYQM 262100Z 22008KT 15SM BKN100 BKN220 02/M05 A3013 RMK AC5CI2
CYQM;2003-11-26 22:00;METAR CYQM 262200Z 22007KT 15SM BKN100 BKN220 02/M05 A3013 RMK AC6CI1 SLP206
CYQM;2003-11-26 23:00;METAR CYQM 262300Z 22006KT 15SM FEW100 01/M05 A3013 RMK AC2 SLP207
CYQM;2003-11-27 00:00;METAR CYQM 270000Z 23009KT 15SM FEW100 M00/M05 A3014 RMK AC2 SLP210
CYQM;2003-11-27 01:00;METAR CYQM 270100Z 23008KT 15SM SKC M01/M06 A3015 RMK SLP213
CYQM;2003-11-27 02:00;METAR CYQM 270200Z 23007KT 15SM BKN150 M01/M06 A3016 RMK AC6 SLP217
CYQM;2003-11-27 03:00;METAR CYQM 270300Z 26004KT 15SM BKN150 M02/M05 A3017 RMK AC6 SLP220
CYQM;2003-11-27 04:00;METAR CYQM 270400Z 25004KT 15SM FEW150 M02/M05 A3017 RMK AC2 SLP221
CYQM;2003-11-27 05:00;METAR CYQM 270500Z 25003KT 15SM FEW150 M02/M05 A3017 RMK AC2 SLP221
CYQM;2003-11-27 06:00;METAR CYQM 270600Z 24007KT 15SM FEW150 M03/M05 A3019 RMK AC2 SLP226
CYQM;2003-11-27 07:00;METAR CYQM 270700Z 26007KT 15SM SKC M03/M05 A3020 RMK SLP230
CYQM;2003-11-27 08:00;METAR CYQM 270800Z 23006KT 15SM SKC M03/M05 A3021 RMK SLP233
CYQM;2003-11-27 09:00;METAR CYQM 270900Z 25006KT 15SM SCT150 M03/M05 A3021 RMK AC2 SLP234
CYQM;2003-11-27 10:00;METAR CYQM 271000Z 25007KT 15SM FEW150 M04/M05 A3021 RMK AC2 SLP234
CYQM;2003-11-27 11:00;METAR CYQM 271100Z 25006KT 15SM FEW150 M04/M05 A3022 RMK AC2 SLP238
CYQM;2003-11-27 12:00;METAR CYQM 271200Z 24006KT 15SM FEW120 FEW150 M04/M05 A3025 RMK AC2AC1 SLP249
CYQM;2003-11-27 13:00;METAR CYQM 271300Z 22005KT 15SM FEW120 SCT150 M03/M04 A3026 RMK AC1AC2 SLP253
CYQM;2003-11-27 14:00;METAR CYQM 271400Z 25005KT 15SM FEW150 00/M02 A3027 RMK AC2 SLP254
CYQM;2003-11-27 15:00;METAR CYQM 271500Z 25006KT 15SM FEW150 FEW240 02/M02 A3026 RMK AC1CI1 SLP250
CYQM;2003-11-27 16:00;METAR CYQM 271600Z 24006KT 15SM FEW150 FEW240 04/M03 A3025 RMK AC1CI2 SLP246
CYQM;2003-11-27 17:00;METAR CYQM 271700Z 21006KT 15SM FEW150 BKN240 05/M02 A3024 RMK AC1CI3 SLP245
CYQM;2003-11-27 18:00;METAR CYQM 271800Z 27005KT 15SM BKN240 06/M03 A3025 RMK CI4 SLP246
CYQM;2003-11-27 19:00;METAR CYQM 271900Z 21002KT 15SM BKN240 06/M03 A3024 RMK CI4 SLP245
CYQM;2003-11-27 20:00;METAR CYQM 272000Z 23004KT 15SM FEW240 05/M04 A3027 RMK CI2 SLP255
CYQM;2003-11-27 21:00;METAR CYQM 272100Z 20003KT 15SM FEW240 04/M04 A3028 RMK CI1 SLP256
CYQM;2003-11-27 22:00;METAR CYQM 272200Z 22005KT 15SM FEW150 FEW240 03/M04 A3029 RMK AC1CI1 SLP262
CYQM;2003-11-27 23:00;METAR CYQM 272300Z 19003KT 15SM FEW150 03/M04 A3028 RMK AC2 SLP259
CYEG;2003-08-15 00:00;METAR CYEG 150000Z 31003KT 15SM FEW085TCU SCT120 28/08 A3008 RMK TCU2AC1 SLP190 SLP195
CYEG;2003-08-15 02:00;METAR CYEG 150200Z 32004KT 15SM FEW120 23/11 A3010 RMK AC1 ACC ASOCTD NE SLP194
CYEG;2003-08-15 03:00;METAR CYEG 150300Z 20002KT 15SM FEW120 16/10 A3009 RMK AC1 SLP195
CYEG;2003-08-15 04:00;METAR CYEG 150400Z 20005KT 15SM SKC 14/09 A3012 RMK SLP203
CYEG;2003-08-15 05:00;METAR CYEG 150500Z 20004KT 15SM SKC 12/08 A3013 RMK SLP206
CYEG;2003-08-15 06:00;METAR CYEG 150600Z 18005KT 15SM SKC 13/08 A3014 RMK SLP207
CYEG;2003-08-15 07:00;METAR CYEG 150700Z 16002KT 15SM SKC 10/07 A3014 RMK SLP208
CYEG;2003-08-15 08:00;METAR CYEG 150800Z 20004KT 15SM SKC 10/06 A3015 RMK SLP210
CYEG;2003-08-15 09:00;METAR CYEG 150900Z 19005KT 15SM FEW250 11/07 A3015 RMK CI1 SLP208
CYEG;2003-08-15 10:00;METAR CYEG 151000Z 18004KT 15SM FEW250 09/06 A3015 RMK CI1 SLP208
CYEG;2003-08-15 12:00;METAR CYEG 151200Z 21004KT 15SM FEW120 07/04 A3016 RMK AC1 SLP215
CYEG;2003-08-15 13:00;METAR CYEG 151300Z 00000KT 15SM FEW120 08/06 A3016 RMK AC1 SLP216
CYEG;2003-08-15 14:00;METAR CYEG 151400Z 13003KT 15SM FEW120 FEW250 15/10 A3015 RMK AC1CI1 TR CLD SLP213
CYEG;2003-08-15 15:00;METAR CYEG 151500Z 16006KT 15SM FEW250 19/09 A3014 RMK CI1 SLP210
CYEG;2003-08-15 16:00;METAR CYEG 151600Z 14005KT 15SM FEW250 22/10 A3013 RMK CI0 SLP206
CYEG;2003-08-15 17:00;METAR CYEG 151700Z 17010KT 12SM FEW250 25/08 A3011 RMK CI0 HZ SLP199
CYEG;2003-08-15 18:00;METAR CYEG 151800Z 19011G16KT 12SM FEW250 27/08 A3010 RMK CI0 HZ SLP192
CYEG;2003-08-15 19:00;METAR CYEG 151900Z 18012KT 10SM FEW250 29/08 A3008 RMK CI0 HZ SLP184
CYEG;2003-08-15 20:00;METAR CYEG 152000Z 19012G17KT 10SM FEW140 SCT250 29/05 A3006 RMK AC1CI2 HZ TR AC SLP180 SLP180
CYEG;2003-08-15 21:00;METAR CYEG 152100Z 21009G16KT 10SM FEW250 31/06 A3005 RMK CI1 HZ SLP171
CYEG;2003-08-15 22:00;METAR CYEG 152200Z 20007KT 8SM FEW250 31/04 A3003 RMK CI2 FU SLP167
CYEG;2003-08-15 23:00;METAR CYEG 152300Z 22006KT 8SM FEW250 31/05 A3002 RMK CI1 FU SLP163
CYEG;2003-08-16 00:00;METAR CYEG 160000Z 19002KT 10SM FEW250 30/07 A3001 RMK CI1 FU SLP162
CYEG;2003-08-16 01:00;METAR CYEG 160100Z 00000KT 8SM SKC 30/11 A2999 RMK FU SLP156
CYEG;2003-08-16 02:00;METAR CYEG 160200Z 05006KT 8SM FEW300 25/12 A2997 RMK CI1 FU SLP149
CYEG;2003-08-16 03:00;METAR CYEG 160300Z 11006KT 8SM FEW300 21/08 A2996 RMK CI1 FU SLP144
CYEG;2003-08-16 04:00;METAR CYEG 160400Z CCA 12007KT 8SM FEW240 FEW300 15/09 A2996 RMK CI1CI1 FU TR CLD SLP143 SLP143
CYEG;2003-08-16 05:00;METAR CYEG 160500Z 10005KT 8SM FEW240 15/08 A2995 RMK CI2 FU SLP138
CYEG;2003-08-16 06:00;METAR CYEG 160600Z 13003KT 8SM BKN240 15/08 A2993 RMK CI2 FU SLP132
CYEG;2003-08-16 07:00;METAR CYEG 160700Z 13004KT 10SM BKN240 15/08 A2991 RMK CI2 FU SLP126
CYEG;2003-08-16 08:00;METAR CYEG 160800Z 13005KT 10SM SCT140 OVC240 15/08 A2990 RMK AS1CI6 FU SLP121
CYEG;2003-08-16 09:00;METAR CYEG 160900Z 14006KT 10SM OVC180 17/08 A2987 RMK AC8 FU SLP106
CYEG;2003-08-16 10:00;METAR CYEG 161000Z 17002KT 10SM OVC150 18/08 A2985 RMK AC7 FU SLP101
CYEG;2003-08-16 11:00;METAR CYEG 161100Z 12006KT 10SM SCT150 OVC210 18/07 A2981 RMK AC3CI5 FU SLP087
CYEG;2003-08-16 13:00;METAR CYEG 161300Z 15007KT 10SM BKN150 OVC220 19/08 A2980 RMK AC6CI2 VIRGA FU SLP081 SLP081
CYEG;2003-08-16 14:00;METAR CYEG 161400Z 00000KT 10SM OVC110 19/08 A2981 RMK AC8 FEW ACC EMBD VIRGA FU SLP085 SLP085
CYEG;2003-08-16 15:00;METAR CYEG 161500Z 15005KT 10SM VCSH FEW070 BKN110 OVC150 19/10 A2980 RMK ACC2AC5AS1 FU SLP088
CYEG;2003-08-16 16:00;METAR CYEG 161600Z 31003KT 12SM -SHRA FEW070 OVC110 19/10 A2977 RMK ACC2AC6 FU SLP080 SLP080
CYEG;2003-08-16 17:00;METAR CYEG 161700Z 26009KT 10SM -SHRA FEW070 OVC110 24/12 A2981 RMK ACC2AC6 FU PRESRR SLP090 PRESRR SLP090
CYEG;2003-08-16 18:00;METAR CYEG 161800Z 22010KT 10SM -SHRA FEW070 BKN110 OVC150 20/10 A2982 RMK ACC2AC6AS1 FU SLP098
CYEG;2003-08-16 19:00;METAR CYEG 161900Z 22003KT 10SM -SHRA BKN055 OVC110 17/14 A2982 RMK SC5AC3 TCU ASOCTD FU SLP097 ASOCTD FU SLP097
CYEG;2003-08-16 20:00;METAR CYEG 162000Z 22003KT 10SM TS FEW055TCU BKN120 OVC170 18/14 A2980 RMK TCU2AC5AS1 CB ASOCTD E-SE FU SLP093
CYEG;2003-08-16 21:00;METAR CYEG 162100Z 25005KT 10SM SCT130 OVC250 21/14 A2980 RMK AC2CS6 FU SLP090
CYEG;2003-08-16 22:00;METAR CYEG 162200Z 30010KT 12SM SCT180 OVC270 24/10 A2980 RMK AC2CS3 FU SLP089
CYEG;2003-08-16 23:00;METAR CYEG 162300Z 32006KT 12SM SCT180 BKN270 24/11 A2980 RMK AC2CI2 FU SLP091
CYEG;2003-08-17 00:00;METAR CYEG 170000Z 33007KT 12SM SCT180 BKN270 24/12 A2981 RMK AC2CI2 FU SLP088
CYEG;2003-08-17 01:00;METAR CYEG 170100Z 33004KT 15SM FEW180 BKN270 23/14 A2980 RMK AC1CI4 FU SLP087
CYEG;2003-08-17 04:00;METAR CYEG 170400Z 24003KT 15SM FEW270 13/09 A2984 RMK CI0 SLP106
CYEG;2003-08-17 05:00;METAR CYEG 170500Z 22003KT 15SM FEW270 12/09 A2985 RMK CI0 SLP109
CYEG;2003-08-17 06:00;METAR CYEG 170600Z 21003KT 15SM FEW270 11/09 A2987 RMK CI0 SLP119
CYEG;2003-08-17 07:00;METAR CYEG 170700Z 20004KT 15SM SKC 11/08 A2988 RMK SLP123
CYEG;2003-08-17 08:00;METAR CYEG 170800Z 23002KT 15SM FEW210 09/06 A2990 RMK CI1 SLP128
CYEG;2003-08-17 09:00;METAR CYEG 170900Z 00000KT 15SM BKN210 10/08 A2990 RMK CI3 SLP132
CYEG;2003-08-17 10:00;METAR CYEG 171000Z 18004KT 15SM SCT130 BKN210 10/08 A2991 RMK AC3CI2 SLP135
CYEG;2003-08-17 11:00;METAR CYEG 171100Z 23002KT 15SM FEW130 SCT210 09/07 A2993 RMK AC2CI1 SLP141
CYEG;2003-08-17 12:00;METAR CYEG 171200Z 20004KT 15SM FEW090 FEW130 08/07 A2995 RMK ACC1AC1 TR AC SLP144
CYEG;2003-08-17 13:00;METAR CYEG 171300Z 17002KT 15SM FEW090 FEW130 FEW270 07/05 A2996 RMK ACC1AC1CI0 SLP147 SLP147
CYEG;2003-08-17 14:00;METAR CYEG 171400Z 18003KT 15SM FEW090 FEW130 FEW270 12/10 A2996 RMK ACC1AC1CI1 FU ALF SLP150 FU ALF SLP150
CYEG;2003-08-17 15:00;METAR CYEG 171500Z 35003KT 15SM FEW090 FEW130 FEW270 19/12 A2999 RMK ACC1AC1CI1 FU ALF SLP158 FU ALF SLP158
CYEG;2003-08-17 16:00;METAR CYEG 171600Z 01006KT 15SM FEW090 FEW270 21/09 A2999 RMK ACC1CI1 FU ALF S SLP159 SLP159
CYEG;2003-08-17 17:00;METAR CYEG 171700Z 02006KT 15SM FEW090 FEW170 FEW270 22/09 A2999 RMK AC1AC1CI1 TR AC LYRS SLP159 AC LYRS SLP159
CYEG;2003-08-17 18:00;METAR CYEG 171800Z 03004KT 15SM FEW090 FEW150 BKN270 23/09 A3000 RMK AC1AC1CI1 FEW ACC ASOCTD DIST N SLP160 FEW ACC ASOCTD DIST N SLP160
CYEG;2003-08-17 19:00;METAR CYEG 171900Z 09003KT 15SM FEW090 FEW150 BKN270 24/09 A2999 RMK AC1AC1CI1 CC ASOCTD SLP157 ASOCTD SLP157
CYEG;2003-08-17 20:00;METAR CYEG 172000Z 19005KT 15SM FEW065 SCT270 25/09 A2998 RMK CF1CI1 SLP155
CYEG;2003-08-17 21:00;METAR CYEG 172100Z 28004KT 15SM FEW065 SCT270 26/10 A2997 RMK CU1CI1 SLP151
CYEG;2003-08-17 22:00;METAR CYEG 172200Z 25003KT 15SM FEW065 FEW100 SCT270 26/10 A2996 RMK CU1AC1CI0 FU ALF SLP148 ALF SLP148
CYEG;2003-08-17 23:00;METAR CYEG 172300Z 14009KT 15SM FEW070TCU SCT110 BKN270 26/10 A2995 RMK TCU2AC2CI1 FU ALF SLP143
CYEG;2003-08-18 00:00;METAR CYEG 180000Z 10004KT 15SM FEW070 BKN090 BKN270 25/10 A2994 RMK CU1ACC5CI1 SLP142 SLP142
CYEG;2003-08-18 01:00;METAR CYEG 180100Z 06006KT 15SM BKN090 24/10 A2994 RMK AC6 FEW ACC ASOCTD SLP140
CYEG;2003-08-18 02:00;METAR CYEG 180200Z 05005KT 15SM BKN090 21/13 A2993 RMK AC7 FEW ACC ASOCTD SLP139
CYEG;2003-08-18 03:00;METAR CYEG 180300Z 09007KT 15SM BKN094 BKN120 BKN250 22/11 A2993 RMK AC5AC1CI1 SLP133 SLP133
CYEG;2003-08-18 04:00;METAR CYEG 180400Z 12005KT 15SM FEW100 BKN120 BKN250 19/11 A2994 RMK AC2AC3CI1 SLP136 SLP136
CYEG;2003-08-18 05:00;METAR CYEG 180500Z 11004KT 15SM FEW100 SCT120 BKN250 16/10 A2995 RMK AC1AC2CI2 SLP139
CYEG;2003-08-18 06:00;METAR CYEG 180600Z 12005KT 15SM FEW120 BKN250 15/10 A2995 RMK AC2CI2
CYEG;2003-08-18 07:00;METAR CYEG 180700Z 09007KT 15SM FEW110 SCT250 16/10 A2995 RMK AC2CI1 AURBO
CYEG;2003-08-18 08:00;METAR CYEG 180800Z 10008KT 15SM SCT250 17/09 A2993 RMK CI2 SLP134
CYEG;2003-08-18 09:00;METAR CYEG 180900Z 12008KT 15SM FEW250 14/09 A2991 RMK CI1 SLP125
CYEG;2003-08-18 10:00;METAR CYEG 181000Z 13007KT 15SM FEW250 14/09 A2990 RMK CI1 SLP123
CYEG;2003-08-18 11:00;METAR CYEG 181100Z 14007KT 15SM FEW120 SCT240 14/09 A2989 RMK AC1CI1 SLP121
CYEG;2003-08-18 12:00;METAR CYEG 181200Z 25003KT 15SM FEW240 11/08 A2988 RMK CI1 SLP120
CYEG;2003-08-18 13:00;METAR CYEG 181300Z 19002KT 15SM FEW240 09/07 A2988 RMK CI1 SLP120
CYEG;2003-08-18 14:00;METAR CYEG 181400Z 16003KT 15SM FEW120 FEW240 13/09 A2987 RMK AC1CI1 SLP117
CYEG;2003-08-18 15:00;METAR CYEG 181500Z 22002KT 15SM FEW250 15/10 A2986 RMK CI1 SLP112
CYEG;2003-08-18 16:00;METAR CYEG 181600Z 28005KT 15SM BKN250 19/12 A2984 RMK CI2 SLP106
CYEG;2003-08-18 17:00;METAR CYEG 181700Z 20003KT 15SM BKN250 22/13 A2984 RMK CI2 SLP104
CYEG;2003-08-18 18:00;METAR CYEG 181800Z 25005KT 15SM SCT250 25/12 A2982 RMK CI1 SLP094
CYEG;2003-08-18 19:00;METAR CYEG 181900Z 25005KT 12SM FEW250 28/11 A2980 RMK CI0 FU SLP087
CYEG;2003-08-18 20:00;METAR CYEG 182000Z 19005KT 12SM FEW250 30/09 A2977 RMK CI0 FU SLP080
CYEG;2003-08-18 21:00;METAR CYEG 182100Z 17010KT 12SM FEW270 31/09 A2976 RMK CI0 FU SLP070
CYEG;2003-08-18 22:00;METAR CYEG 182200Z 19007KT 10SM FEW270 31/10 A2975 RMK CI0 FU SLP066
CYEG;2003-08-18 23:00;METAR CYEG 182300Z 20004KT 8SM SKC 31/09 A2973 RMK FU SLP062
CYEG;2003-08-19 00:00;METAR CYEG 190000Z 13005KT 8SM FEW085 31/10 A2972 RMK ACC1 FU SLP059
CYEG;2003-08-19 01:00;METAR CYEG 190100Z 34003KT 8SM FEW120 26/15 A2973 RMK ACC2 FU SLP063
CYEG;2003-08-19 02:00;METAR CYEG 190200Z 33009KT 8SM FEW110 25/13 A2978 RMK ACC2 FU SLP077
CYEG;2003-08-19 03:00;METAR CYEG 190300Z 36014G26KT 12SM SCT130 19/10 A2986 RMK AC3 PRESRR PST HR SLP115
CYEG;2003-08-19 04:00;METAR CYEG 190400Z 36007KT 15SM FEW110 17/09 A2989 RMK AC2 SLP123
CYEG;2003-08-19 05:00;METAR CYEG 190500Z 36005KT 15SM FEW110 14/08 A2990 RMK AC2 SLP127
CYEG;2003-08-19 06:00;METAR CYEG 190600Z 34005KT 15SM FEW110 12/07 A2992 RMK AC2 SLP131
CYEG;2003-08-19 07:00;METAR CYEG 190700Z 27002KT 15SM FEW110 09/05 A2993 RMK AC1 SLP134
CYEG;2003-08-19 08:00;METAR CYEG 190800Z 22003KT 15SM FEW110 07/05 A2994 RMK AC1 SLP137
CYEG;2003-08-19 09:00;METAR CYEG 190900Z 23003KT 15SM SKC 08/05 A2995 RMK FU ALF N SLP141
CYEG;2003-08-19 10:00;METAR CYEG 191000Z 25003KT 15SM SKC 06/03 A2998 RMK FU ALF N SLP150
CYEG;2003-08-19 11:00;METAR CYEG 191100Z 21003KT 15SM SCT250 06/04 A2999 RMK CI1 SLP155
CYEG;2003-08-19 12:00;METAR CYEG 191200Z 22002KT 15SM FEW130 BKN250 05/03 A2998 RMK AC1CI2 SLP155
CYEG;2003-08-19 13:00;METAR CYEG 191300Z 21003KT 15SM FEW130 BKN240 07/05 A2999 RMK AC1CI2 SLP158
CYEG;2003-08-19 14:00;METAR CYEG 191400Z 22002KT 15SM SCT130 BKN240 09/07 A3000 RMK AC3CC1 SLP161
CYEG;2003-08-19 15:00;METAR CYEG 191500Z 23002KT 15SM BKN120 BKN240 13/09 A3000 RMK AC5CI1 SLP165
CYEG;2003-08-19 16:00;METAR CYEG 191600Z 00000KT 15SM BKN120 BKN240 17/09 A3000 RMK AC5CI1 ACC ASOCTD SLP163 SLP163
CYEG;2003-08-19 17:00;METAR CYEG 191700Z 34004KT 15SM FEW120 BKN240 18/08 A2998 RMK ACC2CI2 FU ALF SLP158
CYEG;2003-08-19 18:00;METAR CYEG 191800Z 36002KT 15SM FEW120 BKN240 20/06 A2998 RMK ACC2CI2 FU ALF SLP156 SLP156
CYEG;2003-08-19 19:00;METAR CYEG 191900Z 28002KT 15SM FEW120 BKN240 20/05 A2996 RMK ACC1CI2 FU ALF SLP151 SLP151
CYEG;2003-08-19 20:00;METAR CYEG 192000Z 32004KT 15SM FEW120 FEW180 BKN240 21/06 A2995 RMK ACC1AC1CI2 FU ALF TR ACC SLP148 FU ALF TR ACC SLP148
CYEG;2003-08-19 21:00;METAR CYEG 192100Z 36005KT 15SM BKN072 OVC240 21/07 A2995 RMK AC6CI2 SLP148
CYEG;2003-08-19 22:00;METAR CYEG 192200Z 02003KT 15SM FEW072 OVC240 20/07 A2994 RMK AC2CI5 SLP146
CYEG;2003-08-19 23:00;METAR CYEG 192300Z 04004KT 15SM FEW072 OVC210 20/08 A2994 RMK AC1CI6 SLP145
CYEG;2003-08-20 00:00;METAR CYEG 200000Z 05003KT 15SM FEW130 OVC210 19/09 A2994 RMK AC2CI6 SLP149
CYEG;2003-08-20 01:00;METAR CYEG 200100Z 07007KT 15SM FEW130 OVC210 19/07 A2992 RMK AC2CI6 SLP143
CYEG;2003-08-20 02:00;METAR CYEG 200200Z 07006KT 15SM FEW090 BKN130 OVC210 17/08 A2992 RMK ACC2AC4CI2 ACC/VIRGA/SH E-SE-SW SLP143 ACC/VIRGA/SH E-SE-SW SLP143
CYEG;2003-08-20 03:00;METAR CYEG 200300Z 09006KT 15SM FEW060CB FEW100 SCT190 OVC240 17/07 A2992 RMK CB2ACC1AC1CI4 ACC/CB ASSOCTD W CB/SH/ E-SE-SW OCNL LTNG SE SLP138 CB2ACC1AC1CI4 ACC/CB ASSOCTD W CB/SH/ E-SE-SW OCNL LTNG SE SLP138
CYEG;2003-08-20 04:00;METAR CYEG 200400Z 11007KT 15SM FEW060CB BKN110 BKN180 OVC240 16/07 A2992 RMK CB2AC3AC1CI2 OCNL LTGICCG DIST W ACC/VIRGA/SH ASOCTD E-SE-S SLP139
CYEG;2003-08-20 05:00;METAR CYEG 200500Z 09005KT 15SM FEW060CB BKN100 OVC240 16/08 A2994 RMK CB2AC6CI1 OCNL LTGICCG/SHRA W-NW SLP144 OCNL LTGICCG/SHRA W-NW SLP144
CYEG;2003-08-20 06:00;METAR CYEG 200600Z 29011G17KT 12SM -SHRA BKN051TCU OVC090 13/09 A3002 RMK TCU5AC3 ACC ASOCTD PRESRR SLP168 ACC ASOCTD PRESRR SLP168
CYEG;2003-08-20 07:00;METAR CYEG 200700Z 34008KT 15SM -SHRA SCT038TCU OVC085 12/11 A2999 TCU3AC5 ACC ASOCTD SLP159 SF1SC2AC6 TR SF TCU EMBD SLP167
CYEG;2003-08-20 09:00;METAR CYEG 200900Z 32005KT 15SM FEW007 FEW035 OVC064 12/10 A3002 RMK SF1SC2SC6 TR SF SLP171 SF SLP171
CYEG;2003-08-20 10:00;METAR CYEG 201000Z 23003KT 15SM -RA FEW030 OVC070 12/10 A3002 RMK SC2AC6 R- INTMT SLP169 SLP169
CYEG;2003-08-20 11:00;METAR CYEG 201100Z 24003KT 15SM -RA FEW030 SCT070 BKN120 12/10 A2999 RMK SC1AC3AC2 R- INTMT SLP161
CYEG;2003-08-20 12:00;METAR CYEG 201200Z 29007KT 15SM FEW070 BKN120 BKN270 11/09 A3002 RMK AC1AC4CI0 SLP172 SLP172
CYEG;2003-08-20 13:00;METAR CYEG 201300Z 27006KT 15SM FEW070 FEW120 SCT270 10/09 A3004 RMK AC1AC2CI0 SLP178 SLP178
CYEG;2003-08-20 14:00;METAR CYEG 201400Z 25006KT 15SM FEW008 FEW070 FEW120 11/09 A3004 RMK SF1ACC1AC1 TR SF/ACC SLP179 TR SF/ACC SLP179
CYEG;2003-08-20 15:00;METAR CYEG 201500Z 27008KT 15SM FEW012 FEW070 FEW120 13/10 A3004 RMK CF1ACC1AC1 TR CF/AC SLP178 TR CF/AC SLP178
CYEG;2003-08-20 16:00;METAR CYEG 201600Z 27008KT 15SM FEW018 FEW070 15/11 A3004 RMK CU1AC2 ACC ASOCTD SLP178
CYEG;2003-08-20 17:00;METAR CYEG 201700Z 26007KT 15SM FEW024 FEW100 SCT250 17/11 A3003 RMK CU1AC2CI1 SLP177 SLP177
CYEG;2003-08-20 18:00;METAR CYEG 201800Z 27006KT 15SM FEW035 FEW100 BKN250 18/09 A3002 RMK CU1AC1CI1 SLP173 SLP173
CYEG;2003-08-20 19:00;METAR CYEG 201900Z 26007KT 15SM FEW048 SCT100 BKN250 19/08 A3002 RMK
CYEG;2003-08-20 20:00;METAR CYEG 202000Z 32006KT 15SM FEW050 SCT100 BKN250 20/07 A3002 RMK CU1AC1CI1 SLP172
CYEG;2003-08-20 21:00;METAR CYEG 202100Z 31009KT 15SM FEW056 FEW090 BKN220 21/07 A3002 RMK CU1AC1CI2 SLP168 SLP168
CYEG;2003-08-20 22:00;METAR CYEG 202200Z 28008KT 15SM FEW056 BKN120 BKN220 20/07 A3002 RMK CU2AC4CI1 SLP170 SLP170
CYEG;2003-08-20 23:00;METAR CYEG 202300Z 32004KT 15SM FEW056 BKN120 BKN220 20/07 A3002 RMK CU1AC4CI1 TR CU SLP168 CU SLP168
CYEG;2003-08-21 00:00;METAR CYEG 210000Z 32008KT 15SM FEW056 FEW120 20/05 A3001 RMK CU1AC2 SLP168
CYEG;2003-08-21 01:00;METAR CYEG 210100Z 36005KT 15SM FEW060 BKN120 20/07 A3002 RMK CU1AC3 SLP170 CU SLP171
CYEG;2003-08-21 03:00;METAR CYEG 210300Z 02003KT 15SM FEW120 FEW250 13/08 A3003 RMK AC1CI1 SLP178
CYEG;2003-08-21 04:00;METAR CYEG 210400Z 12004KT 15SM FEW110 FEW250 10/05 A3004 RMK AC1CI0 SLP182
CYEG;2003-08-21 05:00;METAR CYEG 210500Z 17004KT 15SM FEW110 FEW250 08/05 A3004 RMK AC1CI0 SLP181
CYEG;2003-08-21 06:00;METAR CYEG 210600Z 00000KT 15SM SCT075 BKN110 08/06 A3003 RMK AC4AC2 AURBO SLP180
CYEG;2003-08-21 07:00;METAR CYEG 210700Z 00000KT 15SM BKN067 BKN100 09/07 A3004 RMK AC6AC2
CYEG;2003-08-21 08:00;METAR CYEG 210800Z 14003KT 15SM SCT067 BKN100 10/08 A3002 RMK AC4AC2 SLP177
CYEG;2003-08-21 09:00;METAR CYEG 210900Z 13004KT 15SM FEW070 FEW100 BKN220 09/06 A3001 RMK AC2AC1CI2 SLP170
CYEG;2003-08-21 10:00;METAR CYEG 211000Z 15007KT 15SM FEW070 BKN100 BKN240 10/06 A3000 RMK AC2AC4CI1 SLP166 SLP166
CYEG;2003-08-21 11:00;METAR CYEG 211100Z 13005KT 15SM FEW100 BKN240 09/06 A2998 RMK AC2CI2 SLP160
CYEG;2003-08-21 12:00;METAR CYEG 211200Z 12005KT 15SM FEW100 FEW170 SCT240 09/06 A2997 RMK AC1AC1CI1 SLP155 SLP155
CYEG;2003-08-21 13:00;METAR CYEG 211300Z 13008KT 15SM FEW150 SCT240 11/06 A2994 RMK AC1CI1 FU ALF SLP147
CYEG;2003-08-21 14:00;METAR CYEG 211400Z 14008KT 15SM SCT240 13/08 A2992 RMK CI2 FU ALF SLP140
CYEG;2003-08-21 15:00;METAR CYEG 211500Z 16010KT 15SM FEW240 15/08 A2990 RMK CI2 FU ALF SLP132
CYEG;2003-08-21 16:00;METAR CYEG 211600Z 20010KT 15SM FEW240 18/10 A2990 RMK CI2 FU ALF SLP133
CYEG;2003-08-21 17:00;METAR CYEG 211700Z 18006KT 15SM FEW240 19/11 A2990 RMK CI2 FU ALF SLP133
CYEG;2003-08-21 18:00;METAR CYEG 211800Z 31007KT 10SM FEW240 21/11 A2990 RMK CI2 FU SLP133
CYEG;2003-08-21 19:00;METAR CYEG 211900Z 30004KT 10SM FEW240 22/11 A2990 RMK CI2 FU SLP133
CYEG;2003-08-21 20:00;METAR CYEG 212000Z 35005KT 10SM SCT240 23/11 A2990 RMK CI2 FU SLP132
CYEG;2003-08-21 21:00;METAR CYEG 212100Z 34006KT 10SM SCT240 23/11 A2991 RMK CI2 FU SLP132
CYEG;2003-08-21 22:00;METAR CYEG 212200Z 36007KT 10SM SCT240 24/10 A2989 RMK CI3 FU SLP128
CYEG;2003-08-21 23:00;METAR CYEG 212300Z 02009KT 10SM SCT240 24/10 A2988 RMK CI2 FU SLP123
CYEG;2003-08-22 00:00;METAR CYEG 220000Z 04006KT 10SM FEW240 23/10 A2988 RMK CI2 FU SLP122
CYEG;2003-08-22 01:00;METAR CYEG 220100Z 05005KT 10SM FEW240 22/11 A2987 RMK CI2 FU SLP120
CYEG;2003-08-22 03:00;METAR CYEG 220300Z 36005KT 8SM BKN150 BKN180 17/12 A2987 RMK AC5AC1 FU FEW ACC EMBDD SE SLP119 EMBDD SE SLP119
CYEG;2003-08-22 04:00;METAR CYEG 220400Z 02006KT 10SM BKN160 15/10 A2987 RMK AC5 FU SLP119
CYEG;2003-08-22 05:00;METAR CYEG 220500Z 02004KT 12SM BKN150 BKN170 15/10 A2987 RMK AC5AC1 FU SLP118
CYEG;2003-08-22 06:00;METAR CYEG 220600Z 03005KT 12SM SCT150 BKN170 14/10 A2987 RMK AC3AC3 FU SLP115
CYEG;2003-08-22 07:00;METAR CYEG 220700Z 02004KT 15SM FEW140 SCT170 13/10 A2986 RMK AC2AC1 SLP113
CYEG;2003-08-22 08:00;METAR CYEG 220800Z 01008KT 15SM FEW140 12/10 A2984 RMK AC2 SLP107
CYEG;2003-08-22 09:00;METAR CYEG 220900Z 03008KT 15SM FEW150 13/09 A2982 RMK AC2 SLP097
CYEG;2003-08-22 10:00;METAR CYEG 221000Z 06007KT 15SM FEW150 SCT240 13/08 A2981 RMK AC2CI1 FU ALF SLP095
CYEG;2003-08-22 11:00;METAR CYEG 221100Z 36005KT 15SM FEW090 FEW240 11/08 A2981 RMK AC1CI1 FU ALF SLP094
CYEG;2003-08-22 12:00;METAR CYEG 221200Z 01006KT 15SM FEW160 SCT250 10/07 A2980 RMK AC1CI2
CYEG;2003-08-22 13:00;METAR CYEG 221300Z 32002KT 15SM BKN160 BKN250 08/06 A2979 RMK AC5CI2 FU ALF SLP092
CYEG;2003-08-22 14:00;METAR CYEG 221400Z 18002KT 15SM BKN150 OVC250 09/07 A2979 RMK AC4CI3 FU ALF
CYEG;2003-08-22 15:00;METAR CYEG 221500Z 25002KT 15SM SCT150 OVC250 12/09 A2979 RMK AC2CI5 FU ALF
CYEG;2003-08-22 16:00;METAR CYEG 221600Z 34003KT 12SM SCT150 BKN250 15/10 A2977 RMK AC2CI5 FU ALF SLP087
CYEG;2003-08-22 17:00;METAR CYEG 221700Z 05002KT 10SM FEW150 BKN250 16/10 A2976 RMK AC1CI6 FU SLP083
CYEG;2003-08-22 18:00;METAR CYEG 221800Z 36004KT 10SM BKN250 18/10 A2973 RMK CI6 SLP070
CYEG;2003-08-22 19:00;METAR CYEG 221900Z 32004KT 10SM BKN250 19/11 A2972 RMK CI5 FU SLP067
CYEG;2003-08-22 20:00;METAR CYEG 222000Z 32002KT 10SM BKN250 20/11 A2972 RMK CI6 FU SLP067
CYEG;2003-08-22 21:00;METAR CYEG 222100Z 34003KT 12SM BKN250 21/11 A2970 RMK CI5 FU SLP060
CYEG;2003-08-22 22:00;METAR CYEG 222200Z 33003KT 12SM BKN250 22/12 A2969 RMK CI5 FU SLP054
CYEG;2003-08-22 23:00;METAR CYEG 222300Z 35002KT 10SM BKN250 22/12 A2968 RMK CI5 FU SLP051
CYEG;2003-08-23 00:00;METAR CYEG 230000Z 00000KT 10SM FEW055 BKN250 22/12 A2966 RMK SC2CI2 FU SLP047
CYEG;2003-08-23 01:00;METAR CYEG 230100Z 31002KT 10SM SCT055 BKN250 21/13 A2964 RMK SC3CI2 FU SLP041
CYEG;2003-08-23 02:00;METAR CYEG 230200Z 36004KT 8SM SCT055 BKN250 18/13 A2963 RMK SC3CI2 FU SLP038
CYEG;2003-08-23 03:00;METAR CYEG 230300Z 06004KT 8SM FEW055 BKN170 17/12 A2962 RMK SC2AC5 FU SLP036
CYEG;2003-08-23 04:00;METAR CYEG 230400Z 02004KT 10SM SCT140 OVC180 16/12 A2960 RMK AC3AC5 FU SLP029
CYEG;2003-08-23 05:00;METAR CYEG 230500Z 00000KT 10SM OVC130 15/12 A2959 RMK AC8 FU SLP027
CYEG;2003-08-23 06:00;METAR CYEG 230600Z 31006KT 12SM BKN130 15/12 A2960 RMK AC6 FU SLP026
CYEG;2003-08-23 07:00;METAR CYEG 230700Z 27002KT 15SM FEW130 13/10 A2961 RMK AC2 SLP028
CYEG;2003-08-23 08:00;METAR CYEG 230800Z 28002KT 15SM FEW170 BKN220 13/11 A2962 RMK AC1CI3 SLP030
CYEG;2003-08-23 09:00;METAR CYEG 230900Z 28007KT 15SM BKN140 BKN170 OVC220 14/11 A2962 RMK AC6AC1CI1 SLP031 SLP031
CYEG;2003-08-23 10:00;METAR CYEG 231000Z 30006KT 15SM FEW130 OVC170 14/11 A2963 RMK AC1AC6 SLP034
CYEG;2003-08-23 11:00;METAR CYEG 231100Z 31009KT 15SM FEW160 OVC210 15/11 A2965 RMK AC2CI6 SLP039
CYEG;2003-08-23 12:00;METAR CYEG 231200Z 31009KT 15SM SCT071 OVC210 15/10 A2968 RMK AC4CI4 SLP049
CYEG;2003-08-23 13:00;METAR CYEG 231300Z 30007KT 15SM BKN092 BKN210 OVC250 14/10 A2971 RMK AC5CI1CS2 SLP059 SLP059
CYEG;2003-08-23 14:00;METAR CYEG 231400Z 31009KT 15SM BKN095 BKN140 OVC250 13/09 A2972 RMK AC5AC2CI1 VIRGA W-NW SLP063 VIRGA W-NW SLP063
CYEG;2003-08-23 15:00;METAR CYEG 231500Z 30009KT 15SM FEW070 BKN095 BKN140 OVC250 13/07 A2977 RMK AC2AC3AC1CI1 VIRGA W-N SLP087
CYEG;2003-08-23 16:00;METAR CYEG 231600Z 29008KT 15SM VCSH BKN075 BKN095 OVC140 13/07 A2982 RMK AC5AC2AC1 SHRA W-NW SLP101
CYEG;2003-08-23 17:00;METAR CYEG 231700Z 29008KT 15SM -SHRA SCT075 BKN087 OVC140 11/08 A2984 RMK AC3AC3AC2 SLP108
CYEG;2003-08-23 18:00;METAR CYEG 231800Z 31013KT 15SM FEW014 FEW070 BKN130 12/09 A2983 RMK CU1AC2AC2 SHRA NE-SE SLP108 SHRA NE-SE SLP108
CYEG;2003-08-23 19:00;METAR CYEG 231900Z 32012KT 15SM SCT030 SCT070 BKN180 16/08 A2983 RMK CU3AC1AC1 SLP108 SLP108
CYEG;2003-08-23 20:00;METAR CYEG 232000Z 30010G18KT 15SM SCT030 SCT090 BKN250 17/08 A2986 RMK CU3AC1CI0 SLP117 SLP117
CYEG;2003-08-23 21:00;METAR CYEG 232100Z 32015KT 15SM FEW030 FEW090 18/05 A2987 RMK CU2AC1 SLP120
CYEG;2003-08-23 22:00;METAR CYEG 232200Z 29013G18KT 15SM FEW045 SCT120 18/05 A2988 RMK CU2AC2 SLP121
CYEG;2003-08-23 23:00;METAR CYEG 232300Z 30012G18KT 15SM FEW045 FEW120 19/03 A2988 RMK CU1AC1 TR CU TCU TP DIST NW SLP122 TP DIST NW SLP122
CYEG;2003-08-24 00:00;METAR CYEG 240000Z 30015G20KT 15SM FEW045 FEW120 18/02 A2989 RMK CU1AC1 TR CU SLP123 SLP123
CYEG;2003-08-24 01:00;METAR CYEG 240100Z 30008KT 15SM FEW045 FEW120 18/03 A2990 RMK CU1AC1 SLP129
CYEG;2003-08-24 02:00;METAR CYEG 240200Z 33003KT 15SM FEW120 15/04 A2992 RMK AC1 SLP133
CYEG;2003-08-24 03:00;METAR CYEG 240300Z 32004KT 15SM FEW045 FEW100 11/04 A2995 RMK CU1AC1 TR CI ACC ASCTD SLP152 ASCTD SLP152
CYEG;2003-08-24 04:00;METAR CYEG 240400Z 32008KT 15SM FEW088 12/03 A2999 RMK AC2 SLP165
CYEG;2003-08-24 05:00;METAR CYEG 240500Z 23006KT 15SM FEW045 SCT090 09/03 A3002 RMK CU1AC3 VIRGA SLP174
CYEG;2003-08-24 06:00;METAR CYEG 240600Z 22002KT 15SM FEW090 OVC140 09/03 A3001 RMK AC2AC6 SLP176
CYEG;2003-08-24 07:00;METAR CYEG 240700Z 23002KT 15SM SCT140 04/00 A3001 RMK AC2 SLP175
CYEG;2003-08-24 08:00;METAR CYEG 240800Z 22002KT 15SM FEW120 04/01 A3002 RMK AC2 SLP180
CYEG;2003-08-24 09:00;METAR CYEG 240900Z 23003KT 15SM FEW120 02/M01 A3002 RMK AC1 SLP181
CYEG;2003-08-24 10:00;METAR CYEG 241000Z 19005KT 15SM SCT120 04/01 A3002 RMK AC2 SLP183
CYEG;2003-08-24 11:00;METAR CYEG 241100Z 16002KT 15SM BKN120 05/02 A3003 RMK AC5 SLP184
CYEG;2003-08-24 12:00;METAR CYEG 241200Z 18005KT 15SM BKN084 BKN120 05/02 A3004 RMK AC6AC1 SLP185
CYEG;2003-08-24 13:00;METAR CYEG 241300Z 13004KT 15SM BKN081 BKN250 05/03 A3005 RMK AC6CI1 VIRGA ACC ASCTD SLP187 ASCTD SLP187
CYEG;2003-08-24 14:00;METAR CYEG 241400Z 15003KT 15SM BKN064 BKN250 08/05 A3006 RMK SC6CI1 TCU EMBD VIRGA NW SLP190
CYEG;2003-08-24 15:00;METAR CYEG 241500Z 16003KT 15SM SCT060 BKN120 BKN250 11/05 A3004 RMK SC4AC2CI1 TCU EMBD NW-NE VIRGA NW-NE SLP186 TCU EMBD NW-NE VIRGA NW-NE SLP186
CYEG;2003-08-24 16:00;METAR CYEG 241600Z 17003KT 15SM BKN063 BKN120 14/05 A3004 RMK SC6AC2 TCU EMBD SLP185
CYEG;2003-08-24 17:00;METAR CYEG 241700Z 00000KT 15SM BKN062 BKN120 16/05 A3002 RMK SC5AC1 TCU EMBD SLP181 SLP181
CYEG;2003-08-24 18:00;METAR CYEG 241800Z 20006KT 15SM FEW060 FEW250 19/05 A3001 RMK CU2CI0 PK GST 16KT PST HR FEW TCU SLP171 PST HR FEW TCU SLP171
CYEG;2003-08-24 19:00;METAR CYEG 241900Z 25005KT 15SM SCT058TCU 19/06 A2999 RMK TCU4 PK GST 17KT PST HR SLP164 SLP164
CYEG;2003-08-24 20:00;METAR CYEG 242000Z 28009KT 15SM FEW070TCU FEW250 21/02 A2998 RMK TCU2CI1 SLP161
CYEG;2003-08-24 21:00;METAR CYEG 242100Z 32010G15KT 15SM FEW070TCU FEW250 20/03 A2998 RMK TCU2CI1 SLP167 CONTRAILS SLP167
CYEG;2003-08-24 23:00;METAR CYEG 242300Z 30008KT 15SM FEW075 FEW300 21/M01 A2997 RMK CU1CI0 CONTRAILS SLP164
CYEG;2003-08-25 00:00;METAR CYEG 250000Z 30010G15KT 15SM FEW075 FEW300 20/M02 A2996 RMK CU1CI1 SLP157
CYEG;2003-08-25 01:00;METAR CYEG 250100Z 34004KT 15SM FEW075 FEW180 FEW300 19/M00 A2996 RMK AC1AC1CI1 TR AC SLP156 TR AC SLP156
CYEG;2003-08-25 02:00;METAR CYEG 250200Z 31002KT 15SM FEW180 FEW230 SCT300 16/02 A2996 RMK AC1CI1CI1 TR AC SLP155 AC SLP155
CYEG;2003-08-25 04:00;METAR CYEG 250400Z 20007KT 15SM BKN130 BKN240 11/01 A2999 RMK AC6CI1 SLP170
CYEG;2003-08-25 05:00;METAR CYEG 250500Z 33003KT 15SM SCT150 BKN270 10/01 A3001 RMK AS2CI2 SLP176
CYEG;2003-08-25 06:00;METAR CYEG 250600Z 22002KT 15SM BKN180 BKN270 05/M00 A3001 RMK AC3CI1 SLP175
CYEG;2003-08-25 07:00;METAR CYEG 250700Z 21003KT 15SM BKN120 OVC270 07/02 A3003 RMK AC6CI1 SLP180
CYEG;2003-08-25 08:00;METAR CYEG 250800Z 20003KT 15SM BKN100 OVC270 08/02 A3003 RMK AC6CI2 SLP182
CYEG;2003-08-25 09:00;METAR CYEG 250900Z 24004KT 15SM SCT100 BKN170 08/02 A3005 RMK AC2AS2 SLP183
CYEG;2003-08-25 10:00;METAR CYEG 251000Z 00000KT 15SM BKN110 BKN170 05/01 A3005 RMK AC3AS2
CYEG;2003-08-25 11:00;METAR CYEG 251100Z 00000KT 15SM OVC100 07/02 A3006 RMK AC8 SLP186
CYEG;2003-08-25 12:00;METAR CYEG 251200Z 24002KT 15SM BKN100 07/03 A3007 RMK AC7 SLP190
CYEG;2003-08-25 13:00;METAR CYEG 251300Z 00000KT 15SM BKN110 BKN250 07/03 A3007 RMK AC5CI1 SLP192
CYEG;2003-08-25 14:00;METAR CYEG 251400Z 00000KT 15SM BKN100 BKN250 09/05 A3008 RMK AC6CI1 SLP194
CYEG;2003-08-25 15:00;METAR CYEG 251500Z 30005KT 15SM BKN100 BKN250 14/04 A3009 RMK AC6CI1 SLP201
CYEG;2003-08-25 16:00;METAR CYEG 251600Z 30006KT 15SM BKN095 BKN250 15/02 A3009 RMK AC6CI1
CYEG;2003-08-25 17:00;METAR CYEG 251700Z 31007KT 15SM BKN092 OVC250 16/02 A3010 RMK AC6CI1 SLP205
CYEG;2003-08-25 18:00;METAR CYEG 251800Z 31010KT 15SM BKN089 BKN250 17/02 A3010 RMK AC5CI1 SLP207
CYEG;2003-08-25 20:00;METAR CYEG 252000Z 30009KT 15SM FEW070 SCT090 BKN140 BKN250 19/02 A3007 RMK CU1AC2AC2CI2 TR CU N SLP197
CYEG;2003-08-25 21:00;METAR CYEG 252100Z 31012KT 15SM FEW070 FEW100 SCT150 BKN300 19/02 A3007 RMK CU1AC2AC2CI1 TR CU N SLP192
CYEG;2003-08-25 22:00;METAR CYEG 252200Z 26010G16KT 15SM FEW070 FEW150 SCT300 20/02 A3006 RMK CU1AC1CI1 TR CU WSHFT GRDL SLP188 TR CU WSHFT GRDL SLP188
CYEG;2003-08-25 23:00;METAR CYEG 252300Z 32011KT 15SM FEW065 FEW150 BKN300 19/03 A3005 RMK CU1AC1CI2 TR CU + AC SLP187 CU + AC SLP187
CYEG;2003-08-26 01:00;METAR CYEG 260100Z 28003KT 15SM FEW065 FEW180 BKN300 19/03 A3005 RMK CU1AS1CI1 SLP186 SLP186
CYEG;2003-08-26 02:00;METAR CYEG 260200Z 25002KT 15SM FEW180 BKN300 16/04 A3005 RMK AS1CI2 SLP187
CYEG;2003-08-26 03:00;METAR CYEG 260300Z 00000KT 15SM FEW180 BKN300 11/03 A3006 RMK AS2CI2 SLP191
CYEG;2003-08-26 04:00;METAR CYEG 260400Z 18005KT 15SM FEW180 BKN300 07/02 A3007 RMK AS1CI3 SLP195
CYEG;2003-08-26 05:00;METAR CYEG 260500Z 20005KT 15SM FEW160 BKN300 09/03 A3008 RMK AS1CI4 SLP197
CYEG;2003-08-26 06:00;METAR CYEG 260600Z 18003KT 15SM FEW120 FEW180 BKN270 08/03 A3008 RMK AC1AS1CI2 SLP197
CYEG;2003-08-26 07:00;METAR CYEG 260700Z 36003KT 15SM FEW090 BKN250 05/01 A3008 RMK AC1CI2 SLP199
CYEG;2003-08-26 08:00;METAR CYEG 260800Z 14006KT 15SM FEW100 OVC250 06/03 A3008 RMK AC2CI3 SLP196
CYEG;2003-08-26 09:00;METAR CYEG 260900Z 18002KT 15SM BKN100 OVC240 06/03 A3008 RMK AC5CI2
CYEG;2003-08-26 10:00;METAR CYEG 261000Z 11003KT 15SM BKN100 OVC240 08/05 A3007 RMK AC6CI1 SLP194
CYEG;2003-08-26 11:00;METAR CYEG 261100Z 16004KT 15SM BKN110 BKN240 09/05 A3006 RMK AC4CI1
CYEG;2003-08-26 12:00;METAR CYEG 261200Z 14002KT 15SM BKN110 BKN150 BKN250 07/03 A3006 RMK AC4AC2CI0 SLP189 SLP189
CYEG;2003-08-26 13:00;METAR CYEG 261300Z 13007KT 15SM BKN100 BKN270 10/04 A3005 RMK AC6CI1 ACC/VIRGA ASOCTD SW SLP185 ASOCTD SW SLP185
CYEG;2003-08-26 14:00;METAR CYEG 261400Z 13005KT 15SM FEW100 FEW150 SCT240 11/04 A3004 RMK ACC1AC2CC0 VIRGA SE SLP183 VIRGA SE SLP183
CYEG;2003-08-26 15:00;METAR CYEG 261500Z 14010KT 15SM FEW100 FEW130 SCT240 15/05 A3003 RMK ACC1AC2CI0 TR ACC E SLP180 TR ACC E SLP180 HR SLP167
CYEG;2003-08-26 18:00;METAR CYEG 261800Z 14016KT 15SM FEW110 FEW240 21/05 A2996 RMK AC1CI0 ACC ASOCTD NW G20 PST HR SLP154 NW G20 PST HR SLP154
CYEG;2003-08-26 19:00;METAR CYEG 261900Z 14013G20KT 15SM FEW110 SCT240 22/04 A2995 RMK AC1CI2 SLP149
CYEG;2003-08-26 20:00;METAR CYEG 262000Z 13013G19KT 15SM FEW150 BKN240 24/05 A2991 RMK ACC2CI1 SLP136
CYEG;2003-08-26 21:00;METAR CYEG 262100Z 14010G17KT 15SM FEW120 FEW150 BKN240 24/05 A2989 RMK ACC2AC1CI1 CC AOSCTD SLP128
CYEG;2003-08-26 22:00;METAR CYEG 262200Z 14014G21KT 15SM FEW120 FEW150 SCT240 24/04 A2987 RMK ACC2AC1CI1 TR ACSL S SLP121
CYEG;2003-08-26 23:00;METAR CYEG 262300Z 15013G20KT 15SM FEW120 SCT240 23/04 A2985 RMK ACC2CI0 SLP116
CYEG;2003-08-27 00:00;METAR CYEG 270000Z 13012G17KT 15SM SCT130 BKN170 22/04 A2985 RMK ACC3AC1 SLP115
CYEG;2003-08-27 01:00;METAR CYEG 270100Z 10013KT 15SM SCT120 22/04 A2985 RMK ACC3 TCU ASOCTD VIRGA E SLP115
CYEG;2003-08-27 02:00;METAR CYEG 270200Z 07010KT 15SM SCT120 20/05 A2985 RMK ACC2 CB/SHRA ASOCTD E SLP116 SLP116
CYEG;2003-08-27 03:00;METAR CYEG 270300Z 07009KT 15SM FEW100 SCT150 BKN250 17/06 A2986 RMK ACC2AC1CI1 ACC NW SE W SLP116 ACC NW SE W SLP116
CYEG;2003-08-27 04:00;METAR CYEG 270400Z 07011KT 15SM BKN150 BKN250 17/06 A2985 RMK AC4CI1 SLP113
CYEG;2003-08-27 05:00;METAR CYEG 270500Z 08007KT 15SM FEW090 BKN140 16/06 A2988 RMK ACC2AC2 CB ASOCTD/OCNL LTGIC NW SLP122
CYEG;2003-08-27 06:00;METAR CYEG 270600Z 08009KT 15SM BKN150 BKN250 16/05 A2985 RMK AC5CI1 SLP107
CYEG;2003-08-27 07:00;METAR CYEG 270700Z 06005KT 15SM BKN150 BKN250 15/06 A2986 RMK AC6CI1 SLP112
CYEG;2003-08-27 08:00;METAR CYEG 270800Z 03005KT 15SM FEW100 BKN150 OVC250 13/07 A2987 RMK ACC2AC5CI1 VIRGA S SLP115 VIRGA S SLP115
CYEG;2003-08-27 09:00;METAR CYEG 270900Z 08007KT 15SM FEW090 BKN150 BKN220 13/08 A2983 RMK ACC2AC4CI1 VIRGA E SLP103 VIRGA E SLP103
CYEG;2003-08-27 10:00;METAR CYEG 271000Z 00000KT 15SM FEW090 BKN140 BKN220 11/08 A2985 RMK ACC2AC4CI1 VIRGA S SLP109 VIRGA S SLP109
CYEG;2003-08-27 11:00;METAR CYEG 271100Z 35004KT 15SM FEW090 BKN130 11/08 A2987 RMK ACC2AC5 VIRGA NW SLP113
CYEG;2003-08-27 12:00;METAR CYEG 271200Z 35005KT 15SM FEW090 SCT140 BKN250 08/07 A2988 RMK ACC1AC2CI1 ACC NW SLP125 ACC NW SLP125
CYEG;2003-08-27 13:00;METAR CYEG 271300Z 36006KT 15SM FEW090 FEW140 BKN320 07/07 A2988 RMK ACC1AC1CI2 ACC/CB ASOCTD NW SLP125 ACC/CB ASOCTD NW SLP125
CYEG;2003-08-27 14:00;METAR CYEG 271400Z 04003KT 15SM FEW090 FEW140 BKN250 10/08 A2988 RMK ACC1AC1CI1 CB TP NW SLP125 CB TP NW SLP125
CYEG;2003-08-27 16:00;METAR CYEG 271600Z 02006KT 15SM FEW090 SCT140 BKN250 16/08 A2990 RMK ACC2AC2CI0 SLP130
CYEG;2003-08-27 17:00;METAR CYEG 271700Z 01007KT 15SM FEW100 BKN140 BKN250 16/09 A2990 RMK ACC2AC2CI1 CB TP NW SLP129 CB TP NW SLP129
CYEG;2003-08-27 18:00;METAR CYEG 271800Z 02007KT 15SM BKN096 BKN140 OVC250 17/10 A2990 RMK AC5AC1CI1 ACC ASOCTD SLP128 ACC ASOCTD SLP128
CYEG;2003-08-27 19:00;METAR CYEG 271900Z 03007KT 15SM BKN068 BKN100 OVC250 16/10 A2990 RMK AC6AC2CI0 ACC ASOCTD SLP127 ACC ASOCTD SLP127
CYEG;2003-08-27 20:00;METAR CYEG 272000Z 01008KT 15SM FEW050 BKN068 OVC100 15/09 A2992 RMK SC1AC7AC1 SH E QUAD SLP133 E QUAD SLP133
CYEG;2003-08-27 21:00;METAR CYEG 272100Z 36008KT 12SM -SHRA FEW050 OVC070 13/11 A2993 RMK SC1AC8 SLP144
CYEG;2003-08-27 23:00;METAR CYEG 272300Z 34007KT 6SM -SHRA BR SCT008 OVC072 12/12 A2995 RMK SF4AC4 SLP152
CYEG;2003-08-28 00:00;METAR CYEG 280000Z 35007KT 4SM -RA BR BKN008 OVC063 12/12 A2996 RMK SF5SC3 SLP162
CYEG;2003-08-28 01:00;METAR CYEG 280100Z 36005KT 3SM -RA BR BKN008 OVC027 12/12 A2998 RMK SF7SC1 SLP167
CYEG;2003-08-28 02:00;METAR CYEG 280200Z 36008KT 3SM -RA BR FEW003 BKN008 BKN015 OVC035 12/12 A2999 RMK SF1SF4SC2SC1 SLP169 SF1SF4SC2SC1 SLP169
CYEG;2003-08-28 03:00;METAR CYEG 280300Z 35007KT 3SM -RA BR FEW004 SCT007 OVC023 12/12 A3000 RMK SF2SF2SC5 SLP170
CYEG;2003-08-28 04:00;METAR CYEG 280400Z 36007KT 3SM -RA BR BKN004 OVC010 12/12 A3002 RMK SF6SF2 CIG RAG SLP175 RAG SLP175
CYEG;2003-08-28 06:00;METAR CYEG 280600Z 36008KT 4SM -RA BR BKN004 OVC010 11/11 A3004 RMK SF6SF2 CIG RAG SLP182 RAG SLP182
CYEG;2003-08-28 07:00;METAR CYEG 280700Z 36004KT 4SM -RA BR SCT004 SCT044 OVC062 11/11 A3006 RMK SF2SC2SC4 SLP186
CYEG;2003-08-28 08:00;METAR CYEG 280800Z 33004KT 8SM -RA FEW004 BKN058 OVC070 11/11 A3006 RMK SF1SC5AC2 VSB LWR S BR SLP188 VSB LWR S BR SLP188
CYEG;2003-08-28 09:00;METAR CYEG 280900Z 31003KT 10SM -RA FEW004 FEW048 OVC060 11/11 A3006 RMK SF1SC2SC6 TR SF BR SLP193
CYEG;2003-08-28 10:00;METAR CYEG 281000Z 31005KT 10SM -RA FEW004 SCT040 OVC063 11/11 A3007 RMK SF2SC2SC4 BR SLP195
CYEG;2003-08-28 11:00;METAR CYEG 281100Z 30006KT 10SM -RA BKN042 OVC061 10/10 A3009 RMK SC6SC2 BR SLP201
CYEG;2003-08-28 12:00;METAR CYEG 281200Z 30010KT 12SM -RA SCT042 OVC058 10/10 A3009 RMK SC3SC5 SLP204
CYEG;2003-08-28 13:00;METAR CYEG 281300Z 30007KT 15SM -RA FEW007 BKN011 OVC058 11/10 A3011 RMK SF2SC5SC1 SLP208
CYEG;2003-08-28 14:00;METAR CYEG 281400Z 30007KT 12SM BKN004 BKN021 11/11 A3012 RMK SF5SC2 BR SLP212
CYEG;2003-08-28 15:00;METAR CYEG 281500Z 30009KT 15SM BKN007 BKN015 OVC038 12/11 A3013 RMK SF4SC2SC1 SLP216 SLP216
CYEG;2003-08-28 16:00;METAR CYEG 281600Z 30008KT 15SM BKN008 BKN015 BKN250 13/12 A3015 RMK SF4SC2CI0 SLP221 SLP221
CYEG;2003-08-28 17:00;METAR CYEG 281700Z 30006KT 15SM OVC012 13/12 A3016 RMK SC8 SLP226
CYEG;2003-08-28 18:00;METAR CYEG 281800Z 29004KT 15SM BKN014 BKN021 BKN250 15/13 A3017 RMK SC6SC2CI1 TR CI SLP229 CI SLP229
CYEG;2003-08-28 19:00;METAR CYEG 281900Z 32007KT 15SM BKN016 BKN250 16/12 A3018 RMK SC6CI1 FEW TCU EMBDD SLP231 EMBDD SLP231
CYEG;2003-08-28 20:00;METAR CYEG 282000Z 33004KT 15SM FEW020TCU BKN250 17/12 A3019 RMK TCU2CI3 SLP233
CYEG;2003-08-28 21:00;METAR CYEG 282100Z 00000KT 15SM FEW025TCU SCT060 BKN250 17/11 A3019 RMK TCU2SC1CI2 SHRA NW SLP234
CYEG;2003-08-28 22:00;METAR CYEG 282200Z 33005KT 15SM FEW030TCU BKN120 BKN250 18/10 A3020 RMK TCU2AC2CI1 CB N SHRA W SLP235
CYEG;2003-08-28 23:00;METAR CYEG 282300Z 29004KT 15SM FEW030CB SCT080 BKN120 BKN250 18/11 A3020 RMK CB2AC2AC2CI0 CB NE VIRGA NW SLP237 CB2AC2AC2CI0 CB NE VIRGA NW SLP237
CYEG;2003-08-29 01:00;METAR CYEG 290100Z 24004KT 15SM FEW030CB SCT070 BKN110 BKN240 15/10 A3022 RETS RMK CB2AC2AC2CC1 CB NW S NE SHRA S NE TR CC SLP244 RMK CB2AC2AC2CC1 CB NW S NE SHRA S NE TR CC SLP244
CYEG;2003-08-29 02:00;METAR CYEG 290200Z 27004KT 15SM FEW030TCU FEW070 BKN110 BKN240 16/11 A3023 RMK TCU2AC1AC2CC1 CB ASOCTD SHRA/VIRGA E-SE+NW ACC ASOCTD S+W SLP247 TCU2AC1AC2CC1 CB ASOCTD SHRA/VIRGA E-SE+NW ACC ASOCTD S+W SLP247 RMK TCU1AC1AC3CI2 TCU SHRA/VIRGA DIST E-SE+SW-W VIRGA NW SLP251 TCU1AC1AC3CI2 TCU ASOCTD SHRA/VIRGA DIST E-SE+SW-W VIRGA NW SLP251
CYEG;2003-08-29 04:00;METAR CYEG 290400Z 29003KT 15SM FEW060 BKN100 BKN250 14/12 A3025 RMK SC1AC4CI1 SLP254
CYEG;2003-08-29 05:00;METAR CYEG 290500Z 00000KT 15SM FEW110 BKN250 10/10 A3025 RMK AC2CI2 SLP256
CYEG;2003-08-29 06:00;METAR CYEG 290600Z 20003KT 15SM FEW110 BKN250 08/08 A3026 RMK AC1CI2 SLP260
CYEG;2003-08-29 07:00;METAR CYEG 290700Z 20004KT 15SM FEW110 SCT250 09/08 A3026 RMK AC1CI2
CYEG;2003-08-29 08:00;METAR CYEG 290800Z 21002KT 4SM BR FEW250 08/08 A3027 RMK CI2 VSB W-NW-N 2 SLP263
CYEG;2003-08-29 09:00;METAR CYEG 290900Z 20004KT 1 1/2SM BR BKN089 BKN250 07/07 A3027 RMK AC4CI2 VSB SE-SW 3 SLP263 SE-SW 3 SLP263
CYEG;2003-08-29 10:00;METAR CYEG 291000Z 19005KT 5SM BR FEW087 SCT250 08/08 A3027 RMK AC1CI2 VSB W-N 2 SLP263
CYEG;2003-08-29 11:00;METAR CYEG 291100Z 20003KT 1 1/2SM R12/P6000FT R02/2200FT BR FEW087 SCT250 07/06 A3027 RMK AC1CI2 VSB SE 3 SLP263 A3027 RMK AC1CI2 VSB SE 3 SLP263
CYEG;2003-08-29 12:00;METAR CYEG 291200Z 20003KT 1SM R12/P6000FT R02/P6000FT BR FEW085 FEW250 07/06 A3027 RMK AC1CI1 SLP267
CYEG;2003-08-29 13:00;METAR CYEG 291300Z 12002KT 1/2SM R30/P6000FT R12/P6000FT FG FEW085 FEW250 05/05 A3028 RMK FG1AC1CI1 VSB SE 3 TR CI SLP270
CYEG;2003-08-29 14:00;METAR CYEG 291400Z 14002KT 5SM BR FEW250 08/08 A3029 RMK CI1 VSB W QUAD 2 SLP273
CYEG;2003-08-29 15:00;METAR CYEG 291500Z 00000KT 12SM FEW250 12/11 A3030 RMK CI0 BR SLP272
CYEG;2003-08-29 16:00;METAR CYEG 291600Z 00000KT 15SM FEW250 15/11 A3030 RMK CI0 SLP272
CYEG;2003-08-29 17:00;METAR CYEG 291700Z 00000KT 15SM FEW030 FEW250 17/10 A3030 RMK CU1CI0 TR CU SLP272
CYEG;2003-08-29 18:00;METAR CYEG 291800Z 18002KT 15SM FEW040 FEW250 19/09 A3029 RMK CU1CI1 TR CU SLP269
CYEG;2003-08-29 19:00;METAR CYEG 291900Z 17003KT 15SM FEW045 FEW090 FEW250 20/09 A3028 RMK CU1AC1CI0 TR AC SLP266 AC SLP266
CYEG;2003-08-29 20:00;METAR CYEG 292000Z 20004KT 15SM FEW050 SCT270 21/08 A3027 RMK CU2CI0 SLP261
CYEG;2003-08-29 21:00;METAR CYEG 292100Z 20003KT 15SM BKN060 21/07 A3026 RMK CU5 FEW TCU ASOCTD SLP257
CYEG;2003-08-29 22:00;METAR CYEG 292200Z 19004KT 15SM BKN060 22/07 A3025 RMK CU5 TCU ASOCTD NE SLP254
CYEG;2003-08-29 23:00;METAR CYEG 292300Z 31006KT 15SM SCT060 22/08 A3024 RMK CU4 SLP251
CYEG;2003-08-30 00:00;METAR CYEG 300000Z 36004KT 15SM FEW060 22/07 A3024 RMK CU2 SLP248
CYEG;2003-08-30 01:00;METAR CYEG 300100Z 36004KT 15SM FEW060 21/09 A3023 RMK CU1 SLP247
CYEG;2003-08-30 02:00;METAR CYEG 300200Z 01004KT 15SM FEW090 FEW250 18/10 A3024 RMK AC1CI1 TR CLD SLP249
CYEG;2003-08-30 03:00;METAR CYEG 300300Z 03002KT 15SM FEW090 FEW250 14/09 A3024 RMK AC1CI1 TR CLD SLP252
CYEG;2003-08-30 04:00;METAR CYEG 300400Z 00000KT 15SM FEW090 11/08 A3025 RMK AC1 SLP255
CYEG;2003-08-30 05:00;METAR CYEG 300500Z 16003KT 15SM FEW090 09/07 A3025 RMK AC1 SLP256
CYEG;2003-08-30 06:00;METAR CYEG 300600Z 00000KT 15SM SKC 08/07 A3025 RMK SLP255
CYEG;2003-08-30 07:00;METAR CYEG 300700Z 18003KT 15SM SKC 08/08 A3025 RMK SLP255
CYEG;2003-08-30 08:00;METAR CYEG 300800Z 21003KT 15SM SKC 06/05 A3024 RMK SLP250
CYEG;2003-08-30 09:00;METAR CYEG 300900Z 19003KT 15SM SKC 08/07 A3023 RMK SLP246
CYEG;2003-08-30 10:00;METAR CYEG 301000Z 00000KT 15SM SKC 06/05 A3022 RMK SLP243
CYEG;2003-08-30 11:00;METAR CYEG 301100Z 00000KT 15SM SKC 05/04 A3022 RMK SLP241
CYEG;2003-08-30 12:00;METAR CYEG 301200Z 00000KT 15SM FEW250 05/04 A3021 RMK CI0 SLP242
CYEG;2003-08-30 13:00;METAR CYEG 301300Z 12003KT 15SM MIFG FEW080 FEW250 04/03 A3021 RMK AC1CI0 SLP240
CYEG;2003-08-30 14:00;METAR CYEG 301400Z 00000KT 10SM FEW080 FEW250 07/07 A3021 RMK AC1CI0 BR SLP241
CYEG;2003-08-30 15:00;METAR CYEG 301500Z 00000KT 12SM FEW250 14/10 A3021 RMK CI0 HZ SLP239
CYEG;2003-08-30 16:00;METAR CYEG 301600Z 11004KT 15SM FEW250 17/10 A3021 RMK CI0 SLP240
CYEG;2003-08-30 17:00;METAR CYEG 301700Z 10006KT 15SM FEW250 20/10 A3021 RMK CI0 SLP238
CYEG;2003-08-30 18:00;METAR CYEG 301800Z 11007KT 15SM FEW250 22/09 A3020 RMK CI1 SLP233
CYEG;2003-08-30 19:00;METAR CYEG 301900Z 16005KT 15SM FEW100 23/09 A3018 RMK AC1 SLP228
CYEG;2003-08-30 20:00;METAR CYEG 302000Z 13006KT 15SM SKC 25/07 A3016 RMK SLP223
CYEG;2003-08-30 21:00;METAR CYEG 302100Z 15003KT 15SM SKC 25/06 A3015 RMK SLP215
CYEG;2003-08-30 22:00;METAR CYEG 302200Z 12005KT 15SM FEW080 25/05 A3013 RMK CU1 SLP208
CYEG;2003-08-30 23:00;METAR CYEG 302300Z 15006KT 15SM FEW080 25/05 A3011 RMK CU1 SLP203
CYEG;2003-08-31 00:00;METAR CYEG 310000Z 14005KT 15SM FEW080 25/05 A3010 RMK CU1 SLP199
CYEG;2003-08-31 01:00;METAR CYEG 310100Z 10007KT 15SM SKC 24/06 A3008 RMK SLP194
CYEG;2003-08-31 02:00;METAR CYEG 310200Z 08007KT 15SM SKC 21/07 A3007 RMK SLP189
CYEG;2003-08-31 03:00;METAR CYEG 310300Z 09008KT 15SM FEW250 19/09 A3006 RMK CI1 SLP185
CYEG;2003-08-31 04:00;METAR CYEG 310400Z 11007KT 15SM FEW250 13/09 A3007 RMK CI1 SLP186
CYEG;2003-08-31 05:00;METAR CYEG 310500Z 11008KT 15SM SKC 13/09 A3005 RMK SLP182
CYEG;2003-08-31 06:00;METAR CYEG 310600Z 13005KT 15SM SKC 11/08 A3005 RMK SLP180
CYEG;2003-08-31 07:00;METAR CYEG 310700Z 12007KT 15SM SKC 11/08 A3003 RMK SLP175
CYEG;2003-08-31 08:00;METAR CYEG 310800Z 13007KT 15SM SKC 10/07 A3002 RMK SLP170
CYEG;2003-08-31 09:00;METAR CYEG 310900Z 13007KT 15SM SKC 08/06 A3001 RMK SLP165
CYEG;2003-08-31 10:00;METAR CYEG 311000Z 13006KT 15SM SKC 08/06 A3000 RMK SLP164
CYEG;2003-08-31 11:00;METAR CYEG 311100Z 13008KT 15SM SKC 10/06 A3000 RMK SLP162
CYEG;2003-08-31 12:00;METAR CYEG 311200Z 14005KT 15SM SCT270 11/05 A2998 RMK CI0 SLP153
CYEG;2003-08-31 13:00;METAR CYEG 311300Z 17005KT 15SM BKN270 09/05 A2998 RMK CI1 SLP152
CYEG;2003-08-31 14:00;METAR CYEG 311400Z 27006KT 15SM OVC270 10/06 A2999 RMK CI2 SLP157
CYEG;2003-08-31 15:00;METAR CYEG 311500Z 15007KT 15SM OVC270 15/05 A2999 RMK CI2 SLP158
CYEG;2003-08-31 16:00;METAR CYEG 311600Z 22008KT 15SM FEW150 OVC270 17/06 A2999 RMK AC1CI2 SLP158
CYEG;2003-08-31 17:00;METAR CYEG 311700Z 24005KT 15SM FEW150 OVC270 19/07 A2998 RMK AC1CI2 SLP157
CYEG;2003-08-31 18:00;METAR CYEG 311800Z 23003KT 15SM SCT270 20/08 A2998 RMK CI1 SLP156
CYEG;2003-08-31 19:00;METAR CYEG 311900Z 26006KT 15SM SCT270 21/09 A2997 RMK CI2 SLP154
CYEG;2003-08-31 20:00;METAR CYEG 312000Z 29006KT 15SM FEW180 SCT270 21/10 A2997 RMK AC1CI1 SLP155
CYEG;2003-08-31 21:00;METAR CYEG 312100Z 33004KT 15SM FEW180 BKN270 22/11 A2996 RMK AC1CI1 SLP151
CYEG;2003-08-31 22:00;METAR CYEG 312200Z 34005KT 15SM FEW180 BKN240 22/11 A2995 RMK AC1CI2 SLP147
CYEG;2003-08-31 23:00;METAR CYEG 312300Z 34005KT 15SM FEW180 SCT240 23/10 A2993 RMK AC2CI1 ACC/VIRGA W SLP142 SLP142
CYEG;2003-09-01 00:00;METAR CYEG 010000Z 33005KT 15SM SCT150 SCT240 22/12 A2992 RMK AC2CI0 ACC ASOCTD VIRGA SLP135 VIRGA SLP135
CYEG;2003-09-01 01:00;METAR CYEG 010100Z 33004KT 15SM SCT150 BKN240 19/12 A2991 RMK ACC3CI0 VIRGA E SLP133 SLP133
CYEG;2003-09-01 02:00;METAR CYEG 010200Z 29011KT 15SM SCT120 BKN140 OVC240 19/12 A2994 RMK ACC4AC2CI1 VIRGA W SH N SLP142
CYEG;2003-09-01 04:00;METAR CYEG 010400Z 02005KT 15SM TS FEW060CB SCT120 BKN250 15/12 A2992 RMK CB1ACC3CI1 LTGCCCG SW-W SLP135
CYEG;2003-09-01 05:00;METAR CYEG 010500Z 01009KT 15SM -SHRA FEW060CB BKN110 OVC250 16/11 A2995 RMK CB1AC6CI2 LTGCCICCG NW-NE SLP144 CB1AC6CI2 LTGCCICCG NW-NE SLP144
CYEG;2003-09-01 06:00;METAR CYEG 010600Z 04007KT 15SM FEW100 SCT170 BKN250 13/10 A2994 RMK AC2AC1CI1 LTGCG W SLP140 LTGCG W SLP140
CYEG;2003-09-01 07:00;METAR CYEG 010700Z 00000KT 15SM TS FEW060CB FEW080 BKN120 BKN200 13/10 A2999 RMK CB1AC2AC3CI1 SH N SLP156 CB1AC2AC3CI1 SH N SLP156
CYEG;2003-09-01 08:00;METAR CYEG 010800Z 26002KT 15SM FEW070 SCT090 BKN110 BKN200 12/10 A2998 RMK AC1AC3AC2CI1 SLP154
CYEG;2003-09-01 09:00;METAR CYEG 010900Z 31003KT 15SM FEW090 SCT220 11/10 A3000 RMK AC2CI0 SLP163
CYEG;2003-09-01 10:00;METAR CYEG 011000Z 31005KT 15SM FEW140 10/09 A3002 RMK AC2 SLP169
CYEG;2003-09-01 11:00;METAR CYEG 011100Z 30006KT 15SM BKN140 BKN220 10/09 A3003 RMK AC5CI1 SLP172
CYEG;2003-09-01 12:00;METAR CYEG 011200Z 26005KT 15SM SCT090 BKN130 BKN220 10/09 A3004 RMK AC3AC2CI1 SHRA NW SLP178 SHRA NW SLP178
CYEG;2003-09-01 13:00;METAR CYEG 011300Z 20005KT 15SM BKN082 BKN110 BKN220 10/08 A3004 RMK AC5AC2CI1 OCNL RW- SLP179
CYEG;2003-09-01 14:00;METAR CYEG 011400Z 00000KT 15SM BKN094 BKN220 10/09 A3005 RMK AC6CI0 SHRA SE VIRGA NE ACC EMBD SLP182
CYEG;2003-09-01 15:00;METAR CYEG 011500Z 00000KT 15SM SCT090 BKN240 12/10 A3007 RMK ACC4CI0 VIRGA SE SLP189 SLP189
CYEG;2003-09-01 16:00;METAR CYEG 011600Z 31007KT 15SM FEW090 14/08 A3007 RMK ACC2 SLP191
CYEG;2003-09-01 17:00;METAR CYEG 011700Z 33009KT 15SM SCT077 SCT095 SCT240 16/07 A3008 RMK ACC3AC1CI1 TR CI SLP195 TR CI SLP195
CYEG;2003-09-01 18:00;METAR CYEG 011800Z 31012KT 15SM FEW035 FEW080 FEW250 17/06 A3009 RMK CU1ACC1CI0 SLP197 SLP197
CYEG;2003-09-01 19:00;METAR CYEG 011900Z 31012G18KT 15SM FEW055 FEW080 FEW250 18/04 A3009 RMK CU1ACC1CI0 SLP196
CYEG;2003-09-01 20:00;METAR CYEG 012000Z 29017G22KT 15SM FEW065 FEW090 FEW250 18/02 A3009 RMK CU1ACC1CI0 TR ACC SLP197
CYEG;2003-09-01 21:00;METAR CYEG 012100Z 30012G19KT 15SM FEW070 FEW250 19/02 A3009 RMK CU1CI0 SLP198
CYEG;2003-09-01 22:00;METAR CYEG 012200Z 30015G21KT 15SM FEW070 FEW250 19/02 A3010 RMK CU1CI1 SLP199
CYEG;2003-09-01 23:00;METAR CYEG 012300Z 33014G21KT 15SM FEW070 FEW250 18/02 A3011 RMK CU1CI1 SLP203
CYEG;2003-09-02 00:00;METAR CYEG 020000Z 32012G19KT 15SM FEW070 FEW240 18/03 A3012 RMK CU1CI1 SLP208
CYEG;2003-09-02 01:00;METAR CYEG 020100Z 33012G17KT 15SM FEW060 FEW240 17/02 A3014 RMK CU1CI1 SLP213
CYEG;2003-09-02 02:00;METAR CYEG 020200Z 34005KT 15SM FEW060 FEW090 FEW160 SCT250 13/04 A3015 RMK CU1AC1AC1CI1 TR CU+LWR AC SLP217
CYEG;2003-09-02 04:00;METAR CYEG 020400Z 28004KT 15SM FEW250 09/04 A3019 RMK CI0 SLP239
CYEG;2003-09-02 05:00;METAR CYEG 020500Z 22003KT 15SM FEW250 05/03 A3020 RMK CI0 SLP241
CYEG;2003-09-02 06:00;METAR CYEG 020600Z 25005KT 15SM SKC 07/03 A3020 RMK SLP241
CYEG;2003-09-02 07:00;METAR CYEG 020700Z 27002KT 15SM SKC 05/03 A3021 RMK SLP243
CYEG;2003-09-02 08:00;METAR CYEG 020800Z 23004KT 15SM SKC 06/02 A3021 RMK SLP245
CYEG;2003-09-02 09:00;METAR CYEG 020900Z 22005KT 15SM SKC 05/02 A3022 RMK SLP247
CYEG;2003-09-02 10:00;METAR CYEG 021000Z 23004KT 15SM SKC 05/01 A3023 RMK SLP249
CYEG;2003-09-02 11:00;METAR CYEG 021100Z 27003KT 15SM SKC 05/01 A3024 RMK SLP253
CYEG;2003-09-02 13:00;METAR CYEG 021300Z 23002KT 15SM FEW250 02/M00 A3025 RMK CI1 SLP258
CYEG;2003-09-02 14:00;METAR CYEG 021400Z 21002KT 15SM BKN250 06/04 A3025 RMK CI2 SLP259
CYEG;2003-09-02 15:00;METAR CYEG 021500Z 00000KT 15SM BKN250 10/05 A3026 RMK CI2 SLP265
CYEG;2003-09-02 16:00;METAR CYEG 021600Z 00000KT 15SM SCT250 14/04 A3026 RMK CI2 SLP265
CYEG;2003-09-02 17:00;METAR CYEG 021700Z 04002KT 15SM SCT250 17/05 A3025 RMK CI2 SLP263
CYEG;2003-09-02 18:00;METAR CYEG 021800Z 06002KT 15SM SCT250 19/03 A3024 RMK CI2 SLP253
CYEG;2003-09-02 19:00;METAR CYEG 021900Z 14004KT 15SM SCT260 20/02 A3023 RMK CI2 SLP249
CYEG;2003-09-02 20:00;METAR CYEG 022000Z 17004KT 15SM SCT260 21/03 A3022 RMK CI2 SLP245
CYEG;2003-09-02 21:00;METAR CYEG 022100Z 18005KT 15SM SCT260 21/03 A3021 RMK CI2 SLP239
CYEG;2003-09-02 23:00;METAR CYEG 022300Z 18008KT 15SM BKN250 23/05 A3017 RMK CI2 SLP227
CYEG;2003-09-03 00:00;METAR CYEG 030000Z 16006KT 15SM SCT250 22/05 A3015 RMK CI2 SLP221
CYEG;2003-09-03 01:00;METAR CYEG 030100Z 17004KT 15SM FEW160 BKN250 22/05 A3014 RMK AC1CI2 TR AC SLP217
CYEG;2003-09-03 02:00;METAR CYEG 030200Z 13005KT 15SM FEW160 BKN250 17/07 A3012 RMK AC1CI2 SLP211
CYEG;2003-09-03 03:00;METAR CYEG 030300Z 14008KT 15SM BKN250 13/07 A3013 RMK CI2 SLP215
CYEG;2003-09-03 04:00;METAR CYEG 030400Z 14008KT 15SM BKN250 13/06 A3013 RMK CI2 SLP216
CYEG;2003-09-03 05:00;METAR CYEG 030500Z 16002KT 15SM BKN250 11/05 A3012 RMK CI2 SLP214
CYEG;2003-09-03 06:00;METAR CYEG 030600Z 15006KT 15SM FEW250 12/04 A3011 RMK CI1 SLP204
CYEG;2003-09-03 07:00;METAR CYEG 030700Z 15006KT 15SM SKC 12/04 A3010 RMK SLP200
CYEG;2003-09-03 08:00;METAR CYEG 030800Z 15007KT 15SM SKC 13/04 A3009 RMK SLP196
CYEG;2003-09-03 09:00;METAR CYEG 030900Z 17007KT 15SM SKC 12/04 A3008 RMK SLP191
CYEG;2003-09-03 10:00;METAR CYEG 031000Z 18008KT 15SM SKC 10/04 A3007 RMK SLP188
CYEG;2003-09-03 11:00;METAR CYEG 031100Z 17005KT 15SM FEW250 11/04 A3007 RMK CI1 SLP187
CYEG;2003-09-03 12:00;METAR CYEG 031200Z 17005KT 15SM FEW250 10/04 A3006 RMK CI1 TR CI SLP185
CYEG;2003-09-03 13:00;METAR CYEG 031300Z 14006KT 15SM FEW250 07/04 A3006 RMK CI1 SLP184
CYEG;2003-09-03 14:00;METAR CYEG 031400Z 15004KT 15SM FEW250 11/05 A3006 RMK CI0 SLP184
CYEG;2003-09-03 15:00;METAR CYEG 031500Z 18005KT 15SM FEW250 14/05 A3005 RMK CI0 SLP186
CYEG;2003-09-03 16:00;METAR CYEG 031600Z 17004KT 15SM FEW250 17/06 A3004 RMK CI1 SLP183
CYEG;2003-09-03 17:00;METAR CYEG 031700Z 14005KT 15SM FEW250 20/07 A3003 RMK CI1 TR CI SLP180
CYEG;2003-09-03 18:00;METAR CYEG 031800Z 18004KT 15SM FEW270 22/08 A3003 RMK CI1 SLP172
CYEG;2003-09-03 19:00;METAR CYEG 031900Z 16005KT 15SM FEW270 23/08 A3001 RMK CI1 SLP166
CYEG;2003-09-03 20:00;METAR CYEG 032000Z 15007KT 15SM SKC 25/09 A2999 RMK SLP161
CYEG;2003-09-03 21:00;METAR CYEG 032100Z 15003KT 15SM SKC 26/09 A2997 RMK SLP149
CYEG;2003-09-03 22:00;METAR CYEG 032200Z 14005KT 15SM SKC 28/09 A2995 RMK SLP143
CYEG;2003-09-03 23:00;METAR CYEG 032300Z 22003KT 15SM SKC 28/10 A2994 RMK SLP140
CYEG;2003-09-04 00:00;METAR CYEG 040000Z 00000KT 15SM SKC 28/10 A2992 RMK SLP131
CYEG;2003-09-04 01:00;METAR CYEG 040100Z 12003KT 15SM SKC 26/11 A2990 RMK SLP125
CYEG;2003-09-04 02:00;METAR CYEG 040200Z 12005KT 15SM SKC 20/11 A2989 RMK SLP121
CYEG;2003-09-04 03:00;METAR CYEG 040300Z 13005KT 15SM SKC 17/10 A2988 RMK SLP124
CYEG;2003-09-04 04:00;METAR CYEG 040400Z 00000KT 15SM SKC 13/10 A2988 RMK SLP123
CYEG;2003-09-04 05:00;METAR CYEG 040500Z 16002KT 15SM SKC 12/08 A2987 RMK SLP119
CYEG;2003-09-04 06:00;METAR CYEG 040600Z 19003KT 15SM SKC 11/08 A2984 RMK SLP110
CYEG;2003-09-04 07:00;METAR CYEG 040700Z 13002KT 15SM SKC 10/08 A2983 RMK SLP105
CYEG;2003-09-04 08:00;METAR CYEG 040800Z 21004KT 15SM SKC 09/06 A2982 RMK SLP101
CYEG;2003-09-04 09:00;METAR CYEG 040900Z 20002KT 15SM SKC 08/06 A2981 RMK SLP096
CYEG;2003-09-04 10:00;METAR CYEG 041000Z 20005KT 15SM SKC 09/07 A2980 RMK SLP094
CYEG;2003-09-04 11:00;METAR CYEG 041100Z 23004KT 15SM SKC 09/06 A2982 RMK SLP098
CYEG;2003-09-04 12:00;METAR CYEG 041200Z 31002KT 15SM FEW250 07/05 A2983 RMK CI2 SLP104
CYEG;2003-09-04 13:00;METAR CYEG 041300Z 24006KT 10SM SCT250 08/06 A2986 RMK CI2 HZ CONTRAILS SLP111
CYEG;2003-09-04 14:00;METAR CYEG 041400Z 30006KT 12SM BKN250 13/10 A2989 RMK CI2 FU CONTRA SLP122
CYEG;2003-09-04 15:00;METAR CYEG 041500Z 30009KT 15SM BKN250 14/11 A2991 RMK CI2 SLP134
CYEG;2003-09-04 16:00;METAR CYEG 041600Z 32010KT 15SM FEW250 17/11 A2992 RMK CI1 SLP138
CYEG;2003-09-04 17:00;METAR CYEG 041700Z 33009KT 15SM SCT250 19/11 A2993 RMK CI1 SLP140
CYEG;2003-09-04 18:00;METAR CYEG 041800Z 33011KT 15SM SCT250 21/11 A2994 RMK CI1 SLP143
CYEG;2003-09-04 20:00;METAR CYEG 042000Z 33005KT 15SM FEW250 23/10 A2994 RMK CI0 FU ALF SLP144
CYEG;2003-09-04 21:00;METAR CYEG 042100Z 32006KT 15SM FEW055 FEW250 24/10 A2994 RMK CU1CI0 TR CU NW FU ALF SW SLP143 ALF SW SLP143
CYEG;2003-09-05 22:00;METAR CYEG 042200Z 33007KT 15SM FEW055 FEW250 24/10 A2993 RMK CU1CI0 TR CU NW SLP139
CYEG;2003-09-05 23:00;METAR CYEG 042300Z 01006KT 15SM FEW055 SCT250 24/10 A2991 RMK CU1CI0 TR CU N SLP135
CYEG;2003-09-05 00:00;METAR CYEG 050000Z 36003KT 15SM FEW055 SCT250 23/11 A2992 RMK CU1CI1 TR CU N SLP138 SLP139 SLP135 SLP138
CYEG;2003-09-05 01:00;METAR CYEG 050100Z 33003KT 15SM BKN240 20/12 A2992 RMK CI2 FU ALF SLP137
CYEG;2003-09-05 02:00;METAR CYEG 050200Z 23002KT 15SM FEW090 BKN250 18/11 A2992 RMK AC1CI3 SLP137
CYEG;2003-09-05 04:00;METAR CYEG 050400Z 18002KT 15SM BKN250 12/09 A2994 RMK CI4 SLP145
CYEG;2003-09-05 05:00;METAR CYEG 050500Z 19005KT 15SM BKN250 12/09 A2994 RMK CI3 SLP145
CYEG;2003-09-05 06:00;METAR CYEG 050600Z 14002KT 15SM BKN250 11/09 A2993 RMK CI2 SLP141
CYEG;2003-09-05 07:00;METAR CYEG 050700Z 00000KT 15SM BKN250 10/08 A2993 RMK CI3 SLP140
CYEG;2003-09-05 08:00;METAR CYEG 050800Z 15007KT 15SM SCT250 11/09 A2992 RMK CI2 SLP137
CYEG;2003-09-05 09:00;METAR CYEG 050900Z 14009KT 15SM FEW250 13/09 A2991 RMK CI2 SLP129
CYEG;2003-09-05 10:00;METAR CYEG 051000Z 14007KT 15SM BKN250 11/09 A2990 RMK CI3 SLP125
CYEG;2003-09-05 11:00;METAR CYEG 051100Z 18004KT 15SM SCT250 12/08 A2989 RMK CI2 SLP124
CYEG;2003-09-05 12:00;METAR CYEG 051200Z 15003KT 15SM SCT250 12/08 A2989 RMK CI2 SLP125
CYEG;2003-09-05 13:00;METAR CYEG 051300Z 13005KT 15SM FEW100 BKN250 09/08 A2989 RMK AC1CI3 SLP124
CYEG;2003-09-05 14:00;METAR CYEG 051400Z 14007KT 15SM FEW100 BKN250 12/09 A2989 RMK AC2CI1 SLP122
CYEG;2003-09-05 15:00;METAR CYEG 051500Z 16009KT 15SM FEW100 BKN250 16/09 A2988 RMK AC2CI1 FU ALOFT SLP123 SLP123
CYEG;2003-09-05 16:00;METAR CYEG 051600Z 20005KT 15SM FEW100 SCT250 18/10 A2987 RMK AC1CI2 FU ALF
CYEG;2003-09-05 17:00;METAR CYEG 051700Z 19006KT 15SM SCT250 21/10 A2988 RMK CI2 FU ALF SLP124
CYEG;2003-09-05 18:00;METAR CYEG 051800Z 18003KT 15SM SCT250 22/11 A2988 RMK CI2 FU ALF SLP120
CYEG;2003-09-05 19:00;METAR CYEG 051900Z 18003KT 15SM SCT250 23/11 A2987 RMK CI2 FU ALF SLP118
CYEG;2003-09-05 20:00;METAR CYEG 052000Z 34007KT 10SM FEW120 BKN250 23/11 A2988 RMK AC1CI2 FU SLP120
CYEG;2003-09-05 21:00;METAR CYEG 052100Z 36005KT 10SM SCT160 BKN250 23/11 A2988 RMK AC3CI1 FU
CYEG;2003-09-06 00:00;METAR CYEG 060000Z 36005KT 12SM BKN120 BKN250 21/13 A2989 RMK AC3CI1 FU SLP123
CYEG;2003-09-06 01:00;METAR CYEG 060100Z 36004KT 12SM SCT120 BKN250 19/13 A2988 RMK AC2CI2 FU SLP122
CYEG;2003-09-06 02:00;METAR CYEG 060200Z 33002KT 12SM FEW120 SCT250 17/13 A2989 RMK AC1CI1 FU
CYEG;2003-09-06 03:00;METAR CYEG 060300Z 25002KT 10SM FEW120 SCT250 14/11 A2989 RMK AC2CI0 FU SLP129
CYEG;2003-09-06 04:00;METAR CYEG 060400Z 34002KT 12SM FEW120 12/11 A2989 RMK AC2 FU SLP129
CYEG;2003-09-06 05:00;METAR CYEG 060500Z 22002KT 15SM BKN150 10/09 A2991 RMK AC4 SLP133
CYEG;2003-09-06 06:00;METAR CYEG 060600Z 31003KT 15SM BKN130 11/10 A2991 RMK AC7 SLP133
CYEG;2003-09-06 07:00;METAR CYEG 060700Z 00000KT 15SM OVC130 13/11 A2992 RMK AC8 SLP135
CYEG;2003-09-06 08:00;METAR CYEG 060800Z 00000KT 15SM OVC120 12/10 A2993 RMK AC8 SLP137
CYEG;2003-09-06 10:00;METAR CYEG 061000Z 00000KT 1SM R02/2400FT R30/P6000FT BR SKC 08/08 A2993 RMK FG2 LOW LVL FG SLP138 LOW LVL FG SLP138
CYEG;2003-09-06 11:00;METAR CYEG 061100Z 20004KT 1 1/2SM R12/4500FT R30/P6000FT BR SKC 09/08 A2992 RMK FG2 LOW LVL FG SLP136 FG2 LOW LVL FG SLP136
CYEG;2003-09-06 12:00;METAR CYEG 061200Z 00000KT 6SM BR SCT180 07/07 A2992 RMK AC4 SLP138
CYEG;2003-09-06 13:00;METAR CYEG 061300Z 00000KT 5SM BR FEW180 SCT260 07/06 A2992 RMK AC2CI0 SLP140
CYEG;2003-09-06 14:00;METAR CYEG 061400Z 00000KT 3SM BR FEW160 SCT250 08/08 A2994 RMK AC2CI0 SLP146
CYEG;2003-09-06 15:00;METAR CYEG 061500Z 00000KT 5SM BR FEW160 SCT250 12/11 A2994 RMK AC2CI0 SLP148
CYEG;2003-09-06 16:00;METAR CYEG 061600Z 09002KT 10SM FEW160 SCT250 17/13 A2993 RMK AC2CI1 HZ SLP145
CYEG;2003-09-06 17:00;METAR CYEG 061700Z 09007KT 12SM SCT250 20/12 A2992 RMK CI2 HZ SLP143
CYEG;2003-09-06 18:00;METAR CYEG 061800Z 11012KT 15SM SCT250 23/11 A2992 RMK CI2 SLP133
CYEG;2003-09-06 19:00;METAR CYEG 061900Z 10011KT 15SM FEW250 24/11 A2990 RMK CI1 SLP128
CYEG;2003-09-06 20:00;METAR CYEG 062000Z 08010KT 15SM FEW250 26/11 A2989 RMK CI1 SLP123
CYEG;2003-09-06 21:00;METAR CYEG 062100Z 09009KT 15SM FEW250 27/11 A2987 RMK CI1 SLP116
CYEG;2003-09-06 22:00;METAR CYEG 062200Z 10009KT 15SM FEW250 28/11 A2985 RMK CI0 SLP110
CYEG;2003-09-06 23:00;METAR CYEG 062300Z 11008KT 15SM FEW250 28/10 A2984 RMK CI0 SLP106
CYEG;2003-09-07 00:00;METAR CYEG 070000Z 09008KT 15SM FEW250 27/11 A2983 RMK CI0 SLP102
CYEG;2003-09-07 01:00;METAR CYEG 070100Z 07005KT 15SM BKN250 25/12 A2982 RMK CI1 SLP099
CYEG;2003-09-07 02:00;METAR CYEG 070200Z 06007KT 15SM BKN250 18/13 A2980 RMK CI2 SLP093
CYEG;2003-09-07 04:00;METAR CYEG 070400Z 07005KT 12SM SKC 15/11 A2980 RMK HZ SLP098
CYEG;2003-09-07 05:00;METAR CYEG 070500Z 00000KT 15SM SKC 14/10 A2979 RMK SLP094
CYEG;2003-09-07 06:00;METAR CYEG 070600Z 00000KT 15SM SKC 12/09 A2978 RMK SLP085
CYEG;2003-09-07 07:00;METAR CYEG 070700Z 13003KT 15SM SKC 14/09 A2977 RMK SLP081
CYEG;2003-09-07 08:00;METAR CYEG 070800Z 16005KT 15SM SKC 16/09 A2975 RMK SLP077
CYEG;2003-09-07 09:00;METAR CYEG 070900Z 18003KT 15SM SKC 11/07 A2975 RMK SLP071
CYEG;2003-09-07 11:00;METAR CYEG 071100Z 11010KT 15SM SKC 12/09 A2971 RMK SLP059
CYEG;2003-09-07 12:00;METAR CYEG 071200Z 21004KT 15SM FEW270 12/08 A2971 RMK CI0 SLP057
CYEG;2003-09-07 13:00;METAR CYEG 071300Z 13004KT 15SM FEW270 09/07 A2970 RMK CI0 SLP053
CYEG;2003-09-07 14:00;METAR CYEG 071400Z 14004KT 15SM SCT270 10/08 A2968 RMK CI1 FU ALF SLP048
CYEG;2003-09-07 15:00;METAR CYEG 071500Z 15004KT 15SM FEW270 15/10 A2967 RMK CI0 FU ALF SLP051
CYEG;2003-09-07 16:00;METAR CYEG 071600Z 16005KT 15SM FEW270 17/09 A2966 RMK CI1 FU ALF SLP047
CYEG;2003-09-07 17:00;METAR CYEG 071700Z 16005KT 10SM FEW270 21/09 A2965 RMK CI1 HZ SLP045
CYEG;2003-09-07 18:00;METAR CYEG 071800Z 16004KT 10SM FEW160 BKN270 23/09 A2964 RMK AC2CI2 HZ SLP037
CYEG;2003-09-07 19:00;METAR CYEG 071900Z 14007KT 8SM SCT160 BKN270 27/11 A2964 RMK AC3CI1 HZ SLP036
CYEG;2003-09-07 20:00;METAR CYEG 072000Z 14008KT 8SM FEW160 BKN270 29/09 A2962 RMK AC2CI2 HZ SLP031
CYEG;2003-09-07 21:00;METAR CYEG 072100Z 15011KT 8SM FEW160 BKN270 31/08 A2960 RMK AC1CI2 HZ SLP017
CYEG;2003-09-07 22:00;METAR CYEG 072200Z 21011KT 10SM FEW100 SCT270 32/05 A2958 RMK CU1CI1 HZ WSHFT GRDL SLP011 GRDL SLP011
CYEG;2003-09-07 23:00;METAR CYEG 072300Z 18005KT 12SM FEW120 SCT160 BKN270 31/05 A2957 RMK CU2ACC2CI2 SLP007 SLP007
CYEG;2003-09-08 00:00;METAR CYEG 080000Z 33009G16KT 8SM FEW120 BKN160 BKN270 26/12 A2957 RMK AC2AC2CI1 HZ ACC EMBD SLP010
CYEG;2003-09-08 01:00;METAR CYEG 080100Z 18008KT 8SM SCT120 BKN160 OVC270 24/12 A2960 RMK AC4AC2CI2 HZ ACC EMBD VIRGA E-SE SLP020 ACC EMBD VIRGA E-SE SLP020
CYEG;2003-09-08 02:00;METAR CYEG 080200Z 30006KT 8SM FEW050 SCT120 BKN160 OVC270 22/11 A2958 RMK SC1ACC3AC3CI2 HZ VIRGA ALQDS SLP014
CYEG;2003-09-08 03:00;METAR CYEG 080300Z 34007KT 8SM FEW120 BKN160 OVC270 21/13 A2958 RMK ACC2AC4CI2 HZ LTGIC CB ASOCTD NW SLP018 LTGIC CB ASOCTD NW SLP018
CYEG;2003-09-08 04:00;METAR CYEG 080400Z 11004KT 8SM -TSRA BKN100 OVC160 20/13 A2964 RMK ACC5AC3 LTNG E-S CB ASOCTD SLP035
CYEG;2003-09-08 05:00;METAR CYEG 080500Z 34010G15KT 10SM SCT100 BKN160 18/13 A2961 RETS RMK ACC3AC3 HZ LTNG W CB ASOCTD G20 PST HR SLP027 LTNG W CB ASOCTD G20 PST HR SLP027
CYEG;2003-09-08 06:00;METAR CYEG 080600Z 31019G25KT 10SM FEW100 BKN160 BKN270 17/11 A2969 RMK ACC2AC3CI2 HZ G28 PST HR PRESRR SLP048
CYEG;2003-09-08 07:00;METAR CYEG 080700Z 32019KT 10SM FEW100 BKN160 BKN270 15/12 A2971 RMK ACC2AC3CI2 HZ LTNG W CB ASOCTD SLP055
CYEG;2003-09-08 08:00;METAR CYEG 080800Z 33012G21KT 10SM FEW100 BKN160 BKN270 14/11 A2971 RMK ACC2AC3CI2 HZ LTNG W CB ASOCTD SLP057
CYEG;2003-09-08 09:00;METAR CYEG 080900Z 36016KT 10SM FEW040 SCT160 OVC270 14/10 A2970 RMK SC2AC2CI3 HZ SLP048 SLP048
CYEG;2003-09-08 10:00;METAR CYEG 081000Z 36009KT 15SM SCT090 BKN160 OVC270 13/09 A2970 RMK AC3AC2CI2 SLP049 SLP049
CYEG;2003-09-08 11:00;METAR CYEG 081100Z 34006KT 15SM SCT090 BKN160 OVC270 12/09 A2971 RMK AC3AC4CI1 SLP052 SLP052
CYEG;2003-09-08 12:00;METAR CYEG 081200Z 32007KT 15SM FEW015 BKN090 OVC160 12/09 A2970 RMK SC1AC5AC3 SLP056 SLP056
CYEG;2003-09-08 13:00;METAR CYEG 081300Z 32008KT 15SM SCT008 BKN090 OVC270 11/09 A2970 RMK SF3AC4CI1 SLP057 SLP057
CYEG;2003-09-08 14:00;METAR CYEG 081400Z 31004KT 15SM FEW008 SCT090 BKN130 OVC270 11/09 A2971 RMK SF1AC3AC2CI2 TR SF SLP060
CYEG;2003-09-08 15:00;METAR CYEG 081500Z 31007KT 15SM FEW008 FEW090 BKN140 OVC270 12/07 A2972 RMK SF1AC2AC3CI2 TR SF E-SE HRZN VIRGA SW SLP067
CYEG;2003-09-08 16:00;METAR CYEG 081600Z 33007KT 15SM BKN068 BKN090 13/07 A2971 RMK AC6AC2 VIRGA SW-W SLP064 SLP064
CYEG;2003-09-08 17:00;METAR CYEG 081700Z 31009KT 15SM BKN075 BKN100 14/08 A2970 RMK AC6AC2 SLP062
CYEG;2003-09-08 18:00;METAR CYEG 081800Z 31009KT 15SM FEW060 BKN075 OVC100 14/08 A2970 RMK SC2AC5AC2 SLP063 SLP063
CYEG;2003-09-08 19:00;METAR CYEG 081900Z 32009KT 15SM FEW060 SCT080 OVC100 14/07 A2970 RMK SC1AC2AC5 SLP061 SLP061
CYEG;2003-09-08 20:00;METAR CYEG 082000Z 34008KT 15SM BKN087 OVC110 15/06 A2969 RMK AC5AC3 SLP059
CYEG;2003-09-08 21:00;METAR CYEG 082100Z 35008KT 15SM OVC084 15/06 A2968 RMK AC8 SLP057
CYEG;2003-09-08 22:00;METAR CYEG 082200Z 32007KT 15SM BKN081 OVC110 15/06 A2968 RMK AC7AC1 VIRGA SW SLP055 SLP055
CYEG;2003-09-08 23:00;METAR CYEG 082300Z 33009KT 15SM BKN086 BKN110 15/06 A2967 RMK AC6AC1 VIRGA S SLP052
CYEG;2003-09-09 00:00;METAR CYEG 090000Z 33007KT 15SM BKN086 OVC110 14/06 A2966 RMK AC6AC2 VIRGA SW SLP053 SLP053
CYEG;2003-09-09 01:00;METAR CYEG 090100Z 30004KT 15SM FEW070 BKN090 OVC120 14/07 A2967 RMK AC1AC6AC2 SHRA S VIRGA NW-N SLP055 SHRA S VIRGA NW-N SLP055
CYEG;2003-09-09 02:00;METAR CYEG 090200Z 29005KT 15SM OVC090 13/07 A2968 RMK AC8 VIRGA S-W SLP057
CYEG;2003-09-09 03:00;METAR CYEG 090300Z 30005KT 15SM BKN087 OVC120 12/08 A2967 RMK AC7AC1 VIRGA OVRHD N SLP055 N SLP055
CYEG;2003-09-09 05:00;METAR CYEG 090500Z 28002KT 15SM OVC100 11/08 A2966 RMK AC8 VIRGA SLP054
CYEG;2003-09-09 06:00;METAR CYEG 090600Z 30005KT 15SM OVC097 12/08 A2966 RMK AC8 VIRGA SLP051
CYEG;2003-09-09 07:00;METAR CYEG 090700Z 30006KT 15SM BKN100 OVC140 12/07 A2964 RMK AC6AC2 SLP047
CYEG;2003-09-09 08:00;METAR CYEG 090800Z 27003KT 15SM OVC100 11/07 A2965 RMK AC8 VIRGA SLP048
CYEG;2003-09-09 09:00;METAR CYEG 090900Z 29002KT 15SM OVC100 11/07 A2965 RMK AC8 VIRGA SLP050
CYEG;2003-09-09 10:00;METAR CYEG 091000Z 28009KT 15SM FEW070 OVC100 11/08 A2966 RMK AC2AC6 VIRGA SLP051
CYEG;2003-09-09 11:00;METAR CYEG 091100Z 31009KT 15SM FEW070 OVC110 12/07 A2964 RMK AC2AC6 VIRGA
CYEG;2003-09-09 12:00;METAR CYEG 091200Z 32006KT 15SM BKN077 OVC110 12/06 A2964 RMK AC5AC3 VIRGA SLP046
CYEG;2003-09-09 13:00;METAR CYEG 091300Z 01005KT 15SM BKN078 OVC100 11/06 A2965 RMK AC6AC2 VIRGA ALQDS OVRHD SLP049 OVRHD SLP049
CYEG;2003-09-09 14:00;METAR CYEG 091400Z 32004KT 15SM -SHRA FEW015 BKN072 OVC100 10/07 A2966 RMK CU1AC7AC1 SLP052
CYEG;2003-09-09 15:00;METAR CYEG 091500Z 30007KT 15SM -RA BKN071 OVC100 10/06 A2965 RMK AC6AC2 SLP052
CYEG;2003-09-09 16:00;METAR CYEG 091600Z 31008KT 15SM -RA OVC062 11/06 A2967 RMK SC8 SLP058
CYEG;2003-09-09 18:00;METAR CYEG 091800Z 29012G17KT 15SM FEW018 FEW052 OVC077 11/07 A2964 RMK CU1SC2AC6 VIRGA N QUAD TR CU SLP048 VIRGA N QUAD TR CU SLP048
CYEG;2003-09-09 19:00;METAR CYEG 091900Z 30013G21KT 15SM VCSH FEW052 OVC080 11/06 A2964 RMK SC1AC7 SHRA N-NE VIRGA OVRHD E-SE SLP048 N-NE VIRGA OVRHD E-SE SLP048
CYEG;2003-09-09 21:00;METAR CYEG 092100Z 30013G19KT 15SM FEW065 OVC075 13/07 A2961 RMK SC2AS6 VIRGA N-NE SLP038 N-NE SLP038
CYEG;2003-09-09 22:00;METAR CYEG 092200Z 29013G18KT 15SM VCSH FEW030 SCT060 OVC079 13/06 A2961 RMK CU1SC4AS4 SHRA N-NE VIRGA E-SE SLP037 CU1SC4AS4 SHRA N-NE VIRGA E-SE SLP037
CYEG;2003-09-09 23:00;METAR CYEG 092300Z 28010KT 15SM SCT062 OVC080 13/07 A2961 RMK SC4AS4 OCNL RW- SLP037 SLP037
CYEG;2003-09-10 00:00;METAR CYEG 100000Z 28008KT 15SM BKN054 OVC090 13/07 A2960 RMK SC5AS3 INTMT R- SLP032 SLP032
CYEG;2003-09-10 01:00;METAR CYEG 100100Z 29012KT 15SM FEW054 OVC100 13/06 A2960 RMK SC1AS7 VIRGA ALQDS SLP031 SLP031
CYEG;2003-09-10 02:00;METAR CYEG 100200Z 28009KT 15SM FEW055 BKN100 13/06 A2960 RMK SC1AC7 TR SC VIRGA ALQDS SLP033 ALQDS SLP033
CYEG;2003-09-10 03:00;METAR CYEG 100300Z 28009KT 15SM FEW055 OVC100 13/06 A2961 RMK SC1AC8 TR SC VIRGA ALQDS SLP038 ALQDS SLP038
CYEG;2003-09-10 04:00;METAR CYEG 100400Z 29010G15KT 15SM FEW065 OVC090 13/05 A2962 RMK SC2AC6 SHRA N VIRGA SLP040 VIRGA SLP040
CYEG;2003-09-10 05:00;METAR CYEG 100500Z 28009KT 15SM FEW065 OVC100 13/05 A2963 RMK SC2AC6 VIRGA SLP043
CYEG;2003-09-10 06:00;METAR CYEG 100600Z 29008KT 15SM FEW065 OVC092 13/05 A2964 RMK SC2AC6 VIRGA SLP047
CYEG;2003-09-10 07:00;METAR CYEG 100700Z 29010KT 15SM FEW060 BKN090 OVC120 12/05 A2965 RMK SC1AC6AC2 SLP050 SLP050
CYEG;2003-09-10 08:00;METAR CYEG 100800Z 29011KT 15SM BKN085 OVC120 13/05 A2966 RMK AC6AC2 SLP054
CYEG;2003-09-10 09:00;METAR CYEG 100900Z 27010KT 15SM SCT085 OVC140 11/05 A2968 RMK AC3AC5 SLP060
CYEG;2003-09-10 10:00;METAR CYEG 101000Z 28008KT 15SM FEW090 OVC150 11/05 A2970 RMK AC2AS6 SLP067
CYEG;2003-09-10 11:00;METAR CYEG 101100Z 27009KT 15SM BKN150 OVC240 11/05 A2971 RMK AS6CS2 SLP071
CYEG;2003-09-10 12:00;METAR CYEG 101200Z 27007KT 15SM BKN160 BKN240 10/04 A2973 RMK AS5CS2 SLP078
CYEG;2003-09-10 13:00;METAR CYEG 101300Z 27008KT 15SM FEW090 FEW160 SCT240 08/04 A2975 RMK AC1AC1CI2 TR LWR AC SLP084 LWR AC SLP084
CYEG;2003-09-10 14:00;METAR CYEG 101400Z 27008KT 15SM FEW090 FEW160 SCT240 09/04 A2977 RMK AC1AC1CI2 TR AC CLD SLP090 AC CLD SLP090
CYEG;2003-09-10 15:00;METAR CYEG 101500Z 27010KT 15SM FEW090 FEW160 SCT240 11/04 A2978 RMK AC1AC1CI2 TR AC CLD SLP095 AC CLD SLP095
CYEG;2003-09-10 16:00;METAR CYEG 101600Z 27010KT 15SM FEW100 FEW160 SCT240 14/04 A2979 RMK AC1AC1CI2 TR HIER AC SLP097 HIER AC SLP097
CYEG;2003-09-10 17:00;METAR CYEG 101700Z 28010KT 15SM FEW100 SCT250 16/04 A2979 RMK AC1CI2 CC ASOCTD SLP099 SLP099
CYEG;2003-09-10 18:00;METAR CYEG 101800Z 28009KT 15SM FEW100 BKN250 17/05 A2980 RMK AC1CI2 SLP095
CYEG;2003-09-10 19:00;METAR CYEG 101900Z 29012G18KT 15SM FEW060 FEW250 19/03 A2979 RMK CU1CI1 SLP092
CYEG;2003-09-10 20:00;METAR CYEG 102000Z 28011G16KT 15SM FEW070 FEW270 19/01 A2978 RMK CU1CI1 SLP090
CYEG;2003-09-10 21:00;METAR CYEG 102100Z 30010G15KT 15SM FEW075 FEW270 20/01 A2977 RMK CU1CI1 SLP086
CYEG;2003-09-10 22:00;METAR CYEG 102200Z 29007KT 15SM FEW075 FEW270 21/02 A2977 RMK CU1CI1 SLP083
CYEG;2003-09-10 23:00;METAR CYEG 102300Z 28005KT 15SM FEW075 SCT270 20/02 A2975 RMK CU1CI1 HIER AC SLP075
CYEG;2003-09-11 01:00;METAR CYEG 110100Z 26002KT 15SM SCT110 BKN270 20/03 A2972 RMK AC2CI2 SLP071
CYEG;2003-09-11 02:00;METAR CYEG 110200Z 16002KT 15SM SCT110 BKN270 14/04 A2971 RMK AC2CI1 SLP067
CYEG;2003-09-11 03:00;METAR CYEG 110300Z 15005KT 15SM FEW110 BKN270 11/03 A2971 RMK AC1CI2 SLP073
CYEG;2003-09-11 04:00;METAR CYEG 110400Z 17004KT 15SM FEW100 BKN270 09/02 A2971 RMK AC1CI1
CYEG;2003-09-11 05:00;METAR CYEG 110500Z 18007KT 15SM FEW100 SCT270 10/02 A2970 RMK AC1CI1
CYEG;2003-09-11 06:00;METAR CYEG 110600Z 18008KT 15SM FEW100 FEW270 08/02 A2969 RMK AC1CI1 SLP062
CYEG;2003-09-11 07:00;METAR CYEG 110700Z 23004KT 15SM BKN120 BKN160 11/04 A2968 RMK AC5AC1 SLP060
CYEG;2003-09-11 08:00;METAR CYEG 110800Z 27009KT 15SM BKN120 14/03 A2969 RMK AC6 SLP061
CYEG;2003-09-11 09:00;METAR CYEG 110900Z 27006KT 15SM BKN110 13/03 A2969 RMK AC6 SLP056
CYEG;2003-09-11 10:00;METAR CYEG 111000Z 27005KT 15SM SCT110 10/03 A2969 RMK AC2 SLP055
CYEG;2003-09-11 11:00;METAR CYEG 111100Z 28010G16KT 15SM FEW160 SCT270 11/04 A2972 RMK AC2CI1 SLP065
CYEG;2003-09-11 12:00;METAR CYEG 111200Z 25003KT 15SM FEW100 BKN140 08/04 A2973 RMK AC1AC6 SLP074
CYEG;2003-09-11 13:00;METAR CYEG 111300Z 29004KT 15SM -SHRA FEW055TCU BKN090 BKN140 BKN250 09/06 A2973 RMK TCU2AC2AC1CI1 SLP073 RMK TCU2AC2AC1CI1 SLP073 TCU6AC1 HVYR SHRA VSB NE-E + SE-SW 10 WSHFT GRDL G28 PST HR SLP076 HVYR SHRA VSB NE-E + SE-SW 10 SLP076
CYEG;2003-09-11 15:00;METAR CYEG 111500Z 23005KT 15SM FEW058TCU BKN097 BKN250 11/08 A2974 RMK TCU2AC5CI1 TCU SHRA DIST E-S-SW ACC ASOCTD VIRGA ALQDS SLP084
CYEG;2003-09-11 16:00;METAR CYEG 111600Z 24006KT 15SM FEW058TCU SCT097 BKN120 BKN250 12/08 A2975 RMK TCU1AC2AC4CI1 SHRA DIST S VIRGA SE-SW ACC ASOCTD TR CI SLP086 TCU1AC2AC4CI1 SHRA DIST S VIRGA SE-SW ACC ASOCTD TR CI SLP086
CYEG;2003-09-11 17:00;METAR CYEG 111700Z 22003KT 15SM FEW097 SCT120 SCT210 13/08 A2973 RMK AC1AC2CI1 ACC ASOCTD VIRGA NE-E-SE-S SLP081 ACC ASOCTD VIRGA NE-E-SE-S SLP081
CYEG;2003-09-11 18:00;METAR CYEG 111800Z CCA 29008KT 15SM FEW030 FEW097 FEW120 SCT210 16/05 A2971 RMK CU1AC1AC1CI2 VIRGA DIST SE TR LWR AC SLP072
CYEG;2003-09-11 18:00;METAR CYEG 111800Z CCB 29008KT 15SM FEW030 FEW097 FEW120 SCT210 16/05 A2971 RMK CU1AC1AC1CI2 VIRGA DIST SE TR LWR AC +CU SLP072 VIRGA DIST SE TR LWR AC SLP072 CU1AC1AC1CI2 VIRGA DIST SE TR LWR AC SLP072 VIRGA OVHD S-SW-W SLP069
CYEG;2003-09-11 20:00;METAR CYEG 112000Z 25012KT 15SM VCSH FEW050TCU BKN100 BKN210 17/04 A2970 RMK TCU2AS3CS2 TCU SHRA S-SW SLP066 TCU2AS3CS2 TCU SHRA S-SW SLP066
CYEG;2003-09-11 21:00;METAR CYEG 112100Z 23010KT 15SM TS FEW050CB SCT100 BKN170 BKN210 16/01 A2970 RMK CB2AC1AS2CS2 CB HVY SHRA SE-SW SLP061 CB2AC1AS2CS2 CB HVY SHRA SE-SW SLP061 RETS RMK TCU2AS4AC1CI1 TCU SHRA NW CB TP W WSHFT GRDL SLP058 TCU3AC1CI1 SHRA N-NE + SW TR AC SLP055
CYEG;2003-09-12 00:00;METAR CYEG 120000Z 13003KT 15SM FEW060TCU SCT170 BKN220 15/03 A2967 RMK TCU2AC2CS2 SHRA NE-E + SW SLP056
CYEG;2003-09-12 01:00;METAR CYEG 120100Z 22005KT 15SM FEW060TCU SCT170 BKN230 15/04 A2966 RMK TCU1AC2CS2 TCU SHRA NW-N SLP054
CYEG;2003-09-12 02:00;METAR CYEG 120200Z 25008KT 15SM FEW060TCU SCT120 BKN230 12/04 A2967 RMK TCU2AC2CI2 CB/VIRGA/SHRA SW-W-NW SLP058
CYEG;2003-09-12 03:00;METAR CYEG 120300Z 26015G22KT 15SM FEW060TCU SCT085 BKN120 BKN230 13/03 A2968 RMK TCU1AC3AC1CI1 ACC ASOCTD SHRA SE-SW VIRGA NW + NE SLP062 TCU1AC3AC1CI1 ACC ASOCTD SHRA SE-SW VIRGA NW + NE SLP062
CYEG;2003-09-12 04:00;METAR CYEG 120400Z CCA 27009KT 15SM FEW085 SCT120 BKN200 11/02 A2969 RMK ACC1AC2CI3 ACC N SLP065 TR ACC SLP065
CYEG;2003-09-12 05:00;METAR CYEG 120500Z 28007KT 15SM FEW080 FEW120 OVC200 11/01 A2970 RMK ACC1AC2CI4 TR ACC NE SLP068 TR ACC NE SLP068
CYEG;2003-09-12 06:00;METAR CYEG 120600Z 29008KT 15SM SCT100 OVC180 10/01 A2971 RMK AC3AS2 SLP069
CYEG;2003-09-12 07:00;METAR CYEG 120700Z 27008KT 15SM SCT100 BKN180 08/02 A2972 RMK AC3AS1 SLP072
CYEG;2003-09-12 08:00;METAR CYEG 120800Z 27008KT 15SM BKN100 BKN160 BKN230 08/01 A2972 RMK AC5AC1CI1 SLP073 SLP073
CYEG;2003-09-12 09:00;METAR CYEG 120900Z 28008KT 15SM FEW075 SCT100 BKN230 09/01 A2973 RMK ACC1AC2CI1 ACC/VIRGA N SLP076 ACC/VIRGA N SLP076
CYEG;2003-09-12 10:00;METAR CYEG 121000Z 28008KT 15SM -RA FEW055 BKN075 BKN150 09/01 A2974 RMK SC1AC4AC2 SLP081
CYEG;2003-09-12 11:00;METAR CYEG 121100Z 27010KT 15SM SCT040 BKN085 08/05 A2974 RMK SC4AC2 SLP081
CYEG;2003-09-12 12:00;METAR CYEG 121200Z 27009KT 15SM -RA BKN035 OVC085 08/05 A2975 RMK SC7AC1 SLP085
CYEG;2003-09-12 13:00;METAR CYEG 121300Z 28009KT 15SM -RA FEW023 BKN033 OVC055 08/05 A2976 RMK CF2SC5SC2 SLP087
CYEG;2003-09-12 14:00;METAR CYEG 121400Z 29015G21KT 15SM -RA FEW022 BKN031 OVC045 08/05 A2977 RMK CF1SC6SC1 SLP092
CYEG;2003-09-12 15:00;METAR CYEG 121500Z 29012G18KT 10SM -RA SCT016 OVC025 08/06 A2980 RMK CF3SC5 BR SLP103 SLP103
CYEG;2003-09-12 16:00;METAR CYEG 121600Z 31010G16KT 15SM -RA BKN017 OVC022 09/07 A2983 RMK SC6SC2 R- INTMT SLP112 INTMT SLP112
CYEG;2003-09-12 17:00;METAR CYEG 121700Z 31013G18KT 15SM -RA SCT017 OVC031 09/08 A2985 RMK CF4SC4 SLP121 RMK SF1SC2SC5 SLP136
CYEG;2003-09-12 19:00;METAR CYEG 121900Z 35017G26KT 15SM FEW009 FEW014 SCT025 OVC086 10/06 A2993 RMK SF1SC2SC2AS3 SLP150 SF1SC2SC2AS3 SLP150 SLP155
CYEG;2003-09-12 21:00;METAR CYEG 122100Z 31015G20KT 15SM FEW030TCU BKN036 BKN100 OVC250 13/05 A2996 RMK TCU1SC4AC1CS2 TCU SHRA SW SLP158 TCU1SC4AC1CS2 TCU SHRA SW SLP158
CYEG;2003-09-12 22:00;METAR CYEG 122200Z 32015G25KT 15SM BKN040 BKN120 OVC250 14/05 A2997 RMK SC6AC1CS1 TCU EMBD SHRA N-NE + E-SE SLP163 TCU EMBD SHRA N-NE + E-SE SLP163
CYEG;2003-09-12 23:00;METAR CYEG 122300Z 31012G17KT 15SM SCT044 BKN120 BKN250 12/06 A3000 RMK SC4AC1CI1 SHRA SE-S SW-W + NW-N SLP171 SHRA SE-S SW-W + NW-N SLP171
CYEG;2003-09-13 00:00;METAR CYEG 130000Z 34015G24KT 5SM SHRA BKN036TCU OVC045 08/06 A3002 RMK TCU5SC3 VSB SW QUAD 10 SLP186 VSB SW QUAD 10 SLP186
CYEG;2003-09-13 01:00;METAR CYEG 130100Z 31007KT 15SM VCSH FEW036TCU FEW045 SCT072 SCT140 BKN250 09/08 A3003 RERA RMK TCU2SC1AC1AC1CI1 TCU SHRA SE-S TCU ASOCTD NW-N TR SC SLP189 A3003 RERA RMK TCU2SC1AC1AC1CI1 TCU SHRA SE-S TCU ASOCTD NW-N TR SC SLP189
CYEG;2003-09-13 02:00;METAR CYEG 130200Z 30016KT 15SM TS FEW018CB BKN050 BKN080 BKN250 10/07 A3005 RMK CB2SC3AC1CI1 CB N-NE-E SHRA N-E + S-SW SLP194 CB2SC3AC1CI1 CB N-NE-E SHRA N-E + S-SW SLP194
CYEG;2003-09-13 03:00;METAR CYEG 130300Z 31011KT 15SM -SHRA FEW008 BKN028TCU BKN080 08/07 A3008 RETSRA RMK CF2TCU4AC2 WSHFT GRDL SHRA NW-OVRHD-SE + S SLP206 RMK CF2TCU4AC2 WSHFT GRDL SHRA NW-OVRHD-SE + S SLP206
CYEG;2003-09-13 04:00;METAR CYEG 130400Z 30009KT 15SM FEW030 FEW070 SCT230 08/06 A3010 RMK SC1AC1CI0 SLP211 SLP211
CYEG;2003-09-13 05:00;METAR CYEG 130500Z 29007KT 15SM FEW040 FEW230 07/05 A3012 RMK SC1CI0 SLP218
CYEG;2003-09-13 06:00;METAR CYEG 130600Z 28007KT 15SM FEW230 06/05 A3013 RMK CI1 SLP224
CYEG;2003-09-13 07:00;METAR CYEG 130700Z 28007KT 15SM FEW085 FEW230 06/05 A3015 RMK AC1CI1 TR CLD SLP228
CYEG;2003-09-13 08:00;METAR CYEG 130800Z 29007KT 15SM FEW085 06/05 A3015 RMK AC1 SLP229
CYEG;2003-09-13 09:00;METAR CYEG 130900Z 27005KT 15SM FEW048 04/03 A3015 RMK SC2 SLP230
CYEG;2003-09-13 10:00;METAR CYEG 131000Z 29006KT 15SM BKN045 06/05 A3016 RMK SC6 SLP233
CYEG;2003-09-13 11:00;METAR CYEG 131100Z 27005KT 15SM FEW045 04/03 A3017 RMK SC2 SLP234
CYEG;2003-09-13 12:00;METAR CYEG 131200Z 28003KT 15SM BKN042 05/04 A3018 RMK SC5 SLP242
CYEG;2003-09-13 13:00;METAR CYEG 131300Z 27003KT 15SM FEW035 FEW055 04/04 A3018 RMK SC1SC1 SLP241
CYEG;2003-09-13 14:00;METAR CYEG 131400Z 25004KT 15SM FEW055 05/04 A3018 RMK SC1 SLP241
CYEG;2003-09-13 15:00;METAR CYEG 131500Z 26005KT 15SM FEW055 FEW250 08/07 A3018 RMK SC1CI0 SLP239
CYEG;2003-09-13 16:00;METAR CYEG 131600Z 27006KT 15SM FEW012 FEW250 10/07 A3019 RMK CF1CI0 SLP242
CYEG;2003-09-13 17:00;METAR CYEG 131700Z 28004KT 15SM FEW020 FEW250 12/06 A3018 RMK CF1CI0 SLP238
CYEG;2003-09-13 18:00;METAR CYEG 131800Z 26005KT 15SM FEW028 FEW250 14/07 A3016 RMK CF1CI0 SLP230
CYEG;2003-09-13 19:00;METAR CYEG 131900Z 28006KT 15SM FEW035 FEW250 15/06 A3014 RMK CU1CI0 SLP223
CYEG;2003-09-13 20:00;METAR CYEG 132000Z 27005KT 15SM FEW042 SCT250 16/06 A3012 RMK CU2CI0
CYEG;2003-09-13 21:00;METAR CYEG 132100Z 22006KT 15SM SCT050 SCT250 17/05 A3011 RMK CU3CI0 SLP210
CYEG;2003-09-13 22:00;METAR CYEG 132200Z 25004KT 15SM FEW054 BKN250 18/04 A3008 RMK CU2CI2 SLP203
CYEG;2003-09-13 23:00;METAR CYEG 132300Z 29002KT 15SM FEW055 BKN250 17/04 A3007 RMK CU2CI2 SLP198
CYEG;2003-09-14 00:00;METAR CYEG 140000Z 23004KT 15SM FEW055 BKN250 16/04 A3005 RMK CU1CI3 SLP189
CYEG;2003-09-14 01:00;METAR CYEG 140100Z 16004KT 15SM FEW055 FEW180 BKN220 15/04 A3002 RMK CU1AC1CS6 TR CU/AC SLP180 CU/AC SLP180
CYEG;2003-09-14 02:00;METAR CYEG 140200Z 15005KT 15SM FEW055 FEW150 OVC220 13/05 A3000 RMK SC1AC2CI5 TR SC SLP175 SC SLP175
CYEG;2003-09-14 03:00;METAR CYEG 140300Z 16007KT 15SM SCT095 BKN150 OVC220 14/05 A3000 RMK AC3AS2CI2 SLP172 SLP172
CYEG;2003-09-14 04:00;METAR CYEG 140400Z 16007KT 15SM FEW084 BKN091 OVC150 14/05 A2999 RMK AC2AC4AS2 SLP168 SLP168
CYEG;2003-09-14 05:00;METAR CYEG 140500Z 17007KT 15SM SCT079 BKN086 OVC140 13/05 A2997 RMK AC3AC4AS1 SLP162 SLP162
CYEG;2003-09-14 06:00;METAR CYEG 140600Z 17007KT 15SM SCT085 BKN180 BKN250 12/05 A2994 RMK AC3AC2CI0 SLP150 SLP150
CYEG;2003-09-14 07:00;METAR CYEG 140700Z 17007KT 15SM FEW085 FEW120 BKN150 11/05 A2991 RMK AC2AC1AC4 SLP141 SLP141
CYEG;2003-09-14 08:00;METAR CYEG 140800Z 17004KT 15SM BKN130 10/04 A2990 RMK AC6 SLP138
CYEG;2003-09-14 09:00;METAR CYEG 140900Z 25002KT 15SM OVC110 09/05 A2990 RMK AC7 SLP134
CYEG;2003-09-14 10:00;METAR CYEG 141000Z 16003KT 15SM FEW083 BKN110 BKN170 OVC240 07/04 A2988 RMK AC2AC3AS2CI0 SLP128
CYEG;2003-09-14 11:00;METAR CYEG 141100Z 17003KT 15SM BKN085 BKN110 OVC180 08/05 A2987 RMK AC5AC2AS1 SLP125 SLP125
CYEG;2003-09-14 12:00;METAR CYEG 141200Z 18003KT 15SM BKN085 OVC180 08/05 A2986 RMK AC5AS2 SLP123
CYEG;2003-09-14 13:00;METAR CYEG 141300Z 21002KT 15SM FEW078 BKN085 BKN150 08/06 A2985 RMK AC2AC4AS2 SLP120 SLP120
CYEG;2003-09-14 14:00;METAR CYEG 141400Z 18004KT 15SM FEW065 BKN075 BKN150 09/07 A2984 RMK SC1AC6AC1 SLP116
CYEG;2003-09-14 15:00;METAR CYEG 141500Z 20002KT 15SM BKN070 OVC150 11/07 A2983 RMK AC6AC2 SLP113
CYEG;2003-09-14 16:00;METAR CYEG 141600Z 00000KT 15SM BKN067 OVC150 13/08 A2982 RMK AC5AC2 SLP108
CYEG;2003-09-14 17:00;METAR CYEG 141700Z 36006KT 15SM -SHRA BKN067 OVC150 15/08 A2982 RMK AC5AC3 ACC ASOCTD SLP107 ASOCTD SLP107
CYEG;2003-09-14 18:00;METAR CYEG 141800Z 34009KT 15SM FEW040 BKN066 OVC150 14/07 A2984 RMK SC1AC6AC2 ACC ASOCTD VIRGA SLP114 ACC ASOCTD VIRGA SLP114 EMBDD PRESRR SLP137 EMBDD SLP137
CYEG;2003-09-14 20:00;METAR CYEG 142000Z 33013KT 15SM -SHRA FEW015 BKN045 BKN060 08/06 A2991 RERA RMK CF2SC4SC2 SLP138
CYEG;2003-09-14 21:00;METAR CYEG 142100Z 34009KT 15SM FEW015 BKN050 BKN074 09/06 A2991 RMK CF1SC3AC2 SLP144 SLP144
CYEG;2003-09-14 22:00;METAR CYEG 142200Z 31006KT 15SM FEW015 FEW050 BKN074 BKN160 11/07 A2990 RMK CF1SC2AC2AC2 SLP143
CYEG;2003-09-14 23:00;METAR CYEG 142300Z 31007KT 15SM FEW020 SCT074 BKN210 10/06 A2990 RMK CU1AC3CI0 SLP142 SLP142
CYEG;2003-09-15 00:00;METAR CYEG 150000Z 30005KT 15SM FEW020TCU FEW074 FEW210 11/06 A2991 RMK TCU1AC1CI0 VIRGA E SLP143
CYEG;2003-09-15 01:00;METAR CYEG 150100Z 27004KT 15SM FEW020TCU FEW075 FEW210 11/06 A2991 RMK TCU1AC1CI0 CB TPS N SLP143
CYEG;2003-09-15 02:00;METAR CYEG 150200Z 20004KT 15SM FEW020CB FEW075 FEW210 07/05 A2990 RMK CB1AC1CI1 TR CB NW-N SLP142 TR CB NW-N SLP142
CYEG;2003-09-15 03:00;METAR CYEG 150300Z 20004KT 15SM FEW020CB FEW060 FEW210 05/04 A2992 RMK CB1SC2CI1 TR CB N QUAD SHRA N QUAD SLP150 TR CB N QUAD SHRA N QUAD SLP150
CYEG;2003-09-15 04:00;METAR CYEG 150400Z 20004KT 15SM FEW035 BKN046 06/04 A2993 RMK SC2SC3 SLP153
CYEG;2003-09-15 05:00;METAR CYEG 150500Z 27004KT 15SM FEW050 04/03 A2993 RMK SC1 SLP154
CYEG;2003-09-15 06:00;METAR CYEG 150600Z 30006KT 15SM FEW035 05/04 A2995 RMK SC2 SLP158
CYEG;2003-09-15 07:00;METAR CYEG 150700Z 31006KT 15SM FEW028 BKN035 05/04 A2996 RMK SC2SC2 SLP160
CYEG;2003-09-15 08:00;METAR CYEG 150800Z 32004KT 15SM BKN039 05/04 A2996 RMK SC6 SLP161
CYEG;2003-09-15 09:00;METAR CYEG 150900Z 30003KT 15SM FEW020 SCT039 04/03 A2996 RMK SC2SC1 SLP167
CYEG;2003-09-15 10:00;METAR CYEG 151000Z 32005KT 15SM FEW018 OVC025 06/04 A2999 RMK SC2SC6 SLP176
CYEG;2003-09-15 11:00;METAR CYEG 151100Z 32010KT 15SM FEW012 OVC020 05/03 A3002 RMK SC2SC6 SLP185
CYEG;2003-09-15 13:00;METAR CYEG 151300Z 32011G17KT 15SM OVC015 04/02 A3005 RMK SC8 VIRGA SLP193
CYEG;2003-09-15 14:00;METAR CYEG 151400Z 31009KT 15SM SCT015 OVC020 04/01 A3007 RMK SC2SC6 SLP201
CYEG;2003-09-15 15:00;METAR CYEG 151500Z 33010G16KT 15SM FEW010 OVC015 04/01 A3009 RMK SF1SC7 INTMT R- CIG LWR/PCPN N-NE-SE SLP214 CIG LWR/PCPN N-NE-SE SLP214
CYEG;2003-09-15 16:00;METAR CYEG 151600Z 34009G15KT 15SM FEW010 BKN016 OVC068 04/01 A3009 RMK CF1SC5AC2 SLP216 SLP216
CYEG;2003-09-15 17:00;METAR CYEG 151700Z 32010KT 15SM BKN016 OVC070 05/01 A3011 RMK SC6AC1 SLP220
CYEG;2003-09-15 18:00;METAR CYEG 151800Z 34011KT 15SM -RA OVC017 04/02 A3011 RMK SC8 R- INTMT SLP221
CYEG;2003-09-15 19:00;METAR CYEG 151900Z 34015KT 15SM BKN022 05/M01 A3011 RMK SC7 SLP220
CYEG;2003-09-15 20:00;METAR CYEG 152000Z 34010KT 15SM BKN022 BKN035 07/01 A3011 RMK SC6SC2
CYEG;2003-09-15 21:00;METAR CYEG 152100Z 01011KT 15SM OVC027 06/M00 A3011 RMK SC8 SLP222
CYEG;2003-09-15 22:00;METAR CYEG 152200Z 35007KT 15SM OVC027 06/00 A3012 RMK SC8 SLP224
CYEG;2003-09-15 23:00;METAR CYEG 152300Z 35011KT 15SM OVC027 06/M01 A3012 RMK SC8 SLP223
CYEG;2003-09-16 00:00;METAR CYEG 160000Z 35008KT 15SM OVC032 06/M01 A3012 RMK SC8 SLP224
CYEG;2003-09-16 01:00;METAR CYEG 160100Z 35008KT 15SM OVC032 05/M02 A3012 RMK SC8 SLP225
CYEG;2003-09-16 02:00;METAR CYEG 160200Z 02009KT 15SM OVC030 05/M01 A3012 RMK SC8 SLP225
CYEG;2003-09-16 03:00;METAR CYEG 160300Z 03005KT 15SM OVC030 04/M01 A3012 RMK SC8 VIRGA SLP227
CYEG;2003-09-16 04:00;METAR CYEG 160400Z 05009KT 15SM FEW015 OVC030 04/M00 A3012 RMK SC1SC8 TR LWR SC SLP226
CYEG;2003-09-16 05:00;METAR CYEG 160500Z 06007KT 15SM FEW015 OVC027 03/M01 A3012 RMK SC1SC7 SLP226
CYEG;2003-09-16 06:00;METAR CYEG 160600Z 04010KT 15SM FEW015 OVC024 02/M01 A3011 RMK SC2SC6 SLP224
CYEG;2003-09-16 07:00;METAR CYEG 160700Z 05009KT 15SM OVC023 02/M01 A3011 RMK SC8 SLP224
CYEG;2003-09-16 08:00;METAR CYEG 160800Z 05010KT 6SM -SN FEW015 OVC022 01/M01 A3011 RMK SF2SC6 SLP223
CYEG;2003-09-16 09:00;METAR CYEG 160900Z 05009KT 15SM -SN FEW015 OVC021 01/M02 A3009 RMK SF2SC6 S- INTMT SLP218 INTMT SLP218
CYEG;2003-09-16 10:00;METAR CYEG 161000Z 06007KT 15SM OVC020 00/M03 A3009 RMK SC8 SLP217
CYEG;2003-09-16 11:00;METAR CYEG 161100Z 07003KT 15SM -SN OVC018 00/M03 A3009 RMK SC8 SLP218
CYEG;2003-09-16 12:00;METAR CYEG 161200Z 06004KT 15SM -SN OVC020 01/M03 A3009 RMK SC8 S- INTMT SLP218
CYEG;2003-09-16 13:00;METAR CYEG 161300Z 04005KT 15SM FEW015 OVC019 01/M03 A3009 RMK SC2SC6 SLP217
CYEG;2003-09-16 14:00;METAR CYEG 161400Z 04008KT 15SM FEW012 OVC022 01/M02 A3008 RMK CF2SC6 PCPN E-SE SLP216 SLP216
CYEG;2003-09-16 15:00;METAR CYEG 161500Z 06008KT 15SM FEW010 OVC024 01/M02 A3008 RMK CF2SC6 PCPN S-SW-W SH N SLP217 SH N SLP217
CYEG;2003-09-16 16:00;METAR CYEG 161600Z 04008KT 15SM FEW013 OVC022 01/M03 A3008 RMK CF1SC7 PCPN S-W SLP214 SLP214
CYEG;2003-09-16 17:00;METAR CYEG 161700Z 04009KT 15SM SCT013 OVC019 01/M03 A3008 RMK CF1SC7
CYEG;2003-09-16 18:00;METAR CYEG 161800Z 04008KT 15SM OVC018 01/M03 A3007 RMK SC8 SLP214
CYEG;2003-09-16 19:00;METAR CYEG 161900Z 05008KT 15SM OVC019 01/M03 A3006 RMK SC8 SLP211
CYEG;2003-09-16 20:00;METAR CYEG 162000Z 04006KT 15SM OVC018 01/M03 A3006 RMK SC8 SLP211
CYEG;2003-09-16 21:00;METAR CYEG 162100Z 36007KT 15SM OVC020 02/M03 A3007 RMK SC8 SLP213
CYEG;2003-09-16 22:00;METAR CYEG 162200Z 02007KT 15SM OVC022 02/M03 A3006 RMK SC8 PCPN W SLP212
CYEG;2003-09-16 23:00;METAR CYEG 162300Z 02007KT 15SM OVC023 02/M03 A3007 RMK SC8 PCPN W SLP213
CYEG;2003-09-17 00:00;METAR CYEG 170000Z 01007KT 15SM OVC027 02/M04 A3008 RMK SC8 SLP217
CYEG;2003-09-17 01:00;METAR CYEG 170100Z 01007KT 15SM OVC030 02/M03 A3009 RMK SC8 SLP220
CYEG;2003-09-17 02:00;METAR CYEG 170200Z 03007KT 15SM OVC025 02/M03 A3010 RMK SC8 SLP223
CYEG;2003-09-17 03:00;METAR CYEG 170300Z 03007KT 15SM OVC023 01/M03 A3011 RMK SC8 SLP229
CYEG;2003-09-17 04:00;METAR CYEG 170400Z 02005KT 15SM OVC023 01/M04 A3012 RMK SC8 SLP232
CYEG;2003-09-17 05:00;METAR CYEG 170500Z 02008KT 15SM VCSH OVC021 01/M03 A3013 RMK SC8 SHSN E-SE S-SW SLP234 SLP234
CYEG;2003-09-17 06:00;METAR CYEG 170600Z 03005KT 15SM -SN OVC021 00/M04 A3013 RMK SC8 SLP236
CYEG;2003-09-17 07:00;METAR CYEG 170700Z 35006KT 15SM -SN OVC022 00/M03 A3014 RMK SC8 SLP238
CYEG;2003-09-17 08:00;METAR CYEG 170800Z 36004KT 15SM -SN OVC022 00/M04 A3014 RMK SC8 SLP239
CYEG;2003-09-17 09:00;METAR CYEG 170900Z 33006KT 15SM OVC021 M00/M04 A3014 RMK SC8 INTMT S- SLP240
CYEG;2003-09-17 10:00;METAR CYEG 171000Z 33005KT 15SM -SN OVC022 M00/M04 A3014 RMK SC8 SLP240
CYEG;2003-09-17 11:00;METAR CYEG 171100Z 34006KT 15SM OVC022 M00/M04 A3015 RMK SC8 VIRGA SLP243
CYEG;2003-09-17 12:00;METAR CYEG 171200Z 34005KT 15SM OVC024 M00/M04 A3017 RMK SC8 VIRGA SLP248
CYEG;2003-09-17 13:00;METAR CYEG 171300Z 34005KT 15SM OVC025 M00/M04 A3017 RMK SC8 VIRGA SLP250
CYEG;2003-09-17 14:00;METAR CYEG 171400Z 34004KT 15SM OVC024 M00/M04 A3019 RMK SC8 FEW VIRGA E-SE SLP255
CYEG;2003-09-17 15:00;METAR CYEG 171500Z 35006KT 15SM OVC024 00/M04 A3020 RMK SC8 SLP259
CYEG;2003-09-17 16:00;METAR CYEG 171600Z 36004KT 15SM FEW015 OVC024 00/M04 A3020 RMK CF1SC8 SH DISTSE-S TR CF SLP261 TR CF SLP261
CYEG;2003-09-17 17:00;METAR CYEG 171700Z 34004KT 15SM FEW017 OVC025 01/M04 A3021 RMK CU2SC6 SLP263
CYEG;2003-09-17 18:00;METAR CYEG 171800Z 02002KT 15SM OVC024 01/M05 A3020 RMK SC8 SLP258
CYEG;2003-09-17 19:00;METAR CYEG 171900Z 32002KT 15SM OVC023 02/M04 A3020 RMK SC8 SLP258
CYEG;2003-09-17 20:00;METAR CYEG 172000Z 31004KT 15SM OVC024 02/M04 A3020 RMK SC8 SLP260
CYEG;2003-09-17 21:00;METAR CYEG 172100Z 31004KT 15SM OVC026 02/M04 A3020 RMK SC8 SH NW SLP258
CYEG;2003-09-17 22:00;METAR CYEG 172200Z 00000KT 15SM OVC025 02/M04 A3019 RMK SC8 SLP257
CYEG;2003-09-17 23:00;METAR CYEG 172300Z 29004KT 15SM OVC026 02/M04 A3020 RMK SC8 SLP258
CYEG;2003-09-18 00:00;METAR CYEG 180000Z 02003KT 15SM OVC027 02/M04 A3019 RMK SC8 SLP257
CYEG;2003-09-18 01:00;METAR CYEG 180100Z 00000KT 15SM OVC027 02/M04 A3019 RMK SC8 SLP257
CYEG;2003-09-18 02:00;METAR CYEG 180200Z 20003KT 15SM OVC026 02/M04 A3020 RMK SC8 SLP258
CYEG;2003-09-18 03:00;METAR CYEG 180300Z 18005KT 15SM OVC026 01/M04 A3020 RMK SC8 SLP261
CYEG;2003-09-18 04:00;METAR CYEG 180400Z 17004KT 15SM OVC025 01/M04 A3020 RMK SC8 VIRGA N-NE SLP261
CYEG;2003-09-18 05:00;METAR CYEG 180500Z 17006KT 15SM OVC024 01/M04 A3019 RMK SC8 SLP258
CYEG;2003-09-18 06:00;METAR CYEG 180600Z 18004KT 15SM OVC021 01/M03 A3017 RMK SC8 SLP250
CYEG;2003-09-18 07:00;METAR CYEG 180700Z 18006KT 15SM OVC019 01/M03 A3015 RMK SC8 SLP244
CYEG;2003-09-18 08:00;METAR CYEG 180800Z 15004KT 15SM OVC020 01/M03 A3013 RMK SC8 SLP236
CYEG;2003-09-18 09:00;METAR CYEG 180900Z 13006KT 15SM OVC023 01/M03 A3010 RMK SC8 SLP226
CYEG;2003-09-18 10:00;METAR CYEG 181000Z 11008KT 15SM OVC024 00/M03 A3008 RMK SC7 SLP218
CYEG;2003-09-18 11:00;METAR CYEG 181100Z 12008KT 15SM OVC021 00/M03 A3006 RMK SC8 SLP212
CYEG;2003-09-18 12:00;METAR CYEG 181200Z 13007KT 15SM FEW021 FEW250 M02/M03 A3004 RMK SC1CI1 SLP205
CYEG;2003-09-18 13:00;METAR CYEG 181300Z 12008KT 10SM SCT240 M02/M03 A3002 RMK CI1 BR CONTRAILS SLP198
CYEG;2003-09-18 14:00;METAR CYEG 181400Z 14011KT 10SM FEW150 BKN220 00/M02 A2999 RMK AC1CI2 BR SLP191
CYEG;2003-09-18 15:00;METAR CYEG 181500Z 14016KT 12SM FEW012 SCT150 BKN240 01/M02 A2997 RMK SF1AC1CI2 SLP179 SLP179
CYEG;2003-09-18 16:00;METAR CYEG 181600Z 16014G19KT 15SM FEW017 BKN120 OVC240 02/M02 A2995 RMK CF2AS3CI1 SLP173
CYEG;2003-09-18 17:00;METAR CYEG 181700Z 17014G19KT 15SM FEW019 SCT110 BKN170 OVC240 04/M02 A2994 RMK CF2AC2AC2CI1 SLP170 CF2AC2AC2CI1 SLP170
CYEG;2003-09-18 18:00;METAR CYEG 181800Z 15015KT 15SM FEW020 FEW090 BKN160 BKN240 06/M00 A2992 RMK CF1AC2AC1CI1 SLP159 CF1AC2AC1CI1 SLP159
CYEG;2003-09-18 19:00;METAR CYEG 181900Z 14013KT 15SM BKN080 BKN160 BKN240 08/01 A2990 RMK AC6AC1CI1 SLP151 SLP151
CYEG;2003-09-18 20:00;METAR CYEG 182000Z 16012KT 15SM BKN078 BKN160 BKN240 09/00 A2988 RMK AC6AC1CI1 SLP146 SLP146
CYEG;2003-09-18 21:00;METAR CYEG 182100Z 16012G18KT 15SM BKN082 BKN160 BKN240 10/01 A2986 RMK AC5AC1CI1 SLP135 SLP135
CYEG;2003-09-18 22:00;METAR CYEG 182200Z 17010G15KT 15SM BKN086 BKN240 12/01 A2984 RMK AC3CI1 SLP129
CYEG;2003-09-18 23:00;METAR CYEG 182300Z 15010KT 15SM FEW090 SCT240 14/02 A2983 RMK AC2CI1 SLP124
CYEG;2003-09-19 00:00;METAR CYEG 190000Z 13009KT 15SM FEW090 SCT240 13/02 A2981 RMK AC1CI1 SLP116
CYEG;2003-09-19 01:00;METAR CYEG 190100Z 13006KT 15SM BKN090 BKN120 BKN240 12/02 A2979 RMK AC5AC1CI1 TR HIER AC SLP109 HIER AC SLP109
CYEG;2003-09-19 02:00;METAR CYEG 190200Z 12007KT 15SM BKN090 BKN110 BKN240 10/03 A2978 RMK AC5AC2CI1 SLP106 SLP106
CYEG;2003-09-19 03:00;METAR CYEG 190300Z 12007KT 15SM FEW090 SCT110 BKN240 07/02 A2977 RMK AC2AC2CI1 SLP104 SLP104
CYEG;2003-09-19 05:00;METAR CYEG 190500Z 13007KT 15SM BKN094 OVC240 08/02 A2974 RMK AC6CI1 SLP096
CYEG;2003-09-19 06:00;METAR CYEG 190600Z 13008KT 15SM FEW094 BKN110 OVC240 08/01 A2972 RMK AC2AC5CI1 SLP083 SLP083
CYEG;2003-09-19 07:00;METAR CYEG 190700Z 14006KT 15SM FEW090 OVC110 08/01 A2971 RMK AC2AC6 SLP079
CYEG;2003-09-19 08:00;METAR CYEG 190800Z 14007KT 15SM SCT090 BKN120 BKN240 07/01 A2970 RMK AC3AC3CI1 VIRGA N QUAD SLP077 VIRGA N QUAD SLP077
CYEG;2003-09-19 09:00;METAR CYEG 190900Z 15004KT 15SM SCT094 OVC120 06/01 A2971 RMK AC3AC4 VIRGA W SLP076 SLP076
CYEG;2003-09-19 10:00;METAR CYEG 191000Z 19004KT 15SM BKN084 OVC110 06/02 A2972 RMK AC6AC2 VIRGA ALQDS SLP081 SLP081
CYEG;2003-09-19 11:00;METAR CYEG 191100Z 18003KT 15SM -SHRA BKN095 OVC100 05/02 A2972 RMK AC6AC2 SLP080
CYEG;2003-09-19 12:00;METAR CYEG 191200Z 00000KT 15SM FEW095 SCT110 BKN140 03/01 A2970 RMK AC1AC2AC4 VIRGA SW-W + NW-N SLP074 VIRGA SW-W + NW-N SLP074
CYEG;2003-09-19 13:00;METAR CYEG 191300Z 00000KT 15SM BKN120 BKN250 02/00 A2972 RMK AC6CI1 VIRGA N-NE-E-SE SLP080
CYEG;2003-09-19 14:00;METAR CYEG 191400Z 25002KT 15SM BKN110 BKN250 03/02 A2974 RMK AC5CI1 SH W SLP085
CYEG;2003-09-19 15:00;METAR CYEG 191500Z 27003KT 15SM BKN110 BKN250 06/04 A2975 RMK AC5CI1 VIRGA SLP094
CYEG;2003-09-19 16:00;METAR CYEG 191600Z 28004KT 15SM BKN110 BKN250 08/05 A2975 RMK AC4CI0
CYEG;2003-09-19 17:00;METAR CYEG 191700Z 27004KT 15SM SCT110 BKN250 10/05 A2976 RMK AC3CI0
CYEG;2003-09-19 18:00;METAR CYEG 191800Z 22003KT 15SM FEW090 SCT110 SCT250 13/06 A2975 RMK AC2AC1CI0 SLP088 SLP088
CYEG;2003-09-19 19:00;METAR CYEG 191900Z 00000KT 15SM FEW090 BKN160 BKN250 14/06 A2975 RMK ACC1AC2CI0 SLP087 SLP087
CYEG;2003-09-19 20:00;METAR CYEG 192000Z 28004KT 15SM FEW040TCU FEW090 BKN160 15/06 A2975 RMK TCU1AC1AC3 SLP088
CYEG;2003-09-19 21:00;METAR CYEG 192100Z 22002KT 15SM FEW044 SCT160 BKN250 16/05 A2976 RMK CU1AC2CI0 TCU TPS W SLP088 TCU TPS W SLP088
CYEG;2003-09-19 22:00;METAR CYEG 192200Z 29005KT 15SM FEW050 FEW160 SCT250 17/05 A2975 RMK CU1AC2CI0 TCU TP S SLP086 TCU TP S SLP086
CYEG;2003-09-19 23:00;METAR CYEG 192300Z 00000KT 15SM FEW055 FEW160 SCT250 18/04 A2976 RMK CU1AC2CI0 CB TP NW SLP089 TP NW SLP089
CYEG;2003-09-20 00:00;METAR CYEG 200000Z 00000KT 15SM FEW055 FEW160 SCT250 18/03 A2977 RMK CU1AC1CI0 CB/SH W SLP094 CB/SH W SLP094
CYEG;2003-09-20 01:00;METAR CYEG 200100Z 00000KT 15SM FEW055TCU FEW160 BKN250 15/04 A2978 RMK TCU2AC1CI0 CB/SH SW SLP097
CYEG;2003-09-20 02:00;METAR CYEG 200200Z 19002KT 15SM FEW055TCU FEW160 BKN250 09/04 A2980 RMK TCU1ACC2CI1 CB TPS S+N SLP102
CYEG;2003-09-20 03:00;METAR CYEG 200300Z 20003KT 15SM SCT100 BKN160 BKN250 06/04 A2982 RMK AC4AC1CI0 SLP117 SLP117
CYEG;2003-09-20 04:00;METAR CYEG 200400Z 27005KT 15SM FEW070 BKN120 11/06 A2984 RMK AC1AC6 SLP125
CYEG;2003-09-20 05:00;METAR CYEG 200500Z 25005KT 15SM BKN082 BKN130 09/06 A2985 RMK AC5AC2 VIRGA SLP129
CYEG;2003-09-20 06:00;METAR CYEG 200600Z 25005KT 15SM FEW070 SCT090 BKN120 08/06 A2987 RMK AC2AC2AC2 SHRA N SLP129 SHRA N SLP129
CYEG;2003-09-20 07:00;METAR CYEG 200700Z 33005KT 15SM VCSH BKN059 BKN090 09/07 A2991 RMK SC6AC2 TCU EMBDD SHRA NE SLP140 EMBDD SHRA NE SLP140
CYEG;2003-09-20 08:00;METAR CYEG 200800Z 23004KT 15SM SCT062 BKN110 08/06 A2992 RMK SC3AC2 SLP144
CYEG;2003-09-20 09:00;METAR CYEG 200900Z 23006KT 15SM FEW110 06/05 A2994 RMK AC1 AURBO SLP152
CYEG;2003-09-20 10:00;METAR CYEG 201000Z 27003KT 15SM FEW100 06/04 A2995 RMK AC2 AURBO SLP155
CYEG;2003-09-20 11:00;METAR CYEG 201100Z 25003KT 15SM FEW100 03/02 A2997 RMK AC1 SLP160
CYEG;2003-09-20 12:00;METAR CYEG 201200Z 23005KT 15SM BKN100 03/02 A2999 RMK AC3 SLP169
CYEG;2003-09-20 13:00;METAR CYEG 201300Z 23003KT 15SM BKN075 BKN100 05/03 A3000 RMK AC5AC1 SLP173
CYEG;2003-09-20 14:00;METAR CYEG 201400Z 28005KT 15SM FEW075 SCT100 05/03 A3002 RMK ACC1AC2 SLP180
CYEG;2003-09-20 15:00;METAR CYEG 201500Z 29007KT 15SM FEW075 FEW100 07/04 A3003 RMK ACC1AC1 TR ACC SLP191 SLP191
CYEG;2003-09-20 16:00;METAR CYEG 201600Z 29011KT 15SM FEW100 10/02 A3005 RMK AC1 SLP195
CYEG;2003-09-20 17:00;METAR CYEG 201700Z 31012KT 15SM FEW075 11/01 A3005 RMK ACC1 SLP195
CYEG;2003-09-20 18:00;METAR CYEG 201800Z 29013KT 15SM FEW044 FEW075 12/01 A3004 RMK CF1ACC1 SLP186
CYEG;2003-09-20 19:00;METAR CYEG 201900Z 29011KT 15SM FEW044 FEW075 FEW250 13/02 A3004 RMK CU1AC1CI1 SLP186 SLP183
CYEG;2003-09-20 21:00;METAR CYEG 202100Z 30010G15KT 15SM FEW050 SCT250 15/02 A3002 RMK CU2CI1 SLP181
CYEG;2003-09-20 22:00;METAR CYEG 202200Z 34008KT 15SM FEW050 BKN250 13/02 A3003 RMK CU2CI1
CYEG;2003-09-20 23:00;METAR CYEG 202300Z 33009KT 15SM FEW050 FEW150 BKN250 13/01 A3004 RMK CU2AC1CI1 SLP186
CYEG;2003-09-21 00:00;METAR CYEG 210000Z 32010KT 15SM FEW050 SCT150 BKN250 14/01 A3005 RMK CU1AC2CI1 ACC ASOCTD SW SLP194 ACC ASOCTD SW SLP194
CYEG;2003-09-21 01:00;METAR CYEG 210100Z 36006KT 15SM FEW050 FEW150 BKN250 11/02 A3006 RMK CU1AC2CI2 VIRGA S-W SLP197 VIRGA S-W SLP197
CYEG;2003-09-21 02:00;METAR CYEG 210200Z 35004KT 15SM BKN090 BKN250 09/02 A3007 RMK AC3CI2 VIRGA SLP199
CYEG;2003-09-21 03:00;METAR CYEG 210300Z 03003KT 15SM FEW090 SCT250 06/02 A3008 RMK AC2CI1 SLP206
CYEG;2003-09-21 04:00;METAR CYEG 210400Z 28002KT 15SM FEW100 FEW200 03/01 A3010 RMK AC1CI0 SLP213
CYEG;2003-09-21 05:00;METAR CYEG 210500Z 21002KT 15SM BKN072 04/02 A3010 RMK AC7 SLP215
CYEG;2003-09-21 06:00;METAR CYEG 210600Z 26002KT 15SM BKN067 OVC081 04/02 A3011 RMK AC6AC2 SLP217
CYEG;2003-09-21 07:00;METAR CYEG 210700Z 29002KT 15SM -SHRA OVC073 04/03 A3013 RMK AC8 SLP221
CYEG;2003-09-21 08:00;METAR CYEG 210800Z 29004KT 15SM OVC080 06/03 A3014 RMK AC8 VIRGA SLP224
CYEG;2003-09-21 09:00;METAR CYEG 210900Z 26006KT 15SM OVC084 06/02 A3014 RMK AC8 VIRGA SLP220
CYEG;2003-09-21 10:00;METAR CYEG 211000Z 26007KT 15SM SCT067 OVC081 07/02 A3013 RMK AC3AC5 VIRGA SLP219
CYEG;2003-09-21 11:00;METAR CYEG 211100Z 27007KT 15SM SCT080 05/02 A3014 RMK AC2 VIRGA N SLP222
CYEG;2003-09-21 12:00;METAR CYEG 211200Z 27004KT 15SM FEW070 BKN100 05/02 A3014 RMK AC2AC3 VIRGA SLP224
CYEG;2003-09-21 13:00;METAR CYEG 211300Z 27005KT 15SM SCT062 BKN097 05/01 A3014 RMK SC4AC2 SHRA E
CYEG;2003-09-21 14:00;METAR CYEG 211400Z 27008KT 15SM VCSH FEW062 BKN095 05/01 A3015 RMK SC2AC2 SHRA SE SLP225 SLP225
CYEG;2003-09-21 15:00;METAR CYEG 211500Z 27007KT 15SM FEW062 SCT095 05/00 A3015 RMK SC1AC2 SHRA SE SLP235 SLP235
CYEG;2003-09-21 16:00;METAR CYEG 211600Z 29008KT 15SM FEW095 08/01 A3016 RMK AC1 SLP237
CYEG;2003-09-21 17:00;METAR CYEG 211700Z 30007KT 15SM FEW095 10/01 A3016 RMK AC1 SLP238
CYEG;2003-09-21 18:00;METAR CYEG 211800Z 26006KT 15SM FEW040 FEW095 12/01 A3015 RMK CF1AC1 SLP230
CYEG;2003-09-21 19:00;METAR CYEG 211900Z 29008KT 15SM FEW052 FEW095 14/01 A3014 RMK CU1AC1 TR AC SLP226
CYEG;2003-09-21 20:00;METAR CYEG 212000Z 30007KT 15SM FEW058 FEW250 14/M00 A3011 RMK CU1CI0
CYEG;2003-09-21 21:00;METAR CYEG 212100Z 23006KT 15SM FEW060 SCT250 14/M01 A3009 RMK CU1CI0
CYEG;2003-09-21 22:00;METAR CYEG 212200Z 28005KT 15SM FEW062 FEW100 FEW250 15/M01 A3008 RMK CU1AC1CI1 TR CU/AC SLP203 TR CU/AC SLP203
CYEG;2003-09-21 23:00;METAR CYEG 212300Z 25007KT 15SM FEW064 FEW100 SCT250 15/M01 A3007 RMK CU1AC1CI1 TR ACSL W SLP198 TR ACSL W SLP198
CYEG;2003-09-22 00:00;METAR CYEG 220000Z 25004KT 15SM FEW064 FEW100 FEW250 15/M00 A3006 RMK CU1AC1CI1 TR ACSL W SLP194 TR ACSL W SLP194
CYEG;2003-09-22 01:00;METAR CYEG 220100Z 22004KT 15SM FEW100 BKN250 11/M00 A3004 RMK AC1CI1 ACSL W-NW SLP189 SLP189
CYEG;2003-09-22 02:00;METAR CYEG 220200Z 20004KT 15SM FEW100 FEW150 BKN220 09/M00 A3003 RMK AC1AC1CI3 TR AC CLD SLP185 TR AC CLD SLP185
CYEG;2003-09-22 03:00;METAR CYEG 220300Z 17005KT 15SM FEW100 SCT210 07/M01 A3002 RMK AC1CI1 SLP188
CYEG;2003-09-22 04:00;METAR CYEG 220400Z 18007KT 15SM FEW170 BKN200 05/M01 A3000 RMK AS1CI3 SLP182
CYEG;2003-09-22 05:00;METAR CYEG 220500Z 19006KT 15SM BKN140 OVC200 07/01 A2999 RMK AS5CI2 SLP178
CYEG;2003-09-22 06:00;METAR CYEG 220600Z 18007KT 15SM FEW130 BKN160 BKN200 08/01 A2997 RMK AS2AC5CI1 SLP163 SLP163
CYEG;2003-09-22 07:00;METAR CYEG 220700Z 18007KT 15SM FEW120 BKN160 BKN200 07/00 A2994 RMK AC1AC5CI1 SLP153 SLP153
CYEG;2003-09-22 08:00;METAR CYEG 220800Z 18008KT 15SM FEW070 BKN130 BKN200 07/00 A2990 RMK AC1AC4CI1 SLP143 SLP143
CYEG;2003-09-22 09:00;METAR CYEG 220900Z 18007KT 15SM FEW120 BKN170 BKN200 06/00 A2989 RMK AC2AS1CI1 SLP134 SLP134
CYEG;2003-09-22 10:00;METAR CYEG 221000Z 18007KT 15SM FEW120 BKN160 06/00 A2985 RMK AC1AS6 SLP123
CYEG;2003-09-22 11:00;METAR CYEG 221100Z 18007KT 15SM OVC120 07/01 A2983 RMK AS7 SLP116
CYEG;2003-09-22 12:00;METAR CYEG 221200Z 18006KT 15SM OVC097 07/02 A2981 RMK AS7 SLP106
CYEG;2003-09-22 13:00;METAR CYEG 221300Z 18005KT 15SM FEW070 BKN095 06/02 A2978 RMK AC1AS7 SLP098
CYEG;2003-09-22 14:00;METAR CYEG 221400Z 17002KT 15SM -RA FEW060 OVC090 06/03 A2977 RMK SC1AS6 R- VRY LGT SLP093 LGT SLP093
CYEG;2003-09-22 15:00;METAR CYEG 221500Z 21002KT 15SM -RA BKN057 OVC080 07/04 A2977 RMK SC6AS2 SLP099
CYEG;2003-09-22 16:00;METAR CYEG 221600Z 24005KT 15SM -RA BKN060 BKN080 09/05 A2976 RMK SC6AC2 R- INTMT SLP097 SLP097
CYEG;2003-09-22 17:00;METAR CYEG 221700Z 27010KT 15SM -RA BKN061 BKN080 10/07 A2977 RMK SC6AC2 R- INTMT SLP100 SLP100
CYEG;2003-09-22 19:00;METAR CYEG 221900Z 30003KT 15SM FEW026 FEW060 SCT140 14/07 A2973 RMK CU1SC1AC1 SHRA SW TCU S-SW SLP082 SHRA SW TCU S-SW SLP082
CYEG;2003-09-22 20:00;METAR CYEG 222000Z 29008KT 15SM SCT036 BKN130 15/07 A2974 RMK CU3AC2 VIRGA SW SLP083 SLP083
CYEG;2003-09-22 21:00;METAR CYEG 222100Z 27011KT 15SM FEW036 FEW060 BKN120 BKN250 15/07 A2972 RMK CU2SC1AC2CI1 SLP078
CYEG;2003-09-22 22:00;METAR CYEG 222200Z 32010G15KT 15SM FEW040 FEW120 FEW250 16/06 A2971 RMK CU1AC1CI0 TCU ASOCTD SLP073 TCU ASOCTD SLP073
CYEG;2003-09-22 23:00;METAR CYEG 222300Z 33007KT 15SM FEW040 BKN080 BKN120 15/06 A2970 RMK CU2AC3AC1 ACC EMBD SHRA SW SLP072 ACC EMBD SHRA SW SLP072
CYEG;2003-09-23 00:00;METAR CYEG 230000Z 28003KT 15SM FEW040TCU BKN100 BKN140 15/06 A2970 RMK TCU2AC2AC1 SHRA/VIRGA S+W SLP068
CYEG;2003-09-23 01:00;METAR CYEG 230100Z 22008KT 10SM -SHRA SCT042TCU BKN059 OVC095 12/10 A2971 RERA RMK TCU3SC2AC2 TCU SE-SW SLP073 RMK TCU3SC2AC2 TCU SE-SW SLP073
CYEG;2003-09-23 02:00;METAR CYEG 230200Z 02003KT 10SM -SHRA FEW005 BKN020 OVC052 10/09 A2973 RERA RMK SF1SC5SC2 TCU/CB EMBD N-E BR SLP079
CYEG;2003-09-23 03:00;METAR CYEG 230300Z 35006KT 10SM -SHRA FEW028 BKN054 OVC098 09/07 A2977 RERA RMK SC1SC5AC2 TCU/CB EMBD E-SE SLP100
CYEG;2003-09-23 04:00;METAR CYEG 230400Z 32003KT 10SM -RA FEW028 BKN049 OVC080 08/07 A2977 RMK SC1SC6AC2 SLP100
CYEG;2003-09-23 05:00;METAR CYEG 230500Z 28006KT 15SM -RA FEW015 OVC044 08/05 A2978 RMK CF1SC8 TR CF SLP102 SLP102
CYEG;2003-09-23 06:00;METAR CYEG 230600Z 30009KT 15SM SCT044 BKN071 OVC110 08/05 A2980 RMK SC3AS4AC1 SLP106 SLP106
CYEG;2003-09-23 07:00;METAR CYEG 230700Z 30008KT 15SM SCT070 BKN096 07/03 A2981 RMK AS4AC3 SLP109
CYEG;2003-09-23 08:00;METAR CYEG 230800Z 27006KT 15SM FEW070 BKN098 BKN120 06/02 A2983 RMK AS1AC5AC2 SLP113 SLP113
CYEG;2003-09-23 09:00;METAR CYEG 230900Z 29005KT 15SM FEW100 BKN150 06/02 A2983 RMK AC2AC3 SLP116
CYEG;2003-09-23 10:00;METAR CYEG 231000Z 32006KT 15SM SCT150 04/01 A2984 RMK AC2 SLP118
CYEG;2003-09-23 11:00;METAR CYEG 231100Z 27007KT 15SM FEW150 02/M00 A2985 RMK AC1 SLP121
CYEG;2003-09-23 12:00;METAR CYEG 231200Z 26008KT 15SM FEW150 01/M00 A2986 RMK AC1 SLP128
CYEG;2003-09-23 13:00;METAR CYEG 231300Z 27009KT 15SM FEW070 02/M00 A2986 RMK AC1 SLP130
CYEG;2003-09-23 14:00;METAR CYEG 231400Z 27010KT 15SM FEW070 FEW150 03/00 A2987 RMK AC1AC1 TR CLD ACC S SLP133 SLP133
CYEG;2003-09-23 16:00;METAR CYEG 231600Z 30018G24KT 15SM FEW070 06/00 A2990 RMK AC1 ACC ASOCTD S SLP147
CYEG;2003-09-23 17:00;METAR CYEG 231700Z 31017G28KT 15SM FEW032 FEW070 08/M01 A2991 RMK CU2AC1 SLP150
CYEG;2003-09-23 19:00;METAR CYEG 231900Z 30022G29KT 15SM BKN051 08/M03 A2993 RMK CU6 FEW TCU SLP151
CYEG;2003-09-23 20:00;METAR CYEG 232000Z 30027G34KT 15SM SCT052 BKN070 08/M04 A2995 RMK CU4AC3 FEW TCU SLP157 SLP157
CYEG;2003-09-23 21:00;METAR CYEG 232100Z 31022G38KT 15SM SCT055 BKN080 08/M03 A2998 RMK CU3AC4 SLP172
CYEG;2003-09-23 22:00;METAR CYEG 232200Z 32027G33KT 15SM SCT048 BKN075 08/M03 A3001 RMK CU3AC2 SLP182
CYEG;2003-09-23 23:00;METAR CYEG 232300Z 32026G34KT 15SM SCT045 SCT075 08/M03 A3002 RMK CU3AC1 SLP187
CYEG;2003-09-24 00:00;METAR CYEG 240000Z 31016G25KT 15SM FEW045 SCT150 07/M02 A3005 RMK CU2AC1 SLP201
CYEG;2003-09-24 01:00;METAR CYEG 240100Z 32017KT 15SM FEW045 SCT200 07/M02 A3007 RMK CU1CI1 SLP209
CYEG;2003-09-24 02:00;METAR CYEG 240200Z 32012KT 15SM FEW045 FEW200 06/M02 A3009 RMK CU1CI1 SLP215
CYEG;2003-09-24 03:00;METAR CYEG 240300Z 32008KT 15SM FEW045 FEW200 04/M02 A3012 RMK SC1CI0 TR SC SLP225
CYEG;2003-09-24 04:00;METAR CYEG 240400Z 31004KT 15SM FEW045 02/M03 A3013 RMK SC1 AURBO SLP229
CYEG;2003-09-24 05:00;METAR CYEG 240500Z 31006KT 15SM FEW045 02/M03 A3015 RMK SC1 AURBO SLP234
CYEG;2003-09-24 06:00;METAR CYEG 240600Z 27006KT 15SM FEW045 M03/M05 A3016 RMK SC1 AURBO SLP241
CYEG;2003-09-24 07:00;METAR CYEG 240700Z 27005KT 15SM FEW050 M02/M04 A3017 RMK SC1 AURBO SLP246
CYEG;2003-09-24 08:00;METAR CYEG 240800Z 26005KT 15SM FEW047 M02/M04 A3018 RMK SC1 AURBO SLP249
CYEG;2003-09-24 09:00;METAR CYEG 240900Z 27006KT 15SM FEW047 M02/M04 A3020 RMK SC1 SLP254
CYEG;2003-09-24 10:00;METAR CYEG 241000Z 29004KT 15SM FEW033 M01/M04 A3020 RMK SC2 AURBO SLP256
CYEG;2003-09-24 11:00;METAR CYEG 241100Z 25003KT 15SM FEW035 M03/M05 A3021 RMK SC1 AURBO SLP257
CYEG;2003-09-24 12:00;METAR CYEG 241200Z 17002KT 15SM FEW028 M06/M07 A3019 RMK SC1 AURBO SLP257
CYEG;2003-09-24 13:00;METAR CYEG 241300Z 18004KT 15SM BKN220 M05/M07 A3019 RMK CI1 SLP256
CYEG;2003-09-24 14:00;METAR CYEG 241400Z 15003KT 15SM FEW160 SCT220 M05/M06 A3017 RMK AC1CI1 TR AC SLP251 SLP251
CYEG;2003-09-24 15:00;METAR CYEG 241500Z 17003KT 15SM FEW160 SCT220 M01/M03 A3017 RMK AC1CI1 TR AC SLP247 SLP247
CYEG;2003-09-24 16:00;METAR CYEG 241600Z 16005KT 15SM FEW160 BKN220 04/M01 A3015 RMK AC1CI2 TR AC SLP241
CYEG;2003-09-24 17:00;METAR CYEG 241700Z 16008KT 15SM FEW160 BKN220 07/M01 A3013 RMK AC1CI4 TR AC SLP236
CYEG;2003-09-24 18:00;METAR CYEG 241800Z 18008G16KT 15SM FEW160 BKN240 08/M02 A3010 RMK AC1CI3 SLP221
CYEG;2003-09-24 19:00;METAR CYEG 241900Z 18010KT 15SM FEW160 BKN240 11/M03 A3004 RMK AC1CI3 SLP204
CYEG;2003-09-24 20:00;METAR CYEG 242000Z 19012G17KT 15SM FEW150 BKN240 12/M03 A3002 RMK AC1CI4 SLP195
CYEG;2003-09-24 21:00;METAR CYEG 242100Z 18015KT 15SM BKN150 BKN250 12/M03 A2997 RMK AS5CI2 SLP172
CYEG;2003-09-24 22:00;METAR CYEG 242200Z 18015KT 15SM FEW120 OVC140 12/M03 A2993 RMK AC1AS8 TR AC SLP158
CYEG;2003-09-24 23:00;METAR CYEG 242300Z 18014KT 15SM FEW120 BKN140 OVC240 12/M03 A2989 RMK AC1AS6CI1 SLP147 SLP147 SW-W PRESFR SUN DMLY VISBL SLP127
CYEG;2003-09-25 01:00;METAR CYEG 250100Z 16010G16KT 15SM FEW110 OVC160 11/M01 A2978 RMK AC2AS6 VIRGA SW-NW SLP111 SW-NW SLP111
CYEG;2003-09-25 02:00;METAR CYEG 250200Z 16009KT 15SM BKN090 OVC130 11/01 A2975 RMK AC5AS3 VIRGA NW-OVRHD-SE SLP101
CYEG;2003-09-25 03:00;METAR CYEG 250300Z 17009KT 15SM OVC100 11/01 A2971 RMK AS8 VIRGA PRSNT SLP085
CYEG;2003-09-25 04:00;METAR CYEG 250400Z 16008KT 15SM SCT090 OVC120 10/02 A2968 RMK AC2AS6 SLP075
CYEG;2003-09-25 05:00;METAR CYEG 250500Z 16008KT 15SM BKN100 OVC150 10/02 A2967 RMK AC5AS3 SLP070
CYEG;2003-09-25 06:00;METAR CYEG 250600Z 20004KT 15SM BKN100 OVC150 09/02 A2966 RMK AC6AS2 VIRGA PRSNT SLP058 SLP058
CYEG;2003-09-25 07:00;METAR CYEG 250700Z 20006KT 15SM BKN088 OVC120 09/03 A2966 RMK AC6AS2 VIRGA PRSNT SLP059 SLP059
CYEG;2003-09-25 08:00;METAR CYEG 250800Z 21002KT 15SM BKN100 BKN140 08/03 A2966 RMK AC5AC1 VIRGA N + E SLP058
CYEG;2003-09-25 09:00;METAR CYEG 250900Z 23005KT 15SM BKN100 07/03 A2968 RMK AC6 SLP064
CYEG;2003-09-25 10:00;METAR CYEG 251000Z 26008KT 15SM BKN110 BKN170 09/03 A2968 RMK AC6AS1 SLP065
CYEG;2003-09-25 11:00;METAR CYEG 251100Z 29009KT 15SM BKN100 10/03 A2970 RMK AC6 SLP069
CYEG;2003-09-25 12:00;METAR CYEG 251200Z 29007KT 15SM OVC100 11/03 A2971 RMK AC8 SLP074
CYEG;2003-09-25 13:00;METAR CYEG 251300Z 28005KT 15SM BKN090 10/03 A2973 RMK AC6 SLP080
CYEG;2003-09-25 14:00;METAR CYEG 251400Z 26004KT 15SM BKN090 BKN110 08/04 A2974 RMK AC5AC2 SLP083
CYEG;2003-09-25 15:00;METAR CYEG 251500Z 28006KT 15SM SCT090 BKN110 11/03 A2975 RMK AC4AS2 SLP086
CYEG;2003-09-25 16:00;METAR CYEG 251600Z 30006KT 15SM SCT100 BKN110 12/04 A2976 RMK AC4AS2 SLP090
CYEG;2003-09-25 17:00;METAR CYEG 251700Z 31010G17KT 15SM BKN100 BKN110 14/01 A2975 RMK AC6AS2 SLP087
CYEG;2003-09-25 18:00;METAR CYEG 251800Z 30009G17KT 15SM FEW045 BKN090 14/02 A2976 RMK CU1AC6 SLP088
CYEG;2003-09-25 19:00;METAR CYEG 251900Z 27007KT 15SM FEW045 BKN083 13/03 A2976 RMK CU1AC6
CYEG;2003-09-25 20:00;METAR CYEG 252000Z 26009KT 15SM FEW045 SCT080 BKN120 14/03 A2976 RMK CU1AC3AS3 VIRGA SLP087 VIRGA SLP087 CU1AC2AC2AS1 VIRGA SE-S+SW SLP085
CYEG;2003-09-25 22:00;METAR CYEG 252200Z 32011KT 15SM FEW045 SCT070 BKN090 16/03 A2974 RMK CU1ACC3AC2 SLP082 SLP082
CYEG;2003-09-25 23:00;METAR CYEG 252300Z 32012G17KT 15SM SCT075 BKN090 16/02 A2974 RMK CU3AC2
CYEG;2003-09-26 00:00;METAR CYEG 260000Z 34011KT 15SM FEW055 BKN080 15/02 A2975 RMK CF1AC6 TR CF ACC EMBD SLP084 EMBD SLP084
CYEG;2003-09-26 01:00;METAR CYEG 260100Z 33010KT 15SM FEW055 SCT080 BKN100 14/02 A2977 RMK CF1ACC3AC2 TR CF VIRGA E-SE+S SLP088 TR CF VIRGA E-SE+S SLP088
CYEG;2003-09-26 02:00;METAR CYEG 260200Z 32007KT 15SM FEW080 BKN110 13/02 A2981 RMK AC2AC4 SLP102
CYEG;2003-09-26 03:00;METAR CYEG 260300Z 31012G19KT 15SM BKN090 BKN120 13/02 A2983 RMK AC5AC1 VIRGA N SLP113 SLP113
CYEG;2003-09-26 04:00;METAR CYEG 260400Z 31009G15KT 15SM BKN095 13/02 A2986 RMK AC7 SLP120
CYEG;2003-09-26 05:00;METAR CYEG 260500Z 29006KT 15SM BKN090 12/03 A2988 RMK AC6 SLP127
CYEG;2003-09-26 06:00;METAR CYEG 260600Z 27008KT 15SM BKN090 10/03 A2990 RMK AC6 SLP136
CYEG;2003-09-26 07:00;METAR CYEG 260700Z 28006KT 15SM BKN090 11/03 A2991 RMK AC6 SLP140
CYEG;2003-09-26 08:00;METAR CYEG 260800Z 29010KT 15SM SCT090 11/02 A2992 RMK AC2 SLP142
CYEG;2003-09-26 09:00;METAR CYEG 260900Z 27007KT 15SM BKN100 08/02 A2993 RMK AC4 SLP148
CYEG;2003-09-26 10:00;METAR CYEG 261000Z 28005KT 15SM SCT100 08/02 A2994 RMK AC2 SLP149
CYEG;2003-09-26 11:00;METAR CYEG 261100Z 28005KT 15SM SCT085 06/02 A2996 RMK AC2 SLP155
CYEG;2003-09-26 12:00;METAR CYEG 261200Z 28004KT 15SM FEW085 06/02 A2997 RMK AC1 SLP163
CYEG;2003-09-26 13:00;METAR CYEG 261300Z 24008KT 15SM FEW085 03/01 A2999 RMK AC2 SLP168
CYEG;2003-09-26 14:00;METAR CYEG 261400Z 27009KT 15SM FEW085 FEW250 06/02 A3001 RMK AC1CI1 TR CLD SLP174
CYEG;2003-09-26 15:00;METAR CYEG 261500Z 27008KT 15SM FEW085 FEW250 10/03 A3003 RMK AC1CI1 SLP182
CYEG;2003-09-26 16:00;METAR CYEG 261600Z 27010KT 15SM FEW090 BKN250 13/04 A3004 RMK AC1CI2 SLP185
CYEG;2003-09-26 17:00;METAR CYEG 261700Z 31016G21KT 15SM FEW085 BKN250 15/03 A3005 RMK AC1CI3 SLP187
CYEG;2003-09-26 18:00;METAR CYEG 261800Z 31014G19KT 15SM FEW050 FEW090 BKN270 15/03 A3004 RMK CU1AC1CS6 SLP184 SLP184
CYEG;2003-09-26 19:00;METAR CYEG 261900Z 31011G18KT 15SM FEW050 FEW090 BKN230 16/03 A3004 RMK CU1AC1CS6 SLP182
CYEG;2003-09-26 20:00;METAR CYEG 262000Z 32015G22KT 15SM FEW058 FEW090 BKN250 17/03 A3003 RMK CU1AC1CS4 TR AC SLP181 TR AC SLP181
CYEG;2003-09-26 21:00;METAR CYEG 262100Z 30017G22KT 15SM FEW060 BKN250 18/03 A3004 RMK CU1CI2 SLP183
CYEG;2003-09-26 22:00;METAR CYEG 262200Z 32014G20KT 15SM FEW060 SCT190 BKN250 16/02 A3005 RMK CU1AC2CI1 SLP185
CYEG;2003-09-26 23:00;METAR CYEG 262300Z 32010KT 15SM FEW060 FEW190 BKN250 16/02 A3005 RMK CU1AC2CI2 SLP185
CYEG;2003-09-27 00:00;METAR CYEG 270000Z 33009KT 15SM FEW060 FEW190 BKN250 15/01 A3005 RMK CU1AC1CI2 ACSL SW-W CC ASOCTD TR CU SLP190 ACSL SW-W CC ASOCTD TR CU SLP190
CYEG;2003-09-27 01:00;METAR CYEG 270100Z 32008KT 15SM FEW060 FEW180 BKN250 15/01 A3006 RMK CU1AC1CI2 TR CU SLP192 CU SLP192
CYEG;2003-09-27 02:00;METAR CYEG 270200Z 28005KT 15SM FEW060 FEW180 SCT250 07/M00 A3008 RMK CU1AC1CI1 SLP201 SLP201
CYEG;2003-09-27 03:00;METAR CYEG 270300Z 30006KT 15SM FEW180 11/01 A3011 RMK AC1 SLP210
CYEG;2003-09-27 04:00;METAR CYEG 270400Z 31005KT 15SM BKN170 09/01 A3013 RMK AC6 SLP216
CYEG;2003-09-27 05:00;METAR CYEG 270500Z 29006KT 15SM OVC180 10/01 A3015 RMK AC8 SLP224
CYEG;2003-09-27 06:00;METAR CYEG 270600Z 26004KT 15SM OVC170 09/01 A3017 RMK AC8 SLP228
CYEG;2003-09-27 07:00;METAR CYEG 270700Z 28005KT 15SM BKN170 09/02 A3018 RMK AC7 SLP233
CYEG;2003-09-27 08:00;METAR CYEG 270800Z 28005KT 15SM FEW170 07/01 A3019 RMK AC2 SLP234
CYEG;2003-09-27 09:00;METAR CYEG 270900Z 29002KT 15SM SKC 04/00 A3019 RMK SLP238
CYEG;2003-09-27 10:00;METAR CYEG 271000Z 24005KT 15SM FEW100 04/00 A3019 RMK AC1 SLP239
CYEG;2003-09-27 11:00;METAR CYEG 271100Z 25004KT 15SM FEW120 05/01 A3021 RMK AC1 SLP244
CYEG;2003-09-27 12:00;METAR CYEG 271200Z 24002KT 15SM FEW120 SCT200 03/00 A3021 RMK AC1CI2 SLP248
CYEG;2003-09-27 13:00;METAR CYEG 271300Z 27004KT 15SM FEW120 BKN200 05/01 A3023 RMK AC1CI4 SLP253
CYEG;2003-09-27 14:00;METAR CYEG 271400Z 29004KT 15SM FEW120 FEW200 FEW250 04/01 A3023 RMK AC1CI1CI1 TR HI CLD SLP255 HI CLD SLP255
CYEG;2003-09-27 15:00;METAR CYEG 271500Z 00000KT 15SM FEW120 BKN200 08/03 A3026 RMK AC2CI2 SLP264
CYEG;2003-09-27 16:00;METAR CYEG 271600Z 34005KT 15SM SCT120 11/03 A3026 RMK AC4 SLP264
CYEG;2003-09-27 17:00;METAR CYEG 271700Z 27005KT 15SM BKN120 13/03 A3027 RMK AC7 SLP266
CYEG;2003-09-27 18:00;METAR CYEG 271800Z 27008KT 15SM SCT120 SCT200 13/04 A3027 RMK AC4CI1 SLP267
CYEG;2003-09-27 19:00;METAR CYEG 271900Z 30008KT 15SM FEW045 SCT120 15/04 A3027 RMK CU1AC2 SLP266
CYEG;2003-09-27 20:00;METAR CYEG 272000Z 32008KT 15SM FEW050 BKN120 15/02 A3028 RMK CU1AC4 SLP268
CYEG;2003-09-27 21:00;METAR CYEG 272100Z 30010KT 15SM FEW060 FEW120 17/02 A3027 RMK CU1AC2
CYEG;2003-09-27 22:00;METAR CYEG 272200Z 29009KT 15SM FEW060 SCT120 15/00 A3027 RMK CU1AC2
CYEG;2003-09-27 23:00;METAR CYEG 272300Z 31008KT 15SM FEW060 SCT110 14/00 A3028 RMK CU1AC3 SLP269
CYEG;2003-09-28 00:00;METAR CYEG 280000Z 30005KT 15SM FEW060 SCT110 13/01 A3029 RMK CU1AC3 SLP277
CYEG;2003-09-28 01:00;METAR CYEG 280100Z 31005KT 15SM FEW110 FEW250 10/01 A3029 RMK AC1CI0 SLP278
CYEG;2003-09-28 02:00;METAR CYEG 280200Z 35004KT 15SM BKN100 BKN250 07/01 A3030 RMK AC4CI0 SLP281
CYEG;2003-09-28 03:00;METAR CYEG 280300Z 03002KT 15SM FEW100 FEW250 06/00 A3032 RMK AC1CI0 SLP289
CYEG;2003-09-28 04:00;METAR CYEG 280400Z 00000KT 15SM SKC 02/M02 A3032 RMK SLP291
CYEG;2003-09-28 05:00;METAR CYEG 280500Z 21002KT 15SM SKC 01/M01 A3033 RMK SLP293
CYEG;2003-09-28 06:00;METAR CYEG 280600Z 00000KT 15SM SKC 00/M02 A3034 RMK SLP295
CYEG;2003-09-28 07:00;METAR CYEG 280700Z 00000KT 15SM SKC M02/M03 A3034 RMK SLP296
CYEG;2003-09-28 08:00;METAR CYEG 280800Z 20002KT 15SM SKC M02/M03 A3034 RMK SLP296
CYEG;2003-09-28 09:00;METAR CYEG 280900Z 20003KT 15SM SKC M03/M04 A3034 RMK SLP296
CYEG;2003-09-28 10:00;METAR CYEG 281000Z 18003KT 15SM SKC M03/M04 A3034 RMK SLP298
CYEG;2003-09-28 11:00;METAR CYEG 281100Z 20004KT 15SM SKC M05/M06 A3034 RMK SLP296
CYEG;2003-09-28 12:00;METAR CYEG 281200Z 20002KT 15SM SKC M05/M06 A3034 RMK SLP302
CYEG;2003-09-28 13:00;METAR CYEG 281300Z 00000KT 15SM FEW120 M05/M06 A3034 RMK AC1 SLP301
CYEG;2003-09-28 14:00;METAR CYEG 281400Z 00000KT 15SM SCT120 SCT250 M05/M06 A3034 RMK AC2CI0 SLP301
CYEG;2003-09-28 15:00;METAR CYEG 281500Z 20002KT 15SM FEW080 SCT100 BKN250 M01/M02 A3033 RMK AC1AC2CC2 SLP301
CYEG;2003-09-28 16:00;METAR CYEG 281600Z 00000KT 15SM FEW060 BKN077 BKN250 03/01 A3033 RMK SC2AC5CI1 CC ASOCTD E-SE SLP302 ASOCTD E-SE SLP302
CYEG;2003-09-28 17:00;METAR CYEG 281700Z 00000KT 15SM BKN073 BKN100 06/02 A3033 RMK AC6AC1 SLP300
CYEG;2003-09-28 19:00;METAR CYEG 281900Z 36005KT 15SM OVC075 10/02 A3032 RMK AC8 SLP293
CYEG;2003-09-28 20:00;METAR CYEG 282000Z 36004KT 15SM OVC077 11/02 A3032 RMK AC7 SLP295
CYEG;2003-09-28 21:00;METAR CYEG 282100Z 36004KT 15SM FEW035 OVC081 11/02 A3032 RMK CU1AC8
CYEG;2003-09-28 22:00;METAR CYEG 282200Z 01005KT 15SM OVC085 12/00 A3032 RMK AC8 SLP295
CYEG;2003-09-28 23:00;METAR CYEG 282300Z 36004KT 15SM FEW045 BKN087 12/01 A3033 RMK SC1AC6 SLP297
CYEG;2003-09-29 00:00;METAR CYEG 290000Z 34004KT 15SM FEW087 BKN120 11/02 A3033 RMK AC2AC2 SLP298
CYEG;2003-09-29 01:00;METAR CYEG 290100Z 31004KT 15SM FEW090 BKN110 09/02 A3033 RMK AC2AC3 SLP300
CYEG;2003-09-29 02:00;METAR CYEG 290200Z 32003KT 15SM FEW090 BKN110 06/02 A3034 RMK AC2AC3 SLP302
CYEG;2003-09-29 03:00;METAR CYEG 290300Z 30002KT 15SM FEW090 BKN100 05/02 A3035 RMK AC1AC6 SLP310
CYEG;2003-09-29 04:00;METAR CYEG 290400Z 02004KT 15SM FEW074 BKN100 06/02 A3037 RMK AC2AC6 SLP315
CYEG;2003-09-29 05:00;METAR CYEG 290500Z 01005KT 15SM FEW074 BKN090 05/01 A3039 RMK AC2AC5 SLP322
CYEG;2003-09-29 06:00;METAR CYEG 290600Z 05004KT 15SM FEW074 BKN090 03/M00 A3040 RMK AC2AC2 SLP319
CYEG;2003-09-29 08:00;METAR CYEG 290800Z 00000KT 15SM FEW074 SCT090 M01/M02 A3041 RMK AC2AC1 SLP323
CYEG;2003-09-29 09:00;METAR CYEG 290900Z 00000KT 15SM SCT070 SCT090 M03/M05 A3042 RMK AC3AC1 SLP330
CYEG;2003-09-29 10:00;METAR CYEG 291000Z 00000KT 15SM FEW070 SCT090 M03/M04 A3042 RMK AC2AC1
CYEG;2003-09-29 11:00;METAR CYEG 291100Z 20002KT 15SM FEW090 M05/M05 A3042 RMK AC2 SLP331
CYEG;2003-09-29 12:00;METAR CYEG 291200Z 19004KT 15SM FEW090 M04/M05 A3042 RMK AC2 SLP332
CYEG;2003-09-29 13:00;METAR CYEG 291300Z 21002KT 1SM R30/3500FT R02/2200FT BR FEW090 M08/M08 A3043 RMK AC1 FROIN SLP335 AC1 FROIN SLP335
CYEG;2003-09-29 14:00;METAR CYEG 291400Z 20004KT 1/4SM R30/1200FT FZFG FEW090 M06/M07 A3043 RMK FG2AC1 SLP334 SLP334
CYEG;2003-09-29 15:00;METAR CYEG 291500Z 00000KT 3/8SM R30/1200FT R02/2200FT FZFG SKC M03/M03 A3042 RMK FG2 SLP337 FG2 SLP337
CYEG;2003-09-29 16:00;METAR CYEG 291600Z 00000KT 8SM SKC 02/02 A3042 RMK BR SLP336
CYEG;2003-09-29 17:00;METAR CYEG 291700Z 19002KT 15SM FEW012 06/03 A3042 RMK CF1 SLP336
CYEG;2003-09-29 18:00;METAR CYEG 291800Z 09002KT 15SM FEW044 08/M02 A3041 RMK CU1 SLP323
CYEG;2003-09-29 19:00;METAR CYEG 291900Z 30002KT 15SM FEW044 09/M02 A3038 RMK CU1 SLP315
CYEG;2003-09-29 20:00;METAR CYEG 292000Z 04002KT 15SM FEW044 10/M02 A3036 RMK CU1 SLP309
CYEG;2003-09-29 21:00;METAR CYEG 292100Z 05005KT 15SM FEW044 11/M02 A3034 RMK CF1 SLP305
CYEG;2003-09-29 22:00;METAR CYEG 292200Z 19003KT 15SM FEW044 FEW250 11/M02 A3034 RMK CF1CI1 TR CLD SLP302
CYEG;2003-09-29 23:00;METAR CYEG 292300Z 36003KT 15SM SKC 11/M02 A3033 RMK SLP300
CYEG;2003-09-30 00:00;METAR CYEG 300000Z 00000KT 15SM FEW250 11/M02 A3031 RMK CI1 SLP293
CYEG;2003-09-30 01:00;METAR CYEG 300100Z 11004KT 15SM SKC 06/M02 A3029 RMK SLP287
CYEG;2003-09-30 02:00;METAR CYEG 300200Z 10005KT 15SM SKC 02/M04 A3029 RMK SLP287
CYEG;2003-09-30 03:00;METAR CYEG 300300Z 10006KT 15SM SKC M00/M04 A3029 RMK SLP294
CYEG;2003-09-30 04:00;METAR CYEG 300400Z 12006KT 15SM SKC M01/M04 A3028 RMK SLP292
CYEG;2003-09-30 05:00;METAR CYEG 300500Z 15006KT 15SM SKC 00/M04 A3029 RMK SLP294
CYEG;2003-09-30 06:00;METAR CYEG 300600Z 15004KT 15SM SKC M01/M06 A3029 RMK SLP285
CYEG;2003-09-30 07:00;METAR CYEG 300700Z 13005KT 15SM SKC M01/M05 A3028 RMK SLP283
CYEG;2003-09-30 08:00;METAR CYEG 300800Z 00000KT 15SM SKC M02/M05 A3028 RMK SLP282
CYEG;2003-09-30 09:00;METAR CYEG 300900Z 16006KT 15SM SKC M00/M03 A3027 RMK SLP277
CYEG;2003-09-30 10:00;METAR CYEG 301000Z 13006KT 15SM SKC M01/M03 A3026 RMK SLP272
CYEG;2003-09-30 11:00;METAR CYEG 301100Z 15005KT 15SM SKC M03/M04 A3025 RMK SLP269
CYEG;2003-09-30 12:00;METAR CYEG 301200Z 18003KT 15SM SKC M02/M04 A3025 RMK SLP270
CYEG;2003-09-30 13:00;METAR CYEG 301300Z 15005KT 15SM SKC M02/M04 A3025 RMK SLP269
CYEG;2003-09-30 14:00;METAR CYEG 301400Z 00000KT 15SM SKC M04/M05 A3025 RMK SLP269
CYEG;2003-09-30 15:00;METAR CYEG 301500Z 20002KT 15SM SKC 00/M02 A3025 RMK SLP278
CYEG;2003-09-30 16:00;METAR CYEG 301600Z 18003KT 15SM SKC 05/00 A3025 RMK SLP279
CYEG;2003-09-30 17:00;METAR CYEG 301700Z 31003KT 15SM SKC 08/01 A3026 RMK SLP281
CYEG;2003-09-30 18:00;METAR CYEG 301800Z 16004KT 15SM SKC 11/02 A3025 RMK SLP269
CYEG;2003-09-30 19:00;METAR CYEG 301900Z 17005KT 15SM SKC 14/03 A3023 RMK SLP264
CYEG;2003-09-30 20:00;METAR CYEG 302000Z 16005KT 15SM SKC 16/03 A3023 RMK SLP263
CYEG;2003-09-30 21:00;METAR CYEG 302100Z 16005KT 15SM SKC 17/02 A3021 RMK SLP251
CYEG;2003-09-30 22:00;METAR CYEG 302200Z 17004KT 15SM SKC 18/02 A3021 RMK SLP248
CYEG;2003-09-30 23:00;METAR CYEG 302300Z 19006KT 15SM SKC 18/01 A3020 RMK SLP245
CYEG;2003-10-01 00:00;METAR CYEG 010000Z 20003KT 15SM SKC 17/01 A3019 RMK SLP245
CYEG;2003-10-01 01:00;METAR CYEG 010100Z 17003KT 15SM SKC 13/01 A3018 RMK SLP242
CYEG;2003-10-01 02:00;METAR CYEG 010200Z 18003KT 15SM SKC 08/00 A3018 RMK SLP242
CYEG;2003-10-01 03:00;METAR CYEG 010300Z 18002KT 15SM SKC 03/M01 A3019 RMK SLP254
CYEG;2003-10-01 04:00;METAR CYEG 010400Z 15002KT 15SM SKC 02/M01 A3019 RMK SLP253
CYEG;2003-10-01 05:00;METAR CYEG 010500Z 20003KT 15SM SKC 00/M02 A3019 RMK SLP253
CYEG;2003-10-01 06:00;METAR CYEG 010600Z 18007KT 15SM SKC 03/M01 A3017 RMK AURBO SLP239
CYEG;2003-10-01 07:00;METAR CYEG 010700Z 18007KT 15SM SKC 03/M01 A3017 RMK AURBO SLP238
CYEG;2003-10-01 08:00;METAR CYEG 010800Z 18008KT 15SM SKC 03/M01 A3016 RMK SLP236
CYEG;2003-10-01 09:00;METAR CYEG 010900Z 18003KT 15SM SKC 01/M02 A3017 RMK AURBO SLP236
CYEG;2003-10-01 10:00;METAR CYEG 011000Z 17003KT 15SM SKC M00/M02 A3017 RMK AURBO SLP235
CYEG;2003-10-01 11:00;METAR CYEG 011100Z 16004KT 15SM SKC M02/M04 A3016 RMK AURBO SLP232
CYEG;2003-10-01 12:00;METAR CYEG 011200Z 17003KT 15SM SKC M00/M03 A3015 RMK SLP229
CYEG;2003-10-01 13:00;METAR CYEG 011300Z 18005KT 15SM FEW250 M01/M03 A3015 RMK CI1 SLP227
CYEG;2003-10-01 14:00;METAR CYEG 011400Z 20004KT 15SM SCT250 M03/M05 A3014 RMK CI1 CONTRAILS SLP226
CYEG;2003-10-01 15:00;METAR CYEG 011500Z 00000KT 12SM BKN250 02/M01 A3014 RMK CI1 CONTRAILS SLP234
CYEG;2003-10-01 16:00;METAR CYEG 011600Z 00000KT 15SM BKN280 07/03 A3014 RMK CI2 SLP234
CYEG;2003-10-01 17:00;METAR CYEG 011700Z 26004KT 15SM BKN280 11/03 A3013 RMK CI2 SLP232
CYEG;2003-10-01 18:00;METAR CYEG 011800Z 27004KT 15SM BKN280 14/04 A3011 RMK CI1 SLP214
CYEG;2003-10-01 19:00;METAR CYEG 011900Z 27004KT 15SM BKN280 17/04 A3010 RMK CI1 SLP211
CYEG;2003-10-01 20:00;METAR CYEG 012000Z 28004KT 15SM FEW120 FEW240 BKN280 18/04 A3008 RMK AC1CI1CI1 TR AC SLP206 AC SLP206
CYEG;2003-10-01 21:00;METAR CYEG 012100Z 27005KT 15SM FEW150 SCT240 BKN280 20/02 A3006 RMK AC1CI2CI1 TR AC SLP195 AC SLP195
CYEG;2003-10-01 22:00;METAR CYEG 012200Z 30004KT 15SM SCT240 BKN280 20/01 A3005 RMK CI2CI3 SLP192
CYEG;2003-10-01 23:00;METAR CYEG 012300Z 33006KT 15SM FEW150 SCT240 BKN280 20/02 A3005 RMK AC1CI2CI2 TR AC SLP191 AC SLP191
CYEG;2003-10-02 00:00;METAR CYEG 020000Z 31005KT 15SM FEW150 BKN270 17/02 A3005 RMK AC1CI5 SLP194
CYEG;2003-10-02 01:00;METAR CYEG 020100Z 26003KT 15SM BKN180 BKN250 13/03 A3004 RMK AC5CI2 VIRGA NE SLP191 SLP191
CYEG;2003-10-02 02:00;METAR CYEG 020200Z 25002KT 15SM SCT160 BKN250 12/02 A3003 RMK AC3CI4 SLP189
CYEG;2003-10-02 03:00;METAR CYEG 020300Z 25002KT 15SM FEW170 BKN200 BKN250 11/03 A3003 RMK AC2CI3CI2 SLP193 SLP193
CYEG;2003-10-02 04:00;METAR CYEG 020400Z 24003KT 15SM BKN160 BKN200 BKN250 09/03 A3004 RMK AC5CI2CI1 SLP194
CYEG;2003-10-02 05:00;METAR CYEG 020500Z 29004KT 15SM BKN180 BKN250 11/03 A3005 RMK AC3CI1 SLP197
CYEG;2003-10-02 06:00;METAR CYEG 020600Z 27002KT 15SM FEW180 FEW250 08/02 A3006 RMK AC1CI1 TR CLD SLP192
CYEG;2003-10-02 07:00;METAR CYEG 020700Z 29003KT 15SM SKC 06/01 A3007 RMK SLP195
CYEG;2003-10-02 08:00;METAR CYEG 020800Z 25002KT 15SM SKC 03/00 A3007 RMK SLP196
CYEG;2003-10-02 09:00;METAR CYEG 020900Z 24003KT 15SM SKC 04/01 A3008 RMK SLP198
CYEG;2003-10-02 10:00;METAR CYEG 021000Z 23002KT 15SM SKC 03/01 A3008 RMK SLP199
CYEG;2003-10-02 11:00;METAR CYEG 021100Z 22003KT 15SM SKC 01/M01 A3009 RMK SLP201
CYEG;2003-10-02 12:00;METAR CYEG 021200Z 23003KT 15SM SKC 02/M00 A3010 RMK SLP209
CYEG;2003-10-02 13:00;METAR CYEG 021300Z 24003KT 15SM FEW250 02/01 A3010 RMK CI1 SLP209
CYEG;2003-10-02 14:00;METAR CYEG 021400Z 23003KT 15SM FEW180 BKN280 02/00 A3011 RMK AC1CI1 TR AC SLP213
CYEG;2003-10-02 15:00;METAR CYEG 021500Z 26004KT 15SM FEW230 BKN280 06/03 A3012 RMK CI1CI1 SLP218
CYEG;2003-10-02 16:00;METAR CYEG 021600Z 30006KT 15SM BKN280 11/04 A3013 RMK CI1 SLP221
CYEG;2003-10-02 17:00;METAR CYEG 021700Z 32006KT 15SM BKN280 13/05 A3013 RMK CI1 SLP223
CYEG;2003-10-02 18:00;METAR CYEG 021800Z 33004KT 15SM BKN280 15/05 A3013 RMK CI2 SLP217
CYEG;2003-10-02 19:00;METAR CYEG 021900Z 32003KT 15SM BKN280 18/06 A3013 RMK CI2 SLP215
CYEG;2003-10-02 20:00;METAR CYEG 022000Z 33006KT 15SM BKN280 18/05 A3012 RMK CI2 SLP214
CYEG;2003-10-02 21:00;METAR CYEG 022100Z 28004KT 15SM BKN280 19/05 A3011 RMK CI1 SLP211
CYEG;2003-10-02 22:00;METAR CYEG 022200Z 29002KT 15SM BKN280 19/05 A3010 RMK CI1 SLP206
CYEG;2003-10-02 23:00;METAR CYEG 022300Z 01003KT 15SM BKN280 20/06 A3009 RMK CI1 SLP205
CYEG;2003-10-03 00:00;METAR CYEG 030000Z 31004KT 15SM SCT280 19/05 A3009 RMK CI0 SLP204
CYEG;2003-10-03 01:00;METAR CYEG 030100Z 34002KT 15SM FEW280 14/04 A3008 RMK CI0 SLP203
CYEG;2003-10-03 02:00;METAR CYEG 030200Z 00000KT 15SM FEW280 10/04 A3009 RMK CI0 SLP204
CYEG;2003-10-03 03:00;METAR CYEG 030300Z 18003KT 15SM FEW280 05/02 A3008 RMK CI0 SLP212
CYEG;2003-10-03 04:00;METAR CYEG 030400Z 20004KT 15SM SKC 05/02 A3008 RMK SLP210
CYEG;2003-10-03 05:00;METAR CYEG 030500Z 18004KT 15SM SKC 05/02 A3008 RMK SLP211
CYEG;2003-10-03 06:00;METAR CYEG 030600Z 18004KT 15SM SKC 04/01 A3008 RMK SLP203
CYEG;2003-10-03 07:00;METAR CYEG 030700Z 20003KT 15SM SKC 00/M01 A3008 RMK SLP202
CYEG;2003-10-03 08:00;METAR CYEG 030800Z 20002KT 15SM SKC M01/M02 A3008 RMK SLP201
CYEG;2003-10-03 09:00;METAR CYEG 030900Z 00000KT 15SM SKC M01/M02 A3007 RMK SLP200
CYEG;2003-10-03 10:00;METAR CYEG 031000Z 00000KT 15SM SKC M01/M02 A3007 RMK SLP201
CYEG;2003-10-03 11:00;METAR CYEG 031100Z 20002KT 15SM SKC M02/M03 A3007 RMK SLP199
CYEG;2003-10-03 12:00;METAR CYEG 031200Z 00000KT 15SM SKC M02/M03 A3005 RMK SLP195
CYEG;2003-10-03 13:00;METAR CYEG 031300Z 19004KT 15SM FEW250 M02/M03 A3005 RMK CI1 SLP193
CYEG;2003-10-03 14:00;METAR CYEG 031400Z 00000KT 12SM SKC M01/M02 A3004 RMK SLP190
CYEG;2003-10-03 15:00;METAR CYEG 031500Z 00000KT 8SM SKC 02/01 A3004 RMK HZ SLP198
CYEG;2003-10-03 16:00;METAR CYEG 031600Z 19004KT 12SM SKC 08/05 A3002 RMK SLP194
CYEG;2003-10-03 17:00;METAR CYEG 031700Z 19002KT 15SM SKC 13/06 A3002 RMK SLP191
CYEG;2003-10-03 18:00;METAR CYEG 031800Z 24002KT 15SM SKC 17/07 A3001 RMK SLP175
CYEG;2003-10-03 19:00;METAR CYEG 031900Z 00000KT 15SM SKC 20/07 A2999 RMK SLP169
CYEG;2003-10-03 20:00;METAR CYEG 032000Z 16004KT 15SM SKC 22/06 A2997 RMK SLP165
CYEG;2003-10-03 21:00;METAR CYEG 032100Z 17006KT 15SM SKC 24/05 A2996 RMK SLP156
CYEG;2003-10-03 22:00;METAR CYEG 032200Z 20005KT 15SM SKC 23/05 A2993 RMK SLP149
CYEG;2003-10-03 23:00;METAR CYEG 032300Z 16003KT 15SM FEW280 23/03 A2992 RMK CI1 SLP145
CYEG;2003-10-04 00:00;METAR CYEG 040000Z 14003KT 15SM FEW280 22/04 A2990 RMK CI1 SLP141
CYEG;2003-10-04 01:00;METAR CYEG 040100Z 15004KT 15SM SKC 14/03 A2989 RMK SLP137
CYEG;2003-10-04 02:00;METAR CYEG 040200Z 15005KT 15SM SKC 10/03 A2989 RMK SLP135
CYEG;2003-10-04 04:00;METAR CYEG 040400Z 17004KT 15SM SKC 07/02 A2988 RMK SLP141
CYEG;2003-10-04 05:00;METAR CYEG 040500Z 18006KT 15SM SKC 08/03 A2987 RMK SLP139
CYEG;2003-10-04 06:00;METAR CYEG 040600Z 18007KT 15SM SKC 08/03 A2987 RMK SLP125
CYEG;2003-10-04 07:00;METAR CYEG 040700Z 18005KT 15SM SKC 05/01 A2986 RMK SLP123
CYEG;2003-10-04 08:00;METAR CYEG 040800Z 20002KT 15SM SKC 03/01 A2985 RMK SLP120
CYEG;2003-10-04 09:00;METAR CYEG 040900Z 18003KT 15SM SKC 03/00 A2985 RMK SLP117
CYEG;2003-10-04 10:00;METAR CYEG 041000Z 19004KT 15SM SKC 02/00 A2985 RMK SLP116
CYEG;2003-10-04 11:00;METAR CYEG 041100Z 21002KT 15SM SKC 02/M01 A2984 RMK SLP115
CYEG;2003-10-04 12:00;METAR CYEG 041200Z 20005KT 15SM SKC 01/M00 A2984 RMK SLP116
CYEG;2003-10-04 13:00;METAR CYEG 041300Z 20005KT 15SM SKC M01/M02 A2983 RMK FROIN SLP113
CYEG;2003-10-04 14:00;METAR CYEG 041400Z 20003KT 15SM SKC 01/M01 A2983 RMK SLP114
CYEG;2003-10-04 16:00;METAR CYEG 041600Z 26005KT 15SM SKC 12/04 A2985 RMK SLP126
CYEG;2003-10-04 17:00;METAR CYEG 041700Z 27005KT 15SM SKC 15/04 A2986 RMK SLP128
CYEG;2003-10-04 18:00;METAR CYEG 041800Z 30006KT 15SM SKC 18/05 A2986 RMK SLP119
CYEG;2003-10-04 19:00;METAR CYEG 041900Z 29005KT 15SM SKC 21/05 A2986 RMK SLP120
CYEG;2003-10-04 20:00;METAR CYEG 042000Z 31006KT 15SM SKC 23/05 A2985 RMK SLP118
CYEG;2003-10-04 21:00;METAR CYEG 042100Z 26004KT 15SM SKC 24/03 A2985 RMK SLP115
CYEG;2003-10-04 22:00;METAR CYEG 042200Z 31003KT 15SM SKC 25/03 A2984 RMK SLP113
CYEG;2003-10-04 23:00;METAR CYEG 042300Z 33004KT 15SM FEW300 25/03 A2983 RMK CI1 CONTRAIL SLP111
CYEG;2003-10-05 01:00;METAR CYEG 050100Z 22002KT 15SM SKC 16/03 A2983 RMK SLP112
CYEG;2003-10-05 02:00;METAR CYEG 050200Z 20005KT 15SM SKC 13/02 A2984 RMK SLP114
CYEG;2003-10-05 03:00;METAR CYEG 050300Z 20006KT 15SM SKC 10/01 A2984 RMK SLP122
CYEG;2003-10-05 04:00;METAR CYEG 050400Z 20007KT 15SM SKC 10/02 A2984 RMK SLP123
CYEG;2003-10-05 06:00;METAR CYEG 050600Z 22002KT 15SM SKC 05/00 A2985 RMK SLP121
CYEG;2003-10-05 07:00;METAR CYEG 050700Z 00000KT 15SM SKC 05/00 A2987 RMK SLP125
CYEG;2003-10-05 08:00;METAR CYEG 050800Z 22004KT 15SM SKC 05/01 A2988 RMK SLP129
CYEG;2003-10-05 09:00;METAR CYEG 050900Z 21003KT 15SM SKC 05/01 A2989 RMK SLP128
CYEG;2003-10-05 10:00;METAR CYEG 051000Z 23003KT 15SM SKC 05/01 A2989 RMK SLP129
CYEG;2003-10-05 11:00;METAR CYEG 051100Z 25005KT 15SM SKC 06/01 A2989 RMK SLP130
CYEG;2003-10-05 12:00;METAR CYEG 051200Z 24003KT 15SM SKC 05/00 A2990 RMK SLP132
CYEG;2003-10-05 13:00;METAR CYEG 051300Z 23004KT 15SM SKC 04/M00 A2990 RMK SLP132
CYEG;2003-10-05 14:00;METAR CYEG 051400Z 25004KT 15SM SKC 05/01 A2992 RMK SLP138
CYEG;2003-10-05 15:00;METAR CYEG 051500Z 22003KT 15SM SKC 08/02 A2993 RMK SLP152
CYEG;2003-10-05 16:00;METAR CYEG 051600Z 26004KT 15SM SKC 12/03 A2994 RMK SLP155
CYEG;2003-10-05 17:00;METAR CYEG 051700Z 29004KT 15SM SKC 16/04 A2994 RMK SLP156
CYEG;2003-10-05 18:00;METAR CYEG 051800Z 28004KT 15SM SKC 18/04 A2994 RMK SLP150
CYEG;2003-10-05 19:00;METAR CYEG 051900Z 28003KT 15SM FEW300 22/04 A2994 RMK CI0 SLP149
CYEG;2003-10-05 20:00;METAR CYEG 052000Z 33004KT 15SM SKC 23/04 A2993 RMK SLP147
CYEG;2003-10-05 21:00;METAR CYEG 052100Z 28003KT 15SM SKC 24/01 A2993 RMK SLP141
CYEG;2003-10-05 22:00;METAR CYEG 052200Z 36003KT 15SM SKC 24/02 A2991 RMK SLP137
CYEG;2003-10-05 23:00;METAR CYEG 052300Z 00000KT 15SM SKC 25/02 A2991 RMK SLP135
CYEG;2003-10-06 00:00;METAR CYEG 060000Z 13003KT 15SM SKC 23/03 A2990 RMK SLP133
CYEG;2003-10-06 01:00;METAR CYEG 060100Z 13004KT 15SM SKC 15/02 A2989 RMK SLP131
CYEG;2003-10-06 02:00;METAR CYEG 060200Z 14004KT 15SM SKC 10/01 A2989 RMK SLP131
CYEG;2003-10-06 03:00;METAR CYEG 060300Z 00000KT 15SM SKC 07/00 A2989 RMK SLP140
CYEG;2003-10-06 04:00;METAR CYEG 060400Z 20002KT 15SM SKC 06/01 A2989 RMK SLP142
CYEG;2003-10-06 05:00;METAR CYEG 060500Z 15002KT 15SM SKC 06/M00 A2989 RMK SLP139
CYEG;2003-10-06 06:00;METAR CYEG 060600Z 15003KT 15SM SKC 05/M00 A2988 RMK SLP130
CYEG;2003-10-06 07:00;METAR CYEG 060700Z 14004KT 15SM SKC 04/M00 A2987 RMK SLP125
CYEG;2003-10-06 08:00;METAR CYEG 060800Z 14004KT 15SM SKC 06/02 A2986 RMK SLP123
CYEG;2003-10-06 09:00;METAR CYEG 060900Z 16004KT 15SM SKC 04/01 A2985 RMK SLP114
CYEG;2003-10-06 10:00;METAR CYEG 061000Z 12006KT 15SM SKC 05/02 A2983 RMK SLP110
CYEG;2003-10-06 11:00;METAR CYEG 061100Z 13003KT 15SM SKC 02/M01 A2983 RMK SLP108
CYEG;2003-10-06 12:00;METAR CYEG 061200Z 16004KT 15SM SKC 03/00 A2982 RMK SLP106
CYEG;2003-10-06 14:00;METAR CYEG 061400Z 20005KT 15SM FEW120 03/00 A2980 RMK AC1 SLP099
CYEG;2003-10-06 15:00;METAR CYEG 061500Z 18003KT 15SM FEW120 07/02 A2979 RMK AC1 TR AC SLP107
CYEG;2003-10-06 16:00;METAR CYEG 061600Z 17002KT 15SM SKC 12/04 A2978 RMK SLP104
CYEG;2003-10-06 17:00;METAR CYEG 061700Z 22002KT 15SM SKC 16/05 A2977 RMK SLP102
CYEG;2003-10-06 18:00;METAR CYEG 061800Z 16002KT 15SM FEW140 21/04 A2975 RMK AC1 TR AC SLP083
CYEG;2003-10-06 19:00;METAR CYEG 061900Z 00000KT 15SM FEW140 23/04 A2974 RMK AC1 TR AC SLP079
CYEG;2003-10-06 20:00;METAR CYEG 062000Z 07003KT 15SM FEW250 24/04 A2972 RMK CI1 TR CI SLP072
CYEG;2003-10-06 21:00;METAR CYEG 062100Z 14003KT 15SM FEW250 25/03 A2969 RMK CI1 TR CI SLP060
CYEG;2003-10-06 22:00;METAR CYEG 062200Z 11002KT 15SM FEW250 26/03 A2968 RMK CI0 SLP056
CYEG;2003-10-06 23:00;METAR CYEG 062300Z 14002KT 15SM FEW250 26/03 A2968 RMK CI1 SLP055
CYEG;2003-10-07 00:00;METAR CYEG 070000Z 08003KT 15SM FEW160 FEW250 23/06 A2966 RMK AC1CI1 TR AC SLP052
CYEG;2003-10-07 01:00;METAR CYEG 070100Z 10005KT 15SM FEW160 FEW250 16/04 A2965 RMK AC1CI1 TR AC SLP048
CYEG;2003-10-07 02:00;METAR CYEG 070200Z 11008KT 15SM FEW160 FEW250 12/04 A2964 RMK AC1CI0 TR AC SLP045
CYEG;2003-10-07 03:00;METAR CYEG 070300Z 12007KT 15SM SCT250 11/04 A2963 RMK CI2 SLP048
CYEG;2003-10-07 04:00;METAR CYEG 070400Z 17002KT 15SM FEW250 10/03 A2962 RMK CI1 SLP046
CYEG;2003-10-07 05:00;METAR CYEG 070500Z 00000KT 15SM FEW250 09/02 A2962 RMK CI1 SLP044
CYEG;2003-10-07 06:00;METAR CYEG 070600Z 00000KT 15SM FEW250 08/02 A2960 RMK CI0 SLP028
CYEG;2003-10-07 08:00;METAR CYEG 070800Z 13006KT 15SM SKC 07/03 A2957 RMK SLP019
CYEG;2003-10-07 09:00;METAR CYEG 070900Z 12002KT 15SM FEW250 05/02 A2956 RMK CI1 SLP013
CYEG;2003-10-07 10:00;METAR CYEG 071000Z 13004KT 15SM FEW250 06/02 A2954 RMK CI1 SLP006
CYEG;2003-10-07 11:00;METAR CYEG 071100Z 14005KT 15SM SKC 07/02 A2951 RMK SLP999
CYEG;2003-10-07 12:00;METAR CYEG 071200Z 17006KT 15SM FEW250 07/02 A2951 RMK CI1 TR CI SLP997
CYEG;2003-10-07 13:00;METAR CYEG 071300Z 18004KT 15SM FEW250 04/01 A2949 RMK CI1 SLP991
CYEG;2003-10-07 15:00;METAR CYEG 071500Z 14004KT 15SM FEW250 09/04 A2947 RMK CI1 SLP993
CYEG;2003-10-07 16:00;METAR CYEG 071600Z 14006KT 15SM FEW120 FEW250 13/05 A2945 RMK AC1CI1 TR AC SLP987
CYEG;2003-10-07 17:00;METAR CYEG 071700Z 15009KT 15SM FEW120 FEW250 17/05 A2945 RMK AC1CI1 TR AC SLP984
CYEG;2003-10-07 18:00;METAR CYEG 071800Z 15010KT 15SM FEW120 FEW250 21/05 A2942 RMK AC1CI1 TR CI SLP966
CYEG;2003-10-07 19:00;METAR CYEG 071900Z 18007KT 15SM FEW120 FEW250 23/05 A2941 RMK AC1CI0 ACC ASOCTD W SLP962 SLP962
CYEG;2003-10-07 20:00;METAR CYEG 072000Z 20007KT 15SM SCT170 BKN250 22/05 A2940 RMK AC2CC0 SLP961
CYEG;2003-10-07 21:00;METAR CYEG 072100Z 27023G29KT 8SM BKN110 BKN170 BKN250 18/05 A2944 RMK AC5AC2CI0 BD SLP979 BD SLP979
CYEG;2003-10-07 22:00;METAR CYEG 072200Z 29016G28KT 15SM VCSH BKN080 BKN130 15/05 A2949 RMK AC5AC2 SH W SLP994 SLP994
CYEG;2003-10-07 23:00;METAR CYEG 072300Z 31018G25KT 15SM SCT070 BKN120 15/07 A2951 RMK AC3AC3 SH W SLP999 SLP999
CYEG;2003-10-08 00:00;METAR CYEG 080000Z 32019KT 15SM -SHRA BKN080 BKN120 13/09 A2951 RMK AC6AC2 SLP007
CYEG;2003-10-08 01:00;METAR CYEG 080100Z 32009KT 15SM FEW080 BKN120 12/07 A2954 RMK AC2AC1 ACC ASOCTD / TCU TPS W VIRGA E SLP016 TCU TPS W VIRGA E SLP016 ACC ASOCTD NE-E + S-W TR SC/HIER AC SLP034
CYEG;2003-10-08 03:00;METAR CYEG 080300Z 28012KT 15SM FEW060 SCT110 BKN250 10/07 A2963 RMK SC2AC2CI1 TCU EMBD SW G19 PST HR SLP048 TCU EMBD SW G19 PST HR SLP048
CYEG;2003-10-08 04:00;METAR CYEG 080400Z 29005KT 15SM FEW060 SCT250 08/06 A2962 RMK SC1CI1 VIRGA SW-W SLP046 SLP046 DIST W-NW TR CI SLP042 W-NW SLP042
CYEG;2003-10-08 06:00;METAR CYEG 080600Z 27006KT 15SM FEW100 FEW250 06/05 A2964 RMK AC1CI1 TR AC SLP043
CYEG;2003-10-08 07:00;METAR CYEG 080700Z 21005KT 15SM FEW100 FEW250 05/04 A2965 RMK AC1CI1 TR CI
CYEG;2003-10-08 08:00;METAR CYEG 080800Z 21005KT 15SM FEW100 FEW250 03/02 A2965 RMK AC1CI1 TR CLD SLP048
CYEG;2003-10-08 09:00;METAR CYEG 080900Z 21004KT 15SM FEW100 FEW250 03/02 A2966 RMK AC1CI1 SLP056
CYEG;2003-10-08 10:00;METAR CYEG 081000Z 19004KT 15SM FEW100 FEW250 01/01 A2966 RMK AC1CI1 SLP057
CYEG;2003-10-08 11:00;METAR CYEG 081100Z 21004KT 15SM FEW100 FEW250 01/00 A2967 RMK AC1CI1 SLP058
CYEG;2003-10-08 12:00;METAR CYEG 081200Z 19006KT 15SM FEW100 FEW250 01/M00 A2968 RMK AC1CI1 TR CLD SLP069 SLP069
CYEG;2003-10-08 13:00;METAR CYEG 081300Z 00000KT 15SM FEW100 FEW250 M02/M03 A2968 RMK AC1CI1 TR
CYEG;2003-10-08 14:00;METAR CYEG 081400Z 18004KT 15SM FEW100 FEW250 M01/M02 A2968 RMK AC1CI1
CYEG;2003-10-08 15:00;METAR CYEG 081500Z 18005KT 15SM FEW100 SCT250 03/02 A2968 RMK AC1CI1 SLP071
CYEG;2003-10-08 16:00;METAR CYEG 081600Z 17004KT 15SM SCT250 08/05 A2967 RMK CI1 SLP067
CYEG;2003-10-08 17:00;METAR CYEG 081700Z 13004KT 15SM FEW100 SCT250 11/06 A2965 RMK ACC1CI1 TR ACC S SLP061 SLP061
CYEG;2003-10-08 18:00;METAR CYEG 081800Z 13008KT 15SM FEW100 FEW250 14/05 A2962 RMK ACC1CI1 TR ACC SE SLP044 SLP044
CYEG;2003-10-08 19:00;METAR CYEG 081900Z 13011KT 15SM FEW100 FEW250 15/06 A2958 RMK ACC1CI0 TR ACC SE SLP031 SLP031
CYEG;2003-10-08 20:00;METAR CYEG 082000Z 14012KT 15SM FEW050 FEW100 FEW250 17/05 A2955 RMK CF1AC1CI1 TR CF/AC SLP020 CF/AC SLP020
CYEG;2003-10-08 21:00;METAR CYEG 082100Z 17014G20KT 15SM FEW052 FEW100 FEW250 18/05 A2951 RMK CU2AC1CI1 TR AC G22 PST HR SLP006 TR AC G22 PST HR SLP006
CYEG;2003-10-08 22:00;METAR CYEG 082200Z 16014G21KT 15SM FEW055 FEW100 SCT250 18/05 A2948 RMK CU2AC1CI1 SLP994 SLP994
CYEG;2003-10-08 23:00;METAR CYEG 082300Z 15013KT 15SM FEW060 FEW170 BKN250 18/04 A2945 RMK CU2AC1CI1 SLP984 SLP984
CYEG;2003-10-09 00:00;METAR CYEG 090000Z 17007KT 15SM FEW060 SCT120 BKN250 16/04 A2944 RMK CU1AC2CI1 SLP983 SLP983
CYEG;2003-10-09 01:00;METAR CYEG 090100Z 16007KT 15SM FEW120 SCT170 BKN250 15/03 A2941 RMK AC1AC2CI1 VIRGA SW SLP974 VIRGA SW SLP974
CYEG;2003-10-09 02:00;METAR CYEG 090200Z 16004KT 15SM BKN081 BKN170 14/02 A2939 RMK AC5AC2 VIRGA SLP969
CYEG;2003-10-09 03:00;METAR CYEG 090300Z 13007KT 15SM BKN097 BKN180 10/02 A2937 RMK AC5AC1 SLP962
CYEG;2003-10-09 04:00;METAR CYEG 090400Z 14006KT 15SM SCT100 BKN180 12/03 A2935 RMK AC4AC1 SLP958
CYEG;2003-10-09 05:00;METAR CYEG 090500Z 20007KT 15SM FEW100 06/01 A2935 RMK AC2 SLP958
CYEG;2003-10-09 06:00;METAR CYEG 090600Z 19008KT 15SM FEW100 04/M00 A2935 RMK AC1 SLP951
CYEG;2003-10-09 07:00;METAR CYEG 090700Z 19006KT 15SM FEW090 04/M00 A2935 RMK AC1 SLP950
CYEG;2003-10-09 08:00;METAR CYEG 090800Z 21007KT 15SM FEW090 02/M02 A2934 RMK AC1 SLP949
CYEG;2003-10-09 09:00;METAR CYEG 090900Z 22004KT 15SM FEW090 FEW160 00/M03 A2935 RMK AC1AC1 SLP951
CYEG;2003-10-09 10:00;METAR CYEG 091000Z 23002KT 15SM FEW090 SCT160 M01/M04 A2934 RMK AC1AC2 SLP949
CYEG;2003-10-09 11:00;METAR CYEG 091100Z 26007KT 15SM FEW150 SCT240 M00/M03 A2935 RMK AC2CI1 SLP952
CYEG;2003-10-09 12:00;METAR CYEG 091200Z 25003KT 15SM BKN140 BKN210 04/M01 A2936 RMK AC6CI0 SLP954
CYEG;2003-10-09 13:00;METAR CYEG 091300Z 28007KT 15SM SCT120 BKN210 08/M01 A2937 RMK AC4CI2
CYEG;2003-10-09 14:00;METAR CYEG 091400Z 25008KT 15SM FEW100 SCT150 SCT210 07/M02 A2939 RMK ACC1AC2CI0 VIRGA E SLP964 VIRGA E SLP964
CYEG;2003-10-09 15:00;METAR CYEG 091500Z 27010KT 15SM BKN100 BKN210 09/M01 A2941 RMK AC5CI0 ACC ASOCTD SH W SLP972 SH W SLP972
CYEG;2003-10-09 16:00;METAR CYEG 091600Z 27010KT 15SM FEW100 BKN120 08/M02 A2943 RMK AC1AC5 ACC ASOCTD VIRGA SLP978 VIRGA SLP978
CYEG;2003-10-09 17:00;METAR CYEG 091700Z 30010KT 15SM FEW090 SCT120 12/M01 A2944 RMK AC1AC3 ACC ASOCTD VIRGA SLP982 VIRGA SLP982
CYEG;2003-10-09 18:00;METAR CYEG 091800Z 30013KT 15SM FEW090 SCT120 14/M02 A2945 RMK ACC1AC1 VIRGA N G17 PST HR SLP987 G17 PST HR SLP987
CYEG;2003-10-09 19:00;METAR CYEG 091900Z 30016G24KT 15SM FEW072 FEW120 14/M04 A2946 RMK CF1AC2 SLP991
CYEG;2003-10-09 20:00;METAR CYEG 092000Z 27014G19KT 15SM FEW072 BKN120 15/M03 A2947 RMK CU1AC2 VIRGA SE SLP993 SLP993
CYEG;2003-10-09 21:00;METAR CYEG 092100Z 30017G25KT 15SM FEW072 BKN100 15/M03 A2948 RMK CU2AC3 VIRGA SLP999 SLP999
CYEG;2003-10-09 22:00;METAR CYEG 092200Z 30009G16KT 15SM FEW072 FEW100 BKN120 15/M04 A2948 RMK CU1AC1AC4 VIRGA SLP000
CYEG;2003-10-09 23:00;METAR CYEG 092300Z 27009KT 15SM FEW072 FEW100 BKN120 14/M04 A2949 RMK CU1AC2AC2 SLP003 SLP003
CYEG;2003-10-10 00:00;METAR CYEG 100000Z 27006KT 15SM SCT100 BKN130 BKN210 14/M04 A2949 RMK AC4AC2CI0 VIRGA N SLP001 VIRGA N SLP001
CYEG;2003-10-10 01:00;METAR CYEG 100100Z 24007KT 15SM FEW100 FEW130 SCT210 09/M05 A2950 RMK AC2AC1CI0 VIRGA SLP003 VIRGA SLP003
CYEG;2003-10-10 02:00;METAR CYEG 100200Z 26011KT 15SM BKN100 BKN210 12/M05 A2952 RMK AC5CI1 SLP011
CYEG;2003-10-10 03:00;METAR CYEG 100300Z 26008KT 15SM FEW100 FEW120 SCT220 08/M05 A2954 RMK AC2AC1CI0 SLP018 SLP018
CYEG;2003-10-10 04:00;METAR CYEG 100400Z 26007KT 15SM FEW100 FEW120 SCT220 05/M06 A2955 RMK AC1AC2CI0 SLP022 SLP022
CYEG;2003-10-10 05:00;METAR CYEG 100500Z 23008KT 15SM SCT110 BKN220 05/M05 A2957 RMK AC3CI2 SLP027
CYEG;2003-10-10 06:00;METAR CYEG 100600Z 25005KT 15SM BKN092 06/M05 A2958 RMK AC7 VIRGA SLP030
CYEG;2003-10-10 07:00;METAR CYEG 100700Z 24007KT 15SM OVC086 07/M04 A2959 RMK AC8 VIRGA SLP034
CYEG;2003-10-10 08:00;METAR CYEG 100800Z 25007KT 15SM BKN085 OVC120 08/M04 A2961 RMK AC6AC2 VIRGA SLP038
CYEG;2003-10-10 09:00;METAR CYEG 100900Z 30003KT 15SM SCT085 BKN120 BKN170 06/M04 A2962 RMK AC3AC2AC2 VIRGA N SLP042 VIRGA N SLP042
CYEG;2003-10-10 10:00;METAR CYEG 101000Z 26005KT 15SM FEW090 BKN170 04/M04 A2962 RMK AC2AC3 SLP043
CYEG;2003-10-10 11:00;METAR CYEG 101100Z 24005KT 15SM FEW090 BKN180 03/M04 A2963 RMK AC2AC4 SLP046
CYEG;2003-10-10 12:00;METAR CYEG 101200Z 25006KT 15SM FEW075 SCT120 BKN180 03/M04 A2965 RMK AC2AC2AC2 SLP055 SLP055
CYEG;2003-10-10 13:00;METAR CYEG 101300Z 28005KT 15SM SCT087 BKN120 BKN180 05/M04 A2967 RMK AC4AC2AC1 VIRGA N SLP062 VIRGA N SLP062
CYEG;2003-10-10 14:00;METAR CYEG 101400Z 27005KT 15SM BKN093 BKN120 BKN200 04/M03 A2969 RMK AC3AC2CI0 VIRGA NW-NE SLP067 VIRGA NW-NE SLP067
CYEG;2003-10-10 15:00;METAR CYEG 101500Z 28006KT 15SM FEW075 BKN087 BKN120 BKN200 06/M01 A2970 RMK AC2AC3AC1CI1 ACC EMBD SLP074 AC2AC3AC1CI1 ACC EMBD SLP074
CYEG;2003-10-10 16:00;METAR CYEG 101600Z 26011KT 15SM FEW065 BKN085 BKN120 BKN200 07/M02 A2971 RMK SC2AC3AC1CI1 ACC EMBD SLP080 SC2AC3AC1CI1 ACC EMBD SLP080
CYEG;2003-10-10 17:00;METAR CYEG 101700Z 29009KT 15SM FEW065 BKN084 BKN120 09/M02 A2973 RMK SC2AC4AC2 SLP084 SLP084
CYEG;2003-10-10 18:00;METAR CYEG 101800Z CCA 30015KT 15SM FEW055 FEW077 BKN090 BKN150 11/M03 A2973 RMK CU1AC2AC2AC2 SLP085
CYEG;2003-10-10 19:00;METAR CYEG 101900Z 30011G16KT 15SM FEW055 SCT090 BKN120 BKN150 12/M03 A2974 RMK CU1AC2AC2AC2 PK WND 22 KTS PST HR SLP087 CU1AC2AC2AC2 PK WND 22 KTS PST HR SLP087
CYEG;2003-10-10 20:00;METAR CYEG 102000Z 31015G21KT 15SM FEW065 SCT090 BKN130 BKN200 13/M04 A2973 RMK CU2AC2AC3CI1 SLP085 CU2AC2AC3CI1 SLP085
CYEG;2003-10-10 21:00;METAR CYEG 102100Z 31011G20KT 15SM FEW065 FEW090 BKN110 BKN160 13/M04 A2974 RMK CU2AC1AC2AC2 SLP086 CU2AC1AC2AC2 SLP086
CYEG;2003-10-10 22:00;METAR CYEG 102200Z 31014KT 15SM FEW065 FEW090 BKN120 BKN250 13/M03 A2976 RMK CU1AC2AS2CI1 SLP090 CU1AC2AS2CI1 SLP090
CYEG;2003-10-10 23:00;METAR CYEG 102300Z 32010KT 15SM FEW065 FEW090 BKN140 BKN250 12/M03 A2977 RMK SC1AC2AS2CI1 SLP094 SC1AC2AS2CI1 SLP094
CYEG;2003-10-11 00:00;METAR CYEG 110000Z 31009G15KT 15SM FEW065 FEW100 BKN150 BKN250 12/M03 A2978 RMK SC1AC1AC2CI1 SLP103 SC1AC1AC2CI1 SLP103
CYEG;2003-10-11 01:00;METAR CYEG 110100Z 31006KT 15SM FEW065 SCT100 BKN160 BKN250 10/M04 A2980 RMK SC1AC2AC2CI1 SLP110 SC1AC2AC2CI1 SLP110
CYEG;2003-10-11 02:00;METAR CYEG 110200Z 32002KT 15SM FEW100 BKN150 BKN250 05/M04 A2982 RMK AC2AC3CI1 SLP116 SLP116
CYEG;2003-10-11 03:00;METAR CYEG 110300Z 24002KT 15SM FEW080 BKN100 04/M03 A2985 RMK AC2AC5 SLP130
CYEG;2003-10-11 04:00;METAR CYEG 110400Z 22003KT 15SM FEW075 OVC110 04/M03 A2986 RMK AC2AC6 SLP135
CYEG;2003-10-11 05:00;METAR CYEG 110500Z 23004KT 15SM BKN081 BKN110 04/M03 A2988 RMK AC5AC2 SLP139
CYEG;2003-10-11 06:00;METAR CYEG 110600Z 25004KT 15SM FEW085 BKN110 04/M03 A2989 RMK AC2AC6 SLP140
CYEG;2003-10-11 07:00;METAR CYEG 110700Z 27005KT 15SM SCT120 03/M03 A2991 RMK AC4 SLP146
CYEG;2003-10-11 08:00;METAR CYEG 110800Z 27006KT 15SM FEW120 01/M04 A2992 RMK AC2 SLP150
CYEG;2003-10-11 09:00;METAR CYEG 110900Z 25004KT 15SM SKC 00/M04 A2993 RMK SLP155
CYEG;2003-10-11 10:00;METAR CYEG 111000Z 23004KT 15SM SKC M01/M05 A2993 RMK SLP155
CYEG;2003-10-11 11:00;METAR CYEG 111100Z 23004KT 15SM SKC M01/M06 A2993 RMK SLP157
CYEG;2003-10-11 12:00;METAR CYEG 111200Z 22005KT 15SM SKC M03/M06 A2993 RMK SLP160
CYEG;2003-10-11 13:00;METAR CYEG 111300Z 22005KT 15SM SKC M02/M06 A2993 RMK SLP159
CYEG;2003-10-11 14:00;METAR CYEG 111400Z 22004KT 15SM FEW120 M03/M07 A2993 RMK AC1 TR CLD SLP159
CYEG;2003-10-11 15:00;METAR CYEG 111500Z 19004KT 15SM FEW250 00/M04 A2992 RMK CI1 SLP161
CYEG;2003-10-11 16:00;METAR CYEG 111600Z 20003KT 15SM FEW250 05/M02 A2992 RMK CI0 SLP161
CYEG;2003-10-11 17:00;METAR CYEG 111700Z 24002KT 15SM SCT250 10/M02 A2991 RMK CI1 SLP158
CYEG;2003-10-11 18:00;METAR CYEG 111800Z 20004KT 15SM BKN250 11/M03 A2989 RMK CS2 CS INVDG
CYEG;2003-10-11 19:00;METAR CYEG 111900Z 19008KT 15SM BKN250 12/M03 A2986 RMK CS4 SLP132
CYEG;2003-10-11 20:00;METAR CYEG 112000Z 18009KT 15SM BKN240 13/M03 A2984 RMK CS6 SLP124
CYEG;2003-10-11 21:00;METAR CYEG 112100Z 17007KT 15SM FEW120 SCT180 BKN220 12/M03 A2981 RMK AC1AS2CS3 SLP114 SLP114
CYEG;2003-10-11 22:00;METAR CYEG 112200Z 18008KT 15SM FEW090 BKN170 BKN220 12/M04 A2978 RMK AC1AS3CS3 VIRGA TR AC SLP107 VIRGA TR AC SLP107
CYEG;2003-10-11 23:00;METAR CYEG 112300Z 18011KT 15SM FEW090 BKN120 BKN220 12/M05 A2977 RMK AC1AS5CS2 VIRGA SLP103 VIRGA SLP103
CYEG;2003-10-12 00:00;METAR CYEG 120000Z 17005KT 15SM FEW100 BKN130 BKN220 10/M05 A2975 RMK AC1AS6CS2 VIRGA SLP099 VIRGA SLP099
CYEG;2003-10-12 01:00;METAR CYEG 120100Z 15005KT 15SM FEW100 BKN130 BKN220 07/M05 A2973 RMK AC1AS5CS1 VIRGA SLP094 VIRGA SLP094
CYEG;2003-10-12 02:00;METAR CYEG 120200Z 11007KT 15SM FEW130 SCT180 SCT220 02/M05 A2971 RMK AS2AC2CI1 SLP087 SLP087
CYEG;2003-10-12 03:00;METAR CYEG 120300Z 13008KT 15SM FEW180 01/M06 A2970 RMK AC2 SLP087
CYEG;2003-10-12 04:00;METAR CYEG 120400Z 14005KT 15SM FEW180 01/M06 A2969 RMK AC1 SLP084
CYEG;2003-10-12 05:00;METAR CYEG 120500Z 14004KT 15SM FEW180 M01/M06 A2968 RMK AC1 SLP081
CYEG;2003-10-12 06:00;METAR CYEG 120600Z 16003KT 15SM FEW160 M01/M06 A2967 RMK AC2 SLP071
CYEG;2003-10-12 07:00;METAR CYEG 120700Z 17002KT 15SM SCT160 BKN190 M03/M06 A2966 RMK AC2AC2 SLP068
CYEG;2003-10-12 08:00;METAR CYEG 120800Z 20004KT 15SM BKN140 BKN190 M02/M05 A2966 RMK AS5AC2 SLP066
CYEG;2003-10-12 09:00;METAR CYEG 120900Z 00000KT 15SM BKN080 BKN140 M01/M04 A2965 RMK AS2AC2 SLP061
CYEG;2003-10-12 10:00;METAR CYEG 121000Z 22003KT 15SM SCT080 BKN120 M02/M06 A2965 RMK AS2AC3 SLP062
CYEG;2003-10-12 11:00;METAR CYEG 121100Z 00000KT 15SM SCT080 BKN140 M03/M05 A2966 RMK AS2AC3 SLP064
CYEG;2003-10-12 12:00;METAR CYEG 121200Z 00000KT 15SM BKN090 M01/M05 A2967 RMK AC6 SLP070
CYEG;2003-10-12 13:00;METAR CYEG 121300Z 27004KT 15SM BKN080 M00/M04 A2969 RMK AC6 VIRGA SLP076 ALQDS SLP082
CYEG;2003-10-12 15:00;METAR CYEG 121500Z 30004KT 15SM FEW070 BKN085 03/M02 A2972 RMK AC1AC6 VIRGA ALQDS SLP093 SLP093
CYEG;2003-10-12 16:00;METAR CYEG 121600Z 29003KT 15SM BKN088 BKN250 05/M02 A2973 RMK AC6CI1 VIRGA S-SW SLP097 SLP097
CYEG;2003-10-12 17:00;METAR CYEG 121700Z 31008KT 15SM FEW088 BKN250 08/M02 A2974 RMK AC2CI1 SLP100
CYEG;2003-10-12 18:00;METAR CYEG 121800Z 31007KT 15SM FEW088 SCT170 BKN250 10/M01 A2975 RMK AC1AC1CI1 SLP097
CYEG;2003-10-12 19:00;METAR CYEG 121900Z 31010KT 15SM FEW050 FEW088 FEW250 12/M01 A2976 RMK CU1AC1CI1 TR CU/CI SLP100 TR CU/CI SLP100
CYEG;2003-10-12 20:00;METAR CYEG 122000Z 32008KT 15SM FEW060 FEW088 FEW250 13/M02 A2976 RMK CU1AC1CI1 TR CU/CI SLP101 TR CU/CI SLP101
CYEG;2003-10-12 21:00;METAR CYEG 122100Z 35008KT 15SM FEW063 FEW088 FEW250 13/M03 A2977 RMK CU1AC1CI1 TR AC/CI SLP103 TR AC/CI SLP103
CYEG;2003-10-12 22:00;METAR CYEG 122200Z 33007KT 15SM FEW065 FEW095 FEW250 13/M03 A2978 RMK CU1AC1CI1 TR AC/CI SLP106 TR AC/CI SLP106
CYEG;2003-10-12 23:00;METAR CYEG 122300Z 36009KT 15SM FEW065 FEW095 FEW250 12/M04 A2979 RMK CU1AC1CI1 TR CLD SLP110 TR CLD SLP110
CYEG;2003-10-13 00:00;METAR CYEG 130000Z 36005KT 15SM FEW065 FEW095 FEW120 FEW250 10/M04 A2981 RMK CU1AC1AC1CI1 TR CLD SLP117 CU1AC1AC1CI1 TR CLD SLP117
CYEG;2003-10-13 01:00;METAR CYEG 130100Z 34002KT 15SM FEW100 FEW120 FEW250 05/M05 A2983 RMK AC1AC1CI1 TR CLD SLP123 TR CLD SLP123
CYEG;2003-10-13 02:00;METAR CYEG 130200Z 03003KT 15SM FEW100 FEW120 FEW250 04/M06 A2983 RMK AC1AC1CI1 SLP126 SLP126
CYEG;2003-10-13 03:00;METAR CYEG 130300Z 00000KT 15SM FEW100 FEW250 M01/M07 A2985 RMK AC1CI1 TR AC SLP140 SLP140
CYEG;2003-10-13 04:00;METAR CYEG 130400Z 00000KT 15SM FEW100 SCT250 M03/M08 A2986 RMK AC1CI2 SLP143
CYEG;2003-10-13 05:00;METAR CYEG 130500Z 20002KT 15SM BKN150 BKN250 M03/M07 A2987 RMK AC4CI1 SLP147
CYEG;2003-10-13 06:00;METAR CYEG 130600Z 21002KT 15SM FEW100 BKN150 M02/M07 A2989 RMK AC2AC2 SLP146
CYEG;2003-10-13 07:00;METAR CYEG 130700Z 34003KT 15SM FEW100 SCT150 M05/M08 A2990 RMK AC2AC1 SLP152
CYEG;2003-10-13 08:00;METAR CYEG 130800Z 00000KT 15SM SCT070 BKN150 M04/M07 A2992 RMK AC3AC2 SLP157
CYEG;2003-10-13 09:00;METAR CYEG 130900Z 18005KT 15SM FEW070 BKN150 M03/M07 A2993 RMK AC2AC2 SLP159
CYEG;2003-10-13 10:00;METAR CYEG 131000Z 25002KT 15SM FEW070 BKN210 M05/M08 A2995 RMK AC2CS3 HALO SLP165
CYEG;2003-10-13 11:00;METAR CYEG 131100Z 23002KT 15SM SCT070 BKN210 M06/M08 A2996 RMK AC3CI1 SLP169
CYEG;2003-10-13 12:00;METAR CYEG 131200Z 19003KT 15SM BKN080 BKN210 M04/M06 A2997 RMK AC5CI0 SLP176
CYEG;2003-10-13 13:00;METAR CYEG 131300Z 22002KT 15SM SCT080 BKN130 BKN210 M03/M06 A2999 RMK AC3AC2CI0 SLP183 SLP183
CYEG;2003-10-13 14:00;METAR CYEG 131400Z 20002KT 15SM FEW070 SCT130 BKN210 M03/M06 A3001 RMK AC1AC2CI1 SLP188 SLP188
CYEG;2003-10-13 15:00;METAR CYEG 131500Z 23004KT 15SM FEW070 BKN100 M01/M04 A3003 RMK AC1AC6 VIRGA NW SLP205 SLP205
CYEG;2003-10-13 16:00;METAR CYEG 131600Z 26003KT 15SM FEW070 BKN100 BKN250 02/M01 A3004 RMK AC1AC6CI1 TR LWR AC SLP208 TR LWR AC SLP208
CYEG;2003-10-13 17:00;METAR CYEG 131700Z 26004KT 15SM FEW070 SCT100 BKN250 07/M00 A3006 RMK AC1AC3CI1 TR LWR AC SLP213 TR LWR AC SLP213
CYEG;2003-10-13 18:00;METAR CYEG 131800Z 27009KT 15SM SCT064 BKN100 BKN250 08/M01 A3006 RMK SC3AC2CI1 SHRA/VIRGA DIST SW-W SLP209 SHRA/VIRGA DIST SW-W SLP209
CYEG;2003-10-13 19:00;METAR CYEG 131900Z 28010G16KT 15SM FEW040 FEW070 SCT100 BKN250 10/00 A3006 RMK CU1AC1AC1CI1 SLP208 CU1AC1AC1CI1 SLP208
CYEG;2003-10-13 20:00;METAR CYEG 132000Z 27008G15KT 15SM FEW040 BKN100 BKN120 BKN250 11/01 A3005 RMK CU2AC3AC1CI1 SLP204 CU2AC3AC1CI1 SLP204
CYEG;2003-10-13 21:00;METAR CYEG 132100Z 27010G15KT 15SM BKN040 BKN100 BKN120 BKN250 11/01 A3004 RMK CU5AC2AC1CI1 TR CI SLP200 CU5AC2AC1CI1 TR CI SLP200
CYEG;2003-10-13 22:00;METAR CYEG 132200Z 27012G17KT 15SM VCSH BKN040TCU BKN093 BKN250 12/01 A3004 RMK TCU5AC2CI1 HVY SHRA NE VIRGA S SHRA NW TR CI SLP198 TCU5AC2CI1 HVY SHRA NE VIRGA S SHRA NW TR CI SLP198
CYEG;2003-10-13 23:00;METAR CYEG 132300Z 28010G15KT 15SM VCSH SCT045TCU BKN100 BKN250 11/M00 A3004 RMK TCU4AC1CI1 SHRA SW HVY SHRA W-NW FEW CU SLP198 TCU4AC1CI1 SHRA SW HVY SHRA W-NW FEW CU SLP198
CYEG;2003-10-14 00:00;METAR CYEG 140000Z 28005KT 15SM FEW042CB FEW100 BKN130 BKN250 07/02 A3005 RERA RMK CB1AC1AC2CI1 CB DIST SE-S SLP205 RMK CB1AC1AC2CI1 CB DIST SE-S SLP205
CYEG;2003-10-14 01:00;METAR CYEG 140100Z 27005KT 15SM FEW090 BKN110 BKN250 06/02 A3006 RMK ACC1AC5CI2 DIST SHRA SW-W ACC N SLP209 DIST SHRA SW-W ACC N SLP209
CYEG;2003-10-14 02:00;METAR CYEG 140200Z 27006KT 15SM FEW090 BKN110 BKN250 04/02 A3007 RMK ACC2AC5CI1 ACC N SLP211 ACC N SLP211
CYEG;2003-10-14 03:00;METAR CYEG 140300Z 32003KT 15SM FEW060 BKN110 BKN250 05/02 A3008 RMK SC2AC4CI2 SLP215 SLP215
CYEG;2003-10-14 04:00;METAR CYEG 140400Z 27004KT 15SM FEW055 BKN110 BKN250 03/02 A3008 RMK SC2AC3CI1 SLP217 SLP217
CYEG;2003-10-14 05:00;METAR CYEG 140500Z 29002KT 15SM FEW055 BKN110 BKN250 03/01 A3008 RMK SC1AC6CI0 SLP217
CYEG;2003-10-14 06:00;METAR CYEG 140600Z 27004KT 15SM FEW055 BKN110 02/M00 A3009 RMK SC1AC6 SLP214
CYEG;2003-10-14 07:00;METAR CYEG 140700Z 31003KT 15SM FEW055 BKN100 03/01 A3009 RMK SC1AC6 SLP216
CYEG;2003-10-14 08:00;METAR CYEG 140800Z 00000KT 15SM BKN100 01/M00 A3010 RMK AC6 SLP217
CYEG;2003-10-14 09:00;METAR CYEG 140900Z 00000KT 15SM BKN100 M01/M02 A3010 RMK AC5 SLP219
CYEG;2003-10-14 10:00;METAR CYEG 141000Z 17002KT 15SM BKN077 M01/M02 A3010 RMK AC7 SLP219
CYEG;2003-10-14 11:00;METAR CYEG 141100Z 22004KT 15SM OVC080 01/M01 A3010 RMK AC8 SLP219
CYEG;2003-10-14 12:00;METAR CYEG 141200Z 00000KT 15SM OVC080 00/M01 A3010 RMK AC8 SLP220
CYEG;2003-10-14 13:00;METAR CYEG 141300Z 23002KT 15SM BKN075 BKN100 00/M01 A3010 RMK AC5AC2 SLP221
CYEG;2003-10-14 14:00;METAR CYEG 141400Z 19002KT 15SM FEW075 BKN088 BKN250 00/M01 A3010 RMK AC2AC6CI1 VIRGA NE-SE TR CI SLP220 VIRGA NE-SE TR CI SLP220 TR ACC SW-W SLP221 TR ACC SW TR CI SLP221
CYEG;2003-10-14 17:00;METAR CYEG 141700Z 29005KT 15SM FEW060 SCT100 SCT250 06/01 A3009 RMK SC1AC2CI1 TR CI SLP219 CI SLP219
CYEG;2003-10-14 18:00;METAR CYEG 141800Z 31009KT 15SM FEW025 FEW060 FEW100 08/01 A3009 RMK CU1SC1AC1 TR CU/SC SLP214 CU/SC SLP214
CYEG;2003-10-14 19:00;METAR CYEG 141900Z 30008KT 15SM FEW035 SCT097 SCT250 09/00 A3007 RMK CU2AC2CI1 TCU ASOCTD DIST SE-S SLP209 TCU ASOCTD DIST SE-S SLP209
CYEG;2003-10-14 20:00;METAR CYEG 142000Z 28010KT 15SM FEW045TCU BKN093 10/M01 A3006 RMK TCU2AC4 SHRA SW-W NW-NE SLP204 SW-W NW-NE SLP204
CYEG;2003-10-14 21:00;METAR CYEG 142100Z 34016G21KT 15SM BKN045TCU BKN100 08/M00 A3006 RMK TCU5AC2 VIRGA/SHRA ALQDS HVYR SHRA N-NE WSHFT GRDL SLP206 VIRGA/SHRA ALQDS HVYR SHRA N-NE WSHFT GRDL SLP206
CYEG;2003-10-14 22:00;METAR CYEG 142200Z 29008KT 15SM FEW045TCU BKN087 BKN110 08/M01 A3006 RMK TCU2AC3AC1 VIRGA/SHRA ALQDS CB TPS NE-E SLP205
CYEG;2003-10-14 23:00;METAR CYEG 142300Z 27008G20KT 15SM -SHRA BKN043TCU BKN064 BKN110 05/M01 A3006 RMK TCU6SC1AC1 CB TP N G22 PST HR SLP206 TCU6SC1AC1 CB TP N G22 PST HR SLP206
CYEG;2003-10-15 00:00;METAR CYEG 150000Z 27006KT 15SM FEW043CB FEW064 BKN100 05/02 A3007 RMK CB2SC1AC3 CB NE VIRGA/SHS ALQDS SLP210 CB NE VIRGA/SHS ALQDS SLP210
CYEG;2003-10-15 01:00;METAR CYEG 150100Z 27007KT 15SM -SHRA BKN045TCU BKN067 BKN100 03/01 A3007 RMK TCU6AC1AC1 SLP212 TCU6AC1AC1 SLP212
CYEG;2003-10-15 02:00;METAR CYEG 150200Z 00000KT 15SM FEW045TCU BKN070 BKN140 02/01 A3007 RMK TCU2AC3AC1 SH/VIRGA N-NE + SE-SW SLP211
CYEG;2003-10-15 03:00;METAR CYEG 150300Z 00000KT 15SM FEW018 BKN040 BKN170 01/M00 A3007 RMK CF1SC5AS1 SLP217 SLP217
CYEG;2003-10-15 04:00;METAR CYEG 150400Z 27004KT 15SM BKN037 BKN140 00/M01 A3008 RMK SC6AS2 SLP218
CYEG;2003-10-15 05:00;METAR CYEG 150500Z 29003KT 15SM SCT040 BKN090 OVC160 00/M00 A3008 RMK SC3AC2AS2 SLP221 SLP221
CYEG;2003-10-15 06:00;METAR CYEG 150600Z 29003KT 15SM FEW018 BKN090 M01/M02 A3008 RMK SC1AC2 SLP215
CYEG;2003-10-15 07:00;METAR CYEG 150700Z 00000KT 15SM FEW090 SCT160 M02/M03 A3008 RMK AC1AS1
CYEG;2003-10-15 09:00;METAR CYEG 150900Z 23002KT 1 1/2SM R12/4500FT R02/2800FT BR FEW032 BKN220 M05/M06 A3009 RMK FG1SC2CI1 FROIN VIS N 1/2 SLP222 A3009 RMK FG1SC2CI1 FROIN VIS N 1/2 SLP222
CYEG;2003-10-15 10:00;METAR CYEG 151000Z 25004KT 15SM BKN030 M02/M03 A3009 RMK SC6 SLP220
CYEG;2003-10-15 11:00;METAR CYEG 151100Z 27003KT 15SM OVC033 M01/M02 A3008 RMK SC8 SLP219
CYEG;2003-10-15 12:00;METAR CYEG 151200Z 28004KT 15SM -SN OVC022 M01/M01 A3008 RMK SC7 PCPN VRY LGT SLP217
CYEG;2003-10-15 13:00;METAR CYEG 151300Z 28004KT 15SM BKN022 BKN040 M01/M02 A3008 RMK SC5SC2 INTMT S- SLP218
CYEG;2003-10-15 14:00;METAR CYEG 151400Z 30003KT 15SM FEW025 FEW055 FEW220 M02/M03 A3008 RMK SC1SC1CI0 SLP216 SLP216
CYEG;2003-10-15 15:00;METAR CYEG 151500Z 26004KT 12SM FEW025 FEW220 M04/M05 A3008 RMK SC1CI1 SLP223
CYEG;2003-10-15 16:00;METAR CYEG 151600Z 27003KT 15SM FEW025 FEW220 M01/M02 A3008 RMK SC1CI1 TR CLD SLP222 SLP222
CYEG;2003-10-15 17:00;METAR CYEG 151700Z 30004KT 15SM FEW012 FEW030 01/M01 A3007 RMK CF1SC1 SLP220
CYEG;2003-10-15 18:00;METAR CYEG 151800Z 28002KT 15SM FEW015 BKN028 02/M02 A3007 RMK CU2SC5
CYEG;2003-10-15 19:00;METAR CYEG 151900Z 27003KT 15SM BKN030 02/M02 A3006 RMK SC7 SLP212
CYEG;2003-10-15 20:00;METAR CYEG 152000Z 01005KT 15SM BKN027 03/M02 A3004 RMK SC7 SLP207
CYEG;2003-10-15 21:00;METAR CYEG 152100Z 02004KT 15SM BKN034 03/M03 A3002 RMK SC7 SLP202
CYEG;2003-10-15 22:00;METAR CYEG 152200Z 06002KT 15SM BKN026 03/M03 A3001 RMK SC7 SLP197
CYEG;2003-10-15 23:00;METAR CYEG 152300Z 05004KT 15SM FEW025 BKN038 BKN250 03/M03 A3001 RMK SC2SC4CI0 SHRA NE SLP197 SHRA NE SLP197
CYEG;2003-10-16 00:00;METAR CYEG 160000Z 07004KT 15SM SCT038 BKN250 02/M05 A2998 RMK SC4CI1 SLP185
CYEG;2003-10-16 01:00;METAR CYEG 160100Z 09006KT 15SM FEW040 FEW250 00/M05 A2997 RMK SC1CI1 SLP182
CYEG;2003-10-16 02:00;METAR CYEG 160200Z 12007KT 15SM FEW040 FEW250 M03/M05 A2997 RMK SC1CI1 SLP181
CYEG;2003-10-16 03:00;METAR CYEG 160300Z 13008KT 15SM FEW040 FEW250 M06/M08 A2997 RMK SC1CI1 TR SC SLP192 SLP192
CYEG;2003-10-16 04:00;METAR CYEG 160400Z 12007KT 15SM FEW040 FEW250 M05/M07 A2996 RMK SC1CI1 TR SC SLP188 SLP188
CYEG;2003-10-16 05:00;METAR CYEG 160500Z 13006KT 15SM BKN250 M06/M08 A2996 RMK CI2 FROIN SLP188
CYEG;2003-10-16 06:00;METAR CYEG 160600Z 18003KT 15SM BKN210 M06/M08 A2996 RMK CI2 FROIN SLP184
CYEG;2003-10-16 07:00;METAR CYEG 160700Z 13005KT 15SM FEW055 BKN220 M06/M08 A2996 RMK SC2CI2 FROIN SLP183 SLP183
CYEG;2003-10-16 08:00;METAR CYEG 160800Z 13007KT 15SM BKN055 BKN220 M03/M05 A2994 RMK SC4CI1 FROIN SLP176 SLP176
CYEG;2003-10-16 09:00;METAR CYEG 160900Z 12006KT 15SM SCT055 BKN210 M05/M07 A2992 RMK SC3CI1 FROIN SLP166 SLP166
CYEG;2003-10-16 10:00;METAR CYEG 161000Z 13010KT 15SM FEW055 SCT220 M03/M05 A2989 RMK SC2CI1 SLP156
CYEG;2003-10-16 11:00;METAR CYEG 161100Z 13011KT 15SM FEW035 BKN053 M02/M04 A2987 RMK SC1SC2 SLP152
CYEG;2003-10-16 12:00;METAR CYEG 161200Z 13012KT 15SM SCT046 BKN220 M02/M04 A2985 RMK SC2CI2 SLP141
CYEG;2003-10-16 13:00;METAR CYEG 161300Z 13012KT 15SM FEW045 BKN150 OVC220 M01/M04 A2982 RMK SC1AS6CI2 SLP132 SLP132
CYEG;2003-10-16 14:00;METAR CYEG 161400Z 14015G20KT 15SM FEW045 BKN160 OVC220 M01/M03 A2977 RMK SC1AC3CI3 SLP116
CYEG;2003-10-16 15:00;METAR CYEG 161500Z 15015G21KT 15SM FEW045 BKN170 OVC220 00/M03 A2974 RMK SC1AS6CS2 TR SC SLP109
CYEG;2003-10-16 16:00;METAR CYEG 161600Z 15014G20KT 15SM SCT170 OVC240 01/M02 A2972 RMK AS3CS3 SLP103
CYEG;2003-10-16 17:00;METAR CYEG 161700Z 16017KT 15SM FEW150 OVC230 04/M01 A2969 RMK AC1CS6 SLP092
CYEG;2003-10-16 19:00;METAR CYEG 161900Z 16012KT 15SM FEW110 OVC240 07/M00 A2965 RMK AC1CS6 SLP073
CYEG;2003-10-16 20:00;METAR CYEG 162000Z 16011KT 15SM FEW110 SCT170 OVC220 08/M00 A2962 RMK AC1AS2CS5 SLP064 SLP064
CYEG;2003-10-16 21:00;METAR CYEG 162100Z 14009KT 15SM FEW110 BKN170 OVC220 09/00 A2959 RMK AC1AS6CS2 SLP049 SLP049
CYEG;2003-10-16 22:00;METAR CYEG 162200Z 15010KT 15SM FEW110 BKN150 OVC220 09/M00 A2958 RMK AC1AS6CS2 TR AC SLP043 TR AC SLP043
CYEG;2003-10-16 23:00;METAR CYEG 162300Z 16009KT 15SM FEW110 BKN140 OVC220 09/00 A2957 RMK AC1AC6CS2 TR AC SLP041 AC SLP041
CYEG;2003-10-17 00:00;METAR CYEG 170000Z 13007KT 15SM SCT150 OVC240 07/01 A2953 RMK AS3CS3 SLP027
CYEG;2003-10-17 01:00;METAR CYEG 170100Z 13006KT 15SM BKN150 OVC220 05/00 A2951 RMK AS4CS3 SLP019
CYEG;2003-10-17 02:00;METAR CYEG 170200Z 14004KT 15SM FEW120 BKN170 OVC220 05/00 A2950 RMK AC1AS6CS2 TR AC SLP017 AC SLP017
CYEG;2003-10-17 03:00;METAR CYEG 170300Z 15006KT 15SM FEW170 BKN250 03/M01 A2948 RMK AS2CS3 SLP011
CYEG;2003-10-17 04:00;METAR CYEG 170400Z 18003KT 15SM FEW170 OVC250 03/M00 A2947 RMK AS2CS5 SLP006
CYEG;2003-10-17 05:00;METAR CYEG 170500Z 18006KT 15SM FEW170 OVC250 03/M00 A2946 RMK AS2CS5 SLP004
CYEG;2003-10-17 06:00;METAR CYEG 170600Z 18004KT 15SM FEW170 OVC250 03/M01 A2945 RMK AS1CS3 SLP996
CYEG;2003-10-17 07:00;METAR CYEG 170700Z 18006KT 15SM BKN160 OVC250 01/M01 A2947 RMK AC5CS1 SLP002
CYEG;2003-10-17 08:00;METAR CYEG 170800Z 29003KT 15SM SCT160 OVC240 M00/M02 A2949 RMK AS2CS3 HALO SLP008
CYEG;2003-10-17 09:00;METAR CYEG 170900Z 00000KT 15SM BKN120 OVC240 02/M00 A2951 RMK AS6CS2 MOON DMLY VISBL SLP015 VISBL SLP015
CYEG;2003-10-17 10:00;METAR CYEG 171000Z 24004KT 15SM FEW090 FEW150 BKN240 02/M00 A2955 RMK AC1AS2CI1 SLP026 SLP026
CYEG;2003-10-17 11:00;METAR CYEG 171100Z 25004KT 15SM FEW045 SCT150 BKN220 00/M01 A2956 RMK SC1AS2CI2 SLP028 SLP028
CYEG;2003-10-17 12:00;METAR CYEG 171200Z 22004KT 15SM BKN080 BKN150 OVC220 02/M00 A2958 RMK AC5AS2CS1 SLP039 SLP039
CYEG;2003-10-17 13:00;METAR CYEG 171300Z 20006KT 15SM FEW080 BKN150 BKN250 01/M01 A2960 RMK AC2AS4CI1 SLP044 SLP044
CYEG;2003-10-17 14:00;METAR CYEG 171400Z 22004KT 15SM FEW080 SCT160 BKN220 02/M00 A2962 RMK AC2AS2CI2 SLP050 SLP050
CYEG;2003-10-17 15:00;METAR CYEG 171500Z 22003KT 15SM FEW080 FEW120 BKN220 03/01 A2964 RMK AC1AC1CI4 SLP062 SLP062
CYEG;2003-10-17 16:00;METAR CYEG 171600Z 25006KT 15SM SCT088 BKN220 08/04 A2967 RMK AC2CI4 SLP072
CYEG;2003-10-17 17:00;METAR CYEG 171700Z 30007KT 15SM FEW085 BKN220 09/04 A2971 RMK AC2CI4 SLP084
CYEG;2003-10-17 18:00;METAR CYEG 171800Z 32008KT 15SM SCT085 BKN220 10/05 A2973 RMK AC3CI3 SLP088
CYEG;2003-10-17 19:00;METAR CYEG 171900Z 31013KT 15SM FEW050 BKN085 BKN220 13/04 A2976 RMK SC2AC3CI2 SLP097 SLP097
CYEG;2003-10-17 20:00;METAR CYEG 172000Z 30007KT 15SM FEW050 FEW090 BKN240 14/04 A2975 RMK SC1AC1CI3 SLP092 SLP092
CYEG;2003-10-17 21:00;METAR CYEG 172100Z 32007KT 15SM FEW060 FEW120 BKN240 14/04 A2975 RMK SC1AC1CS5 SLP092
CYEG;2003-10-17 22:00;METAR CYEG 172200Z 32002KT 15SM SCT130 BKN240 14/04 A2977 RMK AC2CS2 SLP099
CYEG;2003-10-17 23:00;METAR CYEG 172300Z 02004KT 15SM BKN110 BKN240 13/04 A2978 RMK AC5CS2 SLP102
CYEG;2003-10-18 00:00;METAR CYEG 180000Z 04003KT 15SM BKN100 BKN220 12/05 A2980 RMK AC4CS2 VIRGA SE SLP111 SLP111
CYEG;2003-10-18 01:00;METAR CYEG 180100Z 08003KT 15SM BKN075 BKN220 11/04 A2981 RMK AC6CI1 VIRGA S SLP113 SLP113
CYEG;2003-10-18 02:00;METAR CYEG 180200Z 07004KT 15SM -SHRA OVC060 10/05 A2982 RMK SC8 SLP117
CYEG;2003-10-18 03:00;METAR CYEG 180300Z 12004KT 15SM -RA OVC065 08/06 A2983 RMK SC8 SLP121
CYEG;2003-10-18 04:00;METAR CYEG 180400Z 09007KT 15SM -RA OVC065 09/05 A2982 RMK SC8 SLP119
CYEG;2003-10-18 05:00;METAR CYEG 180500Z 11006KT 15SM BKN068 OVC120 07/05 A2983 RMK AC5AC3 VIRGA E SLP122 SLP122
CYEG;2003-10-18 06:00;METAR CYEG 180600Z 12006KT 15SM FEW070 BKN120 07/04 A2983 RMK AC2AC3 SLP118
CYEG;2003-10-18 07:00;METAR CYEG 180700Z 14004KT 15SM FEW070 OVC110 07/04 A2983 RMK AC2AC6 VIRGA
CYEG;2003-10-18 08:00;METAR CYEG 180800Z 13007KT 15SM FEW084 OVC110 08/04 A2982 RMK AC2AC6 SLP116
CYEG;2003-10-18 09:00;METAR CYEG 180900Z 12005KT 15SM BKN100 07/04 A2982 RMK AC6 SLP110
CYEG;2003-10-18 10:00;METAR CYEG 181000Z 13006KT 15SM FEW100 03/01 A2979 RMK AC2 SLP103
CYEG;2003-10-18 11:00;METAR CYEG 181100Z 13004KT 15SM FEW100 SCT250 05/02 A2977 RMK AC1CI0 SLP095
CYEG;2003-10-18 12:00;METAR CYEG 181200Z 14008KT 15SM FEW100 SCT250 06/03 A2975 RMK AC1CI1 SLP090
CYEG;2003-10-18 13:00;METAR CYEG 181300Z 14012KT 15SM FEW100 SCT250 06/03 A2973 RMK AC1CI1 SLP083
CYEG;2003-10-18 14:00;METAR CYEG 181400Z 15009KT 15SM FEW100 FEW160 BKN250 06/03 A2970 RMK AC1AC1CI2 SLP075 SLP075
CYEG;2003-10-18 15:00;METAR CYEG 181500Z 14009KT 15SM FEW100 FEW160 BKN250 06/03 A2970 RMK AC1AC2CI3 SLP077 SLP077
CYEG;2003-10-18 16:00;METAR CYEG 181600Z 14008KT 15SM FEW090 FEW160 BKN240 06/03 A2970 RMK AC1AC1CI4 SLP076 SLP076
CYEG;2003-10-18 17:00;METAR CYEG 181700Z 15004KT 15SM FEW090 BKN240 09/04 A2970 RMK AC1CI3
CYEG;2003-10-18 18:00;METAR CYEG 181800Z 00000KT 15SM FEW100 BKN240 12/04 A2970 RMK AC1CI2 SLP073
CYEG;2003-10-18 19:00;METAR CYEG 181900Z 32002KT 15SM FEW100 FEW240 13/05 A2971 RMK AC1CI1
CYEG;2003-10-18 20:00;METAR CYEG 182000Z 28002KT 15SM FEW120 FEW240 16/05 A2971 RMK AC1CI1
CYEG;2003-10-18 21:00;METAR CYEG 182100Z 32003KT 15SM FEW120 SCT240 17/05 A2971 RMK AC1CI2 SLP070
CYEG;2003-10-18 22:00;METAR CYEG 182200Z 04002KT 15SM FEW120 SCT240 18/05 A2970 RMK AC1CI2 SLP067
CYEG;2003-10-18 23:00;METAR CYEG 182300Z 02006KT 15SM FEW120 FEW240 18/05 A2970 RMK AC1CI1 SLP066
CYEG;2003-10-19 00:00;METAR CYEG 190000Z 06003KT 15SM FEW120 FEW240 14/04 A2970 RMK AC1CI1 SLP069
CYEG;2003-10-19 01:00;METAR CYEG 190100Z 05004KT 15SM FEW110 FEW240 08/02 A2971 RMK AC1CI1 SLP073
CYEG;2003-10-19 02:00;METAR CYEG 190200Z 09005KT 15SM FEW110 FEW140 FEW240 05/01 A2971 RMK AC1AC2CI1 TR LWR AC SLP074 LWR AC SLP074
CYEG;2003-10-19 03:00;METAR CYEG 190300Z 13003KT 15SM FEW140 FEW240 04/01 A2971 RMK AC1CI0 SLP082
CYEG;2003-10-19 04:00;METAR CYEG 190400Z 06002KT 15SM SCT240 03/01 A2971 RMK CI1 SLP082
CYEG;2003-10-19 05:00;METAR CYEG 190500Z 00000KT 15SM FEW150 FEW240 00/M02 A2970 RMK AC1CI0 SLP081
CYEG;2003-10-19 06:00;METAR CYEG 190600Z 05006KT 15SM FEW150 SCT240 02/00 A2969 RMK AC1CI0 SLP072
CYEG;2003-10-19 07:00;METAR CYEG 190700Z 15003KT 15SM SCT240 M01/M03 A2969 RMK CI0 SLP072
CYEG;2003-10-19 08:00;METAR CYEG 190800Z 14003KT 15SM SCT170 M01/M03 A2969 RMK AC4 AC INVDNG
CYEG;2003-10-19 09:00;METAR CYEG 190900Z 12003KT 15SM FEW170 FEW240 M02/M03 A2968 RMK AC1CI0 SLP067
CYEG;2003-10-19 10:00;METAR CYEG 191000Z 15005KT 15SM FEW240 M03/M06 A2968 RMK CI0 SLP067
CYEG;2003-10-19 11:00;METAR CYEG 191100Z 13002KT 15SM FEW240 M02/M03 A2966 RMK CI0 SLP063
CYEG;2003-10-19 12:00;METAR CYEG 191200Z 20005KT 15SM SKC M03/M05 A2965 RMK AURBO SLP063
CYEG;2003-10-19 14:00;METAR CYEG 191400Z 18007KT 15SM FEW120 BKN250 M03/M05 A2966 RMK AC1CI2 SLP065
CYEG;2003-10-19 15:00;METAR CYEG 191500Z 35003KT 15SM FEW170 BKN250 M01/M03 A2967 RMK AC1CI2 SLP076
CYEG;2003-10-19 16:00;METAR CYEG 191600Z 00000KT 15SM SCT170 BKN250 02/M00 A2967 RMK AC2CI2
CYEG;2003-10-19 17:00;METAR CYEG 191700Z 27005KT 15SM BKN180 BKN250 07/04 A2968 RMK AC5CI2 SLP079
CYEG;2003-10-19 18:00;METAR CYEG 191800Z 31005KT 15SM SCT110 BKN180 BKN250 07/04 A2968 RMK AC3AC3CI1 VIRGA SLP074 VIRGA SLP074
CYEG;2003-10-19 19:00;METAR CYEG 191900Z 31010KT 15SM FEW110 BKN160 BKN250 08/04 A2969 RMK AC2AC3CI1 VIRGA SLP075 VIRGA SLP075 SLP078
CYEG;2003-10-19 21:00;METAR CYEG 192100Z 30009KT 15SM FEW120 BKN160 BKN250 14/05 A2970 RMK AC2AC1CI1 VIRGA W SLP079 VIRGA W SLP079
CYEG;2003-10-19 22:00;METAR CYEG 192200Z 32008KT 15SM SCT120 BKN160 BKN250 13/05 A2972 RMK AC3AC2CI0 VIRGA SLP083 VIRGA SLP083
CYEG;2003-10-19 23:00;METAR CYEG 192300Z 32007KT 15SM SCT120 BKN160 BKN250 13/05 A2974 RMK AC3AC2CI0 VIRGA E SLP090 VIRGA E SLP090
CYEG;2003-10-20 00:00;METAR CYEG 200000Z 31006KT 15SM FEW120 SCT160 11/04 A2979 RMK AC2AC1 SLP111
CYEG;2003-10-20 01:00;METAR CYEG 200100Z 29005KT 15SM FEW120 SCT160 08/04 A2981 RMK AC2AC1 SLP118
CYEG;2003-10-20 02:00;METAR CYEG 200200Z 29008KT 15SM -SHRA BKN090 BKN110 BKN250 09/05 A2985 RMK AC5AC1CI1 SLP130
CYEG;2003-10-20 03:00;METAR CYEG 200300Z 30012KT 15SM SCT030 BKN098 OVC120 10/05 A2989 RMK SC3AC3AC2 VIRGA SLP145 VIRGA SLP145
CYEG;2003-10-20 04:00;METAR CYEG 200400Z 27009KT 15SM -SHRA FEW030 BKN073 BKN110 09/05 A2994 RMK SC2AC3AC2 ACC ASOCTD PRESRR SLP161
CYEG;2003-10-20 05:00;METAR CYEG 200500Z 29007KT 15SM FEW073 BKN110 08/05 A2996 RMK AC2AC2 SLP167
CYEG;2003-10-20 06:00;METAR CYEG 200600Z 27006KT 15SM BKN079 07/04 A2997 RMK AC6 VIRGA SLP171
CYEG;2003-10-20 07:00;METAR CYEG 200700Z 26005KT 15SM FEW080 FEW110 FEW250 04/02 A2999 RMK AC1AC1CI1 TR CLD SLP176 CLD SLP176
CYEG;2003-10-20 08:00;METAR CYEG 200800Z 23005KT 15SM FEW080 FEW250 03/01 A3002 RMK AC1CI0 SLP186
CYEG;2003-10-20 09:00;METAR CYEG 200900Z 22004KT 15SM FEW080 FEW250 02/01 A3002 RMK AC1CI1 TR CLD AURBO SLP186
CYEG;2003-10-20 10:00;METAR CYEG 201000Z 27005KT 15SM SKC 02/00 A3002 RMK SLP186
CYEG;2003-10-20 11:00;METAR CYEG 201100Z 23004KT 15SM SKC 02/00 A3002 RMK SLP186
CYEG;2003-10-20 12:00;METAR CYEG 201200Z 19003KT 15SM FEW250 M02/M03 A3003 RMK CI1 SLP195
CYEG;2003-10-20 13:00;METAR CYEG 201300Z 20002KT 15SM FEW250 M03/M04 A3003 RMK CI1 SLP194
CYEG;2003-10-20 14:00;METAR CYEG 201400Z 18006KT 15SM SCT250 M02/M03 A3002 RMK CI2 SLP193
CYEG;2003-10-20 15:00;METAR CYEG 201500Z 18007KT 15SM BKN230 00/M01 A3002 RMK CI5 SLP188
CYEG;2003-10-20 16:00;METAR CYEG 201600Z 18006KT 15SM FEW170 BKN200 02/01 A3000 RMK AC1CS6 SLP184
CYEG;2003-10-20 17:00;METAR CYEG 201700Z 12003KT 15SM BKN140 BKN200 04/03 A2996 RMK AS5CS2 SLP171
CYEG;2003-10-20 18:00;METAR CYEG 201800Z 14005KT 15SM BKN120 BKN200 06/04 A2995 RMK AS6CS2 SLP162
CYEG;2003-10-20 19:00;METAR CYEG 201900Z 13008KT 15SM BKN070 OVC200 08/04 A2990 RMK AS7CS1 SLP148
CYEG;2003-10-20 20:00;METAR CYEG 202000Z 14007KT 15SM -RA BKN050 OVC070 07/05 A2987 RMK SC7AS1 SLP137
CYEG;2003-10-20 21:00;METAR CYEG 202100Z 11009KT 12SM -RA BKN050 OVC070 07/06 A2983 RMK SC7AS1 SLP124
CYEG;2003-10-20 22:00;METAR CYEG 202200Z 11010KT 15SM BKN060 OVC090 08/06 A2979 RMK SC5AS2 SLP113
CYEG;2003-10-20 23:00;METAR CYEG 202300Z 14011G16KT 15SM -SHRA SCT060 OVC100 08/06 A2976 RMK SC4AS4 SLP102 SLP102
CYEG;2003-10-21 00:00;METAR CYEG 210000Z 13008KT 15SM FEW060 SCT120 BKN200 08/06 A2975 RMK SC2AS2CS4 SLP101 SLP101
CYEG;2003-10-21 01:00;METAR CYEG 210100Z 13008KT 15SM FEW060 SCT120 BKN200 07/05 A2974 RMK SC1AS3CS4 SLP098 SLP098
CYEG;2003-10-21 02:00;METAR CYEG 210200Z 14005KT 15SM SCT120 OVC200 07/05 A2973 RMK AS2CI6 SLP094
CYEG;2003-10-21 03:00;METAR CYEG 210300Z 13003KT 15SM SCT180 BKN250 05/04 A2972 RMK AC2CI4 SLP092
CYEG;2003-10-21 04:00;METAR CYEG 210400Z 11004KT 15SM BKN130 OVC250 06/05 A2971 RMK AC6CI2 VIRGA SLP088
CYEG;2003-10-21 05:00;METAR CYEG 210500Z 16006KT 15SM -SHRA SCT090 BKN110 06/05 A2972 RMK AC4AC3 ACC EMBD SLP090 EMBD SLP090
CYEG;2003-10-21 06:00;METAR CYEG 210600Z 13003KT 15SM BKN120 BKN150 OVC250 05/04 A2973 RMK AC5AC2CI1 SLP088
CYEG;2003-10-21 07:00;METAR CYEG 210700Z 17005KT 15SM BKN110 OVC250 04/04 A2975 RMK AC5CI2 SLP105
CYEG;2003-10-21 09:00;METAR CYEG 210900Z 06003KT 1/8SM R12/1600FT R02/1600FT FG SCT240 00/00 A2979 RMK FG2CI1 SLP114 FG2CI1 SLP114
CYEG;2003-10-21 10:00;METAR CYEG 211000Z 22004KT 1/8SM R12/2400FT R02/2200FT FZFG SKC M01/M02 A2981 RMK FG3 SLP118 FG3 SLP118
CYEG;2003-10-21 11:00;METAR CYEG 211100Z 17005KT 1/8SM R12/3000FT R02/2200FT FG BKN110 OVC250 00/M00 A2982 RMK FG3AC3CI1 FROIN SLP121 A2982 RMK FG3AC3CI1 FROIN SLP121
CYEG;2003-10-21 12:00;METAR CYEG 211200Z 21005KT 8SM FEW110 SCT240 M00/M00 A2983 RMK AC1CI2 BR SLP125
CYEG;2003-10-21 13:00;METAR CYEG 211300Z 19002KT 10SM FEW110 FEW200 BKN240 M00/M01 A2985 RMK AC1CI1CI3 BR FROIN SLP132 BR FROIN SLP132
CYEG;2003-10-21 14:00;METAR CYEG 211400Z 19003KT 12SM FEW110 BKN180 BKN240 00/M00 A2986 RMK AC2AS2CI2 VIS W QUAD 2-5 BR SLP135 VIS W QUAD 2-5 BR SLP135
CYEG;2003-10-21 15:00;METAR CYEG 211500Z 21003KT 10SM FEW110 BKN180 BKN240 M01/M01 A2989 RMK AC2AS2CI2 BR SLP150 BR SLP150
CYEG;2003-10-21 16:00;METAR CYEG 211600Z 19003KT 12SM FEW110 BKN190 BKN240 03/02 A2990 RMK AC1AC5CI0 SLP154 SLP154
CYEG;2003-10-21 17:00;METAR CYEG 211700Z 00000KT 15SM SCT190 BKN240 07/05 A2992 RMK AC2CI1 SLP160
CYEG;2003-10-21 18:00;METAR CYEG 211800Z 36002KT 15SM SCT190 BKN240 09/07 A2995 RMK AC2CI1 SLP161
CYEG;2003-10-21 19:00;METAR CYEG 211900Z 32002KT 15SM FEW190 SCT240 12/07 A2996 RMK AC2CI1 SLP165
CYEG;2003-10-21 20:00;METAR CYEG 212000Z 29005KT 15SM FEW190 SCT240 17/07 A2998 RMK AC1CI2 SLP171
CYEG;2003-10-21 21:00;METAR CYEG 212100Z 35009KT 15SM FEW190 SCT240 19/05 A2999 RMK AC1CI2 SLP170
CYEG;2003-10-21 22:00;METAR CYEG 212200Z 34011KT 15SM FEW065 FEW190 SCT230 19/02 A3000 RMK CF1AC1CI2 TR CF SLP175 CF SLP175
CYEG;2003-10-21 23:00;METAR CYEG 212300Z 33009KT 15SM FEW065 FEW190 SCT230 18/01 A3003 RMK CF1AC2CI0 TR CF SLP185 CF SLP185
CYEG;2003-10-22 00:00;METAR CYEG 220000Z 33008KT 15SM FEW065 BKN190 BKN250 16/M00 A3004 RMK CF1AC6CI0 SLP193 SLP193
CYEG;2003-10-22 01:00;METAR CYEG 220100Z 31003KT 15SM FEW120 BKN190 11/M01 A3007 RMK AC2AC3 SLP202
CYEG;2003-10-22 02:00;METAR CYEG 220200Z 00000KT 15SM FEW120 FEW180 BKN210 10/M00 A3009 RMK AC1AC1CI2 SLP208 SLP208
CYEG;2003-10-22 03:00;METAR CYEG 220300Z 30005KT 15SM FEW180 FEW240 08/M01 A3010 RMK AC1CI1 TR AC SLP221
CYEG;2003-10-22 04:00;METAR CYEG 220400Z 26002KT 15SM FEW140 SCT240 03/M03 A3012 RMK AC1CI1 SLP225
CYEG;2003-10-22 05:00;METAR CYEG 220500Z 29004KT 15SM FEW140 FEW240 05/M03 A3014 RMK AC1CI1 SLP231
CYEG;2003-10-22 06:00;METAR CYEG 220600Z 27003KT 15SM FEW120 FEW240 03/M03 A3016 RMK AC1CI1 SLP236
CYEG;2003-10-22 07:00;METAR CYEG 220700Z 26003KT 15SM FEW120 FEW240 04/M03 A3018 RMK AC1CI2 SLP242
CYEG;2003-10-22 08:00;METAR CYEG 220800Z 08002KT 15SM BKN100 03/M00 A3019 RMK AC7 AC INVDG SLP245
CYEG;2003-10-22 09:00;METAR CYEG 220900Z 20003KT 15SM BKN097 03/M00 A3019 RMK AC7 SLP239
CYEG;2003-10-22 10:00;METAR CYEG 221000Z 19005KT 15SM OVC085 05/M00 A3019 RMK AC8 SLP239
CYEG;2003-10-22 11:00;METAR CYEG 221100Z 19003KT 15SM OVC080 05/01 A3018 RMK AC8 SLP235
CYEG;2003-10-22 12:00;METAR CYEG 221200Z 18004KT 15SM BKN080 BKN110 06/M00 A3018 RMK AC5AC2 SLP235
CYEG;2003-10-22 13:00;METAR CYEG 221300Z 15006KT 15SM FEW080 BKN100 BKN250 04/M02 A3017 RMK AC1AC3CI1 SLP231
CYEG;2003-10-22 14:00;METAR CYEG 221400Z 12008KT 15SM FEW080 FEW100 BKN250 00/M03 A3015 RMK AC1AC2CI2 SLP226 SLP226
CYEG;2003-10-22 16:00;METAR CYEG 221600Z 13011KT 15SM FEW100 SCT180 OVC270 08/M02 A3012 RMK AC1AS2CI5 SLP222 SLP222
CYEG;2003-10-22 17:00;METAR CYEG 221700Z 13011KT 15SM FEW100 SCT180 OVC270 10/M02 A3010 RMK AC1AS2CI4 SLP217 SLP217
CYEG;2003-10-22 18:00;METAR CYEG 221800Z 13011KT 15SM FEW100 SCT190 BKN270 11/M02 A3007 RMK AC1AS2CI4 SLP205 SLP205
CYEG;2003-10-22 19:00;METAR CYEG 221900Z 13016KT 15SM FEW100 BKN190 BKN270 12/M01 A3001 RMK AC1AS2CI3 PRESFR SLP185 PRESFR SLP185
CYEG;2003-10-22 20:00;METAR CYEG 222000Z 13016G22KT 15SM FEW090 BKN180 BKN270 13/M03 A2998 RMK AC1AS2CI3 SLP175
CYEG;2003-10-22 21:00;METAR CYEG 222100Z 14016G21KT 15SM FEW090 BKN180 BKN270 13/M02 A2994 RMK AC1AS2CI3 SLP155
CYEG;2003-10-22 22:00;METAR CYEG 222200Z 13017KT 15SM FEW090 BKN180 BKN270 13/M02 A2990 RMK AC1AS3CI3 TR AC SLP145 TR AC SLP145
CYEG;2003-10-22 23:00;METAR CYEG 222300Z 13013KT 15SM FEW090 BKN180 BKN270 13/M02 A2988 RMK AC1AS5CI2 TR AC SLP137 TR AC SLP137
CYEG;2003-10-23 00:00;METAR CYEG 230000Z 12013KT 15SM FEW090 BKN190 BKN270 11/M02 A2985 RMK AC1AS4CI2 SLP124 SLP124
CYEG;2003-10-23 01:00;METAR CYEG 230100Z 13010KT 15SM FEW140 BKN190 11/M02 A2982 RMK AC1AS6 SLP114
CYEG;2003-10-23 02:00;METAR CYEG 230200Z 13015G20KT 15SM BKN180 12/M03 A2978 RMK AS7 SLP104
CYEG;2003-10-23 03:00;METAR CYEG 230300Z 13014G21KT 15SM BKN180 OVC220 11/M03 A2976 RMK AS6CS2 SLP094
CYEG;2003-10-23 04:00;METAR CYEG 230400Z 13018KT 15SM BKN180 OVC220 10/M03 A2971 RMK AS6CS2 SLP081
CYEG;2003-10-23 05:00;METAR CYEG 230500Z 13020G26KT 15SM BKN170 OVC220 10/M04 A2967 RMK AS6CS2 SLP066 G TO 26 PST HR SLP053
CYEG;2003-10-23 07:00;METAR CYEG 230700Z 13010G17KT 15SM BKN170 OVC230 09/M03 A2962 RMK AS5CS2 SLP043
CYEG;2003-10-23 08:00;METAR CYEG 230800Z 11008KT 15SM SCT170 BKN240 07/M03 A2959 RMK AC4CS2 SLP035
CYEG;2003-10-23 09:00;METAR CYEG 230900Z 13007KT 15SM FEW090 SCT170 OVC240 06/M03 A2957 RMK AC1AC4CS2 TR LWR AC SLP028 TR LWR AC SLP028
CYEG;2003-10-23 10:00;METAR CYEG 231000Z 16007KT 15SM FEW090 SCT140 BKN240 06/M02 A2954 RMK AC1AC2CI3 SLP018 SLP018
CYEG;2003-10-23 11:00;METAR CYEG 231100Z 16002KT 15SM BKN140 BKN240 06/M02 A2953 RMK AC5CI1 SLP014
CYEG;2003-10-23 12:00;METAR CYEG 231200Z 33007KT 15SM -SHRA FEW088 BKN110 OVC240 05/M01 A2957 RMK AC2AC4CI2 SLP027
CYEG;2003-10-23 13:00;METAR CYEG 231300Z 31009KT 15SM -SHRA BKN087 OVC110 05/02 A2961 RMK AC5AC3 SLP041
CYEG;2003-10-23 14:00;METAR CYEG 231400Z 30018G24KT 10SM -RA BKN043 OVC060 05/03 A2966 RMK SC6SC2 SLP058
CYEG;2003-10-23 15:00;METAR CYEG 231500Z 32021G29KT 8SM RA SCT012 OVC036 06/04 A2968 RMK CF2NS6 BR RERA SLP066
CYEG;2003-10-23 16:00;METAR CYEG 231600Z 32015G20KT 10SM -RA SCT022 OVC032 06/04 A2970 RMK SC2NS6 RERA SLP074 SLP074
CYEG;2003-10-23 17:00;METAR CYEG 231700Z 31012G22KT 15SM VCSH FEW032 OVC052 07/03 A2971 RMK SC2SC6 PCPN E SLP075 E SLP075
CYEG;2003-10-23 18:00;METAR CYEG 231800Z 30015G24KT 15SM SCT070 OVC110 08/02 A2972 RMK AC3AS5 VIRGA ALQDS SLP081 ALQDS SLP081
CYEG;2003-10-23 19:00;METAR CYEG 231900Z 29014G24KT 15SM BKN110 OVC240 08/02 A2974 RMK AS6CI1 VIRGA OVRHD + E QUAD SLP086 OVRHD + E QUAD SLP086
CYEG;2003-10-23 20:00;METAR CYEG 232000Z 30018G29KT 15SM FEW042 BKN150 BKN240 09/M01 A2975 RMK CF1AS4CI2 TR CF VIRGA NE SLP090
CYEG;2003-10-23 21:00;METAR CYEG 232100Z 30019G38KT 15SM FEW050 FEW200 BKN270 10/M03 A2977 RMK CF1CI2CI1 TCU TPS DIST W SLP101
CYEG;2003-10-23 22:00;METAR CYEG 232200Z 31019G27KT 15SM FEW055 SCT200 BKN270 11/M03 A2978 RMK CU1CI2CI1 CB TPS DIST SW SLP104
CYEG;2003-10-23 23:00;METAR CYEG 232300Z 30021G27KT 15SM FEW060 FEW200 SCT270 11/M04 A2981 RMK CU1CI1CI1 CB TPS DIST S-SW-W SLP111
CYEG;2003-10-24 00:00;METAR CYEG 240000Z 30024G29KT 15SM FEW070 FEW180 SCT270 09/M04 A2984 RMK CU1AS1CI0 SLP123
CYEG;2003-10-24 01:00;METAR CYEG 240100Z 31024G41KT 15SM FEW070 BKN095 BKN200 08/M04 A2988 RMK CU2AC2CI0 TCU/SH/VIRGA ASOCTD S-SW SLP135
CYEG;2003-10-24 02:00;METAR CYEG 240200Z 30016G26KT 15SM FEW093 SCT120 BKN150 07/M04 A2989 RMK AC2AC2AC2 VIRGA SLP140
CYEG;2003-10-24 03:00;METAR CYEG 240300Z 29009KT 15SM SCT079 BKN120 06/M03 A2991 RMK AC4AC3 SLP151 SLP157
CYEG;2003-10-24 05:00;METAR CYEG 240500Z 31008KT 15SM BKN059 OVC100 06/M02 A2995 RMK SC5AC3 VIRGA SLP163
CYEG;2003-10-24 06:00;METAR CYEG 240600Z 30010KT 15SM BKN057 OVC100 06/M03 A2996 RMK SC6AC2 VIRGA SLP167
CYEG;2003-10-24 07:00;METAR CYEG 240700Z 31020G39KT 15SM BKN052 OVC076 07/M03 A2999 RMK SC6AC2 VIRGA SLP174 SLP174
CYEG;2003-10-24 08:00;METAR CYEG 240800Z 30016G22KT 15SM SCT050 BKN083 06/M02 A3000 RMK SC4AC3 VIRGA SLP179 SLP179
CYEG;2003-10-24 09:00;METAR CYEG 240900Z 31018G24KT 15SM BKN051 BKN085 06/M02 A3001 RMK SC6AC2 VIRGA SLP183 SLP183
CYEG;2003-10-24 10:00;METAR CYEG 241000Z 29011G17KT 15SM BKN053 BKN150 05/M03 A3001 RMK SC6AC1
CYEG;2003-10-24 11:00;METAR CYEG 241100Z 30020G26KT 15SM FEW055 SCT150 05/M05 A3002 RMK SC2AC2 SLP185
CYEG;2003-10-24 12:00;METAR CYEG 241200Z 30017G24KT 15SM FEW055 FEW087 05/M05 A3003 RMK SC1AC2 SLP191
CYEG;2003-10-24 13:00;METAR CYEG 241300Z 30016G22KT 15SM SCT087 04/M05 A3005 RMK AC3 SLP196
CYEG;2003-10-24 14:00;METAR CYEG 241400Z 30018G25KT 15SM FEW055 BKN090 05/M05 A3006 RMK SC1AC6 SLP199
CYEG;2003-10-24 15:00;METAR CYEG 241500Z 30022G30KT 15SM FEW040 FEW055 SCT090 BKN100 05/M05 A3007 RMK CU1SC1AC3AC3 TR CU SLP207 CU1SC1AC3AC3 TR CU SLP207
CYEG;2003-10-24 16:00;METAR CYEG 241600Z 31021G29KT 15SM -SHSN BKN046 BKN100 05/M05 A3011 RMK SC6AC1 TCU ASOCTD SLP218 TCU ASOCTD SLP218
CYEG;2003-10-24 17:00;METAR CYEG 241700Z 32018G32KT 15SM -SHSN BKN042 BKN066 BKN100 05/M04 A3014 RMK SC5AC2AC1 TCU ASOCTD SLP228 SC5AC2AC1 TCU ASOCTD SLP228
CYEG;2003-10-24 18:00;METAR CYEG 241800Z 32024G31KT 15SM -SHSN BKN035 04/M03 A3018 RMK SC7 TCU ASOCTD PRESRR G35 PST HR SLP246 PRESRR G35 PST HR SLP246
CYEG;2003-10-24 20:00;METAR CYEG 242000Z 35012KT 15SM FEW020 BKN031 03/M01 A3025 RMK CF1SC6 SLP267
CYEG;2003-10-24 21:00;METAR CYEG 242100Z 35014KT 15SM FEW020 BKN039 03/M02 A3027 RMK CF1SC7 TR CF SLP277
CYEG;2003-10-24 22:00;METAR CYEG 242200Z 36014KT 15SM BKN046 BKN250 04/M02 A3029 RMK SC4CI1 SLP283
CYEG;2003-10-24 23:00;METAR CYEG 242300Z 35011KT 15SM FEW046 FEW120 SCT250 03/M02 A3031 RMK SC1AC1CI2 SLP290 SLP290
CYEG;2003-10-25 00:00;METAR CYEG 250000Z 36009KT 15SM FEW046 BKN250 02/M02 A3033 RMK SC1CI2 SLP301
CYEG;2003-10-25 01:00;METAR CYEG 250100Z 34004KT 15SM FEW046 BKN250 M00/M03 A3036 RMK SC1CI1 SLP309
CYEG;2003-10-25 02:00;METAR CYEG 250200Z 25004KT 15SM FEW250 M04/M05 A3036 RMK CI0 SLP309
CYEG;2003-10-25 03:00;METAR CYEG 250300Z 18003KT 15SM FEW250 M05/M06 A3037 RMK CI0 FROIN SLP318
CYEG;2003-10-25 04:00;METAR CYEG 250400Z 18005KT 15SM FEW250 M04/M06 A3037 RMK CI0 SLP320
CYEG;2003-10-25 05:00;METAR CYEG 250500Z 17006KT 15SM BKN240 M03/M04 A3038 RMK CI2 FROIN SLP321
CYEG;2003-10-25 07:00;METAR CYEG 250700Z 18007KT 15SM SCT240 M03/M05 A3036 RMK CI1 SLP317
CYEG;2003-10-25 08:00;METAR CYEG 250800Z 21007KT 15SM FEW230 M04/M05 A3036 RMK CI0 SLP316
CYEG;2003-10-25 09:00;METAR CYEG 250900Z 18007KT 15SM BKN220 M03/M04 A3035 RMK CI2 FROIN SLP312
CYEG;2003-10-25 10:00;METAR CYEG 251000Z 19005KT 15SM BKN210 M03/M04 A3034 RMK CI2 SLP308
CYEG;2003-10-25 11:00;METAR CYEG 251100Z 18006KT 15SM BKN210 M03/M04 A3032 RMK CI2 SLP303
CYEG;2003-10-25 12:00;METAR CYEG 251200Z 18008KT 15SM FEW210 M03/M04 A3030 RMK CI0 SLP295
CYEG;2003-10-25 13:00;METAR CYEG 251300Z 18007KT 15SM BKN160 BKN210 M02/M04 A3027 RMK AS4CI1 FROIN SLP288 SLP288
CYEG;2003-10-25 14:00;METAR CYEG 251400Z 20006KT 15SM BKN160 BKN210 M01/M04 A3026 RMK AS5CI2 SLP282
CYEG;2003-10-25 15:00;METAR CYEG 251500Z 21006KT 15SM FEW080 BKN120 BKN210 00/M04 A3024 RMK AC1AS6CI1 TR AC SLP279 TR AC SLP279
CYEG;2003-10-25 16:00;METAR CYEG 251600Z 18005KT 15SM FEW080 BKN110 OVC210 01/M02 A3023 RMK AC1AS7CI1 TR AC SLP276 TR AC SLP276
CYEG;2003-10-25 17:00;METAR CYEG 251700Z 20005KT 15SM -RA OVC070 03/M01 A3022 RMK AS8 SLP272
CYEG;2003-10-25 18:00;METAR CYEG 251800Z 24005KT 15SM BKN055 OVC070 06/00 A3021 RMK SC6AS2 SLP261
CYEG;2003-10-25 19:00;METAR CYEG 251900Z 25007KT 15SM -RA FEW045 BKN056 OVC080 08/03 A3019 RMK SC2SC6AS1 SLP256
CYEG;2003-10-25 21:00;METAR CYEG 252100Z 20005KT 12SM -RA BKN052 BKN120 OVC250 07/06 A3013 RMK SC6AC1CI1 BR SLP233
CYEG;2003-10-25 22:00;METAR CYEG 252200Z 21007KT 15SM BKN058 BKN080 OVC250 09/08 A3012 RMK SC5AC2CI1 SLP229 SLP229
CYEG;2003-10-25 23:00;METAR CYEG 252300Z 24003KT 15SM FEW060 BKN099 OVC250 10/08 A3011 RMK SC1AC6CI1 SLP225 SLP225
CYEG;2003-10-26 01:00;METAR CYEG 260100Z 24005KT 15SM BKN100 BKN140 BKN250 09/07 A3009 RMK AC5AC2CI1 SLP217 SLP217
CYEG;2003-10-26 02:00;METAR CYEG 260200Z 26006KT 15SM BKN095 BKN250 09/07 A3008 RMK AC6CI1 SLP215
CYEG;2003-10-26 03:00;METAR CYEG 260300Z 26005KT 15SM FEW077 BKN160 OVC220 07/05 A3007 RMK AC2AC3CI2 SLP210 SLP210
CYEG;2003-10-26 04:00;METAR CYEG 260400Z 29005KT 15SM BKN085 OVC160 11/07 A3008 RMK AC7AC1 SLP213
CYEG;2003-10-26 05:00;METAR CYEG 260500Z 29006KT 15SM FEW067 BKN085 OVC220 10/07 A3011 RMK AC2AC5CI1 SLP221 SLP221
CYEG;2003-10-26 06:00;METAR CYEG 260600Z 30007KT 15SM OVC056 11/07 A3012 RMK SC8 SLP216
CYEG;2003-10-26 07:00;METAR CYEG 260700Z 31006KT 15SM OVC054 11/07 A3014 RMK SC8 VIRGA SLP222
CYEG;2003-10-26 08:00;METAR CYEG 260800Z 29007KT 15SM OVC055 12/07 A3015 RMK SC8 VIRGA SLP225
CYEG;2003-10-26 09:00;METAR CYEG 260900Z 27005KT 15SM OVC056 10/07 A3015 RMK SC8 VIRGA SLP227
CYEG;2003-10-26 10:00;METAR CYEG 261000Z 27005KT 15SM OVC062 11/07 A3015 RMK SC8 VIRGA SLP228
CYEG;2003-10-26 11:00;METAR CYEG 261100Z 28005KT 15SM OVC063 11/07 A3016 RMK SC8 VIRGA SLP229
CYEG;2003-10-26 12:00;METAR CYEG 261200Z 27005KT 15SM BKN064 10/07 A3015 RMK SC7 SLP229
CYEG;2003-10-26 13:00;METAR CYEG 261300Z 22004KT 15SM BKN064 BKN240 08/06 A3014 RMK SC5CI1 SLP224
CYEG;2003-10-26 14:00;METAR CYEG 261400Z 22005KT 15SM FEW064 BKN240 06/04 A3013 RMK SC1CI3 SLP222
CYEG;2003-10-26 15:00;METAR CYEG 261500Z CCA 21006KT 15SM SCT064 BKN080 BKN240 08/05 A3011 RMK
CYEG;2003-10-26 16:00;METAR CYEG 261600Z 20006KT 15SM BKN071 10/07 A3009 RMK AC7 VIRGA SLP212
CYEG;2003-10-26 17:00;METAR CYEG 261700Z 19007G19KT 15SM -SHRA OVC078 12/08 A3006 RMK AC8 ACC ASOCTD SLP202 SLP202
CYEG;2003-10-26 18:00;METAR CYEG 261800Z 23005KT 15SM BKN083 OVC110 13/08 A3006 RMK AC6AC2 VIRGA/SHRA ALQDS SLP190 ALQDS SLP190
CYEG;2003-10-26 19:00;METAR CYEG 261900Z 18005KT 15SM OVC092 13/08 A3000 RMK AC8 VIRGA SHRA ALQDS SLP173
CYEG;2003-10-26 20:00;METAR CYEG 262000Z 21006KT 15SM SCT090 BKN120 OVC250 14/08 A2995 RMK AC3AC4CI1 VIRGA SLP157 VIRGA SLP157
CYEG;2003-10-26 21:00;METAR CYEG 262100Z 23007KT 15SM FEW090 BKN130 OVC250 16/08 A2993 RMK AC2AC3CI2 VIRGA SE-SW SLP143 VIRGA SE-SW SLP143
CYEG;2003-10-26 22:00;METAR CYEG 262200Z 23006KT 15SM FEW090 SCT130 OVC240 16/08 A2989 RMK AC2AC2CI3 VIRGA ALQDS SLP133 VIRGA ALQDS SLP133
CYEG;2003-10-26 23:00;METAR CYEG 262300Z 26012KT 15SM BKN120 OVC240 17/05 A2987 RMK AC6CI2 VIRGA SE-S-SW SLP126
CYEG;2003-10-27 00:00;METAR CYEG 270000Z 26009KT 15SM FEW080 BKN120 OVC240 15/05 A2984 RMK AC1AC5CI2 VIRGA SE-S SLP116 VIRGA SE-S SLP116
CYEG;2003-10-27 01:00;METAR CYEG 270100Z 26010KT 15SM FEW080 BKN120 OVC240 15/04 A2982 RMK AC1AC6CI0 VIRGA SLP107 VIRGA SLP107
CYEG;2003-10-27 02:00;METAR CYEG 270200Z 26015KT 15SM BKN150 OVC250 16/02 A2978 RMK AC6CI2 SLP095
CYEG;2003-10-27 03:00;METAR CYEG 270300Z 27014KT 15SM BKN150 OVC250 15/02 A2977 RMK AC3CI4 SLP091
CYEG;2003-10-27 04:00;METAR CYEG 270400Z 30019G27KT 15SM BKN140 OVC250 17/02 A2977 RMK AC3CI2
CYEG;2003-10-27 05:00;METAR CYEG 270500Z 31020G31KT 15SM SCT140 OVC250 17/02 A2976 RMK AC2CI4 PK G35 PST HR SLP087 PST HR SLP087
CYEG;2003-10-27 06:00;METAR CYEG 270600Z 32014G19KT 15SM FEW090 BKN140 OVC250 16/01 A2975 RMK AC1AC4CI2 SLP080 SLP080
CYEG;2003-10-27 07:00;METAR CYEG 270700Z 32012G17KT 15SM BKN090 BKN140 OVC250 15/01 A2975 RMK AC6AC2CI1 SLP080
CYEG;2003-10-27 08:00;METAR CYEG 270800Z 30018G30KT 15SM FEW090 BKN140 OVC250 15/03 A2974 RMK AC2AC3CI1 PK G38 PST HR SLP078 PK G38 PST HR SLP078
CYEG;2003-10-27 09:00;METAR CYEG 270900Z 32010G15KT 15SM BKN076 OVC220 13/03 A2975 RMK AC5CI2 SLP081
CYEG;2003-10-27 10:00;METAR CYEG 271000Z 32014G21KT 15SM BKN075 OVC240 12/03 A2977 RMK AC3CI2 VIRGA N SLP087 SLP087
CYEG;2003-10-27 11:00;METAR CYEG 271100Z 32014G25KT 15SM BKN066 BKN250 12/01 A2979 RMK AC4CI1 SLP093
CYEG;2003-10-27 12:00;METAR CYEG 271200Z 31017G29KT 15SM BKN076 OVC250 12/M00 A2981 RMK AC6CI2 SLP102
CYEG;2003-10-27 13:00;METAR CYEG 271300Z 31019G29KT 15SM FEW070 BKN250 11/00 A2982 RMK AC2CI1 SLP104
CYEG;2003-10-27 14:00;METAR CYEG 271400Z 35016G22KT 15SM SCT055 BKN150 BKN250 07/03 A2986 RMK SC4AS1CI0 VIRGA N-NE-E SLP119 VIRGA N-NE-E SLP119
CYEG;2003-10-27 15:00;METAR CYEG 271500Z 31019G26KT 15SM FEW060 SCT140 SCT250 09/M00 A2986 RMK SC1AC2CI0 VIRGA N SLP123
CYEG;2003-10-27 16:00;METAR CYEG 271600Z 31021G27KT 15SM FEW065 BKN087 BKN250 09/M00 A2989 RMK SC2AC4CI0 VIRGA W-S-SE SLP132
CYEG;2003-10-27 17:00;METAR CYEG 271700Z 32016G24KT 15SM FEW060 SCT088 BKN130 BKN250 09/M00 A2992 RMK SC1AC3AC2CI1 VIRGA W S-SE SLP142 SC1AC3AC2CI1 VIRGA W S-SE SLP142
CYEG;2003-10-27 18:00;METAR CYEG 271800Z 31017G22KT 15SM FEW035 FEW090 SCT150 SCT250 09/01 A2994 RMK CU1AC1AC2CI0 SLP149 CU1AC1AC2CI0 SLP149
CYEG;2003-10-27 19:00;METAR CYEG 271900Z 31016G22KT 15SM FEW040 FEW090 SCT250 10/00 A2994 RMK CU2AC1CI0 SLP148 SLP148
CYEG;2003-10-27 20:00;METAR CYEG 272000Z 30022KT 15SM FEW040 FEW100 SCT250 10/M00 A2993 RMK CU2AC1CI0 SLP147 SLP147
CYEG;2003-10-27 21:00;METAR CYEG 272100Z 32015G22KT 15SM FEW050 SCT220 11/M01 A2993 RMK CU2CI1 FEW TCU ASOCTD NE SLP148 ASOCTD NE SLP148
CYEG;2003-10-27 22:00;METAR CYEG 272200Z 32018KT 15SM FEW050 FEW220 11/M01 A2994 RMK CU2CI1 FEW TCU ASOCTD NE SLP150 ASOCTD NE SLP150
CYEG;2003-10-27 23:00;METAR CYEG 272300Z 33018G24KT 15SM FEW060 FEW220 10/M03 A2995 RMK SC2CI1 SLP152
CYEG;2003-10-28 00:00;METAR CYEG 280000Z 32014G19KT 15SM FEW060 FEW240 09/M03 A2996 RMK SC1CI1 SLP158
CYEG;2003-10-28 01:00;METAR CYEG 280100Z 30007KT 15SM FEW060 FEW085 FEW240 06/M03 A2995 RMK SC1AC1CI1 TR CI SLP157 TR CI SLP157
CYEG;2003-10-28 02:00;METAR CYEG 280200Z 29008KT 15SM FEW060 FEW090 04/M04 A2996 RMK SC1AC2 TR SC
CYEG;2003-10-28 03:00;METAR CYEG 280300Z 28004KT 15SM FEW090 FEW250 03/M04 A2995 RMK AC1CI1 TR AC SLP163
CYEG;2003-10-28 04:00;METAR CYEG 280400Z 27007KT 15SM FEW063 SCT090 M00/M04 A2994 RMK SC2AC2 SLP161
CYEG;2003-10-28 05:00;METAR CYEG 280500Z 26008KT 15SM FEW063 BKN090 M00/M04 A2994 RMK SC2AC2 SLP160
CYEG;2003-10-28 06:00;METAR CYEG 280600Z 25004KT 15SM BKN090 01/M02 A2993 RMK AC3 SLP160
CYEG;2003-10-28 07:00;METAR CYEG 280700Z 19003KT 15SM FEW060 BKN090 BKN210 M02/M04 A2992 RMK SC2AC2CI1 SLP155 SLP155
CYEG;2003-10-28 08:00;METAR CYEG 280800Z 00000KT 15SM FEW055 BKN080 BKN180 01/M02 A2990 RMK SC2AC2AS1 SH/VIRGA E SLP151 SH/VIRGA E SLP151
CYEG;2003-10-28 09:00;METAR CYEG 280900Z 00000KT 15SM FEW055 SCT090 OVC180 01/M02 A2990 RMK SC2AC2AS3 SLP149 SLP149
CYEG;2003-10-28 10:00;METAR CYEG 281000Z 20002KT 15SM FEW050 BKN160 OVC210 M02/M04 A2988 RMK SC1AS6CS1 SLP140 SLP140
CYEG;2003-10-28 11:00;METAR CYEG 281100Z 13003KT 15SM OVC150 M02/M03 A2984 RMK AS8 SLP128
CYEG;2003-10-28 12:00;METAR CYEG 281200Z 00000KT 15SM OVC120 M02/M03 A2982 RMK AS8 SLP122
CYEG;2003-10-28 13:00;METAR CYEG 281300Z 17002KT 15SM OVC095 M01/M02 A2978 RMK AS8 SLP112
CYEG;2003-10-28 14:00;METAR CYEG 281400Z 14002KT 15SM BKN078 BKN210 M00/M02 A2974 RMK AS6CS1 SLP098
CYEG;2003-10-28 15:00;METAR CYEG 281500Z 14005KT 15SM FEW020 BKN070 01/M01 A2970 RMK SC1AS6 VIRGA SLP086
CYEG;2003-10-28 16:00;METAR CYEG 281600Z 07004KT 15SM FEW030 BKN070 OVC200 02/M01 A2968 RMK SC2AS6CS0 VIRGA SLP079 VIRGA SLP079
CYEG;2003-10-28 17:00;METAR CYEG 281700Z 13012KT 6SM -SN SCT015 OVC028 02/M01 A2964 RMK SC3SC5 VIS HIER W SLP066 W SLP066
CYEG;2003-10-28 18:00;METAR CYEG 281800Z 12011KT 2SM -SN SCT007 OVC020 01/M00 A2960 RMK SF3SC5 SLP052
CYEG;2003-10-28 19:00;METAR CYEG 281900Z 11012KT 2SM -SN SCT007 BKN017 OVC020 01/00 A2956 RMK SF3SC3SC2 SLP039 SLP039
CYEG;2003-10-28 20:00;METAR CYEG 282000Z 09015KT 2SM -SN BKN006 OVC014 01/M00 A2951 RMK SF5SC3 SLP024
CYEG;2003-10-28 21:00;METAR CYEG 282100Z 11014KT 1SM R30/P6000FT -SN BKN008 OVC017 01/M00 A2948 RMK SF7SC1 SLP011 SF7SC1 SLP011
CYEG;2003-10-28 22:00;METAR CYEG 282200Z 09017KT 5SM -SN BKN007 BKN018 OVC049 01/00 A2946 RMK SF3SC2SC2 SLP004 SLP004
CYEG;2003-10-28 23:00;METAR CYEG 282300Z 08014KT 3SM -SN BKN006 BKN012 OVC020 01/M00 A2946 RMK SF6SC2SC1 SLP006
CYEG;2003-10-29 00:00;METAR CYEG 290000Z 08012KT 1SM R30/5500FT -SN BKN005 OVC012 00/M00 A2947 RMK SF6SC2 SLP009 SF6SC2 SLP009
CYEG;2003-10-29 01:00;METAR CYEG 290100Z 08013KT 2SM -SN FEW003 BKN005 OVC010 00/M00 A2948 RMK SF2SF4SC2 SLP013
CYEG;2003-10-29 02:00;METAR CYEG 290200Z 07017KT 4SM -SN BKN007 BKN011 OVC017 00/M01 A2950 RMK SF4SC3SC1 SLP018
CYEG;2003-10-29 03:00;METAR CYEG 290300Z 07014G24KT 1 3/4SM -SN BKN008 OVC014 M01/M02 A2953 RMK SN2SF5SC2 /S01/ SLP029
CYEG;2003-10-29 04:00;METAR CYEG 290400Z 05016G24KT 1SM R30/5500FT R12/6000FT -SN DRSN BKN008 OVC014 M02/M03 A2956 RMK SN2SF2SC4 /S02/ SLP039 M02/M03 A2956 RMK SN2SF2SC4 /S02/ SLP039
CYEG;2003-10-29 05:00;METAR CYEG 290500Z 05021G26KT 3/4SM R30/4000FT R12/1800FT -SN DRSN BKN007 OVC014 M03/M04 A2960 RMK SN2SF4SC2 /S03/ SLP053 M03/M04 A2960 RMK SN2SF4SC2 /S03/ SLP053
CYEG;2003-10-29 06:00;METAR CYEG 290600Z 05017KT 2SM -SN DRSN BKN008 OVC016 M03/M04 A2965 RMK SN2SF2SC5 /S04/ SLP075 /S04/ SLP075
CYEG;2003-10-29 07:00;METAR CYEG 290700Z 05020KT 12SM -SN DRSN FEW011 OVC017 M03/M05 A2970 RMK SF2SC6 SLP091 SLP091
CYEG;2003-10-29 08:00;METAR CYEG 290800Z 04011KT 15SM -SN OVC013 M03/M05 A2976 RMK SC8 SLP107
CYEG;2003-10-29 09:00;METAR CYEG 290900Z 03013KT 15SM -SN OVC018 M03/M06 A2980 RMK SC8 SLP125
CYEG;2003-10-29 10:00;METAR CYEG 291000Z 02010KT 15SM -SN FEW015 OVC025 M03/M06 A2984 RMK SF2SC6 S- INTMT SLP137 INTMT SLP137
CYEG;2003-10-29 11:00;METAR CYEG 291100Z 36008KT 15SM -SN FEW016 OVC024 M03/M06 A2988 RMK SF2SC6 S- INTMT SLP150 INTMT SLP150
CYEG;2003-10-29 12:00;METAR CYEG 291200Z 01014KT 12SM -SN DRSN SCT013 OVC023 M03/M06 A2992 RMK SF2SC6 S- INTMT /S01/ SLP168 S- INTMT /S01/ SLP168
CYEG;2003-10-29 13:00;METAR CYEG 291300Z 01009KT 15SM -SN SCT016 OVC025 M04/M07 A2996 RMK SF2SC6 S- INTMT SLP179 INTMT SLP179
CYEG;2003-10-29 14:00;METAR CYEG 291400Z 36013KT 12SM -SN BKN016 OVC023 M04/M07 A3000 RMK SF5SC3 SLP192
CYEG;2003-10-29 15:00;METAR CYEG 291500Z 01012KT 15SM SCT016 OVC028 M04/M07 A3004 RMK SF4SC4 SLP212 SLP225
CYEG;2003-10-29 17:00;METAR CYEG 291700Z 02012G18KT 3SM -SN SCT010 BKN015 OVC049 M04/M06 A3011 RMK SF3SC2SC2 SLP232 SF3SC2SC2 SLP232
CYEG;2003-10-29 18:00;METAR CYEG 291800Z 01010KT 3SM -SN SCT013 OVC023 M04/M06 A3014 RMK SC3SC5 /S01/ SLP246 SLP246
CYEG;2003-10-29 19:00;METAR CYEG 291900Z 01013G19KT 5SM R12/6000FT -SN SCT010 BKN015 OVC021 M04/M07 A3016 RMK SF3SC2SC2 SLP252 A3016 RMK SF3SC2SC2 SLP252
CYEG;2003-10-29 20:00;METAR CYEG 292000Z 35012KT 8SM -SN FEW010 SCT018 BKN024 OVC050 M04/M07 A3019 RMK SF2SC2SC4SC1 SLP261 SF2SC2SC4SC1 SLP261
CYEG;2003-10-29 21:00;METAR CYEG 292100Z 36014G21KT 12SM -SN SCT020 OVC028 M04/M07 A3021 RMK SC4SC4 SLP270 SLP270
CYEG;2003-10-29 22:00;METAR CYEG 292200Z 36010KT 12SM -SN SCT022 BKN030 OVC050 M03/M07 A3023 RMK SC3SC4SC1 S- INTMT SLP278
CYEG;2003-10-29 23:00;METAR CYEG 292300Z 34008KT 15SM -SN FEW012 BKN017 OVC030 M03/M06 A3025 RMK SF2SC4SC2 S- INTMT SLP283 RMK SF2SC2SC4 SLP295
CYEG;2003-10-30 01:00;METAR CYEG 300100Z 36009KT 15SM FEW020 BKN030 OVC100 M04/M08 A3031 RMK SC2SC3AC2 INTMT S- SLP305 INTMT S- SLP305
CYEG;2003-10-30 02:00;METAR CYEG 300200Z 35015KT 6SM -SN FEW015 BKN020 OVC030 M05/M08 A3034 RMK SC2SC3SC2 SLP315
CYEG;2003-10-30 03:00;METAR CYEG 300300Z 35011KT 12SM -SN FEW015 BKN020 OVC070 M06/M09 A3036 RMK SC2SC3AC3 SLP326
CYEG;2003-10-30 04:00;METAR CYEG 300400Z 35014G20KT 7SM -SN FEW015 OVC030 M06/M10 A3038 RMK SC2SC6 SLP331 SLP331
CYEG;2003-10-30 05:00;METAR CYEG 300500Z 01012G18KT 15SM -SN FEW015 OVC037 M07/M12 A3040 RMK SC2SC6 G24 PST HR SLP337 PST HR SLP337
CYEG;2003-10-30 06:00;METAR CYEG 300600Z 34007KT 10SM -SN FEW015 OVC037 M07/M10 A3040 RMK SC2SC6 SLP341
CYEG;2003-10-30 07:00;METAR CYEG 300700Z 01014G20KT 3SM R12/2200FT -SN OVC025 M07/M09 A3042 RMK SN3SC5 SLP346 SLP346
CYEG;2003-10-30 08:00;METAR CYEG 300800Z 02015G24KT 15SM -SN BKN034 M09/M13 A3044 RMK SC6 SLP354
CYEG;2003-10-30 09:00;METAR CYEG 300900Z 36010KT 15SM -SN OVC032 M08/M12 A3046 RMK SC8 SLP361
CYEG;2003-10-30 10:00;METAR CYEG 301000Z 35009KT 15SM -SN OVC030 M08/M12 A3046 RMK SC8 SLP363
CYEG;2003-10-30 11:00;METAR CYEG 301100Z 36013G24KT 15SM -SN OVC032 M08/M13 A3047 RMK SC8 SLP366
CYEG;2003-10-30 12:00;METAR CYEG 301200Z 34006KT 15SM -SN OVC036 M08/M11 A3048 RMK SC8 SLP368
CYEG;2003-10-30 13:00;METAR CYEG 301300Z 34006KT 15SM -SN FEW024 OVC036 M08/M11 A3048 RMK SC1SC7 SLP370
CYEG;2003-10-30 14:00;METAR CYEG 301400Z 34011KT 15SM -SN FEW015 OVC042 M08/M11 A3049 RMK SC2SC6 SLP372
CYEG;2003-10-30 15:00;METAR CYEG 301500Z 32009KT 15SM FEW015 OVC040 M08/M12 A3050 RMK SC1SC7 VIRGA SE SLP379
CYEG;2003-10-30 16:00;METAR CYEG 301600Z 34010KT 15SM OVC041 M08/M14 A3051 RMK SC8 SLP381
CYEG;2003-10-30 17:00;METAR CYEG 301700Z 36010KT 15SM OVC046 M08/M13 A3051 RMK SC8 VIRGA SE SLP381
CYEG;2003-10-30 18:00;METAR CYEG 301800Z 35010KT 3SM -SN FEW019 OVC047 M09/M12 A3050 RMK SC2SC6 SLP380
CYEG;2003-10-30 19:00;METAR CYEG 301900Z 35009KT 12SM -SN FEW020 OVC046 M09/M12 A3050 RMK SC2SC6 SLP379
CYEG;2003-10-30 20:00;METAR CYEG 302000Z 34009KT 15SM -SN OVC043 M09/M13 A3048 RMK SC8 SLP374
CYEG;2003-10-30 21:00;METAR CYEG 302100Z 33012KT 1 1/2SM R30/3000FT -SN SCT017 OVC039 M09/M12 A3048 RMK SN2SC2SC4 VSBY W QUAD 3 SLP375 SN2SC2SC4 VSBY W QUAD 3 SLP375
CYEG;2003-10-30 22:00;METAR CYEG 302200Z 32012KT 12SM -SN FEW015 OVC040 M09/M13 A3048 RMK SC1SC7 VIS LWR N-NE SLP376 LWR N-NE SLP376
CYEG;2003-10-30 23:00;METAR CYEG 302300Z 34010KT 4SM -SN OVC031 M10/M13 A3049 RMK SC8 SLP377
CYEG;2003-10-31 00:00;METAR CYEG 310000Z 32008KT 5SM -SN OVC030 M11/M15 A3050 RMK SC8 SLP384
CYEG;2003-10-31 01:00;METAR CYEG 310100Z 34008KT 15SM -SN OVC029 M11/M15 A3050 RMK SC8 SLP383
CYEG;2003-10-31 02:00;METAR CYEG 310200Z 33005KT 15SM -SN OVC031 M11/M15 A3049 RMK SC8 SLP381
CYEG;2003-10-31 03:00;METAR CYEG 310300Z 29006KT 15SM -SN OVC032 M11/M14 A3048 RMK SC8 SLP378
CYEG;2003-10-31 04:00;METAR CYEG 310400Z 30008KT 15SM -SN OVC032 M11/M15 A3048 RMK SC8 SLP377
CYEG;2003-10-31 05:00;METAR CYEG 310500Z 29007KT 15SM -SN OVC032 M11/M15 A3047 RMK SC8 SLP373
CYEG;2003-10-31 06:00;METAR CYEG 310600Z 27006KT 15SM BKN030 M13/M16 A3046 RMK SC6 SLP373
CYEG;2003-10-31 07:00;METAR CYEG 310700Z 24004KT 15SM SCT030 M17/M19 A3044 RMK SC3 SLP367
CYEG;2003-10-31 08:00;METAR CYEG 310800Z 24003KT 15SM FEW030 M18/M20 A3042 RMK SC2 SLP359
CYEG;2003-10-31 09:00;METAR CYEG 310900Z 22004KT 15SM FEW030 M19/M22 A3040 RMK SC2 FROIN SLP356
CYEG;2003-10-31 10:00;METAR CYEG 311000Z 20004KT 15SM FEW030 M19/M23 A3037 RMK SC2 FROIN AURBO SLP348
CYEG;2003-10-31 11:00;METAR CYEG 311100Z 18007KT 15SM FEW250 M20/M23 A3035 RMK CI1 FROIN SLP341
CYEG;2003-10-31 12:00;METAR CYEG 311200Z 18007KT 15SM FEW230 M20/M24 A3032 RMK CI2 FROIN AURBO SLP333
CYEG;2003-10-31 13:00;METAR CYEG 311300Z 19007KT 15SM FEW200 M20/M24 A3030 RMK CI2 FROIN AURBO SLP326
CYEG;2003-10-31 14:00;METAR CYEG 311400Z 19006KT 15SM FEW140 FEW200 M19/M22 A3028 RMK AC1CI1 FROIN SLP319 SLP319
CYEG;2003-10-31 15:00;METAR CYEG 311500Z 20006KT 15SM FEW140 FEW200 BKN250 M18/M21 A3026 RMK AC1CI1CI2 FROIN SLP311 FROIN SLP311
CYEG;2003-10-31 16:00;METAR CYEG 311600Z 18005KT 15SM FEW120 FEW200 BKN250 M16/M19 A3023 RMK AC1CI1CI2 SLP300 SLP300
CYEG;2003-10-31 17:00;METAR CYEG 311700Z 19005KT 15SM FEW120 BKN240 M15/M17 A3020 RMK AC1CI4 TR AC SLP291 SLP291
CYEG;2003-10-31 18:00;METAR CYEG 311800Z 20004KT 15SM FEW160 BKN240 M12/M16 A3017 RMK AC1CI3 SLP276
CYEG;2003-10-31 19:00;METAR CYEG 311900Z 23006KT 15SM FEW160 BKN240 M10/M14 A3015 RMK AC1CI4 SLP268
CYEG;2003-10-31 20:00;METAR CYEG 312000Z 25006KT 15SM FEW095 OVC240 M09/M15 A3011 RMK AS2CS4 SLP255
CYEG;2003-10-31 21:00;METAR CYEG 312100Z 26005KT 15SM FEW090 SCT150 OVC240 M08/M14 A3007 RMK AC1AS2CS3 SLP240 SLP240
CYEG;2003-10-31 22:00;METAR CYEG 312200Z 24005KT 15SM FEW090 SCT140 OVC240 M08/M13 A3004 RMK AC1AS3CS3 SLP231 SLP231
CYEG;2003-10-31 23:00;METAR CYEG 312300Z 26007KT 15SM FEW073 BKN120 OVC220 M07/M11 A3002 RMK AC2AS4CS2 SLP225 SLP225
CYEG;2003-11-01 00:00;METAR CYEG 010000Z 26007KT 15SM SCT070 BKN120 OVC220 M07/M11 A3001 RMK AC3AS3CS2 SLP220 SLP220
CYEG;2003-11-01 01:00;METAR CYEG 010100Z 27008KT 15SM BKN062 OVC120 M06/M08 A2998 RMK SC6AS2 SLP213
CYEG;2003-11-01 02:00;METAR CYEG 010200Z 26009KT 12SM -SN BKN062 OVC090 M06/M08 A2996 RMK SC6AS2 SLP206
CYEG;2003-11-01 03:00;METAR CYEG 010300Z 27011KT 12SM -SN BKN048 OVC140 M06/M07 A2995 RMK SC6AC2 SLP197
CYEG;2003-11-01 04:00;METAR CYEG 010400Z 27008KT 15SM FEW020 FEW048 BKN140 BKN170 M06/M08 A2994 RMK CF1SC2AC4AC2 SLP193 CF1SC2AC4AC2 SLP193
CYEG;2003-11-01 05:00;METAR CYEG 010500Z 28007KT 12SM -SN FEW040 BKN060 OVC090 M05/M07 A2993 RMK SC2SC3AC3 SLP192
CYEG;2003-11-01 06:00;METAR CYEG 010600Z 27006KT 12SM -SN OVC046 M05/M07 A2992 RMK SC8 SLP181
CYEG;2003-11-01 07:00;METAR CYEG 010700Z 27007KT 15SM -SN OVC036 M05/M06 A2990 RMK SC8 SLP175
CYEG;2003-11-01 08:00;METAR CYEG 010800Z 28007KT 15SM -SN OVC035 M04/M06 A2990 RMK SC8 SLP174
CYEG;2003-11-01 09:00;METAR CYEG 010900Z 28007KT 15SM -SN OVC043 M04/M07 A2988 RMK SC8 SLP163
CYEG;2003-11-01 10:00;METAR CYEG 011000Z 29007KT 4SM -SN OVC030 M04/M06 A2988 RMK SC8 SLP162
CYEG;2003-11-01 11:00;METAR CYEG 011100Z 29007KT 5SM -SN OVC030 M04/M06 A2988 RMK SC8 SLP161
CYEG;2003-11-01 12:00;METAR CYEG 011200Z 28006KT 15SM -SN FEW030 OVC044 M04/M05 A2987 RMK SC2SC6 SLP159
CYEG;2003-11-01 13:00;METAR CYEG 011300Z 28008KT 12SM -SN OVC032 M04/M05 A2987 RMK SC8 SLP158
CYEG;2003-11-01 14:00;METAR CYEG 011400Z 29008KT 12SM -SN BKN045 OVC070 M04/M05 A2987 RMK SC7AC1 SLP157
CYEG;2003-11-01 15:00;METAR CYEG 011500Z 29007KT 12SM -SN BKN032 OVC045 M04/M05 A2989 RMK SC6SC2 SLP161
CYEG;2003-11-01 16:00;METAR CYEG 011600Z 27007KT 15SM -SN FEW012 BKN026 OVC045 M03/M05 A2989 RMK CF1SC6SC2 TR CF S- INTMT SLP164
CYEG;2003-11-01 17:00;METAR CYEG 011700Z 28009KT 1 1/4SM R12/6000FT -SN BKN010 OVC025 M03/M04 A2990 RMK SN2SF2SC4 SLP165 SN2SF2SC4 SLP165
CYEG;2003-11-01 18:00;METAR CYEG 011800Z 29009KT 12SM -SN SCT012 OVC035 M03/M04 A2990 RMK CF2SC6 /S01/ SLP165 SLP165
CYEG;2003-11-01 19:00;METAR CYEG 011900Z 31010KT 2SM -SN BKN016 OVC032 M02/M04 A2991 RMK SN2SC3SC3 SLP169 SLP169
CYEG;2003-11-01 20:00;METAR CYEG 012000Z 30010KT 2 1/2SM -SN BKN014 OVC035 M02/M04 A2991 RMK CF6SC2 SLP169
CYEG;2003-11-01 21:00;METAR CYEG 012100Z 30009KT 3SM -SN BKN014 OVC035 M02/M04 A2991 RMK CF6SC2 SLP168
CYEG;2003-11-01 22:00;METAR CYEG 012200Z 31006KT 12SM -SN FEW011 BKN017 BKN075 M02/M04 A2992 RMK CF2SC4AC1 SLP171
CYEG;2003-11-01 23:00;METAR CYEG 012300Z 30007KT 2 1/2SM -SN SCT016 BKN040 OVC073 M02/M04 A2993 RMK CF2SC3AC2 SLP173 CF2SC3AC2 SLP173
CYEG;2003-11-02 00:00;METAR CYEG 020000Z 29009KT 15SM -SN FEW030 BKN050 OVC085 M02/M04 A2994 RMK SC2SC4AS2 SLP176
CYEG;2003-11-02 01:00;METAR CYEG 020100Z 30007KT 10SM -SN FEW022 BKN052 OVC090 M03/M04 A2995 RMK SC2SC3AS2 S- INTMT VIS LWR N-NE SLP181
CYEG;2003-11-02 02:00;METAR CYEG 020200Z 35005KT 12SM -SN FEW008 OVC029 M04/M05 A2998 RMK SF2SC6 SLP189
CYEG;2003-11-02 03:00;METAR CYEG 020300Z 35004KT 5SM -SN FEW008 BKN022 OVC040 M04/M05 A2999 RMK SF2SC5SC2 VSY NE 10 SLP195
CYEG;2003-11-02 04:00;METAR CYEG 020400Z 27004KT 10SM -SN FEW008 BKN023 OVC080 M04/M06 A3000 RMK SF1SC6AC1 S- INTMT SLP198
CYEG;2003-11-02 05:00;METAR CYEG 020500Z 27004KT 10SM -SN FEW007 BKN022 OVC035 M04/M05 A3001 RMK SF2SC6SC1 /S01/ SLP203
CYEG;2003-11-02 06:00;METAR CYEG 020600Z 30002KT 8SM -SN FEW007 OVC026 M04/M05 A3002 RMK SF2SC6 SLP207
CYEG;2003-11-02 07:00;METAR CYEG 020700Z 29002KT 1SM R12/1200FT R02/1200FT BR FEW007 SCT020 BKN100 M09/M10 A3004 RMK FG2SF1SC1AC1 MIFG SLP212 M09/M10 A3004 RMK FG2SF1SC1AC1 MIFG SLP212
CYEG;2003-11-02 08:00;METAR CYEG 020800Z 27003KT 1/2SM R02/1600FT R30/P6000FT FZFG FEW009 SCT017 OVC037 M09/M10 A3005 RMK FG2SF1SC2SC4 FROIN SLP216 M09/M10 A3005 RMK FG2SF1SC2SC4 FROIN SLP216
CYEG;2003-11-02 09:00;METAR CYEG 020900Z 36003KT 12SM -SN SCT004 BKN019 OVC027 M06/M07 A3007 RMK SF4SC3SC1 SLP224
CYEG;2003-11-02 10:00;METAR CYEG 021000Z 00000KT 8SM -SN SCT003 SCT020 OVC054 M07/M08 A3008 RMK SF3SC1SC4 SLP229
CYEG;2003-11-02 11:00;METAR CYEG 021100Z 12009KT 12SM -SN FEW003 BKN007 OVC020 M07/M09 A3009 RMK SF1SF6SC2 SLP232
CYEG;2003-11-02 12:00;METAR CYEG 021200Z 10010KT 8SM -SN FEW008 OVC011 M08/M09 A3011 RMK SF2SC6 SLP239
CYEG;2003-11-02 13:00;METAR CYEG 021300Z 07012KT 3SM -SN OVC014 M10/M11 A3014 RMK SC8 SLP249
CYEG;2003-11-02 14:00;METAR CYEG 021400Z 05009KT 8SM -SN BKN021 OVC070 M10/M12 A3017 RMK SC7AC1 SLP257
CYEG;2003-11-02 15:00;METAR CYEG 021500Z 06006KT 5SM -SN OVC026 M11/M13 A3021 RMK SC8 /S01/ SLP279
CYEG;2003-11-02 16:00;METAR CYEG 021600Z 03006KT 2SM -SN SCT018 OVC032 M11/M13 A3023 RMK SN1SC2SC4 /S02/ SLP286 /S02/ SLP286
CYEG;2003-11-02 17:00;METAR CYEG 021700Z 02005KT 4SM -SN SCT020 OVC045 M11/M13 A3025 RMK SC2SC5 SLP291
CYEG;2003-11-02 18:00;METAR CYEG 021800Z 01004KT 3SM -SN FEW016 BKN044 M11/M13 A3027 RMK SC2SC3 SLP299
CYEG;2003-11-02 19:00;METAR CYEG 021900Z 04003KT 12SM -SN FEW016 FEW045 BKN057 M11/M13 A3027 RMK CF1SC2SC2 TR CF SLP300
CYEG;2003-11-02 20:00;METAR CYEG 022000Z 04004KT 15SM -SN BKN055 M11/M13 A3026 RMK SC3 SLP296
CYEG;2003-11-02 21:00;METAR CYEG 022100Z 02002KT 12SM -SN FEW016 BKN050 M10/M13 A3026 RMK CF1SC6 S- INTMT SLP297 INTMT SLP297
CYEG;2003-11-02 22:00;METAR CYEG 022200Z 11002KT 8SM -SN BKN051 M10/M13 A3025 RMK SC6 SLP294
CYEG;2003-11-02 23:00;METAR CYEG 022300Z 13003KT 15SM -SN FEW018 BKN050 BKN067 M11/M14 A3025 RMK CF1SC5AC1 TR CF SLP293
CYEG;2003-11-03 00:00;METAR CYEG 030000Z 00000KT 15SM FEW018 FEW045 SCT070 M14/M15 A3024 RMK CF1SC1AC2 SLP295 SLP295
CYEG;2003-11-03 01:00;METAR CYEG 030100Z 14006KT 15SM FEW015 SCT066 M17/M20 A3024 RMK SC1AC2 SLP294
CYEG;2003-11-03 02:00;METAR CYEG 030200Z 20003KT 12SM -SN BKN025 OVC040 M17/M19 A3024 RMK SC5SC3 SLP296
CYEG;2003-11-03 03:00;METAR CYEG 030300Z 16005KT 12SM -SN SCT025 OVC037 M13/M15 A3023 RMK SC3SC5
CYEG;2003-11-03 04:00;METAR CYEG 030400Z 16005KT 12SM -SN OVC038 M13/M15 A3023 RMK SC8 SLP295
CYEG;2003-11-03 05:00;METAR CYEG 030500Z 14003KT 12SM -SN OVC037 M13/M15 A3023 RMK SC8 SLP294
CYEG;2003-11-03 06:00;METAR CYEG 030600Z 14003KT 15SM -SN OVC038 M13/M14 A3022 RMK SC8 SLP292
CYEG;2003-11-03 07:00;METAR CYEG 030700Z 17004KT 15SM -SN OVC039 M13/M14 A3021 RMK SC8 SLP289
CYEG;2003-11-03 08:00;METAR CYEG 030800Z 12006KT 15SM -SN OVC040 M13/M14 A3021 RMK SC8 SLP289
CYEG;2003-11-03 09:00;METAR CYEG 030900Z 13004KT 15SM -SN OVC045 M13/M15 A3021 RMK SC8 SLP286
CYEG;2003-11-03 10:00;METAR CYEG 031000Z 11004KT 15SM OVC041 M13/M15 A3020 RMK SC8 SLP283
CYEG;2003-11-03 11:00;METAR CYEG 031100Z 15003KT 12SM -SN OVC040 M13/M15 A3020 RMK SC8 SLP282
CYEG;2003-11-03 12:00;METAR CYEG 031200Z 18002KT 12SM -SN OVC043 M12/M14 A3020 RMK SC8 SLP287
CYEG;2003-11-03 13:00;METAR CYEG 031300Z 18003KT 10SM -SN OVC045 M12/M14 A3021 RMK SC8 SLP289
CYEG;2003-11-03 14:00;METAR CYEG 031400Z 00000KT 10SM -SN BKN035 OVC054 M13/M14 A3021 RMK SC5SC2 SLP291
CYEG;2003-11-03 15:00;METAR CYEG 031500Z 13003KT 10SM -SN BKN034 OVC044 M12/M14 A3022 RMK SC6SC2 SLP293
CYEG;2003-11-03 16:00;METAR CYEG 031600Z 12004KT 6SM -SN BKN033 OVC044 M12/M14 A3023 RMK SC6SC2 SLP297
CYEG;2003-11-03 17:00;METAR CYEG 031700Z 26002KT 2 1/2SM -SN OVC039 M12/M14 A3024 RMK SC7 SLP299
CYEG;2003-11-03 18:00;METAR CYEG 031800Z 26002KT 2 1/2SM -SN OVC040 M11/M14 A3025 RMK SC7 SLP302
CYEG;2003-11-03 19:00;METAR CYEG 031900Z 27003KT 7SM -SN FEW020 OVC038 M11/M13 A3025 RMK SC2SC6 SLP302
CYEG;2003-11-03 20:00;METAR CYEG 032000Z 35003KT 2 1/2SM -SN SCT022 OVC036 M10/M13 A3025 RMK SC2SC5 SLP301 SLP301
CYEG;2003-11-03 21:00;METAR CYEG 032100Z 36005KT 5SM -SN FEW022 OVC036 M10/M13 A3024 RMK SC2SC6 SLP299
CYEG;2003-11-03 22:00;METAR CYEG 032200Z 29006KT 12SM -SN BKN019 OVC032 M10/M14 A3025 RMK SC6SC2 VIS NE-SE 5 SLP301 NE-SE 5 SLP301
CYEG;2003-11-03 23:00;METAR CYEG 032300Z 31006KT 10SM -SN OVC022 M10/M14 A3026 RMK SC8 VIS NE-SE 3 SLP304 SLP304
CYEG;2003-11-04 00:00;METAR CYEG 040000Z 35005KT 12SM -SN BKN025 BKN045 BKN220 M12/M14 A3027 RMK SC3SC1CI0 CLRG FM NW VIS LWR E-SE SLP309
CYEG;2003-11-04 01:00;METAR CYEG 040100Z 00000KT 12SM BKN028 M16/M17 A3028 RMK SC3 SLP313
CYEG;2003-11-04 02:00;METAR CYEG 040200Z 26002KT 15SM FEW028 SCT220 M18/M21 A3030 RMK SC2CI1 SLP317
CYEG;2003-11-04 03:00;METAR CYEG 040300Z 22005KT 8SM VCFG FEW028 FEW050 SCT220 M21/M24 A3029 RMK SC2SC1CI0 SLP323
CYEG;2003-11-04 04:00;METAR CYEG 040400Z 20004KT 8SM VCFG FEW050 SCT220 M20/M24 A3029 RMK SC1CI1 SLP325
CYEG;2003-11-04 05:00;METAR CYEG 040500Z 22004KT 12SM FEW050 SCT220 M21/M25 A3029 RMK SC1CI2 TR SC BR SLP325
CYEG;2003-11-04 06:00;METAR CYEG 040600Z 20005KT 15SM FEW050 BKN220 M19/M23 A3028 RMK SC1CI2 SLP320
CYEG;2003-11-04 07:00;METAR CYEG 040700Z 21003KT 15SM -SN BKN051 OVC220 M18/M21 A3028 RMK SC7CI1 SLP318
CYEG;2003-11-04 08:00;METAR CYEG 040800Z 24004KT 12SM -SN OVC055 M14/M16 A3027 RMK SC8 SLP314
CYEG;2003-11-04 09:00;METAR CYEG 040900Z 24004KT 15SM -SN FEW030 OVC056 M13/M15 A3026 RMK SC1SC8 TR LWR SC SLP303 SC SLP303
CYEG;2003-11-04 10:00;METAR CYEG 041000Z 27005KT 12SM -SN OVC061 M13/M19 A3025 RMK SC8 SLP301
CYEG;2003-11-04 11:00;METAR CYEG 041100Z 27003KT 4SM -SN OVC022 M12/M14 A3024 RMK SC8 SLP299 SLP296
CYEG;2003-11-04 13:00;METAR CYEG 041300Z 29004KT 3SM -SN SCT010 OVC022 M12/M13 A3024 RMK
CYEG;2003-11-04 14:00;METAR CYEG 041400Z 29003KT 3SM -SN SCT011 OVC022 OVC069 M12/M14 A3023 RMK SN2SF2SC3AC2 SLP294
CYEG;2003-11-04 15:00;METAR CYEG 041500Z 28002KT 2SM -SN BKN021 OVC065 M12/M14 A3024 RMK SN2SC2SC3 SLP305 SLP305
CYEG;2003-11-04 16:00;METAR CYEG 041600Z 23003KT 4SM -SN FEW020 OVC067 M12/M14 A3024 RMK SC2AC6
CYEG;2003-11-04 17:00;METAR CYEG 041700Z 27003KT 6SM -SN OVC068 M12/M14 A3023 RMK AC7 SLP304
CYEG;2003-11-04 18:00;METAR CYEG 041800Z 28003KT 8SM -SN FEW035 OVC067 M11/M13 A3023 RMK SC2AC6 SLP300
CYEG;2003-11-04 19:00;METAR CYEG 041900Z 26003KT 6SM -SN FEW035 OVC068 M11/M13 A3021 RMK SC1AC6
CYEG;2003-11-04 20:00;METAR CYEG 042000Z 24003KT 12SM -SN OVC065 M10/M13 A3020 RMK SC7 SLP291
CYEG;2003-11-04 21:00;METAR CYEG 042100Z 25004KT 15SM FEW012 BKN057 M10/M13 A3019 RMK CF1SC7 TR CF SLP279 SLP279
CYEG;2003-11-04 22:00;METAR CYEG 042200Z 24003KT 15SM FEW012 BKN052 M11/M14 A3018 RMK CU1SC6 TR CU SLP277 SLP277
CYEG;2003-11-04 23:00;METAR CYEG 042300Z 24002KT 15SM FEW015 BKN049 M12/M15 A3018 RMK CU1SC6 TR CU SLP276 SLP276
CYEG;2003-11-05 00:00;METAR CYEG 050000Z 18003KT 15SM FEW015 FEW045 M16/M17 A3017 RMK CU1SC2 TR CU SLP278 SLP278
CYEG;2003-11-05 01:00;METAR CYEG 050100Z 18004KT 15SM FEW015 FEW045 M18/M20 A3016 RMK SC1SC1 TR CLD SLP275 SLP275
CYEG;2003-11-05 02:00;METAR CYEG 050200Z 20003KT 15SM FEW015 M23/M27 A3016 RMK SC1 FROIN SLP274
CYEG;2003-11-05 03:00;METAR CYEG 050300Z 18005KT 15SM FEW015 FEW045 M19/M23 A3015 RMK SC1SC1 FROIN TR LWR SC SLP276 LWR SC SLP276
CYEG;2003-11-05 04:00;METAR CYEG 050400Z 18006KT 15SM FEW250 M20/M23 A3014 RMK CI2 SLP270
CYEG;2003-11-05 05:00;METAR CYEG 050500Z 18006KT 15SM FEW180 SCT240 M20/M23 A3012 RMK AS2CI1 CONTRAILS SLP266 SLP266
CYEG;2003-11-05 06:00;METAR CYEG 050600Z 18006KT 15SM BKN210 M20/M24 A3011 RMK CI3 FROIN SLP259
CYEG;2003-11-05 07:00;METAR CYEG 050700Z 20003KT 15SM FEW100 FEW170 BKN210 M21/M25 A3009 RMK AC1AS2CI2 FROIN SLP253 FROIN SLP253
CYEG;2003-11-05 08:00;METAR CYEG 050800Z 18004KT 15SM SCT150 BKN210 M22/M26 A3007 RMK AS2CS2 SLP248
CYEG;2003-11-05 09:00;METAR CYEG 050900Z 22003KT 15SM FEW150 BKN210 M23/M26 A3005 RMK AS2CI3 FROIN SLP242 SLP242
CYEG;2003-11-05 10:00;METAR CYEG 051000Z 19006KT 15SM FEW100 SCT140 BKN210 M20/M24 A3003 RMK AC1AS2CI4 FROIN SLP235 FROIN SLP235
CYEG;2003-11-05 11:00;METAR CYEG 051100Z 24004KT 15SM FEW100 BKN140 BKN210 M20/M23 A3002 RMK AC1AS3CI2 FROIN SLP230 FROIN SLP230
CYEG;2003-11-05 12:00;METAR CYEG 051200Z 26008KT 15SM FEW100 FEW140 BKN210 M16/M19 A3000 RMK AC1AS1CI2 FROIN TR AC SLP222 FROIN TR AC SLP222
CYEG;2003-11-05 13:00;METAR CYEG 051300Z 27008KT 15SM FEW090 BKN220 M15/M18 A3000 RMK AC1CI3 AC SLP222 SLP220
CYEG;2003-11-05 15:00;METAR CYEG 051500Z 28010G15KT 15SM SCT090 OVC220 M13/M15 A3000 RMK AC2CI3 SLP222
CYEG;2003-11-05 16:00;METAR CYEG 051600Z 28005KT 15SM BKN090 OVC220 M11/M14 A3002 RMK AC6CI2 SLP228
CYEG;2003-11-05 17:00;METAR CYEG 051700Z 30011KT 15SM SCT040 BKN080 OVC220 M10/M12 A3003 RMK SC3AC4CI0 SLP232 SLP232
CYEG;2003-11-05 18:00;METAR CYEG 051800Z 31009KT 5SM -SN FEW025 BKN080 OVC220 M08/M11 A3005 RMK SC2AC3CI0 SLP235
CYEG;2003-11-05 19:00;METAR CYEG 051900Z 32011KT 12SM -SN BKN020 BKN080 M08/M12 A3006 RMK SC5AC2 G18 PST HR SLP239 PST HR SLP239
CYEG;2003-11-05 20:00;METAR CYEG 052000Z 32014KT 15SM -SN BKN022 BKN080 M08/M12 A3007 RMK SC5AC1 SLP241
CYEG;2003-11-05 21:00;METAR CYEG 052100Z 32011G17KT 15SM -SN BKN027 OVC080 M08/M12 A3008 RMK SC6AC1 SLP247 SLP247
CYEG;2003-11-05 22:00;METAR CYEG 052200Z 32007KT 15SM -SN BKN027 BKN220 M08/M13 A3008 RMK SC4CI2 SLP249
CYEG;2003-11-05 23:00;METAR CYEG 052300Z 31004KT 15SM FEW027 SCT080 BKN210 M09/M13 A3009 RMK SC1AC2CI1 SLP253 SLP253
CYEG;2003-11-06 00:00;METAR CYEG 060000Z 32004KT 15SM FEW030 FEW080 SCT210 M11/M14 A3010 RMK SC1AC1CI1 TR SC SLP252 TR SC SLP252
CYEG;2003-11-06 01:00;METAR CYEG 060100Z 00000KT 15SM FEW080 FEW210 M16/M18 A3010 RMK AC1CI0 SLP253
CYEG;2003-11-06 02:00;METAR CYEG 060200Z 22002KT 15SM FEW210 M18/M21 A3009 RMK CI0 SLP251
CYEG;2003-11-06 03:00;METAR CYEG 060300Z 23004KT 15SM FEW210 M18/M22 A3009 RMK CI1 CONTRAILS FROIN SLP254 SLP254 SLP251
CYEG;2003-11-06 05:00;METAR CYEG 060500Z 26005KT 15SM -SHSN BKN076 OVC210 M13/M15 A3009 RMK AC6CI2 SLP252 SLP252
CYEG;2003-11-06 06:00;METAR CYEG 060600Z 27005KT 15SM -SN OVC075 M10/M11 A3008 RMK AC8 SLP236
CYEG;2003-11-06 07:00;METAR CYEG 060700Z 27006KT 15SM -SN FEW040 OVC071 M09/M10 A3008 RMK SC1AC6 SLP235
CYEG;2003-11-06 08:00;METAR CYEG 060800Z 26005KT 15SM -SN FEW040 OVC072 M09/M10 A3007 RMK SC1AC7 TR SC SLP232 SLP232
CYEG;2003-11-06 09:00;METAR CYEG 060900Z 27005KT 15SM -SN OVC067 M08/M09 A3006 RMK AC8 SLP228
CYEG;2003-11-06 10:00;METAR CYEG 061000Z 27007KT 15SM -SN OVC067 M07/M10 A3007 RMK AC8 SLP229
CYEG;2003-11-06 11:00;METAR CYEG 061100Z 28006KT 15SM SCT067 BKN250 M09/M11 A3006 RMK AC2CI1 SLP228
CYEG;2003-11-06 12:00;METAR CYEG 061200Z 26006KT 15SM FEW067 BKN210 M10/M12 A3006 RMK AC1CI5 VIRGA N-NE SLP234 SLP234
CYEG;2003-11-06 13:00;METAR CYEG 061300Z 28007KT 15SM FEW067 BKN130 OVC210 M08/M11 A3007 RMK AC1AS6CI1 VIRGA SLP237 VIRGA SLP237 TR SC SLP241
CYEG;2003-11-06 15:00;METAR CYEG 061500Z 28005KT 15SM FEW062 SCT090 OVC210 M08/M12 A3010 RMK SC2AS2CI2 SLP251
CYEG;2003-11-06 16:00;METAR CYEG 061600Z 00000KT 15SM FEW062 SCT090 OVC210 M08/M11 A3012 RMK SC1AS2CI3 SLP257 SLP257
CYEG;2003-11-06 17:00;METAR CYEG 061700Z 29003KT 15SM SCT040 OVC090 M06/M10 A3013 RMK SC4AS4 SLP261
CYEG;2003-11-06 18:00;METAR CYEG 061800Z 29004KT 15SM FEW040 BKN090 OVC210 M05/M10 A3014 RMK SC2AS3CS2 HALO SLP254 HALO SLP254
CYEG;2003-11-06 19:00;METAR CYEG 061900Z 27005KT 15SM FEW040 BKN070 OVC210 M04/M10 A3015 RMK SC2AS3CS2 HALO SLP256 HALO SLP256
CYEG;2003-11-06 20:00;METAR CYEG 062000Z 27005KT 15SM SCT070 OVC210 M04/M10 A3014 RMK AS4CS2 HALO SLP255
CYEG;2003-11-06 21:00;METAR CYEG 062100Z 27005KT 15SM BKN080 OVC210 M04/M10 A3014 RMK AS6CS2
CYEG;2003-11-06 22:00;METAR CYEG 062200Z 29004KT 15SM SCT080 OVC210 M03/M10 A3014 RMK AS3CS1 HALO
CYEG;2003-11-06 23:00;METAR CYEG 062300Z 00000KT 15SM FEW080 OVC210 M04/M10 A3015 RMK AS2CS1 HALO
CYEG;2003-11-07 00:00;METAR CYEG 070000Z 00000KT 15SM FEW080 OVC210 M09/M12 A3015 RMK AC2CS1 SLP260
CYEG;2003-11-07 01:00;METAR CYEG 070100Z 16003KT 15SM SCT080 OVC210 M10/M13 A3015 RMK AS2CS2 SLP261
CYEG;2003-11-07 02:00;METAR CYEG 070200Z 20004KT 15SM FEW080 BKN140 OVC210 M10/M13 A3015 RMK AC2AS2CS2 HALO SLP263 HALO SLP263
CYEG;2003-11-07 03:00;METAR CYEG 070300Z 18006KT 15SM FEW080 BKN120 OVC210 M09/M12 A3016 RMK AC1AS4CS2 SLP264 SLP264
CYEG;2003-11-07 04:00;METAR CYEG 070400Z 17003KT 15SM BKN110 BKN210 M09/M12 A3016 RMK AS5CS2
CYEG;2003-11-07 05:00;METAR CYEG 070500Z 21004KT 15SM SCT089 BKN120 OVC210 M10/M13 A3016 RMK AC3AS2CS2 SLP265 SLP265
CYEG;2003-11-07 06:00;METAR CYEG 070600Z 18006KT 15SM BKN075 OVC210 M09/M12 A3017 RMK AS6CS2 SLP263
CYEG;2003-11-07 07:00;METAR CYEG 070700Z 18005KT 15SM SCT053 BKN075 OVC210 M08/M11 A3016 RMK SC2AS2CS2 SLP261
CYEG;2003-11-07 08:00;METAR CYEG 070800Z 17002KT 15SM FEW053 BKN120 OVC210 M10/M13 A3016 RMK SC1AS3CS4 HALO SLP260 HALO SLP260
CYEG;2003-11-07 09:00;METAR CYEG 070900Z 18004KT 15SM SCT120 BKN230 M12/M14 A3015 RMK AS2CS2 SLP258
CYEG;2003-11-07 10:00;METAR CYEG 071000Z 00000KT 15SM SCT120 BKN230 M12/M14 A3015 RMK AS2CI2 SLP259
CYEG;2003-11-07 11:00;METAR CYEG 071100Z 14006KT 15SM FEW230 M15/M17 A3015 RMK CI1 SLP260
CYEG;2003-11-07 12:00;METAR CYEG 071200Z 20005KT 15SM FEW230 M15/M18 A3015 RMK CI1 SLP265
CYEG;2003-11-07 13:00;METAR CYEG 071300Z 21004KT 15SM SKC M16/M18 A3015 RMK FROIN SLP266
CYEG;2003-11-07 14:00;METAR CYEG 071400Z 19005KT 15SM FEW230 M16/M18 A3015 RMK CI1 FROIN SLP266
CYEG;2003-11-07 15:00;METAR CYEG 071500Z 18003KT 15SM FEW230 M16/M18 A3015 RMK CI1 FROIN SLP267
CYEG;2003-11-07 16:00;METAR CYEG 071600Z 18003KT 15SM SKC M14/M15 A3016 RMK SLP271
CYEG;2003-11-07 17:00;METAR CYEG 071700Z 19003KT 15SM SKC M10/M12 A3015 RMK SLP268
CYEG;2003-11-07 18:00;METAR CYEG 071800Z 19003KT 15SM SKC M08/M11 A3015 RMK SLP258
CYEG;2003-11-07 19:00;METAR CYEG 071900Z 20003KT 15SM SKC M05/M10 A3014 RMK SLP255
CYEG;2003-11-07 20:00;METAR CYEG 072000Z 21002KT 15SM SKC M04/M10 A3012 RMK SLP249
CYEG;2003-11-07 21:00;METAR CYEG 072100Z 16003KT 15SM FEW230 M03/M09 A3011 RMK CI1 TR CI SLP243
CYEG;2003-11-07 22:00;METAR CYEG 072200Z 12005KT 15SM FEW240 M04/M08 A3009 RMK CI0 K ALF N SLP237
CYEG;2003-11-07 23:00;METAR CYEG 072300Z 16005KT 15SM FEW240 M05/M10 A3007 RMK CI0 SLP232
CYEG;2003-11-08 00:00;METAR CYEG 080000Z 17005KT 15SM FEW120 FEW240 M06/M11 A3006 RMK AC1CI1 SLP234
CYEG;2003-11-08 01:00;METAR CYEG 080100Z 17007KT 15SM FEW240 M08/M11 A3005 RMK CI1 TR CI SLP231
CYEG;2003-11-08 02:00;METAR CYEG 080200Z 17006KT 15SM FEW240 M06/M11 A3005 RMK CI1 SLP229
CYEG;2003-11-08 03:00;METAR CYEG 080300Z 17008KT 15SM FEW240 M10/M12 A3002 RMK CI1 SLP225
CYEG;2003-11-08 04:00;METAR CYEG 080400Z 17007KT 15SM SKC M09/M13 A3002 RMK SLP222
CYEG;2003-11-08 05:00;METAR CYEG 080500Z 14006KT 15SM SKC M12/M15 A3001 RMK SLP219
CYEG;2003-11-08 06:00;METAR CYEG 080600Z 14007KT 15SM SKC M14/M16 A3000 RMK SLP211
CYEG;2003-11-08 07:00;METAR CYEG 080700Z 17006KT 15SM SKC M10/M14 A3000 RMK SLP211
CYEG;2003-11-08 08:00;METAR CYEG 080800Z 18007KT 15SM SKC M12/M16 A2999 RMK SLP210
CYEG;2003-11-08 09:00;METAR CYEG 080900Z 20006KT 15SM SKC M15/M17 A2999 RMK SLP206
CYEG;2003-11-08 10:00;METAR CYEG 081000Z 18005KT 15SM SKC M16/M19 A3000 RMK SLP208
CYEG;2003-11-08 11:00;METAR CYEG 081100Z 22002KT 15SM SKC M17/M20 A3001 RMK SLP210
CYEG;2003-11-08 12:00;METAR CYEG 081200Z 26004KT 15SM FEW250 M14/M15 A3001 RMK CI1 FROIN SLP213
CYEG;2003-11-08 13:00;METAR CYEG 081300Z 26005KT 15SM SKC M11/M12 A3001 RMK SLP214
CYEG;2003-11-08 14:00;METAR CYEG 081400Z 22003KT 15SM SKC M12/M14 A3002 RMK FROIN SLP218
CYEG;2003-11-08 15:00;METAR CYEG 081500Z 25003KT 15SM SKC M11/M12 A3004 RMK FROIN SLP225
CYEG;2003-11-08 16:00;METAR CYEG 081600Z 27007KT 15SM SKC M09/M12 A3006 RMK SLP231
CYEG;2003-11-08 17:00;METAR CYEG 081700Z 29005KT 15SM SKC M06/M10 A3007 RMK SLP235
CYEG;2003-11-08 18:00;METAR CYEG 081800Z 30006KT 15SM SKC M06/M10 A3008 RMK SLP239
CYEG;2003-11-08 19:00;METAR CYEG 081900Z 30006KT 15SM SKC M05/M09 A3008 RMK SLP239
CYEG;2003-11-08 20:00;METAR CYEG 082000Z 27006KT 15SM SKC M03/M08 A3007 RMK SLP235
CYEG;2003-11-08 21:00;METAR CYEG 082100Z 25005KT 15SM SKC M03/M08 A3007 RMK SLP231
CYEG;2003-11-08 22:00;METAR CYEG 082200Z 24003KT 15SM FEW230 M02/M08 A3006 RMK CI1 FU S CONTRAILS SLP228
CYEG;2003-11-08 23:00;METAR CYEG 082300Z 23005KT 15SM FEW230 M04/M09 A3005 RMK CI1 SLP227
CYEG;2003-11-09 00:00;METAR CYEG 090000Z 23004KT 15SM FEW240 M06/M10 A3005 RMK CI1 FU ALF S-SE SLP227
CYEG;2003-11-09 01:00;METAR CYEG 090100Z 20004KT 15SM FEW240 M11/M14 A3004 RMK CI1 FU ALF S-SE SLP225
CYEG;2003-11-09 02:00;METAR CYEG 090200Z 19006KT 15SM FEW240 M11/M13 A3004 RMK CI1 SLP224
CYEG;2003-11-09 03:00;METAR CYEG 090300Z 18005KT 15SM SKC M11/M13 A3003 RMK SLP222
CYEG;2003-11-09 04:00;METAR CYEG 090400Z 18004KT 15SM SKC M12/M14 A3002 RMK FROIN SLP220
CYEG;2003-11-09 05:00;METAR CYEG 090500Z 18004KT 15SM SKC M13/M15 A3002 RMK SLP219
CYEG;2003-11-09 06:00;METAR CYEG 090600Z 20005KT 15SM SKC M14/M15 A3001 RMK SLP213
CYEG;2003-11-09 07:00;METAR CYEG 090700Z 18008KT 15SM SKC M12/M14 A3000 RMK SLP210
CYEG;2003-11-09 08:00;METAR CYEG 090800Z 17003KT 15SM SKC M14/M16 A2999 RMK FROIN SLP207
CYEG;2003-11-09 09:00;METAR CYEG 090900Z 18009KT 15SM SKC M11/M14 A2996 RMK SLP192
CYEG;2003-11-09 10:00;METAR CYEG 091000Z 20005KT 15SM SKC M14/M16 A2996 RMK SLP190
CYEG;2003-11-09 11:00;METAR CYEG 091100Z 16005KT 15SM SKC M13/M16 A2994 RMK FROIN SLP184
CYEG;2003-11-09 12:00;METAR CYEG 091200Z 18005KT 15SM SKC M14/M17 A2992 RMK SLP182
CYEG;2003-11-09 13:00;METAR CYEG 091300Z 17006KT 15SM SKC M14/M16 A2989 RMK SLP174
CYEG;2003-11-09 14:00;METAR CYEG 091400Z 18009KT 15SM SKC M12/M15 A2988 RMK FROIN SLP169 FROIN SLP166
CYEG;2003-11-09 16:00;METAR CYEG 091600Z 17006KT 15SM FEW250 M12/M15 A2984 RMK CI1 CONTRAILS TR CI SLP161 SLP161
CYEG;2003-11-09 17:00;METAR CYEG 091700Z 18004KT 15SM FEW250 M09/M13 A2982 RMK CI1 SLP155
CYEG;2003-11-09 18:00;METAR CYEG 091800Z 18004KT 15SM FEW250 M06/M11 A2979 RMK CI1 TR CI SLP137
CYEG;2003-11-09 19:00;METAR CYEG 091900Z 18005KT 15SM FEW250 M05/M10 A2976 RMK CI1 SLP128
CYEG;2003-11-09 20:00;METAR CYEG 092000Z 16003KT 15SM FEW250 M03/M09 A2972 RMK CI1 SLP116
CYEG;2003-11-09 21:00;METAR CYEG 092100Z 18003KT 15SM FEW250 M01/M08 A2969 RMK CI1 SLP095
CYEG;2003-11-09 22:00;METAR CYEG 092200Z 17003KT 15SM FEW250 M01/M08 A2965 RMK CI1 SLP085
CYEG;2003-11-09 23:00;METAR CYEG 092300Z 17004KT 15SM FEW250 M03/M09 A2963 RMK CI1 SLP076
CYEG;2003-11-10 00:00;METAR CYEG 100000Z 18005KT 15SM FEW120 FEW250 M07/M11 A2960 RMK AC1CI1 TR CLD SLP072 SLP072
CYEG;2003-11-10 01:00;METAR CYEG 100100Z 17008KT 15SM FEW120 M07/M11 A2957 RMK AC1 SLP064
CYEG;2003-11-10 02:00;METAR CYEG 100200Z 19007KT 15SM SKC M09/M12 A2957 RMK SLP063
CYEG;2003-11-10 03:00;METAR CYEG 100300Z 18008KT 15SM SKC M10/M13 A2955 RMK SLP059
CYEG;2003-11-10 04:00;METAR CYEG 100400Z 20004KT 15SM SKC M11/M14 A2953 RMK SLP053
CYEG;2003-11-10 05:00;METAR CYEG 100500Z 19004KT 15SM FEW230 M13/M15 A2951 RMK CI1 SLP047
CYEG;2003-11-10 06:00;METAR CYEG 100600Z 18005KT 15SM FEW230 M13/M15 A2951 RMK CI1 SLP039
CYEG;2003-11-10 07:00;METAR CYEG 100700Z 18005KT 15SM FEW120 FEW230 M13/M15 A2950 RMK AC1CI1 SLP036
CYEG;2003-11-10 08:00;METAR CYEG 100800Z 18007KT 15SM FEW120 SCT230 M11/M14 A2949 RMK AC1CI2 SLP034
CYEG;2003-11-10 09:00;METAR CYEG 100900Z 19008KT 15SM FEW100 BKN240 M07/M11 A2947 RMK AC2CS2 HALO SLP018
CYEG;2003-11-10 10:00;METAR CYEG 101000Z 18008KT 15SM BKN110 OVC230 M04/M09 A2945 RMK AS5CS2 SLP012
CYEG;2003-11-10 11:00;METAR CYEG 101100Z 20005KT 15SM OVC100 M04/M08 A2945 RMK AS8 VIRGA SLP009
CYEG;2003-11-10 12:00;METAR CYEG 101200Z 14002KT 15SM OVC090 M04/M07 A2945 RMK AS8 VIRGA SLP011
CYEG;2003-11-10 13:00;METAR CYEG 101300Z 15004KT 15SM BKN090 OVC120 M04/M08 A2947 RMK AC6AS2 SLP017
CYEG;2003-11-10 14:00;METAR CYEG 101400Z 26003KT 15SM BKN088 OVC180 M06/M08 A2949 RMK AC6AS2 SLP023
CYEG;2003-11-10 15:00;METAR CYEG 101500Z 28003KT 15SM BKN110 BKN180 BKN230 M02/M08 A2951 RMK AC6AS1CI1 VIRGA SE-S TR CI SLP032 VIRGA SE-S TR CI SLP032
CYEG;2003-11-10 16:00;METAR CYEG 101600Z 23004KT 15SM FEW090 BKN110 BKN230 M01/M07 A2952 RMK AC1AC6CI1 VIRGA ALQDS TR CI SLP037 VIRGA ALQDS TR CI SLP037
CYEG;2003-11-10 17:00;METAR CYEG 101700Z 24003KT 15SM BKN110 BKN230 M01/M06 A2953 RMK AC6CI1 VIRGA E-S + W-NW SLP039 + W-NW SLP039 TCU ASOCTD SLP044
CYEG;2003-11-10 19:00;METAR CYEG 101900Z 30006KT 15SM FEW025 BKN063 BKN110 02/M05 A2953 RMK CF1SC6AC2 VIRGA ALQDS TCU EMBD TR CF SLP044 VIRGA ALQDS TCU EMBD TR CF SLP044 SLP044
CYEG;2003-11-10 21:00;METAR CYEG 102100Z 27007KT 15SM FEW060 BKN170 BKN230 02/M06 A2954 RMK SC1AC2CI1 VIRGA DIST S-SW SLP037 VIRGA DIST S-SW SLP037
CYEG;2003-11-10 22:00;METAR CYEG 102200Z 29005KT 15SM FEW060 BKN160 01/M07 A2955 RMK SC1AC2 SLP040 SLP043
CYEG;2003-11-11 00:00;METAR CYEG 110000Z 31007KT 15SM FEW060 FEW160 M01/M10 A2957 RMK SC1AC1 TR SC SLP049 SLP049
CYEG;2003-11-11 01:00;METAR CYEG 110100Z 23004KT 15SM FEW160 M08/M13 A2958 RMK AC1 SLP053
CYEG;2003-11-11 02:00;METAR CYEG 110200Z 22005KT 15SM FEW160 M10/M14 A2960 RMK AC1 SLP058
CYEG;2003-11-11 03:00;METAR CYEG 110300Z 20005KT 15SM SKC M10/M14 A2960 RMK SLP066
CYEG;2003-11-11 04:00;METAR CYEG 110400Z 19003KT 15SM SKC M12/M16 A2960 RMK AURBO SLP064
CYEG;2003-11-11 05:00;METAR CYEG 110500Z 18005KT 15SM FEW220 M10/M14 A2960 RMK CI2 SLP065
CYEG;2003-11-11 06:00;METAR CYEG 110600Z 20007KT 15SM BKN220 M09/M13 A2960 RMK CI2 SLP062
CYEG;2003-11-11 07:00;METAR CYEG 110700Z 19008KT 15SM BKN210 M11/M14 A2959 RMK CI2 SLP061
CYEG;2003-11-11 08:00;METAR CYEG 110800Z 18007KT 15SM FEW160 BKN200 M09/M13 A2958 RMK AC1CI2 SLP055
CYEG;2003-11-11 09:00;METAR CYEG 110900Z 18007KT 15SM FEW160 BKN220 M09/M13 A2957 RMK AC1CI2
CYEG;2003-11-11 10:00;METAR CYEG 111000Z 18006KT 15SM FEW090 SCT180 OVC240 M12/M14 A2957 RMK AC2AC1CI2 SLP049
CYEG;2003-11-11 11:00;METAR CYEG 111100Z 21003KT 15SM BKN085 OVC230 M12/M14 A2957 RMK AC6CI2 SLP051
CYEG;2003-11-11 12:00;METAR CYEG 111200Z 21002KT 15SM BKN085 OVC230 M12/M15 A2957 RMK AC5CI2 SLP057
CYEG;2003-11-11 13:00;METAR CYEG 111300Z 00000KT 15SM FEW080 FEW140 BKN220 M14/M16 A2959 RMK AC1AC1CI2 SLP062 SLP062
CYEG;2003-11-11 14:00;METAR CYEG 111400Z 21002KT 15SM FEW080 BKN140 BKN220 M13/M15 A2961 RMK AC1AC5CI1 SLP070 SLP070 VIRGA/SHSN S-SW-W SLP087
CYEG;2003-11-11 16:00;METAR CYEG 111600Z 23004KT 15SM BKN057 BKN130 OVC220 M09/M10 A2967 RMK SC5AC2CI1 VIRGA/SHSN S-SW-W-NW SLP096 VIRGA/SHSN S-SW-W-NW SLP096
CYEG;2003-11-11 17:00;METAR CYEG 111700Z 30004KT 15SM FEW052 BKN075 OVC130 M05/M07 A2970 RMK SC2AC3AC2 SHSN SE-SW VIRGA/SHSN W-NW-N SLP105 SHSN SE-SW VIRGA/SHSN W-NW-N SLP105
CYEG;2003-11-11 18:00;METAR CYEG 111800Z 27006KT 15SM FEW052 FEW130 OVC250 M03/M07 A2972 RMK SC1AC1CS4 VIRGA SW QUAD TR SC SLP106 VIRGA SW QUAD TR SC SLP106
CYEG;2003-11-11 19:00;METAR CYEG 111900Z 28008KT 15SM FEW050 FEW150 BKN250 M02/M08 A2974 RMK SC1AC1CI2 VIRGA N SLP114 VIRGA N SLP114
CYEG;2003-11-11 20:00;METAR CYEG 112000Z 27006KT 15SM FEW080 SCT120 BKN250 M01/M07 A2976 RMK AC1AC2CI1 VIRGA OVRHD NW SLP120 VIRGA OVRHD NW SLP120
CYEG;2003-11-11 21:00;METAR CYEG 112100Z 27008KT 15SM FEW080 SCT120 BKN250 M01/M07 A2978 RMK AC1AC2CI0 SLP126 SLP126
CYEG;2003-11-11 22:00;METAR CYEG 112200Z 27007KT 15SM FEW080 BKN140 M02/M07 A2981 RMK AC1AC2 SLP135
CYEG;2003-11-11 23:00;METAR CYEG 112300Z 28005KT 15SM SCT090 SCT140 M05/M08 A2983 RMK AC3AC1 LWR AC INVDG SLP142 INVDG SLP142
CYEG;2003-11-12 00:00;METAR CYEG 120000Z 30006KT 15SM FEW090 BKN140 M04/M08 A2986 RMK AC2AC2 SLP158
CYEG;2003-11-12 01:00;METAR CYEG 120100Z 29008KT 15SM FEW090 FEW140 M03/M08 A2990 RMK AC1AC1 SLP172
CYEG;2003-11-12 02:00;METAR CYEG 120200Z 30008KT 15SM FEW100 FEW140 M04/M08 A2995 RMK AC1AC1 SLP185
CYEG;2003-11-12 03:00;METAR CYEG 120300Z 30009KT 15SM FEW100 M05/M09 A2999 RMK AC1 SLP204
CYEG;2003-11-12 04:00;METAR CYEG 120400Z 28007KT 15SM SCT095 M06/M09 A3002 RMK AC2 SLP212
CYEG;2003-11-12 05:00;METAR CYEG 120500Z 28007KT 15SM FEW063 SCT110 M07/M10 A3004 RMK SC2AC2 SLP220
CYEG;2003-11-12 06:00;METAR CYEG 120600Z 27006KT 15SM FEW060 BKN110 M06/M10 A3006 RMK SC2AC2 VIRGA SLP222 SLP222
CYEG;2003-11-12 07:00;METAR CYEG 120700Z 00000KT 15SM FEW060 SCT090 BKN110 M07/M09 A3008 RMK SC1AC2AC2 VIRGA SLP226 VIRGA SLP226
CYEG;2003-11-12 08:00;METAR CYEG 120800Z 26003KT 15SM BKN085 M06/M09 A3009 RMK AC4 SLP232
CYEG;2003-11-12 09:00;METAR CYEG 120900Z 23003KT 15SM FEW085 M07/M09 A3010 RMK AC1 FROIN SLP234
CYEG;2003-11-12 10:00;METAR CYEG 121000Z 21002KT 15SM FEW080 FEW150 SCT250 M10/M12 A3011 RMK AC1AC1CI1 TR LWR AC FROIN SLP238 TR LWR AC FROIN SLP238
CYEG;2003-11-12 11:00;METAR CYEG 121100Z 21005KT 15SM SCT060 M09/M11 A3010 RMK SC2 FROIN SLP234
CYEG;2003-11-12 12:00;METAR CYEG 121200Z 18007KT 15SM FEW060 M10/M11 A3009 RMK SC1 FROIN SLP236
CYEG;2003-11-12 13:00;METAR CYEG 121300Z 18006KT 15SM FEW070 M10/M11 A3008 RMK AC2 FROIN SLP233
CYEG;2003-11-12 14:00;METAR CYEG 121400Z 18008KT 15SM BKN075 M09/M11 A3007 RMK AC3 FROIN SLP230
CYEG;2003-11-12 15:00;METAR CYEG 121500Z 19006KT 15SM FEW075 FEW250 M07/M10 A3006 RMK AC1CI0 SLP224
CYEG;2003-11-12 16:00;METAR CYEG 121600Z 19007KT 15SM SCT074 BKN250 M06/M09 A3005 RMK AC3CI0 SLP221
CYEG;2003-11-12 17:00;METAR CYEG 121700Z 19011KT 15SM BKN076 BKN250 M02/M07 A3003 RMK AC5CI0 SLP214
CYEG;2003-11-12 18:00;METAR CYEG 121800Z 19009KT 15SM BKN074 M01/M06 A3002 RMK AC7 SLP206
CYEG;2003-11-12 19:00;METAR CYEG 121900Z 19010KT 15SM BKN072 M00/M06 A3000 RMK AC7 SLP199
CYEG;2003-11-12 20:00;METAR CYEG 122000Z 19009KT 15SM BKN087 01/M06 A2996 RMK AC6 SLP189
CYEG;2003-11-12 21:00;METAR CYEG 122100Z 19009KT 15SM BKN094 BKN240 01/M06 A2994 RMK AC6CI0 SLP178
CYEG;2003-11-12 22:00;METAR CYEG 122200Z 18009KT 15SM SCT095 BKN120 BKN240 02/M05 A2992 RMK AC3AC2CI0 SLP170 SLP170
CYEG;2003-11-12 23:00;METAR CYEG 122300Z 17006KT 15SM SCT088 BKN120 BKN240 01/M04 A2991 RMK AC4AC2CI0 SLP169 SLP169
CYEG;2003-11-13 00:00;METAR CYEG 130000Z 18009KT 15SM BKN088 BKN240 01/M04 A2989 RMK AC6CI0 SLP163
CYEG;2003-11-13 01:00;METAR CYEG 130100Z 19008KT 15SM BKN084 BKN240 01/M05 A2988 RMK AC6CI1 TR CI SLP160
CYEG;2003-11-13 02:00;METAR CYEG 130200Z 18009KT 15SM FEW085 FEW240 M02/M06 A2987 RMK AC1CI1 TR CI SLP155 SLP155
CYEG;2003-11-13 03:00;METAR CYEG 130300Z 18007KT 15SM SCT085 M03/M07 A2988 RMK AC3 SLP159
CYEG;2003-11-13 04:00;METAR CYEG 130400Z 18008KT 15SM FEW085 BKN240 M04/M08 A2987 RMK AC2CI0 SLP156
CYEG;2003-11-13 05:00;METAR CYEG 130500Z 19008KT 15SM FEW085 BKN240 M02/M06 A2986 RMK AC2CI2 SLP154
CYEG;2003-11-13 06:00;METAR CYEG 130600Z 19009KT 15SM FEW085 BKN240 M03/M07 A2984 RMK AC2CI2 SLP142
CYEG;2003-11-13 07:00;METAR CYEG 130700Z 18007KT 15SM FEW085 BKN240 M02/M06 A2984 RMK AC2CI4
CYEG;2003-11-13 08:00;METAR CYEG 130800Z 18009KT 15SM FEW085 BKN240 M01/M06 A2984 RMK AC2CI4 SLP141
CYEG;2003-11-13 09:00;METAR CYEG 130900Z 19007KT 15SM FEW085 BKN240 01/M05 A2984 RMK AC1CI4 SLP134
CYEG;2003-11-13 10:00;METAR CYEG 131000Z 18007KT 15SM BKN240 M00/M06 A2983 RMK CI4 SLP132
CYEG;2003-11-13 11:00;METAR CYEG 131100Z 18007KT 15SM SCT240 M01/M06 A2981 RMK CI3 SLP125
CYEG;2003-11-13 12:00;METAR CYEG 131200Z 18007KT 15SM BKN240 M01/M06 A2979 RMK CI3 SLP121
CYEG;2003-11-13 13:00;METAR CYEG 131300Z 18006KT 15SM BKN240 M02/M06 A2979 RMK CI4 SLP120
CYEG;2003-11-13 14:00;METAR CYEG 131400Z 16004KT 15SM FEW110 BKN250 M05/M08 A2979 RMK AC1CI2 SLP121
CYEG;2003-11-13 15:00;METAR CYEG 131500Z 18008KT 15SM FEW110 SCT250 M03/M07 A2979 RMK AC2CI1 SLP125
CYEG;2003-11-13 16:00;METAR CYEG 131600Z 18006KT 15SM FEW110 SCT250 M00/M06 A2979 RMK AC1CI1
CYEG;2003-11-13 17:00;METAR CYEG 131700Z 19005KT 15SM FEW110 FEW250 02/M04 A2978 RMK AC1CI1 SLP122
CYEG;2003-11-13 18:00;METAR CYEG 131800Z 16003KT 15SM FEW110 FEW250 04/M04 A2978 RMK AC1CI1 SLP114
CYEG;2003-11-13 19:00;METAR CYEG 131900Z 14003KT 15SM FEW110 FEW250 06/M03 A2975 RMK AC1CI1 SLP105
CYEG;2003-11-13 20:00;METAR CYEG 132000Z 15003KT 15SM FEW110 FEW250 05/M02 A2973 RMK AC1CI1 SLP100
CYEG;2003-11-13 21:00;METAR CYEG 132100Z 14002KT 15SM FEW110 FEW250 05/M02 A2973 RMK AC1CI1 SLP094
CYEG;2003-11-13 22:00;METAR CYEG 132200Z 19005KT 15SM FEW110 FEW250 04/M02 A2972 RMK AC1CI1 SLP092
CYEG;2003-11-13 23:00;METAR CYEG 132300Z 00000KT 15SM FEW110 FEW250 03/M03 A2970 RMK AC1CI1 SLP085
CYEG;2003-11-14 00:00;METAR CYEG 140000Z 00000KT 15SM FEW110 FEW250 M01/M04 A2969 RMK AC1CI1 SLP085
CYEG;2003-11-14 01:00;METAR CYEG 140100Z 12004KT 15SM FEW110 FEW250 M03/M06 A2967 RMK AC1CI1 SLP080
CYEG;2003-11-14 02:00;METAR CYEG 140200Z 17004KT 15SM SKC M05/M07 A2966 RMK SLP078
CYEG;2003-11-14 03:00;METAR CYEG 140300Z 20006KT 15SM SKC M06/M08 A2965 RMK SLP080
CYEG;2003-11-14 04:00;METAR CYEG 140400Z 17005KT 15SM SKC M05/M07 A2964 RMK SLP075
CYEG;2003-11-14 05:00;METAR CYEG 140500Z 16003KT 15SM SKC M05/M07 A2963 RMK SLP073
CYEG;2003-11-14 06:00;METAR CYEG 140600Z 18005KT 15SM SKC M08/M10 A2963 RMK AURBO SLP068
CYEG;2003-11-14 07:00;METAR CYEG 140700Z 22002KT 15SM SKC M05/M07 A2962 RMK AURBO SLP065
CYEG;2003-11-14 08:00;METAR CYEG 140800Z 18002KT 15SM SKC M08/M10 A2961 RMK SLP062
CYEG;2003-11-14 09:00;METAR CYEG 140900Z 20003KT 15SM SKC M09/M10 A2960 RMK SLP059
CYEG;2003-11-14 10:00;METAR CYEG 141000Z 18006KT 15SM SKC M09/M11 A2959 RMK SLP056
CYEG;2003-11-14 11:00;METAR CYEG 141100Z 18008KT 15SM SKC M07/M09 A2958 RMK FROIN AURBO SLP050
CYEG;2003-11-14 12:00;METAR CYEG 141200Z 23002KT 15SM SKC M06/M09 A2957 RMK FROIN SLP051
CYEG;2003-11-14 13:00;METAR CYEG 141300Z 19004KT 15SM SKC M08/M11 A2958 RMK FROIN SLP052
CYEG;2003-11-14 14:00;METAR CYEG 141400Z 15002KT 15SM SKC M09/M11 A2959 RMK SLP056
CYEG;2003-11-14 15:00;METAR CYEG 141500Z 21003KT 15SM FEW070 FEW100 M07/M12 A2960 RMK AC1AC1 TR LWR AC SLP067 SLP067
CYEG;2003-11-14 16:00;METAR CYEG 141600Z 18005KT 15SM FEW080 FEW160 M07/M11 A2962 RMK AC1AC1 TR LWR AC SLP071 SLP071
CYEG;2003-11-14 17:00;METAR CYEG 141700Z 00000KT 15SM FEW100 BKN140 M01/M07 A2966 RMK AC1AC2 SLP086
CYEG;2003-11-14 18:00;METAR CYEG 141800Z 20004KT 15SM FEW100 BKN140 01/M07 A2969 RMK AC1AC3 SLP092
CYEG;2003-11-14 19:00;METAR CYEG 141900Z 26002KT 15SM FEW100 BKN130 02/M07 A2971 RMK AC1AC3 SLP099
CYEG;2003-11-14 20:00;METAR CYEG 142000Z 27004KT 15SM FEW120 BKN150 03/M06 A2974 RMK AC2AC2 SLP108
CYEG;2003-11-14 21:00;METAR CYEG 142100Z 29003KT 15SM SCT120 BKN150 03/M06 A2977 RMK AC2AC2 SLP117
CYEG;2003-11-14 22:00;METAR CYEG 142200Z 26005KT 15SM FEW120 SCT150 BKN240 01/M06 A2979 RMK AC1AC2CI2 SLP124 SLP124
CYEG;2003-11-14 23:00;METAR CYEG 142300Z 26004KT 15SM FEW120 SCT150 BKN240 M00/M06 A2982 RMK AC1AC2CI1 SLP133 SLP133
CYEG;2003-11-15 00:00;METAR CYEG 150000Z 22005KT 15SM FEW150 BKN240 M02/M07 A2983 RMK AC2CI4 SLP142
CYEG;2003-11-15 01:00;METAR CYEG 150100Z 23004KT 15SM FEW150 BKN240 M03/M07 A2985 RMK AC2CI4 SLP147
CYEG;2003-11-15 02:00;METAR CYEG 150200Z 27004KT 15SM FEW130 BKN240 M02/M07 A2986 RMK AC2CI3 SLP152
CYEG;2003-11-15 03:00;METAR CYEG 150300Z 00000KT 15SM FEW130 BKN220 M03/M07 A2987 RMK AC1CI6 SLP156
CYEG;2003-11-15 04:00;METAR CYEG 150400Z 29002KT 15SM BKN220 M06/M09 A2987 RMK CI7 SLP158
CYEG;2003-11-15 05:00;METAR CYEG 150500Z 14003KT 15SM FEW130 BKN210 M06/M09 A2988 RMK AC1CI4 SLP159
CYEG;2003-11-15 06:00;METAR CYEG 150600Z 18003KT 15SM BKN240 M06/M08 A2990 RMK CI6 SLP162
CYEG;2003-11-15 07:00;METAR CYEG 150700Z 20003KT 15SM BKN210 M07/M10 A2991 RMK CI6 SLP165
CYEG;2003-11-15 08:00;METAR CYEG 150800Z 19003KT 15SM BKN210 M08/M10 A2991 RMK CI6 SLP165
CYEG;2003-11-15 09:00;METAR CYEG 150900Z 00000KT 15SM BKN220 M08/M10 A2991 RMK CI4 FROIN SLP165
CYEG;2003-11-15 10:00;METAR CYEG 151000Z 17004KT 15SM SCT230 M09/M11 A2990 RMK CI1 SLP163
CYEG;2003-11-15 11:00;METAR CYEG 151100Z 12005KT 15SM FEW240 M10/M12 A2989 RMK CI0 AURBO SLP158
CYEG;2003-11-15 12:00;METAR CYEG 151200Z 17003KT 15SM SKC M10/M12 A2988 RMK AURBO SLP163
CYEG;2003-11-15 13:00;METAR CYEG 151300Z 14005KT 15SM SCT210 M07/M10 A2988 RMK CI1 SLP161
CYEG;2003-11-15 14:00;METAR CYEG 151400Z 14006KT 15SM FEW120 SCT200 M08/M10 A2986 RMK AC1CI2 FROIN SLP156
CYEG;2003-11-15 15:00;METAR CYEG 151500Z 19003KT 15SM FEW140 BKN200 M09/M11 A2985 RMK AC2CI1 SLP153
CYEG;2003-11-15 16:00;METAR CYEG 151600Z 15008KT 15SM FEW140 BKN200 M05/M09 A2984 RMK AC2CI4 SLP150
CYEG;2003-11-15 17:00;METAR CYEG 151700Z 13009KT 15SM FEW160 BKN200 M05/M09 A2982 RMK AC1CS5 SLP143
CYEG;2003-11-15 18:00;METAR CYEG 151800Z 15010KT 15SM FEW150 BKN200 M02/M08 A2979 RMK AC1CS5 SLP126
CYEG;2003-11-15 19:00;METAR CYEG 151900Z 13009KT 15SM SCT140 BKN200 M01/M07 A2976 RMK AC2CS3 SLP118
CYEG;2003-11-15 20:00;METAR CYEG 152000Z 14010KT 15SM FEW140 BKN180 OVC250 00/M07 A2973 RMK AC2AS2CS2 SLP108 SLP108
CYEG;2003-11-15 21:00;METAR CYEG 152100Z 13011KT 15SM FEW140 BKN170 OVC250 00/M06 A2970 RMK AC2AS3CS2 SLP094 SLP094
CYEG;2003-11-15 22:00;METAR CYEG 152200Z 15010G17KT 15SM BKN140 BKN250 01/M05 A2967 RMK AS4CS2 SLP087
CYEG;2003-11-15 23:00;METAR CYEG 152300Z 14010KT 15SM BKN140 BKN240 M01/M06 A2966 RMK AC3CS2 SLP084
CYEG;2003-11-16 00:00;METAR CYEG 160000Z 14008KT 15SM FEW120 SCT140 BKN240 M01/M06 A2965 RMK AC1AC2CI2 SLP081 SLP081 SLP075
CYEG;2003-11-16 02:00;METAR CYEG 160200Z 15011KT 15SM FEW140 SCT240 M02/M06 A2962 RMK AC1CI1 SLP072
CYEG;2003-11-16 03:00;METAR CYEG 160300Z 14007KT 15SM FEW240 M04/M08 A2961 RMK CI1 SLP068
CYEG;2003-11-16 04:00;METAR CYEG 160400Z 15008KT 15SM SCT240 M05/M08 A2959 RMK CI2 SLP062
CYEG;2003-11-16 05:00;METAR CYEG 160500Z 15007KT 15SM SKC M05/M08 A2956 RMK SLP054
CYEG;2003-11-16 06:00;METAR CYEG 160600Z 15004KT 15SM FEW240 M08/M11 A2955 RMK CI0 SLP046
CYEG;2003-11-16 07:00;METAR CYEG 160700Z 15006KT 15SM BKN200 M07/M10 A2952 RMK CI3 SLP038
CYEG;2003-11-16 08:00;METAR CYEG 160800Z 14006KT 15SM BKN180 M09/M11 A2952 RMK AS1 SLP036
CYEG;2003-11-16 09:00;METAR CYEG 160900Z 15004KT 15SM BKN240 M10/M12 A2950 RMK CI2 SLP029
CYEG;2003-11-16 10:00;METAR CYEG 161000Z 16003KT 15SM FEW240 M11/M12 A2950 RMK CI0 FROIN SLP027
CYEG;2003-11-16 11:00;METAR CYEG 161100Z 00000KT 15SM FEW240 M13/M15 A2948 RMK CI0 SLP021
CYEG;2003-11-16 12:00;METAR CYEG 161200Z 18003KT 15SM BKN240 M13/M15 A2946 RMK CI2 SLP018
CYEG;2003-11-16 13:00;METAR CYEG 161300Z 20003KT 15SM FEW180 BKN210 M11/M13 A2944 RMK AC1CI1 FROIN SLP013 SLP013
CYEG;2003-11-16 14:00;METAR CYEG 161400Z 16004KT 15SM FEW100 FEW180 BKN210 M11/M13 A2942 RMK AC1AC2CI1 SLP005 SLP005
CYEG;2003-11-16 15:00;METAR CYEG 161500Z 20003KT 12SM FEW100 FEW180 BKN210 M12/M14 A2940 RMK AC1AC2CI1 SLP001 SLP001
CYEG;2003-11-16 16:00;METAR CYEG 161600Z 15003KT 12SM FEW080 FEW160 BKN200 M11/M13 A2938 RMK AC1AC1CI2 SLP992 SLP992
CYEG;2003-11-16 17:00;METAR CYEG 161700Z 18004KT 12SM FEW200 M08/M11 A2936 RMK CI1 SLP988
CYEG;2003-11-16 18:00;METAR CYEG 161800Z 12003KT 15SM FEW200 M02/M08 A2933 RMK CI1 SLP972
CYEG;2003-11-16 19:00;METAR CYEG 161900Z 06002KT 15SM FEW200 M02/M07 A2931 RMK CI1 SLP964
CYEG;2003-11-16 20:00;METAR CYEG 162000Z 36002KT 15SM FEW090 FEW200 M02/M07 A2928 RMK AC1CI0 SLP956
CYEG;2003-11-16 21:00;METAR CYEG 162100Z 00000KT 15SM FEW090 FEW220 01/M06 A2926 RMK AC1CI1 SLP945
CYEG;2003-11-16 22:00;METAR CYEG 162200Z 00000KT 15SM FEW090 FEW220 02/M05 A2923 RMK AC1CI1 SLP937
CYEG;2003-11-16 23:00;METAR CYEG 162300Z 11004KT 15SM FEW090 FEW220 M01/M06 A2921 RMK AC1CI1 SLP929
CYEG;2003-11-17 00:00;METAR CYEG 170000Z 11005KT 15SM FEW090 FEW220 M06/M09 A2919 RMK AC1CI1 SLP929
CYEG;2003-11-17 01:00;METAR CYEG 170100Z 11004KT 15SM FEW090 FEW220 M06/M09 A2917 RMK AC1CI1 SLP924
CYEG;2003-11-17 02:00;METAR CYEG 170200Z 13005KT 15SM FEW090 BKN240 M09/M11 A2916 RMK AC1CI2 SLP919
CYEG;2003-11-17 03:00;METAR CYEG 170300Z 17003KT 15SM FEW090 BKN240 M08/M10 A2915 RMK AC2CI5 SLP916
CYEG;2003-11-17 04:00;METAR CYEG 170400Z 18005KT 15SM FEW090 BKN220 M08/M11 A2914 RMK AC2CI5 SLP913
CYEG;2003-11-17 05:00;METAR CYEG 170500Z 26004KT 15SM FEW090 BKN240 M10/M12 A2913 RMK AC2CI2 AURBO SLP911 SLP911
CYEG;2003-11-17 06:00;METAR CYEG 170600Z 00000KT 15SM FEW090 BKN240 M11/M13 A2913 RMK AC2CI2 SLP906
CYEG;2003-11-17 07:00;METAR CYEG 170700Z 25004KT 15SM FEW090 BKN240 M12/M14 A2915 RMK AC1CI6 SLP910
CYEG;2003-11-17 08:00;METAR CYEG 170800Z 27003KT 15SM FEW090 BKN240 M12/M13 A2916 RMK AC1CI3
CYEG;2003-11-17 09:00;METAR CYEG 170900Z 28003KT 4SM BR FEW090 SCT240 M12/M14 A2918 RMK AC1CI2 SLP918
CYEG;2003-11-17 10:00;METAR CYEG 171000Z 27003KT 3SM BR FEW090 BKN240 M13/M14 A2919 RMK AC1CI2 FROIN SLP921 SLP921
CYEG;2003-11-17 11:00;METAR CYEG 171100Z 27003KT 3SM BR FEW090 SCT240 M13/M14 A2919 RMK AC1CI2 FROIN SLP923 SLP923
CYEG;2003-11-17 12:00;METAR CYEG 171200Z 28006KT 5SM BR FEW090 SCT240 M09/M10 A2923 RMK AC1CI2 FROIN SLP939 SLP939
CYEG;2003-11-17 13:00;METAR CYEG 171300Z 34002KT 6SM BR FEW090 SCT240 M10/M12 A2925 RMK AC1CI2 FROIN SLP946 SLP946
CYEG;2003-11-17 14:00;METAR CYEG 171400Z 00000KT 3SM BR FEW090 SCT120 BKN240 M11/M13 A2927 RMK AC1AC2CI1 FROIN SLP954
CYEG;2003-11-17 15:00;METAR CYEG 171500Z 24003KT 2 1/2SM BR FEW120 SCT160 BKN240 M12/M14 A2931 RMK AC2AS1CI0 FROIN SLP971 AC2AS1CI0 FROIN SLP971
CYEG;2003-11-17 16:00;METAR CYEG 171600Z 19002KT 3SM BR FEW090 SCT170 BKN250 M11/M13 A2933 RMK AC2AC1CI1 SLP979
CYEG;2003-11-17 17:00;METAR CYEG 171700Z 22002KT 4SM BR FEW080 BKN120 OVC250 M08/M09 A2935 RMK AC1AC5CI2 TR LWR AC SLP986
CYEG;2003-11-17 18:00;METAR CYEG 171800Z 26004KT 6SM BR BKN110 OVC250 M04/M06 A2938 RMK AC5CI2 SLP993
CYEG;2003-11-17 19:00;METAR CYEG 171900Z 29003KT 10SM BKN120 OVC250 M02/M05 A2939 RMK AC5CI2 HZ SLP997
CYEG;2003-11-17 20:00;METAR CYEG 172000Z 27002KT 15SM FEW100 BKN250 M01/M06 A2940 RMK AC2CI2 SLP000
CYEG;2003-11-17 21:00;METAR CYEG 172100Z 25004KT 15SM FEW110 BKN250 M00/M05 A2942 RMK AC1CI3 SLP002
CYEG;2003-11-17 22:00;METAR CYEG 172200Z 26003KT 15SM FEW150 BKN250 00/M05 A2944 RMK AC1CI2 SLP010
CYEG;2003-11-17 23:00;METAR CYEG 172300Z 27002KT 15SM FEW150 FEW250 M01/M07 A2946 RMK AC1CI0 TR AC SLP015 SLP015
CYEG;2003-11-18 00:00;METAR CYEG 180000Z 23002KT 15SM FEW150 M05/M08 A2949 RMK AC1 SLP028
CYEG;2003-11-18 01:00;METAR CYEG 180100Z 23004KT 15SM FEW120 M08/M10 A2951 RMK AC1 SLP036
CYEG;2003-11-18 02:00;METAR CYEG 180200Z 18004KT 15SM BKN100 M08/M11 A2952 RMK AC3 SLP039
CYEG;2003-11-18 03:00;METAR CYEG 180300Z 20005KT 15SM BKN100 M08/M10 A2955 RMK AC6 VIRGA SLP054
CYEG;2003-11-18 04:00;METAR CYEG 180400Z 00000KT 15SM FEW048 SCT060 BKN100 BKN140 M07/M09 A2957 RMK SC2SC2AC2AC1 VIRGA SLP061 SC2SC2AC2AC1 VIRGA SLP061
CYEG;2003-11-18 05:00;METAR CYEG 180500Z 20004KT 15SM FEW022 SCT045 BKN060 BKN075 M03/M05 A2957 RMK SC2SC2SC2AC1 VIRGA SLP060 SC2SC2SC2AC1 VIRGA SLP060
CYEG;2003-11-18 06:00;METAR CYEG 180600Z 18006KT 15SM FEW060 FEW120 SCT220 M06/M07 A2954 RMK SC1AC1CI1 SLP043 SLP043
CYEG;2003-11-18 07:00;METAR CYEG 180700Z 19007KT 15SM FEW120 BKN210 M05/M06 A2953 RMK AC2CI5 SLP039
CYEG;2003-11-18 08:00;METAR CYEG 180800Z 16004KT 15SM OVC180 M05/M06 A2951 RMK AS8 SLP032
CYEG;2003-11-18 09:00;METAR CYEG 180900Z 19007KT 15SM OVC160 M04/M05 A2949 RMK AS6 SLP020
CYEG;2003-11-18 10:00;METAR CYEG 181000Z 15005KT 15SM OVC140 M03/M04 A2946 RMK AS7 SLP011 SLP987
CYEG;2003-11-18 13:00;METAR CYEG 181300Z 00000KT 15SM OVC073 M03/M05 A2936 RMK AS8 VIRGA SLP980
CYEG;2003-11-18 14:00;METAR CYEG 181400Z 09010KT 15SM FEW045 OVC075 M01/M04 A2932 RMK SC2AS4 SH N SLP968
CYEG;2003-11-18 15:00;METAR CYEG 181500Z 26002KT 15SM FEW080 BKN170 M03/M06 A2933 RMK AC2AS2 SLP972
CYEG;2003-11-18 16:00;METAR CYEG 181600Z 13005KT 15SM FEW080 BKN150 M04/M07 A2934 RMK AC2AS6 VIRGA W SLP974 SLP974
CYEG;2003-11-18 17:00;METAR CYEG 181700Z 33003KT 15SM FEW045 FEW080 BKN170 M04/M07 A2936 RMK CU1AC1AS6 SLP980 SLP980
CYEG;2003-11-18 18:00;METAR CYEG 181800Z 00000KT 15SM FEW045 FEW080 BKN170 M03/M06 A2939 RMK CU1AC1AS2 SLP989 SLP989
CYEG;2003-11-18 19:00;METAR CYEG 181900Z 25005KT 15SM FEW045 FEW130 BKN180 M03/M07 A2944 RMK SC1AC1AS2 SLP005 SLP005
CYEG;2003-11-18 20:00;METAR CYEG 182000Z 27012KT 15SM FEW080 BKN160 M02/M04 A2950 RMK AC2AS2 VIRGA SW + NW SLP024 NW SLP024
CYEG;2003-11-18 21:00;METAR CYEG 182100Z 29009KT 15SM FEW045 SCT090 BKN150 M01/M04 A2954 RMK SC1AC2AS1 SLP039
CYEG;2003-11-18 22:00;METAR CYEG 182200Z 29007KT 15SM FEW045 FEW090 FEW150 FEW240 01/M04 A2957 RMK SC1AC1AS1CI1 TR AC/AS CU/SH ASOCTD DIST S SLP047 SC1AC1AS1CI1 TR AC/AS CU/SH ASOCTD DIST S SLP047
CYEG;2003-11-18 23:00;METAR CYEG 182300Z 29005KT 15SM FEW080 FEW150 BKN240 M01/M06 A2959 RMK AC1AS2CI0 SLP054 SLP054
CYEG;2003-11-19 00:00;METAR CYEG 190000Z 28006KT 15SM FEW080 FEW180 SCT240 M04/M10 A2962 RMK AC1AS1CI0 SLP068 SLP068
CYEG;2003-11-19 01:00;METAR CYEG 190100Z 30003KT 15SM FEW150 BKN210 M06/M12 A2965 RMK AS2CI2 SLP076
CYEG;2003-11-19 02:00;METAR CYEG 190200Z 29004KT 15SM OVC180 M05/M13 A2966 RMK AS6 SLP080
CYEG;2003-11-19 03:00;METAR CYEG 190300Z 30005KT 15SM OVC180 M04/M12 A2969 RMK AS6 SLP092
CYEG;2003-11-19 04:00;METAR CYEG 190400Z 31003KT 15SM OVC170 M07/M13 A2970 RMK AS7 SLP095
CYEG;2003-11-19 05:00;METAR CYEG 190500Z 23003KT 15SM OVC170 M07/M11 A2970 RMK AS8 SLP096
CYEG;2003-11-19 06:00;METAR CYEG 190600Z 04004KT 15SM OVC150 M05/M10 A2968 RMK AS8 SLP091
CYEG;2003-11-19 07:00;METAR CYEG 190700Z 00000KT 15SM OVC130 M08/M11 A2969 RMK AS8 SLP092
CYEG;2003-11-19 08:00;METAR CYEG 190800Z 19003KT 15SM OVC110 M08/M10 A2968 RMK AS8 SLP089
CYEG;2003-11-19 09:00;METAR CYEG 190900Z 17005KT 15SM OVC100 M06/M09 A2968 RMK AS8 SLP088
CYEG;2003-11-19 11:00;METAR CYEG 191100Z 11005KT 15SM OVC058 M05/M08 A2963 RMK SC8 VIRGA SLP071
CYEG;2003-11-19 12:00;METAR CYEG 191200Z 14005KT 6SM -SN FEW015 OVC045 M05/M08 A2959 RMK SF2SC6 SLP058
CYEG;2003-11-19 13:00;METAR CYEG 191300Z 12006KT 4SM -SN FEW015 OVC045 M05/M07 A2954 RMK SF2SC6 SLP041
CYEG;2003-11-19 14:00;METAR CYEG 191400Z 12007KT 2 1/2SM -SN OVC025 M05/M06 A2951 RMK SN3SC5 SLP033
CYEG;2003-11-19 15:00;METAR CYEG 191500Z 09014KT 1SM R30/5000FT R12/P6000FT -SN VV008 M05/M06 A2947 RMK SN8 PRESFR SLP017 SN8 PRESFR SLP017
CYEG;2003-11-19 16:00;METAR CYEG 191600Z 09014KT 5/8SM R30/4500FT R12/5000FT -SN DRSN VV006 M05/M06 A2942 RMK SN8 /S01/ PRESFR SLP000 A2942 RMK SN8 /S01/ PRESFR SLP000
CYEG;2003-11-19 18:00;METAR CYEG 191800Z 05013KT 1/2SM R30/2400FT R12/2400FT SN DRSN VV005 M06/M08 A2942 RMK SN8 /S04/ SLP003 A2942 RMK SN8 /S04/ SLP003
CYEG;2003-11-19 20:00;METAR CYEG 192000Z 07012KT 1/2SM R30/2000FT R12/3500FT SN DRSN VV006 M06/M08 A2944 RMK SN8 /S04/ SLP008 A2944 RMK SN8 /S04/ SLP008
CYEG;2003-11-19 21:00;METAR CYEG 192100Z 06013KT 2 1/2SM -SN DRSN SCT009 OVC018 M07/M09 A2945 RESN RMK SN2SF2SC5 /S05/ SLP015
CYEG;2003-11-19 22:00;METAR CYEG 192200Z 01009KT 1SM R30/6000FT R12/5500FT -SN DRSN VV007 M07/M09 A2951 RMK SN8 SLP031 RMK SN8 SLP031
CYEG;2003-11-19 23:00;METAR CYEG 192300Z 35014KT 5/8SM R30/5000FT R12/6000FT -SN DRSN VV006 M08/M10 A2954 RMK SN8 SLP042 A2954 RMK SN8 SLP042
CYEG;2003-11-20 00:00;METAR CYEG 200000Z 33014G19KT 1SM R30/P6000FT R12/P6000FT -SN DRSN VV007 M10/M12 A2959 RMK SN8 /S06/ SLP065 A2959 RMK SN8 /S06/ SLP065
CYEG;2003-11-20 01:00;METAR CYEG 200100Z 34011G16KT 1 1/2SM -SN DRSN VV009 M10/M12 A2962 RMK SN8 SLP073 SLP080
CYEG;2003-11-20 03:00;METAR CYEG 200300Z 33009KT 12SM -SN FEW012 OVC061 M11/M14 A2967 RMK SC2SC6 SLP093
CYEG;2003-11-20 04:00;METAR CYEG 200400Z 32015KT 12SM -SN DRSN BKN016 OVC056 M11/M14 A2970 RMK SC6SC2 SLP103
CYEG;2003-11-20 05:00;METAR CYEG 200500Z 33010KT 15SM SCT020 BKN055 M13/M16 A2973 RMK SC4SC2 SLP113
CYEG;2003-11-20 06:00;METAR CYEG 200600Z 31008KT 15SM -SN BKN015 OVC050 M12/M14 A2976 RMK SC6SC2 SLP125
CYEG;2003-11-20 07:00;METAR CYEG 200700Z 30009KT 5SM -SHSN BKN019 BKN045 M14/M17 A2980 RMK SC5SC2 SLP137
CYEG;2003-11-20 08:00;METAR CYEG 200800Z 30010KT 15SM -SHSN FEW020 SCT045 BKN140 M15/M18 A2982 RMK SC2SC1AC2 SLP144 SC2SC1AC2 SLP144
CYEG;2003-11-20 09:00;METAR CYEG 200900Z 31008KT 12SM -SHSN FEW047 BKN110 BKN220 M17/M20 A2984 RMK SC2AC2CI1 SLP159 SC2AC2CI1 SLP159
CYEG;2003-11-20 10:00;METAR CYEG 201000Z 31007KT 15SM -SHSN FEW045 SCT100 BKN150 M17/M21 A2987 RMK SC2AC2AC1 SLP169 SC2AC2AC1 SLP169
CYEG;2003-11-20 11:00;METAR CYEG 201100Z 31007KT 15SM FEW037 SCT100 M18/M22 A2989 RMK SC2AC2 SLP173
CYEG;2003-11-20 12:00;METAR CYEG 201200Z 26002KT 15SM FEW035 M22/M27 A2990 RMK SC2 SLP188
CYEG;2003-11-20 13:00;METAR CYEG 201300Z 27006KT 15SM FEW035 FEW110 FEW240 M23/M27 A2991 RMK SC1AC1CI0 SLP192 SLP192
CYEG;2003-11-20 14:00;METAR CYEG 201400Z 28007KT 15SM FEW150 FEW240 M22/M25 A2993 RMK AC2CI0 FROIN SLP196 SLP196
CYEG;2003-11-20 15:00;METAR CYEG 201500Z 27008KT 15SM FEW140 FEW170 FEW240 M22/M26 A2995 RMK AC1AC1CI1 TR LWR AC SLP207 TR LWR AC SLP207
CYEG;2003-11-20 16:00;METAR CYEG 201600Z 27008KT 15SM FEW090 FEW140 SCT240 M20/M24 A2998 RMK AC1AC1CI1 TR LWR AC SLP216 TR LWR AC SLP216
CYEG;2003-11-20 17:00;METAR CYEG 201700Z 30008KT 15SM FEW058 FEW140 SCT240 M18/M21 A3000 RMK SC2AC1CI1 TR AC SLP222 TR AC SLP222
CYEG;2003-11-20 18:00;METAR CYEG 201800Z 29007KT 15SM FEW080 FEW250 M17/M20 A3002 RMK AC1CI1 SLP227 SLP230
CYEG;2003-11-20 20:00;METAR CYEG 202000Z 29007KT 15SM FEW020 FEW120 FEW250 M15/M20 A3004 RMK CU1AC1CI0 TR CU+AC SLP234 TR CU+AC SLP234
CYEG;2003-11-20 21:00;METAR CYEG 202100Z 28007KT 15SM FEW020 FEW120 FEW250 M15/M20 A3005 RMK CU1AC1CI0 TR CU+AC SLP239 TR CU+AC SLP239
CYEG;2003-11-20 22:00;METAR CYEG 202200Z 32005KT 15SM FEW020 FEW120 FEW250 M16/M21 A3006 RMK CU1AC1CI1 TR CU+AC SLP243 TR CU+AC SLP243
CYEG;2003-11-21 00:00;METAR CYEG 210000Z 32004KT 15SM FEW120 FEW250 M20/M24 A3010 RMK AC1CI1 SLP268
CYEG;2003-11-21 01:00;METAR CYEG 210100Z 27003KT 15SM BKN025 M23/M26 A3012 RMK SC6 FROIN SLP273
CYEG;2003-11-21 02:00;METAR CYEG 210200Z 25004KT 15SM BKN025 M21/M24 A3013 RMK SC7 VIRGA SLP277
CYEG;2003-11-21 03:00;METAR CYEG 210300Z 00000KT 15SM OVC020 M22/M25 A3015 RMK SC8 VIRGA SLP287
CYEG;2003-11-21 04:00;METAR CYEG 210400Z 29005KT 12SM -SN OVC028 M17/M20 A3017 RMK SC8 SLP293
CYEG;2003-11-21 05:00;METAR CYEG 210500Z 32003KT 10SM -SN OVC028 M16/M20 A3018 RMK SC8 SLP296
CYEG;2003-11-21 06:00;METAR CYEG 210600Z 33003KT 10SM -SN OVC029 M16/M20 A3019 RMK SC8 SLP290
CYEG;2003-11-21 07:00;METAR CYEG 210700Z 31003KT 6SM -SN OVC032 M17/M20 A3020 RMK SC8 SLP292
CYEG;2003-11-21 08:00;METAR CYEG 210800Z 35004KT 12SM -SN OVC030 M17/M21 A3020 RMK SC8 SLP293
CYEG;2003-11-21 09:00;METAR CYEG 210900Z 33003KT 15SM -SN BKN031 M17/M21 A3021 RMK SC7 SLP294
CYEG;2003-11-21 11:00;METAR CYEG 211100Z 29002KT 15SM -SN BKN024 BKN043 M20/M22 A3022 RMK SC5SC2 SLP298
CYEG;2003-11-21 12:00;METAR CYEG 211200Z 26003KT 15SM -SN FEW025 BKN043 M22/M26 A3023 RMK SC2SC5 SLP311
CYEG;2003-11-21 13:00;METAR CYEG 211300Z 21003KT 15SM -SN SCT045 M27/M31 A3022 RMK SC3 SLP310
CYEG;2003-11-21 14:00;METAR CYEG 211400Z 25003KT 15SM FEW045 M27/M32 A3024 RMK SC1 SLP314
CYEG;2003-11-21 15:00;METAR CYEG 211500Z 23002KT 15SM FEW045 M28/M32 A3024 RMK SC1 SLP323
CYEG;2003-11-21 16:00;METAR CYEG 211600Z 23003KT 15SM FEW045 FEW250 M29/M32 A3025 RMK SC1CI1 TR CI SLP327 SLP327
CYEG;2003-11-21 17:00;METAR CYEG 211700Z 23004KT 15SM FEW045 FEW250 M24/M28 A3026 RMK SC1CI1 TR CI SLP330 SLP330
CYEG;2003-11-21 18:00;METAR CYEG 211800Z 23003KT 15SM FEW045 FEW250 M23/M26 A3025 RMK SC1CI1 TR CI SLP317 SLP317
CYEG;2003-11-21 19:00;METAR CYEG 211900Z 23002KT 15SM FEW045 M21/M24 A3025 RMK SC1 SLP316
CYEG;2003-11-21 20:00;METAR CYEG 212000Z 00000KT 15SM FEW045 FEW250 M19/M23 A3024 RMK SC1CI0 SLP314
CYEG;2003-11-21 21:00;METAR CYEG 212100Z 21002KT 15SM FEW045 M20/M23 A3022 RMK SC1 SLP305
CYEG;2003-11-21 22:00;METAR CYEG 212200Z 19004KT 15SM FEW045 M21/M25 A3021 RMK SC1 SLP300
CYEG;2003-11-21 23:00;METAR CYEG 212300Z 18005KT 15SM FEW045 M23/M27 A3020 RMK SC1 SLP297
CYEG;2003-11-22 00:00;METAR CYEG 220000Z 16002KT 15SM FEW045 M28/M32 A3018 RMK SC1 SLP304
CYEG;2003-11-22 01:00;METAR CYEG 220100Z 18004KT 15SM BCFG SKC M31/M35 A3018 RMK VIS NE 11/2SM FZFG PTCHS SLP303 PTCHS SLP303
CYEG;2003-11-22 02:00;METAR CYEG 220200Z 18006KT 15SM SKC M29/M33 A3017 RMK SLP299
CYEG;2003-11-22 03:00;METAR CYEG 220300Z 18004KT 15SM SKC M28/M32 A3016 RMK SLP302
CYEG;2003-11-22 04:00;METAR CYEG 220400Z 18006KT 15SM SKC M26/M30 A3015 RMK SLP300
CYEG;2003-11-22 05:00;METAR CYEG 220500Z 18003KT 15SM SKC M29/M34 A3013 RMK FROIN SLP293
CYEG;2003-11-22 06:00;METAR CYEG 220600Z 17002KT 15SM SKC M28/M33 A3012 RMK SLP282
CYEG;2003-11-22 07:00;METAR CYEG 220700Z 18003KT 15SM SKC M27/M31 A3011 RMK SLP280
CYEG;2003-11-22 08:00;METAR CYEG 220800Z 15003KT 15SM SKC M27/M32 A3009 RMK SLP275
CYEG;2003-11-22 09:00;METAR CYEG 220900Z 18005KT 15SM SKC M28/M32 A3008 RMK SLP267
CYEG;2003-11-22 10:00;METAR CYEG 221000Z 14006KT 15SM SKC M28/M34 A3006 RMK FROIN SLP261
CYEG;2003-11-22 11:00;METAR CYEG 221100Z 15006KT 15SM SKC M29/M33 A3005 RMK SLP256
CYEG;2003-11-22 12:00;METAR CYEG 221200Z 17005KT 15SM SKC M28/M33 A3003 RMK SLP259
CYEG;2003-11-22 13:00;METAR CYEG 221300Z 18007KT 15SM SKC M29/M34 A3002 RMK FROIN SLP255
CYEG;2003-11-22 14:00;METAR CYEG 221400Z 18008KT 15SM SKC M29/M34 A3003 RMK SLP257
CYEG;2003-11-22 15:00;METAR CYEG 221500Z 18006KT 15SM SKC M29/M34 A3002 RMK SLP254
CYEG;2003-11-22 16:00;METAR CYEG 221600Z 18007KT 15SM SKC M28/M33 A3002 RMK SLP253
CYEG;2003-11-22 17:00;METAR CYEG 221700Z 18006KT 15SM SKC M26/M30 A3001 RMK SLP252
CYEG;2003-11-22 18:00;METAR CYEG 221800Z 18006KT 15SM SKC M24/M28 A3001 RMK SLP248
CYEG;2003-11-22 19:00;METAR CYEG 221900Z 15006KT 15SM SKC M23/M27 A2999 RMK SLP242
CYEG;2003-11-22 20:00;METAR CYEG 222000Z 15004KT 15SM SKC M21/M25 A2998 RMK SLP238
CYEG;2003-11-22 21:00;METAR CYEG 222100Z 15004KT 15SM FEW250 M21/M25 A2997 RMK CI1 SLP229
CYEG;2003-11-22 22:00;METAR CYEG 222200Z 15004KT 15SM FEW250 M21/M25 A2996 RMK CI1 SLP225
CYEG;2003-11-22 23:00;METAR CYEG 222300Z 14006KT 15SM FEW250 M23/M28 A2996 RMK CI1 SLP225
CYEG;2003-11-23 00:00;METAR CYEG 230000Z 14008KT 15SM FEW250 M25/M29 A2996 RMK CI1 SLP230
CYEG;2003-11-23 01:00;METAR CYEG 230100Z 14008KT 15SM FEW200 M23/M27 A2995 RMK CI2 SLP227
CYEG;2003-11-23 02:00;METAR CYEG 230200Z 16007KT 15SM SCT200 M21/M26 A2996 RMK CI2 SLP228
CYEG;2003-11-23 03:00;METAR CYEG 230300Z 15010KT 15SM SCT200 M21/M26 A2994 RMK CI2 SLP221
CYEG;2003-11-23 04:00;METAR CYEG 230400Z 16009KT 15SM BKN067 BKN200 M20/M25 A2993 RMK AC5CI0 SLP216
CYEG;2003-11-23 05:00;METAR CYEG 230500Z 17010KT 15SM OVC059 M20/M24 A2992 RMK SC8 SLP214
CYEG;2003-11-23 06:00;METAR CYEG 230600Z 16008KT 15SM OVC052 M20/M25 A2991 RMK SC8 VIRGA SLP204
CYEG;2003-11-23 07:00;METAR CYEG 230700Z 17010KT 15SM SCT060 OVC084 M18/M23 A2991 RMK SC4AC4 VIRGA SLP202 SLP202
CYEG;2003-11-23 08:00;METAR CYEG 230800Z 16007KT 15SM SCT045 OVC085 M16/M21 A2989 RMK SC3AC5 VIRGA SLP197 SLP197
CYEG;2003-11-23 10:00;METAR CYEG 231000Z 15006KT 15SM FEW037 SCT056 OVC092 M14/M18 A2987 RMK SC2SC2AC4 VIRGA S SLP182 VIRGA S SLP182
CYEG;2003-11-23 11:00;METAR CYEG 231100Z 16006KT 3SM -SHSN OVC031 M12/M16 A2987 RMK SC8 SLP183
CYEG;2003-11-23 12:00;METAR CYEG 231200Z 16007KT 4SM -SHSN OVC051 M12/M14 A2986 RMK SC8 SLP177
CYEG;2003-11-23 13:00;METAR CYEG 231300Z 17008KT 15SM OVC051 M11/M13 A2985 RMK SC8 SLP174
CYEG;2003-11-23 14:00;METAR CYEG 231400Z 14006KT 15SM FEW035 OVC240 M12/M14 A2984 RMK SC1CI7 SLP173
CYEG;2003-11-23 15:00;METAR CYEG 231500Z 17005KT 15SM FEW050 SCT120 OVC240 M10/M13 A2984 RMK SC2AC2CI4 SLP168 SLP168
CYEG;2003-11-23 16:00;METAR CYEG 231600Z 18006KT 15SM FEW060 FEW120 OVC240 M11/M13 A2984 RMK SC2AC1CI6 SLP167 SLP167
CYEG;2003-11-23 17:00;METAR CYEG 231700Z 16004KT 15SM BKN060 OVC240 M09/M12 A2984 RMK SC4CI4
CYEG;2003-11-23 18:00;METAR CYEG 231800Z 15004KT 15SM SCT060 BKN250 M09/M12 A2982 RMK SC2CI4 SLP155
CYEG;2003-11-23 19:00;METAR CYEG 231900Z 16005KT 15SM FEW060 BKN250 M07/M10 A2979 RMK SC2CI4 SLP148
CYEG;2003-11-23 20:00;METAR CYEG 232000Z 17006KT 15SM FEW060 BKN250 M04/M08 A2977 RMK SC2CI2 SLP140
CYEG;2003-11-23 21:00;METAR CYEG 232100Z 15006KT 15SM FEW060 FEW130 BKN250 M04/M09 A2974 RMK SC1AC2CI2 SLP120 SLP120
CYEG;2003-11-23 22:00;METAR CYEG 232200Z 16005KT 15SM FEW020 FEW065 BKN100 BKN250 M04/M08 A2972 RMK CU1SC1AC3CI2 SLP115 CU1SC1AC3CI2 SLP115
CYEG;2003-11-23 23:00;METAR CYEG 232300Z 14009KT 15SM FEW020 FEW065 BKN110 BKN250 M03/M08 A2970 RMK CU1SC2AC2CI2 SLP107 CU1SC2AC2CI2 SLP107
CYEG;2003-11-24 00:00;METAR CYEG 240000Z 13005KT 15SM FEW020 FEW065 BKN100 BKN250 M04/M08 A2966 RMK CF1SC2AC5CI1 TR CF SLP091 CF1SC2AC5CI1 TR CF SLP091
CYEG;2003-11-24 01:00;METAR CYEG 240100Z 18007KT 15SM FEW065 BKN100 BKN250 M04/M08 A2963 RMK SC2AC5CI1 SLP080 SLP080
CYEG;2003-11-24 02:00;METAR CYEG 240200Z 15006KT 15SM BKN090 M04/M08 A2960 RMK AC7 VIRGA SLP072
CYEG;2003-11-24 03:00;METAR CYEG 240300Z 18006KT 15SM FEW062 BKN090 OVC120 M05/M08 A2957 RMK SC2AC4AC2 VIRGA SLP058 VIRGA SLP058
CYEG;2003-11-24 04:00;METAR CYEG 240400Z 17004KT 15SM FEW060 BKN086 OVC110 M06/M09 A2955 RMK SC2AC4AS1 VIRGA SLP051 VIRGA SLP051
CYEG;2003-11-24 05:00;METAR CYEG 240500Z 20005KT 15SM FEW080 BKN120 OVC250 M06/M09 A2951 RMK AC2AC4CI1 SLP040 SLP040
CYEG;2003-11-24 06:00;METAR CYEG 240600Z 18004KT 15SM FEW120 SCT250 M09/M12 A2951 RMK AC2CI1 SLP038
CYEG;2003-11-24 07:00;METAR CYEG 240700Z 21004KT 15SM FEW120 BKN200 M11/M14 A2949 RMK AC1CI2 SLP034
CYEG;2003-11-24 08:00;METAR CYEG 240800Z 19009KT 15SM FEW120 SCT200 M10/M12 A2945 RMK AC1CI1 SLP021
CYEG;2003-11-24 09:00;METAR CYEG 240900Z 22003KT 15SM FEW200 M15/M17 A2944 RMK CI1 SLP015
CYEG;2003-11-24 10:00;METAR CYEG 241000Z 23003KT 15SM FEW100 BKN240 M15/M18 A2943 RMK AC1CI2 FROIN SLP013 SLP013 RMK AC2CI1 VIS N-NE 2 BR FROIN SLP010 VIS N-NE3 SLP009
CYEG;2003-11-24 13:00;METAR CYEG 241300Z 31004KT 12SM BKN035 OVC080 M07/M08 A2944 RMK SC5AC3
CYEG;2003-11-24 14:00;METAR CYEG 241400Z 30005KT 5SM -SN BKN010 BKN022 OVC035 M06/M07 A2945 RMK SC6SC1SC2 FROIN SLP017 SF2SC4SC2 /S01/ SLP012
CYEG;2003-11-24 16:00;METAR CYEG 241600Z 29005KT 3SM -SN FEW013 BKN021 OVC045 M05/M06 A2945 RMK SF2SC4SC2 SLP013
CYEG;2003-11-24 17:00;METAR CYEG 241700Z 29006KT 10SM BKN060 BKN085 OVC200 M04/M06 A2946 RMK SC6AC1CI1 VIRGA ALQDS BR SLP015 VIRGA ALQDS BR SLP015
CYEG;2003-11-24 18:00;METAR CYEG 241800Z 29006KT 15SM FEW060 SCT120 BKN200 M06/M09 A2946 RMK SC1AS2CI2 TR SC SLP021 TR SC SLP021
CYEG;2003-11-24 19:00;METAR CYEG 241900Z 30006KT 15SM FEW015 SCT130 BKN200 M06/M09 A2946 RMK CU1AS3CI1 TR CU SLP021 TR CU SLP021
CYEG;2003-11-24 20:00;METAR CYEG 242000Z 30003KT 15SM FEW130 SCT200 M05/M10 A2947 RMK AS1CI1 SLP022
CYEG;2003-11-24 21:00;METAR CYEG 242100Z 30006KT 15SM FEW090 FEW130 FEW200 M05/M11 A2947 RMK AC1AS1CI1 TR CLD SLP029 TR CLD SLP029
CYEG;2003-11-24 22:00;METAR CYEG 242200Z 29008KT 15SM FEW090 FEW130 FEW200 M05/M11 A2947 RMK
CYEG;2003-11-24 23:00;METAR CYEG 242300Z 26006KT 15SM FEW090 FEW130 FEW200 M11/M15 A2948 RMK AC1AS1CI1 TR CLD SLP030 TR CLD SLP030
CYEG;2003-11-25 00:00;METAR CYEG 250000Z 24004KT 15SM FEW090 M12/M15 A2947 RMK AC1 TR AC SLP034
CYEG;2003-11-25 01:00;METAR CYEG 250100Z 21005KT 15SM FEW090 FEW250 M14/M16 A2946 RMK AC1CI1 TR CLD SLP029 SLP029
CYEG;2003-11-25 02:00;METAR CYEG 250200Z 18007KT 15SM FEW250 M15/M17 A2944 RMK CI1 TR CI SLP023
CYEG;2003-11-25 03:00;METAR CYEG 250300Z 18007KT 15SM SKC M14/M16 A2942 RMK SLP009
CYEG;2003-11-25 04:00;METAR CYEG 250400Z 18008KT 15SM FEW090 M16/M18 A2941 RMK AC2 FROIN SLP006
CYEG;2003-11-25 05:00;METAR CYEG 250500Z 18009KT 15SM FEW090 BKN170 M15/M17 A2938 RMK AC2AS2 SLP999
CYEG;2003-11-25 06:00;METAR CYEG 250600Z 18008KT 15SM BKN085 BKN170 M11/M13 A2938 RMK AC5AS2 SLP992
CYEG;2003-11-25 07:00;METAR CYEG 250700Z 18009KT 15SM FEW090 SCT170 OVC230 M13/M15 A2935 RMK AC2AS1CI2 SLP985 SLP985
CYEG;2003-11-25 08:00;METAR CYEG 250800Z 18009KT 15SM FEW070 OVC100 M13/M15 A2932 RMK AC2AS3 SLP975
CYEG;2003-11-25 09:00;METAR CYEG 250900Z 18008KT 15SM BKN080 M13/M16 A2930 RMK AC6 VIRGA N-NE SLP967
CYEG;2003-11-25 10:00;METAR CYEG 251000Z 18009KT 15SM SCT085 M12/M16 A2928 RMK AC2 SLP961
CYEG;2003-11-25 11:00;METAR CYEG 251100Z 18009KT 15SM FEW085 M13/M16 A2926 RMK AC2 SLP954
CYEG;2003-11-25 12:00;METAR CYEG 251200Z 18006KT 15SM BKN090 M12/M16 A2925 RMK AC6 VIRGA SLP954
CYEG;2003-11-25 13:00;METAR CYEG 251300Z 18007KT 15SM OVC077 M10/M14 A2922 RMK AC8 VIRGA SLP946
CYEG;2003-11-25 14:00;METAR CYEG 251400Z 17006KT 15SM BKN085 M08/M14 A2920 RMK AC6 VIRGA SLP941
CYEG;2003-11-25 15:00;METAR CYEG 251500Z 15004KT 15SM SCT085 BKN091 M10/M14 A2919 RMK AC2AC5 VIRGA ALQDS SLP935 ALQDS SLP935
CYEG;2003-11-25 16:00;METAR CYEG 251600Z 16005KT 15SM BKN087 BKN250 M09/M14 A2918 RMK AC6CI1 VIRGA SLP931 SLP931
CYEG;2003-11-25 17:00;METAR CYEG 251700Z 17008KT 15SM SCT087 BKN120 BKN250 M08/M14 A2916 RMK AC3AC1CI1 VIRGA NE-SE SLP926 VIRGA NE-SE SLP926
CYEG;2003-11-25 18:00;METAR CYEG 251800Z 18008KT 15SM SCT090 BKN250 M08/M14 A2916 RMK AC2CI1 SLP921
CYEG;2003-11-25 19:00;METAR CYEG 251900Z 18007KT 15SM FEW090 FEW250 M08/M14 A2915 RMK AC1CI1 SLP916
CYEG;2003-11-25 20:00;METAR CYEG 252000Z 18006KT 15SM FEW090 FEW250 M07/M13 A2913 RMK AC1CI1 SLP910
CYEG;2003-11-25 21:00;METAR CYEG 252100Z 17004KT 15SM FEW090 FEW250 M05/M13 A2912 RMK AC1CI1 SLP906 INVDG SLP906
CYEG;2003-11-25 23:00;METAR CYEG 252300Z 00000KT 15SM BKN088 BKN250 M07/M11 A2913 RMK AC6CI1
CYEG;2003-11-26 00:00;METAR CYEG 260000Z 21004KT 15SM BKN082 BKN250 M08/M11 A2915 RMK AC6CI1 VIRGA SLP918 SLP918
CYEG;2003-11-26 01:00;METAR CYEG 260100Z 19005KT 15SM BKN087 BKN250 M08/M12 A2917 RMK AC6CI1 VIRGA SLP922 SLP922
CYEG;2003-11-26 02:00;METAR CYEG 260200Z 20004KT 15SM BKN092 BKN250 M07/M12 A2918 RMK AC6CI1 VIRGA ALQDS SLP925 ALQDS SLP925
CYEG;2003-11-26 03:00;METAR CYEG 260300Z 19006KT 15SM FEW070 BKN088 M08/M13 A2919 RMK AC2AC6 VIRGA N-NE SLP928 SLP928
CYEG;2003-11-26 04:00;METAR CYEG 260400Z 22005KT 15SM BKN080 OVC230 M09/M13 A2921 RMK AC5CI2 SLP934
CYEG;2003-11-26 05:00;METAR CYEG 260500Z 22004KT 15SM OVC073 M06/M11 A2924 RMK AC8 SLP943
CYEG;2003-11-26 06:00;METAR CYEG 260600Z 27007KT 15SM BKN076 OVC230 M05/M10 A2926 RMK AC7CI1 SLP946
CYEG;2003-11-26 07:00;METAR CYEG 260700Z 27007KT 15SM BKN079 OVC230 M04/M09 A2928 RMK AC7CI1 SLP954
CYEG;2003-11-26 08:00;METAR CYEG 260800Z 25004KT 15SM SCT080 BKN160 M06/M11 A2931 RMK AC2AS2 SLP962
CYEG;2003-11-26 09:00;METAR CYEG 260900Z 27006KT 15SM FEW080 FEW160 M09/M13 A2933 RMK AC1AS1 SLP976
CYEG;2003-11-26 10:00;METAR CYEG 261000Z 27006KT 15SM FEW160 M10/M14 A2936 RMK AS1 SLP983
CYEG;2003-11-26 11:00;METAR CYEG 261100Z 26006KT 15SM SCT070 M10/M14 A2937 RMK AC2 SLP988
CYEG;2003-11-26 12:00;METAR CYEG 261200Z 27007KT 15SM SCT070 BKN200 M09/M13 A2939 RMK AC3CI1 SLP998
CYEG;2003-11-26 13:00;METAR CYEG 261300Z 29004KT 15SM FEW060 BKN090 BKN160 M07/M12 A2941 RMK SC2AC4AS1 VIRGA SLP004 VIRGA SLP004
CYEG;2003-11-26 14:00;METAR CYEG 261400Z 27007KT 15SM FEW050 SCT110 OVC160 M07/M12 A2945 RMK SC1AC2AS4 SLP015 SLP015 SLP026 SC2SC5AC1 /S01/ SLP038
CYEG;2003-11-26 17:00;METAR CYEG 261700Z 29003KT 15SM -SN BKN048 BKN120 OVC250 M06/M09 A2956 RMK SC5AC2CI1 SLP051
CYEG;2003-11-26 18:00;METAR CYEG 261800Z 34005KT 15SM -SN FEW035 SCT050 BKN110 OVC250 M06/M08 A2960 RMK SC2SC2AC3CI0 SLP065 SC2SC2AC3CI0 SLP065
CYEG;2003-11-26 19:00;METAR CYEG 261900Z 35007KT 15SM -SN BKN036 BKN110 BKN250 M06/M08 A2964 RMK SC5AC2CI0 SLP075
CYEG;2003-11-26 20:00;METAR CYEG 262000Z 33005KT 5SM -SN SCT034 BKN110 BKN250 M07/M09 A2967 RMK SC3AC2CI1 SLP086
CYEG;2003-11-26 21:00;METAR CYEG 262100Z 35004KT 4SM -SN FEW008 BKN040 M07/M09 A2970 RMK SF1SC6 TR SF SLP102 SLP102
CYEG;2003-11-26 22:00;METAR CYEG 262200Z 35005KT 15SM SCT045 BKN090 BKN250 M08/M11 A2973 RMK SC4AC2CI0 SLP114 SLP114
CYEG;2003-11-26 23:00;METAR CYEG 262300Z 34006KT 15SM SCT046 BKN100 M09/M12 A2979 RMK SC3AC3 SLP131
CYEG;2003-11-27 00:00;METAR CYEG 270000Z 35004KT 15SM FEW045 BKN082 M10/M12 A2983 RMK SC2AC3 SLP152
CYEG;2003-11-27 01:00;METAR CYEG 270100Z 36003KT 15SM FEW045 BKN100 M11/M13 A2986 RMK SC2AC3 SLP161
CYEG;2003-11-27 02:00;METAR CYEG 270200Z 01005KT 15SM FEW065 BKN096 M11/M13 A2989 RMK SC2AC6 VIRGA SLP170 SLP170
CYEG;2003-11-27 03:00;METAR CYEG 270300Z 05003KT 15SM SCT035 BKN090 M12/M13 A2992 RMK SC3AC4 VIRGA SLP182 SLP182
CYEG;2003-11-27 04:00;METAR CYEG 270400Z 05003KT 15SM BKN035 OVC090 M11/M12 A2996 RMK SC6AC2 SLP192
CYEG;2003-11-27 05:00;METAR CYEG 270500Z 22002KT 15SM BKN033 OVC090 M11/M13 A2998 RMK SC5AC3 VIRGA SLP201 SLP201
CYEG;2003-11-27 06:00;METAR CYEG 270600Z 06002KT 15SM -SN BKN030 OVC088 M11/M13 A3001 RMK SC6AC2 SLP212
CYEG;2003-11-27 07:00;METAR CYEG 270700Z 15004KT 15SM -SN BKN030 BKN068 M12/M13 A3002 RMK SC5AC1 SLP215
CYEG;2003-11-27 08:00;METAR CYEG 270800Z 10006KT 15SM -SN SCT021 BKN070 M14/M16 A3005 RMK SC3AC2 SLP224
CYEG;2003-11-27 09:00;METAR CYEG 270900Z 16007KT 12SM -SN SCT020 BKN070 M11/M13 A3007 RMK SC3AC2 VIS N 5SM SLP232 5SM SLP232
CYEG;2003-11-27 10:00;METAR CYEG 271000Z 17006KT 15SM FEW020 FEW070 M14/M16 A3008 RMK SC1AC2 SLP237
CYEG;2003-11-27 11:00;METAR CYEG 271100Z 17006KT 15SM FEW020 SCT100 M13/M14 A3009 RMK SC2AC1 SLP241
CYEG;2003-11-27 12:00;METAR CYEG 271200Z 18008KT 15SM FEW100 M16/M18 A3010 RMK AC2 SLP250
CYEG;2003-11-27 13:00;METAR CYEG 271300Z 19006KT 15SM FEW100 FEW210 M16/M18 A3011 RMK AC2CI0 SLP254
CYEG;2003-11-27 14:00;METAR CYEG 271400Z 18008KT 15SM FEW100 FEW210 M16/M19 A3012 RMK AC2CI0 SLP258
CYEG;2003-11-27 15:00;METAR CYEG 271500Z 18003KT 15SM FEW090 FEW210 M18/M21 A3013 RMK AC1CI1 SLP266
CYEG;2003-11-27 16:00;METAR CYEG 271600Z 19005KT 15SM FEW090 SCT220 M16/M19 A3016 RMK AC2CI1 SLP274
CYEG;2003-11-27 17:00;METAR CYEG 271700Z 17003KT 15SM FEW085 SCT240 M14/M17 A3017 RMK AC1CI2 SLP278
CYEG;2003-11-27 18:00;METAR CYEG 271800Z 18003KT 15SM FEW085 SCT240 M13/M16 A3020 RMK AC1CI2 SLP283
CYEG;2003-11-27 19:00;METAR CYEG 271900Z 00000KT 15SM SCT240 M11/M16 A3019 RMK CI1 SLP280
CYEG;2003-11-27 20:00;METAR CYEG 272000Z 00000KT 15SM SCT250 M09/M13 A3019 RMK CI1 SLP280
CYEG;2003-11-27 21:00;METAR CYEG 272100Z 16002KT 15SM BKN250 M09/M13 A3016 RMK CI2 FU ALF N-NE SLP267
CYEG;2003-11-27 22:00;METAR CYEG 272200Z 14007KT 15SM BKN250 M09/M13 A3014 RMK CI3 SLP259
CYEG;2003-11-27 23:00;METAR CYEG 272300Z 17007KT 15SM FEW180 BKN240 M08/M13 A3013 RMK AC2CI3 SLP256
CYQR;2003-08-15 16:00;METAR CYQR 151600Z 10003KT 12SM SKC 25/10 A3019 RMK SLP221
CYQR;2003-08-15 17:00;METAR CYQR 151700Z 23002KT 15SM SKC 28/11 A3019 RMK SLP221
CYQR;2003-08-15 18:00;METAR CYQR 151800Z 12004KT 10SM SKC 30/11 A3018 RMK FU SLP217
CYQR;2003-08-15 19:00;METAR CYQR 151900Z 18002KT 10SM SKC 32/10 A3017 RMK FU SLP213
CYQR;2003-08-15 22:00;METAR CYQR 142200Z 01006KT 12SM BKN330 33/07 A3008 RMK CI2 FU SLP180
CYQR;2003-08-15 20:00;METAR CYQR 152000Z 14004KT 10SM SKC 33/09 A3015 RMK FU SLP208
CYQR;2003-08-15 21:00;METAR CYQR 152100Z 16005KT 12SM SKC 34/09 A3014 RMK FU SLP203
CYQR;2003-08-15 22:00;METAR CYQR 152200Z 00000KT 12SM SKC 34/09 A3012 RMK FU SLP196
CYQR;2003-08-15 23:00;METAR CYQR 152300Z 04003KT 15SM SKC 34/09 A3010 RMK SLP190
CYQR;2003-08-16 00:00;METAR CYQR 160000Z 11006KT 15SM SKC 34/09 A3009 RMK SLP186
CYQR;2003-08-16 01:00;METAR CYQR 160100Z 09006KT 10SM SKC 32/10 A3007 RMK FU SLP180
CYQR;2003-08-16 02:00;METAR CYQR 160200Z 09006KT 10SM SKC 28/11 A3006 RMK FU SLP176
CYQR;2003-08-16 03:00;METAR CYQR 160300Z 11008KT 8SM FEW270 25/11 A3006 RMK CI1 FU SLP178
CYQR;2003-08-16 04:00;METAR CYQR 160400Z 11009KT 8SM FEW270 25/09 A3006 RMK CI1 FU SLP178
CYQR;2003-08-16 05:00;METAR CYQR 160500Z 12011KT 8SM SKC 25/09 A3006 RMK FU SLP176
CYQR;2003-08-16 06:00;METAR CYQR 160600Z 13009KT 8SM SKC 23/10 A3004 RMK FU SLP169
CYQR;2003-08-16 07:00;METAR CYQR 160700Z 13008KT 8SM SKC 20/10 A3004 RMK FU SLP166
CYQR;2003-08-16 08:00;METAR CYQR 160800Z 12009KT 8SM SKC 19/10 A3003 RMK FU SLP164
CYQR;2003-08-16 09:00;METAR CYQR 160900Z 15009KT 10SM SKC 19/10 A3002 RMK FU SLP160
CYQR;2003-08-16 10:00;METAR CYQR 161000Z 14008KT 10SM FEW120 18/10 A3002 RMK AC1 FU SLP159
CYQR;2003-08-16 11:00;METAR CYQR 161100Z 12009KT 12SM FEW120 17/11 A3001 RMK AC1 SLP158
CYQR;2003-08-16 12:00;METAR CYQR 161200Z 12009KT 12SM FEW120 BKN270 17/11 A3000 RMK AC1CI2 SLP156
CYQR;2003-08-16 13:00;METAR CYQR 161300Z 14012KT 12SM FEW120 BKN270 19/11 A3000 RMK AC1CI2
CYQR;2003-08-16 14:00;METAR CYQR 161400Z 14010KT 12SM FEW120 BKN270 20/11 A3000 RMK AC1CI2 SLP154
CYQR;2003-08-16 15:00;METAR CYQR 161500Z 15013G19KT 15SM FEW100 BKN270 23/12 A2998 RMK AC1CI1 SLP150
CYQR;2003-08-16 16:00;METAR CYQR 161600Z 15011G17KT 12SM FEW100 BKN270 28/12 A2996 RMK AC1CI1 SLP143
CYQR;2003-08-16 17:00;METAR CYQR 161700Z 15015G21KT 12SM FEW100 OVC270 30/14 A2994 RMK AC1CI1 SLP135
CYQR;2003-08-16 18:00;METAR CYQR 161800Z 14017KT 12SM FEW100 BKN270 33/15 A2992 RMK AC1CI1 SLP123
CYQR;2003-08-16 19:00;METAR CYQR 161900Z 15018KT 12SM FEW100 OVC270 34/14 A2989 RMK AC1CI2 SLP114
CYQR;2003-08-16 20:00;METAR CYQR 162000Z 16018G26KT 12SM FEW100 OVC270 36/13 A2987 RMK AC1CI2 SLP108
CYQR;2003-08-16 21:00;METAR CYQR 162100Z 16014G21KT 10SM FEW100 OVC270 37/13 A2984 RMK AC1CI2 SLP096
CYQR;2003-08-16 22:00;METAR CYQR 162200Z 16017G24KT 10SM FEW100 OVC270 37/11 A2981 RMK AC1CI2 SLP088
CYQR;2003-08-16 23:00;METAR CYQR 162300Z 16020G26KT 10SM FEW100 OVC270 37/11 A2979 RMK AC1CI2 SLP079
CYQR;2003-08-17 00:00;METAR CYQR 170000Z 16018G25KT 10SM OVC270 37/11 A2976 RMK CI2 SLP072
CYQR;2003-08-17 01:00;METAR CYQR 170100Z 16015G24KT 12SM BKN270 35/11 A2975 RMK CI1 SLP068
CYQR;2003-08-17 02:00;METAR CYQR 170200Z 14011KT 15SM BKN270 32/13 A2974 RMK CI1 SLP065
CYQR;2003-08-17 04:00;METAR CYQR 170400Z 14018G25KT 15SM BKN270 29/13 A2975 RMK CI2 SLP068
CYQR;2003-08-17 05:00;METAR CYQR 170500Z 14015G20KT 15SM SCT270 27/13 A2974 RMK CI2 SLP065
CYQR;2003-08-17 06:00;METAR CYQR 170600Z 15017KT 15SM SCT270 26/13 A2974 RMK CI1 SLP060
CYQR;2003-08-17 07:00;METAR CYQR 170700Z 15016KT 15SM FEW270 25/13 A2974 RMK CI1 SLP059
CYQR;2003-08-17 08:00;METAR CYQR 170800Z 14014KT 15SM FEW270 24/13 A2971 RMK CI1 SLP052
CYQR;2003-08-17 09:00;METAR CYQR 170900Z 24007G22KT 15SM FEW120 FEW270 23/14 A2975 RMK AC1CI1 SLP065
CYQR;2003-08-17 10:00;METAR CYQR 171000Z 14012KT 15SM FEW120 SCT270 22/14 A2973 RMK AC1CI1 SLP056
CYQR;2003-08-17 11:00;METAR CYQR 171100Z 14013KT 15SM FEW120 BKN270 22/14 A2972 RMK AC2CI1 SLP053
CYQR;2003-08-17 12:00;METAR CYQR 171200Z 16008KT 15SM FEW120 SCT270 20/14 A2972 RMK AC1CI1 SLP054
CYQR;2003-08-17 13:00;METAR CYQR 171300Z 20005KT 15SM FEW120 BKN270 19/14 A2974 RMK AC1CI2 SLP060
CYQR;2003-08-17 14:00;METAR CYQR 171400Z 32006KT 15SM FEW120 BKN270 21/15 A2974 RMK AC1CI2 SLP063
CYQR;2003-08-17 15:00;METAR CYQR 171500Z 36011KT 12SM FEW120 BKN270 23/15 A2976 RMK AC1CI2 SLP071
CYQR;2003-08-17 16:00;METAR CYQR 171600Z 36015KT 12SM BKN270 26/15 A2977 RMK CI2 SLP075
CYQR;2003-08-17 17:00;METAR CYQR 171700Z 36018G24KT 12SM BKN270 27/16 A2979 RMK CI2 SLP079
CYQR;2003-08-17 18:00;METAR CYQR 171800Z 02021G27KT 12SM OVC270 29/15 A2980 RMK CI2 SLP083
CYQR;2003-08-17 19:00;METAR CYQR 171900Z 01023G28KT 12SM OVC270 30/15 A2980 RMK CI3 SLP083
CYQR;2003-08-17 20:00;METAR CYQR 172000Z 01021G26KT 12SM OVC270 30/14 A2981 RMK CI3 SLP086
CYQR;2003-08-17 21:00;METAR CYQR 172100Z 01018G27KT 12SM OVC270 31/14 A2981 RMK CI3 SLP088
CYQR;2003-08-17 22:00;METAR CYQR 172200Z 01021G29KT 10SM OVC270 31/13 A2982 RMK CI3 SLP090
CYQR;2003-08-17 23:00;METAR CYQR 172300Z 01022G28KT 10SM FEW120 OVC270 30/09 A2983 RMK AC1CI3 SLP095
CYQR;2003-08-18 00:00;METAR CYQR 180000Z 02020G28KT 12SM SCT120 OVC270 29/07 A2986 RMK AC3CI1 SLP106
CYQR;2003-08-18 01:00;METAR CYQR 180100Z 01013G20KT 12SM FEW120 OVC270 28/07 A2987 RMK AC2CI2 SLP110
CYQR;2003-08-18 02:00;METAR CYQR 180200Z 01013G19KT 15SM FEW120 BKN270 26/08 A2989 RMK AC1CI2 ACC ASOCTD SLP116
CYQR;2003-08-18 03:00;METAR CYQR 180300Z 35010G16KT 15SM FEW120 BKN270 22/09 A2992 RMK AC1CI2 SLP129
CYQR;2003-08-18 04:00;METAR CYQR 180400Z 36011KT 15SM FEW120 BKN270 21/09 A2993 RMK AC2CI1 SLP133
CYQR;2003-08-18 05:00;METAR CYQR 180500Z 36009KT 15SM SCT120 BKN270 21/09 A2994 RMK AC3CI1 SLP135
CYQR;2003-08-18 06:00;METAR CYQR 180600Z 35006KT 15SM SCT120 BKN270 18/09 A2994 RMK AC3CI1 SLP137
CYQR;2003-08-18 07:00;METAR CYQR 180700Z 34007KT 15SM FEW120 BKN270 16/09 A2996 RMK AC2CI1 SLP144
CYQR;2003-08-18 08:00;METAR CYQR 180800Z 36006KT 15SM FEW120 BKN270 15/09 A2997 RMK AC2CI1 SLP146
CYQR;2003-08-18 09:00;METAR CYQR 180900Z 36007KT 15SM FEW120 SCT270 15/09 A2997 RMK AC1CI1 SLP148
CYQR;2003-08-18 10:00;METAR CYQR 181000Z 36006KT 15SM FEW270 14/09 A2999 RMK CI1 SLP152
CYQR;2003-08-18 11:00;METAR CYQR 181100Z 03003KT 15SM FEW270 14/09 A2999 RMK CI1 SLP154
CYQR;2003-08-18 12:00;METAR CYQR 181200Z 05010KT 15SM FEW270 18/09 A3000 RMK CI1 SLP156
CYQR;2003-08-18 13:00;METAR CYQR 181300Z 08010KT 15SM FEW270 19/08 A3001 RMK CI1 SLP160
CYQR;2003-08-18 14:00;METAR CYQR 181400Z 06011KT 15SM SKC 21/08 A3002 RMK SLP162
CYQR;2003-08-18 15:00;METAR CYQR 181500Z 07011KT 15SM SKC 24/08 A3001 RMK SLP162
CYQR;2003-08-18 16:00;METAR CYQR 181600Z 06012KT 15SM SKC 26/09 A3002 RMK SLP163
CYQR;2003-08-18 17:00;METAR CYQR 181700Z 07007KT 15SM SKC 28/08 A3002 RMK SLP163
CYQR;2003-08-18 18:00;METAR CYQR 181800Z 06007KT 15SM SKC 29/07 A3000 RMK SLP158
CYQR;2003-08-18 19:00;METAR CYQR 181900Z 07009KT 15SM SKC 30/07 A2999 RMK SLP153
CYQR;2003-08-18 20:00;METAR CYQR 182000Z 05009G15KT 15SM SKC 31/07 A2998 RMK SLP150
CYQR;2003-08-18 21:00;METAR CYQR 182100Z 07012KT 15SM SKC 32/07 A2996 RMK SLP143
CYQR;2003-08-18 22:00;METAR CYQR 182200Z 08006KT 15SM SKC 32/08 A2995 RMK SLP139
CYQR;2003-08-18 23:00;METAR CYQR 182300Z 08008G15KT 15SM SKC 32/07 A2994 RMK SLP137
CYQR;2003-08-19 00:00;METAR CYQR 190000Z 11007KT 15SM SKC 31/07 A2994 RMK SLP133
CYQR;2003-08-19 01:00;METAR CYQR 190100Z 09008KT 15SM SKC 30/08 A2992 RMK SLP128
CYQR;2003-08-19 02:00;METAR CYQR 190200Z 09008KT 15SM SKC 26/08 A2992 RMK SLP128
CYQR;2003-08-19 03:00;METAR CYQR 190300Z 09009KT 15SM SKC 23/08 A2993 RMK SLP132
CYQR;2003-08-19 04:00;METAR CYQR 190400Z 10008KT 15SM SKC 23/08 A2993 RMK SLP131
CYQR;2003-08-19 05:00;METAR CYQR 190500Z 10008KT 15SM SKC 22/08 A2992 RMK SLP129
CYQR;2003-08-19 06:00;METAR CYQR 190600Z 11009KT 15SM SKC 22/07 A2990 RMK SLP122
CYQR;2003-08-19 07:00;METAR CYQR 190700Z 12010KT 15SM SKC 22/07 A2991 RMK SLP123
CYQR;2003-08-19 08:00;METAR CYQR 190800Z 13009KT 15SM SKC 19/08 A2991 RMK SLP125
CYQR;2003-08-19 09:00;METAR CYQR 190900Z 15005KT 15SM SKC 17/08 A2992 RMK SLP128
CYQR;2003-08-19 10:00;METAR CYQR 191000Z 12006KT 15SM SKC 16/09 A2990 RMK SLP123
CYQR;2003-08-19 11:00;METAR CYQR 191100Z 13008KT 15SM SKC 15/09 A2989 RMK SLP120
CYQR;2003-08-19 12:00;METAR CYQR 191200Z 12007KT 15SM FEW120 15/10 A2989 RMK AC1 SLP120
CYQR;2003-08-19 13:00;METAR CYQR 191300Z 12006KT 15SM FEW120 17/10 A2989 RMK AC1 SLP119
CYQR;2003-08-19 14:00;METAR CYQR 191400Z 14006KT 15SM FEW120 21/10 A2989 RMK AC1 SLP120
CYQR;2003-08-19 15:00;METAR CYQR 191500Z 16009KT 15SM FEW120 24/09 A2989 RMK AC1 SLP118
CYQR;2003-08-19 16:00;METAR CYQR 191600Z 15010KT 15SM FEW120 27/09 A2988 RMK AC1 SLP115
CYQR;2003-08-19 17:00;METAR CYQR 191700Z 16008KT 15SM FEW120 28/10 A2987 RMK AC1 SLP111
CYQR;2003-08-19 18:00;METAR CYQR 191800Z 17007KT 15SM SKC 30/11 A2985 RMK SLP102
CYQR;2003-08-19 19:00;METAR CYQR 191900Z 12006KT 15SM FEW120 32/10 A2983 RMK AC1 SLP097
CYQR;2003-08-19 20:00;METAR CYQR 192000Z 24005KT 15SM FEW120 33/10 A2982 RMK AC1 SLP093
CYQR;2003-08-19 21:00;METAR CYQR 192100Z 31002KT 15SM FEW090 33/11 A2980 RMK CU1 SLP087
CYQR;2003-08-19 22:00;METAR CYQR 192200Z 17002KT 12SM SKC 34/12 A2978 RMK SLP080
CYQR;2003-08-19 23:00;METAR CYQR 192300Z 21004KT 10SM SKC 34/12 A2977 RMK FU SLP076
CYQR;2003-08-20 00:00;METAR CYQR 200000Z 18005KT 10SM SKC 34/12 A2975 RMK FU SLP071
CYQR;2003-08-20 01:00;METAR CYQR 200100Z 16003KT 10SM FEW300 33/13 A2974 RMK CI1 CB TOP DSNT S FU SLP067
CYQR;2003-08-20 02:00;METAR CYQR 200200Z 11004KT 10SM FEW300 30/14 A2974 RMK CI1 CB TOP DSNT S FU SLP066
CYQR;2003-08-20 03:00;METAR CYQR 200300Z 11005KT 15SM SKC 26/14 A2974 RMK SLP066
CYQR;2003-08-20 04:00;METAR CYQR 200400Z 12007KT 15SM SKC 24/14 A2973 RMK SLP063
CYQR;2003-08-20 05:00;METAR CYQR 200500Z 12007KT 15SM SKC 25/15 A2972 RMK SLP059
CYQR;2003-08-20 06:00;METAR CYQR 200600Z 13007KT 15SM SKC 25/15 A2972 RMK SLP055
CYQR;2003-08-20 07:00;METAR CYQR 200700Z 14009KT 15SM SKC 24/14 A2970 RMK SLP050
CYQR;2003-08-20 08:00;METAR CYQR 200800Z 16006KT 15SM SKC 22/14 A2970 RMK SLP050
CYQR;2003-08-20 09:00;METAR CYQR 200900Z 13005KT 15SM FEW100 21/14 A2969 RMK AC1 SLP046
CYQR;2003-08-20 10:00;METAR CYQR 201000Z 12006KT 15SM FEW120 21/14 A2968 RMK AC1 SLP042
CYQR;2003-08-20 11:00;METAR CYQR 201100Z 13008KT 15SM FEW030 FEW320 21/14 A2966 RMK CU2CI0 SLP038
CYQR;2003-08-20 12:00;METAR CYQR 201200Z 25010KT 15SM FEW030 FEW160 SCT320 19/14 A2969 RMK CU2AC1CI0 SLP045
CYQR;2003-08-20 13:00;METAR CYQR 201300Z 30014KT 15SM FEW030 FEW160 BKN320 17/11 A2970 RMK CU1AC1CI2 SLP051
CYQR;2003-08-20 14:00;METAR CYQR 201400Z 33016KT 12SM FEW110 FEW160 BKN280 18/11 A2970 RMK ACC1AC2CI1 FU SLP050
CYQR;2003-08-20 15:00;METAR CYQR 201500Z 33018KT 12SM FEW094 BKN280 19/11 A2971 RMK AC2CI1 FU SLP059
CYQR;2003-08-20 16:00;METAR CYQR 201600Z 32024G29KT 10SM SCT094 BKN240 21/12 A2976 RMK AC3CI1 FU SLP074
CYQR;2003-08-20 17:00;METAR CYQR 201700Z 31023G30KT 10SM SCT084 BKN110 OVC230 20/10 A2980 RMK ACC3AC3CS2 FU SLP087
CYQR;2003-08-20 18:00;METAR CYQR 201800Z 32020G28KT 12SM FEW084 BKN110 OVC220 20/09 A2982 RMK ACC1AC6CS2 SLP095
CYQR;2003-08-20 19:00;METAR CYQR 201900Z 32020KT 15SM VCSH BKN089 BKN120 18/11 A2983 RMK AC6AC2 ACC EMBDD SLP099
CYQR;2003-08-20 20:00;METAR CYQR 202000Z 32025G30KT 15SM VCSH FEW070 OVC080 18/12 A2984 RMK AC2AC6 SLP103
CYQR;2003-08-20 21:00;METAR CYQR 202100Z 34023G29KT 15SM FEW030 FEW074 BKN086 19/11 A2985 RMK CU1AC2AC5 SLP111
CYQR;2003-08-20 22:00;METAR CYQR 202200Z 35024G31KT 15SM FEW035 SCT090 22/11 A2988 RMK CU2AC2 ACC EMBDD SLP120
CYQR;2003-08-20 23:00;METAR CYQR 202300Z 35025G31KT 15SM FEW045 BKN062 22/10 A2990 RMK CU2SC3 SLP127
CYQR;2003-08-21 00:00;METAR CYQR 210000Z 35016G25KT 15SM FEW050 BKN260 22/10 A2992 RMK CU2CI0 SLP133
CYQR;2003-08-21 01:00;METAR CYQR 210100Z 35015G22KT 15SM FEW050 FEW260 21/08 A2993 RMK CU1CI0 SLP137
CYQR;2003-08-21 03:00;METAR CYQR 210300Z 32004KT 15SM FEW320 15/07 A2998 RMK CI1 SLP158
CYQR;2003-08-21 04:00;METAR CYQR 210400Z 30006KT 15SM FEW320 13/07 A3000 RMK CI0 SLP164
CYQR;2003-08-21 05:00;METAR CYQR 210500Z 27005KT 15SM FEW320 10/06 A3002 RMK CI0 SLP171
CYQR;2003-08-21 06:00;METAR CYQR 210600Z 27007KT 15SM FEW320 10/06 A3003 RMK CI0 SLP177
CYQR;2003-08-21 07:00;METAR CYQR 210700Z 27008KT 15SM FEW300 10/07 A3004 RMK CI0 AURBO SLP179
CYQR;2003-08-21 08:00;METAR CYQR 210800Z 25003KT 15SM FEW300 10/06 A3005 RMK CI0 SLP183
CYQR;2003-08-21 09:00;METAR CYQR 210900Z 25007KT 15SM FEW300 09/07 A3005 RMK CI0 SLP186
CYQR;2003-08-21 10:00;METAR CYQR 211000Z 27004KT 15SM FEW300 09/07 A3006 RMK CI0 SLP188
CYQR;2003-08-21 11:00;METAR CYQR 211100Z 25005KT 15SM FEW300 08/07 A3007 RMK CI0 SLP192
CYQR;2003-08-21 12:00;METAR CYQR 211200Z 25005KT 15SM FEW300 08/08 A3008 RMK CI0 SLP196
CYQR;2003-08-21 13:00;METAR CYQR 211300Z 26003KT 15SM FEW300 11/09 A3009 RMK CI0 SLP197
CYQR;2003-08-21 14:00;METAR CYQR 211400Z CCA 27007KT 15SM SKC 15/10 A3010 RMK FU ALF SLP201
CYQR;2003-08-21 15:00;METAR CYQR 211500Z 32006KT 15SM SKC 18/09 A3010 RMK FU ALF SLP199
CYQR;2003-08-21 16:00;METAR CYQR 211600Z 29006KT 15SM SKC 21/09 A3010 RMK FU ALF SLP200
CYQR;2003-08-21 17:00;METAR CYQR 211700Z 30006KT 15SM SKC 23/09 A3010 RMK FU ALF SLP201
CYQR;2003-08-21 18:00;METAR CYQR 211800Z 31010KT 15SM SKC 25/08 A3009 RMK FU ALF SLP195
CYQR;2003-08-21 19:00;METAR CYQR 211900Z 22005KT 15SM SKC 26/07 A3008 RMK FU ALF SLP191
CYQR;2003-08-21 20:00;METAR CYQR 212000Z 30006KT 15SM SKC 26/07 A3006 RMK FU ALF SLP186
CYQR;2003-08-21 21:00;METAR CYQR 212100Z 19004KT 15SM SKC 27/06 A3005 RMK FU ALF SLP180
CYQR;2003-08-21 22:00;METAR CYQR 212200Z 14005KT 15SM SKC 28/06 A3003 RMK FU ALF SLP174
CYQR;2003-08-21 23:00;METAR CYQR 212300Z 19003KT 15SM SKC 28/06 A3001 RMK FU ALF SLP168
CYQR;2003-08-22 00:00;METAR CYQR 220000Z 17009KT 15SM SKC 28/05 A3000 RMK FU ALF SLP163
CYQR;2003-08-22 01:00;METAR CYQR 220100Z 15008KT 15SM SKC 27/05 A2999 RMK FU ALF SLP162
CYQR;2003-08-22 03:00;METAR CYQR 220300Z 14011KT 15SM SCT240 23/06 A3001 RMK FU0 SLP163
CYQR;2003-08-22 04:00;METAR CYQR 220400Z 14011KT 15SM SCT240 20/06 A3001 RMK FU0 SLP163
CYQR;2003-08-22 05:00;METAR CYQR 220500Z 15012KT 15SM FEW240 18/05 A3000 RMK FU0 SLP161
CYQR;2003-08-22 06:00;METAR CYQR 220600Z 14010KT 15SM SKC 17/05 A3001 RMK SLP162
CYQR;2003-08-22 07:00;METAR CYQR 220700Z 14011KT 15SM SKC 16/05 A3001 RMK SLP164
CYQR;2003-08-22 08:00;METAR CYQR 220800Z 14010KT 15SM SKC 15/05 A3000 RMK SLP161
CYQR;2003-08-22 09:00;METAR CYQR 220900Z 14011KT 15SM SKC 14/05 A3000 RMK SLP159
CYQR;2003-08-22 10:00;METAR CYQR 221000Z 15012KT 15SM FEW280 15/06 A2999 RMK CI0 SLP156
CYQR;2003-08-22 11:00;METAR CYQR 221100Z 14011KT 15SM SCT280 14/06 A2999 RMK CI1 SLP155
CYQR;2003-08-22 12:00;METAR CYQR 221200Z 13011KT 15SM BKN280 15/06 A2998 RMK CI1 SLP151
CYQR;2003-08-22 13:00;METAR CYQR 221300Z 14012G17KT 15SM BKN280 16/06 A2997 RMK CI0 SLP148
CYQR;2003-08-22 14:00;METAR CYQR 221400Z 14015KT 15SM FEW280 18/07 A2996 RMK CI0 SLP146
CYQR;2003-08-22 15:00;METAR CYQR 221500Z 14015KT 15SM FEW280 22/08 A2995 RMK CI0 SLP141
CYQR;2003-08-22 16:00;METAR CYQR 221600Z 15022G28KT 15SM BKN280 25/08 A2995 RMK CI2 SLP140
CYQR;2003-08-22 17:00;METAR CYQR 221700Z 16029G35KT 15SM BKN280 28/06 A2993 RMK CI2 SLP135
CYQR;2003-08-22 18:00;METAR CYQR 221800Z 15024G33KT 15SM OVC280 28/08 A2991 RMK CI3 SLP127
CYQR;2003-08-22 19:00;METAR CYQR 221900Z 16026G32KT 15SM SCT100 OVC280 27/09 A2990 RMK AC3CI3 SLP123
CYQR;2003-08-22 20:00;METAR CYQR 222000Z 14019G28KT 15SM SCT100 OVC280 28/09 A2988 RMK AC4CI4 SLP116
CYQR;2003-08-22 21:00;METAR CYQR 222100Z 14021G28KT 15SM FEW056 BKN100 OVC280 29/08 A2986 RMK SC2AC3CI3 SLP111
CYQR;2003-08-22 22:00;METAR CYQR 222200Z 14014G21KT 15SM SCT100 OVC280 30/09 A2984 RMK AC3CI3 SLP105
CYQR;2003-08-22 23:00;METAR CYQR 222300Z 17020G25KT 15SM BKN100 OVC280 29/10 A2984 RMK AC5CI3
CYQR;2003-08-23 00:00;METAR CYQR 230000Z 15017KT 15SM -SHRA FEW045 BKN100 OVC280 27/11 A2983 RMK SC2AC4CI2 CVCTV CLD EMBDD SLP102
CYQR;2003-08-23 01:00;METAR CYQR 230100Z 12011KT 15SM -SHRA FEW025 SCT045 OVC100 23/14 A2984 RMK SC2SC2AC4 CVCTV CLD EMBDD SLP104
CYQR;2003-08-23 02:00;METAR CYQR 230200Z 12019G24KT 15SM -SHRA BKN036 OVC100 24/11 A2980 RMK SC6AC2 CVCTV CLD EMBDD SLP091
CYQR;2003-08-23 03:00;METAR CYQR 230300Z 13019G26KT 15SM SCT036 BKN054 OVC100 25/10 A2980 RMK SC3SC2AC3 SLP088
CYQR;2003-08-23 04:00;METAR CYQR 230400Z CCA 13016G25KT 15SM SCT036 BKN100 24/10 A2979 RMK SC3AC3
CYQR;2003-08-23 05:00;METAR CYQR 230500Z 13017KT 15SM SCT035 BKN100 23/09 A2979 RMK SC4AC2 SLP085
CYQR;2003-08-23 06:00;METAR CYQR 230600Z 13018G24KT 15SM SCT035 BKN100 22/10 A2977 RMK SC3AC2 SLP075
CYQR;2003-08-23 07:00;METAR CYQR 230700Z 13013G18KT 15SM SCT100 21/10 A2975 RMK AC3 SLP069
CYQR;2003-08-23 08:00;METAR CYQR 230800Z 14018G24KT 15SM BKN110 21/11 A2973 RMK AC6 SLP062
CYQR;2003-08-23 09:00;METAR CYQR 230900Z 13015G22KT 15SM BKN110 21/12 A2971 RMK AC6 SLP055
CYQR;2003-08-23 10:00;METAR CYQR 231000Z 14017G22KT 15SM BKN110 20/12 A2970 RMK AC6 SLP053
CYQR;2003-08-23 11:00;METAR CYQR 231100Z 13014KT 15SM BKN130 20/12 A2970 RMK AC6 SLP052
CYQR;2003-08-23 12:00;METAR CYQR 231200Z 14014KT 15SM FEW035 BKN120 BKN290 19/12 A2968 RMK SC2AC3CI0 SLP048
CYQR;2003-08-23 13:00;METAR CYQR 231300Z 14014G21KT 15SM BKN110 BKN130 18/12 A2967 RMK AC5AC2 ACC EMBDD SLP044
CYQR;2003-08-23 14:00;METAR CYQR 231400Z 15015G20KT 15SM FEW074 BKN110 BKN320 19/14 A2966 RMK AC2AC4CI0 SLP041
CYQR;2003-08-23 15:00;METAR CYQR 231500Z 17018G24KT 15SM FEW075 BKN110 20/14 A2967 RMK AC2AC3 SLP043
CYQR;2003-08-23 16:00;METAR CYQR 231600Z 18016KT 15SM FEW110 22/15 A2967 RMK AC2 SLP044
CYQR;2003-08-23 17:00;METAR CYQR 231700Z 19010G15KT 15SM FEW110 27/14 A2966 RMK AC2 SLP041
CYQR;2003-08-23 18:00;METAR CYQR 231800Z 29019G27KT 15SM FEW110 31/11 A2967 RMK AC2 SLP039
CYQR;2003-08-23 19:00;METAR CYQR 231900Z 29020G31KT 10SM SKC 31/11 A2967 RMK FU SLP041
CYQR;2003-08-23 20:00;METAR CYQR 232000Z 29024G29KT 8SM SKC 31/10 A2969 RMK FU SLP045
CYQR;2003-08-23 21:00;METAR CYQR 232100Z 27022G31KT 5SM FU SKC 32/11 A2969 RMK SLP049
CYQR;2003-08-23 22:00;METAR CYQR 232200Z 29020G29KT 10SM SKC 32/09 A2971 RMK FU SLP053
CYQR;2003-08-23 23:00;METAR CYQR 232300Z 29024G31KT 10SM FEW120 32/08 A2972 RMK AC1 FU SLP056
CYQR;2003-08-24 00:00;METAR CYQR 240000Z 29021G30KT 12SM SKC 30/07 A2974 RMK FU SLP066
CYQR;2003-08-24 01:00;METAR CYQR 240100Z 29022G27KT 12SM SKC 29/09 A2976 RMK FU SLP074
CYQR;2003-08-24 02:00;METAR CYQR 240200Z 32018G28KT 8SM SKC 25/13 A2980 RMK FU SLP087
CYQR;2003-08-24 03:00;METAR CYQR 240300Z 33016G25KT 10SM SKC 23/13 A2985 RMK FU SLP109
CYQR;2003-08-24 04:00;METAR CYQR 240400Z 33015G21KT 10SM SKC 21/13 A2989 RMK FU SLP120
CYQR;2003-08-24 05:00;METAR CYQR 240500Z 35010KT 10SM SKC 18/12 A2990 RMK FU SLP125
CYQR;2003-08-24 06:00;METAR CYQR 240600Z 31004KT 15SM SKC 16/11 A2992 RMK SLP131
CYQR;2003-08-24 07:00;METAR CYQR 240700Z 28006KT 15SM SKC 13/10 A2994 RMK SLP137
CYQR;2003-08-24 08:00;METAR CYQR 240800Z 29008KT 15SM SKC 11/08 A2997 RMK SLP145
CYQR;2003-08-24 09:00;METAR CYQR 240900Z 00000KT 15SM SKC 11/08 A2999 RMK SLP157
CYQR;2003-08-24 10:00;METAR CYQR 241000Z 36010KT 15SM SKC 11/09 A3000 RMK SLP160
CYQR;2003-08-24 11:00;METAR CYQR 241100Z 36006KT 15SM SKC 10/08 A3002 RMK SLP166
CYQR;2003-08-24 12:00;METAR CYQR 241200Z 35006KT 15SM FEW290 09/08 A3004 RMK CI1 SLP176
CYQR;2003-08-24 13:00;METAR CYQR 241300Z 29005KT 15SM FEW290 10/08 A3007 RMK CI0 SLP183
CYQR;2003-08-24 14:00;METAR CYQR 241400Z 30003KT 15SM FEW290 13/10 A3009 RMK CI1 SLP189
CYQR;2003-08-24 15:00;METAR CYQR 241500Z 19003KT 15SM FEW095 SCT290 16/10 A3010 RMK AC1CI1 SLP196
CYQR;2003-08-24 16:00;METAR CYQR 241600Z 15003KT 15SM SCT084 BKN290 18/08 A3010 RMK AC3CI0 SLP195
CYQR;2003-08-24 17:00;METAR CYQR 241700Z 11005KT 15SM FEW082 SCT290 20/08 A3008 RMK AC1CI0 SLP190
CYQR;2003-08-24 18:00;METAR CYQR 241800Z 14006KT 15SM FEW100 SCT290 22/07 A3007 RMK AC1CI0 SLP186
CYQR;2003-08-24 19:00;METAR CYQR 241900Z 18007KT 15SM FEW100 SCT290 24/06 A3004 RMK AC1CI1 SLP178
CYQR;2003-08-24 20:00;METAR CYQR 242000Z 23008KT 15SM FEW100 BKN290 26/07 A3003 RMK AC1CI1 SLP172
CYQR;2003-08-24 21:00;METAR CYQR 242100Z 28004KT 15SM FEW100 SCT290 27/08 A3000 RMK AC1CI1 SLP162
CYQR;2003-08-24 22:00;METAR CYQR 242200Z 21005KT 15SM FEW100 SCT290 27/07 A2997 RMK AC1CI1 SLP153
CYQR;2003-08-24 23:00;METAR CYQR 242300Z 21005KT 15SM FEW070 FEW100 SCT290 28/06 A2994 RMK CF1AC1CI2 SLP144
CYQR;2003-08-25 00:00;METAR CYQR 250000Z 26007KT 15SM FEW100 BKN290 28/05 A2993 RMK AC1CI2 SLP137
CYQR;2003-08-25 01:00;METAR CYQR 250100Z 36002KT 15SM SCT100 BKN290 27/06 A2991 RMK AC3CI1 SLP133
CYQR;2003-08-25 02:00;METAR CYQR 250200Z 12002KT 15SM FEW090 BKN290 23/06 A2990 RMK AC2CI1 ACC ASOCTD SLP130
CYQR;2003-08-25 03:00;METAR CYQR 250300Z 08005KT 15SM BKN090 BKN280 22/07 A2992 RMK AC6CI0 ACC ASOCTD SLP134
CYQR;2003-08-25 04:00;METAR CYQR 250400Z 10003KT 15SM BKN094 BKN280 21/09 A2993 RMK AC6CI0 ACC EMBDD SLP138
CYQR;2003-08-25 05:00;METAR CYQR 250500Z CCA 14002KT 15SM -SHRA BKN081 BKN280 19/09 A2993 RMK AC6CI0 CB EMBDD OCNL LTGIC SLP138
CYQR;2003-08-25 06:00;METAR CYQR 250600Z 15004KT 15SM FEW031 BKN081 BKN280 17/12 A2993 RMK SC2AC4CI0 OCNL LTNG DSNT E AND SSW SLP137
CYQR;2003-08-25 07:00;METAR CYQR 250700Z 18006KT 15SM BKN080 BKN280 15/11 A2992 RMK AC5CI0 ACC ASOCTD SLP135
CYQR;2003-08-25 08:00;METAR CYQR 250800Z 26006KT 15SM SCT100 BKN280 15/11 A2993 RMK AC4CI0
CYQR;2003-08-25 09:00;METAR CYQR 250900Z 32010KT 15SM FEW100 SCT280 13/08 A2994 RMK AC2CI0 SLP140
CYQR;2003-08-25 10:00;METAR CYQR 251000Z 34007KT 15SM FEW100 FEW280 10/07 A2994 RMK AC1CI0 SLP141
CYQR;2003-08-25 11:00;METAR CYQR 251100Z 35004KT 15SM FEW280 09/06 A2994 RMK CI0 SLP142
CYQR;2003-08-25 12:00;METAR CYQR 251200Z 32004KT 15SM FEW280 07/05 A2995 RMK CI1 SLP146
CYQR;2003-08-25 13:00;METAR CYQR 251300Z 34003KT 10SM BKN280 09/07 A2996 RMK CI2 FU ALF SLP151
CYQR;2003-08-25 14:00;METAR CYQR 251400Z 35005KT 10SM BKN270 12/08 A2998 RMK CI2 FU SLP156
CYQR;2003-08-25 15:00;METAR CYQR 251500Z 36008KT 15SM SCT270 16/07 A3000 RMK CI2 SLP163
CYQR;2003-08-25 16:00;METAR CYQR 251600Z 01008KT 15SM FEW270 21/06 A3000 RMK CI1 SLP164
CYQR;2003-08-25 17:00;METAR CYQR 251700Z 36007KT 15SM FEW270 23/05 A3000 RMK CI1 SLP162
CYQR;2003-08-25 18:00;METAR CYQR 251800Z 35008KT 15SM FEW270 24/01 A2999 RMK CI1 SLP159
CYQR;2003-08-25 19:00;METAR CYQR 251900Z 31004KT 15SM FEW270 25/01 A2999 RMK CI1 SLP156
CYQR;2003-08-25 20:00;METAR CYQR 252000Z 00000KT 15SM FEW270 26/01 A2998 RMK CI1 SLP155
CYQR;2003-08-25 21:00;METAR CYQR 252100Z 28007G15KT 15SM FEW270 27/02 A2997 RMK CI1 SLP152
CYQR;2003-08-25 22:00;METAR CYQR 252200Z 32015KT 15SM SCT270 28/02 A2996 RMK CI1 SLP147
CYQR;2003-08-25 23:00;METAR CYQR 252300Z 33007KT 15SM FEW270 27/01 A2995 RMK CI1 SLP144
CYQR;2003-08-26 00:00;METAR CYQR 260000Z 35007KT 15SM FEW270 26/01 A2994 RMK CI1 SLP145
CYQR;2003-08-26 01:00;METAR CYQR 260100Z 35007KT 15SM FEW270 25/02 A2994 RMK CI1 SLP144
CYQR;2003-08-26 02:00;METAR CYQR 260200Z 03006KT 15SM FEW270 21/02 A2994 RMK CI0 SLP145
CYQR;2003-08-26 03:00;METAR CYQR 260300Z 04003KT 15SM FEW270 19/02 A2996 RMK CI0 SLP151
CYQR;2003-08-26 04:00;METAR CYQR 260400Z 02006KT 15SM FEW270 17/02 A2999 RMK CI0 SLP158
CYQR;2003-08-26 05:00;METAR CYQR 260500Z 01004KT 15SM FEW270 15/02 A3000 RMK CI0 SLP163
CYQR;2003-08-26 06:00;METAR CYQR 260600Z 34006KT 15SM FEW270 12/02 A3002 RMK CI0 SLP170
CYQR;2003-08-26 07:00;METAR CYQR 260700Z 32005KT 15SM FEW270 11/02 A3002 RMK CI0 SLP171
CYQR;2003-08-26 08:00;METAR CYQR 260800Z 34007KT 15SM FEW270 09/02 A3004 RMK CI0 SLP175
CYQR;2003-08-26 09:00;METAR CYQR 260900Z 33005KT 15SM SCT270 09/02 A3006 RMK CI0 SLP183
CYQR;2003-08-26 10:00;METAR CYQR 261000Z 34007KT 15SM SKC 09/03 A3007 RMK SLP187
CYQR;2003-08-26 11:00;METAR CYQR 261100Z 36006KT 15SM SKC 07/02 A3008 RMK SLP190
CYQR;2003-08-26 12:00;METAR CYQR 261200Z 36003KT 15SM FEW110 FEW280 09/03 A3009 RMK AC1CI0 SLP197
CYQR;2003-08-26 13:00;METAR CYQR 261300Z 36004KT 10SM FEW110 FEW280 09/03 A3011 RMK AC1CI0 FU SLP202
CYQR;2003-08-26 14:00;METAR CYQR 261400Z 35002KT 15SM FEW110 SCT270 13/04 A3012 RMK AC2CI1 SLP206
CYQR;2003-08-26 15:00;METAR CYQR 261500Z 03007KT 15SM FEW110 SCT270 17/05 A3012 RMK AC2CI1 SLP205
CYQR;2003-08-26 16:00;METAR CYQR 261600Z 03005KT 15SM FEW110 FEW270 18/04 A3013 RMK AC1CI1 SLP207
CYQR;2003-08-26 17:00;METAR CYQR 261700Z 06004KT 15SM FEW270 20/03 A3013 RMK CI1 SLP206
CYQR;2003-08-26 18:00;METAR CYQR 261800Z 36006KT 15SM FEW270 21/02 A3011 RMK CI1 SLP203
CYQR;2003-08-26 19:00;METAR CYQR 261900Z 00000KT 15SM BKN270 22/02 A3009 RMK CI2 SLP197
CYQR;2003-08-26 20:00;METAR CYQR 262000Z 02004KT 15SM BKN270 23/02 A3008 RMK CI2 SLP194
CYQR;2003-08-26 21:00;METAR CYQR 262100Z 16003KT 15SM FEW270 24/02 A3007 RMK CI1 SLP188
CYQR;2003-08-26 22:00;METAR CYQR 262200Z 04002KT 15SM FEW270 25/02 A3004 RMK CI1 SLP180
CYQR;2003-08-26 23:00;METAR CYQR 262300Z 08006KT 15SM FEW270 25/02 A3002 RMK CI1 SLP172
CYQR;2003-08-27 00:00;METAR CYQR 270000Z 09008KT 15SM FEW270 25/02 A3000 RMK CI1 SLP164
CYQR;2003-08-27 01:00;METAR CYQR 270100Z 11007KT 15SM FEW270 24/02 A2999 RMK CI1 SLP162
CYQR;2003-08-27 02:00;METAR CYQR 270200Z 11008KT 15SM FEW080 FEW270 20/02 A2999 RMK AC1CI0 SLP160
CYQR;2003-08-27 03:00;METAR CYQR 270300Z 12011KT 15SM FEW080 SCT270 20/02 A2998 RMK AC2CI0 ACC ASOCTD SLP156
CYQR;2003-08-27 04:00;METAR CYQR 270400Z 11011KT 15SM FEW080 BKN270 18/02 A2998 RMK AC2CI0 SLP155
CYQR;2003-08-27 05:00;METAR CYQR 270500Z 11015KT 15SM FEW110 BKN270 18/03 A2998 RMK AC1CI1
CYQR;2003-08-27 06:00;METAR CYQR 270600Z 13016KT 15SM SCT110 BKN260 17/04 A2994 RMK AC3CI1 SLP141
CYQR;2003-08-27 07:00;METAR CYQR 270700Z 12014G20KT 15SM SCT110 BKN260 16/04 A2993 RMK AC3CI2 SLP139
CYQR;2003-08-27 08:00;METAR CYQR 270800Z 11015G20KT 15SM FEW090 SCT110 OVC260 16/03 A2992 RMK AC1AC3CI2 SLP136
CYQR;2003-08-27 09:00;METAR CYQR 270900Z 12017G24KT 15SM SCT110 OVC260 16/03 A2989 RMK AC3CI2 SLP122
CYQR;2003-08-27 10:00;METAR CYQR 271000Z 11020G25KT 15SM SCT051 BKN090 OVC260 17/03 A2987 RMK SC4AC3CI0 SLP116
CYQR;2003-08-27 11:00;METAR CYQR 271100Z 12023G29KT 15SM SCT060 BKN100 OVC260 16/03 A2982 RMK SC4AC3CI1 CB EMBDD OCNL LTLNG ESE SLP102
CYQR;2003-08-27 12:00;METAR CYQR 271200Z 10020G27KT 15SM FEW060 BKN100 OVC230 16/04 A2983 RMK SC1AC5CS2 ACC EMBDD SLP101
CYQR;2003-08-27 13:00;METAR CYQR 271300Z 06019G27KT 15SM SCT100 OVC230 14/07 A2988 RMK ACC4CS2 CB TOPS NE SLP118
CYQR;2003-08-27 14:00;METAR CYQR 271400Z 10021G29KT 15SM FEW100 OVC230 15/06 A2984 RMK AC2CS3 SLP107
CYQR;2003-08-27 15:00;METAR CYQR 271500Z 11027KT 15SM BKN100 OVC230 17/07 A2983 RMK AC5CS1 SLP103
CYQR;2003-08-27 16:00;METAR CYQR 271600Z 12023G31KT 15SM SCT100 OVC230 18/07 A2981 RMK AC4CI3 SLP098
CYQR;2003-08-27 17:00;METAR CYQR 271700Z 12031KT 12SM BKN110 OVC230 19/07 A2973 RMK AC5CI3 FU PRESFR SLP071
CYQR;2003-08-27 18:00;METAR CYQR 271800Z 13021G28KT 12SM SCT089 OVC230 21/08 A2978 RMK AC3CI5 FU PRESRR SLP086
CYQR;2003-08-27 19:00;METAR CYQR 271900Z 12017KT 12SM BKN089 OVC230 23/09 A2979 RMK AC6CI2 FU SLP090
CYQR;2003-08-27 20:00;METAR CYQR 272000Z 10013G19KT 15SM FEW089 OVC230 24/09 A2977 RMK AC2CI4 FU SLP083
CYQR;2003-08-27 21:00;METAR CYQR 272100Z 13011KT 15SM FEW089 OVC230 24/10 A2978 RMK AC2CI5 FU SLP085
CYQR;2003-08-27 22:00;METAR CYQR 272200Z 12011G18KT 15SM SCT094 OVC230 24/10 A2977 RMK AC3CI4 SLP082
CYQR;2003-08-27 23:00;METAR CYQR 272300Z 10008KT 15SM -SHRA FEW077 SCT085 BKN095 OVC230 23/10 A2977 RMK AC2AC2AC2CI2 CVCTV CLD EMBDD SLP082
CYQR;2003-08-28 00:00;METAR CYQR 280000Z 09007KT 10SM -SHRA SCT027 OVC110 21/13 A2978 RMK SC3AC5 CVCTV CLD EMBDD FU SLP086
CYQR;2003-08-28 01:00;METAR CYQR 280100Z 05006KT 8SM -RA BKN027 OVC079 18/15 A2980 RMK SC6AC2 FU SLP093
CYQR;2003-08-28 02:00;METAR CYQR 280200Z 10014KT 4SM -RA BR SCT032 OVC045 16/12 A2980 RMK SC3SC5
CYQR;2003-08-28 03:00;METAR CYQR 280300Z 11015G21KT 8SM -RA SCT028 OVC044 15/11 A2979 RMK SC4SC4 SLP096
CYQR;2003-08-28 04:00;METAR CYQR 280400Z 12016G22KT 15SM FEW050 OVC078 14/11 A2978 RMK SC2AC6 SLP091
CYQR;2003-08-28 05:00;METAR CYQR 280500Z 12013KT 15SM SCT069 OVC091 14/11 A2980 RMK AC3AC5 SLP097
CYQR;2003-08-28 06:00;METAR CYQR 280600Z 13010KT 15SM BKN100 14/11 A2980 RMK AC7 SLP096
CYQR;2003-08-28 07:00;METAR CYQR 280700Z 11008KT 15SM SCT110 BKN230 13/11 A2983 RMK AC4CI1 SLP104
CYQR;2003-08-28 08:00;METAR CYQR 280800Z 11012KT 15SM FEW100 BKN230 12/10 A2983 RMK AC2CI1
CYQR;2003-08-28 09:00;METAR CYQR 280900Z 12011G17KT 15SM FEW100 BKN230 11/10 A2980 RMK AC1CI1
CYQR;2003-08-28 10:00;METAR CYQR 281000Z 12010KT 15SM FEW100 SCT230 10/09 A2981 RMK AC1CI0 SLP098
CYQR;2003-08-28 11:00;METAR CYQR 281100Z 11012KT 15SM FEW080 SCT230 10/10 A2980 RMK AC2CI0
CYQR;2003-08-28 12:00;METAR CYQR 281200Z 11011KT 12SM FEW004 FEW120 SCT230 10/09 A2982 RMK SF1AC1CI0 SLP105
CYQR;2003-08-28 13:00;METAR CYQR 281300Z 13007KT 8SM BKN004 OVC019 10/10 A2984 RMK SF5SC3 BR SLP113
CYQR;2003-08-28 14:00;METAR CYQR 281400Z 14008KT 8SM BKN005 OVC017 11/11 A2986 RMK SC6SC2 BR SLP117
CYQR;2003-08-28 16:00;METAR CYQR 281600Z 17008KT 1 1/2SM -RA BR OVC004 11/11 A2987 RMK SF8 SLP125
CYQR;2003-08-28 17:00;METAR CYQR 281700Z 15006KT 8SM BKN005 OVC011 12/12 A2989 RMK SF6SC2 BR SLP130
CYQR;2003-08-28 18:00;METAR CYQR 281800Z 14007KT 12SM FEW006 OVC014 12/12 A2989 RMK SF2SC6 SLP134 SLP132
CYQR;2003-08-28 21:00;METAR CYQR 282100Z 33005KT 8SM FEW006 SCT012 OVC017 13/12 A2990 RMK SF2SF2SC5 BR VSBY E-SE 3 SLP139
CYQR;2003-08-28 22:00;METAR CYQR 282200Z 07014G22KT 1 1/2SM R13/5500FT/D -RA BR OVC005 11/11 A2994 RMK SF8 SLP150 SF6SC2 SLP163 SLP183
CYQR;2003-08-29 02:00;METAR CYQR 290200Z 03013KT 15SM -RA FEW004 BKN012 OVC070 09/08 A3011 RMK SF2SC4AC2 SLP211
CYQR;2003-08-29 03:00;METAR CYQR 290300Z 02008KT 15SM FEW004 SCT016 OVC047 09/08 A3016 RMK SF2SC2SC4 SLP228
CYQR;2003-08-29 04:00;METAR CYQR 290400Z 36009KT 15SM FEW004 FEW016 08/08 A3019 RMK SF1SC1 SLP238
CYQR;2003-08-29 05:00;METAR CYQR 290500Z 01005KT 15SM SKC 07/07 A3020 RMK SLP243
CYQR;2003-08-29 06:00;METAR CYQR 290600Z 33005KT 15SM SKC 05/05 A3022 RMK SLP253
CYQR;2003-08-29 07:00;METAR CYQR 290700Z 34008KT 15SM SKC 04/04 A3024 RMK SLP259
CYQR;2003-08-29 08:00;METAR CYQR 290800Z 00000KT 15SM SKC 04/04 A3025 RMK SLP261
CYQR;2003-08-29 09:00;METAR CYQR 290900Z 28003KT 1/4SM R13/2400V5500FT/U FG SKC 02/02 A3025 RMK FG1 SLP264
CYQR;2003-08-29 10:00;METAR CYQR 291000Z 32003KT 3SM R13/3000V5000FT/N BR FEW001 02/02 A3027 RMK SF1 SLP270
CYQR;2003-08-29 11:00;METAR CYQR 291100Z 29006KT 2SM R13/2600VP6000FT/D BR SCT049 03/03 A3027 RMK FG1SC2 SLP270
CYQR;2003-08-29 12:00;METAR CYQR 291200Z 29004KT 1/4SM R13/1400FT/N FG SKC 03/03 A3028 RMK FG5 SLP274
CYQR;2003-08-29 13:00;METAR CYQR 291300Z 23006KT 1/8SM R13/1000V1400FT/N FG VV001 04/04 A3030 RMK FG8 SLP280
CYQR;2003-08-29 14:00;METAR CYQR 291400Z 25006KT 6SM BR BKN001 BKN050 08/08 A3032 RMK SF2SC4 SLP286
CYQR;2003-08-29 15:00;METAR CYQR 291500Z 25006KT 15SM FEW001 FEW023 BKN045 09/09 A3032 RMK SF1SC1SC5 SLP284
CYQR;2003-08-29 16:00;METAR CYQR 291600Z 26009KT 15SM FEW023 BKN047 BKN077 13/11 A3032 RMK SC1SC5AC0 FEW CU EMBDD SLP284
CYQR;2003-08-29 17:00;METAR CYQR 291700Z 25010KT 15SM FEW047 FEW077 16/11 A3031 RMK SC2AC0 CU ASOCTD SLP281
CYQR;2003-08-29 18:00;METAR CYQR 291800Z 28009KT 15SM FEW052 FEW092 18/10 A3029 RMK SC2AC0 CF ASOCTD SLP272
CYQR;2003-08-29 19:00;METAR CYQR 291900Z 29009KT 15SM BKN036 20/10 A3028 RMK CU6 CU MEDIOCRIS SLP267
CYQR;2003-08-29 20:00;METAR CYQR 292000Z 29014G19KT 15SM BKN051 20/06 A3027 RMK CU6 SLP265
CYQR;2003-08-29 21:00;METAR CYQR 292100Z 32011G16KT 15SM FEW058 FEW083 21/05 A3026 RMK CU2AC1 SLP261
CYQR;2003-08-29 22:00;METAR CYQR 292200Z 31007KT 15SM SCT065 BKN085 21/06 A3025 RMK CU4AC1 TCU EMBDD VIRGA NW SLP257
CYQR;2003-08-29 23:00;METAR CYQR 292300Z 32009KT 15SM SCT057 SCT079 20/07 A3025 RMK CU3AC0 TCU EMBDD VIRGA SW SLP259
CYQR;2003-08-30 00:00;METAR CYQR 300000Z 35006KT 15SM FEW050 FEW070 20/07 A3024 RMK CF2AC0 SLP255
CYQR;2003-08-30 01:00;METAR CYQR 300100Z 32003KT 15SM BKN059 BKN095 20/08 A3024 RMK SC5AC1 CU EMBDD AC TR SLP256
CYQR;2003-08-30 02:00;METAR CYQR 300200Z 23003KT 15SM FEW060 FEW084 16/07 A3025 RMK SC1AC2 SLP259
CYQR;2003-08-30 03:00;METAR CYQR 300300Z 22006KT 15SM FEW085 12/07 A3026 RMK AC2 SLP263
CYQR;2003-08-30 04:00;METAR CYQR 300400Z 25007KT 15SM FEW085 10/06 A3027 RMK AC2 SLP264
CYQR;2003-08-30 05:00;METAR CYQR 300500Z 24008KT 15SM FEW090 09/05 A3027 RMK AC2 SLP265
CYQR;2003-08-30 06:00;METAR CYQR 300600Z 28004KT 15SM FEW090 08/05 A3028 RMK AC2 SLP267
CYQR;2003-08-30 07:00;METAR CYQR 300700Z 28003KT 15SM FEW100 09/05 A3028 RMK AC1 SLP266
CYQR;2003-08-30 08:00;METAR CYQR 300800Z 25004KT 15SM FEW100 08/05 A3027 RMK AC2 SLP263
CYQR;2003-08-30 09:00;METAR CYQR 300900Z 25002KT 15SM FEW100 07/04 A3027 RMK AC1 SLP260
CYQR;2003-08-30 10:00;METAR CYQR 301000Z 25003KT 15SM FEW100 07/04 A3027 RMK AC2 SLP262
CYQR;2003-08-30 11:00;METAR CYQR 301100Z 00000KT 15SM FEW100 06/04 A3027 RMK AC1 SLP262
CYQR;2003-08-30 12:00;METAR CYQR 301200Z 19002KT 15SM FEW100 06/04 A3027 RMK AC2 SLP262
CYQR;2003-08-30 13:00;METAR CYQR 301300Z 17002KT 15SM FEW100 07/06 A3028 RMK AC2 SLP265
CYQR;2003-08-30 14:00;METAR CYQR 301400Z 24003KT 15SM SCT120 11/07 A3028 RMK AC2 SLP265
CYQR;2003-08-30 15:00;METAR CYQR 301500Z 27008KT 15SM SCT080 17/07 A3028 RMK AC3 SLP265
CYQR;2003-08-30 16:00;METAR CYQR 301600Z 29007KT 15SM FEW080 20/07 A3028 RMK AC1 SLP263
CYQR;2003-08-30 17:00;METAR CYQR 301700Z 29012G17KT 15SM FEW080 23/07 A3027 RMK AC1 SLP261
CYQR;2003-08-30 18:00;METAR CYQR 301800Z 28012KT 15SM FEW074 FEW100 24/06 A3025 RMK CU1AC1 SLP252
CYQR;2003-08-30 20:00;METAR CYQR 302000Z CCA 30008G18KT 15SM SCT076 BKN093 24/06 A3023 RMK CU3AC2 SLP245
CYQR;2003-08-30 21:00;METAR CYQR 302100Z 29010KT 15SM BKN081 BKN096 24/06 A3022 RMK CU5AC2 SLP241
CYQR;2003-08-30 22:00;METAR CYQR 302200Z 25007KT 15SM FEW084 BKN100 25/06 A3020 RMK CU2AC5 SLP236
CYQR;2003-08-30 23:00;METAR CYQR 302300Z 31007KT 15SM FEW084 BKN099 25/05 A3019 RMK CU2AC5 SLP231
CYQR;2003-08-31 00:00;METAR CYQR 310000Z 31008KT 15SM FEW080 BKN099 25/05 A3018 RMK CU1AC3 SLP227
CYQR;2003-08-31 01:00;METAR CYQR 310100Z 28005KT 15SM FEW100 23/06 A3016 RMK AC2 SLP223
CYQR;2003-08-31 02:00;METAR CYQR 310200Z 25004KT 15SM FEW100 18/05 A3016 RMK AC2 SLP223
CYQR;2003-08-31 03:00;METAR CYQR 310300Z 24007KT 15SM FEW100 14/04 A3017 RMK AC2 SLP224
CYQR;2003-08-31 04:00;METAR CYQR 310400Z 22007KT 15SM FEW100 12/04 A3016 RMK AC2 SLP223
CYQR;2003-08-31 05:00;METAR CYQR 310500Z 23004KT 15SM SKC 11/04 A3016 RMK SLP221
CYQR;2003-08-31 06:00;METAR CYQR 310600Z 21005KT 15SM SKC 10/04 A3015 RMK SLP217
CYQR;2003-08-31 07:00;METAR CYQR 310700Z 19004KT 15SM SCT100 10/04 A3015 RMK AC4 SLP216
CYQR;2003-08-31 08:00;METAR CYQR 310800Z 20005KT 15SM BKN100 11/04 A3014 RMK AC4 SLP214
CYQR;2003-08-31 09:00;METAR CYQR 310900Z 29003KT 15SM FEW100 10/04 A3014 RMK AC2 SLP213
CYQR;2003-08-31 10:00;METAR CYQR 311000Z 06002KT 15SM FEW100 10/04 A3014 RMK AC1 SLP212
CYQR;2003-08-31 11:00;METAR CYQR 311100Z 15005KT 15SM SKC 09/04 A3013 RMK SLP210
CYQR;2003-08-31 12:00;METAR CYQR 311200Z 13004KT 15SM FEW100 07/04 A3013 RMK AC1 SLP212
CYQR;2003-08-31 13:00;METAR CYQR 311300Z 12004KT 15SM SKC 08/05 A3014 RMK SLP213
CYQR;2003-08-31 14:00;METAR CYQR 311400Z 12003KT 15SM SKC 13/05 A3015 RMK SLP218
CYQR;2003-08-31 15:00;METAR CYQR 311500Z 00000KT 15SM SKC 18/04 A3015 RMK SLP217
CYQR;2003-08-31 16:00;METAR CYQR 311600Z 00000KT 15SM SKC 22/04 A3014 RMK SLP216
CYQR;2003-08-31 17:00;METAR CYQR 311700Z 20003KT 15SM SKC 24/03 A3014 RMK SLP215
CYQR;2003-08-31 18:00;METAR CYQR 311800Z 17004KT 15SM SKC 26/03 A3012 RMK SLP204
CYQR;2003-08-31 19:00;METAR CYQR 311900Z 18012KT 15SM SKC 27/03 A3011 RMK SLP200
CYQR;2003-08-31 20:00;METAR CYQR 312000Z 20009G16KT 15SM SKC 27/02 A3009 RMK SLP193
CYQR;2003-08-31 21:00;METAR CYQR 312100Z 17011KT 15SM SKC 27/03 A3006 RMK SLP184
CYQR;2003-08-31 22:00;METAR CYQR 312200Z 15010G15KT 15SM SKC 27/03 A3004 RMK SLP178
CYQR;2003-08-31 23:00;METAR CYQR 312300Z 18010G16KT 15SM SKC 27/03 A3004 RMK SLP175
CYQR;2003-09-01 00:00;METAR CYQR 010000Z 20011KT 15SM SKC 27/02 A3003 RMK SLP175
CYQR;2003-09-01 01:00;METAR CYQR 010100Z 18008KT 15SM SKC 25/03 A3002 RMK SLP171
CYQR;2003-09-01 02:00;METAR CYQR 010200Z 17006KT 15SM FEW100 FEW320 19/02 A3002 RMK AC1CI1 SLP172
CYQR;2003-09-01 03:00;METAR CYQR 010300Z 16008KT 15SM FEW100 FEW320 18/02 A3002 RMK AC1CI1 SLP169
CYQR;2003-09-01 04:00;METAR CYQR 010400Z 14007KT 15SM FEW100 FEW320 15/02 A3001 RMK AC1CI1 SLP166
CYQR;2003-09-01 05:00;METAR CYQR 010500Z 16008KT 15SM SKC 15/02 A3000 RMK SLP164
CYQR;2003-09-01 06:00;METAR CYQR 010600Z 13009KT 15SM SKC 14/02 A3000 RMK SLP161
CYQR;2003-09-01 07:00;METAR CYQR 010700Z 13008KT 15SM SKC 14/03 A2999 RMK SLP157
CYQR;2003-09-01 08:00;METAR CYQR 010800Z 14008KT 15SM SKC 12/05 A2998 RMK SLP155
CYQR;2003-09-01 09:00;METAR CYQR 010900Z 14009KT 15SM SKC 12/07 A2997 RMK SLP152
CYQR;2003-09-01 10:00;METAR CYQR 011000Z 13009KT 15SM SKC 13/09 A2997 RMK SLP151
CYQR;2003-09-01 11:00;METAR CYQR 011100Z 12008KT 15SM FEW320 12/09 A2996 RMK CI0 SLP148
CYQR;2003-09-01 12:00;METAR CYQR 011200Z 13009KT 15SM FEW030 FEW100 FEW320 12/09 A2995 RMK SC2AC1CI1 SLP145
CYQR;2003-09-01 13:00;METAR CYQR 011300Z 12009KT 15SM FEW075 FEW320 13/10 A2995 RMK AC2CI1 SLP144
CYQR;2003-09-01 14:00;METAR CYQR 011400Z 14010KT 15SM FEW080 SCT320 15/10 A2994 RMK AC1CI1 SLP141
CYQR;2003-09-01 15:00;METAR CYQR 011500Z 15008KT 15SM FEW080 BKN320 18/11 A2993 RMK AC1CI2 SLP140
CYQR;2003-09-01 16:00;METAR CYQR 011600Z 17007KT 15SM FEW320 21/11 A2993 RMK CI1 SLP138
CYQR;2003-09-01 17:00;METAR CYQR 011700Z 20008KT 15SM SCT320 26/11 A2991 RMK CI1 SLP133
CYQR;2003-09-01 18:00;METAR CYQR 011800Z 18009KT 15SM BKN320 28/10 A2988 RMK CI2 SLP119
CYQR;2003-09-01 19:00;METAR CYQR 011900Z 21013KT 15SM FEW100 OVC320 29/08 A2986 RMK AC2CI2 SLP111
CYQR;2003-09-01 20:00;METAR CYQR 012000Z 22010KT 15SM OVC320 30/07 A2984 RMK CI5 SLP106
CYQR;2003-09-01 21:00;METAR CYQR 012100Z 23012KT 15SM BKN320 31/07 A2982 RMK CI1 SLP098
CYQR;2003-09-01 22:00;METAR CYQR 012200Z 19007KT 12SM FEW100 31/06 A2980 RMK AC1 FU SLP090
CYQR;2003-09-01 23:00;METAR CYQR 012300Z 22009KT 12SM BKN100 32/06 A2978 RMK AC5 TCU EMBDD FU SLP084
CYQR;2003-09-02 00:00;METAR CYQR 020000Z 28022G27KT 10SM FEW100TCU 30/05 A2978 RMK TCU1 FU SLP084
CYQR;2003-09-02 01:00;METAR CYQR 020100Z 28016KT 8SM FEW320 26/05 A2979 RMK CI0 FU SLP089
CYQR;2003-09-02 02:00;METAR CYQR 020200Z 34031G37KT 10SM FEW320 20/08 A2984 RMK CI0 FU SLP104
CYQR;2003-09-02 03:00;METAR CYQR 020300Z 35025G32KT 10SM FEW320 18/08 A2991 RMK CI0 FU PRESRR SLP134
CYQR;2003-09-02 04:00;METAR CYQR 020400Z 35019G25KT 10SM FEW087 SCT320 17/09 A2997 RMK AC2CI0 FU SLP151
CYQR;2003-09-02 05:00;METAR CYQR 020500Z 32007KT 15SM FEW320 13/08 A2999 RMK CI0 SLP158
CYQR;2003-09-02 06:00;METAR CYQR 020600Z 28008KT 15SM FEW320 11/09 A3002 RMK CI0 SLP167
CYQR;2003-09-02 07:00;METAR CYQR 020700Z 28007KT 15SM FEW300 10/08 A3002 RMK CI0 SLP169
CYQR;2003-09-02 08:00;METAR CYQR 020800Z 31011KT 15SM FEW300 10/05 A3004 RMK CI0 SLP173
CYQR;2003-09-02 09:00;METAR CYQR 020900Z 32012KT 15SM SKC 11/04 A3004 RMK SLP174
CYQR;2003-09-02 10:00;METAR CYQR 021000Z 31015KT 15SM SKC 11/04 A3004 RMK SLP174
CYQR;2003-09-02 11:00;METAR CYQR 021100Z 30014KT 15SM SKC 10/03 A3006 RMK SLP180
CYQR;2003-09-02 12:00;METAR CYQR 021200Z 29013KT 15SM FEW290 08/04 A3007 RMK CI0 SLP187
CYQR;2003-09-02 13:00;METAR CYQR 021300Z 27011KT 15SM FEW290 08/04 A3008 RMK CI0 SLP189
CYQR;2003-09-02 14:00;METAR CYQR 021400Z 31017G24KT 15SM FEW270 12/06 A3009 RMK CI1 SLP193
CYQR;2003-09-02 15:00;METAR CYQR 021500Z 32021G29KT 15SM FEW270 14/06 A3010 RMK CI1 SLP199
CYQR;2003-09-02 16:00;METAR CYQR 021600Z 32024G30KT 15SM FEW040 FEW270 16/06 A3009 RMK CF1CI1 SLP196
CYQR;2003-09-02 17:00;METAR CYQR 021700Z 32027G33KT 15SM FEW040 FEW270 17/07 A3009 RMK CF1CI1
CYQR;2003-09-02 18:00;METAR CYQR 021800Z 32027G36KT 15SM FEW050 FEW270 19/07 A3009 RMK CF2CI1 SLP199
CYQR;2003-09-02 19:00;METAR CYQR 021900Z 33028G35KT 15SM FEW050 FEW270 20/06 A3009 RMK CF1CI1 SLP200
CYQR;2003-09-02 20:00;METAR CYQR 022000Z 34029G34KT 15SM FEW050 FEW270 21/05 A3010 RMK CF1CI1 SLP202
CYQR;2003-09-02 21:00;METAR CYQR 022100Z 34024G30KT 15SM FEW050 FEW270 21/06 A3012 RMK CF1CI1 SLP206
CYQR;2003-09-02 23:00;METAR CYQR 022300Z 35020G27KT 15SM FEW050 FEW270 20/08 A3015 RMK CF1CI1 SLP217
CYQR;2003-09-03 00:00;METAR CYQR 030000Z 02019KT 15SM FEW050 FEW270 19/08 A3017 RMK SC1CI1 SLP227
CYQR;2003-09-03 01:00;METAR CYQR 030100Z 01012KT 15SM FEW050 FEW270 17/08 A3018 RMK SC1CI1 SLP231
CYQR;2003-09-03 02:00;METAR CYQR 030200Z 01009KT 15SM FEW050 FEW270 16/08 A3019 RMK SC1CI0 SLP234
CYQR;2003-09-03 03:00;METAR CYQR 030300Z 04007KT 15SM FEW270 14/09 A3021 RMK CI0 SLP240
CYQR;2003-09-03 04:00;METAR CYQR 030400Z 36005KT 15SM FEW270 12/08 A3023 RMK CI0 SLP246
CYQR;2003-09-03 05:00;METAR CYQR 030500Z 06007KT 15SM SKC 11/08 A3023 RMK SLP249
CYQR;2003-09-03 06:00;METAR CYQR 030600Z 12006KT 15SM SKC 10/08 A3025 RMK SLP254
CYQR;2003-09-03 07:00;METAR CYQR 030700Z 18006KT 15SM SKC 07/06 A3026 RMK SLP257
CYQR;2003-09-03 08:00;METAR CYQR 030800Z 20003KT 15SM SKC 05/05 A3026 RMK SLP258
CYQR;2003-09-03 09:00;METAR CYQR 030900Z 19005KT 15SM SKC 06/05 A3027 RMK SLP261
CYQR;2003-09-03 10:00;METAR CYQR 031000Z 19004KT 15SM SKC 04/04 A3026 RMK SLP260
CYQR;2003-09-03 11:00;METAR CYQR 031100Z 17005KT 15SM SKC 05/05 A3027 RMK SLP261
CYQR;2003-09-03 12:00;METAR CYQR 031200Z 16005KT 15SM FEW290 06/06 A3028 RMK CI0 SLP266
CYQR;2003-09-03 13:00;METAR CYQR 031300Z 12005KT 15SM FEW290 06/06 A3028 RMK CI0 SLP268
CYQR;2003-09-03 14:00;METAR CYQR 031400Z 14006KT 10SM FEW290 09/08 A3028 RMK CI0 SLP267
CYQR;2003-09-03 15:00;METAR CYQR 031500Z 18008KT 15SM FEW300 13/08 A3028 RMK CI0 SLP264
CYQR;2003-09-03 16:00;METAR CYQR 031600Z 18007KT 15SM FEW300 17/09 A3027 RMK CI0 SLP261
CYQR;2003-09-03 17:00;METAR CYQR 031700Z 17007KT 15SM SCT300 18/09 A3025 RMK CI0 SLP256
CYQR;2003-09-03 18:00;METAR CYQR 031800Z 20005KT 15SM SCT300 21/09 A3023 RMK CI0 SLP247
CYQR;2003-09-03 19:00;METAR CYQR 031900Z 21009KT 15SM SCT300 22/07 A3021 RMK CI0 SLP240
CYQR;2003-09-03 20:00;METAR CYQR 032000Z 00000KT 15SM FEW300 23/06 A3019 RMK CI0 SLP232
CYQR;2003-09-03 21:00;METAR CYQR 032100Z 30005KT 15SM FEW300 24/06 A3017 RMK CI0 SLP227
CYQR;2003-09-03 22:00;METAR CYQR 032200Z 32002KT 15SM FEW300 24/07 A3015 RMK CI0 SLP220
CYQR;2003-09-03 23:00;METAR CYQR 032300Z 26007KT 15SM FEW300 26/05 A3014 RMK CI0 SLP216
CYQR;2003-09-04 00:00;METAR CYQR 040000Z 24004KT 15SM SKC 25/04 A3013 RMK SLP210
CYQR;2003-09-04 01:00;METAR CYQR 040100Z 16004KT 15SM SKC 23/05 A3011 RMK SLP204
CYQR;2003-09-04 02:00;METAR CYQR 040200Z 13005KT 15SM SKC 19/05 A3010 RMK SLP201
CYQR;2003-09-04 03:00;METAR CYQR 040300Z 13008KT 15SM SKC 15/04 A3009 RMK SLP200
CYQR;2003-09-04 04:00;METAR CYQR 040400Z 14011KT 15SM SKC 17/05 A3008 RMK SLP197
CYQR;2003-09-04 05:00;METAR CYQR 040500Z 15012KT 15SM SKC 15/04 A3008 RMK SLP195
CYQR;2003-09-04 06:00;METAR CYQR 040600Z 15010KT 15SM SKC 13/04 A3007 RMK SLP187
CYQR;2003-09-04 07:00;METAR CYQR 040700Z 15010KT 15SM SKC 12/04 A3006 RMK SLP184
CYQR;2003-09-04 08:00;METAR CYQR 040800Z 14011KT 15SM SKC 11/05 A3005 RMK SLP182
CYQR;2003-09-04 09:00;METAR CYQR 040900Z 14012KT 15SM SKC 11/05 A3004 RMK SLP179
CYQR;2003-09-04 10:00;METAR CYQR 041000Z 13010KT 15SM SKC 11/05 A3004 RMK SLP178
CYQR;2003-09-04 11:00;METAR CYQR 041100Z 13010KT 15SM SKC 10/05 A3003 RMK SLP175
CYQR;2003-09-04 12:00;METAR CYQR 041200Z 13011KT 15SM FEW280 09/05 A3002 RMK CI0 SLP171
CYQR;2003-09-04 13:00;METAR CYQR 041300Z 13011KT 15SM FEW280 10/05 A3001 RMK CI0 SLP167
CYQR;2003-09-04 14:00;METAR CYQR 041400Z 13012KT 15SM FEW280 13/06 A3000 RMK CI0 SLP164
CYQR;2003-09-04 15:00;METAR CYQR 041500Z 13012KT 15SM BKN280 17/07 A2998 RMK CI1 FU ALF SLP160
CYQR;2003-09-04 16:00;METAR CYQR 041600Z 15012KT 15SM BKN280 22/07 A2996 RMK CI1 FU ALF SLP153
CYQR;2003-09-04 17:00;METAR CYQR 041700Z 17012KT 12SM SCT280 26/07 A2994 RMK CI0 FU ALF SLP147
CYQR;2003-09-04 18:00;METAR CYQR 041800Z 17016KT 12SM SCT280 30/06 A2991 RMK CI0 FU ALF SLP128
CYQR;2003-09-04 20:00;METAR CYQR 042000Z 20019G26KT 10SM FEW280 32/05 A2987 RMK CI0 FU SLP114
CYQR;2003-09-04 21:00;METAR CYQR 042100Z 21017KT 10SM SCT280 33/05 A2984 RMK CI2 FU SLP105
CYQR;2003-09-05 22:00;METAR CYQR 042200Z 21016KT 8SM BKN280 34/05 A2982 RMK CI2 FU SLP097
CYQR;2003-09-05 23:00;METAR CYQR 042300Z 21014G25KT 8SM BKN280 34/05 A2979 RMK CI2 FU SLP088
CYQR;2003-09-05 00:00;METAR CYQR 050000Z 26012G18KT 5SM FU BKN280 32/04 A2979 RMK CI3 SLP087
CYQR;2003-09-05 01:00;METAR CYQR 050100Z 25008KT 4SM FU BKN280 27/04 A2979 RMK CI3 SLP086
CYQR;2003-09-05 02:00;METAR CYQR 050200Z 25007KT 4SM FU BKN280 22/02 A2979 RMK CI3 SLP086
CYQR;2003-09-05 04:00;METAR CYQR 050400Z 27007KT 4SM FU BKN280 17/03 A2982 RMK CI2 SLP101
CYQR;2003-09-05 05:00;METAR CYQR 050500Z 29003KT 4SM FU SCT280 15/02 A2984 RMK CI1 SLP106
CYQR;2003-09-05 06:00;METAR CYQR 050600Z 01003KT 4SM FU SCT280 16/04 A2985 RMK CI1 SLP105
CYQR;2003-09-05 07:00;METAR CYQR 050700Z 32003KT 4SM FU SCT280 12/03 A2986 RMK CI1 SLP109
CYQR;2003-09-05 08:00;METAR CYQR 050800Z 34008KT 6SM FU SCT280 13/04 A2987 RMK CI0 SLP112
CYQR;2003-09-05 10:00;METAR CYQR 051000Z 35008KT 6SM FU FEW280 11/05 A2989 RMK CI0 SLP120
CYQR;2003-09-05 11:00;METAR CYQR 051100Z 32007KT 10SM FEW280 10/06 A2992 RMK CI0 SLP128
CYQR;2003-09-05 12:00;METAR CYQR 051200Z 00000KT 10SM BKN280 09/04 A2993 RMK CI2 SLP136
CYQR;2003-09-05 13:00;METAR CYQR 051300Z 31003KT 6SM FU FEW160 BKN280 08/04 A2994 RMK AC2CI1 SLP140
CYQR;2003-09-05 14:00;METAR CYQR 051400Z 35002KT 4SM FU FEW120 SCT280 12/08 A2996 RMK AC2CI0 SLP145
CYQR;2003-09-05 15:00;METAR CYQR 051500Z 08006KT 8SM FEW120 FEW280 19/11 A2995 RMK AC1CI0 FU
CYQR;2003-09-05 16:00;METAR CYQR 051600Z 09012KT 10SM FEW280 22/10 A2995 RMK CI0 FU SLP144
CYQR;2003-09-05 17:00;METAR CYQR 051700Z 09013KT 10SM FEW280 24/10 A2995 RMK CI0 FU SLP144
CYQR;2003-09-05 18:00;METAR CYQR 051800Z 11013KT 10SM FEW280 25/09 A2994 RMK CI0 FU SLP139
CYQR;2003-09-05 19:00;METAR CYQR 051900Z 09013KT 10SM FEW280 27/08 A2991 RMK CI0 FU SLP131
CYQR;2003-09-05 20:00;METAR CYQR 052000Z 13013KT 12SM FEW280 28/08 A2990 RMK CI0 FU SLP128
CYQR;2003-09-05 21:00;METAR CYQR 052100Z 12012G17KT 10SM FEW280 29/08 A2989 RMK CI0 FU SLP121
CYQR;2003-09-06 00:00;METAR CYQR 060000Z 10011KT 10SM SKC 29/08 A2986 RMK FU SLP115
CYQR;2003-09-06 01:00;METAR CYQR 060100Z 08013G19KT 10SM SKC 27/08 A2986 RMK FU SLP114
CYQR;2003-09-06 02:00;METAR CYQR 060200Z 09015KT 10SM SKC 24/08 A2985 RMK FU SLP113
CYQR;2003-09-06 03:00;METAR CYQR 060300Z 09018G24KT 12SM SKC 23/08 A2986 RMK FU SLP111
CYQR;2003-09-06 04:00;METAR CYQR 060400Z 09015KT 15SM FEW270 22/08 A2986 RMK CI1 SLP113
CYQR;2003-09-06 05:00;METAR CYQR 060500Z 10013KT 15SM FEW270 21/08 A2986 RMK CI1 SLP113
CYQR;2003-09-06 06:00;METAR CYQR 060600Z 08012KT 15SM SKC 19/08 A2987 RMK SLP115
CYQR;2003-09-06 07:00;METAR CYQR 060700Z 11011KT 15SM SKC 19/08 A2986 RMK SLP111
CYQR;2003-09-06 08:00;METAR CYQR 060800Z 11010KT 15SM SKC 17/08 A2987 RMK SLP114
CYQR;2003-09-06 09:00;METAR CYQR 060900Z 11010KT 15SM SKC 16/09 A2987 RMK SLP114
CYQR;2003-09-06 10:00;METAR CYQR 061000Z 12008KT 15SM SKC 14/09 A2988 RMK SLP116
CYQR;2003-09-06 11:00;METAR CYQR 061100Z 12007KT 15SM SKC 13/09 A2988 RMK SLP117
CYQR;2003-09-06 12:00;METAR CYQR 061200Z 11006KT 15SM SKC 13/09 A2989 RMK SLP122
CYQR;2003-09-06 13:00;METAR CYQR 061300Z 11006KT 15SM SKC 13/10 A2989 RMK SLP124
CYQR;2003-09-06 14:00;METAR CYQR 061400Z 12006KT 15SM SKC 15/10 A2990 RMK SLP126
CYQR;2003-09-06 15:00;METAR CYQR 061500Z 13006KT 15SM SKC 18/11 A2991 RMK SLP129
CYQR;2003-09-06 16:00;METAR CYQR 061600Z 00000KT 15SM SKC 20/11 A2991 RMK SLP130
CYQR;2003-09-06 17:00;METAR CYQR 061700Z 08004KT 10SM SKC 23/12 A2991 RMK FU SLP129
CYQR;2003-09-06 18:00;METAR CYQR 061800Z 11005KT 10SM SKC 26/11 A2990 RMK FU SLP125
CYQR;2003-09-06 19:00;METAR CYQR 061900Z 13002KT 15SM SKC 30/11 A2989 RMK SLP121
CYQR;2003-09-06 20:00;METAR CYQR 062000Z 01004KT 10SM SKC 31/10 A2989 RMK FU SLP120
CYQR;2003-09-06 21:00;METAR CYQR 062100Z 09003KT 10SM SKC 32/10 A2988 RMK FUI SLP115
CYQR;2003-09-06 22:00;METAR CYQR 062200Z 09005KT 10SM SKC 33/09 A2987 RMK FU SLP113
CYQR;2003-09-06 23:00;METAR CYQR 062300Z 06002KT 10SM SKC 33/08 A2987 RMK FU SLP112
CYQR;2003-09-07 00:00;METAR CYQR 070000Z 08009KT 10SM SKC 31/10 A2987 RMK FU SLP114
CYQR;2003-09-07 01:00;METAR CYQR 070100Z 09008KT 5SM FU SKC 28/10 A2987 RMK FU4 SLP114
CYQR;2003-09-07 02:00;METAR CYQR 070200Z 09011KT 8SM BKN270 26/10 A2988 RMK CS2 FU SLP116
CYQR;2003-09-07 04:00;METAR CYQR 070400Z 10014KT 12SM SCT270 23/12 A2988 RMK CS2 FU SLP119
CYQR;2003-09-07 05:00;METAR CYQR 070500Z 10014KT 15SM SCT270 23/12 A2988 RMK CS2 SLP118
CYQR;2003-09-07 06:00;METAR CYQR 070600Z 11015KT 15SM SCT270 22/12 A2988 RMK CS2 SLP115
CYQR;2003-09-07 07:00;METAR CYQR 070700Z 12015KT 10SM SCT270 21/12 A2988 RMK CI2 FU SLP115
CYQR;2003-09-07 08:00;METAR CYQR 070800Z 11009KT 10SM SCT270 19/12 A2988 RMK CI2 FU SLP115
CYQR;2003-09-07 09:00;METAR CYQR 070900Z 11011KT 10SM FEW270 18/12 A2987 RMK CI1 FU SLP110
CYQR;2003-09-07 11:00;METAR CYQR 071100Z 12011KT 10SM SCT270 17/12 A2987 RMK CI1 FU SLP109
CYQR;2003-09-07 12:00;METAR CYQR 071200Z 13011KT 10SM SCT270 16/12 A2987 RMK CI2 FU SLP111
CYQR;2003-09-07 13:00;METAR CYQR 071300Z 13014KT 15SM FEW120 SCT270 16/13 A2987 RMK AC1CI2 SLP111
CYQR;2003-09-07 14:00;METAR CYQR 071400Z 14014KT 12SM FEW120 SCT320 17/13 A2987 RMK AC1CI1 FU
CYQR;2003-09-07 15:00;METAR CYQR 071500Z 13013G18KT 12SM FEW120 BKN320 19/13 A2985 RMK AC1CI2 FU SLP109
CYQR;2003-09-07 16:00;METAR CYQR 071600Z 14013KT 15SM BKN320 22/14 A2985 RMK CS3 HALO SLP109
CYQR;2003-09-07 17:00;METAR CYQR 071700Z 14013KT 15SM OVC320 26/13 A2985 RMK CI3 SLP107
CYQR;2003-09-07 18:00;METAR CYQR 071800Z 16014KT 15SM OVC320 29/13 A2984 RMK CI3 SLP099
CYQR;2003-09-07 19:00;METAR CYQR 071900Z 14014KT 15SM OVC320 31/13 A2982 RMK CI5 SLP093
CYQR;2003-09-07 20:00;METAR CYQR 072000Z 14018KT 15SM OVC320 32/11 A2981 RMK CI6 SLP089
CYQR;2003-09-07 21:00;METAR CYQR 072100Z 14019G25KT 15SM OVC320 32/10 A2979 RMK CI6 SLP084
CYQR;2003-09-07 22:00;METAR CYQR 072200Z 13021KT 15SM OVC320 32/11 A2978 RMK CI6 SLP079
CYQR;2003-09-07 23:00;METAR CYQR 072300Z 13021G26KT 15SM OVC320 31/11 A2976 RMK CI6 SLP073
CYQR;2003-09-08 00:00;METAR CYQR 080000Z 13015KT 15SM OVC320 30/12 A2974 RMK CI6 SLP070
CYQR;2003-09-08 01:00;METAR CYQR 080100Z 13021G26KT 15SM FEW100 OVC320 29/14 A2973 RMK AC2CI4 SLP066
CYQR;2003-09-08 02:00;METAR CYQR 080200Z 12014KT 15SM FEW120 BKN300 27/14 A2973 RMK AC1CI2
CYQR;2003-09-08 03:00;METAR CYQR 080300Z 12014G19KT 15SM FEW120 BKN300 24/15 A2975 RMK AC2CI2 LTGCG SW SLP075
CYQR;2003-09-08 04:00;METAR CYQR 080400Z 12012KT 15SM BKN120 BKN300 23/15 A2974 RMK AC5CI2 LTGCG SW SLP072
CYQR;2003-09-08 05:00;METAR CYQR 080500Z 13017KT 15SM BKN120 OVC300 23/15 A2974 RMK AC6CI2 SLP070
CYQR;2003-09-08 06:00;METAR CYQR 080600Z 12010G15KT 15SM BKN120 OVC300 23/15 A2973 RMK AC6CI2 SLP060
CYQR;2003-09-08 07:00;METAR CYQR 080700Z 12007KT 15SM SCT120 OVC300 22/15 A2972 RMK AC4CI2 SLP059
CYQR;2003-09-08 08:00;METAR CYQR 080800Z 11009KT 15SM SCT120 OVC270 22/15 A2970 RMK AC3CI2 SLP052
CYQR;2003-09-08 09:00;METAR CYQR 080900Z 12014KT 15SM BKN120 22/14 A2968 RMK AC5 SLP044
CYQR;2003-09-08 10:00;METAR CYQR 081000Z 13017KT 15SM SCT120 21/12 A2967 RMK AC2 SLP039
CYQR;2003-09-08 11:00;METAR CYQR 081100Z 13014KT 15SM FEW120 BKN270 21/12 A2967 RMK AC2CI1 SLP039
CYQR;2003-09-08 12:00;METAR CYQR 081200Z 13014KT 15SM FEW120 BKN270 19/11 A2966 RMK AC2CI1
CYQR;2003-09-08 13:00;METAR CYQR 081300Z 12014G19KT 15SM FEW120 BKN270 18/12 A2965 RMK AC1CI2 ACC ASOCTD SLP035
CYQR;2003-09-08 14:00;METAR CYQR 081400Z 14016KT 15SM FEW120 BKN270 20/12 A2964 RMK AC1CI2 SLP032
CYQR;2003-09-08 15:00;METAR CYQR 081500Z 14014KT 15SM FEW120 OVC270 22/12 A2962 RMK AC2CI2 SLP026
CYQR;2003-09-08 16:00;METAR CYQR 081600Z 14014KT 15SM FEW120 OVC270 25/13 A2960 RMK AC2CI2 SLP021
CYQR;2003-09-08 17:00;METAR CYQR 081700Z 15020G26KT 15SM FEW120 OVC270 25/13 A2959 RMK AC2CI2 SLP018
CYQR;2003-09-08 18:00;METAR CYQR 081800Z 16017G27KT 15SM FEW120 OVC270 28/13 A2958 RMK AC2CI2 SLP009
CYQR;2003-09-08 19:00;METAR CYQR 081900Z 18020G29KT 15SM FEW100 OVC270 29/13 A2957 RMK AC2CI2 SLP006
CYQR;2003-09-08 20:00;METAR CYQR 082000Z 17015G22KT 15SM FEW066 SCT100 OVC270 32/14 A2955 RMK AC2AC2CI2 SLP000
CYQR;2003-09-08 21:00;METAR CYQR 082100Z 16018G27KT 15SM FEW070 SCT100 OVC270 32/12 A2953 RMK CU2AC2CI1 SLP990
CYQR;2003-09-08 22:00;METAR CYQR 082200Z 16021G27KT 15SM FEW070 SCT100 OVC270 32/13 A2951 RMK CU2AC2CI1 TCU ASOCTD SLP984
CYQR;2003-09-08 23:00;METAR CYQR 082300Z 17023G30KT 15SM FEW070TCU SCT100 BKN270 31/13 A2949 RMK TCU2AC2CI0 CB NW SLP979
CYQR;2003-09-09 00:00;METAR CYQR 090000Z 16025G30KT 15SM FEW070 SCT100 BKN270 30/13 A2948 RMK AC2AC2CI0 CB W SLP978
CYQR;2003-09-09 01:00;METAR CYQR 090100Z 16012KT 15SM FEW070 BKN100 OVC270 28/13 A2949 RMK AC2AC3CI2 SLP979
CYQR;2003-09-09 02:00;METAR CYQR 090200Z 15015KT 15SM BKN080 OVC270 27/12 A2947 RMK AC5CI2 LTGCG S-SW SLP975
CYQR;2003-09-09 03:00;METAR CYQR 090300Z 30009G28KT 15SM SCT080 BKN110 OVC270 26/13 A2947 RMK AC3AC3CI2 LTGCG S-SW SLP976
CYQR;2003-09-09 04:00;METAR CYQR 090400Z 25023G35KT 15SM FEW050CB BKN110 OVC270 21/12 A2952 RMK CB2AC4CI2 LTGICCG S-SW SLP990
CYQR;2003-09-09 05:00;METAR CYQR 090500Z 03007KT 15SM FEW025 SCT050CB OVC110 18/16 A2948 RMK SF2CB2AC4 LTGCG W-S SLP977
CYQR;2003-09-09 06:00;METAR CYQR 090600Z 11005KT 12SM -TSRA BKN030CB OVC110 18/16 A2948 RMK CB5AC3 LTGCG N-NW-SW-S SLP979
CYQR;2003-09-09 08:00;METAR CYQR 090800Z 10006KT 15SM BKN110 OVC270 18/16 A2946 RMK AC6CI2 SLP973
CYQR;2003-09-09 09:00;METAR CYQR 090900Z 17005KT 15SM BKN110 OVC270 18/16 A2942 RMK AC6CI2 SLP956
CYQR;2003-09-09 10:00;METAR CYQR 091000Z 29003KT 15SM OVC110 17/16 A2940 RMK AC8 SLP950
CYQR;2003-09-09 11:00;METAR CYQR 091100Z 25006KT 15SM FEW008 OVC090 17/16 A2946 RMK SF2AC6 SLP968
CYQR;2003-09-09 12:00;METAR CYQR 091200Z 28015KT 15SM FEW010 BKN055 OVC090 16/15 A2947 RMK SF2SC2AC3 SLP975
CYQR;2003-09-09 13:00;METAR CYQR 091300Z 25018G26KT 4SM -TSRA BR BKN007 OVC050 15/14 A2950 RMK SF6SC2 CB EMBDD SLP986
CYQR;2003-09-09 14:00;METAR CYQR 091400Z 26015KT 12SM -SHRA BKN007 BKN054 OVC083 14/14 A2950 RMK SF3SC2AC2 CVCTV CLD EMBDD SLP985
CYQR;2003-09-09 15:00;METAR CYQR 091500Z 27015G20KT 15SM BKN009 OVC030 14/14 A2951 RMK SF6SC2 SLP994
CYQR;2003-09-09 16:00;METAR CYQR 091600Z 24019G25KT 15SM BKN012 OVC031 15/13 A2956 RMK SC6SC2 PRESRR SLP008
CYQR;2003-09-09 17:00;METAR CYQR 091700Z 26018G25KT 15SM SCT017 17/14 A2956 RMK CU4 SLP009
CYQR;2003-09-09 18:00;METAR CYQR 091800Z 25018G24KT 15SM SCT021 19/14 A2958 RMK CU4 SLP017
CYQR;2003-09-09 19:00;METAR CYQR 091900Z 24022G29KT 15SM SCT021 BKN320 19/13 A2958 RMK CU4CI0 TCU ASOCTD SLP019
CYQR;2003-09-09 20:00;METAR CYQR 092000Z 24018G25KT 15SM SCT025 SCT072 18/12 A2961 RMK CU3AC1 TCU ASOCTD SLP028
CYQR;2003-09-09 21:00;METAR CYQR 092100Z 23027G32KT 15SM BKN038 BKN320 20/09 A2962 RMK CU5CI1 TCU ASOCTD SLP032
CYQR;2003-09-09 22:00;METAR CYQR 092200Z 24026G33KT 15SM SCT045 BKN320 19/09 A2965 RMK CU4CI1 TCU ASOCTD SLP041
CYQR;2003-09-09 23:00;METAR CYQR 092300Z 25023KT 15SM SCT045 BKN320 18/08 A2966 RMK CU4CI2 SLP045
CYQR;2003-09-10 00:00;METAR CYQR 100000Z 26021G28KT 15SM FEW045 BKN320 18/08 A2967 RMK SC2CI1 CU ASOCTD SLP053
CYQR;2003-09-10 01:00;METAR CYQR 100100Z 27011G17KT 15SM FEW045 BKN320 16/08 A2969 RMK SC1CI2 SLP058
CYQR;2003-09-10 02:00;METAR CYQR 100200Z 27007KT 15SM FEW045 BKN320 13/08 A2971 RMK SC1CI2 SLP064
CYQR;2003-09-10 03:00;METAR CYQR 100300Z 26008KT 15SM FEW045 BKN320 11/08 A2973 RMK SC1CI2 SLP076
CYQR;2003-09-10 04:00;METAR CYQR 100400Z 24009KT 15SM SCT300 11/07 A2974 RMK CI0 SLP079
CYQR;2003-09-10 05:00;METAR CYQR 100500Z 22007KT 15SM FEW300 09/07 A2975 RMK CI0 SLP084
CYQR;2003-09-10 06:00;METAR CYQR 100600Z 20007KT 15SM FEW300 08/07 A2977 RMK CI0 SLP089
CYQR;2003-09-10 07:00;METAR CYQR 100700Z 20005KT 15SM FEW300 06/06 A2976 RMK CI0 SLP087
CYQR;2003-09-10 08:00;METAR CYQR 100800Z 19008KT 15SM SKC 06/05 A2976 RMK SLP088
CYQR;2003-09-10 09:00;METAR CYQR 100900Z 22009KT 15SM FEW300 07/06 A2978 RMK CI0 SLP092
CYQR;2003-09-10 10:00;METAR CYQR 101000Z 20008KT 15SM FEW300 06/05 A2979 RMK CI0 SLP096
CYQR;2003-09-10 11:00;METAR CYQR 101100Z 24009KT 15SM FEW300 07/06 A2979 RMK CI0 SLP097
CYQR;2003-09-10 12:00;METAR CYQR 101200Z 22008KT 15SM FEW300 06/05 A2982 RMK CI0 SLP109
CYQR;2003-09-10 13:00;METAR CYQR 101300Z 26007KT 15SM FEW280 FEW300 06/05 A2981 RMK CI0CI0 SLP105
CYQR;2003-09-10 14:00;METAR CYQR 101400Z 27004KT 15SM FEW120 BKN320 08/07 A2981 RMK AC1CI0 SLP106
CYQR;2003-09-10 15:00;METAR CYQR 101500Z 24011KT 15SM FEW120 FEW320 12/08 A2984 RMK AC1CI0 SLP118
CYQR;2003-09-10 16:00;METAR CYQR 101600Z 27010KT 15SM FEW120 BKN320 14/08 A2984 RMK AC1CI4 SLP117
CYQR;2003-09-10 17:00;METAR CYQR 101700Z 29007KT 15SM BKN320 16/07 A2982 RMK CI7 SLP110
CYQR;2003-09-10 18:00;METAR CYQR 101800Z 28011KT 15SM OVC320 17/06 A2982 RMK CI6 SLP107
CYQR;2003-09-10 19:00;METAR CYQR 101900Z 29014G24KT 15SM FEW052 OVC320 19/06 A2979 RMK CF1CI4 SLP098
CYQR;2003-09-10 20:00;METAR CYQR 102000Z 29014G24KT 15SM FEW055 OVC320 20/05 A2976 RMK CF1CI7 SLP090
CYQR;2003-09-10 21:00;METAR CYQR 102100Z 30017G26KT 15SM FEW064 SCT099 OVC320 20/05 A2975 RMK CU1AC2CI5 SLP083
CYQR;2003-09-10 22:00;METAR CYQR 102200Z 33014G25KT 15SM FEW065 BKN100 OVC320 20/04 A2975 RMK CU1AC5CI3 SLP084
CYQR;2003-09-10 23:00;METAR CYQR 102300Z 32015G21KT 15SM BKN100 OVC320 19/05 A2975 RMK AC5CI3 SLP083
CYQR;2003-09-11 00:00;METAR CYQR 110000Z 33012G19KT 15SM BKN100 OVC320 19/06 A2974 RMK AC5CI3 SLP083
CYQR;2003-09-11 01:00;METAR CYQR 110100Z 34009KT 15SM FEW100 OVC320 17/07 A2975 RMK AC2CI3 SLP086
CYQR;2003-09-11 02:00;METAR CYQR 110200Z 33006KT 15SM SCT100 OVC320 15/08 A2976 RMK AC3CI0 SLP089
CYQR;2003-09-11 03:00;METAR CYQR 110300Z 31007KT 15SM SCT100 OVC320 13/08 A2978 RMK AC3CI0 SLP093
CYQR;2003-09-11 04:00;METAR CYQR 110400Z 28007KT 15SM SCT100 OVC320 12/08 A2978 RMK AC3CI0
CYQR;2003-09-11 05:00;METAR CYQR 110500Z CCA 30009KT 15SM FEW100 BKN320 11/08 A2978 RMK AC1CS0 HALO SLP093
CYQR;2003-09-11 06:00;METAR CYQR 110600Z 29008KT 15SM SCT110 BKN320 10/08 A2977 RMK AC2CI0 HALO
CYQR;2003-09-11 07:00;METAR CYQR 110700Z 27010KT 15SM SCT110 08/06 A2977 RMK AC2 SLP089
CYQR;2003-09-11 08:00;METAR CYQR 110800Z 28007KT 15SM BKN110 07/06 A2977 RMK AC2 SLP090
CYQR;2003-09-11 09:00;METAR CYQR 110900Z 29004KT 15SM BKN110 07/06 A2977 RMK AC2 SLP090
CYQR;2003-09-11 10:00;METAR CYQR 111000Z 27003KT 15SM SCT130 07/06 A2978 RMK AC2 SLP094
CYQR;2003-09-11 11:00;METAR CYQR 111100Z 23004KT 15SM FEW130 BKN300 05/04 A2979 RMK AC2CI0 SLP097
CYQR;2003-09-11 12:00;METAR CYQR 111200Z 21007KT 15SM FEW130 BKN300 05/05 A2980 RMK AC1CI2 SLP103
CYQR;2003-09-11 13:00;METAR CYQR 111300Z 22005KT 15SM FEW130 BKN300 BKN320 07/05 A2980 RMK AC1CI1CI1 SLP104
CYQR;2003-09-11 14:00;METAR CYQR 111400Z 19004KT 15SM SCT320 11/07 A2978 RMK CI1 SLP097
CYQR;2003-09-11 15:00;METAR CYQR 111500Z 20004KT 15SM BKN320 15/07 A2978 RMK CI2 SLP092
CYQR;2003-09-11 16:00;METAR CYQR 111600Z 25006KT 15SM FEW130 FEW320 18/07 A2978 RMK ACC1CI2 BARO READ +11 SLP092
CYQR;2003-09-11 17:00;METAR CYQR 111700Z 22010KT 15SM FEW320 20/05 A2976 RMK CI1 SLP087
CYQR;2003-09-11 18:00;METAR CYQR 111800Z 24010KT 15SM FEW320 20/05 A2975 RMK CI1 SLP081
CYQR;2003-09-11 19:00;METAR CYQR 111900Z 23007KT 15SM FEW320 22/05 A2973 RMK CI1 SLP076
CYQR;2003-09-11 20:00;METAR CYQR 112000Z 21006KT 15SM FEW060 SCT320 23/02 A2971 RMK CU1CI1 SLP069
CYQR;2003-09-11 21:00;METAR CYQR 112100Z 27006KT 15SM FEW060 BKN320 23/03 A2970 RMK CU1CI5 SLP064
CYQR;2003-09-11 22:00;METAR CYQR 112200Z 27008KT 15SM FEW060 BKN230 22/02 A2969 RMK CU2CI6 SLP061
CYQR;2003-09-11 23:00;METAR CYQR 112300Z 24002KT 15SM FEW070 FEW120 OVC320 22/00 A2967 RMK CU1AC1CI6 SLP055
CYQR;2003-09-12 00:00;METAR CYQR 120000Z 26006KT 15SM BKN120 OVC320 21/01 A2966 RMK AC5CI2 ACC ASOCTD SLP052
CYQR;2003-09-12 01:00;METAR CYQR 120100Z 20003KT 15SM BKN120 OVC320 20/04 A2964 RMK AC6CI2 VIRGA SW-NW SLP047
CYQR;2003-09-12 02:00;METAR CYQR 120200Z 31003KT 15SM BKN088 BKN120 OVC320 18/04 A2964 RMK AC5AC2CI1 VIRGA SW-W SLP048
CYQR;2003-09-12 03:00;METAR CYQR 120300Z 00000KT 15SM -SHRA FEW039 BKN064 BKN120 18/05 A2965 RMK SC2SC3AC2 CVCTV CLD EMBDD SLP046
CYQR;2003-09-12 04:00;METAR CYQR 120400Z 24009KT 15SM FEW039 OVC058 15/08 A2964 RMK SC2SC6 SLP044
CYQR;2003-09-12 05:00;METAR CYQR 120500Z 24008KT 15SM FEW039 SCT058 OVC089 14/09 A2962 RMK SC2SC2AC4 SLP037
CYQR;2003-09-12 06:00;METAR CYQR 120600Z 22008KT 15SM FEW039 BKN090 13/09 A2961 RMK SC2AC4 SLP033
CYQR;2003-09-12 07:00;METAR CYQR 120700Z 27009KT 15SM FEW040 BKN081 13/10 A2961 RMK SC2AC3 SLP031
CYQR;2003-09-12 08:00;METAR CYQR 120800Z 28006KT 15SM BKN076 12/10 A2960 RMK AC5 SLP028
CYQR;2003-09-12 09:00;METAR CYQR 120900Z 27005KT 15SM BKN074 11/09 A2959 RMK AC6 SLP022
CYQR;2003-09-12 10:00;METAR CYQR 121000Z 32007KT 15SM SCT094 09/08 A2958 RMK AC3 SLP020
CYQR;2003-09-12 11:00;METAR CYQR 121100Z 34006KT 15SM FEW094 BKN290 09/08 A2957 RMK AC2CI1 SLP017
CYQR;2003-09-12 12:00;METAR CYQR 121200Z 25008KT 15SM FEW040 BKN095 BKN290 08/08 A2959 RMK SC1AC3CI0 SLP025
CYQR;2003-09-12 13:00;METAR CYQR 121300Z 27008KT 15SM SCT095 BKN120 BKN290 07/06 A2960 RMK AC2AC2CI0 SLP029
CYQR;2003-09-12 14:00;METAR CYQR 121400Z 29013KT 15SM BKN088 BKN120 BKN320 10/08 A2962 RMK AC5AC2CI1 SLP035
CYQR;2003-09-12 15:00;METAR CYQR 121500Z 32014KT 15SM BKN085 OVC120 12/07 A2962 RMK AC6AC2 SLP038
CYQR;2003-09-12 16:00;METAR CYQR 121600Z 34017KT 15SM SCT085 BKN120 OVC320 13/07 A2963 RMK AC3AC2CI2 SLP040
CYQR;2003-09-12 17:00;METAR CYQR 121700Z 33014KT 15SM FEW085 SCT120 OVC320 14/07 A2964 RMK AC2AC2CI3 SLP042
CYQR;2003-09-12 18:00;METAR CYQR 121800Z 33013KT 15SM BKN120 OVC320 16/07 A2965 RMK AC5CI1 SLP048
CYQR;2003-09-12 19:00;METAR CYQR 121900Z 33018G25KT 15SM FEW050 FEW120 BKN320 18/05 A2965 RMK CU1AC1CI2 SLP049
CYQR;2003-09-12 20:00;METAR CYQR 122000Z 33018G26KT 15SM FEW052 SCT120 BKN320 18/05 A2967 RMK CU2AC1CI2 SLP053
CYQR;2003-09-12 21:00;METAR CYQR 122100Z 34016G22KT 15SM BKN055TCU BKN089 OVC320 18/05 A2968 RMK TCU5AC1CI1 SLP058
CYQR;2003-09-12 22:00;METAR CYQR 122200Z 01012KT 15SM BKN055TCU BKN092 OVC320 15/09 A2970 RMK TCU6AC1CI1 VIRGA ALL QUADS SLP064
CYQR;2003-09-12 23:00;METAR CYQR 122300Z 33020KT 15SM BKN054TCU BKN083 OVC320 16/06 A2970 RMK TCU5AC1CI0 VIRGA SW-SE SLP065
CYQR;2003-09-13 00:00;METAR CYQR 130000Z 32025G30KT 15SM FEW059TCU SCT091 BKN320 15/06 A2971 RMK TCU2AC2CI0 VIRGA S-SE SLP073
CYQR;2003-09-13 01:00;METAR CYQR 130100Z 30012G19KT 15SM FEW055TCU FEW080 BKN280 14/05 A2974 RMK TCU2AC1CI1 SLP083
CYQR;2003-09-13 02:00;METAR CYQR 130200Z 28012KT 15SM FEW055 BKN280 11/05 A2977 RMK SC2CI1 TCU ASOCTD SLP091
CYQR;2003-09-13 03:00;METAR CYQR 130300Z 30014KT 15SM SCT053 BKN280 11/06 A2978 RMK SC2CI1 SLP095
CYQR;2003-09-13 04:00;METAR CYQR 130400Z 28012KT 15SM FEW055 FEW280 10/06 A2979 RMK SC1CI0 SLP101
CYQR;2003-09-13 05:00;METAR CYQR 130500Z 27008KT 15SM FEW055 FEW280 07/05 A2980 RMK SC1CI0 SLP104
CYQR;2003-09-13 06:00;METAR CYQR 130600Z 28011KT 15SM BKN043 08/06 A2980 RMK SC4 SLP104
CYQR;2003-09-13 07:00;METAR CYQR 130700Z 30014KT 15SM BKN016 OVC043 10/08 A2982 RMK SC6SC2 SLP108
CYQR;2003-09-13 08:00;METAR CYQR 130800Z 30015KT 15SM BKN012 OVC047 10/09 A2981 RMK SC6SC2 SLP107
CYQR;2003-09-13 09:00;METAR CYQR 130900Z 31015G21KT 15SM BKN014 OVC045 10/08 A2982 RMK SC6SC2
CYQR;2003-09-13 10:00;METAR CYQR 131000Z 31017G24KT 15SM -SHRA BKN012 OVC042 09/08 A2983 RMK SC6SC2 CVCTV CLD EMBDD SLP109
CYQR;2003-09-13 11:00;METAR CYQR 131100Z 30016KT 6SM -RA BR BKN012 OVC030 09/09 A2984 RMK SC6SC2 SLP113
CYQR;2003-09-13 12:00;METAR CYQR 131200Z 31017G22KT 4SM -RA BR OVC007 09/09 A2985 RMK ST8 SLP120
CYQR;2003-09-13 13:00;METAR CYQR 131300Z 31018KT 6SM -RA BR BKN006 OVC024 09/09 A2986 RMK SF6SC2 SLP123
CYQR;2003-09-13 14:00;METAR CYQR 131400Z 32018G24KT 12SM OVC007 09/09 A2987 RMK SF8 SLP126
CYQR;2003-09-13 15:00;METAR CYQR 131500Z 31018KT 12SM OVC008 09/09 A2989 RMK SF8 SLP134 INTMT SLP140
CYQR;2003-09-13 17:00;METAR CYQR 131700Z 33021G31KT 15SM VCSH FEW008 OVC014 10/09 A2993 RMK SF2SC6 CVCTV CLD EMBDD SLP147
CYQR;2003-09-13 18:00;METAR CYQR 131800Z 32022KT 15SM OVC020 10/07 A2994 RMK SC8 SLP154
CYQR;2003-09-13 19:00;METAR CYQR 131900Z CCA 32023KT 15SM OVC024 11/06 A2995 RMK SC8 SLP157
CYQR;2003-09-13 20:00;METAR CYQR 132000Z 36020G27KT 15SM FEW012 OVC027 10/07 A2997 RMK CU2SC6 SLP163
CYQR;2003-09-13 21:00;METAR CYQR 132100Z 34019G25KT 8SM -SHRA BKN011 OVC023 08/08 A2999 RMK CU5SC3 CVCTV CLD EMBDD SLP171
CYQR;2003-09-13 22:00;METAR CYQR 132200Z 33022G28KT 10SM -SHRA FEW011 BKN023 OVC052 09/07 A3001 RMK CF2SC3SC2 CVCTV CLD EMBDD SLP177
CYQR;2003-09-13 23:00;METAR CYQR 132300Z 32016G21KT 10SM -SHRA BKN015 OVC052 09/08 A3002 RMK SC5SC3 CVCTV CLD EMBDD SLP181
CYQR;2003-09-14 00:00;METAR CYQR 140000Z 32013G20KT 15SM FEW007 BKN020 BKN052 09/08 A3003 RMK SF1SC6SC1 SLP186
CYQR;2003-09-14 01:00;METAR CYQR 140100Z 33011KT 15SM BKN030 BKN063 09/08 A3004 RMK SC6SC2 SLP190
CYQR;2003-09-14 02:00;METAR CYQR 140200Z 32006KT 15SM SCT030 BKN086 09/07 A3006 RMK SC4AC2 SLP195
CYQR;2003-09-14 03:00;METAR CYQR 140300Z 32003KT 15SM FEW030 BKN088 08/07 A3007 RMK SC2AC4 SLP198
CYQR;2003-09-14 04:00;METAR CYQR 140400Z 28004KT 15SM FEW090 06/06 A3008 RMK AC2 SLP202
CYQR;2003-09-14 05:00;METAR CYQR 140500Z 28007KT 15SM FEW090 05/05 A3008 RMK AC1 SLP201
CYQR;2003-09-14 06:00;METAR CYQR 140600Z 27008KT 15SM SKC 04/04 A3008 RMK SLP204
CYQR;2003-09-14 07:00;METAR CYQR 140700Z 25003KT 15SM SKC 02/02 A3008 RMK SLP204
CYQR;2003-09-14 08:00;METAR CYQR 140800Z 25005KT 15SM SKC 02/02 A3008 RMK SLP205
CYQR;2003-09-14 09:00;METAR CYQR 140900Z 00000KT 15SM SKC 01/01 A3008 RMK SLP207
CYQR;2003-09-14 10:00;METAR CYQR 141000Z 27003KT 15SM SKC 01/01 A3008 RMK SLP207
CYQR;2003-09-14 11:00;METAR CYQR 141100Z 26003KT 15SM SKC 01/01 A3008 RMK SLP207
CYQR;2003-09-14 12:00;METAR CYQR 141200Z 22002KT 15SM SKC 01/00 A3006 RMK SLP203
CYQR;2003-09-14 13:00;METAR CYQR 141300Z 21003KT 15SM SKC 01/01 A3006 RMK SLP203
CYQR;2003-09-14 14:00;METAR CYQR 141400Z 16004KT 15SM SKC 04/04 A3005 RMK SLP199
CYQR;2003-09-14 15:00;METAR CYQR 141500Z 18004KT 15SM FEW230 06/05 A3005 RMK CI1 SLP195
CYQR;2003-09-14 16:00;METAR CYQR 141600Z 17005KT 15SM FEW230 11/07 A3004 RMK CI1 SLP192
CYQR;2003-09-14 17:00;METAR CYQR 141700Z 15006KT 15SM FEW250 14/06 A3003 RMK CI0 SLP187
CYQR;2003-09-14 18:00;METAR CYQR 141800Z 20003KT 15SM SCT250 16/03 A3000 RMK CI1 SLP173
CYQR;2003-09-14 19:00;METAR CYQR 141900Z 17005KT 15SM FEW090 BKN250 18/03 A2997 RMK AC1CI2 SLP164
CYQR;2003-09-14 20:00;METAR CYQR 142000Z 17004KT 15SM FEW090 BKN250 18/02 A2994 RMK AC1CI3 SLP156
CYQR;2003-09-14 21:00;METAR CYQR 142100Z 20009KT 15SM FEW090 BKN250 19/01 A2992 RMK AC1CI2 SLP146
CYQR;2003-09-14 22:00;METAR CYQR 142200Z 20008KT 15SM FEW080 BKN120 BKN230 19/02 A2991 RMK AC1AC4CI1 SLP143
CYQR;2003-09-14 23:00;METAR CYQR 142300Z 16007KT 15SM FEW080 BKN140 BKN230 19/03 A2989 RMK AC1AC4CI1 SLP138
CYQR;2003-09-15 00:00;METAR CYQR 150000Z 14011KT 15SM FEW080 SCT120 BKN230 18/03 A2988 RMK AC1AC3CI1 SLP134
CYQR;2003-09-15 01:00;METAR CYQR 150100Z 13011KT 15SM BKN110 BKN230 17/03 A2987 RMK AC6CI0 SLP131
CYQR;2003-09-15 02:00;METAR CYQR 150200Z 13014KT 15SM SCT110 BKN230 16/02 A2987 RMK AC4CI2 SLP129
CYQR;2003-09-15 03:00;METAR CYQR 150300Z 13016KT 15SM SCT110 BKN230 15/04 A2986 RMK AC4CI2 SLP124
CYQR;2003-09-15 04:00;METAR CYQR 150400Z 15015KT 15SM SCT110 OVC230 14/04 A2984 RMK AC4CI3 SLP119
CYQR;2003-09-15 05:00;METAR CYQR 150500Z 15013KT 15SM FEW110 SCT230 13/03 A2983 RMK AC2CI2 SLP116
CYQR;2003-09-15 06:00;METAR CYQR 150600Z 15012KT 15SM FEW110 BKN230 11/03 A2982 RMK AC2CI1 SLP108
CYQR;2003-09-15 07:00;METAR CYQR 150700Z 15011KT 15SM BKN250 10/03 A2981 RMK CI2 SLP105
CYQR;2003-09-15 08:00;METAR CYQR 150800Z 14012KT 15SM SCT250 09/03 A2980 RMK CI1 SLP101
CYQR;2003-09-15 09:00;METAR CYQR 150900Z 14014KT 15SM SCT250 08/03 A2978 RMK CI1 SLP094
CYQR;2003-09-15 10:00;METAR CYQR 151000Z 15010KT 15SM FEW100 SCT250 08/03 A2979 RMK AC1CI1 SLP095
CYQR;2003-09-15 11:00;METAR CYQR 151100Z 13008KT 15SM FEW100 SCT250 06/03 A2979 RMK AC1CI0
CYQR;2003-09-15 12:00;METAR CYQR 151200Z 14007KT 15SM FEW100 OVC250 06/03 A2978 RMK AC1CI4
CYQR;2003-09-15 13:00;METAR CYQR 151300Z 23003KT 15SM FEW100 OVC250 05/03 A2980 RMK AC1CI6 SLP103
CYQR;2003-09-15 14:00;METAR CYQR 151400Z 30007KT 15SM FEW070 BKN100 OVC250 07/04 A2982 RMK ACC1AC4CI1 VIRGA SLP109
CYQR;2003-09-15 15:00;METAR CYQR 151500Z 32016KT 15SM BKN089 BKN250 12/08 A2983 RMK AC6CI0 ACC ASOCTD VIRGA SLP111
CYQR;2003-09-15 16:00;METAR CYQR 151600Z 33014G22KT 15SM SCT070 BKN089 OVC250 11/09 A2984 RMK AC4AC3CI0 ACC EMBDD VIRGA SLP113
CYQR;2003-09-15 17:00;METAR CYQR 151700Z 31017KT 15SM FEW014 SCT070 BKN089 12/09 A2988 RMK CF1AC3AC3 ACC EMBDD VIRGA SLP127
CYQR;2003-09-15 18:00;METAR CYQR 151800Z 32015G20KT 15SM FEW023 FEW070 SCT092 BKN250 14/08 A2989 RMK CU1ACC1AC2CI0 SLP131
CYQR;2003-09-15 19:00;METAR CYQR 151900Z 34019G27KT 15SM FEW035 SCT090 SCT260 16/06 A2989 RMK CU1AC2CI0 SLP132
CYQR;2003-09-15 20:00;METAR CYQR 152000Z 32023G29KT 15SM FEW040 FEW090 SCT260 16/04 A2990 RMK CU1AC2CI0 SLP135
CYQR;2003-09-15 21:00;METAR CYQR 152100Z 33017G25KT 15SM FEW040 FEW090 FEW260 16/05 A2991 RMK CU1AC1CI0 SLP140
CYQR;2003-09-15 22:00;METAR CYQR 152200Z 32020KT 15SM SCT044 SCT260 16/05 A2991 RMK CU4CI1 SLP141
CYQR;2003-09-15 23:00;METAR CYQR 152300Z 31017G25KT 15SM SCT041 15/05 A2993 RMK CU3 SLP147
CYQR;2003-09-16 00:00;METAR CYQR 160000Z 32016G22KT 15SM FEW037 FEW260 13/05 A2995 RMK CU2CI1 SLP157
CYQR;2003-09-16 01:00;METAR CYQR 160100Z 32015KT 15SM FEW035 FEW260 11/04 A2997 RMK SC2CI1 SLP164
CYQR;2003-09-16 02:00;METAR CYQR 160200Z 30008KT 15SM SCT035 08/04 A2999 RMK SC2 SLP168
CYQR;2003-09-16 03:00;METAR CYQR 160300Z 29006KT 15SM BKN036 09/05 A3000 RMK SC6 SLP173
CYQR;2003-09-16 04:00;METAR CYQR 160400Z 32014KT 15SM OVC036 10/04 A3000 RMK SC7 SLP173
CYQR;2003-09-16 05:00;METAR CYQR 160500Z 33014KT 15SM BKN034 09/03 A3000 RMK SC7 SLP173
CYQR;2003-09-16 06:00;METAR CYQR 160600Z 32011KT 15SM BKN034 08/03 A3000 RMK SC4 SLP173
CYQR;2003-09-16 07:00;METAR CYQR 160700Z 32014KT 15SM OVC030 08/02 A2999 RMK SC6 SLP170
CYQR;2003-09-16 08:00;METAR CYQR 160800Z 31009KT 15SM BKN028 06/02 A3000 RMK SC6 SLP172
CYQR;2003-09-16 09:00;METAR CYQR 160900Z 33011KT 15SM OVC026 07/02 A2999 RMK SC6 SLP167
CYQR;2003-09-16 10:00;METAR CYQR 161000Z 33011KT 15SM OVC026 06/02 A3000 RMK SC8 SLP171
CYQR;2003-09-16 11:00;METAR CYQR 161100Z 34010G15KT 15SM OVC022 05/01 A2999 RMK SC4 SLP168
CYQR;2003-09-16 12:00;METAR CYQR 161200Z 33008KT 15SM BKN020 05/01 A2999 RMK SC7 SLP172
CYQR;2003-09-16 13:00;METAR CYQR 161300Z 36012KT 15SM BKN018 04/01 A2998 RMK SC6 SLP169
CYQR;2003-09-16 14:00;METAR CYQR 161400Z 01013KT 15SM BKN018 BKN120 03/00 A2996 RMK SC5AC2 SLP161
CYQR;2003-09-16 15:00;METAR CYQR 161500Z 05005KT 15SM SCT018 BKN090 03/01 A2999 RMK SC3AC4 SLP175
CYQR;2003-09-16 16:00;METAR CYQR 161600Z 01010KT 6SM -SHRA BR BKN017 BKN090 03/01 A2996 RMK SC5AC2 SLP165
CYQR;2003-09-16 17:00;METAR CYQR 161700Z 02011KT 12SM -SHRA BKN028 BKN090 04/02 A2993 RMK SC6AC2
CYQR;2003-09-16 18:00;METAR CYQR 161800Z 01006KT 15SM FEW014 BKN040 BKN095 04/03 A2993 RMK SF2SC5AC1 SLP156
CYQR;2003-09-16 19:00;METAR CYQR 161900Z 36007KT 15SM -SHRA FEW014 OVC054 04/03 A2993 RMK SF2SC6 SLP154
CYQR;2003-09-16 20:00;METAR CYQR 162000Z 01007KT 15SM -SHRA FEW015 BKN047 OVC090 04/03 A2990 RMK SF1SC5AC2 SLP146
CYQR;2003-09-16 21:00;METAR CYQR 162100Z 01008KT 15SM FEW015 BKN054 OVC090 05/04 A2987 RMK SF1SC6AC2 SLP136
CYQR;2003-09-16 22:00;METAR CYQR 162200Z 02012KT 15SM BKN040 OVC090 05/04 A2986 RMK SC6AC2 SLP132
CYQR;2003-09-16 23:00;METAR CYQR 162300Z 01010KT 15SM -RA SCT010 OVC043 05/04 A2986 RMK SF3SC5
CYQR;2003-09-17 00:00;METAR CYQR 170000Z 02015G20KT 15SM BKN010 OVC050 05/05 A2984 RMK SF5SC3 SLP125
CYQR;2003-09-17 01:00;METAR CYQR 170100Z 02010KT 15SM BKN009 OVC022 05/05 A2985 RMK SF6SC2 SLP129
CYQR;2003-09-17 02:00;METAR CYQR 170200Z 01010G15KT 15SM BKN009 OVC022 05/05 A2985 RMK SF6SC2 SLP128
CYQR;2003-09-17 03:00;METAR CYQR 170300Z 03011G16KT 8SM -RA BKN009 OVC019 05/05 A2985 RMK SF5SC3 SLP132
CYQR;2003-09-17 04:00;METAR CYQR 170400Z 02012KT 8SM -RA BKN009 OVC018 05/05 A2984 RMK SF6SC2 SLP127
CYQR;2003-09-17 05:00;METAR CYQR 170500Z 03013KT 8SM -RA BKN007 OVC014 05/05 A2983 RMK SF2SC6 SLP123
CYQR;2003-09-17 06:00;METAR CYQR 170600Z 03012KT 8SM -RA BKN007 OVC026 05/05 A2981 RMK SF2SC6 SLP117
CYQR;2003-09-17 07:00;METAR CYQR 170700Z 03013G18KT 12SM -RA FEW007 OVC033 05/05 A2979 RMK SF2SC6 SLP111
CYQR;2003-09-17 08:00;METAR CYQR 170800Z 02013G19KT 15SM -RA FEW009 OVC035 06/05 A2979 RMK SF2SC6 SLP109
CYQR;2003-09-17 09:00;METAR CYQR 170900Z 03014KT 15SM -RA SCT009 OVC037 06/05 A2979 RMK SF4SC4 SLP108
CYQR;2003-09-17 10:00;METAR CYQR 171000Z 03014KT 15SM SCT007 OVC028 06/05 A2979 RMK SF4SC4 SLP110
CYQR;2003-09-17 11:00;METAR CYQR 171100Z 03014KT 15SM BKN007 OVC028 06/05 A2980 RMK SF6SC2 SLP112
CYQR;2003-09-17 12:00;METAR CYQR 171200Z 02010G18KT 3SM -RA BR OVC005 05/05 A2983 RMK SF8 SLP122
CYQR;2003-09-17 13:00;METAR CYQR 171300Z 01011KT 3SM -RA BR OVC005 05/05 A2986 RMK SF8 SLP131
CYQR;2003-09-17 14:00;METAR CYQR 171400Z 36015KT 6SM -RA BR BKN007 OVC034 04/04 A2988 RMK SF6SC2 SLP137
CYQR;2003-09-17 15:00;METAR CYQR 171500Z 36014KT 8SM -RA BKN007 OVC035 04/04 A2989 RMK SF6SC2 SLP143
CYQR;2003-09-17 16:00;METAR CYQR 171600Z 36016KT 12SM -RA BKN009 OVC025 05/04 A2991 RMK SF6SC2 SLP149
CYQR;2003-09-17 17:00;METAR CYQR 171700Z 36017KT 15SM -RA BKN009 OVC033 05/04 A2991 RMK SF6SC2 SLP150
CYQR;2003-09-17 18:00;METAR CYQR 171800Z 36018G24KT 15SM OVC008 06/05 A2991 RMK SF8 SLP149
CYQR;2003-09-17 19:00;METAR CYQR 171900Z 36015KT 15SM OVC012 06/04 A2995 RMK SF8 SLP161
CYQR;2003-09-17 20:00;METAR CYQR 172000Z 35016KT 15SM OVC014 06/04 A2996 RMK SC8 SLP166
CYQR;2003-09-17 21:00;METAR CYQR 172100Z 34018KT 15SM OVC015 05/04 A2998 RMK SC8 SLP172
CYQR;2003-09-17 22:00;METAR CYQR 172200Z 34013G18KT 15SM OVC015 05/03 A3001 RMK SC8 SLP184
CYQR;2003-09-17 23:00;METAR CYQR 172300Z 32015KT 15SM OVC019 05/04 A3003 RMK SC8 SLP188
CYQR;2003-09-18 00:00;METAR CYQR 180000Z 35015KT 15SM OVC019 05/03 A3003 RMK SC8 SLP190
CYQR;2003-09-18 01:00;METAR CYQR 180100Z 33015KT 15SM OVC020 05/03 A3004 RMK SC8 SLP194
CYQR;2003-09-18 02:00;METAR CYQR 180200Z 32017KT 15SM BKN018 OVC082 05/03 A3007 RMK SC6AC2 SLP204
CYQR;2003-09-18 03:00;METAR CYQR 180300Z 34016KT 10SM -RA BKN013 OVC042 04/03 A3009 RMK SC6SC2 SLP213
CYQR;2003-09-18 04:00;METAR CYQR 180400Z 32013G18KT 15SM -RA SCT013 OVC018 03/03 A3011 RMK SF3SC5 SLP218
CYQR;2003-09-18 05:00;METAR CYQR 180500Z 32012KT 15SM -RA BKN014 OVC096 03/03 A3010 RMK SF6AC2 SLP216
CYQR;2003-09-18 06:00;METAR CYQR 180600Z 31013KT 15SM -RA OVC019 04/03 A3009 RMK SF8 SLP214
CYQR;2003-09-18 07:00;METAR CYQR 180700Z 30010KT 10SM -RA BKN019 OVC034 04/03 A3010 RMK SF6SC2 SLP215
CYQR;2003-09-18 08:00;METAR CYQR 180800Z 31016KT 15SM -RA BKN014 OVC045 04/03 A3008 RMK SF6SC2 SLP209
CYQR;2003-09-18 09:00;METAR CYQR 180900Z 31013KT 15SM BKN016 OVC035 04/03 A3009 RMK SF6SC2
CYQR;2003-09-18 10:00;METAR CYQR 181000Z 32014KT 15SM OVC014 04/03 A3011 RMK SF8 SLP219
CYQR;2003-09-18 11:00;METAR CYQR 181100Z 31011KT 15SM OVC012 04/03 A3011 RMK SF8 SLP219
CYQR;2003-09-18 12:00;METAR CYQR 181200Z 31014KT 15SM OVC009 03/03 A3012 RMK SF8 SLP224
CYQR;2003-09-18 13:00;METAR CYQR 181300Z 31014KT 15SM OVC008 03/03 A3013 RMK SF8 SLP226
CYQR;2003-09-18 14:00;METAR CYQR 181400Z 30016KT 15SM BKN009 OVC027 04/03 A3013 RMK SF6SC2 SLP227
CYQR;2003-09-18 15:00;METAR CYQR 181500Z 30017KT 15SM BKN009 OVC044 05/04 A3013 RMK SF6SC2
CYQR;2003-09-18 16:00;METAR CYQR 181600Z 31017KT 15SM BKN012 BKN047 05/03 A3013 RMK SC6SC2 SLP225
CYQR;2003-09-18 17:00;METAR CYQR 181700Z 33014KT 15SM BKN016 OVC045 06/03 A3012 RMK SC6SC2 SLP224
CYQR;2003-09-18 18:00;METAR CYQR 181800Z 31013KT 15SM BKN018 07/03 A3012 RMK SC7 SLP220
CYQR;2003-09-18 19:00;METAR CYQR 181900Z 31008KT 15SM OVC022 08/03 A3012 RMK SC8 SLP220
CYQR;2003-09-18 20:00;METAR CYQR 182000Z 31008KT 15SM BKN026 08/03 A3011 RMK SC7 SLP217
CYQR;2003-09-18 21:00;METAR CYQR 182100Z 29004KT 15SM BKN030 08/02 A3010 RMK SC7 SLP214
CYQR;2003-09-18 22:00;METAR CYQR 182200Z 26003KT 15SM BKN030 09/02 A3009 RMK SC6 SLP211
CYQR;2003-09-18 23:00;METAR CYQR 182300Z 00000KT 15SM FEW035 FEW270 10/02 A3009 RMK SC2CI1 SLP210
CYQR;2003-09-19 00:00;METAR CYQR 190000Z 18002KT 15SM FEW035 FEW270 09/02 A3008 RMK SC1CI1 SLP206
CYQR;2003-09-19 01:00;METAR CYQR 190100Z 16004KT 15SM FEW035 FEW250 07/03 A3006 RMK SC1CI1 SLP199
CYQR;2003-09-19 02:00;METAR CYQR 190200Z 16006KT 15SM SCT280 05/02 A3007 RMK CI2 SLP202
CYQR;2003-09-19 03:00;METAR CYQR 190300Z 13006KT 15SM SCT280 03/01 A3006 RMK CI1 SLP202
CYQR;2003-09-19 05:00;METAR CYQR 190500Z 14009KT 15SM FEW280 04/01 A3002 RMK CI0 SLP190
CYQR;2003-09-19 06:00;METAR CYQR 190600Z 14010KT 15SM FEW280 03/01 A3000 RMK CI0 SLP182
CYQR;2003-09-19 07:00;METAR CYQR 190700Z 14011KT 15SM SKC 02/01 A3000 RMK SLP180
CYQR;2003-09-19 08:00;METAR CYQR 190800Z 14011KT 15SM SKC 01/01 A2999 RMK SLP177
CYQR;2003-09-19 09:00;METAR CYQR 190900Z 14013KT 15SM SKC 01/00 A2997 RMK SLP172
CYQR;2003-09-19 10:00;METAR CYQR 191000Z 14013KT 15SM FEW078 01/00 A2996 RMK AC1 SLP168
CYQR;2003-09-19 11:00;METAR CYQR 191100Z 14014KT 15SM BKN078 02/01 A2994 RMK AC6 SLP162
CYQR;2003-09-19 12:00;METAR CYQR 191200Z 13012KT 15SM BKN078 02/01 A2993 RMK AC6 SLP154
CYQR;2003-09-19 13:00;METAR CYQR 191300Z 13013KT 15SM FEW078 SCT280 01/00 A2991 RMK AC1CI0 SLP150
CYQR;2003-09-19 14:00;METAR CYQR 191400Z 14015KT 15SM FEW075 FEW270 03/01 A2990 RMK AC1CI1 SLP145
CYQR;2003-09-19 15:00;METAR CYQR 191500Z 15015KT 15SM BKN073 BKN270 05/02 A2989 RMK AC6CI1 SLP143
CYQR;2003-09-19 16:00;METAR CYQR 191600Z 15015KT 15SM FEW080 SCT270 08/03 A2988 RMK AC2CI1 SLP141
CYQR;2003-09-19 17:00;METAR CYQR 191700Z 16013G18KT 15SM FEW080 BKN270 11/04 A2986 RMK AC2CI2 SLP136
CYQR;2003-09-19 18:00;METAR CYQR 191800Z 17014KT 15SM FEW080 BKN270 14/04 A2984 RMK AC1CI2 SLP121
CYQR;2003-09-19 19:00;METAR CYQR 191900Z 15012G17KT 15SM FEW080 BKN270 16/05 A2981 RMK AC1CI2 SLP112
CYQR;2003-09-19 20:00;METAR CYQR 192000Z 18010G18KT 15SM FEW090 BKN270 19/05 A2979 RMK AC1CI2 SLP105
CYQR;2003-09-19 21:00;METAR CYQR 192100Z 19007KT 15SM FEW050 FEW100 SCT270 20/05 A2978 RMK CF1AC1CI1 SLP096
CYQR;2003-09-19 22:00;METAR CYQR 192200Z 23010G18KT 15SM FEW050 SCT270 20/06 A2976 RMK CF1CI1 SLP091
CYQR;2003-09-19 23:00;METAR CYQR 192300Z 28004KT 15SM FEW050 BKN270 20/05 A2975 RMK CF1CI2 SLP088
CYQR;2003-09-20 00:00;METAR CYQR 200000Z 26005KT 15SM FEW050 BKN270 20/05 A2975 RMK SC1CI2 SLP087
CYQR;2003-09-20 01:00;METAR CYQR 200100Z 27002KT 15SM FEW100 BKN270 16/06 A2975 RMK AC1CI2 SLP088
CYQR;2003-09-20 02:00;METAR CYQR 200200Z 00000KT 15SM FEW280 14/06 A2976 RMK CI0 SLP091
CYQR;2003-09-20 03:00;METAR CYQR 200300Z 09003KT 15SM SKC 11/07 A2977 RMK SLP098
CYQR;2003-09-20 04:00;METAR CYQR 200400Z 10005KT 15SM SKC 10/06 A2977 RMK SLP098
CYQR;2003-09-20 05:00;METAR CYQR 200500Z 09006KT 15SM SKC 07/05 A2977 RMK SLP097
CYQR;2003-09-20 06:00;METAR CYQR 200600Z 13007KT 15SM SCT280 07/05 A2977 RMK CI1 SLP094
CYQR;2003-09-20 07:00;METAR CYQR 200700Z 10008KT 15SM SCT280 06/05 A2977 RMK CI1 SLP095
CYQR;2003-09-20 08:00;METAR CYQR 200800Z 10008KT 15SM FEW280 07/05 A2978 RMK CI0 SLP096
CYQR;2003-09-20 09:00;METAR CYQR 200900Z 10008KT 15SM SKC 06/04 A2979 RMK SLP097
CYQR;2003-09-20 10:00;METAR CYQR 201000Z 09005KT 15SM SKC 05/03 A2981 RMK SLP103
CYQR;2003-09-20 11:00;METAR CYQR 201100Z 09006KT 15SM SCT280 05/04 A2981 RMK CI1 SLP104
CYQR;2003-09-20 12:00;METAR CYQR 201200Z 10004KT 15SM BKN120 BKN280 06/04 A2982 RMK AC4CI0 SLP109
CYQR;2003-09-20 13:00;METAR CYQR 201300Z 00000KT 15SM BKN086 BKN280 06/04 A2985 RMK AC6CI0 VIRGA S-SW SLP117
CYQR;2003-09-20 14:00;METAR CYQR 201400Z 22002KT 15SM FEW040 BKN067 BKN073 08/05 A2986 RMK CF1AC5AC1 CF TR VIRGA S SLP122
CYQR;2003-09-20 15:00;METAR CYQR 201500Z 25002KT 15SM FEW040 BKN070 BKN088 08/05 A2989 RMK CF1AC5AC2 CF TR SLP135
CYQR;2003-09-20 16:00;METAR CYQR 201600Z 32006KT 15SM FEW040 BKN070 BKN092 07/05 A2991 RMK CF1AC5AC2 CF TR SLP144
CYQR;2003-09-20 17:00;METAR CYQR 201700Z 34004KT 15SM SCT066 BKN078 BKN084 OVC280 09/06 A2991 RMK AC3AC2AC2CI0 SLP144
CYQR;2003-09-20 18:00;METAR CYQR 201800Z 36006KT 15SM SCT065 BKN095 11/06 A2992 RMK SC3AC4 SLP147
CYQR;2003-09-20 19:00;METAR CYQR 201900Z 35007KT 15SM FEW040 BKN095 11/06 A2993 RMK CF1AS6 SLP151
CYQR;2003-09-20 20:00;METAR CYQR 202000Z 01007KT 15SM FEW040 FEW088 BKN280 13/07 A2993 RMK CF1AC2CI5 SLP152
CYQR;2003-09-20 21:00;METAR CYQR 202100Z 36004KT 15SM FEW088 BKN280 13/07 A2994 RMK AC1CI6 SLP155
CYQR;2003-09-20 22:00;METAR CYQR 202200Z 01003KT 15SM FEW030 FEW090 BKN280 14/07 A2995 RMK CF1AC1CI6 TR CF DSTNT N SLP157
CYQR;2003-09-20 23:00;METAR CYQR 202300Z 32008KT 15SM FEW090 BKN280 14/08 A2996 RMK AC1CI4 CC ASOCTD SLP160
CYQR;2003-09-21 00:00;METAR CYQR 210000Z 33004KT 15SM FEW090 SCT160 BKN280 14/07 A2997 RMK AC1AC2CI1 SLP163
CYQR;2003-09-21 01:00;METAR CYQR 210100Z 34005KT 15SM FEW090 FEW280 11/07 A2998 RMK AC1CI1 SLP166
CYQR;2003-09-21 02:00;METAR CYQR 210200Z 35003KT 15SM SKC 10/06 A2999 RMK SLP168
CYQR;2003-09-21 03:00;METAR CYQR 210300Z 27007KT 15SM SKC 07/05 A2999 RMK SLP175
CYQR;2003-09-21 04:00;METAR CYQR 210400Z 26004KT 15SM SKC 05/04 A2999 RMK SLP176
CYQR;2003-09-21 05:00;METAR CYQR 210500Z 30002KT 15SM SKC 04/04 A2999 RMK SLP175
CYQR;2003-09-21 06:00;METAR CYQR 210600Z 31006KT 15SM SKC 03/03 A2999 RMK SLP174
CYQR;2003-09-21 07:00;METAR CYQR 210700Z 34005KT 15SM SKC 03/03 A2998 RMK SLP172
CYQR;2003-09-21 08:00;METAR CYQR 210800Z 36004KT 15SM SKC 03/03 A2999 RMK SLP174
CYQR;2003-09-21 09:00;METAR CYQR 210900Z 01004KT 15SM SKC 03/03 A2998 RMK SLP168
CYQR;2003-09-21 10:00;METAR CYQR 211000Z 01003KT 15SM FEW280 04/04 A2998 RMK CI0 SLP168
CYQR;2003-09-21 11:00;METAR CYQR 211100Z 27006KT 2SM R13/2200V3000FT/U BR SKC 01/01 A2999 RMK FG3 SLP171
CYQR;2003-09-21 12:00;METAR CYQR 211200Z 30005KT 1/8SM R13/1200FT/N FG SKC 01/01 A2999 RMK FG4 SLP173
CYQR;2003-09-21 13:00;METAR CYQR 211300Z 32004KT 0SM R13/1100V2600FT/U FG OVC280 01/01 A2998 RMK FG6CI1 SLP171
CYQR;2003-09-21 14:00;METAR CYQR 211400Z 30003KT 6SM R13/3500VP6000FT/U BR FEW110 SCT280 BKN320 03/03 A2999 RMK AC1CI2CI0 AC TR SLP172
CYQR;2003-09-21 15:00;METAR CYQR 211500Z 35013KT 15SM FEW110 BKN280 08/07 A3000 RMK AC1CI2 SLP176
CYQR;2003-09-21 16:00;METAR CYQR 211600Z 34015KT 15SM FEW035 FEW097 BKN280 10/07 A3001 RMK CF1AC2CI0 SLP180
CYQR;2003-09-21 17:00;METAR CYQR 211700Z 34015KT 15SM SCT020 BKN054 BKN097 11/07 A3002 RMK SC3SC2AC1 SLP183
CYQR;2003-09-21 18:00;METAR CYQR 211800Z 34019KT 15SM BKN022 BKN280 11/06 A3003 RMK SC6CI1 SLP187
CYQR;2003-09-21 19:00;METAR CYQR 211900Z 33018KT 15SM OVC022 10/06 A3003 RMK SC8 SLP189
CYQR;2003-09-21 20:00;METAR CYQR 212000Z 33013KT 15SM BKN026 OVC070 11/05 A3004 RMK SC7AC1 SLP190
CYQR;2003-09-21 21:00;METAR CYQR 212100Z 33016G21KT 15SM SCT033 BKN110 11/04 A3004 RMK SC3AC4
CYQR;2003-09-21 22:00;METAR CYQR 212200Z 35015G24KT 15SM FEW035 SCT280 13/01 A3003 RMK SC2CI0 SLP189
CYQR;2003-09-21 23:00;METAR CYQR 212300Z 35023G28KT 15SM SCT055 BKN280 13/M01 A3004 RMK SC3CI1 SLP192
CYQR;2003-09-22 00:00;METAR CYQR 220000Z 34012KT 15SM SCT055 SCT070 BKN280 11/M00 A3005 RMK SC3AC1CI0 SLP198
CYQR;2003-09-22 01:00;METAR CYQR 220100Z 32015G22KT 15SM -SHRA SCT037 BKN280 10/01 A3006 RMK SC3CI0 TCU ASOCTD SLP201
CYQR;2003-09-22 02:00;METAR CYQR 220200Z 31006KT 15SM FEW040 FEW270 05/01 A3007 RMK SC2CI1 SLP202
CYQR;2003-09-22 03:00;METAR CYQR 220300Z 33003KT 15SM FEW060 04/01 A3008 RMK SC2 SLP205
CYQR;2003-09-22 04:00;METAR CYQR 220400Z 29005KT 15SM BKN090 04/01 A3007 RMK AC5 SLP204
CYQR;2003-09-22 05:00;METAR CYQR 220500Z 29005KT 15SM OVC085 05/02 A3007 RMK AC6 SLP203
CYQR;2003-09-22 06:00;METAR CYQR 220600Z 32004KT 15SM OVC085 05/02 A3006 RMK AC6 SLP198
CYQR;2003-09-22 07:00;METAR CYQR 220700Z 31002KT 15SM SCT080 04/02 A3005 RMK AC2 SLP195
CYQR;2003-09-22 08:00;METAR CYQR 220800Z 27006KT 15SM FEW080 01/00 A3005 RMK AC2 SLP195
CYQR;2003-09-22 09:00;METAR CYQR 220900Z 29006KT 15SM SKC 01/00 A3005 RMK SLP195
CYQR;2003-09-22 10:00;METAR CYQR 221000Z 27003KT 15SM SKC M01/M01 A3004 RMK SLP192
CYQR;2003-09-22 11:00;METAR CYQR 221100Z 27003KT 6SM BR SKC M01/M01 A3004 RMK SLP192
CYQR;2003-09-22 12:00;METAR CYQR 221200Z 25003KT 8SM SKC M03/M03 A3004 RMK F SLP195
CYQR;2003-09-22 13:00;METAR CYQR 221300Z 23002KT 4SM BR FEW250 M03/M03 A3004 RMK CI1 SLP194
CYQR;2003-09-22 14:00;METAR CYQR 221400Z 25002KT 8SM FEW250 M00/M00 A3003 RMK CI1 MIFG SLP191
CYQR;2003-09-22 15:00;METAR CYQR 221500Z 18002KT 15SM FEW250 04/03 A3001 RMK CI0 K SLP186
CYQR;2003-09-22 16:00;METAR CYQR 221600Z 20003KT 15SM FEW250 09/04 A2999 RMK CI0 FU SLP180
CYQR;2003-09-22 17:00;METAR CYQR 221700Z 18004KT 15SM FEW250 FEW300 12/03 A2998 RMK CI1CI0 SLP176
CYQR;2003-09-22 18:00;METAR CYQR 221800Z 20008KT 15SM FEW160 FEW250 FEW300 13/01 A2995 RMK AC1CI1CI0 SLP157
CYQR;2003-09-22 19:00;METAR CYQR 221900Z 18006KT 15SM FEW160 FEW250 BKN300 14/01 A2993 RMK AC1CI1CI0 AC TR CC ASOCTD SLP152
CYQR;2003-09-22 20:00;METAR CYQR 222000Z 22010KT 15SM FEW160 SCT250 BKN300 15/M00 A2990 RMK AC1CI2CI0 CC ASOCTD SLP141
CYQR;2003-09-22 21:00;METAR CYQR 222100Z 24010KT 15SM BKN160 BKN290 17/01 A2986 RMK AC2CI0 CC ASOCTD SLP129
CYQR;2003-09-22 22:00;METAR CYQR 222200Z 19006KT 15SM BKN160 BKN290 16/M01 A2984 RMK AC4CI2 SLP123
CYQR;2003-09-22 23:00;METAR CYQR 222300Z 21008KT 15SM SCT067 BKN091 OVC160 16/01 A2982 RMK AC3AC2AC2 SLP116
CYQR;2003-09-23 00:00;METAR CYQR 230000Z 17007KT 15SM SCT067 BKN084 OVC280 15/02 A2981 RMK AC3AC3CI1 SLP112
CYQR;2003-09-23 01:00;METAR CYQR 230100Z 13007KT 15SM BKN067 BKN093 13/02 A2979 RMK AC3AC4 SLP106
CYQR;2003-09-23 02:00;METAR CYQR 230200Z 13009KT 15SM BKN093 12/01 A2978 RMK AC6 SLP102
CYQR;2003-09-23 03:00;METAR CYQR 230300Z 14012KT 15SM BKN110 13/01 A2976 RMK AC6 SLP094
CYQR;2003-09-23 04:00;METAR CYQR 230400Z 15011KT 15SM OVC110 12/02 A2974 RMK AC6 SLP087
CYQR;2003-09-23 05:00;METAR CYQR 230500Z 16009KT 15SM BKN110 10/03 A2973 RMK AC6 SLP083
CYQR;2003-09-23 06:00;METAR CYQR 230600Z 16008KT 15SM BKN110 09/04 A2970 RMK AC6 SLP071
CYQR;2003-09-23 07:00;METAR CYQR 230700Z 15009KT 15SM BKN110 09/05 A2968 RMK AC6 SLP063
CYQR;2003-09-23 08:00;METAR CYQR 230800Z 14004KT 15SM OVC110 09/05 A2969 RMK AC8 SLP066
CYQR;2003-09-23 09:00;METAR CYQR 230900Z 15005KT 15SM -SHRA OVC036 09/06 A2967 RMK SC8 SLP057
CYQR;2003-09-23 10:00;METAR CYQR 231000Z 13009KT 15SM FEW040 07/06 A2964 RMK SC2 SLP049
CYQR;2003-09-23 11:00;METAR CYQR 231100Z 13007KT 15SM FEW040 SCT110 07/05 A2962 RMK SC2AC2 SLP041
CYQR;2003-09-23 12:00;METAR CYQR 231200Z 28005KT 6SM -SHRA BR BKN049 OVC110 07/06 A2966 RMK SC5AC3 SLP057
CYQR;2003-09-23 13:00;METAR CYQR 231300Z 08004KT 15SM SCT030 OVC085 07/07 A2963 RMK SC3AC4 SLP047
CYQR;2003-09-23 14:00;METAR CYQR 231400Z 34007KT 12SM MIFG FEW006 FEW030 SCT075 08/08 A2963 RMK SF1SC1AC3 ACC ASOCTD VIRGA SLP045
CYQR;2003-09-23 15:00;METAR CYQR 231500Z 35026G36KT 15SM FEW012 SCT042 BKN075 09/07 A2966 RMK CF2SC1AC2 ACC ASOCTD SLP057
CYQR;2003-09-23 16:00;METAR CYQR 231600Z 35026G32KT 12SM -SHRA BKN015 OVC047 07/06 A2970 RMK CU5SC3 WND G40 PST HR CVCTV CLD EMBDD SLP069
CYQR;2003-09-23 17:00;METAR CYQR 231700Z 34022G27KT 15SM VCSH BKN009 OVC051 08/07 A2972 RMK SF6SC2 SLP074
CYQR;2003-09-23 18:00;METAR CYQR 231800Z 32016G21KT 15SM FEW006 BKN021 BKN077 08/08 A2973 RMK SF1SC6SC1 SLP084
CYQR;2003-09-23 19:00;METAR CYQR 231900Z 32020G28KT 15SM BKN017 BKN050 OVC075 08/06 A2974 RMK CU6SC1AC1 SLP087
CYQR;2003-09-23 20:00;METAR CYQR 232000Z 31019G24KT 15SM FEW023 BKN088 09/04 A2975 RMK CU1AC6 SLP091
CYQR;2003-09-23 21:00;METAR CYQR 232100Z 31019G29KT 15SM FEW026 BKN086 10/05 A2975 RMK CU2AC4 SLP090
CYQR;2003-09-23 22:00;METAR CYQR 232200Z 30030KT 15SM SCT039 BKN090 12/03 A2975 RMK CU4AC2
CYQR;2003-09-23 23:00;METAR CYQR 232300Z 30028G36KT 15SM FEW048 SCT094 12/01 A2976 RMK CU2AC1 SLP092
CYQR;2003-09-24 00:00;METAR CYQR 240000Z 30021G28KT 15SM FEW056 SCT087 11/00 A2977 RMK CU2AC2 SLP095
CYQR;2003-09-24 01:00;METAR CYQR 240100Z 30016G22KT 15SM SCT066 09/M01 A2978 RMK CU3 SLP098
CYQR;2003-09-24 02:00;METAR CYQR 240200Z 31023G31KT 15SM SCT067 09/M02 A2978 RMK SC4 SLP100
CYQR;2003-09-24 03:00;METAR CYQR 240300Z 31022G28KT 15SM OVC065 08/M01 A2979 RMK SC8 SLP105
CYQR;2003-09-24 04:00;METAR CYQR 240400Z 31028G33KT 15SM BKN059 OVC100 06/00 A2982 RMK SC5AC2 SLP114
CYQR;2003-09-24 05:00;METAR CYQR 240500Z 31021G28KT 15SM BKN035 OVC075 06/01 A2983 RMK SC6AC2 SLP117
CYQR;2003-09-24 06:00;METAR CYQR 240600Z 32026G32KT 15SM OVC031 06/01 A2984 RMK SC8 SLP125
CYQR;2003-09-24 07:00;METAR CYQR 240700Z 31016KT 15SM OVC034 06/01 A2986 RMK SC8 SLP130
CYQR;2003-09-24 08:00;METAR CYQR 240800Z 32024G37KT 15SM OVC030 06/01 A2987 RMK SC8 SLP133
CYQR;2003-09-24 09:00;METAR CYQR 240900Z 32028G34KT 15SM OVC030 06/01 A2989 RMK SC8 SLP138
CYQR;2003-09-24 10:00;METAR CYQR 241000Z 31025KT 15SM OVC030 06/01 A2991 RMK SC8 SLP146
CYQR;2003-09-24 11:00;METAR CYQR 241100Z 32021G28KT 15SM OVC020 05/02 A2994 RMK SC8 SLP155
CYQR;2003-09-24 12:00;METAR CYQR 241200Z 32021G31KT 15SM OVC018 05/03 A2998 RMK SC8 SLP168
CYQR;2003-09-24 13:00;METAR CYQR 241300Z 32023G30KT 15SM OVC018 05/02 A3001 RMK SC8 SLP178
CYQR;2003-09-24 14:00;METAR CYQR 241400Z 32020G28KT 15SM BKN022 BKN057 05/03 A3004 RMK SC6SC2 SLP189
CYQR;2003-09-24 15:00;METAR CYQR 241500Z 33028G33KT 15SM BKN018 06/03 A3006 RMK SC7 SLP199
CYQR;2003-09-24 16:00;METAR CYQR 241600Z 33026KT 15SM BKN018 07/03 A3009 RMK SC7 SLP207
CYQR;2003-09-24 17:00;METAR CYQR 241700Z 34021G26KT 15SM BKN014 07/05 A3011 RMK CU6 SLP213
CYQR;2003-09-24 18:00;METAR CYQR 241800Z 34020KT 15SM BKN018 08/03 A3013 RMK CU7 FEW TCU SLP222
CYQR;2003-09-24 19:00;METAR CYQR 241900Z 33015KT 15SM BKN029 08/02 A3014 RMK CU7 SLP225
CYQR;2003-09-24 20:00;METAR CYQR 242000Z 32016KT 15SM BKN029 09/01 A3014 RMK CU6 FEW TCU VIRGA SLP227
CYQR;2003-09-24 21:00;METAR CYQR 242100Z 31013G18KT 15SM BKN028 10/02 A3013 RMK SC6 SLP222
CYQR;2003-09-24 22:00;METAR CYQR 242200Z 30010KT 15SM BKN032 BKN250 10/01 A3013 RMK SC5CI0 SLP222
CYQR;2003-09-24 23:00;METAR CYQR 242300Z 30010G15KT 15SM SCT037 SCT250 09/00 A3013 RMK SC3CI0 SLP220
CYQR;2003-09-25 00:00;METAR CYQR 250000Z 32007KT 15SM SCT039 BKN250 09/01 A3011 RMK SC4CI0 SLP217
CYQR;2003-09-25 01:00;METAR CYQR 250100Z 28006KT 15SM FEW037 BKN250 05/01 A3009 RMK SC2CI1 SLP209
CYQR;2003-09-25 02:00;METAR CYQR 250200Z 23004KT 15SM BKN250 03/M00 A3008 RMK CI2 SLP206
CYQR;2003-09-25 03:00;METAR CYQR 250300Z 18007KT 15SM BKN250 02/M00 A3005 RMK CI2 SLP200
CYQR;2003-09-25 04:00;METAR CYQR 250400Z 17005KT 15SM BKN250 01/M01 A3004 RMK CI2 SLP196
CYQR;2003-09-25 05:00;METAR CYQR 250500Z 17008KT 15SM BKN250 01/M01 A3000 RMK CI3 SLP183
CYQR;2003-09-25 06:00;METAR CYQR 250600Z 16009KT 15SM SCT250 01/M01 A2997 RMK CI2 SLP171
CYQR;2003-09-25 07:00;METAR CYQR 250700Z 16010KT 15SM BKN250 02/M00 A2994 RMK CI2 SLP162
CYQR;2003-09-25 08:00;METAR CYQR 250800Z 16009KT 15SM SCT110 BKN250 02/00 A2991 RMK AC3CI2 SLP153
CYQR;2003-09-25 09:00;METAR CYQR 250900Z 15009KT 15SM FEW110 OVC250 03/01 A2989 RMK AC2CI3 SLP139
CYQR;2003-09-25 10:00;METAR CYQR 251000Z 14010KT 15SM SCT110 OVC250 03/00 A2985 RMK AC3CI3 SLP127
CYQR;2003-09-25 11:00;METAR CYQR 251100Z 15011KT 15SM SCT140 OVC270 03/00 A2979 RMK AC4CI3 SLP110
CYQR;2003-09-25 12:00;METAR CYQR 251200Z 14011KT 15SM BKN140 OVC270 04/00 A2977 RMK AC5CI2 SLP100
CYQR;2003-09-25 13:00;METAR CYQR 251300Z 15013KT 15SM BKN140 BKN270 04/00 A2971 RMK AC6CI2 SLP082
CYQR;2003-09-25 14:00;METAR CYQR 251400Z 16010KT 15SM BKN120 05/01 A2969 RMK AC7 SLP076
CYQR;2003-09-25 15:00;METAR CYQR 251500Z 17016KT 15SM BKN120 07/01 A2966 RMK AC7 SLP065
CYQR;2003-09-25 16:00;METAR CYQR 251600Z 20010KT 15SM FEW065 BKN120 09/01 A2967 RMK SC1AC6 SLP067
CYQR;2003-09-25 17:00;METAR CYQR 251700Z 28016KT 15SM BKN110 12/01 A2966 RMK AC6 ACC ASOCTD SLP064
CYQR;2003-09-25 18:00;METAR CYQR 251800Z 30015G21KT 15SM BKN095 BKN120 15/01 A2964 RMK AC5AC2 ACC ASOCTD SLP051
CYQR;2003-09-25 19:00;METAR CYQR 251900Z 30019KT 15SM SCT095 BKN120 16/02 A2963 RMK AC3AC3 ACC ASOCTD SLP049
CYQR;2003-09-25 20:00;METAR CYQR 252000Z 30018G26KT 15SM FEW095 SCT120 BKN260 18/03 A2961 RMK AC2AC2CI1 SLP044
CYQR;2003-09-25 21:00;METAR CYQR 252100Z 31023G32KT 15SM FEW065 SCT095 BKN140 BKN260 19/03 A2961 RMK CU1AC2AC2CI0 SLP039
CYQR;2003-09-25 22:00;METAR CYQR 252200Z 30022G31KT 15SM FEW065 FEW090 SCT140 BKN260 18/03 A2961 RMK CU1AC2AC1CI0 ACC ASOCTD SLP039
CYQR;2003-09-25 23:00;METAR CYQR 252300Z 30021KT 15SM FEW065 SCT090 BKN140 BKN260 16/02 A2962 RMK CU1AC3AC2CI0 SLP043
CYQR;2003-09-26 00:00;METAR CYQR 260000Z 30017KT 15SM FEW055 SCT090 BKN140 BKN260 16/02 A2962 RMK CU1AC2AC3CI0 SLP043
CYQR;2003-09-26 01:00;METAR CYQR 260100Z 31020KT 15SM FEW055 FEW090 BKN120 BKN220 15/01 A2962 RMK CU1AC2AC3CS1 ACC EMBDD SLP043
CYQR;2003-09-26 02:00;METAR CYQR 260200Z 30028G33KT 15SM SCT084 BKN220 14/03 A2962 RMK AC3CI1 SLP043
CYQR;2003-09-26 03:00;METAR CYQR 260300Z 30015G24KT 15SM FEW084 11/03 A2963 RMK AC2 SLP047
CYQR;2003-09-26 04:00;METAR CYQR 260400Z 31017KT 15SM FEW084 10/04 A2964 RMK AC2 SLP049
CYQR;2003-09-26 05:00;METAR CYQR 260500Z 32012KT 15SM FEW090 11/04 A2966 RMK AC2 SLP057
CYQR;2003-09-26 06:00;METAR CYQR 260600Z 32011KT 15SM FEW090 09/04 A2969 RMK AC2 SLP064
CYQR;2003-09-26 07:00;METAR CYQR 260700Z 31012KT 15SM SCT095 09/04 A2970 RMK AC4 SLP068
CYQR;2003-09-26 08:00;METAR CYQR 260800Z 32008KT 15SM SCT065 BKN110 09/04 A2972 RMK SC3AC3 SLP073
CYQR;2003-09-26 09:00;METAR CYQR 260900Z 30012KT 15SM SCT067 BKN110 09/04 A2973 RMK AC3AC3 SLP077
CYQR;2003-09-26 10:00;METAR CYQR 261000Z 31013KT 15SM FEW067 08/03 A2975 RMK AC2 SLP082
CYQR;2003-09-26 11:00;METAR CYQR 261100Z 30015KT 15SM FEW070 07/03 A2977 RMK AC1 SLP089
CYQR;2003-09-26 12:00;METAR CYQR 261200Z 29011KT 15SM SCT087 06/03 A2979 RMK AC3 SLP099
CYQR;2003-09-26 13:00;METAR CYQR 261300Z 31015KT 15SM SCT055 BKN110 07/04 A2980 RMK SC3AC2 SLP105
CYQR;2003-09-26 14:00;METAR CYQR 261400Z 31015KT 15SM FEW120 08/04 A2982 RMK AC1 SLP111
CYQR;2003-09-26 15:00;METAR CYQR 261500Z 33018G25KT 15SM FEW120 11/05 A2984 RMK AC2 SLP118
CYQR;2003-09-26 16:00;METAR CYQR 261600Z 33020KT 15SM FEW080 BKN120 12/05 A2985 RMK AC2AC3 SLP120
CYQR;2003-09-26 17:00;METAR CYQR 261700Z 33018G24KT 15SM FEW030 SCT086 BKN120 12/05 A2986 RMK CU1AC3AC2 SLP124
CYQR;2003-09-26 18:00;METAR CYQR 261800Z 32019G24KT 15SM BKN037 BKN093 11/06 A2987 RMK CU5AC2 VIRGA S SLP128
CYQR;2003-09-26 19:00;METAR CYQR 261900Z 32017G27KT 15SM -RA BKN020 BKN070 11/07 A2988 RMK CU6AC2 SLP132
CYQR;2003-09-26 20:00;METAR CYQR 262000Z 33023G29KT 15SM FEW020 BKN079 14/05 A2988 RMK CU2AC2 SLP131
CYQR;2003-09-26 21:00;METAR CYQR 262100Z 32023G29KT 15SM BKN042 BKN081 14/04 A2988 RMK CU6AC2 VIRGA W SLP129
CYQR;2003-09-26 22:00;METAR CYQR 262200Z 35014KT 15SM BKN044 BKN079 13/05 A2988 RMK CU6AC2 VIRGA S W SLP129
CYQR;2003-09-26 23:00;METAR CYQR 262300Z 35014KT 15SM SCT028 BKN090 13/06 A2989 RMK CU4AC1 TCU EMBDD RW S SLP134
CYQR;2003-09-27 00:00;METAR CYQR 270000Z 36013G19KT 15SM SCT024 BKN091 12/05 A2990 RMK CU4AC1 RW S-SW SLP142
CYQR;2003-09-27 01:00;METAR CYQR 270100Z 32009KT 15SM FEW020 SCT077 10/05 A2993 RMK CU1AC1 SLP150
CYQR;2003-09-27 02:00;METAR CYQR 270200Z 32007KT 15SM FEW063 FEW090 07/04 A2995 RMK SC1AC1 SLP156
CYQR;2003-09-27 03:00;METAR CYQR 270300Z 32008KT 15SM FEW090 07/04 A2997 RMK AC2 SLP164
CYQR;2003-09-27 04:00;METAR CYQR 270400Z 31010KT 15SM FEW090 05/04 A2999 RMK AC1 SLP170
CYQR;2003-09-27 05:00;METAR CYQR 270500Z 33007KT 15SM FEW080 06/04 A2999 RMK AC2 SLP172
CYQR;2003-09-27 06:00;METAR CYQR 270600Z 32007KT 15SM FEW080 04/03 A3001 RMK AC2 SLP180
CYQR;2003-09-27 07:00;METAR CYQR 270700Z 34006KT 15SM BKN087 04/04 A3002 RMK AC6 SLP184
CYQR;2003-09-27 08:00;METAR CYQR 270800Z 31006KT 15SM FEW065 SCT085 04/03 A3004 RMK SC2AC2 SLP189
CYQR;2003-09-27 09:00;METAR CYQR 270900Z 32005KT 15SM BKN057 BKN090 05/04 A3004 RMK SC5AC1
CYQR;2003-09-27 10:00;METAR CYQR 271000Z 34005KT 15SM SCT039 BKN090 05/05 A3005 RMK SC4AC2 SLP192
CYQR;2003-09-27 11:00;METAR CYQR 271100Z 35002KT 15SM SCT043 BKN090 04/04 A3007 RMK SC4AC2 SLP198
CYQR;2003-09-27 12:00;METAR CYQR 271200Z 35004KT 15SM SCT041 BKN090 03/03 A3009 RMK SC4AC2 SLP206
CYQR;2003-09-27 13:00;METAR CYQR 271300Z 29006KT 15SM BKN049 BKN090 02/02 A3010 RMK SC5AC1 SLP212
CYQR;2003-09-27 14:00;METAR CYQR 271400Z 33006KT 15SM BKN051 05/04 A3012 RMK SC6 SLP217
CYQR;2003-09-27 15:00;METAR CYQR 271500Z 35008KT 15SM BKN050 BKN100 07/04 A3014 RMK SC6SC2 SLP227
CYQR;2003-09-27 16:00;METAR CYQR 271600Z 34006KT 15SM FEW030 BKN048 OVC100 07/03 A3015 RMK CU1SC6AC1 SLP229
CYQR;2003-09-27 17:00;METAR CYQR 271700Z 36006KT 15SM FEW032 BKN052 OVC070 08/03 A3016 RMK CU1SC6AC1 SLP233
CYQR;2003-09-27 18:00;METAR CYQR 271800Z 32006KT 15SM FEW034 BKN059 OVC075 08/03 A3016 RMK CU2SC5AC2 SLP234
CYQR;2003-09-27 19:00;METAR CYQR 271900Z 35007KT 15SM FEW032 BKN049 OVC076 09/04 A3016 RMK
CYQR;2003-09-27 20:00;METAR CYQR 272000Z 33010KT 15SM FEW030 BKN047 BKN097 11/05 A3015 RMK CU2SC3AC1 SLP231
CYQR;2003-09-27 21:00;METAR CYQR 272100Z 34014KT 15SM SCT030 BKN070 11/04 A3015 RMK CU3AC2 SLP230
CYQR;2003-09-27 23:00;METAR CYQR 272300Z CCA 34011KT 15SM FEW030 BKN074 12/04 A3016 RMK CU1AC4 SLP232
CYQR;2003-09-28 00:00;METAR CYQR 280000Z 34014KT 15SM FEW030 BKN072 12/03 A3017 RMK CU1AC4 SLP234
CYQR;2003-09-28 01:00;METAR CYQR 280100Z 32008KT 15SM FEW085 07/02 A3018 RMK AC1 SLP237
CYQR;2003-09-28 02:00;METAR CYQR 280200Z 36007KT 15SM FEW055 FEW090 06/02 A3019 RMK SC1AC1 SLP242
CYQR;2003-09-28 03:00;METAR CYQR 280300Z 34007KT 15SM FEW060 FEW090 04/02 A3022 RMK SC1AC1 SLP255
CYQR;2003-09-28 04:00;METAR CYQR 280400Z 35008KT 15SM FEW090 02/01 A3023 RMK AC1 SLP259
CYQR;2003-09-28 05:00;METAR CYQR 280500Z 33004KT 15SM FEW090 01/M01 A3025 RMK AC1 SLP265
CYQR;2003-09-28 06:00;METAR CYQR 280600Z 33005KT 15SM FEW090 01/M00 A3025 RMK AC1 SLP269
CYQR;2003-09-28 07:00;METAR CYQR 280700Z 29002KT 15SM FEW090 M02/M03 A3027 RMK AC1 SLP274
CYQR;2003-09-28 08:00;METAR CYQR 280800Z 30005KT 15SM FEW090 M02/M03 A3027 RMK AC1 SLP275
CYQR;2003-09-28 09:00;METAR CYQR 280900Z 36004KT 15SM FEW030 FEW090 M02/M03 A3028 RMK SC1AC1 SLP280
CYQR;2003-09-28 10:00;METAR CYQR 281000Z 31004KT 15SM SCT060 M00/M01 A3028 RMK SC3 SLP280
CYQR;2003-09-28 11:00;METAR CYQR 281100Z 29005KT 15SM BKN065 00/M00 A3028 RMK SC6 SLP280
CYQR;2003-09-28 12:00;METAR CYQR 281200Z 30004KT 15SM SCT059 00/M00 A3029 RMK SC4 SLP278
CYQR;2003-09-28 13:00;METAR CYQR 281300Z 33002KT 15SM SCT057 M00/M01 A3029 RMK SC3 SLP278
CYQR;2003-09-28 14:00;METAR CYQR 281400Z 34002KT 15SM FEW062 02/01 A3029 RMK AC2 SLP278
CYQR;2003-09-28 15:00;METAR CYQR 281500Z 32003KT 15SM FEW085 05/03 A3029 RMK AC1 SLP281
CYQR;2003-09-28 16:00;METAR CYQR 281600Z 32003KT 15SM FEW085 FEW320 08/02 A3028 RMK AC1CI1 TR AC SLP278
CYQR;2003-09-28 17:00;METAR CYQR 281700Z 34013KT 15SM FEW030 FEW320 10/02 A3028 RMK CU1CI0
CYQR;2003-09-28 18:00;METAR CYQR 281800Z 34013KT 15SM SCT033 BKN320 10/02 A3026 RMK CU3CI1 SLP271
CYQR;2003-09-28 19:00;METAR CYQR 281900Z 34016G21KT 15SM BKN037 BKN320 10/01 A3025 RMK CU5CI0 SLP268
CYQR;2003-09-28 20:00;METAR CYQR 282000Z 36016G21KT 15SM BKN037 BKN320 10/01 A3025 RMK CU5CI0
CYQR;2003-09-28 21:00;METAR CYQR 282100Z 35016G21KT 15SM FEW042 BKN320 11/M01 A3024 RMK CU1CI1 SLP266
CYQR;2003-09-28 22:00;METAR CYQR 282200Z 34016KT 15SM FEW045 BKN320 10/M02 A3024 RMK CU2CI2 CC ASOCTD SLP264
CYQR;2003-09-28 23:00;METAR CYQR 282300Z 35011G19KT 15SM FEW054 BKN320 10/M03 A3023 RMK CU2CI2 SLP262
CYQR;2003-09-29 00:00;METAR CYQR 290000Z 35011G16KT 15SM FEW050 BKN120 OVC320 09/M04 A3023 RMK CU1AC4CI2 SLP261
CYQR;2003-09-29 01:00;METAR CYQR 290100Z 34007KT 15SM BKN120 OVC320 07/M03 A3023 RMK AC6CI2 SLP262
CYQR;2003-09-29 02:00;METAR CYQR 290200Z 35007KT 15SM BKN120 BKN320 05/M03 A3024 RMK AC5CI1 SLP263
CYQR;2003-09-29 03:00;METAR CYQR 290300Z 34009KT 15SM FEW100 SCT300 01/M04 A3025 RMK AC2CI1 SLP270
CYQR;2003-09-29 04:00;METAR CYQR 290400Z 35008KT 15SM FEW084 SCT300 00/M04 A3026 RMK AC2CI0 SLP273
CYQR;2003-09-29 05:00;METAR CYQR 290500Z 35007KT 15SM FEW082 FEW300 00/M03 A3027 RMK AC1CI0 SLP277
CYQR;2003-09-29 06:00;METAR CYQR 290600Z 32005KT 15SM BKN092 01/M02 A3028 RMK AC6 SLP275
CYQR;2003-09-29 08:00;METAR CYQR 290800Z 29003KT 15SM FEW069 SCT270 00/M02 A3028 RMK AC2CI0 SLP275
CYQR;2003-09-29 09:00;METAR CYQR 290900Z 32007KT 15SM FEW052 FEW098 M01/M03 A3029 RMK SC1AC1 SLP281
CYQR;2003-09-29 10:00;METAR CYQR 291000Z 30004KT 15SM FEW054 BKN100 M01/M03 A3030 RMK SC1AC3 SLP283
CYQR;2003-09-29 11:00;METAR CYQR 291100Z 29005KT 15SM FEW049 BKN096 M01/M02 A3030 RMK SC2AC4 SLP285
CYQR;2003-09-29 12:00;METAR CYQR 291200Z 30005KT 15SM BKN049 OVC092 01/M01 A3031 RMK SC6AC2 SLP288
CYQR;2003-09-29 13:00;METAR CYQR 291300Z 32007KT 15SM BKN051 BKN090 03/M00 A3033 RMK SC6AC1 SLP292
CYQR;2003-09-29 14:00;METAR CYQR 291400Z 32008KT 15SM BKN047 BKN090 03/00 A3033 RMK SC6AC1 SLP294
CYQR;2003-09-29 15:00;METAR CYQR 291500Z 36014KT 15SM FEW090 05/M01 A3033 RMK AC1 SLP299
CYQR;2003-09-29 16:00;METAR CYQR 291600Z 34015KT 15SM FEW028 06/M02 A3033 RMK CU1 SLP299
CYQR;2003-09-29 17:00;METAR CYQR 291700Z 33017KT 15SM FEW030 06/M02 A3033 RMK CU1 SLP299
CYQR;2003-09-29 18:00;METAR CYQR 291800Z 33016G22KT 15SM SKC 07/M03 A3033 RMK SLP294
CYQR;2003-09-29 19:00;METAR CYQR 291900Z 31014G19KT 15SM SKC 09/M03 A3030 RMK SLP287
CYQR;2003-09-29 21:00;METAR CYQR 292100Z 32019G24KT 15SM SKC 10/M07 A3027 RMK SLP275
CYQR;2003-09-29 22:00;METAR CYQR 292200Z 31017G27KT 15SM SKC 10/M07 A3027 RMK SLP273
CYQR;2003-09-29 23:00;METAR CYQR 292300Z 31020G25KT 15SM SKC 10/M09 A3026 RMK SLP271
CYQR;2003-09-30 00:00;METAR CYQR 300000Z 32020KT 15SM SKC 09/M07 A3027 RMK SLP273
CYQR;2003-09-30 01:00;METAR CYQR 300100Z 32010KT 15SM SKC 06/M06 A3028 RMK SLP276
CYQR;2003-09-30 02:00;METAR CYQR 300200Z 31008KT 15SM SKC 02/M06 A3028 RMK SLP275
CYQR;2003-09-30 03:00;METAR CYQR 300300Z 30006KT 15SM SKC 01/M07 A3028 RMK SLP281
CYQR;2003-09-30 04:00;METAR CYQR 300400Z 30008KT 15SM SKC M02/M07 A3028 RMK SLP281
CYQR;2003-09-30 05:00;METAR CYQR 300500Z 34003KT 15SM SKC M02/M07 A3030 RMK SLP288
CYQR;2003-09-30 06:00;METAR CYQR 300600Z 35004KT 15SM SKC M02/M06 A3031 RMK SLP291
CYQR;2003-09-30 07:00;METAR CYQR 300700Z 09003KT 15SM SKC M01/M05 A3031 RMK SLP292
CYQR;2003-09-30 08:00;METAR CYQR 300800Z 12002KT 15SM SKC M03/M05 A3032 RMK SLP295
CYQR;2003-09-30 09:00;METAR CYQR 300900Z 20004KT 15SM SKC M06/M08 A3033 RMK SLP298
CYQR;2003-09-30 10:00;METAR CYQR 301000Z 00000KT 15SM SKC M06/M08 A3033 RMK SLP300
CYQR;2003-09-30 11:00;METAR CYQR 301100Z 25004KT 15SM SKC M06/M08 A3034 RMK SLP301
CYQR;2003-09-30 12:00;METAR CYQR 301200Z 00000KT 15SM SKC M07/M09 A3033 RMK SLP302
CYQR;2003-09-30 13:00;METAR CYQR 301300Z 00000KT 15SM SKC M07/M08 A3033 RMK SLP300
CYQR;2003-09-30 14:00;METAR CYQR 301400Z 22003KT 15SM SKC M05/M07 A3033 RMK SLP302
CYQR;2003-09-30 15:00;METAR CYQR 301500Z 26003KT 15SM SKC M00/M04 A3034 RMK SLP305
CYQR;2003-09-30 16:00;METAR CYQR 301600Z 31006KT 15SM SKC 05/M02 A3035 RMK SLP309
CYQR;2003-09-30 17:00;METAR CYQR 301700Z 32009KT 15SM SKC 07/M01 A3035 RMK SLP307
CYQR;2003-09-30 18:00;METAR CYQR 301800Z 36009KT 15SM SKC 09/M04 A3035 RMK SLP303
CYQR;2003-09-30 19:00;METAR CYQR 301900Z 35009G15KT 15SM FEW270 10/M05 A3034 RMK CI0 SLP300
CYQR;2003-09-30 20:00;METAR CYQR 302000Z 35013KT 15SM FEW270 11/M05 A3033 RMK CI0 SLP296
CYQR;2003-09-30 21:00;METAR CYQR 302100Z 31012G17KT 15SM FEW270 11/M06 A3032 RMK CI0 SLP293
CYQR;2003-09-30 22:00;METAR CYQR 302200Z 35010G15KT 15SM FEW270 11/M06 A3032 RMK CI0 SLP294
CYQR;2003-09-30 23:00;METAR CYQR 302300Z 36011KT 15SM FEW270 11/M06 A3031 RMK CI0 SLP292
CYQR;2003-10-01 00:00;METAR CYQR 010000Z 36009KT 15SM FEW270 10/M05 A3031 RMK CI0 SLP293
CYQR;2003-10-01 01:00;METAR CYQR 010100Z 02004KT 15SM FEW270 07/M05 A3031 RMK CI0 SLP293
CYQR;2003-10-01 02:00;METAR CYQR 010200Z 04005KT 15SM SKC 05/M05 A3032 RMK SLP296
CYQR;2003-10-01 03:00;METAR CYQR 010300Z 04004KT 15SM SKC 04/M06 A3033 RMK SLP298
CYQR;2003-10-01 04:00;METAR CYQR 010400Z 17005KT 15SM SKC M00/M07 A3033 RMK SLP299
CYQR;2003-10-01 05:00;METAR CYQR 010500Z 13006KT 15SM SKC M03/M07 A3034 RMK SLP301
CYQR;2003-10-01 06:00;METAR CYQR 010600Z 14005KT 15SM SKC M03/M08 A3034 RMK SLP302
CYQR;2003-10-01 07:00;METAR CYQR 010700Z 15007KT 15SM SKC M02/M07 A3035 RMK SLP304
CYQR;2003-10-01 08:00;METAR CYQR 010800Z 12007KT 15SM SKC M04/M07 A3035 RMK SLP305
CYQR;2003-10-01 09:00;METAR CYQR 010900Z 12007KT 15SM SKC M05/M08 A3035 RMK SLP303
CYQR;2003-10-01 10:00;METAR CYQR 011000Z 11008KT 15SM SKC M05/M08 A3035 RMK SLP303
CYQR;2003-10-01 11:00;METAR CYQR 011100Z 12007KT 15SM SKC M05/M08 A3034 RMK SLP302
CYQR;2003-10-01 12:00;METAR CYQR 011200Z 13007KT 15SM SKC M05/M08 A3034 RMK SLP302
CYQR;2003-10-01 13:00;METAR CYQR 011300Z 13008KT 15SM FEW110 FEW260 M05/M08 A3034 RMK AC1CI1 SLP303
CYQR;2003-10-01 14:00;METAR CYQR 011400Z 13007KT 15SM FEW120 FEW260 M03/M07 A3034 RMK AC0CI0 SLP301
CYQR;2003-10-01 15:00;METAR CYQR 011500Z 14007KT 15SM FEW150 FEW270 01/M06 A3033 RMK AC1CI0 SLP297
CYQR;2003-10-01 16:00;METAR CYQR 011600Z 14005KT 15SM FEW150 FEW270 04/M05 A3033 RMK AC1CI0 SLP299
CYQR;2003-10-01 17:00;METAR CYQR 011700Z 14006KT 15SM FEW270 09/M03 A3032 RMK CI0 SLP293
CYQR;2003-10-01 18:00;METAR CYQR 011800Z 17007KT 15SM FEW150 FEW270 12/M03 A3030 RMK AC0CI0 SLP285
CYQR;2003-10-01 19:00;METAR CYQR 011900Z CCA 25005KT 15SM FEW150 FEW270 14/M03 A3028 RMK AC0CI1 CI TR SLP277
CYQR;2003-10-01 20:00;METAR CYQR 012000Z 26006KT 15SM FEW150 FEW270 16/M03 A3025 RMK AC1CI1 SLP268
CYQR;2003-10-01 21:00;METAR CYQR 012100Z 22003KT 15SM SCT270 16/M04 A3023 RMK CI1 SLP257
CYQR;2003-10-01 22:00;METAR CYQR 012200Z 23007KT 15SM BKN270 16/M04 A3020 RMK CI1 SLP250
CYQR;2003-10-01 23:00;METAR CYQR 012300Z 21004KT 15SM BKN270 16/M05 A3018 RMK CI2 SLP242
CYQR;2003-10-02 00:00;METAR CYQR 020000Z 19005KT 15SM BKN270 15/M05 A3016 RMK CI2 SLP235
CYQR;2003-10-02 01:00;METAR CYQR 020100Z 15005KT 15SM BKN260 11/M06 A3014 RMK CI2 SLP230
CYQR;2003-10-02 02:00;METAR CYQR 020200Z 14008KT 15SM BKN260 08/M06 A3012 RMK CI2 SLP222
CYQR;2003-10-02 03:00;METAR CYQR 020300Z 15007KT 15SM FEW120 BKN260 07/M06 A3011 RMK AC1CI2 SLP219
CYQR;2003-10-02 04:00;METAR CYQR 020400Z 17009KT 15SM FEW120 OVC260 07/M06 A3010 RMK AC2CI2 SLP216
CYQR;2003-10-02 05:00;METAR CYQR 020500Z 16009KT 15SM FEW120 BKN260 06/M06 A3008 RMK AC2CI2 SLP211
CYQR;2003-10-02 06:00;METAR CYQR 020600Z 16009KT 15SM SCT097 BKN260 06/M05 A3007 RMK AC4CI1 SLP200
CYQR;2003-10-02 07:00;METAR CYQR 020700Z 15009KT 15SM BKN097 OVC260 06/M05 A3007 RMK AC6CI1 SLP199
CYQR;2003-10-02 08:00;METAR CYQR 020800Z 14008KT 15SM BKN098 OVC260 05/M05 A3005 RMK AC6CI1 SLP194
CYQR;2003-10-02 09:00;METAR CYQR 020900Z 14007KT 15SM OVC100 05/M05 A3004 RMK AC8 SLP187
CYQR;2003-10-02 10:00;METAR CYQR 021000Z 13007KT 15SM FEW100 BKN260 03/M05 A3003 RMK AC1CI2 SLP182
CYQR;2003-10-02 11:00;METAR CYQR 021100Z 13008KT 15SM SCT250 01/M06 A3001 RMK CI2 SLP177
CYQR;2003-10-02 12:00;METAR CYQR 021200Z 13005KT 15SM FEW100 SCT260 01/M06 A3000 RMK AC1CI0 SLP177
CYQR;2003-10-02 13:00;METAR CYQR 021300Z 12005KT 15SM FEW260 M00/M06 A2999 RMK CI1 SLP174
CYQR;2003-10-02 14:00;METAR CYQR 021400Z 12005KT 15SM FEW260 02/M05 A3000 RMK CI1 SLP176
CYQR;2003-10-02 15:00;METAR CYQR 021500Z 15003KT 15SM FEW270 06/M04 A2999 RMK CI1 SLP176
CYQR;2003-10-02 16:00;METAR CYQR 021600Z 27005KT 15SM SCT270 10/M03 A2998 RMK CI1 SLP173
CYQR;2003-10-02 17:00;METAR CYQR 021700Z 29006KT 15SM BKN270 14/M00 A2997 RMK CI1 SLP170
CYQR;2003-10-02 18:00;METAR CYQR 021800Z 32009KT 15SM BKN270 17/01 A2998 RMK CI1 SLP164
CYQR;2003-10-02 19:00;METAR CYQR 021900Z 34011KT 15SM OVC270 19/M00 A2996 RMK CI2 SLP160
CYQR;2003-10-02 20:00;METAR CYQR 022000Z 34012KT 15SM OVC270 20/M01 A2995 RMK CI2 SLP156
CYQR;2003-10-02 21:00;METAR CYQR 022100Z 31014KT 15SM OVC270 21/M01 A2994 RMK CI2 SLP149
CYQR;2003-10-02 22:00;METAR CYQR 022200Z 33017KT 15SM OVC270 21/M00 A2994 RMK CI3 SLP149
CYQR;2003-10-02 23:00;METAR CYQR 022300Z 33013G18KT 15SM FEW150 OVC270 20/00 A2993 RMK AC2CI2 SLP147
CYQR;2003-10-03 00:00;METAR CYQR 030000Z 35013KT 15SM FEW150 OVC270 18/01 A2994 RMK AC2CI2 SLP154
CYQR;2003-10-03 01:00;METAR CYQR 030100Z 35007KT 15SM FEW150 OVC270 14/01 A2995 RMK AC1CI2 SLP158
CYQR;2003-10-03 02:00;METAR CYQR 030200Z 35010KT 15SM FEW150 OVC270 13/02 A2996 RMK AC1CI2 SLP162
CYQR;2003-10-03 03:00;METAR CYQR 030300Z 34008KT 15SM FEW150 OVC270 11/03 A2997 RMK AC2CI2 SLP167
CYQR;2003-10-03 04:00;METAR CYQR 030400Z 33008KT 15SM OVC260 08/02 A2997 RMK CI4 SLP166
CYQR;2003-10-03 05:00;METAR CYQR 030500Z 33007KT 15SM BKN260 06/02 A2998 RMK CI3 SLP168
CYQR;2003-10-03 06:00;METAR CYQR 030600Z 32008KT 15SM FEW140 BKN260 06/02 A2999 RMK AC2CI2 SLP168
CYQR;2003-10-03 07:00;METAR CYQR 030700Z 33007KT 15SM FEW140 BKN260 04/01 A3000 RMK AC2CI1 SLP172
CYQR;2003-10-03 08:00;METAR CYQR 030800Z 30003KT 15SM BKN260 03/01 A3001 RMK CI2 SLP175
CYQR;2003-10-03 10:00;METAR CYQR 031000Z CCA 30007KT 15SM SCT120 BKN260 02/01 A3001 RMK AC3CI0 SLP177
CYQR;2003-10-03 11:00;METAR CYQR 031100Z 31004KT 12SM SCT120 BKN260 01/M00 A3003 RMK AC3CI1 SLP181
CYQR;2003-10-03 12:00;METAR CYQR 031200Z 32005KT 15SM SCT120 BKN260 03/01 A3003 RMK AC4CI0 SLP185
CYQR;2003-10-03 13:00;METAR CYQR 031300Z 34004KT 10SM FEW120 BKN260 03/01 A3005 RMK AC2CI0 FU SLP191
CYQR;2003-10-03 14:00;METAR CYQR 031400Z 29006KT 15SM FEW120 SCT270 03/01 A3003 RMK AC1CI0 FU
CYQR;2003-10-03 15:00;METAR CYQR 031500Z 32007KT 15SM FEW270 08/03 A3004 RMK CI1 SLP189
CYQR;2003-10-03 16:00;METAR CYQR 031600Z 30008KT 15SM FEW270 13/04 A3004 RMK CI1 SLP189
CYQR;2003-10-03 17:00;METAR CYQR 031700Z 31011KT 15SM FEW270 16/04 A3003 RMK CI1 SLP184
CYQR;2003-10-03 18:00;METAR CYQR 031800Z 31011KT 15SM FEW270 18/05 A3002 RMK CI1 SLP178
CYQR;2003-10-03 19:00;METAR CYQR 031900Z 32008G17KT 15SM SCT270 18/05 A3002 RMK CI1 SLP177
CYQR;2003-10-03 20:00;METAR CYQR 032000Z 32010G15KT 15SM SCT270 20/05 A2999 RMK CI1 SLP169
CYQR;2003-10-03 21:00;METAR CYQR 032100Z 33009G17KT 15SM FEW270 21/05 A2998 RMK CI1 SLP164
CYQR;2003-10-03 22:00;METAR CYQR 032200Z 32012KT 15SM FEW270 21/05 A2996 RMK CI1 SLP160
CYQR;2003-10-03 23:00;METAR CYQR 032300Z 32011KT 15SM FEW270 20/05 A2995 RMK CI1 SLP157
CYQR;2003-10-04 00:00;METAR CYQR 040000Z 31009KT 15SM FEW270 19/05 A2995 RMK CI1 SLP155
CYQR;2003-10-04 01:00;METAR CYQR 040100Z 31008KT 15SM SKC 13/04 A2995 RMK SLP156
CYQR;2003-10-04 02:00;METAR CYQR 040200Z 28004KT 15SM SKC 11/04 A2995 RMK SLP156
CYQR;2003-10-04 03:00;METAR CYQR 040300Z 30006KT 15SM SKC 10/03 A2994 RMK SLP156
CYQR;2003-10-04 04:00;METAR CYQR 040400Z 26005KT 15SM SKC 07/01 A2994 RMK SLP155
CYQR;2003-10-04 05:00;METAR CYQR 040500Z 27005KT 15SM SKC 07/01 A2994 RMK SLP154
CYQR;2003-10-04 06:00;METAR CYQR 040600Z 27007KT 15SM SKC 05/01 A2993 RMK SLP149
CYQR;2003-10-04 07:00;METAR CYQR 040700Z 30002KT 15SM SKC 05/01 A2993 RMK SLP148
CYQR;2003-10-04 08:00;METAR CYQR 040800Z 00000KT 15SM SKC 05/01 A2993 RMK SLP148
CYQR;2003-10-04 09:00;METAR CYQR 040900Z 22004KT 8SM SKC 03/M00 A2992 RMK BR SLP145
CYQR;2003-10-04 10:00;METAR CYQR 041000Z 26003KT 15SM SKC 03/M00 A2992 RMK SLP144
CYQR;2003-10-04 11:00;METAR CYQR 041100Z 23003KT 15SM SKC 03/00 A2992 RMK SLP143
CYQR;2003-10-04 12:00;METAR CYQR 041200Z 00000KT 15SM SKC 02/00 A2991 RMK SLP143
CYQR;2003-10-04 13:00;METAR CYQR 041300Z 24003KT 15SM SKC 01/M02 A2991 RMK SLP142
CYQR;2003-10-04 14:00;METAR CYQR 041400Z 00000KT 15SM SKC 04/02 A2991 RMK SLP143
CYQR;2003-10-04 15:00;METAR CYQR 041500Z 22002KT 15SM SKC 09/04 A2991 RMK SLP143
CYQR;2003-10-04 16:00;METAR CYQR 041600Z 30003KT 15SM SKC 14/04 A2990 RMK SLP140
CYQR;2003-10-04 17:00;METAR CYQR 041700Z 32003KT 15SM FEW310 17/05 A2990 RMK CI0 SLP139
CYQR;2003-10-04 18:00;METAR CYQR 041800Z 00000KT 15SM SCT310 20/05 A2989 RMK CI1 SLP135
CYQR;2003-10-04 19:00;METAR CYQR 041900Z 28003KT 15SM SCT310 22/04 A2988 RMK CI1 SLP130
CYQR;2003-10-04 20:00;METAR CYQR 042000Z 26008KT 15SM SCT310 22/03 A2986 RMK CI2 SLP125
CYQR;2003-10-04 21:00;METAR CYQR 042100Z 31010KT 15SM SCT310 24/04 A2985 RMK CI2 SLP120
CYQR;2003-10-04 22:00;METAR CYQR 042200Z 30010KT 15SM FEW310 24/03 A2984 RMK CI0 SLP116
CYQR;2003-10-04 23:00;METAR CYQR 042300Z 30010KT 15SM FEW310 24/03 A2984 RMK CI1 SLP115
CYQR;2003-10-05 00:00;METAR CYQR 050000Z 32004KT 15SM FEW310 20/03 A2984 RMK CI0 SLP116
CYQR;2003-10-05 01:00;METAR CYQR 050100Z 01004KT 15SM FEW310 17/02 A2984 RMK CI1 SLP118
CYQR;2003-10-05 02:00;METAR CYQR 050200Z 04003KT 15SM FEW270 16/03 A2984 RMK CI0 SLP119
CYQR;2003-10-05 03:00;METAR CYQR 050300Z 16004KT 15SM FEW270 10/02 A2985 RMK CI1 SLP122
CYQR;2003-10-05 04:00;METAR CYQR 050400Z 15004KT 15SM SCT270 08/01 A2985 RMK CI1 SLP124
CYQR;2003-10-05 06:00;METAR CYQR 050600Z 13006KT 15SM FEW270 07/02 A2986 RMK CI0 SLP122
CYQR;2003-10-05 07:00;METAR CYQR 050700Z 15004KT 15SM SKC 07/01 A2987 RMK SLP124
CYQR;2003-10-05 08:00;METAR CYQR 050800Z 10004KT 15SM SKC 06/01 A2987 RMK SLP124
CYQR;2003-10-05 09:00;METAR CYQR 050900Z 17003KT 15SM SKC 04/M00 A2987 RMK SLP125
CYQR;2003-10-05 10:00;METAR CYQR 051000Z 12004KT 15SM SKC 03/M00 A2987 RMK SLP123
CYQR;2003-10-05 11:00;METAR CYQR 051100Z 12004KT 15SM SKC 03/M01 A2987 RMK SLP124
CYQR;2003-10-05 12:00;METAR CYQR 051200Z 12003KT 15SM SKC 03/M01 A2987 RMK SLP129
CYQR;2003-10-05 13:00;METAR CYQR 051300Z 11004KT 15SM SKC 03/00 A2988 RMK SLP131
CYQR;2003-10-05 14:00;METAR CYQR 051400Z 16003KT 15SM SKC 03/M01 A2989 RMK SLP134
CYQR;2003-10-05 15:00;METAR CYQR 051500Z 17002KT 15SM SKC 08/01 A2990 RMK SLP141
CYQR;2003-10-05 16:00;METAR CYQR 051600Z 18003KT 15SM SKC 14/03 A2991 RMK SLP145
CYQR;2003-10-05 17:00;METAR CYQR 051700Z 25002KT 15SM SKC 18/03 A2991 RMK SLP145
CYQR;2003-10-05 18:00;METAR CYQR 051800Z 24002KT 15SM SKC 21/04 A2991 RMK SLP137
CYQR;2003-10-05 19:00;METAR CYQR 051900Z 36002KT 15SM SKC 23/04 A2990 RMK SLP135
CYQR;2003-10-05 20:00;METAR CYQR 052000Z 24002KT 15SM SKC 24/04 A2990 RMK SLP133
CYQR;2003-10-05 21:00;METAR CYQR 052100Z 32006KT 15SM SKC 24/03 A2989 RMK SLP132
CYQR;2003-10-05 22:00;METAR CYQR 052200Z 25002KT 15SM SKC 25/03 A2989 RMK SLP131
CYQR;2003-10-05 23:00;METAR CYQR 052300Z 33003KT 15SM SKC 25/03 A2989 RMK SLP132
CYQR;2003-10-06 00:00;METAR CYQR 060000Z 36003KT 15SM SKC 22/04 A2989 RMK SLP135
CYQR;2003-10-06 01:00;METAR CYQR 060100Z 35003KT 15SM SKC 17/02 A2990 RMK SLP136
CYQR;2003-10-06 02:00;METAR CYQR 060200Z 05002KT 15SM SKC 15/03 A2990 RMK SLP136
CYQR;2003-10-06 03:00;METAR CYQR 060300Z 11004KT 15SM SKC 12/03 A2990 RMK SLP140
CYQR;2003-10-06 04:00;METAR CYQR 060400Z 17004KT 15SM SKC 09/M00 A2990 RMK SLP141
CYQR;2003-10-06 05:00;METAR CYQR 060500Z 14004KT 15SM SKC 07/M01 A2990 RMK SLP140
CYQR;2003-10-06 06:00;METAR CYQR 060600Z 16004KT 15SM SKC 07/M01 A2990 RMK SLP135
CYQR;2003-10-06 07:00;METAR CYQR 060700Z 18004KT 15SM SKC 06/M00 A2990 RMK SLP134
CYQR;2003-10-06 08:00;METAR CYQR 060800Z 12005KT 15SM SKC 05/01 A2990 RMK SLP134
CYQR;2003-10-06 09:00;METAR CYQR 060900Z 11006KT 15SM SKC 04/M00 A2989 RMK SLP132
CYQR;2003-10-06 10:00;METAR CYQR 061000Z 10003KT 15SM SKC 04/00 A2989 RMK SLP132
CYQR;2003-10-06 11:00;METAR CYQR 061100Z 12006KT 15SM SKC 03/M01 A2989 RMK SLP130
CYQR;2003-10-06 12:00;METAR CYQR 061200Z 14005KT 15SM SKC 03/M01 A2989 RMK SLP131
CYQR;2003-10-06 13:00;METAR CYQR 061300Z 16005KT 15SM SKC 03/M02 A2988 RMK SLP129
CYQR;2003-10-06 14:00;METAR CYQR 061400Z 15004KT 15SM SKC 05/M01 A2988 RMK SLP129
CYQR;2003-10-06 15:00;METAR CYQR 061500Z 15002KT 15SM SKC 10/01 A2988 RMK SLP132
CYQR;2003-10-06 16:00;METAR CYQR 061600Z 20003KT 15SM SKC 14/02 A2988 RMK SLP131
CYQR;2003-10-06 17:00;METAR CYQR 061700Z 21003KT 15SM SKC 19/03 A2986 RMK SLP126
CYQR;2003-10-06 18:00;METAR CYQR 061800Z 25004KT 15SM SKC 22/03 A2984 RMK SLP113
CYQR;2003-10-06 19:00;METAR CYQR 061900Z 26006KT 15SM SKC 24/03 A2982 RMK SLP106
CYQR;2003-10-06 20:00;METAR CYQR 062000Z 28004KT 15SM SKC 25/03 A2980 RMK SLP099
CYQR;2003-10-06 21:00;METAR CYQR 062100Z 28010KT 15SM SKC 26/03 A2978 RMK SLP090
CYQR;2003-10-06 22:00;METAR CYQR 062200Z 26007KT 15SM SKC 26/03 A2977 RMK SLP088
CYQR;2003-10-06 23:00;METAR CYQR 062300Z 29005KT 15SM SKC 26/02 A2976 RMK SLP085
CYQR;2003-10-07 00:00;METAR CYQR 070000Z 32005KT 15SM SKC 21/02 A2975 RMK SLP087
CYQR;2003-10-07 01:00;METAR CYQR 070100Z 23003KT 15SM SKC 18/00 A2975 RMK SLP086
CYQR;2003-10-07 02:00;METAR CYQR 070200Z 23004KT 15SM SKC 15/01 A2975 RMK SLP085
CYQR;2003-10-07 03:00;METAR CYQR 070300Z 21003KT 15SM SKC 11/M01 A2974 RMK SLP084
CYQR;2003-10-07 04:00;METAR CYQR 070400Z 18002KT 15SM SKC 08/M01 A2974 RMK SLP086
CYQR;2003-10-07 05:00;METAR CYQR 070500Z 16003KT 15SM SKC 09/02 A2974 RMK SLP084
CYQR;2003-10-07 06:00;METAR CYQR 070600Z 12005KT 15SM SKC 08/01 A2973 RMK SLP073
CYQR;2003-10-07 08:00;METAR CYQR 070800Z 15005KT 15SM SKC 07/M01 A2972 RMK SLP071
CYQR;2003-10-07 09:00;METAR CYQR 070900Z 12007KT 15SM SKC 06/M01 A2971 RMK SLP067
CYQR;2003-10-07 10:00;METAR CYQR 071000Z 13006KT 15SM SKC 05/M01 A2970 RMK SLP064
CYQR;2003-10-07 11:00;METAR CYQR 071100Z 11008KT 15SM SKC 06/M00 A2968 RMK SLP057
CYQR;2003-10-07 12:00;METAR CYQR 071200Z 14008KT 15SM SKC 04/M01 A2968 RMK SLP059
CYQR;2003-10-07 13:00;METAR CYQR 071300Z 13007KT 15SM FEW270 05/M01 A2967 RMK CI1 SLP056
CYQR;2003-10-07 15:00;METAR CYQR 071500Z 13008KT 12SM FEW100 FEW270 11/00 A2965 RMK ACC1CI0 SLP053
CYQR;2003-10-07 16:00;METAR CYQR 071600Z 14008KT 15SM FEW100 SCT270 14/01 A2964 RMK ACC1CI0 SLP049
CYQR;2003-10-07 17:00;METAR CYQR 071700Z 12007KT 15SM FEW100 BKN320 19/03 A2962 RMK AC1CI1 SLP043
CYQR;2003-10-07 18:00;METAR CYQR 071800Z 13007KT 15SM FEW090 BKN320 22/04 A2960 RMK ACC2CI1 SLP031
CYQR;2003-10-07 19:00;METAR CYQR 071900Z 16013KT 15SM FEW090 BKN320 27/03 A2958 RMK ACC2CI1 SLP024
CYQR;2003-10-07 20:00;METAR CYQR 072000Z 15010KT 15SM FEW090 SCT320 29/02 A2955 RMK ACC1CI1 SLP016
CYQR;2003-10-07 21:00;METAR CYQR 072100Z 21012KT 15SM FEW090 SCT320 29/01 A2954 RMK AC1CI1 SLP008
CYQR;2003-10-07 22:00;METAR CYQR 072200Z 22004KT 15SM FEW060CB SCT320 28/01 A2954 RMK CB1CI0 CB SE SLP007
CYQR;2003-10-07 23:00;METAR CYQR 072300Z 28012KT 15SM BKN320 27/03 A2955 RMK CI1 SLP009
CYQR;2003-10-08 00:00;METAR CYQR 080000Z 28007KT 15SM FEW120 BKN320 22/03 A2956 RMK AC1CI1 SLP019
CYQR;2003-10-08 01:00;METAR CYQR 080100Z 24006KT 15SM FEW120 SCT320 18/02 A2957 RMK AC1CI0 SLP022
CYQR;2003-10-08 02:00;METAR CYQR 080200Z 00000KT 15SM FEW120 BKN300 15/02 A2957 RMK AC2CI0
CYQR;2003-10-08 03:00;METAR CYQR 080300Z 15003KT 15SM FEW110 BKN300 14/02 A2958 RMK AC2CI1 SLP027
CYQR;2003-10-08 04:00;METAR CYQR 080400Z 15004KT 15SM SCT110 BKN300 15/04 A2959 RMK AC3CI1 SLP031
CYQR;2003-10-08 05:00;METAR CYQR 080500Z 18006KT 15SM FEW120 SCT300 12/01 A2961 RMK AC2CI1 SLP037
CYQR;2003-10-08 06:00;METAR CYQR 080600Z 22005KT 15SM FEW110 SCT300 11/01 A2962 RMK AC1CI1 SLP035
CYQR;2003-10-08 07:00;METAR CYQR 080700Z 18002KT 15SM FEW110 SCT270 09/01 A2962 RMK AC1CI0 SLP036
CYQR;2003-10-08 08:00;METAR CYQR 080800Z 00000KT 15SM FEW110 SCT270 09/03 A2964 RMK AC1CI0 SLP043
CYQR;2003-10-08 09:00;METAR CYQR 080900Z 27004KT 15SM FEW100 SCT270 08/02 A2965 RMK AC2CI0
CYQR;2003-10-08 10:00;METAR CYQR 081000Z 26006KT 15SM FEW100 SCT270 07/02 A2966 RMK AC2CI0 SLP046
CYQR;2003-10-08 11:00;METAR CYQR 081100Z 26007KT 15SM SCT120 BKN270 09/03 A2967 RMK AC3CI1 SLP049
CYQR;2003-10-08 12:00;METAR CYQR 081200Z 30005KT 15SM FEW050 BKN110 OVC270 12/04 A2967 RMK SC2AC3CI1 SLP052
CYQR;2003-10-08 13:00;METAR CYQR 081300Z 31004KT 15SM OVC090 11/04 A2969 RMK AC7 SLP057
CYQR;2003-10-08 14:00;METAR CYQR 081400Z 30012KT 15SM BKN060 BKN090 OVC120 10/07 A2971 RMK SC5AC2AC1 ACC EMBDD VIRGA SLP064
CYQR;2003-10-08 15:00;METAR CYQR 081500Z 30009KT 10SM -SHRA FEW027 BKN055 OVC090 10/09 A2973 RMK SC2SC5AC2 CVCTV CLD EMBDD SLP079
CYQR;2003-10-08 16:00;METAR CYQR 081600Z 25007KT 15SM VCSH BKN038 OVC055 10/10 A2976 RMK SC6SC2 CVCTV CLD EMBDD SLP089
CYQR;2003-10-08 17:00;METAR CYQR 081700Z 20003KT 3SM SHRA BR BKN022 BKN035 OVC080 10/10 A2976 RMK SC6SC2AC1 CVCTV CLD EMBDD SLP088
CYQR;2003-10-08 18:00;METAR CYQR 081800Z 27004KT 15SM FEW006 FEW022 BKN079 BKN260 12/11 A2975 RERA RMK SF1SC2AC3CI1 SLP086
CYQR;2003-10-08 19:00;METAR CYQR 081900Z 28003KT 15SM FEW020 FEW080 SCT120 BKN260 16/11 A2973 RMK CF1AC2AC1CI2 SLP079
CYQR;2003-10-08 20:00;METAR CYQR 082000Z 26002KT 15SM FEW080 BKN260 17/11 A2970 RMK ACC2CI2 SLP070
CYQR;2003-10-08 21:00;METAR CYQR 082100Z 27006KT 15SM FEW080 BKN260 19/11 A2969 RMK AC1CI3 SLP064
CYQR;2003-10-08 22:00;METAR CYQR 082200Z 26008KT 15SM SCT150 BKN260 19/10 A2969 RMK AC2CI2 SLP062
CYQR;2003-10-08 23:00;METAR CYQR 082300Z 24004KT 15SM FEW150 SCT260 19/09 A2968 RMK AC2CI1 SLP060
CYQR;2003-10-09 00:00;METAR CYQR 090000Z 24005KT 15SM FEW150 SCT260 16/11 A2968 RMK AC1CI2 SLP058
CYQR;2003-10-09 01:00;METAR CYQR 090100Z 00000KT 15SM FEW260 13/10 A2968 RMK CI1 SLP057
CYQR;2003-10-09 02:00;METAR CYQR 090200Z 16004KT 15SM FEW260 11/08 A2967 RMK CI0 SLP056
CYQR;2003-10-09 03:00;METAR CYQR 090300Z 16006KT 15SM SKC 10/07 A2967 RMK SLP061
CYQR;2003-10-09 04:00;METAR CYQR 090400Z 15008KT 15SM SKC 09/07 A2967 RMK SLP060
CYQR;2003-10-09 05:00;METAR CYQR 090500Z 15009KT 15SM SKC 08/07 A2966 RMK SLP057
CYQR;2003-10-09 06:00;METAR CYQR 090600Z 15008KT 15SM SKC 07/05 A2964 RMK SLP052
CYQR;2003-10-09 07:00;METAR CYQR 090700Z 14009KT 15SM SCT100 06/04 A2963 RMK AC2 SLP046
CYQR;2003-10-09 08:00;METAR CYQR 090800Z 16008KT 15SM SCT100 07/04 A2962 RMK AC3 SLP045
CYQR;2003-10-09 09:00;METAR CYQR 090900Z 15007KT 15SM BKN100 06/04 A2961 RMK AC4 SLP037
CYQR;2003-10-09 10:00;METAR CYQR 091000Z 15011KT 15SM SCT100 07/03 A2958 RMK AC2 SLP027
CYQR;2003-10-09 11:00;METAR CYQR 091100Z 14010KT 15SM SCT100 06/03 A2958 RMK AC2 SLP026
CYQR;2003-10-09 12:00;METAR CYQR 091200Z 13007KT 15SM FEW100 05/03 A2957 RMK AC1 SLP025
CYQR;2003-10-09 13:00;METAR CYQR 091300Z 14011KT 15SM SCT100 07/03 A2954 RMK AC2 ACC ASOCTD SLP016
CYQR;2003-10-09 14:00;METAR CYQR 091400Z 16006KT 15SM -SHRA BKN055CB BKN100 07/05 A2959 RMK CB5AC2 OCNL LTGCCCG SE-S SLP031
CYQR;2003-10-09 15:00;METAR CYQR 091500Z 04003KT 15SM FEW020 SCT055 SCT100 10/09 A2955 RMK SC1SC2AC1 SLP018
CYQR;2003-10-09 16:00;METAR CYQR 091600Z 28009KT 15SM FEW055 BKN079 16/09 A2959 RMK SC2AC4 SLP031
CYQR;2003-10-09 17:00;METAR CYQR 091700Z 29010KT 15SM SCT056 BKN090 16/07 A2959 RMK SC3AC4 SLP032
CYQR;2003-10-09 18:00;METAR CYQR 091800Z 27013G18KT 15SM SCT056 BKN090 BKN320 17/06 A2959 RMK SC3AC2CI1 SLP030
CYQR;2003-10-09 19:00;METAR CYQR 091900Z 27021KT 15SM FEW055 SCT095 BKN320 19/04 A2958 RMK SC2AC2CI1 SLP028
CYQR;2003-10-09 20:00;METAR CYQR 092000Z 27020G28KT 15SM FEW055 FEW095 SCT320 20/01 A2957 RMK SC1AC2CI1 SLP024
CYQR;2003-10-09 21:00;METAR CYQR 092100Z 27021G29KT 15SM FEW090 FEW320 20/M01 A2956 RMK AC1CI0 SLP019
CYQR;2003-10-09 22:00;METAR CYQR 092200Z 26023G30KT 15SM FEW090 FEW320 20/M03 A2957 RMK AC1CI1 SLP022
CYQR;2003-10-09 23:00;METAR CYQR 092300Z 27015G22KT 15SM FEW090 FEW320 18/M02 A2959 RMK AC1CI1 SLP027
CYQR;2003-10-10 00:00;METAR CYQR 100000Z 28008KT 15SM SCT090 BKN320 15/M01 A2960 RMK AC3CI0 SLP038
CYQR;2003-10-10 01:00;METAR CYQR 100100Z 25002KT 15SM SCT090 BKN320 12/M01 A2962 RMK AC3CI1 SLP042
CYQR;2003-10-10 02:00;METAR CYQR 100200Z 26004KT 15SM SCT100 BKN300 10/M01 A2963 RMK AC3CI1 SLP047
CYQR;2003-10-10 03:00;METAR CYQR 100300Z 19007KT 15SM FEW100 SCT270 06/M01 A2962 RMK AC2CI0 SLP044
CYQR;2003-10-10 04:00;METAR CYQR 100400Z 22011KT 15SM BKN110 BKN270 08/00 A2966 RMK AC5CI0 SLP057
CYQR;2003-10-10 05:00;METAR CYQR 100500Z 21012KT 15SM OVC060 09/01 A2967 RMK SC8 SLP061
CYQR;2003-10-10 06:00;METAR CYQR 100600Z 23005KT 15SM OVC060 10/00 A2964 RMK SC8 SLP046
CYQR;2003-10-10 07:00;METAR CYQR 100700Z 25009KT 15SM SCT060 OVC095 10/00 A2965 RMK SC4AC4 SLP049
CYQR;2003-10-10 08:00;METAR CYQR 100800Z 23008KT 15SM FEW060 OVC110 09/01 A2967 RMK SC2AC6 SLP055
CYQR;2003-10-10 09:00;METAR CYQR 100900Z 21004KT 15SM OVC110 08/02 A2965 RMK AC8 SLP050
CYQR;2003-10-10 10:00;METAR CYQR 101000Z 25005KT 15SM BKN090 BKN270 08/01 A2963 RMK AC5CI1 SLP043
CYQR;2003-10-10 11:00;METAR CYQR 101100Z 21002KT 15SM BKN090 OVC270 06/02 A2964 RMK AC6CI1 SLP046
CYQR;2003-10-10 12:00;METAR CYQR 101200Z 23004KT 15SM BKN110 OVC270 06/02 A2966 RMK AC6CI2 SLP056
CYQR;2003-10-10 13:00;METAR CYQR 101300Z 24006KT 15SM BKN110 OVC270 05/01 A2966 RMK AC6CI2
CYQR;2003-10-10 14:00;METAR CYQR 101400Z 26007KT 15SM OVC110 06/00 A2968 RMK AC8 SLP062
CYQR;2003-10-10 15:00;METAR CYQR 101500Z 25004KT 15SM BKN100 OVC320 07/00 A2970 RMK AC6CI2 SLP075
CYQR;2003-10-10 16:00;METAR CYQR 101600Z 28008KT 15SM FEW090 OVC120 09/M01 A2969 RMK AC2AS6 SLP071
CYQR;2003-10-10 17:00;METAR CYQR 101700Z 27007KT 15SM OVC120 09/M01 A2969 RMK AS8 SLP073
CYQR;2003-10-10 18:00;METAR CYQR 101800Z 28007KT 15SM BKN120 OVC320 10/M00 A2970 RMK AS6CI2 SLP070
CYQR;2003-10-10 19:00;METAR CYQR 101900Z 27006KT 15SM BKN120 OVC320 11/M00 A2970 RMK AS6CI2 SLP072
CYQR;2003-10-10 20:00;METAR CYQR 102000Z 29006KT 15SM BKN120 OVC320 11/M00 A2969 RMK AS5CI3 SLP068
CYQR;2003-10-10 21:00;METAR CYQR 102100Z 28005KT 15SM BKN120 OVC320 12/M00 A2970 RMK AS5CI3 SLP073
CYQR;2003-10-10 22:00;METAR CYQR 102200Z 27003KT 15SM BKN120 OVC320 12/M00 A2972 RMK AC5CI3 SLP078
CYQR;2003-10-10 23:00;METAR CYQR 102300Z 26002KT 15SM BKN100 OVC320 12/00 A2973 RMK AC5CI2 SLP081
CYQR;2003-10-11 00:00;METAR CYQR 110000Z 23003KT 15SM BKN095 BKN320 11/02 A2974 RMK AC5CI2 SLP087
CYQR;2003-10-11 01:00;METAR CYQR 110100Z 20005KT 15SM BKN095 BKN320 08/02 A2976 RMK AC6CI2 SLP094
CYQR;2003-10-11 02:00;METAR CYQR 110200Z 23007KT 15SM BKN090 OVC270 08/02 A2978 RMK AC6CI2 SLP100
CYQR;2003-10-11 03:00;METAR CYQR 110300Z 27007KT 15SM BKN090 BKN270 07/01 A2979 RMK AC6CI1 SLP107
CYQR;2003-10-11 04:00;METAR CYQR 110400Z 28008KT 15SM FEW100 BKN270 05/00 A2980 RMK AC2CI1 SLP108
CYQR;2003-10-11 05:00;METAR CYQR 110500Z 28008KT 15SM FEW100 SCT270 04/M01 A2980 RMK AC1CI1 SLP110
CYQR;2003-10-11 06:00;METAR CYQR 110600Z 27006KT 15SM FEW270 01/M02 A2981 RMK CI1 SLP116
CYQR;2003-10-11 07:00;METAR CYQR 110700Z 29010KT 15SM FEW270 01/M02 A2983 RMK CI1 SLP122
CYQR;2003-10-11 08:00;METAR CYQR 110800Z 31009KT 15SM FEW090 SCT270 01/M02 A2986 RMK AC2CI0 SLP131
CYQR;2003-10-11 09:00;METAR CYQR 110900Z 26005KT 15SM FEW090 SCT270 M01/M03 A2985 RMK AC2CI0 SLP130
CYQR;2003-10-11 10:00;METAR CYQR 111000Z 27006KT 15SM FEW090 SCT270 M00/M02 A2985 RMK AC1CI1 SLP129
CYQR;2003-10-11 11:00;METAR CYQR 111100Z 27009KT 15SM SCT090 BKN270 00/M01 A2986 RMK AC3CI0
CYQR;2003-10-11 12:00;METAR CYQR 111200Z 27009KT 15SM FEW090 SCT270 M00/M02 A2987 RMK AC2CI0 SLP135
CYQR;2003-10-11 13:00;METAR CYQR 111300Z 27009KT 15SM FEW090 SCT270 M00/M03 A2988 RMK AC2CI0 SLP138
CYQR;2003-10-11 14:00;METAR CYQR 111400Z 28010KT 15SM SCT090 BKN270 02/M01 A2990 RMK AC3CI0 SLP144
CYQR;2003-10-11 15:00;METAR CYQR 111500Z 30010KT 15SM SCT090 BKN270 04/00 A2992 RMK AC4CI0 SLP151
CYQR;2003-10-11 16:00;METAR CYQR 111600Z 30015KT 15SM FEW090 BKN270 08/02 A2991 RMK AC2CI1 SLP150
CYQR;2003-10-11 17:00;METAR CYQR 111700Z 32019KT 15SM FEW030 FEW090 FEW270 10/03 A2991 RMK SC1AC1CI1 SLP150
CYQR;2003-10-11 18:00;METAR CYQR 111800Z 32019KT 15SM FEW031 FEW090 11/04 A2992 RMK SC2AC1 CU ASOCTD SLP151
CYQR;2003-10-11 19:00;METAR CYQR 111900Z 31018KT 15SM SCT033 12/03 A2991 RMK CU3 SLP148
CYQR;2003-10-11 20:00;METAR CYQR 112000Z 32015G24KT 15SM SCT041 13/03 A2990 RMK CU4 SLP146
CYQR;2003-10-11 21:00;METAR CYQR 112100Z 30017KT 15SM FEW047 FEW320 14/02 A2990 RMK CU2CI1 SLP146
CYQR;2003-10-11 22:00;METAR CYQR 112200Z 30014G25KT 15SM FEW052 FEW320 14/01 A2990 RMK CU2CI1
CYQR;2003-10-11 23:00;METAR CYQR 112300Z 31014G19KT 15SM FEW059 BKN320 14/M00 A2990 RMK CU1CI1
CYQR;2003-10-12 00:00;METAR CYQR 120000Z 30009KT 15SM FEW060 SCT320 10/M01 A2990 RMK SC1CI1 SLP147
CYQR;2003-10-12 01:00;METAR CYQR 120100Z 27006KT 15SM SCT320 05/M02 A2990 RMK CI1 SLP147
CYQR;2003-10-12 02:00;METAR CYQR 120200Z 26006KT 15SM BKN280 04/M03 A2989 RMK CI3 SLP145
CYQR;2003-10-12 03:00;METAR CYQR 120300Z 23007KT 15SM BKN140 BKN280 03/M03 A2988 RMK AC5CI0 SLP142
CYQR;2003-10-12 04:00;METAR CYQR 120400Z 18003KT 15SM BKN120 OVC280 03/M02 A2988 RMK AC6CI0 SLP140
CYQR;2003-10-12 05:00;METAR CYQR 120500Z 18003KT 15SM BKN120 OVC280 03/M02 A2987 RMK AC7CI0 SLP139
CYQR;2003-10-12 06:00;METAR CYQR 120600Z 16004KT 15SM BKN110 OVC280 03/M01 A2987 RMK AC7CI0 SLP134
CYQR;2003-10-12 07:00;METAR CYQR 120700Z 12008KT 15SM BKN120 BKN280 02/M02 A2985 RMK AC6CI0 SLP127
CYQR;2003-10-12 08:00;METAR CYQR 120800Z 12006KT 15SM FEW120 BKN280 00/M03 A2984 RMK AC1CI1 SLP124
CYQR;2003-10-12 09:00;METAR CYQR 120900Z 13007KT 15SM BKN280 M00/M04 A2982 RMK CI1 SLP118
CYQR;2003-10-12 10:00;METAR CYQR 121000Z 13008KT 15SM FEW280 M01/M04 A2981 RMK CI1 SLP115
CYQR;2003-10-12 11:00;METAR CYQR 121100Z 12007KT 15SM FEW280 M01/M04 A2979 RMK CI1 SLP109
CYQR;2003-10-12 12:00;METAR CYQR 121200Z 13009KT 15SM FEW100 FEW280 M02/M05 A2978 RMK AC1CI0 SLP105
CYQR;2003-10-12 13:00;METAR CYQR 121300Z 12005KT 15SM FEW100 SCT280 M03/M05 A2977 RMK AC1CI1 SLP104
CYQR;2003-10-12 14:00;METAR CYQR 121400Z 12008KT 15SM FEW100 BKN280 M01/M04 A2975 RMK AC1CI2 SLP098
CYQR;2003-10-12 15:00;METAR CYQR 121500Z 13006KT 15SM BKN120 BKN280 03/M03 A2974 RMK AC5CI1 SLP095
CYQR;2003-10-12 16:00;METAR CYQR 121600Z 13007KT 15SM BKN120 OVC280 05/M02 A2973 RMK AC6CI2 SLP090
CYQR;2003-10-12 17:00;METAR CYQR 121700Z 16007KT 15SM OVC120 06/M02 A2972 RMK AC8 SLP089
CYQR;2003-10-12 18:00;METAR CYQR 121800Z 19007KT 15SM OVC090 08/M01 A2971 RMK AC8 SLP080
CYQR;2003-10-12 19:00;METAR CYQR 121900Z 25013KT 15SM OVC088 10/M02 A2970 RMK AC8 SLP078
CYQR;2003-10-12 20:00;METAR CYQR 122000Z 28008KT 15SM BKN088 OVC320 10/M01 A2970 RMK AC6CI2 SLP076
CYQR;2003-10-12 21:00;METAR CYQR 122100Z 27013KT 15SM BKN080 OVC320 11/M01 A2971 RMK AC6CI2 SLP080
CYQR;2003-10-12 22:00;METAR CYQR 122200Z 30008KT 15SM FEW043 BKN100 OVC320 12/01 A2972 RMK SC2AC4CI2 SLP084
CYQR;2003-10-12 23:00;METAR CYQR 122300Z 31006KT 15SM BKN028 OVC097 09/06 A2974 RMK SC5AC3 SLP091
CYQR;2003-10-13 00:00;METAR CYQR 130000Z 23002KT 15SM FEW028 BKN051 BKN100 OVC320 08/06 A2975 RMK SC2SC2AC2CI0 SLP098
CYQR;2003-10-13 01:00;METAR CYQR 130100Z 20007KT 15SM FEW050 FEW100 BKN320 05/03 A2976 RMK SC1AC2CI0 SLP101
CYQR;2003-10-13 02:00;METAR CYQR 130200Z 23006KT 15SM FEW092 BKN300 04/02 A2976 RMK AC2CI1 SLP100
CYQR;2003-10-13 03:00;METAR CYQR 130300Z 26006KT 15SM FEW094 BKN300 01/01 A2977 RMK AC2CI0 SLP106
CYQR;2003-10-13 04:00;METAR CYQR 130400Z 30004KT 15SM FEW094 SCT300 M00/M02 A2978 RMK AC1CI0 SLP108
CYQR;2003-10-13 05:00;METAR CYQR 130500Z 28009KT 15SM SCT300 M00/M02 A2979 RMK CI1 SLP111
CYQR;2003-10-13 06:00;METAR CYQR 130600Z 31006KT 15SM FEW300 M01/M03 A2979 RMK CI0 SLP112
CYQR;2003-10-13 07:00;METAR CYQR 130700Z 31006KT 15SM SKC M02/M04 A2981 RMK SLP116
CYQR;2003-10-13 08:00;METAR CYQR 130800Z 29008KT 15SM SKC M03/M04 A2982 RMK SLP120
CYQR;2003-10-13 09:00;METAR CYQR 130900Z 29004KT 15SM SKC M04/M05 A2984 RMK SLP126
CYQR;2003-10-13 10:00;METAR CYQR 131000Z 34004KT 15SM FEW300 M05/M06 A2985 RMK CI1 SLP131
CYQR;2003-10-13 11:00;METAR CYQR 131100Z 30006KT 15SM FEW090 FEW300 M03/M05 A2986 RMK AC1CI0 SLP134
CYQR;2003-10-13 12:00;METAR CYQR 131200Z 30004KT 15SM FEW300 M04/M06 A2987 RMK CI0 SLP140
CYQR;2003-10-13 13:00;METAR CYQR 131300Z 29004KT 15SM FEW300 M04/M05 A2989 RMK CI1 SLP146
CYQR;2003-10-13 14:00;METAR CYQR 131400Z 26007KT 15SM FEW110 FEW300 M04/M06 A2991 RMK AC1CI0 SLP152
CYQR;2003-10-13 15:00;METAR CYQR 131500Z 29007KT 15SM FEW110 FEW300 M00/M02 A2993 RMK AC1CI0 SLP162
CYQR;2003-10-13 16:00;METAR CYQR 131600Z 30006KT 15SM FEW110 FEW300 03/M00 A2993 RMK AC1CI0 SLP163
CYQR;2003-10-13 17:00;METAR CYQR 131700Z 32006KT 15SM FEW110 FEW300 06/02 A2995 RMK AC1CI0 SLP169
CYQR;2003-10-13 18:00;METAR CYQR 131800Z 32008KT 15SM FEW300 10/01 A2995 RMK CI0 SLP166
CYQR;2003-10-13 19:00;METAR CYQR 131900Z 34007G15KT 15SM FEW300 12/01 A2995 RMK CI0 SLP166
CYQR;2003-10-13 20:00;METAR CYQR 132000Z 34011KT 15SM FEW043 FEW110 FEW300 12/01 A2996 RMK CF1AC1CI0 SLP167
CYQR;2003-10-13 21:00;METAR CYQR 132100Z 34013KT 15SM FEW045 FEW110 FEW300 13/00 A2996 RMK CF1AC1CI0 CF TR SLP169
CYQR;2003-10-13 22:00;METAR CYQR 132200Z 34012G18KT 15SM FEW045 FEW110 FEW300 12/00 A2997 RMK SC1AC1CI0 CF ASOCTD AC TR SLP172
CYQR;2003-10-13 23:00;METAR CYQR 132300Z 34013KT 15SM FEW045 FEW110 FEW300 11/01 A2999 RMK SC2AC1CI0 AC TR SLP176
CYQR;2003-10-14 00:00;METAR CYQR 140000Z 33007KT 15SM FEW045 FEW110 FEW300 07/00 A2999 RMK SC1AC1CI0 AC TR SLP184
CYQR;2003-10-14 01:00;METAR CYQR 140100Z 34006KT 15SM FEW045 FEW100 FEW300 04/M01 A3001 RMK SC1AC1CI0 AC TR SLP188
CYQR;2003-10-14 02:00;METAR CYQR 140200Z 34007KT 15SM FEW110 BKN300 02/M02 A3002 RMK AC1CI2 SLP192
CYQR;2003-10-14 03:00;METAR CYQR 140300Z 31005KT 15SM FEW110 BKN300 02/M03 A3003 RMK AC1CI2 SLP197
CYQR;2003-10-14 05:00;METAR CYQR 140500Z 32007KT 15SM BKN300 M02/M05 A3003 RMK CI2 SLP198
CYQR;2003-10-14 06:00;METAR CYQR 140600Z 30005KT 15SM SCT300 M03/M06 A3003 RMK CI1 SLP194
CYQR;2003-10-14 07:00;METAR CYQR 140700Z 24007KT 15SM FEW050 SCT300 M05/M07 A3004 RMK SC2CI0 SLP195
CYQR;2003-10-14 08:00;METAR CYQR 140800Z 27005KT 15SM BKN062 M03/M05 A3004 RMK SC7 SLP195
CYQR;2003-10-14 09:00;METAR CYQR 140900Z 35003KT 15SM BKN064 M02/M04 A3004 RMK SC6 SLP192
CYQR;2003-10-14 10:00;METAR CYQR 141000Z 22008KT 15SM SCT058 BKN080 M01/M03 A3002 RMK SC3AC4 VIRGA SLP186
CYQR;2003-10-14 11:00;METAR CYQR 141100Z 27007KT 15SM SCT059 OVC078 01/M02 A3000 RMK SC4AC4 VIRGA SLP181
CYQR;2003-10-14 12:00;METAR CYQR 141200Z 28008KT 15SM OVC041 02/M00 A2999 RMK SC8 SLP180
CYQR;2003-10-14 13:00;METAR CYQR 141300Z 29007KT 15SM FEW041 BKN068 00/M01 A2999 RMK SC2AC3 SLP179
CYQR;2003-10-14 14:00;METAR CYQR 141400Z 30008KT 15SM FEW080 00/M01 A2999 RMK AC2 SLP179
CYQR;2003-10-14 15:00;METAR CYQR 141500Z 32011KT 15SM SCT028 BKN080 04/01 A3000 RMK SC4AC2 SLP185
CYQR;2003-10-14 16:00;METAR CYQR 141600Z 33014KT 15SM BKN022 06/02 A3001 RMK SC6 SLP188
CYQR;2003-10-14 17:00;METAR CYQR 141700Z 33013KT 15SM OVC027 06/02 A3003 RMK SC8 SLP193
CYQR;2003-10-14 18:00;METAR CYQR 141800Z 34013KT 15SM FEW028 07/00 A3002 RMK CF2 SLP190
CYQR;2003-10-14 19:00;METAR CYQR 141900Z 35013G19KT 15SM BKN045 08/M03 A3002 RMK CU5 SLP190
CYQR;2003-10-14 20:00;METAR CYQR 142000Z 34014G19KT 15SM SCT045 08/M03 A3000 RMK CU4 SLP186
CYQR;2003-10-14 21:00;METAR CYQR 142100Z 33015KT 15SM SCT045 09/M03 A3000 RMK SC3 CU ASOCTD SLP183
CYQR;2003-10-14 22:00;METAR CYQR 142200Z 36015KT 15SM BKN046 BKN250 08/M01 A3000 RMK SC5CI1 CU ASOCTD SLP182
CYQR;2003-10-14 23:00;METAR CYQR 142300Z 35017KT 15SM SCT045 BKN250 07/M04 A3001 RMK SC3CI1
CYQR;2003-10-15 00:00;METAR CYQR 150000Z 35009KT 15SM FEW050 BKN250 05/M05 A3002 RMK SC2CI2 SLP190
CYQR;2003-10-15 01:00;METAR CYQR 150100Z 35007KT 15SM FEW040 BKN250 02/M05 A3004 RMK SC1CI2 SLP195
CYQR;2003-10-15 02:00;METAR CYQR 150200Z 36007KT 15SM FEW055 BKN250 M01/M06 A3004 RMK SC2CI2 SLP197
CYQR;2003-10-15 03:00;METAR CYQR 150300Z 35007KT 15SM BKN250 M02/M06 A3005 RMK CI3 SLP204
CYQR;2003-10-15 04:00;METAR CYQR 150400Z 35006KT 15SM BKN250 M03/M06 A3007 RMK CI3 SLP210
CYQR;2003-10-15 05:00;METAR CYQR 150500Z 28003KT 15SM BKN250 M05/M07 A3007 RMK CI2 SLP211
CYQR;2003-10-15 06:00;METAR CYQR 150600Z 34004KT 15SM BKN250 M06/M08 A3007 RMK CI3 SLP211
CYQR;2003-10-15 07:00;METAR CYQR 150700Z 26002KT 15SM BKN250 M06/M07 A3007 RMK CI3 SLP211
CYQR;2003-10-15 08:00;METAR CYQR 150800Z 23005KT 15SM BKN250 M08/M09 A3007 RMK CI2 SLP210
CYQR;2003-10-15 09:00;METAR CYQR 150900Z 27006KT 15SM BKN250 M08/M09 A3007 RMK CI2 SLP211
CYQR;2003-10-15 10:00;METAR CYQR 151000Z 24004KT 15SM BKN250 M09/M10 A3006 RMK CI2 SLP208
CYQR;2003-10-15 11:00;METAR CYQR 151100Z 00000KT 15SM SCT250 M09/M09 A3005 RMK CI1 SLP206
CYQR;2003-10-15 12:00;METAR CYQR 151200Z 19004KT 15SM SCT250 M09/M10 A3006 RMK CI1 SLP211
CYQR;2003-10-15 13:00;METAR CYQR 151300Z 17006KT 15SM FEW090 BKN250 M07/M08 A3005 RMK AC2CI2 SLP208
CYQR;2003-10-15 14:00;METAR CYQR 151400Z 18005KT 15SM FEW090 OVC270 M06/M07 A3005 RMK AC2CI3 SLP209
CYQR;2003-10-15 15:00;METAR CYQR 151500Z 18006KT 15SM SCT075 OVC270 M03/M05 A3004 RMK AC4CI2 SLP207
CYQR;2003-10-15 16:00;METAR CYQR 151600Z 17004KT 15SM FEW075 BKN270 01/M03 A3004 RMK AC2CI2 SLP204
CYQR;2003-10-15 17:00;METAR CYQR 151700Z 26009KT 15SM BKN077 BKN270 05/M02 A3002 RMK AC4CI2 ACC ASOCTD SLP198
CYQR;2003-10-15 18:00;METAR CYQR 151800Z 31010KT 15SM FEW030 BKN080 OVC270 06/M01 A3000 RMK SC2AC4CI1 SLP188
CYQR;2003-10-15 19:00;METAR CYQR 151900Z 33008KT 15SM -SHRA BKN015 OVC080 04/02 A3000 RMK SC6AC2 ACC ASOCTD SLP187
CYQR;2003-10-15 20:00;METAR CYQR 152000Z 27009KT 15SM -SHRA BKN006 OVC015 04/03 A2999 RMK SF6SC2 CVCTV CLD EMBDD SLP185
CYQR;2003-10-15 21:00;METAR CYQR 152100Z 30009KT 15SM OVC009 05/03 A2998 RMK SC8 SLP184
CYQR;2003-10-15 22:00;METAR CYQR 152200Z 29009KT 15SM FEW015 SCT040 07/02 A2996 RMK SF1SC2 TCU EMBDD SHWR W SLP177
CYQR;2003-10-15 23:00;METAR CYQR 152300Z 29004KT 15SM FEW040 07/01 A2996 RMK SC2 TCU EMBDD SHWRS E SLP176
CYQR;2003-10-16 00:00;METAR CYQR 160000Z 33007KT 15SM FEW040 FEW250 03/M01 A2997 RMK SC1CI1 TCU TOP SE-E SLP180
CYQR;2003-10-16 01:00;METAR CYQR 160100Z 33013KT 15SM FEW040 FEW250 02/M02 A2998 RMK SC1CI1 SLP184
CYQR;2003-10-16 02:00;METAR CYQR 160200Z 34005KT 15SM FEW040 FEW260 M01/M03 A2998 RMK SC1CI0 SLP185
CYQR;2003-10-16 03:00;METAR CYQR 160300Z 28002KT 15SM FEW280 M03/M04 A2999 RMK CI1 SLP188
CYQR;2003-10-16 04:00;METAR CYQR 160400Z 33005KT 15SM FEW280 M04/M05 A2998 RMK CI0 SLP186
CYQR;2003-10-16 05:00;METAR CYQR 160500Z 31007KT 15SM FEW030 M06/M07 A3000 RMK SC2 SLP192
CYQR;2003-10-16 06:00;METAR CYQR 160600Z 31007KT 15SM FEW280 M07/M08 A3002 RMK CI0 SLP195
CYQR;2003-10-16 07:00;METAR CYQR 160700Z 02005KT 15SM FEW280 M05/M06 A3003 RMK CI0 SLP197
CYQR;2003-10-16 08:00;METAR CYQR 160800Z 27002KT 15SM FEW280 M07/M08 A3003 RMK CI0 SLP198
CYQR;2003-10-16 09:00;METAR CYQR 160900Z 00000KT 1/8SM R13/1800V3000FT/D FZFG SKC M07/M07 A3004 RMK FG6 VSBY NE 1/2 SLP204
CYQR;2003-10-16 10:00;METAR CYQR 161000Z 25005KT 1/8SM R13/1600V2200FT/U FZFG SKC M07/M08 A3007 RMK FG6 SLP212
CYQR;2003-10-16 11:00;METAR CYQR 161100Z 30003KT 1/8SM R13/0900V1800FT/D FZFG SKC M05/M06 A3009 RMK FG7 SLP221
CYQR;2003-10-16 12:00;METAR CYQR 161200Z 32002KT 1/8SM R13/1100FT/N FZFG SKC M06/M06 A3013 RMK FG7 FROIN SLP233
CYQR;2003-10-16 13:00;METAR CYQR 161300Z 24002KT 1/8SM R13/1400FT/N FZFG SKC M06/M07 A3014 RMK FG7 FROIN SLP236
CYQR;2003-10-16 14:00;METAR CYQR 161400Z 16002KT 1/8SM R13/1000FT/N FZFG SKC M05/M06 A3015 RMK FG7 FROIN SLP240
CYQR;2003-10-16 15:00;METAR CYQR 161500Z 12002KT 1 1/2SM R13/2200V4000FT/U BR SCT005 M05/M06 A3016 RMK FG2SF1 SLP249
CYQR;2003-10-16 16:00;METAR CYQR 161600Z 18004KT 1/4SM R13/1800FT/N FZFG SKC M04/M04 A3018 RMK FG7 SLP255
CYQR;2003-10-16 17:00;METAR CYQR 161700Z 18007KT 1/2SM R13/3000V5000FT/U FZFG SKC M02/M02 A3019 RMK FG7 SLP257
CYQR;2003-10-16 18:00;METAR CYQR 161800Z 13007KT 1 1/2SM BR SKC M00/M00 A3016 RMK FG7 SLP248
CYQR;2003-10-16 19:00;METAR CYQR 161900Z 16009KT 10SM BKN004 BKN270 01/01 A3014 RMK SF6CI1 F SLP243
CYQR;2003-10-16 20:00;METAR CYQR 162000Z 16012KT 15SM FEW009 BKN270 03/02 A3012 RMK SF2CI2 SLP234
CYQR;2003-10-16 21:00;METAR CYQR 162100Z 15010KT 15SM FEW010 BKN270 06/M00 A3010 RMK SF1CI2 SLP223
CYQR;2003-10-16 22:00;METAR CYQR 162200Z 14015KT 15SM FEW040 OVC270 06/M01 A3007 RMK SC2CI5 SLP213
CYQR;2003-10-16 23:00;METAR CYQR 162300Z 15015KT 15SM FEW040 OVC260 06/M00 A3003 RMK SC1CS6 SLP201
CYQR;2003-10-17 00:00;METAR CYQR 170000Z 15015KT 15SM FEW040 FEW100 BKN270 05/M00 A2999 RMK SC1AC1CI3 SLP185
CYQR;2003-10-17 01:00;METAR CYQR 170100Z 15013KT 15SM FEW040 FEW100 BKN270 04/M01 A2998 RMK SC1AC1CI2 SLP180
CYQR;2003-10-17 02:00;METAR CYQR 170200Z 16016KT 15SM FEW040 SCT270 05/M02 A2996 RMK SC2CI1 SLP176
CYQR;2003-10-17 03:00;METAR CYQR 170300Z 16016KT 15SM FEW040 OVC270 04/M01 A2994 RMK SC2CI4 SLP168
CYQR;2003-10-17 04:00;METAR CYQR 170400Z 15015KT 15SM FEW100 SCT270 03/M02 A2990 RMK AC2CI1 SLP156
CYQR;2003-10-17 05:00;METAR CYQR 170500Z 16017KT 15SM OVC081 04/M01 A2985 RMK AC8 SLP141
CYQR;2003-10-17 06:00;METAR CYQR 170600Z 16016KT 15SM OVC077 04/M01 A2981 RMK AC6 SLP121
CYQR;2003-10-17 07:00;METAR CYQR 170700Z 15015KT 15SM FEW075 03/M00 A2978 RMK AC2 SLP110
CYQR;2003-10-17 08:00;METAR CYQR 170800Z 15013KT 15SM FEW075 BKN320 03/M00 A2975 RMK AC2CI1 SLP101
CYQR;2003-10-17 09:00;METAR CYQR 170900Z 15012KT 15SM FEW070 SCT320 02/00 A2973 RMK AC1CI1 SLP090
CYQR;2003-10-17 10:00;METAR CYQR 171000Z 15012KT 15SM FEW070 SCT320 02/01 A2971 RMK AC1CI1 SLP084
CYQR;2003-10-17 11:00;METAR CYQR 171100Z 14009KT 15SM FEW070 BKN320 02/00 A2970 RMK AC1CI1 SLP081
CYQR;2003-10-17 12:00;METAR CYQR 171200Z 14009KT 15SM FEW070 SCT320 02/00 A2971 RMK AC1CI1 SLP083
CYQR;2003-10-17 13:00;METAR CYQR 171300Z 16006KT 15SM FEW070 SCT320 01/00 A2970 RMK AC1CI1 SLP079
CYQR;2003-10-17 14:00;METAR CYQR 171400Z 18007KT 15SM FEW070 SCT300 BKN320 03/02 A2969 RMK AC1CI1CI0 SLP077
CYQR;2003-10-17 15:00;METAR CYQR 171500Z 18005KT 15SM FEW300 SCT320 07/04 A2969 RMK CI1CI0 SLP074
CYQR;2003-10-17 16:00;METAR CYQR 171600Z 25011KT 15SM SCT300 14/07 A2969 RMK CI1 SLP073
CYQR;2003-10-17 17:00;METAR CYQR 171700Z 29020G27KT 15SM FEW300 18/07 A2969 RMK CI1 SLP075
CYQR;2003-10-17 18:00;METAR CYQR 171800Z 31019KT 15SM BKN300 19/07 A2970 RMK CI2 SLP069
CYQR;2003-10-17 19:00;METAR CYQR 171900Z 31013G18KT 15SM BKN300 20/06 A2971 RMK CI2 SLP072
CYQR;2003-10-17 20:00;METAR CYQR 172000Z 30016KT 15SM BKN300 21/06 A2972 RMK CI2 SLP076
CYQR;2003-10-17 21:00;METAR CYQR 172100Z 32017KT 15SM FEW060 BKN300 21/06 A2973 RMK CF1CI2 TR CF DSTNT W SLP077
CYQR;2003-10-17 22:00;METAR CYQR 172200Z 31012G17KT 15SM FEW060 BKN300 21/06 A2975 RMK CF1CI2 TR CF DSTNT W SLP084
CYQR;2003-10-17 23:00;METAR CYQR 172300Z 33009KT 15SM BKN300 19/06 A2977 RMK CI2 SLP091
CYQR;2003-10-18 00:00;METAR CYQR 180000Z 01007KT 15SM FEW280 BKN310 14/05 A2978 RMK CI0CI2 SLP101
CYQR;2003-10-18 01:00;METAR CYQR 180100Z 01006KT 15SM BKN310 12/03 A2979 RMK CI2 SLP106
CYQR;2003-10-18 02:00;METAR CYQR 180200Z 04004KT 15SM BKN310 11/03 A2982 RMK CI2 SLP114
CYQR;2003-10-18 03:00;METAR CYQR 180300Z 03003KT 15SM SCT310 10/02 A2984 RMK CI1 SLP121
CYQR;2003-10-18 04:00;METAR CYQR 180400Z 21009KT 15SM FEW310 05/M00 A2987 RMK CI1 SLP130
CYQR;2003-10-18 05:00;METAR CYQR 180500Z 36002KT 15SM FEW310 05/00 A2989 RMK CI0 SLP138
CYQR;2003-10-18 06:00;METAR CYQR 180600Z 03002KT 15SM SKC 05/00 A2990 RMK SLP138
CYQR;2003-10-18 07:00;METAR CYQR 180700Z 00000KT 15SM SKC 03/M00 A2990 RMK SLP139
CYQR;2003-10-18 08:00;METAR CYQR 180800Z 05005KT 15SM SKC 04/00 A2991 RMK SLP140
CYQR;2003-10-18 09:00;METAR CYQR 180900Z 18008KT 15SM FEW310 01/M02 A2992 RMK CI1 SLP146
CYQR;2003-10-18 10:00;METAR CYQR 181000Z 14002KT 15SM SCT310 02/M01 A2993 RMK CI1 SLP148
CYQR;2003-10-18 11:00;METAR CYQR 181100Z 09005KT 15SM SCT310 04/01 A2994 RMK CI1 SLP152
CYQR;2003-10-18 12:00;METAR CYQR 181200Z 12005KT 15SM BKN310 04/00 A2995 RMK CI2 SLP157
CYQR;2003-10-18 13:00;METAR CYQR 181300Z 15008KT 15SM FEW090 BKN310 05/01 A2993 RMK AC1CI2 SLP152
CYQR;2003-10-18 14:00;METAR CYQR 181400Z 13009KT 15SM BKN310 05/01 A2993 RMK CI2 SLP150
CYQR;2003-10-18 15:00;METAR CYQR 181500Z 15012KT 15SM BKN310 09/02 A2994 RMK CI4 SLP153
CYQR;2003-10-18 16:00;METAR CYQR 181600Z 16010G17KT 15SM BKN310 12/03 A2993 RMK CI3 SLP150
CYQR;2003-10-18 17:00;METAR CYQR 181700Z 16012KT 15SM BKN310 14/05 A2991 RMK CI2 SLP144
CYQR;2003-10-18 18:00;METAR CYQR 181800Z 18009KT 15SM BKN310 16/06 A2990 RMK CI2 SLP140
CYQR;2003-10-18 19:00;METAR CYQR 181900Z 20006KT 15SM FEW110 BKN310 18/04 A2989 RMK AC1CI2 SLP134
CYQR;2003-10-18 20:00;METAR CYQR 182000Z 17006KT 15SM FEW110 BKN310 21/04 A2987 RMK AC1CI2 SLP129
CYQR;2003-10-18 21:00;METAR CYQR 182100Z 17007KT 15SM BKN310 22/03 A2985 RMK CI3 SLP119
CYQR;2003-10-18 22:00;METAR CYQR 182200Z 26008KT 15SM BKN310 23/M00 A2984 RMK CI3 SLP118
CYQR;2003-10-18 23:00;METAR CYQR 182300Z 25005KT 15SM FEW160 BKN310 22/00 A2984 RMK AC1CI2 SLP115
CYQR;2003-10-19 00:00;METAR CYQR 190000Z 14004KT 15SM FEW160 BKN310 18/00 A2983 RMK AC1CI1 AC TR SLP114
CYQR;2003-10-19 01:00;METAR CYQR 190100Z 15008KT 15SM SCT310 14/M01 A2983 RMK CI1 SLP113
CYQR;2003-10-19 02:00;METAR CYQR 190200Z 16010KT 15SM FEW310 12/01 A2983 RMK CI1 SLP113
CYQR;2003-10-19 03:00;METAR CYQR 190300Z 16010KT 15SM FEW310 11/M01 A2982 RMK CI1 SLP111
CYQR;2003-10-19 04:00;METAR CYQR 190400Z 15008KT 15SM FEW310 09/M01 A2982 RMK CI1 SLP111
CYQR;2003-10-19 05:00;METAR CYQR 190500Z 16006KT 15SM FEW310 08/M02 A2981 RMK CI1 SLP110
CYQR;2003-10-19 06:00;METAR CYQR 190600Z 17003KT 15SM SCT310 06/M03 A2981 RMK CI2 SLP107
CYQR;2003-10-19 07:00;METAR CYQR 190700Z 22006KT 15SM BKN310 08/M03 A2981 RMK CI2 SLP107
CYQR;2003-10-19 08:00;METAR CYQR 190800Z 22004KT 15SM SCT310 05/M03 A2981 RMK CI2 SLP108
CYQR;2003-10-19 09:00;METAR CYQR 190900Z 23006KT 15SM SCT310 07/M02 A2980 RMK CI2 SLP101
CYQR;2003-10-19 10:00;METAR CYQR 191000Z 23002KT 15SM SCT310 05/M02 A2979 RMK CI2 SLP097
CYQR;2003-10-19 11:00;METAR CYQR 191100Z 22006KT 15SM FEW310 06/M02 A2979 RMK CI1 SLP096
CYQR;2003-10-19 12:00;METAR CYQR 191200Z 18008KT 15SM FEW310 M00/M04 A2980 RMK CI1 SLP106
CYQR;2003-10-19 13:00;METAR CYQR 191300Z 18006KT 15SM FEW310 01/M04 A2979 RMK CI1 SLP103
CYQR;2003-10-19 14:00;METAR CYQR 191400Z 19005KT 15SM FEW270 02/M03 A2979 RMK CI1 SLP102
CYQR;2003-10-19 15:00;METAR CYQR 191500Z 21004KT 15SM FEW270 07/M01 A2979 RMK CI1 SLP104
CYQR;2003-10-19 16:00;METAR CYQR 191600Z 26011KT 15SM FEW270 16/01 A2978 RMK CI1 SLP100
CYQR;2003-10-19 17:00;METAR CYQR 191700Z 27013KT 15SM FEW270 21/02 A2976 RMK CI1 SLP095
CYQR;2003-10-19 18:00;METAR CYQR 191800Z 26013KT 15SM BKN270 23/01 A2974 RMK CI2 SLP081
CYQR;2003-10-19 19:00;METAR CYQR 191900Z 28010G15KT 15SM BKN270 25/00 A2973 RMK CI3 SLP075
CYQR;2003-10-19 20:00;METAR CYQR 192000Z 25012KT 15SM BKN270 24/M00 A2971 RMK CI4 SLP069
CYQR;2003-10-19 21:00;METAR CYQR 192100Z 26012G18KT 15SM BKN270 24/M02 A2969 RMK CI3 SLP061
CYQR;2003-10-19 22:00;METAR CYQR 192200Z 25016KT 15SM BKN270 25/M02 A2970 RMK CI2 SLP063
CYQR;2003-10-19 23:00;METAR CYQR 192300Z 25010KT 15SM SCT270 24/M01 A2969 RMK CI2 SLP061
CYQR;2003-10-20 00:00;METAR CYQR 200000Z 25003KT 15SM FEW110 SCT270 18/M01 A2967 RMK AC1CI2 SLP063
CYQR;2003-10-20 01:00;METAR CYQR 200100Z 23007KT 15SM SCT110 OVC270 15/M02 A2968 RMK AC3CI2 SLP065
CYQR;2003-10-20 02:00;METAR CYQR 200200Z 24008KT 15SM BKN110 OVC270 16/M00 A2967 RMK AC5CI2 SLP061
CYQR;2003-10-20 03:00;METAR CYQR 200300Z 25014KT 15SM FEW110 SCT270 15/M01 A2966 RMK AC2CI0 SLP056
CYQR;2003-10-20 04:00;METAR CYQR 200400Z 29013KT 15SM FEW270 16/01 A2968 RMK CI0 SLP063
CYQR;2003-10-20 05:00;METAR CYQR 200500Z 27011KT 15SM FEW270 12/00 A2970 RMK CI0 SLP069
CYQR;2003-10-20 06:00;METAR CYQR 200600Z 26009KT 15SM BKN110 BKN270 09/M00 A2971 RMK AC5CI1 SLP067
CYQR;2003-10-20 07:00;METAR CYQR 200700Z 27013KT 15SM FEW110 BKN270 12/02 A2973 RMK AC1CI1 SLP072
CYQR;2003-10-20 08:00;METAR CYQR 200800Z 30017KT 15SM FEW270 11/02 A2978 RMK CI0 SLP090
CYQR;2003-10-20 09:00;METAR CYQR 200900Z 31018KT 15SM SKC 10/01 A2984 RMK SLP108
CYQR;2003-10-20 10:00;METAR CYQR 201000Z 32023G29KT 15SM SKC 08/01 A2988 RMK SLP122
CYQR;2003-10-20 11:00;METAR CYQR 201100Z 32019G24KT 15SM FEW260 06/02 A2992 RMK CI1 SLP134
CYQR;2003-10-20 12:00;METAR CYQR 201200Z 32019G24KT 15SM FEW260 05/02 A2995 RMK CI1 SLP154
CYQR;2003-10-20 13:00;METAR CYQR 201300Z 31014G19KT 15SM FEW100 FEW260 05/02 A3000 RMK AC1CI0 SLP170
CYQR;2003-10-20 14:00;METAR CYQR 201400Z 28009KT 15SM FEW100 FEW250 04/01 A3003 RMK AC1CI1 SLP179
CYQR;2003-10-20 15:00;METAR CYQR 201500Z 31014KT 15SM FEW250 06/03 A3005 RMK CI1 SLP192
CYQR;2003-10-20 16:00;METAR CYQR 201600Z 32017KT 15SM FEW250 09/04 A3008 RMK CI1 SLP200
CYQR;2003-10-20 17:00;METAR CYQR 201700Z 31015KT 15SM FEW250 11/05 A3007 RMK CI1 SLP196
CYQR;2003-10-20 18:00;METAR CYQR 201800Z 33008KT 15SM FEW030 FEW250 12/05 A3006 RMK SF1CI1 SLP195
CYQR;2003-10-20 19:00;METAR CYQR 201900Z 32012G18KT 15SM FEW030 BKN250 13/05 A3007 RMK CF1CI2 SLP196
CYQR;2003-10-20 20:00;METAR CYQR 202000Z 31011G16KT 15SM BKN250 15/04 A3006 RMK CI2 SLP193
CYQR;2003-10-20 21:00;METAR CYQR 202100Z 32008KT 15SM BKN250 15/02 A3003 RMK CI4 SLP179
CYQR;2003-10-20 22:00;METAR CYQR 202200Z 29009KT 15SM FEW100 OVC250 15/01 A3002 RMK AC2CI4 SLP177
CYQR;2003-10-20 23:00;METAR CYQR 202300Z 29006KT 15SM SCT100 OVC250 14/01 A3001 RMK AC3CI3 SLP175
CYQR;2003-10-21 00:00;METAR CYQR 210000Z 33002KT 15SM SCT100 OVC250 12/01 A2999 RMK AC3CI5 SLP173
CYQR;2003-10-21 01:00;METAR CYQR 210100Z 12003KT 15SM BKN079 OVC250 11/01 A2998 RMK AC5CI3 SLP168
CYQR;2003-10-21 02:00;METAR CYQR 210200Z 15004KT 15SM BKN063 OVC250 10/01 A2998 RMK SC6CI2
CYQR;2003-10-21 03:00;METAR CYQR 210300Z 11005KT 15SM BKN063 OVC075 11/02 A2996 RMK SC6AC2 SLP162
CYQR;2003-10-21 04:00;METAR CYQR 210400Z 11009KT 15SM SCT063 OVC075 11/03 A2994 RMK SC3AC5 SLP155
CYQR;2003-10-21 05:00;METAR CYQR 210500Z 12012KT 15SM OVC074 11/02 A2992 RMK AC8 SLP149
CYQR;2003-10-21 06:00;METAR CYQR 210600Z 13011G16KT 15SM OVC065 11/03 A2991 RMK SC8 SLP141
CYQR;2003-10-21 07:00;METAR CYQR 210700Z 15017KT 15SM BKN076 11/02 A2987 RMK AC7 SLP127
CYQR;2003-10-21 08:00;METAR CYQR 210800Z 11006KT 15SM BKN090 11/02 A2988 RMK AC7 SLP131
CYQR;2003-10-21 09:00;METAR CYQR 210900Z 13010KT 15SM BKN100 OVC270 09/02 A2987 RMK AC6CI2 SLP125
CYQR;2003-10-21 10:00;METAR CYQR 211000Z 14012KT 15SM SCT100 BKN270 09/02 A2986 RMK AC3CI2 SLP122
CYQR;2003-10-21 11:00;METAR CYQR 211100Z 14012KT 15SM FEW100 BKN270 09/02 A2987 RMK AC2CI2
CYQR;2003-10-21 12:00;METAR CYQR 211200Z 14011KT 15SM FEW100 BKN270 08/02 A2987 RMK AC2CI1 SLP130
CYQR;2003-10-21 13:00;METAR CYQR 211300Z 13009KT 15SM FEW100 FEW270 06/01 A2988 RMK AC1CI0 SLP133
CYQR;2003-10-21 14:00;METAR CYQR 211400Z 12005KT 15SM FEW100 FEW270 05/01 A2991 RMK AC1CI1 SLP144
CYQR;2003-10-21 15:00;METAR CYQR 211500Z 13006KT 15SM FEW270 08/02 A2992 RMK CI1 SLP147
CYQR;2003-10-21 16:00;METAR CYQR 211600Z 18003KT 15SM FEW270 11/03 A2996 RMK CI1 SLP161
CYQR;2003-10-21 17:00;METAR CYQR 211700Z 01005KT 15SM FEW270 14/05 A2996 RMK CI1 SLP160
CYQR;2003-10-21 18:00;METAR CYQR 211800Z 34006KT 15SM FEW120 18/07 A2996 RMK AC1 SLP155
CYQR;2003-10-21 19:00;METAR CYQR 211900Z 32009KT 15SM FEW120 20/09 A2998 RMK AC1 SLP160
CYQR;2003-10-21 20:00;METAR CYQR 212000Z 34009KT 15SM FEW120 22/09 A2995 RMK AC2 SLP153
CYQR;2003-10-21 21:00;METAR CYQR 212100Z 01006KT 15SM FEW120 BKN270 21/09 A2996 RMK AC2CI2 SLP152
CYQR;2003-10-21 22:00;METAR CYQR 212200Z 33007KT 15SM FEW120 FEW250 22/09 A2996 RMK AC1CI2 SLP154
CYQR;2003-10-21 23:00;METAR CYQR 212300Z 34004KT 15SM FEW120 SCT270 20/08 A2996 RMK AC1CI2
CYQR;2003-10-22 00:00;METAR CYQR 220000Z 35002KT 15SM FEW120 FEW250 17/07 A2996 RMK AC1CI1 SLP156
CYQR;2003-10-22 01:00;METAR CYQR 220100Z 30002KT 15SM FEW270 16/07 A2996 RMK CI1 SLP158
CYQR;2003-10-22 02:00;METAR CYQR 220200Z 19005KT 15SM FEW010 FEW270 11/05 A2996 RMK SF1CI1 SF TR OVR CITY SLP156
CYQR;2003-10-22 03:00;METAR CYQR 220300Z 23003KT 15SM SKC 09/03 A2996 RMK SLP164
CYQR;2003-10-22 04:00;METAR CYQR 220400Z 32002KT 15SM SKC 09/03 A2998 RMK SLP169
CYQR;2003-10-22 05:00;METAR CYQR 220500Z 29003KT 15SM SKC 07/02 A2998 RMK SLP170
CYQR;2003-10-22 06:00;METAR CYQR 220600Z 34004KT 15SM FEW085 07/03 A3000 RMK AC2 SLP172
CYQR;2003-10-22 07:00;METAR CYQR 220700Z 32008KT 15SM FEW090 08/04 A3002 RMK AC2 SLP177
CYQR;2003-10-22 08:00;METAR CYQR 220800Z 34008KT 15SM SCT100 09/05 A3005 RMK AC3 SLP187
CYQR;2003-10-22 09:00;METAR CYQR 220900Z 35008KT 15SM BKN090 09/05 A3007 RMK AC3 SLP192
CYQR;2003-10-22 10:00;METAR CYQR 221000Z 35011KT 15SM FEW090 08/04 A3009 RMK AC2 SLP198
CYQR;2003-10-22 11:00;METAR CYQR 221100Z 35011KT 15SM SCT090 09/03 A3011 RMK AC3 SLP203
CYQR;2003-10-22 12:00;METAR CYQR 221200Z 34008KT 15SM BKN090 10/02 A3012 RMK AC5 SLP211
CYQR;2003-10-22 13:00;METAR CYQR 221300Z 34010KT 15SM FEW100 FEW270 07/00 A3012 RMK AC1CI0 SLP212
CYQR;2003-10-22 14:00;METAR CYQR 221400Z 33009KT 15SM FEW100 FEW270 06/M01 A3013 RMK AC1CI1 SLP214
CYQR;2003-10-22 15:00;METAR CYQR 221500Z 34011KT 15SM FEW100 FEW270 09/00 A3014 RMK AC1CI1 SLP225
CYQR;2003-10-22 16:00;METAR CYQR 221600Z 34012KT 15SM FEW270 11/01 A3015 RMK CI1 SLP227
CYQR;2003-10-22 17:00;METAR CYQR 221700Z 35015KT 15SM BKN270 13/00 A3015 RMK CI1 SLP228
CYQR;2003-10-22 18:00;METAR CYQR 221800Z 35014KT 15SM SCT250 14/M01 A3016 RMK CI1 SLP229
CYQR;2003-10-22 19:00;METAR CYQR 221900Z 32016KT 15SM BKN270 14/M01 A3015 RMK CI2 SLP225
CYQR;2003-10-22 20:00;METAR CYQR 222000Z 33012G17KT 15SM BKN270 13/M02 A3014 RMK CI3 SLP223
CYQR;2003-10-22 21:00;METAR CYQR 222100Z 35012KT 15SM BKN270 14/M02 A3012 RMK CI5 SLP213
CYQR;2003-10-22 22:00;METAR CYQR 222200Z 33011KT 15SM BKN280 14/M02 A3011 RMK CI5 SLP211
CYQR;2003-10-22 23:00;METAR CYQR 222300Z 36006KT 15SM FEW160 BKN280 13/M03 A3011 RMK AC1CI5 SLP209
CYQR;2003-10-23 00:00;METAR CYQR 230000Z 04007KT 15SM FEW120 BKN280 11/M01 A3010 RMK AC2CI2 SLP207
CYQR;2003-10-23 01:00;METAR CYQR 230100Z 04006KT 15SM FEW120 BKN280 10/M01 A3009 RMK AC2CI2 SLP206
CYQR;2003-10-23 02:00;METAR CYQR 230200Z 08008KT 15SM BKN085 BKN280 09/M01 A3009 RMK AC5CI0 SLP204
CYQR;2003-10-23 03:00;METAR CYQR 230300Z 10010KT 15SM BKN081 BKN280 08/M01 A3008 RMK AC6CI0 SLP202
CYQR;2003-10-23 04:00;METAR CYQR 230400Z 10009KT 15SM BKN081 BKN280 07/M01 A3007 RMK AC6CI0 SLP199
CYQR;2003-10-23 05:00;METAR CYQR 230500Z 12009KT 15SM FEW080 SCT280 06/M01 A3007 RMK AC1CI1 SLP200
CYQR;2003-10-23 06:00;METAR CYQR 230600Z 13009KT 15SM FEW100 BKN270 05/M02 A3005 RMK AC1CI1 SLP193
CYQR;2003-10-23 07:00;METAR CYQR 230700Z 12012KT 15SM FEW100 BKN270 05/M02 A3003 RMK AC1CI1 SLP185
CYQR;2003-10-23 08:00;METAR CYQR 230800Z 13013KT 15SM FEW100 SCT270 04/M02 A3001 RMK AC1CI0 SLP179
CYQR;2003-10-23 09:00;METAR CYQR 230900Z 13012KT 15SM FEW100 FEW270 04/M02 A2999 RMK AC1CI0 SLP170
CYQR;2003-10-23 10:00;METAR CYQR 231000Z 14016G21KT 15SM FEW100 BKN270 04/M02 A2996 RMK AC1CI1 SLP162
CYQR;2003-10-23 11:00;METAR CYQR 231100Z 14015KT 15SM FEW100 SCT270 03/M02 A2995 RMK AC1CI0 SLP159
CYQR;2003-10-23 12:00;METAR CYQR 231200Z 14019G25KT 15SM FEW100 BKN270 03/M02 A2993 RMK AC1CI0 SLP152
CYQR;2003-10-23 13:00;METAR CYQR 231300Z 14019G27KT 15SM FEW100 BKN270 03/M01 A2989 RMK AC2CI2 SLP142
CYQR;2003-10-23 14:00;METAR CYQR 231400Z 14023G28KT 15SM FEW070 SCT160 BKN270 03/M02 A2986 RMK AC1AC2CI1 SLP131
CYQR;2003-10-23 15:00;METAR CYQR 231500Z 14023G30KT 15SM FEW070 BKN270 OVC320 04/M01 A2984 RMK AC1CI2CI2 SLP126
CYQR;2003-10-23 16:00;METAR CYQR 231600Z 15023G28KT 15SM FEW070 OVC300 05/M00 A2982 RMK AC1CI3 CS ASOCTD SLP117
CYQR;2003-10-23 17:00;METAR CYQR 231700Z 16024G30KT 15SM OVC270 08/M00 A2978 RMK CI5 SLP106
CYQR;2003-10-23 18:00;METAR CYQR 231800Z 17020G30KT 15SM FEW070 OVC270 10/M00 A2977 RMK AC1CI6 SLP099
CYQR;2003-10-23 19:00;METAR CYQR 231900Z 17022G29KT 15SM FEW095 BKN270 12/00 A2972 RMK AC2CS2 SLP083
CYQR;2003-10-23 20:00;METAR CYQR 232000Z 18021G27KT 15SM FEW095 BKN270 14/M00 A2968 RMK AC1CI3 SLP071
CYQR;2003-10-23 21:00;METAR CYQR 232100Z 17020G25KT 15SM FEW095 FEW270 16/M00 A2963 RMK AC1CI1 AC TR SLP048
CYQR;2003-10-23 22:00;METAR CYQR 232200Z 19016KT 15SM FEW095 FEW270 16/00 A2962 RMK AC2CI0 SLP043
CYQR;2003-10-23 23:00;METAR CYQR 232300Z 27018G25KT 15SM FEW096 BKN270 18/01 A2960 RMK AC2CI2 SLP038
CYQR;2003-10-24 00:00;METAR CYQR 240000Z 30036G42KT 9SM BKN091 BKN280 12/02 A2967 RMK AC5CI1 BD SLP063
CYQR;2003-10-24 01:00;METAR CYQR 240100Z 30023G34KT 15SM BKN027 BKN054 08/02 A2973 RMK SC6SC2 SLP082
CYQR;2003-10-24 02:00;METAR CYQR 240200Z 30028G38KT 15SM BKN029 OVC045 08/02 A2974 RMK SC6SC2 SLP088
CYQR;2003-10-24 03:00;METAR CYQR 240300Z 30022G30KT 15SM OVC025 08/02 A2976 RMK SC8 SLP097
CYQR;2003-10-24 04:00;METAR CYQR 240400Z 29022G27KT 15SM OVC027 07/03 A2977 RMK SC8 SLP099
CYQR;2003-10-24 05:00;METAR CYQR 240500Z 28017G24KT 15SM OVC040 07/02 A2976 RMK SC8 SLP098
CYQR;2003-10-24 06:00;METAR CYQR 240600Z 29021G26KT 15SM FEW055 BKN080 07/M01 A2976 RMK SC2AC2 SLP095
CYQR;2003-10-24 07:00;METAR CYQR 240700Z 28025G31KT 15SM FEW050 SCT100 06/01 A2976 RMK SC2AC2 SLP093
CYQR;2003-10-24 08:00;METAR CYQR 240800Z 28023G28KT 15SM FEW050 FEW100 06/M00 A2975 RMK SC1AC2 SLP092
CYQR;2003-10-24 09:00;METAR CYQR 240900Z 28021G26KT 15SM FEW050 FEW100 05/M02 A2976 RMK SC1AC1 SLP090
CYQR;2003-10-24 10:00;METAR CYQR 241000Z 28022KT 15SM SCT060 SCT100 05/M02 A2975 RMK SC3AC1 SLP089
CYQR;2003-10-24 11:00;METAR CYQR 241100Z 29023G29KT 15SM OVC060 05/M01 A2976 RMK SC8 SLP090
CYQR;2003-10-24 12:00;METAR CYQR 241200Z 30032G37KT 15SM -SHRA OVC030 05/M01 A2976 RMK SC8 CVCTV CLD EMBDD SLP092
CYQR;2003-10-24 13:00;METAR CYQR 241300Z 29030G36KT 15SM OVC021 05/M02 A2975 RMK SC8 SLP090
CYQR;2003-10-24 14:00;METAR CYQR 241400Z 30028G36KT 15SM FEW021 BKN041 OVC100 06/M02 A2975 RMK CF1SC6AC2 CF TR SLP090
CYQR;2003-10-24 15:00;METAR CYQR 241500Z 30026G32KT 15SM -SHRA BKN032 OVC061 05/M00 A2975 RMK SC7SC1 CVCTV CLD EMBDD SLP093
CYQR;2003-10-24 16:00;METAR CYQR 241600Z 32023G29KT 15SM FEW021 OVC056 03/02 A2978 RMK SC2SC6 SLP102
CYQR;2003-10-24 17:00;METAR CYQR 241700Z 31028G40KT 15SM SCT030 OVC060 05/M01 A2977 RMK SC3SC5 SLP099
CYQR;2003-10-24 18:00;METAR CYQR 241800Z 31028G38KT 15SM BKN024 OVC056 05/M00 A2979 RMK SC6SC2 SLP106
CYQR;2003-10-24 20:00;METAR CYQR 242000Z 32028G34KT 15SM FEW013 BKN030 OVC043 03/01 A2983 RMK SF1SC6SC1 SF TR SHWRS ALQDS SLP120
CYQR;2003-10-24 21:00;METAR CYQR 242100Z 33023G32KT 10SM R13/2800VP6000FT/U -SHSN BKN004 OVC035 01/00 A2987 RMK SF3SC5 CVCTV CLD EMBDD SLP138
CYQR;2003-10-24 22:00;METAR CYQR 242200Z 34019KT 10SM -SHSN SCT005 BKN035 OVC071 01/01 A2991 RMK SF2SC4AC2 SLP152
CYQR;2003-10-24 23:00;METAR CYQR 242300Z 35022KT 15SM SCT005 BKN018 OVC040 01/00 A2995 RMK SF2SC3SC2 SLP166
CYQR;2003-10-25 00:00;METAR CYQR 250000Z 36023G30KT 2SM -SHSN OVC048 01/M01 A3001 RMK SN6SC2 SLP188
CYQR;2003-10-25 01:00;METAR CYQR 250100Z 35016KT 1 1/2SM -SHSN VV010 M00/M01 A3007 RMK SN8 SLP206
CYQR;2003-10-25 02:00;METAR CYQR 250200Z 36016G22KT 1 1/2SM -SHSN VV009 M01/M01 A3012 RMK SN8 SLP222
CYQR;2003-10-25 03:00;METAR CYQR 250300Z 36018G25KT 4SM -SHSN OVC033 M01/M02 A3017 RMK SN5SC3 SLP242
CYQR;2003-10-25 04:00;METAR CYQR 250400Z 01021G27KT 15SM -SHSN BKN014 OVC053 M01/M03 A3021 RMK SC6SC2 SLP257
CYQR;2003-10-25 05:00;METAR CYQR 250500Z 36016G21KT 15SM OVC019 M01/M03 A3023 RMK SC8 SLP264
CYQR;2003-10-25 06:00;METAR CYQR 250600Z 01017KT 15SM OVC017 M02/M04 A3027 RMK SC8 SLP279
CYQR;2003-10-25 07:00;METAR CYQR 250700Z 01011KT 15SM OVC015 M02/M04 A3031 RMK SC8 SLP290
CYQR;2003-10-25 08:00;METAR CYQR 250800Z 36019KT 15SM OVC013 M02/M04 A3034 RMK SC8 SLP300
CYQR;2003-10-25 09:00;METAR CYQR 250900Z 02010KT 15SM OVC021 M02/M05 A3036 RMK SC8 SLP312
CYQR;2003-10-25 10:00;METAR CYQR 251000Z 34011KT 15SM OVC019 M02/M04 A3037 RMK SC8 SLP317
CYQR;2003-10-25 11:00;METAR CYQR 251100Z 34007KT 15SM OVC017 M02/M04 A3039 RMK SC8 SLP324
CYQR;2003-10-25 12:00;METAR CYQR 251200Z 34014G19KT 15SM OVC017 M02/M04 A3041 RMK SC8 SLP330
CYQR;2003-10-25 13:00;METAR CYQR 251300Z 36007KT 15SM OVC021 M02/M05 A3042 RMK SC8 SLP334
CYQR;2003-10-25 14:00;METAR CYQR 251400Z 33004KT 15SM OVC019 M02/M04 A3043 RMK SC8 SLP337
CYQR;2003-10-25 15:00;METAR CYQR 251500Z 32007KT 15SM OVC017 M02/M04 A3044 RMK SC8 SLP341
CYQR;2003-10-25 16:00;METAR CYQR 251600Z 32010KT 15SM OVC017 M01/M04 A3044 RMK SC8 SLP343
CYQR;2003-10-25 17:00;METAR CYQR 251700Z 29008KT 15SM OVC017 M01/M04 A3044 RMK SC8 SLP341
CYQR;2003-10-25 18:00;METAR CYQR 251800Z 27007KT 15SM OVC017 M00/M03 A3043 RMK SC8 SLP339
CYQR;2003-10-25 19:00;METAR CYQR 251900Z 28007KT 15SM OVC017 00/M02 A3041 RMK SC8 SLP332
CYQR;2003-10-25 20:00;METAR CYQR 252000Z 26010KT 15SM OVC017 01/M02 A3038 RMK SC8 SLP322
CYQR;2003-10-25 21:00;METAR CYQR 252100Z 24012KT 15SM OVC019 02/M02 A3036 RMK SC8 SLP311
CYQR;2003-10-25 22:00;METAR CYQR 252200Z 24013KT 15SM BKN023 02/M02 A3033 RMK SC7 SLP304
CYQR;2003-10-25 23:00;METAR CYQR 252300Z 21007KT 15SM FEW026 BKN120 OVC280 01/M01 A3031 RMK SC1AC6CI1 SLP295
CYQR;2003-10-26 00:00;METAR CYQR 260000Z 18008KT 15SM BKN120 OVC280 00/M01 A3025 RMK AC7CI1 SLP276
CYQR;2003-10-26 01:00;METAR CYQR 260100Z 18010KT 15SM OVC120 00/M01 A3022 RMK AC8 SLP266
CYQR;2003-10-26 02:00;METAR CYQR 260200Z 18009KT 15SM OVC094 01/M01 A3019 RMK AC8 SLP254
CYQR;2003-10-26 03:00;METAR CYQR 260300Z 18010KT 15SM OVC083 01/M00 A3014 RMK AC8 SLP235
CYQR;2003-10-26 04:00;METAR CYQR 260400Z 18008KT 15SM OVC054 02/M00 A3010 RMK SC8 SLP223
CYQR;2003-10-26 05:00;METAR CYQR 260500Z 19004KT 15SM OVC046 03/00 A3007 RMK SC8 SLP214
CYQR;2003-10-26 06:00;METAR CYQR 260600Z 21008KT 15SM OVC058 03/00 A3001 RMK SC8 SLP190
CYQR;2003-10-26 07:00;METAR CYQR 260700Z 26008KT 15SM OVC042 05/00 A2999 RMK SC8 SLP184
CYQR;2003-10-26 08:00;METAR CYQR 260800Z 29009KT 15SM OVC028 06/01 A2998 RMK SC8 SLP179
CYQR;2003-10-26 09:00;METAR CYQR 260900Z 33008KT 15SM OVC021 06/03 A2997 RMK SC8 SLP173 SLP176
CYQR;2003-10-26 12:00;METAR CYQR 261200Z 33012KT 3SM BR BKN003 OVC011 05/05 A3001 RMK SF6SC2 SLP188
CYQR;2003-10-26 13:00;METAR CYQR 261300Z 35020G25KT 6SM BR OVC005 05/05 A3004 RMK SF8 SLP197 SLP204
CYQR;2003-10-26 15:00;METAR CYQR 261500Z 34014KT 10SM BKN005 OVC030 04/04 A3008 RMK SF6SC2 SLP211
CYQR;2003-10-26 16:00;METAR CYQR 261600Z 34017G22KT 10SM BKN007 OVC032 05/04 A3010 RMK SC6SC2 CIG RGD SLP219
CYQR;2003-10-26 17:00;METAR CYQR 261700Z 36016KT 10SM BKN007 OVC020 05/04 A3012 RMK SC6SC2 CIG RGD SLP223
CYQR;2003-10-26 18:00;METAR CYQR 261800Z 35013KT 15SM BKN009 OVC015 05/04 A3013 RMK SC6SC2 CIG RGD SLP225
CYQR;2003-10-26 19:00;METAR CYQR 261900Z 34011G17KT 15SM OVC015 05/03 A3013 RMK SC8 CIG RGD SLP226
CYQR;2003-10-26 20:00;METAR CYQR 262000Z 36009G15KT 15SM OVC018 06/03 A3012 RMK SC8 SLP222
CYQR;2003-10-26 21:00;METAR CYQR 262100Z 01007KT 15SM BKN016 OVC020 06/03 A3009 RMK SC7SC1 SLP212
CYQR;2003-10-26 22:00;METAR CYQR 262200Z 03002KT 15SM FEW016 OVC098 05/02 A3008 RMK SF2AC6 SLP208
CYQR;2003-10-26 23:00;METAR CYQR 262300Z 00000KT 15SM FEW016 OVC060 05/03 A3006 RMK SF1SC7 SLP202
CYQR;2003-10-27 00:00;METAR CYQR 270000Z 14004KT 10SM -RA OVC034 05/04 A3004 RMK SC8 SLP196
CYQR;2003-10-27 01:00;METAR CYQR 270100Z 14009KT 6SM -RA OVC033 04/04 A3000 RMK SC8 SLP183
CYQR;2003-10-27 02:00;METAR CYQR 270200Z 15011KT 6SM -RA OVC033 04/04 A2996 RMK SC8 SLP169
CYQR;2003-10-27 03:00;METAR CYQR 270300Z 16013KT 4SM -RA OVC020 04/04 A2992 RMK SC8 SLP156
CYQR;2003-10-27 04:00;METAR CYQR 270400Z 17013KT 4SM -RA FEW004 OVC015 04/04 A2988 RMK SF2SC6 SLP142
CYQR;2003-10-27 05:00;METAR CYQR 270500Z 16015KT 15SM -RA FEW004 BKN024 OVC059 04/04 A2982 RMK SF2SC5SC2 SLP122
CYQR;2003-10-27 06:00;METAR CYQR 270600Z 16011KT 15SM -RA SCT005 BKN030 OVC059 04/04 A2979 RMK SF3SC4SC1 SLP109
CYQR;2003-10-27 07:00;METAR CYQR 270700Z 16013G18KT 15SM -RA BKN005 OVC020 05/05 A2972 RMK SF6SC2 PRESFR SLP086
CYQR;2003-10-27 08:00;METAR CYQR 270800Z 15014KT 15SM BKN006 OVC020 05/05 A2967 RMK SF5SC3 CIG RGD SLP070
CYQR;2003-10-27 09:00;METAR CYQR 270900Z 17012KT 15SM BKN004 OVC030 05/05 A2961 RMK SF5SC3 CIG RGD PRESFR SLP048
CYQR;2003-10-27 10:00;METAR CYQR 271000Z 16006KT 15SM BKN004 OVC020 05/05 A2957 RMK SF5SC3 SLP034
CYQR;2003-10-27 11:00;METAR CYQR 271100Z 18003KT 15SM FEW020 SCT100 BKN270 05/05 A2954 RMK SC2AC2CI0 SLP026
CYQR;2003-10-27 12:00;METAR CYQR 271200Z 29009KT 15SM -RA BKN057 BKN100 07/06 A2953 RMK SC5AC2 SLP018
CYQR;2003-10-27 13:00;METAR CYQR 271300Z 29013KT 15SM SCT055 BKN094 08/06 A2951 RMK SC3AC2 SLP011
CYQR;2003-10-27 14:00;METAR CYQR 271400Z 30016KT 15SM FEW060 SCT070 BKN120 09/05 A2948 RMK SC2AC2AC2 SLP002
CYQR;2003-10-27 15:00;METAR CYQR 271500Z 31027G36KT 15SM FEW050 SCT070 BKN120 10/05 A2947 RMK SC2AC2AC2 SLP995
CYQR;2003-10-27 16:00;METAR CYQR 271600Z 31031G40KT 15SM FEW050 FEW070 BKN320 11/06 A2945 RMK SC1AC1CI2 SLP990
CYQR;2003-10-27 17:00;METAR CYQR 271700Z 32030G43KT 15SM FEW030 FEW070 FEW320 12/04 A2946 RMK SC1AC1CI0 SLP994
CYQR;2003-10-27 18:00;METAR CYQR 271800Z 33044G53KT 15SM BKN046 BKN320 11/02 A2946 RMK CU5CI1 SLP993
CYQR;2003-10-27 19:00;METAR CYQR 271900Z 32036G49KT 15SM BKN039 10/02 A2948 RMK CU6 SLP998
CYQR;2003-10-27 20:00;METAR CYQR 272000Z 32033G42KT 15SM BKN039 10/02 A2949 RMK CU6 SLP001
CYQR;2003-10-27 21:00;METAR CYQR 272100Z 34039G51KT 15SM SCT041 09/03 A2952 RMK CU4 TCU ASOCTD SHWRS SE-SW SLP012
CYQR;2003-10-27 22:00;METAR CYQR 272200Z 34035G44KT 15SM BKN035 09/01 A2956 RMK CU5 TCU ASOCTD SHWRS SW SLP025
CYQR;2003-10-27 23:00;METAR CYQR 272300Z 34031G39KT 15SM -SHRA SCT033 07/03 A2961 RMK SC2 TCU EMBDD SLP041
CYQR;2003-10-28 00:00;METAR CYQR 280000Z 34029G36KT 15SM FEW032 06/01 A2965 RMK SC2 SLP059
CYQR;2003-10-28 01:00;METAR CYQR 280100Z 34021G28KT 15SM FEW030 05/M00 A2970 RMK SC1 SLP075
CYQR;2003-10-28 02:00;METAR CYQR 280200Z 32021G29KT 15SM FEW030 04/M00 A2972 RMK SC2 SLP080
CYQR;2003-10-28 03:00;METAR CYQR 280300Z 32018G25KT 15SM FEW052 04/M00 A2973 RMK SC2 SLP086
CYQR;2003-10-28 04:00;METAR CYQR 280400Z 31013KT 15SM BKN055 04/M00 A2975 RMK SC5 SLP091
CYQR;2003-10-28 05:00;METAR CYQR 280500Z 30011KT 15SM BKN045 02/M00 A2976 RMK SC5 SLP094
CYQR;2003-10-28 06:00;METAR CYQR 280600Z 30013KT 15SM BKN047 02/00 A2977 RMK SC5 SLP099
CYQR;2003-10-28 07:00;METAR CYQR 280700Z 33020G25KT 15SM BKN047 03/M01 A2978 RMK SC5 SLP103
CYQR;2003-10-28 08:00;METAR CYQR 280800Z 33021G26KT 15SM OVC046 03/M02 A2980 RMK SC7 SLP108
CYQR;2003-10-28 09:00;METAR CYQR 280900Z 34019G26KT 15SM SCT046 01/M03 A2980 RMK SC2 SLP112
CYQR;2003-10-28 10:00;METAR CYQR 281000Z 34011KT 15SM FEW044 M00/M03 A2980 RMK SC2 SLP112
CYQR;2003-10-28 11:00;METAR CYQR 281100Z 33011KT 15SM FEW045 M01/M04 A2979 RMK SC1 SLP110
CYQR;2003-10-28 12:00;METAR CYQR 281200Z 31007KT 15SM FEW045 M02/M04 A2980 RMK SC1 SLP117
CYQR;2003-10-28 13:00;METAR CYQR 281300Z 36004KT 15SM FEW035 M03/M04 A2980 RMK SC2 SLP116
CYQR;2003-10-28 14:00;METAR CYQR 281400Z 31003KT 15SM BKN034 M03/M04 A2980 RMK SC6 SLP118
CYQR;2003-10-28 15:00;METAR CYQR 281500Z 36002KT 15SM BKN029 M01/M02 A2979 RMK SC7 SLP114
CYQR;2003-10-28 16:00;METAR CYQR 281600Z 34003KT 15SM OVC019 00/M03 A2978 RMK SC8 SLP109
CYQR;2003-10-28 17:00;METAR CYQR 281700Z 01007KT 15SM OVC019 01/M03 A2977 RMK SC8 SLP106
CYQR;2003-10-28 18:00;METAR CYQR 281800Z 03008KT 15SM OVC021 01/M03 A2976 RMK SC8 SLP103
CYQR;2003-10-28 19:00;METAR CYQR 281900Z 06005KT 15SM OVC019 01/M03 A2974 RMK SC8 SLP097
CYQR;2003-10-28 20:00;METAR CYQR 282000Z 04005KT 15SM BKN031 02/M03 A2971 RMK SC7 SLP086
CYQR;2003-10-28 21:00;METAR CYQR 282100Z 01006KT 15SM FEW035 FEW100 BKN320 02/M03 A2968 RMK SC2AC1CI3 SLP075
CYQR;2003-10-28 22:00;METAR CYQR 282200Z 04006KT 15SM FEW035 BKN320 02/M04 A2966 RMK SC1CI2 SLP070
CYQR;2003-10-28 23:00;METAR CYQR 282300Z 09004KT 15SM FEW035 OVC320 01/M04 A2964 RMK SC1CI3 SLP063
CYQR;2003-10-29 00:00;METAR CYQR 290000Z 09008KT 15SM FEW035 OVC320 M00/M05 A2964 RMK SC1CI2 SLP065
CYQR;2003-10-29 01:00;METAR CYQR 290100Z 10008KT 15SM FEW035 OVC320 M01/M05 A2962 RMK SC1CI3 SLP059
CYQR;2003-10-29 02:00;METAR CYQR 290200Z 12008KT 15SM OVC320 M01/M05 A2960 RMK CI4 SLP054
CYQR;2003-10-29 03:00;METAR CYQR 290300Z 11009KT 15SM FEW110 OVC320 M01/M05 A2960 RMK AC2CI3 SLP051
CYQR;2003-10-29 04:00;METAR CYQR 290400Z 10010KT 15SM SCT110 OVC320 M01/M05 A2959 RMK AC3CI2 SLP049
CYQR;2003-10-29 05:00;METAR CYQR 290500Z 10014KT 15SM SCT110 OVC320 M01/M04 A2957 RMK AC3CI2 SLP041
CYQR;2003-10-29 06:00;METAR CYQR 290600Z 10013KT 15SM BKN110 OVC270 M01/M05 A2954 RMK AC5CI2 SLP031
CYQR;2003-10-29 07:00;METAR CYQR 290700Z 10014KT 15SM SCT027 OVC110 M01/M05 A2953 RMK SC3AC4 SLP027
CYQR;2003-10-29 08:00;METAR CYQR 290800Z 10013KT 15SM FEW030 OVC110 M01/M05 A2954 RMK SC2AC5 SLP030
CYQR;2003-10-29 09:00;METAR CYQR 290900Z 09012G18KT 15SM SCT030 OVC110 M01/M05 A2954 RMK SC3AC5
CYQR;2003-10-29 10:00;METAR CYQR 291000Z 09014KT 15SM SCT030 OVC110 M01/M05 A2955 RMK SC3AC5 SLP033
CYQR;2003-10-29 11:00;METAR CYQR 291100Z 09016KT 15SM SCT030 OVC110 M01/M04 A2956 RMK SC4AC4 SLP036
CYQR;2003-10-29 12:00;METAR CYQR 291200Z 08018KT 15SM SCT035 OVC100 M01/M04 A2956 RMK SC3AC5 SLP037
CYQR;2003-10-29 13:00;METAR CYQR 291300Z 08020KT 15SM BKN037 OVC100 M01/M04 A2958 RMK SC6AC2 SLP043
CYQR;2003-10-29 14:00;METAR CYQR 291400Z 08017G24KT 15SM BKN037 OVC094 M01/M04 A2960 RMK SC6AC2
CYQR;2003-10-29 15:00;METAR CYQR 291500Z 09013G19KT 12SM BKN013 OVC039 M01/M03 A2964 RMK SC5SC3 INTMT S- VSBY LWR W-S SLP063
CYQR;2003-10-29 16:00;METAR CYQR 291600Z 09015KT 3/4SM R13/4500FT/U -SN VV006 M01/M02 A2966 RMK SN8 SLP072
CYQR;2003-10-29 17:00;METAR CYQR 291700Z 08011G17KT 3/4SM R13/5000FT/D -SN VV005 M01/M01 A2970 RMK SN8 /S01/ SLP083
CYQR;2003-10-29 18:00;METAR CYQR 291800Z 07015KT 3/4SM R13/4500FT/D -SN VV005 M01/M02 A2971 RMK SN8 SLP089
CYQR;2003-10-29 19:00;METAR CYQR 291900Z 07016KT 3/4SM R13/6000FT/D -SN VV007 M01/M02 A2973 RMK SN8 /S02/ SLP096
CYQR;2003-10-29 20:00;METAR CYQR 292000Z 07015KT 1SM R13/P6000FT/U -SN VV009 M01/M03 A2975 RMK SN8 SLP102
CYQR;2003-10-29 21:00;METAR CYQR 292100Z 05011G20KT 3/4SM R13/P6000FT/D -SN VV008 M01/M02 A2977 RMK SN8 SLP111
CYQR;2003-10-29 22:00;METAR CYQR 292200Z 05013KT 3/4SM R13/6000FT/N -SN OVC009 M01/M02 A2980 RMK SN4SF4 SLP120
CYQR;2003-10-29 23:00;METAR CYQR 292300Z 05010G15KT 1/2SM R13/4500VP6000FT/N SN VV003 M01/M02 A2983 RMK SN8 SLP130
CYQR;2003-10-30 00:00;METAR CYQR 300000Z CCA 05018G25KT 3/4SM R13/P6000FT/U -SN VV008 M01/M03 A2986 RMK SN8 /S04/ SLP140
CYQR;2003-10-30 01:00;METAR CYQR 300100Z 08009KT 3/4SM R13/P6000FT/D -SN VV007 M02/M02 A2990 RMK SN8 SLP153
CYQR;2003-10-30 02:00;METAR CYQR 300200Z 04011KT 1 1/2SM -SN VV008 M02/M03 A2992 RMK SN8 SLP160
CYQR;2003-10-30 03:00;METAR CYQR 300300Z 03013KT 1 1/2SM -SN VV010 M02/M03 A2994 RMK SN8 SLP169
CYQR;2003-10-30 04:00;METAR CYQR 300400Z CCA 01008KT 3/4SM R13/P6000FT/U -SN VV004 M02/M03 A2996 RMK SN8 /S01/ SLP176
CYQR;2003-10-30 05:00;METAR CYQR 300500Z 01011KT 1 1/2SM -SN VV008 M02/M03 A2998 RMK SN8 SLP181
CYQR;2003-10-30 06:00;METAR CYQR 300600Z 01011KT 3/4SM R13/P6000FT/D -SN VV007 M02/M03 A2999 RMK SN8 SLP186
CYQR;2003-10-30 07:00;METAR CYQR 300700Z 02011KT 2SM -SN OVC008 M02/M03 A3000 RMK SF8 SLP190
CYQR;2003-10-30 08:00;METAR CYQR 300800Z 02012KT 3SM -SN FEW010 OVC021 M02/M03 A3001 RMK SF2SC6 SLP194
CYQR;2003-10-30 09:00;METAR CYQR 300900Z 03011KT 3SM -SN OVC015 M02/M04 A3003 RMK SC8 SLP200
CYQR;2003-10-30 10:00;METAR CYQR 301000Z 01010KT 1 1/2SM -SN OVC010 M03/M04 A3004 RMK SF8 SLP202
CYQR;2003-10-30 11:00;METAR CYQR 301100Z 01011KT 3/4SM R13/P6000FT/D -SN VV008 M03/M04 A3005 RMK SN8 SLP208
CYQR;2003-10-30 12:00;METAR CYQR 301200Z 01013G18KT 6SM -SN FEW008 BKN014 OVC096 M04/M05 A3008 RMK SF2SC5AC1 SLP219
CYQR;2003-10-30 13:00;METAR CYQR 301300Z 36013KT 6SM -SN SCT014 OVC038 M04/M06 A3009 RMK SF4SC4 SLP224
CYQR;2003-10-30 14:00;METAR CYQR 301400Z 36014G19KT 4SM -SN BKN031 OVC120 M05/M06 A3011 RMK SC6AC1 SLP230
CYQR;2003-10-30 15:00;METAR CYQR 301500Z 36016KT 6SM -SN BKN019 OVC120 M05/M06 A3014 RMK SC6AC1 SLP239
CYQR;2003-10-30 16:00;METAR CYQR 301600Z 36016KT 10SM BKN030 OVC120 M04/M06 A3014 RMK SC5AC1 SLP242
CYQR;2003-10-30 17:00;METAR CYQR 301700Z 01021KT 2SM -SN DRSN SCT030 OVC120 M04/M06 A3016 RMK SC4AC2 SLP246
CYQR;2003-10-30 18:00;METAR CYQR 301800Z 01017G27KT 6SM -SN DRSN SCT040 BKN120 OVC270 M04/M06 A3017 RMK SC3AC2CI1 SLP251
CYQR;2003-10-30 19:00;METAR CYQR 301900Z 36016KT 10SM BKN015 OVC120 M04/M06 A3019 RMK SC5AC2 SLP256
CYQR;2003-10-30 20:00;METAR CYQR 302000Z 01019G24KT 15SM SCT015 OVC075 M03/M07 A3019 RMK SC3AC3
CYQR;2003-10-30 21:00;METAR CYQR 302100Z 36017G24KT 15SM BKN025 OVC080 M04/M08 A3019 RMK SC6AC2 SLP259
CYQR;2003-10-30 22:00;METAR CYQR 302200Z 36015G21KT 15SM SCT034 BKN076 M04/M08 A3021 RMK SC4AC3 SLP264
CYQR;2003-10-30 23:00;METAR CYQR 302300Z 35015KT 15SM FEW037 BKN082 BKN260 M05/M08 A3022 RMK SC2AC4CI0 SLP268
CYQR;2003-10-31 00:00;METAR CYQR 310000Z 34011KT 15SM BKN028 BKN084 BKN260 M08/M11 A3024 RMK SC5AC2CI0 SLP280
CYQR;2003-10-31 01:00;METAR CYQR 310100Z 34012KT 15SM SCT029 BKN042 M08/M10 A3028 RMK SC3SC4 SLP290
CYQR;2003-10-31 02:00;METAR CYQR 310200Z 35015KT 12SM -SN FEW011 BKN023 BKN056 M06/M08 A3029 RMK SC1SC4SC2 SLP294
CYQR;2003-10-31 03:00;METAR CYQR 310300Z 35013KT 10SM -SN FEW011 BKN019 OVC032 M06/M08 A3030 RMK SC2SC4SC2 SLP298
CYQR;2003-10-31 04:00;METAR CYQR 310400Z 36011KT 15SM FEW031 SCT057 BKN260 M08/M10 A3031 RMK SC2SC2CI1 SLP303
CYQR;2003-10-31 05:00;METAR CYQR 310500Z 33009KT 15SM FEW031 FEW057 BKN260 M13/M14 A3032 RMK SC1SC2CI1 SLP306
CYQR;2003-10-31 06:00;METAR CYQR 310600Z 33009KT 15SM BKN025 BKN059 BKN067 M11/M13 A3032 RMK SC5SC1AC1 SLP308
CYQR;2003-10-31 07:00;METAR CYQR 310700Z 32008KT 15SM OVC065 M13/M14 A3033 RMK AC6 SLP313
CYQR;2003-10-31 08:00;METAR CYQR 310800Z 32011KT 15SM OVC067 M13/M14 A3035 RMK AC6 SLP318
CYQR;2003-10-31 09:00;METAR CYQR 310900Z 33011KT 15SM BKN067 M12/M14 A3035 RMK AC5 SLP320
CYQR;2003-10-31 10:00;METAR CYQR 311000Z 35008KT 15SM BKN067 M14/M16 A3034 RMK AC5 SLP316
CYQR;2003-10-31 11:00;METAR CYQR 311100Z 34007KT 15SM OVC058 M14/M15 A3034 RMK SC7 SLP317
CYQR;2003-10-31 12:00;METAR CYQR 311200Z 29006KT 15SM OVC056 M14/M15 A3035 RMK SC8 SLP323
CYQR;2003-10-31 13:00;METAR CYQR 311300Z 27006KT 15SM -SN OVC040 M13/M15 A3035 RMK SC8 SLP325
CYQR;2003-10-31 14:00;METAR CYQR 311400Z 28007KT 6SM -SN OVC034 M12/M13 A3036 RMK SC8 SLP326
CYQR;2003-10-31 15:00;METAR CYQR 311500Z 28006KT 12SM -SN OVC050 M11/M12 A3036 RMK SC8 SLP325
CYQR;2003-10-31 16:00;METAR CYQR 311600Z 28011KT 15SM OVC050 M10/M12 A3035 RMK SC8 SLP322
CYQR;2003-10-31 17:00;METAR CYQR 311700Z 29015KT 10SM -SN FEW020 OVC050 M09/M12 A3034 RMK SF2SC6 SLP319
CYQR;2003-10-31 18:00;METAR CYQR 311800Z 28014KT 15SM FEW020 FEW050 SCT120 M10/M13 A3034 RMK CF1SC1AC2 SLP320
CYQR;2003-10-31 19:00;METAR CYQR 311900Z 27016KT 15SM FEW020 SCT045 BKN120 M09/M12 A3032 RMK CF2SC2AC2 SHSN NE QUAD SLP313
CYQR;2003-10-31 20:00;METAR CYQR 312000Z 27019KT 15SM FEW020 FEW045 FEW120 M10/M14 A3030 RMK CF1SC1AC1 SLP308
CYQR;2003-10-31 21:00;METAR CYQR 312100Z 27013KT 15SM FEW020 FEW120 M10/M14 A3028 RMK CF1AC1 SLP302
CYQR;2003-10-31 22:00;METAR CYQR 312200Z 27012KT 15SM FEW020 M11/M15 A3027 RMK CF1 SLP297
CYQR;2003-10-31 23:00;METAR CYQR 312300Z 26012KT 15SM FEW020 M12/M15 A3026 RMK CF1 SLP293
CYQR;2003-11-01 00:00;METAR CYQR 010000Z 25010KT 15SM SKC M16/M18 A3024 RMK SLP294
CYQR;2003-11-01 01:00;METAR CYQR 010100Z 23011KT 15SM SKC M18/M19 A3023 RMK SLP289
CYQR;2003-11-01 02:00;METAR CYQR 010200Z 23011KT 15SM SKC M18/M20 A3022 RMK SLP285
CYQR;2003-11-01 03:00;METAR CYQR 010300Z 23014KT 15SM SKC M16/M19 A3020 RMK SLP278
CYQR;2003-11-01 04:00;METAR CYQR 010400Z 23012KT 15SM SKC M17/M19 A3019 RMK SLP273
CYQR;2003-11-01 05:00;METAR CYQR 010500Z 18007KT 15SM SKC M19/M20 A3017 RMK SLP267
CYQR;2003-11-01 06:00;METAR CYQR 010600Z 19010KT 15SM SKC M19/M20 A3014 RMK SLP255
CYQR;2003-11-01 07:00;METAR CYQR 010700Z 19010KT 15SM SKC M19/M20 A3010 RMK SLP244
CYQR;2003-11-01 08:00;METAR CYQR 010800Z 19008KT 15SM SKC M18/M19 A3008 RMK SLP236
CYQR;2003-11-01 09:00;METAR CYQR 010900Z 20010KT 15SM SKC M16/M18 A3004 RMK SLP222
CYQR;2003-11-01 10:00;METAR CYQR 011000Z 19009KT 15SM SKC M17/M19 A3003 RMK SLP216
CYQR;2003-11-01 11:00;METAR CYQR 011100Z 18011KT 15SM SKC M17/M18 A3000 RMK SLP208
CYQR;2003-11-01 12:00;METAR CYQR 011200Z 19009KT 15SM SKC M17/M18 A2998 RMK SLP206
CYQR;2003-11-01 13:00;METAR CYQR 011300Z 22015KT 15SM SCT280 M12/M14 A2995 RMK CI2 SLP195
CYQR;2003-11-01 14:00;METAR CYQR 011400Z 26016KT 15SM SCT280 M11/M14 A2992 RMK CI2 SLP187
CYQR;2003-11-01 15:00;METAR CYQR 011500Z 25018KT 15SM SCT060 BKN090 BKN270 M10/M13 A2993 RMK SC4AC2CI1 SLP182
CYQR;2003-11-01 16:00;METAR CYQR 011600Z 26013KT 15SM SCT055 BKN090 OVC270 M10/M13 A2992 RMK SC3AC2CI2 SLP180
CYQR;2003-11-01 17:00;METAR CYQR 011700Z 24011KT 15SM FEW057 SCT090 OVC270 M09/M12 A2992 RMK SC2AC2CS2 SLP180
CYQR;2003-11-01 18:00;METAR CYQR 011800Z 24010KT 3SM -SN DRSN BKN040 OVC100 M09/M11 A2992 RMK SN1SC4AC2 SLP181
CYQR;2003-11-01 19:00;METAR CYQR 011900Z 26011KT 3SM -SN DRSN BKN017 OVC040 M08/M10 A2991 RMK SC5SC2 SLP177
CYQR;2003-11-01 20:00;METAR CYQR 012000Z 25010KT 6SM -SN DRSN BKN022 OVC040 M07/M08 A2990 RMK SC5SC2 SLP174
CYQR;2003-11-01 21:00;METAR CYQR 012100Z 25012KT 3SM -SN OVC018 M06/M08 A2990 RMK SC8 SLP169
CYQR;2003-11-01 22:00;METAR CYQR 012200Z 26011KT 2 1/2SM -SN FEW007 OVC023 M06/M07 A2989 RMK SF2SC6 SLP167
CYQR;2003-11-01 23:00;METAR CYQR 012300Z 26008KT 8SM VCSH BKN012 BKN230 M06/M08 A2989 RMK SC6CI0 SLP168
CYQR;2003-11-02 00:00;METAR CYQR 020000Z 25008KT 6SM -SN OVC014 M07/M09 A2991 RMK SC8 S- INTMT VSBY VRBL 4-8 SLP173
CYQR;2003-11-02 01:00;METAR CYQR 020100Z 25010KT 2 1/2SM -SN OVC017 M08/M09 A2992 RMK SC8 SLP177
CYQR;2003-11-02 02:00;METAR CYQR 020200Z 25010KT 10SM -SN BKN014 OVC022 M08/M10 A2993 RMK SC5SC3 SLP181
CYQR;2003-11-02 03:00;METAR CYQR 020300Z 25007KT 6SM -SN FEW014 BKN036 M08/M09 A2994 RMK SC2SC5
CYQR;2003-11-02 04:00;METAR CYQR 020400Z 27009KT 2SM -SN OVC021 M07/M08 A2996 RMK SN2SC6 SLP186
CYQR;2003-11-02 05:00;METAR CYQR 020500Z 27006KT 5SM -SN BKN012 OVC076 M07/M08 A2996 RMK SC6AC2 /S01/ SLP186
CYQR;2003-11-02 06:00;METAR CYQR 020600Z 27006KT 5SM -SN BKN017 OVC052 M06/M07 A2997 RMK SC6SC2 SLP188
CYQR;2003-11-02 07:00;METAR CYQR 020700Z 30011KT 4SM -SN BKN010 OVC039 M05/M06 A2999 RMK SF6SC2 SLP193
CYQR;2003-11-02 08:00;METAR CYQR 020800Z 34015KT 4SM -SN BKN007 OVC037 M06/M07 A3000 RMK SF6SC2 SLP198
CYQR;2003-11-02 09:00;METAR CYQR 020900Z 36010KT 8SM -SN BKN026 OVC044 M07/M09 A3004 RMK SC5SC3 SLP210
CYQR;2003-11-02 10:00;METAR CYQR 021000Z 36012KT 12SM -SN FEW020 OVC042 M08/M09 A3007 RMK SC2SC6 SLP219
CYQR;2003-11-02 11:00;METAR CYQR 021100Z 36009KT 15SM -SN FEW020 OVC042 M09/M10 A3011 RMK SC2SC6 SLP233
CYQR;2003-11-02 12:00;METAR CYQR 021200Z 01006KT 15SM -SN FEW010 OVC042 M09/M11 A3012 RMK SF1SC7 SLP241
CYQR;2003-11-02 13:00;METAR CYQR 021300Z 02005KT 15SM OVC042 M09/M11 A3014 RMK SC8 SLP247
CYQR;2003-11-02 14:00;METAR CYQR 021400Z 02009KT 15SM OVC042 M10/M13 A3018 RMK SC8 SLP259
CYQR;2003-11-02 15:00;METAR CYQR 021500Z 36009KT 15SM -SN OVC042 M11/M13 A3022 RMK SC8 SLP277
CYQR;2003-11-02 16:00;METAR CYQR 021600Z 01011KT 10SM -SN OVC042 M12/M15 A3025 RMK SC8 SLP287
CYQR;2003-11-02 17:00;METAR CYQR 021700Z 01011KT 10SM -SN OVC045 M12/M15 A3027 RMK SC8 SLP293
CYQR;2003-11-02 18:00;METAR CYQR 021800Z 04008KT 15SM -SN OVC045 M13/M17 A3028 RMK SC8 SLP299
CYQR;2003-11-02 19:00;METAR CYQR 021900Z 05008KT 15SM OVC039 M13/M17 A3028 RMK SC7 SLP298
CYQR;2003-11-02 20:00;METAR CYQR 022000Z 01005KT 15SM OVC047 M12/M18 A3029 RMK SC7 SLP303
CYQR;2003-11-02 21:00;METAR CYQR 022100Z 34006KT 15SM SCT027 M13/M18 A3030 RMK SC3 SLP305
CYQR;2003-11-02 22:00;METAR CYQR 022200Z 34007KT 15SM FEW040 M14/M17 A3030 RMK SC1 SLP306
CYQR;2003-11-02 23:00;METAR CYQR 022300Z 03004KT 15SM FEW040 FEW270 M14/M19 A3032 RMK SC1CI0 SLP312
CYQR;2003-11-03 00:00;METAR CYQR 030000Z 00000KT 15SM FEW270 M15/M19 A3033 RMK CI1 SLP320
CYQR;2003-11-03 01:00;METAR CYQR 030100Z 35002KT 15SM FEW270 M17/M19 A3034 RMK CI1 SLP323
CYQR;2003-11-03 02:00;METAR CYQR 030200Z 00000KT 15SM FEW270 M20/M21 A3035 RMK CI1 SLP327
CYQR;2003-11-03 03:00;METAR CYQR 030300Z 00000KT 15SM SCT270 M21/M22 A3036 RMK CI1 SLP337
CYQR;2003-11-03 04:00;METAR CYQR 030400Z 08003KT 15SM SCT270 M20/M21 A3037 RMK CI1 SLP340
CYQR;2003-11-03 05:00;METAR CYQR 030500Z 10003KT 15SM BKN270 M18/M19 A3037 RMK CI2 SLP340
CYQR;2003-11-03 06:00;METAR CYQR 030600Z 13003KT 15SM BKN270 M20/M21 A3037 RMK CI2 SLP338
CYQR;2003-11-03 07:00;METAR CYQR 030700Z 14003KT 15SM SCT270 M21/M22 A3036 RMK CI0 SLP337
CYQR;2003-11-03 08:00;METAR CYQR 030800Z 12005KT 15SM SKC M21/M22 A3036 RMK SLP336
CYQR;2003-11-03 09:00;METAR CYQR 030900Z 10004KT 15SM SKC M18/M20 A3035 RMK SLP331
CYQR;2003-11-03 10:00;METAR CYQR 031000Z 14005KT 15SM SKC M20/M22 A3035 RMK SLP331
CYQR;2003-11-03 11:00;METAR CYQR 031100Z 11005KT 15SM SCT110 M18/M20 A3033 RMK AC2 SLP326
CYQR;2003-11-03 12:00;METAR CYQR 031200Z 14007KT 15SM BKN014 M18/M20 A3033 RMK SC6 SLP328
CYQR;2003-11-03 13:00;METAR CYQR 031300Z 13007KT 15SM OVC019 M18/M20 A3033 RMK SC7 SLP327
CYQR;2003-11-03 14:00;METAR CYQR 031400Z 13008KT 15SM OVC021 M16/M19 A3033 RMK SC7 SLP327
CYQR;2003-11-03 15:00;METAR CYQR 031500Z 13011KT 15SM OVC017 M16/M19 A3033 RMK SC7 SLP329
CYQR;2003-11-03 16:00;METAR CYQR 031600Z 13011KT 15SM BKN019 OVC100 M14/M19 A3032 RMK SC5AS2 SLP327
CYQR;2003-11-03 17:00;METAR CYQR 031700Z 14013KT 15SM FEW019 OVC100 M14/M18 A3032 RMK SC2AS2 SLP325
CYQR;2003-11-03 18:00;METAR CYQR 031800Z 14012KT 15SM FEW020 SCT100 OVC320 M13/M17 A3031 RMK SC1AS2CI1 SLP320
CYQR;2003-11-03 19:00;METAR CYQR 031900Z 14008KT 15SM FEW022 SCT100 OVC320 M12/M17 A3029 RMK SC2AS2CI0 SLP313
CYQR;2003-11-03 20:00;METAR CYQR 032000Z 12008KT 15SM FEW020 SCT080 OVC320 M12/M17 A3027 RMK SC2AC2CI1 SLP305
CYQR;2003-11-03 21:00;METAR CYQR 032100Z 10009KT 15SM SCT090 OVC320 M11/M17 A3025 RMK AC3CI2 SLP297
CYQR;2003-11-03 22:00;METAR CYQR 032200Z 09008KT 15SM BKN050 OVC090 M11/M16 A3024 RMK SC6AC2 SLP294
CYQR;2003-11-03 23:00;METAR CYQR 032300Z 11007KT 15SM BKN043 OVC085 M11/M17 A3025 RMK SC6AC2 SLP296
CYQR;2003-11-04 00:00;METAR CYQR 040000Z 09009KT 15SM OVC041 M11/M16 A3024 RMK SC8 SLP293
CYQR;2003-11-04 01:00;METAR CYQR 040100Z 09007KT 15SM OVC045 M11/M15 A3025 RMK SC8 SLP295
CYQR;2003-11-04 02:00;METAR CYQR 040200Z 09010KT 3SM -SN OVC030 M11/M14 A3024 RMK SN1SC7 SLP293
CYQR;2003-11-04 03:00;METAR CYQR 040300Z 09010KT 3SM -SN OVC030 M11/M13 A3023 RMK SN1SC7 SLP288
CYQR;2003-11-04 04:00;METAR CYQR 040400Z 10009KT 2SM -SN OVC019 M11/M13 A3025 RMK SN2SC6 SLP292
CYQR;2003-11-04 05:00;METAR CYQR 040500Z 09009KT 3/4SM R13/P6000FT/U -SN VV011 M11/M12 A3025 RMK SN8 SLP292
CYQR;2003-11-04 06:00;METAR CYQR 040600Z 08007KT 3/4SM R13/P6000FT/D -SN VV013 M11/M12 A3023 RMK SN8 SLP284
CYQR;2003-11-04 07:00;METAR CYQR 040700Z 07008KT 1SM R13/P6000FT/U -SN OVC021 M11/M12 A3022 RMK SN6SC2 SLP280
CYQR;2003-11-04 08:00;METAR CYQR 040800Z 07008KT 1SM R13/P6000FT/N -SN OVC019 M11/M13 A3021 RMK SN6SC2 SLP279
CYQR;2003-11-04 09:00;METAR CYQR 040900Z 07009KT 1SM R13/P6000FT/U -SN VV014 M11/M13 A3020 RMK SN8 SLP272
CYQR;2003-11-04 10:00;METAR CYQR 041000Z 08009KT 3SM -SN OVC027 M11/M13 A3019 RMK SN3SC5 SLP269
CYQR;2003-11-04 11:00;METAR CYQR 041100Z 08007KT 1SM -SN OVC019 M11/M13 A3019 RMK SN6SC2 SLP269
CYQR;2003-11-04 12:00;METAR CYQR 041200Z 07007KT 1 1/2SM -SN OVC021 M11/M13 A3018 RMK SN6SC2 SLP265
CYQR;2003-11-04 13:00;METAR CYQR 041300Z 08007KT 3SM -SN OVC023 M11/M13 A3017 RMK SN2SC6 SLP263
CYQR;2003-11-04 14:00;METAR CYQR 041400Z 09007KT 3SM -SN OVC019 M11/M13 A3018 RMK SN2SC6 SLP264
CYQR;2003-11-04 15:00;METAR CYQR 041500Z 09006KT 1 1/2SM -SN OVC019 M11/M12 A3018 RMK SN2SC6 SLP266
CYQR;2003-11-04 16:00;METAR CYQR 041600Z 08005KT 6SM -SN BKN025 OVC100 M11/M13 A3018 RMK SC5AC2
CYQR;2003-11-04 17:00;METAR CYQR 041700Z 36002KT 2SM -SN OVC010 M10/M12 A3018 RMK SN3SC4 SLP265
CYQR;2003-11-04 18:00;METAR CYQR 041800Z 02002KT 2SM -SN OVC015 M09/M11 A3018 RMK SN2SC6 SLP263
CYQR;2003-11-04 19:00;METAR CYQR 041900Z 33003KT 1SM R13/P6000FT/N -SN OVC008 M09/M11 A3015 RMK SN5SC3 SLP256
CYQR;2003-11-04 20:00;METAR CYQR 042000Z 01004KT 1SM R13/P6000FT/N -SN OVC006 M09/M11 A3014 RMK SN5SC3 SLP251
CYQR;2003-11-04 21:00;METAR CYQR 042100Z 34007KT 3/4SM R13/P6000FT/U -SN VV006 M09/M11 A3013 RMK SN8 SLP248
CYQR;2003-11-04 22:00;METAR CYQR 042200Z 33007KT 1 1/4SM -SN VV013 M09/M11 A3013 RMK SN8 SLP248
CYQR;2003-11-04 23:00;METAR CYQR 042300Z 35009KT 1SM R13/P6000FT/N -SN VV013 M09/M11 A3014 RMK SN8 SLP251
CYQR;2003-11-05 00:00;METAR CYQR 050000Z 34007KT 3/4SM R13/P6000FT/N -SN OVC016 M10/M11 A3014 RMK SN4SC4 SLP252
CYQR;2003-11-05 01:00;METAR CYQR 050100Z 33007KT 2SM -SN OVC017 M10/M11 A3014 RMK SN2SC6 SLP253
CYQR;2003-11-05 02:00;METAR CYQR 050200Z 32007KT 2SM -SN OVC017 M10/M11 A3014 RMK SN2SC6 /S01/ SLP253
CYQR;2003-11-05 03:00;METAR CYQR 050300Z 32006KT 2 1/2SM -SN BKN013 OVC100 M11/M13 A3014 RMK SN3SC2AS1 SLP251
CYQR;2003-11-05 04:00;METAR CYQR 050400Z 31006KT 8SM -SN FEW015 OVC100 M14/M15 A3014 RMK SC2AC3 SLP250
CYQR;2003-11-05 05:00;METAR CYQR 050500Z 30008KT 2 1/2SM -SN SCT015 OVC096 M16/M16 A3014 RMK SC3AC2 SLP250
CYQR;2003-11-05 06:00;METAR CYQR 050600Z 32010KT 3SM -SN SCT010 OVC098 M13/M14 A3013 RMK SC3AC4 /S02/ SLP247
CYQR;2003-11-05 07:00;METAR CYQR 050700Z 31009KT 4SM -SN BKN018 OVC098 M15/M16 A3013 RMK SC5AC2 SLP247
CYQR;2003-11-05 08:00;METAR CYQR 050800Z 32008KT 3SM -SN SCT041 BKN100 M16/M17 A3012 RMK SC4AC3 SLP246
CYQR;2003-11-05 09:00;METAR CYQR 050900Z 31007KT 10SM -SN FEW017 BKN100 M18/M20 A3013 RMK SC2AC2 SLP251
CYQR;2003-11-05 10:00;METAR CYQR 051000Z 30008KT 8SM -SN OVC002 M20/M21 A3013 RMK SF8 VSBY N-E 2
CYQR;2003-11-05 11:00;METAR CYQR 051100Z 29007KT 2SM BR OVC002 M16/M17 A3013 RMK FG2SF6 SLP251
CYQR;2003-11-05 12:00;METAR CYQR 051200Z 29005KT 2SM -SN BR OVC003 M17/M18 A3013 RMK SF8 VSBY VRBL 11/2-21/2 VSBY HIER SW-W SLP252
CYQR;2003-11-05 13:00;METAR CYQR 051300Z 28007KT 2 1/2SM -SN BR OVC003 M17/M19 A3013 RMK SF8 CIG VRBL 2-4 SLP251
CYQR;2003-11-05 14:00;METAR CYQR 051400Z 28008KT 6SM -SN BR OVC006 M18/M19 A3013 RMK ST8 SLP252
CYQR;2003-11-05 15:00;METAR CYQR 051500Z 26003KT 4SM IC BR BKN003 OVC320 M22/M23 A3014 RMK ST3CI2 SLP261
CYQR;2003-11-05 16:00;METAR CYQR 051600Z 24005KT 8SM FEW003 SCT320 M23/M24 A3014 RMK ST1CI1 SLP260
CYQR;2003-11-05 17:00;METAR CYQR 051700Z 27009KT 6SM IC FEW003 BKN320 M20/M21 A3013 RMK ST1CI1 SLP257
CYQR;2003-11-05 18:00;METAR CYQR 051800Z 26007KT 6SM IC BR BKN006 OVC320 M18/M20 A3012 RMK ST5CI0
CYQR;2003-11-05 19:00;METAR CYQR 051900Z 25010KT 12SM FEW006 SCT320 M17/M18 A3009 RMK ST1CI1 SLP242
CYQR;2003-11-05 20:00;METAR CYQR 052000Z 25013KT 15SM FEW320 M16/M17 A3007 RMK CI1 SLP235
CYQR;2003-11-05 21:00;METAR CYQR 052100Z 25013KT 10SM BKN320 M15/M17 A3004 RMK CI2 SLP225
CYQR;2003-11-05 22:00;METAR CYQR 052200Z 25015KT 15SM SCT100 OVC320 M15/M17 A3001 RMK AC3CI2 SLP218
CYQR;2003-11-05 23:00;METAR CYQR 052300Z 24014KT 15SM SCT100 OVC320 M15/M17 A2999 RMK AC3CI2 SLP211
CYQR;2003-11-06 00:00;METAR CYQR 060000Z 25020KT 15SM DRSN SCT100 OVC320 M14/M16 A2997 RMK AC4CI1 SLP199
CYQR;2003-11-06 01:00;METAR CYQR 060100Z 26020KT 15SM DRSN BKN028 OVC074 M14/M16 A2996 RMK SC6AC2 SLP197
CYQR;2003-11-06 02:00;METAR CYQR 060200Z 29020KT 15SM DRSN SCT021 OVC100 M13/M15 A2996 RMK SC4AC1 SLP198
CYQR;2003-11-06 03:00;METAR CYQR 060300Z 30018KT 15SM -SN DRSN SCT020 BKN070 M12/M14 A2999 RMK SC3AC2 SLP209
CYQR;2003-11-06 05:00;METAR CYQR 060500Z 29016KT 15SM DRSN FEW100 FEW320 M14/M16 A3003 RMK AC1CI1 SLP222
CYQR;2003-11-06 06:00;METAR CYQR 060600Z 28015KT 15SM FEW045 SCT270 M14/M16 A3004 RMK SC2CI0 SLP226
CYQR;2003-11-06 07:00;METAR CYQR 060700Z 28014KT 15SM SCT045 M14/M16 A3007 RMK SC3 SLP235
CYQR;2003-11-06 08:00;METAR CYQR 060800Z 29013KT 15SM FEW048 M14/M15 A3007 RMK SC2 SLP236
CYQR;2003-11-06 09:00;METAR CYQR 060900Z 29015KT 15SM FEW048 M15/M17 A3007 RMK SC1 SLP236
CYQR;2003-11-06 10:00;METAR CYQR 061000Z 28009KT 15SM BKN027 BKN090 M15/M16 A3008 RMK SC6AC2 SLP238
CYQR;2003-11-06 11:00;METAR CYQR 061100Z 28015KT 15SM OVC032 M12/M14 A3007 RMK SC8 SLP236
CYQR;2003-11-06 12:00;METAR CYQR 061200Z 28012KT 15SM OVC034 M12/M15 A3007 RMK SC8 SLP232
CYQR;2003-11-06 13:00;METAR CYQR 061300Z 28010KT 10SM -SN OVC026 M12/M15 A3006 RMK SC8 SLP229
CYQR;2003-11-06 14:00;METAR CYQR 061400Z 27011KT 6SM -SN OVC018 M11/M13 A3004 RMK SC8 SLP223
CYQR;2003-11-06 15:00;METAR CYQR 061500Z 29016G21KT 4SM -SN DRSN OVC019 M11/M13 A3004 RMK SC8 SLP217
CYQR;2003-11-06 16:00;METAR CYQR 061600Z 29017KT 1 1/2SM -SN DRSN OVC013 M10/M12 A3004 RMK SC8 SLP218
CYQR;2003-11-06 17:00;METAR CYQR 061700Z 30013KT 3/4SM R13/P6000FT/U -SN DRSN OVC012 M10/M12 A3004 RMK SN3SC5 SLP218
CYQR;2003-11-06 18:00;METAR CYQR 061800Z 31022G27KT 3SM IC DRSN FEW006 BKN023 M10/M13 A3004 RMK SF1SC6 OCNL BS VSBY SW-NW 3/4 SLP221
CYQR;2003-11-06 19:00;METAR CYQR 061900Z 30018KT 10SM DRSN BKN032 M09/M13 A3005 RMK SC6 SLP223
CYQR;2003-11-06 20:00;METAR CYQR 062000Z 32018KT 10SM DRSN BKN025 M09/M13 A3006 RMK SC6 SLP226
CYQR;2003-11-06 21:00;METAR CYQR 062100Z 32019G25KT 2 1/2SM -SN DRSN OVC028 M09/M12 A3008 RMK SC8 SLP233
CYQR;2003-11-06 22:00;METAR CYQR 062200Z 32019KT 12SM DRSN OVC022 M09/M12 A3010 RMK SC7 SLP239
CYQR;2003-11-06 23:00;METAR CYQR 062300Z 35013KT 15SM DRSN BKN033 M11/M13 A3013 RMK SC3 SLP248
CYQR;2003-11-07 00:00;METAR CYQR 070000Z 35011KT 15SM DRSN BKN031 M11/M14 A3015 RMK SC6 SLP257
CYQR;2003-11-07 01:00;METAR CYQR 070100Z 34011KT 15SM BKN031 M12/M15 A3018 RMK SC5 SLP267
CYQR;2003-11-07 02:00;METAR CYQR 070200Z 33008KT 15SM BKN033 M14/M17 A3021 RMK SC5 SLP276
CYQR;2003-11-07 03:00;METAR CYQR 070300Z 32005KT 15SM BKN033 M14/M17 A3024 RMK SC5 SLP288
CYQR;2003-11-07 04:00;METAR CYQR 070400Z 35007KT 15SM BKN035 M14/M17 A3027 RMK SC2 SLP297
CYQR;2003-11-07 05:00;METAR CYQR 070500Z 30004KT 15SM SCT035 M16/M18 A3029 RMK SC2 SLP305
CYQR;2003-11-07 06:00;METAR CYQR 070600Z 31005KT 15SM FEW035 M20/M21 A3030 RMK SC2 SLP315
CYQR;2003-11-07 07:00;METAR CYQR 070700Z 30007KT 15SM FEW035 M20/M22 A3032 RMK SC1 SLP321
CYQR;2003-11-07 08:00;METAR CYQR 070800Z 31005KT 15SM FEW035 M21/M22 A3034 RMK SC1 FROIN SLP326
CYQR;2003-11-07 09:00;METAR CYQR 070900Z 28002KT 15SM FEW035 M21/M22 A3036 RMK SC1 FROIN SLP334
CYQR;2003-11-07 10:00;METAR CYQR 071000Z 00000KT 15SM FEW035 M22/M22 A3037 RMK SC1 FROIN SLP337
CYQR;2003-11-07 11:00;METAR CYQR 071100Z 00000KT 15SM FEW120 SCT260 M21/M22 A3037 RMK AC2CI0 FROIN SLP337
CYQR;2003-11-07 12:00;METAR CYQR 071200Z 16005KT 15SM FEW120 SCT230 M25/M25 A3039 RMK AC2CI0 LCL IF PTCHS DUE ACFT MVMNTS SLP348
CYQR;2003-11-07 13:00;METAR CYQR 071300Z 11005KT 15SM BKN100 BKN230 M22/M23 A3039 RMK AC3CI0 SLP350
CYQR;2003-11-07 14:00;METAR CYQR 071400Z 12005KT 15SM FEW100 BKN280 M20/M22 A3041 RMK AC2CI2 SLP354
CYQR;2003-11-07 15:00;METAR CYQR 071500Z 13007KT 15SM FEW100 BKN280 M19/M21 A3042 RMK AC2CI2 SLP356
CYQR;2003-11-07 16:00;METAR CYQR 071600Z 15009KT 15SM FEW100 BKN280 M19/M21 A3043 RMK AC2CI2 SLP359
CYQR;2003-11-07 17:00;METAR CYQR 071700Z 15010KT 15SM FEW100 BKN280 M18/M20 A3043 RMK AC1CI3 SLP360
CYQR;2003-11-07 18:00;METAR CYQR 071800Z 14011KT 15SM FEW100 BKN280 M17/M19 A3043 RMK AC1CI3 SLP366
CYQR;2003-11-07 19:00;METAR CYQR 071900Z 15011KT 15SM FEW100 SCT280 M16/M18 A3042 RMK AC1CI2 SLP362
CYQR;2003-11-07 20:00;METAR CYQR 072000Z 14014KT 15SM FEW100 BKN280 M15/M19 A3041 RMK AC2CI2
CYQR;2003-11-07 21:00;METAR CYQR 072100Z 14015KT 15SM FEW100 OVC280 M14/M19 A3041 RMK AC2CI4 SLP355
CYQR;2003-11-07 22:00;METAR CYQR 072200Z 15016KT 15SM FEW100 OVC280 M14/M18 A3039 RMK AC2CI4 SLP351
CYQR;2003-11-07 23:00;METAR CYQR 072300Z 15013KT 15SM SCT100 OVC280 M15/M18 A3039 RMK AC3CI2 SLP349
CYQR;2003-11-08 00:00;METAR CYQR 080000Z 15013KT 15SM SCT100 BKN280 M15/M17 A3038 RMK AC2CI1 SLP349
CYQR;2003-11-08 01:00;METAR CYQR 080100Z 15013KT 15SM SCT280 M15/M18 A3038 RMK CI2 SLP349
CYQR;2003-11-08 02:00;METAR CYQR 080200Z 14013KT 15SM FEW280 M16/M19 A3038 RMK CI1 SLP348
CYQR;2003-11-08 03:00;METAR CYQR 080300Z 15014KT 15SM SKC M17/M20 A3037 RMK SLP342
CYQR;2003-11-08 04:00;METAR CYQR 080400Z 14012KT 15SM SKC M18/M21 A3037 RMK SLP343
CYQR;2003-11-08 05:00;METAR CYQR 080500Z 14014KT 15SM SKC M18/M21 A3036 RMK SLP338
CYQR;2003-11-08 06:00;METAR CYQR 080600Z 14015KT 15SM SKC M18/M21 A3034 RMK SLP333
CYQR;2003-11-08 07:00;METAR CYQR 080700Z 14016KT 15SM SKC M19/M21 A3033 RMK SLP330
CYQR;2003-11-08 08:00;METAR CYQR 080800Z 14014KT 15SM SKC M19/M21 A3031 RMK SLP322
CYQR;2003-11-08 09:00;METAR CYQR 080900Z 14014KT 15SM SKC M19/M21 A3030 RMK SLP316
CYQR;2003-11-08 10:00;METAR CYQR 081000Z 14013KT 15SM SKC M18/M21 A3029 RMK SLP313
CYQR;2003-11-08 11:00;METAR CYQR 081100Z 14013KT 15SM SKC M19/M21 A3027 RMK SLP306
CYQR;2003-11-08 12:00;METAR CYQR 081200Z 14014KT 15SM SKC M19/M22 A3026 RMK SLP302
CYQR;2003-11-08 13:00;METAR CYQR 081300Z 14014KT 15SM SKC M18/M21 A3025 RMK SLP298
CYQR;2003-11-08 14:00;METAR CYQR 081400Z 14013KT 8SM FEW260 M19/M22 A3023 RMK CI1 BR SLP294
CYQR;2003-11-08 15:00;METAR CYQR 081500Z 14013KT 12SM FEW260 M18/M21 A3023 RMK CI1 SLP295
CYQR;2003-11-08 16:00;METAR CYQR 081600Z 14012KT 8SM SKC M17/M20 A3023 RMK BR SLP292
CYQR;2003-11-08 17:00;METAR CYQR 081700Z 15014KT 12SM FEW260 M16/M18 A3021 RMK CI1 SLP287
CYQR;2003-11-08 18:00;METAR CYQR 081800Z 14014KT 15SM SKC M14/M17 A3019 RMK SLP279
CYQR;2003-11-08 19:00;METAR CYQR 081900Z 14015KT 15SM SKC M12/M15 A3017 RMK SLP271
CYQR;2003-11-08 20:00;METAR CYQR 082000Z 14014KT 15SM SKC M12/M14 A3015 RMK SLP266
CYQR;2003-11-08 21:00;METAR CYQR 082100Z 15015KT 15SM SKC M11/M13 A3013 RMK SLP254
CYQR;2003-11-08 22:00;METAR CYQR 082200Z 15015KT 15SM SKC M10/M12 A3012 RMK SLP251
CYQR;2003-11-08 23:00;METAR CYQR 082300Z 15013KT 15SM SKC M11/M13 A3011 RMK SLP248
CYQR;2003-11-09 00:00;METAR CYQR 090000Z 14009KT 15SM SKC M13/M14 A3010 RMK SLP246
CYQR;2003-11-09 01:00;METAR CYQR 090100Z 15009KT 15SM SKC M14/M15 A3009 RMK SLP244
CYQR;2003-11-09 02:00;METAR CYQR 090200Z 16006KT 15SM SKC M15/M16 A3010 RMK SLP245
CYQR;2003-11-09 03:00;METAR CYQR 090300Z 18006KT 15SM SKC M16/M18 A3010 RMK SLP248
CYQR;2003-11-09 04:00;METAR CYQR 090400Z 23008KT 15SM SKC M17/M18 A3009 RMK SLP246
CYQR;2003-11-09 05:00;METAR CYQR 090500Z 26006KT 15SM SKC M16/M17 A3010 RMK SLP249
CYQR;2003-11-09 06:00;METAR CYQR 090600Z 26009KT 15SM SKC M15/M17 A3009 RMK SLP242
CYQR;2003-11-09 07:00;METAR CYQR 090700Z 27007KT 15SM SKC M16/M17 A3010 RMK SLP244
CYQR;2003-11-09 08:00;METAR CYQR 090800Z 26008KT 15SM SKC M16/M17 A3010 RMK SLP243
CYQR;2003-11-09 09:00;METAR CYQR 090900Z 26007KT 15SM SKC M17/M17 A3009 RMK SLP240
CYQR;2003-11-09 10:00;METAR CYQR 091000Z 26008KT 15SM SKC M16/M17 A3009 RMK SLP239
CYQR;2003-11-09 11:00;METAR CYQR 091100Z 27006KT 15SM SKC M17/M18 A3009 RMK SLP239
CYQR;2003-11-09 12:00;METAR CYQR 091200Z 27005KT 15SM SKC M17/M18 A3008 RMK SLP238
CYQR;2003-11-09 13:00;METAR CYQR 091300Z 27007KT 15SM SKC M17/M18 A3008 RMK SLP236
CYQR;2003-11-09 14:00;METAR CYQR 091400Z 00000KT 5SM BR SKC M18/M19 A3008 RMK SLP237
CYQR;2003-11-09 15:00;METAR CYQR 091500Z 26005KT 5SM BR SKC M17/M18 A3009 RMK SLP243
CYQR;2003-11-09 16:00;METAR CYQR 091600Z 08002KT 6SM BR FEW260 M15/M16 A3007 RMK CI0 SLP238
CYQR;2003-11-09 17:00;METAR CYQR 091700Z 00000KT 8SM FEW260 M12/M14 A3005 RMK CI0 BR SLP232
CYQR;2003-11-09 18:00;METAR CYQR 091800Z 17009KT 5SM BR FEW260 M14/M16 A3005 RMK CI0 SLP226
CYQR;2003-11-09 19:00;METAR CYQR 091900Z 15006KT 6SM BR BKN260 M11/M13 A3002 RMK CI2 SLP217
CYQR;2003-11-09 20:00;METAR CYQR 092000Z 16008KT 8SM BKN260 M10/M12 A3000 RMK CI2 BR SLP211
CYQR;2003-11-09 21:00;METAR CYQR 092100Z 14009KT 8SM BKN260 M09/M12 A2997 RMK CI2 BR SLP195
CYQR;2003-11-09 22:00;METAR CYQR 092200Z 14010KT 15SM BKN250 M09/M12 A2995 RMK CI2 SLP189
CYQR;2003-11-09 23:00;METAR CYQR 092300Z 13012KT 15SM BKN250 M10/M12 A2992 RMK CI3 SLP179
CYQR;2003-11-10 00:00;METAR CYQR 100000Z 14013KT 8SM BKN250 M11/M13 A2989 RMK CI3 BR SLP170
CYQR;2003-11-10 01:00;METAR CYQR 100100Z 15015KT 12SM BKN250 M11/M13 A2987 RMK CI2 SLP164
CYQR;2003-11-10 02:00;METAR CYQR 100200Z 14014KT 15SM BKN250 M10/M13 A2984 RMK CI2 SLP154
CYQR;2003-11-10 03:00;METAR CYQR 100300Z 14014KT 15SM BKN250 M11/M13 A2982 RMK CI2 SLP145
CYQR;2003-11-10 04:00;METAR CYQR 100400Z 14015KT 15SM BKN250 M11/M13 A2979 RMK CS2 SLP136
CYQR;2003-11-10 05:00;METAR CYQR 100500Z 14013KT 15SM BKN250 M11/M13 A2976 RMK CS2 SLP127
CYQR;2003-11-10 06:00;METAR CYQR 100600Z 14013KT 15SM SCT250 M12/M13 A2973 RMK CI2 SLP113
CYQR;2003-11-10 07:00;METAR CYQR 100700Z 14013KT 15SM SCT250 M12/M13 A2971 RMK CI2 SLP107
CYQR;2003-11-10 08:00;METAR CYQR 100800Z 14014KT 15SM SCT250 M11/M13 A2968 RMK CI2 SLP097
CYQR;2003-11-10 09:00;METAR CYQR 100900Z 14015KT 15SM FEW250 M12/M14 A2966 RMK CI1 SLP087
CYQR;2003-11-10 10:00;METAR CYQR 101000Z 14014KT 15SM FEW250 M11/M13 A2963 RMK CI1 SLP077
CYQR;2003-11-10 11:00;METAR CYQR 101100Z 14013KT 15SM SKC M11/M13 A2962 RMK SLP072
CYQR;2003-11-10 12:00;METAR CYQR 101200Z 13011KT 15SM SKC M12/M13 A2960 RMK SLP065
CYQR;2003-11-10 13:00;METAR CYQR 101300Z 14010KT 15SM SKC M12/M14 A2959 RMK SLP062
CYQR;2003-11-10 14:00;METAR CYQR 101400Z 14007KT 15SM FEW270 M12/M13 A2958 RMK CI1 SLP059
CYQR;2003-11-10 15:00;METAR CYQR 101500Z 17006KT 15SM SCT270 M11/M13 A2957 RMK CI1 SLP055
CYQR;2003-11-10 16:00;METAR CYQR 101600Z 22006KT 15SM SCT270 M08/M11 A2957 RMK CI1 SLP056
CYQR;2003-11-10 17:00;METAR CYQR 101700Z 24007KT 15SM SCT270 M04/M07 A2957 RMK CI1 SLP055
CYQR;2003-11-10 18:00;METAR CYQR 101800Z 00000KT 15SM SCT270 M02/M06 A2956 RMK CI1 SLP045
CYQR;2003-11-10 19:00;METAR CYQR 101900Z 27007KT 15SM SCT270 M02/M05 A2955 RMK CI1 SLP043
CYQR;2003-11-10 20:00;METAR CYQR 102000Z 27004KT 15SM FEW270 M01/M05 A2954 RMK CI1 SLP040
CYQR;2003-11-10 21:00;METAR CYQR 102100Z 26004KT 15SM BKN270 M03/M05 A2954 RMK CI2 SLP038
CYQR;2003-11-10 22:00;METAR CYQR 102200Z 23009KT 15SM FEW120 SCT270 M05/M07 A2954 RMK AC1CI1 SLP039
CYQR;2003-11-10 23:00;METAR CYQR 102300Z 28002KT 15SM FEW120 SCT270 M06/M08 A2955 RMK AC1CI1 SLP043
CYQR;2003-11-11 00:00;METAR CYQR 110000Z 00000KT 15SM SCT120 OVC270 M06/M07 A2954 RMK AC4CI2 SLP042
CYQR;2003-11-11 01:00;METAR CYQR 110100Z 20004KT 15SM BKN120 BKN270 M07/M08 A2955 RMK AC6CI1 SLP045
CYQR;2003-11-11 02:00;METAR CYQR 110200Z 00000KT 8SM OVC080 M07/M07 A2955 RMK AC8 BR SLP047
CYQR;2003-11-11 03:00;METAR CYQR 110300Z 21004KT 8SM OVC085 M06/M08 A2956 RMK AC8 BR SLP048
CYQR;2003-11-11 04:00;METAR CYQR 110400Z 01003KT 8SM OVC090 M04/M06 A2956 RMK AC8 BR SLP050
CYQR;2003-11-11 05:00;METAR CYQR 110500Z 00000KT 8SM OVC070 M04/M05 A2956 RMK AC8 BR SLP049
CYQR;2003-11-11 06:00;METAR CYQR 110600Z 29009KT 15SM SCT042 OVC320 M03/M04 A2959 RMK SC3CI0 SLP051
CYQR;2003-11-11 07:00;METAR CYQR 110700Z 30012KT 15SM FEW050 BKN320 M03/M05 A2961 RMK SC2CI1 SLP057
CYQR;2003-11-11 08:00;METAR CYQR 110800Z 31009KT 15SM FEW320 M07/M08 A2963 RMK CI1 SLP062
CYQR;2003-11-11 09:00;METAR CYQR 110900Z 32009KT 15SM FEW100 SCT320 M07/M10 A2963 RMK AC1CI1 SLP068
CYQR;2003-11-11 10:00;METAR CYQR 111000Z 27005KT 15SM SKC M10/M12 A2965 RMK SLP073
CYQR;2003-11-11 11:00;METAR CYQR 111100Z 23005KT 15SM SKC M12/M14 A2964 RMK SLP072
CYQR;2003-11-11 12:00;METAR CYQR 111200Z 28006KT 15SM SKC M14/M16 A2965 RMK SLP082
CYQR;2003-11-11 13:00;METAR CYQR 111300Z 27003KT 15SM BKN100 M14/M15 A2966 RMK AC5 SLP084
CYQR;2003-11-11 14:00;METAR CYQR 111400Z 23006KT 15SM FEW100 FEW290 M14/M16 A2967 RMK AC1CI1 SLP087
CYQR;2003-11-11 16:00;METAR CYQR 111600Z 35007KT 15SM FEW100 BKN290 M11/M13 A2968 RMK AC1CI5 SLP090
CYQR;2003-11-11 17:00;METAR CYQR 111700Z 22002KT 15SM FEW089 OVC290 M10/M12 A2969 RMK AS2CS4 SLP096
CYQR;2003-11-11 18:00;METAR CYQR 111800Z 00000KT 15SM SCT084 OVC290 M08/M11 A2967 RMK AS3CI5 SLP083
CYQR;2003-11-11 19:00;METAR CYQR 111900Z 14003KT 15SM SCT085 OVC290 M07/M10 A2967 RMK AS3CI5 SLP081
CYQR;2003-11-11 20:00;METAR CYQR 112000Z 29003KT 15SM FEW075 SCT082 OVC290 M07/M10 A2967 RMK AC1AS3CI3 SLP083
CYQR;2003-11-11 21:00;METAR CYQR 112100Z 30002KT 15SM SCT060 BKN080 OVC270 M07/M09 A2969 RMK SC3AC3CI2 SLP091
CYQR;2003-11-11 22:00;METAR CYQR 112200Z 34007KT 15SM FEW050 SCT080 OVC270 M06/M08 A2972 RMK SC2AC2CI4 SLP100
CYQR;2003-11-11 23:00;METAR CYQR 112300Z 34007KT 15SM FEW090 OVC270 M06/M09 A2974 RMK AC2CI6 SLP109
CYQR;2003-11-12 00:00;METAR CYQR 120000Z 36007KT 15SM OVC080 M06/M09 A2976 RMK AC8 SLP120
CYQR;2003-11-12 01:00;METAR CYQR 120100Z 34007KT 15SM OVC075 M07/M09 A2980 RMK AC8 SLP132
CYQR;2003-11-12 02:00;METAR CYQR 120200Z 32010KT 15SM OVC085 M07/M09 A2984 RMK AC8 SLP147
CYQR;2003-11-12 03:00;METAR CYQR 120300Z 28010KT 15SM BKN100 BKN270 M09/M10 A2989 RMK AC5CI2 SLP164
CYQR;2003-11-12 04:00;METAR CYQR 120400Z 29010KT 15SM FEW090 OVC270 M09/M11 A2993 RMK AC2CS4 SLP177
CYQR;2003-11-12 05:00;METAR CYQR 120500Z 31006KT 15SM BKN065 M08/M10 A2995 RMK SC7 SLP184
CYQR;2003-11-12 06:00;METAR CYQR 120600Z 21006KT 15SM OVC069 M09/M10 A2996 RMK AC8 SLP186
CYQR;2003-11-12 07:00;METAR CYQR 120700Z 26009KT 15SM BKN038 OVC085 M06/M08 A2997 RMK SC5AC3 SLP190
CYQR;2003-11-12 08:00;METAR CYQR 120800Z 27010KT 15SM SCT040 OVC088 M07/M08 A2999 RMK SC3AC4 SLP194
CYQR;2003-11-12 09:00;METAR CYQR 120900Z 30014KT 15SM FEW040 BKN085 M05/M07 A2999 RMK SC2AC3
CYQR;2003-11-12 10:00;METAR CYQR 121000Z 29016KT 15SM SKC M07/M08 A3000 RMK SLP196
CYQR;2003-11-12 11:00;METAR CYQR 121100Z 29014KT 15SM SCT086 M08/M09 A3002 RMK AC2 SLP204
CYQR;2003-11-12 12:00;METAR CYQR 121200Z 28014KT 15SM BKN080 M08/M10 A3005 RMK AC3 SLP214
CYQR;2003-11-12 13:00;METAR CYQR 121300Z 30015KT 15SM FEW070 M08/M10 A3008 RMK AC1 SLP223
CYQR;2003-11-12 14:00;METAR CYQR 121400Z 31013KT 15SM FEW070 M09/M11 A3009 RMK AC1 SLP229
CYQR;2003-11-12 15:00;METAR CYQR 121500Z 29012KT 15SM SKC M11/M13 A3014 RMK SLP250
CYQR;2003-11-12 16:00;METAR CYQR 121600Z 30011KT 15SM SKC M10/M13 A3017 RMK SLP260
CYQR;2003-11-12 17:00;METAR CYQR 121700Z 29012KT 15SM SKC M10/M12 A3019 RMK SLP266
CYQR;2003-11-12 18:00;METAR CYQR 121800Z 30014KT 15SM SKC M09/M11 A3021 RMK SLP272
CYQR;2003-11-12 19:00;METAR CYQR 121900Z 30012KT 15SM SKC M08/M10 A3021 RMK SLP272
CYQR;2003-11-12 20:00;METAR CYQR 122000Z 29009KT 15SM FEW270 M08/M11 A3021 RMK CI1 SLP273
CYQR;2003-11-12 21:00;METAR CYQR 122100Z 29010KT 15SM FEW270 M08/M11 A3022 RMK CI1 SLP272
CYQR;2003-11-12 22:00;METAR CYQR 122200Z 28009KT 15SM FEW270 M09/M11 A3022 RMK CI0 SLP274
CYQR;2003-11-12 23:00;METAR CYQR 122300Z 26004KT 15SM FEW270 M10/M12 A3021 RMK CI0 SLP270
CYQR;2003-11-13 00:00;METAR CYQR 130000Z 24009KT 15SM FEW270 SCT330 M14/M16 A3021 RMK CI0CI0 SLP275
CYQR;2003-11-13 01:00;METAR CYQR 130100Z 25010KT 15SM FEW270 M12/M14 A3020 RMK CI0 SLP272
CYQR;2003-11-13 02:00;METAR CYQR 130200Z 20005KT 15SM FEW270 M14/M16 A3019 RMK CI0 SLP269
CYQR;2003-11-13 03:00;METAR CYQR 130300Z 17009KT 15SM FEW270 M15/M16 A3018 RMK CI0 SLP267
CYQR;2003-11-13 04:00;METAR CYQR 130400Z 18009KT 15SM FEW270 M13/M16 A3016 RMK CI0 SLP263
CYQR;2003-11-13 05:00;METAR CYQR 130500Z 17009KT 15SM FEW270 M13/M15 A3015 RMK CI0 SLP258
CYQR;2003-11-13 06:00;METAR CYQR 130600Z 13009KT 15SM FEW095 FEW270 M13/M16 A3014 RMK AC1CI0 SLP251
CYQR;2003-11-13 07:00;METAR CYQR 130700Z 14010KT 15SM SKC M14/M15 A3012 RMK SLP245
CYQR;2003-11-13 08:00;METAR CYQR 130800Z 14010KT 15SM BKN270 M14/M15 A3010 RMK CI2 SLP240
CYQR;2003-11-13 09:00;METAR CYQR 130900Z 14010KT 15SM FEW270 M13/M14 A3008 RMK CI1 SLP230
CYQR;2003-11-13 10:00;METAR CYQR 131000Z 08006KT 15SM SKC M12/M13 A3008 RMK SLP229
CYQR;2003-11-13 11:00;METAR CYQR 131100Z 11009KT 15SM SKC M13/M15 A3005 RMK SLP222
CYQR;2003-11-13 12:00;METAR CYQR 131200Z 12006KT 15SM SKC M13/M15 A3004 RMK SLP222
CYQR;2003-11-13 13:00;METAR CYQR 131300Z 12007KT 15SM FEW270 M12/M14 A3002 RMK CI1 SLP216
CYQR;2003-11-13 14:00;METAR CYQR 131400Z 14008KT 15SM FEW270 BKN320 M13/M15 A3001 RMK CI1CI0 SLP212
CYQR;2003-11-13 15:00;METAR CYQR 131500Z 16009KT 15SM SCT320 M10/M12 A3000 RMK CI1 SLP205
CYQR;2003-11-13 16:00;METAR CYQR 131600Z 16007KT 15SM FEW320 M07/M10 A2999 RMK CI0 SLP202
CYQR;2003-11-13 17:00;METAR CYQR 131700Z 16006KT 15SM FEW320 M04/M08 A2999 RMK CI0 SLP204
CYQR;2003-11-13 18:00;METAR CYQR 131800Z 18006KT 15SM FEW320 M03/M06 A2998 RMK CI0 SLP193
CYQR;2003-11-13 19:00;METAR CYQR 131900Z 19005KT 15SM BKN320 M02/M06 A2996 RMK CI1 SLP187
CYQR;2003-11-13 20:00;METAR CYQR 132000Z 18006KT 15SM BKN320 M01/M05 A2996 RMK CI0 SLP186
CYQR;2003-11-13 21:00;METAR CYQR 132100Z 17007KT 15SM BKN320 M00/M04 A2993 RMK CI0 SLP174
CYQR;2003-11-13 22:00;METAR CYQR 132200Z 23006KT 15SM SCT320 M01/M04 A2991 RMK CI0 SLP168
CYQR;2003-11-13 23:00;METAR CYQR 132300Z 17004KT 15SM FEW320 M01/M04 A2990 RMK CI0 SLP164
CYQR;2003-11-14 00:00;METAR CYQR 140000Z 17007KT 15SM SKC M03/M05 A2988 RMK SLP159
CYQR;2003-11-14 01:00;METAR CYQR 140100Z 18007KT 15SM SKC M05/M07 A2987 RMK SLP156
CYQR;2003-11-14 02:00;METAR CYQR 140200Z 14005KT 15SM SKC M05/M07 A2987 RMK SLP156
CYQR;2003-11-14 03:00;METAR CYQR 140300Z 10008KT 15SM FEW320 M06/M08 A2987 RMK CI0 SLP155
CYQR;2003-11-14 04:00;METAR CYQR 140400Z 12007KT 15SM SKC M09/M10 A2987 RMK SLP154
CYQR;2003-11-14 05:00;METAR CYQR 140500Z 13009KT 15SM SKC M09/M11 A2986 RMK SLP151
CYQR;2003-11-14 06:00;METAR CYQR 140600Z 13008KT 15SM SKC M09/M11 A2984 RMK SLP143
CYQR;2003-11-14 07:00;METAR CYQR 140700Z 12008KT 15SM SKC M10/M12 A2983 RMK SLP139
CYQR;2003-11-14 08:00;METAR CYQR 140800Z 12006KT 15SM SKC M10/M12 A2981 RMK SLP132
CYQR;2003-11-14 09:00;METAR CYQR 140900Z 12007KT 15SM SKC M11/M13 A2980 RMK SLP126
CYQR;2003-11-14 10:00;METAR CYQR 141000Z 12008KT 15SM SKC M11/M13 A2979 RMK SLP122
CYQR;2003-11-14 11:00;METAR CYQR 141100Z 13009KT 15SM SKC M11/M13 A2978 RMK SLP120
CYQR;2003-11-14 12:00;METAR CYQR 141200Z 13010KT 15SM SKC M11/M13 A2976 RMK SLP116
CYQR;2003-11-14 13:00;METAR CYQR 141300Z 13008KT 15SM SKC M11/M13 A2976 RMK SLP115
CYQR;2003-11-14 14:00;METAR CYQR 141400Z 13009KT 15SM SKC M12/M13 A2975 RMK SLP114
CYQR;2003-11-14 15:00;METAR CYQR 141500Z 13009KT 15SM SKC M11/M13 A2975 RMK SLP116
CYQR;2003-11-14 16:00;METAR CYQR 141600Z 13009KT 15SM SKC M10/M12 A2976 RMK SLP118
CYQR;2003-11-14 17:00;METAR CYQR 141700Z 13008KT 15SM SKC M07/M10 A2976 RMK SLP117
CYQR;2003-11-14 18:00;METAR CYQR 141800Z 14007KT 15SM SKC M05/M08 A2975 RMK SLP111
CYQR;2003-11-14 19:00;METAR CYQR 141900Z 14008KT 15SM SKC M04/M07 A2973 RMK SLP104
CYQR;2003-11-14 20:00;METAR CYQR 142000Z 14007KT 15SM SKC M03/M06 A2972 RMK SLP103
CYQR;2003-11-14 21:00;METAR CYQR 142100Z 15009KT 15SM SKC M03/M06 A2971 RMK SLP099
CYQR;2003-11-14 22:00;METAR CYQR 142200Z 13007KT 15SM SKC M04/M07 A2972 RMK SLP101
CYQR;2003-11-14 23:00;METAR CYQR 142300Z 15009KT 15SM SKC M05/M08 A2972 RMK SLP102
CYQR;2003-11-15 00:00;METAR CYQR 150000Z 14006KT 15SM SKC M07/M09 A2973 RMK SLP109
CYQR;2003-11-15 01:00;METAR CYQR 150100Z 14008KT 15SM SKC M08/M10 A2974 RMK SLP111
CYQR;2003-11-15 02:00;METAR CYQR 150200Z 13004KT 15SM SKC M09/M10 A2975 RMK SLP115
CYQR;2003-11-15 03:00;METAR CYQR 150300Z 12004KT 15SM SKC M10/M12 A2975 RMK SLP119
CYQR;2003-11-15 04:00;METAR CYQR 150400Z 13003KT 15SM SKC M11/M12 A2976 RMK SLP122
CYQR;2003-11-15 05:00;METAR CYQR 150500Z 16002KT 15SM SKC M12/M13 A2977 RMK SLP123
CYQR;2003-11-15 06:00;METAR CYQR 150600Z 00000KT 15SM SKC M13/M14 A2978 RMK SLP123
CYQR;2003-11-15 07:00;METAR CYQR 150700Z 00000KT 15SM SKC M13/M14 A2979 RMK SLP126
CYQR;2003-11-15 08:00;METAR CYQR 150800Z 28004KT 5SM BR FEW001 M14/M16 A2980 RMK ST2 VSBY SE-SW 2 SLP130
CYQR;2003-11-15 09:00;METAR CYQR 150900Z 34004KT 5SM BR FEW001 M12/M13 A2981 RMK ST1 SLP133
CYQR;2003-11-15 10:00;METAR CYQR 151000Z 32004KT 5SM BR FEW001 M13/M14 A2982 RMK ST1 SLP137
CYQR;2003-11-15 11:00;METAR CYQR 151100Z 35005KT 5SM BR FEW001 M14/M15 A2982 RMK ST1 SLP137
CYQR;2003-11-15 12:00;METAR CYQR 151200Z 36004KT 1/4SM R13/2000V5000FT/D FZFG BKN001 M13/M14 A2984 RMK FG6ST1 SLP145
CYQR;2003-11-15 13:00;METAR CYQR 151300Z 33006KT 1/4SM R13/2400VP6000FT/D FZFG SKC M12/M13 A2984 RMK FG2 SLP148
CYQR;2003-11-15 14:00;METAR CYQR 151400Z 33004KT 1/2SM R13/2800FT/N FZFG BKN004 M12/M13 A2985 RMK FG3ST1 VSBY NE-ESE 2 SLP150
CYQR;2003-11-15 15:00;METAR CYQR 151500Z 28003KT 1/4SM R13/0800V1600FT/D FZFG OVC240 M13/M14 A2986 RMK FG5CI1 VSBY VRBL 1/8-3/8 SLP156
CYQR;2003-11-15 16:00;METAR CYQR 151600Z 32004KT 5/8SM R13/1800VP6000FT/U BR BKN240 M11/M13 A2987 RMK FG3CI1 VSBY N-E 21/2 SLP160
CYQR;2003-11-15 17:00;METAR CYQR 151700Z 32004KT 1 1/2SM BR BKN240 M10/M12 A2987 RMK FG2CI1 VSBY VRBL 1-2 SLP160
CYQR;2003-11-15 18:00;METAR CYQR 151800Z 31003KT 2 1/2SM BR BKN260 M08/M10 A2987 RMK CI2 VSBY HIER N-E SLP157
CYQR;2003-11-15 19:00;METAR CYQR 151900Z 31006KT 4SM BR BKN260 M07/M08 A2986 RMK CI2 SLP156
CYQR;2003-11-15 20:00;METAR CYQR 152000Z 28004KT 4SM BR BKN260 M06/M07 A2985 RMK CI2 SLP153
CYQR;2003-11-15 21:00;METAR CYQR 152100Z 30005KT 4SM BR BKN260 M06/M07 A2985 RMK CI2 SLP149
CYQR;2003-11-15 22:00;METAR CYQR 152200Z 33005KT 4SM BR BKN260 M06/M07 A2985 RMK CI1 SLP148
CYQR;2003-11-15 23:00;METAR CYQR 152300Z 35005KT 5SM BR SCT260 M07/M09 A2984 RMK CI1 SLP147
CYQR;2003-11-16 00:00;METAR CYQR 160000Z 36002KT 8SM FEW260 M06/M08 A2985 RMK CI1 BR SLP149
CYQR;2003-11-16 01:00;METAR CYQR 160100Z 32003KT 5SM BR FEW260 M09/M10 A2984 RMK CI1 SLP148
CYQR;2003-11-16 02:00;METAR CYQR 160200Z 01003KT 5SM BR SKC M12/M13 A2984 RMK SLP145
CYQR;2003-11-16 03:00;METAR CYQR 160300Z 10002KT 3SM R13/1400FT/N BR SKC M14/M15 A2983 RMK SLP148
CYQR;2003-11-16 04:00;METAR CYQR 160400Z 15003KT 3SM R13/3000VP6000FT/D BR SKC M14/M15 A2982 RMK SLP146
CYQR;2003-11-16 05:00;METAR CYQR 160500Z 14006KT 3SM BR SKC M13/M14 A2980 RMK SLP140
CYQR;2003-11-16 06:00;METAR CYQR 160600Z 14010KT 3SM BR SKC M10/M12 A2979 RMK SLP131
CYQR;2003-11-16 07:00;METAR CYQR 160700Z 15008KT 1SM R13/P6000FT/D BR SKC M12/M14 A2978 RMK FG6 SLP127
CYQR;2003-11-16 08:00;METAR CYQR 160800Z 14008KT 1 1/2SM BR SKC M14/M15 A2976 RMK FG3 SLP119
CYQR;2003-11-16 09:00;METAR CYQR 160900Z 14007KT 2 1/2SM BR SKC M14/M15 A2976 RMK FG3 SLP119
CYQR;2003-11-16 10:00;METAR CYQR 161000Z 14007KT 3/4SM R13/3500VP6000FT/U BR VV001 M13/M15 A2974 RMK FG8 SLP112
CYQR;2003-11-16 11:00;METAR CYQR 161100Z 14008KT 2 1/2SM BR OVC001 M13/M15 A2973 RMK FG5ST3 SLP108
CYQR;2003-11-16 12:00;METAR CYQR 161200Z 14009KT 4SM BR BKN003 M13/M14 A2972 RMK ST6 RIME ON INDICATOR SLP104
CYQR;2003-11-16 13:00;METAR CYQR 161300Z 14010KT 5SM BR BKN003 M12/M14 A2969 RMK ST2 SLP096
CYQR;2003-11-16 14:00;METAR CYQR 161400Z 14010KT 3SM BR FEW003 SCT110 BKN230 M12/M13 A2969 RMK SF1AC3CI2 SLP094
CYQR;2003-11-16 15:00;METAR CYQR 161500Z 14009KT 4SM BR SCT110 BKN230 M11/M13 A2968 RMK AC4CI0 SLP095
CYQR;2003-11-16 16:00;METAR CYQR 161600Z 14011KT 4SM BR FEW110 FEW260 M11/M12 A2966 RMK AC1CI1 SLP090
CYQR;2003-11-16 17:00;METAR CYQR 161700Z 14010KT 4SM BR FEW110 FEW260 M09/M11 A2965 RMK AC1CI0 SLP087
CYQR;2003-11-16 18:00;METAR CYQR 161800Z 14011KT 5SM BR SCT260 M08/M09 A2964 RMK CI1 SLP076
CYQR;2003-11-16 19:00;METAR CYQR 161900Z 14009KT 6SM BR SCT260 M06/M07 A2961 RMK CI1 SLP067
CYQR;2003-11-16 20:00;METAR CYQR 162000Z 14011KT 8SM SCT260 M05/M06 A2959 RMK CI1 BR SLP060
CYQR;2003-11-16 21:00;METAR CYQR 162100Z 13009KT 8SM FEW140 BKN260 M05/M06 A2957 RMK AC2CI2 BR SLP054
CYQR;2003-11-16 22:00;METAR CYQR 162200Z 14010KT 8SM FEW140 OVC260 M04/M06 A2955 RMK AC2CI2 SLP048
CYQR;2003-11-16 23:00;METAR CYQR 162300Z 13011KT 10SM FEW140 OVC260 M05/M07 A2954 RMK AC2CI2 SLP042
CYQR;2003-11-17 00:00;METAR CYQR 170000Z 14011KT 12SM FEW140 BKN260 M05/M07 A2953 RMK AC2CI2 SLP038
CYQR;2003-11-17 01:00;METAR CYQR 170100Z 14012KT 12SM FEW140 BKN260 M05/M07 A2951 RMK AC1CI2 SLP032
CYQR;2003-11-17 02:00;METAR CYQR 170200Z 14012KT 8SM BKN260 M06/M07 A2949 RMK CI1 SLP026
CYQR;2003-11-17 03:00;METAR CYQR 170300Z 12011KT 8SM BKN260 M07/M08 A2947 RMK CI0 SLP018
CYQR;2003-11-17 04:00;METAR CYQR 170400Z 12009KT 12SM BKN260 M08/M09 A2946 RMK CI0 SLP014
CYQR;2003-11-17 05:00;METAR CYQR 170500Z 13012KT 15SM SCT260 M08/M10 A2944 RMK CI0 SLP007
CYQR;2003-11-17 06:00;METAR CYQR 170600Z 13014KT 15SM SCT260 M08/M10 A2941 RMK CI0 SLP996
CYQR;2003-11-17 07:00;METAR CYQR 170700Z 13014KT 15SM FEW280 M08/M09 A2939 RMK CI0 SLP989
CYQR;2003-11-17 08:00;METAR CYQR 170800Z 12013KT 15SM FEW280 M08/M09 A2936 RMK CI0 SLP981
CYQR;2003-11-17 09:00;METAR CYQR 170900Z 13011KT 15SM FEW280 M08/M09 A2935 RMK CI0 SLP975
CYQR;2003-11-17 10:00;METAR CYQR 171000Z 14015KT 15SM FEW280 M07/M09 A2932 RMK CI0 SLP965
CYQR;2003-11-17 11:00;METAR CYQR 171100Z 15010KT 15SM BKN072 BKN280 M07/M08 A2932 RMK AC5CI0 SLP964
CYQR;2003-11-17 12:00;METAR CYQR 171200Z 16009KT 15SM BKN067 OVC280 M06/M08 A2932 RMK AC6CI1 SLP962
CYQR;2003-11-17 13:00;METAR CYQR 171300Z 13007KT 15SM BKN065 M06/M07 A2932 RMK AC6 SLP961
CYQR;2003-11-17 14:00;METAR CYQR 171400Z 12006KT 15SM BKN062 BKN120 M06/M08 A2932 RMK SC5AC2
CYQR;2003-11-17 15:00;METAR CYQR 171500Z 12008KT 15SM FEW060 BKN120 BKN250 M07/M08 A2932 RMK SC2AC2CI1 SLP962
CYQR;2003-11-17 16:00;METAR CYQR 171600Z 13008KT 15SM FEW060 SCT120 BKN270 M06/M08 A2933 RMK SC1AC2CI2 SLP966
CYQR;2003-11-17 17:00;METAR CYQR 171700Z 16007KT 15SM FEW120 BKN270 M05/M08 A2934 RMK AC2CI1 SLP969
CYQR;2003-11-17 18:00;METAR CYQR 171800Z 14006KT 15SM FEW120 BKN270 M04/M06 A2933 RMK AC1CI2 SLP966
CYQR;2003-11-17 19:00;METAR CYQR 171900Z 14004KT 15SM FEW120 BKN250 M02/M06 A2932 RMK AC1CI2 SLP963
CYQR;2003-11-17 20:00;METAR CYQR 172000Z 16007KT 15SM FEW120 BKN270 M01/M05 A2933 RMK AC1CI2
CYQR;2003-11-17 21:00;METAR CYQR 172100Z 16005KT 15SM SCT090 BKN270 M01/M04 A2932 RMK AC3CI2
CYQR;2003-11-17 22:00;METAR CYQR 172200Z 18004KT 15SM BKN090 BKN270 M02/M04 A2936 RMK AC6CI0 SLP973
CYQR;2003-11-17 23:00;METAR CYQR 172300Z 22005KT 15SM SCT090 BKN100 M03/M04 A2938 RMK AC3AC3 SLP981
CYQR;2003-11-18 00:00;METAR CYQR 180000Z 27006KT 15SM BKN081 BKN100 M03/M04 A2939 RMK AC5AC2 SLP986
CYQR;2003-11-18 01:00;METAR CYQR 180100Z 28007KT 15SM BKN071 OVC100 M02/M03 A2942 RMK AC6AC2 SLP993
CYQR;2003-11-18 02:00;METAR CYQR 180200Z 28009KT 15SM BKN061 OVC100 M02/M03 A2944 RMK SC6AC2 SLP000
CYQR;2003-11-18 03:00;METAR CYQR 180300Z 28012KT 15SM FEW060 BKN088 M05/M06 A2946 RMK SC2AC4 SLP009
CYQR;2003-11-18 04:00;METAR CYQR 180400Z 28013KT 15SM FEW076 M06/M07 A2949 RMK AC2 SLP019
CYQR;2003-11-18 05:00;METAR CYQR 180500Z 28014KT 15SM FEW100 M05/M07 A2951 RMK AC2 SLP027
CYQR;2003-11-18 06:00;METAR CYQR 180600Z 28015KT 15SM SCT100 M06/M08 A2955 RMK AC2 SLP039
CYQR;2003-11-18 07:00;METAR CYQR 180700Z 29014KT 15SM FEW120 M08/M09 A2956 RMK AC2 SLP044
CYQR;2003-11-18 08:00;METAR CYQR 180800Z 29016KT 15SM FEW100 M07/M09 A2958 RMK AC1 SLP050
CYQR;2003-11-18 09:00;METAR CYQR 180900Z 29014KT 10SM SKC M08/M09 A2959 RMK H SLP055
CYQR;2003-11-18 10:00;METAR CYQR 181000Z 29014KT 10SM SKC M08/M10 A2961 RMK H SLP059
CYQR;2003-11-18 11:00;METAR CYQR 181100Z 28012KT 10SM SKC M09/M10 A2962 RMK H SLP062
CYQR;2003-11-18 13:00;METAR CYQR 181300Z 27006KT 10SM SKC M10/M11 A2962 RMK H VSBY 3 OVR CITY SLP064
CYQR;2003-11-18 14:00;METAR CYQR 181400Z 30008KT 6SM BR FEW100 SCT270 M10/M12 A2961 RMK AC1CI1 SLP062
CYQR;2003-11-18 15:00;METAR CYQR 181500Z 24004KT 6SM BR FEW100 BKN220 M11/M13 A2960 RMK AC2CI4 SLP063
CYQR;2003-11-18 16:00;METAR CYQR 181600Z 23007KT 6SM BR FEW100 OVC220 M08/M10 A2960 RMK AC2CI6
CYQR;2003-11-18 17:00;METAR CYQR 181700Z 17007KT 10SM FEW100 OVC220 M06/M08 A2958 RMK AC2CI6 F SLP054
CYQR;2003-11-18 18:00;METAR CYQR 181800Z 19008KT 15SM BKN070 OVC220 M05/M07 A2958 RMK AC6CI2 SLP051
CYQR;2003-11-18 19:00;METAR CYQR 181900Z 14007KT 15SM BKN070 OVC220 M02/M05 A2954 RMK AC6CI2 SLP039
CYQR;2003-11-18 20:00;METAR CYQR 182000Z 13007KT 15SM BKN070 OVC220 M02/M05 A2951 RMK AC7CI1 SLP029
CYQR;2003-11-18 21:00;METAR CYQR 182100Z 14007KT 15SM BKN060 OVC090 M01/M03 A2949 RMK SC6AC2 SLP020
CYQR;2003-11-18 22:00;METAR CYQR 182200Z 15007KT 15SM FEW066 SCT260 00/M03 A2948 RMK AC2CI0 SLP015
CYQR;2003-11-18 23:00;METAR CYQR 182300Z 12007KT 15SM FEW066 FEW260 M02/M04 A2949 RMK AC1CI1 SLP018
CYQR;2003-11-19 00:00;METAR CYQR 190000Z 14007KT 15SM FEW060 FEW260 M04/M06 A2948 RMK SC1CI0 SLP019
CYQR;2003-11-19 01:00;METAR CYQR 190100Z 26007KT 15SM FEW060 FEW260 M06/M08 A2951 RMK SC1CI0 SLP027
CYQR;2003-11-19 02:00;METAR CYQR 190200Z 27011KT 15SM FEW060 FEW260 M06/M07 A2953 RMK SC1CI0 SLP033
CYQR;2003-11-19 03:00;METAR CYQR 190300Z 27011KT 15SM FEW260 M06/M07 A2956 RMK CI1 SLP048
CYQR;2003-11-19 04:00;METAR CYQR 190400Z 27014KT 15SM FEW260 M05/M06 A2959 RMK CI0 SLP056
CYQR;2003-11-19 05:00;METAR CYQR 190500Z 31011KT 15SM SKC M05/M06 A2962 RMK SLP068
CYQR;2003-11-19 06:00;METAR CYQR 190600Z 30016KT 15SM SKC M04/M05 A2965 RMK SLP075
CYQR;2003-11-19 07:00;METAR CYQR 190700Z 25011KT 15SM FEW280 M04/M06 A2970 RMK CI0 SLP089
CYQR;2003-11-19 08:00;METAR CYQR 190800Z 30014KT 15SM BKN280 M04/M06 A2972 RMK CI2 SLP095
CYQR;2003-11-19 09:00;METAR CYQR 190900Z 30016KT 15SM BKN280 M04/M06 A2972 RMK CI3 SLP096
CYQR;2003-11-19 11:00;METAR CYQR 191100Z 29010KT 15SM OVC097 M03/M05 A2973 RMK AC7 SLP097
CYQR;2003-11-19 12:00;METAR CYQR 191200Z 28007KT 15SM OVC088 M03/M05 A2971 RMK AC7 SLP094
CYQR;2003-11-19 13:00;METAR CYQR 191300Z 28007KT 15SM OVC081 M03/M05 A2970 RMK AC7 SLP091
CYQR;2003-11-19 14:00;METAR CYQR 191400Z 24007KT 15SM BKN060 OVC090 M03/M05 A2969 RMK SC6AC2 SLP088
CYQR;2003-11-19 15:00;METAR CYQR 191500Z 20007KT 15SM OVC060 M02/M04 A2969 RMK SC8 SLP085
CYQR;2003-11-19 16:00;METAR CYQR 191600Z 21005KT 15SM BKN060 BKN100 OVC270 M02/M04 A2964 RMK SC5AC2CI2 SLP071
CYQR;2003-11-19 17:00;METAR CYQR 191700Z 18006KT 15SM FEW060 BKN120 OVC270 M02/M05 A2961 RMK SC2AC5CI1 SLP062
CYQR;2003-11-19 18:00;METAR CYQR 191800Z 17008KT 15SM FEW120 OVC270 M03/M05 A2956 RMK AC2CS3 SLP042
CYQR;2003-11-19 19:00;METAR CYQR 191900Z 16009KT 15SM FEW100 OVC270 M02/M05 A2951 RMK AC2CS4 SLP026
CYQR;2003-11-19 20:00;METAR CYQR 192000Z 16014KT 15SM FEW100 OVC270 M02/M05 A2945 RMK AC1CS4 SLP007
CYQR;2003-11-19 21:00;METAR CYQR 192100Z 14018KT 15SM FEW080 BKN120 OVC270 M01/M05 A2940 RMK AC1AC5CI2 SLP984
CYQR;2003-11-19 22:00;METAR CYQR 192200Z 14016G21KT 15SM SCT110 BKN240 M02/M05 A2935 RMK AC2CI2 SLP970
CYQR;2003-11-19 23:00;METAR CYQR 192300Z 15014KT 15SM SCT110 BKN240 M02/M05 A2933 RMK AC2CI2 SLP961
CYQR;2003-11-20 00:00;METAR CYQR 200000Z 16016KT 15SM FEW040 FEW110 BKN240 M03/M05 A2929 RMK SC1AC1CI1 SLP946
CYQR;2003-11-20 01:00;METAR CYQR 200100Z 18015KT 15SM FEW240 M03/M05 A2925 RMK CI0 SLP936
CYQR;2003-11-20 02:00;METAR CYQR 200200Z 22013KT 15SM FEW240 M02/M04 A2923 RMK CI0 SLP928
CYQR;2003-11-20 03:00;METAR CYQR 200300Z 27016KT 15SM SKC 01/M02 A2922 RMK SLP921
CYQR;2003-11-20 04:00;METAR CYQR 200400Z 27012KT 15SM BKN110 M01/M03 A2923 RMK AC6 SLP924
CYQR;2003-11-20 05:00;METAR CYQR 200500Z 30018KT 15SM SCT033 OVC110 M02/M04 A2926 RMK SC3AC5 SLP933
CYQR;2003-11-20 06:00;METAR CYQR 200600Z 31024KT 15SM OVC031 M04/M06 A2933 RMK SC8 SLP963
CYQR;2003-11-20 07:00;METAR CYQR 200700Z 32024KT 10SM BKN005 OVC039 M04/M06 A2938 RMK SF6SC2 H VSBY W-SW 15 SLP977
CYQR;2003-11-20 08:00;METAR CYQR 200800Z 32024G30KT 2SM BR OVC008 M04/M06 A2944 RMK SF8 SLP997
CYQR;2003-11-20 09:00;METAR CYQR 200900Z 32021G31KT 4SM -SN BR OVC008 M05/M06 A2950 RMK SF8 SLP022
CYQR;2003-11-20 10:00;METAR CYQR 201000Z 32023KT 10SM -SN FEW008 BKN014 OVC058 M05/M08 A2954 RMK SF2SC5SC2 SLP032
CYQR;2003-11-20 11:00;METAR CYQR 201100Z 32021G29KT 15SM OVC014 M05/M08 A2957 RMK SC8 SLP044
CYQR;2003-11-20 12:00;METAR CYQR 201200Z 32024KT 15SM OVC012 M05/M07 A2961 RMK SC8 SLP060
CYQR;2003-11-20 13:00;METAR CYQR 201300Z 32026KT 6SM -SN OVC010 M06/M08 A2965 RMK SC8 H SLP074
CYQR;2003-11-20 14:00;METAR CYQR 201400Z 31021G28KT 10SM -SN DRSN SCT012 BKN028 M07/M09 A2969 RMK SC3SC2 SLP085
CYQR;2003-11-20 15:00;METAR CYQR 201500Z 31025G30KT 5SM BLSN FEW030 FEW045 M09/M11 A2972 RMK SC1SC2 SLP096
CYQR;2003-11-20 16:00;METAR CYQR 201600Z 30027KT 3SM BLSN BKN024 BKN040 M09/M11 A2975 RMK SC6SC1 SLP108
CYQR;2003-11-20 17:00;METAR CYQR 201700Z 29024KT 10SM DRSN SCT020 BKN031 M10/M12 A2978 RMK SC3SC1 SLP116
CYQR;2003-11-20 18:00;METAR CYQR 201800Z 30018KT 15SM DRSN BKN023 M10/M12 A2983 RMK SC7 SLP138
CYQR;2003-11-20 19:00;METAR CYQR 201900Z 29019KT 10SM -SN DRSN BKN014 BKN026 M10/M12 A2985 RMK SC5SC2 SLP145
CYQR;2003-11-20 20:00;METAR CYQR 202000Z 30020KT 10SM -SN DRSN BKN010 BKN028 M09/M12 A2987 RMK SC5SC2 SLP151
CYQR;2003-11-20 21:00;METAR CYQR 202100Z 29017KT 15SM DRSN BKN009 BKN030 M10/M13 A2989 RMK SC5SC1 SLP160
CYQR;2003-11-20 22:00;METAR CYQR 202200Z 28016KT 15SM DRSN BKN015 BKN040 M11/M13 A2992 RMK SC6SC2 SLP171
CYQR;2003-11-20 23:00;METAR CYQR 202300Z 29013G18KT 15SM FEW015 FEW040 M12/M14 A2994 RMK SF1SC1 SLP178
CYQR;2003-11-21 00:00;METAR CYQR 210000Z 30016KT 15SM BKN015 BKN040 M13/M15 A2998 RMK SC6SC2 SLP192
CYQR;2003-11-21 01:00;METAR CYQR 210100Z 30013KT 15SM BKN019 M14/M16 A3001 RMK SC6 SLP202
CYQR;2003-11-21 02:00;METAR CYQR 210200Z 30008KT 15SM FEW020 M16/M18 A3003 RMK SC2 SLP210
CYQR;2003-11-21 03:00;METAR CYQR 210300Z 28010KT 15SM FEW015 M17/M18 A3005 RMK SC2 SLP224
CYQR;2003-11-21 04:00;METAR CYQR 210400Z 31013KT 15SM FEW015 M17/M19 A3007 RMK SC2 SLP229
CYQR;2003-11-21 05:00;METAR CYQR 210500Z 32010KT 15SM FEW015 M17/M19 A3008 RMK SC2 SLP234
CYQR;2003-11-21 06:00;METAR CYQR 210600Z 30011KT 15SM SKC M20/M21 A3010 RMK SLP243
CYQR;2003-11-21 07:00;METAR CYQR 210700Z 31012KT 15SM SKC M19/M21 A3009 RMK SLP241
CYQR;2003-11-21 08:00;METAR CYQR 210800Z 27010KT 15SM SKC M21/M23 A3011 RMK SLP248
CYQR;2003-11-21 09:00;METAR CYQR 210900Z 28013KT 15SM SKC M21/M22 A3013 RMK SLP255
CYQR;2003-11-21 11:00;METAR CYQR 211100Z 28009KT 15SM SKC M22/M23 A3014 RMK SLP260
CYQR;2003-11-21 12:00;METAR CYQR 211200Z 31012KT 15SM BKN022 M21/M22 A3014 RMK SC6 SLP261
CYQR;2003-11-21 13:00;METAR CYQR 211300Z 30013KT 15SM -SN OVC020 M19/M21 A3016 RMK SC8 SLP268
CYQR;2003-11-21 14:00;METAR CYQR 211400Z 30012KT 15SM SCT020 M21/M22 A3018 RMK SC3 SLP272
CYQR;2003-11-21 15:00;METAR CYQR 211500Z 29008KT 15SM FEW020 FEW090 FEW270 M23/M24 A3019 RMK SC1AC1CI1 SLP283
CYQR;2003-11-21 16:00;METAR CYQR 211600Z 31005KT 15SM FEW090 FEW270 M22/M23 A3021 RMK AC1CI0 SLP290
CYQR;2003-11-21 17:00;METAR CYQR 211700Z 28006KT 15SM FEW270 M21/M22 A3023 RMK CI0 SLP296
CYQR;2003-11-21 18:00;METAR CYQR 211800Z 28006KT 15SM FEW270 M19/M24 A3023 RMK CI0 SLP297
CYQR;2003-11-21 19:00;METAR CYQR 211900Z 28005KT 15SM FEW270 M18/M22 A3022 RMK CI0 SLP294
CYQR;2003-11-21 20:00;METAR CYQR 212000Z 28007KT 15SM FEW015 FEW270 M17/M21 A3021 RMK SC1CI0 SLP291
CYQR;2003-11-21 21:00;METAR CYQR 212100Z 27007KT 15SM FEW015 FEW270 M16/M20 A3022 RMK SC1CI0
CYQR;2003-11-21 22:00;METAR CYQR 212200Z 30009KT 15SM FEW015 FEW270 M16/M20 A3022 RMK SC1CI0 SLP292
CYQR;2003-11-21 23:00;METAR CYQR 212300Z 30008KT 15SM FEW015 SCT270 M19/M23 A3023 RMK SC1CI1 SLP296
CYQR;2003-11-22 00:00;METAR CYQR 220000Z 28007KT 15SM SCT270 M21/M25 A3026 RMK CI2 SLP308
CYQR;2003-11-22 01:00;METAR CYQR 220100Z 29008KT 15SM SCT270 M23/M27 A3027 RMK CI2 SLP311
CYQR;2003-11-22 02:00;METAR CYQR 220200Z 32006KT 15SM FEW025 BKN270 M22/M26 A3027 RMK SC2CI1 SLP311
CYQR;2003-11-22 03:00;METAR CYQR 220300Z 35006KT 15SM FEW025 BKN075 BKN270 M20/M24 A3025 RMK SC1AC4CI1 SLP308
CYQR;2003-11-22 04:00;METAR CYQR 220400Z 31003KT 15SM SCT070 BKN270 M20/M23 A3026 RMK AC3CI1 SLP310
CYQR;2003-11-22 05:00;METAR CYQR 220500Z 28003KT 15SM SCT060 BKN095 M21/M25 A3026 RMK SC3AC2
CYQR;2003-11-22 06:00;METAR CYQR 220600Z 28002KT 15SM OVC045 M21/M24 A3026 RMK SC7 SLP307
CYQR;2003-11-22 07:00;METAR CYQR 220700Z 31002KT 12SM OVC055 M21/M24 A3026 RMK SC6 SLP306
CYQR;2003-11-22 08:00;METAR CYQR 220800Z 30002KT 5SM -SN BKN036 M20/M23 A3025 RMK SC6 SLP303
CYQR;2003-11-22 09:00;METAR CYQR 220900Z 00000KT 10SM BKN047 M20/M23 A3024 RMK SC6 SLP299
CYQR;2003-11-22 10:00;METAR CYQR 221000Z 28004KT 15SM BKN049 M20/M24 A3024 RMK SC4 SLP297
CYQR;2003-11-22 11:00;METAR CYQR 221100Z 28003KT 15SM SCT090 M21/M24 A3023 RMK AC2 SLP296
CYQR;2003-11-22 12:00;METAR CYQR 221200Z 30002KT 15SM SCT090 M21/M25 A3024 RMK AC2 SLP302
CYQR;2003-11-22 13:00;METAR CYQR 221300Z 29002KT 6SM IC FEW042 BKN065 M21/M25 A3025 RMK SC2AC2 SLP305
CYQR;2003-11-22 14:00;METAR CYQR 221400Z 00000KT 6SM IC BKN042 BKN080 M21/M24 A3024 RMK SC5AC2 SLP304
CYQR;2003-11-22 15:00;METAR CYQR 221500Z 00000KT 5SM IC BKN040 OVC080 M20/M24 A3025 RMK SC6AC2
CYQR;2003-11-22 16:00;METAR CYQR 221600Z 00000KT 6SM -SN BKN025 BKN090 OVC270 M18/M21 A3025 RMK SC5AC1CI1 SLP304
CYQR;2003-11-22 17:00;METAR CYQR 221700Z 20002KT 10SM SCT030 BKN090 OVC270 M18/M22 A3025 RMK SC3AC2CI1 F SLP305
CYQR;2003-11-22 18:00;METAR CYQR 221800Z 18004KT 8SM -SN SCT030 BKN090 OVC270 M17/M21 A3025 RMK SC3AC2CI0 SLP303
CYQR;2003-11-22 19:00;METAR CYQR 221900Z 19004KT 6SM -SN SCT025 BKN090 OVC270 M17/M20 A3024 RMK SC3AC2CI1 SLP300
CYQR;2003-11-22 20:00;METAR CYQR 222000Z 22004KT 8SM -SN SCT025 BKN090 OVC270 M16/M20 A3023 RMK SC3AC2CI1 SLP297
CYQR;2003-11-22 21:00;METAR CYQR 222100Z 25003KT 10SM -SN FEW030 SCT090 OVC270 M16/M19 A3023 RMK SC2AC2CI2 SLP293
CYQR;2003-11-22 22:00;METAR CYQR 222200Z 25003KT 15SM SCT070 OVC270 M17/M20 A3023 RMK AC3CI2 SLP293
CYQR;2003-11-22 23:00;METAR CYQR 222300Z 17004KT 15SM FEW023 FEW070 BKN270 M18/M21 A3023 RMK SC1AC1CI2 SLP294
CYQR;2003-11-23 00:00;METAR CYQR 230000Z 19004KT 10SM FEW020 SCT270 M19/M22 A3024 RMK SC1CI1 SLP301
CYQR;2003-11-23 01:00;METAR CYQR 230100Z 17005KT 15SM FEW270 M19/M22 A3024 RMK CI0 SLP302
CYQR;2003-11-23 02:00;METAR CYQR 230200Z 20004KT 15SM SKC M21/M24 A3026 RMK SLP306
CYQR;2003-11-23 03:00;METAR CYQR 230300Z 16004KT 15SM SKC M20/M23 A3026 RMK SLP309
CYQR;2003-11-23 04:00;METAR CYQR 230400Z 12004KT 15SM SKC M21/M24 A3026 RMK SLP309
CYQR;2003-11-23 05:00;METAR CYQR 230500Z 13005KT 15SM SKC M22/M26 A3026 RMK SLP307
CYQR;2003-11-23 06:00;METAR CYQR 230600Z 13005KT 6SM IC BR SKC M23/M26 A3026 RMK SLP308
CYQR;2003-11-23 07:00;METAR CYQR 230700Z 13003KT 6SM IC BR SKC M24/M27 A3025 RMK SLP306
CYQR;2003-11-23 08:00;METAR CYQR 230800Z 13005KT 5SM IC BR SKC M24/M28 A3025 RMK SLP306
CYQR;2003-11-23 09:00;METAR CYQR 230900Z 12006KT 3SM IC BR FEW001 M24/M28 A3025 RMK ST0 SLP304
CYQR;2003-11-23 10:00;METAR CYQR 231000Z 13005KT 5SM R13/4500VP6000FT/U IC BR BKN002 M24/M28 A3024 RMK ST2 SLP301
CYQR;2003-11-23 11:00;METAR CYQR 231100Z 12006KT 2 1/2SM IC BR OVC001 M24/M28 A3023 RMK ST5 VSBY VRBL 1-4 SLP298
CYQR;2003-11-23 12:00;METAR CYQR 231200Z 13004KT 2 1/2SM IC BR OVC001 M24/M28 A3023 RMK ST5 VSBY VRBL 1-4 SLP299
CYQR;2003-11-23 13:00;METAR CYQR 231300Z 11005KT 2 1/2SM IC BR OVC001 M24/M28 A3023 RMK ST6 VSBY VRBL 1-4 SLP300
CYQR;2003-11-23 14:00;METAR CYQR 231400Z 11006KT 6SM IC BR BKN002 BKN280 M24/M28 A3022 RMK ST5CI0 SLP297
CYQR;2003-11-23 15:00;METAR CYQR 231500Z 13007KT 5SM IC BR BKN002 BKN280 M24/M28 A3024 RMK ST3CI2 SLP305
CYQR;2003-11-23 16:00;METAR CYQR 231600Z 15006KT 10SM FEW002 FEW280 M23/M27 A3024 RMK ST1CI0 SLP304
CYQR;2003-11-23 17:00;METAR CYQR 231700Z 15007KT 15SM SKC M23/M27 A3024 RMK SLP305
CYQR;2003-11-23 18:00;METAR CYQR 231800Z 14008KT 12SM FEW002 M22/M26 A3022 RMK SF1 SLP298
CYQR;2003-11-23 19:00;METAR CYQR 231900Z 14008KT 12SM FEW280 M21/M25 A3019 RMK CI1 SLP290
CYQR;2003-11-23 20:00;METAR CYQR 232000Z 14009KT 15SM FEW280 M20/M24 A3018 RMK CI1 SLP285
CYQR;2003-11-23 21:00;METAR CYQR 232100Z 14010KT 15SM FEW280 M20/M23 A3015 RMK CI1 SLP274
CYQR;2003-11-23 22:00;METAR CYQR 232200Z 14010KT 15SM DRSN FEW280 M20/M24 A3013 RMK CI1 SLP267
CYQR;2003-11-23 23:00;METAR CYQR 232300Z 14013KT 15SM DRSN SCT280 M21/M25 A3010 RMK CI1 SLP258
CYQR;2003-11-24 00:00;METAR CYQR 240000Z 15010KT 15SM FEW280 M22/M26 A3010 RMK CI1 SLP259
CYQR;2003-11-24 01:00;METAR CYQR 240100Z 14012KT 15SM FEW280 M22/M26 A3008 RMK CI2 SLP250
CYQR;2003-11-24 02:00;METAR CYQR 240200Z 16009KT 15SM SKC M23/M27 A3006 RMK SLP244
CYQR;2003-11-24 03:00;METAR CYQR 240300Z 14012KT 15SM SKC M23/M27 A3001 RMK SLP229
CYQR;2003-11-24 04:00;METAR CYQR 240400Z 14013KT 15SM SKC M24/M27 A2999 RMK SLP223
CYQR;2003-11-24 05:00;METAR CYQR 240500Z 15013KT 15SM SKC M23/M27 A2997 RMK SLP214
CYQR;2003-11-24 06:00;METAR CYQR 240600Z 14015KT 10SM SCT220 M22/M26 A2994 RMK CI0 SLP200
CYQR;2003-11-24 07:00;METAR CYQR 240700Z 14014KT 4SM IC SCT220 M23/M26 A2991 RMK CI1 SLP192
CYQR;2003-11-24 08:00;METAR CYQR 240800Z 14015KT 3SM IC DRSN SCT220 M22/M26 A2987 RMK CI1 SLP178
CYQR;2003-11-24 09:00;METAR CYQR 240900Z 14016KT 1 1/2SM IC DRSN BKN220 M22/M26 A2982 RMK CI2 SLP158
CYQR;2003-11-24 10:00;METAR CYQR 241000Z 14015KT 2SM IC DRSN BKN220 M21/M25 A2978 RMK CI3 SLP144
CYQR;2003-11-24 11:00;METAR CYQR 241100Z 14016KT 2 1/2SM IC DRSN BKN220 M21/M24 A2974 RMK CI4 SLP131
CYQR;2003-11-24 12:00;METAR CYQR 241200Z 14016KT 6SM IC DRSN SCT100 BKN220 M19/M23 A2969 RMK AC3CI1 SLP110
CYQR;2003-11-24 13:00;METAR CYQR 241300Z 14019KT 8SM DRSN BKN100 OVC220 M18/M21 A2964 RMK AC6CI1 OCNL BLSN SLP096
CYQR;2003-11-24 14:00;METAR CYQR 241400Z 14017KT 10SM DRSN BKN099 BKN220 M17/M20 A2960 RMK AC6CI0 SLP084
CYQR;2003-11-24 15:00;METAR CYQR 241500Z CCA 14018KT 10SM DRSN BKN093 OVC220 M16/M19 A2957 RMK AC6CI2 SLP070
CYQR;2003-11-24 16:00;METAR CYQR 241600Z 14017G22KT 8SM -SN DRSN BKN085 OVC220 M15/M18 A2954 RMK AC6CI1 SLP058
CYQR;2003-11-24 17:00;METAR CYQR 241700Z 14019G24KT 10SM -SN DRSN OVC073 M14/M16 A2950 RMK AC8 SLP048
CYQR;2003-11-24 18:00;METAR CYQR 241800Z 14021KT 10SM -SN DRSN SCT050 OVC083 M13/M15 A2947 RMK SC3AC5 SLP030
CYQR;2003-11-24 19:00;METAR CYQR 241900Z 14020KT 10SM -SN DRSN SCT027 OVC080 M12/M13 A2943 RMK SC4AC4 SLP018
CYQR;2003-11-24 20:00;METAR CYQR 242000Z 14019KT 3/4SM R13/P6000FT/N -SN DRSN OVC014 M11/M12 A2940 RMK SN6SC2 SLP008
CYQR;2003-11-24 21:00;METAR CYQR 242100Z 14017KT 1 1/2SM -SN DRSN OVC011 M10/M12 A2936 RMK SN2SC6 /S02/ SLP991
CYQR;2003-11-24 22:00;METAR CYQR 242200Z 15015KT 3/4SM R13/6000FT/N -SN DRSN VV006 M09/M10 A2933 RMK SN8 SLP982
CYQR;2003-11-24 23:00;METAR CYQR 242300Z 16014KT 1SM R13/P6000FT/U -SN DRSN VV007 M08/M09 A2931 RMK SN8 /S03/ SLP976
CYQR;2003-11-25 00:00;METAR CYQR 250000Z 15012KT 5SM -SN DRSN BKN007 OVC026 M08/M09 A2930 RMK SF5SC3 SLP967
CYQR;2003-11-25 01:00;METAR CYQR 250100Z 14011KT 15SM -SN FEW006 OVC033 M08/M09 A2928 RMK SF2SC6 SLP961
CYQR;2003-11-25 02:00;METAR CYQR 250200Z 12007KT 15SM SCT035 OVC063 M07/M09 A2927 RMK SC4SC4 SLP956
CYQR;2003-11-25 03:00;METAR CYQR 250300Z 29006KT 15SM FEW010 OVC083 M07/M09 A2927 RMK SC2AC6 SLP955
CYQR;2003-11-25 04:00;METAR CYQR 250400Z 31023KT 5SM BLSN OVC010 M10/M11 A2929 RMK SC8 SLP960
CYQR;2003-11-25 05:00;METAR CYQR 250500Z 32024G29KT 3SM BLSN OVC009 M11/M12 A2931 RMK SC8 SLP966
CYQR;2003-11-25 06:00;METAR CYQR 250600Z 32019G25KT 2 1/2SM -SN BLSN OVC010 M11/M13 A2933 RMK SC8 SLP975
CYQR;2003-11-25 07:00;METAR CYQR 250700Z 32019KT 2SM -SN BLSN OVC009 M11/M13 A2935 RMK SF8 VSBY VRBL 11/2-21/2 SLP980
CYQR;2003-11-25 08:00;METAR CYQR 250800Z 32021KT 1SM R13/P6000FT/N -SN BLSN OVC006 M11/M12 A2937 RMK BLSN3SF5 SLP987
CYQR;2003-11-25 09:00;METAR CYQR 250900Z 31019KT 3SM -SN BLSN OVC011 M10/M12 A2939 RMK SC8 /S01/ SLP992
CYQR;2003-11-25 10:00;METAR CYQR 251000Z 31018KT 5SM -SN DRSN OVC014 M09/M11 A2940 RMK SC8 SLP995
CYQR;2003-11-25 11:00;METAR CYQR 251100Z 31017KT 6SM -SN DRSN OVC018 M08/M10 A2940 RMK SC8 SLP997
CYQR;2003-11-25 12:00;METAR CYQR 251200Z 31017KT 6SM -SN DRSN OVC010 M07/M09 A2940 RMK SC8
CYQR;2003-11-25 13:00;METAR CYQR 251300Z 31022KT 10SM -SN DRSN OVC016 M08/M10 A2940 RMK SC8 SLP991
CYQR;2003-11-25 14:00;METAR CYQR 251400Z 32016KT 10SM -SN DRSN OVC018 M08/M10 A2940 RMK SC8 SLP993
CYQR;2003-11-25 15:00;METAR CYQR 251500Z 30012KT 12SM DRSN OVC018 M09/M12 A2940 RMK SC7 SLP995
CYQR;2003-11-25 16:00;METAR CYQR 251600Z 29010KT 15SM FEW020 FEW290 M10/M13 A2941 RMK SC2CI0 SLP998
CYQR;2003-11-25 17:00;METAR CYQR 251700Z 27010KT 15SM FEW020 M11/M13 A2941 RMK SC1 SLP998
CYQR;2003-11-25 18:00;METAR CYQR 251800Z 27009KT 15SM FEW280 M11/M12 A2941 RMK CI0 SLP001
CYQR;2003-11-25 19:00;METAR CYQR 251900Z 28007KT 15SM FEW280 M10/M12 A2940 RMK CI1 SLP998
CYQR;2003-11-25 20:00;METAR CYQR 252000Z 23006KT 15SM FEW280 M10/M12 A2939 RMK CI1 SLP996
CYQR;2003-11-25 21:00;METAR CYQR 252100Z 16005KT 15SM FEW280 M10/M13 A2938 RMK CI1 SLP989
CYQR;2003-11-25 22:00;METAR CYQR 252200Z 16008KT 15SM FEW280 M11/M14 A2938 RMK CI1 SLP988
CYQR;2003-11-25 23:00;METAR CYQR 252300Z 16009KT 15SM FEW280 M12/M14 A2938 RMK CI1 SLP988
CYQR;2003-11-26 00:00;METAR CYQR 260000Z 17008KT 15SM FEW280 M15/M17 A2938 RMK CI1 SLP989
CYQR;2003-11-26 01:00;METAR CYQR 260100Z 18008KT 15SM FEW280 M16/M17 A2937 RMK CI1 SLP986
CYQR;2003-11-26 02:00;METAR CYQR 260200Z 13006KT 15SM FEW280 M17/M18 A2937 RMK CI1 SLP986
CYQR;2003-11-26 03:00;METAR CYQR 260300Z 13008KT 15SM SKC M18/M19 A2936 RMK SLP989
CYQR;2003-11-26 04:00;METAR CYQR 260400Z 12009KT 15SM SKC M18/M20 A2936 RMK SLP989
CYQR;2003-11-26 05:00;METAR CYQR 260500Z 13010KT 15SM SKC M19/M20 A2937 RMK SLP991
CYQR;2003-11-26 06:00;METAR CYQR 260600Z 12006KT 15SM FEW120 BKN270 M18/M20 A2937 RMK AC2CI2 SLP992
CYQR;2003-11-26 07:00;METAR CYQR 260700Z 12010KT 15SM FEW120 BKN270 M17/M19 A2936 RMK AC2CI2 SLP988
CYQR;2003-11-26 08:00;METAR CYQR 260800Z 14011KT 15SM FEW120 BKN270 M17/M19 A2936 RMK AC1CI2
CYQR;2003-11-26 09:00;METAR CYQR 260900Z 13011KT 15SM FEW100 BKN270 M16/M17 A2935 RMK AC2CI2 SLP982
CYQR;2003-11-26 10:00;METAR CYQR 261000Z 13009KT 15SM FEW100 BKN270 M15/M16 A2935 RMK AC2CI2
CYQR;2003-11-26 11:00;METAR CYQR 261100Z 13011KT 15SM SCT060 BKN090 OVC270 M14/M16 A2934 RMK SC3AC2CI1 SLP980
CYQR;2003-11-26 12:00;METAR CYQR 261200Z 13011KT 15SM FEW060 SCT090 BKN270 M13/M15 A2934 RMK SC2AC2CI1 SLP980
CYQR;2003-11-26 13:00;METAR CYQR 261300Z 13010KT 15SM FEW060 SCT090 BKN270 M13/M15 A2935 RMK SC2AC2CI1 SLP986
CYQR;2003-11-26 14:00;METAR CYQR 261400Z 14011KT 15SM FEW090 BKN140 BKN220 M12/M14 A2936 RMK AC2AC3CI1 SLP988
CYQR;2003-11-26 15:00;METAR CYQR 261500Z 14008KT 15SM FEW090 BKN150 BKN220 M13/M15 A2938 RMK AC2AC3CI1 SLP996
CYQR;2003-11-26 16:00;METAR CYQR 261600Z 14006KT 15SM FEW090 FEW150 SCT220 M13/M15 A2939 RMK AC1AC2CI0 SLP001
CYQR;2003-11-26 17:00;METAR CYQR 261700Z 15003KT 15SM FEW080 SCT220 M11/M14 A2942 RMK AC1CI1 SLP009
CYQR;2003-11-26 18:00;METAR CYQR 261800Z 23006KT 15SM FEW080 SCT230 M12/M14 A2944 RMK AC1CI1 SLP018
CYQR;2003-11-26 19:00;METAR CYQR 261900Z 32007KT 15SM FEW080 FEW120 BKN230 M10/M12 A2947 RMK AC1AC1CI2 SLP027
CYQR;2003-11-26 20:00;METAR CYQR 262000Z 33013KT 15SM FEW040 SCT090 BKN230 M10/M12 A2950 RMK SC1AC2CI2 SLP035
CYQR;2003-11-26 21:00;METAR CYQR 262100Z 32010KT 15SM BKN083 BKN230 M09/M12 A2953 RMK AC6CI1 VIRGA SLP043
CYQR;2003-11-26 22:00;METAR CYQR 262200Z 32015KT 15SM FEW040 BKN090 BKN230 M10/M12 A2957 RMK SC2AC3CI1 SLP058
CYQR;2003-11-26 23:00;METAR CYQR 262300Z 32013KT 15SM SCT090 BKN230 M10/M13 A2963 RMK AC3CI2 SLP075
CYQR;2003-11-27 00:00;METAR CYQR 270000Z 32012KT 15SM FEW080 BKN120 BKN230 M11/M14 A2967 RMK AC2AC3CI2 SLP091
CYQR;2003-11-27 01:00;METAR CYQR 270100Z 31011KT 15SM BKN120 OVC230 M12/M14 A2971 RMK AC5CI2 SLP104
CYQR;2003-11-27 02:00;METAR CYQR 270200Z 32012KT 15SM BKN120 OVC230 M11/M13 A2974 RMK AC6CI2 SLP116
CYQR;2003-11-27 03:00;METAR CYQR 270300Z 32011KT 15SM FEW120 BKN230 M11/M14 A2978 RMK AC2CI2 SLP128
CYQR;2003-11-27 04:00;METAR CYQR 270400Z 33010KT 15SM FEW120 BKN230 M12/M14 A2981 RMK AC2CI3 SLP140
CYQR;2003-11-27 05:00;METAR CYQR 270500Z 30008KT 10SM FEW250 M15/M16 A2985 RMK CI1 BR SLP152
CYQR;2003-11-27 06:00;METAR CYQR 270600Z 30012KT 10SM BKN030 BKN270 M14/M15 A2988 RMK SC5CI1 F SLP166
CYQR;2003-11-27 07:00;METAR CYQR 270700Z 30011KT 15SM BKN023 BKN270 M12/M14 A2991 RMK SC5CI1 SLP174
CYQR;2003-11-27 08:00;METAR CYQR 270800Z 30015KT 15SM OVC015 M10/M11 A2994 RMK SC8 SLP185
CYQR;2003-11-27 09:00;METAR CYQR 270900Z 31015KT 10SM OVC015 M08/M10 A2998 RMK SC8 F SLP194
CYQR;2003-11-27 10:00;METAR CYQR 271000Z 31017KT 10SM -SN OVC013 M07/M09 A3001 RMK SC8 SLP204
CYQR;2003-11-27 11:00;METAR CYQR 271100Z 31018KT 6SM -SN OVC011 M07/M09 A3004 RMK SC8 SLP214
CYQR;2003-11-27 12:00;METAR CYQR 271200Z 32019G25KT 4SM -SN DRSN OVC013 M08/M10 A3007 RMK SC8 SLP227
CYQR;2003-11-27 13:00;METAR CYQR 271300Z 32022G27KT 3SM -SN DRSN OVC014 M09/M11 A3011 RMK SC8 SLP240
CYQR;2003-11-27 14:00;METAR CYQR 271400Z 33023KT 2 1/2SM -SN DRSN SCT007 BKN012 M11/M13 A3016 RMK SF3SC2 OCNL BLSN VSBY E 8 SLP255
CYQR;2003-11-27 15:00;METAR CYQR 271500Z 33015KT 15SM FEW009 SCT077 BKN220 M12/M14 A3020 RMK SF1AC2CI1 SLP273
CYQR;2003-11-27 16:00;METAR CYQR 271600Z 32014KT 15SM FEW008 FEW080 SCT220 M12/M15 A3024 RMK SF1AC1CI1 SLP287
CYQR;2003-11-27 17:00;METAR CYQR 271700Z 31016KT 15SM FEW009 FEW160 FEW220 M13/M15 A3028 RMK SF1AC1CI0 SLP300
CYQR;2003-11-27 18:00;METAR CYQR 271800Z 30016KT 15SM FEW220 M13/M15 A3029 RMK CI1 SLP309
CYQR;2003-11-27 19:00;METAR CYQR 271900Z 31013G18KT 15SM FEW100 M13/M15 A3031 RMK AC1 SLP314
CYQR;2003-11-27 20:00;METAR CYQR 272000Z 30014KT 15SM SKC M12/M15 A3033 RMK SLP321
CYQR;2003-11-27 21:00;METAR CYQR 272100Z 31015KT 15SM SKC M12/M15 A3035 RMK SLP323
CYQR;2003-11-27 22:00;METAR CYQR 272200Z 31012KT 15SM FEW085 M13/M15 A3036 RMK AC1 SLP326
CYQR;2003-11-27 23:00;METAR CYQR 272300Z 30009KT 15SM BKN100 M14/M16 A3038 RMK AC4 SLP333
