CYQR;2011-01-01 00:00;CYQR 010000Z 32007KT 15SM FEW300 M24/M29 A3008 RMK CI1 SLP250

CYQR;2011-01-01 01:00;CYQR 010100Z 34005KT 15SM SKC M24/M29 A3006 RMK SLP246

CYQR;2011-01-01 02:00;CYQR 010200Z 32005KT 15SM SKC M25/M30 A3006 RMK SLP245

CYQR;2011-01-01 03:00;CYQR 010300Z 00000KT 15SM SKC M25/M30 A3006 RMK SLP249

CYQR;2011-01-01 04:00;CYQR 010400Z 29006KT 15SM SKC M27/M32 A3004 RMK SLP242

CYQR;2011-01-01 05:00;CYQR 010500Z 30005KT 15SM SKC M27/M32 A3003 RMK SLP239

CYQR;2011-01-01 07:00;CYQR 010700Z 34004KT 15SM SKC M26/M31 A3000 RMK SLP230

CYQR;2011-01-01 08:00;CYQR 010800Z 33005KT 15SM SKC M27/M32 A2999 RMK SLP227

CYQR;2011-01-01 09:00;CYQR 010900Z 29007KT 15SM BKN060 M29/M34 A2999 RMK SC3 SLP224

CYQR;2011-01-01 10:00;CYQR 011000Z 32003KT 15SM BKN059 M26/M31 A2999 RMK SC7 SLP224

CYQR;2011-01-01 11:00;CYQR 011100Z 29002KT 15SM OVC059 M25/M30 A2998 RMK SC8 SLP221

CYQR;2011-01-01 12:00;CYQR 011200Z 29003KT 15SM OVC059 M24/M29 A2997 RMK SC7 SLP213

CYQR;2011-01-01 13:00;CYQR 011300Z 30002KT 15SM FEW059 M24/M29 A2995 RMK SC1 SLP208

CYQR;2011-01-01 14:00;CYQR 011400Z 28005KT 15SM FEW060 M26/M31 A2994 RMK SC1 SLP204

CYQR;2011-01-01 15:00;CYQR 011500Z 28008KT 15SM FEW060 M26/M31 A2993 RMK SC1 SLP204

CYQR;2011-01-01 16:00;CYQR 011600Z 28004KT 15SM FEW060 M25/M30 A2993 RMK SC1 SLP204

CYQR;2011-01-01 17:00;CYQR 011700Z 24002KT 15SM FEW300 M24/M30 A2993 RMK CI1 SLP203

CYQR;2011-01-01 18:00;CYQR 011800Z 17002KT 15SM FEW300 M23/M29 A2991 RMK CI1 SLP195

CYQR;2011-01-01 19:00;CYQR 011900Z 22003KT 15SM FEW300 M21/M27 A2988 RMK CI1 SLP185

CYQR;2011-01-01 20:00;CYQR 012000Z 20004KT 15SM FEW300 M20/M25 A2985 RMK CI0 SLP176

CYQR;2011-01-01 21:00;CYQR 012100Z 17006KT 15SM FEW300 M21/M26 A2983 RMK CI1 SLP167

CYQR;2011-01-01 22:00;CYQR 012200Z 15007KT 15SM FEW300 M20/M26 A2981 RMK CI1 SLP161

CYQR;2011-01-01 23:00;CYQR 012300Z 14007KT 15SM FEW140 FEW300 M22/M28 A2980 RMK AC1CI0 SLP158

CYQR;2011-01-02 00:00;CYQR 020000Z 14006KT 15SM SCT093 BKN140 BKN300 M23/M28 A2979 RMK AC4AC1CI0 SLP152

CYQR;2011-01-02 01:00;CYQR 020100Z 16005KT 15SM SCT083 M23/M28 A2976 RMK AC2 SLP141

CYQR;2011-01-02 01:53;CYQR 020153Z 16006KT 15SM BKN008 OVC075 RMK SC5AC3

CYQR;2011-01-02 02:00;CYQR 020200Z 16006KT 15SM BKN006 OVC077 M21/M26 A2974 RMK SC7AC1 SLP136

CYQR;2011-01-02 02:12;CYQR 020212Z 16005KT 15SM OVC005 M21/ RMK SC8

CYQR;2011-01-02 02:26;CYQR 020226Z 15005KT 15SM -SN OVC005 M21/ RMK SC8

CYQR;2011-01-02 02:46;CYQR 020246Z 16005KT 15SM -SN OVC003 M21/ RMK SC8

CYQR;2011-01-02 03:00;CYQR 020300Z 14005KT 15SM -SN OVC004 M21/M25 A2972 RMK SC8 SLP128

CYQR;2011-01-02 03:18;CYQR 020318Z 14004KT 15SM -SN BKN008 OVC018 M20/ RMK SC7SC1

CYQR;2011-01-02 03:37;CYQR 020337Z 16005KT 15SM -SN BKN010 BKN018 OVC054 M20/ RMK SC3SC2SC2

CYQR;2011-01-02 04:00;CYQR 020400Z 15006KT 15SM -SN SCT010 BKN018 OVC048 M19/M24 A2971 RMK SC2SC4SC2 SLP123

CYQR;2011-01-02 05:00;CYQR 020500Z 16005KT 12SM -SN OVC015 M18/M22 A2969 RMK SC8 SLP117

CYQR;2011-01-02 06:00;CYQR 020600Z 13005KT 15SM -SN BKN015 OVC081 M18/M22 A2968 RMK SC3AC5 SLP109

CYQR;2011-01-02 07:00;CYQR 020700Z 14006KT 10SM -SN FEW015 OVC040 M17/M20 A2967 RMK SC2SC6 SLP104

CYQR;2011-01-02 08:00;CYQR 020800Z 13006KT 10SM -SN BKN025 OVC042 M16/M20 A2965 RMK SC5SC3 SLP099

CYQR;2011-01-02 09:00;CYQR 020900Z 13005KT 3SM -SN OVC020 M16/M19 A2966 RMK SC8 SLP096

CYQR;2011-01-02 09:30;CYQR 020930Z 13005KT 2SM -SN OVC017 M15/ RMK SC8

CYQR;2011-01-02 10:00;CYQR 021000Z CCA 12006KT 1SM R13/P6000FT/D -SN OVC012 M15/M18 A2965 RMK SN2SC6 /S01/ SLP094

CYQR;2011-01-02 11:00;CYQR 021100Z 11004KT 3SM -SN OVC014 M15/M18 A2965 RMK SC8 SLP094

CYQR;2011-01-02 12:00;CYQR 021200Z 10004KT 5SM -SN OVC014 M15/M18 A2965 RMK SC8 /S02/ SLP096

CYQR;2011-01-02 12:28;CYQR 021228Z 07004KT 8SM -SN SCT014 OVC050 M15/ RMK SC4SC4

CYQR;2011-01-02 13:00;CYQR 021300Z 07004KT 10SM -SN FEW014 BKN026 OVC055 M16/M19 A2968 RMK SC2SC4SC2 SLP104

CYQR;2011-01-02 14:00;CYQR 021400Z 04005KT 12SM -SN BKN021 OVC057 M15/M19 A2971 RMK SC6SC2 SLP116

CYQR;2011-01-02 15:00;CYQR 021500Z 36002KT 12SM -SN FEW023 OVC060 M14/M18 A2974 RMK SC2SC6 SLP125

CYQR;2011-01-02 16:00;CYQR 021600Z 02005KT 4SM -SN BKN010 OVC054 M14/M17 A2978 RMK SC7SC1 SLP136

CYQR;2011-01-02 16:21;CYQR 021621Z 02007KT 15SM -SN BKN049 M14/ RMK SC7

CYQR;2011-01-02 17:00;CYQR 021700Z 36007KT 15SM -SN BKN049 M14/M18 A2981 RMK SC7 SLP148

CYQR;2011-01-02 18:00;CYQR 021800Z 03007KT 15SM -SN BKN049 M15/M19 A2982 RMK SC7 SLP151

CYQR;2011-01-02 19:00;CYQR 021900Z 02007KT 15SM -SN BKN044 M14/M19 A2984 RMK SC7 SLP156

CYQR;2011-01-02 20:00;CYQR 022000Z 01008KT 10SM -SN BKN044 M14/M18 A2985 RMK SC7 SLP159

CYQR;2011-01-02 21:00;CYQR 022100Z 36008KT 12SM -SN BKN044 M14/M18 A2986 RMK SC6 SLP160

CYQR;2011-01-02 22:00;CYQR 022200Z 35004KT 15SM BKN044 BKN120 M14/M18 A2988 RMK SC6AC1 INTMT -SN SLP168

CYQR;2011-01-02 23:00;CYQR 022300Z 34007KT 15SM SCT016 BKN046 M15/M19 A2991 RMK SC2SC6 SLP177

CYQR;2011-01-03 00:00;CYQR 030000Z CCA 01009KT 15SM -SN BKN009 OVC048 M15/M19 A2993 RMK SC2SC6 SLP185

CYQR;2011-01-03 01:00;CYQR 030100Z 01007KT 12SM -SN FEW018 BKN048 M16/M20 A2993 RMK SC2SC3 SLP186

CYQR;2011-01-03 02:00;CYQR 030200Z 02005KT 15SM -SN BKN024 OVC048 M16/M20 A2994 RMK SC6SC2 SLP190

CYQR;2011-01-03 03:00;CYQR 030300Z 36006KT 12SM -SN BKN015 OVC030 M15/M19 A2994 RMK SC6SC2 SLP190

CYQR;2011-01-03 04:00;CYQR 030400Z 35006KT 12SM -SN OVC011 M15/M19 A2995 RMK SC8 SLP192

CYQR;2011-01-03 05:00;CYQR 030500Z 34009KT 12SM -SN OVC011 M16/M19 A2996 RMK SC8 SLP197

CYQR;2011-01-03 05:51;CYQR 030551Z 35010KT 12SM -SN OVC007 M17/ RMK SC8

CYQR;2011-01-03 06:00;CYQR 030600Z 36011KT 12SM -SN OVC007 M17/M20 A2997 RMK SC8 SLP200

CYQR;2011-01-03 06:43;CYQR 030643Z 34010KT 15SM -SN OVC010 M17/ RMK SC8

CYQR;2011-01-03 07:00;CYQR 030700Z 34011KT 15SM -SN OVC010 M17/M20 A2997 RMK SC8 SLP201

CYQR;2011-01-03 08:00;CYQR 030800Z 32007KT 15SM -SN OVC010 M17/M20 A2997 RMK SC8 SLP200

CYQR;2011-01-03 09:00;CYQR 030900Z 31007KT 15SM -SN OVC010 M16/M20 A2998 RMK SC8 SLP204

CYQR;2011-01-03 10:00;CYQR 031000Z 34009KT 15SM -SN OVC010 M17/M20 A2999 RMK SC8 SLP207

CYQR;2011-01-03 11:00;CYQR 031100Z 35011KT 15SM -SN OVC010 M17/M21 A2998 RMK SC8 SLP205

CYQR;2011-01-03 12:00;CYQR 031200Z 35009KT 15SM -SN OVC010 M17/M21 A2998 RMK SC8 SLP205

CYQR;2011-01-03 13:00;CYQR 031300Z 35009KT 15SM -SN OVC009 M17/M21 A2998 RMK SC8 SLP206

CYQR;2011-01-03 14:00;CYQR 031400Z 34007KT 12SM -SN OVC008 M17/M21 A2999 RMK SC8 SLP209

CYQR;2011-01-03 15:00;CYQR 031500Z 33005KT 12SM -SN OVC008 M17/M21 A3000 RMK SC8 SLP211

CYQR;2011-01-03 15:23;CYQR 031523Z 30007KT 12SM -SN OVC011 M17/ RMK SC8

CYQR;2011-01-03 16:00;CYQR 031600Z 30012KT 6SM -SHSN DRSN OVC010 M17/M21 A3000 RMK SC8 SLP211

CYQR;2011-01-03 16:29;CYQR 031629Z 31014KT 5SM -SHSN DRSN OVC009 M17/ RMK SC8

CYQR;2011-01-03 17:00;CYQR 031700Z 29014KT 3SM -SHSN DRSN OVC011 M18/M21 A3000 RMK SC8 SLP211

CYQR;2011-01-03 18:00;CYQR 031800Z 30012KT 5SM -SHSN DRSN BKN011 M18/M22 A2999 RMK SC7 OCNL BLSN SLP209

CYQR;2011-01-03 19:00;CYQR 031900Z 30013KT 6SM -SHSN DRSN OVC013 M18/M22 A2997 RMK SC8 SLP203

CYQR;2011-01-03 20:00;CYQR 032000Z 28011KT 5SM -SHSN DRSN OVC013 M18/M22 A2995 RMK SC8 SLP198

CYQR;2011-01-03 21:00;CYQR 032100Z 30013KT 15SM -SHSN DRSN OVC013 M17/M21 A2994 RMK SC7 SLP192

CYQR;2011-01-03 22:00;CYQR 032200Z 30009KT 15SM FEW011 FEW240 M18/M22 A2993 RMK SC2CI0 SLP190

CYQR;2011-01-03 23:00;CYQR 032300Z 29009KT 15SM FEW010 FEW240 M21/M25 A2995 RMK SC1CI1 SLP194

CYQR;2011-01-04 00:00;CYQR 040000Z 28006KT 15SM FEW240 M22/M26 A2993 RMK CI1 SLP194

CYQR;2011-01-04 01:00;CYQR 040100Z 26004KT 15SM SKC M24/M28 A2991 RMK SLP188

CYQR;2011-01-04 02:00;CYQR 040200Z 25006KT 15SM FEW010 M24/M28 A2991 RMK SC1 SLP188

CYQR;2011-01-04 03:00;CYQR 040300Z 17005KT 15SM FEW010 M23/M28 A2989 RMK SC1 SLP179

CYQR;2011-01-04 04:00;CYQR 040400Z 17005KT 15SM BKN053 M21/M25 A2988 RMK SC6 SLP176

CYQR;2011-01-04 05:00;CYQR 040500Z 15008KT 15SM OVC051 M18/M22 A2985 RMK SC8 SLP168

CYQR;2011-01-04 05:34;CYQR 040534Z 16007KT 15SM -SN OVC038 M17/ RMK SC8

CYQR;2011-01-04 06:00;CYQR 040600Z 16007KT 15SM -SN OVC038 M17/M21 A2983 RMK SC8 SLP157

CYQR;2011-01-04 07:00;CYQR 040700Z 14006KT 15SM -SN OVC016 M15/M19 A2981 RMK SC8 SLP148

CYQR;2011-01-04 08:00;CYQR 040800Z 13007KT 15SM -SN OVC014 M15/M19 A2978 RMK SC8 SLP139

CYQR;2011-01-04 09:00;CYQR 040900Z 14008KT 15SM -SN BKN015 OVC054 M15/M19 A2976 RMK SC5SC3 SLP127

CYQR;2011-01-04 10:00;CYQR 041000Z 16006KT 15SM -SN FEW015 OVC050 M13/M15 A2974 RMK SC2SC6 SLP123

CYQR;2011-01-04 11:00;CYQR 041100Z 22004KT 15SM -SN OVC046 M11/M14 A2973 RMK SC8 SLP120

CYQR;2011-01-04 11:52;CYQR 041152Z 28011KT 15SM BKN046 OVC087 M09/ RMK SC7AC1

CYQR;2011-01-04 12:00;CYQR 041200Z 28011KT 15SM BKN046 OVC087 M09/M13 A2972 RMK SC7AC1 SLP115

CYQR;2011-01-04 13:00;CYQR 041300Z 28011KT 15SM SCT044 M12/M15 A2973 RMK SC3 SLP118

CYQR;2011-01-04 14:00;CYQR 041400Z 29011KT 15SM FEW040 BKN250 M14/M17 A2973 RMK SC1CI0 SLP118

CYQR;2011-01-04 15:00;CYQR 041500Z 30008KT 15SM BKN030 BKN250 M12/M15 A2973 RMK SC7CI1 SLP122

CYQR;2011-01-04 16:00;CYQR 041600Z 27007KT 15SM BKN030 OVC095 M10/M13 A2974 RMK SC6AC2 SLP123

CYQR;2011-01-04 17:00;CYQR 041700Z 28006KT 15SM BKN012 BKN030 OVC095 M10/M13 A2973 RMK SC2SC5AC1 SLP122

CYQR;2011-01-04 18:00;CYQR 041800Z 27006KT 15SM OVC008 M08/M11 A2972 RMK SC8 SLP111

CYQR;2011-01-04 18:35;CYQR 041835Z 28005KT 10SM OVC004 M08/ RMK SC8 BR

CYQR;2011-01-04 19:00;CYQR 041900Z 28005KT 10SM -SN OVC004 M07/M09 A2971 RMK SC8 SLP105

CYQR;2011-01-04 19:48;CYQR 041948Z 28006KT 5SM BR SCT004 OVC008 M06/ RMK SF4SC4

CYQR;2011-01-04 20:00;CYQR 042000Z 28009KT 12SM FEW004 OVC008 M06/M08 A2969 RMK SF2SC6 SLP099

CYQR;2011-01-04 21:00;CYQR 042100Z 30015KT 15SM DRSN OVC007 M07/M09 A2968 RMK SC8 SLP095

CYQR;2011-01-04 22:00;CYQR 042200Z CCA 31012KT 15SM DRSN OVC008 M07/M10 A2969 RMK SC8 SLP097

CYQR;2011-01-04 23:00;CYQR 042300Z 30005KT 15SM -SN OVC008 M07/M10 A2969 RMK SC8 SLP097

CYQR;2011-01-04 23:26;CYQR 042326Z 30005KT 12SM -SN OVC012 M07/ RMK SC8

CYQR;2011-01-05 00:00;CYQR 050000Z 30003KT 12SM -SN BKN014 OVC088 M08/M10 A2968 RMK SC7AC1 SLP090

CYQR;2011-01-05 01:00;CYQR 050100Z 21002KT 12SM -SN SCT014 OVC079 M07/M10 A2967 RMK SC4AC4 SLP086

CYQR;2011-01-05 02:00;CYQR 050200Z 23003KT 10SM -SN OVC044 M07/M09 A2965 RMK SC8 SLP080

CYQR;2011-01-05 02:38;CYQR 050238Z 25004KT 3SM -SN OVC015 M07/ RMK SN3SC5

CYQR;2011-01-05 03:00;CYQR 050300Z 24006KT 10SM -SN OVC015 M06/M08 A2963 RMK SC8 SLP072

CYQR;2011-01-05 04:00;CYQR 050400Z 28008KT 3SM -SN OVC014 M05/M07 A2963 RMK SN3SC5 SLP072

CYQR;2011-01-05 04:35;CYQR 050435Z 29009KT 6SM -SN OVC018 M05/ RMK SC8

CYQR;2011-01-05 05:00;CYQR 050500Z 30010KT 4SM -SN OVC018 M05/M07 A2963 RMK SC8 SLP074

CYQR;2011-01-05 05:04;CYQR 050504Z 30011KT 1 1/2SM -SN DRSN VV005 M05/ RMK SN8

CYQR;2011-01-05 05:18;CYQR 050518Z 30010KT 2SM -SN DRSN OVC007 M05/ RMK SN4SC4

CYQR;2011-01-05 05:33;CYQR 050533Z 29008KT 3SM -SN DRSN OVC009 M05/ RMK SN1SC7

CYQR;2011-01-05 05:49;CYQR 050549Z 29007KT 8SM -SN BKN010 OVC090 M06/ RMK SC6AC2

CYQR;2011-01-05 06:00;CYQR 050600Z 29009KT 10SM -SN BKN010 OVC090 M06/M07 A2963 RMK SC6AC2 SLP070

CYQR;2011-01-05 06:32;CYQR 050632Z 29008KT 12SM -SN OVC012 M06/ RMK SC8

CYQR;2011-01-05 06:53;CYQR 050653Z 32011KT 10SM -SN DRSN OVC009 M05/ RMK SC8

CYQR;2011-01-05 07:00;CYQR 050700Z 32010G15KT 10SM -SN DRSN OVC009 M05/M07 A2964 RMK SC8 SLP073

CYQR;2011-01-05 08:00;CYQR 050800Z 32010KT 15SM -SN DRSN OVC007 M05/M07 A2965 RMK SC8 SLP076

CYQR;2011-01-05 09:00;CYQR 050900Z 30007KT 15SM OVC007 M06/M09 A2966 RMK SC8 SLP082

CYQR;2011-01-05 10:00;CYQR 051000Z 34007KT 15SM OVC005 M07/M09 A2968 RMK SC8 SLP088

CYQR;2011-01-05 10:28;CYQR 051028Z 35010KT 15SM OVC003 M07/ RMK SC8

CYQR;2011-01-05 11:00;CYQR 051100Z 34006KT 15SM OVC004 M08/M09 A2971 RMK SC8 SLP095

CYQR;2011-01-05 12:00;CYQR 051200Z 32007KT 15SM -SN OVC003 M08/M09 A2971 RMK SC8 SLP100

CYQR;2011-01-05 12:35;CYQR 051235Z 36010KT 12SM OVC003 M07/ RMK SC8

CYQR;2011-01-05 13:00;CYQR 051300Z 36007KT 12SM OVC003 M07/M09 A2972 RMK SC8 SLP103

CYQR;2011-01-05 13:34;CYQR 051334Z 30004KT 12SM -SN BKN003 M07/ RMK SC7

CYQR;2011-01-05 14:00;CYQR 051400Z 27005KT 15SM -SN OVC004 M08/M10 A2973 RMK SC8 SLP106

CYQR;2011-01-05 14:37;CYQR 051437Z 25005KT 12SM OVC004 M08/ RMK SC8

CYQR;2011-01-05 15:00;CYQR 051500Z 25006KT 12SM OVC004 M08/M10 A2975 RMK ST8 SLP113

CYQR;2011-01-05 15:33;CYQR 051533Z 25005KT 15SM OVC003 M08/ RMK ST8

CYQR;2011-01-05 16:00;CYQR 051600Z 26004KT 15SM OVC003 M08/M10 A2976 RMK ST8 SLP115

CYQR;2011-01-05 16:33;CYQR 051633Z 26005KT 2SM BR OVC003 M08/ RMK ST8

CYQR;2011-01-05 16:53;CYQR 051653Z 25006KT 1SM R13/P6000FT/U BR OVC002 M08/ RMK ST8

CYQR;2011-01-05 17:00;CYQR 051700Z 22005KT 3/4SM R13/3500VP6000FT/D BR VV001 M08/M10 A2976 RMK FG8 SLP115

CYQR;2011-01-05 17:33;CYQR 051733Z 24008KT 1/2SM R13/2400FT/N -SN FZFG VV001 M08/ RMK FG8

CYQR;2011-01-05 17:47;CYQR 051747Z 24007KT 1/4SM R13/2200FT/N -SN FZFG VV001 M08/ RMK FG8

CYQR;2011-01-05 18:00;CYQR 051800Z 23006KT 3/8SM R13/2600FT/N FZFG VV001 M07/M09 A2976 RMK FG8 VIS VRB 1/4 - 1/2 SLP116

CYQR;2011-01-05 18:35;CYQR 051835Z 22007KT 1SM R13/3500FT/U BR OVC001 RMK FG2SC6 SUN DMLY VSBL

CYQR;2011-01-05 18:48;CYQR 051848Z CCA 20006KT 2SM BR BKN003 OVC015 M07/ RMK SC6SC2

CYQR;2011-01-05 19:00;CYQR 051900Z 20008KT 2 1/2SM -SN BR BKN003 OVC015 M07/M08 A2974 RMK SC3SC4 SLP109

CYQR;2011-01-05 19:38;CYQR 051938Z 19009KT 4SM -SN BR BKN006 OVC018 M06/ RMK SF2SC6

CYQR;2011-01-05 20:00;CYQR 052000Z 18008KT 5SM -SN BR BKN014 OVC030 M06/M08 A2972 RMK SC7SC1 SLP103

CYQR;2011-01-05 21:00;CYQR 052100Z 17006KT 5SM -SN BR BKN019 OVC039 M06/M08 A2971 RMK SC7SC1 SLP098

CYQR;2011-01-05 21:33;CYQR 052133Z 18006KT 10SM BKN006 OVC039 M06/ RMK SF5SC3

CYQR;2011-01-05 22:00;CYQR 052200Z 19006KT 12SM SCT005 OVC011 M05/M07 A2971 RMK SF2SC6 SLP097

CYQR;2011-01-05 22:17;CYQR 052217Z 19004KT 12SM OVC005 M05/ RMK ST8

CYQR;2011-01-05 23:00;CYQR 052300Z 17005KT 12SM OVC004 M04/M06 A2971 RMK ST8 SLP095

CYQR;2011-01-05 23:50;CYQR 052350Z 19004KT 10SM OVC003 M04/ RMK ST8

CYQR;2011-01-06 00:00;CYQR 060000Z 19003KT 12SM BKN003 OVC040 M04/M05 A2971 RMK SF7SC1 SLP095

CYQR;2011-01-06 00:43;CYQR 060043Z 28006KT 10SM BKN010 OVC028 M02/ RMK SC7SC1

CYQR;2011-01-06 01:00;CYQR 060100Z 28013KT 12SM BKN010 OVC028 M01/M01 A2970 RMK SF6SC2 SLP091

CYQR;2011-01-06 01:12;CYQR 060112Z 28013KT 12SM SCT010 BKN018 OVC028 M00/ RMK SF3SC3SC2

CYQR;2011-01-06 01:49;CYQR 060149Z 29016KT 15SM OVC014 M01/ RMK SC8

CYQR;2011-01-06 02:00;CYQR 060200Z 29013G18KT 15SM OVC014 M01/M02 A2971 RMK SC8 SLP094

CYQR;2011-01-06 02:44;CYQR 060244Z 27010KT 15SM SCT014 SCT019 BKN200 M05/ RMK SC2SC1CI1

CYQR;2011-01-06 03:00;CYQR 060300Z 28011KT 15SM FEW014 FEW019 SCT200 M06/M08 A2970 RMK SC1SC1CI1 SLP094

CYQR;2011-01-06 04:00;CYQR 060400Z 29013KT 15SM SKC M06/M09 A2970 RMK SLP093

CYQR;2011-01-06 05:00;CYQR 060500Z 30013KT 15SM SKC M07/M10 A2971 RMK SLP097

CYQR;2011-01-06 06:00;CYQR 060600Z 29013KT 15SM SKC M09/M12 A2972 RMK SLP105

CYQR;2011-01-06 07:00;CYQR 060700Z 30012KT 15SM FEW020 M11/M13 A2974 RMK SC1 SLP109

CYQR;2011-01-06 07:27;CYQR 060727Z 31006KT 15SM SCT008 BKN011 M10/ RMK SF3SC2

CYQR;2011-01-06 07:35;CYQR 060735Z 34002KT 15SM BKN008 OVC011 M10/ RMK SC5SC2

CYQR;2011-01-06 08:00;CYQR 060800Z 31005KT 15SM OVC006 M10/M12 A2973 RMK SF8 CIG RAG SLP108

CYQR;2011-01-06 08:15;CYQR 060815Z 31004KT 15SM OVC004 M09/ RMK SF8

CYQR;2011-01-06 08:23;CYQR 060823Z 32006KT 15SM OVC002 M09/ RMK ST8

CYQR;2011-01-06 09:00;CYQR 060900Z 29005KT 3SM BR OVC001 M08/M10 A2975 RMK ST8 SLP112

CYQR;2011-01-06 09:18;CYQR 060918Z 26006KT 2SM BR VV001 M09/ RMK FG8

CYQR;2011-01-06 09:45;CYQR 060945Z 27003KT 3/4SM R13/1800FT/N BR VV001 M07/ RMK FG8

CYQR;2011-01-06 09:50;CYQR 060950Z 31003KT 1/2SM R13/1800FT/N FZFG VV001 M07/ RMK FG8

CYQR;2011-01-06 10:00;CYQR 061000Z 30002KT 3/8SM R13/1800FT/N FZFG VV001 M07/M09 A2976 RMK FG8 VIS VAR 1/4-1/2 SLP113

CYQR;2011-01-06 11:00;CYQR 061100Z 00000KT 3/8SM R13/2400FT/N FZFG VV001 M06/M08 A2975 RMK FG8 VIS VAR 1/4-1/2 SLP112

CYQR;2011-01-06 12:00;CYQR 061200Z 21003KT 3/8SM R13/2200FT/N FZFG VV001 M07/M08 A2975 RMK FG8 VIS VAR 1/4-1/2 FROIN SLP108

CYQR;2011-01-06 13:00;CYQR 061300Z 22004KT 3/8SM R13/2000FT/N FZFG VV001 M08/M09 A2976 RMK FG8 VIS VRB 1/4-1/2 SLP111

CYQR;2011-01-06 13:32;CYQR 061332Z 00000KT 2SM BR OVC001 M08/ RMK ST8

CYQR;2011-01-06 13:39;CYQR 061339Z 00000KT 3SM BR OVC001 M08/ RMK ST8

CYQR;2011-01-06 13:49;CYQR 061349Z 00000KT 4SM BR SCT001 OVC030 M08/ RMK ST3SC5

CYQR;2011-01-06 14:00;CYQR 061400Z 22004KT 5SM BR SCT001 OVC030 M08/M09 A2976 RMK ST3SC5 SLP111

CYQR;2011-01-06 14:30;CYQR 061430Z 19004KT 15SM SCT003 OVC035 M08/ RMK SF2SC6

CYQR;2011-01-06 15:00;CYQR 061500Z 14006KT 12SM OVC035 M08/M09 A2971 RMK SC8 SLP098

CYQR;2011-01-06 16:00;CYQR 061600Z 16004KT 12SM FEW035 OVC065 M08/M09 A2971 RMK SC2SC6 SLP097

CYQR;2011-01-06 17:00;CYQR 061700Z 14005KT 15SM FEW035 BKN073 OVC250 M07/M09 A2971 RMK SC2AC5CI1 SLP096

CYQR;2011-01-06 18:00;CYQR 061800Z 14006KT 15SM BKN066 OVC089 M07/M09 A2969 RMK AC6AC2 SLP091

CYQR;2011-01-06 19:00;CYQR 061900Z 18007KT 15SM BKN076 OVC250 M07/M08 A2967 RMK AC7CI1 SLP086

CYQR;2011-01-06 20:00;CYQR 062000Z 28003KT 15SM FEW026 SCT048 OVC082 M06/M07 A2969 RMK SC2SC2AC4 SLP093

CYQR;2011-01-06 20:15;CYQR 062015Z 30005KT 12SM -SN BKN023 OVC048 M05/ RMK SC6SC2

CYQR;2011-01-06 20:23;CYQR 062023Z 31009KT 1SM R13/P6000FT/D -SN BKN010 OVC057 M05/ RMK SC5SC3

CYQR;2011-01-06 20:28;CYQR 062028Z 32013KT 3/4SM R13/P6000FT/D -SN BKN006 OVC057 M04/ RMK SN2SF4SC2

CYQR;2011-01-06 20:40;CYQR 062040Z 33019KT 5/8SM R13/5000FT/D -SN DRSN OVC006 M03/ RMK SN5SF3 VIS VRB 1/2-3/4

CYQR;2011-01-06 21:00;CYQR 062100Z 34017G22KT 5/8SM R13/5500FT/N -SN DRSN BKN008 OVC032 M03/M04 A2971 RMK SN5SF2SC2 VIS VRB 1/2 - 3/4 SLP094

CYQR;2011-01-06 21:43;CYQR 062143Z 36008G15KT 2SM -SN DRSN FEW003 OVC045 M03/ RMK SF2SC6

CYQR;2011-01-06 21:47;CYQR 062147Z 36007KT 8SM -SN SCT003 OVC045 M03/ RMK SF1SC7

CYQR;2011-01-06 22:00;CYQR 062200Z 00000KT 12SM -SN FEW003 OVC045 M03/M04 A2968 RMK SF1SC7 SLP086

CYQR;2011-01-06 22:15;CYQR 062215Z 31008KT 12SM FEW003 BKN045 M03/ RMK SF1SC7

CYQR;2011-01-06 22:22;CYQR 062222Z 30013KT 10SM BKN007 OVC045 M03/ RMK SF5SC3 SF INVDG RPDLY FM N

CYQR;2011-01-06 22:45;CYQR 062245Z 28012KT 12SM SCT008 BKN050 M03/ RMK SF2SC2

CYQR;2011-01-06 23:00;CYQR 062300Z 28013KT 12SM FEW006 BKN055 M04/M05 A2972 RMK SF0SC2 SLP098

CYQR;2011-01-07 00:00;CYQR 070000Z 28021KT 15SM FEW098 M03/M05 A2972 RMK AC2 SLP099

CYQR;2011-01-07 01:00;CYQR 070100Z 30018KT 15SM FEW100 M04/M07 A2973 RMK AC1 SLP102

CYQR;2011-01-07 02:00;CYQR 070200Z 31020KT 15SM SKC M05/M07 A2974 RMK SLP105

CYQR;2011-01-07 03:00;CYQR 070300Z 31021G26KT 15SM SKC M05/M07 A2975 RMK SLP109

CYQR;2011-01-07 04:00;CYQR 070400Z 30022KT 10SM DRSN OVC044 M04/M06 A2976 RMK SC8 SLP112

CYQR;2011-01-07 04:31;CYQR 070431Z 32025KT 6SM -SN DRSN OVC037 M03/ RMK SC8

CYQR;2011-01-07 05:00;CYQR 070500Z 32026KT 4SM -SN BLSN OVC033 M03/M05 A2978 RMK SC8 SLP120

CYQR;2011-01-07 06:00;CYQR 070600Z 32024KT 6SM -SN BLSN OVC017 M03/M05 A2981 RMK SC8 SLP131

CYQR;2011-01-07 07:00;CYQR 070700Z 33022KT 10SM -SN DRSN OVC011 M03/M04 A2985 RMK SC8 SLP142

CYQR;2011-01-07 08:00;CYQR 070800Z 34025G31KT 10SM -SN DRSN OVC010 M02/M04 A2987 RMK SC8 SLP150

CYQR;2011-01-07 09:00;CYQR 070900Z 35018G24KT 12SM -SN DRSN BKN008 OVC025 M02/M04 A2992 RMK SC6SC2 SLP164

CYQR;2011-01-07 10:00;CYQR 071000Z 35018G24KT 15SM DRSN BKN008 OVC024 M04/M07 A2997 RMK SC6SC2 SLP179

CYQR;2011-01-07 10:10;CYQR 071010Z 34019KT 15SM DRSN SCT008 BKN012 OVC024 M05/ RMK SF3SC3SC2

CYQR;2011-01-07 11:00;CYQR 071100Z 34022KT 15SM DRSN SCT009 OVC014 M06/M08 A2999 RMK SF4SC4 SLP186

CYQR;2011-01-07 12:00;CYQR 071200Z 34021KT 15SM DRSN SCT008 OVC014 M09/M11 A3002 RMK SF4SC4 SLP202

CYQR;2011-01-07 12:36;CYQR 071236Z 36015G22KT 15SM DRSN BKN009 OVC014 M09/ RMK SF6SC2

CYQR;2011-01-07 13:00;CYQR 071300Z 01012KT 15SM BKN008 OVC012 M10/M13 A3005 RMK SF6SC2 SLP214

CYQR;2011-01-07 13:16;CYQR 071316Z 36015KT 15SM SCT008 OVC014 M10/ RMK SF3SC5

CYQR;2011-01-07 13:48;CYQR 071348Z 01014KT 15SM BKN008 OVC014 M11/ RMK SF6SC2

CYQR;2011-01-07 14:00;CYQR 071400Z 01011KT 15SM BKN007 OVC014 M11/M14 A3006 RMK SF7SC1 SLP217

CYQR;2011-01-07 15:00;CYQR 071500Z 36007KT 15SM BKN008 OVC019 M11/M14 A3006 RMK SC6SC2 SLP222

CYQR;2011-01-07 15:14;CYQR 071514Z 35008KT 15SM SCT007 OVC019 M12/ RMK SC4SC4

CYQR;2011-01-07 15:42;CYQR 071542Z 35007KT 15SM BKN007 OVC019 M12/ RMK SC6SC2

CYQR;2011-01-07 16:00;CYQR 071600Z 35005KT 15SM BKN007 OVC017 M12/M14 A3007 RMK SC6SC2 SLP225

CYQR;2011-01-07 17:00;CYQR 071700Z 35008KT 15SM SCT007 OVC018 M12/M14 A3007 RMK SC4SC4 SLP225

CYQR;2011-01-07 18:00;CYQR 071800Z 35005KT 15SM FEW007 BKN015 OVC095 M12/M14 A3008 RMK SC1SC7AC1 SLP226

CYQR;2011-01-07 19:00;CYQR 071900Z 32005KT 15SM BKN015 OVC095 M11/M14 A3006 RMK SC7AC1 SLP219

CYQR;2011-01-07 19:22;CYQR 071922Z 34004KT 15SM FEW003 OVC015 M11/ RMK SF1SC8

CYQR;2011-01-07 20:00;CYQR 072000Z 34007KT 15SM FEW005 OVC015 M11/M14 A3004 RMK SF0SC8 SLP213

CYQR;2011-01-07 21:00;CYQR 072100Z 36004KT 15SM FEW005 OVC017 M11/M14 A3002 RMK SF1SC7 SLP203

CYQR;2011-01-07 21:12;CYQR 072112Z 35003KT 15SM OVC013 M10/ RMK SC8

CYQR;2011-01-07 22:00;CYQR 072200Z 03006KT 15SM OVC009 M10/M13 A3002 RMK SC8 SLP205

CYQR;2011-01-07 23:00;CYQR 072300Z 03007KT 15SM OVC007 M10/M13 A3003 RMK ST8 SLP208

CYQR;2011-01-08 00:00;CYQR 080000Z 06009KT 15SM BKN005 OVC013 M11/M13 A3000 RMK SF7SC1 SLP202

CYQR;2011-01-08 00:22;CYQR 080022Z 05006KT 15SM BKN006 OVC019 M11/ RMK SF6SC2

CYQR;2011-01-08 01:00;CYQR 080100Z 06004KT 15SM BKN005 BKN020 OVC095 M11/M14 A3000 RMK SF2SC3AC2 SLP201

CYQR;2011-01-08 01:09;CYQR 080109Z 09005KT 15SM FEW006 SCT020 BKN093 M12/ RMK SF1SC2AC3

CYQR;2011-01-08 02:00;CYQR 080200Z 08006KT 15SM FEW006 BKN094 M12/M15 A2997 RMK SC1AC3 SLP193

CYQR;2011-01-08 03:00;CYQR 080300Z 09006KT 15SM FEW006 BKN095 M14/M16 A2996 RMK SC1AC3 SLP192

CYQR;2011-01-08 04:00;CYQR 080400Z 12004KT 15SM FEW006 OVC100 M14/M16 A2995 RMK SC1AC6 SLP190

CYQR;2011-01-08 05:00;CYQR 080500Z 12006KT 15SM OVC100 M14/M16 A2993 RMK AC8 SLP184

CYQR;2011-01-08 06:00;CYQR 080600Z 14005KT 15SM OVC100 M15/M17 A2991 RMK AC8 SLP176

CYQR;2011-01-08 07:00;CYQR 080700Z 14005KT 15SM OVC100 M14/M18 A2990 RMK AC8 SLP172

CYQR;2011-01-08 08:00;CYQR 080800Z 15007KT 15SM OVC100 M14/M18 A2989 RMK AC8 SLP168

CYQR;2011-01-08 09:00;CYQR 080900Z 15005KT 15SM SCT015 OVC100 M14/M18 A2990 RMK SC2AC6 SLP170

CYQR;2011-01-08 09:20;CYQR 080920Z 16005KT 15SM SCT006 OVC100 M14/ RMK ST2AC6

CYQR;2011-01-08 09:33;CYQR 080933Z 15006KT 15SM BKN006 OVC100 M14/ RMK ST5AC3

CYQR;2011-01-08 10:00;CYQR 081000Z 13008KT 15SM OVC006 M14/M17 A2990 RMK ST8 SLP170

CYQR;2011-01-08 10:32;CYQR 081032Z 14008KT 15SM -SN OVC006 M13/ RMK ST8

CYQR;2011-01-08 11:00;CYQR 081100Z 13009KT 15SM -SN BKN007 OVC011 M13/M16 A2988 RMK ST6SC2 SLP166

CYQR;2011-01-08 11:23;CYQR 081123Z 13012KT 15SM -SN OVC005 M13/ RMK ST8

CYQR;2011-01-08 12:00;CYQR 081200Z 13014KT 12SM -SN BKN005 OVC010 M12/M15 A2987 RMK ST6SC2 SLP159

CYQR;2011-01-08 13:00;CYQR 081300Z 14016KT 8SM -SN DRSN OVC004 M12/M14 A2986 RMK ST8 SLP158

CYQR;2011-01-08 13:12;CYQR 081312Z 14014G21KT 12SM -SN DRSN FEW004 OVC008 M12/ RMK SF2ST6

CYQR;2011-01-08 13:42;CYQR 081342Z 12015KT 12SM -SN DRSN OVC010 M12/ RMK SC8

CYQR;2011-01-08 14:00;CYQR 081400Z 13017KT 2 1/2SM -SN DRSN OVC010 M12/M15 A2986 RMK SC8 SLP157

CYQR;2011-01-08 15:00;CYQR 081500Z 13017KT 2SM -SN DRSN OVC012 M12/M15 A2988 RMK SC8 SLP164

CYQR;2011-01-08 15:18;CYQR 081518Z 13018KT 3/4SM R13/P6000FT/D -SN DRSN VV007 M12/ RMK SN8

CYQR;2011-01-08 15:40;CYQR 081540Z 13017KT 5/8SM R13/P6000FT/D -SN DRSN VV006 M12/ RMK SN8 VIS VRB 1/2-3/4

CYQR;2011-01-08 16:00;CYQR 081600Z 14016KT 5/8SM R13/P6000FT/D -SN DRSN VV005 M12/M14 A2989 RMK SN8 VIS VRB 1/2-3/4 SLP167

CYQR;2011-01-08 17:00;CYQR 081700Z 13019G24KT 3/4SM R13/3500V5500FT/N -SN DRSN VV007 M12/M14 A2989 RMK SN8 VIS VRB 1/2-1 SLP168

CYQR;2011-01-08 17:36;CYQR 081736Z 12019KT 3/4SM R13/5000FT/D -SN DRSN VV005 M12/ RMK SN8 VIS VRB 1/2-1

CYQR;2011-01-08 18:00;CYQR 081800Z 13021KT 5/8SM R13/3500V5500FT/U -SN BLSN VV005 M13/M15 A2989 RMK SN8 /S02/ SLP170

CYQR;2011-01-08 18:10;CYQR 081810Z 13021G26KT 5/8SM R13/3500V5000FT/N -SN BLSN OVC068 M13/ RMK SN5AC3

CYQR;2011-01-08 19:00;CYQR 081900Z 13021G26KT 3/4SM R13/5000FT/N -SN BLSN VV006 M13/M16 A2987 RMK SN8 SLP165

CYQR;2011-01-08 19:38;CYQR 081938Z 13020KT 1 1/2SM R13/4500VP6000FT/N -SN BLSN VV006 M13/ RMK SN8

CYQR;2011-01-08 20:00;CYQR 082000Z 13022G27KT 2SM -SN BLSN OVC070 M13/M16 A2986 RMK SN3AC5 SLP160

CYQR;2011-01-08 21:00;CYQR 082100Z CCA 13019G25KT 2SM R13/4500VP6000FT/U -SN BLSN OVC070 M13/M16 A2987 RMK BLSN3AC5 /S01/ SLP162

CYQR;2011-01-08 22:00;CYQR 082200Z 12021G27KT 2 1/2SM -SN BLSN OVC062 M14/M16 A2988 RMK SC8 SLP166

CYQR;2011-01-08 22:30;CYQR 082230Z 12021KT 4SM -SN BLSN OVC062 M14/ RMK SC8 VIS SW-NW 2

CYQR;2011-01-08 23:00;CYQR 082300Z 12018G25KT 6SM -SN BLSN FEW006 OVC095 M14/M17 A2989 RMK SF1AC7 VIS SW-NW 3 SLP170

CYQR;2011-01-09 00:00;CYQR 090000Z 12017G26KT 8SM -SN DRSN FEW006 BKN029 OVC073 M14/M17 A2990 RMK SF1SC4AC3 SLP172

CYQR;2011-01-09 01:00;CYQR 090100Z 13018G27KT 5SM -SN DRSN FEW006 OVC031 M14/M17 A2992 RMK SF1SC7 SLP180

CYQR;2011-01-09 01:35;CYQR 090135Z 13018G24KT 2SM -SN DRSN OVC015 M14/ RMK SC8

CYQR;2011-01-09 01:40;CYQR 090140Z 13018KT 1 1/2SM -SN DRSN OVC015 M14/ RMK SC8 VIS VRB 1-2

CYQR;2011-01-09 02:00;CYQR 090200Z 12018KT 1SM R13/P6000FT/U -SN DRSN VV005 M14/M17 A2993 RMK SN8 SLP183

CYQR;2011-01-09 02:15;CYQR 090215Z 13018KT 1 1/2SM -SN DRSN OVC015 M15/ RMK SC8 VIS VRB 1-2

CYQR;2011-01-09 03:00;CYQR 090300Z 13019G24KT 2 1/2SM -SN DRSN OVC012 M15/M18 A2993 RMK SC8 VISVRB 2-3 SLP184

CYQR;2011-01-09 04:00;CYQR 090400Z 12019G25KT 2SM -SN DRSN OVC012 M15/M18 A2993 RMK SC8 VIS VRB 1-3 SLP182

CYQR;2011-01-09 04:32;CYQR 090432Z 12020KT 4SM -SN DRSN OVC011 M15/ RMK SC8

CYQR;2011-01-09 05:00;CYQR 090500Z 12019KT 4SM -SN DRSN OVC011 M15/M18 A2994 RMK SC8 SLP185

CYQR;2011-01-09 05:34;CYQR 090534Z 13019G24KT 2 1/2SM -SN DRSN OVC011 M15/ RMK SC8 VIS VRB 2-3

CYQR;2011-01-09 05:41;CYQR 090541Z 13018G24KT 1 1/2SM -SN DRSN OVC011 M15/ RMK SC8 VIS VRB 1-2

CYQR;2011-01-09 05:51;CYQR 090551Z 13020G25KT 3/4SM R13/P6000FT/N -SN DRSN OVC011 M15/ RMK SC8

CYQR;2011-01-09 06:00;CYQR 090600Z 13019G25KT 3/4SM R13/P6000FT/D -SN DRSN OVC005 M15/M18 A2996 RMK SC8 SLP194

CYQR;2011-01-09 07:00;CYQR 090700Z 13019G24KT 1SM R13/P6000FT/D -SN DRSN OVC008 M15/M18 A2997 RMK SC8 SLP197

CYQR;2011-01-09 07:43;CYQR 090743Z 12018KT 2SM -SN DRSN OVC008 M15/ RMK SC8

CYQR;2011-01-09 08:00;CYQR 090800Z 12016G24KT 2SM -SN DRSN OVC008 M15/M18 A2997 RMK SC8 SLP197

CYQR;2011-01-09 08:23;CYQR 090823Z 12020KT 4SM -SN DRSN OVC014 M15/ RMK SC8

CYQR;2011-01-09 09:00;CYQR 090900Z 13019KT 8SM -SN DRSN OVC016 M15/M19 A2998 RMK SC8 SLP201

CYQR;2011-01-09 09:28;CYQR 090928Z 13016KT 6SM -SN DRSN OVC013 M15/ RMK SC8

CYQR;2011-01-09 10:00;CYQR 091000Z 13019G24KT 6SM -SN DRSN OVC016 M15/M18 A3000 RMK SC8 SLP208

CYQR;2011-01-09 11:00;CYQR 091100Z 13017KT 2SM -SN DRSN BKN008 OVC017 M15/M18 A3001 RMK ST5SC3 SLP212

CYQR;2011-01-09 12:00;CYQR 091200Z 13015KT 4SM -SN DRSN OVC010 M15/M18 A3002 RMK SC8 SLP218

CYQR;2011-01-09 13:00;CYQR 091300Z 12014KT 6SM -SN DRSN OVC012 M15/M18 A3001 RMK SC8 SLP215

CYQR;2011-01-09 14:00;CYQR 091400Z 13018KT 5SM -SN DRSN OVC014 M15/M18 A3004 RMK SC8 SLP222

CYQR;2011-01-09 14:45;CYQR 091445Z 13017KT 2 1/2SM -SN DRSN BKN014 OVC068 M15/ RMK SC6AC2

CYQR;2011-01-09 15:00;CYQR 091500Z 13017KT 3SM -SN DRSN BKN014 OVC068 M15/M18 A3005 RMK SC6AC2 SLP227

CYQR;2011-01-09 15:20;CYQR 091520Z 13014KT 1 3/4SM -SN DRSN OVC017 M15/ RMK SN2SC6

CYQR;2011-01-09 16:00;CYQR 091600Z 13017KT 1 1/2SM -SN DRSN OVC025 M15/M18 A3008 RMK SN2SC6 SLP236

CYQR;2011-01-09 16:42;CYQR 091642Z 12016KT 2SM -SN DRSN SCT008 OVC025 M15/ RMK SF3SC5

CYQR;2011-01-09 17:00;CYQR 091700Z 13015KT 2SM -SN DRSN SCT008 OVC025 M15/M18 A3010 RMK SF3SC5 SLP242

CYQR;2011-01-09 17:11;CYQR 091711Z 13015KT 1 1/2SM -SN DRSN VV010 M15/ RMK SN8

CYQR;2011-01-09 18:00;CYQR 091800Z 13014G19KT 1 1/2SM -SN DRSN VV012 M15/M18 A3010 RMK SN8 SLP245

CYQR;2011-01-09 19:00;CYQR 091900Z 12014KT 2SM -SN DRSN OVC068 M15/M18 A3010 RMK SN6AC2 SLP244

CYQR;2011-01-09 20:00;CYQR 092000Z 12014G19KT 2 1/2SM -SN DRSN SCT006 OVC068 M15/M18 A3010 RMK SF3AC5 SLP245

CYQR;2011-01-09 21:00;CYQR 092100Z 12012KT 2 1/2SM -SN DRSN SCT008 OVC033 M15/M18 A3012 RMK SF3SC5 SLP252

CYQR;2011-01-09 21:28;CYQR 092128Z 12012KT 2SM -SN DRSN FEW008 OVC036 M15/ RMK SF2SC6

CYQR;2011-01-09 22:00;CYQR 092200Z 11012G18KT 1 1/2SM -SN DRSN VV010 M15/M18 A3014 RMK SN8 SLP259

CYQR;2011-01-09 22:08;CYQR 092208Z 12013KT 2 1/2SM -SN DRSN OVC043 M15/ RMK SN5SC3

CYQR;2011-01-09 23:00;CYQR 092300Z 11014KT 2 1/2SM -SN DRSN OVC014 M15/M18 A3017 RMK SN3SC5 SLP267

CYQR;2011-01-10 06:00;CYQR 100600Z 11006KT 5SM -SN BKN005 M16/M19 A3025 RMK SF6 SLP297

CYQR;2011-01-10 06:21;CYQR 100621Z 10008KT 15SM SCT006 M16/ RMK SF2

CYQR;2011-01-10 07:00;CYQR 100700Z 09007KT 10SM BKN006 M16/M19 A3026 RMK SF4 SLP299

CYQR;2011-01-10 07:07;CYQR 100707Z 09007KT 12SM -SN OVC006 M16/ RMK SF7

CYQR;2011-01-10 08:00;CYQR 100800Z 10008KT 5SM -SN OVC017 M16/M20 A3027 RMK SC8 SLP303

CYQR;2011-01-10 09:00;CYQR 100900Z 09007KT 8SM -SN OVC019 M16/M19 A3029 RMK SC8 SLP312

CYQR;2011-01-10 10:00;CYQR 101000Z 11008KT 3SM -SN OVC013 M16/M19 A3031 RMK SC8 SLP318

CYQR;2011-01-10 11:00;CYQR 101100Z 09005KT 5SM -SN OVC010 M15/M18 A3031 RMK SC8 SLP318

CYQR;2011-01-10 12:00;CYQR 101200Z 07003KT 5SM -SN OVC009 M16/M19 A3032 RMK SC8 SLP323

CYQR;2011-01-10 13:00;CYQR 101300Z 09002KT 4SM -SN OVC008 M15/M18 A3033 RMK SC8 SLP324

CYQR;2011-01-10 14:00;CYQR 101400Z 10002KT 4SM -SN OVC020 M16/M19 A3034 RMK SN1SC6 SLP329

CYQR;2011-01-10 14:09;CYQR 101409Z 10003KT 5SM -SN BKN020 BKN085 M16/ RMK SC5AC1

CYQR;2011-01-10 14:28;CYQR 101428Z 11003KT 1 1/2SM -SN BKN020 OVC085 M16/ RMK SC6AC1

CYQR;2011-01-10 14:53;CYQR 101453Z 10003KT 1SM R13/P6000FT/D -SN SCT020 OVC045 M16/ RMK SN1SC3SC4

CYQR;2011-01-10 15:00;CYQR 101500Z 11004KT 1 1/2SM -SN SCT020 OVC045 M16/M19 A3036 RMK SN1SC3SC4 SLP335

CYQR;2011-01-10 15:13;CYQR 101513Z 09005KT 2 1/2SM -SN BKN020 OVC045 M16/ RMK SC5SC3

CYQR;2011-01-10 15:48;CYQR 101548Z 07003KT 4SM -SN SCT020 BKN045 OVC090 M16/ RMK SC4SC2AC2

CYQR;2011-01-10 16:00;CYQR 101600Z 06003KT 5SM -SN SCT020 BKN050 OVC090 M16/M19 A3037 RMK SC4SC2AC2 SLP339

CYQR;2011-01-10 17:00;CYQR 101700Z 03004KT 6SM -SN FEW020 BKN090 OVC250 M16/M20 A3037 RMK SC2AC2CI2 SLP338

CYQR;2011-01-10 18:00;CYQR 101800Z 04004KT 12SM -SN BKN050 BKN095 BKN250 A3038 RMK SC2AC1CI0

CYQR;2011-01-10 18:16;CYQR 101816Z 05004KT 15SM -SN BKN050 BKN095 BKN250 M18/M21 RMK SC2AC1CI0

CYQR;2011-01-10 19:00;CYQR 101900Z 02005KT 15SM SCT095 BKN250 M18/M22 A3036 RMK AC2CI1 SLP339

CYQR;2011-01-10 19:41;CYQR 101941Z 32006KT 15SM -SN BKN055 OVC090 M17/ RMK SC6AC1

CYQR;2011-01-10 20:00;CYQR 102000Z 33005KT 15SM -SN OVC035 M16/M20 A3037 RMK SC8 SLP339

CYQR;2011-01-10 21:00;CYQR 102100Z 02007KT 12SM -SN BKN021 OVC052 M15/M19 A3037 RMK SC6SC2 SLP339

CYQR;2011-01-10 21:13;CYQR 102113Z 02007KT 5SM -SN BKN014 OVC052 M15/ RMK SC5SC3

CYQR;2011-01-10 21:31;CYQR 102131Z 03008KT 2SM -SN BKN009 OVC052 M15/ RMK SC5SC3

CYQR;2011-01-10 22:00;CYQR 102200Z 04007KT 3SM -SN BKN011 BKN040 OVC085 M15/M19 A3039 RMK SC5SC2AC1 SLP345

CYQR;2011-01-10 23:00;CYQR 102300Z 36005KT 2 1/2SM -SN OVC012 M15/M18 A3040 RMK SC8 SLP349

CYQR;2011-01-10 23:17;CYQR 102317Z 36005KT 4SM -SN OVC016 M15/ RMK SC8

CYQR;2011-01-11 00:00;CYQR 110000Z 01007KT 8SM -SN BKN015 OVC090 M16/M19 A3040 RMK SC6AC2 SLP351

CYQR;2011-01-11 00:00;CYQR 110000Z 01007KT 8SM -SN BKN015 OVC090 M16/M19 A3040 RMK SC6AC2 SLP351

CYQR;2011-01-11 01:00;CYQR 110100Z 33008KT 10SM -SN SCT014 BKN080 M17/M20 A3041 RMK SC3AC2 SLP354

CYQR;2011-01-11 01:00;CYQR 110100Z 33008KT 10SM -SN SCT014 BKN080 M17/M20 A3041 RMK SC3AC2 SLP354

CYQR;2011-01-11 02:00;CYQR 110200Z 34005KT 8SM -SN SCT012 BKN100 M16/M19 A3042 RMK SC3AC2 SLP355

CYQR;2011-01-11 02:00;CYQR 110200Z 34005KT 8SM -SN SCT012 BKN100 M16/M19 A3042 RMK SC3AC2 SLP355

CYQR;2011-01-11 03:00;CYQR 110300Z 35005KT 12SM -SN SCT010 BKN100 M17/M20 A3042 RMK SC3AC1 SLP358

CYQR;2011-01-11 03:00;CYQR 110300Z 35005KT 12SM -SN SCT010 BKN100 M17/M20 A3042 RMK SC3AC1 SLP358

CYQR;2011-01-11 04:00;CYQR 110400Z 36006KT 12SM -SN OVC035 M17/M20 A3043 RMK SC8 SLP360

CYQR;2011-01-11 04:00;CYQR 110400Z 36006KT 12SM -SN OVC035 M17/M20 A3043 RMK SC8 SLP360

CYQR;2011-01-11 05:00;CYQR 110500Z 35005KT 14SM -SN OVC023 M17/M20 A3044 RMK SC8 SLP363

CYQR;2011-01-11 05:00;CYQR 110500Z 35005KT 14SM -SN OVC023 M17/M20 A3044 RMK SC8 SLP363

CYQR;2011-01-11 06:00;CYQR 110600Z 35006KT 10SM -SN OVC031 M16/M19 A3045 RMK SC8 SLP369

CYQR;2011-01-11 07:00;CYQR 110700Z 35007KT 15SM -SN FEW007 BKN019 M17/M20 A3045 RMK SF1SC6 SLP367

CYQR;2011-01-11 07:28;CYQR 110728Z 34007KT 6SM -SN BKN005 OVC071 M16/ RMK SF6AC2 CIG VRB 3-7

CYQR;2011-01-11 08:00;CYQR 110800Z 34007KT 12SM -SN FEW004 BKN025 OVC066 M17/M20 A3045 RMK SF1SC6AC1 SLP370

CYQR;2011-01-11 09:00;CYQR 110900Z 34008KT 8SM -SN BKN015 OVC068 M17/M19 A3047 RMK SC7AC1 SLP374

CYQR;2011-01-11 10:00;CYQR 111000Z 34008KT 15SM -SN OVC017 M17/M20 A3048 RMK SC8 SLP377

CYQR;2011-01-11 11:00;CYQR 111100Z 34008KT 13SM -SN OVC012 M17/M20 A3048 RMK SC8 SLP378

CYQR;2011-01-11 12:00;CYQR 111200Z 32008KT 12SM -SN BKN010 M18/M21 A3049 RMK SC7 SLP382

CYQR;2011-01-11 12:53;CYQR 111253Z 30006KT 12SM -SN OVC015 M20/ RMK SC8

CYQR;2011-01-11 13:00;CYQR 111300Z 30007KT 12SM -SN OVC015 M20/M23 A3050 RMK SC7 SLP387

CYQR;2011-01-11 14:00;CYQR 111400Z 31008KT 12SM -SN FEW003 SCT015 BKN090 M20/M23 A3051 RMK SF1SC2AC3 SLP390

CYQR;2011-01-11 14:26;CYQR 111426Z 33005KT 12SM -SN SCT022 OVC090 M19/ RMK SC2AC3

CYQR;2011-01-11 15:00;CYQR 111500Z 29005KT 8SM -SN BKN022 OVC067 M19/M22 A3052 RMK SC6AC2 SLP393

CYQR;2011-01-11 16:00;CYQR 111600Z 29005KT 8SM -SN BKN035 OVC070 M19/M22 A3054 RMK SC5AC2 SLP401

CYQR;2011-01-11 17:00;CYQR 111700Z 29005KT 8SM -SN BKN040 BKN080 M19/M22 A3054 RMK SC2AC1 SLP401

CYQR;2011-01-11 17:33;CYQR 111733Z 30007KT 12SM FEW080 BKN250 M19/ RMK AC1CI0 IC

CYQR;2011-01-11 18:00;CYQR 111800Z 31006KT 15SM FEW080 SCT250 M19/M22 A3055 RMK AC1CI1 IC SLP402

CYQR;2011-01-11 19:00;CYQR 111900Z 30007KT 15SM FEW085 SCT250 M19/M22 A3053 RMK AC1CI0 IC SLP398

CYQR;2011-01-11 20:00;CYQR 112000Z 31007KT 15SM FEW090 SCT250 M19/M23 A3053 RMK AC1CI0 SLP396

CYQR;2011-01-11 21:00;CYQR 112100Z 29007KT 15SM FEW009 SCT250 M20/M24 A3054 RMK SF1CI0 LWR CLD DIST SW SLP400

CYQR;2011-01-11 21:44;CYQR 112144Z 29005KT 15SM FEW009 FEW250 M20/ RMK SF1CI0 SF DIST S-SW

CYQR;2011-01-11 22:00;CYQR 112200Z 28005KT 15SM FEW009 FEW250 M21/M26 A3055 RMK SF1CI0 SF TR DIST S-SW SLP406

CYQR;2011-01-11 23:00;CYQR 112300Z 31006KT 15SM FEW012 FEW075 M22/M26 A3056 RMK SC1AC1 SLP409

CYQR;2011-01-12 00:00;CYQR 120000Z 00000KT 15SM FEW015 FEW085 M26/M30 A3055 RMK SC1AC1 SLP411

CYQR;2011-01-12 01:00;CYQR 120100Z 26006KT 15SM SKC M27/M32 A3056 RMK SLP413

CYQR;2011-01-12 02:00;CYQR 120200Z 31002KT 15SM SKC M27/M31 A3056 RMK SLP413

CYQR;2011-01-12 03:00;CYQR 120300Z 27006KT 15SM SKC M27/M31 A3057 RMK SLP420

CYQR;2011-01-12 04:00;CYQR 120400Z 00000KT 15SM SKC M28/M32 A3057 RMK SLP420

CYQR;2011-01-12 05:00;CYQR 120500Z 18002KT 15SM SKC M26/M31 A3056 RMK SLP416

CYQR;2011-01-12 06:00;CYQR 120600Z 20005KT 15SM FEW008 M30/M35 A3058 RMK SF1 SLP425

CYQR;2011-01-12 07:00;CYQR 120700Z 11006KT 15SM FEW007 M26/M30 A3055 RMK SF1 SLP418

CYQR;2011-01-12 07:25;CYQR 120725Z 12005KT 15SM SKC M27/

CYQR;2011-01-12 08:00;CYQR 120800Z 11005KT 15SM SKC M27/M32 A3056 RMK SLP421

CYQR;2011-01-12 09:00;CYQR 120900Z 14007KT 15SM FEW007 M29/M34 A3056 RMK SF0 SLP420

CYQR;2011-01-12 10:00;CYQR 121000Z 14008KT 15SM BKN007 M28/M33 A3056 RMK SF1 SLP418

CYQR;2011-01-12 11:00;CYQR 121100Z 12009KT 15SM BKN007 M28/M33 A3054 RMK SF1 SLP412

CYQR;2011-01-12 11:36;CYQR 121136Z 13010KT 5SM BR BKN002 M27/ RMK SF2

CYQR;2011-01-12 12:00;CYQR 121200Z 13010KT 8SM FEW002 M27/M32 A3052 RMK SF1 BR SLP407

CYQR;2011-01-12 12:10;CYQR 121210Z 12010KT 5SM BR FEW002 M27/ RMK SF0

CYQR;2011-01-12 12:46;CYQR 121246Z 13010KT 5SM IC FEW001 M27/ RMK SF1

CYQR;2011-01-12 13:00;CYQR 121300Z 14010KT 4SM IC FEW001 M27/M32 A3050 RMK SF1 SLP401

CYQR;2011-01-12 14:00;CYQR 121400Z 13011KT 3SM IC FEW001 SCT250 M26/M31 A3047 RMK SF2CI0 SLP392

CYQR;2011-01-12 14:32;CYQR 121432Z 13011KT 1 1/2SM IC DRSN FEW250 M26/ RMK CI1

CYQR;2011-01-12 15:00;CYQR 121500Z 13013KT 1SM R13/P6000FT/D IC DRSN FEW010 FEW250 M26/M31 A3046 RMK SF0CI1 SLP388

CYQR;2011-01-12 15:15;CYQR 121515Z 14013KT 2SM IC DRSN FEW010 BKN250 M26/ RMK SF0CI1

CYQR;2011-01-12 16:00;CYQR 121600Z 14012KT 2SM IC DRSN FEW010 BKN250 M26/M31 A3046 RMK SF2CI2 SLP387

CYQR;2011-01-12 16:28;CYQR 121628Z 13012KT 3SM IC DRSN FEW015 SCT090 BKN250 M26/ RMK SC1AC1CI2

CYQR;2011-01-12 17:00;CYQR 121700Z 14012KT 6SM IC DRSN FEW015 SCT080 BKN250 M26/M30 A3043 RMK SC1AC1CI2 SLP377

CYQR;2011-01-12 18:00;CYQR 121800Z 13013KT 6SM IC DRSN OVC220 M24/M28 A3038 RMK CI3 SLP362

CYQR;2011-01-12 19:00;CYQR 121900Z 14016KT 5SM IC DRSN FEW080 OVC220 M22/M26 A3034 RMK AC2CI4 SLP347

CYQR;2011-01-12 20:00;CYQR 122000Z 13017KT 3SM IC DRSN FEW040 OVC075 M21/M25 A3027 RMK SC2AC6 SLP325

CYQR;2011-01-12 20:09;CYQR 122009Z CCA 13018KT 2SM -SN BLSN FEW030 OVC075 M21/ RMK SC2AC6

CYQR;2011-01-12 20:46;CYQR 122046Z 13017KT 1 1/2SM -SN BLSN SCT030 OVC075 M20/ RMK BLSN2SC2AC5

CYQR;2011-01-12 21:00;CYQR 122100Z 13019G25KT 1 1/2SM -SN BLSN SCT030 OVC075 M20/M23 A3023 RMK BLSN2SC2AC5 SLP303

CYQR;2011-01-12 22:00;CYQR 122200Z 14021KT 1 1/2SM -SN BLSN SCT030 BKN065 OVC080 M19/M22 A3020 RMK SC2SC4AC2 VIS VRB 1-2 SLP295

CYQR;2011-01-12 22:30;CYQR 122230Z 14019G25KT 3SM -SN BLSN BKN030 OVC062 M18/ RMK SC5SC3

CYQR;2011-01-12 23:00;CYQR 122300Z 13020G25KT 3SM -SN BLSN SCT030 OVC062 M17/M21 A3016 RMK SC3SC5 SLP281

CYQR;2011-01-13 00:00;CYQR 130000Z 14024KT 3SM -SN BLSN SCT030 OVC070 M17/M21 A3010 RMK SC3AC5 SLP258

CYQR;2011-01-13 00:47;CYQR 130047Z 14021G30KT 8SM -SN DRSN SCT006 BKN037 OVC070 M17/ RMK SF3SC2AC2

CYQR;2011-01-13 01:00;CYQR 130100Z 14020G27KT 8SM -SN DRSN OVC037 M17/M20 A3007 RMK SC8 OCNL BLSN SLP247

CYQR;2011-01-13 01:17;CYQR 130117Z CCA 14023G31KT 2SM -SN BLSN OVC016 M17/ RMK BLSN2SC6

CYQR;2011-01-13 01:32;CYQR 130132Z 13022G29KT 1SM R13/P6000FT/U -SN BLSN VV010 M17/ RMK SN8

CYQR;2011-01-13 01:43;CYQR 130143Z 14023KT 3/4SM R13/P6000FT/D -SN BLSN VV006 M17/ RMK SN8

CYQR;2011-01-13 02:00;CYQR 130200Z 13025G31KT 3/4SM R13/P6000FT/N -SN BLSN VV006 M16/M20 A3001 RMK SN8 PRESFR SLP228

CYQR;2011-01-13 02:28;CYQR 130228Z 14020G31KT 1/2SM R13/5500FT/N -SN BLSN VV004 M16/ RMK SN8

CYQR;2011-01-13 03:00;CYQR 130300Z 14025KT 5/8SM R13/P6000FT/N -SN BLSN VV005 M16/M20 A2998 RMK SN8 SLP214

CYQR;2011-01-13 04:00;CYQR 130400Z 15022KT 3/4SM R13/P6000FT/U -SN BLSN VV005 M16/M20 A2997 RMK SN8 SLP210

CYQR;2011-01-13 04:25;CYQR 130425Z 15019G27KT 1SM R13/P6000FT/U -SN BLSN OVC041 M16/ RMK SN3SC5 /S01/

CYQR;2011-01-13 04:49;CYQR 130449Z 15020G26KT 3/4SM R13/P6000FT/D -SN BLSN VV006 M16/ RMK SN8

CYQR;2011-01-13 05:00;CYQR 130500Z 15022G29KT 3/4SM R13/P6000FT/D -SN BLSN VV004 M16/M20 A2996 RMK SN8 SLP208

CYQR;2011-01-13 05:04;CYQR 130504Z 14016G26KT 1 1/2SM -SN BLSN VV006 M16/ RMK SN8

CYQR;2011-01-13 05:11;CYQR 130511Z 14023KT 1 3/4SM -SN BLSN OVC020 M16/ RMK SN3SC5

CYQR;2011-01-13 05:36;CYQR 130536Z 15015G21KT 2 1/2SM -SN BLSN OVC057 M16/ RMK BLSN2SC6

CYQR;2011-01-13 06:00;CYQR 130600Z CCA 14017KT 2 1/2SM -SN BLSN OVC057 M16/M20 A2994 RMK BLSN2SC6 /S02/ SLP198

CYQR;2011-01-13 06:39;CYQR 130639Z 14013G19KT 3SM -SN DRSN OVC020 M16/ RMK SC8 OCNL BLSN

CYQR;2011-01-13 07:00;CYQR 130700Z 15014KT 3SM -SN DRSN OVC023 M16/M19 A2993 RMK SC8 SLP195

CYQR;2011-01-13 08:00;CYQR 130800Z 14011KT 3SM -SN DRSN OVC023 M15/M19 A2992 RMK SC8 SLP192

CYQR;2011-01-13 09:00;CYQR 130900Z 15006KT 8SM -SN OVC023 M15/M18 A2995 RMK SC8 SLP197

CYQR;2011-01-13 10:00;CYQR 131000Z 12003KT 10SM -SN OVC023 M15/M18 A2998 RMK SC8 SLP206

CYQR;2011-01-13 11:00;CYQR 131100Z 00000KT 12SM -SN OVC020 M15/M18 A3000 RMK SC8 SLP212

CYQR;2011-01-13 11:31;CYQR 131131Z 31003KT 6SM -SN OVC014 M15/ RMK SC8

CYQR;2011-01-13 12:00;CYQR 131200Z 32008KT 5SM -SN OVC014 M15/M19 A3003 RMK SC8 SLP221

CYQR;2011-01-13 13:00;CYQR 131300Z 30013KT 12SM -SN DRSN OVC014 M16/M20 A3005 RMK SC8 SLP228

CYQR;2011-01-13 13:38;CYQR 131338Z 30013KT 15SM DRSN SCT017 M20/ RMK SC2

CYQR;2011-01-13 14:00;CYQR 131400Z 30012KT 15SM DRSN SCT016 M20/M24 A3009 RMK SC2 IC SLP242

CYQR;2011-01-13 15:00;CYQR 131500Z 30009KT 15SM DRSN FEW015 SCT150 BKN250 M21/M26 A3011 RMK SC1AC2CI1 SLP256

CYQR;2011-01-13 16:00;CYQR 131600Z 30012KT 8SM -SN DRSN BKN012 BKN170 M21/M25 A3014 RMK SC5AC1 SLP265

CYQR;2011-01-13 16:40;CYQR 131640Z 30012KT 3SM R13/1600V2000FT/N -SN DRSN SCT011 BKN170 OVC250 M21/ RMK SC2AC2CI2

CYQR;2011-01-13 17:00;CYQR 131700Z 31010KT 5SM R13/2600VP6000FT/D -SN DRSN SCT011 BKN170 OVC250 M21/M25 A3016 RMK SC2AC3CI2 SLP272

CYQR;2011-01-13 18:00;CYQR 131800Z 32012KT 12SM DRSN FEW012 FEW150 BKN250 M20/M25 A3016 RMK SC1AC1CI1 SLP271

CYQR;2011-01-13 19:00;CYQR 131900Z 30011KT 15SM DRSN FEW150 BKN250 M20/M24 A3016 RMK AC1CI2 SLP270

CYQR;2011-01-13 20:00;CYQR 132000Z 32012KT 15SM DRSN SCT150 BKN250 M19/M23 A3016 RMK AC2CI2 SLP271

CYQR;2011-01-13 21:00;CYQR 132100Z 31008KT 15SM SCT150 BKN250 M19/M23 A3016 RMK AC2CI3 SLP268

CYQR;2011-01-13 22:00;CYQR 132200Z 32009KT 15SM DRSN SCT150 BKN250 M19/M23 A3016 RMK AC2CI3 SLP269

CYQR;2011-01-13 23:00;CYQR 132300Z 33008KT 15SM SCT120 BKN250 M20/M24 A3017 RMK AC3CI2 SLP271

CYQR;2011-01-14 00:00;CYQR 140000Z 32005KT 15SM FEW120 BKN250 M19/M23 A3017 RMK AC2CI1 SLP271

CYQR;2011-01-14 01:00;CYQR 140100Z 30007KT 15SM FEW007 OVC084 M19/M23 A3018 RMK ST1AC7 SLP276

CYQR;2011-01-14 01:20;CYQR 140120Z 31006KT 12SM -SN FEW004 OVC073 M19/ RMK ST1AC6

CYQR;2011-01-14 02:00;CYQR 140200Z 36005KT 15SM FEW005 OVC073 M19/M23 A3017 RMK ST1AC6 SLP271

CYQR;2011-01-14 02:23;CYQR 140223Z 02004KT 10SM -SN FEW005 OVC071 M19/ RMK ST1AC7

CYQR;2011-01-14 03:00;CYQR 140300Z 36004KT 15SM FEW005 OVC076 M18/M23 A3016 RMK ST1AC8 SLP273

CYQR;2011-01-14 03:29;CYQR 140329Z 36002KT 15SM -SHSN OVC050 M18/ RMK SC8

CYQR;2011-01-14 04:00;CYQR 140400Z 34002KT 5SM -SN OVC019 M18/M22 A3015 RMK SC8 SLP269

CYQR;2011-01-14 05:00;CYQR 140500Z 09002KT 5SM -SN OVC032 M18/M22 A3013 RMK SC8 SLP263

CYQR;2011-01-14 05:40;CYQR 140540Z 09002KT 1 3/4SM -SN OVC019 M17/ RMK SC8

CYQR;2011-01-14 06:00;CYQR 140600Z CCA 00000KT 2SM -SN BKN019 OVC075 M17/M21 A3014 RMK SC7AC1 /S01/ SLP264

CYQR;2011-01-14 06:10;CYQR 140610Z 23003KT 1SM R13/P6000FT/D -SN VV010 M17/ RMK SN8

CYQR;2011-01-14 06:21;CYQR 140621Z 23003KT 2SM -SN OVC014 M17/ RMK SC8

CYQR;2011-01-14 06:34;CYQR 140634Z 26003KT 3SM -SN OVC014 M17/ RMK SC8

CYQR;2011-01-14 07:00;CYQR 140700Z 28002KT 2SM -SN OVC026 M17/M21 A3012 RMK SC8 SLP258

CYQR;2011-01-14 07:18;CYQR 140718Z 00000KT 1 1/4SM -SN VV009 M18/ RMK SN8

CYQR;2011-01-14 08:00;CYQR 140800Z 00000KT 1 1/2SM -SN VV008 M18/M22 A3011 RMK SN8 /S01/ SLP255

CYQR;2011-01-14 08:45;CYQR 140845Z 32002KT 3/4SM R13/P6000FT/D -SN VV005 M17/ RMK SN8

CYQR;2011-01-14 09:00;CYQR 140900Z 33003KT 3/4SM R13/P6000FT/U -SN VV005 M17/M21 A3011 RMK SN8 SLP252

CYQR;2011-01-14 10:00;CYQR 141000Z 01004KT 3/4SM R13/P6000FT/D -SN VV003 M17/M21 A3011 RMK SN8 /S02/ SLP253

CYQR;2011-01-14 10:32;CYQR 141032Z 02004KT 3/4SM R13/P6000FT/D -SN VV005 M17/ RMK SN8 VIS VRB 1/2-1

CYQR;2011-01-14 11:00;CYQR 141100Z 36004KT 3/4SM R13/P6000FT/D -SN VV005 M17/M21 A3012 RMK SN8 /S03/ SLP255

CYQR;2011-01-14 12:00;CYQR 141200Z 36003KT 3/4SM R13/P6000FT/U -SN VV004 M17/M20 A3011 RMK SN8 /S04/ SLP253

CYQR;2011-01-14 12:47;CYQR 141247Z 03005KT 1SM R13/P6000FT/U -SN VV006 M16/ RMK SN8

CYQR;2011-01-14 13:00;CYQR 141300Z 04005KT 3/4SM R13/P6000FT/D -SN VV005 M16/M20 A3012 RMK SN8 SLP255

CYQR;2011-01-14 13:41;CYQR 141341Z 05005KT 2SM -SN VV008 M16/ RMK SN8

CYQR;2011-01-14 13:45;CYQR 141345Z 06004KT 4SM -SN OVC015 M17/ RMK SC8

CYQR;2011-01-14 14:00;CYQR 141400Z 08004KT 6SM -SN SCT015 OVC040 M17/M21 A3011 RMK SC3SC5 SLP254

CYQR;2011-01-14 15:00;CYQR 141500Z 04004KT 15SM FEW015 OVC062 M17/M21 A3015 RMK SC2SC6 SLP266

CYQR;2011-01-14 16:00;CYQR 141600Z 35008KT 12SM -SN FEW035 OVC062 M18/M22 A3019 RMK SC2SC6 SLP277

CYQR;2011-01-14 17:00;CYQR 141700Z 34010KT 12SM -SN BKN031 OVC062 M17/M21 A3023 RMK SC5SC3 SLP290

CYQR;2011-01-14 18:00;CYQR 141800Z 34012KT 12SM -SN SCT030 OVC062 M18/M22 A3026 RMK SC3SC5 SLP304

CYQR;2011-01-14 19:00;CYQR 141900Z 32009KT 12SM -SN FEW024 SCT062 BKN120 M18/M22 A3025 RMK SC2SC2AC2 SLP302

CYQR;2011-01-14 19:21;CYQR 141921Z 33010KT 15SM FEW021 FEW062 SCT120 M18/ RMK SC1SC1AC2

CYQR;2011-01-14 20:00;CYQR 142000Z 32009KT 15SM FEW062 FEW120 SCT250 M19/M23 A3026 RMK SC1AC1CI1 SLP305

CYQR;2011-01-14 21:00;CYQR 142100Z 30008KT 15SM FEW062 SCT120 BKN250 M19/M23 A3029 RMK SC1AC2CS4 SLP315

CYQR;2011-01-14 22:00;CYQR 142200Z 34012KT 15SM FEW060 BKN094 OVC250 M17/M22 A3031 RMK SC2AC2CS3 SLP322

CYQR;2011-01-14 23:00;CYQR 142300Z 33009KT 15SM FEW090 OVC250 M18/M22 A3035 RMK AC2CI2 SLP333

CYQR;2011-01-15 00:00;CYQR 150000Z 36008KT 15SM FEW090 OVC250 M18/M22 A3034 RMK AC2CI5 SLP329

CYQR;2011-01-15 01:00;CYQR 150100Z 35007KT 15SM OVC250 M18/M22 A3034 RMK CI6 SLP331

CYQR;2011-01-15 02:00;CYQR 150200Z 01010KT 15SM FEW082 OVC250 M18/M23 A3034 RMK AC2CI5 SLP330

CYQR;2011-01-15 02:46;CYQR 150246Z 01010KT 15SM -SHSN BKN056 OVC080 M19/ RMK SC6AC2

CYQR;2011-01-15 03:00;CYQR 150300Z 01008KT 15SM -SHSN BKN056 OVC080 M19/M23 A3035 RMK SC6AC1 SLP335

CYQR;2011-01-15 04:00;CYQR 150400Z 03008KT 2 1/2SM -SN OVC022 M19/M23 A3035 RMK SC8 SLP334

CYQR;2011-01-15 04:10;CYQR 150410Z 02008KT 1 1/2SM -SN VV016 M19/ RMK SN8

CYQR;2011-01-15 05:00;CYQR 150500Z 35005KT 1 3/4SM -SN OVC016 M19/M23 A3035 RMK SN5SC3 SLP336

CYQR;2011-01-15 05:20;CYQR 150520Z 34006KT 2SM -SN OVC016 M19/ RMK SC8

CYQR;2011-01-15 06:00;CYQR 150600Z CCA 34008KT 1 3/4SM -SN OVC013 M19/M24 A3037 RMK SC8 /S01/ SLP345

CYQR;2011-01-15 07:00;CYQR 150700Z 36008KT 2SM -SN OVC015 M19/M24 A3038 RMK SC7 SLP348

CYQR;2011-01-15 07:23;CYQR 150723Z 01008KT 3SM -SN OVC015 M19/ RMK SC7

CYQR;2011-01-15 08:00;CYQR 150800Z 36007KT 4SM -SN OVC014 M19/M24 A3038 RMK SC7 SLP348

CYQR;2011-01-15 08:19;CYQR 150819Z 36006KT 5SM -SN OVC019 M19/ RMK SC7

CYQR;2011-01-15 09:00;CYQR 150900Z 01005KT 5SM -SN OVC021 M20/M24 A3038 RMK SC8 SLP348

CYQR;2011-01-15 10:00;CYQR 151000Z 04005KT 15SM -SN SCT029 OVC100 M20/M24 A3036 RMK SC4AC3 SLP342

CYQR;2011-01-15 11:00;CYQR 151100Z 34004KT 15SM -SN FEW017 SCT067 M22/M26 A3037 RMK SC1AC3 SLP345

CYQR;2011-01-15 11:21;CYQR 151121Z 34005KT 15SM FEW067 M23/ RMK AC2 IC

CYQR;2011-01-15 12:00;CYQR 151200Z 35005KT 15SM FEW066 M24/M28 A3036 RMK AC1 SLP345

CYQR;2011-01-15 13:00;CYQR 151300Z 34003KT 15SM OVC074 M21/M26 A3036 RMK AC7 SLP344

CYQR;2011-01-15 14:00;CYQR 151400Z 02003KT 15SM -SN FEW040 OVC072 M21/M25 A3035 RMK SC2AC6 SLP339

CYQR;2011-01-15 15:00;CYQR 151500Z 05002KT 12SM -SN SCT038 BKN082 OVC250 M20/M24 A3034 RMK SC3AC3CI1 SLP334

CYQR;2011-01-15 16:00;CYQR 151600Z 11004KT 4SM -SN FEW012 OVC019 M19/M23 A3034 RMK SC2SC6 SLP335

CYQR;2011-01-15 16:43;CYQR 151643Z 12003KT 3SM -SN BKN012 OVC059 M19/ RMK SC5SC3

CYQR;2011-01-15 17:00;CYQR 151700Z 13004KT 3SM -SN BKN012 OVC047 M19/M23 A3035 RMK SC6SC2 SLP338

CYQR;2011-01-15 17:19;CYQR 151719Z 14003KT 2SM -SN BKN012 OVC047 M19/ RMK SC6SC2

CYQR;2011-01-15 17:46;CYQR 151746Z 15006KT 1 1/2SM -SN BKN012 OVC082 M19/ RMK SN2SC5AC2

CYQR;2011-01-15 18:00;CYQR 151800Z 15005KT 1 1/2SM -SN OVC010 M19/M23 A3033 RMK SN2SC6 SLP330

CYQR;2011-01-15 18:36;CYQR 151836Z 17005KT 3SM -SN BKN009 OVC045 M19/ RMK SC6SC2

CYQR;2011-01-15 18:53;CYQR 151853Z 16004KT 1 1/2SM -SN BKN012 OVC045 RMK SC6SC2

CYQR;2011-01-15 19:00;CYQR 151900Z 17005KT 1 1/2SM -SN BKN012 OVC045 M19/M23 A3031 RMK SC6SC2 SLP324

CYQR;2011-01-15 19:18;CYQR 151918Z 15004KT 1SM R13/P6000FT/D -SN VV007 M19/ RMK SN8 VIS VRB 3/4-11/4

CYQR;2011-01-15 20:00;CYQR 152000Z 14004KT 1SM R13/P6000FT/U -SN VV005 M19/M23 A3028 RMK SN8 VIS VRB 3/4-11/4 /S01/ SLP313

CYQR;2011-01-15 20:22;CYQR 152022Z 15003KT 1 1/2SM -SN VV008 M18/ RMK SN8 VIS VRB 1-2

CYQR;2011-01-15 20:54;CYQR 152054Z 18006KT 3SM -SN VV012 M19/ RMK SN8

CYQR;2011-01-15 21:00;CYQR 152100Z 18006KT 3SM -SN VV012 M19/M23 A3025 RMK SN8 SLP305

CYQR;2011-01-15 21:18;CYQR 152118Z 18005KT 3SM -SN OVC042 M19/ RMK SC8

CYQR;2011-01-15 22:00;CYQR 152200Z 16005KT 2 1/2SM -SN FEW010 OVC044 M19/M23 A3025 RMK SC2SC6 SLP304

CYQR;2011-01-15 22:38;CYQR 152238Z 17005KT 3SM -SN SCT012 BKN045 OVC250 M19/ RMK SC3SC2CI2

CYQR;2011-01-15 23:00;CYQR 152300Z 17004KT 4SM -SN FEW020 SCT045 OVC250 M19/M23 A3024 RMK SC2SC2CI1 SLP299

CYQR;2011-01-16 00:00;CYQR 160000Z 19003KT 15SM FEW020 FEW045 BKN250 M20/M24 A3024 RMK SC1SC1CI2 /S02/ SLP305

CYQR;2011-01-16 01:00;CYQR 160100Z 15002KT 15SM -SN SCT049 BKN082 OVC250 M20/M24 A3023 RMK SC3AC3CI0 SLP302

CYQR;2011-01-16 02:00;CYQR 160200Z 17004KT 15SM -SN SCT016 BKN062 M20/M24 A3020 RMK SC3SC3 SLP291

CYQR;2011-01-16 02:22;CYQR 160222Z 16003KT 15SM FEW024 SCT062 BKN088 M20/ RMK SC2SC2AC2

CYQR;2011-01-16 03:00;CYQR 160300Z 17005KT 15SM BKN053 BKN088 M22/M27 A3019 RMK SC5AC2 SLP284

CYQR;2011-01-16 04:00;CYQR 160400Z 16004KT 15SM -SN SCT055 OVC077 M20/M24 A3016 RMK SC2AC5 SLP277

CYQR;2011-01-16 05:00;CYQR 160500Z 14005KT 10SM -SN SCT037 OVC060 M19/M23 A3013 RMK SC2SC5 OBS TAKEN -05 SLP266

CYQR;2011-01-16 06:00;CYQR 160600Z 14006KT 10SM -SN SCT012 OVC042 M19/M23 A3010 RMK SC3SC4 SLP249

CYQR;2011-01-16 07:00;CYQR 160700Z 15007KT 12SM -SN BKN019 OVC060 M19/M23 A3007 RMK SC7SC1 SLP240

CYQR;2011-01-16 07:15;CYQR 160715Z 16008KT 10SM -SN SCT003 OVC017 M19/ RMK SC2SC6

CYQR;2011-01-16 08:00;CYQR 160800Z 16008KT 12SM -SN SCT003 OVC033 M18/M22 A3003 RMK SC2SC6 SLP227

CYQR;2011-01-16 08:36;CYQR 160836Z 17009KT 12SM -SN BKN021 OVC034 M18/ RMK SC5SC3

CYQR;2011-01-16 09:00;CYQR 160900Z 18010KT 15SM -SN SCT020 BKN034 OVC075 M18/M22 A3001 RMK SC3SC2AC2 SLP218

CYQR;2011-01-16 09:45;CYQR 160945Z 17009KT 15SM BKN034 OVC065 M18/ RMK SC5SC3

CYQR;2011-01-16 10:00;CYQR 161000Z 17009KT 15SM BKN034 OVC065 M18/M22 A2997 RMK SC5SC3 SLP206

CYQR;2011-01-16 11:00;CYQR 161100Z 17009KT 15SM SCT032 OVC079 M17/M21 A2992 RMK SC3AC5 SLP190

CYQR;2011-01-16 12:00;CYQR 161200Z 16011KT 15SM OVC026 M17/M21 A2986 RMK SC8 PRESFR SLP167

CYQR;2011-01-16 13:00;CYQR 161300Z 15009KT 15SM OVC018 M17/M21 A2980 RMK SC8 PRESFR SLP149

CYQR;2011-01-16 14:00;CYQR 161400Z 16011KT 15SM OVC016 M16/M20 A2978 RMK SC8 SLP141

CYQR;2011-01-16 14:26;CYQR 161426Z 16012KT 15SM -SN OVC012 M16/ RMK SC8

CYQR;2011-01-16 15:00;CYQR 161500Z 15011G16KT 15SM -SN DRSN BKN014 OVC022 M16/M20 A2973 RMK SC6SC2 SLP125

CYQR;2011-01-16 15:36;CYQR 161536Z 15012KT 15SM -SN DRSN FEW014 OVC020 M16/ RMK SC2SC6

CYQR;2011-01-16 16:00;CYQR 161600Z 14014KT 12SM -SN DRSN FEW014 OVC018 M16/M20 A2972 RMK SC2SC6 SLP121

CYQR;2011-01-16 17:00;CYQR 161700Z 14012G17KT 12SM -SN DRSN OVC016 M16/M19 A2971 RMK SC8 SLP117

CYQR;2011-01-16 18:00;CYQR 161800Z 13014KT 12SM -SN DRSN OVC015 M16/M19 A2967 RMK SC8 SLP099

CYQR;2011-01-16 19:00;CYQR 161900Z 13012KT 12SM -SN OVC015 M15/M19 A2962 RMK SC8 SLP085

CYQR;2011-01-16 20:00;CYQR 162000Z 12011KT 12SM -SN OVC015 M15/M19 A2959 RMK SC8 SLP074

CYQR;2011-01-16 21:00;CYQR 162100Z 11009KT 12SM -SN OVC015 M15/M18 A2959 RMK SC8 SLP069

CYQR;2011-01-16 22:00;CYQR 162200Z 11009KT 6SM -SN OVC015 M15/M18 A2957 RMK SC8 SLP064

CYQR;2011-01-16 23:00;CYQR 162300Z 09007KT 6SM -SN OVC017 M14/M18 A2958 RMK SC8 SLP066

CYQR;2011-01-17 00:00;CYQR 170000Z 07005KT 10SM -SN OVC017 M15/M18 A2958 RMK SC8 SLP068

CYQR;2011-01-17 01:00;CYQR 170100Z 05006KT 10SM -SN OVC017 M15/M19 A2960 RMK SC8 SLP072

CYQR;2011-01-17 02:00;CYQR 170200Z 07009KT 8SM -SN OVC015 M16/M20 A2957 RMK SC8 SLP063

CYQR;2011-01-17 03:00;CYQR 170300Z 05010KT 2 1/2SM -SN OVC011 M16/M20 A2958 RMK SN2SC5 SLP067

CYQR;2011-01-17 03:35;CYQR 170335Z 04006KT 3SM -SN BKN015 OVC055 M16/ RMK SC5SC2

CYQR;2011-01-17 04:00;CYQR 170400Z 05009KT 2 1/2SM -SN OVC017 M16/M20 A2961 RMK SN2SC6 SLP075

CYQR;2011-01-17 04:43;CYQR 170443Z 04009KT 2SM -SN BKN010 OVC075 M16/ RMK SC6AC2

CYQR;2011-01-17 05:00;CYQR 170500Z 03009KT 2 1/2SM -SN BKN010 OVC058 M16/M20 A2962 RMK SC6SC2 SLP080

CYQR;2011-01-17 05:36;CYQR 170536Z 04009KT 3SM -SN FEW010 OVC040 M16/ RMK SC2SC6

CYQR;2011-01-17 06:00;CYQR 170600Z 03012KT 2 1/2SM -SN SCT010 OVC040 M17/M21 A2965 RMK SC4SC4 SLP091

CYQR;2011-01-17 07:00;CYQR 170700Z 03010KT 3SM -SN FEW006 BKN052 M18/M22 A2966 RMK SC2SC5 SLP095

CYQR;2011-01-17 08:00;CYQR 170800Z 01011KT 10SM -SN OVC037 M18/M23 A2968 RMK SC8 SLP102

CYQR;2011-01-17 09:00;CYQR 170900Z 02010KT 12SM -SN FEW008 OVC043 M18/M23 A2971 RMK SF1SC7 SLP111

CYQR;2011-01-17 10:00;CYQR 171000Z 36012KT 10SM -SN FEW008 OVC043 M18/M22 A2975 RMK SF1SC7 SLP123

CYQR;2011-01-17 11:00;CYQR 171100Z 35012KT 10SM -SN FEW008 OVC043 M19/M23 A2976 RMK SF1SC7 SLP129

CYQR;2011-01-17 12:00;CYQR 171200Z 01012KT 12SM -SN FEW008 OVC039 M19/M24 A2978 RMK SF1SC7 SLP138

CYQR;2011-01-17 12:48;CYQR 171248Z 36011KT 12SM -SN BKN008 OVC039 M20/ RMK ST4SC4

CYQR;2011-01-17 13:00;CYQR 171300Z 36012KT 12SM -SN DRSN BKN008 OVC039 M20/M25 A2979 RMK SF3SC5 SLP141

CYQR;2011-01-17 14:00;CYQR 171400Z 36015KT 12SM -SN DRSN FEW008 OVC041 M21/M25 A2981 RMK SF2SC6 SLP148

CYQR;2011-01-17 15:00;CYQR 171500Z 36012KT 8SM -SN DRSN FEW008 OVC040 M21/M26 A2986 RMK SF1SC6 SLP168

CYQR;2011-01-17 16:00;CYQR 171600Z 34012KT 15SM DRSN FEW030 SCT080 BKN250 M22/M27 A2990 RMK SC2AC2CI1 SLP181

CYQR;2011-01-17 17:00;CYQR 171700Z 36009KT 15SM FEW030 BKN073 BKN250 M22/M27 A2991 RMK SC1AC5CI1 SLP184

CYQR;2011-01-17 17:03;CYQR 171703Z 36010KT 15SM -SN FEW030 BKN073 BKN250 M22/ RMK SC1AC5CI1

CYQR;2011-01-17 17:43;CYQR 171743Z 35011KT 15SM DRSN SCT071 BKN250 M22/ RMK AC2CI2 CONTRAILS

CYQR;2011-01-17 18:00;CYQR 171800Z 36010KT 15SM DRSN FEW071 BKN250 M23/M28 A2992 RMK AC2CI1 SLP190

CYQR;2011-01-17 19:00;CYQR 171900Z 34010KT 15SM DRSN FEW071 FEW250 M23/M29 A2992 RMK AC1CI1 SLP189

CYQR;2011-01-17 20:00;CYQR 172000Z 34010KT 15SM DRSN FEW075 SCT250 M24/M29 A2992 RMK AC1CI1 SLP190

CYQR;2011-01-17 21:00;CYQR 172100Z 33009KT 15SM FEW085 SCT250 M24/M30 A2993 RMK AC1CI1 SLP196

CYQR;2011-01-17 22:00;CYQR 172200Z 35008KT 15SM FEW086 BKN250 M24/M30 A2994 RMK AC1CI2 SLP199

CYQR;2011-01-17 23:00;CYQR 172300Z 35007KT 15SM FEW094 BKN250 M25/M31 A2997 RMK AC2CI3 CONTRAILS SLP207

CYQR;2011-01-18 00:00;CYQR 180000Z 02005KT 15SM BKN080 OVC250 M23/M29 A2998 RMK AC6CI1 SLP214

CYQR;2011-01-18 01:00;CYQR 180100Z 04004KT 15SM BKN091 M23/M29 A2999 RMK AC5 SLP217

CYQR;2011-01-18 02:00;CYQR 180200Z 03002KT 15SM OVC065 M23/M29 A3000 RMK SC8 SLP219

CYQR;2011-01-18 02:15;CYQR 180215Z 04004KT 15SM -SN OVC048 RMK SC8

CYQR;2011-01-18 03:00;CYQR 180300Z 05003KT 3SM -SN BKN019 M22/M28 A3002 RMK SN2SC6 SLP228

CYQR;2011-01-18 04:00;CYQR 180400Z 14003KT 10SM -SN SCT020 OVC065 M22/M27 A3000 RMK SC4SC3 SLP223

CYQR;2011-01-18 05:00;CYQR 180500Z 11002KT 15SM -SN OVC061 M22/M27 A3003 RMK SC8 SLP231

CYQR;2011-01-18 06:00;CYQR 180600Z 14002KT 15SM -SN OVC055 M22/M27 A3004 RMK SC8 SLP236

CYQR;2011-01-18 07:00;CYQR 180700Z 13004KT 12SM -SN OVC047 M22/M27 A3004 RMK SC8 SLP235

CYQR;2011-01-18 08:00;CYQR 180800Z 15004KT 15SM -SN OVC043 M22/M27 A3005 RMK SC8 SLP239

CYQR;2011-01-18 09:00;CYQR 180900Z 16003KT 10SM -SN OVC043 M22/M27 A3008 RMK SC8 SLP250

CYQR;2011-01-18 10:00;CYQR 181000Z 14003KT 5SM -SN OVC036 M22/M27 A3007 RMK SC8 SLP246

CYQR;2011-01-18 11:00;CYQR 181100Z 17004KT 10SM -SN OVC036 M22/M27 A3008 RMK SC8 SLP249

CYQR;2011-01-18 12:00;CYQR 181200Z 16006KT 12SM -SN OVC032 M21/M26 A3006 RMK SC8 SLP244

CYQR;2011-01-18 12:47;CYQR 181247Z 17005KT 15SM OVC027 M21/ RMK SC8

CYQR;2011-01-18 13:00;CYQR 181300Z 18005KT 15SM OVC027 M21/M26 A3007 RMK SC8 SLP247

CYQR;2011-01-18 13:24;CYQR 181324Z 20006KT 15SM -SN OVC027 M21/ RMK SC8

CYQR;2011-01-18 14:00;CYQR 181400Z 21006KT 15SM -SN OVC025 M21/M26 A3009 RMK SC8 SLP251

CYQR;2011-01-18 15:00;CYQR 181500Z 21006KT 15SM -SN OVC028 M21/M25 A3008 RMK SC8 SLP249

CYQR;2011-01-18 15:50;CYQR 181550Z 19006KT 15SM OVC030 M20/ RMK SC8

CYQR;2011-01-18 16:00;CYQR 181600Z 18006KT 15SM BKN030 M20/M25 A3007 RMK SC7 SLP246

CYQR;2011-01-18 17:00;CYQR 181700Z 21007KT 15SM BKN032 OVC082 M20/M24 A3008 RMK SC7AC1 SLP248

CYQR;2011-01-18 18:00;CYQR 181800Z 23006KT 15SM FEW020 SCT080 BKN250 M20/M25 A3008 RMK SC2AC2CI1 SLP247

CYQR;2011-01-18 19:00;CYQR 181900Z 24006KT 15SM FEW030 FEW250 M21/M26 A3005 RMK SC1CI0 SLP237

CYQR;2011-01-18 20:00;CYQR 182000Z 27007KT 15SM FEW082 FEW250 M20/M26 A3003 RMK AC1CI1 SLP230

CYQR;2011-01-18 21:00;CYQR 182100Z 19007KT 15SM FEW120 FEW250 M22/M27 A2999 RMK AC1CI1 SLP216

CYQR;2011-01-18 22:00;CYQR 182200Z 19009KT 15SM FEW095 BKN250 M22/M27 A2999 RMK AC2CI0 SLP216

CYQR;2011-01-18 23:00;CYQR 182300Z 20008KT 15SM BKN054 BKN095 M19/M24 A2997 RMK SC6AC2 SLP212

CYQR;2011-01-19 00:00;CYQR 190000Z 18011KT 15SM BKN058 M18/M23 A2995 RMK SC7 SLP201

CYQR;2011-01-19 01:00;CYQR 190100Z 19008KT 15SM BKN060 OVC080 M17/M22 A2992 RMK SC6AC1 SLP191

CYQR;2011-01-19 02:00;CYQR 190200Z 20010KT 15SM FEW060 M20/M24 A2990 RMK SC2 SLP183

CYQR;2011-01-20 06:00;CYQR 200600Z 32007KT 15SM SKC M27/M32 A3028 RMK SLP317

CYQR;2011-01-20 07:00;CYQR 200700Z 30008KT 15SM SKC M29/M34 A3031 RMK SLP326

CYQR;2011-01-20 08:00;CYQR 200800Z 32011KT 15SM SKC M27/M32 A3031 RMK SLP325

CYQR;2011-01-20 09:00;CYQR 200900Z 29009KT 15SM SKC M32/M37 A3031 RMK SLP327

CYQR;2011-01-20 10:00;CYQR 201000Z 29011KT 15SM SKC M34/M39 A3031 RMK SLP326

CYQR;2011-01-20 11:00;CYQR 201100Z 28008KT 15SM SKC M34/M38 A3030 RMK SLP323

CYQR;2011-01-20 12:00;CYQR 201200Z 28007KT 15SM SKC M34/M39 A3029 RMK SLP326

CYQR;2011-01-20 13:00;CYQR 201300Z 00000KT 15SM FEW001 FEW030 M33/M38 A3025 RMK ST1SC0 BR VIS E-SE 2 FROIN SLP316

CYQR;2011-01-20 14:00;CYQR 201400Z CCA 00000KT 15SM FEW026 M33/M36 A3023 RMK SC1 PTCHY FG VCNTY RWYS SLP307

CYQR;2011-01-20 15:00;CYQR 201500Z 18007KT 15SM FEW025 FEW088 FEW250 M36/M41 A3022 RMK SC1AC1CI0 TR SC SLP308

CYQR;2011-01-20 16:00;CYQR 201600Z 14010KT 15SM FEW025 BKN200 M32/M37 A3020 RMK SC1CI0 SLP301

CYQR;2011-01-20 17:00;CYQR 201700Z 13012KT 8SM FEW030 BKN220 M28/M33 A3015 RMK SC1CI2 VIS W 4 BR SLP286

CYQR;2011-01-20 17:19;CYQR 201719Z 14015KT 2SM R13/3500VP6000FT/D BLSN FEW030 BKN220 M28/ RMK SC1CI2

CYQR;2011-01-20 17:24;CYQR 201724Z 14015KT 1SM R13/4000FT/U BLSN FEW030 BKN220 M28/ RMK BLSN1SC1CI2 VIS E 3

CYQR;2011-01-20 18:00;CYQR 201800Z 14014KT 1SM R13/P6000FT/N BLSN SCT030 OVC220 M27/M32 A3011 RMK BLSN2SC2CI2 SLP267

CYQR;2011-01-20 18:25;CYQR 201825Z 14015KT 1 1/2SM BLSN SCT041 OVC220 M26/ RMK BLSN1SC3CI2 VIS VRB 1 - 2

CYQR;2011-01-20 18:41;CYQR 201841Z 14015KT 3SM BLSN FEW039 OVC220 RMK SC2CI1

CYQR;2011-01-20 19:31;CYQR 201931Z 14019KT 2SM BLSN FEW027 BKN063 M25/ RMK SC2SC4 PRESFR

CYQR;2011-01-20 19:53;CYQR 201953Z 15018KT 6SM BLSN FEW015 BKN071 M24/ RMK SC1AC5

CYQR;2011-01-20 20:00;CYQR 202000Z 14019KT 6SM BLSN FEW015 BKN071 M24/M29 A2997 RMK SC1AC6 PRESFR SLP222

CYQR;2011-01-20 21:00;CYQR 202100Z 15018G24KT 10SM DRSN FEW025 BKN036 M23/M27 A2992 REBLSN RMK SC1SC6 PRESFR SLP204

CYQR;2011-01-20 22:00;CYQR 202200Z 15019G26KT 8SM DRSN BKN022 BKN031 M22/M27 A2987 RMK SC6SC2 PRESFR SLP186

CYQR;2011-01-20 23:00;CYQR 202300Z 15021G26KT 12SM DRSN FEW015 BKN025 BKN091 M21/M27 A2982 RMK SC2SC2AC2 OCNL BLSN VIS 4 S-NW SLP171

CYQR;2011-01-21 00:00;CYQR 210000Z 14021G29KT 8SM DRSN BKN025 BKN100 M21/M26 A2978 RMK SC3AC4 OCNL BLSN VIS W-NW 3 SLP154

CYQR;2011-01-21 01:00;CYQR 210100Z 15023G28KT 8SM DRSN OVC050 M20/M25 A2974 RMK SC8 BLSN SW-NW VIS 2 SLP141

CYQR;2011-01-21 02:00;CYQR 210200Z 16024G30KT 5SM -SN DRSN OVC023 M20/M24 A2970 RMK SC8 BLSN SW-NW VIS 2 SLP128

CYQR;2011-01-21 02:17;CYQR 210217Z 16020KT 2SM -SN BLSN BKN009 OVC079 M20/ RMK SC5AC2

CYQR;2011-01-21 02:44;CYQR 210244Z 16021G27KT 4SM -SN BLSN OVC054 M19/ RMK SC8

CYQR;2011-01-21 03:00;CYQR 210300Z 16021KT 4SM -SN BLSN FEW015 OVC061 M19/M23 A2967 RMK SC2SC6 SLP115

CYQR;2011-01-21 03:26;CYQR 210326Z 16017G24KT 1 1/2SM -SN BLSN OVC087 M18/ RMK SN3AC5

CYQR;2011-01-21 04:00;CYQR 210400Z 16018KT 1 1/2SM -SN BLSN OVC097 M18/M22 A2962 RMK SN3AC4 SLP100

CYQR;2011-01-21 05:00;CYQR 210500Z 15012G18KT 2SM -SN DRSN OVC025 M17/M20 A2960 RMK SN5SC3 OCNL BLSN SLP093

CYQR;2011-01-21 05:14;CYQR 210514Z 15013G18KT 1 1/2SM -SN DRSN OVC020 M16/ RMK SN3SC5 OCNL BLSN

CYQR;2011-01-21 05:25;CYQR 210525Z 15013KT 5SM -SN DRSN OVC014 M16/ RMK SC8

CYQR;2011-01-21 06:00;CYQR 210600Z 16011KT 15SM OVC010 M16/M19 A2958 RMK SC8 SLP074

CYQR;2011-01-21 06:15;CYQR 210615Z 15009KT 15SM OVC008 M15/ RMK SC8

CYQR;2011-01-21 06:29;CYQR 210629Z 13007KT 12SM -SN OVC007 M15/ RMK SC8

CYQR;2011-01-21 07:21;CYQR 210721Z 12004KT 15SM OVC006 M14/ RMK SC8

CYQR;2011-01-21 07:40;CYQR 210740Z 10002KT 15SM OVC005 M14/ RMK SC8

CYQR;2011-01-21 08:00;CYQR 210800Z 11003KT 15SM OVC004 M13/M16 A2959 RMK SC8 SLP078

CYQR;2011-01-21 08:30;CYQR 210830Z 27004KT 15SM OVC006 M13/ RMK SC8

CYQR;2011-01-21 09:00;CYQR 210900Z 28004KT 15SM OVC006 M12/M15 A2960 RMK SC8 SLP077

CYQR;2011-01-21 09:33;CYQR 210933Z 28005KT 15SM OVC011 M11/ RMK SC8

CYQR;2011-01-21 10:00;CYQR 211000Z 31007KT 15SM OVC011 M08/M11 A2962 RMK SC8 SLP084

CYQR;2011-01-21 10:27;CYQR 211027Z 32012KT 15SM OVC008 M07/ RMK SC8

CYQR;2011-01-21 11:00;CYQR 211100Z 33014KT 15SM OVC009 M07/M10 A2964 RMK SC8 SLP089

CYQR;2011-01-21 12:00;CYQR 211200Z 32017KT 15SM OVC008 M07/M09 A2966 RMK SC8 SLP092

CYQR;2011-01-21 12:30;CYQR 211230Z 33019G24KT 5SM -SN DRSN OVC007 M08/ RMK SC8

CYQR;2011-01-21 12:45;CYQR 211245Z 33021G26KT 2SM -SN BLSN OVC007 M08/ RMK SC8

CYQR;2011-01-21 13:00;CYQR 211300Z 33022G27KT 4SM -SN BLSN OVC007 M08/M10 A2968 RMK SC8 SLP099

CYQR;2011-01-21 13:08;CYQR 211308Z 33018G27KT 9SM -SN DRSN OVC008 M08/ RMK SC8 OCNL BLSN

CYQR;2011-01-21 14:00;CYQR 211400Z 35015G22KT 10SM -SN DRSN OVC008 M10/M13 A2973 RMK SC8 SLP114

CYQR;2011-01-21 14:27;CYQR 211427Z 35020G25KT 8SM -SN DRSN OVC010 M12/ RMK SC8 OCNL BLSN VIS SW-NW 4

CYQR;2011-01-21 15:20;CYQR 211520Z 35023KT 2SM -SN BLSN OVC012 M12/ RMK SC8 VIS E-SE 3

CYQR;2011-01-21 16:00;CYQR 211600Z 34022KT 4SM -SN BLSN BKN012 M13/M16 A2978 RMK SC5 SLP136

CYQR;2011-01-21 17:00;CYQR 211700Z 35017KT 6SM -SN BLSN BKN014 M14/M17 A2982 RMK SC4 INTMT -SN SLP148

CYQR;2011-01-21 18:00;CYQR 211800Z 35017G24KT 6SM -SN BLSN BKN016 M14/M18 A2985 RMK SC6 SLP158

CYQR;2011-01-21 18:28;CYQR 211828Z 35016KT 10SM DRSN SCT016 SCT090 BKN250 M14/ RMK SC2AC1CI0

CYQR;2011-01-21 19:00;CYQR 211900Z 34014KT 15SM DRSN FEW090 FEW250 M15/M18 A2984 RMK AC1CI1 SLP156

CYQR;2011-01-21 20:00;CYQR 212000Z 33012KT 15SM DRSN FEW100 FEW250 M15/M19 A2984 RMK AC1CI0 SLP154

CYQR;2011-01-21 21:00;CYQR 212100Z 35011KT 15SM DRSN FEW100 M15/M19 A2983 RMK AC0 SLP148

CYQR;2011-01-21 22:00;CYQR 212200Z 35008KT 15SM FEW100 FEW250 M16/M19 A2982 RMK AC1CI1 SLP145

CYQR;2011-01-21 23:00;CYQR 212300Z 01006KT 15SM SCT080 SCT250 M16/M20 A2981 RMK AC0CI1 SLP144

CYQR;2011-01-22 00:00;CYQR 220000Z CCA 36002KT 15SM FEW085 SCT250 M17/M21 A2981 RMK AC1CI0 SLP140

CYQR;2011-01-22 01:00;CYQR 220100Z 08003KT 15SM FEW085 FEW250 M18/M22 A2977 RMK AC1CI0 SLP127

CYQR;2011-01-22 02:00;CYQR 220200Z 14007KT 15SM BKN090 M18/M21 A2976 RMK AC6 SLP125

CYQR;2011-01-22 03:00;CYQR 220300Z 16007KT 15SM SCT038 BKN088 M18/M21 A2975 RMK SC3AC3 SLP122

CYQR;2011-01-22 04:00;CYQR 220400Z 14009KT 15SM BKN034 OVC084 M17/M21 A2974 RMK SC6AC2 SLP121

CYQR;2011-01-22 05:00;CYQR 220500Z 12012KT 15SM BKN034 OVC084 M17/M21 A2973 RMK SC7AC1 SLP117

CYQR;2011-01-22 06:00;CYQR 220600Z 11014KT 15SM BKN032 OVC086 M17/M20 A2971 RMK SC7AC1 SLP109

CYQR;2011-01-22 06:45;CYQR 220645Z 10017KT 15SM -SN OVC035 M16/ RMK SC8

CYQR;2011-01-22 07:00;CYQR 220700Z 10016KT 15SM -SN OVC035 M16/M20 A2969 RMK SC8 SLP105

CYQR;2011-01-22 07:34;CYQR 220734Z 11015KT 15SM OVC035 M16/ RMK SC8

CYQR;2011-01-22 08:00;CYQR 220800Z 11017KT 15SM OVC037 M17/M20 A2970 RMK SC8 SLP106

CYQR;2011-01-22 09:00;CYQR 220900Z 11013KT 15SM OVC037 M16/M20 A2971 RMK SC8 SLP110

CYQR;2011-01-22 09:08;CYQR 220908Z 10013KT 15SM -SN OVC027 M16/ RMK SC8

CYQR;2011-01-22 09:30;CYQR 220930Z 11012KT 2SM -SN OVC019 M16/ RMK SC8

CYQR;2011-01-22 09:39;CYQR 220939Z 12013KT 1 1/4SM -SN DRSN VV015 M16/ RMK SN8

CYQR;2011-01-22 10:00;CYQR 221000Z 13013KT 1 1/2SM -SN DRSN VV012 M16/M20 A2975 RMK SN8 SLP122

CYQR;2011-01-22 11:00;CYQR 221100Z 12013KT 1 1/2SM R13/4500VP6000FT/D -SN DRSN VV009 M16/M20 A2977 RMK SN8 /S01/ SLP130

CYQR;2011-01-22 11:08;CYQR 221108Z 11010KT 1SM R13/6000FT/D -SN DRSN VV008 M16/ RMK SN8

CYQR;2011-01-22 11:22;CYQR 221122Z 11010KT 1 1/2SM -SN DRSN OVC047 M16/ RMK SN6SC2

CYQR;2011-01-22 11:33;CYQR 221133Z 11010KT 6SM -SN DRSN OVC020 M16/ RMK SC8

CYQR;2011-01-22 12:00;CYQR 221200Z 12011KT 2SM -SN DRSN OVC020 M16/M20 A2981 RMK SN4SC4 /S02/ SLP146

CYQR;2011-01-22 12:15;CYQR 221215Z 13010KT 5SM -SN BKN013 OVC070 M16/ RMK SC6AC2

CYQR;2011-01-22 12:46;CYQR 221246Z 13010KT 12SM -SN OVC054 M16/ RMK SC8

CYQR;2011-01-22 13:00;CYQR 221300Z 13009KT 15SM -SN OVC054 M16/M19 A2983 RMK SC8 SLP154

CYQR;2011-01-22 14:00;CYQR 221400Z 11009KT 12SM -SN OVC052 M16/M20 A2988 RMK SC8 SLP169

CYQR;2011-01-22 15:00;CYQR 221500Z 12010KT 15SM BKN052 M16/M20 A2991 RMK SC7 SLP180

CYQR;2011-01-22 16:00;CYQR 221600Z 13008KT 15SM BKN050 M16/M20 A2995 RMK SC7 SLP195

CYQR;2011-01-22 17:00;CYQR 221700Z 16009KT 15SM BKN046 M16/M20 A2998 RMK SC7 SLP205

CYQR;2011-01-22 17:48;CYQR 221748Z 16015KT 15SM -SN BKN040 M16/ RMK SC7

CYQR;2011-01-22 18:00;CYQR 221800Z 16015KT 15SM -SN BKN042 M16/M20 A2999 RMK SC7 SLP208

CYQR;2011-01-22 19:00;CYQR 221900Z 17015KT 15SM -SN BKN040 BKN052 M16/M20 A3002 RMK SC6SC1 SLP217

CYQR;2011-01-22 20:00;CYQR 222000Z 17020KT 6SM -SN BLSN OVC034 M16/M19 A2999 RMK SC8 SLP208

CYQR;2011-01-22 21:00;CYQR 222100Z 17017KT 6SM -SN BLSN OVC030 M15/M19 A2997 RMK SC8 SLP201

CYQR;2011-01-22 22:00;CYQR 222200Z 16016KT 6SM -SN BLSN OVC020 M15/M19 A2997 RMK SC8 SLP200

CYQR;2011-01-22 23:00;CYQR 222300Z 16017G24KT 4SM -SN BLSN OVC020 M15/M18 A2994 RMK SC8 SLP191

CYQR;2011-01-23 00:00;CYQR 230000Z 17015KT 6SM -SN BLSN OVC018 M13/M17 A2993 RMK SC8 SLP186

CYQR;2011-01-23 00:31;CYQR 230031Z 15012KT 8SM -SN DRSN OVC014 M13/ RMK SC8 OCNL BLSN

CYQR;2011-01-23 01:00;CYQR 230100Z 15012KT 10SM -SN DRSN OVC017 M13/M16 A2991 RMK SC8 SLP178

CYQR;2011-01-23 02:00;CYQR 230200Z 17014KT 10SM -SN DRSN OVC023 M11/M14 A2985 RMK SC8 SLP160

CYQR;2011-01-23 03:00;CYQR 230300Z 16011KT 15SM -SN DRSN FEW025 OVC064 M10/M12 A2980 RMK SC2SC6 SLP138

CYQR;2011-01-23 04:00;CYQR 230400Z 18011KT 15SM DRSN BKN055 M09/M12 A2979 RMK SC5 SLP134

CYQR;2011-01-23 05:00;CYQR 230500Z 19009KT 15SM FEW060 M10/M12 A2975 RMK SC2 SLP121

CYQR;2011-01-23 06:00;CYQR 230600Z 19006KT 15SM FEW060 M10/M12 A2971 RMK SC1 SLP106

CYQR;2011-01-23 07:00;CYQR 230700Z 21005KT 15SM SCT250 M11/M13 A2969 RMK CI0 SLP101

CYQR;2011-01-23 08:00;CYQR 230800Z 22005KT 15SM BKN120 OVC250 M10/M12 A2966 RMK AC5CI1 SLP090

CYQR;2011-01-23 09:00;CYQR 230900Z 21005KT 15SM SCT120 OVC250 M10/M13 A2964 RMK AC3CI2 SLP083

CYQR;2011-01-23 10:00;CYQR 231000Z 19008KT 15SM SCT090 BKN250 M09/M12 A2961 RMK AC3CI2 SLP071

CYQR;2011-01-23 11:00;CYQR 231100Z 22008KT 15SM SCT075 BKN240 M06/M09 A2956 RMK AC3CI2 SLP055

CYQR;2011-01-23 12:00;CYQR 231200Z 19008KT 15SM BKN070 OVC250 M05/M08 A2953 RMK AC6CI2 SLP041

CYQR;2011-01-23 13:00;CYQR 231300Z 20008KT 15SM BKN076 OVC250 M04/M08 A2950 RMK AC6CI1 SLP029

CYQR;2011-01-23 14:00;CYQR 231400Z 23004KT 15SM OVC073 M03/M07 A2948 RMK AC8 SLP024

CYQR;2011-01-23 15:00;CYQR 231500Z 27010KT 15SM BKN081 M04/M07 A2946 RMK AC6 SLP013

CYQR;2011-01-23 16:00;CYQR 231600Z 30016KT 15SM FEW038 OVC083 M03/M06 A2946 RMK SC2AC6 SLP012

CYQR;2011-01-23 16:12;CYQR 231612Z 31018KT 8SM -SN DRSN SCT019 BKN025 OVC083 M02/ RMK SC3SC2AC3

CYQR;2011-01-23 16:24;CYQR 231624Z 31018KT 2SM -SN DRSN BKN015 OVC083 M02/ RMK SC6AC2

CYQR;2011-01-23 16:30;CYQR 231630Z 31016KT 1SM R13/P6000FT/D -SN DRSN VV010 M02/ RMK SN8

CYQR;2011-01-23 16:33;CYQR 231633Z 32014G19KT 3/4SM R13/4500VP6000FT/D -SN DRSN VV007 M02/ RMK SN8

CYQR;2011-01-23 16:41;CYQR 231641Z 33008G16KT 1 1/4SM R13/4500VP6000FT/U -SN DRSN VV006 M02/ RMK SN8

CYQR;2011-01-23 16:44;CYQR 231644Z 34007KT 4SM -SN DRSN FEW006 OVC041 M02/ RMK SF2SC6

CYQR;2011-01-23 17:00;CYQR 231700Z 03003KT 12SM FEW006 BKN054 M02/M03 A2944 RMK SF2SC5 /S01/ SLP006

CYQR;2011-01-23 18:00;CYQR 231800Z 28013KT 15SM FEW054 FEW270 M02/M03 A2946 RMK SC1CI1 SLP010

CYQR;2011-01-23 19:00;CYQR 231900Z 28022KT 15SM FEW056 FEW270 M01/M03 A2945 RMK SC1CI1 SLP007

CYQR;2011-01-23 20:00;CYQR 232000Z 29021KT 15SM FEW056 FEW100 FEW270 M01/M02 A2945 RMK SC1AC1CI1 CC ASOCTD SLP007

CYQR;2011-01-23 21:00;CYQR 232100Z 30025G30KT 12SM DRSN FEW030 FEW100 BKN270 M01/M03 A2946 RMK SC1AC2CI1 CU ASOCTD OCNL BLSN SLP008

CYQR;2011-01-23 22:00;CYQR 232200Z 29023G28KT 12SM DRSN FEW025 FEW100 BKN160 BKN270 M01/M03 A2948 RMK SC2AC1AC0CI1 OCNL BLSN CU ASOCTD SLP016

CYQR;2011-01-23 23:00;CYQR 232300Z 30024KT 12SM DRSN FEW036 FEW100 FEW270 M02/M04 A2951 RMK SC1AC1CI1 OCNL BLSN SLP026

CYQR;2011-01-24 00:00;CYQR 240000Z 30022KT 14SM DRSN FEW036 FEW100 SCT270 M03/M05 A2955 RMK SC1AC1CI1 CU + ACC ASOCTD OCNL BLSN SLP037

CYQR;2011-01-24 01:00;CYQR 240100Z 30023G28KT 15SM FEW037 SCT100 BKN270 M02/M04 A2956 RMK SC2AC1CI1 SLP043

CYQR;2011-01-24 02:00;CYQR 240200Z 30022KT 15SM DRSN BKN039 OVC085 M02/M04 A2958 RMK SC6AC2 SLP048

CYQR;2011-01-24 03:00;CYQR 240300Z 31024KT 15SM DRSN BKN044 BKN084 M02/M03 A2960 RMK SC5AC2 SLP055

CYQR;2011-01-24 03:30;CYQR 240330Z 31025KT 12SM -SN DRSN BKN031 OVC053 M01/ RMK SC6SC2

CYQR;2011-01-24 04:00;CYQR 240400Z 32029G34KT 5SM -SN BLSN BKN031 M01/M02 A2963 RMK SC7 SLP064

CYQR;2011-01-24 04:03;CYQR 240403Z 32026G34KT 1SM R13/4500VP6000FT/N -SN BLSN OVC029 M01/ RMK SN2SC6

CYQR;2011-01-24 04:10;CYQR 240410Z 32026G32KT 1/2SM R13/4000VP6000FT/D SN BLSN VV004 M01/ RMK SN8

CYQR;2011-01-24 04:20;CYQR 240420Z 32023G29KT 5SM R13/4000VP6000FT/U -SN BLSN OVC030 M01/ REBLSN RMK SC8

CYQR;2011-01-24 04:21;CYQR 240421Z CCA 32023G29KT 5SM R13/4000VP6000FT/U -SN BLSN OVC030 M01/ RESN RMK SC8

CYQR;2011-01-24 05:00;CYQR 240500Z 32023G28KT 5SM -SN BLSN OVC013 M00/M02 A2967 RMK SC8 RESN SLP076

CYQR;2011-01-24 05:05;CYQR 240505Z 32024KT 3/4SM R13/P6000FT/N -SN BLSN VV008 M00/ RMK SN8

CYQR;2011-01-24 05:22;CYQR 240522Z 33026G33KT 1 1/2SM -SN BLSN VV007 M00/ RMK SN8

CYQR;2011-01-24 06:00;CYQR 240600Z 35022G30KT 5SM -SN BLSN OVC008 M01/M02 A2972 RMK SF8 SLP093

CYQR;2011-01-24 06:34;CYQR 240634Z 01028G35KT 4SM -SN BLSN OVC017 M03/ RMK SC8

CYQR;2011-01-24 07:00;CYQR 240700Z 01023G29KT 6SM -SN BLSN BKN020 OVC053 M03/M06 A2978 RMK SC6SC2 SLP114

CYQR;2011-01-24 08:00;CYQR 240800Z 36022G28KT 6SM -SN BLSN OVC018 M05/M08 A2984 RMK SC8 SLP131

CYQR;2011-01-24 08:28;CYQR 240828Z 36020G28KT 8SM DRSN BKN022 OVC055 M07/ REBLSN RMK SC6SC2

CYQR;2011-01-24 09:00;CYQR 240900Z 36023KT 10SM DRSN SCT028 BKN055 M08/M12 A2987 REBLSN RMK SC3SC2 SLP151

CYQR;2011-01-24 10:00;CYQR 241000Z 36019G25KT 10SM DRSN OVC021 M09/M12 A2993 RMK SC8 SLP169

CYQR;2011-01-24 11:00;CYQR 241100Z 36017KT 12SM DRSN OVC015 M09/M13 A2998 RMK SC8 SLP184

CYQR;2011-01-24 11:32;CYQR 241132Z 36014G19KT 12SM DRSN OVC011 M09/ RMK SC8

CYQR;2011-01-24 12:00;CYQR 241200Z 01013KT 12SM DRSN OVC015 M09/M12 A2998 RMK SC8 SLP190

CYQR;2011-01-24 13:00;CYQR 241300Z 36009KT 12SM OVC015 M09/M12 A3000 RMK SC8 SLP195

CYQR;2011-01-24 13:49;CYQR 241349Z 36007KT 12SM FEW009 OVC015 M09/ RMK SF1SC8

CYQR;2011-01-24 14:00;CYQR 241400Z 35009KT 15SM FEW009 OVC015 M09/M12 A3001 RMK SF1SC8 SLP200

CYQR;2011-01-24 15:00;CYQR 241500Z 03006KT 15SM FEW009 OVC017 M09/M12 A3000 RMK SF1SC7 SLP196

CYQR;2011-01-24 15:41;CYQR 241541Z 25008KT 15SM OVC007 M09/ RMK SF8

CYQR;2011-01-24 16:00;CYQR 241600Z 22006KT 15SM OVC007 M09/M12 A3000 RMK SF8 SLP196

CYQR;2011-01-24 16:42;CYQR 241642Z 21005KT 15SM BKN010 OVC016 M09/ RMK SC5SC3

CYQR;2011-01-24 17:00;CYQR 241700Z 19004KT 15SM SCT009 OVC013 M09/M11 A3000 RMK SC4SC4 SLP195

CYQR;2011-01-24 17:21;CYQR 241721Z 20006KT 15SM SCT009 OVC015 M08/ RMK SC4SC4

CYQR;2011-01-24 18:00;CYQR 241800Z 18005KT 15SM FEW009 SCT012 OVC017 M08/M11 A3000 RMK SF2SC2SC4 SLP192

CYQR;2011-01-24 18:10;CYQR 241810Z 18006KT 15SM FEW009 BKN012 OVC017 M08/ RMK SF2SC4SC2

CYQR;2011-01-24 18:31;CYQR 241831Z 16004KT 15SM SCT012 OVC018 M07/ RMK SC4SC4

CYQR;2011-01-24 19:00;CYQR 241900Z 16005KT 15SM SCT009 OVC020 M07/M10 A2999 RMK SC2SC6 SLP190

CYQR;2011-01-24 20:00;CYQR 242000Z 16011KT 15SM SCT008 OVC020 M07/M09 A2996 RMK SC3SC5 SLP180

CYQR;2011-01-24 20:07;CYQR 242007Z 17011KT 15SM BKN008 OVC020 M07/ RMK SC5SC3

CYQR;2011-01-24 21:00;CYQR 242100Z 17010KT 15SM OVC006 M06/M08 A2995 RMK SC8 SLP179

CYQR;2011-01-24 21:16;CYQR 242116Z 17010KT 15SM OVC004 M05/ RMK SF8

CYQR;2011-01-24 21:53;CYQR 242153Z 18013KT 15SM SCT004 BKN110 OVC300 M06/ RMK SF4AC2CI1

CYQR;2011-01-24 22:00;CYQR 242200Z 18013KT 15SM SCT004 BKN110 BKN300 M06/M08 A2991 RMK SF3AC1CI2 SLP166

CYQR;2011-01-24 23:00;CYQR 242300Z 16010KT 15SM FEW110 BKN260 M07/M10 A2988 RMK AC2CI3 SLP157

CYQR;2011-01-25 00:00;CYQR 250000Z 16011KT 15SM BKN110 BKN260 M07/M09 A2986 RMK AC5CI2 SLP150

CYQR;2011-01-25 01:00;CYQR 250100Z 15013KT 15SM BKN110 BKN260 M06/M09 A2983 RMK AC5CI1 SLP140

CYQR;2011-01-25 02:00;CYQR 250200Z 16011KT 15SM BKN110 OVC250 M06/M09 A2981 RMK AC6CI1 SLP136

CYQR;2011-01-25 03:00;CYQR 250300Z 16010KT 15SM BKN110 OVC250 M05/M09 A2979 RMK AC7CI1 SLP127

CYQR;2011-01-25 04:00;CYQR 250400Z 15007KT 15SM BKN096 OVC250 M06/M09 A2977 RMK AC5CI3 SLP121

CYQR;2011-01-25 05:00;CYQR 250500Z 17006KT 15SM OVC070 M05/M08 A2976 RMK AC8 SLP116

CYQR;2011-01-25 06:00;CYQR 250600Z 22005KT 15SM BKN060 OVC087 M05/M08 A2976 RMK SC5AC3 SLP115

CYQR;2011-01-25 07:00;CYQR 250700Z 29008KT 15SM FEW070 OVC250 M06/M08 A2976 RMK AC2CI3 SLP116

CYQR;2011-01-25 08:00;CYQR 250800Z 31015KT 15SM BKN110 OVC250 M06/M08 A2978 RMK AC5CI2 SLP122

CYQR;2011-01-25 09:00;CYQR 250900Z 32014KT 15SM SCT110 OVC250 M06/M09 A2982 RMK AC3CI3 SLP133

CYQR;2011-01-25 10:00;CYQR 251000Z 31012KT 15SM FEW120 BKN250 M07/M10 A2984 RMK AC2CI2 SLP139

CYQR;2011-01-25 11:00;CYQR 251100Z 32009KT 15SM SCT090 OVC250 M08/M11 A2987 RMK AC3CI2 SLP149

CYQR;2011-01-25 12:00;CYQR 251200Z 32008KT 15SM FEW090 BKN250 M08/M11 A2988 RMK AC2CI1 SLP157

CYQR;2011-01-25 13:00;CYQR 251300Z 27002KT 15SM FEW090 OVC250 M09/M12 A2989 RMK AC1CI5 SLP161

CYQR;2011-01-25 14:00;CYQR 251400Z 27006KT 15SM BKN250 M11/M13 A2991 RMK CI2 SLP166

CYQR;2011-01-25 15:00;CYQR 251500Z 27008KT 15SM FEW120 BKN250 M12/M15 A2993 RMK AC2CI2 SLP176

CYQR;2011-01-25 16:00;CYQR 251600Z 28008KT 15SM FEW082 BKN210 BKN250 M11/M14 A2994 RMK AC2CI2CI1 SLP180

CYQR;2011-01-25 17:00;CYQR 251700Z 28005KT 15SM FEW210 M08/M12 A2996 RMK CI1 SLP187

CYQR;2011-01-25 18:00;CYQR 251800Z 30006KT 15SM FEW087 FEW210 SCT300 M08/M11 A2999 RMK AC1CI1CI1 SLP193

CYQR;2011-01-25 19:00;CYQR 251900Z 30006KT 15SM FEW210 M06/M10 A2998 RMK CI1 SLP192

CYQR;2011-01-25 20:00;CYQR 252000Z 30007KT 15SM FEW210 M05/M09 A2998 RMK CI1 SLP192

CYQR;2011-01-25 21:00;CYQR 252100Z 28005KT 15SM FEW210 FEW270 M04/M08 A2999 RMK CI1CI0 SLP192

CYQR;2011-01-25 22:00;CYQR 252200Z 29006KT 15SM FEW081 SCT270 M06/M10 A3000 RMK AC1CI1 SLP193

CYQR;2011-01-25 23:00;CYQR 252300Z 27003KT 15SM FEW086 BKN270 M08/M11 A3001 RMK AC2CI2 SLP198

CYQR;2011-01-26 00:00;CYQR 260000Z 21003KT 15SM FEW200 BKN270 M10/M13 A3002 RMK CC2CI2 SLP207

CYQR;2011-01-26 01:00;CYQR 260100Z 26004KT 15SM BKN260 M10/M13 A3003 RMK CI2 SLP210

CYQR;2011-01-26 02:00;CYQR 260200Z 22005KT 15SM FEW087 BKN250 M10/M13 A3002 RMK AC2CI1 SLP209

CYQR;2011-01-26 03:00;CYQR 260300Z 24007KT 15SM SCT095 BKN250 M11/M13 A3001 RMK AC3CI2 SLP207

CYQR;2011-01-26 04:00;CYQR 260400Z 19004KT 15SM BKN064 BKN080 OVC250 M09/M11 A3000 RMK SC5AC2CI1 SLP204

CYQR;2011-01-26 05:00;CYQR 260500Z 18007KT 15SM FEW062 SCT250 M09/M11 A2998 RMK SC2CI0 SLP198

CYQR;2011-01-26 06:00;CYQR 260600Z 18007KT 15SM FEW090 FEW250 M10/M12 A2998 RMK AC1CI0 SLP192

CYQR;2011-01-26 07:00;CYQR 260700Z 19008KT 15SM FEW090 M11/M13 A2995 RMK AC1 SLP184

CYQR;2011-01-26 08:00;CYQR 260800Z 21006KT 15SM FEW090 SCT250 M11/M13 A2995 RMK AC1CI0 SLP184

CYQR;2011-01-26 09:00;CYQR 260900Z 22007KT 15SM FEW100 SCT250 M11/M14 A2994 RMK AC1CI0 SLP178

CYQR;2011-01-26 10:00;CYQR 261000Z 27007KT 15SM FEW100 M12/M15 A2993 RMK AC2 SLP174

CYQR;2011-01-26 11:00;CYQR 261100Z 28007KT 15SM FEW100 M11/M13 A2992 RMK AC1 SLP172

CYQR;2011-01-26 12:00;CYQR 261200Z 27009KT 15SM SCT120 BKN250 M10/M12 A2990 RMK AC3CI2 SLP168

CYQR;2011-01-26 13:00;CYQR 261300Z 00000KT 15SM FEW120 SCT250 M10/M13 A2989 RMK AC2CI0 SLP164

CYQR;2011-01-26 14:00;CYQR 261400Z 00000KT 15SM FEW094 BKN250 M12/M15 A2989 RMK AC1CI0 SLP164

CYQR;2011-01-26 16:00;CYQR 261600Z 21005KT 15SM FEW100 BKN250 M10/M12 A2984 RMK AC1CI2 SLP149

CYQR;2011-01-26 17:00;CYQR 261700Z 18004KT 15SM FEW100 BKN250 M08/M11 A2983 RMK AC1CI4 SLP146

CYQR;2011-01-26 18:00;CYQR 261800Z 17002KT 15SM FEW100 BKN250 M06/M10 A2984 RMK AC1CI4 SLP144

CYQR;2011-01-26 19:00;CYQR 261900Z 21003KT 15SM FEW100 BKN250 M06/M09 A2981 RMK AC2CI0 SLP134

CYQR;2011-01-26 20:00;CYQR 262000Z 21005KT 15SM BKN093 BKN250 M04/M07 A2979 RMK AC5CI2 SLP127

CYQR;2011-01-26 21:00;CYQR 262100Z 17005KT 15SM BKN086 OVC250 M03/M06 A2975 RMK AC6CI2 SLP113

CYQR;2011-01-26 22:00;CYQR 262200Z 22005KT 15SM BKN091 OVC250 M03/M06 A2976 RMK AC7CI1 SLP114

CYQR;2011-01-26 23:00;CYQR 262300Z 21004KT 15SM BKN089 OVC250 M03/M05 A2976 RMK AC7CI1 SLP114

CYQR;2011-01-27 00:00;CYQR 270000Z 19006KT 15SM BKN083 BKN250 M04/M06 A2976 RMK AC6CI1 SLP116

CYQR;2011-01-27 01:00;CYQR 270100Z 22005KT 15SM BKN087 M04/M06 A2975 RMK AC6 SLP112

CYQR;2011-01-27 02:00;CYQR 270200Z 30009KT 15SM BKN078 M04/M05 A2976 RMK AC6 SLP116

CYQR;2011-01-27 03:00;CYQR 270300Z 33007KT 15SM SKC M05/M07 A2978 RMK SLP122

CYQR;2011-01-27 04:00;CYQR 270400Z 31008KT 15SM SKC M07/M09 A2978 RMK SLP124

CYQR;2011-01-27 05:00;CYQR 270500Z 29008KT 15SM BKN038 M06/M08 A2981 RMK SC6 SLP134

CYQR;2011-01-27 06:00;CYQR 270600Z 30007KT 15SM FEW034 M08/M10 A2981 RMK SC1 SLP134

CYQR;2011-01-27 07:00;CYQR 270700Z 30008KT 15SM FEW063 M09/M11 A2984 RMK SC2 SLP142

CYQR;2011-01-27 08:00;CYQR 270800Z 29006KT 15SM BKN025 M06/M08 A2984 RMK SC6 SLP143

CYQR;2011-01-27 09:00;CYQR 270900Z 27004KT 15SM BKN023 M04/M06 A2983 RMK SC7 SLP136

CYQR;2011-01-27 10:00;CYQR 271000Z 29009KT 15SM BKN027 M02/M04 A2984 RMK SC7 SLP138

CYQR;2011-01-27 11:00;CYQR 271100Z 28009KT 15SM FEW023 M02/M03 A2983 RMK SC2 SLP134

CYQR;2011-01-27 12:00;CYQR 271200Z 27006KT 10SM SKC M03/M05 A2982 RMK BR SLP130

CYQR;2011-01-27 13:00;CYQR 271300Z 27009KT 12SM FEW010 M06/M07 A2983 RMK SF1 BR SLP134

CYQR;2011-01-27 14:00;CYQR 271400Z 25004KT 12SM FEW010 SCT250 M08/M10 A2982 RMK SC1CI1 SLP131

CYQR;2011-01-27 15:00;CYQR 271500Z 27007KT 12SM SCT075 BKN250 M08/M10 A2982 RMK AC2CI2 SLP136

CYQR;2011-01-27 16:00;CYQR 271600Z 28005KT 10SM FEW040 SCT095 BKN250 M06/M07 A2983 RMK SC1AC2CI0 SLP137

CYQR;2011-01-27 17:00;CYQR 271700Z 00000KT 12SM FEW040 FEW092 BKN250 M06/M08 A2981 RMK SC1AC1CI0 SLP132

CYQR;2011-01-27 18:00;CYQR 271800Z 16003KT 12SM BKN095 OVC120 M04/M06 A2981 RMK AC6AC2 SLP130

CYQR;2011-01-27 19:00;CYQR 271900Z 18004KT 12SM OVC100 M04/M06 A2979 RMK AC8 SLP124

CYQR;2011-01-27 20:00;CYQR 272000Z 21007KT 12SM BKN075 OVC120 M02/M04 A2976 RMK AC6AC2 SLP113

CYQR;2011-01-27 21:00;CYQR 272100Z 21005KT 15SM SCT040 OVC098 M01/M03 A2973 RMK SC3AC5 SLP100

CYQR;2011-01-27 22:00;CYQR 272200Z 22004KT 15SM SCT040 OVC100 M01/M02 A2972 RMK SC4AC4 SLP097

CYQR;2011-01-27 23:00;CYQR 272300Z 26003KT 15SM SCT040 BKN081 BKN120 M02/M02 A2971 RMK SC3AC2AC2 SLP094

CYQR;2011-01-28 00:00;CYQR 280000Z 17002KT 15SM FEW040 BKN080 BKN250 M03/M04 A2969 RMK SC2AC2CI0 SLP086

CYQR;2011-01-28 01:00;CYQR 280100Z 17003KT 12SM R13/4000VP6000FT/D MIFG FEW040 SCT080 BKN250 M04/M04 A2968 RMK SC2AC2CI2 SLP082

CYQR;2011-01-28 02:00;CYQR 280200Z 16004KT 15SM SCT080 BKN250 M05/M05 A2966 RMK AC3CI2 SLP075

CYQR;2011-01-28 03:00;CYQR 280300Z 15006KT 8SM R13/2800V4000FT/N BCFG SKC M05/M06 A2963 RMK FG2 SW-NW VIS 1 1/2 IN FG SLP069

CYQR;2011-01-28 03:32;CYQR 280332Z 15006KT 1/2SM R13/2000FT/N FZFG SKC M07/ RMK FG5 VIS SE-NE 2

CYQR;2011-01-28 03:42;CYQR 280342Z 13006KT 3/4SM R13/2800VP6000FT/N BR SKC M07/ RMK FG4 VIS SE 1/2 VIS NW-SW 2

CYQR;2011-01-28 04:00;CYQR 280400Z 14007KT 3SM BR BKN050 M07/M07 A2960 RMK FG2SC2 SLP059

CYQR;2011-01-28 05:00;CYQR 280500Z 12005KT 5SM BR FEW050 M08/M09 A2960 RMK FG1SC1 SLP060

CYQR;2011-01-28 06:00;CYQR 280600Z 13006KT 15SM BKN050 M09/M10 A2958 RMK SC6 SLP051

CYQR;2011-01-28 07:00;CYQR 280700Z 15004KT 15SM SCT025 M07/M08 A2955 RMK SC4 SLP043

CYQR;2011-01-28 08:00;CYQR 280800Z 16005KT 15SM SKC M09/M10 A2953 RMK SLP036

CYQR;2011-01-28 09:00;CYQR 280900Z 19003KT 15SM SKC M08/M09 A2952 RMK SLP028

CYQR;2011-01-28 10:00;CYQR 281000Z 28005KT 15SM SCT025 A2953 RMK SC3 SLP031

CYQR;2011-01-28 11:00;CYQR 281100Z 31010G15KT 15SM FEW025 M10/M10 A2954 RMK SC1 SLP035

CYQR;2011-01-28 11:50;CYQR 281150Z 33010G15KT 15SM BKN012 M10/ RMK SC6

CYQR;2011-01-28 12:00;CYQR 281200Z 33010G15KT 15SM BKN015 A2958 RMK SC6

CYQR;2011-01-28 13:00;CYQR 281300Z 29010KT 15SM SCT015 A2958 RMK SC3 SLP042

CYQR;2011-01-28 14:00;CYQR 281400Z 27014G19KT 15SM FEW100 FEW250 M04/ A2963 RMK AC1CI1 SLP066

CYQR;2011-01-28 15:00;CYQR 281500Z 29018G23KT 15SM FEW060 FEW250 M03/ A2964 RMK SC1CI1 SLP069

CYQR;2011-01-28 16:00;CYQR 281600Z 29019G24KT 15SM DRSN SCT080 SCT250 M01/ A2968 RMK AC2CI1 SLP082

CYQR;2011-01-28 17:00;CYQR 281700Z 30020G27KT 12SM DRSN BKN020 01/ A2971 RMK SC7 SLP092

CYQR;2011-01-28 18:00;CYQR 281800Z CCA 33025KT 6SM BLSN FEW009 BKN012 M01/ A2974 RMK SF1SC7 SLP105

CYQR;2011-01-28 19:00;CYQR 281900Z 32020G25KT 8SM DRSN OVC014 M01/ A2978 RMK SC8 OCNL BLSN SLP117

CYQR;2011-01-28 20:00;CYQR 282000Z 32026G31KT 12SM DRSN OVC014 M05/ A2980 RMK SC8 SLP125

CYQR;2011-01-28 21:00;CYQR 282100Z 32021G33KT 12SM DRSN OVC015 M05/ A2986 RMK SC8 SLP150

CYQR;2011-01-28 22:00;CYQR 282200Z 34015KT 12SM DRSN OVC013 M05/ A2988 RMK SC8 SLP154

CYQR;2011-01-28 23:00;CYQR 282300Z 33020G25KT 12SM DRSN OVC012 M06/ A2989 RMK SC8 SLP158

CYQR;2011-01-29 00:00;CYQR 290000Z 34017G24KT 12SM DRSN OVC011 M07/ A2991 RMK SC8 SLP165

CYQR;2011-01-29 00:26;CYQR 290026Z 34013G19KT 12SM -SN DRSN OVC010 RMK SC8

CYQR;2011-01-29 01:00;CYQR 290100Z 34015KT 12SM -SN DRSN OVC016 M07/ A2993 RMK SC8 SLP174

CYQR;2011-01-29 02:00;CYQR 290200Z 34014KT 15SM -SN OVC015 M07/ A2993 RMK SC8 SLP173

CYQR;2011-01-29 03:00;CYQR 290300Z 01014KT 15SM -SN OVC018 M08/ A2993 RMK SC8 SLP170

CYQR;2011-01-29 04:00;CYQR 290400Z 35013KT 15SM -SN OVC016 M08/ A2996 RMK SC8 SLP182

CYQR;2011-01-29 05:00;CYQR 290500Z 36011KT 15SM -SN OVC015 M09/ A2999 RMK SC8 SLP189

CYQR;2011-01-29 05:40;CYQR 290540Z 35014KT 15SM -SN BKN007 OVC015 RMK SF6SC2 CIG LWR SE

CYQR;2011-01-29 06:00;CYQR 290600Z 35014KT 15SM -SN SCT007 OVC015 M10/ A3000 RMK SF3SC5 SLP194

CYQR;2011-01-29 06:45;CYQR 290645Z 01014KT 15SM FEW008 OVC017 RMK SF2SC6

CYQR;2011-01-29 07:00;CYQR 290700Z 01015KT 15SM -SN FEW008 OVC020 M12/ A3000 RMK SF1SC7 SLP194

CYQR;2011-01-29 08:00;CYQR 290800Z 35013KT 15SM FEW010 OVC022 M11/ A3003 RMK SF1SC7 SLP205

CYQR;2011-01-29 08:54;CYQR 290854Z 35011KT 15SM -SN FEW010 OVC022 M14/ A3004 RMK SF1SC7

CYQR;2011-01-29 10:00;CYQR 291000Z 35011KT 10SM -SN OVC020 M12/ A3008 RMK SC8 SLP228

CYQR;2011-01-29 11:00;CYQR 291100Z 36009KT 15SM -SN OVC020 M14/ A3011 RMK SC8 SLP239

CYQR;2011-01-29 11:21;CYQR 291121Z 36009KT 15SM -SN BKN010 OVC024 RMK SF6SC2

CYQR;2011-01-29 12:00;CYQR 291200Z 35012KT 15SM -SN FEW010 OVC025 M14/ A3014 RMK SF2SC6 SLP250

CYQR;2011-01-29 13:00;CYQR 291300Z 35011G16KT 15SM -SN FEW010 OVC025 M15/ A3015 RMK SF1SC7 SLP255

CYQR;2011-01-29 14:00;CYQR 291400Z 36013KT 15SM -SN FEW010 OVC025 M15/ A3016 RMK SF1SC7 SLP258

CYQR;2011-01-29 15:00;CYQR 291500Z 01011KT 10SM -SN FEW010 OVC030 M15/ A3019 RMK SF1SC7 SLP271

CYQR;2011-01-29 16:00;CYQR 291600Z 36009KT 4SM -SN FEW010 OVC026 M15/ A3021 RMK SF1SC7 SLP277

CYQR;2011-01-29 17:00;CYQR 291700Z 02008KT 8SM -SN FEW010 OVC025 M15/M17 A3023 RMK SF1SC7 SLP283

CYQR;2011-01-29 18:00;CYQR 291800Z 34009KT 4SM -SN FEW015 OVC027 M15/M16 A3026 RMK SF1SC7 SLP295

CYQR;2011-01-29 19:00;CYQR 291900Z 34010KT 4SM -SN FEW015 OVC025 M14/M17 A3026 RMK SF1SC7 SLP297

CYQR;2011-01-29 20:00;CYQR 292000Z 35011KT 6SM R13/4500VP6000FT/D -SN FEW015 OVC025 M15/M17 A3025 RMK SF1SC7 SLP292

CYQR;2011-01-29 22:00;CYQR 292200Z 35010KT 12SM -SN FEW015 OVC030 M14/M18 A3028 RMK SC2SC6 SLP306

CYQR;2011-01-29 23:00;CYQR 292300Z 35011KT 12SM -SN FEW015 OVC030 M16/M18 A3030 RMK SC2SC6 SLP310

CYQR;2011-01-30 00:00;CYQR 300000Z 03010KT 12SM -SN FEW015 OVC030 M16/M20 A3031 RMK SC2SC6 SLP319

CYQR;2011-01-30 01:00;CYQR 300100Z 01008KT 12SM -SN OVC030 M16/M21 A3036 RMK SC8 SLP333

CYQR;2011-01-30 02:00;CYQR 300200Z 03008KT 12SM -SN FEW015 OVC030 M16/M19 A3037 RMK SC1SC8 SLP336

CYQR;2011-01-30 03:00;CYQR 300300Z 03008KT 12SM -SN OVC041 M17/M20 A3039 RMK SC8 SLP345

CYQR;2011-01-30 04:00;CYQR 300400Z 03008KT 12SM -SN OVC040 M17/M20 A3040 RMK SC8 SLP349

CYQR;2011-01-30 05:00;CYQR 300500Z 05009KT 12SM -SN OVC040 M17/M20 A3041 RMK SC8 SLP352

CYQR;2011-01-30 06:00;CYQR 300600Z 07010KT 12SM -SN OVC046 M18/M20 A3040 RMK SC8 SLP352

CYQR;2011-01-30 07:00;CYQR 300700Z 08010KT 12SM -SN FEW015 OVC045 M18/M21 A3041 RMK SC1SC7 SLP354

CYQR;2011-01-30 08:00;CYQR 300800Z 08009KT 12SM -SN OVC040 M19/M21 A3042 RMK SC8 SLP356

CYQR;2011-01-30 09:00;CYQR 300900Z 07010KT 12SM -SN OVC040 M19/M22 A3042 RMK SC8 SLP359

CYQR;2011-01-30 10:00;CYQR 301000Z 08011KT 15SM -SN OVC045 M20/M23 A3043 RMK SC8 SLP360

CYQR;2011-01-30 11:00;CYQR 301100Z 07008KT 15SM -SN OVC045 M20/M23 A3044 RMK SC8 SLP365

CYQR;2011-01-30 13:00;CYQR 301300Z 08008KT 15SM -SN OVC044 M21/M24 A3046 RMK SC8 SLP373

CYQR;2011-01-30 14:00;CYQR 301400Z 09013KT 4SM -SN OVC045 M22/M24 A3043 RMK SC8 SLP364

CYQR;2011-01-30 15:00;CYQR 301500Z 08010KT 6SM -SN OVC045 M21/M23 A3045 RMK SC8 SLP372

CYQR;2011-01-30 15:38;CYQR 301538Z 11010KT 2 1/2SM -SN DRSN SCT015 OVC045 M21/ RMK SC3SC5

CYQR;2011-01-30 16:00;CYQR 301600Z 10013KT 2 1/2SM -SN DRSN BKN020 OVC045 M21/M25 A3046 RMK SC5SC3 SLP376

CYQR;2011-01-30 16:21;CYQR 301621Z 09013KT 3SM -SN DRSN BKN020 OVC045 M20/ RMK SC5SC3

CYQR;2011-01-30 17:00;CYQR 301700Z 10013KT 4SM -SN DRSN BKN015 OVC045 M22/M26 A3048 RMK SC5SC3 SLP380

CYQR;2011-01-30 18:00;CYQR 301800Z 09013KT 3SM -SN DRSN BKN015 OVC035 M22/M26 A3048 RMK SC5SC3 SLP384

CYQR;2011-01-30 20:00;CYQR 302000Z 09009KT 6SM -SN DRSN SCT015 OVC040 M20/M23 A3048 RMK SC4SC4 SLP383

CYQR;2011-01-30 20:23;CYQR 302023Z 10012KT 2 1/2SM -SN DRSN SCT015 OVC040 M21/ RMK SC2SC6

CYQR;2011-01-30 20:30;CYQR 302030Z 11012KT 1 1/2SM -SN DRSN SCT015 OVC040 M21/ RMK SC3SC5

CYQR;2011-01-30 20:42;CYQR 302042Z 10012KT 3/4SM R13/P6000FT/N -SN DRSN SCT015 OVC040 M21/ RMK SN1SC2SC5

CYQR;2011-01-30 21:00;CYQR 302100Z 12010KT 1SM R13/P6000FT/D -SN DRSN BKN025 OVC040 M21/M26 A3049 RMK SC5SC3 SLP386

CYQR;2011-01-30 22:00;CYQR 302200Z 09010KT 1 1/2SM -SN DRSN BKN025 OVC040 M22/M26 A3047 RMK SC6SC2 SLP381

CYQR;2011-01-30 22:27;CYQR 302227Z 11006KT 2SM -SN BKN025 OVC040 M21/ RMK SC6SC2

CYQR;2011-01-30 23:00;CYQR 302300Z 10008KT 2SM -SN OVC025 M21/M25 A3051 RMK SC8 SLP394

CYQR;2011-01-30 23:18;CYQR 302318Z 10009KT 1SM R13/P6000FT/N -SN OVC025 M21/ RMK SC8

CYQR;2011-01-30 23:50;CYQR 302350Z 09007KT 2SM -SN OVC030 M21/ RMK SC8

CYQR;2011-01-31 00:00;CYQR 310000Z 07007KT 3SM -SN OVC030 M21/M26 A3050 RMK SC8 SLP391

CYQR;2011-01-31 01:00;CYQR 310100Z 08009KT 4SM -SN OVC030 M21/M23 A3051 RMK SC8 SLP395

CYQR;2011-01-31 03:00;CYQR 310300Z 09009KT 3SM -SN OVC030 M21/M22 A3053 RMK SC8 VIS VRB 2-4 SLP402

CYQR;2011-01-31 04:00;CYQR 310400Z 08006KT 2 1/2SM -SN OVC020 M21/M22 A3053 RMK SC8 VIS VRB 2-3 SLP403

CYQR;2011-01-31 05:00;CYQR 310500Z 08005KT 2 1/2SM -SN OVC020 M21/M22 A3055 RMK SC8 VIS VRB 2-3 /S01/ SLP410

CYQR;2011-01-31 06:00;CYQR 310600Z 07006KT 2 1/2SM -SN OVC030 M20/M22 A3056 RMK SC8 SLP412

CYQR;2011-01-31 07:00;CYQR 310700Z CCA 07006KT 2 1/2SM -SN OVC030 M20/M22 A3057 RMK SC8 VIS VRB 2-3 SLP417

CYQR;2011-01-31 08:00;CYQR 310800Z 08006KT 2 1/2SM -SN OVC030 M21/M22 A3058 RMK SC8 SLP420

CYQR;2011-01-31 10:00;CYQR 311000Z 06005KT 4SM -SN OVC030 M20/M23 A3060 RMK SC8 SLP427

CYQR;2011-01-31 11:00;CYQR 311100Z 04007KT 10SM -SN OVC030 M20/M22 A3061 RMK SC8 SLP429

CYQR;2011-01-31 13:00;CYQR 311300Z 02005KT 12SM -SN OVC060 M20/M21 A3062 RMK SC6 SLP433

CYQR;2011-01-31 14:00;CYQR 311400Z 35004KT 15SM -SN OVC060 M21/M22 A3063 RMK SC6 SLP437

CYQR;2011-01-31 14:22;CYQR 311422Z 33004KT 15SM FEW060 OVC300 M21/ RMK SC2CI2

CYQR;2011-01-31 15:00;CYQR 311500Z 32006KT 15SM FEW120 BKN300 M19/M20 A3065 RMK AC1CI4 SLP441

CYQR;2011-01-31 16:00;CYQR 311600Z 33006KT 15SM FEW120 BKN300 M20/M27 A3067 RMK AC1CI2 SLP449

CYQR;2011-01-31 17:00;CYQR 311700Z 32010KT 15SM BKN300 M21/M25 A3069 RMK CI2 SLP454

CYQR;2011-01-31 18:00;CYQR 311800Z 32012KT 15SM BKN300 M21/M23 A3069 RMK CI2 SLP458

CYQR;2011-01-31 19:00;CYQR 311900Z 33010KT 15SM FEW300 M20/M24 A3069 RMK CI1 SLP459

CYQR;2011-01-31 20:00;CYQR 312000Z CCA 33010KT 15SM FEW300 M20/M24 A3069 RMK CI1 SLP456

CYQR;2011-01-31 21:00;CYQR 312100Z 32009KT 15SM FEW300 M19/M23 A3069 RMK CI1 SLP454

CYQR;2011-01-31 22:00;CYQR 312200Z 32011KT 15SM FEW300 M17/M21 A3070 RMK CI0 SLP460

CYQR;2011-01-31 23:00;CYQR 312300Z 34009KT 15SM FEW300 M27/M33 A3073 RMK CI1 SLP467

CYQR;2011-02-01 00:00;CYQR 010000Z 33006KT 15SM FEW300 M28/M35 A3074 RMK CI1 SLP482

CYQR;2011-02-01 01:00;CYQR 010100Z 34010KT 15SM SKC M29/M36 A3076 RMK SLP487

CYQR;2011-02-01 01:00;CYQR 010100Z 34010KT 15SM SKC M29/M36 A3076 RMK SLP487

CYQR;2011-02-01 02:00;CYQR 010200Z 33007KT 15SM SKC M30/M36 A3077 RMK SLP491

CYQR;2011-02-01 02:00;CYQR 010200Z 33007KT 15SM SKC M30/M36 A3077 RMK SLP491

CYQR;2011-02-01 03:00;CYQR 010300Z 30007KT 15SM SKC M33/M38 A3078 RMK SLP496

CYQR;2011-02-01 03:00;CYQR 010300Z 30007KT 15SM SKC M33/M38 A3078 RMK SLP496

CYQR;2011-02-01 04:00;CYQR 010400Z 30009KT 15SM SKC M34/M39 A3079 RMK SLP501

CYQR;2011-02-01 04:00;CYQR 010400Z 30009KT 15SM SKC M34/M39 A3079 RMK SLP501

CYQR;2011-02-01 05:00;CYQR 010500Z 29006KT 15SM SKC M35/M41 A3080 RMK SLP505

CYQR;2011-02-01 05:00;CYQR 010500Z 29006KT 15SM SKC M35/M41 A3080 RMK SLP505

CYQR;2011-02-01 06:00;CYQR 010600Z 31006KT 15SM SKC M35/M40 A3081 RMK SLP511

CYQR;2011-02-01 07:00;CYQR 010700Z 29004KT 15SM SKC M36/M41 A3081 RMK SLP511

CYQR;2011-02-01 08:00;CYQR 010800Z 30005KT 15SM SKC M35/M41 A3081 RMK SLP511

CYQR;2011-02-01 09:00;CYQR 010900Z 32006KT 15SM SKC M35/M40 A3082 RMK SLP512

CYQR;2011-02-01 10:00;CYQR 011000Z 30005KT 15SM SKC M35/M41 A3082 RMK SLP514

CYQR;2011-02-01 11:00;CYQR 011100Z 29005KT 15SM SKC M36/M42 A3081 RMK SLP511

CYQR;2011-02-01 12:00;CYQR 011200Z 27002KT 15SM SKC M36/M40 A3081 RMK SLP519

CYQR;2011-02-01 12:24;CYQR 011224Z 00000KT 15SM FEW005 M34/ RMK ST1 CLD LYR OVR CITY

CYQR;2011-02-01 13:00;CYQR 011300Z 00000KT 15SM FEW005 M34/M40 A3079 RMK ST1 CLD OVR CITY SLP513

CYQR;2011-02-01 14:00;CYQR 011400Z 23002KT 15SM MIFG FEW005 FEW230 M35/M40 A3079 RMK SF1CI1 SLP511

CYQR;2011-02-01 15:00;CYQR 011500Z 19006KT 15SM SKC M34/M39 A3077 RMK SLP509

CYQR;2011-02-01 16:00;CYQR 011600Z 15007KT 12SM SKC M32/M38 A3077 RMK IC SLP508

CYQR;2011-02-01 16:37;CYQR 011637Z 13007KT 15SM SKC M30/

CYQR;2011-02-01 17:00;CYQR 011700Z 13006KT 15SM SKC M29/M34 A3076 RMK SLP506

CYQR;2011-02-01 18:00;CYQR 011800Z 15006KT 15SM SKC M28/M32 A3074 RMK SLP494

CYQR;2011-02-01 19:00;CYQR 011900Z 14005KT 15SM SKC M26/M32 A3073 RMK SLP489

CYQR;2011-02-01 20:00;CYQR 012000Z 16007KT 15SM FEW220 M25/M30 A3069 RMK CI0 SLP478

CYQR;2011-02-01 21:00;CYQR 012100Z 17006KT 15SM FEW220 M24/M30 A3068 RMK CI1 SLP469

CYQR;2011-02-01 22:00;CYQR 012200Z 17007KT 15SM SKC M24/M29 A3065 RMK SLP460

CYQR;2011-02-01 23:00;CYQR 012300Z 17009KT 15SM SKC M24/M29 A3064 RMK SLP455

CYQR;2011-02-02 00:00;CYQR 020000Z 16008KT 15SM SKC M25/M31 A3061 RMK SLP447

CYQR;2011-02-02 01:00;CYQR 020100Z 17008KT 15SM SKC M27/M32 A3058 RMK SLP438

CYQR;2011-02-02 02:00;CYQR 020200Z 16009KT 15SM SKC M27/M32 A3054 RMK FROIN SLP425

CYQR;2011-02-02 03:00;CYQR 020300Z 17010KT 15SM SKC M27/M32 A3050 RMK SLP409

CYQR;2011-02-02 04:00;CYQR 020400Z 17010KT 15SM SKC M27/M33 A3048 RMK SLP401

CYQR;2011-02-02 05:00;CYQR 020500Z 16007KT 15SM SKC M27/M32 A3045 RMK SLP392

CYQR;2011-02-02 06:00;CYQR 020600Z 15008KT 15SM SKC M30/M35 A3042 RMK SLP378

CYQR;2011-02-02 07:00;CYQR 020700Z 15008KT 15SM SKC M30/M35 A3039 RMK SLP369

CYQR;2011-02-02 08:00;CYQR 020800Z 15008KT 15SM SKC M28/M33 A3035 RMK SLP356

CYQR;2011-02-02 09:00;CYQR 020900Z 15007KT 15SM FEW230 M29/M34 A3033 RMK CI0 SLP344

CYQR;2011-02-02 10:00;CYQR 021000Z 15009KT 15SM SKC M29/M34 A3031 RMK SLP338

CYQR;2011-02-02 11:00;CYQR 021100Z 16008KT 15SM SKC M25/M30 A3026 RMK PRESFR SLP322

CYQR;2011-02-02 12:00;CYQR 021200Z 12006KT 15SM FEW230 M27/M33 A3025 RMK CI1 SLP314

CYQR;2011-02-02 13:00;CYQR 021300Z 13006KT 15SM FEW230 M28/M33 A3021 RMK CI0 SLP303

CYQR;2011-02-02 14:00;CYQR 021400Z 18004KT 15SM FEW120 BKN230 M24/M28 A3017 RMK AC2CI2 SLP289

CYQR;2011-02-02 15:00;CYQR 021500Z 26011KT 15SM FEW120 BKN230 M18/M23 A3015 RMK AC1CI3 SLP273

CYQR;2011-02-02 16:00;CYQR 021600Z 26020KT 15SM FEW079 BKN240 M16/M21 A3011 RMK AC2CI2 SLP262

CYQR;2011-02-02 17:00;CYQR 021700Z 25025KT 12SM DRSN BKN089 BKN240 M14/M19 A3009 RMK AC6CI2 VIS W 2 BLSN SLP254

CYQR;2011-02-02 18:00;CYQR 021800Z 27017KT 15SM FEW130 BKN240 M13/M18 A3009 RMK AC2CI4 SLP251

CYQR;2011-02-02 19:00;CYQR 021900Z 27013KT 15SM SCT086 BKN240 BKN300 M13/M17 A3006 RMK AC3CI2CI1 SLP243

CYQR;2011-02-02 20:00;CYQR 022000Z 26015G20KT 15SM FEW097 BKN240 OVC300 M11/M15 A3001 RMK AC2CI2CI2 SLP227

CYQR;2011-02-02 21:00;CYQR 022100Z 27019KT 15SM SCT088 BKN240 OVC300 M11/M14 A3000 RMK AC3CI2CI1 SLP218

CYQR;2011-02-02 22:00;CYQR 022200Z 26010KT 15SM FEW092 BKN240 BKN300 M10/M14 A2998 RMK AC2CI2CI1 CC ASOCTD SLP212

CYQR;2011-02-02 23:00;CYQR 022300Z 26012KT 15SM FEW092 FEW240 BKN300 M09/M13 A2996 RMK AC1CI1CI1 SLP205

CYQR;2011-02-03 00:00;CYQR 030000Z 27013KT 15SM FEW095 FEW240 BKN300 M11/M14 A2996 RMK AC1CI1CI1 SLP203

CYQR;2011-02-03 01:00;CYQR 030100Z 27014KT 15SM FEW095 FEW240 M11/M14 A2996 RMK AC1CI0 SLP201

CYQR;2011-02-03 02:00;CYQR 030200Z 28009KT 15SM SCT083 M11/M13 A2994 RMK AC2 SLP195

CYQR;2011-02-03 03:00;CYQR 030300Z 28010KT 15SM SKC M09/M11 A2992 RMK SLP181

CYQR;2011-02-03 04:00;CYQR 030400Z 30009KT 15SM SKC M08/M11 A2992 RMK SLP181

CYQR;2011-02-03 05:00;CYQR 030500Z 29011KT 15SM SKC M07/M10 A2993 RMK SLP183

CYQR;2011-02-03 06:00;CYQR 030600Z 27008KT 15SM BKN060 M07/M09 A2994 RMK SC4 OBS TAKEN +06 SLP180

CYQR;2011-02-03 07:00;CYQR 030700Z 31011KT 15SM SCT060 M06/M08 A2994 RMK SC2 SLP180

CYQR;2011-02-03 08:00;CYQR 030800Z 30011KT 15SM FEW060 M07/M09 A2994 RMK SC1 SLP180

CYQR;2011-02-03 09:00;CYQR 030900Z 28007KT 15SM SKC M10/M13 A2996 RMK SLP190

CYQR;2011-02-03 10:00;CYQR 031000Z 28011KT 15SM SKC M10/M12 A2997 RMK SLP193

CYQR;2011-02-03 11:00;CYQR 031100Z 30012KT 15SM SKC M09/M11 A2997 RMK SLP193

CYQR;2011-02-03 12:00;CYQR 031200Z 29009KT 15SM FEW200 M09/M11 A2996 RMK CI1 SLP188

CYQR;2011-02-03 13:00;CYQR 031300Z 28008KT 15SM FEW200 M10/M12 A2996 RMK CI2 SLP188

CYQR;2011-02-03 14:00;CYQR 031400Z 30011KT 15SM FEW200 M09/M11 A2996 RMK CI1 SLP190

CYQR;2011-02-03 15:00;CYQR 031500Z 30014KT 15SM DRSN FEW079 BKN200 M07/M10 A2997 RMK AC1CI1 SLP190

CYQR;2011-02-03 16:00;CYQR 031600Z 27005KT 15SM FEW085 BKN250 M07/M10 A2999 RMK AC1CI1 SLP196

CYQR;2011-02-03 17:00;CYQR 031700Z 26009KT 15SM FEW085 BKN250 M06/M08 A2998 RMK AC1CI2 SLP193

CYQR;2011-02-03 18:00;CYQR 031800Z 28014KT 15SM FEW059 SCT084 BKN250 M05/M08 A2997 RMK SC1AC2CI2 SLP187

CYQR;2011-02-03 19:00;CYQR 031900Z 25013KT 15SM BKN080 OVC250 M04/M07 A2996 RMK AC5CI2 SLP182

CYQR;2011-02-03 20:00;CYQR 032000Z 24008KT 15SM BKN095 BKN200 M03/M06 A2994 RMK AC5CI1 SLP176

CYQR;2011-02-03 21:00;CYQR 032100Z 25010KT 15SM FEW089 BKN200 M02/M05 A2990 RMK AC1CI2 SLP162

CYQR;2011-02-03 22:00;CYQR 032200Z 26010KT 15SM FEW090 BKN200 M02/M05 A2989 RMK AC1CI2 SLP157

CYQR;2011-02-03 23:00;CYQR 032300Z 26013KT 15SM SCT120 OVC200 M02/M05 A2987 RMK AC3CI3 SLP152

CYQR;2011-02-04 00:00;CYQR 040000Z 30008KT 15SM SCT080 OVC200 M03/M06 A2987 RMK AC3CI3 SLP152

CYQR;2011-02-04 01:00;CYQR 040100Z 24011KT 15SM SCT100 OVC220 M03/M05 A2983 RMK AC4CI3 SLP139

CYQR;2011-02-04 02:00;CYQR 040200Z 27006KT 15SM BKN110 OVC220 M03/M05 A2980 RMK AC6CI2 SLP128

CYQR;2011-02-04 03:00;CYQR 040300Z 28014KT 15SM SCT110 BKN220 M03/M06 A2979 RMK AC3CI1 SLP122

CYQR;2011-02-04 04:00;CYQR 040400Z 29013KT 15SM SCT110 BKN220 M02/M05 A2979 RMK AC2CI2 SLP121

CYQR;2011-02-04 05:00;CYQR 040500Z 29010KT 15SM -FZRA BKN051 OVC063 M01/M04 A2979 RMK SC6SC2 CVCTV CLD EMBD SLP123

CYQR;2011-02-04 06:00;CYQR 040600Z 28011KT 15SM -FZRA BKN027 OVC051 M01/M03 A2978 RMK SC6SC2 PCPN VRY LGT SLP115

CYQR;2011-02-04 06:14;CYQR 040614Z 29008KT 15SM BKN027 OVC050 M01/ REFZRA RMK SC5SC3

CYQR;2011-02-04 07:00;CYQR 040700Z 29012KT 15SM SCT050 M02/M04 A2979 REFZRA RMK SC2 SLP118

CYQR;2011-02-04 08:00;CYQR 040800Z 31011KT 15SM SKC M03/M06 A2980 RMK SLP122

CYQR;2011-02-04 09:00;CYQR 040900Z 30013KT 15SM SKC M04/M07 A2981 RMK SLP127

CYQR;2011-02-04 10:00;CYQR 041000Z 29011KT 15SM SKC M05/M08 A2981 RMK SLP127

CYQR;2011-02-04 11:00;CYQR 041100Z 28015KT 15SM SKC M06/M08 A2981 RMK SLP126

CYQR;2011-02-04 12:00;CYQR 041200Z 29014KT 15SM SKC M05/M08 A2981 RMK SLP128

CYQR;2011-02-04 13:00;CYQR 041300Z 28011KT 15SM SKC M07/M09 A2981 RMK SLP130

CYQR;2011-02-04 14:00;CYQR 041400Z 00000KT 15SM FEW050 BKN270 M07/M09 A2979 RMK SC1CI1 SLP123

CYQR;2011-02-04 15:00;CYQR 041500Z 30005KT 15SM FEW070 BKN150 BKN270 M06/M08 A2979 RMK AC2AC2CI0 SLP121

CYQR;2011-02-04 16:00;CYQR 041600Z 31007KT 15SM FEW100 BKN160 BKN250 M06/M08 A2977 RMK AC2AC3CI1 SLP114

CYQR;2011-02-04 17:00;CYQR 041700Z 29013KT 15SM FEW040 BKN085 M03/M05 A2974 RMK SC1AC6 SLP106

CYQR;2011-02-04 18:00;CYQR 041800Z 28013KT 15SM BKN060 BKN160 M01/M03 A2973 RMK SC6AC1 SLP096

CYQR;2011-02-04 19:00;CYQR 041900Z 30007KT 15SM FEW049 BKN062 BKN160 01/M01 A2970 RMK SC1SC5AC1 SLP085

CYQR;2011-02-04 19:54;CYQR 041954Z 27012KT 15SM -SHRA BKN026 OVC075 01/ RMK SC6AC2 CVCTV CLD EMBD

CYQR;2011-02-04 20:00;CYQR 042000Z 27012KT 15SM -SHRA BKN026 OVC075 01/M00 A2966 RMK SC6AC2 CVCTV CLD EMBD SLP073

CYQR;2011-02-04 20:19;CYQR 042019Z 27012KT 15SM BKN026 BKN075 BKN250 01/ RMK SC5AC2CI1

CYQR;2011-02-04 21:00;CYQR 042100Z 27008KT 15SM FEW022 BKN032 BKN100 BKN250 02/M00 A2962 RMK SC1SC4AC2CI0 SLP059

CYQR;2011-02-04 22:00;CYQR 042200Z 27004KT 15SM BKN045 BKN100 01/M00 A2960 RMK SC6AC1 VIRGA SLP052

CYQR;2011-02-04 22:06;CYQR 042206Z 27009KT 15SM -SHRA BKN038 OVC090 01/ RMK SC6AC2 CVCTV CLD EMBD

CYQR;2011-02-04 22:29;CYQR 042229Z 27012KT 15SM BKN038 OVC100 01/ RMK SC6AC2

CYQR;2011-02-04 22:42;CYQR 042242Z 28013KT 15SM -SHRA SCT020 BKN032 OVC100 01/ RMK SC3SC4AC1 CVCTV CLD EMBD

CYQR;2011-02-04 23:00;CYQR 042300Z 28015KT 10SM -SHRA BKN020 OVC055 01/M00 A2958 RMK SC6SC2 CVCTV CLD EMBD SLP047

CYQR;2011-02-04 23:48;CYQR 042348Z 23017KT 15SM BKN016 BKN085 BKN250 01/ RMK SC5AC1CI0

CYQR;2011-02-05 00:00;CYQR 050000Z 23016KT 15SM BKN016 BKN085 BKN250 01/00 A2954 RMK SC5AC1CI0 SLP033

CYQR;2011-02-05 01:00;CYQR 050100Z 25004KT 15SM FEW004 SCT015 BKN065 BKN250 01/M01 A2954 RMK SF1SC3SC2CI0 SLP034

CYQR;2011-02-05 02:00;CYQR 050200Z 27006KT 15SM BKN012 OVC033 01/M00 A2955 RMK SC6SC2 SLP036

CYQR;2011-02-05 02:30;CYQR 050230Z 27008KT 12SM -RA BKN012 OVC035 01/ RMK SC5SC3

CYQR;2011-02-05 03:00;CYQR 050300Z 31006KT 15SM -RA BKN028 OVC070 01/M00 A2954 RMK SC6AC2 SLP032

CYQR;2011-02-05 03:17;CYQR 050317Z 28009KT 15SM BKN028 OVC060 01/ RMK SC6SC2

CYQR;2011-02-05 03:20;CYQR 050320Z 28008KT 15SM -SHRA BKN028 OVC060 01/ RMK SC6SC2

CYQR;2011-02-05 03:42;CYQR 050342Z 28005KT 15SM SCT033 BKN060 BKN220 01/ RMK SC4SC2CI0

CYQR;2011-02-05 04:00;CYQR 050400Z 28008KT 15SM BKN033 BKN060 BKN220 01/M00 A2952 RMK SC6SC2CI1 SLP028

CYQR;2011-02-05 05:00;CYQR 050500Z 30008KT 15SM SCT030 BKN065 OVC220 00/M01 A2953 RMK SC4SC3CI1 OBS TAKEN -07 SLP030

CYQR;2011-02-05 05:51;CYQR 050551Z 32009KT 15SM -RA BKN012 OVC070 01/ RMK SC6AC2

CYQR;2011-02-05 06:00;CYQR 050600Z 31007KT 12SM -SHRA SCT012 BKN028 OVC070 01/M00 A2953 RMK SC4SC3AC1 CVCTV CLD EMBD SLP027

CYQR;2011-02-05 06:18;CYQR 050618Z 31008KT 15SM BKN023 OVC070 01/ RMK SC6AC2

CYQR;2011-02-05 07:00;CYQR 050700Z 31010KT 15SM FEW012 BKN029 OVC070 01/M00 A2954 RMK SC1SC4AC3 SLP030

CYQR;2011-02-05 08:00;CYQR 050800Z 32009KT 15SM VCSH BKN043 OVC085 01/M00 A2956 RMK SC5AC3 SLP034

CYQR;2011-02-05 09:00;CYQR 050900Z 32006KT 15SM FEW012 BKN055 00/M01 A2956 RMK SC1SC6 SLP036

CYQR;2011-02-05 09:11;CYQR 050911Z 33005KT 15SM -SN FEW012 BKN050 M00/ RMK SC1SC6

CYQR;2011-02-05 09:33;CYQR 050933Z 32010KT 15SM SCT007 OVC035 00/ RMK SC2SC5

CYQR;2011-02-05 10:00;CYQR 051000Z 32011KT 15SM SCT007 BKN037 OVC100 00/M00 A2957 RMK SC3SC4AC1 SLP039

CYQR;2011-02-05 10:29;CYQR 051029Z 00000KT 12SM BKN005 OVC021 M00/ RMK SC6SC2

CYQR;2011-02-05 11:00;CYQR 051100Z 31007KT 10SM OVC005 M00/M01 A2959 RMK SC8 SLP046

CYQR;2011-02-05 11:28;CYQR 051128Z 33008KT 10SM OVC009 M00/ RMK ST8

CYQR;2011-02-05 11:43;CYQR 051143Z 32010KT 10SM OVC005 M00/ RMK ST8

CYQR;2011-02-05 11:52;CYQR 051152Z 32009KT 10SM -SN OVC005 M00/ RMK ST8

CYQR;2011-02-05 12:00;CYQR 051200Z 32008KT 10SM -SN OVC004 M00/M01 A2960 RMK ST8 SLP050

CYQR;2011-02-05 13:00;CYQR 051300Z 35006KT 8SM -SN OVC003 M01/M02 A2961 RMK ST8 SLP052

CYQR;2011-02-05 14:00;CYQR 051400Z 36007KT 4SM -SN BR OVC002 M01/M01 A2963 RMK ST8 SLP059

CYQR;2011-02-05 15:00;CYQR 051500Z 07009KT 4SM -SN BR OVC004 M00/M01 A2966 RMK SC8 SLP070

CYQR;2011-02-05 15:21;CYQR 051521Z 07010KT 2SM -SN BR OVC005 M01/ RMK SN2SC6 CIG VRB 4-6

CYQR;2011-02-05 15:37;CYQR 051537Z 07009KT 1 1/2SM -SN BR OVC005 M01/ RMK SN3SC5 VIS VRB 1-2

CYQR;2011-02-05 16:00;CYQR 051600Z 05012KT 1SM R13/6000FT/D -SN BR VV006 M01/M02 A2969 RMK SN8 VIS VRB 3/4-11/4 SLP079

CYQR;2011-02-05 17:00;CYQR 051700Z 05009KT 2SM -SN BR OVC006 M01/M02 A2972 RMK SN2SC6 VIS VRB 1-3 SLP090

CYQR;2011-02-05 18:00;CYQR 051800Z 05012KT 3SM -SN BR OVC009 M01/M03 A2976 RMK SC8 VIS VRB 2-4 SLP104

CYQR;2011-02-05 18:50;CYQR 051850Z 05012KT 1SM R13/P6000FT/U -SN BR OVC006 M01/ RMK SN5SC3 VIS VRB 3/4-11/4

CYQR;2011-02-05 19:00;CYQR 051900Z 06012KT 1SM R13/6000FT/N -SN BR OVC006 M01/M02 A2978 RMK SN5SC3 VIS VRB 3/4-11/4 SLP112

CYQR;2011-02-05 19:24;CYQR 051924Z 05010KT 3SM -SN BR BKN008 OVC038 M01/ RMK SF6SC2 VIS VRB 2-4

CYQR;2011-02-05 19:40;CYQR 051940Z 06011KT 2SM R13/4500VP6000FT/D -SN BR BKN009 OVC038 M00/ RMK SF6SC2 VIS VRB 1-3

CYQR;2011-02-05 20:00;CYQR 052000Z 04009KT 2SM -SN BR BKN007 OVC025 M00/M02 A2980 RMK SF6SC2 VIS VRB 1-3 SLP119

CYQR;2011-02-05 20:44;CYQR 052044Z 04011KT 3SM -SN BR BKN008 OVC038 M00/ RMK SF7SC1

CYQR;2011-02-05 21:00;CYQR 052100Z 03010KT 4SM -SN BR BKN007 OVC038 M00/M02 A2983 RMK SF7SC1 SLP128

CYQR;2011-02-05 21:51;CYQR 052151Z 02009KT 15SM -SN BKN008 OVC033 M00/ RMK SF6SC2

CYQR;2011-02-05 22:00;CYQR 052200Z 01008KT 15SM -SN BKN008 OVC031 M00/M02 A2986 RMK SF6SC2 SLP139

CYQR;2011-02-05 22:51;CYQR 052251Z 01012KT 2SM -SN OVC007 M01/ RMK SN3SF5 VIS VRB 1-3

CYQR;2011-02-05 23:00;CYQR 052300Z 01010KT 4SM -SN BKN007 OVC060 M01/M02 A2989 RMK SN2SF5SC2 SLP147

CYQR;2011-02-06 00:00;CYQR 060000Z 35011KT 15SM -SN FEW008 OVC029 M01/M03 A2992 RMK SF1SC7 SLP161

CYQR;2011-02-06 01:00;CYQR 060100Z 34009KT 6SM -SN BKN006 OVC066 M02/M03 A2995 RMK SF6SC2 SLP169

CYQR;2011-02-06 02:00;CYQR 060200Z 34011KT 10SM -SN BKN006 OVC069 M01/M03 A2996 RMK SF6AC2 SLP174

CYQR;2011-02-06 02:27;CYQR 060227Z 35010KT 12SM -SN BKN010 OVC073 M01/ RMK SC6AC2

CYQR;2011-02-06 02:39;CYQR 060239Z 35010KT 15SM -SN BKN007 OVC073 M01/ RMK SC7AC1

CYQR;2011-02-06 03:00;CYQR 060300Z 36014KT 12SM -SN OVC005 M02/M03 A2997 RMK SF8 SLP179

CYQR;2011-02-06 03:31;CYQR 060331Z 36016KT 12SM -SN DRSN BKN009 OVC070 M03/ RMK SC7AC1

CYQR;2011-02-06 04:00;CYQR 060400Z 36016KT 15SM -SN DRSN FEW009 BKN023 OVC076 M03/M05 A3000 RMK SC2SC4AC2 SLP190

CYQR;2011-02-06 05:00;CYQR 060500Z 01015KT 15SM -SN DRSN FEW010 BKN023 OVC076 M04/M06 A3003 RMK SC1SC6AC2 SLP197

CYQR;2011-02-06 06:00;CYQR 060600Z 02011KT 15SM -SN FEW010 FEW025 OVC080 M04/M07 A3006 RMK SC1SC2AC6 SLP212

CYQR;2011-02-06 06:21;CYQR 060621Z 01012KT 15SM FEW010 FEW025 OVC080 M04/ RMK SC1SC2AC6

CYQR;2011-02-06 07:00;CYQR 060700Z 36017KT 15SM FEW010 BKN052 OVC080 M05/M07 A3010 RMK SC1SC5AC3 SLP224

CYQR;2011-02-06 08:00;CYQR 060800Z 03014KT 15SM FEW010 SCT050 OVC065 M05/M08 A3011 RMK SC1SC3SC5 SLP229

CYQR;2011-02-06 08:27;CYQR 060827Z 02013KT 15SM -SN SCT041 OVC065 M05/ RMK SC4SC4

CYQR;2011-02-06 09:00;CYQR 060900Z 01012KT 15SM -SN SCT012 OVC075 M06/M09 A3014 RMK SC4AC4 SLP240

CYQR;2011-02-06 10:00;CYQR 061000Z 36011KT 5SM -SN OVC020 M06/M09 A3017 RMK SC8 SLP250

CYQR;2011-02-06 11:00;CYQR 061100Z CCA 36014KT 10SM -SN BKN029 OVC070 M08/M11 A3021 RMK SC6AC2 /S01/ SLP262

CYQR;2011-02-06 12:00;CYQR 061200Z 36015G20KT 10SM -SN DRSN BKN030 BKN070 M09/M13 A3024 RMK SC5AC2 SLP279

CYQR;2011-02-06 13:00;CYQR 061300Z 01015G20KT 10SM -SN DRSN SCT019 OVC050 M10/M14 A3027 RMK SC3SC5 SLP288

CYQR;2011-02-06 14:00;CYQR 061400Z 01014KT 10SM -SN DRSN SCT051 BKN074 BKN250 M12/M15 A3030 RMK SC2AC2CI1 SLP299

CYQR;2011-02-06 14:19;CYQR 061419Z 01013KT 15SM DRSN FEW028 SCT051 BKN064 BKN250 M12/ RMK SC1SC2SC2CI2

CYQR;2011-02-06 15:00;CYQR 061500Z 02015G21KT 15SM DRSN FEW042 BKN064 BKN250 M13/M17 A3034 RMK SC1SC2CI2 SLP315

CYQR;2011-02-06 16:00;CYQR 061600Z 01013KT 15SM DRSN FEW081 BKN250 M14/M17 A3037 RMK AC2CI2 SLP326

CYQR;2011-02-06 17:00;CYQR 061700Z 36017KT 15SM FEW015 FEW080 SCT250 M14/M18 A3040 RMK SC1AC1CI1 SLP336

CYQR;2011-02-06 18:00;CYQR 061800Z 36017KT 15SM -SN DRSN BKN013 BKN050 M14/M18 A3043 RMK SC3SC2 VIS SW-NW 8 SLP348

CYQR;2011-02-06 18:24;CYQR 061824Z 36017KT 15SM DRSN BKN013 BKN050 BKN150 M14/ RMK SC2SC1AC1

CYQR;2011-02-06 19:00;CYQR 061900Z 36016KT 15SM BKN015 M13/M17 A3043 RMK SC7 SLP348

CYQR;2011-02-06 19:41;CYQR 061941Z 35015KT 15SM DRSN BKN013 M13/ RMK SC7

CYQR;2011-02-06 20:00;CYQR 062000Z 35016KT 15SM DRSN OVC013 M13/M16 A3042 RMK SC7 SLP346

CYQR;2011-02-06 20:21;CYQR 062021Z 35017KT 15SM DRSN OVC015 M13/ RMK SC7

CYQR;2011-02-06 20:32;CYQR 062032Z 34017KT 8SM -SN DRSN OVC015 M13/ RMK SC8

CYQR;2011-02-06 21:00;CYQR 062100Z 34019G24KT 10SM -SN DRSN OVC015 M13/M17 A3043 RMK SC7 SLP349

CYQR;2011-02-06 21:12;CYQR 062112Z 34021KT 15SM DRSN FEW015 BKN091 M14/ RMK SC2AC4

CYQR;2011-02-06 22:00;CYQR 062200Z 34016KT 15SM DRSN FEW012 FEW090 FEW150 M15/M19 A3044 RMK SC1AC1AC1 SLP353

CYQR;2011-02-06 23:00;CYQR 062300Z 34016KT 15SM DRSN FEW012 FEW090 FEW150 M16/M20 A3044 RMK SC1AC1AC1 SLP353

CYQR;2011-02-07 00:00;CYQR 070000Z 33011KT 15SM FEW015 FEW090 FEW250 M17/M21 A3044 RMK SC1AC1CI1 SLP360

CYQR;2011-02-07 01:00;CYQR 070100Z 34011KT 15SM FEW015 M18/M21 A3044 RMK SC1 SLP360

CYQR;2011-02-07 02:00;CYQR 070200Z 33011KT 15SM SKC M19/M23 A3044 RMK SLP359

CYQR;2011-02-07 03:00;CYQR 070300Z 34010KT 15SM SKC M21/M25 A3043 RMK SLP360

CYQR;2011-02-07 04:00;CYQR 070400Z 34010KT 15SM SKC M22/M26 A3042 RMK SLP359

CYQR;2011-02-07 05:00;CYQR 070500Z 35007KT 15SM SKC M23/M27 A3041 RMK SLP355

CYQR;2011-02-07 06:00;CYQR 070600Z 35008KT 15SM SKC M24/M28 A3039 RMK SLP351

CYQR;2011-02-07 07:00;CYQR 070700Z 29004KT 15SM SKC M25/M29 A3038 RMK SLP349

CYQR;2011-02-07 08:00;CYQR 070800Z 28006KT 15SM SKC M27/M33 A3036 RMK FROIN SLP341

CYQR;2011-02-07 09:00;CYQR 070900Z 29007KT 15SM SKC M28/M33 A3036 RMK SLP342

CYQR;2011-02-07 09:47;CYQR 070947Z 30003KT 4SM IC SKC M28/

CYQR;2011-02-07 10:00;CYQR 071000Z 27004KT 5SM IC SKC M28/M33 A3034 RMK SLP337

CYQR;2011-02-07 10:25;CYQR 071025Z 30003KT 15SM SKC M29/

CYQR;2011-02-07 11:00;CYQR 071100Z 00000KT 15SM SKC M29/M34 A3032 RMK SLP331

CYQR;2011-02-07 12:00;CYQR 071200Z 00000KT 15SM SKC M29/M34 A3031 RMK FROIN SLP330

CYQR;2011-02-07 12:19;CYQR 071219Z 33002KT 6SM IC SCT005 M29/ RMK SF0

CYQR;2011-02-07 12:51;CYQR 071251Z CCA 02003KT 12SM FEW002 M28/ RMK SF0

CYQR;2011-02-07 13:00;CYQR 071300Z 02003KT 12SM SCT002 M28/M33 A3030 RMK SF1 SLP327

CYQR;2011-02-07 13:22;CYQR 071322Z 03006KT 6SM IC BKN002 BKN080 M27/ RMK SF2AC1 IC

CYQR;2011-02-07 13:47;CYQR 071347Z 04004KT 10SM SCT002 SCT080 BKN230 M25/ RMK SF2AC1CI0 IC

CYQR;2011-02-07 14:00;CYQR 071400Z 04003KT 10SM FEW002 FEW080 BKN230 M25/M30 A3029 RMK SF2AC1CI1 IC SLP324

CYQR;2011-02-07 15:00;CYQR 071500Z 00000KT 12SM FEW080 SCT230 M28/M34 A3030 RMK AC1CI2 IC SLP331

CYQR;2011-02-07 16:00;CYQR 071600Z 26002KT 12SM BKN230 M28/M33 A3033 RMK CI1 IC VIS S-SW 3SM SLP338

CYQR;2011-02-07 17:00;CYQR 071700Z 28002KT 15SM SCT230 M26/M31 A3035 RMK CI2 IC CC ASOCTD SLP346

CYQR;2011-02-07 18:00;CYQR 071800Z 30003KT 15SM FEW210 M24/M29 A3035 RMK CI2 SLP348

CYQR;2011-02-07 19:00;CYQR 071900Z 29006KT 15SM FEW210 M22/M27 A3036 RMK CI1 SLP349

CYQR;2011-02-07 20:00;CYQR 072000Z 34008KT 15SM FEW020 FEW210 M22/M26 A3036 RMK SC1CI1 SC TR SLP350

CYQR;2011-02-07 21:00;CYQR 072100Z 33008KT 15SM FEW210 M22/M26 A3037 RMK CI1 SLP354

CYQR;2011-02-07 22:00;CYQR 072200Z 33009KT 15SM FEW210 M21/M26 A3040 RMK CI1 SLP363

CYQR;2011-02-07 23:00;CYQR 072300Z 31008KT 15SM FEW210 M22/M27 A3042 RMK CI1 SLP370

CYQR;2011-02-08 00:00;CYQR 080000Z 32007KT 15SM FEW210 M24/M28 A3044 RMK CI1 SLP380

CYQR;2011-02-08 01:00;CYQR 080100Z 32010KT 15SM SKC M25/M30 A3046 RMK SLP386

CYQR;2011-02-08 02:00;CYQR 080200Z 31010KT 15SM SKC M26/M30 A3048 RMK SLP392

CYQR;2011-02-08 03:00;CYQR 080300Z 30006KT 15SM SKC M26/M31 A3048 RMK SLP396

CYQR;2011-02-08 04:00;CYQR 080400Z 30008KT 15SM SKC M28/M33 A3048 RMK SLP396

CYQR;2011-02-08 05:00;CYQR 080500Z 29006KT 15SM SKC M29/M35 A3048 RMK SLP397

CYQR;2011-02-08 06:00;CYQR 080600Z 29011KT 15SM SKC M28/M34 A3049 RMK SLP396

CYQR;2011-02-08 06:11;CYQR 080611Z 29010KT 12SM FEW004 M28/ RMK ST1 IC

CYQR;2011-02-08 06:35;CYQR 080635Z 30006KT 15SM SKC M28/

CYQR;2011-02-08 07:00;CYQR 080700Z 30007KT 15SM SKC M28/M33 A3049 RMK SLP396

CYQR;2011-02-08 08:00;CYQR 080800Z 28009KT 15SM SKC M29/M34 A3048 RMK SLP393

CYQR;2011-02-08 09:00;CYQR 080900Z 29008KT 15SM SKC M28/M33 A3048 RMK SLP393

CYQR;2011-02-08 09:36;CYQR 080936Z CCA 28012KT 12SM SKC M28/ RMK IC

CYQR;2011-02-08 10:00;CYQR 081000Z 28011KT 12SM SKC M28/M33 A3047 RMK IC SLP390

CYQR;2011-02-08 10:40;CYQR 081040Z 28009KT 15SM SKC M29/

CYQR;2011-02-08 11:00;CYQR 081100Z 28011KT 15SM SKC M29/M34 A3047 RMK SLP389

CYQR;2011-02-08 12:00;CYQR 081200Z 28008KT 15SM SKC M30/M34 A3046 RMK SLP389

CYQR;2011-02-08 13:00;CYQR 081300Z 28009KT 15SM SKC M30/M35 A3045 RMK SLP385

CYQR;2011-02-08 14:00;CYQR 081400Z 29009KT 15SM FEW100 M29/M35 A3044 RMK AC1 SLP381

CYQR;2011-02-08 15:00;CYQR 081500Z 27013KT 15SM FEW100 M27/M32 A3042 RMK AC1 SLP374

CYQR;2011-02-08 16:00;CYQR 081600Z 28008KT 15SM FEW100 M26/M31 A3044 RMK AC1 SLP379

CYQR;2011-02-08 17:00;CYQR 081700Z 28012KT 15SM FEW100 M24/M29 A3042 RMK AC1 SLP373

CYQR;2011-02-08 18:00;CYQR 081800Z 30014KT 15SM SKC M22/M27 A3041 RMK SLP369

CYQR;2011-02-08 19:00;CYQR 081900Z 30017KT 15SM SKC M20/M25 A3038 RMK SLP359

CYQR;2011-02-08 20:00;CYQR 082000Z 29018KT 15SM FEW230 M19/M23 A3036 RMK CC1 SLP353

CYQR;2011-02-08 21:00;CYQR 082100Z 30017KT 15SM FEW230 M18/M23 A3035 RMK CI0 SLP343

CYQR;2011-02-08 22:00;CYQR 082200Z 31022KT 15SM DRSN FEW230 M18/M23 A3033 RMK CI0 SLP337

CYQR;2011-02-08 23:00;CYQR 082300Z 30017KT 13SM DRSN FEW130 FEW230 M19/M23 A3033 RMK AC1CI1 SLP337

CYQR;2011-02-09 00:00;CYQR 090000Z 30015KT 15SM FEW130 FEW230 M20/M25 A3033 RMK AC1CI1 SLP341

CYQR;2011-02-09 01:00;CYQR 090100Z 31015KT 12SM DRSN FEW230 M21/M25 A3033 RMK CI1 SLP340

CYQR;2011-02-09 02:00;CYQR 090200Z 30017KT 12SM DRSN SKC M21/M26 A3033 RMK SLP340

CYQR;2011-02-09 03:00;CYQR 090300Z 31011KT 12SM DRSN SKC M22/M27 A3034 RMK SLP341

CYQR;2011-02-09 04:00;CYQR 090400Z 31011KT 15SM DRSN SKC M22/M27 A3033 RMK SLP338

CYQR;2011-02-09 05:00;CYQR 090500Z 31012KT 15SM SKC M23/M27 A3032 RMK SLP336

CYQR;2011-02-09 06:00;CYQR 090600Z 31014KT 15SM FEW300 M23/M28 A3031 RMK CI0 SLP329

CYQR;2011-02-09 07:00;CYQR 090700Z 30012KT 15SM FEW270 M23/M28 A3031 RMK CI0 SLP328

CYQR;2011-02-09 08:00;CYQR 090800Z 31007KT 15SM FEW240 M24/M29 A3030 RMK CI0 SLP324

CYQR;2011-02-09 09:00;CYQR 090900Z 29010KT 15SM FEW210 M24/M29 A3027 RMK CI0 SLP313

CYQR;2011-02-09 10:00;CYQR 091000Z 30009KT 15SM FEW200 M23/M28 A3025 RMK CI0 SLP307

CYQR;2011-02-09 11:00;CYQR 091100Z 32006KT 15SM FEW200 M25/M30 A3024 RMK CI0 SLP303

CYQR;2011-02-09 12:00;CYQR 091200Z 20005KT 15SM FEW200 M27/M32 A3022 RMK CI0 SLP301

CYQR;2011-02-09 13:00;CYQR 091300Z 24007KT 15SM SKC M27/M32 A3020 RMK SLP294

CYQR;2011-02-09 14:00;CYQR 091400Z 25005KT 15SM MIFG FEW240 M27/M32 A3018 RMK CI0 VSBY E 2 SLP286

CYQR;2011-02-09 15:00;CYQR 091500Z 23002KT 15SM FEW240 M27/M32 A3016 RMK CI1 SLP280

CYQR;2011-02-09 16:00;CYQR 091600Z 20003KT 15SM FEW240 M25/M29 A3015 RMK CI1 CC ASOCTD SLP278

CYQR;2011-02-09 17:00;CYQR 091700Z 18006KT 15SM FEW240 M23/M28 A3012 RMK CI1 SLP269

CYQR;2011-02-09 18:00;CYQR 091800Z 17006KT 15SM FEW240 M22/M26 A3010 RMK CI1 SLP257

CYQR;2011-02-09 19:00;CYQR 091900Z 16007KT 15SM FEW240 M21/M25 A3006 RMK CI1 SLP243

CYQR;2011-02-09 20:00;CYQR 092000Z 16005KT 15SM SKC M19/M24 A3000 RMK PRESFR SLP226

CYQR;2011-02-09 21:00;CYQR 092100Z 16007KT 15SM FEW240 M20/M25 A2998 RMK CI1 SLP214

CYQR;2011-02-09 22:00;CYQR 092200Z 14006KT 15SM FEW240 M19/M24 A2996 RMK CI0 SLP207

CYQR;2011-02-09 23:00;CYQR 092300Z 13007KT 15SM FEW240 M20/M25 A2994 RMK CI0 SLP200

CYQR;2011-02-10 00:00;CYQR 100000Z CCB 13007KT 15SM FEW240 M21/M26 A2992 RMK CI0 SLP198

CYQR;2011-02-10 01:00;CYQR 100100Z 14004KT 15SM FEW240 M22/M27 A2991 RMK CI1 SLP193

CYQR;2011-02-10 02:00;CYQR 100200Z 21005KT 15SM FEW240 M24/M29 A2990 RMK CI1 SLP190

CYQR;2011-02-10 03:00;CYQR 100300Z 29008KT 15SM SKC M25/M30 A2989 RMK FROIN SLP189

CYQR;2011-02-10 04:00;CYQR 100400Z 29010KT 15SM SKC M26/M31 A2987 RMK SLP184

CYQR;2011-02-10 05:00;CYQR 100500Z 28006KT 15SM SKC M26/M30 A2986 RMK SLP181

CYQR;2011-02-10 06:00;CYQR 100600Z 27006KT 12SM SKC M26/M31 A2984 RMK SLP169

CYQR;2011-02-10 07:00;CYQR 100700Z 21006KT 12SM FEW220 M27/M32 A2981 RMK CI0 SLP161

CYQR;2011-02-10 08:00;CYQR 100800Z 25005KT 12SM FEW220 M26/M31 A2980 RMK CI0 SLP156

CYQR;2011-02-10 09:00;CYQR 100900Z 18004KT 12SM FEW220 M25/M31 A2977 RMK CI0 FROIN SLP142

CYQR;2011-02-10 10:00;CYQR 101000Z 18005KT 12SM FEW220 M26/M30 A2975 RMK CI0 SLP135

CYQR;2011-02-10 10:52;CYQR 101052Z 17005KT 8SM FEW220 M25/ RMK CI1 IC

CYQR;2011-02-10 11:00;CYQR 101100Z 18004KT 8SM FEW220 M25/M30 A2973 RMK CI1 IC SLP131

CYQR;2011-02-10 11:07;CYQR 101107Z 22004KT 4SM -SN SCT024 BKN220 M23/ RMK SC3CI1

CYQR;2011-02-10 11:43;CYQR 101143Z 24003KT 2SM -SN OVC022 M22/ RMK SC8

CYQR;2011-02-10 12:00;CYQR 101200Z 26004KT 3SM -SN OVC012 M21/M26 A2971 RMK SC8 SLP119

CYQR;2011-02-10 12:17;CYQR 101217Z 18004KT 1 1/2SM -SN VV006 M20/ RMK SN8

CYQR;2011-02-10 12:33;CYQR 101233Z 17002KT 3SM -SN OVC012 M19/ RMK SN2SC6

CYQR;2011-02-10 13:00;CYQR 101300Z 16002KT 5SM -SN OVC015 M18/M22 A2968 RMK SC8 SLP111

CYQR;2011-02-10 13:27;CYQR 101327Z 15004KT 2SM -SN OVC013 M17/ RMK SN2SC6

CYQR;2011-02-10 13:45;CYQR 101345Z 12005KT 3SM -SN OVC013 M18/ RMK SC8

CYQR;2011-02-10 13:53;CYQR 101353Z 13005KT 3SM -SN SCT013 OVC052 M19/ RMK SC4SC4

CYQR;2011-02-10 14:00;CYQR 101400Z 12005KT 6SM -SN SCT013 OVC052 M19/M23 A2966 RMK SC4SC4 SLP105

CYQR;2011-02-10 15:00;CYQR 101500Z 13005KT 15SM FEW013 BKN026 BKN200 M18/M22 A2966 RMK SC1SC6CI1 SLP104

CYQR;2011-02-10 15:30;CYQR 101530Z 13003KT 15SM BKN008 OVC030 M18/ RMK SC6SC2

CYQR;2011-02-10 15:48;CYQR 101548Z 15003KT 15SM BKN008 BKN030 M18/ RMK SF3SC3

CYQR;2011-02-10 16:00;CYQR 101600Z 00000KT 15SM SCT008 SCT025 SCT055 M18/M22 A2968 RMK SF0SC2SC1 SLP111

CYQR;2011-02-10 16:36;CYQR 101636Z 27002KT 15SM BKN009 OVC017 M16/ RMK ST6SC2

CYQR;2011-02-10 17:00;CYQR 101700Z 20003KT 15SM OVC009 M14/M17 A2970 RMK ST8 SLP115

CYQR;2011-02-10 17:43;CYQR 101743Z 30008KT 15SM SCT011 OVC021 M09/ RMK ST4SC4

CYQR;2011-02-10 18:00;CYQR 101800Z 28005KT 15SM SCT010 OVC021 M09/M11 A2969 RMK SF1SC7 SLP106

CYQR;2011-02-10 19:00;CYQR 101900Z 31008KT 15SM FEW010 OVC025 M08/M10 A2970 RMK SF1SC7 SLP109

CYQR;2011-02-10 20:00;CYQR 102000Z 30012KT 15SM BKN030 M07/M09 A2968 RMK SC6 SLP104

CYQR;2011-02-10 21:00;CYQR 102100Z 29009KT 15SM SCT028 BKN280 M06/M09 A2969 RMK SC3CI1 SLP103

CYQR;2011-02-10 21:54;CYQR 102154Z 28008KT 15SM FEW008 OVC018 M06/ RMK SF0SC6

CYQR;2011-02-10 22:00;CYQR 102200Z 28008KT 15SM VCSH FEW008 OVC018 M06/M09 A2968 RMK SF0SC7 SLP100

CYQR;2011-02-10 22:09;CYQR 102209Z 27005KT 10SM -SN FEW008 OVC018 M06/ RMK SF0SC8

CYQR;2011-02-10 23:00;CYQR 102300Z 26008KT 10SM -SN OVC017 M06/M08 A2967 RMK SC8 SLP098

CYQR;2011-02-10 23:35;CYQR 102335Z 26006KT 15SM -SN BKN010 OVC041 M05/ RMK SC6SC2

CYQR;2011-02-10 23:51;CYQR 102351Z 27003KT 15SM -SN BKN009 OVC040 M06/ RMK SC6SC2

CYQR;2011-02-11 00:00;CYQR 110000Z 25003KT 6SM -SN OVC009 M06/M08 A2966 RMK SC8 SLP089

CYQR;2011-02-11 01:00;CYQR 110100Z 18005KT 6SM -SN OVC009 M06/M08 A2964 RMK SC8 SLP085

CYQR;2011-02-11 01:29;CYQR 110129Z 23005KT 5SM -SN OVC010 M05/ RMK SC8

CYQR;2011-02-11 01:46;CYQR 110146Z 24005KT 5SM -SN OVC008 M05/ RMK SC7

CYQR;2011-02-11 02:00;CYQR 110200Z 27006KT 10SM -SN BKN008 OVC038 M05/M06 A2963 RMK SC6SC2 SLP082

CYQR;2011-02-11 02:32;CYQR 110232Z 29015KT 6SM -SN SCT008 OVC025 M03/ RMK SC4SC4

CYQR;2011-02-11 03:00;CYQR 110300Z 30016KT 3SM -SN SCT008 OVC020 M02/M03 A2962 RMK SC4SC4 SLP072

CYQR;2011-02-11 04:00;CYQR 110400Z 30016KT 12SM -SN FEW005 SCT011 OVC021 M02/M03 A2961 RMK SF2SC2SC4 SLP069

CYQR;2011-02-11 05:00;CYQR 110500Z 30015KT 15SM -SN FEW005 BKN018 OVC031 M02/M03 A2962 RMK SF2SC3SC3 SLP071

CYQR;2011-02-11 06:00;CYQR 110600Z 30013KT 15SM -SN FEW005 SCT014 OVC029 M02/M03 A2963 RMK SF2SC2SC4 SLP067

CYQR;2011-02-11 07:00;CYQR 110700Z 29014KT 15SM -SN FEW005 SCT015 OVC033 M02/M04 A2963 RMK SF1SC2SC5 SLP069

CYQR;2011-02-11 08:00;CYQR 110800Z 30015KT 15SM -SN FEW005 SCT014 OVC041 M02/M04 A2963 RMK SF1SC3SC4 SLP069

CYQR;2011-02-11 09:00;CYQR 110900Z 31015KT 15SM -SN FEW005 BKN037 OVC055 M02/M03 A2964 RMK SF1SC6SC2 SLP070

CYQR;2011-02-11 10:00;CYQR 111000Z 30020KT 15SM FEW005 SCT043 M02/M04 A2966 RMK SF1SC2 SLP074

CYQR;2011-02-11 11:00;CYQR 111100Z 29015KT 15SM SCT020 BKN052 M03/M04 A2968 RMK SC4SC2 SLP081

CYQR;2011-02-11 11:47;CYQR 111147Z 29014KT 15SM -SN BKN020 BKN047 M03/ RMK SC6SC2

CYQR;2011-02-11 12:00;CYQR 111200Z 30015KT 15SM -SN BKN018 BKN047 M02/M04 A2970 RMK SC6SC2 SLP090

CYQR;2011-02-11 13:00;CYQR 111300Z 32019KT 15SM FEW018 BKN046 BKN076 M02/M04 A2971 RMK SC2SC2AC2 INTMT -SN SLP095

CYQR;2011-02-11 13:17;CYQR 111317Z 32019KT 15SM FEW022 SCT055 BKN076 M02/ RMK SC2SC2AC2

CYQR;2011-02-11 14:00;CYQR 111400Z 32019KT 15SM FEW023 SCT050 M03/M05 A2974 RMK SC2SC2 SLP102

CYQR;2011-02-11 15:00;CYQR 111500Z 31022KT 15SM DRSN FEW012 FEW250 M03/M05 A2976 RMK SC1CI0 SLP111

CYQR;2011-02-11 16:00;CYQR 111600Z 32019KT 15SM DRSN FEW015 SCT250 M03/M06 A2978 RMK SC1CI0 SLP117

CYQR;2011-02-11 17:00;CYQR 111700Z 30014KT 15SM BKN250 M04/M06 A2980 RMK CI1 SLP123

CYQR;2011-02-11 18:00;CYQR 111800Z 30011KT 15SM FEW090 SCT250 M04/M06 A2982 RMK AC1CI0 SLP131

CYQR;2011-02-11 19:00;CYQR 111900Z 28014KT 15SM FEW100 BKN250 M04/M07 A2982 RMK AC1CI0 SLP130

CYQR;2011-02-11 20:00;CYQR 112000Z 29014KT 15SM FEW210 BKN230 BKN280 M03/M06 A2981 RMK CI1CI1CI1 SLP126

CYQR;2011-02-11 21:00;CYQR 112100Z 29011KT 15SM FEW100 BKN250 M03/M06 A2980 RMK AC1CI3 CS ASOCTD SLP123

CYQR;2011-02-11 22:00;CYQR 112200Z 30011KT 15SM FEW080 BKN250 M03/M05 A2979 RMK AC1CI4 CS ASOCTD SLP119

CYQR;2011-02-11 23:00;CYQR 112300Z 27006KT 15SM OVC079 M04/M06 A2979 RMK AS7 SLP118

CYQR;2011-02-12 00:00;CYQR 120000Z 21007KT 15SM FEW053 BKN093 OVC260 M04/M06 A2976 RMK SC2AS4CI1 SLP109

CYQR;2011-02-12 01:00;CYQR 120100Z 22005KT 15SM BKN041 OVC095 M04/M06 A2975 RMK SC5AS2 SLP105

CYQR;2011-02-12 02:00;CYQR 120200Z 21005KT 15SM BKN041 OVC095 M04/M06 A2972 RMK SC5AC2 SLP097

CYQR;2011-02-12 03:00;CYQR 120300Z 16005KT 15SM BKN069 OVC095 M04/M06 A2970 RMK AC6AS1 SLP089

CYQR;2011-02-12 04:00;CYQR 120400Z 18006KT 15SM BKN048 OVC095 M04/M06 A2968 RMK SC6AS1 SLP083

CYQR;2011-02-12 05:00;CYQR 120500Z 20004KT 15SM OVC046 M03/M05 A2966 RMK SC7 SLP076

CYQR;2011-02-12 06:00;CYQR 120600Z 17005KT 15SM OVC056 M03/M05 A2963 RMK SC7 SLP065

CYQR;2011-02-12 07:00;CYQR 120700Z 17006KT 15SM SCT051 OVC068 M02/M05 A2962 RMK SC4AC4 SLP061

CYQR;2011-02-12 08:00;CYQR 120800Z 19004KT 15SM SCT076 M03/M05 A2960 RMK AC3 SLP055

CYQR;2011-02-12 09:00;CYQR 120900Z 16004KT 15SM FEW076 M06/M08 A2959 RMK AC2 SLP052

CYQR;2011-02-12 10:00;CYQR 121000Z 28003KT 15SM SCT100 M06/M08 A2958 RMK AC4 SLP050

CYQR;2011-02-12 11:00;CYQR 121100Z 28002KT 15SM BKN100 M05/M07 A2959 RMK AC6 SLP053

CYQR;2011-02-12 12:00;CYQR 121200Z 27008KT 15SM BKN090 M05/M07 A2959 RMK AC6 SLP054

CYQR;2011-02-12 13:00;CYQR 121300Z 26007KT 15SM OVC097 M05/M07 A2959 RMK AC8 SLP054

CYQR;2011-02-12 14:00;CYQR 121400Z 25003KT 15SM FEW040 FEW130 BKN270 M06/M09 A2959 RMK SC1AC1CI0 SLP052

CYQR;2011-02-12 15:00;CYQR 121500Z 25009KT 15SM FEW040 FEW130 BKN270 M06/M08 A2960 RMK SC1AC1CI0 SLP056

CYQR;2011-02-12 16:00;CYQR 121600Z 23007KT 15SM FEW078 BKN270 M06/M09 A2960 RMK AC1CI2 SLP058

CYQR;2011-02-12 17:00;CYQR 121700Z 23005KT 15SM FEW078 BKN270 M05/M08 A2959 RMK AC1CI2 SLP054

CYQR;2011-02-12 18:00;CYQR 121800Z 29006KT 15SM BKN280 M02/M05 A2960 RMK CI3 SLP052

CYQR;2011-02-12 19:00;CYQR 121900Z 26006KT 15SM BKN280 00/M03 A2957 RMK CI5 SLP045

CYQR;2011-02-12 20:00;CYQR 122000Z 28006KT 15SM BKN280 02/M02 A2955 RMK CI2 SLP037

CYQR;2011-02-12 21:00;CYQR 122100Z 28009KT 15SM BKN280 01/M01 A2952 RMK CI6 SLP026

CYQR;2011-02-12 22:00;CYQR 122200Z 24014KT 15SM SCT100 OVC280 01/M01 A2950 RMK AC4CI3 SLP018

CYQR;2011-02-12 23:00;CYQR 122300Z 24014KT 15SM FEW100 BKN280 01/M01 A2951 RMK AC2CI1 SLP021

CYQR;2011-02-13 00:00;CYQR 130000Z 26012KT 15SM FEW100 BKN280 01/M02 A2948 RMK AC2CI1 SLP013

CYQR;2011-02-13 01:00;CYQR 130100Z 24016KT 15SM FEW100 BKN280 00/M02 A2946 RMK AC1CI1 SLP006

CYQR;2011-02-13 02:00;CYQR 130200Z 24019KT 15SM FEW100 OVC280 01/M02 A2944 RMK AC2CI4 SLP998

CYQR;2011-02-13 03:00;CYQR 130300Z 26013KT 15SM SCT079 OVC280 02/M01 A2941 RMK AC3CI3 SLP987

CYQR;2011-02-13 04:00;CYQR 130400Z 26010KT 15SM FEW080 OVC280 02/M02 A2938 RMK AC2CI2 SLP977

CYQR;2011-02-13 05:00;CYQR 130500Z 26014G19KT 15SM FEW080 OVC280 02/M02 A2934 RMK AC1CI1 SLP965

CYQR;2011-02-13 06:00;CYQR 130600Z 25014KT 15SM FEW080 OVC280 00/M03 A2931 RMK AC2CI6 SLP952

CYQR;2011-02-13 07:00;CYQR 130700Z 22013KT 15SM FEW080 OVC280 00/M03 A2927 RMK AC2CI6 SLP940

CYQR;2011-02-13 08:00;CYQR 130800Z 24016KT 15SM BKN100 OVC280 01/M02 A2925 RMK AC5CI2 SLP933

CYQR;2011-02-13 09:00;CYQR 130900Z 23014KT 15SM FEW100 BKN280 00/M03 A2922 RMK AC2CI2 SLP918

CYQR;2011-02-13 10:00;CYQR 131000Z 25022KT 15SM FEW100 BKN280 03/M01 A2917 RMK AC2CI2 SLP903

CYQR;2011-02-13 11:00;CYQR 131100Z 26014KT 15SM FEW100 SCT280 02/M02 A2915 RMK AC2CI1 SLP897

CYQR;2011-02-13 12:00;CYQR 131200Z 25014KT 15SM SCT100 BKN280 01/M02 A2914 RMK AC3CI2 SLP890

CYQR;2011-02-13 13:00;CYQR 131300Z 25017KT 15SM SCT050 BKN096 OVC280 02/M01 A2914 RMK SC4AC2CI1 SLP889

CYQR;2011-02-13 13:10;CYQR 131310Z 26016KT 15SM -SHRA OVC038 02/ RMK SC8 CVCTV CLD EMBD

CYQR;2011-02-13 13:53;CYQR 131353Z 28024KT 15SM BKN027 BKN095 OVC280 03/ RMK SC5AC2CI1

CYQR;2011-02-13 14:00;CYQR 131400Z 28023KT 15SM BKN027 BKN095 OVC280 03/00 A2913 RMK SC5AC2CI1 SLP888

CYQR;2011-02-13 15:00;CYQR 131500Z 28026KT 15SM FEW030 FEW100 BKN280 02/M00 A2914 RMK SC2AC1CI0 SLP890

CYQR;2011-02-13 16:00;CYQR 131600Z 28025KT 15SM FEW060 SCT100 BKN280 02/00 A2918 RMK SC2AC2CI0 SLP902

CYQR;2011-02-13 17:00;CYQR 131700Z 30026KT 15SM FEW050 FEW100 BKN280 03/00 A2923 RMK SC1AC1CI1 SLP917

CYQR;2011-02-13 18:00;CYQR 131800Z 30032G39KT 15SM FEW032 SCT080 BKN280 02/00 A2928 RMK SC2AC2CI1 PRESRR SLP939

CYQR;2011-02-13 19:00;CYQR 131900Z 31036G42KT 15SM FEW025 SCT080 OVC280 02/00 A2936 RMK SC2AC2CI2 PRESRR SLP962

CYQR;2011-02-13 19:34;CYQR 131934Z 31029G34KT 15SM -SHRA BKN014 OVC033 02/ RMK SC7SC1 CVCTV CLD EMBD

CYQR;2011-02-13 19:49;CYQR 131949Z 31028G33KT 15SM BKN015 BKN095 OVC280 02/ RMK SC6AC1CI1

CYQR;2011-02-13 20:00;CYQR 132000Z 31031G36KT 15SM BKN015 BKN090 OVC280 02/00 A2944 RMK SC5AC2CI1 PRESRR SLP989

CYQR;2011-02-13 21:00;CYQR 132100Z 31031G38KT 15SM BKN017 BKN067 BKN280 02/M00 A2953 RMK SC6AC2CI1 PRESRR SLP025

CYQR;2011-02-13 22:00;CYQR 132200Z 32025G31KT 15SM BKN015 BKN044 BKN280 02/M00 A2960 RMK SC6SC1CI1 PRESRR SLP048

CYQR;2011-02-13 22:43;CYQR 132243Z 33027G35KT 15SM FEW015 FEW044 FEW280 02/ RMK SC1SC1CI0 PRESRR

CYQR;2011-02-13 23:00;CYQR 132300Z 33022G28KT 15SM FEW015 FEW280 02/M01 A2968 RMK SC1CI1 PRESRR SLP073

CYQR;2011-02-14 00:00;CYQR 140000Z 31017KT 15SM FEW016 FEW040 FEW280 01/M01 A2973 RMK SC1SC1CI1 SLP092

CYQR;2011-02-14 01:00;CYQR 140100Z 30020KT 15SM FEW280 01/M02 A2976 RMK CI1 SLP104

CYQR;2011-02-14 02:00;CYQR 140200Z 28022G27KT 15SM SKC 00/M03 A2978 RMK SLP110

CYQR;2011-02-14 03:00;CYQR 140300Z 28019G24KT 15SM SKC M01/M04 A2982 RMK SLP125

CYQR;2011-02-14 04:00;CYQR 140400Z 28016KT 15SM SKC M01/M05 A2986 RMK SLP137

CYQR;2011-02-14 05:00;CYQR 140500Z 28016KT 15SM SKC M02/M05 A2987 RMK SLP141

CYQR;2011-02-14 06:00;CYQR 140600Z 28011KT 15SM SKC M04/M07 A2989 RMK SLP151

CYQR;2011-02-14 07:00;CYQR 140700Z 26007KT 15SM FEW280 M04/M07 A2990 RMK CI0 SLP154

CYQR;2011-02-14 08:00;CYQR 140800Z 25010KT 15SM BKN280 M04/M07 A2990 RMK CI2 SLP155

CYQR;2011-02-14 09:00;CYQR 140900Z 25010KT 15SM FEW280 M05/M08 A2989 RMK CI0 SLP153

CYQR;2011-02-14 10:00;CYQR 141000Z 21005KT 15SM FEW280 M06/M09 A2989 RMK CI0 SLP151

CYQR;2011-02-14 11:00;CYQR 141100Z 13007KT 15SM FEW280 M07/M10 A2988 RMK CI0 SLP150

CYQR;2011-02-14 12:00;CYQR 141200Z 15008KT 15SM SKC M07/M10 A2988 RMK SLP152

CYQR;2011-02-14 13:00;CYQR 141300Z 14007KT 15SM SCT100 BKN230 M07/M10 A2986 RMK AC2CI2 SLP144

CYQR;2011-02-14 14:00;CYQR 141400Z 13010KT 15SM SCT100 BKN230 M07/M10 A2984 RMK AC2CI2 SLP137

CYQR;2011-02-14 15:00;CYQR 141500Z 13012KT 15SM BKN120 BKN230 M06/M09 A2981 RMK AC3CI2 SLP129

CYQR;2011-02-14 16:00;CYQR 141600Z 14016KT 15SM BKN120 BKN270 M05/M08 A2980 RMK AC6CI1 SLP123

CYQR;2011-02-14 17:00;CYQR 141700Z 14016KT 15SM BKN120 OVC270 M04/M07 A2978 RMK AC7CI1 SLP117

CYQR;2011-02-14 18:00;CYQR 141800Z 14017G22KT 15SM FEW120 OVC270 M03/M06 A2975 RMK AC2CI6 SLP105

CYQR;2011-02-14 19:00;CYQR 141900Z 14019KT 15SM FEW098 BKN120 OVC270 M02/M05 A2971 RMK AC2AC5CI2 SLP094

CYQR;2011-02-14 20:00;CYQR 142000Z 15017KT 15SM FEW100 BKN140 OVC270 M00/M04 A2968 RMK AC2AC5CI1 SLP083

CYQR;2011-02-14 21:00;CYQR 142100Z 15014KT 15SM FEW100 BKN140 BKN270 01/M02 A2964 RMK AC1AC6CI1 SLP067

CYQR;2011-02-14 22:00;CYQR 142200Z 16016KT 15SM FEW092 BKN140 BKN260 01/M02 A2961 RMK AC1AC3CI2 SLP056

CYQR;2011-02-14 23:00;CYQR 142300Z 14011KT 15SM BKN140 BKN260 01/M02 A2959 RMK AC6CI2 SLP049

CYQR;2011-02-15 00:00;CYQR 150000Z 16013KT 15SM FEW086 BKN140 BKN260 M00/M03 A2956 RMK AC2AC2CI2 SLP042

CYQR;2011-02-15 01:00;CYQR 150100Z 15011KT 15SM FEW092 BKN140 BKN260 M01/M03 A2955 RMK AC2AC2CI2 SLP038

CYQR;2011-02-15 02:00;CYQR 150200Z 15011KT 15SM SCT140 OVC260 M01/M04 A2954 RMK AC2CI5 SLP034

CYQR;2011-02-15 03:00;CYQR 150300Z 15010KT 15SM OVC140 M02/M04 A2952 RMK AC8 SLP028

CYQR;2011-02-15 04:00;CYQR 150400Z 13009KT 15SM OVC140 M02/M05 A2950 RMK AC8 SLP022

CYQR;2011-02-15 05:00;CYQR 150500Z 15008KT 15SM BKN140 M03/M05 A2949 RMK AC5 SLP019

CYQR;2011-02-15 06:00;CYQR 150600Z 14010KT 15SM SCT140 M04/M06 A2948 RMK AC2 SLP013

CYQR;2011-02-15 07:00;CYQR 150700Z 15010KT 15SM FEW140 SCT260 M04/M07 A2947 RMK AC1CI1 SLP010

CYQR;2011-02-15 08:00;CYQR 150800Z 14009KT 15SM FEW260 M05/M08 A2947 RMK CI2 SLP010

CYQR;2011-02-15 09:00;CYQR 150900Z 13009KT 15SM FEW140 OVC260 M06/M08 A2946 RMK AC2CI5 SLP005

CYQR;2011-02-15 10:00;CYQR 151000Z 15006KT 15SM OVC140 M06/M08 A2948 RMK AC8 SLP012

CYQR;2011-02-15 11:00;CYQR 151100Z 19007KT 15SM FEW140 SCT260 M06/M09 A2946 RMK AC1CI2 SLP007

CYQR;2011-02-15 12:00;CYQR 151200Z 26008KT 15SM SKC M03/M06 A2946 RMK SLP002

CYQR;2011-02-15 13:00;CYQR 151300Z 25014KT 15SM FEW090 M03/M06 A2946 RMK AC1 SLP003

CYQR;2011-02-15 14:00;CYQR 151400Z 24012KT 15SM FEW090 M03/M06 A2946 RMK AC1 SLP004

CYQR;2011-02-15 15:00;CYQR 151500Z 25015KT 15SM FEW092 M01/M05 A2948 RMK AC1 SLP011

CYQR;2011-02-15 16:00;CYQR 151600Z 24009KT 15SM FEW090 BKN270 M01/M04 A2947 RMK AC2CI0 SLP009

CYQR;2011-02-15 17:00;CYQR 151700Z 22013KT 15SM FEW098 BKN270 01/M03 A2947 RMK AC1CI2 SLP008

CYQR;2011-02-15 18:00;CYQR 151800Z 23010KT 15SM FEW077 BKN250 02/M01 A2947 RMK AC2CI2 SLP006

CYQR;2011-02-15 19:00;CYQR 151900Z 23012KT 15SM BKN150 03/M01 A2946 RMK AC7 SLP002

CYQR;2011-02-15 20:00;CYQR 152000Z 24011G22KT 15SM FEW080 BKN150 05/M00 A2943 RMK AC1AC6 SLP995

CYQR;2011-02-15 21:00;CYQR 152100Z 26016KT 15SM FEW080 BKN150 04/M01 A2943 RMK AC1AC4 SLP992

CYQR;2011-02-15 22:00;CYQR 152200Z 24021KT 15SM BKN084 04/M01 A2943 RMK AC6 SLP993

CYQR;2011-02-15 23:00;CYQR 152300Z 35012G19KT 15SM FEW093 BKN240 04/M01 A2946 RMK AC2CI1 SLP004

CYQR;2011-02-16 00:00;CYQR 160000Z 30015KT 15SM FEW093 FEW240 03/M00 A2948 RMK AC1CI0 SLP008

CYQR;2011-02-16 01:00;CYQR 160100Z 22005KT 15SM FEW040 FEW090 FEW270 01/M01 A2948 RMK SC1AC1CI0 SLP009

CYQR;2011-02-16 02:00;CYQR 160200Z 25004KT 15SM FEW040 FEW090 FEW270 01/M02 A2949 RMK SC1AC1CI0 SLP011

CYQR;2011-02-16 03:00;CYQR 160300Z 26012KT 15SM FEW100 SCT270 M01/M03 A2951 RMK AC1CI2 SLP020

CYQR;2011-02-16 04:00;CYQR 160400Z 28009KT 15SM FEW100 M01/M03 A2953 RMK AC1 SLP026

CYQR;2011-02-16 05:00;CYQR 160500Z 27008KT 15SM BKN100 M02/M05 A2955 RMK AC5 SLP034

CYQR;2011-02-16 06:00;CYQR 160600Z 31010KT 15SM FEW100 OVC270 M03/M05 A2956 RMK AC2CI4 SLP039

CYQR;2011-02-16 07:00;CYQR 160700Z 36005KT 15SM FEW100 OVC270 M03/M05 A2959 RMK AC2CI6 SLP046

CYQR;2011-02-16 08:00;CYQR 160800Z 34009KT 15SM OVC100 M04/M06 A2960 RMK AC7 SLP050

CYQR;2011-02-16 09:00;CYQR 160900Z 33005KT 15SM OVC100 M05/M07 A2963 RMK AC8 SLP060

CYQR;2011-02-16 10:00;CYQR 161000Z 35010KT 15SM FEW040 OVC100 M05/M07 A2961 RMK SC1AC7 SLP054

CYQR;2011-02-16 11:00;CYQR 161100Z 01003KT 15SM BKN094 OVC270 M05/M07 A2959 RMK AC6CI2 SLP047

CYQR;2011-02-16 12:00;CYQR 161200Z 05006KT 15SM OVC098 M05/M07 A2958 RMK AC8 SLP046

CYQR;2011-02-16 12:47;CYQR 161247Z 07007KT 15SM FEW008 OVC087 M06/ RMK SC1AC7

CYQR;2011-02-16 13:00;CYQR 161300Z 06005KT 15SM FEW008 OVC082 M06/M09 A2958 RMK SF1AC7 SLP046

CYQR;2011-02-16 14:00;CYQR 161400Z 36007KT 15SM FEW008 BKN088 OVC160 M06/M10 A2961 RMK SF1AC7AC1 SF TR SLP055

CYQR;2011-02-16 15:00;CYQR 161500Z 08004KT 15SM BKN110 M05/M09 A2958 RMK AC7 SLP049

CYQR;2011-02-16 16:00;CYQR 161600Z 03003KT 15SM BKN060 BKN110 M05/M09 A2957 RMK SC6AC1 SLP044

CYQR;2011-02-16 17:00;CYQR 161700Z 14002KT 15SM BKN050 OVC110 M04/M09 A2956 RMK SC7AC1 SLP042

CYQR;2011-02-16 18:00;CYQR 161800Z 11006KT 15SM FEW035 BKN050 OVC110 M04/M07 A2953 RMK SC1SC6AC2 SLP031

CYQR;2011-02-16 19:00;CYQR 161900Z 12009G16KT 15SM FEW035 SCT050 BKN095 OVC130 M03/M06 A2950 RMK SC1SC3AC2AC2 SLP022

CYQR;2011-02-16 20:00;CYQR 162000Z 13014G20KT 15SM FEW050 BKN080 OVC130 M01/M05 A2948 RMK SC1AC6AC2 SLP014

CYQR;2011-02-16 21:00;CYQR 162100Z 10011KT 15SM SCT050 BKN070 OVC130 M01/M04 A2945 RMK SC2AC4AC2 SLP003

CYQR;2011-02-16 22:00;CYQR 162200Z 10011KT 15SM BKN055 BKN130 BKN280 M01/M04 A2942 RMK SC3AC2CI0 SLP993

CYQR;2011-02-16 23:00;CYQR 162300Z 10014G19KT 15SM FEW055 BKN130 BKN260 M01/M05 A2937 RMK SC1AC2CI2 SLP978

CYQR;2011-02-17 00:00;CYQR 170000Z 09018KT 15SM BKN095 OVC260 M02/M05 A2937 RMK AC6CI2 SLP976

CYQR;2011-02-17 01:00;CYQR 170100Z 10019KT 15SM BKN110 BKN240 M03/M06 A2936 RMK AC6CI2 SLP972

CYQR;2011-02-17 02:00;CYQR 170200Z 10020KT 15SM OVC110 M03/M06 A2938 RMK AC8 SLP978

CYQR;2011-02-17 03:00;CYQR 170300Z 12016KT 15SM FEW011 SCT025 OVC110 M03/M06 A2935 RMK SC1SC2AC5 SLP971

CYQR;2011-02-17 04:00;CYQR 170400Z 13020KT 15SM OVC017 M03/M06 A2936 RMK SC8 SLP974

CYQR;2011-02-17 05:00;CYQR 170500Z 12013KT 15SM OVC013 M04/M06 A2937 RMK SC8 SLP977

CYQR;2011-02-17 06:00;CYQR 170600Z 11018KT 15SM OVC010 M04/M07 A2935 RMK SC8 SLP970

CYQR;2011-02-17 07:00;CYQR 170700Z 11018KT 15SM OVC012 M05/M07 A2934 RMK SC8 SLP966

CYQR;2011-02-17 07:42;CYQR 170742Z 11012KT 10SM -FZDZ OVC012 M05/ RMK SC8

CYQR;2011-02-17 08:00;CYQR 170800Z 12013KT 8SM -FZDZ SCT008 OVC011 M05/M07 A2936 RMK SF3SC5 SLP974

CYQR;2011-02-17 08:29;CYQR 170829Z 08006KT 8SM -FZDZ BKN006 OVC011 M05/ RMK SF5SC3

CYQR;2011-02-17 09:00;CYQR 170900Z CCA 09010KT 8SM -FZDZ OVC005 M05/M07 A2936 RMK SC8 OBS TAKEN +15 SLP972

CYQR;2011-02-17 10:00;CYQR 171000Z 09009KT 8SM -FZDZ OVC005 M06/M07 A2936 RMK SC8 SLP971

CYQR;2011-02-17 11:00;CYQR 171100Z 07002KT 6SM -FZDZ OVC004 M07/M08 A2940 RMK SC8 SLP983

CYQR;2011-02-17 11:16;CYQR 171116Z CCA 03005KT 4SM -SN -FZDZ OVC003 M06/ RMK SC8

CYQR;2011-02-17 11:26;CYQR 171126Z 03007KT 4SM -SN OVC003 M07/ REFZDZ RMK SC8

CYQR;2011-02-17 11:48;CYQR 171148Z 05007KT 2 1/2SM -SN OVC006 M07/ REFZDZ RMK SC8

CYQR;2011-02-17 12:00;CYQR 171200Z 04008KT 1 1/2SM -SN OVC007 M07/M10 A2941 REFZDZ RMK SC8 SLP990

CYQR;2011-02-17 12:27;CYQR 171227Z 05007KT 1SM R13/P6000FT/D -SN VV004 M08/ RMK SN8

CYQR;2011-02-17 12:49;CYQR 171249Z 05007KT 1SM R13/P6000FT/D -SN VV005 M08/ RMK SN8

CYQR;2011-02-17 13:00;CYQR 171300Z 03006KT 1SM R13/P6000FT/D -SN VV005 M08/M11 A2942 RMK SN8 /S01/ SLP995

CYQR;2011-02-17 13:19;CYQR 171319Z 36007KT 2SM -SN OVC005 M08/ RMK SN3SF5 VIS VRB 11/2-21/2

CYQR;2011-02-17 14:00;CYQR 171400Z 35009KT 2SM -SN OVC009 M08/M11 A2944 RMK SN2SF6 VIS VRB 11/2-21/2 SLP002

CYQR;2011-02-17 14:17;CYQR 171417Z 35011KT 1 1/2SM -SN OVC012 M08/ RMK SN4SF4 VIS VRB 1-2

CYQR;2011-02-17 14:47;CYQR 171447Z 34014KT 2 1/2SM -SN OVC010 M09/ RMK SF8

CYQR;2011-02-17 15:00;CYQR 171500Z 34014KT 2 1/2SM -SN OVC010 M08/M11 A2947 RMK SF8 SLP013

CYQR;2011-02-17 15:24;CYQR 171524Z 33025G30KT 1 1/2SM R13/5500FT/U -SN BLSN OVC010 M11/ RMK BLSN2SF6 VIS VRB 1-2

CYQR;2011-02-17 15:52;CYQR 171552Z 33030KT 1SM R13/4500FT/N -SN BLSN BKN005 OVC020 M12/ RMK BLSN3SF3SC2 VIS VRB 1/2-11/2

CYQR;2011-02-17 16:00;CYQR 171600Z CCA 33029KT 3/4SM R13/3000V5500FT/U -SN BLSN BKN005 OVC018 M12/M15 A2950 RMK BLSN5SF2SC1 VIS VRB 1/2-1 SLP024

CYQR;2011-02-17 17:00;CYQR 171700Z 33029KT 3/4SM R13/4000V5500FT/N -SN BLSN SCT005 OVC016 M13/M16 A2955 RMK BLSN3SF1SC4 VIS VRB 1/2 - 1 SLP038

CYQR;2011-02-17 18:00;CYQR 171800Z 32025G32KT 3/4SM R13/2600V4000FT/N -SN BLSN SCT008 OVC016 M14/M17 A2957 RMK BLSN4SF1SC4 VIS VRB 1/2 - 1 SLP054

CYQR;2011-02-17 19:00;CYQR 171900Z 33026G32KT 3/4SM R13/3000FT/N -SN BLSN SCT008 OVC039 M14/M17 A2961 RMK BLSN3SF1SC4 SLP064

CYQR;2011-02-17 20:00;CYQR 172000Z 33025G32KT 3/4SM R13/3500V5000FT/U -SN BLSN BKN015 OVC037 M14/M17 A2962 RMK BLSN3SC2SC2 VIS VRB 1/2-1 VIS E 3 SLP070

CYQR;2011-02-17 21:00;CYQR 172100Z 32027KT 3/4SM R13/3000V5500FT/N -SN BLSN BKN015 OVC037 M14/M17 A2965 RMK BLSN2SC2SC3 VIS VRB 1/2-1 SLP082

CYQR;2011-02-17 21:17;CYQR 172117Z 32026G33KT 1/2SM R13/3000FT/N -SN BLSN BKN012 OVC037 M14/ RMK BLSN4SC2SC2 VIS VRB 1/4-3/4

CYQR;2011-02-17 21:53;CYQR 172153Z 32025G32KT 1/2SM R13/2600V4000FT/U -SN BLSN SCT009 BKN039 RMK BLSN2SC2SC3 VIS VRB 1/4-3/4

CYQR;2011-02-17 22:00;CYQR 172200Z 32027G32KT 3/4SM R13/2600V4000FT/D -SN BLSN SCT009 BKN039 BKN090 M14/M17 A2969 RMK BLSN2SC2SC2AC2 VIS VRB 1/2-1 VIS E 3 SLP094

CYQR;2011-02-17 22:37;CYQR 172237Z 32027KT 3/4SM R13/3000V5500FT/U BLSN FEW009 BKN039 BKN090 M15/ RMK BLSN1SC2SC2AC2 VIS VRB 1/2-1 VIS E 5

CYQR;2011-02-17 23:00;CYQR 172300Z 32027KT 2SM R13/5000FT/D BLSN FEW009 BKN045 BKN090 M15/M18 A2972 RMK BLSN1SF2SC3AC2 VIS W 1 SLP105

CYQR;2011-02-17 23:43;CYQR 172343Z CCA 32021G28KT 7SM VCBLSN FEW008 SCT045 M15/ REBLSN RMK SF2SC2 VIS S-W 2 BLSN

CYQR;2011-02-17 23:54;CYQR 172354Z 32022KT 1 1/4SM -SN BLSN SCT008 BKN040 M16/ RMK BLSN2SF2SC3 VIS VRB 1/2-2 VIS E 3

CYQR;2011-02-18 00:00;CYQR 180000Z 32022KT 1 1/4SM R13/6000FT/U -SN BLSN SCT008 BKN040 OVC230 M16/M19 A2976 RMK BLSN2SF2SC3CI1 VIS VRB 1/2-2 VIS E 3 SLP120

CYQR;2011-02-18 00:52;CYQR 180052Z 31020G25KT 1 1/2SM -SN BLSN SCT008 SCT017 M16/ RMK BLSN1SF2SC1 VIS VRB 1-2 VIS E 5

CYQR;2011-02-18 01:00;CYQR 180100Z 31016G22KT 2 1/2SM BLSN SCT013 SCT090 M16/M19 A2980 RMK SC3AC1 SLP134

CYQR;2011-02-18 01:41;CYQR 180141Z 32018KT 4SM BLSN FEW010 FEW090 M17/ RMK SC1AC1

CYQR;2011-02-18 02:00;CYQR 180200Z 32016KT 5SM BLSN FEW010 FEW090 M17/M20 A2982 RMK SC1AC1 SLP140

CYQR;2011-02-18 03:00;CYQR 180300Z 31019KT 6SM BLSN SCT250 M18/M21 A2984 RMK CI2 SLP151

CYQR;2011-02-18 04:00;CYQR 180400Z 31017KT 6SM BLSN SCT250 M19/M22 A2988 RMK CI2 SLP164

CYQR;2011-02-18 05:00;CYQR 180500Z 33021KT 12SM SCT250 M19/M23 A2990 RMK CI3 SLP170

CYQR;2011-02-18 06:00;CYQR 180600Z 33022KT 15SM FEW250 M20/M24 A2993 RMK CI1 SLP188

CYQR;2011-02-18 07:00;CYQR 180700Z 31017KT 15SM FEW250 M21/M24 A2997 RMK CI1 SLP201

CYQR;2011-02-18 08:00;CYQR 180800Z 32016KT 15SM FEW250 M22/M26 A3000 RMK CI1 SLP211

CYQR;2011-02-18 09:00;CYQR 180900Z 34014G19KT 15SM SKC M22/M26 A3003 RMK SLP226

CYQR;2011-02-18 10:00;CYQR 181000Z 32012KT 15SM SKC M23/M27 A3006 RMK SLP236

CYQR;2011-02-18 11:00;CYQR 181100Z 32013KT 15SM SKC M23/M26 A3010 RMK SLP246

CYQR;2011-02-18 12:00;CYQR 181200Z 33014KT 15SM SKC M24/M27 A3012 RMK SLP259

CYQR;2011-02-18 13:00;CYQR 181300Z 32010KT 15SM SKC M25/M29 A3014 RMK SLP266

CYQR;2011-02-18 14:00;CYQR 181400Z 33011KT 15SM FEW003 FEW015 M25/M30 A3016 RMK SF1SC1 SLP273

CYQR;2011-02-18 15:00;CYQR 181500Z 32008KT 15SM FEW025 M26/M30 A3020 RMK SC1 SLP292

CYQR;2011-02-18 16:00;CYQR 181600Z 33011KT 15SM FEW010 FEW230 M25/M30 A3023 RMK SC1CI1 SLP301

CYQR;2011-02-18 17:00;CYQR 181700Z 32011KT 15SM FEW090 M24/M29 A3028 RMK AC1 SLP317

CYQR;2011-02-18 18:00;CYQR 181800Z 34012KT 15SM FEW090 FEW230 M23/M29 A3030 RMK AC1CI1 SLP324

CYQR;2011-02-18 19:00;CYQR 181900Z 34011KT 15SM FEW010 FEW150 FEW230 M23/M28 A3031 RMK SC1AC1CI0 SLP329

CYQR;2011-02-18 20:00;CYQR 182000Z 34012KT 15SM FEW150 FEW230 M22/M27 A3031 RMK AC1CI1 SLP327

CYQR;2011-02-18 21:00;CYQR 182100Z 35011KT 15SM FEW150 SCT230 M21/M27 A3031 RMK AC1CI1 SLP329

CYQR;2011-02-18 22:00;CYQR 182200Z 34008KT 15SM BKN230 M21/M27 A3033 RMK CI2 SLP333

CYQR;2011-02-18 23:00;CYQR 182300Z 33007KT 15SM FEW160 BKN230 M21/M26 A3034 RMK AC1CI0 SLP338

CYQR;2011-02-19 00:00;CYQR 190000Z 33006KT 15SM FEW012 FEW160 BKN230 M22/M27 A3036 RMK SC1AC1CI2 SLP346

CYQR;2011-02-19 01:00;CYQR 190100Z 33005KT 15SM SCT160 BKN230 M22/M27 A3037 RMK AC2CI2 SLP350

CYQR;2011-02-19 02:00;CYQR 190200Z 31007KT 15SM SCT047 BKN089 BKN230 M21/M26 A3039 RMK SC3AC2CI1 SLP355

CYQR;2011-02-19 03:00;CYQR 190300Z 33006KT 15SM -SN OVC043 M21/M26 A3039 RMK SC8 SLP359

CYQR;2011-02-19 04:00;CYQR 190400Z 34005KT 6SM -SN OVC030 M21/M26 A3040 RMK SC8 SLP362

CYQR;2011-02-19 05:00;CYQR 190500Z 33003KT 4SM -SN OVC021 M21/M26 A3040 RMK SC8 SLP363

CYQR;2011-02-19 06:00;CYQR 190600Z 32003KT 4SM -SN FEW020 OVC090 M21/M26 A3042 RMK SC2AC6 SLP366

CYQR;2011-02-19 07:00;CYQR 190700Z 34002KT 5SM -SN FEW020 OVC090 M21/M26 A3040 RMK SC2AC6 SLP362

CYQR;2011-02-19 08:00;CYQR 190800Z 34004KT 5SM -SN SCT020 OVC090 M21/M26 A3040 RMK SC2AC6 SLP362

CYQR;2011-02-19 09:00;CYQR 190900Z 31003KT 4SM -SN OVC040 M21/M25 A3040 RMK SC8 SLP359

CYQR;2011-02-19 10:00;CYQR 191000Z 30002KT 4SM -SN OVC040 M21/M25 A3040 RMK SC8 SLP357

CYQR;2011-02-19 11:00;CYQR 191100Z 28004KT 6SM -SN SCT040 BKN090 M21/M26 A3040 RMK SC2AC3 SLP359

CYQR;2011-02-19 12:00;CYQR 191200Z 32003KT 15SM -SN FEW039 FEW090 M24/M28 A3039 RMK SC1AC1 SLP356

CYQR;2011-02-19 12:42;CYQR 191242Z 00000KT 15SM SKC M25/ RMK IC

CYQR;2011-02-19 13:00;CYQR 191300Z 29002KT 15SM SKC M25/M29 A3038 RMK IC SLP355

CYQR;2011-02-19 13:17;CYQR 191317Z 29002KT 15SM FEW300 M26/ RMK CI1

CYQR;2011-02-19 14:00;CYQR 191400Z 28005KT 12SM FEW300 M26/M30 A3040 RMK CI1 SLP359

CYQR;2011-02-19 14:37;CYQR 191437Z 31005KT 1SM R13/P6000FT/D IC FEW150 M28/ RMK AC1 VIS E 2

CYQR;2011-02-19 15:00;CYQR 191500Z 30002KT 12SM FEW260 M26/M31 A3041 RMK CI0 IC VIS SE 1SM SLP365

CYQR;2011-02-19 15:26;CYQR 191526Z 33003KT 3SM IC FEW260 M27/ RMK CI0 VIS VRB 1-5SM

CYQR;2011-02-19 15:52;CYQR 191552Z 33004KT 12SM FEW030 FEW260 M26/ RMK SC1CI0 IC

CYQR;2011-02-19 16:00;CYQR 191600Z 34006KT 12SM FEW030 FEW260 M26/M30 A3041 RMK SC1CI0 IC SLP367

CYQR;2011-02-19 16:26;CYQR 191626Z 35007KT 15SM FEW030 FEW260 M25/ RMK SC1CI0

CYQR;2011-02-19 17:00;CYQR 191700Z 32005KT 15SM FEW030 FEW260 M23/M28 A3041 RMK SC1CI1 SLP366

CYQR;2011-02-19 18:00;CYQR 191800Z 29004KT 15SM BKN260 M22/M27 A3041 RMK CI2 SLP364

CYQR;2011-02-19 19:00;CYQR 191900Z 32008KT 15SM FEW260 M21/M25 A3040 RMK CI0 SLP359

CYQR;2011-02-19 20:00;CYQR 192000Z 32008KT 15SM FEW240 M21/M25 A3038 RMK CI1 SLP352

CYQR;2011-02-19 21:00;CYQR 192100Z 32006KT 15SM FEW012 FEW210 M21/M25 A3039 RMK SC1CI1 SLP352

CYQR;2011-02-19 22:00;CYQR 192200Z 32005KT 15SM FEW230 M20/M26 A3037 RMK CI0 SLP346

CYQR;2011-02-19 23:00;CYQR 192300Z 33007KT 15SM FEW012 M21/M26 A3038 RMK SC1 SLP349

CYQR;2011-02-20 00:00;CYQR 200000Z 33007KT 15SM FEW230 M23/M28 A3036 RMK CI1 SLP349

CYQR;2011-02-20 01:00;CYQR 200100Z 36006KT 15SM FEW200 M24/M29 A3037 RMK CI1 SLP352

CYQR;2011-02-20 02:00;CYQR 200200Z 03005KT 15SM SKC M24/M29 A3037 RMK SLP352

CYQR;2011-02-20 03:00;CYQR 200300Z 03004KT 15SM SKC M25/M29 A3038 RMK SLP359

CYQR;2011-02-20 04:00;CYQR 200400Z 03004KT 15SM SKC M25/M30 A3039 RMK SLP360

CYQR;2011-02-20 05:00;CYQR 200500Z 05003KT 15SM SKC M25/M29 A3037 RMK SLP355

CYQR;2011-02-20 06:00;CYQR 200600Z 08005KT 15SM SKC M24/M28 A3037 RMK SLP351

CYQR;2011-02-20 07:00;CYQR 200700Z 10005KT 15SM SKC M25/M29 A3037 RMK SLP350

CYQR;2011-02-20 08:00;CYQR 200800Z 13003KT 15SM SKC M25/M29 A3037 RMK SLP352

CYQR;2011-02-20 09:00;CYQR 200900Z 10008KT 15SM SKC M25/M30 A3034 RMK SLP341

CYQR;2011-02-20 10:00;CYQR 201000Z 11007KT 15SM SKC M26/M30 A3033 RMK SLP337

CYQR;2011-02-20 11:00;CYQR 201100Z 10008KT 15SM FEW120 M25/M30 A3032 RMK AC1 SLP333

CYQR;2011-02-20 12:00;CYQR 201200Z 10003KT 15SM SKC M28/M34 A3031 RMK SLP333

CYQR;2011-02-20 13:00;CYQR 201300Z 16004KT 15SM SKC M32/M37 A3030 RMK SLP331

CYQR;2011-02-20 13:48;CYQR 201348Z 21003KT 5SM IC SCT084 M32/ RMK AC3

CYQR;2011-02-20 14:00;CYQR 201400Z 20004KT 12SM FEW084 FEW300 M33/M38 A3030 RMK AC2CI0 IC SLP329

CYQR;2011-02-20 15:00;CYQR 201500Z 00000KT 12SM BKN300 M32/M37 A3034 RMK CI2 IC SLP348

CYQR;2011-02-20 16:00;CYQR 201600Z 18003KT 10SM BKN300 M30/M35 A3035 RMK IC1CI2 IC SLP352

CYQR;2011-02-20 17:00;CYQR 201700Z 12006KT 12SM FEW030 BKN300 M26/M30 A3033 RMK SC1CI2 IC SLP347

CYQR;2011-02-20 18:00;CYQR 201800Z 10006KT 15SM FEW030 SCT300 M23/M28 A3030 RMK SC1CI1 SLP327

CYQR;2011-02-20 19:00;CYQR 201900Z 18006KT 15SM FEW300 M21/M25 A3030 RMK CI1 SLP326

CYQR;2011-02-20 20:00;CYQR 202000Z 15005KT 15SM FEW300 M21/M25 A3027 RMK CI1 SLP317

CYQR;2011-02-20 21:00;CYQR 202100Z 17005KT 15SM SCT300 M22/M27 A3025 RMK CI2 SLP310

CYQR;2011-02-20 22:00;CYQR 202200Z 18007KT 15SM BKN300 M23/M27 A3024 RMK CI1 SLP306

CYQR;2011-02-20 23:00;CYQR 202300Z 14009KT 15SM BKN300 M22/M27 A3022 RMK CI1 SLP301

CYQR;2011-02-21 00:00;CYQR 210000Z 12009KT 15SM FEW100 BKN300 M23/M27 A3020 RMK AC1CI1 SLP297

CYQR;2011-02-21 01:00;CYQR 210100Z 12006KT 15SM FEW080 BKN300 M24/M29 A3019 RMK AC1CI1 SLP294

CYQR;2011-02-21 02:00;CYQR 210200Z 13005KT 15SM FEW080 BKN300 M25/M30 A3019 RMK AC1CI1 SLP293

CYQR;2011-02-21 03:00;CYQR 210300Z 15005KT 15SM SCT300 M28/M33 A3018 RMK CI1 SLP297

CYQR;2011-02-21 04:00;CYQR 210400Z 15007KT 15SM SCT300 M26/M31 A3018 RMK CI1 SLP296

CYQR;2011-02-21 05:00;CYQR 210500Z 16006KT 15SM SCT300 M26/M31 A3017 RMK CI1 SLP295

CYQR;2011-02-21 06:00;CYQR 210600Z 15006KT 15SM SCT260 M29/M34 A3015 RMK CI1 SLP281

CYQR;2011-02-21 07:00;CYQR 210700Z 13008KT 15SM SCT250 M28/M33 A3014 RMK CI1 SLP277

CYQR;2011-02-21 08:00;CYQR 210800Z 13009KT 15SM SCT250 M28/M33 A3012 RMK CI1 SLP270

CYQR;2011-02-21 09:00;CYQR 210900Z 13008KT 15SM SKC M28/M34 A3010 RMK SLP259

CYQR;2011-02-21 10:00;CYQR 211000Z 14011KT 15SM SCT240 M26/M31 A3007 RMK CI1 SLP250

CYQR;2011-02-21 11:00;CYQR 211100Z 15012KT 15SM SCT240 M26/M31 A3005 RMK CI1 SLP244

CYQR;2011-02-21 12:00;CYQR 211200Z 15013KT 15SM SCT240 M26/M31 A3002 RMK CI1 SLP232

CYQR;2011-02-21 13:00;CYQR 211300Z 15011KT 15SM BKN240 M26/M31 A3001 RMK CI2 FROIN SLP229

CYQR;2011-02-21 14:00;CYQR 211400Z 15012G17KT 15SM BKN200 M26/M31 A3000 RMK CI3 SLP227

CYQR;2011-02-21 15:00;CYQR 211500Z 15014KT 5SM R13/6000FT/D IC DRSN BKN200 M27/M32 A3000 RMK CI3 SLP229

CYQR;2011-02-21 16:00;CYQR 211600Z 14014KT 12SM DRSN OVC200 M26/M31 A2998 RMK CI3 SLP224

CYQR;2011-02-21 16:22;CYQR 211622Z 14013KT 2SM DRSN BR OVC200 M25/ RMK CI3

CYQR;2011-02-21 17:00;CYQR 211700Z 15014KT 1 1/2SM DRSN BR BKN200 M25/M30 A2997 RMK FG1CI2 SLP220

CYQR;2011-02-21 17:31;CYQR 211731Z 15015KT 2SM DRSN BR BKN200 M24/ RMK FG1CI2

CYQR;2011-02-21 17:50;CYQR 211750Z 14015KT 3SM DRSN BR BKN200 M23/ RMK FG1CI2

CYQR;2011-02-21 18:00;CYQR 211800Z 14015KT 3SM DRSN BR BKN200 M23/M28 A2994 RMK FG1CI2 SLP208

CYQR;2011-02-21 19:00;CYQR 211900Z 15016KT 8SM DRSN BKN250 M21/M26 A2991 RMK CI2 SLP198

CYQR;2011-02-21 20:00;CYQR 212000Z 16017KT 15SM DRSN BKN250 M20/M24 A2989 RMK CI2 SLP191

CYQR;2011-02-21 21:00;CYQR 212100Z 16017KT 12SM DRSN OVC250 M18/M22 A2986 RMK CI3 SLP173

CYQR;2011-02-21 22:00;CYQR 212200Z 15019G24KT 8SM DRSN FEW200 OVC300 M19/M23 A2982 RMK CI1CI3 SLP163

CYQR;2011-02-21 23:00;CYQR 212300Z 15017G22KT 8SM DRSN FEW200 BKN300 M18/M22 A2981 RMK CI1CI2 SLP158

CYQR;2011-02-22 00:00;CYQR 220000Z 16017KT 12SM DRSN FEW090 FEW200 BKN300 M17/M21 A2980 RMK AC1CI2CI4 SLP150

CYQR;2011-02-22 01:00;CYQR 220100Z 16015G22KT 12SM DRSN FEW100 BKN260 M17/M21 A2978 RMK AC2CI4 SLP145

CYQR;2011-02-22 02:00;CYQR 220200Z 16017KT 15SM DRSN FEW100 BKN260 M16/M21 A2976 RMK AC1CI3 SLP140

CYQR;2011-02-22 03:00;CYQR 220300Z 16016KT 15SM FEW093 BKN260 M16/M20 A2975 RMK AC2CI2 SLP134

CYQR;2011-02-22 04:00;CYQR 220400Z 16014G19KT 15SM SCT093 BKN260 M15/M19 A2973 RMK AC4CI2 SLP129

CYQR;2011-02-22 05:00;CYQR 220500Z 16015KT 15SM BKN095 OVC260 M15/M19 A2972 RMK AC5CI2 SLP126

CYQR;2011-02-22 06:00;CYQR 220600Z 16016KT 15SM SCT095 BKN260 M15/M20 A2971 RMK AC3CI1 SLP116

CYQR;2011-02-22 07:00;CYQR 220700Z CCA 15014KT 15SM DRSN BKN250 M15/M19 A2969 RMK CI2 SLP110

CYQR;2011-02-22 08:00;CYQR 220800Z 15011KT 15SM BKN250 M16/M21 A2967 RMK CI2 SLP104

CYQR;2011-02-22 09:00;CYQR 220900Z 14011KT 15SM BKN250 M17/M21 A2965 RMK CI2 SLP094

CYQR;2011-02-22 10:00;CYQR 221000Z 13010KT 15SM SCT250 M18/M23 A2963 RMK CI1 SLP087

CYQR;2011-02-22 11:00;CYQR 221100Z 14008KT 15SM FEW250 M18/M22 A2962 RMK CI0 SLP085

CYQR;2011-02-22 12:00;CYQR 221200Z 15011KT 15SM FEW250 M17/M21 A2962 RMK CI0 SLP081

CYQR;2011-02-22 13:00;CYQR 221300Z 15011KT 15SM FEW100 FEW250 M18/M22 A2961 RMK AC1CI0 SLP079

CYQR;2011-02-22 14:00;CYQR 221400Z 15011KT 15SM FEW100 BKN250 M18/M23 A2961 RMK AC1CI2 SLP078

CYQR;2011-02-22 15:00;CYQR 221500Z 14010KT 15SM BKN095 OVC300 M16/M21 A2961 RMK AC6CI1 SLP076

CYQR;2011-02-22 16:00;CYQR 221600Z 14008KT 15SM FEW094 BKN300 M16/M20 A2961 RMK AC2CI2 SLP077

CYQR;2011-02-22 17:00;CYQR 221700Z 16007KT 15SM FEW300 M13/M18 A2961 RMK CI2 SLP077

CYQR;2011-02-22 18:00;CYQR 221800Z 20008KT 15SM FEW300 M11/M15 A2961 RMK CI1 SLP072

CYQR;2011-02-22 19:00;CYQR 221900Z 23007KT 15SM FEW300 M08/M12 A2962 RMK CI1 SLP075

CYQR;2011-02-22 20:00;CYQR 222000Z 25009KT 15SM FEW300 M07/M11 A2961 RMK CI0 SLP074

CYQR;2011-02-22 21:00;CYQR 222100Z 28014KT 15SM FEW300 M06/M10 A2962 RMK CI0 SLP074

CYQR;2011-02-22 22:00;CYQR 222200Z 29015KT 15SM FEW300 M07/M11 A2964 RMK CI0 SLP081

CYQR;2011-02-22 23:00;CYQR 222300Z 30014KT 15SM FEW300 M08/M11 A2966 RMK CI1 SLP088

CYQR;2011-02-23 00:00;CYQR 230000Z 32014KT 15SM BKN300 M10/M13 A2969 RMK CI2 SLP101

CYQR;2011-02-23 01:00;CYQR 230100Z 32011KT 15SM BKN015 OVC028 M10/M13 A2972 RMK SC5SC3 SLP110

CYQR;2011-02-23 01:11;CYQR 230111Z 32018KT 15SM -SN BKN011 OVC028 M10/ RMK SC6SC2

CYQR;2011-02-23 02:00;CYQR 230200Z 32013KT 10SM -SN OVC011 M10/M12 A2975 RMK SC8 SLP120

CYQR;2011-02-23 02:27;CYQR 230227Z 35008KT 10SM -SN OVC009 M10/ RMK SC8

CYQR;2011-02-23 02:43;CYQR 230243Z 33012KT 10SM -SN OVC013 M10/ RMK SC8

CYQR;2011-02-23 03:00;CYQR 230300Z 34016KT 10SM -SN OVC011 M11/M14 A2980 RMK SC8 SLP137

CYQR;2011-02-23 03:47;CYQR 230347Z 34013G19KT 15SM -SN OVC015 M12/ RMK SC8

CYQR;2011-02-23 04:00;CYQR 230400Z 34012KT 15SM -SN OVC015 M12/M15 A2981 RMK SC8 SLP143

CYQR;2011-02-23 05:00;CYQR 230500Z 33017KT 10SM -SN OVC015 M13/M15 A2984 RMK SC8 SLP150

CYQR;2011-02-23 06:00;CYQR 230600Z 34015KT 10SM -SN FEW015 OVC083 M13/M16 A2985 RMK SC2AC6 SLP155

CYQR;2011-02-23 07:00;CYQR 230700Z 35018KT 10SM -SN BKN021 OVC085 M14/M17 A2987 RMK SC6AC2 SLP160

CYQR;2011-02-23 08:00;CYQR 230800Z 35016KT 10SM -SN BKN025 OVC085 M14/M17 A2990 RMK SC6AC2 SLP170

CYQR;2011-02-23 09:00;CYQR 230900Z 36014G19KT 10SM -SN OVC025 M14/M18 A2992 RMK SC8 SLP174

CYQR;2011-02-23 10:00;CYQR 231000Z 33014KT 15SM FEW014 OVC025 M15/M18 A2995 RMK SC1SC7 INTMT -SN SLP184

CYQR;2011-02-23 10:14;CYQR 231014Z 33013KT 15SM FEW014 BKN023 OVC094 M16/ RMK SC2SC4AC2

CYQR;2011-02-23 11:00;CYQR 231100Z 32011KT 15SM FEW030 SCT094 BKN250 M17/M21 A2997 RMK SC1AC2CI2 SLP192

CYQR;2011-02-23 12:00;CYQR 231200Z 33009KT 15SM SCT093 BKN250 M18/M21 A3000 RMK AC3CI1 SLP207

CYQR;2011-02-23 13:00;CYQR 231300Z 34007KT 15SM BKN027 BKN250 M20/M23 A3003 RMK SC4CI1 SLP217

CYQR;2011-02-23 14:00;CYQR 231400Z 36002KT 15SM BKN025 OVC260 M19/M22 A3005 RMK SC6CI1 SLP224

CYQR;2011-02-23 15:00;CYQR 231500Z 32007KT 15SM BKN027 OVC260 M19/M22 A3008 RMK SC6CI1 SLP238

CYQR;2011-02-23 16:00;CYQR 231600Z 32005KT 15SM FEW029 BKN130 OVC260 M18/M21 A3010 RMK SC2AC3CI1 SLP244

CYQR;2011-02-23 17:00;CYQR 231700Z 30006KT 15SM BKN029 OVC084 M17/M20 A3013 RMK SC6AC2 SLP252

CYQR;2011-02-23 18:00;CYQR 231800Z 32011KT 15SM BKN029 OVC100 M16/M20 A3013 RMK SC7AC1 SLP256

CYQR;2011-02-23 19:00;CYQR 231900Z 33010KT 15SM BKN031 BKN100 OVC300 M16/M19 A3014 RMK SC5AC2CI1 SLP259

CYQR;2011-02-23 20:00;CYQR 232000Z 31013KT 15SM FEW012 FEW100 BKN300 M15/M19 A3014 RMK SC1AC1CI2 SLP259

CYQR;2011-02-23 21:00;CYQR 232100Z 30015KT 15SM FEW012 BKN300 M15/M20 A3014 RMK SC1CI4 SLP259

CYQR;2011-02-23 22:00;CYQR 232200Z 31017G22KT 15SM FEW015 SCT300 M15/M20 A3016 RMK SC1CI0 SLP264

CYQR;2011-02-23 23:00;CYQR 232300Z 32019KT 15SM FEW020 FEW300 M16/M21 A3016 RMK SC1CI0 SLP266

CYQR;2011-02-24 00:00;CYQR 240000Z 30013KT 15SM FEW020 FEW300 M17/M22 A3018 RMK SC1CI1 SLP277

CYQR;2011-02-24 01:00;CYQR 240100Z 31013KT 15SM FEW300 M19/M23 A3020 RMK CI0 SLP282

CYQR;2011-02-24 02:00;CYQR 240200Z 30011KT 15SM FEW020 M20/M25 A3023 RMK SC2 SLP291

CYQR;2011-02-24 03:00;CYQR 240300Z 31016KT 15SM FEW020 M21/M25 A3024 RMK SC1 SLP300

CYQR;2011-02-24 04:00;CYQR 240400Z 31017KT 15SM SKC M21/M26 A3026 RMK SLP307

CYQR;2011-02-24 05:00;CYQR 240500Z 31017KT 15SM SKC M22/M27 A3027 RMK SLP310

CYQR;2011-02-24 06:00;CYQR 240600Z 30013KT 15SM SKC M23/M28 A3029 RMK SLP318

CYQR;2011-02-24 07:00;CYQR 240700Z 31014KT 15SM SKC M24/M29 A3030 RMK SLP322

CYQR;2011-02-24 08:00;CYQR 240800Z 31011KT 15SM SKC M25/M30 A3031 RMK SLP325

CYQR;2011-02-24 09:00;CYQR 240900Z 33012KT 15SM SKC M25/M30 A3033 RMK SLP331

CYQR;2011-02-24 10:00;CYQR 241000Z 32010KT 15SM SKC M26/M31 A3033 RMK SLP332

CYQR;2011-02-24 11:00;CYQR 241100Z 31010KT 15SM SKC M27/M32 A3034 RMK SLP336

CYQR;2011-02-24 12:00;CYQR 241200Z 32009KT 15SM SKC M28/M33 A3035 RMK SLP344

CYQR;2011-02-24 13:00;CYQR 241300Z 33008KT 15SM SKC M28/M34 A3036 RMK SLP345

CYQR;2011-02-24 14:00;CYQR 241400Z 31005KT 15SM FEW140 SCT250 M29/M34 A3037 RMK AC1CI0 SLP349

CYQR;2011-02-24 15:00;CYQR 241500Z 30006KT 15SM BKN090 M28/M33 A3039 RMK AC5 SLP360

CYQR;2011-02-24 16:00;CYQR 241600Z 31009KT 15SM FEW058 SCT090 BKN250 M27/M32 A3041 RMK SC1AC2CI2 SLP367

CYQR;2011-02-24 17:00;CYQR 241700Z 33009KT 15SM FEW100 BKN300 M26/M31 A3041 RMK AC1CI1 SLP368

CYQR;2011-02-24 18:00;CYQR 241800Z 33012KT 15SM FEW060 SCT300 M25/M30 A3041 RMK SC1CI1 SLP367

CYQR;2011-02-24 19:00;CYQR 241900Z 33014KT 15SM FEW100 FEW300 M24/M30 A3041 RMK AC1CI0 SLP366

CYQR;2011-02-24 20:00;CYQR 242000Z 32012KT 15SM FEW012 FEW300 M23/M29 A3040 RMK SC1CI1 SLP363

CYQR;2011-02-24 21:00;CYQR 242100Z 31017KT 15SM FEW015 FEW300 M23/M29 A3039 RMK SC1CI0 SLP358

CYQR;2011-02-24 22:00;CYQR 242200Z 31017KT 15SM FEW008 FEW300 M23/M28 A3039 RMK SC1CI1 SLP357

CYQR;2011-02-24 23:00;CYQR 242300Z 32015KT 15SM FEW010 FEW300 M23/M29 A3038 RMK SC1CI1 CI TR SLP356

CYQR;2011-02-25 00:00;CYQR 250000Z 32014KT 15SM FEW012 FEW260 M23/M29 A3037 RMK SC1CI1 CI TR SLP355

CYQR;2011-02-25 01:00;CYQR 250100Z 32012KT 15SM FEW015 FEW120 BKN300 M24/M30 A3037 RMK SC1AC1CI1 SLP356

CYQR;2011-02-25 02:00;CYQR 250200Z 31009KT 15SM BKN220 M25/M30 A3038 RMK CI0 SLP359

CYQR;2011-02-25 03:00;CYQR 250300Z 31014KT 15SM FEW220 M26/M31 A3036 RMK CI0 SLP355

CYQR;2011-02-25 04:00;CYQR 250400Z 31011KT 15SM FEW220 M27/M32 A3036 RMK CI0 SLP355

CYQR;2011-02-25 05:00;CYQR 250500Z 30010KT 15SM FEW220 M28/M33 A3037 RMK CI1 SLP358

CYQR;2011-02-25 06:00;CYQR 250600Z 30011KT 15SM FEW220 M29/M34 A3035 RMK CI0 SLP351

CYQR;2011-02-25 07:00;CYQR 250700Z 29008KT 15SM SCT210 M30/M36 A3034 RMK CI0 SLP346

CYQR;2011-02-25 08:00;CYQR 250800Z 31007KT 15SM FEW210 M30/M35 A3033 RMK CI0 SLP342

CYQR;2011-02-25 09:00;CYQR 250900Z 28004KT 15SM SKC M31/M35 A3032 RMK SLP339

CYQR;2011-02-25 10:00;CYQR 251000Z 29004KT 15SM FEW210 M31/M36 A3030 RMK CI1 SLP333

CYQR;2011-02-25 11:00;CYQR 251100Z 27007KT 15SM FEW210 M32/M37 A3028 RMK CI1 SLP328

CYQR;2011-02-25 12:00;CYQR 251200Z 26005KT 15SM FEW080 SCT210 M32/M37 A3028 RMK AC1CI0 SLP327

CYQR;2011-02-25 13:00;CYQR 251300Z 30003KT 15SM FEW080 FEW210 M32/M37 A3025 RMK AC1CI0 SLP320

CYQR;2011-02-25 14:00;CYQR 251400Z 26004KT 15SM FEW120 BKN300 M32/M37 A3025 RMK AC2CI2 SLP320

CYQR;2011-02-25 15:00;CYQR 251500Z 28003KT 15SM FEW100 BKN300 M31/M37 A3025 RMK AC2CI2 SLP317

CYQR;2011-02-25 16:00;CYQR 251600Z 28005KT 15SM BKN300 M30/M35 A3023 RMK CI2 SLP313

CYQR;2011-02-25 17:00;CYQR 251700Z 25002KT 15SM BKN300 M28/M33 A3023 RMK CI2 SLP312

CYQR;2011-02-25 18:00;CYQR 251800Z 29007KT 15SM FEW250 M26/M32 A3022 RMK CI1 SLP306

CYQR;2011-02-25 19:00;CYQR 251900Z 28006KT 15SM FEW300 M25/M30 A3021 RMK CI0 SLP303

CYQR;2011-02-25 20:00;CYQR 252000Z 28008KT 15SM SCT300 M24/M29 A3018 RMK CI1 SLP294

CYQR;2011-02-25 21:00;CYQR 252100Z 28010KT 15SM FEW300 M23/M29 A3015 RMK CI0 SLP281

CYQR;2011-02-25 22:00;CYQR 252200Z 28009KT 15SM FEW035 FEW300 M22/M28 A3013 RMK SC1CI1 SLP274

CYQR;2011-02-25 23:00;CYQR 252300Z 28007KT 15SM FEW300 M22/M28 A3011 RMK CI1 SLP269

CYQR;2011-02-26 00:00;CYQR 260000Z 25004KT 15SM SKC M24/M29 A3008 RMK SLP260

CYQR;2011-02-26 01:00;CYQR 260100Z 21005KT 15SM SKC M26/M31 A3006 RMK SLP252

CYQR;2011-02-26 02:00;CYQR 260200Z 22008KT 15SM SKC M27/M33 A3003 RMK SLP244

CYQR;2011-02-26 03:00;CYQR 260300Z 21010KT 15SM SKC M28/M34 A3000 RMK SLP233

CYQR;2011-02-26 04:00;CYQR 260400Z 21009KT 15SM SKC M29/M34 A2997 RMK SLP226

CYQR;2011-02-26 05:00;CYQR 260500Z 21011KT 15SM SKC M29/M34 A2994 RMK SLP216

CYQR;2011-02-26 06:00;CYQR 260600Z 22010KT 15SM SKC M29/M34 A2991 RMK SLP198

CYQR;2011-02-26 07:00;CYQR 260700Z 20009KT 15SM SKC M29/M34 A2986 RMK SLP185

CYQR;2011-02-26 08:00;CYQR 260800Z 18007KT 15SM SKC M29/M35 A2982 RMK SLP171

CYQR;2011-02-26 09:00;CYQR 260900Z 19011KT 15SM SKC M29/M34 A2979 RMK SLP154

CYQR;2011-02-26 10:00;CYQR 261000Z 19014KT 15SM SKC M28/M34 A2973 RMK SLP137

CYQR;2011-02-26 11:00;CYQR 261100Z 17010KT 15SM SKC M28/M33 A2969 RMK SLP123

CYQR;2011-02-26 12:00;CYQR 261200Z 16011KT 15SM SKC M28/M33 A2965 RMK SLP105

CYQR;2011-02-26 13:00;CYQR 261300Z 16012KT 15SM FEW300 M28/M34 A2961 RMK CI0 SLP093

CYQR;2011-02-26 14:00;CYQR 261400Z 16013KT 15SM BKN300 M29/M34 A2958 RMK CI1 SLP083

CYQR;2011-02-26 15:00;CYQR 261500Z 17015KT 15SM OVC300 M26/M31 A2953 RMK CI4 SLP066

CYQR;2011-02-26 16:00;CYQR 261600Z 17014KT 15SM OVC300 M25/M31 A2950 RMK CI3 SLP056

CYQR;2011-02-26 17:00;CYQR 261700Z 17014KT 15SM FEW100 OVC300 M23/M29 A2945 RMK AC2CI3 SLP042

CYQR;2011-02-26 18:00;CYQR 261800Z 17014KT 15SM SCT090 OVC300 M21/M27 A2941 RMK AC4CI2 SLP024

CYQR;2011-02-26 19:00;CYQR 261900Z 18017KT 15SM FEW050 SCT090 OVC300 M19/M24 A2937 RMK SC1AC3CI2 SLP010

CYQR;2011-02-26 20:00;CYQR 262000Z 18018KT 15SM BKN080 OVC300 M17/M23 A2931 RMK AC6CI1 PRESFR SLP990

CYQR;2011-02-26 21:00;CYQR 262100Z 18019KT 15SM SCT060 OVC080 M16/M22 A2927 RMK SC3AC5 SLP971

CYQR;2011-02-26 22:00;CYQR 262200Z 17017G24KT 15SM -SN SCT060 OVC080 M16/M22 A2925 RMK SC4AC4 SLP964

CYQR;2011-02-26 23:00;CYQR 262300Z 16015KT 15SM BKN045 OVC080 M15/M21 A2923 RMK SC5AC3 SLP956

CYQR;2011-02-26 23:46;CYQR 262346Z 19014KT 10SM -SN DRSN OVC015 M15/ RMK SC8

CYQR;2011-02-27 00:00;CYQR 270000Z 19015KT 5SM -SN DRSN OVC015 M15/M19 A2921 RMK SC8 SLP947

CYQR;2011-02-27 00:37;CYQR 270037Z 19012KT 2 1/2SM -SN DRSN VV013 M15/ RMK SN8

CYQR;2011-02-27 01:00;CYQR 270100Z 18010KT 1 3/4SM -SN DRSN VV010 M15/M18 A2920 RMK SN8 SLP943

CYQR;2011-02-27 01:07;CYQR 270107Z 19010KT 1SM R13/P6000FT/D -SN VV006 M14/ RMK SN8

CYQR;2011-02-27 01:26;CYQR 270126Z 19011KT 3/4SM R13/P6000FT/D -SN VV005 M14/ RMK SN8

CYQR;2011-02-27 02:00;CYQR 270200Z 21009KT 3/4SM R13/P6000FT/U -SN VV005 M14/M16 A2918 RMK SN8 SLP937

CYQR;2011-02-27 02:06;CYQR 270206Z 22009KT 1 1/2SM -SN VV005 M13/ RMK SN8

CYQR;2011-02-27 02:30;CYQR 270230Z 24011KT 1 3/4SM -SN VV009 M12/ RMK SN8

CYQR;2011-02-27 03:00;CYQR 270300Z 27012KT 3SM -SN DRSN OVC030 M12/M14 A2916 RMK SN2SC6 SLP928

CYQR;2011-02-27 03:33;CYQR 270333Z 30017KT 2SM -SN DRSN VV014 M11/ RMK SN8

CYQR;2011-02-27 04:00;CYQR 270400Z 31022KT 2SM -SN DRSN VV012 M12/M14 A2919 RMK SN8 SLP936

CYQR;2011-02-27 04:22;CYQR 270422Z 32021G26KT 1 3/4SM -SN DRSN VV008 M12/ RMK SN8

CYQR;2011-02-27 05:00;CYQR 270500Z 32021G27KT 3SM -SN DRSN OVC025 M13/M15 A2922 RMK SN2SC6 /S01/ SLP947

CYQR;2011-02-27 05:07;CYQR 270507Z 33022G28KT 12SM DRSN FEW025 M13/ RMK SC2 OCNL BLSN

CYQR;2011-02-27 06:00;CYQR 270600Z 32018KT 15SM DRSN FEW025 M15/M17 A2928 RMK SC1 SLP965

CYQR;2011-02-27 07:00;CYQR 270700Z 31016KT 15SM DRSN FEW023 M16/M19 A2931 RMK SC1 SLP976

CYQR;2011-02-27 07:05;CYQR 270705Z 30017KT 15SM -SN DRSN SCT021 M15/ RMK SC2

CYQR;2011-02-27 08:00;CYQR 270800Z 30014KT 15SM DRSN OVC019 M14/M16 A2934 RMK SC7 SLP986

CYQR;2011-02-27 09:00;CYQR 270900Z 31014KT 15SM DRSN FEW021 M15/M17 A2938 RMK SC1 SLP997

CYQR;2011-02-27 10:00;CYQR 271000Z 31015KT 15SM DRSN SCT042 M15/M17 A2940 RMK SC3 SLP004

CYQR;2011-02-27 11:00;CYQR 271100Z 29013KT 15SM BKN040 M14/M17 A2944 RMK SC6 SLP016

CYQR;2011-02-27 12:00;CYQR 271200Z 30013KT 15SM DRSN BKN042 M14/M17 A2946 RMK SC6 SLP025

CYQR;2011-02-27 13:00;CYQR 271300Z 29014KT 15SM DRSN BKN040 M14/M16 A2950 RMK SC6 SLP035

CYQR;2011-02-27 14:00;CYQR 271400Z 31007KT 15SM BKN024 BKN230 M15/M18 A2953 RMK SC3CI1 SLP046

CYQR;2011-02-27 15:00;CYQR 271500Z 30009KT 15SM FEW027 BKN052 M15/M17 A2956 RMK SC1SC5 SLP055

CYQR;2011-02-27 16:00;CYQR 271600Z 28006KT 15SM BKN050 M13/M16 A2959 RMK SC5 SLP064

CYQR;2011-02-27 17:00;CYQR 271700Z 29009KT 15SM FEW038 BKN051 BKN230 M12/M15 A2961 RMK SC1SC4CI1 SLP070

CYQR;2011-02-27 18:00;CYQR 271800Z 31005KT 15SM FEW047 BKN095 BKN230 M10/M13 A2961 RMK SC1AC2CI1 SLP073

CYQR;2011-02-27 19:00;CYQR 271900Z 29004KT 15SM FEW014 FEW049 SCT095 M09/M12 A2963 RMK CF1SC1AC2 SLP077

CYQR;2011-02-27 20:00;CYQR 272000Z 27003KT 15SM FEW014 FEW095 BKN230 M08/M12 A2963 RMK CF1AC1CI1 SLP077

CYQR;2011-02-27 21:00;CYQR 272100Z 26005KT 15SM FEW016 FEW090 BKN230 M07/M11 A2964 RMK CF1AC1CI2 SLP078

CYQR;2011-02-27 22:00;CYQR 272200Z 29003KT 15SM FEW090 SCT230 M07/M11 A2965 RMK AC1CI1 SLP083

CYQR;2011-02-27 23:00;CYQR 272300Z 23003KT 15SM FEW014 FEW090 SCT230 M08/M12 A2968 RMK CF1AC1CI1 SLP091

CYQR;2011-02-28 00:00;CYQR 280000Z 18007KT 15SM FEW040 FEW095 FEW230 M10/M13 A2970 RMK SC1AC1CI1 SLP101

CYQR;2011-02-28 01:00;CYQR 280100Z 17006KT 15SM BKN068 BKN230 M12/M14 A2971 RMK AC2CI1 SLP107

CYQR;2011-02-28 02:00;CYQR 280200Z 14007KT 15SM SCT064 BKN230 M12/M14 A2972 RMK SC2CI1 SLP108

CYQR;2011-02-28 03:00;CYQR 280300Z 13007KT 15SM FEW061 BKN230 M14/M16 A2972 RMK SC1CI1 SLP112

CYQR;2011-02-28 04:00;CYQR 280400Z 13008KT 15SM OVC048 M12/M15 A2973 RMK SC8 SLP115

CYQR;2011-02-28 04:15;CYQR 280415Z 12008KT 15SM -SN OVC046 M12/ RMK SC8

CYQR;2011-02-28 04:40;CYQR 280440Z 12007KT 15SM SCT040 M13/ RMK SC2

CYQR;2011-02-28 05:00;CYQR 280500Z 13007KT 15SM FEW040 M14/M16 A2973 RMK SC1 SLP115

CYQR;2011-02-28 06:00;CYQR 280600Z 10010KT 15SM FEW073 M15/M17 A2971 RMK AC1 SLP108

CYQR;2011-02-28 07:00;CYQR 280700Z 12010KT 15SM FEW210 M15/M17 A2971 RMK CI1 SLP106

CYQR;2011-02-28 08:00;CYQR 280800Z 13012KT 15SM FEW210 M14/M17 A2970 RMK CI0 SLP103

CYQR;2011-02-28 09:00;CYQR 280900Z 13015KT 15SM SKC M15/M17 A2971 RMK FROIN SLP102

CYQR;2011-02-28 09:16;CYQR 280916Z 13013KT 12SM DRSN SKC M15/ RMK VIS W 3 IC

CYQR;2011-02-28 10:00;CYQR 281000Z 13013KT 3SM IC DRSN SKC M14/M17 A2969 RMK VIS W 2 SLP098

CYQR;2011-02-28 11:00;CYQR 281100Z 13015KT 5SM IC DRSN SKC M15/M17 A2968 RMK SLP095

CYQR;2011-02-28 12:00;CYQR 281200Z 13014KT 5SM IC DRSN FEW040 M15/M18 A2969 RMK SC2 SLP098

CYQR;2011-02-28 13:00;CYQR 281300Z CCA 13013KT 5SM IC DRSN FEW010 FEW068 BKN220 M15/M18 A2968 RMK SF1AC1CI4 IC SLP097

CYQR;2011-02-28 13:54;CYQR 281354Z 13015KT 10SM DRSN BKN073 BKN240 M15/ RMK AC4CI2 OCNL BLSN W

CYQR;2011-02-28 14:00;CYQR 281400Z 13016KT 10SM DRSN BKN073 BKN240 M15/M18 A2966 RMK AC5CI1 OCNL BLSN W SLP089

CYQR;2011-02-28 15:00;CYQR 281500Z 14014KT 15SM BKN052 BKN240 M15/M18 A2966 RMK SC7CI1 SLP092

CYQR;2011-02-28 16:00;CYQR 281600Z 13014KT 15SM BKN046 BKN240 M14/M17 A2964 RMK SC7CI1 SLP085

CYQR;2011-02-28 17:00;CYQR 281700Z 13012KT 15SM SCT040 BKN240 M12/M15 A2965 RMK SC2CI1 SLP087

CYQR;2011-02-28 18:00;CYQR 281800Z 12012KT 15SM FEW024 FEW100 BKN250 M11/M15 A2963 RMK SC1AC1CI3 SLP080

CYQR;2011-02-28 19:00;CYQR 281900Z 12011KT 15SM FEW025 BKN100 BKN250 M10/M14 A2962 RMK SC2AC5CI1 SLP076

CYQR;2011-02-28 20:00;CYQR 282000Z 13010KT 15SM BKN060 BKN100 M10/M13 A2960 RMK SC6AC1 SLP070

CYQR;2011-02-28 21:00;CYQR 282100Z 14007KT 15SM FEW060 BKN100 BKN250 M09/M12 A2961 RMK SC1AC6CI2 SLP070

CYQR;2011-02-28 22:00;CYQR 282200Z 18006KT 15SM BKN059 BKN100 BKN250 M09/M11 A2962 RMK SC3AC1CI1 SLP074

CYQR;2011-02-28 23:00;CYQR 282300Z 30010KT 15SM FEW070 BKN100 BKN250 M10/M13 A2964 RMK AC2AC2CI1 SLP079

CYQR;2011-03-01 01:00;CYQR 010100Z 31017KT 6SM BLSN FEW007 BKN054 BKN100 M15/M17 A2969 RMK SF1SC6AC2 SLP100

CYQR;2011-03-01 01:23;CYQR 010123Z 32019KT 5SM -SN BLSN BKN013 BKN050 M15/ RMK SC5SC2

CYQR;2011-03-01 02:00;CYQR 010200Z 32016KT 5SM -SN BLSN BKN013 OVC050 M16/M19 A2972 RMK SC6SC2 SLP108

CYQR;2011-03-01 02:17;CYQR 010217Z 32018KT 5SM -SN BLSN BKN017 OVC050 M17/ RMK SC6SC2

CYQR;2011-03-01 02:42;CYQR 010242Z 32024KT 1 1/2SM -SN BLSN OVC017 M18/ RMK SC8

CYQR;2011-03-01 03:00;CYQR 010300Z 33021G26KT 1 1/2SM -SN BLSN OVC017 M18/M21 A2976 RMK SC8 SLP129

CYQR;2011-03-01 03:38;CYQR 010338Z 32025KT 1 1/2SM -SN BLSN VV011 M19/ RMK BLSN8

CYQR;2011-03-01 03:46;CYQR 010346Z 33026KT 3/4SM R13/P6000FT/D -SN BLSN VV007 M19/ RMK SN8

CYQR;2011-03-01 04:00;CYQR 010400Z 33023KT 1SM R13/5000FT/N -SN BLSN VV007 M19/M22 A2983 RMK SN8 SLP153

CYQR;2011-03-01 04:08;CYQR 010408Z 34021KT 1 1/2SM -SN BLSN VV007 M19/ RMK SN8

CYQR;2011-03-01 04:49;CYQR 010449Z 34024G30KT 1 1/2SM R13/3500VP6000FT/U -SN BLSN OVC056 M20/ RMK SN6SC2 VIS VRB 1-2

CYQR;2011-03-01 05:00;CYQR 010500Z 33024KT 1/2SM R13/4500VP6000FT/D -SN BLSN VV005 M20/M24 A2988 RMK SN8 SLP168

CYQR;2011-03-01 05:13;CYQR 010513Z 33026KT 3/8SM R13/3000FT/N -SN BLSN VV005 M21/ RMK SN8

CYQR;2011-03-01 05:22;CYQR 010522Z 34023G28KT 3/8SM R13/2600V4000FT/U SN BLSN VV003 M21/ RMK SN8

CYQR;2011-03-01 05:35;CYQR 010535Z 34025KT 1/2SM R13/3000FT/N -SN BLSN VV003 M21/ RESN RMK SN8

CYQR;2011-03-01 06:00;CYQR 010600Z CCA 34023KT 1 1/2SM -SN BLSN VV005 M21/M25 A2993 RESN RMK SN8 PRESRR /S01/ SLP189

CYQR;2011-03-01 06:10;CYQR 010610Z 34023KT 1 1/2SM -SN BLSN VV008 M21/ RMK SN8

CYQR;2011-03-01 06:31;CYQR 010631Z 34024G29KT 3/4SM R13/4000VP6000FT/D -SN BLSN VV006 M22/ RMK SN8

CYQR;2011-03-01 07:00;CYQR 010700Z 35023G28KT 1 1/2SM R13/4000VP6000FT/D BLSN SKC M23/M26 A3000 RMK BLSN3 SLP211

CYQR;2011-03-01 07:26;CYQR 010726Z 35023G31KT 2SM BLSN SKC M23/ RMK BLSN5

CYQR;2011-03-01 07:44;CYQR 010744Z 35023G30KT 1SM R13/4500VP6000FT/U BLSN SKC M23/ RMK BLSN5

CYQR;2011-03-01 08:00;CYQR 010800Z 35021G28KT 2SM BLSN SKC M23/M27 A3004 RMK BLSN4 VIS SW-NW 3/4 SLP224

CYQR;2011-03-01 08:17;CYQR 010817Z 36020G26KT 5SM BLSN SKC M24/ RMK BLSN1

CYQR;2011-03-01 09:00;CYQR 010900Z 35020KT 12SM DRSN FEW025 M24/M29 A3010 RMK SC2 SLP248

CYQR;2011-03-01 10:00;CYQR 011000Z 34016KT 15SM DRSN SKC M25/M30 A3016 RMK SLP266

CYQR;2011-03-01 10:20;CYQR 011020Z 33013KT 9SM DRSN SKC M25/ RMK IC

CYQR;2011-03-01 11:00;CYQR 011100Z 34015KT 15SM DRSN SKC M25/M30 A3020 RMK SLP277

CYQR;2011-03-01 12:00;CYQR 011200Z 34013KT 15SM SKC M26/M31 A3025 RMK SLP301

CYQR;2011-03-01 13:00;CYQR 011300Z 33016KT 15SM FEW230 M26/M32 A3029 RMK CI0 SLP313

CYQR;2011-03-01 14:00;CYQR 011400Z 34014KT 15SM DRSN FEW090 FEW230 M27/M32 A3031 RMK AC1CI0 SLP320

CYQR;2011-03-01 15:00;CYQR 011500Z 33014KT 15SM DRSN FEW230 M27/M32 A3036 RMK CI0 PRESRR SLP346

CYQR;2011-03-01 16:00;CYQR 011600Z 32012KT 15SM DRSN FEW230 M26/M32 A3040 RMK CI0 SLP358

CYQR;2011-03-01 17:00;CYQR 011700Z CCA 33016KT 15SM DRSN FEW230 M25/M31 A3042 RMK CI1 SLP365

CYQR;2011-03-01 18:00;CYQR 011800Z 34014KT 15SM DRSN FEW230 M25/M31 A3044 RMK CI1 SLP373

CYQR;2011-03-01 19:00;CYQR 011900Z 32012KT 15SM FEW230 M24/M30 A3046 RMK CI1 SLP380

CYQR;2011-03-01 20:00;CYQR 012000Z 32012KT 15SM FEW025 FEW230 M23/M30 A3046 RMK SC1CI1 SLP380

CYQR;2011-03-01 21:00;CYQR 012100Z 33013KT 15SM FEW025 M23/M30 A3046 RMK SC1 SLP382

CYQR;2011-03-01 22:00;CYQR 012200Z 30013KT 15SM FEW028 FEW230 M23/M30 A3046 RMK SC1CI1 SLP381

CYQR;2011-03-01 23:00;CYQR 012300Z 30012KT 15SM FEW028 FEW230 M23/M30 A3047 RMK SC1CI1 SLP384

CYQR;2011-03-02 00:00;CYQR 020000Z 30010KT 15SM FEW024 FEW230 M23/M30 A3047 RMK SC1CI1 SLP389

CYQR;2011-03-02 01:00;CYQR 020100Z 31008KT 15SM FEW230 M25/M31 A3048 RMK CI2 SLP390

CYQR;2011-03-02 02:00;CYQR 020200Z 32007KT 15SM FEW230 M25/M31 A3048 RMK CI1 SLP390

CYQR;2011-03-02 03:00;CYQR 020300Z 32008KT 15SM SKC M25/M31 A3048 RMK SLP392

CYQR;2011-03-02 04:00;CYQR 020400Z 30007KT 15SM SKC M26/M31 A3049 RMK SLP395

CYQR;2011-03-02 05:00;CYQR 020500Z 31006KT 15SM FEW230 M26/M31 A3049 RMK CI1 SLP396

CYQR;2011-03-02 06:00;CYQR 020600Z 28002KT 15SM SCT230 M26/M31 A3050 RMK CI2 SLP400

CYQR;2011-03-02 07:00;CYQR 020700Z 31003KT 15SM SCT200 M26/M31 A3049 RMK CI2 SLP396

CYQR;2011-03-02 08:00;CYQR 020800Z 31002KT 15SM FEW087 BKN200 M26/M31 A3049 RMK AC2CI2 SLP397

CYQR;2011-03-02 09:00;CYQR 020900Z 34003KT 15SM FEW044 SCT069 BKN200 M25/M31 A3049 RMK SC2AC2CI2 SLP392

CYQR;2011-03-02 10:00;CYQR 021000Z 32002KT 15SM BKN046 OVC069 M25/M31 A3047 RMK SC5AC2 SLP388

CYQR;2011-03-02 11:00;CYQR 021100Z 32002KT 15SM FEW044 FEW070 BKN200 M25/M31 A3046 RMK SC1AC1CI1 SLP385

CYQR;2011-03-02 12:00;CYQR 021200Z 27002KT 15SM FEW070 BKN200 M25/M31 A3045 RMK AC1CI2 SLP382

CYQR;2011-03-02 13:00;CYQR 021300Z 14004KT 15SM BKN200 M25/M31 A3044 RMK CI2 SLP378

CYQR;2011-03-02 14:00;CYQR 021400Z 13005KT 15SM SCT120 BKN230 M25/M31 A3042 RMK AC2CI2 SLP372

CYQR;2011-03-02 15:00;CYQR 021500Z 13006KT 15SM SCT085 BKN240 M25/M30 A3042 RMK AC3CI1 SLP370

CYQR;2011-03-02 16:00;CYQR 021600Z 14007KT 15SM FEW130 OVC240 M23/M30 A3040 RMK AC2CI2 SLP364

CYQR;2011-03-02 17:00;CYQR 021700Z 15008KT 15SM FEW130 OVC240 M23/M30 A3039 RMK AC2CI6 SLP362

CYQR;2011-03-02 18:00;CYQR 021800Z 14011KT 15SM FEW130 OVC240 M22/M29 A3037 RMK AC2CI6 SLP353

CYQR;2011-03-02 19:00;CYQR 021900Z 13013KT 15SM FEW130 OVC240 M22/M28 A3033 RMK AC2CI6 SLP340

CYQR;2011-03-02 20:00;CYQR 022000Z CCA 14014KT 15SM DRSN OVC180 M21/M28 A3029 RMK AC7 SLP327

CYQR;2011-03-02 21:00;CYQR 022100Z 12014KT 15SM DRSN OVC051 M21/M27 A3025 RMK SC8 SLP307

CYQR;2011-03-02 21:46;CYQR 022146Z 13015KT 4SM -SN BLSN OVC049 M20/ RMK SC8

CYQR;2011-03-02 22:00;CYQR 022200Z 13017KT 4SM -SN DRSN OVC049 M20/M26 A3021 RMK SC8 SLP295

CYQR;2011-03-02 22:54;CYQR 022254Z 13015KT 2SM -SN BLSN OVC050 M20/ RMK SN1SC7

CYQR;2011-03-02 23:00;CYQR 022300Z 13014KT 2SM -SN BLSN BKN050 OVC090 M20/M25 A3019 RMK SN1SC6AC2 SLP290

CYQR;2011-03-03 00:00;CYQR 030000Z 14016KT 5SM BLSN BKN043 BKN090 M19/M24 A3013 RMK SC6AC1 PRESFR SLP267

CYQR;2011-03-03 00:21;CYQR 030021Z 14019KT 8SM DRSN BKN043 BKN090 M19/ REBLSN RMK SC6AC1 OCNL BLSN PRESFR

CYQR;2011-03-03 01:00;CYQR 030100Z 14020KT 11SM DRSN BKN066 BKN100 BKN250 M19/M24 A3011 REBLSN RMK AC6AC1CI1 OCNL BLSN SLP260

CYQR;2011-03-03 02:00;CYQR 030200Z 13017KT 12SM DRSN FEW025 BKN065 OVC100 M19/M24 A3007 RMK SC1SC4AC3 SLP248

CYQR;2011-03-03 03:00;CYQR 030300Z 14015G22KT 12SM DRSN BKN034 OVC095 M19/M24 A3007 RMK SC6AC2 OCNL BLSN SLP245

CYQR;2011-03-03 04:00;CYQR 030400Z 13017G22KT 12SM DRSN SCT034 BKN090 M19/M23 A3004 RMK SC3AC3 OCNL BLSN SLP234

CYQR;2011-03-03 05:00;CYQR 030500Z 13015KT 15SM DRSN FEW035 BKN073 BKN095 M19/M23 A3003 RMK SC1AC3AC2 SLP231

CYQR;2011-03-03 06:00;CYQR 030600Z 13017G22KT 15SM DRSN FEW035 M19/M24 A3000 RMK SC1 SLP219

CYQR;2011-03-03 07:00;CYQR 030700Z 14018KT 15SM DRSN FEW035 M20/M24 A2998 RMK SC1 SLP213

CYQR;2011-03-03 08:00;CYQR 030800Z 14018KT 15SM DRSN FEW080 M20/M24 A2995 RMK AC1 SLP203

CYQR;2011-03-03 09:00;CYQR 030900Z 14018G24KT 8SM DRSN VCBLSN BKN060 M19/M23 A2993 RMK SC6 VIS S-SW 4 BLSN SLP195

CYQR;2011-03-03 10:00;CYQR 031000Z 14016KT 12SM DRSN FEW070 M19/M24 A2991 RMK AC2 OCNL BLSN SLP187

CYQR;2011-03-03 11:00;CYQR 031100Z 14017KT 12SM DRSN FEW070 M20/M24 A2989 RMK AC1 SLP182

CYQR;2011-03-03 12:00;CYQR 031200Z 14016KT 15SM DRSN SCT030 BKN080 M19/M23 A2989 RMK SC3AC2 SLP177

CYQR;2011-03-03 12:41;CYQR 031241Z 14020KT 12SM -SN DRSN SCT030 BKN062 M19/ RMK SC3SC3 OCNL BLSN

CYQR;2011-03-03 13:00;CYQR 031300Z 15016G22KT 10SM -SN DRSN VCBLSN BKN040 BKN080 M19/M23 A2987 RMK SC5AC1 VIS S-W 5 BLSN SLP171

CYQR;2011-03-03 14:00;CYQR 031400Z 15013KT 15SM DRSN SCT049 BKN098 M19/M23 A2986 RMK SC3AC2 INTMT -SN SLP170

CYQR;2011-03-03 14:18;CYQR 031418Z 15011KT 15SM DRSN SCT076 M19/ RMK AC4

CYQR;2011-03-03 15:00;CYQR 031500Z 16010KT 15SM SCT076 M19/M23 A2989 RMK AC3 SLP179

CYQR;2011-03-03 16:00;CYQR 031600Z 14010KT 15SM DRSN FEW098 M18/M23 A2990 RMK AC2 SLP181

CYQR;2011-03-03 17:00;CYQR 031700Z 15006KT 15SM BKN065 M17/M22 A2991 RMK SC7 SLP183

CYQR;2011-03-03 18:00;CYQR 031800Z 18002KT 15SM OVC023 M17/M22 A2993 RMK SC8 SLP190

CYQR;2011-03-03 19:00;CYQR 031900Z 25003KT 15SM -SN OVC019 M16/M21 A2994 RMK SC8 SLP193

CYQR;2011-03-03 20:00;CYQR 032000Z 32011KT 8SM -SN DRSN OVC023 M16/M20 A2996 RMK SC8 SLP202

CYQR;2011-03-03 21:00;CYQR 032100Z 34014KT 8SM -SN DRSN OVC021 M15/M20 A2998 RMK SC8 SLP207

CYQR;2011-03-03 22:00;CYQR 032200Z 33016KT 6SM -SN DRSN OVC021 M15/M19 A3002 RMK SC8 OCNL BLSN SLP218

CYQR;2011-03-03 23:00;CYQR 032300Z 33017KT 6SM -SN DRSN OVC023 M15/M19 A3005 RMK SC8 SLP230

CYQR;2011-03-03 23:30;CYQR 032330Z 33019KT 6SM -SN DRSN FEW008 OVC026 M15/ RMK SF1SC7

CYQR;2011-03-04 00:00;CYQR 040000Z 34019KT 6SM -SN DRSN FEW008 OVC028 M15/M19 A3009 RMK SF1SC7 SLP244

CYQR;2011-03-04 00:42;CYQR 040042Z 34018KT 15SM DRSN FEW008 OVC026 M15/ RMK SF1SC7

CYQR;2011-03-04 01:00;CYQR 040100Z 34016KT 15SM DRSN FEW008 OVC026 M15/M20 A3012 RMK SF1SC7 SLP253

CYQR;2011-03-04 02:00;CYQR 040200Z 35014KT 15SM -SN DRSN FEW008 OVC026 M16/M20 A3016 RMK SF1SC7 SLP266

CYQR;2011-03-04 03:00;CYQR 040300Z 34012KT 15SM -SN SCT026 M17/M22 A3018 RMK SC4 SLP276

CYQR;2011-03-04 04:00;CYQR 040400Z 33009KT 15SM -SN SCT027 M19/M23 A3020 RMK SC3 SLP284

CYQR;2011-03-04 04:35;CYQR 040435Z 32007KT 15SM FEW027 M20/ RMK SC2

CYQR;2011-03-04 05:00;CYQR 040500Z 32010KT 15SM FEW027 M20/M24 A3022 RMK SC2 OBS TAKEN +16 SLP291

CYQR;2011-03-04 06:00;CYQR 040600Z 31007KT 15SM BKN093 M21/M25 A3024 RMK AC6 SLP299

CYQR;2011-03-04 07:00;CYQR 040700Z 29008KT 15SM FEW021 BKN094 M21/M25 A3026 RMK SC2AC4 SLP305

CYQR;2011-03-04 08:00;CYQR 040800Z 29007KT 15SM SCT023 BKN094 M22/M26 A3027 RMK SC3AC4 SLP310

CYQR;2011-03-04 09:00;CYQR 040900Z 30006KT 15SM BKN025 BKN095 M22/M26 A3028 RMK SC5AC2 SLP312

CYQR;2011-03-04 10:00;CYQR 041000Z 29006KT 15SM FEW095 SCT250 M23/M27 A3029 RMK AC2CI2 SLP316

CYQR;2011-03-04 11:00;CYQR 041100Z 32006KT 15SM SCT095 M23/M27 A3030 RMK AC3 SLP320

CYQR;2011-03-04 12:00;CYQR 041200Z 33004KT 15SM SCT095 M24/M28 A3032 RMK AC4 SLP329

CYQR;2011-03-04 13:00;CYQR 041300Z 34003KT 15SM BKN100 M23/M28 A3035 RMK AC4 SLP336

CYQR;2011-03-04 14:00;CYQR 041400Z 28003KT 15SM SCT095 BKN300 M25/M29 A3036 RMK AC2CI1 SLP341

CYQR;2011-03-04 15:00;CYQR 041500Z 26004KT 15SM SCT093 BKN300 M23/M28 A3038 RMK AC2CI1 SLP348

CYQR;2011-03-04 16:00;CYQR 041600Z 00000KT 15SM SCT093 BKN300 M21/M26 A3038 RMK AC2CI1 SLP350

CYQR;2011-03-04 17:00;CYQR 041700Z 21004KT 15SM BKN070 BKN090 OVC300 M20/M25 A3038 RMK AC5AC2CI1 SLP348

CYQR;2011-03-04 18:00;CYQR 041800Z 14003KT 15SM BKN022 OVC058 M17/M22 A3039 RMK SC6SC2 SLP349

CYQR;2011-03-04 18:05;CYQR 041805Z 20005KT 6SM -SN OVC013 M17/ RMK SC8

CYQR;2011-03-04 18:11;CYQR 041811Z 21005KT 3SM -SN OVC009 M17/ RMK SC8

CYQR;2011-03-04 18:18;CYQR 041818Z 21004KT 1SM R13/P6000FT/D -SN OVC007 M17/ RMK SN2SC6

CYQR;2011-03-04 18:27;CYQR 041827Z 26003KT 3/4SM R13/5000FT/D -SN VV005 M17/ RMK SN8

CYQR;2011-03-04 18:49;CYQR 041849Z 28008KT 3/4SM R13/P6000FT/N -SN VV008 M18/ RMK SN8

CYQR;2011-03-04 19:00;CYQR 041900Z 28008KT 3/4SM R13/P6000FT/D -SN OVC008 M18/M22 A3042 RMK SN4SC4 SLP359

CYQR;2011-03-04 19:15;CYQR 041915Z 29008KT 1/2SM R13/4500FT/D SN VV006 M17/ RMK SN8

CYQR;2011-03-04 19:30;CYQR 041930Z 29007KT 3/4SM R13/P6000FT/U -SN VV006 M17/ RESN RMK SN8

CYQR;2011-03-04 19:41;CYQR 041941Z 30006KT 1 1/2SM -SN OVC006 M17/ RESN RMK SN2SC6

CYQR;2011-03-04 19:51;CYQR 041951Z 31007KT 2 1/2SM -SN OVC006 M17/ RESN RMK SN2SC6

CYQR;2011-03-04 20:00;CYQR 042000Z 31007KT 2 1/2SM -SN OVC008 M17/M22 A3042 RESN RMK SN1SC7 SLP361

CYQR;2011-03-04 20:33;CYQR 042033Z 31004KT 1 1/2SM -SN OVC007 M17/ RMK SN2SC6

CYQR;2011-03-04 20:51;CYQR 042051Z 34003KT 1 1/2SM -SN OVC005 M17/ RMK SN2SC6

CYQR;2011-03-04 21:00;CYQR 042100Z 34004KT 1 1/2SM -SN OVC005 M17/M21 A3042 RMK SN2SC6 SLP361

CYQR;2011-03-04 21:14;CYQR 042114Z 34006KT 2SM -SN OVC011 M17/ RMK SN2SC6

CYQR;2011-03-04 21:36;CYQR 042136Z 33005KT 5SM -SN BKN011 OVC048 M17/ RMK SC6SC2

CYQR;2011-03-04 22:00;CYQR 042200Z 34007KT 6SM -SN FEW025 OVC048 M17/M21 A3043 RMK SC2SC6 SLP366

CYQR;2011-03-04 23:00;CYQR 042300Z 34007KT 8SM -SN SCT022 OVC046 M16/M21 A3044 RMK SC4SC4 SLP368

CYQR;2011-03-05 00:00;CYQR 050000Z 34007KT 12SM -SN BKN046 OVC095 M16/M20 A3045 RMK SC7AC1 SLP373

CYQR;2011-03-05 01:00;CYQR 050100Z 35006KT 15SM -SN BKN046 OVC095 M17/M21 A3045 RMK SC6AC2 SLP375

CYQR;2011-03-05 02:00;CYQR 050200Z 36006KT 15SM -SN BKN044 OVC095 M18/M22 A3047 RMK SC7AC1 SLP381

CYQR;2011-03-05 02:51;CYQR 050251Z 33003KT 15SM OVC044 M20/ RMK SC8

CYQR;2011-03-05 03:00;CYQR 050300Z 34004KT 15SM OVC044 M20/M25 A3048 RMK SC8 SLP385

CYQR;2011-03-05 04:00;CYQR 050400Z 34004KT 15SM BKN039 M21/M26 A3048 RMK SC6 SLP386

CYQR;2011-03-05 04:26;CYQR 050426Z 34004KT 12SM -SN OVC035 M20/ RMK SC8

CYQR;2011-03-05 05:00;CYQR 050500Z 32003KT 15SM -SN OVC035 M19/M23 A3049 RMK SC8 SLP390

CYQR;2011-03-05 06:00;CYQR 050600Z 32002KT 15SM -SN OVC040 M18/M22 A3049 RMK SC8 SLP381

CYQR;2011-03-05 07:00;CYQR 050700Z 33003KT 15SM -SN OVC043 M18/M22 A3048 RMK SC8 SLP378

CYQR;2011-03-05 08:00;CYQR 050800Z 33003KT 15SM -SN OVC039 M17/M22 A3047 RMK SC8 SLP375

CYQR;2011-03-05 09:00;CYQR 050900Z 31004KT 15SM -SN OVC037 M17/M21 A3046 RMK SC8 SLP372

CYQR;2011-03-05 10:00;CYQR 051000Z 31003KT 15SM -SN OVC033 M17/M22 A3045 RMK SC8 SLP368

CYQR;2011-03-05 11:00;CYQR 051100Z 32002KT 15SM -SN OVC031 M17/M21 A3044 RMK SC8 SLP364

CYQR;2011-03-05 12:00;CYQR 051200Z 00000KT 15SM -SN OVC031 M17/M21 A3042 RMK SC8 SLP359

CYQR;2011-03-05 13:00;CYQR 051300Z 00000KT 15SM -SN OVC029 M17/M21 A3041 RMK SC8 SLP355

CYQR;2011-03-05 14:00;CYQR 051400Z 09003KT 15SM -SN OVC029 M16/M20 A3039 RMK SC8 SLP349

CYQR;2011-03-05 15:00;CYQR 051500Z 14006KT 15SM BKN029 OVC095 M16/M20 A3039 RMK SC7AC1 SLP348

CYQR;2011-03-05 16:00;CYQR 051600Z 16006KT 15SM BKN029 OVC098 M16/M20 A3039 RMK SC7AC1 SLP348

CYQR;2011-03-05 17:00;CYQR 051700Z 14007KT 15SM OVC029 M15/M20 A3037 RMK SC8 SLP343

CYQR;2011-03-05 18:00;CYQR 051800Z 12009KT 12SM OVC029 M15/M19 A3036 RMK SC8 SLP336

CYQR;2011-03-05 18:49;CYQR 051849Z 12010KT 12SM -SN OVC031 M14/ RMK SC8

CYQR;2011-03-05 19:00;CYQR 051900Z 12011KT 12SM -SN OVC031 M14/M18 A3033 RMK SC8 SLP327

CYQR;2011-03-05 20:00;CYQR 052000Z 13014KT 12SM -SN SCT011 OVC039 M14/M18 A3031 RMK SC4SC4 SLP320

CYQR;2011-03-05 20:18;CYQR 052018Z 15012KT 12SM -SN DRSN BKN013 OVC039 M13/ RMK SC6SC2

CYQR;2011-03-05 21:00;CYQR 052100Z 13012KT 6SM -SN DRSN BKN013 OVC040 M13/M17 A3030 RMK SC7SC1 SLP312

CYQR;2011-03-05 21:08;CYQR 052108Z 13012KT 2SM -SN DRSN OVC007 M13/ RMK SN2SC6

CYQR;2011-03-05 21:15;CYQR 052115Z 14013KT 1SM R13/P6000FT/D -SN DRSN OVC006 M13/ RMK SN5SC3

CYQR;2011-03-05 21:44;CYQR 052144Z 13013KT 3SM -SN DRSN OVC009 M13/ RMK SN2SC6

CYQR;2011-03-05 22:00;CYQR 052200Z 13010G15KT 4SM -SN DRSN BKN009 OVC040 M13/M17 A3029 RMK SC6SC2 SLP310

CYQR;2011-03-05 22:14;CYQR 052214Z 14009KT 8SM -SN DRSN BKN012 OVC050 M13/ RMK SC6SC1

CYQR;2011-03-05 23:00;CYQR 052300Z 12011KT 3SM -SN DRSN BKN014 OVC028 M13/M17 A3028 RMK SC5SC3 SLP307

CYQR;2011-03-05 23:39;CYQR 052339Z 12012KT 1 1/2SM -SN DRSN OVC006 M14/ RMK SN2SC6

CYQR;2011-03-06 00:00;CYQR 060000Z 12011KT 4SM -SN DRSN BKN006 OVC050 M14/M17 A3028 RMK SC6SC2 SLP307

CYQR;2011-03-06 00:20;CYQR 060020Z 12012KT 3SM -SN DRSN SCT006 BKN016 OVC042 M14/ RMK SC3SC2SC2

CYQR;2011-03-06 01:00;CYQR 060100Z 12010KT 3SM -SN DRSN FEW006 BKN016 OVC040 M14/M18 A3027 RMK SC2SC3SC2 SLP305

CYQR;2011-03-06 02:00;CYQR 060200Z 11009KT 10SM -SN OVC019 M14/M18 A3028 RMK SC8 SLP306

CYQR;2011-03-06 03:00;CYQR 060300Z 11008KT 4SM -SN BKN013 OVC030 M14/M18 A3028 RMK SC6SC2 SLP307

CYQR;2011-03-06 04:00;CYQR 060400Z 09006KT 8SM -SN SCT013 OVC023 M15/M18 A3029 RMK SC4SC4 SLP309

CYQR;2011-03-06 05:00;CYQR 060500Z 09005KT 10SM -SN FEW013 OVC022 M15/M19 A3029 RMK SC2SC6 SLP311

CYQR;2011-03-06 06:00;CYQR 060600Z 08007KT 3SM -SN FEW007 OVC020 M15/M19 A3029 RMK SF2SC6 SLP309

CYQR;2011-03-06 07:00;CYQR 060700Z 09007KT 8SM -SN FEW007 OVC025 M15/M19 A3028 RMK SF2SC6 SLP307

CYQR;2011-03-06 08:00;CYQR 060800Z 07004KT 8SM -SN FEW007 OVC017 M15/M19 A3029 RMK SF2SC6 SLP309

CYQR;2011-03-06 09:00;CYQR 060900Z 05006KT 4SM -SN FEW007 OVC015 M15/M19 A3029 RMK SF2SC6 SLP310

CYQR;2011-03-06 10:00;CYQR 061000Z 03005KT 6SM -SN FEW007 OVC019 M16/M20 A3030 RMK SF2SC6 SLP311

CYQR;2011-03-06 11:00;CYQR 061100Z 03006KT 6SM -SN FEW007 OVC021 M17/M20 A3030 RMK SF1SC7 SLP314

CYQR;2011-03-06 12:00;CYQR 061200Z 03006KT 10SM -SN FEW007 BKN024 OVC066 M18/M22 A3032 RMK SF1SC6AC1 SLP321

CYQR;2011-03-06 13:00;CYQR 061300Z 04005KT 15SM FEW025 FEW300 M20/M24 A3032 RMK SC1CI1 IC SLP322

CYQR;2011-03-06 13:34;CYQR 061334Z 03005KT 15SM FEW025 SCT300 M21/ RMK SC1CI2

CYQR;2011-03-06 14:00;CYQR 061400Z 03005KT 15SM BKN300 M20/M25 A3033 RMK CI2 SLP325

CYQR;2011-03-06 15:00;CYQR 061500Z 03006KT 15SM SKC M20/M24 A3034 RMK SLP330

CYQR;2011-03-06 16:00;CYQR 061600Z 04004KT 15SM FEW300 M18/M22 A3034 RMK CI1 SLP331

CYQR;2011-03-06 17:00;CYQR 061700Z 35007KT 15SM BKN270 M18/M23 A3035 RMK CI5 SLP332

CYQR;2011-03-06 18:00;CYQR 061800Z 04006KT 15SM FEW020 BKN270 M15/M20 A3035 RMK SC1CI5 SLP331

CYQR;2011-03-06 19:00;CYQR 061900Z 04007KT 15SM FEW020 BKN270 M14/M19 A3035 RMK SC1CI5 SLP329

CYQR;2011-03-06 20:00;CYQR 062000Z 05009KT 15SM FEW025 FEW250 M14/M20 A3034 RMK SC1CI1 SLP327

CYQR;2011-03-06 21:00;CYQR 062100Z 04006KT 15SM FEW015 FEW230 M14/M20 A3034 RMK SC2CI1 SLP326

CYQR;2011-03-06 22:00;CYQR 062200Z 05006KT 15SM FEW017 FEW120 BKN230 M14/M20 A3033 RMK SC2AC1CI1 SLP325

CYQR;2011-03-06 23:00;CYQR 062300Z 05008KT 15SM FEW016 M14/M20 A3033 RMK SC2 SLP325

CYQR;2011-03-07 00:00;CYQR 070000Z 04007KT 15SM FEW016 M15/M21 A3033 RMK SC1 SLP327

CYQR;2011-03-07 01:00;CYQR 070100Z 05006KT 15SM FEW084 M18/M24 A3034 RMK AC1 SLP328

CYQR;2011-03-07 02:00;CYQR 070200Z 07006KT 15SM SKC M19/M25 A3035 RMK SLP331

CYQR;2011-03-07 03:00;CYQR 070300Z 09005KT 15SM SKC M20/M25 A3034 RMK SLP336

CYQR;2011-03-07 04:00;CYQR 070400Z 11005KT 15SM SKC M21/M26 A3034 RMK SLP336

CYQR;2011-03-07 05:00;CYQR 070500Z 10005KT 15SM SKC M21/M25 A3034 RMK SLP336

CYQR;2011-03-07 06:00;CYQR 070600Z 13007KT 15SM SKC M23/M27 A3033 RMK SLP331

CYQR;2011-03-07 07:00;CYQR 070700Z 13005KT 15SM SKC M23/M27 A3033 RMK SLP330

CYQR;2011-03-07 08:00;CYQR 070800Z 13005KT 15SM SKC M28/M34 A3032 RMK SLP327

CYQR;2011-03-07 09:00;CYQR 070900Z 13005KT 15SM SKC M25/M30 A3031 RMK SLP325

CYQR;2011-03-07 10:00;CYQR 071000Z 13009KT 15SM SKC M25/M29 A3028 RMK SLP316

CYQR;2011-03-07 11:00;CYQR 071100Z 13009KT 15SM SKC M25/M30 A3026 RMK SLP309

CYQR;2011-03-07 12:00;CYQR 071200Z 13010KT 15SM FEW040 M26/M30 A3025 RMK SC1 SLP307

CYQR;2011-03-07 12:38;CYQR 071238Z 13009KT 8SM BKN002 BKN021 M25/ RMK SF5SC1 BR

CYQR;2011-03-07 12:54;CYQR 071254Z 14010KT 2 1/2SM BR OVC002 M25/ RMK ST8

CYQR;2011-03-07 13:00;CYQR 071300Z 13010KT 2 1/4SM IC BR OVC002 M25/M29 A3025 RMK ST8 SLP306

CYQR;2011-03-07 14:00;CYQR 071400Z 14010KT 2SM IC SKC M25/M30 A3024 RMK IC3 SLP303

CYQR;2011-03-07 15:00;CYQR 071500Z 14011KT 3SM IC FEW006 M25/M29 A3023 RMK SF2 VIS E-SE 2 SLP302

CYQR;2011-03-07 16:00;CYQR 071600Z 14012KT 2SM R13/5500FT/D IC BKN002 M23/M28 A3022 RMK SF5 SLP298

CYQR;2011-03-07 16:05;CYQR 071605Z 14014KT 1 1/2SM R13/5000FT/N IC DRSN BKN002 M23/ RMK SF4 VIS E 2

CYQR;2011-03-07 16:50;CYQR 071650Z 15012KT 3/4SM R13/P6000FT/N IC DRSN BKN002 M23/ RMK SF3

CYQR;2011-03-07 17:00;CYQR 071700Z 15012KT 1 1/2SM IC DRSN BKN002 M23/M28 A3021 RMK SF2 VIS VRB 1-2 SLP294

CYQR;2011-03-07 17:21;CYQR 071721Z 15013KT 2SM IC DRSN SCT002 M22/ RMK SF2

CYQR;2011-03-07 18:00;CYQR 071800Z 15014KT 2SM IC DRSN FEW002 SCT230 M21/M25 A3019 RMK SF1CI1 SLP287

CYQR;2011-03-07 18:10;CYQR 071810Z 15013KT 3SM IC DRSN FEW002 BKN230 M20/ RMK SF1CI2

CYQR;2011-03-07 19:00;CYQR 071900Z 16015KT 12SM DRSN FEW160 BKN230 M19/M23 A3018 RMK AC1CI2 VIS W 3 BLSN SLP284

CYQR;2011-03-07 20:00;CYQR 072000Z 16014G19KT 12SM DRSN FEW160 BKN230 M18/M22 A3017 RMK AC1CI4 VIS W 6 BLSN SLP279

CYQR;2011-03-07 21:00;CYQR 072100Z 15013KT 12SM DRSN FEW160 BKN230 M17/M22 A3015 RMK AC1CI3 OCNL BLSN SLP271

CYQR;2011-03-07 22:00;CYQR 072200Z 15015G21KT 12SM DRSN FEW160 OVC200 M17/M22 A3014 RMK AC1CI6 VIS W 8 SLP267

CYQR;2011-03-07 23:00;CYQR 072300Z 14016G22KT 12SM DRSN OVC200 M17/M21 A3013 RMK CI6 SLP264

CYQR;2011-03-08 00:00;CYQR 080000Z 15015KT 12SM DRSN FEW160 BKN200 M16/M21 A3011 RMK AC1CI5 SLP258

CYQR;2011-03-08 01:00;CYQR 080100Z 13018KT 12SM DRSN FEW160 BKN200 M17/M21 A3009 RMK AC1CI3 SLP252

CYQR;2011-03-08 02:00;CYQR 080200Z 14015KT 10SM DRSN FEW056 BKN160 M17/M22 A3010 RMK SC2AC1 OCNL BLSN SLP256

CYQR;2011-03-08 03:00;CYQR 080300Z 15015KT 12SM DRSN FEW022 BKN064 BKN160 M17/M21 A3010 RMK SC2SC3AC1 OCNL BLSN SLP254

CYQR;2011-03-08 03:49;CYQR 080349Z 15014KT 8SM -SN DRSN OVC041 M17/ RMK SC8

CYQR;2011-03-08 04:00;CYQR 080400Z 15013KT 6SM -SN DRSN OVC036 M17/M21 A3011 RMK SC8 SLP256

CYQR;2011-03-08 05:00;CYQR 080500Z 16014KT 6SM -SN DRSN OVC025 M17/M21 A3011 RMK SC8 SLP256

CYQR;2011-03-08 05:42;CYQR 080542Z 16014KT 5SM -SN DRSN OVC012 M17/ RMK SC8

CYQR;2011-03-08 06:00;CYQR 080600Z 15014KT 6SM -SN DRSN BKN012 OVC058 M17/M21 A3010 RMK SC7SC1 SLP250

CYQR;2011-03-08 07:00;CYQR 080700Z 15012KT 6SM -SN DRSN BKN014 OVC060 M17/M21 A3010 RMK SC6SC2 SLP249

CYQR;2011-03-08 08:00;CYQR 080800Z 15011KT 8SM -SN DRSN BKN014 BKN078 M17/M21 A3009 RMK SC6AC1 SLP247

CYQR;2011-03-08 09:00;CYQR 080900Z 15011KT 12SM DRSN SCT014 BKN075 M17/M21 A3009 RMK SC3AC2 SLP243

CYQR;2011-03-08 10:00;CYQR 081000Z 14010KT 15SM FEW017 SCT039 M18/M22 A3008 RMK SC1SC1 SLP241

CYQR;2011-03-08 11:00;CYQR 081100Z 13010KT 15SM BKN028 M18/M22 A3008 RMK SC6 SLP241

CYQR;2011-03-08 12:00;CYQR 081200Z 14010KT 15SM BKN049 M18/M22 A3007 RMK SC6 SLP238

CYQR;2011-03-08 13:00;CYQR 081300Z 14008KT 15SM FEW023 BKN081 M18/M22 A3008 RMK SC2AC1 SLP239

CYQR;2011-03-08 14:00;CYQR 081400Z 14008KT 15SM -SN BKN019 M17/M21 A3008 RMK SC5 SLP239

CYQR;2011-03-08 15:00;CYQR 081500Z 15007KT 15SM -SN FEW019 BKN047 M16/M19 A3008 RMK SC1SC6 SLP239

CYQR;2011-03-08 16:00;CYQR 081600Z 17007KT 15SM -SN BKN045 M14/M18 A3009 RMK SC6 SLP241

CYQR;2011-03-08 17:00;CYQR 081700Z 17008KT 12SM -SN BKN047 OVC089 M13/M17 A3009 RMK SC6AC2 SLP241

CYQR;2011-03-08 18:00;CYQR 081800Z 19007KT 12SM -SN BKN047 OVC090 M12/M16 A3009 RMK SC6AC2 SLP240

CYQR;2011-03-08 19:00;CYQR 081900Z 20004KT 12SM -SN OVC047 M11/M15 A3008 RMK SC8 SLP236

CYQR;2011-03-08 20:00;CYQR 082000Z 19003KT 15SM -SN BKN047 OVC090 M11/M15 A3007 RMK SC5AC3 SLP233

CYQR;2011-03-08 21:00;CYQR 082100Z 19004KT 15SM -SN BKN045 BKN090 M11/M15 A3006 RMK SC5AC2 SLP229

CYQR;2011-03-08 22:00;CYQR 082200Z 17007KT 15SM -SN FEW012 BKN043 M11/M15 A3006 RMK SC1SC6 SLP228

CYQR;2011-03-08 23:00;CYQR 082300Z 15009KT 15SM -SN FEW012 BKN041 BKN090 M11/M15 A3008 RMK SC1SC5AC2 SLP234

CYQR;2011-03-09 00:00;CYQR 090000Z 15009KT 15SM -SN BKN041 M12/M16 A3007 RMK SC7 SLP235

CYQR;2011-03-09 00:24;CYQR 090024Z 16008KT 15SM BKN041 M12/ RMK SC6

CYQR;2011-03-09 01:00;CYQR 090100Z 15006KT 15SM SCT040 M13/M17 A3007 RMK SC2 SLP235

CYQR;2011-03-09 02:00;CYQR 090200Z 14007KT 15SM FEW040 M15/M18 A3007 RMK SC2 SLP233

CYQR;2011-03-09 03:00;CYQR 090300Z 16007KT 15SM SKC M16/M19 A3007 RMK SLP235

CYQR;2011-03-09 04:00;CYQR 090400Z 16007KT 15SM FEW066 M16/M19 A3007 RMK AC1 SLP237

CYQR;2011-03-09 05:00;CYQR 090500Z CCA 13005KT 15SM -SN BKN051 M17/M19 A3007 RMK SC6 SLP236

CYQR;2011-03-09 06:00;CYQR 090600Z 12005KT 15SM -SN BKN055 M17/M20 A3007 RMK SC6 SLP235

CYQR;2011-03-09 06:48;CYQR 090648Z 11005KT 15SM FEW047 M18/ RMK SC2

CYQR;2011-03-09 07:00;CYQR 090700Z 12005KT 15SM FEW047 FEW072 M18/M21 A3007 RMK SC2AC0 SLP235

CYQR;2011-03-09 08:00;CYQR 090800Z 12004KT 15SM FEW047 SCT070 M19/M22 A3008 RMK SC1AC1 SLP236

CYQR;2011-03-09 09:00;CYQR 090900Z 12006KT 15SM FEW070 M20/M23 A3009 RMK AC1 SLP240

CYQR;2011-03-09 10:00;CYQR 091000Z 13008KT 15SM FEW070 M20/M23 A3008 RMK AC1 SLP237

CYQR;2011-03-09 11:00;CYQR 091100Z 12007KT 15SM FEW070 M20/M23 A3008 RMK AC1 SLP238

CYQR;2011-03-09 12:00;CYQR 091200Z 12006KT 15SM FEW070 M21/M24 A3008 RMK AC1 SLP241

CYQR;2011-03-09 13:00;CYQR 091300Z 13006KT 15SM FEW230 M21/M25 A3009 RMK CI0 SLP244

CYQR;2011-03-09 14:00;CYQR 091400Z 14006KT 15SM SKC M21/M24 A3010 RMK SLP247

CYQR;2011-03-09 15:00;CYQR 091500Z 13005KT 15SM SKC M20/M23 A3012 RMK SLP256

CYQR;2011-03-09 16:00;CYQR 091600Z 14005KT 15SM SKC M18/M21 A3013 RMK SLP258

CYQR;2011-03-09 17:00;CYQR 091700Z 17004KT 15SM SKC M17/M21 A3013 RMK SLP260

CYQR;2011-03-09 18:00;CYQR 091800Z 17003KT 15SM SKC M15/M19 A3014 RMK SLP259

CYQR;2011-03-09 19:00;CYQR 091900Z 17004KT 15SM SKC M14/M18 A3014 RMK SLP258

CYQR;2011-03-09 20:00;CYQR 092000Z 17007KT 15SM SKC M14/M17 A3013 RMK SLP255

CYQR;2011-03-09 21:00;CYQR 092100Z 17005KT 15SM SKC M12/M16 A3011 RMK SLP251

CYQR;2011-03-09 22:00;CYQR 092200Z 18007KT 15SM FEW200 M13/M16 A3014 RMK CI1 SLP259

CYQR;2011-03-09 23:00;CYQR 092300Z 14008KT 15SM FEW095 SCT200 M11/M15 A3010 RMK AC1CI0 SLP248

CYQR;2011-03-10 00:00;CYQR 100000Z 14010KT 15SM FEW095 BKN200 M13/M16 A3010 RMK AC1CI2 SLP249

CYQR;2011-03-10 01:00;CYQR 100100Z 13011KT 15SM FEW091 BKN220 M13/M17 A3009 RMK AC2CI2 SLP243

CYQR;2011-03-10 02:00;CYQR 100200Z 14011KT 15SM FEW090 BKN220 M14/M17 A3008 RMK AC2CI2 SLP241

CYQR;2011-03-10 03:00;CYQR 100300Z 14013KT 15SM FEW090 BKN230 M14/M17 A3007 RMK AC1CI2 SLP236

CYQR;2011-03-10 04:00;CYQR 100400Z 13012KT 15SM BKN250 M15/M18 A3004 RMK CI2 SLP228

CYQR;2011-03-10 05:00;CYQR 100500Z 14015KT 15SM BKN250 M14/M17 A3002 RMK CI2 SLP221

CYQR;2011-03-10 06:00;CYQR 100600Z 14014KT 15SM BKN250 M14/M17 A3001 RMK CI2 SLP215

CYQR;2011-03-10 07:00;CYQR 100700Z 14015KT 15SM SCT070 BKN250 M13/M16 A3000 RMK AC4CI2 SLP210

CYQR;2011-03-10 08:00;CYQR 100800Z 13015KT 15SM BKN044 OVC070 M12/M15 A2996 RMK SC6AC2 SLP197

CYQR;2011-03-10 08:24;CYQR 100824Z 13013KT 1 1/2SM R13/4500VP6000FT/D -SN VV010 M12/ RMK SN8

CYQR;2011-03-10 08:48;CYQR 100848Z 12015KT 6SM -SN BKN040 OVC095 M12/ RMK SC6AC2

CYQR;2011-03-10 09:00;CYQR 100900Z 11014KT 10SM -SN BKN054 OVC095 M11/M14 A2993 RMK SC5AC3 SLP180

CYQR;2011-03-10 09:19;CYQR 100919Z 13015KT 15SM SCT050 BKN095 OVC250 M11/ RMK SC4AC2CI1

CYQR;2011-03-10 10:00;CYQR 101000Z 13015KT 15SM BKN041 OVC097 M10/M12 A2990 RMK SC6AC2 SLP170

CYQR;2011-03-10 11:00;CYQR 101100Z CCB 14015KT 15SM DRSN SCT025 OVC073 M10/M13 A2988 RMK SC3AC5 SLP164

CYQR;2011-03-10 12:00;CYQR 101200Z 14013KT 15SM DRSN FEW025 BKN075 M10/M13 A2988 RMK SC2AC2 SLP162

CYQR;2011-03-10 13:00;CYQR 101300Z 14013KT 15SM DRSN FEW025 FEW075 FEW210 M11/M14 A2986 RMK SC1ACC1CI1 SLP156

CYQR;2011-03-10 14:00;CYQR 101400Z 13012KT 15SM DRSN FEW078 BKN300 M11/M14 A2985 RMK AC2CI2 SLP152

CYQR;2011-03-10 15:00;CYQR 101500Z 13011KT 15SM DRSN FEW090 OVC300 M11/M14 A2983 RMK AC2CI2 SLP148

CYQR;2011-03-10 16:00;CYQR 101600Z 16009KT 15SM FEW090 OVC300 M09/M12 A2984 RMK AC1CI2 SLP150

CYQR;2011-03-10 17:00;CYQR 101700Z 15006KT 15SM FEW090 BKN300 M04/M08 A2982 RMK AC1CI6 SLP145

CYQR;2011-03-10 18:00;CYQR 101800Z 15009KT 15SM SCT160 BKN300 M01/M04 A2980 RMK AS4CI3 SLP129

CYQR;2011-03-10 19:00;CYQR 101900Z 14005KT 15SM BKN160 OVC300 01/M03 A2977 RMK AS4CI3 SLP121

CYQR;2011-03-10 20:00;CYQR 102000Z 16010KT 15SM SCT160 BKN300 01/M02 A2974 RMK AC2CI2 SLP110

CYQR;2011-03-10 21:00;CYQR 102100Z 15009KT 15SM FEW060 FEW090 BKN300 02/M01 A2971 RMK SC1AC2CI1 SLP096

CYQR;2011-03-10 22:00;CYQR 102200Z 13011KT 15SM FEW080 OVC300 01/M01 A2969 RMK AC2CI5 SLP089

CYQR;2011-03-10 23:00;CYQR 102300Z 14012KT 15SM FEW060 SCT160 OVC300 02/M01 A2967 RMK SC2AS2CS4 SLP081

CYQR;2011-03-11 00:00;CYQR 110000Z 14015KT 15SM SCT086 OVC300 01/M01 A2964 RMK AS4CS4 SLP072

CYQR;2011-03-11 01:00;CYQR 110100Z 14016KT 15SM FEW072 BKN083 OVC300 00/M02 A2961 RMK AC2AS4CS2 SLP062

CYQR;2011-03-11 01:54;CYQR 110154Z 16014KT 15SM -RA OVC057 00/ RMK SC8

CYQR;2011-03-11 02:00;CYQR 110200Z 15013KT 15SM -RA OVC052 00/M02 A2959 RMK SC8 SLP054

CYQR;2011-03-11 02:48;CYQR 110248Z 14013KT 15SM OVC046 01/ RMK SC8

CYQR;2011-03-11 03:00;CYQR 110300Z 14013KT 15SM OVC052 01/M01 A2956 RMK SC8 SLP042

CYQR;2011-03-11 04:00;CYQR 110400Z 13012KT 15SM SCT052 BKN120 BKN280 01/M01 A2952 RMK SC4AC2CI0 SLP031

CYQR;2011-03-11 05:00;CYQR 110500Z 15011KT 15SM BKN075 BKN280 01/M01 A2951 RMK AC6CI1 SLP028

CYQR;2011-03-11 06:00;CYQR 110600Z 15008KT 15SM SCT076 BKN270 00/M02 A2951 RMK AC3CI2 SLP018

CYQR;2011-03-11 07:00;CYQR 110700Z 15008KT 15SM FEW080 OVC250 M00/M03 A2948 RMK AC2CI2 SLP010

CYQR;2011-03-11 08:00;CYQR 110800Z 14006KT 15SM FEW080 OVC250 M00/M03 A2946 RMK AC2CI2 SLP004

CYQR;2011-03-11 09:00;CYQR 110900Z 12005KT 15SM FEW080 OVC250 M02/M04 A2946 RMK AC2CI2 SLP000

CYQR;2011-03-11 10:00;CYQR 111000Z 14004KT 15SM SCT092 OVC250 M02/M04 A2947 RMK AC4CI1 SLP004

CYQR;2011-03-11 11:00;CYQR 111100Z 31007KT 15SM SCT094 OVC250 M00/M02 A2948 RMK AC4CI1 SLP007

CYQR;2011-03-11 12:00;CYQR 111200Z 33008KT 15SM FEW095 BKN250 M01/M03 A2947 RMK AC2CI2 SLP006

CYQR;2011-03-11 12:23;CYQR 111223Z 31018G24KT 15SM BKN007 OVC100 M01/ RMK SF5AC2

CYQR;2011-03-11 12:33;CYQR 111233Z 30026KT 15SM DRSN OVC004 M02/ RMK SF8

CYQR;2011-03-11 12:41;CYQR 111241Z 32023G28KT 3SM -SN DRSN OVC003 M02/ RMK SN2SF6

CYQR;2011-03-11 12:46;CYQR 111246Z 32020G27KT 2SM -SN DRSN OVC003 M02/ RMK SN2SF6

CYQR;2011-03-11 13:00;CYQR 111300Z 32021KT 2SM R13/6000FT/D -SN DRSN OVC003 M03/M05 A2952 RMK SN2SF6 PRESRR SLP023

CYQR;2011-03-11 13:26;CYQR 111326Z 33022G28KT 4SM BR BKN006 OVC053 M05/ RMK SF6SC2

CYQR;2011-03-11 14:00;CYQR 111400Z 34025G30KT 8SM BKN006 OVC013 M05/M07 A2955 RMK SF6SC2 SLP032

CYQR;2011-03-11 15:00;CYQR 111500Z 34026G31KT 4SM BR BKN005 OVC015 M05/M08 A2962 RMK SF6SC2 SLP059

CYQR;2011-03-11 15:17;CYQR 111517Z 34030KT 2SM -SN DRSN OVC006 M07/ RMK SC8

CYQR;2011-03-11 15:43;CYQR 111543Z 35024G34KT 3SM -SN DRSN OVC008 M09/ RMK SC8

CYQR;2011-03-11 16:00;CYQR 111600Z 33029KT 5SM -SN DRSN OVC009 M09/M13 A2969 RMK SC8 SLP082

CYQR;2011-03-11 16:10;CYQR 111610Z 34026G33KT 2 1/2SM -SN DRSN OVC009 M10/ RMK SC8

CYQR;2011-03-11 16:28;CYQR 111628Z 34031G36KT 1 1/2SM -SN DRSN OVC010 M11/ RMK SC8

CYQR;2011-03-11 17:00;CYQR 111700Z 34026G32KT 1SM R13/4000VP6000FT/D -SN DRSN OVC010 M12/M15 A2977 RMK SN2SC6 VIS VRB 3/4 - 11/4 SLP107

CYQR;2011-03-11 17:09;CYQR 111709Z 33029G35KT 1/2SM R13/2400FT/N SN DRSN VV006 M12/ RMK SN8

CYQR;2011-03-11 17:29;CYQR 111729Z CCA 33029G35KT 1/2SM R13/2400FT/N SN DRSN VV006 M12/ RMK SN8 VIS VRB 1/4 - 3/4

CYQR;2011-03-11 17:41;CYQR 111741Z 34030G37KT 1/2SM R13/4000VP6000FT/D -SN BLSN VV009 M12/ RESN RMK SN8 VIS VRB 1/4 - 3/4

CYQR;2011-03-11 18:00;CYQR 111800Z 34031KT 1/2SM R13/5000FT/D -SN BLSN VV008 M12/M16 A2981 RESN RMK SN8 SLP132

CYQR;2011-03-11 19:00;CYQR 111900Z 33028G33KT 1/2SM R13/2800FT/N -SN BLSN OVC014 M13/M16 A2985 RMK SN6SC2 VIS VRB 1/2 - 3/4 SLP145

CYQR;2011-03-11 20:00;CYQR 112000Z 34025G31KT 1SM R13/P6000FT/U -SN BLSN OVC014 M13/M17 A2989 RMK SC8 SLP158

CYQR;2011-03-11 20:14;CYQR 112014Z 33025G32KT 2SM R13/4000VP6000FT/U -SN BLSN BKN014 OVC031 M13/ RMK SC7SC1

CYQR;2011-03-11 20:39;CYQR 112039Z 33023G28KT 3SM -SN BLSN BKN014 OVC038 M13/ RMK SC6SC2

CYQR;2011-03-11 21:00;CYQR 112100Z 33021G29KT 3SM -SN BLSN BKN014 OVC028 M13/M17 A2993 RMK SC6SC2 SLP176

CYQR;2011-03-11 21:42;CYQR 112142Z 33032KT 4SM BLSN SCT014 BKN250 M14/ RMK SC3CI0

CYQR;2011-03-11 22:00;CYQR 112200Z 34031KT 3SM BLSN BKN017 BKN040 OVC250 M13/M17 A2994 RMK SC5SC2CI0 SLP179

CYQR;2011-03-11 23:00;CYQR 112300Z 34024KT 4SM BLSN FEW012 BKN020 BKN100 M14/M18 A2999 RMK SC2SC5AC1 SLP195

CYQR;2011-03-12 00:00;CYQR 120000Z 34024G29KT 6SM BLSN SCT010 BKN026 OVC260 M14/M18 A3001 RMK SC4SC2CI1 SLP203

CYQR;2011-03-12 00:38;CYQR 120038Z 33018KT 5SM -SN BLSN BKN010 OVC034 M14/ RMK SC6SC2

CYQR;2011-03-12 01:00;CYQR 120100Z 33020KT 5SM -SN BLSN BKN010 OVC027 M14/M17 A3005 RMK SC6SC2 SLP214

CYQR;2011-03-12 01:49;CYQR 120149Z 33019KT 5SM -SN BLSN BKN009 OVC027 M14/ RMK SF6SC2

CYQR;2011-03-12 02:00;CYQR 120200Z 33020KT 6SM -SN BLSN BKN009 OVC027 M14/M18 A3009 RMK SF6SC2 SLP226

CYQR;2011-03-12 02:30;CYQR 120230Z 35020KT 6SM -SN SCT008 OVC029 M14/ RMK SF2SC6

CYQR;2011-03-12 03:00;CYQR 120300Z 35019KT 6SM -SN SCT008 OVC029 M14/M18 A3009 RMK SF2SC6 SLP233

CYQR;2011-03-12 04:00;CYQR 120400Z 35020KT 15SM -SN SCT008 OVC031 M14/M19 A3010 RMK SF2SC6 -SN INTMT SLP238

CYQR;2011-03-12 04:27;CYQR 120427Z 34018KT 15SM FEW008 OVC033 M14/ RMK SF1SC7

CYQR;2011-03-12 05:00;CYQR 120500Z 35014G19KT 15SM FEW008 OVC031 M14/M19 A3012 RMK SF1SC7 SLP243

CYQR;2011-03-12 05:50;CYQR 120550Z 34015KT 15SM -SN FEW008 OVC029 M14/ RMK SF1SC7

CYQR;2011-03-12 06:00;CYQR 120600Z 34015KT 15SM -SN FEW008 OVC029 M14/M19 A3014 RMK SF1SC7 SLP255

CYQR;2011-03-12 07:00;CYQR 120700Z 32011KT 15SM -SN FEW008 OVC029 M15/M18 A3015 RMK SF1SC7 SLP258

CYQR;2011-03-12 08:00;CYQR 120800Z 33014KT 10SM -SN FEW008 OVC029 M15/M19 A3016 RMK SF2SC6 SLP262

CYQR;2011-03-12 09:00;CYQR 120900Z 34014KT 10SM -SN SCT013 OVC029 M16/M20 A3016 RMK SC3SC5 -SN INTMT SLP266

CYQR;2011-03-12 09:24;CYQR 120924Z 34013KT 10SM -SN BKN011 OVC029 M16/ RMK SC5SC3

CYQR;2011-03-12 10:00;CYQR 121000Z 01008KT 15SM OVC011 M16/M20 A3017 RMK SC8 INTMT -SN SLP267

CYQR;2011-03-12 10:11;CYQR 121011Z 36009KT 15SM OVC011 M16/ RMK SC8

CYQR;2011-03-12 11:00;CYQR 121100Z 35007KT 15SM OVC010 M16/M20 A3017 RMK SC8 SLP268

CYQR;2011-03-12 11:20;CYQR 121120Z 34009KT 15SM OVC009 M16/ RMK SC8

CYQR;2011-03-12 11:46;CYQR 121146Z 33009KT 6SM -SN OVC007 M16/ RMK SF8

CYQR;2011-03-12 12:00;CYQR 121200Z 33008KT 15SM -SN OVC008 M16/M20 A3020 RMK SF8 SLP279

CYQR;2011-03-12 13:00;CYQR 121300Z 33009KT 12SM -SN DRSN OVC009 M16/M20 A3021 RMK SF8 SLP283

CYQR;2011-03-12 13:15;CYQR 121315Z 34009KT 12SM -SN DRSN OVC010 M17/ RMK SC8

CYQR;2011-03-12 13:24;CYQR 121324Z 33008KT 12SM -SN DRSN SCT010 OVC020 M17/ RMK SC4SC3

CYQR;2011-03-12 14:00;CYQR 121400Z 36005KT 15SM -SN FEW010 SCT020 BKN200 M17/M21 A3022 RMK SC1SC1CI2 SLP285

CYQR;2011-03-12 14:20;CYQR 121420Z 04002KT 15SM FEW010 FEW020 SCT200 M17/ RMK SC1SC1CI0

CYQR;2011-03-12 15:00;CYQR 121500Z 29006KT 15SM FEW010 FEW020 SCT200 M19/M22 A3024 RMK SC1SC1CI0 SLP294

CYQR;2011-03-12 16:00;CYQR 121600Z 31009KT 15SM BKN080 M18/M21 A3025 RMK AC6 SLP299

CYQR;2011-03-12 17:00;CYQR 121700Z 33004KT 15SM FEW013 BKN017 BKN080 M16/M20 A3025 RMK SC1SC4AC2 SLP299

CYQR;2011-03-12 18:00;CYQR 121800Z 28004KT 12SM -SN BKN017 BKN092 BKN250 M15/M19 A3024 RMK SC4AC1CI1 SLP291

CYQR;2011-03-12 18:45;CYQR 121845Z 27006KT 15SM FEW017 SCT071 M14/ RMK SC1AC1

CYQR;2011-03-12 19:00;CYQR 121900Z 28006KT 15SM FEW017 FEW071 M15/M19 A3023 RMK SC1AC1 SLP290

CYQR;2011-03-12 20:00;CYQR 122000Z 29005KT 15SM FEW008 SCT065 BKN250 M14/M18 A3022 RMK SC1SC2CI1 SLP286

CYQR;2011-03-12 20:14;CYQR 122014Z 30005KT 12SM BKN009 BKN065 BKN250 RMK ST5SC1CI0 VIS E 5

CYQR;2011-03-12 20:15;CYQR 122015Z CCA 30005KT 12SM BKN009 BKN065 BKN250 M14/ RMK ST5SC1CI0 VIS E 5

CYQR;2011-03-12 20:31;CYQR 122031Z 30004KT 12SM BKN010 BKN065 M14/ RMK ST5SC1 VIS E 4

CYQR;2011-03-12 21:00;CYQR 122100Z 29005KT 12SM SCT008 SCT065 BKN250 M13/M18 A3020 RMK ST2SC1CI1 VIS E 4 SLP278

CYQR;2011-03-12 22:00;CYQR 122200Z 28006KT 15SM SKC M13/M18 A3023 RMK SLP287

CYQR;2011-03-12 23:00;CYQR 122300Z 29003KT 15SM SKC M13/M18 A3021 RMK SLP282

CYQR;2011-03-13 00:00;CYQR 130000Z 25003KT 15SM FEW250 M13/M18 A3020 RMK CI1 SLP279

CYQR;2011-03-13 01:00;CYQR 130100Z 19004KT 15SM FEW250 M15/M19 A3022 RMK CI0 SLP285

CYQR;2011-03-13 02:00;CYQR 130200Z 18006KT 15SM FEW250 M16/M20 A3022 RMK CI0 SLP285

CYQR;2011-03-13 03:00;CYQR 130300Z 15006KT 15SM SKC M16/M19 A3021 RMK SLP285

CYQR;2011-03-13 04:00;CYQR 130400Z 17009KT 15SM SKC M17/M21 A3021 RMK SLP285

CYQR;2011-03-13 05:00;CYQR 130500Z 16012KT 15SM SKC M17/M21 A3020 RMK SLP282

CYQR;2011-03-13 06:00;CYQR 130600Z 16012KT 15SM SKC M18/M21 A3019 RMK SLP278

CYQR;2011-03-13 07:00;CYQR 130700Z 15013KT 15SM SKC M17/M21 A3017 RMK FROIN SLP272

CYQR;2011-03-13 08:00;CYQR 130800Z 14015KT 15SM FEW230 M18/M21 A3015 RMK CI0 SLP266

CYQR;2011-03-13 08:26;CYQR 130826Z 14015KT 15SM FEW002 FEW230 M18/ RMK ST1CI0

CYQR;2011-03-13 09:00;CYQR 130900Z 14015KT 10SM SCT002 BKN230 M18/M21 A3014 RMK ST2CI2 VIS S-W 21/2 BR SLP259

CYQR;2011-03-13 09:17;CYQR 130917Z 14014KT 2 1/2SM IC BR SCT002 BKN026 M17/ RMK ST3SC2 VIS N-E 5

CYQR;2011-03-13 09:38;CYQR 130938Z 14017KT 5SM IC BR SCT002 BKN230 M17/ RMK ST3CI1

CYQR;2011-03-13 10:00;CYQR 131000Z 14016KT 10SM SCT002 BKN230 M17/M21 A3012 RMK ST3CI1 VIS S-W 4 BR SLP253

CYQR;2011-03-13 11:00;CYQR 131100Z 14013KT 10SM SCT002 SCT230 M17/M21 A3012 RMK ST2CI1 FROIN BR SLP253

CYQR;2011-03-13 11:14;CYQR 131114Z 14017KT 15SM FEW002 M17/ RMK ST1

CYQR;2011-03-13 12:00;CYQR 131200Z CCA 14018KT 10SM DRSN FEW002 M18/M21 A3010 RMK ST1 BR SLP247

CYQR;2011-03-13 12:52;CYQR 131252Z 14018KT 8SM DRSN VCBLSN FEW002 SCT030 BKN230 M18/ RMK ST1SC1CI2 VIS S-W 3 BLSN

CYQR;2011-03-13 13:00;CYQR 131300Z 14018KT 6SM IC DRSN VCBLSN FEW002 FEW030 BKN230 M18/M21 A3009 RMK SF1SC1CI2 VIS S-W 3 BLSN SLP241

CYQR;2011-03-13 14:00;CYQR 131400Z 14017KT 3SM BLSN FEW003 FEW030 BKN230 M18/M21 A3008 RMK SF1SC1CI1 TR SF SLP238

CYQR;2011-03-13 15:00;CYQR 131500Z 14017KT 4SM BLSN FEW030 FEW230 M16/M20 A3007 RMK SC1CI0 SLP235

CYQR;2011-03-13 16:00;CYQR 131600Z 14019KT 4SM BLSN FEW230 M14/M18 A3004 RMK CI1 SLP226

CYQR;2011-03-13 17:00;CYQR 131700Z 14019KT 8SM DRSN FEW230 M12/M16 A3004 RMK CI1 OCNL BLSN SLP225

CYQR;2011-03-13 18:00;CYQR 131800Z 14017KT 15SM FEW230 M11/M14 A3002 RMK CI1 SLP217

CYQR;2011-03-13 19:00;CYQR 131900Z 16011G16KT 15SM FEW230 M08/M11 A3001 RMK CI1 SLP214

CYQR;2011-03-13 20:00;CYQR 132000Z 14010KT 15SM SCT230 M05/M08 A2999 RMK CI1 SLP207

CYQR;2011-03-13 21:00;CYQR 132100Z 15008KT 15SM BKN230 M02/M05 A2998 RMK CI5 SLP197

CYQR;2011-03-13 22:00;CYQR 132200Z 18007KT 15SM FEW080 SCT230 M00/M03 A2997 RMK AC1CI2 SLP194

CYQR;2011-03-13 23:00;CYQR 132300Z 17005KT 15SM FEW230 01/M03 A2998 RMK CI2 SLP195

CYQR;2011-03-14 00:00;CYQR 140000Z 17006KT 15SM BKN230 M00/M03 A2996 RMK CI2 CONTRAILS SLP188

CYQR;2011-03-14 01:00;CYQR 140100Z CCA 14003KT 15SM FEW070 BKN230 M02/M05 A2997 RMK AC1CI1 CONTRAILS SLP189

CYQR;2011-03-14 02:00;CYQR 140200Z 12005KT 15SM FEW060 BKN230 M05/M07 A2996 RMK SC1CI1 SLP187

CYQR;2011-03-14 03:00;CYQR 140300Z 12006KT 15SM FEW060 SCT230 M06/M08 A2996 RMK SC1CI1 SLP189

CYQR;2011-03-14 04:00;CYQR 140400Z 14007KT 15SM FEW230 M07/M10 A2995 RMK CI1 SLP188

CYQR;2011-03-14 05:00;CYQR 140500Z 12007KT 15SM FEW230 M08/M10 A2994 RMK CI0 SLP184

CYQR;2011-03-14 06:00;CYQR 140600Z 12008KT 15SM FEW230 M08/M10 A2993 RMK CI0 FROIN SLP177

CYQR;2011-03-14 07:00;CYQR 140700Z 12009KT 15SM SKC M09/M11 A2992 RMK SLP175

CYQR;2011-03-14 08:00;CYQR 140800Z 12009KT 15SM FEW230 M09/M11 A2990 RMK CI0 SLP169

CYQR;2011-03-14 09:00;CYQR 140900Z 12010KT 15SM SCT230 M09/M12 A2987 RMK CI1 SLP152

CYQR;2011-03-14 10:00;CYQR 141000Z 12010KT 15SM BKN150 BKN230 M08/M11 A2984 RMK AC2CI3 SLP143

CYQR;2011-03-14 11:00;CYQR 141100Z 13011KT 15SM SCT072 BKN150 M07/M10 A2982 RMK AC3AC3 SLP135

CYQR;2011-03-14 12:00;CYQR 141200Z 13014KT 15SM SCT080 OVC160 M07/M09 A2979 RMK AC3AC5 SLP119

CYQR;2011-03-14 13:00;CYQR 141300Z 13016KT 15SM SCT080 OVC160 M06/M08 A2976 RMK AC2AC6 SLP112

CYQR;2011-03-14 14:00;CYQR 141400Z 14014KT 15SM BKN080 BKN160 OVC280 M06/M09 A2978 RMK AC5AC2CI1 SLP116

CYQR;2011-03-14 15:00;CYQR 141500Z 14014KT 15SM BKN120 OVC280 M04/M07 A2975 RMK AC6CI1 SLP110

CYQR;2011-03-14 16:00;CYQR 141600Z 14014KT 15SM BKN095 BKN280 M04/M06 A2974 RMK AC6CI1 SLP105

CYQR;2011-03-14 17:00;CYQR 141700Z 14012KT 15SM FEW100 BKN280 M02/M05 A2972 RMK AC2CI2 SLP101

CYQR;2011-03-14 18:00;CYQR 141800Z 16010KT 15SM FEW100 BKN300 M01/M04 A2973 RMK AC1CI2 SLP101

CYQR;2011-03-14 19:00;CYQR 141900Z 17008KT 15SM FEW090 BKN300 01/M02 A2971 RMK AC2CI1 SLP097

CYQR;2011-03-14 20:00;CYQR 142000Z 25015KT 15SM FEW090 BKN300 03/M00 A2969 RMK AC2CI2 SLP090

CYQR;2011-03-14 21:00;CYQR 142100Z 23010G15KT 15SM FEW090 SCT300 03/M01 A2968 RMK AC1CI2 SLP083

CYQR;2011-03-14 22:00;CYQR 142200Z 25020KT 15SM FEW100 BKN300 03/M01 A2969 RMK AC1CI2 SLP086

CYQR;2011-03-14 23:00;CYQR 142300Z 24021KT 15SM FEW070 SCT100 BKN300 03/M01 A2968 RMK AC2AC1CI2 SLP081

CYQR;2011-03-15 00:00;CYQR 150000Z 27027KT 15SM FEW075 FEW100 BKN300 03/M00 A2967 RMK AC1AC1CI1 SLP077

CYQR;2011-03-15 01:00;CYQR 150100Z 28017KT 15SM FEW080 SCT300 02/00 A2969 RMK AC1CI1 SLP084

CYQR;2011-03-15 02:00;CYQR 150200Z 25011KT 15SM FEW080 SCT300 01/M00 A2971 RMK AC1CI0 SLP090

CYQR;2011-03-15 03:00;CYQR 150300Z 24016KT 15SM FEW080 FEW300 01/M01 A2972 RMK AC1CI1 SLP093

CYQR;2011-03-15 04:00;CYQR 150400Z 25018KT 15SM FEW080 FEW260 01/M01 A2972 RMK AC1CI0 SLP095

CYQR;2011-03-15 05:00;CYQR 150500Z 27015KT 15SM FEW080 SCT240 01/M02 A2974 RMK AC1CI0 SLP099

CYQR;2011-03-15 06:00;CYQR 150600Z 27011KT 15SM FEW080 FEW240 M00/M03 A2975 RMK AC0CI1 SLP101

CYQR;2011-03-15 07:00;CYQR 150700Z 27012KT 15SM SKC M01/M03 A2976 RMK SLP107

CYQR;2011-03-15 08:00;CYQR 150800Z 27009KT 15SM SKC M02/M04 A2977 RMK SLP110

CYQR;2011-03-15 09:00;CYQR 150900Z 25006KT 15SM SKC M03/M05 A2979 RMK SLP116

CYQR;2011-03-15 10:00;CYQR 151000Z 27009KT 15SM FEW240 M03/M05 A2980 RMK CI0 SLP117

CYQR;2011-03-15 11:00;CYQR 151100Z 29010KT 15SM FEW240 M04/M06 A2981 RMK CI1 SLP121

CYQR;2011-03-15 12:00;CYQR 151200Z 30009KT 15SM FEW240 M04/M07 A2983 RMK CI0 FROIN SLP130

CYQR;2011-03-15 13:00;CYQR 151300Z 35006KT 15SM FEW070 FEW240 M05/M07 A2984 RMK AC1CI1 SLP132

CYQR;2011-03-15 14:00;CYQR 151400Z 29009KT 15SM FEW070 M05/M07 A2984 RMK AC1 SLP132

CYQR;2011-03-15 15:00;CYQR 151500Z 26005KT 15SM FEW070 FEW280 M04/M07 A2984 RMK AC1CI1 SLP135

CYQR;2011-03-15 16:00;CYQR 151600Z 27008KT 15SM FEW280 M03/M05 A2986 RMK CI1 SLP141

CYQR;2011-03-15 17:00;CYQR 151700Z 27005KT 15SM FEW280 M01/M04 A2986 RMK CI1 SLP141

CYQR;2011-03-15 18:00;CYQR 151800Z 25005KT 15SM FEW300 01/M02 A2985 RMK CI0 SLP137

CYQR;2011-03-15 19:00;CYQR 151900Z 25005KT 15SM BKN300 01/M02 A2985 RMK CI2 SLP136

CYQR;2011-03-15 20:00;CYQR 152000Z 27006KT 15SM BKN300 02/M01 A2984 RMK CI2 SLP132

CYQR;2011-03-15 21:00;CYQR 152100Z 24003KT 15SM BKN300 02/M01 A2981 RMK CI2 SLP123

CYQR;2011-03-15 22:00;CYQR 152200Z 18006KT 15SM BKN300 02/M01 A2981 RMK CI1 SLP121

CYQR;2011-03-15 23:00;CYQR 152300Z 16007KT 15SM BKN300 01/M01 A2980 RMK CI2 SLP118

CYQR;2011-03-16 00:00;CYQR 160000Z 16006KT 15SM FEW150 BKN300 02/M02 A2978 RMK AC1CI3 CC ASOCTD SLP113

CYQR;2011-03-16 01:00;CYQR 160100Z 16009KT 15SM BKN140 BKN300 00/M02 A2978 RMK AC2CI1 SLP113

CYQR;2011-03-16 02:00;CYQR 160200Z 15010KT 15SM SCT140 BKN300 00/M02 A2977 RMK AC2CI2 SLP110

CYQR;2011-03-16 03:00;CYQR 160300Z 15009KT 15SM FEW080 BKN140 BKN280 M00/M02 A2974 RMK AC2AS2CI2 SLP102

CYQR;2011-03-16 04:00;CYQR 160400Z 15010KT 15SM FEW140 BKN280 M01/M03 A2973 RMK AS1CI2 SLP099

CYQR;2011-03-16 05:00;CYQR 160500Z 14010KT 15SM SCT140 BKN280 M02/M04 A2971 RMK AS2CI2 SLP092

CYQR;2011-03-16 06:00;CYQR 160600Z 14013KT 15SM FEW080 BKN140 OVC280 M01/M03 A2969 RMK AC2AS3CI2 SLP082

CYQR;2011-03-16 07:00;CYQR 160700Z 13013KT 15SM SCT080 OVC140 M01/M03 A2966 RMK AC2AS5 SLP073

CYQR;2011-03-16 08:00;CYQR 160800Z 12013KT 15SM SCT080 OVC140 M01/M04 A2963 RMK AC2AS5 SLP062

CYQR;2011-03-16 09:00;CYQR 160900Z 13015KT 15SM FEW080 BKN120 M02/M04 A2958 RMK AC1AC2 SLP044

CYQR;2011-03-16 10:00;CYQR 161000Z 12015KT 15SM SCT075 BKN120 M01/M04 A2955 RMK AC4AC2 SLP032

CYQR;2011-03-16 11:00;CYQR 161100Z 13017KT 15SM FEW040 OVC075 M01/M03 A2951 RMK SC2AC6 SLP020

CYQR;2011-03-16 12:00;CYQR 161200Z 14011KT 15SM OVC079 M01/M04 A2951 RMK AC7 SLP017

CYQR;2011-03-16 12:33;CYQR 161233Z 14010KT 15SM -FZRA FEW040 OVC075 M01/ RMK SC2AC6 FZRA VERY LGT

CYQR;2011-03-16 12:51;CYQR 161251Z 14009KT 15SM SCT040 BKN068 OVC120 M01/ REFZRA RMK SC3AC4AC1

CYQR;2011-03-16 13:00;CYQR 161300Z 14010KT 15SM FEW040 BKN063 OVC120 M01/M03 A2949 REFZRA RMK SC2SC4AC2 SLP011

CYQR;2011-03-16 14:00;CYQR 161400Z 16009G15KT 15SM FEW030 OVC057 01/M01 A2947 RMK SC1SC7 SLP006

CYQR;2011-03-16 15:00;CYQR 161500Z 16013KT 15SM FEW030 OVC061 01/M01 A2947 RMK SC2SC6 SLP004

CYQR;2011-03-16 16:00;CYQR 161600Z 18012KT 15SM FEW030 SCT059 OVC120 01/M01 A2946 RMK SC1SC3AC4 SLP002

CYQR;2011-03-16 17:00;CYQR 161700Z 17007KT 15SM FEW040 BKN068 OVC120 01/M00 A2945 RMK SC2AC4AS2 SLP998

CYQR;2011-03-16 18:00;CYQR 161800Z 16008KT 15SM FEW040 FEW072 BKN120 02/M00 A2944 RMK SC1AC2AC5 SLP996

CYQR;2011-03-16 19:00;CYQR 161900Z 19006KT 15SM FEW040 SCT065 BKN120 BKN250 01/M00 A2945 RMK SC1SC2AC2CI1 SLP998

CYQR;2011-03-16 20:00;CYQR 162000Z 19002KT 15SM FEW040 BKN067 BKN120 BKN280 03/00 A2943 RMK SC1AC5AC1CI0 SLP992

CYQR;2011-03-16 21:00;CYQR 162100Z 23008KT 15SM FEW077 SCT120 BKN280 02/00 A2943 RMK AC1AS0CI1 SLP993

CYQR;2011-03-16 22:00;CYQR 162200Z 25006KT 15SM FEW080 BKN120 BKN280 02/M00 A2944 RMK AC2AC3CI1 SLP995

CYQR;2011-03-16 23:00;CYQR 162300Z 25011KT 15SM FEW080 FEW120 SCT280 02/00 A2945 RMK AC1AC2CI1 SLP998

CYQR;2011-03-17 00:00;CYQR 170000Z 25013KT 15SM FEW080 FEW280 02/M00 A2946 RMK AC1CI1 ACC ASOCTD TR CI SLP002

CYQR;2011-03-17 01:00;CYQR 170100Z 23005KT 15SM FEW080 FEW280 01/M02 A2946 RMK AC1CI1 SLP003

CYQR;2011-03-17 02:00;CYQR 170200Z 19007KT 15SM FEW080 M01/M03 A2946 RMK AC1 SLP000

CYQR;2011-03-17 03:00;CYQR 170300Z 22007KT 15SM BKN068 M01/M03 A2946 RMK AC5 SLP000

CYQR;2011-03-17 04:00;CYQR 170400Z 23010KT 15SM BKN053 01/M02 A2944 RMK SC6 SLP996

CYQR;2011-03-17 05:00;CYQR 170500Z 22011KT 15SM BKN034 01/M01 A2944 RMK SC7 SLP996

CYQR;2011-03-17 06:00;CYQR 170600Z 25013KT 15SM OVC015 01/M00 A2945 RMK SC8 SLP995

CYQR;2011-03-17 06:23;CYQR 170623Z 27010KT 15SM OVC009 01/ RMK SC8

CYQR;2011-03-17 07:00;CYQR 170700Z 28014KT 15SM SCT009 OVC014 01/00 A2946 RMK SC4SC4 SLP001

CYQR;2011-03-17 07:26;CYQR 170726Z 29014KT 15SM OVC016 01/ RMK SC8

CYQR;2011-03-17 07:45;CYQR 170745Z 28017KT 10SM BKN006 OVC018 01/ RMK SF5SC3

CYQR;2011-03-17 08:00;CYQR 170800Z 28022KT 10SM BKN004 OVC020 00/M00 A2949 RMK SF6SC2 SLP008

CYQR;2011-03-17 08:09;CYQR 170809Z 28021G27KT 5SM BR BKN002 OVC025 M00/ RMK SF7SC1

CYQR;2011-03-17 08:21;CYQR 170821Z 28019G25KT 1SM R13/P6000FT/D BR OVC001 M00/ RMK SF8

CYQR;2011-03-17 08:30;CYQR 170830Z 29019G24KT 1/2SM R13/P6000FT/D FZFG VV001 M01/ RMK FG8

CYQR;2011-03-17 09:00;CYQR 170900Z 29017KT 1 1/2SM BR OVC001 M01/M02 A2951 RMK SF8 SLP020

CYQR;2011-03-17 09:06;CYQR 170906Z 30016KT 1SM R13/P6000FT/D BR OVC001 M01/ RMK SF8 VIS VRB 1/2-11/2

CYQR;2011-03-17 09:22;CYQR 170922Z 30014KT 3SM BR OVC001 M01/ RMK SF8

CYQR;2011-03-17 09:31;CYQR 170931Z 30015KT 5SM BR OVC003 M01/ RMK SF8

CYQR;2011-03-17 09:53;CYQR 170953Z 31018KT 3/4SM R13/P6000FT/D BR OVC001 M01/ RMK SF8

CYQR;2011-03-17 10:00;CYQR 171000Z 31019KT 1/2SM R13/4500VP6000FT/D FZFG VV001 M01/M01 A2952 RMK FG8 SLP023

CYQR;2011-03-17 10:35;CYQR 171035Z 31019KT 1SM R13/3500VP6000FT/U BR OVC001 M01/ RMK SF8

CYQR;2011-03-17 11:00;CYQR 171100Z 30020KT 1/2SM R13/3500V6000FT/D FZFG VV001 M02/M02 A2955 RMK FG8 SLP031

CYQR;2011-03-17 11:13;CYQR 171113Z 32021KT 3/4SM R13/3500VP6000FT/U BR VV001 M02/ RMK FG8 VIS VRB 1/2-1

CYQR;2011-03-17 11:27;CYQR 171127Z 32018KT 1 1/2SM BR OVC001 M02/ RMK SF8

CYQR;2011-03-17 11:34;CYQR 171134Z 32019KT 1 1/2SM -SN BR OVC002 M02/ RMK SF8

CYQR;2011-03-17 12:00;CYQR 171200Z 33020KT 1SM R13/P6000FT/D -SN BR OVC002 M02/M03 A2959 RMK SF8 SLP048

CYQR;2011-03-17 12:08;CYQR 171208Z 34019G25KT 1 3/4SM -SN BR OVC001 M02/ RMK SF8

CYQR;2011-03-17 12:24;CYQR 171224Z 33024KT 1 3/4SM -SN -FZDZ BR OVC002 M03/ RMK SF8

CYQR;2011-03-17 12:40;CYQR 171240Z 34023G28KT 2SM -SN -FZDZ BR OVC004 M03/ RMK SF8

CYQR;2011-03-17 13:00;CYQR 171300Z 35016G24KT 2SM -SN -FZDZ BR OVC004 M03/M04 A2966 RMK SF8 SLP068

CYQR;2011-03-17 13:08;CYQR 171308Z 36018G24KT 5SM -SN -FZDZ BR OVC004 M03/ RMK SF8

CYQR;2011-03-17 13:21;CYQR 171321Z 36020KT 5SM DRSN -FZDZ BR OVC006 M04/ RMK SF8

CYQR;2011-03-17 13:31;CYQR 171331Z 36018KT 6SM BR OVC006 M04/ REFZDZ RMK SF8

CYQR;2011-03-17 14:00;CYQR 171400Z 01015G24KT 15SM OVC009 M04/M07 A2971 REFZDZ RMK SC8 SLP087

CYQR;2011-03-17 14:04;CYQR 171404Z 36017KT 15SM OVC013 M04/ RMK SC8

CYQR;2011-03-17 14:15;CYQR 171415Z 36016KT 12SM -SN DRSN OVC011 M04/ RMK SC8

CYQR;2011-03-17 14:35;CYQR 171435Z 35017G22KT 12SM -SN DRSN OVC009 M04/ RMK SC8 -SN INTMT

CYQR;2011-03-17 15:00;CYQR 171500Z 35018KT 15SM -SN DRSN OVC009 M05/M07 A2977 RMK SC8 INTMT -SN PRESRR SLP113

CYQR;2011-03-17 15:41;CYQR 171541Z 35019KT 10SM -SN DRSN BKN010 OVC026 M06/ RMK SC7SC1 -SN INTMT CIG VRB 9-11

CYQR;2011-03-17 16:00;CYQR 171600Z 34016KT 4SM -SN BLSN BKN010 OVC026 M06/M08 A2982 RMK SC6SC2 SLP128

CYQR;2011-03-17 16:29;CYQR 171629Z 34018KT 15SM BKN009 BKN026 M06/ REBLSN RMK SC6SC1

CYQR;2011-03-17 16:51;CYQR 171651Z 34016KT 15SM FEW010 BKN029 BKN050 M06/ REBLSN RMK SC2SC4SC2

CYQR;2011-03-17 17:00;CYQR 171700Z 34017KT 15SM FEW010 BKN027 OVC053 M06/M09 A2986 REBLSN RMK SC1SC6SC1 SLP141

CYQR;2011-03-17 18:00;CYQR 171800Z 35018KT 15SM FEW012 BKN025 BKN042 M06/M09 A2989 RMK SC1SC6SC2 SLP154

CYQR;2011-03-17 19:00;CYQR 171900Z 33018KT 15SM FEW012 BKN025 BKN082 M06/M09 A2991 RMK SC1SC2AC1 SLP160

CYQR;2011-03-17 20:00;CYQR 172000Z 33018KT 15SM FEW012 SCT036 BKN080 BKN300 M06/M09 A2994 RMK SC2SC2AC2CI0 SLP168

CYQR;2011-03-17 21:00;CYQR 172100Z 33015KT 15SM BKN012 BKN056 BKN095 M06/M09 A2997 RMK SC5SC1AC1 SLP182

CYQR;2011-03-17 22:00;CYQR 172200Z 33016KT 15SM BKN012 BKN056 BKN100 M07/M10 A3000 RMK SC5SC1AC1 SLP191

CYQR;2011-03-17 23:00;CYQR 172300Z 34017KT 15SM FEW010 FEW100 FEW270 M07/M11 A3000 RMK SC1AC1CI0 SLP194

CYQR;2011-03-18 00:00;CYQR 180000Z 34014KT 15SM FEW300 M07/M11 A3002 RMK CI0 SLP203

CYQR;2011-03-18 01:00;CYQR 180100Z 34010KT 15SM FEW270 M08/M11 A3005 RMK CI0 SLP211

CYQR;2011-03-18 02:00;CYQR 180200Z 35007KT 15SM FEW270 M09/M12 A3008 RMK CI1 SLP221

CYQR;2011-03-18 03:00;CYQR 180300Z 36006KT 15SM SKC M09/M13 A3010 RMK SLP231

CYQR;2011-03-18 04:00;CYQR 180400Z 01005KT 15SM BKN110 M10/M13 A3010 RMK AC5 SLP232

CYQR;2011-03-18 05:00;CYQR 180500Z 00000KT 15SM SCT086 M12/M15 A3012 RMK AC3 SLP238

CYQR;2011-03-18 06:00;CYQR 180600Z 00000KT 15SM OVC083 M10/M13 A3013 RMK AC6 SLP243

CYQR;2011-03-18 07:00;CYQR 180700Z 12006KT 15SM BKN069 M10/M13 A3013 RMK AC5 SLP243

CYQR;2011-03-18 07:40;CYQR 180740Z 16007KT 15SM OVC013 M09/ RMK SC8

CYQR;2011-03-18 08:00;CYQR 180800Z 15004KT 15SM OVC011 M09/M12 A3014 RMK SC8 SLP246

CYQR;2011-03-18 08:10;CYQR 180810Z 15004KT 12SM -SN OVC011 M09/ RMK SC8

CYQR;2011-03-18 09:00;CYQR 180900Z 13005KT 10SM -SN OVC009 M09/M12 A3014 RMK SC8 SLP246

CYQR;2011-03-18 10:00;CYQR 181000Z 14006KT 10SM -SN BKN009 OVC025 M09/M11 A3014 RMK SC7SC1 SLP246

CYQR;2011-03-18 10:16;CYQR 181016Z 12006KT 15SM BKN010 OVC025 M08/ RMK SC6SC2

CYQR;2011-03-18 10:28;CYQR 181028Z 13007KT 15SM BKN018 OVC025 M08/ RMK SC5SC3

CYQR;2011-03-18 11:00;CYQR 181100Z 14008KT 15SM OVC020 M08/M11 A3014 RMK SC8 SLP245

CYQR;2011-03-18 12:00;CYQR 181200Z 12006KT 15SM SCT016 OVC030 M08/M10 A3013 RMK SC4SC4 SLP243

CYQR;2011-03-18 13:00;CYQR 181300Z 13009KT 15SM BKN015 OVC026 M07/M10 A3013 RMK SC7SC1 SLP244

CYQR;2011-03-18 13:33;CYQR 181333Z 13008KT 15SM BKN012 OVC026 M07/ RMK SC7SC1

CYQR;2011-03-18 14:00;CYQR 181400Z 13008KT 15SM OVC009 M07/M09 A3014 RMK SC8 SLP245

CYQR;2011-03-18 15:00;CYQR 181500Z 13010KT 10SM OVC008 M06/M08 A3013 RMK SC8 CIG VRB 7-9 SLP243

CYQR;2011-03-18 16:00;CYQR 181600Z 13010KT 12SM OVC007 M05/M07 A3013 RMK SC8 SLP243

CYQR;2011-03-18 16:45;CYQR 181645Z 14014KT 12SM SCT007 BKN022 M04/ RMK SC2SC5

CYQR;2011-03-18 17:00;CYQR 181700Z 14011KT 12SM FEW009 BKN022 M04/M06 A3013 RMK SC1SC6 SLP243

CYQR;2011-03-18 18:00;CYQR 181800Z 15010KT 12SM SCT007 BKN022 M02/M05 A3013 RMK SC2SC4 SLP242

CYQR;2011-03-18 19:00;CYQR 181900Z 15009KT 15SM FEW007 FEW022 FEW250 M02/M04 A3012 RMK SC1SC1CI1 SLP238

CYQR;2011-03-18 20:00;CYQR 182000Z 16011KT 15SM SCT008 M01/M04 A3012 RMK SC4 SLP238

CYQR;2011-03-18 20:11;CYQR 182011Z 16011KT 15SM BKN008 M01/ RMK SC6

CYQR;2011-03-18 21:00;CYQR 182100Z 13009KT 15SM BKN008 M01/M03 A3010 RMK SC3 SLP230

CYQR;2011-03-18 22:00;CYQR 182200Z 13010KT 15SM SCT009 M01/M03 A3009 RMK SC1 SLP227

CYQR;2011-03-18 23:00;CYQR 182300Z 13009KT 15SM SCT010 M01/M03 A3009 RMK SC1 SLP225

CYQR;2011-03-19 00:00;CYQR 190000Z 13010KT 15SM FEW010 M01/M03 A3008 RMK SC1 SLP223

CYQR;2011-03-19 01:00;CYQR 190100Z 13010KT 15SM FEW300 M02/M04 A3009 RMK CI0 SLP224

CYQR;2011-03-19 02:00;CYQR 190200Z 11009KT 12SM FEW300 M02/M04 A3008 RMK CI1 SLP223

CYQR;2011-03-19 03:00;CYQR 190300Z 12009KT 12SM SKC M03/M05 A3008 RMK SLP222

CYQR;2011-03-19 03:26;CYQR 190326Z 12009KT 10SM FEW001 M03/ RMK SF1

CYQR;2011-03-19 04:00;CYQR 190400Z 13007KT 10SM FEW002 M04/M06 A3009 RMK SF1 SLP224

CYQR;2011-03-19 05:00;CYQR 190500Z 13009KT 6SM BR FEW004 M05/M06 A3009 RMK SF1 SLP224

CYQR;2011-03-19 06:00;CYQR 190600Z 11008KT 9SM FEW004 M05/M07 A3008 RMK SF1 SLP219

CYQR;2011-03-19 07:00;CYQR 190700Z 12007KT 8SM SKC M07/M08 A3008 RMK SLP219

CYQR;2011-03-19 08:00;CYQR 190800Z 12007KT 5SM BR SKC M07/M09 A3007 RMK FROIN SLP217

CYQR;2011-03-19 09:00;CYQR 190900Z 12010KT 7SM SKC M07/M09 A3006 RMK SLP215

CYQR;2011-03-19 09:25;CYQR 190925Z 12009KT 2SM BR SKC M08/

CYQR;2011-03-19 09:30;CYQR 190930Z 12009KT 1SM R13/P6000FT/D BR SKC M08/ RMK FG5

CYQR;2011-03-19 09:41;CYQR 190941Z 12009KT 1 1/2SM BR BKN001 M07/ RMK SF6

CYQR;2011-03-19 09:52;CYQR 190952Z 12009KT 1/2SM R13/P6000FT/N FZFG OVC001 M07/ RMK FG3SF4

CYQR;2011-03-19 10:00;CYQR 191000Z 12010KT 1SM R13/P6000FT/D BR OVC001 M07/M09 A3005 RMK FG3SF4 VIS VRB 1/2-11/2 SLP210

CYQR;2011-03-19 10:29;CYQR 191029Z 12008KT 1/2SM R13/5000FT/D FZFG VV001 M07/ RMK FG8

CYQR;2011-03-19 11:00;CYQR 191100Z 12007KT 3/4SM R13/6000FT/N BR VV001 M07/M09 A3004 RMK FG8 SLP208

CYQR;2011-03-19 11:03;CYQR 191103Z 12007KT 2SM BR OVC001 M07/ RMK SF8

CYQR;2011-03-19 11:07;CYQR 191107Z 12007KT 5SM BR OVC001 M07/ RMK SF7

CYQR;2011-03-19 11:27;CYQR 191127Z 12008KT 12SM BKN003 M07/ RMK SF3

CYQR;2011-03-19 11:46;CYQR 191146Z 12008KT 12SM FEW003 M08/ RMK SF2

CYQR;2011-03-19 12:00;CYQR 191200Z 12005KT 15SM FEW003 M08/M10 A3003 RMK SF1 SLP206

CYQR;2011-03-19 13:00;CYQR 191300Z 13008KT 15SM SKC M09/M11 A3003 RMK SLP204

CYQR;2011-03-19 14:00;CYQR 191400Z 11005KT 15SM SKC M08/M11 A3002 RMK SLP202

CYQR;2011-03-19 15:00;CYQR 191500Z 10006KT 15SM SCT260 M06/M08 A3001 RMK CI1 SLP197

CYQR;2011-03-19 16:00;CYQR 191600Z 13006KT 15SM SCT260 M06/M07 A3000 RMK CI0 SLP193

CYQR;2011-03-19 17:00;CYQR 191700Z 12007KT 15SM SCT260 M03/M06 A2999 RMK CI0 SLP192

CYQR;2011-03-19 17:36;CYQR 191736Z 13008KT 15SM FEW008 BKN260 M03/ RMK CF1CI0

CYQR;2011-03-19 18:00;CYQR 191800Z 11011KT 15SM FEW008 BKN260 M02/M04 A2998 RMK SC1CI1 SLP186

CYQR;2011-03-19 19:00;CYQR 191900Z 12011KT 15SM FEW009 BKN260 M02/M04 A2996 RMK SC2CI1 SLP180

CYQR;2011-03-19 20:00;CYQR 192000Z 12010KT 15SM FEW009 BKN240 M00/M03 A2995 RMK SC2CI1 SLP175

CYQR;2011-03-19 21:00;CYQR 192100Z 09015KT 15SM BKN012 BKN240 M01/M03 A2993 RMK SC5CI2 SLP169

CYQR;2011-03-19 21:25;CYQR 192125Z 12012G17KT 15SM BKN009 BKN240 M01/ RMK SC5CI2

CYQR;2011-03-19 22:00;CYQR 192200Z 11014KT 15SM BKN008 BKN240 M01/M03 A2992 RMK SC5CI2 SLP166

CYQR;2011-03-19 22:38;CYQR 192238Z 09014G19KT 15SM SCT010 BKN240 M01/ RMK SC3CI2

CYQR;2011-03-19 23:00;CYQR 192300Z 09016G21KT 15SM SCT010 BKN240 M01/M03 A2990 RMK SC3CI2 SLP158

CYQR;2011-03-20 00:00;CYQR 200000Z 09013G18KT 15SM FEW009 FEW068 BKN240 M01/M03 A2989 RMK SC2AC1AC2 SLP158

CYQR;2011-03-20 01:00;CYQR 200100Z 10016KT 15SM BKN009 BKN094 OVC240 M02/M04 A2991 RMK SC5AC1CI1 SLP162

CYQR;2011-03-20 02:00;CYQR 200200Z 10016KT 12SM OVC006 M02/M04 A2991 RMK SF8 SLP164

CYQR;2011-03-20 03:00;CYQR 200300Z 10014KT 12SM OVC008 M02/M04 A2992 RMK SF8 SLP165

CYQR;2011-03-20 04:00;CYQR 200400Z 12015G20KT 15SM OVC008 M02/M04 A2993 RMK SF8 SLP168

CYQR;2011-03-20 05:00;CYQR 200500Z 10017KT 12SM OVC006 M02/M04 A2992 RMK SF8 SLP166

CYQR;2011-03-20 05:11;CYQR 200511Z 10018KT 12SM OVC005 M02/ RMK SF8

CYQR;2011-03-20 05:44;CYQR 200544Z 09013G19KT 12SM OVC004 M02/ RMK SF8

CYQR;2011-03-20 06:00;CYQR 200600Z 09016KT 12SM OVC004 M03/M04 A2990 RMK SF8 SLP157

CYQR;2011-03-20 07:00;CYQR 200700Z 08011KT 10SM OVC005 M02/M04 A2990 RMK SF8 SLP156

CYQR;2011-03-20 07:43;CYQR 200743Z 09013KT 6SM BR OVC004 M03/ RMK SF8

CYQR;2011-03-20 08:00;CYQR 200800Z 08010G15KT 2SM BR OVC003 M03/M04 A2988 RMK SF8 SLP150

CYQR;2011-03-20 08:07;CYQR 200807Z 08011KT 3/4SM R13/4500VP6000FT/D BR VV002 M03/ RMK FG8

CYQR;2011-03-20 08:27;CYQR 200827Z 09011KT 1 3/4SM R13/6000FT/U BR OVC002 M03/ RMK SF8

CYQR;2011-03-20 09:00;CYQR 200900Z 08014KT 3SM BR OVC003 M03/M04 A2987 RMK SF8 SLP146

CYQR;2011-03-20 09:30;CYQR 200930Z 10013KT 6SM BR OVC004 M03/ RMK SF8

CYQR;2011-03-20 10:00;CYQR 201000Z 09011G17KT 3SM BR OVC003 M03/M05 A2987 RMK SF8 SLP145

CYQR;2011-03-20 10:24;CYQR 201024Z 08011KT 2SM BR OVC003 M03/ RMK SF8

CYQR;2011-03-20 11:00;CYQR 201100Z 07014KT 2SM BR OVC003 M03/M05 A2986 RMK SF8 SLP143

CYQR;2011-03-20 11:24;CYQR 201124Z 07009KT 4SM BR OVC003 M03/ RMK SF8

CYQR;2011-03-20 12:00;CYQR 201200Z 07014KT 8SM OVC004 M03/M05 A2986 RMK SF8 SLP141

CYQR;2011-03-20 12:09;CYQR 201209Z 07013KT 12SM OVC005 M03/ RMK SF8

CYQR;2011-03-20 13:00;CYQR 201300Z 07015KT 8SM OVC006 M03/M05 A2987 RMK SF8 SLP145

CYQR;2011-03-20 13:38;CYQR 201338Z 06012KT 8SM OVC005 M03/ RMK SF8

CYQR;2011-03-20 14:00;CYQR 201400Z 07009KT 10SM OVC005 M03/M05 A2987 RMK SF8 SLP146

CYQR;2011-03-20 14:23;CYQR 201423Z 06009KT 6SM -SN OVC004 M03/ RMK SF8

CYQR;2011-03-20 14:34;CYQR 201434Z 05010KT 3SM -SN SCT004 OVC019 M03/ RMK SN1SF3SC4

CYQR;2011-03-20 14:53;CYQR 201453Z 05010KT 1 1/2SM -SN SCT005 OVC019 M03/ RMK SN2SF1SC6

CYQR;2011-03-20 15:00;CYQR 201500Z 06010KT 1 1/2SM -SN SCT005 OVC019 M03/M05 A2986 RMK SN2SF1SC6 SLP143

CYQR;2011-03-20 15:50;CYQR 201550Z 02006KT 1 1/2SM -SN BKN007 OVC020 M03/ RMK SN2SF3SC3

CYQR;2011-03-20 16:00;CYQR 201600Z 03007KT 1 1/2SM -SN BKN008 OVC020 M03/M05 A2987 RMK SN2SF3SC3 SLP146

CYQR;2011-03-20 16:28;CYQR 201628Z 02005KT 1SM R13/6000FT/N -SN OVC008 M03/ RMK SN3SF5

CYQR;2011-03-20 17:00;CYQR 201700Z 02005KT 3/4SM R13/4500FT/U -SN VV003 M03/M05 A2988 RMK SN8 SLP149

CYQR;2011-03-20 17:41;CYQR 201741Z 02006KT 1SM R13/P6000FT/N -SN OVC007 M02/ RMK SN3SF5

CYQR;2011-03-20 18:00;CYQR 201800Z 03007KT 1SM R13/P6000FT/N -SN OVC007 M02/M05 A2987 RMK SN3SC5 SLP147

CYQR;2011-03-20 18:19;CYQR 201819Z 04007KT 3SM -SN BKN006 OVC020 M02/ RMK SN1SF4SC3

CYQR;2011-03-20 19:00;CYQR 201900Z 36004KT 3SM -SN BKN007 OVC075 M02/M05 A2989 RMK SN1SF4AC3 SLP152

CYQR;2011-03-20 19:12;CYQR 201912Z 34004KT 1 1/2SM -SN OVC007 M02/ RMK SN2SF6

CYQR;2011-03-20 19:51;CYQR 201951Z 03006KT 3/4SM R13/3500VP6000FT/D -SN VV003 M02/ RMK SN8

CYQR;2011-03-20 20:00;CYQR 202000Z 01009KT 3/4SM R13/4000FT/N -SN VV005 M02/M04 A2988 RMK SN8 SLP151

CYQR;2011-03-20 20:35;CYQR 202035Z 03009KT 1 1/2SM -SN OVC007 M02/ RMK SN2SF6

CYQR;2011-03-20 20:43;CYQR 202043Z 03009KT 3SM -SN OVC007 M02/ RMK SN1SF7

CYQR;2011-03-20 21:00;CYQR 202100Z 03008KT 3SM -SN OVC008 M02/M05 A2989 RMK SF8 SLP153

CYQR;2011-03-20 21:33;CYQR 202133Z 03006KT 1 1/2SM -SN OVC010 M02/ RMK SN1SC7

CYQR;2011-03-20 21:54;CYQR 202154Z 35006KT 1 1/2SM -SN OVC006 M02/ RMK SN2SF6

CYQR;2011-03-20 22:00;CYQR 202200Z 36006KT 1 1/2SM -SN OVC007 M02/M04 A2992 RMK SN2SF6 SLP163

CYQR;2011-03-20 23:00;CYQR 202300Z 34008KT 3SM -SN BKN007 OVC070 M02/M04 A2994 RMK SF4AC4 SLP169

CYQR;2011-03-21 00:00;CYQR 210000Z 36009KT 3SM -SHSN SCT007 BKN081 M02/M03 A2994 RMK CU4AC3 SLP171

CYQR;2011-03-21 00:39;CYQR 210039Z 01007KT 15SM FEW008 SCT025 BKN082 BKN280 M03/ RMK CF2SC1AC2CI1

CYQR;2011-03-21 01:00;CYQR 210100Z 35004KT 15SM FEW009 BKN082 BKN280 M04/M06 A2996 RMK CF2AC3CI0 SLP178

CYQR;2011-03-21 02:00;CYQR 210200Z 32005KT 15SM OVC021 M03/M05 A2999 RMK SC8 SLP186

CYQR;2011-03-21 02:17;CYQR 210217Z 31006KT 15SM BKN012 OVC020 M03/ RMK SC6SC2

CYQR;2011-03-21 02:45;CYQR 210245Z 35007KT 15SM BKN006 OVC010 M02/ RMK SF6SC2

CYQR;2011-03-21 03:00;CYQR 210300Z 35008KT 15SM BKN006 OVC010 M02/M04 A3000 RMK SF6SC2 SLP191

CYQR;2011-03-21 03:41;CYQR 210341Z 36005KT 15SM OVC010 M02/ RMK SC8

CYQR;2011-03-21 04:00;CYQR 210400Z 36006KT 15SM OVC012 M02/M03 A3001 RMK SC8 SLP196

CYQR;2011-03-21 05:00;CYQR 210500Z 04004KT 15SM OVC012 M01/M03 A3004 RMK SC8 SLP204

CYQR;2011-03-21 05:42;CYQR 210542Z 05005KT 15SM OVC009 M01/ RMK SC8

CYQR;2011-03-21 06:00;CYQR 210600Z 06006KT 15SM OVC009 M01/M03 A3005 RMK SC8 SLP209

CYQR;2011-03-21 07:00;CYQR 210700Z 09006KT 15SM OVC007 M01/M03 A3005 RMK SC8 SLP208

CYQR;2011-03-21 08:00;CYQR 210800Z 12011KT 15SM OVC007 M02/M03 A3008 RMK SC8 SLP218

CYQR;2011-03-21 09:00;CYQR 210900Z 10010KT 15SM OVC006 M02/M04 A3008 RMK SC8 SLP218

CYQR;2011-03-21 09:45;CYQR 210945Z 09012KT 15SM OVC004 M02/ RMK SF8

CYQR;2011-03-21 10:00;CYQR 211000Z 08011G16KT 15SM OVC004 M02/M04 A3006 RMK SF8 SLP212

CYQR;2011-03-21 10:25;CYQR 211025Z 09012KT 15SM OVC005 M02/ RMK SF8

CYQR;2011-03-21 11:00;CYQR 211100Z 09013KT 15SM BKN006 OVC028 M02/M04 A3005 RMK SF6SC2 SLP209

CYQR;2011-03-21 11:46;CYQR 211146Z 10012KT 15SM SCT006 OVC028 M02/ RMK SF3SC5

CYQR;2011-03-21 12:00;CYQR 211200Z 10012KT 15SM FEW006 OVC026 M02/M04 A3005 RMK SF2SC6 SLP207

CYQR;2011-03-21 12:45;CYQR 211245Z 12010KT 15SM BKN007 OVC024 M02/ RMK SF6SC2

CYQR;2011-03-21 13:00;CYQR 211300Z 11013KT 15SM BKN008 OVC024 M02/M04 A3008 RMK SF5SC3 SLP218

CYQR;2011-03-21 14:00;CYQR 211400Z 12013KT 15SM BKN006 OVC024 M02/M04 A3009 RMK SF6SC2 SLP221

CYQR;2011-03-21 15:00;CYQR 211500Z 13010KT 15SM BKN007 OVC026 M02/M04 A3009 RMK SF6SC2 SLP221

CYQR;2011-03-21 16:00;CYQR 211600Z 12014KT 15SM BKN008 OVC026 M01/M03 A3007 RMK SF6SC2 SLP216

CYQR;2011-03-21 16:56;CYQR 211656Z 12018KT 15SM SCT009 OVC027 M00/ RMK SF2SC6

CYQR;2011-03-21 17:00;CYQR 211700Z 12017KT 15SM SCT009 OVC027 M00/M02 A3005 RMK SF2SC6 SLP209

CYQR;2011-03-21 18:00;CYQR 211800Z 11017G22KT 15SM SCT012 OVC024 M00/M02 A3005 RMK SC4SC4 SLP204

CYQR;2011-03-21 19:00;CYQR 211900Z 11020KT 15SM BKN019 OVC045 00/M02 A3003 RMK SC5SC3 SLP200

CYQR;2011-03-21 19:37;CYQR 211937Z 11019G24KT 15SM BKN012 OVC050 00/ RMK SC6SC2

CYQR;2011-03-21 19:53;CYQR 211953Z 10019G27KT 15SM BKN009 OVC060 00/ RMK SC6SC2

CYQR;2011-03-21 20:00;CYQR 212000Z 10022G27KT 15SM OVC009 00/M02 A3002 RMK SF8 SLP196

CYQR;2011-03-21 21:00;CYQR 212100Z 12023KT 15SM OVC009 00/M02 A3002 RMK SF8 SLP196

CYQR;2011-03-21 21:40;CYQR 212140Z 11023KT 15SM OVC010 00/ RMK SF8

CYQR;2011-03-21 22:00;CYQR 212200Z 10023KT 15SM OVC010 00/M01 A3001 RMK SC8 SLP192

CYQR;2011-03-21 22:15;CYQR 212215Z 10022G28KT 15SM OVC009 00/ RMK SC8

CYQR;2011-03-21 22:21;CYQR 212221Z 11021G27KT 15SM -SN OVC008 00/ RMK SC8

CYQR;2011-03-21 23:00;CYQR 212300Z 11020G26KT 3SM -SN OVC007 00/M01 A2999 RMK SN1SF7 SLP187

CYQR;2011-03-22 00:00;CYQR 220000Z 10023KT 10SM -SN BKN008 OVC045 00/M01 A2998 RMK SF5SC3 SLP181

CYQR;2011-03-22 00:50;CYQR 220050Z 11021G27KT 10SM -SN FEW003 BKN010 OVC032 M00/ RMK SF1SC6SC2

CYQR;2011-03-22 01:00;CYQR 220100Z 11021G27KT 10SM -SN FEW003 BKN010 OVC032 M00/M02 A2998 RMK SF1SC6SC1 -SN INTMT SLP183

CYQR;2011-03-22 01:22;CYQR 220122Z 10023G29KT 10SM -SN FEW010 OVC027 M00/ RMK SF2SC6

CYQR;2011-03-22 02:00;CYQR 220200Z 11023G32KT 15SM -SN FEW010 OVC027 M00/M02 A2999 RMK SF2SC6 SLP185

CYQR;2011-03-22 03:00;CYQR 220300Z 11022KT 10SM -SN BKN033 OVC075 M01/M03 A2999 RMK SC6AC2 SLP186

CYQR;2011-03-22 04:00;CYQR 220400Z 10021G28KT 15SM -SN SCT035 BKN048 OVC075 M01/M03 A2999 RMK SC3SC3AC2 SLP185

CYQR;2011-03-22 05:00;CYQR 220500Z 10020G29KT 15SM -SN SCT010 BKN035 OVC075 M01/M03 A2998 RMK SC3SC3AC2 SLP184

CYQR;2011-03-22 06:00;CYQR 220600Z 11021G27KT 15SM -SN SCT013 BKN033 OVC075 M02/M04 A2997 RMK SC3SC4AC1 SLP179

CYQR;2011-03-22 06:25;CYQR 220625Z 10021KT 15SM -SN OVC011 M02/ RMK SC8

CYQR;2011-03-22 07:00;CYQR 220700Z 11023G28KT 15SM -SN OVC010 M01/M03 A2994 RMK SC8 SLP170

CYQR;2011-03-22 07:24;CYQR 220724Z 10022G27KT 15SM -SN OVC008 M01/ RMK SC8

CYQR;2011-03-22 08:00;CYQR 220800Z 11022G29KT 15SM -SN OVC008 M01/M03 A2993 RMK SC8 SLP166

CYQR;2011-03-22 09:00;CYQR 220900Z 11024G32KT 15SM -SN OVC008 M00/M02 A2991 RMK SC8 SLP156

CYQR;2011-03-22 10:00;CYQR 221000Z 11020G26KT 4SM -SN BLSN OVC007 M01/M02 A2990 RMK SC8 SLP152

CYQR;2011-03-22 10:44;CYQR 221044Z 12021G28KT 1SM R13/P6000FT/D -SN BLSN VV006 M01/ RMK SN8

CYQR;2011-03-22 11:00;CYQR 221100Z 10023G28KT 3/4SM R13/P6000FT/D -SN BLSN VV004 M01/M02 A2990 RMK SN8 SLP152

CYQR;2011-03-22 11:15;CYQR 221115Z 10022G29KT 3SM -SN BLSN OVC006 M01/ RMK SN4SC4

CYQR;2011-03-22 11:35;CYQR 221135Z 10020KT 6SM -SN BLSN SCT006 OVC045 M01/ RMK SF3SC5

CYQR;2011-03-22 12:00;CYQR 221200Z 10020G26KT 6SM -SN BLSN FEW010 BKN035 OVC075 M01/M02 A2988 RMK SF2SC5AC1 SLP147

CYQR;2011-03-22 13:00;CYQR 221300Z 10019G25KT 10SM -SN DRSN OVC013 M01/M02 A2988 RMK SC8 OCNL BLSN SLP147

CYQR;2011-03-22 13:49;CYQR 221349Z 10019G24KT 12SM DRSN OVC011 M01/ RMK SC8

CYQR;2011-03-22 14:00;CYQR 221400Z 09018G25KT 12SM DRSN OVC011 M01/M03 A2989 RMK SC8 SLP150

CYQR;2011-03-22 15:00;CYQR 221500Z 09019G26KT 15SM DRSN OVC013 M01/M03 A2988 RMK SC8 SLP148

CYQR;2011-03-22 15:30;CYQR 221530Z 09025KT 12SM DRSN OVC009 M01/ RMK SC8

CYQR;2011-03-22 16:00;CYQR 221600Z 09025G31KT 10SM DRSN OVC008 OVC021 M01/M03 A2988 RMK SC7SC1 SLP147

CYQR;2011-03-22 17:00;CYQR 221700Z 09022G29KT 10SM -SN DRSN OVC008 M01/M03 A2986 RMK SC8 OCNL BLSN SLP142

CYQR;2011-03-22 18:00;CYQR 221800Z 09023G29KT 10SM -SN DRSN OVC009 M02/M04 A2988 RMK SC8 OCNL BLSN W SLP149

CYQR;2011-03-22 19:00;CYQR 221900Z 09024G30KT 12SM -SN DRSN OVC009 M02/M04 A2988 RMK SC8 OCNL BLSN W SLP149

CYQR;2011-03-22 20:00;CYQR 222000Z 09019G24KT 10SM OVC010 M02/M04 A2989 RMK SC8 SLP152

CYQR;2011-03-22 20:17;CYQR 222017Z 10020G26KT 12SM -SHSN OVC010 M02/ RMK SC8

CYQR;2011-03-22 21:00;CYQR 222100Z 10019G25KT 12SM -SHSN OVC010 M02/M04 A2990 RMK SC8 SLP156

CYQR;2011-03-22 22:00;CYQR 222200Z 09019G26KT 12SM -SHSN DRSN OVC009 M02/M05 A2991 RMK SC8 SLP160

CYQR;2011-03-22 22:17;CYQR 222217Z 08022KT 12SM -SHSN DRSN OVC010 M03/ RMK SC8

CYQR;2011-03-22 22:32;CYQR 222232Z 09020G26KT 12SM -SHSN DRSN OVC009 M03/ RMK SC8

CYQR;2011-03-22 23:00;CYQR 222300Z 08018KT 12SM -SHSN DRSN OVC009 M03/M05 A2994 RMK SC8 SLP167

CYQR;2011-03-23 00:00;CYQR 230000Z 09018KT 15SM -SHSN DRSN OVC010 M03/M06 A2995 RMK SC8 SLP173

CYQR;2011-03-23 01:00;CYQR 230100Z 09016G22KT 15SM -SHSN DRSN OVC012 M03/M06 A2998 RMK SC8 SLP183

CYQR;2011-03-23 01:36;CYQR 230136Z 09013KT 15SM -SN DRSN OVC017 M03/ RMK SC8

CYQR;2011-03-23 02:00;CYQR 230200Z 09016KT 15SM -SN DRSN OVC017 M03/M07 A3000 RMK SC8 SLP191

CYQR;2011-03-23 03:00;CYQR 230300Z 09015KT 15SM -SN DRSN BKN019 OVC085 M03/M08 A3003 RMK SC6AC2 SLP200

CYQR;2011-03-23 03:22;CYQR 230322Z 08015G20KT 15SM DRSN FEW020 OVC085 M03/ RMK SC2AC6

CYQR;2011-03-23 04:00;CYQR 230400Z 08013KT 15SM FEW020 OVC086 M04/M08 A3005 RMK SC1AC6 SLP207

CYQR;2011-03-23 05:00;CYQR 230500Z 08016G21KT 15SM FEW020 BKN080 M04/M08 A3006 RMK SC1AC5 SLP211

CYQR;2011-03-23 06:00;CYQR 230600Z 08013G18KT 15SM BKN098 M04/M09 A3007 RMK AC5 SLP215

CYQR;2011-03-23 07:00;CYQR 230700Z 07012G17KT 15SM OVC093 M05/M09 A3007 RMK AC7 SLP217

CYQR;2011-03-23 08:00;CYQR 230800Z 07013KT 15SM BKN100 M06/M10 A3009 RMK AC4 SLP221

CYQR;2011-03-23 09:00;CYQR 230900Z 07015KT 15SM SCT100 M07/M11 A3011 RMK AC2 SLP232

CYQR;2011-03-23 10:00;CYQR 231000Z 06016KT 15SM FEW100 FEW280 M08/M13 A3012 RMK AC1CI0 SLP234

CYQR;2011-03-23 11:00;CYQR 231100Z 06011G16KT 15SM FEW280 M08/M13 A3014 RMK CI1 SLP241

CYQR;2011-03-23 12:00;CYQR 231200Z 05010KT 15SM FEW280 M09/M14 A3016 RMK CI1 SLP251

CYQR;2011-03-23 13:00;CYQR 231300Z 05012KT 15SM SCT280 M11/M15 A3017 RMK CI1 SLP256

CYQR;2011-03-23 14:00;CYQR 231400Z 07012G17KT 15SM BKN230 BKN300 M10/M16 A3019 RMK CI2CI1 SLP261

CYQR;2011-03-23 15:00;CYQR 231500Z 08009KT 15SM BKN230 BKN300 M11/M16 A3021 RMK CI2CI2 SLP269

CYQR;2011-03-23 16:00;CYQR 231600Z 10011KT 15SM OVC230 M10/M16 A3021 RMK CI4 SLP271

CYQR;2011-03-23 17:00;CYQR 231700Z 12011KT 15SM BKN230 M10/M15 A3022 RMK CI2 SLP274

CYQR;2011-03-23 18:00;CYQR 231800Z 12008KT 15SM BKN260 M09/M15 A3023 RMK CI2 SLP275

CYQR;2011-03-23 19:00;CYQR 231900Z 12006KT 15SM BKN260 M08/M15 A3024 RMK CI1 SLP278

CYQR;2011-03-23 20:00;CYQR 232000Z 14007KT 15SM BKN260 M07/M14 A3024 RMK CI1 SLP278

CYQR;2011-03-23 21:00;CYQR 232100Z 12009KT 15SM BKN260 M07/M15 A3024 RMK CI1 SLP279

CYQR;2011-03-23 22:00;CYQR 232200Z 10008KT 15SM BKN260 M08/M15 A3023 RMK CI2 SLP278

CYQR;2011-03-23 23:00;CYQR 232300Z 10008KT 15SM BKN260 M08/M15 A3024 RMK CI2 SLP279

CYQR;2011-03-24 00:00;CYQR 240000Z 13008KT 15SM BKN260 M09/M15 A3025 RMK CI2 SLP287

CYQR;2011-03-24 01:00;CYQR 240100Z 10007KT 15SM BKN240 M10/M15 A3025 RMK CI2 SLP287

CYQR;2011-03-24 02:00;CYQR 240200Z 10007KT 15SM FEW100 BKN280 M11/M16 A3024 RMK AC2CI2 SLP283

CYQR;2011-03-24 03:00;CYQR 240300Z 11009KT 15SM FEW100 BKN280 M11/M16 A3024 RMK AC1CI2 SLP285

CYQR;2011-03-24 04:00;CYQR 240400Z 12010KT 15SM OVC280 M12/M17 A3022 RMK CI4 SLP280

CYQR;2011-03-24 05:00;CYQR 240500Z 13011KT 15SM BKN280 M13/M18 A3022 RMK CI2 SLP281

CYQR;2011-03-24 06:00;CYQR 240600Z 13012KT 15SM BKN280 M14/M18 A3021 RMK CI2 SLP278

CYQR;2011-03-24 07:00;CYQR 240700Z 14010KT 15SM BKN280 M14/M18 A3021 RMK CI1 SLP276

CYQR;2011-03-24 08:00;CYQR 240800Z 13010KT 15SM BKN280 M15/M19 A3021 RMK CI1 SLP276

CYQR;2011-03-24 09:00;CYQR 240900Z 13010KT 15SM BKN280 M15/M19 A3019 RMK CI2 SLP270

CYQR;2011-03-24 10:00;CYQR 241000Z 14011KT 15SM BKN280 M16/M19 A3018 RMK CI2 SLP267

CYQR;2011-03-24 11:00;CYQR 241100Z 14009KT 15SM BKN280 M16/M19 A3018 RMK CI2 SLP267

CYQR;2011-03-24 12:00;CYQR 241200Z 14011KT 15SM BKN280 M16/M20 A3018 RMK CI2 SLP267

CYQR;2011-03-24 13:00;CYQR 241300Z 12009KT 15SM FEW010 BKN280 M18/M21 A3017 RMK SC1CI1 SLP264

CYQR;2011-03-24 14:00;CYQR 241400Z 12011KT 15SM BKN280 M16/M19 A3015 RMK CI2 SLP260

CYQR;2011-03-24 15:00;CYQR 241500Z 13015KT 15SM BKN280 M15/M17 A3014 RMK CI2 SLP256

CYQR;2011-03-24 16:00;CYQR 241600Z 14014KT 15SM FEW010 BKN280 M14/M17 A3014 RMK ST0CI2 SLP255

CYQR;2011-03-24 17:00;CYQR 241700Z 14015KT 15SM FEW010 BKN280 M13/M16 A3014 RMK SF0CI2 SLP256

CYQR;2011-03-24 17:33;CYQR 241733Z 14012KT 15SM FEW003 BKN280 M12/ RMK ST0CI2

CYQR;2011-03-24 18:00;CYQR 241800Z 13015KT 15SM FEW005 BKN280 M11/M14 A3013 RMK SF1CI3 SLP252

CYQR;2011-03-24 19:00;CYQR 241900Z 13015KT 6SM BR BKN280 M10/M13 A3012 RMK CI3 SLP247

CYQR;2011-03-24 20:00;CYQR 242000Z 12016KT 3SM BR BKN280 M09/M12 A3010 RMK CI4 SLP242

CYQR;2011-03-24 21:00;CYQR 242100Z 14015KT 6SM BR SCT006 BKN280 M09/M12 A3010 RMK SF4CI2 SLP239

CYQR;2011-03-24 22:00;CYQR 242200Z 13014KT 6SM BR SCT009 BKN280 M09/M12 A3009 RMK SF4CI2 SLP236

CYQR;2011-03-24 23:00;CYQR 242300Z 13016KT 10SM SCT010 BKN280 M09/M12 A3009 RMK SC4CI2 BR SLP236

CYQR;2011-03-25 00:00;CYQR 250000Z 12015KT 10SM FEW010 BKN240 M09/M12 A3009 RMK SC2CI4 BR SLP237

CYQR;2011-03-25 01:00;CYQR 250100Z 13012KT 15SM BKN240 BKN280 M10/M13 A3010 RMK CI3CI2 SLP239

CYQR;2011-03-25 02:00;CYQR 250200Z 13012KT 15SM FEW090 BKN240 M10/M13 A3009 RMK AC0CI2 SLP238

CYQR;2011-03-25 03:00;CYQR 250300Z 12011KT 15SM FEW240 M11/M14 A3010 RMK CI0 SLP240

CYQR;2011-03-25 04:00;CYQR 250400Z 12011KT 15SM FEW240 M11/M14 A3011 RMK CI1 SLP243

CYQR;2011-03-25 05:00;CYQR 250500Z 12013KT 15SM SKC M12/M16 A3011 RMK SLP245

CYQR;2011-03-25 06:00;CYQR 250600Z 12011G16KT 15SM SKC M12/M17 A3011 RMK SLP244

CYQR;2011-03-25 07:00;CYQR 250700Z 13015KT 15SM SKC M12/M18 A3011 RMK SLP242

CYQR;2011-03-25 08:00;CYQR 250800Z 12015KT 15SM SKC M13/M18 A3010 RMK SLP241

CYQR;2011-03-25 09:00;CYQR 250900Z 13013KT 15SM FEW240 M13/M18 A3010 RMK CI1 SLP238

CYQR;2011-03-25 10:00;CYQR 251000Z 13014KT 15SM FEW240 M13/M17 A3009 RMK CI1 SLP235

CYQR;2011-03-25 11:00;CYQR 251100Z 13013KT 15SM FEW240 M13/M17 A3009 RMK CI0 SLP235

CYQR;2011-03-25 12:00;CYQR 251200Z 11013KT 15SM FEW100 FEW240 M14/M18 A3010 RMK AC1CI1 SLP237

CYQR;2011-03-25 13:00;CYQR 251300Z 12014KT 15SM FEW100 FEW240 M13/M17 A3010 RMK AC1CI1 SLP237

CYQR;2011-03-25 14:00;CYQR 251400Z 12014KT 15SM FEW100 FEW240 M12/M16 A3010 RMK AC1CI0 SLP239

CYQR;2011-03-25 15:00;CYQR 251500Z 13015KT 15SM FEW240 M12/M16 A3010 RMK CI1 SLP239

CYQR;2011-03-25 16:00;CYQR 251600Z 13019KT 15SM FEW240 M11/M14 A3011 RMK CI1 SLP241

CYQR;2011-03-25 17:00;CYQR 251700Z 13020G25KT 15SM FEW240 M10/M14 A3010 RMK CI0 SLP240

CYQR;2011-03-25 18:00;CYQR 251800Z 13018G24KT 15SM FEW240 M09/M12 A3010 RMK CI0 SLP237

CYQR;2011-03-25 19:00;CYQR 251900Z 14020G27KT 15SM FEW240 M07/M11 A3010 RMK CI0 SLP237

CYQR;2011-03-25 20:00;CYQR 252000Z 13021KT 15SM FEW240 M07/M11 A3010 RMK CI0 SLP236

CYQR;2011-03-25 21:00;CYQR 252100Z 13019G25KT 15SM FEW240 M06/M11 A3010 RMK CI0 SLP237

CYQR;2011-03-25 22:00;CYQR 252200Z 13017KT 15SM FEW240 M06/M11 A3010 RMK CI1 SLP237

CYQR;2011-03-25 23:00;CYQR 252300Z 14017KT 15SM FEW240 M07/M13 A3010 RMK CI1 SLP238

CYQR;2011-03-26 00:00;CYQR 260000Z 13019G26KT 15SM FEW240 M07/M14 A3011 RMK CI1 SLP241

CYQR;2011-03-26 01:00;CYQR 260100Z 12017G22KT 15SM FEW240 M08/M15 A3011 RMK CI1 SLP240

CYQR;2011-03-26 02:00;CYQR 260200Z 11015KT 15SM FEW240 M09/M15 A3011 RMK CI1 SLP241

CYQR;2011-03-26 03:00;CYQR 260300Z 11014G19KT 15SM SKC M10/M16 A3012 RMK SLP244

CYQR;2011-03-26 04:00;CYQR 260400Z 12015KT 15SM SKC M10/M17 A3012 RMK SLP246

CYQR;2011-03-26 05:00;CYQR 260500Z 12017KT 15SM SKC M11/M17 A3013 RMK SLP247

CYQR;2011-03-26 06:00;CYQR 260600Z 11015G20KT 15SM SKC M11/M17 A3012 RMK SLP245

CYQR;2011-03-26 07:00;CYQR 260700Z 12018KT 15SM SKC M11/M16 A3013 RMK SLP246

CYQR;2011-03-26 08:00;CYQR 260800Z 12017KT 15SM SKC M11/M16 A3012 RMK SLP245

CYQR;2011-03-26 09:00;CYQR 260900Z 12019KT 15SM SKC M11/M16 A3012 RMK SLP241

CYQR;2011-03-26 10:00;CYQR 261000Z 12016KT 15SM SKC M12/M16 A3012 RMK SLP241

CYQR;2011-03-26 11:00;CYQR 261100Z 12015G20KT 15SM SKC M12/M16 A3011 RMK SLP240

CYQR;2011-03-26 12:00;CYQR 261200Z 12015G20KT 15SM SKC M12/M16 A3011 RMK SLP241

CYQR;2011-03-26 13:00;CYQR 261300Z 12018KT 15SM FEW080 M12/M16 A3012 RMK AC1 SLP244

CYQR;2011-03-26 14:00;CYQR 261400Z 12019KT 15SM FEW080 M11/M15 A3013 RMK AC1 SLP246

CYQR;2011-03-26 15:00;CYQR 261500Z 12019G25KT 15SM FEW080 FEW230 M11/M15 A3013 RMK AC1CI0 SLP248

CYQR;2011-03-26 16:00;CYQR 261600Z 12021G26KT 15SM FEW080 FEW230 M10/M14 A3013 RMK AC1CI1 SLP246

CYQR;2011-03-26 17:00;CYQR 261700Z 13021G26KT 15SM FEW080 FEW230 M08/M13 A3013 RMK AC1CI1 SLP246

CYQR;2011-03-26 18:00;CYQR 261800Z 13021G28KT 15SM FEW080 M07/M12 A3013 RMK AC1 SLP245

CYQR;2011-03-26 19:00;CYQR 261900Z 13025KT 15SM FEW120 M06/M11 A3012 RMK AC1 SLP243

CYQR;2011-03-26 20:00;CYQR 262000Z 13023G29KT 15SM FEW120 FEW250 M05/M11 A3012 RMK AC1CI1 TR CI SLP243

CYQR;2011-03-26 21:00;CYQR 262100Z 13021G28KT 15SM FEW120 FEW250 M05/M10 A3011 RMK AC1CI1 TR CI SLP239

CYQR;2011-03-26 22:00;CYQR 262200Z 13021G26KT 15SM SCT095 M05/M10 A3011 RMK AC3 SLP237

CYQR;2011-03-26 23:00;CYQR 262300Z 13020G25KT 15SM SCT065 M06/M10 A3010 RMK SC4 SLP234

CYQR;2011-03-27 00:00;CYQR 270000Z 12020G25KT 15SM SCT075 M06/M11 A3010 RMK AC3 SLP235

CYQR;2011-03-27 01:00;CYQR 270100Z 12019G24KT 15SM BKN065 M07/M11 A3010 RMK SC5 SLP235

CYQR;2011-03-27 02:00;CYQR 270200Z 12020G25KT 15SM BKN067 M08/M12 A3010 RMK AC4 SLP235

CYQR;2011-03-27 03:00;CYQR 270300Z 13019G25KT 15SM -SN FEW058 M08/M13 A3010 RMK SC1 SLP237

CYQR;2011-03-27 04:00;CYQR 270400Z 13021G27KT 15SM SKC M09/M14 A3010 RMK SLP237

CYQR;2011-03-27 05:00;CYQR 270500Z 13019G24KT 15SM SKC M10/M14 A3010 RMK SLP237

CYQR;2011-03-27 06:00;CYQR 270600Z 13021G29KT 15SM BKN029 M10/M14 A3010 RMK SC6 SLP234

CYQR;2011-03-27 07:00;CYQR 270700Z 13021G26KT 15SM FEW030 M11/M15 A3010 RMK SC2 SLP233

CYQR;2011-03-27 08:00;CYQR 270800Z 14018G25KT 15SM FEW029 M11/M15 A3010 RMK SC2 SLP234

CYQR;2011-03-27 09:00;CYQR 270900Z 13018KT 15SM BKN031 M11/M15 A3010 RMK SC7 SLP232

CYQR;2011-03-27 10:00;CYQR 271000Z 13017KT 15SM -SN BKN029 M12/M16 A3010 RMK SC7 SLP232

CYQR;2011-03-27 11:00;CYQR 271100Z 12018KT 15SM BKN037 M12/M16 A3009 RMK SC7 SLP230

CYQR;2011-03-27 12:00;CYQR 271200Z 12017G22KT 15SM BKN037 M12/M16 A3009 RMK SC7 SLP230

CYQR;2011-03-27 13:00;CYQR 271300Z 12020KT 15SM BKN027 BKN037 M11/M16 A3009 RMK SC6SC2 SLP230

CYQR;2011-03-27 14:00;CYQR 271400Z 13020G25KT 15SM OVC029 M10/M15 A3009 RMK SC8 SLP232

CYQR;2011-03-27 15:00;CYQR 271500Z 13020KT 15SM OVC031 M10/M14 A3009 RMK SC8 SLP231

CYQR;2011-03-27 16:00;CYQR 271600Z 13019G27KT 15SM OVC040 M09/M13 A3010 RMK SC8 SLP235

CYQR;2011-03-27 17:00;CYQR 271700Z 13022G27KT 15SM SCT022 OVC040 M08/M11 A3010 RMK SC3SC5 SLP234

CYQR;2011-03-27 17:03;CYQR 271703Z 13021G27KT 15SM -SN SCT022 OVC040 M08/ RMK SC3SC5

CYQR;2011-03-27 18:00;CYQR 271800Z 12021G28KT 5SM -SN DRSN BKN019 OVC048 M07/M10 A3009 RMK SC5SC2 SLP231

CYQR;2011-03-27 19:00;CYQR 271900Z 12019G29KT 8SM -SN DRSN FEW009 BKN023 OVC040 M07/M10 A3009 RMK SF1SC6SC2 SLP232

CYQR;2011-03-27 20:00;CYQR 272000Z 13021G26KT 8SM -SN DRSN FEW009 BKN025 OVC038 M07/M09 A3009 RMK SF1SC6SC2 SLP232

CYQR;2011-03-27 21:00;CYQR 272100Z 13024G30KT 8SM -SN DRSN FEW009 BKN035 OVC052 M05/M08 A3008 RMK SF1SC5SC2 SLP228

CYQR;2011-03-27 21:40;CYQR 272140Z 13020G26KT 15SM FEW013 SCT035 OVC050 M05/ RMK SF1SC2SC5

CYQR;2011-03-27 22:00;CYQR 272200Z 13021G27KT 15SM FEW013 SCT050 BKN240 M05/M08 A3008 RMK SF1SC2CI0 SLP226

CYQR;2011-03-27 23:00;CYQR 272300Z 12021G26KT 15SM BKN070 M05/M08 A3008 RMK AC6 SLP226

CYQR;2011-03-28 00:00;CYQR 280000Z 13019G26KT 15SM FEW010 BKN046 OVC074 M05/M09 A3009 RMK SF1SC4AC2 SLP230

CYQR;2011-03-28 01:00;CYQR 280100Z 13019G25KT 15SM DRSN BKN047 BKN080 M06/M10 A3009 RMK SC2AC2 SLP230

CYQR;2011-03-28 02:00;CYQR 280200Z 13020KT 15SM DRSN BKN018 BKN040 BKN100 M07/M11 A3009 RMK SC3SC2AC1 SLP232

CYQR;2011-03-28 03:00;CYQR 280300Z 13018KT 15SM DRSN BKN018 M07/M11 A3010 RMK SC6 SLP235

CYQR;2011-03-28 04:00;CYQR 280400Z 13015KT 15SM DRSN OVC016 M08/M11 A3011 RMK SC8 SLP237

CYQR;2011-03-28 04:07;CYQR 280407Z 14014G19KT 15SM DRSN OVC014 M08/ RMK SC8

CYQR;2011-03-28 04:42;CYQR 280442Z 14018KT 15SM DRSN OVC009 M08/ RMK SC8

CYQR;2011-03-28 04:49;CYQR 280449Z 14016G21KT 12SM -SN DRSN OVC009 M08/ RMK SC8

CYQR;2011-03-28 05:00;CYQR 280500Z 13017KT 12SM -SN DRSN OVC010 M08/M11 A3011 RMK SC8 SLP238

CYQR;2011-03-28 05:37;CYQR 280537Z 13015KT 12SM -SN DRSN OVC009 M08/ RMK SC8

CYQR;2011-03-28 06:00;CYQR 280600Z 13015KT 12SM -SN DRSN OVC009 M08/M10 A3011 RMK SC8 SLP238

CYQR;2011-03-28 07:00;CYQR 280700Z 12012KT 15SM DRSN BKN009 BKN029 M08/M10 A3011 RMK SC2SC1 SLP238

CYQR;2011-03-28 07:23;CYQR 280723Z 12012KT 15SM DRSN FEW009 SCT029 M09/ RMK SC1SC1

CYQR;2011-03-28 08:00;CYQR 280800Z 12016KT 15SM DRSN FEW009 FEW029 M10/M13 A3011 RMK SC1SC1 SLP236

CYQR;2011-03-28 09:00;CYQR 280900Z 12016G21KT 15SM SKC M10/M13 A3010 RMK SLP234

CYQR;2011-03-28 10:00;CYQR 281000Z 12016KT 15SM -SN SKC M11/M14 A3010 RMK SLP233

CYQR;2011-03-28 11:00;CYQR 281100Z 11016KT 15SM SKC M11/M15 A3011 RMK SLP236

CYQR;2011-03-28 12:00;CYQR 281200Z 12015KT 15SM FEW061 M11/M15 A3011 RMK SC2 SLP239

CYQR;2011-03-28 13:00;CYQR 281300Z 12016KT 15SM SCT060 BKN095 M11/M14 A3012 RMK SC4AC1 SLP241

CYQR;2011-03-28 14:00;CYQR 281400Z 12017KT 15SM BKN063 M11/M14 A3013 RMK SC6 SLP244

CYQR;2011-03-28 15:00;CYQR 281500Z 12018G25KT 15SM BKN069 M10/M13 A3014 RMK AC7 SLP248

CYQR;2011-03-28 16:00;CYQR 281600Z 13017G22KT 15SM SCT045 BKN067 OVC090 M09/M12 A3014 RMK SC3AC3AC1 SLP249

CYQR;2011-03-28 16:13;CYQR 281613Z 12015G22KT 12SM -SN SCT044 OVC071 M09/ RMK SC4AC3

CYQR;2011-03-28 17:00;CYQR 281700Z 13017KT 6SM -SN DRSN BKN044 OVC071 M08/M11 A3015 RMK SC6AC2 SLP253

CYQR;2011-03-28 18:00;CYQR 281800Z 13016G21KT 7SM -SN SCT012 OVC076 M06/M09 A3015 RMK SC4AC4 SLP251

CYQR;2011-03-28 19:00;CYQR 281900Z 14020KT 5SM -SN BR BKN032 OVC058 M06/M08 A3015 RMK SC7SC1 SLP251

CYQR;2011-03-28 19:32;CYQR 281932Z 14018KT 10SM FEW008 OVC016 M05/ RMK SF1SC7

CYQR;2011-03-28 20:00;CYQR 282000Z 14014G22KT 12SM FEW009 BKN034 OVC082 M05/M08 A3016 RMK SF2SC3AC2 SLP253

CYQR;2011-03-28 20:04;CYQR 282004Z 14019KT 8SM -SN FEW009 BKN034 OVC085 M05/ RMK SF2SC4AC1

CYQR;2011-03-28 21:00;CYQR 282100Z 14016KT 12SM -SN FEW012 BKN056 OVC084 M04/M07 A3015 RMK SC2SC4AC1 SLP250

CYQR;2011-03-28 22:00;CYQR 282200Z 13018KT 15SM -SN FEW012 BKN047 OVC085 M04/M06 A3015 RMK SC2SC5AC1 SLP251

CYQR;2011-03-28 22:15;CYQR 282215Z 13017G22KT 12SM -SN BKN012 OVC042 M04/ RMK SC6SC2

CYQR;2011-03-28 23:00;CYQR 282300Z 13019G25KT 8SM -SN BKN012 OVC050 M04/M06 A3016 RMK SC6SC2 SLP252

CYQR;2011-03-28 23:34;CYQR 282334Z 13018KT 4SM -SN BKN008 OVC047 M04/ RMK SC6SC2

CYQR;2011-03-29 00:00;CYQR 290000Z 13018KT 3SM -SN BKN008 OVC047 M04/M06 A3016 RMK SC5SC3 SLP255

CYQR;2011-03-29 00:07;CYQR 290007Z 13016KT 3SM -SN SCT008 OVC047 M04/ RMK SC4SC4

CYQR;2011-03-29 01:00;CYQR 290100Z 13014G20KT 4SM -SN DRSN SCT016 OVC039 M04/M06 A3016 RMK SC2SC6 SLP254

CYQR;2011-03-29 02:00;CYQR 290200Z 13014KT 5SM -SN DRSN BKN024 OVC079 M05/M06 A3017 RMK SC6AC2 SLP258

CYQR;2011-03-29 03:00;CYQR 290300Z 14011KT 4SM -SN DRSN OVC050 M05/M06 A3019 RMK SC8 SLP262

CYQR;2011-03-29 04:00;CYQR 290400Z 15012G17KT 6SM -SN DRSN FEW029 OVC050 M05/M07 A3019 RMK SC2SC6 SLP262

CYQR;2011-03-29 05:00;CYQR 290500Z 15014KT 8SM -SN DRSN OVC046 M05/M07 A3018 RMK SC8 SLP261

CYQR;2011-03-29 06:00;CYQR 290600Z CCA 15013G18KT 8SM -SN DRSN OVC042 M05/M07 A3018 RMK SC8 /S01/ SLP257

CYQR;2011-03-29 07:00;CYQR 290700Z 15015KT 10SM -SN DRSN BKN035 OVC068 M05/M08 A3017 RMK SC6AC2 SLP256

CYQR;2011-03-29 08:00;CYQR 290800Z 15014KT 12SM -SN DRSN FEW035 BKN068 OVC100 M05/M08 A3016 RMK SC2AC4AC2 SLP251

CYQR;2011-03-29 09:00;CYQR 290900Z 15013G18KT 12SM -SN DRSN SCT046 OVC068 M05/M08 A3015 RMK SC3AC5 SLP248

CYQR;2011-03-29 10:00;CYQR 291000Z 16012KT 10SM -SN DRSN OVC021 M05/M08 A3015 RMK SC8 SLP248

CYQR;2011-03-29 11:00;CYQR 291100Z CCA 15013G18KT 8SM -SN DRSN OVC024 M06/M08 A3015 RMK SC8 OBS TAKEN +20 SLP246

CYQR;2011-03-29 12:00;CYQR 291200Z 15016KT 6SM -SN DRSN OVC028 M06/M08 A3015 RMK SC8 SLP246

CYQR;2011-03-29 13:00;CYQR 291300Z 15015G20KT 4SM -SN DRSN OVC032 M06/M08 A3014 RMK SC8 SLP242

CYQR;2011-03-29 14:00;CYQR 291400Z 15014G20KT 3SM -SN DRSN FEW015 OVC028 M06/M08 A3013 RMK SC1SC8 SLP241

CYQR;2011-03-29 15:00;CYQR 291500Z 16015KT 5SM -SN DRSN OVC027 M05/M07 A3012 RMK SC8 SLP236

CYQR;2011-03-29 16:00;CYQR 291600Z 17016KT 12SM -SN DRSN BKN025 OVC078 M04/M06 A3011 RMK SC7AC1 SLP234

CYQR;2011-03-29 16:34;CYQR 291634Z 17017KT 15SM DRSN BKN028 OVC081 M03/ RMK SC6AC2

CYQR;2011-03-29 17:00;CYQR 291700Z 17017KT 3SM -SHSN DRSN BKN016 OVC045 M03/M05 A3010 RMK SC6SC2 SLP231

CYQR;2011-03-29 18:00;CYQR 291800Z 17018KT 12SM FEW010 BKN022 OVC045 M02/M04 A3009 RMK SC1SC4SC2 SLP223

CYQR;2011-03-29 19:00;CYQR 291900Z 17020KT 12SM BKN008 OVC027 M02/M04 A3007 RMK SF3SC4 SLP217

CYQR;2011-03-29 19:45;CYQR 291945Z 17018KT 12SM BKN010 OVC023 M01/ RMK SC6SC2

CYQR;2011-03-29 20:00;CYQR 292000Z 16019KT 12SM BKN010 OVC023 M01/M03 A3004 RMK SC6SC2 SLP209

CYQR;2011-03-29 21:00;CYQR 292100Z 16020G26KT 10SM BKN010 OVC023 M01/M03 A3002 RMK SC6SC2 SLP201

CYQR;2011-03-29 21:15;CYQR 292115Z 16018G26KT 10SM BKN007 OVC023 M01/ RMK SC5SC3

CYQR;2011-03-29 21:48;CYQR 292148Z 16020G25KT 12SM SCT010 BKN021 OVC070 M01/ RMK SF2SC3AC2

CYQR;2011-03-29 22:00;CYQR 292200Z 16019G24KT 12SM SCT010 BKN021 OVC070 M01/M03 A3001 RMK SF2SC3AC3 SLP197

CYQR;2011-03-29 23:00;CYQR 292300Z 16019G24KT 12SM BKN021 OVC063 M00/M03 A2999 RMK SC5SC2 SLP190

CYQR;2011-03-30 00:00;CYQR 300000Z 15016G24KT 15SM SCT022 BKN067 OVC300 M00/M02 A2997 RMK SC4AC2CI1 SLP183

CYQR;2011-03-30 01:00;CYQR 300100Z 16014G19KT 12SM BKN018 OVC075 M01/M03 A2997 RMK SC7AC1 SLP181

CYQR;2011-03-30 01:48;CYQR 300148Z 16017KT 12SM FEW010 OVC014 M01/ RMK SC2SC6

CYQR;2011-03-30 02:00;CYQR 300200Z 16015G20KT 12SM SCT010 OVC014 M01/M03 A2996 RMK SC3SC5 SLP180

CYQR;2011-03-30 03:00;CYQR 300300Z 16018KT 12SM OVC014 M01/M03 A2995 RMK SC8 SLP175

CYQR;2011-03-30 03:29;CYQR 300329Z 16017KT 12SM SCT014 M02/ RMK SC2

CYQR;2011-03-30 04:00;CYQR 300400Z 16016G21KT 12SM FEW014 M02/M04 A2994 RMK SC0 SLP171

CYQR;2011-03-30 05:00;CYQR 300500Z 15017KT 15SM SKC M03/M05 A2992 RMK SLP164

CYQR;2011-03-30 06:00;CYQR 300600Z 16015KT 12SM SKC M04/M06 A2991 RMK SLP160

CYQR;2011-03-30 07:00;CYQR 300700Z 15013KT 12SM SKC M05/M06 A2989 RMK FROIN SLP154

CYQR;2011-03-30 08:00;CYQR 300800Z 15012KT 12SM SKC M05/M07 A2988 RMK SLP151

CYQR;2011-03-30 09:00;CYQR 300900Z 15012KT 12SM SKC M06/M08 A2986 RMK SLP143

CYQR;2011-03-30 10:00;CYQR 301000Z 14013KT 12SM SKC M07/M09 A2984 RMK SLP139

CYQR;2011-03-30 11:00;CYQR 301100Z 14012KT 12SM SKC M07/M09 A2982 RMK SLP133

CYQR;2011-03-30 12:00;CYQR 301200Z 14012KT 12SM FEW100 M08/M10 A2981 RMK AC1 SLP130

CYQR;2011-03-30 13:00;CYQR 301300Z 14012KT 6SM BR FEW100 FEW280 M08/M10 A2980 RMK AC1CI0 SLP126

CYQR;2011-03-30 14:00;CYQR 301400Z 14010KT 8SM SKC M08/M10 A2980 RMK SLP124

CYQR;2011-03-30 15:00;CYQR 301500Z 14011KT 15SM SKC M07/M09 A2976 RMK SLP112

CYQR;2011-03-30 16:00;CYQR 301600Z 14011KT 15SM SKC M06/M08 A2976 RMK SLP110

CYQR;2011-03-30 17:00;CYQR 301700Z 14009KT 15SM SKC M04/M06 A2975 RMK SLP106

CYQR;2011-03-30 18:00;CYQR 301800Z 15009KT 12SM FEW350 M02/M05 A2973 RMK CI1 SLP098

CYQR;2011-03-30 19:00;CYQR 301900Z 14010KT 15SM BKN350 M01/M03 A2969 RMK CI2 SLP086

CYQR;2011-03-30 20:00;CYQR 302000Z 15009KT 15SM BKN300 00/M02 A2966 RMK CI2 SLP077

CYQR;2011-03-30 21:00;CYQR 302100Z 16009KT 15SM BKN290 01/M01 A2965 RMK CI2 SLP070

CYQR;2011-03-30 22:00;CYQR 302200Z 15008KT 15SM FEW210 BKN280 01/M01 A2963 RMK CI2CI4 SLP065

CYQR;2011-03-30 23:00;CYQR 302300Z 14009KT 15SM SCT210 BKN280 01/M00 A2961 RMK CI3CI3 SLP057

CYQR;2011-03-31 00:00;CYQR 310000Z 15011KT 15SM FEW210 BKN280 01/M00 A2960 RMK CI1CI2 SLP053

CYQR;2011-03-31 01:00;CYQR 310100Z 16008KT 15SM FEW160 FEW210 BKN380 M00/M01 A2960 RMK AC1CI1CI1 SLP054

CYQR;2011-03-31 02:00;CYQR 310200Z 15007KT 15SM FEW100 BKN280 M00/M01 A2960 RMK AC1CI1 SLP054

CYQR;2011-03-31 03:00;CYQR 310300Z 16006KT 15SM FEW100 SCT280 M01/M02 A2960 RMK AC1CI1 SLP054

CYQR;2011-03-31 04:00;CYQR 310400Z 19006KT 15SM SCT100 BKN280 M02/M04 A2960 RMK AC3CI2 SLP055

CYQR;2011-03-31 05:00;CYQR 310500Z 21006KT 15SM FEW078 SCT280 M02/M04 A2960 RMK AC2CI0 SLP055

CYQR;2011-03-31 06:00;CYQR 310600Z 23005KT 15SM OVC091 M02/M03 A2959 RMK AC8 SLP050

CYQR;2011-03-31 07:00;CYQR 310700Z 25005KT 15SM BKN091 M02/M03 A2959 RMK AC5 SLP050

CYQR;2011-03-31 08:00;CYQR 310800Z 24006KT 15SM FEW079 M03/M05 A2959 RMK AC2 SLP048

CYQR;2011-03-31 09:00;CYQR 310900Z 27008KT 15SM SKC M05/M06 A2960 RMK SLP051

CYQR;2011-03-31 10:00;CYQR 311000Z 30009KT 15SM SKC M05/M06 A2961 RMK SLP057

CYQR;2011-03-31 11:00;CYQR 311100Z 30008KT 15SM SCT250 M06/M08 A2961 RMK CI2 SLP055

CYQR;2011-03-31 12:00;CYQR 311200Z 28007KT 15SM SCT250 M07/M08 A2960 RMK CI2 OBS TAKEN +8 SLP055

CYQR;2011-03-31 13:00;CYQR 311300Z 27008KT 15SM FEW100 BKN250 M06/M07 A2962 RMK AC2CI2 SLP060

CYQR;2011-03-31 14:00;CYQR 311400Z 23005KT 15SM FEW075 BKN280 M05/M06 A2961 RMK AC2CI2 SLP057

CYQR;2011-03-31 15:00;CYQR 311500Z 26006KT 15SM FEW082 BKN280 M02/M04 A2960 RMK AC2CI2 SLP051

CYQR;2011-03-31 16:00;CYQR 311600Z 29012KT 15SM FEW080 BKN280 01/M01 A2959 RMK AC2CI1 SLP050

CYQR;2011-03-31 17:00;CYQR 311700Z 30008KT 15SM FEW080 FEW280 02/M01 A2960 RMK AC1CI0 SLP051

CYQR;2011-03-31 18:00;CYQR 311800Z 29010KT 15SM FEW093 FEW280 02/M01 A2958 RMK ACC1CI1 SLP043

CYQR;2011-03-31 19:00;CYQR 311900Z 29013KT 15SM FEW012 FEW100 02/M00 A2959 RMK CF1AC1 SLP045

CYQR;2011-03-31 20:00;CYQR 312000Z 30011KT 15SM FEW100 02/M00 A2959 RMK AC0 SLP047

CYQR;2011-03-31 21:00;CYQR 312100Z 30009KT 15SM FEW100 02/M00 A2958 RMK AC0 SLP044

CYQR;2011-03-31 22:00;CYQR 312200Z 29007KT 15SM FEW100 02/M00 A2958 RMK AC1 SLP046

CYQR;2011-03-31 23:00;CYQR 312300Z 29012KT 15SM FEW088 02/M00 A2959 RMK AC1 SLP048

CYQR;2011-04-01 01:00;CYQR 010100Z 28011KT 15SM FEW085 FEW280 01/M01 A2961 RMK AC1CI0 SLP057

CYQR;2011-04-01 02:00;CYQR 010200Z 29015KT 15SM FEW085 FEW280 00/M02 A2961 RMK AC1CI1 SLP059

CYQR;2011-04-01 03:00;CYQR 010300Z 30013KT 15SM FEW085 FEW280 M00/M03 A2963 RMK AC1CI1 SLP062

CYQR;2011-04-01 04:00;CYQR 010400Z 29012KT 15SM FEW250 M02/M04 A2965 RMK CI1 SLP067

CYQR;2011-04-01 05:00;CYQR 010500Z 28011KT 15SM FEW250 M02/M04 A2965 RMK CI1 SLP068

CYQR;2011-04-01 06:00;CYQR 010600Z 29009KT 15SM SKC M03/M05 A2965 RMK SLP069

CYQR;2011-04-01 07:00;CYQR 010700Z 29006KT 15SM SKC M06/M08 A2966 RMK SLP072

CYQR;2011-04-01 08:00;CYQR 010800Z 28008KT 15SM SKC M05/M07 A2966 RMK SLP072

CYQR;2011-04-01 09:00;CYQR 010900Z 29007KT 15SM SKC M05/M08 A2967 RMK SLP076

CYQR;2011-04-01 10:00;CYQR 011000Z 29006KT 15SM SKC M06/M08 A2967 RMK SLP076

CYQR;2011-04-01 11:00;CYQR 011100Z 28010KT 15SM FEW220 M05/M07 A2968 RMK CI1 SLP079

CYQR;2011-04-01 12:00;CYQR 011200Z 28009KT 15SM FEW080 M05/M07 A2970 RMK AC1 SLP086

CYQR;2011-04-01 13:00;CYQR 011300Z 29010KT 15SM FEW070 BKN090 M02/M04 A2970 RMK AC2AC3 SLP088

CYQR;2011-04-01 14:00;CYQR 011400Z 29010KT 15SM FEW062 BKN090 M01/M03 A2970 RMK SC2AC2 SLP087

CYQR;2011-04-01 15:00;CYQR 011500Z 31012KT 15SM FEW074 01/M01 A2971 RMK AC2 SLP089

CYQR;2011-04-01 16:00;CYQR 011600Z 31013KT 15SM FEW080 FEW280 01/M01 A2973 RMK AC1CI0 SLP093

CYQR;2011-04-01 17:00;CYQR 011700Z 30014KT 15SM FEW080 01/M00 A2974 RMK AC2 SLP096

CYQR;2011-04-01 18:00;CYQR 011800Z 29012KT 15SM FEW080 FEW280 02/M01 A2975 RMK AC1CI0 SLP101

CYQR;2011-04-01 19:00;CYQR 011900Z 30013KT 15SM FEW010 FEW280 02/M00 A2974 RMK CF1CI1 SLP100

CYQR;2011-04-01 20:00;CYQR 012000Z 28015G20KT 15SM FEW010 02/M00 A2975 RMK CF1 SLP101

CYQR;2011-04-01 21:00;CYQR 012100Z 29017KT 15SM FEW010 02/M00 A2975 RMK CF1 SLP105

CYQR;2011-04-01 22:00;CYQR 012200Z 30016KT 15SM FEW010 02/M00 A2976 RMK CF1 SLP108

CYQR;2011-04-01 23:00;CYQR 012300Z 31013KT 15SM FEW010 FEW260 02/M00 A2977 RMK CF1CI0 SLP110

CYQR;2011-04-02 00:00;CYQR 020000Z 28012KT 15SM FEW010 FEW094 SCT260 02/M01 A2978 RMK CF1AC1CI1 SLP114

CYQR;2011-04-02 01:00;CYQR 020100Z 29016KT 15SM FEW088 SCT260 01/M01 A2979 RMK AC1CI0 SLP117

CYQR;2011-04-02 02:00;CYQR 020200Z 29015KT 15SM FEW090 SCT250 00/M02 A2978 RMK AC1CI0 SLP116

CYQR;2011-04-02 03:00;CYQR 020300Z 33005KT 15SM SCT250 M01/M03 A2980 RMK CI2 SLP118

CYQR;2011-04-02 04:00;CYQR 020400Z 30009KT 15SM SCT230 M02/M04 A2980 RMK CI2 SLP118

CYQR;2011-04-02 05:00;CYQR 020500Z 28010KT 15SM SCT230 M03/M05 A2979 RMK CI2 SLP116

CYQR;2011-04-02 06:00;CYQR 020600Z 27007KT 15SM SCT230 M03/M05 A2979 RMK CI2 SLP116

CYQR;2011-04-02 07:00;CYQR 020700Z 30007KT 15SM SCT220 M04/M06 A2979 RMK CI2 SLP115

CYQR;2011-04-02 08:00;CYQR 020800Z 31004KT 15SM SCT220 M03/M05 A2978 RMK CI2 SLP112

CYQR;2011-04-02 09:00;CYQR 020900Z 27004KT 15SM SCT220 M05/M07 A2978 RMK CI2 SLP113

CYQR;2011-04-02 10:00;CYQR 021000Z 21002KT 15SM SCT220 M05/M07 A2976 RMK CI2 SLP107

CYQR;2011-04-02 11:00;CYQR 021100Z 22003KT 15SM SCT220 M06/M07 A2975 RMK CI2 SLP104

CYQR;2011-04-02 12:00;CYQR 021200Z 20005KT 15SM SCT220 M07/M09 A2975 RMK CI2 SLP106

CYQR;2011-04-02 13:00;CYQR 021300Z 19004KT 15SM BKN220 M05/M06 A2974 RMK CI2 SLP101

CYQR;2011-04-02 14:00;CYQR 021400Z 11003KT 15SM SCT095 OVC210 M03/M05 A2973 RMK AC3CI2 VIRGA SLP100

CYQR;2011-04-02 15:00;CYQR 021500Z 12004KT 15SM SCT090 OVC210 M02/M04 A2972 RMK AC3CI3 SLP094

CYQR;2011-04-02 16:00;CYQR 021600Z 13005KT 15SM SCT098 OVC210 M01/M04 A2971 RMK AC4CI2 VIRGA SLP089

CYQR;2011-04-02 17:00;CYQR 021700Z 13005KT 15SM SCT068 OVC094 M00/M03 A2970 RMK AC3AS4 VIRGA SLP088

CYQR;2011-04-02 18:00;CYQR 021800Z 11008KT 15SM SCT070 BKN085 OVC210 00/M03 A2968 RMK AC3AC3CI2 SLP079

CYQR;2011-04-02 19:00;CYQR 021900Z 13007KT 15SM SCT067 BKN086 OVC210 01/M02 A2967 RMK AC3AC3CI2 SLP077

CYQR;2011-04-02 20:00;CYQR 022000Z 12007KT 15SM FEW042 OVC056 01/M02 A2966 RMK SC2SC6 SLP072

CYQR;2011-04-02 21:00;CYQR 022100Z 14009KT 15SM FEW034 OVC052 01/M02 A2964 RMK SC2SC6 SLP067

CYQR;2011-04-02 22:00;CYQR 022200Z 14014KT 15SM SCT008 BKN030 OVC050 01/M01 A2964 RMK SF3SC3SC2 SLP065

CYQR;2011-04-02 22:15;CYQR 022215Z 14012KT 15SM BKN007 OVC034 01/ RMK SF6SC2

CYQR;2011-04-02 22:43;CYQR 022243Z 14010G15KT 3SM -SN OVC005 01/ RMK SC8

CYQR;2011-04-02 23:00;CYQR 022300Z 14013G18KT 4SM -SN BKN005 OVC035 01/M00 A2963 RMK SF7SC1 SLP064

CYQR;2011-04-02 23:43;CYQR 022343Z 12008KT 2 1/2SM -SN OVC004 00/ RMK SN2SC6

CYQR;2011-04-03 00:00;CYQR 030000Z 12008KT 2SM -SN OVC004 00/M00 A2965 RMK SN3SC5 SLP071

CYQR;2011-04-03 00:20;CYQR 030020Z 11009KT 1SM R13/P6000FT/D -SN OVC004 00/ RMK SN4SC4

CYQR;2011-04-03 00:35;CYQR 030035Z 11008KT 3/4SM R13/P6000FT/D -SN OVC004 00/ RMK SN5SC3

CYQR;2011-04-03 01:00;CYQR 030100Z 10009KT 3/4SM R13/P6000FT/N -SN VV003 00/M00 A2966 RMK SN8 SLP073

CYQR;2011-04-03 01:23;CYQR 030123Z 09010KT 1SM R13/P6000FT/U -SN OVC003 00/ RMK SN5SF3

CYQR;2011-04-03 02:00;CYQR 030200Z 08010KT 1 1/2SM -SN OVC004 00/M00 A2963 RMK SF8 SLP066

CYQR;2011-04-03 02:30;CYQR 030230Z 08010KT 2SM -SN BKN005 OVC016 00/ RMK SF6SC2

CYQR;2011-04-03 02:42;CYQR 030242Z 08011KT 3SM -SN BKN006 OVC015 00/ RMK SF6SC2

CYQR;2011-04-03 03:00;CYQR 030300Z 08011G16KT 5SM -SN BKN008 OVC015 00/M00 A2965 RMK SF4SC4 SLP067

CYQR;2011-04-03 03:27;CYQR 030327Z 07011KT 2SM -SHSN BKN007 OVC012 01/ RMK SF3SC5 CVCTV CLD EMBD

CYQR;2011-04-03 04:00;CYQR 030400Z 07010KT 1 1/2SM -SHSN OVC008 00/M00 A2966 RMK SF8 CVCTV CLD EMBD OBS TAKEN -08 SLP073

CYQR;2011-04-03 04:08;CYQR 030408Z 07012KT 1 1/2SM -RASN OVC007 00/ RMK SF8

CYQR;2011-04-03 04:42;CYQR 030442Z 06012KT 1 1/2SM -SN OVC005 00/ RMK SF8

CYQR;2011-04-03 05:00;CYQR 030500Z 06013KT 1SM R13/P6000FT/N -RASN OVC005 00/M01 A2967 RMK SF8 SLP076

CYQR;2011-04-03 06:00;CYQR 030600Z 05011KT 2SM -SN OVC006 00/M01 A2968 RMK SC8 CIG RAG SLP076

CYQR;2011-04-03 06:31;CYQR 030631Z 05011KT 2SM -SN OVC004 00/ RMK SC8

CYQR;2011-04-03 07:00;CYQR 030700Z 03011KT 1 1/2SM -SN OVC006 M00/M01 A2967 RMK SC8 SLP075

CYQR;2011-04-03 07:33;CYQR 030733Z 04013KT 1 1/2SM -SN OVC004 M00/ RMK SC8

CYQR;2011-04-03 08:00;CYQR 030800Z 03013KT 1 1/2SM -SN OVC005 M00/M01 A2967 RMK SC8 SLP073

CYQR;2011-04-03 09:00;CYQR 030900Z 01012KT 1 1/2SM -SN OVC005 M00/M01 A2970 RMK SC8 SLP082

CYQR;2011-04-03 10:00;CYQR 031000Z 02013KT 1SM R13/P6000FT/N -SN OVC004 M00/M00 A2970 RMK SC8 SLP083

CYQR;2011-04-03 11:00;CYQR 031100Z 02015KT 1 1/2SM -SN OVC005 M00/M01 A2971 RMK SC8 SLP087

CYQR;2011-04-03 12:00;CYQR 031200Z 04011KT 5SM -SN BKN006 OVC060 M00/M01 A2974 RMK SF3SC5 SLP097

CYQR;2011-04-03 12:21;CYQR 031221Z 05011KT 15SM SCT009 BKN018 OVC060 M00/ RMK SF2SC5SC2

CYQR;2011-04-03 13:00;CYQR 031300Z 03011KT 15SM FEW009 BKN048 OVC075 M00/M01 A2976 RMK SF1SC6AC2 SLP106

CYQR;2011-04-03 14:00;CYQR 031400Z 01014KT 15SM FEW009 SCT048 OVC086 M01/M02 A2979 RMK SF1SC3AC4 SLP114

CYQR;2011-04-03 15:00;CYQR 031500Z 01013KT 15SM FEW050 SCT099 OVC220 M01/M02 A2981 RMK SC2AC2CI4 SLP124

CYQR;2011-04-03 16:00;CYQR 031600Z 35012KT 15SM BKN040 OVC090 M00/M02 A2984 RMK SC5AC3 SLP133

CYQR;2011-04-03 17:00;CYQR 031700Z 36013KT 15SM BKN040 OVC090 00/M01 A2986 RMK SC5AC2 SLP140

CYQR;2011-04-03 18:00;CYQR 031800Z 33013KT 15SM FEW040 SCT100 BKN280 00/M00 A2989 RMK SC2AC2CI1 SLP148

CYQR;2011-04-03 19:00;CYQR 031900Z 35014KT 15SM FEW050 BKN280 01/M01 A2990 RMK SC1CI1 SLP152

CYQR;2011-04-03 20:00;CYQR 032000Z 36015KT 15SM FEW050 BKN280 02/M02 A2991 RMK SC1CI2 SLP157

CYQR;2011-04-03 21:00;CYQR 032100Z 34017KT 15SM FEW018 BKN058 BKN150 01/M02 A2993 RMK SC1SC5AC1 SLP162

CYQR;2011-04-03 22:00;CYQR 032200Z 36014G19KT 15SM FEW020 FEW050 SCT160 01/M03 A2994 RMK SC1SC1AC1 SLP165

CYQR;2011-04-03 23:00;CYQR 032300Z 34020KT 15SM FEW030 FEW220 00/M05 A2996 RMK SC2CI0 SLP174

CYQR;2011-04-04 00:00;CYQR 040000Z 34015KT 15SM FEW031 M00/M05 A2998 RMK SC2 SLP182

CYQR;2011-04-04 01:00;CYQR 040100Z 34016KT 15SM FEW029 M01/M05 A2999 RMK SC1 SLP184

CYQR;2011-04-04 02:00;CYQR 040200Z 33013KT 15SM FEW030 M02/M05 A3000 RMK SC0 SLP187

CYQR;2011-04-04 03:00;CYQR 040300Z 31008KT 15SM SKC M03/M06 A3001 RMK SLP194

CYQR;2011-04-04 04:00;CYQR 040400Z 31009KT 15SM SKC M04/M06 A3002 RMK SLP196

CYQR;2011-04-04 05:00;CYQR 040500Z 28009KT 15SM SKC M06/M08 A3001 RMK SLP194

CYQR;2011-04-04 06:00;CYQR 040600Z 28008KT 15SM SKC M07/M09 A3000 RMK SLP194

CYQR;2011-04-04 07:00;CYQR 040700Z 28008KT 15SM SKC M07/M09 A2999 RMK SLP188

CYQR;2011-04-04 08:00;CYQR 040800Z 27007KT 15SM SKC M08/M10 A2998 RMK SLP185

CYQR;2011-04-04 09:00;CYQR 040900Z 27009KT 15SM BKN037 M06/M09 A2996 RMK SC2 SLP178

CYQR;2011-04-04 10:00;CYQR 041000Z 26009KT 15SM BKN035 M06/M08 A2996 RMK SC5 SLP176

CYQR;2011-04-04 11:00;CYQR 041100Z 26007KT 15SM BKN022 M06/M08 A2993 RMK SC3 SLP169

CYQR;2011-04-04 12:00;CYQR 041200Z 25010KT 12SM FEW210 M07/M09 A2992 RMK CI0 SLP166

CYQR;2011-04-04 13:00;CYQR 041300Z 24010KT 12SM FEW005 SCT090 BKN250 M08/M10 A2990 RMK ST2AC2CI1 SLP159

CYQR;2011-04-04 14:00;CYQR 041400Z 25009KT 15SM SCT250 M06/M09 A2989 RMK CI2 SLP156

CYQR;2011-04-04 15:00;CYQR 041500Z 23006KT 15SM FEW250 M05/M08 A2987 RMK CI0 SLP148

CYQR;2011-04-04 16:00;CYQR 041600Z 19006KT 15SM FEW250 M04/M07 A2985 RMK CI0 SLP141

CYQR;2011-04-04 17:00;CYQR 041700Z 17008KT 15SM BKN250 M03/M06 A2982 RMK CI2 SLP133

CYQR;2011-04-04 18:00;CYQR 041800Z 16008KT 15SM BKN250 M02/M05 A2979 RMK CI3 SLP121

CYQR;2011-04-04 19:00;CYQR 041900Z 17008KT 15SM OVC250 M00/M03 A2976 RMK CI6 SLP112

CYQR;2011-04-04 20:00;CYQR 042000Z 19009KT 15SM FEW100 BKN250 01/M02 A2972 RMK AC1CI6 SLP101

CYQR;2011-04-04 21:00;CYQR 042100Z 19011KT 15SM FEW100 BKN250 01/M02 A2970 RMK AC1CI6 SLP088

CYQR;2011-04-04 22:00;CYQR 042200Z 22009KT 15SM FEW100 OVC250 02/M01 A2968 RMK AC2CI6 SLP081

CYQR;2011-04-04 23:00;CYQR 042300Z 23006KT 15SM FEW100 BKN270 02/M01 A2965 RMK AC1CI5 SLP071

CYQR;2011-04-05 00:00;CYQR 050000Z 24004KT 15SM FEW100 BKN270 02/M01 A2963 RMK AC2CI4 SLP064

CYQR;2011-04-05 01:00;CYQR 050100Z 21006KT 15SM FEW100 BKN270 00/M01 A2960 RMK AC2CI4 SLP055

CYQR;2011-04-05 02:00;CYQR 050200Z 24006KT 15SM FEW100 BKN280 M01/M02 A2958 RMK AC2CI2 SLP050

CYQR;2011-04-05 03:00;CYQR 050300Z 26005KT 15SM FEW100 BKN280 M01/M03 A2958 RMK AC2CI1 SLP047

CYQR;2011-04-05 04:00;CYQR 050400Z 27006KT 15SM FEW280 M03/M04 A2957 RMK CI1 SLP045

CYQR;2011-04-05 05:00;CYQR 050500Z 27009KT 15SM FEW280 M03/M05 A2956 RMK CI1 SLP043

CYQR;2011-04-05 06:00;CYQR 050600Z 30012KT 15SM FEW280 M02/M04 A2957 RMK CI0 SLP044

CYQR;2011-04-05 07:00;CYQR 050700Z 30008KT 15SM FEW280 M04/M06 A2957 RMK CI0 SLP043

CYQR;2011-04-05 08:00;CYQR 050800Z 31007KT 15SM FEW280 M05/M07 A2956 RMK CI0 SLP039

CYQR;2011-04-05 09:00;CYQR 050900Z 26008KT 15SM FEW280 M07/M08 A2956 RMK CI0 SLP040

CYQR;2011-04-05 10:00;CYQR 051000Z 27005KT 15SM FEW280 M06/M08 A2954 RMK CI0 SLP035

CYQR;2011-04-05 11:00;CYQR 051100Z 27007KT 15SM FEW280 M07/M08 A2954 RMK CI0 SLP035

CYQR;2011-04-05 12:00;CYQR 051200Z 29005KT 15SM FEW280 M08/M09 A2953 RMK CI0 SLP031

CYQR;2011-04-05 13:00;CYQR 051300Z 00000KT 10SM FEW100 BKN280 M07/M10 A2954 RMK AC1CI2 HZ SLP034

CYQR;2011-04-05 14:00;CYQR 051400Z 25002KT 10SM SCT084 BKN280 M06/M08 A2954 RMK AC1CI2 SLP034

CYQR;2011-04-05 15:00;CYQR 051500Z 22002KT 12SM SCT280 M03/M06 A2954 RMK CI2 SLP033

CYQR;2011-04-05 16:00;CYQR 051600Z 20005KT 15SM SCT280 M02/M05 A2954 RMK CI1 SLP032

CYQR;2011-04-05 17:00;CYQR 051700Z 21003KT 15SM FEW280 00/M03 A2954 RMK CI1 SLP034

CYQR;2011-04-05 18:00;CYQR 051800Z 18005KT 15SM FEW280 01/M01 A2955 RMK CI1 SLP033

CYQR;2011-04-05 19:00;CYQR 051900Z 19006KT 15SM FEW280 01/M01 A2954 RMK CI1 SLP031

CYQR;2011-04-05 20:00;CYQR 052000Z 17004KT 15SM FEW280 03/M00 A2953 RMK CI1 SLP028

CYQR;2011-04-05 21:00;CYQR 052100Z CCA 17007KT 15SM FEW280 02/M00 A2954 RMK CI1 SLP032

CYQR;2011-04-05 22:00;CYQR 052200Z 18005KT 15SM FEW280 03/M00 A2953 RMK CI1 SLP031

CYQR;2011-04-05 23:00;CYQR 052300Z 17005KT 15SM FEW280 03/M00 A2954 RMK CI1 SLP034

CYQR;2011-04-06 00:00;CYQR 060000Z 18007KT 15SM BKN280 01/M01 A2955 RMK CI2 SLP038

CYQR;2011-04-06 01:00;CYQR 060100Z 16006KT 15SM FEW240 BKN280 01/M01 A2956 RMK CI1CI2 CC ASOCTD SLP040

CYQR;2011-04-06 02:00;CYQR 060200Z 21004KT 15SM FEW120 BKN270 M01/M03 A2957 RMK AC1CI1 SLP044

CYQR;2011-04-06 03:00;CYQR 060300Z 22003KT 15SM FEW120 BKN280 M01/M03 A2958 RMK AC2CI0 SLP046

CYQR;2011-04-06 04:00;CYQR 060400Z 25002KT 15SM FEW100 BKN280 M01/M03 A2959 RMK AC2CI0 SLP049

CYQR;2011-04-06 05:00;CYQR 060500Z 00000KT 15SM FEW100 SCT280 M03/M04 A2960 RMK AC1CI0 SLP051

CYQR;2011-04-06 06:00;CYQR 060600Z 22005KT 15SM FEW100 BKN280 M03/M04 A2960 RMK AC2CI0 SLP051

CYQR;2011-04-06 07:00;CYQR 060700Z 22007KT 15SM BKN087 BKN280 M03/M04 A2961 RMK AC5CI0 SLP055

CYQR;2011-04-06 08:00;CYQR 060800Z 13003KT 15SM BKN080 OVC280 M02/M03 A2961 RMK AC6CI1 SLP053

CYQR;2011-04-06 09:00;CYQR 060900Z 12006KT 15SM BKN077 BKN280 M03/M05 A2960 RMK AC6CI1 SLP050

CYQR;2011-04-06 10:00;CYQR 061000Z 17006KT 15SM BKN073 BKN280 M04/M06 A2961 RMK AC5CI0 SLP053

CYQR;2011-04-06 10:08;CYQR 061008Z 16005KT 10SM BKN002 OVC073 M05/ RMK SF6AC2

CYQR;2011-04-06 10:38;CYQR 061038Z 17005KT 10SM FEW002 SCT070 BKN280 M04/ RMK SF2AC2CI0

CYQR;2011-04-06 11:00;CYQR 061100Z 18002KT 10SM FEW002 SCT070 BKN280 M04/M06 A2961 RMK SF2AC2CI0 SLP054

CYQR;2011-04-06 12:00;CYQR 061200Z 19002KT 15SM BKN073 BKN280 M03/M04 A2962 RMK AC6CI1 SLP057

CYQR;2011-04-06 13:00;CYQR 061300Z 16003KT 15SM BKN064 OVC280 M02/M03 A2962 RMK SC6CI1 SLP059

CYQR;2011-04-06 14:00;CYQR 061400Z 20004KT 15SM BKN056 BKN280 M02/M04 A2964 RMK SC5CI1 SLP065

CYQR;2011-04-06 15:00;CYQR 061500Z 21005KT 15SM SCT050 M00/M02 A2964 RMK SC2 SLP066

CYQR;2011-04-06 16:00;CYQR 061600Z 22007KT 15SM FEW050 01/M01 A2965 RMK SC1 SLP067

CYQR;2011-04-06 17:00;CYQR 061700Z 25010KT 15SM FEW060 02/00 A2965 RMK SC1 SLP067

CYQR;2011-04-06 18:00;CYQR 061800Z 23006KT 15SM FEW020 02/00 A2965 RMK CF1 SLP066

CYQR;2011-04-06 19:00;CYQR 061900Z 24010KT 15SM FEW020 02/00 A2966 RMK CF1 SLP071

CYQR;2011-04-06 20:00;CYQR 062000Z 24009KT 15SM SKC 03/00 A2966 RMK SLP069

CYQR;2011-04-06 21:00;CYQR 062100Z 24007KT 15SM FEW250 03/00 A2965 RMK CI1 SLP067

CYQR;2011-04-06 22:00;CYQR 062200Z 24007KT 15SM FEW020 FEW250 03/01 A2965 RMK CU1CI1 SLP066

CYQR;2011-04-06 23:00;CYQR 062300Z 23009KT 15SM FEW020 SCT280 03/01 A2965 RMK CU1CI0 SLP068

CYQR;2011-04-07 00:00;CYQR 070000Z 23008KT 15SM FEW020 BKN280 02/00 A2966 RMK SC1CI0 SLP073

CYQR;2011-04-07 01:00;CYQR 070100Z 25006KT 15SM FEW160 SCT280 02/M00 A2967 RMK AC1CI0 SLP074

CYQR;2011-04-07 02:00;CYQR 070200Z 25004KT 15SM FEW160 SCT280 00/M01 A2967 RMK AC1CI0 SLP076

CYQR;2011-04-07 03:00;CYQR 070300Z 00000KT 15SM FEW280 M01/M02 A2968 RMK CI0 SLP077

CYQR;2011-04-07 04:00;CYQR 070400Z 00000KT 15SM FEW280 M01/M03 A2969 RMK CI0 SLP080

CYQR;2011-04-07 05:00;CYQR 070500Z 18005KT 15SM FEW280 M02/M03 A2969 RMK CI0 SLP082

CYQR;2011-04-07 06:00;CYQR 070600Z 18005KT 15SM FEW280 M02/M04 A2971 RMK CI0 SLP088

CYQR;2011-04-07 07:00;CYQR 070700Z 13006KT 15SM FEW280 M03/M04 A2971 RMK CI0 SLP089

CYQR;2011-04-07 08:00;CYQR 070800Z 12005KT 15SM FEW280 M04/M06 A2971 RMK CI0 SLP090

CYQR;2011-04-07 09:00;CYQR 070900Z 13005KT 15SM FEW280 M04/M06 A2972 RMK CI0 SLP091

CYQR;2011-04-07 10:00;CYQR 071000Z 12004KT 15SM FEW080 BKN280 M04/M06 A2973 RMK AC2CI0 SLP096

CYQR;2011-04-07 11:00;CYQR 071100Z 10005KT 15SM FEW100 BKN280 M05/M07 A2973 RMK AC1CI1 SLP095

CYQR;2011-04-07 12:00;CYQR 071200Z 10006KT 15SM FEW100 SCT280 M05/M07 A2973 RMK AC1CI1 SLP097

CYQR;2011-04-07 13:00;CYQR 071300Z 12004KT 15SM FEW080 BKN280 M05/M07 A2974 RMK AC2CI2 SLP099

CYQR;2011-04-07 14:00;CYQR 071400Z 13006KT 15SM BKN280 M03/M04 A2974 RMK CI4 SLP100

CYQR;2011-04-07 15:00;CYQR 071500Z 15009KT 15SM FEW093 BKN280 M02/M04 A2975 RMK AC2CI2 SLP103

CYQR;2011-04-07 16:00;CYQR 071600Z 17007KT 15SM FEW090 BKN280 M02/M04 A2977 RMK AC1CI2 SLP109

CYQR;2011-04-07 17:00;CYQR 071700Z 18006KT 15SM BKN280 M00/M03 A2979 RMK CI3 SLP115

CYQR;2011-04-07 18:00;CYQR 071800Z 17003KT 15SM FEW040 FEW280 02/M01 A2979 RMK SC1CI0 SLP115

CYQR;2011-04-07 19:00;CYQR 071900Z 17008KT 15SM FEW280 02/M01 A2980 RMK CI1 SLP120

CYQR;2011-04-07 20:00;CYQR 072000Z 19005KT 15SM SCT280 03/00 A2980 RMK CI1 SLP119

CYQR;2011-04-07 21:00;CYQR 072100Z 16009KT 15SM SCT280 03/00 A2980 RMK CI0 SLP119

CYQR;2011-04-07 22:00;CYQR 072200Z 16006KT 15SM SCT280 04/M00 A2981 RMK CI1 SLP124

CYQR;2011-04-07 23:00;CYQR 072300Z 16003KT 15SM SCT280 04/M01 A2982 RMK CI2 SLP127

CYQR;2011-04-08 00:00;CYQR 080000Z 13004KT 15SM BKN280 05/M01 A2985 RMK CI5 SLP134

CYQR;2011-04-08 01:00;CYQR 080100Z 18004KT 15SM FEW066 BKN280 02/M02 A2986 RMK AC2CI2 SLP140

CYQR;2011-04-08 02:00;CYQR 080200Z 13004KT 15SM BKN280 02/M02 A2988 RMK CI3 SLP145

CYQR;2011-04-08 03:00;CYQR 080300Z 00000KT 15SM BKN280 01/M03 A2990 RMK CI2 SLP153

CYQR;2011-04-08 04:00;CYQR 080400Z 08002KT 15SM BKN280 00/M03 A2990 RMK CI1 SLP154

CYQR;2011-04-08 05:00;CYQR 080500Z 07003KT 15SM SCT280 01/M03 A2992 RMK CI0 SLP160

CYQR;2011-04-08 06:00;CYQR 080600Z 04005KT 15SM SCT280 M00/M03 A2992 RMK CI0 SLP159

CYQR;2011-04-08 07:00;CYQR 080700Z 04006KT 15SM FEW280 M00/M03 A2991 RMK CI0 SLP156

CYQR;2011-04-08 08:00;CYQR 080800Z 04004KT 15SM BKN280 M01/M03 A2993 RMK CI0 SLP161

CYQR;2011-04-08 09:00;CYQR 080900Z 03003KT 15SM BKN280 M01/M04 A2993 RMK CI0 SLP161

CYQR;2011-04-08 10:00;CYQR 081000Z 03002KT 15SM SCT280 M01/M03 A2994 RMK CI0 SLP166

CYQR;2011-04-08 11:00;CYQR 081100Z 01006KT 15SM SCT280 M02/M04 A2993 RMK CI0 SLP163

CYQR;2011-04-08 12:00;CYQR 081200Z 05003KT 15SM FEW160 BKN280 M02/M04 A2993 RMK AC2CI0 SLP161

CYQR;2011-04-08 13:00;CYQR 081300Z 02006KT 15SM FEW160 BKN280 M01/M04 A2993 RMK AC2CI1 SLP162

CYQR;2011-04-08 14:00;CYQR 081400Z 05008KT 15SM BKN280 01/M02 A2992 RMK CI1 SLP157

CYQR;2011-04-08 15:00;CYQR 081500Z 07009KT 15SM BKN280 03/M02 A2992 RMK CI3 SLP157

CYQR;2011-04-08 16:00;CYQR 081600Z 06013KT 15SM FEW089 SCT160 BKN280 04/M03 A2992 RMK AC1AC2CI1 SLP156

CYQR;2011-04-08 17:00;CYQR 081700Z 09011KT 15SM BKN160 BKN280 04/M03 A2993 RMK AC5CI2 SLP159

CYQR;2011-04-08 18:00;CYQR 081800Z 10007KT 15SM SCT160 BKN280 05/M03 A2993 RMK AC3CI3 SLP161

CYQR;2011-04-08 19:00;CYQR 081900Z 08012KT 15SM BKN160 BKN280 05/M04 A2989 RMK AC5CI2 SLP148

CYQR;2011-04-08 20:00;CYQR 082000Z 07012KT 15SM FEW068 BKN160 05/M03 A2987 RMK AC2AC6 SLP141

CYQR;2011-04-08 21:00;CYQR 082100Z 06012KT 15SM FEW072 SCT160 BKN280 06/M03 A2986 RMK AC2AC2CI2 SLP137

CYQR;2011-04-08 22:00;CYQR 082200Z 06010G15KT 15SM FEW093 BKN160 BKN280 06/M02 A2986 RMK AC2AC3CI2 SLP138

CYQR;2011-04-08 23:00;CYQR 082300Z 06009KT 15SM FEW160 BKN280 06/M02 A2986 RMK AC2CI2 SLP137

CYQR;2011-04-09 00:00;CYQR 090000Z 08007KT 15SM SCT280 05/M01 A2985 RMK CI1 SLP134

CYQR;2011-04-09 01:00;CYQR 090100Z 11008KT 15SM FEW120 FEW280 04/M02 A2983 RMK AC1CI0 SLP129

CYQR;2011-04-09 02:00;CYQR 090200Z 12005KT 15SM FEW120 FEW280 02/M01 A2983 RMK AC1CI1 SLP129

CYQR;2011-04-09 03:00;CYQR 090300Z 17005KT 15SM FEW120 FEW280 M00/M02 A2984 RMK AC1CI0 SLP131

CYQR;2011-04-09 04:00;CYQR 090400Z 00000KT 15SM FEW120 FEW280 M01/M02 A2984 RMK AC1CI0 SLP129

CYQR;2011-04-09 05:00;CYQR 090500Z 00000KT 15SM FEW120 FEW280 M01/M03 A2985 RMK AC1CI0 SLP132

CYQR;2011-04-09 06:00;CYQR 090600Z 24002KT 15SM SKC M02/M03 A2985 RMK SLP132

CYQR;2011-04-09 07:00;CYQR 090700Z 00000KT 15SM SKC M02/M03 A2983 RMK SLP128

CYQR;2011-04-09 08:00;CYQR 090800Z 00000KT 15SM SKC M03/M04 A2981 RMK SLP120

CYQR;2011-04-09 09:00;CYQR 090900Z 00000KT 10SM SKC M03/M05 A2980 RMK SLP118

CYQR;2011-04-09 10:00;CYQR 091000Z 18006KT 3SM R13/4000VP6000FT/D BR SKC M06/M08 A2980 RMK FG2 SLP118

CYQR;2011-04-09 10:04;CYQR 091004Z 17005KT 3/4SM R13/3000V5000FT/D BR BKN006 M06/ RMK FG2SF2

CYQR;2011-04-09 10:21;CYQR 091021Z 17006KT 1/2SM R13/2400FT/N FZFG BKN006 M06/ RMK FG4SF2

CYQR;2011-04-09 11:00;CYQR 091100Z 14003KT 1/4SM R13/1400V2200FT/U FZFG SKC M05/M07 A2980 RMK FG6 SLP118

CYQR;2011-04-09 11:35;CYQR 091135Z 13003KT 1/2SM R13/2200FT/N FZFG SKC M05/ RMK FG4

CYQR;2011-04-09 12:00;CYQR 091200Z 12003KT 1/4SM R13/2200FT/N FZFG SKC M05/M07 A2979 RMK FG5 SLP117

CYQR;2011-04-09 12:52;CYQR 091252Z 12003KT 1/2SM R13/2800VP6000FT/D FZFG BKN004 M05/ RMK FG3SF2

CYQR;2011-04-09 13:00;CYQR 091300Z 12003KT 1/2SM R13/2800VP6000FT/U FZFG BKN004 M05/M06 A2979 RMK FG3SF2 SLP116

CYQR;2011-04-09 13:08;CYQR 091308Z 12003KT 1 1/2SM R13/3500VP6000FT/D BR BKN004 M05/ RMK FG1SF3

CYQR;2011-04-09 13:17;CYQR 091317Z 14005KT 3SM BR FEW004 FEW280 M05/ RMK SF1CI0

CYQR;2011-04-09 14:00;CYQR 091400Z 17005KT 5SM BR FEW004 FEW280 M04/M05 A2978 RMK SF1CI1 SLP114

CYQR;2011-04-09 15:00;CYQR 091500Z 18007KT 5SM BR FEW004 FEW280 M03/M04 A2977 RMK SF1CI0 VIS 11/2 S SLP111

CYQR;2011-04-09 16:00;CYQR 091600Z 19007KT 10SM BKN250 M01/M01 A2976 RMK CI1 SLP109

CYQR;2011-04-09 17:00;CYQR 091700Z 19008KT 15SM BKN250 01/00 A2975 RMK CI1 SLP105

CYQR;2011-04-09 18:00;CYQR 091800Z 19009KT 15SM SCT250 02/01 A2976 RMK CI0 SLP103

CYQR;2011-04-09 19:00;CYQR 091900Z 18009KT 15SM FEW010 FEW250 03/01 A2974 RMK SF1CI0 SLP097

CYQR;2011-04-09 20:00;CYQR 092000Z 18009KT 15SM FEW010 FEW250 03/01 A2972 RMK SF1CI0 SLP093

CYQR;2011-04-09 21:00;CYQR 092100Z 19006KT 15SM FEW010 FEW250 04/02 A2970 RMK SF1CI0 SLP083

CYQR;2011-04-09 22:00;CYQR 092200Z 19008KT 15SM FEW250 04/02 A2968 RMK CI0 SLP079

CYQR;2011-04-09 23:00;CYQR 092300Z 17006KT 15SM FEW250 05/03 A2967 RMK CI1 SLP075

CYQR;2011-04-10 00:00;CYQR 100000Z 16010KT 15SM FEW250 03/02 A2968 RMK CI1 SLP080

CYQR;2011-04-10 01:00;CYQR 100100Z 16011KT 15SM FEW250 02/01 A2967 RMK CI1 SLP075

CYQR;2011-04-10 02:00;CYQR 100200Z 16009KT 12SM FEW120 FEW250 02/00 A2965 RMK AC1CI1 SLP069

CYQR;2011-04-10 03:00;CYQR 100300Z 16006KT 15SM BKN250 01/M01 A2966 RMK CI4 SLP071

CYQR;2011-04-10 04:00;CYQR 100400Z 18010KT 12SM SKC M00/M01 A2966 RMK SLP071

CYQR;2011-04-10 05:00;CYQR 100500Z 19011KT 6SM BR SKC M00/M02 A2965 RMK SLP070

CYQR;2011-04-10 06:00;CYQR 100600Z 18008KT 10SM SKC M01/M02 A2965 RMK SLP066

CYQR;2011-04-10 07:00;CYQR 100700Z 19006KT 15SM SKC M01/M03 A2963 RMK SLP061

CYQR;2011-04-10 08:00;CYQR 100800Z 17005KT 15SM SKC M01/M03 A2962 RMK SLP057

CYQR;2011-04-10 09:00;CYQR 100900Z 21003KT 10SM SKC M01/M03 A2960 RMK SLP049

CYQR;2011-04-10 10:00;CYQR 101000Z 18004KT 8SM SKC M02/M03 A2960 RMK SLP048

CYQR;2011-04-10 11:00;CYQR 101100Z 15007KT 8SM SKC M02/M04 A2962 RMK SLP054

CYQR;2011-04-10 12:00;CYQR 101200Z 22002KT 12SM FEW120 SCT240 M03/M04 A2962 RMK AC1CI1 SLP057

CYQR;2011-04-10 13:00;CYQR 101300Z 28003KT 15SM FEW240 M02/M04 A2963 RMK CI1 SLP059

CYQR;2011-04-10 14:00;CYQR 101400Z 31009KT 15SM FEW270 M00/M02 A2964 RMK CI1 SLP064

CYQR;2011-04-10 15:00;CYQR 101500Z 30005KT 15SM FEW270 01/M01 A2965 RMK CI1 SLP067

CYQR;2011-04-10 16:00;CYQR 101600Z 31005KT 15SM FEW270 03/01 A2966 RMK CI1 SLP071

CYQR;2011-04-10 17:00;CYQR 101700Z 30006KT 15SM SCT270 05/02 A2968 RMK CI1 SLP076

CYQR;2011-04-10 18:00;CYQR 101800Z 33014KT 15SM FEW040 BKN280 07/02 A2968 RMK SC1CI1 SLP073

CYQR;2011-04-10 19:00;CYQR 101900Z 34016KT 15SM FEW120 FEW280 08/02 A2968 RMK AC1CI1 SLP074

CYQR;2011-04-10 20:00;CYQR 102000Z 33016KT 15SM FEW120 09/03 A2969 RMK AC1 SLP076

CYQR;2011-04-10 21:00;CYQR 102100Z 33012G17KT 15SM SKC 09/03 A2970 RMK SLP077

CYQR;2011-04-10 22:00;CYQR 102200Z 32014KT 15SM SKC 10/04 A2971 RMK SLP082

CYQR;2011-04-10 23:00;CYQR 102300Z 32012KT 15SM FEW028 10/03 A2973 RMK CF1 SLP087

CYQR;2011-04-11 00:00;CYQR 110000Z 32010KT 15SM FEW026 10/03 A2974 RMK CF1 SLP094

CYQR;2011-04-11 01:00;CYQR 110100Z 29007KT 15SM FEW020 FEW270 08/03 A2976 RMK SC1CI1 SLP100

CYQR;2011-04-11 02:00;CYQR 110200Z 27008KT 15SM FEW025 FEW250 04/01 A2978 RMK SC1CI0 SLP107

CYQR;2011-04-11 03:00;CYQR 110300Z 28008KT 15SM SKC 03/01 A2980 RMK SLP117

CYQR;2011-04-11 04:00;CYQR 110400Z 27007KT 15SM SKC 02/00 A2982 RMK SLP122

CYQR;2011-04-11 05:00;CYQR 110500Z 26007KT 15SM SKC 01/M01 A2982 RMK SLP124

CYQR;2011-04-11 06:00;CYQR 110600Z 27009KT 15SM SKC 02/M00 A2983 RMK SLP123

CYQR;2011-04-11 07:00;CYQR 110700Z 26007KT 15SM SKC 01/M01 A2983 RMK SLP122

CYQR;2011-04-11 08:00;CYQR 110800Z 26007KT 15SM FEW040 01/M01 A2982 RMK SC1 SLP120

CYQR;2011-04-11 09:00;CYQR 110900Z 25006KT 15SM BKN080 01/M01 A2981 RMK AC6 SLP116

CYQR;2011-04-11 10:00;CYQR 111000Z 19007KT 15SM FEW080 01/M01 A2980 RMK AC1 SLP113

CYQR;2011-04-11 11:00;CYQR 111100Z 19005KT 15SM FEW080 01/M02 A2979 RMK AC1 SLP109

CYQR;2011-04-11 12:00;CYQR 111200Z 18005KT 15SM FEW080 FEW250 01/M02 A2979 RMK AC1CI1 SLP107

CYQR;2011-04-11 13:00;CYQR 111300Z 19005KT 15SM FEW080 02/M02 A2979 RMK AC1 SLP109

CYQR;2011-04-11 14:00;CYQR 111400Z 21007KT 15SM FEW300 02/M01 A2978 RMK CI0 SLP106

CYQR;2011-04-11 15:00;CYQR 111500Z 23008KT 15SM FEW300 04/01 A2978 RMK CI0 SLP108

CYQR;2011-04-11 16:00;CYQR 111600Z 24011KT 15SM BKN300 05/02 A2979 RMK CI1 SLP109

CYQR;2011-04-11 17:00;CYQR 111700Z 23010KT 15SM BKN300 06/03 A2978 RMK CI1 SLP107

CYQR;2011-04-11 18:00;CYQR 111800Z 22009KT 15SM BKN300 07/04 A2977 RMK CI2 SLP104

CYQR;2011-04-11 19:00;CYQR 111900Z 24010KT 15SM BKN300 09/06 A2976 RMK CI1 SLP101

CYQR;2011-04-11 20:00;CYQR 112000Z 24009KT 15SM BKN300 10/07 A2976 RMK CI2 SLP099

CYQR;2011-04-11 21:00;CYQR 112100Z 25012KT 15SM BKN300 12/06 A2974 RMK CI3 CC ASOCTD SLP090

CYQR;2011-04-11 22:00;CYQR 112200Z 25010KT 15SM BKN300 12/07 A2973 RMK CI2 SLP086

CYQR;2011-04-11 23:00;CYQR 112300Z 26010KT 15SM FEW300 13/07 A2971 RMK CI1 SLP082

CYQR;2011-04-12 00:00;CYQR 120000Z 26010KT 15SM FEW300 12/06 A2971 RMK CI1 SLP078

CYQR;2011-04-12 01:00;CYQR 120100Z 24010KT 15SM BKN300 08/05 A2969 RMK CI1 SLP074

CYQR;2011-04-12 02:00;CYQR 120200Z 19005KT 15SM FEW080 SCT300 06/03 A2968 RMK AC1CI2 SLP070

CYQR;2011-04-12 03:00;CYQR 120300Z 19010KT 15SM BKN120 05/02 A2968 RMK AC6 SLP072

CYQR;2011-04-12 04:00;CYQR 120400Z 22013KT 15SM OVC085 06/03 A2968 RMK AC8 SLP072

CYQR;2011-04-12 04:06;CYQR 120406Z 23014KT 15SM -SHRA OVC071 06/ RMK AC8

CYQR;2011-04-12 05:00;CYQR 120500Z 24015G20KT 15SM OVC046 08/03 A2971 RMK SC8 SLP082

CYQR;2011-04-12 06:00;CYQR 120600Z 24013KT 15SM SCT070 OVC120 06/02 A2971 RMK AC4AC4 SLP081

CYQR;2011-04-12 07:00;CYQR 120700Z 25015KT 15SM SCT120 05/01 A2972 RMK AC3 SLP084

CYQR;2011-04-12 08:00;CYQR 120800Z 28016KT 15SM SKC 04/01 A2975 RMK SLP092

CYQR;2011-04-12 09:00;CYQR 120900Z 28014KT 15SM SKC 03/01 A2977 RMK SLP100

CYQR;2011-04-12 10:00;CYQR 121000Z 27009KT 15SM SKC 02/00 A2980 RMK SLP107

CYQR;2011-04-12 11:00;CYQR 121100Z 27013KT 15SM SKC 02/M00 A2981 RMK SLP113

CYQR;2011-04-12 12:00;CYQR 121200Z 28015KT 15SM FEW120 02/M00 A2984 RMK AC1 SLP123

CYQR;2011-04-12 13:00;CYQR 121300Z 28014KT 15SM SKC 02/M01 A2987 RMK SLP133

CYQR;2011-04-12 14:00;CYQR 121400Z 28018KT 15SM SKC 03/M01 A2990 RMK SLP142

CYQR;2011-04-12 15:00;CYQR 121500Z 30018G27KT 15SM SKC 04/M01 A2992 RMK SLP153

CYQR;2011-04-12 16:00;CYQR 121600Z 31024KT 15SM SKC 06/M01 A2994 RMK SLP159

CYQR;2011-04-12 17:00;CYQR 121700Z 31023G29KT 15SM SKC 07/M02 A2995 RMK SLP162

CYQR;2011-04-12 18:00;CYQR 121800Z 29021G26KT 15SM SKC 07/M00 A2996 RMK SLP164

CYQR;2011-04-12 19:00;CYQR 121900Z 30025G32KT 15SM FEW035 08/M02 A2996 RMK CF1 SLP165

CYQR;2011-04-12 20:00;CYQR 122000Z 30028KT 15SM FEW035 08/M03 A2997 RMK CF1 SLP167

CYQR;2011-04-12 21:00;CYQR 122100Z 30026KT 15SM FEW035 09/M02 A2997 RMK CF1 SLP169

CYQR;2011-04-12 22:00;CYQR 122200Z 30027G34KT 15SM FEW035 09/M04 A2998 RMK CF1 SLP171

CYQR;2011-04-12 23:00;CYQR 122300Z 30025G33KT 15SM FEW040 08/M03 A2999 RMK CU1 SLP174

CYQR;2011-04-13 00:00;CYQR 130000Z 31019G27KT 15SM FEW040 08/M03 A3001 RMK CU1 SLP185

CYQR;2011-04-13 01:00;CYQR 130100Z 32019KT 15SM FEW036 06/M03 A3004 RMK CU1 SLP194

CYQR;2011-04-13 02:00;CYQR 130200Z 36013G18KT 15SM FEW075 04/M02 A3007 RMK AC1 SLP205

CYQR;2011-04-13 03:00;CYQR 130300Z 36013KT 15SM SKC 03/M04 A3012 RMK SLP223

CYQR;2011-04-13 04:00;CYQR 130400Z 02013KT 15SM SKC 01/M04 A3015 RMK SLP233

CYQR;2011-04-13 05:00;CYQR 130500Z 04008KT 15SM SKC M00/M05 A3018 RMK SLP242

CYQR;2011-04-13 06:00;CYQR 130600Z 04007KT 15SM FEW050 M01/M05 A3020 RMK SC2 SLP253

CYQR;2011-04-13 07:00;CYQR 130700Z 06004KT 15SM FEW050 M02/M05 A3022 RMK SC2 SLP259

CYQR;2011-04-13 08:00;CYQR 130800Z 04007KT 15SM BKN054 M01/M05 A3023 RMK SC6 SLP263

CYQR;2011-04-13 09:00;CYQR 130900Z 07008KT 15SM BKN054 M02/M05 A3025 RMK SC6 SLP270

CYQR;2011-04-13 10:00;CYQR 131000Z 08006KT 15SM SCT054 M03/M07 A3027 RMK SC4 SLP276

CYQR;2011-04-13 11:00;CYQR 131100Z 07008KT 15SM FEW054 M03/M07 A3029 RMK SC2 SLP281

CYQR;2011-04-13 12:00;CYQR 131200Z 09007KT 15SM SKC M04/M08 A3031 RMK SLP291

CYQR;2011-04-13 13:00;CYQR 131300Z 11006KT 15SM SKC M04/M08 A3033 RMK SLP297

CYQR;2011-04-13 14:00;CYQR 131400Z 13007KT 15SM SCT270 M03/M07 A3034 RMK CI1 SLP301

CYQR;2011-04-13 15:00;CYQR 131500Z 14008KT 15SM FEW012 FEW250 M03/M07 A3035 RMK SC1CI1 SLP307

CYQR;2011-04-13 16:00;CYQR 131600Z 14007KT 15SM FEW014 FEW250 M02/M06 A3035 RMK SC1CI1 SLP309

CYQR;2011-04-13 17:00;CYQR 131700Z 13007KT 15SM FEW014 M02/M06 A3036 RMK SC2 SLP312

CYQR;2011-04-13 18:00;CYQR 131800Z 11008KT 15SM FEW011 M00/M04 A3034 RMK SC1 SLP306

CYQR;2011-04-13 19:00;CYQR 131900Z 12013KT 15SM FEW020 01/M05 A3033 RMK SC1 SLP303

CYQR;2011-04-13 20:00;CYQR 132000Z 12013KT 15SM FEW020 02/M06 A3032 RMK SC1 SLP300

CYQR;2011-04-13 21:00;CYQR 132100Z 13015KT 15SM FEW012 FEW230 02/M05 A3031 RMK SC1CI1 SLP293

CYQR;2011-04-13 22:00;CYQR 132200Z 15018KT 15SM FEW012 SCT230 02/M04 A3030 RMK SC1CI2 TR SC SLP291

CYQR;2011-04-13 23:00;CYQR 132300Z 13017KT 15SM FEW012 FEW050 SCT230 02/M05 A3029 RMK SC1SC1CI0 SLP286

CYQR;2011-04-14 00:00;CYQR 140000Z 11017KT 15SM FEW012 FEW050 SCT230 02/M04 A3027 RMK SC1SC1CI0 SLP281

CYQR;2011-04-14 01:00;CYQR 140100Z 12015KT 15SM FEW050 SCT230 02/M04 A3026 RMK SC1CI0 SLP280

CYQR;2011-04-14 02:00;CYQR 140200Z 12013KT 15SM FEW050 FEW100 FEW230 00/M04 A3026 RMK SC1AC1CI1 SLP279

CYQR;2011-04-14 03:00;CYQR 140300Z 12016G21KT 15SM FEW230 M01/M06 A3028 RMK CI1 SLP285

CYQR;2011-04-14 04:00;CYQR 140400Z 12015KT 15SM SKC M01/M06 A3027 RMK SLP284

CYQR;2011-04-14 05:00;CYQR 140500Z 12016KT 15SM SKC M02/M06 A3027 RMK SLP284

CYQR;2011-04-14 06:00;CYQR 140600Z 12016G24KT 15SM FEW230 M02/M06 A3026 RMK CI1 SLP279

CYQR;2011-04-14 07:00;CYQR 140700Z 12017G22KT 15SM FEW230 M03/M06 A3025 RMK CI1 SLP276

CYQR;2011-04-14 08:00;CYQR 140800Z 12019G26KT 15SM SKC M03/M07 A3024 RMK SLP273

CYQR;2011-04-14 09:00;CYQR 140900Z 12017G25KT 15SM SCT230 M04/M08 A3024 RMK CI0 SLP270

CYQR;2011-04-14 10:00;CYQR 141000Z 12018G24KT 15SM SCT230 M04/M08 A3023 RMK CI0 SLP267

CYQR;2011-04-14 11:00;CYQR 141100Z 12016G25KT 15SM SCT083 BKN230 M05/M08 A3022 RMK AC4CI1 SLP265

CYQR;2011-04-14 12:00;CYQR 141200Z 13022G28KT 15SM FEW040 BKN085 BKN230 M05/M08 A3022 RMK SC1AC4CI1 SLP266

CYQR;2011-04-14 12:30;CYQR 141230Z 12020G28KT 15SM SCT013 BKN080 BKN230 M05/ RMK SC2AC3CI1

CYQR;2011-04-14 13:00;CYQR 141300Z 12018G25KT 15SM SCT013 SCT073 BKN230 M05/M08 A3023 RMK SC3AC1CI1 SLP269

CYQR;2011-04-14 13:13;CYQR 141313Z 12019G26KT 15SM BKN013 BKN230 M05/ RMK SC5CI1

CYQR;2011-04-14 14:00;CYQR 141400Z 13020G27KT 15SM BKN011 BKN090 BKN230 M05/M08 A3024 RMK SC5AC1CI1 AC TR SLP272

CYQR;2011-04-14 15:00;CYQR 141500Z 13019G26KT 15SM BKN012 BKN230 M04/M08 A3025 RMK SC5CI1 SLP276

CYQR;2011-04-14 16:00;CYQR 141600Z 13023G30KT 15SM BKN012 BKN230 M04/M07 A3025 RMK SC3CI2 SLP279

CYQR;2011-04-14 17:00;CYQR 141700Z 13024G30KT 15SM BKN014 OVC230 M02/M06 A3026 RMK SC4CI2 SLP281

CYQR;2011-04-14 18:00;CYQR 141800Z 13022G27KT 15SM FEW016 OVC200 M01/M05 A3027 RMK SC2CI3 SLP282

CYQR;2011-04-14 19:00;CYQR 141900Z 12027G33KT 15SM FEW019 BKN260 00/M06 A3024 RMK SC1CI3 SLP274

CYQR;2011-04-14 20:00;CYQR 142000Z 14023G28KT 15SM FEW019 FEW078 OVC260 01/M05 A3023 RMK SC1AC2CI1 SLP271

CYQR;2011-04-14 21:00;CYQR 142100Z 13019G25KT 15SM FEW020 BKN120 OVC260 01/M05 A3021 RMK SC1AC6CI2 SLP263

CYQR;2011-04-14 22:00;CYQR 142200Z 14018KT 15SM FEW020 BKN120 OVC260 01/M04 A3022 RMK SC1AC7CI1 SLP264

CYQR;2011-04-14 23:00;CYQR 142300Z 12017G24KT 15SM FEW020 OVC120 01/M05 A3022 RMK SC1AC8 SLP266

CYQR;2011-04-15 00:00;CYQR 150000Z 12017G24KT 15SM OVC076 01/M04 A3022 RMK AC8 SLP267

CYQR;2011-04-15 01:00;CYQR 150100Z 12016KT 15SM BKN086 OVC120 01/M04 A3022 RMK AC6AC2 SLP265

CYQR;2011-04-15 02:00;CYQR 150200Z 12014G20KT 15SM BKN026 OVC058 01/M04 A3022 RMK SC6SC2 SLP266

CYQR;2011-04-15 02:28;CYQR 150228Z 12015G20KT 10SM -SN DRSN BKN026 OVC065 01/ RMK SC6SC2

CYQR;2011-04-15 03:00;CYQR 150300Z 12017KT 12SM -SHSN DRSN OVC025 01/M05 A3023 RMK SC8 SLP271

CYQR;2011-04-15 03:38;CYQR 150338Z 14020KT 2SM -SN VV008 M01/ RMK SN8

CYQR;2011-04-15 04:00;CYQR 150400Z 13018G26KT 1 1/2SM -SHSN VV008 M01/M02 A3024 RMK SN8 SLP273

CYQR;2011-04-15 04:10;CYQR 150410Z 14020G26KT 2SM -SHSN OVC011 M01/ RMK SC8

CYQR;2011-04-15 04:34;CYQR 150434Z 14018G24KT 3SM -SHSN DRSN OVC011 M01/ RMK SC8

CYQR;2011-04-15 05:00;CYQR 150500Z 14018KT 3SM -SHSN DRSN OVC010 M01/M03 A3024 RMK SC8 /S01/ SLP273

CYQR;2011-04-15 06:00;CYQR 150600Z 13018KT 3SM -SHSN DRSN OVC007 M01/M03 A3023 RMK SC8 SLP269

CYQR;2011-04-15 07:00;CYQR 150700Z 13018G25KT 3SM -SHSN DRSN OVC006 M01/M03 A3021 RMK SC8 SLP263

CYQR;2011-04-15 08:00;CYQR 150800Z 14015G21KT 10SM -SHSN OVC006 M01/M03 A3021 RMK SC8 SLP261

CYQR;2011-04-15 09:00;CYQR 150900Z 14016G22KT 10SM -SHSN OVC008 M01/M03 A3019 RMK SC8 SLP253

CYQR;2011-04-15 10:00;CYQR 151000Z 15018G26KT 10SM -SHSN OVC008 M01/M03 A3016 RMK SC8 SLP245

CYQR;2011-04-15 11:00;CYQR 151100Z 15018KT 12SM -SHSN OVC009 M01/M03 A3015 RMK SC8 SLP241

CYQR;2011-04-15 12:00;CYQR 151200Z 15017G24KT 12SM -SHSN OVC008 M01/M03 A3015 RMK SC8 SLP239

CYQR;2011-04-15 13:00;CYQR 151300Z 15016G22KT 12SM -SHSN OVC007 M01/M03 A3013 RMK SC8 SLP234

CYQR;2011-04-15 13:17;CYQR 151317Z 16015G20KT 12SM OVC007 M01/ RMK SC8

CYQR;2011-04-15 14:00;CYQR 151400Z 16017KT 5SM BR OVC006 M01/M03 A3012 RMK ST8 SLP231

CYQR;2011-04-15 15:00;CYQR 151500Z 16017KT 6SM BR OVC005 M01/M02 A3010 RMK ST8 SLP221

CYQR;2011-04-15 16:00;CYQR 151600Z 16020KT 5SM BR OVC005 M01/M02 A3009 RMK ST8 SLP220

CYQR;2011-04-15 17:00;CYQR 151700Z 16017G25KT 7SM OVC005 M00/M02 A3008 RMK ST8 SLP215

CYQR;2011-04-15 18:00;CYQR 151800Z 17018KT 12SM OVC006 00/M02 A3006 RMK SC8 SLP209

CYQR;2011-04-15 19:00;CYQR 151900Z 16014G21KT 15SM BKN008 OVC060 01/M01 A3004 RMK SC6SC2 SLP202

CYQR;2011-04-15 20:00;CYQR 152000Z 17019KT 15SM BKN011 OVC021 02/M00 A3002 RMK SC6SC1 SLP195

CYQR;2011-04-15 20:16;CYQR 152016Z 16018KT 15SM SCT011 BKN021 03/ RMK SC4SC2

CYQR;2011-04-15 21:00;CYQR 152100Z 14019KT 15SM SCT011 SCT210 03/01 A2999 RMK SC3CI0 SLP182

CYQR;2011-04-15 22:00;CYQR 152200Z 15018KT 15SM FEW011 SCT160 BKN220 03/00 A2996 RMK SC1AC2CI2 SLP171

CYQR;2011-04-15 23:00;CYQR 152300Z 15017KT 15SM FEW010 BKN067 BKN220 03/00 A2994 RMK CF1AC5CI1 SLP166

CYQR;2011-04-15 23:36;CYQR 152336Z 14015KT 15SM -SHRASN BKN015TCU BKN058 BKN220 03/ RMK TCU5SC2CI1

CYQR;2011-04-15 23:50;CYQR 152350Z 14013G18KT 10SM -SHRASN BKN011TCU OVC058 02/ RMK TCU6SC2 VIS E 21/2

CYQR;2011-04-16 00:00;CYQR 160000Z 14016KT 12SM -SHSN BKN010TCU OVC058 02/00 A2994 RMK TCU6SC2 SLP165

CYQR;2011-04-16 00:21;CYQR 160021Z 14013G20KT 6SM -SHSN BKN007TCU OVC031 02/ RMK TCU7SC1

CYQR;2011-04-16 01:00;CYQR 160100Z 13019KT 5SM -SHSN SCT007TCU BKN019 OVC051 02/M00 A2991 RMK TCU3SC3SC2 SLP158

CYQR;2011-04-16 02:00;CYQR 160200Z 13015KT 8SM -SHSN BKN017 OVC045 01/M01 A2991 RMK SC6SC2 CVCTV CLD EMBD SLP155

CYQR;2011-04-16 02:29;CYQR 160229Z 13014KT 6SM -SHSN OVC012 01/ RMK SC8

CYQR;2011-04-16 03:00;CYQR 160300Z 14016G21KT 10SM -SHSN FEW007 OVC012 01/M01 A2990 RMK SF1SC7 CVCTV CLD EMBD SLP153

CYQR;2011-04-16 03:06;CYQR 160306Z 14018KT 12SM -SHSN FEW007 SCT012 OVC032 01/ RMK SF1SC4SC4

CYQR;2011-04-16 04:00;CYQR 160400Z 14016KT 2SM -SHSN VV008 00/M01 A2990 RMK SN8 SLP153

CYQR;2011-04-16 04:03;CYQR 160403Z 14013G20KT 1 1/2SM -SHSN VV005 M00/ RMK SN8 VIS VRB 1-2

CYQR;2011-04-16 04:11;CYQR 160411Z 14014KT 1SM R13/P6000FT/D -SHSN VV004 M00/ RMK SN8

CYQR;2011-04-16 04:33;CYQR 160433Z 13010G15KT 3/4SM R13/5000FT/D -SHSN VV003 M00/ RMK SN8 /S01/

CYQR;2011-04-16 04:37;CYQR 160437Z 13009KT 1/2SM R13/5000FT/N SN VV003 M00/ RMK SN8

CYQR;2011-04-16 05:00;CYQR 160500Z 04008KT 1/2SM R13/4500FT/N SN VV002 M00/M02 A2991 RMK SN8 SNW WET /S03/ SLP156

CYQR;2011-04-16 05:06;CYQR 160506Z 06006KT 1/2SM R13/4500FT/N SN VV003 M00/ RMK SN8

CYQR;2011-04-16 06:00;CYQR 160600Z 12007KT 1/2SM R13/5000FT/U SN VV003 M01/M01 A2990 RMK SN8 SNW WET /S04/ SLP154

CYQR;2011-04-16 06:14;CYQR 160614Z 12008KT 3/4SM R13/P6000FT/U -SN VV003 M01/ RMK SN8

CYQR;2011-04-16 06:35;CYQR 160635Z 12011KT 1 1/2SM -SN VV004 M01/ RMK SN8

CYQR;2011-04-16 06:48;CYQR 160648Z 14009KT 2SM -SN BKN003 OVC020 M01/ RMK SF6SC2

CYQR;2011-04-16 07:00;CYQR 160700Z 14010KT 4SM -SN BKN003 OVC020 M01/M02 A2988 RMK SF6SC2 SLP148

CYQR;2011-04-16 07:06;CYQR 160706Z 13011KT 10SM -SN SCT003 BKN057 OVC100 M01/ RMK SF4SC2AC2

CYQR;2011-04-16 07:21;CYQR 160721Z 13008KT 15SM SCT003 BKN071 OVC100 M01/ RMK SF4AC2AC2

CYQR;2011-04-16 07:39;CYQR 160739Z 14006KT 15SM BKN004 OVC071 M02/ RMK SF6AC2

CYQR;2011-04-16 08:00;CYQR 160800Z 13008KT 15SM SCT004 BKN041 BKN071 M02/M03 A2988 RMK SF3SC2AC2 SLP147

CYQR;2011-04-16 09:00;CYQR 160900Z 13005KT 15SM OVC030 M02/M03 A2988 RMK SC8 SLP146

CYQR;2011-04-16 09:16;CYQR 160916Z 18002KT 15SM SCT005 OVC020 M02/ RMK SF2SC6

CYQR;2011-04-16 09:47;CYQR 160947Z 16002KT 15SM BKN005 OVC028 M02/ RMK SF5SC3

CYQR;2011-04-16 10:00;CYQR 161000Z 15004KT 15SM SCT004 OVC014 M01/M03 A2989 RMK SF4SC4 SLP148

CYQR;2011-04-16 10:09;CYQR 161009Z 16005KT 15SM BKN005 OVC014 M01/ RMK SF5SC3

CYQR;2011-04-16 10:21;CYQR 161021Z 17005KT 15SM OVC004 M01/ RMK SF8 /S01/

CYQR;2011-04-16 10:34;CYQR 161034Z 19004KT 15SM SCT004 OVC012 M01/ RMK SF4SC4

CYQR;2011-04-16 11:00;CYQR 161100Z 18004KT 15SM BKN005 OVC012 M01/M03 A2988 RMK SF5SC3 SLP147

CYQR;2011-04-16 12:00;CYQR 161200Z 18005KT 15SM OVC005 M01/M03 A2988 RMK ST8 SLP146

CYQR;2011-04-16 12:38;CYQR 161238Z 19003KT 15SM BKN003 BKN020 BKN080 M02/ RMK SF5SC2AC1

CYQR;2011-04-16 12:48;CYQR 161248Z 21004KT 15SM SCT003 BKN020 BKN080 M03/ RMK SF2SC2AC1

CYQR;2011-04-16 13:00;CYQR 161300Z 22004KT 12SM PRFG FEW003 SCT038 SCT080 M03/M05 A2989 RMK SF2SC2AC1 VIS SW-W 2 SLP148

CYQR;2011-04-16 14:00;CYQR 161400Z 28010KT 15SM FEW003 BKN020 M02/M03 A2989 RMK SF1SC7 SLP148

CYQR;2011-04-16 14:28;CYQR 161428Z 27007KT 15SM -SN BKN016 OVC035 M01/ RMK SC7SC1

CYQR;2011-04-16 15:00;CYQR 161500Z 27010KT 15SM BKN014 BKN035 M01/M02 A2988 RMK SC7SC1 SLP145

CYQR;2011-04-16 15:19;CYQR 161519Z 27011KT 15SM BKN016 OVC030 M00/ RMK SC7SC1

CYQR;2011-04-16 15:40;CYQR 161540Z 28015KT 15SM BKN009 M00/ RMK SC7

CYQR;2011-04-16 16:00;CYQR 161600Z 31016KT 15SM BKN009 BKN025 M00/M02 A2988 RMK SC6SC2 CVCTV CLD EMBD SW SLP145

CYQR;2011-04-16 16:26;CYQR 161626Z 32014KT 15SM SCT009 BKN020 M00/ RMK SC2SC5

CYQR;2011-04-16 17:00;CYQR 161700Z 32012KT 15SM FEW009 SCT024 BKN048 M00/ A2988 RMK SC1SC3SC2 SLP145

CYQR;2011-04-16 18:00;CYQR 161800Z 29013KT 15SM BKN029 BKN055 00/ A2987 RMK SC6SC1 SLP145

CYQR;2011-04-16 19:00;CYQR 161900Z 28011KT 15SM FEW012 BKN023 BKN094 01/ A2987 RMK SC1SC6AC1 SLP143

CYQR;2011-04-16 20:00;CYQR 162000Z 28011KT 15SM SCT021 OVC038 01/M01 A2986 RMK SC3SC5 SLP141

CYQR;2011-04-16 21:00;CYQR 162100Z 29012KT 15SM OVC028 01/M01 A2986 RMK SC8 SLP138

CYQR;2011-04-16 22:00;CYQR 162200Z 29013KT 15SM FEW012 OVC028 01/M02 A2985 RMK SC1SC8 SLP136

CYQR;2011-04-16 23:00;CYQR 162300Z 30009KT 15SM FEW010 BKN024 OVC055 01/M02 A2985 RMK SC1SC6SC2 SLP135

CYQR;2011-04-17 00:00;CYQR 170000Z 31006KT 15SM FEW010 BKN026 BKN040 01/M02 A2984 RMK SC1SC6SC1 SLP134

CYQR;2011-04-17 01:00;CYQR 170100Z 30005KT 15SM FEW010 SCT028 BKN042 01/M02 A2984 RMK CF1SC3SC2 SLP134

CYQR;2011-04-17 02:00;CYQR 170200Z 30006KT 15SM BKN050 BKN086 01/M02 A2985 RMK SC5AC2 SLP137

CYQR;2011-04-17 02:21;CYQR 170221Z 31005KT 15SM -SHSN BKN044 BKN086 00/ RMK SC6AC1

CYQR;2011-04-17 03:00;CYQR 170300Z 35005KT 15SM -SHSN SCT022 BKN040 00/M02 A2985 RMK SC4SC3 SLP137

CYQR;2011-04-17 04:00;CYQR 170400Z 10013KT 15SM -SHSN FEW010 BKN017 OVC036 M00/M03 A2985 RMK SC2SC3SC3 SLP135

CYQR;2011-04-17 05:00;CYQR 170500Z 10010KT 15SM -SHSN FEW010 OVC021 M00/M03 A2987 RMK SC1SC7 SLP142

CYQR;2011-04-17 05:38;CYQR 170538Z 09009KT 15SM BKN023 OVC047 M00/ RMK SC6SC2

CYQR;2011-04-17 05:55;CYQR 170555Z 09011KT 15SM -SHSN FEW010 BKN033 OVC051 M00/ RMK SC1SC5SC2

CYQR;2011-04-17 06:00;CYQR 170600Z 09011KT 15SM -SHSN FEW010 BKN033 OVC051 M00/M04 A2987 RMK SC1SC5SC2 SLP144

CYQR;2011-04-17 07:00;CYQR 170700Z 09010KT 15SM -SHSN FEW010 OVC053 M01/M04 A2986 RMK SC1SC7 SLP142

CYQR;2011-04-17 08:00;CYQR 170800Z 10009KT 15SM -SHSN FEW010 SCT020 OVC053 M01/M04 A2987 RMK SC1SC3SC4 SLP144

CYQR;2011-04-17 09:00;CYQR 170900Z 09011KT 15SM FEW010 SCT031 OVC053 M01/M04 A2985 RMK SC1SC2SC5 SLP137

CYQR;2011-04-17 09:49;CYQR 170949Z 09010G15KT 15SM FEW010 SCT030 OVC056 M02/ RMK SC1SC2SC5

CYQR;2011-04-17 10:00;CYQR 171000Z 09011KT 15SM FEW010 SCT030 OVC058 M02/M05 A2985 RMK SC1SC2SC5 SLP137

CYQR;2011-04-17 11:00;CYQR 171100Z 10009KT 15SM FEW010 SCT030 OVC058 M02/M05 A2987 RMK SC1SC2SC5 SLP143

CYQR;2011-04-17 12:00;CYQR 171200Z 09010KT 15SM FEW010 SCT038 OVC056 M02/M05 A2987 RMK SC2SC2SC5 SLP143

CYQR;2011-04-17 12:40;CYQR 171240Z 09014KT 15SM -SHSN FEW015 SCT031 BKN056 OVC100 M02/ RMK SC2SC2SC3AC2 CVCTV CLD ASOCTD

CYQR;2011-04-17 13:00;CYQR 171300Z 09012G17KT 15SM -SHSN FEW015 SCT040 OVC058 M02/M05 A2988 RMK SC2SC2SC4 CVCTV CLD EMBD SLP148

CYQR;2011-04-17 14:00;CYQR 171400Z 10014KT 15SM BKN015 OVC040 M02/M06 A2989 RMK SC6SC2 SLP149

CYQR;2011-04-17 15:00;CYQR 171500Z 10012G17KT 15SM -SHSN BKN017 OVC047 M02/M06 A2990 RMK SC5SC3 CVCTV CLD EMBD SLP154

CYQR;2011-04-17 16:00;CYQR 171600Z 09013KT 12SM -SHSN BKN018 OVC049 M02/M06 A2990 RMK SC7SC1 CVCTV CLD EMBD SLP155

CYQR;2011-04-17 17:00;CYQR 171700Z 10010KT 15SM -SHSN OVC020 M01/M06 A2991 RMK SC8 CVCTV CLD EMBD SLP158

CYQR;2011-04-17 18:00;CYQR 171800Z 10011KT 15SM -SHSN OVC021 M01/M05 A2990 RMK SC8 CVCTV CLD EMBD SLP155

CYQR;2011-04-17 18:42;CYQR 171842Z 13011KT 15SM OVC021 M01/ RMK SC8

CYQR;2011-04-17 19:00;CYQR 171900Z 12009KT 15SM OVC021 M01/M06 A2991 RMK SC8 SLP157

CYQR;2011-04-17 20:00;CYQR 172000Z 11007KT 15SM OVC024 M01/M06 A2991 RMK SC8 SLP156

CYQR;2011-04-17 20:04;CYQR 172004Z 11008KT 15SM -SHSN BKN024 OVC037 M01/ RMK SC6SC2 CVCTV CLD EMBD

CYQR;2011-04-17 21:00;CYQR 172100Z 10007KT 15SM -SHSN BKN026 OVC088 M00/M06 A2991 RMK SC6AC2 CVCTV CLD EMBD SLP157

CYQR;2011-04-17 22:00;CYQR 172200Z 12004KT 15SM -SHSN BKN024 OVC090 M00/M06 A2991 RMK SC6AC2 CVCTV CLD EMBD SLP157

CYQR;2011-04-17 23:00;CYQR 172300Z CCA 11006KT 15SM -SHSN BKN022 BKN049 M00/M05 A2991 RMK SC5SC2 CVCTV CLD EMBD SLP156

CYQR;2011-04-17 23:28;CYQR 172328Z 14005KT 15SM BKN020 BKN047 BKN093 M00/ RMK SC5SC2AC0

CYQR;2011-04-18 00:00;CYQR 180000Z 16005KT 15SM SCT022 BKN093 M00/M05 A2991 RMK SC4AC3 SLP159

CYQR;2011-04-18 01:00;CYQR 180100Z 16005KT 15SM -SHSN SCT024 BKN084 OVC300 M00/M05 A2991 RMK SC3AC2CI1 CVCTV CLD EMBD SLP160

CYQR;2011-04-18 02:00;CYQR 180200Z 15004KT 15SM -SHSN SCT027TCU BKN038 BKN100 OVC300 M01/M06 A2993 RMK TCU3SC2AC2CI0 SLP164

CYQR;2011-04-18 03:00;CYQR 180300Z 08005KT 15SM -SHSN SCT027 BKN040 BKN260 M01/M06 A2993 RMK CU3SC2CI1 SLP167

CYQR;2011-04-18 03:49;CYQR 180349Z 06002KT 15SM SCT035 BKN260 M02/ RMK SC3CI1

CYQR;2011-04-18 04:00;CYQR 180400Z 04002KT 15SM SCT035 BKN260 M02/M05 A2994 RMK SC3CI1 SLP169

CYQR;2011-04-18 05:00;CYQR 180500Z 05003KT 15SM BKN038 M02/M05 A2994 RMK SC6 SLP169

CYQR;2011-04-18 06:00;CYQR 180600Z 10002KT 15SM BKN034 M02/M04 A2994 RMK SC6 SLP169

CYQR;2011-04-18 07:00;CYQR 180700Z 00000KT 15SM SCT034 M03/M05 A2994 RMK SC4 SLP169

CYQR;2011-04-18 08:00;CYQR 180800Z 15005KT 15SM SCT073 M03/M05 A2994 RMK AC3 SLP169

CYQR;2011-04-18 09:00;CYQR 180900Z 14003KT 15SM BKN041 M03/M05 A2994 RMK SC5 SLP169

CYQR;2011-04-18 10:00;CYQR 181000Z 15003KT 15SM -SHSN BKN045 M03/M05 A2993 RMK SC6 SLP167

CYQR;2011-04-18 11:00;CYQR 181100Z 16004KT 15SM -SHSN BKN043 M03/M05 A2993 RMK SC5 SLP167

CYQR;2011-04-18 12:00;CYQR 181200Z 07003KT 15SM -SHSN SCT042 M03/M05 A2994 RMK SC3 TCU E SLP170

CYQR;2011-04-18 12:35;CYQR 181235Z 14003KT 15SM FEW040 SCT250 M03/ RMK SC2CI0 TCU ASOCTD

CYQR;2011-04-18 13:00;CYQR 181300Z 18002KT 15SM FEW040 FEW250 M03/M05 A2995 RMK SC1CI0 CVCTV CLD EMBD SLP173

CYQR;2011-04-18 14:00;CYQR 181400Z 20003KT 15SM FEW040 M02/M05 A2996 RMK SC1 CVCTV CLD EMBD SLP174

CYQR;2011-04-18 15:00;CYQR 181500Z 21003KT 15SM FEW012 M01/M05 A2996 RMK CU1 SLP177

CYQR;2011-04-18 16:00;CYQR 181600Z 21002KT 15SM SCT016 M00/M05 A2997 RMK CU4 SLP178

CYQR;2011-04-18 17:00;CYQR 181700Z 34003KT 15SM VCSH BKN029 01/M07 A2997 RMK CU5 SLP178

CYQR;2011-04-18 18:00;CYQR 181800Z 28003KT 15SM FEW030 01/M07 A2996 RMK CU2 SH S SLP175

CYQR;2011-04-18 19:00;CYQR 181900Z 21005KT 15SM SCT030 02/M05 A2996 RMK CU3 SLP173

CYQR;2011-04-18 20:00;CYQR 182000Z 23002KT 15SM SCT037 03/M05 A2995 RMK CU4 SLP170

CYQR;2011-04-18 21:00;CYQR 182100Z 22005KT 15SM -SHSN BKN037 03/M05 A2994 RMK CU5 SLP168

CYQR;2011-04-18 22:00;CYQR 182200Z 25003KT 15SM -SHSN BKN039 03/M06 A2994 RMK CU5 SLP167

CYQR;2011-04-18 22:20;CYQR 182220Z 17007KT 15SM VCSH FEW039 03/ RMK CU2

CYQR;2011-04-18 23:00;CYQR 182300Z 17009KT 15SM FEW040 03/M04 A2993 RMK CU2 SLP165

CYQR;2011-04-19 00:00;CYQR 190000Z 17008KT 15SM FEW040 03/M04 A2994 RMK CU2 SLP166

CYQR;2011-04-19 01:00;CYQR 190100Z 15007KT 15SM VCSH FEW040TCU 02/M05 A2995 RMK TCU2 SLP169

CYQR;2011-04-19 02:00;CYQR 190200Z 15008KT 15SM FEW040 FEW079 SCT280 01/M06 A2996 RMK SC2AC1CI0 SLP173

CYQR;2011-04-19 03:00;CYQR 190300Z 17009KT 15SM FEW076 SCT260 01/M06 A2998 RMK AC2CI1 SLP181

CYQR;2011-04-19 04:00;CYQR 190400Z 15007KT 15SM FEW075 BKN260 00/M06 A2998 RMK AC1CI2 SLP182

CYQR;2011-04-19 05:00;CYQR 190500Z 16006KT 15SM FEW075 BKN260 M01/M06 A2998 RMK AC1CI2 SLP181

CYQR;2011-04-19 06:00;CYQR 190600Z 13005KT 15SM SCT260 M01/M05 A2998 RMK CI1 SLP182

CYQR;2011-04-19 07:00;CYQR 190700Z 17005KT 15SM SCT260 M01/M05 A2999 RMK CI1 SLP183

CYQR;2011-04-19 08:00;CYQR 190800Z 14004KT 15SM SCT260 M02/M05 A2998 RMK CI1 SLP181

CYQR;2011-04-19 09:00;CYQR 190900Z 14005KT 15SM SKC M03/M05 A2998 RMK SLP181

CYQR;2011-04-19 10:00;CYQR 191000Z 13003KT 15SM SCT250 M03/M05 A2998 RMK CI1 SLP182

CYQR;2011-04-19 11:00;CYQR 191100Z 10004KT 15SM SCT240 M04/M06 A2998 RMK CI1 SLP181

CYQR;2011-04-19 12:00;CYQR 191200Z 13005KT 15SM BKN250 M04/M06 A2999 RMK CI1 SLP185

CYQR;2011-04-19 13:00;CYQR 191300Z 10004KT 15SM FEW250 M03/M05 A2999 RMK CI1 SLP184

CYQR;2011-04-19 14:00;CYQR 191400Z 16005KT 15SM FEW250 M01/M04 A3000 RMK CI1 SLP190

CYQR;2011-04-19 15:00;CYQR 191500Z 18007KT 15SM FEW015 FEW030 FEW250 00/M03 A3001 RMK CU1SC1CI1 SLP192

CYQR;2011-04-19 16:00;CYQR 191600Z 18005KT 15SM FEW018 FEW250 02/M03 A3002 RMK CU1CI1 SLP193

CYQR;2011-04-19 17:00;CYQR 191700Z 19005KT 15SM FEW024TCU FEW250 03/M03 A3002 RMK TCU1CI1 SLP194

CYQR;2011-04-19 18:00;CYQR 191800Z 19007KT 15SM FEW030TCU SCT250 04/M03 A3002 RMK TCU2CI1 SLP192

CYQR;2011-04-19 19:00;CYQR 191900Z 18008KT 15SM VCSH BKN040TCU 05/M03 A3001 RMK TCU5 SLP189

CYQR;2011-04-19 20:00;CYQR 192000Z 21011KT 15SM -SHSN BKN027TCU 04/M02 A3000 RMK TCU7 SLP187

CYQR;2011-04-19 21:00;CYQR 192100Z 25012KT 15SM -SHSN FEW037 BKN052TCU BKN270 04/M01 A3000 RMK CF1TCU6CI1 HVYR SHWRS SW SLP185

CYQR;2011-04-19 22:00;CYQR 192200Z 21014KT 15SM SCT040TCU SCT270 04/M01 A3000 RMK TCU4CI1 HVY SH ALQDS SLP186

CYQR;2011-04-19 23:00;CYQR 192300Z 17007KT 15SM VCSH BKN029TCU BKN270 04/M01 A2999 RMK TCU5CI1 SLP182

CYQR;2011-04-19 23:11;CYQR 192311Z 18007KT 15SM -SHSN BKN024TCU BKN270 04/ RMK TCU6CI1

CYQR;2011-04-19 23:43;CYQR 192343Z 25010KT 15SM VCSH BKN026TCU 03/ RMK TCU7

CYQR;2011-04-20 00:00;CYQR 200000Z 30007KT 15SM VCSH BKN020TCU 02/M01 A3000 RMK TCU7 SLP187

CYQR;2011-04-20 00:04;CYQR 200004Z 30009KT 8SM -SHSN BKN013TCU 02/ RMK TCU7

CYQR;2011-04-20 00:08;CYQR 200008Z 30006KT 2 1/2SM -SHSN OVC013TCU 01/ RMK SN5TCU3 VIS 11/2 W

CYQR;2011-04-20 00:17;CYQR 200017Z 00000KT 3SM -SHSN SCT013 BKN033CB 02/ RMK SN2CF2CB3 VIS 2 E

CYQR;2011-04-20 00:54;CYQR 200054Z 31009KT 2 1/2SM -SHGS FEW009 BKN014 OVC047CB 01/ RMK CF1SC5CB2

CYQR;2011-04-20 01:00;CYQR 200100Z CCA 28006KT 1SM R13/P6000FT/D -SHGS OVC014 01/M00 A3000 RMK SN2SC6 CB EMBD SLP189

CYQR;2011-04-20 01:19;CYQR 200119Z 00000KT 2SM -SHSN FEW010 OVC049 01/ RMK SF1SC7 CB EMBD

CYQR;2011-04-20 01:25;CYQR 200125Z 04002KT 6SM -SHSN FEW008 BKN052 OVC099 01/ RMK SF1SC6ACC2 CB ASOCTD

CYQR;2011-04-20 01:51;CYQR 200151Z 28007KT 1SM R13/P6000FT/D -SHSN VV006 00/ RMK SN8

CYQR;2011-04-20 02:00;CYQR 200200Z 28007KT 1 1/2SM -SHSN OVC039 00/M00 A3000 RMK SN3SC5 CVCTV CLD EMBD SLP189

CYQR;2011-04-20 02:30;CYQR 200230Z 32002KT 15SM -SHSN BKN058TCU OVC100 00/ RMK TCU5AC3

CYQR;2011-04-20 03:00;CYQR 200300Z 00000KT 15SM -SHSN SCT021 BKN042 OVC080 00/M01 A3001 RMK SC3SC2AC2 SLP190

CYQR;2011-04-20 03:36;CYQR 200336Z 24006KT 15SM SCT025 BKN047 OVC091 00/ RMK SC3SC2AC2

CYQR;2011-04-20 04:00;CYQR 200400Z 20003KT 15SM SCT025 BKN066 00/M01 A3000 RMK SC3AC2 SLP188

CYQR;2011-04-20 05:00;CYQR 200500Z 21004KT 15SM BKN064 M01/M02 A3000 RMK SC5 SLP187

CYQR;2011-04-20 06:00;CYQR 200600Z 22002KT 15SM FEW060 SCT094 M01/M03 A2999 RMK SC2AC2 SLP183

CYQR;2011-04-20 07:00;CYQR 200700Z 21005KT 15SM FEW077 SCT260 M02/M03 A2999 RMK AC2CI1 SLP182

CYQR;2011-04-20 08:00;CYQR 200800Z 22006KT 15SM FEW077 M02/M03 A2999 RMK AC2 SLP181

CYQR;2011-04-20 09:00;CYQR 200900Z 23006KT 15SM FEW075 M03/M05 A2998 RMK AC2 SLP179

CYQR;2011-04-20 10:00;CYQR 201000Z 24004KT 15SM FEW075 SCT240 M03/M05 A2998 RMK AC2CI1 SLP181

CYQR;2011-04-20 11:00;CYQR 201100Z 25005KT 15SM FEW075 SCT240 M03/M05 A2998 RMK AC2CI1 SLP180

CYQR;2011-04-20 12:00;CYQR 201200Z 26005KT 15SM FEW075 FEW260 M03/M05 A2998 RMK AC1CI0 SLP182

CYQR;2011-04-20 13:00;CYQR 201300Z 26007KT 15SM SKC M02/M05 A2999 RMK SLP184

CYQR;2011-04-20 14:00;CYQR 201400Z 26006KT 15SM SKC M01/M04 A2999 RMK SLP184

CYQR;2011-04-20 15:00;CYQR 201500Z 27006KT 15SM SKC 01/M03 A2998 RMK SLP181

CYQR;2011-04-20 16:00;CYQR 201600Z 27008KT 15SM FEW016 03/M01 A2998 RMK CF1 SLP179

CYQR;2011-04-20 17:00;CYQR 201700Z 26009KT 15SM FEW018 05/01 A2997 RMK CU1 SLP178

CYQR;2011-04-20 18:00;CYQR 201800Z 26012KT 15SM FEW022 08/00 A2996 RMK CU2 SLP171

CYQR;2011-04-20 19:00;CYQR 201900Z 25012G17KT 15SM FEW054 08/M05 A2994 RMK CU2 TCU EMBD NE-E SLP164

CYQR;2011-04-20 20:00;CYQR 202000Z 28006KT 15SM BKN057TCU 08/M03 A2992 RMK TCU5 SH S-SW SLP158

CYQR;2011-04-20 20:46;CYQR 202046Z 22016G30KT 15SM -SHRAGS FEW017 BKN028TCU 07/ RMK SC1TCU7 HVY SHWRS SW

CYQR;2011-04-20 21:00;CYQR 202100Z 23008KT 15SM VCSH FEW017 BKN028TCU 09/M03 A2991 RMK SC1TCU7 HVY SHWRS SE-SW SLP153

CYQR;2011-04-20 22:00;CYQR 202200Z 22015KT 15SM BKN056TCU 08/M01 A2990 RMK TCU5 SLP149

CYQR;2011-04-20 23:00;CYQR 202300Z CCB 15009G15KT 15SM -SHRA BKN056TCU 07/M00 A2989 RMK TCU6 SLP146

CYQR;2011-04-20 23:13;CYQR 202313Z 20012KT 15SM VCSH BKN056TCU 08/ RMK TCU6

CYQR;2011-04-21 00:00;CYQR 210000Z 15007KT 15SM FEW060CB 07/M02 A2988 RMK CB2 CB SE SLP144

CYQR;2011-04-21 01:00;CYQR 210100Z 19009KT 15SM FEW070CB FEW300 07/00 A2988 RMK CB1CI0 SLP143

CYQR;2011-04-21 02:00;CYQR 210200Z 23006KT 15SM FEW070 FEW300 04/M00 A2987 RMK AC1CI1 SLP140

CYQR;2011-04-21 03:00;CYQR 210300Z 20006KT 15SM FEW300 05/M03 A2988 RMK CI1 SLP143

CYQR;2011-04-21 04:00;CYQR 210400Z 16005KT 15SM FEW300 03/00 A2988 RMK CI1 SLP144

CYQR;2011-04-21 05:00;CYQR 210500Z 15005KT 15SM FEW300 02/M00 A2987 RMK CI1 SLP140

CYQR;2011-04-21 06:00;CYQR 210600Z 14006KT 15SM SCT093 BKN300 02/M01 A2986 RMK AC3CI1 SLP133

CYQR;2011-04-21 07:00;CYQR 210700Z 13007KT 15SM FEW090 SCT300 01/M01 A2986 RMK AC1CI1 SLP131

CYQR;2011-04-21 08:00;CYQR 210800Z 15009KT 15SM FEW090 SCT280 02/M01 A2985 RMK AC1CI2 SLP130

CYQR;2011-04-21 09:00;CYQR 210900Z 13008KT 15SM FEW090 FEW280 01/M01 A2983 RMK AC1CI0 SLP122

CYQR;2011-04-21 10:00;CYQR 211000Z 13011KT 15SM SCT094 BKN280 01/M02 A2983 RMK AC3CI0 SLP123

CYQR;2011-04-21 11:00;CYQR 211100Z 16009KT 15SM FEW090 SCT280 02/M02 A2981 RMK AC1CI1 SLP117

CYQR;2011-04-21 12:00;CYQR 211200Z 18017KT 15SM FEW030 SCT090 SCT280 03/M02 A2980 RMK SC2AC1CI0 SLP113

CYQR;2011-04-21 13:00;CYQR 211300Z 14014G19KT 15SM FEW050 SCT090 BKN280 02/M01 A2981 RMK SC2AC1CI2 VIRGA SLP116

CYQR;2011-04-21 14:00;CYQR 211400Z 14015KT 15SM FEW045 FEW090 BKN280 02/M00 A2981 RMK SC2AC1CI1 VIRGA SLP117

CYQR;2011-04-21 15:00;CYQR 211500Z 14013KT 15SM FEW058 FEW090 SCT280 03/00 A2980 RMK SC1ACC1CI2 VIRGA N SLP113

CYQR;2011-04-21 16:00;CYQR 211600Z 14013KT 15SM FEW076 FEW090 BKN280 04/00 A2979 RMK AC1ACC1CI2 SLP109

CYQR;2011-04-21 17:00;CYQR 211700Z 16011KT 15SM FEW016 FEW088 BKN280 05/01 A2978 RMK CF1AC1CI1 TR CF SLP108

CYQR;2011-04-21 18:00;CYQR 211800Z 16010KT 15SM FEW020 BKN280 07/03 A2977 RMK CF1CI1 SLP102

CYQR;2011-04-21 19:00;CYQR 211900Z 15010KT 15SM FEW020 BKN280 08/04 A2975 RMK CF1CI1 SLP097

CYQR;2011-04-21 20:00;CYQR 212000Z 15011G16KT 15SM FEW020 SCT280 08/05 A2974 RMK CU1CI1 SLP093

CYQR;2011-04-21 21:00;CYQR 212100Z 12011KT 15SM FEW020 SCT280 10/05 A2973 RMK CU1CI1 SLP087

CYQR;2011-04-21 22:00;CYQR 212200Z 12009KT 15SM FEW022 FEW100 SCT280 10/05 A2973 RMK CU1AC1CI1 SLP086

CYQR;2011-04-21 23:00;CYQR 212300Z 14013KT 15SM FEW024 FEW100 SCT290 11/05 A2973 RMK CU1ACC1CI0 TCU NW VIRGA W SLP086

CYQR;2011-04-22 00:00;CYQR 220000Z 13011KT 15SM FEW022 FEW100 FEW290 11/05 A2973 RMK CU1ACC1CI1 TCU E SLP087

CYQR;2011-04-22 01:00;CYQR 220100Z 13011KT 15SM FEW022 FEW100 SCT290 10/05 A2973 RMK CU1ACC1CI1 TCU NE SLP086

CYQR;2011-04-22 02:00;CYQR 220200Z 14003KT 15SM FEW025 FEW072 FEW290 08/04 A2975 RMK SC1AC1CI0 SLP093

CYQR;2011-04-22 03:00;CYQR 220300Z 07008KT 15SM FEW037 BKN072 08/03 A2978 RMK SC2AC2 SLP104

CYQR;2011-04-22 04:00;CYQR 220400Z 09010KT 15SM FEW035 SCT082 06/03 A2979 RMK SC2AC2 SLP108

CYQR;2011-04-22 05:00;CYQR 220500Z 09006KT 15SM FEW092 05/02 A2980 RMK AC2 SLP109

CYQR;2011-04-22 06:00;CYQR 220600Z 12006KT 15SM FEW090 04/02 A2981 RMK AC2 SLP116

CYQR;2011-04-22 07:00;CYQR 220700Z 09006KT 15SM FEW090 02/01 A2981 RMK AC2 SLP117

CYQR;2011-04-22 08:00;CYQR 220800Z 07005KT 10SM FEW090 02/01 A2982 RMK AC2 SLP120

CYQR;2011-04-22 09:00;CYQR 220900Z 09007KT 10SM BKN100 02/00 A2983 RMK AC5 SLP121

CYQR;2011-04-22 09:12;CYQR 220912Z 10010KT 5SM BR FEW004 BKN100 01/ RMK SF2AC3

CYQR;2011-04-22 09:22;CYQR 220922Z 11010G15KT 3SM BR BKN003 OVC100 01/ RMK SF6AC2

CYQR;2011-04-22 09:30;CYQR 220930Z 11012KT 4SM BR OVC002 01/ RMK SF8

CYQR;2011-04-22 09:47;CYQR 220947Z 10010KT 6SM BR OVC003 02/ RMK SF8

CYQR;2011-04-22 10:00;CYQR 221000Z 09008KT 10SM OVC005 02/01 A2983 RMK SF8 SLP122

CYQR;2011-04-22 10:34;CYQR 221034Z 07006KT 12SM OVC006 02/ RMK SF8

CYQR;2011-04-22 11:00;CYQR 221100Z 07005KT 15SM OVC006 02/01 A2984 RMK SF8 SLP124

CYQR;2011-04-22 12:00;CYQR 221200Z 09006KT 8SM OVC006 02/01 A2986 RMK SF8 SLP129

CYQR;2011-04-22 12:31;CYQR 221231Z 07008KT 10SM SCT005 BKN074 OVC280 02/ RMK SF3AC2CI1

CYQR;2011-04-22 13:00;CYQR 221300Z 36007KT 10SM FEW005 FEW025 OVC230 02/01 A2986 RMK SF1SC1CI6 SLP130

CYQR;2011-04-22 14:00;CYQR 221400Z 03006KT 10SM FEW005 SCT075 OVC230 02/01 A2986 RMK SF1AC2CI5 SLP131

CYQR;2011-04-22 14:48;CYQR 221448Z 01006KT 12SM BKN006 BKN075 OVC230 03/ RMK SF2AC2CI4

CYQR;2011-04-22 15:00;CYQR 221500Z 06005KT 12SM SCT006 BKN075 OVC230 04/02 A2987 RMK SF2AC3CI2 SLP135

CYQR;2011-04-22 16:00;CYQR 221600Z 35006KT 15SM SCT010 SCT075 OVC230 05/03 A2987 RMK SF2AC1CI4 SLP135

CYQR;2011-04-22 17:00;CYQR 221700Z 36007KT 15SM SCT012 SCT075 OVC230 06/04 A2986 RMK SF1AC1CS6 SLP133

CYQR;2011-04-22 18:00;CYQR 221800Z 03009KT 15SM FEW014 BKN220 08/03 A2987 RMK CU1CS6 SLP134

CYQR;2011-04-22 19:00;CYQR 221900Z 01010G15KT 15SM FEW044 BKN280 10/M01 A2986 RMK CU1CS6 SLP133

CYQR;2011-04-22 20:00;CYQR 222000Z 04007KT 15SM FEW054 BKN280 10/M03 A2986 RMK CU1CS5 SLP132

CYQR;2011-04-22 21:00;CYQR 222100Z 03014KT 15SM SCT056 BKN280 11/M03 A2986 RMK CU3CI1 SLP131

CYQR;2011-04-22 22:00;CYQR 222200Z 03008KT 15SM SCT068 SCT280 12/M05 A2986 RMK CU3CI0 SLP132

CYQR;2011-04-22 23:00;CYQR 222300Z CCA 02009G15KT 15SM FEW066 FEW100 SCT280 10/M06 A2987 RMK CU2AC1CI0 VIRGA SW-W SLP134

CYQR;2011-04-23 00:00;CYQR 230000Z 03006KT 15SM FEW060 FEW100 BKN280 11/M05 A2987 RMK CU2AC1CI0 VIRGA SW-NW + E SLP133

CYQR;2011-04-23 01:00;CYQR 230100Z 02006KT 15SM FEW050 BKN280 09/M04 A2987 RMK CU2CI1 SLP133

CYQR;2011-04-23 02:00;CYQR 230200Z 34007KT 15SM FEW050 BKN280 07/M01 A2987 RMK SC2CI0 SLP134

CYQR;2011-04-23 03:00;CYQR 230300Z 32004KT 15SM FEW040 FEW280 06/M01 A2987 RMK SC1CI0 SLP138

CYQR;2011-04-23 04:00;CYQR 230400Z 26005KT 15SM SKC 04/M01 A2987 RMK SLP138

CYQR;2011-04-23 05:00;CYQR 230500Z 27007KT 15SM SKC 03/M02 A2987 RMK SLP137

CYQR;2011-04-23 06:00;CYQR 230600Z 27006KT 15SM FEW280 01/M02 A2987 RMK CI1 SLP137

CYQR;2011-04-23 07:00;CYQR 230700Z 26004KT 15SM FEW075 00/M02 A2988 RMK AC2 SLP139

CYQR;2011-04-23 08:00;CYQR 230800Z 28003KT 15SM FEW072 M00/M02 A2987 RMK AC1 SLP138

CYQR;2011-04-23 09:00;CYQR 230900Z 26004KT 15SM FEW076 M00/M02 A2987 RMK AC2 SLP135

CYQR;2011-04-23 10:00;CYQR 231000Z 28003KT 15SM FEW072 M01/M03 A2987 RMK AC1 SLP134

CYQR;2011-04-23 11:00;CYQR 231100Z 27004KT 15SM SCT083 M01/M03 A2986 RMK AC2 SLP133

CYQR;2011-04-23 14:00;CYQR 231400Z 26009KT 15SM FEW035 SCT075 SCT240 03/00 A2985 RMK CU1AC1CI0 SLP130

CYQR;2011-04-23 15:00;CYQR 231500Z 30006KT 15SM FEW035 FEW240 05/M00 A2984 RMK CU1CI0 SLP126

CYQR;2011-04-23 16:00;CYQR 231600Z 28007KT 15SM FEW024 FEW080 FEW240 06/00 A2984 RMK CU1AC1CI0 SLP124

CYQR;2011-04-23 17:00;CYQR 231700Z 32009KT 15SM FEW036 FEW080 FEW240 09/M01 A2983 RMK CU1AC1CI0 SLP123

CYQR;2011-04-23 18:00;CYQR 231800Z 33008KT 15SM FEW050 10/M02 A2982 RMK CU1 SLP118

CYQR;2011-04-23 19:00;CYQR 231900Z 31015KT 15SM FEW055 FEW280 11/M03 A2981 RMK CU2CI0 SLP115

CYQR;2011-04-23 20:00;CYQR 232000Z 31018KT 15SM FEW064 12/M04 A2980 RMK CU1 SLP111

CYQR;2011-04-23 21:00;CYQR 232100Z 33014G19KT 15SM FEW070 12/M06 A2980 RMK CU2 SLP109

CYQR;2011-04-23 22:00;CYQR 232200Z 33010G15KT 15SM SCT078 BKN100 12/M05 A2978 RMK CU4AC0 SLP105

CYQR;2011-04-23 23:00;CYQR 232300Z 30008G20KT 15SM BKN066 11/M06 A2977 RMK CU6 SLP102

CYQR;2011-04-24 00:00;CYQR 240000Z 30007KT 15SM SCT060 BKN260 12/M04 A2977 RMK CU4CI0 SLP102

CYQR;2011-04-24 01:00;CYQR 240100Z 34008KT 15SM FEW060 SCT260 10/M03 A2977 RMK CU2CI0 SLP101

CYQR;2011-04-24 02:00;CYQR 240200Z 26003KT 15SM FEW071 SCT260 08/01 A2976 RMK AC1CI1 SLP098

CYQR;2011-04-24 03:00;CYQR 240300Z 24004KT 15SM SCT050 BKN086 06/01 A2977 RMK SC4AC3 VIRGA NW SLP100

CYQR;2011-04-24 04:00;CYQR 240400Z 26011G16KT 15SM BKN062 08/M02 A2976 RMK SC6 SLP099

CYQR;2011-04-24 05:00;CYQR 240500Z 27007KT 15SM BKN070 07/M01 A2976 RMK AC6 SLP098

CYQR;2011-04-24 06:00;CYQR 240600Z 24007KT 15SM BKN066 06/01 A2976 RMK AC7 SLP093

CYQR;2011-04-24 07:00;CYQR 240700Z 27004KT 15SM BKN064 OVC100 05/00 A2976 RMK SC6AC2 SLP093

CYQR;2011-04-24 08:00;CYQR 240800Z 07002KT 15SM -SHRA SCT035 BKN068 05/02 A2974 RMK SC3AC3 SLP088

CYQR;2011-04-24 08:23;CYQR 240823Z 18006KT 15SM SCT035 BKN068 05/ RMK SC4AC3

CYQR;2011-04-24 09:00;CYQR 240900Z 21005KT 15SM SCT044 BKN100 05/M00 A2973 RMK SC3AC4 SLP083

CYQR;2011-04-24 10:00;CYQR 241000Z 22004KT 15SM SCT044 BKN100 04/01 A2972 RMK SC4AC3 SLP080

CYQR;2011-04-24 11:00;CYQR 241100Z 23008KT 15SM FEW053 01/M01 A2972 RMK SC1 SLP080

CYQR;2011-04-24 12:00;CYQR 241200Z 27008KT 15SM FEW100 FEW280 01/M02 A2972 RMK AC1CI1 SLP082

CYQR;2011-04-24 13:00;CYQR 241300Z 28007KT 15SM FEW280 02/M00 A2973 RMK CI0 SLP085

CYQR;2011-04-24 14:00;CYQR 241400Z 28009KT 15SM FEW280 06/01 A2975 RMK CI1 SLP091

CYQR;2011-04-24 15:00;CYQR 241500Z 28009KT 15SM FEW280 08/00 A2975 RMK CI1 CONTRAILS SLP091

CYQR;2011-04-24 16:00;CYQR 241600Z 30011G17KT 15SM FEW280 11/M03 A2975 RMK CI1 SLP090

CYQR;2011-04-24 17:00;CYQR 241700Z 30011G17KT 15SM FEW280 12/M04 A2975 RMK CI1 CONTRAILS SLP091

CYQR;2011-04-24 18:00;CYQR 241800Z 29009G16KT 15SM FEW060 FEW280 13/M04 A2975 RMK CF1CI1 SLP087

CYQR;2011-04-24 19:00;CYQR 241900Z 29014KT 15SM FEW060 14/M03 A2974 RMK CU1 SLP084

CYQR;2011-04-24 20:00;CYQR 242000Z 30003G15KT 15SM FEW065 15/M04 A2973 RMK CU1 SLP082

CYQR;2011-04-24 21:00;CYQR 242100Z 27007KT 15SM FEW070 15/M03 A2972 RMK AC1 SLP077

CYQR;2011-04-24 22:00;CYQR 242200Z 24005KT 15SM FEW070 16/M04 A2969 RMK AC2 SLP067

CYQR;2011-04-24 23:00;CYQR 242300Z 27006G16KT 15SM BKN078 16/M04 A2968 RMK AC5 SLP064

CYQR;2011-04-25 00:00;CYQR 250000Z 29007KT 15SM BKN088 BKN100 16/M01 A2967 RMK AC6AC1 ACC ASOCTD VIRGA ALQDS SLP063

CYQR;2011-04-25 01:00;CYQR 250100Z 27006KT 15SM BKN077 15/M03 A2966 RMK AC5 SLP061

CYQR;2011-04-25 02:00;CYQR 250200Z 25007KT 15SM BKN090 13/M01 A2966 RMK AC5 SLP061

CYQR;2011-04-25 03:00;CYQR 250300Z 23006KT 15SM SCT092 12/M01 A2968 RMK AC4 SLP064

CYQR;2011-04-25 04:00;CYQR 250400Z 07005KT 15SM FEW092 11/02 A2970 RMK AC2 SLP069

CYQR;2011-04-25 05:00;CYQR 250500Z 10012KT 15SM SKC 08/01 A2971 RMK SLP073

CYQR;2011-04-25 06:00;CYQR 250600Z 10013KT 15SM SKC 07/M00 A2970 RMK SLP071

CYQR;2011-04-25 07:00;CYQR 250700Z 11012KT 15SM SKC 07/00 A2970 RMK SLP070

CYQR;2011-04-25 08:00;CYQR 250800Z 13014KT 15SM SKC 06/00 A2969 RMK SLP068

CYQR;2011-04-25 09:00;CYQR 250900Z 13011KT 15SM SKC 04/00 A2969 RMK SLP068

CYQR;2011-04-25 10:00;CYQR 251000Z 12008KT 15SM SKC 03/00 A2969 RMK SLP068

CYQR;2011-04-25 11:00;CYQR 251100Z 12011KT 15SM FEW090 03/M00 A2969 RMK AC1 SLP067

CYQR;2011-04-25 11:14;CYQR 251114Z 11009KT 15SM FEW090 02/ RMK AC1

CYQR;2011-04-25 12:00;CYQR 251200Z 12008KT 15SM FEW090 02/M01 A2968 RMK AC1 SLP066

CYQR;2011-04-25 13:00;CYQR 251300Z 12007KT 15SM FEW260 03/M00 A2968 RMK CI1 SLP066

CYQR;2011-04-25 14:00;CYQR 251400Z 11008KT 15SM FEW260 05/01 A2968 RMK CI1 SLP066

CYQR;2011-04-25 15:00;CYQR 251500Z 12006KT 15SM FEW260 07/02 A2968 RMK CI1 SLP065

CYQR;2011-04-25 16:00;CYQR 251600Z 12005KT 15SM SKC 10/03 A2967 RMK SLP062

CYQR;2011-04-25 17:00;CYQR 251700Z 12003KT 15SM FEW040 FEW260 12/03 A2967 RMK CU1CI1 SLP060

CYQR;2011-04-25 18:00;CYQR 251800Z 20003KT 15SM FEW050 FEW260 14/02 A2966 RMK CU1CI1 SLP056

CYQR;2011-04-25 19:00;CYQR 251900Z 15006KT 15SM FEW050 16/04 A2964 RMK CU1 SLP050

CYQR;2011-04-25 20:00;CYQR 252000Z 17003KT 15SM FEW060 17/00 A2963 RMK CU1 SLP047

CYQR;2011-04-25 21:00;CYQR 252100Z 16003KT 15SM FEW070 17/M02 A2962 RMK CU2 SLP042

CYQR;2011-04-25 22:00;CYQR 252200Z 16010G16KT 15SM FEW070 18/00 A2961 RMK CU2 SLP038

CYQR;2011-04-25 23:00;CYQR 252300Z CCA 14009KT 15SM FEW070 18/01 A2959 RMK AC2 ACC ASOCTD SLP034

CYQR;2011-04-26 00:00;CYQR 260000Z 14011G16KT 15SM FEW070 FEW260 18/01 A2959 RMK AC1CI1 ACC ASOCTD SLP032

CYQR;2011-04-26 01:00;CYQR 260100Z 11012KT 15SM FEW070 FEW260 17/02 A2958 RMK AC1CI0 SLP029

CYQR;2011-04-26 02:00;CYQR 260200Z 11013G19KT 15SM FEW070 FEW260 14/04 A2958 RMK AC1CI0 SLP030

CYQR;2011-04-26 03:00;CYQR 260300Z 10016KT 15SM FEW260 12/05 A2959 RMK CI0 SLP035

CYQR;2011-04-26 04:00;CYQR 260400Z 10021KT 15SM FEW260 10/06 A2960 RMK CI0 SLP037

CYQR;2011-04-26 05:00;CYQR 260500Z 10018G26KT 15SM FEW260 09/05 A2960 RMK CI0 SLP038

CYQR;2011-04-26 06:00;CYQR 260600Z 11019G27KT 15SM FEW100 08/05 A2960 RMK AC1 SLP036

CYQR;2011-04-26 07:00;CYQR 260700Z 12019KT 15SM FEW100 07/04 A2961 RMK AC1 SLP038

CYQR;2011-04-26 08:00;CYQR 260800Z 12016G22KT 15SM FEW100 07/04 A2961 RMK AC1 SLP037

CYQR;2011-04-26 09:00;CYQR 260900Z 13015KT 15SM FEW100 06/04 A2960 RMK AC1 SLP034

CYQR;2011-04-26 10:00;CYQR 261000Z 13012KT 15SM FEW100 05/04 A2960 RMK AC1 SLP034

CYQR;2011-04-26 11:00;CYQR 261100Z 14013KT 15SM SCT095 06/04 A2960 RMK AC4 SLP035

CYQR;2011-04-26 12:00;CYQR 261200Z 14012KT 15SM SCT071 07/04 A2961 RMK ACC4 VIRGA SLP038

CYQR;2011-04-26 13:00;CYQR 261300Z 14011KT 15SM FEW066 FEW110 FEW280 07/04 A2963 RMK CU1ACC1CI1 TCU + VIRGA NW SLP045

CYQR;2011-04-26 14:00;CYQR 261400Z 15013G18KT 15SM FEW050 FEW110 SCT280 08/05 A2965 RMK CU1ACC1CI0 TCU NW SLP051

CYQR;2011-04-26 15:00;CYQR 261500Z CCA 15013KT 15SM FEW050 FEW110 BKN280 10/06 A2966 RMK CU1AC1CI2 TCU ASOCTD NW SLP055

CYQR;2011-04-26 16:00;CYQR 261600Z 15012KT 15SM FEW110 BKN290 13/08 A2967 RMK AC1CI1 TCU NW SLP058

CYQR;2011-04-26 17:00;CYQR 261700Z 18013KT 15SM FEW028 BKN290 14/07 A2968 RMK CF1CI1 TCU NW SLP062

CYQR;2011-04-26 18:00;CYQR 261800Z 16017G22KT 15SM FEW048 BKN290 16/04 A2970 RMK CU1CI1 TCU N SLP067

CYQR;2011-04-26 19:00;CYQR 261900Z 15017KT 15SM FEW048 BKN290 16/04 A2969 RMK CU1CI2 TCU NW-N SLP066

CYQR;2011-04-26 20:00;CYQR 262000Z 16015G20KT 15SM FEW054 BKN290 16/03 A2970 RMK CU1CI2 TCU ASOCTD SLP069

CYQR;2011-04-26 21:00;CYQR 262100Z 16013G20KT 15SM FEW060 BKN290 16/02 A2970 RMK CU1CI2 SLP070

CYQR;2011-04-26 22:00;CYQR 262200Z 15013G19KT 15SM FEW056 BKN290 16/02 A2971 RMK CU1CI2 TCU S SLP071

CYQR;2011-04-26 23:00;CYQR 262300Z 15014G22KT 15SM FEW052 BKN290 16/03 A2973 RMK CU1CI2 TCU S-SE SLP078

CYQR;2011-04-27 00:00;CYQR 270000Z 17013KT 15SM FEW060 BKN290 16/02 A2975 RMK CU1CI2 SLP085

CYQR;2011-04-27 01:00;CYQR 270100Z 16013KT 15SM FEW060 FEW090 BKN290 15/02 A2976 RMK CU1ACC1CI2 SLP090

CYQR;2011-04-27 02:00;CYQR 270200Z 17013KT 15SM FEW060TCU BKN290 13/05 A2977 RMK TCU1CI2 SLP094

CYQR;2011-04-27 03:00;CYQR 270300Z 17015KT 15SM FEW070 BKN290 12/05 A2981 RMK ACC1CI2 SLP106

CYQR;2011-04-27 04:00;CYQR 270400Z 17018G24KT 15SM BKN290 11/05 A2982 RMK CI2 SLP112

CYQR;2011-04-27 05:00;CYQR 270500Z 20017KT 15SM BKN290 10/05 A2983 RMK CI2 SLP115

CYQR;2011-04-27 06:00;CYQR 270600Z 16008KT 15SM BKN300 09/05 A2984 RMK CI2 SLP116

CYQR;2011-04-27 07:00;CYQR 270700Z 16009KT 15SM BKN300 08/05 A2985 RMK CI2 SLP120

CYQR;2011-04-27 08:00;CYQR 270800Z 16005KT 15SM FEW300 07/04 A2985 RMK CI0 SLP119

CYQR;2011-04-27 09:00;CYQR 270900Z 17007KT 15SM SKC 06/03 A2984 RMK SLP118

CYQR;2011-04-27 10:00;CYQR 271000Z 18005KT 15SM SKC 06/03 A2985 RMK SLP120

CYQR;2011-04-27 11:00;CYQR 271100Z 16007KT 15SM FEW300 05/03 A2986 RMK CI1 SLP123

CYQR;2011-04-27 12:00;CYQR 271200Z 16005KT 15SM BKN300 05/03 A2986 RMK CI2 SLP125

CYQR;2011-04-27 13:00;CYQR 271300Z 16007KT 15SM BKN300 06/04 A2986 RMK CI2 SLP126

CYQR;2011-04-27 14:00;CYQR 271400Z 18009KT 15SM BKN260 07/04 A2987 RMK CI2 SLP127

CYQR;2011-04-27 15:00;CYQR 271500Z 18007KT 15SM OVC260 10/05 A2986 RMK CI6 SLP125

CYQR;2011-04-27 16:00;CYQR 271600Z 17006KT 15SM OVC260 11/06 A2986 RMK CI5 SLP123

CYQR;2011-04-27 17:00;CYQR 271700Z 18006KT 15SM FEW085TCU BKN260 14/06 A2984 RMK TCU1CI5 SLP118

CYQR;2011-04-27 18:00;CYQR 271800Z 18009G15KT 15SM FEW035 BKN260 15/06 A2982 RMK CU1CI5 SLP111

CYQR;2011-04-27 19:00;CYQR 271900Z 22007G16KT 15SM FEW060 BKN290 17/02 A2980 RMK CU2CI2 SLP104

CYQR;2011-04-27 20:00;CYQR 272000Z 17009G17KT 15SM FEW065 BKN290 18/02 A2979 RMK CU2CI2 TCU ASOCTD VIRGA SLP100

CYQR;2011-04-27 21:00;CYQR 272100Z 17011G18KT 15SM VCSH FEW065 BKN290 17/01 A2977 RMK CU2CI1 TCU ASOCTD SLP095

CYQR;2011-04-27 22:00;CYQR 272200Z 19011G17KT 15SM VCSH FEW064TCU BKN290 17/01 A2976 RMK TCU2CI0 VIRGA S-NW SLP089

CYQR;2011-04-27 23:00;CYQR 272300Z CCA 23017G28KT 15SM VCSH SCT069TCU BKN280 16/04 A2976 RMK TCU3CI2 CB ASOCTD MAMMATUS SLP091

CYQR;2011-04-28 00:00;CYQR 280000Z 27005KT 15SM VCSH BKN078TCU BKN280 15/02 A2976 RMK TCU5CI1 CB ASOCTD SHWRS ALQDS SLP093

CYQR;2011-04-28 01:00;CYQR 280100Z 31013KT 15SM VCSH BKN070TCU BKN280 11/06 A2978 RMK TCU5CI1 SHWRS ALQDS CB ASOCTD MAMMATUS SLP098

CYQR;2011-04-28 02:00;CYQR 280200Z 23004KT 15SM BKN051TCU OVC280 11/06 A2979 RMK TCU5CI2 SH S SLP101

CYQR;2011-04-28 03:00;CYQR 280300Z 16006KT 15SM BKN062TCU OVC280 11/06 A2981 RMK TCU5CI2 SLP107

CYQR;2011-04-28 04:00;CYQR 280400Z 23004KT 15SM BKN044 OVC096 10/07 A2980 RMK SC6AC2 SLP105

CYQR;2011-04-28 05:00;CYQR 280500Z 23005KT 15SM BKN054 OVC093 09/06 A2979 RMK SC5AC3 SLP102

CYQR;2011-04-28 06:00;CYQR 280600Z 19006KT 15SM SCT062 08/06 A2978 RMK SC3 SLP097

CYQR;2011-04-28 07:00;CYQR 280700Z 24008KT 15SM FEW055 06/05 A2978 RMK SC1 SLP096

CYQR;2011-04-28 08:00;CYQR 280800Z 21007KT 15SM SKC 05/03 A2976 RMK SLP091

CYQR;2011-04-28 09:00;CYQR 280900Z 20007KT 15SM SKC 05/04 A2975 RMK SLP087

CYQR;2011-04-28 10:00;CYQR 281000Z 24008KT 15SM SKC 04/02 A2975 RMK SLP086

CYQR;2011-04-28 11:00;CYQR 281100Z 22006KT 15SM FEW280 03/01 A2975 RMK CI0 SLP085

CYQR;2011-04-28 12:00;CYQR 281200Z 22005KT 15SM FEW085 FEW280 02/M00 A2974 RMK AC1CI1 SLP088

CYQR;2011-04-28 13:00;CYQR 281300Z 23002KT 15SM FEW090 SCT280 04/01 A2975 RMK AC1CI0 SLP091

CYQR;2011-04-28 14:00;CYQR 281400Z 25006KT 15SM FEW090 SCT280 08/03 A2975 RMK AC1CI0 SLP091

CYQR;2011-04-28 15:00;CYQR 281500Z 26006KT 15SM FEW090 SCT240 BKN290 11/02 A2975 RMK AC1CI1CI0 SLP085

CYQR;2011-04-28 16:00;CYQR 281600Z 22005KT 15SM FEW090 SCT240 BKN290 12/01 A2973 RMK AC1CI2CI1 SLP081

CYQR;2011-04-28 17:00;CYQR 281700Z 20012KT 15SM BKN079 BKN240 13/01 A2972 RMK AC2CI5 SLP078

CYQR;2011-04-28 18:00;CYQR 281800Z 22009KT 15SM BKN100 OVC240 15/M00 A2970 RMK AC5CI2 VIRGA SLP070

CYQR;2011-04-28 19:00;CYQR 281900Z 26008KT 15SM FEW072 BKN086 OVC240 16/M03 A2967 RMK CU1AC7CI1 CU TR SLP060

CYQR;2011-04-28 20:00;CYQR 282000Z 20007KT 15SM FEW050 BKN090 OVC240 16/M02 A2964 RMK SC2AC6CI1 VIRGA SLP050

CYQR;2011-04-28 21:00;CYQR 282100Z 16009G18KT 15SM -SHRA BKN022 BKN091 OVC240 15/M02 A2962 RMK SC5AC2CI1 CVCTV CLD ASOCTD SLP044

CYQR;2011-04-28 22:00;CYQR 282200Z 18007KT 15SM SCT038 BKN074 OVC090 16/M00 A2958 RMK SC3AC4AC1 OCNL -SHRA SC BASES RAG SLP031

CYQR;2011-04-28 22:20;CYQR 282220Z 27026G31KT 15SM -SHRA BKN044 BKN070 OVC230 13/ RMK SC5AC2CI1 WND SHFT 2206 CVCTV CLD EMBD

CYQR;2011-04-28 23:00;CYQR 282300Z 23005KT 15SM FEW037 FEW055 BKN061TCU OVC230 16/02 A2957 RMK SC1SC2TCU3CI2 SLP028

CYQR;2011-04-29 00:00;CYQR 290000Z 25016G22KT 15SM FEW040 FEW060 SCT080 BKN230 OVC280 16/00 A2957 RMK SC1SC2ACC2CI2CI1 SLP028

CYQR;2011-04-29 01:00;CYQR 290100Z 34013G18KT 15SM FEW040 SCT092 BKN230 BKN280 13/03 A2958 RMK SC1AC2CI2CI1 SLP031

CYQR;2011-04-29 02:00;CYQR 290200Z 33003KT 15SM FEW099 BKN280 11/04 A2959 RMK AC2CI3 SLP034

CYQR;2011-04-29 03:00;CYQR 290300Z 21006KT 15SM BKN094 09/04 A2959 RMK AC6 SLP034

CYQR;2011-04-29 04:00;CYQR 290400Z 20008KT 15SM OVC110 08/03 A2960 RMK AC8 SLP037

CYQR;2011-04-29 05:00;CYQR 290500Z 21009KT 15SM BKN110 OVC280 07/01 A2958 RMK AC5CI2 SLP031

CYQR;2011-04-29 06:00;CYQR 290600Z 24007KT 15SM SCT090 OVC280 06/00 A2958 RMK AC4CI2 SLP028

CYQR;2011-04-29 07:00;CYQR 290700Z 24007KT 15SM BKN092 OVC280 06/M01 A2957 RMK AC6CI2 SLP027

CYQR;2011-04-29 08:00;CYQR 290800Z 21010KT 15SM SCT092 OVC280 06/M00 A2959 RMK AC4CI4 SLP032

CYQR;2011-04-29 09:00;CYQR 290900Z 21006KT 15SM OVC092 06/M00 A2957 RMK AC8 SLP026

CYQR;2011-04-29 10:00;CYQR 291000Z 26009KT 15SM OVC067 05/M01 A2957 RMK AC8 SLP026

CYQR;2011-04-29 11:00;CYQR 291100Z 26006KT 15SM FEW067 BKN110 04/M01 A2957 RMK AC2AC5 SLP025

CYQR;2011-04-29 12:00;CYQR 291200Z 27008KT 15SM FEW080 BKN280 02/M01 A2958 RMK AC2CI1 SLP031

CYQR;2011-04-29 13:00;CYQR 291300Z 30007KT 15SM BKN088 BKN280 04/00 A2959 RMK AC6CI1 SLP035

CYQR;2011-04-29 14:00;CYQR 291400Z 31009KT 15SM BKN079 BKN280 04/01 A2957 RMK ACC5CI2 SLP029

CYQR;2011-04-29 15:00;CYQR 291500Z 29007KT 15SM BKN095 OVC280 06/02 A2959 RMK ACC6CI1 SLP037

CYQR;2011-04-29 16:00;CYQR 291600Z 29006KT 15SM FEW020 BKN093 OVC260 08/03 A2959 RMK CU1AC2CI1 SLP036

CYQR;2011-04-29 17:00;CYQR 291700Z 34002KT 15SM FEW028 SCT090 OVC260 10/02 A2960 RMK CU1AC1CI2 SLP040

CYQR;2011-04-29 18:00;CYQR 291800Z 34007KT 15SM FEW040 BKN230 11/01 A2960 RMK CU1CI6 SLP038

CYQR;2011-04-29 19:00;CYQR 291900Z 35011KT 15SM FEW048 BKN230 12/00 A2959 RMK CU2CI1 SLP035

CYQR;2011-04-29 20:00;CYQR 292000Z 36012G18KT 15SM SCT054 BKN230 14/M01 A2959 RMK CU4CI1 SLP035

CYQR;2011-04-29 21:00;CYQR 292100Z 36016G22KT 15SM BKN061 OVC230 12/M00 A2958 RMK CU5CI1 SLP032

CYQR;2011-04-29 22:00;CYQR 292200Z 01022G27KT 15SM SCT059 BKN087 OVC230 11/01 A2960 RMK CU4ACC2CI1 SLP037

CYQR;2011-04-29 23:00;CYQR 292300Z 36027G38KT 15SM FEW028 SCT054 BKN079 OVC230 08/03 A2963 RMK SC1SC2ACC3CI1 SLP047

CYQR;2011-04-30 00:00;CYQR 300000Z 01025G32KT 15SM BKN016 OVC056 06/01 A2967 RMK SC6SC2 SLP069

CYQR;2011-04-30 00:52;CYQR 300052Z 01022G32KT 15SM OVC014 05/ RMK SC8

CYQR;2011-04-30 01:00;CYQR 300100Z 01023G32KT 15SM OVC014 05/01 A2968 RMK SC8 SLP072

CYQR;2011-04-30 02:00;CYQR 300200Z 01028G33KT 15SM OVC014 04/00 A2969 RMK SC8 SLP076

CYQR;2011-04-30 03:00;CYQR 300300Z 02023G33KT 15SM -SHRA OVC014 03/00 A2971 RMK SC8 SLP081

CYQR;2011-04-30 04:00;CYQR 300400Z 01027G37KT 12SM -SHRA OVC014 03/M01 A2972 RMK SC8 SLP085

CYQR;2011-04-30 05:00;CYQR 300500Z 01031G38KT 15SM -SHRA OVC014 03/M02 A2972 RMK SC8 SLP086

CYQR;2011-04-30 05:20;CYQR 300520Z 01026G33KT 15SM BKN014 BKN058 02/ RMK SC6SC2

CYQR;2011-04-30 06:00;CYQR 300600Z 02021G31KT 15SM BKN051 03/M03 A2973 RMK SC7 SLP085

CYQR;2011-04-30 07:00;CYQR 300700Z 02021G36KT 15SM SCT050 OVC087 03/M04 A2974 RMK SC4AC4 SLP089

CYQR;2011-04-30 07:43;CYQR 300743Z 02021G34KT 15SM FEW050 OVC087 02/ RMK SC2AC6

CYQR;2011-04-30 08:00;CYQR 300800Z 01023G34KT 15SM SCT050 OVC089 02/M05 A2975 RMK SC3AC5 SLP091

CYQR;2011-04-30 09:00;CYQR 300900Z 01032G38KT 15SM FEW050 OVC110 02/M07 A2974 RMK SC2AC6 SLP088

CYQR;2011-04-30 10:00;CYQR 301000Z CCA 01025G33KT 15SM FEW050 OVC110 02/M06 A2976 WS RWY31 RMK SC2AC6 SLP096

CYQR;2011-04-30 11:00;CYQR 301100Z 36024G34KT 15SM FEW050 OVC110 01/M07 A2979 RMK SC2AC6 SLP103

CYQR;2011-04-30 12:00;CYQR 301200Z 36026G32KT 15SM FEW050 OVC110 01/M06 A2978 RMK SC2AC6 SLP109

CYQR;2011-04-30 13:00;CYQR 301300Z 36023G31KT 15SM FEW050 OVC110 00/M06 A2981 RMK SC2AC6 SLP116

CYQR;2011-04-30 14:00;CYQR 301400Z 01027G32KT 15SM FEW030 OVC110 01/M07 A2981 RMK CU1AC8 SLP117

CYQR;2011-04-30 15:00;CYQR 301500Z 01032G41KT 15SM FEW031 OVC110 01/M07 A2982 RMK CF2AS6 SLP123

CYQR;2011-04-30 16:00;CYQR 301600Z 01034G40KT 15SM FEW029 OVC097 01/M08 A2985 RMK CU2AS6 SLP131

CYQR;2011-04-30 17:00;CYQR 301700Z 36031G41KT 15SM FEW035 BKN077 OVC210 02/M08 A2984 RMK CU1AS6CI2 SLP130

CYQR;2011-04-30 18:00;CYQR 301800Z 36029G40KT 15SM FEW020 BKN076 OVC210 01/M07 A2984 RMK SC1AS6CI2 SLP130

CYQR;2011-04-30 19:00;CYQR 301900Z 36031G38KT 15SM FEW020 FEW070 OVC095 03/M07 A2984 RMK SC1AC2AS6 SLP130

CYQR;2011-04-30 20:00;CYQR 302000Z 36032G39KT 15SM FEW020 BKN095 OVC210 03/M08 A2985 RMK CU1AS2CS6 SLP134

CYQR;2011-04-30 21:00;CYQR 302100Z 36032G39KT 15SM FEW020 OVC210 04/M08 A2986 RMK CU1CS7 SLP133

CYQR;2011-04-30 22:00;CYQR 302200Z 01027G38KT 15SM FEW020 SCT091 OVC210 05/M08 A2986 RMK SC1AC2CS4 SLP133

CYQR;2011-04-30 23:00;CYQR 302300Z 01029G36KT 15SM FEW020 OVC210 05/M09 A2986 RMK SC1CS6 SLP135

CYQR;2011-05-01 01:00;CYQR 010100Z 36024G33KT 15SM FEW020 OVC210 05/M08 A2987 RMK SC1CS6 SLP139

CYQR;2011-05-01 02:00;CYQR 010200Z 01019G26KT 15SM FEW100 BKN250 04/M07 A2989 RMK AC1CI2 SLP144

CYQR;2011-05-01 03:00;CYQR 010300Z 36013KT 15SM BKN250 02/M06 A2990 RMK CI3 SLP151

CYQR;2011-05-01 04:00;CYQR 010400Z 35011KT 15SM SCT250 01/M06 A2990 RMK CI2 SLP151

CYQR;2011-05-01 05:00;CYQR 010500Z 34010KT 15SM FEW250 M01/M06 A2991 RMK CI1 SLP153

CYQR;2011-05-01 06:00;CYQR 010600Z 34012KT 15SM FEW250 M01/M06 A2991 RMK CI0 SLP157

CYQR;2011-05-01 07:00;CYQR 010700Z 34012KT 15SM SKC M01/M06 A2992 RMK SLP159

CYQR;2011-05-01 08:00;CYQR 010800Z 34012KT 15SM SKC M02/M07 A2992 RMK SLP160

CYQR;2011-05-01 09:00;CYQR 010900Z 32012KT 15SM SKC M02/M07 A2993 RMK SLP164

CYQR;2011-05-01 10:00;CYQR 011000Z 32014KT 15SM SKC M02/M07 A2995 RMK SLP168

CYQR;2011-05-01 11:00;CYQR 011100Z 33013KT 15SM FEW250 M02/M07 A2995 RMK CI1 SLP170

CYQR;2011-05-01 12:00;CYQR 011200Z 32010KT 15SM FEW100 BKN250 M03/M07 A2997 RMK AC1CI1 SLP175

CYQR;2011-05-01 13:00;CYQR 011300Z 32012KT 15SM FEW100 SCT270 M01/M06 A2999 RMK AC1CI0 SLP181

CYQR;2011-05-01 14:00;CYQR 011400Z 35019G24KT 15SM FEW025 FEW240 01/M07 A3000 RMK SC1CI1 SLP187

CYQR;2011-05-01 15:00;CYQR 011500Z 35018G26KT 15SM FEW070 BKN240 03/M08 A3001 RMK ACC1CI1 SLP188

CYQR;2011-05-01 16:00;CYQR 011600Z 35023G28KT 15SM FEW025 SCT280 05/M08 A3003 RMK CU1CI0 SLP193

CYQR;2011-05-01 17:00;CYQR 011700Z 34022G32KT 15SM FEW035 FEW260 07/M07 A3004 RMK CU1CI0 SLP197

CYQR;2011-05-01 18:00;CYQR 011800Z 36025G32KT 15SM FEW050 SCT260 07/M08 A3005 RMK CU1CI0 SLP199

CYQR;2011-05-01 19:00;CYQR 011900Z 34025G32KT 15SM FEW061 08/M06 A3005 RMK CU2 SLP201

CYQR;2011-05-01 20:00;CYQR 012000Z 35022G28KT 15SM FEW062 09/M07 A3006 RMK CU1 SLP205

CYQR;2011-05-01 21:00;CYQR 012100Z 35019G30KT 15SM FEW064 FEW250 10/M06 A3007 RMK CU1CI1 CI TR SLP207

CYQR;2011-05-01 22:00;CYQR 012200Z 35018G25KT 15SM FEW065 10/M06 A3007 RMK CU1 SLP208

CYQR;2011-05-01 23:00;CYQR 012300Z 36019G29KT 15SM FEW065 10/M06 A3008 RMK CU1 SLP211

CYQR;2011-05-02 00:00;CYQR 020000Z 36013G24KT 15SM FEW060 10/M07 A3010 RMK CU1 SLP216

CYQR;2011-05-02 01:00;CYQR 020100Z 01010G16KT 15SM SKC 09/M07 A3012 RMK SLP224

CYQR;2011-05-02 02:00;CYQR 020200Z 02010KT 15SM SKC 07/M07 A3014 RMK SLP231

CYQR;2011-05-02 03:00;CYQR 020300Z 03007KT 15SM FEW100 03/M07 A3017 RMK AC1 SLP241

CYQR;2011-05-02 04:00;CYQR 020400Z 06006KT 15SM SKC 03/M06 A3018 RMK SLP246

CYQR;2011-05-02 05:00;CYQR 020500Z 12003KT 15SM SKC 03/M06 A3019 RMK SLP249

CYQR;2011-05-02 06:00;CYQR 020600Z 18006KT 15SM SKC M00/M05 A3020 RMK SLP253

CYQR;2011-05-02 07:00;CYQR 020700Z 16006KT 15SM SKC M01/M05 A3021 RMK SLP256

CYQR;2011-05-02 08:00;CYQR 020800Z 18008KT 15SM SKC M01/M05 A3022 RMK SLP257

CYQR;2011-05-02 09:00;CYQR 020900Z 19007KT 15SM SKC M02/M06 A3022 RMK SLP258

CYQR;2011-05-02 10:00;CYQR 021000Z 20006KT 15SM SKC M03/M06 A3023 RMK SLP260

CYQR;2011-05-02 11:00;CYQR 021100Z 19008KT 15SM FEW020 FEW070 M02/M06 A3022 RMK SC1AC1 SLP258

CYQR;2011-05-02 12:00;CYQR 021200Z 17008KT 15SM FEW025 FEW070 M00/M05 A3022 RMK SC1AC1 VIRGA SW SLP257

CYQR;2011-05-02 13:00;CYQR 021300Z 17010KT 15SM FEW025 02/M04 A3022 RMK SC1 SLP256

CYQR;2011-05-02 14:00;CYQR 021400Z 19011KT 15SM FEW025 FEW100 06/M03 A3022 RMK SC1AC1 SLP258

CYQR;2011-05-02 15:00;CYQR 021500Z 18010KT 15SM FEW280 09/M02 A3022 RMK CI0 SLP254

CYQR;2011-05-02 16:00;CYQR 021600Z 20015KT 15SM FEW280 12/M03 A3020 RMK CI0 SLP247

CYQR;2011-05-02 17:00;CYQR 021700Z 22009G16KT 15SM SCT060 BKN280 14/M02 A3017 RMK CU4CI0 SLP239

CYQR;2011-05-02 18:00;CYQR 021800Z 23015KT 15SM BKN064 BKN280 14/M03 A3015 RMK CU6CI1 SLP231

CYQR;2011-05-02 19:00;CYQR 021900Z 23012G19KT 15SM BKN074 BKN110 14/M02 A3014 RMK CU5AC2 SLP225

CYQR;2011-05-02 20:00;CYQR 022000Z 21010G20KT 15SM BKN072 BKN240 15/M03 A3011 RMK CU6CI1 SLP218

CYQR;2011-05-02 21:00;CYQR 022100Z 24011G18KT 15SM BKN080 BKN250 15/M03 A3009 RMK CU6CI1 SLP210

CYQR;2011-05-02 22:00;CYQR 022200Z 24009KT 15SM BKN080 BKN250 15/M03 A3007 RMK CU5CI0 SLP204

CYQR;2011-05-02 23:00;CYQR 022300Z 24012G17KT 15SM SCT084 17/M03 A3005 RMK CU3 SLP198

CYQR;2011-05-03 00:00;CYQR 030000Z 22014KT 15SM SCT084 17/M03 A3004 RMK CU3 SLP189

CYQR;2011-05-03 01:00;CYQR 030100Z 22010KT 15SM SCT073 SCT250 15/M03 A3001 RMK CU3CI1 SLP182

CYQR;2011-05-03 02:00;CYQR 030200Z 18009KT 15SM FEW070 SCT250 11/M00 A3000 RMK AC2CI0 SLP179

CYQR;2011-05-03 03:00;CYQR 030300Z 17018KT 14SM SCT080 BKN250 10/02 A3001 RMK AC2CI1 SLP179

CYQR;2011-05-03 04:00;CYQR 030400Z 18017G25KT 15SM FEW080 FEW250 09/01 A3002 RMK AC1CI0 SLP181

CYQR;2011-05-03 05:00;CYQR 030500Z 17014KT 15SM FEW090 07/01 A3002 RMK AC1 SLP180

CYQR;2011-05-03 06:00;CYQR 030600Z 15011KT 15SM FEW090 07/01 A3002 RMK AC1 SLP180

CYQR;2011-05-03 07:00;CYQR 030700Z 15010KT 15SM SCT120 BKN250 07/01 A3001 RMK AC2CI2 SLP178

CYQR;2011-05-03 08:00;CYQR 030800Z 14009KT 15SM FEW120 BKN250 05/01 A3000 RMK AC1CI2 SLP173

CYQR;2011-05-03 09:00;CYQR 030900Z 13008KT 15SM FEW250 04/M00 A2999 RMK CI1 SLP170

CYQR;2011-05-03 10:00;CYQR 031000Z 13009KT 15SM FEW250 03/M00 A2998 RMK CI1 SLP168

CYQR;2011-05-03 11:00;CYQR 031100Z 13009KT 15SM FEW120 SCT250 02/M01 A2997 RMK AC1CI0 SLP164

CYQR;2011-05-03 12:00;CYQR 031200Z 13010KT 15SM FEW120 SCT230 BKN270 03/M00 A2996 RMK AC1CI2CI1 CONTRAILS SLP159

CYQR;2011-05-03 13:00;CYQR 031300Z 16010KT 15SM BKN270 05/01 A2996 RMK CI2 SLP161

CYQR;2011-05-03 14:00;CYQR 031400Z 16011KT 15SM BKN280 08/02 A2995 RMK CI2 SLP156

CYQR;2011-05-03 15:00;CYQR 031500Z 16013KT 15SM BKN280 11/02 A2993 RMK CI1 SLP150

CYQR;2011-05-03 16:00;CYQR 031600Z 16020KT 15SM BKN280 15/03 A2991 RMK CI1 SLP143

CYQR;2011-05-03 17:00;CYQR 031700Z 16020G27KT 15SM BKN280 17/01 A2988 RMK CI2 SLP134

CYQR;2011-05-03 18:00;CYQR 031800Z 16024G29KT 15SM OVC280 17/02 A2988 RMK CI2 SLP129

CYQR;2011-05-03 19:00;CYQR 031900Z 16024G34KT 15SM OVC280 18/02 A2986 RMK CI3 SLP124

CYQR;2011-05-03 20:00;CYQR 032000Z 15021G30KT 15SM FEW050 FEW120 OVC280 19/02 A2983 RMK CU1AC1CI3 SLP115

CYQR;2011-05-03 21:00;CYQR 032100Z 19022G32KT 15SM FEW076 FEW120 OVC280 21/02 A2982 RMK CU1AC1CI3 SLP109

CYQR;2011-05-03 22:00;CYQR 032200Z 24018G28KT 15SM FEW070 SCT140 OVC280 19/02 A2983 RMK CU1AC2CI4 SLP113

CYQR;2011-05-03 23:00;CYQR 032300Z 23016G22KT 15SM FEW070 BKN120 OVC280 18/04 A2983 RMK CU2AC5CI2 SLP113

CYQR;2011-05-03 23:14;CYQR 032314Z 24020G25KT 15SM -SHRA FEW065 BKN120 OVC280 15/ RMK CU2AC5CI1

CYQR;2011-05-04 00:00;CYQR 040000Z 24018G24KT 15SM -SHRA FEW050 BKN120 OVC280 15/02 A2985 RMK CU2AC5CI1 SLP124

CYQR;2011-05-04 00:22;CYQR 040022Z 24019G28KT 15SM BKN050 BKN100 OVC280 15/ RMK SC5AC2CI1 CU ASOCTD

CYQR;2011-05-04 01:00;CYQR 040100Z 23016G21KT 15SM FEW059 SCT095 BKN280 14/00 A2985 RMK SC2AC2CI2 SLP125

CYQR;2011-05-04 02:00;CYQR 040200Z 25013G18KT 15SM FEW060 SCT092 BKN280 13/M00 A2985 RMK SC1AC3CI2 SLP125

CYQR;2011-05-04 03:00;CYQR 040300Z 24007KT 15SM FEW050 FEW085 SCT280 07/M01 A2986 RMK SC1AC1CI0 SLP125

CYQR;2011-05-04 04:00;CYQR 040400Z 21005KT 15SM FEW050 FEW086 07/M00 A2985 RMK SC1AC2 SLP123

CYQR;2011-05-04 05:00;CYQR 040500Z 23014KT 15SM FEW090 07/01 A2985 RMK AC1 SLP123

CYQR;2011-05-04 06:00;CYQR 040600Z 21014KT 15SM BKN092 07/02 A2984 RMK AC5 SLP115

CYQR;2011-05-04 07:00;CYQR 040700Z 21009KT 15SM FEW080 05/02 A2982 RMK AC2 SLP109

CYQR;2011-05-04 08:00;CYQR 040800Z 21009KT 15SM BKN016 06/03 A2981 RMK SC6 SLP105

CYQR;2011-05-04 09:00;CYQR 040900Z 25012KT 15SM OVC014 06/04 A2980 RMK SC8 SLP102

CYQR;2011-05-04 09:23;CYQR 040923Z 26015KT 15SM FEW009 OVC015 06/ RMK SF2SC6

CYQR;2011-05-04 09:30;CYQR 040930Z 27016KT 15SM -SHRA BKN008 OVC015 06/ RMK SF6SC2

CYQR;2011-05-04 09:48;CYQR 040948Z 30017KT 15SM -SHRA SCT008 OVC016 06/ RMK SF4SC4

CYQR;2011-05-04 10:00;CYQR 041000Z 31015KT 15SM SCT009 OVC013 06/05 A2982 RMK SF4SC4 SLP109

CYQR;2011-05-04 10:47;CYQR 041047Z 31022KT 15SM FEW011 BKN050 BKN100 06/ RMK SC2SC4AC1

CYQR;2011-05-04 12:00;CYQR 041200Z 26012KT 15SM FEW028 SCT075 04/02 A2989 RMK SC2AC1 SLP137

CYQR;2011-05-04 13:00;CYQR 041300Z 27013KT 15SM FEW012 FEW030 FEW300 06/03 A2991 RMK CF1SC1CI1 SLP142

CYQR;2011-05-04 14:00;CYQR 041400Z 27021G26KT 15SM FEW015 FEW030 FEW300 08/03 A2991 RMK CF1SC1CI0 SLP145

CYQR;2011-05-04 15:00;CYQR 041500Z 28020G27KT 15SM FEW300 10/02 A2992 RMK CI0 SLP147

CYQR;2011-05-04 16:00;CYQR 041600Z 27021G30KT 15SM FEW060 FEW300 11/03 A2994 RMK SC1CI1 SLP153

CYQR;2011-05-04 17:00;CYQR 041700Z 29028KT 15SM FEW043 FEW300 13/02 A2994 RMK CU1CI1 SLP153

CYQR;2011-05-04 18:00;CYQR 041800Z 30026G36KT 15SM BKN054 14/01 A2994 RMK CU5 SLP152

CYQR;2011-05-04 19:00;CYQR 041900Z 29030G39KT 15SM BKN055 14/01 A2993 RMK CU7 TCU ASOCTD SLP150

CYQR;2011-05-04 20:00;CYQR 042000Z 30031G40KT 15SM -SHRA BKN050 12/01 A2994 RMK CU7 TCU EMBD SLP153

CYQR;2011-05-04 20:19;CYQR 042019Z CCA 30024G33KT 15SM VCSH BKN050 13/ RMK CU7 TCU EMBD

CYQR;2011-05-04 21:00;CYQR 042100Z 33018G27KT 15SM VCSH BKN060 11/03 A2996 RMK CU7 TCU EMBD SLP162

CYQR;2011-05-04 21:20;CYQR 042120Z 30026G33KT 12SM -SHRA BKN050TCU 11/ RMK TCU7

CYQR;2011-05-04 21:50;CYQR 042150Z 30020G31KT 15SM VCSH BKN050TCU BKN090 BKN300 08/ RMK TCU5AC1CI2

CYQR;2011-05-04 22:00;CYQR 042200Z 30021KT 15SM SCT050TCU BKN300 10/06 A2997 RMK TCU3CI1 SLP166

CYQR;2011-05-04 23:00;CYQR 042300Z 33023G32KT 15SM BKN064 BKN300 10/04 A2999 RMK SC5CI2 TCU ASOCTD SLP172

CYQR;2011-05-04 23:25;CYQR 042325Z 35022G27KT 15SM -SHRA BKN060 08/ RMK SC7 TCU EMBD

CYQR;2011-05-05 00:00;CYQR 050000Z 34015G21KT 12SM -SHRA OVC020 06/05 A3004 RMK SC8 TCU EMBD PRESRR SLP194

CYQR;2011-05-05 00:24;CYQR 050024Z 29011KT 15SM BKN022 BKN099 OVC300 07/ RMK SC5AC1CI1

CYQR;2011-05-05 00:38;CYQR 050038Z 28009KT 15SM -SHRA BKN022 BKN100 OVC300 07/ RMK SC6AC1CI1 TCU EMBD

CYQR;2011-05-05 01:00;CYQR 050100Z 30006KT 15SM -SHRA BKN013 BKN066 OVC300 07/06 A3002 RMK SC6ACC1CI1 TCU ASOCTD SLP189

CYQR;2011-05-05 01:20;CYQR 050120Z 25005KT 15SM FEW013 OVC300 07/ RMK SC2CI3

CYQR;2011-05-05 02:00;CYQR 050200Z 20005KT 15SM FEW013 FEW077 BKN280 07/05 A3001 RMK SC1ACC2CI1 SLP186

CYQR;2011-05-05 03:00;CYQR 050300Z 22006KT 15SM SCT081 05/03 A3002 RMK AC3 SLP186

CYQR;2011-05-05 04:00;CYQR 050400Z 23008KT 15SM SCT097 04/03 A3003 RMK AC3 SLP187

CYQR;2011-05-05 05:00;CYQR 050500Z 25009KT 15SM FEW095 04/02 A3002 RMK AC2 SLP184

CYQR;2011-05-05 06:00;CYQR 050600Z 26010KT 15SM SCT091 04/01 A3001 RMK AC3 SLP181

CYQR;2011-05-05 07:00;CYQR 050700Z 27009KT 15SM FEW090 02/M00 A3002 RMK AC2 SLP182

CYQR;2011-05-05 08:00;CYQR 050800Z 27009KT 15SM FEW090 01/M01 A3001 RMK AC2 SLP181

CYQR;2011-05-05 09:00;CYQR 050900Z 27009KT 15SM FEW090 01/M02 A3001 RMK AC2 SLP183

CYQR;2011-05-05 10:00;CYQR 051000Z 26009KT 15SM FEW090 01/M02 A3000 RMK AC2 SLP181

CYQR;2011-05-05 11:00;CYQR 051100Z 28003KT 15SM SKC M00/M03 A3001 RMK SLP183

CYQR;2011-05-05 12:00;CYQR 051200Z 00000KT 15SM FEW090 M00/M03 A3000 RMK AC1 SLP185

CYQR;2011-05-05 13:00;CYQR 051300Z 22002KT 15SM FEW260 02/M01 A3000 RMK CI0 SLP183

CYQR;2011-05-05 14:00;CYQR 051400Z 27005KT 15SM FEW260 07/03 A2999 RMK CI0 SLP181

CYQR;2011-05-05 15:00;CYQR 051500Z 27006KT 15SM SCT260 10/04 A2998 RMK CI0 SLP172

CYQR;2011-05-05 16:00;CYQR 051600Z 25005KT 15SM FEW300 13/04 A2996 RMK CI0 SLP166

CYQR;2011-05-05 17:00;CYQR 051700Z 26005KT 15SM BKN300 15/03 A2994 RMK CI1 SLP159

CYQR;2011-05-05 18:00;CYQR 051800Z 28008KT 15SM FEW070 BKN300 17/M00 A2991 RMK CF1CI1 SLP144

CYQR;2011-05-05 19:00;CYQR 051900Z 00000KT 15SM FEW075 BKN300 17/M01 A2989 RMK CU1CI1 SLP135

CYQR;2011-05-05 20:00;CYQR 052000Z 26010KT 15SM FEW080 BKN300 19/M01 A2986 RMK CU1CI2 SLP125

CYQR;2011-05-05 21:00;CYQR 052100Z 28013G19KT 15SM FEW070 BKN300 21/M00 A2983 RMK CU2CI2 SLP113

CYQR;2011-05-05 22:00;CYQR 052200Z 27006KT 15SM FEW070 BKN300 20/M02 A2980 RMK CU2CI2 SLP105

CYQR;2011-05-05 23:00;CYQR 052300Z 24009G15KT 15SM SCT080 OVC300 20/M02 A2978 RMK CU3CI4 SLP097

CYQR;2011-05-06 00:00;CYQR 060000Z 23011KT 15SM FEW080 BKN150 OVC300 19/M02 A2976 RMK AC2AS3CI2 SLP091

CYQR;2011-05-06 01:00;CYQR 060100Z 19005KT 15SM FEW088 BKN160 OVC300 17/M00 A2974 RMK AC2AS4CI2 SLP086

CYQR;2011-05-06 02:00;CYQR 060200Z 17004KT 15SM FEW090 BKN160 OVC280 16/01 A2972 RMK AC2AS4CI1 SLP079

CYQR;2011-05-06 03:00;CYQR 060300Z 15006KT 15SM FEW076 SCT160 BKN280 14/00 A2971 RMK AC1AC3CI2 SLP071

CYQR;2011-05-06 04:00;CYQR 060400Z 14007KT 15SM FEW080 SCT160 BKN280 13/03 A2969 RMK AC1AC3CI2 SLP066

CYQR;2011-05-06 05:00;CYQR 060500Z 14009KT 15SM FEW080 SCT160 BKN280 10/04 A2967 RMK AC1AC3CI2 SLP059

CYQR;2011-05-06 06:00;CYQR 060600Z 16008KT 15SM FEW120 BKN260 10/05 A2965 RMK AC2CI2 SLP049

CYQR;2011-05-06 07:00;CYQR 060700Z 15007KT 15SM FEW090 BKN260 09/04 A2963 RMK AC2CI2 SLP042

CYQR;2011-05-06 08:00;CYQR 060800Z 14007KT 15SM FEW090 BKN260 08/04 A2961 RMK AC2CI2 SLP037

CYQR;2011-05-06 09:00;CYQR 060900Z 18009KT 15SM FEW090 BKN260 08/02 A2960 RMK AC2CI2 SLP031

CYQR;2011-05-06 10:00;CYQR 061000Z 25004KT 15SM FEW090 BKN260 08/02 A2960 RMK AC2CI2 SLP029

CYQR;2011-05-06 11:00;CYQR 061100Z 26012KT 15SM SCT081 BKN260 10/03 A2959 RMK AC4CI2 SLP028

CYQR;2011-05-06 11:46;CYQR 061146Z 27005KT 15SM -SHRA FEW037 SCT080 BKN260 09/ RMK SC1AC3CI2 ACC ASOCTD

CYQR;2011-05-06 12:00;CYQR 061200Z 26005KT 15SM -SHRA SCT037 SCT080 BKN260 09/03 A2959 RMK SC4AC1CI2 SLP029

CYQR;2011-05-06 12:25;CYQR 061225Z 26006KT 15SM SCT037 BKN260 10/ RMK SC3CI1 TCU ASOCTD VIRGA

CYQR;2011-05-06 13:00;CYQR 061300Z 26013KT 15SM FEW035 FEW073 BKN260 09/03 A2960 RMK SC1AC2CI1 CVCTV CLD EMBD VIRGA SLP031

CYQR;2011-05-06 14:00;CYQR 061400Z 27017KT 15SM FEW080 FEW260 12/05 A2959 RMK AC1CI0 SLP027

CYQR;2011-05-06 15:00;CYQR 061500Z 28020KT 15SM FEW080 FEW260 14/06 A2958 RMK AC1CI1 SLP026

CYQR;2011-05-06 16:00;CYQR 061600Z 29019G27KT 15SM FEW040 FEW075 FEW120 FEW260 15/05 A2959 RMK CU1AC1AC1CI0 SLP028

CYQR;2011-05-06 17:00;CYQR 061700Z 30017G22KT 15SM FEW045 SCT071 SCT260 16/06 A2959 RMK CU2AC1CI0 SLP029

CYQR;2011-05-06 18:00;CYQR 061800Z 29019KT 15SM BKN043 BKN260 14/05 A2960 RMK CU5CI1 SLP035

CYQR;2011-05-06 19:00;CYQR 061900Z 30016G22KT 15SM SCT041 BKN260 14/06 A2960 RMK CU4CI1 TCU ASOCTD SLP035

CYQR;2011-05-06 20:00;CYQR 062000Z 30022KT 15SM SCT039 BKN081 BKN260 15/06 A2961 RMK CU3AC2CI1 TCU ASOCTD SLP037

CYQR;2011-05-06 21:00;CYQR 062100Z 30017G22KT 15SM BKN037 BKN260 14/06 A2961 RMK CU5CI1 SLP039

CYQR;2011-05-06 22:00;CYQR 062200Z 33017G25KT 15SM SCT041 16/05 A2961 RMK CU3 TCU ASOCTD SLP039

CYQR;2011-05-06 23:00;CYQR 062300Z 32023KT 15SM SCT045TCU SCT090 17/05 A2962 RMK TCU4AC1 SLP043

CYQR;2011-05-07 00:00;CYQR 070000Z 31019G27KT 15SM FEW047TCU FEW090 SCT260 15/04 A2965 RMK TCU2AC1CI0 CB ASOCTD NE SLP050

CYQR;2011-05-07 01:00;CYQR 070100Z 32019KT 15SM BKN040 13/04 A2966 RMK SC5 TCU CB TOP E SLP056

CYQR;2011-05-07 02:00;CYQR 070200Z 34012KT 15SM FEW054TCU FEW082 BKN260 12/05 A2968 RMK TCU1AC2CI1 SLP060

CYQR;2011-05-07 03:00;CYQR 070300Z 34009KT 15SM FEW079 08/04 A2970 RMK AC2 SLP070

CYQR;2011-05-07 04:00;CYQR 070400Z 33007KT 15SM FEW080 07/03 A2971 RMK AC1 SLP074

CYQR;2011-05-07 05:00;CYQR 070500Z 32005KT 15SM SKC 05/02 A2972 RMK SLP076

CYQR;2011-05-07 06:00;CYQR 070600Z 31005KT 15SM SKC 03/01 A2971 RMK SLP078

CYQR;2011-05-07 07:00;CYQR 070700Z 32009KT 15SM SKC 03/02 A2972 RMK SLP080

CYQR;2011-05-07 08:00;CYQR 070800Z 32007KT 15SM SKC 02/02 A2972 RMK SLP081

CYQR;2011-05-07 09:00;CYQR 070900Z 29005KT 15SM FEW079 01/00 A2973 RMK AC2 SLP085

CYQR;2011-05-07 10:00;CYQR 071000Z 29005KT 15SM FEW079 M00/M01 A2974 RMK AC2 SLP087

CYQR;2011-05-07 10:54;CYQR 071054Z 33004KT 6SM BR OVC002 M00/ RMK ST3

CYQR;2011-05-07 11:00;CYQR 071100Z 34005KT 3SM R13/4500VP6000FT/D BR OVC002 00/M01 A2974 RMK FG1ST3 SLP088

CYQR;2011-05-07 11:08;CYQR 071108Z 33005KT 1/2SM R13/2200FT/N FG SKC 01/ RMK FG6

CYQR;2011-05-07 11:17;CYQR 071117Z 33003KT 1/8SM R13/1400V1800FT/N FG SKC 02/ RMK FG7

CYQR;2011-05-07 11:27;CYQR 071127Z 34006KT 0SM R13/1200FT/N FG VV002 03/ RMK FG8

CYQR;2011-05-07 11:43;CYQR 071143Z 35006KT 1/8SM R13/1200FT/N FG VV001 03/ RMK FG8

CYQR;2011-05-07 12:00;CYQR 071200Z 36006KT 1/8SM R13/1400FT/N FG VV001 03/02 A2976 RMK FG8 SLP091

CYQR;2011-05-07 12:34;CYQR 071234Z 35005KT 1/4SM R13/1800FT/N FG VV002 03/ RMK FG8

CYQR;2011-05-07 12:47;CYQR 071247Z 35004KT 1/8SM R13/1200FT/N FG VV001 03/ RMK FG8

CYQR;2011-05-07 13:00;CYQR 071300Z 34002KT 1/8SM R13/1200FT/N FG VV001 03/03 A2976 RMK FG8 SLP092

CYQR;2011-05-07 13:27;CYQR 071327Z 04002KT 1/4SM R13/1400FT/N FG VV001 03/ RMK FG8

CYQR;2011-05-07 14:00;CYQR 071400Z 06003KT 3/8SM R13/2800V4000FT/U FG VV001 04/03 A2977 RMK FG8 SLP095

CYQR;2011-05-07 14:05;CYQR 071405Z 02002KT 1/2SM R13/3500V5000FT/N FG VV001 04/ RMK FG8

CYQR;2011-05-07 14:34;CYQR 071434Z 04003KT 3/4SM R13/4500VP6000FT/N BR OVC001 04/ RMK FG3ST5

CYQR;2011-05-07 14:41;CYQR 071441Z 05004KT 1SM R13/4500VP6000FT/U BR OVC001 05/ RMK ST8

CYQR;2011-05-07 14:47;CYQR 071447Z 05004KT 2SM BR OVC001 05/ RMK ST8

CYQR;2011-05-07 14:53;CYQR 071453Z 05005KT 3SM BR OVC002 05/ RMK ST8

CYQR;2011-05-07 15:00;CYQR 071500Z 05004KT 8SM OVC002 05/05 A2977 RMK ST8 SLP099

CYQR;2011-05-07 15:33;CYQR 071533Z 10004KT 8SM OVC004 06/ RMK SF8 CIG VRB 3-5

CYQR;2011-05-07 15:44;CYQR 071544Z 06003KT 15SM OVC006 07/ RMK SF8

CYQR;2011-05-07 16:00;CYQR 071600Z 03004KT 15SM BKN009 07/06 A2976 RMK SC6 SLP098

CYQR;2011-05-07 16:05;CYQR 071605Z 13003KT 12SM SCT009 BKN300 07/ RMK SC3CI0

CYQR;2011-05-07 17:00;CYQR 071700Z 24002KT 15SM FEW020 FEW300 10/06 A2976 RMK CU1CI1 TCU ASOCTD SLP095

CYQR;2011-05-07 18:00;CYQR 071800Z 30003KT 15SM FEW025 BKN300 12/06 A2975 RMK CU1CI2 SLP091

CYQR;2011-05-07 19:00;CYQR 071900Z 17005KT 15SM FEW038 BKN300 13/05 A2974 RMK CU1CI5 SLP088

CYQR;2011-05-07 20:00;CYQR 072000Z 27003KT 15SM FEW045 BKN300 15/05 A2973 RMK CU2CI2 SLP084

CYQR;2011-05-07 21:00;CYQR 072100Z 00000KT 15SM FEW052 BKN300 15/04 A2971 RMK CU2CI2 SLP078

CYQR;2011-05-07 22:00;CYQR 072200Z 00000KT 15SM FEW055 BKN300 16/02 A2971 RMK CU1CI4 TCU ASOCTD SLP075

CYQR;2011-05-07 23:00;CYQR 072300Z 00000KT 15SM FEW060TCU OVC300 16/01 A2971 RMK TCU1CI6 SH S-SW SLP075

CYQR;2011-05-08 00:00;CYQR 080000Z 08005KT 15SM SCT070 OVC100 16/02 A2970 RMK AC4AC4 TCU EMBD SHWRS SE-S-SW-W SLP072

CYQR;2011-05-08 00:44;CYQR 080044Z 21020KT 15SM -SHRA BKN052TCU OVC100 13/ RMK TCU6AC2

CYQR;2011-05-08 01:00;CYQR 080100Z 19014G21KT 15SM -SHRA BKN012 BKN050 OVC100 12/08 A2972 RMK SC5SC2AC1 CVCTV CLD EMBD SLP079

CYQR;2011-05-08 01:28;CYQR 080128Z 19011KT 15SM BKN030 OVC100 12/ RMK SC7AC1

CYQR;2011-05-08 01:40;CYQR 080140Z 20009KT 15SM -SHRA BKN043 OVC100 12/ RMK SC7AC1 CVCTV CLD EMD

CYQR;2011-05-08 02:00;CYQR 080200Z 19009KT 15SM -SHRA BKN040 OVC085 11/08 A2973 RMK SC7AC1 CVCTV CLD EMBD SLP081

CYQR;2011-05-08 03:00;CYQR 080300Z 16008KT 15SM -SHRA OVC038 11/07 A2973 RMK SC8 CVCTV CLD EMBD SLP084

CYQR;2011-05-08 04:00;CYQR 080400Z 14003KT 12SM -RA OVC039 10/09 A2973 RMK SC8 OBS TAKEN -08 SLP084

CYQR;2011-05-08 05:00;CYQR 080500Z 21003KT 10SM RA OVC027 09/09 A2974 RMK SC8 SLP087

CYQR;2011-05-08 06:00;CYQR 080600Z 05005KT 15SM -RA BKN036 OVC070 09/09 A2971 RERA RMK SC6AC2 SLP074

CYQR;2011-05-08 07:00;CYQR 080700Z 06007KT 10SM RA OVC024 09/08 A2971 RMK SC8 SLP073

CYQR;2011-05-08 07:44;CYQR 080744Z 09007KT 15SM BKN031 OVC080 09/ RERA RMK SC6AC2

CYQR;2011-05-08 08:00;CYQR 080800Z CCA 09007KT 15SM BKN025 BKN070 09/08 A2971 RERA RMK SC5AC2 SLP072

CYQR;2011-05-08 09:00;CYQR 080900Z 10003KT 15SM BKN036 BKN080 09/08 A2969 RMK SC6AC1 SLP066

CYQR;2011-05-08 10:00;CYQR 081000Z 17006KT 15SM BKN029 OVC075 09/08 A2969 RMK SC6AC2 SLP065

CYQR;2011-05-08 11:00;CYQR 081100Z 15005KT 15SM FEW025 BKN061 08/07 A2970 RMK CU1SC2 SH DIST E SLP067

CYQR;2011-05-08 12:00;CYQR 081200Z 14006KT 15SM FEW025 BKN076 BKN240 08/07 A2970 RMK CU1AC5CI2 SLP069

CYQR;2011-05-08 13:00;CYQR 081300Z 18006KT 15SM FEW005 FEW025 FEW076 OVC240 09/08 A2971 RMK SF1CU1ACC1CI6 TCU ASOCTD SLP071

CYQR;2011-05-08 14:00;CYQR 081400Z 21003KT 15SM FEW007 FEW030 SCT070 BKN280 10/08 A2972 RMK SF2CU1ACC1CI2 SLP074

CYQR;2011-05-08 14:26;CYQR 081426Z 21002KT 15SM BKN010 BKN070 OVC280 10/ RMK SC5AC2CI2

CYQR;2011-05-08 15:00;CYQR 081500Z 00000KT 15SM BKN010 BKN084 BKN280 11/09 A2972 RMK SC5AC1CI1 SLP077

CYQR;2011-05-08 15:08;CYQR 081508Z 00000KT 15SM SCT010 SCT084 BKN280 12/ RMK SC3AC1CI2

CYQR;2011-05-08 16:00;CYQR 081600Z 04004KT 15SM SCT014 SCT085 OVC280 13/09 A2971 RMK CU3AC1CI2 SLP075

CYQR;2011-05-08 17:00;CYQR 081700Z 36006KT 15SM BKN020 OVC280 13/09 A2971 RMK CU5CI2 SLP073

CYQR;2011-05-08 18:00;CYQR 081800Z 06005KT 15SM BKN024 OVC280 14/09 A2972 RMK CU6CI2 SLP075

CYQR;2011-05-08 19:00;CYQR 081900Z 04003KT 15SM BKN028 OVC280 16/09 A2972 RMK CU6CI2 SLP075

CYQR;2011-05-08 20:00;CYQR 082000Z 33008KT 15SM BKN040 OVC280 16/09 A2972 RMK CU6CI1 SLP076

CYQR;2011-05-08 21:00;CYQR 082100Z 35014KT 15SM FEW030 FEW220 BKN280 15/10 A2973 RMK CU1CC2CI3 TCU ASOCTD SLP077

CYQR;2011-05-08 22:00;CYQR 082200Z 01012G17KT 15SM FEW030 FEW220 BKN280 15/09 A2973 RMK CU1CC1CI2 SLP079

CYQR;2011-05-08 23:00;CYQR 082300Z 02012G17KT 15SM FEW030 FEW220 BKN280 15/08 A2974 RMK SC1CC1CI2 SLP080

CYQR;2011-05-09 00:00;CYQR 090000Z 04013KT 15SM FEW033 OVC240 14/08 A2976 RMK SC2CS6 SLP088

CYQR;2011-05-09 01:00;CYQR 090100Z 03013KT 15SM FEW033 FEW100 OVC240 14/08 A2976 RMK SC1AC1CI6 SLP088

CYQR;2011-05-09 02:00;CYQR 090200Z 03017KT 15SM FEW070 BKN100 OVC250 11/07 A2976 RMK AC2AC2CI2 SLP090

CYQR;2011-05-09 03:00;CYQR 090300Z 04012KT 15SM FEW015 SCT070 BKN100 OVC250 10/07 A2980 RMK SC2AC2AC2CI1 SLP104

CYQR;2011-05-09 03:44;CYQR 090344Z 05011KT 15SM BKN011 BKN100 OVC250 09/ RMK SC5AC1CI1

CYQR;2011-05-09 04:00;CYQR 090400Z 04013G18KT 15SM BKN011 OVC100 09/07 A2981 RMK SC6AC2 SLP106

CYQR;2011-05-09 04:42;CYQR 090442Z 04015KT 15SM OVC009 09/ RMK SC7

CYQR;2011-05-09 05:00;CYQR 090500Z 04014KT 15SM BKN008 OVC070 09/07 A2980 RMK SC6AC2 CIG RAG SLP104

CYQR;2011-05-09 06:00;CYQR 090600Z 03013KT 15SM BKN008 OVC100 08/07 A2979 RMK SC7AC1 CIG RAG SLP101

CYQR;2011-05-09 07:00;CYQR 090700Z 04011G18KT 15SM OVC007 08/07 A2981 RMK SC8 SLP107

CYQR;2011-05-09 08:00;CYQR 090800Z 03015G20KT 15SM OVC006 08/06 A2981 RMK SC8 SLP106

CYQR;2011-05-09 09:00;CYQR 090900Z 04014KT 15SM OVC007 07/06 A2980 RMK SC8 SLP104

CYQR;2011-05-09 10:00;CYQR 091000Z 04010G17KT 15SM OVC007 07/05 A2981 RMK SC8 SLP108

CYQR;2011-05-09 11:00;CYQR 091100Z 04014KT 15SM OVC008 07/05 A2983 RMK SC8 SLP112

CYQR;2011-05-09 12:00;CYQR 091200Z 04011G16KT 15SM OVC008 06/05 A2985 RMK SC8 SLP121

CYQR;2011-05-09 13:00;CYQR 091300Z 04011G17KT 15SM OVC008 06/04 A2985 RMK SC8 SLP122

CYQR;2011-05-09 14:00;CYQR 091400Z 04013KT 15SM OVC009 07/04 A2985 RMK SC8 SLP122

CYQR;2011-05-09 15:00;CYQR 091500Z 04013KT 15SM OVC009 07/05 A2984 RMK SC8 SLP122

CYQR;2011-05-09 15:14;CYQR 091514Z 05013KT 15SM OVC010 07/ RMK SC8

CYQR;2011-05-09 15:22;CYQR 091522Z 04013G19KT 15SM OVC009 07/ RMK SC8

CYQR;2011-05-09 16:00;CYQR 091600Z 05013KT 15SM OVC010 08/05 A2986 RMK SC8 SLP127

CYQR;2011-05-09 17:00;CYQR 091700Z 03013G18KT 15SM OVC012 09/06 A2986 RMK SC8 SLP129

CYQR;2011-05-09 17:32;CYQR 091732Z 04012G17KT 15SM -RA OVC014 09/ RMK SC8

CYQR;2011-05-09 17:43;CYQR 091743Z 04014KT 15SM -RA OVC016 10/ RMK SC8

CYQR;2011-05-09 18:00;CYQR 091800Z 04015KT 15SM -RA OVC016 10/06 A2986 RMK SC8 SLP127

CYQR;2011-05-09 19:00;CYQR 091900Z CCA 04014G21KT 15SM -RA OVC018 11/06 A2986 RMK SC8 SLP127

CYQR;2011-05-09 20:00;CYQR 092000Z 03012G19KT 15SM -RA OVC020 10/06 A2987 RMK SC8 SLP130

CYQR;2011-05-09 21:00;CYQR 092100Z 05016KT 15SM -RA OVC020 10/07 A2987 RMK SC8 SLP130

CYQR;2011-05-09 22:00;CYQR 092200Z 05016KT 15SM -RA OVC022 11/07 A2986 RMK SC8 SLP128

CYQR;2011-05-09 22:17;CYQR 092217Z 03016KT 15SM OVC022 11/ RMK SC8

CYQR;2011-05-09 23:00;CYQR 092300Z 04016KT 15SM OVC022 11/06 A2986 RMK SC8 SLP126

CYQR;2011-05-09 23:36;CYQR 092336Z 04013KT 15SM -RA OVC022 10/ RMK SC8

CYQR;2011-05-10 00:00;CYQR 100000Z 04014KT 15SM -RA BKN018 OVC033 10/07 A2986 RMK SC6SC2 SLP128

CYQR;2011-05-10 01:00;CYQR 100100Z 05009KT 15SM -RA BKN020 OVC056 10/08 A2986 RMK SC6SC2 SLP130

CYQR;2011-05-10 02:00;CYQR 100200Z 09009KT 15SM -RA FEW008 BKN018 OVC071 10/08 A2987 RMK SF2SC5AC2 SLP133

CYQR;2011-05-10 03:00;CYQR 100300Z 07010KT 15SM -RA FEW008 BKN024 OVC050 09/07 A2988 RMK SF1SC6SC2 SLP136

CYQR;2011-05-10 04:00;CYQR 100400Z 06011KT 15SM -RA SCT027 BKN061 OVC280 09/07 A2987 RMK SC3SC3CI1 SLP131

CYQR;2011-05-10 05:00;CYQR 100500Z 06012KT 15SM -RA OVC025 09/07 A2987 RMK SC8 SLP131

CYQR;2011-05-10 06:00;CYQR 100600Z 06009KT 15SM -RA OVC029 09/07 A2987 RMK SC8 SLP130

CYQR;2011-05-10 07:00;CYQR 100700Z 06014G19KT 15SM -RA BKN031 OVC064 09/05 A2986 RMK SC6SC2 SLP126

CYQR;2011-05-10 08:00;CYQR 100800Z 05014G19KT 15SM -RA BKN030 OVC055 08/04 A2985 RMK SC6SC2 SLP122

CYQR;2011-05-10 09:00;CYQR 100900Z 05016KT 15SM -RA BKN024 OVC049 07/03 A2985 RMK SC6SC2 SLP122

CYQR;2011-05-10 10:00;CYQR 101000Z 05011G18KT 15SM -RA FEW026 BKN056 OVC093 07/03 A2985 RMK SC2SC4AC2 SLP122

CYQR;2011-05-10 11:00;CYQR 101100Z 05013KT 15SM BKN041 OVC093 06/03 A2985 RMK SC5AC3 SLP122

CYQR;2011-05-10 12:00;CYQR 101200Z 04012KT 15SM BKN039 OVC095 06/03 A2984 RMK SC6AC2 SLP120

CYQR;2011-05-10 13:00;CYQR 101300Z 04011KT 15SM BKN045 OVC090 06/03 A2983 RMK SC5AC3 SLP119

CYQR;2011-05-10 14:00;CYQR 101400Z 05013KT 15SM FEW045 OVC090 07/03 A2981 RMK SC2AC6 SLP112

CYQR;2011-05-10 15:00;CYQR 101500Z 04018KT 15SM FEW050 SCT085 OVC110 07/01 A2981 RMK SC2AC2AC5 SLP113

CYQR;2011-05-10 16:00;CYQR 101600Z 03018KT 15SM FEW045 OVC090 07/01 A2981 RMK SC2AC6 SLP113

CYQR;2011-05-10 17:00;CYQR 101700Z 03019KT 15SM FEW045 SCT083 BKN120 OVC240 08/02 A2981 RMK SC2AC2AC2CI2 SLP111

CYQR;2011-05-10 18:00;CYQR 101800Z 03015G21KT 15SM BKN054 BKN095 OVC240 09/02 A2981 RMK SC5AC2CI2 SLP109

CYQR;2011-05-10 19:00;CYQR 101900Z 02015KT 15SM BKN023 OVC052 08/02 A2981 RMK SC6SC2 SLP112

CYQR;2011-05-10 19:16;CYQR 101916Z 01017KT 15SM -RA BKN021 OVC050 08/ RMK SC6SC2

CYQR;2011-05-10 20:00;CYQR 102000Z 02018KT 15SM -RA BKN021 OVC056 09/02 A2979 RMK SC6SC2 SLP104

CYQR;2011-05-10 20:25;CYQR 102025Z 02016G21KT 15SM BKN021 OVC056 09/ RMK SC7SC1

CYQR;2011-05-10 20:43;CYQR 102043Z 03016G21KT 15SM -RA BKN021 OVC055 09/ RMK SC7SC1

CYQR;2011-05-10 21:00;CYQR 102100Z 02019G24KT 8SM -RA BKN020 OVC055 08/04 A2978 RMK SC7SC1 SLP103

CYQR;2011-05-10 22:00;CYQR 102200Z 03018KT 15SM -RA BKN021 OVC093 08/04 A2977 RMK SC6AC2 SLP098

CYQR;2011-05-10 22:23;CYQR 102223Z 03018G24KT 15SM BKN021 OVC070 09/ RMK SC6AC2

CYQR;2011-05-10 23:00;CYQR 102300Z 01019KT 15SM BKN021 BKN047 OVC070 08/04 A2978 RMK SC5SC2AC2 SLP102

CYQR;2011-05-10 23:24;CYQR 102324Z 02017KT 15SM -RA BKN021 BKN045 OVC085 08/ RMK SC5SC2AC2

CYQR;2011-05-11 00:00;CYQR 110000Z 01015G21KT 15SM -RA BKN023 BKN067 OVC087 08/04 A2979 RMK SC5AC2AC2 SLP106

CYQR;2011-05-11 00:45;CYQR 110045Z 02014G20KT 15SM BKN023 BKN067 OVC090 08/ RMK SC5AC2AC2

CYQR;2011-05-11 01:00;CYQR 110100Z 02013KT 15SM FEW023 SCT050 BKN074 OVC120 08/04 A2979 RMK SC2SC1AC2AC2 SLP107

CYQR;2011-05-11 01:51;CYQR 110151Z 02016KT 15SM -SHRA FEW023 BKN037 BKN075 OVC120 08/ RMK SC1SC5AC1AC1 CVCTV CLD EMBD

CYQR;2011-05-11 02:00;CYQR 110200Z 01017KT 15SM -SHRA FEW023 BKN037 BKN075 OVC300 08/04 A2981 RMK SC1SC6AC1CI0 CVCTV CLD EMBD SLP114

CYQR;2011-05-11 02:31;CYQR 110231Z 01013G18KT 15SM SCT023 BKN100 OVC300 07/ RMK SC3AC3CI1

CYQR;2011-05-11 03:00;CYQR 110300Z 01013KT 15SM FEW032 SCT053 BKN100 OVC300 07/04 A2982 RMK SC2SC2AC3CI0 SLP117

CYQR;2011-05-11 04:00;CYQR 110400Z 01015KT 15SM BKN073 OVC300 07/04 A2983 RMK AC7CI1 SLP118

CYQR;2011-05-11 05:00;CYQR 110500Z 01014KT 15SM FEW040 OVC056 08/04 A2984 RMK SC2SC5 SLP121

CYQR;2011-05-11 06:00;CYQR 110600Z 36011KT 15SM FEW019 OVC062 07/04 A2985 RMK SC2SC6 SLP126

CYQR;2011-05-11 07:00;CYQR 110700Z 35012KT 15SM BKN029 BKN065 07/04 A2986 RMK SC6SC1 SLP129

CYQR;2011-05-11 08:00;CYQR 110800Z 35009KT 15SM FEW038 BKN065 06/03 A2988 RMK SC1SC4 SLP135

CYQR;2011-05-11 09:00;CYQR 110900Z 34010KT 15SM FEW069 04/03 A2990 RMK AC1 SLP143

CYQR;2011-05-11 10:00;CYQR 111000Z 35010KT 15SM FEW070 04/03 A2990 RMK AC1 SLP145

CYQR;2011-05-11 10:22;CYQR 111022Z 36008KT 15SM FEW003 03/ RMK SF1

CYQR;2011-05-11 10:31;CYQR 111031Z 36008KT 15SM BKN007 03/ RMK SF5

CYQR;2011-05-11 11:00;CYQR 111100Z 02010G15KT 15SM OVC006 05/03 A2991 RMK SF8 SLP149

CYQR;2011-05-11 11:20;CYQR 111120Z 01015KT 15SM OVC005 05/ RMK SF8

CYQR;2011-05-11 12:00;CYQR 111200Z 02013KT 15SM OVC004 05/04 A2994 RMK SF8 SLP157

CYQR;2011-05-11 13:00;CYQR 111300Z 01014KT 15SM OVC005 05/04 A2994 RMK SF8 SLP159

CYQR;2011-05-11 14:00;CYQR 111400Z 02012KT 15SM OVC009 06/04 A2999 RMK SC8 SLP174

CYQR;2011-05-11 15:00;CYQR 111500Z 36010KT 15SM OVC007 06/04 A3002 RMK SC8 SLP187

CYQR;2011-05-11 16:00;CYQR 111600Z 01005KT 15SM OVC009 07/05 A3004 RMK SC8 SLP192

CYQR;2011-05-11 17:00;CYQR 111700Z 04004KT 15SM OVC011 08/05 A3005 RMK SC8 SLP195

CYQR;2011-05-11 18:00;CYQR 111800Z 27004KT 15SM OVC015 09/05 A3006 RMK SC8 SLP198

CYQR;2011-05-11 19:00;CYQR 111900Z 28004KT 15SM OVC019 10/06 A3008 RMK SC8 SLP203

CYQR;2011-05-11 20:00;CYQR 112000Z 00000KT 15SM FEW024 FEW090 12/06 A3008 RMK CU2AC1 SLP205

CYQR;2011-05-11 21:00;CYQR 112100Z 36007KT 15SM FEW032 14/06 A3008 RMK CU2 SLP201

CYQR;2011-05-11 22:00;CYQR 112200Z 34007KT 15SM FEW038 15/06 A3005 RMK CU2 SLP194

CYQR;2011-05-11 23:00;CYQR 112300Z 07008KT 15SM FEW047 15/05 A3006 RMK CU1 SLP195

CYQR;2011-05-12 00:00;CYQR 120000Z 36005KT 15SM FEW047 FEW300 15/05 A3007 RMK SC1CI1 SLP198

CYQR;2011-05-12 01:00;CYQR 120100Z 02008KT 15SM FEW050 FEW300 15/04 A3006 RMK SC1CI1 SLP196

CYQR;2011-05-12 02:00;CYQR 120200Z 03009KT 15SM FEW050 FEW300 13/04 A3005 RMK SC1CI1 SLP192

CYQR;2011-05-12 03:00;CYQR 120300Z 03007KT 15SM FEW050 FEW300 10/03 A3007 RMK SC1CI1 SLP201

CYQR;2011-05-12 04:00;CYQR 120400Z 07004KT 15SM FEW300 09/03 A3011 RMK CI1 SLP214

CYQR;2011-05-12 05:00;CYQR 120500Z 10005KT 15SM FEW051 07/03 A3013 RMK SC1 SLP221

CYQR;2011-05-12 06:00;CYQR 120600Z 08007KT 15SM SKC 07/03 A3013 RMK SLP222

CYQR;2011-05-12 07:00;CYQR 120700Z 08007KT 15SM SKC 07/03 A3014 RMK SLP224

CYQR;2011-05-12 08:00;CYQR 120800Z 11003KT 15SM SKC 05/03 A3015 RMK SLP227

CYQR;2011-05-12 09:00;CYQR 120900Z 10009KT 15SM FEW051 06/04 A3016 RMK SC2 SLP230

CYQR;2011-05-12 10:00;CYQR 121000Z 11011KT 15SM FEW050 07/04 A3017 RMK SC1 SLP231

CYQR;2011-05-12 11:00;CYQR 121100Z 10008KT 15SM FEW070 FEW290 06/04 A3017 RMK ACC1CI1 SLP233

CYQR;2011-05-12 12:00;CYQR 121200Z 09008KT 15SM FEW070 FEW290 06/04 A3019 RMK ACC1CI1 SLP237

CYQR;2011-05-12 13:00;CYQR 121300Z 10012KT 15SM FEW020 FEW090 FEW300 08/05 A3020 RMK CF1AC1CI1 SLP242

CYQR;2011-05-12 14:00;CYQR 121400Z 08012KT 15SM FEW045 FEW300 10/06 A3022 RMK CF1CI0 SLP248

CYQR;2011-05-12 15:00;CYQR 121500Z 09010KT 15SM FEW022 FEW300 11/06 A3024 RMK CU1CI0 SLP255

CYQR;2011-05-12 16:00;CYQR 121600Z 06013KT 15SM FEW030 FEW300 13/06 A3024 RMK CU1CI0 SLP256

CYQR;2011-05-12 17:00;CYQR 121700Z 07015KT 15SM FEW036 SCT300 14/05 A3024 RMK CU1CI2 SLP256

CYQR;2011-05-12 18:00;CYQR 121800Z 09012G17KT 15SM FEW040 BKN300 14/05 A3025 RMK CU1CI2 SLP258

CYQR;2011-05-12 19:00;CYQR 121900Z 09016G21KT 15SM FEW038 BKN300 14/05 A3025 RMK CU1CI2 SLP258

CYQR;2011-05-12 20:00;CYQR 122000Z 08014G19KT 15SM FEW036 BKN300 14/05 A3025 RMK CU1CI1 SLP260

CYQR;2011-05-12 21:00;CYQR 122100Z 09014G20KT 15SM FEW036 BKN300 15/05 A3026 RMK CU1CI1 SLP263

CYQR;2011-05-12 22:00;CYQR 122200Z 10009G16KT 15SM FEW040 BKN300 15/05 A3026 RMK CU1CI1 SLP264

CYQR;2011-05-12 23:00;CYQR 122300Z 05012KT 15SM FEW045 SCT300 15/05 A3026 RMK CU1CI0 SLP264

CYQR;2011-05-13 00:00;CYQR 130000Z 09013KT 15SM FEW046 BKN300 15/05 A3026 RMK CU2CI0 SLP264

CYQR;2011-05-13 01:00;CYQR 130100Z 08011G17KT 15SM FEW042 13/04 A3028 RMK SC2 SLP270

CYQR;2011-05-13 02:00;CYQR 130200Z 09014KT 15SM BKN040 11/04 A3030 RMK SC5 SLP275

CYQR;2011-05-13 03:00;CYQR 130300Z 09014G21KT 15SM BKN035 10/04 A3033 RMK SC7 SLP285

CYQR;2011-05-13 04:00;CYQR 130400Z 08015KT 15SM BKN045 08/03 A3035 RMK SC7 SLP292

CYQR;2011-05-13 05:00;CYQR 130500Z 08013KT 15SM OVC027 08/03 A3036 RMK SC8 SLP297

CYQR;2011-05-13 06:00;CYQR 130600Z 07016KT 15SM OVC029 07/02 A3037 RMK SC8 SLP299

CYQR;2011-05-13 07:00;CYQR 130700Z 08012KT 15SM BKN021 06/01 A3038 RMK SC6 SLP302

CYQR;2011-05-13 08:00;CYQR 130800Z 08011KT 15SM OVC030 06/01 A3038 RMK SC8 SLP303

CYQR;2011-05-13 09:00;CYQR 130900Z 08011KT 15SM OVC030 05/01 A3039 RMK SC8 SLP306

CYQR;2011-05-13 10:00;CYQR 131000Z 07012KT 15SM BKN034 04/00 A3040 RMK SC6 SLP311

CYQR;2011-05-13 11:00;CYQR 131100Z 07012KT 15SM FEW034 03/M01 A3041 RMK SC1 SLP315

CYQR;2011-05-13 12:00;CYQR 131200Z 08012KT 15SM FEW035 03/M02 A3043 RMK SC1 SLP324

CYQR;2011-05-13 13:00;CYQR 131300Z 09010KT 15SM FEW012 FEW035 04/M01 A3046 RMK CF1SC1 SLP332

CYQR;2011-05-13 14:00;CYQR 131400Z 07008KT 15SM FEW022 FEW086 06/M00 A3047 RMK CF1AC1 TR CF SLP335

CYQR;2011-05-13 15:00;CYQR 131500Z 05008KT 15SM FEW030 FEW094 07/M00 A3047 RMK CF1AC1 SLP336

CYQR;2011-05-13 16:00;CYQR 131600Z 05012KT 15SM FEW035 FEW100 FEW280 10/01 A3046 RMK CF1AC1CI1 SLP333

CYQR;2011-05-13 17:00;CYQR 131700Z 05012G17KT 15SM FEW060 FEW120 FEW290 11/M04 A3044 RMK CF1AC1CI1 SLP328

CYQR;2011-05-13 18:00;CYQR 131800Z 09014G21KT 15SM FEW120 FEW290 13/M06 A3044 RMK AC1CI1 SLP326

CYQR;2011-05-13 19:00;CYQR 131900Z 07012G22KT 15SM FEW120 FEW290 13/M05 A3044 RMK AC1CI1 SLP325

CYQR;2011-05-13 20:00;CYQR 132000Z 07018G25KT 15SM SCT070 SCT120 BKN290 15/M04 A3044 RMK AC3AC1CI0 SLP325

CYQR;2011-05-13 21:00;CYQR 132100Z 08011G18KT 15SM BKN080 BKN130 BKN290 14/M06 A3044 RMK AC2AC1CI0 SLP326

CYQR;2011-05-13 22:00;CYQR 132200Z 06021G30KT 15SM BKN080 BKN130 BKN300 15/M06 A3043 RMK AC2AC1CI0 SLP323

CYQR;2011-05-13 23:00;CYQR 132300Z 06016G27KT 15SM FEW120 BKN300 15/M07 A3044 RMK AC1CI1 SLP325

CYQR;2011-05-14 00:00;CYQR 140000Z 06020G27KT 15SM FEW120 BKN300 15/M07 A3044 RMK AC1CI0 SLP327

CYQR;2011-05-14 01:00;CYQR 140100Z 07016G22KT 15SM FEW120 FEW300 13/M06 A3044 RMK AC1CI1 SLP327

CYQR;2011-05-14 02:00;CYQR 140200Z 07012G18KT 15SM FEW120 FEW300 12/M07 A3046 RMK AC1CI1 SLP332

CYQR;2011-05-14 03:00;CYQR 140300Z 07013KT 15SM FEW300 11/M07 A3047 RMK CI1 SLP337

CYQR;2011-05-14 04:00;CYQR 140400Z 07009KT 15SM SKC 09/M07 A3049 RMK SLP342

CYQR;2011-05-14 05:00;CYQR 140500Z 08012G17KT 15SM SKC 08/M07 A3050 RMK SLP345

CYQR;2011-05-14 06:00;CYQR 140600Z 08010KT 15SM SKC 06/M06 A3050 RMK SLP348

CYQR;2011-05-14 07:00;CYQR 140700Z 09007KT 15SM SKC 06/M06 A3051 RMK SLP351

CYQR;2011-05-14 08:00;CYQR 140800Z 08005KT 15SM SKC 04/M06 A3052 RMK SLP353

CYQR;2011-05-14 09:00;CYQR 140900Z 07004KT 15SM SKC 03/M05 A3053 RMK SLP357

CYQR;2011-05-14 09:04;CYQR 140904Z 07004KT 15SM SKC 02/

CYQR;2011-05-14 10:00;CYQR 141000Z 04004KT 15SM FEW300 03/M06 A3053 RMK CI1 SLP358

CYQR;2011-05-14 11:00;CYQR 141100Z 03006KT 15SM FEW300 M01/M06 A3053 RMK CI1 SLP357

CYQR;2011-05-14 12:00;CYQR 141200Z 03008KT 15SM FEW300 01/M06 A3053 RMK CI0 SLP359

CYQR;2011-05-14 13:00;CYQR 141300Z 05009KT 15SM FEW300 06/M04 A3054 RMK CI1 SLP361

CYQR;2011-05-14 14:00;CYQR 141400Z 07011KT 15SM FEW300 08/M04 A3054 RMK CI1 SLP361

CYQR;2011-05-14 15:00;CYQR 141500Z 08007KT 15SM SCT300 10/M03 A3053 RMK CI1 SLP356

CYQR;2011-05-14 16:00;CYQR 141600Z 08010G15KT 15SM SCT300 12/M03 A3051 RMK CI1 SLP351

CYQR;2011-05-14 17:00;CYQR 141700Z 10011G18KT 15SM FEW300 13/M05 A3050 RMK CI0 SLP347

CYQR;2011-05-14 18:00;CYQR 141800Z 11012G22KT 15SM FEW170 FEW300 15/M05 A3049 RMK AC1CI1 SLP341

CYQR;2011-05-14 19:00;CYQR 141900Z 09014G19KT 15SM FEW170 FEW300 17/M03 A3046 RMK AC1CI1 SLP333

CYQR;2011-05-14 20:00;CYQR 142000Z 12016KT 15SM FEW300 17/M03 A3045 RMK CI1 SLP329

CYQR;2011-05-14 21:00;CYQR 142100Z 10019G24KT 15SM FEW300 17/M04 A3043 RMK CI1 SLP322

CYQR;2011-05-14 22:00;CYQR 142200Z 10019KT 15SM FEW300 17/M05 A3041 RMK CI1 SLP317

CYQR;2011-05-14 23:00;CYQR 142300Z 09015KT 15SM FEW300 17/M04 A3040 RMK CI1 SLP314

CYQR;2011-05-15 00:00;CYQR 150000Z 11013G21KT 15SM FEW300 16/M06 A3040 RMK CI1 SLP314

CYQR;2011-05-15 01:00;CYQR 150100Z 10015G20KT 15SM FEW300 16/M08 A3040 RMK CI1 SLP312

CYQR;2011-05-15 02:00;CYQR 150200Z 09016KT 15SM FEW300 14/M08 A3039 RMK CI1 SLP311

CYQR;2011-05-15 03:00;CYQR 150300Z 09011KT 15SM FEW300 10/M08 A3039 RMK CI1 SLP309

CYQR;2011-05-15 04:00;CYQR 150400Z 12004KT 15SM FEW300 08/M07 A3039 RMK CI1 SLP309

CYQR;2011-05-15 05:00;CYQR 150500Z 09006KT 15SM FEW300 06/M06 A3038 RMK CI1 SLP306

CYQR;2011-05-15 06:00;CYQR 150600Z 10010KT 15SM FEW300 05/M06 A3038 RMK CI1 SLP306

CYQR;2011-05-15 07:00;CYQR 150700Z 10011KT 15SM FEW300 08/M05 A3038 RMK CI0 SLP306

CYQR;2011-05-15 08:00;CYQR 150800Z 12011KT 15SM FEW300 07/M04 A3038 RMK CI0 SLP305

CYQR;2011-05-15 09:00;CYQR 150900Z 12010KT 15SM FEW300 05/M04 A3038 RMK CI0 SLP302

CYQR;2011-05-15 10:00;CYQR 151000Z 14007KT 15SM FEW300 03/M03 A3038 RMK CI0 SLP302

CYQR;2011-05-15 11:00;CYQR 151100Z 13007KT 15SM FEW300 01/M04 A3037 RMK CI0 SLP299

CYQR;2011-05-15 12:00;CYQR 151200Z 14004KT 15SM FEW300 02/M02 A3036 RMK CI0 SLP299

CYQR;2011-05-15 13:00;CYQR 151300Z 12004KT 15SM FEW300 06/M02 A3036 RMK CI0 SLP299

CYQR;2011-05-15 14:00;CYQR 151400Z 13007KT 15SM FEW300 09/M01 A3035 RMK CI1 SLP297

CYQR;2011-05-15 15:00;CYQR 151500Z 15011KT 15SM FEW300 12/M02 A3035 RMK CI1 SLP294

CYQR;2011-05-15 16:00;CYQR 151600Z 16010KT 15SM FEW300 14/M01 A3033 RMK CI1 SLP287

CYQR;2011-05-15 17:00;CYQR 151700Z 15014G19KT 15SM FEW300 15/M02 A3031 RMK CI1 SLP281

CYQR;2011-05-15 18:00;CYQR 151800Z 15015KT 15SM FEW300 17/M02 A3029 RMK CI0 SLP273

CYQR;2011-05-15 19:00;CYQR 151900Z 14017G24KT 15SM SKC 18/00 A3027 RMK SLP266

CYQR;2011-05-15 20:00;CYQR 152000Z 13017G28KT 15SM FEW300 18/00 A3024 RMK CI1 SLP256

CYQR;2011-05-15 21:00;CYQR 152100Z 15020G26KT 15SM SKC 19/01 A3021 RMK SLP245

CYQR;2011-05-15 22:00;CYQR 152200Z 16014G27KT 15SM SKC 19/02 A3019 RMK SLP238

CYQR;2011-05-15 23:00;CYQR 152300Z 15017G25KT 15SM SKC 19/02 A3016 RMK SLP229

CYQR;2011-05-16 00:00;CYQR 160000Z 14019G26KT 15SM SKC 19/01 A3015 RMK SLP225

CYQR;2011-05-16 01:00;CYQR 160100Z 15018G26KT 15SM SKC 18/02 A3012 RMK SLP216

CYQR;2011-05-16 02:00;CYQR 160200Z 13016G25KT 15SM SKC 16/02 A3010 RMK SLP211

CYQR;2011-05-16 03:00;CYQR 160300Z 13016KT 15SM SKC 14/01 A3010 RMK SLP203

CYQR;2011-05-16 04:00;CYQR 160400Z 13017KT 15SM SKC 13/02 A3008 RMK SLP198

CYQR;2011-05-16 05:00;CYQR 160500Z 13018KT 15SM SKC 12/02 A3007 RMK SLP195

CYQR;2011-05-16 06:00;CYQR 160600Z 13019G24KT 15SM SKC 11/03 A3006 RMK SLP191

CYQR;2011-05-16 07:00;CYQR 160700Z 14017G22KT 15SM SKC 10/04 A3006 RMK SLP190

CYQR;2011-05-16 08:00;CYQR 160800Z 15017G24KT 15SM SKC 10/04 A3004 RMK SLP183

CYQR;2011-05-16 09:00;CYQR 160900Z 14016KT 15SM SKC 08/04 A3003 RMK SLP179

CYQR;2011-05-16 10:00;CYQR 161000Z 14015G20KT 15SM SKC 08/03 A3002 RMK SLP176

CYQR;2011-05-16 11:00;CYQR 161100Z 14016KT 15SM FEW300 07/03 A3000 RMK CI0 SLP169

CYQR;2011-05-16 12:00;CYQR 161200Z 14016KT 15SM FEW300 07/03 A2999 RMK CI0 SLP168

CYQR;2011-05-16 13:00;CYQR 161300Z 15018G25KT 15SM FEW300 09/04 A2999 RMK CI0 SLP166

CYQR;2011-05-16 14:00;CYQR 161400Z 15017G26KT 15SM FEW300 11/04 A2998 RMK CI1 SLP163

CYQR;2011-05-16 15:00;CYQR 161500Z 16024G30KT 15SM FEW300 14/03 A2997 RMK CI1 SLP157

CYQR;2011-05-16 16:00;CYQR 161600Z 17029G34KT 15SM FEW300 15/02 A2995 RMK CI1 SLP151

CYQR;2011-05-16 17:00;CYQR 161700Z 16024G33KT 15SM FEW300 16/03 A2992 RMK CI1 SLP141

CYQR;2011-05-16 18:00;CYQR 161800Z 15032G39KT 15SM FEW300 18/03 A2989 RMK CI2 SLP131

CYQR;2011-05-16 19:00;CYQR 161900Z 16031G39KT 15SM BKN300 19/02 A2987 RMK CI1 SLP123

CYQR;2011-05-16 20:00;CYQR 162000Z 16030G42KT 15SM BKN300 20/01 A2984 RMK CI1 SLP115

CYQR;2011-05-16 21:00;CYQR 162100Z 15029G42KT 15SM FEW300 20/02 A2982 RMK CI2 SLP106

CYQR;2011-05-16 22:00;CYQR 162200Z 16034G41KT 15SM FEW075 SCT300 21/02 A2981 RMK AC1CI1 SLP104

CYQR;2011-05-16 23:00;CYQR 162300Z 16026G40KT 15SM FEW080 SCT300 20/01 A2979 RMK CU1CI2 SLP097

CYQR;2011-05-17 00:00;CYQR 170000Z 15028G38KT 15SM FEW080 BKN300 20/01 A2979 RMK CU1CI2 SLP096

CYQR;2011-05-17 01:00;CYQR 170100Z 15024G33KT 15SM FEW090 BKN300 19/02 A2979 RMK ACC2CI1 SLP097

CYQR;2011-05-17 02:00;CYQR 170200Z 15021G27KT 15SM FEW060 SCT120 BKN300 17/02 A2978 RMK SC1AC2CI1 ACC ASOCTD SLP094

CYQR;2011-05-17 03:00;CYQR 170300Z 14021G28KT 15SM BKN095 OVC300 16/02 A2978 RMK AC6CI1 SLP091

CYQR;2011-05-17 04:00;CYQR 170400Z 15020G30KT 15SM BKN110 OVC300 15/02 A2978 RMK AC6CI2 SLP092

CYQR;2011-05-17 05:00;CYQR 170500Z 15021G26KT 15SM BKN080 OVC300 15/01 A2977 RMK AC6CI2 SLP089

CYQR;2011-05-17 06:00;CYQR 170600Z 14022G27KT 15SM BKN080 OVC300 13/03 A2976 RMK AC6CI1 SLP085

CYQR;2011-05-17 07:00;CYQR 170700Z 15020G26KT 15SM BKN090 OVC300 13/02 A2975 RMK AC6CI2 SLP080

CYQR;2011-05-17 08:00;CYQR 170800Z 14018G26KT 15SM BKN072 OVC300 12/03 A2974 RMK AC6CI2 SLP078

CYQR;2011-05-17 09:00;CYQR 170900Z 14020KT 15SM BKN072 OVC300 12/03 A2973 RMK AC5CI2 SLP072

CYQR;2011-05-17 10:00;CYQR 171000Z 15017G24KT 15SM SCT076 BKN300 11/03 A2974 RMK AC3CI2 SLP075

CYQR;2011-05-17 11:00;CYQR 171100Z 14016KT 15SM FEW050 BKN080 OVC300 11/03 A2973 RMK SC2AC4CI2 SLP073

CYQR;2011-05-17 12:00;CYQR 171200Z 13016KT 15SM BKN080 BKN140 OVC300 10/03 A2971 RMK AC5AC2CI2 SLP067

CYQR;2011-05-17 13:00;CYQR 171300Z 15016G21KT 15SM BKN085 BKN140 OVC300 11/03 A2974 RMK AC6AC1CI2 SLP076

CYQR;2011-05-17 14:00;CYQR 171400Z 15017KT 15SM SCT070 BKN140 OVC300 12/04 A2974 RMK AC4AC2CI2 ACC EMBDD SHWRS SW SLP076

CYQR;2011-05-17 15:00;CYQR 171500Z 15020KT 15SM SCT069 OVC140 13/04 A2973 RMK AC4AC4 ACC EMBD SHWRS S-SW SLP074

CYQR;2011-05-17 16:00;CYQR 171600Z 17020KT 15SM BKN069 OVC140 14/04 A2973 RMK AC5AC3 SLP074

CYQR;2011-05-17 17:00;CYQR 171700Z 17019KT 15SM SCT075 OVC140 15/04 A2972 RMK AC4AC4 CVCTV CLD EMBD SLP073

CYQR;2011-05-17 18:00;CYQR 171800Z 17017G22KT 15SM SCT070 SCT140 OVC260 18/06 A2972 RMK AC2AC1CI0 SLP070

CYQR;2011-05-17 19:00;CYQR 171900Z 16019G26KT 15SM BKN095 OVC260 18/06 A2971 RMK AC4CI1 SLP068

CYQR;2011-05-17 20:00;CYQR 172000Z 17025KT 15SM FEW050 SCT080 OVC260 19/06 A2971 RMK SC2AC2CI2 SLP069

CYQR;2011-05-17 21:00;CYQR 172100Z 16022G31KT 15SM FEW050 SCT080 OVC260 19/06 A2971 RMK SC1AC3CI5 SLP067

CYQR;2011-05-17 21:14;CYQR 172114Z 16025G33KT 15SM -SHRA FEW050 BKN080 OVC260 18/ RMK SC1AC4CI3 CVCTV CLD EMBD

CYQR;2011-05-17 22:00;CYQR 172200Z 15023G31KT 15SM -SHRA FEW014 BKN060 OVC085 17/07 A2972 RMK SC1SC5AC3 SLP072

CYQR;2011-05-17 23:00;CYQR 172300Z 18020KT 12SM -SHRA OVC019 12/11 A2976 RMK SC8 SLP083

CYQR;2011-05-18 00:00;CYQR 180000Z 20015G20KT 12SM -SHRA BKN018 OVC075 12/11 A2976 RMK SC5AC3 SLP092

CYQR;2011-05-18 01:00;CYQR 180100Z 18011KT 10SM -SHRA FEW020 OVC047 11/10 A2977 RMK SC2SC6 CVCTV CLD EMBD SLP094

CYQR;2011-05-18 02:00;CYQR 180200Z 18009KT 15SM -SHRA BKN049 OVC120 11/10 A2977 RMK SC6AC2 CVCTV CLD EMBD SLP095

CYQR;2011-05-18 03:00;CYQR 180300Z 14009KT 15SM -SHRA SCT041 OVC064 11/10 A2979 RMK SC4SC4 CVCTV CLD EMBD SLP098

CYQR;2011-05-18 04:00;CYQR 180400Z 15008KT 15SM -SHRA OVC047 12/10 A2980 RMK SC8 CVCTV CLD EMBD SLP102

CYQR;2011-05-18 05:00;CYQR 180500Z 13010KT 15SM -SHRA OVC047 11/10 A2981 RMK SC8 CVCTV CLD EMBD SLP105

CYQR;2011-05-18 06:00;CYQR 180600Z 13012KT 15SM -SHRA BKN055 OVC090 11/09 A2980 RMK SC6AC2 CVCTV CLD EMBD SLP100

CYQR;2011-05-18 07:00;CYQR 180700Z 12011KT 15SM -SHRA BKN069 OVC090 11/09 A2980 RMK AC6AC2 CVCTV CLD EMBD SLP099

CYQR;2011-05-18 07:36;CYQR 180736Z 12013KT 15SM BKN060 OVC080 12/ RMK SC6AC2

CYQR;2011-05-18 08:00;CYQR 180800Z 12013KT 15SM BKN060 OVC080 12/09 A2980 RMK SC6AC2 SLP098

CYQR;2011-05-18 09:00;CYQR 180900Z 14013KT 15SM OVC060 12/08 A2980 RMK SC8 SLP099

CYQR;2011-05-18 10:00;CYQR 181000Z 12014KT 15SM BKN060 OVC095 11/08 A2980 RMK SC6AC2 SLP099

CYQR;2011-05-18 11:00;CYQR 181100Z 13015KT 15SM BKN062 OVC097 12/07 A2981 RMK SC7AC1 SLP100

CYQR;2011-05-18 12:00;CYQR 181200Z 12013KT 15SM BKN062 OVC091 11/06 A2982 RMK SC6AC2 SLP109

CYQR;2011-05-18 13:00;CYQR 181300Z 12014G20KT 15SM BKN064 BKN094 OVC260 11/06 A2983 RMK SC6AC2CI1 SLP113

CYQR;2011-05-18 14:00;CYQR 181400Z 13017KT 15SM BKN061 BKN100 BKN260 14/07 A2983 RMK SC5AC1CI1 SLP113

CYQR;2011-05-18 15:00;CYQR 181500Z 14018G27KT 15SM FEW060 BKN260 16/07 A2984 RMK SC2CI3 SLP115

CYQR;2011-05-18 16:00;CYQR 181600Z 13020G25KT 15SM FEW090 FEW260 19/07 A2984 RMK AC1CI1 SLP114

CYQR;2011-05-18 17:00;CYQR 181700Z 13022G28KT 15SM FEW060 FEW100 FEW260 20/05 A2984 RMK CF1AC1CI2 SLP114

CYQR;2011-05-18 18:00;CYQR 181800Z 14021G32KT 15SM FEW065 FEW260 21/04 A2984 RMK CF1CI2 SLP112

CYQR;2011-05-18 19:00;CYQR 181900Z 15023G34KT 15SM FEW040 FEW260 21/02 A2985 RMK CU1CI1 SLP113

CYQR;2011-05-18 20:00;CYQR 182000Z 15020G28KT 15SM FEW071 FEW260 22/02 A2985 RMK CU1CI1 TR CU SLP113

CYQR;2011-05-18 21:00;CYQR 182100Z 14021G29KT 15SM FEW075 FEW260 22/03 A2985 RMK CU1CI1 CU TR SLP113

CYQR;2011-05-18 22:00;CYQR 182200Z 15019G27KT 15SM FEW075 FEW260 22/02 A2986 RMK CU1CI1 SLP115

CYQR;2011-05-18 23:00;CYQR 182300Z 15018G25KT 15SM FEW075 FEW260 22/02 A2986 RMK CU1CI1 SLP117

CYQR;2011-05-19 00:00;CYQR 190000Z 15018G26KT 15SM FEW075 FEW260 21/01 A2987 RMK CU1CI1 TR CU SLP122

CYQR;2011-05-19 04:00;CYQR 190400Z 10012KT 15SM FEW080 FEW300 15/01 A2994 RMK AC1CI0 SLP145

CYQR;2011-05-19 05:00;CYQR 190500Z 11012KT 15SM FEW100 SCT300 14/01 A2995 RMK AC1CI1 SLP149

CYQR;2011-05-19 06:00;CYQR 190600Z 12014KT 15SM FEW100 SCT300 13/01 A2996 RMK AC2CI1 SLP150

CYQR;2011-05-19 07:00;CYQR 190700Z 12013KT 15SM FEW075 BKN300 12/02 A2997 RMK AC2CI0 SLP154

CYQR;2011-05-19 08:00;CYQR 190800Z 12011KT 15SM FEW080 BKN300 12/02 A2998 RMK AC2CI0 SLP157

CYQR;2011-05-19 09:00;CYQR 190900Z 13010KT 15SM FEW100 BKN300 10/02 A2999 RMK AC2CI0 SLP161

CYQR;2011-05-19 10:00;CYQR 191000Z 13009KT 15SM FEW100 SCT300 09/02 A3000 RMK AC2CI0 SLP165

CYQR;2011-05-19 11:00;CYQR 191100Z 12008KT 15SM FEW100 BKN300 08/02 A3001 RMK AC2CI0 SLP169

CYQR;2011-05-19 12:00;CYQR 191200Z 11007KT 15SM FEW100 BKN300 09/03 A3002 RMK AC1CI1 SLP176

CYQR;2011-05-19 13:00;CYQR 191300Z 12009KT 15SM FEW100 BKN300 12/05 A3004 RMK AC2CI2 SLP180

CYQR;2011-05-19 14:00;CYQR 191400Z 11005KT 15SM FEW100 BKN230 BKN300 14/06 A3005 RMK AC1CI4CI0 SLP184

CYQR;2011-05-19 15:00;CYQR 191500Z 13008KT 15SM FEW085 OVC240 16/07 A3006 RMK AC1CI2 SLP188

CYQR;2011-05-19 16:00;CYQR 191600Z 17008KT 15SM FEW095 OVC260 18/07 A3006 RMK AC1CI2 SLP188

CYQR;2011-05-19 17:00;CYQR 191700Z 14008G15KT 15SM FEW055 FEW100 BKN260 20/06 A3006 RMK CF1AC1CI2 SLP188

CYQR;2011-05-19 18:00;CYQR 191800Z 15010G18KT 15SM FEW075 FEW140 BKN260 19/02 A3007 RMK CF1AC2CI2 SLP189

CYQR;2011-05-19 19:00;CYQR 191900Z 18011KT 15SM FEW075 SCT140 OVC260 21/04 A3007 RMK CU1AC2CI2 SLP189

CYQR;2011-05-19 20:00;CYQR 192000Z 18005KT 15SM FEW065 BKN260 21/04 A3006 RMK CU1CI2 SLP187

CYQR;2011-05-19 21:00;CYQR 192100Z CCA 14012G18KT 15SM FEW065 BKN260 21/03 A3006 RMK CU1CI2 OBS TAKE +17 SLP188

CYQR;2011-05-19 22:00;CYQR 192200Z 20009KT 15SM FEW072 SCT260 22/03 A3005 RMK CU2CI1 SLP185

CYQR;2011-05-19 23:00;CYQR 192300Z 12008G16KT 15SM BKN087 21/05 A3005 RMK AC6 SLP184

CYQR;2011-05-20 00:00;CYQR 200000Z 10009KT 15SM BKN087 BKN260 21/04 A3005 RMK AC6CI1 SLP184

CYQR;2011-05-20 01:00;CYQR 200100Z 09006KT 15SM BKN079 BKN300 20/06 A3005 RMK AC5CI0 SLP185

CYQR;2011-05-20 02:00;CYQR 200200Z 09007KT 15SM SCT085 BKN300 19/05 A3006 RMK AC4CI0 SLP187

CYQR;2011-05-20 03:00;CYQR 200300Z 08006KT 15SM FEW085 BKN300 16/05 A3006 RMK AC2CI0 SLP187

CYQR;2011-05-20 04:00;CYQR 200400Z 09007KT 15SM FEW100 SCT300 14/05 A3007 RMK AC2CI0 SLP190

CYQR;2011-05-20 05:00;CYQR 200500Z 05006KT 15SM BKN110 BKN300 14/06 A3007 RMK AC6CI0 SLP190

CYQR;2011-05-20 06:00;CYQR 200600Z 07008KT 15SM SCT100 BKN300 16/05 A3007 RMK AC3CI0 SLP188

CYQR;2011-05-20 07:00;CYQR 200700Z 08008KT 15SM BKN096 BKN300 15/05 A3007 RMK AC5CI0 SLP188

CYQR;2011-05-20 08:00;CYQR 200800Z 08011KT 15SM BKN110 BKN300 16/04 A3006 RMK AC6CI0 SLP186

CYQR;2011-05-20 09:00;CYQR 200900Z 07006KT 15SM OVC097 15/05 A3006 RMK AC8 SLP183

CYQR;2011-05-20 10:00;CYQR 201000Z 06005KT 15SM OVC090 14/06 A3005 RMK AC8 SLP179

CYQR;2011-05-20 11:00;CYQR 201100Z 08009KT 15SM BKN095 OVC300 15/07 A3005 RMK AC7CI1 SLP180

CYQR;2011-05-20 12:00;CYQR 201200Z 09008KT 15SM BKN080 OVC300 15/07 A3006 RMK AC7CI0 SLP185

CYQR;2011-05-20 13:00;CYQR 201300Z 07011KT 15SM SCT055 BKN100 OVC300 16/08 A3005 RMK SC3AC3CI1 OBS TAKEN +18 SLP180

CYQR;2011-05-20 14:00;CYQR 201400Z 07010KT 15SM FEW052 SCT090 OVC300 18/08 A3004 RMK SC2AC2CI3 SLP178

CYQR;2011-05-20 15:00;CYQR 201500Z 07014KT 15SM FEW090 BKN300 20/08 A3001 RMK AC2CI1 SLP169

CYQR;2011-05-20 16:00;CYQR 201600Z 08016KT 15SM BKN100 BKN300 20/08 A3001 RMK AC6CI1 SLP167

CYQR;2011-05-20 17:00;CYQR 201700Z 09016G21KT 15SM FEW060 SCT100 BKN160 OVC300 21/09 A3000 RMK CF1AC3AC3CI1 SLP164

CYQR;2011-05-20 18:00;CYQR 201800Z CCA 10016G22KT 15SM FEW066TCU BKN160 OVC300 23/10 A2998 RMK TCU1AC4CI3 SLP156

CYQR;2011-05-20 19:00;CYQR 201900Z 07015G21KT 15SM SCT066TCU BKN160 OVC300 22/08 A2997 RMK TCU3AS3CI2 SH S SLP151

CYQR;2011-05-20 20:00;CYQR 202000Z 09014G20KT 15SM SCT050 OVC160 22/08 A2996 RMK SC3AS5 TCU EMBD SLP148

CYQR;2011-05-20 21:00;CYQR 202100Z 09013G19KT 15SM FEW035 BKN047 OVC120 22/08 A2996 RMK CF1SC5AC3 SH E-S CVCTV CLD EMBD SLP149

CYQR;2011-05-20 21:04;CYQR 202104Z 14032G42KT 15SM -SHRA BKN047 OVC120 19/ RMK SC6AC2 CVCTV CLD EMBD

CYQR;2011-05-20 21:30;CYQR 202130Z 14020G26KT 10SM -SHRA FEW007 BKN041 OVC100 16/ RMK SF1SC6AC2 CVCTV CLD EMBD

CYQR;2011-05-20 22:00;CYQR 202200Z 15014G21KT 15SM VCSH FEW007 BKN016 OVC080 15/13 A2999 RMK SF1SC6AC2 CVCTV CLD EMBD SLP160

CYQR;2011-05-20 22:19;CYQR 202219Z 14012G17KT 10SM -SHRA SCT013 BKN016 OVC080 15/ RMK SC3SC4AC1 CVCTV CLD EMBD

CYQR;2011-05-20 23:00;CYQR 202300Z 10009KT 8SM -SHRA FEW013 SCT030 OVC088 15/13 A2997 RMK SC2SC2AC4 CVCTV CLD EMBD SLP154

CYQR;2011-05-21 00:00;CYQR 210000Z 12013KT 12SM -SHRA FEW008 SCT033 OVC078 15/13 A2997 RMK SF1SC4AC4 CVCTV CLD EMBD SLP157

CYQR;2011-05-21 01:00;CYQR 210100Z 09009KT 12SM -SHRA FEW017 BKN036 OVC072 15/13 A2996 RMK SC2SC3AC2 CVCTV CLD EMBD SLP154

CYQR;2011-05-21 02:00;CYQR 210200Z 08009KT 12SM -SHRA BKN022 OVC030 15/12 A2996 RMK SC5SC3 CVCTV CLD EMBD SLP153

CYQR;2011-05-21 03:00;CYQR 210300Z 09012KT 12SM -SHRA SCT026 OVC030 14/12 A2994 RMK CU3SC5 SLP145

CYQR;2011-05-21 04:00;CYQR 210400Z 08008KT 15SM -SHRA FEW030 OVC076 14/12 A2992 RMK SC2AC6 SLP139

CYQR;2011-05-21 11:00;CYQR 211100Z 04009KT 15SM FEW053 OVC100 14/12 A2986 RMK SC2AC6 ACC EMBDD SLP115

CYQR;2011-05-21 12:00;CYQR 211200Z 04010KT 15SM SCT055 OVC099 14/12 A2984 RMK SC3AC5 ACC EMBDD SLP114

CYQR;2011-05-21 13:00;CYQR 211300Z 03009KT 15SM BKN053 OVC088 14/12 A2982 RMK SC5AC3 SLP108

CYQR;2011-05-21 13:48;CYQR 211348Z 05009KT 15SM -RA BKN046 OVC085 15/ RMK SC5AC3

CYQR;2011-05-21 14:00;CYQR 211400Z 05009KT 15SM -RA SCT046 OVC083 15/13 A2981 RMK SC4AC4 SLP103

CYQR;2011-05-21 14:19;CYQR 211419Z 05012KT 15SM FEW046 OVC079 15/ RMK SC2AC6

CYQR;2011-05-21 14:43;CYQR 211443Z 06010KT 15SM -SHRA SCT061 OVC079 15/ RMK SC4AC4

CYQR;2011-05-21 15:00;CYQR 211500Z 05011KT 10SM -SHRA SCT012 BKN028 OVC079 15/13 A2980 RMK SC3SC3AC2 SLP097

CYQR;2011-05-21 15:08;CYQR 211508Z 06011KT 12SM -SHRA BKN012 BKN028 OVC079 15/ RMK SC5SC2AC2

CYQR;2011-05-21 16:00;CYQR 211600Z 05012KT 12SM -RA BKN012 OVC054 15/14 A2978 RMK SC6SC2 SLP092

CYQR;2011-05-21 17:00;CYQR 211700Z 06013KT 12SM -RA FEW010 BKN031 OVC056 16/14 A2977 RMK SC2SC6SC1 SLP089

CYQR;2011-05-21 17:14;CYQR 211714Z 05014KT 15SM -RA SCT009 BKN036 OVC064 16/ RMK SC3SC3SC2

CYQR;2011-05-21 18:00;CYQR 211800Z 06015G21KT 12SM -RA FEW010 OVC021 17/14 A2975 RMK SC2SC6 SLP082

CYQR;2011-05-21 18:39;CYQR 211839Z 05017KT 15SM OVC023 17/ RMK SC8

CYQR;2011-05-21 19:00;CYQR 211900Z 06017KT 15SM -RA BKN023 OVC070 17/13 A2974 RMK SC6AC2 SLP078

CYQR;2011-05-21 20:00;CYQR 212000Z 06017G22KT 15SM -RA BKN007 OVC027 18/13 A2973 RMK SF5SC3 SLP075

CYQR;2011-05-21 20:37;CYQR 212037Z 06017G22KT 12SM -RA SCT008 BKN021 OVC061 16/ RMK SF4SC3SC1

CYQR;2011-05-21 21:00;CYQR 212100Z 06015G20KT 12SM -RA FEW008 BKN021 OVC061 17/14 A2972 RMK SF2SC4SC2 SLP072

CYQR;2011-05-21 22:00;CYQR 212200Z 08012KT 8SM -RA SCT013 BKN039 OVC080 16/14 A2972 RMK SC3SC4AC1 SLP070

CYQR;2011-05-21 22:18;CYQR 212218Z 08009KT 6SM -RA BR BKN008 OVC039 16/ RMK SC6SC2

CYQR;2011-05-21 22:49;CYQR 212249Z 08009KT 10SM -RA FEW008 BKN013 OVC045 15/ RMK SC2SC4SC2

CYQR;2011-05-21 23:00;CYQR 212300Z 08010KT 10SM -RA FEW008 BKN013 OVC045 16/15 A2971 RMK SC2SC5SC2 SLP067

CYQR;2011-05-21 23:28;CYQR 212328Z 07013G21KT 12SM -RA FEW013 SCT020 BKN044 OVC070 16/ RMK SC1SC3SC3AC1

CYQR;2011-05-22 00:00;CYQR 220000Z 07011G16KT 12SM -RA FEW023 BKN080 OVC140 16/14 A2969 RMK SC2AC5AS2 SLP061

CYQR;2011-05-22 01:00;CYQR 220100Z 06014KT 15SM -RA SCT025 BKN048 OVC140 17/14 A2969 RMK SC4SC2AC2 SLP060

CYQR;2011-05-22 02:00;CYQR 220200Z 07013G19KT 15SM -RA FEW010 FEW028 BKN061 OVC140 16/13 A2970 RMK CU1SC2SC4AC2 SLP063

CYQR;2011-05-22 03:00;CYQR 220300Z 06011G18KT 15SM -RA FEW010 BKN044 OVC140 15/13 A2970 RMK CU1SC6AC2 SLP063

CYQR;2011-05-22 06:00;CYQR 220600Z 04008KT 12SM -RA SCT012 OVC050 14/13 A2969 RMK SC3SC5 SLP060

CYQR;2011-05-22 07:00;CYQR 220700Z 04008KT 10SM -RA FEW016 OVC033 14/13 A2969 RMK SC2SC6 SLP059

CYQR;2011-05-22 08:00;CYQR 220800Z 03008KT 10SM -RA FEW015 OVC030 14/12 A2968 RMK SC2SC6 SLP057

CYQR;2011-05-22 09:00;CYQR 220900Z 35007KT 15SM -RA FEW015 OVC046 13/13 A2968 RMK SC1SC8 SLP056

CYQR;2011-05-22 09:32;CYQR 220932Z 01008KT 15SM OVC048 13/ RMK SC8

CYQR;2011-05-22 10:00;CYQR 221000Z 36009KT 15SM OVC048 13/12 A2967 RMK SC8 SLP053

CYQR;2011-05-22 11:00;CYQR 221100Z 01009KT 15SM SCT042 BKN061 OVC100 13/12 A2966 RMK SC3SC3AC2 SLP052

CYQR;2011-05-22 12:00;CYQR 221200Z 01008KT 15SM FEW030 BKN054 BKN100 BKN260 13/12 A2967 RMK SC2SC4AC2CI1 SLP056

CYQR;2011-05-22 13:00;CYQR 221300Z 02010KT 15SM FEW015 SCT026 BKN078 BKN260 14/12 A2967 RMK SC2SC2AC3CI1 SLP056

CYQR;2011-05-22 13:35;CYQR 221335Z 02011KT 15SM BKN011 BKN078 15/ RMK SC5AC2

CYQR;2011-05-22 14:00;CYQR 221400Z 05012KT 15SM BKN013 BKN078 15/13 A2968 RMK SC6AC1 SLP059

CYQR;2011-05-22 14:24;CYQR 221424Z 04011G16KT 15SM BKN015 BKN078 BKN300 16/ RMK SC5AC1CI1

CYQR;2011-05-22 15:00;CYQR 221500Z 04013G18KT 15SM SCT017 BKN097 BKN300 17/13 A2968 RMK SC4AC1CI2 SLP055

CYQR;2011-05-22 16:00;CYQR 221600Z 04016KT 15SM SCT021 BKN100 BKN300 17/13 A2968 RMK SC4AC1CI2 SLP056

CYQR;2011-05-22 17:00;CYQR 221700Z 05012G18KT 15SM BKN023 BKN100 BKN300 18/13 A2969 RMK SC6AC1CI0 SLP058

CYQR;2011-05-22 18:00;CYQR 221800Z 04014KT 15SM BKN033 BKN090 BKN300 19/12 A2968 RMK SC6AC1CI0 SLP057

CYQR;2011-05-22 19:00;CYQR 221900Z 04012KT 15SM SCT035 BKN053 BKN300 19/12 A2968 RMK CU4SC2CI1 SLP056

CYQR;2011-05-22 20:00;CYQR 222000Z 04013KT 15SM FEW037TCU BKN058 BKN300 20/13 A2968 RMK TCU2SC3CI0 SH E AND SE SLP057

CYQR;2011-05-22 21:00;CYQR 222100Z 08012G17KT 15SM FEW037TCU BKN075 BKN300 21/13 A2968 RMK TCU2AC2CI1 SLP055

CYQR;2011-05-22 22:00;CYQR 222200Z 08011KT 15SM SCT043TCU BKN094 BKN300 20/12 A2968 RMK TCU4AC2CI0 SLP055

CYQR;2011-05-22 23:00;CYQR 222300Z 35007KT 15SM VCSH SCT040TCU BKN084 18/13 A2969 RMK TCU3AC4 SH E AND W SLP058

CYQR;2011-05-23 00:00;CYQR 230000Z 36004KT 15SM FEW040TCU BKN095 18/13 A2970 RMK TCU2AC5 SLP062

CYQR;2011-05-23 01:00;CYQR 230100Z 11003KT 15SM FEW041TCU BKN100 18/13 A2970 RMK TCU1AC6 SLP063

CYQR;2011-05-23 02:00;CYQR 230200Z 13002KT 15SM VCSH FEW041TCU SCT100 BKN260 17/12 A2971 RMK TCU2AC2CI1 SLP066

CYQR;2011-05-23 03:00;CYQR 230300Z 31003KT 15SM FEW040 FEW080 FEW260 14/12 A2972 RMK CU1AC2CI0 SLP070

CYQR;2011-05-23 04:00;CYQR 230400Z 33002KT 15SM FEW085 SCT260 13/11 A2973 RMK AC2CI1 SLP075

CYQR;2011-05-23 05:00;CYQR 230500Z 23002KT 15SM SCT047 OVC100 12/11 A2974 RMK SC4AC4 SLP078

CYQR;2011-05-23 06:00;CYQR 230600Z 34007KT 15SM FEW047 BKN094 12/11 A2975 RMK SC2AC2 SLP082

CYQR;2011-05-23 07:00;CYQR 230700Z 12007KT 15SM FEW094 SCT260 12/10 A2977 RMK AC1CI0 SLP087

CYQR;2011-05-23 08:00;CYQR 230800Z 14006KT 15SM FEW054 OVC100 13/11 A2978 RMK SC2AC6 SLP091

CYQR;2011-05-23 09:00;CYQR 230900Z 15006KT 15SM FEW054 FEW100 SCT260 13/12 A2979 RMK SC1AC1CI1 SLP092

CYQR;2011-05-23 10:00;CYQR 231000Z 16007KT 15SM FEW054 FEW100 SCT260 13/11 A2980 RMK SC2AC1CI1 SLP096

CYQR;2011-05-23 11:00;CYQR 231100Z 15005KT 15SM FEW052 SCT100 BKN260 12/10 A2980 RMK SC1AC2CI1 ACC ASOCTD SLP096

CYQR;2011-05-23 12:00;CYQR 231200Z 13004KT 15SM FEW051 FEW091 BKN260 12/10 A2981 RMK SC2AC1CI2 ACC ASOCTD SLP103

CYQR;2011-05-23 13:00;CYQR 231300Z 15006KT 15SM FEW050 FEW090 BKN260 14/12 A2982 RMK SC1AC1CI2 SLP106

CYQR;2011-05-23 14:00;CYQR 231400Z 16007KT 15SM FEW056 FEW095 BKN260 15/12 A2984 RMK SC1AC2CI1 SLP111

CYQR;2011-05-23 15:00;CYQR 231500Z 16008KT 15SM SCT033 BKN054 16/11 A2985 RMK SC3SC4 SLP116

CYQR;2011-05-23 16:00;CYQR 231600Z 16007KT 15SM BKN023 OVC049 17/12 A2985 RMK CU5SC2 SLP116

CYQR;2011-05-23 17:00;CYQR 231700Z 09009KT 15SM BKN016 OVC036 15/12 A2986 RMK CU5SC2 TCU EMBD SLP118

CYQR;2011-05-23 18:00;CYQR 231800Z 09011KT 15SM OVC019 16/12 A2986 RMK SC8 CVCTV CLD EMBD SLP120

CYQR;2011-05-23 19:00;CYQR 231900Z 09014KT 15SM SCT019 BKN035 OVC300 16/12 A2986 RMK CU3SC3CI0 SLP122

CYQR;2011-05-23 20:00;CYQR 232000Z 09016KT 15SM FEW019 SCT083 BKN300 16/11 A2987 RMK CU2AC2CI2 SLP125

CYQR;2011-05-23 21:00;CYQR 232100Z 10015KT 15SM FEW026 SCT096 BKN140 OVC300 16/10 A2988 RMK SC1AC2AC2CI2 SLP127

CYQR;2011-05-23 22:00;CYQR 232200Z 08016KT 15SM SCT044 BKN082 BKN300 14/09 A2989 RMK SC3AC2CI1 SLP129

CYQR;2011-05-23 22:35;CYQR 232235Z 08016KT 15SM -SHRA SCT040 OVC087 13/ RMK SC3AC5 CVCTV CLD EMBD

CYQR;2011-05-23 23:00;CYQR 232300Z 09015G20KT 15SM -SHRA BKN040 OVC069 11/09 A2990 RMK SC6AC2 CVCTV CLD EMBD SLP133

CYQR;2011-05-23 23:28;CYQR 232328Z 08015KT 15SM BKN040 OVC080 11/ RMK SC6AC2

CYQR;2011-05-23 23:42;CYQR 232342Z 08015KT 15SM -SHRA SCT040 BKN063 OVC100 11/ RMK SC4SC2AC2 CVCTV CLD EMBD

CYQR;2011-05-24 00:00;CYQR 240000Z 09015KT 12SM -SHRA FEW013 BKN022 BKN040 OVC063 10/07 A2991 RMK SC1SC5SC2SC1 CVCTV CLD EMBD SLP142

CYQR;2011-05-24 01:00;CYQR 240100Z 08013G19KT 15SM -SHRA BKN013 OVC044 09/07 A2992 RMK SC6SC2 CVCTV CLD EMBD SLP144

CYQR;2011-05-24 02:00;CYQR 240200Z 09012G19KT 15SM -SHRA OVC011 08/06 A2994 RMK SC8 SLP150

CYQR;2011-05-24 03:00;CYQR 240300Z 09013KT 15SM -SHRA SCT013 OVC037 08/06 A2996 RMK SC4SC4 CVCTV CLD EMBD SLP157

CYQR;2011-05-24 03:30;CYQR 240330Z 09013G18KT 15SM BKN013 OVC027 08/ RMK SC5SC3

CYQR;2011-05-24 04:00;CYQR 240400Z 09014G19KT 15SM SCT013 OVC039 08/05 A2997 RMK SC3SC5 SLP162

CYQR;2011-05-24 04:46;CYQR 240446Z 10013G18KT 15SM -RA SCT018 OVC031 08/ RMK SC4SC4

CYQR;2011-05-24 05:00;CYQR 240500Z 10016KT 10SM -SHRA SCT012 OVC031 07/05 A2999 RMK SC4SC4 SLP166

CYQR;2011-05-24 06:00;CYQR 240600Z 10013KT 15SM -SHRA FEW012 OVC023 07/04 A3000 RMK CU2SC6 SLP172

CYQR;2011-05-24 07:00;CYQR 240700Z 09012KT 12SM -SHRA OVC024 07/04 A3001 RMK SC8 SLP176

CYQR;2011-05-24 08:00;CYQR 240800Z 10014KT 2SM -SHRA BKN012 OVC024 06/04 A3001 RMK SC5SC3 SLP176

CYQR;2011-05-24 08:19;CYQR 240819Z 09013G18KT 15SM -RA SCT012 OVC018 06/ RMK SC3SC5

CYQR;2011-05-24 09:00;CYQR 240900Z 10013KT 12SM -RA SCT005 OVC023 06/04 A3001 RMK SF4SC4 SLP177

CYQR;2011-05-24 09:39;CYQR 240939Z 10014KT 12SM -RA BKN007 OVC025 05/ RMK SF6SC2

CYQR;2011-05-24 10:00;CYQR 241000Z 09012KT 15SM -RA BKN007 OVC022 05/03 A3001 RMK SF5SC3 SLP178

CYQR;2011-05-24 10:19;CYQR 241019Z 09012KT 12SM -RA SCT010 OVC022 05/ RMK SF4SC4

CYQR;2011-05-24 11:00;CYQR 241100Z 09015G20KT 10SM -RA FEW009 OVC022 05/03 A3002 RMK SF1SC7 SLP179

CYQR;2011-05-24 11:36;CYQR 241136Z 09010KT 15SM FEW009 OVC022 05/ RMK CU1SC7

CYQR;2011-05-24 12:00;CYQR 241200Z 09012KT 15SM FEW009 OVC022 05/02 A3003 RMK CU1SC7 SLP187

CYQR;2011-05-24 13:00;CYQR 241300Z 10016KT 15SM FEW012 BKN027 OVC070 05/02 A3003 RMK SC1SC6AC1 SLP189

CYQR;2011-05-24 14:00;CYQR 241400Z 09014KT 15SM BKN012 BKN025 OVC070 05/02 A3005 RMK SC5SC2AC1 SLP193

CYQR;2011-05-24 15:00;CYQR 241500Z 10013KT 15SM BKN012 OVC023 05/02 A3006 RMK SC6SC2 SLP200

CYQR;2011-05-24 16:00;CYQR 241600Z 09012KT 15SM BKN012 OVC033 05/02 A3007 RMK SC6SC2 SLP202

CYQR;2011-05-24 17:00;CYQR 241700Z 11009KT 15SM BKN014 OVC035 07/02 A3008 RMK SC6SC2 SLP205

CYQR;2011-05-24 18:00;CYQR 241800Z 12008KT 15SM BKN018 OVC041 08/03 A3009 RMK SC6SC2 SLP207

CYQR;2011-05-24 19:00;CYQR 241900Z 08006KT 15SM BKN022 BKN100 09/04 A3009 RMK SC6AC2 SLP207

CYQR;2011-05-24 20:00;CYQR 242000Z 18002KT 15SM BKN028 BKN120 BKN280 10/03 A3009 RMK SC5AC2CI1 SLP207

CYQR;2011-05-24 21:00;CYQR 242100Z 08003KT 15SM FEW030 SCT082 11/04 A3008 RMK SC2AC2 SLP205

CYQR;2011-05-24 22:00;CYQR 242200Z 09006KT 15SM FEW035 SCT096 12/03 A3008 RMK CU1AC2 SLP204

CYQR;2011-05-24 23:00;CYQR 242300Z 07006KT 15SM FEW045 FEW096 FEW280 13/01 A3009 RMK CU1AC2CI1 TR CU SLP206

CYQR;2011-05-25 00:00;CYQR 250000Z 09004KT 15SM SCT096 13/00 A3008 RMK AC4 SLP203

CYQR;2011-05-25 01:00;CYQR 250100Z 12007KT 15SM FEW098 13/M01 A3008 RMK AC2 SLP204

CYQR;2011-05-25 02:00;CYQR 250200Z 09005KT 15SM FEW100 FEW280 11/00 A3010 RMK AC1CI0 SLP208

CYQR;2011-05-25 03:00;CYQR 250300Z 10005KT 15SM FEW100 FEW280 09/M02 A3011 RMK AC1CI1 SLP218

CYQR;2011-05-25 04:00;CYQR 250400Z 09003KT 15SM FEW100 FEW280 07/M02 A3014 RMK AC1CI0 SLP225

CYQR;2011-05-25 05:00;CYQR 250500Z 12004KT 15SM SKC 06/M01 A3015 RMK SLP229

CYQR;2011-05-25 06:00;CYQR 250600Z 11004KT 15SM SKC 05/M01 A3015 RMK SLP231

CYQR;2011-05-25 07:00;CYQR 250700Z 10003KT 15SM SKC 04/M02 A3015 RMK SLP232

CYQR;2011-05-25 08:00;CYQR 250800Z 00000KT 15SM SKC 04/01 A3016 RMK SLP235

CYQR;2011-05-25 09:00;CYQR 250900Z 00000KT 15SM SKC 02/M01 A3017 RMK SLP236

CYQR;2011-05-25 10:00;CYQR 251000Z 00000KT 15SM FEW080 01/M01 A3017 RMK AC1 SLP237

CYQR;2011-05-25 11:00;CYQR 251100Z 00000KT 15SM FEW100 FEW140 FEW280 01/M02 A3018 RMK AC1AC1CI0 SLP239

CYQR;2011-05-25 12:00;CYQR 251200Z 05003KT 15SM FEW100 FEW140 FEW260 02/M01 A3019 RMK AC1AC1CI0 SLP241

CYQR;2011-05-25 13:00;CYQR 251300Z 03002KT 15SM FEW120 FEW300 07/02 A3019 RMK AC1CI0 SLP243

CYQR;2011-05-25 14:00;CYQR 251400Z 28002KT 15SM FEW120 FEW300 10/02 A3020 RMK AC1CI1 SLP244

CYQR;2011-05-25 15:00;CYQR 251500Z 29005KT 15SM FEW120 12/01 A3019 RMK AC1 SLP238

CYQR;2011-05-25 16:00;CYQR 251600Z 34003KT 15SM FEW120 FEW300 13/00 A3019 RMK AC1CI1 SLP237

CYQR;2011-05-25 17:00;CYQR 251700Z 31005KT 15SM FEW300 15/00 A3018 RMK CI0 SLP234

CYQR;2011-05-25 18:00;CYQR 251800Z 06008KT 15SM FEW065 FEW300 16/01 A3016 RMK SC1CI0 CONTRAILS SLP230

CYQR;2011-05-25 19:00;CYQR 251900Z 08006KT 15SM FEW065 SCT300 16/M00 A3015 RMK SC1CI0 SLP226

CYQR;2011-05-25 20:00;CYQR 252000Z 28004KT 15SM FEW070 BKN300 16/M02 A3014 RMK CF1CI0 SLP222

CYQR;2011-05-25 21:00;CYQR 252100Z 11005KT 15SM FEW085 BKN300 18/01 A3013 RMK CU1CI0 SLP218

CYQR;2011-05-25 22:00;CYQR 252200Z 19008KT 15SM FEW085 BKN300 18/01 A3012 RMK CU1CI2 SLP215

CYQR;2011-05-25 23:00;CYQR 252300Z 16006KT 15SM FEW080 BKN300 17/01 A3010 RMK CU1CI2 SLP210

CYQR;2011-05-26 00:00;CYQR 260000Z 07003KT 15SM FEW080 OVC300 17/01 A3009 RMK AC1CI2 SLP204

CYQR;2011-05-26 01:00;CYQR 260100Z 16005KT 15SM FEW065 OVC300 17/01 A3008 RMK CU1CI2 SLP201

CYQR;2011-05-26 02:00;CYQR 260200Z 20010KT 15SM FEW065 OVC260 15/02 A3007 RMK CU1CI6 SLP200

CYQR;2011-05-26 03:00;CYQR 260300Z 20007KT 15SM OVC260 13/03 A3006 RMK CI2 SLP192

CYQR;2011-05-26 04:00;CYQR 260400Z 21005KT 15SM OVC260 11/04 A3006 RMK CI2 OBS TAKEN -08 SLP191

CYQR;2011-05-26 05:00;CYQR 260500Z 17002KT 15SM SCT080 OVC260 10/04 A3003 RMK AC3CI2 SLP183

CYQR;2011-05-26 06:00;CYQR 260600Z 16003KT 15SM FEW080 OVC260 10/05 A3003 RMK AC2CI3 SLP179

CYQR;2011-05-26 07:00;CYQR 260700Z 16005KT 15SM SCT260 10/04 A3001 RMK CI1 SLP175

CYQR;2011-05-26 08:00;CYQR 260800Z 12005KT 15SM SCT240 07/03 A3000 RMK CI1 SLP172

CYQR;2011-05-26 09:00;CYQR 260900Z 12007KT 15SM FEW210 06/03 A2999 RMK CI1 SLP169

CYQR;2011-05-26 10:00;CYQR 261000Z 12008KT 15SM SCT210 06/03 A2999 RMK CI1 SLP167

CYQR;2011-05-26 11:00;CYQR 261100Z 11008KT 15SM FEW083 SCT210 05/02 A2997 RMK AC0CI1 SLP163

CYQR;2011-05-26 12:00;CYQR 261200Z 12009KT 15SM FEW083 FEW210 06/03 A2997 RMK AC0CI1 SLP162

CYQR;2011-05-26 13:00;CYQR 261300Z 14011KT 15SM FEW150 BKN260 09/04 A2997 RMK AC1CI1 SLP162

CYQR;2011-05-26 14:00;CYQR 261400Z 14014KT 15SM FEW140 BKN260 12/05 A2995 RMK AC1CI2 SLP155

CYQR;2011-05-26 15:00;CYQR 261500Z 15014G19KT 15SM FEW160 BKN300 13/05 A2993 RMK AC1CI2 SLP147

CYQR;2011-05-26 16:00;CYQR 261600Z 14019G26KT 15SM SCT230 BKN300 15/05 A2990 RMK CI2CI1 CC ASOCTD SLP136

CYQR;2011-05-26 17:00;CYQR 261700Z 15021G32KT 15SM SCT230 OVC300 15/03 A2986 RMK CI2CI2 SLP124

CYQR;2011-05-26 18:00;CYQR 261800Z 14022G31KT 15SM FEW048 FEW090 BKN230 OVC300 16/04 A2985 RMK CF1AC1CI2CI2 SLP117

CYQR;2011-05-26 19:00;CYQR 261900Z 14024G31KT 15SM FEW048 FEW090 BKN210 OVC300 16/05 A2983 RMK CF1AC2CI2CI2 SLP110

CYQR;2011-05-26 20:00;CYQR 262000Z 15020G29KT 15SM FEW055 FEW100 BKN210 OVC300 18/04 A2980 RMK CF1AC2CI2CI2 SLP101

CYQR;2011-05-26 21:00;CYQR 262100Z 14024G31KT 15SM FEW060 BKN099 BKN230 OVC300 18/04 A2978 RMK CF2AC3CI2CI1 SLP096

CYQR;2011-05-26 22:00;CYQR 262200Z 13019G30KT 15SM BKN099 BKN230 OVC300 17/04 A2976 RMK AC5CI2CI0 ACC ASOCTD SLP091

CYQR;2011-05-26 23:00;CYQR 262300Z 14023G29KT 15SM SCT070 OVC100 16/04 A2977 RMK AC3AC5 ACC ASOCTD SLP092

CYQR;2011-05-26 23:39;CYQR 262339Z 15018G27KT 15SM -SHRA BKN056 OVC100 15/ RMK SC5ACC3

CYQR;2011-05-27 00:00;CYQR 270000Z 16020G26KT 15SM -SHRA BKN056 OVC100 14/04 A2977 RMK SC6ACC2 SLP094

CYQR;2011-05-27 01:00;CYQR 270100Z 16020G29KT 15SM -SHRA BKN050 OVC072 14/04 A2977 RMK SC5AC3 CVCTV CLD EMBD SLP095

CYQR;2011-05-27 02:00;CYQR 270200Z 15013G18KT 15SM -SHRA OVC032 11/06 A2977 RMK SC8 CVCTV CLD EMBD SLP096

CYQR;2011-05-27 03:00;CYQR 270300Z 18017KT 15SM BKN033 OVC088 11/05 A2978 RMK SC6AC2 SLP094

CYQR;2011-05-27 04:00;CYQR 270400Z 15014G20KT 15SM BKN040 OVC090 10/04 A2977 RMK SC6AC2 OBS TAKEN -09 SLP091

CYQR;2011-05-27 05:00;CYQR 270500Z 13014KT 15SM BKN051 OVC097 10/02 A2973 RMK SC5AC3 SLP080

CYQR;2011-05-27 06:00;CYQR 270600Z 17011G24KT 15SM -RA FEW020 BKN050 OVC100 09/05 A2974 RMK SC2SC3AC2 SLP080

CYQR;2011-05-27 07:00;CYQR 270700Z 15013KT 10SM -RA OVC037 08/05 A2972 RMK SC8 SLP076

CYQR;2011-05-27 08:00;CYQR 270800Z 13009KT 10SM -RA OVC031 08/05 A2970 RMK SC8 SLP068

CYQR;2011-05-27 09:00;CYQR 270900Z 10010KT 12SM -RA OVC026 07/06 A2967 RMK SC8 SLP058

CYQR;2011-05-27 10:00;CYQR 271000Z 10010KT 10SM -RA OVC024 07/05 A2965 RMK SC8 SLP051

CYQR;2011-05-27 11:00;CYQR 271100Z 10010KT 10SM -RA BKN027 OVC061 07/05 A2963 RMK SC5SC3 SLP045

CYQR;2011-05-27 12:00;CYQR 271200Z 09010KT 6SM -RA BR SCT019 BKN026 OVC060 07/06 A2962 RMK SF1SC4SC3 SLP041

CYQR;2011-05-27 13:00;CYQR 271300Z 08013KT 6SM -RA BR BKN022 OVC060 07/06 A2960 RMK SC5SC3 SLP035

CYQR;2011-05-27 14:00;CYQR 271400Z 07011KT 6SM -RA BR FEW009 OVC022 08/06 A2958 RMK SF1SC7 SLP029

CYQR;2011-05-27 15:00;CYQR 271500Z 08013KT 6SM -RA BR FEW009 OVC024 08/06 A2957 RMK SF1SC7 SLP027

CYQR;2011-05-27 16:00;CYQR 271600Z 08009KT 5SM -RA BR OVC016 08/06 A2956 RMK SC8 SLP025

CYQR;2011-05-27 17:00;CYQR 271700Z 07008KT 6SM -RA BR BKN015 OVC038 08/06 A2955 RMK SC6SC2 SLP019

CYQR;2011-05-27 18:00;CYQR 271800Z 06009G15KT 8SM -RA BKN012 OVC035 08/06 A2953 RMK SC6SC2 SLP013

CYQR;2011-05-27 19:00;CYQR 271900Z 36005KT 5SM -RA BR BKN010 OVC027 09/07 A2951 RMK SC7SC1 SLP008

CYQR;2011-05-27 19:31;CYQR 271931Z 01009KT 3SM -RA BR OVC007 08/ RMK SC8

CYQR;2011-05-27 20:00;CYQR 272000Z 01008KT 3SM -RA BR BKN008 OVC025 08/07 A2951 RMK SC6SC2 SLP007

CYQR;2011-05-27 20:35;CYQR 272035Z 02009KT 6SM -RA BR SCT008 OVC012 08/ RMK SC4SC4

CYQR;2011-05-27 21:00;CYQR 272100Z 03011KT 6SM -RA BR FEW008 BKN012 OVC026 09/07 A2950 RMK SF2SC2SC3 SLP005

CYQR;2011-05-27 21:49;CYQR 272149Z 36011KT 6SM -RA BR FEW008 SCT012 OVC026 08/ RMK SF2SC2SC4

CYQR;2011-05-27 22:00;CYQR 272200Z 36012KT 6SM -RA BR SCT012 BKN020 OVC042 08/06 A2950 RMK SC3SC3SC2 SLP004

CYQR;2011-05-27 22:08;CYQR 272208Z 35013KT 3SM -RA BR BKN009 OVC020 08/ RMK SC5SC3

CYQR;2011-05-27 23:00;CYQR 272300Z 32015KT 3SM -RA BR BKN009 OVC020 08/07 A2949 RMK SC6SC2 SLP001

CYQR;2011-05-27 23:18;CYQR 272318Z 33014KT 3SM -RA BR BKN006 OVC022 08/ RMK SC6SC2

CYQR;2011-05-28 00:00;CYQR 280000Z 35014KT 5SM -RA BR OVC006 08/07 A2947 RMK SC8 SLP996

CYQR;2011-05-28 01:00;CYQR 280100Z 36013KT 5SM -RA BR OVC007 08/07 A2946 RMK SC8 SLP993

CYQR;2011-05-28 02:00;CYQR 280200Z 35009KT 8SM -RA OVC008 08/07 A2946 RMK SC8 SLP993

CYQR;2011-05-28 03:00;CYQR 280300Z 01010KT 8SM -RA OVC007 08/07 A2946 RMK SC8 SLP991

CYQR;2011-05-28 03:50;CYQR 280350Z 01012KT 8SM -RA SCT008 OVC030 08/ RMK SC4SC4

CYQR;2011-05-28 04:00;CYQR 280400Z 36011KT 8SM -RA SCT007 OVC026 08/07 A2946 RMK SC4SC4 SLP992

CYQR;2011-05-28 04:10;CYQR 280410Z 35010KT 8SM -RA BKN005 OVC026 08/ RMK SC6SC2

CYQR;2011-05-28 04:35;CYQR 280435Z 36013KT 8SM -RA BKN006 OVC017 08/ RMK SC6SC2

CYQR;2011-05-28 05:00;CYQR 280500Z 35011G16KT 8SM -RA BKN005 OVC035 08/07 A2945 RMK SC6SC2 SLP989

CYQR;2011-05-28 06:00;CYQR 280600Z 35015KT 8SM -RA OVC005 08/07 A2944 RMK SC8 SLP984

CYQR;2011-05-28 07:00;CYQR 280700Z 34019KT 6SM -RA BR OVC004 08/06 A2943 RMK SC8 SLP982

CYQR;2011-05-28 08:00;CYQR 280800Z 34020KT 6SM -RA BR OVC007 07/06 A2943 RMK SC8 SLP981

CYQR;2011-05-28 09:00;CYQR 280900Z 34020G25KT 6SM -RA BR BKN008 OVC025 07/06 A2943 RMK SC6SC2 SLP982

CYQR;2011-05-28 09:44;CYQR 280944Z 34016G21KT 8SM -RA SCT008 OVC024 07/ RMK SC4SC4

CYQR;2011-05-28 10:00;CYQR 281000Z 34019KT 8SM -RA SCT009 OVC022 07/06 A2944 RMK SC4SC4 SLP983

CYQR;2011-05-28 10:39;CYQR 281039Z 34015KT 10SM -RA SCT009 OVC013 07/ RMK SC4SC4

CYQR;2011-05-28 11:00;CYQR 281100Z 35014KT 4SM -RA BR OVC006 07/06 A2944 RMK SC8 SLP985

CYQR;2011-05-28 11:42;CYQR 281142Z 36013KT 15SM OVC006 07/ RMK SC8

CYQR;2011-05-28 12:00;CYQR 281200Z 36013KT 15SM OVC006 07/06 A2945 RMK SC8 SLP988

CYQR;2011-05-28 13:00;CYQR 281300Z 01012G17KT 15SM BKN008 OVC050 08/06 A2946 RMK SC6SC2 SLP992

CYQR;2011-05-28 13:51;CYQR 281351Z 03016KT 15SM BKN010 OVC043 09/ RMK SC6SC2

CYQR;2011-05-28 14:00;CYQR 281400Z 04015KT 15SM BKN010 OVC048 09/07 A2948 RMK SC6SC2 SLP997

CYQR;2011-05-28 14:33;CYQR 281433Z 02012KT 15SM BKN009 BKN045 09/ RMK SC6SC2

CYQR;2011-05-28 15:00;CYQR 281500Z 01012G18KT 15SM BKN011 OVC045 09/07 A2950 RMK SC7SC1 SLP004

CYQR;2011-05-28 15:18;CYQR 281518Z 01015KT 15SM -RA BKN014 OVC052 10/ RMK SC7SC1

CYQR;2011-05-28 16:00;CYQR 281600Z 04007KT 15SM -RA BKN014 OVC050 09/07 A2952 RMK SC7SC1 SLP010

CYQR;2011-05-28 16:33;CYQR 281633Z 01015KT 15SM -RA BKN018 OVC035 10/ RMK SC7SC1

CYQR;2011-05-28 17:00;CYQR 281700Z 36013KT 15SM BKN016 BKN035 OVC260 10/08 A2953 RMK SC6SC1CI1 INTMT -RA SLP013

CYQR;2011-05-28 17:49;CYQR 281749Z 03013KT 15SM -RA BKN012 BKN039 BKN260 10/ RMK SC5SC1CI1

CYQR;2011-05-28 18:00;CYQR 281800Z 01011G16KT 15SM -RA BKN012 BKN040 OVC300 10/08 A2954 RMK SC6SC2CI0 SLP018

CYQR;2011-05-28 19:00;CYQR 281900Z 36016G21KT 15SM -RA BKN014 OVC050 11/07 A2956 RMK SC7SC1 SLP024

CYQR;2011-05-28 19:40;CYQR 281940Z 01017G22KT 15SM BKN017 BKN041 BKN230 12/ RMK SC5SC1CI1 INTMT -RA

CYQR;2011-05-28 20:00;CYQR 282000Z 02020KT 15SM BKN021 BKN057 BKN091 BKN230 12/06 A2957 RMK SC5SC1AC1CI0 SLP028

CYQR;2011-05-28 21:00;CYQR 282100Z 01015KT 15SM SCT024 BKN053 BKN090 BKN240 12/07 A2959 RMK SC4SC1AC2CI0 SLP034

CYQR;2011-05-28 22:00;CYQR 282200Z 01015KT 15SM BKN026 OVC300 12/06 A2960 RMK SC6CI1 SLP037

CYQR;2011-05-28 23:00;CYQR 282300Z 03014G20KT 15SM BKN024 BKN095 OVC300 11/06 A2962 RMK SC6AC1CI0 SLP043

CYQR;2011-05-29 00:00;CYQR 290000Z 05015KT 15SM BKN025 BKN300 11/05 A2964 RMK SC6CI0 SLP052

CYQR;2011-05-29 01:00;CYQR 290100Z 03011KT 15SM BKN037 BKN095 BKN300 11/06 A2967 RMK SC5AC1CI0 SLP062

CYQR;2011-05-29 02:00;CYQR 290200Z 05011KT 15SM FEW027 SCT045 BKN068 10/05 A2969 RMK SC2SC2AC1 SLP068

CYQR;2011-05-29 03:00;CYQR 290300Z 06010KT 15SM FEW024 BKN035 BKN300 09/05 A2972 RMK SC2SC2CI0 SLP080

CYQR;2011-05-29 04:00;CYQR 290400Z 06009KT 15SM FEW054 08/05 A2974 RMK SC2 SLP085

CYQR;2011-05-29 05:00;CYQR 290500Z 09005KT 15SM FEW047 06/03 A2975 RMK SC1 SLP089

CYQR;2011-05-29 06:00;CYQR 290600Z 02002KT 15SM FEW040 05/03 A2976 RMK SC1 SLP096

CYQR;2011-05-29 07:00;CYQR 290700Z 05003KT 15SM FEW082 04/03 A2976 RMK AC2 SLP096

CYQR;2011-05-29 08:00;CYQR 290800Z 07003KT 15SM FEW021 04/02 A2976 RMK SC1 SLP096

CYQR;2011-05-29 09:00;CYQR 290900Z 04006KT 15SM FEW020 03/01 A2976 RMK SC1 SLP093

CYQR;2011-05-29 10:00;CYQR 291000Z 09004KT 15SM FEW080 03/01 A2979 RMK AC1 SLP103

CYQR;2011-05-29 11:00;CYQR 291100Z 11009KT 15SM BKN047 05/03 A2982 RMK SC7 SLP113

CYQR;2011-05-29 12:00;CYQR 291200Z 11008KT 15SM BKN050 BKN079 05/03 A2984 RMK SC6AC2 SLP123

CYQR;2011-05-29 13:00;CYQR 291300Z 12006KT 15SM SCT050 BKN077 BKN300 06/04 A2984 RMK SC3AC2CI0 SLP123

CYQR;2011-05-29 14:00;CYQR 291400Z 12003KT 15SM FEW015 SCT052 BKN083 BKN300 08/05 A2986 RMK CU1SC2AC2CI1 SLP128

CYQR;2011-05-29 15:00;CYQR 291500Z 18005KT 15SM FEW021 BKN052 BKN100 BKN300 09/05 A2986 RMK CU2SC2AC1CI0 SLP128

CYQR;2011-05-29 16:00;CYQR 291600Z 09008KT 15SM SCT029 SCT100 12/05 A2986 RMK CU3AC1 SLP126

CYQR;2011-05-29 17:00;CYQR 291700Z 06004KT 15SM BKN030 BKN300 11/03 A2986 RMK CU5CI1 SLP128

CYQR;2011-05-29 18:00;CYQR 291800Z 09006KT 15SM BKN039 12/04 A2987 RMK SC7 SLP132

CYQR;2011-05-29 19:00;CYQR 291900Z 07009KT 15SM OVC039 12/05 A2987 RMK SC8 SLP130

CYQR;2011-05-29 20:00;CYQR 292000Z 10009KT 15SM BKN039 BKN086 BKN300 12/05 A2987 RMK CU5AC2CI1 SLP130

CYQR;2011-05-29 21:00;CYQR 292100Z 08010KT 15SM FEW039 BKN065 13/05 A2988 RMK CU2SC5 SLP135

CYQR;2011-05-29 22:00;CYQR 292200Z 12008G15KT 15SM FEW037 SCT073 BKN098 BKN300 14/04 A2987 RMK CU2AC2AC1CI1 SLP134

CYQR;2011-05-29 23:00;CYQR 292300Z 12014KT 15SM SCT044 BKN067 BKN100 BKN300 13/06 A2989 RMK CU3AC2AC1CI1 SLP140

CYQR;2011-05-30 00:00;CYQR 300000Z 11009KT 15SM FEW044 FEW076 BKN300 13/05 A2989 RMK CU1AC2CI4 SLP137

CYQR;2011-05-30 01:00;CYQR 300100Z 12011KT 15SM FEW044 FEW080 BKN300 13/05 A2991 RMK CU1AC1CI5 SLP143

CYQR;2011-05-30 02:00;CYQR 300200Z 10011G16KT 15SM FEW030 BKN300 12/04 A2991 RMK SC1CI1 SLP144

CYQR;2011-05-30 03:00;CYQR 300300Z 11008KT 15SM FEW030 FEW080 BKN300 10/05 A2992 RMK SC1AC1CI1 TR SC SLP147

CYQR;2011-05-30 04:00;CYQR 300400Z 11007KT 15SM FEW080 SCT300 09/04 A2994 RMK AC1CI1 TR AC SLP154

CYQR;2011-05-30 05:00;CYQR 300500Z 11008KT 15SM BKN300 08/04 A2994 RMK CI2 SLP152

CYQR;2011-05-30 06:00;CYQR 300600Z 11010KT 15SM SCT140 BKN300 08/04 A2994 RMK AC4CI2 SLP153

CYQR;2011-05-30 07:00;CYQR 300700Z 11009KT 15SM OVC140 08/04 A2991 RMK AC8 SLP145

CYQR;2011-05-30 08:00;CYQR 300800Z 10009KT 15SM OVC140 07/05 A2991 RMK AC8 SLP145

CYQR;2011-05-30 09:00;CYQR 300900Z 09010KT 15SM OVC140 07/05 A2991 RMK AC8 SLP144

CYQR;2011-05-30 10:00;CYQR 301000Z 09010KT 15SM OVC140 07/05 A2992 RMK AC8 SLP147

CYQR;2011-05-30 11:00;CYQR 301100Z 08010KT 15SM SCT031 OVC140 07/05 A2991 RMK SC3AC5 SLP142

CYQR;2011-05-30 12:00;CYQR 301200Z 09011KT 15SM BKN035 OVC140 07/05 A2990 RMK SC7AC1 SLP138

CYQR;2011-05-30 12:47;CYQR 301247Z 09013G19KT 15SM FEW009 OVC042 07/ RMK SC2SC6

CYQR;2011-05-30 12:53;CYQR 301253Z 09012KT 15SM BKN009 OVC042 07/ RMK SC6SC2

CYQR;2011-05-30 13:00;CYQR 301300Z 09012KT 15SM BKN009 OVC042 07/05 A2988 RMK SC6SC2 SLP134

CYQR;2011-05-30 14:00;CYQR 301400Z 09013G19KT 15SM BKN010 OVC050 07/04 A2989 RMK SC6SC2 SLP135

CYQR;2011-05-30 15:00;CYQR 301500Z 08017KT 15SM BKN012 OVC046 07/04 A2990 RMK SC6SC2 SLP141

CYQR;2011-05-30 16:00;CYQR 301600Z 09013G18KT 15SM OVC016 08/04 A2990 RMK SC8 SLP142

CYQR;2011-05-30 16:38;CYQR 301638Z 09013G19KT 15SM -SHRA OVC016 08/ RMK SC8

CYQR;2011-05-30 17:00;CYQR 301700Z 09013KT 15SM -SHRA OVC016 08/04 A2990 RMK SC8 CVCTV CLD EMBDD SLP141

CYQR;2011-05-30 17:30;CYQR 301730Z 07015KT 10SM -SHRA OVC014 08/ RMK SC8 CVCTV CLD EMBD

CYQR;2011-05-30 17:55;CYQR 301755Z 07019G24KT 6SM -SHRA BR OVC009 08/ RMK SC8 CVCTV CLD EMBDD

CYQR;2011-05-30 18:00;CYQR 301800Z 07017G24KT 6SM -SHRA BR OVC009 08/05 A2988 RMK SC8 SLP135

CYQR;2011-05-30 18:19;CYQR 301819Z 07018KT 6SM -SHRA BR BKN013 OVC029 08/ RMK SC6SC2 CVCTV CLD EMBD

CYQR;2011-05-30 18:43;CYQR 301843Z 08013G21KT 6SM -SHRA BR BKN015 OVC029 08/ RMK SC6SC2

CYQR;2011-05-30 19:00;CYQR 301900Z 07013KT 6SM -SHRA BR BKN015 OVC042 08/06 A2988 RMK SC5SC3 CVCTV CLD EMBD SLP136

CYQR;2011-05-30 19:32;CYQR 301932Z 08016KT 6SM -RA BR SCT016 OVC025 09/ RMK SC4SC4

CYQR;2011-05-30 19:48;CYQR 301948Z 08012G19KT 6SM -RA BR FEW009 BKN025 OVC095 09/ RMK SC2SC2AS3

CYQR;2011-05-30 20:00;CYQR 302000Z 08013G20KT 6SM -RA BR FEW012 SCT025 OVC095 09/05 A2987 RMK SC2SC2AS4 SLP133

CYQR;2011-05-30 21:00;CYQR 302100Z 06016KT 6SM -RA BR SCT010 BKN025 OVC063 10/05 A2985 RMK SC3SC2SC2 SLP123

CYQR;2011-05-30 22:00;CYQR 302200Z 06015KT 10SM FEW031 OVC056 10/05 A2984 RMK SC2SC6 INTMT -RA SLP121

CYQR;2011-05-30 22:40;CYQR 302240Z 07014KT 10SM -RA FEW008 OVC036 10/ RMK SF2SC6

CYQR;2011-05-30 23:00;CYQR 302300Z 06012G17KT 10SM -RA FEW010 BKN024 OVC094 10/05 A2985 RMK SC2SC4AS2 SLP125

CYQR;2011-05-31 00:00;CYQR 310000Z 04012G18KT 10SM -RA FEW012 BKN024 OVC046 09/06 A2985 RMK SC2SC6SC1 SLP126

CYQR;2011-05-31 01:00;CYQR 310100Z 05014KT 10SM -RA FEW012 BKN023 OVC056 08/06 A2986 RMK SC2SC5SC2 SLP128

CYQR;2011-05-31 02:00;CYQR 310200Z 05019G24KT 10SM -RA OVC030 08/05 A2984 RMK SC8 SLP123

CYQR;2011-05-31 03:00;CYQR 310300Z 04017G26KT 12SM -RA BKN030 OVC076 07/04 A2985 RMK SC6AC2 SLP126

CYQR;2011-05-31 04:00;CYQR 310400Z 05021G29KT 12SM -RA OVC042 06/03 A2983 RMK SC8 SLP120

CYQR;2011-05-31 05:00;CYQR 310500Z 05019G25KT 12SM -RA OVC038 06/03 A2981 RMK SC8 SLP112

CYQR;2011-05-31 06:00;CYQR 310600Z 03017KT 12SM -RA OVC041 06/03 A2979 RMK SC8 SLP105

CYQR;2011-05-31 07:00;CYQR 310700Z 35012KT 10SM -RA OVC035 06/04 A2981 RMK SC8 SLP110

CYQR;2011-05-31 08:00;CYQR 310800Z 33017KT 10SM -RA OVC028 06/04 A2982 RMK SC8 SLP115

CYQR;2011-05-31 09:00;CYQR 310900Z 34014KT 10SM -RA OVC028 06/05 A2984 RMK SC8 SLP120

CYQR;2011-05-31 10:00;CYQR 311000Z 34011KT 10SM -RA OVC028 06/04 A2985 RMK SC8 SLP123

CYQR;2011-05-31 11:00;CYQR 311100Z 34013G18KT 15SM -RA BKN036 OVC067 06/04 A2984 RMK SC6AC2 SLP122

CYQR;2011-05-31 11:10;CYQR 311110Z 34015KT 15SM BKN036 OVC067 06/ RMK SC6AC2

CYQR;2011-05-31 12:00;CYQR 311200Z 35016KT 15SM SCT036 BKN065 OVC120 06/02 A2984 RMK SC2SC6AC1 SLP121

CYQR;2011-05-31 13:00;CYQR 311300Z 34020G25KT 15SM FEW035 BKN065 BKN140 OVC300 07/02 A2985 RMK SC2SC4AC1CI1 SLP124

CYQR;2011-05-31 14:00;CYQR 311400Z 34019G25KT 15SM FEW035 OVC082 07/02 A2987 RMK SC2AC6 VIRGA SLP131

CYQR;2011-05-31 15:00;CYQR 311500Z 35021G29KT 15SM OVC092 09/02 A2989 RMK AC8 VIRGA SLP138

CYQR;2011-05-31 16:00;CYQR 311600Z 35020G28KT 15SM OVC095 10/03 A2991 RMK AS8 VIRGA SUN DMLY VSBL SLP146

CYQR;2011-05-31 17:00;CYQR 311700Z 35024G30KT 15SM FEW036 OVC100 11/02 A2993 RMK CU1AS7 SLP151

CYQR;2011-05-31 18:00;CYQR 311800Z 35020G29KT 15SM FEW035 OVC110 12/03 A2994 RMK CU1AS7 SLP154

CYQR;2011-05-31 19:00;CYQR 311900Z 34024G30KT 15SM FEW040 FEW050 OVC110 13/02 A2995 RMK CU1SC2AS6 SLP158

CYQR;2011-05-31 20:00;CYQR 312000Z 34021G30KT 15SM FEW053 OVC110 14/03 A2997 RMK SC1AS7 SLP165

CYQR;2011-05-31 21:00;CYQR 312100Z 34019G26KT 15SM FEW061 OVC110 15/04 A2999 RMK SC1AS7 CU ASOCTD SLP168

CYQR;2011-05-31 22:00;CYQR 312200Z 33019G29KT 15SM FEW062 OVC110 16/04 A2999 RMK SC1AS7 CU ASOCTD SLP168

CYQR;2011-05-31 23:00;CYQR 312300Z 34018G25KT 15SM FEW060 BKN210 BKN260 16/04 A2998 RMK SC1CI3CI2 CU ASOCTD SLP167

CYQR;2011-06-01 01:00;CYQR 010100Z 32010KT 15SM FEW060 SCT210 BKN260 16/05 A2999 RMK SC1CI2CI1 SLP167

CYQR;2011-06-01 02:00;CYQR 010200Z 27008KT 15SM FEW075 BKN260 14/07 A3000 RMK AC1CI2 SLP172

CYQR;2011-06-01 03:00;CYQR 010300Z 29008KT 15SM FEW090 BKN260 11/06 A3002 RMK AC1CI1 SLP180

CYQR;2011-06-01 04:00;CYQR 010400Z 28009KT 15SM BKN260 10/06 A3004 RMK CI1 SLP186

CYQR;2011-06-01 05:00;CYQR 010500Z 27008KT 15SM FEW260 07/05 A3007 RMK CI1 SLP197

CYQR;2011-06-01 06:00;CYQR 010600Z 27007KT 15SM SKC 07/05 A3009 RMK SLP204

CYQR;2011-06-01 07:00;CYQR 010700Z 25007KT 15SM SKC 05/03 A3010 RMK SLP207

CYQR;2011-06-01 08:00;CYQR 010800Z 27007KT 15SM SKC 05/03 A3010 RMK SLP207

CYQR;2011-06-01 09:00;CYQR 010900Z 25003KT 15SM FEW280 04/02 A3010 RMK CI1 SLP208

CYQR;2011-06-01 10:00;CYQR 011000Z 24002KT 15SM SKC 04/02 A3010 RMK SLP209

CYQR;2011-06-01 11:00;CYQR 011100Z 17003KT 15SM FEW280 04/02 A3011 RMK CI1 SLP211

CYQR;2011-06-01 12:00;CYQR 011200Z 18003KT 15SM FEW280 05/03 A3012 RMK CI1 SLP213

CYQR;2011-06-01 13:00;CYQR 011300Z 18002KT 15SM FEW120 SCT280 08/06 A3012 RMK AC1CI1 SLP214

CYQR;2011-06-01 14:00;CYQR 011400Z 20002KT 15SM FEW280 12/07 A3013 RMK CI1 SLP217

CYQR;2011-06-01 15:00;CYQR 011500Z 17003KT 15SM FEW280 14/08 A3012 RMK CI1 SLP213

CYQR;2011-06-01 16:00;CYQR 011600Z 17005KT 15SM FEW280 16/08 A3011 RMK CI1 SLP208

CYQR;2011-06-01 17:00;CYQR 011700Z 16008KT 15SM FEW280 17/09 A3010 RMK CI0 SLP205

CYQR;2011-06-01 18:00;CYQR 011800Z 15010KT 15SM SCT280 19/10 A3008 RMK CI1 SLP199

CYQR;2011-06-01 19:00;CYQR 011900Z 16015KT 15SM FEW042 OVC280 19/09 A3008 RMK CF1CI3 SLP197

CYQR;2011-06-01 20:00;CYQR 012000Z 17013G24KT 15SM FEW048 OVC280 20/08 A3006 RMK CF1CI2 SLP192

CYQR;2011-06-01 21:00;CYQR 012100Z 16015KT 15SM FEW050 OVC280 20/07 A3005 RMK CU1CI6 SLP188

CYQR;2011-06-01 22:00;CYQR 012200Z 15014G24KT 15SM OVC280 20/08 A3002 RMK CI8 SLP179

CYQR;2011-06-01 23:00;CYQR 012300Z 14018KT 15SM OVC280 20/08 A2999 RMK CI6 SLP169

CYQR;2011-06-02 00:00;CYQR 020000Z 15021KT 15SM OVC280 19/08 A2996 RMK CI5 SLP159

CYQR;2011-06-02 01:00;CYQR 020100Z 14019G25KT 15SM FEW100 BKN280 19/09 A2994 RMK AC1CI6 SLP152

CYQR;2011-06-02 02:00;CYQR 020200Z 13020G26KT 15SM SCT080 BKN280 17/09 A2993 RMK AC3CI2 SLP148

CYQR;2011-06-02 03:00;CYQR 020300Z 13019G24KT 15SM FEW090 BKN300 16/09 A2992 RMK AC2CI1 SLP139

CYQR;2011-06-02 04:00;CYQR 020400Z 13021KT 15SM FEW080 BKN300 15/08 A2992 RMK AC1CI1 SLP140

CYQR;2011-06-02 05:00;CYQR 020500Z 13018G26KT 15SM FEW100 BKN300 14/07 A2990 RMK AC2CI0 SLP134

CYQR;2011-06-02 06:00;CYQR 020600Z 13020G27KT 15SM FEW100 BKN300 13/07 A2988 RMK AC2CI0 SLP125

CYQR;2011-06-02 07:00;CYQR 020700Z 13021G29KT 15SM FEW100 BKN300 13/07 A2986 RMK AC2CI0 SLP117

CYQR;2011-06-02 08:00;CYQR 020800Z 13021G28KT 15SM FEW100 BKN300 12/07 A2983 RMK AC2CI0 SLP109

CYQR;2011-06-02 09:00;CYQR 020900Z 12022KT 15SM FEW100 BKN300 12/07 A2981 RMK AC2CI0 SLP099

CYQR;2011-06-02 10:00;CYQR 021000Z 11015G24KT 15SM SCT100 BKN300 12/06 A2978 RMK AC3CI2 SLP091

CYQR;2011-06-02 11:00;CYQR 021100Z 12017KT 15SM FEW030 BKN110 OVC300 11/07 A2976 RMK SC1AC5CI2 SLP083

CYQR;2011-06-02 12:00;CYQR 021200Z 12015KT 15SM SCT063 BKN110 OVC300 12/07 A2973 RMK SC3AC3CI1 SLP074

CYQR;2011-06-02 13:00;CYQR 021300Z 12020KT 15SM VCSH OVC037 12/07 A2968 RMK SC8 CVCTV CLD EMBD SHWRS SW + N SLP057

CYQR;2011-06-02 14:00;CYQR 021400Z 12019G25KT 15SM BKN039 BKN065 OVC260 13/08 A2964 RMK SC5SC2CI1 SLP045

CYQR;2011-06-02 15:00;CYQR 021500Z 12022G27KT 15SM OVC061 14/09 A2961 RMK SC8 SLP034

CYQR;2011-06-02 16:00;CYQR 021600Z 13020G27KT 15SM OVC028 14/10 A2958 RMK SC8 CVCTV CLD EMBD SLP025

CYQR;2011-06-02 17:00;CYQR 021700Z 13017G22KT 15SM OVC030 14/10 A2955 RMK SC8 SLP015

CYQR;2011-06-02 18:00;CYQR 021800Z 12015G20KT 15SM OVC030 15/11 A2953 RMK SC8 SLP007

CYQR;2011-06-02 19:00;CYQR 021900Z 13014KT 15SM OVC023 15/11 A2951 RMK SC8 SLP001

CYQR;2011-06-02 20:00;CYQR 022000Z 14015KT 15SM BKN019 OVC060 15/11 A2951 RMK SC6SC2 SLP002

CYQR;2011-06-02 21:00;CYQR 022100Z 12012G18KT 15SM BKN024 OVC040 16/12 A2947 RMK SC6SC2 SLP987

CYQR;2011-06-02 22:00;CYQR 022200Z 12009KT 15SM BKN031 OVC038 16/12 A2947 RMK CU5SC3 SLP986

CYQR;2011-06-02 23:00;CYQR 022300Z 11006KT 15SM OVC024 15/12 A2946 RMK SC8 SHWRS DSNT SW-NW SLP984

CYQR;2011-06-02 23:23;CYQR 022323Z 11003KT 6SM -SHRA BR OVC022 15/ RMK SC8 CVCTV CLD EMBD

CYQR;2011-06-02 23:41;CYQR 022341Z 09003KT 5SM BR OVC020 14/ RMK SC8

CYQR;2011-06-03 00:00;CYQR 030000Z 00000KT 8SM OVC020 14/13 A2948 RMK SC8 SLP990

CYQR;2011-06-03 00:32;CYQR 030032Z 24004KT 6SM -SHRA BR OVC016 14/ RMK SC8 CVCTV CLD EMBD

CYQR;2011-06-03 00:48;CYQR 030048Z 23007KT 3SM -SHRA BR OVC014 14/ RMK FG2SC6

CYQR;2011-06-03 00:51;CYQR 030051Z 23006KT 1 1/2SM -SHRA BR OVC014 14/ RMK FG2SC6 CVCTV CLD EMBDD

CYQR;2011-06-03 01:00;CYQR 030100Z 23007KT 1 1/2SM -SHRA BR OVC009 14/13 A2951 RMK FG2SC6 CVCTV CLD EMBD SLP002

CYQR;2011-06-03 01:12;CYQR 030112Z 26013KT 15SM SCT006 BKN026 BKN090 OVC250 14/ RMK SF2SC2AC2CI1

CYQR;2011-06-03 02:00;CYQR 030200Z 28015KT 15SM BKN039 BKN100 BKN300 13/11 A2953 RMK SC5AC1CI0 SLP008

CYQR;2011-06-03 03:00;CYQR 030300Z 01006KT 15SM FEW040 FEW100 SCT300 12/10 A2947 RMK SC1AC1CI0 SLP987

CYQR;2011-06-03 04:00;CYQR 030400Z 22008KT 15SM FEW120 SCT300 09/08 A2951 RMK AC2CI0 SLP000

CYQR;2011-06-03 05:00;CYQR 030500Z 23004KT 15SM FEW120 SCT300 10/09 A2951 RMK AC2CI0 SLP001

CYQR;2011-06-03 06:00;CYQR 030600Z 16012KT 15SM FEW100 SCT300 09/08 A2949 RMK AC2CI0 SLP995

CYQR;2011-06-03 07:00;CYQR 030700Z 17009KT 15SM FEW100 10/08 A2949 RMK AC1 SLP995

CYQR;2011-06-03 08:00;CYQR 030800Z 21016KT 15SM FEW100 10/07 A2949 RMK AC1 SLP997

CYQR;2011-06-03 09:00;CYQR 030900Z 21014KT 15SM FEW100 09/06 A2949 RMK AC1 SLP997

CYQR;2011-06-03 10:00;CYQR 031000Z 20017KT 15SM FEW100 08/06 A2948 RMK AC1 SLP993

CYQR;2011-06-03 11:00;CYQR 031100Z 21026KT 15SM FEW100 09/06 A2946 RMK AC2 SLP987

CYQR;2011-06-03 12:00;CYQR 031200Z 21022KT 15SM BKN040 10/07 A2946 RMK SC5 SLP986

CYQR;2011-06-03 13:00;CYQR 031300Z 21020G26KT 15SM BKN030 10/07 A2946 RMK SC7 SLP985

CYQR;2011-06-03 14:00;CYQR 031400Z 23024KT 15SM BKN023 BKN054 11/08 A2945 RMK SC6SC2 SLP983

CYQR;2011-06-03 15:00;CYQR 031500Z 24017G24KT 15SM BKN019 11/08 A2946 RMK SC7 SLP985

CYQR;2011-06-03 16:00;CYQR 031600Z 25017G22KT 15SM OVC019 13/10 A2947 RMK SC8 SLP989

CYQR;2011-06-03 17:00;CYQR 031700Z 28015G21KT 15SM BKN023 BKN051 15/11 A2948 RMK CU6SC2 SLP993

CYQR;2011-06-03 18:00;CYQR 031800Z 28018G27KT 15SM BKN026 OVC077 16/11 A2951 RMK CU6AC2 SLP003

CYQR;2011-06-03 19:00;CYQR 031900Z 30015G24KT 15SM BKN017 OVC036 15/11 A2955 RMK CU5SC3 SLP015

CYQR;2011-06-03 19:20;CYQR 031920Z 32016G21KT 15SM -SHRA BKN021TCU BKN031 OVC080 15/ RMK TCU5SC2ACC2

CYQR;2011-06-03 20:00;CYQR 032000Z 30015G20KT 15SM -SHRA BKN024TCU OVC053 16/11 A2958 RMK TCU5SC2 SLP024

CYQR;2011-06-03 21:00;CYQR 032100Z 34016KT 15SM BKN030TCU BKN045 BKN084 18/12 A2960 RMK TCU5SC1AC1 SLP033

CYQR;2011-06-03 21:12;CYQR 032112Z 35018KT 15SM -SHRA BKN045TCU BKN084 BKN260 15/ RMK TCU5AC1CI0

CYQR;2011-06-03 22:00;CYQR 032200Z 35019G27KT 15SM SCT032 BKN081 BKN260 18/10 A2964 RMK CU3AC2CI0 SLP045

CYQR;2011-06-03 23:00;CYQR 032300Z 35019G24KT 15SM SCT038 SCT076 BKN260 18/11 A2967 RMK CU3AC1CI1 SLP055

CYQR;2011-06-04 00:00;CYQR 040000Z 34017KT 15SM SCT036 BKN088 BKN260 17/11 A2971 RMK CU3AC1CI2 TCU ASOCTD SLP069

CYQR;2011-06-04 01:00;CYQR 040100Z 36018KT 15SM FEW041 SCT088 BKN260 14/09 A2977 RMK CU2AC1CI0 SLP089

CYQR;2011-06-04 02:00;CYQR 040200Z 36013G22KT 15SM BKN028 BKN072 OVC300 12/07 A2981 RMK SC5AC2CI0 SLP103

CYQR;2011-06-04 03:00;CYQR 040300Z 36013G18KT 15SM BKN024 OVC090 11/08 A2986 RMK SC7AC1 SLP126

CYQR;2011-06-04 04:00;CYQR 040400Z 35007KT 15SM OVC024 11/07 A2991 RMK SF8 SLP140

CYQR;2011-06-04 05:00;CYQR 040500Z 33009KT 15SM OVC023 11/07 A2994 RMK SC8 SLP150

CYQR;2011-06-04 06:00;CYQR 040600Z 35010KT 15SM OVC019 10/07 A2997 RMK SC8 SLP159

CYQR;2011-06-04 07:00;CYQR 040700Z 34011KT 15SM OVC019 10/06 A3000 RMK SC8 SLP168

CYQR;2011-06-04 08:00;CYQR 040800Z 36008KT 15SM OVC040 08/04 A3002 RMK SC8 SLP177

CYQR;2011-06-04 10:00;CYQR 041000Z 34016G22KT 15SM FEW015 BKN042 06/02 A3010 RMK SC1SC6 SLP206

CYQR;2011-06-04 11:00;CYQR 041100Z 36013KT 15SM FEW040 BKN120 BKN300 04/00 A3012 RMK SC2AC2CI0 SLP210

CYQR;2011-06-04 12:00;CYQR 041200Z 34009KT 15SM FEW040 SCT100 BKN300 04/M00 A3015 RMK SC2AC2CI0 SLP224

CYQR;2011-06-04 13:00;CYQR 041300Z 35012KT 15SM FEW015 FEW040 SCT083 BKN120 BKN300 05/M00 A3018 RMK CF1SC1AC3AC2CI0 SLP234

CYQR;2011-06-04 14:00;CYQR 041400Z 32009G16KT 15SM FEW020 SCT047 BKN075 OVC120 05/M01 A3021 RMK CU2SC2AC2AC1 SLP244

CYQR;2011-06-04 15:00;CYQR 041500Z 33008KT 15SM FEW024 SCT050 BKN075 OVC120 05/M01 A3023 RMK CU2SC2AC3AC1 SLP256

CYQR;2011-06-04 16:00;CYQR 041600Z 32007KT 15SM -RA BKN017 BKN036 OVC041 06/00 A3024 RMK SC5SC2SC2 SLP259

CYQR;2011-06-04 16:20;CYQR 041620Z 31009KT 15SM -RA BKN008 OVC041 05/ RMK SC6SC2

CYQR;2011-06-04 17:00;CYQR 041700Z 30007KT 6SM -RA BR OVC009 04/01 A3025 RMK SC8 SLP262

CYQR;2011-06-04 17:17;CYQR 041717Z 29007KT 12SM -RA SCT009 OVC013 05/ RMK SC3SC5

CYQR;2011-06-04 17:28;CYQR 041728Z 27008KT 12SM -RA BKN009 OVC013 05/ RMK SC6SC2

CYQR;2011-06-04 18:00;CYQR 041800Z 28007KT 15SM BKN010 OVC051 05/02 A3026 RMK SC6SC2 SLP267

CYQR;2011-06-04 19:00;CYQR 041900Z 28006KT 15SM BKN014 OVC043 06/03 A3025 RMK SC6SC2 SLP263

CYQR;2011-06-04 19:29;CYQR 041929Z 28006KT 15SM BKN017 OVC043 07/ RMK SC6SC2

CYQR;2011-06-04 20:00;CYQR 042000Z 29004KT 15SM BKN019 OVC050 07/02 A3024 RMK SC5SC3 SLP260

CYQR;2011-06-04 20:45;CYQR 042045Z 32006KT 15SM -RA FEW020 OVC043 07/ RMK SC1SC7

CYQR;2011-06-04 21:00;CYQR 042100Z 33006KT 15SM -RA FEW020 OVC043 07/01 A3023 RMK SC1SC8 SLP257

CYQR;2011-06-04 21:26;CYQR 042126Z 32004KT 15SM FEW020 OVC039 07/ RMK SC1SC8

CYQR;2011-06-04 22:00;CYQR 042200Z 34002KT 15SM FEW020 OVC035 08/02 A3022 RMK CU1SC8 SLP253

CYQR;2011-06-04 23:00;CYQR 042300Z 01003KT 15SM OVC035 08/02 A3020 RMK SC8 SLP247

CYQR;2011-06-05 00:00;CYQR 050000Z 04003KT 15SM BKN039 OVC053 08/02 A3018 RMK SC7SC1 SLP241

CYQR;2011-06-05 01:00;CYQR 050100Z 12003KT 15SM BKN039 OVC077 09/02 A3016 RMK SC7AC1 SLP235

CYQR;2011-06-05 02:00;CYQR 050200Z 12007KT 15SM BKN039 BKN075 BKN300 08/02 A3015 RMK SC5AC2CI0 SLP230

CYQR;2011-06-05 03:00;CYQR 050300Z 14005KT 15SM SCT030 BKN085 OVC300 08/03 A3014 RMK SC3AC3CI1 SLP227

CYQR;2011-06-05 04:00;CYQR 050400Z 11006KT 15SM SCT040 BKN090 OVC300 07/03 A3014 RMK SC3AC3CI1 SLP225

CYQR;2011-06-05 04:53;CYQR 050453Z 13009KT 15SM -SHRA SCT044 BKN090 OVC300 08/ RMK SC3ACC3CI1

CYQR;2011-06-05 05:00;CYQR 050500Z 06006KT 15SM -SHRA BKN026 OVC090 07/05 A3011 RMK SC6ACC2 SLP218

CYQR;2011-06-05 06:00;CYQR 050600Z 01009KT 15SM -SHRA OVC030 07/05 A3011 RMK SC8 SLP218

CYQR;2011-06-05 06:50;CYQR 050650Z 09009KT 15SM BKN052 BKN090 07/ RMK SC6AC1

CYQR;2011-06-05 07:00;CYQR 050700Z 10007KT 15SM BKN052 BKN090 07/04 A3008 RMK SC6AC1 SLP208

CYQR;2011-06-05 07:43;CYQR 050743Z 05011KT 15SM -SHRA OVC053 07/ RMK SC8 CVCTV CLD EMBD

CYQR;2011-06-05 08:00;CYQR 050800Z 08010KT 15SM -SHRA OVC053 07/06 A3007 RMK SC8 CVCTV CLD EMBD SLP203

CYQR;2011-06-05 09:00;CYQR 050900Z 13013KT 15SM -SHRA BKN035 OVC094 08/06 A3003 RMK SC6AC2 CVCTV CLD EMBD SLP188

CYQR;2011-06-05 09:26;CYQR 050926Z 15010KT 15SM SCT040 BKN090 09/ RMK SC3AC2

CYQR;2011-06-05 11:00;CYQR 051100Z 11006KT 15SM FEW050 FEW100 07/05 A3002 RMK SC1AC0 SLP184

CYQR;2011-06-05 12:00;CYQR 051200Z 10005KT 15SM FEW120 08/06 A3002 RMK AC0 SLP183

CYQR;2011-06-05 13:00;CYQR 051300Z 12007KT 15SM FEW016 FEW120 10/07 A3001 RMK CU1AC1 SLP181

CYQR;2011-06-05 14:00;CYQR 051400Z 13006KT 15SM FEW016 12/09 A3000 RMK CU1 SLP178

CYQR;2011-06-05 15:00;CYQR 051500Z 09004KT 15SM FEW016 13/10 A2999 RMK CU1 SLP170

CYQR;2011-06-05 16:00;CYQR 051600Z 14006KT 15SM FEW016 FEW100 15/11 A2997 RMK CF1AC1 SLP162

CYQR;2011-06-05 17:00;CYQR 051700Z 07005KT 15SM FEW080 17/13 A2995 RMK AC1 SLP156

CYQR;2011-06-05 18:00;CYQR 051800Z 18007KT 15SM FEW080 FEW280 19/13 A2993 RMK AC1CI1 SLP146

CYQR;2011-06-05 19:00;CYQR 051900Z 13003KT 15SM FEW030 FEW080 FEW280 21/13 A2990 RMK CU1AC1CI1 SLP136

CYQR;2011-06-05 20:00;CYQR 052000Z 18007KT 15SM FEW028 FEW280 22/13 A2988 RMK CU1CI1 SLP131

CYQR;2011-06-05 21:00;CYQR 052100Z 22009KT 15SM FEW036 FEW280 24/12 A2986 RMK CU1CI0 SLP117

CYQR;2011-06-05 22:00;CYQR 052200Z 14003KT 15SM FEW048 FEW280 24/12 A2982 RMK CU2CI1 SLP107

CYQR;2011-06-05 23:00;CYQR 052300Z 36005KT 15SM BKN055 22/13 A2981 RMK CU5 SLP104

CYQR;2011-06-06 00:00;CYQR 060000Z 35011KT 15SM BKN060 22/12 A2982 RMK CU5 SLP106

CYQR;2011-06-06 01:00;CYQR 060100Z 03009KT 15SM SCT078 22/11 A2981 RMK AC3 CVCTV CLD EMBD SLP103

CYQR;2011-06-06 02:00;CYQR 060200Z 03014KT 15SM FEW078 FEW280 21/11 A2982 RMK AC1CI1 ACC ASOCTD SLP105

CYQR;2011-06-06 03:00;CYQR 060300Z 04011KT 15SM FEW080 FEW280 17/10 A2983 RMK ACC1CI1 SLP110

CYQR;2011-06-06 04:00;CYQR 060400Z 04011KT 15SM FEW080 15/09 A2985 RMK ACC1 SLP116

CYQR;2011-06-06 05:00;CYQR 060500Z 02012G18KT 15SM FEW076 15/08 A2988 RMK AC1 SLP125

CYQR;2011-06-06 06:00;CYQR 060600Z 03010KT 15SM SKC 13/08 A2991 RMK SLP136

CYQR;2011-06-06 07:00;CYQR 060700Z 03007KT 15SM SKC 10/07 A2992 RMK SLP138

CYQR;2011-06-06 09:00;CYQR 060900Z 01002KT 15SM SKC 08/06 A2992 RMK SLP138

CYQR;2011-06-06 10:00;CYQR 061000Z 34005KT 15SM FEW100 06/05 A2991 RMK AC1 SLP137

CYQR;2011-06-06 11:00;CYQR 061100Z 35002KT 10SM FEW140 07/05 A2993 RMK AC1 SLP142

CYQR;2011-06-06 12:00;CYQR 061200Z 36002KT 12SM FEW140 BKN350 09/07 A2994 RMK AC1CI2 SLP145

CYQR;2011-06-06 13:00;CYQR 061300Z 34002KT 15SM FEW089 BKN260 11/09 A2994 RMK AC2CI2 VIRGA SLP147

CYQR;2011-06-06 15:00;CYQR 061500Z 35009KT 15SM FEW070 FEW260 16/09 A2996 RMK AC1CI1 SLP152

CYQR;2011-06-06 16:00;CYQR 061600Z 36009KT 15SM FEW023 SCT210 BKN260 17/10 A2996 RMK CU1CI2CI1 SLP151

CYQR;2011-06-06 17:00;CYQR 061700Z 03006KT 15SM FEW030 BKN072 BKN260 18/10 A2996 RMK CU1AC4CI2 SLP152

CYQR;2011-06-06 18:00;CYQR 061800Z 33004KT 15SM FEW040 BKN260 18/10 A2995 RMK CU2CI3 SLP149

CYQR;2011-06-06 19:00;CYQR 061900Z 00000KT 15SM FEW043 SCT065 BKN260 20/10 A2994 RMK CU2SC1CI1 SLP146

CYQR;2011-06-06 20:00;CYQR 062000Z 10002KT 15SM FEW047 BKN260 19/09 A2992 RMK CU2CI2 SLP141

CYQR;2011-06-06 21:00;CYQR 062100Z 08004KT 15SM FEW049 BKN260 20/10 A2989 RMK CU2CI2 SLP131

CYQR;2011-06-06 22:00;CYQR 062200Z 36005KT 15SM FEW057 SCT095 BKN260 21/10 A2988 RMK CU2AC2CI1 SLP129

CYQR;2011-06-06 23:00;CYQR 062300Z 34006KT 15SM FEW056 SCT084 BKN260 20/09 A2987 RMK CU1AC2CI1 CU TR SLP126

CYQR;2011-06-07 00:00;CYQR 070000Z 03007KT 15SM FEW064 FEW090 BKN260 20/09 A2985 RMK CU1AC1CI2 CU TR SLP117

CYQR;2011-06-07 01:00;CYQR 070100Z 06007KT 15SM FEW060 BKN260 19/09 A2984 RMK SC1CI1 SLP112

CYQR;2011-06-07 02:00;CYQR 070200Z 06007KT 15SM FEW060 FEW100 BKN300 18/09 A2983 RMK SC1AC1CI1 SLP110

CYQR;2011-06-07 03:00;CYQR 070300Z 06005KT 15SM FEW090 BKN300 16/08 A2984 RMK AC1CI2 SLP110

CYQR;2011-06-07 04:00;CYQR 070400Z 04007KT 15SM FEW100 BKN300 14/08 A2983 RMK AC1CI1 SLP109

CYQR;2011-06-07 05:00;CYQR 070500Z 07011KT 15SM FEW100 BKN300 15/06 A2984 RMK AC1CI1 SLP110

CYQR;2011-06-07 06:00;CYQR 070600Z 08011KT 15SM SCT100 BKN260 15/04 A2982 RMK AC3CI2 SLP104

CYQR;2011-06-07 07:00;CYQR 070700Z 09010KT 15SM BKN120 OVC260 14/04 A2983 RMK AC5CI2 SLP106

CYQR;2011-06-07 09:00;CYQR 070900Z 07012KT 15SM BKN096 OVC300 15/03 A2978 RMK AC6CI2 SLP089

CYQR;2011-06-07 09:19;CYQR 070919Z 08012G17KT 15SM -TSRA OVC084 14/ RMK AC8 CB EMBD

CYQR;2011-06-07 10:00;CYQR 071000Z CCA 07008KT 12SM -TSRA OVC080 12/07 A2978 RMK AC8 CB EMBD LTGCG SLP090

CYQR;2011-06-07 10:37;CYQR 071037Z 08008KT 15SM -SHRA OVC063 11/ RMK SC8 RETS

CYQR;2011-06-07 11:00;CYQR 071100Z 12008KT 15SM -SHRA OVC063 11/08 A2981 RETS RMK SC8 SLP100

CYQR;2011-06-07 12:00;CYQR 071200Z 12008KT 10SM -SHRA OVC023 11/08 A2981 RMK SC8 CVCTV CLD EMBD SLP100

CYQR;2011-06-07 13:00;CYQR 071300Z 12009KT 6SM -SHRA BR OVC028 10/08 A2980 RMK SC8 CVCTV CLD EMBD SLP099

CYQR;2011-06-07 13:35;CYQR 071335Z 10012KT 5SM -RA BR OVC013 10/ RMK SC8

CYQR;2011-06-07 13:50;CYQR 071350Z 10010KT 6SM -RA BR OVC016 10/ RMK SC8

CYQR;2011-06-07 14:00;CYQR 071400Z 09010KT 6SM -RA BR OVC016 10/07 A2978 RMK SC8 SLP093

CYQR;2011-06-07 14:27;CYQR 071427Z 07010G15KT 8SM -RA OVC014 10/ RMK SC8

CYQR;2011-06-07 15:00;CYQR 071500Z 06013KT 8SM -RA OVC012 10/08 A2975 RMK SC8 SLP083

CYQR;2011-06-07 15:19;CYQR 071519Z 06014KT 8SM -RA OVC009 11/ RMK SC8

CYQR;2011-06-07 16:00;CYQR 071600Z 06013KT 12SM -RA FEW009 SCT036 OVC060 11/08 A2973 RMK SC2SC2SC4 SLP078

CYQR;2011-06-07 17:00;CYQR 071700Z 09014G19KT 6SM -RA BR SCT021 OVC052 11/08 A2975 RMK SC3SC5 SLP083

CYQR;2011-06-07 18:00;CYQR 071800Z 06009KT 8SM -RA BKN030 OVC057 11/08 A2979 RMK SC6SC2 SLP097

CYQR;2011-06-07 19:00;CYQR 071900Z 09006KT 5SM -RA BR OVC025 11/08 A2980 RMK ST8 SLP102

CYQR;2011-06-07 19:16;CYQR 071916Z 08004KT 6SM -RA BR BKN012 OVC030 11/ RMK SC5ST3

CYQR;2011-06-07 19:28;CYQR 071928Z 08005KT 6SM -RA BR SCT012 OVC028 11/ RMK SC4ST4

CYQR;2011-06-07 20:00;CYQR 072000Z 03006KT 3SM -RA BR OVC021 11/09 A2981 RMK SC8 SLP103

CYQR;2011-06-07 21:00;CYQR 072100Z 04014G21KT 4SM -RA BR FEW010 BKN016 OVC074 11/07 A2982 RMK SF1SC6AC2 SLP108

CYQR;2011-06-07 22:00;CYQR 072200Z 03013KT 4SM -RA BR OVC017 10/07 A2985 RMK SC8 SLP116

CYQR;2011-06-07 23:00;CYQR 072300Z 07010G15KT 6SM -RA BR OVC020 11/06 A2985 RMK SC8 SLP116

CYQR;2011-06-07 23:32;CYQR 072332Z 09007KT 10SM SCT011 OVC023 11/ RMK SF0SC8

CYQR;2011-06-08 00:00;CYQR 080000Z 14010KT 12SM FEW013 OVC023 11/08 A2985 RMK SF0SC8 SLP121

CYQR;2011-06-08 01:00;CYQR 080100Z 19013KT 15SM FEW012 SCT025 OVC044 11/08 A2987 RMK SF0SC3SC5 SLP129

CYQR;2011-06-08 02:00;CYQR 080200Z 22010KT 15SM FEW036 SCT059 OVC100 10/08 A2989 RMK SC1SC2AC6 SLP134

CYQR;2011-06-08 03:00;CYQR 080300Z 28006KT 15SM FEW073 OVC100 09/08 A2992 RMK AC2AC6 SLP147

CYQR;2011-06-08 04:00;CYQR 080400Z 28009KT 15SM FEW076 OVC120 09/08 A2995 RMK AC2AC6 SLP155

CYQR;2011-06-08 05:00;CYQR 080500Z 28008KT 15SM OVC120 08/07 A2997 RMK AC8 SLP162

CYQR;2011-06-08 06:00;CYQR 080600Z 32006KT 15SM OVC120 08/06 A2999 RMK AC8 SLP170

CYQR;2011-06-08 07:00;CYQR 080700Z 28009KT 10SM BKN120 08/06 A3000 RMK AC2 SLP175

CYQR;2011-06-08 08:00;CYQR 080800Z 29009KT 10SM SCT120 08/06 A3001 RMK AC1 SLP178

CYQR;2011-06-08 09:00;CYQR 080900Z 30007KT 12SM SKC 06/05 A3002 RMK SLP182

CYQR;2011-06-08 10:00;CYQR 081000Z 32005KT 12SM FEW080 FEW250 04/03 A3002 RMK AC1CI1 SLP184

CYQR;2011-06-08 10:24;CYQR 081024Z 35005KT 4SM BR FEW080 FEW250 05/ RMK AC1CI1 VIS SW-W 1 BR

CYQR;2011-06-08 11:00;CYQR 081100Z CCA 33004KT 4SM BR FEW080 FEW250 05/04 A3003 RMK AC1CI1 VIS SW-W 1 SLP187

CYQR;2011-06-08 12:00;CYQR 081200Z 35003KT 4SM BR FEW080 FEW250 05/04 A3005 RMK AC1CI1 SLP192

CYQR;2011-06-08 13:00;CYQR 081300Z 33004KT 12SM FEW080 08/07 A3005 RMK AC2 SLP195

CYQR;2011-06-08 14:00;CYQR 081400Z 04003KT 15SM FEW071 SCT250 11/08 A3007 RMK AC1CI0 SLP200

CYQR;2011-06-08 15:00;CYQR 081500Z 11002KT 15SM BKN250 13/09 A3009 RMK CI1 SLP202

CYQR;2011-06-08 16:00;CYQR 081600Z 03003KT 15SM FEW025 BKN250 15/08 A3009 RMK CF1CI1 SLP203

CYQR;2011-06-08 17:00;CYQR 081700Z 10004KT 15SM FEW034 FEW250 16/06 A3009 RMK CU2CI0 SLP203

CYQR;2011-06-08 18:00;CYQR 081800Z 01005KT 15SM FEW050 BKN250 16/06 A3009 RMK CU2CI1 SLP202

CYQR;2011-06-08 19:00;CYQR 081900Z 10002KT 15SM SCT049 BKN250 16/05 A3009 RMK CU4CI1 SLP203

CYQR;2011-06-08 20:00;CYQR 082000Z 36006KT 15SM SCT057 BKN250 16/06 A3009 RMK CU3CI1 VIRGA SLP201

CYQR;2011-06-08 21:00;CYQR 082100Z 19008KT 15SM SCT057 BKN250 17/09 A3008 RMK CU4CI0 SLP200

CYQR;2011-06-08 22:00;CYQR 082200Z 16003KT 15SM SCT049 BKN250 17/07 A3008 RMK CU4CI0 SLP198

CYQR;2011-06-08 23:00;CYQR 082300Z 12009G17KT 15SM SCT050 SCT091 BKN250 18/08 A3008 RMK CU3AC1CI0 SLP200

CYQR;2011-06-09 00:00;CYQR 090000Z 16008KT 15SM FEW050 BKN250 18/08 A3009 RMK SC2CI0 SLP203

CYQR;2011-06-09 01:00;CYQR 090100Z 17009KT 15SM SCT058 BKN250 17/08 A3010 RMK SC3CI2 CU ASOCTD SLP207

CYQR;2011-06-09 02:00;CYQR 090200Z 14007KT 15SM FEW051 FEW090 SCT210 BKN270 16/07 A3011 RMK SC2AC1CC1CI1 SLP211

CYQR;2011-06-09 03:00;CYQR 090300Z 16006KT 15SM FEW090 BKN210 BKN270 14/08 A3012 RMK AC1CI4CI1 CC ASOCTD SLP212

CYQR;2011-06-09 04:00;CYQR 090400Z 16007KT 15SM BKN210 13/08 A3014 RMK CI4 SLP216

CYQR;2011-06-09 05:00;CYQR 090500Z 16006KT 15SM OVC210 12/09 A3014 RMK CI3 SLP218

CYQR;2011-06-09 06:00;CYQR 090600Z 17005KT 15SM SCT210 11/09 A3015 RMK CI0 SLP220

CYQR;2011-06-09 07:00;CYQR 090700Z 13006KT 15SM SKC 09/07 A3015 RMK SLP221

CYQR;2011-06-09 08:00;CYQR 090800Z 11004KT 15SM SKC 08/07 A3015 RMK SLP222

CYQR;2011-06-09 09:00;CYQR 090900Z 12005KT 15SM SKC 07/05 A3015 RMK SLP224

CYQR;2011-06-09 10:00;CYQR 091000Z 11006KT 15SM FEW210 06/04 A3016 RMK CI1 SLP227

CYQR;2011-06-09 11:00;CYQR 091100Z 14007KT 15SM FEW060 FEW210 06/04 A3017 RMK SC1CI1 SLP228

CYQR;2011-06-09 12:00;CYQR 091200Z 12006KT 15SM FEW060 FEW210 08/06 A3017 RMK SC1CI1 CU ASOCTD SLP229

CYQR;2011-06-09 13:00;CYQR 091300Z 13006KT 15SM FEW060 FEW210 SCT260 11/08 A3018 RMK SC1CI0CI1 CC ASOCTD SLP232

CYQR;2011-06-09 14:00;CYQR 091400Z 17006KT 15SM FEW060 FEW210 SCT280 13/08 A3019 RMK SC1CC1CI0 SLP234

CYQR;2011-06-09 15:00;CYQR 091500Z 16008KT 15SM FEW065 FEW160 SCT210 BKN300 14/09 A3018 RMK SC2AC1CC1CI0 SLP229

CYQR;2011-06-09 16:00;CYQR 091600Z 16008KT 15SM FEW058 FEW081 SCT300 16/08 A3016 RMK SC1AC1CI0 TR AC SLP225

CYQR;2011-06-09 17:00;CYQR 091700Z 17010KT 15SM BKN052 BKN100 BKN300 16/07 A3016 RMK CU6AC0CI1 SLP223

CYQR;2011-06-09 18:00;CYQR 091800Z 17010G16KT 15SM BKN047 BKN300 17/06 A3015 RMK CU6CI0 SLP221

CYQR;2011-06-09 19:00;CYQR 091900Z 16013KT 15SM BKN054 BKN300 18/07 A3014 RMK CU6CI0 SLP218

CYQR;2011-06-09 20:00;CYQR 092000Z 14011G16KT 15SM SCT052 BKN100 BKN300 17/06 A3013 RMK CU4AC0CI1 SLP214

CYQR;2011-06-09 21:00;CYQR 092100Z 14013KT 15SM SCT054 SCT100 BKN300 18/06 A3012 RMK CU4AC1CI0 SLP212

CYQR;2011-06-09 22:00;CYQR 092200Z 16009G15KT 15SM FEW054 BKN300 18/07 A3011 RMK CU2CI1 SLP208

CYQR;2011-06-09 23:00;CYQR 092300Z 17008KT 15SM SCT054 BKN300 18/07 A3010 RMK CU4CI1 SLP206

CYQR;2011-06-10 00:00;CYQR 100000Z 13007KT 15SM BKN052 BKN300 17/07 A3010 RMK SC6CI1 SLP205

CYQR;2011-06-10 01:00;CYQR 100100Z 16013KT 15SM BKN052 BKN300 16/07 A3010 RMK SC5CI1 SLP206

CYQR;2011-06-10 02:00;CYQR 100200Z 18014KT 15SM SCT052 BKN300 15/07 A3011 RMK SC2CI2 SLP208

CYQR;2011-06-10 03:00;CYQR 100300Z 16007KT 15SM FEW070 BKN300 13/06 A3011 RMK AC1CI2 SLP209

CYQR;2011-06-10 04:00;CYQR 100400Z 17005KT 15SM FEW070 SCT300 11/06 A3011 RMK AC1CI1 SLP209

CYQR;2011-06-10 05:00;CYQR 100500Z 14003KT 15SM SKC 10/06 A3011 RMK SLP208

CYQR;2011-06-10 06:00;CYQR 100600Z 11004KT 15SM SKC 09/06 A3011 RMK SLP208

CYQR;2011-06-10 07:00;CYQR 100700Z 11004KT 15SM SKC 08/05 A3010 RMK SLP205

CYQR;2011-06-10 08:00;CYQR 100800Z 11004KT 15SM SKC 07/05 A3010 RMK SLP205

CYQR;2011-06-10 09:00;CYQR 100900Z 12005KT 15SM SKC 06/04 A3010 RMK SLP204

CYQR;2011-06-10 10:00;CYQR 101000Z 13006KT 15SM FEW210 06/03 A3010 RMK CI1 SLP205

CYQR;2011-06-10 11:00;CYQR 101100Z 12006KT 15SM FEW210 05/03 A3010 RMK CI1 SLP204

CYQR;2011-06-10 12:00;CYQR 101200Z 12005KT 15SM FEW020 FEW210 07/05 A3009 RMK SC1CI1 SLP203

CYQR;2011-06-10 13:00;CYQR 101300Z 15003KT 15SM FEW270 10/07 A3010 RMK CI1 SLP206

CYQR;2011-06-10 14:00;CYQR 101400Z 18005KT 15SM FEW270 12/09 A3010 RMK CI1 SLP207

CYQR;2011-06-10 15:00;CYQR 101500Z 18008KT 15SM FEW025 FEW270 14/08 A3010 RMK CU1CI1 SLP204

CYQR;2011-06-10 16:00;CYQR 101600Z 16006KT 15SM FEW036 FEW270 16/07 A3010 RMK CU2CI1 SLP203

CYQR;2011-06-10 17:00;CYQR 101700Z 17010KT 15SM SCT043 SCT290 16/06 A3009 RMK CU3CI1 SLP200

CYQR;2011-06-10 18:00;CYQR 101800Z 18005KT 15SM SCT045 17/07 A3008 RMK CU3 SLP198

CYQR;2011-06-10 19:00;CYQR 101900Z 16005KT 15SM SCT048 17/07 A3006 RMK CU3 SLP193

CYQR;2011-06-10 20:00;CYQR 102000Z 18009KT 15SM SCT056 19/08 A3005 RMK CU3 SLP187

CYQR;2011-06-10 21:00;CYQR 102100Z 21009KT 15SM FEW056 18/05 A3003 RMK CU2 SLP182

CYQR;2011-06-10 22:00;CYQR 102200Z 20010G17KT 15SM FEW060 19/06 A3003 RMK CU1 SLP181

CYQR;2011-06-10 23:00;CYQR 102300Z 19007KT 15SM FEW062 18/06 A3001 RMK CU2 SLP177

CYQR;2011-06-11 00:00;CYQR 110000Z 18008KT 15SM FEW062 19/06 A3000 RMK SC2 SLP172

CYQR;2011-06-11 01:00;CYQR 110100Z 15006KT 15SM SCT060 19/07 A3000 RMK SC3 CU ASOCTD SLP169

CYQR;2011-06-11 02:00;CYQR 110200Z 19014KT 15SM FEW060 18/08 A3000 RMK SC1 SLP170

CYQR;2011-06-11 03:00;CYQR 110300Z 19008KT 15SM FEW060 BKN290 15/08 A3000 RMK SC1CI1 SLP166

CYQR;2011-06-11 04:00;CYQR 110400Z 19008KT 15SM FEW060 FEW290 13/08 A3000 RMK SC1CI1 SLP167

CYQR;2011-06-11 05:00;CYQR 110500Z 18009KT 15SM SKC 12/09 A3000 RMK SLP168

CYQR;2011-06-11 06:00;CYQR 110600Z 18006KT 15SM SKC 11/08 A2999 RMK SLP166

CYQR;2011-06-11 07:00;CYQR 110700Z 18007KT 15SM FEW280 10/08 A2999 RMK CI1 SLP164

CYQR;2011-06-11 08:00;CYQR 110800Z 17006KT 15SM SKC 10/08 A2998 RMK SLP163

CYQR;2011-06-11 09:00;CYQR 110900Z 12006KT 15SM FEW100 08/07 A2998 RMK AC1 SLP163

CYQR;2011-06-11 10:00;CYQR 111000Z 12007KT 15SM BKN057 10/08 A2997 RMK SC5 SLP159

CYQR;2011-06-11 11:00;CYQR 111100Z 14007KT 15SM BKN055 11/09 A2996 RMK SC6 SLP156

CYQR;2011-06-11 12:00;CYQR 111200Z 14009KT 15SM BKN057 12/10 A2996 RMK SC7 SLP152

CYQR;2011-06-11 13:00;CYQR 111300Z 15009KT 15SM BKN057 BKN100 BKN260 13/10 A2996 RMK SC6AC2CI1 SLP152

CYQR;2011-06-11 14:00;CYQR 111400Z 16011G16KT 15SM FEW055 FEW090 14/10 A2994 RMK SC1AC1 SLP147

CYQR;2011-06-11 15:00;CYQR 111500Z 17018KT 15SM FEW024 FEW090 17/11 A2993 RMK CF1AC1 SLP142

CYQR;2011-06-11 16:00;CYQR 111600Z 17020KT 15SM SCT028 SCT280 17/10 A2992 RMK CU3CI1 SLP140

CYQR;2011-06-11 17:00;CYQR 111700Z 16018G25KT 15SM BKN034 BKN280 18/10 A2991 RMK CU6CI1 SLP135

CYQR;2011-06-11 18:00;CYQR 111800Z 16022G27KT 15SM BKN038 19/10 A2990 RMK CU6 SLP133

CYQR;2011-06-11 19:00;CYQR 111900Z 16019G27KT 15SM BKN046 19/10 A2988 RMK CU5 SLP127

CYQR;2011-06-11 20:00;CYQR 112000Z 15019G28KT 15SM BKN049 19/10 A2986 RMK CU7 SLP121

CYQR;2011-06-11 21:00;CYQR 112100Z 16018G27KT 15SM BKN049 BKN280 21/10 A2985 RMK CU5CI0 SLP115

CYQR;2011-06-11 22:00;CYQR 112200Z 16016G25KT 15SM BKN053 BKN280 21/10 A2983 RMK CU5CI1 SLP109

CYQR;2011-06-11 23:00;CYQR 112300Z 16018G24KT 15SM FEW050 BKN280 21/10 A2981 RMK CU2CI2 SLP105

CYQR;2011-06-12 00:00;CYQR 120000Z 16021KT 15SM FEW050 BKN280 21/10 A2981 RMK SC2CI2 SLP101

CYQR;2011-06-12 01:00;CYQR 120100Z 15016KT 15SM BKN058 BKN280 20/10 A2981 RMK SC6CI1 SLP101

CYQR;2011-06-12 02:00;CYQR 120200Z 15014G21KT 15SM SCT060 BKN280 19/10 A2981 RMK CU3CI1 SLP102

CYQR;2011-06-12 03:00;CYQR 120300Z 15018KT 15SM SCT067 BKN280 18/10 A2982 RMK AC3CI1 SLP103

CYQR;2011-06-12 04:00;CYQR 120400Z 21008KT 15SM SCT067 BKN280 16/11 A2984 RMK AC3CI0 SLP108

CYQR;2011-06-12 05:00;CYQR 120500Z 17006KT 15SM FEW040 BKN070 14/10 A2984 RMK SC2AC1 SLP110

CYQR;2011-06-12 06:00;CYQR 120600Z 12008KT 15SM FEW045 BKN070 13/10 A2983 RMK SC2AC2 SLP106

CYQR;2011-06-12 07:00;CYQR 120700Z 12008KT 15SM BKN090 14/10 A2982 RMK AC6 SLP104

CYQR;2011-06-12 08:00;CYQR 120800Z 13010KT 15SM BKN087 14/10 A2981 RMK AC6 SLP102

CYQR;2011-06-12 09:00;CYQR 120900Z 14013KT 15SM BKN077 14/10 A2981 RMK AC6 SLP101

CYQR;2011-06-12 10:00;CYQR 121000Z 13011KT 15SM BKN075 13/10 A2981 RMK AC6 SLP100

CYQR;2011-06-12 11:00;CYQR 121100Z 14012KT 15SM BKN071 13/10 A2981 RMK AC5 SLP100

CYQR;2011-06-12 12:00;CYQR 121200Z 14010KT 15SM SCT071 13/10 A2981 RMK AC3 ACC EMBD SLP100

CYQR;2011-06-12 13:00;CYQR 121300Z 15013KT 15SM FEW083 14/11 A2981 RMK AC2 SLP100

CYQR;2011-06-12 14:00;CYQR 121400Z 16012KT 15SM FEW100 16/12 A2981 RMK AC1 SLP099

CYQR;2011-06-12 15:00;CYQR 121500Z 16014KT 15SM FEW020 FEW100 FEW300 17/12 A2980 RMK CU1AC1CI0 SLP096

CYQR;2011-06-12 16:00;CYQR 121600Z 16012KT 15SM FEW024 SCT300 19/13 A2980 RMK CU1CI1 SLP095

CYQR;2011-06-12 17:00;CYQR 121700Z 17015KT 15SM SCT024 BKN280 19/13 A2980 RMK CU3CI2 SLP094

CYQR;2011-06-12 18:00;CYQR 121800Z 15015KT 15SM BKN027 OVC270 19/13 A2980 RMK CU7CI0 SLP095

CYQR;2011-06-12 19:00;CYQR 121900Z 16017G24KT 15SM BKN031 BKN120 BKN270 20/14 A2979 RMK CU6AC1CI0 SLP093

CYQR;2011-06-12 20:00;CYQR 122000Z 14015KT 15SM BKN030 BKN120 BKN300 21/14 A2977 RMK CU5AC1CI0 SLP088

CYQR;2011-06-12 21:00;CYQR 122100Z 16014KT 15SM BKN033 BKN120 BKN300 22/14 A2977 RMK CU5AC1CI0 SLP084

CYQR;2011-06-12 22:00;CYQR 122200Z 15012G17KT 15SM SCT036TCU BKN300 21/14 A2976 RMK TCU3CI1 SLP080

CYQR;2011-06-12 23:00;CYQR 122300Z 15015KT 15SM SCT037TCU OVC220 21/14 A2974 RMK TCU3CI4 CB SW SLP076

CYQR;2011-06-13 00:00;CYQR 130000Z 16012G18KT 15SM SCT035TCU OVC220 20/14 A2974 RMK TCU3CI4 SLP077

CYQR;2011-06-13 01:00;CYQR 130100Z 15013KT 15SM FEW032 SCT070 OVC220 19/15 A2975 RMK CU2AC1CI5 SLP079

CYQR;2011-06-13 02:00;CYQR 130200Z 14018KT 12SM FEW030CB SCT100 OVC200 18/15 A2975 RMK CB2AC1CI5 LTG DIST SW SLP080

CYQR;2011-06-13 02:32;CYQR 130232Z 28011G20KT 10SM -SHRA BKN018CB BKN052 OVC090 14/ RMK CB5SC2AC2

CYQR;2011-06-13 03:00;CYQR 130300Z 33003KT 10SM -SHRA FEW020 OVC038CB 14/13 A2976 RMK SF2CB6 SLP086

CYQR;2011-06-13 04:00;CYQR 130400Z 04004KT 12SM -SHRA OVC028 14/13 A2976 RMK SC8 SLP083

CYQR;2011-06-13 04:40;CYQR 130440Z 06004KT 12SM SCT028 OVC056 14/ RMK SC3SC5

CYQR;2011-06-13 05:00;CYQR 130500Z 11002KT 15SM FEW028 OVC056 14/13 A2976 RMK SC2SC6 SLP083

CYQR;2011-06-13 06:00;CYQR 130600Z 11004KT 15SM SCT027 OVC065 14/13 A2976 RMK SC3SC5 SLP083

CYQR;2011-06-13 06:07;CYQR 130607Z 09005KT 15SM -SHRA BKN027 OVC060 14/ RMK SC5SC3

CYQR;2011-06-13 07:00;CYQR 130700Z 11006KT 10SM -SHRA OVC034 14/13 A2975 RMK SC8 SLP080

CYQR;2011-06-13 08:00;CYQR 130800Z 10003KT 15SM -SHRA OVC043 14/13 A2974 RMK SC8 SLP077

CYQR;2011-06-13 09:00;CYQR 130900Z 00000KT 15SM SCT043 OVC077 13/13 A2973 RMK SC4AC4 SLP070

CYQR;2011-06-13 09:13;CYQR 130913Z 29003KT 15SM FEW043 OVC081 13/ RMK SC2AC6

CYQR;2011-06-13 10:00;CYQR 131000Z 00000KT 3SM BR OVC081 12/12 A2972 RMK AC8 SLP068

CYQR;2011-06-13 10:09;CYQR 131009Z 00000KT 1SM BR OVC081 13/ RMK AC8

CYQR;2011-06-13 10:45;CYQR 131045Z 05002KT 3SM BR MIFG BKN085 12/ RMK AC6 VIS SW 1

CYQR;2011-06-13 11:00;CYQR 131100Z 01002KT 3SM BR MIFG BKN083 13/13 A2971 RMK AC6 VIS W 1 SLP066

CYQR;2011-06-13 11:41;CYQR 131141Z 28004KT 1SM BR MIFG BKN081 13/ RMK AC6 VIS VRBL 1/2-11/2

CYQR;2011-06-13 12:00;CYQR 131200Z 35002KT 1SM BR MIFG BKN081 13/13 A2972 RMK AC6 VIS VRBL 1/2-11/2 SLP069

CYQR;2011-06-13 12:18;CYQR 131218Z 02003KT 3SM BR BKN081 13/ RMK AC5

CYQR;2011-06-13 12:43;CYQR 131243Z 34002KT 10SM FEW003 SCT078 BKN300 14/ RMK SF2AC2CI1

CYQR;2011-06-13 13:00;CYQR 131300Z 27004KT 12SM FEW003 SCT078 BKN300 14/14 A2973 RMK SF1AC2CI0 VIS SW-NW 3 SLP072

CYQR;2011-06-13 14:00;CYQR 131400Z 24003KT 12SM FEW006 SCT078 BKN110 15/14 A2972 RMK SF1AC3AC2 SLP069

CYQR;2011-06-13 15:00;CYQR 131500Z 26006KT 15SM FEW008 BKN066 BKN110 16/14 A2972 RMK CU1AC5AC2 SLP072

CYQR;2011-06-13 16:00;CYQR 131600Z 25005KT 15SM FEW012 BKN067 BKN120 18/15 A2973 RMK CU1AC4AC1 SLP073

CYQR;2011-06-13 17:00;CYQR 131700Z 25010KT 15SM FEW022 FEW096 SCT300 21/15 A2972 RMK CU1AC2CI0 TCU ASOCTD SLP072

CYQR;2011-06-13 18:00;CYQR 131800Z 25009G16KT 15SM FEW038 FEW300 22/14 A2972 RMK CU2CI0 CB TOP NE SLP066

CYQR;2011-06-13 19:00;CYQR 131900Z 29012G20KT 15SM BKN048 BKN300 22/13 A2971 RMK CU6CI0 TCU ASOCTD SLP063

CYQR;2011-06-13 20:00;CYQR 132000Z 27012KT 15SM BKN050TCU 22/13 A2972 RMK TCU6 SLP067

CYQR;2011-06-13 21:00;CYQR 132100Z 27006KT 15SM BKN040TCU BKN080 BKN300 22/13 A2971 RMK TCU5AC1CI1 SLP066

CYQR;2011-06-13 21:04;CYQR 132104Z 31004KT 15SM -SHRA BKN040TCU BKN080 BKN300 22/ RMK TCU5AC1CI1

CYQR;2011-06-13 21:09;CYQR 132109Z 33013KT 15SM -TSRA SCT040TCU BKN055CB BKN100 BKN300 19/ RMK TCU4CB2AC1CI0

CYQR;2011-06-13 22:00;CYQR 132200Z 36004G21KT 15SM -TSRA SCT053TCU BKN075CB BKN300 19/13 A2971 RERA RMK TCU4CB2CI0 SLP066

CYQR;2011-06-13 22:07;CYQR 132207Z 34002KT 15SM -SHRA SCT053TCU BKN083CB BKN300 21/ RETS RMK TCU4CB2CI1

CYQR;2011-06-13 22:20;CYQR 132220Z 30005KT 15SM BKN056TCU BKN078CB 21/ RETS RMK TCU5CB1

CYQR;2011-06-13 23:00;CYQR 132300Z CCA 26014KT 15SM SCT060TCU SCT300 24/14 A2971 RETS RMK TCU3CI1 CB ASOCTD ESE SLP066

CYQR;2011-06-14 00:00;CYQR 140000Z 26008KT 15SM SCT068TCU BKN300 23/13 A2971 RMK TCU3CI0 SLP066

CYQR;2011-06-14 01:00;CYQR 140100Z 26010KT 15SM FEW045 FEW071 SCT300 24/12 A2972 RMK CU2AC1CI0 SLP067

CYQR;2011-06-14 02:00;CYQR 140200Z 34004KT 15SM FEW045 FEW071 SCT300 22/16 A2973 RMK CU2AC1CI1 SLP070

CYQR;2011-06-14 03:00;CYQR 140300Z 17003KT 15SM FEW045 SCT080 BKN300 20/14 A2974 RMK SC1AC3CI1 SLP074

CYQR;2011-06-14 04:00;CYQR 140400Z 21008KT 15SM FEW080 SCT280 17/13 A2976 RMK AC2CI0 SLP079

CYQR;2011-06-14 05:00;CYQR 140500Z 21008KT 15SM FEW080 SCT280 16/12 A2976 RMK AC2CI0 SLP079

CYQR;2011-06-14 06:00;CYQR 140600Z 21006KT 15SM FEW080 SCT280 14/12 A2976 RMK AC2CI0 SLP079

CYQR;2011-06-14 07:00;CYQR 140700Z 18005KT 15SM FEW080 SCT280 14/12 A2975 RMK AC2CI0 SLP076

CYQR;2011-06-14 08:00;CYQR 140800Z 18008KT 15SM FEW080 SCT280 14/12 A2976 RMK AC2CI0 SLP079

CYQR;2011-06-14 09:00;CYQR 140900Z 17004KT 15SM FEW080 SCT280 14/12 A2975 RMK AC2CI0 SLP078

CYQR;2011-06-14 10:00;CYQR 141000Z 12004KT 15SM FEW080 FEW280 12/11 A2974 RMK AC1CI0 SLP075

CYQR;2011-06-14 11:00;CYQR 141100Z 14004KT 15SM FEW087 BKN280 12/10 A2975 RMK AC2CI1 SLP078

CYQR;2011-06-14 12:00;CYQR 141200Z 12003KT 15SM BKN089 BKN280 12/11 A2975 RMK AC5CI2 SLP079

CYQR;2011-06-14 13:00;CYQR 141300Z 14003KT 15SM BKN096 BKN280 13/12 A2975 RMK AC5CI2 SLP079

CYQR;2011-06-14 14:00;CYQR 141400Z 27005KT 15SM FEW070 BKN130 OVC280 15/13 A2976 RMK ACC1AS4CI2 SLP081

CYQR;2011-06-14 15:00;CYQR 141500Z 29007KT 15SM FEW070 BKN140 OVC300 18/14 A2977 RMK ACC2AS6CI1 SLP084

CYQR;2011-06-14 16:00;CYQR 141600Z 27012KT 15SM SCT030 BKN078 OVC300 18/14 A2978 RMK SC4AC3CI1 SLP088

CYQR;2011-06-14 17:00;CYQR 141700Z 28013KT 15SM FEW015 SCT076 BKN140 OVC300 18/14 A2978 RMK CU1AC3AS3CI2 SLP088

CYQR;2011-06-14 18:00;CYQR 141800Z 29010KT 15SM SCT020 BKN058 OVC120 17/14 A2980 RMK CU3SC2AS3 SLP097

CYQR;2011-06-14 19:00;CYQR 141900Z 25009KT 15SM -SHRA BKN022 OVC051 18/14 A2980 RMK SC6SC2 CVCTV CLD EMBD SLP098

CYQR;2011-06-14 20:00;CYQR 142000Z 23006KT 15SM -SHRA FEW010 SCT024 OVC057 16/14 A2980 RMK CU1SC3SC4 CVCTV CLD EMBD SLP098

CYQR;2011-06-14 21:00;CYQR 142100Z 15004KT 15SM -SHRA FEW010 BKN060 BKN120 BKN300 17/14 A2979 RMK CU2SC3AC1CI1 CVCTV CLD EMBD SLP093

CYQR;2011-06-14 21:10;CYQR 142110Z 14006KT 15SM FEW010 FEW060 SCT120 BKN300 18/ RMK CU2SC1AC1CI1

CYQR;2011-06-14 22:00;CYQR 142200Z 20005KT 15SM FEW025 SCT100 BKN300 18/13 A2977 RMK CU2AC2CI2 SLP088

CYQR;2011-06-14 23:00;CYQR 142300Z 25007KT 15SM FEW025 FEW100 BKN300 19/14 A2975 RMK CU1AC2CI1 SLP081

CYQR;2011-06-15 00:00;CYQR 150000Z 26007KT 15SM FEW040 BKN300 20/14 A2975 RMK CU2CI1 CB S SLP079

CYQR;2011-06-15 01:00;CYQR 150100Z 00000KT 15SM FEW040 FEW120 FEW300 20/14 A2974 RMK CU1AC1CI1 SLP078

CYQR;2011-06-15 02:00;CYQR 150200Z 25003KT 15SM FEW040TCU FEW120 SCT300 19/13 A2975 RMK TCU2AC1CI0 SLP079

CYQR;2011-06-15 03:00;CYQR 150300Z CCA 17002KT 15SM VCSH BKN060CB BKN120 BKN300 18/13 A2973 RMK CB5AC1CI1 SLP073

CYQR;2011-06-15 03:51;CYQR 150351Z 22007KT 15SM TS BKN055CB BKN082 16/ RMK CB5AC1

CYQR;2011-06-15 04:00;CYQR 150400Z 29011KT 15SM TS BKN055CB BKN082 16/13 A2975 RMK CB5AC1 LTGCC W SLP078

CYQR;2011-06-15 04:06;CYQR 150406Z 28019KT 10SM -TSRA FEW017 BKN055CB 15/ RMK CF2CB5

CYQR;2011-06-15 04:12;CYQR 150412Z 28014G22KT 6SM SHRA FEW017 BKN055CB 14/ RMK CF2CB5

CYQR;2011-06-15 04:29;CYQR 150429Z 26006KT 10SM -SHRA FEW017 BKN055CB OVC081 15/ RETS RMK CF2CB5AC2

CYQR;2011-06-15 05:00;CYQR 150500Z 30005KT 10SM -SHRA OVC021CB 15/12 A2973 RETS RMK CB8 SLP073

CYQR;2011-06-15 06:00;CYQR 150600Z 23005KT 15SM FEW021 BKN081 13/12 A2973 RMK SC2AC4 SLP073

CYQR;2011-06-15 06:28;CYQR 150628Z 26006KT 15SM FEW080 12/ RMK AC2

CYQR;2011-06-15 07:00;CYQR 150700Z 28008KT 15SM FEW080 SCT280 13/12 A2972 RMK AC2CI0 SLP070

CYQR;2011-06-15 08:00;CYQR 150800Z 31007KT 15SM SCT280 12/11 A2972 RMK CI1 SLP070

CYQR;2011-06-15 09:00;CYQR 150900Z 28005KT 15SM SCT280 11/10 A2972 RMK CI1 SLP073

CYQR;2011-06-15 10:00;CYQR 151000Z 30007KT 15SM SCT280 11/10 A2972 RMK CI1 SLP072

CYQR;2011-06-15 11:00;CYQR 151100Z 28006KT 15SM FEW120 SCT280 10/09 A2972 RMK AC1CI2 SLP074

CYQR;2011-06-15 12:00;CYQR 151200Z 26008KT 12SM FEW120 SCT280 11/10 A2973 RMK AC1CI2 SLP073

CYQR;2011-06-15 12:34;CYQR 151234Z 28006KT 12SM FEW008 FEW120 FEW280 12/ RMK SF1AC1CI1

CYQR;2011-06-15 13:00;CYQR 151300Z 28008KT 15SM FEW008 FEW120 FEW280 13/11 A2973 RMK SF1AC1CI1 SLP073

CYQR;2011-06-15 14:00;CYQR 151400Z 30010KT 15SM FEW280 15/12 A2972 RMK CI1 SLP072

CYQR;2011-06-15 15:00;CYQR 151500Z 28008KT 15SM FEW012 FEW300 17/13 A2971 RMK CF1CI1 SLP067

CYQR;2011-06-15 16:00;CYQR 151600Z 28007KT 15SM FEW020 FEW300 18/13 A2970 RMK CF1CI0 SLP063

CYQR;2011-06-15 17:00;CYQR 151700Z 28009G15KT 15SM FEW032 FEW300 19/12 A2969 RMK CF1CI0 SLP058

CYQR;2011-06-15 18:00;CYQR 151800Z 28009KT 15SM FEW032 FEW090 FEW300 21/13 A2968 RMK CU1AC1CI0 SLP055

CYQR;2011-06-15 19:00;CYQR 151900Z 28010G15KT 15SM FEW050 SCT100 SCT300 21/12 A2967 RMK CU2AC1CI0 SLP052

CYQR;2011-06-15 20:00;CYQR 152000Z 29013G20KT 15SM SCT052 SCT300 22/12 A2966 RMK CU4CI1 TCU ASOCTD SLP048

CYQR;2011-06-15 21:00;CYQR 152100Z 28011KT 15SM SCT060 BKN300 23/12 A2965 RMK CU4CI0 SLP044

CYQR;2011-06-15 22:00;CYQR 152200Z 24012G19KT 15SM SCT065 24/09 A2964 RMK CU4 TCU ASOCTD SLP041

CYQR;2011-06-15 23:00;CYQR 152300Z 26009G16KT 15SM FEW077 23/08 A2963 RMK CU2 SLP039

CYQR;2011-06-16 00:00;CYQR 160000Z 25011G17KT 15SM FEW080 23/07 A2963 RMK CU2 SLP038

CYQR;2011-06-16 01:00;CYQR 160100Z 23008KT 15SM FEW087TCU 23/06 A2963 RMK TCU1 CB DIST W SLP037

CYQR;2011-06-16 02:00;CYQR 160200Z 22009KT 15SM FEW050 21/07 A2963 RMK SC1 SLP038

CYQR;2011-06-16 03:00;CYQR 160300Z 30012KT 15SM FEW050 16/10 A2965 RMK SC1 SLP045

CYQR;2011-06-16 04:00;CYQR 160400Z 34004KT 15SM FEW095 FEW300 14/09 A2966 RMK AC1CI1 CB TOP DIST N SLP050

CYQR;2011-06-16 05:00;CYQR 160500Z 26004KT 15SM FEW094 SCT300 12/09 A2967 RMK AC1CI0 SLP052

CYQR;2011-06-16 06:00;CYQR 160600Z 25003KT 15SM BKN300 11/09 A2967 RMK CI2 SLP052

CYQR;2011-06-16 07:00;CYQR 160700Z 21003KT 15SM FEW100 OVC300 11/08 A2969 RMK AC2CI4 SLP059

CYQR;2011-06-16 08:00;CYQR 160800Z 23006KT 15SM FEW100 FEW300 10/08 A2969 RMK AC1CI1 SLP060

CYQR;2011-06-16 09:00;CYQR 160900Z 25005KT 15SM SCT080 BKN300 11/09 A2971 RMK AC3CI1 SLP065

CYQR;2011-06-16 10:00;CYQR 161000Z 23003KT 15SM BKN100 10/09 A2970 RMK AC6 SLP063

CYQR;2011-06-16 11:00;CYQR 161100Z 25005KT 15SM FEW060 BKN100 11/10 A2972 RMK SC2AC5 SLP069

CYQR;2011-06-16 12:00;CYQR 161200Z 26006KT 15SM BKN078 BKN140 12/11 A2973 RMK AC6AC2 SLP070

CYQR;2011-06-16 13:00;CYQR 161300Z 28005KT 15SM SCT084 BKN210 BKN280 14/11 A2972 RMK AC4CI2CI0 SLP069

CYQR;2011-06-16 14:00;CYQR 161400Z 27004KT 15SM BKN082 BKN210 14/11 A2973 RMK AC6CI1 SLP072

CYQR;2011-06-16 15:00;CYQR 161500Z 31003KT 15SM FEW016 BKN078 OVC210 15/11 A2974 RMK SC1AC5CI2 CF AND ACC ASOCTD SLP077

CYQR;2011-06-16 16:00;CYQR 161600Z 32002KT 15SM FEW025 SCT073 BKN210 BKN260 17/11 A2975 RMK SC2AC2CI2CI0 CU AND ACC ASOCTD SLP079

CYQR;2011-06-16 17:00;CYQR 161700Z 21006KT 15SM FEW029 BKN075 18/11 A2975 RMK CU2AC3 SLP081

CYQR;2011-06-16 18:00;CYQR 161800Z 18006KT 15SM FEW035 BKN076 19/11 A2976 RMK CU1AC2 SLP084

CYQR;2011-06-16 19:00;CYQR 161900Z 14011KT 15SM FEW036 BKN082 19/10 A2976 RMK CU1AC2 SLP085

CYQR;2011-06-16 20:00;CYQR 162000Z 18007G15KT 15SM FEW069 SCT080 BKN210 BKN260 20/09 A2976 RMK CU2AC1CI1CI1 SLP087

CYQR;2011-06-16 20:55;CYQR 162055Z 16009G15KT 15SM -SHRA SCT047 BKN072 OVC230 19/ RMK CU3ACC2CI2

CYQR;2011-06-16 21:00;CYQR 162100Z 17008KT 15SM -SHRA SCT044 BKN072 OVC230 19/10 A2978 RMK CU3ACC2CI2 SLP091

CYQR;2011-06-16 22:00;CYQR 162200Z 15014G19KT 15SM -SHRA SCT041 BKN068 OVC230 18/11 A2979 RMK CU3ACC2CI2 SLP094

CYQR;2011-06-16 23:00;CYQR 162300Z CCA 16009KT 15SM FEW040 BKN074 BKN230 17/12 A2979 RMK CU1AC7CI1 SLP094

CYQR;2011-06-17 00:00;CYQR 170000Z 14009KT 15SM FEW040 BKN078 BKN090 17/12 A2977 RMK CU1AC5ACC2 TCU ASOCTD SLP088

CYQR;2011-06-17 01:00;CYQR 170100Z 13006KT 15SM FEW040 OVC078 17/12 A2977 RMK CU1AC7 TCU/ACC ASOCTD SLP088

CYQR;2011-06-17 02:00;CYQR 170200Z 13006KT 15SM -SHRA SCT012 BKN071 16/11 A2976 RMK SC3AC4 CVCTV CLD EMBD SLP085

CYQR;2011-06-17 03:00;CYQR 170300Z 14010G18KT 5SM -SHRA BR BKN018 OVC089 15/12 A2978 RMK SC6AC2 SLP093

CYQR;2011-06-17 04:00;CYQR 170400Z 10006KT 10SM -SHRA OVC025 13/11 A2979 RMK SC8 CVCTV CLD EMBD SLP095

CYQR;2011-06-17 05:00;CYQR 170500Z 09010KT 12SM -RA FEW010 OVC029 13/12 A2976 RMK SF1SC7 CVCTV CLD EMBD SLP086

CYQR;2011-06-17 06:00;CYQR 170600Z CCA 10013KT 8SM RA SCT013 OVC019 13/12 A2978 RMK SC4SC4 CVCTV CLD EMBD /R12/ SLP091

CYQR;2011-06-17 07:00;CYQR 170700Z 10013KT 8SM RA OVC019 14/12 A2976 RMK SC8 SLP084

CYQR;2011-06-17 08:00;CYQR 170800Z 00000KT 15SM -RA FEW019 SCT045 BKN094 13/12 A2975 RERA RMK SC2SC2AC3 SLP081

CYQR;2011-06-17 09:00;CYQR 170900Z 11004KT 15SM -RA BKN017 OVC094 13/12 A2977 RMK SC6AC2 SLP086

CYQR;2011-06-17 10:00;CYQR 171000Z 09005KT 15SM -RA SCT013 BKN018 BKN056 13/12 A2976 RMK SC3SC2SC1 SLP084

CYQR;2011-06-17 11:00;CYQR 171100Z 10006KT 5SM -RA BR BKN016 OVC049 13/12 A2974 RMK SC6SC2 SLP077

CYQR;2011-06-17 11:18;CYQR 171118Z 08005KT 5SM RA BR SCT004 OVC016 13/ RMK SF3SC5

CYQR;2011-06-17 12:00;CYQR 171200Z 09006KT 15SM -RA FEW004 BKN026 BKN086 14/13 A2970 RERA RMK SF1SC4AC2 SLP065

CYQR;2011-06-17 12:31;CYQR 171231Z 06002KT 15SM FEW004 SCT055 BKN098 14/ RMK SF1SC3AC3

CYQR;2011-06-17 13:00;CYQR 171300Z 35004KT 15SM BKN055 BKN100 BKN280 14/13 A2970 RMK SC5AC2CI0 SLP063

CYQR;2011-06-17 13:44;CYQR 171344Z 02004KT 3SM -SHRA BR FEW020 BKN056 OVC079 14/ RMK FG1SC2SC3ACC2

CYQR;2011-06-17 14:00;CYQR 171400Z 03004KT 3SM -SHRA BR FEW020 BKN056 OVC079 14/14 A2971 RMK FG1SC1SC3ACC3 SLP067

CYQR;2011-06-17 14:08;CYQR 171408Z 05005KT 3SM SHRA BR FEW013 BKN056 OVC079 14/ RMK FG1SC2SC2ACC3

CYQR;2011-06-17 14:37;CYQR 171437Z 07009KT 3SM -SHRA BR FEW011 BKN056 OVC079 15/ RERA RMK FG1SC2SC2ACC3

CYQR;2011-06-17 15:00;CYQR 171500Z 08010KT 3SM -SHRA BR BKN013 OVC060 15/13 A2968 RERA RMK FG1SC4SC3 SLP058

CYQR;2011-06-17 15:07;CYQR 171507Z 07011KT 2 1/2SM SHRA BR BKN011 OVC063 15/ RMK FG2SC6SC1 CVCTV CLD ASCOCTD

CYQR;2011-06-17 15:21;CYQR 171521Z 06010G16KT 1 1/2SM SHRA BR BKN008 OVC052 15/ RMK FG2SF2SC4 CVCTV CLD ASOCTD

CYQR;2011-06-17 15:38;CYQR 171538Z 06011KT 1 1/2SM +SHRA BR BKN011 OVC063 15/ RMK FG2SC4SC2 CVCTV CLD ASOCTD

CYQR;2011-06-17 16:00;CYQR 171600Z 08009KT 2SM SHRA BR BKN008 OVC060 15/14 A2965 RERA RMK FG2SF2SC4 CVCTV CLD ASOCTD SLP049

CYQR;2011-06-17 16:36;CYQR 171636Z 07010KT 2SM -SHRA BR BKN008 OVC019 15/ RERA RMK FG2SF2SC4 CVCTV CLD ASOCTD

CYQR;2011-06-17 16:49;CYQR 171649Z 09005KT 2SM SHRA BR BKN008 OVC017 15/ RMK FG2SF4SC2 CVCTV CLD ASOCTD

CYQR;2011-06-17 17:00;CYQR 171700Z 06007KT 2SM SHRA BR BKN010 OVC017 15/14 A2964 RMK FG2SC5SC2 CVCTV CLD ASOCTD /R16/ SLP046

CYQR;2011-06-17 17:12;CYQR 171712Z 07011KT 1 1/2SM SHRA BR BKN007 OVC017 15/ RMK FG2SF4SC2 CVCTV CLD ASOCTD

CYQR;2011-06-17 17:47;CYQR 171747Z 07016G24KT 3SM -SHRA BR BKN009 OVC050 15/ RERA RMK FG1SF4SC3 CVCTV CLD ASOCTD

CYQR;2011-06-17 18:00;CYQR 171800Z 07015KT 3SM -SHRA BR BKN007 OVC050 15/14 A2959 RERA RMK FG1SC5SC2 CVCTV CLD EMBD /R25/ SLP027

CYQR;2011-06-17 18:30;CYQR 171830Z 08018KT 3SM SHRA BR BKN007 OVC048 15/ RMK FG1SC5SC2 CVCTV CLD ASOCTD

CYQR;2011-06-17 19:00;CYQR 171900Z 09017KT 1SM SHRA BR BKN007 OVC029 15/14 A2955 RMK FG2SF5SC2 CVCTV CLD ASOCTD SLP013

CYQR;2011-06-17 19:09;CYQR 171909Z 09018G24KT 3SM SHRA BR BKN007 OVC048 15/ RMK FG1SF4SC3 CVCTV CLD ASOCTD

CYQR;2011-06-17 20:00;CYQR 172000Z 10018G30KT 3SM -SHRA BR OVC008 15/14 A2952 RERA RMK SF8 CVCTV CLD ASOCTD SLP005

CYQR;2011-06-17 20:42;CYQR 172042Z 11022G29KT 6SM -SHRA BR OVC011 15/ RMK SC8 CVCTV CLD ASOCTD

CYQR;2011-06-17 21:00;CYQR 172100Z 11019G34KT 4SM -SHRA BR OVC009 15/14 A2950 RMK SC8 CVCTV CLD EMBD /R11/ SLP997

CYQR;2011-06-17 21:44;CYQR 172144Z 11024G32KT 1SM SHRA BR OVC012 15/ RMK FG2SC6 CVCTV CLD EMBD

CYQR;2011-06-17 21:50;CYQR 172150Z 10025G33KT 3SM SHRA BR BKN012 OVC034 15/ RMK SC6SC2 CVCTV CLD ASOCTD

CYQR;2011-06-17 22:00;CYQR 172200Z 10023G31KT 3SM SHRA BR BKN010 OVC040 15/14 A2948 RMK SC5SC3 CVCTV CLD EMBD SLP989

CYQR;2011-06-17 22:13;CYQR 172213Z 10021G35KT 5SM -SHRA BR BKN008 BKN040 15/ RERA RMK SF5SC2 CVCTV CLD EMBD

CYQR;2011-06-17 23:00;CYQR 172300Z 10021G31KT 10SM -SHRA OVC009 15/14 A2944 RERA RMK SF8 CVTV CLD EMBD SLP977

CYQR;2011-06-17 23:14;CYQR 172314Z 11023G33KT 15SM BKN010 BKN025 BKN060 16/ RMK SF3SC4SC1

CYQR;2011-06-17 23:53;CYQR 172353Z 12031G43KT 15SM SCT018 SCT083 BKN240 15/ RMK SC3AC1CI0 CU ASOCTD

CYQR;2011-06-18 00:00;CYQR 180000Z CCA 12033G43KT 15SM SCT018 SCT083 BKN240 15/12 A2941 RMK SC3AC1CI0 CU ASOCTD /R16/ SLP964

CYQR;2011-06-18 01:00;CYQR 180100Z 12029G43KT 15SM BKN020 BKN070 14/10 A2938 RMK SC5AC1 SLP957

CYQR;2011-06-18 02:00;CYQR 180200Z 12026G33KT 15SM BKN013 BKN040 OVC280 13/11 A2936 RMK SC5SC2CI0 SLP951

CYQR;2011-06-18 03:00;CYQR 180300Z 17027G33KT 15SM BKN013 OVC040 13/10 A2940 RMK SC7SC1 SLP963

CYQR;2011-06-18 03:31;CYQR 180331Z 18030G35KT 15SM -SHRA BKN013 OVC040 12/ RMK SC7SC1

CYQR;2011-06-18 04:00;CYQR 180400Z 19035G40KT 15SM -SHRA BKN013 OVC040 12/09 A2943 RMK SC7SC1 SLP973

CYQR;2011-06-18 05:00;CYQR 180500Z CCA 19036G42KT 6SM -RA BR OVC013 11/09 A2946 RMK SC8 SLP981

CYQR;2011-06-18 05:40;CYQR 180540Z 19033KT 15SM -RA BKN015 OVC040 12/ RMK SC6SC2

CYQR;2011-06-18 05:53;CYQR 180553Z 19032G41KT 15SM BKN017 OVC040 12/ RMK SC6SC2

CYQR;2011-06-18 06:00;CYQR 180600Z 18033G41KT 15SM BKN017 OVC040 12/08 A2946 RMK SC7SC1 SLP985

CYQR;2011-06-18 07:00;CYQR 180700Z 19033G39KT 15SM BKN019 OVC050 12/08 A2947 RMK SC7SC1 SLP987

CYQR;2011-06-18 08:00;CYQR 180800Z 19030G36KT 15SM OVC019 12/08 A2947 RMK SC8 SLP986

CYQR;2011-06-18 08:37;CYQR 180837Z 19029G36KT 15SM -RA OVC013 11/ RMK SC8

CYQR;2011-06-18 09:00;CYQR 180900Z 19029G36KT 8SM -RA OVC010 11/09 A2947 RMK SC8 SLP987

CYQR;2011-06-18 09:09;CYQR 180909Z 19029G37KT 6SM -RA BR OVC008 11/ RMK SC8

CYQR;2011-06-18 09:38;CYQR 180938Z 19030G39KT 8SM -RA OVC011 11/ RMK SC8

CYQR;2011-06-18 10:00;CYQR 181000Z 20029G37KT 8SM -RA OVC009 11/09 A2948 RMK SC8 CIG RAG SLP990

CYQR;2011-06-18 10:46;CYQR 181046Z 21033G39KT 8SM -RA OVC011 11/ RMK SC8 CIG RAG

CYQR;2011-06-18 11:00;CYQR 181100Z 20031G40KT 3SM -RA BR OVC012 11/09 A2949 RMK SC8 CIG RAG SLP995

CYQR;2011-06-18 11:35;CYQR 181135Z 21029G35KT 10SM OVC013 11/ RMK SC8 CIG LWR W

CYQR;2011-06-18 11:50;CYQR 181150Z 21027G33KT 12SM SCT009 OVC015 11/ RMK SF2SC6

CYQR;2011-06-18 12:00;CYQR 181200Z 21028G34KT 15SM SCT007 OVC015 11/10 A2950 RMK SF2SC6 SLP998

CYQR;2011-06-18 12:51;CYQR 181251Z 22027G34KT 15SM -RA FEW007 BKN022 OVC075 12/ RMK SF1SC6AC2

CYQR;2011-06-18 13:00;CYQR 181300Z 22023G34KT 15SM FEW007 BKN022 OVC075 12/10 A2951 RMK SF1SC6AC2 INTMT -RA SLP003

CYQR;2011-06-18 13:17;CYQR 181317Z 22023G32KT 15SM FEW007 BKN027 BKN075 12/ RMK SF1SC6AC1

CYQR;2011-06-18 13:30;CYQR 181330Z 22022G30KT 15SM -SHRA FEW007 BKN033 BKN075 13/ RMK SF1SC6AC2

CYQR;2011-06-18 14:00;CYQR 181400Z 21022KT 15SM -SHRA FEW010 BKN037 OVC240 13/10 A2954 RMK SC1SC6CI1 CVCTV CLD ASOCTD SLP010

CYQR;2011-06-18 14:46;CYQR 181446Z 19017G24KT 15SM FEW010 BKN043 13/ RMK CU1SC6

CYQR;2011-06-18 15:00;CYQR 181500Z 18017KT 15SM FEW012 FEW030 BKN038 BKN065 13/11 A2955 RMK CU1SC2SC3SC2 SLP014

CYQR;2011-06-18 16:00;CYQR 181600Z 21021G27KT 15SM FEW015 BKN033 BKN240 16/12 A2956 RMK CU2SC3CI1 SLP017

CYQR;2011-06-18 17:00;CYQR 181700Z 21019G25KT 15SM BKN031 BKN081 BKN240 18/13 A2956 RMK CU5AC1CI1 SLP019

CYQR;2011-06-18 18:00;CYQR 181800Z 21024G29KT 15SM SCT036TCU SCT074 BKN240 19/14 A2957 RMK TCU3AC1CI0 SLP021

CYQR;2011-06-18 19:00;CYQR 181900Z 21027KT 15SM SCT038TCU BKN081 BKN240 19/13 A2958 RMK TCU4AC1CI0 CB SOUTH SLP022

CYQR;2011-06-18 20:00;CYQR 182000Z 20029G34KT 15SM VCSH SCT047TCU BKN240 20/13 A2959 RMK TCU3CI2 CB ASOCTD E SLP027

CYQR;2011-06-18 21:00;CYQR 182100Z 20018G26KT 15SM VCSH SCT047TCU SCT080 BKN240 19/13 A2959 RMK TCU3AC1CI2 CB ASOCTD SLP026

CYQR;2011-06-18 21:25;CYQR 182125Z 25014G21KT 15SM -SHRA SCT038TCU BKN060 BKN080 17/ RMK TCU4SC2AC2

CYQR;2011-06-18 21:27;CYQR 182127Z CCA 25014G21KT 15SM -SHRA SCT038TCU BKN060 BKN080 17/ RMK TCU4SC2AC2 CB ASOCTD

CYQR;2011-06-18 21:38;CYQR 182138Z 27014G20KT 6SM -TSRA BR BKN027CB BKN060 OVC080 15/ RMK CB5SC1AC2

CYQR;2011-06-18 22:00;CYQR 182200Z 26012KT 6SM -TSRA BR SCT035TCU BKN082 BKN240 15/12 A2962 RERA RMK TCU4ACC2CI1 CB ASOCTD SLP037

CYQR;2011-06-18 22:07;CYQR 182207Z 27008G15KT 10SM -SHRA FEW035 BKN082TCU BKN240 15/ RETS RMK SC2TCU4AC1 CB ALQUADS

CYQR;2011-06-18 22:36;CYQR 182236Z 23014KT 10SM -TSRA BKN078CB BKN140 BKN240 14/ RMK CB5AC1CI1 MAMMATUS

CYQR;2011-06-18 23:00;CYQR 182300Z 19007KT 15SM -TSRA BKN073CB BKN120 BKN240 14/12 A2961 RMK CB5AC1CI1 SLP033

CYQR;2011-06-18 23:14;CYQR 182314Z 16005KT 15SM -SHRA SCT073CB SCT120 BKN240 16/ RETS RMK CB3AC1CI2

CYQR;2011-06-19 00:00;CYQR 190000Z 19013KT 15SM -SHRA SCT026TCU BKN078 BKN120 BKN240 16/13 A2962 RETS RMK TCU3AC2AC1CI2 CB ASOCTD SLP040

CYQR;2011-06-19 01:00;CYQR 190100Z 24013G20KT 15SM -SHRA BKN024TCU BKN069 15/12 A2964 RMK TCU6ACC1 SLP044

CYQR;2011-06-19 02:00;CYQR 190200Z 16012KT 15SM -SHRA FEW025TCU BKN046 BKN090 BKN300 15/11 A2962 RMK TCU2SC3ACC1CI1 SLP040

CYQR;2011-06-19 02:16;CYQR 190216Z 16008KT 15SM SCT040 BKN090 BKN300 15/ RMK SC3ACC2CI0

CYQR;2011-06-19 03:00;CYQR 190300Z CCA 15007KT 15SM FEW040 SCT065 BKN100 BKN300 15/12 A2963 RMK SC1SC2AC1CI0 TCU ASOCTD SLP043

CYQR;2011-06-19 04:00;CYQR 190400Z 14009KT 15SM FEW040 FEW090 BKN300 14/12 A2964 RMK SC1AC2CI0 SLP044

CYQR;2011-06-19 05:00;CYQR 190500Z 15009KT 15SM FEW084 FEW300 15/11 A2964 RMK AC1CI0 CB DIST E OCNL LTNG SLP044

CYQR;2011-06-19 06:00;CYQR 190600Z 14006KT 15SM FEW085 13/11 A2965 RMK AC1 SLP045

CYQR;2011-06-19 07:00;CYQR 190700Z 14008KT 15SM FEW085 13/11 A2965 RMK AC1 SLP045

CYQR;2011-06-19 08:00;CYQR 190800Z 13007KT 15SM FEW085 FEW320 13/11 A2965 RMK AC1CI0 SLP046

CYQR;2011-06-19 09:00;CYQR 190900Z 13006KT 15SM BKN110 13/11 A2966 RMK AC6 SLP049

CYQR;2011-06-19 10:00;CYQR 191000Z 14011KT 15SM BKN093 BKN320 14/12 A2966 RMK AC4CI0 SLP050

CYQR;2011-06-19 11:00;CYQR 191100Z 15010KT 15SM FEW091 FEW140 SCT320 14/12 A2967 RMK AC2AC0CI0 SLP052

CYQR;2011-06-19 12:00;CYQR 191200Z 13008KT 15SM FEW085 FEW140 SCT320 13/12 A2968 RMK ACC1AC1CI1 SLP057

CYQR;2011-06-19 13:00;CYQR 191300Z 14010KT 15SM FEW085 FEW320 14/13 A2968 RMK ACC1CI1 SLP059

CYQR;2011-06-19 13:45;CYQR 191345Z 16008KT 15SM FEW008 FEW120 BKN320 15/ RMK CF1AC1CI2

CYQR;2011-06-19 14:00;CYQR 191400Z 15010KT 15SM SCT008 SCT075 BKN280 15/13 A2970 RMK CF3AC1CI0 SLP063

CYQR;2011-06-19 15:00;CYQR 191500Z 14005KT 15SM FEW012 FEW099 BKN260 17/14 A2969 RMK CU1AC1CI2 SLP061

CYQR;2011-06-19 16:00;CYQR 191600Z 17006KT 15SM FEW012 FEW099 BKN260 17/15 A2970 RMK CU1AC1CI2 SLP064

CYQR;2011-06-19 17:00;CYQR 191700Z 12007KT 15SM FEW012 FEW091 SCT210 BKN260 19/15 A2970 RMK CU1AC1CC2CI1 SLP064

CYQR;2011-06-19 18:00;CYQR 191800Z 17010KT 15SM FEW018 SCT100 BKN160 OVC280 19/16 A2972 RMK CU2AC1AS4CI1 SLP069

CYQR;2011-06-19 19:00;CYQR 191900Z 17010KT 15SM FEW018 FEW100 OVC160 19/16 A2973 RMK CU2AC1AS6 VIRGA SLP073

CYQR;2011-06-19 20:00;CYQR 192000Z 18007KT 15SM -RA FEW015 FEW069 OVC160 19/17 A2974 RMK CU2AC1AS6 SLP076

CYQR;2011-06-19 21:00;CYQR 192100Z 17006KT 15SM -SHRA SCT036TCU BKN069 BKN230 18/16 A2974 RMK TCU3ACC2CI1 CB TOPS E SLP077

CYQR;2011-06-19 22:00;CYQR 192200Z 21008KT 15SM -SHRA SCT036TCU BKN064 BKN230 19/15 A2975 RMK TCU3SC2CI1 CB TOPS E SLP080

CYQR;2011-06-19 22:33;CYQR 192233Z 20013KT 15SM SCT036TCU BKN064 BKN230 RMK TCU3SC2CI1

CYQR;2011-06-19 22:46;CYQR 192246Z 21012KT 10SM -SHRA FEW007 SCT026TCU BKN076 OVC230 19/ RMK SF1TCU3AC2CI1

CYQR;2011-06-19 23:00;CYQR 192300Z 23011KT 15SM -SHRA SCT054TCU BKN091 BKN260 19/16 A2974 RMK TCU4AC2CI0 SLP078

CYQR;2011-06-19 23:33;CYQR 192333Z 33002KT 15SM FEW055TCU BKN076 BKN260 18/ RMK TCU2AC3CI1

CYQR;2011-06-20 00:00;CYQR 200000Z 03004KT 15SM FEW040TCU BKN076 BKN260 18/14 A2974 RMK TCU2AC3CI1 SLP077

CYQR;2011-06-20 01:00;CYQR 200100Z 34004KT 15SM FEW040CB BKN093 BKN260 18/14 A2973 RMK CB2AC3CI1 SLP074

CYQR;2011-06-20 01:32;CYQR 200132Z 29003KT 15SM -TSRA BKN049CB BKN095 OVC260 17/ RMK CB5AC2CI0 LTGICCG

CYQR;2011-06-20 01:43;CYQR 200143Z CCA 14004KT 2SM TSRA BR BKN050CB BKN095 OVC260 17/ RMK CB6AC1CI0 LTGCG

CYQR;2011-06-20 02:00;CYQR 200200Z 07005KT 3SM -TSRA BR BKN068CB OVC095 16/14 A2977 RERA RMK CB7AC1 OCNL LTNG SLP088

CYQR;2011-06-20 02:17;CYQR 200217Z 02005KT 3SM -SHRA BR SCT005 OVC077CB 15/ RETS RMK SF3CB5

CYQR;2011-06-20 03:00;CYQR 200300Z 04002KT 5SM -SHRA BR FEW008 FEW019 OVC087 15/14 A2977 RETSRA RMK SF1SC2AC6 CVCTV CLD EMBD SLP089

CYQR;2011-06-20 03:39;CYQR 200339Z 07002KT 5SM -RA BR BKN022 OVC080 15/ RMK SC7AC1

CYQR;2011-06-20 04:00;CYQR 200400Z 04003KT 8SM -RA BKN024 BKN080 OVC310 15/15 A2977 RMK SC6AC1CI0 SLP088

CYQR;2011-06-20 04:47;CYQR 200447Z 11004KT 15SM BKN035 OVC098 15/ RMK SC5AC3 /R10/

CYQR;2011-06-20 05:00;CYQR 200500Z 13003KT 15SM BKN039 OVC100 15/14 A2976 RMK SC5AC3 SLP083

CYQR;2011-06-20 06:00;CYQR 200600Z 09003KT 15SM BKN061 OVC110 15/14 A2974 RMK SC5AC3 SLP077

CYQR;2011-06-20 07:00;CYQR 200700Z 08005KT 15SM OVC069 15/14 A2974 RMK AC8 SLP076

CYQR;2011-06-20 08:00;CYQR 200800Z 09005KT 15SM BKN024 OVC086 15/14 A2974 RMK SC7AC1 SLP076

CYQR;2011-06-20 09:00;CYQR 200900Z 10006KT 15SM FEW004 OVC022 15/14 A2975 RMK SF1SC8 SLP078

CYQR;2011-06-20 10:00;CYQR 201000Z 09004KT 15SM OVC016 15/14 A2975 RMK SC8 SLP078

CYQR;2011-06-20 10:16;CYQR 201016Z 11006KT 15SM BKN009 OVC016 15/ RMK SC5SC3

CYQR;2011-06-20 11:00;CYQR 201100Z 12008KT 12SM OVC007 15/13 A2975 RMK SF8 SLP079

CYQR;2011-06-20 11:18;CYQR 201118Z 11002KT 12SM OVC005 15/ RMK SF8

CYQR;2011-06-20 11:33;CYQR 201133Z 08003KT 12SM OVC006 15/ RMK SF8

CYQR;2011-06-20 12:00;CYQR 201200Z 09005KT 15SM BKN006 15/14 A2976 RMK SF6 SLP082

CYQR;2011-06-20 12:03;CYQR 201203Z 09004KT 15SM SCT006 BKN016 15/ RMK SF4SC2

CYQR;2011-06-20 13:00;CYQR 201300Z 18004KT 15SM FEW006 BKN020 BKN037 16/14 A2976 RMK SF2SC3SC2 SLP085

CYQR;2011-06-20 14:00;CYQR 201400Z 19003KT 15SM FEW010 FEW031 BKN080 16/15 A2977 RMK SF1SC2AC1 CU ASOCTD SLP086

CYQR;2011-06-20 15:00;CYQR 201500Z 18003KT 15SM FEW011 BKN040 BKN080 17/15 A2979 RMK SF1CU5AC1 SLP092

CYQR;2011-06-20 16:00;CYQR 201600Z 22002KT 15SM BKN015 BKN040 18/15 A2979 RMK CU6SC1 SLP094

CYQR;2011-06-20 17:00;CYQR 201700Z 22004KT 15SM BKN016 18/16 A2979 RMK CU6 SLP094

CYQR;2011-06-20 18:00;CYQR 201800Z 25005KT 15SM BKN018 20/16 A2981 RMK CU6 TCU ASOCTD SLP097

CYQR;2011-06-20 19:00;CYQR 201900Z 23004KT 15SM BKN022 21/16 A2981 RMK CU6 TCU ASOCTD SLP098

CYQR;2011-06-20 20:00;CYQR 202000Z 27004KT 15SM BKN027 BKN300 21/16 A2981 RMK CU6CI0 TCU ASOCTD SLP097

CYQR;2011-06-20 21:00;CYQR 202100Z 25006KT 15SM FEW029 SCT300 22/16 A2981 RMK CU2CI0 TCU E SLP097

CYQR;2011-06-20 22:00;CYQR 202200Z 22005KT 15SM FEW035 BKN300 22/15 A2981 RMK CU2CI0 TCU E SLP098

CYQR;2011-06-20 23:00;CYQR 202300Z 05010KT 15SM BKN035TCU BKN300 22/15 A2980 RMK TCU6CI0 SLP095

CYQR;2011-06-21 00:00;CYQR 210000Z 10016KT 15SM -SHRA BKN039CB BKN300 20/15 A2981 RMK CB6CI0 SLP101

CYQR;2011-06-21 00:04;CYQR 210004Z 11011G19KT 10SM -TSRA BKN041CB BKN300 20/ RMK CB6CI0

CYQR;2011-06-21 00:45;CYQR 210045Z 08012KT 15SM -SHRA BKN026CB BKN300 19/ RETS RMK CB5CI0 CB SE-SW

CYQR;2011-06-21 01:00;CYQR 210100Z 10011G16KT 15SM SCT025CB SCT042TCU BKN300 19/15 A2983 RETS RMK CB3TCU1CI0 CB SE-SW SLP106

CYQR;2011-06-21 02:00;CYQR 210200Z 12013G18KT 15SM FEW042CB FEW080 BKN300 19/16 A2984 RMK CB1AC1CI3 CB S SLP110

CYQR;2011-06-21 03:00;CYQR 210300Z 12010G15KT 15SM FEW010TCU FEW045CB FEW080 OVC300 18/16 A2985 RMK TCU1CB1AC1CI4 SLP112

CYQR;2011-06-21 04:00;CYQR 210400Z 14012KT 15SM FEW011 FEW077 BKN300 18/16 A2986 RMK SC1AC2CI4 SLP116

CYQR;2011-06-21 04:42;CYQR 210442Z 13010KT 15SM BKN010 BKN095 17/ RMK SC5AC2

CYQR;2011-06-21 05:00;CYQR 210500Z 13013KT 15SM BKN009 OVC095 17/16 A2987 RMK SC6AC2 SLP118

CYQR;2011-06-21 05:02;CYQR 210502Z 13013KT 15SM SCT009 OVC095 17/ RMK SC4AC3

CYQR;2011-06-21 05:33;CYQR 210533Z 14012KT 15SM BKN010 OVC100 17/ RMK SC6AC2

CYQR;2011-06-21 05:44;CYQR 210544Z 13013KT 15SM BKN009 OVC100 17/ RMK SC6AC2

CYQR;2011-06-21 06:00;CYQR 210600Z 14014KT 15SM FEW010 FEW074 OVC320 17/15 A2987 RMK SC1AC2CI4 SLP117

CYQR;2011-06-21 07:00;CYQR 210700Z 13009KT 15SM SCT013 OVC061 16/15 A2987 RMK SC4SC4 SLP118

CYQR;2011-06-21 07:14;CYQR 210714Z 13011KT 15SM BKN008 OVC061 17/ RMK SF6SC2

CYQR;2011-06-21 07:54;CYQR 210754Z 09005KT 15SM -SHRA OVC008 16/ RMK SF8

CYQR;2011-06-21 08:00;CYQR 210800Z 09006KT 15SM -SHRA OVC008 16/15 A2988 RMK SF8 SLP120

CYQR;2011-06-21 08:02;CYQR 210802Z 12012KT 1 1/2SM +SHRA OVC008 16/ RMK SF8 TCU EMBD

CYQR;2011-06-21 08:07;CYQR 210807Z 11012KT 3SM SHRA OVC008 16/ RMK SF8 TCU EMBD

CYQR;2011-06-21 09:00;CYQR 210900Z 14015KT 15SM -SHRA BKN008 OVC061 16/14 A2987 RERA RMK SF6SC2 /R26/ SLP119

CYQR;2011-06-21 09:02;CYQR 210902Z 13014KT 15SM BKN008 OVC061 15/ RMK SF6SC2

CYQR;2011-06-21 09:19;CYQR 210919Z 14013G19KT 15SM -SHRA BKN007 OVC077 15/ RMK SF7AC1 CVCTV CLD EMBD

CYQR;2011-06-21 09:47;CYQR 210947Z 14009KT 15SM -SHRA SCT007 OVC027 15/ RMK SF3SC5 CVCTV CLD EMBD

CYQR;2011-06-21 10:00;CYQR 211000Z 15010KT 15SM -RA FEW007 OVC035 15/14 A2988 RMK SF2SC6 SLP122

CYQR;2011-06-21 10:10;CYQR 211010Z 14006KT 12SM -RA BKN006 OVC020 15/ RMK SF6SC2

CYQR;2011-06-21 10:24;CYQR 211024Z 14010KT 12SM -RA OVC005 15/ RMK SF8

CYQR;2011-06-21 11:00;CYQR 211100Z 13009KT 5SM -RA BR OVC005 15/14 A2990 RMK SF8 SLP126

CYQR;2011-06-21 11:36;CYQR 211136Z 14010KT 8SM -RA SCT005 OVC021 15/ RMK SF4SC4

CYQR;2011-06-21 12:00;CYQR 211200Z 13012KT 10SM -RA BKN005 OVC023 15/14 A2989 RMK SF5SC3 SLP127

CYQR;2011-06-21 12:19;CYQR 211219Z 13013KT 12SM -RA SCT006 BKN037 OVC061 14/ RMK SF4SC2SC2

CYQR;2011-06-21 12:45;CYQR 211245Z 14011KT 10SM -RA BKN007 OVC027 15/ RMK SF5SC3

CYQR;2011-06-21 13:00;CYQR 211300Z 14008KT 10SM -RA SCT008 OVC019 15/13 A2990 RMK SF4SC4 SLP130

CYQR;2011-06-21 14:00;CYQR 211400Z 14012KT 10SM -RA FEW004 OVC012 14/13 A2991 RMK SF1SC8 SLP134

CYQR;2011-06-21 15:00;CYQR 211500Z 12008KT 14SM -RA BKN007 OVC018 14/13 A2992 RMK SF6SC2 CIG RAG SLP139

CYQR;2011-06-21 16:00;CYQR 211600Z 12010KT 12SM -RA BKN006 OVC021 15/13 A2993 RMK SF6SC2 SLP141

CYQR;2011-06-21 17:00;CYQR 211700Z 13010KT 12SM -RA BKN009 OVC020 15/13 A2993 RMK SF7SC1 SLP143

CYQR;2011-06-21 18:00;CYQR 211800Z 12010KT 12SM -RA BKN006 OVC015 15/13 A2994 RMK SF7SC1 SLP144

CYQR;2011-06-21 19:00;CYQR 211900Z 13011KT 14SM -RA BKN008 OVC060 15/14 A2993 RMK SF7SC1 SLP143

CYQR;2011-06-21 20:00;CYQR 212000Z 13010KT 15SM -RA OVC012 16/13 A2994 RMK SC8 SLP144

CYQR;2011-06-21 21:00;CYQR 212100Z 12009KT 15SM -RA BKN012 BKN025 OVC045 16/13 A2994 RMK SC6SC2SC1 SLP145

CYQR;2011-06-21 21:21;CYQR 212121Z 11006KT 15SM SCT012 BKN022 OVC045 15/ RMK SC2SC5SC1

CYQR;2011-06-21 22:00;CYQR 212200Z 14002KT 15SM FEW013 OVC030 16/13 A2994 RMK SC2SC6 SLP147

CYQR;2011-06-21 23:00;CYQR 212300Z 20004KT 15SM FEW015 BKN041 BKN068 BKN270 17/14 A2994 RMK SC1SC5AC2CC1 CU ASOCTD SLP147

CYQR;2011-06-22 00:00;CYQR 220000Z 14003KT 15SM FEW021 BKN064 BKN140 BKN270 17/14 A2994 RMK SC2SC3AC2CI1 CU ASOCTD SLP146

CYQR;2011-06-22 01:00;CYQR 220100Z 09004KT 15SM FEW037TCU BKN056 BKN140 BKN270 16/14 A2995 RMK TCU2SC4AC1CI0 SLP147

CYQR;2011-06-22 01:38;CYQR 220138Z CCA 08004KT 15SM -SHRA FEW010 BKN045 BKN270 16/ RMK CU1SC6CI0 TCU EMBD

CYQR;2011-06-22 02:00;CYQR 220200Z 07005KT 14SM FEW010 BKN045 BKN140 BKN270 16/14 A2996 RMK CU1SC6AC1CI1 SLP152

CYQR;2011-06-22 03:00;CYQR 220300Z 11003KT 15SM -SHRA FEW010 BKN050 BKN073 16/14 A2996 RMK CU1SC5AC1 SLP154

CYQR;2011-06-22 03:07;CYQR 220307Z 11004KT 15SM VCSH FEW010 BKN050 BKN073 15/ RMK CU1SC5AC1

CYQR;2011-06-22 04:00;CYQR 220400Z 11006KT 15SM FEW069 FEW300 14/13 A2994 RMK AC1CI0 SLP147

CYQR;2011-06-22 05:00;CYQR 220500Z 15003KT 15SM FEW070 15/14 A2996 RMK AC2 SLP152

CYQR;2011-06-22 06:00;CYQR 220600Z 12003KT 15SM SCT054 14/13 A2996 RMK SC3 SLP155

CYQR;2011-06-22 07:00;CYQR 220700Z 09002KT 15SM SCT072 14/13 A2996 RMK AC4 SLP155

CYQR;2011-06-22 08:00;CYQR 220800Z 11003KT 15SM BKN072 14/13 A2996 RMK AC6 SLP155

CYQR;2011-06-22 09:00;CYQR 220900Z 10003KT 15SM FEW072 13/12 A2996 RMK AC1 SLP156

CYQR;2011-06-22 09:26;CYQR 220926Z 10003KT 12SM FEW009 BKN070 13/ RMK SF2AC3

CYQR;2011-06-22 10:00;CYQR 221000Z 10004KT 12SM MIFG FEW048 12/11 A2996 RMK SC1 SLP156

CYQR;2011-06-22 11:00;CYQR 221100Z 22002KT 10SM MIFG FEW050 12/11 A2997 RMK SC1 SLP159

CYQR;2011-06-22 11:41;CYQR 221141Z 05002KT 9SM FEW001 FEW050 FEW300 12/ RMK SF1SC1CI1

CYQR;2011-06-22 12:00;CYQR 221200Z 06002KT 8SM FEW001 FEW050 FEW300 13/12 A2998 RMK SF1SC1CI1 SLP159

CYQR;2011-06-22 13:00;CYQR 221300Z 18003KT 15SM FEW004 FEW050 FEW300 15/13 A2998 RMK SF1SC1CI1 SLP160

CYQR;2011-06-22 14:00;CYQR 221400Z 00000KT 15SM FEW001 SCT012 SCT140 16/14 A2999 RMK SF1CU3AC1 FG DIST SW-NW SLP162

CYQR;2011-06-22 15:00;CYQR 221500Z 00000KT 15SM SCT013 17/14 A2998 RMK CU4 SLP159

CYQR;2011-06-22 16:00;CYQR 221600Z 18004KT 15SM BKN017 17/14 A2998 RMK CU6 OBS TAKEN +09 SLP159

CYQR;2011-06-22 17:00;CYQR 221700Z 16002KT 15SM SCT026 BKN042 18/14 A2997 RMK CU4SC2 SLP157

CYQR;2011-06-22 18:00;CYQR 221800Z 23006KT 15SM BKN024 20/15 A2997 RMK CU5 SLP156

CYQR;2011-06-22 19:00;CYQR 221900Z 19003KT 15SM BKN026 20/14 A2996 RMK CU5 TCU ASOCTD SLP153

CYQR;2011-06-22 20:00;CYQR 222000Z 29005KT 15SM BKN033 21/14 A2996 RMK CU5 TCU ASOCTD SLP150

CYQR;2011-06-22 21:00;CYQR 222100Z 31005KT 15SM SCT041 22/14 A2995 RMK CU4 SLP146

CYQR;2011-06-22 22:00;CYQR 222200Z 32006KT 15SM SCT044TCU 22/14 A2994 RMK TCU4 SLP145

CYQR;2011-06-22 23:00;CYQR 222300Z 32007KT 15SM SCT044 23/14 A2993 RMK CU3 TCU ASOCTD SLP142

CYQR;2011-06-23 00:00;CYQR 230000Z 35004KT 15SM FEW050 FEW280 23/14 A2993 RMK CU2CI1 SLP140

CYQR;2011-06-23 01:00;CYQR 230100Z 30005KT 15SM FEW050 FEW300 22/14 A2993 RMK CU2CI0 SLP141

CYQR;2011-06-23 02:00;CYQR 230200Z 30002KT 15SM FEW050 FEW300 22/13 A2993 RMK CU1CI0 SLP140

CYQR;2011-06-23 03:00;CYQR 230300Z 07002KT 15SM FEW050 FEW100 FEW300 20/14 A2993 RMK CU1AC1CI0 TCU ASOCTD E SLP139

CYQR;2011-06-23 05:00;CYQR 230500Z 12005KT 15SM FEW100 FEW300 17/14 A2994 RMK AC1CI0 SLP141

CYQR;2011-06-23 06:00;CYQR 230600Z 15005KT 15SM FEW100 FEW300 17/15 A2993 RMK AC1CI0 SLP139

CYQR;2011-06-23 07:00;CYQR 230700Z 16004KT 15SM FEW100 17/15 A2993 RMK AC1 SLP138

CYQR;2011-06-23 08:00;CYQR 230800Z 14003KT 15SM FEW100 16/15 A2992 RMK AC1 SLP137

CYQR;2011-06-23 09:00;CYQR 230900Z 17004KT 15SM FEW100 15/14 A2992 RMK AC1 SLP135

CYQR;2011-06-23 10:00;CYQR 231000Z 18004KT 15SM SKC 15/14 A2992 RMK SLP135

CYQR;2011-06-23 11:00;CYQR 231100Z 16003KT 15SM FEW100 15/13 A2992 RMK AC0 SLP135

CYQR;2011-06-23 12:00;CYQR 231200Z 13004KT 15SM FEW100 15/13 A2991 RMK AC0 SLP133

CYQR;2011-06-23 13:00;CYQR 231300Z 12003KT 15SM FEW096 FEW260 17/14 A2992 RMK ACC1CI0 SLP134

CYQR;2011-06-23 14:00;CYQR 231400Z 14004KT 15SM FEW096 BKN260 18/15 A2991 RMK ACC1CI2 SLP132

CYQR;2011-06-23 15:00;CYQR 231500Z 15004KT 15SM FEW092 BKN260 20/15 A2990 RMK ACC1CI2 SLP126

CYQR;2011-06-23 16:00;CYQR 231600Z 14006KT 15SM FEW024 FEW120 BKN280 21/15 A2989 RMK CF1AC1CI1 SLP124

CYQR;2011-06-23 17:00;CYQR 231700Z 16008KT 15SM FEW028 FEW120 BKN280 22/15 A2988 RMK CU1AC1CI2 SLP121

CYQR;2011-06-23 18:00;CYQR 231800Z 16009KT 15SM FEW030 FEW120 FEW280 23/15 A2987 RMK CU1AC1CI1 SLP117

CYQR;2011-06-23 19:00;CYQR 231900Z 17009G15KT 15SM FEW044 FEW120 BKN280 23/16 A2986 RMK CU1AC1CI1 SLP115

CYQR;2011-06-23 20:00;CYQR 232000Z 16010G15KT 15SM FEW044 FEW100 SCT280 24/16 A2986 RMK CU1AC1CI2 SLP112

CYQR;2011-06-23 21:00;CYQR 232100Z 16014KT 15SM FEW045 FEW100 BKN280 24/16 A2984 RMK CU1AC1CI2 SLP107

CYQR;2011-06-23 22:00;CYQR 232200Z 15014KT 15SM FEW068 FEW100 BKN280 24/15 A2982 RMK CU1AC1CI2 SLP101

CYQR;2011-06-23 23:00;CYQR 232300Z 16014KT 15SM FEW065 SCT210 BKN280 24/15 A2981 RMK CU1CC2CI1 SLP095

CYQR;2011-06-24 00:00;CYQR 240000Z 15012KT 15SM FEW040 BKN250 24/15 A2979 RMK CU1CI2 SLP089

CYQR;2011-06-24 01:00;CYQR 240100Z 15012KT 15SM SCT097 BKN250 23/15 A2977 RMK AC3CI1 VIRGA SLP084

CYQR;2011-06-24 02:00;CYQR 240200Z 14011KT 15SM BKN120 BKN260 22/15 A2977 RMK AC5CI2 ACC ACOCTD SLP082

CYQR;2011-06-24 03:00;CYQR 240300Z 14009KT 15SM BKN085 BKN120 OVC280 21/15 A2975 RMK AC5AC2CI1 SLP074

CYQR;2011-06-24 04:00;CYQR 240400Z 14009KT 15SM BKN120 OVC280 21/15 A2978 RMK AC6CI1 SLP083

CYQR;2011-06-24 05:00;CYQR 240500Z 13012KT 15SM OVC120 20/15 A2976 RMK AC8 SLP076

CYQR;2011-06-24 06:00;CYQR 240600Z 13013KT 15SM OVC120 19/15 A2975 RMK AC8 SLP074

CYQR;2011-06-24 06:50;CYQR 240650Z 17011KT 15SM -SHRA BKN075 OVC120 19/ RMK AC6AC2 CVCTV CLD EMBD

CYQR;2011-06-24 07:00;CYQR 240700Z 17011KT 15SM -SHRA BKN075 OVC120 19/15 A2977 RMK AC6AC2 CVCTV CLD EMBD SLP082

CYQR;2011-06-24 08:00;CYQR 240800Z 16010KT 15SM -SHRA BKN051 OVC080 18/15 A2975 RMK SC6AC2 CVCTV CLD EMBD SLP074

CYQR;2011-06-24 09:00;CYQR 240900Z 15010KT 15SM SCT050 OVC093 18/15 A2972 RMK SC3AC5 SLP064

CYQR;2011-06-24 09:43;CYQR 240943Z 15012KT 15SM -SHRA OVC075 18/ RMK AC8 CVCTV CLD EMBD

CYQR;2011-06-24 10:00;CYQR 241000Z 15010KT 15SM -SHRA OVC060 18/15 A2970 RMK SC8 CVCTV CLD EMBD SLP057

CYQR;2011-06-24 11:00;CYQR 241100Z 15010KT 15SM -SHRA BKN033 OVC080 17/14 A2969 RMK SC6AC2 CVCTV CLD EMBD SLP055

CYQR;2011-06-24 11:08;CYQR 241108Z 16010KT 15SM SCT040 BKN090 OVC300 17/ RMK SC3AC3CI1

CYQR;2011-06-24 12:00;CYQR 241200Z 16009KT 15SM FEW040 BKN090 BKN300 17/14 A2970 RMK SC2AC4CI1 SLP056

CYQR;2011-06-24 13:00;CYQR 241300Z 17010KT 15SM SCT081 BKN300 17/15 A2971 RMK AC2CI1 SLP062

CYQR;2011-06-24 14:00;CYQR 241400Z 19012KT 15SM FEW025 FEW069 SCT096 BKN260 18/15 A2972 RMK SC1AC2AC2CI1 SLP065

CYQR;2011-06-24 15:00;CYQR 241500Z 20011KT 15SM BKN018 BKN079 BKN260 19/15 A2971 RMK SC6AC1CI0 SLP062

CYQR;2011-06-24 16:00;CYQR 241600Z 21009KT 15SM BKN018 20/16 A2971 RMK SC7 SLP063

CYQR;2011-06-24 17:00;CYQR 241700Z 21007KT 15SM SCT020 SCT080 BKN300 21/16 A2971 RMK CU4AC1CI0 SLP062

CYQR;2011-06-24 18:00;CYQR 241800Z 24007KT 15SM SCT024 BKN075 BKN300 21/16 A2971 RMK CU3AC2CI0 SLP063

CYQR;2011-06-24 19:00;CYQR 241900Z 27009G15KT 15SM SCT022 SCT088 BKN300 22/17 A2972 RMK CU3AC1CI0 SLP065

CYQR;2011-06-24 20:00;CYQR 242000Z 28011G16KT 15SM FEW034 FEW280 23/15 A2972 RMK CU1CI1 SLP064

CYQR;2011-06-24 21:00;CYQR 242100Z 25008KT 15SM FEW047 SCT280 24/14 A2971 RMK CU1CI1 SLP062

CYQR;2011-06-24 22:00;CYQR 242200Z 25012KT 15SM FEW048 SCT280 24/12 A2971 RMK CU1CI1 SLP061

CYQR;2011-06-24 23:00;CYQR 242300Z 24014KT 15SM FEW059TCU BKN280 24/10 A2971 RMK TCU2CI1 CB EAST SLP059

CYQR;2011-06-25 00:00;CYQR 250000Z 26014G20KT 15SM FEW056 FEW280 23/10 A2971 RMK CU1CI0 CB DIST E SLP060

CYQR;2011-06-25 01:00;CYQR 250100Z 26013KT 15SM FEW060 FEW300 22/08 A2971 RMK CU1CI0 CB DIST E SLP062

CYQR;2011-06-25 02:00;CYQR 250200Z 26010G15KT 15SM FEW060 FEW300 21/10 A2972 RMK CU1CI0 CB DIST E SLP064

CYQR;2011-06-25 03:00;CYQR 250300Z 27004KT 15SM FEW060 FEW300 18/12 A2973 RMK CU1CI0 CB DIST E SLP071

CYQR;2011-06-25 04:00;CYQR 250400Z 28006KT 15SM FEW300 16/12 A2973 RMK CI0 SLP070

CYQR;2011-06-25 05:00;CYQR 250500Z 27004KT 15SM FEW300 16/13 A2975 RMK CI0 SLP076

CYQR;2011-06-25 06:00;CYQR 250600Z 24003KT 15SM SKC 15/13 A2975 RMK SLP077

CYQR;2011-06-25 07:00;CYQR 250700Z 22003KT 15SM SKC 14/12 A2974 RMK SLP075

CYQR;2011-06-25 08:00;CYQR 250800Z 23004KT 15SM SKC 13/11 A2974 RMK SLP075

CYQR;2011-06-25 09:00;CYQR 250900Z 24003KT 15SM SKC 12/10 A2975 RMK SLP079

CYQR;2011-06-25 10:00;CYQR 251000Z 19002KT 15SM FEW300 12/10 A2973 RMK CI0 SLP073

CYQR;2011-06-25 11:00;CYQR 251100Z 16002KT 15SM BKN160 BKN280 12/10 A2974 RMK AC5CI1 SLP076

CYQR;2011-06-25 12:00;CYQR 251200Z 14004KT 15SM BKN160 OVC300 14/12 A2977 RMK AC6CI1 SLP084

CYQR;2011-06-25 13:00;CYQR 251300Z 00000KT 15SM SCT076 BKN160 OVC300 15/13 A2976 RMK AC3AC3CI1 SLP080

CYQR;2011-06-25 14:00;CYQR 251400Z 18002KT 15SM SCT078 BKN140 BKN270 16/13 A2977 RMK ACC4AC2CI0 VIRGA SLP083

CYQR;2011-06-25 15:00;CYQR 251500Z 00000KT 15SM SCT074 BKN095 BKN260 16/12 A2976 RMK ACC4AC2CI0 VIRGA SLP084

CYQR;2011-06-25 16:00;CYQR 251600Z 36007KT 15SM SCT075 BKN093 BKN260 17/10 A2972 RMK AC4AC3CI1 VIRGA NW-N SLP070

CYQR;2011-06-25 17:00;CYQR 251700Z 29007KT 15SM SCT075 BKN095 BKN260 18/10 A2975 RMK AC4AC2CI0 VIRGA SLP080

CYQR;2011-06-25 18:00;CYQR 251800Z 22006KT 15SM FEW025 BKN078 20/11 A2976 RMK CF1AC6 SLP082

CYQR;2011-06-25 19:00;CYQR 251900Z 21009KT 15SM FEW026 BKN074 BKN260 19/12 A2977 RMK CU1AC5CI1 SLP086

CYQR;2011-06-25 19:18;CYQR 251918Z 23008KT 15SM -SHRA FEW040 BKN070 BKN260 19/ RMK CU2ACC4CI1

CYQR;2011-06-25 20:00;CYQR 252000Z 17007KT 15SM -SHRA SCT026 BKN058 BKN070 BKN260 18/13 A2977 RMK CU3SC2AC2CI0 SLP085

CYQR;2011-06-25 21:00;CYQR 252100Z 17012KT 15SM FEW025 SCT048 BKN080 BKN260 17/12 A2977 RMK CU2SC2AC2CI1 SLP090

CYQR;2011-06-25 22:00;CYQR 252200Z 18010G15KT 15SM FEW054 SCT081 BKN260 19/13 A2976 RMK CU2AC1CI1 SLP086

CYQR;2011-06-25 23:00;CYQR 252300Z 19009KT 15SM FEW042TCU SCT081 BKN260 20/12 A2974 RMK TCU2AC2CI0 SLP079

CYQR;2011-06-26 00:00;CYQR 260000Z 26009G16KT 15SM FEW056TCU 21/07 A2973 RMK TCU1 SLP072

CYQR;2011-06-26 01:00;CYQR 260100Z 25009KT 15SM FEW048TCU SCT260 19/07 A2972 RMK TCU2CI0 CB AND SHWRS N SLP068

CYQR;2011-06-26 02:00;CYQR 260200Z 27006KT 15SM FEW040CB 18/08 A2972 RMK CB1 CB AND SHWRS SE-S SLP070

CYQR;2011-06-26 03:00;CYQR 260300Z 25005KT 15SM FEW022 FEW120 15/09 A2973 RMK CU1AC1 CB DIST SE SLP074

CYQR;2011-06-26 04:00;CYQR 260400Z 22006KT 15SM FEW120 14/09 A2973 RMK AC1 SLP074

CYQR;2011-06-26 05:00;CYQR 260500Z CCA 21004KT 15SM SKC 12/08 A2973 RMK SLP075

CYQR;2011-06-26 06:00;CYQR 260600Z 23005KT 15SM SKC 11/08 A2973 RMK SLP073

CYQR;2011-06-26 07:00;CYQR 260700Z 26004KT 15SM SKC 11/08 A2972 RMK SLP072

CYQR;2011-06-26 08:00;CYQR 260800Z 22006KT 15SM SKC 10/07 A2971 RMK SLP067

CYQR;2011-06-26 09:00;CYQR 260900Z 18006KT 15SM SKC 10/08 A2971 RMK SLP068

CYQR;2011-06-26 10:00;CYQR 261000Z 20011KT 15SM FEW080 11/08 A2970 RMK AC1 SLP066

CYQR;2011-06-26 11:00;CYQR 261100Z 21008KT 15SM FEW080 FEW270 10/08 A2969 RMK AC1CI1 SLP063

CYQR;2011-06-26 12:00;CYQR 261200Z 22009KT 15SM FEW080 FEW270 11/07 A2968 RMK AC1CI1 SLP056

CYQR;2011-06-26 13:00;CYQR 261300Z 23010KT 15SM FEW085 FEW270 13/08 A2968 RMK AC1CI0 SLP055

CYQR;2011-06-26 14:00;CYQR 261400Z 25013KT 15SM FEW270 16/09 A2968 RMK CI0 SLP055

CYQR;2011-06-26 15:00;CYQR 261500Z 24015KT 15SM FEW120 FEW270 17/09 A2967 RMK AC1CI0 SLP053

CYQR;2011-06-26 16:00;CYQR 261600Z 27015KT 15SM FEW036 FEW240 19/10 A2967 RMK CF1CI1 CF TR SLP052

CYQR;2011-06-26 17:00;CYQR 261700Z 25015G21KT 15SM FEW040 FEW240 20/10 A2968 RMK CU1CI0 SLP056

CYQR;2011-06-26 18:00;CYQR 261800Z 26017G26KT 15SM FEW044 FEW240 20/09 A2968 RMK CU1CI1 CU TR SLP058

CYQR;2011-06-26 19:00;CYQR 261900Z 25018G26KT 15SM FEW045 BKN260 20/10 A2967 RMK CU2CI1 CB DIST N SLP054

CYQR;2011-06-26 20:00;CYQR 262000Z 29014G19KT 15SM FEW051TCU SCT084 BKN240 19/10 A2967 RMK TCU2AC1CI0 SLP053

CYQR;2011-06-26 21:00;CYQR 262100Z 29030G36KT 15SM SCT046TCU SCT079 BKN250 19/09 A2968 RMK TCU3AC1CI0 SLP059

CYQR;2011-06-26 21:22;CYQR 262122Z 28022G28KT 15SM -SHRA SCT046TCU BKN074 BKN280 16/ RMK TCU3AC2CI2

CYQR;2011-06-26 22:00;CYQR 262200Z 27014G19KT 15SM -SHRA SCT050TCU BKN085 BKN280 17/10 A2970 RMK TCU3ACC2CI1 SLP063

CYQR;2011-06-26 22:26;CYQR 262226Z 28017KT 15SM SCT055TCU BKN089 BKN280 18/ RMK TCU3ACC2CI1 CB N-NE

CYQR;2011-06-26 23:00;CYQR 262300Z 29015G25KT 15SM SCT046TCU BKN079 BKN280 16/11 A2970 RMK TCU3ACC2CI1 SLP064

CYQR;2011-06-27 00:00;CYQR 270000Z 30014G19KT 15SM FEW042TCU SCT082 BKN250 17/12 A2971 RMK TCU2AC2CI0 SLP068

CYQR;2011-06-27 01:00;CYQR 270100Z 32015G21KT 15SM FEW055TCU FEW094 BKN250 17/09 A2973 RMK TCU2AC1CI1 SLP074

CYQR;2011-06-27 02:00;CYQR 270200Z 31013KT 15SM FEW020 FEW100 FEW280 16/10 A2974 RMK CU1AC1CI0 SLP079

CYQR;2011-06-27 02:23;CYQR 270223Z 35013KT 15SM -SHRA BKN020 BKN100 BKN280 15/ RMK CU6AC1CI1

CYQR;2011-06-27 02:47;CYQR 270247Z 32008KT 15SM VCSH BKN031 BKN100 BKN280 14/ RMK CU5AC1CI1 SHWRS SE-SW

CYQR;2011-06-27 03:00;CYQR 270300Z 32015KT 15SM BKN031 BKN280 14/11 A2977 RMK CU4CI1 SHWRS S-SW SLP088

CYQR;2011-06-27 04:00;CYQR 270400Z 31010KT 15SM FEW048 FEW280 13/11 A2981 RMK CU1CI1 SLP101

CYQR;2011-06-27 05:00;CYQR 270500Z 32010KT 15SM FEW075 12/10 A2984 RMK AC1 SLP110

CYQR;2011-06-27 06:00;CYQR 270600Z 33014KT 15SM BKN078 12/10 A2986 RMK AC5 SLP118

CYQR;2011-06-27 07:00;CYQR 270700Z 34010G15KT 15SM FEW069 12/10 A2988 RMK AC2 SLP124

CYQR;2011-06-27 08:00;CYQR 270800Z 32010KT 15SM SKC 11/10 A2991 RMK SLP132

CYQR;2011-06-27 09:00;CYQR 270900Z 34012KT 15SM SKC 11/10 A2992 RMK SLP139

CYQR;2011-06-27 10:00;CYQR 271000Z 34011KT 15SM FEW080 10/08 A2994 RMK AC1 SLP145

CYQR;2011-06-27 11:00;CYQR 271100Z 34007KT 15SM FEW010 FEW080 09/08 A2996 RMK SF1AC1 SLP154

CYQR;2011-06-27 12:00;CYQR 271200Z 34007KT 15SM FEW010 FEW080 10/08 A2998 RMK SF1AC1 SLP163

CYQR;2011-06-27 13:00;CYQR 271300Z 33009KT 15SM FEW010 FEW020 BKN058 BKN080 11/09 A3000 RMK SF1SC1SC5AC1 SLP170

CYQR;2011-06-27 14:00;CYQR 271400Z 34008KT 15SM FEW010 SCT060 BKN100 13/10 A3001 RMK CF2SC2AC1 SLP173

CYQR;2011-06-27 15:00;CYQR 271500Z 35008KT 15SM SCT012 BKN029 BKN100 13/10 A3002 RMK CU3SC3AC1 SLP176

CYQR;2011-06-27 16:00;CYQR 271600Z 33006KT 15SM BKN021 BKN046 14/10 A3002 RMK SC5SC2 CU ASOCTD SLP177

CYQR;2011-06-27 17:00;CYQR 271700Z 36006KT 15SM BKN021 BKN046 16/11 A3003 RMK SC5SC2 CU ASOCTD SLP180

CYQR;2011-06-27 18:00;CYQR 271800Z 33004KT 15SM BKN025 17/11 A3004 RMK SC7 CU ASOCTD SLP181

CYQR;2011-06-27 19:00;CYQR 271900Z 31008KT 10SM BKN023 17/11 A3003 RMK SC6 CU ASOCTD HZ SLP179

CYQR;2011-06-27 20:00;CYQR 272000Z 01002KT 10SM BKN033 17/10 A3002 RMK CU6 HZ SLP177

CYQR;2011-06-27 21:00;CYQR 272100Z 36005KT 10SM BKN037 18/10 A3002 RMK CU6 SLP174

CYQR;2011-06-27 22:00;CYQR 272200Z 31006KT 10SM FEW043 20/10 A3000 RMK CU2 HZ SLP170

CYQR;2011-06-27 23:00;CYQR 272300Z 29003KT 10SM FEW049 20/10 A3000 RMK CU1 HZ SLP168

CYQR;2011-06-28 00:00;CYQR 280000Z 26002KT 10SM FEW055 20/10 A2998 RMK CU1 HZ SLP161

CYQR;2011-06-28 01:00;CYQR 280100Z 23003KT 15SM FEW060 19/10 A2998 RMK CU1 SLP160

CYQR;2011-06-28 02:00;CYQR 280200Z 22006KT 12SM FEW280 20/09 A2997 RMK CI1 HZ SLP157

CYQR;2011-06-28 03:00;CYQR 280300Z 19003KT 15SM FEW280 18/11 A2996 RMK CI1 HZ SLP155

CYQR;2011-06-28 04:00;CYQR 280400Z 14006KT 15SM FEW280 15/10 A2997 RMK CI1 SLP156

CYQR;2011-06-28 05:00;CYQR 280500Z 13008KT 15SM SKC 15/11 A2996 RMK SLP155

CYQR;2011-06-28 06:00;CYQR 280600Z 15007KT 15SM SKC 16/12 A2995 RMK SLP148

CYQR;2011-06-28 07:00;CYQR 280700Z 16009KT 15SM SKC 16/12 A2994 RMK SLP144

CYQR;2011-06-28 08:00;CYQR 280800Z 15009KT 15SM SKC 15/12 A2993 RMK SLP141

CYQR;2011-06-28 09:00;CYQR 280900Z 15008KT 15SM FEW062 14/11 A2991 RMK SC2 SLP135

CYQR;2011-06-28 10:00;CYQR 281000Z 15010KT 15SM FEW060 14/11 A2990 RMK SC1 SLP131

CYQR;2011-06-28 11:00;CYQR 281100Z 15010KT 15SM FEW060 FEW270 14/10 A2988 RMK SC1CI1 SC TR SLP126

CYQR;2011-06-28 12:00;CYQR 281200Z 16010KT 15SM FEW060 BKN270 14/11 A2987 RMK SC1CI0 SLP120

CYQR;2011-06-28 13:00;CYQR 281300Z 16015KT 15SM FEW090 BKN300 15/11 A2986 RMK AC1CI0 SLP115

CYQR;2011-06-28 14:00;CYQR 281400Z 16016KT 15SM FEW100 BKN300 16/11 A2984 RMK AC2CI2 SLP109

CYQR;2011-06-28 15:00;CYQR 281500Z 16017KT 15SM FEW100 BKN300 18/12 A2982 RMK AC1CI2 SLP103

CYQR;2011-06-28 16:00;CYQR 281600Z 17017G22KT 15SM FEW160 BKN300 21/13 A2980 RMK AC1CI2 SLP095

CYQR;2011-06-28 17:00;CYQR 281700Z 16017G22KT 15SM FEW160 BKN300 21/14 A2978 RMK AC2CI5 SLP089

CYQR;2011-06-28 18:00;CYQR 281800Z 16018KT 15SM FEW120 OVC300 22/15 A2976 RMK AC2CI4 SLP081

CYQR;2011-06-28 19:00;CYQR 281900Z 16018KT 15SM FEW120 BKN300 24/15 A2974 RMK AC2CI2 SLP075

CYQR;2011-06-28 20:00;CYQR 282000Z 19015G22KT 15SM FEW120 SCT300 26/16 A2973 RMK AC1CI1 SLP070

CYQR;2011-06-28 21:00;CYQR 282100Z 20015KT 15SM BKN300 26/16 A2971 RMK CI1 SLP062

CYQR;2011-06-28 22:00;CYQR 282200Z 20012G17KT 15SM BKN300 27/16 A2970 RMK CI1 SLP057

CYQR;2011-06-28 23:00;CYQR 282300Z 19010G15KT 15SM BKN300 28/16 A2968 RMK CI1 SLP051

CYQR;2011-06-29 00:00;CYQR 290000Z 19009KT 15SM BKN300 28/15 A2966 RMK CI2 SLP045

CYQR;2011-06-29 01:00;CYQR 290100Z 21012KT 15SM FEW110 BKN300 28/16 A2966 RMK AC1CI1 SLP042

CYQR;2011-06-29 02:00;CYQR 290200Z 16008KT 15SM FEW110 FEW170 BKN300 26/17 A2965 RMK AC1ACC1CI1 SLP039

CYQR;2011-06-29 03:00;CYQR 290300Z 17009KT 15SM FEW090 FEW160 BKN300 24/18 A2964 RMK AC1AC1CI1 SLP035

CYQR;2011-06-29 04:00;CYQR 290400Z 17010KT 15SM FEW090 BKN300 23/17 A2964 RMK AC1CI1 SLP035

CYQR;2011-06-29 05:00;CYQR 290500Z 16009KT 15SM BKN290 22/17 A2963 RMK CI1 SLP032

CYQR;2011-06-29 06:00;CYQR 290600Z 15012KT 15SM SCT120 BKN280 22/18 A2961 RMK AC3CI0 SLP027

CYQR;2011-06-29 07:00;CYQR 290700Z 15011KT 15SM OVC120 21/18 A2960 RMK AC8 SLP023

CYQR;2011-06-29 08:00;CYQR 290800Z 20007KT 15SM SCT046 OVC120 20/18 A2965 RMK SC3AC5 SLP038

CYQR;2011-06-29 09:00;CYQR 290900Z 16010KT 15SM FEW045 OVC120 21/17 A2961 RMK SC2AC6 SLP022

CYQR;2011-06-29 10:00;CYQR 291000Z 14006KT 15SM BKN057 BKN120 21/17 A2955 RMK SC5AC2 PRESFR SLP002

CYQR;2011-06-29 11:00;CYQR 291100Z 15011G18KT 15SM FEW020 BKN076 BKN120 BKN280 20/17 A2955 RMK CU1AC2AC1CI0 SLP002

CYQR;2011-06-29 12:00;CYQR 291200Z 14010KT 15SM FEW076 FEW120 BKN280 20/16 A2952 RMK AC1AC1CI1 CB DIST S SLP993

CYQR;2011-06-29 13:00;CYQR 291300Z 15005KT 15SM FEW120 BKN280 23/16 A2952 RMK AC1CI2 SLP993

CYQR;2011-06-29 14:00;CYQR 291400Z 25007KT 15SM FEW085 BKN300 24/17 A2956 RMK AC1CI1 SLP003

CYQR;2011-06-29 15:00;CYQR 291500Z 22012KT 15SM FEW085 BKN300 27/17 A2955 RMK AC1CI1 SLP000

CYQR;2011-06-29 16:00;CYQR 291600Z 30009KT 15SM BKN300 27/18 A2955 RMK CI2 SLP000

CYQR;2011-06-29 17:00;CYQR 291700Z 26007KT 15SM FEW110 SCT320 29/17 A2954 RMK AC1CI2 SLP998

CYQR;2011-06-29 18:00;CYQR 291800Z 24011KT 15SM BKN300 30/16 A2954 RMK CI1 SLP997

CYQR;2011-06-29 19:00;CYQR 291900Z 29007KT 15SM BKN300 31/17 A2953 RMK CI1 SLP993

CYQR;2011-06-29 20:00;CYQR 292000Z 27006KT 15SM FEW060 BKN300 31/17 A2952 RMK CF1CI2 SLP991

CYQR;2011-06-29 21:00;CYQR 292100Z 30005KT 15SM FEW060 FEW300 31/19 A2952 RMK CU1CI1 SLP989

CYQR;2011-06-29 22:00;CYQR 292200Z 25003KT 15SM FEW060 FEW300 31/18 A2951 RMK CU1CI0 SLP985

CYQR;2011-06-29 23:00;CYQR 292300Z 27004KT 15SM FEW080 31/18 A2950 RMK AC0 SLP982

CYQR;2011-06-30 00:00;CYQR 300000Z 00000KT 15SM FEW080 31/18 A2949 RMK AC0 SLP978

CYQR;2011-06-30 01:00;CYQR 300100Z 30002KT 15SM FEW100 FEW300 31/17 A2947 RMK AC1CI0 SLP972

CYQR;2011-06-30 02:00;CYQR 300200Z 00000KT 15SM SCT074 BKN300 31/17 A2946 RMK AC3CI0 SLP968

CYQR;2011-06-30 02:53;CYQR 300253Z 03005KT 15SM TS BKN071CB BKN300 26/ RMK CB5CI1 LTGCG WEST

CYQR;2011-06-30 03:00;CYQR 300300Z 01006KT 15SM TS BKN071CB 26/19 A2946 RMK CB6 LTGCG WEST SLP969

CYQR;2011-06-30 03:49;CYQR 300349Z 01002KT 15SM -TSRA BKN069CB 26/ RMK CB6 LTGCG

CYQR;2011-06-30 04:00;CYQR 300400Z 00000KT 15SM -TSRA BKN069CB 27/20 A2950 RMK CB6 LTGCG SLP982

CYQR;2011-06-30 04:04;CYQR 300404Z 27026G48KT 15SM -TSRA BKN069CB 24/ RMK CB6 LTGCG

CYQR;2011-06-30 05:00;CYQR 300500Z 26003KT 15SM -TSRA BKN070CB 19/17 A2956 RERA RMK CB6 LTGCC PRESRR FROPA SLP002

CYQR;2011-06-30 06:00;CYQR 300600Z 10010KT 15SM -TSRA BKN066CB 19/17 A2947 RMK CB6 LTGCCCG PRESFR SLP973

CYQR;2011-06-30 06:35;CYQR 300635Z 16010KT 15SM TS SCT033 BKN063CB BKN092 19/ RMK SC3CB2AC1 LTGCG SOUTH

CYQR;2011-06-30 07:00;CYQR 300700Z 14009KT 15SM TS FEW033 BKN063CB BKN092 20/17 A2947 RMK SC2CB3AC1 LTGCCCG SOUTH SLP975

CYQR;2011-06-30 08:00;CYQR 300800Z 16004KT 15SM TS FEW065 SCT100 BKN260 20/18 A2948 RMK SC2AC2CI1 CB ASOCTD SLP977

CYQR;2011-06-30 08:07;CYQR 300807Z 13003KT 15SM SCT054 BKN069 BKN260 20/ RETS RMK SC3AC2CI1

CYQR;2011-06-30 09:00;CYQR 300900Z CCA 10003KT 15SM FEW054 BKN069 BKN260 19/17 A2945 RETS RMK SC2AC2CI0 SLP966

CYQR;2011-06-30 10:00;CYQR 301000Z 23005KT 15SM SCT051 BKN070 19/18 A2949 RMK SC3AC3 SLP979

CYQR;2011-06-30 11:00;CYQR 301100Z 22011KT 15SM FEW050 SCT070 BKN260 19/16 A2953 RMK SC2AC2CI1 SLP991

CYQR;2011-06-30 12:00;CYQR 301200Z 22011KT 15SM FEW050 FEW070 BKN260 19/17 A2955 RMK SC2AC1CI1 SLP999

CYQR;2011-06-30 13:00;CYQR 301300Z 25012KT 15SM FEW050 FEW095 BKN300 19/16 A2956 RMK SC1AC1CI0 SLP004

CYQR;2011-06-30 14:00;CYQR 301400Z 24013KT 15SM FEW100 FEW160 SCT300 20/16 A2957 RMK ACC1AC2CI2 SLP007

CYQR;2011-06-30 15:00;CYQR 301500Z 26015KT 15SM FEW100 FEW300 21/15 A2958 RMK AC1CI1 SLP013

CYQR;2011-06-30 16:00;CYQR 301600Z 25015KT 15SM FEW120 FEW300 23/16 A2957 RMK AC1CI0 SLP011

CYQR;2011-06-30 17:00;CYQR 301700Z 25016G22KT 15SM FEW120 FEW300 24/16 A2958 RMK ACC1CI1 SLP012

CYQR;2011-06-30 18:00;CYQR 301800Z 25021G27KT 15SM FEW300 24/15 A2959 RMK CI1 SLP017

CYQR;2011-06-30 19:00;CYQR 301900Z 25021G28KT 15SM FEW050 FEW100 SCT300 25/15 A2959 RMK CU1AC1CI0 SLP019

CYQR;2011-06-30 20:00;CYQR 302000Z 27020G26KT 15SM SCT046 BKN300 25/16 A2961 RMK CU3CI1 SLP025

CYQR;2011-06-30 21:00;CYQR 302100Z 29019G24KT 15SM BKN031 BKN300 23/17 A2962 RMK CU5CI1 SLP031

CYQR;2011-06-30 22:00;CYQR 302200Z 29019G24KT 15SM BKN033 BKN100 BKN300 24/18 A2964 RMK CU5AC1CI1 SLP035

CYQR;2011-06-30 23:00;CYQR 302300Z 29018KT 15SM FEW036 BKN300 24/17 A2965 RMK CU2CI1 SLP039

CYQR;2011-07-01 01:00;CYQR 010100Z 28013KT 15SM FEW045 SCT300 23/15 A2967 RMK CU2CI1 TCU ASOCTD SLP045

CYQR;2011-07-01 02:00;CYQR 010200Z 29009KT 15SM FEW051 FEW090 23/15 A2968 RMK CU2AC1 TCU ASOCTD SLP050

CYQR;2011-07-01 03:00;CYQR 010300Z CCA 29008KT 15SM FEW050 FEW090 SCT300 20/15 A2970 RMK CU2AC1CI0 TCU ASOCTD SLP058

CYQR;2011-07-01 04:00;CYQR 010400Z 28006KT 15SM FEW050 FEW090 SCT300 18/15 A2972 RMK CU2AC1CI0 TCU ASOCTD SLP063

CYQR;2011-07-01 05:00;CYQR 010500Z 29004KT 15SM FEW050 FEW090 16/14 A2974 RMK CU2AC1 SLP070

CYQR;2011-07-01 06:00;CYQR 010600Z 24004KT 15SM FEW050 15/13 A2976 RMK SC2 SLP077

CYQR;2011-07-01 07:00;CYQR 010700Z 24005KT 15SM FEW082 14/12 A2977 RMK AC2 SLP081

CYQR;2011-07-01 08:00;CYQR 010800Z 21006KT 15SM FEW080 14/11 A2978 RMK AC2 SLP084

CYQR;2011-07-01 09:00;CYQR 010900Z 23007KT 15SM FEW083 14/12 A2978 RMK AC2 SLP088

CYQR;2011-07-01 10:00;CYQR 011000Z 26010KT 15SM FEW085 13/10 A2979 RMK AC2 SLP090

CYQR;2011-07-01 11:00;CYQR 011100Z 25009KT 15SM SCT083 12/09 A2980 RMK AC3 SLP093

CYQR;2011-07-01 12:00;CYQR 011200Z 26009KT 15SM SKC 12/09 A2981 RMK SLP099

CYQR;2011-07-01 13:00;CYQR 011300Z 26014KT 15SM FEW300 14/09 A2982 RMK CI1 SLP103

CYQR;2011-07-01 14:00;CYQR 011400Z 27016KT 15SM SCT300 16/09 A2983 RMK CI1 SLP105

CYQR;2011-07-01 15:00;CYQR 011500Z 27016KT 15SM BKN300 16/09 A2984 RMK CI1 SLP109

CYQR;2011-07-01 16:00;CYQR 011600Z 28013KT 15SM FEW300 18/11 A2985 RMK CI1 SLP111

CYQR;2011-07-01 17:00;CYQR 011700Z 29013G20KT 15SM FEW030 FEW300 20/12 A2986 RMK CU1CI1 TR CU SLP113

CYQR;2011-07-01 18:00;CYQR 011800Z 28020G26KT 15SM FEW040 FEW300 20/12 A2986 RMK CU1CI1 SLP116

CYQR;2011-07-01 19:00;CYQR 011900Z 30020G27KT 15SM FEW045 SCT300 21/11 A2987 RMK CU1CI0 SLP120

CYQR;2011-07-01 20:00;CYQR 012000Z 29017G26KT 15SM FEW047 FEW081 SCT300 21/11 A2988 RMK CU2AC1CI1 SLP123

CYQR;2011-07-01 21:00;CYQR 012100Z 27016G22KT 15SM SCT051 SCT081 BKN300 22/11 A2989 RMK CU3AC1CI1 TCU ASOCTD SLP126

CYQR;2011-07-01 22:00;CYQR 012200Z 28014G20KT 15SM BKN053 BKN300 20/11 A2990 RMK CU6CI1 TCU ASOCTD SLP130

CYQR;2011-07-01 23:00;CYQR 012300Z 32014KT 15SM FEW053 FEW130 BKN300 20/12 A2991 RMK CU2AC1CI3 SLP134

CYQR;2011-07-02 00:00;CYQR 020000Z 30013G18KT 15SM FEW046 SCT090 BKN300 19/10 A2993 RMK CU2AC2CI2 TCU ASOCTD SLP143

CYQR;2011-07-02 01:00;CYQR 020100Z 30016KT 15SM FEW057 SCT090 BKN300 19/08 A2993 RMK CU2AC2CI2 TCU ASOCTD SLP144

CYQR;2011-07-02 02:00;CYQR 020200Z 29009KT 15SM FEW063 FEW080 BKN260 17/10 A2995 RMK CU2AC1CI1 TCU ASOCTD SLP150

CYQR;2011-07-02 03:00;CYQR 020300Z 29010KT 15SM FEW060 FEW087 SCT260 15/09 A2996 RMK CU1AC1CI0 SLP153

CYQR;2011-07-02 04:00;CYQR 020400Z 27007KT 15SM FEW085 14/09 A2998 RMK AC1 SLP159

CYQR;2011-07-02 05:00;CYQR 020500Z 29007KT 15SM SKC 12/09 A3000 RMK SLP164

CYQR;2011-07-02 06:00;CYQR 020600Z 29007KT 15SM SKC 11/08 A3001 RMK SLP172

CYQR;2011-07-02 07:00;CYQR 020700Z 28004KT 15SM SKC 10/08 A3002 RMK SLP175

CYQR;2011-07-02 08:00;CYQR 020800Z 26004KT 15SM SKC 10/08 A3003 RMK SLP178

CYQR;2011-07-02 09:00;CYQR 020900Z 26005KT 15SM SKC 08/06 A3004 RMK SLP182

CYQR;2011-07-02 10:00;CYQR 021000Z 28006KT 15SM SKC 09/06 A3004 RMK SLP182

CYQR;2011-07-02 11:00;CYQR 021100Z 23003KT 15SM SKC 08/05 A3006 RMK SLP187

CYQR;2011-07-02 12:00;CYQR 021200Z 21005KT 15SM FEW090 FEW300 09/06 A3007 RMK AC1CI0 SLP193

CYQR;2011-07-02 13:00;CYQR 021300Z 20002KT 15SM FEW300 12/08 A3009 RMK CI1 SLP198

CYQR;2011-07-02 14:00;CYQR 021400Z 23005KT 15SM FEW300 16/09 A3010 RMK CI1 SLP202

CYQR;2011-07-02 15:00;CYQR 021500Z 22004KT 15SM FEW300 18/09 A3010 RMK CI1 SLP199

CYQR;2011-07-02 16:00;CYQR 021600Z 26003KT 15SM FEW300 19/08 A3009 RMK CI1 SLP197

CYQR;2011-07-02 17:00;CYQR 021700Z 16003KT 15SM FEW300 20/07 A3009 RMK CI1 SLP196

CYQR;2011-07-02 18:00;CYQR 021800Z 18007KT 15SM FEW300 22/08 A3008 RMK CI1 SLP192

CYQR;2011-07-02 19:00;CYQR 021900Z 16005KT 15SM FEW300 22/08 A3006 RMK CI1 SLP188

CYQR;2011-07-02 20:00;CYQR 022000Z 18006G15KT 15SM FEW300 23/09 A3005 RMK CI1 SLP182

CYQR;2011-07-02 21:00;CYQR 022100Z 18007G16KT 15SM FEW060 FEW300 24/09 A3002 RMK CF1CI1 SLP174

CYQR;2011-07-02 22:00;CYQR 022200Z 17011G16KT 15SM FEW060 FEW300 25/10 A3000 RMK CU1CI1 SLP168

CYQR;2011-07-02 23:00;CYQR 022300Z 19008G16KT 15SM FEW060 24/10 A2999 RMK CU1 SLP162

CYQR;2011-07-03 00:00;CYQR 030000Z 17010KT 15SM SCT060 SCT300 25/11 A2997 RMK CU3CI1 SLP155

CYQR;2011-07-03 01:00;CYQR 030100Z 18006KT 15SM FEW080 25/12 A2995 RMK AC2 SLP149

CYQR;2011-07-03 02:00;CYQR 030200Z 16008KT 15SM FEW080 24/13 A2993 RMK AC2 SLP143

CYQR;2011-07-03 03:00;CYQR 030300Z 14010KT 15SM FEW080 22/13 A2993 RMK AC2 TCU W SLP137

CYQR;2011-07-03 04:00;CYQR 030400Z 13009KT 15SM FEW085 20/13 A2993 RMK AC1 SLP138

CYQR;2011-07-03 05:00;CYQR 030500Z 13010KT 15SM FEW085 19/13 A2992 RMK AC1 SLP135

CYQR;2011-07-03 06:00;CYQR 030600Z 14010KT 15SM FEW067 19/13 A2992 RMK AC2 SLP132

CYQR;2011-07-03 08:00;CYQR 030800Z 14010KT 15SM FEW070 18/14 A2990 RMK AC2 SLP127

CYQR;2011-07-03 09:00;CYQR 030900Z 13008KT 15SM FEW070 17/14 A2989 RMK AC2 SLP123

CYQR;2011-07-03 10:00;CYQR 031000Z 14010KT 15SM FEW080 17/14 A2989 RMK AC1 SLP121

CYQR;2011-07-03 11:00;CYQR 031100Z 14012KT 15SM FEW012 FEW080 17/15 A2987 RMK CU2AC1 CVCTV CLD ASOCTD SLP117

CYQR;2011-07-03 12:00;CYQR 031200Z 14011KT 15SM FEW012TCU FEW080 17/15 A2987 RMK TCU2AC1 CB DIST S SLP116

CYQR;2011-07-03 13:00;CYQR 031300Z 14013KT 15SM FEW012CB FEW080 18/15 A2987 RMK CB1AC1 CB SE SLP114

CYQR;2011-07-03 14:00;CYQR 031400Z 14009KT 15SM FEW012CB FEW080 19/16 A2986 RMK CB1AC1 CB SE SLP111

CYQR;2011-07-03 15:00;CYQR 031500Z 16008KT 15SM FEW016 FEW080 22/18 A2986 RMK CU1AC1 CB DIST SE SLP109

CYQR;2011-07-03 16:00;CYQR 031600Z 18009KT 15SM FEW080 23/18 A2985 RMK ACC1 SLP106

CYQR;2011-07-03 17:00;CYQR 031700Z 18010KT 15SM FEW080 25/19 A2984 RMK AC1 SLP104

CYQR;2011-07-03 18:00;CYQR 031800Z 17009KT 15SM FEW080 26/20 A2982 RMK AC1 SLP097

CYQR;2011-07-03 19:00;CYQR 031900Z 17009KT 15SM FEW034 28/20 A2981 RMK CU1 SLP093

CYQR;2011-07-03 20:00;CYQR 032000Z 19010KT 15SM FEW045TCU 30/19 A2980 RMK TCU1 SLP090

CYQR;2011-07-03 21:00;CYQR 032100Z 18011G16KT 15SM FEW046TCU FEW120 31/19 A2977 RMK TCU1ACC1 SLP079

CYQR;2011-07-03 22:00;CYQR 032200Z 20013G20KT 15SM SCT052TCU SCT120 32/19 A2976 RMK TCU3ACC1 MAMMATUS SLP073

CYQR;2011-07-03 22:36;CYQR 032236Z 21018KT 12SM -SHRA BKN039CB BKN120 26/ RMK CB6ACC1 CB OVRHD AND E

CYQR;2011-07-03 22:40;CYQR 032240Z 19004G20KT 10SM TSRA BKN039CB BKN120 25/ RMK CB6ACC1

CYQR;2011-07-03 22:49;CYQR 032249Z 00000KT 15SM -TSRAGR BKN048CB 25/ RERA RMK CB6 HAIL DIAM 20.0 MM

CYQR;2011-07-03 23:00;CYQR 032300Z 33005KT 15SM TS BKN055CB 26/22 A2974 RERAGR RMK CB6 SLP069

CYQR;2011-07-03 23:22;CYQR 032322Z 30002KT 15SM BKN055CB BKN100 27/ RETS RMK CB5ACC1 CB + HVY SHWRS E MOVG NE

CYQR;2011-07-04 00:00;CYQR 040000Z 20015KT 15SM FEW071 FEW340 30/20 A2972 RETS RMK ACC1CI1 CB N-E SLP062

CYQR;2011-07-04 01:00;CYQR 040100Z 18012KT 15SM FEW340 28/19 A2970 RMK CI2 CB W + E SLP054

CYQR;2011-07-04 02:00;CYQR 040200Z 18011KT 15SM BKN076CB BKN120 BKN340 26/18 A2968 RMK CB5ACC1CI2 CB APRCHNG FM W MAMMATUS SLP049

CYQR;2011-07-04 02:58;CYQR 040258Z 16007KT 15SM TS BKN076CB BKN120 BKN340 25/ RMK CB5ACC2CI1

CYQR;2011-07-04 03:00;CYQR 040300Z 17007KT 15SM TS BKN076CB BKN120 BKN340 25/17 A2970 RMK CB5ACC2CI1 LTCCGCC W-N SLP055

CYQR;2011-07-04 04:00;CYQR 040400Z CCA 10004KT 15SM TS BKN076CB 25/15 A2971 RMK CB7 LTGCCCG W-N SLP056

CYQR;2011-07-04 04:04;CYQR 040404Z 02007KT 10SM -TSRA OVC076CB 24/ RMK CB8 LTGCGCC W-N

CYQR;2011-07-04 05:00;CYQR 040500Z 11009KT 10SM -TSRA BKN021CB 19/17 A2974 RMK CB7 OBS TAKEN +8 SLP068

CYQR;2011-07-04 05:21;CYQR 040521Z 12010KT 15SM -SHRA SCT021 BKN043CB BKN070 17/ RETS RMK CF3CB2AC1

CYQR;2011-07-04 06:00;CYQR 040600Z 11010KT 15SM -SHRA FEW021 SCT043CB BKN088 20/17 A2974 RETS RMK CF1CB3AC2 SLP067

CYQR;2011-07-04 06:42;CYQR 040642Z 06015KT 15SM BKN088 19/ RMK AC6

CYQR;2011-07-04 07:00;CYQR 040700Z 08010KT 15SM BKN090 19/16 A2974 RMK AC6 SLP067

CYQR;2011-07-04 08:00;CYQR 040800Z 08014G20KT 15SM FEW090 18/15 A2975 RMK AC2 SLP072

CYQR;2011-07-04 09:00;CYQR 040900Z 03007KT 15SM FEW090 18/15 A2977 RMK AC2 SLP076

CYQR;2011-07-04 10:00;CYQR 041000Z 32010KT 15SM FEW090 17/15 A2979 RMK AC1 SLP083

CYQR;2011-07-04 11:00;CYQR 041100Z 35011KT 15SM FEW090 16/14 A2982 RMK AC1 SLP093

CYQR;2011-07-04 12:00;CYQR 041200Z 01007KT 15SM FEW280 17/15 A2984 RMK CI1 SLP103

CYQR;2011-07-04 13:00;CYQR 041300Z 34014KT 15SM FEW090 17/14 A2988 RMK AC1 SLP114

CYQR;2011-07-04 14:00;CYQR 041400Z 34015KT 15SM FEW015 FEW300 18/14 A2991 RMK CF1CI1 SLP126

CYQR;2011-07-04 15:00;CYQR 041500Z 34014G20KT 15SM FEW020 FEW300 19/14 A2993 RMK CU1CI1 SLP135

CYQR;2011-07-04 16:00;CYQR 041600Z 35016KT 15SM FEW025TCU FEW300 20/14 A2995 RMK TCU1CI0 SLP141

CYQR;2011-07-04 17:00;CYQR 041700Z 34019KT 15SM SCT300 21/13 A2998 RMK CI0 SLP149

CYQR;2011-07-04 18:00;CYQR 041800Z 35012KT 15SM FEW035 SCT300 21/13 A2999 RMK CU1CI0 SLP156

CYQR;2011-07-04 19:00;CYQR 041900Z 36015KT 15SM SCT300 22/14 A3000 RMK CI1 SLP160

CYQR;2011-07-04 20:00;CYQR 042000Z 34014KT 15SM FEW300 23/13 A3001 RMK CI1 SLP163

CYQR;2011-07-04 21:00;CYQR 042100Z 33014KT 15SM FEW300 24/12 A3001 RMK CI0 SLP164

CYQR;2011-07-04 22:00;CYQR 042200Z 35013KT 15SM FEW300 23/11 A3001 RMK CI0 SLP163

CYQR;2011-07-04 23:00;CYQR 042300Z 36011KT 15SM FEW300 23/10 A3001 RMK CI0 SLP164

CYQR;2011-07-05 00:00;CYQR 050000Z 36008KT 15SM FEW300 23/12 A3001 RMK CI0 SLP166

CYQR;2011-07-05 01:00;CYQR 050100Z 32006KT 15SM FEW300 22/12 A3002 RMK CI0 SLP168

CYQR;2011-07-05 02:00;CYQR 050200Z 33005KT 15SM FEW300 21/13 A3003 RMK CI0 SLP170

CYQR;2011-07-05 03:00;CYQR 050300Z 34002KT 15SM FEW300 20/12 A3003 RMK CI0 SLP173

CYQR;2011-07-05 04:00;CYQR 050400Z 00000KT 15SM FEW300 19/12 A3004 RMK CI1 SLP176

CYQR;2011-07-05 05:00;CYQR 050500Z 00000KT 15SM FEW300 17/13 A3004 RMK CI1 SLP175

CYQR;2011-07-05 06:00;CYQR 050600Z 07004KT 15SM SKC 16/13 A3005 RMK SLP179

CYQR;2011-07-05 07:00;CYQR 050700Z 11003KT 15SM SKC 16/13 A3006 RMK SLP184

CYQR;2011-07-05 08:00;CYQR 050800Z 17003KT 15SM SCT079 16/13 A3007 RMK AC3 SLP188

CYQR;2011-07-05 09:00;CYQR 050900Z 05005KT 15SM -RA OVC041 16/14 A3008 RMK SC8 SLP190

CYQR;2011-07-05 10:00;CYQR 051000Z 03006KT 15SM -RA OVC064 16/14 A3009 RMK SC8 SLP191

CYQR;2011-07-05 11:00;CYQR 051100Z 06004KT 15SM -RA BKN039 OVC065 16/14 A3009 RMK SC6SC2 SLP191

CYQR;2011-07-05 11:23;CYQR 051123Z 04002KT 15SM BKN039 OVC065 16/ RMK SC6SC2

CYQR;2011-07-05 12:00;CYQR 051200Z 15005KT 15SM SCT039 BKN075 16/14 A3008 RMK SC3AC4 SLP190

CYQR;2011-07-05 13:00;CYQR 051300Z 14004KT 15SM BKN043 BKN075 16/15 A3010 RMK SC5AC2 VIRGA ACC ASOCTD SLP196

CYQR;2011-07-05 14:00;CYQR 051400Z 15003KT 15SM SCT045 BKN075 17/15 A3012 RMK SC4AC3 VIRGA ACC ASOCTD SLP201

CYQR;2011-07-05 15:00;CYQR 051500Z 14005KT 15SM FEW050 BKN090 18/15 A3013 RMK SC2AC6 SLP207

CYQR;2011-07-05 16:00;CYQR 051600Z 17007KT 15SM FEW034 BKN081 BKN120 20/15 A3013 RMK CU1AC5AC1 ACC ASOCTD SLP207

CYQR;2011-07-05 17:00;CYQR 051700Z 18010KT 15SM FEW040 BKN080 BKN300 22/14 A3013 RMK CU1AC4CI1 ACC ASOCTD SLP206

CYQR;2011-07-05 18:00;CYQR 051800Z 20010KT 15SM FEW040 SCT080 BKN120 BKN300 23/14 A3011 RMK CU2AC2AC2CI1 SLP201

CYQR;2011-07-05 19:00;CYQR 051900Z 17007KT 15SM FEW040 FEW100 BKN300 25/12 A3010 RMK CU1AC2CI2 SLP198

CYQR;2011-07-05 20:00;CYQR 052000Z 17011G16KT 15SM FEW050 FEW120 BKN300 26/12 A3010 RMK CU1AC1CI1 SLP195

CYQR;2011-07-05 21:00;CYQR 052100Z 16012KT 15SM FEW055 FEW300 26/13 A3008 RMK CU1CI0 SLP188

CYQR;2011-07-05 22:00;CYQR 052200Z 20008KT 15SM FEW055 FEW120 FEW300 26/13 A3007 RMK CU1AC1CI0 TCU TOP SW SLP184

CYQR;2011-07-05 23:00;CYQR 052300Z 16011KT 15SM FEW055 FEW120 FEW300 26/13 A3005 RMK CU1ACC1CI1 TCU ASOCTD CB TOP SW SLP179

CYQR;2011-07-06 00:00;CYQR 060000Z 17008KT 15SM FEW055 FEW120 FEW300 27/13 A3003 RMK CU1ACC1CI0 TCU ASOCTD CB SW SLP171

CYQR;2011-07-06 01:00;CYQR 060100Z 18008KT 15SM FEW070 FEW120 FEW300 26/14 A3003 RMK CU1ACC1CI0 TCU ASOCTD SLP169

CYQR;2011-07-06 02:00;CYQR 060200Z 16007KT 15SM FEW070 FEW120 FEW300 24/14 A3003 RMK CU1ACC1CI0 SLP169

CYQR;2011-07-06 03:00;CYQR 060300Z 17005KT 15SM FEW070 FEW120 FEW300 21/16 A3004 RMK CU1ACC1CI0 SLP175

CYQR;2011-07-06 04:00;CYQR 060400Z 17006KT 15SM FEW120 FEW300 20/15 A3005 RMK AC1CI1 SLP177

CYQR;2011-07-06 05:00;CYQR 060500Z 16009KT 15SM SKC 20/15 A3004 RMK SLP176

CYQR;2011-07-06 06:00;CYQR 060600Z 17006KT 15SM SKC 18/15 A3003 RMK SLP169

CYQR;2011-07-06 07:00;CYQR 060700Z 11005KT 15SM SKC 16/14 A3002 RMK SLP168

CYQR;2011-07-06 08:00;CYQR 060800Z 13006KT 15SM SKC 16/14 A3002 RMK SLP168

CYQR;2011-07-06 09:00;CYQR 060900Z 11006KT 15SM SKC 15/13 A3002 RMK SLP168

CYQR;2011-07-06 10:00;CYQR 061000Z 07005KT 15SM FEW220 15/13 A3002 RMK CI2 SLP168

CYQR;2011-07-06 11:00;CYQR 061100Z 12004KT 15SM FEW220 15/13 A3001 RMK CI2 CVCTV CLD S SLP165

CYQR;2011-07-06 12:00;CYQR 061200Z 00000KT 15SM FEW080 FEW220 16/14 A3002 RMK AC1CI1 SLP168

CYQR;2011-07-06 13:00;CYQR 061300Z 01002KT 15SM SCT080 SCT120 SCT260 17/15 A3003 RMK AC2AC1CI0 SLP169

CYQR;2011-07-06 14:00;CYQR 061400Z 14002KT 15SM FEW100 FEW300 20/15 A3003 RMK AC1CI0 SLP169

CYQR;2011-07-06 15:00;CYQR 061500Z 28003KT 15SM FEW100 FEW300 22/16 A3002 RMK AC1CI1 SLP167

CYQR;2011-07-06 16:00;CYQR 061600Z 00000KT 15SM SKC 23/16 A3002 RMK SLP167

CYQR;2011-07-06 17:00;CYQR 061700Z 00000KT 15SM FEW030 24/16 A3002 RMK CU1 SLP165

CYQR;2011-07-06 18:00;CYQR 061800Z 36005KT 15SM FEW035 25/17 A3002 RMK CU1 SLP165

CYQR;2011-07-06 19:00;CYQR 061900Z 01004KT 15SM FEW046 26/17 A3001 RMK CU2 SLP164

CYQR;2011-07-06 20:00;CYQR 062000Z 36007KT 15SM BKN043 25/16 A3001 RMK CU5 TCU ASOCTD SLP164

CYQR;2011-07-06 21:00;CYQR 062100Z 04008KT 15SM BKN043 27/17 A3001 RMK CU5 TCU ASOCTD SLP165

CYQR;2011-07-06 22:00;CYQR 062200Z 36008KT 15SM FEW050 27/15 A3000 RMK CU2 TCU ASOCTD SLP162

CYQR;2011-07-06 23:00;CYQR 062300Z 01011KT 15SM FEW057 26/14 A3000 RMK CU2 SLP159

CYQR;2011-07-07 00:00;CYQR 070000Z 03011KT 15SM FEW060 FEW300 27/15 A2999 RMK CU1CI0 TCU ASOCTD SLP155

CYQR;2011-07-07 01:00;CYQR 070100Z 05007KT 15SM FEW060 FEW300 26/15 A2999 RMK CU1CI0 SLP155

CYQR;2011-07-07 02:00;CYQR 070200Z 01005KT 15SM FEW060TCU FEW300 24/15 A2999 RMK TCU1CI1 SLP156

CYQR;2011-07-07 03:00;CYQR 070300Z 03005KT 15SM FEW060CB FEW300 22/15 A2999 RMK CB1CI1 CB SE SLP155

CYQR;2011-07-07 04:00;CYQR 070400Z 04004KT 15SM FEW300 20/14 A3000 RMK CI1 SLP158

CYQR;2011-07-07 05:00;CYQR 070500Z 07004KT 15SM FEW300 19/14 A3000 RMK CI1 SLP159

CYQR;2011-07-07 06:00;CYQR 070600Z 09004KT 15SM SKC 19/15 A3000 RMK SLP160

CYQR;2011-07-07 07:00;CYQR 070700Z 08002KT 15SM SKC 18/13 A3000 RMK SLP160

CYQR;2011-07-07 08:00;CYQR 070800Z 17003KT 15SM SKC 16/14 A3001 RMK SLP161

CYQR;2011-07-07 09:00;CYQR 070900Z 14005KT 15SM SKC 16/13 A3000 RMK SLP159

CYQR;2011-07-07 10:00;CYQR 071000Z 13005KT 15SM FEW350 15/12 A3000 RMK CI1 SLP160

CYQR;2011-07-07 11:00;CYQR 071100Z 09005KT 15SM FEW160 FEW350 14/12 A3000 RMK AC1CI1 SLP160

CYQR;2011-07-07 12:00;CYQR 071200Z 11005KT 15SM FEW010 FEW160 FEW350 16/13 A3000 RMK CU1AC1CI1 SLP160

CYQR;2011-07-07 13:00;CYQR 071300Z 11005KT 15SM FEW080 FEW160 19/15 A3000 RMK ACC1AC1 SLP160

CYQR;2011-07-07 14:00;CYQR 071400Z 16005KT 15SM FEW080 21/16 A3000 RMK ACC1 SLP161

CYQR;2011-07-07 15:00;CYQR 071500Z 18007KT 15SM FEW130 23/17 A3001 RMK ACC1 SLP161

CYQR;2011-07-07 16:00;CYQR 071600Z 18009KT 15SM FEW130 25/17 A3000 RMK ACC1 SLP159

CYQR;2011-07-07 17:00;CYQR 071700Z 17009KT 15SM FEW040 FEW130 26/16 A2999 RMK CF1ACC1 SLP156

CYQR;2011-07-07 18:00;CYQR 071800Z 16007KT 15SM FEW042 FEW130 FEW300 27/16 A2998 RMK CF1ACC1CC1 SLP151

CYQR;2011-07-07 19:00;CYQR 071900Z 19009KT 15SM FEW046 FEW150 28/16 A2996 RMK CF1ACC1 SLP144

CYQR;2011-07-07 20:00;CYQR 072000Z 17012KT 15SM FEW048 FEW150 28/16 A2995 RMK CU1ACC1 SLP141

CYQR;2011-07-07 21:00;CYQR 072100Z 17011KT 15SM FEW050 FEW150 29/15 A2993 RMK CU1ACC1 SLP134

CYQR;2011-07-07 22:00;CYQR 072200Z 15010KT 15SM FEW054 FEW150 FEW320 29/16 A2991 RMK CU1ACC1CI1 SLP129

CYQR;2011-07-07 23:00;CYQR 072300Z 19008KT 15SM FEW052TCU SCT130 SCT320 29/16 A2990 RMK TCU1ACC1CI1 TCU S SLP124

CYQR;2011-07-08 00:00;CYQR 080000Z 19008KT 15SM FEW044 BKN130 BKN320 28/17 A2988 RMK CU1ACC2CI0 SLP118

CYQR;2011-07-08 01:00;CYQR 080100Z 18011KT 15SM BKN320 27/16 A2986 RMK CI2 SLP113

CYQR;2011-07-08 02:00;CYQR 080200Z 17009KT 15SM BKN320 26/16 A2984 RMK CI4 SLP106

CYQR;2011-07-08 03:00;CYQR 080300Z 16010KT 15SM BKN320 25/16 A2986 RMK CI2 SLP106

CYQR;2011-07-08 04:00;CYQR 080400Z 16011KT 15SM BKN320 24/16 A2986 RMK CI2 SLP107

CYQR;2011-07-08 05:00;CYQR 080500Z 14011KT 15SM BKN320 23/16 A2984 RMK CI2 SLP102

CYQR;2011-07-08 06:00;CYQR 080600Z 16012KT 15SM BKN320 22/16 A2983 RMK CI2 SLP098

CYQR;2011-07-08 07:00;CYQR 080700Z 17011KT 15SM BKN320 21/16 A2983 RMK CI2 SLP096

CYQR;2011-07-08 08:00;CYQR 080800Z 16010KT 15SM SCT320 20/16 A2981 RMK CI1 SLP091

CYQR;2011-07-08 09:00;CYQR 080900Z 14009KT 15SM BKN320 19/16 A2980 RMK CI2 SLP087

CYQR;2011-07-08 10:00;CYQR 081000Z 14010KT 15SM BKN320 18/16 A2978 RMK CI2 SLP081

CYQR;2011-07-08 11:00;CYQR 081100Z 15014KT 15SM FEW100 BKN320 19/16 A2977 RMK AC1CI3 SLP078

CYQR;2011-07-08 12:00;CYQR 081200Z 14012KT 15SM FEW070CB SCT100 OVC320 20/16 A2976 RMK CB2ACC2CI3 CB NW OCNL LTNG SLP073

CYQR;2011-07-08 13:00;CYQR 081300Z 15014G19KT 15SM BKN058 BKN098 OVC320 20/16 A2973 RMK SC5AC2CI0 CVCTV CLD EMBD SLP066

CYQR;2011-07-08 13:03;CYQR 081303Z 15016KT 15SM -SHRA SCT018 BKN058 OVC320 20/ RMK SC3SC4CI1 ACC ASOCTD

CYQR;2011-07-08 14:00;CYQR 081400Z 15017G24KT 15SM -SHRA FEW018 BKN063 OVC100 20/16 A2971 RMK CF1SC5AC3 ACC ASOCTD SLP060

CYQR;2011-07-08 15:00;CYQR 081500Z 16017KT 15SM -SHRA FEW019 BKN045 BKN100 BKN300 20/17 A2971 RMK CU1SC6ACC2CI1 SLP058

CYQR;2011-07-08 16:00;CYQR 081600Z 15014KT 15SM -SHRA FEW045 BKN071 BKN300 21/17 A2970 RMK SC2ACC4CI1 HVYR SHWRS S SLP056

CYQR;2011-07-08 17:00;CYQR 081700Z 16012KT 15SM SCT021 BKN054 BKN120 OVC310 22/18 A2969 RMK CU3SC3ACC1CI1 SHWRS SW SLP052

CYQR;2011-07-08 17:39;CYQR 081739Z 17017KT 15SM -SHRA FEW022 BKN069 BKN120 OVC310 22/ RMK CU2AC4ACC2CI1

CYQR;2011-07-08 18:00;CYQR 081800Z 16016KT 15SM VCSH BKN036 BKN069 BKN120 22/19 A2967 RMK CU5AC2ACC1 SHWRS S SLP047

CYQR;2011-07-08 19:00;CYQR 081900Z 18017G26KT 15SM FEW047 SCT072 BKN120 BKN300 24/20 A2966 RMK CU2AC2ACC2CI1 SLP042

CYQR;2011-07-08 20:00;CYQR 082000Z 20019G24KT 15SM FEW032 BKN080 BKN120 BKN330 26/19 A2964 RMK CU2AC4ACC1CI2 SLP037

CYQR;2011-07-08 21:00;CYQR 082100Z 20015KT 15SM FEW030 FEW080 FEW120 BKN330 24/18 A2963 RMK CU2AC1ACC1CI4 CB WSW SLP033

CYQR;2011-07-08 22:00;CYQR 082200Z 19009KT 15SM FEW030 SCT120 BKN330 24/19 A2961 RMK CU1AC3CI2 CB SW ACC ASOCTD SLP024

CYQR;2011-07-08 23:00;CYQR 082300Z 17008KT 15SM FEW030 FEW120 BKN330 25/19 A2960 RMK CU1AC2CI2 CB E SLP022

CYQR;2011-07-09 00:00;CYQR 090000Z 15013G19KT 15SM FEW030 FEW100 FEW140 SCT330 25/19 A2959 RMK CU1AC1ACC1CI2 SLP016

CYQR;2011-07-09 01:00;CYQR 090100Z 15016G22KT 15SM FEW030CB FEW100 FEW330 23/18 A2957 RMK CB1AC1CI2 CB SW SLP010

CYQR;2011-07-09 02:00;CYQR 090200Z 16021G30KT 15SM SCT076CB SCT100 BKN330 22/18 A2956 RMK CB3ACC1CI2 SLP007

CYQR;2011-07-09 03:00;CYQR 090300Z 16019G24KT 15SM FEW079TCU FEW100 SCT330 21/17 A2957 RMK TCU2ACC1CI0 SLP012

CYQR;2011-07-09 04:00;CYQR 090400Z 15012G20KT 15SM FEW080 20/17 A2955 RMK ACC1 SLP005

CYQR;2011-07-09 05:00;CYQR 090500Z 15013KT 15SM FEW012 FEW070CB 19/17 A2953 RMK SC2CB1 CB NW OCNL LTNG SLP001

CYQR;2011-07-09 05:07;CYQR 090507Z 15012G17KT 15SM BKN010 19/ RMK SC6 CB EMBD NW

CYQR;2011-07-09 05:16;CYQR 090516Z 16014KT 15SM BKN009 19/ RMK SC6

CYQR;2011-07-09 06:00;CYQR 090600Z 16016G21KT 15SM BKN006 19/18 A2952 RMK SC7 SLP995

CYQR;2011-07-09 06:39;CYQR 090639Z 21020G26KT 15SM SCT007 BKN021 BKN081 20/ RMK SF4SC2AC2

CYQR;2011-07-09 07:00;CYQR 090700Z 29015G24KT 15SM BKN021 BKN090 19/14 A2954 RMK SC6AC1 SLP002

CYQR;2011-07-09 08:00;CYQR 090800Z 29011KT 15SM FEW090 15/09 A2956 RMK AC1 SLP008

CYQR;2011-07-09 09:00;CYQR 090900Z 27007KT 15SM SKC 12/07 A2958 RMK SLP020

CYQR;2011-07-09 10:00;CYQR 091000Z 26005KT 15SM FEW090 11/05 A2959 RMK AC1 SLP023

CYQR;2011-07-09 11:00;CYQR 091100Z 25011KT 15SM FEW090 FEW320 11/04 A2959 RMK AC1CI1 SLP023

CYQR;2011-07-09 12:00;CYQR 091200Z 25011KT 15SM FEW320 12/05 A2960 RMK CI1 SLP026

CYQR;2011-07-09 13:00;CYQR 091300Z 26012KT 15SM FEW320 13/07 A2961 RMK CI1 SLP030

CYQR;2011-07-09 14:00;CYQR 091400Z 25011G16KT 15SM FEW090 15/08 A2961 RMK AC1 SLP031

CYQR;2011-07-09 15:00;CYQR 091500Z 24017KT 15SM SKC 17/09 A2962 RMK SLP031

CYQR;2011-07-09 16:00;CYQR 091600Z 23017KT 15SM FEW044 19/08 A2961 RMK CF1 SLP029

CYQR;2011-07-09 17:00;CYQR 091700Z 25017KT 15SM SKC 20/08 A2961 RMK SLP027

CYQR;2011-07-09 18:00;CYQR 091800Z 27019G27KT 15SM SKC 21/09 A2960 RMK SLP025

CYQR;2011-07-09 19:00;CYQR 091900Z 25018G24KT 15SM SKC 22/08 A2961 RMK SLP026

CYQR;2011-07-09 20:00;CYQR 092000Z 26018G24KT 15SM FEW060 23/08 A2961 RMK CU1 SLP027

CYQR;2011-07-09 21:00;CYQR 092100Z 27017G26KT 15SM FEW060 23/08 A2961 RMK CU1 SLP028

CYQR;2011-07-09 22:00;CYQR 092200Z 26017G27KT 15SM FEW060 24/08 A2961 RMK CU1 SLP029

CYQR;2011-07-09 23:00;CYQR 092300Z 27016G24KT 15SM FEW064 24/08 A2961 RMK CU1 SLP029

CYQR;2011-07-10 00:00;CYQR 100000Z 26017G25KT 15SM FEW064 SCT082 23/07 A2961 RMK SC2AC2 SLP032

CYQR;2011-07-10 01:00;CYQR 100100Z 29016KT 15SM FEW048 22/10 A2963 RMK SC1 SLP037

CYQR;2011-07-10 02:00;CYQR 100200Z 29011KT 15SM FEW036 20/11 A2965 RMK SC1 SLP042

CYQR;2011-07-10 03:00;CYQR 100300Z 28005KT 15SM FEW030 17/10 A2966 RMK SC1 SLP046

CYQR;2011-07-10 04:00;CYQR 100400Z 25006KT 15SM SKC 14/10 A2967 RMK SLP050

CYQR;2011-07-10 05:00;CYQR 100500Z 27007KT 15SM SKC 14/09 A2966 RMK SLP048

CYQR;2011-07-10 10:00;CYQR 101000Z 25007KT 15SM FEW020 11/09 A2968 RMK SC1 SLP054

CYQR;2011-07-10 11:00;CYQR 101100Z 26005KT 15SM FEW055 11/09 A2969 RMK SC2 SLP056

CYQR;2011-07-10 12:00;CYQR 101200Z 26006KT 15SM FEW055 11/09 A2970 RMK SC1 SLP061

CYQR;2011-07-10 13:00;CYQR 101300Z 28007KT 15SM FEW080 14/11 A2971 RMK AC1 SLP064

CYQR;2011-07-10 14:00;CYQR 101400Z 28012KT 15SM FEW050 FEW250 17/11 A2971 RMK SC1CI1 SLP066

CYQR;2011-07-10 15:00;CYQR 101500Z 28014KT 15SM FEW100 18/12 A2972 RMK ACC1 SLP067

CYQR;2011-07-10 16:00;CYQR 101600Z 27013G20KT 15SM FEW026 FEW320 20/13 A2972 RMK CF1CI0 SLP067

CYQR;2011-07-10 17:00;CYQR 101700Z 28019G24KT 15SM FEW032 FEW320 21/13 A2973 RMK CF1CI1 SLP070

CYQR;2011-07-10 18:00;CYQR 101800Z 28017G26KT 15SM SCT030 SCT320 21/13 A2973 RMK CU3CI1 SLP074

CYQR;2011-07-10 19:00;CYQR 101900Z 28021G28KT 15SM SCT032 SCT320 21/14 A2974 RMK CU3CI1 SLP077

CYQR;2011-07-10 20:00;CYQR 102000Z 29018G28KT 15SM SCT039 SCT320 22/14 A2975 RMK CU4CI1 SLP079

CYQR;2011-07-10 21:00;CYQR 102100Z 27023G28KT 15SM FEW041 BKN088 BKN320 22/13 A2976 RMK CU2AC2CI1 SLP082

CYQR;2011-07-10 22:00;CYQR 102200Z 29018G26KT 15SM SCT041 BKN088 BKN320 21/13 A2976 RMK CU4AC1CI1 SLP084

CYQR;2011-07-10 23:00;CYQR 102300Z 32015G24KT 15SM VCSH BKN045 BKN090 20/14 A2978 RMK CU6AC2 SHWRS SE SLP089

CYQR;2011-07-11 00:00;CYQR 110000Z 31021G27KT 15SM FEW035 BKN075 BKN120 BKN160 BKN320 21/13 A2978 RMK CU2AC3ACC1AC1CI1 TCU SE-S SLP089

CYQR;2011-07-11 01:00;CYQR 110100Z 30019G26KT 15SM FEW035TCU BKN079 BKN120 BKN300 20/14 A2979 RMK TCU2AC3AC2CI0 SLP094

CYQR;2011-07-11 02:00;CYQR 110200Z 32017KT 15SM VCSH SCT031 BKN300 19/14 A2981 RMK CU4CI0 TCU+SH E SLP101

CYQR;2011-07-11 03:00;CYQR 110300Z 31006KT 15SM FEW030 17/14 A2984 RMK SC1 CU ASOCTD SLP108

CYQR;2011-07-11 04:00;CYQR 110400Z 31008KT 15SM FEW030 16/14 A2986 RMK SC1 CU N SLP115

CYQR;2011-07-11 05:00;CYQR 110500Z 30005KT 15SM FEW024 14/13 A2987 RMK SC0 SLP118

CYQR;2011-07-11 06:00;CYQR 110600Z 31006KT 15SM FEW025 13/12 A2988 RMK SC1 SLP123

CYQR;2011-07-11 07:00;CYQR 110700Z 33005KT 15SM SKC 12/12 A2990 RMK SLP129

CYQR;2011-07-11 08:00;CYQR 110800Z 32006KT 15SM FEW080 11/11 A2992 RMK AC0 SLP138

CYQR;2011-07-11 09:00;CYQR 110900Z 32005KT 15SM SKC 11/10 A2995 RMK SLP147

CYQR;2011-07-11 10:00;CYQR 111000Z 35005KT 15SM FEW240 11/11 A2996 RMK CI0 SLP151

CYQR;2011-07-11 10:40;CYQR 111040Z 36005KT 15SM SCT006 BKN240 11/ RMK SC2CI0

CYQR;2011-07-11 11:00;CYQR 111100Z 02006KT 15SM FEW006 FEW240 12/11 A2998 RMK SC1CI0 SLP159

CYQR;2011-07-11 12:00;CYQR 111200Z 36004KT 15SM FEW008 FEW240 11/11 A3000 RMK SC1CI1 CI TR SLP168

CYQR;2011-07-11 13:00;CYQR 111300Z 34004KT 15SM FEW009 FEW240 14/13 A3003 RMK SC1CI1 TR SC SLP175

CYQR;2011-07-11 14:00;CYQR 111400Z 04007KT 15SM FEW011 SCT240 16/13 A3004 RMK SC2CI1 CONTRAILS SLP179

CYQR;2011-07-11 15:00;CYQR 111500Z 03008KT 15SM FEW020 SCT240 17/13 A3006 RMK SC2CI1 SLP186

CYQR;2011-07-11 16:00;CYQR 111600Z 03010KT 15SM SCT021 BKN240 18/13 A3007 RMK SC4CI0 SLP190

CYQR;2011-07-11 17:00;CYQR 111700Z 07007KT 15SM BKN021 BKN240 17/12 A3009 RMK SC6CI0 SLP194

CYQR;2011-07-11 18:00;CYQR 111800Z 03005KT 15SM BKN023 17/12 A3010 RMK SC7 SLP200

CYQR;2011-07-11 19:00;CYQR 111900Z 32005KT 15SM OVC028 17/12 A3010 RMK SC8 SLP202

CYQR;2011-07-11 20:00;CYQR 112000Z 35006KT 15SM BKN032 OVC100 17/12 A3011 RMK SC6AC2 CU ASOCTD SLP204

CYQR;2011-07-11 21:00;CYQR 112100Z 07006KT 15SM SCT024 BKN043 BKN100 18/12 A3010 RMK SC3SC2AC2 CU ASOCTD SLP201

CYQR;2011-07-11 22:00;CYQR 112200Z 01007KT 15SM FEW024 SCT051 BKN100 18/12 A3009 RMK SC2SC2AC3 SLP200

CYQR;2011-07-11 23:00;CYQR 112300Z 35008KT 15SM FEW028 SCT050 BKN100 BKN240 19/13 A3010 RMK CU2SC2AC2CI2 SLP202

CYQR;2011-07-12 00:00;CYQR 120000Z 04004KT 15SM SCT031 BKN100 18/12 A3010 RMK SC3AC3 SLP201

CYQR;2011-07-12 01:00;CYQR 120100Z 02006KT 15SM FEW028 FEW057 19/12 A3009 RMK CU1SC2 SLP199

CYQR;2011-07-12 02:00;CYQR 120200Z 09008KT 15SM FEW034 FEW240 18/12 A3010 RMK CU1CI1 CI TR SLP201

CYQR;2011-07-12 03:00;CYQR 120300Z 10005KT 15SM FEW030 FEW240 16/11 A3012 RMK SC1CI1 CI TR SLP208

CYQR;2011-07-12 04:00;CYQR 120400Z 11004KT 15SM FEW025 14/11 A3014 RMK SC1 SLP213

CYQR;2011-07-12 05:00;CYQR 120500Z 10004KT 15SM FEW050 14/11 A3014 RMK SC0 SLP212

CYQR;2011-07-12 06:00;CYQR 120600Z 08005KT 15SM FEW050 13/11 A3013 RMK SC0 OBS TAKEN +07 SLP213

CYQR;2011-07-12 07:00;CYQR 120700Z 10006KT 15SM FEW050 12/10 A3013 RMK SC0 SLP212

CYQR;2011-07-12 08:00;CYQR 120800Z 10007KT 15SM SCT044 12/09 A3012 RMK SC2 SLP210

CYQR;2011-07-12 09:00;CYQR 120900Z 10006KT 15SM FEW040 12/09 A3012 RMK SC1 OBS TAKEN +05 SLP210

CYQR;2011-07-12 10:00;CYQR 121000Z 09008KT 15SM FEW035 FEW090 12/09 A3012 RMK SC1AC1 SLP209

CYQR;2011-07-12 11:00;CYQR 121100Z 11008KT 15SM SCT260 13/08 A3012 RMK CI0 SLP208

CYQR;2011-07-12 12:00;CYQR 121200Z 11009KT 15SM FEW100 FEW230 14/09 A3012 RMK AC1CI0 SLP209

CYQR;2011-07-12 13:00;CYQR 121300Z 12010KT 15SM FEW100 BKN230 15/11 A3013 RMK AC1CI0 SLP212

CYQR;2011-07-12 14:00;CYQR 121400Z 13011KT 15SM FEW100 SCT230 17/13 A3013 RMK AC1CI1 SLP211

CYQR;2011-07-12 15:00;CYQR 121500Z 14013KT 15SM FEW044 FEW100 BKN230 18/13 A3013 RMK SC1AC1CI0 SLP210

CYQR;2011-07-12 16:00;CYQR 121600Z 14013G19KT 15SM FEW025 SCT047 BKN230 20/14 A3012 RMK CF1SC2CI0 SLP207

CYQR;2011-07-12 17:00;CYQR 121700Z 16014G22KT 15SM FEW030 BKN041 BKN230 21/14 A3011 RMK CU1SC5CI1 CONTRAILS SLP203

CYQR;2011-07-12 18:00;CYQR 121800Z 14017KT 15SM FEW035 SCT050 BKN080 BKN260 22/15 A3010 RMK CU2SC2AC2CI1 SLP198

CYQR;2011-07-12 19:00;CYQR 121900Z 13017G22KT 15SM FEW041 FEW058 SCT120 BKN260 23/15 A3009 RMK CU2SC1AC2CI0 SLP194

CYQR;2011-07-12 20:00;CYQR 122000Z 14018G24KT 15SM SCT039 BKN260 24/16 A3008 RMK CU3CI1 SLP192

CYQR;2011-07-12 21:00;CYQR 122100Z 14019G24KT 15SM SCT044 BKN100 BKN260 24/15 A3007 RMK CU4AC2CI0 SLP187

CYQR;2011-07-12 22:00;CYQR 122200Z 15018G25KT 15SM FEW044 BKN063 BKN260 24/15 A3005 RMK CU2SC2CI2 SLP183

CYQR;2011-07-12 23:00;CYQR 122300Z 14019KT 15SM FEW035 BKN056 BKN260 24/15 A3003 RMK CU2SC4CI0 SLP176

CYQR;2011-07-13 00:00;CYQR 130000Z 14017G24KT 15SM FEW035 FEW056 24/15 A3000 RMK CF1SC1 TR CF SLP162

CYQR;2011-07-13 01:00;CYQR 130100Z 14020G27KT 15SM FEW046 FEW094 FEW260 23/15 A2999 RMK SC1AC1CI0 SLP160

CYQR;2011-07-13 02:00;CYQR 130200Z 13016G25KT 15SM FEW056 FEW091 BKN260 22/14 A2999 RMK SC1AC2CI1 SLP158

CYQR;2011-07-13 03:00;CYQR 130300Z 13018KT 15SM SCT065 OVC260 21/14 A2999 RMK SC2CI2 SLP159

CYQR;2011-07-13 04:00;CYQR 130400Z 13016G22KT 15SM BKN056 BKN260 20/14 A3000 RMK SC6CI1 SLP162

CYQR;2011-07-13 05:00;CYQR 130500Z 13015G26KT 15SM BKN061 BKN260 20/14 A3000 RMK SC5CI2 SLP161

CYQR;2011-07-13 06:00;CYQR 130600Z 15022G31KT 15SM BKN061 BKN260 19/13 A2997 RMK SC6CI2 SLP149

CYQR;2011-07-13 07:00;CYQR 130700Z 16022G31KT 15SM SCT060 BKN250 18/12 A2993 RMK SC2CI2 SLP138

CYQR;2011-07-13 08:00;CYQR 130800Z 15021G28KT 15SM FEW060 BKN250 18/12 A2992 RMK SC2CI2 SLP134

CYQR;2011-07-13 09:00;CYQR 130900Z 15020G26KT 15SM FEW050 SCT250 17/12 A2990 RMK SC1CI0 SLP127

CYQR;2011-07-13 10:00;CYQR 131000Z 15016KT 15SM SCT055 SCT250 16/13 A2991 RMK SC2CI0 SLP131

CYQR;2011-07-13 11:00;CYQR 131100Z 14017KT 15SM SCT055TCU 16/13 A2991 RMK TCU4 SLP130

CYQR;2011-07-13 11:31;CYQR 131131Z 10003G20KT 15SM FEW012 SCT030TCU BKN072 16/ RMK SC1TCU3AC1

CYQR;2011-07-13 12:00;CYQR 131200Z 09013KT 15SM FEW033 SCT072 SCT240 16/12 A2994 RMK CU2AC2CI1 SLP141

CYQR;2011-07-13 13:00;CYQR 131300Z 14012G18KT 15SM FEW030 SCT077 BKN240 17/13 A2993 RMK SC1AC2CI0 SLP136

CYQR;2011-07-13 14:00;CYQR 131400Z 16013G21KT 15SM BKN022 BKN040 BKN100 18/14 A2991 RMK SC5SC2AC1 SLP130

CYQR;2011-07-13 15:00;CYQR 131500Z 16017KT 15SM FEW022 BKN094 19/14 A2989 RMK SC2AC5 SLP123

CYQR;2011-07-13 16:00;CYQR 131600Z 16015KT 15SM FEW022 BKN100 BKN260 20/15 A2987 RMK SC1AC5CI2 SLP118

CYQR;2011-07-13 17:00;CYQR 131700Z 17018KT 15SM BKN024 BKN100 21/16 A2986 RMK SC5AC2 SLP112

CYQR;2011-07-13 18:00;CYQR 131800Z 18017KT 15SM FEW026 FEW100 BKN140 BKN280 24/18 A2984 RMK CU1AC1AC2CI0 SLP103

CYQR;2011-07-13 19:00;CYQR 131900Z 18015G21KT 15SM FEW031 FEW100 SCT280 25/19 A2983 RMK CU2AC1CI1 SLP100

CYQR;2011-07-13 20:00;CYQR 132000Z 18013G18KT 15SM FEW033 BKN100 26/19 A2981 RMK CU2AC3 SLP096

CYQR;2011-07-13 21:00;CYQR 132100Z 18015G20KT 15SM FEW033 BKN100 BKN280 26/19 A2981 RMK CU1AC4CI1 SLP095

CYQR;2011-07-13 22:00;CYQR 132200Z 18014G21KT 15SM FEW033 SCT078 BKN100 BKN280 25/19 A2980 RMK CU1AC3AC2CI1 SLP092

CYQR;2011-07-13 23:00;CYQR 132300Z 14013KT 15SM FEW030 SCT080 BKN100 BKN280 26/20 A2978 RMK CU2AC2AC2CI0 SLP084

CYQR;2011-07-14 00:00;CYQR 140000Z 18013KT 15SM SCT030 BKN080 BKN100 26/20 A2976 RMK CU3AC2AC2 TCU ASOCTD W SLP079

CYQR;2011-07-14 01:00;CYQR 140100Z 17009KT 15SM FEW043 BKN090 BKN120 25/20 A2975 RMK SC2AC3AC1 CVCTV CLD EMBD W SLP074

CYQR;2011-07-14 02:00;CYQR 140200Z 16011KT 15SM SCT090 BKN120 BKN280 24/19 A2976 RMK AC3AC3CI1 CVCTV CLD EMBD SLP076

CYQR;2011-07-14 02:52;CYQR 140252Z 16012G20KT 15SM -SHRA FEW043 BKN085 BKN280 23/ RMK CU2ACC4CI1

CYQR;2011-07-14 03:00;CYQR 140300Z 16015G20KT 15SM -SHRA FEW043 BKN085 BKN280 23/19 A2977 RMK CU2ACC4CI1 SLP081

CYQR;2011-07-14 03:39;CYQR 140339Z 17013KT 15SM FEW035 BKN085 BKN280 22/ RMK CU2ACC4CI1

CYQR;2011-07-14 04:00;CYQR 140400Z 17010G15KT 15SM FEW035 BKN085 BKN280 22/18 A2979 RMK CU2ACC3CI1 CB LTGCC W SLP088

CYQR;2011-07-14 05:00;CYQR 140500Z 16010KT 15SM FEW035 BKN072 21/18 A2979 RMK SC2AC4 SLP086

CYQR;2011-07-14 06:00;CYQR 140600Z 15010KT 15SM BKN070 BKN120 BKN280 21/18 A2977 RMK AC6AC1CI0 SLP080

CYQR;2011-07-14 07:00;CYQR 140700Z 15009KT 15SM BKN027 20/18 A2977 RMK SC7 SLP080

CYQR;2011-07-14 08:00;CYQR 140800Z 15012KT 15SM OVC021 20/17 A2976 RMK SC8 SLP078

CYQR;2011-07-14 09:00;CYQR 140900Z 15012G17KT 15SM OVC021 20/17 A2975 RMK SC8 SLP072

CYQR;2011-07-14 10:00;CYQR 141000Z 15012KT 15SM FEW019 BKN033 BKN100 BKN270 19/17 A2972 RMK SC1SC5AC2CI0 SLP062

CYQR;2011-07-14 10:41;CYQR 141041Z 12012G17KT 12SM -SHRA BKN022 BKN100 BKN270 19/ RMK SC6ACC2CI1

CYQR;2011-07-14 11:00;CYQR 141100Z 11010G18KT 15SM VCSH BKN014 BKN060 BKN100 BKN270 18/17 A2964 RMK SC5SC2ACC1CI0 PRESFR SLP037

CYQR;2011-07-14 11:43;CYQR 141143Z 17012KT 15SM BKN011 OVC030 18/ RMK SF7SC1 PRESRR

CYQR;2011-07-14 12:00;CYQR 141200Z 17016KT 15SM OVC010 18/17 A2971 RMK SC8 PRESRR CIG RAG SLP058

CYQR;2011-07-14 12:17;CYQR 141217Z 17013G19KT 15SM OVC008 18/ RMK SC8 CIG RAG

CYQR;2011-07-14 13:00;CYQR 141300Z 18013G20KT 15SM OVC007 18/17 A2971 RMK SC8 SLP061

CYQR;2011-07-14 14:00;CYQR 141400Z 18009KT 15SM OVC009 19/17 A2972 RMK SC8 CIG RAG SLP062

CYQR;2011-07-14 14:34;CYQR 141434Z 17010KT 15SM BKN013 19/ RMK SC7

CYQR;2011-07-14 15:00;CYQR 141500Z 17012KT 15SM BKN013 BKN100 21/19 A2970 RMK SC6AC1 SLP056

CYQR;2011-07-14 16:00;CYQR 141600Z 22013KT 15SM BKN017 22/18 A2969 RMK CU6 SLP053

CYQR;2011-07-14 17:00;CYQR 141700Z 22008KT 15SM SCT026 SCT100 23/18 A2969 RMK CU3AC1 SLP052

CYQR;2011-07-14 18:00;CYQR 141800Z 23011KT 15SM BKN030 25/19 A2969 RMK CU6 SLP052

CYQR;2011-07-14 19:00;CYQR 141900Z 25011KT 15SM SCT034 24/18 A2969 RMK CU4 SLP052

CYQR;2011-07-14 20:00;CYQR 142000Z 23010KT 15SM SCT036 26/19 A2970 RMK CU3 SLP053

CYQR;2011-07-14 21:00;CYQR 142100Z 27009G15KT 15SM FEW043 27/18 A2969 RMK CU2 SLP050

CYQR;2011-07-14 22:00;CYQR 142200Z 25007KT 15SM FEW045 28/18 A2968 RMK CF1 SLP048

CYQR;2011-07-14 23:00;CYQR 142300Z 25008KT 15SM FEW045 FEW100 28/18 A2968 RMK CU1AC1 SLP046

CYQR;2011-07-15 00:00;CYQR 150000Z 23008KT 15SM FEW035 FEW100 27/19 A2967 RMK CF1AC1 SLP045

CYQR;2011-07-15 01:00;CYQR 150100Z 22007KT 15SM FEW035 27/18 A2966 RMK CF1 SLP042

CYQR;2011-07-15 02:00;CYQR 150200Z 21005KT 15SM FEW100 FEW280 25/20 A2965 RMK AC1CI1 SLP039

CYQR;2011-07-15 03:00;CYQR 150300Z 18006KT 15SM FEW100 FEW280 23/19 A2966 RMK AC1CI1 CB NW SLP043

CYQR;2011-07-15 04:00;CYQR 150400Z 20006KT 15SM FEW100 FEW280 21/19 A2967 RMK AC1CI0 CB N SLP046

CYQR;2011-07-15 05:00;CYQR 150500Z 18006KT 15SM SCT064 SCT100 BKN280 20/18 A2967 RMK AC3ACC1CI0 CB + LTGCC SW SLP047

CYQR;2011-07-15 06:00;CYQR 150600Z 16006KT 15SM SCT071 BKN100 OVC280 21/18 A2965 RMK AC4AC2CI2 CB + FQT LTGCGCC SW SLP038

CYQR;2011-07-15 07:00;CYQR 150700Z 18008KT 15SM TS BKN058CB BKN090 OVC300 22/18 A2967 RMK CB5AC1CI2 LTGCG W-NW AND DIST S SLP044

CYQR;2011-07-15 07:56;CYQR 150756Z 20011KT 15SM -SHRA FEW021 BKN050CB OVC300 21/ RETS RMK SC2CB5CI2 LTGCC E

CYQR;2011-07-15 08:00;CYQR 150800Z 20011KT 15SM -SHRA FEW021 BKN050CB OVC300 21/15 A2967 RETS RMK SC2CB4CI2 LTGCC E SLP045

CYQR;2011-07-15 08:49;CYQR 150849Z 20007KT 15SM BKN023 BKN050CB BKN100 19/ RMK SC5CB2AC1

CYQR;2011-07-15 09:00;CYQR 150900Z 19007KT 15SM SCT023 BKN056 BKN100 19/15 A2969 RMK SC3SC3AC1 SLP050

CYQR;2011-07-15 10:00;CYQR 151000Z 22003KT 15SM FEW062 BKN100 18/15 A2968 RMK SC2AC6 SLP048

CYQR;2011-07-15 11:00;CYQR 151100Z 28006KT 15SM FEW062 FEW100 SCT280 17/14 A2967 RMK SC1AC1CI1 SLP044

CYQR;2011-07-15 12:00;CYQR 151200Z 27005KT 15SM FEW100 FEW150 FEW280 16/14 A2967 RMK AC1ACC1CI1 SLP047

CYQR;2011-07-15 13:00;CYQR 151300Z 24003KT 15SM FEW100 FEW280 18/15 A2967 RMK AC1CI1 SLP046

CYQR;2011-07-15 14:00;CYQR 151400Z 26010KT 15SM FEW100 20/16 A2967 RMK AC1 SLP047

CYQR;2011-07-15 15:00;CYQR 151500Z 26013KT 15SM FEW015 22/17 A2968 RMK CF1 SLP048

CYQR;2011-07-15 16:00;CYQR 151600Z 29013G18KT 15SM FEW025 22/16 A2969 RMK CU1 SLP051

CYQR;2011-07-15 17:00;CYQR 151700Z 29012KT 15SM FEW036 23/14 A2970 RMK CU1 SLP055

CYQR;2011-07-15 18:00;CYQR 151800Z 28009KT 15SM FEW044 25/14 A2971 RMK CU1 SLP057

CYQR;2011-07-15 19:00;CYQR 151900Z 27015KT 15SM SKC 25/12 A2971 RMK SLP057

CYQR;2011-07-15 20:00;CYQR 152000Z 27014G19KT 15SM FEW045 26/12 A2970 RMK CF1 SLP055

CYQR;2011-07-15 21:00;CYQR 152100Z 25015G22KT 15SM FEW056 26/12 A2971 RMK CF1 SLP059

CYQR;2011-07-15 22:00;CYQR 152200Z 26016G22KT 15SM FEW060 26/11 A2971 RMK CF1 SLP059

CYQR;2011-07-15 23:00;CYQR 152300Z 27017G22KT 15SM FEW060 26/11 A2971 RMK CF1 SLP060

CYQR;2011-07-16 00:00;CYQR 160000Z 27013KT 15SM FEW055 25/11 A2971 RMK CF1 SLP060

CYQR;2011-07-16 01:00;CYQR 160100Z 26008KT 15SM SKC 25/13 A2971 RMK SLP059

CYQR;2011-07-16 02:00;CYQR 160200Z 23004KT 15SM FEW300 23/14 A2970 RMK CI1 SLP058

CYQR;2011-07-16 03:00;CYQR 160300Z 21005KT 15SM FEW300 20/14 A2972 RMK CI1 SLP063

CYQR;2011-07-16 04:00;CYQR 160400Z 22004KT 15SM FEW040 FEW300 18/13 A2972 RMK SC1CI1 SLP064

CYQR;2011-07-16 05:00;CYQR 160500Z 18003KT 15SM FEW040 18/14 A2971 RMK SC1 SLP060

CYQR;2011-07-16 06:00;CYQR 160600Z 17006KT 15SM FEW080 17/14 A2973 RMK AC1 SLP066

CYQR;2011-07-16 07:00;CYQR 160700Z 17003KT 15SM FEW080 16/13 A2971 RMK AC1 SLP062

CYQR;2011-07-16 08:00;CYQR 160800Z 17002KT 15SM FEW080 15/12 A2974 RMK AC1 SLP069

CYQR;2011-07-16 09:00;CYQR 160900Z 31007KT 15SM FEW080 12/11 A2975 RMK AC1 SLP077

CYQR;2011-07-16 10:00;CYQR 161000Z 26004KT 15SM FEW080 FEW270 14/11 A2974 RMK AC1CI1 SLP074

CYQR;2011-07-16 11:00;CYQR 161100Z 26008KT 15SM FEW080 FEW270 13/11 A2976 RMK AC1CI1 SLP078

CYQR;2011-07-16 12:00;CYQR 161200Z 26003KT 15SM FEW076 FEW270 13/11 A2977 RMK AC1CI1 SLP082

CYQR;2011-07-16 13:00;CYQR 161300Z 25003KT 15SM FEW080 16/13 A2977 RMK AC1 SLP082

CYQR;2011-07-16 14:00;CYQR 161400Z 28006KT 15SM FEW078 20/14 A2977 RMK AC1 SLP084

CYQR;2011-07-16 15:00;CYQR 161500Z 26007KT 15SM SKC 23/14 A2979 RMK SLP088

CYQR;2011-07-16 16:00;CYQR 161600Z 26010KT 15SM SKC 25/15 A2980 RMK SLP091

CYQR;2011-07-16 17:00;CYQR 161700Z 27014KT 15SM SKC 26/13 A2981 RMK SLP093

CYQR;2011-07-16 18:00;CYQR 161800Z 27012G18KT 15SM FEW140 27/12 A2982 RMK AC1 SLP096

CYQR;2011-07-16 19:00;CYQR 161900Z 29015KT 15SM FEW090 27/11 A2982 RMK AC1 SLP097

CYQR;2011-07-16 20:00;CYQR 162000Z 30012KT 15SM SKC 28/12 A2982 RMK SLP098

CYQR;2011-07-16 21:00;CYQR 162100Z 27016KT 15SM SKC 29/11 A2983 RMK SLP102

CYQR;2011-07-16 22:00;CYQR 162200Z 29011G16KT 15SM FEW160 29/12 A2983 RMK AC1 SLP102

CYQR;2011-07-16 23:00;CYQR 162300Z 28012KT 15SM FEW240 28/12 A2983 RMK CI1 SLP103

CYQR;2011-07-17 00:00;CYQR 170000Z 27008KT 15SM FEW240 28/13 A2983 RMK CI1 SLP103

CYQR;2011-07-17 01:00;CYQR 170100Z 31004KT 15SM FEW240 27/14 A2984 RMK CI1 SLP105

CYQR;2011-07-17 02:00;CYQR 170200Z 03002KT 15SM FEW160 SCT240 25/15 A2984 RMK AC1CI1 SLP106

CYQR;2011-07-17 03:00;CYQR 170300Z 02005KT 15SM FEW100 FEW160 FEW240 24/14 A2985 RMK AC1AC1CI1 SLP105

CYQR;2011-07-17 04:00;CYQR 170400Z 08004KT 15SM FEW100 FEW240 21/14 A2987 RMK AC1CI1 SLP111

CYQR;2011-07-17 05:00;CYQR 170500Z 09004KT 15SM FEW077 FEW100 SCT240 20/15 A2988 RMK AC1AC1CI1 SLP114

CYQR;2011-07-17 06:00;CYQR 170600Z 12007KT 15SM FEW100 SCT240 19/15 A2989 RMK AC1CI1 SLP120

CYQR;2011-07-17 07:00;CYQR 170700Z 10004KT 15SM SCT100 BKN240 19/14 A2989 RMK AC2CI2 SLP120

CYQR;2011-07-17 08:00;CYQR 170800Z 13005KT 15SM SCT100 BKN240 18/14 A2990 RMK AC2CI2 SLP123

CYQR;2011-07-17 09:00;CYQR 170900Z 11005KT 15SM SCT100 OVC240 17/14 A2991 RMK AC2CI3 SLP126

CYQR;2011-07-17 10:00;CYQR 171000Z 15006KT 15SM FEW020 SCT076 BKN240 18/15 A2991 RMK CU1AC3CI2 SLP128

CYQR;2011-07-17 11:00;CYQR 171100Z 19004KT 15SM VCSH SCT076 BKN240 18/15 A2990 RMK ACC3CI4 SLP123

CYQR;2011-07-17 12:00;CYQR 171200Z 18008KT 15SM VCSH BKN076 OVC240 19/16 A2992 RMK ACC5CI2 SLP128

CYQR;2011-07-17 13:00;CYQR 171300Z 20009KT 15SM VCSH FEW045 SCT072 BKN120 OVC260 20/16 A2993 RMK SC2AC2AC2CI2 CVCTV CLD EMBD SH E+S SLP131

CYQR;2011-07-17 14:00;CYQR 171400Z 11008KT 15SM FEW016 SCT095 BKN260 21/17 A2990 RMK CU1AC1CI2 SH DIST E+S SLP121

CYQR;2011-07-17 15:00;CYQR 171500Z 15008KT 15SM FEW024 FEW095 FEW260 24/18 A2991 RMK CU1AC1CI0 CU TR SLP125

CYQR;2011-07-17 16:00;CYQR 171600Z 17006KT 15SM FEW036 FEW110 SCT260 27/18 A2991 RMK CU1AC1CI0 CU TR SLP127

CYQR;2011-07-17 17:00;CYQR 171700Z 17011KT 15SM FEW048 FEW110 SCT260 29/17 A2994 RMK CU1AC1CI1 ACC ASOCTD SLP134

CYQR;2011-07-17 18:00;CYQR 171800Z 22007KT 15SM SCT110 SCT260 30/16 A2995 RMK AC2CI0 SLP139

CYQR;2011-07-17 19:00;CYQR 171900Z 19006KT 15SM FEW060 FEW095 FEW260 30/15 A2994 RMK CU1AC1CI0 SLP136

CYQR;2011-07-17 20:00;CYQR 172000Z 27008KT 15SM FEW062 FEW260 31/16 A2995 RMK CU1CI1 SLP137

CYQR;2011-07-17 21:00;CYQR 172100Z 24008KT 15SM FEW064 31/15 A2995 RMK CU1 SLP139

CYQR;2011-07-17 22:00;CYQR 172200Z 23008KT 15SM FEW064 FEW300 31/15 A2996 RMK CU1CI1 SLP140

CYQR;2011-07-17 23:00;CYQR 172300Z 30006KT 15SM FEW064 FEW300 31/15 A2996 RMK CU1CI0 TCU ASOCTD SE SLP140

CYQR;2011-07-18 00:00;CYQR 180000Z 23002KT 15SM FEW060 FEW300 31/15 A2996 RMK CU1CI0 SLP139

CYQR;2011-07-18 01:00;CYQR 180100Z 31003KT 15SM FEW055 30/15 A2996 RMK CU1 SLP140

CYQR;2011-07-18 02:00;CYQR 180200Z 35002KT 15SM FEW080 FEW300 29/15 A2996 RMK ACC1CI1 SLP140

CYQR;2011-07-18 03:00;CYQR 180300Z 36002KT 15SM SKC 26/16 A2996 RMK SLP143

CYQR;2011-07-18 04:00;CYQR 180400Z 06004KT 15SM SKC 24/16 A2997 RMK SLP146

CYQR;2011-07-18 05:00;CYQR 180500Z 09005KT 15SM SKC 22/16 A2997 RMK SLP146

CYQR;2011-07-18 06:00;CYQR 180600Z 15006KT 15SM SKC 21/15 A2999 RMK SLP150

CYQR;2011-07-18 07:00;CYQR 180700Z 12005KT 15SM SKC 20/16 A2998 RMK SLP148

CYQR;2011-07-18 08:00;CYQR 180800Z 10006KT 15SM FEW100 19/16 A2998 RMK AC1 SLP147

CYQR;2011-07-18 09:00;CYQR 180900Z 12007KT 15SM SKC 19/16 A2997 RMK SLP145

CYQR;2011-07-18 10:00;CYQR 181000Z 10005KT 15SM FEW240 18/16 A2998 RMK CI1 SLP149

CYQR;2011-07-18 11:00;CYQR 181100Z 10006KT 15SM FEW100 FEW240 18/16 A2999 RMK ACC1CI1 TR ACC SLP150

CYQR;2011-07-18 12:00;CYQR 181200Z 10008KT 15SM FEW100 FEW240 20/18 A2997 RMK ACC1CI1 TR ACC SLP145

CYQR;2011-07-18 13:00;CYQR 181300Z 09008KT 15SM FEW050 FEW100 FEW260 22/20 A2996 RMK SC1AC1CI0 TCU EMBD S+SW SLP140

CYQR;2011-07-18 14:00;CYQR 181400Z 14011KT 15SM FEW050TCU SCT260 24/21 A2997 RMK TCU1CI1 SLP145

CYQR;2011-07-18 15:00;CYQR 181500Z 13012KT 15SM FEW050TCU SCT280 26/22 A2996 RMK TCU1CI1 SH DIST S SLP140

CYQR;2011-07-18 16:00;CYQR 181600Z 14013G18KT 15SM FEW055TCU BKN300 28/22 A2994 RMK TCU1CI0 SLP134

CYQR;2011-07-18 17:00;CYQR 181700Z 13016G25KT 15SM FEW050 BKN300 29/20 A2992 RMK CU2CI1 SLP127

CYQR;2011-07-18 18:00;CYQR 181800Z 14021G26KT 15SM FEW055 FEW100 BKN300 30/21 A2991 RMK CU1AC1CI0 SLP122

CYQR;2011-07-18 19:00;CYQR 181900Z 15019G24KT 15SM FEW082 SCT300 31/21 A2989 RMK ACC2CI0 SLP116

CYQR;2011-07-18 20:00;CYQR 182000Z 14017G25KT 15SM FEW080 32/21 A2986 RMK ACC2 SLP106

CYQR;2011-07-18 21:00;CYQR 182100Z 17020G26KT 15SM FEW080 33/20 A2984 RMK ACC1 SLP100

CYQR;2011-07-18 22:00;CYQR 182200Z 16018G24KT 15SM FEW045TCU 33/22 A2981 RMK TCU1 SLP089

CYQR;2011-07-18 23:00;CYQR 182300Z 16018G24KT 15SM FEW045 33/21 A2980 RMK CU1 SLP085

CYQR;2011-07-19 00:00;CYQR 190000Z 18015KT 15SM FEW045 32/21 A2978 RMK CF1 SLP078

CYQR;2011-07-19 01:00;CYQR 190100Z 17013KT 15SM FEW063 31/23 A2976 RMK SC1 SLP074

CYQR;2011-07-19 02:00;CYQR 190200Z 17008KT 15SM SCT049 30/23 A2975 RMK SC4 SLP070

CYQR;2011-07-19 03:00;CYQR 190300Z 15010KT 15SM FEW020 29/23 A2975 RMK CU1 SLP066

CYQR;2011-07-19 04:00;CYQR 190400Z 15011KT 15SM SKC 28/22 A2975 RMK SLP065

CYQR;2011-07-19 05:00;CYQR 190500Z 15012KT 15SM FEW330 27/23 A2973 RMK CI0 SLP061

CYQR;2011-07-19 06:00;CYQR 190600Z 16009KT 15SM SKC 26/23 A2972 RMK SLP054

CYQR;2011-07-19 07:00;CYQR 190700Z 16008KT 15SM SKC 25/23 A2971 RMK SLP050

CYQR;2011-07-19 08:00;CYQR 190800Z 16007KT 15SM SKC 24/23 A2970 RMK SLP048

CYQR;2011-07-19 09:00;CYQR 190900Z 15009KT 15SM FEW020 24/22 A2967 RMK SC1 SLP039

CYQR;2011-07-19 10:00;CYQR 191000Z 14008KT 15SM FEW020 23/22 A2966 RMK CU2 TCU ASOCTD SLP034

CYQR;2011-07-19 10:06;CYQR 191006Z 14010KT 15SM TS SCT020CB SCT080 23/ RMK CB4AC1 CB DVLPG RDPLY TWDS N

CYQR;2011-07-19 10:43;CYQR 191043Z 14009KT 15SM VCSH FEW020CB FEW080 23/ RETS RMK CB2AC1 CB N+SE SHWRS SE

CYQR;2011-07-19 11:00;CYQR 191100Z 14008KT 15SM FEW020CB FEW080 23/21 A2964 RETS RMK CB2AC1 CB E-SE SLP029

CYQR;2011-07-19 12:00;CYQR 191200Z 00000KT 15SM FEW030CB FEW100 22/21 A2967 RMK CB1AC1 CB + SHWRS SE SLP039

CYQR;2011-07-19 13:00;CYQR 191300Z 13006KT 15SM FEW030 FEW100 24/22 A2966 RMK CU1AC1 SLP035

CYQR;2011-07-19 14:00;CYQR 191400Z 16008KT 15SM FEW090 25/22 A2965 RMK AC1 SLP032

CYQR;2011-07-19 15:00;CYQR 191500Z 20005KT 15SM FEW060 FEW090 27/21 A2965 RMK SC1AC1 SLP030

CYQR;2011-07-19 16:00;CYQR 191600Z 21002KT 15SM FEW090 28/20 A2965 RMK AC1 SLP031

CYQR;2011-07-19 17:00;CYQR 191700Z 27004KT 15SM FEW090 30/21 A2965 RMK AC2 SLP030

CYQR;2011-07-19 18:00;CYQR 191800Z 32004KT 15SM FEW087 31/23 A2964 RMK AC2 SLP029

CYQR;2011-07-19 19:00;CYQR 191900Z 33008KT 15SM FEW096 31/24 A2964 RMK AC2 SLP027

CYQR;2011-07-19 20:00;CYQR 192000Z 33009KT 15SM FEW095 31/24 A2963 RMK AC2 SLP026

CYQR;2011-07-19 21:00;CYQR 192100Z 33011KT 15SM FEW060 FEW095 31/24 A2963 RMK SC1AC1 SLP024

CYQR;2011-07-19 22:00;CYQR 192200Z 36009KT 15SM FEW095 32/25 A2961 RMK AC1 SLP020

CYQR;2011-07-19 23:00;CYQR 192300Z 04009G15KT 15SM FEW065 FEW300 31/24 A2959 RMK SC1CI0 CB TOP E SLP012

CYQR;2011-07-20 00:00;CYQR 200000Z 05012KT 15SM FEW090 FEW300 31/24 A2956 RMK AC1CI1 CB TOP E SLP001

CYQR;2011-07-20 01:00;CYQR 200100Z 09011G16KT 15SM FEW060 FEW097 FEW300 30/23 A2954 RMK SC1AC1CI1 CB TOP DSNT E SLP996

CYQR;2011-07-20 02:00;CYQR 200200Z 02010KT 15SM SCT034 BKN100 BKN300 29/23 A2955 RMK SC4ACC1CI2 CU ASOCTD SLP999

CYQR;2011-07-20 03:00;CYQR 200300Z 04009KT 15SM SCT032 OVC100 28/23 A2955 RMK SC4AC4 CU + ACC ASOCTD SLP997

CYQR;2011-07-20 04:00;CYQR 200400Z 04010KT 15SM SCT034 OVC100 27/22 A2956 RMK SC4AC4 SLP002

CYQR;2011-07-20 04:12;CYQR 200412Z 04012KT 15SM SCT032 OVC100 27/ RMK SC4AC4 CB EMBD LTGICCC SW-W

CYQR;2011-07-20 05:00;CYQR 200500Z 04011G16KT 15SM FEW055CB OVC100 26/22 A2953 RMK CB2AC6 CB WSW-W-NW LTGICCC SLP993

CYQR;2011-07-20 05:37;CYQR 200537Z 03012KT 15SM TS BKN047CB OVC100 25/ RMK CB5AC3 LTGICCCCG S-SW-W-NW

CYQR;2011-07-20 06:00;CYQR 200600Z 35030G35KT 10SM TSRA SCT017 BKN047CB OVC100 24/21 A2952 RMK SF2CB4AC2 LTGICCCCG ALQDS PRES UNSTDY SLP987

CYQR;2011-07-20 06:12;CYQR 200612Z 29041G50KT 2SM +TSRA OVC047CB 19/ RMK CB8 WND SHFT 0604

CYQR;2011-07-20 06:21;CYQR 200621Z 03014G44KT 3SM TSRA OVC047CB 19/ RERA RMK CB8

CYQR;2011-07-20 06:34;CYQR 200634Z 03026G35KT 15SM -TSRA FEW002 BKN047CB BKN100 BKN240 18/ RERA RMK SF1CB5AC1CI1 WND SHFT 0625 LTGICCCCG N-E SE

CYQR;2011-07-20 06:45;CYQR 200645Z 04025G34KT 15SM FEW002 SCT047CB SCT100 BKN240 20/ RETSRA RMK SF1CB3AC1CI0

CYQR;2011-07-20 07:00;CYQR 200700Z 05019KT 15SM FEW002 FEW047CB SCT100 SCT240 21/ A2944 RETSRA RMK SF1CB2AC1CI0 /R25/ SLP961

CYQR;2011-07-20 08:00;CYQR 200800Z 08012G17KT 15SM FEW045CB FEW100 21/ A2939 RMK CB2AC1 LTGICCC DSNT W + E SLP946

CYQR;2011-07-20 09:00;CYQR 200900Z CCA 08009G15KT 15SM -SHRA FEW037CB OVC100 22/ A2943 RMK CB2AC6 LTGICCCCG SW-W-NW PRESRR SLP959

CYQR;2011-07-20 09:10;CYQR 200910Z 27035G44KT 15SM -TSRA BKN030CB OVC100 21/ RMK CB5AC3 WND SHFT 0903 LTG ALQDS

CYQR;2011-07-20 09:22;CYQR 200922Z 29032G38KT 2SM +TSRA BKN030CB OVC069 18/ RMK CB6AC2 LTG ALQDS

CYQR;2011-07-20 09:35;CYQR 200935Z 30019G28KT 4SM TSRA BKN030CB OVC059 18/ RERA RMK CB5SC3 LTG ALQDS

CYQR;2011-07-20 10:00;CYQR 201000Z CCA 36018KT 12SM -TSRA SCT030CB OVC059 18/16 A2946 RERA RMK CB3SC5 LTG ALQDS PRESFR /R40/ SLP968

CYQR;2011-07-20 10:14;CYQR 201014Z 36015G24KT 12SM -TSRA BKN004 BKN013CB OVC060 18/ RMK SF3CB1SC3 LTGICCG E

CYQR;2011-07-20 10:25;CYQR 201025Z 01015G20KT 15SM VCSH FEW004 FEW013CB SCT060 18/ RETS RMK SF1CB2SC1 LTGICCG E

CYQR;2011-07-20 11:00;CYQR 201100Z 33007KT 15SM FEW008 FEW013CB BKN031 BKN100 18/16 A2951 RETS RMK SF1CB1SC3AC1 PRESRR SLP984

CYQR;2011-07-20 12:00;CYQR 201200Z 34005KT 15SM -SHRA FEW004 FEW021 BKN053 BKN100 18/16 A2951 RMK SF1SC2SC3AC2 CVCTV CLD EMBD SLP987

CYQR;2011-07-20 12:53;CYQR 201253Z 28008KT 15SM FEW004 FEW012 BKN077 BKN100 18/ RMK SF1SC2AC4AC1

CYQR;2011-07-20 13:00;CYQR 201300Z 30009KT 15SM FEW004 SCT012 BKN070 BKN100 19/17 A2950 RMK SF1SC2AC4AC1 TCU/ACC EMBD SLP984

CYQR;2011-07-20 14:00;CYQR 201400Z 03002KT 15SM SCT005 SCT060 20/17 A2949 RMK SF4SC1 TCU TOP SW SLP980

CYQR;2011-07-20 15:00;CYQR 201500Z 22011KT 15SM SCT012 BKN070 BKN280 21/18 A2950 RMK SC4AC2CI1 TCU EMBD NW SLP985

CYQR;2011-07-20 15:08;CYQR 201508Z 22017G24KT 15SM BKN012 BKN070 21/ RMK SC6AC1 TCU EMBD

CYQR;2011-07-20 15:24;CYQR 201524Z 23020G28KT 15SM SCT012 BKN070 21/ RMK SC4AC2 TCU ASOCTD

CYQR;2011-07-20 16:00;CYQR 201600Z 25022G28KT 15SM SCT016 BKN070 21/16 A2951 RMK CU3AC2 TCU ASOCTD SLP988

CYQR;2011-07-20 17:00;CYQR 201700Z 26022G32KT 15SM SCT023TCU SCT070 20/15 A2954 RMK TCU3AC1 SLP997

CYQR;2011-07-20 18:00;CYQR 201800Z 27022G33KT 15SM BKN024 21/15 A2954 RMK CU6 SLP999

CYQR;2011-07-20 19:00;CYQR 201900Z 28025G35KT 15SM BKN026 21/15 A2956 RMK CU6 TCU ASOCTD SLP006

CYQR;2011-07-20 20:00;CYQR 202000Z 29028G35KT 15SM BKN030 BKN072 22/14 A2957 RMK CU6AC1 TCU ASOCTD SLP009

CYQR;2011-07-20 21:00;CYQR 202100Z 29026G33KT 15SM BKN032 BKN075 BKN280 20/14 A2959 RMK CU6AC1CI0 TCU ASOCTD SLP020

CYQR;2011-07-20 22:00;CYQR 202200Z 30026G35KT 15SM SCT024 BKN037 BKN075 19/12 A2963 RMK CU4SC2AC1 TCU ASOCTD SLP033

CYQR;2011-07-20 23:00;CYQR 202300Z 30030G35KT 15SM FEW041 BKN280 21/12 A2964 RMK CU2CI1 TCU ASOCTD SLP035

CYQR;2011-07-21 00:00;CYQR 210000Z 30027G35KT 15SM FEW048 FEW280 21/10 A2966 RMK CU1CI0 SLP043

CYQR;2011-07-21 01:00;CYQR 210100Z 30019G29KT 15SM FEW045 FEW280 20/11 A2967 RMK CU1CI1 SLP048

CYQR;2011-07-21 02:00;CYQR 210200Z 28012G17KT 15SM FEW040 18/11 A2967 RMK CU1 SLP049

CYQR;2011-07-21 03:00;CYQR 210300Z 28011KT 15SM FEW020 16/11 A2968 RMK CU1 SLP053

CYQR;2011-07-21 04:00;CYQR 210400Z 27008KT 15SM FEW020 14/10 A2970 RMK SC1 OBS TAKEN -07 SLP059

CYQR;2011-07-21 05:00;CYQR 210500Z 26009KT 15SM SKC 14/10 A2971 RMK SLP061

CYQR;2011-07-21 06:00;CYQR 210600Z 28009KT 15SM FEW025 14/11 A2970 RMK SC0 SLP062

CYQR;2011-07-21 07:00;CYQR 210700Z 28010KT 15SM SKC 14/10 A2971 RMK SLP064

CYQR;2011-07-21 08:00;CYQR 210800Z 24007KT 15SM SKC 12/09 A2970 RMK SLP062

CYQR;2011-07-21 09:00;CYQR 210900Z 25007KT 15SM SKC 11/08 A2971 RMK SLP066

CYQR;2011-07-21 10:00;CYQR 211000Z 26011KT 15SM SKC 11/08 A2971 RMK SLP066

CYQR;2011-07-21 11:00;CYQR 211100Z 26009KT 15SM FEW050 10/08 A2971 RMK SC1 SLP068

CYQR;2011-07-21 12:00;CYQR 211200Z 26010KT 15SM FEW040 11/08 A2972 RMK SC1 SLP070

CYQR;2011-07-21 13:00;CYQR 211300Z 27013KT 15SM FEW280 13/09 A2973 RMK CI1 SLP073

CYQR;2011-07-21 14:00;CYQR 211400Z 27011KT 15SM FEW080 FEW280 15/10 A2974 RMK AC1CI1 SLP076

CYQR;2011-07-21 15:00;CYQR 211500Z 28013KT 15SM FEW080 FEW280 18/11 A2974 RMK AC1CI1 SLP074

CYQR;2011-07-21 16:00;CYQR 211600Z 30014G20KT 15SM FEW130 FEW300 19/11 A2973 RMK AC1CI1 SLP072

CYQR;2011-07-21 17:00;CYQR 211700Z 28016KT 15SM FEW300 20/11 A2974 RMK CI0 SLP075

CYQR;2011-07-21 18:00;CYQR 211800Z 29016KT 15SM FEW040 FEW300 21/11 A2974 RMK CF1CI0 SLP076

CYQR;2011-07-21 19:00;CYQR 211900Z 29011G19KT 15SM FEW044 FEW300 22/12 A2975 RMK CF1CI0 SLP077

CYQR;2011-07-21 20:00;CYQR 212000Z 28012KT 15SM FEW044 FEW300 22/12 A2975 RMK CF1CI0 SLP078

CYQR;2011-07-21 21:00;CYQR 212100Z 31011G16KT 15SM FEW044 FEW300 23/11 A2975 RMK CF1CI1 SLP078

CYQR;2011-07-21 22:00;CYQR 212200Z 30012KT 15SM FEW044 FEW300 23/12 A2975 RMK CU1CI0 SLP077

CYQR;2011-07-21 23:00;CYQR 212300Z 30011KT 15SM FEW048 FEW300 23/11 A2975 RMK CF1CI1 SLP077

CYQR;2011-07-22 00:00;CYQR 220000Z 31008KT 15SM FEW050 BKN300 23/11 A2975 RMK CF1CI1 SLP080

CYQR;2011-07-22 01:00;CYQR 220100Z 33006KT 15SM FEW044 FEW300 22/11 A2976 RMK CU1CI0 SLP082

CYQR;2011-07-22 02:00;CYQR 220200Z 36007KT 15SM FEW081 FEW300 21/11 A2977 RMK AC1CI0 SLP085

CYQR;2011-07-22 03:00;CYQR 220300Z 02006KT 15SM FEW060 FEW250 18/11 A2978 RMK SC1CI1 SLP089

CYQR;2011-07-22 04:00;CYQR 220400Z 05004KT 15SM FEW050 17/10 A2980 RMK SC0 OBS TAKEN -07 SLP093

CYQR;2011-07-22 05:00;CYQR 220500Z 05006KT 15SM SKC 16/10 A2981 RMK SLP098

CYQR;2011-07-22 06:00;CYQR 220600Z 08004KT 15SM SKC 16/10 A2981 RMK SLP098

CYQR;2011-07-22 07:00;CYQR 220700Z 07003KT 15SM SKC 15/10 A2982 RMK SLP101

CYQR;2011-07-22 08:00;CYQR 220800Z 07006KT 15SM SKC 14/10 A2983 RMK SLP105

CYQR;2011-07-22 09:00;CYQR 220900Z 09007KT 15SM SKC 14/10 A2985 RMK SLP110

CYQR;2011-07-22 10:00;CYQR 221000Z 09005KT 15SM FEW003 13/10 A2986 RMK SC1 SLP116

CYQR;2011-07-22 10:18;CYQR 221018Z 09011KT 15SM BKN003 13/ RMK SC4

CYQR;2011-07-22 10:27;CYQR 221027Z 09009KT 15SM OVC003 13/ RMK SC6

CYQR;2011-07-22 10:47;CYQR 221047Z 09009KT 10SM OVC002 13/ RMK SC7

CYQR;2011-07-22 11:00;CYQR 221100Z 10007KT 1 1/2SM BR OVC002 13/11 A2988 RMK SF8 SLP121

CYQR;2011-07-22 11:46;CYQR 221146Z 10007KT 2SM BR OVC002 13/ RMK ST8

CYQR;2011-07-22 12:00;CYQR 221200Z 09009KT 4SM BR OVC002 13/11 A2990 RMK ST8 SLP129

CYQR;2011-07-22 12:34;CYQR 221234Z 09009KT 10SM OVC003 13/ RMK SC8

CYQR;2011-07-22 13:00;CYQR 221300Z 09010KT 15SM OVC003 13/11 A2990 RMK SC8 SLP130

CYQR;2011-07-22 13:23;CYQR 221323Z 09008KT 15SM BKN004 14/ RMK SC7

CYQR;2011-07-22 13:45;CYQR 221345Z 11008KT 15SM BKN005 14/ RMK SC7

CYQR;2011-07-22 14:00;CYQR 221400Z 09009KT 15SM BKN006 14/11 A2990 RMK SC7 CIG RAG SLP129

CYQR;2011-07-22 14:43;CYQR 221443Z 09009KT 15SM SCT009 BKN300 16/ RMK SC2CI0

CYQR;2011-07-22 15:00;CYQR 221500Z 09009KT 15SM FEW010 SCT300 17/13 A2989 RMK SC1CI0 SLP126

CYQR;2011-07-22 16:00;CYQR 221600Z 11009KT 15SM FEW012 FEW300 18/13 A2990 RMK SC1CI1 CONTRAILS SLP129

CYQR;2011-07-22 17:00;CYQR 221700Z 08012G18KT 15SM FEW015 FEW300 19/13 A2989 RMK SC1CI1 CONTRAILS SLP126

CYQR;2011-07-22 18:00;CYQR 221800Z 09012G17KT 15SM SCT080 BKN120 BKN300 19/13 A2988 RMK AC4AC1CI0 CONTRAILS SLP124

CYQR;2011-07-22 19:00;CYQR 221900Z 09010G15KT 15SM SCT060 BKN120 BKN300 19/13 RMK SC3ACC2CI1 ALTM MISG SLP126

CYQR;2011-07-22 20:00;CYQR 222000Z 10015G21KT 15SM -SHRA SCT058 BKN091 BKN300 17/12 A2987 RMK SC3ACC2CI1 SLP120

CYQR;2011-07-22 20:47;CYQR 222047Z 09019KT 15SM SCT053 BKN090 BKN300 18/ RMK SC3ACC2CI1

CYQR;2011-07-22 21:00;CYQR 222100Z 09020KT 15SM BKN058 BKN090 BKN300 18/13 A2985 RMK SC5ACC1CI1 SLP115

CYQR;2011-07-22 22:00;CYQR 222200Z 10014KT 15SM BKN055 BKN100 OVC300 19/13 A2987 RMK SC5ACC2CI1 SLP120

CYQR;2011-07-22 22:52;CYQR 222252Z 09010G16KT 15SM -SHRA BKN022 BKN100 OVC300 18/ RMK SC6ACC2CI1

CYQR;2011-07-22 23:00;CYQR 222300Z 10008KT 15SM -SHRA BKN021 BKN100 OVC300 18/13 A2989 RMK SC6ACC1CI1 SLP128

CYQR;2011-07-23 00:00;CYQR 230000Z 09014G20KT 15SM -SHRA FEW020 BKN069 18/13 A2985 RMK SC2ACC6 TCU SW SLP114

CYQR;2011-07-23 01:00;CYQR 230100Z 10018G26KT 15SM SCT010 BKN070 OVC300 17/13 A2982 RMK SC3AC4CI1 SLP106

CYQR;2011-07-23 02:00;CYQR 230200Z 10016G21KT 15SM BKN076 OVC240 17/12 A2985 RMK ACC5CI3 TCU TOPS W SLP115

CYQR;2011-07-23 03:00;CYQR 230300Z 10016KT 15SM BKN069 BKN240 16/12 A2986 RMK AC5CI0 SLP118

CYQR;2011-07-23 04:00;CYQR 230400Z 10015G20KT 15SM FEW045 SCT070 OVC240 16/12 A2986 RMK SC1AC3CI3 OBS TAKEN -07 SLP119

CYQR;2011-07-23 05:00;CYQR 230500Z 10012G24KT 15SM SCT080 OVC240 15/11 A2986 RMK AC4CI4 SLP118

CYQR;2011-07-23 06:00;CYQR 230600Z 11011KT 15SM BKN095 OVC240 14/11 A2988 RMK AC5CI3 SLP125

CYQR;2011-07-23 07:00;CYQR 230700Z 12009KT 15SM BKN023 OVC080 14/10 A2990 RMK SC6AC2 SLP130

CYQR;2011-07-23 08:00;CYQR 230800Z 13010KT 15SM OVC018 13/10 A2993 RMK SC8 SLP139

CYQR;2011-07-23 09:00;CYQR 230900Z 11010G15KT 15SM OVC019 13/09 A2992 RMK SC8 SLP138

CYQR;2011-07-23 10:00;CYQR 231000Z 12013G19KT 15SM OVC017 13/09 A2990 RMK SC8 SLP133

CYQR;2011-07-23 11:00;CYQR 231100Z 13010KT 15SM OVC015 13/09 A2992 RMK SC8 SLP138

CYQR;2011-07-23 12:00;CYQR 231200Z 14008KT 15SM BKN015 OVC070 13/10 A2993 RMK SC6AC2 SLP142

CYQR;2011-07-23 13:00;CYQR 231300Z 14006KT 15SM OVC010 13/10 A2993 RMK SC8 SLP142

CYQR;2011-07-23 13:10;CYQR 231310Z 13005KT 12SM OVC007 13/ RMK SC8

CYQR;2011-07-23 13:21;CYQR 231321Z 14006KT 12SM TS OVC007 13/ RMK SC8 CB EMBD

CYQR;2011-07-23 13:28;CYQR 231328Z 13006KT 10SM -TSRA OVC006 13/ RMK SC8 CB EMBD

CYQR;2011-07-23 13:46;CYQR 231346Z 15005KT 12SM -TSRA OVC005 13/ RMK SC8 CB EMBD

CYQR;2011-07-23 14:00;CYQR 231400Z 15006KT 15SM OVC005 13/11 A2993 RETS RMK SC8 CB EMBD SLP143

CYQR;2011-07-23 14:22;CYQR 231422Z 14006KT 15SM OVC007 13/ RMK SC8

CYQR;2011-07-23 15:00;CYQR 231500Z 17007KT 15SM OVC006 13/11 A2994 RMK SC8 SLP147

CYQR;2011-07-23 16:00;CYQR 231600Z 16007KT 15SM OVC007 OVC017 15/12 A2995 RMK SF6SC2 SLP150

CYQR;2011-07-23 16:47;CYQR 231647Z 10008KT 15SM SCT006 BKN013 BKN250 16/ RMK SF3CU2CI1

CYQR;2011-07-23 17:00;CYQR 231700Z 09005KT 15SM FEW006 BKN015 BKN039 BKN250 16/13 A2995 RMK SF2CU2SC2CI0 SLP151

CYQR;2011-07-23 18:00;CYQR 231800Z 11002KT 15SM FEW017 SCT034 BKN250 19/14 A2995 RMK CU2SC2CI2 SLP147

CYQR;2011-07-23 19:00;CYQR 231900Z 28012KT 15SM SCT022 BKN260 20/14 A2995 RMK CU3CI0 SLP149

CYQR;2011-07-23 20:00;CYQR 232000Z 27008KT 15SM FEW034 SCT260 20/13 A2995 RMK CU2CI2 SLP148

CYQR;2011-07-23 21:00;CYQR 232100Z 30010KT 15SM SCT038 SCT260 20/12 A2996 RMK CU3CI1 SLP150

CYQR;2011-07-23 22:00;CYQR 232200Z 29013G18KT 15SM SCT053 22/11 A2996 RMK CU3 SLP151

CYQR;2011-07-23 23:00;CYQR 232300Z 31011KT 15SM SCT049 21/12 A2996 RMK CU3 SLP153

CYQR;2011-07-24 00:00;CYQR 240000Z 30009G15KT 15SM FEW049 FEW100 21/11 A2997 RMK CU1ACC1 TR ACC SLP154

CYQR;2011-07-24 01:00;CYQR 240100Z 29007KT 15SM VCSH FEW050 FEW070 21/11 A2997 RMK CU1AC1 TCU ASOCTD SHWRS W SLP155

CYQR;2011-07-24 02:00;CYQR 240200Z 29002KT 15SM VCSH FEW050CB SCT079 SCT100 BKN280 18/13 A2997 RMK CB1AC2AC1CI2 CB SW + DSNT NE SLP155

CYQR;2011-07-24 02:41;CYQR 240241Z 31006KT 15SM -SHRA FEW040 SCT080 SCT100 BKN260 17/ RMK SC2AC1AC1CI2 CB EMBD S

CYQR;2011-07-24 03:00;CYQR 240300Z 25005KT 15SM -SHRA SCT020 BKN070 BKN100 BKN260 17/12 A2998 RMK SC3AC2AC1CI2 CB EMBD SE-SW SLP162

CYQR;2011-07-24 03:22;CYQR 240322Z 24005KT 15SM VCSH FEW020 BKN070 BKN100 BKN260 16/ RMK SC2AC2AC1CI2 CB EMBD SE. SH SE-S + SW

CYQR;2011-07-24 04:00;CYQR 240400Z 24007KT 15SM FEW015 SCT060 BKN260 14/12 A3001 RMK SC2SC2CI1 OCNL LTGIC DSNT SE SLP170

CYQR;2011-07-24 05:00;CYQR 240500Z 24005KT 15SM FEW060 SCT260 12/10 A3001 RMK SC1CI1 SLP170

CYQR;2011-07-24 06:00;CYQR 240600Z 00000KT 15SM FEW060 FEW260 12/10 A3001 RMK SC1CI1 SLP171

CYQR;2011-07-24 07:00;CYQR 240700Z 19003KT 15SM FEW260 11/09 A3002 RMK CI1 SLP174

CYQR;2011-07-24 08:00;CYQR 240800Z 32002KT 15SM FEW260 10/08 A3002 RMK CI1 SLP174

CYQR;2011-07-24 09:00;CYQR 240900Z 00000KT 15SM FEW260 10/07 A3002 RMK CI1 SLP175

CYQR;2011-07-24 10:00;CYQR 241000Z 23002KT 15SM FEW060 FEW260 09/07 A3003 RMK SC1CI1 SLP179

CYQR;2011-07-24 11:00;CYQR 241100Z 32002KT 15SM FEW260 09/07 A3004 RMK CI1 SLP181

CYQR;2011-07-24 12:00;CYQR 241200Z 00000KT 15SM FEW012 10/07 A3005 RMK ST1 SLP186

CYQR;2011-07-24 13:00;CYQR 241300Z 19004KT 15SM FEW012 11/09 A3006 RMK ST1 SLP188

CYQR;2011-07-24 14:00;CYQR 241400Z 21004KT 15SM FEW300 15/11 A3005 RMK CI1 SLP186

CYQR;2011-07-24 15:00;CYQR 241500Z 23005KT 15SM FEW300 18/12 A3006 RMK CI1 SLP184

CYQR;2011-07-24 16:00;CYQR 241600Z 23006KT 15SM FEW120 FEW300 20/13 A3005 RMK AC1CI1 SLP180

CYQR;2011-07-24 17:00;CYQR 241700Z 27007KT 15SM FEW300 22/14 A3004 RMK CI1 SLP179

CYQR;2011-07-24 18:00;CYQR 241800Z 30009KT 15SM FEW038 FEW300 23/13 A3003 RMK CF1CI1 SLP175

CYQR;2011-07-24 19:00;CYQR 241900Z 30008KT 15SM FEW040 FEW300 24/13 A3002 RMK CU1CI1 SLP173

CYQR;2011-07-24 20:00;CYQR 242000Z 29011KT 15SM FEW044 FEW320 24/13 A3001 RMK CU1CI1 SLP168

CYQR;2011-07-24 21:00;CYQR 242100Z 28011G18KT 15SM FEW048 FEW120 FEW320 25/13 A3001 RMK CU1AC1CI1 SLP167

CYQR;2011-07-24 22:00;CYQR 242200Z 31011G16KT 15SM FEW050 FEW120 25/12 A3000 RMK CU1AC1 TR AC SLP165

CYQR;2011-07-24 23:00;CYQR 242300Z 30014KT 15SM FEW050 25/12 A2999 RMK CU1 SLP162

CYQR;2011-07-25 00:00;CYQR 250000Z 32009KT 15SM FEW050 FEW120 FEW320 24/12 A2999 RMK CU1AC1CI1 SLP161

CYQR;2011-07-25 01:00;CYQR 250100Z 34008KT 15SM FEW050 FEW120 FEW320 23/13 A2998 RMK CU1AC1CI1 SLP159

CYQR;2011-07-25 02:00;CYQR 250200Z 36005KT 15SM FEW050 FEW320 22/13 A2998 RMK CU1CI1 SLP158

CYQR;2011-07-25 03:00;CYQR 250300Z 36004KT 15SM FEW050 FEW280 19/14 A2999 RMK SC1CI1 SLP158

CYQR;2011-07-25 04:00;CYQR 250400Z 35002KT 15SM SKC 17/13 A2999 RMK SLP159

CYQR;2011-07-25 05:00;CYQR 250500Z 22005KT 15SM SKC 15/12 A3000 RMK SLP162

CYQR;2011-07-25 06:00;CYQR 250600Z 23003KT 15SM SKC 15/12 A3000 RMK SLP162

CYQR;2011-07-25 07:00;CYQR 250700Z 21006KT 15SM SKC 14/12 A3000 RMK SLP162

CYQR;2011-07-25 08:00;CYQR 250800Z 23004KT 15SM SKC 13/11 A2999 RMK SLP159

CYQR;2011-07-25 09:00;CYQR 250900Z 25003KT 15SM SKC 13/11 A2999 RMK SLP160

CYQR;2011-07-25 10:00;CYQR 251000Z 00000KT 15SM SKC 11/09 A2999 RMK SLP160

CYQR;2011-07-25 11:00;CYQR 251100Z 00000KT 15SM FEW090 FEW280 11/09 A2999 RMK AC1CI1 SLP159

CYQR;2011-07-25 12:00;CYQR 251200Z 11004KT 15SM SKC 12/10 A2999 RMK SLP161

CYQR;2011-07-25 13:00;CYQR 251300Z 15002KT 15SM SKC 15/12 A3000 RMK SLP163

CYQR;2011-07-25 14:00;CYQR 251400Z 16003KT 15SM SKC 18/14 A2999 RMK SLP161

CYQR;2011-07-25 15:00;CYQR 251500Z 17004KT 15SM SKC 21/15 A3000 RMK SLP160

CYQR;2011-07-25 16:00;CYQR 251600Z 19002KT 15SM SKC 23/14 A2999 RMK SLP158

CYQR;2011-07-25 17:00;CYQR 251700Z 16002KT 15SM FEW038 24/15 A2998 RMK CU1 SLP155

CYQR;2011-07-25 18:00;CYQR 251800Z 00000KT 15SM FEW046 25/13 A2997 RMK CU1 SLP150

CYQR;2011-07-25 19:00;CYQR 251900Z 18003KT 15SM FEW050 FEW160 26/13 A2996 RMK CU1AC1 SLP147

CYQR;2011-07-25 20:00;CYQR 252000Z 27003KT 15SM FEW160 27/13 A2995 RMK AC1 SLP143

CYQR;2011-07-25 21:00;CYQR 252100Z 16003KT 15SM FEW160 27/14 A2992 RMK AC1 SLP135

CYQR;2011-07-25 22:00;CYQR 252200Z 16004KT 15SM FEW160 FEW330 28/14 A2991 RMK AC1CI1 SLP129

CYQR;2011-07-25 23:00;CYQR 252300Z 13010KT 15SM FEW130 FEW330 28/15 A2988 RMK AC1CI1 SLP122

CYQR;2011-07-26 00:00;CYQR 260000Z 12009KT 15SM FEW130 FEW330 27/16 A2986 RMK AC1CI0 SLP113

CYQR;2011-07-26 01:00;CYQR 260100Z 10011KT 15SM FEW130 FEW330 26/15 A2983 RMK AC1CI1 SLP103

CYQR;2011-07-26 02:00;CYQR 260200Z 11011KT 15SM FEW100 FEW300 24/14 A2981 RMK AC1CI1 TR CI SLP096

CYQR;2011-07-26 03:00;CYQR 260300Z 13011KT 15SM FEW100 FEW300 22/15 A2981 RMK AC1CI0 SLP092

CYQR;2011-07-26 04:00;CYQR 260400Z 12007KT 15SM BKN081 21/15 A2982 RMK AC6 SLP098

CYQR;2011-07-26 05:00;CYQR 260500Z 15010KT 15SM OVC100 21/14 A2983 RMK AC8 SLP100

CYQR;2011-07-26 06:00;CYQR 260600Z 14010KT 15SM FEW030CB OVC100 21/14 A2982 RMK CB1AC7 LTG DSNT SW SLP096

CYQR;2011-07-26 06:31;CYQR 260631Z 13012G17KT 15SM -SHRA SCT049CB OVC100 21/ RMK CB3AC5 LTG SW

CYQR;2011-07-26 07:00;CYQR 260700Z 16013KT 15SM -SHRA SCT029CB OVC100 21/15 A2978 RMK CB3AC5 LTGICCG S SLP084

CYQR;2011-07-26 07:48;CYQR 260748Z 16015G26KT 15SM FEW030CB OVC100 23/ RMK CB2AC6 LTGIC SE

CYQR;2011-07-26 08:00;CYQR 260800Z 15011G29KT 15SM FEW030CB OVC100 23/14 A2973 RMK CB2AC6 LTGIC SE PRESFR SLP067

CYQR;2011-07-26 09:00;CYQR 260900Z 17013G22KT 15SM SCT100 22/13 A2972 RMK AC4 SLP060

CYQR;2011-07-26 10:00;CYQR 261000Z 16014G21KT 15SM SCT076 SCT300 21/15 A2971 RMK AC3CI0 SLP058

CYQR;2011-07-26 11:00;CYQR 261100Z 17014G20KT 15SM SCT079 BKN300 19/15 A2973 RMK AC4CI0 SLP063

CYQR;2011-07-26 12:00;CYQR 261200Z 18009KT 15SM SCT080 BKN300 19/15 A2973 RMK AC4CI1 SLP065

CYQR;2011-07-26 13:00;CYQR 261300Z 17008KT 15SM SCT080 BKN300 19/16 A2971 RMK AC4CI1 TCU/ACC ASOCTD SLP058

CYQR;2011-07-26 14:00;CYQR 261400Z 17006KT 15SM VCSH SCT080 BKN100 BKN300 21/17 A2968 RMK AC3AC2CI1 ACC ASOCTD SLP050

CYQR;2011-07-26 15:00;CYQR 261500Z CCA 27003KT 15SM VCSH FEW010 SCT099 BKN140 OVC300 21/18 A2968 RMK SC1ACC3AC2CI1 SLP048

CYQR;2011-07-26 16:00;CYQR 261600Z 14005KT 15SM FEW068 SCT086 BKN230 BKN300 23/18 A2969 RMK ACC2AC2CI2CI1 SLP052

CYQR;2011-07-26 17:00;CYQR 261700Z 19009KT 15SM FEW024 FEW070 BKN230 BKN300 25/19 A2968 RMK CF1ACC2CI2CI1 TR CF SLP050

CYQR;2011-07-26 18:00;CYQR 261800Z 21009KT 15SM FEW032 FEW070 SCT120 BKN280 26/18 A2965 RMK CU1AC1AC2CI3 SLP038

CYQR;2011-07-26 19:00;CYQR 261900Z 21007KT 15SM FEW067 SCT140 BKN230 BKN280 26/18 A2964 RMK CU1AC2CI2CI1 TR CU SLP033

CYQR;2011-07-26 20:00;CYQR 262000Z 19008KT 15SM FEW036 SCT140 BKN230 BKN280 27/18 A2962 RMK CU1AC2CI2CI0 CB TOPS DSTNT N+S SIGNIFICANT TCU TOPS NORTH BASES BLOCKED BY ATB SLP027

CYQR;2011-07-26 21:00;CYQR 262100Z CCA 21009KT 15SM FEW040TCU SCT120 BKN280 28/18 A2960 RMK TCU2AC1CI1 CB TOPS DSTNT ALQUADS SLP017

CYQR;2011-07-26 22:00;CYQR 262200Z CCA 20009KT 15SM SCT028CB BKN120 BKN280 24/18 A2958 RMK CB4AC2CI0 MAMMATUS SLP013

CYQR;2011-07-26 22:17;CYQR 262217Z 19007KT 15SM TS BKN030CB BKN280 24/ RMK CB5CI1 MAMMUTUS

CYQR;2011-07-26 22:19;CYQR 262219Z CCA 19007KT 15SM TS BKN030CB BKN280 24/ RMK CB5CI1 MAMMATUS

CYQR;2011-07-26 22:29;CYQR 262229Z 19010KT 15SM -TSRA BKN046CB BKN098 BKN280 24/ RMK CB5AC1CI0 LTGCCCG

CYQR;2011-07-26 23:00;CYQR 262300Z 21024G31KT 6SM TSRA BR BKN046CB BKN280 19/15 A2961 RMK CB6CI1 LTGCCCG SLP023

CYQR;2011-07-26 23:26;CYQR 262326Z 23006KT 15SM -SHRA SCT045TCU BKN094 BKN280 19/ RETSRA RMK TCU3AC2CI1

CYQR;2011-07-26 23:37;CYQR 262337Z 33013KT 15SM -TSRA SCT040CB BKN092 BKN280 18/ RERA RMK CB3AC2CI1

CYQR;2011-07-26 23:47;CYQR 262347Z 32014G19KT 15SM TS FEW040CB BKN084 BKN280 18/ RERA RMK CB2AC2CI1

CYQR;2011-07-26 23:53;CYQR 262353Z 34008G19KT 15SM FEW040CB BKN080 BKN280 18/ RETSRA RMK CB2AC2CI1

CYQR;2011-07-27 00:00;CYQR 270000Z 33008KT 15SM FEW050CB BKN078 BKN280 18/15 A2964 RETSRA RMK CB2AC2CI1 SLP038

CYQR;2011-07-27 01:00;CYQR 270100Z 04005KT 15SM FEW045TCU BKN073 BKN280 19/15 A2964 RMK TCU2AC4CI0 SLP038

CYQR;2011-07-27 02:00;CYQR 270200Z 09006KT 15SM FEW040TCU FEW093 18/15 A2965 RMK TCU1AC1 SLP041

CYQR;2011-07-27 03:00;CYQR 270300Z 14004KT 15SM FEW025TCU FEW090 16/15 A2964 RMK TCU1AC1 SLP038

CYQR;2011-07-27 04:00;CYQR 270400Z 17002KT 15SM FEW090 16/15 A2964 RMK AC1 SLP038

CYQR;2011-07-27 05:00;CYQR 270500Z 19007KT 15SM FEW072 16/14 A2962 RMK AC1 SLP034

CYQR;2011-07-27 06:00;CYQR 270600Z 27011G19KT 15SM FEW076 17/14 A2963 RMK AC1 SLP033

CYQR;2011-07-27 07:00;CYQR 270700Z 28011G16KT 15SM SKC 15/13 A2964 RMK SLP035

CYQR;2011-07-27 08:00;CYQR 270800Z 26008KT 15SM BKN024 14/12 A2964 RMK SC6 SLP037

CYQR;2011-07-27 09:00;CYQR 270900Z 25010KT 15SM BKN022 16/13 A2965 RMK SC6 SLP040

CYQR;2011-07-27 10:00;CYQR 271000Z 28010G16KT 15SM FEW020 15/13 A2965 RMK SC1 SLP040

CYQR;2011-07-27 11:00;CYQR 271100Z 27013G19KT 15SM FEW020 14/12 A2966 RMK SC1 SLP042

CYQR;2011-07-27 12:00;CYQR 271200Z 27011KT 15SM BKN023 14/12 A2968 RMK SC6 SLP057

CYQR;2011-07-27 13:00;CYQR 271300Z 27016KT 15SM FEW025 15/12 A2969 RMK SC1 SLP058

CYQR;2011-07-27 14:00;CYQR 271400Z 28016KT 15SM FEW016 FEW100 FEW250 17/13 A2969 RMK CU1AC1CI1 SLP059

CYQR;2011-07-27 15:00;CYQR 271500Z 27015G24KT 15SM FEW020 FEW250 19/14 A2970 RMK CU1CI1 SLP060

CYQR;2011-07-27 16:00;CYQR 271600Z 28018G24KT 15SM FEW024 FEW250 20/14 A2970 RMK CU1CI0 SLP062

CYQR;2011-07-27 17:00;CYQR 271700Z 28020G26KT 15SM FEW032 SCT120 BKN250 22/14 A2971 RMK CU1AC1CI1 SLP065

CYQR;2011-07-27 18:00;CYQR 271800Z 28019G25KT 15SM FEW034 FEW120 BKN250 23/15 A2971 RMK CU1AC1CI2 SLP063

CYQR;2011-07-27 19:00;CYQR 271900Z 28021G26KT 15SM FEW045 SCT120 BKN250 24/14 A2973 RMK CU2AC1CI0 SLP067

CYQR;2011-07-27 20:00;CYQR 272000Z 30018G24KT 15SM FEW052 SCT120 BKN250 24/14 A2973 RMK CU2AC1CI0 SLP069

CYQR;2011-07-27 21:00;CYQR 272100Z 30019G24KT 15SM SCT052 24/13 A2974 RMK CU3 TCU ASOCTD SLP073

CYQR;2011-07-27 22:00;CYQR 272200Z 29021G26KT 15SM SCT054 24/13 A2975 RMK CU3 TCU ASOCTD SLP074

CYQR;2011-07-27 23:00;CYQR 272300Z 30020G27KT 15SM SCT056 24/12 A2975 RMK CU3 SLP076

CYQR;2011-07-28 00:00;CYQR 280000Z 29017G25KT 15SM FEW060 24/13 A2976 RMK CU2 SLP079

CYQR;2011-07-28 01:00;CYQR 280100Z 29013KT 15SM FEW065 23/13 A2978 RMK CU1 SLP085

CYQR;2011-07-28 02:00;CYQR 280200Z 29010KT 15SM FEW070 FEW300 21/12 A2979 RMK CU1CI0 SLP089

CYQR;2011-07-28 03:00;CYQR 280300Z 29007KT 15SM FEW100 FEW300 16/12 A2981 RMK AC1CI0 SLP098

CYQR;2011-07-28 04:00;CYQR 280400Z 28008KT 15SM FEW060 SCT300 15/12 A2983 RMK SC2CI0 SLP104

CYQR;2011-07-28 05:00;CYQR 280500Z 27007KT 15SM FEW060 14/12 A2985 RMK SC2 SLP110

CYQR;2011-07-28 06:00;CYQR 280600Z 27007KT 15SM FEW075 13/11 A2986 RMK AC1 SLP115

CYQR;2011-07-28 07:00;CYQR 280700Z 27006KT 15SM FEW080 12/10 A2986 RMK AC1 SLP116

CYQR;2011-07-28 08:00;CYQR 280800Z 26004KT 15SM FEW090 11/09 A2987 RMK AC1 SLP120

CYQR;2011-07-28 09:00;CYQR 280900Z 24005KT 15SM FEW100 11/09 A2988 RMK AC1 SLP124

CYQR;2011-07-28 10:00;CYQR 281000Z 28008KT 15SM FEW100 11/09 A2989 RMK AC1 SLP126

CYQR;2011-07-28 11:00;CYQR 281100Z 28007KT 15SM FEW100 10/08 A2990 RMK AC1 SLP130

CYQR;2011-07-28 12:00;CYQR 281200Z 27007KT 15SM FEW100 FEW300 10/08 A2991 RMK AC1CI0 SLP134

CYQR;2011-07-28 13:00;CYQR 281300Z 30004KT 15SM FEW100 FEW300 13/10 A2992 RMK AC1CI0 SLP138

CYQR;2011-07-28 14:00;CYQR 281400Z 27008KT 15SM FEW100 FEW300 16/12 A2993 RMK AC1CI0 SLP141

CYQR;2011-07-28 15:00;CYQR 281500Z 29008KT 15SM SCT088 19/13 A2994 RMK AC2 SLP144

CYQR;2011-07-28 16:00;CYQR 281600Z 30013KT 15SM FEW032 SCT088 BKN280 21/13 A2995 RMK CU1AC3CI0 TR CU SLP145

CYQR;2011-07-28 17:00;CYQR 281700Z 28014G19KT 15SM FEW040 SCT093 BKN280 21/13 A2995 RMK CU1AC2CI0 SLP147

CYQR;2011-07-28 18:00;CYQR 281800Z 28015G20KT 15SM FEW042 SCT089 BKN280 22/13 A2995 RMK CU1AC2CI0 SLP146

CYQR;2011-07-28 19:00;CYQR 281900Z 30014G25KT 15SM SCT044 BKN280 23/12 A2995 RMK CU3CI1 TCU ASOCTD SLP146

CYQR;2011-07-28 20:00;CYQR 282000Z 30016G22KT 15SM SCT052 BKN280 23/11 A2995 RMK CU3CI1 TCU ASOCTD SLP147

CYQR;2011-07-28 21:00;CYQR 282100Z 30020G25KT 15SM SCT056 BKN280 24/12 A2995 RMK CU3CI0 TCU ASOCTD SLP148

CYQR;2011-07-28 22:00;CYQR 282200Z 30018KT 15SM FEW051 BKN280 24/12 A2995 RMK CU2CI0 TCU ASCOTD SLP148

CYQR;2011-07-28 23:00;CYQR 282300Z 32014KT 15SM FEW054 SCT120 BKN280 22/11 A2996 RMK CU2AC1CI0 TCU ASOCTD SLP150

CYQR;2011-07-29 00:00;CYQR 290000Z 33010G19KT 15SM FEW056 FEW280 23/13 A2996 RMK CU2CI1 TCU ASOCTD SLP151

CYQR;2011-07-29 01:00;CYQR 290100Z 32011KT 15SM FEW070 FEW300 22/13 A2996 RMK CU1CI0 SLP153

CYQR;2011-07-29 02:00;CYQR 290200Z 32009KT 15SM FEW100 FEW300 21/12 A2997 RMK AC0CI0 SLP155

CYQR;2011-07-29 03:00;CYQR 290300Z 29006KT 15SM FEW300 16/12 A2998 RMK CI0 SLP158

CYQR;2011-07-29 04:00;CYQR 290400Z 26006KT 15SM FEW300 14/11 A3000 RMK CI0 SLP164

CYQR;2011-07-29 05:00;CYQR 290500Z 24005KT 15SM FEW300 12/09 A3001 RMK CI0 SLP166

CYQR;2011-07-29 06:00;CYQR 290600Z 25006KT 15SM SKC 12/09 A3001 RMK SLP168

CYQR;2011-07-29 07:00;CYQR 290700Z 26006KT 15SM SKC 11/08 A3000 RMK SLP166

CYQR;2011-07-29 08:00;CYQR 290800Z 26004KT 15SM SKC 11/08 A3000 RMK SLP164

CYQR;2011-07-29 09:00;CYQR 290900Z 00000KT 15SM SKC 10/07 A3000 RMK SLP164

CYQR;2011-07-29 10:00;CYQR 291000Z 16003KT 15SM SKC 11/08 A3000 RMK SLP166

CYQR;2011-07-29 11:00;CYQR 291100Z 11004KT 15SM SKC 10/08 A3000 RMK SLP166

CYQR;2011-07-29 12:00;CYQR 291200Z 12004KT 15SM FEW300 10/08 A3000 RMK CI0 SLP164

CYQR;2011-07-29 13:00;CYQR 291300Z 14005KT 15SM FEW300 14/10 A2999 RMK CI1 SLP162

CYQR;2011-07-29 14:00;CYQR 291400Z 17006KT 15SM FEW080 16/12 A2999 RMK AC1 SLP162

CYQR;2011-07-29 15:00;CYQR 291500Z 17007KT 15SM FEW090 20/14 A2997 RMK AC2 SLP153

CYQR;2011-07-29 16:00;CYQR 291600Z 19012KT 15SM FEW070 23/14 A2995 RMK AC2 SLP146

CYQR;2011-07-29 17:00;CYQR 291700Z 19013KT 15SM FEW075 25/14 A2993 RMK AC2 SLP141

CYQR;2011-07-29 18:00;CYQR 291800Z 19011G17KT 15SM FEW095 26/15 A2991 RMK AC1 SLP133

CYQR;2011-07-29 19:00;CYQR 291900Z 19014G19KT 15SM FEW048 FEW230 27/15 A2989 RMK CU1CI1 TR CU SLP125

CYQR;2011-07-29 20:00;CYQR 292000Z 22014G21KT 15SM FEW060 FEW230 28/14 A2986 RMK CU1CI1 SLP116

CYQR;2011-07-29 21:00;CYQR 292100Z 20015G21KT 15SM FEW056 28/15 A2984 RMK CU2 SLP108

CYQR;2011-07-29 22:00;CYQR 292200Z 20013G18KT 15SM FEW056 29/16 A2982 RMK CU2 SLP100

CYQR;2011-07-29 23:00;CYQR 292300Z 22010G15KT 15SM SCT085TCU SCT230 28/16 A2979 RMK TCU3CI1 SLP091

CYQR;2011-07-30 00:00;CYQR 300000Z 28009G17KT 15SM FEW085TCU FEW230 30/16 A2977 RMK TCU1CI1 SLP082

CYQR;2011-07-30 01:00;CYQR 300100Z 29007KT 15SM FEW090 FEW230 28/16 A2977 RMK CU1CI1 TCU ASOCTD SLP081

CYQR;2011-07-30 02:00;CYQR 300200Z 28003KT 15SM FEW100 FEW230 26/16 A2976 RMK ACC1CI0 CB S SLP079

CYQR;2011-07-30 03:00;CYQR 300300Z 00000KT 15SM FEW100 FEW230 22/17 A2976 RMK AC1CI0 CB SE SLP079

CYQR;2011-07-30 04:00;CYQR 300400Z 15003KT 15SM FEW100 21/15 A2977 RMK AC1 SLP081

CYQR;2011-07-30 05:00;CYQR 300500Z 16005KT 15SM FEW100 FEW230 19/15 A2979 RMK AC2CI0 SLP088

CYQR;2011-07-30 06:00;CYQR 300600Z 14004KT 15SM BKN120 18/15 A2979 RMK AC6 LGTCC W SLP085

CYQR;2011-07-30 06:05;CYQR 300605Z 31007KT 15SM TS FEW060CB BKN120 18/ RMK CB2AC5 LGTCC W

CYQR;2011-07-30 06:10;CYQR 300610Z 28028G40KT 3SM +TSRA BKN032CB OVC120 16/ RMK CB5AC3 LGTCC

CYQR;2011-07-30 06:15;CYQR 300615Z 27048G62KT 1SM +TSRA OVC032CB 16/ RMK CB8 LGTCCCGIC

CYQR;2011-07-30 06:22;CYQR 300622Z 32054G62KT 3SM +TSRA OVC030CB 16/ RMK CB8 LGTCCCGIC

CYQR;2011-07-30 06:31;CYQR 300631Z 34041G62KT 6SM -TSRA BKN032CB OVC090 17/ RMK CB5AC3 LGTCCCGIC RERA

CYQR;2011-07-30 06:49;CYQR 300649Z 35026G34KT 15SM TS FEW030CB BKN090 17/ RERA RMK CB2AC6 LGTCC CB E

CYQR;2011-07-30 07:00;CYQR 300700Z 34023G32KT 15SM TS FEW030CB BKN090 17/16 A2986 RERA RMK CB1AC6 LGTCC CB E /R10/ SLP107

CYQR;2011-07-30 07:19;CYQR 300719Z 35018G25KT 15SM SCT090 17/ RETS RMK AC3 LGTCC CB E

CYQR;2011-07-30 08:00;CYQR 300800Z 36013KT 15SM FEW090 16/14 A2988 RETS RMK AC2 SLP114

CYQR;2011-07-30 09:00;CYQR 300900Z 31004KT 15SM FEW100 14/11 A2990 RMK AC1 SLP126

CYQR;2011-07-30 10:00;CYQR 301000Z 30007KT 15SM FEW100 13/09 A2992 RMK AC1 SLP132

CYQR;2011-07-30 11:00;CYQR 301100Z 31010KT 15SM SKC 13/09 A2995 RMK SLP142

CYQR;2011-07-30 12:00;CYQR 301200Z 30010KT 15SM SKC 12/09 A2998 RMK SLP153

CYQR;2011-07-30 13:00;CYQR 301300Z 31009KT 15SM SKC 13/09 A2999 RMK SLP157

CYQR;2011-07-30 14:00;CYQR 301400Z 30010KT 15SM SKC 15/11 A3002 RMK SLP165

CYQR;2011-07-30 15:00;CYQR 301500Z 30010KT 15SM SKC 16/12 A3004 RMK SLP177

CYQR;2011-07-30 16:00;CYQR 301600Z 30011KT 15SM SKC 18/13 A3006 RMK SLP182

CYQR;2011-07-30 17:00;CYQR 301700Z 30008KT 15SM FEW012 20/17 A3007 RMK CF1 SLP187

CYQR;2011-07-30 18:00;CYQR 301800Z 31015KT 15SM FEW026 21/15 A3007 RMK CU1 SLP186

CYQR;2011-07-30 19:00;CYQR 301900Z 31012G17KT 15SM FEW044 21/10 A3007 RMK CU1 SLP186

CYQR;2011-07-30 20:00;CYQR 302000Z 30009G18KT 15SM FEW045 22/11 A3007 RMK CU1 SLP184

CYQR;2011-07-30 21:00;CYQR 302100Z 31011G17KT 15SM FEW045 23/10 A3006 RMK CU1 SLP183

CYQR;2011-07-30 22:00;CYQR 302200Z 30005KT 15SM FEW052 22/09 A3004 RMK CF1 SLP178

CYQR;2011-07-30 23:00;CYQR 302300Z 28007KT 15SM FEW052 FEW330 23/10 A3004 RMK CF1CI1 SLP176

CYQR;2011-07-31 00:00;CYQR 310000Z 26003KT 15SM FEW330 23/11 A3003 RMK CI1 SLP174

CYQR;2011-07-31 01:00;CYQR 310100Z 32004KT 15SM FEW330 23/10 A3002 RMK CI1 SLP171

CYQR;2011-07-31 02:00;CYQR 310200Z 00000KT 15SM FEW130 FEW330 22/10 A3001 RMK AC1CI1 SLP169

CYQR;2011-07-31 03:00;CYQR 310300Z 14002KT 15SM FEW130 FEW300 19/12 A3002 RMK AC1CI1 SLP170

CYQR;2011-07-31 04:00;CYQR 310400Z 11006KT 15SM FEW130 FEW280 16/10 A3002 RMK AC1CI0 SLP171

CYQR;2011-07-31 05:00;CYQR 310500Z 12007KT 15SM FEW130 FEW280 14/10 A3001 RMK AC1CI0 SLP169

CYQR;2011-07-31 06:00;CYQR 310600Z 13007KT 15SM FEW280 14/10 A3001 RMK CI0 SLP168

CYQR;2011-07-31 07:00;CYQR 310700Z 14008KT 15SM SKC 15/10 A3000 RMK SLP165

CYQR;2011-07-31 08:00;CYQR 310800Z 13010KT 15SM SKC 14/09 A2999 RMK SLP160

CYQR;2011-07-31 09:00;CYQR 310900Z 13012KT 15SM FEW050 14/09 A2997 RMK SC1 SLP151

CYQR;2011-07-31 10:00;CYQR 311000Z 14010KT 15SM FEW050 15/10 A2996 RMK SC1 SLP148

CYQR;2011-07-31 11:00;CYQR 311100Z 13012KT 15SM FEW045 FEW120 FEW280 14/10 A2995 RMK SC1AC1CI0 CVCTV CLD EMBD SLP145

CYQR;2011-07-31 12:00;CYQR 311200Z 13014KT 15SM FEW045 FEW120 FEW280 15/10 A2993 RMK SC1AC1CI0 CVCTV CLD EMBD SLP138

CYQR;2011-07-31 13:00;CYQR 311300Z 14017KT 15SM FEW050 FEW110 SCT280 17/11 A2992 RMK SC1AC1CI0 CVCTV CLD EMBD SLP134

CYQR;2011-07-31 14:00;CYQR 311400Z 15017G24KT 15SM FEW050 FEW110 SCT280 19/12 A2991 RMK SC1AC1CI0 CVCTV CLD EMBD SLP131

CYQR;2011-07-31 15:00;CYQR 311500Z 16018G24KT 15SM FEW032 21/14 A2990 RMK CU1 SLP127

CYQR;2011-07-31 16:00;CYQR 311600Z 15016G21KT 15SM FEW032 FEW300 23/16 A2988 RMK CU1CI1 SLP121

CYQR;2011-07-31 17:00;CYQR 311700Z 17013G20KT 15SM FEW040 26/19 A2987 RMK CU1 SLP116

CYQR;2011-07-31 18:00;CYQR 311800Z 18014G19KT 15SM FEW095 27/19 A2985 RMK AC1 SLP110

CYQR;2011-07-31 19:00;CYQR 311900Z 19014KT 15SM FEW090 29/20 A2983 RMK AC1 SLP103

CYQR;2011-07-31 20:00;CYQR 312000Z 19014KT 15SM FEW090 30/20 A2982 RMK AC1 SLP100

CYQR;2011-07-31 21:00;CYQR 312100Z 22008G16KT 15SM FEW100 31/21 A2982 RMK AC1 SLP095

CYQR;2011-07-31 22:00;CYQR 312200Z 21011KT 15SM FEW100 31/21 A2980 RMK AC1 SLP089

CYQR;2011-07-31 23:00;CYQR 312300Z 20005KT 15SM FEW080 31/22 A2979 RMK AC1 SLP086

CYQR;2011-08-01 01:00;CYQR 010100Z 18003KT 15SM FEW140 FEW300 30/23 A2977 RMK AC1CI1 SLP080

CYQR;2011-08-01 02:00;CYQR 010200Z 19002KT 15SM FEW140 FEW300 30/20 A2977 RMK AC1CI1 SLP078

CYQR;2011-08-01 03:00;CYQR 010300Z 14006KT 15SM FEW020 FEW140 SCT300 25/19 A2977 RMK SC1AC1CI2 TCU TOPS DSNT S+SW SLP079

CYQR;2011-08-01 04:00;CYQR 010400Z 16007KT 15SM FEW020 SCT300 25/18 A2977 RMK SC1CI1 SLP078

CYQR;2011-08-01 05:00;CYQR 010500Z 16009KT 15SM SCT280 24/18 A2977 RMK CI1 SLP077

CYQR;2011-08-01 06:00;CYQR 010600Z 15007KT 15SM FEW280 23/18 A2977 RMK CI0 SLP075

CYQR;2011-08-01 07:00;CYQR 010700Z 14010KT 15SM BKN280 22/19 A2976 RMK CI2 SLP072

CYQR;2011-08-01 08:00;CYQR 010800Z 15004KT 15SM FEW020 SCT280 21/19 A2976 RMK SC1CI1 SLP072

CYQR;2011-08-01 09:00;CYQR 010900Z 15013KT 15SM FEW280 22/20 A2974 RMK CI0 SLP063

CYQR;2011-08-01 10:00;CYQR 011000Z 17009KT 10SM FEW040 FEW100 SCT280 22/21 A2974 RMK SC1AC2CI0 BR SLP063

CYQR;2011-08-01 10:45;CYQR 011045Z 14008KT 10SM FEW004 SCT070 BKN100 22/ RMK SF1AC2AC2 BR ACC ASOCTD

CYQR;2011-08-01 11:00;CYQR 011100Z 16009KT 8SM FEW004 FEW040 SCT070 BKN100 22/21 A2972 RMK SF1SC1ACC2AC2 BR SLP058

CYQR;2011-08-01 12:00;CYQR 011200Z 15007KT 5SM BR FEW040 SCT070 BKN100 BKN280 22/21 A2972 RMK SC2ACC2AC2CI0 TCU ASOCTD VIS LWR W SLP057

CYQR;2011-08-01 13:00;CYQR 011300Z 19005KT 3SM BR BKN080 22/21 A2973 RMK FG2AC5 TCU/ACC ASOCTD SLP059

CYQR;2011-08-01 14:00;CYQR 011400Z 23003KT 6SM BR BKN080 BKN280 23/21 A2973 RMK AC6CI1 TCU/ACC ASOCTD SLP060

CYQR;2011-08-01 15:00;CYQR 011500Z 28006KT 6SM BR BKN071 BKN280 24/18 A2975 RMK AC6CI1 ACC ASOCTD SLP069

CYQR;2011-08-01 16:00;CYQR 011600Z 30011KT 15SM SCT071 BKN090 BKN280 26/18 A2975 RMK AC4AC1CI1 ACC ASOCTD SLP070

CYQR;2011-08-01 17:00;CYQR 011700Z 28011KT 15SM FEW089 BKN240 BKN320 25/17 A2976 RMK AC2CI2CI0 SLP074

CYQR;2011-08-01 18:00;CYQR 011800Z 28013KT 15SM FEW090 BKN240 BKN320 26/18 A2976 RMK AC2CI2CI1 SLP075

CYQR;2011-08-01 19:00;CYQR 011900Z 30015KT 15SM FEW093 BKN260 BKN340 28/17 A2977 RMK AC2CI3CI1 SLP078

CYQR;2011-08-01 20:00;CYQR 012000Z 33017KT 15SM FEW130 SCT240 BKN340 28/18 A2978 RMK AC2CI2CI1 SLP081

CYQR;2011-08-01 21:00;CYQR 012100Z 33015KT 15SM FEW120 SCT240 BKN320 28/17 A2981 RMK AC2CI2CI1 SLP088

CYQR;2011-08-01 22:00;CYQR 012200Z 35020KT 15SM FEW120 SCT240 BKN320 27/16 A2982 RMK AC2CI2CI1 SLP092

CYQR;2011-08-01 23:00;CYQR 012300Z 34013G21KT 15SM FEW120 SCT240 BKN320 26/16 A2984 RMK AC2CI2CI1 SLP098

CYQR;2011-08-02 00:00;CYQR 020000Z 36013KT 15SM FEW089 BKN240 BKN320 25/16 A2986 RMK AC2CI2CI1 SLP107

CYQR;2011-08-02 01:00;CYQR 020100Z 35011KT 15SM FEW090 FEW120 BKN240 BKN320 24/16 A2988 RMK AC1AC2CI2CI2 SLP114

CYQR;2011-08-02 02:00;CYQR 020200Z 34009KT 15SM FEW080 FEW120 SCT240 BKN320 22/15 A2990 RMK AC1AC1CI2CI2 SLP120

CYQR;2011-08-02 03:00;CYQR 020300Z 33006KT 15SM FEW120 SCT300 18/14 A2991 RMK AC1CI1 TCU TOPS DSNT SW SLP130

CYQR;2011-08-02 04:00;CYQR 020400Z 34006KT 15SM FEW120 FEW300 17/14 A2993 RMK AC1CI2 SLP134

CYQR;2011-08-02 05:00;CYQR 020500Z 33007KT 15SM FEW300 17/14 A2994 RMK CI1 SLP139

CYQR;2011-08-02 06:00;CYQR 020600Z 33006KT 15SM FEW300 15/13 A2995 RMK CI0 SLP143

CYQR;2011-08-02 07:00;CYQR 020700Z 34007KT 15SM SKC 14/11 A2995 RMK SLP144

CYQR;2011-08-02 08:00;CYQR 020800Z 34007KT 15SM SKC 13/11 A2996 RMK SLP148

CYQR;2011-08-02 09:00;CYQR 020900Z 00000KT 15SM SKC 12/10 A2998 RMK SLP153

CYQR;2011-08-02 10:00;CYQR 021000Z 23003KT 15SM SKC 11/09 A3000 RMK SLP160

CYQR;2011-08-02 11:00;CYQR 021100Z 24004KT 15SM FEW080 09/07 A3001 RMK AC1 SLP164

CYQR;2011-08-02 12:00;CYQR 021200Z 27004KT 15SM FEW040 FEW080 10/07 A3002 RMK SC1AC1 SLP172

CYQR;2011-08-02 13:00;CYQR 021300Z 00000KT 15SM FEW040 13/11 A3003 RMK SC1 CU ASOCTD SLP174

CYQR;2011-08-02 14:00;CYQR 021400Z 23003KT 15SM FEW040 16/12 A3004 RMK SC1 SLP176

CYQR;2011-08-02 15:00;CYQR 021500Z 22003KT 15SM FEW040 18/11 A3004 RMK SC1 SLP178

CYQR;2011-08-02 16:00;CYQR 021600Z 22003KT 15SM FEW040 FEW320 21/11 A3003 RMK CU1CI1 SLP175

CYQR;2011-08-02 17:00;CYQR 021700Z 20004KT 15SM FEW052 FEW120 FEW330 22/09 A3002 RMK CU1ACC1CI0 SLP170

CYQR;2011-08-02 18:00;CYQR 021800Z 18006KT 15SM FEW050 FEW099 FEW330 23/11 A3001 RMK CU1ACC1CI0 SLP166

CYQR;2011-08-02 19:00;CYQR 021900Z 19005KT 15SM FEW050 SCT097 SCT330 24/13 A2999 RMK CU1ACC2CI0 SLP159

CYQR;2011-08-02 20:00;CYQR 022000Z 21006KT 15SM FEW052 SCT090 SCT120 BKN330 26/13 A2997 RMK CU1AC0ACC1CI0 CC ASOCTD SLP152

CYQR;2011-08-02 21:00;CYQR 022100Z 21007KT 15SM FEW058 FEW100 FEW330 26/11 A2995 RMK CU2ACC1CI1 SLP144

CYQR;2011-08-02 22:00;CYQR 022200Z 19012KT 15SM FEW064 FEW100 FEW330 26/10 A2992 RMK CU1ACC1CI1 CB SW-W SLP137

CYQR;2011-08-02 23:00;CYQR 022300Z 15011KT 15SM FEW100 SCT360 26/10 A2989 RMK ACC2CI2 CB S-W SHWRS W SLP126

CYQR;2011-08-03 00:00;CYQR 030000Z 12009G15KT 15SM SCT052CB SCT100 BKN360 25/12 A2986 RMK CB3ACC1CI3 CB S-W SHWRS W MAMMATUS SLP116

CYQR;2011-08-03 01:00;CYQR 030100Z 10014KT 15SM SCT084CB BKN340 26/12 A2983 RMK CB4CI1 CB S SLP107

CYQR;2011-08-03 02:00;CYQR 030200Z 13012G18KT 15SM VCSH SCT071CB SCT100 BKN340 23/11 A2984 RMK CB3ACC1CI1 SLP111

CYQR;2011-08-03 03:00;CYQR 030300Z 13010KT 15SM FEW071TCU FEW100 FEW340 21/12 A2984 RMK TCU1ACC1CI1 SLP107

CYQR;2011-08-03 04:00;CYQR 030400Z 16010KT 15SM FEW340 21/14 A2983 RMK CI1 SLP103

CYQR;2011-08-03 05:00;CYQR 030500Z 17010KT 15SM SKC 19/13 A2982 RMK SLP100

CYQR;2011-08-03 06:00;CYQR 030600Z 17009KT 15SM SKC 18/13 A2981 RMK SLP093

CYQR;2011-08-03 07:00;CYQR 030700Z 17007KT 15SM SKC 17/13 A2979 RMK SLP089

CYQR;2011-08-03 08:00;CYQR 030800Z 18005KT 15SM SKC 15/13 A2979 RMK SLP088

CYQR;2011-08-03 09:00;CYQR 030900Z 26009KT 15SM FEW030 FEW300 16/13 A2979 RMK SC1CI1 SLP087

CYQR;2011-08-03 10:00;CYQR 031000Z 25002KT 15SM FEW300 15/13 A2978 RMK CI1 SLP084

CYQR;2011-08-03 10:05;CYQR 031005Z 23006KT 15SM FEW020CB SCT300 15/ RMK CB1CI1 CB SE LTGCG

CYQR;2011-08-03 11:00;CYQR 031100Z 34002KT 15SM FEW070 FEW300 15/12 A2977 RMK ACC2CI1 VIRGA SLP083

CYQR;2011-08-03 12:00;CYQR 031200Z 00000KT 15SM FEW040 FEW100 SCT300 14/12 A2980 RMK CU2AC1CI1 SLP094

CYQR;2011-08-03 13:00;CYQR 031300Z 30002KT 15SM VCSH FEW050 SCT100 BKN300 16/13 A2980 RMK SC2AC1CI1 SLP093

CYQR;2011-08-03 14:00;CYQR 031400Z CCA 33010G17KT 15SM VCSH FEW035 SCT073 BKN300 17/13 A2985 RMK CU2AC2CI0 SH S+N SLP109

CYQR;2011-08-03 15:00;CYQR 031500Z 01010KT 15SM SCT075 BKN300 19/14 A2984 RMK AC4CI0 ACC ASOCTD TCU TOPS NE SLP106

CYQR;2011-08-03 16:00;CYQR 031600Z CCA 01005KT 15SM SCT075 BKN300 20/15 A2983 RMK ACC4CI0 TCU TOPS AND SHWRS N-NE SLP104

CYQR;2011-08-03 17:00;CYQR 031700Z 03006KT 15SM FEW078 FEW140 SCT300 21/14 A2983 RMK ACC2AC1CI0 SHWRS E SLP103

CYQR;2011-08-03 18:00;CYQR 031800Z 32004KT 15SM FEW050TCU 23/16 A2984 RMK TCU1 SLP104

CYQR;2011-08-03 19:00;CYQR 031900Z 32008KT 15SM FEW090 25/16 A2983 RMK AC1 SLP103

CYQR;2011-08-03 20:00;CYQR 032000Z 33008KT 15SM FEW034 26/15 A2983 RMK CU1 SLP103

CYQR;2011-08-03 21:00;CYQR 032100Z 32009KT 15SM FEW035 FEW084 27/14 A2984 RMK CU1AC1 SLP104

CYQR;2011-08-03 22:00;CYQR 032200Z 29006KT 15SM FEW052 27/14 A2984 RMK CU1 SLP104

CYQR;2011-08-03 23:00;CYQR 032300Z 02009KT 15SM FEW052 27/13 A2984 RMK CU1 SLP103

CYQR;2011-08-04 00:00;CYQR 040000Z CCA 34006KT 15SM FEW052 26/14 A2983 RMK CU1 SLP104

CYQR;2011-08-04 01:00;CYQR 040100Z 03010KT 15SM FEW050CB FEW100 25/14 A2983 RMK CB1ACC1 CB MDSNT S SLP104

CYQR;2011-08-04 02:00;CYQR 040200Z 04007KT 15SM FEW050 FEW100 FEW300 22/13 A2984 RMK CU1ACC1CI1 TCU ASOCTD SLP105

CYQR;2011-08-04 03:00;CYQR 040300Z 05008KT 15SM FEW050TCU FEW100 FEW300 20/13 A2984 RMK TCU1ACC1CI0 SLP107

CYQR;2011-08-04 04:00;CYQR 040400Z 05005KT 15SM FEW050 FEW100 FEW300 19/13 A2986 RMK SC1AC1CI1 CVCTV CLD ASOCTD SLP113

CYQR;2011-08-04 05:00;CYQR 040500Z 04005KT 15SM FEW050 BKN100 OVC300 18/13 A2986 RMK SC2AC3CI2 CB EMBD LTGCG DIST S + SW SLP114

CYQR;2011-08-04 05:27;CYQR 040527Z 32008KT 15SM -RA FEW028 FEW050 BKN089 OVC300 17/ RMK CU1SC2AC3CI2 CB EMBD LTGCG DIST S+SW

CYQR;2011-08-04 06:00;CYQR 040600Z 20004KT 15SM -RA FEW028 BKN041 OVC089 18/14 A2989 RMK CU2SC3AC3 CB EMBD LTGCG DIST SE+S+SW SLP123

CYQR;2011-08-04 06:50;CYQR 040650Z 16004KT 15SM SCT038 SCT100 BKN300 17/ RMK SC3AC1CI0 CB EMBD LTGCG DIST SE+S

CYQR;2011-08-04 07:00;CYQR 040700Z 31004KT 15SM SCT038 SCT091 BKN300 16/13 A2990 RMK SC3AC1CI0 CB EMBD LTGCG DIST SE+S SLP124

CYQR;2011-08-04 08:00;CYQR 040800Z 00000KT 15SM FEW038 SCT089 16/13 A2989 RMK SC2AC1 SLP122

CYQR;2011-08-04 09:00;CYQR 040900Z 28004KT 15SM SCT044 BKN085 15/13 A2991 RMK SC3AC2 SLP127

CYQR;2011-08-04 10:00;CYQR 041000Z 33004KT 15SM FEW044 SCT093 15/12 A2990 RMK SC1AC2 SLP126

CYQR;2011-08-04 11:00;CYQR 041100Z 28004KT 15SM FEW044 FEW083 FEW300 12/11 A2992 RMK SC1AC1CI0 SLP131

CYQR;2011-08-04 12:00;CYQR 041200Z 27003KT 15SM FEW045 FEW080 12/10 A2994 RMK SC1AC1 ACC ASOCTD SLP141

CYQR;2011-08-04 13:00;CYQR 041300Z 35006KT 15SM FEW045 FEW080 14/12 A2994 RMK SC1AC1 SLP141

CYQR;2011-08-04 14:00;CYQR 041400Z 34005KT 15SM FEW045 FEW086 17/12 A2996 RMK CU1AC2 SLP148

CYQR;2011-08-04 15:00;CYQR 041500Z 36007KT 15SM FEW036 FEW090 21/11 A2997 RMK CU1AC2 ACC ASOCTD SLP149

CYQR;2011-08-04 16:00;CYQR 041600Z 36009KT 15SM FEW044 BKN088 22/11 A2998 RMK CU1AC5 SLP153

CYQR;2011-08-04 17:00;CYQR 041700Z 34010KT 15SM BKN090 21/11 A2999 RMK AC6 SLP157

CYQR;2011-08-04 18:00;CYQR 041800Z 33007KT 15SM FEW100 22/11 A2999 RMK AC1 SLP157

CYQR;2011-08-04 19:00;CYQR 041900Z 30005KT 15SM FEW070 SCT100 23/11 A2999 RMK AC1ACC1 SLP156

CYQR;2011-08-04 20:00;CYQR 042000Z 32008KT 15SM FEW056 SCT074 24/11 A2998 RMK CU1AC2 SLP155

CYQR;2011-08-04 21:00;CYQR 042100Z 30009KT 15SM FEW072 SCT120 24/11 A2998 RMK CU2AC2 SLP153

CYQR;2011-08-04 22:00;CYQR 042200Z 31013KT 15SM FEW064 FEW120 25/09 A2997 RMK CU1AC1 SLP151

CYQR;2011-08-04 23:00;CYQR 042300Z 33009KT 15SM SCT060 SCT120 24/09 A2996 RMK CU3AC1 SLP149

CYQR;2011-08-05 00:00;CYQR 050000Z 32008KT 15SM FEW058 FEW120 24/10 A2996 RMK CU1ACC1 SLP151

CYQR;2011-08-05 01:00;CYQR 050100Z 33006KT 15SM FEW060 FEW120 FEW300 23/11 A2996 RMK SC1ACC1CI1 SLP151

CYQR;2011-08-05 02:00;CYQR 050200Z 34005KT 15SM FEW120 FEW300 21/12 A2997 RMK AC1CI0 SLP153

CYQR;2011-08-05 03:00;CYQR 050300Z 01005KT 15SM FEW120 FEW300 18/11 A2998 RMK AC1CI1 SLP156

CYQR;2011-08-05 04:00;CYQR 050400Z 05005KT 15SM SKC 18/10 A2999 RMK SLP159

CYQR;2011-08-05 05:00;CYQR 050500Z 08006KT 15SM SKC 16/10 A3000 RMK SLP160

CYQR;2011-08-05 06:00;CYQR 050600Z 12003KT 15SM SKC 15/10 A3001 RMK SLP166

CYQR;2011-08-05 07:00;CYQR 050700Z 09004KT 15SM SKC 15/11 A3000 RMK SLP163

CYQR;2011-08-05 08:00;CYQR 050800Z 10003KT 15SM SKC 14/10 A3000 RMK SLP162

CYQR;2011-08-05 09:00;CYQR 050900Z 09004KT 15SM SKC 13/09 A3000 RMK SLP161

CYQR;2011-08-05 10:00;CYQR 051000Z 00000KT 15SM BKN100 13/10 A3000 RMK AC6 SLP162

CYQR;2011-08-05 11:00;CYQR 051100Z 00000KT 15SM BKN100 BKN300 12/09 A3000 RMK AC5CI1 CC ASOCTD SLP164

CYQR;2011-08-05 12:00;CYQR 051200Z 09004KT 15SM FEW060 FEW100 SCT300 13/10 A3000 RMK CU1AC2CI0 ACC ASOCTD SLP161

CYQR;2011-08-05 13:00;CYQR 051300Z 12005KT 15SM FEW025 FEW100 SCT260 16/11 A2999 RMK CU2AC1CI1 AC TR SLP160

CYQR;2011-08-05 14:00;CYQR 051400Z 15007KT 15SM FEW025 FEW100 SCT260 18/12 A3001 RMK CU2AC1CI1 SLP166

CYQR;2011-08-05 15:00;CYQR 051500Z 15010KT 15SM FEW030 BKN260 19/12 A3001 RMK SC1CI2 SLP166

CYQR;2011-08-05 16:00;CYQR 051600Z 15007KT 15SM FEW089 BKN260 21/12 A3002 RMK AC1CI2 SLP168

CYQR;2011-08-05 17:00;CYQR 051700Z 18007KT 15SM FEW065 BKN260 22/12 A3001 RMK CU1CI4 SLP165

CYQR;2011-08-05 18:00;CYQR 051800Z 15005KT 15SM FEW065 FEW110 BKN260 23/13 A2999 RMK CU1AC1CI3 SLP157

CYQR;2011-08-05 19:00;CYQR 051900Z 14009KT 15SM BKN100 BKN260 24/13 A2997 RMK AC5CI2 SLP153

CYQR;2011-08-05 20:00;CYQR 052000Z 13008KT 15SM FEW100 BKN260 24/12 A2996 RMK AC2CI3 SLP149

CYQR;2011-08-05 21:00;CYQR 052100Z 08004KT 15SM SCT120 BKN260 25/11 A2995 RMK AC2CI4 SLP144

CYQR;2011-08-05 22:00;CYQR 052200Z 07004KT 15SM FEW120 OVC260 25/10 A2994 RMK AC1CI2 SLP141

CYQR;2011-08-05 23:00;CYQR 052300Z 12007KT 15SM FEW120 OVC260 25/11 A2992 RMK AC1CI2 SLP137

CYQR;2011-08-06 00:00;CYQR 060000Z 13006KT 15SM FEW120 FEW200 BKN260 25/11 A2994 RMK AC1CC1CI1 SLP141

CYQR;2011-08-06 01:00;CYQR 060100Z 16008KT 15SM FEW120 BKN260 24/12 A2993 RMK ACC1CI2 SLP140

CYQR;2011-08-06 02:00;CYQR 060200Z 13007KT 15SM FEW120 FEW160 BKN260 22/12 A2993 RMK AC1AC1CI2 SLP138

CYQR;2011-08-06 03:00;CYQR 060300Z 17003KT 15SM FEW065 FEW120 BKN260 20/13 A2994 RMK SC1AC1CI2 ACC ASOCTD SLP140

CYQR;2011-08-06 04:00;CYQR 060400Z 10004KT 15SM FEW065 FEW120 BKN260 19/13 A2994 RMK SC1AC2CI3 SLP141

CYQR;2011-08-06 05:00;CYQR 060500Z 09006KT 15SM BKN260 17/12 A2996 RMK CI2 SLP145

CYQR;2011-08-06 06:00;CYQR 060600Z 12006KT 25SM SCT260 15/12 A2995 RMK CI1 SLP145

CYQR;2011-08-06 07:00;CYQR 060700Z 12007KT 15SM SCT260 15/12 A2994 RMK CI0 SLP142

CYQR;2011-08-06 08:00;CYQR 060800Z 11006KT 15SM SCT260 15/11 A2992 RMK CI1 SLP136

CYQR;2011-08-06 09:00;CYQR 060900Z 12007KT 15SM SCT260 15/11 A2992 RMK CI1 SLP134

CYQR;2011-08-06 10:00;CYQR 061000Z 12006KT 15SM SKC 15/11 A2992 RMK SLP134

CYQR;2011-08-06 11:00;CYQR 061100Z 13006KT 15SM SCT076 BKN260 14/11 A2992 RMK AC3CI2 SLP135

CYQR;2011-08-06 12:00;CYQR 061200Z 14006KT 15SM FEW076 SCT100 BKN260 15/11 A2993 RMK AC2AC2CI1 ACC ASOCTD SLP137

CYQR;2011-08-06 13:00;CYQR 061300Z 12005KT 15SM FEW035 BKN075 BKN280 15/11 A2994 RMK SC2AC4CI0 VIRGA N-NE SLP139

CYQR;2011-08-06 14:00;CYQR 061400Z 16010KT 15SM FEW077 BKN300 17/13 A2993 RMK AC1CI1 SLP137

CYQR;2011-08-06 15:00;CYQR 061500Z 14011KT 15SM FEW075 BKN300 19/14 A2993 RMK AC2CI2 SLP136

CYQR;2011-08-06 16:00;CYQR 061600Z 16011KT 15SM SCT025 BKN079 BKN300 21/15 A2993 RMK CU3AC2CI1 SLP136

CYQR;2011-08-06 16:45;CYQR 061645Z 16014KT 15SM -SHRA FEW022TCU FEW080 SCT300 21/ RMK TCU1AC1CI0

CYQR;2011-08-06 17:00;CYQR 061700Z 17012KT 15SM SCT024 SCT080 BKN300 23/16 A2992 RMK CU3AC1CI0 SLP133

CYQR;2011-08-06 18:00;CYQR 061800Z 17015KT 15SM BKN032 BKN080 24/16 A2991 RMK CU6AC1 SLP130

CYQR;2011-08-06 19:00;CYQR 061900Z 16015G22KT 15SM BKN035 BKN300 23/16 A2988 RMK CU6CI1 TCU EMBD SLP122

CYQR;2011-08-06 19:53;CYQR 061953Z 19011KT 15SM TS BKN038CB BKN092 24/ RMK CB6AC2

CYQR;2011-08-06 20:00;CYQR 062000Z 19013KT 15SM TS VCSH BKN038CB BKN092 24/17 A2988 RMK CB6AC2 SH NE-SE SLP121

CYQR;2011-08-06 20:27;CYQR 062027Z 09014KT 15SM -TSRA FEW016 BKN038CB BKN090 20/ RMK SF0CB6AC1

CYQR;2011-08-06 21:00;CYQR 062100Z 10024KT 15SM TS FEW015 BKN038CB 20/16 A2988 RMK SF1CB6 SH NW+NE-SE SLP125

CYQR;2011-08-06 21:12;CYQR 062112Z 10023G31KT 15SM FEW001 BKN038CB 18/ RETS RMK SF1CB6

CYQR;2011-08-06 21:19;CYQR 062119Z 10021G29KT 12SM -SHRA FEW001 BKN038CB 19/ RETS RMK SF1CB6

CYQR;2011-08-06 21:23;CYQR 062123Z 11023G28KT 12SM -TSRA FEW001 BKN038CB 19/ RMK SF1CB6 LTGCG W

CYQR;2011-08-06 21:42;CYQR 062142Z 12021G26KT 15SM TS FEW001 SCT044CB BKN063 19/ RMK SF1CB4SC2

CYQR;2011-08-06 22:00;CYQR 062200Z 11019G27KT 15SM TS FEW001 SCT044CB BKN065 19/16 A2987 RMK SF1CB4SC2 SLP122

CYQR;2011-08-06 22:08;CYQR 062208Z 12018KT 15SM SCT044CB BKN070 20/ RETS RMK CB4AC2 CB NE-SE

CYQR;2011-08-06 23:00;CYQR 062300Z 13021G29KT 15SM FEW044CB BKN094 20/15 A2986 RETS RMK CB2AC4 SLP118

CYQR;2011-08-06 23:35;CYQR 062335Z 13019KT 15SM -SHRA BKN028TCU BKN300 20/ RMK TCU6CI1

CYQR;2011-08-07 00:00;CYQR 070000Z 13016G22KT 15SM -SHRA BKN030TCU BKN080 19/15 A2985 RMK TCU6AC2 SLP113

CYQR;2011-08-07 00:18;CYQR 070018Z 14016G22KT 15SM BKN049TCU BKN080 19/ RMK TCU6AC1

CYQR;2011-08-07 00:40;CYQR 070040Z 14011G21KT 15SM -SHRA BKN050TCU BKN070 BKN300 19/ RMK TCU6AC1CI0

CYQR;2011-08-07 00:48;CYQR 070048Z 14014G20KT 15SM -TSRA BKN050CB BKN070 BKN300 18/ RMK CB5AC2CI1

CYQR;2011-08-07 01:00;CYQR 070100Z 13014G21KT 15SM -TSRA BKN050CB BKN090 BKN300 18/15 A2985 RMK CB5AC1CI0 SLP112

CYQR;2011-08-07 01:41;CYQR 070141Z 14016G21KT 15SM BKN067CB BKN100 BKN300 18/ RETS RMK CB5ACC1CI0

CYQR;2011-08-07 01:55;CYQR 070155Z 14017KT 15SM -SHRA SCT063CB BKN082 BKN300 18/ RETS RMK CB4ACC2CI0

CYQR;2011-08-07 02:00;CYQR 070200Z 13017KT 15SM -SHRA SCT063CB BKN082 BKN300 18/15 A2982 RETS RMK CB4ACC2CI0 SLP104

CYQR;2011-08-07 02:34;CYQR 070234Z 14013G18KT 15SM SCT063CB BKN078 BKN300 18/ RMK CB3ACC2CI0

CYQR;2011-08-07 03:00;CYQR 070300Z CCA 14015KT 15SM SCT067CB BKN095 BKN300 18/15 A2983 RMK CB3ACC2CI0 LTGCC E SLP104

CYQR;2011-08-07 04:00;CYQR 070400Z 14011G16KT 15SM FEW065CB SCT100 BKN260 17/14 A2983 RMK CB2ACC2CI0 LTGCC E SLP103

CYQR;2011-08-07 05:00;CYQR 070500Z 15012G18KT 15SM FEW073CB SCT100 BKN260 18/15 A2980 RMK CB2ACC2CI0 CB E SLP095

CYQR;2011-08-07 06:00;CYQR 070600Z 15012KT 15SM FEW070CB SCT100 BKN260 17/14 A2979 RMK CB2ACC2CI0 LTGCCCG W SLP087

CYQR;2011-08-07 07:00;CYQR 070700Z 16013KT 15SM FEW040 SCT070CB BKN280 17/14 A2978 RMK SC1CB2CI1 LTGCCCG W SLP085

CYQR;2011-08-07 07:10;CYQR 070710Z 16014KT 15SM TS FEW040 SCT075CB BKN280 18/ RMK SC1CB3CI1 LTGCCCG

CYQR;2011-08-07 07:48;CYQR 070748Z 16016KT 15SM FEW040 SCT087CB BKN280 RETS RMK SC2CB2CI1 LTGCCCG W-S

CYQR;2011-08-07 08:00;CYQR 070800Z 16018G25KT 15SM FEW040 SCT087CB BKN280 19/15 A2977 RETS RMK SC2CB2CI1 LTGCC S SLP081

CYQR;2011-08-07 09:00;CYQR 070900Z 16015G21KT 15SM SCT093 BKN280 18/15 A2975 RMK AC3CI0 SLP077

CYQR;2011-08-07 10:00;CYQR 071000Z 15017G22KT 15SM FEW040 BKN097 BKN280 17/15 A2975 RMK SC2AC3CI0 SLP075

CYQR;2011-08-07 11:00;CYQR 071100Z 14010G18KT 15SM FEW015 BKN080 BKN280 17/14 A2975 RMK SC2ACC3CI1 SLP075

CYQR;2011-08-07 11:14;CYQR 071114Z 14008KT 15SM BKN010TCU BKN080 16/ RMK TCU5ACC2

CYQR;2011-08-07 11:52;CYQR 071152Z 14012KT 15SM FEW008 BKN093 BKN280 16/ RMK SF2ACC3CI0

CYQR;2011-08-07 12:00;CYQR 071200Z CCA 14013KT 15SM FEW008 BKN093 BKN280 16/14 A2974 RMK SF2ACC3CI0 CB TOP SW SLP075

CYQR;2011-08-07 13:00;CYQR 071300Z 14016KT 12SM FEW008 BKN093 16/14 A2972 RMK SF1AC6 CVCTV CLD EMBD SLP068

CYQR;2011-08-07 14:00;CYQR 071400Z 16012G22KT 10SM FEW003 SCT090 17/14 A2973 RMK SF0AC2 SLP073

CYQR;2011-08-07 14:48;CYQR 071448Z 16016KT 12SM SCT012 BKN090 18/ RMK SF2AC1

CYQR;2011-08-07 15:00;CYQR 071500Z 17015KT 12SM FEW012 FEW090 19/15 A2971 RMK SC1AC1 SLP065

CYQR;2011-08-07 15:31;CYQR 071531Z 18011G17KT 15SM BKN014 20/ RMK SC5

CYQR;2011-08-07 15:41;CYQR 071541Z 17011KT 15SM FEW014 20/ RMK SC2

CYQR;2011-08-07 16:00;CYQR 071600Z 18012KT 15SM FEW015 FEW300 20/16 A2971 RMK SC1CI1 SLP064

CYQR;2011-08-07 17:00;CYQR 071700Z 19008KT 15SM FEW021 23/17 A2970 RMK CU1 SLP061

CYQR;2011-08-07 18:00;CYQR 071800Z 28010G15KT 15SM BKN023 24/18 A2971 RMK CU6 SLP059

CYQR;2011-08-07 19:00;CYQR 071900Z 31020G25KT 15SM BKN028 BKN300 23/17 A2971 RMK CU6CI0 SLP062

CYQR;2011-08-07 20:00;CYQR 072000Z 32020KT 15SM BKN031 24/16 A2972 RMK CU6 SLP064

CYQR;2011-08-07 21:00;CYQR 072100Z 31019G24KT 15SM FEW031 23/15 A2974 RMK CU2 TCU EMBD SLP071

CYQR;2011-08-07 22:00;CYQR 072200Z 33017KT 15SM FEW033CB 23/14 A2974 RMK CB1 CB E SLP072

CYQR;2011-08-07 23:00;CYQR 072300Z 32015G20KT 15SM FEW043 23/12 A2974 RMK CU2 TCU E SLP072

CYQR;2011-08-08 00:00;CYQR 080000Z 32016G21KT 15SM FEW056 23/12 A2974 RMK CU1 CB TOPS E SLP074

CYQR;2011-08-08 01:00;CYQR 080100Z 33014KT 15SM FEW059 21/11 A2975 RMK SC1 SLP075

CYQR;2011-08-08 02:00;CYQR 080200Z 32011KT 15SM FEW092 19/10 A2975 RMK AC1 TCU TOPS S+E SLP077

CYQR;2011-08-08 03:00;CYQR 080300Z 31009KT 15SM FEW094 15/09 A2976 RMK AC2 SLP084

CYQR;2011-08-08 04:00;CYQR 080400Z 31007KT 15SM FEW090 13/08 A2977 RMK AC2 SLP085

CYQR;2011-08-08 05:00;CYQR 080500Z 31007KT 15SM FEW090 11/08 A2977 RMK AC2 SLP086

CYQR;2011-08-08 06:00;CYQR 080600Z 31006KT 15SM SKC 11/08 A2977 RMK SLP086

CYQR;2011-08-08 07:00;CYQR 080700Z 30007KT 15SM SKC 10/07 A2978 RMK SLP087

CYQR;2011-08-08 08:00;CYQR 080800Z 25007KT 15SM SKC 10/07 A2977 RMK SLP084

CYQR;2011-08-08 09:00;CYQR 080900Z 25006KT 15SM SCT074 11/08 A2976 RMK AC4 SLP082

CYQR;2011-08-08 10:00;CYQR 081000Z 25006KT 15SM SCT041 BKN072 11/08 A2974 RMK SC3AC3 SLP075

CYQR;2011-08-08 11:00;CYQR 081100Z 27008KT 15SM SCT047 BKN060 12/09 A2974 RMK SC3SC3 SLP075

CYQR;2011-08-08 12:00;CYQR 081200Z 30013KT 15SM BKN016 BKN027 BKN073 14/11 A2974 RMK SC5SC1AC1 SLP073

CYQR;2011-08-08 12:08;CYQR 081208Z CCA 30015KT 15SM -SHRA BKN016 BKN073 14/ RMK SC6AC1 TCU ASOCTD

CYQR;2011-08-08 12:20;CYQR 081220Z 30017KT 6SM -SHRA BR BKN013 13/ RMK SC7 CVCTV CLD ASOCTD

CYQR;2011-08-08 12:26;CYQR 081226Z 31011G20KT 6SM -SHRA BR BKN008 BKN073 13/ RMK SF6AC2 CVCTV CLD ASOCTD

CYQR;2011-08-08 12:51;CYQR 081251Z 31017KT 15SM -SHRA BKN011 BKN073 13/ RMK SC6AC2 CVCTV CLD ASOCTD

CYQR;2011-08-08 13:00;CYQR 081300Z 31018G26KT 12SM -SHRA BKN011 13/11 A2975 RMK SC7 CVCTV CLD EMBD SLP077

CYQR;2011-08-08 13:24;CYQR 081324Z 32019KT 15SM SCT010 SCT054 13/ RMK SC3SC1

CYQR;2011-08-08 14:00;CYQR 081400Z 32020G25KT 15SM FEW010 FEW043 14/11 A2976 RMK SC1SC2 SLP080

CYQR;2011-08-08 15:00;CYQR 081500Z 31017KT 15SM BKN013 14/11 A2977 RMK SC7 SLP090

CYQR;2011-08-08 15:37;CYQR 081537Z 31015G21KT 15SM OVC009 15/ RMK SC8

CYQR;2011-08-08 15:49;CYQR 081549Z 31016KT 8SM -DZ OVC009 14/ RMK SC8

CYQR;2011-08-08 16:00;CYQR 081600Z 31014G19KT 6SM -DZ OVC007 14/12 A2979 RMK SF8 SLP095

CYQR;2011-08-08 16:28;CYQR 081628Z 32017KT 15SM OVC010 16/ RMK SC8

CYQR;2011-08-08 16:45;CYQR 081645Z 32018G26KT 15SM -SHRA BKN010 16/ RMK SC7

CYQR;2011-08-08 17:00;CYQR 081700Z 32019G24KT 15SM BKN010 17/14 A2979 RMK SC7 SLP096

CYQR;2011-08-08 17:33;CYQR 081733Z 32022KT 15SM BKN016 18/ RMK SC6

CYQR;2011-08-08 17:48;CYQR 081748Z CCA 33023KT 12SM -SHRA BKN016 18/ RMK SC7 CVCTV CLD EMBD

CYQR;2011-08-08 18:00;CYQR 081800Z CCA 33021G31KT 12SM -SHRA FEW003 SCT008 BKN030 17/14 A2980 RMK SF2SC2SC3 TCU CLD EMBD SLP100

CYQR;2011-08-08 18:10;CYQR 081810Z 33020G29KT 15SM -SHRA BKN008 BKN026 19/ RMK SF6SC2 CVCTV CLD EMBD

CYQR;2011-08-08 18:24;CYQR 081824Z 32020G28KT 15SM -SHRA SCT008 BKN014 16/ RMK SF4SC3 CVCTV CLD EMBD

CYQR;2011-08-08 18:34;CYQR 081834Z 32020G25KT 15SM SCT009 BKN012 18/ RMK SF4SC3

CYQR;2011-08-08 19:00;CYQR 081900Z 33023G30KT 15SM BKN012 BKN120 18/14 A2981 RMK SC7AC1 SLP103

CYQR;2011-08-08 19:41;CYQR 081941Z 33017G27KT 15SM BKN016 20/ RMK SC6

CYQR;2011-08-08 20:00;CYQR 082000Z 33020G28KT 15SM BKN020 BKN081 20/14 A2982 RMK SC7AC1 SLP106

CYQR;2011-08-08 21:00;CYQR 082100Z 34020G27KT 15SM SCT027 21/13 A2983 RMK CU4 SLP109

CYQR;2011-08-08 22:00;CYQR 082200Z 33018G26KT 15SM SCT041 21/12 A2984 RMK CU4 SLP112

CYQR;2011-08-08 23:00;CYQR 082300Z 34016G26KT 15SM SCT040 22/13 A2986 RMK CU3 SLP116

CYQR;2011-08-09 00:00;CYQR 090000Z 35017G22KT 15SM FEW041 21/13 A2987 RMK CU2 SLP119

CYQR;2011-08-09 01:00;CYQR 090100Z 36013KT 15SM FEW054 20/12 A2988 RMK CU2 SLP122

CYQR;2011-08-09 02:00;CYQR 090200Z 35008KT 15SM FEW055TCU FEW090 18/12 A2988 RMK TCU1AC1 SLP124

CYQR;2011-08-09 03:00;CYQR 090300Z 34007KT 15SM FEW055 FEW090 15/12 A2990 RMK SC1AC1 SLP134

CYQR;2011-08-09 04:00;CYQR 090400Z 35006KT 15SM FEW055 FEW090 13/11 A2991 RMK SC1AC1 SLP138

CYQR;2011-08-09 05:00;CYQR 090500Z 32004KT 15SM FEW090 13/10 A2992 RMK AC1 SLP139

CYQR;2011-08-09 06:00;CYQR 090600Z 32003KT 15SM SKC 11/09 A2992 RMK SLP142

CYQR;2011-08-09 07:00;CYQR 090700Z 25003KT 15SM SKC 09/08 A2993 RMK SLP144

CYQR;2011-08-09 08:00;CYQR 090800Z 26003KT 15SM SKC 09/07 A2993 RMK SLP144

CYQR;2011-08-09 09:00;CYQR 090900Z 28004KT 15SM SKC 08/06 A2993 RMK SLP144

CYQR;2011-08-09 10:00;CYQR 091000Z 35002KT 15SM SKC 08/06 A2993 RMK SLP144

CYQR;2011-08-09 11:00;CYQR 091100Z 27005KT 15SM SKC 08/06 A2994 RMK SLP146

CYQR;2011-08-09 12:00;CYQR 091200Z 29005KT 15SM FEW090 07/05 A2995 RMK AC1 SLP150

CYQR;2011-08-09 13:00;CYQR 091300Z 23003KT 15SM FEW090 09/07 A2995 RMK AC1 SLP152

CYQR;2011-08-09 14:00;CYQR 091400Z 28003KT 15SM FEW090 14/10 A2995 RMK ACC1 SLP152

CYQR;2011-08-09 15:00;CYQR 091500Z 29004KT 15SM FEW090 18/11 A2995 RMK ACC1 SLP149

CYQR;2011-08-09 16:00;CYQR 091600Z 26004KT 15SM FEW090 21/13 A2995 RMK AC1 SLP148

CYQR;2011-08-09 17:00;CYQR 091700Z 28007KT 15SM FEW090 22/12 A2994 RMK AC1 SLP146

CYQR;2011-08-09 18:00;CYQR 091800Z 33006KT 15SM FEW050 23/12 A2993 RMK CU1 SLP140

CYQR;2011-08-09 19:00;CYQR 091900Z 32004KT 15SM FEW053 23/11 A2992 RMK CU1 SLP136

CYQR;2011-08-09 20:00;CYQR 092000Z 35006KT 15SM FEW061 24/11 A2990 RMK CU1 SLP131

CYQR;2011-08-09 21:00;CYQR 092100Z 30003KT 15SM FEW061 25/11 A2989 RMK CU2 SLP127

CYQR;2011-08-09 22:00;CYQR 092200Z 34004KT 15SM FEW065 25/11 A2988 RMK CU1 SLP124

CYQR;2011-08-09 23:00;CYQR 092300Z 23004KT 15SM FEW068 25/11 A2986 RMK CU1 SLP118

CYQR;2011-08-10 00:00;CYQR 100000Z 02003KT 15SM FEW068 25/11 A2985 RMK CU1 SLP113

CYQR;2011-08-10 01:00;CYQR 100100Z 33002KT 15SM FEW070 25/11 A2985 RMK AC1 SLP114

CYQR;2011-08-10 02:00;CYQR 100200Z 12005KT 15SM FEW070 21/12 A2986 RMK AC1 SLP116

CYQR;2011-08-10 03:00;CYQR 100300Z 12006KT 15SM FEW085 18/12 A2986 RMK AC1 SLP114

CYQR;2011-08-10 04:00;CYQR 100400Z 13005KT 15SM FEW085 18/11 A2986 RMK AC1 SLP116

CYQR;2011-08-10 05:00;CYQR 100500Z 15007KT 15SM FEW075 17/12 A2986 RMK AC2 SLP117

CYQR;2011-08-10 06:00;CYQR 100600Z 21005KT 15SM FEW080 16/12 A2986 RMK AC1 SLP115

CYQR;2011-08-10 07:00;CYQR 100700Z 19002KT 15SM SKC 13/10 A2986 RMK SLP114

CYQR;2011-08-10 08:00;CYQR 100800Z 14004KT 15SM SKC 13/10 A2985 RMK SLP109

CYQR;2011-08-10 09:00;CYQR 100900Z 12005KT 15SM FEW080 12/10 A2984 RMK AC2 SLP109

CYQR;2011-08-10 10:00;CYQR 101000Z 13003KT 15SM FEW010 SCT075 12/10 A2984 RMK SF1AC3 SLP107

CYQR;2011-08-10 11:00;CYQR 101100Z 11005KT 15SM SCT075 11/09 A2983 RMK AC3 SLP106

CYQR;2011-08-10 12:00;CYQR 101200Z CCA 13005KT 15SM FEW071 11/09 A2983 RMK AC2 ACC ASOCTD SLP105

CYQR;2011-08-10 13:00;CYQR 101300Z 12005KT 15SM FEW083 14/11 A2982 RMK ACC2 SLP103

CYQR;2011-08-10 14:00;CYQR 101400Z 13003KT 15SM FEW080 17/13 A2983 RMK ACC1 SLP107

CYQR;2011-08-10 15:00;CYQR 101500Z 00000KT 15SM FEW080 FEW350 19/13 A2983 RMK AC1CI1 CONTRAILS SLP104

CYQR;2011-08-10 16:00;CYQR 101600Z 14002KT 15SM FEW085 FEW110 FEW350 22/14 A2982 RMK AC1AC1CI1 SLP103

CYQR;2011-08-10 17:00;CYQR 101700Z 22004KT 15SM FEW085 FEW110 FEW350 23/15 A2982 RMK AC1AC1CI1 SLP103

CYQR;2011-08-10 18:00;CYQR 101800Z 00000KT 15SM FEW085 FEW110 FEW350 25/15 A2981 RMK AC1AC1CI1 SLP097

CYQR;2011-08-10 19:00;CYQR 101900Z 23002KT 15SM FEW052 FEW110 SCT350 26/13 A2981 RMK CU1AC2CI0 SLP094

CYQR;2011-08-10 20:00;CYQR 102000Z 34005KT 15SM FEW052CB FEW110 SCT350 27/11 A2979 RMK CB2AC1CI0 SLP089

CYQR;2011-08-10 21:00;CYQR 102100Z 33004KT 15SM FEW060CB FEW110 BKN350 27/11 A2978 RMK CB2AC1CI1 PRESFR SLP086

CYQR;2011-08-10 22:00;CYQR 102200Z 33005KT 15SM FEW060CB SCT110 BKN350 27/11 A2976 RMK CB2AC1CI0 SLP081

CYQR;2011-08-10 23:00;CYQR 102300Z 30004KT 15SM FEW066TCU FEW110 BKN350 27/12 A2976 RMK TCU1AC1CI2 CB TOPS DIST SE SLP078

CYQR;2011-08-11 00:00;CYQR 110000Z 36003KT 15SM FEW070CB FEW110 OVC350 26/12 A2975 RMK CB1AC1CI2 CB SE SLP076

CYQR;2011-08-11 01:00;CYQR 110100Z 07006KT 15SM FEW065CB BKN086 OVC350 25/11 A2975 RMK CB2AC4CI1 CB S SLP078

CYQR;2011-08-11 01:52;CYQR 110152Z 10002KT 15SM -SHRA SCT055CB BKN087 24/ RMK CB3AC3 LTGIC SW

CYQR;2011-08-11 01:57;CYQR 110157Z 27017KT 15SM -TSRA BKN055CB BKN081 22/ RMK CB5AC2

CYQR;2011-08-11 02:00;CYQR 110200Z 26031G38KT 15SM -TSRA BKN055CB BKN077 21/12 A2977 RMK CB5AC2 LTGCG WSW SLP084

CYQR;2011-08-11 02:38;CYQR 110238Z CCA 13010G15KT 15SM -SHRA SCT045CB BKN077 OVC320 18/ RETSRA RMK CB4AC3CI0

CYQR;2011-08-11 02:47;CYQR 110247Z 14010KT 15SM FEW045CB BKN077 BKN320 18/ RETSRA RMK CB2AC3CI0

CYQR;2011-08-11 03:00;CYQR 110300Z 11005KT 15SM FEW045CB SCT080 BKN320 18/14 A2978 RETSRA RMK CB2AC2CI0 LTGIC E SLP086

CYQR;2011-08-11 04:00;CYQR 110400Z 10004KT 15SM FEW050 SCT100 BKN300 16/13 A2978 RMK SC2AC2CI1 SLP087

CYQR;2011-08-11 05:00;CYQR 110500Z 02002KT 15SM SCT078 BKN300 15/13 A2979 RMK AC3CI0 SLP089

CYQR;2011-08-11 06:00;CYQR 110600Z 00000KT 15SM FEW078 15/13 A2978 RMK AC2 SLP084

CYQR;2011-08-11 07:00;CYQR 110700Z 14003KT 15SM FEW100 16/13 A2977 RMK AC1 SLP082

CYQR;2011-08-11 08:00;CYQR 110800Z 24003KT 15SM FEW100 14/12 A2977 RMK AC1 SLP082

CYQR;2011-08-11 09:00;CYQR 110900Z 00000KT 15SM FEW100 13/11 A2977 RMK AC1 SLP081

CYQR;2011-08-11 10:00;CYQR 111000Z 10003KT 15SM FEW100 13/11 A2977 RMK AC1 SLP083

CYQR;2011-08-11 11:00;CYQR 111100Z 13004KT 15SM FEW100 FEW300 12/11 A2978 RMK AC1CI0 SLP084

CYQR;2011-08-11 12:00;CYQR 111200Z 17002KT 15SM FEW100 BKN250 13/11 A2979 RMK AC2CI1 SLP089

CYQR;2011-08-11 13:00;CYQR 111300Z 00000KT 15SM FEW100 SCT130 BKN270 13/11 A2979 RMK ACC2AC2CI2 SLP089

CYQR;2011-08-11 14:00;CYQR 111400Z 36005KT 15SM FEW100 BKN270 15/13 A2979 RMK ACC1CI1 CC ASOCTD SLP089

CYQR;2011-08-11 15:00;CYQR 111500Z 29004KT 15SM FEW100 BKN270 18/15 A2980 RMK ACC1CI1 SLP094

CYQR;2011-08-11 16:00;CYQR 111600Z 32003KT 15SM FEW100 BKN270 21/15 A2980 RMK ACC1CI1 CB TOPS DIST W SLP094

CYQR;2011-08-11 17:00;CYQR 111700Z 35005KT 15SM FEW100 BKN270 23/16 A2980 RMK ACC1CI1 CB TOPS DIST W SLP095

CYQR;2011-08-11 18:00;CYQR 111800Z 31007KT 15SM FEW036 FEW100 FEW140 BKN270 24/15 A2981 RMK CU1ACC1AC1CI2 CB TOPS W SLP096

CYQR;2011-08-11 19:00;CYQR 111900Z 32009G15KT 15SM FEW072 FEW100 BKN270 25/15 A2980 RMK CU1ACC1CI2 CB TOPS W SLP094

CYQR;2011-08-11 19:46;CYQR 111946Z 27006KT 15SM -SHRA SCT076 BKN100 BKN270 22/ RMK CU3AC2CI1 CB TOPS W

CYQR;2011-08-11 20:00;CYQR 112000Z 25003KT 15SM -SHRA SCT076 BKN100 BKN270 22/16 A2980 RMK CU3AC2CI1 SLP092

CYQR;2011-08-11 20:17;CYQR 112017Z 26004KT 15SM FEW045CB BKN099 BKN220 22/ RMK CB2AC3CI1

CYQR;2011-08-11 21:00;CYQR 112100Z 28004KT 15SM FEW045CB FEW077 OVC300 23/15 A2978 RMK CB1AC2CI2 SLP089

CYQR;2011-08-11 22:00;CYQR 112200Z 00000KT 15SM FEW050 FEW090 BKN300 26/11 A2978 RMK CU1ACC1CI2 TCU ASOCTD SLP088

CYQR;2011-08-11 23:00;CYQR 112300Z 26004KT 15SM FEW050CB BKN300 26/14 A2976 RMK CB1CI1 SLP083

CYQR;2011-08-12 00:00;CYQR 120000Z 25005KT 15SM FEW050CB BKN300 26/15 A2977 RMK CB2CI1 SLP084

CYQR;2011-08-12 01:00;CYQR 120100Z 32006KT 15SM FEW059CB BKN300 24/15 A2978 RMK CB2CI1 SLP087

CYQR;2011-08-12 02:00;CYQR 120200Z 04011KT 15SM FEW060CB SCT300 22/15 A2980 RMK CB2CI1 SLP092

CYQR;2011-08-12 03:00;CYQR 120300Z 06008G15KT 15SM FEW040CB BKN300 20/13 A2983 RMK CB2CI2 LTGIC NW SLP105

CYQR;2011-08-12 03:44;CYQR 120344Z 28011G19KT 15SM -SHRA SCT030CB BKN069 BKN300 18/ RMK CB3AC2CI0

CYQR;2011-08-12 03:50;CYQR 120350Z 28008G18KT 15SM -TSRA SCT030CB BKN069 18/ RMK CB4AC2 PRESRR

CYQR;2011-08-12 04:00;CYQR 120400Z 33014G20KT 15SM -TSRA BKN030CB BKN069 18/12 A2987 RMK CB5AC2 SLP118

CYQR;2011-08-12 04:39;CYQR 120439Z 06013G19KT 15SM -SHRA SCT030CB BKN075 17/ RETSRA RMK CB3AC4

CYQR;2011-08-12 05:00;CYQR 120500Z 01011KT 15SM -SHRA FEW030CB BKN075 17/13 A2985 RETSRA RMK CB2AC6 SLP109

CYQR;2011-08-12 06:00;CYQR 120600Z 08006KT 15SM FEW025 BKN065 BKN100 17/14 A2984 RMK SC2SC3AC2 SLP105

CYQR;2011-08-12 06:15;CYQR 120615Z 03006KT 15SM -SHRA SCT036 BKN065 17/ RMK SC3SC2

CYQR;2011-08-12 07:00;CYQR 120700Z 28004KT 15SM -SHRA SCT030 BKN054 17/14 A2986 RMK SC4SC3 SLP113

CYQR;2011-08-12 08:00;CYQR 120800Z 30004KT 15SM BKN021 BKN038 16/14 A2987 RMK SC5SC2 SLP116

CYQR;2011-08-12 09:00;CYQR 120900Z 34005KT 15SM SCT032 BKN100 15/13 A2987 RMK SC4AC2 SLP117

CYQR;2011-08-12 10:00;CYQR 121000Z 36005KT 15SM FEW036 SCT087 14/12 A2987 RMK SC2AC2 SLP117

CYQR;2011-08-12 11:00;CYQR 121100Z 34004KT 15SM FEW035CB SCT078 BKN300 14/12 A2989 RMK CB1AC2CI0 LTGIC DIST SE SLP122

CYQR;2011-08-12 12:00;CYQR 121200Z 36005KT 15SM FEW020 SCT075 BKN300 14/12 A2991 RMK SC2AC2CI1 SLP132

CYQR;2011-08-12 13:00;CYQR 121300Z 02007KT 15SM FEW015 BKN056 OVC300 16/14 A2992 RMK CF1SC5CI0 SLP135

CYQR;2011-08-12 14:00;CYQR 121400Z 03008KT 15SM BKN053 OVC300 17/14 A2993 RMK SC3CI0 SLP137

CYQR;2011-08-12 15:00;CYQR 121500Z 05006KT 15SM FEW008 BKN057 OVC300 18/14 A2995 RMK SC1SC5CI0 SLP144

CYQR;2011-08-12 16:00;CYQR 121600Z 06008KT 15SM BKN019 BKN060 BKN300 20/15 A2996 RMK CU5SC1CI0 SLP149

CYQR;2011-08-12 17:00;CYQR 121700Z 05010KT 15SM SCT019 BKN091 BKN300 19/14 A2998 RMK CU4AC2CI1 SLP154

CYQR;2011-08-12 18:00;CYQR 121800Z 04011KT 15SM BKN023 20/14 A2998 RMK CU7 SLP157

CYQR;2011-08-12 19:00;CYQR 121900Z 06015KT 15SM BKN025 BKN300 21/15 A2999 RMK CU6CI0 OBS TAKEN +2 SLP160

CYQR;2011-08-12 20:00;CYQR 122000Z 07011G17KT 15SM SCT029 SCT085 SCT300 21/14 A3000 RMK CU3AC1CI0 SLP162

CYQR;2011-08-12 21:00;CYQR 122100Z 08010G15KT 15SM SCT031 SCT300 21/14 A3001 RMK CU3CI0 SLP167

CYQR;2011-08-12 22:00;CYQR 122200Z 09010G16KT 15SM SCT037 SCT300 21/13 A3001 RMK CU3CI0 SLP167

CYQR;2011-08-12 23:00;CYQR 122300Z 09009KT 15SM FEW039 SCT300 22/13 A3002 RMK CU2CI0 SLP169

CYQR;2011-08-13 00:00;CYQR 130000Z 11007KT 15SM FEW032 BKN300 21/13 A3002 RMK CU1CI0 SLP171

CYQR;2011-08-13 01:00;CYQR 130100Z 12004KT 15SM FEW035 SCT300 21/13 A3003 RMK CU1CI0 SLP175

CYQR;2011-08-13 02:00;CYQR 130200Z 12006KT 15SM FEW080 BKN300 18/13 A3005 RMK AC1CI0 SLP181

CYQR;2011-08-13 03:00;CYQR 130300Z 08006KT 15SM FEW081 SCT300 17/12 A3007 RMK AC1CI0 SLP190

CYQR;2011-08-13 04:00;CYQR 130400Z 11002KT 15SM SCT300 16/12 A3009 RMK CI0 SLP195

CYQR;2011-08-13 05:00;CYQR 130500Z 11005KT 15SM SCT300 15/11 A3010 RMK CI1 SLP197

CYQR;2011-08-13 06:00;CYQR 130600Z 13005KT 15SM FEW300 13/10 A3010 RMK CI1 SLP198

CYQR;2011-08-13 07:00;CYQR 130700Z 14002KT 15SM SKC 13/11 A3010 RMK SLP201

CYQR;2011-08-13 08:00;CYQR 130800Z 13003KT 15SM SKC 12/10 A3010 RMK SLP200

CYQR;2011-08-13 09:00;CYQR 130900Z 12006KT 15SM SKC 11/10 A3010 RMK SLP198

CYQR;2011-08-13 10:00;CYQR 131000Z 13006KT 15SM SKC 11/09 A3010 RMK SLP199

CYQR;2011-08-13 11:00;CYQR 131100Z 13005KT 15SM SKC 10/08 A3011 RMK SLP202

CYQR;2011-08-13 12:00;CYQR 131200Z 15004KT 15SM MIFG SKC 10/09 A3011 RMK SLP204

CYQR;2011-08-13 12:28;CYQR 131228Z 14006KT 15SM BCFG SCT001 11/ RMK SF4 VIS 2 S-NW FG

CYQR;2011-08-13 12:32;CYQR 131232Z 14006KT 2SM BR BKN001 11/ RMK SF5

CYQR;2011-08-13 12:36;CYQR 131236Z 14005KT 1SM BR BKN001 11/ RMK SF6

CYQR;2011-08-13 12:40;CYQR 131240Z 13005KT 3/4SM BR BKN001 11/ RMK SF6

CYQR;2011-08-13 12:44;CYQR 131244Z 14005KT 5/8SM BR BKN001 12/ RMK FG2SF4

CYQR;2011-08-13 12:50;CYQR 131250Z 14003KT 1/2SM FG BKN001 12/ RMK FG3SF2

CYQR;2011-08-13 13:00;CYQR 131300Z 15005KT 1/2SM FG BKN001 12/11 A3012 RMK FG3SF1 SLP207

CYQR;2011-08-13 13:10;CYQR 131310Z 15005KT 3/4SM BR SKC 12/ RMK FG2

CYQR;2011-08-13 13:14;CYQR 131314Z 14005KT 1 1/2SM BR SKC 13/ RMK VIS 5 N-NE

CYQR;2011-08-13 13:26;CYQR 131326Z 15005KT 4SM BR FEW001 13/ RMK SF1

CYQR;2011-08-13 14:00;CYQR 131400Z 15006KT 10SM FEW001 14/13 A3012 RMK SF1 SLP208

CYQR;2011-08-13 15:00;CYQR 131500Z 17007KT 15SM FEW300 18/15 A3011 RMK CI1 SLP204

CYQR;2011-08-13 16:00;CYQR 131600Z 17007KT 15SM FEW024 FEW300 20/14 A3010 RMK CU1CI1 SLP200

CYQR;2011-08-13 17:00;CYQR 131700Z 17007KT 15SM FEW031 FEW300 22/14 A3009 RMK CU1CI0 SLP196

CYQR;2011-08-13 18:00;CYQR 131800Z 16010KT 15SM FEW038 23/15 A3008 RMK CU1 SLP190

CYQR;2011-08-13 19:00;CYQR 131900Z 18011KT 15SM FEW045 23/15 A3006 RMK CU2 SLP185

CYQR;2011-08-13 20:00;CYQR 132000Z 17008KT 15SM SCT055 25/14 A3004 RMK CU3 SLP179

CYQR;2011-08-13 21:00;CYQR 132100Z 19008G15KT 15SM SCT060 24/14 A3002 RMK CU3 SLP170

CYQR;2011-08-13 22:00;CYQR 132200Z 20012KT 15SM SCT060 25/14 A3000 RMK CU3 SLP163

CYQR;2011-08-13 23:00;CYQR 132300Z 20010KT 15SM FEW062 SCT300 25/13 A2998 RMK SC2CI0 SLP159

CYQR;2011-08-14 00:00;CYQR 140000Z 22008KT 15SM FEW067 SCT300 24/15 A2997 RMK CU1CI0 SLP154

CYQR;2011-08-14 01:00;CYQR 140100Z 21007KT 15SM FEW065 SCT300 23/15 A2996 RMK CU1CI1 SLP149

CYQR;2011-08-14 02:00;CYQR 140200Z 18007KT 15SM FEW070 BKN300 21/14 A2995 RMK AC1CI1 SLP146

CYQR;2011-08-14 03:00;CYQR 140300Z 16009KT 15SM FEW300 20/14 A2995 RMK CI0 SLP144

CYQR;2011-08-14 04:00;CYQR 140400Z 16008KT 15SM FEW300 19/14 A2995 RMK CI1 SLP145

CYQR;2011-08-14 05:00;CYQR 140500Z 16009KT 15SM FEW300 18/13 A2994 RMK CI1 SLP141

CYQR;2011-08-14 06:00;CYQR 140600Z 15010KT 15SM FEW300 18/14 A2992 RMK CI1 SLP133

CYQR;2011-08-14 07:00;CYQR 140700Z 14010KT 15SM FEW300 17/14 A2991 RMK CI0 SLP130

CYQR;2011-08-14 08:00;CYQR 140800Z 14010KT 15SM FEW300 16/14 A2990 RMK CI0 SLP127

CYQR;2011-08-14 09:00;CYQR 140900Z 14009KT 15SM FEW110 FEW300 16/14 A2989 RMK AC1CI0 SLP124

CYQR;2011-08-14 10:00;CYQR 141000Z 13009KT 10SM FEW110 FEW300 16/14 A2989 RMK AC1CI1 SLP123

CYQR;2011-08-14 11:00;CYQR 141100Z 13009KT 10SM FEW110 FEW300 15/13 A2987 RMK AC1CI1 SLP118

CYQR;2011-08-14 12:00;CYQR 141200Z 13009KT 8SM FEW080 FEW300 14/13 A2986 RMK AC1CI1 SLP114

CYQR;2011-08-14 13:00;CYQR 141300Z 13008KT 12SM FEW080 BKN300 16/13 A2987 RMK AC1CI2 SLP116

CYQR;2011-08-14 14:00;CYQR 141400Z 14012KT 15SM FEW080 BKN300 17/14 A2986 RMK AC1CI2 SLP112

CYQR;2011-08-14 15:00;CYQR 141500Z 14013KT 10SM FEW014 FEW080 BKN300 20/15 A2984 RMK CF1AC2CI1 SLP105

CYQR;2011-08-14 16:00;CYQR 141600Z 14012KT 15SM FEW024 FEW080 BKN300 22/16 A2982 RMK CF1AC1CI1 SLP101

CYQR;2011-08-14 17:00;CYQR 141700Z 13015KT 15SM SCT300 24/17 A2981 RMK CI0 CONTRAILS SLP095

CYQR;2011-08-14 18:00;CYQR 141800Z 13016KT 15SM BKN300 26/18 A2978 RMK CI0 SLP084

CYQR;2011-08-14 19:00;CYQR 141900Z 14015G20KT 15SM FEW055 BKN320 29/18 A2977 RMK SC1CI0 SLP079

CYQR;2011-08-14 20:00;CYQR 142000Z 16017G22KT 15SM FEW070 FEW140 OVC320 30/15 A2976 RMK ACC1AC1CI0 SLP078

CYQR;2011-08-14 21:00;CYQR 142100Z 16015G21KT 15SM FEW070 SCT140 OVC320 30/16 A2976 RMK AC1AC2CI0 SLP073

CYQR;2011-08-14 22:00;CYQR 142200Z 17010G20KT 15SM FEW070 BKN140 OVC320 28/17 A2976 RMK AC2AC3CI2 SLP073

CYQR;2011-08-14 23:00;CYQR 142300Z 15009G15KT 15SM BKN070 BKN140 OVC320 27/17 A2976 RMK AC5AC2CI1 SLP073

CYQR;2011-08-15 00:00;CYQR 150000Z 13013G20KT 15SM BKN068 BKN140 BKN300 27/17 A2973 RMK AC5AC2CI1 ACC ASOCTD LWR LYR SLP066

CYQR;2011-08-15 01:00;CYQR 150100Z 13011KT 15SM FEW046 BKN140 BKN300 26/16 A2973 RMK SC2AC4CI1 CVCTV CLD EMBD SLP067

CYQR;2011-08-15 02:00;CYQR 150200Z 15014KT 15SM FEW045CB BKN066 BKN300 26/15 A2972 RMK CB2AC4CI2 CB W+E SLP063

CYQR;2011-08-15 02:08;CYQR 150208Z CCA 15013KT 15SM -SHRA FEW025CB BKN066 BKN300 25/ RMK CB2AC4CI1 CB W+E

CYQR;2011-08-15 02:46;CYQR 150246Z 15010KT 15SM SCT042CB OVC084 24/ RMK CB4AC4 LTNG SW-NW

CYQR;2011-08-15 03:00;CYQR 150300Z CCA 15008KT 15SM -SHRA BKN040CB OVC095 25/16 A2974 RMK CB5AC3 LTNG SW-NW SLP070

CYQR;2011-08-15 03:22;CYQR 150322Z 14011KT 15SM -TSRA BKN029CB OVC092 24/ RMK CB5AC3 LTGICCCCG

CYQR;2011-08-15 03:44;CYQR 150344Z 25026G33KT 1/4SM +TSRA OVC029CB 18/ RMK CB8 LTNG ALQDS

CYQR;2011-08-15 03:47;CYQR 150347Z 27016G33KT 3SM TSRA OVC029CB 18/ RMK CB8 LTNG ALQDS

CYQR;2011-08-15 04:00;CYQR 150400Z 33008G20KT 12SM -TSRA SCT029CB OVC092 19/15 A2979 RERA RMK CB4AC4 LTNG E SLP085

CYQR;2011-08-15 04:08;CYQR 150408Z 35009KT 15SM TS SCT029CB OVC090 18/ RMK CB3AC5 LTNG E

CYQR;2011-08-15 04:26;CYQR 150426Z CCA 10007KT 15SM SCT031 OVC100 18/ RETS RMK SC4AC4 /R14/ LTNG DIST NE

CYQR;2011-08-15 05:00;CYQR 150500Z 24005KT 15SM SCT049 OVC100 18/16 A2979 RETS RMK SC4AC3 SLP086

CYQR;2011-08-15 06:00;CYQR 150600Z 09007KT 15SM SCT110 BKN300 17/15 A2977 RMK AC3CI1 SLP081

CYQR;2011-08-15 07:00;CYQR 150700Z 11005KT 15SM FEW110 SCT300 17/15 A2975 RMK AC2CI0 SLP074

CYQR;2011-08-15 08:00;CYQR 150800Z 13007KT 15SM FEW110 16/14 A2973 RMK AC1 SLP067

CYQR;2011-08-15 09:00;CYQR 150900Z 12009KT 15SM FEW300 16/13 A2971 RMK CI0 SLP056

CYQR;2011-08-15 10:00;CYQR 151000Z 13009KT 15SM FEW110 FEW300 16/12 A2971 RMK AC1CI0 SLP056

CYQR;2011-08-15 11:00;CYQR 151100Z 16006KT 15SM SCT110 15/12 A2972 RMK AC2 SLP060

CYQR;2011-08-15 12:00;CYQR 151200Z 16005KT 15SM BKN110 15/13 A2973 RMK AC2 SLP067

CYQR;2011-08-15 13:00;CYQR 151300Z 11004KT 15SM SCT065 BKN100 BKN260 17/14 A2973 RMK SC2AC3CI1 SLP067

CYQR;2011-08-15 14:00;CYQR 151400Z 15009KT 15SM FEW068 FEW100 SCT290 18/16 A2972 RMK AC2AC1CI1 SLP064

CYQR;2011-08-15 15:00;CYQR 151500Z 16009KT 15SM FEW100 FEW160 FEW290 20/17 A2972 RMK ACC1AC1CI1 SLP062

CYQR;2011-08-15 16:00;CYQR 151600Z 15006KT 15SM FEW100 FEW160 BKN290 23/18 A2973 RMK ACC1AC1CI2 SLP065

CYQR;2011-08-15 17:00;CYQR 151700Z 18006KT 15SM BKN059 BKN110 BKN300 24/19 A2975 RMK SC6ACC2CI1 SLP070

CYQR;2011-08-15 18:00;CYQR 151800Z 28007KT 15SM FEW020 BKN070 BKN110 OVC300 23/18 A2977 RMK CU1AC5ACC2CI1 SLP081

CYQR;2011-08-15 19:00;CYQR 151900Z 30013KT 15SM FEW045 BKN080 BKN110 23/15 A2977 RMK SC2AC4ACC2 SLP082

CYQR;2011-08-15 20:00;CYQR 152000Z 31010KT 15SM VCSH FEW036 SCT045 BKN080 OVC110 22/14 A2978 RMK SC2SC2AC2AC2 SLP085

CYQR;2011-08-15 20:12;CYQR 152012Z 33010KT 15SM -SHRA FEW036 SCT045 BKN080 OVC110 21/ RMK SC2SC2AC2AC2

CYQR;2011-08-15 21:00;CYQR 152100Z 04010G15KT 15SM VCSH SCT056 BKN100 22/14 A2972 RMK SC3AC4 ACC EMBD SLP065

CYQR;2011-08-15 22:00;CYQR 152200Z 35009KT 15SM BKN054 BKN100 22/15 A2975 RMK SC6AC1 SLP074

CYQR;2011-08-15 23:00;CYQR 152300Z 30005KT 15SM VCSH BKN054 BKN100 20/15 A2977 RMK SC7ACC1 SHWRS NW + SW SLP082

CYQR;2011-08-16 00:00;CYQR 160000Z 09009KT 15SM FEW051 FEW100 FEW140 23/14 A2973 RMK SC2ACC1AC1 SHWRS SE SLP071

CYQR;2011-08-16 01:00;CYQR 160100Z 00000KT 15SM FEW100 BKN340 21/14 A2974 RMK AC2CI1 TCU EMBD CONTRAILS SLP073

CYQR;2011-08-16 02:00;CYQR 160200Z CCA 29003KT 15SM FEW050CB FEW100 BKN340 19/14 A2974 RMK CB1AC1CI1 CB E SLP072

CYQR;2011-08-16 03:00;CYQR 160300Z 27006KT 15SM FEW100 BKN340 17/14 A2974 RMK AC1CI2 ACC ASOCTD SLP073

CYQR;2011-08-16 04:00;CYQR 160400Z CCA 25003KT 15SM SCT100 BKN340 16/13 A2974 RMK AC3CI1 SLP072

CYQR;2011-08-16 05:00;CYQR 160500Z 00000KT 15SM FEW100 BKN340 15/13 A2972 RMK AC1CI2 SLP067

CYQR;2011-08-16 06:00;CYQR 160600Z 00000KT 15SM FEW100 OVC340 16/13 A2972 RMK AC1CI6 SLP067

CYQR;2011-08-16 07:00;CYQR 160700Z 26006KT 15SM -SHRA FEW060CB SCT088 OVC300 16/13 A2973 RMK CB2AC2CI4 LTGCG SW SLP068

CYQR;2011-08-16 07:11;CYQR 160711Z 26006KT 15SM -TSRA FEW060CB BKN088 OVC300 16/ RMK CB2AC5CI1 LTNG SW

CYQR;2011-08-16 07:32;CYQR 160732Z 25011KT 15SM -SHRA BKN084 OVC120 17/ RETS RMK AC6AC2 CVCTV CLD EMBD

CYQR;2011-08-16 07:39;CYQR 160739Z 25016KT 15SM SCT040 OVC084 17/ RETS RMK SC3AC5

CYQR;2011-08-16 07:47;CYQR 160747Z 25019KT 15SM -SHRA SCT040 OVC081 17/ RETS RMK SC4AC4 CVCTV CLD EMBD

CYQR;2011-08-16 08:00;CYQR 160800Z 25021G26KT 15SM -SHRA SCT040 OVC074 17/13 A2974 RETS RMK SC4AC4 CVCTV CLD EMBD SLP072

CYQR;2011-08-16 08:39;CYQR 160839Z 23016KT 15SM -TSRA SCT031CB OVC066 15/ RMK CB3AC5 LTNG SW

CYQR;2011-08-16 09:00;CYQR 160900Z 25020KT 15SM -TSRA SCT025CB OVC062 15/12 A2977 RMK CB3SC5 LTGCG SW SLP083

CYQR;2011-08-16 09:26;CYQR 160926Z 26013G21KT 8SM -SHRA OVC020CB 14/ RETSRA RMK CB8

CYQR;2011-08-16 10:00;CYQR 161000Z 29010KT 12SM -SHRA OVC017 14/12 A2978 RETSRA RMK SC8 CVCTV CLD EMBD SLP087

CYQR;2011-08-16 11:00;CYQR 161100Z 29010KT 15SM -SHRA BKN015 OVC085 14/12 A2979 RMK SC6AC2 CVCTV CLD EMBD SLP090

CYQR;2011-08-16 11:13;CYQR 161113Z 29009KT 15SM BKN015 OVC028 14/ RMK SC6SC2

CYQR;2011-08-16 11:33;CYQR 161133Z 29011G16KT 15SM BKN012 OVC033 14/ RMK SC7SC1

CYQR;2011-08-16 11:44;CYQR 161144Z 30013KT 15SM BKN009 BKN035 14/ RMK SC6SC1

CYQR;2011-08-16 12:00;CYQR 161200Z 30019KT 15SM BKN009 14/12 A2981 RMK SC7 SLP099

CYQR;2011-08-16 12:12;CYQR 161212Z 30017G22KT 15SM BKN011 14/ RMK SC7

CYQR;2011-08-16 12:30;CYQR 161230Z 31017KT 15SM BKN015 13/ RMK SC7

CYQR;2011-08-16 13:00;CYQR 161300Z 30016G21KT 15SM BKN027 BKN060 13/09 A2984 RMK SC5SC2 SLP107

CYQR;2011-08-16 14:00;CYQR 161400Z 30020G26KT 15SM FEW060 FEW280 13/08 A2985 RMK SC1CI0 SLP111

CYQR;2011-08-16 15:00;CYQR 161500Z 30021G28KT 15SM FEW022 FEW070 14/09 A2986 RMK CF1AC1 SLP120

CYQR;2011-08-16 16:00;CYQR 161600Z 30023G29KT 15SM FEW033 FEW070 16/09 A2988 RMK CU1AC1 SLP124

CYQR;2011-08-16 17:00;CYQR 161700Z 30022G30KT 15SM FEW038 17/08 A2989 RMK CU1 SLP127

CYQR;2011-08-16 18:00;CYQR 161800Z 31023G28KT 15SM BKN046 18/08 A2989 RMK CU6 SLP126

CYQR;2011-08-16 19:00;CYQR 161900Z 29025G31KT 15SM BKN055 18/08 A2989 RMK CU6 SLP128

CYQR;2011-08-16 20:00;CYQR 162000Z 29022G31KT 15SM BKN057 20/08 A2990 RMK CU6 SLP130

CYQR;2011-08-16 21:00;CYQR 162100Z 30025G33KT 15SM SCT059 20/08 A2990 RMK CU3 SLP130

CYQR;2011-08-16 22:00;CYQR 162200Z 31021G28KT 15SM FEW063 21/08 A2991 RMK CU2 SLP131

CYQR;2011-08-16 23:00;CYQR 162300Z 31023G34KT 15SM FEW067 21/07 A2991 RMK CU2 SLP133

CYQR;2011-08-17 00:00;CYQR 170000Z 31019G25KT 15SM FEW058 21/07 A2991 RMK CU1 SLP133

CYQR;2011-08-17 01:00;CYQR 170100Z 30013G20KT 15SM FEW052 20/07 A2991 RMK CU1 SLP132

CYQR;2011-08-17 02:00;CYQR 170200Z 29009KT 15SM FEW052 FEW340 16/08 A2991 RMK SC1CI1 SLP133

CYQR;2011-08-17 03:00;CYQR 170300Z 28007KT 15SM FEW340 12/07 A2992 RMK CI1 SLP143

CYQR;2011-08-17 04:00;CYQR 170400Z 27008KT 15SM SKC 11/06 A2993 RMK SLP146

CYQR;2011-08-17 05:00;CYQR 170500Z 27006KT 15SM SKC 09/05 A2994 RMK SLP149

CYQR;2011-08-17 06:00;CYQR 170600Z 25007KT 15SM SKC 09/05 A2995 RMK SLP152

CYQR;2011-08-17 07:00;CYQR 170700Z 25006KT 15SM SKC 08/04 A2996 RMK SLP153

CYQR;2011-08-17 08:00;CYQR 170800Z 00000KT 15SM SKC 08/04 A2996 RMK SLP154

CYQR;2011-08-17 09:00;CYQR 170900Z 22004KT 15SM SKC 08/05 A2996 RMK SLP155

CYQR;2011-08-17 10:00;CYQR 171000Z 00000KT 15SM SKC 08/05 A2996 RMK SLP156

CYQR;2011-08-17 11:00;CYQR 171100Z 00000KT 15SM SKC 07/04 A2997 RMK SLP159

CYQR;2011-08-17 12:00;CYQR 171200Z 19006KT 15SM SKC 07/04 A2998 RMK SLP161

CYQR;2011-08-17 13:00;CYQR 171300Z 00000KT 15SM FEW003 FEW260 09/06 A2997 RMK ST1CI1 SLP160

CYQR;2011-08-17 14:00;CYQR 171400Z 25002KT 15SM SKC 12/08 A2998 RMK SLP161

CYQR;2011-08-17 15:00;CYQR 171500Z 27003KT 15SM SKC 15/10 A2998 RMK SLP162

CYQR;2011-08-17 16:00;CYQR 171600Z 24003KT 15SM SKC 19/10 A2998 RMK SLP161

CYQR;2011-08-17 17:00;CYQR 171700Z 26003KT 15SM SKC 21/10 A2997 RMK SLP159

CYQR;2011-08-17 18:00;CYQR 171800Z 27003KT 15SM SKC 23/09 A2996 RMK SLP151

CYQR;2011-08-17 19:00;CYQR 171900Z 27004KT 15SM SKC 24/10 A2994 RMK SLP146

CYQR;2011-08-17 20:00;CYQR 172000Z 20002KT 15SM SKC 25/08 A2993 RMK SLP142

CYQR;2011-08-17 21:00;CYQR 172100Z 18003KT 15SM FEW072 25/07 A2991 RMK CF1 SLP135

CYQR;2011-08-17 22:00;CYQR 172200Z 10002KT 15SM FEW065 26/08 A2989 RMK CF1 SLP129

CYQR;2011-08-17 23:00;CYQR 172300Z 28005KT 15SM FEW064 FEW120 26/09 A2987 RMK CF1AC1 SLP121

CYQR;2011-08-18 00:00;CYQR 180000Z 27007KT 15SM FEW068 FEW120 25/08 A2985 RMK CF1AC1 SLP114

CYQR;2011-08-18 01:00;CYQR 180100Z 00000KT 15SM FEW120 26/13 A2984 RMK AC1 FU E SLP110

CYQR;2011-08-18 02:00;CYQR 180200Z 00000KT 15SM FEW120 23/12 A2983 RMK AC1 SLP108

CYQR;2011-08-18 03:00;CYQR 180300Z 13006KT 15SM SKC 19/10 A2983 RMK SLP106

CYQR;2011-08-18 04:00;CYQR 180400Z 13008KT 15SM SKC 16/10 A2982 RMK SLP103

CYQR;2011-08-18 05:00;CYQR 180500Z 16008KT 15SM SKC 15/11 A2982 RMK SLP102

CYQR;2011-08-18 06:00;CYQR 180600Z 15007KT 15SM SKC 16/11 A2981 RMK SLP098

CYQR;2011-08-18 07:00;CYQR 180700Z 14009KT 15SM SKC 14/10 A2980 RMK SLP094

CYQR;2011-08-18 08:00;CYQR 180800Z 15008KT 15SM SKC 14/10 A2979 RMK SLP090

CYQR;2011-08-18 09:00;CYQR 180900Z 17008KT 15SM SKC 13/10 A2978 RMK SLP087

CYQR;2011-08-18 10:00;CYQR 181000Z 15007KT 15SM SKC 12/08 A2977 RMK SLP084

CYQR;2011-08-18 11:00;CYQR 181100Z 11007KT 15SM FEW080 10/08 A2977 RMK AC1 SLP084

CYQR;2011-08-18 12:00;CYQR 181200Z 12007KT 15SM FEW080 FEW140 10/08 A2976 RMK AC1AC2 SLP081

CYQR;2011-08-18 13:00;CYQR 181300Z 11006KT 15SM FEW120 12/09 A2976 RMK AC1 SLP080

CYQR;2011-08-18 14:00;CYQR 181400Z 16002KT 15SM FEW084 15/10 A2977 RMK AC1 SLP084

CYQR;2011-08-18 15:00;CYQR 181500Z 35020G26KT 15SM FEW093 16/10 A2978 RMK AC1 SLP090

CYQR;2011-08-18 16:00;CYQR 181600Z 35022G36KT 15SM FEW024 17/10 A2984 RMK SC2 SLP107

CYQR;2011-08-18 17:00;CYQR 181700Z 02016G24KT 15SM FEW033 FEW089 SCT280 18/09 A2983 RMK SC1AC1CI0 SLP105

CYQR;2011-08-18 18:00;CYQR 181800Z 33016G24KT 15SM FEW051 SCT280 20/10 A2986 RMK CU2CI1 SLP116

CYQR;2011-08-18 19:00;CYQR 181900Z 30021G26KT 15SM FEW044 SCT091 BKN280 19/10 A2988 RMK CU2AC2CI1 SLP122

CYQR;2011-08-18 20:00;CYQR 182000Z 31017G24KT 15SM FEW046 BKN280 21/09 A2989 RMK CU2CI2 SLP124

CYQR;2011-08-18 21:00;CYQR 182100Z 32017G22KT 15SM FEW056 SCT088 BKN280 20/08 A2990 RMK CU2AC1CI1 SLP129

CYQR;2011-08-18 22:00;CYQR 182200Z 32011G20KT 15SM FEW060 SCT100 BKN300 21/08 A2989 RMK CU2AC1CI0 SLP128

CYQR;2011-08-18 23:00;CYQR 182300Z 31015G22KT 15SM FEW060 BKN300 21/07 A2990 RMK CU2CI1 SLP129

CYQR;2011-08-19 00:00;CYQR 190000Z 32015G20KT 15SM FEW070 FEW140 BKN300 20/07 A2990 RMK CU1AC1CI2 SLP132

CYQR;2011-08-19 01:00;CYQR 190100Z 32015KT 15SM FEW072 FEW140 BKN260 19/06 A2991 RMK CU1AC1CI2 SLP135

CYQR;2011-08-19 02:00;CYQR 190200Z CCA 32007KT 15SM FEW072 FEW140 BKN260 16/08 A2992 RMK CU1AC1CI2 SLP138

CYQR;2011-08-19 03:00;CYQR 190300Z 33006KT 15SM BKN260 13/07 A2994 RMK CI2 SLP147

CYQR;2011-08-19 04:00;CYQR 190400Z 30005KT 15SM BKN260 12/06 A2995 RMK CI2 SLP150

CYQR;2011-08-19 05:00;CYQR 190500Z 31007KT 15SM BKN260 11/06 A2995 RMK CI2 SLP150

CYQR;2011-08-19 06:00;CYQR 190600Z 28004KT 15SM BKN260 09/05 A2996 RMK CI2 SLP154

CYQR;2011-08-19 07:00;CYQR 190700Z 31005KT 15SM BKN260 08/04 A2997 RMK CI2 SLP156

CYQR;2011-08-19 08:00;CYQR 190800Z 29004KT 15SM SCT260 07/04 A2999 RMK CI2 SLP164

CYQR;2011-08-19 09:00;CYQR 190900Z 27006KT 15SM SCT260 08/05 A2999 RMK CI2 SLP166

CYQR;2011-08-19 10:00;CYQR 191000Z 32005KT 15SM SCT260 08/05 A3001 RMK CI2 SLP172

CYQR;2011-08-19 11:00;CYQR 191100Z 30007KT 15SM FEW120 SCT260 07/04 A3002 RMK AC2CI1 SLP176

CYQR;2011-08-19 12:00;CYQR 191200Z 29006KT 15SM FEW120 06/03 A3004 RMK AC2 SLP183

CYQR;2011-08-19 13:00;CYQR 191300Z 30006KT 15SM FEW085 07/05 A3005 RMK AC1 SLP187

CYQR;2011-08-19 14:00;CYQR 191400Z 29005KT 15SM FEW085 10/07 A3006 RMK AC1 SLP191

CYQR;2011-08-19 15:00;CYQR 191500Z 32006KT 15SM FEW090 FEW150 12/08 A3007 RMK AC1AC1 SLP196

CYQR;2011-08-19 16:00;CYQR 191600Z 30008KT 15SM FEW028 FEW300 15/08 A3007 RMK CF1CI0 SLP195

CYQR;2011-08-19 17:00;CYQR 191700Z 33008KT 15SM FEW036 SCT300 16/07 A3006 RMK CU1CI0 SLP193

CYQR;2011-08-19 18:00;CYQR 191800Z 31008KT 15SM FEW024 SCT300 18/07 A3006 RMK CU2CI0 SLP190

CYQR;2011-08-19 19:00;CYQR 191900Z 34008KT 15SM FEW050 BKN300 18/08 A3005 RMK CU2CI0 SLP186

CYQR;2011-08-19 20:00;CYQR 192000Z 30009KT 15SM SCT048 SCT300 19/08 A3004 RMK CU3CI1 SLP184

CYQR;2011-08-19 21:00;CYQR 192100Z 34005KT 15SM SCT056 20/08 A3003 RMK CU4 SLP178

CYQR;2011-08-19 22:00;CYQR 192200Z 28010KT 15SM SCT063 21/08 A3001 RMK CU4 SLP173

CYQR;2011-08-19 23:00;CYQR 192300Z 33006KT 15SM FEW056 SCT300 21/07 A2999 RMK CU2CI0 SLP167

CYQR;2011-08-20 00:00;CYQR 200000Z 30006KT 15SM FEW055 FEW074 BKN300 19/07 A2999 RMK CU2AC1CI1 SLP167

CYQR;2011-08-20 01:00;CYQR 200100Z 29007KT 15SM FEW055 FEW077 BKN300 18/08 A2999 RMK CU2AC1CI1 SLP166

CYQR;2011-08-20 02:00;CYQR 200200Z 28008KT 15SM FEW055 FEW077 BKN300 15/07 A3000 RMK CU2AC1CI1 SLP171

CYQR;2011-08-20 03:00;CYQR 200300Z 02010KT 15SM FEW080 BKN300 13/06 A3002 RMK AC2CI2 SLP178

CYQR;2011-08-20 04:00;CYQR 200400Z 04002KT 15SM FEW080 BKN300 12/07 A3003 RMK AC2CI2 SLP180

CYQR;2011-08-20 05:00;CYQR 200500Z 23003KT 15SM SCT033 BKN058 11/08 A3004 RMK SC4SC2 SLP182

CYQR;2011-08-20 06:00;CYQR 200600Z 21005KT 15SM FEW033 BKN070 09/06 A3002 RMK SC2AC1 SLP178

CYQR;2011-08-20 07:00;CYQR 200700Z 28002KT 15SM FEW030 SCT070 08/05 A3002 RMK SC1AC2 SLP177

CYQR;2011-08-20 08:00;CYQR 200800Z 26004KT 15SM SKC 07/04 A3002 RMK SLP178

CYQR;2011-08-20 09:00;CYQR 200900Z 26003KT 15SM FEW260 07/05 A3002 RMK CI0 SLP177

CYQR;2011-08-20 10:00;CYQR 201000Z 27003KT 15SM FEW260 07/04 A3002 RMK CI0 SLP175

CYQR;2011-08-20 11:00;CYQR 201100Z 35002KT 15SM FEW090 SCT260 07/04 A3002 RMK AC2CI0 SLP175

CYQR;2011-08-20 12:00;CYQR 201200Z 28002KT 15SM FEW040 SCT090 BKN260 06/04 A3002 RMK CU2AC2CI0 SLP177

CYQR;2011-08-20 13:00;CYQR 201300Z 26002KT 15SM FEW040 SCT090 OVC280 08/06 A3003 RMK CU2AC2CI4 SLP182

CYQR;2011-08-20 14:00;CYQR 201400Z 31003KT 15SM FEW050 SCT090 BKN300 10/07 A3004 RMK SC1AC3CI2 SLP184

CYQR;2011-08-20 15:00;CYQR 201500Z 30006KT 15SM FEW060 SCT100 BKN300 14/08 A3004 RMK SC1AC2CI2 SLP183

CYQR;2011-08-20 16:00;CYQR 201600Z 30009KT 15SM FEW100 SCT300 17/09 A3004 RMK AC1CI2 SLP183

CYQR;2011-08-20 17:00;CYQR 201700Z 29007KT 15SM FEW100 SCT300 18/09 A3004 RMK AC2CI1 SLP183

CYQR;2011-08-20 18:00;CYQR 201800Z 33008G15KT 15SM FEW048 BKN270 20/09 A3004 RMK CU1CI2 SLP181

CYQR;2011-08-20 19:00;CYQR 201900Z 34011G17KT 15SM FEW048 BKN270 20/08 A3003 RMK CU2CI2 SLP178

CYQR;2011-08-20 20:00;CYQR 202000Z 30009KT 15SM FEW060 FEW120 BKN300 21/08 A3002 RMK CU2AC1CI2 SLP175

CYQR;2011-08-20 21:00;CYQR 202100Z 32009G16KT 15SM FEW064 BKN140 BKN300 21/08 A3000 RMK CU2AC2CI2 SLP169

CYQR;2011-08-20 22:00;CYQR 202200Z 32012G17KT 15SM FEW060 FEW140 OVC300 21/08 A3000 RMK CU1AC1CI0 AC TR SLP167

CYQR;2011-08-20 23:00;CYQR 202300Z 33014KT 15SM FEW056 FEW080 OVC300 21/07 A2998 RMK CU1AC1CI0 SLP162

CYQR;2011-08-21 00:00;CYQR 210000Z 35010KT 15SM FEW052 FEW080 BKN300 21/08 A2998 RMK CU1AC1CI0 SLP163

CYQR;2011-08-21 01:00;CYQR 210100Z 35008KT 15SM FEW080 SCT290 19/07 A2998 RMK AC1CI0 SLP164

CYQR;2011-08-21 02:00;CYQR 210200Z 03006KT 15SM FEW080 FEW290 16/07 A2998 RMK AC1CI1 CONTRAILS SLP164

CYQR;2011-08-21 03:00;CYQR 210300Z 07006KT 15SM FEW080 FEW290 15/07 A2999 RMK AC1CI1 SLP164

CYQR;2011-08-21 04:00;CYQR 210400Z 10005KT 15SM FEW080 13/07 A2999 RMK AC1 SLP165

CYQR;2011-08-21 05:00;CYQR 210500Z 15006KT 15SM BKN080 13/08 A2998 RMK AC6 SLP162

CYQR;2011-08-21 06:00;CYQR 210600Z 16007KT 15SM BKN080 14/08 A2996 RMK AC7 SLP153

CYQR;2011-08-21 07:00;CYQR 210700Z 18008KT 15SM BKN075 14/08 A2996 RMK AC7 SLP152

CYQR;2011-08-21 08:00;CYQR 210800Z 18007KT 15SM FEW075 11/07 A2996 RMK AC2 SLP150

CYQR;2011-08-21 09:00;CYQR 210900Z 18006KT 15SM SKC 10/06 A2995 RMK SLP148

CYQR;2011-08-21 10:00;CYQR 211000Z 17008KT 15SM SKC 11/06 A2994 RMK SLP146

CYQR;2011-08-21 11:00;CYQR 211100Z 18007KT 15SM FEW070 11/06 A2994 RMK AC1 SLP145

CYQR;2011-08-21 12:00;CYQR 211200Z 18006KT 15SM FEW070 FEW250 09/05 A2993 RMK AC1CI1 SLP144

CYQR;2011-08-21 13:00;CYQR 211300Z 15005KT 15SM FEW140 FEW250 12/06 A2994 RMK AC1CI0 SLP145

CYQR;2011-08-21 14:00;CYQR 211400Z 19005KT 15SM FEW250 15/08 A2994 RMK CI1 SLP145

CYQR;2011-08-21 15:00;CYQR 211500Z 24008KT 15SM FEW270 19/09 A2993 RMK CI1 CONTRAILS SLP141

CYQR;2011-08-21 16:00;CYQR 211600Z 25004KT 15SM FEW270 21/10 A2992 RMK CI1 SLP138

CYQR;2011-08-21 17:00;CYQR 211700Z 26007KT 15SM FEW300 24/11 A2991 RMK CI1 SLP135

CYQR;2011-08-21 18:00;CYQR 211800Z 25005KT 15SM SKC 26/10 A2989 RMK SLP124

CYQR;2011-08-21 19:00;CYQR 211900Z 26002KT 15SM SKC 27/10 A2988 RMK SLP119

CYQR;2011-08-21 20:00;CYQR 212000Z 28006KT 15SM SKC 28/10 A2985 RMK SLP111

CYQR;2011-08-21 21:00;CYQR 212100Z 21005KT 15SM SKC 29/10 A2983 RMK SLP103

CYQR;2011-08-21 22:00;CYQR 212200Z 21005KT 15SM SKC 30/12 A2981 RMK SLP095

CYQR;2011-08-21 23:00;CYQR 212300Z 23003KT 15SM SKC 30/14 A2979 RMK SLP089

CYQR;2011-08-22 00:00;CYQR 220000Z 22010KT 15SM SKC 28/12 A2977 RMK SLP085

CYQR;2011-08-22 01:00;CYQR 220100Z 18006KT 15SM SKC 26/15 A2976 RMK SLP080

CYQR;2011-08-22 02:00;CYQR 220200Z 17004KT 15SM SKC 24/14 A2976 RMK SLP080

CYQR;2011-08-22 03:00;CYQR 220300Z 15005KT 15SM SKC 21/13 A2977 RMK SLP081

CYQR;2011-08-22 04:00;CYQR 220400Z 33004KT 15SM SKC 19/12 A2976 RMK SLP080

CYQR;2011-08-22 05:00;CYQR 220500Z 09008KT 15SM SKC 17/12 A2976 RMK SLP077

CYQR;2011-08-22 06:00;CYQR 220600Z 12009KT 15SM SKC 16/11 A2973 RMK SLP068

CYQR;2011-08-22 07:00;CYQR 220700Z 11007KT 15SM SKC 14/11 A2973 RMK SLP068

CYQR;2011-08-22 08:00;CYQR 220800Z 13007KT 15SM SKC 14/11 A2974 RMK SLP069

CYQR;2011-08-22 09:00;CYQR 220900Z 14007KT 15SM SKC 13/10 A2971 RMK SLP061

CYQR;2011-08-22 10:00;CYQR 221000Z 14009KT 15SM SKC 14/11 A2970 RMK SLP056

CYQR;2011-08-22 11:00;CYQR 221100Z 13005KT 15SM FEW280 13/10 A2970 RMK CI1 SLP055

CYQR;2011-08-22 12:00;CYQR 221200Z 12006KT 15SM FEW280 12/10 A2969 RMK CI1 SLP055

CYQR;2011-08-22 13:00;CYQR 221300Z 12007KT 15SM FEW280 14/11 A2970 RMK CI1 SLP057

CYQR;2011-08-22 14:00;CYQR 221400Z 13005KT 15SM FEW280 17/12 A2969 RMK CI1 SLP055

CYQR;2011-08-22 15:00;CYQR 221500Z 15005KT 15SM FEW220 21/14 A2968 RMK CI1 SLP051

CYQR;2011-08-22 16:00;CYQR 221600Z 16004KT 15SM FEW220 25/16 A2967 RMK CI1 SLP046

CYQR;2011-08-22 17:00;CYQR 221700Z 21006KT 15SM FEW220 28/15 A2966 RMK CI1 SLP043

CYQR;2011-08-22 18:00;CYQR 221800Z 25007KT 15SM SKC 31/14 A2964 RMK SLP034

CYQR;2011-08-22 19:00;CYQR 221900Z 26010G16KT 15SM FEW060 32/12 A2962 RMK SC1 SLP029

CYQR;2011-08-22 20:00;CYQR 222000Z 27017KT 15SM FEW060 33/11 A2961 RMK SC1 SLP024

CYQR;2011-08-22 21:00;CYQR 222100Z 27015KT 15SM FEW060 33/10 A2960 RMK SC1 SLP019

CYQR;2011-08-22 22:00;CYQR 222200Z 26012G17KT 15SM FEW060 33/11 A2958 RMK SC1 SLP015

CYQR;2011-08-22 23:00;CYQR 222300Z 27013KT 15SM FEW060 33/10 A2958 RMK SC1 SLP013

CYQR;2011-08-23 00:00;CYQR 230000Z 28008KT 15SM FEW070 31/12 A2958 RMK AC1 SLP014

CYQR;2011-08-23 01:00;CYQR 230100Z 27006KT 15SM FEW070 28/14 A2957 RMK AC1 SLP013

CYQR;2011-08-23 02:00;CYQR 230200Z 25007KT 15SM FEW070 23/14 A2957 RMK AC1 SLP013

CYQR;2011-08-23 03:00;CYQR 230300Z 26006KT 15SM FEW075 21/10 A2958 RMK AC1 SLP015

CYQR;2011-08-23 04:00;CYQR 230400Z 21007KT 15SM SKC 19/10 A2957 RMK SLP014

CYQR;2011-08-23 05:00;CYQR 230500Z 21005KT 15SM FEW075 17/10 A2957 RMK AC2 SLP012

CYQR;2011-08-23 06:00;CYQR 230600Z 14002KT 15SM FEW075 18/09 A2956 RMK AC2 SLP006

CYQR;2011-08-23 07:00;CYQR 230700Z 26006KT 15SM FEW075 18/09 A2956 RMK AC1 SLP005

CYQR;2011-08-23 08:00;CYQR 230800Z 22004KT 15SM FEW075 16/09 A2955 RMK AC1 SLP001

CYQR;2011-08-23 09:00;CYQR 230900Z 22002KT 15SM SKC 13/08 A2955 RMK SLP001

CYQR;2011-08-23 10:00;CYQR 231000Z 25005KT 15SM SKC 14/09 A2955 RMK SLP001

CYQR;2011-08-23 11:00;CYQR 231100Z 24008KT 15SM SKC 13/08 A2955 RMK SLP003

CYQR;2011-08-23 12:00;CYQR 231200Z 25011KT 15SM BKN070 BKN140 16/08 A2956 RMK AC5AC1 SLP004

CYQR;2011-08-23 13:00;CYQR 231300Z 25010KT 15SM FEW075 BKN300 18/09 A2955 RMK AC2CI1 SLP002

CYQR;2011-08-23 14:00;CYQR 231400Z 24012KT 15SM FEW075 BKN300 22/10 A2953 RMK AC1CI0 SLP996

CYQR;2011-08-23 15:00;CYQR 231500Z 26021G28KT 15SM FEW080 BKN300 25/10 A2951 RMK AC1CI0 SLP989

CYQR;2011-08-23 16:00;CYQR 231600Z 28018G24KT 15SM FEW085 BKN300 25/11 A2951 RMK AC1CI1 SLP990

CYQR;2011-08-23 17:00;CYQR 231700Z 30021G26KT 15SM FEW090 BKN300 27/12 A2953 RMK AC1CI0 SLP996

CYQR;2011-08-23 18:00;CYQR 231800Z 31023G28KT 15SM FEW100 SCT300 29/13 A2955 RMK AC1CI0 SLP003

CYQR;2011-08-23 19:00;CYQR 231900Z 31024G34KT 15SM SCT120 BKN300 28/10 A2957 RMK AC2CI1 SLP010

CYQR;2011-08-23 20:00;CYQR 232000Z 31024G34KT 15SM FEW065 FEW300 29/12 A2961 RMK CU1CI0 SLP021

CYQR;2011-08-23 21:00;CYQR 232100Z 34024G32KT 15SM FEW065 FEW300 28/12 A2964 RMK CU1CI0 OBS TAKEN +04 SLP038

CYQR;2011-08-23 22:00;CYQR 232200Z 34019G29KT 15SM FEW055 27/14 A2967 RMK CU2 SLP048

CYQR;2011-08-23 23:00;CYQR 232300Z 32020G31KT 15SM FEW062 FEW150 SCT300 26/11 A2970 RMK CU2AC1CI0 TCU ASOCTD SLP056

CYQR;2011-08-24 00:00;CYQR 240000Z 32022G30KT 15SM FEW060 FEW300 25/10 A2972 RMK CU1CI0 CB ASOCTD E SLP064

CYQR;2011-08-24 01:00;CYQR 240100Z 32020G27KT 15SM FEW300 23/08 A2975 RMK CI0 SLP073

CYQR;2011-08-24 02:00;CYQR 240200Z 31009KT 15SM FEW300 19/08 A2978 RMK CI1 SLP082

CYQR;2011-08-24 03:00;CYQR 240300Z 30009KT 15SM SKC 16/07 A2981 RMK SLP094

CYQR;2011-08-24 04:00;CYQR 240400Z 30008KT 15SM SKC 13/06 A2982 RMK SLP099

CYQR;2011-08-24 05:00;CYQR 240500Z 31009KT 15SM SKC 12/06 A2984 RMK SLP105

CYQR;2011-08-24 06:00;CYQR 240600Z 32007KT 15SM SKC 14/06 A2987 RMK SLP114

CYQR;2011-08-24 07:00;CYQR 240700Z 31010KT 15SM SKC 12/05 A2989 RMK SLP121

CYQR;2011-08-24 08:00;CYQR 240800Z 30009KT 15SM SKC 10/05 A2990 RMK SLP125

CYQR;2011-08-24 09:00;CYQR 240900Z 29009KT 15SM SKC 10/05 A2992 RMK SLP135

CYQR;2011-08-24 10:00;CYQR 241000Z 30010KT 15SM SKC 10/05 A2994 RMK SLP141

CYQR;2011-08-24 11:00;CYQR 241100Z 32009KT 15SM SKC 09/05 A2996 RMK SLP146

CYQR;2011-08-24 12:00;CYQR 241200Z 30007KT 15SM SKC 07/04 A2999 RMK SLP161

CYQR;2011-08-24 13:00;CYQR 241300Z 27006KT 15SM SKC 08/05 A3001 RMK SLP169

CYQR;2011-08-24 14:00;CYQR 241400Z 31006KT 15SM SKC 13/08 A3002 RMK SLP171

CYQR;2011-08-24 15:00;CYQR 241500Z 28006KT 15SM SKC 16/09 A3003 RMK SLP175

CYQR;2011-08-24 16:00;CYQR 241600Z 28004KT 15SM SKC 19/10 A3004 RMK SLP179

CYQR;2011-08-24 17:00;CYQR 241700Z 30007KT 15SM FEW210 21/10 A3004 RMK CI1 SLP178

CYQR;2011-08-24 18:00;CYQR 241800Z 26008KT 15SM FEW210 22/09 A3003 RMK CI1 SLP175

CYQR;2011-08-24 19:00;CYQR 241900Z 27007KT 15SM FEW250 24/08 A3001 RMK CI1 SLP167

CYQR;2011-08-24 20:00;CYQR 242000Z 18002KT 15SM SCT250 24/07 A2998 RMK CI1 SLP159

CYQR;2011-08-24 21:00;CYQR 242100Z 17002KT 15SM FEW250 26/08 A2996 RMK CI1 SLP149

CYQR;2011-08-24 22:00;CYQR 242200Z 00000KT 15SM FEW250 27/08 A2994 RMK CI1 SLP143

CYQR;2011-08-24 23:00;CYQR 242300Z 00000KT 15SM FEW220 27/08 A2992 RMK CI1 SLP137

CYQR;2011-08-25 00:00;CYQR 250000Z 17004KT 15SM SKC 26/11 A2991 RMK SLP134

CYQR;2011-08-25 01:00;CYQR 250100Z 18005KT 15SM SKC 24/12 A2990 RMK SLP131

CYQR;2011-08-25 02:00;CYQR 250200Z 13008KT 15SM SKC 21/09 A2989 RMK SLP128

CYQR;2011-08-25 03:00;CYQR 250300Z 14012KT 15SM SKC 21/08 A2988 RMK SLP121

CYQR;2011-08-25 04:00;CYQR 250400Z 15011KT 15SM SKC 20/09 A2988 RMK SLP120

CYQR;2011-08-25 05:00;CYQR 250500Z 15009KT 15SM SKC 18/08 A2987 RMK SLP117

CYQR;2011-08-25 06:00;CYQR 250600Z 15010KT 15SM SKC 18/08 A2986 RMK SLP114

CYQR;2011-08-25 07:00;CYQR 250700Z 15010KT 15SM SKC 17/08 A2985 RMK SLP109

CYQR;2011-08-25 08:00;CYQR 250800Z 15012KT 15SM SKC 17/08 A2983 RMK SLP104

CYQR;2011-08-25 09:00;CYQR 250900Z 15013KT 15SM SKC 16/08 A2981 RMK SLP095

CYQR;2011-08-25 10:00;CYQR 251000Z 14011KT 15SM SKC 15/08 A2980 RMK SLP090

CYQR;2011-08-25 11:00;CYQR 251100Z 14013KT 15SM FEW080 15/08 A2977 RMK AC1 SLP083

CYQR;2011-08-25 12:00;CYQR 251200Z 15011KT 15SM FEW080 FEW250 16/09 A2977 RMK AC1CI0 SLP081

CYQR;2011-08-25 13:00;CYQR 251300Z 16014KT 15SM FEW080 FEW250 16/09 A2977 RMK AC1CI1 SLP081

CYQR;2011-08-25 14:00;CYQR 251400Z 15011G17KT 15SM FEW100 SCT300 17/10 A2977 RMK AC1CI0 SLP080

CYQR;2011-08-25 15:00;CYQR 251500Z 17010KT 15SM SCT300 20/12 A2976 RMK CI1 SLP076

CYQR;2011-08-25 16:00;CYQR 251600Z 21007KT 15SM FEW100 BKN300 24/13 A2975 RMK AC1CI0 SLP073

CYQR;2011-08-25 17:00;CYQR 251700Z 27005KT 15SM FEW100 BKN300 27/14 A2974 RMK AC1CI2 SLP071

CYQR;2011-08-25 18:00;CYQR 251800Z 29012KT 15SM FEW090 BKN300 29/13 A2974 RMK AC2CI2 SLP067

CYQR;2011-08-25 19:00;CYQR 251900Z 30013KT 15SM SCT090 BKN300 27/13 A2975 RMK AC3CI2 SLP070

CYQR;2011-08-25 20:00;CYQR 252000Z 33018KT 15SM BKN120 OVC300 28/14 A2976 RMK AC5CI2 SLP072

CYQR;2011-08-25 21:00;CYQR 252100Z 33013KT 15SM FEW120 BKN160 OVC300 26/15 A2978 RMK AC2AS3CI2 SLP085

CYQR;2011-08-25 22:00;CYQR 252200Z 36014KT 15SM FEW120 BKN160 BKN300 27/14 A2980 RMK AC2AC3CI1 SLP091

CYQR;2011-08-25 23:00;CYQR 252300Z 36018KT 15SM FEW120 FEW160 BKN300 26/12 A2982 RMK AC1AS1CI2 SLP096

CYQR;2011-08-26 00:00;CYQR 260000Z 01017G24KT 15SM FEW120 BKN300 25/09 A2984 RMK AC1CI2 SLP105

CYQR;2011-08-26 01:00;CYQR 260100Z 02006KT 15SM FEW120 BKN300 23/10 A2987 RMK AC1CI2 SLP114

CYQR;2011-08-26 02:00;CYQR 260200Z 01005KT 15SM FEW080 FEW120 BKN300 20/12 A2988 RMK ACC1AC1CI5 SLP118

CYQR;2011-08-26 03:00;CYQR 260300Z 35007KT 15SM FEW080 FEW120 FEW300 17/11 A2991 RMK AC1AC1CI1 SLP133

CYQR;2011-08-26 04:00;CYQR 260400Z 35008KT 15SM FEW300 16/10 A2994 RMK CI0 SLP140

CYQR;2011-08-26 05:00;CYQR 260500Z 34008KT 15SM FEW300 15/10 A2996 RMK CI1 SLP149

CYQR;2011-08-26 06:00;CYQR 260600Z 36010KT 15SM FEW096 17/09 A2999 RMK AC1 SLP153

CYQR;2011-08-26 07:00;CYQR 260700Z 36009KT 15SM FEW100 FEW300 16/07 A3001 RMK AC1CI0 SLP160

CYQR;2011-08-26 08:00;CYQR 260800Z 35008KT 15SM FEW300 13/05 A3003 RMK CI0 SLP166

CYQR;2011-08-26 09:00;CYQR 260900Z 35009KT 15SM FEW083 FEW300 11/05 A3005 RMK AC1CI0 SLP179

CYQR;2011-08-26 10:00;CYQR 261000Z 34008KT 15SM SKC 10/05 A3007 RMK SLP186

CYQR;2011-08-26 11:00;CYQR 261100Z 34008KT 15SM FEW100 08/05 A3009 RMK AC1 SLP192

CYQR;2011-08-26 12:00;CYQR 261200Z 31007KT 15SM FEW100 FEW300 07/03 A3011 RMK AC1CI1 SLP203

CYQR;2011-08-26 13:00;CYQR 261300Z 27006KT 15SM FEW100 07/03 A3013 RMK AC1 SLP211

CYQR;2011-08-26 14:00;CYQR 261400Z 30004KT 15SM SKC 11/06 A3015 RMK SLP216

CYQR;2011-08-26 15:00;CYQR 261500Z 36007KT 15SM SKC 15/07 A3015 RMK SLP218

CYQR;2011-08-26 16:00;CYQR 261600Z 36004KT 15SM FEW100 17/08 A3016 RMK AC1 SLP222

CYQR;2011-08-26 17:00;CYQR 261700Z 02006KT 15SM FEW120 19/08 A3016 RMK AC1 SLP222

CYQR;2011-08-26 18:00;CYQR 261800Z 36003KT 15SM FEW120 FEW300 20/08 A3016 RMK AC1CI0 SLP219

CYQR;2011-08-26 19:00;CYQR 261900Z 32004KT 15SM FEW120 20/08 A3015 RMK AC1 SLP216

CYQR;2011-08-26 20:00;CYQR 262000Z 34004KT 15SM FEW120 FEW350 22/07 A3014 RMK AC1CI1 SLP212

CYQR;2011-08-26 21:00;CYQR 262100Z 32010KT 15SM FEW120 FEW350 23/08 A3013 RMK AC1CI1 SLP209

CYQR;2011-08-26 22:00;CYQR 262200Z 32006KT 15SM FEW300 23/07 A3012 RMK CI0 SLP206

CYQR;2011-08-26 23:00;CYQR 262300Z 34005KT 15SM FEW300 23/07 A3011 RMK CI0 SLP203

CYQR;2011-08-27 00:00;CYQR 270000Z 00000KT 15SM FEW120 FEW300 23/08 A3010 RMK AC1CI1 SLP201

CYQR;2011-08-27 01:00;CYQR 270100Z 35003KT 15SM FEW120 FEW300 21/07 A3008 RMK AC1CI0 SLP196

CYQR;2011-08-27 02:00;CYQR 270200Z 09005KT 15SM FEW060 FEW090 FEW120 SCT300 18/08 A3009 RMK SC1AC1AC1CI1 CU + ACC ASOCTD SLP198

CYQR;2011-08-27 03:00;CYQR 270300Z CCA 10004KT 15SM SCT100 BKN300 18/08 A3010 RMK AC3CI2 SLP202

CYQR;2011-08-27 04:00;CYQR 270400Z 09006KT 15SM SCT100 OVC300 17/09 A3010 RMK AC3CI3 SLP202

CYQR;2011-08-27 05:00;CYQR 270500Z 11004KT 15SM BKN095 OVC300 16/09 A3011 RMK AC5CI3 SLP203

CYQR;2011-08-27 06:00;CYQR 270600Z 13006KT 15SM FEW031 BKN100 OVC300 16/08 A3010 RMK SC2AC3CI3 SLP197

CYQR;2011-08-27 07:00;CYQR 270700Z 11008KT 15SM SCT095 OVC300 17/08 A3009 RMK AC3CI5 SLP193

CYQR;2011-08-27 08:00;CYQR 270800Z 13009KT 15SM BKN095 BKN300 16/08 A3008 RMK AC5CI2 SLP192

CYQR;2011-08-27 09:00;CYQR 270900Z 13009KT 15SM BKN093 16/09 A3006 RMK AC5 SLP183

CYQR;2011-08-27 10:00;CYQR 271000Z 13005KT 15SM BKN100 BKN300 14/09 A3007 RMK AC5CI1 SLP186

CYQR;2011-08-27 11:00;CYQR 271100Z 11007KT 15SM SCT100 14/09 A3006 RMK AC3 SLP183

CYQR;2011-08-27 12:00;CYQR 271200Z 13008KT 15SM FEW100 FEW300 14/09 A3005 RMK AC2CI0 ACC ASOCTD SLP182

CYQR;2011-08-27 13:00;CYQR 271300Z 13009KT 15SM FEW100 14/10 A3004 RMK AC2 ACC ASOCTD SLP178

CYQR;2011-08-27 14:00;CYQR 271400Z 13008KT 15SM FEW100 17/11 A3004 RMK AC1 SLP178

CYQR;2011-08-27 15:00;CYQR 271500Z 14010KT 15SM FEW060 FEW300 19/11 A3004 RMK SC1CI1 SLP175

CYQR;2011-08-27 16:00;CYQR 271600Z 14011KT 15SM FEW060 21/11 A3003 RMK SC1 SLP172

CYQR;2011-08-27 17:00;CYQR 271700Z 16013G18KT 15SM FEW060 FEW300 23/13 A3001 RMK SC1CI1 SLP167

CYQR;2011-08-27 18:00;CYQR 271800Z 18008KT 15SM FEW110 FEW300 25/14 A2999 RMK AC1CI1 SLP158

CYQR;2011-08-27 19:00;CYQR 271900Z 18005KT 15SM FEW090 FEW140 SCT300 25/13 A2998 RMK AC1AC2CI2 SLP153

CYQR;2011-08-27 20:00;CYQR 272000Z 18002KT 15SM FEW090 FEW140 BKN300 26/13 A2996 RMK AC2AC1CI2 SLP148

CYQR;2011-08-27 21:00;CYQR 272100Z 12004KT 15SM SCT090 BKN140 BKN300 27/14 A2995 RMK AC3AC2CI1 SLP143

CYQR;2011-08-27 22:00;CYQR 272200Z CCA 09004KT 15SM SCT092 BKN140 BKN300 25/15 A2995 RMK AC4AC2CI1 CVCTV CLD EMBD SLP142

CYQR;2011-08-27 23:00;CYQR 272300Z 09005KT 15SM SCT071 BKN130 OVC300 26/15 A2994 RMK AC3AC3CI1 CVCTV CLD EMBD SLP138

CYQR;2011-08-27 23:50;CYQR 272350Z 34005KT 8SM -SHRA SCT071 BKN130 OVC300 24/ RMK AC3AC3CI1

CYQR;2011-08-28 00:00;CYQR 280000Z 01006KT 8SM -SHRA SCT071 BKN130 OVC300 24/15 A2996 RMK AC3AC3CI1 CVCTV CLD EMBD LTGCG DIST W SLP150

CYQR;2011-08-28 01:00;CYQR 280100Z 20007KT 12SM -SHRA SCT021 BKN098 BKN300 21/13 A2994 RMK SC2AC4CI1 CVCTV CLD EMBD SLP142

CYQR;2011-08-28 01:25;CYQR 280125Z 21007KT 15SM VCSH SCT021 BKN092 BKN300 19/ RMK SC2AC4CI0

CYQR;2011-08-28 02:00;CYQR 280200Z 15005KT 15SM SCT030 BKN250 19/14 A2993 RMK SC3CI1 SLP138

CYQR;2011-08-28 03:00;CYQR 280300Z CCA 18002KT 15SM FEW030 BKN120 BKN250 19/13 A2994 RMK SC2AC4CI1 OCNL LTGIC DIST SE SLP140

CYQR;2011-08-28 04:00;CYQR 280400Z 17006KT 15SM BKN120 BKN250 18/14 A2993 RMK AC5CI0 LTG DIST SE OBS TAKEN -07 SLP139

CYQR;2011-08-28 04:17;CYQR 280417Z 18002KT 15SM TS BKN058CB BKN120 OVC250 18/ RMK CB5AC2CI1 LTGIC W

CYQR;2011-08-28 04:35;CYQR 280435Z 17004KT 15SM -SHRA BKN048 19/ RETS RMK SC7 LTG DIST SE

CYQR;2011-08-28 05:00;CYQR 280500Z 23005KT 15SM FEW024 BKN049 BKN120 OVC250 17/13 A2992 RETS RMK SF0SC5AC2CI0 CONT LTG DIST SE OBS TAKEN +03 SLP136

CYQR;2011-08-28 06:00;CYQR 280600Z 33003KT 15SM SCT120 16/12 A2993 RMK AC3 SLP136

CYQR;2011-08-28 07:00;CYQR 280700Z 33007KT 15SM FEW035 15/11 A2993 RMK SC1 SLP136

CYQR;2011-08-28 08:00;CYQR 280800Z 31004KT 15SM FEW030 15/12 A2994 RMK SC1 SLP139

CYQR;2011-08-28 09:00;CYQR 280900Z 30004KT 15SM FEW030 13/10 A2995 RMK SC0 SLP143

CYQR;2011-08-28 10:00;CYQR 281000Z 34003KT 15SM SKC 12/10 A2995 RMK SLP145

CYQR;2011-08-28 11:00;CYQR 281100Z 33005KT 15SM FEW050 10/08 A2996 RMK SC1 SLP148

CYQR;2011-08-28 12:00;CYQR 281200Z 32005KT 15SM FEW050 10/08 A2998 RMK SC1 CU ASOCTD SLP157

CYQR;2011-08-28 13:00;CYQR 281300Z 34006KT 15SM FEW050 13/11 A3000 RMK SC1 SLP165

CYQR;2011-08-28 14:00;CYQR 281400Z 04008KT 15SM FEW050 17/13 A3001 RMK SC1 SLP167

CYQR;2011-08-28 15:00;CYQR 281500Z 05002KT 15SM SKC 20/14 A3000 RMK SLP162

CYQR;2011-08-28 16:00;CYQR 281600Z 33002KT 15SM SKC 23/15 A3000 RMK SLP163

CYQR;2011-08-28 17:00;CYQR 281700Z 03005KT 15SM SKC 26/13 A3000 RMK SLP163

CYQR;2011-08-28 18:00;CYQR 281800Z 34006KT 15SM SKC 27/11 A3000 RMK SLP160

CYQR;2011-08-28 19:00;CYQR 281900Z 32009KT 15SM SKC 28/11 A3000 RMK SLP158

CYQR;2011-08-28 20:00;CYQR 282000Z 35007G15KT 15SM FEW065 28/12 A2998 RMK CF1 SLP154

CYQR;2011-08-28 21:00;CYQR 282100Z 30009KT 15SM FEW065 29/10 A2997 RMK CF1 SLP151

CYQR;2011-08-28 22:00;CYQR 282200Z 34007KT 15SM FEW080 29/10 A2996 RMK CU1 SLP147

CYQR;2011-08-28 23:00;CYQR 282300Z 30010KT 15SM FEW080 29/09 A2995 RMK CU1 SLP143

CYQR;2011-08-29 00:00;CYQR 290000Z 32005KT 15SM FEW080 28/11 A2994 RMK CU1 SLP142

CYQR;2011-08-29 01:00;CYQR 290100Z 30005KT 15SM FEW080 26/13 A2993 RMK AC1 SLP139

CYQR;2011-08-29 02:00;CYQR 290200Z 36007KT 15SM FEW055 23/11 A2993 RMK SC1 SLP139

CYQR;2011-08-29 03:00;CYQR 290300Z 05008KT 15SM FEW050 21/12 A2995 RMK SC1 SLP141

CYQR;2011-08-29 04:00;CYQR 290400Z 04009KT 15SM SKC 21/11 A2995 RMK OBS TAKEN -04 SLP142

CYQR;2011-08-29 05:00;CYQR 290500Z 06006KT 15SM SKC 18/10 A2995 RMK SLP143

CYQR;2011-08-29 06:00;CYQR 290600Z 09009KT 15SM FEW035 19/10 A2996 RMK SC2 SLP143

CYQR;2011-08-29 07:00;CYQR 290700Z 08008KT 15SM FEW035 18/10 A2996 RMK SC2 SLP142

CYQR;2011-08-29 08:00;CYQR 290800Z 09009KT 15SM FEW035 17/09 A2995 RMK SC2 SLP139

CYQR;2011-08-29 09:00;CYQR 290900Z 11006KT 15SM FEW030 16/09 A2995 RMK SC1 SLP141

CYQR;2011-08-29 10:00;CYQR 291000Z 10007KT 15SM BKN086 17/09 A2994 RMK AC3 SLP137

CYQR;2011-08-29 11:00;CYQR 291100Z 10008KT 15SM BKN086 17/09 A2994 RMK AC7 SLP137

CYQR;2011-08-29 12:00;CYQR 291200Z 10010KT 15SM FEW036 FEW085 17/08 A2990 RMK CU1AC2 SLP124

CYQR;2011-08-29 13:00;CYQR 291300Z 11016G21KT 15SM FEW040TCU SCT100 17/09 A2988 RMK TCU2AC1 SLP117

CYQR;2011-08-29 14:00;CYQR 291400Z 11016KT 15SM FEW070TCU SCT100 19/10 A2987 RMK TCU2AC2 SLP114

CYQR;2011-08-29 15:00;CYQR 291500Z 12014KT 15SM SCT060 SCT100 BKN300 21/11 A2986 RMK SC2AC1CI1 TCU ASOCTD SLP111

CYQR;2011-08-29 16:00;CYQR 291600Z 12016G24KT 15SM FEW060 SCT120 BKN300 24/13 A2983 RMK SC2AC1CI0 TCU ASOCTD SLP101

CYQR;2011-08-29 17:00;CYQR 291700Z 13021KT 15SM FEW060 SCT120 BKN300 24/14 A2981 RMK SC2AC1CI0 SLP094

CYQR;2011-08-29 18:00;CYQR 291800Z CCA 14021G29KT 15SM FEW065 SCT120 BKN300 26/14 A2978 RMK SC2AC2CI0 TCU ASOCTD SLP081

CYQR;2011-08-29 19:00;CYQR 291900Z 14021G28KT 15SM FEW065 SCT120 BKN300 27/15 A2975 RMK SC2AC2CI0 SLP071

CYQR;2011-08-29 20:00;CYQR 292000Z 14022G28KT 15SM FEW090 SCT120 BKN300 27/15 A2972 RMK AC2AC2CI1 ACC ASOCTD SLP063

CYQR;2011-08-29 21:00;CYQR 292100Z 15022G30KT 15SM FEW080 FEW120 BKN300 31/17 A2968 RMK CU2AC1CI0 TCU ASOCTD E SLP046

CYQR;2011-08-29 22:00;CYQR 292200Z 19015G24KT 15SM FEW075 SCT120 BKN300 31/17 A2966 RMK CU2AC1CI0 TCU ASOCTD E SLP039

CYQR;2011-08-29 23:00;CYQR 292300Z 21015KT 15SM FEW075TCU SCT120 BKN300 31/16 A2964 RMK TCU2AC1CI0 SLP034

CYQR;2011-08-30 00:00;CYQR 300000Z 20015G25KT 15SM BKN080CB BKN120 BKN300 29/16 A2963 RMK CB5AC2CI0 SLP030

CYQR;2011-08-30 01:00;CYQR 300100Z 20013KT 15SM FEW045CB BKN079 OVC300 25/14 A2964 RMK CB2AC3CI0 SLP035

CYQR;2011-08-30 02:00;CYQR 300200Z 21012KT 15SM FEW045 BKN120 OVC300 23/14 A2966 RMK CU1AC4CI1 CB TOP DIST NE SLP039

CYQR;2011-08-30 03:00;CYQR 300300Z 20010KT 15SM FEW120 BKN300 22/14 A2967 RMK AC1CI2 SLP048

CYQR;2011-08-30 04:00;CYQR 300400Z 16011KT 15SM SCT083 BKN300 22/14 A2970 RMK AC2CI4 OBS TAKEN -08 SLP057

CYQR;2011-08-30 05:00;CYQR 300500Z 16012KT 15SM FEW090 SCT280 22/14 A2970 RMK AC1CI2 SLP056

CYQR;2011-08-30 06:00;CYQR 300600Z 17009KT 15SM FEW090 BKN280 20/14 A2970 RMK AC1CI2 SLP055

CYQR;2011-08-30 07:00;CYQR 300700Z 17011KT 15SM FEW090 BKN280 20/14 A2969 RMK AC1CI2 SLP050

CYQR;2011-08-30 08:00;CYQR 300800Z 17013KT 15SM SCT120 BKN280 19/13 A2967 RMK AC3CI2 SLP046

CYQR;2011-08-30 09:00;CYQR 300900Z 16010G16KT 15SM BKN120 BKN280 19/14 A2967 RMK AC6CI1 SLP042

CYQR;2011-08-30 10:00;CYQR 301000Z 16008G15KT 15SM FEW040CB SCT075 18/13 A2969 RMK CB2AC1 LTGCG W SLP047

CYQR;2011-08-30 11:00;CYQR 301100Z 16017KT 15SM SCT080 17/13 A2967 RMK AC3 SLP043

CYQR;2011-08-30 12:00;CYQR 301200Z 16013G18KT 15SM SCT080 BKN120 BKN260 17/13 A2967 RMK AC3AC2CI0 SLP044

CYQR;2011-08-30 13:00;CYQR 301300Z 17014G19KT 15SM FEW080 BKN120 BKN260 17/13 A2968 RMK AC2AC3CI2 ACC ASOCTD SLP047

CYQR;2011-08-30 14:00;CYQR 301400Z 18013KT 15SM FEW087 BKN120 BKN260 17/13 A2969 RMK AC2AC3CI1 ACC ASOCTD SLP050

CYQR;2011-08-30 15:00;CYQR 301500Z 17013KT 15SM SCT095 BKN140 BKN300 19/13 A2968 RMK AC3AC3CI1 SLP050

CYQR;2011-08-30 16:00;CYQR 301600Z 19011KT 15SM FEW055 SCT080 BKN140 OVC300 20/13 A2969 RMK CU1AC3AC2CI1 ACC ACOCTD SH W SLP053

CYQR;2011-08-30 17:00;CYQR 301700Z 19009G15KT 15SM FEW090 BKN140 BKN300 21/14 A2968 RMK AC2AC3CI1 ACC ASOCTD SLP051

CYQR;2011-08-30 18:00;CYQR 301800Z 19017KT 15SM FEW085 BKN140 BKN160 BKN300 24/15 A2966 RMK AC2AC3AC1CI1 ACC ASOCTD SHWRS E SLP042

CYQR;2011-08-30 19:00;CYQR 301900Z 18013G18KT 15SM FEW090 SCT150 BKN300 26/15 A2965 RMK AC2AC2CI0 CB N SLP039

CYQR;2011-08-30 20:00;CYQR 302000Z 21013G18KT 15SM FEW050 FEW091 FEW150 FEW300 28/15 A2964 RMK CU1ACC1AC1CI1 TCU ASOCTD N SLP036

CYQR;2011-08-30 21:00;CYQR 302100Z 23007KT 15SM FEW055 FEW150 FEW300 29/15 A2963 RMK CU1ACC1CI1 SLP031

CYQR;2011-08-30 22:00;CYQR 302200Z 19006KT 15SM FEW055 FEW150 SCT300 29/15 A2962 RMK CU1ACC2CI0 SLP026

CYQR;2011-08-30 23:00;CYQR 302300Z 21008KT 15SM FEW065 FEW150 BKN300 29/16 A2961 RMK CU2ACC1CI1 SLP024

CYQR;2011-08-31 00:00;CYQR 310000Z 23007KT 15SM FEW065 SCT140 BKN300 27/16 A2961 RMK CU2ACC1CI0 SLP025

CYQR;2011-08-31 01:00;CYQR 310100Z 29010KT 15SM FEW065 SCT084 BKN300 26/15 A2962 RMK CU2AC1CI0 SLP029

CYQR;2011-08-31 02:00;CYQR 310200Z 30007KT 15SM VCSH FEW065CB SCT300 22/14 A2963 RMK CB2CI1 CB NE-E-SE SLP033

CYQR;2011-08-31 03:00;CYQR 310300Z 00000KT 15SM SCT062 BKN300 22/14 A2966 RMK SC3CI1 TCU ASOCTD SLP045

CYQR;2011-08-31 04:00;CYQR 310400Z 19005KT 15SM SCT062 20/14 A2966 RMK SC2 OBS TAKEN -08 SLP045

CYQR;2011-08-31 05:00;CYQR 310500Z 34009KT 15SM FEW060 SCT280 18/15 A2969 RMK SC1CI0 SLP053

CYQR;2011-08-31 06:00;CYQR 310600Z 35007KT 15SM FEW065 16/14 A2970 RMK SC1 SLP057

CYQR;2011-08-31 07:00;CYQR 310700Z 34009KT 15SM FEW065 SCT240 16/14 A2971 RMK SC1CI2 SLP061

CYQR;2011-08-31 08:00;CYQR 310800Z 35008KT 15SM OVC120 16/14 A2972 RMK AC8 SLP063

CYQR;2011-08-31 09:00;CYQR 310900Z 29009KT 15SM SCT010 BKN028 OVC120 16/14 A2974 RMK SC2SC3AC2 SLP070

CYQR;2011-08-31 10:00;CYQR 311000Z 34006KT 15SM BKN035 OVC150 15/13 A2972 RMK SC5AC3 SLP064

CYQR;2011-08-31 10:20;CYQR 311020Z 33012KT 15SM BKN008 BKN035 16/ RMK SF3SC2

CYQR;2011-08-31 11:00;CYQR 311100Z 35009KT 15SM BKN009 BKN035 BKN110 15/13 A2975 RMK SF3SC2AC2 SLP071

CYQR;2011-08-31 12:00;CYQR 311200Z 01011KT 15SM FEW006 BKN035 BKN110 15/12 A2974 RMK SF1SC5AC1 SLP071

CYQR;2011-08-31 13:00;CYQR 311300Z 27004KT 15SM SCT035 BKN110 BKN300 14/12 A2979 RMK SC3AC2CI1 SLP086

CYQR;2011-08-31 13:39;CYQR 311339Z 00000KT 15SM SCT011 BKN035 BKN110 BKN300 15/ RMK SC3SC2AC1CI0

CYQR;2011-08-31 14:00;CYQR 311400Z 35005KT 15SM BKN011 BKN035 BKN300 15/12 A2978 RMK SC5SC2CI0 SLP083

CYQR;2011-08-31 15:00;CYQR 311500Z 34005KT 15SM FEW015 FEW040 SCT120 BKN300 17/13 A2978 RMK CU1SC1AC1CI1 SLP087

CYQR;2011-08-31 16:00;CYQR 311600Z 35004KT 15SM VCSH BKN088 OVC300 17/12 A2979 RMK AC5CI2 ACC EMBD SLP088

CYQR;2011-08-31 17:00;CYQR 311700Z 03006KT 15SM FEW040 BKN120 BKN300 19/14 A2976 RMK SC2AC4CI1 ACC ASOCTD SLP081

CYQR;2011-08-31 18:00;CYQR 311800Z 03006KT 15SM SCT040 BKN090 OVC300 19/14 A2977 RMK SC4AC2CI1 ACC ASOCTD SLP085

CYQR;2011-08-31 18:03;CYQR 311803Z 01005KT 12SM -RA SCT040 BKN090 OVC300 19/ RMK SC4AC2CI1 ACC ASOCTD

CYQR;2011-08-31 19:00;CYQR 311900Z 00000KT 5SM -RA BR BKN031 OVC100 19/16 A2978 RMK SC6AC2 SLP088

CYQR;2011-08-31 20:00;CYQR 312000Z 01006KT 10SM -SHRA SCT011 BKN040 OVC100 17/15 A2978 RMK SF1SC6AC2 ACC ASOCTD SLP089

CYQR;2011-08-31 20:22;CYQR 312022Z 03010KT 15SM BKN040 BKN100 BKN300 19/ RMK SC5AC1CI1 ACC ASOCTD SHWRS E-SE

CYQR;2011-08-31 21:00;CYQR 312100Z 05009KT 15SM FEW020 SCT040 BKN120 BKN300 21/17 A2973 RMK CU1SC2AC3CI0 SLP070

CYQR;2011-08-31 22:00;CYQR 312200Z 07008KT 15SM FEW020 FEW120 BKN300 22/16 A2971 RMK CU1AC1CI2 SLP066

CYQR;2011-08-31 23:00;CYQR 312300Z 02010KT 15SM BKN024 BKN140 BKN320 22/16 A2972 RMK CU6AC1CI1 SLP068

CYQR;2011-09-01 01:00;CYQR 010100Z 02019G25KT 15SM FEW033 BKN081 OVC300 17/12 A2973 RMK SC2AC3CI2 SLP073

CYQR;2011-09-01 02:00;CYQR 010200Z 01015G21KT 15SM FEW045 BKN075 OVC300 16/12 A2972 RMK SC2AC4CI1 LTGIC W SLP069

CYQR;2011-09-01 02:30;CYQR 010230Z 01019G26KT 15SM -SHRA SCT020CB OVC065 16/ RMK CB3SC5 LTGIC S-NW

CYQR;2011-09-01 03:00;CYQR 010300Z 33022G29KT 15SM -TSRA SCT015CB OVC061 14/12 A2975 RMK CB4SC4 LTGICCG S-NW PRESRR SLP082

CYQR;2011-09-01 03:16;CYQR 010316Z 35017G24KT 8SM +TSRA BKN010CB OVC061 14/ RMK CB6SC2 PRESRR

CYQR;2011-09-01 03:22;CYQR 010322Z 35017G22KT 10SM -TSRA SCT015CB OVC061 14/ RERA RMK CB4SC4 PRESRR

CYQR;2011-09-01 03:37;CYQR 010337Z 34017KT 12SM SHRA SCT015CB OVC061 14/ RETSRA RMK CB3SC5

CYQR;2011-09-01 03:40;CYQR 010340Z 34014G19KT 12SM TSRA SCT015CB OVC061 14/ RERA RMK CB4SC4

CYQR;2011-09-01 04:00;CYQR 010400Z 02011G19KT 15SM -SHRA FEW015CB OVC064 14/ A2979 RETSRA RMK CB2SC6 SLP094

CYQR;2011-09-01 04:09;CYQR 010409Z 03018KT 15SM -TSRA SCT013CB OVC064 14/ RMK CB3SC5

CYQR;2011-09-01 04:34;CYQR 010434Z 05021KT 15SM -SHRA FEW017CB OVC064 14/ RETS RMK CB2SC6

CYQR;2011-09-01 05:00;CYQR 010500Z 36015G20KT 15SM SCT008 OVC070 14/ A2969 RETS RMK SF4AC4 SLP061

CYQR;2011-09-01 05:31;CYQR 010531Z 01015G20KT 15SM BKN008 OVC070 14/ RMK SC6AC2

CYQR;2011-09-01 06:00;CYQR 010600Z 35019KT 15SM OVC007 14/ A2969 RMK SC8 SLP058

CYQR;2011-09-01 07:00;CYQR 010700Z 35017KT 15SM OVC010 14/ A2974 RMK SC8 SLP075

CYQR;2011-09-01 08:00;CYQR 010800Z 34014KT 15SM SCT012 OVC028 14/ A2975 RMK SC4SC4 SLP079

CYQR;2011-09-01 09:00;CYQR 010900Z 34016KT 15SM OVC005 13/ A2976 RMK SC8 SLP083

CYQR;2011-09-01 09:45;CYQR 010945Z 34013KT 15SM OVC010 13/ RMK SC8

CYQR;2011-09-01 10:00;CYQR 011000Z 34011G16KT 15SM OVC014 13/ A2979 RMK SC8 SLP092

CYQR;2011-09-01 10:27;CYQR 011027Z 34010KT 15SM BKN017 OVC051 13/ RMK SC6SC2

CYQR;2011-09-01 11:00;CYQR 011100Z 34014KT 15SM FEW017 BKN047 OVC073 13/ A2981 RMK SC2SC4AC2 SLP098

CYQR;2011-09-01 12:00;CYQR 011200Z 32012KT 15SM BKN010 OVC028 13/11 A2984 RMK SC7SC1 SLP110

CYQR;2011-09-01 13:00;CYQR 011300Z 34011G16KT 15SM BKN012 BKN032 12/10 A2986 RMK SC6SC2 SLP118

CYQR;2011-09-01 14:00;CYQR 011400Z 34012KT 15SM BKN010 BKN032 BKN067 12/09 A2990 RMK SF5SC1AC2 SLP129

CYQR;2011-09-01 15:00;CYQR 011500Z 35013KT 15SM SCT012 BKN067 13/09 A2991 RMK CU2AC5 SLP136

CYQR;2011-09-01 16:00;CYQR 011600Z 32011KT 15SM SCT015 BKN040 OVC063 14/10 A2992 RMK CU2SC5SC1 SLP141

CYQR;2011-09-01 17:00;CYQR 011700Z 32009KT 15SM SCT017 BKN050 14/09 A2993 RMK CU4SC3 SLP145

CYQR;2011-09-01 18:00;CYQR 011800Z 34012KT 15SM FEW022 FEW059 FEW160 16/09 A2992 RMK CU1SC1AC1 SLP140

CYQR;2011-09-01 19:00;CYQR 011900Z 34011G16KT 15SM FEW038 FEW070 FEW160 BKN300 17/08 A2992 RMK CU1AC1AC1CI0 CC ASOCTD SLP141

CYQR;2011-09-01 20:00;CYQR 012000Z 33010KT 15SM FEW042 BKN080 BKN300 17/06 A2992 RMK CU1AC3CI0 CC ASOCTD SLP140

CYQR;2011-09-01 21:00;CYQR 012100Z 33008G15KT 15SM FEW044 BKN077 BKN300 17/06 A2991 RMK CU1AC2CI0 CC ASOCTD SLP138

CYQR;2011-09-01 22:00;CYQR 012200Z 33007KT 15SM FEW051 BKN074 BKN130 17/06 A2991 RMK CU1AC6AC1 SLP137

CYQR;2011-09-01 23:00;CYQR 012300Z 29006KT 15SM FEW040 BKN058 BKN130 17/06 A2992 RMK CU1SC6AC1 SLP140

CYQR;2011-09-02 00:00;CYQR 020000Z 28006KT 15SM FEW048 BKN065 BKN130 16/07 A2991 RMK CU1AC6AC1 SLP139

CYQR;2011-09-02 01:00;CYQR 020100Z 27005KT 15SM FEW050 BKN076 BKN130 14/09 A2991 RMK CU2AC3AC1 SLP137

CYQR;2011-09-02 02:00;CYQR 020200Z 23006KT 15SM BKN084 14/08 A2991 RMK AC6 SLP138

CYQR;2011-09-02 03:00;CYQR 020300Z 25006KT 15SM BKN086 14/08 A2992 RMK AC7 SLP142

CYQR;2011-09-02 04:00;CYQR 020400Z 26006KT 15SM BKN097 13/09 A2991 RMK AC7 SLP140

CYQR;2011-09-02 05:00;CYQR 020500Z 25006KT 15SM BKN093 12/08 A2992 RMK AC6 SLP141

CYQR;2011-09-02 06:00;CYQR 020600Z 24006KT 15SM FEW090 10/06 A2991 RMK AC2 SLP140

CYQR;2011-09-02 07:00;CYQR 020700Z 23004KT 15SM FEW090 09/06 A2990 RMK AC2 SLP137

CYQR;2011-09-02 08:00;CYQR 020800Z 21003KT 15SM FEW086 08/05 A2989 RMK AC1 SLP134

CYQR;2011-09-02 09:00;CYQR 020900Z 20005KT 15SM FEW086 08/05 A2989 RMK AC1 SLP132

CYQR;2011-09-02 10:00;CYQR 021000Z 20003KT 15SM FEW090 07/05 A2988 RMK AC1 SLP130

CYQR;2011-09-02 11:00;CYQR 021100Z 18007KT 15SM FEW090 08/05 A2987 RMK AC1 SLP127

CYQR;2011-09-02 12:00;CYQR 021200Z 14006KT 15SM FEW100 BKN250 08/05 A2986 RMK AC2CI1 SLP125

CYQR;2011-09-02 13:00;CYQR 021300Z 14006KT 15SM FEW040 BKN073 OVC250 09/06 A2986 RMK SC1AC4CI2 SLP123

CYQR;2011-09-02 14:00;CYQR 021400Z 15007KT 15SM FEW030 BKN100 BKN280 10/07 A2984 RMK SC2AC6CI1 SLP117

CYQR;2011-09-02 15:00;CYQR 021500Z 14008KT 15SM FEW030 BKN100 BKN280 12/08 A2981 RMK SC1AC6CI1 SLP106

CYQR;2011-09-02 16:00;CYQR 021600Z 15010G15KT 15SM BKN075 BKN280 15/10 A2981 RMK AC6CI1 SLP104

CYQR;2011-09-02 17:00;CYQR 021700Z 15010KT 15SM FEW050 BKN075 BKN120 15/10 A2978 RMK SC1AC6AC1 ACC ASOCTD SLP097

CYQR;2011-09-02 18:00;CYQR 021800Z 15012G17KT 15SM VCSH FEW070 BKN081 BKN120 16/11 A2976 RMK ACC1AC6AC1 SLP087

CYQR;2011-09-02 19:00;CYQR 021900Z 15011G17KT 15SM VCSH FEW025 OVC091 17/11 A2975 RMK CU1AC7 ACC EMBD SLP084

CYQR;2011-09-02 20:00;CYQR 022000Z 21013KT 15SM VCSH FEW032 BKN095 OVC120 19/10 A2974 RMK CU1AC7AC1 ACC EMBD SLP080

CYQR;2011-09-02 21:00;CYQR 022100Z 23011G17KT 15SM FEW036TCU BKN095 BKN120 20/10 A2972 RMK TCU1AC4AC1 ACC ASOCTD VIRGA SLP072

CYQR;2011-09-02 22:00;CYQR 022200Z 30031G41KT 15SM -TSRA BKN040CB BKN095 BKN120 16/08 A2973 RMK CB6AC1AC1 LTGCG W-NW CB OVRHD + NE SLP077

CYQR;2011-09-02 23:00;CYQR 022300Z 03012KT 15SM -TSRA BKN021CB BKN120 BKN360 12/09 A2972 RMK CB6AC1CI1 OCNL LTG E CB MVG E CB DIST SW-W SLP074

CYQR;2011-09-02 23:11;CYQR 022311Z 00000KT 15SM SCT021CB BKN120 BKN360 13/ RETS RMK CB3AC3CI1 CB DIST SW-W + NE

CYQR;2011-09-03 00:00;CYQR 030000Z 26005KT 15SM FEW025CB BKN120 BKN360 13/10 A2975 RETS RMK CB2AC3CI1 CB + SHWRS S PRES UNSTDY SLP086

CYQR;2011-09-03 01:00;CYQR 030100Z 24011KT 15SM SCT025CB BKN083 BKN360 13/10 A2977 RMK CB3AC2CI2 SLP095

CYQR;2011-09-03 01:36;CYQR 030136Z 27016G25KT 15SM -SHRA FEW040CB BKN081 OVC320 13/ RMK CB2AC2CI2

CYQR;2011-09-03 02:00;CYQR 030200Z 26012G18KT 15SM FEW040CB BKN081 BKN320 12/09 A2978 RMK CB2AC3CI1 SLP097

CYQR;2011-09-03 02:29;CYQR 030229Z 26009KT 15SM -SHRA SCT012 BKN040CB OVC320 12/ RMK SC3CB2CI2

CYQR;2011-09-03 03:00;CYQR 030300Z 24011KT 15SM -SHRA FEW012 BKN047 11/09 A2979 RMK SC2SC5 SLP101

CYQR;2011-09-03 03:49;CYQR 030349Z 29011KT 15SM FEW026CB SCT073 11/ RMK CB2AC2 LTGIC W

CYQR;2011-09-03 04:00;CYQR 030400Z 30012KT 15SM FEW026CB SCT073 12/09 A2981 RMK CB2AC2 LTGIC SW-NW SLP108

CYQR;2011-09-03 05:00;CYQR 030500Z 33017KT 15SM FEW015 BKN067 11/08 A2986 RMK SC2AC3 SLP121

CYQR;2011-09-03 06:00;CYQR 030600Z 33016KT 15SM SCT015 BKN041 OVC077 10/08 A2988 RMK SC3SC2AC2 SLP130

CYQR;2011-09-03 07:00;CYQR 030700Z 34019KT 15SM -SHRA BKN015 OVC035 11/08 A2991 RMK SC5SC3 SLP138

CYQR;2011-09-03 08:00;CYQR 030800Z 32017KT 15SM -SHRA BKN011 OVC046 11/08 A2994 RMK SC6SC2 CIG RAG SLP147

CYQR;2011-09-03 09:00;CYQR 030900Z 32015KT 15SM FEW011 FEW055 SCT300 10/07 A2997 RMK SC1SC1CI1 SLP158

CYQR;2011-09-03 10:00;CYQR 031000Z 31013KT 15SM FEW055 09/06 A3000 RMK SC1 SLP168

CYQR;2011-09-03 11:00;CYQR 031100Z 31011KT 15SM FEW055 08/06 A3003 RMK SC1 SLP178

CYQR;2011-09-03 12:00;CYQR 031200Z 31012KT 15SM FEW090 07/05 A3006 RMK AC1 SLP193

CYQR;2011-09-03 13:00;CYQR 031300Z 32013KT 15SM SKC 07/05 A3009 RMK SLP202

CYQR;2011-09-03 14:00;CYQR 031400Z 32016KT 15SM FEW020 09/05 A3010 RMK CU1 CU TOPS EAST SLP208

CYQR;2011-09-03 15:00;CYQR 031500Z 34016G21KT 15SM FEW016 11/07 A3013 RMK CU1 SLP217

CYQR;2011-09-03 16:00;CYQR 031600Z 34017KT 15SM FEW016 13/07 A3015 RMK CF1 SLP222

CYQR;2011-09-03 17:00;CYQR 031700Z 35020G25KT 15SM FEW040 15/06 A3016 RMK CU2 SLP228

CYQR;2011-09-03 18:00;CYQR 031800Z 34014G19KT 15SM FEW041 16/06 A3017 RMK CU2 SLP227

CYQR;2011-09-03 19:00;CYQR 031900Z 33016G24KT 15SM FEW050 17/06 A3016 RMK CU2 SLP225

CYQR;2011-09-03 20:00;CYQR 032000Z 32020G27KT 15SM FEW050 17/06 A3016 RMK CU2 SLP226

CYQR;2011-09-03 21:00;CYQR 032100Z 34019G27KT 15SM SCT054 18/05 A3017 RMK CU3 SLP226

CYQR;2011-09-03 22:00;CYQR 032200Z 33019G25KT 15SM FEW060 18/05 A3016 RMK CU2 SLP224

CYQR;2011-09-03 23:00;CYQR 032300Z 32018KT 15SM FEW059 17/05 A3017 RMK CU2 SLP226

CYQR;2011-09-04 00:00;CYQR 040000Z 34015G20KT 15SM FEW055 17/03 A3017 RMK CU1 SLP231

CYQR;2011-09-04 01:00;CYQR 040100Z 35008KT 15SM FEW055 15/04 A3018 RMK SC1 SLP233

CYQR;2011-09-04 02:00;CYQR 040200Z 36006KT 15SM FEW045 10/03 A3020 RMK SC1 SLP239

CYQR;2011-09-04 03:00;CYQR 040300Z 36004KT 15SM FEW045 10/03 A3021 RMK SC1 SLP245

CYQR;2011-09-04 04:00;CYQR 040400Z 03002KT 15SM FEW045 09/03 A3023 RMK SC1 SLP250

CYQR;2011-09-04 05:00;CYQR 040500Z 27005KT 15SM FEW045 06/02 A3023 RMK SC1 SLP252

CYQR;2011-09-04 06:00;CYQR 040600Z 00000KT 15SM FEW063 06/02 A3024 RMK SC1 SLP253

CYQR;2011-09-04 07:00;CYQR 040700Z 19002KT 15SM FEW060 06/03 A3024 RMK SC1 SLP254

CYQR;2011-09-04 08:00;CYQR 040800Z 00000KT 15SM FEW060 05/02 A3025 RMK SC1 SLP256

CYQR;2011-09-04 09:00;CYQR 040900Z 14002KT 15SM SKC 05/02 A3024 RMK SLP256

CYQR;2011-09-04 10:00;CYQR 041000Z 14005KT 15SM SKC 05/02 A3024 RMK SLP255

CYQR;2011-09-04 11:00;CYQR 041100Z 14003KT 10SM BCFG SKC 03/01 A3025 RMK BR SLP257

CYQR;2011-09-04 12:00;CYQR 041200Z 12006KT 10SM FEW270 03/00 A3024 RMK CI1 BR SLP256

CYQR;2011-09-04 13:00;CYQR 041300Z 12006KT 10SM FEW270 04/01 A3023 RMK CI1 BR SLP254

CYQR;2011-09-04 14:00;CYQR 041400Z 15005KT 10SM FEW270 08/05 A3023 RMK CI0 BR SLP254

CYQR;2011-09-04 15:00;CYQR 041500Z 16007KT 15SM FEW290 11/07 A3023 RMK CI0 SLP253

CYQR;2011-09-04 16:00;CYQR 041600Z 16005KT 15SM FEW290 14/08 A3023 RMK CI0 SLP251

CYQR;2011-09-04 17:00;CYQR 041700Z 21007KT 15SM FEW032 FEW290 17/08 A3021 RMK CU1CI0 SLP245

CYQR;2011-09-04 18:00;CYQR 041800Z 21007KT 15SM FEW052 FEW290 19/07 A3018 RMK CU1CI0 SLP233

CYQR;2011-09-04 19:00;CYQR 041900Z 21014KT 15SM FEW052 FEW300 20/06 A3016 RMK CU1CI0 SLP226

CYQR;2011-09-04 20:00;CYQR 042000Z 20013G19KT 15SM FEW055 21/06 A3013 RMK CU1 SLP216

CYQR;2011-09-04 21:00;CYQR 042100Z 20010G17KT 15SM SKC 21/05 A3010 RMK SLP205

CYQR;2011-09-04 22:00;CYQR 042200Z 21014G19KT 15SM FEW300 22/05 A3008 RMK CI0 SLP198

CYQR;2011-09-04 23:00;CYQR 042300Z 22009G17KT 15SM FEW300 21/05 A3006 RMK CI0 CONTRAILS SLP192

CYQR;2011-09-05 00:00;CYQR 050000Z 21011G17KT 15SM SCT300 21/05 A3004 RMK CI0 SLP184

CYQR;2011-09-05 01:00;CYQR 050100Z 18009KT 15SM FEW300 19/06 A3001 RMK CI0 CONTRAILS SLP177

CYQR;2011-09-05 02:00;CYQR 050200Z 17009KT 15SM FEW250 BKN300 16/06 A3000 RMK CI0CI0 SLP172

CYQR;2011-09-05 03:00;CYQR 050300Z 16011KT 15SM SCT280 15/06 A2999 RMK CI0 SLP166

CYQR;2011-09-05 04:00;CYQR 050400Z 16012KT 15SM FEW280 14/06 A2998 RMK CI0 SLP163

CYQR;2011-09-05 05:00;CYQR 050500Z 16011KT 15SM FEW280 13/06 A2997 RMK CI0 SLP159

CYQR;2011-09-05 06:00;CYQR 050600Z 16010KT 15SM SKC 12/06 A2995 RMK SLP150

CYQR;2011-09-05 07:00;CYQR 050700Z 16011KT 15SM SKC 12/05 A2994 RMK SLP146

CYQR;2011-09-05 08:00;CYQR 050800Z 15011KT 15SM SKC 11/05 A2992 RMK SLP141

CYQR;2011-09-05 09:00;CYQR 050900Z 15011KT 15SM SKC 11/06 A2991 RMK SLP135

CYQR;2011-09-05 10:00;CYQR 051000Z 14013KT 15SM SKC 10/06 A2988 RMK SLP126

CYQR;2011-09-05 11:00;CYQR 051100Z 14012KT 15SM SKC 10/06 A2986 RMK SLP120

CYQR;2011-09-05 12:00;CYQR 051200Z 14013KT 15SM FEW040 FEW280 09/05 A2985 RMK SC1CI1 SLP116

CYQR;2011-09-05 13:00;CYQR 051300Z 13011KT 15SM FEW280 09/05 A2986 RMK CI1 SLP117

CYQR;2011-09-05 14:00;CYQR 051400Z 14010KT 15SM FEW280 11/06 A2986 RMK CI0 SLP117

CYQR;2011-09-05 15:00;CYQR 051500Z 16010KT 15SM FEW280 14/06 A2984 RMK CI0 SLP114

CYQR;2011-09-05 16:00;CYQR 051600Z 16011KT 15SM FEW280 17/08 A2984 RMK CI0 SLP113

CYQR;2011-09-05 17:00;CYQR 051700Z 15010KT 15SM FEW280 19/09 A2983 RMK CI1 SLP110

CYQR;2011-09-05 18:00;CYQR 051800Z 16007KT 15SM FEW280 22/10 A2983 RMK CI1 SLP105

CYQR;2011-09-05 19:00;CYQR 051900Z 17009KT 15SM FEW280 24/10 A2981 RMK CI0 SLP100

CYQR;2011-09-05 20:00;CYQR 052000Z 17007KT 15SM FEW280 27/09 A2980 RMK CI1 SLP097

CYQR;2011-09-05 21:00;CYQR 052100Z 22010KT 15SM FEW280 28/07 A2979 RMK CI1 SLP091

CYQR;2011-09-05 22:00;CYQR 052200Z 22006KT 15SM FEW280 28/07 A2979 RMK CI1 SLP089

CYQR;2011-09-05 23:00;CYQR 052300Z 28006KT 15SM FEW280 28/08 A2978 RMK CI1 SLP088

CYQR;2011-09-06 00:00;CYQR 060000Z 32003KT 15SM FEW280 27/12 A2979 RMK CI1 SLP091

CYQR;2011-09-06 01:00;CYQR 060100Z 33005KT 15SM FEW300 24/11 A2980 RMK CI0 SLP094

CYQR;2011-09-06 02:00;CYQR 060200Z 36005KT 15SM FEW300 21/09 A2981 RMK CI0 SLP098

CYQR;2011-09-06 03:00;CYQR 060300Z 05002KT 15SM FEW300 17/09 A2983 RMK CI0 SLP109

CYQR;2011-09-06 04:00;CYQR 060400Z 35003KT 15SM FEW300 15/08 A2985 RMK CI0 SLP113

CYQR;2011-09-06 05:00;CYQR 060500Z 35003KT 15SM FEW300 14/08 A2986 RMK CI0 SLP116

CYQR;2011-09-06 06:00;CYQR 060600Z 04002KT 15SM SKC 12/09 A2987 RMK SLP119

CYQR;2011-09-06 07:00;CYQR 060700Z 31002KT 15SM SKC 10/06 A2988 RMK SLP123

CYQR;2011-09-06 08:00;CYQR 060800Z 32003KT 15SM SKC 10/06 A2989 RMK SLP127

CYQR;2011-09-06 09:00;CYQR 060900Z 29004KT 15SM SKC 09/05 A2990 RMK SLP128

CYQR;2011-09-06 10:00;CYQR 061000Z 32003KT 15SM SKC 08/04 A2991 RMK SLP132

CYQR;2011-09-06 11:00;CYQR 061100Z 35006KT 15SM SKC 08/05 A2992 RMK SLP136

CYQR;2011-09-06 12:00;CYQR 061200Z 32003KT 15SM SKC 08/05 A2994 RMK SLP145

CYQR;2011-09-06 13:00;CYQR 061300Z 27002KT 15SM SKC 07/04 A2996 RMK SLP152

CYQR;2011-09-06 14:00;CYQR 061400Z 00000KT 15SM FEW015 12/09 A2998 RMK SC1 SLP157

CYQR;2011-09-06 15:00;CYQR 061500Z 00000KT 15SM SKC 17/12 A3000 RMK SLP163

CYQR;2011-09-06 16:00;CYQR 061600Z 35002KT 15SM SKC 21/15 A3001 RMK SLP169

CYQR;2011-09-06 17:00;CYQR 061700Z 31003KT 15SM FEW300 24/13 A3003 RMK CI1 SLP173

CYQR;2011-09-06 18:00;CYQR 061800Z 01002KT 15SM FEW300 26/09 A3003 RMK CI0 SLP173

CYQR;2011-09-06 19:00;CYQR 061900Z 34003KT 15SM FEW300 28/06 A3004 RMK CI0 SLP175

CYQR;2011-09-06 20:00;CYQR 062000Z 01003KT 15SM FEW300 28/07 A3004 RMK CI0 SLP176

CYQR;2011-09-06 21:00;CYQR 062100Z 02006KT 15SM FEW300 29/08 A3005 RMK CI1 SLP178

CYQR;2011-09-06 22:00;CYQR 062200Z 02006KT 15SM FEW300 29/06 A3005 RMK CI1 SLP178

CYQR;2011-09-06 23:00;CYQR 062300Z 14002KT 15SM FEW300 29/07 A3005 RMK CI0 SLP181

CYQR;2011-09-07 00:00;CYQR 070000Z 00000KT 15SM FEW300 28/10 A3007 RMK CI0 SLP187

CYQR;2011-09-07 01:00;CYQR 070100Z 10003KT 15SM FEW300 25/09 A3008 RMK CI0 SLP190

CYQR;2011-09-07 02:00;CYQR 070200Z 14006KT 15SM FEW300 22/08 A3009 RMK CI0 SLP194

CYQR;2011-09-07 03:00;CYQR 070300Z 12005KT 15SM FEW300 20/07 A3012 RMK CI0 SLP204

CYQR;2011-09-07 04:00;CYQR 070400Z 16005KT 15SM FEW300 18/09 A3014 RMK CI0 SLP209

CYQR;2011-09-07 05:00;CYQR 070500Z 12005KT 15SM FEW300 14/08 A3015 RMK CI0 SLP215

CYQR;2011-09-07 06:00;CYQR 070600Z 09004KT 15SM FEW300 14/09 A3017 RMK CI0 SLP220

CYQR;2011-09-07 07:00;CYQR 070700Z 10006KT 15SM FEW300 13/08 A3019 RMK CI0 SLP225

CYQR;2011-09-07 08:00;CYQR 070800Z 13005KT 15SM FEW300 12/08 A3020 RMK CI0 SLP227

CYQR;2011-09-07 09:00;CYQR 070900Z 11005KT 15SM FEW300 11/07 A3020 RMK CI0 SLP229

CYQR;2011-09-07 10:00;CYQR 071000Z 13006KT 15SM SKC 10/07 A3021 RMK SLP232

CYQR;2011-09-07 11:00;CYQR 071100Z 13006KT 15SM SKC 10/06 A3022 RMK SLP236

CYQR;2011-09-07 12:00;CYQR 071200Z 11005KT 15SM FEW300 09/06 A3024 RMK CI0 SLP244

CYQR;2011-09-07 13:00;CYQR 071300Z 12006KT 15SM SCT300 10/07 A3025 RMK CI0 SLP250

CYQR;2011-09-07 14:00;CYQR 071400Z 13003KT 15SM FEW300 14/09 A3027 RMK CI1 SLP255

CYQR;2011-09-07 15:00;CYQR 071500Z 14004KT 15SM FEW300 18/10 A3027 RMK CI1 SLP256

CYQR;2011-09-07 16:00;CYQR 071600Z 13005KT 15SM FEW300 22/12 A3028 RMK CI1 SLP259

CYQR;2011-09-07 17:00;CYQR 071700Z 16006KT 15SM FEW300 25/12 A3029 RMK CI1 SLP261

CYQR;2011-09-07 18:00;CYQR 071800Z 16007KT 15SM SKC 28/10 A3029 RMK SLP258

CYQR;2011-09-07 19:00;CYQR 071900Z 15007KT 15SM FEW240 30/09 A3027 RMK CI1 SLP254

CYQR;2011-09-07 20:00;CYQR 072000Z 16012KT 15SM FEW240 31/08 A3027 RMK CI1 SLP253

CYQR;2011-09-07 21:00;CYQR 072100Z 17012G17KT 15SM FEW240 31/07 A3026 RMK CI1 SLP250

CYQR;2011-09-07 22:00;CYQR 072200Z 14009KT 15SM SKC 30/07 A3025 RMK SLP248

CYQR;2011-09-07 23:00;CYQR 072300Z 17009KT 15SM SKC 30/07 A3025 RMK SLP246

CYQR;2011-09-08 00:00;CYQR 080000Z 18008KT 15SM FEW200 29/08 A3025 RMK CI1 SLP248

CYQR;2011-09-08 01:00;CYQR 080100Z 17008KT 15SM FEW300 26/09 A3025 RMK CI1 SLP247

CYQR;2011-09-08 02:00;CYQR 080200Z 15008KT 15SM FEW300 23/09 A3025 RMK CI1 SLP249

CYQR;2011-09-08 03:00;CYQR 080300Z 16010KT 15SM SKC 21/09 A3027 RMK SLP254

CYQR;2011-09-08 04:00;CYQR 080400Z 16010KT 15SM SKC 19/08 A3027 RMK SLP254

CYQR;2011-09-08 05:00;CYQR 080500Z 16009KT 15SM SKC 18/09 A3027 RMK SLP254

CYQR;2011-09-08 06:00;CYQR 080600Z 17008KT 15SM FEW300 17/09 A3028 RMK CI1 SLP253

CYQR;2011-09-08 07:00;CYQR 080700Z 16008KT 15SM FEW300 17/08 A3028 RMK CI0 SLP253

CYQR;2011-09-08 08:00;CYQR 080800Z 14007KT 15SM SKC 14/08 A3028 RMK SLP254

CYQR;2011-09-08 09:00;CYQR 080900Z 15006KT 15SM SKC 12/08 A3028 RMK SLP255

CYQR;2011-09-08 10:00;CYQR 081000Z 13008KT 15SM SKC 13/08 A3028 RMK SLP255

CYQR;2011-09-08 11:00;CYQR 081100Z 13007KT 15SM SKC 12/08 A3028 RMK SLP255

CYQR;2011-09-08 12:00;CYQR 081200Z 11005KT 15SM FEW280 11/07 A3028 RMK CI1 SLP259

CYQR;2011-09-08 13:00;CYQR 081300Z 12007KT 15SM FEW280 12/08 A3029 RMK CI1 SLP262

CYQR;2011-09-08 14:00;CYQR 081400Z 12005KT 15SM FEW280 15/10 A3029 RMK CI1 SLP261

CYQR;2011-09-08 15:00;CYQR 081500Z 14005KT 15SM FEW300 18/12 A3028 RMK CI1 CONTRAILS SLP259

CYQR;2011-09-08 16:00;CYQR 081600Z 13003KT 15SM FEW300 22/13 A3028 RMK CI1 SLP258

CYQR;2011-09-08 17:00;CYQR 081700Z 16005KT 15SM FEW300 25/13 A3027 RMK CI0 CONTRAILS SLP256

CYQR;2011-09-08 18:00;CYQR 081800Z 16004KT 15SM FEW300 27/14 A3026 RMK CI0 CONTRAILS SLP247

CYQR;2011-09-08 19:00;CYQR 081900Z 18007KT 15SM FEW300 28/12 A3024 RMK CI0 CONTRAILS SLP242

CYQR;2011-09-08 20:00;CYQR 082000Z 15005KT 15SM FEW300 29/11 A3023 RMK CI0 CONTRAILS SLP239

CYQR;2011-09-08 21:00;CYQR 082100Z 11002KT 15SM BKN300 30/11 A3022 RMK CI0 CONTRAILS SLP234

CYQR;2011-09-08 22:00;CYQR 082200Z 18005KT 15SM BKN300 30/11 A3020 RMK CI0 CONTRAILS SLP230

CYQR;2011-09-08 23:00;CYQR 082300Z 12007KT 15SM BKN300 29/12 A3020 RMK CI0 CONTRAILS SLP227

CYQR;2011-09-09 00:00;CYQR 090000Z 14006KT 15SM BKN300 28/11 A3019 RMK CI0 CONTRAILS SLP227

CYQR;2011-09-09 01:00;CYQR 090100Z 13005KT 15SM OVC300 25/12 A3019 RMK CI0 SLP226

CYQR;2011-09-09 02:00;CYQR 090200Z 12006KT 15SM BKN300 20/11 A3019 RMK CI0 SLP228

CYQR;2011-09-09 03:00;CYQR 090300Z 14006KT 15SM FEW300 20/10 A3020 RMK CI0 SLP231

CYQR;2011-09-09 04:00;CYQR 090400Z 13006KT 15SM FEW300 18/10 A3020 RMK CI0 SLP231

CYQR;2011-09-09 05:00;CYQR 090500Z 13005KT 15SM SCT300 16/10 A3020 RMK CI0 SLP230

CYQR;2011-09-09 06:00;CYQR 090600Z 13005KT 15SM SCT300 15/09 A3020 RMK CI0 SLP228

CYQR;2011-09-09 07:00;CYQR 090700Z 13003KT 15SM SCT300 14/09 A3020 RMK CI0 SLP228

CYQR;2011-09-09 08:00;CYQR 090800Z 00000KT 15SM FEW300 13/08 A3020 RMK CI0 SLP227

CYQR;2011-09-09 09:00;CYQR 090900Z 12005KT 15SM FEW300 12/08 A3020 RMK CI0 SLP227

CYQR;2011-09-09 10:00;CYQR 091000Z 13003KT 15SM SKC 12/08 A3020 RMK SLP227

CYQR;2011-09-09 11:00;CYQR 091100Z 08003KT 15SM SKC 12/08 A3020 RMK SLP227

CYQR;2011-09-09 12:00;CYQR 091200Z 10004KT 15SM FEW290 10/08 A3020 RMK CI1 SLP230

CYQR;2011-09-09 13:00;CYQR 091300Z 07003KT 15SM FEW290 12/08 A3020 RMK CI1 SLP230

CYQR;2011-09-09 14:00;CYQR 091400Z 00000KT 15SM FEW290 16/11 A3020 RMK CI1 SLP231

CYQR;2011-09-09 15:00;CYQR 091500Z 00000KT 15SM FEW250 21/13 A3020 RMK CI1 SLP229

CYQR;2011-09-09 16:00;CYQR 091600Z 00000KT 15SM FEW250 23/14 A3021 RMK CI0 CONTRAILS SLP232

CYQR;2011-09-09 17:00;CYQR 091700Z 35002KT 15SM FEW280 25/14 A3021 RMK CI0 CONTRAILS SLP232

CYQR;2011-09-09 18:00;CYQR 091800Z 02002KT 15SM FEW280 26/12 A3019 RMK CI0 SLP225

CYQR;2011-09-09 19:00;CYQR 091900Z 00000KT 15SM FEW300 29/13 A3017 RMK CI0 SLP220

CYQR;2011-09-09 20:00;CYQR 092000Z 05002KT 15SM BKN300 29/12 A3015 RMK CI0 CONTRAILS SLP214

CYQR;2011-09-09 21:00;CYQR 092100Z 07004KT 15SM BKN300 29/12 A3014 RMK CI0 SLP207

CYQR;2011-09-09 22:00;CYQR 092200Z 07004KT 15SM FEW250 SCT300 30/12 A3012 RMK CI1CI0 SLP203

CYQR;2011-09-09 23:00;CYQR 092300Z 13005KT 15SM FEW300 29/09 A3011 RMK CI0 SLP200

CYQR;2011-09-10 00:00;CYQR 100000Z 13004KT 15SM FEW300 28/09 A3010 RMK CI0 SLP198

CYQR;2011-09-10 01:00;CYQR 100100Z 13005KT 15SM FEW300 25/09 A3010 RMK CI0 SLP197

CYQR;2011-09-10 02:00;CYQR 100200Z 15006KT 15SM FEW300 22/09 A3010 RMK CI0 SLP198

CYQR;2011-09-10 03:00;CYQR 100300Z 16006KT 15SM FEW300 21/10 A3011 RMK CI1 SLP199

CYQR;2011-09-10 04:00;CYQR 100400Z 17006KT 15SM SKC 19/11 A3011 RMK SLP197

CYQR;2011-09-10 05:00;CYQR 100500Z 18006KT 15SM FEW300 17/10 A3010 RMK CI1 SLP196

CYQR;2011-09-10 06:00;CYQR 100600Z 21003KT 15SM SKC 15/09 A3010 RMK AURORA SLP194

CYQR;2011-09-10 07:00;CYQR 100700Z 19002KT 15SM SKC 15/08 A3010 RMK SLP195

CYQR;2011-09-10 08:00;CYQR 100800Z 15004KT 15SM SKC 12/09 A3010 RMK SLP193

CYQR;2011-09-10 09:00;CYQR 100900Z 15003KT 15SM SKC 12/08 A3009 RMK SLP191

CYQR;2011-09-10 10:00;CYQR 101000Z 13006KT 15SM SKC 11/08 A3009 RMK SLP190

CYQR;2011-09-10 11:00;CYQR 101100Z 13005KT 15SM SKC 11/08 A3008 RMK SLP188

CYQR;2011-09-10 12:00;CYQR 101200Z 15002KT 15SM FEW280 10/07 A3008 RMK CI1 SLP188

CYQR;2011-09-10 13:00;CYQR 101300Z 12003KT 15SM FEW280 10/08 A3008 RMK CI1 SLP189

CYQR;2011-09-10 14:00;CYQR 101400Z 13002KT 15SM SKC 14/10 A3008 RMK SLP190

CYQR;2011-09-10 15:00;CYQR 101500Z 21002KT 15SM SKC 18/11 A3008 RMK SLP190

CYQR;2011-09-10 16:00;CYQR 101600Z 26005KT 15SM SKC 22/11 A3007 RMK SLP187

CYQR;2011-09-10 17:00;CYQR 101700Z 27007KT 15SM SKC 26/12 A3007 RMK SLP185

CYQR;2011-09-10 18:00;CYQR 101800Z 30009KT 15SM SKC 29/11 A3005 RMK OBS TAKEN +05 SLP175

CYQR;2011-09-10 19:00;CYQR 101900Z 31010G15KT 15SM SKC 30/09 A3003 RMK SLP170

CYQR;2011-09-10 20:00;CYQR 102000Z 32006KT 15SM SKC 31/09 A3002 RMK SLP166

CYQR;2011-09-10 21:00;CYQR 102100Z 28005KT 15SM SKC 32/09 A3000 RMK SLP157

CYQR;2011-09-10 22:00;CYQR 102200Z 28007KT 15SM FEW075 31/08 A2998 RMK AC1 SLP151

CYQR;2011-09-10 23:00;CYQR 102300Z 31011KT 15SM FEW075 30/08 A2996 RMK AC1 SLP147

CYQR;2011-09-11 00:00;CYQR 110000Z 32007KT 15SM SKC 28/09 A2996 RMK SLP148

CYQR;2011-09-11 01:00;CYQR 110100Z 34007KT 15SM SKC 25/10 A2995 RMK SLP146

CYQR;2011-09-11 02:00;CYQR 110200Z 35007KT 15SM SKC 21/07 A2996 RMK SLP148

CYQR;2011-09-11 03:00;CYQR 110300Z 13004KT 15SM SKC 18/07 A2996 RMK SLP151

CYQR;2011-09-11 04:00;CYQR 110400Z 27002KT 15SM SKC 17/08 A2997 RMK SLP153

CYQR;2011-09-11 05:00;CYQR 110500Z 01005KT 15SM SKC 14/07 A2997 RMK SLP152

CYQR;2011-09-11 06:00;CYQR 110600Z 23004KT 15SM SKC 14/08 A2997 RMK SLP149

CYQR;2011-09-11 07:00;CYQR 110700Z 03004KT 15SM SKC 11/06 A2997 RMK SLP150

CYQR;2011-09-11 08:00;CYQR 110800Z 06006KT 15SM SKC 14/07 A2996 RMK SLP144

CYQR;2011-09-11 09:00;CYQR 110900Z 19005KT 15SM SKC 11/07 A2996 RMK SLP145

CYQR;2011-09-11 10:00;CYQR 111000Z 12002KT 15SM SKC 11/06 A2996 RMK SLP144

CYQR;2011-09-11 11:00;CYQR 111100Z 14008KT 15SM SKC 13/07 A2995 RMK SLP141

CYQR;2011-09-11 12:00;CYQR 111200Z 13009KT 15SM FEW280 13/07 A2993 RMK CI1 SLP135

CYQR;2011-09-11 13:00;CYQR 111300Z 14005KT 15SM FEW280 13/07 A2994 RMK CI1 SLP138

CYQR;2011-09-11 14:00;CYQR 111400Z 12008KT 15SM FEW280 14/08 A2992 RMK CI1 CONTRAILS SLP134

CYQR;2011-09-11 15:00;CYQR 111500Z 14008KT 15SM FEW280 17/10 A2991 RMK CI0 SLP132

CYQR;2011-09-11 16:00;CYQR 111600Z 14005KT 15SM FEW280 21/10 A2991 RMK CI0 SLP132

CYQR;2011-09-11 17:00;CYQR 111700Z 16007KT 15SM FEW280 24/10 A2988 RMK CI0 CONTRAILS SLP123

CYQR;2011-09-11 18:00;CYQR 111800Z 20009KT 15SM FEW280 29/08 A2985 RMK CI0 CONTRAILS SLP108

CYQR;2011-09-11 19:00;CYQR 111900Z 23016G21KT 15SM FEW280 32/07 A2981 RMK CI0 SLP097

CYQR;2011-09-11 20:00;CYQR 112000Z 25018G27KT 15SM FEW280 32/05 A2979 RMK CI0 SLP090

CYQR;2011-09-11 21:00;CYQR 112100Z 25017G24KT 15SM FEW090 32/05 A2977 RMK CU1 SLP080

CYQR;2011-09-11 22:00;CYQR 112200Z 26019G24KT 15SM FEW090 FEW280 32/05 A2975 RMK CU1CI0 SLP072

CYQR;2011-09-11 23:00;CYQR 112300Z 25016G21KT 15SM FEW090 FEW280 31/04 A2972 RMK CU1CI0 SLP064

CYQR;2011-09-12 00:00;CYQR 120000Z 24014KT 15SM FEW090 FEW280 30/05 A2971 RMK CU2CI0 SLP058

CYQR;2011-09-12 01:00;CYQR 120100Z 23009KT 15SM SCT090 BKN280 25/05 A2969 RMK AC2CI2 CONTRAILS SLP053

CYQR;2011-09-12 02:00;CYQR 120200Z 22010KT 15SM SCT090 BKN280 23/05 A2968 RMK AC2CI2 SLP051

CYQR;2011-09-12 03:00;CYQR 120300Z 26008KT 15SM SCT090 OVC280 22/05 A2970 RMK AC3CI3 SLP057

CYQR;2011-09-12 04:00;CYQR 120400Z 35009KT 15SM FEW065 SCT090 OVC280 21/09 A2972 RMK SC1AC2CI3 SLP064

CYQR;2011-09-12 05:00;CYQR 120500Z 36019G27KT 15SM FEW060 SCT090 BKN280 17/10 A2978 RMK SC1AC2CI2 SLP085

CYQR;2011-09-12 06:00;CYQR 120600Z 34019KT 15SM SCT090 BKN280 16/09 A2983 RMK AC2CI3 SLP100

CYQR;2011-09-12 07:00;CYQR 120700Z 33020G27KT 15SM FEW015 SCT070 OVC100 13/09 A2987 RMK CU1AC3AC4 SLP112

CYQR;2011-09-12 07:51;CYQR 120751Z 34019G30KT 15SM -RA SCT009 OVC042 11/ RMK SC4SC4

CYQR;2011-09-12 08:00;CYQR 120800Z 34020G28KT 15SM -RA FEW007 BKN009 OVC042 11/08 A2988 RMK SF2SC3SC3 SLP117

CYQR;2011-09-12 08:20;CYQR 120820Z 35018G29KT 15SM -RA OVC006 10/ RMK SF8

CYQR;2011-09-12 09:00;CYQR 120900Z 35021G26KT 8SM -RA OVC006 09/07 A2993 RMK SF8 SLP136

CYQR;2011-09-12 09:17;CYQR 120917Z 35021G27KT 8SM -DZ OVC005 09/ RMK SF8

CYQR;2011-09-12 09:39;CYQR 120939Z 35024G30KT 15SM -DZ OVC009 09/ RMK SF8

CYQR;2011-09-12 10:00;CYQR 121000Z 36025G31KT 14SM BKN010 09/05 A2997 RMK SC7 SLP149

CYQR;2011-09-12 10:09;CYQR 121009Z 01026G32KT 15SM BKN015 09/ RMK SC7

CYQR;2011-09-12 11:00;CYQR 121100Z 35017G22KT 15SM BKN013 09/05 A3001 RMK SC7 SLP163

CYQR;2011-09-12 12:00;CYQR 121200Z 35016G21KT 15SM BKN013 09/05 A3004 RMK SC7 CU EMBD SLP175

CYQR;2011-09-12 12:46;CYQR 121246Z 35013G22KT 15SM FEW013 BKN022 10/ RMK SC2SC6

CYQR;2011-09-12 13:00;CYQR 121300Z 34015KT 15SM FEW013 BKN022 10/04 A3006 RMK SC2SC6 SLP181

CYQR;2011-09-12 14:00;CYQR 121400Z 34017G24KT 15SM BKN020 10/04 A3008 RMK SC7 SLP188

CYQR;2011-09-12 15:00;CYQR 121500Z 36014KT 15SM FEW018 11/05 A3010 RMK SC2 SLP199

CYQR;2011-09-12 16:00;CYQR 121600Z 01011G17KT 15SM FEW020 SCT280 11/04 A3012 RMK SC2CI0 SLP206

CYQR;2011-09-12 17:00;CYQR 121700Z 32008KT 15SM SCT024 BKN280 13/05 A3013 RMK CU3CI0 SLP208

CYQR;2011-09-12 18:00;CYQR 121800Z 33010KT 15SM FEW029 BKN280 14/05 A3011 RMK CU1CI1 SLP207

CYQR;2011-09-12 19:00;CYQR 121900Z 30008G15KT 15SM FEW029 BKN280 15/05 A3010 RMK CU1CI1 SLP204

CYQR;2011-09-12 20:00;CYQR 122000Z 34009G18KT 15SM FEW046 SCT280 16/05 A3009 RMK CF1CI2 SLP198

CYQR;2011-09-12 21:00;CYQR 122100Z 31014KT 15SM FEW050 BKN280 17/04 A3007 RMK CU2CI1 SLP194

CYQR;2011-09-12 22:00;CYQR 122200Z 31010G20KT 15SM SCT062 BKN280 18/04 A3006 RMK CU3CI0 SLP190

CYQR;2011-09-12 23:00;CYQR 122300Z 31014KT 15SM FEW065 BKN280 18/04 A3005 RMK SC2CI0 SLP186

CYQR;2011-09-13 00:00;CYQR 130000Z CCA 32011KT 15SM FEW065 BKN280 17/03 A3004 RMK SC2CI0 SLP185

CYQR;2011-09-13 01:00;CYQR 130100Z 31007KT 15SM FEW040 FEW065 FEW100 FEW280 13/03 A3005 RMK CU1SC1AC1CI1 SLP186

CYQR;2011-09-13 02:00;CYQR 130200Z 29009KT 15SM FEW040 FEW065 FEW100 FEW280 10/02 A3006 RMK CU1SC1AC1CI1 SLP190

CYQR;2011-09-13 03:00;CYQR 130300Z 28008KT 15SM FEW100 08/02 A3007 RMK AC2 SLP198

CYQR;2011-09-13 04:00;CYQR 130400Z 28008KT 14SM FEW100 07/01 A3007 RMK AC2 SLP199

CYQR;2011-09-13 05:00;CYQR 130500Z 27008KT 15SM BKN073 09/01 A3006 RMK AC6 SLP196

CYQR;2011-09-13 06:00;CYQR 130600Z 27009KT 15SM BKN073 11/03 A3006 RMK AC6 SLP190

CYQR;2011-09-13 07:00;CYQR 130700Z 29011KT 15SM BKN082 11/03 A3006 RMK AC6 SLP190

CYQR;2011-09-13 08:00;CYQR 130800Z 30010KT 15SM BKN071 10/03 A3006 RMK AC6 SLP190

CYQR;2011-09-13 09:00;CYQR 130900Z 32011KT 15SM FEW078 09/03 A3007 RMK AC2 SLP194

CYQR;2011-09-13 10:00;CYQR 131000Z 33013KT 15SM FEW078 08/02 A3009 RMK AC1 SLP199

CYQR;2011-09-13 11:00;CYQR 131100Z 33010KT 15SM FEW073 FEW100 FEW280 07/02 A3010 RMK AC1AC1CI1 SLP203

CYQR;2011-09-13 12:00;CYQR 131200Z 33009KT 15SM FEW073 FEW100 FEW280 06/01 A3010 RMK AC1AC1CI1 SLP207

CYQR;2011-09-13 13:00;CYQR 131300Z 33010KT 15SM FEW070 FEW100 SCT280 05/02 A3014 RMK AC1AC1CI0 ACC ASOCTD SLP218

CYQR;2011-09-13 14:00;CYQR 131400Z 34011KT 15SM FEW010 BKN052 BKN080 BKN280 08/04 A3016 RMK SF1SC2AC1CI1 ACC ASOCTD SLP225

CYQR;2011-09-13 15:00;CYQR 131500Z 35016G21KT 15SM BKN014 BKN053 09/04 A3018 RMK SC6SC1 CIG RAG SLP238

CYQR;2011-09-13 15:31;CYQR 131531Z 36016KT 15SM BKN017 09/ RMK SC7 CIG RAG

CYQR;2011-09-13 16:00;CYQR 131600Z 36017G25KT 15SM FEW015 BKN025 BKN050 10/03 A3020 RMK SC1SC6SC1 CIG RAG SLP246

CYQR;2011-09-13 17:00;CYQR 131700Z 36018G27KT 15SM FEW015 BKN025 BKN050 10/01 A3024 RMK SC1SC6SC1 CIG RAG SLP257

CYQR;2011-09-13 18:00;CYQR 131800Z 35017G24KT 15SM BKN029 BKN280 09/M00 A3025 RMK SC6CI0 SLP261

CYQR;2011-09-13 19:00;CYQR 131900Z 36021G27KT 15SM SCT040 BKN280 10/M01 A3027 RMK SC3CI1 SLP266

CYQR;2011-09-13 20:00;CYQR 132000Z 34016G21KT 15SM FEW052 SCT290 10/M03 A3028 RMK CU1CI1 CU TR SLP269

CYQR;2011-09-13 21:00;CYQR 132100Z 01018KT 15SM FEW060 SCT290 10/M05 A3029 RMK CU1CI1 SLP274

CYQR;2011-09-13 22:00;CYQR 132200Z 36016G21KT 15SM FEW060 BKN290 10/M06 A3029 RMK SC1CI0 SLP274

CYQR;2011-09-13 23:00;CYQR 132300Z 02011G17KT 15SM BKN290 10/M05 A3030 RMK CI1 SLP278

CYQR;2011-09-14 00:00;CYQR 140000Z 36012KT 15SM BKN290 08/M05 A3031 RMK CI2 SLP286

CYQR;2011-09-14 01:00;CYQR 140100Z 02008KT 15SM BKN290 07/M05 A3033 RMK CI4 SLP291

CYQR;2011-09-14 02:00;CYQR 140200Z 03007KT 15SM FEW160 BKN280 05/M06 A3035 RMK AC2CI2 SLP298

CYQR;2011-09-14 03:00;CYQR 140300Z 04006KT 15SM SCT160 OVC280 04/M06 A3036 RMK AC3CI2 SLP303

CYQR;2011-09-14 04:00;CYQR 140400Z 02004KT 15SM FEW160 04/M06 A3038 RMK AC1 SLP309

CYQR;2011-09-14 05:00;CYQR 140500Z 34006KT 15SM SKC 01/M06 A3039 RMK SLP313

CYQR;2011-09-14 06:00;CYQR 140600Z 33006KT 15SM SKC M01/M07 A3040 RMK SLP320

CYQR;2011-09-14 07:00;CYQR 140700Z 32003KT 15SM SKC M02/M07 A3042 RMK SLP325

CYQR;2011-09-14 08:00;CYQR 140800Z 35003KT 15SM SKC M03/M08 A3042 RMK SLP326

CYQR;2011-09-14 09:00;CYQR 140900Z 32003KT 15SM SKC M03/M08 A3043 RMK FROIN SLP329

CYQR;2011-09-14 10:00;CYQR 141000Z 34003KT 15SM SKC M04/M09 A3043 RMK SLP331

CYQR;2011-09-14 11:00;CYQR 141100Z 34003KT 15SM SKC M05/M10 A3045 RMK SLP335

CYQR;2011-09-14 12:00;CYQR 141200Z 34002KT 15SM SKC M04/M09 A3044 RMK SLP337

CYQR;2011-09-14 13:00;CYQR 141300Z 00000KT 15SM SKC M04/M09 A3044 RMK SLP337

CYQR;2011-09-14 14:00;CYQR 141400Z 00000KT 15SM FEW010 M01/M05 A3045 RMK SF1 SLP340

CYQR;2011-09-14 14:30;CYQR 141430Z 00000KT 15SM FEW008 03/ RMK ST1

CYQR;2011-09-14 15:00;CYQR 141500Z 32002KT 15SM FEW008 FEW280 04/M03 A3045 RMK ST1CI1 SLP338

CYQR;2011-09-14 16:00;CYQR 141600Z 28002KT 15SM FEW280 07/M04 A3045 RMK CI1 SLP338

CYQR;2011-09-14 17:00;CYQR 141700Z 00000KT 15SM FEW280 09/M04 A3045 RMK CI1 SLP337

CYQR;2011-09-14 18:00;CYQR 141800Z 30005KT 15SM FEW280 09/M05 A3044 RMK CI1 SLP332

CYQR;2011-09-14 19:00;CYQR 141900Z 33006KT 15SM FEW280 11/M05 A3042 RMK CI1 SLP327

CYQR;2011-09-14 20:00;CYQR 142000Z 32005KT 15SM FEW290 11/M05 A3040 RMK CI1 SLP321

CYQR;2011-09-14 21:00;CYQR 142100Z 13006KT 15SM FEW290 13/M04 A3038 RMK CI1 SLP312

CYQR;2011-09-14 22:00;CYQR 142200Z 16003KT 15SM FEW290 12/M05 A3035 RMK CI1 SLP303

CYQR;2011-09-14 23:00;CYQR 142300Z 13006KT 15SM FEW290 12/M05 A3033 RMK CI1 SLP296

CYQR;2011-09-15 00:00;CYQR 150000Z 15007KT 15SM FEW290 12/M05 A3030 RMK CI1 SLP287

CYQR;2011-09-15 01:00;CYQR 150100Z 14006KT 15SM FEW290 10/M06 A3029 RMK CI1 VIA CYWG FIC SLP282

CYQR;2011-09-15 02:00;CYQR 150200Z 13006KT 15SM FEW250 06/M06 A3028 RMK CI1 VIA CYWG FIC SLP279

CYQR;2011-09-15 03:00;CYQR 150300Z 15008KT 15SM SKC 07/M05 A3028 RMK SLP275

CYQR;2011-09-15 04:00;CYQR 150400Z 16009KT 15SM SKC 06/M04 A3027 RMK OBS TAKEN -08 SLP274

CYQR;2011-09-15 05:00;CYQR 150500Z 16010KT 15SM SKC 05/M05 A3026 RMK SLP271

CYQR;2011-09-15 06:00;CYQR 150600Z 16011KT 15SM SKC 05/M05 A3025 RMK SLP263

CYQR;2011-09-15 07:00;CYQR 150700Z 15008KT 15SM SKC 04/M05 A3024 RMK SLP259

CYQR;2011-09-15 08:00;CYQR 150800Z 15010KT 15SM SKC 04/M05 A3022 RMK SLP255

CYQR;2011-09-15 09:00;CYQR 150900Z 15010KT 15SM SKC 03/M05 A3021 RMK SLP249

CYQR;2011-09-15 10:00;CYQR 151000Z 14012KT 15SM SKC 03/M05 A3019 RMK SLP243

CYQR;2011-09-15 10:32;CYQR 151032Z 14012KT 15SM SKC 02/

CYQR;2011-09-15 11:00;CYQR 151100Z 14011KT 15SM SKC 01/M05 A3017 RMK SLP237

CYQR;2011-09-15 12:00;CYQR 151200Z 15012KT 15SM SKC 01/M05 A3016 RMK SLP233

CYQR;2011-09-15 13:00;CYQR 151300Z 14011KT 15SM SKC 01/M05 A3014 RMK SLP228

CYQR;2011-09-15 14:00;CYQR 151400Z 15014G19KT 15SM SKC 04/M04 A3013 RMK SLP223

CYQR;2011-09-15 15:00;CYQR 151500Z 16016G22KT 15SM SKC 08/M02 A3011 RMK SLP216

CYQR;2011-09-15 16:00;CYQR 151600Z 16016G25KT 15SM SKC 11/M00 A3009 RMK SLP209

CYQR;2011-09-15 17:00;CYQR 151700Z 16021G27KT 15SM SKC 13/00 A3006 RMK SLP201

CYQR;2011-09-15 18:00;CYQR 151800Z 16020G27KT 15SM SKC 16/01 A3003 RMK SLP185

CYQR;2011-09-15 19:00;CYQR 151900Z 17022G27KT 15SM FEW300 17/02 A3000 RMK CI0 SLP176

CYQR;2011-09-15 20:00;CYQR 152000Z 16020G26KT 15SM FEW140 18/02 A2998 RMK AC1 SLP167

CYQR;2011-09-15 21:00;CYQR 152100Z 17021G30KT 15SM FEW140 FEW200 FEW300 18/03 A2996 RMK AC1CC1CI0 SLP157

CYQR;2011-09-15 22:00;CYQR 152200Z 16022G29KT 15SM FEW140 FEW200 SCT300 18/03 A2993 RMK AC1CC1CI0 SLP149

CYQR;2011-09-15 23:00;CYQR 152300Z 16022G29KT 15SM FEW120 FEW230 SCT300 18/03 A2991 RMK AC1CI0CI0 SLP141

CYQR;2011-09-16 00:00;CYQR 160000Z 16020KT 15SM FEW090 FEW300 18/03 A2989 RMK AC1CI0 SLP138

CYQR;2011-09-16 01:00;CYQR 160100Z 16019G24KT 15SM FEW090 SCT300 16/03 A2988 RMK AC1CI0 SLP133

CYQR;2011-09-16 02:00;CYQR 160200Z 15017G22KT 15SM FEW300 14/03 A2987 RMK CI0 CONTRAILS SLP131

CYQR;2011-09-16 03:00;CYQR 160300Z 16016G22KT 15SM SCT240 13/03 A2986 RMK CI0 SLP127

CYQR;2011-09-16 04:00;CYQR 160400Z 15018G24KT 15SM FEW240 12/03 A2986 RMK CI0 OBS TAKEN -08 SLP126

CYQR;2011-09-16 05:00;CYQR 160500Z 16017G24KT 15SM FEW240 11/03 A2986 RMK CI0 SLP125

CYQR;2011-09-16 06:00;CYQR 160600Z 16015G21KT 15SM SKC 09/03 A2985 RMK SLP119

CYQR;2011-09-16 07:00;CYQR 160700Z 16015G21KT 15SM SKC 08/02 A2985 RMK SLP119

CYQR;2011-09-16 08:00;CYQR 160800Z 15016G21KT 15SM SKC 07/02 A2983 RMK SLP114

CYQR;2011-09-16 09:00;CYQR 160900Z 15017G24KT 15SM BKN150 07/02 A2982 RMK AC2 SLP110

CYQR;2011-09-16 10:00;CYQR 161000Z 15017G22KT 15SM FEW150 SCT250 06/02 A2981 RMK AC2CI0 SLP106

CYQR;2011-09-16 11:00;CYQR 161100Z 15020G26KT 15SM FEW250 06/02 A2980 RMK CI0 SLP101

CYQR;2011-09-16 12:00;CYQR 161200Z 15020G27KT 15SM SCT120 BKN260 06/02 A2978 RMK AC3CI0 SLP097

CYQR;2011-09-16 13:00;CYQR 161300Z 16019G26KT 15SM FEW081 BKN260 06/02 A2978 RMK AC2CI1 SLP097

CYQR;2011-09-16 13:35;CYQR 161335Z 16018G27KT 15SM FEW008 FEW091 BKN260 06/ RMK SF0AC2CI1

CYQR;2011-09-16 14:00;CYQR 161400Z 16020G28KT 15SM FEW010 SCT090 BKN300 07/02 A2977 RMK SF1AC2CI0 SLP094

CYQR;2011-09-16 15:00;CYQR 161500Z 16019G26KT 15SM FEW014 SCT090 BKN300 08/03 A2977 RMK SC1AC3CI1 SLP096

CYQR;2011-09-16 16:00;CYQR 161600Z 17021G27KT 15SM FEW015 BKN098 BKN300 10/04 A2977 RMK SC2AC2CI1 ACC ASOCTD SLP094

CYQR;2011-09-16 17:00;CYQR 161700Z 17021G27KT 15SM FEW015 BKN110 BKN300 12/05 A2977 RMK SC1AC5CI1 SLP095

CYQR;2011-09-16 18:00;CYQR 161800Z 17020G25KT 15SM BKN110 OVC300 14/06 A2975 RMK AC6CI2 SLP085

CYQR;2011-09-16 19:00;CYQR 161900Z 19019G26KT 15SM BKN092 OVC300 15/06 A2974 RMK AC6CI2 SLP083

CYQR;2011-09-16 20:00;CYQR 162000Z 19015KT 15SM BKN096 OVC300 15/07 A2974 RMK AC6CI1 ACC ASOCTD SLP083

CYQR;2011-09-16 21:00;CYQR 162100Z 18011KT 15SM BKN095 OVC300 16/07 A2974 RMK AC7CI1 SLP083

CYQR;2011-09-16 22:00;CYQR 162200Z 17010KT 15SM BKN095 OVC300 17/08 A2973 RMK AC7CI1 SLP080

CYQR;2011-09-16 22:07;CYQR 162207Z 16008KT 15SM -SHRA OVC092 17/ RMK AC8 ACC ASOCTD

CYQR;2011-09-16 22:34;CYQR 162234Z 15009KT 15SM BKN092 OVC300 17/ RMK AC6CI1 ACC ASOCTD

CYQR;2011-09-16 23:00;CYQR 162300Z 16010KT 15SM BKN088 OVC300 17/08 A2972 RMK AC6CI1 ACC ASOCTD SLP078

CYQR;2011-09-17 00:00;CYQR 170000Z 15011KT 15SM BKN090 OVC300 17/09 A2971 RMK AC6CI1 SLP073

CYQR;2011-09-17 01:00;CYQR 170100Z 14009KT 15SM FEW090 BKN300 15/08 A2971 RMK AC2CI1 SLP074

CYQR;2011-09-17 02:00;CYQR 170200Z 14008KT 15SM SCT083 BKN260 14/08 A2973 RMK AC2CI2 SLP078

CYQR;2011-09-17 03:00;CYQR 170300Z 14009KT 15SM SCT083 BKN260 13/07 A2973 RMK AC2CI3 SLP080

CYQR;2011-09-17 04:00;CYQR 170400Z 14009KT 15SM FEW076 SCT260 12/07 A2973 RMK AC1CI2 OBS TAKEN -08 SLP082

CYQR;2011-09-17 05:00;CYQR 170500Z 14009KT 15SM FEW075 BKN260 11/07 A2973 RMK AC0CI3 SLP082

CYQR;2011-09-17 06:00;CYQR 170600Z 14010KT 15SM SCT260 11/07 A2974 RMK CI2 SLP080

CYQR;2011-09-17 07:00;CYQR 170700Z 14010KT 15SM SCT240 10/07 A2974 RMK CI2 SLP081

CYQR;2011-09-17 08:00;CYQR 170800Z 14011KT 15SM SCT240 10/07 A2973 RMK CI1 SLP079

CYQR;2011-09-17 09:00;CYQR 170900Z 14011KT 15SM FEW240 10/06 A2973 RMK CI1 SLP077

CYQR;2011-09-17 10:00;CYQR 171000Z 14008KT 15SM SCT260 09/06 A2973 RMK CI0 SLP079

CYQR;2011-09-17 11:00;CYQR 171100Z 14009KT 15SM FEW260 08/06 A2974 RMK CI1 SLP080

CYQR;2011-09-17 12:00;CYQR 171200Z 14010KT 15SM SCT250 08/05 A2974 RMK CI1 SLP080

CYQR;2011-09-17 13:00;CYQR 171300Z 13009KT 15SM FEW150 SCT280 08/05 A2973 RMK AC1CI0 SLP079

CYQR;2011-09-17 14:00;CYQR 171400Z 13008KT 15SM FEW100 BKN260 09/06 A2974 RMK AC1CI2 SLP081

CYQR;2011-09-17 15:00;CYQR 171500Z 14007KT 15SM FEW100 BKN300 12/08 A2974 RMK AC1CI2 SLP081

CYQR;2011-09-17 16:00;CYQR 171600Z 16004KT 15SM FEW100 BKN300 15/08 A2975 RMK AC1CI2 SLP083

CYQR;2011-09-17 17:00;CYQR 171700Z 22002KT 15SM SCT088 OVC300 17/07 A2974 RMK AC3CI2 ACC ASOCTD SLP082

CYQR;2011-09-17 18:00;CYQR 171800Z 17004KT 15SM OVC082 19/06 A2974 RMK AS6 SLP078

CYQR;2011-09-17 19:00;CYQR 171900Z 21008KT 15SM BKN090 OVC300 19/05 A2973 RMK AS6CI1 SLP076

CYQR;2011-09-17 20:00;CYQR 172000Z 20009KT 15SM BKN090 BKN300 20/06 A2972 RMK AS6CI1 VIRGA SLP073

CYQR;2011-09-17 21:00;CYQR 172100Z 21009KT 15SM BKN094 BKN300 21/05 A2972 RMK AC5CI2 VIRGA ACC ASOCTD SLP071

CYQR;2011-09-17 22:00;CYQR 172200Z 20011KT 15SM FEW060 BKN085 OVC300 21/05 A2971 RMK SC1AC6CI1 SLP069

CYQR;2011-09-17 23:00;CYQR 172300Z 18008KT 15SM SCT094 BKN140 BKN300 21/05 A2971 RMK AC3AC2CI1 SLP068

CYQR;2011-09-18 00:00;CYQR 180000Z 16008KT 15SM FEW095 BKN160 BKN300 20/09 A2971 RMK AC2AC3CI1 SLP068

CYQR;2011-09-18 01:00;CYQR 180100Z 15008KT 15SM FEW060 SCT090 BKN300 18/11 A2971 RMK SC2AC2CI1 SLP069

CYQR;2011-09-18 02:00;CYQR 180200Z 14011G16KT 15SM BKN090 16/12 A2972 RMK AC5 SLP074

CYQR;2011-09-18 03:00;CYQR 180300Z 14014KT 15SM FEW011 SCT090 14/11 A2973 RMK SC1AC2 SLP078

CYQR;2011-09-18 03:36;CYQR 180336Z 14010KT 6SM BR OVC004 12/ RMK ST7

CYQR;2011-09-18 04:00;CYQR 180400Z 15009KT 10SM BKN004 BKN090 12/11 A2973 RMK SF7AC1 OBS TAKEN -07 SLP078

CYQR;2011-09-18 04:14;CYQR 180414Z 15008KT 3SM BR OVC002 13/ RMK SF8

CYQR;2011-09-18 04:32;CYQR 180432Z 16008KT 1 1/2SM BR OVC002 12/ RMK SF8

CYQR;2011-09-18 04:52;CYQR 180452Z 15007KT 3SM BR SCT003 12/ RMK SF2

CYQR;2011-09-18 05:00;CYQR 180500Z 15007KT 3SM BR BKN003 12/10 A2973 RMK SF2 SLP078

CYQR;2011-09-18 05:18;CYQR 180518Z 15007KT 10SM FEW003 11/ RMK SF1 VIS N-NE 2SM

CYQR;2011-09-18 06:00;CYQR 180600Z 18004KT 10SM FEW002 FEW060 10/07 A2974 RMK SF1SC2 SF E OVR CITY SLP078

CYQR;2011-09-18 06:38;CYQR 180638Z 28012G17KT 15SM FEW060 07/ RMK SC2 WND SHFT AT 0627Z

CYQR;2011-09-18 07:00;CYQR 180700Z 32016KT 15SM FEW065 09/05 A2977 RMK SC2 SLP088

CYQR;2011-09-18 08:00;CYQR 180800Z 01018G26KT 15SM FEW065 10/05 A2976 RMK SC1 SLP085

CYQR;2011-09-18 09:00;CYQR 180900Z 34012KT 15SM FEW065 SCT240 08/04 A2979 RMK SC2CI0 SLP094

CYQR;2011-09-18 10:00;CYQR 181000Z 25006KT 15SM BKN058 07/04 A2981 RMK SC5 SLP103

CYQR;2011-09-18 11:00;CYQR 181100Z 27011KT 15SM BKN056 07/03 A2983 RMK SC5 SLP108

CYQR;2011-09-18 12:00;CYQR 181200Z 28009KT 15SM BKN056 06/03 A2984 RMK SC5 CU EMBD SLP116

CYQR;2011-09-18 13:00;CYQR 181300Z 27009KT 15SM SCT060 06/03 A2986 RMK SC2 SLP121

CYQR;2011-09-18 14:00;CYQR 181400Z 28011KT 15SM BKN050 08/05 A2987 RMK SC6 SLP126

CYQR;2011-09-18 15:00;CYQR 181500Z 28010KT 15SM BKN052 BKN090 10/06 A2988 RMK SC6AC1 SLP131

CYQR;2011-09-18 16:00;CYQR 181600Z 29014G19KT 15SM FEW059 FEW090 FEW160 13/07 A2989 RMK SC1AC1AC1 SLP133

CYQR;2011-09-18 17:00;CYQR 181700Z 31019G25KT 15SM FEW069 FEW100 15/06 A2990 RMK AC1AC1 SLP137

CYQR;2011-09-18 18:00;CYQR 181800Z 31011G21KT 15SM FEW040 SCT100 16/06 A2991 RMK CU2AC1 SLP138

CYQR;2011-09-18 19:00;CYQR 181900Z 31017KT 15SM SCT046 BKN095 17/05 A2990 RMK CU4AC1 SLP137

CYQR;2011-09-18 20:00;CYQR 182000Z 31015G24KT 15SM FEW060 17/02 A2989 RMK CU2 SLP134

CYQR;2011-09-18 21:00;CYQR 182100Z 29020G26KT 15SM FEW066 FEW300 19/01 A2989 RMK CU2CI1 SLP131

CYQR;2011-09-18 22:00;CYQR 182200Z 30020G25KT 15SM FEW075 19/01 A2989 RMK CU1 SLP130

CYQR;2011-09-18 23:00;CYQR 182300Z 29016G22KT 15SM FEW080 FEW300 19/M01 A2989 RMK CU1CI0 SLP130

CYQR;2011-09-19 00:00;CYQR 190000Z 29012KT 15SM FEW300 18/M01 A2989 RMK CI0 SLP132

CYQR;2011-09-19 01:00;CYQR 190100Z 29007KT 15SM FEW300 13/M02 A2989 RMK CI0 SLP134

CYQR;2011-09-19 02:00;CYQR 190200Z 27004KT 15SM FEW300 11/M01 A2989 RMK CI0 SLP134

CYQR;2011-09-19 03:00;CYQR 190300Z 22006KT 15SM FEW300 08/M03 A2990 RMK CI0 SLP139

CYQR;2011-09-19 04:00;CYQR 190400Z 20007KT 15SM SKC 07/M03 A2989 RMK SLP138

CYQR;2011-09-19 05:00;CYQR 190500Z 20005KT 15SM FEW300 06/M03 A2989 RMK CI0 SLP136

CYQR;2011-09-19 06:00;CYQR 190600Z 18007KT 15SM FEW300 07/M02 A2988 RMK CI0 SLP130

CYQR;2011-09-19 07:00;CYQR 190700Z 16006KT 15SM FEW082 SCT300 07/M02 A2988 RMK AC2CI0 SLP130

CYQR;2011-09-19 08:00;CYQR 190800Z 12005KT 15SM FEW080 SCT300 04/M03 A2985 RMK AC1CI0 SLP122

CYQR;2011-09-19 09:00;CYQR 190900Z 14006KT 15SM SCT100 BKN300 04/M02 A2984 RMK AC4CI0 SLP117

CYQR;2011-09-19 10:00;CYQR 191000Z 12007KT 15SM FEW100 BKN300 04/M02 A2983 RMK AC2CI2 SLP114

CYQR;2011-09-19 11:00;CYQR 191100Z 15006KT 15SM FEW100 SCT300 04/M02 A2982 RMK AC1CI1 SLP111

CYQR;2011-09-19 12:00;CYQR 191200Z 12006KT 15SM FEW100 BKN300 04/M02 A2981 RMK AC1CI2 SLP107

CYQR;2011-09-19 13:00;CYQR 191300Z 18002KT 15SM SCT100 BKN300 04/M01 A2981 RMK AC2CI2 SLP107

CYQR;2011-09-19 14:00;CYQR 191400Z 13005KT 15SM BKN095 OVC300 07/01 A2980 RMK AC5CI3 SLP103

CYQR;2011-09-19 15:00;CYQR 191500Z 17004KT 15SM BKN090 OVC300 10/03 A2978 RMK AC5CI2 SLP101

CYQR;2011-09-19 16:00;CYQR 191600Z 27004KT 15SM BKN070 OVC300 15/07 A2978 RMK AC5CI3 SLP101

CYQR;2011-09-19 17:00;CYQR 191700Z 34002KT 15SM BKN070 OVC300 16/06 A2976 RMK AC6CI2 SLP094

CYQR;2011-09-19 18:00;CYQR 191800Z 26002KT 15SM BKN075 OVC300 17/07 A2976 RMK AC6CI2 SLP087

CYQR;2011-09-19 19:00;CYQR 191900Z 00000KT 15SM BKN094 OVC300 18/07 A2975 RMK AC6CI2 SLP085

CYQR;2011-09-19 20:00;CYQR 192000Z 12002KT 15SM BKN099 OVC300 18/07 A2973 RMK AC6CI2 SLP080

CYQR;2011-09-19 21:00;CYQR 192100Z 27005KT 15SM BKN094 OVC300 19/07 A2973 RMK AC6CI2 SLP078

CYQR;2011-09-19 22:00;CYQR 192200Z 28002KT 15SM BKN087 OVC300 18/06 A2972 RMK AC6CI2 SLP075

CYQR;2011-09-19 23:00;CYQR 192300Z 01002KT 15SM BKN080 OVC300 18/07 A2971 RMK AC6CI2 SLP074

CYQR;2011-09-20 00:00;CYQR 200000Z 36003KT 15SM BKN078 OVC300 17/07 A2971 RMK AC7CI1 SLP076

CYQR;2011-09-20 00:38;CYQR 200038Z 04009KT 12SM -SHRA SCT025 OVC080 16/ RMK SC3AC5 CVCTV CLD EMBD

CYQR;2011-09-20 01:00;CYQR 200100Z 05010KT 10SM -SHRA BKN015 OVC075 15/08 A2972 RMK SC6AC2 CVCTV CLD EMBD SLP079

CYQR;2011-09-20 02:00;CYQR 200200Z 04009KT 15SM -SHRA OVC047 14/08 A2974 RMK SC8 SLP085

CYQR;2011-09-20 03:00;CYQR 200300Z 01017G28KT 12SM -SHRA OVC040 11/08 A2978 RMK SC8 SLP096

CYQR;2011-09-20 04:00;CYQR 200400Z 36018G24KT 10SM -SHRA BKN029 OVC056 10/07 A2982 RMK SC6SC2 SLP110

CYQR;2011-09-20 05:00;CYQR 200500Z 35019G24KT 12SM -SHRA FEW015 OVC033 09/07 A2986 RMK SC2SC6 SLP121

CYQR;2011-09-20 05:20;CYQR 200520Z 34020G25KT 15SM -SHRA BKN014 OVC033 09/ RMK SC6SC2

CYQR;2011-09-20 05:42;CYQR 200542Z 35019G25KT 15SM -SHRA SCT014 OVC026 09/ RMK SC3SC5

CYQR;2011-09-20 06:00;CYQR 200600Z 34018KT 15SM -SHRA SCT014 OVC026 09/ A2989 RMK SC3SC5 SLP132

CYQR;2011-09-20 07:00;CYQR 200700Z 35015KT 15SM -SHRA FEW014 OVC036 09/ A2991 RMK SC2SC6 SLP140

CYQR;2011-09-20 08:00;CYQR 200800Z 35015KT 15SM -SHRA FEW014 OVC037 09/ A2993 RMK SC2SC6 SLP144

CYQR;2011-09-20 09:00;CYQR 200900Z 35010KT 15SM -SHRA FEW014 OVC037 09/ A2994 RMK SC2SC6 SLP147

CYQR;2011-09-20 10:00;CYQR 201000Z 34010KT 15SM -SHRA FEW015 OVC052 09/ A2995 RMK SC2SC6 SLP151

CYQR;2011-09-20 11:00;CYQR 201100Z 34007KT 15SM -SHRA FEW015 SCT050 OVC086 08/ A2996 RMK SC2SC2AC3 SLP154

CYQR;2011-09-20 11:28;CYQR 201128Z 34006KT 15SM FEW015 SCT051 OVC086 08/ RMK SC2SC2AC3

CYQR;2011-09-20 12:00;CYQR 201200Z 30005KT 15SM BKN051 08/ A2997 RMK SC7 SLP159

CYQR;2011-09-20 13:00;CYQR 201300Z 34009KT 15SM FEW030 BKN087 BKN300 08/ A3000 RMK SC1AC6CI0 SLP168

CYQR;2011-09-20 14:00;CYQR 201400Z 34010KT 15SM FEW030 SCT090 BKN300 08/ A3001 RMK SC1AC3CI1 SLP174

CYQR;2011-09-20 15:00;CYQR 201500Z 35013KT 15SM FEW007 FEW075 BKN300 09/ A3003 RMK SF1AC2CI2 SLP185

CYQR;2011-09-20 16:00;CYQR 201600Z 34014KT 15SM FEW007 FEW075 BKN300 11/ A3006 RMK SF1AC2CI2 SLP193

CYQR;2011-09-20 17:00;CYQR 201700Z 35013KT 15SM FEW012 FEW080 BKN300 13/ A3007 RMK CF1AC1CI2 SLP198

CYQR;2011-09-20 18:00;CYQR 201800Z 01013G18KT 15SM BKN024 BKN090 BKN300 15/ A3007 RMK CU5AC1CI0 SLP197

CYQR;2011-09-20 19:00;CYQR 201900Z 34013G18KT 15SM BKN029 BKN090 BKN300 15/15 A3008 RMK CU5AC1CI0 SLP199

CYQR;2011-09-20 20:00;CYQR 202000Z 33017KT 15SM BKN031 BKN300 15/13 A3009 RMK CU5CI2 SLP201

CYQR;2011-09-20 21:00;CYQR 202100Z 36011G19KT 15SM BKN035 BKN300 14/11 A3009 RMK CU5CI1 SLP203

CYQR;2011-09-20 22:00;CYQR 202200Z 35015G20KT 15SM BKN036 BKN300 16/08 A3010 RMK CU5CI1 SLP206

CYQR;2011-09-20 23:00;CYQR 202300Z 35013G21KT 15SM SCT040 SCT060 BKN280 14/06 A3011 RMK SC3SC1CI1 CU ASOCTD SLP209

CYQR;2011-09-21 00:00;CYQR 210000Z 02013KT 15SM FEW040 FEW090 BKN300 13/07 A3012 RMK SC2AC1CI1 CU ASOCTD SLP215

CYQR;2011-09-21 01:00;CYQR 210100Z 03008KT 15SM FEW040 FEW090 FEW300 11/06 A3014 RMK SC1AC1CI0 TR SC SLP220

CYQR;2011-09-21 02:00;CYQR 210200Z 03009KT 15SM FEW090 FEW300 10/06 A3015 RMK AC1CI0 SLP224

CYQR;2011-09-21 03:00;CYQR 210300Z 02007KT 15SM FEW300 09/05 A3016 RMK CI0 SLP231

CYQR;2011-09-21 04:00;CYQR 210400Z 02004KT 15SM FEW300 07/05 A3016 RMK CI0 SLP232

CYQR;2011-09-21 05:00;CYQR 210500Z 01003KT 15SM SKC 05/03 A3017 RMK SLP235

CYQR;2011-09-21 06:00;CYQR 210600Z 35003KT 15SM SKC 04/02 A3018 RMK SLP236

CYQR;2011-09-21 07:00;CYQR 210700Z 35005KT 15SM FEW090 03/01 A3019 RMK AC1 SLP239

CYQR;2011-09-21 08:00;CYQR 210800Z 03003KT 15SM BKN016 06/05 A3020 RMK SC6 SLP244

CYQR;2011-09-21 09:00;CYQR 210900Z 25002KT 15SM FEW035 03/02 A3019 RMK SC2 SLP242

CYQR;2011-09-21 09:39;CYQR 210939Z 01002KT 15SM SCT001 03/ RMK SF2

CYQR;2011-09-21 10:00;CYQR 211000Z 36003KT 15SM FEW004 03/02 A3020 RMK SF1 SLP244

CYQR;2011-09-21 10:35;CYQR 211035Z 00000KT 10SM BKN007 03/ RMK SF5

CYQR;2011-09-21 11:00;CYQR 211100Z 15003KT 10SM OVC006 04/03 A3021 RMK SF8 CIG RAG SLP247

CYQR;2011-09-21 11:23;CYQR 211123Z 14003KT 15SM SCT004 BKN009 05/ RMK SF3SC4 CIG RAG

CYQR;2011-09-21 12:00;CYQR 211200Z 12004KT 15SM SCT004 BKN011 07/06 A3023 RMK SF3SC4 SLP252

CYQR;2011-09-21 12:40;CYQR 211240Z 10006KT 15SM BKN016 07/ RMK SC7

CYQR;2011-09-21 13:00;CYQR 211300Z 12005KT 15SM BKN016 BKN280 07/05 A3023 RMK SC6CI1 SLP252

CYQR;2011-09-21 14:00;CYQR 211400Z 13003KT 15SM BKN020 08/07 A3024 RMK SC7 SLP257

CYQR;2011-09-21 15:00;CYQR 211500Z 12008KT 15SM FEW007 BKN025 BKN040 10/07 A3025 RMK SF1SC5SC2 SLP260

CYQR;2011-09-21 16:00;CYQR 211600Z 15007KT 15SM SCT017 10/06 A3025 RMK SC3 SLP261

CYQR;2011-09-21 17:00;CYQR 211700Z 14006KT 15SM FEW020 12/06 A3025 RMK SC2 CU ASOCTD SLP261

CYQR;2011-09-21 18:00;CYQR 211800Z 18008KT 15SM SCT022 12/07 A3025 RMK SC3 SLP261

CYQR;2011-09-21 19:00;CYQR 211900Z 17008KT 15SM FEW022 13/07 A3024 RMK CU2 SLP258

CYQR;2011-09-21 20:00;CYQR 212000Z 16008KT 15SM FEW030 14/07 A3022 RMK SC2 SLP254

CYQR;2011-09-21 21:00;CYQR 212100Z 19009KT 15SM FEW030 FEW300 15/07 A3020 RMK CU1CI0 SLP243

CYQR;2011-09-21 22:00;CYQR 212200Z 17008KT 15SM FEW030 FEW300 15/07 A3018 RMK CU1CI0 SLP236

CYQR;2011-09-21 23:00;CYQR 212300Z 17008KT 15SM FEW030 FEW300 15/07 A3016 RMK CF1CI0 SLP232

CYQR;2011-09-22 00:00;CYQR 220000Z 16011KT 15SM SCT300 14/07 A3015 RMK CI0 SLP223

CYQR;2011-09-22 01:00;CYQR 220100Z 15010KT 15SM BKN300 13/06 A3013 RMK CI1 SLP218

CYQR;2011-09-22 02:00;CYQR 220200Z 15009KT 15SM BKN300 11/06 A3013 RMK CI1 SLP218

CYQR;2011-09-22 03:00;CYQR 220300Z 15010KT 15SM BKN300 10/06 A3013 RMK CI1 SLP218

CYQR;2011-09-22 04:00;CYQR 220400Z 16009KT 15SM SCT300 09/05 A3012 RMK CI0 SLP216

CYQR;2011-09-22 05:00;CYQR 220500Z 15010KT 15SM SCT300 09/04 A3011 RMK CI0 SLP211

CYQR;2011-09-22 06:00;CYQR 220600Z 14009KT 15SM FEW300 07/05 A3010 RMK CI0 SLP209

CYQR;2011-09-22 07:00;CYQR 220700Z 15010KT 15SM FEW300 07/04 A3009 RMK CI0 SLP204

CYQR;2011-09-22 08:00;CYQR 220800Z 15013KT 15SM FEW300 07/04 A3006 RMK CI0 SLP196

CYQR;2011-09-22 09:00;CYQR 220900Z 15012KT 15SM FEW300 07/04 A3005 RMK CI0 SLP190

CYQR;2011-09-22 10:00;CYQR 221000Z 14013KT 15SM FEW300 06/04 A3003 RMK CI0 SLP183

CYQR;2011-09-22 11:00;CYQR 221100Z 15014KT 15SM FEW300 06/04 A3002 RMK CI0 SLP181

CYQR;2011-09-22 12:00;CYQR 221200Z 15015KT 15SM FEW300 06/03 A3001 RMK CI0 SLP176

CYQR;2011-09-22 13:00;CYQR 221300Z 15015G20KT 15SM FEW300 06/03 A2999 RMK CI1 SLP171

CYQR;2011-09-22 14:00;CYQR 221400Z 15017G25KT 15SM FEW280 07/04 A2998 RMK CI0 SLP166

CYQR;2011-09-22 15:00;CYQR 221500Z 15018KT 15SM SCT280 09/05 A2997 RMK CI0 SLP163

CYQR;2011-09-22 16:00;CYQR 221600Z 16019G24KT 15SM SCT280 12/06 A2996 RMK CI0 SLP159

CYQR;2011-09-22 17:00;CYQR 221700Z 17018G24KT 15SM FEW280 16/07 A2995 RMK CI1 SLP158

CYQR;2011-09-22 18:00;CYQR 221800Z 17023G29KT 15SM FEW280 19/07 A2992 RMK CI0 SLP144

CYQR;2011-09-22 19:00;CYQR 221900Z 18024KT 15SM FEW280 20/06 A2991 RMK CI1 SLP140

CYQR;2011-09-22 20:00;CYQR 222000Z 17020G29KT 15SM FEW280 22/07 A2988 RMK CI1 SLP130

CYQR;2011-09-22 21:00;CYQR 222100Z 18023G28KT 15SM FEW280 23/07 A2987 RMK CI1 SLP122

CYQR;2011-09-22 22:00;CYQR 222200Z 19016KT 15SM BKN280 24/07 A2986 RMK CI2 SLP118

CYQR;2011-09-22 23:00;CYQR 222300Z 19017KT 15SM FEW160 BKN280 24/07 A2984 RMK AC2CI5 SLP113

CYQR;2011-09-23 00:00;CYQR 230000Z 17010KT 15SM FEW160 BKN280 22/08 A2983 RMK AC1CI4 SLP111

CYQR;2011-09-23 01:00;CYQR 230100Z 16010KT 15SM FEW160 BKN280 20/08 A2983 RMK AC1CI1 SLP109

CYQR;2011-09-23 02:00;CYQR 230200Z 15010KT 15SM FEW160 BKN300 17/08 A2983 RMK AC1CI0 SLP110

CYQR;2011-09-23 03:00;CYQR 230300Z 14011KT 15SM FEW140 BKN300 16/08 A2983 RMK AC1CI0 SLP111

CYQR;2011-09-23 04:00;CYQR 230400Z 16009KT 15SM FEW120 BKN300 15/08 A2982 RMK AC2CI1 SLP110

CYQR;2011-09-23 05:00;CYQR 230500Z 17007KT 15SM FEW120 SCT300 14/08 A2982 RMK AC1CI0 SLP110

CYQR;2011-09-23 06:00;CYQR 230600Z 12007KT 15SM FEW120 SCT300 12/08 A2983 RMK AC1CI0 SLP108

CYQR;2011-09-23 07:00;CYQR 230700Z 11006KT 15SM FEW120 BKN300 11/07 A2983 RMK AC1CI0 SLP109

CYQR;2011-09-23 08:00;CYQR 230800Z 12005KT 15SM FEW300 10/07 A2983 RMK CI0 SLP110

CYQR;2011-09-23 09:00;CYQR 230900Z 10005KT 15SM FEW300 08/06 A2984 RMK CI0 SLP112

CYQR;2011-09-23 10:00;CYQR 231000Z 00000KT 15SM FEW300 08/06 A2984 RMK CI0 SLP113

CYQR;2011-09-23 11:00;CYQR 231100Z 16002KT 15SM FEW300 07/05 A2985 RMK CI0 SLP115

CYQR;2011-09-23 12:00;CYQR 231200Z 16002KT 15SM FEW300 07/06 A2986 RMK CI0 SLP119

CYQR;2011-09-23 13:00;CYQR 231300Z 16003KT 15SM SCT300 08/06 A2986 RMK CI1 CONTRAILS SLP121

CYQR;2011-09-23 14:00;CYQR 231400Z 00000KT 15SM FEW300 10/08 A2988 RMK CI1 SLP125

CYQR;2011-09-23 15:00;CYQR 231500Z 26003KT 15SM SCT300 15/10 A2988 RMK CI1 CONTRAILS SLP126

CYQR;2011-09-23 16:00;CYQR 231600Z 26004KT 15SM BKN300 18/10 A2988 RMK CI1 SLP125

CYQR;2011-09-23 17:00;CYQR 231700Z 27004KT 15SM BKN300 22/12 A2988 RMK CI5 SLP126

CYQR;2011-09-23 18:00;CYQR 231800Z 26003KT 15SM BKN300 23/10 A2987 RMK CI5 SLP121

CYQR;2011-09-23 19:00;CYQR 231900Z 26005KT 15SM BKN300 25/11 A2987 RMK CI6 SLP119

CYQR;2011-09-23 20:00;CYQR 232000Z 23004KT 15SM FEW200 BKN300 27/10 A2986 RMK CI2CI5 CC ASOCTD SLP115

CYQR;2011-09-23 21:00;CYQR 232100Z 21003KT 15SM FEW200 BKN300 28/10 A2985 RMK CI2CI4 SLP110

CYQR;2011-09-23 22:00;CYQR 232200Z 22003KT 15SM R13/3500V5000FT/N SCT200 BKN300 27/09 A2984 RMK CI3CI3 SLP109

CYQR;2011-09-23 23:00;CYQR 232300Z 24004KT 15SM FEW150 SCT200 BKN300 28/09 A2984 RMK AC1CI2CI2 SLP109

CYQR;2011-09-24 00:00;CYQR 240000Z 00000KT 15SM FEW200 BKN300 26/ A2986 RMK CI2CI1 SLP115

CYQR;2011-09-24 01:00;CYQR 240100Z 16004KT 15SM FEW200 BKN300 24/ A2985 RMK CI2CI1 SLP113

CYQR;2011-09-24 02:00;CYQR 240200Z 12005KT 15SM FEW200 BKN300 21/ A2986 RMK CI1CI1 SLP117

CYQR;2011-09-24 03:00;CYQR 240300Z 13006KT 15SM SCT300 19/ A2986 RMK CI1 SLP117

CYQR;2011-09-24 04:00;CYQR 240400Z 14007KT 15SM SCT300 18/ A2986 RMK CI1 SLP118

CYQR;2011-09-24 05:00;CYQR 240500Z 15008KT 15SM SCT300 17/ A2986 RMK CI0 SLP115

CYQR;2011-09-24 06:00;CYQR 240600Z 16008KT 15SM SCT300 16/ A2986 RMK CI0 SLP115

CYQR;2011-09-24 07:00;CYQR 240700Z 15007KT 15SM FEW300 15/ A2986 RMK CI0 SLP113

CYQR;2011-09-24 08:00;CYQR 240800Z 14008KT 15SM FEW300 14/ A2985 RMK CI0 SLP111

CYQR;2011-09-24 09:00;CYQR 240900Z 14007KT 15SM R13/6000FT/U FEW300 14/ A2984 RMK CI0 SLP105

CYQR;2011-09-24 10:00;CYQR 241000Z 14008KT 15SM FEW300 14/ A2984 RMK CI0 SLP105

CYQR;2011-09-24 11:00;CYQR 241100Z 13007KT 15SM FEW300 13/ A2984 RMK CI0 SLP106

CYQR;2011-09-24 12:00;CYQR 241200Z 13006KT 15SM FEW300 11/ A2984 RMK CI0 SLP108

CYQR;2011-09-24 13:00;CYQR 241300Z 12005KT 15SM SCT280 11/ A2985 RMK CI1 SLP109

CYQR;2011-09-24 14:00;CYQR 241400Z 13003KT 15SM FEW280 16/ A2986 RMK CI1 SLP112

CYQR;2011-09-24 15:00;CYQR 241500Z 26003KT 15SM FEW280 16/ A2986 RMK CI1 SLP115

CYQR;2011-09-24 16:00;CYQR 241600Z 28009KT 15SM FEW280 21/ A2986 RMK CI1 SLP116

CYQR;2011-09-24 17:00;CYQR 241700Z 27006KT 15SM FEW280 24/ A2986 RMK CI1 SLP116

CYQR;2011-09-24 18:00;CYQR 241800Z 26008KT 15SM FEW280 25/ A2985 RMK CI1 SLP109

CYQR;2011-09-24 19:00;CYQR 241900Z 26007KT 15SM FEW280 27/ A2984 RMK CI1 SLP106

CYQR;2011-09-24 20:00;CYQR 242000Z 28007KT 15SM FEW150 29/ A2982 RMK AC1 SLP100

CYQR;2011-09-24 21:00;CYQR 242100Z 27006KT 15SM FEW290 31/ A2981 RMK CI1 SLP093

CYQR;2011-09-24 22:00;CYQR 242200Z 28007KT 15SM FEW290 32/ A2980 RMK CI1 SLP089

CYQR;2011-09-24 23:00;CYQR 242300Z 27009KT 15SM FEW290 31/ A2980 RMK CI1 SLP088

CYQR;2011-09-25 00:00;CYQR 250000Z 29005KT 15SM FEW290 28/11 A2979 RMK CI1 SLP088

CYQR;2011-09-25 01:00;CYQR 250100Z 31004KT 15SM FEW290 24/09 A2979 RMK CI1 SLP088

CYQR;2011-09-25 02:00;CYQR 250200Z 24004KT 15SM SKC 21/08 A2979 RMK SLP090

CYQR;2011-09-25 03:00;CYQR 250300Z 20003KT 15SM SKC 18/08 A2980 RMK SLP096

CYQR;2011-09-25 04:00;CYQR 250400Z 00000KT 15SM SKC 15/10 A2979 RMK SLP094

CYQR;2011-09-25 05:00;CYQR 250500Z 00000KT 15SM SKC 15/10 A2979 RMK SLP093

CYQR;2011-09-25 06:00;CYQR 250600Z 13005KT 15SM SKC 13/09 A2978 RMK SLP088

CYQR;2011-09-25 07:00;CYQR 250700Z 13002KT 15SM SKC 12/09 A2978 RMK SLP087

CYQR;2011-09-25 08:00;CYQR 250800Z 12005KT 15SM SKC 11/08 A2978 RMK SLP086

CYQR;2011-09-25 09:00;CYQR 250900Z 14004KT 15SM SKC 11/08 A2977 RMK SLP080

CYQR;2011-09-25 10:00;CYQR 251000Z 13004KT 15SM SKC 10/07 A2976 RMK SLP078

CYQR;2011-09-25 11:00;CYQR 251100Z 13003KT 15SM SKC 09/06 A2977 RMK SLP080

CYQR;2011-09-25 12:00;CYQR 251200Z 12004KT 15SM FEW280 08/06 A2976 RMK CI1 SLP083

CYQR;2011-09-25 13:00;CYQR 251300Z 13005KT 15SM FEW280 08/06 A2977 RMK CI0 SLP084

CYQR;2011-09-25 14:00;CYQR 251400Z 16002KT 15SM FEW280 10/08 A2977 RMK CI1 CONTRAILS SLP084

CYQR;2011-09-25 15:00;CYQR 251500Z 19002KT 15SM FEW280 14/09 A2977 RMK CI1 SLP086

CYQR;2011-09-25 16:00;CYQR 251600Z 00000KT 15SM FEW300 18/10 A2976 RMK CI0 SLP082

CYQR;2011-09-25 17:00;CYQR 251700Z 14002KT 15SM SCT300 22/11 A2974 RMK CI0 SLP078

CYQR;2011-09-25 18:00;CYQR 251800Z 14002KT 15SM FEW300 25/10 A2973 RMK CI1 SLP069

CYQR;2011-09-25 19:00;CYQR 251900Z 16003KT 15SM FEW300 27/10 A2971 RMK CI1 CC ASOCTD SLP065

CYQR;2011-09-25 20:00;CYQR 252000Z 16004KT 15SM FEW300 29/10 A2970 RMK CI1 SLP059

CYQR;2011-09-25 21:00;CYQR 252100Z 15005KT 15SM FEW300 30/08 A2968 RMK CI1 SLP051

CYQR;2011-09-25 22:00;CYQR 252200Z 16007KT 15SM FEW300 30/08 A2968 RMK CI1 SLP050

CYQR;2011-09-25 23:00;CYQR 252300Z 16007KT 15SM BKN300 29/09 A2967 RMK CI2 SLP049

CYQR;2011-09-26 00:00;CYQR 260000Z 14006KT 15SM SCT270 27/09 A2966 RMK CI1 SLP049

CYQR;2011-09-26 01:00;CYQR 260100Z 15008KT 15SM BKN270 24/08 A2966 RMK CI1 SLP048

CYQR;2011-09-26 02:00;CYQR 260200Z 14011KT 15SM SCT250 22/10 A2966 RMK CI0 SLP048

CYQR;2011-09-26 03:00;CYQR 260300Z 14012KT 15SM SKC 20/10 A2966 RMK SLP048

CYQR;2011-09-26 04:00;CYQR 260400Z 14011KT 15SM SKC 18/12 A2967 RMK SLP050

CYQR;2011-09-26 05:00;CYQR 260500Z 15010KT 15SM SKC 17/12 A2966 RMK SLP047

CYQR;2011-09-26 06:00;CYQR 260600Z 13011KT 15SM SKC 16/11 A2966 RMK SLP045

CYQR;2011-09-26 07:00;CYQR 260700Z 13011KT 15SM SKC 15/12 A2966 RMK SLP045

CYQR;2011-09-26 08:00;CYQR 260800Z 13011KT 15SM SKC 15/12 A2966 RMK SLP045

CYQR;2011-09-26 09:00;CYQR 260900Z 14014G20KT 15SM SKC 14/11 A2966 RMK SLP044

CYQR;2011-09-26 10:00;CYQR 261000Z 14013KT 15SM SKC 14/11 A2967 RMK SLP045

CYQR;2011-09-26 11:00;CYQR 261100Z 15015KT 15SM SKC 14/11 A2969 RMK SLP052

CYQR;2011-09-26 12:00;CYQR 261200Z 14016KT 15SM FEW120 SCT250 13/10 A2968 RMK AC2CI0 SLP052

CYQR;2011-09-26 13:00;CYQR 261300Z 15013KT 15SM FEW120 BKN250 12/09 A2970 RMK AC2CI1 SLP057

CYQR;2011-09-26 14:00;CYQR 261400Z 17013KT 15SM FEW080 FEW120 BKN250 12/09 A2973 RMK AC1AC1CI1 SLP068

CYQR;2011-09-26 15:00;CYQR 261500Z 18008KT 15SM FEW080 FEW120 BKN250 14/11 A2974 RMK AC1AC1CI2 SLP076

CYQR;2011-09-26 16:00;CYQR 261600Z 27008KT 15SM FEW080 FEW150 BKN270 19/09 A2975 RMK AC1AC1CI1 SLP078

CYQR;2011-09-26 17:00;CYQR 261700Z 30013G19KT 15SM FEW080 BKN280 22/08 A2975 RMK AC1CI1 SLP079

CYQR;2011-09-26 18:00;CYQR 261800Z 27016KT 15SM FEW098 BKN280 23/07 A2977 RMK AC1CI0 SLP083

CYQR;2011-09-26 19:00;CYQR 261900Z 29018G24KT 15SM FEW085 FEW240 24/06 A2977 RMK AC1CI2 SLP084

CYQR;2011-09-26 20:00;CYQR 262000Z 28021G27KT 15SM FEW120 BKN240 25/05 A2979 RMK AC1CI2 SLP088

CYQR;2011-09-26 21:00;CYQR 262100Z 28020KT 15SM BKN250 25/04 A2979 RMK CI1 SLP089

CYQR;2011-09-26 22:00;CYQR 262200Z 29021KT 15SM FEW250 24/03 A2979 RMK CI1 SLP090

CYQR;2011-09-26 23:00;CYQR 262300Z 29013G25KT 15SM FEW250 24/05 A2981 RMK CI1 SLP095

CYQR;2011-09-27 00:00;CYQR 270000Z 30016KT 15SM SKC 22/06 A2983 RMK SLP105

CYQR;2011-09-27 01:00;CYQR 270100Z 28006KT 15SM SKC 17/04 A2984 RMK SLP109

CYQR;2011-09-27 02:00;CYQR 270200Z 29005KT 15SM SKC 15/03 A2985 RMK SLP113

CYQR;2011-09-27 03:00;CYQR 270300Z 25005KT 15SM SKC 12/04 A2986 RMK SLP123

CYQR;2011-09-27 04:00;CYQR 270400Z 25007KT 15SM SKC 10/03 A2988 RMK SLP128

CYQR;2011-09-27 05:00;CYQR 270500Z 16002KT 15SM SKC 09/02 A2989 RMK SLP130

CYQR;2011-09-27 06:00;CYQR 270600Z 18003KT 15SM SKC 08/02 A2988 RMK SLP124

CYQR;2011-09-27 07:00;CYQR 270700Z 16005KT 15SM SKC 09/02 A2988 RMK SLP125

CYQR;2011-09-27 08:00;CYQR 270800Z 14006KT 15SM SKC 07/02 A2988 RMK SLP125

CYQR;2011-09-27 09:00;CYQR 270900Z 15007KT 15SM SKC 07/02 A2988 RMK SLP124

CYQR;2011-09-27 10:00;CYQR 271000Z 16006KT 15SM SKC 09/02 A2987 RMK SLP122

CYQR;2011-09-27 11:00;CYQR 271100Z 17008KT 15SM SKC 09/03 A2987 RMK SLP121

CYQR;2011-09-27 12:00;CYQR 271200Z 16008KT 15SM FEW250 09/03 A2986 RMK CI0 SLP117

CYQR;2011-09-27 13:00;CYQR 271300Z 16007KT 15SM FEW250 09/03 A2986 RMK CI1 SLP117

CYQR;2011-09-27 14:00;CYQR 271400Z 16007KT 15SM FEW074 FEW210 SCT250 10/04 A2985 RMK AC1CC1CI1 SLP116

CYQR;2011-09-27 15:00;CYQR 271500Z 21005KT 15SM FEW090 FEW210 16/06 A2985 RMK AC1CI1 SLP117

CYQR;2011-09-27 16:00;CYQR 271600Z 24009KT 15SM FEW210 21/07 A2984 RMK CI1 SLP114

CYQR;2011-09-27 17:00;CYQR 271700Z 24009KT 15SM FEW092 24/07 A2982 RMK AC1 SLP108

CYQR;2011-09-27 18:00;CYQR 271800Z 26010KT 15SM FEW190 26/08 A2981 RMK AC1 SLP101

CYQR;2011-09-27 19:00;CYQR 271900Z 19004KT 15SM FEW190 27/08 A2978 RMK AC1 SLP091

CYQR;2011-09-27 20:00;CYQR 272000Z 25010G15KT 15SM FEW190 28/08 A2976 RMK AC1 SLP083

CYQR;2011-09-27 21:00;CYQR 272100Z 24011G16KT 15SM FEW240 28/08 A2974 RMK CI1 SLP074

CYQR;2011-09-27 22:00;CYQR 272200Z 24014KT 15SM FEW240 29/08 A2973 RMK CI1 SLP071

CYQR;2011-09-27 23:00;CYQR 272300Z 25015G21KT 15SM SCT300 29/08 A2972 RMK CI0 SLP068

CYQR;2011-09-28 00:00;CYQR 280000Z 25013G19KT 15SM FEW150 FEW250 27/07 A2971 RMK AC1CI1 SLP065

CYQR;2011-09-28 01:00;CYQR 280100Z 24010KT 15SM FEW130 FEW250 22/07 A2972 RMK AC1CI1 SLP067

CYQR;2011-09-28 02:00;CYQR 280200Z 25010KT 15SM FEW130 19/07 A2974 RMK AC1 SLP073

CYQR;2011-09-28 03:00;CYQR 280300Z 23005KT 15SM SKC 15/08 A2975 RMK SLP080

CYQR;2011-09-28 04:00;CYQR 280400Z 27007KT 15SM FEW130 16/08 A2976 RMK AC2 SLP082

CYQR;2011-09-28 05:00;CYQR 280500Z 29007KT 15SM FEW130 17/08 A2977 RMK AC2 SLP088

CYQR;2011-09-28 06:00;CYQR 280600Z 30012KT 15SM FEW130 18/08 A2978 RMK AC2 SLP082

CYQR;2011-09-28 07:00;CYQR 280700Z 22008KT 15SM FEW130 12/07 A2980 RMK AC2 SLP089

CYQR;2011-09-28 08:00;CYQR 280800Z 24010KT 15SM FEW130 13/05 A2981 RMK AC2 SLP091

CYQR;2011-09-28 09:00;CYQR 280900Z 25007KT 15SM FEW130 11/04 A2980 RMK AC2 SLP092

CYQR;2011-09-28 10:00;CYQR 281000Z 27008KT 15SM FEW130 11/04 A2981 RMK AC2 SLP096

CYQR;2011-09-28 11:00;CYQR 281100Z 30006KT 15SM SKC 09/04 A2981 RMK SLP096

CYQR;2011-09-28 12:00;CYQR 281200Z 30008KT 15SM FEW150 FEW250 09/04 A2984 RMK AC2CI0 SLP108

CYQR;2011-09-28 13:00;CYQR 281300Z 30006KT 15SM FEW150 FEW250 07/03 A2985 RMK AC1CI1 SLP110

CYQR;2011-09-28 14:00;CYQR 281400Z 28007KT 15SM FEW073 SCT260 09/05 A2986 RMK AC2CI0 SLP116

CYQR;2011-09-28 15:00;CYQR 281500Z 32011KT 15SM FEW093 SCT260 12/06 A2989 RMK AC2CI0 SLP132

CYQR;2011-09-28 16:00;CYQR 281600Z 34012G17KT 15SM SCT075 17/05 A2990 RMK AC4 SLP134

CYQR;2011-09-28 17:00;CYQR 281700Z 31014G21KT 15SM BKN086 18/05 A2992 RMK AC6 SLP142

CYQR;2011-09-28 18:00;CYQR 281800Z 32017KT 15SM SCT091 BKN260 18/04 A2992 RMK ACC4CI1 SLP135

CYQR;2011-09-28 19:00;CYQR 281900Z 29017KT 15SM SCT089 SCT260 19/05 A2992 RMK AC4CI1 ACC VIRGA ASOCTD SLP136

CYQR;2011-09-28 20:00;CYQR 282000Z 31019G25KT 15SM FEW090 20/02 A2992 RMK AC2 SLP137

CYQR;2011-09-28 21:00;CYQR 282100Z 33020KT 15SM FEW064 FEW090 20/04 A2994 RMK CU1AC2 ACC VIRGA ASOCTD SLP147

CYQR;2011-09-28 22:00;CYQR 282200Z 35022G30KT 15SM FEW070 FEW100 20/02 A2998 RMK CU1AC1 SLP158

CYQR;2011-09-28 23:00;CYQR 282300Z 35017G29KT 15SM FEW073 FEW088 19/00 A3000 RMK CU1AC1 SLP165

CYQR;2011-09-29 00:00;CYQR 290000Z 34018G25KT 15SM FEW073 FEW088 17/01 A3003 RMK AC1AC1 SLP179

CYQR;2011-09-29 01:00;CYQR 290100Z 33020G26KT 15SM FEW080 FEW260 15/00 A3005 RMK AC1CI1 SLP188

CYQR;2011-09-29 02:00;CYQR 290200Z 30010KT 15SM FEW260 12/00 A3008 RMK CI0 SLP197

CYQR;2011-09-29 03:00;CYQR 290300Z 30014KT 15SM SKC 11/00 A3010 RMK SLP207

CYQR;2011-09-29 04:00;CYQR 290400Z 31016KT 15SM SKC 12/M00 A3012 RMK SLP214

CYQR;2011-09-29 05:00;CYQR 290500Z 30011KT 15SM SKC 09/M01 A3015 RMK SLP223

CYQR;2011-09-29 06:00;CYQR 290600Z 30011KT 15SM SKC 08/M00 A3018 RMK SLP233

CYQR;2011-09-29 07:00;CYQR 290700Z 31010KT 15SM SKC 07/00 A3021 RMK SLP241

CYQR;2011-09-29 08:00;CYQR 290800Z 30009KT 15SM SKC 06/00 A3024 RMK SLP250

CYQR;2011-09-29 09:00;CYQR 290900Z 30010KT 15SM SKC 05/01 A3026 RMK SLP261

CYQR;2011-09-29 10:00;CYQR 291000Z 31010KT 15SM SKC 05/01 A3029 RMK SLP270

CYQR;2011-09-29 11:00;CYQR 291100Z 31010KT 15SM SKC 05/01 A3032 RMK SLP278

CYQR;2011-09-29 12:00;CYQR 291200Z 31008KT 15SM SKC 04/01 A3033 RMK SLP288

CYQR;2011-09-29 13:00;CYQR 291300Z 32009KT 15SM SKC 03/01 A3034 RMK SLP289

CYQR;2011-09-29 14:00;CYQR 291400Z 33008KT 15SM FEW350 05/03 A3036 RMK CI1 SLP296

CYQR;2011-09-29 15:00;CYQR 291500Z 33008KT 15SM FEW350 08/04 A3038 RMK CI0 SLP305

CYQR;2011-09-29 16:00;CYQR 291600Z 34011KT 15SM FEW350 10/05 A3039 RMK CI0 SLP308

CYQR;2011-09-29 17:00;CYQR 291700Z 32009KT 15SM FEW350 11/04 A3040 RMK CI0 SLP310

CYQR;2011-09-29 18:00;CYQR 291800Z 31007KT 15SM FEW040 FEW350 13/03 A3039 RMK CF1CI1 SLP307

CYQR;2011-09-29 19:00;CYQR 291900Z 35006KT 15SM FEW048 FEW350 13/01 A3037 RMK CF1CI1 SLP302

CYQR;2011-09-29 20:00;CYQR 292000Z 33005KT 15SM FEW050 FEW350 14/01 A3035 RMK CF1CI0 SLP295

CYQR;2011-09-29 21:00;CYQR 292100Z 15002KT 15SM BKN350 15/01 A3034 RMK CI1 SLP290

CYQR;2011-09-29 22:00;CYQR 292200Z 24003KT 15SM FEW056 BKN350 15/02 A3033 RMK CF1CI2 SLP288

CYQR;2011-09-29 23:00;CYQR 292300Z 26004KT 15SM BKN350 15/02 A3031 RMK CI2 SLP282

CYQR;2011-09-30 00:00;CYQR 300000Z 20003KT 15SM FEW098 BKN350 12/02 A3029 RMK AC1CI1 SLP275

CYQR;2011-09-30 01:00;CYQR 300100Z 15003KT 15SM BKN350 11/00 A3027 RMK CI1 SLP270

CYQR;2011-09-30 02:00;CYQR 300200Z 13006KT 15SM BKN350 07/00 A3026 RMK CI1 SLP268

CYQR;2011-09-30 03:00;CYQR 300300Z 14006KT 15SM SCT350 08/00 A3026 RMK CI1 SLP267

CYQR;2011-09-30 04:00;CYQR 300400Z 13009KT 15SM SKC 06/M00 A3024 RMK SLP261

CYQR;2011-09-30 05:00;CYQR 300500Z 14010KT 15SM SKC 07/00 A3023 RMK SLP256

CYQR;2011-09-30 06:00;CYQR 300600Z 14009KT 15SM SKC 06/M00 A3022 RMK SLP250

CYQR;2011-09-30 07:00;CYQR 300700Z 13012KT 15SM SKC 06/00 A3019 RMK SLP241

CYQR;2011-09-30 08:00;CYQR 300800Z 14012KT 15SM SKC 05/M00 A3018 RMK SLP237

CYQR;2011-09-30 09:00;CYQR 300900Z 14011KT 15SM SCT300 05/M00 A3016 RMK CI2 SLP230

CYQR;2011-09-30 10:00;CYQR 301000Z 15012KT 15SM FEW300 05/00 A3014 RMK CI0 SLP222

CYQR;2011-09-30 11:00;CYQR 301100Z 14013KT 15SM SKC 06/01 A3011 RMK SLP215

CYQR;2011-09-30 12:00;CYQR 301200Z 14014KT 15SM SKC 06/01 A3008 RMK SLP201

CYQR;2011-09-30 13:00;CYQR 301300Z 14016KT 15SM FEW330 06/01 A3005 RMK CI0 SLP191

CYQR;2011-09-30 14:00;CYQR 301400Z 14017G24KT 15SM FEW330 07/02 A3002 RMK CI1 SLP184

CYQR;2011-09-30 15:00;CYQR 301500Z 16020G26KT 15SM FEW330 10/03 A3001 RMK CI0 SLP180

CYQR;2011-09-30 16:00;CYQR 301600Z 16020G26KT 15SM FEW330 12/04 A2999 RMK CI0 SLP173

CYQR;2011-09-30 17:00;CYQR 301700Z 16019G25KT 15SM FEW330 15/06 A2996 RMK CI0 SLP164

CYQR;2011-09-30 18:00;CYQR 301800Z 16021G27KT 15SM FEW330 18/05 A2994 RMK CI0 SLP149

CYQR;2011-09-30 19:00;CYQR 301900Z 17019G27KT 15SM BKN330 19/05 A2991 RMK CI0 SLP141

CYQR;2011-09-30 20:00;CYQR 302000Z 16019G28KT 15SM BKN330 20/05 A2989 RMK CI0 SLP133

CYQR;2011-09-30 21:00;CYQR 302100Z 17021KT 15SM FEW300 22/05 A2986 RMK CI1 SLP122

CYQR;2011-09-30 22:00;CYQR 302200Z 17018G25KT 15SM FEW300 23/05 A2983 RMK CI1 SLP112

CYQR;2011-09-30 23:00;CYQR 302300Z 17016G24KT 15SM FEW300 22/05 A2982 RMK CI1 SLP108

CYQR;2011-10-01 01:00;CYQR 010100Z 15012KT 15SM FEW250 BKN300 19/04 A2979 RMK CI1CI0 SLP099

CYQR;2011-10-01 02:00;CYQR 010200Z 15013G18KT 15SM BKN250 17/04 A2979 RMK CI2 SLP098

CYQR;2011-10-01 03:00;CYQR 010300Z 15015KT 15SM BKN250 15/05 A2978 RMK CI1 SLP095

CYQR;2011-10-01 04:00;CYQR 010400Z 15014KT 15SM SCT250 14/05 A2977 RMK CI0 SLP093

CYQR;2011-10-01 05:00;CYQR 010500Z 14014KT 15SM SCT250 14/05 A2976 RMK CI0 SLP090

CYQR;2011-10-01 06:00;CYQR 010600Z 14013KT 15SM BKN250 13/05 A2976 RMK CI0 SLP085

CYQR;2011-10-01 07:00;CYQR 010700Z 13014KT 15SM SCT250 12/05 A2974 RMK CI0 SLP079

CYQR;2011-10-01 08:00;CYQR 010800Z 13011KT 15SM SKC 11/05 A2976 RMK SLP084

CYQR;2011-10-01 09:00;CYQR 010900Z 13008KT 15SM SCT250 10/04 A2976 RMK CI0 SLP083

CYQR;2011-10-01 10:00;CYQR 011000Z 13008KT 15SM SKC 08/04 A2977 RMK SLP086

CYQR;2011-10-01 11:00;CYQR 011100Z 14006KT 15SM SKC 07/03 A2977 RMK SLP086

CYQR;2011-10-01 12:00;CYQR 011200Z 09005KT 15SM FEW250 06/02 A2979 RMK CI1 SLP097

CYQR;2011-10-01 13:00;CYQR 011300Z 00000KT 15SM BKN250 05/02 A2981 RMK CI2 SLP102

CYQR;2011-10-01 14:00;CYQR 011400Z 28003KT 15SM FEW300 10/04 A2982 RMK CI1 SLP108

CYQR;2011-10-01 15:00;CYQR 011500Z 29011KT 15SM FEW300 14/06 A2986 RMK CI0 SLP119

CYQR;2011-10-01 16:00;CYQR 011600Z 32010KT 15SM FEW300 16/07 A2989 RMK CI1 CC ASOCTD SLP130

CYQR;2011-10-01 17:00;CYQR 011700Z 32009G15KT 15SM FEW320 17/07 A2991 RMK CI0 SLP138

CYQR;2011-10-01 18:00;CYQR 011800Z 33007KT 15SM FEW320 19/08 A2992 RMK CI1 SLP139

CYQR;2011-10-01 19:00;CYQR 011900Z 35011KT 15SM FEW300 21/08 A2992 RMK CI0 SLP138

CYQR;2011-10-01 20:00;CYQR 012000Z 36009KT 15SM FEW056 FEW350 22/08 A2991 RMK CF1CI1 SLP136

CYQR;2011-10-01 21:00;CYQR 012100Z 02008KT 15SM FEW350 23/07 A2991 RMK CI1 SLP136

CYQR;2011-10-01 22:00;CYQR 012200Z 02008KT 15SM FEW350 23/08 A2992 RMK CI0 SLP138

CYQR;2011-10-01 23:00;CYQR 012300Z 02010KT 15SM FEW300 22/07 A2994 RMK CI0 SLP144

CYQR;2011-10-02 00:00;CYQR 020000Z 02009KT 15SM FEW160 FEW300 20/07 A2995 RMK AC1CI0 SLP153

CYQR;2011-10-02 01:00;CYQR 020100Z 04013KT 15SM FEW140 BKN300 18/04 A2995 RMK AC2CI0 SLP151

CYQR;2011-10-02 02:00;CYQR 020200Z 06016KT 15SM BKN090 17/03 A2994 RMK AC6 SLP148

CYQR;2011-10-02 03:00;CYQR 020300Z 08018G24KT 15SM BKN100 17/02 A2993 RMK AC6 SLP143

CYQR;2011-10-02 04:00;CYQR 020400Z 09015KT 15SM SCT100 16/02 A2993 RMK AC4 SLP142

CYQR;2011-10-02 05:00;CYQR 020500Z 09017KT 15SM SCT100 16/02 A2992 RMK AC3 SLP139

CYQR;2011-10-02 06:00;CYQR 020600Z 10017G25KT 15SM SCT076 16/03 A2992 RMK AC3 SLP138

CYQR;2011-10-02 07:00;CYQR 020700Z 11005KT 15SM -SHRA FEW036 BKN061 15/03 A2997 RMK SC2SC3 SLP153

CYQR;2011-10-02 07:26;CYQR 020726Z 09005KT 15SM FEW036 BKN061 15/ RMK SC2SC3

CYQR;2011-10-02 08:00;CYQR 020800Z 11011KT 15SM FEW047 BKN087 15/05 A2991 RMK SC2AC4 SLP134

CYQR;2011-10-02 09:00;CYQR 020900Z 13019G25KT 15SM BKN077 OVC280 16/07 A2988 RMK AC6CI1 SLP121

CYQR;2011-10-02 10:00;CYQR 021000Z 13013KT 15SM FEW039 BKN072 OVC280 16/07 A2988 RMK SC2AC3CI1 SLP121

CYQR;2011-10-02 11:00;CYQR 021100Z 14011G16KT 15SM SCT078 15/07 A2989 RMK AC4 SLP125

CYQR;2011-10-02 12:00;CYQR 021200Z 13012KT 15SM FEW080 14/07 A2989 RMK AC2 SLP128

CYQR;2011-10-02 13:00;CYQR 021300Z 12008KT 15SM SCT075 13/07 A2989 RMK AC3 ACC ASOCTD SLP128

CYQR;2011-10-02 14:00;CYQR 021400Z 09006KT 15SM SCT075 SCT120 BKN300 13/08 A2991 RMK AC3AC1CI0 ACC ASOCTD VIRGA SLP132

CYQR;2011-10-02 15:00;CYQR 021500Z 05008KT 15SM FEW080 FEW120 BKN300 15/08 A2991 RMK AC1AC2CI0 SLP134

CYQR;2011-10-02 16:00;CYQR 021600Z 11008KT 15SM SCT080 SCT120 BKN300 15/08 A2993 RMK AC3AC1CI0 VIRGA SW SLP141

CYQR;2011-10-02 17:00;CYQR 021700Z 10006KT 15SM SCT080 BKN120 BKN300 17/09 A2992 RMK AC3AC2CI0 ACC ASOCTD SLP137

CYQR;2011-10-02 18:00;CYQR 021800Z CCA 08008KT 15SM FEW080 SCT120 BKN300 18/09 A2990 RMK AC2AC2CI2 ACC ASOCTD SLP129

CYQR;2011-10-02 19:00;CYQR 021900Z 10014KT 15SM SCT064 BKN120 OVC300 18/09 A2988 RMK SC3AC2CI1 ACC ASOCTD SLP123

CYQR;2011-10-02 20:00;CYQR 022000Z 08010KT 15SM FEW069 SCT120 BKN300 19/09 A2990 RMK AC2AC1CI0 SLP129

CYQR;2011-10-02 21:00;CYQR 022100Z 08005KT 15SM FEW040 FEW120 BKN320 19/09 A2990 RMK CU1AC1CI0 TCU SE SLP131

CYQR;2011-10-02 22:00;CYQR 022200Z 00000KT 15SM FEW040 FEW120 BKN300 19/09 A2991 RMK CU1AC1CI1 TCU SE SLP135

CYQR;2011-10-02 23:00;CYQR 022300Z 05006KT 15SM FEW120 BKN300 19/09 A2992 RMK AC2CI1 SLP136

CYQR;2011-10-03 00:00;CYQR 030000Z 35009KT 15SM FEW120 BKN300 16/09 A2997 RMK AC2CI1 SLP158

CYQR;2011-10-03 01:00;CYQR 030100Z 04007KT 15SM BKN090 BKN300 15/08 A2998 RMK AC5CI1 SLP161

CYQR;2011-10-03 02:00;CYQR 030200Z 06008KT 15SM SCT100 BKN300 15/08 A2997 RMK AC4CI2 SLP156

CYQR;2011-10-03 03:00;CYQR 030300Z 10012KT 15SM SCT100 OVC300 14/08 A2996 RMK AC4CI2 SLP152

CYQR;2011-10-03 04:00;CYQR 030400Z 10010KT 15SM SCT100 BKN280 14/07 A2996 RMK AC3CI1 SLP154

CYQR;2011-10-03 05:00;CYQR 030500Z 12006KT 15SM FEW100 BKN280 12/07 A2997 RMK AC2CI1 SLP158

CYQR;2011-10-03 06:00;CYQR 030600Z 33006KT 15SM FEW100 BKN280 09/06 A3001 RMK AC2CI0 SLP173

CYQR;2011-10-03 07:00;CYQR 030700Z 01004KT 15SM SCT280 08/05 A3003 RMK CI1 SLP179

CYQR;2011-10-03 08:00;CYQR 030800Z 03005KT 15SM SCT280 08/05 A3002 RMK CI2 SLP176

CYQR;2011-10-03 09:00;CYQR 030900Z 05004KT 15SM SKC 07/04 A3002 RMK SLP178

CYQR;2011-10-03 10:00;CYQR 031000Z 06002KT 15SM SKC 07/05 A3003 RMK SLP180

CYQR;2011-10-03 11:00;CYQR 031100Z 07003KT 15SM SKC 07/05 A3005 RMK SLP188

CYQR;2011-10-03 12:00;CYQR 031200Z 08003KT 15SM SKC 06/04 A3006 RMK SLP193

CYQR;2011-10-03 13:00;CYQR 031300Z 08006KT 15SM FEW220 06/04 A3006 RMK CI1 SLP194

CYQR;2011-10-03 14:00;CYQR 031400Z 09005KT 15SM FEW300 08/05 A3008 RMK CI0 SLP198

CYQR;2011-10-03 15:00;CYQR 031500Z 10007KT 15SM FEW300 11/06 A3007 RMK CI0 SLP194

CYQR;2011-10-03 16:00;CYQR 031600Z 12008KT 15SM FEW300 13/07 A3008 RMK CI0 SLP199

CYQR;2011-10-03 17:00;CYQR 031700Z 14009KT 15SM BKN300 16/09 A3009 RMK CI0 SLP201

CYQR;2011-10-03 18:00;CYQR 031800Z 11009KT 15SM FEW300 18/09 A3007 RMK CI0 SLP192

CYQR;2011-10-03 19:00;CYQR 031900Z 13009KT 15SM FEW300 20/10 A3005 RMK CI1 SLP186

CYQR;2011-10-03 20:00;CYQR 032000Z 11008KT 15SM FEW130 SCT300 22/11 A3002 RMK AC1CI1 SLP178

CYQR;2011-10-03 21:00;CYQR 032100Z 11011KT 12SM FEW130 BKN300 22/11 A3002 RMK AC1CI0 HZ SLP174

CYQR;2011-10-03 22:00;CYQR 032200Z 11013KT 12SM FEW130 BKN300 23/11 A3000 RMK AC1CI1 HZ SLP169

CYQR;2011-10-03 23:00;CYQR 032300Z CCA 10014KT 12SM FEW130 BKN300 21/11 A3000 RMK AC1CI1 HZ SLP167

CYQR;2011-10-04 00:00;CYQR 040000Z 09011G18KT 15SM BKN300 19/10 A2999 RMK CI0 SLP167

CYQR;2011-10-04 01:00;CYQR 040100Z 10014KT 15SM FEW120 BKN300 16/10 A2999 RMK AC1CI0 SLP166

CYQR;2011-10-04 02:00;CYQR 040200Z 11017KT 15SM BKN300 15/10 A2999 RMK CI1 SLP167

CYQR;2011-10-04 03:00;CYQR 040300Z 12018G24KT 15SM SKC 15/10 A2998 RMK SLP165

CYQR;2011-10-04 04:00;CYQR 040400Z 12016G22KT 15SM SKC 14/09 A2998 RMK SLP164

CYQR;2011-10-04 05:00;CYQR 040500Z 12018KT 15SM SKC 14/09 A2997 RMK SLP162

CYQR;2011-10-04 06:00;CYQR 040600Z 14015G22KT 15SM SKC 12/09 A2997 RMK SLP157

CYQR;2011-10-04 07:00;CYQR 040700Z 14019G26KT 15SM SKC 12/08 A2996 RMK SLP155

CYQR;2011-10-04 08:00;CYQR 040800Z 13016G24KT 15SM SKC 11/08 A2995 RMK SLP151

CYQR;2011-10-04 09:00;CYQR 040900Z 13017KT 15SM SKC 10/08 A2994 RMK SLP145

CYQR;2011-10-04 10:00;CYQR 041000Z 14015G21KT 15SM SKC 10/08 A2993 RMK SLP143

CYQR;2011-10-04 11:00;CYQR 041100Z 13019G24KT 15SM SKC 09/07 A2992 RMK SLP138

CYQR;2011-10-04 12:00;CYQR 041200Z 13018KT 15SM SKC 09/07 A2990 RMK SLP135

CYQR;2011-10-04 13:00;CYQR 041300Z 14017G22KT 15SM FEW300 09/07 A2990 RMK CI0 SLP134

CYQR;2011-10-04 14:00;CYQR 041400Z 13019KT 15SM SKC 09/07 A2989 RMK SLP132

CYQR;2011-10-04 15:00;CYQR 041500Z 13021KT 15SM SKC 11/08 A2988 RMK SLP129

CYQR;2011-10-04 16:00;CYQR 041600Z 13022G28KT 15SM SKC 13/09 A2985 RMK SLP119

CYQR;2011-10-04 17:00;CYQR 041700Z 14024G34KT 15SM SKC 16/10 A2983 RMK SLP112

CYQR;2011-10-04 18:00;CYQR 041800Z 14024G31KT 15SM FEW340 18/11 A2981 RMK CI1 SLP101

CYQR;2011-10-04 19:00;CYQR 041900Z 14022G29KT 15SM FEW320 20/11 A2976 RMK CI0 SLP087

CYQR;2011-10-04 20:00;CYQR 042000Z 14023G30KT 15SM FEW320 21/11 A2972 RMK CI1 SLP073

CYQR;2011-10-04 21:00;CYQR 042100Z 14022G27KT 15SM BKN320 23/11 A2970 RMK CI1 SLP062

CYQR;2011-10-04 22:00;CYQR 042200Z 14024G31KT 15SM FEW160 BKN320 23/11 A2968 RMK AC1CI0 SLP056

CYQR;2011-10-04 23:00;CYQR 042300Z 13023G29KT 15SM FEW120 BKN320 21/11 A2966 RMK AC1CI1 SLP051

CYQR;2011-10-05 00:00;CYQR 050000Z 14020G26KT 15SM FEW120 BKN320 19/11 A2966 RMK AC1CI2 SLP050

CYQR;2011-10-05 01:00;CYQR 050100Z 12017KT 15SM FEW085 BKN280 18/11 A2966 RMK AC2CI2 SLP051

CYQR;2011-10-05 02:00;CYQR 050200Z 13019G27KT 15SM FEW085 BKN280 17/11 A2965 RMK AC1CI1 SLP047

CYQR;2011-10-05 03:00;CYQR 050300Z 13018KT 15SM BKN280 17/11 A2963 RMK CI2 SLP042

CYQR;2011-10-05 04:00;CYQR 050400Z 13015G20KT 15SM BKN280 17/11 A2961 RMK CI2 SLP036

CYQR;2011-10-05 05:00;CYQR 050500Z 13015G22KT 15SM FEW100 BKN260 17/11 A2960 RMK AC2CI2 SLP032

CYQR;2011-10-05 06:00;CYQR 050600Z 13015G22KT 15SM FEW100 BKN260 17/11 A2957 RMK AC2CI2 SLP018

CYQR;2011-10-05 07:00;CYQR 050700Z 13016KT 15SM FEW100 BKN260 16/11 A2956 RMK AC2CI1 SLP013

CYQR;2011-10-05 08:00;CYQR 050800Z 13013KT 15SM SCT260 15/11 A2955 RMK CI1 SLP011

CYQR;2011-10-05 09:00;CYQR 050900Z 13013KT 15SM FEW090 14/11 A2955 RMK AC1 SLP007

CYQR;2011-10-05 10:00;CYQR 051000Z 13013KT 15SM SKC 14/11 A2954 RMK SLP005

CYQR;2011-10-05 11:00;CYQR 051100Z 13011KT 15SM SKC 13/10 A2955 RMK SLP007

CYQR;2011-10-05 12:00;CYQR 051200Z 14006KT 15SM SKC 13/10 A2955 RMK SLP010

CYQR;2011-10-05 13:00;CYQR 051300Z 13009KT 15SM FEW050 BKN210 12/09 A2952 RMK CU1CI3 SLP003

CYQR;2011-10-05 14:00;CYQR 051400Z 14008KT 15SM FEW095 BKN210 12/10 A2954 RMK AC1CI5 SLP007

CYQR;2011-10-05 15:00;CYQR 051500Z 13009KT 15SM FEW050 SCT095 BKN210 14/11 A2952 RMK SC1AC2CI4 SLP003

CYQR;2011-10-05 16:00;CYQR 051600Z 15008KT 15SM FEW050 SCT095 OVC210 14/11 A2952 RMK SC1AC2CI5 SLP002

CYQR;2011-10-05 17:00;CYQR 051700Z CCA 14005KT 15SM FEW090 BKN210 16/11 A2951 RMK AC1CI3 OBS TAKEN +06 SLP999

CYQR;2011-10-05 18:00;CYQR 051800Z 19009KT 15SM FEW050 FEW090 OVC210 18/12 A2954 RMK SC1AC2CI3 SLP005

CYQR;2011-10-05 19:00;CYQR 051900Z 34006KT 15SM FEW100 OVC210 19/13 A2950 RMK AC2CI5 SLP992

CYQR;2011-10-05 20:00;CYQR 052000Z 04006KT 15SM FEW100 OVC210 20/13 A2949 RMK AC2CI1 SLP989

CYQR;2011-10-05 21:00;CYQR 052100Z 23003KT 15SM FEW100 BKN250 22/13 A2951 RMK AC1CI2 SLP993

CYQR;2011-10-05 22:00;CYQR 052200Z 15003KT 15SM FEW100 BKN250 22/12 A2950 RMK AC2CI1 SLP992

CYQR;2011-10-05 23:00;CYQR 052300Z 19003KT 15SM SCT100 SCT150 OVC250 22/13 A2950 RMK AC3AC1CI2 SLP991

CYQR;2011-10-06 00:00;CYQR 060000Z 34006KT 15SM FEW100 FEW150 BKN250 20/13 A2950 RMK AC2AC1CI1 HZ ACC ASOCTD SLP994

CYQR;2011-10-06 01:00;CYQR 060100Z 36007KT 15SM FEW100 BKN250 17/12 A2950 RMK AC1CI2 SLP994

CYQR;2011-10-06 02:00;CYQR 060200Z 03009KT 12SM FEW100 BKN250 17/12 A2950 RMK AC1CI2 HZ SLP994

CYQR;2011-10-06 03:00;CYQR 060300Z 03008KT 15SM BKN100 BKN250 16/11 A2950 RMK AC5CI0 SLP996

CYQR;2011-10-06 04:00;CYQR 060400Z 03007KT 15SM SCT100 BKN250 15/11 A2950 RMK AC3CI2 SLP995

CYQR;2011-10-06 05:00;CYQR 060500Z 08005KT 15SM FEW100 FEW250 16/11 A2948 RMK AC1CI0 SLP990

CYQR;2011-10-06 06:00;CYQR 060600Z 13011KT 15SM FEW100 FEW250 17/10 A2948 RMK AC1CI0 SLP986

CYQR;2011-10-06 07:00;CYQR 060700Z 12008KT 15SM FEW100 FEW250 15/09 A2948 RMK AC1CI0 SLP986

CYQR;2011-10-06 08:00;CYQR 060800Z 13009KT 15SM FEW100 FEW250 14/08 A2948 RMK AC1CI0 SLP985

CYQR;2011-10-06 09:00;CYQR 060900Z 13010KT 15SM FEW100 FEW250 14/07 A2947 RMK AC1CI0 SLP982

CYQR;2011-10-06 10:00;CYQR 061000Z 13011KT 15SM FEW100 SCT250 14/07 A2947 RMK AC2CI2 SLP981

CYQR;2011-10-06 11:00;CYQR 061100Z CCA 13012KT 15SM BKN100 16/07 A2947 RMK AC7 SLP983

CYQR;2011-10-06 12:00;CYQR 061200Z 12010KT 15SM BKN100 16/08 A2947 RMK AC6 SLP983

CYQR;2011-10-06 13:00;CYQR 061300Z 13012KT 15SM FEW053 BKN100 BKN250 16/08 A2948 RMK SC2AC3CI1 SLP984

CYQR;2011-10-06 14:00;CYQR 061400Z 14017KT 15SM SCT060 SCT110 BKN300 16/08 A2950 RMK SC3ACC1CI0 TCU EMBD SHWRS SW-W SLP990

CYQR;2011-10-06 14:44;CYQR 061444Z 15015G20KT 12SM -SHRA SCT015 BKN061 BKN300 16/ RMK SC3SC2CI1 CVCTV CLD EMBD

CYQR;2011-10-06 15:00;CYQR 061500Z 14016G21KT 15SM -SHRA BKN025 BKN060 BKN300 16/10 A2951 RMK SC5SC2CI0 ACC ASOCTD HVYR SHWRS SE SLP996

CYQR;2011-10-06 15:23;CYQR 061523Z 14016KT 15SM SCT034 SCT100 BKN300 18/ RMK SC3ACC1CI0

CYQR;2011-10-06 16:00;CYQR 061600Z 14016G21KT 15SM FEW035 FEW100 BKN300 18/10 A2950 RMK SC1AC1CI2 SLP994

CYQR;2011-10-06 17:00;CYQR 061700Z 15018KT 15SM SCT035 BKN120 BKN300 19/10 A2950 RMK SC2AC3CI1 SLP994

CYQR;2011-10-06 18:00;CYQR 061800Z 15014G22KT 15SM FEW035 FEW090 BKN300 22/12 A2950 RMK SC1AC1CI2 CONTRAILS SLP989

CYQR;2011-10-06 19:00;CYQR 061900Z 14015KT 15SM SCT090 BKN130 BKN300 23/12 A2950 RMK AC3AC1CI0 SLP989

CYQR;2011-10-06 20:00;CYQR 062000Z 14013G20KT 15SM FEW090 BKN300 22/11 A2950 RMK AC1CI1 SLP989

CYQR;2011-10-06 21:00;CYQR 062100Z 14019KT 15SM FEW095 BKN300 23/12 A2950 RMK ACC1CI3 SLP991

CYQR;2011-10-06 22:00;CYQR 062200Z 15014G21KT 15SM SCT120 BKN300 22/12 A2950 RMK ACC2CI2 SLP992

CYQR;2011-10-06 23:00;CYQR 062300Z 15017KT 15SM BKN120 OVC300 21/12 A2951 RMK AC5CI2 SLP994

CYQR;2011-10-07 00:00;CYQR 070000Z 15017G25KT 15SM FEW045 BKN120 BKN300 20/12 A2952 RMK SC2AC5CI1 SLP000

CYQR;2011-10-07 00:50;CYQR 070050Z 15014G20KT 15SM -SHRA BKN046 OVC120 19/ RMK SC6ACC2

CYQR;2011-10-07 01:00;CYQR 070100Z 15014KT 15SM -SHRA BKN026 OVC120 19/12 A2954 RMK SC6ACC2 SLP005

CYQR;2011-10-07 02:00;CYQR 070200Z 14010G19KT 15SM -SHRA OVC031 17/13 A2955 RMK SC8 SLP010

CYQR;2011-10-07 03:00;CYQR 070300Z 14008KT 15SM -SHRA BKN020 OVC100 15/14 A2955 RMK SC6AC2 SLP012

CYQR;2011-10-07 03:42;CYQR 070342Z 09005KT 15SM BKN022 OVC068 15/ RMK SC6AC2

CYQR;2011-10-07 04:00;CYQR 070400Z 07005KT 15SM BKN031 BKN068 15/14 A2952 RMK SC6AC1 SLP003

CYQR;2011-10-07 05:00;CYQR 070500Z 09006KT 15SM BKN042 BKN100 14/13 A2951 RMK SC5AC2 SLP001

CYQR;2011-10-07 06:00;CYQR 070600Z 08007KT 15SM SCT054 OVC069 15/13 A2950 RMK SC4AC4 SLP990

CYQR;2011-10-07 07:00;CYQR 070700Z 07008KT 15SM BKN043 OVC073 15/13 A2947 RMK SC6AC2 SLP982

CYQR;2011-10-07 08:00;CYQR 070800Z 04007KT 15SM BKN047 OVC066 15/13 A2944 RMK SC6AC2 SLP971

CYQR;2011-10-07 09:00;CYQR 070900Z 05007KT 15SM BKN049 13/12 A2940 RMK SC6 SLP958

CYQR;2011-10-07 10:00;CYQR 071000Z 05007KT 15SM FEW010 SCT054 OVC087 14/12 A2937 RMK SF1SC3AC4 SLP948

CYQR;2011-10-07 11:00;CYQR 071100Z 06009KT 12SM FEW010 OVC048 15/12 A2935 RMK SF1SC7 SLP941

CYQR;2011-10-07 11:11;CYQR 071111Z 07008KT 12SM -SHRA FEW010 OVC048 15/ RMK SF1SC7

CYQR;2011-10-07 12:00;CYQR 071200Z 10009KT 12SM -SHRA FEW010 OVC046 14/13 A2933 RMK SF1SC7 SLP937

CYQR;2011-10-07 13:00;CYQR 071300Z 07006KT 8SM -SHRA FEW010 BKN023 OVC070 14/13 A2930 RMK SF0SC5AC3 CVCTV CLD EMBD SLP927

CYQR;2011-10-07 13:51;CYQR 071351Z 04004KT 5SM -SHRA BR SCT003 BKN016 OVC025 14/ RMK SF3SC4SC1

CYQR;2011-10-07 14:00;CYQR 071400Z 36003KT 4SM -SHRA BR BKN002 OVC016 14/14 A2930 RMK SF5SC3 CVCTV CLD EMBD SLP926

CYQR;2011-10-07 14:29;CYQR 071429Z 03004KT 3SM -SHRA BR BKN003 BKN016 OVC065 14/ RMK SF3SC2SC3 CVCTV CLD EMBD

CYQR;2011-10-07 15:00;CYQR 071500Z CCA 03004KT 5SM -SHRA BR BKN003 OVC077 14/14 A2927 RERA RMK SF6AC2 CVCTV CLD EMBD SLP919

CYQR;2011-10-07 15:17;CYQR 071517Z 36004KT 12SM -SHRA SCT003 SCT030 OVC077 14/ RMK SF1SC1AC6 CVCTV CLD EMBD

CYQR;2011-10-07 15:53;CYQR 071553Z 01007KT 10SM -SHRA BKN003 OVC053 14/ RMK SF6SC2 CVCTV CLD EMBD

CYQR;2011-10-07 16:00;CYQR 071600Z 03005KT 15SM -SHRA BKN003 OVC053 14/14 A2923 RMK SC6SC2 CVCTV CLD EMBD SLP905

CYQR;2011-10-07 16:17;CYQR 071617Z 03007KT 15SM BKN004 OVC053 14/ RMK SC7SC1 CIG RAG

CYQR;2011-10-07 17:00;CYQR 071700Z 03004KT 8SM BKN005 OVC016 15/14 A2921 RMK SC7SC1 CIG RAG SLP900

CYQR;2011-10-07 17:21;CYQR 071721Z 03007KT 4SM -RA BR BKN005 OVC011 15/ RMK SF5SC3

CYQR;2011-10-07 17:37;CYQR 071737Z CCA 01005KT 5SM -SHRA BR BKN006 BKN011 OVC055 15/ RMK SC5SC1SC2 CVCTV CLD EMBD

CYQR;2011-10-07 17:53;CYQR 071753Z 33011KT 2SM -SHRA BR BKN004 OVC020 14/ RMK SC6SC2 CVCTV CLD EMBD

CYQR;2011-10-07 18:00;CYQR 071800Z CCA 33014KT 3SM -SHRA BR BKN003 OVC017 13/13 A2917 RMK SC6SC2 CIG VRB 2-4 CVCTV CLD EMBD /R18/ SLP883

CYQR;2011-10-07 19:00;CYQR 071900Z 34012G17KT 6SM -SHRA BR BKN003 OVC015 13/13 A2914 RMK SC7SC1 CIG VRB 2-4 SLP874

CYQR;2011-10-07 19:27;CYQR 071927Z 17014G19KT 2SM -SHRA BR BKN003 OVC022 12/ RERA RMK SC7SC1 CIG VRB 2-4 WSHFT 1920

CYQR;2011-10-07 19:48;CYQR 071948Z 15013G20KT 12SM -SHRA FEW001 OVC004 RERA RMK SF1SC8

CYQR;2011-10-07 20:00;CYQR 072000Z 16019G26KT 10SM -SHRA BKN004 OVC028 11/10 A2917 RERA RMK SC7SC1 SLP884

CYQR;2011-10-07 20:35;CYQR 072035Z 20020G25KT 15SM -SHRA FEW004 BKN015 OVC090 12/ RMK SC2SC5AC2 CVCTV CLD EMBD

CYQR;2011-10-07 21:00;CYQR 072100Z 19013G18KT 15SM SCT004 BKN023 BKN085 12/11 A2921 RMK SC2SC3AC2 SLP898

CYQR;2011-10-07 21:12;CYQR 072112Z 22026G31KT 15SM -SHRA BKN004 BKN025 BKN086 10/ RMK SC2SC2AC3 CVCTV CLD EMBD

CYQR;2011-10-07 21:41;CYQR 072141Z 24022G30KT 15SM FEW004 BKN050 BKN081 10/ RMK SC2SC3AC2

CYQR;2011-10-07 22:00;CYQR 072200Z 25014G30KT 15SM FEW004 SCT050 BKN084 BKN240 10/09 A2925 RMK SC1SC2AC4CI1 SLP912

CYQR;2011-10-07 23:00;CYQR 072300Z 24015KT 15SM SCT013 BKN030 BKN057 10/08 A2928 RMK SC1SC6SC1 SLP923

CYQR;2011-10-07 23:41;CYQR 072341Z 31013KT 15SM BKN004 BKN030 10/ RMK SC6SC1

CYQR;2011-10-08 00:00;CYQR 080000Z 32014KT 15SM BKN005 10/09 A2931 RMK SC7 SLP933

CYQR;2011-10-08 00:16;CYQR 080016Z 32013G20KT 15SM OVC004 10/ RMK SC8

CYQR;2011-10-08 00:28;CYQR 080028Z 31017KT 15SM OVC003 10/ RMK SC8

CYQR;2011-10-08 01:00;CYQR 080100Z 32017G24KT 15SM OVC003 10/09 A2932 RMK SF8 SLP937

CYQR;2011-10-08 01:29;CYQR 080129Z 33021G29KT 15SM OVC005 10/ RMK SF8

CYQR;2011-10-08 01:43;CYQR 080143Z 32018G30KT 15SM OVC004 10/ RMK SF8

CYQR;2011-10-08 02:00;CYQR 080200Z 33020G27KT 15SM OVC005 09/08 A2937 RMK SF8 SLP953

CYQR;2011-10-08 02:22;CYQR 080222Z 32020G27KT 8SM -DZ OVC006 09/ RMK SF8

CYQR;2011-10-08 03:00;CYQR 080300Z 32020G26KT 3SM -DZ BR OVC006 09/08 A2945 RMK SF8 PRESRR SLP983

CYQR;2011-10-08 03:08;CYQR 080308Z 32022KT 2SM -DZ BR OVC006 08/ RMK SF8

CYQR;2011-10-08 03:28;CYQR 080328Z 33023G28KT 3SM -DZ BR OVC007 09/ RMK SF8

CYQR;2011-10-08 03:46;CYQR 080346Z 33025KT 10SM -DZ OVC010 09/ RMK SF8

CYQR;2011-10-08 04:00;CYQR 080400Z 33026G31KT 12SM -DZ BKN012 OVC024 09/07 A2949 RMK SF6SC2 SLP996

CYQR;2011-10-08 05:00;CYQR 080500Z 31019G26KT 12SM -DZ OVC012 09/08 A2956 RMK SF8 PRESRR SLP019

CYQR;2011-10-08 06:00;CYQR 080600Z 31022G29KT 15SM -DZ OVC013 09/07 A2962 RMK SF8 PRESRR SLP043

CYQR;2011-10-08 07:00;CYQR 080700Z 32020G29KT 15SM BKN018 BKN051 OVC250 09/07 A2966 RMK SC5SC2CI1 SLP053

CYQR;2011-10-08 08:00;CYQR 080800Z 30016G21KT 15SM FEW020 08/06 A2971 RMK SC1 PRESRR SLP070

CYQR;2011-10-08 11:00;CYQR 081100Z 30012KT 15SM BKN055 07/06 A2983 RMK SC4 SLP113

CYQR;2011-10-08 12:00;CYQR 081200Z 31016KT 15SM FEW057 07/05 A2985 RMK SC1 SLP124

CYQR;2011-10-08 13:00;CYQR 081300Z CCA 30011KT 15SM FEW100 06/04 A2989 RMK AC1 PRESRR SLP138

CYQR;2011-10-08 14:00;CYQR 081400Z 30011KT 15SM FEW025 FEW065 SCT230 07/05 A2996 RMK SC1SC1CI1 LWR SC TR PRESRR SLP160

CYQR;2011-10-08 15:00;CYQR 081500Z 30015G20KT 15SM FEW025 BKN230 08/06 A3002 RMK SC1CI2 PRESRR SLP182

CYQR;2011-10-08 16:00;CYQR 081600Z 31019G24KT 15SM FEW011 FEW120 SCT230 10/06 A3003 RMK CF1AC1CI0 SLP185

CYQR;2011-10-08 17:00;CYQR 081700Z 30017G24KT 15SM FEW020 FEW150 10/06 A3005 RMK CU1AC1 CU TR SLP192

CYQR;2011-10-08 18:00;CYQR 081800Z 32018KT 15SM FEW024 FEW150 12/05 A3006 RMK CU2AC1 HI SLP196

CYQR;2011-10-08 19:00;CYQR 081900Z 30022KT 15SM FEW024 FEW150 12/03 A3006 RMK CU1AC1 SLP196

CYQR;2011-10-08 20:00;CYQR 082000Z 31017G26KT 15SM FEW025 FEW210 13/03 A3009 RMK CU1CI1 CU TR SLP203

CYQR;2011-10-08 21:00;CYQR 082100Z 32017G25KT 15SM FEW025 FEW210 13/02 A3010 RMK CU1CI1 CU TR SLP209

CYQR;2011-10-08 22:00;CYQR 082200Z 30014KT 15SM FEW210 13/02 A3011 RMK CI1 SLP212

CYQR;2011-10-08 23:00;CYQR 082300Z 32008KT 15SM FEW210 13/01 A3013 RMK CI1 SLP217

CYQR;2011-10-09 00:00;CYQR 090000Z 31008KT 15SM FEW210 10/02 A3015 RMK CI1 SLP229

CYQR;2011-10-09 01:00;CYQR 090100Z 29009KT 15SM SKC 06/01 A3016 RMK SLP232

CYQR;2011-10-09 02:00;CYQR 090200Z 30005KT 15SM SKC 06/01 A3017 RMK SLP235

CYQR;2011-10-09 03:00;CYQR 090300Z 28004KT 15SM SKC 04/M01 A3019 RMK SLP245

CYQR;2011-10-09 04:00;CYQR 090400Z 21003KT 15SM SKC 02/M01 A3020 RMK SLP247

CYQR;2011-10-09 05:00;CYQR 090500Z 18008KT 15SM SKC 01/M02 A3021 RMK SLP251

CYQR;2011-10-09 06:00;CYQR 090600Z 21005KT 15SM SKC 01/M01 A3021 RMK SLP251

CYQR;2011-10-09 07:00;CYQR 090700Z 18006KT 15SM SKC 01/M02 A3021 RMK SLP251

CYQR;2011-10-09 08:00;CYQR 090800Z 17005KT 15SM SKC 01/M02 A3021 RMK SLP252

CYQR;2011-10-09 09:00;CYQR 090900Z 15005KT 15SM SKC 01/M02 A3021 RMK SLP252

CYQR;2011-10-09 10:00;CYQR 091000Z 12006KT 15SM SKC M01/M03 A3021 RMK SLP251

CYQR;2011-10-09 11:00;CYQR 091100Z 13008KT 15SM SKC M01/M03 A3021 RMK SLP250

CYQR;2011-10-09 12:00;CYQR 091200Z 13008KT 15SM SKC M01/M03 A3020 RMK SLP252

CYQR;2011-10-09 13:00;CYQR 091300Z 14009KT 15SM FEW100 M00/M03 A3020 RMK AC1 SLP250

CYQR;2011-10-09 14:00;CYQR 091400Z 13007KT 15SM FEW100 01/M02 A3020 RMK AC1 SLP250

CYQR;2011-10-09 15:00;CYQR 091500Z 16009KT 15SM FEW100 04/00 A3019 RMK AC1 SLP249

CYQR;2011-10-09 16:00;CYQR 091600Z 16010KT 15SM FEW100 07/03 A3019 RMK AC1 SLP248

CYQR;2011-10-09 17:00;CYQR 091700Z 18015G20KT 15SM FEW100 11/04 A3017 RMK AC1 SLP242

CYQR;2011-10-09 18:00;CYQR 091800Z 17017KT 15SM FEW100 12/02 A3015 RMK AC1 SLP229

CYQR;2011-10-09 19:00;CYQR 091900Z 16015G20KT 15SM FEW100 FEW200 13/01 A3011 RMK AC1CI1 SLP218

CYQR;2011-10-09 20:00;CYQR 092000Z 19014G20KT 15SM FEW045 FEW100 FEW200 14/02 A3009 RMK CF1AC1CI1 SLP209

CYQR;2011-10-09 21:00;CYQR 092100Z 18015G21KT 15SM FEW045 FEW100 BKN200 13/03 A3007 RMK CF1AC1CI4 SLP201

CYQR;2011-10-09 22:00;CYQR 092200Z 18015G20KT 15SM FEW045 SCT100 BKN200 13/02 A3005 RMK CF1AC3CI3 SLP194

CYQR;2011-10-09 23:00;CYQR 092300Z 16017KT 15SM SCT100 BKN200 12/03 A3002 RMK AC3CI3 SLP187

CYQR;2011-10-10 00:00;CYQR 100000Z 16011KT 15SM FEW045 FEW100 BKN200 12/04 A3001 RMK SC1AC2CI3 SLP184

CYQR;2011-10-10 01:00;CYQR 100100Z 15011KT 15SM FEW100 BKN200 11/03 A2999 RMK AC1CI5 SLP178

CYQR;2011-10-10 02:00;CYQR 100200Z 16011KT 15SM SCT070 BKN200 10/03 A2998 RMK AC3CI2 SLP174

CYQR;2011-10-10 03:00;CYQR 100300Z 16011KT 15SM FEW070 OVC200 09/04 A2997 RMK AC1CI5 SLP169

CYQR;2011-10-10 04:00;CYQR 100400Z 15008KT 15SM OVC200 09/03 A2996 RMK CI5 OBS TAKEN -5 SLP166

CYQR;2011-10-10 05:00;CYQR 100500Z 15010KT 15SM OVC200 08/04 A2995 RMK CI4 SLP163

CYQR;2011-10-10 06:00;CYQR 100600Z 15007KT 15SM BKN200 08/03 A2993 RMK CI3 SLP149

CYQR;2011-10-10 07:00;CYQR 100700Z 15009KT 15SM FEW200 07/03 A2991 RMK CI1 SLP142

CYQR;2011-10-10 08:00;CYQR 100800Z 13007KT 15SM FEW200 06/03 A2989 RMK CI0 SLP136

CYQR;2011-10-10 09:00;CYQR 100900Z 13009KT 15SM BKN200 05/03 A2986 RMK CI1 SLP127

CYQR;2011-10-10 10:00;CYQR 101000Z 13008KT 15SM BKN200 05/03 A2984 RMK CI1 SLP120

CYQR;2011-10-10 11:00;CYQR 101100Z 14009KT 15SM FEW150 BKN200 06/04 A2982 RMK AC1CI1 SLP115

CYQR;2011-10-10 12:00;CYQR 101200Z 13007KT 15SM FEW150 OVC200 05/04 A2981 RMK AC1CI3 OBS TAKEN -4 SLP109

CYQR;2011-10-10 13:00;CYQR 101300Z 13005KT 15SM FEW080 SCT130 OVC200 05/04 A2979 RMK AC1AC2CI2 SLP104

CYQR;2011-10-10 14:00;CYQR 101400Z 12008KT 15SM FEW130 BKN250 06/04 A2977 RMK AC1CI6 SLP098

CYQR;2011-10-10 15:00;CYQR 101500Z 13011KT 15SM FEW005 FEW130 BKN250 07/06 A2975 RMK CF1AC2CI4 SLP090

CYQR;2011-10-10 16:00;CYQR 101600Z 15012KT 15SM FEW006 BKN120 BKN250 08/07 A2973 RMK SF1AC5CI1 SLP084

CYQR;2011-10-10 17:00;CYQR 101700Z 18007KT 15SM BKN008 BKN120 BKN250 10/07 A2971 RMK SC3AC2CI1 SLP076

CYQR;2011-10-10 17:19;CYQR 101719Z 16007KT 15SM SCT010 BKN120 BKN250 10/ RMK SC3AC2CI1

CYQR;2011-10-10 18:00;CYQR 101800Z 14004KT 15SM FEW012 BKN120 BKN250 11/08 A2968 RMK SC1AC4CI2 SLP065

CYQR;2011-10-10 19:00;CYQR 101900Z 15005KT 15SM FEW019 SCT070 BKN120 BKN250 12/07 A2966 RMK SC2AC2AC2CI2 SLP060

CYQR;2011-10-10 20:00;CYQR 102000Z 15004KT 15SM FEW020 SCT046 SCT070 BKN120 BKN250 12/07 A2964 RMK SC1SC2AC1AC4CI1 SLP051

CYQR;2011-10-10 21:00;CYQR 102100Z 13009KT 15SM BKN070 BKN120 BKN250 12/08 A2962 RMK AC5AC1CI0 SLP044

CYQR;2011-10-10 22:00;CYQR 102200Z 14011KT 15SM FEW040 SCT070 BKN120 BKN250 12/08 A2961 RMK SC1AC2AC2CI1 SLP040

CYQR;2011-10-10 23:00;CYQR 102300Z 14010KT 15SM FEW070 FEW120 BKN250 11/07 A2960 RMK AC1AC1CI2 SLP037

CYQR;2011-10-11 00:00;CYQR 110000Z 13012KT 15SM FEW070 FEW120 BKN250 10/07 A2958 RMK AC1AC1CI1 SLP034

CYQR;2011-10-11 01:00;CYQR 110100Z 12010KT 15SM FEW120 FEW250 08/07 A2958 RMK AC1CI1 SLP032

CYQR;2011-10-11 02:00;CYQR 110200Z 13011KT 10SM FEW250 07/06 A2957 RMK CI1 SLP031

CYQR;2011-10-11 02:49;CYQR 110249Z 13010KT 4SM BR FEW004 07/ RMK SF1

CYQR;2011-10-11 03:00;CYQR 110300Z 13009KT 4SM BR SCT004 07/06 A2957 RMK SF3 SLP030

CYQR;2011-10-11 03:17;CYQR 110317Z 13009KT 4SM BR BKN003 06/ RMK SF4

CYQR;2011-10-11 03:26;CYQR 110326Z 13009KT 2SM BR OVC002 06/ RMK SF6

CYQR;2011-10-11 03:42;CYQR 110342Z 13010KT 1 1/2SM BR OVC002 RMK SF6

CYQR;2011-10-11 04:00;CYQR 110400Z 13010KT 1 1/2SM BR OVC001 07/06 A2956 RMK FG2SF5 OBS TAKEN -5 SLP026

CYQR;2011-10-11 04:04;CYQR 110404Z 13009KT 3/4SM R13/P6000FT/D BR OVC001 07/ RMK FG3SF4

CYQR;2011-10-11 04:10;CYQR 110410Z 13010KT 1/2SM R13/P6000FT/D FG OVC001 07/ RMK FG4SF3

CYQR;2011-10-11 04:17;CYQR 110417Z 14010KT 1/2SM R13/P6000FT/D FG BKN001 OVC006 07/ RMK FG4SF2SF2

CYQR;2011-10-11 04:33;CYQR 110433Z 14009KT 3/8SM R13/4500FT/D FG OVC006 07/ RMK FG6SF1

CYQR;2011-10-11 04:51;CYQR 110451Z 14008KT 1/8SM R13/2400FT/N FG OVC006 06/ RMK FG6SF1

CYQR;2011-10-11 05:00;CYQR 110500Z 14008KT 1/8SM R13/2200FT/N FG OVC006 06/06 A2954 RMK FG6SF1 SLP022

CYQR;2011-10-11 05:23;CYQR 110523Z 13007KT 1/4SM R13/2200FT/N FG OVC006 06/ RMK FG6SF1

CYQR;2011-10-11 06:00;CYQR 110600Z 15005KT 1/4SM R13/2400FT/N FG SKC 05/05 A2953 RMK FG7 SLP016

CYQR;2011-10-11 06:22;CYQR 110622Z 14005KT 1/2SM R13/3000V4000FT/U FG SKC 05/ RMK FG6

CYQR;2011-10-11 06:43;CYQR 110643Z 14005KT 3/4SM R13/4000VP6000FT/U BR SKC 04/ RMK FG2

CYQR;2011-10-11 07:00;CYQR 110700Z 13006KT 2SM BR FEW300 03/02 A2953 RMK FG2CI1 SLP016

CYQR;2011-10-11 07:05;CYQR 110705Z 13005KT 7SM FEW300 03/ RMK CI1 VIS E 3

CYQR;2011-10-11 08:00;CYQR 110800Z 12005KT 12SM FEW100 03/01 A2953 RMK AC2 SLP016

CYQR;2011-10-11 09:00;CYQR 110900Z 11004KT 15SM SCT073 04/03 A2953 RMK AC4 SLP015

CYQR;2011-10-11 10:00;CYQR 111000Z 13005KT 15SM FEW075 02/01 A2953 RMK AC1 SLP015

CYQR;2011-10-11 11:00;CYQR 111100Z 14005KT 15SM FEW094 SCT300 02/01 A2954 RMK AC1CI0 SLP017

CYQR;2011-10-11 12:00;CYQR 111200Z 15005KT 15SM FEW100 FEW300 02/00 A2954 RMK AC1CI0 OBS TAKEN -5 SLP019

CYQR;2011-10-11 13:00;CYQR 111300Z 12008KT 15SM FEW040 FEW070 BKN300 01/M00 A2953 RMK SC1AC1CI1 SLP018

CYQR;2011-10-11 14:00;CYQR 111400Z 13007KT 15SM BKN093 BKN270 03/02 A2953 RMK AC6CI0 SLP017

CYQR;2011-10-11 15:00;CYQR 111500Z 15009KT 15SM BKN100 BKN290 05/03 A2953 RMK AC7CI1 SLP017

CYQR;2011-10-11 16:00;CYQR 111600Z 11004KT 15SM SCT091 OVC290 07/05 A2953 RMK AC2CI2 SLP017

CYQR;2011-10-11 17:00;CYQR 111700Z 16006KT 15SM BKN056 BKN100 BKN290 10/07 A2953 RMK SC6AC2CI1 SLP017

CYQR;2011-10-11 18:00;CYQR 111800Z 15006KT 15SM BKN056 BKN100 10/08 A2953 RMK SC6AC1 SLP016

CYQR;2011-10-11 19:00;CYQR 111900Z 14005KT 15SM BKN076 BKN100 12/08 A2952 RMK AC7AC1 SLP013

CYQR;2011-10-11 20:00;CYQR 112000Z 13004KT 15SM FEW060 BKN100 BKN290 14/08 A2951 RMK SC2AC4CI1 SLP009

CYQR;2011-10-11 21:00;CYQR 112100Z 16003KT 15SM FEW060 SCT081 BKN290 16/09 A2952 RMK SC1AC2CI2 SLP010

CYQR;2011-10-11 22:00;CYQR 112200Z 16006KT 15SM BKN079 BKN100 16/09 A2952 RMK AC5AC2 SLP010

CYQR;2011-10-11 23:00;CYQR 112300Z 16005KT 15SM SCT077 BKN100 BKN290 16/09 A2953 RMK AC3AC3CI0 SLP012

CYQR;2011-10-12 00:00;CYQR 120000Z 22005KT 15SM SCT070 BKN100 14/09 A2955 RMK AC3AC3 VIRGA SE-SW TCU SW SLP020

CYQR;2011-10-12 01:00;CYQR 120100Z 08002KT 15SM BKN072 BKN110 13/09 A2956 RMK AC5AC2 SLP024

CYQR;2011-10-12 02:00;CYQR 120200Z 09005KT 15SM BKN072 OVC110 12/08 A2957 RMK AC6AC1 SLP028

CYQR;2011-10-12 03:00;CYQR 120300Z 13005KT 15SM SCT089 BKN120 10/08 A2957 RMK AC3AC2 SLP030

CYQR;2011-10-12 04:00;CYQR 120400Z 13005KT 15SM SCT120 10/07 A2958 RMK AC3 OBS TAKEN -5 SLP033

CYQR;2011-10-12 05:00;CYQR 120500Z 10004KT 15SM BKN072 08/07 A2958 RMK AC6 SLP034

CYQR;2011-10-12 05:35;CYQR 120535Z CCA 00000KT 12SM -SHRA SCT029 OVC063 09/ RMK SC3SC4 CB S LTNG

CYQR;2011-10-12 05:43;CYQR 120543Z 33018G26KT 3SM +SHRA OVC012CB 14/ RMK CB8 LTNG SE

CYQR;2011-10-12 05:54;CYQR 120554Z 16006KT 12SM -SHRA FEW012CB OVC060 11/ RERA RMK CB2SC5

CYQR;2011-10-12 06:00;CYQR 120600Z 16005KT 15SM FEW012CB BKN060 10/08 A2960 RERA RMK CB2SC6 SLP035

CYQR;2011-10-12 06:28;CYQR 120628Z 17006KT 15SM -SHRA FEW012 BKN060 10/ RMK SC2SC6 CVCTV CLD EMBD

CYQR;2011-10-12 06:38;CYQR 120638Z 16007KT 15SM FEW012 BKN060 BKN120 09/ RMK SC2SC3AC2

CYQR;2011-10-12 07:00;CYQR 120700Z 16005KT 15SM BKN049 BKN120 09/07 A2961 RMK SC5AC2 SLP038

CYQR;2011-10-12 07:32;CYQR 120732Z 13003KT 12SM -SHRA BKN042 10/ RMK SC7 VIS E 2 CVCTV CLD EMBD

CYQR;2011-10-12 08:00;CYQR 120800Z 19004KT 15SM VCSH BKN042 BKN350 10/07 A2962 RMK SC5CI2 VIS E 4 SLP043

CYQR;2011-10-12 09:00;CYQR 120900Z 25007KT 15SM SCT072 08/05 A2963 RMK AC3 SLP043

CYQR;2011-10-12 10:00;CYQR 121000Z 21002KT 15SM FEW093 FEW350 06/03 A2964 RMK AC1CI0 SLP046

CYQR;2011-10-12 11:00;CYQR 121100Z 27004KT 15SM BKN083 06/04 A2965 RMK AC6 SLP050

CYQR;2011-10-12 12:00;CYQR 121200Z 30007KT 15SM BKN083 06/04 A2967 RMK AC4 SLP061

CYQR;2011-10-12 12:20;CYQR 121220Z 29008KT 10SM FEW002 BKN085 05/ RMK SF2AC4

CYQR;2011-10-12 12:32;CYQR 121232Z 31009KT 1SM R13/3000VP6000FT/D BR BKN060 05/ RMK FG4SC3

CYQR;2011-10-12 12:36;CYQR 121236Z 31009KT 1/2SM R13/3000VP6000FT/D FG BKN060 05/ RMK FG5SC2 VIS E 11/2

CYQR;2011-10-12 12:51;CYQR 121251Z 34007KT 3/4SM R13/3500V5000FT/N BR BKN060 05/ RMK FG3SC3 VIS E 3

CYQR;2011-10-12 13:00;CYQR 121300Z 33005KT 1SM R13/4000FT/D BR BKN060 BKN280 05/04 A2970 RMK FG2SC3CI0 SLP071

CYQR;2011-10-12 13:22;CYQR 121322Z 33006KT 1/2SM R13/3000V4500FT/D FG BKN060 BKN280 05/ RMK FG2SC3CI0 VIS E 2SM

CYQR;2011-10-12 13:28;CYQR 121328Z 33006KT 3/8SM R13/2600FT/N FG OVC280 05/ RMK FG7CI0

CYQR;2011-10-12 13:44;CYQR 121344Z 36007KT 1/2SM R13/2800FT/N FG BKN060 OVC280 05/ RMK FG3SC2CI0

CYQR;2011-10-12 13:51;CYQR 121351Z 02006KT 1SM R13/2600V5000FT/U BR BKN060 BKN280 06/ RMK FG1SC2CI0

CYQR;2011-10-12 14:00;CYQR 121400Z 32008KT 3SM R13/3000V5000FT/D BR FEW002 BKN060 BKN280 05/05 A2973 RMK SF1SC2CI0 VIS W 3/4SM SLP079

CYQR;2011-10-12 14:06;CYQR 121406Z 34006KT 3/8SM R13/2400FT/N FG BKN053 06/ RMK FG3SC2

CYQR;2011-10-12 14:16;CYQR 121416Z 36005KT 1/2SM R13/2800FT/N FG BKN053 06/ RMK FG2SC2 VIS VRB 3/8-5/8

CYQR;2011-10-12 14:47;CYQR 121447Z 32005KT 3/4SM R13/2800V4500FT/U BR OVC053 08/ RMK FG2SC6 VIS VRB 5/8-7/8

CYQR;2011-10-12 15:00;CYQR 121500Z 33008KT 1/2SM R13/2200FT/N FG OVC053 08/08 A2976 RMK FG6SC2 VIS VRB 3/8-5/8 SLP091

CYQR;2011-10-12 15:35;CYQR 121535Z 34007KT 1/4SM R13/1600FT/N FG VV002 08/ RMK FG8

CYQR;2011-10-12 15:53;CYQR 121553Z 33008KT 1/2SM R13/1800FT/N FG VV002 08/ RMK FG8

CYQR;2011-10-12 16:00;CYQR 121600Z 33008KT 1/4SM R13/1800FT/N FG VV002 08/08 A2977 RMK FG8 SLP097

CYQR;2011-10-12 17:00;CYQR 121700Z 30010KT 1/4SM R13/1600FT/N FG VV001 08/08 A2979 RMK FG8 SLP101

CYQR;2011-10-12 18:00;CYQR 121800Z 30009KT 1/4SM R13/2200FT/N FG VV001 07/07 A2980 RMK FG8 SLP107

CYQR;2011-10-12 18:57;CYQR 121857Z 30008KT 1/2SM R13/2600VP6000FT/U FG VV003 07/ RMK FG8

CYQR;2011-10-12 19:00;CYQR 121900Z 30008KT 3/4SM R13/2800VP6000FT/U BR VV003 08/07 A2981 RMK FG8 SLP111

CYQR;2011-10-12 19:20;CYQR 121920Z 30010KT 1SM R13/P6000FT/N BR OVC002 08/ RMK FG7SF1

CYQR;2011-10-12 19:37;CYQR 121937Z 30009KT 2SM BR OVC001 07/ RMK FG6SF2

CYQR;2011-10-12 20:00;CYQR 122000Z 32008KT 2SM BR OVC002 08/08 A2981 RMK FG6SF2 VIS S 1SM SLP112

CYQR;2011-10-12 21:00;CYQR 122100Z 29007KT 4SM BR OVC004 08/08 A2982 RMK SF8 VIS VRB 3-5 SLP115

CYQR;2011-10-12 21:29;CYQR 122129Z 29006KT 6SM BR BKN005 OVC270 09/ RMK SC7CI0

CYQR;2011-10-12 22:00;CYQR 122200Z 28005KT 10SM BKN006 BKN077 BKN270 09/08 A2982 RMK CF5AC1CI1 BR SLP116

CYQR;2011-10-12 22:41;CYQR 122241Z 27007KT 15SM FEW006 FEW025 FEW080 10/ RMK SF1CU1AC0 SF TR

CYQR;2011-10-12 23:00;CYQR 122300Z 27006KT 15SM FEW006 FEW025 FEW080 FEW200 10/08 A2982 RMK SF1CU1AC1CI0 SLP115

CYQR;2011-10-12 23:33;CYQR 122333Z 27005KT 15SM FEW080 FEW250 10/ RMK AC1CI0 LN OF CB SE-E

CYQR;2011-10-13 00:00;CYQR 130000Z 26004KT 15SM FEW080 FEW250 08/06 A2983 RMK AC1CI0 LN OF CB SE-E SLP119

CYQR;2011-10-13 01:00;CYQR 130100Z 24006KT 15SM FEW080 06/05 A2983 RMK AC1 SLP120

CYQR;2011-10-13 02:00;CYQR 130200Z 24002KT 10SM FEW160 05/04 A2982 RMK AC1 SLP116

CYQR;2011-10-13 03:00;CYQR 130300Z 20003KT 5SM BR SCT100 04/03 A2981 RMK AC3 SLP115

CYQR;2011-10-13 04:00;CYQR 130400Z 15004KT 5SM BR BKN094 04/03 A2981 RMK AC6 OBS TAKEN -6 SLP113

CYQR;2011-10-13 05:00;CYQR 130500Z 11003KT 8SM BKN087 05/04 A2979 RMK AC6 SLP108

CYQR;2011-10-13 05:45;CYQR 130545Z 18005KT 8SM FEW001 OVC087 04/ RMK SF1AC6

CYQR;2011-10-13 06:00;CYQR 130600Z 17005KT 10SM FEW001 OVC087 04/03 A2979 RMK SF1AC7 VIS E 3 SLP108

CYQR;2011-10-13 06:51;CYQR 130651Z 12003KT 9SM SCT094 02/ RMK AC3

CYQR;2011-10-13 07:00;CYQR 130700Z 14004KT 9SM SCT090 03/01 A2979 RMK AC3 SLP106

CYQR;2011-10-13 07:35;CYQR 130735Z 16003KT 2SM BR BKN071 RMK AC7

CYQR;2011-10-13 08:00;CYQR 130800Z 09004KT 2SM -RA BR OVC065 04/03 A2978 RMK FG2SC5 SLP105

CYQR;2011-10-13 08:12;CYQR 130812Z 34013KT 3SM BR SCT002 OVC045 05/ RMK SF3SC5

CYQR;2011-10-13 08:17;CYQR 130817Z 34006G16KT 4SM -SHRA BR SCT002 OVC045 05/ RMK SF3SC5

CYQR;2011-10-13 08:48;CYQR 130848Z 01005KT 4SM BR BKN052 BKN094 05/ RMK SC5AC1

CYQR;2011-10-13 09:00;CYQR 130900Z 05004KT 4SM BR SCT052 BKN094 05/04 A2977 RMK SC3AC1 SLP101

CYQR;2011-10-13 10:00;CYQR 131000Z 26007KT 3SM BR SCT002 OVC042 05/04 A2978 RMK SF3SC4 SLP103

CYQR;2011-10-13 10:24;CYQR 131024Z 00000KT 2 1/2SM BR BKN042 OVC084 05/ RMK SC6AC2

CYQR;2011-10-13 10:43;CYQR 131043Z 00000KT 4SM BR BKN050 OVC084 05/ RMK SC6AC2

CYQR;2011-10-13 10:55;CYQR 131055Z 33003KT 5SM -SHRA BR BKN045 OVC084 05/ RMK SC7AC1

CYQR;2011-10-13 11:00;CYQR 131100Z 33003KT 5SM -SHRA BR BKN045 OVC084 05/04 A2978 RMK SC7AC1 SLP103

CYQR;2011-10-13 11:05;CYQR 131105Z 30002KT 12SM BKN045 OVC084 05/ RMK SC7AC1

CYQR;2011-10-13 12:00;CYQR 131200Z 27004KT 12SM BKN034 OVC088 05/05 A2978 RMK SC7AC1 OBS TAKEN -5 SLP102

CYQR;2011-10-13 12:35;CYQR 131235Z 27005KT 8SM -SHRA BKN017 OVC054 06/ RMK SC6SC2

CYQR;2011-10-13 13:00;CYQR 131300Z 26005KT 8SM SCT010 BKN021 OVC058 06/06 A2977 RMK SF0SC5SC2 OCNL -SHRA SLP100

CYQR;2011-10-13 13:18;CYQR 131318Z 28006KT 10SM BKN009 OVC024 07/ RMK SF3SC5

CYQR;2011-10-13 14:00;CYQR 131400Z 30007KT 12SM BKN007 OVC037 07/06 A2978 RMK SC7SC1 SLP102

CYQR;2011-10-13 14:30;CYQR 131430Z 30009KT 12SM -SHRA OVC006 07/ RMK SC8 CVCTV CLD EMBD

CYQR;2011-10-13 14:38;CYQR 131438Z 30009KT 12SM -SHRA OVC005 07/ RMK SC8 CVCTV CLD EMBD

CYQR;2011-10-13 15:00;CYQR 131500Z 30010KT 12SM -SHRA OVC004 07/07 A2978 RMK SC8 SLP104

CYQR;2011-10-13 15:34;CYQR 131534Z 30012KT 15SM -SHRA BKN005 OVC031 08/ RMK SC6SC2 CVCTV CLD EMBD

CYQR;2011-10-13 15:55;CYQR 131555Z 29013KT 15SM -SHRA BKN007 OVC027 08/ RMK SC6SC2 CVCTV CLD EMBD

CYQR;2011-10-13 16:00;CYQR 131600Z 29010G16KT 15SM -SHRA BKN007 OVC027 08/07 A2978 RMK SC6SC2 SLP105

CYQR;2011-10-13 16:35;CYQR 131635Z 29016KT 2 1/2SM -SHRA BR BKN005 OVC024 07/ RMK SC6SC2 CVCTV CLD EMBD

CYQR;2011-10-13 17:00;CYQR 131700Z 30015KT 2 1/2SM -RA BR BKN005 OVC024 07/07 A2979 RMK SF5SC3 SLP107

CYQR;2011-10-13 17:08;CYQR 131708Z 30015KT 3SM -RA BR BKN004 OVC024 08/ RMK SF6SC2

CYQR;2011-10-13 17:24;CYQR 131724Z 30017KT 4SM -RA BR BKN007 OVC024 08/ RMK SF6SC2

CYQR;2011-10-13 18:00;CYQR 131800Z 31016KT 8SM -RA BKN007 OVC021 08/07 A2979 RMK SF6SC2 SLP107

CYQR;2011-10-13 18:31;CYQR 131831Z 31014G19KT 15SM BKN009 OVC036 09/ RMK SF6SC2

CYQR;2011-10-13 19:00;CYQR 131900Z 31016KT 15SM BKN010 OVC033 08/07 A2979 RMK SC6SC2 SLP107

CYQR;2011-10-13 20:00;CYQR 132000Z 31017KT 15SM BKN008 OVC039 09/07 A2979 RMK SC6SC2 SLP108

CYQR;2011-10-13 21:00;CYQR 132100Z 31015KT 15SM BKN010 BKN025 OVC040 09/07 A2980 RMK SC6SC1SC2 SLP110

CYQR;2011-10-13 22:00;CYQR 132200Z 29013KT 15SM BKN014 BKN036 BKN120 09/07 A2981 RMK CU5SC1AC1 TCU ASOCTD SLP111

CYQR;2011-10-13 22:13;CYQR 132213Z 29020G25KT 15SM -SHRA BKN012 BKN039 09/ RMK CU6SC2

CYQR;2011-10-13 22:37;CYQR 132237Z 30012KT 15SM VCSH SCT012 BKN023 BKN071 08/ RMK CU4SC2AC1

CYQR;2011-10-13 23:00;CYQR 132300Z 30015KT 15SM SCT012 BKN028 BKN071 08/06 A2981 RMK CU4SC2AC2 SLP111

CYQR;2011-10-13 23:41;CYQR 132341Z 30017KT 15SM -SHRA SCT012 BKN022 OVC036 08/ RMK SF2SC4SC2 CVCTV CLD EMBD

CYQR;2011-10-14 00:00;CYQR 140000Z 31012KT 15SM -SHRA BKN015 BKN022 OVC060 07/06 A2982 RMK SC5SC2SC2 CVCTV CLD EMBD SLP117

CYQR;2011-10-14 00:24;CYQR 140024Z 30010KT 15SM SCT023 BKN067 07/ RMK SC4AC3

CYQR;2011-10-14 01:00;CYQR 140100Z 30010G15KT 15SM SCT025 BKN035 BKN070 07/06 A2982 RMK SC3SC2AC2 SLP117

CYQR;2011-10-14 02:00;CYQR 140200Z 30013G19KT 15SM BKN015 OVC053 07/05 A2982 RMK SC5SC3 SLP118

CYQR;2011-10-14 03:00;CYQR 140300Z 30015G21KT 15SM BKN014 OVC035 07/05 A2983 RMK SC6SC2 SLP119

CYQR;2011-10-14 03:25;CYQR 140325Z 30016KT 15SM BKN016 OVC035 06/ RMK SC6SC2

CYQR;2011-10-14 03:40;CYQR 140340Z 30014G20KT 15SM -SHRA BKN016 OVC040 06/ RMK SC6SC2

CYQR;2011-10-14 04:00;CYQR 140400Z 30016KT 15SM -SHRA OVC014 06/04 A2983 RMK SC8 SLP120

CYQR;2011-10-14 04:38;CYQR 140438Z 30016KT 15SM OVC009 06/ RMK SC8

CYQR;2011-10-14 05:00;CYQR 140500Z 31017G22KT 15SM -SHRA OVC006 06/05 A2983 RMK SC8 SLP121

CYQR;2011-10-14 05:23;CYQR 140523Z 31015KT 15SM -SHRA BKN009 OVC026 06/ RMK SC6SC2

CYQR;2011-10-14 05:50;CYQR 140550Z 32020G26KT 15SM BKN010 OVC026 06/ RMK SC6SC2

CYQR;2011-10-14 06:00;CYQR 140600Z 32020G28KT 15SM -SHRA OVC012 06/04 A2985 RMK SC8 SLP125

CYQR;2011-10-14 07:00;CYQR 140700Z 32017G22KT 15SM -RA SCT012 OVC022 05/04 A2987 RMK SC3SC5 SLP133

CYQR;2011-10-14 08:00;CYQR 140800Z 32016KT 15SM -SHRA BKN024 OVC062 06/04 A2988 RMK SC6SC2 SLP136

CYQR;2011-10-14 09:00;CYQR 140900Z 30010KT 15SM -SHRA SCT006 OVC030 06/05 A2990 RMK SF4SC4 SLP143

CYQR;2011-10-14 09:22;CYQR 140922Z 30012KT 15SM -SHRA BKN006 OVC021 06/ RMK ST6SC2

CYQR;2011-10-14 10:00;CYQR 141000Z 30014KT 15SM OVC006 06/05 A2991 RMK ST8 SLP146

CYQR;2011-10-14 11:00;CYQR 141100Z 30013KT 15SM OVC007 05/04 A2992 RMK ST8 SLP150

CYQR;2011-10-14 11:24;CYQR 141124Z 31013G18KT 15SM OVC009 05/ RMK ST8

CYQR;2011-10-14 11:32;CYQR 141132Z 31012G18KT 15SM OVC007 05/ RMK ST8

CYQR;2011-10-14 12:00;CYQR 141200Z 31013G18KT 15SM OVC008 05/04 A2993 RMK ST8 SLP154

CYQR;2011-10-14 13:00;CYQR 141300Z 30015KT 15SM BKN007 OVC026 05/03 A2993 RMK SF6SC2 SLP154

CYQR;2011-10-14 13:46;CYQR 141346Z 29013KT 15SM SCT008 BKN022 BKN098 OVC260 04/ RMK SF4SC2AC2CI0

CYQR;2011-10-14 14:00;CYQR 141400Z 28012KT 15SM SCT008 BKN022 BKN098 OVC260 04/03 A2993 RMK SF3SC2AC2CI0 SLP156

CYQR;2011-10-14 15:00;CYQR 141500Z 29016KT 15SM FEW006 OVC025 05/04 A2994 RMK SF0SC8 SLP158

CYQR;2011-10-14 16:00;CYQR 141600Z 30012G19KT 15SM FEW010 OVC027 06/04 A2995 RMK SC2SC6 SLP160

CYQR;2011-10-14 16:22;CYQR 141622Z 29015KT 15SM BKN009 OVC031 06/ RMK SC6SC2

CYQR;2011-10-14 17:00;CYQR 141700Z 30016KT 15SM BKN009 OVC030 06/04 A2996 RMK SC6SC2 SLP163

CYQR;2011-10-14 17:23;CYQR 141723Z 30015KT 15SM BKN010 OVC039 07/ RMK SC6SC2

CYQR;2011-10-14 18:00;CYQR 141800Z 30014KT 15SM BKN010 OVC039 07/05 A2996 RMK SC7SC1 SLP165

CYQR;2011-10-14 19:00;CYQR 141900Z 30018KT 15SM FEW010 SCT017 BKN039 08/04 A2995 RMK SF2SC2SC3 SLP162

CYQR;2011-10-14 20:00;CYQR 142000Z 30015KT 15SM FEW021 BKN036 BKN090 OVC260 09/05 A2993 RMK CU2SC3AC2CI0 SLP156

CYQR;2011-10-14 21:00;CYQR 142100Z 31014G20KT 15SM BKN024 OVC090 09/04 A2993 RMK SC6AC2 SLP153

CYQR;2011-10-14 22:00;CYQR 142200Z 30016KT 15SM BKN028 OVC090 08/02 A2993 RMK SC7AC1 SLP153

CYQR;2011-10-14 23:00;CYQR 142300Z 30014G20KT 15SM FEW015 BKN041 09/02 A2992 RMK CU1SC7 SLP152

CYQR;2011-10-15 00:00;CYQR 150000Z 30009KT 15SM FEW015 BKN043 08/02 A2992 RMK SC1SC6 SLP152

CYQR;2011-10-15 01:00;CYQR 150100Z 28008KT 15SM SCT045 BKN240 05/02 A2992 RMK SC2CI0 SLP151

CYQR;2011-10-15 02:00;CYQR 150200Z 29007KT 15SM FEW045 SCT240 03/00 A2991 RMK SC1CI1 SLP150

CYQR;2011-10-15 03:00;CYQR 150300Z 30004KT 15SM FEW045 FEW240 M00/M02 A2992 RMK SC1CI0 SLP156

CYQR;2011-10-15 04:00;CYQR 150400Z 29005KT 15SM SCT041 00/M02 A2992 RMK SC2 SLP157

CYQR;2011-10-15 05:00;CYQR 150500Z 26007KT 15SM SCT043 00/M02 A2991 RMK SC2 SLP154

CYQR;2011-10-15 06:00;CYQR 150600Z 27007KT 15SM FEW043 M00/M02 A2991 RMK SC1 SLP151

CYQR;2011-10-15 07:00;CYQR 150700Z 28002KT 15SM SKC M01/M04 A2991 RMK SLP151

CYQR;2011-10-15 08:00;CYQR 150800Z 30003KT 15SM SKC M02/M04 A2991 RMK SLP152

CYQR;2011-10-15 09:00;CYQR 150900Z 27004KT 15SM SKC M02/M04 A2991 RMK SLP150

CYQR;2011-10-15 10:00;CYQR 151000Z 28002KT 15SM SKC M03/M05 A2990 RMK FROIN SLP148

CYQR;2011-10-15 11:00;CYQR 151100Z 25003KT 15SM SKC M03/M05 A2990 RMK SLP147

CYQR;2011-10-15 12:00;CYQR 151200Z 00000KT 15SM SKC M03/M06 A2989 RMK SLP148

CYQR;2011-10-15 13:00;CYQR 151300Z 27003KT 15SM FEW100 M02/M05 A2988 RMK AC1 SLP145

CYQR;2011-10-15 14:00;CYQR 151400Z 20004KT 15SM FEW075 M02/M05 A2988 RMK AC2 SLP143

CYQR;2011-10-15 15:00;CYQR 151500Z 22002KT 15SM SCT080 01/M01 A2987 RMK AC2 SLP144

CYQR;2011-10-15 16:00;CYQR 151600Z 25004KT 15SM FEW080 FEW300 05/03 A2988 RMK AC1CI0 SLP146

CYQR;2011-10-15 17:00;CYQR 151700Z 27009KT 15SM FEW094 FEW300 08/04 A2987 RMK AC2CI0 SLP143

CYQR;2011-10-15 18:00;CYQR 151800Z 27014KT 15SM FEW035 SCT090 BKN300 10/03 A2986 RMK SC2AC2CI0 SLP133

CYQR;2011-10-15 19:00;CYQR 151900Z 33021KT 15SM SCT038 BKN090 BKN300 10/02 A2985 RMK SC4AC1CI0 CU ASOCTD SLP130

CYQR;2011-10-15 20:00;CYQR 152000Z 33011G17KT 15SM BKN040 BKN095 BKN300 10/02 A2984 RMK SC6AC1CI0 CU ASOCTD SLP127

CYQR;2011-10-15 20:16;CYQR 152016Z 34015G28KT 15SM -SHRA BKN040 BKN075 09/ RMK SC6AC1 CU ASOCTD

CYQR;2011-10-15 21:00;CYQR 152100Z 31006KT 15SM -SHRA SCT034TCU BKN086 09/02 A2984 RMK TCU4AC2 SLP129

CYQR;2011-10-15 21:54;CYQR 152154Z 31011KT 15SM SCT030 BKN086 BKN300 10/ RMK SC3AC2CI1 CU ASOCTD

CYQR;2011-10-15 22:00;CYQR 152200Z 31011KT 15SM SCT035 BKN086 BKN300 09/01 A2985 RMK SC3AC3CI0 CU ASOCTD SLP130

CYQR;2011-10-15 23:00;CYQR 152300Z 29010KT 15SM FEW045 BKN085 08/00 A2986 RMK SC2AC6 SLP133

CYQR;2011-10-16 00:00;CYQR 160000Z 27013KT 15SM FEW050 BKN090 06/01 A2986 RMK SC2AC3 CU ASOCTD SLP139

CYQR;2011-10-16 01:00;CYQR 160100Z 28008KT 15SM FEW055 SCT090 04/00 A2987 RMK SC2AC2 SLP142

CYQR;2011-10-16 02:00;CYQR 160200Z 31011KT 15SM FEW062 04/M01 A2989 RMK SC2 SLP147

CYQR;2011-10-16 03:00;CYQR 160300Z 30008KT 15SM FEW062 01/M03 A2991 RMK SC1 SLP154

CYQR;2011-10-16 04:00;CYQR 160400Z 29008KT 15SM SKC M00/M03 A2992 RMK SLP158

CYQR;2011-10-16 05:00;CYQR 160500Z 31011KT 15SM SKC 00/M03 A2994 RMK SLP166

CYQR;2011-10-16 06:00;CYQR 160600Z 31009KT 15SM SKC M00/M03 A2996 RMK SLP167

CYQR;2011-10-16 07:00;CYQR 160700Z 30009KT 15SM SKC M01/M04 A2997 RMK SLP171

CYQR;2011-10-16 08:00;CYQR 160800Z 29009KT 15SM SKC M02/M04 A2999 RMK SLP176

CYQR;2011-10-16 09:00;CYQR 160900Z 29007KT 15SM SKC M03/M05 A3000 RMK SLP185

CYQR;2011-10-16 10:00;CYQR 161000Z 28007KT 15SM SKC M04/M06 A3001 RMK SLP186

CYQR;2011-10-16 11:00;CYQR 161100Z 27006KT 15SM SKC M04/M06 A3003 RMK SLP192

CYQR;2011-10-16 12:00;CYQR 161200Z 30006KT 15SM SKC M03/M06 A3003 RMK SLP196

CYQR;2011-10-16 13:00;CYQR 161300Z 28007KT 15SM SKC M04/M06 A3003 RMK SLP195

CYQR;2011-10-16 14:00;CYQR 161400Z 27005KT 15SM FEW070 M03/M05 A3002 RMK AC1 SLP194

CYQR;2011-10-16 15:00;CYQR 161500Z 27006KT 15SM FEW070 M00/M02 A3002 RMK AC1 SLP194

CYQR;2011-10-16 16:00;CYQR 161600Z 28010KT 15SM FEW070 03/00 A3003 RMK AC1 SLP196

CYQR;2011-10-16 17:00;CYQR 161700Z 30014KT 15SM SKC 06/01 A3003 RMK SLP196

CYQR;2011-10-16 18:00;CYQR 161800Z 29013G18KT 15SM FEW020 08/02 A3002 RMK CF1 SLP190

CYQR;2011-10-16 19:00;CYQR 161900Z 30014G24KT 15SM FEW039 10/01 A3000 RMK CU2 SLP184

CYQR;2011-10-16 20:00;CYQR 162000Z 32015G21KT 15SM FEW040 FEW200 10/M01 A2999 RMK SC2CI1 SLP179

CYQR;2011-10-16 21:00;CYQR 162100Z 31013G22KT 15SM FEW053 FEW240 10/M03 A2998 RMK SC2CI0 SLP174

CYQR;2011-10-16 22:00;CYQR 162200Z 32014G20KT 15SM FEW058 FEW240 10/M03 A2996 RMK SC1CI0 SLP170

CYQR;2011-10-16 23:00;CYQR 162300Z 32016KT 15SM FEW240 10/M05 A2996 RMK CI0 SLP167

CYQR;2011-10-17 00:00;CYQR 170000Z 32004KT 15SM FEW240 05/M04 A2996 RMK CI1 SLP172

CYQR;2011-10-17 01:00;CYQR 170100Z 32003KT 15SM FEW240 04/M05 A2995 RMK CI1 SLP170

CYQR;2011-10-17 02:00;CYQR 170200Z 28005KT 15SM SKC 02/M05 A2995 RMK SLP170

CYQR;2011-10-17 03:00;CYQR 170300Z 26005KT 15SM SKC M01/M06 A2996 RMK SLP174

CYQR;2011-10-17 04:00;CYQR 170400Z 26007KT 15SM SKC M02/M07 A2996 RMK SLP174

CYQR;2011-10-17 05:00;CYQR 170500Z 26009KT 15SM SKC M03/M07 A2996 RMK SLP174

CYQR;2011-10-17 06:00;CYQR 170600Z 27008KT 15SM SKC M02/M06 A2996 RMK SLP170

CYQR;2011-10-17 07:00;CYQR 170700Z 28009KT 15SM SKC M02/M06 A2996 RMK SLP169

CYQR;2011-10-17 08:00;CYQR 170800Z 30008KT 15SM SKC M03/M07 A2997 RMK SLP172

CYQR;2011-10-17 09:00;CYQR 170900Z 28005KT 15SM SKC M04/M07 A2997 RMK SLP173

CYQR;2011-10-17 10:00;CYQR 171000Z 27008KT 15SM SKC M05/M08 A2998 RMK SLP176

CYQR;2011-10-17 11:00;CYQR 171100Z 30005KT 15SM SKC M05/M07 A3000 RMK SLP181

CYQR;2011-10-17 12:00;CYQR 171200Z 31010KT 15SM SKC M04/M07 A3001 RMK SLP191

CYQR;2011-10-17 13:00;CYQR 171300Z 31007KT 15SM FEW280 M04/M07 A3003 RMK CI1 SLP196

CYQR;2011-10-17 14:00;CYQR 171400Z 29007KT 15SM SKC M04/M07 A3005 RMK SLP203

CYQR;2011-10-17 15:00;CYQR 171500Z 32007KT 15SM SKC M00/M04 A3007 RMK SLP212

CYQR;2011-10-17 16:00;CYQR 171600Z 32010KT 15SM FEW280 02/M02 A3009 RMK CI1 SLP218

CYQR;2011-10-17 17:00;CYQR 171700Z 31009KT 15SM FEW240 04/M01 A3010 RMK CI1 SLP222

CYQR;2011-10-17 18:00;CYQR 171800Z 33013G18KT 15SM FEW240 07/M01 A3011 RMK CI1 SLP221

CYQR;2011-10-17 19:00;CYQR 171900Z 34016KT 15SM FEW030 FEW240 09/M02 A3011 RMK CU1CI0 SLP221

CYQR;2011-10-17 20:00;CYQR 172000Z 33012G21KT 15SM FEW040 FEW240 09/M01 A3011 RMK CF1CI1 SLP221

CYQR;2011-10-17 21:00;CYQR 172100Z 35013G19KT 15SM BKN260 10/M01 A3010 RMK CI1 SLP220

CYQR;2011-10-17 22:00;CYQR 172200Z 34016KT 15SM BKN260 10/M01 A3011 RMK CI2 OBS TAKEN +05 SLP222

CYQR;2011-10-17 23:00;CYQR 172300Z 32007KT 15SM BKN250 09/M01 A3011 RMK CI2 SLP223

CYQR;2011-10-18 00:00;CYQR 180000Z 32008KT 15SM BKN240 06/M02 A3012 RMK CI1 SLP226

CYQR;2011-10-18 01:00;CYQR 180100Z 34005KT 15SM FEW240 04/M03 A3012 RMK CI1 SLP228

CYQR;2011-10-18 02:00;CYQR 180200Z 28004KT 15SM SKC 01/M04 A3013 RMK SLP230

CYQR;2011-10-18 03:00;CYQR 180300Z 26005KT 15SM SKC M00/M05 A3013 RMK SLP233

CYQR;2011-10-18 04:00;CYQR 180400Z 25007KT 15SM SKC M02/M06 A3013 RMK SLP233

CYQR;2011-10-18 05:00;CYQR 180500Z 23005KT 15SM SKC M01/M06 A3013 RMK SLP232

CYQR;2011-10-18 06:00;CYQR 180600Z 23002KT 15SM SKC M02/M06 A3013 RMK SLP228

CYQR;2011-10-18 07:00;CYQR 180700Z 28005KT 15SM SKC M03/M07 A3013 RMK SLP228

CYQR;2011-10-18 08:00;CYQR 180800Z 32003KT 15SM SKC M04/M08 A3015 RMK SLP234

CYQR;2011-10-18 09:00;CYQR 180900Z 31008KT 15SM SKC M05/M09 A3016 RMK SLP241

CYQR;2011-10-18 10:00;CYQR 181000Z 30006KT 15SM SKC M05/M08 A3017 RMK SLP243

CYQR;2011-10-18 11:00;CYQR 181100Z 31005KT 15SM SKC M05/M07 A3020 RMK SLP252

CYQR;2011-10-18 12:00;CYQR 181200Z 33006KT 15SM BKN082 M01/M04 A3021 RMK AC7 SLP256

CYQR;2011-10-18 13:00;CYQR 181300Z 34005KT 15SM BKN078 M00/M03 A3023 RMK AC7 SLP262

CYQR;2011-10-18 14:00;CYQR 181400Z 31004KT 15SM FEW030 OVC084 00/M03 A3024 RMK SC0AC7 SLP265

CYQR;2011-10-18 15:00;CYQR 181500Z 00000KT 15SM FEW030 BKN070 02/M01 A3024 RMK SC1AC6 SLP270

CYQR;2011-10-18 16:00;CYQR 181600Z 32003KT 15SM BKN081 04/M00 A3025 RMK AC7 SLP271

CYQR;2011-10-18 17:00;CYQR 181700Z 34003KT 15SM BKN079 07/00 A3025 RMK AC7 SLP274

CYQR;2011-10-18 18:00;CYQR 181800Z 28005KT 15SM BKN075 08/01 A3025 RMK AC6 SLP268

CYQR;2011-10-18 19:00;CYQR 181900Z 30004KT 15SM OVC075 10/01 A3023 RMK AC8 SLP264

CYQR;2011-10-18 20:00;CYQR 182000Z 33005KT 15SM BKN075 11/00 A3022 RMK AC7 SLP260

CYQR;2011-10-18 21:00;CYQR 182100Z 31007KT 15SM BKN075 11/01 A3021 RMK AC7 SLP256

CYQR;2011-10-18 22:00;CYQR 182200Z 34005KT 15SM BKN075 11/01 A3021 RMK AC7 SLP256

CYQR;2011-10-18 23:00;CYQR 182300Z 03004KT 15SM BKN071 11/01 A3021 RMK AC7 SLP257

CYQR;2011-10-19 00:00;CYQR 190000Z 05005KT 15SM BKN069 BKN270 09/01 A3021 RMK AC7CI1 SLP255

CYQR;2011-10-19 01:00;CYQR 190100Z 09007KT 15SM BKN065 BKN270 07/00 A3020 RMK SC5CI0 SLP253

CYQR;2011-10-19 02:00;CYQR 190200Z 10008KT 15SM FEW065 05/M01 A3021 RMK SC2 SLP255

CYQR;2011-10-19 03:00;CYQR 190300Z 12008KT 15SM SKC 04/M01 A3021 RMK SLP255

CYQR;2011-10-19 04:00;CYQR 190400Z 14008KT 15SM SKC 02/M02 A3022 RMK SLP258

CYQR;2011-10-19 05:00;CYQR 190500Z 13010KT 15SM SKC 03/M02 A3021 RMK SLP257

CYQR;2011-10-19 06:00;CYQR 190600Z 14010KT 15SM SKC 02/M03 A3020 RMK SLP251

CYQR;2011-10-19 07:00;CYQR 190700Z 15009KT 15SM SKC 01/M04 A3020 RMK SLP249

CYQR;2011-10-19 08:00;CYQR 190800Z 15010KT 15SM SKC 00/M04 A3020 RMK SLP248

CYQR;2011-10-19 09:00;CYQR 190900Z 15010KT 15SM SKC M00/M04 A3018 RMK SLP243

CYQR;2011-10-19 10:00;CYQR 191000Z 15012KT 15SM SKC M00/M04 A3017 RMK SLP239

CYQR;2011-10-19 11:00;CYQR 191100Z 14011KT 15SM SKC M01/M04 A3016 RMK SLP237

CYQR;2011-10-19 12:00;CYQR 191200Z 14013KT 15SM SKC M01/M05 A3015 RMK SLP234

CYQR;2011-10-19 13:00;CYQR 191300Z 14013KT 15SM FEW300 M01/M05 A3015 RMK CI0 SLP233

CYQR;2011-10-19 14:00;CYQR 191400Z 14013KT 15SM SCT300 M01/M05 A3013 RMK CI1 SLP228

CYQR;2011-10-19 15:00;CYQR 191500Z 14014KT 15SM SCT300 01/M03 A3013 RMK CI0 SLP228

CYQR;2011-10-19 16:00;CYQR 191600Z 15016KT 15SM BKN300 04/M02 A3012 RMK CI1 SLP226

CYQR;2011-10-19 17:00;CYQR 191700Z 16014G20KT 15SM SCT300 06/M01 A3010 RMK CI1 SLP221

CYQR;2011-10-19 18:00;CYQR 191800Z 15016G22KT 15SM SCT300 09/01 A3008 RMK CI1 SLP207

CYQR;2011-10-19 19:00;CYQR 191900Z 16016G26KT 15SM FEW300 11/02 A3004 RMK CI1 SLP194

CYQR;2011-10-19 20:00;CYQR 192000Z 16020G25KT 15SM SCT300 12/02 A3000 RMK CI1 SLP182

CYQR;2011-10-19 21:00;CYQR 192100Z 16018KT 15SM BKN300 12/02 A2998 RMK CI2 SLP172

CYQR;2011-10-19 22:00;CYQR 192200Z 16019KT 15SM BKN300 12/02 A2997 RMK CI5 SLP169

CYQR;2011-10-19 23:00;CYQR 192300Z 15017KT 15SM OVC300 12/02 A2995 RMK CI6 SLP163

CYQR;2011-10-20 00:00;CYQR 200000Z 14015G21KT 15SM OVC300 10/02 A2993 RMK CI6 SLP158

CYQR;2011-10-20 01:00;CYQR 200100Z 14015KT 15SM BKN300 08/01 A2993 RMK CI3 SLP158

CYQR;2011-10-20 02:00;CYQR 200200Z 14018KT 15SM BKN260 07/00 A2992 RMK CI3 SLP154

CYQR;2011-10-20 03:00;CYQR 200300Z 15016KT 15SM BKN260 06/M00 A2992 RMK CI3 SLP155

CYQR;2011-10-20 04:00;CYQR 200400Z 15017G24KT 15SM BKN260 05/M01 A2991 RMK CI3 SLP152

CYQR;2011-10-20 05:00;CYQR 200500Z 15017G22KT 15SM BKN260 05/M01 A2989 RMK CI3 SLP145

CYQR;2011-10-20 06:00;CYQR 200600Z 15018KT 15SM BKN260 04/M01 A2988 RMK CI3 SLP139

CYQR;2011-10-20 07:00;CYQR 200700Z 15015G20KT 15SM BKN260 03/M02 A2987 RMK CI2 SLP135

CYQR;2011-10-20 08:00;CYQR 200800Z 15014G19KT 15SM SCT260 03/M02 A2985 RMK CI1 SLP129

CYQR;2011-10-20 09:00;CYQR 200900Z 14015G21KT 15SM SCT260 03/M02 A2983 RMK CI1 SLP119

CYQR;2011-10-20 10:00;CYQR 201000Z 15018G24KT 15SM BKN260 03/M02 A2981 RMK CI2 SLP112

CYQR;2011-10-20 11:00;CYQR 201100Z 15015G20KT 15SM BKN260 03/M02 A2980 RMK CI2 SLP108

CYQR;2011-10-20 12:00;CYQR 201200Z 15013KT 15SM BKN260 02/M03 A2979 RMK CI3 SLP106

CYQR;2011-10-20 13:00;CYQR 201300Z 14014G19KT 15SM BKN160 BKN300 02/M02 A2976 RMK AC5CI2 SLP098

CYQR;2011-10-20 14:00;CYQR 201400Z 15011KT 15SM BKN160 BKN300 02/M02 A2977 RMK AC6CI1 SLP100

CYQR;2011-10-20 15:00;CYQR 201500Z 15012G17KT 15SM BKN160 BKN300 03/M02 A2976 RMK AC6CI1 SLP100

CYQR;2011-10-20 16:00;CYQR 201600Z 16009KT 15SM BKN160 BKN300 04/M01 A2976 RMK AC5CI1 SLP100

CYQR;2011-10-20 17:00;CYQR 201700Z 16012KT 15SM FEW160 BKN300 08/01 A2975 RMK AC2CI1 SLP097

CYQR;2011-10-20 18:00;CYQR 201800Z 21006KT 15SM FEW160 BKN300 12/03 A2974 RMK AC2CI1 SLP086

CYQR;2011-10-20 19:00;CYQR 201900Z 28012KT 15SM FEW160 BKN300 15/04 A2972 RMK AC1CI1 SLP081

CYQR;2011-10-20 20:00;CYQR 202000Z 28013G20KT 15SM FEW160 BKN300 15/04 A2972 RMK AC1CI2 SLP082

CYQR;2011-10-20 21:00;CYQR 202100Z 29015KT 15SM FEW160 BKN300 16/03 A2973 RMK AC1CI1 SLP081

CYQR;2011-10-20 22:00;CYQR 202200Z 31017KT 15SM FEW160 BKN300 16/03 A2974 RMK AC2CI2 SLP085

CYQR;2011-10-20 23:00;CYQR 202300Z 31012KT 15SM FEW220 BKN300 14/02 A2976 RMK CI2CI2 SLP092

CYQR;2011-10-21 00:00;CYQR 210000Z 32010KT 15SM FEW220 BKN300 11/02 A2978 RMK CI2CI1 SLP104

CYQR;2011-10-21 01:00;CYQR 210100Z 28008KT 15SM BKN300 08/02 A2980 RMK CI1 SLP110

CYQR;2011-10-21 02:00;CYQR 210200Z 29010KT 15SM BKN260 07/01 A2982 RMK CI2 SLP115

CYQR;2011-10-21 03:00;CYQR 210300Z 33005KT 15SM BKN260 04/00 A2983 RMK CI1 SLP123

CYQR;2011-10-21 04:00;CYQR 210400Z 31006KT 15SM FEW060 BKN260 04/00 A2985 RMK SC1CI1 SLP129

CYQR;2011-10-21 05:00;CYQR 210500Z 35003KT 15SM FEW090 BKN260 05/01 A2986 RMK AC2CI1 SLP134

CYQR;2011-10-21 06:00;CYQR 210600Z 28003KT 15SM FEW082 BKN260 06/02 A2987 RMK AC2CI1 SLP131

CYQR;2011-10-21 07:00;CYQR 210700Z 28005KT 15SM FEW083 BKN260 04/01 A2990 RMK AC2CI1 SLP140

CYQR;2011-10-21 08:00;CYQR 210800Z 30005KT 15SM FEW063 BKN260 04/01 A2992 RMK SC2CI0 SLP147

CYQR;2011-10-21 09:00;CYQR 210900Z 31005KT 15SM FEW063 03/M00 A2993 RMK SC2 SLP150

CYQR;2011-10-21 10:00;CYQR 211000Z 33009KT 15SM FEW067 02/M01 A2994 RMK AC2 SLP152

CYQR;2011-10-21 11:00;CYQR 211100Z 30007KT 15SM SCT069 02/M01 A2996 RMK AC4 SLP160

CYQR;2011-10-21 12:00;CYQR 211200Z 32009KT 15SM FEW067 BKN260 01/M02 A2998 RMK AC1CI1 SLP171

CYQR;2011-10-21 13:00;CYQR 211300Z 30007KT 15SM FEW300 M00/M03 A3000 RMK CI1 SLP179

CYQR;2011-10-21 14:00;CYQR 211400Z 29005KT 15SM FEW220 FEW300 M01/M04 A3003 RMK CI1CI0 SLP187

CYQR;2011-10-21 15:00;CYQR 211500Z 32007KT 15SM FEW070 FEW300 02/M01 A3005 RMK AC1CI1 TR AC SLP202

CYQR;2011-10-21 16:00;CYQR 211600Z 32008KT 15SM FEW300 05/01 A3006 RMK CI1 SLP205

CYQR;2011-10-21 17:00;CYQR 211700Z 33008KT 15SM FEW300 07/02 A3007 RMK CI0 SLP207

CYQR;2011-10-21 18:00;CYQR 211800Z 32008KT 15SM FEW300 09/04 A3007 RMK CI0 SLP203

CYQR;2011-10-21 19:00;CYQR 211900Z 34010G15KT 15SM FEW030 10/03 A3006 RMK CF1 SLP199

CYQR;2011-10-21 20:00;CYQR 212000Z 32010KT 15SM FEW030 11/03 A3006 RMK CF1 SLP198

CYQR;2011-10-21 21:00;CYQR 212100Z 32007KT 15SM SKC 12/01 A3005 RMK SLP196

CYQR;2011-10-21 22:00;CYQR 212200Z 32007KT 15SM SKC 11/01 A3005 RMK SLP194

CYQR;2011-10-21 23:00;CYQR 212300Z 31004KT 15SM FEW300 11/01 A3005 RMK CI0 SLP194

CYQR;2011-10-22 00:00;CYQR 220000Z 26004KT 15SM FEW300 07/M01 A3005 RMK CI1 SLP197

CYQR;2011-10-22 01:00;CYQR 220100Z 00000KT 15SM FEW300 05/M02 A3005 RMK CI0 SLP198

CYQR;2011-10-22 02:00;CYQR 220200Z 18003KT 15SM FEW300 03/M02 A3004 RMK CI0 SLP194

CYQR;2011-10-22 03:00;CYQR 220300Z 14007KT 15SM SCT280 03/M02 A3002 RMK CI1 SLP193

CYQR;2011-10-22 04:00;CYQR 220400Z 14007KT 15SM SKC 01/M03 A3000 RMK SLP187

CYQR;2011-10-22 05:00;CYQR 220500Z 15008KT 15SM SKC 02/M02 A2999 RMK SLP183

CYQR;2011-10-22 06:00;CYQR 220600Z 15009KT 15SM SKC 02/M02 A2997 RMK SLP169

CYQR;2011-10-22 07:00;CYQR 220700Z 15012KT 15SM SKC 02/M02 A2994 RMK SLP159

CYQR;2011-10-22 08:00;CYQR 220800Z 15011KT 15SM SKC 02/M02 A2992 RMK SLP154

CYQR;2011-10-22 09:00;CYQR 220900Z 15011KT 15SM FEW081 02/M02 A2989 RMK AC2 SLP140

CYQR;2011-10-22 10:00;CYQR 221000Z 15012KT 15SM SCT081 03/M01 A2986 RMK AC4 SLP129

CYQR;2011-10-22 11:00;CYQR 221100Z 15012KT 15SM BKN091 04/M00 A2982 RMK AC6 SLP117

CYQR;2011-10-22 12:00;CYQR 221200Z 16010KT 15SM BKN087 04/00 A2979 RMK AC6 SLP108

CYQR;2011-10-22 13:00;CYQR 221300Z 17007KT 15SM BKN085 06/02 A2976 RMK AC7 SLP099

CYQR;2011-10-22 14:00;CYQR 221400Z 22007KT 15SM BKN094 06/02 A2975 RMK AC6 SLP094

CYQR;2011-10-22 15:00;CYQR 221500Z 26011KT 15SM FEW094 09/04 A2974 RMK AC1 VIRGA SLP091

CYQR;2011-10-22 16:00;CYQR 221600Z 28016G21KT 15SM FEW040 FEW073 10/04 A2975 RMK SC1AC1 SLP093

CYQR;2011-10-22 17:00;CYQR 221700Z 28018KT 15SM FEW030TCU SCT087 12/05 A2975 RMK TCU1AC3 TCU NE SLP094

CYQR;2011-10-22 18:00;CYQR 221800Z 29015KT 15SM FEW030 FEW120 13/04 A2976 RMK SC1AC1 SLP095

CYQR;2011-10-22 19:00;CYQR 221900Z 30021G26KT 15SM FEW030 FEW120 14/04 A2977 RMK SC1AC1 SLP097

CYQR;2011-10-22 20:00;CYQR 222000Z 31021G26KT 15SM SKC 14/03 A2977 RMK SLP097

CYQR;2011-10-22 21:00;CYQR 222100Z 32025G31KT 15SM FEW270 14/03 A2979 RMK CI1 SLP104

CYQR;2011-10-22 22:00;CYQR 222200Z 32021G27KT 15SM BKN270 14/02 A2980 RMK CI2 SLP108

CYQR;2011-10-22 23:00;CYQR 222300Z 30009KT 15SM BKN270 11/01 A2980 RMK CI2 SLP109

CYQR;2011-10-23 00:00;CYQR 230000Z 28007KT 15SM BKN092 BKN120 08/M01 A2980 RMK AC5AC2 SLP111

CYQR;2011-10-23 01:00;CYQR 230100Z 28009KT 15SM BKN088 08/00 A2981 RMK AC6 SLP113

CYQR;2011-10-23 02:00;CYQR 230200Z 26007KT 15SM BKN083 OVC120 07/M00 A2981 RMK AC6AC2 SLP112

CYQR;2011-10-23 03:00;CYQR 230300Z 28008KT 15SM OVC073 08/M00 A2980 RMK AC8 SLP107

CYQR;2011-10-23 04:00;CYQR 230400Z 24005KT 15SM OVC051 07/00 A2980 RMK SC8 OBS TAKEN -06 SLP108

CYQR;2011-10-23 05:00;CYQR 230500Z 27005KT 15SM BKN055 BKN080 06/M00 A2978 RMK SC6AC2 SLP101

CYQR;2011-10-23 06:00;CYQR 230600Z 26006KT 15SM SCT060 BKN074 05/M01 A2977 RMK SC4AC1 SLP097

CYQR;2011-10-23 07:00;CYQR 230700Z 35006KT 15SM SCT050 OVC074 06/M01 A2979 RMK SC3AC5 SLP103

CYQR;2011-10-23 08:00;CYQR 230800Z 36003KT 15SM SCT050 BKN075 05/M01 A2979 RMK SC2AC2 SLP102

CYQR;2011-10-23 09:00;CYQR 230900Z 31002KT 15SM SCT060 02/M03 A2979 RMK SC2 SLP106

CYQR;2011-10-23 10:00;CYQR 231000Z CCB 23008KT 15SM SCT060 M02/M05 A2980 RMK SC1 SLP108

CYQR;2011-10-23 11:00;CYQR 231100Z CCA 23008KT 15SM SCT060 M02/M05 A2980 RMK SC1 SLP108

CYQR;2011-10-23 12:00;CYQR 231200Z 27007KT 15SM SKC M03/M05 A2981 RMK SLP119

CYQR;2011-10-23 13:00;CYQR 231300Z 27004KT 15SM FEW082 M02/M05 A2981 RMK AC1 SLP119

CYQR;2011-10-23 14:00;CYQR 231400Z 26004KT 15SM FEW250 M02/M04 A2981 RMK CI0 SLP119

CYQR;2011-10-23 15:00;CYQR 231500Z 27003KT 15SM FEW130 FEW250 02/M00 A2982 RMK AC1CI1 SLP121

CYQR;2011-10-23 16:00;CYQR 231600Z 30005KT 15SM FEW130 FEW250 05/02 A2983 RMK AC1CI0 SLP122

CYQR;2011-10-23 17:00;CYQR 231700Z 24002KT 15SM FEW130 SCT250 09/03 A2983 RMK AC1CI0 SLP123

CYQR;2011-10-23 18:00;CYQR 231800Z 25002KT 15SM FEW090 FEW110 BKN220 11/02 A2983 RMK ACC1AC1CI5 SLP117

CYQR;2011-10-23 19:00;CYQR 231900Z 23007KT 15SM FEW090 FEW110 BKN220 13/03 A2981 RMK ACC1AC2CI2 SLP112

CYQR;2011-10-23 20:00;CYQR 232000Z 24006KT 15SM FEW092 FEW110 BKN220 14/02 A2980 RMK AC1AC2CI2 SLP109

CYQR;2011-10-23 21:00;CYQR 232100Z 28008KT 15SM FEW040 FEW110 BKN220 14/01 A2980 RMK SC1AC2CI1 SLP108

CYQR;2011-10-23 22:00;CYQR 232200Z 27009KT 15SM SCT056 BKN095 BKN220 14/02 A2981 RMK SC3AC2CI2 SH S-SE SLP110

CYQR;2011-10-23 23:00;CYQR 232300Z 27009KT 15SM FEW050TCU SCT062 BKN095 BKN220 12/01 A2981 RMK TCU1SC3AC2CI1 SLP111

CYQR;2011-10-23 23:43;CYQR 232343Z 27007KT 15SM -SHRA SCT050TCU BKN068 11/ RMK TCU4AC2

CYQR;2011-10-23 23:48;CYQR 232348Z 29012KT 15SM -TSRA BKN035CB BKN068 10/ RMK CB5AC2

CYQR;2011-10-24 00:00;CYQR 240000Z 33010G25KT 15SM -TSRA SCT030CB BKN059 08/03 A2984 RMK CB4SC2 SLP130

CYQR;2011-10-24 00:03;CYQR 240003Z 33008KT 15SM SCT030CB BKN059 08/ RETS RMK CB4SC2

CYQR;2011-10-24 01:00;CYQR 240100Z 01008KT 15SM SCT047 BKN094 06/02 A2988 RETS RMK SC3AC2 SLP141

CYQR;2011-10-24 01:52;CYQR 240152Z 35008KT 15SM FEW047 SCT095 02/ RMK SC1AC1

CYQR;2011-10-24 02:00;CYQR 240200Z 35008KT 15SM FEW050 SCT090 02/M01 A2991 RMK SC1AC1 SLP151

CYQR;2011-10-24 03:00;CYQR 240300Z 32010KT 15SM SKC 01/M02 A2992 RMK SLP160

CYQR;2011-10-24 04:00;CYQR 240400Z 00000KT 15SM SKC 00/M02 A2995 RMK OBS TAKEN -08 SLP168

CYQR;2011-10-24 05:00;CYQR 240500Z 31005KT 15SM SKC M02/M05 A2996 RMK SLP172

CYQR;2011-10-24 06:00;CYQR 240600Z 24004KT 15SM SKC M04/M06 A2996 RMK SLP170

CYQR;2011-10-24 07:00;CYQR 240700Z 27006KT 15SM SKC M04/M07 A2996 RMK SLP170

CYQR;2011-10-24 08:00;CYQR 240800Z 24004KT 15SM SKC M05/M07 A2997 RMK SLP172

CYQR;2011-10-24 09:00;CYQR 240900Z 22003KT 15SM SKC M05/M07 A2997 RMK FROIN SLP171

CYQR;2011-10-24 10:00;CYQR 241000Z 23005KT 15SM SKC M04/M07 A2996 RMK FROIN SLP169

CYQR;2011-10-24 11:00;CYQR 241100Z 24004KT 15SM SKC M04/M06 A2996 RMK FROIN SLP169

CYQR;2011-10-24 12:00;CYQR 241200Z 25004KT 15SM SKC M04/M06 A2996 RMK FROIN SLP172

CYQR;2011-10-24 13:00;CYQR 241300Z 00000KT 15SM FEW150 FEW270 M05/M08 A2996 RMK AC1CI1 FROIN SLP171

CYQR;2011-10-24 14:00;CYQR 241400Z 16003KT 15SM FEW150 FEW270 M03/M06 A2997 RMK AC1CI1 SLP173

CYQR;2011-10-24 15:00;CYQR 241500Z 13005KT 15SM FEW140 FEW300 M01/M03 A2997 RMK AC2CI0 SLP176

CYQR;2011-10-24 16:00;CYQR 241600Z 13002KT 15SM FEW120 SCT300 02/M02 A2996 RMK AC2CI0 SLP174

CYQR;2011-10-24 17:00;CYQR 241700Z 12004KT 15SM FEW120 SCT300 04/00 A2996 RMK AC2CI0 SLP172

CYQR;2011-10-24 18:00;CYQR 241800Z 17002KT 15SM FEW100 SCT300 07/01 A2995 RMK AC2CI0 SLP168

CYQR;2011-10-24 19:00;CYQR 241900Z 16004KT 15SM FEW050 SCT100 BKN300 09/00 A2994 RMK SC1AC3CI1 SLP165

CYQR;2011-10-24 20:00;CYQR 242000Z 14006KT 15SM FEW050 SCT100 BKN300 11/01 A2992 RMK SC1AC2CI0 SLP159

CYQR;2011-10-24 21:00;CYQR 242100Z 15008KT 15SM SCT080 SCT140 BKN300 10/01 A2992 RMK AC3AC1CI0 VIRGA SLP156

CYQR;2011-10-24 22:00;CYQR 242200Z 16007KT 15SM SCT070 BKN140 BKN300 10/M00 A2993 RMK AC4AC1CI1 VIRGA SLP159

CYQR;2011-10-24 23:00;CYQR 242300Z 18008KT 15SM FEW065 FEW140 BKN300 10/M01 A2993 RMK SC1AC1CI2 SLP161

CYQR;2011-10-25 00:00;CYQR 250000Z 17007KT 15SM FEW062 FEW140 BKN300 05/M01 A2994 RMK SC2AC1CI1 TCU EMBD SLP167

CYQR;2011-10-25 01:00;CYQR 250100Z 16006KT 15SM BKN086 06/M00 A2996 RMK AC7 SLP171

CYQR;2011-10-25 02:00;CYQR 250200Z 10005KT 15SM BKN056 04/M01 A2997 RMK SC6 SLP175

CYQR;2011-10-25 03:00;CYQR 250300Z 13004KT 15SM SCT056 BKN074 03/M01 A2998 RMK SC3AC3 SLP179

CYQR;2011-10-25 04:00;CYQR 250400Z 15004KT 15SM BKN074 OVC100 04/M00 A2999 RMK AC6AC2 OBS TAKEN -08 SLP182

CYQR;2011-10-25 04:36;CYQR 250436Z 22002KT 15SM OVC064 02/ RMK SC8

CYQR;2011-10-25 05:00;CYQR 250500Z 14005KT 15SM BKN068 BKN090 02/M01 A2999 RMK AC5AC2 SLP182

CYQR;2011-10-25 06:00;CYQR 250600Z 11004KT 15SM BKN065 OVC095 02/M01 A2999 RMK SC6AC2 SLP178

CYQR;2011-10-25 07:00;CYQR 250700Z 14007KT 15SM BKN085 BKN240 01/M02 A3000 RMK AC6CI0 SLP181

CYQR;2011-10-25 08:00;CYQR 250800Z 18005KT 15SM BKN070 02/00 A3001 RMK AC4 SLP184

CYQR;2011-10-25 09:00;CYQR 250900Z 21002KT 15SM BKN085 01/M00 A3003 RMK AC3 SLP189

CYQR;2011-10-25 10:00;CYQR 251000Z 00000KT 15SM SCT026 01/M01 A3003 RMK SC2 SLP190

CYQR;2011-10-25 11:00;CYQR 251100Z 17002KT 15SM SCT026 BKN048 01/M01 A3004 RMK SC3SC1 SLP194

CYQR;2011-10-25 12:00;CYQR 251200Z 22003KT 15SM BKN051 M00/M01 A3005 RMK SC6 SLP201

CYQR;2011-10-25 13:00;CYQR 251300Z 24004KT 15SM BKN056 01/M01 A3006 RMK SC6 SLP205

CYQR;2011-10-25 14:00;CYQR 251400Z 27005KT 15SM VCSH BKN053 BKN068 BKN090 M00/M01 A3008 RMK SC3AC2AC1 SLP210

CYQR;2011-10-25 15:00;CYQR 251500Z 28005KT 15SM FEW032 BKN052 BKN081 01/M00 A3010 RMK SC1SC3AC1 SLP218

CYQR;2011-10-25 16:00;CYQR 251600Z 27005KT 15SM FEW032 FEW052 FEW083 SCT250 02/01 A3010 RMK CU1SC1AC1CI1 SLP221

CYQR;2011-10-25 17:00;CYQR 251700Z 26009KT 15SM FEW032 FEW083 FEW250 07/03 A3010 RMK CU1AC1CI1 SLP221

CYQR;2011-10-25 18:00;CYQR 251800Z 27011KT 15SM FEW024 BKN250 08/02 A3011 RMK CU1CI1 SLP218

CYQR;2011-10-25 19:00;CYQR 251900Z 31013KT 15SM FEW040 BKN300 09/M01 A3010 RMK CU1CI0 SLP215

CYQR;2011-10-25 20:00;CYQR 252000Z 33013KT 15SM FEW050 BKN300 09/M02 A3009 RMK CU2CI0 SLP213

CYQR;2011-10-25 21:00;CYQR 252100Z 34011KT 15SM BKN050 BKN300 09/M02 A3009 RMK CU6CI0 SLP212

CYQR;2011-10-25 22:00;CYQR 252200Z 33013G19KT 15SM BKN056 08/M02 A3010 RMK SC7 CU ASOCTD SLP214

CYQR;2011-10-25 23:00;CYQR 252300Z 32014G20KT 15SM SCT052 BKN300 08/M03 A3010 RMK SC3CI0 SLP216

CYQR;2011-10-26 00:00;CYQR 260000Z 32008KT 15SM FEW052 FEW075 FEW300 04/M03 A3012 RMK SC1AC1CI0 CU + ACC ASOCTD SLP225

CYQR;2011-10-26 01:00;CYQR 260100Z 29007KT 15SM SKC 01/M05 A3013 RMK SLP229

CYQR;2011-10-26 02:00;CYQR 260200Z 28006KT 15SM SKC M01/M06 A3014 RMK SLP233

CYQR;2011-10-26 03:00;CYQR 260300Z 25004KT 15SM SKC M04/M08 A3015 RMK SLP243

CYQR;2011-10-26 04:00;CYQR 260400Z 28005KT 15SM FEW050 M04/M08 A3016 RMK SC1 OBS TAKEN -08 SLP246

CYQR;2011-10-26 05:00;CYQR 260500Z 29006KT 15SM SCT057 M03/M07 A3017 RMK SC2 SLP247

CYQR;2011-10-26 06:00;CYQR 260600Z 28004KT 15SM SCT068 M04/M07 A3017 RMK AC2 SLP244

CYQR;2011-10-26 07:00;CYQR 260700Z 30004KT 15SM SKC M06/M10 A3017 RMK SLP244

CYQR;2011-10-26 08:00;CYQR 260800Z 29007KT 15SM SKC M06/M09 A3017 RMK SLP243

CYQR;2011-10-26 09:00;CYQR 260900Z 29005KT 15SM SKC M06/M09 A3017 RMK SLP246

CYQR;2011-10-26 10:00;CYQR 261000Z 31004KT 15SM SKC M06/M09 A3017 RMK SLP246

CYQR;2011-10-26 11:00;CYQR 261100Z 30004KT 15SM FEW049 M05/M08 A3017 RMK SC2 SLP245

CYQR;2011-10-26 12:00;CYQR 261200Z 30007KT 15SM FEW058 M07/M09 A3017 RMK SC0 FROIN SLP248

CYQR;2011-10-26 13:00;CYQR 261300Z 27005KT 15SM FEW070 M07/M10 A3018 RMK AC1 FROIN SLP250

CYQR;2011-10-26 14:00;CYQR 261400Z 28006KT 15SM FEW070 M06/M09 A3018 RMK AC1 SLP250

CYQR;2011-10-26 15:00;CYQR 261500Z 28007KT 15SM FEW010 FEW070 M04/M07 A3018 RMK SF1AC1 ACC ASOCTD SLP255

CYQR;2011-10-26 16:00;CYQR 261600Z 31007KT 15SM FEW010 FEW070 M00/M03 A3018 RMK SF1AC1 SLP255

CYQR;2011-10-26 17:00;CYQR 261700Z 32006KT 15SM FEW070 02/M03 A3017 RMK AC1 SLP252

CYQR;2011-10-26 18:00;CYQR 261800Z 30005KT 15SM FEW030 05/M01 A3015 RMK SC1 SLP238

CYQR;2011-10-26 19:00;CYQR 261900Z 27005KT 15SM FEW030 FEW260 07/M01 A3012 RMK CU1CI1 SLP228

CYQR;2011-10-26 20:00;CYQR 262000Z 28008KT 15SM FEW036 BKN300 08/M02 A3009 RMK CU1CI0 SLP218

CYQR;2011-10-26 21:00;CYQR 262100Z 25007KT 15SM FEW036 FEW300 08/M04 A3005 RMK CU1CI0 SLP205

CYQR;2011-10-26 22:00;CYQR 262200Z 25010KT 15SM FEW056 FEW300 08/M05 A3004 RMK CU1CI0 SLP199

CYQR;2011-10-26 23:00;CYQR 262300Z 24006KT 15SM FEW056 FEW300 07/M05 A3001 RMK CU1CI1 SLP192

CYQR;2011-10-27 00:00;CYQR 270000Z 23006KT 15SM FEW056 FEW300 02/M07 A3001 RMK SC1CI1 SLP195

CYQR;2011-10-27 01:00;CYQR 270100Z 17005KT 15SM FEW300 00/M07 A2999 RMK CI1 SLP188

CYQR;2011-10-27 02:00;CYQR 270200Z 16008KT 15SM FEW300 01/M07 A2997 RMK CI1 SLP182

CYQR;2011-10-27 03:00;CYQR 270300Z 17008KT 15SM SKC M01/M07 A2996 RMK SLP178

CYQR;2011-10-27 04:00;CYQR 270400Z 17009KT 15SM SKC M01/M07 A2995 RMK SLP173

CYQR;2011-10-27 05:00;CYQR 270500Z 17009KT 15SM SKC M01/M07 A2993 RMK SLP167

CYQR;2011-10-27 06:00;CYQR 270600Z 17009KT 15SM SKC M02/M06 A2990 RMK SLP152

CYQR;2011-10-27 07:00;CYQR 270700Z 17009KT 15SM FEW300 M02/M06 A2987 RMK CI1 SLP143

CYQR;2011-10-27 08:00;CYQR 270800Z 17012KT 15SM FEW100 BKN300 M00/M06 A2985 RMK AC2CI2 SLP134

CYQR;2011-10-27 09:00;CYQR 270900Z 17011KT 15SM BKN082 OVC300 01/M05 A2981 RMK AC6CI2 SLP118

CYQR;2011-10-27 10:00;CYQR 271000Z 18012KT 15SM BKN100 OVC300 00/M05 A2979 RMK AC6CI2 SLP111

CYQR;2011-10-27 11:00;CYQR 271100Z 19008KT 15SM OVC100 00/M05 A2979 RMK AC8 SLP109

CYQR;2011-10-27 12:00;CYQR 271200Z 18007KT 15SM SCT082 00/M05 A2978 RMK AC4 SLP111

CYQR;2011-10-27 13:00;CYQR 271300Z 25007KT 15SM BKN047 OVC079 03/M01 A2976 RMK SC5AC3 SLP106

CYQR;2011-10-27 14:00;CYQR 271400Z 28011KT 15SM BKN040 BKN280 04/M01 A2978 RMK SC6CI1 SLP111

CYQR;2011-10-27 15:00;CYQR 271500Z 29013KT 15SM BKN047 BKN090 BKN280 04/M01 A2980 RMK SC5AC1CI1 CU ASOCTD SLP117

CYQR;2011-10-27 16:00;CYQR 271600Z 31020KT 15SM FEW023 FEW090 BKN280 06/01 A2982 RMK SC2AC1CI1 CU ASOCTD SLP124

CYQR;2011-10-27 17:00;CYQR 271700Z 30019G25KT 15SM FEW024 FEW090 BKN280 07/01 A2984 RMK SC1AC1CI1 CU ASOCTD SLP128

CYQR;2011-10-27 18:00;CYQR 271800Z 31025G30KT 15SM FEW040 FEW100 FEW280 08/M02 A2985 RMK CU1AC1CI1 SLP131

CYQR;2011-10-27 19:00;CYQR 271900Z 31024G33KT 15SM FEW052 FEW100 09/M04 A2985 RMK CU1AC1 SLP131

CYQR;2011-10-27 20:00;CYQR 272000Z 30021G30KT 15SM FEW055 10/M05 A2985 RMK CU1 SLP131

CYQR;2011-10-27 21:00;CYQR 272100Z 31023G30KT 15SM FEW060 09/M06 A2986 RMK CU2 SLP133

CYQR;2011-10-27 22:00;CYQR 272200Z 32024G31KT 15SM BKN062 08/M06 A2988 RMK CU5 VIRGA S SLP140

CYQR;2011-10-27 23:00;CYQR 272300Z 32018KT 15SM FEW055 07/M06 A2990 RMK SC1 CU ASOCTD VIRGA S SLP145

CYQR;2011-10-28 00:00;CYQR 280000Z 30011KT 15SM FEW048 04/M07 A2992 RMK SC1 SLP157

CYQR;2011-10-28 01:00;CYQR 280100Z 30010KT 15SM FEW040 03/M07 A2994 RMK SC1 SLP163

CYQR;2011-10-28 02:00;CYQR 280200Z 29007KT 15SM FEW070 M01/M08 A2996 RMK AC2 SLP168

CYQR;2011-10-28 03:00;CYQR 280300Z 28009KT 15SM FEW100 M03/M09 A2996 RMK AC2 SLP174

CYQR;2011-10-28 04:00;CYQR 280400Z 28010KT 15SM FEW100 M03/M09 A2998 RMK AC2 SLP179

CYQR;2011-10-28 05:00;CYQR 280500Z 28011KT 15SM SKC M03/M08 A2999 RMK SLP184

CYQR;2011-10-28 06:00;CYQR 280600Z 28011KT 15SM SKC M03/M08 A3000 RMK SLP186

CYQR;2011-10-28 07:00;CYQR 280700Z 28012KT 15SM SKC M03/M08 A3002 RMK SLP191

CYQR;2011-10-28 08:00;CYQR 280800Z 29012KT 15SM SKC M03/M08 A3003 RMK SLP195

CYQR;2011-10-28 09:00;CYQR 280900Z 28010KT 15SM SKC M03/M08 A3004 RMK SLP198

CYQR;2011-10-28 10:00;CYQR 281000Z 28011KT 15SM SKC M03/M08 A3005 RMK SLP200

CYQR;2011-10-28 11:00;CYQR 281100Z 31006KT 15SM SKC M06/M10 A3006 RMK SLP205

CYQR;2011-10-28 12:00;CYQR 281200Z 30004KT 15SM SKC M05/M09 A3007 RMK SLP214

CYQR;2011-10-28 13:00;CYQR 281300Z 27005KT 15SM SKC M07/M11 A3007 RMK SLP213

CYQR;2011-10-28 14:00;CYQR 281400Z 28007KT 15SM SKC M06/M10 A3008 RMK SLP216

CYQR;2011-10-28 15:00;CYQR 281500Z 28003KT 15SM FEW250 M04/M08 A3009 RMK CI1 SLP222

CYQR;2011-10-28 16:00;CYQR 281600Z 29003KT 15SM FEW280 00/M07 A3008 RMK CI1 SLP221

CYQR;2011-10-28 17:00;CYQR 281700Z 24004KT 15SM FEW280 03/M05 A3007 RMK CI0 SLP218

CYQR;2011-10-28 18:00;CYQR 281800Z 25006KT 15SM BKN280 06/M04 A3007 RMK CI2 CONTRAILS SLP208

CYQR;2011-10-28 19:00;CYQR 281900Z 26005KT 15SM BKN280 08/M05 A3004 RMK CI3 CONTRAILS SLP199

CYQR;2011-10-28 20:00;CYQR 282000Z 26007KT 15SM BKN280 09/M05 A3002 RMK CI2 SLP192

CYQR;2011-10-28 21:00;CYQR 282100Z 21004KT 15SM FEW100 OVC280 09/M06 A3000 RMK AC1CI5 SLP182

CYQR;2011-10-28 22:00;CYQR 282200Z 20009KT 15SM FEW100 OVC280 09/M07 A2998 RMK AC1CI4 CONTRAILS SLP176

CYQR;2011-10-28 23:00;CYQR 282300Z 16006KT 15SM BKN081 OVC280 07/M06 A2995 RMK AC5CI2 SLP168

CYQR;2011-10-29 00:00;CYQR 290000Z 15008KT 15SM SCT081 BKN280 06/M07 A2993 RMK AC3CI3 SLP163

CYQR;2011-10-29 01:00;CYQR 290100Z 16010KT 15SM SCT080 BKN280 04/M07 A2991 RMK AC3CI2 SLP158

CYQR;2011-10-29 02:00;CYQR 290200Z 16012KT 15SM BKN280 02/M07 A2989 RMK CI2 SLP149

CYQR;2011-10-29 03:00;CYQR 290300Z 15011KT 15SM BKN260 02/M06 A2984 RMK CI3 SLP135

CYQR;2011-10-29 04:00;CYQR 290400Z 16010KT 15SM SCT260 01/M06 A2981 RMK CI2 OBS TAKEN -07 SLP126

CYQR;2011-10-29 05:00;CYQR 290500Z 16012KT 15SM SCT130 BKN210 01/M06 A2977 RMK AC3CI2 SLP111

CYQR;2011-10-29 06:00;CYQR 290600Z 15014KT 15SM BKN130 OVC210 02/M06 A2973 RMK AC3CI4 SLP090

CYQR;2011-10-29 07:00;CYQR 290700Z 15014KT 15SM FEW130 OVC210 02/M06 A2969 RMK AC2CI5 SLP077

CYQR;2011-10-29 08:00;CYQR 290800Z 15014KT 15SM OVC210 02/M06 A2966 RMK CI8 SLP067

CYQR;2011-10-29 09:00;CYQR 290900Z 15016KT 15SM OVC210 02/M05 A2962 RMK CI8 SLP050

CYQR;2011-10-29 10:00;CYQR 291000Z 16014KT 15SM BKN100 OVC210 02/M05 A2960 RMK AC5CI3 SLP042

CYQR;2011-10-29 11:00;CYQR 291100Z 16013KT 15SM BKN067 OVC085 02/M05 A2957 RMK AC6AC2 SLP035

CYQR;2011-10-29 12:00;CYQR 291200Z 15010KT 15SM OVC069 03/M05 A2956 RMK AC8 SLP029

CYQR;2011-10-29 13:00;CYQR 291300Z 15010KT 15SM OVC050 03/M05 A2955 RMK SC8 SLP026

CYQR;2011-10-29 14:00;CYQR 291400Z 15010KT 15SM -SHRA OVC033 03/M04 A2953 RMK SC8 SLP022

CYQR;2011-10-29 14:27;CYQR 291427Z 16011KT 15SM BKN033 OVC085 04/ RMK SC7AC1

CYQR;2011-10-29 15:00;CYQR 291500Z 17008KT 15SM BKN048 OVC085 05/M01 A2952 RMK SC7AC1 SLP019

CYQR;2011-10-29 16:00;CYQR 291600Z 23011KT 15SM BKN043 OVC085 08/01 A2952 RMK SC6AC2 SLP019

CYQR;2011-10-29 17:00;CYQR 291700Z 26018KT 15SM BKN045 OVC085 09/M01 A2953 RMK SC6AC2 VIRGA SLP022

CYQR;2011-10-29 18:00;CYQR 291800Z 28021G27KT 15SM BKN049 OVC090 07/M03 A2956 RMK SC6AC2 SLP032

CYQR;2011-10-29 19:00;CYQR 291900Z 30025G33KT 15SM SCT065 BKN090 BKN260 06/M03 A2958 RMK SC4AC2CI0 SLP037

CYQR;2011-10-29 20:00;CYQR 292000Z 31025G31KT 15SM FEW032 SCT043 BKN078 BKN260 07/M01 A2961 RMK CF2SC2AC2CI0 SLP045

CYQR;2011-10-29 21:00;CYQR 292100Z 32022G31KT 15SM FEW027 BKN046 BKN260 06/M01 A2965 RMK CF1SC6CI1 SLP062

CYQR;2011-10-29 22:00;CYQR 292200Z 32024G31KT 15SM BKN029 06/M01 A2970 RMK SC7 SLP077

CYQR;2011-10-29 23:00;CYQR 292300Z 31022G31KT 15SM SCT029 BKN071 BKN260 05/M01 A2973 RMK SC4AC1CI0 SLP088

CYQR;2011-10-30 00:00;CYQR 300000Z 32015KT 15SM FEW045 FEW089 04/M01 A2976 RMK SC2AC1 SLP102

CYQR;2011-10-30 01:00;CYQR 300100Z 32011KT 15SM FEW045 FEW090 02/M02 A2979 RMK SC2AC1 SLP110

CYQR;2011-10-30 02:00;CYQR 300200Z 29008KT 15SM FEW090 SCT300 M03/M06 A2981 RMK AC2CI0 SLP115

CYQR;2011-10-30 03:00;CYQR 300300Z 30010KT 15SM FEW100 M03/M06 A2981 RMK AC1 SLP122

CYQR;2011-10-30 04:00;CYQR 300400Z 28009KT 15SM FEW100 M02/M06 A2982 RMK AC1 SLP125

CYQR;2011-10-30 05:00;CYQR 300500Z 30009KT 15SM FEW100 M01/M05 A2983 RMK AC1 SLP128

CYQR;2011-10-30 06:00;CYQR 300600Z 31011KT 15SM FEW100 M01/M05 A2984 RMK AC1 SLP129

CYQR;2011-10-30 07:00;CYQR 300700Z 30010KT 15SM FEW100 M03/M06 A2987 RMK AC1 SLP138

CYQR;2011-10-30 08:00;CYQR 300800Z 32008KT 15SM FEW100 M04/M07 A2988 RMK AC1 SLP140

CYQR;2011-10-30 09:00;CYQR 300900Z 28010KT 15SM SKC M04/M07 A2990 RMK SLP151

CYQR;2011-10-30 10:00;CYQR 301000Z 28006KT 15SM SKC M06/M09 A2992 RMK SLP158

CYQR;2011-10-30 11:00;CYQR 301100Z 26007KT 15SM SKC M07/M09 A2993 RMK SLP163

CYQR;2011-10-30 12:00;CYQR 301200Z 29008KT 15SM SKC M05/M07 A2994 RMK SLP168

CYQR;2011-10-30 13:00;CYQR 301300Z 29011KT 15SM FEW260 M04/M07 A2995 RMK CI0 SLP172

CYQR;2011-10-30 14:00;CYQR 301400Z 30004KT 15SM SCT260 M06/M09 A2996 RMK CI1 SLP176

CYQR;2011-10-30 15:00;CYQR 301500Z 28006KT 15SM SCT260 M03/M06 A2996 RMK CI1 SLP180

CYQR;2011-10-30 16:00;CYQR 301600Z 31008KT 15SM FEW260 01/M03 A2997 RMK CI1 SLP182

CYQR;2011-10-30 17:00;CYQR 301700Z 30005KT 15SM SCT260 03/M02 A2995 RMK CI1 SLP176

CYQR;2011-10-30 18:00;CYQR 301800Z 27009KT 15SM SCT260 07/M01 A2995 RMK CI1 SLP167

CYQR;2011-10-30 19:00;CYQR 301900Z 29012KT 15SM BKN260 08/M02 A2994 RMK CI6 SLP162

CYQR;2011-10-30 20:00;CYQR 302000Z 28011KT 15SM SCT100 BKN260 08/M03 A2991 RMK AC3CI4 SLP154

CYQR;2011-10-30 21:00;CYQR 302100Z 25008KT 15SM BKN050 OVC090 09/M03 A2989 RMK SC6AC2 SLP148

CYQR;2011-10-30 22:00;CYQR 302200Z 21006KT 15SM SCT060 BKN100 BKN250 08/M04 A2986 RMK SC3AC1CI3 SLP137

CYQR;2011-10-30 23:00;CYQR 302300Z 15005KT 15SM FEW080 BKN100 BKN250 07/M04 A2984 RMK AC2AC3CI2 SLP132

CYQR;2011-10-31 00:00;CYQR 310000Z 16007KT 15SM BKN100 BKN250 06/M04 A2983 RMK AC5CI2 SLP128

CYQR;2011-10-31 01:00;CYQR 310100Z 15010KT 15SM FEW100 BKN250 05/M05 A2981 RMK AC2CI2 SLP122

CYQR;2011-10-31 02:00;CYQR 310200Z 16014KT 15SM FEW100 SCT300 04/M05 A2978 RMK AC1CI0 SLP111

CYQR;2011-10-31 03:00;CYQR 310300Z 16014KT 15SM FEW100 SCT300 03/M05 A2975 RMK AC1CI0 SLP102

CYQR;2011-10-31 04:00;CYQR 310400Z 15011KT 15SM FEW100 SCT300 03/M04 A2972 RMK AC1CI0 SLP093

CYQR;2011-10-31 04:23;CYQR 310423Z 14011KT 15SM FEW100 SCT300 02/ RMK AC1CI0

CYQR;2011-10-31 05:00;CYQR 310500Z 14011KT 15SM FEW100 SCT300 02/M05 A2969 RMK AC1CI0 SLP084

CYQR;2011-10-31 06:00;CYQR 310600Z 15012KT 15SM FEW100 SCT300 02/M04 A2967 RMK AC1CI0 SLP068

CYQR;2011-10-31 07:00;CYQR 310700Z 15009KT 15SM FEW100 BKN300 01/M04 A2965 RMK AC1CI0 SLP061

CYQR;2011-10-31 08:00;CYQR 310800Z 14007KT 15SM FEW300 00/M05 A2963 RMK CI0 SLP055

CYQR;2011-10-31 09:00;CYQR 310900Z 19004KT 15SM SCT300 03/M03 A2961 RMK CI0 SLP045

CYQR;2011-10-31 10:00;CYQR 311000Z 15005KT 15SM SCT300 M02/M06 A2960 RMK CI0 SLP043

CYQR;2011-10-31 11:00;CYQR 311100Z 14003KT 15SM FEW100 BKN300 M02/M06 A2960 RMK AC2CI0 SLP042

CYQR;2011-10-31 12:00;CYQR 311200Z 27002KT 15SM FEW100 BKN300 M02/M05 A2961 RMK AC2CI0 SLP049

CYQR;2011-10-31 13:00;CYQR 311300Z 31004KT 15SM FEW060 BKN090 BKN300 M01/M04 A2960 RMK SC1AC2CI1 SLP046

CYQR;2011-10-31 14:00;CYQR 311400Z 30006KT 15SM FEW060 BKN090 BKN300 00/M02 A2961 RMK SC2AC2CI2 SLP049

CYQR;2011-10-31 15:00;CYQR 311500Z 32005KT 15SM FEW077 SCT300 02/M01 A2961 RMK AC2CI1 SLP051

CYQR;2011-10-31 16:00;CYQR 311600Z 33011KT 15SM FEW080 FEW120 SCT300 05/M01 A2961 RMK AC1AC2CI2 SLP052

CYQR;2011-10-31 17:00;CYQR 311700Z 33014KT 15SM FEW068 SCT120 BKN300 06/M01 A2963 RMK AC2AC2CI1 SLP057

CYQR;2011-10-31 18:00;CYQR 311800Z 34013KT 15SM BKN066 BKN120 BKN300 08/M01 A2965 RMK AC5AC1CI1 SLP059

CYQR;2011-10-31 19:00;CYQR 311900Z 33012G17KT 15SM FEW070 FEW120 FEW300 10/M01 A2965 RMK AC1AC1CI1 ACC ASOCTD SLP061

CYQR;2011-10-31 20:00;CYQR 312000Z 33014KT 15SM BKN088 BKN120 BKN300 10/M01 A2966 RMK AC5AC1CI1 ACC ASOCTD SLP062

CYQR;2011-10-31 21:00;CYQR 312100Z 33015KT 15SM VCSH FEW026 BKN085 BKN300 09/00 A2968 RMK CU1ACC5CI1 SLP070

CYQR;2011-10-31 22:00;CYQR 312200Z 34013KT 15SM BKN045 BKN075 09/01 A2970 RMK SC6AC1 VIRGA SLP077

CYQR;2011-10-31 23:00;CYQR 312300Z 34012KT 15SM -SHRA BKN026 BKN057 07/01 A2974 RMK SC6SC1 SLP089

CYQR;2011-11-01 01:00;CYQR 010100Z 30009KT 15SM BKN043 04/00 A2980 RMK SC7 SLP117

CYQR;2011-11-01 02:00;CYQR 010200Z 28008KT 15SM SCT045 BKN080 02/M02 A2982 RMK SC3AC2 SLP123

CYQR;2011-11-01 03:00;CYQR 010300Z 29009KT 15SM FEW050 FEW080 00/M04 A2984 RMK SC1AC2 SLP132

CYQR;2011-11-01 04:00;CYQR 010400Z 28010KT 15SM FEW100 M01/M05 A2986 RMK AC2 SLP137

CYQR;2011-11-01 05:00;CYQR 010500Z 26008KT 15SM FEW080 M02/M05 A2987 RMK AC1 SLP140

CYQR;2011-11-01 06:00;CYQR 010600Z 27009KT 15SM FEW080 M03/M06 A2987 RMK AC1 SLP140

CYQR;2011-11-01 07:00;CYQR 010700Z 27009KT 15SM FEW080 M03/M06 A2988 RMK AC1 SLP144

CYQR;2011-11-01 08:00;CYQR 010800Z 29012KT 15SM FEW100 M01/M04 A2989 RMK AC1 SLP145

CYQR;2011-11-01 09:00;CYQR 010900Z 29013KT 15SM FEW080 M01/M04 A2990 RMK AC1 SLP149

CYQR;2011-11-01 10:00;CYQR 011000Z 29015KT 15SM FEW100 M02/M05 A2991 RMK AC1 SLP150

CYQR;2011-11-01 11:00;CYQR 011100Z 28012KT 15SM FEW100 M03/M05 A2992 RMK AC1 SLP155

CYQR;2011-11-01 12:00;CYQR 011200Z 28007KT 15SM FEW300 M04/M07 A2994 RMK CI0 SLP165

CYQR;2011-11-01 13:00;CYQR 011300Z 30004KT 15SM SKC M05/M08 A2996 RMK SLP173

CYQR;2011-11-01 14:00;CYQR 011400Z 31009KT 15SM FEW100 FEW300 M03/M06 A2998 RMK AC1CI1 SLP178

CYQR;2011-11-01 15:00;CYQR 011500Z 29012KT 15SM FEW100 M01/M05 A3000 RMK AC1 SLP187

CYQR;2011-11-01 16:00;CYQR 011600Z 30014KT 15SM FEW100 01/M03 A3001 RMK AC1 SLP193

CYQR;2011-11-01 17:00;CYQR 011700Z 30016KT 15SM FEW080 FEW100 03/M04 A3004 RMK AC1AC1 ACC ASOCTD SLP200

CYQR;2011-11-01 18:00;CYQR 011800Z 29016KT 15SM FEW080 04/M03 A3006 RMK AC1 ACC ASOCTD SLP208

CYQR;2011-11-01 19:00;CYQR 011900Z 29023KT 15SM FEW080 06/M03 A3006 RMK AC1 SLP208

CYQR;2011-11-01 20:00;CYQR 012000Z 30021G27KT 15SM FEW044 FEW080 06/M04 A3007 RMK CU1AC1 SLP210

CYQR;2011-11-01 21:00;CYQR 012100Z 31024G31KT 15SM FEW044 06/M05 A3008 RMK SC2 OBS TAKEN +11 SLP213

CYQR;2011-11-01 22:00;CYQR 012200Z 31024G35KT 15SM FEW046 05/M06 A3010 RMK SC2 SLP218

CYQR;2011-11-01 23:00;CYQR 012300Z 31020G27KT 15SM FEW046 FEW080 FEW100 04/M07 A3012 RMK CU2AC1AC1 ACC ASOCTD SLP225

CYQR;2011-11-02 00:00;CYQR 020000Z 32012KT 15SM FEW048 SCT089 03/M06 A3015 RMK SC2AC1 SLP239

CYQR;2011-11-02 01:00;CYQR 020100Z 30008KT 15SM FEW050 SCT100 M02/M08 A3017 RMK SC2AC1 SLP246

CYQR;2011-11-02 02:00;CYQR 020200Z 30010KT 15SM FEW050 M02/M08 A3019 RMK SC1 SLP254

CYQR;2011-11-02 03:00;CYQR 020300Z 27007KT 15SM FEW050 M04/M09 A3021 RMK SC1 SLP263

CYQR;2011-11-02 04:00;CYQR 020400Z 28009KT 15SM FEW068 M04/M09 A3022 RMK AC1 SLP266

CYQR;2011-11-02 05:00;CYQR 020500Z 27009KT 15SM FEW070 M06/M10 A3022 RMK AC0 SLP268

CYQR;2011-11-02 06:00;CYQR 020600Z 26009KT 15SM SKC M05/M10 A3023 RMK SLP268

CYQR;2011-11-02 07:00;CYQR 020700Z 27009KT 15SM SKC M06/M10 A3023 RMK SLP269

CYQR;2011-11-02 08:00;CYQR 020800Z 26007KT 15SM SKC M07/M11 A3024 RMK SLP270

CYQR;2011-11-02 09:00;CYQR 020900Z 26008KT 15SM SKC M07/M11 A3024 RMK SLP271

CYQR;2011-11-02 10:00;CYQR 021000Z 27008KT 15SM SKC M07/M11 A3024 RMK SLP271

CYQR;2011-11-02 11:00;CYQR 021100Z 25009KT 15SM SKC M05/M09 A3023 RMK SLP269

CYQR;2011-11-02 12:00;CYQR 021200Z 25007KT 15SM SKC M07/M10 A3024 RMK SLP273

CYQR;2011-11-02 13:00;CYQR 021300Z 25009KT 15SM BKN280 M06/M10 A3023 RMK CI1 SLP270

CYQR;2011-11-02 14:00;CYQR 021400Z 25011KT 15SM SCT200 BKN280 M05/M09 A3023 RMK CI1CI1 SLP270

CYQR;2011-11-02 15:00;CYQR 021500Z 25011KT 15SM BKN280 M03/M07 A3022 RMK CI1 SLP269

CYQR;2011-11-02 16:00;CYQR 021600Z 25013KT 15SM SCT240 00/M06 A3021 RMK CI2 SLP264

CYQR;2011-11-02 17:00;CYQR 021700Z 23015G20KT 15SM FEW250 05/M05 A3018 RMK CI1 SLP255

CYQR;2011-11-02 18:00;CYQR 021800Z 24018G24KT 15SM BKN250 06/M05 A3016 RMK CI0 SLP243

CYQR;2011-11-02 19:00;CYQR 021900Z 23018G26KT 15SM OVC260 08/M06 A3014 RMK CI1 SLP235

CYQR;2011-11-02 20:00;CYQR 022000Z 24023G31KT 15SM OVC260 08/M09 A3011 RMK CI2 SLP226

CYQR;2011-11-02 21:00;CYQR 022100Z 23018G29KT 15SM BKN260 08/M08 A3009 RMK CI5 SLP217

CYQR;2011-11-02 22:00;CYQR 022200Z 23016G21KT 15SM OVC260 07/M08 A3008 RMK CI7 CC ASOCTD SLP215

CYQR;2011-11-02 23:00;CYQR 022300Z 22013G18KT 15SM BKN140 BKN260 06/M09 A3005 RMK AC2CI6 SLP206

CYQR;2011-11-03 00:00;CYQR 030000Z 20007KT 15SM SCT140 BKN260 03/M09 A3004 RMK AC2CI5 SLP204

CYQR;2011-11-03 01:00;CYQR 030100Z 19009KT 15SM FEW140 BKN260 00/M10 A3003 RMK AC2CI5 SLP200

CYQR;2011-11-03 02:00;CYQR 030200Z 21008KT 15SM OVC260 00/M09 A3001 RMK CI4 SLP194

CYQR;2011-11-03 03:00;CYQR 030300Z 18009KT 15SM BKN260 M01/M09 A2998 RMK CI5 SLP184

CYQR;2011-11-03 04:00;CYQR 030400Z 19008KT 15SM BKN260 M00/M09 A2997 RMK CI6 SLP180

CYQR;2011-11-03 05:00;CYQR 030500Z 16008KT 15SM FEW100 BKN260 M00/M08 A2995 RMK AC2CI2 SLP174

CYQR;2011-11-03 06:00;CYQR 030600Z 16006KT 15SM FEW100 BKN260 M02/M08 A2994 RMK AC2CI0 SLP163

CYQR;2011-11-03 07:00;CYQR 030700Z 13007KT 15SM SCT100 BKN250 M03/M08 A2993 RMK AC4CI2 SLP161

CYQR;2011-11-03 08:00;CYQR 030800Z 14008KT 15SM FEW100 FEW250 M03/M08 A2991 RMK AC1CI0 SLP154

CYQR;2011-11-03 09:00;CYQR 030900Z 14008KT 15SM OVC081 M02/M08 A2990 RMK AC8 SLP147

CYQR;2011-11-03 10:00;CYQR 031000Z 14009KT 15SM FEW080 M03/M08 A2989 RMK AC1 SLP145

CYQR;2011-11-03 11:00;CYQR 031100Z 13009KT 15SM FEW080 M03/M08 A2987 RMK AC1 SLP139

CYQR;2011-11-03 12:00;CYQR 031200Z 13010KT 15SM SKC M03/M08 A2986 RMK SLP142

CYQR;2011-11-03 13:00;CYQR 031300Z 12008KT 15SM FEW130 M04/M08 A2985 RMK AC0 SLP138

CYQR;2011-11-03 14:00;CYQR 031400Z 13012KT 15SM FEW130 BKN280 M04/M08 A2984 RMK AC0CI2 SLP134

CYQR;2011-11-03 15:00;CYQR 031500Z 14011KT 15SM SCT130 BKN280 M03/M08 A2984 RMK AC3CI2 SLP135

CYQR;2011-11-03 16:00;CYQR 031600Z 13009KT 15SM OVC250 M01/M06 A2983 RMK CI2 SLP132

CYQR;2011-11-03 17:00;CYQR 031700Z 16010KT 15SM FEW130 BKN250 03/M05 A2982 RMK AC1CI2 SLP128

CYQR;2011-11-03 18:00;CYQR 031800Z 15012KT 15SM BKN250 07/M03 A2979 RMK CI1 SLP112

CYQR;2011-11-03 19:00;CYQR 031900Z 16013KT 15SM OVC250 09/M04 A2976 RMK CI1 SLP104

CYQR;2011-11-03 20:00;CYQR 032000Z 16012KT 15SM BKN250 10/M04 A2975 RMK CI6 SLP100

CYQR;2011-11-03 21:00;CYQR 032100Z 17011KT 15SM BKN250 11/M04 A2974 RMK CI6 SLP093

CYQR;2011-11-03 22:00;CYQR 032200Z 18007KT 15SM OVC250 11/M04 A2973 RMK CI2 SLP089

CYQR;2011-11-03 23:00;CYQR 032300Z 19003KT 15SM FEW170 OVC250 07/M05 A2972 RMK AC2CI4 SLP087

CYQR;2011-11-04 00:00;CYQR 040000Z 20004KT 15SM BKN150 OVC250 05/M06 A2972 RMK AC5CI2 SLP090

CYQR;2011-11-04 01:00;CYQR 040100Z 13007KT 15SM SCT150 OVC250 04/M06 A2971 RMK AC3CI3 SLP087

CYQR;2011-11-04 02:00;CYQR 040200Z 15008KT 15SM OVC250 04/M05 A2971 RMK CS6 SLP087

CYQR;2011-11-04 03:00;CYQR 040300Z 15008KT 15SM BKN250 02/M06 A2970 RMK CI2 SLP085

CYQR;2011-11-04 04:00;CYQR 040400Z 14007KT 15SM BKN250 M00/M07 A2969 RMK CI1 SLP082

CYQR;2011-11-04 05:00;CYQR 040500Z 12008KT 15SM SCT250 M02/M08 A2968 RMK CI1 SLP080

CYQR;2011-11-04 06:00;CYQR 040600Z 09004KT 15SM BKN250 M02/M08 A2967 RMK CI1 SLP073

CYQR;2011-11-04 07:00;CYQR 040700Z 11003KT 15SM BKN250 M03/M08 A2966 RMK CI3 SLP069

CYQR;2011-11-04 08:00;CYQR 040800Z 14004KT 15SM FEW250 M05/M10 A2966 RMK CI1 SLP070

CYQR;2011-11-04 09:00;CYQR 040900Z 12004KT 15SM FEW250 M05/M09 A2966 RMK CI1 SLP068

CYQR;2011-11-04 10:00;CYQR 041000Z 09002KT 15SM FEW250 M05/M08 A2966 RMK CI1 SLP068

CYQR;2011-11-04 11:00;CYQR 041100Z 08002KT 15SM FEW250 M06/M09 A2966 RMK CI1 SLP065

CYQR;2011-11-04 12:00;CYQR 041200Z 08003KT 15SM FEW250 M08/M10 A2965 RMK CI0 SLP068

CYQR;2011-11-04 13:00;CYQR 041300Z 32005KT 15SM SCT250 M08/M12 A2966 RMK CI0 SLP072

CYQR;2011-11-04 14:00;CYQR 041400Z 31008KT 15SM BKN230 M08/M11 A2968 RMK CI1 SLP078

CYQR;2011-11-04 15:00;CYQR 041500Z 34006KT 15SM BKN230 M05/M09 A2968 RMK CI2 SLP079

CYQR;2011-11-04 16:00;CYQR 041600Z 35008KT 15SM OVC250 M02/M07 A2967 RMK CI2 SLP076

CYQR;2011-11-04 17:00;CYQR 041700Z 35004KT 15SM OVC220 01/M05 A2967 RMK CI1 OBS TAKEN +13 SLP077

CYQR;2011-11-04 18:00;CYQR 041800Z 35009KT 15SM BKN220 04/M05 A2967 RMK CI1 SLP075

CYQR;2011-11-04 19:00;CYQR 041900Z 35007KT 15SM BKN240 05/M05 A2966 RMK CI1 SLP069

CYQR;2011-11-04 20:00;CYQR 042000Z 36009KT 15SM BKN240 06/M05 A2966 RMK CI1 SLP069

CYQR;2011-11-04 21:00;CYQR 042100Z 35007KT 15SM BKN260 05/M04 A2965 RMK CI0 SLP068

CYQR;2011-11-04 22:00;CYQR 042200Z 03007KT 15SM OVC280 06/M04 A2964 RMK CI0 SLP065

CYQR;2011-11-04 23:00;CYQR 042300Z 36006KT 15SM FEW100 BKN280 03/M04 A2965 RMK AC1CI0 SLP067

CYQR;2011-11-05 00:00;CYQR 050000Z 01008KT 15SM SCT260 01/M05 A2966 RMK CI0 SLP074

CYQR;2011-11-05 01:00;CYQR 050100Z 36007KT 15SM BKN240 M01/M06 A2967 RMK CI2 SLP078

CYQR;2011-11-05 02:00;CYQR 050200Z 03005KT 15SM BKN260 M03/M07 A2966 RMK CI2 SLP077

CYQR;2011-11-05 03:00;CYQR 050300Z 03007KT 15SM OVC260 M03/M07 A2966 RMK CS2 SLP075

CYQR;2011-11-05 04:00;CYQR 050400Z 04006KT 15SM OVC260 M02/M06 A2964 RMK CS4 HALO SLP071

CYQR;2011-11-05 05:00;CYQR 050500Z 01002KT 15SM OVC260 M05/M08 A2964 RMK CS1 HALO SLP071

CYQR;2011-11-05 06:00;CYQR 050600Z 32005KT 15SM FEW260 M06/M09 A2964 RMK CI1 SLP066

CYQR;2011-11-05 07:00;CYQR 050700Z 34008KT 15SM FEW140 BKN260 M06/M09 A2964 RMK AC1CI0 SLP067

CYQR;2011-11-05 08:00;CYQR 050800Z 36005KT 15SM FEW120 BKN260 M06/M09 A2963 RMK AC2CI0 SLP062

CYQR;2011-11-05 09:00;CYQR 050900Z 34004KT 15SM FEW120 SCT260 M07/M09 A2962 RMK AC1CI0 SLP058

CYQR;2011-11-05 10:00;CYQR 051000Z 35006KT 15SM FEW120 M08/M10 A2961 RMK AC1 SLP056

CYQR;2011-11-05 11:00;CYQR 051100Z 33007KT 15SM FEW120 M08/M10 A2961 RMK AC1 SLP056

CYQR;2011-11-05 12:00;CYQR 051200Z 34004KT 15SM FEW120 M08/M11 A2963 RMK AC1 SLP065

CYQR;2011-11-05 13:00;CYQR 051300Z 34007KT 15SM BKN120 BKN250 M07/M10 A2961 RMK AC2CI0 SLP060

CYQR;2011-11-05 14:00;CYQR 051400Z 03005KT 15SM FEW120 BKN250 M08/M10 A2960 RMK AC1CI1 SLP056

CYQR;2011-11-05 15:00;CYQR 051500Z 32006KT 15SM VCFG SCT080 BKN250 M07/M10 A2961 RMK AC0CI2 VIS W 3SM SLP062

CYQR;2011-11-05 16:00;CYQR 051600Z 36004KT 10SM SCT080 OVC250 M05/M07 A2963 RMK AC3CI5 SLP067

CYQR;2011-11-05 17:00;CYQR 051700Z 03007KT 12SM SCT091 OVC250 M02/M05 A2961 RMK AC4CI4 SLP060

CYQR;2011-11-05 18:00;CYQR 051800Z 06010KT 15SM FEW012 OVC240 01/M03 A2959 RMK SC1CI6 SLP051

CYQR;2011-11-05 19:00;CYQR 051900Z 06009KT 15SM FEW012 FEW080 OVC240 02/M03 A2959 RMK SC1AC2CI5 CS ASOCTD SLP050

CYQR;2011-11-05 20:00;CYQR 052000Z 07007KT 15SM SCT013 BKN061 OVC240 01/M03 A2961 RMK SC2SC4CI2 SLP056

CYQR;2011-11-05 21:00;CYQR 052100Z 04009KT 15SM FEW015 SCT060 OVC240 01/M03 A2957 RMK SC2SC2CI5 SLP044

CYQR;2011-11-05 22:00;CYQR 052200Z 03014KT 15SM FEW017 OVC093 00/M05 A2954 RMK SC1AS7 SLP033

CYQR;2011-11-05 23:00;CYQR 052300Z 05010KT 15SM BKN015 OVC095 M00/M04 A2957 RMK SC6AC2 SLP044

CYQR;2011-11-06 00:00;CYQR 060000Z 05012KT 15SM BKN013 OVC031 M01/M05 A2957 RMK SC7SC1 SLP047

CYQR;2011-11-06 01:00;CYQR 060100Z 03007KT 15SM OVC011 M01/M05 A2958 RMK SC8 SLP049

CYQR;2011-11-06 02:00;CYQR 060200Z 01008KT 15SM OVC011 M01/M05 A2957 RMK SC8 SLP048

CYQR;2011-11-06 03:00;CYQR 060300Z 36007KT 15SM -SN OVC011 M01/M04 A2957 RMK SC8 SLP046

CYQR;2011-11-06 04:00;CYQR 060400Z 35009KT 15SM -SN OVC013 M01/M05 A2955 RMK SC8 SLP040

CYQR;2011-11-06 05:00;CYQR 060500Z 35010KT 15SM -SN OVC013 M01/M05 A2954 RMK SC8 SLP036

CYQR;2011-11-06 06:00;CYQR 060600Z 36011KT 8SM -SN OVC013 M01/M04 A2951 RMK SC8 SLP021

CYQR;2011-11-06 06:22;CYQR 060622Z 36012KT 1SM R13/6000FT/U -SN VV004 M02/ RMK SN8

CYQR;2011-11-06 07:00;CYQR 060700Z 36012KT 1SM R13/P6000FT/U -SN VV005 M02/M04 A2951 RMK SN8 SLP020

CYQR;2011-11-06 08:00;CYQR 060800Z 01010KT 1 1/4SM -SN VV005 M02/M04 A2950 RMK SN8 VIS VRB 1-11/2 /S02/ SLP016

CYQR;2011-11-06 09:00;CYQR 060900Z 36013KT 1SM R13/P6000FT/D -SN VV005 M02/M04 A2948 RMK SN8 /S03/ SLP010

CYQR;2011-11-06 10:00;CYQR 061000Z 35013KT 1SM R13/P6000FT/N -SN VV004 M03/M05 A2946 RMK SN8 SLP004

CYQR;2011-11-06 11:00;CYQR 061100Z 35013KT 2 1/2SM -SN OVC006 M03/M05 A2946 RMK SF8 VIS VRB 2-3 SLP003

CYQR;2011-11-06 12:00;CYQR 061200Z 35015KT 5SM -SN BKN006 OVC022 M03/M06 A2945 RMK SF5SC3 /S04/ SLP001

CYQR;2011-11-06 13:00;CYQR 061300Z 35014KT 6SM -SN BKN007 OVC029 M03/M06 A2944 RMK SF6SC2 SLP998

CYQR;2011-11-06 13:50;CYQR 061350Z 35018KT 2 1/2SM -SN BKN008 OVC015 M03/ RMK SF6SC2

CYQR;2011-11-06 14:00;CYQR 061400Z 36015G21KT 3SM -SN BKN009 OVC015 M03/M06 A2945 RMK SF6SC2 SLP000

CYQR;2011-11-06 14:14;CYQR 061414Z 35013G21KT 2SM -SN OVC010 M03/ RMK SC8

CYQR;2011-11-06 14:26;CYQR 061426Z 35015G20KT 2 1/2SM -SN OVC008 M03/ RMK SC8

CYQR;2011-11-06 15:00;CYQR 061500Z 34016KT 2 1/2SM -SN OVC009 M03/M06 A2946 RMK SC8 SLP005

CYQR;2011-11-06 15:06;CYQR 061506Z 34014G19KT 2 1/2SM -SN SCT009 OVC014 M03/ RMK SC4SC4

CYQR;2011-11-06 15:13;CYQR 061513Z 34015KT 3SM -SN BKN007 OVC043 M03/ RMK SC6SC2

CYQR;2011-11-06 15:45;CYQR 061545Z 34017KT 2SM -SN BKN008 OVC040 M03/ RMK SC7SC1

CYQR;2011-11-06 16:00;CYQR 061600Z CCA 34018KT 3SM -SN BKN008 OVC040 M03/M05 A2946 RMK SC6SC2 /S02/ SLP005

CYQR;2011-11-06 17:00;CYQR 061700Z 34020G29KT 3SM -SN BKN011 OVC021 M02/M06 A2946 RMK SC6SC2 SLP007

CYQR;2011-11-06 17:39;CYQR 061739Z 34021G26KT 3SM -SN BKN008 OVC020 M03/ RMK SC6SC2

CYQR;2011-11-06 18:00;CYQR 061800Z 34019G25KT 4SM -SN BKN009 OVC020 M02/M05 A2947 RMK SC6SC2 SLP009

CYQR;2011-11-06 18:30;CYQR 061830Z 34020G28KT 10SM -SN OVC010 M02/ RMK SC8

CYQR;2011-11-06 18:45;CYQR 061845Z 34023G28KT 2 1/2SM R13/4000V5500FT/D -SN OVC009 M02/ RMK SC8

CYQR;2011-11-06 19:00;CYQR 061900Z 34023G28KT 2SM -SN OVC011 M02/M05 A2948 RMK SC8 SLP011

CYQR;2011-11-06 19:25;CYQR 061925Z 34023G29KT 3SM -SN OVC012 M02/ RMK SC8

CYQR;2011-11-06 20:00;CYQR 062000Z 34019G30KT 4SM -SN OVC012 M02/M06 A2950 RMK SC8 SLP018

CYQR;2011-11-06 20:18;CYQR 062018Z 35021G28KT 3SM -SN OVC012 M02/ RMK SC8 VIS VRB 2-4

CYQR;2011-11-06 20:41;CYQR 062041Z 34021G27KT 1SM R13/5500FT/N -SN OVC009 M02/ RMK SC8

CYQR;2011-11-06 20:49;CYQR 062049Z 33020G29KT 1 1/2SM -SN OVC009 M02/ RMK SC8 VIS VRB 1-2

CYQR;2011-11-06 21:00;CYQR 062100Z 33023G28KT 2SM -SN OVC008 M02/M05 A2953 RMK SC8 VIS VRB 11/2 - 21/2 SLP029

CYQR;2011-11-06 22:00;CYQR 062200Z 33024G31KT 2SM -SN OVC010 M02/M05 A2957 RMK SC8 CIG VRB 8-12 VIS VRB 1-3 SLP041

CYQR;2011-11-06 23:00;CYQR 062300Z 33021G26KT 3SM -SN OVC010 M02/M05 A2960 RMK SC8 CIG VRB 8-12 SLP052

CYQR;2011-11-07 00:00;CYQR 070000Z 32021G27KT 5SM -SN OVC010 M02/M05 A2963 RMK SC8 CIG VRB 8-12 /S02/ SLP065

CYQR;2011-11-07 01:00;CYQR 070100Z 33023G28KT 3SM -SN DRSN OVC009 M02/M05 A2966 RMK SC8 CIG VRB 8-10 VIS VRB 2-4 SLP075

CYQR;2011-11-07 02:00;CYQR 070200Z 32020KT 5SM -SN DRSN OVC009 M02/M05 A2970 RMK SC8 CIG VRB 8-10 SLP085

CYQR;2011-11-07 03:00;CYQR 070300Z 32020G25KT 5SM -SN DRSN BKN008 OVC072 M02/M05 A2973 RMK SC6AC2 CIG VRB 6-10 SLP099

CYQR;2011-11-07 04:00;CYQR 070400Z 31017KT 6SM -SN DRSN BKN008 OVC028 M02/M05 A2976 RMK SC6SC2 SLP107

CYQR;2011-11-07 05:00;CYQR 070500Z 30015KT 5SM -SN DRSN SCT008 OVC020 M03/M05 A2978 RMK SC3SC3 SLP115

CYQR;2011-11-07 06:00;CYQR 070600Z 30014KT 12SM SCT024 M03/M06 A2981 RMK SC3 SLP124

CYQR;2011-11-07 07:00;CYQR 070700Z 30012KT 15SM SCT081 M04/M07 A2983 RMK AC2 SLP133

CYQR;2011-11-07 08:00;CYQR 070800Z 29009KT 15SM SCT072 SCT200 M06/M09 A2986 RMK AC2CI1 SLP140

CYQR;2011-11-07 09:00;CYQR 070900Z 28009KT 15SM FEW070 SCT200 M08/M11 A2988 RMK AC1CI1 SLP154

CYQR;2011-11-07 10:00;CYQR 071000Z 29008KT 15SM SCT085 M09/M12 A2990 RMK AC3 SLP160

CYQR;2011-11-07 11:00;CYQR 071100Z 28010KT 15SM SCT085 M09/M12 A2991 RMK AC3 SLP165

CYQR;2011-11-07 12:00;CYQR 071200Z 27008KT 15SM SCT090 M11/M14 A2993 RMK AC4 SLP173

CYQR;2011-11-07 13:00;CYQR 071300Z 26002KT 12SM FEW100 BKN260 M13/M15 A2994 RMK AC1CI1 SLP177

CYQR;2011-11-07 14:00;CYQR 071400Z 26003KT 7SM FEW100 FEW260 M15/M18 A2996 RMK AC1CI1 SLP184

CYQR;2011-11-07 15:00;CYQR 071500Z 29002KT 4SM BR SCT260 M14/M17 A2998 RMK CI1 SLP193

CYQR;2011-11-07 16:00;CYQR 071600Z CCA 23002KT 5SM BR FEW260 M12/M15 A3000 RMK CI1 SLP198

CYQR;2011-11-07 17:00;CYQR 071700Z 28003KT 8SM SCT260 M10/M13 A3000 RMK CI1 BR SLP201

CYQR;2011-11-07 18:00;CYQR 071800Z 25003KT 10SM OVC260 M08/M11 A3002 RMK CI6 SLP201

CYQR;2011-11-07 19:00;CYQR 071900Z 27004KT 10SM OVC260 M06/M10 A3001 RMK CI4 BR SLP200

CYQR;2011-11-07 20:00;CYQR 072000Z 25003KT 12SM BKN260 M04/M09 A3002 RMK CI2 SLP201

CYQR;2011-11-07 21:00;CYQR 072100Z 00000KT 15SM BKN260 M04/M09 A3002 RMK CI2 SLP203

CYQR;2011-11-07 22:00;CYQR 072200Z 20003KT 15SM BKN260 M04/M09 A3002 RMK CI2 SLP203

CYQR;2011-11-07 23:00;CYQR 072300Z 18005KT 15SM BKN260 M06/M09 A3002 RMK CI1 SLP204

CYQR;2011-11-08 00:00;CYQR 080000Z 14006KT 15SM FEW260 M09/M12 A3002 RMK CI1 SLP209

CYQR;2011-11-08 01:00;CYQR 080100Z 14007KT 10SM SKC M08/M11 A3002 RMK BR SLP209

CYQR;2011-11-08 02:00;CYQR 080200Z 14007KT 10SM SKC M09/M12 A3003 RMK BR SLP211

CYQR;2011-11-08 03:00;CYQR 080300Z 15007KT 10SM SKC M09/M12 A3002 RMK BR SLP212

CYQR;2011-11-08 04:00;CYQR 080400Z 15006KT 15SM SKC M11/M14 A3001 RMK SLP210

CYQR;2011-11-08 05:00;CYQR 080500Z 14007KT 15SM SKC M12/M16 A3000 RMK SLP205

CYQR;2011-11-08 06:00;CYQR 080600Z 13006KT 15SM SKC M13/M16 A2998 RMK SLP197

CYQR;2011-11-08 07:00;CYQR 080700Z 14008KT 15SM SKC M12/M15 A2997 RMK SLP193

CYQR;2011-11-08 08:00;CYQR 080800Z 14007KT 15SM SKC M12/M16 A2996 RMK SLP188

CYQR;2011-11-08 09:00;CYQR 080900Z 12008KT 15SM SKC M13/M16 A2995 RMK SLP182

CYQR;2011-11-08 10:00;CYQR 081000Z 12009KT 15SM SKC M13/M17 A2993 RMK SLP176

CYQR;2011-11-08 11:00;CYQR 081100Z 14010KT 15SM FEW250 M12/M15 A2992 RMK CI1 SLP174

CYQR;2011-11-08 12:00;CYQR 081200Z 14008KT 15SM SKC M12/M16 A2992 RMK SLP174

CYQR;2011-11-08 13:00;CYQR 081300Z 13010KT 15SM FEW260 M12/M15 A2991 RMK CI1 FROIN SLP172

CYQR;2011-11-08 14:00;CYQR 081400Z 14008KT 15SM FEW160 BKN260 M12/M15 A2991 RMK AC1CI1 SLP171

CYQR;2011-11-08 15:00;CYQR 081500Z 13008KT 15SM FEW160 OVC260 M11/M14 A2991 RMK AC2CI5 SLP173

CYQR;2011-11-08 16:00;CYQR 081600Z 14005KT 15SM BKN140 OVC260 M08/M12 A2991 RMK AS6CI2 SLP173

CYQR;2011-11-08 17:00;CYQR 081700Z 16004KT 15SM FEW059 OVC140 M06/M09 A2992 RMK SC2AS6 SLP176

CYQR;2011-11-08 18:00;CYQR 081800Z 19004KT 15SM OVC120 M03/M06 A2993 RMK AS8 SLP174

CYQR;2011-11-08 19:00;CYQR 081900Z 26005KT 15SM OVC120 M01/M05 A2993 RMK AS8 SLP174

CYQR;2011-11-08 20:00;CYQR 082000Z 27006KT 15SM BKN140 OVC250 00/M04 A2993 RMK AS7CI1 SLP175

CYQR;2011-11-08 21:00;CYQR 082100Z 29008KT 15SM SCT140 OVC250 01/M04 A2995 RMK AS3CI2 SLP178

CYQR;2011-11-08 22:00;CYQR 082200Z 28010KT 15SM FEW140 BKN250 00/M04 A2997 RMK AS1CI1 SLP185

CYQR;2011-11-08 23:00;CYQR 082300Z 28012KT 15SM FEW082 FEW250 M02/M06 A3000 RMK AC1CI0 SLP194

CYQR;2011-11-09 00:00;CYQR 090000Z 28007KT 15SM FEW250 M05/M09 A3002 RMK CI1 SLP208

CYQR;2011-11-09 01:00;CYQR 090100Z 31007KT 15SM FEW250 M07/M10 A3005 RMK CI1 SLP219

CYQR;2011-11-09 02:00;CYQR 090200Z 31007KT 15SM FEW250 M08/M11 A3008 RMK CI1 SLP226

CYQR;2011-11-09 03:00;CYQR 090300Z 29011KT 15SM SKC M06/M09 A3009 RMK SLP232

CYQR;2011-11-09 04:00;CYQR 090400Z 29011KT 15SM SKC M06/M10 A3010 RMK SLP234

CYQR;2011-11-09 05:00;CYQR 090500Z 28014KT 15SM SKC M06/M10 A3012 RMK SLP240

CYQR;2011-11-09 06:00;CYQR 090600Z 28013KT 15SM SKC M06/M10 A3013 RMK SLP240

CYQR;2011-11-09 07:00;CYQR 090700Z 28014KT 15SM SKC M07/M11 A3015 RMK SLP246

CYQR;2011-11-09 08:00;CYQR 090800Z 28012KT 15SM FEW043 SCT094 OVC250 M08/M11 A3018 RMK SC2AC2CI1 SLP254

CYQR;2011-11-09 09:00;CYQR 090900Z 29008KT 15SM FEW045 FEW094 M10/M13 A3020 RMK SC1AC1 SLP263

CYQR;2011-11-09 10:00;CYQR 091000Z 29009KT 15SM SKC M09/M13 A3022 RMK SLP269

CYQR;2011-11-09 11:00;CYQR 091100Z 28009KT 15SM SCT040 M08/M11 A3023 RMK SC3 SLP274

CYQR;2011-11-09 12:00;CYQR 091200Z 28013KT 15SM SKC M09/M12 A3025 RMK SLP285

CYQR;2011-11-09 13:00;CYQR 091300Z 28009KT 15SM SKC M10/M13 A3027 RMK SLP290

CYQR;2011-11-09 14:00;CYQR 091400Z 28012KT 15SM SKC M09/M12 A3028 RMK SLP293

CYQR;2011-11-09 15:00;CYQR 091500Z 29010KT 15SM SKC M09/M12 A3030 RMK SLP300

CYQR;2011-11-09 16:00;CYQR 091600Z 29013KT 15SM SKC M07/M12 A3030 RMK SLP303

CYQR;2011-11-09 17:00;CYQR 091700Z 29010KT 15SM SKC M05/M10 A3031 RMK SLP304

CYQR;2011-11-09 18:00;CYQR 091800Z 31008KT 15SM SKC M03/M08 A3031 RMK SLP300

CYQR;2011-11-09 19:00;CYQR 091900Z 30011KT 15SM SKC M02/M07 A3030 RMK SLP298

CYQR;2011-11-09 20:00;CYQR 092000Z 31013KT 15SM SKC M01/M07 A3029 RMK SLP295

CYQR;2011-11-09 21:00;CYQR 092100Z 30010KT 15SM SKC M01/M07 A3029 RMK SLP295

CYQR;2011-11-09 22:00;CYQR 092200Z 29006KT 15SM SKC M01/M07 A3029 RMK SLP295

CYQR;2011-11-09 23:00;CYQR 092300Z 29008KT 15SM SKC M04/M08 A3030 RMK SLP297

CYQR;2011-11-10 00:00;CYQR 100000Z 28006KT 15SM SKC M07/M10 A3029 RMK SLP300

CYQR;2011-11-10 01:00;CYQR 100100Z 28005KT 15SM SKC M08/M11 A3029 RMK SLP300

CYQR;2011-11-10 02:00;CYQR 100200Z 27006KT 15SM SKC M10/M12 A3029 RMK SLP298

CYQR;2011-11-10 03:00;CYQR 100300Z 27006KT 15SM SKC M12/M14 A3027 RMK SLP297

CYQR;2011-11-10 04:00;CYQR 100400Z 25004KT 15SM SKC M13/M16 A3026 RMK SLP293

CYQR;2011-11-10 05:00;CYQR 100500Z 25006KT 15SM SKC M14/M17 A3025 RMK SLP288

CYQR;2011-11-10 06:00;CYQR 100600Z 00000KT 15SM SCT220 M15/M18 A3022 RMK CI0 SLP276

CYQR;2011-11-10 07:00;CYQR 100700Z 13002KT 15SM FEW002 SCT130 BKN220 M12/M15 A3021 RMK ST0AC2CI0 SLP273

CYQR;2011-11-10 08:00;CYQR 100800Z 15005KT 15SM OVC130 M12/M15 A3018 RMK AC3 SLP264

CYQR;2011-11-10 09:00;CYQR 100900Z 15006KT 15SM OVC130 M11/M14 A3016 RMK AC5 FROIN SLP253

CYQR;2011-11-10 10:00;CYQR 101000Z 12007KT 15SM OVC130 M09/M12 A3011 RMK AC7 SLP235

CYQR;2011-11-10 11:00;CYQR 101100Z 12010KT 15SM BKN130 M09/M12 A3008 RMK AC5 SLP225

CYQR;2011-11-10 12:00;CYQR 101200Z 13013KT 15SM OVC120 M08/M11 A3004 RMK AC7 SLP211

CYQR;2011-11-10 13:00;CYQR 101300Z 15016KT 15SM OVC110 M05/M10 A2998 RMK AC7 PRESFR SLP193

CYQR;2011-11-10 14:00;CYQR 101400Z 15015KT 15SM BKN120 BKN300 M05/M10 A2994 RMK AC6CI1 SLP180

CYQR;2011-11-10 15:00;CYQR 101500Z 16017G22KT 15SM OVC120 M04/M08 A2990 RMK AC7 SLP165

CYQR;2011-11-10 16:00;CYQR 101600Z 17017KT 15SM SCT080 OVC120 M03/M07 A2986 RMK AC3AC5 SLP151

CYQR;2011-11-10 17:00;CYQR 101700Z 17014G21KT 15SM SCT080 OVC120 M01/M06 A2981 RMK AC2AC6 SLP137

CYQR;2011-11-10 18:00;CYQR 101800Z 18012KT 15SM SCT080 OVC120 M00/M04 A2977 RMK AC3AC5 SLP120

CYQR;2011-11-10 19:00;CYQR 101900Z 17010KT 15SM FEW080 BKN120 OVC300 01/M04 A2973 RMK AC2AC4CI1 SLP105

CYQR;2011-11-10 20:00;CYQR 102000Z 18008KT 15SM FEW080 BKN120 BKN300 02/M03 A2968 RMK AC2AC2CI2 SLP091

CYQR;2011-11-10 21:00;CYQR 102100Z 17008KT 15SM FEW080 FEW120 OVC300 02/M03 A2965 RMK AC2AC1CI2 SLP073

CYQR;2011-11-10 22:00;CYQR 102200Z 16007KT 15SM FEW080 SCT120 OVC300 01/M03 A2963 RMK AC2AC2CI1 SLP066

CYQR;2011-11-10 23:00;CYQR 102300Z 18006KT 15SM BKN097 BKN140 OVC300 01/M03 A2961 RMK AC5AC2CI1 SLP059

CYQR;2011-11-11 00:00;CYQR 110000Z 19009KT 15SM SCT100 BKN140 OVC300 01/M02 A2957 RMK AC3AC3CI1 SLP044

CYQR;2011-11-11 01:00;CYQR 110100Z 22005KT 15SM BKN120 OVC300 01/M03 A2956 RMK AC6CI1 SLP041

CYQR;2011-11-11 02:00;CYQR 110200Z 22004KT 15SM OVC073 01/M03 A2956 RMK AC8 SLP040

CYQR;2011-11-11 03:00;CYQR 110300Z 18008KT 15SM OVC067 01/M03 A2951 RMK AC6 PRESFR SLP022

CYQR;2011-11-11 04:00;CYQR 110400Z 28007KT 15SM SCT072 M00/M03 A2953 RMK AC2 SLP027

CYQR;2011-11-11 05:00;CYQR 110500Z 26007KT 15SM BKN080 M00/M03 A2952 RMK AC3 OBS TAKEN -05 SLP026

CYQR;2011-11-11 06:00;CYQR 110600Z 28008KT 15SM BKN080 M01/M04 A2953 RMK AC6 SLP028

CYQR;2011-11-11 12:00;CYQR 111200Z 00000KT 15SM BKN082 M06/M08 A2954 RMK AC6 SLP034

CYQR;2011-11-11 13:00;CYQR 111300Z 24004KT 15SM BKN080 M05/M07 A2955 RMK AC6 SLP035

CYQR;2011-11-11 14:00;CYQR 111400Z 23008KT 15SM BKN080 BKN300 M04/M07 A2951 RMK AC2CI2 SLP024

CYQR;2011-11-11 15:00;CYQR 111500Z 00000KT 15SM BKN090 BKN300 M04/M06 A2950 RMK AC6CI1 SLP018

CYQR;2011-11-11 16:00;CYQR 111600Z 18007KT 15SM BKN090 OVC300 M02/M05 A2950 RMK AC7CI1 SLP018

CYQR;2011-11-11 17:00;CYQR 111700Z 19004KT 15SM BKN095 OVC300 M01/M04 A2949 RMK AC6CI2 SLP015

CYQR;2011-11-11 18:00;CYQR 111800Z 18003KT 15SM BKN140 OVC280 01/M03 A2947 RMK AC6CI2 SLP005

CYQR;2011-11-11 19:00;CYQR 111900Z 15004KT 15SM BKN140 OVC300 03/M03 A2943 RMK AS6CI2 SLP993

CYQR;2011-11-11 20:00;CYQR 112000Z 15006KT 15SM BKN140 OVC300 01/M03 A2941 RMK AS6CI2 SLP986

CYQR;2011-11-11 21:00;CYQR 112100Z 14007KT 15SM BKN140 OVC300 01/M02 A2939 RMK AC6CI2 SLP979

CYQR;2011-11-11 22:00;CYQR 112200Z 15009KT 15SM FEW048 BKN140 OVC300 01/M02 A2937 RMK SC1AC5CI2 SLP975

CYQR;2011-11-11 23:00;CYQR 112300Z 13008KT 15SM FEW050 BKN140 OVC300 01/M02 A2935 RMK SC1AC5CI2 SLP968

CYQR;2011-11-12 00:00;CYQR 120000Z 14009KT 15SM SCT090 BKN300 01/M02 A2934 RMK AC4CI1 SLP963

CYQR;2011-11-12 01:00;CYQR 120100Z 16008KT 15SM SCT095 OVC260 M00/M03 A2933 RMK AC2CI2 SLP961

CYQR;2011-11-12 02:00;CYQR 120200Z 13005KT 15SM BKN087 OVC260 M02/M05 A2931 RMK AC3CI2 SLP953

CYQR;2011-11-12 03:00;CYQR 120300Z 12008KT 15SM OVC120 M02/M05 A2928 RMK AC7 SLP945

CYQR;2011-11-12 04:00;CYQR 120400Z 13007KT 15SM SCT120 OVC260 M01/M05 A2926 RMK AC3CI1 SLP939

CYQR;2011-11-12 05:00;CYQR 120500Z 13008KT 15SM FEW120 OVC260 M02/M05 A2926 RMK AC1CI2 SLP937

CYQR;2011-11-12 06:00;CYQR 120600Z 13006KT 15SM BKN120 OVC210 M02/M05 A2924 RMK AC4CI3 SLP928

CYQR;2011-11-12 07:00;CYQR 120700Z 13005KT 15SM SCT140 OVC210 M02/M05 A2923 RMK AC2CI5 SLP925

CYQR;2011-11-12 08:00;CYQR 120800Z 19005KT 15SM SCT100 OVC210 M02/M05 A2924 RMK AC2CI2 SLP926

CYQR;2011-11-12 09:00;CYQR 120900Z 20004KT 15SM OVC110 M01/M05 A2922 RMK AC8 SLP921

CYQR;2011-11-12 10:00;CYQR 121000Z 22003KT 15SM OVC094 M01/M05 A2922 RMK AC8 SLP920

CYQR;2011-11-12 11:00;CYQR 121100Z 13006KT 15SM BKN095 M01/M05 A2920 RMK AC6 SLP914

CYQR;2011-11-12 12:00;CYQR 121200Z 13008KT 15SM OVC110 M03/M06 A2919 RMK AC7 SLP911

CYQR;2011-11-12 13:00;CYQR 121300Z 16009KT 15SM OVC120 M01/M05 A2920 RMK AC7 SLP912

CYQR;2011-11-12 14:00;CYQR 121400Z 20008KT 15SM SCT120 OVC300 M02/M07 A2919 RMK AC3CI2 SLP909

CYQR;2011-11-12 15:00;CYQR 121500Z 21008KT 15SM FEW085 BKN210 BKN300 M01/M05 A2919 RMK AC2CI3CI1 SLP912

CYQR;2011-11-12 16:00;CYQR 121600Z 25007KT 15SM SCT085 BKN210 BKN300 00/M04 A2919 RMK AC3CI2CI1 SLP912

CYQR;2011-11-12 17:00;CYQR 121700Z 28013KT 15SM FEW090 BKN210 BKN300 01/M04 A2921 RMK AC2CI2CI1 SLP918

CYQR;2011-11-12 17:36;CYQR 121736Z 28020KT 15SM FEW002 FEW090 BKN210 BKN300 M02/ RMK SF1AC2CI1CI0 LO CLD W

CYQR;2011-11-12 17:40;CYQR 121740Z 28017G22KT 8SM BKN002 BKN090 BKN300 M02/ RMK SF5AC1CI0

CYQR;2011-11-12 18:00;CYQR 121800Z 28016G21KT 6SM BR OVC002 M01/M03 A2922 RMK SF8 SLP923

CYQR;2011-11-12 18:32;CYQR 121832Z 30018KT 6SM BR OVC004 M01/ RMK SF8

CYQR;2011-11-12 19:00;CYQR 121900Z 30018G24KT 10SM OVC004 M02/M04 A2923 RMK SF8 SLP925

CYQR;2011-11-12 20:00;CYQR 122000Z 32023G29KT 10SM OVC005 M01/M03 A2921 RMK SF8 SLP920

CYQR;2011-11-12 21:00;CYQR 122100Z 32023G28KT 10SM OVC007 M00/M03 A2922 RMK SF8 SLP920

CYQR;2011-11-12 21:14;CYQR 122114Z 32019G24KT 1SM R13/P6000FT/D BR OVC002 M01/ RMK FG2SF6

CYQR;2011-11-12 21:44;CYQR 122144Z 31021KT 1SM R13/P6000FT/U -SN DRSN BR OVC002 M02/ RMK FG2SF6

CYQR;2011-11-12 22:00;CYQR 122200Z 32015G21KT 2SM -SN DRSN BR OVC002 M02/M03 A2925 RMK SF8 SLP930

CYQR;2011-11-12 22:21;CYQR 122221Z 32014G19KT 4SM BR OVC002 M02/ RMK SF8

CYQR;2011-11-12 23:00;CYQR 122300Z 32015KT 6SM BR OVC003 M02/M04 A2926 RMK SF8 SLP935

CYQR;2011-11-12 23:18;CYQR 122318Z 31017KT 6SM BR OVC004 M02/ RMK SF8

CYQR;2011-11-12 23:23;CYQR 122323Z 31016KT 8SM OVC005 M02/ RMK SF8

CYQR;2011-11-13 00:00;CYQR 130000Z 31017KT 10SM OVC006 M02/M04 A2928 RMK SF8 SLP944

CYQR;2011-11-13 00:12;CYQR 130012Z 31014G20KT 10SM -SN OVC006 M02/ RMK SF8

CYQR;2011-11-13 01:00;CYQR 130100Z 33016KT 15SM OVC008 M02/M05 A2927 RMK SF8 SLP942

CYQR;2011-11-13 02:00;CYQR 130200Z 33014KT 15SM OVC008 M03/M05 A2926 RMK SF8 SLP938

CYQR;2011-11-13 03:00;CYQR 130300Z 32007KT 15SM OVC009 M03/M06 A2926 RMK SC8 SLP934

CYQR;2011-11-13 04:00;CYQR 130400Z 31008KT 15SM OVC010 M03/M06 A2925 RMK SC8 SLP932

CYQR;2011-11-13 04:10;CYQR 130410Z 30008KT 15SM OVC009 M03/ RMK SC8

CYQR;2011-11-13 04:28;CYQR 130428Z 30005KT 12SM -SN OVC008 M03/ RMK SC8

CYQR;2011-11-13 05:00;CYQR 130500Z 30005KT 15SM OVC010 M03/M06 A2924 RMK SC8 SLP930

CYQR;2011-11-13 06:00;CYQR 130600Z 32004KT 15SM OVC012 M03/M06 A2922 RMK SC8 SLP922

CYQR;2011-11-13 07:00;CYQR 130700Z 00000KT 15SM OVC012 M04/M06 A2920 RMK SC8 SLP917

CYQR;2011-11-13 08:00;CYQR 130800Z 21004KT 15SM OVC010 M04/M06 A2920 RMK SC8 SLP915

CYQR;2011-11-13 09:00;CYQR 130900Z 17005KT 15SM OVC009 M04/M06 A2918 RMK SC8 SLP909

CYQR;2011-11-13 10:00;CYQR 131000Z 14006KT 15SM OVC007 M03/M06 A2916 RMK SC8 SLP902

CYQR;2011-11-13 11:00;CYQR 131100Z 13009KT 15SM OVC006 M03/M06 A2913 RMK SF8 SLP893

CYQR;2011-11-13 11:11;CYQR 131111Z 14008KT 15SM OVC005 M03/ RMK SF8

CYQR;2011-11-13 12:00;CYQR 131200Z 13009KT 15SM OVC004 M03/M05 A2911 RMK SF8 SLP887

CYQR;2011-11-13 12:48;CYQR 131248Z 12003KT 15SM BKN006 OVC047 M03/ RMK SF7SC1

CYQR;2011-11-13 13:00;CYQR 131300Z 13008KT 15SM SCT006 OVC055 M03/M06 A2910 RMK SF4SC4 SLP883

CYQR;2011-11-13 14:00;CYQR 131400Z 13010KT 15SM BKN049 BKN100 M03/M06 A2908 RMK SC6AC2 SLP877

CYQR;2011-11-13 15:00;CYQR 131500Z 13008KT 15SM SCT040 BKN090 BKN300 M04/M06 A2908 RMK SC3AC2CI1 SLP875

CYQR;2011-11-13 16:00;CYQR 131600Z 15006KT 15SM FEW050 SCT090 BKN300 M02/M05 A2907 RMK SC2AC2CI2 SLP874

CYQR;2011-11-13 17:00;CYQR 131700Z 25007KT 15SM FEW055 SCT095 BKN300 M00/M04 A2908 RMK SC2AC2CI2 SLP877

CYQR;2011-11-13 18:00;CYQR 131800Z 28007KT 15SM FEW055 FEW095 BKN300 01/M04 A2909 RMK SC1AC2CI1 SLP877

CYQR;2011-11-13 19:00;CYQR 131900Z 27009KT 15SM SCT060 SCT100 BKN300 02/M03 A2908 RMK SC2AC2CI1 CU ASOCTD SLP874

CYQR;2011-11-13 20:00;CYQR 132000Z 28012KT 15SM BKN069 BKN100 BKN300 01/M03 A2909 RMK AC6AC1CI1 VIRGA SLP876

CYQR;2011-11-13 21:00;CYQR 132100Z 30013KT 15SM BKN080 OVC300 01/M03 A2911 RMK AC7CI1 SLP884

CYQR;2011-11-13 22:00;CYQR 132200Z 31010KT 15SM BKN030 OVC090 01/M03 A2913 RMK SC6AC2 SLP889

CYQR;2011-11-13 23:00;CYQR 132300Z 29009KT 15SM BKN050 BKN100 BKN300 00/M03 A2915 RMK SC5AC1CI0 SLP896

CYQR;2011-11-14 00:00;CYQR 140000Z 31003KT 15SM FEW050 FEW100 BKN300 M03/M05 A2916 RMK SC1AC1CI1 SLP905

CYQR;2011-11-14 01:00;CYQR 140100Z 24007KT 15SM FEW100 FEW300 M05/M08 A2918 RMK AC1CI1 SLP910

CYQR;2011-11-14 02:00;CYQR 140200Z 22007KT 15SM FEW300 M05/M08 A2920 RMK CI1 SLP915

CYQR;2011-11-14 03:00;CYQR 140300Z 23005KT 15SM FEW066 SCT300 M05/M08 A2920 RMK AC2CI0 SLP918

CYQR;2011-11-14 04:00;CYQR 140400Z 28007KT 15SM FEW070 FEW300 M07/M09 A2920 RMK AC1CI0 SLP920

CYQR;2011-11-14 05:00;CYQR 140500Z 26008KT 15SM FEW070 BKN300 M05/M08 A2921 RMK AC1CI2 SLP922

CYQR;2011-11-14 06:00;CYQR 140600Z 26010KT 15SM FEW070 BKN300 M05/M08 A2921 RMK AC1CI2 SLP919

CYQR;2011-11-14 07:00;CYQR 140700Z 27009KT 15SM FEW080 FEW300 M05/M08 A2921 RMK AC1CI0 SLP920

CYQR;2011-11-14 08:00;CYQR 140800Z 26011KT 15SM SCT300 M05/M09 A2922 RMK CI1 SLP921

CYQR;2011-11-14 09:00;CYQR 140900Z 26010KT 15SM FEW050 BKN081 OVC300 M04/M08 A2922 RMK SC2AC2CI2 SLP920

CYQR;2011-11-14 10:00;CYQR 141000Z 27009KT 15SM FEW062 BKN140 OVC300 M04/M07 A2922 RMK SC1AC4CI2 SLP921

CYQR;2011-11-14 11:00;CYQR 141100Z 27009KT 15SM FEW140 BKN300 M04/M08 A2923 RMK AC1CI2 SLP923

CYQR;2011-11-14 12:00;CYQR 141200Z 27008KT 15SM FEW140 BKN300 M04/M08 A2923 RMK AC1CI2 SLP929

CYQR;2011-11-14 13:00;CYQR 141300Z 25008KT 15SM FEW140 BKN300 M06/M10 A2923 RMK AC1CI3 SLP927

CYQR;2011-11-14 14:00;CYQR 141400Z 27009KT 15SM FEW140 BKN300 M07/M11 A2923 RMK AC1CI2 SLP929

CYQR;2011-11-14 15:00;CYQR 141500Z 27012KT 15SM FEW140 SCT300 M07/M11 A2925 RMK AC1CI1 SLP937

CYQR;2011-11-14 16:00;CYQR 141600Z 28012KT 15SM FEW030 FEW140 BKN300 M05/M09 A2926 RMK SC1AC1CI2 SC TR SLP942

CYQR;2011-11-14 17:00;CYQR 141700Z 28016KT 15SM BKN021 BKN120 BKN300 M03/M07 A2927 RMK SC4AC1CI1 SLP945

CYQR;2011-11-14 18:00;CYQR 141800Z 29016KT 15SM BKN023 BKN100 M02/M06 A2928 RMK SC6AC2 SLP945

CYQR;2011-11-14 18:25;CYQR 141825Z 29013KT 5SM -SN BKN025 OVC090 M02/ RMK SC7AC1

CYQR;2011-11-14 18:42;CYQR 141842Z 30015KT 2SM -SHSN BKN025 OVC095 M02/ RMK SN2SC5AC2 VIS VRB 1-3

CYQR;2011-11-14 19:00;CYQR 141900Z 30012KT 3SM -SHSN BKN025 BKN095 M02/M05 A2929 RMK SN1SC5AC2 VIS SW-NW 10 SLP949

CYQR;2011-11-14 19:15;CYQR 141915Z 29011KT 12SM -SHSN FEW007 BKN041 BKN095 BKN300 M01/ RMK SF1SC2AC1CI0 VIS N 4

CYQR;2011-11-14 20:00;CYQR 142000Z 29010KT 15SM FEW014 SCT045 SCT095 BKN300 M00/M05 A2930 RMK CF1SC3AC1CI0 SLP951

CYQR;2011-11-14 21:00;CYQR 142100Z 28011KT 15SM FEW015 FEW050 FEW100 00/M04 A2930 RMK CF1SC1AC1 SLP949

CYQR;2011-11-14 22:00;CYQR 142200Z 26007KT 15SM FEW050 FEW100 00/M05 A2932 RMK SC1AC1 SLP955

CYQR;2011-11-14 23:00;CYQR 142300Z 26007KT 15SM FEW050 FEW100 M02/M06 A2933 RMK SC1AC1 SLP960

CYQR;2011-11-15 00:00;CYQR 150000Z 28008KT 15SM FEW050 FEW100 M05/M09 A2936 RMK SC1AC1 SLP975

CYQR;2011-11-15 01:00;CYQR 150100Z 30008KT 15SM FEW050 FEW090 M07/M11 A2937 RMK SC1AC1 SLP979

CYQR;2011-11-15 02:00;CYQR 150200Z 27008KT 15SM FEW050 M09/M12 A2939 RMK SC1 SLP985

CYQR;2011-11-15 03:00;CYQR 150300Z 29007KT 15SM FEW041 M09/M12 A2939 RMK SC2 SLP989

CYQR;2011-11-15 04:00;CYQR 150400Z 28004KT 15SM FEW041 BKN086 M09/M12 A2940 RMK SC2AC4 SLP993

CYQR;2011-11-15 05:00;CYQR 150500Z 28006KT 15SM BKN052 OVC086 M08/M11 A2941 RMK SC6AC2 SLP996

CYQR;2011-11-15 06:00;CYQR 150600Z 28006KT 15SM SCT029 OVC073 M06/M09 A2941 RMK SC4AC4 SLP992

CYQR;2011-11-15 07:00;CYQR 150700Z 30011KT 15SM SCT027 OVC061 M04/M07 A2944 RMK SC3SC5 SLP999

CYQR;2011-11-15 07:20;CYQR 150720Z 31012KT 15SM -SN SCT027 OVC061 M04/ RMK SC4SC4

CYQR;2011-11-15 07:39;CYQR 150739Z 32015KT 15SM -SN BKN010 OVC020 M03/ RMK SC5SC3

CYQR;2011-11-15 08:00;CYQR 150800Z 33011KT 15SM -SN BKN009 OVC024 M03/M06 A2946 RMK SC5SC3 SLP006

CYQR;2011-11-15 08:39;CYQR 150839Z 31013KT 15SM -SN FEW009 BKN015 OVC060 M03/ RMK SC2SC5SC1

CYQR;2011-11-15 09:00;CYQR 150900Z 32018KT 15SM -SN FEW009 BKN023 OVC056 M04/M08 A2949 RMK SC2SC5SC2 SLP014

CYQR;2011-11-15 10:00;CYQR 151000Z 32019G25KT 15SM -SN FEW009 OVC021 M04/M09 A2951 RMK SC2SC6 SLP021

CYQR;2011-11-15 11:00;CYQR 151100Z 32019KT 15SM -SN FEW009 OVC027 M05/M10 A2954 RMK SC1SC7 SLP029

CYQR;2011-11-15 12:00;CYQR 151200Z 33018G24KT 15SM -SN FEW009 OVC022 M05/M10 A2957 RMK SC1SC7 SLP047

CYQR;2011-11-15 13:00;CYQR 151300Z 31019KT 12SM -SN FEW009 OVC030 M05/M09 A2959 RMK SC1SC7 SLP053

CYQR;2011-11-15 14:00;CYQR 151400Z 30019KT 15SM SCT021 BKN034 OVC050 M05/M09 A2963 RMK SC3SC4SC1 INTMT -SN SLP065

CYQR;2011-11-15 14:25;CYQR 151425Z 31021KT 12SM -SN DRSN BKN021 OVC045 M05/ RMK SC6SC2 VIS E-SE 5

CYQR;2011-11-15 14:41;CYQR 151441Z 30020G28KT 15SM BKN021 BKN045 M05/ RMK SC6SC2 INTMT -SN

CYQR;2011-11-15 15:00;CYQR 151500Z 30019G27KT 15SM FEW029 BKN045 M05/M10 A2965 RMK SC1SC6 SLP077

CYQR;2011-11-15 16:00;CYQR 151600Z 30023KT 15SM SCT020 OVC048 M05/M10 A2967 RMK SC4SC4 SLP083

CYQR;2011-11-15 17:00;CYQR 151700Z 29021G26KT 15SM FEW020 BKN048 BKN270 M05/M10 A2969 RMK SC1SC6CI0 SLP089

CYQR;2011-11-15 18:00;CYQR 151800Z 31022G27KT 15SM FEW018 SCT048 BKN270 M06/M11 A2970 RMK CF1SC4CI0 SLP094

CYQR;2011-11-15 18:54;CYQR 151854Z 30019G25KT 15SM -SN BKN016 BKN076 M06/ RMK SC6AC1

CYQR;2011-11-15 19:00;CYQR 151900Z 30018G25KT 10SM -SN DRSN BKN016 OVC076 M07/M11 A2971 RMK SC7AC1 SLP098

CYQR;2011-11-15 20:00;CYQR 152000Z 29021KT 10SM -SN DRSN BKN018 OVC076 M07/M11 A2974 RMK SC7AC1 SLP105

CYQR;2011-11-15 21:00;CYQR 152100Z 29020G26KT 15SM -SN DRSN BKN016 OVC076 M07/M12 A2976 RMK SC7AC1 SLP111

CYQR;2011-11-15 22:00;CYQR 152200Z 28019G24KT 15SM -SN BKN022 OVC080 M07/M12 A2978 RMK SC6AC1 SLP120

CYQR;2011-11-15 22:10;CYQR 152210Z 29018KT 15SM BKN022 BKN090 M07/ RMK SC6AC1

CYQR;2011-11-15 22:33;CYQR 152233Z 30015G20KT 15SM -SN BKN028 OVC090 M07/ RMK SC7AC1

CYQR;2011-11-15 23:00;CYQR 152300Z 28011G17KT 12SM -SN BKN025 BKN090 M07/M12 A2980 RMK SC6AC1 SLP124

CYQR;2011-11-16 00:00;CYQR 160000Z 31014KT 15SM -SN BKN025 BKN090 M08/M12 A2981 RMK SC6AC1 SLP131

CYQR;2011-11-16 01:00;CYQR 160100Z 31013KT 6SM -SN OVC015 M08/M12 A2982 RMK SC8 SLP136

CYQR;2011-11-16 02:00;CYQR 160200Z 31018KT 15SM SCT018 M08/M13 A2983 RMK SC4 OBS TAKEN +13 SLP139

CYQR;2011-11-16 02:30;CYQR 160230Z 31018KT 15SM -SN SCT018 M09/ RMK SC4

CYQR;2011-11-16 03:00;CYQR 160300Z 31015KT 15SM -SN SCT022 M09/M13 A2985 RMK SC4 SLP145

CYQR;2011-11-16 04:00;CYQR 160400Z 32013KT 6SM -SN DRSN OVC014 M09/M12 A2987 RMK SC8 SLP152

CYQR;2011-11-16 05:00;CYQR 160500Z 32014G19KT 10SM -SN DRSN BKN017 M10/M13 A2990 RMK SC7 SLP161

CYQR;2011-11-16 06:00;CYQR 160600Z 30013G19KT 15SM -SN DRSN BKN012 M10/M14 A2992 RMK SC6 SLP171

CYQR;2011-11-16 07:00;CYQR 160700Z 31012KT 15SM -SN DRSN OVC018 M10/M14 A2995 RMK SC8 SLP180

CYQR;2011-11-16 08:00;CYQR 160800Z 33016KT 15SM -SN DRSN OVC022 M10/M14 A2995 RMK SC8 SLP182

CYQR;2011-11-16 09:00;CYQR 160900Z 32019G24KT 15SM -SN DRSN OVC018 M10/M14 A2997 RMK SC8 SLP189

CYQR;2011-11-16 10:00;CYQR 161000Z 32019KT 15SM -SN DRSN OVC017 M10/M15 A2999 RMK SC8 SLP196

CYQR;2011-11-16 11:00;CYQR 161100Z 32020G31KT 15SM -SN DRSN OVC017 M11/M15 A3001 RMK SC8 SLP203

CYQR;2011-11-16 12:00;CYQR 161200Z 32016G22KT 15SM -SN DRSN OVC015 M11/M15 A3004 RMK SC8 SLP215

CYQR;2011-11-16 12:45;CYQR 161245Z 31014KT 12SM -SN DRSN BKN013 M12/ RMK SC6

CYQR;2011-11-16 13:00;CYQR 161300Z CCA 31013KT 12SM FEW013 M13/M16 A3005 RMK SC1 IC SLP220

CYQR;2011-11-16 13:22;CYQR 161322Z 31011KT 15SM FEW013 M13/ RMK SC1

CYQR;2011-11-16 14:00;CYQR 161400Z 31012KT 15SM FEW015 M14/M18 A3008 RMK SC1 SLP228

CYQR;2011-11-16 15:00;CYQR 161500Z 30009KT 15SM FEW015 M14/M18 A3010 RMK SC1 SLP241

CYQR;2011-11-16 16:00;CYQR 161600Z 30009KT 15SM FEW012 FEW270 M13/M17 A3012 RMK SC1CI1 SLP245

CYQR;2011-11-16 17:00;CYQR 161700Z 31010KT 15SM FEW012 M12/M16 A3012 RMK SC1 SLP246

CYQR;2011-11-16 18:00;CYQR 161800Z 30010KT 12SM FEW012 M12/M15 A3012 RMK SC1 IC VIS E 6 SLP246

CYQR;2011-11-16 19:00;CYQR 161900Z 27007KT 15SM FEW012 M10/M14 A3012 RMK SC1 SLP246

CYQR;2011-11-16 20:00;CYQR 162000Z 30007KT 15SM FEW012 FEW270 M09/M14 A3011 RMK SC1CI1 SLP243

CYQR;2011-11-16 21:00;CYQR 162100Z 29011KT 15SM FEW012 FEW100 FEW270 M09/M14 A3012 RMK SC1AC1CI1 SLP243

CYQR;2011-11-16 22:00;CYQR 162200Z 29007KT 15SM FEW100 M09/M14 A3013 RMK AC1 SLP245

CYQR;2011-11-16 23:00;CYQR 162300Z 30002KT 15SM FEW100 M10/M15 A3013 RMK AC1 SLP245

CYQR;2011-11-17 00:00;CYQR 170000Z 25002KT 15SM BKN076 BKN270 M13/M16 A3013 RMK AC5CI0 SLP249

CYQR;2011-11-17 01:00;CYQR 170100Z 29003KT 15SM BKN073 BKN270 M13/M16 A3012 RMK AC6CI0 SLP247

CYQR;2011-11-17 02:00;CYQR 170200Z 00000KT 15SM SCT057 BKN079 M12/M15 A3011 RMK SC3AC4 SLP245

CYQR;2011-11-17 03:00;CYQR 170300Z 15004KT 15SM BKN051 BKN077 M12/M15 A3010 RMK SC5AC2 SLP242

CYQR;2011-11-17 04:00;CYQR 170400Z 15004KT 15SM BKN048 OVC075 M11/M14 A3009 RMK SC6AC2 SLP239

CYQR;2011-11-17 05:00;CYQR 170500Z 15005KT 15SM BKN048 OVC075 M11/M14 A3007 RMK SC5AC3 SLP233

CYQR;2011-11-17 06:00;CYQR 170600Z 12006KT 15SM BKN048 M11/M14 A3004 RMK SC7 SLP219

CYQR;2011-11-17 07:00;CYQR 170700Z 14007KT 15SM SCT038 M12/M15 A3003 RMK SC4 SLP215

CYQR;2011-11-17 08:00;CYQR 170800Z 13007KT 15SM FEW047 M13/M16 A3000 RMK SC1 SLP207

CYQR;2011-11-17 09:00;CYQR 170900Z 12009KT 15SM FEW047 M14/M17 A2998 RMK SC1 SLP198

CYQR;2011-11-17 10:00;CYQR 171000Z 13010KT 15SM SKC M13/M16 A2996 RMK SLP191

CYQR;2011-11-17 11:00;CYQR 171100Z 12012KT 15SM SKC M14/M17 A2992 RMK SLP179

CYQR;2011-11-17 12:00;CYQR 171200Z 12013KT 15SM SKC M13/M17 A2990 RMK SLP173

CYQR;2011-11-17 13:00;CYQR 171300Z 13014KT 15SM BKN110 M12/M16 A2987 RMK AC6 SLP163

CYQR;2011-11-17 14:00;CYQR 171400Z 13016G21KT 15SM BKN092 BKN270 M11/M15 A2983 RMK AC6CI2 PRESFR SLP149

CYQR;2011-11-17 15:00;CYQR 171500Z 13021KT 15SM BKN080 OVC270 M10/M14 A2980 RMK AC7CI1 SLP136

CYQR;2011-11-17 16:00;CYQR 171600Z 13021G26KT 15SM OVC078 M10/M14 A2976 RMK AC8 SLP121

CYQR;2011-11-17 17:00;CYQR 171700Z 13018KT 15SM OVC070 M09/M13 A2973 RMK AS8 SLP113

CYQR;2011-11-17 17:22;CYQR 171722Z 14017KT 12SM -SN DRSN FEW021 BKN045 OVC070 M08/ RMK SC2SC4AC2 VIS SW-W 5

CYQR;2011-11-17 17:30;CYQR 171730Z 13015G20KT 1SM R13/P6000FT/N -SN DRSN SCT010 OVC035 M09/ RMK SN2SC2SC4

CYQR;2011-11-17 17:44;CYQR 171744Z 13016KT 2SM -SN DRSN OVC032 M08/ RMK SN2SC6 VIS VRB 1-3

CYQR;2011-11-17 18:00;CYQR 171800Z 13016G22KT 3SM -SN DRSN OVC041 M08/M11 A2969 RMK SC8 SLP094

CYQR;2011-11-17 18:25;CYQR 171825Z 12019G24KT 2SM -SN DRSN OVC040 M08/ RMK SN2SC6 VIS VRB 1-3

CYQR;2011-11-17 19:00;CYQR 171900Z 13017G24KT 2SM -SN DRSN OVC040 M08/M11 A2962 RMK SC8 VIS VRB 1-3 SLP074

CYQR;2011-11-17 20:00;CYQR 172000Z 12021G28KT 1SM R13/P6000FT/D -SN BLSN OVC040 M07/M10 A2956 RMK BLSN2SC6 VIS VRB 1/2-11/2 SLP054

CYQR;2011-11-17 20:42;CYQR 172042Z 12022G31KT 2SM -SN BLSN OVC056 M07/ RMK BLSN1SC7 VIS VRB 1-3

CYQR;2011-11-17 21:00;CYQR 172100Z 12019G28KT 3SM -SN DRSN OVC042 M07/M10 A2953 RMK SC8 SLP042

CYQR;2011-11-17 21:18;CYQR 172118Z 11018G26KT 2SM -SN DRSN OVC014 M07/ RMK SC8

CYQR;2011-11-17 21:26;CYQR 172126Z 12018G26KT 1SM R13/P6000FT/D -SN DRSN VV009 M07/ RMK SN8 VIS VRB 1/2-11/2

CYQR;2011-11-17 21:48;CYQR 172148Z CCA 12020G25KT 1/2SM R13/3000V4500FT/D -SN BLSN VV005 M06/ RMK SN8 VIS VRB 1/4-3/4 /S01/

CYQR;2011-11-17 22:00;CYQR 172200Z 11018G26KT 1/2SM R13/3000FT/N -SN BLSN VV004 M06/M09 A2952 RMK SN8 VIS VRB 1/4-3/4 SLP037

CYQR;2011-11-17 22:20;CYQR 172220Z 12019G26KT 1SM R13/4500VP6000FT/U -SN BLSN SCT004 OVC025 M06/ RMK SN2SF2SC4 VIS VRB 1/2-11/2

CYQR;2011-11-17 22:31;CYQR 172231Z 11019G26KT 2 1/2SM -SN DRSN FEW005 SCT027 OVC040 M06/ RMK SN1SF1SC2SC4

CYQR;2011-11-17 22:44;CYQR 172244Z 12019G27KT 5SM -SN DRSN FEW005 SCT027 OVC039 M06/ RMK SF2SC2SC5

CYQR;2011-11-17 23:00;CYQR 172300Z 12022KT 12SM -SN DRSN FEW027 OVC039 M06/M09 A2951 RMK SC2SC6 VIS W 2 BLSN SLP036

CYQR;2011-11-17 23:23;CYQR 172323Z 12022G28KT 15SM DRSN OVC017 M06/ RMK SC8 /S02/ OCNL BLSN W

CYQR;2011-11-17 23:33;CYQR 172333Z 12022G28KT 15SM -SN DRSN OVC017 M06/ RMK SC8

CYQR;2011-11-18 00:00;CYQR 180000Z 12022G28KT 12SM -SN DRSN OVC017 M06/M09 A2951 RMK SC8 SLP032

CYQR;2011-11-18 00:12;CYQR 180012Z 12021G27KT 12SM -SN DRSN OVC013 M07/ RMK SC8

CYQR;2011-11-18 00:46;CYQR 180046Z 11017G30KT 3/4SM R13/P6000FT/D -SN BLSN VV004 M07/ RMK SN8

CYQR;2011-11-18 01:00;CYQR 180100Z 11019G30KT 3/4SM R13/5500FT/N -SN BLSN VV004 M08/M10 A2949 RMK SN8 SLP027

CYQR;2011-11-18 01:14;CYQR 180114Z 11020G27KT 1SM R13/P6000FT/D -SN BLSN OVC013 M08/ RMK BLSN3SC5 VIS VRB 1/2-11/2

CYQR;2011-11-18 01:39;CYQR 180139Z 11024KT 3SM -SN BLSN OVC013 M08/ RMK BLSN1SC7

CYQR;2011-11-18 02:00;CYQR 180200Z 11022G27KT 5SM -SN BLSN OVC018 M08/M11 A2949 RMK SC8 SLP028

CYQR;2011-11-18 03:00;CYQR 180300Z 10020G25KT 8SM -SN DRSN OVC016 M08/M12 A2950 RMK SC8 SLP028

CYQR;2011-11-18 04:00;CYQR 180400Z 10018G24KT 10SM -SN DRSN OVC016 M08/M12 A2950 RMK SC8 SLP029

CYQR;2011-11-18 05:00;CYQR 180500Z 10019G24KT 10SM -SN DRSN OVC015 M08/M12 A2951 RMK SC8 SLP030

CYQR;2011-11-18 06:00;CYQR 180600Z 10017KT 10SM -SN DRSN OVC014 M08/M12 A2952 RMK SC8 SLP036

CYQR;2011-11-18 07:00;CYQR 180700Z 09016G21KT 10SM -SN DRSN OVC014 M09/M13 A2953 RMK SC8 SLP038

CYQR;2011-11-18 08:00;CYQR 180800Z 08015G21KT 10SM -SN DRSN OVC014 M09/M13 A2955 RMK SC8 SLP044

CYQR;2011-11-18 09:00;CYQR 180900Z 08014G19KT 10SM -SN DRSN OVC014 M09/M13 A2958 RMK SC8 SLP056

CYQR;2011-11-18 09:41;CYQR 180941Z 07013G19KT 8SM -SN DRSN OVC009 M10/ RMK SC8

CYQR;2011-11-18 10:00;CYQR 181000Z 07012G18KT 6SM -SN DRSN OVC008 M10/M13 A2960 RMK SC8 SLP062

CYQR;2011-11-18 11:00;CYQR 181100Z 07016KT 8SM -SN DRSN OVC009 M10/M13 A2962 RMK SC8 SLP067

CYQR;2011-11-18 11:27;CYQR 181127Z 06012KT 3SM -SN DRSN OVC015 M10/ RMK SC8

CYQR;2011-11-18 12:00;CYQR 181200Z 04009G15KT 3SM -SN DRSN OVC016 M10/M14 A2965 RMK SC8 SLP080

CYQR;2011-11-18 12:33;CYQR 181233Z 02011KT 1 1/2SM -SN DRSN OVC014 M11/ RMK SN2SC6

CYQR;2011-11-18 13:00;CYQR 181300Z 03012KT 1 3/4SM -SN OVC012 M11/M15 A2968 RMK SC8 SLP088

CYQR;2011-11-18 13:43;CYQR 181343Z 03013KT 2SM -SN OVC016 M12/ RMK SC8

CYQR;2011-11-18 14:00;CYQR 181400Z 03014KT 3SM -SN OVC016 M12/M15 A2971 RMK SC8 SLP098

CYQR;2011-11-18 14:49;CYQR 181449Z 03014KT 2SM -SN DRSN OVC014 M12/ RMK SC8

CYQR;2011-11-18 15:00;CYQR 181500Z 03014KT 2SM -SN DRSN OVC014 M12/M16 A2974 RMK SC8 SLP112

CYQR;2011-11-18 15:13;CYQR 181513Z 03013KT 1 1/2SM -SN DRSN OVC014 M12/ RMK SC8

CYQR;2011-11-18 15:32;CYQR 181532Z 03014KT 1SM R13/P6000FT/D -SN DRSN VV014 M12/ RMK SN8

CYQR;2011-11-18 16:00;CYQR 181600Z 02013G19KT 1SM R13/P6000FT/D -SN DRSN OVC012 M12/M16 A2976 RMK SC8 SLP119

CYQR;2011-11-18 16:32;CYQR 181632Z 01014G19KT 3/4SM R13/5000FT/D -SN DRSN VV010 M12/ RMK SN8

CYQR;2011-11-18 17:00;CYQR 181700Z 36016KT 3/4SM R13/5000FT/N -SN DRSN VV006 M13/M17 A2981 RMK SN8 SLP133

CYQR;2011-11-18 18:00;CYQR 181800Z 01015G22KT 1SM R13/5500FT/D -SN DRSN OVC013 M13/M17 A2983 RMK SC8 SLP144

CYQR;2011-11-18 18:08;CYQR 181808Z 36018KT 1 3/4SM -SN DRSN BKN013 OVC120 M13/ RMK SC6AS2

CYQR;2011-11-18 18:32;CYQR 181832Z 36017KT 2 1/2SM -SN DRSN SCT013 BKN120 OVC210 M14/ RMK SC2AC5CS0

CYQR;2011-11-18 19:00;CYQR 181900Z 36018KT 12SM DRSN SCT012 BKN130 OVC210 M14/M18 A2984 RMK SC2AC3CI0 SLP149

CYQR;2011-11-18 20:00;CYQR 182000Z 35016KT 10SM DRSN FEW010 FEW150 BKN210 M14/M19 A2986 RMK SC0AC2CI1 SLP154

CYQR;2011-11-18 21:00;CYQR 182100Z 35016G21KT 12SM DRSN FEW150 SCT230 M15/M20 A2988 RMK AC1CI1 SLP164

CYQR;2011-11-18 22:00;CYQR 182200Z 34014KT 15SM DRSN FEW012 BKN230 M17/M21 A2991 RMK SC1CI2 SLP175

CYQR;2011-11-18 23:00;CYQR 182300Z 34011KT 15SM DRSN FEW015 BKN230 M18/M22 A2995 RMK SC1CI2 SLP185

CYQR;2011-11-19 00:00;CYQR 190000Z 34013KT 15SM -SN DRSN FEW030 SCT230 M19/M23 A2996 RMK SC2CI0 SLP197

CYQR;2011-11-19 00:26;CYQR 190026Z 33017KT 12SM -SN DRSN FEW005 SCT029 BKN230 M18/ RMK SF1SC2CI0

CYQR;2011-11-19 01:00;CYQR 190100Z 36013G19KT 15SM DRSN FEW030 FEW300 M19/M24 A2997 RMK SC1CI0 SLP200

CYQR;2011-11-19 02:00;CYQR 190200Z 34009KT 15SM DRSN FEW030 SCT300 M20/M24 A3001 RMK SC1CI1 SLP211

CYQR;2011-11-19 03:00;CYQR 190300Z 33013KT 15SM DRSN SCT018 SCT100 BKN300 M19/M22 A3002 RMK SC3AC1CI0 SLP218

CYQR;2011-11-19 03:33;CYQR 190333Z 34011KT 15SM -SN DRSN BKN016 M18/ RMK SC6

CYQR;2011-11-19 04:00;CYQR 190400Z 34013KT 15SM -SN DRSN OVC014 M18/M23 A3004 RMK SC8 SLP223

CYQR;2011-11-19 05:00;CYQR 190500Z 35012KT 15SM -SN DRSN OVC016 M18/M23 A3004 RMK SC8 SLP225

CYQR;2011-11-19 06:00;CYQR 190600Z 34008KT 15SM -SN OVC020 M20/M24 A3006 RMK SC8 SLP232

CYQR;2011-11-19 07:00;CYQR 190700Z 35007KT 15SM -SN BKN020 M20/M25 A3006 RMK SC7 SLP232

CYQR;2011-11-19 08:00;CYQR 190800Z 36009KT 15SM -SN BKN018 M20/M24 A3005 RMK SC6 SLP230

CYQR;2011-11-19 09:00;CYQR 190900Z 33006KT 15SM -SN BKN018 M21/M25 A3008 RMK SC6 SLP244

CYQR;2011-11-19 10:00;CYQR 191000Z 34006KT 15SM -SN BKN018 M22/M27 A3010 RMK SC6 SLP248

CYQR;2011-11-19 11:00;CYQR 191100Z 32003KT 15SM -SN OVC018 M21/M26 A3011 RMK SC7 SLP253

CYQR;2011-11-19 12:00;CYQR 191200Z 34003KT 15SM -SN OVC018 M20/M25 A3012 RMK SC7 SLP260

CYQR;2011-11-19 13:00;CYQR 191300Z 35006KT 3SM -SHSN BKN018 M21/M26 A3013 RMK SC6 VIS VRB 2-4 SLP262

CYQR;2011-11-19 14:00;CYQR 191400Z 35008KT 12SM -SHSN FEW012 BKN030 M21/M26 A3014 RMK SC2SC0 VIS E-S 2 SLP266

CYQR;2011-11-19 14:24;CYQR 191424Z 35007KT 2SM IC SKC M21/ RMK IC6 VIS SW-NW 12

CYQR;2011-11-19 14:44;CYQR 191444Z 36006KT 2SM IC OVC008 M20/ RMK IC4SF4

CYQR;2011-11-19 15:00;CYQR 191500Z 35006KT 2SM IC OVC006 M20/M25 A3015 RMK IC5SF3 SLP268

CYQR;2011-11-19 15:08;CYQR 191508Z 36004KT 12SM OVC005 M20/ RMK IC2SF6 IC VIS SW-NW 2

CYQR;2011-11-19 16:00;CYQR 191600Z 30004KT 15SM R13/6000FT/D -SN OVC005 M20/M24 A3016 RMK SF8 VIS SW-N 2 SLP273

CYQR;2011-11-19 16:40;CYQR 191640Z 32003KT 3SM IC OVC007 M20/ RMK SF7

CYQR;2011-11-19 17:00;CYQR 191700Z 30005KT 2SM IC BKN007 OVC130 M20/M24 A3017 RMK SF6AS2 SLP275

CYQR;2011-11-19 17:08;CYQR 191708Z 30005KT 5SM IC SCT005 BKN130 OVC300 M20/ RMK SF3AS2CI0

CYQR;2011-11-19 17:39;CYQR 191739Z 30004KT 15SM FEW005 SCT095 OVC300 M19/ RMK SF2AS2CI2

CYQR;2011-11-19 18:00;CYQR 191800Z 30004KT 15SM FEW008 SCT095 OVC300 M19/M24 A3017 RMK SF1AS2CI2 SLP275

CYQR;2011-11-19 19:00;CYQR 191900Z 29002KT 15SM FEW005 BKN095 OVC300 M18/M24 A3015 RMK SF1AS5CI2 VIS E 2 SLP269

CYQR;2011-11-19 19:33;CYQR 191933Z 30003KT 6SM IC FEW008 OVC095 M18/ RMK SF1AS6 VIS NE-S 2

CYQR;2011-11-19 20:00;CYQR 192000Z 27003KT 1SM R13/P6000FT/N IC OVC090 M18/M23 A3014 RMK IC5AS3 VIS SW-NW 3 SLP267

CYQR;2011-11-19 20:09;CYQR 192009Z 25003KT 2SM IC BKN006 OVC090 M18/ RMK IC4SF1AS3

CYQR;2011-11-19 20:21;CYQR 192021Z 24004KT 3SM IC FEW006 OVC094 M18/ RMK SF1AC7 VIS NE-SE 2

CYQR;2011-11-19 20:39;CYQR 192039Z 24003KT 15SM FEW005 OVC094 M18/ RMK SF1AS7

CYQR;2011-11-19 21:00;CYQR 192100Z 25003KT 15SM FEW008 OVC094 M18/M23 A3015 RMK SC1AS7 SLP269

CYQR;2011-11-19 22:00;CYQR 192200Z 22004KT 15SM FEW010 FEW077 OVC093 M18/M24 A3015 RMK SC1AC2AS6 SLP270

CYQR;2011-11-19 23:00;CYQR 192300Z 21004KT 15SM FEW070 OVC100 M19/M24 A3015 RMK AC2AS6 SLP270

CYQR;2011-11-20 00:00;CYQR 200000Z 19004KT 15SM OVC060 M19/M24 A3015 RMK SC7 SLP268

CYQR;2011-11-20 01:00;CYQR 200100Z 17005KT 15SM OVC046 M18/M24 A3014 RMK SC8 SLP265

CYQR;2011-11-20 02:00;CYQR 200200Z 18007KT 15SM OVC030 M18/M23 A3013 RMK SC8 SLP263

CYQR;2011-11-20 03:00;CYQR 200300Z 16008KT 15SM BKN034 M18/M24 A3012 RMK SC6 SLP258

CYQR;2011-11-20 03:49;CYQR 200349Z 16009KT 15SM -SN BKN021 M19/ RMK SC6

CYQR;2011-11-20 04:00;CYQR 200400Z 16009KT 10SM -SN BKN021 M19/M23 A3011 RMK SC6 SLP256

CYQR;2011-11-20 04:36;CYQR 200436Z 16007KT 15SM SCT025 M20/ RMK SC4

CYQR;2011-11-20 05:00;CYQR 200500Z 15008KT 15SM FEW025 M19/M24 A3011 RMK SC2 SLP256

CYQR;2011-11-20 06:00;CYQR 200600Z 15009KT 15SM FEW030 M20/M24 A3011 RMK SC1 SLP254

CYQR;2011-11-20 07:00;CYQR 200700Z 14010KT 15SM FEW100 M20/M25 A3009 RMK AC1 SLP249

CYQR;2011-11-20 08:00;CYQR 200800Z 13010KT 15SM FEW100 M20/M25 A3006 RMK AC1 SLP238

CYQR;2011-11-20 09:00;CYQR 200900Z 14012KT 15SM SCT300 M20/M24 A3005 RMK CI0 SLP233

CYQR;2011-11-20 10:00;CYQR 201000Z 14011KT 15SM FEW300 M21/M25 A3004 RMK CI0 SLP230

CYQR;2011-11-20 11:00;CYQR 201100Z 14011KT 15SM FEW300 M20/M25 A3003 RMK CI0 SLP226

CYQR;2011-11-20 12:00;CYQR 201200Z 14012KT 15SM FEW300 M21/M25 A3002 RMK CI0 SLP224

CYQR;2011-11-20 13:00;CYQR 201300Z 14013KT 15SM FEW300 M20/M25 A2999 RMK CI0 SLP216

CYQR;2011-11-20 14:00;CYQR 201400Z 15011KT 15SM SKC M21/M25 A2998 RMK SLP213

CYQR;2011-11-20 15:00;CYQR 201500Z 14011KT 15SM FEW300 M20/M24 A2997 RMK CI1 SLP206

CYQR;2011-11-20 16:00;CYQR 201600Z 16013KT 6SM IC BKN094 M18/M22 A2996 RMK AC1 SLP204

CYQR;2011-11-20 17:00;CYQR 201700Z 16012KT 6SM IC DRSN BKN100 M17/M20 A2996 RMK AC2 SLP201

CYQR;2011-11-20 18:00;CYQR 201800Z 17012KT 15SM SCT250 M16/M20 A2994 RMK CI1 SLP193

CYQR;2011-11-20 19:00;CYQR 201900Z 17011KT 15SM FEW100 M15/M19 A2992 RMK AC1 SLP187

CYQR;2011-11-20 20:00;CYQR 202000Z 18006KT 15SM SCT081 M13/M18 A2991 RMK AC3 SLP183

CYQR;2011-11-20 21:00;CYQR 202100Z 17007KT 15SM FEW049 FEW079 FEW250 M15/M19 A2991 RMK SC1AC1CI1 SLP181

CYQR;2011-11-20 22:00;CYQR 202200Z 16003KT 15SM FEW082 SCT250 M13/M18 A2991 RMK AC1CI1 SLP181

CYQR;2011-11-20 23:00;CYQR 202300Z 17002KT 15SM BKN220 M14/M19 A2990 RMK CI1 SLP180

CYQR;2011-11-21 00:00;CYQR 210000Z 29004KT 15SM SCT220 M16/M21 A2992 RMK CI1 SLP190

CYQR;2011-11-21 01:00;CYQR 210100Z 29007KT 15SM SCT220 M19/M23 A2995 RMK CI1 SLP197

CYQR;2011-11-21 02:00;CYQR 210200Z 30007KT 15SM SCT220 M20/M24 A2995 RMK CI1 SLP199

CYQR;2011-11-21 03:00;CYQR 210300Z 33003KT 15SM SKC M21/M24 A2997 RMK SLP207

CYQR;2011-11-21 04:00;CYQR 210400Z 00000KT 15SM SKC M23/M27 A2997 RMK FROIN SLP209

CYQR;2011-11-21 05:00;CYQR 210500Z 26003KT 15SM SKC M23/M26 A3000 RMK FROIN SLP216

CYQR;2011-11-21 05:42;CYQR 210542Z 24005KT 15SM FEW001 M24/ RMK ST1 FROIN

CYQR;2011-11-21 06:00;CYQR 210600Z 25005KT 12SM FEW001 M24/M28 A3000 RMK ST1 FROIN SLP219

CYQR;2011-11-21 07:00;CYQR 210700Z 20004KT 15SM SKC M23/M28 A3000 RMK FROIN SLP218

CYQR;2011-11-21 08:00;CYQR 210800Z 14005KT 15SM SKC M22/M26 A2998 RMK FROIN SLP211

CYQR;2011-11-21 09:00;CYQR 210900Z 12006KT 15SM FEW250 M21/M25 A2998 RMK CI0 FROIN SLP207

CYQR;2011-11-21 10:00;CYQR 211000Z 15007KT 15SM FEW250 M20/M24 A2999 RMK CI0 FROIN SLP211

CYQR;2011-11-21 11:00;CYQR 211100Z 14009KT 15SM FEW120 BKN250 M18/M22 A2996 RMK AC2CI3 FROIN SLP203

CYQR;2011-11-21 12:00;CYQR 211200Z 14011KT 15SM BKN250 M17/M21 A2997 RMK CI1 SLP202

CYQR;2011-11-21 13:00;CYQR 211300Z 13011KT 15SM FEW250 M18/M22 A2995 RMK CI0 FROIN SLP195

CYQR;2011-11-21 14:00;CYQR 211400Z 14012KT 15SM FEW050 FEW250 M18/M22 A2994 RMK SC1CI0 SLP193

CYQR;2011-11-21 15:00;CYQR 211500Z 14013KT 15SM BKN076 M16/M20 A2994 RMK AC6 SLP194

CYQR;2011-11-21 16:00;CYQR 211600Z 14013KT 15SM FEW074 SCT250 M14/M18 A2992 RMK AC1CI1 SLP188

CYQR;2011-11-21 17:00;CYQR 211700Z 14014KT 15SM SCT250 M13/M17 A2990 RMK CI1 SLP182

CYQR;2011-11-21 18:00;CYQR 211800Z 14013G18KT 15SM BKN250 M11/M15 A2989 RMK CI2 SLP175

CYQR;2011-11-21 19:00;CYQR 211900Z 14013KT 15SM BKN250 M10/M14 A2986 RMK CI2 SLP166

CYQR;2011-11-21 20:00;CYQR 212000Z 14013KT 15SM BKN250 M09/M13 A2983 RMK CI2 SLP156

CYQR;2011-11-21 21:00;CYQR 212100Z 13013KT 15SM BKN250 M07/M11 A2981 RMK CI2 SLP143

CYQR;2011-11-21 22:00;CYQR 212200Z 14012KT 15SM FEW100 BKN250 M07/M10 A2980 RMK AC2CI5 SLP139

CYQR;2011-11-21 23:00;CYQR 212300Z 14014KT 15SM FEW100 OVC250 M06/M10 A2979 RMK AC2CI4 SLP137

CYQR;2011-11-22 00:00;CYQR 220000Z 14012KT 15SM FEW100 BKN250 M07/M10 A2978 RMK AC2CI5 SLP129

CYQR;2011-11-22 01:00;CYQR 220100Z 14012KT 15SM FEW100 BKN250 M07/M10 A2977 RMK AC2CI2 SLP127

CYQR;2011-11-22 02:00;CYQR 220200Z 13012KT 15SM SCT250 M07/M10 A2976 RMK CI1 SLP123

CYQR;2011-11-22 03:00;CYQR 220300Z 14014KT 15SM FEW075 BKN250 M07/M10 A2975 RMK AC1CI4 SLP117

CYQR;2011-11-22 04:00;CYQR 220400Z 15012KT 15SM SCT076 OVC120 M06/M09 A2974 RMK AC3AC4 SLP115

CYQR;2011-11-22 05:00;CYQR 220500Z 14012KT 15SM FEW075 SCT120 BKN250 M06/M09 A2972 RMK AC2AC2CI2 SLP108

CYQR;2011-11-22 06:00;CYQR 220600Z 15008KT 15SM FEW090 SCT250 M07/M10 A2972 RMK AC1CI0 SLP106

CYQR;2011-11-22 07:00;CYQR 220700Z 15007KT 15SM FEW250 M07/M10 A2972 RMK CI0 SLP106

CYQR;2011-11-22 08:00;CYQR 220800Z 21007KT 15SM FEW250 M05/M09 A2972 RMK CI0 SLP106

CYQR;2011-11-22 09:00;CYQR 220900Z 25017KT 15SM SKC M01/M06 A2973 RMK SLP100

CYQR;2011-11-22 10:00;CYQR 221000Z 25014KT 15SM FEW250 M03/M07 A2974 RMK CI0 SLP104

CYQR;2011-11-22 11:00;CYQR 221100Z 25013KT 15SM FEW250 M04/M08 A2974 RMK CI0 SLP105

CYQR;2011-11-22 12:00;CYQR 221200Z 25016KT 15SM FEW250 M03/M07 A2975 RMK CI0 SLP107

CYQR;2011-11-22 13:00;CYQR 221300Z 24011KT 15SM FEW250 M04/M08 A2974 RMK CI0 SLP106

CYQR;2011-11-22 14:00;CYQR 221400Z 22009KT 15SM SCT200 M07/M11 A2974 RMK CI2 SLP105

CYQR;2011-11-22 15:00;CYQR 221500Z 18008KT 15SM FEW200 BKN300 M07/M10 A2972 RMK CI1CI2 SLP102

CYQR;2011-11-22 16:00;CYQR 221600Z 19007KT 15SM FEW300 M04/M09 A2971 RMK CI1 SLP097

CYQR;2011-11-22 17:00;CYQR 221700Z 16010KT 15SM BKN300 M02/M07 A2971 RMK CI1 SLP096

CYQR;2011-11-22 18:00;CYQR 221800Z 17013KT 15SM SCT300 M00/M05 A2969 RMK CI1 SLP087

CYQR;2011-11-22 19:00;CYQR 221900Z 16009KT 15SM FEW080 BKN300 01/M03 A2965 RMK AC1CI1 SLP074

CYQR;2011-11-22 20:00;CYQR 222000Z 14010KT 15SM FEW080 BKN300 02/M03 A2962 RMK AC1CI2 SLP065

CYQR;2011-11-22 21:00;CYQR 222100Z 15011KT 15SM SCT080 OVC300 01/M03 A2961 RMK AC4CI3 SLP051

CYQR;2011-11-22 22:00;CYQR 222200Z 18011KT 15SM FEW080 BKN120 BKN300 01/M03 A2959 RMK AC1AC5CI2 SLP047

CYQR;2011-11-22 23:00;CYQR 222300Z 19016KT 15SM SCT120 BKN300 01/M03 A2958 RMK AC3CI2 SLP044

CYQR;2011-11-23 00:00;CYQR 230000Z 16007KT 15SM SCT120 BKN300 01/M03 A2958 RMK AC4CI3 SLP046

CYQR;2011-11-23 01:00;CYQR 230100Z 19013KT 15SM SCT120 BKN300 01/M03 A2957 RMK AC4CI3 SLP043

CYQR;2011-11-23 02:00;CYQR 230200Z 20015KT 15SM FEW120 FEW300 02/M02 A2956 RMK AC1CI1 SLP037

CYQR;2011-11-23 03:00;CYQR 230300Z 21013KT 15SM BKN120 03/M01 A2956 RMK AC6 SLP040

CYQR;2011-11-23 04:00;CYQR 230400Z 22015KT 15SM OVC120 04/M00 A2958 RMK AC8 SLP044

CYQR;2011-11-23 05:00;CYQR 230500Z 23017KT 15SM BKN120 OVC300 05/00 A2957 RMK AC6CI2 SLP042

CYQR;2011-11-23 06:00;CYQR 230600Z 26024KT 15SM FEW120 FEW300 05/00 A2958 RMK AC1CI0 SLP040

CYQR;2011-11-23 07:00;CYQR 230700Z 26018KT 15SM SKC 04/M00 A2963 RMK SLP055

CYQR;2011-11-23 08:00;CYQR 230800Z 26016KT 15SM SKC 03/M00 A2965 RMK SLP061

CYQR;2011-11-23 09:00;CYQR 230900Z 25012KT 15SM SKC 03/M01 A2968 RMK SLP075

CYQR;2011-11-23 09:39;CYQR 230939Z 25015KT 15SM SKC 02/

CYQR;2011-11-23 10:00;CYQR 231000Z 25016KT 15SM SKC 02/M01 A2968 RMK SLP074

CYQR;2011-11-23 11:00;CYQR 231100Z 34006KT 15SM SKC 01/M01 A2969 RMK SLP079

CYQR;2011-11-23 12:00;CYQR 231200Z 04005KT 15SM SKC 00/M03 A2970 RMK SLP085

CYQR;2011-11-23 13:00;CYQR 231300Z 16005KT 15SM FEW250 M02/M04 A2968 RMK CI0 SLP079

CYQR;2011-11-23 14:00;CYQR 231400Z 12008KT 15SM BKN250 M02/M04 A2966 RMK CI1 SLP072

CYQR;2011-11-23 15:00;CYQR 231500Z 12009KT 15SM FEW070 FEW150 BKN250 M03/M05 A2966 RMK AC1AC1CI2 SLP069

CYQR;2011-11-23 16:00;CYQR 231600Z 15011KT 15SM FEW150 BKN250 00/M03 A2965 RMK AC1CI0 SLP067

CYQR;2011-11-23 17:00;CYQR 231700Z 15008KT 15SM FEW150 BKN250 01/M03 A2962 RMK AC1CI1 SLP059

CYQR;2011-11-23 18:00;CYQR 231800Z 16008KT 15SM FEW150 BKN250 02/M01 A2960 RMK AC1CI2 SLP046

CYQR;2011-11-23 19:00;CYQR 231900Z 15011KT 15SM FEW150 BKN250 03/M01 A2957 RMK AC1CI2 SLP036

CYQR;2011-11-23 20:00;CYQR 232000Z 16011KT 15SM FEW120 BKN250 04/00 A2956 RMK AC1CI2 SLP031

CYQR;2011-11-23 21:00;CYQR 232100Z 16011KT 15SM FEW120 BKN250 04/00 A2953 RMK AC1CI2 SLP022

CYQR;2011-11-23 22:00;CYQR 232200Z 15010KT 15SM FEW098 BKN250 04/00 A2951 RMK AC1CI2 SLP016

CYQR;2011-11-23 23:00;CYQR 232300Z 17013KT 15SM FEW081 BKN250 04/00 A2950 RMK AC2CI2 SLP011

CYQR;2011-11-24 00:00;CYQR 240000Z 17011KT 15SM SCT081 BKN250 04/M00 A2949 RMK AC3CI2 SLP008

CYQR;2011-11-24 01:00;CYQR 240100Z 17009KT 15SM FEW080 OVC250 03/M00 A2946 RMK AC2CI4 SLP001

CYQR;2011-11-24 02:00;CYQR 240200Z 21013KT 15SM FEW080 SCT250 03/M00 A2946 RMK AC1CI1 SLP000

CYQR;2011-11-24 03:00;CYQR 240300Z 22011KT 15SM FEW250 03/M01 A2945 RMK CI0 SLP999

CYQR;2011-11-24 04:00;CYQR 240400Z 23010KT 15SM SKC 04/M01 A2946 RMK SLP000

CYQR;2011-11-24 05:00;CYQR 240500Z 17004KT 15SM SKC 03/M01 A2946 RMK SLP001

CYQR;2011-11-24 06:00;CYQR 240600Z 25011KT 15SM SKC 04/M01 A2946 RMK SLP997

CYQR;2011-11-24 06:38;CYQR 240638Z 23009KT 15SM SKC 02/

CYQR;2011-11-24 07:00;CYQR 240700Z 24008KT 15SM SKC 01/M02 A2946 RMK SLP998

CYQR;2011-11-24 08:00;CYQR 240800Z 23011KT 15SM SKC 01/M02 A2946 RMK SLP997

CYQR;2011-11-24 09:00;CYQR 240900Z 23012KT 15SM SKC 02/M02 A2947 RMK SLP001

CYQR;2011-11-24 10:00;CYQR 241000Z 23009KT 15SM SKC 03/M02 A2946 RMK SLP999

CYQR;2011-11-24 11:00;CYQR 241100Z 22007KT 15SM SKC 03/M02 A2948 RMK SLP003

CYQR;2011-11-24 12:00;CYQR 241200Z 23012KT 15SM SKC 04/M02 A2949 RMK SLP006

CYQR;2011-11-24 13:00;CYQR 241300Z 25014KT 15SM SKC 04/M02 A2949 RMK SLP006

CYQR;2011-11-24 14:00;CYQR 241400Z 25013KT 15SM FEW100 FEW150 03/M02 A2950 RMK AC1AC1 SLP011

CYQR;2011-11-24 15:00;CYQR 241500Z 27013KT 15SM BKN071 BKN150 02/M02 A2952 RMK AC5AC1 SLP018

CYQR;2011-11-24 16:00;CYQR 241600Z 26012KT 15SM FEW073 BKN150 BKN300 02/M02 A2953 RMK AC2AC2CI0 SLP023

CYQR;2011-11-24 17:00;CYQR 241700Z 28007KT 15SM FEW055 BKN100 BKN150 BKN300 03/M01 A2957 RMK SC1AC2AC1CI2 SLP034

CYQR;2011-11-24 18:00;CYQR 241800Z 33017KT 15SM BKN010 BKN055 BKN100 BKN300 01/M01 A2960 RMK SC2SC1AC4CI0 SLP046

CYQR;2011-11-24 18:18;CYQR 241818Z 31015KT 4SM BR OVC004 00/ RMK ST8

CYQR;2011-11-24 18:39;CYQR 241839Z 32013KT 4SM BR OVC003 RMK ST8 VIS VRB 3-5

CYQR;2011-11-24 19:00;CYQR 241900Z 32014G20KT 4SM BR OVC003 M00/M01 A2963 RMK ST8 VIS VRB 3-5 CIG VRB 2-4 SLP056

CYQR;2011-11-24 19:28;CYQR 241928Z 32015KT 8SM OVC005 00/ RMK SC8

CYQR;2011-11-24 20:00;CYQR 242000Z 33019G25KT 8SM OVC006 00/M01 A2965 RMK SC8 SLP062

CYQR;2011-11-24 21:00;CYQR 242100Z 34017G22KT 10SM OVC007 00/M02 A2966 RMK SC8 SLP068

CYQR;2011-11-24 22:00;CYQR 242200Z 33013G19KT 12SM OVC009 00/M02 A2968 RMK SC8 SLP076

CYQR;2011-11-24 23:00;CYQR 242300Z 33008KT 12SM OVC009 00/M02 A2971 RMK SC8 SLP085

CYQR;2011-11-25 00:00;CYQR 250000Z 34010KT 15SM OVC009 M00/M02 A2972 RMK SC8 SLP090

CYQR;2011-11-25 01:00;CYQR 250100Z 35007KT 10SM OVC008 M00/M03 A2973 RMK ST8 SLP091

CYQR;2011-11-25 03:00;CYQR 250300Z 00000KT 12SM OVC008 M01/M03 A2974 RMK ST8 SLP096

CYQR;2011-11-25 04:00;CYQR 250400Z 00000KT 5SM BR OVC007 M01/M03 A2972 RMK ST8 SLP092

CYQR;2011-11-25 05:00;CYQR 250500Z 14005KT 8SM OVC007 M01/M03 A2972 RMK ST8 SLP091

CYQR;2011-11-25 06:00;CYQR 250600Z 16008KT 12SM OVC006 M01/M03 A2971 RMK ST8 SLP089

CYQR;2011-11-25 07:00;CYQR 250700Z 16011KT 12SM OVC006 M02/M03 A2969 RMK ST8 SLP080

CYQR;2011-11-25 08:00;CYQR 250800Z 17013KT 12SM OVC004 M02/M04 A2968 RMK ST8 SLP079

CYQR;2011-11-25 09:00;CYQR 250900Z 15011KT 12SM OVC003 M02/M04 A2967 RMK ST8 SLP077

CYQR;2011-11-25 09:24;CYQR 250924Z 14013KT 12SM -SN OVC003 M02/ RMK ST8

CYQR;2011-11-25 09:38;CYQR 250938Z 15010KT 8SM OVC003 M02/ RMK ST8

CYQR;2011-11-25 10:00;CYQR 251000Z 15015KT 4SM BR OVC003 M02/M04 A2966 RMK ST8 SLP071

CYQR;2011-11-25 11:00;CYQR 251100Z 15012KT 4SM BR OVC003 M02/M04 A2966 RMK ST8 SLP071

CYQR;2011-11-25 12:00;CYQR 251200Z 15015G20KT 4SM BR OVC003 M02/M04 A2963 RMK ST8 SLP063

CYQR;2011-11-25 13:00;CYQR 251300Z 15017G22KT 3SM BR OVC003 M03/M04 A2962 RMK ST8 SLP059

CYQR;2011-11-25 13:41;CYQR 251341Z 15016KT 8SM -FZRA OVC003 M02/ RMK SC8

CYQR;2011-11-25 13:45;CYQR 251345Z 15018KT 8SM -SN OVC003 M02/ REFZRA RMK SC8

CYQR;2011-11-25 14:00;CYQR 251400Z 14017KT 6SM BR OVC003 M02/M04 A2960 REFZRA RMK SC8 SLP053

CYQR;2011-11-25 14:09;CYQR 251409Z 14020KT 1 1/2SM BR OVC002 M02/ RMK ST8 VIS VRB 1-2

CYQR;2011-11-25 15:00;CYQR 251500Z 16010KT 1SM R13/P6000FT/D BR OVC002 M01/M03 A2963 RMK SC8 VIS VRB 3/4-11/4 SLP061

CYQR;2011-11-25 16:00;CYQR 251600Z 14021KT 1SM R13/P6000FT/D BR OVC002 M01/M02 A2958 RMK FG2ST6 VIS VRB 3/4 - 1 1/4 SLP046

CYQR;2011-11-25 16:37;CYQR 251637Z 15016G22KT 4SM BR OVC004 M01/ RMK ST8

CYQR;2011-11-25 17:00;CYQR 251700Z 16015KT 4SM BR OVC004 M00/M02 A2960 RMK ST8 SLP051

CYQR;2011-11-25 18:00;CYQR 251800Z 16020G26KT 4SM BR OVC004 M00/M02 A2959 RMK ST8 SLP049

CYQR;2011-11-25 19:00;CYQR 251900Z 16014G19KT 4SM BR OVC004 00/M01 A2960 RMK ST8 SLP052

CYQR;2011-11-25 20:00;CYQR 252000Z 16011KT 5SM BR BKN004 BKN085 OVC250 01/M01 A2960 RMK SF3AC1CI0 SLP050

CYQR;2011-11-25 20:45;CYQR 252045Z 15012KT 10SM FEW007 FEW085 BKN270 01/ RMK SF1AC1CI1

CYQR;2011-11-25 21:00;CYQR 252100Z 16012KT 8SM FEW007 FEW085 BKN270 01/M00 A2961 RMK SF1AC1CI1 SLP055

CYQR;2011-11-25 22:00;CYQR 252200Z CCA 14006KT 12SM FEW085 BKN270 01/M00 A2964 RMK AC1CI1 SLP063

CYQR;2011-11-25 23:00;CYQR 252300Z 16006KT 15SM SCT084 01/M01 A2965 RMK AC1 SLP068

CYQR;2011-11-26 00:00;CYQR 260000Z 24009KT 15SM BKN073 00/M03 A2969 RMK AC4 SLP084

CYQR;2011-11-26 01:00;CYQR 260100Z 28008KT 15SM BKN073 00/M03 A2973 RMK AC6 SLP096

CYQR;2011-11-26 02:00;CYQR 260200Z 30014KT 15SM SCT070 M00/M04 A2979 RMK AC2 SLP115

CYQR;2011-11-26 03:00;CYQR 260300Z 31019G24KT 15SM FEW070 M00/M05 A2984 RMK AC1 SLP134

CYQR;2011-11-26 04:00;CYQR 260400Z 31014KT 15SM FEW025 M02/M05 A2989 RMK SC1 SLP151

CYQR;2011-11-26 05:00;CYQR 260500Z 31020G25KT 15SM OVC019 01/M02 A2994 RMK SC7 SLP167

CYQR;2011-11-26 06:00;CYQR 260600Z 31017KT 15SM BKN027 M01/M04 A2999 RMK SC3 SLP185

CYQR;2011-11-26 07:00;CYQR 260700Z 30023KT 15SM BKN033 M01/M06 A3003 RMK SC6 SLP198

CYQR;2011-11-26 08:00;CYQR 260800Z 30021KT 15SM BKN035 M02/M07 A3007 RMK SC6 SLP210

CYQR;2011-11-26 09:00;CYQR 260900Z 30020KT 15SM BKN037 M03/M08 A3011 RMK SC3 SLP227

CYQR;2011-11-26 10:00;CYQR 261000Z 31019G28KT 15SM BKN039 M03/M08 A3015 RMK SC6 SLP240

CYQR;2011-11-26 11:00;CYQR 261100Z 31022G27KT 15SM FEW040 M04/M09 A3018 RMK SC1 SLP249

CYQR;2011-11-26 12:00;CYQR 261200Z 31020G25KT 15SM FEW040 FEW250 M05/M10 A3021 RMK SC1CI0 SLP265

CYQR;2011-11-26 13:00;CYQR 261300Z 31016KT 15SM FEW250 M06/M11 A3026 RMK CI0 SLP281

CYQR;2011-11-26 14:00;CYQR 261400Z 30013KT 15SM SKC M07/M12 A3030 RMK SLP291

CYQR;2011-11-26 15:00;CYQR 261500Z 30017KT 15SM SKC M07/M12 A3032 RMK SLP302

CYQR;2011-11-26 16:00;CYQR 261600Z 30009KT 15SM SKC M07/M12 A3034 RMK SLP309

CYQR;2011-11-26 17:00;CYQR 261700Z 30016KT 15SM SKC M06/M10 A3035 RMK SLP314

CYQR;2011-11-26 18:00;CYQR 261800Z 31011KT 15SM FEW160 FEW270 M04/M09 A3036 RMK AC1CI1 SLP314

CYQR;2011-11-26 19:00;CYQR 261900Z 31009KT 15SM FEW300 M02/M09 A3035 RMK CI0 SLP310

CYQR;2011-11-26 20:00;CYQR 262000Z 28010KT 15SM FEW160 FEW300 M02/M08 A3035 RMK AC1CI1 SLP310

CYQR;2011-11-26 21:00;CYQR 262100Z 30005KT 15SM FEW160 FEW300 M02/M08 A3035 RMK AC1CI1 SLP311

CYQR;2011-11-26 22:00;CYQR 262200Z 00000KT 15SM FEW300 M01/M08 A3034 RMK CI1 SLP309

CYQR;2011-11-26 23:00;CYQR 262300Z 14004KT 15SM FEW140 FEW300 M05/M10 A3034 RMK AC1CI1 SLP307

CYQR;2011-11-27 00:00;CYQR 270000Z 16008KT 15SM FEW140 M07/M11 A3032 RMK AC1 SLP307

CYQR;2011-11-27 01:00;CYQR 270100Z 14008KT 15SM SKC M08/M12 A3030 RMK SLP300

CYQR;2011-11-27 02:00;CYQR 270200Z 14011KT 15SM SKC M07/M12 A3029 RMK SLP296

CYQR;2011-11-27 03:00;CYQR 270300Z 15011KT 15SM SKC M06/M12 A3027 RMK SLP290

CYQR;2011-11-27 04:00;CYQR 270400Z 15013KT 15SM SKC M08/M12 A3025 RMK SLP283

CYQR;2011-11-27 05:00;CYQR 270500Z 14015KT 15SM SKC M08/M13 A3021 RMK SLP271

CYQR;2011-11-27 06:00;CYQR 270600Z 14017KT 15SM SKC M08/M12 A3019 RMK SLP260

CYQR;2011-11-27 07:00;CYQR 270700Z CCA 15015KT 15SM SKC M07/M12 A3015 RMK PRESFR SLP249

CYQR;2011-11-27 08:00;CYQR 270800Z 15012KT 15SM SKC M07/M11 A3013 RMK SLP241

CYQR;2011-11-27 09:00;CYQR 270900Z 14013KT 15SM SKC M07/M11 A3011 RMK SLP234

CYQR;2011-11-27 10:00;CYQR 271000Z 14014KT 15SM SKC M07/M11 A3008 RMK SLP224

CYQR;2011-11-27 11:00;CYQR 271100Z 15013KT 15SM SKC M07/M11 A3004 RMK SLP211

CYQR;2011-11-27 12:00;CYQR 271200Z 14013KT 15SM FEW250 M07/M11 A3002 RMK CI0 SLP204

CYQR;2011-11-27 13:00;CYQR 271300Z 14013KT 15SM FEW120 BKN250 M06/M10 A2998 RMK AC1CI2 SLP191

CYQR;2011-11-27 14:00;CYQR 271400Z 14012KT 15SM BKN130 BKN280 M06/M10 A2997 RMK AC6CI1 SLP188

CYQR;2011-11-27 15:00;CYQR 271500Z 14011KT 15SM SCT130 BKN280 M05/M09 A2994 RMK AC2CI1 SLP176

CYQR;2011-11-27 16:00;CYQR 271600Z 15013KT 15SM SCT130 BKN280 M04/M08 A2989 RMK AC1CI1 SLP160

CYQR;2011-11-27 17:00;CYQR 271700Z 15013KT 15SM BKN140 OVC300 M02/M06 A2988 RMK AC5CI2 SLP155

CYQR;2011-11-27 18:00;CYQR 271800Z 16010KT 15SM SCT140 BKN300 01/M03 A2984 RMK AC3CI2 SLP139

CYQR;2011-11-27 19:00;CYQR 271900Z 16010KT 15SM BKN140 BKN300 03/M01 A2980 RMK AC6CI1 SLP124

CYQR;2011-11-27 20:00;CYQR 272000Z 16010KT 15SM BKN140 BKN300 04/M00 A2976 RMK AC4CI2 SLP112

CYQR;2011-11-27 21:00;CYQR 272100Z 16009KT 15SM BKN140 OVC300 05/00 A2971 RMK AC5CI2 SLP091

CYQR;2011-11-27 22:00;CYQR 272200Z 19011KT 15SM BKN120 OVC300 04/00 A2970 RMK AC6CI1 SLP087

CYQR;2011-11-27 23:00;CYQR 272300Z 18013KT 15SM BKN090 OVC300 04/M00 A2968 RMK AC7CI1 SLP080

CYQR;2011-11-28 00:00;CYQR 280000Z 20013KT 15SM BKN110 OVC300 04/M00 A2965 RMK AC7CI1 SLP067

CYQR;2011-11-28 01:00;CYQR 280100Z 21016KT 15SM BKN110 OVC300 05/M00 A2961 RMK AC6CI1 SLP056

CYQR;2011-11-28 02:00;CYQR 280200Z 21014KT 15SM BKN110 OVC300 04/M00 A2958 RMK AC6CI2 SLP047

CYQR;2011-11-28 03:00;CYQR 280300Z 23018KT 15SM BKN080 BKN280 06/M00 A2955 RMK AC4CI2 SLP033

CYQR;2011-11-28 04:00;CYQR 280400Z 24013KT 15SM SCT080 BKN280 06/M00 A2954 RMK AC2CI3 SLP030

CYQR;2011-11-28 05:00;CYQR 280500Z 25020G26KT 15SM FEW080 BKN280 07/M00 A2955 RMK AC1CI3 SLP032

CYQR;2011-11-28 06:00;CYQR 280600Z 25013KT 15SM FEW080 BKN280 05/M00 A2957 RMK AC2CI4 SLP035

CYQR;2011-11-28 07:00;CYQR 280700Z 27013KT 15SM BKN280 04/M00 A2960 RMK CI3 SLP044

CYQR;2011-11-28 08:00;CYQR 280800Z 29017KT 15SM SCT280 04/M00 A2965 RMK CI2 SLP062

CYQR;2011-11-28 09:00;CYQR 280900Z 30017KT 15SM SCT280 03/M01 A2972 RMK CI1 PRESRR SLP088

CYQR;2011-11-28 09:34;CYQR 280934Z 30018KT 15SM FEW070 FEW280 02/ RMK AC1CI0

CYQR;2011-11-28 10:00;CYQR 281000Z 30017G22KT 15SM BKN065 BKN280 02/M01 A2978 RMK SC3CI2 SLP107

CYQR;2011-11-28 11:00;CYQR 281100Z 31021KT 15SM BKN063 03/M01 A2984 RMK SC6 SLP126

CYQR;2011-11-28 12:00;CYQR 281200Z 30020G25KT 15SM BKN063 BKN280 02/M01 A2991 RMK SC3CI3 PRESRR SLP154

CYQR;2011-11-28 13:00;CYQR 281300Z 30018KT 15SM OVC120 02/M01 A2996 RMK AC7 PRESRR SLP170

CYQR;2011-11-28 14:00;CYQR 281400Z 31016KT 15SM BKN140 01/M02 A3002 RMK AC6 SLP188

CYQR;2011-11-28 15:00;CYQR 281500Z 32017KT 15SM BKN140 01/M03 A3007 RMK AC7 PRESRR SLP208

CYQR;2011-11-28 16:00;CYQR 281600Z 32017KT 15SM BKN140 01/M04 A3013 RMK AC6 SLP227

CYQR;2011-11-28 17:00;CYQR 281700Z 33020G25KT 15SM BKN140 01/M05 A3017 RMK AC5 SLP239

CYQR;2011-11-28 18:00;CYQR 281800Z 33018KT 15SM FEW140 00/M06 A3020 RMK AC1 SLP253

CYQR;2011-11-28 19:00;CYQR 281900Z 31016G22KT 15SM FEW140 01/M07 A3022 RMK AC1 SLP260

CYQR;2011-11-28 20:00;CYQR 282000Z 32019KT 15SM FEW140 01/M07 A3024 RMK AC1 SLP266

CYQR;2011-11-28 21:00;CYQR 282100Z 30012KT 15SM FEW140 01/M07 A3025 RMK AC1 SLP273

CYQR;2011-11-28 22:00;CYQR 282200Z 33007KT 15SM FEW170 M00/M07 A3025 RMK AC1 SLP273

CYQR;2011-11-28 23:00;CYQR 282300Z 32007KT 15SM FEW270 M03/M09 A3027 RMK CI1 SLP279

CYQR;2011-11-29 00:00;CYQR 290000Z 30004KT 15SM FEW270 M04/M09 A3029 RMK CI1 SLP289

CYQR;2011-11-29 01:00;CYQR 290100Z 22005KT 15SM FEW270 M05/M09 A3029 RMK CI1 SLP289

CYQR;2011-11-29 02:00;CYQR 290200Z 21003KT 15SM FEW080 FEW270 M05/M09 A3027 RMK AC1CI0 SLP282

CYQR;2011-11-29 03:00;CYQR 290300Z 17007KT 15SM FEW080 FEW270 M05/M09 A3026 RMK AC1CI0 SLP281

CYQR;2011-11-29 04:00;CYQR 290400Z CCA 19007KT 15SM FEW065 M06/M09 A3025 RMK SC2 SLP278

CYQR;2011-11-29 05:00;CYQR 290500Z 16007KT 15SM SCT070 M05/M08 A3024 RMK AC3 SLP273

CYQR;2011-11-29 06:00;CYQR 290600Z 17008KT 15SM FEW070 M05/M09 A3022 RMK AC1 SLP268

CYQR;2011-11-29 07:00;CYQR 290700Z 17009KT 15SM SKC M05/M09 A3020 RMK SLP261

CYQR;2011-11-29 08:00;CYQR 290800Z 14011KT 15SM SKC M06/M09 A3016 RMK SLP247

CYQR;2011-11-29 09:00;CYQR 290900Z 16011KT 15SM SKC M05/M08 A3012 RMK SLP231

CYQR;2011-11-29 10:00;CYQR 291000Z 16009KT 15SM SKC M05/M08 A3009 RMK SLP222

CYQR;2011-11-29 11:00;CYQR 291100Z 16009KT 15SM SKC M05/M08 A3006 RMK SLP212

CYQR;2011-11-29 12:00;CYQR 291200Z 19010KT 15SM SKC M04/M08 A3003 RMK SLP205

CYQR;2011-11-29 13:00;CYQR 291300Z 21013KT 15SM FEW270 M03/M07 A3000 RMK CI0 SLP196

CYQR;2011-11-29 14:00;CYQR 291400Z 21007KT 15SM BKN270 M04/M07 A3000 RMK CI1 SLP195

CYQR;2011-11-29 15:00;CYQR 291500Z 18007KT 15SM BKN270 M04/M07 A2999 RMK CI2 SLP192

CYQR;2011-11-29 16:00;CYQR 291600Z 23007KT 15SM FEW094 OVC270 M02/M05 A2997 RMK AC2CI5 SLP186

CYQR;2011-11-29 17:00;CYQR 291700Z 26007KT 15SM SCT080 OVC270 M00/M04 A2998 RMK AC4CI3 SLP189

CYQR;2011-11-29 18:00;CYQR 291800Z 25008KT 15SM SCT090 OVC240 01/M03 A2998 RMK AC4CI3 SLP183

CYQR;2011-11-29 19:00;CYQR 291900Z 27007KT 15SM FEW063 SCT092 OVC220 01/M03 A2996 RMK SC1AC3CI4 SLP178

CYQR;2011-11-29 20:00;CYQR 292000Z 32005KT 15SM FEW069 BKN096 OVC220 01/M03 A2995 RMK AC2AC2CI3 SLP175

CYQR;2011-11-29 21:00;CYQR 292100Z 29005KT 15SM SCT081 OVC220 01/M03 A2994 RMK AC4CI4 SLP169

CYQR;2011-11-29 22:00;CYQR 292200Z 29007KT 15SM FEW064 BKN100 BKN220 01/M03 A2995 RMK SC2AC3CI1 SLP173

CYQR;2011-11-29 23:00;CYQR 292300Z 28004KT 15SM FEW100 BKN220 M01/M04 A2997 RMK AC1CI0 SLP179

CYQR;2011-11-30 00:00;CYQR 300000Z 31005KT 15SM FEW220 M03/M05 A2996 RMK CI1 SLP181

CYQR;2011-11-30 01:00;CYQR 300100Z 25009KT 15SM FEW120 SCT250 M04/M07 A2994 RMK AC2CI1 SLP173

CYQR;2011-11-30 02:00;CYQR 300200Z 01005KT 15SM FEW120 SCT250 M05/M08 A2995 RMK AC2CI0 SLP176

CYQR;2011-11-30 03:00;CYQR 300300Z 00000KT 15SM FEW100 BKN250 M04/M06 A2994 RMK AC2CI0 SLP173

CYQR;2011-11-30 04:00;CYQR 300400Z 00000KT 15SM BKN110 OVC250 M05/M07 A2994 RMK AC5CI2 SLP174

CYQR;2011-11-30 05:00;CYQR 300500Z 32002KT 15SM BKN100 OVC250 M04/M07 A2994 RMK AC6CI1 SLP172

CYQR;2011-11-30 06:00;CYQR 300600Z 36003KT 15SM OVC085 M04/M06 A2994 RMK AC8 SLP169

CYQR;2011-11-30 07:00;CYQR 300700Z 03005KT 15SM OVC088 M03/M06 A2993 RMK AC8 SLP165

CYQR;2011-11-30 08:00;CYQR 300800Z 05004KT 15SM OVC075 M02/M05 A2993 RMK AC8 SLP165

CYQR;2011-11-30 09:00;CYQR 300900Z 15003KT 15SM OVC072 M03/M05 A2993 RMK AC8 SLP164

CYQR;2011-11-30 10:00;CYQR 301000Z 17002KT 15SM OVC070 M03/M05 A2993 RMK AC8 SLP165

CYQR;2011-11-30 11:00;CYQR 301100Z 10006KT 15SM OVC073 M02/M06 A2994 RMK AC8 SLP168

CYQR;2011-11-30 12:00;CYQR 301200Z 08007KT 15SM OVC060 M02/M06 A2995 RMK SC8 SLP173

CYQR;2011-11-30 13:00;CYQR 301300Z 09009KT 15SM OVC054 M02/M06 A2995 RMK SC8 SLP175

CYQR;2011-11-30 14:00;CYQR 301400Z 08010KT 15SM BKN072 M02/M06 A2997 RMK AC7 SLP182

CYQR;2011-11-30 15:00;CYQR 301500Z 08011KT 15SM OVC063 M02/M06 A3000 RMK SC8 SLP192

CYQR;2011-11-30 16:00;CYQR 301600Z 08011KT 15SM OVC045 M02/M06 A3003 RMK SC8 SLP202

CYQR;2011-11-30 17:00;CYQR 301700Z 07011KT 15SM OVC037 M02/M06 A3007 RMK SC8 SLP214

CYQR;2011-11-30 18:00;CYQR 301800Z 08010KT 15SM OVC044 M02/M06 A3009 RMK SC8 SLP221

CYQR;2011-11-30 19:00;CYQR 301900Z 06012KT 15SM OVC054 M01/M07 A3011 RMK SC8 SLP230

CYQR;2011-11-30 20:00;CYQR 302000Z 05012KT 15SM OVC076 M01/M07 A3015 RMK AS8 SLP241

CYQR;2011-11-30 21:00;CYQR 302100Z 03010G16KT 15SM BKN049 OVC078 M01/M07 A3019 RMK SC6AS2 SLP257

CYQR;2011-11-30 22:00;CYQR 302200Z 01011G16KT 15SM OVC062 M02/M07 A3025 RMK SC8 SLP274

CYQR;2011-11-30 23:00;CYQR 302300Z 36013KT 15SM OVC062 M02/M07 A3029 RMK SC8 SLP287

CYQR;2011-12-01 01:00;CYQR 010100Z 36009KT 15SM BKN078 M04/M08 A3038 RMK AC5 SLP320

CYQR;2011-12-01 02:00;CYQR 010200Z 35007KT 15SM FEW034 BKN077 M05/M08 A3041 RMK SC2AC3 SLP330

CYQR;2011-12-01 02:05;CYQR 010205Z 35008KT 15SM -SN FEW034 BKN077 M05/ RMK SC2AC3

CYQR;2011-12-01 03:00;CYQR 010300Z 35007KT 15SM -SN SCT029 BKN075 M05/M09 A3043 RMK SC3AC3 SLP341

CYQR;2011-12-01 03:52;CYQR 010352Z 34007KT 15SM SCT024 BKN066 M06/ RMK SC3AC2

CYQR;2011-12-01 04:00;CYQR 010400Z 34008KT 15SM FEW031 BKN061 M07/M09 A3045 RMK SC2SC2 SLP346

CYQR;2011-12-01 05:00;CYQR 010500Z 32007KT 15SM BKN031 OVC048 M06/M09 A3046 RMK SC6SC2 SLP352

CYQR;2011-12-01 05:50;CYQR 010550Z 32007KT 15SM -SN BKN013 OVC029 M05/ RMK SC6SC2

CYQR;2011-12-01 06:00;CYQR 010600Z 32007KT 15SM -SN BKN011 OVC029 M05/M08 A3049 RMK SC6SC2 SLP361

CYQR;2011-12-01 07:00;CYQR 010700Z 32006KT 15SM -SN BKN009 OVC021 M05/M08 A3050 RMK SC6SC2 SLP363

CYQR;2011-12-01 08:00;CYQR 010800Z 00000KT 15SM -SN SCT009 OVC024 M05/M07 A3049 RMK SC4SC4 SLP360

CYQR;2011-12-01 09:00;CYQR 010900Z 25004KT 15SM -SN FEW009 OVC031 M05/M07 A3048 RMK SC2SC6 SLP358

CYQR;2011-12-01 10:00;CYQR 011000Z 25006KT 15SM -SN FEW009 OVC021 M04/M07 A3048 RMK SC2SC6 SLP358

CYQR;2011-12-01 10:34;CYQR 011034Z 25007KT 15SM -SN BKN010 OVC031 M04/ RMK SC6SC2

CYQR;2011-12-01 11:00;CYQR 011100Z 27012KT 15SM -SN BKN010 OVC051 M04/M06 A3046 RMK SC6SC2 SLP352

CYQR;2011-12-01 11:20;CYQR 011120Z 30013KT 15SM SCT010 BKN051 M04/ RMK SC3SC2

CYQR;2011-12-01 12:00;CYQR 011200Z 28008KT 15SM FEW010 M06/M09 A3045 RMK SC2 SLP351

CYQR;2011-12-01 13:00;CYQR 011300Z 27008KT 15SM FEW010 M08/M11 A3045 RMK SC1 SLP351

CYQR;2011-12-01 14:00;CYQR 011400Z 26008KT 15SM BKN094 M08/M11 A3045 RMK AC3 SLP349

CYQR;2011-12-01 15:00;CYQR 011500Z 25009KT 15SM FEW090 BKN300 M08/M10 A3042 RMK AC1CI1 SLP341

CYQR;2011-12-01 16:00;CYQR 011600Z 25007KT 15SM FEW090 BKN300 M06/M09 A3040 RMK AC1CI1 SLP335

CYQR;2011-12-01 17:00;CYQR 011700Z 23011KT 15SM BKN300 M06/M09 A3036 RMK CI1 SLP323

CYQR;2011-12-01 18:00;CYQR 011800Z 23015KT 15SM BKN300 M04/M08 A3032 RMK CI1 SLP304

CYQR;2011-12-01 19:00;CYQR 011900Z 24021G26KT 15SM FEW300 M01/M07 A3025 RMK CI0 SLP281

CYQR;2011-12-01 20:00;CYQR 012000Z 25021G28KT 15SM SCT130 BKN300 M01/M06 A3018 RMK AC1CI0 SLP260

CYQR;2011-12-01 21:00;CYQR 012100Z 26020G28KT 15SM FEW130 BKN300 M01/M06 A3015 RMK AC2CI4 SLP242

CYQR;2011-12-01 22:00;CYQR 012200Z 25017KT 15SM BKN130 OVC300 M01/M07 A3010 RMK AS5CI2 SLP226

CYQR;2011-12-01 23:00;CYQR 012300Z 25014KT 15SM FEW130 BKN300 M02/M08 A3005 RMK AS1CI1 SLP212

CYQR;2011-12-02 00:00;CYQR 020000Z 23014KT 15SM FEW120 BKN300 M04/M08 A3000 RMK AC1CI0 SLP193

CYQR;2011-12-02 01:00;CYQR 020100Z 23012KT 15SM FEW073 M04/M08 A2995 RMK AC2 SLP179

CYQR;2011-12-02 02:00;CYQR 020200Z 23016KT 15SM SCT087 BKN250 M03/M08 A2990 RMK AC4CI1 SLP163

CYQR;2011-12-02 03:00;CYQR 020300Z 24016G21KT 15SM OVC089 M02/M07 A2985 RMK AC8 SLP144

CYQR;2011-12-02 04:00;CYQR 020400Z 24017KT 15SM OVC089 M01/M06 A2981 RMK AC7 SLP129

CYQR;2011-12-02 05:00;CYQR 020500Z 22014KT 15SM OVC086 M01/M06 A2976 RMK AC8 SLP113

CYQR;2011-12-02 06:00;CYQR 020600Z 22017KT 15SM OVC087 M01/M06 A2970 RMK AC8 PRESFR SLP087

CYQR;2011-12-02 07:00;CYQR 020700Z 23017KT 15SM OVC075 M00/M06 A2966 RMK AC8 SLP074

CYQR;2011-12-02 08:00;CYQR 020800Z 22019KT 15SM OVC069 01/M06 A2961 RMK AC8 SLP059

CYQR;2011-12-02 09:00;CYQR 020900Z 22015KT 15SM OVC069 00/M06 A2957 RMK AC8 SLP040

CYQR;2011-12-02 10:00;CYQR 021000Z 23014KT 15SM OVC060 01/M05 A2955 RMK SC8 SLP033

CYQR;2011-12-02 11:00;CYQR 021100Z 23010KT 15SM OVC051 00/M05 A2951 RMK SC8 SLP023

CYQR;2011-12-02 11:35;CYQR 021135Z 26004KT 15SM -SHSN OVC028 M00/ RMK SC8

CYQR;2011-12-02 12:00;CYQR 021200Z 27009KT 15SM -SHSN OVC018 00/M05 A2949 RMK SC8 SLP014

CYQR;2011-12-02 12:46;CYQR 021246Z 28012KT 2 1/2SM -SHSN BKN010 OVC066 M01/ RMK SC6AC2

CYQR;2011-12-02 12:51;CYQR 021251Z 29011KT 3/4SM R13/P6000FT/D -SHSN OVC066 M01/ RMK SN6AC2

CYQR;2011-12-02 12:54;CYQR 021254Z 28009KT 3/8SM R13/P6000FT/D SHSN VV003 M01/ RMK SN8

CYQR;2011-12-02 13:00;CYQR 021300Z 29007KT 1SM R13/P6000FT/U -SHSN OVC066 M01/M02 A2950 RMK SN5AC3 SLP016

CYQR;2011-12-02 13:42;CYQR 021342Z 31015KT 1 1/2SM -SHSN BKN003 OVC020 00/ RMK SC6SC2 CVCTV CLD EMBD

CYQR;2011-12-02 14:00;CYQR 021400Z 32018KT 2SM -SHSN BKN005 OVC016 01/M00 A2951 RMK SC6SC2 VIS W 4SM CVCTV CLD EMBD SLP021

CYQR;2011-12-02 14:13;CYQR 021413Z 32020KT 10SM -SHSN BKN005 OVC016 01/ RMK SC6SC2

CYQR;2011-12-02 14:37;CYQR 021437Z 32013G19KT 15SM FEW005 OVC063 01/ RMK SF1SC8

CYQR;2011-12-02 15:00;CYQR 021500Z 30011KT 15SM FEW005 OVC063 01/M01 A2952 RMK SF1SC8 SLP023

CYQR;2011-12-02 16:00;CYQR 021600Z 28019KT 15SM BKN052 BKN073 OVC230 01/M01 A2953 RMK SC5AC2CI0 SLP028

CYQR;2011-12-02 17:00;CYQR 021700Z 30015G25KT 15SM FEW050 SCT090 BKN230 00/M03 A2957 RMK SC1AC1CI0 SLP039

CYQR;2011-12-02 18:00;CYQR 021800Z 30021G26KT 15SM FEW090 FEW300 01/M03 A2958 RMK AC1CI1 SLP044

CYQR;2011-12-02 19:00;CYQR 021900Z 30023KT 15SM FEW020 FEW100 FEW300 01/M03 A2960 RMK SC1AC1CI1 SLP048

CYQR;2011-12-02 20:00;CYQR 022000Z 29018G24KT 15SM FEW020 FEW100 01/M04 A2961 RMK SC1AC0 SLP052

CYQR;2011-12-02 21:00;CYQR 022100Z 29020G26KT 15SM SCT028 SCT095 01/M04 A2963 RMK SC2AC1 SLP059

CYQR;2011-12-02 22:00;CYQR 022200Z 28018KT 15SM BKN030 BKN100 00/M03 A2964 RMK SC7AC1 SLP064

CYQR;2011-12-02 23:00;CYQR 022300Z 28017KT 15SM BKN024 OVC061 00/M03 A2966 RMK SC7SC1 VIRGA SE SLP069

CYQR;2011-12-02 23:15;CYQR 022315Z 28016KT 15SM -SN OVC020 00/ RMK SC8

CYQR;2011-12-03 00:00;CYQR 030000Z 28015KT 15SM -SN OVC025 00/M02 A2967 RMK SC8 SLP075

CYQR;2011-12-03 01:00;CYQR 030100Z 31026G32KT 12SM -SHSN BKN015 OVC055 M01/M04 A2970 RMK SC7SC1 SLP083

CYQR;2011-12-03 02:00;CYQR 030200Z 32026G31KT 8SM -SHSN DRSN BKN016 OVC029 M03/M06 A2975 RMK SC7SC1 SLP098

CYQR;2011-12-03 03:00;CYQR 030300Z 32025G31KT 15SM -SHSN DRSN OVC020 M04/M08 A2978 RMK SC8 SLP115

CYQR;2011-12-03 04:00;CYQR 030400Z 33029G35KT 15SM -SHSN OVC026 M06/M11 A2984 RMK SC8 SLP132

CYQR;2011-12-03 05:00;CYQR 030500Z 33020G29KT 15SM -SHSN SCT022 BKN032 M07/M12 A2988 RMK SC3SC2 SLP146

CYQR;2011-12-03 06:00;CYQR 030600Z 34020G27KT 15SM -SHSN DRSN SCT022 BKN050 M08/M12 A2991 RMK SC4SC2 SLP164

CYQR;2011-12-03 07:00;CYQR 030700Z 32017G25KT 15SM -SHSN OVC020 M08/M12 A2994 RMK SC8 SLP172

CYQR;2011-12-03 08:00;CYQR 030800Z 33017KT 15SM -SHSN OVC018 M08/M11 A2996 RMK SC8 SLP178

CYQR;2011-12-03 09:00;CYQR 030900Z 33014G20KT 15SM -SHSN OVC018 M07/M11 A3000 RMK SC8 SLP192

CYQR;2011-12-03 10:00;CYQR 031000Z 33012KT 15SM -SHSN OVC018 M07/M12 A3002 RMK SC8 SLP198

CYQR;2011-12-03 11:00;CYQR 031100Z 31013G18KT 15SM -SHSN OVC016 M07/M11 A3002 RMK SC8 SLP200

CYQR;2011-12-03 12:00;CYQR 031200Z 31014KT 15SM -SN BKN016 M09/M14 A3004 RMK SC6 SLP208

CYQR;2011-12-03 12:31;CYQR 031231Z 31014KT 15SM SCT016 M12/ RMK SC3

CYQR;2011-12-03 13:00;CYQR 031300Z 30012KT 15SM FEW082 M13/M16 A3005 RMK AC2 SLP213

CYQR;2011-12-03 14:00;CYQR 031400Z 30010KT 15SM FEW013 FEW077 M13/M17 A3007 RMK SC1AC0 SLP218

CYQR;2011-12-03 15:00;CYQR 031500Z 26007KT 15SM FEW094 M15/M18 A3008 RMK AC0 SLP228

CYQR;2011-12-03 16:00;CYQR 031600Z 26007KT 15SM FEW110 M14/M17 A3007 RMK AC1 SLP227

CYQR;2011-12-03 17:00;CYQR 031700Z 23007KT 15SM FEW110 FEW250 M12/M15 A3007 RMK AC1CI0 SLP227

CYQR;2011-12-03 18:00;CYQR 031800Z 26006KT 15SM FEW250 M10/M15 A3005 RMK CI1 SLP220

CYQR;2011-12-03 19:00;CYQR 031900Z 23005KT 15SM FEW130 BKN250 M09/M14 A3003 RMK AC1CI3 SLP211

CYQR;2011-12-03 20:00;CYQR 032000Z 20004KT 15SM BKN130 BKN250 M08/M13 A3000 RMK AC6CI1 SLP203

CYQR;2011-12-03 21:00;CYQR 032100Z 18007KT 15SM SCT130 OVC250 M07/M12 A2999 RMK AC2CI5 SLP194

CYQR;2011-12-03 22:00;CYQR 032200Z 17006KT 15SM FEW041 BKN130 BKN250 M07/M11 A2996 RMK SC1AC6CI1 SLP187

CYQR;2011-12-03 23:00;CYQR 032300Z 18009KT 15SM BKN130 BKN250 M07/M12 A2995 RMK AC2CI3 SLP182

CYQR;2011-12-04 00:00;CYQR 040000Z 17006KT 15SM FEW130 SCT250 M08/M12 A2993 RMK AC2CI1 SLP177

CYQR;2011-12-04 01:00;CYQR 040100Z 12005KT 15SM OVC077 M07/M11 A2993 RMK AC8 SLP177

CYQR;2011-12-04 02:00;CYQR 040200Z 15005KT 15SM -SN SCT046 OVC073 M07/M11 A2994 RMK SC4AC4 SLP178

CYQR;2011-12-04 03:00;CYQR 040300Z 14006KT 15SM -SN OVC042 M07/M11 A2993 RMK SC8 SLP179

CYQR;2011-12-04 04:00;CYQR 040400Z 13006KT 15SM -SN SCT039 OVC086 M07/M11 A2992 RMK SC4AC4 SLP177

CYQR;2011-12-04 05:00;CYQR 040500Z 17003KT 15SM -SN OVC052 M07/M10 A2992 RMK SC8 SLP177

CYQR;2011-12-04 06:00;CYQR 040600Z 33002KT 12SM -SN OVC040 M07/M10 A2993 RMK SC8 SLP176

CYQR;2011-12-04 07:00;CYQR 040700Z 34011KT 12SM -SN BKN013 OVC047 M06/M08 A2995 RMK SC6SC2 SLP181

CYQR;2011-12-04 07:12;CYQR 040712Z 34012KT 8SM -SN BKN009 OVC040 M06/ RMK SC6SC2

CYQR;2011-12-04 08:00;CYQR 040800Z 35022KT 10SM -SN DRSN OVC008 M06/M09 A2997 RMK SC8 SLP189

CYQR;2011-12-04 09:00;CYQR 040900Z 35021G29KT 15SM -SN DRSN BKN011 OVC029 M07/M11 A3001 RMK SC6SC2 SLP201

CYQR;2011-12-04 10:00;CYQR 041000Z 35026KT 10SM -SN DRSN OVC013 M09/M13 A3006 RMK SC8 /S01/ SLP218

CYQR;2011-12-04 11:00;CYQR 041100Z 35022G27KT 8SM -SN DRSN OVC015 M11/M14 A3011 RMK SC8 SLP233

CYQR;2011-12-04 12:00;CYQR 041200Z 35020G26KT 15SM -SN DRSN FEW015 BKN044 M11/M15 A3015 RMK SC2SC5 SLP254

CYQR;2011-12-04 13:00;CYQR 041300Z 36018G24KT 15SM -SN DRSN FEW015 BKN055 M12/M16 A3021 RMK SC2SC4 PRESRR SLP273

CYQR;2011-12-04 14:00;CYQR 041400Z 35021G28KT 12SM -SN DRSN BKN015 BKN031 M12/M16 A3027 RMK SC3SC2 OBS TAKEN +08 SLP292

CYQR;2011-12-04 15:00;CYQR 041500Z 35018G24KT 3SM -SHSN DRSN BKN024 M12/M16 A3030 RMK SC6 CVCTV CLD EMBD VIS S-W 1 1/2 SLP305

CYQR;2011-12-04 15:10;CYQR 041510Z 35019G25KT 2SM -SHSN DRSN BKN024 M12/ RMK SC6 VIS VRB 11/2-21/2

CYQR;2011-12-04 16:00;CYQR 041600Z 36019G24KT 2SM -SHSN DRSN OVC045 M12/M16 A3033 RMK SC7 VIS VRB 11/2-21/2 SLP315

CYQR;2011-12-04 17:00;CYQR 041700Z 36015G21KT 3SM -SN DRSN OVC044 M12/M16 A3038 RMK SC7 SLP331

CYQR;2011-12-04 17:36;CYQR 041736Z 36017G27KT 10SM DRSN BKN044 M12/ RMK SC3

CYQR;2011-12-04 18:00;CYQR 041800Z 36022KT 10SM DRSN FEW012 BKN045 M12/M17 A3040 RMK SC1SC3 SLP339

CYQR;2011-12-04 19:00;CYQR 041900Z 01019KT 15SM DRSN FEW022 BKN045 M12/M17 A3042 RMK SC2SC2 SLP346

CYQR;2011-12-04 19:27;CYQR 041927Z 36016KT 12SM -SN DRSN BKN027 OVC045 M12/ RMK SC7SC1

CYQR;2011-12-04 20:00;CYQR 042000Z 01015G20KT 12SM -SN DRSN OVC018 M12/M17 A3043 RMK SC8 SLP350

CYQR;2011-12-04 21:00;CYQR 042100Z 36014KT 15SM OVC024 M12/M18 A3046 RMK SC8 SLP360

CYQR;2011-12-04 21:34;CYQR 042134Z 34015KT 7SM -SN OVC022 M12/ RMK SC8

CYQR;2011-12-04 22:00;CYQR 042200Z 34016KT 15SM BKN022 M13/M18 A3048 RMK SC7 SH DIST S SLP366

CYQR;2011-12-04 23:00;CYQR 042300Z 35010G16KT 15SM BKN022 M14/M20 A3050 RMK SC2 SLP374

CYQR;2011-12-05 00:00;CYQR 050000Z 33009KT 15SM FEW022 FEW050 M17/M21 A3052 RMK SC1SC1 SLP388

CYQR;2011-12-05 01:00;CYQR 050100Z 34004KT 15SM BKN021 BKN080 M17/M21 A3053 RMK SC5AC1 SLP390

CYQR;2011-12-05 02:00;CYQR 050200Z 34005KT 15SM SCT020 BKN080 M17/M21 A3052 RMK SC2AC1 SLP389

CYQR;2011-12-05 03:00;CYQR 050300Z 23002KT 15SM BKN020 BKN080 M19/M22 A3052 RMK SC3AC2 SLP391

CYQR;2011-12-05 04:00;CYQR 050400Z 24004KT 15SM -SN BKN022 BKN080 M17/M21 A3053 RMK SC5AC2 SLP392

CYQR;2011-12-05 04:34;CYQR 050434Z 18002KT 15SM BKN022 BKN080 M17/ RMK SC6AC1

CYQR;2011-12-05 05:00;CYQR 050500Z 19003KT 15SM BKN022 BKN080 M17/M20 A3052 RMK SC5AC2 SLP390

CYQR;2011-12-05 05:43;CYQR 050543Z 20004KT 15SM -SN BKN022 M17/ RMK SC6

CYQR;2011-12-05 06:00;CYQR 050600Z 19005KT 15SM -SN BKN022 OVC100 M17/M20 A3050 RMK SC6AC2 SLP382

CYQR;2011-12-05 07:00;CYQR 050700Z 25004KT 15SM -SN BKN022 BKN100 M17/M20 A3049 RMK SC5AC1 SLP377

CYQR;2011-12-05 07:46;CYQR 050746Z 24007KT 15SM SCT022 M19/ RMK SC2

CYQR;2011-12-05 08:00;CYQR 050800Z 22005KT 15SM FEW022 M20/M23 A3047 RMK SC2 SLP372

CYQR;2011-12-05 09:00;CYQR 050900Z 23005KT 15SM FEW020 M20/M23 A3046 RMK SC1 SLP372

CYQR;2011-12-05 10:00;CYQR 051000Z 22005KT 15SM FEW030 M21/M24 A3046 RMK SC1 SLP370

CYQR;2011-12-05 11:00;CYQR 051100Z 19005KT 15SM FEW035 M21/M24 A3043 RMK SC2 SLP360

CYQR;2011-12-05 12:00;CYQR 051200Z 14006KT 15SM BKN036 M19/M22 A3041 RMK SC6 SLP357

CYQR;2011-12-05 13:00;CYQR 051300Z 15005KT 15SM BKN036 M18/M22 A3040 RMK SC6 FROIN SLP353

CYQR;2011-12-05 14:00;CYQR 051400Z 13005KT 15SM FEW035 M20/M23 A3039 RMK SC1 FROIN SLP349

CYQR;2011-12-05 15:00;CYQR 051500Z 16005KT 15SM FEW035 M19/M22 A3036 RMK SC1 SLP342

CYQR;2011-12-05 16:00;CYQR 051600Z 15007KT 15SM FEW030 M17/M21 A3036 RMK SC1 SLP342

CYQR;2011-12-05 17:00;CYQR 051700Z 17006KT 15SM FEW030 FEW280 M15/M19 A3036 RMK SC1CI0 SLP341

CYQR;2011-12-05 18:00;CYQR 051800Z 17009KT 15SM FEW074 FEW280 M13/M17 A3032 RMK AC1CI0 SLP322

CYQR;2011-12-05 19:00;CYQR 051900Z 18012KT 15SM SCT280 M12/M16 A3026 RMK CI2 PRESFR SLP303

CYQR;2011-12-05 20:00;CYQR 052000Z 18014KT 15SM SCT280 M11/M15 A3024 RMK CI1 SLP296

CYQR;2011-12-05 21:00;CYQR 052100Z 19012KT 15SM SCT280 M10/M15 A3021 RMK CI1 SLP284

CYQR;2011-12-05 22:00;CYQR 052200Z 19013KT 15SM SCT280 M10/M15 A3019 RMK CI1 SLP276

CYQR;2011-12-05 23:00;CYQR 052300Z 18011KT 15SM SCT280 M11/M15 A3013 RMK CI1 SLP258

CYQR;2011-12-06 00:00;CYQR 060000Z 17011KT 15SM SCT280 M12/M15 A3011 RMK CI1 SLP250

CYQR;2011-12-06 01:00;CYQR 060100Z 17012KT 15SM BKN300 M11/M15 A3007 RMK CI1 SLP236

CYQR;2011-12-06 02:00;CYQR 060200Z 17012KT 15SM FEW120 BKN300 M12/M16 A3005 RMK AC1CI1 SLP229

CYQR;2011-12-06 03:00;CYQR 060300Z 18011KT 15SM FEW090 BKN300 M12/M16 A3002 RMK AC2CI1 SLP219

CYQR;2011-12-06 04:00;CYQR 060400Z 18010KT 15SM FEW080 OVC300 M11/M15 A3000 RMK AC2CI1 SLP210

CYQR;2011-12-06 05:00;CYQR 060500Z 18011KT 15SM FEW095 BKN300 M11/M15 A2995 RMK AC1CI1 SLP196

CYQR;2011-12-06 06:00;CYQR 060600Z 18011KT 15SM SCT090 OVC300 M10/M14 A2991 RMK AC3CI2 SLP172

CYQR;2011-12-06 07:00;CYQR 060700Z 17011KT 15SM BKN110 OVC300 M08/M13 A2987 RMK AC6CI2 SLP160

CYQR;2011-12-06 08:00;CYQR 060800Z 18011KT 15SM BKN110 OVC300 M07/M12 A2983 RMK AC7CI1 SLP148

CYQR;2011-12-06 09:00;CYQR 060900Z 19012KT 15SM SCT100 OVC300 M05/M10 A2978 RMK AC3CI2 SLP124

CYQR;2011-12-06 10:00;CYQR 061000Z 20009KT 15SM SCT100 OVC300 M06/M10 A2975 RMK AC4CI4 SLP113

CYQR;2011-12-06 11:00;CYQR 061100Z 23010KT 15SM FEW100 BKN300 M05/M10 A2971 RMK AC2CI1 SLP100

CYQR;2011-12-06 12:00;CYQR 061200Z 22012KT 15SM FEW090 BKN250 M06/M10 A2967 RMK AC1CI1 SLP086

CYQR;2011-12-06 13:00;CYQR 061300Z 24014KT 15SM FEW090 BKN250 M04/M09 A2962 RMK AC1CI1 SLP071

CYQR;2011-12-06 14:00;CYQR 061400Z 25012KT 15SM FEW080 M04/M09 A2960 RMK AC1 SLP064

CYQR;2011-12-06 15:00;CYQR 061500Z 26017KT 15SM FEW080 M04/M08 A2958 RMK AC2 SLP054

CYQR;2011-12-06 16:00;CYQR 061600Z 26014KT 15SM FEW083 M02/M07 A2958 RMK AC2 SLP054

CYQR;2011-12-06 17:00;CYQR 061700Z 27020KT 15SM FEW085 M00/M05 A2960 RMK AC2 SLP059

CYQR;2011-12-06 18:00;CYQR 061800Z 27019G24KT 15SM FEW085 03/M03 A2960 RMK AC2 SLP056

CYQR;2011-12-06 19:00;CYQR 061900Z 28019KT 15SM FEW250 04/M01 A2960 RMK CI2 SLP056

CYQR;2011-12-06 20:00;CYQR 062000Z 29020KT 15SM BKN250 04/M01 A2962 RMK CI1 SLP062

CYQR;2011-12-06 21:00;CYQR 062100Z 29018KT 15SM FEW085 BKN250 04/M01 A2964 RMK AC1CI1 SLP063

CYQR;2011-12-06 22:00;CYQR 062200Z 29014KT 15SM FEW020 SCT250 03/M01 A2967 RMK SC1CI2 CONTRAILS SLP073

CYQR;2011-12-06 22:42;CYQR 062242Z 31013KT 15SM BKN035 BKN250 02/ RMK SC6CI0

CYQR;2011-12-06 23:00;CYQR 062300Z 31012KT 15SM BKN035 02/M01 A2973 RMK SC7 PRESRR SLP093

CYQR;2011-12-07 00:00;CYQR 070000Z CCA 32013KT 15SM BKN034 03/M01 A2979 RMK SC6 PRESRR SLP118

CYQR;2011-12-07 01:00;CYQR 070100Z 33020G26KT 15SM SCT050 BKN095 01/M04 A2985 RMK SC4AC3 SLP136

CYQR;2011-12-07 02:00;CYQR 070200Z 35019KT 15SM SCT028 OVC090 M00/M06 A2990 RMK SC4AC4 SLP152

CYQR;2011-12-07 03:00;CYQR 070300Z 34012G17KT 15SM FEW030 OVC090 M02/M06 A2994 RMK SC2AC5 SLP170

CYQR;2011-12-07 04:00;CYQR 070400Z 34011KT 15SM FEW030 BKN110 M03/M07 A2996 RMK SC2AC6 SLP178

CYQR;2011-12-07 05:00;CYQR 070500Z 33009KT 15SM BKN140 M04/M08 A2999 RMK AC6 SLP188

CYQR;2011-12-07 06:00;CYQR 070600Z 32009KT 15SM BKN120 M05/M08 A3002 RMK AC5 SLP195

CYQR;2011-12-07 07:00;CYQR 070700Z 32007KT 15SM BKN120 M06/M09 A3002 RMK AC4 SLP196

CYQR;2011-12-07 08:00;CYQR 070800Z 31007KT 15SM FEW040 BKN120 M07/M10 A3001 RMK SC1AC2 SLP193

CYQR;2011-12-07 09:00;CYQR 070900Z 28008KT 15SM FEW040 FEW120 M08/M10 A3002 RMK SC1AC1 SLP197

CYQR;2011-12-07 10:00;CYQR 071000Z 30010KT 15SM BKN032 BKN120 M07/M10 A3002 RMK SC5AC1 SLP198

CYQR;2011-12-07 11:00;CYQR 071100Z 29011KT 15SM FEW040 M06/M09 A3002 RMK SC2 SLP196

CYQR;2011-12-07 12:00;CYQR 071200Z 32017KT 15SM FEW040 M06/M10 A3004 RMK SC2 SLP205

CYQR;2011-12-07 13:00;CYQR 071300Z 32016KT 15SM FEW040 M07/M11 A3005 RMK SC2 SLP207

CYQR;2011-12-07 14:00;CYQR 071400Z 31012KT 15SM FEW040 FEW130 M08/M11 A3008 RMK SC1AC1 SLP216

CYQR;2011-12-07 15:00;CYQR 071500Z 30009KT 15SM FEW020 SCT094 BKN260 M10/M13 A3009 RMK SC2AC2CI0 SLP226

CYQR;2011-12-07 16:00;CYQR 071600Z 32007KT 15SM BKN018 BKN094 M09/M12 A3010 RMK SC3AC2 SLP231

CYQR;2011-12-07 17:00;CYQR 071700Z 30009KT 15SM FEW018 FEW100 FEW260 M08/M11 A3012 RMK SC1AC1CI0 SLP236

CYQR;2011-12-07 18:00;CYQR 071800Z 29012KT 15SM FEW018 SCT046 BKN096 BKN260 M07/M11 A3011 RMK SC1SC3AC2CI1 SLP236

CYQR;2011-12-07 19:00;CYQR 071900Z 29017KT 15SM FEW018 BKN048 BKN096 M06/M12 A3008 RMK CF1SC5AC2 SLP226

CYQR;2011-12-07 19:30;CYQR 071930Z 29015KT 15SM -SN BKN012 BKN026 OVC250 M06/ RMK SC5SC2CI1

CYQR;2011-12-07 20:00;CYQR 072000Z 29024G30KT 10SM -SHSN BKN012 BKN040 BKN250 M06/M11 A3006 RMK SC5SC1CI0 CU TOPS NORTH SLP219

CYQR;2011-12-07 20:24;CYQR 072024Z 30032KT 12SM -SHSN BKN018 BKN260 M06/ RMK SC5CI0 CU EMBD

CYQR;2011-12-07 20:54;CYQR 072054Z 31027KT 15SM SCT030 SCT082 BKN250 M07/ RMK CU3AC1CI0

CYQR;2011-12-07 21:00;CYQR 072100Z 31026G31KT 15SM SCT030 SCT082 BKN250 M07/M14 A3006 RMK CU3AC1CI0 SLP218

CYQR;2011-12-07 22:00;CYQR 072200Z CCA 33021G29KT 15SM VCSH SCT035 M08/M16 A3008 RMK CU4 SLP225

CYQR;2011-12-07 23:00;CYQR 072300Z 30012KT 15SM FEW043 M10/M16 A3010 RMK SC2 CU ASOCTD VIRGA SLP230

CYQR;2011-12-08 00:00;CYQR 080000Z 29013KT 15SM FEW060 M11/M17 A3010 RMK SC1 SLP233

CYQR;2011-12-08 01:00;CYQR 080100Z 30015KT 15SM FEW050 M11/M16 A3009 RMK SC1 SLP232

CYQR;2011-12-08 02:00;CYQR 080200Z 29015KT 15SM SKC M11/M17 A3008 RMK SLP229

CYQR;2011-12-08 03:00;CYQR 080300Z 29016KT 15SM FEW050 M11/M16 A3010 RMK SC1 SLP236

CYQR;2011-12-08 04:00;CYQR 080400Z 32026G35KT 15SM FEW030 M10/M17 A3009 RMK SC2 SLP234

CYQR;2011-12-08 05:00;CYQR 080500Z 31021G27KT 15SM FEW040 M11/M18 A3009 RMK SC1 SLP235

CYQR;2011-12-08 06:00;CYQR 080600Z 31017G22KT 15SM FEW040 M12/M18 A3010 RMK SC1 SLP237

CYQR;2011-12-08 07:00;CYQR 080700Z 31017G24KT 15SM SKC M13/M18 A3010 RMK SLP235

CYQR;2011-12-08 08:00;CYQR 080800Z 31017KT 15SM SKC M13/M19 A3010 RMK SLP238

CYQR;2011-12-08 09:00;CYQR 080900Z 31017KT 15SM SKC M14/M19 A3010 RMK SLP237

CYQR;2011-12-08 10:00;CYQR 081000Z 31016KT 15SM SKC M15/M19 A3011 RMK SLP240

CYQR;2011-12-08 11:00;CYQR 081100Z 31015G22KT 15SM SKC M15/M20 A3011 RMK SLP240

CYQR;2011-12-08 12:00;CYQR 081200Z 30016KT 15SM SKC M15/M20 A3011 RMK SLP245

CYQR;2011-12-08 13:00;CYQR 081300Z 30015KT 15SM SKC M16/M21 A3012 RMK SLP248

CYQR;2011-12-08 14:00;CYQR 081400Z 30018KT 15SM SKC M16/M21 A3012 RMK SLP247

CYQR;2011-12-08 15:00;CYQR 081500Z 30018KT 15SM SKC M16/M21 A3011 RMK SLP246

CYQR;2011-12-08 16:00;CYQR 081600Z 29014KT 15SM SKC M15/M21 A3013 RMK SLP252

CYQR;2011-12-08 17:00;CYQR 081700Z 31017G22KT 15SM SKC M14/M21 A3013 RMK SLP252

CYQR;2011-12-08 18:00;CYQR 081800Z 30017G22KT 15SM SKC M14/M20 A3013 RMK SLP252

CYQR;2011-12-08 19:00;CYQR 081900Z 30018G24KT 15SM SKC M13/M20 A3012 RMK SLP248

CYQR;2011-12-08 20:00;CYQR 082000Z 30019KT 15SM SKC M12/M21 A3011 RMK SLP245

CYQR;2011-12-08 21:00;CYQR 082100Z 31016KT 15SM SKC M12/M21 A3010 RMK SLP241

CYQR;2011-12-08 22:00;CYQR 082200Z 30016KT 15SM SKC M13/M22 A3010 RMK SLP241

CYQR;2011-12-08 23:00;CYQR 082300Z 32011KT 15SM FEW090 M14/M22 A3011 RMK AC1 SLP245

CYQR;2011-12-09 00:00;CYQR 090000Z 31007KT 15SM FEW090 M16/M22 A3012 RMK AC1 SLP253

CYQR;2011-12-09 01:00;CYQR 090100Z 28007KT 15SM FEW090 M18/M23 A3013 RMK AC1 SLP255

CYQR;2011-12-09 02:00;CYQR 090200Z 30008KT 15SM SKC M18/M23 A3013 RMK SLP257

CYQR;2011-12-09 03:00;CYQR 090300Z 30009KT 15SM SKC M17/M21 A3014 RMK SLP262

CYQR;2011-12-09 04:00;CYQR 090400Z 30012KT 15SM SKC M17/M22 A3015 RMK SLP265

CYQR;2011-12-09 05:00;CYQR 090500Z 30004KT 15SM SKC M19/M23 A3018 RMK SLP273

CYQR;2011-12-09 06:00;CYQR 090600Z 32007KT 15SM SKC M19/M23 A3018 RMK SLP276

CYQR;2011-12-09 07:00;CYQR 090700Z 29004KT 15SM SKC M20/M24 A3019 RMK SLP277

CYQR;2011-12-09 08:00;CYQR 090800Z 29005KT 15SM SKC M20/M23 A3019 RMK SLP278

CYQR;2011-12-09 09:00;CYQR 090900Z 27007KT 15SM SKC M21/M24 A3020 RMK SLP280

CYQR;2011-12-09 10:00;CYQR 091000Z 29003KT 15SM SKC M21/M25 A3020 RMK SLP282

CYQR;2011-12-09 11:00;CYQR 091100Z 26004KT 15SM SKC M21/M25 A3020 RMK SLP281

CYQR;2011-12-09 12:00;CYQR 091200Z 27006KT 15SM SKC M22/M26 A3020 RMK SLP287

CYQR;2011-12-09 13:00;CYQR 091300Z 23005KT 15SM SKC M21/M25 A3019 RMK SLP282

CYQR;2011-12-09 14:00;CYQR 091400Z 23004KT 15SM FEW300 M21/M26 A3018 RMK CI0 SLP280

CYQR;2011-12-09 15:00;CYQR 091500Z 20004KT 15SM FEW180 FEW300 M21/M25 A3016 RMK AC1CI0 SLP271

CYQR;2011-12-09 16:00;CYQR 091600Z 19004KT 15SM FEW078 SCT300 M19/M23 A3015 RMK AC1CI0 SLP267

CYQR;2011-12-09 17:00;CYQR 091700Z 18006KT 15SM FEW300 M16/M20 A3015 RMK CI0 SLP267

CYQR;2011-12-09 18:00;CYQR 091800Z 20007KT 15SM FEW220 BKN300 M14/M18 A3013 RMK CC1CI0 SLP256

CYQR;2011-12-09 19:00;CYQR 091900Z 20009KT 15SM FEW120 FEW220 BKN300 M11/M17 A3008 RMK AC2CC1CI0 SLP241

CYQR;2011-12-09 20:00;CYQR 092000Z 20008KT 15SM BKN042 BKN090 M10/M15 A3005 RMK SC5AC2 SLP230

CYQR;2011-12-09 21:00;CYQR 092100Z 20008KT 15SM BKN038 M08/M13 A3000 RMK SC5 SLP211

CYQR;2011-12-09 22:00;CYQR 092200Z 18009KT 15SM SCT037 BKN091 BKN280 M07/M14 A2996 RMK SC3AC2CI0 SLP196

CYQR;2011-12-09 23:00;CYQR 092300Z 18008KT 15SM BKN041 BKN093 OVC280 M07/M13 A2994 RMK SC5AC2CI0 SLP190

CYQR;2011-12-10 00:00;CYQR 100000Z 19006KT 15SM BKN060 M06/M11 A2992 RMK SC6 SLP182

CYQR;2011-12-10 01:00;CYQR 100100Z 21011KT 15SM BKN065 M05/M10 A2989 RMK SC7 SLP171

CYQR;2011-12-10 02:00;CYQR 100200Z 23008KT 15SM FEW070 M07/M11 A2988 RMK AC2 SLP169

CYQR;2011-12-10 03:00;CYQR 100300Z 26007KT 15SM SCT070 M07/M10 A2988 RMK AC2 CONTRAILS SLP166

CYQR;2011-12-10 04:00;CYQR 100400Z 27010KT 15SM FEW250 M07/M10 A2987 RMK CI0 SLP163

CYQR;2011-12-10 05:00;CYQR 100500Z 30002KT 15SM FEW250 M08/M11 A2988 RMK CI0 SLP166

CYQR;2011-12-10 06:00;CYQR 100600Z 26008KT 15SM FEW250 M08/M11 A2989 RMK CI0 SLP167

CYQR;2011-12-10 07:00;CYQR 100700Z 28008KT 15SM SKC M09/M12 A2989 RMK SLP167

CYQR;2011-12-10 08:00;CYQR 100800Z 28009KT 15SM SKC M08/M11 A2990 RMK SLP168

CYQR;2011-12-10 09:00;CYQR 100900Z 27003KT 15SM SKC M09/M12 A2991 RMK CONTRAILS SLP168

CYQR;2011-12-10 10:00;CYQR 101000Z 27004KT 15SM SCT250 M10/M13 A2991 RMK CI0 SLP169

CYQR;2011-12-10 11:00;CYQR 101100Z 25006KT 15SM BKN250 M11/M14 A2990 RMK CI0 SLP166

CYQR;2011-12-10 12:00;CYQR 101200Z 22007KT 15SM SCT250 M11/M14 A2989 RMK CI0 SLP161

CYQR;2011-12-10 13:00;CYQR 101300Z 18004KT 15SM FEW250 M10/M13 A2987 RMK CI0 SLP156

CYQR;2011-12-10 14:00;CYQR 101400Z 21005KT 15SM SCT250 M09/M12 A2986 RMK CI1 SLP154

CYQR;2011-12-10 15:00;CYQR 101500Z 14007KT 15SM FEW180 BKN250 M11/M14 A2984 RMK AC1CI2 SLP145

CYQR;2011-12-10 16:00;CYQR 101600Z 13006KT 15SM FEW180 BKN250 M10/M13 A2982 RMK AC1CI3 SLP140

CYQR;2011-12-10 17:00;CYQR 101700Z 16005KT 15SM BKN250 M06/M10 A2981 RMK CI2 SLP136

CYQR;2011-12-10 18:00;CYQR 101800Z 13005KT 15SM FEW180 OVC250 M02/M07 A2978 RMK AC1CI3 SLP120

CYQR;2011-12-10 19:00;CYQR 101900Z 14008KT 15SM BKN250 M00/M05 A2974 RMK CI2 SLP107

CYQR;2011-12-10 20:00;CYQR 102000Z 17007KT 15SM BKN250 03/M03 A2970 RMK CI2 SLP093

CYQR;2011-12-10 21:00;CYQR 102100Z 23008KT 15SM BKN250 04/M03 A2966 RMK CI2 SLP075

CYQR;2011-12-10 22:00;CYQR 102200Z 23010KT 15SM FEW200 BKN250 03/M03 A2965 RMK CI2CI2 SLP070

CYQR;2011-12-10 23:00;CYQR 102300Z 24005KT 15SM FEW200 BKN250 02/M04 A2965 RMK CI1CI2 SLP071

CYQR;2011-12-11 00:00;CYQR 110000Z 22004KT 15SM BKN250 M00/M05 A2964 RMK CI2 SLP071

CYQR;2011-12-11 01:00;CYQR 110100Z 23006KT 15SM SCT250 M03/M07 A2963 RMK CI1 SLP069

CYQR;2011-12-11 02:00;CYQR 110200Z 25004KT 15SM FEW250 M04/M07 A2963 RMK CI0 SLP069

CYQR;2011-12-11 03:00;CYQR 110300Z 28006KT 15SM BKN250 M05/M07 A2963 RMK CI0 SLP073

CYQR;2011-12-11 04:00;CYQR 110400Z 27008KT 15SM BKN250 M04/M07 A2964 RMK CS0 HALO SLP075

CYQR;2011-12-11 05:00;CYQR 110500Z 28010KT 15SM BKN250 M04/M07 A2966 RMK CI1 CS ASOCTD HALO SLP080

CYQR;2011-12-11 06:00;CYQR 110600Z 29013KT 15SM BKN250 M02/M06 A2967 RMK CI0 SLP076

CYQR;2011-12-11 07:00;CYQR 110700Z 29012KT 15SM BKN250 M03/M06 A2970 RMK CI0 SLP087

CYQR;2011-12-11 08:00;CYQR 110800Z 30011KT 15SM BKN250 M05/M08 A2973 RMK CI0 SLP097

CYQR;2011-12-11 09:00;CYQR 110900Z 32011KT 15SM BKN250 M06/M09 A2976 RMK CI0 SLP108

CYQR;2011-12-11 10:00;CYQR 111000Z 32009KT 15SM BKN250 M07/M09 A2978 RMK CI0 SLP114

CYQR;2011-12-11 11:00;CYQR 111100Z 33008KT 15SM BKN079 BKN250 M07/M10 A2979 RMK AC6CI0 SLP118

CYQR;2011-12-11 12:00;CYQR 111200Z 33008KT 15SM SCT080 BKN250 M08/M11 A2982 RMK AC2CI0 SLP132

CYQR;2011-12-11 13:00;CYQR 111300Z 29009KT 15SM FEW080 BKN250 M09/M12 A2984 RMK AC1CI0 SLP139

CYQR;2011-12-11 14:00;CYQR 111400Z 28008KT 15SM SCT094 BKN250 M09/M11 A2987 RMK AC3CI2 SLP147

CYQR;2011-12-11 15:00;CYQR 111500Z 25005KT 15SM FEW095 OVC250 M09/M12 A2989 RMK AC2CI2 SLP160

CYQR;2011-12-11 16:00;CYQR 111600Z 28005KT 12SM FEW076 OVC250 M08/M11 A2992 RMK AC2CI4 SLP169

CYQR;2011-12-11 17:00;CYQR 111700Z 30006KT 15SM FEW086 OVC250 M06/M09 A2995 RMK AC2CI2 SLP180

CYQR;2011-12-11 18:00;CYQR 111800Z 32010KT 15SM FEW160 OVC250 M04/M07 A2996 RMK AC1CI6 SLP180

CYQR;2011-12-11 19:00;CYQR 111900Z 34004KT 15SM FEW160 BKN250 M04/M07 A2997 RMK AC1CI6 SLP182

CYQR;2011-12-11 20:00;CYQR 112000Z 36008KT 15SM FEW120 OVC250 M04/M07 A2998 RMK AC2CI5 SLP185

CYQR;2011-12-11 21:00;CYQR 112100Z 35011KT 15SM BKN028 BKN091 M04/M07 A3000 RMK SC6AC2 SLP193

CYQR;2011-12-11 22:00;CYQR 112200Z 36008KT 15SM BKN028 OVC090 M04/M07 A3001 RMK SC7AC1 SLP198

CYQR;2011-12-11 23:00;CYQR 112300Z 36008KT 15SM BKN026 OVC090 M04/M07 A3004 RMK SC7AC1 SLP206

CYQR;2011-12-12 00:00;CYQR 120000Z 35012KT 15SM FEW009 OVC026 M05/M07 A3006 RMK SC1SC7 SLP219

CYQR;2011-12-12 00:03;CYQR 120003Z 35010KT 15SM BKN009 OVC026 M05/ RMK SC5SC3

CYQR;2011-12-12 01:00;CYQR 120100Z 01010G15KT 12SM OVC008 M05/M08 A3008 RMK SC7 SLP224

CYQR;2011-12-12 02:00;CYQR 120200Z 01008KT 10SM OVC008 M06/M09 A3010 RMK SC8 SLP231

CYQR;2011-12-12 03:00;CYQR 120300Z 02009KT 15SM -SN OVC008 M06/M09 A3013 RMK SC8 SLP245

CYQR;2011-12-12 03:30;CYQR 120330Z 01010KT 15SM BKN010 BKN025 M07/ RMK SC6SC1

CYQR;2011-12-12 04:00;CYQR 120400Z 01008KT 15SM BKN010 BKN021 M09/M12 A3015 RMK SC6SC1 SLP252

CYQR;2011-12-12 04:20;CYQR 120420Z 02008KT 15SM OVC008 M08/ RMK SC8

CYQR;2011-12-12 04:44;CYQR 120444Z 02006KT 15SM -SN OVC009 M08/ RMK SC8

CYQR;2011-12-12 05:00;CYQR 120500Z 01006KT 15SM -SN OVC009 M08/M11 A3018 RMK SC8 SLP259

CYQR;2011-12-12 06:00;CYQR 120600Z 36007KT 15SM -SN OVC009 M09/M11 A3019 RMK SC8 SLP262

CYQR;2011-12-12 07:00;CYQR 120700Z 35005KT 15SM -SN OVC009 M08/M11 A3021 RMK SC8 SLP269

CYQR;2011-12-12 08:00;CYQR 120800Z 05003KT 15SM -SN OVC008 M08/M11 A3022 RMK SC8 SLP272

CYQR;2011-12-12 09:00;CYQR 120900Z 06004KT 15SM -SN OVC008 M08/M10 A3023 RMK SC8 SLP274

CYQR;2011-12-12 10:00;CYQR 121000Z 03003KT 15SM -SN OVC009 M08/M11 A3025 RMK SC8 SLP280

CYQR;2011-12-12 11:00;CYQR 121100Z 04004KT 15SM OVC008 M08/M10 A3024 RMK SC8 SLP279

CYQR;2011-12-12 12:00;CYQR 121200Z 09004KT 15SM OVC006 M08/M10 A3025 RMK SC8 SLP282

CYQR;2011-12-12 13:00;CYQR 121300Z 09004KT 10SM OVC006 M08/M10 A3026 RMK SC8 SLP286

CYQR;2011-12-12 14:00;CYQR 121400Z 10003KT 15SM OVC006 M07/M10 A3028 RMK SC8 SLP292

CYQR;2011-12-12 15:00;CYQR 121500Z 12003KT 15SM OVC006 M07/M10 A3029 RMK SC8 SLP296

CYQR;2011-12-12 16:00;CYQR 121600Z 13006KT 12SM OVC006 M07/M10 A3029 RMK SC8 SLP298

CYQR;2011-12-12 17:00;CYQR 121700Z 14006KT 10SM OVC006 M07/M09 A3029 RMK SC8 SLP298

CYQR;2011-12-12 18:00;CYQR 121800Z 16006KT 12SM OVC008 M06/M09 A3029 RMK SC8 SLP298

CYQR;2011-12-12 19:00;CYQR 121900Z 18008KT 15SM OVC009 M06/M09 A3027 RMK SC8 SLP293

CYQR;2011-12-12 20:00;CYQR 122000Z 19006KT 12SM OVC009 M06/M09 A3027 RMK SC8 SLP291

CYQR;2011-12-12 21:00;CYQR 122100Z 17006KT 12SM OVC007 M06/M09 A3025 RMK SC8 SLP285

CYQR;2011-12-12 22:00;CYQR 122200Z 19008KT 15SM OVC007 M06/M09 A3024 RMK SC8 SLP282

CYQR;2011-12-12 23:00;CYQR 122300Z 18011KT 15SM OVC008 M06/M09 A3024 RMK SC8 SLP280

CYQR;2011-12-13 00:00;CYQR 130000Z 19009KT 15SM -SN OVC008 M06/M09 A3022 RMK SC8 SLP275

CYQR;2011-12-13 01:00;CYQR 130100Z 17010KT 15SM -SN OVC010 M06/M09 A3022 RMK SC8 SLP273

CYQR;2011-12-13 01:20;CYQR 130120Z 19011KT 15SM -SN OVC009 M06/ RMK SC8

CYQR;2011-12-13 02:00;CYQR 130200Z 18009KT 15SM -SN OVC007 M06/M08 A3020 RMK SC8 SLP268

CYQR;2011-12-13 03:00;CYQR 130300Z 17013KT 12SM -SN OVC007 M06/M08 A3018 RMK SC8 SLP260

CYQR;2011-12-13 04:00;CYQR 130400Z 18014KT 12SM -SN OVC006 M06/M08 A3018 RMK SC8 SLP260

CYQR;2011-12-13 05:00;CYQR 130500Z 19014G19KT 12SM -SN OVC007 M06/M08 A3016 RMK SC8 SLP254

CYQR;2011-12-13 06:00;CYQR 130600Z 18008KT 12SM -SN OVC006 M06/M08 A3016 RMK SC8 SLP253

CYQR;2011-12-13 07:00;CYQR 130700Z 19013KT 12SM -SN OVC005 M06/M08 A3015 RMK SC8 SLP249

CYQR;2011-12-13 08:00;CYQR 130800Z 18016KT 12SM -SN OVC005 M06/M08 A3012 RMK SC8 SLP238

CYQR;2011-12-13 09:00;CYQR 130900Z 19012G18KT 15SM -SN OVC005 M06/M08 A3012 RMK SC8 SLP237

CYQR;2011-12-13 10:00;CYQR 131000Z 19020KT 12SM -SN OVC006 M06/M08 A3009 RMK SC8 SLP229

CYQR;2011-12-13 11:00;CYQR 131100Z 19015KT 12SM -SN OVC005 M06/M08 A3006 RMK SC8 SLP219

CYQR;2011-12-13 12:00;CYQR 131200Z 21016KT 12SM -SN OVC006 M06/M08 A3006 RMK SC8 SLP217

CYQR;2011-12-13 13:00;CYQR 131300Z 21014KT 10SM -SN OVC006 M06/M08 A3004 RMK SC8 SLP211

CYQR;2011-12-13 13:36;CYQR 131336Z 20012G18KT 15SM OVC006 M06/ RMK SC8

CYQR;2011-12-13 14:00;CYQR 131400Z 20012KT 15SM -SN OVC008 M06/M08 A3004 RMK SC8 SLP210

CYQR;2011-12-13 15:00;CYQR 131500Z 21010KT 10SM -SN OVC007 M06/M08 A3003 RMK SC8 SLP206

CYQR;2011-12-13 16:00;CYQR 131600Z 22013KT 12SM OVC008 M06/M08 A3002 RMK SC8 SLP203

CYQR;2011-12-13 17:00;CYQR 131700Z 19011KT 12SM OVC008 M06/M08 A3001 RMK SC8 SLP200

CYQR;2011-12-13 18:00;CYQR 131800Z 22013KT 12SM OVC008 M06/M08 A2999 RMK SC8 SLP192

CYQR;2011-12-13 19:00;CYQR 131900Z 23012KT 12SM OVC008 M05/M08 A2997 RMK SC8 SLP185

CYQR;2011-12-13 20:00;CYQR 132000Z 22009KT 12SM OVC008 M05/M08 A2995 RMK SC8 SLP178

CYQR;2011-12-13 21:00;CYQR 132100Z 22008KT 12SM OVC009 M05/M08 A2991 RMK SC8 SLP166

CYQR;2011-12-13 22:00;CYQR 132200Z 21010KT 12SM OVC009 M05/M08 A2990 RMK SC8 SLP162

CYQR;2011-12-13 22:43;CYQR 132243Z 22010KT 15SM OVC010 M05/ RMK SC8

CYQR;2011-12-13 23:00;CYQR 132300Z 20010KT 15SM OVC009 M05/M08 A2990 RMK SC8 SLP161

CYQR;2011-12-14 00:00;CYQR 140000Z 19008KT 15SM -SN OVC009 M05/M07 A2988 RMK SC8 SLP154

CYQR;2011-12-14 01:00;CYQR 140100Z 21010KT 15SM -SN OVC009 M05/M07 A2987 RMK SC8 SLP150

CYQR;2011-12-14 02:00;CYQR 140200Z 20007KT 15SM -SN OVC008 M05/M07 A2985 RMK SC8 SLP144

CYQR;2011-12-14 03:00;CYQR 140300Z 20010KT 15SM -SN OVC008 M05/M07 A2982 RMK SC8 SLP134

CYQR;2011-12-14 04:00;CYQR 140400Z 23012KT 15SM -SN OVC007 M05/M07 A2981 RMK SC8 SLP128

CYQR;2011-12-14 05:00;CYQR 140500Z 23010KT 15SM -SN OVC007 M05/M07 A2981 RMK SC8 SLP128

CYQR;2011-12-14 06:00;CYQR 140600Z 21011KT 15SM -SN OVC007 M05/M08 A2979 RMK SC8 SLP123

CYQR;2011-12-14 07:00;CYQR 140700Z 23007KT 15SM -SN OVC007 M05/M08 A2978 RMK SC8 SLP120

CYQR;2011-12-14 08:00;CYQR 140800Z 22007KT 15SM OVC007 M05/M08 A2975 RMK SC8 SLP111

CYQR;2011-12-14 09:00;CYQR 140900Z 23007KT 15SM OVC007 M06/M08 A2975 RMK SC8 SLP109

CYQR;2011-12-14 10:00;CYQR 141000Z 22007KT 15SM OVC008 M06/M08 A2973 RMK SC8 SLP103

CYQR;2011-12-14 11:00;CYQR 141100Z CCA 23008KT 15SM OVC007 M06/M08 A2972 RMK SC8 SLP099

CYQR;2011-12-14 12:00;CYQR 141200Z 22006KT 15SM OVC008 M06/M08 A2971 RMK SC8 SLP094

CYQR;2011-12-14 12:53;CYQR 141253Z 25006KT 15SM -SN OVC006 M06/ RMK SC8

CYQR;2011-12-14 13:00;CYQR 141300Z 25006KT 15SM -SN OVC006 M06/M08 A2971 RMK SC8 SLP094

CYQR;2011-12-14 14:00;CYQR 141400Z 23006KT 15SM -SN OVC007 M06/M08 A2971 RMK SC8 SLP094

CYQR;2011-12-14 15:00;CYQR 141500Z 23003KT 15SM -SN OVC007 M06/M08 A2971 RMK SC8 SLP095

CYQR;2011-12-14 16:00;CYQR 141600Z 23004KT 15SM -SN OVC007 M05/M08 A2971 RMK SC8 SLP096

CYQR;2011-12-14 16:06;CYQR 141606Z 22004KT 15SM OVC010 M05/ RMK SC8

CYQR;2011-12-14 17:00;CYQR 141700Z 26008KT 15SM OVC012 M05/M07 A2972 RMK SC8 SLP099

CYQR;2011-12-14 17:24;CYQR 141724Z 27009KT 15SM BKN012 BKN087 M04/ RMK SF3AC4

CYQR;2011-12-14 18:00;CYQR 141800Z 29013G18KT 15SM SCT010 BKN084 OVC240 M04/M07 A2973 RMK SF2AC2CI0 SLP100

CYQR;2011-12-14 19:00;CYQR 141900Z 31020G26KT 15SM FEW010 SCT074 BKN240 M04/M08 A2974 RMK SF1AC2CI0 SLP104

CYQR;2011-12-14 20:00;CYQR 142000Z 31022G28KT 15SM BKN018 OVC095 M03/M07 A2974 RMK SC7AC1 SLP105

CYQR;2011-12-14 21:00;CYQR 142100Z 31025G30KT 15SM BKN019 M03/M07 A2976 RMK SC7 SLP109

CYQR;2011-12-14 22:00;CYQR 142200Z 31020G30KT 15SM OVC024 M02/M07 A2978 RMK SC8 SLP116

CYQR;2011-12-14 23:00;CYQR 142300Z 31029G35KT 15SM OVC024 M02/M07 A2981 RMK SC8 SLP125

CYQR;2011-12-15 00:00;CYQR 150000Z 32023G31KT 15SM OVC026 M02/M07 A2983 RMK SC8 SLP135

CYQR;2011-12-15 00:08;CYQR 150008Z 31025G30KT 15SM -SN OVC026 M02/ RMK SC8

CYQR;2011-12-15 01:00;CYQR 150100Z 31026G31KT 12SM -SN OVC026 M03/M08 A2986 RMK SC8 SLP145

CYQR;2011-12-15 02:00;CYQR 150200Z 31023G30KT 15SM -SN OVC029 M03/M08 A2989 RMK SC8 SLP155

CYQR;2011-12-15 03:00;CYQR 150300Z 32022G27KT 12SM -SN OVC025 M03/M08 A2992 RMK SC8 SLP167

CYQR;2011-12-15 04:00;CYQR 150400Z 33018G27KT 15SM -SN OVC023 M04/M08 A2994 RMK SC8 SLP174

CYQR;2011-12-15 05:00;CYQR 150500Z 34020G27KT 15SM -SN OVC019 M04/M09 A2997 RMK SC8 SLP183

CYQR;2011-12-15 06:00;CYQR 150600Z 34022KT 12SM -SN DRSN OVC019 M05/M10 A3001 RMK SC8 SLP197

CYQR;2011-12-15 07:00;CYQR 150700Z 34020G25KT 12SM -SN DRSN OVC019 M06/M11 A3004 RMK SC8 SLP206

CYQR;2011-12-15 08:00;CYQR 150800Z 33018G25KT 15SM -SN DRSN OVC017 M07/M11 A3007 RMK SC8 SLP217

CYQR;2011-12-15 09:00;CYQR 150900Z 34016KT 15SM -SN DRSN OVC017 M07/M11 A3009 RMK SC8 SLP224

CYQR;2011-12-15 10:00;CYQR 151000Z 35011G16KT 15SM -SN OVC017 M07/M11 A3010 RMK SC8 SLP228

CYQR;2011-12-15 11:00;CYQR 151100Z 36012KT 15SM -SN OVC015 M07/M11 A3011 RMK SC8 SLP233

CYQR;2011-12-15 12:00;CYQR 151200Z 36010KT 15SM -SN OVC013 M08/M11 A3013 RMK SC8 SLP240

CYQR;2011-12-15 13:00;CYQR 151300Z 35008KT 15SM -SN OVC013 M08/M12 A3015 RMK SC8 SLP247

CYQR;2011-12-15 14:00;CYQR 151400Z 33004KT 15SM OVC013 M08/M12 A3016 RMK SC8 SLP250

CYQR;2011-12-15 14:13;CYQR 151413Z 35006KT 12SM -SN OVC013 M08/ RMK SC8

CYQR;2011-12-15 15:00;CYQR 151500Z 35004KT 15SM -SN OVC015 M08/M12 A3016 RMK SC8 SLP251

CYQR;2011-12-15 16:00;CYQR 151600Z 32006KT 15SM -SN OVC015 M08/M12 A3018 RMK SC8 SLP258

CYQR;2011-12-15 17:00;CYQR 151700Z 00000KT 15SM -SN BKN015 OVC080 M08/M12 A3017 RMK SC7AC1 SLP255

CYQR;2011-12-15 17:39;CYQR 151739Z 23002KT 15SM BKN015 OVC120 M08/ RMK SC6AC2

CYQR;2011-12-15 18:00;CYQR 151800Z 18003KT 15SM BKN015 OVC120 M08/M12 A3018 RMK SC6AC2 SLP258

CYQR;2011-12-15 19:00;CYQR 151900Z 17004KT 15SM BKN015 OVC120 M07/M12 A3016 RMK SC7AC1 SLP254

CYQR;2011-12-15 20:00;CYQR 152000Z 12005KT 15SM OVC015 M08/M12 A3017 RMK SC8 SLP256

CYQR;2011-12-15 21:00;CYQR 152100Z 12005KT 15SM BKN022 OVC120 M08/M12 A3017 RMK SC6AC2 SLP256

CYQR;2011-12-15 22:00;CYQR 152200Z 11006KT 15SM OVC024 M08/M11 A3016 RMK SC8 SLP255

CYQR;2011-12-15 23:00;CYQR 152300Z 12008KT 15SM OVC024 M08/M11 A3017 RMK SC8 SLP257

CYQR;2011-12-16 00:00;CYQR 160000Z 13009KT 15SM OVC024 M08/M11 A3017 RMK SC8 SLP259

CYQR;2011-12-16 01:00;CYQR 160100Z 13007KT 15SM OVC024 M07/M11 A3018 RMK SC8 SLP262

CYQR;2011-12-16 02:00;CYQR 160200Z 14006KT 15SM OVC024 M08/M11 A3018 RMK SC8 SLP261

CYQR;2011-12-16 03:00;CYQR 160300Z 14006KT 15SM OVC024 M07/M11 A3020 RMK SC8 SLP266

CYQR;2011-12-16 04:00;CYQR 160400Z 14005KT 15SM OVC024 M07/M11 A3020 RMK SC8 SLP266

CYQR;2011-12-16 05:00;CYQR 160500Z 15004KT 15SM OVC024 M07/M11 A3021 RMK SC8 SLP271

CYQR;2011-12-16 06:00;CYQR 160600Z 15006KT 15SM BKN022 OVC097 M08/M11 A3020 RMK SC6AC2 SLP270

CYQR;2011-12-16 07:00;CYQR 160700Z 14004KT 15SM BKN097 M08/M11 A3023 RMK AC7 SLP278

CYQR;2011-12-16 08:00;CYQR 160800Z 13003KT 15SM SKC M11/M13 A3022 RMK SLP276

CYQR;2011-12-16 09:00;CYQR 160900Z 13004KT 15SM SKC M11/M13 A3022 RMK SLP277

CYQR;2011-12-16 10:00;CYQR 161000Z 17004KT 15SM SKC M12/M14 A3023 RMK SLP281

CYQR;2011-12-16 11:00;CYQR 161100Z 12006KT 15SM FEW079 SCT250 M13/M16 A3022 RMK AC2CI1 SLP276

CYQR;2011-12-16 12:00;CYQR 161200Z 14004KT 15SM FEW080 FEW250 M13/M15 A3021 RMK AC1CI1 SLP276

CYQR;2011-12-16 13:00;CYQR 161300Z 16003KT 15SM FEW020 BKN075 BKN250 M12/M15 A3023 RMK SC1AC4CI1 SLP280

CYQR;2011-12-16 14:00;CYQR 161400Z 18005KT 15SM SCT075 BKN250 M12/M14 A3021 RMK AC3CI2 SLP276

CYQR;2011-12-16 15:00;CYQR 161500Z 18005KT 15SM FEW025 BKN080 BKN250 M11/M14 A3022 RMK SC1AC4CI0 SLP276

CYQR;2011-12-16 16:00;CYQR 161600Z 16006KT 15SM FEW025 SCT085 BKN250 M10/M13 A3020 RMK SC1AC2CI2 SLP271

CYQR;2011-12-16 17:00;CYQR 161700Z 17006KT 15SM FEW015 BKN090 BKN250 M08/M10 A3020 RMK SC1AC5CI1 SLP269

CYQR;2011-12-16 18:00;CYQR 161800Z 21009G15KT 15SM SCT006 BKN067 OVC250 M05/M07 A3018 RMK SF2AC6CI0 SLP260

CYQR;2011-12-16 19:00;CYQR 161900Z 20011KT 15SM FEW010 OVC056 M05/M07 A3015 RMK SF1SC6 SLP251

CYQR;2011-12-16 20:00;CYQR 162000Z 19012KT 15SM FEW012 BKN075 BKN250 M04/M08 A3013 RMK SC2AC4CI1 SLP242

CYQR;2011-12-16 21:00;CYQR 162100Z 19012KT 15SM BKN075 OVC250 M04/M08 A3010 RMK AC5CI2 SLP235

CYQR;2011-12-16 22:00;CYQR 162200Z 19009KT 15SM BKN083 M03/M07 A3008 RMK AC5 SLP228

CYQR;2011-12-16 23:00;CYQR 162300Z 22012KT 15SM FEW085 M05/M08 A3006 RMK AC1 SLP221

CYQR;2011-12-17 00:00;CYQR 170000Z 20008KT 15SM FEW100 M08/M10 A3004 RMK AC1 SLP217

CYQR;2011-12-17 01:00;CYQR 170100Z 22008KT 15SM FEW220 M07/M10 A3002 RMK CI1 SLP210

CYQR;2011-12-17 02:00;CYQR 170200Z 25013KT 15SM FEW220 M05/M09 A3001 RMK CI0 SLP208

CYQR;2011-12-17 03:00;CYQR 170300Z 27011KT 15SM SKC M07/M10 A3003 RMK SLP212

CYQR;2011-12-17 04:00;CYQR 170400Z 27009KT 15SM FEW220 M08/M11 A3003 RMK CI1 SLP211

CYQR;2011-12-17 05:00;CYQR 170500Z 28002KT 15SM FEW220 M10/M13 A3003 RMK CI1 SLP211

CYQR;2011-12-17 06:00;CYQR 170600Z 27009KT 15SM FEW220 M10/M13 A3004 RMK CI0 SLP212

CYQR;2011-12-17 07:00;CYQR 170700Z 30006KT 15SM FEW220 M10/M13 A3004 RMK CI0 SLP212

CYQR;2011-12-17 08:00;CYQR 170800Z 28010KT 15SM SKC M08/M11 A3004 RMK SLP211

CYQR;2011-12-17 09:00;CYQR 170900Z 28009KT 15SM SKC M10/M13 A3004 RMK SLP213

CYQR;2011-12-17 10:00;CYQR 171000Z 27009KT 15SM SKC M11/M14 A3004 RMK SLP212

CYQR;2011-12-17 11:00;CYQR 171100Z CCA 28008KT 15SM SKC M11/M14 A3004 RMK FROIN SLP212

CYQR;2011-12-17 12:00;CYQR 171200Z 30002KT 15SM SKC M12/M15 A3005 RMK FROIN SLP219

CYQR;2011-12-17 13:00;CYQR 171300Z 28005KT 15SM SKC M12/M15 A3005 RMK SLP219

CYQR;2011-12-17 14:00;CYQR 171400Z 00000KT 15SM FEW090 M12/M15 A3004 RMK AC1 SLP215

CYQR;2011-12-17 15:00;CYQR 171500Z 00000KT 15SM FEW270 M13/M15 A3003 RMK CI0 SLP213

CYQR;2011-12-17 16:00;CYQR 171600Z 15003KT 15SM FEW093 FEW270 M10/M13 A3003 RMK AC1CI0 SLP213

CYQR;2011-12-17 17:00;CYQR 171700Z 12004KT 15SM FEW090 FEW270 M07/M11 A3003 RMK AC1CI0 SLP213

CYQR;2011-12-17 18:00;CYQR 171800Z 13004KT 15SM FEW093 SCT270 M05/M10 A3001 RMK AC1CI1 SLP204

CYQR;2011-12-17 19:00;CYQR 171900Z 13008KT 15SM FEW100 BKN280 M03/M07 A2996 RMK AC2CI1 SLP186

CYQR;2011-12-17 20:00;CYQR 172000Z 13008KT 15SM FEW120 BKN300 M01/M06 A2992 RMK AC1CI1 SLP174

CYQR;2011-12-17 21:00;CYQR 172100Z 16005KT 15SM FEW120 BKN300 01/M04 A2989 RMK AC1CI1 SLP158

CYQR;2011-12-17 22:00;CYQR 172200Z 17008KT 15SM FEW100 BKN300 01/M04 A2985 RMK AC2CI2 SLP144

CYQR;2011-12-17 23:00;CYQR 172300Z 17008KT 15SM BKN090 BKN300 M01/M05 A2983 RMK AC2CI1 SLP139

CYQR;2011-12-18 00:00;CYQR 180000Z 17008KT 15SM FEW100 BKN300 M02/M06 A2981 RMK AC2CI0 SLP134

CYQR;2011-12-18 01:00;CYQR 180100Z 19009KT 15SM FEW100 SCT300 M04/M07 A2980 RMK AC1CI0 SLP129

CYQR;2011-12-18 02:00;CYQR 180200Z 20008KT 15SM SCT300 M04/M06 A2975 RMK CI1 SLP113

CYQR;2011-12-18 03:00;CYQR 180300Z 21005KT 15SM BKN300 M03/M06 A2974 RMK CI2 SLP109

CYQR;2011-12-18 04:00;CYQR 180400Z 19005KT 15SM BKN300 M04/M06 A2971 RMK CI2 SLP101

CYQR;2011-12-18 05:00;CYQR 180500Z 23007KT 15SM BKN280 M02/M05 A2968 RMK CI2 SLP091

CYQR;2011-12-18 06:00;CYQR 180600Z 19005KT 15SM FEW280 M02/M05 A2967 RMK CI1 SLP079

CYQR;2011-12-18 07:00;CYQR 180700Z 17003KT 15SM SKC M05/M08 A2965 RMK SLP072

CYQR;2011-12-18 08:00;CYQR 180800Z 14005KT 15SM FEW100 FEW200 M06/M09 A2964 RMK AC1CI0 SLP068

CYQR;2011-12-18 09:00;CYQR 180900Z 21006KT 15SM FEW100 FEW200 M06/M09 A2961 RMK AC1CI1 SLP057

CYQR;2011-12-18 10:00;CYQR 181000Z 23007KT 15SM FEW100 BKN200 M06/M08 A2959 RMK AC1CI2 SLP052

CYQR;2011-12-18 11:00;CYQR 181100Z 27008KT 15SM SCT100 OVC200 M02/M05 A2957 RMK AC3CI2 SLP044

CYQR;2011-12-18 12:00;CYQR 181200Z 30005KT 15SM SCT100 OVC200 M05/M06 A2956 RMK AC3CI2 SLP039

CYQR;2011-12-18 13:00;CYQR 181300Z 33005KT 15SM SCT100 OVC200 M05/M07 A2955 RMK AC3CI2 SLP038

CYQR;2011-12-18 14:00;CYQR 181400Z 28007KT 15SM BKN086 M04/M06 A2959 RMK AC6 SLP050

CYQR;2011-12-18 15:00;CYQR 181500Z 34005KT 15SM SCT073 BKN086 BKN280 M04/M06 A2958 RMK AC3AC2CI1 SLP050

CYQR;2011-12-18 16:00;CYQR 181600Z 35009KT 15SM FEW070 BKN093 BKN280 M04/M06 A2962 RMK AC2AC3CI1 SLP063

CYQR;2011-12-18 16:33;CYQR 181633Z 35013KT 15SM -SN FEW070 BKN095 OVC260 M03/ RMK AC2AC5CI1

CYQR;2011-12-18 16:53;CYQR 181653Z 35013KT 2 1/2SM -SN DRSN OVC095 M02/ RMK SN2AC6

CYQR;2011-12-18 17:00;CYQR 181700Z 35013KT 1 1/2SM -SN DRSN OVC095 M02/M04 A2967 RMK SN3AC5 SLP079

CYQR;2011-12-18 17:10;CYQR 181710Z 35014KT 3/4SM R13/5500FT/N -SN DRSN OVC095 M02/ RMK SN5AC3

CYQR;2011-12-18 17:43;CYQR 181743Z 35015KT 1SM R13/P6000FT/N -SN DRSN OVC052 M02/ RMK SN4SC4

CYQR;2011-12-18 18:00;CYQR 181800Z 34016KT 1SM R13/P6000FT/D -SN DRSN OVC052 M01/M03 A2972 RMK SN4SC4 SLP094

CYQR;2011-12-18 18:21;CYQR 181821Z 35016KT 3SM -SN OVC052 M01/ RMK SN1SC7

CYQR;2011-12-18 19:00;CYQR 181900Z 34017G24KT 15SM SCT006 OVC041 M01/M03 A2975 RMK SC3SC5 INTMT -SN SLP103

CYQR;2011-12-18 19:18;CYQR 181918Z 34019G24KT 15SM BKN007 OVC041 M00/ RMK SC6SC2

CYQR;2011-12-18 20:00;CYQR 182000Z 34020KT 15SM BKN009 OVC048 M01/M03 A2979 RMK SC6SC2 SLP115

CYQR;2011-12-18 20:02;CYQR 182002Z 34018G24KT 15SM BKN010 OVC048 M01/ RMK SC6SC2

CYQR;2011-12-18 20:33;CYQR 182033Z 33018KT 15SM SCT014 BKN083 BKN260 M02/ RMK SC4AC2CI0

CYQR;2011-12-18 21:00;CYQR 182100Z 34017KT 15SM FEW018 SCT097 BKN260 M03/M07 A2982 RMK SC2AC2CI0 SLP134

CYQR;2011-12-18 22:00;CYQR 182200Z 34013KT 15SM SCT090 M03/M07 A2987 RMK AC3 SLP150

CYQR;2011-12-18 23:00;CYQR 182300Z 33015KT 15SM SCT091 M04/M08 A2991 RMK AC3 SLP162

CYQR;2011-12-19 00:00;CYQR 190000Z 32014KT 15SM SCT090 M04/M07 A2995 RMK AC3 SLP176

CYQR;2011-12-19 01:00;CYQR 190100Z 32013KT 15SM SCT090 M05/M08 A2998 RMK AC3 SLP187

CYQR;2011-12-19 02:00;CYQR 190200Z 30012KT 15SM SKC M08/M11 A3001 RMK SLP196

CYQR;2011-12-19 03:00;CYQR 190300Z 30012KT 15SM SKC M09/M12 A3003 RMK SLP209

CYQR;2011-12-19 04:00;CYQR 190400Z 29011KT 15SM SKC M09/M12 A3006 RMK SLP218

CYQR;2011-12-19 05:00;CYQR 190500Z 28012KT 15SM SKC M09/M12 A3008 RMK SLP223

CYQR;2011-12-19 06:00;CYQR 190600Z 28011KT 15SM SKC M10/M13 A3010 RMK SLP231

CYQR;2011-12-19 07:00;CYQR 190700Z 29010KT 15SM SKC M11/M14 A3012 RMK SLP236

CYQR;2011-12-19 08:00;CYQR 190800Z 29005KT 15SM SKC M13/M16 A3014 RMK FROIN SLP242

CYQR;2011-12-19 09:00;CYQR 190900Z 28007KT 15SM SKC M14/M17 A3016 RMK FROIN SLP255

CYQR;2011-12-19 10:00;CYQR 191000Z 26006KT 15SM SKC M16/M18 A3018 RMK FROIN SLP261

CYQR;2011-12-19 11:00;CYQR 191100Z 27008KT 15SM SKC M16/M19 A3017 RMK FROIN SLP260

CYQR;2011-12-19 12:00;CYQR 191200Z 26008KT 15SM SKC M16/M19 A3018 RMK FROIN SLP264

CYQR;2011-12-19 13:00;CYQR 191300Z 27007KT 15SM SKC M16/M19 A3019 RMK FROIN SLP267

CYQR;2011-12-19 14:00;CYQR 191400Z 26008KT 15SM SKC M16/M19 A3019 RMK SLP268

CYQR;2011-12-19 15:00;CYQR 191500Z 25006KT 15SM SKC M14/M17 A3020 RMK SLP274

CYQR;2011-12-19 16:00;CYQR 191600Z 25006KT 15SM FEW250 M13/M16 A3019 RMK CI1 SLP271

CYQR;2011-12-19 17:00;CYQR 191700Z 23006KT 15SM FEW250 M10/M13 A3018 RMK CI0 SLP267

CYQR;2011-12-19 18:00;CYQR 191800Z 22005KT 15SM BKN250 M07/M11 A3016 RMK CI1 SLP257

CYQR;2011-12-19 19:00;CYQR 191900Z 20006KT 15SM BKN250 M05/M10 A3013 RMK CI1 SLP246

CYQR;2011-12-19 20:00;CYQR 192000Z 20006KT 15SM BKN250 M03/M08 A3010 RMK CI1 SLP237

CYQR;2011-12-19 21:00;CYQR 192100Z 19012KT 15SM BKN250 M03/M08 A3000 RMK CI1 SLP202

CYQR;2011-12-19 22:00;CYQR 192200Z 20012KT 15SM SCT210 BKN280 M03/M08 A2997 RMK CI2CI1 SLP192

CYQR;2011-12-19 23:00;CYQR 192300Z 20015KT 15SM BKN094 M03/M07 A2993 RMK AC7 SLP179

CYQR;2011-12-20 00:00;CYQR 200000Z 21008KT 15SM BKN094 M04/M08 A2994 RMK AC6 SLP183

CYQR;2011-12-20 01:00;CYQR 200100Z 20014KT 15SM BKN091 M03/M07 A2990 RMK AC6 SLP170

CYQR;2011-12-20 02:00;CYQR 200200Z 22015KT 15SM SCT090 M03/M07 A2985 RMK AC2 SLP153

CYQR;2011-12-20 03:00;CYQR 200300Z 21011KT 15SM BKN100 BKN300 M03/M07 A2983 RMK AC5CI0 SLP143

CYQR;2011-12-20 04:00;CYQR 200400Z 22010KT 15SM SCT090 BKN300 M03/M07 A2979 RMK AC3CI0 SLP129

CYQR;2011-12-20 05:00;CYQR 200500Z 23009KT 15SM FEW090 SCT300 M02/M06 A2976 RMK AC1CI1 SLP120

CYQR;2011-12-20 06:00;CYQR 200600Z 22007KT 15SM SCT090 BKN300 M02/M06 A2975 RMK AC3CI2 SLP108

CYQR;2011-12-20 07:00;CYQR 200700Z 24010KT 15SM SCT100 BKN300 M01/M05 A2971 RMK AC4CI2 SLP095

CYQR;2011-12-20 08:00;CYQR 200800Z 25007KT 15SM SCT090 OVC300 M02/M06 A2969 RMK AC4CI3 SLP088

CYQR;2011-12-20 09:00;CYQR 200900Z 25012KT 15SM SCT086 OVC300 M01/M05 A2966 RMK AC4CI3 SLP075

CYQR;2011-12-20 10:00;CYQR 201000Z 25007KT 15SM BKN110 OVC300 M01/M05 A2965 RMK AC6CI2 SLP071

CYQR;2011-12-20 11:00;CYQR 201100Z 25004KT 15SM BKN110 OVC300 M02/M06 A2961 RMK AC6CI2 SLP059

CYQR;2011-12-20 12:00;CYQR 201200Z 25009KT 15SM BKN081 OVC300 M02/M05 A2958 RMK AC6CI2 SLP049

CYQR;2011-12-20 13:00;CYQR 201300Z CCA 23005KT 15SM SCT080 BKN300 M03/M06 A2956 RMK AC4CI1 SLP042

CYQR;2011-12-20 14:00;CYQR 201400Z 30004KT 15SM BKN088 BKN280 M03/M06 A2957 RMK AC5CI1 SLP046

CYQR;2011-12-20 15:00;CYQR 201500Z 25005KT 15SM BKN083 BKN280 M03/M05 A2954 RMK AC5CI2 SLP035

CYQR;2011-12-20 16:00;CYQR 201600Z 27002KT 15SM SCT083 BKN095 BKN280 M03/M06 A2954 RMK AC3AC2CI2 SLP035

CYQR;2011-12-20 17:00;CYQR 201700Z 27006KT 15SM BKN084 BKN120 BKN280 M00/M03 A2956 RMK AC5AC2CI0 SLP039

CYQR;2011-12-20 18:00;CYQR 201800Z 28013KT 15SM SCT077 BKN084 BKN120 OVC280 02/M02 A2956 RMK AC3AC2AC2CI1 SLP035

CYQR;2011-12-20 19:00;CYQR 201900Z 28013KT 15SM BKN077 BKN120 02/M02 A2954 RMK AC6AC2 SLP029

CYQR;2011-12-20 20:00;CYQR 202000Z 28012KT 15SM BKN073 03/M01 A2953 RMK AC7 SLP027

CYQR;2011-12-20 21:00;CYQR 202100Z 30016KT 15SM BKN086 03/M01 A2953 RMK AC7 SLP025

CYQR;2011-12-20 22:00;CYQR 202200Z 28010KT 15SM BKN096 BKN120 02/M01 A2954 RMK AC6AC2 SLP027

CYQR;2011-12-20 23:00;CYQR 202300Z 29011KT 15SM BKN095 BKN280 02/M02 A2955 RMK AC6CI1 SLP032

CYQR;2011-12-21 00:00;CYQR 210000Z 27009KT 15SM BKN078 01/M02 A2956 RMK AC7 SLP038

CYQR;2011-12-21 01:00;CYQR 210100Z 30012KT 15SM OVC095 01/M02 A2956 RMK AC7 SLP038

CYQR;2011-12-21 02:00;CYQR 210200Z 29011KT 15SM BKN120 01/M03 A2959 RMK AC6 SLP046

CYQR;2011-12-21 03:00;CYQR 210300Z 29008KT 15SM FEW042 BKN120 M02/M04 A2960 RMK SC2AC6 SLP054

CYQR;2011-12-21 04:00;CYQR 210400Z 25002KT 15SM FEW042 BKN090 BKN230 M03/M05 A2961 RMK SC2AC3CI2 SLP058

CYQR;2011-12-21 05:00;CYQR 210500Z 31007KT 15SM SCT042 BKN100 M03/M05 A2963 RMK SC3AC2 SLP062

CYQR;2011-12-21 06:00;CYQR 210600Z 32010KT 15SM BKN058 M02/M05 A2964 RMK SC6 SLP065

CYQR;2011-12-21 07:00;CYQR 210700Z 33008KT 15SM OVC056 M01/M04 A2966 RMK SC8 SLP072

CYQR;2011-12-21 08:00;CYQR 210800Z 32005KT 15SM -SN OVC060 M02/M04 A2967 RMK SC8 SLP073

CYQR;2011-12-21 09:00;CYQR 210900Z 32005KT 15SM -SN OVC053 M02/M04 A2969 RMK SC8 SLP080

CYQR;2011-12-21 10:00;CYQR 211000Z 33008KT 15SM -SN BKN031 OVC065 M03/M05 A2973 RMK SC7SC1 SLP092

CYQR;2011-12-21 11:00;CYQR 211100Z 36008KT 15SM -SN FEW011 BKN026 OVC070 M02/M05 A2975 RMK SC1SC6AC1 SLP100

CYQR;2011-12-21 11:35;CYQR 211135Z 01012KT 15SM FEW012 FEW026 SCT070 M04/ RMK SC1SC1AC2

CYQR;2011-12-21 12:00;CYQR 211200Z 36013KT 15SM SCT070 M04/M08 A2979 RMK AC1 SLP118

CYQR;2011-12-21 13:00;CYQR 211300Z 35010KT 15SM FEW070 FEW280 M07/M10 A2983 RMK AC1CI0 SLP132

CYQR;2011-12-21 14:00;CYQR 211400Z 34006KT 15SM FEW070 SCT280 M09/M11 A2988 RMK AC1CI1 SLP147

CYQR;2011-12-21 15:00;CYQR 211500Z 34013KT 15SM FEW010 SCT090 BKN280 M09/M12 A2992 RMK SC1AC2CI2 SLP167

CYQR;2011-12-21 15:23;CYQR 211523Z CCA 34017KT 15SM BKN009 BKN090 OVC280 M09/ RMK SC5AC1CI0 CIG RAG

CYQR;2011-12-21 16:00;CYQR 211600Z 35017G26KT 15SM BKN007 BKN091 OVC280 M09/M12 A2996 RMK SC6AC1CI0 SLP181

CYQR;2011-12-21 17:00;CYQR 211700Z 34014KT 15SM BKN007 BKN090 BKN280 M09/M12 A3001 RMK SC6AC1CI0 SLP196

CYQR;2011-12-21 17:45;CYQR 211745Z 34015KT 15SM SCT005 BKN100 BKN280 M09/ RMK SC4AC1CI1

CYQR;2011-12-21 17:48;CYQR 211748Z 34015KT 15SM SCT005 BKN100 BKN280 M09/ RMK SC4AC1CI1

CYQR;2011-12-21 18:00;CYQR 211800Z 34011G16KT 15SM SCT004 BKN100 BKN280 M09/M13 A3003 RMK SC3AC2CI1 SLP206

CYQR;2011-12-21 19:00;CYQR 211900Z 33014KT 15SM FEW009 SCT092 BKN280 M09/M12 A3005 RMK SC2AC2CI1 SLP212

CYQR;2011-12-21 20:00;CYQR 212000Z 32014KT 15SM FEW009 FEW110 FEW280 M07/M11 A3006 RMK SF1AC1CI1 SLP217

CYQR;2011-12-21 21:00;CYQR 212100Z 32015KT 15SM FEW110 M06/M11 A3008 RMK AC1 SLP221

CYQR;2011-12-21 22:00;CYQR 212200Z 32012KT 15SM FEW100 M06/M11 A3010 RMK AC1 SLP228

CYQR;2011-12-21 23:00;CYQR 212300Z 30011KT 15SM FEW092 M08/M12 A3012 RMK AC1 SLP234

CYQR;2011-12-22 00:00;CYQR 220000Z 28010KT 15SM FEW090 M08/M12 A3013 RMK AC1 SLP242

CYQR;2011-12-22 01:00;CYQR 220100Z 27010KT 15SM OVC034 M08/M11 A3014 RMK SC8 SLP246

CYQR;2011-12-22 02:00;CYQR 220200Z 28013KT 15SM -SN BKN026 M07/M10 A3015 RMK SC7 SLP247

CYQR;2011-12-22 02:28;CYQR 220228Z 28012KT 15SM SCT022 BKN065 M07/ RMK SC3SC2

CYQR;2011-12-22 03:00;CYQR 220300Z 28014G20KT 15SM -SN BKN022 OVC053 M06/M09 A3016 RMK SC6SC2 SLP253

CYQR;2011-12-22 04:00;CYQR 220400Z 28016KT 15SM -SN BKN026 OVC041 M05/M08 A3015 RMK SC6SC2 -SN INTMT SLP249

CYQR;2011-12-22 04:37;CYQR 220437Z 28015KT 15SM FEW025 OVC045 M05/ RMK SC1SC7

CYQR;2011-12-22 05:00;CYQR 220500Z 28015G20KT 15SM FEW021 BKN045 M05/M08 A3015 RMK SC1SC5 SLP250

CYQR;2011-12-22 06:00;CYQR 220600Z 27012KT 15SM SCT029 M06/M09 A3014 RMK SC1 SLP248

CYQR;2011-12-22 07:00;CYQR 220700Z 26013KT 15SM SCT030 OVC079 M05/M08 A3012 RMK SC3AC5 SLP242

CYQR;2011-12-22 08:00;CYQR 220800Z 28015G20KT 15SM BKN079 M05/M08 A3013 RMK AC5 SLP245

CYQR;2011-12-22 09:00;CYQR 220900Z 29015KT 15SM FEW070 M07/M10 A3014 RMK AC1 SLP244

CYQR;2011-12-22 10:00;CYQR 221000Z 30015KT 15SM SKC M08/M11 A3016 RMK SLP251

CYQR;2011-12-22 11:00;CYQR 221100Z 29013KT 15SM SKC M09/M12 A3015 RMK SLP250

CYQR;2011-12-22 12:00;CYQR 221200Z 28009KT 15SM SKC M10/M13 A3015 RMK SLP254

CYQR;2011-12-22 13:00;CYQR 221300Z 26007KT 15SM FEW280 M12/M15 A3015 RMK CI0 SLP253

CYQR;2011-12-22 14:00;CYQR 221400Z 24005KT 15SM FEW100 FEW280 M13/M16 A3014 RMK AC1CI0 FROIN SLP251

CYQR;2011-12-22 15:00;CYQR 221500Z 24006KT 15SM FEW100 SCT260 M13/M16 A3013 RMK AC1CI2 SLP247

CYQR;2011-12-22 16:00;CYQR 221600Z 23006KT 15SM FEW080 SCT280 M10/M14 A3013 RMK AC1CI1 SLP245

CYQR;2011-12-22 17:00;CYQR 221700Z 22009KT 15SM FEW080 FEW120 BKN280 M08/M13 A3010 RMK AC1AC1CI5 SLP238

CYQR;2011-12-22 18:00;CYQR 221800Z 21010KT 15SM FEW080 BKN120 OVC280 M06/M11 A3008 RMK AC1AC3CI4 SLP223

CYQR;2011-12-22 19:00;CYQR 221900Z 21009KT 15SM BKN120 OVC280 M05/M10 A3004 RMK AS6CI2 SLP211

CYQR;2011-12-22 20:00;CYQR 222000Z 23013KT 15SM SCT056 BKN120 OVC280 M04/M09 A3000 RMK SC3AS4CI1 SLP199

CYQR;2011-12-22 21:00;CYQR 222100Z 21012KT 15SM FEW080 BKN120 OVC250 M03/M08 A2995 RMK AC2AC6CI1 SLP178

CYQR;2011-12-22 22:00;CYQR 222200Z 25016KT 15SM VCSH OVC092 M02/M09 A2995 RMK AC8 ACC EMBD SHWRS SW SLP176

CYQR;2011-12-22 23:00;CYQR 222300Z 26014G19KT 15SM BKN062 OVC090 M03/M08 A2992 RMK SC5AC3 SLP168

CYQR;2011-12-23 00:00;CYQR 230000Z 27013KT 15SM FEW060 BKN090 M04/M08 A2992 RMK SC2AC2 SLP172

CYQR;2011-12-23 01:00;CYQR 230100Z 28011KT 15SM FEW075 M05/M09 A2992 RMK AC1 SLP170

CYQR;2011-12-23 02:00;CYQR 230200Z 30009KT 15SM SKC M05/M09 A2991 RMK SLP169

CYQR;2011-12-23 03:00;CYQR 230300Z 28015KT 15SM OVC068 M04/M08 A2990 RMK AC8 SLP164

CYQR;2011-12-23 04:00;CYQR 230400Z 28012KT 15SM BKN065 M04/M08 A2991 RMK SC3 SLP167

CYQR;2011-12-23 05:00;CYQR 230500Z 28013KT 15SM BKN059 OVC094 M03/M07 A2991 RMK SC6AC2 OBS TAKEN -07 SLP168

CYQR;2011-12-23 06:00;CYQR 230600Z 29010KT 15SM BKN061 BKN095 M04/M08 A2991 RMK SC6AC2 SLP163

CYQR;2011-12-23 07:00;CYQR 230700Z 30011KT 15SM FEW095 M05/M09 A2992 RMK AC1 SLP169

CYQR;2011-12-23 08:00;CYQR 230800Z 30007KT 15SM SKC M08/M11 A2993 RMK SLP171

CYQR;2011-12-23 09:00;CYQR 230900Z 31009KT 15SM FEW080 M08/M11 A2995 RMK AC1 SLP179

CYQR;2011-12-23 10:00;CYQR 231000Z 30007KT 15SM FEW080 M10/M13 A2997 RMK AC1 SLP185

CYQR;2011-12-23 11:00;CYQR 231100Z 28006KT 15SM SKC M11/M14 A2997 RMK SLP185

CYQR;2011-12-23 12:00;CYQR 231200Z 30007KT 15SM SKC M10/M13 A2998 RMK SLP191

CYQR;2011-12-23 13:00;CYQR 231300Z 30006KT 15SM SKC M12/M15 A2999 RMK FROIN SLP194

CYQR;2011-12-23 14:00;CYQR 231400Z 28003KT 15SM SKC M12/M15 A2997 RMK SLP188

CYQR;2011-12-23 15:00;CYQR 231500Z 26004KT 15SM FEW250 M12/M15 A2998 RMK CI0 SLP193

CYQR;2011-12-23 16:00;CYQR 231600Z 17004KT 15SM SCT250 M11/M13 A2996 RMK CI0 SLP186

CYQR;2011-12-23 17:00;CYQR 231700Z 13003KT 15SM SCT250 M08/M11 A2997 RMK CI1 CONTRAILS SLP189

CYQR;2011-12-23 18:00;CYQR 231800Z 16007KT 15SM FEW250 M06/M10 A2993 RMK CI1 SLP172

CYQR;2011-12-23 19:00;CYQR 231900Z 14008KT 15SM FEW250 M04/M08 A2990 RMK CI0 SLP160

CYQR;2011-12-23 20:00;CYQR 232000Z 14010KT 15SM FEW100 FEW250 M02/M06 A2985 RMK AC1CI1 SLP145

CYQR;2011-12-23 21:00;CYQR 232100Z 15008KT 15SM FEW100 FEW250 M00/M06 A2981 RMK AC1CI0 SLP130

CYQR;2011-12-23 22:00;CYQR 232200Z 19006KT 15SM FEW100 M00/M07 A2981 RMK AC1 SLP128

CYQR;2011-12-23 23:00;CYQR 232300Z 25007KT 15SM FEW100 FEW250 M04/M10 A2982 RMK AC1CI0 SLP131

CYQR;2011-12-24 00:00;CYQR 240000Z 26008KT 15SM FEW300 M06/M11 A2983 RMK CI1 SLP140

CYQR;2011-12-24 01:00;CYQR 240100Z 28010KT 15SM SKC M07/M11 A2985 RMK SLP146

CYQR;2011-12-24 02:00;CYQR 240200Z 28008KT 15SM SKC M06/M10 A2986 RMK SLP152

CYQR;2011-12-24 03:00;CYQR 240300Z 27013KT 15SM SKC M04/M08 A2989 RMK SLP160

CYQR;2011-12-24 04:00;CYQR 240400Z 28013KT 15SM SKC M04/M08 A2990 RMK SLP165

CYQR;2011-12-24 05:00;CYQR 240500Z 28015KT 15SM SKC M03/M08 A2990 RMK SLP163

CYQR;2011-12-24 06:00;CYQR 240600Z 27014KT 15SM SKC M03/M08 A2991 RMK SLP162

CYQR;2011-12-24 07:00;CYQR 240700Z 28016KT 15SM SKC M03/M08 A2991 RMK SLP163

CYQR;2011-12-24 08:00;CYQR 240800Z 28016KT 15SM SKC M02/M07 A2992 RMK SLP168

CYQR;2011-12-24 09:00;CYQR 240900Z 27014KT 15SM FEW230 M03/M08 A2994 RMK CI1 SLP169

CYQR;2011-12-24 10:00;CYQR 241000Z 28015KT 15SM SCT075 BKN230 M03/M08 A2995 RMK AC2CI2 SLP171

CYQR;2011-12-24 11:00;CYQR 241100Z 28016KT 15SM BKN075 OVC230 M02/M07 A2995 RMK AC6CI2 SLP171

CYQR;2011-12-24 12:00;CYQR 241200Z 28015G20KT 15SM BKN094 OVC230 M01/M07 A2993 RMK AC6CI2 SLP168

CYQR;2011-12-24 13:00;CYQR 241300Z 29017KT 15SM BKN098 OVC230 M02/M07 A2994 RMK AC5CI2 SLP171

CYQR;2011-12-24 14:00;CYQR 241400Z 29018KT 15SM SCT075 BKN100 BKN230 M01/M07 A2995 RMK AC3AC2CI2 SLP174

CYQR;2011-12-24 15:00;CYQR 241500Z 28016KT 15SM FEW085 BKN100 BKN230 M01/M07 A2995 RMK AC2AC5CI1 SLP173

CYQR;2011-12-24 16:00;CYQR 241600Z 28015KT 15SM FEW085 BKN100 BKN230 M01/M06 A2995 RMK AC1AC6CI1 SLP174

CYQR;2011-12-24 17:00;CYQR 241700Z 27014KT 15SM FEW085 FEW100 BKN280 00/M06 A2996 RMK AC1AC1CI5 SLP178

CYQR;2011-12-24 18:00;CYQR 241800Z 28019G24KT 15SM FEW085 SCT100 BKN280 02/M04 A2996 RMK AC1AC2CI3 SLP177

CYQR;2011-12-24 19:00;CYQR 241900Z 28018G24KT 15SM FEW100 BKN280 04/M03 A2996 RMK AC2CI4 SLP176

CYQR;2011-12-24 20:00;CYQR 242000Z 28019KT 15SM FEW100 BKN280 04/M03 A2995 RMK AC2CI5 SLP173

CYQR;2011-12-24 21:00;CYQR 242100Z 28014G19KT 15SM FEW100 FEW280 04/M02 A2996 RMK AC1CI2 SLP174

CYQR;2011-12-24 22:00;CYQR 242200Z 29016KT 15SM FEW100 FEW280 04/M03 A2999 RMK AC1CI1 SLP182

CYQR;2011-12-24 23:00;CYQR 242300Z 29017KT 15SM FEW100 FEW280 02/M04 A3002 RMK AC1CI1 SLP192

CYQR;2011-12-25 00:00;CYQR 250000Z 28013KT 15SM FEW100 FEW280 M00/M05 A3005 RMK AC1CI1 SLP208

CYQR;2011-12-25 01:00;CYQR 250100Z 29012KT 15SM SKC M01/M05 A3008 RMK SLP215

CYQR;2011-12-25 02:00;CYQR 250200Z 28009KT 15SM SKC M03/M06 A3011 RMK SLP226

CYQR;2011-12-25 03:00;CYQR 250300Z 28013KT 15SM SKC M03/M07 A3014 RMK SLP239

CYQR;2011-12-25 04:00;CYQR 250400Z 28010KT 15SM SKC M04/M07 A3016 RMK SLP246

CYQR;2011-12-25 05:00;CYQR 250500Z 28011KT 15SM SKC M04/M07 A3019 RMK SLP255

CYQR;2011-12-25 06:00;CYQR 250600Z 28010KT 15SM SKC M04/M08 A3019 RMK SLP255

CYQR;2011-12-25 07:00;CYQR 250700Z 27009KT 15SM SKC M07/M10 A3019 RMK SLP256

CYQR;2011-12-25 08:00;CYQR 250800Z 00000KT 15SM SKC M08/M10 A3018 RMK SLP253

CYQR;2011-12-25 09:00;CYQR 250900Z 27005KT 15SM SKC M08/M11 A3018 RMK SLP252

CYQR;2011-12-25 10:00;CYQR 251000Z 19005KT 15SM SKC M09/M12 A3018 RMK SLP252

CYQR;2011-12-25 11:00;CYQR 251100Z 19005KT 15SM SKC M08/M11 A3017 RMK SLP249

CYQR;2011-12-25 12:00;CYQR 251200Z 15005KT 15SM SKC M09/M12 A3015 RMK SLP247

CYQR;2011-12-25 13:00;CYQR 251300Z 13007KT 15SM SKC M08/M11 A3012 RMK SLP236

CYQR;2011-12-25 14:00;CYQR 251400Z 15008KT 15SM FEW100 BKN280 M07/M11 A3008 RMK AC1CI2 SLP224

CYQR;2011-12-25 15:00;CYQR 251500Z 15010KT 15SM FEW100 BKN280 M06/M10 A3004 RMK AC1CI4 SLP208

CYQR;2011-12-25 16:00;CYQR 251600Z 16009KT 15SM FEW075 BKN100 BKN280 M05/M08 A3001 RMK AC1AC5CI2 SLP200

CYQR;2011-12-25 17:00;CYQR 251700Z 16007KT 15SM FEW080 BKN100 OVC280 M02/M05 A2999 RMK AC1AC6CI1 SLP191

CYQR;2011-12-25 18:00;CYQR 251800Z 20009KT 15SM FEW076 OVC100 M00/M03 A2995 RMK AC2AC6 SLP172

CYQR;2011-12-25 19:00;CYQR 251900Z 22009KT 15SM FEW089 OVC100 02/M01 A2990 RMK AC2AC6 SLP157

CYQR;2011-12-25 20:00;CYQR 252000Z 23010KT 15SM FEW080 BKN100 OVC280 04/M00 A2986 RMK AC1AC4CI2 SLP143

CYQR;2011-12-25 21:00;CYQR 252100Z 24009KT 15SM FEW070 SCT100 OVC280 04/M01 A2982 RMK AC2AC2CI4 SLP130

CYQR;2011-12-25 22:00;CYQR 252200Z 24010G15KT 15SM R13/3000FT/N FEW067 BKN100 OVC280 03/M01 A2980 RMK AC2AC3CI2 SLP122

CYQR;2011-12-25 23:00;CYQR 252300Z 24011KT 15SM SCT100 OVC280 02/M01 A2975 RMK AC4CI4 SLP106

CYQR;2011-12-26 00:00;CYQR 260000Z 20008KT 15SM FEW080 BKN100 OVC280 01/M02 A2972 RMK AC2AC2CI3 SLP096

CYQR;2011-12-26 01:00;CYQR 260100Z 23008KT 15SM BKN120 OVC280 01/M03 A2968 RMK AC6CI2 SLP084

CYQR;2011-12-26 02:00;CYQR 260200Z 23014KT 15SM BKN091 OVC280 03/M02 A2966 RMK AC6CI1 SLP078

CYQR;2011-12-26 03:00;CYQR 260300Z 23009KT 15SM OVC085 03/M01 A2963 RMK AC8 SLP062

CYQR;2011-12-26 04:00;CYQR 260400Z 21009KT 15SM OVC072 02/M01 A2959 RMK AC8 SLP049

CYQR;2011-12-26 05:00;CYQR 260500Z 23012KT 15SM OVC062 04/M01 A2955 RMK SC8 SLP038

CYQR;2011-12-26 06:00;CYQR 260600Z 24013KT 15SM OVC084 05/M01 A2953 RMK AC8 SLP024

CYQR;2011-12-26 07:00;CYQR 260700Z 22005KT 15SM FEW095 04/M02 A2951 RMK AC2 SLP018

CYQR;2011-12-26 08:00;CYQR 260800Z 22009KT 15SM SCT095 03/M03 A2949 RMK AC3 SLP010

CYQR;2011-12-26 09:00;CYQR 260900Z 23011KT 15SM SCT100 02/M03 A2946 RMK AC4 SLP996

CYQR;2011-12-26 10:00;CYQR 261000Z 24012KT 15SM SCT082 01/M04 A2943 RMK AC3 SLP987

CYQR;2011-12-26 11:00;CYQR 261100Z 24011KT 15SM FEW082 00/M05 A2938 RMK AC2 SLP973

CYQR;2011-12-26 12:00;CYQR 261200Z 26013KT 15SM FEW085 M01/M05 A2937 RMK AC2 SLP970

CYQR;2011-12-26 13:00;CYQR 261300Z 30016KT 15SM BKN091 M01/M05 A2939 RMK AC6 SLP976

CYQR;2011-12-26 13:35;CYQR 261335Z 30017KT 15SM -SN OVC025 00/ RMK SC8

CYQR;2011-12-26 13:53;CYQR 261353Z 31020G25KT 3SM -SN DRSN BKN013 OVC025 00/ RMK SC6SC2

CYQR;2011-12-26 14:00;CYQR 261400Z 31017G25KT 3SM -SN DRSN OVC013 00/M01 A2945 RMK SN2SC6 PRESRR SLP996

CYQR;2011-12-26 14:05;CYQR 261405Z 30017G22KT 2SM -SN DRSN OVC005 00/ RMK SN6SC2

CYQR;2011-12-26 14:12;CYQR 261412Z 31020KT 3SM -RASN BLSN OVC004 01/ RMK SN6SC2

CYQR;2011-12-26 14:33;CYQR 261433Z 31020G26KT 6SM -RASN DRSN BKN005 OVC050 01/ RMK SC6SC2

CYQR;2011-12-26 14:43;CYQR 261443Z 31020G26KT 8SM -SN DRSN SCT005 OVC015 01/ RMK SF3SC5

CYQR;2011-12-26 15:00;CYQR 261500Z 31019G25KT 15SM -SN DRSN FEW005 OVC017 01/M01 A2951 RMK SF2SC6 PRESRR SLP016

CYQR;2011-12-26 16:00;CYQR 261600Z 31023KT 15SM -SN DRSN SCT015 OVC040 01/M01 A2958 RMK SC3SC5 PRESRR SLP038

CYQR;2011-12-26 17:00;CYQR 261700Z 32015KT 15SM SCT015 BKN040 BKN100 02/M01 A2962 RMK SC4SC2AC1 SLP053

CYQR;2011-12-26 18:00;CYQR 261800Z 31014G24KT 15SM BKN040 BKN090 02/M01 A2967 RMK SC6AC1 SLP069

CYQR;2011-12-26 19:00;CYQR 261900Z 30019G25KT 15SM BKN046 BKN082 03/M02 A2969 RMK SC6AC2 SLP077

CYQR;2011-12-26 20:00;CYQR 262000Z 31024G29KT 15SM BKN046 BKN100 03/M03 A2971 RMK SC6AC2 SLP082

CYQR;2011-12-26 21:00;CYQR 262100Z 32024G34KT 15SM BKN050 BKN090 03/M03 A2973 RMK SC6AC1 SLP092

CYQR;2011-12-26 22:00;CYQR 262200Z 30018KT 15SM BKN055 OVC095 03/M03 A2977 RMK SC6AC2 SLP105

CYQR;2011-12-26 23:00;CYQR 262300Z 30017KT 15SM FEW035 OVC055 02/M03 A2982 RMK SC2SC6 SLP120

CYQR;2011-12-27 00:00;CYQR 270000Z 31016G21KT 15SM BKN031 OVC090 02/M03 A2986 RMK SC7AC1 SLP137

CYQR;2011-12-27 00:06;CYQR 270006Z 32018KT 15SM -SN OVC027 02/ RMK SC8

CYQR;2011-12-27 00:48;CYQR 270048Z 34021G28KT 15SM SCT015 OVC037 01/ RMK SC3SC5

CYQR;2011-12-27 01:00;CYQR 270100Z 34022G27KT 15SM BKN015 OVC037 01/M03 A2991 RMK SC6SC2 SLP153

CYQR;2011-12-27 02:00;CYQR 270200Z 36017G22KT 15SM BKN015 M03/M06 A2997 RMK SC5 PRESRR SLP175

CYQR;2011-12-27 02:56;CYQR 270256Z 01014G20KT 15SM BKN013 M04/ RMK SC6

CYQR;2011-12-27 04:00;CYQR 270400Z 02007KT 15SM OVC014 M04/M07 A3003 RMK SC8 SLP199

CYQR;2011-12-27 05:00;CYQR 270500Z 02008KT 15SM BKN014 OVC030 M04/M08 A3002 RMK SC6SC2 SLP196

CYQR;2011-12-27 05:27;CYQR 270527Z 04007KT 15SM BKN016 OVC030 M04/ RMK SC6SC2

CYQR;2011-12-27 06:00;CYQR 270600Z 05006KT 15SM OVC016 M04/M08 A3003 RMK SC8 SLP199

CYQR;2011-12-27 07:00;CYQR 270700Z 09002KT 15SM OVC016 M04/M08 A3003 RMK SC8 SLP199

CYQR;2011-12-27 07:37;CYQR 270737Z 14005KT 15SM OVC014 M05/ RMK SC8

CYQR;2011-12-27 08:00;CYQR 270800Z 14006KT 15SM BKN014 OVC027 M05/M08 A3002 RMK SC6SC2 SLP196

CYQR;2011-12-27 09:00;CYQR 270900Z 16008KT 15SM BKN014 OVC028 M05/M08 A3001 RMK SC6SC2 SLP194

CYQR;2011-12-27 10:00;CYQR 271000Z 16010KT 15SM OVC014 M04/M08 A3000 RMK SC8 SLP191

CYQR;2011-12-27 11:00;CYQR 271100Z 14009KT 15SM OVC014 M05/M07 A2996 RMK SC8 SLP178

CYQR;2011-12-27 11:35;CYQR 271135Z 15009KT 15SM BKN017 OVC028 M05/ RMK SC6SC2

CYQR;2011-12-27 12:00;CYQR 271200Z 14010KT 15SM BKN017 OVC028 M05/M07 A2993 RMK SC6SC2 SLP166

CYQR;2011-12-27 13:00;CYQR 271300Z 16012KT 15SM OVC017 M04/M06 A2991 RMK SC8 SLP158

CYQR;2011-12-27 14:00;CYQR 271400Z 16013KT 15SM OVC015 M04/M06 A2988 RMK SC8 SLP150

CYQR;2011-12-27 15:00;CYQR 271500Z 16015KT 15SM OVC014 M04/M07 A2986 RMK SC8

CYQR;2011-12-27 16:00;CYQR 271600Z 16018KT 15SM OVC011 M04/M07 A2983 RMK SC8 SLP136

CYQR;2011-12-27 16:28;CYQR 271628Z 15018KT 15SM -SN BKN010 OVC020 M04/ RMK SC5SC3

CYQR;2011-12-27 17:00;CYQR 271700Z 16017KT 4SM -SN DRSN OVC010 M03/M06 A2981 RMK SC8 SLP126

CYQR;2011-12-27 17:17;CYQR 271717Z 16015G20KT 1SM R13/P6000FT/U -SN DRSN VV008 M03/ RMK SN8

CYQR;2011-12-27 18:00;CYQR 271800Z 16014KT 1SM R13/P6000FT/U -SN DRSN VV007 M03/M05 A2975 RMK SN8 VIS VRB 3/4-11/4 PRESFR SLP107

CYQR;2011-12-27 18:39;CYQR 271839Z 15017KT 3SM -SN DRSN OVC008 M03/ RMK SN2SC6

CYQR;2011-12-27 19:00;CYQR 271900Z 16018G24KT 15SM DRSN BKN005 OVC100 M03/M05 A2969 RMK SF6AC2 PRESFR SLP088

CYQR;2011-12-27 19:45;CYQR 271945Z 17016KT 15SM DRSN BKN007 OVC090 M02/ RMK SF7AC1

CYQR;2011-12-27 20:00;CYQR 272000Z 17016KT 15SM DRSN BKN007 OVC090 M02/M04 A2966 RMK SF7AC1 SLP077

CYQR;2011-12-27 20:29;CYQR 272029Z 17014KT 15SM DRSN FEW010 BKN095 M01/ RMK SF2AC5

CYQR;2011-12-27 21:00;CYQR 272100Z 17014KT 15SM FEW010 BKN080 BKN220 M01/M03 A2961 RMK SF1AC6CI0 SLP059

CYQR;2011-12-27 22:00;CYQR 272200Z 17008KT 15SM FEW010 BKN079 M00/M03 A2960 RMK SF1AC2 SLP054

CYQR;2011-12-27 23:00;CYQR 272300Z 17006KT 15SM FEW010 FEW080 M03/M05 A2959 RMK SF1AC1 SLP050

CYQR;2011-12-28 00:00;CYQR 280000Z 21007KT 15SM BKN080 M05/M08 A2958 RMK AC1 SLP050

CYQR;2011-12-28 01:00;CYQR 280100Z 29006KT 15SM BKN080 M05/M08 A2960 RMK AC3 SLP056

CYQR;2011-12-28 02:00;CYQR 280200Z 29004KT 15SM BKN080 M04/M07 A2961 RMK AC4 SLP061

CYQR;2011-12-28 03:00;CYQR 280300Z 29004KT 15SM SCT076 M04/M07 A2962 RMK AC4 SLP062

CYQR;2011-12-28 04:00;CYQR 280400Z 28010KT 15SM FEW076 M06/M08 A2964 RMK AC2 SLP068

CYQR;2011-12-28 05:00;CYQR 280500Z 30010KT 15SM FEW093 M05/M08 A2965 RMK AC2 SLP073

CYQR;2011-12-28 06:00;CYQR 280600Z 27010KT 15SM FEW090 M06/M09 A2967 RMK AC2 SLP082

CYQR;2011-12-28 07:00;CYQR 280700Z 28009KT 15SM SKC M07/M10 A2967 RMK SLP081

CYQR;2011-12-28 08:00;CYQR 280800Z 24007KT 15SM SKC M09/M12 A2967 RMK SLP081

CYQR;2011-12-28 09:00;CYQR 280900Z 30005KT 15SM SKC M09/M11 A2966 RMK SLP078

CYQR;2011-12-28 10:00;CYQR 281000Z 27006KT 15SM SKC M10/M13 A2967 RMK SLP082

CYQR;2011-12-28 11:00;CYQR 281100Z 24005KT 15SM SKC M11/M13 A2966 RMK SLP076

CYQR;2011-12-28 12:00;CYQR 281200Z 27008KT 15SM SKC M12/M14 A2963 RMK SLP072

CYQR;2011-12-28 13:00;CYQR 281300Z 27006KT 15SM FEW100 FEW250 M12/M14 A2962 RMK AC1CI0 SLP070

CYQR;2011-12-28 14:00;CYQR 281400Z 18002KT 15SM FEW120 SCT250 M12/M15 A2962 RMK AC2CI0 SLP068

CYQR;2011-12-28 15:00;CYQR 281500Z 12003KT 15SM SCT100 BKN250 M11/M14 A2958 RMK AC3CI2 SLP055

CYQR;2011-12-28 16:00;CYQR 281600Z 09003KT 15SM BKN068 BKN100 M09/M12 A2954 RMK AC7AC1 SLP042

CYQR;2011-12-28 17:00;CYQR 281700Z 16002KT 15SM FEW015 OVC035 M07/M10 A2953 RMK SF2SC6 SLP039

CYQR;2011-12-28 17:43;CYQR 281743Z 13005KT 4SM -SN OVC014 M07/ RMK SC8

CYQR;2011-12-28 17:47;CYQR 281747Z 14005KT 2SM -SN OVC013 M07/ RMK SN2SC6

CYQR;2011-12-28 18:00;CYQR 281800Z 13005KT 2SM -SN OVC013 M07/M10 A2951 RMK SN2SC6 SLP030

CYQR;2011-12-28 18:05;CYQR 281805Z 13004KT 3/4SM R13/P6000FT/D -SN VV005 M07/ RMK SN8

CYQR;2011-12-28 18:10;CYQR 281810Z 12004KT 1/2SM R13/P6000FT/D SN VV004 M07/ RMK SN8

CYQR;2011-12-28 18:35;CYQR 281835Z 09005KT 3/4SM R13/4500VP6000FT/U -SN VV003 M06/ RMK SN8 VIS VRB 1/2-1 RESN

CYQR;2011-12-28 19:00;CYQR 281900Z 10007KT 3/4SM R13/3500V4500FT/D -SN VV003 M06/M08 A2947 RMK SN8 VIS VRB 1/2-1 RESN SLP016

CYQR;2011-12-28 20:00;CYQR 282000Z 09008KT 3/4SM R13/4000FT/U -SN VV004 M05/M07 A2946 RMK SN8 VIS VRB 1/2-1 SLP012

CYQR;2011-12-28 21:00;CYQR 282100Z 09006KT 3/4SM R13/P6000FT/N -SN VV005 M04/M06 A2948 RMK SN8 VIS VRB 1/2-1 SLP019

CYQR;2011-12-28 21:22;CYQR 282122Z 10004KT 2SM -SN OVC010 M04/ RMK SN2SC6

CYQR;2011-12-28 21:47;CYQR 282147Z 11004KT 4SM -SN BKN010 OVC085 M04/ RMK SC7AC1

CYQR;2011-12-28 22:00;CYQR 282200Z 11002KT 8SM -SN BKN010 OVC085 M04/M06 A2951 RMK SC7AC1 /S02/ SLP029

CYQR;2011-12-28 23:00;CYQR 282300Z 00000KT 15SM FEW010 BKN026 OVC085 M04/M06 A2955 RMK SF1SC6AC2 SLP042

CYQR;2011-12-29 00:00;CYQR 290000Z 33005KT 15SM BKN026 M05/M07 A2958 RMK SC7 SLP055

CYQR;2011-12-29 01:00;CYQR 290100Z 35004KT 15SM BKN028 M05/M07 A2959 RMK SC7 SLP058

CYQR;2011-12-29 02:00;CYQR 290200Z 33003KT 15SM BKN028 M05/M07 A2961 RMK SC7 SLP063

CYQR;2011-12-29 03:00;CYQR 290300Z 00000KT 15SM BKN017 OVC030 M05/M07 A2958 RMK SC6SC2 SLP056

CYQR;2011-12-29 04:00;CYQR 290400Z 21002KT 15SM BKN015 OVC028 M06/M07 A2958 RMK SC7SC1 SLP054

CYQR;2011-12-29 04:34;CYQR 290434Z 00000KT 15SM OVC013 M06/ RMK SC8

CYQR;2011-12-29 05:00;CYQR 290500Z 00000KT 15SM BKN013 OVC021 M05/M07 A2958 RMK SC6SC2 SLP054

CYQR;2011-12-29 05:33;CYQR 290533Z 00000KT 15SM SCT007 OVC013 M05/ RMK SC3SC5

CYQR;2011-12-29 06:00;CYQR 290600Z 16002KT 15SM SCT009 OVC017 M05/M07 A2958 RMK SC3SC5 SLP052

CYQR;2011-12-29 06:24;CYQR 290624Z 18005KT 15SM OVC012 M05/ RMK SC8

CYQR;2011-12-29 06:31;CYQR 290631Z 18006KT 15SM FEW003 OVC010 M05/ RMK SF2SC6

CYQR;2011-12-29 06:42;CYQR 290642Z 18006KT 15SM BKN003 OVC009 M05/ RMK SF5SC3

CYQR;2011-12-29 07:00;CYQR 290700Z 18006KT 8SM BKN002 OVC015 M05/M06 A2957 RMK SF6SC2 SLP048

CYQR;2011-12-29 08:00;CYQR 290800Z 15007KT 12SM BKN005 OVC010 M04/M06 A2955 RMK SC6SC2 SLP041

CYQR;2011-12-29 09:00;CYQR 290900Z 15010KT 15SM OVC007 M04/M06 A2952 RMK SC8 SLP029

CYQR;2011-12-29 09:15;CYQR 290915Z 15010KT 15SM -SN OVC004 M04/ RMK SC8

CYQR;2011-12-29 09:42;CYQR 290942Z 16010KT 15SM -SN OVC006 M04/ RMK SC8

CYQR;2011-12-29 10:00;CYQR 291000Z 16013KT 15SM -SN OVC004 M04/M05 A2950 RMK SC8 SLP022

CYQR;2011-12-29 11:00;CYQR 291100Z 16017KT 15SM -SN OVC004 M04/M06 A2948 RMK SC8 SLP017

CYQR;2011-12-29 11:23;CYQR 291123Z 16016KT 12SM -SN OVC003 M04/ RMK SC8

CYQR;2011-12-29 12:00;CYQR 291200Z 16017KT 12SM -SN OVC003 M04/M06 A2946 RMK SC8 SLP008

CYQR;2011-12-29 13:00;CYQR 291300Z 14019KT 6SM -SN DRSN OVC003 M04/M05 A2941 RMK SC8 SLP991

CYQR;2011-12-29 13:47;CYQR 291347Z 14019KT 2SM -SN DRSN OVC003 M04/ RMK SC8

CYQR;2011-12-29 14:00;CYQR 291400Z 15018G24KT 1 1/2SM -SN DRSN OVC004 M04/M05 A2938 RMK SC8 SLP982

CYQR;2011-12-29 14:41;CYQR 291441Z 15016G22KT 4SM -SN DRSN OVC004 M04/ RMK SC8

CYQR;2011-12-29 15:00;CYQR 291500Z 14016KT 4SM -SN DRSN BR OVC004 M04/M05 A2937 RMK SC8 SLP979

CYQR;2011-12-29 15:56;CYQR 291556Z 15015G20KT 5SM DRSN -FZRA BR OVC003 M03/ RMK SC8

CYQR;2011-12-29 16:00;CYQR 291600Z 15016KT 5SM -SHPL DRSN -FZRA BR OVC003 M03/M05 A2937 RMK SC8 CIG RAG SLP977

CYQR;2011-12-29 17:00;CYQR 291700Z 14015KT 6SM -SHPL DRSN -FZRA BR OVC004 M01/M03 A2934 RMK SC8 CIG RAG ICE ON INDICATOR SLP969

CYQR;2011-12-29 17:20;CYQR 291720Z 15016G21KT 6SM -SHRAPLSN BR OVC004 M01/ REFZRA RMK SC8 CIG RAG

CYQR;2011-12-29 17:25;CYQR 291725Z 15015KT 6SM -SHRAPL BR OVC004 M01/ REFZRA RMK SC8 CIG RAG

CYQR;2011-12-29 18:00;CYQR 291800Z 14014G22KT 5SM -SHRAPL BR OVC004 M01/M02 A2931 REFZRA RMK SC8 CIG RAG SLP954

CYQR;2011-12-29 18:32;CYQR 291832Z 14014G21KT 6SM -SHPL -FZRA BR OVC004 M01/ RMK SC8 CIG RAG

CYQR;2011-12-29 18:40;CYQR 291840Z 14016KT 2 1/2SM -PLSN -FZRA BR OVC004 M01/ RMK SC8 CIG RAG

CYQR;2011-12-29 19:00;CYQR 291900Z 13014KT 3SM -RAPLSN BR OVC004 M00/M01 A2928 REFZRA RMK SC8 CIG RAG SLP945

CYQR;2011-12-29 19:18;CYQR 291918Z 12015G20KT 3SM -RASN BR OVC003 M00/ RMK SC8 CIG RAG

CYQR;2011-12-29 19:35;CYQR 291935Z 15016KT 3SM -RA BR OVC004 M00/ RMK SC8 CIG RAG

CYQR;2011-12-29 20:00;CYQR 292000Z 15016G21KT 6SM -RA BR OVC004 M00/M01 A2927 RMK SC8 CIG RAG SLP943

CYQR;2011-12-29 20:15;CYQR 292015Z 14013G19KT 12SM OVC004 M00/ RMK SC8 CIG RAG

CYQR;2011-12-29 21:00;CYQR 292100Z 14017KT 15SM OVC005 M00/M02 A2926 RMK SC8 SLP936

CYQR;2011-12-29 21:21;CYQR 292121Z 13014KT 10SM -SN OVC004 M00/ RMK SC8 CIG RAG

CYQR;2011-12-29 22:00;CYQR 292200Z 13013KT 12SM OVC004 M00/M01 A2927 RMK SC8 SLP940

CYQR;2011-12-29 23:00;CYQR 292300Z 11013KT 12SM OVC005 M02/M03 A2931 RMK SC8 SLP951

CYQR;2011-12-29 23:19;CYQR 292319Z 09009KT 12SM -SN OVC005 M02/ RMK SC8

CYQR;2011-12-29 23:35;CYQR 292335Z 07009KT 2SM -SN OVC006 M02/ RMK SC8

CYQR;2011-12-29 23:46;CYQR 292346Z 08009KT 1SM R13/P6000FT/D -SN OVC006 M02/ RMK SC8

CYQR;2011-12-30 00:00;CYQR 300000Z 07009KT 1/2SM R13/P6000FT/D SN VV003 M02/M03 A2936 RMK SN8 R13/3500/D SLP970

CYQR;2011-12-30 00:43;CYQR 300043Z 02010KT 3SM -SN OVC005 M02/ RESN RMK SC8

CYQR;2011-12-30 01:00;CYQR 300100Z 03011KT 2 1/2SM -SN BKN005 OVC019 M03/M05 A2942 RESN RMK SC6SC2 PRESRR SLP990

CYQR;2011-12-30 01:22;CYQR 300122Z 02011KT 1SM R13/P6000FT/D -SN OVC007 M03/ RMK SC8

CYQR;2011-12-30 01:47;CYQR 300147Z 03011KT 2SM -SN OVC007 M03/ RMK SC8

CYQR;2011-12-30 02:00;CYQR 300200Z 03010KT 2SM -SN OVC007 M03/M05 A2946 RMK SC8 SLP004

CYQR;2011-12-30 02:22;CYQR 300222Z 02010KT 3SM -SN OVC010 M03/ RMK SC8

CYQR;2011-12-30 02:38;CYQR 300238Z 36008KT 3SM -SN BKN007 OVC016 M03/ RMK SC6SC2

CYQR;2011-12-30 03:00;CYQR 300300Z 35012KT 5SM -SN SCT007 OVC017 M04/M06 A2953 RMK SC4SC4 PRESRR /S03/ SLP031

CYQR;2011-12-30 03:38;CYQR 300338Z 36008KT 15SM -SN SCT008 OVC013 M04/ RMK SC4SC4

CYQR;2011-12-30 03:51;CYQR 300351Z 34008KT 15SM -SN BKN007 OVC013 M04/ RMK SC6SC2

CYQR;2011-12-30 04:00;CYQR 300400Z 33008KT 15SM -SN BKN008 OVC013 M04/M06 A2957 RMK SC6SC2 SLP044

CYQR;2011-12-30 05:00;CYQR 300500Z 34017KT 12SM -SN OVC006 M03/M05 A2959 RMK SC8 SLP051

CYQR;2011-12-30 05:37;CYQR 300537Z 34014KT 12SM -SN OVC005 M03/ RMK SC8

CYQR;2011-12-30 06:00;CYQR 300600Z 33016KT 15SM -SN OVC004 M03/M05 A2962 RMK SC8 SLP059

CYQR;2011-12-30 06:41;CYQR 300641Z 34011KT 15SM -SN OVC003 M03/ RMK SC8

CYQR;2011-12-30 07:00;CYQR 300700Z 34010KT 15SM -SN OVC003 M03/M05 A2962 RMK SC8 SLP059

CYQR;2011-12-30 08:00;CYQR 300800Z 30011KT 15SM OVC004 M03/M04 A2966 RMK SC8 SLP072

CYQR;2011-12-30 09:00;CYQR 300900Z 29009KT 15SM OVC005 M03/M04 A2968 RMK SC8 SLP080

CYQR;2011-12-30 09:18;CYQR 300918Z 30012KT 6SM BR OVC004 M02/ RMK SC8

CYQR;2011-12-30 09:21;CYQR 300921Z 30011KT 2 1/2SM BR OVC003 M02/ RMK SC8

CYQR;2011-12-30 09:24;CYQR 300924Z 30010KT 1 1/2SM BR OVC002 M02/ RMK FG2SC6

CYQR;2011-12-30 09:26;CYQR 300926Z 30010KT 1SM R13/P6000FT/D BR OVC002 M02/ RMK FG2SC6

CYQR;2011-12-30 09:42;CYQR 300942Z 30011KT 2 1/2SM BR OVC002 M02/ RMK SC8

CYQR;2011-12-30 09:44;CYQR 300944Z 30011KT 5SM BR OVC002 M02/ RMK SC8

CYQR;2011-12-30 10:00;CYQR 301000Z 31010KT 8SM OVC003 M02/M03 A2969 RMK SC8 SLP084

CYQR;2011-12-30 11:00;CYQR 301100Z 29007KT 15SM SCT004 BKN011 M02/M03 A2968 RMK SC3SC4 SLP080

CYQR;2011-12-30 11:14;CYQR 301114Z 30005KT 15SM SCT013 M04/ RMK SC3

CYQR;2011-12-30 12:00;CYQR 301200Z 27005KT 3/4SM R13/3000VP6000FT/D BR SKC M05/M07 A2968 RMK SLP082

CYQR;2011-12-30 12:07;CYQR 301207Z 28006KT 3/8SM R13/2200FT/N FZFG SKC M06/ RMK FG2

CYQR;2011-12-30 12:19;CYQR 301219Z 25004KT 1/8SM R13/1200V1800FT/D FZFG VV001 M08/ RMK FG8

CYQR;2011-12-30 12:23;CYQR 301223Z 25004KT 1/4SM R13/1400FT/N FZFG VV001 M07/ RMK FG8

CYQR;2011-12-30 12:31;CYQR 301231Z 24003KT 1/8SM R13/1200FT/N FZFG VV001 M07/ RMK FG8

CYQR;2011-12-30 13:00;CYQR 301300Z 23005KT 1/4SM R13/1100V2000FT/U FZFG VV001 M08/M10 A2967 RMK FG8 SLP080

CYQR;2011-12-30 14:00;CYQR 301400Z 18003KT 1/4SM R13/1400V2000FT/N FZFG VV001 M09/M12 A2965 RMK FG8 SLP073

CYQR;2011-12-30 14:29;CYQR 301429Z 14005KT 5/8SM R13/2000FT/U BR BKN100 M08/ RMK FG3AC0 VIS E 1

CYQR;2011-12-30 15:00;CYQR 301500Z 16005KT 3/8SM R13/2000FT/N FZFG OVC100 M08/M11 A2964 RMK FG7AC0 VIS VRB 1/4-1/2 SLP073

CYQR;2011-12-30 15:29;CYQR 301529Z 16005KT 3SM R13/3000VP6000FT/U BR OVC040 M08/ RMK SC8

CYQR;2011-12-30 16:00;CYQR 301600Z 15006KT 12SM OVC087 M06/M09 A2962 RMK AC8 SLP067

CYQR;2011-12-30 17:00;CYQR 301700Z 16007KT 15SM OVC110 M05/M08 A2961 RMK AC8 SLP064

CYQR;2011-12-30 18:00;CYQR 301800Z 13007KT 15SM BKN093 OVC120 M04/M07 A2957 RMK AC6AC2 SLP046

CYQR;2011-12-30 19:00;CYQR 301900Z 14011KT 15SM FEW054 OVC120 M04/M06 A2954 RMK SC2AC6 SLP034

CYQR;2011-12-30 20:00;CYQR 302000Z 14013KT 15SM SCT055 BKN086 OVC120 M02/M04 A2949 RMK SC2AC6AC1 PRESFR SLP018

CYQR;2011-12-30 21:00;CYQR 302100Z 15015KT 15SM FEW006 BKN066 OVC085 M01/M03 A2943 RMK SF1SC6AC2 SLP994

CYQR;2011-12-30 22:00;CYQR 302200Z 16014G20KT 15SM BKN073 BKN120 M00/M02 A2941 RMK AC6AC1 SLP989

CYQR;2011-12-30 23:00;CYQR 302300Z 15016KT 15SM BKN069 BKN120 M00/M01 A2939 RMK AC6AC1 SLP983

CYQR;2011-12-31 00:00;CYQR 310000Z 16014G19KT 15SM SCT010 OVC057 00/M01 A2937 RMK SC3SC5 SLP975

CYQR;2011-12-31 01:00;CYQR 310100Z 16014G19KT 15SM FEW010 BKN054 BKN090 01/M02 A2934 RMK SC1SC4AC2 SLP966

CYQR;2011-12-31 02:00;CYQR 310200Z 18016KT 15SM BKN049 01/M02 A2933 RMK SC6 SLP962

CYQR;2011-12-31 03:00;CYQR 310300Z 18013KT 15SM BKN075 01/M02 A2931 RMK AC6 SLP956

CYQR;2011-12-31 04:00;CYQR 310400Z 19006KT 15SM SCT087 BKN120 M00/M03 A2931 RMK AC3AC2 SLP956

CYQR;2011-12-31 05:00;CYQR 310500Z 24002KT 15SM BKN120 M02/M05 A2931 RMK AC5 SLP954

CYQR;2011-12-31 06:00;CYQR 310600Z 25011KT 15SM FEW120 M01/M04 A2932 RMK AC2 SLP958

CYQR;2011-12-31 07:00;CYQR 310700Z 26010KT 15SM SKC M02/M05 A2933 RMK SLP960

CYQR;2011-12-31 08:00;CYQR 310800Z 25011KT 15SM SKC M04/M06 A2934 RMK SLP965

CYQR;2011-12-31 09:00;CYQR 310900Z 26009KT 15SM SKC M04/M07 A2936 RMK SLP973

CYQR;2011-12-31 10:00;CYQR 311000Z 26011KT 15SM SKC M05/M08 A2940 RMK SLP985

CYQR;2011-12-31 11:00;CYQR 311100Z 29008KT 15SM SKC M08/M11 A2942 RMK SLP992

CYQR;2011-12-31 12:00;CYQR 311200Z 30013KT 15SM SKC M08/M10 A2947 RMK SLP010

CYQR;2011-12-31 13:00;CYQR 311300Z 28013KT 15SM SKC M06/M08 A2951 RMK SLP025

CYQR;2011-12-31 14:00;CYQR 311400Z 28012KT 15SM FEW025 FEW210 M05/M09 A2956 RMK SC1CI0 SLP038

CYQR;2011-12-31 15:00;CYQR 311500Z 28013KT 15SM FEW010 FEW090 M07/M10 A2961 RMK SC1AC1 SLP058

CYQR;2011-12-31 16:00;CYQR 311600Z 30017KT 15SM FEW012 M06/M10 A2967 RMK SC1 PRESRR SLP077

CYQR;2011-12-31 16:29;CYQR 311629Z 31026KT 15SM BKN004 BKN021 M06/ RMK SF1SC4 PRESRR

CYQR;2011-12-31 17:00;CYQR 311700Z 31029KT 12SM DRSN SCT004 BKN016 OVC090 M06/M10 A2973 RMK SF0SC6AC2 PRESRR SLP097

CYQR;2011-12-31 17:11;CYQR 311711Z 31030G36KT 4SM BLSN BKN013 OVC090 M06/ RMK SC6AC2 PRESRR

CYQR;2011-12-31 17:40;CYQR 311740Z 31022G32KT 10SM DRSN OVC010 M06/ RMK SC8

CYQR;2011-12-31 18:00;CYQR 311800Z 31023G29KT 15SM DRSN OVC010 M06/M08 A2977 RMK SC8 SLP113

CYQR;2011-12-31 19:00;CYQR 311900Z 30024G29KT 15SM DRSN OVC012 M04/M07 A2980 RMK SC8 SLP122

CYQR;2011-12-31 20:00;CYQR 312000Z 31020G25KT 15SM DRSN BKN014 M04/M07 A2983 RMK SC7 SLP132

CYQR;2011-12-31 21:00;CYQR 312100Z 31021KT 15SM DRSN BKN014 M04/M07 A2986 RMK SC7 SLP145

CYQR;2011-12-31 22:00;CYQR 312200Z 31017KT 15SM DRSN BKN016 BKN160 M04/M08 A2991 RMK SC6AC1 SLP161

CYQR;2011-12-31 23:00;CYQR 312300Z 28014KT 15SM FEW015 M06/M10 A2995 RMK SC1 SLP174

