CYQR;2013-01-01 00:00;CYQR 010000Z 14009KT 15SM FEW070 M16/M18 A3000 RMK AC1 SLP216

CYQR;2013-01-01 01:00;CYQR 010100Z 13008KT 15SM SKC M16/M19 A3000 RMK SLP217

CYQR;2013-01-01 02:00;CYQR 010200Z 13008KT 15SM FEW004 M18/M22 A3001 RMK SF1 SLP218

CYQR;2013-01-01 03:00;CYQR 010300Z 12006KT 15SM FEW004 BKN011 M19/M22 A3000 RMK SF1SC2 SLP219

CYQR;2013-01-01 04:00;CYQR 010400Z 13005KT 15SM SCT002 M20/M23 A3000 RMK SF2 SLP218

CYQR;2013-01-01 04:24;CYQR 010424Z 14005KT 15SM BKN001 M20/ RMK SF5

CYQR;2013-01-01 05:00;CYQR 010500Z 11005KT 15SM VCFG OVC001 M20/M23 A2999 RMK SF6 FG BANK S-W ALG HWY 1 OBS TAKEN -08 SLP213

CYQR;2013-01-01 06:00;CYQR 010600Z 12005KT 15SM VCFG BKN001 M20/M24 A2999 RMK SF3 FG BANK S-W ALG HWY 1 SLP214

CYQR;2013-01-01 06:53;CYQR 010653Z 13005KT 15SM SCT001 M21/ RMK SF2

CYQR;2013-01-01 07:00;CYQR 010700Z 12005KT 15SM SCT001 M21/M25 A2999 RMK SF2 SLP212

CYQR;2013-01-01 08:00;CYQR 010800Z 14002KT 15SM VCFG FEW003 M22/M26 A2998 RMK SF1 FG BANK S SLP211

CYQR;2013-01-01 09:00;CYQR 010900Z 15003KT 15SM VCFG FEW025 M22/M26 A2997 RMK SC2 FG BANK S-SW SLP207

CYQR;2013-01-01 10:00;CYQR 011000Z 18003KT 15SM SKC M21/M25 A2996 RMK SLP204

CYQR;2013-01-01 11:00;CYQR 011100Z 18005KT 15SM SKC M20/M24 A2993 RMK SLP193

CYQR;2013-01-01 12:00;CYQR 011200Z 17003KT 15SM BKN095 M17/M19 A2991 RMK AC6 SLP181

CYQR;2013-01-01 13:00;CYQR 011300Z 18003KT 15SM SCT080 OVC095 M16/M18 A2990 RMK AC3AC4 FROIN SLP177

CYQR;2013-01-01 14:00;CYQR 011400Z 15002KT 15SM BKN044 BKN073 OVC150 M15/M17 A2988 RMK SC5AC2AC1 FROIN SLP173

CYQR;2013-01-01 15:00;CYQR 011500Z 19003KT 15SM BKN055 M13/M15 A2987 RMK SC7 SLP167

CYQR;2013-01-01 15:54;CYQR 011554Z 27005KT 10SM -SN SCT022 OVC088 M08/ RMK SC4AC4

CYQR;2013-01-01 16:00;CYQR 011600Z 27006KT 5SM -SN SCT022 OVC088 M08/M09 A2987 RMK SC4AC4 SLP167

CYQR;2013-01-01 16:08;CYQR 011608Z 27007KT 1SM R13/P6000FT/N -SN VV007 M07/ RMK SN8

CYQR;2013-01-01 16:20;CYQR 011620Z 28007KT 2SM -SN OVC048 M06/ RMK SN4SC4

CYQR;2013-01-01 16:32;CYQR 011632Z 28008KT 3SM -SN OVC048 M06/ RMK SC8

CYQR;2013-01-01 17:00;CYQR 011700Z 28010KT 2 1/2SM -SN BR SCT025 OVC048 M04/M05 A2986 RMK SC4SC4 SLP163

CYQR;2013-01-01 17:17;CYQR 011717Z 29014KT 3SM -SN DRSN BKN015 OVC045 M02/ RMK SC6SC2

CYQR;2013-01-01 17:44;CYQR 011744Z 29013KT 10SM FEW020 OVC060 M02/ RMK SC2SC6

CYQR;2013-01-01 18:00;CYQR 011800Z 28012KT 15SM SCT060 OVC130 M02/M03 A2985 RMK SC4AS4 SLP151

CYQR;2013-01-01 19:00;CYQR 011900Z 29016KT 15SM SCT075 BKN130 BKN230 M03/M03 A2982 RMK AC3AS2CI2 SLP142

CYQR;2013-01-01 20:00;CYQR 012000Z 30018KT 15SM BKN028 BKN075 M03/M04 A2981 RMK SC6AC2 SLP139

CYQR;2013-01-01 21:00;CYQR 012100Z 30020KT 15SM BKN026 BKN093 M02/M03 A2981 RMK SC6AC2 SLP142

CYQR;2013-01-01 21:19;CYQR 012119Z 30021KT 15SM FEW005 BKN026 M02/ RMK SF1SC7

CYQR;2013-01-01 22:00;CYQR 012200Z 31022KT 15SM DRSN FEW006 BKN028 M02/M03 A2982 RMK SF1SC7 SLP145

CYQR;2013-01-01 23:00;CYQR 012300Z 31022G27KT 15SM DRSN BKN025 M02/M03 A2983 RMK SC7 SLP148

CYQR;2013-01-02 00:00;CYQR 020000Z 30021KT 15SM DRSN OVC016 M02/M03 A2984 RMK SC8 SLP147

CYQR;2013-01-02 00:48;CYQR 020048Z 32024G31KT 15SM -SN DRSN OVC024 M02/ RMK SC8

CYQR;2013-01-02 01:00;CYQR 020100Z 31024G29KT 15SM -SN DRSN FEW005 OVC024 M02/M03 A2984 RMK SF1SC7 SLP147

CYQR;2013-01-02 02:00;CYQR 020200Z 32020KT 15SM -SN DRSN SCT011 BKN037 M03/M03 A2986 RMK SC4SC3 SLP153

CYQR;2013-01-02 03:00;CYQR 020300Z 32022G29KT 15SM -SN DRSN BKN028 OVC042 M02/M03 A2987 RMK SC6SC2 SLP154

CYQR;2013-01-02 04:00;CYQR 020400Z 31023KT 15SM -SN DRSN FEW011 BKN020 OVC085 M02/M03 A2988 RMK SC2SC4AC2 SLP158

CYQR;2013-01-02 05:00;CYQR 020500Z 31021KT 15SM -SN DRSN FEW010 OVC024 M02/M03 A2989 RMK SC2SC6 SLP161

CYQR;2013-01-02 06:00;CYQR 020600Z 31021KT 15SM DRSN BKN035 OVC092 M03/M04 A2990 RMK SC6AC2 SLP156

CYQR;2013-01-02 07:00;CYQR 020700Z 30017KT 15SM DRSN FEW020 SCT035 BKN088 M04/M05 A2990 RMK SC1SC2AC2 SLP157

CYQR;2013-01-02 08:00;CYQR 020800Z 31023KT 15SM DRSN FEW010 OVC040 M03/M04 A2988 RMK SF1SC7 SLP152

CYQR;2013-01-02 08:28;CYQR 020828Z 30019KT 15SM -SN DRSN FEW010 OVC034 M03/ RMK SF1SC7

CYQR;2013-01-02 09:00;CYQR 020900Z 30019KT 6SM -SN DRSN FEW010 OVC027 M03/M04 A2989 RMK SF1SC7 SLP154

CYQR;2013-01-02 10:00;CYQR 021000Z 31021KT 4SM -SN DRSN OVC018 M04/M05 A2990 RMK SC8 SLP158

CYQR;2013-01-02 11:00;CYQR 021100Z 33023KT 7SM -SN DRSN OVC014 M04/M05 A2992 RMK SC8 SLP164

CYQR;2013-01-02 11:25;CYQR 021125Z 34022G28KT 12SM -SN DRSN FEW009 SCT016 OVC025 M04/ RMK SF1SC3SC4

CYQR;2013-01-02 12:00;CYQR 021200Z 33020G25KT 12SM -SN DRSN FEW009 OVC016 M04/M05 A2994 RMK SF1SC7 SLP170

CYQR;2013-01-02 13:00;CYQR 021300Z 36021G30KT 10SM -SN DRSN FEW009 OVC017 M05/M07 A2997 RMK SF1SC7 SLP180

CYQR;2013-01-02 14:00;CYQR 021400Z 36019G24KT 10SM -SN DRSN FEW010 BKN018 OVC030 M06/M08 A3000 RMK SF1SC6SC2 SLP190

CYQR;2013-01-02 14:39;CYQR 021439Z 36016KT 15SM DRSN FEW010 BKN041 OVC120 M06/ RMK SF1SC6AC1

CYQR;2013-01-02 15:00;CYQR 021500Z 35015KT 15SM DRSN FEW010 BKN039 OVC120 M07/M09 A3005 RMK SF1SC6AC1 SLP211

CYQR;2013-01-02 15:22;CYQR 021522Z 36015KT 15SM -SN FEW010 BKN033 OVC120 M07/ RMK SF1SC6AC2

CYQR;2013-01-02 16:00;CYQR 021600Z 36014G20KT 15SM -SN DRSN FEW010 OVC030 M07/M09 A3010 RMK SF1SC7 SLP228

CYQR;2013-01-02 16:22;CYQR 021622Z 36013KT 15SM FEW010 BKN013 OVC030 M07/ RMK SC1SC5SC3

CYQR;2013-01-02 17:00;CYQR 021700Z 36014KT 15SM -SN BKN013 OVC037 M07/M09 A3013 RMK SC7SC1 SLP238

CYQR;2013-01-02 17:43;CYQR 021743Z 34015KT 15SM -SN BKN016 OVC037 M08/ RMK SC5SC3

CYQR;2013-01-02 18:00;CYQR 021800Z 34017KT 15SM -SN BKN018 OVC037 M08/M10 A3017 RMK SC6SC2 SLP255

CYQR;2013-01-02 19:00;CYQR 021900Z 33016KT 15SM -SN BKN014 OVC035 M08/M10 A3018 RMK SC7SC1 SLP258

CYQR;2013-01-02 20:00;CYQR 022000Z 35013KT 15SM -SN BKN022 BKN072 M09/M11 A3017 RMK SC6AC2 SLP255

CYQR;2013-01-02 21:00;CYQR 022100Z 35011KT 15SM SCT022 BKN070 M09/M12 A3019 RMK SC3AC2 INTMT -SN SLP262

CYQR;2013-01-02 22:00;CYQR 022200Z 33009KT 15SM BKN022 OVC075 M09/M11 A3020 RMK SC7AC1 SLP267

CYQR;2013-01-02 23:00;CYQR 022300Z 32008KT 15SM BKN015 BKN075 M10/M12 A3021 RMK SC7AC1 SLP270

CYQR;2013-01-02 23:28;CYQR 022328Z 32006KT 15SM BKN013 BKN075 M10/ RMK SC7AC1 CIG RAG

CYQR;2013-01-03 00:00;CYQR 030000Z 30007KT 15SM BKN013 BKN075 M12/M13 A3022 RMK SC1AC1 SLP275

CYQR;2013-01-03 01:00;CYQR 030100Z 32011KT 15SM BKN013 M13/M15 A3023 RMK SC6 SLP278

CYQR;2013-01-03 02:00;CYQR 030200Z 33006KT 15SM SCT010 M14/M15 A3022 RMK SC3 SLP275

CYQR;2013-01-03 02:45;CYQR 030245Z 25002KT 15SM BKN008 M13/ RMK SC6

CYQR;2013-01-03 03:00;CYQR 030300Z 24003KT 15SM OVC008 M13/M14 A3022 RMK SC8 SLP277

CYQR;2013-01-03 04:00;CYQR 030400Z 19005KT 15SM OVC007 M12/M13 A3019 RMK SC8 SLP268

CYQR;2013-01-03 04:18;CYQR 030418Z 23004KT 15SM SCT009 M12/ RMK SC3

CYQR;2013-01-03 05:00;CYQR 030500Z 20007KT 15SM FEW009 M13/M14 A3018 RMK SC1 SLP265

CYQR;2013-01-03 06:00;CYQR 030600Z 21004KT 15SM FEW100 M15/M15 A3017 RMK AC1 SLP263

CYQR;2013-01-03 07:00;CYQR 030700Z 21008KT 15SM FEW250 M16/M17 A3015 RMK CI0 SLP258

CYQR;2013-01-03 08:00;CYQR 030800Z 22006KT 15SM SKC M16/M17 A3013 RMK SLP250

CYQR;2013-01-03 09:00;CYQR 030900Z 21005KT 15SM SKC M15/M16 A3012 RMK SLP246

CYQR;2013-01-03 10:00;CYQR 031000Z 18010KT 15SM FEW100 M15/M16 A3008 RMK AC1 SLP234

CYQR;2013-01-03 11:00;CYQR 031100Z 17008KT 15SM FEW100 M14/M15 A3005 RMK AC0 SLP223

CYQR;2013-01-03 12:00;CYQR 031200Z 18009KT 15SM FEW100 M13/M15 A3000 RMK AC1 SLP208

CYQR;2013-01-03 13:00;CYQR 031300Z 19011KT 15SM FEW100 M13/M16 A2998 RMK AC1 SLP200

CYQR;2013-01-03 14:00;CYQR 031400Z 23010KT 15SM FEW250 M12/M14 A2995 RMK CI1 SLP189

CYQR;2013-01-03 15:00;CYQR 031500Z 25008KT 15SM FEW100 FEW250 M08/M11 A2993 RMK AC1CI1 CONTRAILS SLP177

CYQR;2013-01-03 16:00;CYQR 031600Z 26011G18KT 15SM FEW100 SCT250 M06/M10 A2992 RMK AC1CI2 SLP175

CYQR;2013-01-03 17:00;CYQR 031700Z 27012KT 15SM SCT130 BKN250 M06/M10 A2992 RMK AC2CI2 SLP176

CYQR;2013-01-03 18:00;CYQR 031800Z 25009KT 15SM FEW130 BKN250 M06/M10 A2991 RMK AC2CI3 SLP172

CYQR;2013-01-03 19:00;CYQR 031900Z 29008KT 15SM BKN250 M07/M10 A2991 RMK CI2 SLP170

CYQR;2013-01-03 20:00;CYQR 032000Z 27011KT 15SM SCT250 M06/M09 A2989 RMK CI2 SLP164

CYQR;2013-01-03 21:00;CYQR 032100Z 29011KT 15SM FEW250 M06/M09 A2990 RMK CI1 SLP169

CYQR;2013-01-03 22:00;CYQR 032200Z 29008KT 15SM FEW230 M07/M10 A2991 RMK CI0 SLP173

CYQR;2013-01-03 23:00;CYQR 032300Z 28008KT 15SM FEW230 M08/M11 A2992 RMK CI0 SLP176

CYQR;2013-01-04 00:00;CYQR 040000Z 30010KT 15SM FEW230 M09/M11 A2994 RMK CI0 SLP182

CYQR;2013-01-04 01:00;CYQR 040100Z 28010KT 15SM FEW250 M10/M12 A2995 RMK CI0 SLP187

CYQR;2013-01-04 02:00;CYQR 040200Z 27011KT 15SM FEW250 M10/M12 A2995 RMK CI0 SLP187

CYQR;2013-01-04 03:00;CYQR 040300Z 28013KT 15SM SKC M10/M12 A2996 RMK SLP186

CYQR;2013-01-04 04:00;CYQR 040400Z 29009KT 15SM SKC M11/M14 A2997 RMK SLP189

CYQR;2013-01-04 05:00;CYQR 040500Z 30005KT 15SM SKC M11/M13 A2998 RMK SLP192

CYQR;2013-01-04 06:00;CYQR 040600Z 26007KT 15SM SKC M15/M16 A2999 RMK SLP199

CYQR;2013-01-04 07:00;CYQR 040700Z 29005KT 15SM SKC M12/M14 A2999 RMK SLP200

CYQR;2013-01-04 08:00;CYQR 040800Z 27009KT 15SM SKC M14/M16 A2999 RMK SLP199

CYQR;2013-01-04 09:00;CYQR 040900Z 27009KT 15SM SKC M15/M16 A3000 RMK SLP202

CYQR;2013-01-04 10:00;CYQR 041000Z 30002KT 15SM SKC M15/M17 A3002 RMK SLP208

CYQR;2013-01-04 11:00;CYQR 041100Z 33006KT 15SM SKC M14/M15 A3001 RMK SLP205

CYQR;2013-01-04 12:00;CYQR 041200Z 35002KT 15SM BKN230 M13/M15 A3001 RMK CI2 SLP208

CYQR;2013-01-04 13:00;CYQR 041300Z 04003KT 15SM BKN230 M15/M17 A3000 RMK CI2 SLP203

CYQR;2013-01-04 14:00;CYQR 041400Z 10004KT 15SM BKN230 M16/M17 A2999 RMK CI2 SLP202

CYQR;2013-01-04 15:00;CYQR 041500Z 13005KT 15SM BKN230 M16/M17 A2998 RMK CI3 SLP199

CYQR;2013-01-04 16:00;CYQR 041600Z 12003KT 15SM BKN230 M14/M16 A2999 RMK CI3 CC ASOCTD SLP202

CYQR;2013-01-04 17:00;CYQR 041700Z 13008KT 15SM FEW140 FEW230 M12/M14 A3000 RMK AC1CI1 SLP205

CYQR;2013-01-04 18:00;CYQR 041800Z 13007KT 15SM FEW100 FEW230 M13/M15 A3000 RMK AC1CI0 SLP207

CYQR;2013-01-04 19:00;CYQR 041900Z 12009KT 15SM FEW100 SCT250 M10/M12 A2995 RMK AC1CI2 SLP193

CYQR;2013-01-04 20:00;CYQR 042000Z 14013KT 15SM FEW130 BKN250 M10/M12 A2993 RMK AC1CI2 SLP187

CYQR;2013-01-04 21:00;CYQR 042100Z 12008KT 15SM FEW130 FEW250 M10/M12 A2990 RMK AC1CI1 SLP170

CYQR;2013-01-04 22:00;CYQR 042200Z 13011KT 15SM FEW130 FEW250 M10/M12 A2990 RMK AC1CI1 SLP171

CYQR;2013-01-04 23:00;CYQR 042300Z 12011KT 15SM FEW120 M11/M13 A2990 RMK AC1 SLP171

CYQR;2013-01-05 00:00;CYQR 050000Z 12011KT 15SM FEW120 FEW230 M11/M13 A2989 RMK AC1CI1 SLP167

CYQR;2013-01-05 01:00;CYQR 050100Z 12012KT 15SM FEW120 FEW250 M11/M13 A2988 RMK AC1CI1 SLP163

CYQR;2013-01-05 02:00;CYQR 050200Z 11011KT 15SM FEW250 M11/M13 A2989 RMK CI1 SLP166

CYQR;2013-01-05 03:00;CYQR 050300Z 11007KT 15SM FEW120 M12/M14 A2989 RMK AC1 SLP171

CYQR;2013-01-05 04:00;CYQR 050400Z 01008KT 15SM FEW120 M13/M14 A2992 RMK AC1 SLP179

CYQR;2013-01-05 05:00;CYQR 050500Z 05006KT 15SM FEW120 M13/M15 A2993 RMK AC2 SLP182

CYQR;2013-01-05 06:00;CYQR 050600Z 35011KT 15SM FEW120 M15/M16 A2996 RMK AC2 SLP195

CYQR;2013-01-05 07:00;CYQR 050700Z 33007KT 15SM FEW120 M17/M18 A2998 RMK AC2 SLP202

CYQR;2013-01-05 08:00;CYQR 050800Z 30013KT 15SM FEW120 M17/M18 A3002 RMK AC2 SLP213

CYQR;2013-01-05 09:00;CYQR 050900Z 30006KT 15SM FEW120 M18/M20 A3004 RMK AC1 SLP222

CYQR;2013-01-05 10:00;CYQR 051000Z 30008KT 15SM BKN001 M16/M17 A3005 RMK SF6 SLP226

CYQR;2013-01-05 11:00;CYQR 051100Z 29009KT 12SM OVC003 M16/M17 A3005 RMK SF7 SLP227

CYQR;2013-01-05 12:00;CYQR 051200Z 31009KT 3SM BR OVC001 M15/M16 A3008 RMK SF8 SLP234

CYQR;2013-01-05 12:03;CYQR 051203Z 30005KT 1/2SM R13/4500VP6000FT/D FZFG OVC001 M16/ RMK FG5SF2

CYQR;2013-01-05 12:43;CYQR 051243Z 28004KT 3/8SM R13/2400FT/N FZFG OVC001 M17/ RMK FG6SF1

CYQR;2013-01-05 13:00;CYQR 051300Z 29003KT 3/8SM R13/2400FT/N FZFG BKN005 M18/M18 A3008 RMK FG6SF1 SLP235

CYQR;2013-01-05 13:05;CYQR 051305Z 30003KT 1/4SM R13/3000FT/U FZFG BKN005 M18/ RMK FG5SF1

CYQR;2013-01-05 13:24;CYQR 051324Z 30003KT 1/2SM R13/2000FT/N FZFG SKC M18/ RMK FG4

CYQR;2013-01-05 13:36;CYQR 051336Z 27003KT 2SM BR FEW005 M18/ RMK SF1

CYQR;2013-01-05 13:44;CYQR 051344Z 26003KT 4SM BR FEW005 FEW240 M17/ RMK SF1CI1 FROIN

CYQR;2013-01-05 14:00;CYQR 051400Z 27004KT 9SM FEW005 FEW040 FEW240 M18/M19 A3009 RMK SF1SC1CI1 FROIN SLP239

CYQR;2013-01-05 15:00;CYQR 051500Z 23004KT 10SM BKN240 M18/M20 A3007 RMK CI5 CC ASOCTD SLP234

CYQR;2013-01-05 16:00;CYQR 051600Z 17003KT 14SM BKN210 M15/M17 A3008 RMK CI7 SLP236

CYQR;2013-01-05 17:00;CYQR 051700Z 21003KT 15SM FEW035 SCT060 BKN200 M14/M15 A3008 RMK SC2SC2CI2 SLP236

CYQR;2013-01-05 18:00;CYQR 051800Z 20004KT 15SM FEW035 BKN049 BKN200 M13/M14 A3007 RMK SC2SC4CI1 SLP232

CYQR;2013-01-05 19:00;CYQR 051900Z 24005KT 15SM FEW050 FEW200 M11/M13 A3004 RMK SC1CI1 SLP223

CYQR;2013-01-05 20:00;CYQR 052000Z 26008KT 15SM SKC M10/M11 A3004 RMK SLP223

CYQR;2013-01-05 21:00;CYQR 052100Z 27008KT 15SM SKC M10/M11 A3002 RMK SLP217

CYQR;2013-01-05 22:00;CYQR 052200Z 28015KT 15SM SKC M09/M11 A3004 RMK SLP222

CYQR;2013-01-05 23:00;CYQR 052300Z 29009KT 15SM SKC M11/M12 A3005 RMK SLP225

CYQR;2013-01-06 00:00;CYQR 060000Z 30013KT 15SM SKC M12/M13 A3005 RMK SLP225

CYQR;2013-01-06 01:00;CYQR 060100Z 32010KT 15SM SCT080 M13/M14 A3008 RMK AC4 SLP234

CYQR;2013-01-06 01:52;CYQR 060152Z 32009KT 15SM BKN007 M10/ RMK SF6

CYQR;2013-01-06 02:00;CYQR 060200Z 33009KT 15SM OVC007 M09/M11 A3010 RMK SF8 SLP240

CYQR;2013-01-06 02:35;CYQR 060235Z 33010KT 15SM OVC005 M09/ RMK SF8

CYQR;2013-01-06 02:50;CYQR 060250Z 34012KT 12SM OVC004 M09/ RMK SF8

CYQR;2013-01-06 03:00;CYQR 060300Z 35011KT 8SM OVC004 M09/M10 A3010 RMK SF8 BR SLP240

CYQR;2013-01-06 04:00;CYQR 060400Z 36010KT 4SM BR OVC002 M08/M09 A3009 RMK SF8 SLP239

CYQR;2013-01-06 05:00;CYQR 060500Z 32006KT 3SM BR OVC002 M09/M09 A3008 RMK SF8 SLP235

CYQR;2013-01-06 05:19;CYQR 060519Z 31004KT 2SM BR OVC001 M08/ RMK FG2SF6

CYQR;2013-01-06 05:44;CYQR 060544Z 26003KT 1SM R13/P6000FT/U BR OVC001 M09/ RMK FG4SF4

CYQR;2013-01-06 06:00;CYQR 060600Z 27002KT 1SM R13/P6000FT/N BR OVC001 M09/M09 A3007 RMK FG4SF4 SLP229

CYQR;2013-01-06 06:16;CYQR 060616Z 25003KT 3/4SM R13/P6000FT/U BR OVC001 M09/ RMK FG6SF2

CYQR;2013-01-06 07:00;CYQR 060700Z 22006KT 1/2SM R13/P6000FT/D FZFG VV001 M09/M10 A3007 RMK FG8 SLP229

CYQR;2013-01-06 08:00;CYQR 060800Z 16006KT 3/8SM R13/4500FT/N FZFG VV001 M09/M10 A3004 RMK FG8 SLP217

CYQR;2013-01-06 09:00;CYQR 060900Z 17009KT 3/8SM R13/6000FT/N FZFG VV001 M09/M10 A3003 RMK FG8 SLP212

CYQR;2013-01-06 10:00;CYQR 061000Z 15009KT 3/8SM R13/3500FT/N FZFG VV001 M10/M11 A3000 RMK FG8 SLP202

CYQR;2013-01-06 11:00;CYQR 061100Z 16011KT 3/8SM R13/P6000FT/D FZFG VV001 M11/M12 A2997 RMK FG8 SLP194

CYQR;2013-01-06 11:06;CYQR 061106Z 15012KT 3/4SM R13/P6000FT/U BR OVC001 M11/ RMK FG6SF2

CYQR;2013-01-06 11:12;CYQR 061112Z 15014KT 2SM BR OVC001 M11/ RMK FG3SF4

CYQR;2013-01-06 11:34;CYQR 061134Z 14013KT 3SM BR OVC002 M12/ RMK SF7

CYQR;2013-01-06 12:00;CYQR 061200Z 15011KT 3SM BR OVC002 M12/M13 A2992 RMK SF7 SLP179

CYQR;2013-01-06 13:00;CYQR 061300Z 14013KT 5SM BR OVC003 M12/M13 A2988 RMK SF7 SLP166

CYQR;2013-01-06 13:43;CYQR 061343Z 14014KT 5SM BR BKN004 OVC025 M11/ RMK SF7SC1

CYQR;2013-01-06 13:52;CYQR 061352Z 14014KT 5SM BR SCT005 OVC025 M11/ RMK SF3SC5

CYQR;2013-01-06 14:00;CYQR 061400Z CCA 14013KT 5SM -SN BR FEW005 SCT025 OVC100 M11/M12 A2983 RMK SF2SC2AC4 FROIN SLP150

CYQR;2013-01-06 14:10;CYQR 061410Z 14014KT 2 1/2SM -SN BR FEW003 BKN015 OVC100 M11/ RMK SF2SC3AC2

CYQR;2013-01-06 14:16;CYQR 061416Z 14014KT 1 1/2SM -SN BR FEW003 OVC015 M11/ RMK SF2SC6

CYQR;2013-01-06 14:31;CYQR 061431Z 14016KT 1SM R13/P6000FT/D -SN BR BKN003 OVC015 M11/ RMK FG2SF4SC2

CYQR;2013-01-06 14:43;CYQR 061443Z 14014KT 3/4SM R13/P6000FT/D -SN BR BKN002 OVC015 M11/ RMK FG2SF5SC1 FROIN

CYQR;2013-01-06 14:55;CYQR 061455Z 14014KT 2SM -SN DRSN BR BKN002 OVC015 M11/ RMK SF6SC2

CYQR;2013-01-06 15:00;CYQR 061500Z 14014KT 2SM -SN DRSN BR BKN002 OVC015 M11/M12 A2979 RMK SF6SC2 FROIN PRESFR SLP129

CYQR;2013-01-06 15:07;CYQR 061507Z 14014KT 3SM -SN DRSN BR BKN003 BKN015 OVC080 M11/ RMK SF5SC2AC2

CYQR;2013-01-06 15:30;CYQR 061530Z 15013KT 4SM -SN DRSN BR SCT003 BKN015 OVC080 M11/ RMK SF3SC3AC1

CYQR;2013-01-06 16:00;CYQR 061600Z 14014KT 4SM -SN DRSN BR FEW003 BKN015 OVC080 M10/M12 A2975 RMK SF2SC3AC2 SLP116

CYQR;2013-01-06 16:18;CYQR 061618Z 15014KT 9SM DRSN BKN015 BKN080 BKN220 M10/ RMK SC5AC2CI1

CYQR;2013-01-06 17:00;CYQR 061700Z CCA 16014KT 12SM DRSN FEW025 SCT080 BKN220 M10/M11 A2972 RMK SC2AC2CI3 SLP107

CYQR;2013-01-06 18:00;CYQR 061800Z 15011KT 15SM DRSN BKN100 BKN220 M09/M10 A2968 RMK AC6CI2 SLP089

CYQR;2013-01-06 19:00;CYQR 061900Z 17010KT 15SM BKN097 BKN220 M07/M08 A2962 RMK AC5CI2 PRESFR SLP070

CYQR;2013-01-06 20:00;CYQR 062000Z 16008KT 15SM FEW130 FEW220 M06/M07 A2957 RMK AC1CI1 SLP055

CYQR;2013-01-06 21:00;CYQR 062100Z 24021KT 15SM FEW130 FEW220 M02/M03 A2954 RMK AC1CI1 SLP036

CYQR;2013-01-06 22:00;CYQR 062200Z 25020KT 15SM FEW130 FEW220 M02/M04 A2952 RMK AC1CI1 CC ASOCTD SLP030

CYQR;2013-01-06 23:00;CYQR 062300Z 26017KT 15SM FEW130 FEW220 M02/M04 A2952 RMK AC1CI1 CC ASOCTD SLP031

CYQR;2013-01-07 00:00;CYQR 070000Z 28018KT 15SM FEW130 FEW220 M03/M04 A2953 RMK AC1CI1 SLP036

CYQR;2013-01-07 01:00;CYQR 070100Z 29010KT 15SM OVC018 M02/M04 A2955 RMK SC8 SLP043

CYQR;2013-01-07 02:00;CYQR 070200Z 28014KT 15SM BKN015 OVC043 M03/M05 A2954 RMK SC6SC2 SLP040

CYQR;2013-01-07 02:34;CYQR 070234Z 27014KT 15SM BKN012 OVC040 M03/ RMK SC6SC2

CYQR;2013-01-07 03:00;CYQR 070300Z 28020KT 15SM BKN015 OVC050 M01/M03 A2954 RMK SC6SC2 SLP038

CYQR;2013-01-07 04:00;CYQR 070400Z 28019KT 15SM BKN008 OVC014 M01/M02 A2954 RMK SC5SC3 SLP038

CYQR;2013-01-07 04:13;CYQR 070413Z 28019KT 10SM -SN DRSN OVC007 M01/ RMK SC8

CYQR;2013-01-07 04:36;CYQR 070436Z 28018KT 4SM -SN DRSN OVC005 M01/ RMK SC8

CYQR;2013-01-07 05:00;CYQR 070500Z 28019KT 2SM -SN DRSN OVC005 M01/M01 A2954 RMK SC8 SLP038

CYQR;2013-01-07 06:00;CYQR 070600Z 29024KT 2SM -SN BLSN OVC005 M01/M01 A2955 RMK SC8 SLP040

CYQR;2013-01-07 06:21;CYQR 070621Z 29024KT 4SM -SN BLSN SCT004 OVC040 M01/ RMK SF3SC5

CYQR;2013-01-07 06:36;CYQR 070636Z 29023G31KT 6SM BLSN FEW004 OVC036 M01/ RMK SF2SC6

CYQR;2013-01-07 07:00;CYQR 070700Z 29025KT 8SM DRSN OVC042 M01/M02 A2956 REBLSN RMK SC8 SLP042

CYQR;2013-01-07 08:00;CYQR 070800Z 28024KT 10SM DRSN SCT040 OVC077 M02/M03 A2956 RMK SC3AC4 SLP044

CYQR;2013-01-07 09:00;CYQR 070900Z 28021KT 12SM DRSN BKN095 M02/M04 A2958 RMK AC7 SLP045

CYQR;2013-01-07 10:00;CYQR 071000Z 28020KT 12SM DRSN BKN100 M03/M06 A2960 RMK AC4 SLP052

CYQR;2013-01-07 11:00;CYQR 071100Z 28018KT 15SM DRSN FEW100 M06/M08 A2961 RMK AC2 SLP055

CYQR;2013-01-07 12:00;CYQR 071200Z 28017KT 15SM DRSN FEW100 M06/M09 A2963 RMK AC1 SLP068

CYQR;2013-01-07 13:00;CYQR 071300Z 28016KT 15SM DRSN FEW030 FEW100 M07/M10 A2966 RMK SC1AC1 SLP075

CYQR;2013-01-07 14:00;CYQR 071400Z 29014KT 15SM BKN023 M08/M10 A2967 RMK SC4 SLP079

CYQR;2013-01-07 15:00;CYQR 071500Z 28013KT 15SM SCT029 BKN041 M09/M11 A2968 RMK SC2SC1 SLP085

CYQR;2013-01-07 16:00;CYQR 071600Z 27014KT 15SM BKN031 BKN090 BKN230 M07/M09 A2970 RMK SC6AC1CI1 SLP091

CYQR;2013-01-07 17:00;CYQR 071700Z 27013KT 15SM BKN040 M07/M09 A2972 RMK SC7 SLP097

CYQR;2013-01-07 18:00;CYQR 071800Z 28016KT 15SM FEW040 BKN090 BKN230 M06/M09 A2971 RMK SC2AC2CI0 SLP093

CYQR;2013-01-07 19:00;CYQR 071900Z 27015KT 15SM FEW040 FEW090 FEW230 M06/M09 A2970 RMK SC1AC1CI1 SLP090

CYQR;2013-01-07 20:00;CYQR 072000Z 27014KT 15SM FEW040 FEW230 M07/M10 A2969 RMK SC1CI1 SLP087

CYQR;2013-01-07 21:00;CYQR 072100Z 27011KT 15SM FEW230 M07/M09 A2969 RMK CI1 SLP087

CYQR;2013-01-07 22:00;CYQR 072200Z 24010KT 15SM FEW230 M09/M11 A2969 RMK CI1 SLP088

CYQR;2013-01-07 23:00;CYQR 072300Z 25007KT 15SM FEW050 FEW230 M10/M12 A2969 RMK SC1CI1 SLP087

CYQR;2013-01-08 00:00;CYQR 080000Z 19005KT 15SM FEW100 M13/M14 A2966 RMK AC1 SLP086

CYQR;2013-01-08 01:00;CYQR 080100Z 18008KT 15SM FEW100 M13/M15 A2966 RMK AC1 SLP085

CYQR;2013-01-08 02:00;CYQR 080200Z 17009KT 15SM SKC M12/M14 A2964 RMK SLP079

CYQR;2013-01-08 03:00;CYQR 080300Z 13010KT 15SM SKC M14/M15 A2961 RMK SLP070

CYQR;2013-01-08 04:00;CYQR 080400Z 13012KT 15SM FEW080 M15/M16 A2957 RMK AC1 SLP058

CYQR;2013-01-08 05:00;CYQR 080500Z 12010KT 15SM FEW080 M15/M17 A2956 RMK AC1 SLP054

CYQR;2013-01-08 06:00;CYQR 080600Z 12013KT 15SM FEW080 BKN230 M14/M16 A2953 RMK AC1CI2 SLP040

CYQR;2013-01-08 07:00;CYQR 080700Z CCA 13017KT 15SM DRSN OVC063 M12/M14 A2948 RMK SC8 SLP025

CYQR;2013-01-08 08:00;CYQR 080800Z 14014KT 15SM DRSN OVC042 M10/M12 A2945 RMK SC8 SLP015

CYQR;2013-01-08 08:27;CYQR 080827Z 15015KT 15SM -SN DRSN OVC030 M09/ RMK SC8

CYQR;2013-01-08 08:54;CYQR 080854Z 15014KT 3SM -SN DRSN OVC010 M08/ RMK SN2SC6

CYQR;2013-01-08 09:00;CYQR 080900Z 15014KT 3SM -SN DRSN OVC010 M08/M10 A2942 RMK SN2SC6 SLP000

CYQR;2013-01-08 09:04;CYQR 080904Z 14014KT 3/4SM R13/P6000FT/D -SN DRSN VV006 M08/ RMK SN8

CYQR;2013-01-08 09:28;CYQR 080928Z 15014KT 3SM -SN DRSN OVC033 M08/ RMK SN2SC6

CYQR;2013-01-08 10:00;CYQR 081000Z 15012G17KT 3SM -SN DRSN OVC015 M07/M08 A2939 RMK SN2SC6 SLP990

CYQR;2013-01-08 10:37;CYQR 081037Z 16012KT 3SM -SN DRSN OVC007 M05/ RMK SN2SC6

CYQR;2013-01-08 11:00;CYQR 081100Z 18006KT 3SM -SN OVC006 M04/M05 A2936 RMK SN2SC6 /S01/ SLP981

CYQR;2013-01-08 11:42;CYQR 081142Z 27020KT 3SM -SN DRSN OVC010 M01/ RMK SN1SC7

CYQR;2013-01-08 12:00;CYQR 081200Z 28026KT 3SM -SN BLSN OVC006 M01/M01 A2936 RMK BLSN2SC6 SLP977

CYQR;2013-01-08 13:00;CYQR 081300Z 29022G28KT 4SM -SN BLSN BKN008 OVC014 M03/M03 A2939 RMK SC5SC3 SLP986

CYQR;2013-01-08 13:13;CYQR 081313Z 29024KT 3SM -SN BLSN FEW008 SCT014 OVC022 M03/ RMK SC2SC2SC4

CYQR;2013-01-08 13:29;CYQR 081329Z 29025KT 3SM -SN BLSN BKN007 OVC022 M02/ RMK SC6SC2

CYQR;2013-01-08 13:51;CYQR 081351Z 30023KT 5SM -SN OVC010 M02/ RMK SC8 CIG RAG

CYQR;2013-01-08 14:00;CYQR 081400Z 29019G26KT 6SM -SN DRSN BKN010 OVC030 M02/M03 A2942 RMK SC7SC1 CIG RAG SLP996

CYQR;2013-01-08 14:43;CYQR 081443Z 29018KT 12SM DRSN BKN008 OVC035 M02/ RMK SC6SC2 INTMT -SN

CYQR;2013-01-08 15:00;CYQR 081500Z 29017KT 12SM DRSN BKN008 OVC035 M02/M03 A2944 RMK SC6SC2 CIG RAG SLP006

CYQR;2013-01-08 15:32;CYQR 081532Z 29023G28KT 15SM DRSN BKN010 OVC035 M02/ RMK SC6SC2 CIG RAG

CYQR;2013-01-08 16:00;CYQR 081600Z 29024KT 15SM DRSN BKN015 BKN021 M02/M03 A2946 RMK SC5SC2 SLP012

CYQR;2013-01-08 17:00;CYQR 081700Z 29023KT 15SM DRSN FEW017 SCT097 BKN250 M04/M05 A2949 RMK SC2AC1CI0 SLP022

CYQR;2013-01-08 18:00;CYQR 081800Z 30024KT 15SM DRSN FEW050 FEW250 M04/M06 A2951 RMK SC1CI1 SLP031

CYQR;2013-01-08 19:00;CYQR 081900Z 29022KT 15SM DRSN FEW050 FEW250 M04/M06 A2952 RMK SC1CI1 SLP036

CYQR;2013-01-08 20:00;CYQR 082000Z 30024KT 15SM DRSN SCT025 M03/M05 A2953 RMK SC2 SLP037

CYQR;2013-01-08 21:00;CYQR 082100Z 30025KT 15SM DRSN BKN026 M02/M05 A2954 RMK SC7 SLP037

CYQR;2013-01-08 21:09;CYQR 082109Z 30025G31KT 12SM -SN DRSN VCBLSN BKN026 BKN046 M03/ RMK SC6SC2

CYQR;2013-01-08 21:40;CYQR 082140Z 30029G36KT 6SM BLSN FEW012 BKN024 OVC042 M03/ RMK SF1SC5SC2 VIS S-NW 1

CYQR;2013-01-08 22:00;CYQR 082200Z 30035KT 2SM -SN BLSN OVC017 M03/M04 A2956 RMK SN2SC6 VIS SE-W 1 SLP045

CYQR;2013-01-08 22:15;CYQR 082215Z 30033G38KT 1 1/2SM R13/5500FT/D -SN BLSN BKN013 OVC043 M03/ RMK SN4SC3SC1 VIS VRB 1-2 VIS SE-W 3/4

CYQR;2013-01-08 22:33;CYQR 082233Z 30033KT 1SM R13/P6000FT/D -SN BLSN OVC009 M03/ RMK SN5SC3 VIS VRB 1/2-11/2 VIS N-NE 2

CYQR;2013-01-08 23:00;CYQR 082300Z 31036KT 1SM R13/2600FT/N -SN BLSN OVC007 M04/M04 A2961 RMK SN4SC4 VIS VRB 1/2-11/2 SLP061

CYQR;2013-01-08 23:10;CYQR 082310Z 31033G40KT 3/4SM R13/2800V4500FT/U -SN BLSN BKN007 OVC012 M04/ RMK SN3SC2SC2 VIS VRB 1/4-11/4 VIS NE 2

CYQR;2013-01-08 23:33;CYQR 082333Z 31031G37KT 4SM -SN BLSN BKN007 OVC019 M05/ RMK SN1SC3SC4 VIS S-NW 3/4

CYQR;2013-01-09 00:00;CYQR 090000Z 31031G36KT 4SM -SN BLSN SCT007 OVC021 M05/M06 A2968 RMK SN1SC2SC5 VIS S-NW 1 PRESRR SLP081

CYQR;2013-01-09 00:27;CYQR 090027Z 32028G34KT 7SM DRSN SCT021 SCT048 M05/ REBLSN RMK SC3SC1

CYQR;2013-01-09 01:00;CYQR 090100Z CCA 31026KT 10SM DRSN SCT010 M06/M07 A2971 REBLSN RMK SC2 SLP092

CYQR;2013-01-09 02:00;CYQR 090200Z 32022G29KT 15SM DRSN BKN015 M05/M07 A2975 REBLSN RMK SC7 OCNL BLSN SLP105

CYQR;2013-01-09 03:00;CYQR 090300Z 32021G28KT 15SM DRSN BKN015 M06/M08 A2979 RMK SC7 OCNL BLSN SLP120

CYQR;2013-01-09 04:00;CYQR 090400Z 32020G27KT 15SM DRSN BKN015 M05/M08 A2981 RMK SC7 SLP127

CYQR;2013-01-09 05:00;CYQR 090500Z 31015KT 15SM BKN015 M06/M08 A2984 RMK SC7 SLP137

CYQR;2013-01-09 06:00;CYQR 090600Z 30018KT 15SM BKN017 M06/M08 A2985 RMK SC7 SLP142

CYQR;2013-01-09 07:00;CYQR 090700Z 30016KT 15SM BKN019 M07/M09 A2986 RMK SC7 SLP146

CYQR;2013-01-09 08:00;CYQR 090800Z 31013KT 15SM FEW017 M08/M10 A2986 RMK SC1 SLP147

CYQR;2013-01-09 09:00;CYQR 090900Z 25007KT 15SM FEW017 M12/M13 A2990 RMK SC1 SLP163

CYQR;2013-01-09 10:00;CYQR 091000Z 25008KT 15SM FEW017 M13/M14 A2992 RMK SC1 SLP171

CYQR;2013-01-09 11:00;CYQR 091100Z 18006KT 15SM FEW017 M14/M15 A2992 RMK SC1 SLP169

CYQR;2013-01-09 12:00;CYQR 091200Z 19006KT 15SM BKN100 M13/M15 A2991 RMK AC6 SLP168

CYQR;2013-01-09 13:00;CYQR 091300Z 15005KT 15SM BKN071 M11/M13 A2989 RMK AC7 SLP162

CYQR;2013-01-09 14:00;CYQR 091400Z 12007KT 15SM FEW030 OVC065 M11/M12 A2989 RMK SC2SC6 SLP162

CYQR;2013-01-09 15:00;CYQR 091500Z 13010KT 15SM OVC048 M10/M12 A2988 RMK SC8 SLP158

CYQR;2013-01-09 16:00;CYQR 091600Z 13014KT 15SM OVC050 M09/M11 A2985 RMK SC8 SLP149

CYQR;2013-01-09 17:00;CYQR 091700Z 14020KT 15SM OVC068 M07/M10 A2982 RMK AC8 SLP139

CYQR;2013-01-09 18:00;CYQR 091800Z 15020G27KT 15SM SCT059 BKN072 OVC100 M06/M09 A2980 RMK SC3AC2AC2 SLP129

CYQR;2013-01-09 19:00;CYQR 091900Z 14022G29KT 15SM SCT056 BKN074 OVC100 M06/M08 A2974 RMK SC3AC3AC2 PRESFR SLP110

CYQR;2013-01-09 20:00;CYQR 092000Z 15022G27KT 15SM FEW050 BKN074 OVC100 M05/M08 A2971 RMK SC2AC3AC2 SLP098

CYQR;2013-01-09 21:00;CYQR 092100Z 15020G25KT 15SM FEW075 BKN130 OVC230 M05/M08 A2970 RMK AC2AC4CI2 SLP096

CYQR;2013-01-09 22:00;CYQR 092200Z 14017KT 15SM FEW070 BKN130 OVC230 M05/M07 A2967 RMK AC2AS4CI2 SLP088

CYQR;2013-01-09 23:00;CYQR 092300Z 14015KT 15SM FEW070 OVC130 M04/M07 A2966 RMK AC2AS6 SLP084

CYQR;2013-01-10 00:00;CYQR 100000Z 13012KT 15SM FEW070 OVC130 M03/M06 A2965 RMK AC2AS6 SLP079

CYQR;2013-01-10 01:00;CYQR 100100Z 15011KT 15SM OVC110 M02/M05 A2965 RMK AC8 SLP080

CYQR;2013-01-10 02:00;CYQR 100200Z 12009KT 15SM OVC110 M02/M04 A2963 RMK AC8 SLP074

CYQR;2013-01-10 03:00;CYQR 100300Z 12008KT 15SM OVC110 M02/M04 A2961 RMK AC8 SLP063

CYQR;2013-01-10 04:00;CYQR 100400Z 14008KT 15SM OVC110 M02/M04 A2961 RMK AC8 SLP062

CYQR;2013-01-10 05:00;CYQR 100500Z 19017KT 15SM FEW080 OVC110 02/M01 A2960 RMK AC1AC7 SLP060

CYQR;2013-01-10 06:00;CYQR 100600Z 20021KT 15SM FEW080 OVC110 03/M01 A2959 RMK AC1AC7 SLP049

CYQR;2013-01-10 07:00;CYQR 100700Z 20009KT 15SM OVC100 02/M00 A2958 RMK AC7 SLP046

CYQR;2013-01-10 08:00;CYQR 100800Z 19008KT 15SM OVC110 M00/M03 A2956 RMK AC7 SLP041

CYQR;2013-01-10 09:00;CYQR 100900Z 19003KT 15SM OVC110 M00/M03 A2957 RMK AC8 SLP045

CYQR;2013-01-10 10:00;CYQR 101000Z 27007KT 15SM OVC110 00/M03 A2957 RMK AC8 SLP043

CYQR;2013-01-10 11:00;CYQR 101100Z 14005KT 15SM OVC110 M01/M03 A2957 RMK AC8 SLP043

CYQR;2013-01-10 12:00;CYQR 101200Z 16004KT 15SM OVC110 M02/M04 A2958 RMK AC8 SLP048

CYQR;2013-01-10 13:00;CYQR 101300Z 32008KT 15SM OVC110 M01/M03 A2958 RMK AC8 SLP048

CYQR;2013-01-10 14:00;CYQR 101400Z 34015KT 15SM FEW060 OVC110 M02/M03 A2960 RMK SC2AC6 SLP052

CYQR;2013-01-10 15:00;CYQR 101500Z 35016KT 15SM SCT089 OVC120 M05/M06 A2961 RMK AC3AC5 SLP059

CYQR;2013-01-10 16:00;CYQR 101600Z 34016KT 15SM BKN097 OVC120 M07/M09 A2964 RMK AC6AC2 SLP069

CYQR;2013-01-10 16:14;CYQR 101614Z 33016KT 15SM FEW007 BKN097 OVC120 M07/ RMK ST1AC6AC1

CYQR;2013-01-10 16:20;CYQR 101620Z 32018KT 15SM BKN007 OVC097 M07/ RMK ST6AC2

CYQR;2013-01-10 17:00;CYQR 101700Z 34021KT 15SM BKN007 OVC097 M08/M09 A2968 RMK ST6AC2 SLP080

CYQR;2013-01-10 18:00;CYQR 101800Z 01019G25KT 15SM BKN008 OVC041 M08/M09 A2969 RMK ST5SC3 SLP083

CYQR;2013-01-10 18:21;CYQR 101821Z 01020KT 8SM -SN BKN008 OVC037 M08/ RMK ST6SC2

CYQR;2013-01-10 18:29;CYQR 101829Z 01019KT 2SM -SN BKN009 OVC019 M08/ RMK SC6SC2

CYQR;2013-01-10 18:34;CYQR 101834Z 01017G22KT 1SM R13/P6000FT/D -SN DRSN OVC009 M08/ RMK SN2SC6

CYQR;2013-01-10 18:39;CYQR 101839Z 01016KT 3/4SM R13/6000FT/D -SN DRSN OVC009 M09/ RMK SN2SC6

CYQR;2013-01-10 18:50;CYQR 101850Z 01016KT 1SM R13/5000FT/N -SN DRSN VV008 M08/ RMK SN8 VIS VRB 3/4-11/4

CYQR;2013-01-10 19:00;CYQR 101900Z 01014KT 1SM R13/5000FT/U -SN DRSN VV008 M08/M09 A2968 RMK SN8 VIS VRB 3/4-11/4 SLP082

CYQR;2013-01-10 19:15;CYQR 101915Z 03020KT 2 1/2SM R13/6000FT/N -SN DRSN OVC010 M07/ RMK SC8

CYQR;2013-01-10 19:31;CYQR 101931Z 03020KT 1SM R13/P6000FT/D -SN DRSN VV010 M08/ RMK SN8 VIS VRB 1/2-11/2

CYQR;2013-01-10 20:00;CYQR 102000Z 02019G24KT 1SM R13/2400FT/N -SN DRSN VV007 M08/M10 A2967 RMK SN8 VIS VRB 1/2-11/2 /S01/ SLP078

CYQR;2013-01-10 20:22;CYQR 102022Z 02017KT 1SM R13/4500FT/N -SN DRSN VV013 M08/ RMK SN8

CYQR;2013-01-10 21:00;CYQR 102100Z 02017G24KT 1SM R13/3500FT/N -SN DRSN VV012 M09/M10 A2969 RMK SN8 VIS VRB 1/2-11/2 SLP087

CYQR;2013-01-10 21:32;CYQR 102132Z 02020KT 3/4SM R13/3000FT/N -SN DRSN VV005 M09/ RMK SN8 VIS VRB 1/2-1

CYQR;2013-01-10 22:00;CYQR 102200Z 01017KT 3/4SM R13/4500FT/N -SN DRSN VV008 M09/M10 A2971 RMK SN8 VIS VRB 1/2-1 /S03/ SLP093

CYQR;2013-01-10 22:35;CYQR 102235Z 01020KT 1/2SM R13/3500FT/N SN DRSN VV005 M09/ RMK SN8

CYQR;2013-01-10 23:00;CYQR 102300Z 02020KT 1/2SM R13/3500FT/N SN DRSN VV003 M09/M11 A2973 RMK SN8 /S04/ SLP099

CYQR;2013-01-11 00:00;CYQR 110000Z 03014G19KT 3/4SM R13/4000FT/N -SN DRSN VV004 M10/M11 A2976 RESN RMK SN8 VIS VRB 1/2-1 /S06/ SLP114

CYQR;2013-01-11 01:00;CYQR 110100Z 03015KT 3/4SM R13/5000FT/U -SN DRSN VV003 M10/M11 A2978 RMK SN8 VIS VRB 1/2-1 /S01/ SLP119

CYQR;2013-01-11 02:00;CYQR 110200Z 03011KT 3/4SM R13/5000FT/N -SN DRSN VV003 M10/M11 A2981 RMK SN8 VIS VRB 1/2-1 /S02/ SLP131

CYQR;2013-01-11 03:00;CYQR 110300Z 04014G21KT 3/4SM R13/3000V6000FT/D -SN DRSN VV003 M10/M11 A2981 RMK SN8 VIS VRB 1/2-1 /S03/ SLP133

CYQR;2013-01-11 04:00;CYQR 110400Z 03018KT 1 1/4SM -SN DRSN VV013 M10/M12 A2981 RMK SN8 VIS VRB 1-11/2 /S04/ SLP131

CYQR;2013-01-11 05:00;CYQR 110500Z 02022G29KT 1SM R13/P6000FT/N -SN DRSN VV009 M10/M12 A2979 RMK SN8 VIS VRB 3/4-11/4 /S05/ SLP125

CYQR;2013-01-11 06:00;CYQR 110600Z 02027KT 1SM R13/P6000FT/N -SN DRSN VV010 M11/M13 A2979 RMK SN8 VIS VRB 3/4-11/4 /S07/ SLP128

CYQR;2013-01-11 07:00;CYQR 110700Z 03022G28KT 1SM R13/P6000FT/D -SN DRSN VV009 M11/M13 A2982 RMK SN8 VIS VRB 3/4-11/4 /S01/ SLP138

CYQR;2013-01-11 08:00;CYQR 110800Z 03017G24KT 1 1/2SM -SN DRSN VV013 M11/M13 A2984 RMK SN8 VIS VRB 1-2 /S02/ SLP145

CYQR;2013-01-11 09:00;CYQR 110900Z 03022G27KT 1 1/2SM -SN DRSN VV012 M12/M14 A2984 RMK SN8 VIS VRB 1-2 SLP148

CYQR;2013-01-11 10:00;CYQR 111000Z 03023G28KT 1 1/2SM -SN DRSN VV016 M12/M14 A2984 RMK SN8 VIS VRB 1-2 SLP148

CYQR;2013-01-11 11:00;CYQR 111100Z 02024KT 2SM -SN BLSN OVC019 M13/M14 A2986 RMK BLSN2SC6 SLP152

CYQR;2013-01-11 12:00;CYQR 111200Z 01018G25KT 2SM -SN BLSN OVC021 M13/M15 A2988 RMK BLSN2SC6 SLP163

CYQR;2013-01-11 12:46;CYQR 111246Z 01022KT 4SM BLSN OVC023 M13/ RMK SC8

CYQR;2013-01-11 13:00;CYQR 111300Z 02020G27KT 6SM BLSN OVC029 M13/M16 A2989 RMK SC8 SLP167

CYQR;2013-01-11 14:00;CYQR 111400Z 36018KT 8SM DRSN OVC061 M15/M17 A2993 REBLSN RMK SC8 SLP178

CYQR;2013-01-11 15:00;CYQR 111500Z 36019KT 8SM DRSN OVC055 M16/M18 A2995 RMK SC8 VCBLSN SW+W SLP190

CYQR;2013-01-11 16:00;CYQR 111600Z 36021G26KT 10SM DRSN OVC064 M16/M19 A2997 RMK SC8 VCBLSN SW+W SLP196

CYQR;2013-01-11 17:00;CYQR 111700Z 36020G25KT 10SM DRSN OVC031 M17/M19 A2999 RMK SC8 VCBLSN SW+W SLP201

CYQR;2013-01-11 18:00;CYQR 111800Z 01023G28KT 10SM DRSN SCT032 BKN051 OVC100 M17/M20 A2999 RMK SC3SC3AC2 VCBLSN SW+W SLP204

CYQR;2013-01-11 19:00;CYQR 111900Z 01022G27KT 10SM DRSN FEW015 BKN055 OVC100 M18/M20 A2997 RMK SC2SC4AC2 VCBLSN SW + W SLP199

CYQR;2013-01-11 20:00;CYQR 112000Z 35018G25KT 12SM DRSN FEW015 SCT082 OVC120 M19/M24 A2999 RMK SC2AC2AC4 VCBLSN SW + W SLP204

CYQR;2013-01-11 21:00;CYQR 112100Z 36020KT 12SM DRSN FEW025 SCT097 OVC120 M19/M24 A3000 RMK SC1AC3AC4 VCBLSN SW+W SLP211

CYQR;2013-01-11 22:00;CYQR 112200Z 36017KT 12SM DRSN FEW088 BKN120 M18/M24 A3004 RMK AC2AC6 SLP224

CYQR;2013-01-11 23:00;CYQR 112300Z 35018KT 12SM DRSN SCT062 OVC120 M19/M24 A3007 RMK SC3AC5 SLP232

CYQR;2013-01-12 00:00;CYQR 120000Z 35018G25KT 12SM DRSN SCT062 BKN090 OVC120 M19/M23 A3007 RMK SC2AC3AC2 SLP234

CYQR;2013-01-12 01:00;CYQR 120100Z 35020G25KT 15SM DRSN SCT025 OVC087 M19/M24 A3007 RMK SC3AC5 SLP236

CYQR;2013-01-12 02:00;CYQR 120200Z 35017KT 15SM FEW025 BKN100 M20/M24 A3008 RMK SC2AC3 SLP237

CYQR;2013-01-12 03:00;CYQR 120300Z 34019KT 15SM BKN100 M21/M25 A3009 RMK AC5 SLP246

CYQR;2013-01-12 04:00;CYQR 120400Z 34018KT 15SM FEW100 M23/M27 A3009 RMK AC1 SLP247

CYQR;2013-01-12 05:00;CYQR 120500Z 34017KT 15SM FEW100 M24/M28 A3010 RMK AC1 SLP249

CYQR;2013-01-12 06:00;CYQR 120600Z 34015KT 15SM SKC M24/M28 A3010 RMK SLP254

CYQR;2013-01-12 07:00;CYQR 120700Z 33010KT 15SM SKC M25/M30 A3012 RMK SLP259

CYQR;2013-01-12 08:00;CYQR 120800Z 32009KT 15SM SKC M25/M30 A3013 RMK SLP262

CYQR;2013-01-12 09:00;CYQR 120900Z 27002KT 15SM SKC M28/M32 A3014 RMK SLP271

CYQR;2013-01-12 10:00;CYQR 121000Z 29004KT 15SM SKC M28/M32 A3013 RMK SLP268

CYQR;2013-01-12 11:00;CYQR 121100Z 30008KT 15SM SKC M29/M34 A3011 RMK SLP262

CYQR;2013-01-12 12:00;CYQR 121200Z 31008KT 15SM SKC M29/M33 A3011 RMK SLP262

CYQR;2013-01-12 13:00;CYQR 121300Z 32008KT 15SM SKC M28/M32 A3011 RMK SLP262

CYQR;2013-01-12 14:00;CYQR 121400Z 31007KT 15SM FEW050 M29/M33 A3011 RMK SC1 SLP264

CYQR;2013-01-12 15:00;CYQR 121500Z 30006KT 15SM FEW100 FEW200 M29/M33 A3011 RMK AC1CI1 SLP266

CYQR;2013-01-12 16:00;CYQR 121600Z 28004KT 15SM FEW120 FEW240 M28/M33 A3012 RMK AC1CI1 SLP269

CYQR;2013-01-12 17:00;CYQR 121700Z 27006KT 15SM FEW120 FEW240 M26/M31 A3013 RMK AC1CI1 SLP270

CYQR;2013-01-12 18:00;CYQR 121800Z 28002KT 15SM FEW240 M23/M30 A3011 RMK CI1 SLP263

CYQR;2013-01-12 19:00;CYQR 121900Z 00000KT 15SM FEW240 M22/M29 A3010 RMK CI1 SLP257

CYQR;2013-01-12 20:00;CYQR 122000Z 15002KT 15SM FEW240 M21/M28 A3009 RMK CI1 SLP255

CYQR;2013-01-12 21:00;CYQR 122100Z 16005KT 15SM FEW240 M21/M26 A3009 RMK CI1 SLP256

CYQR;2013-01-12 22:00;CYQR 122200Z 16005KT 15SM FEW100 FEW240 M22/M27 A3010 RMK AC1CI1 SLP258

CYQR;2013-01-12 23:00;CYQR 122300Z 14007KT 15SM FEW100 FEW240 M22/M27 A3009 RMK AC1CI1 SLP257

CYQR;2013-01-13 00:00;CYQR 130000Z 14005KT 15SM FEW140 FEW240 M25/M30 A3009 RMK AC1CI1 SLP262

CYQR;2013-01-13 01:00;CYQR 130100Z 21004KT 15SM FEW140 FEW240 M25/M30 A3008 RMK AC1CI1 SLP258

CYQR;2013-01-13 02:00;CYQR 130200Z 26005KT 15SM SKC M23/M27 A3008 RMK SLP259

CYQR;2013-01-13 03:00;CYQR 130300Z 24004KT 15SM SKC M25/M29 A3008 RMK SLP256

CYQR;2013-01-13 04:00;CYQR 130400Z 28006KT 15SM BKN050 M25/M28 A3007 RMK SC6 SLP255

CYQR;2013-01-13 05:00;CYQR 130500Z 30007KT 15SM -SN OVC048 M20/M24 A3008 RMK SC8 SLP256

CYQR;2013-01-13 06:00;CYQR 130600Z 31008KT 15SM -SN OVC048 M19/M22 A3009 RMK SC8 SLP250

CYQR;2013-01-13 07:00;CYQR 130700Z 30008KT 15SM -SN BKN048 M18/M22 A3009 RMK SC7 SLP251

CYQR;2013-01-13 08:00;CYQR 130800Z 33008KT 15SM -SN BKN017 OVC050 M18/M21 A3010 RMK SC6SC2 SLP254

CYQR;2013-01-13 09:00;CYQR 130900Z 34009KT 15SM -SN BKN017 OVC050 M17/M21 A3012 RMK SC7SC1 SLP257

CYQR;2013-01-13 10:00;CYQR 131000Z 35011KT 15SM -SN OVC015 M17/M20 A3013 RMK SC8 SLP262

CYQR;2013-01-13 10:38;CYQR 131038Z 34009KT 15SM -SN OVC013 M17/ RMK SC8

CYQR;2013-01-13 11:00;CYQR 131100Z 34008KT 15SM -SN OVC011 M17/M20 A3013 RMK SC8 SLP262

CYQR;2013-01-13 11:24;CYQR 131124Z 34008KT 15SM -SN OVC009 M17/ RMK SC8

CYQR;2013-01-13 12:00;CYQR 131200Z 33010KT 15SM -SN OVC009 M17/M20 A3013 RMK SC8 SLP266

CYQR;2013-01-13 13:00;CYQR 131300Z 33008KT 10SM -SN OVC005 M18/M21 A3014 RMK SC8 SLP269

CYQR;2013-01-13 14:00;CYQR 131400Z 33009KT 8SM -SN OVC008 M19/M22 A3016 RMK SC8 SLP276

CYQR;2013-01-13 15:00;CYQR 131500Z 33010KT 10SM -SN OVC009 M20/M23 A3018 RMK SC8 SLP283

CYQR;2013-01-13 15:34;CYQR 131534Z 33008KT 5SM -SN OVC006 M19/ RMK SF8 CIG VRB 4-8

CYQR;2013-01-13 15:37;CYQR 131537Z 33008KT 4SM -SN BKN006 BKN250 M20/ RMK SF5CI1 VIS VRB 2-4 CIG VRB 4-8

CYQR;2013-01-13 15:38;CYQR 131538Z 33008KT 4SM -SN BKN006 BKN250 M20/ RMK SF5CI1 VIS VRB 2-6 CIG VRB 4-8

CYQR;2013-01-13 16:00;CYQR 131600Z 31009KT 5SM -SN BKN004 OVC250 M19/M23 A3018 RMK SF7CI0 SLP284

CYQR;2013-01-13 17:00;CYQR 131700Z 29006KT 12SM -SN OVC005 M20/M23 A3018 RMK SC8 SLP283

CYQR;2013-01-13 17:38;CYQR 131738Z 30006KT 12SM OVC005 M19/ RMK SF8 CIG LWR OVR CITY

CYQR;2013-01-13 18:00;CYQR 131800Z 29007KT 12SM BKN006 BKN076 OVC250 M18/M21 A3017 RMK SF5AC2CI0 SLP276

CYQR;2013-01-13 18:04;CYQR 131804Z 28008KT 12SM SCT006 SCT010 BKN074 OVC250 M18/ RMK SF3SC1AC3CI0

CYQR;2013-01-13 19:00;CYQR 131900Z 28008KT 15SM SCT012 BKN074 BKN250 M18/M21 A3015 RMK SF2AC3CI2 SLP270

CYQR;2013-01-13 20:00;CYQR 132000Z 28008KT 15SM SCT011 BKN075 OVC250 M18/M21 A3015 RMK SF2AC5CI1 SLP267

CYQR;2013-01-13 20:15;CYQR 132015Z 28006KT 15SM BKN010 OVC074 M18/ RMK ST6AC2

CYQR;2013-01-13 20:49;CYQR 132049Z 30008KT 15SM FEW010 BKN075 OVC250 M18/ RMK SC2AC4CI1

CYQR;2013-01-13 21:00;CYQR 132100Z 29008KT 15SM FEW010 BKN075 OVC250 M18/M21 A3015 RMK SC2AC5CI1 SLP264

CYQR;2013-01-13 22:00;CYQR 132200Z 28008KT 15SM BKN072 BKN250 M18/M21 A3015 RMK AC5CI1 SLP264

CYQR;2013-01-13 23:00;CYQR 132300Z 28008KT 15SM FEW072 FEW250 M22/M26 A3014 RMK AC1CI1 SLP261

CYQR;2013-01-14 00:00;CYQR 140000Z 27007KT 15SM FEW100 FEW250 M24/M27 A3013 RMK AC1CI0 SLP264

CYQR;2013-01-14 01:00;CYQR 140100Z 25008KT 15SM FEW100 FEW250 M25/M28 A3012 RMK AC1CI0 SLP262

CYQR;2013-01-14 02:00;CYQR 140200Z 26008KT 15SM FEW010 M26/M31 A3012 RMK SC2 SLP260

CYQR;2013-01-14 03:00;CYQR 140300Z 02002KT 15SM FEW015 M26/M30 A3012 RMK SC2 SLP263

CYQR;2013-01-14 04:00;CYQR 140400Z 27005KT 15SM SCT014 BKN060 M26/M30 A3011 RMK SC2SC2 FROIN SLP262

CYQR;2013-01-14 04:17;CYQR 140417Z 25004KT 12SM OVC012 M27/ RMK SC6 FROIN

CYQR;2013-01-14 04:44;CYQR 140444Z 00000KT 12SM OVC009 M26/ RMK ST7 IC FROIN

CYQR;2013-01-14 05:00;CYQR 140500Z 30005KT 12SM OVC009 M25/M29 A3012 RMK ST8 IC FROIN SLP264

CYQR;2013-01-14 05:26;CYQR 140526Z 30008KT 12SM OVC005 M22/ RMK ST8 IC FROIN

CYQR;2013-01-14 05:37;CYQR 140537Z 30008KT 12SM OVC004 M22/ RMK ST8 FROIN

CYQR;2013-01-14 05:49;CYQR 140549Z 30008KT 15SM OVC006 M21/ RMK ST8 CIG RAG FROIN

CYQR;2013-01-14 06:00;CYQR 140600Z 30007KT 15SM OVC006 M21/M25 A3012 RMK ST8 CIG RAG FROIN SLP259

CYQR;2013-01-14 06:35;CYQR 140635Z 30006KT 15SM OVC004 M21/ RMK ST8 FROIN

CYQR;2013-01-14 07:00;CYQR 140700Z 30005KT 12SM OVC003 M21/M24 A3012 RMK ST8 FROIN SLP260

CYQR;2013-01-14 07:11;CYQR 140711Z 31007KT 12SM -SN OVC004 M20/ RMK ST8 CIG RAG FROIN

CYQR;2013-01-14 08:00;CYQR 140800Z 31008KT 10SM -SN OVC004 M20/M23 A3012 RMK ST8 CIG RAG FROIN SLP259

CYQR;2013-01-14 08:44;CYQR 140844Z 30006KT 12SM OVC004 M20/ RMK ST8 FROIN

CYQR;2013-01-14 09:00;CYQR 140900Z 34005KT 12SM OVC004 M20/M24 A3013 RMK ST8 FROIN SLP262

CYQR;2013-01-14 10:00;CYQR 141000Z 32006KT 12SM OVC005 M20/M23 A3012 RMK ST8 FROIN SLP259

CYQR;2013-01-14 11:00;CYQR 141100Z 32005KT 8SM OVC005 M21/M24 A3010 RMK ST8 FROIN SLP253

CYQR;2013-01-14 11:12;CYQR 141112Z 34004KT 6SM BR OVC003 M21/ RMK ST8 VIS N-E 1 FROIN

CYQR;2013-01-14 11:26;CYQR 141126Z 32005KT 6SM BR OVC001 M21/ RMK ST8 FROIN VIS N-E 1 UA/020OVC025 CLR ABV

CYQR;2013-01-14 11:36;CYQR 141136Z 34003KT 1 1/2SM BR OVC002 M21/ RMK FG2ST6 FROIN VIS SW 4

CYQR;2013-01-14 11:48;CYQR 141148Z 34002KT 1SM R13/P6000FT/U BR OVC001 M21/ RMK FG3ST5 VIS VRB 3/4-11/4 VIS SW 3 FROIN

CYQR;2013-01-14 12:00;CYQR 141200Z 36002KT 3/4SM R13/P6000FT/D BR OVC001 M21/M25 A3010 RMK FG5ST3 VIS VRB 1/2-1 FROIN SLP257

CYQR;2013-01-14 13:00;CYQR 141300Z 00000KT 3/4SM R13/P6000FT/D BR OVC001 M22/M25 A3010 RMK FG5ST3 VIS VRB 1/2-1 SLP257

CYQR;2013-01-14 13:16;CYQR 141316Z 19002KT 4SM BR OVC001 M23/ RMK ST8

CYQR;2013-01-14 13:52;CYQR 141352Z 19002KT 10SM OVC002 M24/ RMK ST8

CYQR;2013-01-14 14:00;CYQR 141400Z 19002KT 10SM BKN002 OVC030 M25/M29 A3010 RMK SF7SC1 SLP258

CYQR;2013-01-14 14:30;CYQR 141430Z 18003KT 8SM SCT002 BKN300 M26/ RMK ST2CI0

CYQR;2013-01-14 15:00;CYQR 141500Z 18002KT 10SM FEW002 SCT030 BKN300 M25/M30 A3010 RMK ST2SC2CI1 SLP261

CYQR;2013-01-14 16:00;CYQR 141600Z 14003KT 12SM FEW002 FEW030 BKN250 M26/M30 A3009 RMK SF1SC1CI1 SLP258

CYQR;2013-01-14 17:00;CYQR 141700Z 15004KT 15SM FEW003 SCT250 M23/M26 A3008 RMK SF1CI0 SLP255

CYQR;2013-01-14 18:00;CYQR 141800Z 08005KT 15SM FEW002 SCT250 M22/M26 A3006 RMK SF1CI0 SLP243

CYQR;2013-01-14 19:00;CYQR 141900Z 12003KT 15SM FEW002 SCT250 M21/M25 A3003 RMK SF1CI0 SLP233

CYQR;2013-01-14 20:00;CYQR 142000Z 12006KT 15SM FEW002 BKN250 M21/M25 A3001 RMK SF1CI2 SLP227

CYQR;2013-01-14 21:00;CYQR 142100Z 16005KT 12SM FEW002 SCT250 M20/M23 A3001 RMK SF1CI2 SLP222

CYQR;2013-01-14 22:00;CYQR 142200Z 13005KT 15SM FEW098 BKN250 M21/M25 A3001 RMK AC2CI1 SLP222

CYQR;2013-01-14 23:00;CYQR 142300Z 13007KT 15SM FEW100 BKN250 M22/M26 A3000 RMK AC1CI1 SLP219

CYQR;2013-01-15 00:00;CYQR 150000Z 14008KT 15SM FEW250 M23/M28 A2999 RMK CI1 SLP219

CYQR;2013-01-15 01:00;CYQR 150100Z 15005KT 15SM FEW250 M24/M28 A2996 RMK CI1 SLP210

CYQR;2013-01-15 02:00;CYQR 150200Z 14005KT 15SM FEW230 M25/M30 A2996 RMK CI1 FROIN SLP207

CYQR;2013-01-15 03:00;CYQR 150300Z 13006KT 15SM SCT230 M26/M29 A2994 RMK CI1 FROIN SLP207

CYQR;2013-01-15 04:00;CYQR 150400Z 14008KT 15SM BKN085 BKN230 M23/M27 A2992 RMK AC5CI1 SLP201

CYQR;2013-01-15 05:00;CYQR 150500Z 14007KT 15SM OVC083 M22/M26 A2990 RMK AC7 SLP193

CYQR;2013-01-15 06:00;CYQR 150600Z 13008KT 15SM SCT080 M22/M26 A2987 RMK AC2 FROIN SLP176

CYQR;2013-01-15 07:00;CYQR 150700Z 14009KT 15SM BKN084 M21/M25 A2985 RMK AC6 FROIN SLP170

CYQR;2013-01-15 08:00;CYQR 150800Z 14010KT 15SM BKN085 M20/M24 A2983 RMK AC6 FROIN SLP164

CYQR;2013-01-15 09:00;CYQR 150900Z 14009KT 15SM BKN090 M20/M23 A2981 RMK AC6 SLP152

CYQR;2013-01-15 10:00;CYQR 151000Z 13008KT 15SM FEW010 FEW090 M21/M25 A2979 RMK SF1AC1 SLP146

CYQR;2013-01-15 11:00;CYQR 151100Z 12008KT 15SM FEW017 OVC025 M20/M24 A2978 RMK SC2SC6 SLP142

CYQR;2013-01-15 12:00;CYQR 151200Z 13007KT 15SM SCT012 OVC019 M19/M22 A2975 RMK SC4SC4 SLP132

CYQR;2013-01-15 12:10;CYQR 151210Z 13006KT 15SM BKN010 OVC019 M18/ RMK SC6SC2

CYQR;2013-01-15 12:27;CYQR 151227Z 14006KT 15SM OVC008 M17/ RMK SC8

CYQR;2013-01-15 13:00;CYQR 151300Z 14007KT 15SM OVC007 M17/M20 A2971 RMK SC8 SLP121

CYQR;2013-01-15 14:00;CYQR 151400Z 15006KT 15SM OVC009 M15/M18 A2971 RMK SC8 SLP119

CYQR;2013-01-15 14:23;CYQR 151423Z 14006KT 15SM BKN010 OVC030 M15/ RMK SC6SC2

CYQR;2013-01-15 14:47;CYQR 151447Z 14006KT 15SM FEW018 SCT035 BKN250 M15/ RMK SC2SC1CI0

CYQR;2013-01-15 15:00;CYQR 151500Z 16005KT 15SM BKN018 OVC030 M13/M15 A2969 RMK SC6SC2 SLP108

CYQR;2013-01-15 15:45;CYQR 151545Z 18006KT 12SM -SN BKN005 OVC016 M10/ RMK SC5SC3

CYQR;2013-01-15 16:00;CYQR 151600Z 17006KT 8SM -SN BKN005 OVC016 M09/M10 A2966 RMK SC5SC3 SLP101

CYQR;2013-01-15 16:31;CYQR 151631Z 19007KT 3SM -SN OVC006 M08/ RMK SC8

CYQR;2013-01-15 16:43;CYQR 151643Z 18007KT 1 1/2SM -SN OVC006 M08/ RMK SC8

CYQR;2013-01-15 16:47;CYQR 151647Z 18007KT 1SM R13/P6000FT/D -SN OVC007 M08/ RMK SN2SC6

CYQR;2013-01-15 17:00;CYQR 151700Z 19007KT 1SM R13/5500FT/D -SN OVC007 M06/M07 A2962 RMK SN2SC6 SLP087

CYQR;2013-01-15 17:08;CYQR 151708Z 19007KT 1 1/2SM R13/6000FT/U -SN OVC006 M06/ RMK SC8 VIS VRB 1-2

CYQR;2013-01-15 17:35;CYQR 151735Z 21011KT 3/4SM R13/4000VP6000FT/D -SN OVC007 M05/ RMK SN6SC2

CYQR;2013-01-15 18:00;CYQR 151800Z 23014KT 3/4SM R13/3500VP6000FT/U -SN OVC007 M02/M02 A2957 RMK SN6SC2 /S01/ PRESFR SLP058

CYQR;2013-01-15 18:09;CYQR 151809Z 23013KT 2SM -SN OVC005 M02/ RMK SC8

CYQR;2013-01-15 18:38;CYQR 151838Z 25015KT 3SM -SN -FZRA BKN006 OVC019 M00/ RMK SC6SC2

CYQR;2013-01-15 19:00;CYQR 151900Z 26014KT 8SM -RA FEW008 OVC019 00/00 A2952 REFZRA RMK SC2SC6 SLP043

CYQR;2013-01-15 19:51;CYQR 151951Z 27018KT 15SM FEW014 OVC023 01/ RMK SC2SC6

CYQR;2013-01-15 20:00;CYQR 152000Z 26019KT 15SM FEW014 OVC026 01/01 A2949 RMK SC2SC6 SLP032

CYQR;2013-01-15 21:00;CYQR 152100Z 30027KT 15SM -RA OVC026 02/01 A2948 RMK SC7 SLP021

CYQR;2013-01-15 21:33;CYQR 152133Z 30025G32KT 15SM OVC026 03/ RMK SC8

CYQR;2013-01-15 22:00;CYQR 152200Z 30023KT 15SM BKN026 OVC050 02/00 A2950 RMK SC7SC1 SLP028

CYQR;2013-01-15 23:00;CYQR 152300Z 31025KT 15SM OVC026 02/00 A2954 RMK SC8 SLP039

CYQR;2013-01-16 00:00;CYQR 160000Z 31025G30KT 15SM OVC028 03/00 A2956 RMK SC8 SLP049

CYQR;2013-01-16 01:00;CYQR 160100Z 30024G29KT 15SM OVC031 02/00 A2957 RMK SC8 SLP052

CYQR;2013-01-16 02:00;CYQR 160200Z 30020G25KT 15SM OVC029 02/00 A2960 RMK SC8 SLP060

CYQR;2013-01-16 02:47;CYQR 160247Z 30020KT 15SM -RA OVC025 02/ RMK SC8

CYQR;2013-01-16 03:00;CYQR 160300Z 30023KT 15SM -RA OVC023 02/00 A2961 RMK SC8 CIG RAG SLP059

CYQR;2013-01-16 03:30;CYQR 160330Z 31019KT 15SM BKN023 OVC062 02/ RMK SC6SC2

CYQR;2013-01-16 04:00;CYQR 160400Z 32018KT 15SM OVC021 02/00 A2962 RMK SC8 SLP064

CYQR;2013-01-16 04:09;CYQR 160409Z 31018KT 15SM -RA OVC019 02/ RMK SC8 -RA INTMT

CYQR;2013-01-16 04:50;CYQR 160450Z 32014KT 15SM BKN017 OVC046 02/ RMK SC6SC2 INTMT -RA

CYQR;2013-01-16 05:00;CYQR 160500Z 33014KT 15SM BKN017 OVC046 02/00 A2962 RMK SC6SC2 INTMT -RA SLP065

CYQR;2013-01-16 05:18;CYQR 160518Z 33012KT 15SM -RASN BKN015 OVC045 01/ RMK SC6SC2

CYQR;2013-01-16 05:33;CYQR 160533Z 34012KT 15SM -RASN OVC013 01/ RMK SC8

CYQR;2013-01-16 05:46;CYQR 160546Z 33011KT 10SM -SN OVC013 01/ RMK SC8

CYQR;2013-01-16 06:00;CYQR 160600Z 33010KT 10SM -SN OVC015 01/00 A2964 RMK SC8 SLP065

CYQR;2013-01-16 06:39;CYQR 160639Z 32009KT 7SM -SN SCT005 OVC015 00/ RMK SF4SC4

CYQR;2013-01-16 06:49;CYQR 160649Z 32007KT 3SM -SN BKN006 OVC015 00/ RMK SF5SC3

CYQR;2013-01-16 07:00;CYQR 160700Z 32009KT 2SM -SN OVC006 00/00 A2964 RMK SC8 SLP065

CYQR;2013-01-16 07:17;CYQR 160717Z 33008KT 2SM -SN OVC004 M00/ RMK SN2SC6

CYQR;2013-01-16 07:43;CYQR 160743Z 35005KT 4SM -SN BKN004 OVC015 M00/ RMK SF6SC2

CYQR;2013-01-16 08:00;CYQR 160800Z 36003KT 4SM -SN BKN003 OVC017 M00/M00 A2965 RMK ST6SC2 /S01/ SLP067

CYQR;2013-01-16 09:00;CYQR 160900Z 05011KT 3SM -SN OVC004 M04/M05 A2966 RMK ST8 VIS VRB 2-4 /S02/ SLP073

CYQR;2013-01-16 09:24;CYQR 160924Z 05008KT 3SM -SN FEW004 OVC009 M04/ RMK SF2SC6 VIS VRB 2-4

CYQR;2013-01-16 09:38;CYQR 160938Z 07009KT 6SM -SN FEW004 OVC012 M04/ RMK SF2SC6

CYQR;2013-01-16 10:00;CYQR 161000Z 04010KT 4SM -SN FEW004 OVC014 M05/M06 A2971 RMK SF2SC6 SLP087

CYQR;2013-01-16 10:35;CYQR 161035Z 04008KT 6SM -SN SCT014 OVC024 M05/ RMK SC4SC4

CYQR;2013-01-16 11:00;CYQR 161100Z 05006KT 7SM -SN FEW014 OVC024 M06/M07 A2972 RMK SC2SC6 /S03/ SLP091

CYQR;2013-01-16 11:50;CYQR 161150Z 04005KT 15SM OVC028 M06/ RMK SC8 /S04/

CYQR;2013-01-16 12:00;CYQR 161200Z 02006KT 15SM SCT017 OVC038 M06/M08 A2976 RMK SC3SC5 SLP106

CYQR;2013-01-16 12:24;CYQR 161224Z 03007KT 12SM -SN BKN017 OVC038 M06/ RMK SC6SC2

CYQR;2013-01-16 13:00;CYQR 161300Z 03009KT 4SM -SN SCT017 OVC038 M07/M09 A2980 RMK SC4SC4 SLP121

CYQR;2013-01-16 14:00;CYQR 161400Z 03003KT 12SM -SN FEW010 BKN040 OVC085 M07/M09 A2985 RMK SF1SC6AC1 SLP135

CYQR;2013-01-16 15:00;CYQR 161500Z 02005KT 15SM FEW012 BKN036 M08/M10 A2990 RMK SC1SC3 SLP158

CYQR;2013-01-16 16:00;CYQR 161600Z 04006KT 15SM BKN014 M08/M10 A2995 RMK SC7 SLP172

CYQR;2013-01-16 17:00;CYQR 161700Z 04006KT 15SM OVC014 M09/M11 A3000 RMK SC8 SLP189

CYQR;2013-01-16 18:00;CYQR 161800Z 04004KT 15SM VCSH OVC012 M09/M12 A3002 RMK SC8 SLP201

CYQR;2013-01-16 18:42;CYQR 161842Z 04003KT 15SM -SN OVC012 M09/ RMK SC8

CYQR;2013-01-16 19:00;CYQR 161900Z 36003KT 15SM -SN OVC012 M09/M11 A3001 RMK SC8 SLP199

CYQR;2013-01-16 20:00;CYQR 162000Z 29004KT 15SM OVC014 M09/M11 A3003 RMK SC8 SLP205

CYQR;2013-01-16 20:39;CYQR 162039Z 27004KT 15SM BKN016 OVC060 M09/ RMK SC6SC2

CYQR;2013-01-16 21:00;CYQR 162100Z 25005KT 4SM -SHSN BKN016 OVC054 M09/M11 A3002 RMK SC6SC2 SLP204

CYQR;2013-01-16 21:44;CYQR 162144Z 26005KT 12SM -SHSN BKN014 OVC055 M09/ RMK SC7SC1

CYQR;2013-01-16 22:00;CYQR 162200Z 26005KT 15SM BKN012 OVC054 M08/M10 A3004 RMK SC7SC1 SLP209

CYQR;2013-01-16 23:00;CYQR 162300Z 30004KT 15SM BKN033 OVC065 M08/M09 A3004 RMK SC7SC1 SLP211

CYQR;2013-01-16 23:17;CYQR 162317Z 28004KT 10SM -SHSN BKN033 OVC065 M08/ RMK SC7SC1

CYQR;2013-01-17 00:00;CYQR 170000Z 27008KT 10SM -SHSN BKN011 OVC060 M07/M08 A3006 RMK SC3SC5 -SHSN OCNL SLP217

CYQR;2013-01-17 00:30;CYQR 170030Z 27010KT 6SM -FZDZ BR OVC013 M06/ RMK SC8

CYQR;2013-01-17 00:50;CYQR 170050Z 28008KT 5SM BR OVC009 M06/ RMK SC8 INTMT -FZDZ

CYQR;2013-01-17 01:00;CYQR 170100Z 29007KT 10SM OVC006 M06/M06 A3006 REFZDZ RMK SC8 SLP219

CYQR;2013-01-17 01:21;CYQR 170121Z 31009KT 7SM -FZDZ OVC007 M05/ RMK ST8

CYQR;2013-01-17 02:00;CYQR 170200Z 30007KT 10SM -FZDZ OVC008 M05/M06 A3008 RMK ST8 -FZDZ INTMT SLP225

CYQR;2013-01-17 02:11;CYQR 170211Z 30007KT 15SM OVC008 M05/ REFZDZ RMK ST8 CIG RAG

CYQR;2013-01-17 02:29;CYQR 170229Z 29007KT 15SM OVC011 M05/ REFZDZ RMK ST8 CIG RAG

CYQR;2013-01-17 02:48;CYQR 170248Z 28008KT 15SM OVC009 M05/ REFZDZ RMK ST8 CIG RAG

CYQR;2013-01-17 03:00;CYQR 170300Z 28008KT 15SM OVC009 M05/M06 A3009 REFZDZ RMK ST8 CIG RAG SLP229

CYQR;2013-01-17 04:00;CYQR 170400Z 33015KT 15SM OVC009 M05/M06 A3011 RMK ST8 CIG RAG SLP235

CYQR;2013-01-17 05:00;CYQR 170500Z 36018KT 15SM OVC007 M07/M08 A3014 RMK ST8 CIG RAG SLP244

CYQR;2013-01-17 05:34;CYQR 170534Z 35016KT 15SM OVC012 M07/ RMK ST8 CIG RAG

CYQR;2013-01-17 05:46;CYQR 170546Z 35014KT 15SM FEW009 OVC016 M08/ RMK SF1ST7 CIG RAG

CYQR;2013-01-17 05:54;CYQR 170554Z 36014KT 15SM OVC013 M08/ RMK ST8 CIG RAG

CYQR;2013-01-17 06:00;CYQR 170600Z 01016KT 15SM FEW007 OVC013 M08/M10 A3018 RMK SF1ST8 CIG RAG SLP262

CYQR;2013-01-17 06:32;CYQR 170632Z 36009KT 15SM FEW008 BKN022 M10/ RMK SF1SC5

CYQR;2013-01-17 07:00;CYQR 170700Z 36009KT 15SM FEW008 BKN022 M10/M12 A3021 RMK SF1SC6 SLP272

CYQR;2013-01-17 08:00;CYQR 170800Z 01011KT 15SM FEW024 M12/M14 A3023 RMK SC1 SLP277

CYQR;2013-01-17 09:00;CYQR 170900Z 01012KT 15SM BKN015 M14/M16 A3026 RMK SC4 SLP294

CYQR;2013-01-17 10:00;CYQR 171000Z 01006KT 15SM BKN013 M15/M19 A3028 RMK SC3 SLP300

CYQR;2013-01-17 10:49;CYQR 171049Z 03010KT 15SM BKN014 M15/ RMK SC5

CYQR;2013-01-17 11:00;CYQR 171100Z 03010KT 15SM BKN014 M15/M18 A3026 RMK SC5 SLP293

CYQR;2013-01-17 12:00;CYQR 171200Z 04008KT 15SM OVC014 M15/M18 A3025 RMK SC8 SLP290

CYQR;2013-01-17 13:00;CYQR 171300Z 00000KT 15SM OVC011 M15/M18 A3027 RMK ST8 SLP295

CYQR;2013-01-17 14:00;CYQR 171400Z 18005KT 15SM OVC011 M14/M17 A3026 RMK ST8 SLP294

CYQR;2013-01-17 14:45;CYQR 171445Z 15006KT 15SM OVC009 M15/ RMK ST8

CYQR;2013-01-17 15:00;CYQR 171500Z 14005KT 15SM OVC009 M14/M17 A3026 RMK SC8 SLP292

CYQR;2013-01-17 16:00;CYQR 171600Z 12007KT 15SM -SN OVC006 M14/M17 A3025 RMK SC8 SLP288

CYQR;2013-01-17 17:00;CYQR 171700Z 14008KT 15SM -SN OVC006 M14/M17 A3025 RMK SC8 SLP287

CYQR;2013-01-17 17:43;CYQR 171743Z 14010KT 5SM -SN OVC011 M14/ RMK SC8

CYQR;2013-01-17 18:00;CYQR 171800Z 14011KT 4SM -SN OVC011 M14/M16 A3020 RMK SC8 PRESFR SLP272

CYQR;2013-01-17 18:04;CYQR 171804Z 14012KT 1 3/4SM -SN OVC010 M14/ RMK SN2SC6 PRESFR

CYQR;2013-01-17 18:52;CYQR 171852Z 13011KT 2 1/2SM -SN OVC008 M14/ RMK SC8 PRESFR

CYQR;2013-01-17 19:00;CYQR 171900Z 14012KT 5SM -SN OVC008 M14/M16 A3015 RMK SC8 SLP256

CYQR;2013-01-17 19:27;CYQR 171927Z 14015KT 10SM -SN SCT008 OVC039 M13/ RMK SC2SC6

CYQR;2013-01-17 20:00;CYQR 172000Z 13014KT 15SM -SN OVC035 M13/M16 A3011 RMK SC8 SLP244

CYQR;2013-01-17 21:00;CYQR 172100Z 13017KT 15SM -SN FEW015 OVC031 M13/M15 A3007 RMK SC2SC6 PRESFR SLP232

CYQR;2013-01-17 22:00;CYQR 172200Z 13019KT 5SM -SN OVC025 M13/M14 A3003 RMK SC8 PRESFR SLP218

CYQR;2013-01-17 23:00;CYQR 172300Z 13016G21KT 5SM -SN OVC019 M12/M13 A2999 RMK SC8 SLP207

CYQR;2013-01-17 23:43;CYQR 172343Z 13023KT 12SM -SN DRSN VCBLSN OVC009 M12/ RMK SC8 VIS SW-W 3SM

CYQR;2013-01-18 00:00;CYQR 180000Z 14022KT 8SM -SN DRSN OVC008 M12/M13 A2995 RMK SC8 OCNL BLSN VIS S-NW 3 SLP189

CYQR;2013-01-18 01:00;CYQR 180100Z 14021G26KT 6SM -SN BLSN OVC009 M11/M12 A2990 RMK SC8 VIS SW-NW 3 SLP173

CYQR;2013-01-18 02:00;CYQR 180200Z 14019G24KT 6SM -SN BLSN BKN009 OVC045 M10/M11 A2986 RMK SC6SC2 SLP162

CYQR;2013-01-18 02:14;CYQR 180214Z 14018KT 6SM -SN BLSN SCT009 OVC041 M10/ RMK SC4SC4

CYQR;2013-01-18 03:00;CYQR 180300Z 14018G25KT 6SM -SN DRSN VCBLSN FEW009 OVC032 M09/M11 A2982 REBLSN RMK SC2SC6 PRESFR SLP144

CYQR;2013-01-18 03:25;CYQR 180325Z 16017KT 6SM -SN DRSN -FZRA VCBLSN FEW009 OVC034 M09/ REBLSN RMK SC1SC7

CYQR;2013-01-18 03:42;CYQR 180342Z 15017KT 8SM -SN DRSN VCBLSN FEW009 BKN025 OVC079 M09/ REFZRA REBLSN RMK SC1SC6AC2 VIS SW-NW 4

CYQR;2013-01-18 04:00;CYQR 180400Z 16015G20KT 8SM -SN DRSN -FZRA FEW009 BKN025 OVC080 M09/M10 A2977 REBLSN RMK SC1SC6AC1 SLP128

CYQR;2013-01-18 05:00;CYQR 180500Z 16013KT 8SM -SN -FZRA FEW009 OVC020 M07/M08 A2976 RMK SC1SC7 SLP125

CYQR;2013-01-18 05:45;CYQR 180545Z 16013KT 8SM -FZRA FEW009 OVC026 M07/ RMK SC1SC7

CYQR;2013-01-18 06:00;CYQR 180600Z 17013KT 10SM -FZRA OVC026 M06/M07 A2972 RMK SC8 SLP107

CYQR;2013-01-18 06:41;CYQR 180641Z 14011KT 15SM BKN030 OVC084 M06/ REFZRA RMK SC6AC2

CYQR;2013-01-18 07:00;CYQR 180700Z 14006KT 15SM OVC030 M06/M07 A2971 REFZRA RMK SC8 SLP104

CYQR;2013-01-18 08:00;CYQR 180800Z 14006KT 15SM FEW038 BKN074 M08/M10 A2971 RMK SC2AC2 SLP103

CYQR;2013-01-18 09:00;CYQR 180900Z 14004KT 15SM FEW030 BKN055 M07/M08 A2971 RMK SC2SC6 SLP101

CYQR;2013-01-18 10:00;CYQR 181000Z 19004KT 15SM BKN055 OVC100 M07/M08 A2970 RMK SC6AC2 SLP100

CYQR;2013-01-18 11:00;CYQR 181100Z 00000KT 15SM FEW050 BKN110 M07/M08 A2968 RMK SC1AC6 SLP093

CYQR;2013-01-18 12:00;CYQR 181200Z 24003KT 15SM BKN110 M07/M08 A2968 RMK AC4 SLP090

CYQR;2013-01-18 13:00;CYQR 181300Z 28002KT 15SM OVC110 M07/M08 A2966 RMK AC7 SLP086

CYQR;2013-01-18 14:00;CYQR 181400Z 18007KT 15SM FEW025 SCT075 M06/M07 A2966 RMK SC1AC2 SLP084

CYQR;2013-01-18 15:00;CYQR 181500Z 22004KT 15SM FEW025 BKN070 BKN120 M07/M08 A2966 RMK SC1AC6AC1 SLP084

CYQR;2013-01-18 16:00;CYQR 181600Z 26003KT 15SM BKN048 OVC070 M03/M04 A2967 RMK SC7AC1 SLP086

CYQR;2013-01-18 17:00;CYQR 181700Z 27006KT 15SM BKN076 M02/M04 A2967 RMK AC7 SLP087

CYQR;2013-01-18 18:00;CYQR 181800Z 29012KT 15SM BKN120 00/M02 A2966 RMK AC7 SLP073

CYQR;2013-01-18 19:00;CYQR 181900Z 30010KT 15SM FEW020 BKN078 BKN120 01/M01 A2964 RMK SC1AC6AC2 SLP068

CYQR;2013-01-18 20:00;CYQR 182000Z 27011KT 15SM SCT076 BKN120 00/M01 A2963 RMK AC3AC2 SLP065

CYQR;2013-01-18 21:00;CYQR 182100Z 25008KT 15SM BKN064 OVC120 00/M01 A2961 RMK SC6AC2 SLP060

CYQR;2013-01-18 22:00;CYQR 182200Z 24003KT 15SM BKN060 BKN120 M00/M01 A2961 RMK SC6AC2 SLP060

CYQR;2013-01-18 23:00;CYQR 182300Z 26007KT 15SM BKN066 M01/M02 A2961 RMK AC7 SLP059

CYQR;2013-01-19 00:00;CYQR 190000Z 24004KT 15SM BKN065 M01/M03 A2960 RMK AC7 SLP056

CYQR;2013-01-19 01:00;CYQR 190100Z 32007KT 15SM BKN096 M01/M03 A2961 RMK AC6 SLP061

CYQR;2013-01-19 02:00;CYQR 190200Z 29015KT 15SM BKN100 M00/M02 A2961 RMK AC6 SLP061

CYQR;2013-01-19 03:00;CYQR 190300Z 30012KT 15SM BKN100 M01/M03 A2963 RMK AC7 SLP066

CYQR;2013-01-19 04:00;CYQR 190400Z 30020KT 15SM BKN100 00/M02 A2963 RMK AC6 SLP066

CYQR;2013-01-19 05:00;CYQR 190500Z 31023G28KT 15SM BKN036 02/M01 A2966 RMK SC7 SLP074

CYQR;2013-01-19 05:43;CYQR 190543Z 33025G30KT 15SM BKN014 OVC031 01/ RMK SC5SC3

CYQR;2013-01-19 06:00;CYQR 190600Z 34030KT 15SM -SN BKN011 OVC031 00/M01 A2970 RMK SC5SC3 SLP085

CYQR;2013-01-19 06:16;CYQR 190616Z 34027G33KT 10SM -SN SCT014 OVC036 M04/ RMK SC4SC4

CYQR;2013-01-19 06:34;CYQR 190634Z 33028KT 10SM -SN DRSN BKN014 OVC036 M05/ RMK SC5SC3

CYQR;2013-01-19 07:00;CYQR 190700Z 33027KT 15SM -SN DRSN FEW008 OVC014 M08/M10 A2978 RMK SF1SC8 SLP109

CYQR;2013-01-19 07:50;CYQR 190750Z 35024G30KT 15SM SCT011 SCT020 BKN046 OVC100 M12/ RMK SC3SC1SC2AC2

CYQR;2013-01-19 08:00;CYQR 190800Z 35028G34KT 15SM FEW011 SCT020 OVC046 M13/M15 A2985 RMK SC2SC2SC5 PRESRR SLP132

CYQR;2013-01-19 09:00;CYQR 190900Z 34024G30KT 15SM SCT017 OVC057 M15/M18 A2991 RMK SC2SC6 SLP166

CYQR;2013-01-19 10:00;CYQR 191000Z 34020G25KT 15SM OVC021 M15/M19 A2997 RMK SC8 PRESRR SLP186

CYQR;2013-01-19 11:00;CYQR 191100Z 33023G28KT 15SM OVC015 M15/M18 A3000 RMK SC8 SLP196

CYQR;2013-01-19 11:33;CYQR 191133Z 34022G28KT 12SM -SN OVC015 M15/ RMK SC8

CYQR;2013-01-19 12:00;CYQR 191200Z 33030G36KT 12SM -SN SCT015 OVC027 M16/M21 A3006 RMK SC3SC5 PRESRR SLP222

CYQR;2013-01-19 13:00;CYQR 191300Z 34032KT 12SM DRSN BKN023 M17/M23 A3011 RMK SC5 SLP238

CYQR;2013-01-19 14:00;CYQR 191400Z 34026KT 15SM DRSN FEW034 M20/M25 A3015 RMK SC2 SLP251

CYQR;2013-01-19 15:00;CYQR 191500Z 35027KT 15SM DRSN FEW035 FEW120 M21/M26 A3020 RMK SC1AC1 SLP273

CYQR;2013-01-19 16:00;CYQR 191600Z 35022KT 15SM FEW040 FEW250 M21/M27 A3026 RMK SC1CI0 SLP293

CYQR;2013-01-19 17:00;CYQR 191700Z 35016G24KT 15SM FEW040 FEW250 M22/M27 A3031 RMK SC1CI0 SLP309

CYQR;2013-01-19 18:00;CYQR 191800Z 35011G19KT 15SM FEW040 FEW250 M21/M26 A3035 RMK SC1CI1 SLP322

CYQR;2013-01-19 19:00;CYQR 191900Z 34011KT 15SM FEW040 FEW250 M21/M26 A3032 RMK SC1CI1 SLP314

CYQR;2013-01-19 20:00;CYQR 192000Z 33010G15KT 15SM FEW040 BKN250 M21/M26 A3032 RMK SC1CI1 SLP315

CYQR;2013-01-19 21:00;CYQR 192100Z 29012KT 15SM FEW040 BKN250 M20/M26 A3033 RMK SC1CI2 SLP327

CYQR;2013-01-19 22:00;CYQR 192200Z 29009KT 15SM FEW040 BKN250 M21/M26 A3032 RMK SC1CI2 SLP325

CYQR;2013-01-19 23:00;CYQR 192300Z 31006KT 15SM FEW040 BKN250 M22/M26 A3031 RMK SC1CI1 SLP323

CYQR;2013-01-20 00:00;CYQR 200000Z 30004KT 15SM FEW040 BKN250 M22/M27 A3030 RMK SC1CI1 SLP321

CYQR;2013-01-20 01:00;CYQR 200100Z 21006KT 15SM BKN250 M23/M27 A3030 RMK CI1 SLP320

CYQR;2013-01-20 02:00;CYQR 200200Z 26004KT 15SM SCT082 OVC250 M22/M26 A3029 RMK AC2CI2 SLP316

CYQR;2013-01-20 03:00;CYQR 200300Z 21004KT 15SM BKN250 M21/M25 A3026 RMK CI3 SLP309

CYQR;2013-01-20 03:47;CYQR 200347Z 24005KT 12SM -SN BKN039 OVC065 M21/ RMK SC5SC3

CYQR;2013-01-20 04:00;CYQR 200400Z 27005KT 12SM -SN FEW021 BKN039 OVC065 M20/M24 A3026 RMK SC1SC5SC2 SLP309

CYQR;2013-01-20 05:00;CYQR 200500Z 28008KT 3SM -SN OVC015 M19/M22 A3026 RMK SC8 SLP310

CYQR;2013-01-20 06:00;CYQR 200600Z 30009KT 4SM -SN OVC012 M18/M21 A3026 RMK SC8 SLP307

CYQR;2013-01-20 07:00;CYQR 200700Z 33015KT 4SM -SN DRSN OVC018 M17/M20 A3027 RMK SC8 SLP311

CYQR;2013-01-20 07:39;CYQR 200739Z 33015KT 4SM -SN DRSN OVC013 M17/ RMK SC8

CYQR;2013-01-20 08:00;CYQR 200800Z 34018KT 4SM -SN DRSN OVC013 M18/M21 A3030 RMK SC8 SLP320

CYQR;2013-01-20 08:12;CYQR 200812Z 35024KT 1 1/2SM -SN BLSN OVC013 M19/ RMK SC8 VIS VRB 1-2

CYQR;2013-01-20 09:00;CYQR 200900Z 34022KT 1 1/2SM -SN BLSN SCT026 OVC065 M20/M24 A3036 RMK SC2SC6 VIS VRB 1-2 SLP343

CYQR;2013-01-20 09:36;CYQR 200936Z 35022KT 4SM -SN BLSN FEW013 SCT037 OVC065 M22/ RMK SC2SC2SC5

CYQR;2013-01-20 10:00;CYQR 201000Z 34021KT 6SM -SN DRSN FEW013 FEW037 SCT072 M22/M26 A3040 REBLSN RMK SC1SC1AC1 /S01/ SLP357

CYQR;2013-01-20 10:39;CYQR 201039Z 33018KT 15SM DRSN FEW013 FEW037 SCT072 M24/ RMK SC1SC1AC1

CYQR;2013-01-20 11:00;CYQR 201100Z 33020KT 15SM DRSN FEW013 FEW037 SCT072 M24/M28 A3044 RMK SC1SC1AC1 SLP369

CYQR;2013-01-20 12:00;CYQR 201200Z 33016G21KT 15SM DRSN FEW250 M25/M30 A3047 RMK CI0 SLP387

CYQR;2013-01-20 13:00;CYQR 201300Z 34019G24KT 15SM FEW250 M26/M31 A3049 RMK CI0 SLP393

CYQR;2013-01-20 14:00;CYQR 201400Z 33019G24KT 15SM SKC M27/M32 A3050 RMK SLP396

CYQR;2013-01-20 15:00;CYQR 201500Z 33024KT 15SM DRSN SKC M27/M32 A3050 RMK SLP397

CYQR;2013-01-20 16:00;CYQR 201600Z 31013KT 15SM SKC M28/M33 A3052 RMK SLP405

CYQR;2013-01-20 17:00;CYQR 201700Z 30015KT 15SM FEW250 M27/M32 A3053 RMK CI1 SLP406

CYQR;2013-01-20 18:00;CYQR 201800Z 30017G24KT 15SM FEW250 M26/M31 A3052 RMK CI1 SLP399

CYQR;2013-01-20 19:00;CYQR 201900Z 32021G27KT 12SM DRSN FEW020 SCT250 M25/M30 A3048 RMK SC1CI0 SLP388

CYQR;2013-01-20 20:00;CYQR 202000Z 32025KT 15SM DRSN FEW015 FEW250 M25/M31 A3048 RMK SC1CI0 VIS LWR S-NW BLSN SLP387

CYQR;2013-01-20 21:00;CYQR 202100Z 31017KT 15SM DRSN FEW015 FEW250 M25/M31 A3048 RMK SC1CI1 SLP387

CYQR;2013-01-20 22:00;CYQR 202200Z 31022KT 15SM DRSN FEW020 FEW250 M26/M31 A3046 RMK SC1CI1 SLP382

CYQR;2013-01-20 23:00;CYQR 202300Z 32017KT 15SM DRSN FEW020 FEW250 M26/M31 A3045 RMK SC1CI1 SLP379

CYQR;2013-01-21 00:00;CYQR 210000Z 31014KT 15SM FEW120 M27/M32 A3045 RMK AC1 SLP384

CYQR;2013-01-21 01:00;CYQR 210100Z 31013KT 15SM DRSN FEW250 M27/M32 A3045 RMK CI1 SLP382

CYQR;2013-01-21 02:00;CYQR 210200Z 30014KT 15SM SKC M29/M33 A3043 RMK SLP377

CYQR;2013-01-21 03:00;CYQR 210300Z 30010KT 15SM SKC M29/M34 A3043 RMK SLP379

CYQR;2013-01-21 04:00;CYQR 210400Z 30012KT 15SM SKC M30/M34 A3040 RMK SLP372

CYQR;2013-01-21 05:00;CYQR 210500Z 30013KT 15SM SKC M29/M34 A3040 RMK SLP370

CYQR;2013-01-21 06:00;CYQR 210600Z 30010KT 15SM SKC M30/M34 A3040 RMK SLP367

CYQR;2013-01-21 07:00;CYQR 210700Z 29012KT 15SM SKC M30/M35 A3039 RMK SLP364

CYQR;2013-01-21 08:00;CYQR 210800Z 30015KT 15SM SKC M30/M34 A3035 RMK SLP354

CYQR;2013-01-21 09:00;CYQR 210900Z 32011KT 15SM SKC M30/M34 A3035 RMK SLP353

CYQR;2013-01-21 10:00;CYQR 211000Z 26004KT 15SM SKC M32/M36 A3035 RMK SLP352

CYQR;2013-01-21 11:00;CYQR 211100Z 29006KT 15SM SKC M31/M36 A3034 RMK SLP347

CYQR;2013-01-21 12:00;CYQR 211200Z 31010KT 15SM SKC M29/M33 A3033 RMK SLP346

CYQR;2013-01-21 13:00;CYQR 211300Z 30004KT 15SM SKC M29/M33 A3033 RMK SLP344

CYQR;2013-01-21 14:00;CYQR 211400Z 31011KT 15SM FEW250 M28/M32 A3032 RMK CI1 SLP342

CYQR;2013-01-21 15:00;CYQR 211500Z 30009KT 15SM FEW160 FEW250 M30/M34 A3030 RMK AC1CI0 SLP340

CYQR;2013-01-21 16:00;CYQR 211600Z 31009KT 15SM FEW160 SCT250 M29/M33 A3031 RMK AC2CI0 SLP342

CYQR;2013-01-21 17:00;CYQR 211700Z 33007KT 15SM FEW160 BKN250 M25/M29 A3031 RMK AC2CI1 SLP342

CYQR;2013-01-21 18:00;CYQR 211800Z 32009KT 15SM FEW160 SCT220 BKN260 M23/M28 A3029 RMK AC2CI1CI1 SLP329

CYQR;2013-01-21 19:00;CYQR 211900Z 33011KT 15SM BKN097 BKN260 M21/M27 A3028 RMK AC5CI2 SLP324

CYQR;2013-01-21 20:00;CYQR 212000Z 32010KT 15SM SCT100 BKN220 M21/M27 A3025 RMK AC3CI1 SLP317

CYQR;2013-01-21 21:00;CYQR 212100Z 35009KT 15SM SCT095 OVC220 M21/M26 A3024 RMK AC3CI2 SLP311

CYQR;2013-01-21 22:00;CYQR 212200Z 35006KT 15SM SCT100 OVC220 M21/M26 A3024 RMK AC3CI4 SLP309

CYQR;2013-01-21 23:00;CYQR 212300Z 34003KT 15SM BKN120 OVC220 M21/M26 A3023 RMK AC5CI3 SLP307

CYQR;2013-01-22 00:00;CYQR 220000Z 32002KT 15SM BKN097 OVC220 M21/M26 A3023 RMK AC5CI3 VIA YWG FIC SLP305

CYQR;2013-01-22 01:00;CYQR 220100Z 26004KT 15SM BKN084 OVC220 M21/M26 A3022 RMK AC5CI3 SLP304

CYQR;2013-01-22 02:00;CYQR 220200Z 21002KT 15SM BKN078 OVC220 M21/M25 A3021 RMK AC6CI2 SLP300

CYQR;2013-01-22 03:00;CYQR 220300Z 00000KT 15SM BKN072 OVC220 M21/M25 A3021 RMK AC5CI3 SLP299

CYQR;2013-01-22 04:00;CYQR 220400Z 00000KT 15SM SCT073 BKN120 M21/M25 A3020 RMK AC3AC3 SLP297

CYQR;2013-01-22 05:00;CYQR 220500Z 21004KT 15SM OVC120 M21/M26 A3019 RMK AC7 SLP294

CYQR;2013-01-22 06:00;CYQR 220600Z 18002KT 15SM OVC120 M21/M25 A3018 RMK AC8 SLP284

CYQR;2013-01-22 07:00;CYQR 220700Z 18003KT 15SM BKN120 M21/M25 A3017 RMK AC7 SLP280

CYQR;2013-01-22 08:00;CYQR 220800Z 13002KT 15SM OVC093 M20/M25 A3017 RMK AC8 SLP280

CYQR;2013-01-22 09:00;CYQR 220900Z 15003KT 15SM OVC089 M20/M24 A3015 RMK AC8 SLP270

CYQR;2013-01-22 10:00;CYQR 221000Z 14004KT 15SM OVC080 M19/M24 A3014 RMK AC8 SLP266

CYQR;2013-01-22 11:00;CYQR 221100Z 12005KT 15SM OVC076 M19/M24 A3013 RMK AC8 SLP265

CYQR;2013-01-22 12:00;CYQR 221200Z 14006KT 15SM OVC068 M19/M23 A3012 RMK AC8 SLP260

CYQR;2013-01-22 12:46;CYQR 221246Z 13008KT 15SM -SN OVC068 M19/ RMK AC8

CYQR;2013-01-22 13:00;CYQR 221300Z 13008KT 15SM -SN OVC068 M19/M23 A3010 RMK AC8 SLP254

CYQR;2013-01-22 14:00;CYQR 221400Z 16006KT 15SM -SN OVC064 M18/M22 A3009 RMK SC8 SLP251

CYQR;2013-01-22 14:51;CYQR 221451Z 15006KT 2 1/2SM -SN SCT014 OVC030 M18/ RMK SC3SC5

CYQR;2013-01-22 15:00;CYQR 221500Z 15007KT 1 1/2SM -SN FEW012 OVC025 M18/M21 A3008 RMK SN2SF1SC6 VIS VRB 1-2 SLP243

CYQR;2013-01-22 15:43;CYQR 221543Z 14005KT 2 1/2SM -SN FEW012 OVC020 M17/ RMK SF1SC7

CYQR;2013-01-22 16:00;CYQR 221600Z 13005KT 2 1/2SM -SN FEW012 OVC020 M17/M21 A3010 RMK SF1SC7 SLP249

CYQR;2013-01-22 16:09;CYQR 221609Z 14005KT 5SM -SN OVC022 M17/ RMK SC8

CYQR;2013-01-22 17:00;CYQR 221700Z 13004KT 4SM -SN FEW025 OVC230 M17/M21 A3009 RMK SC2CI2 SLP246

CYQR;2013-01-22 17:34;CYQR 221734Z 14004KT 15SM FEW025 SCT150 OVC230 M17/ RMK SC1AC2CI2 IC

CYQR;2013-01-22 18:00;CYQR 221800Z 15003KT 15SM FEW025 BKN150 OVC230 M16/M20 A3009 RMK SC2AC4CI0 SLP245

CYQR;2013-01-22 19:00;CYQR 221900Z 00000KT 15SM BKN051 BKN092 M15/M19 A3007 RMK SC6AC2 SLP239

CYQR;2013-01-22 20:00;CYQR 222000Z 28002KT 15SM BKN044 BKN080 M16/M19 A3009 RMK SC5AC2 SLP245

CYQR;2013-01-22 21:00;CYQR 222100Z 32005KT 15SM FEW051 SCT100 OVC230 M17/M20 A3008 RMK SC2AC2CI2 SLP242

CYQR;2013-01-22 22:00;CYQR 222200Z 33006KT 15SM SCT098 OVC230 M17/M21 A3010 RMK AC3CI3 SLP247

CYQR;2013-01-22 23:00;CYQR 222300Z 34008KT 15SM FEW098 BKN230 M18/M21 A3010 RMK AC2CI3 SLP247

CYQR;2013-01-23 00:00;CYQR 230000Z 32008KT 15SM FEW100 BKN230 M19/M22 A3012 RMK AC2CI2 SLP259

CYQR;2013-01-23 01:00;CYQR 230100Z 32009KT 15SM FEW100 BKN230 M19/M23 A3012 RMK AC2CI2 SLP257

CYQR;2013-01-23 02:00;CYQR 230200Z 30009KT 15SM OVC230 M20/M24 A3014 RMK CI6 SLP264

CYQR;2013-01-23 03:00;CYQR 230300Z 30009KT 15SM OVC230 M19/M23 A3014 RMK CI6 SLP265

CYQR;2013-01-23 04:00;CYQR 230400Z 32009KT 15SM SCT230 M20/M24 A3016 RMK CI3 SLP272

CYQR;2013-01-23 05:00;CYQR 230500Z 34009KT 15SM SKC M21/M25 A3019 RMK SLP280

CYQR;2013-01-23 06:00;CYQR 230600Z 34010KT 15SM SKC M23/M26 A3021 RMK SLP289

CYQR;2013-01-23 07:00;CYQR 230700Z 33009KT 15SM SKC M24/M27 A3022 RMK SLP293

CYQR;2013-01-23 08:00;CYQR 230800Z 32008KT 15SM SKC M24/M27 A3023 RMK SLP297

CYQR;2013-01-23 09:00;CYQR 230900Z 29008KT 15SM SKC M25/M29 A3026 RMK SLP311

CYQR;2013-01-23 10:00;CYQR 231000Z 31007KT 15SM SCT230 M25/M29 A3029 RMK CI1 SLP318

CYQR;2013-01-23 11:00;CYQR 231100Z 34006KT 15SM SCT230 M25/M29 A3030 RMK CI1 SLP324

CYQR;2013-01-23 12:00;CYQR 231200Z 34010KT 15SM SCT230 M26/M29 A3033 RMK CI1 SLP334

CYQR;2013-01-23 13:00;CYQR 231300Z 34006KT 15SM BKN230 M25/M29 A3035 RMK CI4 SLP341

CYQR;2013-01-23 14:00;CYQR 231400Z 35007KT 15SM BKN230 M25/M29 A3037 RMK CI4 SLP348

CYQR;2013-01-23 15:00;CYQR 231500Z 02006KT 15SM BKN230 M24/M28 A3039 RMK CI6 SLP356

CYQR;2013-01-23 16:00;CYQR 231600Z 33003KT 15SM FEW100 SCT150 BKN230 M25/M29 A3042 RMK AC1AS2CI4 FROIN SLP364

CYQR;2013-01-23 17:00;CYQR 231700Z 04006KT 15SM BKN150 OVC230 M22/M26 A3042 RMK AC6CI1 SLP365

CYQR;2013-01-23 18:00;CYQR 231800Z 09003KT 15SM FEW150 OVC230 M21/M26 A3042 RMK AC1CI7 SLP365

CYQR;2013-01-23 19:00;CYQR 231900Z 15002KT 15SM FEW130 OVC230 M21/M26 A3043 RMK AC2CI4 SLP369

CYQR;2013-01-23 20:00;CYQR 232000Z 18006KT 15SM FEW120 SCT150 OVC230 M22/M26 A3043 RMK AC1AS3CI4 SLP370

CYQR;2013-01-23 21:00;CYQR 232100Z 14008KT 15SM SCT120 BKN150 OVC230 M22/M27 A3042 RMK AC3AS3CI2 SLP370

CYQR;2013-01-23 22:00;CYQR 232200Z 14008KT 15SM FEW120 BKN150 OVC230 M22/M27 A3041 RMK AC2AS5CI2 SLP365

CYQR;2013-01-23 23:00;CYQR 232300Z 13010KT 15SM FEW090 OVC140 M22/M26 A3041 RMK AC2AS6 SLP365

CYQR;2013-01-24 00:00;CYQR 240000Z 13011KT 15SM BKN083 OVC140 M22/M26 A3037 RMK AC6AS2 SLP353

CYQR;2013-01-24 01:00;CYQR 240100Z 14013KT 15SM OVC071 M22/M26 A3035 RMK AC8 MOON DMLY VSBL SLP346

CYQR;2013-01-24 02:00;CYQR 240200Z 14013G18KT 15SM OVC069 M21/M26 A3036 RMK AC8 MOON DMLY VSBL SLP349

CYQR;2013-01-24 03:00;CYQR 240300Z 13015KT 15SM OVC055 M21/M26 A3034 RMK SC8 SLP338

CYQR;2013-01-24 03:51;CYQR 240351Z 15017G22KT 12SM -SN DRSN OVC034 M21/ RMK SC8

CYQR;2013-01-24 04:00;CYQR 240400Z 14020KT 12SM -SN DRSN OVC034 M21/M25 A3030 RMK SC8 SLP328

CYQR;2013-01-24 04:50;CYQR 240450Z 14018G24KT 2 1/2SM -SN BLSN OVC016 M20/ RMK SC8

CYQR;2013-01-24 05:00;CYQR 240500Z 14020KT 1 1/2SM -SN BLSN OVC012 M20/M24 A3027 RMK SC8 PRESFR SLP316

CYQR;2013-01-24 05:06;CYQR 240506Z 14019G26KT 1SM R13/P6000FT/N -SN BLSN OVC010 M20/ RMK SN1SC7

CYQR;2013-01-24 05:37;CYQR 240537Z 14019G26KT 2SM -SN BLSN OVC012 M20/ RMK SC8

CYQR;2013-01-24 06:00;CYQR 240600Z 14020G28KT 2SM -SN BLSN OVC019 M20/M24 A3025 RMK SC8 OBS TAKEN +06 SLP305

CYQR;2013-01-24 07:00;CYQR 240700Z 14021G28KT 2 1/2SM BLSN SCT015 OVC057 M21/M24 A3021 RMK SC3SC5 SLP293

CYQR;2013-01-24 08:00;CYQR 240800Z 14024G32KT 2SM BLSN SCT006 OVC057 M21/M24 A3015 RMK SC3SC5 PRESFR SLP273

CYQR;2013-01-24 09:00;CYQR 240900Z 14026G32KT 2SM BLSN BKN006 OVC060 M21/M25 A3010 RMK SC3SC3 PRESFR SLP256

CYQR;2013-01-24 10:00;CYQR 241000Z 13026G31KT 2SM BLSN BKN015 OVC055 M20/M24 A3007 RMK SC5SC3 PRESFR SLP246

CYQR;2013-01-24 11:00;CYQR 241100Z 14026G36KT 1 1/2SM BLSN BKN007 OVC095 M20/M24 A3002 RMK SC2AC6 PRESFR SLP230

CYQR;2013-01-24 12:00;CYQR 241200Z 14025G32KT 1 1/2SM BLSN SCT045 OVC090 M20/M23 A2999 RMK BLSN1SC2AC5 PRESFR SLP214

CYQR;2013-01-24 13:00;CYQR 241300Z 14027G33KT 1 1/2SM BLSN BKN045 OVC090 M19/M23 A2995 RMK BLSN2SC4AC2 SLP202

CYQR;2013-01-24 13:37;CYQR 241337Z 15026G31KT 1 1/2SM BLSN BKN007 OVC045 M19/ RMK BLSN2SC4SC2

CYQR;2013-01-24 14:00;CYQR 241400Z 14024G34KT 1 1/2SM BLSN OVC007 M19/M23 A2991 RMK BLSN2SC6 VIS VRB 1-2 SLP189

CYQR;2013-01-24 14:39;CYQR 241439Z 14030KT 1SM R13/P6000FT/D BLSN OVC006 M19/ RMK BLSN5SC3 VIS VRB 3/4-11/4

CYQR;2013-01-24 15:00;CYQR 241500Z 14025G36KT 1 1/4SM BLSN OVC007 M19/M22 A2987 RMK BLSN4SC4 VIS VRB 1-11/2 SLP173

CYQR;2013-01-24 15:39;CYQR 241539Z 14025G33KT 3/8SM R13/3500VP6000FT/D SN BLSN VV006 M18/ RMK SN8 VIS VRB 1/4-1/2

CYQR;2013-01-24 15:52;CYQR 241552Z 14026G31KT 3/8SM R13/2200FT/N SN BLSN VV003 M18/ RMK SN8 VIS VRB 1/4-1/2

CYQR;2013-01-24 16:00;CYQR 241600Z 14026G31KT 3/8SM R13/2400FT/N SN BLSN VV003 M18/M21 A2982 RMK SN8 PRESFR VIS VRB 1/4-1/2 SLP158

CYQR;2013-01-24 16:18;CYQR 241618Z 14024G32KT 5/8SM R13/3000FT/N BLSN BKN058 M18/ RESN RMK BLSN2SC3

CYQR;2013-01-24 17:00;CYQR 241700Z 15024KT 5/8SM R13/3000V4500FT/U BLSN OVC034 M17/M20 A2980 RESN RMK BLSN3SC5 VIS VRB 1/2-3/4 SLP151

CYQR;2013-01-24 18:00;CYQR 241800Z 15023G30KT 5/8SM R13/3000V4500FT/N BLSN OVC026 M15/M18 A2978 RMK BLSN2SC6 VIS VRB 1/2-3/4 SLP138

CYQR;2013-01-24 18:23;CYQR 241823Z 16020KT 1 1/2SM BLSN OVC024 M14/ RMK BLSN2SC6

CYQR;2013-01-24 18:53;CYQR 241853Z 16016G21KT 4SM BLSN OVC020 M14/ RMK SC8

CYQR;2013-01-24 19:00;CYQR 241900Z 16016KT 5SM BLSN OVC020 M13/M16 A2975 RMK SC8 SLP128

CYQR;2013-01-24 19:42;CYQR 241942Z 18013G19KT 12SM BKN018 M12/ REBLSN RMK SC7

CYQR;2013-01-24 20:00;CYQR 242000Z 23014KT 12SM BKN016 M10/M12 A2973 REBLSN RMK SC7 SLP123

CYQR;2013-01-24 20:19;CYQR 242019Z 28026G31KT 3/4SM R13/4000VP6000FT/D BLSN BKN012 BKN120 M09/ RMK SC6AC1 WSHFT 2011 VIS NE-SE 4

CYQR;2013-01-24 20:44;CYQR 242044Z 29025G33KT 8SM FEW010 FEW120 M10/ REBLSN RMK SC1AC1 VIS W 4 OCNL BLSN

CYQR;2013-01-24 21:00;CYQR 242100Z CCA 30022G29KT 8SM VCBLSN FEW005 SCT120 M11/M12 A2972 REBLSN RMK SF0AC1 VIS SW-W 3 OCNL BLSN SLP116

CYQR;2013-01-24 21:30;CYQR 242130Z 30028G34KT 4SM R13/3500V5000FT/N BLSN FEW007 BKN120 M12/ RMK SF0AC1 VIS SE-NW 1

CYQR;2013-01-24 21:52;CYQR 242152Z 30026G31KT 5/8SM R13/2800FT/N BLSN FEW009 FEW120 M13/ RMK SF1AC1 VIS N-SE 3

CYQR;2013-01-24 22:00;CYQR 242200Z 31033KT 3/4SM R13/2600V4000FT/U BLSN FEW009 FEW120 M13/M15 A2977 RMK SF1AC1 VIS NE-SE 3 SLP130

CYQR;2013-01-24 23:00;CYQR 242300Z 31026G33KT 2SM BLSN FEW010 FEW120 M15/M17 A2982 RMK SF1AC1 VIS N-SE 10 PRESRR SLP148

CYQR;2013-01-24 23:23;CYQR 242323Z 32029KT 10SM VCBLSN FEW015 M16/ REBLSN RMK SC1 VIS S-NW 2 PRESRR

CYQR;2013-01-25 00:00;CYQR 250000Z 31024G30KT 8SM DRSN FEW120 M16/M18 A2987 REBLSN RMK AC1 PRESRR SLP169

CYQR;2013-01-25 01:00;CYQR 250100Z 32025KT 12SM DRSN SKC M17/M22 A2990 RMK SLP180

CYQR;2013-01-25 02:00;CYQR 250200Z 32021G26KT 15SM DRSN FEW120 M18/M22 A2993 RMK AC2 SLP188

CYQR;2013-01-25 03:00;CYQR 250300Z 32017KT 15SM SKC M19/M22 A2995 RMK SLP197

CYQR;2013-01-25 04:00;CYQR 250400Z 32018KT 15SM SKC M19/M23 A2997 RMK SLP206

CYQR;2013-01-25 05:00;CYQR 250500Z 32011KT 15SM SKC M21/M24 A3000 RMK SLP216

CYQR;2013-01-25 06:00;CYQR 250600Z 34012KT 15SM SKC M22/M26 A3002 RMK SLP222

CYQR;2013-01-25 07:00;CYQR 250700Z 32010KT 15SM SKC M23/M27 A3004 RMK SLP229

CYQR;2013-01-25 08:00;CYQR 250800Z 33006KT 15SM SKC M24/M28 A3005 RMK SLP232

CYQR;2013-01-25 09:00;CYQR 250900Z 32005KT 15SM SKC M26/M29 A3006 RMK SLP237

CYQR;2013-01-25 10:00;CYQR 251000Z 34003KT 15SM SKC M26/M30 A3007 RMK SLP240

CYQR;2013-01-25 11:00;CYQR 251100Z 03005KT 15SM FEW230 M25/M29 A3008 RMK CI0 SLP242

CYQR;2013-01-25 12:00;CYQR 251200Z 22003KT 15SM SCT230 M26/M30 A3009 RMK CI0 SLP250

CYQR;2013-01-25 13:00;CYQR 251300Z 20004KT 15SM SCT230 M26/M30 A3009 RMK CI1 SLP252

CYQR;2013-01-25 14:00;CYQR 251400Z 15005KT 15SM SCT250 M26/M30 A3008 RMK CI1 SLP247

CYQR;2013-01-25 15:00;CYQR 251500Z 16005KT 15SM FEW020 SCT180 BKN250 M25/M29 A3009 RMK SC1AC1CI2 SLP251

CYQR;2013-01-25 16:00;CYQR 251600Z 15007KT 15SM FEW180 BKN250 M24/M27 A3010 RMK AC1CI0 SLP255

CYQR;2013-01-25 17:00;CYQR 251700Z 14013KT 15SM FEW180 BKN250 M23/M27 A3010 RMK AC1CI0 SLP255

CYQR;2013-01-25 18:00;CYQR 251800Z 14013KT 15SM FEW140 BKN250 M22/M27 A3007 RMK AC2CI2 SLP246

CYQR;2013-01-25 19:00;CYQR 251900Z 15012KT 15SM FEW140 BKN250 M21/M25 A3006 RMK AC1CI2 SLP243

CYQR;2013-01-25 20:00;CYQR 252000Z 14017KT 15SM BKN120 BKN250 M20/M24 A3002 RMK AC6CI2 SLP229

CYQR;2013-01-25 21:00;CYQR 252100Z 14017KT 15SM FEW100 BKN250 M19/M23 A2999 RMK AC2CI3 SLP217

CYQR;2013-01-25 22:00;CYQR 252200Z 14019KT 15SM FEW095 BKN250 M19/M23 A2996 RMK AC2CI2 SLP210

CYQR;2013-01-25 23:00;CYQR 252300Z 14020G25KT 15SM FEW095 BKN250 M19/M24 A2995 RMK AC2CI1 SLP206

CYQR;2013-01-26 00:00;CYQR 260000Z 14020KT 15SM FEW100 FEW250 M19/M23 A2993 RMK AC1CI0 SLP199

CYQR;2013-01-26 01:00;CYQR 260100Z 14019G24KT 15SM FEW250 M19/M23 A2992 RMK CI0 SLP194

CYQR;2013-01-26 02:00;CYQR 260200Z 14019G26KT 15SM FEW250 M19/M24 A2990 RMK CI0 SLP187

CYQR;2013-01-26 03:00;CYQR 260300Z 14017KT 15SM BKN250 M19/M23 A2988 RMK CI2 SLP181

CYQR;2013-01-26 04:00;CYQR 260400Z 14018KT 15SM SCT250 M19/M23 A2987 RMK CI1 SLP177

CYQR;2013-01-26 05:00;CYQR 260500Z 14017KT 15SM FEW250 M18/M22 A2986 RMK CI1 SLP173

CYQR;2013-01-26 06:00;CYQR 260600Z 13014KT 15SM FEW210 M19/M22 A2986 RMK CI1 SLP168

CYQR;2013-01-26 07:00;CYQR 260700Z 13012KT 15SM FEW210 M19/M23 A2985 RMK CI1 SLP165

CYQR;2013-01-26 08:00;CYQR 260800Z 14010KT 15SM FEW140 FEW210 M19/M22 A2984 RMK AC1CI0 SLP162

CYQR;2013-01-26 09:00;CYQR 260900Z 12008KT 15SM BKN120 M19/M23 A2984 RMK AC3 SLP162

CYQR;2013-01-26 10:00;CYQR 261000Z 12008KT 15SM BKN120 M19/M22 A2984 RMK AC3 SLP162

CYQR;2013-01-26 11:00;CYQR 261100Z 10007KT 15SM FEW120 BKN230 M19/M22 A2984 RMK AC1CI0 SLP162

CYQR;2013-01-26 12:00;CYQR 261200Z 12006KT 15SM FEW120 M20/M23 A2985 RMK AC2 SLP166

CYQR;2013-01-26 13:00;CYQR 261300Z 12005KT 15SM FEW120 M20/M23 A2985 RMK AC2 SLP165

CYQR;2013-01-26 14:00;CYQR 261400Z 11004KT 15SM SCT080 M20/M24 A2986 RMK AC3 SLP169

CYQR;2013-01-26 15:00;CYQR 261500Z 09005KT 15SM FEW080 FEW250 M21/M25 A2986 RMK AC2CI0 SLP171

CYQR;2013-01-26 16:00;CYQR 261600Z 17002KT 15SM BKN090 BKN250 M21/M24 A2988 RMK AC5CI0 SLP176

CYQR;2013-01-26 17:00;CYQR 261700Z 00000KT 15SM BKN071 BKN250 M18/M22 A2989 RMK AC6CI1 SLP178

CYQR;2013-01-26 18:00;CYQR 261800Z 00000KT 15SM FEW075 FEW250 M16/M21 A2988 RMK AC1CI1 SLP171

CYQR;2013-01-26 19:00;CYQR 261900Z 22003KT 15SM FEW080 BKN250 M15/M19 A2986 RMK AC2CI1 SLP167

CYQR;2013-01-26 20:00;CYQR 262000Z 24002KT 15SM FEW100 BKN250 M15/M18 A2986 RMK AC1CI3 SLP166

CYQR;2013-01-26 21:00;CYQR 262100Z 15003KT 15SM FEW060 FEW100 BKN250 M14/M18 A2985 RMK SC1AC2CI2 SLP160

CYQR;2013-01-26 22:00;CYQR 262200Z 18002KT 15SM FEW060 BKN250 M13/M16 A2985 RMK SC1CI0 SLP161

CYQR;2013-01-26 23:00;CYQR 262300Z 17003KT 15SM BKN060 BKN250 M15/M17 A2985 RMK SC2CI1 SLP161

CYQR;2013-01-27 00:00;CYQR 270000Z 09005KT 15SM FEW060 M16/M17 A2985 RMK SC2 SLP164

CYQR;2013-01-27 01:00;CYQR 270100Z 13004KT 15SM BKN060 M16/M17 A2985 RMK SC5 SLP164

CYQR;2013-01-27 02:00;CYQR 270200Z 12005KT 15SM BKN075 M14/M15 A2984 RMK AC6 SLP159

CYQR;2013-01-27 03:00;CYQR 270300Z 13007KT 15SM BKN074 M13/M15 A2984 RMK AC7 SLP156

CYQR;2013-01-27 04:00;CYQR 270400Z 12005KT 15SM OVC075 M12/M14 A2983 RMK AC8 SLP155

CYQR;2013-01-27 05:00;CYQR 270500Z 12006KT 15SM OVC078 M10/M12 A2982 RMK AC8 SLP151

CYQR;2013-01-27 06:00;CYQR 270600Z 13008KT 15SM OVC076 M10/M12 A2980 RMK AC8 SLP138

CYQR;2013-01-27 06:20;CYQR 270620Z 12009KT 15SM -SN OVC076 M10/ RMK AC8

CYQR;2013-01-27 07:00;CYQR 270700Z 34009KT 15SM BKN041 OVC075 M09/M11 A2985 RMK SC6AC2 SLP153

CYQR;2013-01-27 07:19;CYQR 270719Z 31006KT 15SM -SN OVC035 M09/ RMK SC8

CYQR;2013-01-27 07:50;CYQR 270750Z 28002KT 2SM -SN OVC015 M10/ RMK SC8

CYQR;2013-01-27 08:00;CYQR 270800Z 34002KT 1SM R13/P6000FT/D -SN OVC015 M10/M11 A2986 RMK SN2SC6 SLP159

CYQR;2013-01-27 09:00;CYQR 270900Z 08007KT 1 1/2SM -SN OVC015 M09/M10 A2982 RMK SC8 /S01/ SLP143

CYQR;2013-01-27 09:16;CYQR 270916Z 08006KT 1SM R13/P6000FT/D -SN OVC012 M08/ RMK SN2SC6 VIS VRB 3/4 - 1 1/4

CYQR;2013-01-27 10:00;CYQR 271000Z 11014KT 1SM R13/P6000FT/D -SN OVC018 M07/M08 A2977 RMK SC8 VIS VRB 3/4 - 1 1/4 PRESFR /S02/ SLP126

CYQR;2013-01-27 10:27;CYQR 271027Z 12015KT 3SM -SN BKN018 OVC050 M06/ RMK SC6SC2

CYQR;2013-01-27 11:00;CYQR 271100Z 12014KT 15SM -SN BKN012 OVC060 M05/M06 A2973 RMK SC7SC1 /S03/ SLP113

CYQR;2013-01-27 11:14;CYQR 271114Z 11015KT 15SM OVC028 M04/ RMK SC8

CYQR;2013-01-27 12:00;CYQR 271200Z 17002KT 15SM FEW007 OVC012 M04/M06 A2976 RMK SF0SC8 SLP118

CYQR;2013-01-27 12:20;CYQR 271220Z 13007KT 2SM -SG -FZDZ BR OVC007 M05/ RMK ST8

CYQR;2013-01-27 12:34;CYQR 271234Z 12003KT 2SM -FZDZ BR OVC008 M05/ RMK ST8

CYQR;2013-01-27 12:54;CYQR 271254Z 13009KT 2SM -SN BR OVC011 M05/ REFZDZ RMK ST8

CYQR;2013-01-27 13:00;CYQR 271300Z 15006KT 2SM -SN BR OVC010 M05/M06 A2976 REFZDZ RMK ST8 SLP118

CYQR;2013-01-27 14:00;CYQR 271400Z 20003KT 1 1/2SM -SN BR OVC012 M05/M06 A2976 RMK SC8 SLP121

CYQR;2013-01-27 14:08;CYQR 271408Z 19002KT 3SM -SN OVC012 M06/ RMK SC8

CYQR;2013-01-27 14:17;CYQR 271417Z 18002KT 2 1/2SM -SN OVC012 M06/ RMK SC8 VIS VRB 2-3

CYQR;2013-01-27 14:50;CYQR 271450Z 20005KT 2 1/2SM -SN OVC009 M06/ RMK SC8 VIS VRB 2-3

CYQR;2013-01-27 15:00;CYQR 271500Z 19006KT 2 1/2SM -FZDZ OVC009 M06/M07 A2976 RMK SC8 VIS VRB 2-3 SLP118

CYQR;2013-01-27 15:28;CYQR 271528Z 15005KT 3SM -FZDZ BR BKN004 OVC008 M07/ RMK SF5SC3

CYQR;2013-01-27 15:49;CYQR 271549Z 17007KT 5SM BR SCT005 OVC008 M07/ REFZDZ RMK SF3SC5

CYQR;2013-01-27 16:00;CYQR 271600Z 17006KT 5SM BR SCT005 OVC008 M07/M08 A2976 REFZDZ RMK SF3SC5 SLP119

CYQR;2013-01-27 16:13;CYQR 271613Z 17005KT 6SM BR BKN004 OVC008 M07/ RMK SF5SC3

CYQR;2013-01-27 16:24;CYQR 271624Z 16004KT 6SM BR SCT004 OVC007 M07/ RMK SF3SC5

CYQR;2013-01-27 17:00;CYQR 271700Z 15006KT 10SM SCT006 OVC008 M07/M08 A2976 RMK SF3SC5 SLP118

CYQR;2013-01-27 17:50;CYQR 271750Z 16008KT 12SM SCT008 OVC013 M07/ RMK SF3SC5

CYQR;2013-01-27 18:00;CYQR 271800Z 15009KT 12SM FEW008 OVC013 M07/M09 A2975 RMK SF2SC6 SLP112

CYQR;2013-01-27 19:00;CYQR 271900Z 15007KT 15SM OVC011 M07/M09 A2974 RMK SC8 SLP110

CYQR;2013-01-27 19:18;CYQR 271918Z 14009KT 12SM OVC008 M07/ RMK SC8

CYQR;2013-01-27 20:00;CYQR 272000Z 16009KT 12SM OVC007 M07/M08 A2972 RMK SC8 SLP103

CYQR;2013-01-27 21:00;CYQR 272100Z 16007KT 12SM OVC006 M07/M09 A2971 RMK SC8 SLP100

CYQR;2013-01-27 22:00;CYQR 272200Z 17006KT 12SM OVC006 M07/M08 A2972 RMK SC8 SLP102

CYQR;2013-01-27 22:40;CYQR 272240Z 17004KT 10SM -FZDZ OVC007 M07/ RMK SF8

CYQR;2013-01-27 23:00;CYQR 272300Z 16005KT 3SM -FZDZ BR OVC004 M07/M08 A2972 RMK SF8 SLP103

CYQR;2013-01-27 23:19;CYQR 272319Z 16003KT 3SM BR OVC003 M07/ REFZDZ RMK SF8

CYQR;2013-01-27 23:39;CYQR 272339Z 14005KT 1 1/2SM BR OVC002 M06/ REFZDZ RMK SF8

CYQR;2013-01-27 23:52;CYQR 272352Z 15002KT 1SM R13/P6000FT/D BR OVC002 M06/ REFZDZ RMK SF8

CYQR;2013-01-28 00:00;CYQR 280000Z 15004KT 1SM R13/P6000FT/D BR OVC001 M06/M07 A2972 REFZDZ RMK SF8 SLP099

CYQR;2013-01-28 00:08;CYQR 280008Z 14004KT 3/4SM R13/6000FT/U BR OVC001 M06/ RMK SF8

CYQR;2013-01-28 01:00;CYQR 280100Z 15004KT 3/4SM R13/5000FT/D BR OVC001 M06/M07 A2971 RMK SF8 SLP097

CYQR;2013-01-28 01:32;CYQR 280132Z 16004KT 1/2SM R13/3000FT/D FZFG VV001 M06/ RMK FG8

CYQR;2013-01-28 01:46;CYQR 280146Z 14004KT 3/8SM R13/2400FT/N FZFG VV001 M06/ RMK FG8

CYQR;2013-01-28 02:00;CYQR 280200Z 16003KT 3/8SM R13/2000FT/N FZFG VV001 M06/M07 A2971 RMK FG8 SLP096

CYQR;2013-01-28 02:35;CYQR 280235Z 15004KT 5/8SM R13/2400FT/N BR VV001 M06/ RMK FG8

CYQR;2013-01-28 03:00;CYQR 280300Z 15005KT 1SM R13/P6000FT/U BR OVC004 M06/M06 A2971 RMK FG1ST7 SLP096

CYQR;2013-01-28 03:11;CYQR 280311Z 14006KT 3SM BR OVC004 M06/ RMK ST8

CYQR;2013-01-28 04:00;CYQR 280400Z 16003KT 5SM BR SCT004 OVC009 M05/M06 A2971 RMK SF2SC6 SLP096

CYQR;2013-01-28 05:00;CYQR 280500Z 17005KT 6SM BR OVC010 M05/M05 A2971 RMK SC8 SLP096

CYQR;2013-01-28 06:00;CYQR 280600Z 27008KT 10SM SCT007 OVC022 M04/M05 A2970 RMK SF2SC6 SLP092

CYQR;2013-01-28 07:00;CYQR 280700Z 24004KT 15SM SCT025 OVC230 M08/M09 A2970 RMK SC4CI0 SLP092

CYQR;2013-01-28 08:00;CYQR 280800Z 27005KT 15SM SCT030 OVC230 M09/M10 A2970 RMK SC3CI0 SLP093

CYQR;2013-01-28 09:00;CYQR 280900Z 28010KT 15SM FEW230 M11/M13 A2971 RMK CI1 SLP100

CYQR;2013-01-28 09:16;CYQR 280916Z 28016KT 15SM BKN003 M10/ RMK SF3

CYQR;2013-01-28 09:35;CYQR 280935Z 29008KT 10SM OVC002 M09/ RMK ST8

CYQR;2013-01-28 10:00;CYQR 281000Z 28005KT 1 1/4SM BR OVC002 M08/M09 A2971 RMK ST8 SLP103

CYQR;2013-01-28 10:08;CYQR 281008Z 27005KT 3/4SM R13/P6000FT/D BR VV001 M08/ RMK FG8

CYQR;2013-01-28 11:00;CYQR 281100Z 25009KT 1 1/4SM BR OVC001 M08/M09 A2972 RMK FG2ST6 SLP105

CYQR;2013-01-28 11:31;CYQR 281131Z 29011KT 3SM BR OVC002 M08/ RMK ST8

CYQR;2013-01-28 12:00;CYQR 281200Z 31013KT 10SM OVC004 M08/M09 A2972 RMK ST8 SLP101

CYQR;2013-01-28 12:27;CYQR 281227Z 31011KT 15SM OVC008 M08/ RMK ST8

CYQR;2013-01-28 13:00;CYQR 281300Z 30007KT 12SM OVC009 M08/M09 A2972 RMK ST8 SLP102

CYQR;2013-01-28 13:18;CYQR 281318Z 28007KT 12SM OVC011 M08/ RMK ST8

CYQR;2013-01-28 13:52;CYQR 281352Z 28008KT 15SM OVC009 M08/ RMK ST8

CYQR;2013-01-28 14:00;CYQR 281400Z 29009KT 15SM OVC009 M08/M09 A2973 RMK ST8 FROIN SLP104

CYQR;2013-01-28 15:00;CYQR 281500Z 30011KT 12SM OVC005 M08/M09 A2974 RMK ST8 FROIN SLP109

CYQR;2013-01-28 15:20;CYQR 281520Z 31010KT 12SM OVC006 M08/ RMK ST8

CYQR;2013-01-28 15:31;CYQR 281531Z 29009KT 12SM OVC005 M08/ RMK ST8 CIG VRB 4-6

CYQR;2013-01-28 16:00;CYQR 281600Z 30009KT 12SM -SN OVC005 M08/M09 A2975 RMK ST8 CIG VRB 4-6 SLP111

CYQR;2013-01-28 16:22;CYQR 281622Z 29009KT 12SM OVC005 M08/ RMK ST8 CIG VRB 4-6

CYQR;2013-01-28 17:00;CYQR 281700Z 28007KT 12SM OVC006 M08/M09 A2974 RMK ST8 SLP109

CYQR;2013-01-28 17:28;CYQR 281728Z 27008KT 12SM OVC005 M07/ RMK ST8

CYQR;2013-01-28 18:00;CYQR 281800Z 27009KT 10SM OVC006 M08/M09 A2975 RMK ST8 CIG VRB 4-6 SLP109

CYQR;2013-01-28 19:00;CYQR 281900Z 29012KT 10SM OVC005 M08/M09 A2973 RMK ST8 SLP104

CYQR;2013-01-28 19:37;CYQR 281937Z 29010KT 10SM OVC004 M08/ RMK ST8

CYQR;2013-01-28 20:00;CYQR 282000Z 28009KT 6SM BR OVC003 M08/M09 A2972 RMK ST8 SLP101

CYQR;2013-01-28 20:15;CYQR 282015Z 29007KT 6SM R13/2800VP6000FT/N BR OVC004 M08/ RMK ST8 CIG VRB 3-5

CYQR;2013-01-28 21:00;CYQR 282100Z 31006KT 8SM OVC004 M08/M09 A2972 RMK ST8 SLP107

CYQR;2013-01-28 22:00;CYQR 282200Z 26005KT 8SM R13/2800VP6000FT/D OVC004 M08/M09 A2973 RMK ST8 CIG VRB 3-5 SLP110

CYQR;2013-01-28 22:14;CYQR 282214Z 24005KT 7SM OVC003 M08/ RMK ST8 CIG VRB 2-4

CYQR;2013-01-28 22:37;CYQR 282237Z 23006KT 2 1/2SM BR OVC003 M08/ RMK ST8 CIG VRB 2-4

CYQR;2013-01-28 23:00;CYQR 282300Z 24006KT 1 3/4SM BR OVC004 M08/M09 A2974 RMK ST8 CIG VRB 3-5 SLP111

CYQR;2013-01-28 23:15;CYQR 282315Z 25004KT 1 1/2SM BR OVC003 M08/ RMK ST8 CIG VRB 2-4

CYQR;2013-01-28 23:41;CYQR 282341Z 23004KT 1 1/2SM BR OVC002 M08/ RMK ST8 CIG VRB 1-3

CYQR;2013-01-29 00:00;CYQR 290000Z 23004KT 2SM BR OVC002 M08/M10 A2973 RMK ST8 CIG VRB 1-3 SLP105

CYQR;2013-01-29 00:16;CYQR 290016Z 22004KT 3SM R13/4500VP6000FT/U BR OVC003 M09/ RMK ST8

CYQR;2013-01-29 00:37;CYQR 290037Z 20003KT 6SM -SN BR OVC004 M09/ RMK ST8

CYQR;2013-01-29 01:00;CYQR 290100Z 21006KT 8SM -SN BKN004 BKN014 M11/M12 A2973 RMK ST5SC2 SLP105

CYQR;2013-01-29 01:19;CYQR 290119Z 23004KT 8SM -SN BKN003 OVC016 M11/ RMK ST6SC2

CYQR;2013-01-29 01:36;CYQR 290136Z 22004KT 2 1/2SM -SN BR OVC002 M10/ RMK ST8

CYQR;2013-01-29 01:52;CYQR 290152Z 22005KT 3/4SM R13/P6000FT/U BR VV001 M10/ RMK FG8

CYQR;2013-01-29 02:00;CYQR 290200Z 25004KT 5/8SM R13/P6000FT/D -SN BR VV001 M10/M11 A2973 RMK FG8 SLP106

CYQR;2013-01-29 02:39;CYQR 290239Z 30003KT 1/2SM R13/4000FT/N FZFG VV001 M10/ RMK FG8

CYQR;2013-01-29 03:00;CYQR 290300Z 28003KT 1/2SM R13/3000FT/N FZFG VV001 M10/M11 A2973 RMK FG8 SLP108

CYQR;2013-01-29 03:17;CYQR 290317Z 28003KT 3/8SM R13/3000FT/D FZFG VV001 M10/ RMK FG8

CYQR;2013-01-29 04:00;CYQR 290400Z 26002KT 3/8SM R13/2400FT/N FZFG VV001 M10/M10 A2973 RMK FG8 FROIN SLP107

CYQR;2013-01-29 05:00;CYQR 290500Z 21006KT 3/8SM R13/2600FT/N FZFG VV001 M10/M11 A2973 RMK FG8 FROIN SLP106

CYQR;2013-01-29 05:20;CYQR 290520Z 19005KT 1/2SM R13/2600V4000FT/N FZFG VV001 M10/ RMK FG8

CYQR;2013-01-29 05:50;CYQR 290550Z 20008KT 3SM R13/3000VP6000FT/U BR OVC021 M11/ RMK FG2SC6

CYQR;2013-01-29 06:00;CYQR 290600Z 20008KT 8SM BKN004 OVC021 M11/M12 A2971 RMK SC6SC2 SLP103

CYQR;2013-01-29 06:17;CYQR 290617Z 19006KT 8SM BKN003 OVC021 M11/ RMK SC6SC2

CYQR;2013-01-29 06:29;CYQR 290629Z 00000KT 8SM BKN002 OVC021 M11/ RMK SC6SC2

CYQR;2013-01-29 07:00;CYQR 290700Z 36002KT 8SM OVC003 M11/M12 A2972 RMK SC8 SLP104

CYQR;2013-01-29 07:45;CYQR 290745Z 31004KT 10SM OVC004 M11/ RMK SC8

CYQR;2013-01-29 08:00;CYQR 290800Z 32004KT 8SM OVC004 M11/M12 A2972 RMK SC8 SLP105

CYQR;2013-01-29 08:13;CYQR 290813Z 30005KT 2 1/2SM BR OVC002 M11/ RMK SC8

CYQR;2013-01-29 08:22;CYQR 290822Z 30004KT 3/4SM R13/3000VP6000FT/D BR VV001 M11/ RMK FG8

CYQR;2013-01-29 08:24;CYQR 290824Z 29004KT 5/8SM R13/3000VP6000FT/D BR VV001 M11/ RMK FG8

CYQR;2013-01-29 08:27;CYQR 290827Z 29004KT 1/2SM R13/2800V4500FT/D FZFG VV001 M11/ RMK FG8

CYQR;2013-01-29 08:32;CYQR 290832Z 29003KT 3/8SM R13/2400FT/N FZFG VV001 M11/ RMK FG8

CYQR;2013-01-29 09:00;CYQR 290900Z 29003KT 1/2SM R13/2800V4000FT/U FZFG VV003 M11/M12 A2973 RMK FG8 FROIN SLP108

CYQR;2013-01-29 09:08;CYQR 290908Z 30003KT 5/8SM R13/3500VP6000FT/U BR VV003 M11/ RMK FG8

CYQR;2013-01-29 09:15;CYQR 290915Z 30003KT 3/4SM R13/P6000FT/D -SN BR OVC001 M11/ RMK FG6SC2

CYQR;2013-01-29 09:25;CYQR 290925Z 31004KT 1 1/2SM -SN BR BKN001 OVC018 M11/ RMK SC6SC2

CYQR;2013-01-29 10:00;CYQR 291000Z 32005KT 1SM R13/P6000FT/N -SN BR OVC001 M11/M11 A2973 RMK ST8 SLP109

CYQR;2013-01-29 10:13;CYQR 291013Z 34005KT 2SM -SN BR BKN001 OVC017 M11/ RMK ST6SC2

CYQR;2013-01-29 10:33;CYQR 291033Z 34006KT 3SM -SN BR BKN001 OVC009 M10/ RMK ST6SC2

CYQR;2013-01-29 11:00;CYQR 291100Z 34005KT 2 1/2SM -SN BR BKN001 OVC014 M10/M11 A2975 RMK ST6SC2 SLP114

CYQR;2013-01-29 11:32;CYQR 291132Z 35007KT 2 1/2SM -SN BR OVC002 M10/ RMK ST8

CYQR;2013-01-29 11:53;CYQR 291153Z 34007KT 2SM -SN BR OVC001 M10/ RMK ST8

CYQR;2013-01-29 12:00;CYQR 291200Z 34007KT 2SM -SN BR OVC002 M10/M11 A2976 RMK ST8 SLP119

CYQR;2013-01-29 12:33;CYQR 291233Z 34007KT 2SM -SN BR BKN004 OVC009 M10/ RMK ST6SC2

CYQR;2013-01-29 12:47;CYQR 291247Z 33007KT 3SM -SN BR OVC003 M10/ RMK ST8 CIG RAG FROIN

CYQR;2013-01-29 13:00;CYQR 291300Z 33006KT 4SM -SN BR BKN003 OVC012 M10/M10 A2978 RMK ST6SC2 SLP126

CYQR;2013-01-29 13:29;CYQR 291329Z 34008KT 5SM -SN BKN004 OVC012 M10/ RMK ST6SC2 CIG VRB 3-5

CYQR;2013-01-29 14:00;CYQR 291400Z 32008KT 6SM -SN BKN005 OVC015 M10/M10 A2981 RMK ST6SC2 CIG VRB SLP134

CYQR;2013-01-29 15:00;CYQR 291500Z 32008KT 6SM -SN BKN005 OVC011 M09/M10 A2984 RMK ST5SC3 CIG VRB 4-6 SLP146

CYQR;2013-01-29 15:39;CYQR 291539Z 33007KT 6SM -SN SCT005 OVC013 M09/ RMK ST3SC5

CYQR;2013-01-29 16:00;CYQR 291600Z 32007KT 6SM -SN SCT003 OVC017 M09/M10 A2987 RMK ST3SC5 SLP156

CYQR;2013-01-29 16:25;CYQR 291625Z 32007KT 2 1/2SM -SN SCT003 OVC027 M09/ RMK ST3SC5

CYQR;2013-01-29 16:38;CYQR 291638Z 32010KT 1 1/2SM -SN BR SCT003 OVC027 M09/ RMK ST3SC5

CYQR;2013-01-29 16:49;CYQR 291649Z 33010KT 2SM -SN BR SCT003 BKN017 OVC027 M09/ RMK ST3SC2SC2

CYQR;2013-01-29 17:00;CYQR 291700Z 34011KT 1 1/2SM -SN BR SCT003 BKN017 OVC027 M09/M10 A2990 RMK ST2SC3SC3 SLP166

CYQR;2013-01-29 17:31;CYQR 291731Z 35013KT 2SM -SN DRSN BR SCT003 OVC014 M09/ RMK ST2SC6

CYQR;2013-01-29 18:00;CYQR 291800Z 36016KT 2 1/2SM -SN DRSN BR FEW003 SCT009 BKN017 OVC043 M09/M10 A2994 RMK ST1SC2SC3SC2 SLP182

CYQR;2013-01-29 18:17;CYQR 291817Z 36018KT 3SM -SN DRSN BR FEW009 SCT012 BKN043 OVC100 M10/ RMK SC2SC2SC3AC1

CYQR;2013-01-29 18:43;CYQR 291843Z 35020KT 4SM -SN DRSN VCBLSN FEW009 BKN012 OVC043 M10/ RMK SF2SC4SC2 VIS SW-W 2

CYQR;2013-01-29 19:00;CYQR 291900Z 34022KT 3/4SM R13/3500VP6000FT/D -SN BLSN SCT006 OVC012 M12/M13 A2997 RMK BLSN2SF2SC5 VIS NE 11/2 SLP193

CYQR;2013-01-29 19:24;CYQR 291924Z 34020G26KT 1SM R13/3500VP6000FT/U -SN BLSN SCT006 BKN012 OVC040 M14/ RMK BLSN2SF2SC3SC2 VIS VRB 3/4-11/4

CYQR;2013-01-29 19:39;CYQR 291939Z 34022KT 2SM R13/4000VP6000FT/D -SN BLSN SCT012 BKN040 BKN100 M15/ RMK BLSN1SC2SC2AC1 VIS VRB 11/2-21/2

CYQR;2013-01-29 20:00;CYQR 292000Z 34020G25KT 1 1/2SM -SN BLSN SCT012 BKN053 BKN100 M15/M17 A3000 RMK BLSN1SC2SC2AC1 VIS VRB 1-2 VIS E 3 SLP202

CYQR;2013-01-29 20:32;CYQR 292032Z 34027KT 3/4SM R13/2200FT/N -SN BLSN SCT021 BKN058 M17/ RMK BLSN2SC2SC2 VIS VRB 1/2-1

CYQR;2013-01-29 21:00;CYQR 292100Z 33026KT 3/4SM R13/3000V4500FT/N -SN BLSN FEW012 SCT058 BKN100 M18/M19 A3005 RMK BLSN2SC1SC2AC0 VIS VRB 1/2-1 VIS NE 2 SLP225

CYQR;2013-01-29 21:11;CYQR 292111Z 33028KT 3/4SM R13/3500V5000FT/N BLSN FEW058 BKN150 M18/ RMK BLSN2SC1AC2 VIS VRB 1/2-1 VIS NE 2

CYQR;2013-01-29 21:23;CYQR 292123Z 34026G31KT 3SM R13/3500VP6000FT/N BLSN SCT050 BKN150 M18/ RMK BLSN1SC2AC2 VIS VRB 2-4 VIS S-NW 1

CYQR;2013-01-29 22:00;CYQR 292200Z 34023G29KT 2SM BLSN SCT016 BKN050 BKN100 M19/M20 A3009 RMK SC3SC2AC2 VIS E 3 SLP239

CYQR;2013-01-29 22:25;CYQR 292225Z 32024KT 1SM R13/2400V5500FT/D -SN BLSN BKN008 OVC045 M20/ RMK BLSN2ST3SC3 VIS VRB 3/4-11/4

CYQR;2013-01-29 22:35;CYQR 292235Z 32027KT 3/4SM R13/3000FT/U -SN BLSN BKN007 OVC045 M20/ RMK BLSN2SC3SC3 VIS VRB 1/2-1

CYQR;2013-01-29 23:00;CYQR 292300Z 32026KT 3/4SM R13/6000FT/N -SN BLSN BKN007 OVC031 M21/M25 A3011 RMK BLSN2SC3SC3 VIS VRB 1/2-1 VIS NE-E 2 SLP247

CYQR;2013-01-29 23:07;CYQR 292307Z 32027KT 3/4SM R13/P6000FT/D -SN BLSN SCT007 OVC029 M21/ RMK BLSN2SC2SC4 VIS VRB 1/2-1 VIS NE-E 11/2

CYQR;2013-01-30 00:00;CYQR 300000Z 31024G29KT 3/4SM R13/3500V6000FT/D -SN BLSN FEW007 OVC027 M22/M26 A3015 RMK BLSN2SC1SC6 VIS VRB 1/2-1 /S01/ SLP262

CYQR;2013-01-30 01:00;CYQR 300100Z 32026G31KT 3/4SM R13/2800V6000FT/U -SN BLSN FEW007 OVC022 M24/M27 A3017 RMK BLSN2SF1SC5 VIS VBR 1/2-1 SLP269

CYQR;2013-01-30 01:33;CYQR 300133Z 32024KT 1 1/2SM -SN BLSN OVC020 M24/ RMK BLSN1SC7

CYQR;2013-01-30 02:00;CYQR 300200Z 32023KT 3SM BLSN OVC020 M24/M28 A3017 RMK SC8 SLP270

CYQR;2013-01-30 03:00;CYQR 300300Z 32016KT 8SM DRSN FEW025 M26/M31 A3017 REBLSN RMK SC2 SLP272

CYQR;2013-01-30 04:00;CYQR 300400Z 32012KT 12SM DRSN FEW025 M26/M30 A3016 RMK SC2 SLP269

CYQR;2013-01-30 05:00;CYQR 300500Z 31014KT 12SM DRSN FEW030 FEW250 M25/M30 A3015 RMK SC2CI0 SLP268

CYQR;2013-01-30 06:00;CYQR 300600Z 31011KT 15SM DRSN FEW030 M27/M32 A3013 RMK SC1 SLP259

CYQR;2013-01-30 07:00;CYQR 300700Z 31011KT 15SM DRSN FEW030 M28/M33 A3011 RMK SC1 SLP253

CYQR;2013-01-30 08:00;CYQR 300800Z 30007KT 15SM SKC M29/M34 A3008 RMK SLP244

CYQR;2013-01-30 09:00;CYQR 300900Z 28007KT 15SM SKC M30/M35 A3007 RMK SLP249

CYQR;2013-01-30 10:00;CYQR 301000Z 30009KT 15SM SKC M31/M35 A3006 RMK SLP245

CYQR;2013-01-30 11:00;CYQR 301100Z 30005KT 15SM SKC M31/M36 A3003 RMK SLP236

CYQR;2013-01-30 12:00;CYQR 301200Z 32009KT 15SM SKC M32/M36 A3002 RMK SLP236

CYQR;2013-01-30 13:00;CYQR 301300Z 31009KT 15SM FEW040 M32/M37 A3000 RMK SC1 SLP230

CYQR;2013-01-30 14:00;CYQR 301400Z 30008KT 15SM FEW040 FEW220 M33/M37 A3000 RMK SC1CI0 SLP231

CYQR;2013-01-30 15:00;CYQR 301500Z 33009KT 15SM FEW040 FEW220 M32/M37 A2999 RMK SC1CI0 IC SLP230

CYQR;2013-01-30 16:00;CYQR 301600Z 32010KT 15SM FEW040 BKN200 M31/M35 A3000 RMK SC1CI2 IC SLP232

CYQR;2013-01-30 17:00;CYQR 301700Z 34008KT 15SM BKN250 M30/M35 A2999 RMK CI0 SLP230

CYQR;2013-01-30 18:00;CYQR 301800Z 34010KT 15SM FEW074 BKN250 M29/M34 A3000 RMK AC2CI0 SLP231

CYQR;2013-01-30 19:00;CYQR 301900Z 34012KT 15SM BKN250 M28/M33 A2999 RMK CI5 SLP227

CYQR;2013-01-30 20:00;CYQR 302000Z 33013KT 15SM FEW140 FEW250 SCT280 M28/M32 A2998 RMK AC1CI2CI0 SLP225

CYQR;2013-01-30 21:00;CYQR 302100Z 33016KT 15SM FEW140 SCT280 M28/M33 A2998 RMK AC1CI1 SLP227

CYQR;2013-01-30 22:00;CYQR 302200Z 35015KT 15SM DRSN FEW160 BKN280 M28/M33 A3001 RMK AC0CI1 SLP236

CYQR;2013-01-30 23:00;CYQR 302300Z 33017KT 12SM DRSN BKN063 OVC120 M28/M33 A3000 RMK SC6AC2 SLP234

CYQR;2013-01-31 00:00;CYQR 310000Z 34017KT 10SM DRSN VCBLSN SCT065 OVC240 M28/M33 A3002 RMK SC2CI1 VIS LWR W SLP243

CYQR;2013-01-31 01:00;CYQR 310100Z 34020KT 10SM DRSN VCBLSN FEW029 BKN230 M28/M33 A3005 RMK SC2CI2 VIS LWR W SLP253

CYQR;2013-01-31 02:00;CYQR 310200Z 34018KT 10SM DRSN VCBLSN FEW030 BKN230 M28/M33 A3007 RMK SC2CI2 SLP259

CYQR;2013-01-31 02:13;CYQR 310213Z 34017KT 10SM DRSN VCBLSN FEW030 BKN230 M28/ RMK SC2CI2 IC

CYQR;2013-01-31 03:00;CYQR 310300Z 34016KT 10SM DRSN FEW030 BKN230 M28/M32 A3011 RMK SC2CI2 IC VIS LWR S-W SLP272

CYQR;2013-01-31 04:00;CYQR 310400Z 34016KT 8SM DRSN SCT030 BKN230 M28/M33 A3013 RMK SC2CI2 IC SLP279

CYQR;2013-01-31 04:47;CYQR 310447Z 34015KT 15SM DRSN FEW030 BKN230 M29/ RMK SC1CI2

CYQR;2013-01-31 05:00;CYQR 310500Z 34016KT 15SM DRSN FEW030 SCT210 M29/M34 A3015 RMK SC1CI1 SLP284

CYQR;2013-01-31 06:00;CYQR 310600Z 32013KT 15SM DRSN FEW015 FEW210 M29/M34 A3016 RMK SC1CI1 FROIN SLP290

CYQR;2013-01-31 07:00;CYQR 310700Z 32015KT 15SM DRSN FEW210 M30/M35 A3018 RMK CI0 FROIN SLP296

CYQR;2013-01-31 08:00;CYQR 310800Z 33009KT 15SM SKC M31/M36 A3021 RMK FROIN SLP304

CYQR;2013-01-31 09:00;CYQR 310900Z 32012KT 15SM SKC M31/M35 A3023 RMK FROIN SLP313

CYQR;2013-01-31 10:00;CYQR 311000Z 31012KT 15SM SKC M32/M37 A3024 RMK SLP317

CYQR;2013-01-31 11:00;CYQR 311100Z 31014KT 15SM SKC M33/M37 A3025 RMK FROIN SLP319

CYQR;2013-01-31 12:00;CYQR 311200Z 31013KT 15SM SKC M33/M38 A3028 RMK FROIN SLP332

CYQR;2013-01-31 13:00;CYQR 311300Z 31007KT 15SM FEW003 M34/M39 A3027 RMK ST1 FROIN SLP331

CYQR;2013-01-31 14:00;CYQR 311400Z 30009KT 15SM FEW200 M34/M39 A3028 RMK CI1 SLP333

CYQR;2013-01-31 15:00;CYQR 311500Z 30006KT 15SM FEW080 BKN200 M35/M40 A3028 RMK AC1CI0 SLP333

CYQR;2013-01-31 16:00;CYQR 311600Z 30009KT 15SM FEW080 BKN200 M33/M38 A3028 RMK AC1CI0 SLP335

CYQR;2013-01-31 17:00;CYQR 311700Z 29007KT 15SM BKN200 M32/M36 A3029 RMK CI0 SLP337

CYQR;2013-01-31 18:00;CYQR 311800Z 29006KT 15SM FEW100 FEW200 M31/M35 A3028 RMK AC0CI0 SLP331

CYQR;2013-01-31 19:00;CYQR 311900Z 28006KT 15SM FEW100 SCT200 M29/M34 A3025 RMK AC1CI2 SLP323

CYQR;2013-01-31 20:00;CYQR 312000Z 27005KT 15SM FEW100 FEW210 M28/M33 A3024 RMK AC1CI1 SLP318

CYQR;2013-01-31 21:00;CYQR 312100Z 29002KT 15SM BKN120 M27/M32 A3021 RMK AC5 SLP306

CYQR;2013-01-31 22:00;CYQR 312200Z 18004KT 15SM BKN120 M27/M32 A3019 RMK AC2 SLP299

CYQR;2013-01-31 23:00;CYQR 312300Z 16006KT 15SM FEW120 FEW220 M27/M32 A3016 RMK AC1CI1 SLP291

CYQR;2013-02-01 00:00;CYQR 010000Z 15006KT 15SM FEW050 FEW220 M28/M33 A3014 RMK SC1CI1 SLP285

CYQR;2013-02-01 01:00;CYQR 010100Z 15008KT 15SM FEW050 FEW220 M28/M33 A3011 RMK SC1CI1 SLP276

CYQR;2013-02-01 02:00;CYQR 010200Z 14012KT 15SM FEW050 M28/M33 A3008 RMK SC1 SLP264

CYQR;2013-02-01 03:00;CYQR 010300Z 14012KT 15SM FEW040 M28/M33 A3006 RMK SC2 SLP258

CYQR;2013-02-01 04:00;CYQR 010400Z 14012G17KT 15SM OVC032 M27/M32 A3003 RMK SC8 SLP248

CYQR;2013-02-01 04:46;CYQR 010446Z 14011KT 15SM -SN OVC032 M26/ RMK SC8

CYQR;2013-02-01 05:00;CYQR 010500Z 13012KT 15SM -SN OVC032 M26/M31 A2998 RMK SC8 SLP234

CYQR;2013-02-01 06:00;CYQR 010600Z CCA 13011KT 15SM -SN DRSN OVC028 M25/M29 A2996 RMK SC8 SLP216

CYQR;2013-02-01 07:00;CYQR 010700Z CCA 13012KT 12SM -SN DRSN OVC024 M24/M28 A2994 RMK SC8 SLP210

CYQR;2013-02-01 08:00;CYQR 010800Z CCA 13011KT 12SM -SN DRSN OVC022 M23/M27 A2991 RMK SC8 SLP201

CYQR;2013-02-01 09:00;CYQR 010900Z 13010KT 10SM -SN DRSN OVC024 M22/M26 A2990 RMK SC7 SLP189

CYQR;2013-02-01 10:00;CYQR 011000Z 13009KT 10SM -SN BKN015 M21/M25 A2987 RMK SC6 SLP182

CYQR;2013-02-01 10:38;CYQR 011038Z 13009KT 12SM SCT022 BKN210 M22/ RMK SC3CI1 IC

CYQR;2013-02-01 11:00;CYQR 011100Z 13009KT 15SM FEW030 BKN220 M22/M26 A2986 RMK SC2CI1 IC FROIN /S01/ SLP178

CYQR;2013-02-01 11:25;CYQR 011125Z 12007KT 15SM SCT023 BKN080 M22/ RMK SC3AC2

CYQR;2013-02-01 12:00;CYQR 011200Z 11005KT 15SM OVC023 M21/M25 A2986 RMK SC6 SLP177

CYQR;2013-02-01 13:00;CYQR 011300Z 13006KT 15SM OVC019 M20/M24 A2986 RMK SC8 SLP175

CYQR;2013-02-01 14:00;CYQR 011400Z 11005KT 15SM OVC017 M20/M23 A2986 RMK SC8 SLP177

CYQR;2013-02-01 15:00;CYQR 011500Z 17002KT 15SM OVC015 M19/M22 A2986 RMK SC8 SLP176

CYQR;2013-02-01 16:00;CYQR 011600Z 30004KT 15SM OVC015 M18/M21 A2989 RMK SC8 SLP184

CYQR;2013-02-01 17:00;CYQR 011700Z 33013KT 15SM BKN011 OVC030 M16/M19 A2990 RMK SC7SC1 SLP188

CYQR;2013-02-01 17:27;CYQR 011727Z 34013KT 15SM OVC008 M16/ RMK SC8

CYQR;2013-02-01 17:44;CYQR 011744Z 33014KT 2SM BR OVC008 M16/ RMK SC8

CYQR;2013-02-01 18:00;CYQR 011800Z 34017KT 2SM DRSN BR BKN004 OVC007 M16/M19 A2994 RMK SF3SC5 SLP197

CYQR;2013-02-01 18:15;CYQR 011815Z 34015KT 3SM DRSN BR OVC005 M16/ RMK SF5

CYQR;2013-02-01 18:22;CYQR 011822Z 34017KT 2SM -SN DRSN BR OVC005 M17/ RMK SF7

CYQR;2013-02-01 18:45;CYQR 011845Z 33018KT 3SM IC DRSN BR BKN007 BKN070 OVC230 M17/ RMK SF4AC1CI0

CYQR;2013-02-01 19:00;CYQR 011900Z 34019KT 4SM IC BLSN SCT005 BKN070 OVC230 M17/M20 A2995 RMK SF2AC2CI0 SLP202

CYQR;2013-02-01 20:00;CYQR 012000Z 33016KT 12SM FEW010 FEW070 BKN230 M18/M21 A2996 REBLSN RMK SC1AC1CI0 SLP204

CYQR;2013-02-01 21:00;CYQR 012100Z 35012KT 15SM BKN005 BKN090 BKN230 M18/M22 A2998 RMK SF2AC1CI1 AC TR SLP210

CYQR;2013-02-01 22:00;CYQR 012200Z 33008KT 15SM BKN014 BKN090 M18/M22 A3000 RMK SC5AC2 SLP219

CYQR;2013-02-01 23:00;CYQR 012300Z 33008KT 15SM BKN012 M18/M22 A3001 RMK SC6 SLP222

CYQR;2013-02-02 00:00;CYQR 020000Z 35006KT 15SM BKN012 M18/M22 A3003 RMK SC7 SLP229

CYQR;2013-02-02 01:00;CYQR 020100Z 34005KT 15SM BKN014 M19/M22 A3003 RMK SC6 SLP229

CYQR;2013-02-02 02:00;CYQR 020200Z 34003KT 15SM FEW015 BKN090 M19/M23 A3004 RMK SC2AC2 SLP231

CYQR;2013-02-02 03:00;CYQR 020300Z 26003KT 15SM FEW015 SCT058 BKN095 M20/M23 A3004 RMK SC2SC2AC1 SLP231

CYQR;2013-02-02 04:00;CYQR 020400Z 24005KT 15SM FEW058 M21/M24 A3005 RMK SC2 SLP232

CYQR;2013-02-02 05:00;CYQR 020500Z 25004KT 15SM BKN050 M20/M24 A3005 RMK SC6 SLP232

CYQR;2013-02-02 06:00;CYQR 020600Z 21005KT 15SM OVC036 M19/M22 A3004 RMK SC8 SLP227

CYQR;2013-02-02 06:51;CYQR 020651Z 20007KT 15SM -SN SCT034 OVC050 M18/ RMK SC4SC4

CYQR;2013-02-02 07:00;CYQR 020700Z 20007KT 15SM -SN SCT030 OVC057 M18/M21 A3002 RMK SC4SC4 SLP221

CYQR;2013-02-02 08:00;CYQR 020800Z 18008KT 15SM -SN OVC022 M17/M20 A2999 RMK SC8 SLP212

CYQR;2013-02-02 09:00;CYQR 020900Z 18008KT 8SM -SN OVC015 M16/M19 A2997 RMK SC8 SLP202

CYQR;2013-02-02 10:00;CYQR 021000Z 18010KT 3SM -SN OVC015 M15/M18 A2993 RMK SC8 SLP191

CYQR;2013-02-02 10:10;CYQR 021010Z 15008KT 1SM R13/P6000FT/N -SN OVC015 M15/ RMK SN2SC6

CYQR;2013-02-02 10:34;CYQR 021034Z 14007KT 1/2SM R13/P6000FT/U SN VV003 M15/ RMK SN8

CYQR;2013-02-02 10:42;CYQR 021042Z 14009KT 3/8SM R13/4000VP6000FT/D SN VV001 M14/ RMK SN8

CYQR;2013-02-02 11:00;CYQR 021100Z 14009KT 3/8SM R13/4000V5500FT/N SN VV001 M14/M17 A2989 RMK SN8 /S03/ SLP177

CYQR;2013-02-02 11:44;CYQR 021144Z 13007KT 3/4SM R13/3000VP6000FT/U -SN VV003 M13/ RESN RMK SN8

CYQR;2013-02-02 12:00;CYQR 021200Z 15005KT 1SM R13/P6000FT/U -SN VV003 M13/M15 A2986 RESN RMK SN8 /S06/ SLP162

CYQR;2013-02-02 12:14;CYQR 021214Z 16003KT 3SM -SN OVC007 M12/ RMK SN1SC7

CYQR;2013-02-02 12:38;CYQR 021238Z 16003KT 3/4SM R13/P6000FT/D -SN VV003 M11/ RMK SN8

CYQR;2013-02-02 13:00;CYQR 021300Z 05002KT 1/2SM R13/4000VP6000FT/D SN VV001 M10/M12 A2983 RMK SN8 /S02/ SLP153

CYQR;2013-02-02 13:10;CYQR 021310Z 32005KT 3SM R13/4000VP6000FT/U -SN OVC004 M09/ RESN RMK SC8

CYQR;2013-02-02 14:00;CYQR 021400Z 31022KT 4SM -SN BLSN OVC021 M02/M03 A2982 RMK SC8 SLP149

CYQR;2013-02-02 14:09;CYQR 021409Z 31025KT 1 1/4SM -SN BLSN OVC016 M02/ RMK BLSN3SC5

CYQR;2013-02-02 14:26;CYQR 021426Z 32031G39KT 1SM R13/3000VP6000FT/D -SN BLSN OVC036 M02/ RMK BLSN6SC2 VIS VRB 3/4-11/4

CYQR;2013-02-02 14:36;CYQR 021436Z 33033G40KT 5/8SM R13/2800FT/N -SN BLSN OVC040 M02/ RMK BLSN6SC2 VIS VRB 1/2-3/4

CYQR;2013-02-02 15:00;CYQR 021500Z 35028G33KT 2SM R13/4000VP6000FT/U -SN BLSN BKN008 OVC031 M05/M07 A2989 RMK BLSN2SF5SC2 PRESRR SLP168

CYQR;2013-02-02 15:09;CYQR 021509Z 36024G35KT 1 1/4SM R13/3500VP6000FT/U -SN BLSN OVC012 M06/ RMK BLSN6SC2 PRESRR VIS VRB 1-11/2

CYQR;2013-02-02 16:00;CYQR 021600Z 35026G32KT 1SM R13/4000V5500FT/N -SN BLSN OVC018 M09/M10 A2996 RMK BLSN5SC3 PRESRR VIS VRB 3/4-11/4 SLP192

CYQR;2013-02-02 16:36;CYQR 021636Z 35024G29KT 3SM R13/3000VP6000FT/D BLSN FEW013 M11/ RMK BLSN1SC1 PRESRR VIS S-NW 1

CYQR;2013-02-02 16:47;CYQR 021647Z 34030KT 1 1/2SM R13/2400FT/N BLSN SKC M12/ RMK BLSN2 PRESRR VIS S-NW 5/8

CYQR;2013-02-02 17:00;CYQR 021700Z 34031G37KT 3SM R13/1600V2400FT/N BLSN SKC M12/M14 A3003 RMK BLSN1 PRESRR VIS S-NW 5/8 SLP212

CYQR;2013-02-02 18:00;CYQR 021800Z 35024G30KT 5SM R13/4500VP6000FT/N BLSN FEW005 M13/M15 A3006 RMK SF1 VIS S-NW 11/4 SLP233

CYQR;2013-02-02 18:42;CYQR 021842Z 34019KT 12SM DRSN FEW005 M14/ REBLSN RMK SF1 VIS S-NW 4

CYQR;2013-02-02 19:00;CYQR 021900Z 34019KT 12SM DRSN FEW005 M14/M16 A3008 REBLSN RMK SF1 SLP238

CYQR;2013-02-02 20:00;CYQR 022000Z 33019KT 12SM DRSN FEW004 M14/M15 A3010 RMK SF1 VIS S-NW 6 SLP245

CYQR;2013-02-02 21:00;CYQR 022100Z 32012KT 15SM BKN091 M13/M16 A3011 RMK AC2 SLP249

CYQR;2013-02-02 22:00;CYQR 022200Z 31010KT 15SM BKN087 M13/M15 A3012 RMK AC4 SLP250

CYQR;2013-02-02 23:00;CYQR 022300Z 30010KT 15SM BKN017 BKN083 M12/M14 A3013 RMK SC5AC2 SLP253

CYQR;2013-02-03 00:00;CYQR 030000Z 31009KT 15SM BKN017 BKN083 M12/M14 A3010 RMK SC2AC2 SLP242

CYQR;2013-02-03 01:00;CYQR 030100Z 30009KT 15SM BKN017 BKN081 M12/M14 A3010 RMK SC6AC2 SLP242

CYQR;2013-02-03 02:00;CYQR 030200Z 31011KT 15SM BKN020 BKN079 M11/M13 A3007 RMK SC2AC2 SLP232

CYQR;2013-02-03 03:00;CYQR 030300Z 31011KT 15SM FEW020 BKN080 M13/M15 A3006 RMK SC2AC2 SLP221

CYQR;2013-02-03 04:00;CYQR 030400Z 32009KT 15SM FEW040 BKN075 M13/M14 A3004 RMK SC2AC2 SLP215

CYQR;2013-02-03 05:00;CYQR 030500Z 34005KT 15SM BKN045 BKN080 M14/M15 A3005 RMK SC5AC1 SLP218

CYQR;2013-02-03 05:19;CYQR 030519Z 32006KT 15SM -SN BKN047 BKN080 M13/ RMK SC6AC1

CYQR;2013-02-03 06:00;CYQR 030600Z 35002KT 15SM -SN BKN040 OVC080 M13/M14 A3003 RMK SC7AC1 SLP218

CYQR;2013-02-03 07:00;CYQR 030700Z 33004KT 15SM -SN OVC046 M11/M13 A3003 RMK SC8 SLP217

CYQR;2013-02-03 08:00;CYQR 030800Z 36004KT 15SM -SN OVC037 M11/M13 A3001 RMK SC8 SLP212

CYQR;2013-02-03 09:00;CYQR 030900Z 03004KT 15SM -SN OVC033 M11/M14 A3000 RMK SC8 SLP204

CYQR;2013-02-03 10:00;CYQR 031000Z 05003KT 15SM -SN OVC033 M12/M14 A2998 RMK SC8 SLP200

CYQR;2013-02-03 11:00;CYQR 031100Z 08002KT 15SM -SN OVC029 M11/M14 A2996 RMK SC8 SLP191

CYQR;2013-02-03 12:00;CYQR 031200Z 09005KT 15SM -SN OVC031 M12/M14 A2994 RMK SC8 SLP186

CYQR;2013-02-03 13:00;CYQR 031300Z 10006KT 15SM OVC033 M12/M14 A2992 RMK SC8 SLP179

CYQR;2013-02-03 14:00;CYQR 031400Z 11008KT 15SM OVC033 M12/M15 A2991 RMK SC8 SLP174

CYQR;2013-02-03 14:39;CYQR 031439Z 12008KT 15SM -SN OVC033 M12/ RMK SC8

CYQR;2013-02-03 15:00;CYQR 031500Z 12006KT 15SM -SN OVC035 M12/M14 A2989 RMK SC8 SLP169

CYQR;2013-02-03 15:17;CYQR 031517Z 12006KT 15SM OVC035 M12/ RMK SC8

CYQR;2013-02-03 15:32;CYQR 031532Z 13005KT 5SM -SN OVC035 M12/ RMK SC8

CYQR;2013-02-03 15:43;CYQR 031543Z 13005KT 2 1/2SM -SN BKN017 OVC035 M12/ RMK SC5SC3

CYQR;2013-02-03 16:00;CYQR 031600Z 13005KT 1 1/2SM -SN OVC017 M12/M14 A2991 RMK SC8 SLP174

CYQR;2013-02-03 16:27;CYQR 031627Z 13006KT 3SM -SN SCT017 OVC046 M12/ RMK SC4SC4

CYQR;2013-02-03 17:00;CYQR 031700Z 13007KT 5SM -SN SCT017 OVC044 M12/M14 A2991 RMK SC2SC6 SLP175

CYQR;2013-02-03 18:00;CYQR 031800Z 15004KT 15SM -SN OVC042 M11/M13 A2991 RMK SC8 SLP173

CYQR;2013-02-03 18:24;CYQR 031824Z 12006KT 2SM -SN BKN015 OVC042 M11/ RMK SC5SC3

CYQR;2013-02-03 19:00;CYQR 031900Z 11003KT 2 1/2SM -SN SCT015 OVC042 M11/M13 A2991 RMK SC3SC5 SLP175

CYQR;2013-02-03 19:09;CYQR 031909Z 10002KT 1 1/2SM -SHSN SCT015 OVC040 M11/ RMK SC3SC5 VIS VRB 1-2 CVCTV CLD EMBD

CYQR;2013-02-03 20:00;CYQR 032000Z 11004KT 4SM -SHSN FEW012 OVC050 M11/M13 A2991 RMK SF1SC8 SLP173

CYQR;2013-02-03 21:00;CYQR 032100Z 14002KT 15SM -SN FEW012 OVC049 M11/M13 A2990 RMK SC1SC8 SLP169

CYQR;2013-02-03 21:22;CYQR 032122Z 13005KT 15SM OVC043 M11/ RMK SC8

CYQR;2013-02-03 21:51;CYQR 032151Z 14003KT 15SM -SN OVC041 M11/ RMK SC8

CYQR;2013-02-03 22:00;CYQR 032200Z 14003KT 15SM -SN OVC041 M11/M13 A2990 RMK SC8 SLP168

CYQR;2013-02-03 22:50;CYQR 032250Z 15004KT 15SM OVC037 M11/ RMK SC8

CYQR;2013-02-03 23:00;CYQR 032300Z 16004KT 15SM OVC037 M11/M13 A2990 RMK SC8 SLP170

CYQR;2013-02-04 00:00;CYQR 040000Z 17007KT 15SM OVC035 M11/M13 A2990 RMK SC8 SLP170

CYQR;2013-02-04 01:00;CYQR 040100Z 18006KT 15SM OVC033 M11/M13 A2992 RMK SC8 SLP176

CYQR;2013-02-04 02:00;CYQR 040200Z 17009KT 15SM OVC027 M12/M13 A2989 RMK SC8 SLP168

CYQR;2013-02-04 03:00;CYQR 040300Z 14007KT 15SM OVC021 M11/M13 A2989 RMK SC8 SLP167

CYQR;2013-02-04 04:00;CYQR 040400Z 14007KT 15SM OVC017 M11/M13 A2988 RMK SC8 SLP165

CYQR;2013-02-04 04:29;CYQR 040429Z 16008KT 15SM OVC013 M11/ RMK SC8

CYQR;2013-02-04 05:00;CYQR 040500Z 16009KT 15SM -SN BKN006 OVC012 M11/M12 A2986 RMK SC5SC3 SLP157

CYQR;2013-02-04 06:00;CYQR 040600Z CCA 17009KT 15SM -SN OVC008 M10/M12 A2984 RMK SC8 SLP148

CYQR;2013-02-04 07:00;CYQR 040700Z 18009KT 15SM -SN OVC009 M10/M11 A2982 RMK SC8 SLP142

CYQR;2013-02-04 08:00;CYQR 040800Z 20007KT 15SM -SN OVC006 M09/M10 A2980 RMK SC8 SLP134

CYQR;2013-02-04 09:04;CYQR 040904Z 21004KT 2SM R13/6000FT/N BR OVC003 M08/ RMK SF8

CYQR;2013-02-04 09:10;CYQR 040910Z 20005KT 3/4SM R13/6000FT/N BR VV001 M08/ RMK FG8

CYQR;2013-02-04 10:00;CYQR 041000Z 24005KT 3/4SM R13/P6000FT/U BR VV001 M07/M08 A2975 RMK FG8 SLP116

CYQR;2013-02-04 10:06;CYQR 041006Z 25005KT 2SM BR OVC002 M07/ RMK SF8

CYQR;2013-02-04 10:33;CYQR 041033Z 25007KT 3/4SM R13/P6000FT/D BR VV002 M06/ RMK FG8

CYQR;2013-02-04 11:00;CYQR 041100Z 25005KT 3/4SM R13/6000FT/D BR VV001 M06/M06 A2972 RMK FG8 VIS VRB 1/2-1 SLP107

CYQR;2013-02-04 11:14;CYQR 041114Z 23004KT 3SM BR OVC005 M06/ RMK SF8

CYQR;2013-02-04 11:36;CYQR 041136Z 18004KT 5SM -SN BR OVC006 M06/ RMK SC8

CYQR;2013-02-04 12:00;CYQR 041200Z 20005KT 8SM -SN OVC005 M05/M06 A2970 RMK SC8 SLP096

CYQR;2013-02-04 12:15;CYQR 041215Z 21006KT 10SM -SN OVC003 M05/ RMK SC8

CYQR;2013-02-04 13:00;CYQR 041300Z 19008KT 8SM -SN BKN003 OVC047 M05/M05 A2966 RMK SC5SC3 SLP083

CYQR;2013-02-04 13:08;CYQR 041308Z 18009KT 8SM -SN SCT003 OVC047 M05/ RMK SF3SC5

CYQR;2013-02-04 14:00;CYQR 041400Z 18009KT 12SM -SN FEW003 OVC035 M04/M04 A2961 RMK SF2SC6 SLP068

CYQR;2013-02-04 15:00;CYQR 041500Z 17009KT 12SM -SN FEW003 OVC023 M04/M05 A2960 RMK SF1SC7 SLP061

CYQR;2013-02-04 15:34;CYQR 041534Z 17007KT 15SM BKN030 OVC065 M04/ RMK SC7SC1

CYQR;2013-02-04 16:00;CYQR 041600Z 18009KT 15SM BKN028 OVC065 M04/M05 A2956 RMK SC6SC2 SLP049

CYQR;2013-02-04 17:00;CYQR 041700Z 21009KT 15SM FEW079 OVC160 M04/M05 A2955 RMK AC2AS6 SLP044

CYQR;2013-02-04 18:00;CYQR 041800Z 27010KT 15SM FEW064 FEW160 BKN240 M02/M04 A2953 RMK SC1AC2CI2 SLP036

CYQR;2013-02-04 19:00;CYQR 041900Z 29015KT 15SM SCT082 BKN160 BKN240 M02/M04 A2951 RMK AC3AC2CI1 SLP029

CYQR;2013-02-04 20:00;CYQR 042000Z 29015KT 15SM SCT078 BKN150 M01/M03 A2951 RMK AC3AC4 SLP029

CYQR;2013-02-04 21:00;CYQR 042100Z 30009KT 15SM BKN074 BKN240 M01/M03 A2952 RMK AC5CI1 SLP028

CYQR;2013-02-04 22:00;CYQR 042200Z 32007KT 15SM VCSH FEW062 SCT082 BKN240 M02/M04 A2952 RMK SC2AC2CI2 ACC ASOCTD SLP028

CYQR;2013-02-04 23:00;CYQR 042300Z 29019KT 15SM VCSH FEW042 SCT075 BKN120 BKN240 M01/M03 A2953 RMK SC2ACC2AC2CI1 SLP032

CYQR;2013-02-05 00:00;CYQR 050000Z 29012KT 15SM VCSH FEW042 FEW075 SCT120 BKN240 M02/M04 A2953 RMK SC1AC1AC1CI1 SLP032

CYQR;2013-02-05 01:00;CYQR 050100Z 29016KT 15SM FEW100 BKN240 M03/M05 A2955 RMK AC2CI2 SLP037

CYQR;2013-02-05 02:00;CYQR 050200Z 30015KT 15SM FEW080 SCT250 M04/M06 A2955 RMK AC2CI0 SLP038

CYQR;2013-02-05 03:00;CYQR 050300Z 31019KT 15SM DRSN BKN047 M02/M04 A2958 RMK SC6 SLP049

CYQR;2013-02-05 04:00;CYQR 050400Z 31018G24KT 15SM DRSN BKN040 M02/M04 A2961 RMK SC6 SLP056

CYQR;2013-02-05 05:00;CYQR 050500Z 31016KT 15SM DRSN OVC043 M02/M04 A2963 RMK SC8 SLP064

CYQR;2013-02-05 05:43;CYQR 050543Z 34018KT 15SM -SN DRSN BKN016 OVC026 M02/ RMK SC6SC2

CYQR;2013-02-05 06:05;CYQR 050605Z 35014G19KT 15SM -SN DRSN OVC012 M02/ RMK SC8

CYQR;2013-02-05 06:38;CYQR 050638Z 35016KT 10SM -SN DRSN BKN016 OVC047 M03/ RMK SC5SC3

CYQR;2013-02-05 07:00;CYQR 050700Z 33016KT 15SM -SN DRSN OVC019 M04/M06 A2971 RMK SC8 SLP090

CYQR;2013-02-05 07:19;CYQR 050719Z 33014KT 15SM DRSN BKN023 OVC050 M05/ RMK SC6SC2

CYQR;2013-02-05 08:00;CYQR 050800Z 32016KT 15SM DRSN OVC030 M06/M07 A2973 RMK SC8 SLP097

CYQR;2013-02-05 09:00;CYQR 050900Z 34013KT 15SM OVC031 M08/M10 A2978 RMK SC8 SLP120

CYQR;2013-02-05 10:00;CYQR 051000Z 33017KT 15SM OVC035 M10/M11 A2981 RMK SC8 SLP129

CYQR;2013-02-05 11:00;CYQR 051100Z 32014KT 15SM FEW015 OVC033 M10/M12 A2984 RMK SC1SC7 SLP138

CYQR;2013-02-05 12:00;CYQR 051200Z 34010KT 15SM OVC031 M11/M12 A2984 RMK SC8 SLP143

CYQR;2013-02-05 13:00;CYQR 051300Z 34008KT 15SM OVC031 M11/M13 A2986 RMK SC8 SLP148

CYQR;2013-02-05 14:00;CYQR 051400Z 36005KT 15SM OVC029 M11/M12 A2986 RMK SC8 SLP149

CYQR;2013-02-05 15:00;CYQR 051500Z 00000KT 15SM FEW021 OVC035 M11/M12 A2987 RMK SC1SC7 SLP153

CYQR;2013-02-05 16:00;CYQR 051600Z 00000KT 15SM BKN023 OVC035 M10/M12 A2988 RMK SC5SC3 SLP154

CYQR;2013-02-05 16:30;CYQR 051630Z 12002KT 15SM BKN011 OVC035 M10/ RMK SC5SC3

CYQR;2013-02-05 16:49;CYQR 051649Z 01004KT 15SM BKN018 OVC031 M09/ RMK SC6SC2

CYQR;2013-02-05 17:00;CYQR 051700Z 04004KT 15SM BKN018 OVC031 M09/M11 A2987 RMK SC6SC2 SLP152

CYQR;2013-02-05 18:00;CYQR 051800Z 18008KT 15SM OVC029 M09/M11 A2988 RMK SC8 SLP154

CYQR;2013-02-05 19:00;CYQR 051900Z 18008KT 15SM BKN033 M08/M09 A2987 RMK SC6 SLP151

CYQR;2013-02-05 20:00;CYQR 052000Z 18008KT 15SM BKN035 M05/M07 A2984 RMK SC7 SLP142

CYQR;2013-02-05 21:00;CYQR 052100Z CCA 20010KT 15SM BKN035 BKN160 BKN240 M04/M06 A2982 RMK SC6AC1CI1 SLP134

CYQR;2013-02-05 22:00;CYQR 052200Z 19007KT 15SM BKN035 BKN160 BKN240 M05/M06 A2980 RMK SC6AC1CI1 SLP128

CYQR;2013-02-05 23:00;CYQR 052300Z 17007KT 15SM FEW035 FEW160 FEW240 M06/M08 A2979 RMK SC1AC2CI0 SLP124

CYQR;2013-02-06 00:00;CYQR 060000Z 16008KT 15SM BKN064 BKN240 M07/M08 A2977 RMK SC5CI0 SLP123

CYQR;2013-02-06 01:00;CYQR 060100Z 14007KT 15SM BKN071 M07/M08 A2978 RMK AC7 SLP124

CYQR;2013-02-06 02:00;CYQR 060200Z 15010KT 15SM BKN061 M07/M08 A2975 RMK SC7 SLP116

CYQR;2013-02-06 03:00;CYQR 060300Z 16011KT 15SM OVC053 M05/M07 A2974 RMK SC8 SLP110

CYQR;2013-02-06 04:00;CYQR 060400Z 14012KT 15SM BKN053 OVC080 M05/M06 A2972 RMK SC6AC2 SLP104

CYQR;2013-02-06 04:40;CYQR 060440Z 15014KT 6SM -SN DRSN OVC023 M05/ RMK SC8

CYQR;2013-02-06 05:00;CYQR 060500Z 15013KT 3SM -SN DRSN OVC010 M05/M06 A2971 RMK SN2SC6 SLP101

CYQR;2013-02-06 06:00;CYQR 060600Z 15015KT 3SM -SN DRSN OVC010 M05/M06 A2969 RMK SN2SC6 SLP090

CYQR;2013-02-06 06:34;CYQR 060634Z 16015KT 1SM R13/P6000FT/D -SN DRSN VV008 M05/ RMK SN8

CYQR;2013-02-06 07:00;CYQR 060700Z 15015KT 1 1/2SM -SN DRSN VV010 M05/M06 A2968 RMK SN8 SLP087

CYQR;2013-02-06 08:00;CYQR 060800Z 15016KT 1 1/2SM -SN DRSN VV010 M04/M05 A2966 RMK SN8 /S02/ SLP082

CYQR;2013-02-06 09:00;CYQR 060900Z 14015G20KT 1 1/2SM -SN DRSN VV010 M04/M05 A2966 RMK SN8 /S03/ SLP075

CYQR;2013-02-06 09:45;CYQR 060945Z 14016KT 6SM -SN DRSN OVC024 M04/ RMK SC8

CYQR;2013-02-06 10:00;CYQR 061000Z 14014KT 8SM -SN DRSN SCT024 OVC055 M04/M05 A2966 RMK SC4SC4 SLP075

CYQR;2013-02-06 11:00;CYQR 061100Z 13013G18KT 10SM -SN DRSN FEW025 BKN055 OVC071 M04/M06 A2966 RMK SC1SC5AC2 SLP075

CYQR;2013-02-06 12:00;CYQR 061200Z 12013KT 15SM -SN DRSN BKN055 OVC075 M05/M07 A2967 RMK SC6AC2 SLP084

CYQR;2013-02-06 12:26;CYQR 061226Z 11010KT 15SM FEW025 BKN055 M05/ RMK SC1SC6

CYQR;2013-02-06 13:00;CYQR 061300Z 10010KT 15SM FEW020 OVC055 M05/M07 A2971 RMK SC2SC6 SLP095

CYQR;2013-02-06 14:00;CYQR 061400Z 09011KT 15SM FEW020 FEW057 M06/M07 A2973 RMK SC1SC1 SLP101

CYQR;2013-02-06 15:00;CYQR 061500Z 08010KT 15SM FEW020 FEW057 SCT250 M08/M09 A2976 RMK SC1SC0CI0 SLP114

CYQR;2013-02-06 16:00;CYQR 061600Z 10012KT 15SM BKN100 BKN250 M08/M10 A2979 RMK AC5CI1 SLP123

CYQR;2013-02-06 17:00;CYQR 061700Z 12014KT 15SM BKN061 M08/M10 A2980 RMK SC6 SLP127

CYQR;2013-02-06 18:00;CYQR 061800Z 10010KT 15SM SCT048 OVC061 M06/M09 A2984 RMK SC4SC4 SLP139

CYQR;2013-02-06 18:09;CYQR 061809Z 11010KT 15SM -SN SCT048 OVC073 M06/ RMK SC4AC4

CYQR;2013-02-06 19:00;CYQR 061900Z 10011KT 15SM -SN SCT015 OVC081 M07/M09 A2985 RMK SC2AC6 SLP142

CYQR;2013-02-06 20:00;CYQR 062000Z 11011KT 15SM -SN BKN015 OVC081 M07/M10 A2986 RMK SC6AC2 SLP148

CYQR;2013-02-06 20:46;CYQR 062046Z 10011KT 15SM -SN OVC013 M07/ RMK SC8

CYQR;2013-02-06 21:00;CYQR 062100Z 08011KT 15SM -SN OVC013 M08/M10 A2989 RMK SC8 SLP157

CYQR;2013-02-06 22:00;CYQR 062200Z 09009KT 15SM -SN OVC011 M08/M10 A2991 RMK SC8 SLP164

CYQR;2013-02-06 23:00;CYQR 062300Z 10011KT 15SM -SN OVC011 M07/M10 A2992 RMK SC8 SLP168

CYQR;2013-02-07 00:00;CYQR 070000Z 11010KT 15SM OVC010 M08/M10 A2995 RMK SC8 SLP180

CYQR;2013-02-07 00:18;CYQR 070018Z 10012KT 15SM -SN OVC010 M08/ RMK SC8

CYQR;2013-02-07 01:00;CYQR 070100Z 11010KT 6SM -SN OVC010 M08/M10 A2996 RMK SC8 SLP185

CYQR;2013-02-07 02:00;CYQR 070200Z 12014KT 10SM -SN DRSN OVC014 M09/M11 A2998 RMK SC8 SLP190

CYQR;2013-02-07 02:25;CYQR 070225Z 11014KT 12SM -SN DRSN OVC009 M09/ RMK SC8

CYQR;2013-02-07 03:00;CYQR 070300Z 12011KT 15SM -SN DRSN OVC008 M09/M11 A2999 RMK SC8 SLP196

CYQR;2013-02-07 03:24;CYQR 070324Z 12011KT 12SM -SN DRSN OVC005 M09/ RMK SC8

CYQR;2013-02-07 04:00;CYQR 070400Z 12011KT 5SM -SN DRSN OVC005 M09/M10 A3000 RMK SC8 SLP201

CYQR;2013-02-07 05:00;CYQR 070500Z 12012KT 10SM -SN DRSN OVC008 M09/M10 A3001 RMK SC8 SLP203

CYQR;2013-02-07 06:00;CYQR 070600Z 13009KT 8SM -SN BKN008 OVC095 M08/M10 A3002 RMK SC7AC1 SLP206

CYQR;2013-02-07 06:52;CYQR 070652Z 14016KT 10SM -SN DRSN OVC020 M09/ RMK SC8

CYQR;2013-02-07 07:00;CYQR 070700Z 14015KT 10SM -SN DRSN OVC020 M09/M10 A3002 RMK SC8 SLP206

CYQR;2013-02-07 08:00;CYQR 070800Z 14015KT 6SM -SN DRSN OVC023 M10/M12 A3004 RMK SC8 SLP210

CYQR;2013-02-07 09:00;CYQR 070900Z 14015KT 10SM -SN DRSN OVC023 M11/M13 A3005 RMK SC8 SLP217

CYQR;2013-02-07 10:00;CYQR 071000Z 15011KT 15SM -SN DRSN OVC020 M12/M13 A3004 RMK SC8 SLP215

CYQR;2013-02-07 10:33;CYQR 071033Z 14016KT 15SM DRSN SCT025 M12/ RMK SC3

CYQR;2013-02-07 11:00;CYQR 071100Z 15014KT 15SM DRSN FEW030 M13/M14 A3004 RMK SC2 SLP216

CYQR;2013-02-07 11:23;CYQR 071123Z 14014KT 15SM DRSN BKN008 M13/ RMK SC6

CYQR;2013-02-07 12:00;CYQR 071200Z 15013KT 15SM DRSN OVC007 M13/M14 A3005 RMK SC8 SLP219

CYQR;2013-02-07 13:00;CYQR 071300Z 15014KT 10SM DRSN OVC007 M12/M13 A3004 RMK SC8 SLP218

CYQR;2013-02-07 13:09;CYQR 071309Z 15015KT 6SM -SN DRSN OVC007 M12/ RMK SC8

CYQR;2013-02-07 14:00;CYQR 071400Z 15012KT 2SM -SN DRSN BR OVC007 M12/M13 A3005 RMK SC8 SLP220

CYQR;2013-02-07 15:00;CYQR 071500Z 15013KT 2SM -SN DRSN BR OVC006 M12/M13 A3007 RMK SC8 VIS VRB 11/2-21/2 SLP228

CYQR;2013-02-07 16:00;CYQR 071600Z 15016KT 2SM -SN DRSN BR OVC006 M11/M13 A3007 RMK SC8 VIS VRB 11/2-21/2 SLP226

CYQR;2013-02-07 17:00;CYQR 071700Z 15014KT 2SM -SN DRSN BR OVC006 M11/M12 A3008 RMK SC8 VIS VRB 11/2-21/2 SLP229

CYQR;2013-02-07 18:00;CYQR 071800Z 14015KT 2SM -SN DRSN BR OVC006 M10/M12 A3008 RMK SC8 VIS VRB 11/2-21/2 SLP228

CYQR;2013-02-07 18:35;CYQR 071835Z 15015KT 3SM DRSN BR OVC006 M10/ RMK SC8

CYQR;2013-02-07 19:00;CYQR 071900Z 14015G20KT 2 1/2SM DRSN BR OVC006 M10/M11 A3006 RMK SC8 SLP223

CYQR;2013-02-07 19:27;CYQR 071927Z 15014G20KT 3SM DRSN BR OVC006 M10/ RMK SC8

CYQR;2013-02-07 20:00;CYQR 072000Z 15016KT 2 1/2SM DRSN BR OVC006 M10/M11 A3005 RMK SC8 SLP219

CYQR;2013-02-07 20:25;CYQR 072025Z 15015KT 3SM DRSN BR OVC006 M09/ RMK SC8

CYQR;2013-02-07 21:00;CYQR 072100Z 15017KT 3SM DRSN BR OVC006 M09/M11 A3003 RMK SC8 SLP214

CYQR;2013-02-07 21:30;CYQR 072130Z 14017KT 3SM DRSN BR OVC005 M09/ RMK SC8

CYQR;2013-02-07 22:00;CYQR 072200Z 14015KT 3SM DRSN BR OVC006 M09/M10 A3002 RMK SC8 SLP210

CYQR;2013-02-07 23:00;CYQR 072300Z 15014KT 3SM DRSN BR OVC005 M09/M10 A3001 RMK SC8 SLP208

CYQR;2013-02-08 00:00;CYQR 080000Z 14015KT 2SM DRSN BR OVC005 M09/M10 A3001 RMK SC8 FROIN SLP207

CYQR;2013-02-08 00:14;CYQR 080014Z 14014KT 1 1/4SM -SN DRSN BR OVC005 M09/ RMK SC8

CYQR;2013-02-08 00:44;CYQR 080044Z 14015KT 1 1/4SM -SN DRSN BR OVC004 M08/ RMK ST8

CYQR;2013-02-08 01:00;CYQR 080100Z 14015G20KT 1 1/2SM -SN DRSN BR OVC004 M08/M09 A3001 RMK ST8 SLP207

CYQR;2013-02-08 02:00;CYQR 080200Z 14017KT 1 1/2SM -SN DRSN BR OVC004 M08/M09 A3001 RMK ST8 SLP206

CYQR;2013-02-08 03:00;CYQR 080300Z 14016KT 2SM -SN DRSN BR OVC004 M08/M09 A2999 RMK ST8 SLP199

CYQR;2013-02-08 04:00;CYQR 080400Z 14015KT 2SM -SN DRSN BR OVC004 M08/M09 A2999 RMK ST8 SLP199

CYQR;2013-02-08 05:00;CYQR 080500Z 14017KT 2SM -SN DRSN BR OVC004 M08/M09 A2998 RMK ST8 SLP195

CYQR;2013-02-08 06:00;CYQR 080600Z 15014G20KT 2SM -SN DRSN BR OVC004 M07/M09 A2996 RMK ST8 SLP189

CYQR;2013-02-08 07:00;CYQR 080700Z 14014KT 5SM -SN DRSN BR OVC004 M07/M09 A2996 RMK ST8 SLP186

CYQR;2013-02-08 07:23;CYQR 080723Z 14015KT 8SM DRSN OVC004 M07/ RMK ST8

CYQR;2013-02-08 08:00;CYQR 080800Z 14015KT 6SM -SN DRSN BKN004 M07/M08 A2994 RMK SF7 SLP180

CYQR;2013-02-08 09:00;CYQR 080900Z 14015KT 8SM -SN OVC005 M08/M09 A2993 RMK SF8 SLP177

CYQR;2013-02-08 10:00;CYQR 081000Z 14015KT 8SM -SN OVC004 M08/M09 A2992 RMK SF8 SLP173

CYQR;2013-02-08 11:00;CYQR 081100Z 14016KT 8SM -SN OVC004 M07/M08 A2991 RMK SF8 SLP168

CYQR;2013-02-08 12:00;CYQR 081200Z 14013KT 4SM -SN OVC004 M07/M08 A2991 RMK SF8 SLP166

CYQR;2013-02-08 13:00;CYQR 081300Z 14014KT 4SM -SN OVC003 M07/M08 A2989 RMK SF8 SLP161

CYQR;2013-02-08 13:26;CYQR 081326Z 15011G16KT 3SM -SN OVC004 M07/ RMK SF8

CYQR;2013-02-08 13:43;CYQR 081343Z 15012KT 2 1/2SM -SN BR OVC003 M07/ RMK SF8

CYQR;2013-02-08 14:00;CYQR 081400Z 15013KT 1 1/2SM -SN BR OVC003 M07/M08 A2989 RMK SF6 SLP162

CYQR;2013-02-08 14:17;CYQR 081417Z 15013KT 2SM BR OVC003 M08/ RMK SF3

CYQR;2013-02-08 14:49;CYQR 081449Z 16010KT 5SM BR SCT004 M08/ RMK SF2

CYQR;2013-02-08 15:00;CYQR 081500Z 16010G15KT 5SM BR BKN003 M08/M10 A2989 RMK SF2 SLP162

CYQR;2013-02-08 15:21;CYQR 081521Z 16008KT 1 1/2SM BR OVC002 M09/ RMK SF4

CYQR;2013-02-08 15:47;CYQR 081547Z 17011KT 1SM R13/4500VP6000FT/D BR OVC001 M09/ RMK FG1SF4

CYQR;2013-02-08 16:00;CYQR 081600Z 16010KT 1SM R13/3000VP6000FT/D BR BKN001 M09/M10 A2989 RMK FG1SF1 SLP162

CYQR;2013-02-08 17:00;CYQR 081700Z 17007KT 6SM BR FEW001 M09/M10 A2989 RMK SF0 SLP162

CYQR;2013-02-08 18:00;CYQR 081800Z 17007KT 15SM SKC M08/M09 A2988 RMK SLP159

CYQR;2013-02-08 19:00;CYQR 081900Z 19003KT 15SM SKC M07/M09 A2988 RMK SLP158

CYQR;2013-02-08 20:00;CYQR 082000Z 20003KT 15SM SKC M06/M09 A2987 RMK SLP156

CYQR;2013-02-08 21:00;CYQR 082100Z 24004KT 15SM SKC M06/M09 A2987 RMK SLP153

CYQR;2013-02-08 22:00;CYQR 082200Z 00000KT 15SM FEW200 M06/M09 A2986 RMK CI1 SLP151

CYQR;2013-02-08 23:00;CYQR 082300Z 00000KT 15SM FEW200 M09/M10 A2987 RMK CI1 SLP152

CYQR;2013-02-09 00:00;CYQR 090000Z 00000KT 15SM FEW200 M11/M11 A2986 RMK CI1 SLP153

CYQR;2013-02-09 01:00;CYQR 090100Z 00000KT 15SM SKC M11/M12 A2986 RMK SLP154

CYQR;2013-02-09 02:00;CYQR 090200Z 00000KT 15SM SKC M13/M14 A2986 RMK SLP154

CYQR;2013-02-09 03:00;CYQR 090300Z 00000KT 15SM SKC M16/M16 A2987 RMK SLP162

CYQR;2013-02-09 04:00;CYQR 090400Z 00000KT 8SM SKC M15/M16 A2987 RMK BR SLP161

CYQR;2013-02-09 05:00;CYQR 090500Z 00000KT 15SM SKC M15/M17 A2987 RMK SLP162

CYQR;2013-02-09 06:00;CYQR 090600Z 00000KT 15SM SKC M16/M17 A2988 RMK SLP163

CYQR;2013-02-09 07:00;CYQR 090700Z 00000KT 15SM R13/4000VP6000FT/U FEW020 M17/M19 A2987 RMK SC0 SLP160

CYQR;2013-02-09 08:00;CYQR 090800Z 00000KT 10SM SCT020 M16/M17 A2986 RMK SC2 BR SLP156

CYQR;2013-02-09 09:00;CYQR 090900Z 00000KT 10SM SCT020 M15/M17 A2985 RMK SC2 BR VIS SW 3 SLP152

CYQR;2013-02-09 10:00;CYQR 091000Z 00000KT 10SM FEW020 M16/M18 A2985 RMK SC1 BR SLP151

CYQR;2013-02-09 11:00;CYQR 091100Z 00000KT 15SM BKN020 M16/M17 A2983 RMK SC6 SLP147

CYQR;2013-02-09 12:00;CYQR 091200Z 00000KT 15SM FEW020 BKN075 M16/M18 A2983 RMK SC1AC2 SLP149

CYQR;2013-02-09 13:00;CYQR 091300Z 00000KT 15SM FEW002 SCT072 OVC087 M17/M18 A2981 RMK ST2AC2AC2 SLP144

CYQR;2013-02-09 14:00;CYQR 091400Z 00000KT 12SM FEW025 M18/M19 A2981 RMK SC1 SLP141

CYQR;2013-02-09 15:00;CYQR 091500Z 00000KT 12SM FEW040 M18/M19 A2980 RMK SC1 SLP143

CYQR;2013-02-09 16:00;CYQR 091600Z 00000KT 15SM FEW040 FEW100 M16/M18 A2978 RMK SC1AC1 SLP139

CYQR;2013-02-09 17:00;CYQR 091700Z 00000KT 15SM FEW040 FEW100 FEW250 M14/M16 A2977 RMK SC1AC1CI1 SLP136

CYQR;2013-02-09 18:00;CYQR 091800Z 00000KT 15SM FEW080 M13/M14 A2976 RMK AC1 SLP127

CYQR;2013-02-09 19:00;CYQR 091900Z 00000KT 15SM SCT078 BKN220 M11/M13 A2975 RMK AC3CI0 SLP123

CYQR;2013-02-09 20:00;CYQR 092000Z 00000KT 15SM BKN073 OVC220 M09/M12 A2974 RMK AC7CI1 SLP119

CYQR;2013-02-09 21:00;CYQR 092100Z 18005KT 15SM SCT071 SCT100 SCT220 M06/M09 A2972 RMK AC2AC2CI0 SLP108

CYQR;2013-02-09 22:00;CYQR 092200Z 17005KT 15SM FEW085 FEW220 M06/M09 A2971 RMK AC2CI1 SLP105

CYQR;2013-02-09 23:00;CYQR 092300Z 20006KT 15SM BKN076 M07/M09 A2971 RMK AC4 SLP106

CYQR;2013-02-10 00:00;CYQR 100000Z 28005KT 15SM FEW052 BKN074 BKN220 M07/M08 A2972 RMK SC2AC3CI1 SLP109

CYQR;2013-02-10 00:38;CYQR 100038Z 29011KT 12SM -SN BKN006 OVC052 M03/ RMK ST5SC3

CYQR;2013-02-10 01:00;CYQR 100100Z 29009KT 15SM -SN OVC006 M03/M04 A2974 RMK ST8 SLP113

CYQR;2013-02-10 02:00;CYQR 100200Z 27008KT 15SM OVC012 M03/M04 A2974 RMK SC8 SLP115

CYQR;2013-02-10 03:00;CYQR 100300Z 29009KT 15SM OVC014 M02/M03 A2974 RMK SC8 SLP114

CYQR;2013-02-10 04:00;CYQR 100400Z 30009KT 15SM OVC009 M02/M03 A2975 RMK SC8 SLP115

CYQR;2013-02-10 05:03;CYQR 100503Z 30009KT 15SM OVC009 M02/ RMK SC8 CIG VRB 7-11

CYQR;2013-02-10 06:00;CYQR 100600Z 32012KT 15SM OVC011 M02/M03 A2975 RMK SC8 CIG VRB 9-13 SLP113

CYQR;2013-02-10 07:00;CYQR 100700Z 33015KT 15SM OVC008 M02/M03 A2977 RMK SC8 CIG VRB 7-9 SLP118

CYQR;2013-02-10 07:43;CYQR 100743Z 34017KT 12SM -SN OVC007 M03/ RMK SC8

CYQR;2013-02-10 08:00;CYQR 100800Z 34017KT 12SM -SN OVC008 M03/M04 A2979 RMK SC8 SLP124

CYQR;2013-02-10 09:00;CYQR 100900Z 33015KT 15SM OVC013 M03/M05 A2981 RMK SC8 SLP128

CYQR;2013-02-10 10:00;CYQR 101000Z 32019KT 15SM -SN OVC010 M04/M06 A2981 RMK SC8 CIG VRB 8-12 SLP130

CYQR;2013-02-10 10:27;CYQR 101027Z 33020G27KT 15SM -SN OVC007 M05/ RMK SC8 VIG VRB 5-9

CYQR;2013-02-10 11:00;CYQR 101100Z 33018KT 15SM OVC011 M05/M06 A2983 RMK SC8 SLP135

CYQR;2013-02-10 11:48;CYQR 101148Z 34018KT 15SM BKN008 OVC023 M06/ RMK SC6SC2

CYQR;2013-02-10 12:00;CYQR 101200Z 33017KT 15SM BKN009 OVC027 M06/M07 A2986 RMK SC7SC1 SLP147

CYQR;2013-02-10 13:00;CYQR 101300Z 34023KT 15SM OVC009 M07/M09 A2986 RMK SC8 SLP149

CYQR;2013-02-10 13:26;CYQR 101326Z 34020KT 15SM BKN011 OVC019 M08/ RMK SC6SC2

CYQR;2013-02-10 14:00;CYQR 101400Z 34022KT 15SM OVC009 M08/M10 A2988 RMK SC8 SLP156

CYQR;2013-02-10 15:00;CYQR 101500Z 33019G24KT 15SM OVC008 M09/M10 A2989 RMK SC8 SLP158

CYQR;2013-02-10 15:22;CYQR 101522Z 33019G24KT 15SM OVC010 M09/ RMK SC8

CYQR;2013-02-10 16:00;CYQR 101600Z 34021KT 15SM DRSN OVC009 M08/M10 A2990 RMK SC8 CIG VRB 7-11 SLP160

CYQR;2013-02-10 16:49;CYQR 101649Z 34016KT 15SM -SN DRSN OVC009 M08/ RMK SC8 CIG VRB 7-11

CYQR;2013-02-10 17:00;CYQR 101700Z 35015KT 15SM -SN DRSN OVC009 M08/M09 A2993 RMK SC8 CIG VRB 7-11 SLP169

CYQR;2013-02-10 18:00;CYQR 101800Z 36014KT 6SM -SN DRSN OVC009 M07/M09 A2995 RMK SC8 SLP176

CYQR;2013-02-10 19:00;CYQR 101900Z 36014KT 10SM -SN DRSN BKN011 OVC041 M07/M09 A2995 RMK SC5SC3 SLP177

CYQR;2013-02-10 20:00;CYQR 102000Z 01014G20KT 15SM -SN DRSN OVC011 M07/M09 A2996 RMK SC7 SLP181

CYQR;2013-02-10 21:00;CYQR 102100Z 01013KT 15SM -SN BKN011 M06/M08 A2997 RMK SC7 CU ASOCTD SLP185

CYQR;2013-02-10 21:26;CYQR 102126Z 01016KT 15SM BKN012 BKN040 M06/ RMK SC6SC1

CYQR;2013-02-10 22:00;CYQR 102200Z 36014G20KT 15SM BKN014 BKN045 M07/M09 A3000 RMK SC6SC1 SLP195

CYQR;2013-02-10 23:00;CYQR 102300Z 36019KT 15SM BKN016 BKN035 M07/M10 A3002 RMK SC3SC2 SLP200

CYQR;2013-02-11 00:00;CYQR 110000Z 36013KT 15SM FEW031 SCT091 BKN220 M08/M11 A3003 RMK SC1AC2CI1 SLP209

CYQR;2013-02-11 01:00;CYQR 110100Z 34011KT 15SM SCT016 BKN091 M12/M13 A3006 RMK SC3AC1 SLP218

CYQR;2013-02-11 02:00;CYQR 110200Z 35012KT 15SM -SN OVC016 M09/M11 A3007 RMK SC8 SLP222

CYQR;2013-02-11 03:00;CYQR 110300Z 36010KT 15SM -SN OVC012 M09/M11 A3008 RMK SC8 SLP228

CYQR;2013-02-11 04:00;CYQR 110400Z 36008KT 15SM -SN OVC012 M09/M11 A3008 RMK SC8 SLP227

CYQR;2013-02-11 05:00;CYQR 110500Z 34011KT 15SM -SN OVC012 M09/M11 A3007 RMK SC8 SLP224

CYQR;2013-02-11 06:00;CYQR 110600Z 33009KT 15SM -SN OVC012 M09/M11 A3006 RMK SC8 SLP222

CYQR;2013-02-11 07:00;CYQR 110700Z 33009KT 15SM -SN OVC014 M10/M12 A3006 RMK SC8 SLP220

CYQR;2013-02-11 08:00;CYQR 110800Z 31007KT 15SM -SN OVC007 M10/M11 A3004 RMK SC8 SLP215

CYQR;2013-02-11 09:00;CYQR 110900Z 32004KT 15SM -SN OVC007 M10/M11 A3003 RMK SC8 SLP211

CYQR;2013-02-11 10:00;CYQR 111000Z 28008KT 15SM -SN OVC006 M10/M11 A3002 RMK SC8 SLP208

CYQR;2013-02-11 11:00;CYQR 111100Z 26006KT 12SM -SN OVC006 M10/M11 A3000 RMK SC8 SLP202

CYQR;2013-02-11 11:40;CYQR 111140Z 25007KT 15SM -SN OVC004 M10/ RMK SC8

CYQR;2013-02-11 12:00;CYQR 111200Z 24009KT 15SM -SN OVC005 M10/M11 A2999 RMK SC8 CIG VRB 4-6 SLP196

CYQR;2013-02-11 12:43;CYQR 111243Z 23010KT 15SM -SN OVC006 M10/ RMK SC8

CYQR;2013-02-11 13:00;CYQR 111300Z 23013KT 15SM -SN OVC008 M10/M12 A2996 RMK SC8 SLP187

CYQR;2013-02-11 14:00;CYQR 111400Z 23013KT 15SM -SN BKN007 OVC050 M10/M11 A2995 RMK SC7SC1 SLP185

CYQR;2013-02-11 14:30;CYQR 111430Z 20009KT 15SM FEW007 FEW050 BKN230 M12/ RMK SC1SC1CI1

CYQR;2013-02-11 15:00;CYQR 111500Z 18011KT 15SM FEW150 SCT230 M13/M15 A2991 RMK AC1CI1 SLP174

CYQR;2013-02-11 16:00;CYQR 111600Z 18009KT 15SM FEW120 BKN230 M13/M15 A2990 RMK AC1CI3 SLP170

CYQR;2013-02-11 17:00;CYQR 111700Z 18009KT 15SM FEW120 BKN230 M12/M13 A2988 RMK AC1CI4 SLP164

CYQR;2013-02-11 18:00;CYQR 111800Z 18012KT 15SM FEW120 BKN230 M11/M13 A2984 RMK AC1CI2 SLP146

CYQR;2013-02-11 19:00;CYQR 111900Z 21012KT 15SM FEW120 SCT230 M08/M11 A2980 RMK AC1CI2 SLP133

CYQR;2013-02-11 20:00;CYQR 112000Z 26010KT 15SM FEW120 FEW230 M07/M10 A2978 RMK AC1CI1 SLP128

CYQR;2013-02-11 21:00;CYQR 112100Z 25015KT 15SM FEW120 SCT230 M06/M09 A2976 RMK AC1CI1 SLP115

CYQR;2013-02-11 22:00;CYQR 112200Z 25013KT 15SM FEW230 M06/M09 A2973 RMK CI1 SLP107

CYQR;2013-02-11 23:00;CYQR 112300Z 28007KT 15SM SCT230 M07/M10 A2973 RMK CI1 SLP106

CYQR;2013-02-12 00:00;CYQR 120000Z 23006KT 15SM FEW230 M09/M11 A2973 RMK CI1 SLP108

CYQR;2013-02-12 01:00;CYQR 120100Z 24003KT 15SM FEW230 M12/M13 A2973 RMK CI1 SLP109

CYQR;2013-02-12 02:00;CYQR 120200Z 27007KT 15SM SKC M11/M12 A2975 RMK SLP114

CYQR;2013-02-12 03:00;CYQR 120300Z 27008KT 15SM FEW230 M13/M14 A2974 RMK CI2 SLP117

CYQR;2013-02-12 04:00;CYQR 120400Z 28009KT 15SM SKC M14/M15 A2975 RMK SLP119

CYQR;2013-02-12 05:00;CYQR 120500Z 30009KT 15SM SKC M13/M14 A2976 RMK SLP122

CYQR;2013-02-12 06:00;CYQR 120600Z 29008KT 15SM SKC M14/M15 A2976 RMK SLP124

CYQR;2013-02-12 07:00;CYQR 120700Z 27006KT 15SM SKC M13/M15 A2976 RMK SLP125

CYQR;2013-02-12 08:00;CYQR 120800Z 28008KT 15SM FEW220 M14/M15 A2976 RMK CI1 SLP125

CYQR;2013-02-12 09:00;CYQR 120900Z 27012KT 15SM SKC M13/M14 A2977 RMK SLP122

CYQR;2013-02-12 10:00;CYQR 121000Z 28013KT 15SM FEW220 M12/M13 A2977 RMK CI0 SLP124

CYQR;2013-02-12 11:00;CYQR 121100Z 28007KT 15SM BKN100 M12/M13 A2977 RMK AC6 SLP124

CYQR;2013-02-12 12:00;CYQR 121200Z 26007KT 15SM BKN100 M12/M14 A2978 RMK AC6 SLP129

CYQR;2013-02-12 13:00;CYQR 121300Z 27005KT 15SM BKN085 M11/M12 A2979 RMK AC7 SLP131

CYQR;2013-02-12 14:00;CYQR 121400Z 28005KT 15SM FEW050 BKN081 OVC230 M09/M10 A2980 RMK SC1AC6CI0 SLP134

CYQR;2013-02-12 15:00;CYQR 121500Z 30012KT 15SM FEW050 BKN083 BKN250 M06/M08 A2980 RMK SC1AC6CI1 SLP131

CYQR;2013-02-12 16:00;CYQR 121600Z 29013KT 15SM FEW055 OVC075 M05/M07 A2980 RMK SC2AC6 SLP131

CYQR;2013-02-12 17:00;CYQR 121700Z 30012KT 15SM BKN033 OVC075 M03/M06 A2980 RMK SC6AC2 SLP133

CYQR;2013-02-12 18:00;CYQR 121800Z 30017KT 15SM FEW031 SCT075 OVC160 M01/M04 A2979 RMK SC2AC2AS4 SLP126

CYQR;2013-02-12 19:00;CYQR 121900Z 30009KT 15SM FEW040 BKN060 BKN160 M00/M03 A2978 RMK SC2SC3AC2 SLP122

CYQR;2013-02-12 20:00;CYQR 122000Z 27012KT 15SM FEW075 SCT230 M00/M03 A2976 RMK AC1CI1 SLP118

CYQR;2013-02-12 21:00;CYQR 122100Z 28018KT 15SM FEW075 BKN230 M01/M04 A2975 RMK AC1CI2 SLP111

CYQR;2013-02-12 22:00;CYQR 122200Z 28017KT 15SM FEW080 BKN230 M02/M04 A2974 RMK AC2CI2 SLP108

CYQR;2013-02-12 23:00;CYQR 122300Z 30011KT 15SM FEW100 BKN250 M02/M05 A2974 RMK AC2CI2 SLP109

CYQR;2013-02-13 00:00;CYQR 130000Z 31011KT 15SM FEW160 BKN250 M04/M07 A2975 RMK AC2CI1 SLP115

CYQR;2013-02-13 01:00;CYQR 130100Z 29014KT 15SM FEW080 SCT160 BKN230 M04/M07 A2973 RMK AC1AC2CI2 SLP109

CYQR;2013-02-13 02:00;CYQR 130200Z 27008KT 15SM FEW160 BKN230 M07/M08 A2972 RMK AC2CI2 SLP105

CYQR;2013-02-13 03:00;CYQR 130300Z 27009KT 15SM BKN069 OVC160 M07/M08 A2972 RMK AC7AC1 SLP102

CYQR;2013-02-13 04:00;CYQR 130400Z 27007KT 15SM BKN057 M07/M08 A2970 RMK SC6 SLP093

CYQR;2013-02-13 05:00;CYQR 130500Z 26002KT 15SM BKN077 OVC110 M06/M07 A2968 RMK AC7AC1 SLP087

CYQR;2013-02-13 06:00;CYQR 130600Z 28005KT 15SM OVC082 M05/M07 A2966 RMK AC8 SLP075

CYQR;2013-02-13 07:00;CYQR 130700Z 22003KT 15SM SCT067 OVC100 M06/M07 A2964 RMK AC4AC4 SLP067

CYQR;2013-02-13 08:00;CYQR 130800Z 25002KT 15SM BKN044 OVC065 M05/M07 A2964 RMK SC6SC2 SLP067

CYQR;2013-02-13 09:00;CYQR 130900Z 12004KT 15SM BKN051 OVC097 M06/M07 A2961 RMK SC6AC2 SLP057

CYQR;2013-02-13 10:00;CYQR 131000Z 10006KT 15SM SCT082 OVC120 M07/M08 A2957 RMK AC4AC4 SLP047

CYQR;2013-02-13 10:47;CYQR 131047Z 12006KT 15SM -SN OVC047 M06/ RMK SC8

CYQR;2013-02-13 11:00;CYQR 131100Z 11005KT 15SM -SN OVC040 M06/M07 A2956 RMK SC8 SLP042

CYQR;2013-02-13 12:00;CYQR 131200Z 12005KT 12SM -SN OVC030 M06/M07 A2956 RMK SC8 SLP044

CYQR;2013-02-13 13:00;CYQR 131300Z 12006KT 10SM -SN OVC032 M05/M06 A2956 RMK SC8 SLP045

CYQR;2013-02-13 14:00;CYQR 131400Z 09004KT 4SM -SN BKN025 M05/M06 A2957 RMK SC7 SLP047

CYQR;2013-02-13 14:43;CYQR 131443Z 10004KT 15SM FEW025 SCT087 BKN230 M06/ RMK SC2AC2CI1

CYQR;2013-02-13 15:00;CYQR 131500Z 14002KT 15SM FEW027 SCT087 BKN230 M06/M07 A2958 RMK SC1AC2CI1 SLP052

CYQR;2013-02-13 16:00;CYQR 131600Z 18004KT 15SM BKN040 BKN090 OVC250 M06/M07 A2959 RMK SC5AC2CI1 SLP055

CYQR;2013-02-13 17:00;CYQR 131700Z 23002KT 15SM BKN040 OVC090 M05/M06 A2961 RMK SC6AC2 SLP063

CYQR;2013-02-13 17:20;CYQR 131720Z 26006KT 8SM -SN SCT006 BKN017 OVC041 M04/ RMK SC3SC2SC2

CYQR;2013-02-13 17:33;CYQR 131733Z 27007KT 4SM -SN BKN003 OVC028 M04/ RMK SC6SC2

CYQR;2013-02-13 17:37;CYQR 131737Z 28006KT 1 1/2SM -SN BR BKN002 OVC028 M04/ RMK SC6SC2

CYQR;2013-02-13 17:47;CYQR 131747Z 27005KT 5SM -SN BR SCT003 BKN045 M04/ RMK SC4SC3

CYQR;2013-02-13 18:00;CYQR 131800Z 28007KT 8SM -SN FEW003 BKN045 BKN100 M04/M05 A2962 RMK SC2SC4AC2 SLP063

CYQR;2013-02-13 18:12;CYQR 131812Z 30011KT 2SM -SN OVC008 M04/ RMK SC8

CYQR;2013-02-13 18:15;CYQR 131815Z 30010KT 5/8SM R13/4000VP6000FT/D -SN OVC004 M04/ RMK SN6SC2

CYQR;2013-02-13 18:27;CYQR 131827Z 31008KT 3/4SM R13/3500VP6000FT/U -SN OVC003 M04/ RMK SN4SC4

CYQR;2013-02-13 18:32;CYQR 131832Z 31007KT 1 1/2SM R13/3500VP6000FT/U -SN BKN003 OVC038 M04/ RMK SC6SC2

CYQR;2013-02-13 18:45;CYQR 131845Z 30007KT 4SM -SN SCT003 BKN038 OVC100 M03/ RMK SC4SC2AC2

CYQR;2013-02-13 19:00;CYQR 131900Z 30008KT 6SM -SN FEW003 OVC040 M03/M04 A2963 RMK SC2SC6 SLP066

CYQR;2013-02-13 19:43;CYQR 131943Z 30010KT 3SM -SN BKN006 OVC040 M03/ RMK SC6SC2

CYQR;2013-02-13 20:00;CYQR 132000Z 30012KT 3SM -SN BKN006 OVC040 M03/M04 A2963 RMK SC6SC2 SLP066

CYQR;2013-02-13 21:00;CYQR 132100Z 30008KT 10SM -SN OVC006 M02/M03 A2964 RMK SC8 SLP068

CYQR;2013-02-13 21:50;CYQR 132150Z 31012KT 12SM -SN SCT006 OVC012 M01/ RMK SC3SC5

CYQR;2013-02-13 22:00;CYQR 132200Z 31013KT 12SM -SN OVC010 M01/M02 A2966 RMK SC8 SLP074

CYQR;2013-02-13 23:00;CYQR 132300Z 31013KT 12SM -SN OVC009 M01/M02 A2966 RMK SC8 SLP075

CYQR;2013-02-14 00:00;CYQR 140000Z 29011KT 15SM -SN OVC009 M00/M01 A2966 RMK SC8 SLP075

CYQR;2013-02-14 00:33;CYQR 140033Z 31012KT 15SM -SN OVC012 M00/ RMK SC8

CYQR;2013-02-14 00:50;CYQR 140050Z 31011KT 15SM -SN OVC017 00/ RMK SC8

CYQR;2013-02-14 01:00;CYQR 140100Z 30010KT 15SM -SN OVC017 M00/M01 A2966 RMK SC8 SLP075

CYQR;2013-02-14 01:21;CYQR 140121Z 29009KT 4SM -SN OVC011 M00/ RMK SC8

CYQR;2013-02-14 01:40;CYQR 140140Z 30022KT 1 1/2SM -SN OVC010 M01/ RMK SN3SC5

CYQR;2013-02-14 02:00;CYQR 140200Z 31020G26KT 1 1/2SM -SN OVC010 M01/M01 A2966 RMK SN2SC6 SLP076

CYQR;2013-02-14 02:18;CYQR 140218Z 30018KT 1 1/2SM -SN BKN004 OVC010 M01/ RMK SF6SC2

CYQR;2013-02-14 02:37;CYQR 140237Z 30020KT 1 1/2SM -SN VV007 M01/ RMK SN8

CYQR;2013-02-14 03:00;CYQR 140300Z 31016KT 2SM -SN OVC004 M01/M01 A2967 RMK SF8 SLP081

CYQR;2013-02-14 03:12;CYQR 140312Z 32017KT 1 3/4SM -SN OVC005 M01/ RMK SF8

CYQR;2013-02-14 03:30;CYQR 140330Z 07017KT 2SM -SN DRSN OVC004 M02/ RMK SF8 /S01/

CYQR;2013-02-14 03:41;CYQR 140341Z 07014KT 2 1/2SM -SN DRSN SCT006 OVC009 M02/ RMK SF4SC4

CYQR;2013-02-14 04:00;CYQR 140400Z 07019KT 1 1/2SM -SN DRSN BKN007 OVC017 M03/M04 A2972 RMK SF6SC2 SLP096

CYQR;2013-02-14 04:15;CYQR 140415Z 06020G25KT 2SM -SN DRSN OVC010 M04/ RMK SC8 VIS VRB 11/2-21/2

CYQR;2013-02-14 04:38;CYQR 140438Z 05015G26KT 1 1/4SM -SN DRSN VV008 M04/ RMK SN8

CYQR;2013-02-14 05:05;CYQR 140505Z 05019G24KT 7SM -SN DRSN OVC011 M04/ RMK SC8

CYQR;2013-02-14 05:38;CYQR 140538Z 05018KT 12SM -SN DRSN FEW013 OVC023 M04/ RMK SC2SC6

CYQR;2013-02-14 06:00;CYQR 140600Z 05017G22KT 15SM -SN DRSN FEW010 OVC023 M04/M05 A2986 RMK SC1SC8 PRESRR SLP145

CYQR;2013-02-14 07:00;CYQR 140700Z 01015KT 15SM -SN DRSN FEW010 FEW025 OVC037 M05/M06 A2993 RMK SC1SC2SC6 PRESRR SLP167

CYQR;2013-02-14 07:14;CYQR 140714Z 01015KT 15SM DRSN FEW010 OVC037 M05/ RMK SC1SC7

CYQR;2013-02-14 08:00;CYQR 140800Z 36011G16KT 15SM DRSN OVC030 M05/M07 A2999 RMK SC8 PRESRR SLP186

CYQR;2013-02-14 09:00;CYQR 140900Z 36010G15KT 15SM OVC026 M05/M07 A3003 RMK SC8 SLP202

CYQR;2013-02-14 10:00;CYQR 141000Z 36012G17KT 15SM OVC022 M06/M08 A3006 RMK SC8 SLP213

CYQR;2013-02-14 10:15;CYQR 141015Z 35011KT 15SM -SN OVC022 M06/ RMK SC8

CYQR;2013-02-14 11:00;CYQR 141100Z 34011KT 15SM -SN OVC022 M07/M08 A3008 RMK SC8 SLP218

CYQR;2013-02-14 12:00;CYQR 141200Z 34016KT 8SM -SN OVC022 M07/M09 A3011 RMK SC8 SLP232

CYQR;2013-02-14 12:47;CYQR 141247Z 33010KT 15SM BKN035 OVC077 M08/ RMK SC6AC2

CYQR;2013-02-14 13:00;CYQR 141300Z 33008KT 15SM BKN035 OVC081 M08/M09 A3013 RMK SC6AC2 SLP239

CYQR;2013-02-14 13:24;CYQR 141324Z 33005KT 15SM -SN BKN035 OVC077 M08/ RMK SC6AC2

CYQR;2013-02-14 14:00;CYQR 141400Z 31005KT 15SM -SN BKN029 OVC077 M08/M09 A3015 RMK SC6AC2 SLP244

CYQR;2013-02-14 14:36;CYQR 141436Z 30008KT 2 1/2SM -SN OVC013 M08/ RMK SC8

CYQR;2013-02-14 15:00;CYQR 141500Z 30009KT 5SM -SN OVC013 M07/M08 A3018 RMK SC8 SLP255

CYQR;2013-02-14 15:23;CYQR 141523Z 31008KT 15SM -SN FEW009 BKN013 OVC050 M07/ RMK SF2SC5SC2

CYQR;2013-02-14 15:50;CYQR 141550Z 30008KT 15SM -SN BKN009 OVC021 M06/ RMK SC6SC2

CYQR;2013-02-14 16:00;CYQR 141600Z 32010KT 15SM -SN BKN009 OVC020 M06/M07 A3019 RMK SC6SC2 SLP259

CYQR;2013-02-14 16:26;CYQR 141626Z 34015KT 15SM -SN SCT008 BKN032 M05/ RMK SC3SC4

CYQR;2013-02-14 17:00;CYQR 141700Z 34015KT 15SM -SN FEW008 BKN028 M06/M08 A3021 RMK SF2SC6 SLP265

CYQR;2013-02-14 18:00;CYQR 141800Z 34016KT 15SM DRSN BKN028 BKN250 M08/M10 A3022 RMK SC5CI0 SLP271

CYQR;2013-02-14 19:00;CYQR 141900Z 34018KT 15SM DRSN BKN025 BKN100 BKN250 M09/M11 A3024 RMK SC5AC1CI0 SLP277

CYQR;2013-02-14 20:00;CYQR 142000Z 33011KT 15SM OVC017 M08/M10 A3025 RMK SC8 SLP280

CYQR;2013-02-14 20:33;CYQR 142033Z 35010KT 15SM -SN OVC017 M08/ RMK SC8

CYQR;2013-02-14 21:00;CYQR 142100Z 35010KT 15SM -SN OVC019 M08/M10 A3024 RMK SC8 SLP279

CYQR;2013-02-14 22:00;CYQR 142200Z 29007KT 15SM -SN OVC017 M07/M09 A3024 RMK SC8 SLP279

CYQR;2013-02-14 22:28;CYQR 142228Z 29007KT 15SM BKN019 OVC120 M07/ RMK SC6AC1

CYQR;2013-02-14 23:00;CYQR 142300Z 27003KT 15SM BKN020 OVC200 M08/M10 A3024 RMK SC6CI2 SLP279

CYQR;2013-02-15 00:00;CYQR 150000Z 30011KT 15SM FEW020 OVC035 M09/M11 A3024 RMK SC1SC6 SLP282

CYQR;2013-02-15 01:00;CYQR 150100Z 31014KT 15SM -SN OVC030 M08/M10 A3024 RMK SC8 SLP282

CYQR;2013-02-15 02:00;CYQR 150200Z 30011KT 15SM -SN OVC019 M08/M09 A3024 RMK SC8 SLP282

CYQR;2013-02-15 03:00;CYQR 150300Z 31009KT 15SM BKN019 M08/M10 A3024 RMK SC7 SLP280

CYQR;2013-02-15 04:00;CYQR 150400Z 29008KT 15SM FEW018 M12/M13 A3024 RMK SC1 SLP280

CYQR;2013-02-15 05:00;CYQR 150500Z 31010KT 15SM BKN056 M12/M13 A3025 RMK SC3 SLP283

CYQR;2013-02-15 06:00;CYQR 150600Z 34005KT 15SM FEW058 M13/M14 A3026 RMK SC1 SLP292

CYQR;2013-02-15 07:00;CYQR 150700Z 32005KT 15SM SKC M15/M16 A3027 RMK SLP296

CYQR;2013-02-15 08:00;CYQR 150800Z 32003KT 12SM MIFG SKC M16/M16 A3028 RMK FROIN SLP298

CYQR;2013-02-15 09:05;CYQR 150905Z 35002KT 1/2SM R13/2600FT/N FZFG SKC M17/ RMK FG3

CYQR;2013-02-15 09:21;CYQR 150921Z 33003KT 1/4SM R13/1800FT/N FZFG SKC M19/ RMK FG6 FROIN

CYQR;2013-02-15 10:00;CYQR 151000Z 00000KT 1/4SM R13/2000FT/N FZFG VV001 M20/M20 A3030 RMK FG8 FROIN SLP309

CYQR;2013-02-15 10:10;CYQR 151010Z 30002KT 1/8SM R13/1200V1800FT/N FZFG VV001 M19/ RMK FG8

CYQR;2013-02-15 11:00;CYQR 151100Z 27004KT 1/8SM R13/1200FT/N FZFG VV001 M19/M20 A3030 RMK FG8 FROIN SLP310

CYQR;2013-02-15 12:00;CYQR 151200Z 26002KT 1/8SM R13/1000FT/N FZFG VV001 M19/M19 A3031 RMK FG8 FROIN SLP314

CYQR;2013-02-15 13:00;CYQR 151300Z 00000KT 1/8SM R13/1200FT/N FZFG VV001 M18/M19 A3031 RMK FG8 SLP314

CYQR;2013-02-15 13:21;CYQR 151321Z 00000KT 1/4SM R13/1200FT/N FZFG VV001 M18/ RMK FG8

CYQR;2013-02-15 13:31;CYQR 151331Z 00000KT 1/2SM R13/2000FT/N FZFG SKC M18/ RMK FG6

CYQR;2013-02-15 13:48;CYQR 151348Z 00000KT 1/4SM R13/1600V2200FT/N FZFG VV001 M18/ RMK FG8

CYQR;2013-02-15 14:00;CYQR 151400Z 00000KT 1/4SM R13/1400FT/N FZFG VV001 M17/M18 A3031 RMK FG8 SLP314

CYQR;2013-02-15 14:37;CYQR 151437Z 13002KT 0SM R13/0800FT/N FZFG VV000 M17/ RMK FG8

CYQR;2013-02-15 15:00;CYQR 151500Z 00000KT 0SM R13/0800FT/N FZFG VV000 M17/M18 A3031 RMK FG8 SLP312

CYQR;2013-02-15 15:33;CYQR 151533Z 18004KT 3/8SM R13/1100FT/N FZFG VV001 M17/ RMK FG8

CYQR;2013-02-15 16:00;CYQR 151600Z 17003KT 1/4SM R13/1200FT/N FZFG VV001 M17/M18 A3030 RMK FG8 SLP309

CYQR;2013-02-15 16:44;CYQR 151644Z 15004KT 5/8SM R13/2000FT/N BR SKC M17/ RMK FG7

CYQR;2013-02-15 16:50;CYQR 151650Z 15004KT 3/4SM R13/3000V5500FT/N BR BKN003 M17/ RMK FG6ST2

CYQR;2013-02-15 17:00;CYQR 151700Z 14005KT 3/4SM R13/P6000FT/N BR OVC003 M17/M18 A3029 RMK FG5ST2 SLP305

CYQR;2013-02-15 17:08;CYQR 151708Z 14005KT 1SM R13/P6000FT/N BR OVC001 M17/ RMK FG2ST6

CYQR;2013-02-15 17:23;CYQR 151723Z 12005KT 3/4SM R13/3500VP6000FT/U BR OVC003 M16/ RMK FG4SF3

CYQR;2013-02-15 17:45;CYQR 151745Z 14004KT 2SM R13/3000V5000FT/N BR BKN003 M16/ RMK SF5

CYQR;2013-02-15 18:00;CYQR 151800Z 14004KT 2 1/2SM BR BKN003 BKN075 M15/M16 A3028 RMK SF3AC1 SLP304

CYQR;2013-02-15 18:26;CYQR 151826Z 15005KT 3SM BR SCT003 BKN250 M15/ RMK SF2CI1

CYQR;2013-02-15 19:00;CYQR 151900Z 15006KT 8SM FEW003 OVC250 M14/M15 A3025 RMK SF1CI2 SLP296

CYQR;2013-02-15 20:00;CYQR 152000Z 14009KT 15SM FEW004 OVC250 M14/M15 A3023 RMK SF1CI5 SLP289

CYQR;2013-02-15 21:00;CYQR 152100Z 13009KT 15SM FEW100 OVC250 M13/M14 A3018 RMK AC2CI3 PRESFR SLP273

CYQR;2013-02-15 22:00;CYQR 152200Z 14010KT 15SM BKN150 OVC250 M12/M13 A3014 RMK AC6CI2 PRESFR SLP261

CYQR;2013-02-15 23:00;CYQR 152300Z 14009KT 15SM BKN083 OVC250 M12/M12 A3012 RMK AC6CI2 SLP253

CYQR;2013-02-16 00:00;CYQR 160000Z 14010KT 15SM OVC064 M11/M12 A3008 RMK SC8 SLP236

CYQR;2013-02-16 01:00;CYQR 160100Z 14010KT 15SM OVC057 M10/M10 A3003 RMK SC8 SLP222

CYQR;2013-02-16 01:53;CYQR 160153Z 16007KT 12SM -SN BKN017 OVC037 M09/ RMK SC6SC2

CYQR;2013-02-16 02:00;CYQR 160200Z 15007KT 2SM -SN OVC017 M08/M09 A3001 RMK SC8 SLP215

CYQR;2013-02-16 02:20;CYQR 160220Z 16007KT 3SM -SN OVC015 M08/ RMK SC8

CYQR;2013-02-16 03:00;CYQR 160300Z 15009KT 15SM -SN OVC043 M07/M08 A2996 RMK SC8 SLP191

CYQR;2013-02-16 04:00;CYQR 160400Z 17010KT 15SM -SN OVC043 M06/M07 A2991 RMK SC8 SLP175

CYQR;2013-02-16 04:38;CYQR 160438Z 16009KT 15SM OVC043 M05/ RMK SC8

CYQR;2013-02-16 05:00;CYQR 160500Z 16007KT 15SM OVC043 M05/M06 A2989 RMK SC8 SLP169

CYQR;2013-02-16 06:00;CYQR 160600Z 16006KT 15SM BKN050 M05/M06 A2987 RMK SC6 SLP158

CYQR;2013-02-16 07:00;CYQR 160700Z 19007KT 15SM SKC M08/M09 A2985 RMK SLP152

CYQR;2013-02-16 08:00;CYQR 160800Z 27005KT 15SM FEW100 M08/M09 A2986 RMK AC1 SLP153

CYQR;2013-02-16 09:00;CYQR 160900Z 34003KT 15SM SKC M09/M10 A2986 RMK SLP157

CYQR;2013-02-16 10:00;CYQR 161000Z 27003KT 15SM BKN090 M09/M09 A2986 RMK AC5 SLP157

CYQR;2013-02-16 11:00;CYQR 161100Z 30003KT 15SM FEW096 M08/M09 A2986 RMK AC1 SLP156

CYQR;2013-02-16 12:00;CYQR 161200Z CCA 28006KT 12SM SKC M09/M10 A2986 RMK SLP153

CYQR;2013-02-16 12:29;CYQR 161229Z 27006KT 1 1/2SM BR SKC M10/ RMK FG2

CYQR;2013-02-16 12:34;CYQR 161234Z 28005KT 7SM SKC M10/

CYQR;2013-02-16 13:00;CYQR 161300Z 30003KT 12SM FEW035 M11/M12 A2984 RMK SC1 SLP148

CYQR;2013-02-16 13:21;CYQR 161321Z 25007KT 1/4SM R13/2400FT/N FZFG FEW035 M12/ RMK FG1SC1 COMBUSTION FG

CYQR;2013-02-16 13:31;CYQR 161331Z 27007KT 7SM R13/2800VP6000FT/U FEW035 M12/ RMK SC1

CYQR;2013-02-16 14:00;CYQR 161400Z 25006KT 12SM FEW025 SCT160 M13/M14 A2985 RMK SC1AC1 SLP150

CYQR;2013-02-16 15:00;CYQR 161500Z 00000KT 12SM FEW040 SCT160 BKN240 M10/M11 A2984 RMK SC1AC2CI0 SLP145

CYQR;2013-02-16 16:00;CYQR 161600Z 17003KT 15SM BKN240 M09/M09 A2984 RMK CI2 SLP146

CYQR;2013-02-16 17:00;CYQR 161700Z 19007KT 15SM FEW260 M10/M11 A2983 RMK CI2 SLP142

CYQR;2013-02-16 18:00;CYQR 161800Z 19005KT 15SM FEW240 M06/M07 A2983 RMK CI1 SLP138

CYQR;2013-02-16 19:00;CYQR 161900Z 21006KT 15SM SCT250 M05/M06 A2982 RMK CI0 SLP134

CYQR;2013-02-16 20:00;CYQR 162000Z 23003KT 13SM FEW250 M04/M05 A2979 RMK CI0 SLP126

CYQR;2013-02-16 21:00;CYQR 162100Z 15005KT 15SM FEW260 M01/M04 A2976 RMK CI0 SLP113

CYQR;2013-02-16 22:00;CYQR 162200Z 15006KT 15SM BKN140 BKN260 M00/M03 A2974 RMK AC3CI1 SLP107

CYQR;2013-02-16 23:00;CYQR 162300Z 12005KT 15SM BKN140 M02/M05 A2973 RMK AC7 SLP103

CYQR;2013-02-17 00:00;CYQR 170000Z 11005KT 15SM BKN120 M04/M06 A2972 RMK AC6 SLP100

CYQR;2013-02-17 01:00;CYQR 170100Z 13006KT 15SM SCT120 BKN270 M06/M07 A2969 RMK AC2CI2 SLP092

CYQR;2013-02-17 02:00;CYQR 170200Z 14005KT 15SM SCT140 OVC270 M06/M07 A2966 RMK AC3CI2 SLP081

CYQR;2013-02-17 03:00;CYQR 170300Z 16009KT 15SM BKN140 BKN270 M04/M06 A2964 RMK AC5CI0 SLP073

CYQR;2013-02-17 04:00;CYQR 170400Z 14006KT 15SM SCT140 BKN270 M06/M08 A2961 RMK AC3CI0 SLP064

CYQR;2013-02-17 05:00;CYQR 170500Z 13006KT 15SM BKN140 OVC270 M08/M09 A2957 RMK AC5CI0 SLP051

CYQR;2013-02-17 06:00;CYQR 170600Z 13005KT 15SM FEW140 BKN270 M08/M09 A2954 RMK AC2CI1 SLP041

CYQR;2013-02-17 07:00;CYQR 170700Z 14005KT 15SM SCT140 OVC270 M08/M09 A2953 RMK AC4CI2 SLP037

CYQR;2013-02-17 08:00;CYQR 170800Z 09005KT 15SM BKN140 M07/M08 A2951 RMK AC6 SLP029

CYQR;2013-02-17 09:00;CYQR 170900Z 12006KT 15SM FEW270 M07/M08 A2949 RMK CI1 SLP017

CYQR;2013-02-17 10:00;CYQR 171000Z 13006KT 15SM SCT080 M07/M08 A2946 RMK AC4 SLP007

CYQR;2013-02-17 11:00;CYQR 171100Z 15006KT 15SM SCT080 M06/M07 A2943 RMK AC2 SLP000

CYQR;2013-02-17 12:00;CYQR 171200Z 12005KT 15SM FEW084 M08/M09 A2944 RMK AC1 SLP003

CYQR;2013-02-17 13:00;CYQR 171300Z 04005KT 15SM BKN071 M06/M07 A2943 RMK AC6 SLP001

CYQR;2013-02-17 14:00;CYQR 171400Z 33007KT 15SM FEW035 BKN057 M05/M06 A2944 RMK SC1SC6 SLP004

CYQR;2013-02-17 14:47;CYQR 171447Z 36009KT 15SM -SN BKN059 BKN080 M05/ RMK SC6AC2

CYQR;2013-02-17 15:00;CYQR 171500Z 36012KT 15SM VCSH BKN062 BKN080 M05/M06 A2944 RMK SC6AC2 OCNL -SHSN SLP001

CYQR;2013-02-17 15:22;CYQR 171522Z 34005KT 15SM BKN070 BKN095 M05/ RMK AC5AC2

CYQR;2013-02-17 16:00;CYQR 171600Z 34009KT 15SM SCT045 BKN076 M05/M06 A2945 RMK SC3AC4 CVCTV CLD ASOCTD SLP005

CYQR;2013-02-17 16:36;CYQR 171636Z 33011KT 15SM BKN011 BKN064 OVC087 M04/ RMK SC6SC2AC1

CYQR;2013-02-17 17:00;CYQR 171700Z 32009KT 15SM BKN008 OVC064 M03/M05 A2948 RMK SC7SC1 SLP013

CYQR;2013-02-17 18:00;CYQR 171800Z 34012KT 15SM OVC006 M02/M04 A2948 RMK SC8 SLP016

CYQR;2013-02-17 18:13;CYQR 171813Z 34012KT 15SM -SHSN OVC006 M02/ RMK SC8 VIS LWR SW-NW CVCTV CLD EMBD

CYQR;2013-02-17 18:31;CYQR 171831Z 34014KT 2SM -SHSN OVC006 M02/ RMK SC8 CVCTV CLD EMBD

CYQR;2013-02-17 18:52;CYQR 171852Z 34012KT 3SM -SHSN BR OVC004 M02/ RMK SC8 CVCTV CLD EMBD

CYQR;2013-02-17 19:00;CYQR 171900Z 33012KT 5SM -SHSN BR OVC004 M02/M02 A2949 RMK SC8 PCPN VRY LGT SLP020

CYQR;2013-02-17 19:09;CYQR 171909Z 33011KT 5SM -FZDZ BR OVC004 M01/ RMK SC8

CYQR;2013-02-17 19:26;CYQR 171926Z 34014KT 5SM -SG BR OVC004 M01/ REFZDZ RMK SC8

CYQR;2013-02-17 20:00;CYQR 172000Z 35016KT 5SM -SN OVC005 M00/M01 A2950 REFZDZ RMK SC8 SLP023

CYQR;2013-02-17 20:11;CYQR 172011Z 34016KT 2SM -SN OVC006 M01/ RMK SC8

CYQR;2013-02-17 20:31;CYQR 172031Z 34017KT 1 1/2SM -SN OVC004 M01/ RMK SC8

CYQR;2013-02-17 21:00;CYQR 172100Z 34019KT 1SM R13/5500FT/D -SN OVC004 M01/M01 A2952 RMK SN1SC7 VIS VRB 3/4 - 1 1/4 SLP029

CYQR;2013-02-17 22:00;CYQR 172200Z 35024G31KT 1SM R13/3500FT/N -SN BLSN OVC007 M06/M07 A2956 RMK SN1SC7 VIS VRB 3/4 - 1 1/4 SLP042

CYQR;2013-02-17 22:48;CYQR 172248Z 36021G26KT 2 1/2SM -SN BLSN BKN008 OVC082 M06/ RMK SF6AC2

CYQR;2013-02-17 23:00;CYQR 172300Z 36022G29KT 10SM -SN DRSN VCBLSN BKN009 BKN034 OVC080 M07/M08 A2961 RMK SF3SC2AC2 SLP059

CYQR;2013-02-18 00:00;CYQR 180000Z 36021G27KT 1 1/2SM -SN BLSN SCT008 OVC020 M08/M09 A2966 RMK SF2SC6 SLP084

CYQR;2013-02-18 01:00;CYQR 180100Z 36022G28KT 1 1/2SM -SN BLSN SCT011 BKN018 BKN097 M08/M10 A2972 RMK SF1SC4AC2 SLP101

CYQR;2013-02-18 01:27;CYQR 180127Z 36022G28KT 3SM -SN BLSN SCT011 OVC097 M09/ RMK SC2AC6

CYQR;2013-02-18 02:00;CYQR 180200Z 36021G26KT 4SM -SN BLSN SCT012 BKN018 BKN044 OVC097 M09/M11 A2977 RMK SC3SC2SC2AC1 SLP119

CYQR;2013-02-18 02:22;CYQR 180222Z 36019G25KT 6SM BLSN SCT018 BKN044 OVC097 M10/ RMK SC3SC3AC2

CYQR;2013-02-18 03:00;CYQR 180300Z 36019G25KT 6SM BLSN FEW018 BKN037 OVC051 M10/M11 A2982 RMK SC2SC3SC3 SLP136

CYQR;2013-02-18 04:00;CYQR 180400Z 36017KT 12SM -SN DRSN BKN037 OVC053 M10/M12 A2984 REBLSN RMK SC6SC2 SLP143

CYQR;2013-02-18 05:00;CYQR 180500Z 35014KT 12SM -SN DRSN BKN042 OVC091 M10/M12 A2988 RMK SC6AC2 SLP156

CYQR;2013-02-18 06:00;CYQR 180600Z 36013KT 12SM -SN DRSN SCT030 BKN062 OVC091 M11/M12 A2991 RMK SC3SC3AC2 SLP166

CYQR;2013-02-18 07:00;CYQR 180700Z 36014KT 15SM -SN DRSN SCT044 OVC060 M11/M13 A2993 RMK SC3SC5 SLP172

CYQR;2013-02-18 08:00;CYQR 180800Z 36017KT 12SM -SN DRSN FEW013 OVC044 M11/M13 A2995 RMK SC1SC7 SLP180

CYQR;2013-02-18 09:00;CYQR 180900Z 36014G19KT 12SM -SN DRSN FEW013 OVC049 M12/M14 A2998 RMK SC1SC7 SLP190

CYQR;2013-02-18 10:00;CYQR 181000Z 36016KT 15SM -SN DRSN FEW013 OVC049 M13/M15 A3000 RMK SC1SC7 SLP198

CYQR;2013-02-18 11:00;CYQR 181100Z 35016KT 15SM -SN DRSN FEW013 OVC047 M14/M16 A3004 RMK SC1SC7 SLP208

CYQR;2013-02-18 12:00;CYQR 181200Z 36013G18KT 15SM -SN DRSN FEW013 OVC045 M15/M16 A3007 RMK SC1SC7 SLP227

CYQR;2013-02-18 12:33;CYQR 181233Z 35015KT 15SM -SN DRSN FEW009 OVC047 M15/ RMK SC2SC6

CYQR;2013-02-18 13:00;CYQR 181300Z 35018KT 15SM -SN DRSN FEW009 OVC049 M15/M17 A3010 RMK SF2SC6 SLP236

CYQR;2013-02-18 14:00;CYQR 181400Z 36014KT 15SM -SN DRSN FEW009 BKN053 BKN110 M16/M18 A3012 RMK SF1SC5AC0 SLP243

CYQR;2013-02-18 14:13;CYQR 181413Z 35013KT 15SM DRSN BKN053 BKN110 M16/ RMK SC4AC0

CYQR;2013-02-18 15:00;CYQR 181500Z 35013KT 15SM BKN016 BKN057 M17/M19 A3015 RMK SC5SC1 SLP260

CYQR;2013-02-18 16:00;CYQR 181600Z 35010KT 7SM BKN013 OVC260 M18/M20 A3016 RMK SC5CI2 SLP264

CYQR;2013-02-18 16:31;CYQR 181631Z 36011KT 5SM -SN BR OVC016 M17/ RMK SC8

CYQR;2013-02-18 17:00;CYQR 181700Z 36012KT 5SM -SN BR BKN018 OVC260 M17/M19 A3018 RMK SC6CI2 SLP270

CYQR;2013-02-18 18:00;CYQR 181800Z 01010KT 6SM -SN DRSN BR OVC020 OVC086 M16/M18 A3020 RMK SC7AC1 SLP276

CYQR;2013-02-18 19:00;CYQR 181900Z 03011KT 12SM -SN DRSN BKN020 OVC062 M16/M18 A3020 RMK SC7SC1 SLP278

CYQR;2013-02-18 19:40;CYQR 181940Z 03007KT 12SM FEW018 BKN062 M16/ RMK SC1SC2

CYQR;2013-02-18 20:00;CYQR 182000Z 05007KT 15SM BKN020 OVC250 M16/M19 A3021 RMK SC3CI1 SLP279

CYQR;2013-02-18 21:00;CYQR 182100Z 02006KT 12SM BKN012 M16/M19 A3023 RMK SC6 SLP287

CYQR;2013-02-18 21:24;CYQR 182124Z 04007KT 12SM FEW012 BKN021 M16/ RMK SC2SC3

CYQR;2013-02-18 22:00;CYQR 182200Z 06007KT 15SM BKN020 M16/M19 A3023 RMK SC6 SLP288

CYQR;2013-02-18 23:00;CYQR 182300Z 05007KT 15SM BKN019 M16/M20 A3024 RMK SC5 SLP292

CYQR;2013-02-19 00:00;CYQR 190000Z 05007KT 15SM FEW250 M17/M21 A3026 RMK CI1 SLP301

CYQR;2013-02-19 01:00;CYQR 190100Z 04004KT 15SM FEW250 M19/M22 A3027 RMK CI0 SLP305

CYQR;2013-02-19 02:00;CYQR 190200Z 05005KT 15SM SKC M20/M22 A3029 RMK SLP309

CYQR;2013-02-19 03:00;CYQR 190300Z 09007KT 15SM SKC M21/M22 A3029 RMK SLP317

CYQR;2013-02-19 04:00;CYQR 190400Z 09008KT 15SM SKC M21/M26 A3030 RMK SLP320

CYQR;2013-02-19 05:00;CYQR 190500Z 09008KT 15SM SKC M23/M27 A3030 RMK SLP320

CYQR;2013-02-19 06:00;CYQR 190600Z 10007KT 15SM SKC M23/M27 A3031 RMK SLP326

CYQR;2013-02-19 07:00;CYQR 190700Z 11011KT 15SM SKC M23/M27 A3031 RMK SLP324

CYQR;2013-02-19 08:00;CYQR 190800Z 11012KT 15SM SKC M23/M29 A3030 RMK SLP322

CYQR;2013-02-19 09:00;CYQR 190900Z 14009KT 15SM SKC M25/M31 A3032 RMK SLP328

CYQR;2013-02-19 10:00;CYQR 191000Z 12011KT 15SM SKC M26/M32 A3031 RMK SLP325

CYQR;2013-02-19 11:00;CYQR 191100Z 12016KT 15SM SKC M26/M33 A3029 RMK SLP320

CYQR;2013-02-19 12:00;CYQR 191200Z 12016KT 15SM SKC M26/M33 A3029 RMK SLP322

CYQR;2013-02-19 13:00;CYQR 191300Z 13014KT 15SM SKC M28/M34 A3031 RMK SLP328

CYQR;2013-02-19 14:00;CYQR 191400Z 12015KT 15SM SCT240 M27/M33 A3031 RMK CI0 CONTRAILS SLP328

CYQR;2013-02-19 15:00;CYQR 191500Z 13015KT 15SM DRSN BKN240 M26/M31 A3032 RMK CI1 CONTRAILS SLP333

CYQR;2013-02-19 16:00;CYQR 191600Z 14015KT 15SM DRSN BKN240 M25/M31 A3034 RMK CI1 CONTRAILS SLP339

CYQR;2013-02-19 17:00;CYQR 191700Z 14013G19KT 15SM DRSN SCT240 M25/M31 A3034 RMK CI1 SLP341

CYQR;2013-02-19 18:00;CYQR 191800Z 14018KT 15SM DRSN SCT240 M25/M31 A3034 RMK CI1 SLP343

CYQR;2013-02-19 19:00;CYQR 191900Z 14017G22KT 15SM DRSN BKN240 M24/M31 A3033 RMK CI2 SLP339

CYQR;2013-02-19 20:00;CYQR 192000Z 13019G25KT 15SM DRSN VCBLSN OVC240 M22/M30 A3029 RMK CI2 VIS LWR W PRESFR SLP326

CYQR;2013-02-19 21:00;CYQR 192100Z 14021G27KT 15SM DRSN VCBLSN OVC240 M21/M28 A3028 RMK CI2 VIS LWR SW-NW SLP318

CYQR;2013-02-19 22:00;CYQR 192200Z 14023G33KT 15SM DRSN VCBLSN SCT180 OVC240 M21/M28 A3025 RMK AC2CI3 VIS LWR S-NW SLP310

CYQR;2013-02-19 23:00;CYQR 192300Z 14026KT 15SM DRSN VCBLSN BKN140 OVC240 M21/M27 A3023 RMK AC5CI3 VIS LWR SW-NW SLP303

CYQR;2013-02-20 00:00;CYQR 200000Z 13024G32KT 15SM DRSN VCBLSN BKN140 OVC250 M21/M27 A3022 RMK AC6CI2 VIS SW-NW 4 SLP299

CYQR;2013-02-20 01:00;CYQR 200100Z 14027G33KT 6SM BLSN OVC140 M21/M27 A3019 RMK AC8 VIS S-SW-W 3 SLP290

CYQR;2013-02-20 02:00;CYQR 200200Z 15023G31KT 6SM BLSN OVC140 M21/M27 A3020 RMK AC8 SLP294

CYQR;2013-02-20 03:00;CYQR 200300Z 14027KT 6SM BLSN OVC140 M21/M27 A3019 RMK AC8 SLP290

CYQR;2013-02-20 04:00;CYQR 200400Z 14028KT 6SM BLSN OVC140 M22/M27 A3018 RMK AC8 SLP287

CYQR;2013-02-20 05:00;CYQR 200500Z 14028KT 6SM BLSN OVC140 M22/M27 A3019 RMK AC8 SLP288

CYQR;2013-02-20 06:00;CYQR 200600Z 14029G34KT 6SM BLSN OVC120 M22/M27 A3016 RMK AC8 SLP281

CYQR;2013-02-20 06:27;CYQR 200627Z 14032KT 2SM BLSN OVC120 M22/ RMK AC8

CYQR;2013-02-20 07:00;CYQR 200700Z 14029G35KT 2SM BLSN OVC120 M22/M28 A3015 RMK AC8 SLP276

CYQR;2013-02-20 08:00;CYQR 200800Z 14024G34KT 4SM BLSN OVC120 M22/M27 A3016 RMK AC8 SLP280

CYQR;2013-02-20 09:00;CYQR 200900Z 14025G30KT 8SM DRSN BKN049 OVC097 M21/M26 A3014 REBLSN RMK SC5AC3 SLP267

CYQR;2013-02-20 10:00;CYQR 201000Z 14028G33KT 8SM DRSN OVC042 M21/M26 A3011 RMK SC8 VCBLSN 3 SLP260

CYQR;2013-02-20 11:00;CYQR 201100Z 14024G29KT 8SM DRSN OVC044 M21/M25 A3011 RMK SC8 VCBLSN W SLP259

CYQR;2013-02-20 12:00;CYQR 201200Z 14023G29KT 6SM BLSN SCT046 SCT120 M21/M26 A3010 RMK SC3AC1 SLP253

CYQR;2013-02-20 13:00;CYQR 201300Z 14021G27KT 8SM DRSN VCBLSN SCT045 BKN120 M22/M26 A3009 REBLSN RMK SC2AC2 SLP251

CYQR;2013-02-20 14:00;CYQR 201400Z 14020G26KT 8SM DRSN VCBLSN FEW025 SCT250 M22/M26 A3008 RMK SC1CI1 SLP248

CYQR;2013-02-20 15:00;CYQR 201500Z 14019G25KT 8SM DRSN VCBLSN FEW025 FEW120 BKN250 M22/M26 A3008 RMK SC1AC1CI1 VIS S-W 4 SLP248

CYQR;2013-02-20 16:00;CYQR 201600Z 14020G25KT 8SM DRSN VCBLSN FEW120 OVC250 M21/M26 A3008 RMK AC1CI2 VIS S-W 4 SLP249

CYQR;2013-02-20 17:00;CYQR 201700Z 15018KT 8SM DRSN VCBLSN OVC250 M21/M25 A3008 RMK CI2 VIS S-W 4 SLP248

CYQR;2013-02-20 18:00;CYQR 201800Z 15021KT 5SM BLSN OVC250 M20/M23 A3007 RMK CI3 SLP243

CYQR;2013-02-20 19:00;CYQR 201900Z 15016G21KT 5SM BLSN FEW120 OVC250 M19/M23 A3006 RMK AC1CI2 SLP242

CYQR;2013-02-20 21:00;CYQR 202100Z 14015G20KT 10SM DRSN FEW120 OVC250 M18/M22 A3004 RMK AC1CI2 SLP231

CYQR;2013-02-20 22:00;CYQR 202200Z 15016KT 12SM DRSN FEW120 OVC250 M17/M21 A3003 RMK AC1CI6 SLP228

CYQR;2013-02-20 23:00;CYQR 202300Z 14014KT 15SM DRSN OVC250 M17/M21 A3003 RMK CI3 SLP228

CYQR;2013-02-21 00:00;CYQR 210000Z 14013G19KT 15SM DRSN OVC250 M17/M21 A3003 RMK CI2 SLP227

CYQR;2013-02-21 01:00;CYQR 210100Z 14012KT 15SM FEW250 M18/M21 A3003 RMK CI1 SLP228

CYQR;2013-02-21 02:00;CYQR 210200Z 14012KT 15SM FEW250 M18/M22 A3004 RMK CI0 SLP229

CYQR;2013-02-21 03:00;CYQR 210300Z 14011KT 15SM FEW250 M18/M22 A3004 RMK CI0 SLP232

CYQR;2013-02-21 04:00;CYQR 210400Z 14012KT 15SM SKC M18/M22 A3003 RMK SLP230

CYQR;2013-02-21 06:00;CYQR 210600Z 14011KT 15SM DRSN SKC M18/M22 A3004 RMK SLP231

CYQR;2013-02-21 07:00;CYQR 210700Z 14009KT 15SM BKN250 M18/M22 A3004 RMK CI3 SLP230

CYQR;2013-02-21 08:00;CYQR 210800Z 14010KT 15SM SCT250 M18/M22 A3004 RMK CI1 SLP230

CYQR;2013-02-21 09:00;CYQR 210900Z 14009KT 15SM FEW250 M18/M22 A3004 RMK CI0 SLP228

CYQR;2013-02-21 10:00;CYQR 211000Z 12007KT 15SM FEW250 M20/M23 A3004 RMK CI0 SLP228

CYQR;2013-02-21 11:00;CYQR 211100Z 12008KT 15SM FEW250 M20/M23 A3005 RMK CI0 SLP231

CYQR;2013-02-21 12:00;CYQR 211200Z 12007KT 15SM SKC M20/M23 A3005 RMK SLP235

CYQR;2013-02-21 13:00;CYQR 211300Z 12007KT 15SM FEW250 M21/M24 A3006 RMK CI1 SLP237

CYQR;2013-02-21 14:00;CYQR 211400Z 12008KT 15SM FEW250 M21/M24 A3006 RMK CI1 SLP237

CYQR;2013-02-21 15:00;CYQR 211500Z 13006KT 15SM FEW250 M21/M24 A3006 RMK CI1 SLP237

CYQR;2013-02-21 16:00;CYQR 211600Z 14007KT 15SM FEW250 M18/M21 A3006 RMK CI1 SLP239

CYQR;2013-02-21 17:00;CYQR 211700Z 15005KT 15SM SKC M17/M20 A3007 RMK SLP241

CYQR;2013-02-21 18:00;CYQR 211800Z 14008KT 15SM FEW300 M16/M19 A3007 RMK CI0 SLP239

CYQR;2013-02-21 19:00;CYQR 211900Z 16005KT 15SM FEW300 M14/M18 A3007 RMK CI0 SLP237

CYQR;2013-02-21 20:00;CYQR 212000Z 16006KT 15SM FEW300 M13/M17 A3005 RMK CI0 SLP231

CYQR;2013-02-21 21:00;CYQR 212100Z 14008KT 15SM SCT300 M12/M16 A3003 RMK CI0 SLP221

CYQR;2013-02-21 22:00;CYQR 212200Z 14012KT 15SM FEW160 FEW300 M12/M14 A3001 RMK AC1CI0 SLP215

CYQR;2013-02-21 23:00;CYQR 212300Z 14011KT 15SM BKN300 M11/M14 A3000 RMK CI1 SLP212

CYQR;2013-02-22 00:00;CYQR 220000Z 15014KT 15SM OVC300 M11/M12 A3000 RMK CI4 SLP211

CYQR;2013-02-22 01:00;CYQR 220100Z 14011KT 15SM SCT300 M12/M13 A3000 RMK CI1 SLP211

CYQR;2013-02-22 02:00;CYQR 220200Z 14012KT 15SM SCT300 M12/M13 A2999 RMK CI0 SLP207

CYQR;2013-02-22 03:00;CYQR 220300Z 14015KT 15SM SCT300 M12/M13 A2997 RMK CI2 SLP203

CYQR;2013-02-22 04:00;CYQR 220400Z 14014KT 15SM SCT084 BKN120 OVC300 M13/M14 A2996 RMK AC3AC2CI0 SLP200

CYQR;2013-02-22 05:00;CYQR 220500Z 14015KT 15SM SCT074 OVC300 M12/M13 A2996 RMK AC2CI2 SLP198

CYQR;2013-02-22 06:00;CYQR 220600Z 15013KT 15SM DRSN FEW015 SCT074 SCT300 M12/M13 A2995 RMK SC1AC1CI2 LOW CLD OVR CITY SLP190

CYQR;2013-02-22 07:00;CYQR 220700Z 14012KT 15SM DRSN FEW015 SCT072 OVC300 M11/M12 A2992 RMK SC1AC2CI1 LWR CLD OVR CITY SLP183

CYQR;2013-02-22 08:00;CYQR 220800Z 14012KT 15SM FEW015 SCT300 M11/M13 A2991 RMK SC1CI2 SLP180

CYQR;2013-02-22 09:00;CYQR 220900Z 14012KT 15SM SCT300 M12/M13 A2990 RMK CI0 SLP170

CYQR;2013-02-22 10:00;CYQR 221000Z 14011KT 15SM SCT250 M12/M13 A2989 RMK CI2 SLP167

CYQR;2013-02-22 11:00;CYQR 221100Z 14011KT 15SM SCT079 BKN250 M13/M14 A2986 RMK AC2CI2 SLP159

CYQR;2013-02-22 12:00;CYQR 221200Z 15012KT 15SM FEW079 SCT250 M12/M14 A2986 RMK AC1CI2 SLP156

CYQR;2013-02-22 12:41;CYQR 221241Z 15012KT 6SM BR SCT005 M12/ RMK SF3

CYQR;2013-02-22 12:45;CYQR 221245Z 15012KT 5SM BR BKN002 M13/ RMK SF5

CYQR;2013-02-22 13:00;CYQR 221300Z 15012KT 5SM BR BKN002 M13/M14 A2985 RMK SF5 SLP154

CYQR;2013-02-22 13:08;CYQR 221308Z 15011KT 8SM FEW002 M13/ RMK SF2

CYQR;2013-02-22 14:00;CYQR 221400Z 14014KT 7SM FEW020 M13/M14 A2984 RMK SC1 SLP150

CYQR;2013-02-22 15:00;CYQR 221500Z 14013KT 4SM DRSN BR FEW020 M13/M14 A2983 RMK SC1 VIS SW-NW 1 SLP148

CYQR;2013-02-22 16:00;CYQR 221600Z 15010KT 4SM BR FEW080 FEW250 M12/M13 A2983 RMK AC1CI0 SLP148

CYQR;2013-02-22 17:00;CYQR 221700Z 14013KT 6SM DRSN BR FEW080 M11/M12 A2981 RMK AC2 SLP142

CYQR;2013-02-22 18:00;CYQR 221800Z 14012KT 12SM DRSN BKN078 BKN250 M10/M11 A2980 RMK AC5CI0 SLP136

CYQR;2013-02-22 19:00;CYQR 221900Z 14015KT 15SM DRSN FEW070 FEW250 M08/M10 A2978 RMK AC1CI0 SLP128

CYQR;2013-02-22 20:00;CYQR 222000Z 15014KT 15SM DRSN FEW250 M08/M09 A2975 RMK CI1 SLP119

CYQR;2013-02-22 21:00;CYQR 222100Z 15013KT 15SM SKC M06/M08 A2972 RMK SLP105

CYQR;2013-02-22 22:00;CYQR 222200Z 15013KT 15SM SKC M06/M08 A2971 RMK SLP101

CYQR;2013-02-22 23:00;CYQR 222300Z 15012KT 15SM SKC M06/M08 A2971 RMK SLP100

CYQR;2013-02-23 00:00;CYQR 230000Z 15013KT 15SM FEW250 M07/M08 A2970 RMK CI1 SLP098

CYQR;2013-02-23 01:00;CYQR 230100Z 15012KT 15SM FEW250 M08/M09 A2969 RMK CI0 CONTRAILS SLP095

CYQR;2013-02-23 02:00;CYQR 230200Z 14013KT 15SM FEW250 M09/M10 A2967 RMK CI1 SLP090

CYQR;2013-02-23 03:00;CYQR 230300Z 14015KT 15SM SCT260 M10/M11 A2966 RMK CI2 SLP088

CYQR;2013-02-23 04:00;CYQR 230400Z 14016KT 15SM FEW220 M11/M12 A2965 RMK CI1 SLP083

CYQR;2013-02-23 05:00;CYQR 230500Z 14017KT 15SM SCT220 M12/M13 A2963 RMK CI1 OBS TAKEN -08 SLP077

CYQR;2013-02-23 06:00;CYQR 230600Z 14017KT 15SM FEW220 M12/M13 A2961 RMK CI0 SLP070

CYQR;2013-02-23 07:00;CYQR 230700Z 13016KT 12SM DRSN SKC M12/M13 A2959 RMK IC SLP064

CYQR;2013-02-23 08:00;CYQR 230800Z 13017KT 15SM DRSN SCT065 M12/M13 A2957 RMK SC2 SLP056

CYQR;2013-02-23 09:00;CYQR 230900Z 14018KT 15SM DRSN OVC090 M12/M13 A2956 RMK AC5 SLP048

CYQR;2013-02-23 10:00;CYQR 231000Z 14017KT 15SM BKN088 OVC220 M11/M13 A2954 RMK AC5CI1 SLP042

CYQR;2013-02-23 11:00;CYQR 231100Z 14018KT 15SM BKN081 OVC220 M11/M13 A2952 RMK AC6CI0 SLP038

CYQR;2013-02-23 12:00;CYQR 231200Z 14016KT 15SM SCT084 BKN240 M11/M13 A2952 RMK AC2CI2 SLP035

CYQR;2013-02-23 13:00;CYQR 231300Z 14019KT 15SM SCT089 BKN240 M11/M13 A2951 RMK AC2CI3 SLP031

CYQR;2013-02-23 14:00;CYQR 231400Z 13017KT 15SM BKN076 BKN240 M11/M12 A2950 RMK AC6CI0 SLP029

CYQR;2013-02-23 15:00;CYQR 231500Z 14014KT 15SM BKN076 BKN240 M10/M11 A2952 RMK AC6CI1 SLP037

CYQR;2013-02-23 16:00;CYQR 231600Z 14014KT 15SM BKN070 BKN240 M08/M10 A2953 RMK AC6CI0 SLP039

CYQR;2013-02-23 17:00;CYQR 231700Z 14014KT 15SM FEW070 BKN240 M07/M10 A2952 RMK AC2CI4 SLP038

CYQR;2013-02-23 18:00;CYQR 231800Z 14013KT 15SM SCT070 BKN240 M06/M09 A2953 RMK AC2CI2 SLP040

CYQR;2013-02-23 19:00;CYQR 231900Z 15011KT 15SM SCT070 BKN240 M05/M08 A2955 RMK AC3CI4 SLP046

CYQR;2013-02-23 20:00;CYQR 232000Z 15009KT 15SM FEW070 BKN240 M04/M06 A2955 RMK AC1CI4 SLP044

CYQR;2013-02-23 21:00;CYQR 232100Z 16007KT 15SM OVC240 M03/M05 A2956 RMK CI5 SLP047

CYQR;2013-02-23 22:00;CYQR 232200Z 16004KT 15SM BKN250 M02/M05 A2958 RMK CI2 SLP053

CYQR;2013-02-23 23:00;CYQR 232300Z 18005KT 15SM FEW130 BKN250 M04/M06 A2960 RMK AC1CI2 SLP059

CYQR;2013-02-24 00:00;CYQR 240000Z 21004KT 15SM FEW130 BKN250 M04/M06 A2961 RMK AC1CI2 SLP064

CYQR;2013-02-24 01:00;CYQR 240100Z 17002KT 15SM FEW130 FEW250 M06/M07 A2964 RMK AC1CI0 SLP074

CYQR;2013-02-24 02:00;CYQR 240200Z 00000KT 15SM SCT130 SCT250 M08/M09 A2967 RMK AC2CI0 SLP084

CYQR;2013-02-24 03:00;CYQR 240300Z 28005KT 15SM BKN110 M09/M10 A2970 RMK AC4 SLP099

CYQR;2013-02-24 04:00;CYQR 240400Z 31012KT 15SM BKN100 BKN250 M08/M10 A2973 RMK AC3CI0 SLP109

CYQR;2013-02-24 05:00;CYQR 240500Z 31014KT 15SM BKN100 M08/M10 A2975 RMK AC5 OBS TAKEN -10 SLP113

CYQR;2013-02-24 06:00;CYQR 240600Z 30013KT 15SM FEW100 BKN250 M10/M11 A2978 RMK AC1CI0 OBS TAKEN +10 SLP125

CYQR;2013-02-24 07:00;CYQR 240700Z 31014KT 15SM FEW250 M10/M11 A2980 RMK CI0 SLP131

CYQR;2013-02-24 08:00;CYQR 240800Z 31013KT 15SM FEW080 FEW240 M11/M12 A2982 RMK AC1CI0 SLP136

CYQR;2013-02-24 09:00;CYQR 240900Z 30013KT 15SM FEW085 SCT240 M12/M13 A2986 RMK AC1CI0 SLP148

CYQR;2013-02-24 10:00;CYQR 241000Z 30010KT 15SM SCT240 M13/M14 A2986 RMK CI1 SLP151

CYQR;2013-02-24 11:00;CYQR 241100Z 30013KT 15SM FEW100 FEW240 M13/M14 A2989 RMK AC1CI0 SLP159

CYQR;2013-02-24 12:00;CYQR 241200Z 32008KT 15SM SCT250 M13/M14 A2991 RMK CI0 SLP171

CYQR;2013-02-24 13:00;CYQR 241300Z 30010KT 15SM SCT250 M13/M14 A2994 RMK CI1 SLP178

CYQR;2013-02-24 14:00;CYQR 241400Z 28007KT 15SM FEW140 SCT250 M16/M17 A2996 RMK AC1CI0 SLP184

CYQR;2013-02-24 15:00;CYQR 241500Z 29006KT 15SM FEW120 FEW250 M15/M16 A2996 RMK AC1CI1 SLP193

CYQR;2013-02-24 16:00;CYQR 241600Z 29010KT 15SM FEW120 FEW250 M12/M13 A2997 RMK AC1CI1 SLP196

CYQR;2013-02-24 17:00;CYQR 241700Z 29005KT 15SM FEW250 M10/M12 A2999 RMK CI1 SLP200

CYQR;2013-02-24 18:00;CYQR 241800Z 28005KT 15SM FEW250 M08/M10 A2999 RMK CI1 SLP197

CYQR;2013-02-24 19:00;CYQR 241900Z 29012KT 15SM FEW250 M05/M08 A2997 RMK CI0 SLP192

CYQR;2013-02-24 20:00;CYQR 242000Z 28012KT 15SM FEW250 M04/M07 A2997 RMK CI0 SLP190

CYQR;2013-02-24 21:00;CYQR 242100Z 32004KT 15SM FEW250 M04/M07 A2996 RMK CI0 SLP184

CYQR;2013-02-24 22:00;CYQR 242200Z 26004KT 15SM FEW120 FEW250 M03/M06 A2996 RMK AC0CC1 SLP184

CYQR;2013-02-24 23:00;CYQR 242300Z 24004KT 15SM FEW250 M05/M07 A2995 RMK CI0 SLP182

CYQR;2013-02-25 00:00;CYQR 250000Z 17004KT 15SM FEW120 FEW250 M06/M09 A2995 RMK AC1CI1 SLP185

CYQR;2013-02-25 01:00;CYQR 250100Z 15007KT 15SM FEW120 FEW250 M08/M10 A2994 RMK AC1CI1 SLP181

CYQR;2013-02-25 02:00;CYQR 250200Z 14006KT 15SM SKC M09/M11 A2994 RMK SLP181

CYQR;2013-02-25 03:00;CYQR 250300Z 16010KT 15SM SKC M08/M10 A2993 RMK SLP180

CYQR;2013-02-25 04:00;CYQR 250400Z 15009KT 15SM FEW200 M09/M11 A2991 RMK CI0 SLP173

CYQR;2013-02-25 05:00;CYQR 250500Z 13008KT 15SM SKC M10/M12 A2989 RMK OBS TAKEN -10 SLP168

CYQR;2013-02-25 06:00;CYQR 250600Z 12011KT 15SM SKC M12/M13 A2986 RMK SLP155

CYQR;2013-02-25 07:00;CYQR 250700Z 14009KT 15SM SKC M11/M12 A2983 RMK SLP146

CYQR;2013-02-25 08:00;CYQR 250800Z 14010KT 15SM SKC M11/M12 A2981 RMK SLP139

CYQR;2013-02-25 09:00;CYQR 250900Z 14007KT 15SM BKN240 M12/M14 A2981 RMK CI0 SLP135

CYQR;2013-02-25 10:00;CYQR 251000Z 13008KT 15SM BKN240 M12/M14 A2980 RMK CI0 SLP130

CYQR;2013-02-25 11:00;CYQR 251100Z 11006KT 15SM FEW160 BKN240 M13/M15 A2980 RMK AC1CI0 SLP129

CYQR;2013-02-25 12:00;CYQR 251200Z 13006KT 15SM FEW160 SCT240 M14/M16 A2979 RMK AC1CI0 SLP129

CYQR;2013-02-25 13:00;CYQR 251300Z 14006KT 15SM FEW160 BKN250 M15/M16 A2978 RMK AC2CI1 SLP127

CYQR;2013-02-25 14:00;CYQR 251400Z 14006KT 15SM FEW160 BKN220 M14/M16 A2978 RMK AC2CI3 SLP128

CYQR;2013-02-25 15:00;CYQR 251500Z 14004KT 15SM SCT160 OVC220 M13/M14 A2978 RMK AC2CI4 SLP129

CYQR;2013-02-25 16:00;CYQR 251600Z 12005KT 15SM FEW160 OVC220 M10/M12 A2977 RMK AC2CI3 SLP125

CYQR;2013-02-25 17:00;CYQR 251700Z 13003KT 15SM FEW140 BKN220 M06/M10 A2976 RMK AC1CI2 SLP120

CYQR;2013-02-25 18:00;CYQR 251800Z 19006KT 15SM SCT250 M06/M08 A2976 RMK CI1 SLP116

CYQR;2013-02-25 19:00;CYQR 251900Z 13006KT 15SM FEW250 M05/M08 A2974 RMK CI0 SLP112

CYQR;2013-02-25 20:00;CYQR 252000Z 15006KT 15SM SCT250 M03/M07 A2973 RMK CI1 SLP108

CYQR;2013-02-25 21:00;CYQR 252100Z 16007KT 15SM SCT250 M04/M07 A2972 RMK CI1 SLP104

CYQR;2013-02-25 22:00;CYQR 252200Z 13004KT 15SM FEW080 SCT250 M03/M05 A2972 RMK AC1CI0 SLP103

CYQR;2013-02-25 23:00;CYQR 252300Z 14007KT 15SM FEW080 BKN250 M04/M06 A2973 RMK AC1CI1 SLP106

CYQR;2013-02-26 00:00;CYQR 260000Z 12006KT 15SM FEW080 BKN250 M05/M07 A2974 RMK AC2CI2 SLP112

CYQR;2013-02-26 01:00;CYQR 260100Z 12007KT 15SM FEW080 BKN250 M07/M08 A2973 RMK AC1CI5 SLP110

CYQR;2013-02-26 02:00;CYQR 260200Z 13007KT 15SM FEW080 BKN250 M07/M08 A2974 RMK AC2CI1 SLP111

CYQR;2013-02-26 03:00;CYQR 260300Z 12007KT 15SM FEW110 OVC250 M07/M09 A2973 RMK AC2CI5 SLP111

CYQR;2013-02-26 04:00;CYQR 260400Z 12007KT 15SM FEW110 OVC250 M08/M09 A2974 RMK AC1CI4 SLP112

CYQR;2013-02-26 05:00;CYQR 260500Z 10007KT 15SM OVC250 M09/M10 A2974 RMK CI3 SLP114

CYQR;2013-02-26 06:00;CYQR 260600Z 11006KT 15SM BKN084 OVC250 M07/M08 A2976 RMK AC6CI2 SLP114

CYQR;2013-02-26 07:00;CYQR 260700Z 12006KT 15SM BKN064 OVC260 M07/M08 A2976 RMK SC4CI3 SLP115

CYQR;2013-02-26 08:00;CYQR 260800Z 10006KT 15SM SCT080 OVC260 M08/M09 A2976 RMK AC3CI2 SLP114

CYQR;2013-02-26 09:00;CYQR 260900Z 10009KT 15SM BKN060 OVC077 M06/M08 A2976 RMK SC6AC2 SLP112

CYQR;2013-02-26 10:00;CYQR 261000Z 11004KT 15SM BKN073 M06/M08 A2977 RMK AC5 SLP115

CYQR;2013-02-26 11:00;CYQR 261100Z 09009KT 15SM FEW075 SCT250 M08/M09 A2978 RMK AC2CI0 SLP119

CYQR;2013-02-26 12:00;CYQR 261200Z 10008KT 15SM BKN270 M07/M09 A2981 RMK CI2 SLP132

CYQR;2013-02-26 13:00;CYQR 261300Z 09009KT 15SM FEW130 BKN270 M07/M09 A2984 RMK AC1CI2 SLP140

CYQR;2013-02-26 14:00;CYQR 261400Z 10011KT 15SM FEW085 BKN250 M07/M09 A2986 RMK AC2CI1 SLP146

CYQR;2013-02-26 15:00;CYQR 261500Z 08010KT 15SM BKN085 BKN250 M06/M08 A2988 RMK AC5CI2 SLP157

CYQR;2013-02-26 16:00;CYQR 261600Z 09012KT 15SM SCT064 OVC085 M05/M08 A2992 RMK SC3AC5 SLP169

CYQR;2013-02-26 17:00;CYQR 261700Z 08012KT 15SM SCT055 OVC085 M04/M07 A2994 RMK SC3AC5 SLP175

CYQR;2013-02-26 18:00;CYQR 261800Z 07013G18KT 15SM FEW072 BKN091 BKN250 M03/M07 A2995 RMK AC1AC6CI1 SLP179

CYQR;2013-02-26 19:00;CYQR 261900Z 07015G21KT 15SM BKN090 BKN250 M02/M06 A2997 RMK AC5CI2 SLP185

CYQR;2013-02-26 20:00;CYQR 262000Z 07016KT 15SM FEW015 SCT090 BKN250 M02/M05 A2998 RMK SC1AC2CI2 SLP187

CYQR;2013-02-26 21:00;CYQR 262100Z 07016G21KT 15SM FEW019 SCT068 BKN090 BKN250 M01/M05 A2999 RMK SC1AC2AC2CI1 SLP191

CYQR;2013-02-26 22:00;CYQR 262200Z 07012G20KT 15SM BKN019 OVC068 M01/M05 A3003 RMK SC6AC2 SLP202

CYQR;2013-02-26 23:00;CYQR 262300Z 05011KT 15SM -SN OVC015 OVC040 M02/M05 A3006 RMK SC6SC2 SLP213

CYQR;2013-02-27 00:00;CYQR 270000Z 04011KT 15SM -SN BKN017 OVC040 M02/M05 A3010 RMK SC7SC1 SLP228

CYQR;2013-02-27 01:00;CYQR 270100Z 03011KT 15SM -SN BKN017 OVC040 M03/M05 A3011 RMK SC5SC3 SLP233

CYQR;2013-02-27 02:00;CYQR 270200Z 03008KT 12SM -SN BKN018 OVC039 M03/M05 A3013 RMK SC6SC2 SLP239

CYQR;2013-02-27 02:53;CYQR 270253Z 02009KT 12SM -SN BKN011 OVC035 M03/ RMK SC6SC2

CYQR;2013-02-27 03:00;CYQR 270300Z 02009KT 12SM -SN BKN011 OVC035 M03/M05 A3015 RMK SC7SC1 SLP244

CYQR;2013-02-27 04:00;CYQR 270400Z 03009KT 6SM -SN BKN014 OVC028 M03/M05 A3016 RMK SC7SC1 SLP249

CYQR;2013-02-27 05:00;CYQR 270500Z 03011KT 6SM -SN OVC034 M04/M06 A3017 RMK SC8 SLP253

CYQR;2013-02-27 06:00;CYQR 270600Z 04009KT 10SM -SN OVC040 M04/M06 A3019 RMK SC8 SLP257

CYQR;2013-02-27 07:00;CYQR 270700Z 06005KT 15SM -SN BKN038 M04/M07 A3020 RMK SC6 SLP260

CYQR;2013-02-27 08:00;CYQR 270800Z 06008KT 15SM -SN BKN038 OVC050 M04/M07 A3021 RMK SC7SC1 SLP264

CYQR;2013-02-27 09:00;CYQR 270900Z 04005KT 15SM -SN OVC036 M05/M07 A3023 RMK SC7 SLP270

CYQR;2013-02-27 10:00;CYQR 271000Z 35005KT 15SM -SN BKN062 M07/M09 A3024 RMK SC7 SLP273

CYQR;2013-02-27 11:00;CYQR 271100Z 36004KT 15SM -SN SCT040 M11/M11 A3024 RMK SC3 SLP275

CYQR;2013-02-27 12:00;CYQR 271200Z 01004KT 15SM FEW054 M13/M14 A3025 RMK SC1 SLP285

CYQR;2013-02-27 13:00;CYQR 271300Z 36005KT 15SM BCFG FEW055 M13/M14 A3027 RMK SC1 FG PTCHS S-SW SLP291

CYQR;2013-02-27 14:00;CYQR 271400Z 35004KT 12SM VCFG BKN015 BKN090 BKN230 M13/M14 A3028 RMK SC4AC2CI1 SLP294

CYQR;2013-02-27 14:22;CYQR 271422Z 35004KT 12SM BKN013 M12/ RMK SC6

CYQR;2013-02-27 15:00;CYQR 271500Z 01003KT 12SM BKN013 M12/M13 A3029 RMK SC5 SLP297

CYQR;2013-02-27 15:16;CYQR 271516Z 36003KT 15SM BKN013 M12/ RMK SC4

CYQR;2013-02-27 16:00;CYQR 271600Z 35002KT 15SM FEW013 FEW230 M13/M14 A3030 RMK SC1CI1 SLP301

CYQR;2013-02-27 17:00;CYQR 271700Z 23002KT 15SM SCT010 BKN230 M11/M12 A3030 RMK SC2CI5 SLP302

CYQR;2013-02-27 17:49;CYQR 271749Z 13006KT 15SM OVC012 M07/ RMK SC8

CYQR;2013-02-27 18:00;CYQR 271800Z 11006KT 15SM OVC012 M07/M08 A3030 RMK SC8 UA/TOPS 042 SLP300

CYQR;2013-02-27 19:00;CYQR 271900Z 12008KT 15SM OVC012 M06/M08 A3031 RMK SC8 UA/TOPS 039ASL SLP302

CYQR;2013-02-27 20:00;CYQR 272000Z 12006KT 15SM BKN014 OVC050 M05/M08 A3030 RMK SC7SC1 SLP300

CYQR;2013-02-27 21:00;CYQR 272100Z 11007KT 15SM BKN012 OVC061 M05/M08 A3029 RMK SC7SC1 SLP294

CYQR;2013-02-27 22:00;CYQR 272200Z 13006KT 15SM BKN014 OVC060 M05/M08 A3029 RMK SC7SC1 SLP295

CYQR;2013-02-27 22:08;CYQR 272208Z 14005KT 10SM -SN BKN014 OVC060 M05/ RMK SC7SC1

CYQR;2013-02-27 22:27;CYQR 272227Z 13005KT 15SM BKN012 OVC060 M05/ RMK SC7SC1

CYQR;2013-02-27 23:00;CYQR 272300Z 14007KT 15SM BKN012 OVC060 M05/M08 A3029 RMK SC7SC1 SLP295

CYQR;2013-02-28 00:00;CYQR 280000Z 12007KT 15SM BKN012 OVC060 M06/M08 A3029 RMK SC7SC1 SLP302

CYQR;2013-02-28 01:00;CYQR 280100Z 12008KT 15SM OVC014 M06/M08 A3029 RMK SC8 SLP301

CYQR;2013-02-28 02:00;CYQR 280200Z 13007KT 15SM OVC012 M06/M08 A3029 RMK SC8 SLP301

CYQR;2013-02-28 03:00;CYQR 280300Z 14009KT 15SM OVC012 M07/M09 A3028 RMK SC8 SLP298

CYQR;2013-02-28 03:33;CYQR 280333Z 14008KT 15SM OVC009 M07/ RMK SC8

CYQR;2013-02-28 04:00;CYQR 280400Z 15008KT 15SM OVC008 M07/M09 A3028 RMK SC8 SLP299

CYQR;2013-02-28 04:36;CYQR 280436Z 16009KT 15SM -SN OVC006 M07/ RMK SC8

CYQR;2013-02-28 04:52;CYQR 280452Z 14011KT 15SM -SN OVC005 M08/ RMK SC8

CYQR;2013-02-28 05:00;CYQR 280500Z 16008KT 15SM -SN OVC005 M08/M09 A3028 RMK SC8 SLP297

CYQR;2013-02-28 05:15;CYQR 280515Z 14009KT 15SM -SN OVC004 M08/ RMK SC8

CYQR;2013-02-28 06:00;CYQR 280600Z 14010G15KT 15SM -SN OVC004 M08/M09 A3026 RMK SC8 SLP287

CYQR;2013-02-28 06:43;CYQR 280643Z 14013KT 15SM -SN OVC005 M08/ RMK SC8

CYQR;2013-02-28 07:00;CYQR 280700Z 15008KT 15SM -SN OVC005 M08/M09 A3026 RMK SC8 SLP287

CYQR;2013-02-28 07:41;CYQR 280741Z 16010KT 15SM -SN OVC006 M07/ RMK SC8

CYQR;2013-02-28 08:00;CYQR 280800Z 15010KT 15SM -SN OVC006 M07/M09 A3025 RMK SC8 SLP283

CYQR;2013-02-28 09:00;CYQR 280900Z 13009KT 15SM -SN OVC006 M08/M09 A3025 RMK SC8 SLP282

CYQR;2013-02-28 10:00;CYQR 281000Z 13011KT 15SM -SN OVC006 M08/M09 A3022 RMK SC8 SLP273

CYQR;2013-02-28 11:00;CYQR 281100Z 14013KT 15SM -SN OVC008 M07/M08 A3021 RMK SC8 SLP271

CYQR;2013-02-28 12:00;CYQR 281200Z 15014KT 15SM -SN OVC009 M07/M09 A3021 RMK SC8 SLP269

CYQR;2013-02-28 13:00;CYQR 281300Z 14017KT 15SM OVC009 M07/M10 A3020 RMK SC8 SLP266

CYQR;2013-02-28 13:25;CYQR 281325Z 14015KT 15SM OVC010 M08/ RMK SC8

CYQR;2013-02-28 14:00;CYQR 281400Z 14012G18KT 15SM OVC010 M08/M10 A3019 RMK SC8 SLP263

CYQR;2013-02-28 14:11;CYQR 281411Z 14017KT 15SM DRSN OVC009 M09/ RMK SC8

CYQR;2013-02-28 14:30;CYQR 281430Z 13016KT 15SM -SN DRSN OVC008 M09/ RMK SC8

CYQR;2013-02-28 15:00;CYQR 281500Z 14016KT 15SM -SN BKN009 OVC013 M09/M11 A3019 RMK SC5SC3 SLP265

CYQR;2013-02-28 15:35;CYQR 281535Z 14013KT 15SM DRSN SCT010 BKN015 OVC043 M09/ RMK SC3SC4SC1

CYQR;2013-02-28 16:00;CYQR 281600Z 14013KT 15SM DRSN FEW015 BKN043 OVC092 M09/M11 A3019 RMK SC2SC6AC1 SLP265

CYQR;2013-02-28 16:41;CYQR 281641Z 14016KT 15SM DRSN FEW006 BKN039 OVC092 M08/ RMK SF2SC4AC1

CYQR;2013-02-28 17:00;CYQR 281700Z 14018KT 9SM DRSN FEW006 BKN039 BKN096 M08/M10 A3018 RMK SF2SC3AC2 SLP261

CYQR;2013-02-28 17:13;CYQR 281713Z 14015KT 4SM DRSN BR BKN006 BKN041 OVC096 M08/ RMK SF5SC2AC1 VIS E 2

CYQR;2013-02-28 18:00;CYQR 281800Z 14016KT 8SM DRSN BKN006 OVC070 M07/M09 A3018 RMK SF6AC2 VIS E 4 SLP259

CYQR;2013-02-28 19:00;CYQR 281900Z 15013KT 12SM OVC007 M06/M08 A3018 RMK SF8 SLP260

CYQR;2013-02-28 20:00;CYQR 282000Z 16015KT 12SM BKN008 OVC014 M05/M07 A3017 RMK SF6SC2 SLP258

CYQR;2013-02-28 20:26;CYQR 282026Z 15013G18KT 12SM -SN BKN008 OVC012 M05/ RMK SF5SC3

CYQR;2013-02-28 21:00;CYQR 282100Z 15012G17KT 10SM -SN OVC007 M05/M07 A3016 RMK SF8 SLP254

CYQR;2013-02-28 21:37;CYQR 282137Z 15013KT 12SM BKN007 OVC011 M05/ RMK SF7SC1

CYQR;2013-02-28 22:00;CYQR 282200Z 15013KT 15SM OVC007 M05/M07 A3017 RMK SF8 SLP256

CYQR;2013-02-28 23:00;CYQR 282300Z 15013KT 15SM OVC007 M05/M07 A3018 RMK SC8 SLP259

CYQR;2013-03-01 00:00;CYQR 010000Z 14012KT 15SM OVC007 M06/M07 A3020 RMK SC8 SLP264

CYQR;2013-03-01 00:37;CYQR 010037Z 14011KT 15SM OVC010 M06/ RMK SC8

CYQR;2013-03-01 01:00;CYQR 010100Z 14012KT 15SM OVC008 M06/M07 A3020 RMK SC8 SLP265

CYQR;2013-03-01 02:00;CYQR 010200Z 15010KT 15SM OVC010 M06/M07 A3021 RMK SC8 SLP269

CYQR;2013-03-01 03:00;CYQR 010300Z 15008KT 15SM OVC010 M05/M07 A3021 RMK SC8 SLP272

CYQR;2013-03-01 04:00;CYQR 010400Z 16006KT 15SM OVC010 M05/M07 A3023 RMK SC8 SLP277

CYQR;2013-03-01 05:00;CYQR 010500Z 15007KT 15SM OVC010 M05/M07 A3023 RMK SC8 SLP277

CYQR;2013-03-01 06:00;CYQR 010600Z 14006KT 15SM OVC007 M05/M07 A3022 RMK SC8 SLP273

CYQR;2013-03-01 07:00;CYQR 010700Z 16007KT 15SM OVC006 M05/M06 A3022 RMK SC8 SLP271

CYQR;2013-03-01 08:00;CYQR 010800Z 16007KT 15SM OVC005 M05/M06 A3022 RMK SC8 SLP271

CYQR;2013-03-01 09:00;CYQR 010900Z 15006KT 12SM OVC005 M05/M06 A3022 RMK SC8 SLP270

CYQR;2013-03-01 10:00;CYQR 011000Z 17005KT 12SM OVC008 M05/M06 A3022 RMK SC8 SLP271

CYQR;2013-03-01 11:00;CYQR 011100Z 16007KT 15SM OVC007 M05/M07 A3023 RMK SC8 SLP274

CYQR;2013-03-01 12:00;CYQR 011200Z 16007KT 15SM OVC006 M06/M07 A3023 RMK SC8 SLP276

CYQR;2013-03-01 13:00;CYQR 011300Z 16009KT 15SM OVC007 M06/M07 A3023 RMK SC8 SLP274

CYQR;2013-03-01 13:41;CYQR 011341Z 18010KT 4SM BR OVC004 M07/ RMK ST8

CYQR;2013-03-01 13:49;CYQR 011349Z 18013KT 2 1/2SM BR OVC003 M07/ RMK ST8

CYQR;2013-03-01 14:04;CYQR 011404Z 17009KT 2SM BR OVC002 M07/ RMK ST8

CYQR;2013-03-01 14:38;CYQR 011438Z 16009KT 2 1/2SM BR OVC003 M07/ RMK ST8

CYQR;2013-03-01 15:00;CYQR 011500Z 16010KT 2 1/2SM BR OVC003 M07/M08 A3021 RMK ST8 SLP268

CYQR;2013-03-01 15:33;CYQR 011533Z 16013KT 2SM DRSN BR OVC002 M06/ RMK ST8 VIS VRB 11/2-21/2

CYQR;2013-03-01 16:00;CYQR 011600Z 15015G20KT 15SM BKN004 OVC076 M06/M07 A3020 RMK SF5AC2 SLP264

CYQR;2013-03-01 16:11;CYQR 011611Z 15014KT 3SM DRSN BR SCT005 OVC076 M06/ RMK SF3AC3

CYQR;2013-03-01 17:00;CYQR 011700Z 15017KT 15SM DRSN SCT079 OVC150 M05/M07 A3017 RMK AC3AS4 SLP257

CYQR;2013-03-01 17:39;CYQR 011739Z 17016KT 12SM FEW006 OVC150 M05/ RMK SF2AS4

CYQR;2013-03-01 18:00;CYQR 011800Z 15013G19KT 12SM SCT006 BKN150 OVC300 M04/M06 A3018 RMK SF3AS2CS2 SLP255

CYQR;2013-03-01 19:00;CYQR 011900Z 15017KT 7SM SCT006 OVC150 M03/M05 A3014 RMK SF3AS4 SLP243

CYQR;2013-03-01 20:00;CYQR 012000Z 15015G20KT 12SM FEW006 OVC150 M02/M04 A3012 RMK SF1AS6 SLP236

CYQR;2013-03-01 21:00;CYQR 012100Z 14017G22KT 12SM BKN150 OVC300 M02/M04 A3008 RMK AC6CI2 SLP221

CYQR;2013-03-01 22:00;CYQR 012200Z 15020G25KT 12SM FEW010 OVC130 M02/M04 A3008 RMK SF1AC8 SLP221

CYQR;2013-03-01 23:00;CYQR 012300Z 15017KT 6SM BR FEW006 OVC130 M02/M04 A3007 RMK SF2AC6 SLP218

CYQR;2013-03-01 23:42;CYQR 012342Z 15016KT 4SM BR BKN006 OVC130 M03/ RMK SF5AC3

CYQR;2013-03-02 00:00;CYQR 020000Z 16016G21KT 8SM BKN006 BKN130 M03/M04 A3007 RMK SF5AC1 SLP218

CYQR;2013-03-02 00:14;CYQR 020014Z 16018KT 8SM SCT006 BKN130 BKN300 M03/ RMK SF3AC3CI0

CYQR;2013-03-02 01:00;CYQR 020100Z 16018KT 10SM SCT006 SCT120 BKN300 M03/M04 A3005 RMK SF2AC2CI0 SLP210

CYQR;2013-03-02 02:00;CYQR 020200Z 16017KT 15SM SCT006 BKN100 BKN300 M02/M04 A3004 RMK SF2AC4CI0 SLP207

CYQR;2013-03-02 03:00;CYQR 020300Z 15014KT 15SM SCT006 BKN100 M02/M04 A3002 RMK SF2AC4 SLP200

CYQR;2013-03-02 04:00;CYQR 020400Z 14011KT 15SM FEW006 BKN085 M03/M04 A3001 RMK SF2AC5 SLP198

CYQR;2013-03-02 05:00;CYQR 020500Z 14010KT 15SM FEW006 BKN083 M03/M04 A3000 RMK SF2AC6 SLP194

CYQR;2013-03-02 05:40;CYQR 020540Z 13007KT 15SM -SN BKN033 OVC083 M03/ RMK SC6AC2

CYQR;2013-03-02 06:00;CYQR 020600Z 11007KT 15SM BKN033 OVC083 M03/M04 A3001 RMK SC5AC3 SLP197

CYQR;2013-03-02 06:21;CYQR 020621Z 16002KT 15SM -SN BKN033 OVC097 M03/ RMK SC6AC2

CYQR;2013-03-02 07:00;CYQR 020700Z 14005KT 15SM FEW033 BKN057 M03/M04 A3000 RMK SC2SC5 SLP193

CYQR;2013-03-02 08:00;CYQR 020800Z 11003KT 15SM FEW030 BKN075 M05/M06 A3000 RMK SC2AC6 SLP194

CYQR;2013-03-02 09:00;CYQR 020900Z 17003KT 12SM SCT075 M05/M06 A3000 RMK AC2 SLP193

CYQR;2013-03-02 10:00;CYQR 021000Z 01003KT 3SM BR FEW075 M08/M08 A3001 RMK AC2 SLP196

CYQR;2013-03-02 10:32;CYQR 021032Z 33003KT 2SM R13/2400FT/N BR FEW005 SCT075 M08/ RMK SF1AC2

CYQR;2013-03-02 10:47;CYQR 021047Z 32003KT 3/8SM R13/1100FT/N FZFG SKC M08/ RMK FG5

CYQR;2013-03-02 11:00;CYQR 021100Z 32003KT 1/8SM R13/1100FT/N FZFG SKC M09/M10 A3003 RMK FG6 SLP201

CYQR;2013-03-02 12:00;CYQR 021200Z 30004KT 1/8SM R13/0800V1100FT/N FZFG SKC M10/M11 A3003 RMK FG7 FROIN SLP208

CYQR;2013-03-02 13:00;CYQR 021300Z 33003KT 1/8SM R13/1100FT/N FZFG SKC M09/M10 A3004 RMK FG7 FROIN SLP210

CYQR;2013-03-02 13:33;CYQR 021333Z 30005KT 1/2SM R13/2600VP6000FT/N FZFG OVC001 M09/ RMK FG2SF6

CYQR;2013-03-02 13:43;CYQR 021343Z 30004KT 3SM BR OVC004 M10/ RMK SF8

CYQR;2013-03-02 14:00;CYQR 021400Z 31005KT 6SM BR OVC004 M10/M11 A3006 RMK SF8 SLP216

CYQR;2013-03-02 14:29;CYQR 021429Z 31003KT 6SM BR SCT002 SCT100 BKN300 M09/ RMK SF3AC1CI0 VIS E 11/2

CYQR;2013-03-02 14:51;CYQR 021451Z 32003KT 6SM BR BKN002 BKN096 M09/ RMK SF4AC2

CYQR;2013-03-02 15:00;CYQR 021500Z 32003KT 6SM BR OVC001 M09/M10 A3005 RMK SF6 SLP215

CYQR;2013-03-02 15:42;CYQR 021542Z 01003KT 10SM BKN002 BKN100 BKN270 M08/ RMK SF2AC1CI1 VIS S-SE 2 BR

CYQR;2013-03-02 16:00;CYQR 021600Z 36002KT 12SM FEW002 FEW100 BKN270 M08/M09 A3005 RMK SF1AC1CI2 SLP212

CYQR;2013-03-02 17:00;CYQR 021700Z 29003KT 12SM FEW150 BKN270 M06/M07 A3005 RMK AC1CI2 CONTRAILS SLP215

CYQR;2013-03-02 18:00;CYQR 021800Z 23005KT 15SM FEW160 BKN270 M06/M07 A3004 RMK AC1CI1 SLP209

CYQR;2013-03-02 19:00;CYQR 021900Z 25005KT 15SM FEW160 BKN270 M04/M06 A3005 RMK AC1CI2 SLP210

CYQR;2013-03-02 20:00;CYQR 022000Z 25004KT 15SM FEW160 BKN270 M02/M05 A3004 RMK AC1CI1 SLP207

CYQR;2013-03-02 21:00;CYQR 022100Z 36002KT 15SM FEW180 BKN270 M02/M04 A3002 RMK AC1CI1 SLP201

CYQR;2013-03-02 22:00;CYQR 022200Z 00000KT 15SM FEW140 SCT270 01/M04 A3001 RMK AC1CI0 SLP196

CYQR;2013-03-02 23:00;CYQR 022300Z 32003KT 15SM FEW100 FEW200 BKN270 M00/M03 A3000 RMK AC1CI1CI1 SLP195

CYQR;2013-03-03 00:00;CYQR 030000Z 16004KT 15SM BKN120 BKN200 OVC270 M02/M04 A3000 RMK AC5CI2CI1 SLP196

CYQR;2013-03-03 01:00;CYQR 030100Z 13005KT 12SM FEW050 BKN120 OVC270 M03/M05 A2999 RMK SC2AC6CI1 SLP193

CYQR;2013-03-03 02:00;CYQR 030200Z 14004KT 15SM FEW050 OVC120 M04/M05 A2997 RMK SC2AC6 SLP187

CYQR;2013-03-03 03:00;CYQR 030300Z 13006KT 15SM BKN100 BKN150 M05/M06 A2995 RMK AC5AC2 SLP179

CYQR;2013-03-03 04:00;CYQR 030400Z 13004KT 15SM BKN097 BKN150 M06/M07 A2993 RMK AC5AC2 SLP174

CYQR;2013-03-03 05:00;CYQR 030500Z 13006KT 15SM OVC095 M05/M06 A2991 RMK AC8 SLP168

CYQR;2013-03-03 06:00;CYQR 030600Z 12007KT 15SM BKN067 OVC095 M05/M06 A2988 RMK AC6AC2 SLP155

CYQR;2013-03-03 07:00;CYQR 030700Z 12006KT 15SM OVC067 M04/M06 A2988 RMK AC8 SLP154

CYQR;2013-03-03 08:00;CYQR 030800Z 09007KT 15SM OVC063 M04/M06 A2986 RMK SC8 SLP146

CYQR;2013-03-03 08:47;CYQR 030847Z 12009KT 15SM -SN OVC043 M03/ RMK SC8

CYQR;2013-03-03 09:00;CYQR 030900Z 12011KT 15SM -SN BKN043 OVC077 M03/M06 A2983 RMK SC6AC2 SLP132

CYQR;2013-03-03 10:00;CYQR 031000Z 11013KT 15SM BKN060 BKN081 M02/M06 A2981 RMK SC6AC1 SLP124

CYQR;2013-03-03 11:00;CYQR 031100Z 10013KT 15SM OVC056 M02/M05 A2978 RMK SC8 SLP116

CYQR;2013-03-03 12:00;CYQR 031200Z 10013KT 15SM OVC052 M02/M06 A2977 RMK SC8 SLP112

CYQR;2013-03-03 13:00;CYQR 031300Z 09013KT 15SM OVC050 M01/M06 A2976 RMK SC8 SLP107

CYQR;2013-03-03 14:00;CYQR 031400Z 10013KT 15SM OVC046 M01/M07 A2974 RMK SC8 SLP101

CYQR;2013-03-03 15:00;CYQR 031500Z 10014KT 15SM OVC046 M01/M06 A2973 RMK SC8 SLP098

CYQR;2013-03-03 16:00;CYQR 031600Z 10014KT 15SM OVC048 M01/M06 A2972 RMK SC8 SLP095

CYQR;2013-03-03 17:00;CYQR 031700Z 10012KT 15SM OVC048 M01/M06 A2971 RMK SC8 SLP094

CYQR;2013-03-03 18:00;CYQR 031800Z 10015KT 15SM OVC048 M01/M06 A2970 RMK SC8 SLP089

CYQR;2013-03-03 19:00;CYQR 031900Z 10014G21KT 15SM OVC041 M00/M06 A2969 RMK SC8 SLP084

CYQR;2013-03-03 19:25;CYQR 031925Z 10015KT 15SM -SN OVC030 M00/ RMK SC8

CYQR;2013-03-03 19:51;CYQR 031951Z 09014KT 2 1/2SM -SN DRSN OVC015 M01/ RMK SC8

CYQR;2013-03-03 20:04;CYQR 032004Z 09016KT 3/4SM R13/5500FT/D -SN DRSN OVC008 RMK SN3SC5

CYQR;2013-03-03 21:00;CYQR 032100Z 09021G26KT 1SM R13/P6000FT/U -SN DRSN OVC007 M02/M03 A2967 RMK SN2SC6 SLP079

CYQR;2013-03-03 21:41;CYQR 032141Z 08018G24KT 3/4SM R13/P6000FT/D -SN DRSN OVC007 M02/ RMK SN2SC6

CYQR;2013-03-03 22:00;CYQR 032200Z 08019G24KT 3/4SM R13/4000FT/D -SN DRSN OVC005 M02/M03 A2968 RMK SN2SC6 SLP081

CYQR;2013-03-03 23:00;CYQR 032300Z 07017KT 3/4SM R13/5000FT/D -SN DRSN BKN005 OVC055 M02/M04 A2970 RMK SN3SF2SC2 SLP087

CYQR;2013-03-03 23:18;CYQR 032318Z 07015G26KT 1/2SM R13/4500FT/N SN BLSN OVC004 M02/ RMK SN4SC4

CYQR;2013-03-04 00:00;CYQR 040000Z 07019G24KT 3/8SM R13/4500FT/N SN BLSN VV004 M03/M04 A2973 RMK SN8 SLP097

CYQR;2013-03-04 01:00;CYQR 040100Z 06019G25KT 1/2SM R13/6000FT/D SN BLSN VV004 M03/M04 A2974 RMK SN8 /S02/ SLP102

CYQR;2013-03-04 01:14;CYQR 040114Z 07017KT 3/4SM R13/P6000FT/U -SN BLSN VV004 M03/ RESN RMK SN8

CYQR;2013-03-04 01:21;CYQR 040121Z 07018KT 1 1/2SM -SN BLSN OVC004 M03/ RESN RMK SN2SC6

CYQR;2013-03-04 02:00;CYQR 040200Z 05020KT 1 1/2SM -SN BLSN OVC010 M03/M04 A2976 RESN RMK SC8 SLP108

CYQR;2013-03-04 03:00;CYQR 040300Z 05018G26KT 2SM -SN BLSN OVC009 M03/M04 A2979 RMK SC8 SLP117

CYQR;2013-03-04 04:00;CYQR 040400Z 06026KT 2 1/2SM -SN BLSN SCT009 OVC018 M05/M07 A2980 RMK SC4SC4 /S03/ SLP122

CYQR;2013-03-04 05:00;CYQR 040500Z 05020G26KT 1 1/2SM -SN BLSN OVC012 M06/M07 A2982 RMK SC8 /S04/ SLP129

CYQR;2013-03-04 06:00;CYQR 040600Z 06022KT 2SM -SN BLSN OVC014 M06/M08 A2983 RMK SC8 /S05/ SLP135

CYQR;2013-03-04 06:34;CYQR 040634Z 05018G26KT 3SM -SN BLSN OVC012 M06/ RMK SC8

CYQR;2013-03-04 07:00;CYQR 040700Z 06021G30KT 5SM -SN BLSN SCT012 OVC023 M06/M08 A2988 RMK SC3SC5 SLP149

CYQR;2013-03-04 08:00;CYQR 040800Z 05022G27KT 7SM -SN DRSN SCT016 OVC054 M06/M08 A2989 RMK SC4SC4 SLP152

CYQR;2013-03-04 09:00;CYQR 040900Z 05025KT 4SM -SN BLSN SCT016 OVC041 M07/M09 A2990 RMK SC3SC5 SLP158

CYQR;2013-03-04 10:00;CYQR 041000Z 05019G31KT 6SM -SN BLSN FEW015 SCT036 OVC069 M07/M09 A2993 RMK SC2SC2AC4 SLP168

CYQR;2013-03-04 11:00;CYQR 041100Z 04023G29KT 5SM -SN BLSN SCT012 OVC042 M07/M09 A2995 RMK SC3SC5 SLP174

CYQR;2013-03-04 11:28;CYQR 041128Z 03025KT 6SM -SN BLSN BKN012 OVC048 M07/ RMK SC6SC2

CYQR;2013-03-04 12:00;CYQR 041200Z 03025G30KT 5SM -SN BLSN BKN012 OVC054 M08/M09 A2999 RMK SC6SC2 SLP190

CYQR;2013-03-04 13:00;CYQR 041300Z 03023G29KT 5SM -SN BLSN OVC012 M08/M10 A3001 RMK SC8 SLP197

CYQR;2013-03-04 14:00;CYQR 041400Z 03025G30KT 6SM -SN BLSN OVC010 M08/M10 A3003 RMK SC8 SLP205

CYQR;2013-03-04 15:00;CYQR 041500Z 03026G32KT 3SM -SN BLSN OVC012 M08/M10 A3006 RMK SC8 SLP217

CYQR;2013-03-04 16:00;CYQR 041600Z 02023KT 12SM -SN DRSN VCBLSN OVC014 M09/M11 A3009 REBLSN RMK SC8 VIS W 4SM SLP225

CYQR;2013-03-04 17:00;CYQR 041700Z 36018KT 12SM -SN DRSN VCBLSN OVC016 M08/M11 A3011 RMK SC8 VIS W 4 SLP232

CYQR;2013-03-04 18:00;CYQR 041800Z 36021G26KT 12SM -SN DRSN OVC018 M08/M11 A3014 RMK SC8 SLP247

CYQR;2013-03-04 19:00;CYQR 041900Z 36018G25KT 8SM -SN DRSN VCBLSN OVC020 M08/M11 A3015 RMK SC8 VIS SW-W 4 SLP251

CYQR;2013-03-04 19:37;CYQR 041937Z 36019G24KT 2 1/2SM -SN BLSN OVC020 M08/ RMK SC8

CYQR;2013-03-04 20:00;CYQR 042000Z 36019G25KT 3SM -SN DRSN SCT014 OVC020 M08/M10 A3017 REBLSN RMK SC3SC5 SLP256

CYQR;2013-03-04 21:00;CYQR 042100Z 35020G25KT 15SM DRSN FEW013 BKN020 M08/M11 A3018 RMK SF1SC6 SLP262

CYQR;2013-03-04 22:00;CYQR 042200Z 35020G26KT 15SM DRSN BKN016 BKN090 M09/M11 A3020 RMK SC5AC2 SLP269

CYQR;2013-03-04 23:00;CYQR 042300Z 35022KT 15SM DRSN FEW013 BKN022 BKN230 M09/M12 A3024 RMK SF0SC3CI0 SLP281

CYQR;2013-03-05 00:00;CYQR 050000Z 34015KT 15SM DRSN FEW013 FEW022 FEW230 M11/M13 A3027 RMK SF1SC1CI1 SLP294

CYQR;2013-03-05 01:00;CYQR 050100Z 35014KT 15SM DRSN BKN022 BKN060 M11/M14 A3029 RMK SC3SC1 SLP301

CYQR;2013-03-05 02:00;CYQR 050200Z 36013G18KT 15SM FEW025 M13/M15 A3030 RMK SC1 SLP305

CYQR;2013-03-05 03:00;CYQR 050300Z 35009KT 15SM FEW025 M15/M17 A3033 RMK SC1 SLP317

CYQR;2013-03-05 04:00;CYQR 050400Z 35007KT 15SM FEW030 M16/M17 A3034 RMK SC1 SLP320

CYQR;2013-03-05 05:00;CYQR 050500Z 32009KT 15SM FEW019 M17/M19 A3034 RMK SC1 SLP321

CYQR;2013-03-05 06:00;CYQR 050600Z 34008KT 15SM -SN BKN022 M15/M16 A3035 RMK SC7 SLP325

CYQR;2013-03-05 07:00;CYQR 050700Z 34008KT 15SM -SN BKN030 M15/M16 A3036 RMK SC7 SLP330

CYQR;2013-03-05 08:00;CYQR 050800Z 32006KT 15SM -SN BKN030 M16/M18 A3037 RMK SC7 SLP333

CYQR;2013-03-05 09:00;CYQR 050900Z 34005KT 15SM FEW013 M19/M20 A3037 RMK SC1 SLP336

CYQR;2013-03-05 10:00;CYQR 051000Z 32006KT 15SM BKN022 M19/M20 A3037 RMK SC2 SLP336

CYQR;2013-03-05 11:00;CYQR 051100Z 32003KT 15SM -SN BKN022 M17/M19 A3037 RMK SC7 SLP335

CYQR;2013-03-05 12:00;CYQR 051200Z 30004KT 15SM -SN BKN022 M16/M18 A3038 RMK SC7 SLP339

CYQR;2013-03-05 13:00;CYQR 051300Z 30004KT 15SM -SN BKN022 M16/M18 A3039 RMK SC6 SLP341

CYQR;2013-03-05 14:00;CYQR 051400Z 30003KT 12SM -SN BKN020 BKN220 M18/M19 A3039 RMK SC5CI1 SLP343

CYQR;2013-03-05 15:00;CYQR 051500Z 24002KT 12SM -SN BKN027 BKN220 M18/M20 A3040 RMK SC6CI1 SLP352

CYQR;2013-03-05 16:00;CYQR 051600Z 25004KT 12SM -SN BKN029 BKN220 M17/M19 A3041 RMK SC6CI1 SLP354

CYQR;2013-03-05 17:00;CYQR 051700Z 26003KT 15SM -SN OVC029 M16/M20 A3040 RMK SC8 SLP352

CYQR;2013-03-05 18:00;CYQR 051800Z 27003KT 15SM -SN BKN029 M16/M19 A3040 RMK SC6 SLP348

CYQR;2013-03-05 18:47;CYQR 051847Z 26002KT 15SM BKN029 BKN220 M14/ RMK SC3CI2 CC ASOCTD

CYQR;2013-03-05 19:00;CYQR 051900Z 00000KT 15SM SCT025 BKN240 M14/M17 A3040 RMK SC1CI0 SLP347

CYQR;2013-03-05 20:00;CYQR 052000Z 26002KT 15SM FEW230 M13/M16 A3038 RMK CI1 SLP342

CYQR;2013-03-05 21:00;CYQR 052100Z 20004KT 15SM FEW025 FEW060 FEW240 M12/M15 A3037 RMK SC1SC1CI1 SLP338

CYQR;2013-03-05 22:00;CYQR 052200Z 19003KT 15SM FEW025 FEW060 FEW240 M13/M15 A3036 RMK SC1SC1CI1 SLP334

CYQR;2013-03-05 23:00;CYQR 052300Z 20005KT 15SM SCT020 SCT060 BKN240 M13/M16 A3035 RMK SC2SC1CI1 SLP333

CYQR;2013-03-06 00:00;CYQR 060000Z 20003KT 15SM BKN021 M14/M17 A3034 RMK SC1 SLP328

CYQR;2013-03-06 01:00;CYQR 060100Z 13004KT 15SM FEW021 FEW240 M15/M18 A3033 RMK SC1CI1 SLP325

CYQR;2013-03-06 02:00;CYQR 060200Z 14006KT 15SM SKC M17/M20 A3033 RMK SLP323

CYQR;2013-03-06 03:00;CYQR 060300Z 14007KT 15SM SKC M17/M20 A3032 RMK SLP325

CYQR;2013-03-06 04:00;CYQR 060400Z 14006KT 15SM FEW100 M18/M21 A3032 RMK AC1 SLP324

CYQR;2013-03-06 05:00;CYQR 060500Z 14007KT 15SM VCFG FEW100 M19/M22 A3031 RMK AC1 VIS S-W 4 SLP323

CYQR;2013-03-06 06:00;CYQR 060600Z 14006KT 12SM VCFG BKN002 M19/M22 A3031 RMK SF1 VIS S-W 4 SLP321

CYQR;2013-03-06 06:33;CYQR 060633Z 14007KT 3SM BR OVC001 M19/ RMK SF7

CYQR;2013-03-06 07:00;CYQR 060700Z 14006KT 2SM BR OVC001 M19/M22 A3030 RMK SF7 SLP316

CYQR;2013-03-06 07:08;CYQR 060708Z 14008KT 3SM BR BKN001 M19/ RMK SF6

CYQR;2013-03-06 08:00;CYQR 060800Z 14006KT 2 1/2SM BR OVC001 M19/M22 A3028 RMK SF8 VIS VRB 2-3 SLP312

CYQR;2013-03-06 09:00;CYQR 060900Z 14008KT 2 1/2SM BR OVC001 M19/M22 A3028 RMK SF7 VIS VRB 2-3 RIME ON INDICATOR SLP306

CYQR;2013-03-06 10:00;CYQR 061000Z 13007KT 2 1/2SM BR OVC001 M20/M23 A3027 RMK SF8 VIS VRB 2-3 RIME ON INDICATOR SLP303

CYQR;2013-03-06 11:00;CYQR 061100Z 12006KT 3SM BR OVC002 M20/M23 A3026 RMK SF7 RIME ON INDICATOR SLP300

CYQR;2013-03-06 12:00;CYQR 061200Z 12008KT 2 1/2SM BR OVC002 M19/M22 A3025 RMK SF7 VIS VRB 2-3 RIME ON INDICATOR SLP298

CYQR;2013-03-06 13:00;CYQR 061300Z 13010KT 2SM BR OVC002 M20/M23 A3023 RMK FG2ST5 VIS VRB 11/2-21/2 RIME ON INDICATOR SLP293

CYQR;2013-03-06 13:09;CYQR 061309Z 12008KT 1 1/2SM BR OVC002 M20/ RMK FG3ST3 VIS VRB 1-2 RIME ON INDICATOR

CYQR;2013-03-06 13:34;CYQR 061334Z 14010KT 2SM BR OVC002 M20/ RMK FG2ST4 VIS VRB 11/2-21/2 RIME ON INDICATOR

CYQR;2013-03-06 13:49;CYQR 061349Z 14009KT 3SM BR OVC003 M20/ RMK SF6 VIS LWR NW-NE RIME ON INDICATOR

CYQR;2013-03-06 14:00;CYQR 061400Z 14008KT 4SM -SN BR BKN002 OVC013 M20/M23 A3022 RMK ST5SC3 SLP290

CYQR;2013-03-06 14:45;CYQR 061445Z 12008KT 4SM -SN BR SCT002 OVC013 M17/ RMK SF3SC5

CYQR;2013-03-06 15:00;CYQR 061500Z 13008KT 4SM -SN BR FEW002 OVC013 M16/M19 A3021 RMK SF2SC6 SLP287

CYQR;2013-03-06 16:00;CYQR 061600Z 14010KT 5SM -SN DRSN BR FEW002 OVC013 M14/M16 A3020 RMK SF2SC6 SLP281

CYQR;2013-03-06 17:00;CYQR 061700Z 12012KT 6SM -SN DRSN FEW003 OVC011 M12/M13 A3017 RMK SF1SC6 SLP274

CYQR;2013-03-06 17:35;CYQR 061735Z 13014KT 12SM DRSN FEW003 FEW012 BKN250 M12/ RMK SF1SC1CI1

CYQR;2013-03-06 18:00;CYQR 061800Z 13014KT 15SM DRSN FEW003 FEW012 BKN250 M13/M14 A3016 RMK SF1SC2CI1 SLP268

CYQR;2013-03-06 19:00;CYQR 061900Z 20016G21KT 15SM DRSN FEW250 M12/M14 A3014 RMK CI1 SLP261

CYQR;2013-03-06 20:00;CYQR 062000Z 12015G20KT 15SM DRSN FEW012 SCT250 M12/M13 A3011 RMK SC1CI1 SLP252

CYQR;2013-03-06 21:00;CYQR 062100Z 14018KT 15SM DRSN FEW250 M12/M14 A3009 RMK CI2 SLP241

CYQR;2013-03-06 22:00;CYQR 062200Z 14019G24KT 15SM DRSN VCBLSN BKN250 M12/M13 A3008 RMK CI2 VIS LWR SW-NW SLP238

CYQR;2013-03-06 23:00;CYQR 062300Z 13017G24KT 12SM DRSN VCBLSN OVC250 M12/M13 A3006 RMK CI2 VIS LWR SW-NW SLP232

CYQR;2013-03-07 00:00;CYQR 070000Z 13018KT 15SM DRSN FEW140 OVC250 M12/M13 A3005 RMK AC1CI2 SLP227

CYQR;2013-03-07 01:00;CYQR 070100Z 13019G25KT 15SM DRSN FEW140 SCT250 M12/M14 A3003 RMK AC1CI2 SLP222

CYQR;2013-03-07 02:00;CYQR 070200Z 13021KT 15SM FEW250 M13/M15 A3003 RMK CI0 SLP222

CYQR;2013-03-07 03:00;CYQR 070300Z 14018KT 15SM BKN025 BKN250 M13/M15 A3003 RMK SC5CI0 SLP220

CYQR;2013-03-07 04:00;CYQR 070400Z 14018G24KT 12SM SCT025 M14/M16 A3003 RMK SC3 SLP220

CYQR;2013-03-07 05:00;CYQR 070500Z 13017KT 12SM BKN025 M14/M16 A3003 RMK SC6 SLP221

CYQR;2013-03-07 06:00;CYQR 070600Z 13018KT 15SM BKN010 M14/M16 A3002 RMK SC7 SLP214

CYQR;2013-03-07 07:00;CYQR 070700Z 13019KT 15SM OVC009 M13/M15 A3000 RMK SC8 SLP208

CYQR;2013-03-07 08:00;CYQR 070800Z 14017KT 15SM OVC009 M13/M15 A2999 RMK SC8 SLP205

CYQR;2013-03-07 08:33;CYQR 070833Z 14014G21KT 15SM BKN011 OVC085 M13/ RMK SC6AC2

CYQR;2013-03-07 09:00;CYQR 070900Z 14018KT 15SM SCT027 OVC071 M12/M14 A2998 RMK SC3AC5 SLP200

CYQR;2013-03-07 10:00;CYQR 071000Z 13017G24KT 15SM BKN025 OVC066 M12/M14 A2996 RMK SC6AC2 SLP191

CYQR;2013-03-07 11:00;CYQR 071100Z 14016G21KT 15SM OVC059 M12/M13 A2997 RMK SC8 SLP197

CYQR;2013-03-07 12:00;CYQR 071200Z 13014KT 15SM BKN020 OVC070 M11/M13 A2996 RMK SC6AC2 SLP192

CYQR;2013-03-07 13:00;CYQR 071300Z 14016KT 15SM BKN019 OVC070 M11/M13 A2996 RMK SC6AC2 SLP191

CYQR;2013-03-07 14:00;CYQR 071400Z 13013G18KT 8SM -SN OVC015 M11/M13 A2996 RMK SC8 SLP191

CYQR;2013-03-07 14:15;CYQR 071415Z 14013KT 8SM -SN DRSN OVC013 M11/ RMK SC8

CYQR;2013-03-07 15:00;CYQR 071500Z 15012KT 8SM -SN DRSN OVC013 M11/M13 A2997 RMK SC8 SLP194

CYQR;2013-03-07 16:00;CYQR 071600Z 15014KT 5SM -SN DRSN OVC011 M11/M13 A2997 RMK SC8 SLP196

CYQR;2013-03-07 17:00;CYQR 071700Z 15012KT 4SM -SN DRSN OVC009 M10/M12 A2997 RMK SC8 SLP196

CYQR;2013-03-07 17:28;CYQR 071728Z 15010KT 5SM -SN DRSN OVC010 M10/ RMK SC8

CYQR;2013-03-07 18:00;CYQR 071800Z 16010KT 5SM -SN DRSN BKN009 OVC017 M10/M12 A2997 RMK SC6SC2 SLP194

CYQR;2013-03-07 19:00;CYQR 071900Z 16011KT 7SM -SN DRSN BKN009 OVC015 M09/M11 A2997 RMK SC6SC2 SLP194

CYQR;2013-03-07 19:15;CYQR 071915Z 16010KT 7SM -SN SCT009 OVC015 M09/ RMK SC3SC5

CYQR;2013-03-07 20:02;CYQR 072002Z 18010KT 2SM R13/4000VP6000FT/D -SN VV009 M09/ RMK SN8

CYQR;2013-03-07 20:04;CYQR 072004Z 17011KT 1SM R13/3000VP6000FT/D -SN VV007 M09/ RMK SN8

CYQR;2013-03-07 20:21;CYQR 072021Z 17009KT 5/8SM R13/3500FT/D -SN VV004 M09/ RMK SN8

CYQR;2013-03-07 20:31;CYQR 072031Z 18008KT 3/4SM R13/3000V4500FT/U -SN VV002 M09/ RMK SN8

CYQR;2013-03-07 20:39;CYQR 072039Z 18007KT 1SM R13/5500FT/U -SN VV002 M09/ RMK SN8

CYQR;2013-03-07 20:48;CYQR 072048Z 18008KT 1 1/2SM R13/6000FT/N -SN VV008 M09/ RMK SN8

CYQR;2013-03-07 21:00;CYQR 072100Z 18006KT 2SM -SN BKN008 OVC031 M09/M10 A2997 RMK SC6SC2 SLP192

CYQR;2013-03-07 21:25;CYQR 072125Z 19005KT 3SM -SN BKN012 OVC031 M08/ RMK SC6SC2

CYQR;2013-03-07 22:00;CYQR 072200Z 23004KT 5SM -SN BKN009 OVC030 M08/M10 A2998 RMK SC6SC1 SLP196

CYQR;2013-03-07 22:25;CYQR 072225Z 25004KT 7SM -SN SCT009 BKN017 OVC039 M08/ RMK SC3SC2SC2

CYQR;2013-03-07 23:00;CYQR 072300Z 28005KT 5SM -SN FEW009 BKN016 OVC039 M08/M10 A2999 RMK SC2SC4SC2 SLP198

CYQR;2013-03-07 23:33;CYQR 072333Z 30007KT 2SM -SN FEW012 OVC041 M09/ RMK SC2SC6

CYQR;2013-03-08 00:00;CYQR 080000Z 31008KT 1 1/2SM -SN FEW012 OVC041 M09/M10 A3000 RMK SC2SC6 /S01/ SLP201

CYQR;2013-03-08 00:32;CYQR 080032Z 32009KT 4SM -SN FEW012 BKN039 BKN100 BKN250 M09/ RMK SC1SC4AC1CI1

CYQR;2013-03-08 01:00;CYQR 080100Z 32008KT 10SM -SN FEW040 BKN068 BKN250 M10/M12 A3002 RMK SC2AC2CI2 SLP208

CYQR;2013-03-08 02:00;CYQR 080200Z 33009KT 15SM -SN FEW015 BKN044 OVC068 M09/M11 A3003 RMK SC1SC7AC1 SLP213

CYQR;2013-03-08 03:00;CYQR 080300Z 34013KT 15SM -SN FEW010 OVC043 M09/M11 A3005 RMK SF1SC7 SLP218

CYQR;2013-03-08 04:00;CYQR 080400Z 33012KT 15SM -SN FEW010 OVC043 M10/M11 A3008 RMK SF2SC6 SLP229

CYQR;2013-03-08 05:00;CYQR 080500Z 32012KT 15SM FEW010 OVC041 M10/M11 A3009 RMK SF1SC7 SLP233

CYQR;2013-03-08 05:14;CYQR 080514Z 32012KT 12SM -SN FEW010 OVC041 M10/ RMK SF1SC7

CYQR;2013-03-08 06:00;CYQR 080600Z 32011KT 15SM -SN FEW010 OVC041 M10/M12 A3010 RMK SF1SC7 SLP236

CYQR;2013-03-08 07:00;CYQR 080700Z 32008KT 15SM -SN FEW010 BKN041 M11/M12 A3011 RMK SF1SC7 SLP241

CYQR;2013-03-08 08:00;CYQR 080800Z 30007KT 15SM SCT043 M14/M15 A3013 RMK SC3 SLP246

CYQR;2013-03-08 09:00;CYQR 080900Z 31009KT 15SM FEW045 M16/M17 A3013 RMK SC2 SLP249

CYQR;2013-03-08 10:00;CYQR 081000Z 28006KT 15SM FEW045 M18/M19 A3013 RMK SC1 SLP249

CYQR;2013-03-08 10:50;CYQR 081050Z 29009KT 15SM -SN BKN003 M18/ RMK SF7

CYQR;2013-03-08 11:00;CYQR 081100Z 28007KT 15SM -SN BKN004 M18/M19 A3014 RMK SF7 SLP253

CYQR;2013-03-08 11:42;CYQR 081142Z 30006KT 4SM -SN OVC002 M17/ RMK SF8

CYQR;2013-03-08 12:00;CYQR 081200Z 30005KT 10SM -SN OVC002 M17/M18 A3015 RMK SF8 SLP260

CYQR;2013-03-08 12:48;CYQR 081248Z 33003KT 10SM -SN OVC003 M15/ RMK SF8 CIG VRB 2-4 VIS SW 4

CYQR;2013-03-08 13:00;CYQR 081300Z 32003KT 10SM -SN OVC003 M15/M17 A3014 RMK SF8 CIG VRB 2-4 SLP256

CYQR;2013-03-08 13:49;CYQR 081349Z 28004KT 4SM -SN OVC005 M15/ RMK SF8

CYQR;2013-03-08 14:00;CYQR 081400Z 30004KT 4SM -SN OVC005 M15/M16 A3015 RMK SF7 SLP259

CYQR;2013-03-08 14:25;CYQR 081425Z 34003KT 5SM -SN SCT002 OVC006 M15/ RMK SF3SF2

CYQR;2013-03-08 14:39;CYQR 081439Z 31003KT 5SM -SN BKN006 M15/ RMK SF2

CYQR;2013-03-08 15:00;CYQR 081500Z 27004KT 7SM -SN BKN005 M15/M17 A3015 RMK SF2 SLP258

CYQR;2013-03-08 16:00;CYQR 081600Z 23006KT 10SM SCT005 BKN250 M16/M17 A3016 RMK SF2CI0 SLP261

CYQR;2013-03-08 17:00;CYQR 081700Z 23004KT 15SM FEW005 FEW250 M15/M17 A3016 RMK SF1CI0 SLP261

CYQR;2013-03-08 18:00;CYQR 081800Z 00000KT 15SM FEW008 FEW250 M14/M16 A3014 RMK SF1CI1 SLP254

CYQR;2013-03-08 19:00;CYQR 081900Z 22002KT 15SM FEW008 FEW250 M13/M15 A3013 RMK SF1CI0 SLP250

CYQR;2013-03-08 20:00;CYQR 082000Z 19008KT 15SM FEW250 M12/M14 A3011 RMK CI1 SLP243

CYQR;2013-03-08 21:00;CYQR 082100Z 18008KT 15SM FEW060 FEW250 M12/M14 A3008 RMK SC1CI0 SLP237

CYQR;2013-03-08 22:00;CYQR 082200Z 17007KT 15SM FEW060 FEW250 M12/M14 A3007 RMK SC1CI0 SLP233

CYQR;2013-03-08 23:00;CYQR 082300Z 16009KT 15SM FEW060 FEW250 M12/M15 A3005 RMK SC1CI1 SLP228

CYQR;2013-03-09 00:00;CYQR 090000Z 16008KT 15SM FEW100 FEW250 M13/M15 A3004 RMK AC1CI1 SLP222

CYQR;2013-03-09 01:00;CYQR 090100Z 14009KT 15SM FEW100 M14/M15 A3001 RMK AC1 SLP214

CYQR;2013-03-09 02:00;CYQR 090200Z 14010KT 15SM BKN075 M14/M15 A3000 RMK AC5 SLP209

CYQR;2013-03-09 03:00;CYQR 090300Z 16011KT 15SM BKN071 M14/M15 A3000 RMK AC6 SLP209

CYQR;2013-03-09 04:00;CYQR 090400Z 13006KT 15SM SCT074 M13/M15 A2999 RMK AC4 SLP206

CYQR;2013-03-09 05:00;CYQR 090500Z 16010KT 15SM BKN070 M13/M14 A2996 RMK AC6 SLP196

CYQR;2013-03-09 06:00;CYQR 090600Z 17007KT 15SM -SN BKN072 M13/M15 A2996 RMK AC6 SLP192

CYQR;2013-03-09 07:00;CYQR 090700Z 15009KT 10SM -SN OVC017 M12/M14 A2993 RMK SC8 SLP185

CYQR;2013-03-09 07:16;CYQR 090716Z 16008KT 5SM -SN OVC013 M12/ RMK SC8

CYQR;2013-03-09 08:00;CYQR 090800Z 16004KT 8SM -SN OVC012 M11/M12 A2991 RMK SC8 SLP179

CYQR;2013-03-09 09:00;CYQR 090900Z 18004KT 15SM BKN023 OVC074 M09/M11 A2991 RMK SC7AC1 /S01/ SLP171

CYQR;2013-03-09 10:00;CYQR 091000Z 23006KT 15SM BKN023 M10/M12 A2989 RMK SC6 SLP167

CYQR;2013-03-09 11:00;CYQR 091100Z 30012KT 15SM BKN073 M11/M12 A2989 RMK AC5 SLP166

CYQR;2013-03-09 12:00;CYQR 091200Z 30009KT 15SM FEW038 FEW073 M14/M15 A2992 RMK SC1AC1 SLP180

CYQR;2013-03-09 13:00;CYQR 091300Z 30008KT 15SM FEW078 M17/M19 A2993 RMK AC1 SLP182

CYQR;2013-03-09 14:00;CYQR 091400Z 30008KT 15SM FEW250 M18/M19 A2995 RMK CI1 SLP188

CYQR;2013-03-09 15:00;CYQR 091500Z 31007KT 15SM FEW250 M17/M19 A2996 RMK CI1 SLP197

CYQR;2013-03-09 16:00;CYQR 091600Z 31008KT 15SM FEW250 M16/M17 A2999 RMK CI1 SLP205

CYQR;2013-03-09 17:00;CYQR 091700Z 32007KT 15SM FEW100 M13/M15 A3000 RMK AC1 SLP209

CYQR;2013-03-09 18:00;CYQR 091800Z 33009KT 15SM FEW250 M12/M14 A3003 RMK CI0 SLP217

CYQR;2013-03-09 19:00;CYQR 091900Z 32012G18KT 15SM SKC M11/M13 A3005 RMK SLP221

CYQR;2013-03-09 20:00;CYQR 092000Z 33014KT 15SM SKC M10/M13 A3006 RMK SLP227

CYQR;2013-03-09 21:00;CYQR 092100Z 31014KT 15SM SKC M10/M12 A3008 RMK SLP228

CYQR;2013-03-09 22:00;CYQR 092200Z 32014KT 15SM SKC M09/M12 A3010 RMK SLP235

CYQR;2013-03-09 23:00;CYQR 092300Z 31013KT 15SM SKC M10/M12 A3011 RMK SLP239

CYQR;2013-03-10 00:00;CYQR 100000Z 32013KT 15SM SKC M11/M13 A3012 RMK SLP248

CYQR;2013-03-10 01:00;CYQR 100100Z 32014KT 15SM SKC M12/M14 A3014 RMK SLP254

CYQR;2013-03-10 02:00;CYQR 100200Z 32011KT 15SM SKC M12/M14 A3017 RMK SLP264

CYQR;2013-03-10 03:00;CYQR 100300Z 34011KT 15SM SCT240 M15/M16 A3020 RMK CI2 SLP280

CYQR;2013-03-10 04:00;CYQR 100400Z 36007KT 15SM FEW240 M16/M17 A3020 RMK CI1 FROIN SLP281

CYQR;2013-03-10 05:00;CYQR 100500Z 30003KT 15SM FEW240 M19/M20 A3022 RMK CI1 SLP288

CYQR;2013-03-10 06:00;CYQR 100600Z 25004KT 12SM FEW240 M20/M23 A3024 RMK CI1 FROIN BR SLP293

CYQR;2013-03-10 07:00;CYQR 100700Z 00000KT 10SM SKC M20/M24 A3022 RMK BR FROIN SLP287

CYQR;2013-03-10 07:14;CYQR 100714Z 00000KT 10SM FEW002 M20/ RMK SF1 BR FROIN

CYQR;2013-03-10 08:00;CYQR 100800Z 00000KT 5SM BR SCT002 M20/M23 A3023 RMK SF2 FROIN SLP290

CYQR;2013-03-10 08:40;CYQR 100840Z 28002KT 5SM BR BKN002 M22/ RMK ST5 FROIN

CYQR;2013-03-10 09:00;CYQR 100900Z 00000KT 5SM BR OVC002 M21/M25 A3023 RMK ST6 VIS N-NE 2 FROIN SLP289

CYQR;2013-03-10 10:00;CYQR 101000Z 00000KT 6SM BR OVC002 M20/M22 A3023 RMK ST6 VIS N-NE 2 FROIN SLP289

CYQR;2013-03-10 11:00;CYQR 101100Z 22002KT 6SM BR VCFG OVC002 M20/M24 A3022 RMK ST7 VIS N-NE 2 FROIN SLP287

CYQR;2013-03-10 12:00;CYQR 101200Z 00000KT 5SM BR VCFG OVC002 M19/M23 A3023 RMK ST8 FROIN SLP288

CYQR;2013-03-10 12:22;CYQR 101222Z 15002KT 4SM BR VCFG OVC001 M18/ RMK SF8 VIS N-NE 2 FROIN

CYQR;2013-03-10 12:47;CYQR 101247Z 16003KT 2SM BR OVC001 M19/ RMK FG2SF6 FROIN

CYQR;2013-03-10 13:00;CYQR 101300Z 15004KT 1 3/4SM BR OVC001 M18/M22 A3023 RMK FG3SF5 FROIN SLP288

CYQR;2013-03-10 14:00;CYQR 101400Z 14006KT 1 1/4SM R13/2800V5000FT/N BR OVC001 M18/M21 A3021 RMK FG2SF6 FROIN VIS VRB 1-11/2 SLP283

CYQR;2013-03-10 14:05;CYQR 101405Z 14006KT 3/4SM R13/2800V5000FT/N BR OVC001 M15/ RMK FG6SF2 VIS VRB 1/2-1

CYQR;2013-03-10 14:17;CYQR 101417Z 14006KT 3/8SM R13/1800FT/N FZFG OVC001 M18/ RMK FG6SF2 VIS VRB 1/4-1/2

CYQR;2013-03-10 15:00;CYQR 101500Z 14003KT 5/8SM R13/2400V6000FT/D BR OVC001 M17/M20 A3020 RMK FG5SF2 VIS VRB 1/2-3/4 SLP282

CYQR;2013-03-10 15:26;CYQR 101526Z 15004KT 1SM R13/4500VP6000FT/U BR OVC001 M16/ RMK FG5SF2

CYQR;2013-03-10 15:48;CYQR 101548Z 14007KT 1 1/4SM BR OVC002 M16/ RMK FG2SF5 VIS VRB 1-11/2

CYQR;2013-03-10 16:00;CYQR 101600Z 15005KT 1 1/4SM BR OVC001 M16/M19 A3021 RMK FG2SF6 VIS VRB 1-11/2 SLP284

CYQR;2013-03-10 16:26;CYQR 101626Z 13006KT 1 1/2SM BR OVC002 M16/ RMK FG2SF6 VIS VRB 1-2 CIG VRB 1-3

CYQR;2013-03-10 16:42;CYQR 101642Z 14007KT 2 1/2SM BR BKN120 M16/ RMK AC2 VIS VRB 2-3

CYQR;2013-03-10 17:00;CYQR 101700Z 14007KT 2 1/2SM BR FEW150 BKN240 M16/M18 A3020 RMK AC2CI2 VIS VRB 2-3 CC ASOCTD SLP280

CYQR;2013-03-10 18:00;CYQR 101800Z 14010KT 3SM BR BKN240 M15/M17 A3017 RMK CI5 SLP272

CYQR;2013-03-10 19:00;CYQR 101900Z 14011KT 6SM BR BKN240 M13/M15 A3014 RMK CI3 SLP262

CYQR;2013-03-10 20:00;CYQR 102000Z 14011KT 15SM FEW120 BKN240 M12/M13 A3010 RMK AC1CI4 BR SLP251

CYQR;2013-03-10 21:00;CYQR 102100Z 15011KT 8SM OVC120 M10/M12 A3007 RMK AC8 BR SLP237

CYQR;2013-03-10 22:00;CYQR 102200Z 15011G16KT 10SM OVC100 M10/M11 A3003 RMK AC8 BR SLP223

CYQR;2013-03-10 23:00;CYQR 102300Z 14011KT 10SM OVC100 M09/M10 A3000 RMK AC8 BR SLP212

CYQR;2013-03-11 00:00;CYQR 110000Z 15012KT 10SM OVC100 M08/M10 A2997 RMK AC8 BR SLP197

CYQR;2013-03-11 01:00;CYQR 110100Z 13010KT 12SM OVC100 M08/M10 A2996 RMK AC8 SLP193

CYQR;2013-03-11 02:00;CYQR 110200Z 15013KT 15SM BKN100 OVC250 M08/M10 A2994 RMK AC7CI1 SLP187

CYQR;2013-03-11 03:00;CYQR 110300Z 14015KT 15SM BKN100 OVC250 M08/M10 A2990 RMK AC7CI1 SLP171

CYQR;2013-03-11 04:00;CYQR 110400Z 15010G16KT 15SM OVC100 M08/M10 A2986 RMK AC8 SLP161

CYQR;2013-03-11 05:00;CYQR 110500Z 13013KT 15SM OVC091 M08/M10 A2985 RMK AC8 SLP156

CYQR;2013-03-11 06:00;CYQR 110600Z 13012KT 12SM BKN066 M08/M10 A2982 RMK AC6 SLP142

CYQR;2013-03-11 07:00;CYQR 110700Z 12009KT 15SM SCT098 M09/M11 A2981 RMK AC3 SLP138

CYQR;2013-03-11 08:00;CYQR 110800Z 14011KT 15SM FEW098 M09/M11 A2977 RMK AC2 SLP127

CYQR;2013-03-11 09:00;CYQR 110900Z 12009KT 15SM FEW100 M10/M12 A2975 RMK AC2 SLP116

CYQR;2013-03-11 10:00;CYQR 111000Z 30004KT 15SM FEW100 M13/M14 A2978 RMK AC2 SLP127

CYQR;2013-03-11 11:00;CYQR 111100Z 33010KT 15SM FEW050 M12/M13 A2979 RMK SC2 SLP128

CYQR;2013-03-11 12:00;CYQR 111200Z 30014KT 15SM BKN025 M10/M11 A2982 RMK SC6 SLP138

CYQR;2013-03-11 12:20;CYQR 111220Z 31016KT 12SM BKN006 OVC022 M07/ RMK SF5SC3

CYQR;2013-03-11 13:00;CYQR 111300Z 32012KT 12SM BKN006 OVC020 M07/M08 A2984 RMK SF6SC2 SLP144

CYQR;2013-03-11 13:30;CYQR 111330Z 31011KT 15SM FEW005 FEW016 FEW250 M08/ RMK SF1SC1CI1

CYQR;2013-03-11 14:00;CYQR 111400Z 32008KT 15SM FEW005 FEW020 FEW250 M10/M11 A2984 RMK SF1SC1CI0 SLP146

CYQR;2013-03-11 15:00;CYQR 111500Z 30009KT 15SM FEW020 FEW250 M10/M12 A2985 RMK SC1CI1 SLP150

CYQR;2013-03-11 16:00;CYQR 111600Z 29010G15KT 15SM FEW030 BKN250 M08/M11 A2986 RMK SC1CI0 SLP152

CYQR;2013-03-11 17:00;CYQR 111700Z 29013KT 15SM BKN250 M06/M09 A2986 RMK CI1 SLP153

CYQR;2013-03-11 18:00;CYQR 111800Z 30013KT 15SM FEW030 FEW120 BKN250 M05/M08 A2986 RMK SC1AC1CI2 SLP148

CYQR;2013-03-11 18:42;CYQR 111842Z 30016KT 12SM -SHSN OVC018 M04/ RMK SC8 CVCTV CLD EMBD

CYQR;2013-03-11 19:00;CYQR 111900Z 30016KT 4SM -SHSN BKN018 OVC037 M04/M07 A2985 RMK SC6SC2 CVCTV CLD EMBD SLP146

CYQR;2013-03-11 19:31;CYQR 111931Z 31019KT 5SM -SHSN DRSN BKN010 OVC043 M04/ RMK SC6SC2

CYQR;2013-03-11 20:00;CYQR 112000Z 31021G26KT 10SM -SHSN DRSN OVC009 M04/M05 A2985 RMK SC8 CVCTV CLD EMBD SLP146

CYQR;2013-03-11 20:36;CYQR 112036Z 32019G24KT 1 1/4SM -SN DRSN OVC009 M04/ RMK SN2SC6 CVCTV CLD EMBD

CYQR;2013-03-11 20:50;CYQR 112050Z 33021KT 2SM -SHSN DRSN BKN010 OVC025 M04/ RMK SC6SC2 CVCTV CLD EMBD

CYQR;2013-03-11 21:00;CYQR 112100Z 33020KT 5SM -SHSN DRSN BKN010 OVC025 M04/M05 A2986 RMK SC6SC2 CVCTV CLD EMBD SLP151

CYQR;2013-03-11 21:16;CYQR 112116Z 34021G26KT 2 1/2SM -SHSN DRSN BKN008 OVC032 M03/ RMK SC6SC2 CVCTV CLD EMBD

CYQR;2013-03-11 21:21;CYQR 112121Z 34024KT 1SM R13/P6000FT/D -SHSN DRSN BKN008 OVC032 M03/ RMK SN1SC5SC2

CYQR;2013-03-11 21:38;CYQR 112138Z 34030G35KT 1SM R13/2000FT/N -SN BLSN OVC006 M04/ RMK SN4SC4 VIS VRB 1/2-11/2 CVCTV CLD EMBD

CYQR;2013-03-11 21:53;CYQR 112153Z 33027G34KT 1SM R13/2600FT/N -SN BLSN OVC007 M05/ RMK SN3SC5 VIS VRB 1/2-11/2 CVCTV CLD EMBD

CYQR;2013-03-11 22:00;CYQR 112200Z 33028KT 2 1/2SM R13/2600V4000FT/U -SHSN BLSN OVC009 M05/M06 A2990 RMK SN2SC6 VIS S-NW 1 CVCTV CLD EMBD /S02/ SLP163

CYQR;2013-03-11 22:17;CYQR 112217Z 34028G33KT 3SM R13/3000V4500FT/D BLSN BKN009 OVC032 M05/ RMK SC7SC1 VIS S-NW 3/4

CYQR;2013-03-11 23:00;CYQR 112300Z 34028KT 3SM R13/3500V5500FT/N BLSN OVC009 M06/M08 A2995 RMK SC8 VIS S-NW 3/4 SLP178

CYQR;2013-03-11 23:20;CYQR 112320Z 34029KT 5SM -SHSN BLSN BKN010 OVC030 M07/ RMK SC7SC1 VIS S-NW 1

CYQR;2013-03-12 00:00;CYQR 120000Z 33024G32KT 6SM -SHSN BLSN BKN010 OVC030 M07/M09 A2998 RMK SC7SC1 VIS S-NW 1 SLP194

CYQR;2013-03-12 01:00;CYQR 120100Z 33019G25KT 2SM -SHSN BLSN OVC012 M07/M09 A3003 RMK SC8 CVCTV CLD EMBD SLP209

CYQR;2013-03-12 01:46;CYQR 120146Z 34025KT 3SM -SHSN BLSN SCT013 OVC025 M08/ RMK SC3SC5 CVCTV CLD EMBD

CYQR;2013-03-12 02:00;CYQR 120200Z 34024G29KT 3SM -SHSN BLSN SCT013 OVC025 M08/M09 A3006 RMK SC4SC4 CVCTV CLD EMBD SLP220

CYQR;2013-03-12 02:53;CYQR 120253Z 34021KT 8SM DRSN FEW016 SCT090 M09/ REBLSN RMK SC2AC2

CYQR;2013-03-12 03:00;CYQR 120300Z 34021KT 8SM DRSN FEW016 SCT090 M09/M11 A3009 REBLSN RMK SC2AC2 SLP233

CYQR;2013-03-12 04:00;CYQR 120400Z 33019KT 12SM DRSN FEW025 SCT090 M10/M12 A3012 RMK SC2AC2 SLP241

CYQR;2013-03-12 05:00;CYQR 120500Z 33018KT 15SM DRSN FEW025 M11/M13 A3013 RMK SC2 SLP246

CYQR;2013-03-12 06:00;CYQR 120600Z 33010KT 15SM FEW025 M12/M15 A3016 RMK SC1 SLP257

CYQR;2013-03-12 07:00;CYQR 120700Z 21003KT 15SM SKC M14/M16 A3019 RMK SLP266

CYQR;2013-03-12 08:00;CYQR 120800Z 32010KT 15SM SKC M15/M16 A3021 RMK SLP272

CYQR;2013-03-12 09:00;CYQR 120900Z 32005KT 15SM SKC M15/M17 A3023 RMK SLP282

CYQR;2013-03-12 10:00;CYQR 121000Z 30002KT 15SM FEW250 M16/M18 A3024 RMK CI1 SLP283

CYQR;2013-03-12 11:00;CYQR 121100Z 32005KT 15SM FEW250 M18/M19 A3024 RMK CI0 SLP285

CYQR;2013-03-12 12:00;CYQR 121200Z 34007KT 15SM FEW250 M18/M19 A3025 RMK CI0 SLP293

CYQR;2013-03-12 13:00;CYQR 121300Z 30006KT 15SM FEW250 M21/M22 A3026 RMK CI0 FROIN SLP297

CYQR;2013-03-12 14:00;CYQR 121400Z 00000KT 15SM FEW002 FEW200 M21/M22 A3027 RMK SF1CI1 SLP298

CYQR;2013-03-12 15:00;CYQR 121500Z 00000KT 15SM FEW005 M18/M19 A3027 RMK ST1 SLP301

CYQR;2013-03-12 16:00;CYQR 121600Z 24002KT 15SM FEW200 M18/M19 A3029 RMK CI1 SLP306

CYQR;2013-03-12 17:00;CYQR 121700Z 03002KT 15SM FEW230 M14/M15 A3028 RMK CI1 SLP303

CYQR;2013-03-12 18:00;CYQR 121800Z 23005KT 15SM FEW230 M13/M14 A3028 RMK CI0 SLP303

CYQR;2013-03-12 19:00;CYQR 121900Z 24004KT 15SM FEW230 M11/M13 A3028 RMK CI0 SLP303

CYQR;2013-03-12 20:00;CYQR 122000Z 19004KT 15SM SCT250 M09/M12 A3025 RMK CI0 SLP294

CYQR;2013-03-12 21:00;CYQR 122100Z 16006KT 15SM SCT250 M08/M11 A3023 RMK CI2 SLP285

CYQR;2013-03-12 22:00;CYQR 122200Z 16007KT 15SM SCT250 M09/M11 A3022 RMK CI1 SLP281

CYQR;2013-03-12 23:00;CYQR 122300Z 15010KT 15SM BKN250 M09/M11 A3020 RMK CI2 SLP275

CYQR;2013-03-13 00:00;CYQR 130000Z 14010KT 15SM BKN250 M10/M12 A3018 RMK CI2 SLP272

CYQR;2013-03-13 01:00;CYQR 130100Z 14014KT 15SM FEW100 BKN250 M11/M13 A3017 RMK AC1CI1 SLP268

CYQR;2013-03-13 02:00;CYQR 130200Z 15012KT 15SM FEW100 SCT250 M12/M13 A3018 RMK AC1CI0 SLP270

CYQR;2013-03-13 03:00;CYQR 130300Z 14014KT 15SM FEW100 BKN250 M12/M14 A3016 RMK AC2CI0 SLP265

CYQR;2013-03-13 04:00;CYQR 130400Z 14016KT 15SM FEW095 BKN250 M12/M14 A3014 RMK AC2CI0 SLP260

CYQR;2013-03-13 05:00;CYQR 130500Z 14018KT 15SM SCT083 M13/M14 A3011 RMK AC3 SLP249

CYQR;2013-03-13 06:00;CYQR 130600Z 15017KT 15SM SCT081 M13/M14 A3010 RMK AC3 SLP243

CYQR;2013-03-13 07:00;CYQR 130700Z 15016KT 15SM SCT040 BKN075 M12/M14 A3007 RMK SC3AC2 SLP233

CYQR;2013-03-13 08:00;CYQR 130800Z 15015KT 15SM BKN032 BKN066 M11/M13 A3007 RMK SC6AC2 SLP232

CYQR;2013-03-13 09:00;CYQR 130900Z 14021KT 15SM BKN037 OVC055 M10/M13 A3003 RMK SC6SC1 SLP211

CYQR;2013-03-13 10:00;CYQR 131000Z 14021KT 15SM DRSN BKN052 M11/M13 A2999 RMK SC5 SLP198

CYQR;2013-03-13 11:00;CYQR 131100Z 14021KT 15SM DRSN SCT050 M11/M14 A2996 RMK SC3 SLP191

CYQR;2013-03-13 12:00;CYQR 131200Z 14019KT 15SM DRSN BKN043 M11/M13 A2995 RMK SC5 SLP186

CYQR;2013-03-13 13:00;CYQR 131300Z 15018KT 15SM DRSN FEW043 BKN230 M10/M12 A2995 RMK SC1CI1 SLP185

CYQR;2013-03-13 14:00;CYQR 131400Z 15020G25KT 15SM DRSN FEW045 BKN230 M10/M12 A2992 RMK SC1CI1 SLP177

CYQR;2013-03-13 15:00;CYQR 131500Z 14020KT 15SM FEW045 FEW160 OVC230 M09/M12 A2990 RMK SC1AS2CI4 SLP168

CYQR;2013-03-13 16:00;CYQR 131600Z 15019G24KT 15SM DRSN FEW045 FEW160 OVC230 M08/M10 A2988 RMK SC1AS2CI3 SLP164

CYQR;2013-03-13 17:00;CYQR 131700Z 16016KT 15SM FEW220 BKN250 M06/M09 A2987 RMK CI2CI2 SLP160

CYQR;2013-03-13 18:00;CYQR 131800Z 15016KT 15SM FEW220 BKN250 M04/M07 A2985 RMK CI2CI6 SLP148

CYQR;2013-03-13 19:00;CYQR 131900Z 15014KT 15SM SCT120 BKN250 M03/M05 A2984 RMK AC3CI3 SLP146

CYQR;2013-03-13 20:00;CYQR 132000Z 14013KT 15SM BKN120 BKN250 M01/M04 A2983 RMK AC6CI0 SLP141

CYQR;2013-03-13 21:00;CYQR 132100Z 14011G16KT 15SM SCT120 M00/M03 A2981 RMK AC2 SLP131

CYQR;2013-03-13 22:00;CYQR 132200Z 14010KT 15SM FEW098 SCT250 01/M02 A2982 RMK AC1CI1 SLP134

CYQR;2013-03-13 23:00;CYQR 132300Z 15006KT 15SM FEW020 FEW100 FEW250 01/M02 A2984 RMK CU1AC1CI1 CU E SLP138

CYQR;2013-03-14 00:00;CYQR 140000Z 15004KT 15SM FEW020 00/M02 A2984 RMK CU1 SLP139

CYQR;2013-03-14 01:00;CYQR 140100Z 00000KT 15SM FEW100 FEW250 M01/M03 A2985 RMK AC1CI1 SLP143

CYQR;2013-03-14 02:00;CYQR 140200Z 32012KT 15SM FEW100 FEW250 M02/M03 A2988 RMK AC1CI1 SLP152

CYQR;2013-03-14 03:00;CYQR 140300Z 32010KT 15SM FEW100 FEW250 M03/M04 A2988 RMK AC1CI1 SLP156

CYQR;2013-03-14 04:00;CYQR 140400Z 29010KT 15SM FEW100 M05/M07 A2992 RMK AC1 SLP169

CYQR;2013-03-14 05:00;CYQR 140500Z 30011KT 15SM FEW100 BKN220 M05/M06 A2995 RMK AC1CI0 SLP176

CYQR;2013-03-14 06:00;CYQR 140600Z 31007KT 15SM FEW120 BKN220 M07/M08 A2997 RMK AC1CI1 SLP185

CYQR;2013-03-14 07:00;CYQR 140700Z 29006KT 15SM FEW120 BKN220 M09/M09 A2998 RMK AC1CI1 SLP189

CYQR;2013-03-14 08:00;CYQR 140800Z 02005KT 15SM FEW120 BKN220 M08/M09 A2996 RMK AC1CI1 SLP181

CYQR;2013-03-14 09:00;CYQR 140900Z 34005KT 3SM R13/2800V4000FT/N BR FEW009 BKN220 M10/M11 A2996 RMK SC2CI0 SLP183

CYQR;2013-03-14 09:07;CYQR 140907Z 33005KT 3SM R13/3000VP6000FT/U BR BKN009 BKN220 M10/ RMK SC5CI0

CYQR;2013-03-14 09:22;CYQR 140922Z 32005KT 3/4SM R13/2400FT/N BR OVC009 M10/ RMK FG2SF6

CYQR;2013-03-14 09:33;CYQR 140933Z 28005KT 3/4SM R13/3000VP6000FT/U BR BKN001 OVC009 M10/ RMK SF5SC3

CYQR;2013-03-14 10:00;CYQR 141000Z 27004KT 3/4SM R13/4000VP6000FT/D BR BKN001 OVC007 M10/M11 A3000 RMK SF5SC3 SLP196

CYQR;2013-03-14 10:10;CYQR 141010Z 32004KT 1SM R13/P6000FT/N BR OVC012 M11/ RMK FG1SC5

CYQR;2013-03-14 10:29;CYQR 141029Z 33003KT 3SM BR BKN012 M10/ RMK SC5

CYQR;2013-03-14 11:00;CYQR 141100Z 01002KT 6SM BR BKN012 M10/M11 A3000 RMK SC3 SLP193

CYQR;2013-03-14 12:00;CYQR 141200Z 32004KT 10SM FEW012 M11/M12 A3002 RMK SC2 SLP201

CYQR;2013-03-14 12:24;CYQR 141224Z 34006KT 10SM BKN004 M11/ RMK SC5

CYQR;2013-03-14 12:49;CYQR 141249Z 34004KT 10SM SCT002 SCT250 M12/ RMK SF2CI0

CYQR;2013-03-14 13:00;CYQR 141300Z 31005KT 10SM SCT004 SCT250 M12/M13 A3005 RMK SF2CI0 SLP210

CYQR;2013-03-14 13:14;CYQR 141314Z 34008KT 1SM R13/3500VP6000FT/D BR BKN001 BKN250 M12/ RMK SF5CI0 VIS S 1/2 FG

CYQR;2013-03-14 13:42;CYQR 141342Z 35008KT 3SM BR SCT002 BKN100 BKN250 M11/ RMK SF2AC1CI1

CYQR;2013-03-14 14:00;CYQR 141400Z 34010KT 6SM BR FEW002 FEW120 BKN250 M12/M13 A3007 RMK SF1AC1CI0 SLP219

CYQR;2013-03-14 15:00;CYQR 141500Z 02003KT 15SM FEW100 FEW250 M09/M10 A3009 RMK AC1CI1 SLP226

CYQR;2013-03-14 16:00;CYQR 141600Z 33008KT 15SM FEW100 SCT250 M10/M12 A3011 RMK AC1CI1 SLP234

CYQR;2013-03-14 17:00;CYQR 141700Z 34010KT 15SM SCT250 M09/M10 A3014 RMK CI2 SLP242

CYQR;2013-03-14 18:00;CYQR 141800Z 34011KT 15SM FEW100 SCT250 M08/M10 A3015 RMK AC1CI2 CONTRAILS SLP249

CYQR;2013-03-14 19:00;CYQR 141900Z 03012KT 15SM FEW100 BKN250 M05/M08 A3014 RMK AC1CI2 SLP248

CYQR;2013-03-14 20:00;CYQR 142000Z 33012KT 15SM SCT025 BKN100 OVC250 M05/M08 A3015 RMK SC2AC2CI2 SLP251

CYQR;2013-03-14 21:00;CYQR 142100Z 01009KT 15SM SCT020 BKN100 OVC250 M04/M08 A3017 RMK SC2AC2CI2 SLP257

CYQR;2013-03-14 22:00;CYQR 142200Z 03012KT 15SM BKN020 BKN100 OVC230 M04/M08 A3017 RMK SC4AC2CI1 SLP258

CYQR;2013-03-14 23:00;CYQR 142300Z 03012KT 15SM BKN020 OVC065 M04/M08 A3019 RMK SC6SC2 SLP263

CYQR;2013-03-15 00:00;CYQR 150000Z 04011KT 15SM BKN018 OVC050 M05/M08 A3018 RMK SC6SC2 SLP262

CYQR;2013-03-15 01:00;CYQR 150100Z 05010KT 15SM BKN018 OVC044 M05/M08 A3017 RMK SC6SC2 SLP258

CYQR;2013-03-15 01:25;CYQR 150125Z 06008KT 12SM -SN OVC016 M06/ RMK SC8

CYQR;2013-03-15 02:00;CYQR 150200Z 05009KT 10SM -SN FEW018 OVC046 M06/M08 A3016 RMK SC1SC7 SLP255

CYQR;2013-03-15 02:26;CYQR 150226Z 05008KT 2SM -SN BKN017 OVC046 M06/ RMK SC5SC3

CYQR;2013-03-15 02:43;CYQR 150243Z 04009KT 2SM -SN BKN013 OVC046 M06/ RMK SC6SC2

CYQR;2013-03-15 03:00;CYQR 150300Z 04011KT 2SM -SN BKN013 OVC046 M07/M08 A3015 RMK SC7SC1 SLP253

CYQR;2013-03-15 03:21;CYQR 150321Z 06012KT 1 1/2SM -SN DRSN VV010 M07/ RMK SN8

CYQR;2013-03-15 04:00;CYQR 150400Z 07010KT 1 1/2SM -SN DRSN VV014 M07/M09 A3015 RMK SN8 SLP250

CYQR;2013-03-15 04:21;CYQR 150421Z 05009G15KT 1SM R13/P6000FT/D -SN DRSN VV008 M08/ RMK SN8

CYQR;2013-03-15 05:00;CYQR 150500Z 07011KT 1 1/4SM -SN DRSN VV006 M08/M10 A3013 RMK SN8 /S02/ SLP246

CYQR;2013-03-15 05:19;CYQR 150519Z 07007KT 1 1/2SM -SN DRSN VV010 M08/ RMK SN8

CYQR;2013-03-15 05:31;CYQR 150531Z 08008KT 1 1/4SM -SN VV008 M08/ RMK SN8

CYQR;2013-03-15 06:00;CYQR 150600Z 07009KT 1SM R13/P6000FT/U -SN VV007 M08/M10 A3015 RMK SN8 /S03/ SLP249

CYQR;2013-03-15 06:34;CYQR 150634Z 08009KT 1 1/2SM -SN DRSN VV007 M08/ RMK SN8

CYQR;2013-03-15 07:00;CYQR 150700Z 09016KT 1 3/4SM -SN DRSN VV013 M08/M10 A3012 RMK SN8 SLP242

CYQR;2013-03-15 07:19;CYQR 150719Z 09013KT 2SM -SN DRSN OVC013 M08/ RMK SN4SC4

CYQR;2013-03-15 07:31;CYQR 150731Z 08013G20KT 3SM -SN DRSN OVC013 M08/ RMK SC8

CYQR;2013-03-15 08:00;CYQR 150800Z 09015KT 2 1/2SM -SN DRSN BKN019 OVC067 M09/M11 A3009 RMK SC6AC2 /S01/ SLP232

CYQR;2013-03-15 09:00;CYQR 150900Z 10018KT 2SM -SN DRSN OVC020 M09/M11 A3008 RMK SC8 SLP225

CYQR;2013-03-15 09:17;CYQR 150917Z 10018KT 1 1/2SM -SN DRSN VV014 M09/ RMK SN8

CYQR;2013-03-15 09:26;CYQR 150926Z 10018KT 3/4SM R13/P6000FT/D -SN DRSN VV006 M09/ RMK SN8

CYQR;2013-03-15 09:41;CYQR 150941Z 10019KT 5/8SM R13/P6000FT/D -SN DRSN VV004 M09/ RMK SN8

CYQR;2013-03-15 10:00;CYQR 151000Z 11016G22KT 3/4SM R13/P6000FT/N -SN BLSN VV004 M09/M11 A3007 RMK SN8 SLP221

CYQR;2013-03-15 10:27;CYQR 151027Z 11016G24KT 1/2SM R13/P6000FT/D -SN BLSN VV004 M10/ RMK SN8

CYQR;2013-03-15 10:32;CYQR 151032Z 11018KT 3/4SM R13/P6000FT/U -SN BLSN VV004 M10/ RMK SN8

CYQR;2013-03-15 10:44;CYQR 151044Z 11018KT 1 1/4SM -SN BLSN VV004 M10/ RMK SN8

CYQR;2013-03-15 11:00;CYQR 151100Z 11018KT 1SM R13/P6000FT/U -SN BLSN VV004 M10/M12 A3005 RMK SN8 /S02/ SLP214

CYQR;2013-03-15 11:14;CYQR 151114Z 11018KT 1SM R13/P6000FT/D -SN BLSN VV007 M10/ RMK SN8

CYQR;2013-03-15 11:21;CYQR 151121Z 11017KT 3/4SM R13/P6000FT/D -SN BLSN VV006 M10/ RMK SN8

CYQR;2013-03-15 11:33;CYQR 151133Z 11020KT 1SM R13/P6000FT/N -SN BLSN VV006 M11/ RMK SN8

CYQR;2013-03-15 12:00;CYQR 151200Z 10016G22KT 2SM -SN BLSN OVC008 M11/M13 A3003 RMK SC8 SLP208

CYQR;2013-03-15 12:20;CYQR 151220Z 10016KT 1 1/2SM -SN BLSN VV011 M11/ RMK SN8

CYQR;2013-03-15 13:05;CYQR 151305Z 10015KT 3/4SM R13/P6000FT/D -SN BLSN VV007 M12/ RMK SN8

CYQR;2013-03-15 13:31;CYQR 151331Z 10019KT 5/8SM R13/P6000FT/D -SN BLSN VV005 M13/ RMK SN8

CYQR;2013-03-15 14:00;CYQR 151400Z 10019G25KT 5/8SM R13/4000VP6000FT/D -SN BLSN VV004 M13/M15 A3002 RMK SN8 SLP205

CYQR;2013-03-15 14:25;CYQR 151425Z 10015G20KT 3/4SM R13/5000FT/U -SN BLSN VV003 M13/ RMK SN8

CYQR;2013-03-15 15:00;CYQR 151500Z 11018KT 3/4SM R13/6000FT/U -SN BLSN VV008 M14/M16 A3002 RMK SN8 SLP211

CYQR;2013-03-15 15:34;CYQR 151534Z 10017G22KT 1SM R13/6000FT/U -SN BLSN VV011 M14/ RMK SN8

CYQR;2013-03-15 16:00;CYQR 151600Z 10019KT 1SM R13/P6000FT/N -SN BLSN VV011 M14/M16 A3003 RMK SN8 SLP213

CYQR;2013-03-15 16:08;CYQR 151608Z 11017G22KT 5/8SM R13/3000V6000FT/D -SN BLSN VV009 M14/ RMK SN8

CYQR;2013-03-15 16:33;CYQR 151633Z 11015G24KT 1 1/2SM -SN BLSN OVC010 M14/ RMK SN3SC5

CYQR;2013-03-15 17:00;CYQR 151700Z 12017G22KT 2SM -SN BLSN OVC014 M14/M16 A3006 RMK SC8 SLP222

CYQR;2013-03-15 18:00;CYQR 151800Z 11016KT 2 1/2SM -SN BLSN OVC014 M14/M16 A3007 RMK SC8 SLP228

CYQR;2013-03-15 19:00;CYQR 151900Z 11015KT 2 1/2SM -SN BLSN BKN014 OVC020 M14/M16 A3008 RMK SC6SC2 SLP230

CYQR;2013-03-15 19:32;CYQR 151932Z 10015KT 4SM -SN BLSN FEW021 OVC250 M14/ RMK SC2CI0 VIS S-SW 2-3

CYQR;2013-03-15 20:00;CYQR 152000Z 10012KT 4SM -SN DRSN FEW021 OVC250 M13/M16 A3009 REBLSN RMK SC1CI6 SLP235

CYQR;2013-03-15 21:00;CYQR 152100Z 10011KT 4SM -SN FEW017 OVC250 M13/M16 A3009 RMK SC2CI1 OCNL BLSN S SLP235

CYQR;2013-03-15 22:00;CYQR 152200Z 10007KT 15SM BKN100 BKN250 M14/M17 A3012 RMK AC3CI1 SLP246

CYQR;2013-03-15 23:00;CYQR 152300Z 12003KT 15SM FEW075 FEW250 M13/M17 A3013 RMK AC1CI1 SLP249

CYQR;2013-03-16 00:00;CYQR 160000Z 15004KT 15SM FEW075 FEW250 M15/M18 A3013 RMK AC1CI1 SLP252

CYQR;2013-03-16 01:00;CYQR 160100Z 18005KT 15SM FEW075 FEW250 M17/M20 A3015 RMK AC1CI1 SLP256

CYQR;2013-03-16 02:00;CYQR 160200Z 18002KT 15SM FEW075 M17/M20 A3016 RMK AC1 SLP260

CYQR;2013-03-16 02:29;CYQR 160229Z 19002KT 15SM -SN SCT019 M18/ RMK SC4

CYQR;2013-03-16 03:00;CYQR 160300Z 00000KT 15SM -SN BKN019 M18/M21 A3017 RMK SC4 SLP270

CYQR;2013-03-16 04:00;CYQR 160400Z 00000KT 5SM -SN BKN016 M18/M21 A3017 RMK SC3 SLP271

CYQR;2013-03-16 05:00;CYQR 160500Z 27002KT 15SM SCT037 M19/M22 A3017 RMK SC2 SLP271

CYQR;2013-03-16 05:07;CYQR 160507Z 24003KT 12SM SCT015 M20/ RMK SC2 IC

CYQR;2013-03-16 06:00;CYQR 160600Z 28005KT 15SM FEW015 M21/M24 A3017 RMK SC1 IC SLP271

CYQR;2013-03-16 06:34;CYQR 160634Z 28007KT 6SM -SN FEW028 OVC051 M20/ RMK SC2SC6

CYQR;2013-03-16 07:00;CYQR 160700Z 29007KT 4SM -SN OVC039 M19/M23 A3017 RMK SC8 SLP273

CYQR;2013-03-16 08:00;CYQR 160800Z 29005KT 10SM -SN OVC046 M19/M22 A3019 RMK SC8 SLP277

CYQR;2013-03-16 08:40;CYQR 160840Z 34010KT 15SM FEW046 M20/ RMK SC1

CYQR;2013-03-16 09:00;CYQR 160900Z 34008KT 15SM SKC M21/M25 A3019 RMK SLP278

CYQR;2013-03-16 10:00;CYQR 161000Z 34009KT 15SM SKC M23/M27 A3018 RMK SLP276

CYQR;2013-03-16 11:00;CYQR 161100Z 35013KT 15SM FEW012 M22/M26 A3018 RMK SC1 SLP275

CYQR;2013-03-16 11:43;CYQR 161143Z 36010KT 15SM SCT002 M21/ RMK SF1

CYQR;2013-03-16 12:00;CYQR 161200Z 36008KT 15SM FEW002 M22/M25 A3018 RMK SF1 SLP278

CYQR;2013-03-16 13:00;CYQR 161300Z 34007KT 15SM FEW300 M24/M28 A3019 RMK CI1 SLP280

CYQR;2013-03-16 14:00;CYQR 161400Z 33005KT 15SM FEW085 M25/M29 A3020 RMK AC1 SLP282

CYQR;2013-03-16 15:00;CYQR 161500Z 26002KT 15SM FEW085 M24/M27 A3021 RMK AC2 SLP291

CYQR;2013-03-16 16:00;CYQR 161600Z 34005KT 15SM FEW089 BKN250 M22/M25 A3021 RMK AC1CI2 SLP293

CYQR;2013-03-16 17:00;CYQR 161700Z 33007KT 15SM FEW089 SCT250 M20/M23 A3022 RMK AC2CI1 SLP295

CYQR;2013-03-16 18:00;CYQR 161800Z 31005KT 15SM FEW071 BKN250 M18/M21 A3023 RMK AC1CI2 SLP295

CYQR;2013-03-16 19:00;CYQR 161900Z 33009KT 15SM FEW100 FEW250 M18/M20 A3022 RMK AC2CI1 SLP292

CYQR;2013-03-16 20:00;CYQR 162000Z 32007KT 15SM BKN049 BKN100 M16/M20 A3020 RMK SC6AC2 SLP285

CYQR;2013-03-16 21:00;CYQR 162100Z 23005KT 15SM FEW020 OVC058 M16/M19 A3018 RMK SC2SC6 SLP278

CYQR;2013-03-16 22:00;CYQR 162200Z 15005KT 15SM FEW020 OVC052 M16/M20 A3016 RMK SC1SC7 SLP271

CYQR;2013-03-16 23:00;CYQR 162300Z 15008KT 15SM FEW020 BKN052 M16/M21 A3014 RMK SC1SC6 SLP265

CYQR;2013-03-17 00:00;CYQR 170000Z 13009KT 15SM BKN052 M16/M20 A3013 RMK SC7 SLP261

CYQR;2013-03-17 01:00;CYQR 170100Z 13013KT 15SM OVC048 M16/M22 A3010 RMK SC8 SLP252

CYQR;2013-03-17 02:00;CYQR 170200Z 15013KT 15SM OVC048 M16/M20 A3009 RMK SC8 SLP247

CYQR;2013-03-17 03:00;CYQR 170300Z 15015KT 15SM OVC044 M16/M21 A3006 RMK SC8 SLP239

CYQR;2013-03-17 04:00;CYQR 170400Z 14016KT 15SM OVC039 M16/M20 A3002 RMK SC8 SLP227

CYQR;2013-03-17 05:00;CYQR 170500Z 14015KT 15SM OVC033 M15/M20 A2998 RMK SC8 SLP212

CYQR;2013-03-17 06:00;CYQR 170600Z 14017G22KT 15SM DRSN OVC033 M15/M19 A2994 RMK SC8 SLP192

CYQR;2013-03-17 07:00;CYQR 170700Z 15017G26KT 15SM DRSN OVC035 M15/M18 A2991 RMK SC8 SLP181

CYQR;2013-03-17 07:25;CYQR 170725Z 15019G26KT 8SM -SN DRSN OVC035 M15/ RMK SC8

CYQR;2013-03-17 08:00;CYQR 170800Z 15019G24KT 2 1/2SM -SN DRSN OVC029 M15/M18 A2986 RMK SC8 SLP168

CYQR;2013-03-17 08:14;CYQR 170814Z 15016G21KT 10SM -SN DRSN OVC029 M15/ RMK SC8

CYQR;2013-03-17 08:26;CYQR 170826Z 14015G21KT 2SM -SN DRSN OVC029 M15/ RMK SC8

CYQR;2013-03-17 09:00;CYQR 170900Z 14020KT 2SM -SN BLSN OVC027 M15/M18 A2982 RMK SC8 SLP149

CYQR;2013-03-17 09:18;CYQR 170918Z 14021G27KT 3SM -SN BLSN OVC021 M15/ RMK SC8 VIS VRB 2-4

CYQR;2013-03-17 10:00;CYQR 171000Z 13023KT 3SM -SN BLSN OVC017 M15/M18 A2976 RMK SC8 VIS VRB 2-4 SLP131

CYQR;2013-03-17 10:39;CYQR 171039Z 13017G24KT 3/4SM R13/P6000FT/D -SN BLSN VV004 M15/ RMK SN8

CYQR;2013-03-17 11:00;CYQR 171100Z 14020KT 1SM R13/P6000FT/U -SN BLSN VV004 M15/M18 A2972 RMK SN8 SLP118

CYQR;2013-03-17 11:13;CYQR 171113Z 14022KT 3/4SM R13/P6000FT/D -SN BLSN VV005 M15/ RMK SN8

CYQR;2013-03-17 11:35;CYQR 171135Z 13021G26KT 1SM R13/P6000FT/U -SN BLSN VV005 M15/ RMK SN8 VIS VRB 3/4-11/4

CYQR;2013-03-17 12:00;CYQR 171200Z 13024G29KT 1 1/2SM -SN BLSN VV006 M15/M18 A2968 RMK SN8 /S01/ SLP099

CYQR;2013-03-17 12:13;CYQR 171213Z 13019G25KT 5/8SM R13/P6000FT/D -SN BLSN VV006 M15/ RMK SN8

CYQR;2013-03-17 12:28;CYQR 171228Z 14017G25KT 1SM R13/P6000FT/U -SN BLSN VV005 M15/ RMK SN8 VIS VRB 3/4-11/4

CYQR;2013-03-17 13:00;CYQR 171300Z 13017G25KT 1SM R13/P6000FT/D -SN BLSN VV006 M14/M17 A2967 RMK SN8 VIS VRB 3/4-11/4 SLP096

CYQR;2013-03-17 13:54;CYQR 171354Z 13019KT 3/4SM R13/5000FT/D -SN BLSN VV003 M14/ RMK SN8 VIS VRB 1/2-1

CYQR;2013-03-17 14:00;CYQR 171400Z 13018KT 3/8SM R13/3000V4500FT/D SN BLSN VV002 M14/M17 A2965 RMK SN8 VIS VRB 1/4-1/2 SLP089

CYQR;2013-03-17 14:20;CYQR 171420Z 13016G22KT 3/4SM R13/5500FT/U -SN BLSN VV002 M14/ RESN RMK SN8 VIS VRB 1/2-1

CYQR;2013-03-17 14:50;CYQR 171450Z 12016KT 1 1/4SM -SN BLSN VV004 M14/ RESN RMK SN8 VIS VRB 1-11/2

CYQR;2013-03-17 15:00;CYQR 171500Z 13018G24KT 1SM R13/4000VP6000FT/D -SN BLSN VV008 M14/M17 A2963 RESN RMK SN8 VIS VRB 3/4-11/4 SLP082

CYQR;2013-03-17 15:19;CYQR 171519Z 13018KT 1 1/2SM R13/3500VP6000FT/D -SN BLSN OVC008 M14/ RMK BLSN2SF6 VIS VRB 1-2

CYQR;2013-03-17 15:38;CYQR 171538Z 13020KT 2SM -SN BLSN BKN014 OVC043 M13/ RMK SC6SC2 VIS VRB 11/2-21/2

CYQR;2013-03-17 16:00;CYQR 171600Z 12019KT 2 1/2SM -SN BLSN SCT014 BKN026 OVC041 M13/M16 A2961 RMK SC3SC3SC2 VIS VRB 2-3 SLP076

CYQR;2013-03-17 16:48;CYQR 171648Z 12017G22KT 3SM -SN BLSN OVC024 M13/ RMK SC8

CYQR;2013-03-17 17:00;CYQR 171700Z 12020KT 3SM -SN BLSN OVC024 M13/M15 A2960 RMK SC8 SLP071

CYQR;2013-03-17 17:46;CYQR 171746Z 12020KT 2 1/2SM -SN BLSN BKN012 OVC041 M12/ RMK SC6SC2

CYQR;2013-03-17 18:00;CYQR 171800Z 12019KT 2 1/2SM -SN BLSN BKN008 OVC041 M12/M14 A2959 RMK SC6SC2 SLP066

CYQR;2013-03-17 19:00;CYQR 171900Z 12014KT 1 1/2SM -SN BLSN BKN009 OVC039 M12/M14 A2959 RMK SN2SC5SC2 VIS VRB 1-2 SLP067

CYQR;2013-03-17 19:45;CYQR 171945Z 10010KT 1SM R13/6000FT/D -SN BLSN OVC009 M11/ RMK SN4SC4

CYQR;2013-03-17 20:00;CYQR 172000Z 06007KT 1SM R13/4500FT/N -SN DRSN OVC006 M11/M13 A2961 RMK SN4SC4 VIS VRB 3/4-11/4 SLP074

CYQR;2013-03-17 21:00;CYQR 172100Z 04007KT 1/2SM R13/4000FT/D SN DRSN VV003 M11/M13 A2963 RMK SN8 VIS VRB 1/4-3/4 SLP078

CYQR;2013-03-17 21:27;CYQR 172127Z 04012KT 3/4SM R13/4000FT/U -SN DRSN OVC006 M12/ RESN RMK SN2SC6 VIS VRB 1/2-1

CYQR;2013-03-17 22:00;CYQR 172200Z 02013KT 3/4SM R13/3500FT/N -SN DRSN OVC005 M12/M14 A2965 RESN RMK SN3SC5 VIS VRB 1/2-1 SLP085

CYQR;2013-03-17 23:00;CYQR 172300Z 03010KT 3/4SM R13/5500FT/N -SN DRSN OVC009 M13/M15 A2968 RESN RMK SN3SC5 VIS VRB 1/2-1 SLP094

CYQR;2013-03-17 23:43;CYQR 172343Z 01009KT 2SM -SN DRSN BKN011 OVC034 M13/ RMK SN1SC6SC2 VIS VRB 11/2-21/2

CYQR;2013-03-18 00:00;CYQR 180000Z 36011KT 2SM -SN DRSN BKN008 OVC034 M13/M15 A2971 RMK SN1SC6SC1 VIS VRB 11/2-21/2 /S01/ SLP108

CYQR;2013-03-18 00:13;CYQR 180013Z 36010KT 1 1/4SM -SN DRSN OVC008 M13/ RMK SN3SC5 VIS VRB 1-11/2

CYQR;2013-03-18 00:45;CYQR 180045Z 01013KT 1 1/2SM -SN DRSN BKN006 OVC040 M13/ RMK SN2SC6SC1 VIS VRB 1-2

CYQR;2013-03-18 01:00;CYQR 180100Z 01013KT 3SM -SN DRSN BKN008 OVC040 M14/M16 A2973 RMK SC6SC2 SLP115

CYQR;2013-03-18 01:41;CYQR 180141Z 36016G22KT 5SM -SN DRSN SCT008 OVC014 M14/ RMK SC3SC5

CYQR;2013-03-18 02:00;CYQR 180200Z 35018KT 12SM -SN DRSN FEW008 OVC016 M14/M16 A2976 RMK SC1SC7 SLP126

CYQR;2013-03-18 03:00;CYQR 180300Z 35020G26KT 7SM -SN DRSN OVC047 M15/M17 A2979 RMK SC8 SLP136

CYQR;2013-03-18 04:00;CYQR 180400Z 34019G24KT 12SM -SN DRSN OVC068 M16/M18 A2981 RMK AC7 SLP144

CYQR;2013-03-18 05:00;CYQR 180500Z 34017KT 10SM -SN DRSN SCT055 OVC068 M17/M18 A2984 RMK SC3AC5 SLP152

CYQR;2013-03-18 06:00;CYQR 180600Z 33017KT 4SM IC DRSN SCT048 OVC068 M17/M19 A2984 RMK SC3AC3 SLP155

CYQR;2013-03-18 07:00;CYQR 180700Z 33015KT 6SM -SN DRSN SCT019 OVC067 M18/M19 A2986 RMK SC3AC3 SLP160

CYQR;2013-03-18 07:13;CYQR 180713Z 32013KT 12SM DRSN BKN019 OVC082 M18/ RMK SC5AC2 IC

CYQR;2013-03-18 08:00;CYQR 180800Z 32016KT 10SM -SN DRSN BKN015 M17/M19 A2987 RMK SC6 SLP165

CYQR;2013-03-18 09:00;CYQR 180900Z 32012KT 6SM -SN DRSN OVC015 M17/M18 A2989 RMK SC8 SLP171

CYQR;2013-03-18 09:29;CYQR 180929Z 32010KT 3SM IC DRSN FEW002 M18/ RMK SF2

CYQR;2013-03-18 10:00;CYQR 181000Z 32013KT 3SM IC DRSN SKC M19/M20 A2990 RMK SLP173

CYQR;2013-03-18 11:00;CYQR 181100Z 32008KT 10SM SKC M21/M22 A2991 RMK IC SLP177

CYQR;2013-03-18 12:00;CYQR 181200Z 32009KT 15SM SKC M23/M24 A2992 RMK SLP186

CYQR;2013-03-18 13:00;CYQR 181300Z 30008KT 15SM FEW220 M25/M26 A2992 RMK CI1 SLP187

CYQR;2013-03-18 14:00;CYQR 181400Z 30006KT 15SM FEW220 M25/M31 A2993 RMK CI1 SLP189

CYQR;2013-03-18 15:00;CYQR 181500Z 29003KT 15SM FEW240 M23/M28 A2994 RMK CI1 SLP195

CYQR;2013-03-18 16:00;CYQR 181600Z 27005KT 15SM FEW240 M23/M27 A2994 RMK CI1 SLP196

CYQR;2013-03-18 17:00;CYQR 181700Z 27007KT 15SM FEW240 M20/M25 A2994 RMK CI1 SLP197

CYQR;2013-03-18 18:00;CYQR 181800Z CCA 28006KT 15SM FEW200 M19/M23 A2994 RMK CI1 SLP193

CYQR;2013-03-18 21:00;CYQR 182100Z 18002KT 15SM FEW120 FEW250 M14/M19 A2988 RMK AC1CI1 SLP170

CYQR;2013-03-19 00:00;CYQR 190000Z 13005KT 15SM FEW090 BKN250 M14/M18 A2991 RMK AC1CI3 SLP185

CYQR;2013-03-19 01:00;CYQR 190100Z 13005KT 15SM FEW090 BKN250 M16/M20 A2992 RMK AC1CI2 SLP187

CYQR;2013-03-19 08:00;CYQR 190800Z 35010KT 15SM FEW051 M20/M23 A3004 RMK SC2 SLP225

CYQR;2013-03-19 09:00;CYQR 190900Z 33008KT 15SM SCT048 OVC100 M21/M24 A3007 RMK SC4AC3 SLP238

CYQR;2013-03-19 09:11;CYQR 190911Z 32006KT 15SM -SN BKN048 OVC100 M21/ RMK SC6AC2

CYQR;2013-03-19 09:42;CYQR 190942Z 30007KT 15SM SCT051 M21/ RMK SC3

CYQR;2013-03-19 10:00;CYQR 191000Z 31010KT 15SM SCT025 BKN063 M22/M25 A3009 RMK SC3SC3 SLP245

CYQR;2013-03-19 10:06;CYQR 191006Z 31011KT 12SM -SN SCT013 OVC063 M21/ RMK SC4SC3

CYQR;2013-03-19 10:16;CYQR 191016Z 31011KT 2SM -SN BKN040 OVC063 M21/ RMK SC6SC2

CYQR;2013-03-19 10:41;CYQR 191041Z 31008KT 8SM -SN BKN043 OVC063 M21/ RMK SC6SC2

CYQR;2013-03-19 11:00;CYQR 191100Z 30007KT 10SM -SN SCT043 OVC063 M21/M24 A3012 RMK SC3SC4 SLP253

CYQR;2013-03-19 12:00;CYQR 191200Z 30007KT 15SM FEW023 M22/M26 A3015 RMK SC2 SLP266

CYQR;2013-03-19 13:00;CYQR 191300Z 31004KT 15SM FEW060 FEW100 M24/M28 A3018 RMK SC1AC1 SLP275

CYQR;2013-03-19 14:00;CYQR 191400Z 27007KT 15SM BKN044 M25/M29 A3021 RMK SC5 SLP287

CYQR;2013-03-19 15:00;CYQR 191500Z 29006KT 15SM FEW045 M23/M27 A3024 RMK SC1 SLP299

CYQR;2013-03-19 16:00;CYQR 191600Z 00000KT 15SM FEW250 M22/M25 A3026 RMK CI1 SLP307

CYQR;2013-03-19 17:00;CYQR 191700Z 28007KT 15SM FEW250 M20/M24 A3028 RMK CI1 SLP314

CYQR;2013-03-19 18:00;CYQR 191800Z 26004KT 15SM SKC M18/M22 A3030 RMK SLP316

CYQR;2013-03-19 19:00;CYQR 191900Z 29006KT 15SM SKC M17/M21 A3031 RMK SLP318

CYQR;2013-03-19 20:00;CYQR 192000Z 26007KT 15SM FEW040 M15/M19 A3032 RMK SC1 SLP322

CYQR;2013-03-19 21:00;CYQR 192100Z 30007KT 15SM FEW040 M13/M18 A3031 RMK SC1 SLP321

CYQR;2013-03-19 22:00;CYQR 192200Z 26004KT 15SM FEW040 M12/M16 A3032 RMK SC1 SLP325

CYQR;2013-03-19 23:00;CYQR 192300Z 27007KT 15SM FEW070 M13/M17 A3033 RMK AC1 SLP327

CYQR;2013-03-20 00:00;CYQR 200000Z 26005KT 15SM FEW070 M14/M18 A3033 RMK AC1 SLP327

CYQR;2013-03-20 01:00;CYQR 200100Z 00000KT 15SM FEW070 FEW220 M17/M21 A3032 RMK AC1CI0 SLP325

CYQR;2013-03-20 02:00;CYQR 200200Z 16004KT 15SM FEW070 FEW220 M18/M20 A3032 RMK AC1CI1 SLP325

CYQR;2013-03-20 03:00;CYQR 200300Z 13007KT 15SM SKC M18/M21 A3031 RMK SLP327

CYQR;2013-03-20 04:00;CYQR 200400Z 13008KT 15SM SKC M19/M22 A3031 RMK SLP328

CYQR;2013-03-20 05:00;CYQR 200500Z 16006KT 15SM SKC M19/M21 A3031 RMK SLP328

CYQR;2013-03-20 06:00;CYQR 200600Z 12008KT 15SM SKC M21/M24 A3030 RMK SLP321

CYQR;2013-03-20 07:00;CYQR 200700Z 12009KT 15SM SKC M22/M25 A3028 RMK SLP315

CYQR;2013-03-20 08:00;CYQR 200800Z 12010KT 15SM FEW220 M21/M24 A3027 RMK CI1 SLP312

CYQR;2013-03-20 09:00;CYQR 200900Z 13010KT 15SM FEW220 M20/M24 A3025 RMK CI0 SLP300

CYQR;2013-03-20 09:43;CYQR 200943Z 13012KT 8SM FEW001 FEW009 M20/ RMK ST0ST0

CYQR;2013-03-20 10:00;CYQR 201000Z 13012KT 6SM BR FEW009 M20/M23 A3023 RMK ST1 VIS W 4 SLP294

CYQR;2013-03-20 10:15;CYQR 201015Z 13012KT 2 1/2SM BR SKC M20/ RMK FG2

CYQR;2013-03-20 11:00;CYQR 201100Z 13013KT 2SM BR SKC M20/M23 A3022 RMK FG2 IC SLP291

CYQR;2013-03-20 12:00;CYQR 201200Z 13014KT 1 1/2SM DRSN BR SKC M18/M21 A3020 RMK FG2 IC FROIN SLP282

CYQR;2013-03-20 12:41;CYQR 201241Z 13016KT 3/4SM R13/P6000FT/N DRSN BR SKC M19/ RMK FG2 IC

CYQR;2013-03-20 13:00;CYQR 201300Z 13016KT 3/4SM R13/P6000FT/D DRSN BR BKN250 M19/M22 A3019 RMK FG2CI0 IC SLP276

CYQR;2013-03-20 14:00;CYQR 201400Z 13016KT 1SM R13/P6000FT/D DRSN BR FEW150 BKN250 M19/M22 A3017 RMK FG2AC1CI0 IC SLP271

CYQR;2013-03-20 15:00;CYQR 201500Z 14017KT 2SM DRSN BR FEW001 FEW150 BKN250 M19/M22 A3017 RMK SF1AC1CI2 SLP273

CYQR;2013-03-20 16:00;CYQR 201600Z 14023KT 3SM DRSN BR FEW150 BKN250 M16/M19 A3014 RMK AC1CI1 OCNL BLSN SLP264

CYQR;2013-03-20 17:00;CYQR 201700Z 13020G26KT 3SM DRSN BR FEW150 BKN250 M15/M17 A3012 RMK AC1CI2 OCNL BLSN SLP259

CYQR;2013-03-20 18:00;CYQR 201800Z 14028KT 3SM BLSN FEW150 BKN250 M14/M16 A3011 RMK AC1CI2 SLP251

CYQR;2013-03-20 19:00;CYQR 201900Z 14021G29KT 5SM BLSN FEW150 BKN250 M13/M15 A3010 RMK AC1CI2 SLP248

CYQR;2013-03-20 20:00;CYQR 202000Z 14027G32KT 5SM BLSN FEW150 BKN250 M12/M15 A3006 RMK AC1CI2 SLP236

CYQR;2013-03-20 21:00;CYQR 202100Z 13025G32KT 6SM BLSN FEW150 BKN250 M11/M14 A3002 RMK AC1CI2 SLP217

CYQR;2013-03-20 22:00;CYQR 202200Z 13025G32KT 6SM BLSN SCT150 BKN250 M11/M14 A2999 RMK AC2CI1 VIS S-NW 11/2 SLP208

CYQR;2013-03-20 23:00;CYQR 202300Z 13030KT 6SM R13/4000VP6000FT/D BLSN BKN150 BKN250 M12/M14 A2998 RMK AC2CI2 VIS S-NW 11/2 SLP204

CYQR;2013-03-21 00:00;CYQR 210000Z 13028G33KT 6SM BLSN BKN150 OVC250 M12/M15 A2997 RMK AC2CI3 VIS S-NW 11/2 SLP200

CYQR;2013-03-21 01:00;CYQR 210100Z 13028G36KT 6SM BLSN BKN150 BKN250 M13/M15 A2995 RMK AC6CI2 VIS S-NW 11/2 SLP194

CYQR;2013-03-21 02:00;CYQR 210200Z 14030KT 6SM BLSN BKN150 BKN250 M13/M15 A2994 RMK AC5CI2 VIS S-NW 3 SLP189

CYQR;2013-03-21 03:00;CYQR 210300Z 14029KT 6SM BLSN OVC100 M13/M15 A2993 RMK AC8 SLP188

CYQR;2013-03-21 04:00;CYQR 210400Z 14026G35KT 6SM BLSN OVC091 M13/M15 A2994 RMK AC8 SLP191

CYQR;2013-03-21 05:00;CYQR 210500Z 14027G35KT 6SM BLSN OVC091 M13/M16 A2991 RMK AC8 SLP182

CYQR;2013-03-21 06:00;CYQR 210600Z 13026G35KT 6SM BLSN OVC100 M13/M16 A2989 RMK AC8 SLP171

CYQR;2013-03-21 07:00;CYQR 210700Z 13027G33KT 6SM BLSN OVC079 M13/M16 A2989 RMK AC8 SLP170

CYQR;2013-03-21 08:00;CYQR 210800Z 13027G36KT 6SM BLSN BKN074 M14/M16 A2987 RMK AC6 SLP163

CYQR;2013-03-21 09:00;CYQR 210900Z 13026G32KT 6SM BLSN BKN091 OVC250 M15/M17 A2985 RMK AC6CI2 SLP156

CYQR;2013-03-21 10:00;CYQR 211000Z 13029G35KT 6SM BLSN OVC081 M15/M17 A2985 RMK AC8 SLP156

CYQR;2013-03-21 11:00;CYQR 211100Z 14027G33KT 6SM BLSN OVC081 M15/M17 A2986 RMK AC8 SLP158

CYQR;2013-03-21 12:00;CYQR 211200Z 13030G36KT 6SM BLSN BKN092 OVC220 M15/M17 A2985 RMK AC5CI3 SLP154

CYQR;2013-03-21 13:00;CYQR 211300Z 14031G37KT 6SM BLSN FEW040 BKN089 BKN220 M14/M17 A2986 RMK SC2AC5CI1 VIS S-NW 11/4 SLP159

CYQR;2013-03-21 14:00;CYQR 211400Z 14030G38KT 3SM R13/4000V5500FT/D BLSN FEW030 BKN090 BKN250 M15/M17 A2985 RMK SC2AC5CI1 VIS S-NW 1 SLP155

CYQR;2013-03-21 15:00;CYQR 211500Z 13031G37KT 3SM R13/3500V5000FT/D BLSN BKN090 OVC250 M15/M17 A2985 RMK AC6CI1 VIS S-NW 3/4 SLP157

CYQR;2013-03-21 16:00;CYQR 211600Z 14025G32KT 4SM BLSN BKN090 BKN250 M14/M17 A2987 RMK AC6CI1 VIS S-NW 11/4 SLP162

CYQR;2013-03-21 17:00;CYQR 211700Z 14025G32KT 4SM BLSN BKN090 BKN250 M13/M16 A2988 RMK AC6CI2 VIS S-NW 2 SLP167

CYQR;2013-03-21 18:00;CYQR 211800Z 14027G35KT 6SM BLSN BKN090 BKN250 M12/M15 A2988 RMK AC6CI1 VIS S-NW 3 SLP164

CYQR;2013-03-21 19:00;CYQR 211900Z 13025G34KT 6SM BLSN BKN090 BKN250 M12/M15 A2988 RMK AC6CI2 VIS S-NW 2 SLP164

CYQR;2013-03-21 20:00;CYQR 212000Z 14026G36KT 8SM VCBLSN BKN100 BKN250 M11/M14 A2988 REBLSN RMK AC5CI2 VIS S-NW 3 BLSN SLP166

CYQR;2013-03-21 21:00;CYQR 212100Z 14025G31KT 8SM VCBLSN FEW075 BKN110 BKN250 M10/M14 A2988 RMK AC2AC4CI2 VIS S-NW 3 SLP166

CYQR;2013-03-21 22:00;CYQR 212200Z 15022G29KT 8SM VCBLSN BKN075 BKN110 M10/M13 A2989 RMK AC5AC2 VIS S-NW 3 SLP168

CYQR;2013-03-21 23:00;CYQR 212300Z 14020G27KT 10SM VCBLSN FEW025 BKN080 BKN110 M10/M13 A2991 RMK SC1AC5AC2 VIS S-NW 4 SLP174

CYQR;2013-03-22 00:00;CYQR 220000Z 14020G26KT 10SM VCSH VCBLSN FEW025 BKN053 OVC080 M10/M13 A2991 RMK SC1SC6AC2 VIS S-NW 3 SLP174

CYQR;2013-03-22 00:53;CYQR 220053Z 15020G27KT 10SM -SN DRSN VCBLSN SCT045 OVC063 M11/ RMK SC3SC5 VIS S-NW 3

CYQR;2013-03-22 01:00;CYQR 220100Z 14021G29KT 10SM -SN DRSN VCBLSN SCT045 OVC063 M11/M13 A2993 RMK SC3SC5 VIS S-NW 3 DRSN SLP180

CYQR;2013-03-22 01:12;CYQR 220112Z 14019G27KT 3SM -SN BLSN SCT045 OVC056 M11/ RMK SC2SC6 VIS S-NW 11/2

CYQR;2013-03-22 01:17;CYQR 220117Z CCA 14019G27KT 2 1/2SM -SN BLSN SCT045 OVC056 M11/ RMK SC2SC6 VIS S-NW 11/2

CYQR;2013-03-22 01:40;CYQR 220140Z 14021G26KT 1 1/2SM -SN BLSN OVC044 M11/ RMK SC8 VIS SW-NW 1

CYQR;2013-03-22 02:00;CYQR 220200Z 14020G26KT 1 1/2SM -SN BLSN OVC044 M11/M13 A2993 RMK SC8 VIS SW-NW 1 SLP181

CYQR;2013-03-22 02:20;CYQR 220220Z 14021G27KT 1SM R13/P6000FT/U -SN BLSN OVC053 M11/ RMK SC8

CYQR;2013-03-22 02:42;CYQR 220242Z 14023G28KT 1/2SM R13/4000VP6000FT/D -SN BLSN OVC053 M11/ RMK SC8

CYQR;2013-03-22 02:45;CYQR 220245Z 14023G28KT 1SM R13/3500V6000FT/D -SN BLSN OVC053 M11/ RMK SC8

CYQR;2013-03-22 03:00;CYQR 220300Z 14019G26KT 1SM R13/P6000FT/U -SN BLSN SCT018 OVC056 M11/M13 A2994 RMK SC3SC5 SLP185

CYQR;2013-03-22 04:00;CYQR 220400Z 14016G21KT 1SM R13/P6000FT/D -SN BLSN OVC040 M11/M13 A2996 RMK SC8 SLP191

CYQR;2013-03-22 05:00;CYQR 220500Z 15020KT 1SM R13/P6000FT/D -SN DRSN VV007 M12/M13 A2996 REBLSN RMK SN8 SLP193

CYQR;2013-03-22 05:19;CYQR 220519Z 14019KT 1 1/2SM -SN DRSN OVC020 M12/ RMK SC8

CYQR;2013-03-22 06:00;CYQR 220600Z 14017KT 2SM -SN DRSN OVC020 M12/M13 A2996 RMK SC8 /S01/ SLP193

CYQR;2013-03-22 07:00;CYQR 220700Z 14015G20KT 3SM -SN DRSN OVC016 M12/M13 A2996 RMK SC8 SLP190

CYQR;2013-03-22 08:00;CYQR 220800Z 14017KT 3SM -SN DRSN OVC016 M12/M13 A2995 RMK SC8 SLP187

CYQR;2013-03-22 09:00;CYQR 220900Z 14014KT 4SM -SN DRSN OVC017 M12/M13 A2994 RMK SC8 SLP183

CYQR;2013-03-22 10:00;CYQR 221000Z 14015KT 8SM -SN DRSN OVC019 M12/M13 A2994 RMK SC8 SLP182

CYQR;2013-03-22 11:00;CYQR 221100Z 14012KT 4SM -SN DRSN OVC017 M11/M13 A2993 RMK SC8 /S01/ SLP181

CYQR;2013-03-22 12:00;CYQR 221200Z 14014KT 2 1/2SM -SN DRSN OVC015 M12/M13 A2994 RMK SC8 SLP182

CYQR;2013-03-22 13:00;CYQR 221300Z 14012KT 2 1/2SM -SN DRSN OVC013 M12/M13 A2994 RMK SC8 SLP184

CYQR;2013-03-22 13:22;CYQR 221322Z 14013KT 3SM -SN DRSN OVC015 M11/ RMK SC8

CYQR;2013-03-22 14:00;CYQR 221400Z 14012KT 3SM -SN DRSN OVC015 M11/M13 A2995 RMK SC8 SLP185

CYQR;2013-03-22 14:45;CYQR 221445Z 14012KT 2SM -SN DRSN OVC016 M11/ RMK SC8

CYQR;2013-03-22 15:00;CYQR 221500Z 14012KT 1 1/2SM -SN DRSN OVC015 M11/M13 A2995 RMK SC8 SLP188

CYQR;2013-03-22 15:22;CYQR 221522Z 14011KT 3SM -SN DRSN OVC015 M11/ RMK SC8

CYQR;2013-03-22 16:00;CYQR 221600Z 14010KT 2 1/2SM -SN DRSN BKN015 OVC038 M11/M13 A2996 RMK SC6SC2 SLP190

CYQR;2013-03-22 17:00;CYQR 221700Z 14014KT 3SM -SN DRSN OVC013 M11/M13 A2997 RMK SC8 VIS VRB 2-4 SLP193

CYQR;2013-03-22 18:00;CYQR 221800Z 14014KT 15SM -SN DRSN FEW014 OVC024 M11/M13 A2998 RMK SC2SC6 SLP196

CYQR;2013-03-22 19:00;CYQR 221900Z 14012KT 3SM -SN DRSN OVC015 M11/M13 A2999 RMK SC8 VIS VRB 2-4 SLP200

CYQR;2013-03-22 19:40;CYQR 221940Z 13013KT 3SM -SN DRSN OVC010 M11/ RMK SC8 VIS VRB 2-4

CYQR;2013-03-22 20:00;CYQR 222000Z 13012KT 3SM -SN DRSN OVC010 M11/M13 A3000 RMK SC8 VIS VRB 2-4 SLP202

CYQR;2013-03-22 20:39;CYQR 222039Z 14011KT 1SM R13/P6000FT/D -SN DRSN VV009 M10/ RMK SN8

CYQR;2013-03-22 21:00;CYQR 222100Z 14011KT 2SM -SN DRSN OVC053 M10/M12 A3000 RMK SN7SC1 SLP205

CYQR;2013-03-22 22:00;CYQR 222200Z 13012KT 2SM -SN DRSN OVC036 M10/M12 A3001 RMK SN7SC1 SLP207

CYQR;2013-03-22 22:25;CYQR 222225Z 13009KT 12SM -SN DRSN BKN019 OVC036 M09/ RMK SC5SC3

CYQR;2013-03-22 23:00;CYQR 222300Z 14011KT 4SM -SN DRSN OVC016 M09/M11 A3004 RMK SC8 SLP215

CYQR;2013-03-23 00:00;CYQR 230000Z 14011KT 6SM -SN DRSN OVC022 M09/M11 A3005 RMK SC8 SLP220

CYQR;2013-03-23 01:00;CYQR 230100Z 13007KT 6SM -SN OVC022 M09/M11 A3006 RMK SC8 SLP225

CYQR;2013-03-23 02:00;CYQR 230200Z 13006KT 2 1/2SM -SN OVC016 M10/M11 A3009 RMK SC8 SLP232

CYQR;2013-03-23 02:10;CYQR 230210Z 11005KT 1 1/2SM -SN OVC015 M10/ RMK SC8

CYQR;2013-03-23 03:00;CYQR 230300Z 10003KT 1 1/2SM -SN OVC015 M10/M11 A3010 RMK SC8 SLP239

CYQR;2013-03-23 04:00;CYQR 230400Z 09003KT 1 1/2SM -SN SCT015 OVC074 M10/M11 A3011 RMK SC3AC5 /S01/ SLP241

CYQR;2013-03-23 04:22;CYQR 230422Z 09004KT 4SM -SN SCT015 OVC074 M10/ RMK SC2AC6

CYQR;2013-03-23 05:00;CYQR 230500Z 10005KT 4SM -SN OVC024 M10/M11 A3012 RMK SC8 SLP244

CYQR;2013-03-23 06:00;CYQR 230600Z 10002KT 5SM -SN OVC040 M10/M12 A3012 RMK SC8 SLP246

CYQR;2013-03-23 07:00;CYQR 230700Z 08002KT 5SM -SN OVC040 M10/M12 A3012 RMK SC8 SLP246

CYQR;2013-03-23 08:00;CYQR 230800Z 05006KT 3SM -SN OVC040 M11/M12 A3014 RMK SC8 SLP251

CYQR;2013-03-23 09:00;CYQR 230900Z 04003KT 6SM -SN OVC021 M11/M13 A3015 RMK SC8 SLP254

CYQR;2013-03-23 10:00;CYQR 231000Z 03005KT 12SM -SN OVC082 M12/M13 A3014 RMK AC8 SLP253

CYQR;2013-03-23 11:00;CYQR 231100Z 04005KT 12SM -SN OVC046 M12/M14 A3015 RMK SC8 SLP256

CYQR;2013-03-23 12:00;CYQR 231200Z 05002KT 12SM -SN OVC032 M12/M14 A3017 RMK SC8 SLP262

CYQR;2013-03-23 12:49;CYQR 231249Z 01003KT 15SM BKN034 OVC086 M12/ RMK SC5AC3

CYQR;2013-03-23 13:00;CYQR 231300Z 01004KT 15SM BKN036 OVC086 M12/M14 A3018 RMK SC5AC3 SLP266

CYQR;2013-03-23 13:18;CYQR 231318Z 36003KT 12SM -SN OVC040 M12/ RMK SC8

CYQR;2013-03-23 14:00;CYQR 231400Z 34005KT 12SM -SN OVC031 M12/M14 A3020 RMK SC8 SLP270

CYQR;2013-03-23 15:00;CYQR 231500Z 35007KT 3SM -SN BR BKN019 OVC073 M12/M14 A3021 RMK SC7AC1 SLP276

CYQR;2013-03-23 16:00;CYQR 231600Z 33006KT 12SM -SN BKN015 OVC073 M12/M14 A3022 RMK SC6AC2 SLP279

CYQR;2013-03-23 16:29;CYQR 231629Z 33007KT 12SM BKN015 OVC046 M12/ RMK SC6SC2

CYQR;2013-03-23 17:00;CYQR 231700Z 32008KT 15SM BKN019 OVC046 M12/M14 A3023 RMK SC5SC3 SLP283

CYQR;2013-03-23 18:00;CYQR 231800Z 32008KT 15SM FEW017 BKN038 OVC082 M11/M13 A3024 RMK SC2SC4AC2 SLP285

CYQR;2013-03-23 19:00;CYQR 231900Z 33009KT 15SM BKN021 OVC086 M10/M13 A3023 RMK SC6AC2 SLP284

CYQR;2013-03-23 20:00;CYQR 232000Z 33008KT 15SM SCT029 OVC084 M09/M12 A3024 RMK SC2AC6 SLP285

CYQR;2013-03-23 21:00;CYQR 232100Z 33010KT 15SM FEW051 OVC075 M09/M12 A3024 RMK SC1AC7 SLP284

CYQR;2013-03-23 22:00;CYQR 232200Z 32008KT 15SM FEW051 OVC076 M09/M12 A3024 RMK SC1AC7 SLP286

CYQR;2013-03-23 22:32;CYQR 232232Z 33010KT 15SM -SN BKN043 OVC055 M09/ RMK SC5SC3

CYQR;2013-03-23 23:00;CYQR 232300Z 34012KT 12SM -SN OVC043 M09/M12 A3025 RMK SC8 SLP289

CYQR;2013-03-24 00:00;CYQR 240000Z 33012KT 15SM -SN OVC043 M10/M12 A3026 RMK SC8 SLP292

CYQR;2013-03-24 01:00;CYQR 240100Z 33010KT 15SM -SN BKN049 OVC080 M10/M12 A3027 RMK SC7AC1 SLP295

CYQR;2013-03-24 02:00;CYQR 240200Z 33008KT 15SM -SN OVC049 M11/M13 A3027 RMK SC8 SLP297

CYQR;2013-03-24 03:00;CYQR 240300Z 34009KT 15SM -SN OVC047 M11/M13 A3028 RMK SC8 SLP301

CYQR;2013-03-24 04:00;CYQR 240400Z 34007KT 15SM -SN OVC045 M11/M12 A3028 RMK SC8 SLP302

CYQR;2013-03-24 05:00;CYQR 240500Z 33009KT 15SM -SN OVC043 M11/M12 A3028 RMK SC8 SLP301

CYQR;2013-03-24 06:00;CYQR 240600Z 34011KT 15SM -SN BKN019 OVC043 M11/M13 A3028 RMK SC6SC2 SLP301

CYQR;2013-03-24 07:00;CYQR 240700Z 34009KT 8SM -SN OVC019 M12/M13 A3029 RMK SC8 SLP303

CYQR;2013-03-24 08:00;CYQR 240800Z 34011KT 15SM -SN OVC031 M12/M14 A3030 RMK SC8 SLP305

CYQR;2013-03-24 09:00;CYQR 240900Z 33011KT 15SM OVC029 M12/M14 A3030 RMK SC8 SLP305

CYQR;2013-03-24 10:00;CYQR 241000Z CCA 34012KT 15SM BKN019 OVC035 M14/M15 A3029 RMK SC5SC3 SLP304

CYQR;2013-03-24 11:00;CYQR 241100Z 34009KT 15SM BKN033 OVC088 M14/M15 A3030 RMK SC5AC3 SLP306

CYQR;2013-03-24 12:00;CYQR 241200Z 35011KT 15SM OVC031 M14/M15 A3031 RMK SC8 SLP313

CYQR;2013-03-24 13:00;CYQR 241300Z 34010KT 15SM OVC027 M14/M16 A3032 RMK SC7 SLP315

CYQR;2013-03-24 14:00;CYQR 241400Z 34008KT 15SM OVC023 M14/M16 A3033 RMK SC7 SLP318

CYQR;2013-03-24 14:16;CYQR 241416Z 33008KT 15SM -SN OVC023 M15/ RMK SC8

CYQR;2013-03-24 15:00;CYQR 241500Z 33008KT 15SM -SN OVC023 M15/M16 A3034 RMK SC8 SLP322

CYQR;2013-03-24 16:00;CYQR 241600Z 33008KT 6SM -SN OVC023 M14/M16 A3035 RMK SC8 SLP325

CYQR;2013-03-24 17:00;CYQR 241700Z 33008KT 10SM -SN OVC028 M13/M15 A3035 RMK SC8 SLP328

CYQR;2013-03-24 17:27;CYQR 241727Z 31007KT 15SM SCT028 BKN300 M13/ RMK SC3CI1

CYQR;2013-03-24 18:00;CYQR 241800Z 33009KT 15SM FEW028 BKN300 M12/M14 A3035 RMK SC1CI2 SLP326

CYQR;2013-03-24 19:00;CYQR 241900Z 33011KT 15SM FEW030 BKN300 M11/M13 A3035 RMK SC1CI2 SLP325

CYQR;2013-03-24 20:00;CYQR 242000Z 33009KT 15SM SCT300 M10/M12 A3034 RMK CI1 SLP323

CYQR;2013-03-24 21:00;CYQR 242100Z 31010KT 15SM FEW300 M10/M12 A3035 RMK CI2 SLP323

CYQR;2013-03-24 22:00;CYQR 242200Z 30009KT 15SM BKN023 BKN300 M10/M13 A3035 RMK SC5CI0 SLP325

CYQR;2013-03-24 23:00;CYQR 242300Z 30008KT 15SM FEW023 FEW300 M10/M13 A3036 RMK SC1CI1 SLP327

CYQR;2013-03-25 00:00;CYQR 250000Z 26007KT 15SM FEW025 FEW300 M12/M15 A3036 RMK SC1CI1 SLP330

CYQR;2013-03-25 01:00;CYQR 250100Z 27006KT 15SM FEW025 M15/M17 A3035 RMK SC1 SLP329

CYQR;2013-03-25 02:00;CYQR 250200Z 29006KT 15SM SKC M17/M18 A3035 RMK SLP328

CYQR;2013-03-25 03:00;CYQR 250300Z 26008KT 15SM SKC M20/M21 A3035 RMK SLP334

CYQR;2013-03-25 03:52;CYQR 250352Z 26006KT 15SM SCT001 M20/ RMK ST1

CYQR;2013-03-25 04:00;CYQR 250400Z 26006KT 12SM BKN001 M21/M21 A3035 RMK ST2 SLP334

CYQR;2013-03-25 04:32;CYQR 250432Z 28004KT 1SM R13/3500VP6000FT/D BR OVC001 M20/ RMK FG2ST5

CYQR;2013-03-25 04:45;CYQR 250445Z 29006KT 1/2SM R13/2000FT/N FZFG SKC M20/ RMK FG4

CYQR;2013-03-25 05:00;CYQR 250500Z 29007KT 1/2SM R13/1800FT/N FZFG SKC M21/M22 A3034 RMK FG3 OBS TAKEN -06 SLP332

CYQR;2013-03-25 05:14;CYQR 250514Z 30007KT 3/4SM R13/3000V6000FT/U BR SKC M21/ RMK FG3

CYQR;2013-03-25 05:25;CYQR 250525Z 32005KT 1/2SM R13/1800FT/N FZFG SKC M21/ RMK FG4 VIS VRB 1/4 - 3/4

CYQR;2013-03-25 06:00;CYQR 250600Z 31009KT 1/2SM R13/2000FT/N FZFG SKC M21/M21 A3034 RMK FG4 VIS VRB 1/4 - 3/4 SLP329

CYQR;2013-03-25 06:36;CYQR 250636Z 00000KT 3/4SM R13/3000V5500FT/N BR SKC M20/ RMK FG3 VIS VRB 1/2 - 1

CYQR;2013-03-25 07:00;CYQR 250700Z 00000KT 1/2SM R13/2200FT/N FZFG SKC M20/M21 A3034 RMK FG6 VIS VRB 1/4 - 3/4 SLP330

CYQR;2013-03-25 07:12;CYQR 250712Z 00000KT 1/8SM R13/1800V2200FT/N FZFG SKC M21/ RMK FG7

CYQR;2013-03-25 08:00;CYQR 250800Z 00000KT 1/8SM R13/1600FT/N FZFG VV001 M20/M21 A3034 RMK FG8 SLP331

CYQR;2013-03-25 09:00;CYQR 250900Z 23002KT 1/8SM R13/1200FT/N FZFG VV001 M20/M22 A3034 RMK FG8 SLP327

CYQR;2013-03-25 10:00;CYQR 251000Z 25002KT 1/8SM R13/1200FT/N FZFG VV001 M20/M24 A3034 RMK FG8 FROIN SLP327

CYQR;2013-03-25 11:00;CYQR 251100Z 00000KT 1/8SM R13/1400FT/N FZFG VV001 M20/M23 A3034 RMK FG8 FROIN SLP327

CYQR;2013-03-25 11:17;CYQR 251117Z 15002KT 2SM R13/1400FT/N BR OVC001 M20/ RMK ST8 FROIN

CYQR;2013-03-25 11:29;CYQR 251129Z 12002KT 3/4SM R13/3500FT/N BR OVC001 M19/ RMK FG2ST6 FROIN

CYQR;2013-03-25 12:00;CYQR 251200Z 10003KT 1 1/2SM R13/3000VP6000FT/N BR SCT002 M21/M24 A3033 RMK SF2 FROIN SLP327

CYQR;2013-03-25 13:00;CYQR 251300Z 12003KT 1 3/4SM BR OVC002 M22/M25 A3034 RMK FG2ST6 FROIN SLP329

CYQR;2013-03-25 14:00;CYQR 251400Z 14005KT 1 1/2SM R13/3500VP6000FT/D BR OVC001 M21/M24 A3033 RMK FG2ST6 VIS VRB 1-2 FROIN SLP327

CYQR;2013-03-25 14:10;CYQR 251410Z 14006KT 1/2SM R13/1400V2000FT/N FZFG OVC001 M21/ RMK FG6ST2 VIS VRB 1/4-3/4

CYQR;2013-03-25 14:50;CYQR 251450Z 13005KT 1 1/2SM BR OVC002 M20/ RMK FG2SF6

CYQR;2013-03-25 15:00;CYQR 251500Z 12004KT 2SM R13/3500VP6000FT/U BR OVC002 M20/M23 A3033 RMK SF7 SLP333

CYQR;2013-03-25 15:16;CYQR 251516Z 12003KT 4SM BR SCT002 M20/ RMK SF2 VIS E 2

CYQR;2013-03-25 16:00;CYQR 251600Z 12005KT 10SM SCT003 M18/M20 A3033 RMK SF1 SLP332

CYQR;2013-03-25 17:00;CYQR 251700Z 16004KT 10SM SCT003 BKN260 M16/M18 A3033 RMK SF1CI0 SLP331

CYQR;2013-03-25 18:00;CYQR 251800Z 14008KT 15SM FEW003 M15/M17 A3031 RMK SF0 SLP323

CYQR;2013-03-25 19:00;CYQR 251900Z 13007KT 15SM FEW250 M14/M16 A3030 RMK CI1 SLP320

CYQR;2013-03-25 20:00;CYQR 252000Z 13010KT 15SM FEW250 M13/M14 A3029 RMK CI1 SLP314

CYQR;2013-03-25 21:00;CYQR 252100Z 13010KT 15SM FEW250 M12/M13 A3026 RMK CI0 SLP302

CYQR;2013-03-25 22:00;CYQR 252200Z 14011KT 15SM SCT250 M11/M12 A3025 RMK CI0 CONTRAILS SLP298

CYQR;2013-03-25 23:00;CYQR 252300Z 13010KT 15SM SCT250 M12/M13 A3025 RMK CI0 SLP296

CYQR;2013-03-26 00:00;CYQR 260000Z 14011KT 15SM SCT250 M12/M14 A3024 RMK CI0 SLP295

CYQR;2013-03-26 01:00;CYQR 260100Z 14013KT 15SM FEW250 M13/M15 A3022 RMK CI0 SLP290

CYQR;2013-03-26 02:00;CYQR 260200Z 14014KT 15SM FEW250 M14/M15 A3022 RMK CI1 SLP289

CYQR;2013-03-26 03:00;CYQR 260300Z 14012KT 15SM SKC M15/M16 A3021 RMK SLP288

CYQR;2013-03-26 04:00;CYQR 260400Z 14011KT 15SM FEW080 M16/M17 A3021 RMK AC1 SLP286

CYQR;2013-03-26 05:00;CYQR 260500Z 14011KT 15SM FEW080 M16/M17 A3020 RMK AC1 OBS TAKEN -08 SLP283

CYQR;2013-03-26 06:00;CYQR 260600Z 15013KT 15SM SKC M17/M18 A3019 RMK SLP278

CYQR;2013-03-26 07:00;CYQR 260700Z 14014KT 15SM FEW004 M16/M17 A3017 RMK SF0 SLP272

CYQR;2013-03-26 07:47;CYQR 260747Z 14011KT 5SM BR BKN001 M18/ RMK SF2

CYQR;2013-03-26 08:00;CYQR 260800Z 14012KT 4SM BR OVC001 M18/M19 A3017 RMK SF5 SLP270

CYQR;2013-03-26 08:28;CYQR 260828Z 14012KT 1 1/2SM BR OVC002 M18/ RMK SF7

CYQR;2013-03-26 09:00;CYQR 260900Z 14013KT 1 1/2SM BR OVC001 M19/M20 A3015 RMK SF7 SLP262

CYQR;2013-03-26 10:00;CYQR 261000Z 13010KT 2SM BR OVC002 M18/M20 A3014 RMK SF6 SLP258

CYQR;2013-03-26 10:06;CYQR 261006Z 13011KT 3SM BR OVC003 M18/ RMK SF6

CYQR;2013-03-26 11:00;CYQR 261100Z 13011KT 3SM BR OVC002 M18/M20 A3012 RMK SF8 FROIN SLP254

CYQR;2013-03-26 11:15;CYQR 261115Z 13011KT 2SM BR OVC002 M18/ RMK SF8 FROIN

CYQR;2013-03-26 11:27;CYQR 261127Z 13011KT 1 1/2SM BR OVC002 M18/ RMK SF8 FROIN

CYQR;2013-03-26 12:00;CYQR 261200Z 13011KT 1 1/2SM BR BKN002 M18/M20 A3012 RMK SF3 FROIN SLP252

CYQR;2013-03-26 12:33;CYQR 261233Z 13012KT 15SM FEW020 M18/ RMK SC1

CYQR;2013-03-26 13:00;CYQR 261300Z 13014KT 15SM FEW025 M18/M20 A3011 RMK SC1 SLP250

CYQR;2013-03-26 14:00;CYQR 261400Z 14011KT 15SM FEW004 FEW250 M17/M19 A3011 RMK SF1CI0 SLP249

CYQR;2013-03-26 15:00;CYQR 261500Z 14011KT 15SM FEW250 M16/M17 A3011 RMK CI0 SLP248

CYQR;2013-03-26 16:00;CYQR 261600Z 14011KT 15SM FEW250 M16/M17 A3011 RMK CI0 SLP249

CYQR;2013-03-26 17:00;CYQR 261700Z 14012KT 15SM FEW250 M14/M16 A3011 RMK CI0 SLP250

CYQR;2013-03-26 18:00;CYQR 261800Z 14013KT 15SM FEW250 M12/M13 A3011 RMK CI0 SLP246

CYQR;2013-03-26 19:00;CYQR 261900Z 13011KT 15SM SKC M10/M12 A3010 RMK SLP244

CYQR;2013-03-26 20:00;CYQR 262000Z 14011KT 15SM SKC M10/M12 A3010 RMK SLP243

CYQR;2013-03-26 21:00;CYQR 262100Z 14012KT 15SM SKC M09/M11 A3009 RMK SLP239

CYQR;2013-03-26 22:00;CYQR 262200Z 14014KT 15SM SKC M08/M11 A3008 RMK SLP237

CYQR;2013-03-26 23:00;CYQR 262300Z 14012KT 15SM SKC M08/M11 A3010 RMK SLP242

CYQR;2013-03-27 00:00;CYQR 270000Z 14009KT 15SM SKC M08/M11 A3010 RMK SLP244

CYQR;2013-03-27 01:00;CYQR 270100Z 14011KT 15SM FEW250 M09/M12 A3010 RMK CI0 SLP243

CYQR;2013-03-27 02:00;CYQR 270200Z 14011KT 15SM FEW220 M10/M12 A3010 RMK CI0 SLP244

CYQR;2013-03-27 03:00;CYQR 270300Z 14013KT 15SM SKC M10/M12 A3011 RMK SLP245

CYQR;2013-03-27 04:00;CYQR 270400Z 14013KT 15SM FEW230 M12/M13 A3012 RMK CI0 SLP248

CYQR;2013-03-27 05:00;CYQR 270500Z 14012KT 15SM SKC M13/M15 A3011 RMK OBS TAKEN -07 SLP246

CYQR;2013-03-27 06:00;CYQR 270600Z 13012KT 15SM SKC M14/M16 A3011 RMK SLP246

CYQR;2013-03-27 07:00;CYQR 270700Z 13011KT 15SM SKC M14/M15 A3011 RMK SLP246

CYQR;2013-03-27 07:13;CYQR 270713Z 13011KT 15SM BKN012 M14/ RMK SC5

CYQR;2013-03-27 07:45;CYQR 270745Z 13011KT 15SM OVC009 M13/ RMK SC8

CYQR;2013-03-27 08:00;CYQR 270800Z 14012KT 15SM OVC008 M13/M15 A3010 RMK SC8 SLP241

CYQR;2013-03-27 09:00;CYQR 270900Z 14013KT 15SM OVC005 M13/M15 A3008 RMK SC8 SLP232

CYQR;2013-03-27 10:00;CYQR 271000Z 14009KT 15SM OVC006 M14/M15 A3009 RMK SC8 SLP235

CYQR;2013-03-27 11:00;CYQR 271100Z 14007KT 15SM OVC004 M14/M15 A3009 RMK SC8 SLP236

CYQR;2013-03-27 11:37;CYQR 271137Z 13008KT 15SM OVC003 M14/ RMK SC8

CYQR;2013-03-27 12:00;CYQR 271200Z 13009KT 15SM OVC003 M14/M15 A3009 RMK SC8 SLP236

CYQR;2013-03-27 12:27;CYQR 271227Z 13008KT 12SM OVC002 M14/ RMK SC8

CYQR;2013-03-27 12:38;CYQR 271238Z 14008KT 2SM BR OVC001 M14/ RMK SC8 VIS S-W 1SM

CYQR;2013-03-27 12:50;CYQR 271250Z 14007KT 3/4SM R13/3500VP6000FT/D BR OVC001 M14/ RMK FG6ST2

CYQR;2013-03-27 13:00;CYQR 271300Z 14007KT 1/2SM R13/3500VP6000FT/D FZFG OVC001 M14/M15 A3010 RMK FG6ST2 SLP238

CYQR;2013-03-27 13:10;CYQR 271310Z 14008KT 1/4SM R13/3000FT/N FZFG VV001 M14/ RMK FG8

CYQR;2013-03-27 13:18;CYQR 271318Z 14009KT 1/4SM R13/2800FT/N -SN FZFG VV001 M14/ RMK FG8

CYQR;2013-03-27 13:32;CYQR 271332Z 15008KT 1/2SM R13/3500V6000FT/N -SN FZFG OVC001 M14/ RMK FG6ST2 VIS VRB 1/4-3/4

CYQR;2013-03-27 14:00;CYQR 271400Z 15009KT 3/4SM R13/2800V5500FT/N -SN BR OVC001 M14/M15 A3011 RMK FG5ST3 VIS VRB 1/2-1 SLP241

CYQR;2013-03-27 14:22;CYQR 271422Z 14008KT 1 1/2SM -SN BR OVC002 M14/ RMK FG2ST6

CYQR;2013-03-27 15:00;CYQR 271500Z 14008KT 2 1/2SM -SN BR OVC002 M14/M15 A3011 RMK FG2ST6 SLP243

CYQR;2013-03-27 15:39;CYQR 271539Z 15007KT 3SM -SN BR FEW002 OVC005 M14/ RMK SF1ST6

CYQR;2013-03-27 16:00;CYQR 271600Z 14008KT 4SM BR FEW002 OVC006 M14/M15 A3011 RMK SF1ST6 SLP245

CYQR;2013-03-27 17:00;CYQR 271700Z 13009KT 5SM BR BKN006 OVC250 M13/M14 A3011 RMK ST5CI1 SLP245

CYQR;2013-03-27 18:00;CYQR 271800Z 14007KT 6SM BR BKN007 OVC250 M12/M13 A3012 RMK SF5CI1 SLP250

CYQR;2013-03-27 18:30;CYQR 271830Z 13009KT 10SM SCT007 BKN250 M11/ RMK SF2CI1

CYQR;2013-03-27 19:00;CYQR 271900Z 14010KT 12SM FEW007 BKN250 M11/M13 A3013 RMK SF1CI2 SLP251

CYQR;2013-03-27 20:00;CYQR 272000Z 13007KT 15SM BKN250 M11/M12 A3013 RMK CI1 SLP251

CYQR;2013-03-27 21:00;CYQR 272100Z 14007KT 15SM SCT250 M10/M12 A3012 RMK CI1 SLP246

CYQR;2013-03-27 22:00;CYQR 272200Z 14005KT 15SM FEW250 M09/M11 A3012 RMK CI0 SLP247

CYQR;2013-03-27 23:00;CYQR 272300Z 13007KT 15SM FEW250 M09/M11 A3012 RMK CI0 SLP247

CYQR;2013-03-28 00:00;CYQR 280000Z 13008KT 15SM SKC M09/M11 A3013 RMK SLP251

CYQR;2013-03-28 00:48;CYQR 280048Z 12009KT 10SM SCT004 M10/ RMK SF2 VIS LWR SE

CYQR;2013-03-28 00:54;CYQR 280054Z 13009KT 1SM R13/P6000FT/N BR BKN003 M10/ RMK SF6 VIS NW-NE 4

CYQR;2013-03-28 01:00;CYQR 280100Z 12009KT 3/4SM R13/P6000FT/U BR OVC001 M10/M11 A3013 RMK FG2SF6 VIS W-NW 5SM SLP251

CYQR;2013-03-28 01:11;CYQR 280111Z 12009KT 1/2SM R13/P6000FT/D FZFG VV001 M10/ RMK FG8

CYQR;2013-03-28 01:23;CYQR 280123Z 13009KT 3/4SM R13/5500FT/U BR VV001 M09/ RMK FG8 VIS VRB 1/2 - 1

CYQR;2013-03-28 02:00;CYQR 280200Z 14011KT 3/4SM R13/3500V5000FT/N BR VV001 M09/M10 A3014 RMK FG8 VIS VRB 1/2 - 1 SLP252

CYQR;2013-03-28 03:00;CYQR 280300Z 13009KT 3/4SM R13/4000VP6000FT/U BR VV001 M09/M10 A3015 RMK FG8 VIS VRB 1/2 - 1 SLP256

CYQR;2013-03-28 04:00;CYQR 280400Z 12005KT 1SM R13/P6000FT/D BR SKC M11/M12 A3015 RMK FG6 SLP257

CYQR;2013-03-28 04:34;CYQR 280434Z 11005KT 1 1/2SM BR SKC M12/ RMK FG4

CYQR;2013-03-28 05:00;CYQR 280500Z 11007KT 1 1/2SM BR SKC M13/M14 A3015 RMK FG4 SLP256

CYQR;2013-03-28 05:36;CYQR 280536Z 12006KT 1SM R13/P6000FT/U BR BKN005 M14/ RMK FG3SF2

CYQR;2013-03-28 06:00;CYQR 280600Z 13006KT 3/4SM R13/P6000FT/N BR SKC M14/M15 A3015 RMK FG6 SLP258

CYQR;2013-03-28 07:00;CYQR 280700Z 12006KT 1SM R13/5500FT/D BR SKC M14/M15 A3015 RMK FG7 VIS VRB 3/4 - 1 1/4 FROIN SLP259

CYQR;2013-03-28 07:25;CYQR 280725Z 12006KT 2SM BR OVC002 M14/ RMK SF8 FROIN

CYQR;2013-03-28 08:00;CYQR 280800Z 13007KT 1SM R13/P6000FT/U BR VV001 M15/M16 A3015 RMK FG8 FROIN SLP259

CYQR;2013-03-28 09:00;CYQR 280900Z 13007KT 1SM R13/P6000FT/D BR VV002 M15/M16 A3015 RMK FG8 FROIN SLP258

CYQR;2013-03-28 10:00;CYQR 281000Z 13006KT 1 1/2SM BR OVC001 M15/M16 A3015 RMK SF8 FROIN SLP256

CYQR;2013-03-28 11:00;CYQR 281100Z 13005KT 1 1/2SM BR SKC M15/M16 A3015 RMK FG7 FROIN SLP258

CYQR;2013-03-28 12:00;CYQR 281200Z 13007KT 2SM BR FEW002 SCT230 M16/M17 A3015 RMK SF1CI0 FROIN SLP257

CYQR;2013-03-28 13:00;CYQR 281300Z 13006KT 2SM BR FEW002 FEW230 M17/M18 A3015 RMK SF1CI0 FROIN SLP258

CYQR;2013-03-28 13:37;CYQR 281337Z 13006KT 6SM BR BCFG FEW230 M16/ RMK CI1 VIS E 21/2

CYQR;2013-03-28 14:00;CYQR 281400Z 13005KT 6SM BR FEW003 FEW230 M16/M17 A3016 RMK ST1CI1 SLP262

CYQR;2013-03-28 15:00;CYQR 281500Z 14006KT 12SM FEW230 M15/M15 A3016 RMK CI1 SLP262

CYQR;2013-03-28 16:00;CYQR 281600Z 14005KT 15SM FEW230 M13/M14 A3016 RMK CI1 SLP261

CYQR;2013-03-28 17:00;CYQR 281700Z 13006KT 15SM FEW230 M12/M12 A3017 RMK CI1 SLP263

CYQR;2013-03-28 18:00;CYQR 281800Z 13005KT 15SM FEW230 M10/M11 A3017 RMK CI1 SLP263

CYQR;2013-03-28 19:00;CYQR 281900Z 15004KT 15SM FEW230 M08/M10 A3016 RMK CI1 SLP262

CYQR;2013-03-28 20:00;CYQR 282000Z 15006KT 15SM FEW230 M06/M08 A3016 RMK CI1 SLP260

CYQR;2013-03-28 21:00;CYQR 282100Z 13007KT 15SM FEW230 M05/M08 A3015 RMK CI1 SLP255

CYQR;2013-03-28 22:00;CYQR 282200Z 14008KT 15SM FEW230 M05/M08 A3014 RMK CI1 SLP252

CYQR;2013-03-28 23:00;CYQR 282300Z 13007KT 15SM FEW230 M05/M08 A3014 RMK CI1 SLP252

CYQR;2013-03-29 00:00;CYQR 290000Z 13008KT 15SM FEW230 M06/M08 A3014 RMK CI1 SLP251

CYQR;2013-03-29 01:00;CYQR 290100Z 14010KT 15SM FEW230 M07/M09 A3014 RMK CI1 SLP251

CYQR;2013-03-29 02:00;CYQR 290200Z 13009KT 15SM FEW060 FEW230 M08/M10 A3014 RMK SC1CI1 SLP250

CYQR;2013-03-29 03:00;CYQR 290300Z 13010KT 15SM SKC M09/M10 A3014 RMK SLP253

CYQR;2013-03-29 04:00;CYQR 290400Z 13010KT 15SM SKC M10/M11 A3013 RMK OBS TAKEN +06 SLP251

CYQR;2013-03-29 05:00;CYQR 290500Z 13011KT 15SM SKC M11/M12 A3013 RMK OBS TAKEN -06 SLP251

CYQR;2013-03-29 06:00;CYQR 290600Z 12010KT 15SM SKC M12/M13 A3013 RMK SLP247

CYQR;2013-03-29 07:00;CYQR 290700Z 12010KT 15SM SKC M12/M14 A3012 RMK SLP245

CYQR;2013-03-29 08:00;CYQR 290800Z 12011KT 15SM VCFG SKC M13/M14 A3011 RMK FG BANK E-SW OVR CITY SLP241

CYQR;2013-03-29 09:00;CYQR 290900Z 13010KT 15SM FEW002 FEW080 M13/M14 A3010 RMK SF1AC1 SF TR OVR CITY SLP235

CYQR;2013-03-29 10:00;CYQR 291000Z 12010KT 15SM BKN081 M13/M14 A3008 RMK AC6 SLP230

CYQR;2013-03-29 11:00;CYQR 291100Z 12011KT 15SM BKN081 M12/M13 A3007 RMK AC6 SLP227

CYQR;2013-03-29 12:00;CYQR 291200Z 12011KT 15SM BKN091 M12/M13 A3004 RMK AC5 SLP215

CYQR;2013-03-29 12:26;CYQR 291226Z 12012KT 2 1/2SM BR SCT003 BKN093 M12/ RMK SF0AC3

CYQR;2013-03-29 13:00;CYQR 291300Z 13011KT 3SM BR FEW003 FEW095 M12/M13 A3004 RMK SF0AC2 VIS E-S 2 SLP213

CYQR;2013-03-29 14:00;CYQR 291400Z 13010KT 10SM FEW080 SCT230 M11/M12 A3004 RMK AC2CI0 SLP213

CYQR;2013-03-29 15:00;CYQR 291500Z 14009KT 10SM SCT090 BKN230 M09/M10 A3002 RMK AC4CI2 SLP207

CYQR;2013-03-29 16:00;CYQR 291600Z 13009KT 12SM SCT097 BKN230 M08/M09 A3001 RMK AC4CI2 SLP204

CYQR;2013-03-29 16:55;CYQR 291655Z 13011KT 12SM -FZRA SCT025 OVC055 M07/ RMK SC2SC6

CYQR;2013-03-29 17:00;CYQR 291700Z 13011KT 10SM -FZRA SCT025 BKN055 OVC085 M07/M08 A3000 RMK SC2SC3AC2 SLP202

CYQR;2013-03-29 18:00;CYQR 291800Z 12011KT 10SM -FZRA SCT046 SCT075 BKN230 M04/M05 A3000 RMK SC2AC2CI3 SLP198

CYQR;2013-03-29 18:15;CYQR 291815Z 10006KT 10SM FEW046 SCT084 BKN230 M04/ REFZRA RMK SC2AC2CI1

CYQR;2013-03-29 19:00;CYQR 291900Z 09003KT 15SM FEW045 FEW085 SCT230 M01/M03 A2999 RMK SC1AC2CI1 SLP195

CYQR;2013-03-29 20:00;CYQR 292000Z CCB 22002KT 15SM FEW230 01/M01 A2998 RMK CI1 SLP194

CYQR;2013-03-29 21:00;CYQR 292100Z 18006KT 12SM FEW230 00/M01 A2997 RMK CI1 SLP188

CYQR;2013-03-29 22:00;CYQR 292200Z 20004KT 10SM FEW080 00/M01 A2998 RMK AC1 SLP190

CYQR;2013-03-29 23:00;CYQR 292300Z 18005KT 15SM FEW080 FEW230 00/M01 A2997 RMK AC1CI1 SLP188

CYQR;2013-03-30 00:00;CYQR 300000Z 26002KT 15SM FEW080 FEW230 00/M01 A2998 RMK AC1CI1 SLP190

CYQR;2013-03-30 01:00;CYQR 300100Z 00000KT 15SM FEW080 FEW230 M01/M02 A2998 RMK AC1CI1 SLP190

CYQR;2013-03-30 02:00;CYQR 300200Z 30008KT 15SM FEW080 M03/M04 A2999 RMK AC1 SLP193

CYQR;2013-03-30 03:00;CYQR 300300Z 30010KT 15SM SKC M04/M06 A3001 RMK SLP202

CYQR;2013-03-30 04:00;CYQR 300400Z 31009KT 15SM SKC M06/M07 A3002 RMK SLP206

CYQR;2013-03-30 05:00;CYQR 300500Z 30009KT 15SM SKC M07/M08 A3003 RMK SLP208

CYQR;2013-03-30 06:00;CYQR 300600Z 30003KT 15SM SKC M09/M10 A3003 RMK SLP208

CYQR;2013-03-30 07:00;CYQR 300700Z 30005KT 15SM FEW086 M09/M10 A3004 RMK AC1 SLP210

CYQR;2013-03-30 08:00;CYQR 300800Z 32008KT 12SM SKC M10/M11 A3004 RMK SLP212

CYQR;2013-03-30 09:00;CYQR 300900Z 32008KT 12SM BKN092 M08/M10 A3004 RMK AC2 SLP207

CYQR;2013-03-30 10:00;CYQR 301000Z 25005KT 10SM FEW072 M11/M12 A3004 RMK AC1 SLP208

CYQR;2013-03-30 10:07;CYQR 301007Z 25005KT 10SM FEW001 FEW072 M11/ RMK SF2AC1

CYQR;2013-03-30 11:00;CYQR 301100Z 26004KT 12SM FEW001 SCT072 M11/M12 A3004 RMK SF2AC2 SLP206

CYQR;2013-03-30 12:00;CYQR 301200Z 28005KT 12SM FEW001 BKN075 OVC250 M10/M11 A3004 RMK SF1AC4CI1 SLP207

CYQR;2013-03-30 13:00;CYQR 301300Z 33002KT 12SM SCT069 OVC250 M09/M10 A3003 RMK AC4CI3 SLP206

CYQR;2013-03-30 14:00;CYQR 301400Z 28006KT 10SM SCT120 OVC250 M08/M09 A3003 RMK AS4CI4 SLP206

CYQR;2013-03-30 15:00;CYQR 301500Z 27002KT 10SM FEW083 SCT120 BKN250 M06/M08 A3002 RMK AC1AS2CI3 SLP203

CYQR;2013-03-30 16:00;CYQR 301600Z 27005KT 10SM FEW082 SCT120 OVC250 M04/M06 A3001 RMK AC1AS2CI4 SLP200

CYQR;2013-03-30 17:00;CYQR 301700Z 29006KT 12SM BKN250 M02/M04 A3001 RMK CI2 SLP199

CYQR;2013-03-30 18:00;CYQR 301800Z 28009KT 15SM FEW250 00/M02 A3000 RMK CI1 SLP195

CYQR;2013-03-30 19:00;CYQR 301900Z 32013KT 15SM SKC 01/M02 A3000 RMK SLP196

CYQR;2013-03-30 20:00;CYQR 302000Z 30014KT 15SM SKC 01/M02 A3001 RMK SLP197

CYQR;2013-03-30 21:00;CYQR 302100Z 32021KT 15SM SKC 01/M04 A3001 RMK SLP196

CYQR;2013-03-30 22:00;CYQR 302200Z 32020G28KT 15SM SCT250 00/M04 A3002 RMK CI2 SLP199

CYQR;2013-03-30 23:00;CYQR 302300Z 33019G27KT 15SM FEW250 M00/M04 A3002 RMK CI1 SLP200

CYQR;2013-03-31 00:00;CYQR 310000Z 33020KT 15SM BKN250 M01/M05 A3003 RMK CI2 SLP207

CYQR;2013-03-31 01:00;CYQR 310100Z 32015KT 15SM FEW100 OVC250 M02/M05 A3004 RMK AC2CI2 SLP210

CYQR;2013-03-31 02:00;CYQR 310200Z 32014KT 15SM BKN250 M03/M05 A3007 RMK CI2 SLP218

CYQR;2013-03-31 03:00;CYQR 310300Z 30011KT 15SM OVC250 M03/M06 A3008 RMK CI6 SLP223

CYQR;2013-03-31 04:00;CYQR 310400Z 32010KT 15SM BKN250 M04/M07 A3009 RMK CI3 SLP225

CYQR;2013-03-31 05:00;CYQR 310500Z 34010KT 15SM SCT250 M05/M08 A3008 RMK CI2 SLP221

CYQR;2013-03-31 06:00;CYQR 310600Z 36007KT 15SM FEW250 M07/M09 A3008 RMK CI2 SLP220

CYQR;2013-03-31 07:00;CYQR 310700Z 01006KT 15SM FEW086 BKN250 M08/M10 A3007 RMK AC1CI2 SLP218

CYQR;2013-03-31 08:00;CYQR 310800Z 05006KT 15SM BKN055 M05/M09 A3008 RMK SC6 SLP221

CYQR;2013-03-31 09:00;CYQR 310900Z 05007KT 15SM OVC057 M05/M11 A3008 RMK SC8 SLP220

CYQR;2013-03-31 10:00;CYQR 311000Z 04006KT 15SM OVC044 M06/M11 A3010 RMK SC8 SLP227

CYQR;2013-03-31 11:00;CYQR 311100Z 01005KT 15SM BKN038 M06/M12 A3012 RMK SC6 SLP231

CYQR;2013-03-31 12:00;CYQR 311200Z 03003KT 15SM SCT049 M07/M12 A3013 RMK SC3 SLP238

CYQR;2013-03-31 13:00;CYQR 311300Z 05003KT 15SM FEW049 SCT300 M08/M14 A3014 RMK SC1CI1 SLP242

CYQR;2013-03-31 14:00;CYQR 311400Z 02004KT 15SM FEW210 BKN300 M09/M14 A3015 RMK CI1CI2 SLP245

CYQR;2013-03-31 15:00;CYQR 311500Z 04006KT 15SM FEW300 M07/M13 A3016 RMK CI0 SLP251

CYQR;2013-03-31 16:00;CYQR 311600Z 03007KT 15SM SKC M06/M13 A3018 RMK SLP257

CYQR;2013-03-31 17:00;CYQR 311700Z 03008KT 15SM SKC M05/M13 A3020 RMK SLP264

CYQR;2013-03-31 18:00;CYQR 311800Z 02009KT 15SM SKC M05/M13 A3022 RMK SLP271

CYQR;2013-03-31 19:00;CYQR 311900Z 36013KT 15SM FEW250 M05/M13 A3023 RMK CI1 SLP275

CYQR;2013-03-31 20:00;CYQR 312000Z 34008KT 15SM SKC M05/M13 A3024 RMK SLP277

CYQR;2013-03-31 21:00;CYQR 312100Z 32008KT 15SM SKC M05/M13 A3024 RMK SLP279

CYQR;2013-03-31 22:00;CYQR 312200Z 32009KT 15SM SKC M05/M13 A3025 RMK SLP281

CYQR;2013-03-31 23:00;CYQR 312300Z 34007KT 15SM SKC M05/M12 A3025 RMK SLP281

CYQR;2013-04-01 00:00;CYQR 010000Z 34008KT 15SM SKC M06/M12 A3025 RMK SLP283

CYQR;2013-04-01 01:00;CYQR 010100Z 34007KT 15SM FEW250 M07/M12 A3025 RMK CI1 SLP282

CYQR;2013-04-01 02:00;CYQR 010200Z 30005KT 15SM FEW250 M10/M14 A3024 RMK CI1 SLP281

CYQR;2013-04-01 03:00;CYQR 010300Z 35005KT 15SM SKC M10/M14 A3025 RMK SLP286

CYQR;2013-04-01 04:00;CYQR 010400Z 36002KT 15SM SKC M11/M14 A3025 RMK SLP288

CYQR;2013-04-01 05:00;CYQR 010500Z 00000KT 15SM SKC M11/M13 A3025 RMK SLP286

CYQR;2013-04-01 06:00;CYQR 010600Z 00000KT 15SM SKC M13/M14 A3024 RMK SLP283

CYQR;2013-04-01 07:00;CYQR 010700Z 16003KT 15SM SKC M14/M15 A3024 RMK SLP284

CYQR;2013-04-01 08:00;CYQR 010800Z 17002KT 15SM SKC M15/M16 A3025 RMK SLP285

CYQR;2013-04-01 09:00;CYQR 010900Z 16003KT 15SM SKC M16/M17 A3025 RMK SLP290

CYQR;2013-04-01 10:00;CYQR 011000Z 19004KT 15SM SKC M15/M16 A3025 RMK SLP288

CYQR;2013-04-01 11:00;CYQR 011100Z 16004KT 15SM SKC M15/M17 A3025 RMK SLP288

CYQR;2013-04-01 12:00;CYQR 011200Z 10006KT 15SM SKC M17/M18 A3025 RMK SLP289

CYQR;2013-04-01 13:00;CYQR 011300Z 11005KT 15SM SKC M17/M18 A3025 RMK SLP291

CYQR;2013-04-01 14:00;CYQR 011400Z 12006KT 15SM SKC M15/M16 A3025 RMK SLP290

CYQR;2013-04-01 15:00;CYQR 011500Z 12007KT 15SM SKC M12/M14 A3025 RMK SLP289

CYQR;2013-04-01 16:00;CYQR 011600Z 16005KT 15SM FEW300 M11/M13 A3025 RMK CI0 CONTRAILS SLP288

CYQR;2013-04-01 17:00;CYQR 011700Z 14006KT 15SM FEW300 M08/M12 A3025 RMK CI1 CONTRAILS SLP289

CYQR;2013-04-01 18:00;CYQR 011800Z 14007KT 15SM FEW300 M07/M10 A3024 RMK CI0 CONTRAILS SLP285

CYQR;2013-04-01 19:00;CYQR 011900Z 17007KT 15SM FEW300 M06/M09 A3024 RMK CI0 CONTRAILS SLP284

CYQR;2013-04-01 20:00;CYQR 012000Z 16007KT 15SM BKN300 M05/M09 A3023 RMK CI0 CONTRAILS SLP282

CYQR;2013-04-01 21:00;CYQR 012100Z 18008KT 15SM FEW300 M05/M07 A3022 RMK CI1 SLP278

CYQR;2013-04-01 22:00;CYQR 012200Z 18007KT 15SM BKN048 M04/M07 A3021 RMK SC6 SLP275

CYQR;2013-04-01 23:00;CYQR 012300Z 16007KT 15SM FEW048 BKN300 M03/M06 A3019 RMK SC1CI0 SLP270

CYQR;2013-04-02 00:00;CYQR 020000Z 17007KT 15SM FEW300 M04/M06 A3018 RMK CI1 SLP264

CYQR;2013-04-02 01:00;CYQR 020100Z 16005KT 15SM FEW100 FEW300 M04/M06 A3017 RMK AC1CI1 SLP261

CYQR;2013-04-02 02:00;CYQR 020200Z 14004KT 15SM BKN019 BKN100 M05/M07 A3017 RMK SC2AC1 SLP260

CYQR;2013-04-02 03:00;CYQR 020300Z 17003KT 15SM OVC015 M05/M07 A3017 RMK SC8 SLP260

CYQR;2013-04-02 03:27;CYQR 020327Z 22004KT 15SM BKN009 OVC015 M05/ RMK SC5SC3

CYQR;2013-04-02 03:46;CYQR 020346Z 26006KT 15SM SCT008 M07/ RMK SC3

CYQR;2013-04-02 04:00;CYQR 020400Z 27005KT 12SM SCT003 BKN008 M08/M09 A3018 RMK SC3SC2 SLP262

CYQR;2013-04-02 04:05;CYQR 020405Z 30006KT 10SM OVC002 M08/ RMK SC8

CYQR;2013-04-02 04:26;CYQR 020426Z 32006KT 8SM SCT002 BKN010 M08/ RMK SC3SC2

CYQR;2013-04-02 05:00;CYQR 020500Z 36004KT 10SM FEW003 SCT010 M08/M10 A3017 RMK SC1SC2 SLP260

CYQR;2013-04-02 05:12;CYQR 020512Z 33004KT 10SM BKN012 M09/ RMK SC5

CYQR;2013-04-02 06:00;CYQR 020600Z 35009KT 10SM OVC012 M07/M09 A3018 RMK SC8 SLP259

CYQR;2013-04-02 07:00;CYQR 020700Z 35005KT 12SM OVC014 M06/M07 A3019 RMK SC8 SLP264

CYQR;2013-04-02 08:00;CYQR 020800Z 31003KT 12SM OVC014 M06/M07 A3020 RMK SC8 SLP267

CYQR;2013-04-02 09:00;CYQR 020900Z 32004KT 15SM OVC014 M06/M08 A3020 RMK SC8 SLP266

CYQR;2013-04-02 10:00;CYQR 021000Z 10007KT 15SM OVC016 M04/M07 A3020 RMK SC8 SLP264

CYQR;2013-04-02 11:00;CYQR 021100Z 10005KT 15SM BKN018 M05/M08 A3021 RMK SC7 SLP267

CYQR;2013-04-02 12:00;CYQR 021200Z 11006KT 15SM FEW022 M07/M09 A3022 RMK SC1 SLP270

CYQR;2013-04-02 13:00;CYQR 021300Z 11011KT 15SM FEW022 FEW260 M07/M10 A3021 RMK SC1CI0 SLP268

CYQR;2013-04-02 14:00;CYQR 021400Z 12011KT 15SM FEW260 M08/M10 A3021 RMK CI0 CONTRAILS SLP268

CYQR;2013-04-02 15:00;CYQR 021500Z 15015KT 15SM FEW260 M07/M10 A3020 RMK CI0 CONTRAILS SLP267

CYQR;2013-04-02 16:00;CYQR 021600Z 16013G18KT 15SM BKN260 M07/M10 A3020 RMK CI1 SLP266

CYQR;2013-04-02 17:00;CYQR 021700Z 15015G24KT 15SM FEW260 M07/M09 A3020 RMK CI0 SLP265

CYQR;2013-04-02 17:44;CYQR 021744Z 15018KT 15SM FEW007 FEW260 M06/ RMK CF1CI1 CONTRAILS

CYQR;2013-04-02 18:00;CYQR 021800Z 16016KT 15SM FEW007 SCT260 M06/M08 A3018 RMK SC2CI1 SLP260

CYQR;2013-04-02 18:55;CYQR 021855Z 16017KT 15SM BKN006 BKN260 M05/ RMK SC5CI1

CYQR;2013-04-02 19:00;CYQR 021900Z 15013G20KT 15SM BKN006 BKN260 M05/M06 A3017 RMK SC6CI1 VIS SW-NW 4 SLP256

CYQR;2013-04-02 19:34;CYQR 021934Z 16017KT 6SM BR OVC004 M05/ RMK SC8

CYQR;2013-04-02 20:00;CYQR 022000Z 16017G22KT 6SM BR OVC004 M05/M06 A3015 RMK SC8 SLP250

CYQR;2013-04-02 21:00;CYQR 022100Z 15019KT 6SM BR OVC004 M04/M05 A3013 RMK SC8 SLP240

CYQR;2013-04-02 21:27;CYQR 022127Z 15019KT 6SM BR OVC005 M03/ RMK SC8

CYQR;2013-04-02 22:00;CYQR 022200Z 16017G25KT 8SM OVC005 M03/M04 A3010 RMK SC8 BR SLP230

CYQR;2013-04-02 22:26;CYQR 022226Z 16018KT 10SM SCT006 BKN260 M03/ RMK SF2CI0

CYQR;2013-04-02 23:00;CYQR 022300Z 15020KT 12SM BKN260 M02/M04 A3006 RMK CI2 SLP217

CYQR;2013-04-03 00:00;CYQR 030000Z 15021G28KT 12SM BKN260 M02/M04 A3002 RMK CI2 CONTRAILS SLP200

CYQR;2013-04-03 01:00;CYQR 030100Z 15022G27KT 12SM BKN100 BKN260 M03/M05 A2999 RMK AC3CI2 SLP192

CYQR;2013-04-03 02:00;CYQR 030200Z 14023G30KT 12SM BKN100 BKN260 M04/M06 A2996 RMK AC3CI2 SLP182

CYQR;2013-04-03 03:00;CYQR 030300Z 14022KT 15SM BKN100 BKN260 M04/M07 A2994 RMK AC5CI2 SLP176

CYQR;2013-04-03 04:00;CYQR 030400Z 14021G27KT 15SM SCT100 BKN260 M04/M07 A2991 RMK AC3CI1 SLP166

CYQR;2013-04-03 05:00;CYQR 030500Z 15021G26KT 15SM FEW100 M05/M07 A2988 RMK AC2 SLP156

CYQR;2013-04-03 06:00;CYQR 030600Z 15018G24KT 15SM FEW100 SCT260 M05/M07 A2985 RMK AC1CI2 SLP144

CYQR;2013-04-03 07:00;CYQR 030700Z 14018G24KT 15SM SCT100 BKN260 M05/M07 A2981 RMK AC3CI2 SLP132

CYQR;2013-04-03 08:00;CYQR 030800Z 13016KT 15SM FEW100 SCT260 M03/M05 A2976 RMK AC2CI2 SLP117

CYQR;2013-04-03 09:00;CYQR 030900Z 12011G16KT 15SM BKN085 BKN260 M03/M05 A2975 RMK AC5CI2 SLP107

CYQR;2013-04-03 10:00;CYQR 031000Z 12009KT 15SM FEW100 BKN260 M03/M05 A2974 RMK AC2CI2 SLP102

CYQR;2013-04-03 11:00;CYQR 031100Z 12005KT 15SM SCT099 M04/M05 A2974 RMK AC3 SLP103

CYQR;2013-04-03 12:00;CYQR 031200Z 07003KT 15SM FEW100 FEW260 M05/M06 A2976 RMK AC2CI0 SLP109

CYQR;2013-04-03 13:00;CYQR 031300Z 35011KT 15SM FEW100 BKN260 M06/M07 A2978 RMK AC1CI2 SLP117

CYQR;2013-04-03 14:00;CYQR 031400Z 35015KT 15SM SCT100 BKN260 M05/M06 A2984 RMK AC2CI2 SLP137

CYQR;2013-04-03 15:00;CYQR 031500Z 32017KT 15SM BKN097 OVC260 M04/M06 A2990 RMK AC5CI0 PRESRR SLP158

CYQR;2013-04-03 16:00;CYQR 031600Z 33007KT 15SM FEW100 OVC260 M03/M04 A2992 RMK AC1CI2 SLP167

CYQR;2013-04-03 17:00;CYQR 031700Z 29010KT 15SM FEW050 BKN090 BKN260 M00/M02 A2995 RMK SC1AC6CI0 SLP174

CYQR;2013-04-03 18:00;CYQR 031800Z 28016KT 15SM FEW050 FEW090 BKN260 01/M01 A2996 RMK SC1AC1CI1 SLP176

CYQR;2013-04-03 19:00;CYQR 031900Z 32019G24KT 15SM BKN090 BKN260 02/M01 A2997 RMK AC3CI0 SLP180

CYQR;2013-04-03 20:00;CYQR 032000Z 30016KT 15SM FEW090 FEW260 02/M01 A3000 RMK AC1CI0 CONTRAILS SLP190

CYQR;2013-04-03 21:00;CYQR 032100Z 32028G35KT 15SM FEW110 FEW260 01/M03 A3001 RMK AC1CI0 CONTRAILS SLP193

CYQR;2013-04-03 22:00;CYQR 032200Z 31026G32KT 15SM FEW020 FEW110 FEW260 01/M03 A3004 RMK SC1AC1CI1 SLP203

CYQR;2013-04-03 23:00;CYQR 032300Z 31020G28KT 15SM FEW020 BKN260 01/M03 A3008 RMK SC1CI1 SLP215

CYQR;2013-04-04 00:00;CYQR 040000Z 31019G25KT 15SM FEW020 BKN260 M00/M03 A3010 RMK SC1CI2 SLP224

CYQR;2013-04-04 01:00;CYQR 040100Z 31018KT 15SM FEW040 OVC250 M01/M04 A3010 RMK SC1CI6 SLP226

CYQR;2013-04-04 02:00;CYQR 040200Z 32017KT 15SM FEW040 BKN250 M02/M06 A3011 RMK SC1CI4 SLP229

CYQR;2013-04-04 03:00;CYQR 040300Z 33011KT 15SM BKN250 M02/M06 A3014 RMK CI4 SLP241

CYQR;2013-04-04 04:00;CYQR 040400Z 31008KT 15SM BKN250 M03/M06 A3016 RMK CI4 SLP247

CYQR;2013-04-04 05:00;CYQR 040500Z 33009KT 15SM BKN250 M04/M06 A3017 RMK CI4 SLP249

CYQR;2013-04-04 06:00;CYQR 040600Z 32008KT 15SM BKN250 M05/M07 A3017 RMK CI3 SLP249

CYQR;2013-04-04 07:00;CYQR 040700Z 25006KT 15SM BKN220 M05/M07 A3019 RMK CI5 SLP254

CYQR;2013-04-04 08:00;CYQR 040800Z 32007KT 15SM BKN220 M05/M07 A3019 RMK CI5 SLP255

CYQR;2013-04-04 09:00;CYQR 040900Z 32009KT 15SM OVC220 M06/M08 A3020 RMK CI6 SLP259

CYQR;2013-04-04 10:00;CYQR 041000Z 33004KT 15SM SCT220 M08/M10 A3021 RMK CI1 SLP264

CYQR;2013-04-04 11:00;CYQR 041100Z 26003KT 15SM FEW250 M10/M11 A3022 RMK CI0 SLP266

CYQR;2013-04-04 12:00;CYQR 041200Z 30004KT 15SM FEW250 M11/M12 A3024 RMK CI1 SLP278

CYQR;2013-04-04 13:00;CYQR 041300Z 35003KT 15SM FEW110 FEW250 M10/M11 A3024 RMK AC1CI1 SLP278

CYQR;2013-04-04 14:00;CYQR 041400Z 36003KT 15SM BKN270 M09/M10 A3025 RMK CI0 SLP282

CYQR;2013-04-04 15:00;CYQR 041500Z 35003KT 15SM FEW270 M07/M08 A3026 RMK CI0 SLP283

CYQR;2013-04-04 16:00;CYQR 041600Z 28003KT 15SM BKN270 M05/M07 A3025 RMK CI1 SLP282

CYQR;2013-04-04 17:00;CYQR 041700Z 16006KT 15SM FEW016 SCT270 M02/M07 A3025 RMK CF1CI1 SLP282

CYQR;2013-04-04 18:00;CYQR 041800Z 14007KT 15SM FEW020 FEW250 M02/M06 A3025 RMK SC1CI1 SLP277

CYQR;2013-04-04 19:00;CYQR 041900Z 17007KT 15SM FEW020 FEW250 M03/M06 A3025 RMK SC1CI1 CU ASOCTD SLP280

CYQR;2013-04-04 20:00;CYQR 042000Z 17010KT 15SM FEW020 FEW270 M02/M07 A3024 RMK SC1CI0 CONTRAILS SLP275

CYQR;2013-04-04 21:00;CYQR 042100Z 15007KT 15SM FEW020 FEW045 FEW270 M02/M07 A3022 RMK SC1SC1CI0 SLP270

CYQR;2013-04-04 22:00;CYQR 042200Z 15007KT 15SM FEW050 FEW270 M02/M06 A3021 RMK SC1CI0 SLP265

CYQR;2013-04-04 23:00;CYQR 042300Z 13010KT 15SM FEW020 FEW100 SCT270 M02/M06 A3018 RMK SC1AC1CI1 CU ASOCTD CONTRAILS SLP257

CYQR;2013-04-05 00:00;CYQR 050000Z 14013KT 15SM FEW270 M03/M07 A3017 RMK CI0 SLP257

CYQR;2013-04-05 01:00;CYQR 050100Z 13012KT 15SM BKN250 M03/M07 A3015 RMK CI2 SLP250

CYQR;2013-04-05 02:00;CYQR 050200Z 14011KT 15SM FEW120 BKN250 M04/M07 A3013 RMK AC1CI1 SLP243

CYQR;2013-04-05 03:00;CYQR 050300Z 13012KT 15SM FEW100 BKN250 M04/M08 A3012 RMK AC2CI1 SLP238

CYQR;2013-04-05 04:00;CYQR 050400Z 13013KT 15SM SCT100 BKN250 M05/M09 A3010 RMK AC3CI2 SLP232

CYQR;2013-04-05 05:00;CYQR 050500Z 13014KT 15SM SCT100 BKN250 M05/M09 A3008 RMK AC3CI3 SLP225

CYQR;2013-04-05 06:00;CYQR 050600Z 14017KT 15SM SCT100 OVC250 M05/M08 A3005 RMK AC3CI4 SLP209

CYQR;2013-04-05 07:00;CYQR 050700Z 15017KT 15SM SCT100 OVC220 M05/M08 A3002 RMK AC3CI3 SLP200

CYQR;2013-04-05 08:00;CYQR 050800Z 14020G25KT 15SM BKN080 OVC220 M05/M08 A2998 RMK AC5CI3 SLP189

CYQR;2013-04-05 09:00;CYQR 050900Z 14018G24KT 15SM SCT054 BKN080 OVC220 M05/M08 A2995 RMK SC3AC3CI2 SLP174

CYQR;2013-04-05 09:31;CYQR 050931Z 14018G26KT 15SM -SN DRSN BKN040 OVC090 M05/ RMK SC6AC2

CYQR;2013-04-05 10:00;CYQR 051000Z 14021G26KT 5SM -SN BLSN BKN020 OVC080 M05/M07 A2992 RMK SC6AC2 SLP165

CYQR;2013-04-05 11:00;CYQR 051100Z 14021KT 5SM -SN BLSN BKN030 OVC080 M05/M07 A2988 RMK SC6AC2 SLP154

CYQR;2013-04-05 12:00;CYQR 051200Z 14020G25KT 4SM -SN BLSN OVC018 M04/M06 A2986 RMK SC8 SLP145

CYQR;2013-04-05 12:24;CYQR 051224Z 14020G26KT 1 1/2SM -SN BLSN OVC020 M04/ RMK SC8

CYQR;2013-04-05 13:00;CYQR 051300Z 14021G27KT 1 1/2SM -SN BLSN OVC020 M04/M06 A2983 RMK SC8 SLP135

CYQR;2013-04-05 13:11;CYQR 051311Z 14020G25KT 1SM R13/P6000FT/D -SN BLSN OVC018 M04/ RMK SC8

CYQR;2013-04-05 13:26;CYQR 051326Z 14022G28KT 3/4SM R13/P6000FT/N -SN BLSN VV009 M04/ RMK SN8

CYQR;2013-04-05 14:00;CYQR 051400Z 14022G30KT 3/4SM R13/5500FT/N -SN BLSN VV008 M04/M05 A2981 RMK SN8 SLP127

CYQR;2013-04-05 15:00;CYQR 051500Z 14024G30KT 3/4SM R13/4000V5500FT/U -SN BLSN VV008 M04/M06 A2978 RMK SN8 SLP117

CYQR;2013-04-05 15:20;CYQR 051520Z 14025G32KT 1/2SM R13/4000FT/N -SN BLSN VV007 M04/ RMK SN8

CYQR;2013-04-05 16:00;CYQR 051600Z 14025G31KT 5/8SM R13/3000V5000FT/D -SN BLSN VV007 M04/M06 A2976 RMK SN8 SLP110

CYQR;2013-04-05 16:48;CYQR 051648Z 14022G32KT 2SM -SN BLSN BKN007 OVC034 M04/ RMK SF6SC2

CYQR;2013-04-05 17:00;CYQR 051700Z 14023G32KT 1 1/2SM -SN BLSN BKN007 BKN034 OVC051 M04/M05 A2974 RMK SF5SC2SC2 VIS NE-E 2 SLP104

CYQR;2013-04-05 17:33;CYQR 051733Z 14029G34KT 2 1/2SM R13/3000VP6000FT/N -SN BLSN BKN007 OVC051 M03/ RMK SF7SC1 VIS SW-NW 11/2

CYQR;2013-04-05 18:00;CYQR 051800Z 14025G34KT 2 1/2SM -SN BLSN BKN008 OVC051 M03/M05 A2972 RMK SF7SC1 VIS SW-NW 11/2 SLP097

CYQR;2013-04-05 18:39;CYQR 051839Z 14027G32KT 4SM -SN BLSN OVC007 M03/ RMK SF8 VIS SW-NW 2

CYQR;2013-04-05 19:00;CYQR 051900Z 14023G34KT 3SM -SN DRSN BR OVC007 M03/M05 A2970 RMK SF8 SLP090

CYQR;2013-04-05 20:00;CYQR 052000Z 14024G30KT 3SM -SN BLSN OVC008 M03/M05 A2967 RMK SF8 SLP083

CYQR;2013-04-05 21:00;CYQR 052100Z 15021G28KT 3SM -SN BLSN OVC007 M03/M05 A2966 RMK SF8 SLP078

CYQR;2013-04-05 22:00;CYQR 052200Z 14021G27KT 6SM -SN BR OVC007 M03/M05 A2966 RMK SF8 SLP075

CYQR;2013-04-05 22:46;CYQR 052246Z 14022KT 10SM OVC007 M03/ RMK SF8

CYQR;2013-04-05 23:00;CYQR 052300Z 14021G26KT 10SM OVC007 M03/M05 A2966 RMK SF8 SLP075

CYQR;2013-04-06 00:00;CYQR 060000Z 13021KT 15SM SCT008 BKN060 OVC120 M04/M05 A2966 RMK SF2SC2AC2 SLP075

CYQR;2013-04-06 01:00;CYQR 060100Z 13019KT 15SM FEW008 BKN060 OVC120 M04/M06 A2965 RMK SF2SC3AC3 SLP072

CYQR;2013-04-06 02:00;CYQR 060200Z 13016G21KT 15SM FEW008 SCT060 OVC120 M04/M06 A2966 RMK SF1SC2AC4 SLP077

CYQR;2013-04-06 03:00;CYQR 060300Z 12015KT 15SM SCT045 OVC120 M04/M06 A2967 RMK SC3AC4 SLP082

CYQR;2013-04-06 04:00;CYQR 060400Z 11010KT 15SM BKN043 OVC120 M04/M06 A2968 RMK SC6AC2 SLP085

CYQR;2013-04-06 05:00;CYQR 060500Z 10010KT 15SM FEW045 SCT120 M04/M07 A2968 RMK SC2AC2 SLP085

CYQR;2013-04-06 05:09;CYQR 060509Z 11009KT 15SM BKN010 BKN120 M05/ RMK SC3AC1

CYQR;2013-04-06 05:33;CYQR 060533Z 10010KT 15SM BKN008 M04/ RMK SC6

CYQR;2013-04-06 06:00;CYQR 060600Z 11008KT 15SM BKN009 M04/M06 A2970 RMK SC6 SLP090

CYQR;2013-04-06 07:00;CYQR 060700Z 09004KT 15SM OVC008 M04/M06 A2971 RMK SC8 SLP095

CYQR;2013-04-06 08:00;CYQR 060800Z 07004KT 15SM OVC007 M03/M05 A2973 RMK SC8 SLP099

CYQR;2013-04-06 09:00;CYQR 060900Z 32005KT 15SM OVC008 M04/M05 A2973 RMK SC8 SLP101

CYQR;2013-04-06 10:00;CYQR 061000Z 34005KT 15SM OVC012 M04/M05 A2974 RMK SC8 SLP103

CYQR;2013-04-06 11:00;CYQR 061100Z 34009KT 15SM OVC012 M04/M05 A2977 RMK SC8 SLP112

CYQR;2013-04-06 12:00;CYQR 061200Z 32008KT 15SM OVC012 M04/M05 A2977 RMK SC8 SLP115

CYQR;2013-04-06 12:36;CYQR 061236Z 34007KT 15SM BKN017 OVC026 M04/ RMK SC6SC2

CYQR;2013-04-06 13:00;CYQR 061300Z 35006KT 15SM BKN017 OVC026 M04/M05 A2978 RMK SC6SC2 SLP118

CYQR;2013-04-06 14:00;CYQR 061400Z 36007KT 15SM FEW015 OVC022 M03/M05 A2979 RMK SC1SC8 SLP120

CYQR;2013-04-06 15:00;CYQR 061500Z 34007KT 15SM SCT013 OVC023 M03/M05 A2980 RMK SC3SC5 SLP124

CYQR;2013-04-06 15:33;CYQR 061533Z 36006KT 15SM BKN011 OVC017 M03/ RMK SC5SC3

CYQR;2013-04-06 16:00;CYQR 061600Z 35006KT 15SM BKN011 OVC023 M02/M05 A2981 RMK SC5SC3 SLP126

CYQR;2013-04-06 16:24;CYQR 061624Z 36008KT 15SM SCT011 OVC026 M03/ RMK SC4SC4

CYQR;2013-04-06 17:00;CYQR 061700Z 36006KT 15SM SCT013 OVC023 M02/M05 A2982 RMK SC3SC5 SLP132

CYQR;2013-04-06 17:04;CYQR 061704Z 32005KT 6SM -SN SCT013 OVC023 M02/ RMK SC3SC5 VIS W 10 SNOW WET

CYQR;2013-04-06 17:33;CYQR 061733Z 34007KT 6SM -SN BKN011 OVC035 M02/ RMK SC5SC3

CYQR;2013-04-06 18:00;CYQR 061800Z 32005KT 12SM -SN BKN011 OVC035 M02/M04 A2983 RMK SC5SC3 SLP135

CYQR;2013-04-06 18:31;CYQR 061831Z 34005KT 12SM BKN015 OVC047 M02/ RMK SC5SC3

CYQR;2013-04-06 19:00;CYQR 061900Z 31006KT 15SM BKN015 OVC045 M02/M04 A2983 RMK SC5SC3 SLP133

CYQR;2013-04-06 20:00;CYQR 062000Z 32009KT 15SM BKN015 OVC045 M01/M04 A2984 RMK SC6SC2 SLP136

CYQR;2013-04-06 21:00;CYQR 062100Z 31007KT 15SM BKN017 OVC042 M01/M04 A2984 RMK SC6SC2 SLP136

CYQR;2013-04-06 22:00;CYQR 062200Z 32007KT 15SM OVC017 M01/M04 A2983 RMK SC8 SLP134

CYQR;2013-04-06 23:00;CYQR 062300Z 32007KT 15SM OVC017 M01/M04 A2984 RMK SC8 SLP136

CYQR;2013-04-07 00:00;CYQR 070000Z 35004KT 15SM OVC017 M01/M04 A2985 RMK SC8 SLP138

CYQR;2013-04-07 01:00;CYQR 070100Z 12004KT 15SM OVC017 M01/M03 A2984 RMK SC8 SLP137

CYQR;2013-04-07 02:00;CYQR 070200Z 12004KT 15SM OVC015 M01/M04 A2984 RMK SC8 SLP135

CYQR;2013-04-07 03:00;CYQR 070300Z 15004KT 15SM OVC017 M01/M04 A2984 RMK SC8 SLP137

CYQR;2013-04-07 04:00;CYQR 070400Z 17005KT 15SM SCT026 OVC036 M02/M03 A2986 RMK SC3SC5 SLP141

CYQR;2013-04-07 05:00;CYQR 070500Z 15005KT 15SM OVC034 M02/M03 A2984 RMK SC8 SLP136

CYQR;2013-04-07 06:00;CYQR 070600Z 15004KT 15SM OVC032 M02/M04 A2983 RMK SC8 SLP131

CYQR;2013-04-07 07:00;CYQR 070700Z 13008KT 15SM SCT020 OVC032 M02/M04 A2981 RMK SC3SC5 SLP124

CYQR;2013-04-07 08:00;CYQR 070800Z 14007KT 15SM BKN019 OVC032 M02/M04 A2981 RMK SC6SC2 SLP124

CYQR;2013-04-07 09:00;CYQR 070900Z 12007KT 15SM SCT020 OVC030 M02/M04 A2979 RMK SC3SC5 SLP116

CYQR;2013-04-07 09:50;CYQR 070950Z 11008KT 15SM -SN OVC015 M02/ RMK SC8

CYQR;2013-04-07 10:03;CYQR 071003Z 11008KT 3SM -SN OVC008 M02/ RMK SN2SC6

CYQR;2013-04-07 10:12;CYQR 071012Z 11008KT 1SM R13/P6000FT/D -SN VV005 M03/ RMK SN8

CYQR;2013-04-07 10:37;CYQR 071037Z 12007KT 3SM -SN OVC005 M03/ RMK SN4SC4

CYQR;2013-04-07 11:00;CYQR 071100Z 10007KT 1SM R13/P6000FT/N -SN VV005 M03/M04 A2974 RMK SN8 /S02/ SLP102

CYQR;2013-04-07 11:10;CYQR 071110Z 10007KT 2SM -SN OVC005 M03/ RMK SN4SC4

CYQR;2013-04-07 12:00;CYQR 071200Z 10008KT 1SM R13/P6000FT/D -SN VV006 M03/M04 A2972 RMK SN8 SLP094

CYQR;2013-04-07 12:35;CYQR 071235Z 09006KT 2SM -SN OVC007 M03/ RMK SN4SC4

CYQR;2013-04-07 13:00;CYQR 071300Z 07006KT 2SM -SN BR BKN008 OVC021 M03/M04 A2972 RMK SF6SC2 SLP094

CYQR;2013-04-07 13:25;CYQR 071325Z 09007KT 3/4SM R13/P6000FT/D -SN BR VV006 M02/ RMK SN8

CYQR;2013-04-07 13:38;CYQR 071338Z 09007KT 1SM R13/P6000FT/U -SN BR VV006 M02/ RMK SN8

CYQR;2013-04-07 14:00;CYQR 071400Z 10006KT 3/4SM R13/P6000FT/U -SN BR VV005 M02/M03 A2971 RMK SN8 SLP091

CYQR;2013-04-07 14:14;CYQR 071414Z 10008KT 1/2SM R13/P6000FT/D SN VV003 M02/ RMK SN8

CYQR;2013-04-07 14:20;CYQR 071420Z 09007KT 3/4SM R13/P6000FT/U -SN VV003 M02/ RESN RMK SN8

CYQR;2013-04-07 14:25;CYQR 071425Z 09008KT 1 1/2SM -SN VV005 M02/ RESN RMK SN8

CYQR;2013-04-07 14:32;CYQR 071432Z 10008KT 3SM -SN BR OVC008 M02/ RESN RMK SF8

CYQR;2013-04-07 15:00;CYQR 071500Z 09010KT 12SM -SN OVC008 M02/M03 A2970 RESN RMK SF8 SLP087

CYQR;2013-04-07 16:00;CYQR 071600Z 09010KT 10SM OVC008 M02/M04 A2969 RMK SF8 SLP083

CYQR;2013-04-07 16:35;CYQR 071635Z 08010KT 10SM -SN OVC009 M02/ RMK SC8

CYQR;2013-04-07 17:00;CYQR 071700Z 08012KT 8SM -SN OVC009 M02/M04 A2970 RMK SC8 SLP086

CYQR;2013-04-07 17:11;CYQR 071711Z 07011KT 2 1/2SM -SN BR OVC010 M02/ RMK SC8

CYQR;2013-04-07 17:16;CYQR 071716Z 06012KT 4SM -SN BR OVC009 M02/ RMK SC8

CYQR;2013-04-07 18:00;CYQR 071800Z 07013KT 6SM -SN BR OVC008 M02/M04 A2970 RMK SC8 SLP088

CYQR;2013-04-07 19:00;CYQR 071900Z 07013KT 12SM -SN OVC010 M02/M04 A2971 RMK SC8 SLP091

CYQR;2013-04-07 20:00;CYQR 072000Z 05018KT 12SM -SN OVC009 M03/M05 A2972 RMK SC8 SLP095

CYQR;2013-04-07 20:10;CYQR 072010Z 04018KT 15SM -SN OVC010 M03/ RMK SC8

CYQR;2013-04-07 21:00;CYQR 072100Z 04016KT 15SM OVC012 M03/M06 A2975 RMK SC8 SLP105

CYQR;2013-04-07 22:00;CYQR 072200Z 05018G24KT 15SM BKN012 OVC032 M04/M06 A2976 RMK SC6SC2 SLP108

CYQR;2013-04-07 23:00;CYQR 072300Z 04017KT 15SM BKN014 OVC036 M04/M07 A2979 RMK SC6SC2 SLP118

CYQR;2013-04-07 23:16;CYQR 072316Z 04018KT 15SM -SN OVC012 M04/ RMK SC8

CYQR;2013-04-08 00:00;CYQR 080000Z 04016G21KT 15SM -SN OVC012 M04/M07 A2981 RMK SC8 SLP129

CYQR;2013-04-08 01:00;CYQR 080100Z 03018G24KT 6SM -SN OVC015 M05/M08 A2985 RMK SC8 SLP139

CYQR;2013-04-08 02:00;CYQR 080200Z 04016KT 6SM -SN DRSN OVC023 M06/M08 A2986 RMK SC8 SLP145

CYQR;2013-04-08 02:42;CYQR 080242Z 03013G19KT 15SM DRSN FEW012 SCT025 M06/ RMK SC2SC2

CYQR;2013-04-08 03:00;CYQR 080300Z 04014KT 15SM DRSN FEW012 SCT025 M07/M09 A2991 RMK SC2SC2 SLP161

CYQR;2013-04-08 04:00;CYQR 080400Z 04014G21KT 15SM DRSN FEW015 OVC040 M06/M09 A2993 RMK SC1SC7 SLP170

CYQR;2013-04-08 05:00;CYQR 080500Z 03013KT 15SM DRSN BKN026 OVC040 M08/M11 A2995 RMK SC6SC2 SLP176

CYQR;2013-04-08 06:04;CYQR 080604Z 03015KT 15SM -SN DRSN OVC028 M09/ RMK SC7

CYQR;2013-04-08 07:00;CYQR 080700Z 02011KT 15SM FEW024 M10/M13 A3000 RMK SC2 SLP193

CYQR;2013-04-08 08:00;CYQR 080800Z 01011KT 15SM FEW022 M11/M14 A3002 RMK SC2 SLP202

CYQR;2013-04-08 09:00;CYQR 080900Z 04009KT 15SM FEW025 M11/M14 A3005 RMK SC1 SLP217

CYQR;2013-04-08 10:00;CYQR 081000Z 04011KT 15SM FEW025 M11/M15 A3007 RMK SC1 SLP221

CYQR;2013-04-08 11:00;CYQR 081100Z 04010KT 15SM FEW025 M12/M16 A3009 RMK SC1 SLP228

CYQR;2013-04-08 12:00;CYQR 081200Z 02008KT 15SM SKC M14/M17 A3011 RMK SLP240

CYQR;2013-04-08 13:00;CYQR 081300Z 36007KT 15SM FEW300 M16/M18 A3015 RMK CI1 SLP252

CYQR;2013-04-08 14:00;CYQR 081400Z 36004KT 15SM FEW300 M15/M17 A3018 RMK CI1 SLP262

CYQR;2013-04-08 15:00;CYQR 081500Z 34009KT 15SM FEW300 M14/M16 A3020 RMK CI1 SLP274

CYQR;2013-04-08 16:00;CYQR 081600Z 34008KT 15SM FEW300 M13/M16 A3024 RMK CI1 SLP285

CYQR;2013-04-08 17:00;CYQR 081700Z 33009KT 15SM FEW012 FEW300 M12/M14 A3027 RMK CF1CI1 SLP294

CYQR;2013-04-08 18:00;CYQR 081800Z 32008KT 15SM FEW012 FEW300 M11/M14 A3028 RMK CF1CI1 SLP299

CYQR;2013-04-08 19:00;CYQR 081900Z 31012KT 15SM FEW012 FEW300 M10/M13 A3029 RMK CU1CI1 SLP301

CYQR;2013-04-08 20:00;CYQR 082000Z 34016KT 15SM FEW012 M09/M13 A3030 RMK CF1 SLP304

CYQR;2013-04-08 21:00;CYQR 082100Z 34016KT 15SM FEW015 M09/M13 A3030 RMK CU1 SLP307

CYQR;2013-04-08 22:00;CYQR 082200Z 33017KT 15SM FEW016 M09/M13 A3031 RMK CU2 SLP309

CYQR;2013-04-08 23:00;CYQR 082300Z 34016G21KT 15SM FEW018 M09/M12 A3031 RMK SC1 SLP308

CYQR;2013-04-09 00:00;CYQR 090000Z 33013KT 15SM FEW018 M09/M12 A3033 RMK SC1 SLP318

CYQR;2013-04-09 00:47;CYQR 090047Z 33013KT 15SM -SN SCT019 M09/ RMK SC3

CYQR;2013-04-09 01:00;CYQR 090100Z 33010KT 15SM FEW021 M10/M13 A3035 RMK SC2 SLP323

CYQR;2013-04-09 02:00;CYQR 090200Z 32009KT 15SM BKN020 M11/M14 A3037 RMK SC1 SLP330

CYQR;2013-04-09 03:00;CYQR 090300Z 31004KT 15SM FEW026 M13/M16 A3039 RMK SC1 SLP341

CYQR;2013-04-09 04:00;CYQR 090400Z 29007KT 15SM SKC M15/M16 A3040 RMK SLP344

CYQR;2013-04-09 05:00;CYQR 090500Z 29007KT 15SM SKC M17/M19 A3039 RMK SLP343

CYQR;2013-04-09 06:00;CYQR 090600Z 30009KT 15SM SKC M16/M17 A3040 RMK SLP347

CYQR;2013-04-09 07:00;CYQR 090700Z 28007KT 15SM SKC M18/M19 A3042 RMK SLP353

CYQR;2013-04-09 07:51;CYQR 090751Z 30006KT 15SM SKC M17/

CYQR;2013-04-09 08:00;CYQR 090800Z 31009KT 15SM SKC M17/M18 A3042 RMK SLP353

CYQR;2013-04-09 09:00;CYQR 090900Z 30005KT 15SM SKC M19/M21 A3042 RMK SLP352

CYQR;2013-04-09 09:21;CYQR 090921Z 30005KT 15SM SKC M18/

CYQR;2013-04-09 10:00;CYQR 091000Z 30007KT 15SM SKC M18/M20 A3042 RMK SLP352

CYQR;2013-04-09 11:00;CYQR 091100Z 31008KT 15SM SKC M18/M20 A3044 RMK SLP358

CYQR;2013-04-09 12:00;CYQR 091200Z 30006KT 15SM FEW220 M20/M22 A3045 RMK CI1 SLP366

CYQR;2013-04-09 13:00;CYQR 091300Z 28007KT 15SM FEW220 M19/M20 A3047 RMK CI1 SLP372

CYQR;2013-04-09 14:00;CYQR 091400Z 30008KT 15SM FEW220 M17/M20 A3050 RMK CI1 SLP379

CYQR;2013-04-09 15:00;CYQR 091500Z 34008KT 15SM SKC M15/M17 A3047 RMK SLP372

CYQR;2013-04-09 16:00;CYQR 091600Z 33007KT 15SM SKC M13/M15 A3047 RMK SLP371

CYQR;2013-04-09 17:00;CYQR 091700Z 34006KT 15SM SKC M10/M14 A3048 RMK SLP375

CYQR;2013-04-09 18:00;CYQR 091800Z 30006KT 15SM SKC M09/M12 A3050 RMK SLP377

CYQR;2013-04-09 19:00;CYQR 091900Z 33008KT 15SM FEW230 M07/M11 A3048 RMK CI1 SLP372

CYQR;2013-04-09 20:00;CYQR 092000Z 32007KT 15SM FEW230 M06/M09 A3047 RMK CI1 SLP369

CYQR;2013-04-09 21:00;CYQR 092100Z 32008KT 15SM FEW230 M05/M09 A3046 RMK CI1 SLP363

CYQR;2013-04-09 22:00;CYQR 092200Z 31009KT 15SM FEW230 M05/M09 A3044 RMK CI0 SLP357

CYQR;2013-04-09 23:00;CYQR 092300Z 32006KT 15SM FEW230 M04/M08 A3043 RMK CI1 SLP355

CYQR;2013-04-10 00:00;CYQR 100000Z 31007KT 15SM FEW230 M05/M09 A3043 RMK CI1 SLP355

CYQR;2013-04-10 01:00;CYQR 100100Z 33004KT 15SM FEW230 M06/M09 A3041 RMK CI1 SLP347

CYQR;2013-04-10 02:00;CYQR 100200Z 00000KT 15SM FEW230 M09/M11 A3039 RMK CI1 SLP342

CYQR;2013-04-10 03:00;CYQR 100300Z 26002KT 15SM SKC M10/M11 A3041 RMK SLP347

CYQR;2013-04-10 04:00;CYQR 100400Z 29007KT 15SM SKC M13/M14 A3041 RMK SLP349

CYQR;2013-04-10 05:00;CYQR 100500Z 30003KT 15SM SKC M15/M16 A3040 RMK SLP343

CYQR;2013-04-10 06:00;CYQR 100600Z 00000KT 15SM SKC M13/M15 A3038 RMK SLP335

CYQR;2013-04-10 07:00;CYQR 100700Z 00000KT 15SM BCFG SKC M15/M17 A3036 RMK FG PTCHS S-NW SLP330

CYQR;2013-04-10 08:00;CYQR 100800Z 18005KT 15SM BCFG SKC M17/M19 A3034 RMK FG PTCHS S-SW SLP323

CYQR;2013-04-10 09:00;CYQR 100900Z 11004KT 10SM BCFG BKN009 M16/M17 A3033 RMK SF2 SLP316

CYQR;2013-04-10 10:00;CYQR 101000Z 13006KT 15SM FEW001 SCT007 M16/M17 A3030 RMK SF1SF2 VIS SW-W 4 SLP308

CYQR;2013-04-10 11:00;CYQR 101100Z 12006KT 15SM FEW001 FEW007 M17/M18 A3027 RMK SF1SF2 SLP298

CYQR;2013-04-10 12:00;CYQR 101200Z 12008KT 8SM FEW007 M18/M19 A3027 RMK SF1 SLP299

CYQR;2013-04-10 12:29;CYQR 101229Z 12006KT 4SM BR BKN001 M18/ RMK SF1

CYQR;2013-04-10 12:42;CYQR 101242Z 12007KT 2SM BR BKN001 M18/ RMK SF2

CYQR;2013-04-10 13:00;CYQR 101300Z 13007KT 3SM BR BKN001 M18/M19 A3028 RMK SF2 SLP301

CYQR;2013-04-10 14:00;CYQR 101400Z 13008KT 6SM BR FEW001 FEW250 M16/M16 A3028 RMK SF1CI0 SLP302

CYQR;2013-04-10 15:00;CYQR 101500Z 12007KT 10SM FEW001 FEW250 M13/M14 A3028 RMK SF1CI0 SLP300

CYQR;2013-04-10 16:00;CYQR 101600Z 14010KT 15SM FEW250 M11/M12 A3025 RMK CI1 SLP293

CYQR;2013-04-10 17:00;CYQR 101700Z 15011G16KT 15SM BKN250 M08/M11 A3023 RMK CI0 SLP286

CYQR;2013-04-10 18:00;CYQR 101800Z 15013KT 15SM BKN250 M07/M10 A3020 RMK CI1 SLP272

CYQR;2013-04-10 19:00;CYQR 101900Z 14015KT 15SM BKN250 M04/M08 A3016 RMK CI1 SLP258

CYQR;2013-04-10 20:00;CYQR 102000Z 16014G19KT 15SM BKN250 M03/M07 A3014 RMK CI2 SLP252

CYQR;2013-04-10 21:00;CYQR 102100Z 15019G26KT 15SM BKN250 M03/M07 A3011 RMK CI2 SLP240

CYQR;2013-04-10 22:00;CYQR 102200Z 14017KT 15SM BKN250 M03/M06 A3008 RMK CI2 SLP230

CYQR;2013-04-10 23:00;CYQR 102300Z 14019KT 15SM OVC250 M03/M06 A3006 RMK CI5 SLP222

CYQR;2013-04-11 00:00;CYQR 110000Z 14020KT 15SM OVC250 M03/M06 A3003 RMK CI6 SLP215

CYQR;2013-04-11 01:00;CYQR 110100Z 13019G25KT 15SM OVC250 M04/M07 A3000 RMK CI5 SLP205

CYQR;2013-04-11 02:00;CYQR 110200Z 14020G26KT 15SM DRSN BKN250 M05/M08 A2997 RMK CI2 SLP196

CYQR;2013-04-11 03:00;CYQR 110300Z 14022G27KT 15SM SCT250 M06/M09 A2995 RMK CI2 SLP183

CYQR;2013-04-11 04:00;CYQR 110400Z 14021G28KT 15SM SCT250 M07/M10 A2993 RMK CI2 SLP179

CYQR;2013-04-11 05:00;CYQR 110500Z 14019G27KT 15SM DRSN BKN250 M07/M11 A2991 RMK CI5 SLP173

CYQR;2013-04-11 06:00;CYQR 110600Z 14021G26KT 15SM DRSN BKN250 M08/M11 A2991 RMK CI6 SLP168

CYQR;2013-04-11 07:00;CYQR 110700Z 14016KT 15SM DRSN OVC120 M08/M10 A2991 RMK AC8 SLP169

CYQR;2013-04-11 08:00;CYQR 110800Z 14022KT 15SM DRSN OVC120 M08/M11 A2988 RMK AC8 SLP158

CYQR;2013-04-11 09:00;CYQR 110900Z 14023KT 15SM DRSN FEW080 OVC120 M08/M11 A2986 RMK AC2AC6 SLP147

CYQR;2013-04-11 10:00;CYQR 111000Z 14020G28KT 15SM DRSN SCT080 OVC120 M07/M11 A2985 RMK AC3AC5 SLP142

CYQR;2013-04-11 11:00;CYQR 111100Z 14021G26KT 15SM DRSN SCT080 OVC120 M07/M10 A2984 RMK AC3AC5 SLP140

CYQR;2013-04-11 12:00;CYQR 111200Z 14021G26KT 15SM DRSN FEW080 OVC120 M07/M11 A2983 RMK AC2AC6 SLP136

CYQR;2013-04-11 13:00;CYQR 111300Z 14022G27KT 15SM DRSN BKN095 BKN120 M07/M10 A2983 RMK AC5AC2 SLP136

CYQR;2013-04-11 14:00;CYQR 111400Z 15020G27KT 15SM DRSN BKN090 OVC120 M06/M10 A2983 RMK AC6AC2 SLP137

CYQR;2013-04-11 15:00;CYQR 111500Z 15017G25KT 15SM DRSN SCT090 BKN120 M06/M09 A2985 RMK AC3AC4 SLP143

CYQR;2013-04-11 16:00;CYQR 111600Z 16016G21KT 15SM DRSN SCT072 OVC120 M05/M08 A2985 RMK AC4AC4 SLP144

CYQR;2013-04-11 17:00;CYQR 111700Z 15018KT 15SM DRSN SCT056 OVC120 M03/M06 A2985 RMK SC3AC5 SLP144

CYQR;2013-04-11 18:00;CYQR 111800Z 15018G24KT 15SM DRSN SCT042 OVC070 M03/M06 A2985 RMK SC3AC5 SLP144

CYQR;2013-04-11 18:49;CYQR 111849Z 15018KT 10SM -SN DRSN SCT017 BKN057 OVC120 M02/ RMK SC3SC3AC2

CYQR;2013-04-11 19:00;CYQR 111900Z 15018G25KT 4SM -SN DRSN FEW017 SCT028 BKN057 OVC120 M02/M04 A2986 RMK SC2SC1SC2AC4 SLP145

CYQR;2013-04-11 19:22;CYQR 111922Z 14019G24KT 2SM -SN DRSN BKN015 OVC050 M02/ RMK SC5SC3

CYQR;2013-04-11 19:27;CYQR 111927Z 15022KT 1SM R13/3500VP6000FT/D -SN DRSN BKN015 OVC050 M02/ RMK SC5SC3

CYQR;2013-04-11 20:00;CYQR 112000Z 15019G25KT 1SM R13/P6000FT/D -SN DRSN SCT010 OVC089 M02/M03 A2985 RMK SC4AC4 SLP144

CYQR;2013-04-11 20:21;CYQR 112021Z 15019G25KT 1SM R13/6000FT/N -SN DRSN BKN010 OVC089 M01/ RMK SN2SC3AC3 VIS VRB 3/4-11/4

CYQR;2013-04-11 21:00;CYQR 112100Z 15016KT 1SM R13/6000FT/N -SN DRSN BKN009 OVC090 M01/M02 A2985 RMK SN2SC4AC2 VIS VRB 3/4-11/4 SLP143

CYQR;2013-04-11 22:00;CYQR 112200Z 16017G22KT 1SM R13/P6000FT/D -SN DRSN OVC009 M00/M01 A2985 RMK SN2SC6 VIS VRB 3/4-11/4 SLP142

CYQR;2013-04-11 22:24;CYQR 112224Z 16015KT 3SM -SN DRSN BKN008 OVC030 M00/ RMK SC6SC2

CYQR;2013-04-11 23:00;CYQR 112300Z 16016KT 10SM -SN BKN006 OVC023 M00/M01 A2985 RMK SC5SC3 SLP142

CYQR;2013-04-11 23:53;CYQR 112353Z 15015KT 4SM -FZDZ OVC004 M00/ RMK SF8

CYQR;2013-04-12 00:00;CYQR 120000Z 16014KT 4SM -FZDZ OVC004 M01/M01 A2985 RMK SF8 SLP142

CYQR;2013-04-12 00:38;CYQR 120038Z 15017KT 2SM -FZDZ BR OVC004 M01/ RMK SF8

CYQR;2013-04-12 01:00;CYQR 120100Z 16015KT 2 1/2SM -FZDZ BR OVC004 M01/M01 A2985 RMK SF8 SLP142

CYQR;2013-04-12 02:00;CYQR 120200Z 16018KT 2 1/2SM -FZDZ BR OVC004 M01/M01 A2986 RMK SF8 CIG VRB 3-5 SLP146

CYQR;2013-04-12 02:37;CYQR 120237Z 17018KT 2 1/2SM -SN -FZDZ BR OVC004 M01/ RMK SF8

CYQR;2013-04-12 03:00;CYQR 120300Z 17014G20KT 3SM -SN BR OVC004 M01/M01 A2987 REFZDZ RMK SF8 SLP149

CYQR;2013-04-12 04:00;CYQR 120400Z 17013G18KT 6SM -SN BR OVC005 M01/M02 A2988 RMK SF8 SLP151

CYQR;2013-04-12 05:00;CYQR 120500Z 17014KT 12SM -SN DRSN OVC006 M01/M02 A2989 RMK SF8 SLP153

CYQR;2013-04-12 06:00;CYQR 120600Z 17014KT 5SM -SN DRSN BR OVC006 M01/M02 A2990 RMK SF8 SLP156

CYQR;2013-04-12 06:51;CYQR 120651Z 17014KT 4SM -SN DRSN -FZDZ BR OVC004 M02/ RMK SF8

CYQR;2013-04-12 07:00;CYQR 120700Z 18012KT 4SM DRSN -FZDZ BR OVC004 M02/M03 A2990 RMK SF8 SLP157

CYQR;2013-04-12 08:00;CYQR 120800Z 16013KT 4SM -FZDZ BR OVC003 M02/M03 A2990 RMK SF8 SLP157

CYQR;2013-04-12 09:00;CYQR 120900Z 16010KT 6SM BR OVC005 M03/M04 A2990 REFZDZ RMK SF8 CIG VRB 4-6 SLP155

CYQR;2013-04-12 10:00;CYQR 121000Z 16006KT 5SM BR OVC005 M03/M04 A2991 RMK SF8 CIG VRB 4-6 SLP159

CYQR;2013-04-12 10:50;CYQR 121050Z 12004KT 4SM -FZDZ BR OVC003 M02/ RMK SF8

CYQR;2013-04-12 11:00;CYQR 121100Z 12004KT 4SM BR OVC003 M02/M03 A2991 REFZDZ RMK SF8 SLP159

CYQR;2013-04-12 11:28;CYQR 121128Z 11004KT 2SM BR OVC003 M02/ RMK SF8 CIG VRB 2-4

CYQR;2013-04-12 12:00;CYQR 121200Z 11004KT 1 1/4SM BR OVC004 M02/M03 A2991 RMK SF8 SLP158

CYQR;2013-04-12 12:09;CYQR 121209Z 15002KT 1SM R13/P6000FT/U BR OVC001 M02/ RMK ST8

CYQR;2013-04-12 12:32;CYQR 121232Z 29002KT 1 1/2SM BR OVC001 M02/ RMK ST8 VIS VRB 1-2

CYQR;2013-04-12 13:00;CYQR 121300Z 33003KT 1 1/2SM BR OVC003 M02/M03 A2991 RMK ST8 VIS VRB 1-2 CIG VRB 2-4 SLP159

CYQR;2013-04-12 13:28;CYQR 121328Z 32011KT 1SM R13/5500FT/D BR OVC002 M02/ RMK SF8 VIS VRB 3/4-11/4

CYQR;2013-04-12 13:47;CYQR 121347Z 33011KT 3/4SM R13/3000FT/D BR OVC001 M02/ RMK SF8

CYQR;2013-04-12 14:00;CYQR 121400Z 33012KT 3/4SM R13/3000FT/N BR OVC001 M02/M03 A2991 RMK SF8 VIS VRB 1/2-1 SLP160

CYQR;2013-04-12 14:32;CYQR 121432Z 33013KT 1 1/2SM BR OVC002 M02/ RMK SF8

CYQR;2013-04-12 14:43;CYQR 121443Z 33011KT 3SM BR OVC003 M02/ RMK SF8

CYQR;2013-04-12 15:00;CYQR 121500Z 33010KT 6SM BR OVC004 M02/M03 A2994 RMK SF8 SLP168

CYQR;2013-04-12 15:27;CYQR 121527Z 34007KT 6SM BR OVC006 M02/ RMK SF8

CYQR;2013-04-12 16:00;CYQR 121600Z 36007KT 8SM OVC005 M02/M03 A2995 RMK SF8 BR SLP172

CYQR;2013-04-12 16:25;CYQR 121625Z 35006KT 8SM OVC003 M01/ RMK SF8 BR

CYQR;2013-04-12 17:00;CYQR 121700Z 34009KT 10SM OVC004 M01/M02 A2996 RMK SF8 BR SLP177

CYQR;2013-04-12 18:00;CYQR 121800Z 33007KT 10SM BKN005 OVC023 M01/M01 A2996 RMK SF6SC2 BR SLP177

CYQR;2013-04-12 18:42;CYQR 121842Z 33008KT 12SM SCT007 OVC025 M00/ RMK SF4SC4

CYQR;2013-04-12 19:00;CYQR 121900Z 31009KT 12SM FEW008 OVC023 M00/M02 A2995 RMK CU2SC6 SLP173

CYQR;2013-04-12 19:15;CYQR 121915Z 32009KT 12SM BKN007 OVC023 M00/ RMK SF5SC3

CYQR;2013-04-12 19:52;CYQR 121952Z 30010KT 15SM BKN010 OVC023 M00/ RMK SC5SC3

CYQR;2013-04-12 20:00;CYQR 122000Z 30011KT 15SM BKN010 OVC023 M00/M02 A2995 RMK SC5SC3 SLP172

CYQR;2013-04-12 20:17;CYQR 122017Z 30011KT 15SM BKN007 OVC015 M00/ RMK SF5SC3

CYQR;2013-04-12 21:00;CYQR 122100Z 30009KT 15SM OVC007 M00/M02 A2995 RMK SF8 SLP172

CYQR;2013-04-12 22:00;CYQR 122200Z 31009KT 15SM OVC009 00/M02 A2994 RMK SC8 SLP169

CYQR;2013-04-12 23:00;CYQR 122300Z 33005KT 15SM BKN009 OVC014 00/M02 A2993 RMK SF5SC3 SLP167

CYQR;2013-04-13 00:00;CYQR 130000Z 33004KT 15SM BKN009 OVC013 00/M02 A2993 RMK SF5SC3 SLP166

CYQR;2013-04-13 01:00;CYQR 130100Z 32003KT 15SM SCT009 OVC013 00/M02 A2993 RMK SF2SC6 SLP164

CYQR;2013-04-13 02:00;CYQR 130200Z 04002KT 15SM FEW013 OVC033 00/M02 A2991 RMK SC2SC6 SLP159

CYQR;2013-04-13 03:00;CYQR 130300Z 11003KT 15SM FEW015 OVC030 M00/M02 A2990 RMK SC1SC7 SLP155

CYQR;2013-04-13 04:00;CYQR 130400Z 15002KT 15SM OVC028 M00/M02 A2990 RMK SC8 SLP155

CYQR;2013-04-13 05:00;CYQR 130500Z 15006KT 15SM FEW015 OVC028 M00/M02 A2988 RMK SC1SC7 SLP149

CYQR;2013-04-13 06:00;CYQR 130600Z 15007KT 15SM SCT012 OVC024 M00/M02 A2987 RMK SC3SC5 SLP144

CYQR;2013-04-13 06:13;CYQR 130613Z 16005KT 15SM BKN006 OVC024 M00/ RMK SF6SC2

CYQR;2013-04-13 07:00;CYQR 130700Z 16004KT 15SM BKN006 OVC022 M01/M02 A2986 RMK SF6SC2 SLP140

CYQR;2013-04-13 08:00;CYQR 130800Z 15009KT 15SM BKN005 OVC016 M01/M02 A2983 RMK SF6SC2 SLP132

CYQR;2013-04-13 09:00;CYQR 130900Z 14008KT 15SM FEW005 OVC018 M01/M03 A2981 RMK SF1SC7 SLP122

CYQR;2013-04-13 10:00;CYQR 131000Z 15010KT 15SM FEW005 OVC020 M01/M04 A2979 RMK SF1SC7 SLP117

CYQR;2013-04-13 11:00;CYQR 131100Z 13012KT 6SM BR BKN003 OVC020 M03/M03 A2978 RMK SF6SC2 SLP112

CYQR;2013-04-13 11:37;CYQR 131137Z 13011KT 10SM SCT004 OVC022 M02/ RMK SF3SC5

CYQR;2013-04-13 12:00;CYQR 131200Z 14013KT 12SM FEW006 OVC022 M02/M03 A2976 RMK SF1SC8 SLP107

CYQR;2013-04-13 13:00;CYQR 131300Z 13015KT 12SM FEW008 OVC020 M02/M03 A2976 RMK SF1SC7 SLP105

CYQR;2013-04-13 13:38;CYQR 131338Z 13018KT 15SM BKN007 OVC015 M02/ RMK SF6SC2

CYQR;2013-04-13 14:00;CYQR 131400Z 13016G21KT 12SM BKN006 OVC015 M03/M04 A2975 RMK SF5SC3 SLP104

CYQR;2013-04-13 15:00;CYQR 131500Z 13019KT 10SM BKN006 OVC015 M03/M05 A2974 RMK SF7SC1 SLP101

CYQR;2013-04-13 15:43;CYQR 131543Z 12019KT 15SM SCT009 OVC019 M03/ RMK SC4SC4

CYQR;2013-04-13 16:00;CYQR 131600Z 12016G22KT 12SM SCT009 OVC019 M02/M04 A2974 RMK SF2SC6 SLP101

CYQR;2013-04-13 17:00;CYQR 131700Z 12022KT 12SM SCT010 BKN020 BKN120 OVC250 M01/M04 A2971 RMK SF2SC3AC2CI1 SLP091

CYQR;2013-04-13 18:00;CYQR 131800Z 12021G26KT 12SM SCT011 SCT018 BKN120 OVC250 M01/M04 A2971 RMK SF2SC2AC3CI1 SLP091

CYQR;2013-04-13 19:00;CYQR 131900Z 12021G26KT 15SM BKN024 BKN120 OVC250 M00/M04 A2970 RMK SC5AC2CI1 SLP087

CYQR;2013-04-13 20:00;CYQR 132000Z 13021G30KT 15SM BKN024 BKN120 OVC250 00/M04 A2970 RMK SC5AC2CI1 SLP087

CYQR;2013-04-13 21:00;CYQR 132100Z 13023G28KT 15SM FEW010 FEW030 BKN120 OVC250 M00/M05 A2970 RMK SF1SC1AC4CI2 SLP086

CYQR;2013-04-13 22:00;CYQR 132200Z 13023G29KT 15SM FEW030 BKN120 OVC250 M00/M04 A2971 RMK SC2AC5CI2 SLP089

CYQR;2013-04-13 23:00;CYQR 132300Z 13023KT 15SM FEW030 OVC120 M01/M04 A2973 RMK SC2AC6 SLP094

CYQR;2013-04-14 00:00;CYQR 140000Z 12021KT 15SM BKN015 BKN098 OVC120 M01/M04 A2975 RMK SC5AC2AC2 SLP102

CYQR;2013-04-14 01:00;CYQR 140100Z 12019G27KT 15SM BKN017 BKN094 OVC120 M01/M05 A2976 RMK SC5AC2AC2 SLP107

CYQR;2013-04-14 02:00;CYQR 140200Z 11019G26KT 15SM FEW017 SCT092 BKN300 M02/M06 A2978 RMK SC1AC2CI0 SLP113

CYQR;2013-04-14 03:00;CYQR 140300Z 12019G26KT 15SM SCT100 BKN300 M03/M07 A2981 RMK AC3CI2 SLP126

CYQR;2013-04-14 04:00;CYQR 140400Z 11021G26KT 15SM FEW300 M04/M07 A2982 RMK CI0 SLP130

CYQR;2013-04-14 05:00;CYQR 140500Z CCA 11020G26KT 15SM FEW300 M04/M08 A2983 RMK CI0 SLP134

CYQR;2013-04-14 06:00;CYQR 140600Z 10021KT 15SM SCT120 BKN300 M05/M08 A2983 RMK AC3CI0 SLP133

CYQR;2013-04-14 07:00;CYQR 140700Z 11018G24KT 15SM SKC M06/M08 A2985 RMK SLP140

CYQR;2013-04-14 08:00;CYQR 140800Z 10019KT 15SM SKC M06/M09 A2985 RMK SLP139

CYQR;2013-04-14 09:00;CYQR 140900Z 10016KT 15SM SKC M07/M09 A2985 RMK SLP139

CYQR;2013-04-14 10:00;CYQR 141000Z 10019KT 15SM FEW300 M07/M09 A2986 RMK CI0 SLP143

CYQR;2013-04-14 11:00;CYQR 141100Z 10017KT 15SM FEW300 M07/M10 A2987 RMK CI0 SLP148

CYQR;2013-04-14 12:00;CYQR 141200Z 09016G22KT 15SM BKN300 M06/M10 A2988 RMK CI3 SLP151

CYQR;2013-04-14 13:00;CYQR 141300Z 09011G17KT 15SM FEW120 SCT220 BKN300 M07/M10 A2991 RMK AC1CI2CI1 SLP159

CYQR;2013-04-14 14:00;CYQR 141400Z 07013KT 15SM SCT120 BKN220 BKN300 M05/M10 A2991 RMK AC3CI2CI1 SLP161

CYQR;2013-04-14 15:00;CYQR 141500Z 08013G18KT 15SM FEW120 BKN220 BKN300 M04/M09 A2992 RMK AC2CI4CI1 SLP165

CYQR;2013-04-14 16:00;CYQR 141600Z 08016KT 15SM SCT120 BKN220 M04/M10 A2994 RMK AC3CI4 SLP170

CYQR;2013-04-14 17:00;CYQR 141700Z 08015KT 15SM FEW120 BKN220 M03/M10 A2994 RMK AC2CI5 SLP172

CYQR;2013-04-14 18:00;CYQR 141800Z 07019KT 15SM FEW120 BKN220 M02/M09 A2994 RMK AC1CI6 SLP172

CYQR;2013-04-14 19:00;CYQR 141900Z 07016KT 15SM OVC120 M01/M09 A2995 RMK AS8 SLP174

CYQR;2013-04-14 20:00;CYQR 142000Z 05016KT 15SM OVC120 00/M07 A2996 RMK AS8 SLP177

CYQR;2013-04-14 21:00;CYQR 142100Z 06019KT 15SM OVC120 00/M07 A2996 RMK AS8 SLP179

CYQR;2013-04-14 22:00;CYQR 142200Z 07019G24KT 15SM OVC120 01/M07 A2996 RMK AS8 SLP177

CYQR;2013-04-14 23:00;CYQR 142300Z 04016KT 15SM FEW042 OVC120 00/M06 A2997 RMK SC1AS8 SLP181

CYQR;2013-04-15 00:00;CYQR 150000Z 03013KT 15SM FEW040 OVC120 00/M05 A2998 RMK SC1AS7 SLP185

CYQR;2013-04-15 01:00;CYQR 150100Z 03012KT 15SM SCT089 BKN110 OVC160 M00/M05 A2998 RMK AC3AS4AC1 SLP186

CYQR;2013-04-15 02:00;CYQR 150200Z 02009KT 15SM FEW092 OVC110 M01/M05 A2999 RMK AC1AS7 SLP188

CYQR;2013-04-15 03:00;CYQR 150300Z 36009KT 15SM BKN110 OVC320 M01/M05 A3000 RMK AS7CI0 SLP193

CYQR;2013-04-15 04:00;CYQR 150400Z 03012KT 15SM BKN110 OVC320 M01/M06 A3000 RMK AS5CI2 SLP193

CYQR;2013-04-15 05:00;CYQR 150500Z 04011KT 15SM OVC120 M02/M07 A2999 RMK AS8 SLP189

CYQR;2013-04-15 06:00;CYQR 150600Z 03012KT 15SM OVC120 M02/M07 A2998 RMK AS8 SLP185

CYQR;2013-04-15 07:00;CYQR 150700Z 03010KT 15SM OVC120 M02/M07 A2998 RMK AS8 SLP183

CYQR;2013-04-15 08:00;CYQR 150800Z 01009KT 15SM OVC090 M03/M07 A2996 RMK AC8 SLP179

CYQR;2013-04-15 09:00;CYQR 150900Z 36008KT 15SM OVC073 M03/M06 A2996 RMK AC8 SLP176

CYQR;2013-04-15 10:00;CYQR 151000Z 36008KT 15SM BKN061 OVC092 M03/M06 A2996 RMK SC7AC1 SLP175

CYQR;2013-04-15 11:00;CYQR 151100Z 01011KT 15SM OVC052 M03/M07 A2996 RMK SC8 SLP174

CYQR;2013-04-15 12:00;CYQR 151200Z 02013KT 15SM OVC052 M03/M07 A2995 RMK SC8 SLP173

CYQR;2013-04-15 12:30;CYQR 151230Z 01010G15KT 15SM -SN OVC045 M03/ RMK SC8

CYQR;2013-04-15 13:00;CYQR 151300Z 02011KT 12SM -SN DRSN BKN031 OVC045 M03/M07 A2996 RMK SC6SC2 SLP176

CYQR;2013-04-15 14:00;CYQR 151400Z 03013KT 4SM -SN DRSN BKN019 OVC050 M04/M06 A2996 RMK SC7SC1 SLP176

CYQR;2013-04-15 14:11;CYQR 151411Z 02015KT 2 1/2SM -SN DRSN OVC014 M04/ RMK SN2SC6

CYQR;2013-04-15 14:37;CYQR 151437Z 02013G18KT 3SM -SN DRSN BKN014 OVC045 M04/ RMK SN1SC6SC1

CYQR;2013-04-15 15:00;CYQR 151500Z 02013KT 5SM -SN DRSN BKN012 OVC045 M04/M06 A2996 RMK SC6SC2 /S01/ SLP177

CYQR;2013-04-15 15:25;CYQR 151525Z 02014G19KT 6SM -SN DRSN FEW007 BKN012 OVC043 M04/ RMK SF1SC6SC2

CYQR;2013-04-15 16:00;CYQR 151600Z 03016G22KT 4SM -SN FEW007 BKN012 OVC040 M04/M06 A2996 RMK SF1SC6SC1 SLP179

CYQR;2013-04-15 17:00;CYQR 151700Z 03016KT 10SM -SN BKN012 OVC040 M03/M06 A2998 RMK SC5SC3 SLP183

CYQR;2013-04-15 17:46;CYQR 151746Z 03015KT 15SM -SN SCT014 OVC034 M03/ RMK SC3SC5

CYQR;2013-04-15 18:00;CYQR 151800Z 04014G19KT 15SM SCT016 BKN028 OVC070 M03/M07 A2999 RMK SC3SC4AC1 SLP187

CYQR;2013-04-15 18:16;CYQR 151816Z 02016KT 15SM -SN SCT016 BKN028 OVC070 M03/ RMK SC2SC4AC2

CYQR;2013-04-15 19:00;CYQR 151900Z 03015KT 6SM -SN BKN014 OVC040 M03/M06 A2999 RMK SC5SC3 SLP186

CYQR;2013-04-15 20:00;CYQR 152000Z 03014KT 15SM -SN BKN014 OVC040 M03/M06 A3000 RMK SC4SC4 SLP191

CYQR;2013-04-15 20:21;CYQR 152021Z 01017KT 15SM SCT019 OVC031 M02/ RMK SC2SC6

CYQR;2013-04-15 21:00;CYQR 152100Z 01015KT 15SM FEW015 BKN044 OVC100 M01/M08 A3001 RMK SC1SC6AC2 SLP196

CYQR;2013-04-15 22:00;CYQR 152200Z 03013G18KT 15SM BKN042 OVC100 M01/M08 A3002 RMK SC5AC3 SLP197

CYQR;2013-04-15 22:36;CYQR 152236Z 04015G21KT 15SM -SN FEW007 BKN017 OVC040 M02/ RMK SF1SC5SC3

CYQR;2013-04-15 23:00;CYQR 152300Z 03012G17KT 15SM FEW007 BKN017 OVC044 M02/M06 A3004 RMK SF1SC6SC2 SLP204

CYQR;2013-04-16 00:00;CYQR 160000Z 05016G22KT 15SM SCT045 OVC100 M02/M06 A3005 RMK SC2AS6 SLP210

CYQR;2013-04-16 01:00;CYQR 160100Z 04012G17KT 15SM OVC029 M02/M06 A3007 RMK SC8 SLP215

CYQR;2013-04-16 02:00;CYQR 160200Z 02011G16KT 15SM BKN032 OVC086 M01/M08 A3008 RMK SC7AC1 SLP219

CYQR;2013-04-16 03:00;CYQR 160300Z 01011KT 15SM FEW049 BKN067 OVC300 M01/M07 A3010 RMK SC2AC3CI2 SLP225

CYQR;2013-04-16 04:00;CYQR 160400Z 03010KT 15SM FEW044 OVC300 M02/M08 A3013 RMK SC2CI4 SLP235

CYQR;2013-04-16 05:00;CYQR 160500Z 03009KT 15SM FEW120 BKN300 M03/M09 A3015 RMK AC2CI2 SLP241

CYQR;2013-04-16 06:00;CYQR 160600Z 04008KT 15SM FEW300 M05/M10 A3016 RMK CI0 SLP249

CYQR;2013-04-16 07:00;CYQR 160700Z 04008KT 15SM FEW300 M06/M11 A3017 RMK CI0 SLP253

CYQR;2013-04-16 08:00;CYQR 160800Z 03008KT 15SM BKN300 M07/M11 A3018 RMK CI2 SLP256

CYQR;2013-04-16 09:00;CYQR 160900Z 05010KT 15SM FEW300 M07/M12 A3019 RMK CI0 SLP259

CYQR;2013-04-16 10:00;CYQR 161000Z 04011KT 15SM FEW300 M07/M12 A3020 RMK CI0 SLP263

CYQR;2013-04-16 11:00;CYQR 161100Z 04014KT 15SM FEW300 M07/M12 A3020 RMK CI1 SLP264

CYQR;2013-04-16 12:00;CYQR 161200Z 06011KT 15SM BKN200 M06/M12 A3024 RMK CI2 SLP276

CYQR;2013-04-16 13:00;CYQR 161300Z 06014KT 15SM FEW120 SCT230 OVC300 M06/M12 A3027 RMK AC1CI2CI2 SLP287

CYQR;2013-04-16 14:00;CYQR 161400Z 07014KT 15SM FEW120 SCT220 OVC300 M05/M11 A3030 RMK AC1CI2CI2 SLP294

CYQR;2013-04-16 15:00;CYQR 161500Z 07013KT 15SM FEW180 BKN250 M04/M11 A3031 RMK AC1CI3 SLP299

CYQR;2013-04-16 16:00;CYQR 161600Z 06012KT 15SM BKN250 M04/M10 A3032 RMK CI6 CS ASOCTD SLP303

CYQR;2013-04-16 17:00;CYQR 161700Z 07013KT 15SM BKN250 M03/M10 A3033 RMK CI6 SLP304

CYQR;2013-04-16 18:00;CYQR 161800Z 07011KT 15SM BKN250 M03/M10 A3033 RMK CI6 SLP306

CYQR;2013-04-16 19:00;CYQR 161900Z 04009KT 15SM OVC250 M02/M10 A3033 RMK CI7 SLP307

CYQR;2013-04-16 20:00;CYQR 162000Z 03010KT 15SM FEW160 OVC250 M02/M09 A3034 RMK AC2CI6 SLP310

CYQR;2013-04-16 21:00;CYQR 162100Z 04007KT 15SM OVC250 M02/M09 A3035 RMK CI8 SLP313

CYQR;2013-04-16 22:00;CYQR 162200Z 05006KT 15SM OVC220 M01/M09 A3034 RMK CI8 SLP312

CYQR;2013-04-16 23:00;CYQR 162300Z 08012KT 15SM OVC220 M01/M08 A3035 RMK CI8 SLP316

CYQR;2013-04-17 00:00;CYQR 170000Z 08009KT 15SM FEW120 OVC220 M02/M12 A3036 RMK AC2CI6 SLP319

CYQR;2013-04-17 01:00;CYQR 170100Z 16006KT 15SM SCT140 OVC220 M03/M09 A3038 RMK AC3CI4 SLP324

CYQR;2013-04-17 02:00;CYQR 170200Z 26003KT 15SM SCT096 BKN220 M05/M07 A3038 RMK AC2CI5 SLP325

CYQR;2013-04-17 03:00;CYQR 170300Z 31002KT 15SM SCT096 BKN220 M06/M08 A3039 RMK AC2CI4 SLP328

CYQR;2013-04-17 04:00;CYQR 170400Z 35003KT 15SM FEW100 BKN220 M06/M08 A3039 RMK AC2CI4 SLP328

CYQR;2013-04-17 05:00;CYQR 170500Z 34002KT 15SM SCT220 M05/M08 A3038 RMK CI2 SLP326

CYQR;2013-04-17 06:00;CYQR 170600Z 34002KT 15SM FEW085 SCT220 M07/M09 A3037 RMK AC1CI1 SLP323

CYQR;2013-04-17 07:00;CYQR 170700Z 00000KT 15SM OVC220 M09/M10 A3037 RMK CI6 SLP322

CYQR;2013-04-17 08:00;CYQR 170800Z 19002KT 15SM SCT086 BKN220 M09/M10 A3037 RMK AC2CI4 SLP322

CYQR;2013-04-17 09:00;CYQR 170900Z 00000KT 15SM FEW098 BKN220 M11/M11 A3035 RMK AC1CI2 SLP317

CYQR;2013-04-17 10:00;CYQR 171000Z 00000KT 15SM BKN220 M09/M11 A3035 RMK CI2 SLP317

CYQR;2013-04-17 11:00;CYQR 171100Z 33004KT 15SM FEW098 BKN220 M11/M12 A3035 RMK AC1CI5 SLP316

CYQR;2013-04-17 12:00;CYQR 171200Z 26005KT 15SM SCT100 OVC220 M11/M13 A3034 RMK AC3CI2 SLP313

CYQR;2013-04-17 13:00;CYQR 171300Z 29002KT 12SM FEW100 BKN220 M12/M13 A3034 RMK AC1CI2 SLP313

CYQR;2013-04-17 14:00;CYQR 171400Z 31003KT 12SM FEW100 FEW220 M11/M12 A3033 RMK AC1CI0 SLP312

CYQR;2013-04-17 15:00;CYQR 171500Z 33002KT 15SM FEW100 SCT250 M09/M11 A3032 RMK AC1CI0 SLP309

CYQR;2013-04-17 16:00;CYQR 171600Z 30004KT 15SM FEW100 FEW250 M07/M08 A3031 RMK AC1CI0 FG BANK S-SW SLP306

CYQR;2013-04-17 17:00;CYQR 171700Z 29004KT 15SM BKN220 M05/M07 A3031 RMK CI1 SLP307

CYQR;2013-04-17 18:00;CYQR 171800Z 28008KT 15SM BKN250 M05/M07 A3031 RMK CI1 SLP304

CYQR;2013-04-17 18:28;CYQR 171828Z 30007KT 15SM FEW007 BKN250 M05/ RMK SF1CI1

CYQR;2013-04-17 19:00;CYQR 171900Z 31007KT 15SM BKN250 M04/M06 A3030 RMK CI1 SLP301

CYQR;2013-04-17 20:00;CYQR 172000Z 28008KT 15SM FEW025 SCT250 M03/M05 A3029 RMK CU1CI1 SLP298

CYQR;2013-04-17 21:00;CYQR 172100Z 30009KT 15SM SCT250 M02/M06 A3029 RMK CI1 SLP296

CYQR;2013-04-17 22:00;CYQR 172200Z 32008KT 15SM FEW250 M02/M06 A3027 RMK CI1 SLP290

CYQR;2013-04-17 23:00;CYQR 172300Z 34011KT 15SM FEW250 M01/M06 A3027 RMK CI1 SLP290

CYQR;2013-04-18 00:00;CYQR 180000Z 33007KT 15SM FEW250 M01/M05 A3027 RMK CI1 SLP289

CYQR;2013-04-18 01:00;CYQR 180100Z 33009KT 15SM FEW250 M02/M06 A3026 RMK CI1 SLP287

CYQR;2013-04-18 02:00;CYQR 180200Z 34006KT 15SM FEW250 M04/M07 A3026 RMK CI1 SLP287

CYQR;2013-04-18 03:00;CYQR 180300Z 32007KT 15SM SKC M05/M08 A3027 RMK SLP291

CYQR;2013-04-18 04:00;CYQR 180400Z 32005KT 15SM SKC M07/M09 A3027 RMK SLP293

CYQR;2013-04-18 05:00;CYQR 180500Z 28005KT 15SM SKC M09/M10 A3026 RMK SLP290

CYQR;2013-04-18 06:00;CYQR 180600Z 27006KT 15SM SKC M11/M12 A3024 RMK SLP283

CYQR;2013-04-18 07:00;CYQR 180700Z 29005KT 15SM SKC M12/M13 A3022 RMK SLP277

CYQR;2013-04-18 08:00;CYQR 180800Z 27004KT 15SM SKC M12/M14 A3021 RMK SLP273

CYQR;2013-04-18 09:00;CYQR 180900Z 34002KT 15SM SKC M13/M14 A3020 RMK SLP267

CYQR;2013-04-18 10:00;CYQR 181000Z 00000KT 15SM SKC M13/M14 A3019 RMK SLP263

CYQR;2013-04-18 11:00;CYQR 181100Z 00000KT 15SM SKC M11/M13 A3019 RMK SLP263

CYQR;2013-04-18 12:00;CYQR 181200Z 18004KT 15SM FEW020 FEW220 M15/M16 A3018 RMK SC1CI1 FROIN SLP261

CYQR;2013-04-18 13:00;CYQR 181300Z 18002KT 15SM FEW020 FEW220 M14/M15 A3019 RMK SC1CI1 SLP265

CYQR;2013-04-18 14:00;CYQR 181400Z 17002KT 15SM VCFG FEW220 M11/M11 A3018 RMK CI1 FG BANK S-W SLP261

CYQR;2013-04-18 15:00;CYQR 181500Z 19003KT 15SM BKN250 M09/M10 A3016 RMK CS6 SLP253

CYQR;2013-04-18 16:00;CYQR 181600Z 17004KT 15SM BKN250 M06/M08 A3015 RMK CS7 HALO SLP248

CYQR;2013-04-18 17:00;CYQR 181700Z 16007KT 15SM SCT150 BKN220 M04/M08 A3013 RMK AC2CS6 HALO SLP244

CYQR;2013-04-18 18:00;CYQR 181800Z 16007KT 15SM SCT150 BKN250 M03/M07 A3011 RMK AC2CI3 SLP237

CYQR;2013-04-18 19:00;CYQR 181900Z 15011KT 15SM BKN250 M01/M06 A3009 RMK CI3 CS ASOCTD HALO SLP228

CYQR;2013-04-18 20:00;CYQR 182000Z 16012KT 15SM BKN250 M01/M05 A3007 RMK CI6 SLP223

CYQR;2013-04-18 21:00;CYQR 182100Z 17012KT 15SM FEW150 BKN250 M00/M06 A3006 RMK AC1CI1 SLP218

CYQR;2013-04-18 22:00;CYQR 182200Z 15012KT 15SM BKN079 M00/M05 A3003 RMK AC7 SLP209

CYQR;2013-04-18 23:00;CYQR 182300Z 14012KT 15SM BKN058 M00/M05 A3001 RMK SC7 SLP202

CYQR;2013-04-19 00:00;CYQR 190000Z 13011G16KT 15SM BKN043 OVC067 M00/M04 A3000 RMK SC7AC1 SLP197

CYQR;2013-04-19 01:00;CYQR 190100Z 12012KT 15SM BKN023 OVC072 M01/M04 A2999 RMK SC7AC1 OCNL -SHSN SLP195

CYQR;2013-04-19 01:16;CYQR 190116Z 12013KT 15SM -SHSN BKN023 OVC050 M01/ RMK SC5SC3

CYQR;2013-04-19 02:00;CYQR 190200Z 12011KT 7SM -SHSN OVC039 M01/M05 A3000 RMK SC8 CVCTV CLD EMBD SLP198

CYQR;2013-04-19 03:00;CYQR 190300Z 12013KT 4SM -SHSN OVC029 M02/M04 A3002 RMK SC8 SLP201

CYQR;2013-04-19 03:09;CYQR 190309Z 12014KT 2 1/2SM -SHSN OVC029 M02/ RMK SN2SC6

CYQR;2013-04-19 03:39;CYQR 190339Z 12011KT 2 1/2SM -SN FEW006 OVC024 M02/ RMK SF1SC7

CYQR;2013-04-19 03:47;CYQR 190347Z 11012KT 3SM -SN SCT005 OVC024 M02/ RMK SF2SC6

CYQR;2013-04-19 04:00;CYQR 190400Z 12010KT 3SM -SN SCT006 OVC024 M03/M04 A3002 RMK SF3SC5 SLP202

CYQR;2013-04-19 05:00;CYQR 190500Z 12006KT 12SM -SN FEW006 OVC035 M02/M04 A3002 RMK SF1SC7 /S01/ SLP201

CYQR;2013-04-19 05:23;CYQR 190523Z 12005KT 15SM FEW006 OVC035 M02/ RMK SF1SC7

CYQR;2013-04-19 06:00;CYQR 190600Z 08005KT 15SM OVC035 M02/M03 A3001 RMK SC8 SLP195

CYQR;2013-04-19 07:00;CYQR 190700Z 05005KT 15SM BKN044 OVC075 M02/M04 A3002 RMK SC7AC1 SLP199

CYQR;2013-04-19 08:00;CYQR 190800Z 03006KT 15SM OVC048 M03/M06 A3003 RMK SC8 SLP201

CYQR;2013-04-19 09:00;CYQR 190900Z 05005KT 15SM FEW050 SCT085 M05/M09 A3003 RMK SC1AC1 SLP203

CYQR;2013-04-19 10:00;CYQR 191000Z 06005KT 15SM SCT063 M07/M10 A3004 RMK SC2 SLP205

CYQR;2013-04-19 11:00;CYQR 191100Z 09003KT 15SM SKC M08/M10 A3005 RMK SLP208

CYQR;2013-04-19 12:00;CYQR 191200Z 09005KT 15SM FEW120 FEW240 M06/M10 A3005 RMK AC1CI0 SLP210

CYQR;2013-04-19 13:00;CYQR 191300Z 00000KT 15SM FEW250 M10/M13 A3006 RMK CI1 SLP212

CYQR;2013-04-19 14:00;CYQR 191400Z 00000KT 15SM FEW250 M09/M11 A3006 RMK CI1 SLP213

CYQR;2013-04-19 15:00;CYQR 191500Z 25004KT 15SM FEW250 M07/M10 A3006 RMK CI0 SLP215

CYQR;2013-04-19 16:00;CYQR 191600Z 22003KT 15SM BKN250 M05/M08 A3006 RMK CI0 SLP216

CYQR;2013-04-19 17:00;CYQR 191700Z 16003KT 15SM SCT250 M02/M06 A3006 RMK CI0 SLP216

CYQR;2013-04-19 18:00;CYQR 191800Z 16007KT 15SM SCT250 M01/M06 A3006 RMK CI0 SLP210

CYQR;2013-04-19 19:00;CYQR 191900Z 17009KT 15SM FEW250 M01/M05 A3005 RMK CI0 SLP206

CYQR;2013-04-19 20:00;CYQR 192000Z 15009KT 15SM FEW250 00/M06 A3004 RMK CI1 SLP203

CYQR;2013-04-19 21:00;CYQR 192100Z 16006KT 15SM FEW250 M00/M07 A3003 RMK CI1 SLP202

CYQR;2013-04-19 22:00;CYQR 192200Z 13008KT 15SM FEW250 00/M06 A3002 RMK CI1 SLP198

CYQR;2013-04-19 23:00;CYQR 192300Z 13009KT 15SM BKN250 M00/M06 A3001 RMK CI1 SLP197

CYQR;2013-04-20 00:00;CYQR 200000Z 14010KT 15SM BKN250 M01/M06 A3000 RMK CI1 SLP193

CYQR;2013-04-20 01:00;CYQR 200100Z 13013KT 15SM BKN250 M01/M05 A2999 RMK CI1 SLP189

CYQR;2013-04-20 02:00;CYQR 200200Z 12012G17KT 15SM BKN250 BKN300 M02/M06 A2997 RMK CI2CI1 SLP184

CYQR;2013-04-20 03:00;CYQR 200300Z 12014G19KT 15SM BKN250 M02/M06 A2997 RMK CI4 SLP185

CYQR;2013-04-20 04:00;CYQR 200400Z 13013KT 15SM BKN250 M02/M07 A2997 RMK CI2 SLP185

CYQR;2013-04-20 05:00;CYQR 200500Z 14016KT 15SM BKN250 M02/M08 A2997 RMK CI2 SLP183

CYQR;2013-04-20 06:00;CYQR 200600Z 14014G19KT 15SM BKN250 M03/M08 A2996 RMK CI2 SLP177

CYQR;2013-04-20 07:00;CYQR 200700Z 14017KT 15SM BKN250 M04/M08 A2996 RMK CI2 SLP176

CYQR;2013-04-20 08:00;CYQR 200800Z 15015G21KT 15SM BKN250 M04/M08 A2995 RMK CI2 SLP173

CYQR;2013-04-20 09:00;CYQR 200900Z 14016G21KT 15SM BKN250 M04/M08 A2994 RMK CI2 SLP169

CYQR;2013-04-20 10:00;CYQR 201000Z 14017KT 15SM BKN250 M04/M08 A2992 RMK CI2 SLP165

CYQR;2013-04-20 11:00;CYQR 201100Z 14017KT 15SM FEW079 BKN250 M04/M08 A2991 RMK AC1CI2 SLP162

CYQR;2013-04-20 12:00;CYQR 201200Z CCA 14018G24KT 15SM SCT067 BKN250 M04/M08 A2990 RMK AC2CI2 SLP157

CYQR;2013-04-20 13:00;CYQR 201300Z 15019G24KT 15SM SCT032 BKN063 OVC090 M04/M07 A2990 RMK SC3SC2AC2 SLP156

CYQR;2013-04-20 13:29;CYQR 201329Z 15017G22KT 6SM -SN DRSN BKN016 OVC050 M04/ RMK SC6SC2

CYQR;2013-04-20 14:00;CYQR 201400Z 16021G26KT 10SM -SN DRSN BKN020 OVC058 M03/M06 A2989 RMK SC5SC3 SLP154

CYQR;2013-04-20 15:00;CYQR 201500Z 15019G24KT 8SM -SN DRSN SCT020 OVC046 M03/M05 A2989 RMK SC4SC4 SLP152

CYQR;2013-04-20 16:00;CYQR 201600Z 16020G25KT 10SM -SN DRSN SCT025 OVC046 M03/M05 A2987 RMK SC3SC5 SLP148

CYQR;2013-04-20 16:42;CYQR 201642Z 16023KT 10SM -SN DRSN BKN008 OVC027 M02/ RMK SF2SC6

CYQR;2013-04-20 17:00;CYQR 201700Z 16020G26KT 12SM -SN DRSN BKN008 OVC027 M02/M04 A2986 RMK SF5SC3 SLP144

CYQR;2013-04-20 18:00;CYQR 201800Z 16018G24KT 15SM BKN008 OVC027 M01/M03 A2986 RMK SF6SC2 SLP142

CYQR;2013-04-20 18:45;CYQR 201845Z 16021G26KT 15SM BKN011 OVC030 M01/ RMK SC6SC2

CYQR;2013-04-20 19:00;CYQR 201900Z 16019G26KT 15SM OVC010 M01/M03 A2984 RMK SC8 SLP136

CYQR;2013-04-20 20:00;CYQR 202000Z 17017G22KT 15SM BKN010 OVC020 M01/M03 A2983 RMK SC7SC1 CIG VRB 8-12 SLP133

CYQR;2013-04-20 20:39;CYQR 202039Z 16018KT 15SM FEW010 OVC020 M00/ RMK SC1SC7

CYQR;2013-04-20 21:00;CYQR 202100Z 16016G21KT 15SM FEW015 OVC018 M00/M02 A2982 RMK SC2SC6 SLP129

CYQR;2013-04-20 22:00;CYQR 202200Z 16016KT 15SM FEW010 BKN018 OVC050 00/M02 A2981 RMK SF1SC6SC2 SLP127

CYQR;2013-04-20 23:00;CYQR 202300Z 16014G19KT 15SM FEW010 BKN020 OVC049 00/M01 A2981 RMK SF1SC7SC1 SLP124

CYQR;2013-04-21 00:00;CYQR 210000Z 15015KT 15SM FEW020 BKN045 BKN072 01/M01 A2979 RMK SC1SC5AC2 SLP118

CYQR;2013-04-21 01:00;CYQR 210100Z 15013G18KT 15SM FEW021 BKN042 OVC067 01/M01 A2979 RMK SC1SC6AC1 SLP118

CYQR;2013-04-21 02:00;CYQR 210200Z 16012KT 15SM OVC021 01/M01 A2980 RMK SC8 SLP122

CYQR;2013-04-21 02:42;CYQR 210242Z 17012G17KT 15SM -RA OVC021 01/ RMK SC8

CYQR;2013-04-21 03:00;CYQR 210300Z 17011KT 12SM -RA OVC021 01/M00 A2981 RMK SC8 SLP123

CYQR;2013-04-21 04:00;CYQR 210400Z 18010KT 12SM -RA OVC015 01/M00 A2982 RMK SC8 SLP127

CYQR;2013-04-21 04:13;CYQR 210413Z 18011KT 12SM -RA OVC013 01/ RMK SC8

CYQR;2013-04-21 04:27;CYQR 210427Z 22009KT 12SM -RA OVC008 01/ RMK SC8

CYQR;2013-04-21 05:00;CYQR 210500Z 30013KT 12SM -RASN BKN006 OVC017 01/00 A2983 RMK SC6SC2 SLP130

CYQR;2013-04-21 06:00;CYQR 210600Z 32017G22KT 15SM OVC007 01/M00 A2985 RMK SC8 SLP136

CYQR;2013-04-21 06:48;CYQR 210648Z 31018KT 15SM SCT007 OVC023 01/ RMK SC2SC6

CYQR;2013-04-21 07:00;CYQR 210700Z 31020KT 15SM SCT007 OVC023 01/M00 A2986 RMK SC2SC6 SLP139

CYQR;2013-04-21 08:00;CYQR 210800Z 31023G29KT 15SM SCT036 OVC100 00/M02 A2986 RMK SC3AC5 SLP141

CYQR;2013-04-21 09:00;CYQR 210900Z 30018KT 15SM OVC120 M01/M04 A2988 RMK AC8 SLP146

CYQR;2013-04-21 10:00;CYQR 211000Z 30022KT 15SM SCT033 OVC120 M01/M03 A2988 RMK SC3AC5 SLP148

CYQR;2013-04-21 11:00;CYQR 211100Z 31030KT 15SM OVC014 M01/M04 A2990 RMK SC8 SLP152

CYQR;2013-04-21 12:00;CYQR 211200Z 31025G30KT 15SM OVC017 M02/M05 A2993 RMK SC8 SLP165

CYQR;2013-04-21 13:00;CYQR 211300Z 32030G35KT 15SM OVC015 M04/M07 A2996 RMK SC8 SLP174

CYQR;2013-04-21 14:00;CYQR 211400Z 32026G37KT 15SM BKN017 BKN060 M04/M07 A2998 RMK SC5SC1 SLP181

CYQR;2013-04-21 15:00;CYQR 211500Z 31027KT 15SM BKN017 OVC060 M04/M07 A3000 RMK SC7SC1 SLP191

CYQR;2013-04-21 16:00;CYQR 211600Z 32030G37KT 15SM BKN015 BKN085 M05/M07 A3001 RMK SC6AC2 SLP194

CYQR;2013-04-21 17:00;CYQR 211700Z 32029G35KT 15SM BKN015 OVC050 M04/M07 A3004 RMK SC7SC1 SLP203

CYQR;2013-04-21 18:00;CYQR 211800Z 32026KT 15SM BKN015 OVC050 M03/M06 A3006 RMK SC7SC1 SLP211

CYQR;2013-04-21 19:00;CYQR 211900Z 33027KT 15SM BKN015 OVC050 M03/M06 A3007 RMK SC7SC1 SLP214

CYQR;2013-04-21 20:00;CYQR 212000Z 33021KT 15SM OVC017 M02/M06 A3009 RMK SC8 SLP220

CYQR;2013-04-21 21:00;CYQR 212100Z 33025KT 15SM OVC017 M02/M06 A3012 RMK SC8 SLP232

CYQR;2013-04-21 22:00;CYQR 212200Z 34021G27KT 15SM OVC020 M03/M06 A3014 RMK SC8 SLP238

CYQR;2013-04-21 23:00;CYQR 212300Z 34019G27KT 15SM OVC022 M03/M07 A3017 RMK SC8 SLP246

CYQR;2013-04-22 00:00;CYQR 220000Z 34016KT 15SM BKN024 M02/M07 A3019 RMK SC6 SLP256

CYQR;2013-04-22 01:00;CYQR 220100Z 34018KT 15SM FEW020 FEW050 M04/M08 A3020 RMK SC1SC1 SLP260

CYQR;2013-04-22 02:00;CYQR 220200Z 34011KT 15SM FEW020 FEW050 FEW220 M06/M09 A3022 RMK SC1SC1CI0 SLP266

CYQR;2013-04-22 03:00;CYQR 220300Z 33007KT 15SM FEW020 FEW050 M07/M10 A3024 RMK SC1SC1 SLP279

CYQR;2013-04-22 04:00;CYQR 220400Z 31009KT 15SM FEW020 SCT220 M08/M10 A3026 RMK SC1CI1 SLP285

CYQR;2013-04-22 05:00;CYQR 220500Z 31009KT 15SM FEW039 M08/M11 A3027 RMK SC2 SLP289

CYQR;2013-04-22 06:00;CYQR 220600Z 31012KT 15SM SKC M08/M10 A3028 RMK SLP291

CYQR;2013-04-22 07:00;CYQR 220700Z 32011KT 15SM SKC M08/M10 A3029 RMK SLP295

CYQR;2013-04-22 08:00;CYQR 220800Z 31005KT 15SM SKC M11/M12 A3030 RMK SLP300

CYQR;2013-04-22 09:00;CYQR 220900Z 32006KT 15SM SKC M11/M13 A3032 RMK SLP307

CYQR;2013-04-22 10:00;CYQR 221000Z 32005KT 15SM SKC M13/M15 A3033 RMK SLP310

CYQR;2013-04-22 11:00;CYQR 221100Z 31004KT 15SM FEW020 M13/M15 A3034 RMK SC1 FROIN SLP315

CYQR;2013-04-22 12:00;CYQR 221200Z 30006KT 15SM FEW020 M13/M15 A3036 RMK SC1 SLP323

CYQR;2013-04-22 13:00;CYQR 221300Z 27006KT 15SM SKC M14/M15 A3037 RMK SLP327

CYQR;2013-04-22 14:00;CYQR 221400Z 27004KT 15SM SKC M12/M14 A3039 RMK SLP331

CYQR;2013-04-22 15:00;CYQR 221500Z 30007KT 15SM SKC M08/M11 A3039 RMK SLP334

CYQR;2013-04-22 16:00;CYQR 221600Z 30009KT 15SM FEW330 M06/M09 A3040 RMK CI0 SLP335

CYQR;2013-04-22 17:00;CYQR 221700Z 29008KT 15SM FEW330 M04/M07 A3040 RMK CI1 SLP337

CYQR;2013-04-22 18:00;CYQR 221800Z 30009KT 15SM FEW016 M03/M07 A3040 RMK SC1 SLP334

CYQR;2013-04-22 19:00;CYQR 221900Z 29012KT 15SM FEW016 M01/M05 A3040 RMK CU1 SLP332

CYQR;2013-04-22 20:00;CYQR 222000Z 31017KT 15SM FEW023 M01/M06 A3039 RMK CU1 SLP329

CYQR;2013-04-22 21:00;CYQR 222100Z 28015KT 15SM FEW028 M00/M05 A3037 RMK CU2 SLP325

CYQR;2013-04-22 22:00;CYQR 222200Z 30012KT 15SM FEW031 M00/M05 A3036 RMK CU1 SLP321

CYQR;2013-04-22 23:00;CYQR 222300Z 31011KT 15SM FEW030 M00/M06 A3034 RMK CU1 SLP314

CYQR;2013-04-23 00:00;CYQR 230000Z 27008KT 15SM FEW030 M00/M06 A3033 RMK SC1 SLP310

CYQR;2013-04-23 01:00;CYQR 230100Z 24007KT 15SM SKC M02/M05 A3031 RMK SLP305

CYQR;2013-04-23 02:00;CYQR 230200Z 22008KT 15SM FEW330 M04/M07 A3030 RMK CI1 SLP301

CYQR;2013-04-23 03:00;CYQR 230300Z 20007KT 15SM FEW330 M06/M09 A3030 RMK CI1 SLP300

CYQR;2013-04-23 04:00;CYQR 230400Z 18007KT 15SM SKC M06/M09 A3028 RMK SLP296

CYQR;2013-04-23 05:00;CYQR 230500Z 20007KT 15SM SKC M07/M10 A3026 RMK SLP289

CYQR;2013-04-23 06:00;CYQR 230600Z 20007KT 15SM SCT250 M09/M11 A3024 RMK CI1 SLP278

CYQR;2013-04-23 07:00;CYQR 230700Z 21007KT 15SM SKC M08/M10 A3021 RMK SLP270

CYQR;2013-04-23 08:00;CYQR 230800Z 19006KT 15SM OVC220 M07/M10 A3018 RMK CI6 SLP260

CYQR;2013-04-23 09:00;CYQR 230900Z 12005KT 15SM OVC220 M07/M09 A3016 RMK CI4 SLP249

CYQR;2013-04-23 10:00;CYQR 231000Z 12007KT 15SM OVC220 M08/M10 A3013 RMK CI4 SLP239

CYQR;2013-04-23 11:00;CYQR 231100Z 12006KT 15SM FEW100 BKN220 M08/M10 A3012 RMK AC1CI2 SLP234

CYQR;2013-04-23 12:00;CYQR 231200Z 12005KT 15SM SCT059 SCT100 BKN220 M09/M11 A3011 RMK SC3AC1CI0 SLP234

CYQR;2013-04-23 13:00;CYQR 231300Z 13003KT 15SM FEW059 FEW100 FEW220 M08/M10 A3011 RMK SC2AC1CI1 SLP234

CYQR;2013-04-23 14:00;CYQR 231400Z 19004KT 15SM FEW100 FEW220 M08/M10 A3011 RMK AC1CI0 SLP234

CYQR;2013-04-23 15:00;CYQR 231500Z 29003KT 15SM FEW100 FEW220 M06/M08 A3011 RMK AC1CI1 SLP236

CYQR;2013-04-23 16:00;CYQR 231600Z 31006KT 15SM FEW220 M03/M05 A3010 RMK CI1 SLP232

CYQR;2013-04-23 17:00;CYQR 231700Z 28003KT 15SM FEW220 M01/M04 A3009 RMK CI1 SLP229

CYQR;2013-04-23 18:00;CYQR 231800Z 24005KT 15SM FEW240 M00/M04 A3009 RMK CI0 SLP224

CYQR;2013-04-23 19:00;CYQR 231900Z 26009KT 15SM FEW240 00/M03 A3008 RMK CI0 SLP221

CYQR;2013-04-23 20:00;CYQR 232000Z 27007KT 15SM BKN240 01/M03 A3007 RMK CI1 SLP219

CYQR;2013-04-23 21:00;CYQR 232100Z 27005KT 15SM FEW240 OVC300 02/M03 A3005 RMK CI2CI1 SLP208

CYQR;2013-04-23 22:00;CYQR 232200Z 22002KT 15SM FEW050 BKN300 02/M03 A3003 RMK SC2CI1 SLP201

CYQR;2013-04-23 23:00;CYQR 232300Z 21004KT 15SM FEW054 SCT300 01/M03 A3000 RMK SC1CI1 TR SC SLP193

CYQR;2013-04-24 00:00;CYQR 240000Z 20006KT 15SM FEW055 FEW100 BKN300 00/M03 A2998 RMK SC2AC1CI1 SLP187

CYQR;2013-04-24 00:21;CYQR 240021Z 31003KT 12SM -SN BKN037 BKN100 BKN300 00/ RMK SC6AC1CI1 CVCTV CLD EMBD VIS E 1

CYQR;2013-04-24 00:38;CYQR 240038Z 26010KT 1SM R13/P6000FT/D -SHSN VV003 01/ RMK SN8

CYQR;2013-04-24 00:47;CYQR 240047Z 19005KT 8SM R13/3500VP6000FT/U -SHSN SCT002 BKN068 OVC300 00/ RMK SC3AC2CI0 CVCTV CLD EMBD VIS LWR E

CYQR;2013-04-24 01:00;CYQR 240100Z 19006KT 15SM VCSH FEW029TCU SCT068 OVC300 M01/M03 A2997 RMK TCU2AC1CI2 SLP183

CYQR;2013-04-24 02:00;CYQR 240200Z 23010KT 15SM FEW030 SCT070 OVC270 M01/M04 A2996 RMK SC1AC2CI2 SLP179

CYQR;2013-04-24 03:00;CYQR 240300Z 31013KT 15SM FEW070 SCT260 M01/M03 A2996 RMK AC1CI1 SLP178

CYQR;2013-04-24 04:00;CYQR 240400Z 30009KT 15SM SCT070 BKN240 M02/M04 A2996 RMK AC2CI1 OBS TAKEN -07 SLP178

CYQR;2013-04-24 05:00;CYQR 240500Z 30010KT 15SM OVC220 M02/M04 A2995 RMK CI4 SLP174

CYQR;2013-04-24 06:00;CYQR 240600Z 27008KT 15SM SCT220 M04/M06 A2994 RMK CI2 SLP170

CYQR;2013-04-24 07:00;CYQR 240700Z 29011KT 15SM BKN046 BKN220 M02/M04 A2993 RMK SC5CI0 SLP167

CYQR;2013-04-24 08:00;CYQR 240800Z 30012KT 12SM -SHSN BKN028 OVC240 M01/M04 A2993 RMK SC6CI0 CVCTV CLD EMBD SLP166

CYQR;2013-04-24 08:47;CYQR 240847Z 33021KT 15SM OVC009 M01/ RMK SC8 OCNL -SHSN

CYQR;2013-04-24 09:04;CYQR 240904Z 33020KT 2SM -SHSN OVC009 M01/ RMK SC8 -SHSN OCNL

CYQR;2013-04-24 09:34;CYQR 240934Z 33024G29KT 3SM -SHSN OVC010 M02/ RMK SC8 CVTV CLD EMBD

CYQR;2013-04-24 09:45;CYQR 240945Z 34024G30KT 15SM BKN008 BKN041 M02/ RMK SC6SC2

CYQR;2013-04-24 10:00;CYQR 241000Z 34025KT 15SM OVC013 M02/M04 A2993 RMK SC8 SLP162

CYQR;2013-04-24 11:00;CYQR 241100Z 33017G28KT 15SM FEW015 M04/M07 A2996 RMK SC1 SLP172

CYQR;2013-04-24 12:00;CYQR 241200Z 32017KT 15SM FEW011 M05/M07 A2998 RMK SC2 SLP185

CYQR;2013-04-24 13:00;CYQR 241300Z 33018KT 15SM FEW010 M05/M07 A3000 RMK SC1 SLP190

CYQR;2013-04-24 14:00;CYQR 241400Z 33018KT 15SM FEW010 M05/M08 A3002 RMK SC1 SLP196

CYQR;2013-04-24 15:00;CYQR 241500Z 33022G28KT 15SM FEW014 M04/M08 A3003 RMK CU1 SLP203

CYQR;2013-04-24 16:00;CYQR 241600Z 33024KT 15SM FEW014 M04/M08 A3004 RMK CU1 SLP206

CYQR;2013-04-24 17:00;CYQR 241700Z 34019G26KT 15SM FEW018 M03/M07 A3006 RMK CU1 SLP211

CYQR;2013-04-24 18:00;CYQR 241800Z 34017G24KT 15SM FEW020 M03/M08 A3006 RMK CF1 SLP215

CYQR;2013-04-24 19:00;CYQR 241900Z 33016KT 15SM FEW020 FEW310 M02/M07 A3006 RMK CF1CI1 SLP215

CYQR;2013-04-24 20:00;CYQR 242000Z 32014KT 15SM FEW020 BKN310 M02/M08 A3006 RMK CF1CI2 SLP213

CYQR;2013-04-24 21:00;CYQR 242100Z 33010G15KT 15SM FEW024 FEW310 M02/M08 A3006 RMK CF1CI1 SLP210

CYQR;2013-04-24 22:00;CYQR 242200Z 33008KT 15SM OVC310 M02/M08 A3005 RMK CI2 SLP206

CYQR;2013-04-24 23:00;CYQR 242300Z 35003KT 15SM OVC310 M01/M09 A3002 RMK CI6 SLP197

CYQR;2013-04-25 00:00;CYQR 250000Z 21004KT 15SM FEW110 OVC310 M02/M07 A3000 RMK AC2CI5 SLP193

CYQR;2013-04-25 01:00;CYQR 250100Z 19007KT 15SM SCT130 OVC300 M02/M06 A2997 RMK AC2CI3 SLP184

CYQR;2013-04-25 02:00;CYQR 250200Z 18008KT 15SM FEW120 M04/M08 A2996 RMK AC1 SLP179

CYQR;2013-04-25 03:00;CYQR 250300Z 16009KT 15SM FEW120 M04/M08 A2996 RMK AC1 SLP179

CYQR;2013-04-25 04:00;CYQR 250400Z 16012KT 15SM SKC M05/M08 A2994 RMK OBS TAKEN -08 SLP174

CYQR;2013-04-25 05:00;CYQR 250500Z 16012KT 15SM BKN090 BKN280 M05/M08 A2992 RMK AC3CI0 SLP167

CYQR;2013-04-25 06:00;CYQR 250600Z 15012G17KT 15SM SCT081 SCT280 M05/M09 A2990 RMK AC2CI0 SLP159

CYQR;2013-04-25 07:00;CYQR 250700Z 15010KT 15SM SCT084 BKN280 M05/M08 A2988 RMK AC2CI0 SLP153

CYQR;2013-04-25 08:00;CYQR 250800Z 14009KT 15SM SCT080 M06/M08 A2987 RMK AC1 SLP148

CYQR;2013-04-25 09:00;CYQR 250900Z 14011KT 15SM FEW070 SCT280 M06/M09 A2983 RMK AC1CI0 SLP135

CYQR;2013-04-25 10:00;CYQR 251000Z 15013KT 15SM FEW070 BKN280 M06/M09 A2980 RMK AC1CI1 SLP126

CYQR;2013-04-25 11:00;CYQR 251100Z 13012KT 15SM FEW070 FEW280 M06/M09 A2978 RMK AC1CI0 SLP118

CYQR;2013-04-25 12:00;CYQR 251200Z 14014KT 15SM FEW070 BKN230 M06/M08 A2975 RMK AC1CI2 SLP108

CYQR;2013-04-25 13:00;CYQR 251300Z 13013KT 15SM FEW080 FEW130 OVC250 M05/M08 A2975 RMK AC1AC1CI2 SLP107

CYQR;2013-04-25 14:00;CYQR 251400Z 14015KT 15SM FEW080 FEW130 BKN250 M04/M07 A2973 RMK AC1AC1CI2 SLP102

CYQR;2013-04-25 15:00;CYQR 251500Z 14013KT 15SM BKN250 M03/M05 A2972 RMK CI1 SLP097

CYQR;2013-04-25 16:00;CYQR 251600Z 14009KT 15SM FEW090 BKN250 M01/M04 A2971 RMK AC1CI1 SLP094

CYQR;2013-04-25 17:00;CYQR 251700Z 15009KT 15SM SCT250 01/M02 A2971 RMK CI1 SLP093

CYQR;2013-04-25 18:00;CYQR 251800Z 17006KT 15SM FEW100 FEW250 02/M01 A2972 RMK AC1CI0 SLP093

CYQR;2013-04-25 19:00;CYQR 251900Z 18005KT 15SM FEW100 FEW260 03/M00 A2971 RMK AC1CI1 SLP090

CYQR;2013-04-25 20:00;CYQR 252000Z 18006KT 15SM FEW100 FEW260 03/00 A2971 RMK AC1CI0 SLP092

CYQR;2013-04-25 21:00;CYQR 252100Z 17008KT 15SM FEW100 BKN150 BKN260 04/00 A2971 RMK AC1AC2CI0 SLP090

CYQR;2013-04-25 22:00;CYQR 252200Z 19008KT 15SM FEW150 FEW260 04/00 A2971 RMK AC1CI0 SLP090

CYQR;2013-04-25 23:00;CYQR 252300Z 19008KT 15SM FEW150 BKN260 04/00 A2971 RMK AC1CI0 CONTRAILS SLP091

CYQR;2013-04-26 00:00;CYQR 260000Z 18008KT 15SM FEW130 FEW260 04/01 A2973 RMK AC1CI0 SLP095

CYQR;2013-04-26 01:00;CYQR 260100Z 18008KT 15SM FEW130 BKN260 03/00 A2974 RMK AC1CI1 CONTRAILS SLP098

CYQR;2013-04-26 02:00;CYQR 260200Z 19008KT 15SM BKN095 BKN260 03/M00 A2975 RMK AC5CI2 SLP101

CYQR;2013-04-26 02:43;CYQR 260243Z 22009KT 15SM BKN095 BKN260 02/ RMK AC3CI2

CYQR;2013-04-26 03:00;CYQR 260300Z 22008KT 15SM BKN095 02/00 A2976 RMK AC6 SLP106

CYQR;2013-04-26 04:00;CYQR 260400Z 23010KT 15SM BKN091 03/00 A2978 RMK AC7 OBS TAKEN -07 SLP113

CYQR;2013-04-26 05:00;CYQR 260500Z 25008KT 15SM SCT097 02/M00 A2979 RMK AC2 SLP115

CYQR;2013-04-26 06:00;CYQR 260600Z 25010KT 15SM FEW090 02/M01 A2979 RMK AC1 SLP113

CYQR;2013-04-26 07:00;CYQR 260700Z 27009KT 15SM FEW090 01/M01 A2981 RMK AC1 SLP117

CYQR;2013-04-26 08:00;CYQR 260800Z 31003KT 15SM BKN097 01/M01 A2982 RMK AC4 SLP122

CYQR;2013-04-26 09:00;CYQR 260900Z 29006KT 15SM OVC086 02/M00 A2984 RMK AC8 SLP127

CYQR;2013-04-26 10:00;CYQR 261000Z 29005KT 15SM OVC086 02/M00 A2986 RMK AC8 SLP133

CYQR;2013-04-26 11:00;CYQR 261100Z 26002KT 15SM BKN086 02/M00 A2986 RMK AC6 SLP136

CYQR;2013-04-26 12:00;CYQR 261200Z 18004KT 15SM FEW093 02/M01 A2987 RMK AC2 SLP138

CYQR;2013-04-26 13:00;CYQR 261300Z 18005KT 15SM FEW100 FEW250 02/M00 A2989 RMK AC1CI0 SLP145

CYQR;2013-04-26 14:00;CYQR 261400Z 16005KT 15SM FEW100 SCT250 03/M00 A2989 RMK AC1CI0 SLP144

CYQR;2013-04-26 15:00;CYQR 261500Z 18007KT 15SM BKN260 03/00 A2989 RMK CI0 SLP144

CYQR;2013-04-26 16:00;CYQR 261600Z 19008KT 15SM BKN270 04/M00 A2990 RMK CI1 SLP147

CYQR;2013-04-26 17:00;CYQR 261700Z 18008KT 15SM OVC300 05/00 A2991 RMK CI2 SLP150

CYQR;2013-04-26 18:00;CYQR 261800Z 18008KT 15SM OVC300 06/01 A2990 RMK CI3 SLP147

CYQR;2013-04-26 19:00;CYQR 261900Z 17005KT 15SM FEW200 OVC300 08/02 A2989 RMK CI2CI4 SLP145

CYQR;2013-04-26 20:00;CYQR 262000Z 13007KT 15SM FEW180 BKN300 09/03 A2988 RMK AC2CI3 SLP142

CYQR;2013-04-26 21:00;CYQR 262100Z 15006KT 15SM FEW180 BKN300 09/03 A2988 RMK AC1CI4 SLP138

CYQR;2013-04-26 22:00;CYQR 262200Z 12009KT 15SM FEW180 BKN300 09/03 A2986 RMK AC1CI2 CONTRAILS SLP132

CYQR;2013-04-26 23:00;CYQR 262300Z 14008KT 15SM FEW180 OVC300 09/03 A2985 RMK AC1CI5 SLP128

CYQR;2013-04-27 00:00;CYQR 270000Z 13008KT 15SM FEW130 BKN300 08/03 A2983 RMK AC1CI5 SLP124

CYQR;2013-04-27 01:00;CYQR 270100Z 13009KT 15SM FEW130 BKN300 07/03 A2982 RMK AC1CI2 SLP119

CYQR;2013-04-27 02:00;CYQR 270200Z 12009KT 15SM FEW130 BKN280 05/01 A2980 RMK AC1CI1 SLP113

CYQR;2013-04-27 03:00;CYQR 270300Z 13009KT 15SM SCT130 BKN280 04/01 A2980 RMK AC2CI1 SLP112

CYQR;2013-04-27 04:00;CYQR 270400Z 13009KT 15SM BKN110 OVC280 04/01 A2979 RMK AC6CI2 OBS TAKEN -08 SLP109

CYQR;2013-04-27 05:00;CYQR 270500Z 11007KT 15SM BKN110 OVC280 04/00 A2977 RMK AC6CI2 SLP103

CYQR;2013-04-27 06:00;CYQR 270600Z 11007KT 15SM BKN110 OVC280 04/01 A2975 RMK AC6CI0 SLP094

CYQR;2013-04-27 07:00;CYQR 270700Z 10006KT 15SM BKN110 OVC280 04/00 A2974 RMK AC6CI1 SLP091

CYQR;2013-04-27 08:00;CYQR 270800Z 12009KT 15SM FEW110 BKN280 03/00 A2971 RMK AC1CI1 SLP083

CYQR;2013-04-27 09:00;CYQR 270900Z 00000KT 15SM BKN280 02/M00 A2972 RMK CI2 SLP085

CYQR;2013-04-27 10:00;CYQR 271000Z 24007KT 15SM SCT280 03/00 A2971 RMK CI2 SLP082

CYQR;2013-04-27 11:00;CYQR 271100Z 23005KT 15SM FEW100 02/M00 A2973 RMK AC1 SLP086

CYQR;2013-04-27 12:00;CYQR 271200Z 08002KT 15SM SCT075 BKN240 02/M00 A2972 RMK AC2CI1 SLP086

CYQR;2013-04-27 13:00;CYQR 271300Z 15004KT 15SM SCT090 BKN250 03/00 A2973 RMK AC3CI2 SLP089

CYQR;2013-04-27 14:00;CYQR 271400Z 25004KT 15SM FEW100 OVC200 03/01 A2973 RMK AC2CI5 SLP089

CYQR;2013-04-27 15:00;CYQR 271500Z 25006KT 15SM FEW100 BKN220 04/01 A2972 RMK AC1CI4 SLP087

CYQR;2013-04-27 16:00;CYQR 271600Z 27005KT 15SM BKN270 06/01 A2971 RMK CI1 SLP081

CYQR;2013-04-27 17:00;CYQR 271700Z 25004KT 15SM OVC270 07/02 A2971 RMK CI2 SLP082

CYQR;2013-04-27 18:00;CYQR 271800Z 21007KT 15SM BKN270 06/03 A2970 RMK CI1 SLP077

CYQR;2013-04-27 19:00;CYQR 271900Z 20005KT 15SM FEW020 SCT270 08/04 A2968 RMK SC1CI0 SLP071

CYQR;2013-04-27 20:00;CYQR 272000Z 18006KT 15SM FEW030 BKN270 10/05 A2966 RMK SC1CI2 SLP066

CYQR;2013-04-27 21:00;CYQR 272100Z 17005KT 15SM BKN250 13/05 A2964 RMK CI5 SLP055

CYQR;2013-04-27 22:00;CYQR 272200Z 14007KT 15SM OVC220 11/05 A2962 RMK CI7 SLP047

CYQR;2013-04-27 23:00;CYQR 272300Z 15005KT 15SM BKN095 OVC220 11/05 A2960 RMK AC5CI2 SLP041

CYQR;2013-04-28 00:00;CYQR 280000Z 13003KT 15SM BKN110 OVC220 11/05 A2959 RMK AC6CI2 SLP037

CYQR;2013-04-28 01:00;CYQR 280100Z 17007KT 15SM BKN110 BKN220 08/03 A2957 RMK AC7CI1 SLP032

CYQR;2013-04-28 02:00;CYQR 280200Z 23008KT 15SM BKN110 BKN220 06/02 A2956 RMK AC5CI2 SLP027

CYQR;2013-04-28 03:00;CYQR 280300Z 22007KT 15SM BKN100 04/01 A2955 RMK AC6 SLP028

CYQR;2013-04-28 04:00;CYQR 280400Z 23010KT 15SM SCT100 05/01 A2955 RMK AC2 OBS TAKEN -08 SLP028

CYQR;2013-04-28 05:00;CYQR 280500Z 23012KT 15SM FEW055 FEW100 05/00 A2955 RMK SC1AC2 SLP026

CYQR;2013-04-28 06:00;CYQR 280600Z 27015KT 15SM FEW100 05/01 A2955 RMK AC0 SLP024

CYQR;2013-04-28 07:00;CYQR 280700Z 28014KT 15SM FEW050 FEW140 05/00 A2956 RMK SC1AC1 SLP029

CYQR;2013-04-28 08:00;CYQR 280800Z 32019KT 15SM FEW140 06/01 A2961 RMK AC1 SLP045

CYQR;2013-04-28 09:00;CYQR 280900Z 33013KT 15SM FEW140 03/01 A2966 RMK AC1 SLP058

CYQR;2013-04-28 10:00;CYQR 281000Z 32012KT 15SM FEW140 03/01 A2970 RMK AC1 SLP073

CYQR;2013-04-28 11:00;CYQR 281100Z 32015KT 15SM FEW030 FEW140 03/00 A2975 RMK SC1AC1 SLP087

CYQR;2013-04-28 11:40;CYQR 281140Z 31013KT 15SM BKN090 BKN160 02/ RMK AC2AC1

CYQR;2013-04-28 12:00;CYQR 281200Z 31016KT 15SM BKN090 02/00 A2977 RMK AC4 SLP101

CYQR;2013-04-28 13:00;CYQR 281300Z 28012KT 15SM BKN085 BKN160 02/00 A2981 RMK AC6AC1 SLP114

CYQR;2013-04-28 14:00;CYQR 281400Z 30020G26KT 15SM BKN083 04/00 A2984 RMK AC6 SLP121

CYQR;2013-04-28 15:00;CYQR 281500Z 28016KT 15SM FEW083 FEW160 04/M00 A2986 RMK AC1AC1 SLP132

CYQR;2013-04-28 16:00;CYQR 281600Z 28020KT 15SM FEW080 FEW200 05/M01 A2986 RMK AC1CI1 SLP134

CYQR;2013-04-28 17:00;CYQR 281700Z 28020G25KT 15SM FEW080 FEW200 06/M01 A2987 RMK AC1CI1 SLP137

CYQR;2013-04-28 18:00;CYQR 281800Z 28021G26KT 15SM FEW080 FEW200 07/M01 A2988 RMK AC1CI1 SLP137

CYQR;2013-04-28 19:00;CYQR 281900Z 28020KT 15SM FEW040 FEW200 08/M01 A2988 RMK SC1CI1 SLP138

CYQR;2013-04-28 20:00;CYQR 282000Z 29019KT 15SM FEW040 09/M02 A2988 RMK SC1 SLP139

CYQR;2013-04-28 21:00;CYQR 282100Z 28016KT 15SM FEW040 FEW200 10/M01 A2988 RMK SC1CI1 SLP137

CYQR;2013-04-28 22:00;CYQR 282200Z 29014G19KT 15SM FEW040 10/M03 A2987 RMK SC1 SLP134

CYQR;2013-04-28 23:00;CYQR 282300Z 29010KT 15SM FEW080 FEW150 10/M04 A2985 RMK AC1AC1 SLP128

CYQR;2013-04-29 00:00;CYQR 290000Z 29008KT 15SM BKN090 09/M02 A2985 RMK AC6 SLP129

CYQR;2013-04-29 01:00;CYQR 290100Z 36005KT 15SM BKN082 BKN150 09/M01 A2984 RMK AC6AC1 SLP124

CYQR;2013-04-29 02:00;CYQR 290200Z 07003KT 15SM BKN090 BKN160 BKN300 08/M03 A2982 RMK AC6AC1CI0 SLP118

CYQR;2013-04-29 03:00;CYQR 290300Z 10007KT 15SM FEW092 SCT160 BKN300 06/M03 A2978 RMK AC2AC2CI0 SLP106

CYQR;2013-04-29 04:00;CYQR 290400Z 14008KT 15SM BKN086 04/M01 A2977 RMK AC6 SLP101

CYQR;2013-04-29 05:00;CYQR 290500Z 16013KT 15SM SCT090 03/M03 A2974 RMK AC4 SLP091

CYQR;2013-04-29 06:00;CYQR 290600Z 14012KT 15SM BKN070 03/M02 A2970 RMK AC6 SLP078

CYQR;2013-04-29 07:00;CYQR 290700Z 13013KT 15SM OVC058 03/M02 A2967 RMK SC8 SLP068

CYQR;2013-04-29 07:11;CYQR 290711Z 13013KT 15SM -SHSN OVC058 03/ RMK SC8

CYQR;2013-04-29 08:00;CYQR 290800Z 11011KT 15SM BKN064 03/M03 A2964 RMK SC7 SLP057

CYQR;2013-04-29 09:00;CYQR 290900Z 13019G24KT 15SM OVC069 03/M03 A2956 RMK AC8 PRESFR SLP028

CYQR;2013-04-29 10:00;CYQR 291000Z 14012G22KT 15SM BKN087 03/M02 A2953 RMK AC6 SLP018

CYQR;2013-04-29 11:00;CYQR 291100Z 14013KT 15SM FEW092 BKN250 02/M01 A2950 RMK AC2CI1 SLP008

CYQR;2013-04-29 12:00;CYQR 291200Z 16012KT 15SM FEW075 BKN250 02/M01 A2945 RMK AC1CI1 SLP989

CYQR;2013-04-29 13:00;CYQR 291300Z 18012KT 15SM BKN210 02/M00 A2943 RMK CI6 SLP983

CYQR;2013-04-29 14:00;CYQR 291400Z 19011KT 15SM SCT210 03/01 A2940 RMK CI2 SLP975

CYQR;2013-04-29 15:00;CYQR 291500Z 22008KT 15SM BKN210 05/01 A2938 RMK CI5 SLP968

CYQR;2013-04-29 16:00;CYQR 291600Z 26010KT 15SM FEW210 BKN250 08/02 A2937 RMK CI2CI3 SLP964

CYQR;2013-04-29 17:00;CYQR 291700Z 26009KT 15SM FEW090 FEW210 BKN250 09/02 A2936 RMK AC1CI2CI3 SLP962

CYQR;2013-04-29 18:00;CYQR 291800Z 27012KT 15SM FEW035 FEW090 FEW210 BKN250 11/02 A2937 RMK CU1AC1CI2CI2 SLP960

CYQR;2013-04-29 19:00;CYQR 291900Z 27006KT 15SM VCSH FEW060 SCT085 BKN120 OVC250 11/03 A2937 RMK SC2AC2AC2CI2 TCU + ACC EMBD SLP962

CYQR;2013-04-29 20:00;CYQR 292000Z 29004KT 15SM SCT050 SCT100 BKN140 BKN250 12/01 A2936 RMK SC3AC1AC1CI1 CVCTV CLD EMBD SLP958

CYQR;2013-04-29 21:00;CYQR 292100Z 21004KT 15SM VCSH FEW035 BKN068 BKN140 BKN250 11/03 A2937 RMK SC2AC3AC1CI1 TCU EMBDD MAMMATUS AND SHWRS W SLP963

CYQR;2013-04-29 21:14;CYQR 292114Z 22017G22KT 15SM -SHRA BKN064TCU 06/ RMK TCU7

CYQR;2013-04-29 21:44;CYQR 292144Z 13004KT 15SM VCSH SCT051TCU BKN140 BKN250 09/ RMK TCU4AC1CI2

CYQR;2013-04-29 22:00;CYQR 292200Z 11002KT 15SM VCSH FEW027 SCT051TCU SCT140 BKN250 09/05 A2937 RMK CU1TCU2AC2CI1 SLP963

CYQR;2013-04-29 23:00;CYQR 292300Z 12007KT 15SM FEW027TCU BKN140 BKN250 11/04 A2937 RMK TCU2AC2CI2 SLP961

CYQR;2013-04-30 00:00;CYQR 300000Z 19003KT 15SM BKN057 BKN250 08/04 A2939 RMK SC6CI1 CVCTV CLD EMBD SLP972

CYQR;2013-04-30 01:00;CYQR 300100Z 16007KT 15SM FEW056 BKN140 BKN250 08/04 A2939 RMK SC2AC3CI2 SLP971

CYQR;2013-04-30 02:00;CYQR 300200Z 10007KT 15SM BKN100 BKN250 07/04 A2941 RMK AC6CI2 CB TOP DIST SW SLP978

CYQR;2013-04-30 03:00;CYQR 300300Z 09013G18KT 15SM BKN015 BKN055 05/03 A2945 RMK SC6SC2 SLP991

CYQR;2013-04-30 04:00;CYQR 300400Z 09015G21KT 15SM BKN010 OVC034 04/02 A2946 RMK SC7SC1 SLP996

CYQR;2013-04-30 04:11;CYQR 300411Z 08017G26KT 15SM OVC009 03/ RMK SC8

CYQR;2013-04-30 05:00;CYQR 300500Z 07027G34KT 15SM OVC009 02/00 A2946 RMK SC8 SLP995

CYQR;2013-04-30 05:36;CYQR 300536Z 07022G29KT 15SM -SHRASN OVC008 01/ RMK SC8

CYQR;2013-04-30 06:00;CYQR 300600Z 07026G32KT 15SM -SHSN OVC009 01/M01 A2946 RMK SC8 SLP995

CYQR;2013-04-30 07:00;CYQR 300700Z 07020G29KT 8SM -SHSN OVC010 01/M01 A2948 RMK SC8 SLP000

CYQR;2013-04-30 08:00;CYQR 300800Z 05012G20KT 10SM -SN OVC012 00/M02 A2951 RMK SC8 SLP009

CYQR;2013-04-30 09:00;CYQR 300900Z 36012KT 2 1/2SM R13/6000FT/D -SN VV004 M00/M01 A2955 RMK SN8 SLP025

CYQR;2013-04-30 09:25;CYQR 300925Z 02012KT 5/8SM R13/4500FT/D -SN VV002 RMK SN8 VIS VRB 1/2-3/4

CYQR;2013-04-30 10:00;CYQR 301000Z 02015KT 1/2SM R13/4500FT/N SN VV002 M01/M02 A2958 RMK SN8 /S02/ SLP034

CYQR;2013-04-30 10:23;CYQR 301023Z 03019KT 3SM -SN OVC002 M01/ RESN RMK SC8 /S03/

CYQR;2013-04-30 10:39;CYQR 301039Z 01015G24KT 3SM -SN OVC007 M01/ RESN RMK SC8

CYQR;2013-04-30 11:00;CYQR 301100Z 01020G26KT 2SM -SN OVC007 M02/M04 A2960 RESN RMK SC8 VIS VRB 11/2-21/2 SLP041

CYQR;2013-04-30 11:35;CYQR 301135Z 02021G32KT 1 1/2SM -SN BLSN OVC009 M03/ RMK SC8 VIS VRB 1-2

CYQR;2013-04-30 12:03;CYQR 301203Z 02023G29KT 3SM -SN BLSN OVC011 M03/ RMK SC8

CYQR;2013-04-30 12:31;CYQR 301231Z 01024G29KT 1 1/4SM -SN BLSN OVC008 M03/ RMK SN2SC6 VIS VRB 1-11/2

CYQR;2013-04-30 12:47;CYQR 301247Z 01017G22KT 3/4SM R13/4500VP6000FT/D -SN BLSN OVC007 M03/ RMK SN3SC5

CYQR;2013-04-30 13:00;CYQR 301300Z 36019G25KT 3/4SM R13/3500V4500FT/D -SN BLSN OVC006 M03/M04 A2968 RMK SN5SC3 VIS VRB 1/2-1 SLP072

CYQR;2013-04-30 13:12;CYQR 301312Z 36019G25KT 3/4SM R13/3500FT/N -SN BLSN OVC004 M03/ RMK SN6SC2 VIS VRB 1/2-1 /S01/

CYQR;2013-04-30 13:27;CYQR 301327Z 01020G27KT 5/8SM R13/3500FT/U -SN BLSN OVC004 M03/ RMK SN6SC2

CYQR;2013-04-30 13:41;CYQR 301341Z 36018G29KT 3/4SM R13/4000FT/N -SN BLSN OVC005 M03/ RMK SN5SC3 VIS VRB 1/2-1

CYQR;2013-04-30 13:54;CYQR 301354Z 36023G28KT 3/4SM R13/6000FT/U -SN BLSN OVC006 M04/ RMK SN3SC5 VIS VRB 1/2-1

CYQR;2013-04-30 14:00;CYQR 301400Z 36022G31KT 1 1/4SM -SN BLSN OVC008 M03/M05 A2972 RMK SN2SC6 VIS NE 21/2 SLP085

CYQR;2013-04-30 14:07;CYQR 301407Z 36027KT 2SM -SN DRSN BR OVC009 M04/ RMK SC8

CYQR;2013-04-30 14:32;CYQR 301432Z 36023G30KT 1 1/2SM R13/5500FT/D -SN DRSN BR OVC008 M04/ RMK SC8

CYQR;2013-04-30 15:00;CYQR 301500Z CCA 36023G28KT 1 1/2SM -SN DRSN BR OVC009 M04/M06 A2975 RMK SC8 /S02/ SLP100

CYQR;2013-04-30 16:00;CYQR 301600Z 36024G32KT 1 1/4SM R13/4500VP6000FT/U -SN DRSN BR OVC009 M05/M07 A2978 RMK SC8 SLP110

CYQR;2013-04-30 16:38;CYQR 301638Z 36024G32KT 2 1/4SM -SN DRSN OVC010 M05/ RMK SC8 CIG RAG

CYQR;2013-04-30 16:49;CYQR 301649Z 36025G31KT 4SM -SN DRSN OVC012 M04/ RMK SC8

CYQR;2013-04-30 17:00;CYQR 301700Z 35026G31KT 2 1/2SM -SN DRSN OVC012 M05/M08 A2981 RMK SC8 SLP121

CYQR;2013-04-30 17:10;CYQR 301710Z 36026G32KT 5SM -SN DRSN VCBLSN FEW007 OVC012 M05/ RMK SF1SC7

CYQR;2013-04-30 17:26;CYQR 301726Z 36028KT 6SM -SN DRSN FEW012 OVC030 M05/ RMK SC2SC6

CYQR;2013-04-30 17:40;CYQR 301740Z 01021G27KT 2SM -SN DRSN FEW012 OVC025 M04/ RMK SC2SC6 VCBLSN

CYQR;2013-04-30 17:52;CYQR 301752Z 35021KT 1 1/2SM -SN DRSN VCBLSN BKN013 OVC025 M04/ RMK SC6SC2

CYQR;2013-04-30 18:00;CYQR 301800Z 35023KT 2SM -SN DRSN BKN013 OVC030 M04/M07 A2986 RMK SC6SC2 SLP140

CYQR;2013-04-30 18:15;CYQR 301815Z 36018G26KT 6SM -SN DRSN BKN013 OVC041 M04/ RMK SC6SC2

CYQR;2013-04-30 18:35;CYQR 301835Z 35023KT 3SM -SN BKN024 OVC060 M04/ RMK SC7SC1

CYQR;2013-04-30 19:00;CYQR 301900Z 35022KT 8SM -SN BKN024 OVC040 M04/M07 A2988 RMK SC7SC1 SLP148

CYQR;2013-04-30 19:21;CYQR 301921Z 35019G24KT 15SM SCT034 BKN100 BKN300 M03/ RMK SC4AS2CI1

CYQR;2013-04-30 20:00;CYQR 302000Z 35021KT 15SM FEW012 SCT063 BKN110 BKN300 M03/M07 A2991 RMK SC1SC3AS2CI2 SLP156

CYQR;2013-04-30 21:00;CYQR 302100Z 35022KT 15SM FEW023 SCT068 BKN110 BKN300 M02/M06 A2994 RMK SC1AC2AS2CI2 SLP167

CYQR;2013-04-30 22:00;CYQR 302200Z 34020KT 15SM FEW023 SCT073 BKN130 BKN300 M01/M07 A2996 RMK SC1AC2AS3CI2 SLP176

CYQR;2013-04-30 23:00;CYQR 302300Z 35015G22KT 15SM FEW024 BKN160 BKN300 M01/M06 A2999 RMK SC1AS5CI2 SLP185

CYQR;2013-05-01 00:00;CYQR 010000Z 34021KT 15SM FEW025 BKN160 BKN300 M00/M06 A3002 RMK SC2AS4CI2 SLP197

CYQR;2013-05-01 01:00;CYQR 010100Z 36015G21KT 15SM FEW025 FEW070 BKN150 OVC300 M01/M07 A3006 RMK SC1AC1AS5CI2 SLP209

CYQR;2013-05-01 02:00;CYQR 010200Z 36012KT 15SM FEW150 BKN300 M01/M06 A3008 RMK AC1CI6 SLP217

CYQR;2013-05-01 03:00;CYQR 010300Z 34010KT 15SM FEW150 BKN280 M02/M07 A3012 RMK AC1CI5 SLP234

CYQR;2013-05-01 04:00;CYQR 010400Z 35009KT 15SM BKN280 M03/M07 A3015 RMK CI6 SLP243

CYQR;2013-05-01 05:00;CYQR 010500Z 35005KT 15SM BKN280 M04/M07 A3018 RMK CI2 SLP252

CYQR;2013-05-01 06:00;CYQR 010600Z 27005KT 15SM SCT280 M06/M08 A3020 RMK CI2 SLP265

CYQR;2013-05-01 07:00;CYQR 010700Z 28007KT 15SM FEW050 FEW280 M07/M09 A3023 RMK SC1CI1 SLP273

CYQR;2013-05-01 08:00;CYQR 010800Z 29006KT 15SM SKC M07/M09 A3024 RMK SLP276

CYQR;2013-05-01 09:00;CYQR 010900Z 28004KT 15SM SKC M08/M10 A3025 RMK SLP280

CYQR;2013-05-01 10:00;CYQR 011000Z 31009KT 15SM FEW040 M07/M09 A3027 RMK SC1 SLP287

CYQR;2013-05-01 11:00;CYQR 011100Z 31006KT 15SM FEW021 M07/M08 A3029 RMK SC1 SLP294

CYQR;2013-05-01 12:00;CYQR 011200Z 29007KT 15SM FEW020 M07/M09 A3032 RMK SC1 SLP303

CYQR;2013-05-01 13:00;CYQR 011300Z 28007KT 15SM FEW020 M05/M07 A3035 RMK SC1 SLP312

CYQR;2013-05-01 14:00;CYQR 011400Z 32009KT 15SM FEW035 M04/M07 A3037 RMK SC1 SLP319

CYQR;2013-05-01 15:00;CYQR 011500Z 30012KT 15SM FEW012 M03/M06 A3041 RMK SC1 SLP332

CYQR;2013-05-01 16:00;CYQR 011600Z 31012KT 15SM FEW015 M02/M05 A3042 RMK CF1 SLP337

CYQR;2013-05-01 17:00;CYQR 011700Z 29012KT 15SM FEW013 SCT055 SCT120 M00/M04 A3044 RMK CF1SC2AC1 SLP343

CYQR;2013-05-01 18:00;CYQR 011800Z 31013KT 15SM SCT017 BKN052 01/M03 A3046 RMK SC4SC0 CU ASOCTD SLP349

CYQR;2013-05-01 19:00;CYQR 011900Z 30013KT 15SM SCT019 BKN060 02/M03 A3047 RMK SC4SC1 CU ASOCTD SLP352

CYQR;2013-05-01 20:00;CYQR 012000Z 29013G18KT 15SM FEW025 SCT050 BKN160 03/M03 A3048 RMK SC2SC1AC1 TCU ASOCTD SLP355

CYQR;2013-05-01 21:00;CYQR 012100Z 30011KT 15SM FEW030 04/M04 A3050 RMK SC2 TCU ASOCTD SLP361

CYQR;2013-05-01 21:31;CYQR 012131Z 33012KT 15SM -SHGS FEW030TCU 04/ RMK TCU2

CYQR;2013-05-01 22:00;CYQR 012200Z 35008KT 15SM -SHGS FEW030TCU FEW070 03/M05 A3051 RMK TCU2AC1 SLP366

CYQR;2013-05-01 22:09;CYQR 012209Z 35007KT 15SM FEW030TCU FEW070 03/ RMK TCU2AC1

CYQR;2013-05-01 23:00;CYQR 012300Z 31011KT 15SM FEW035TCU FEW070 04/M05 A3052 RMK TCU2AC1 SLP369

CYQR;2013-05-02 00:00;CYQR 020000Z 31007KT 15SM FEW040 04/M07 A3053 RMK SC1 CU ASOCTD SLP374

CYQR;2013-05-02 01:00;CYQR 020100Z 34002KT 15SM FEW040 04/M07 A3054 RMK SC1 SLP377

CYQR;2013-05-02 02:00;CYQR 020200Z 27002KT 15SM FEW040 02/M05 A3055 RMK SC1 SLP380

CYQR;2013-05-02 03:00;CYQR 020300Z 24005KT 15SM FEW040 M01/M04 A3057 RMK SC1 SLP386

CYQR;2013-05-02 04:00;CYQR 020400Z 15002KT 15SM SKC M01/M04 A3058 RMK SLP391

CYQR;2013-05-02 05:00;CYQR 020500Z 15003KT 15SM SKC M01/M04 A3058 RMK SLP391

CYQR;2013-05-02 06:00;CYQR 020600Z 17003KT 15SM SKC M02/M05 A3059 RMK SLP390

CYQR;2013-05-02 07:00;CYQR 020700Z 18006KT 15SM SKC M03/M06 A3059 RMK SLP390

CYQR;2013-05-02 08:00;CYQR 020800Z 17006KT 15SM SKC M03/M06 A3058 RMK SLP389

CYQR;2013-05-02 09:00;CYQR 020900Z 18008KT 15SM BKN071 M03/M05 A3058 RMK AC5 SLP387

CYQR;2013-05-02 10:00;CYQR 021000Z 18009KT 15SM BKN070 M02/M05 A3058 RMK AC7 SLP387

CYQR;2013-05-02 11:00;CYQR 021100Z 17009KT 15SM FEW070 M02/M06 A3058 RMK AC1 SLP386

CYQR;2013-05-02 12:00;CYQR 021200Z 16008KT 15SM FEW070 M02/M05 A3058 RMK AC1 SLP385

CYQR;2013-05-02 13:00;CYQR 021300Z 14008KT 15SM FEW070 M02/M05 A3057 RMK AC1 SLP384

CYQR;2013-05-02 14:00;CYQR 021400Z 15010KT 15SM SKC M01/M04 A3058 RMK SLP385

CYQR;2013-05-02 15:00;CYQR 021500Z 16012KT 15SM SKC 01/M03 A3057 RMK SLP383

CYQR;2013-05-02 16:00;CYQR 021600Z 16012KT 15SM FEW340 03/M02 A3055 RMK CI1 CONTRAILS SLP378

CYQR;2013-05-02 17:00;CYQR 021700Z 15013KT 15SM FEW340 04/00 A3054 RMK CI1 SLP373

CYQR;2013-05-02 18:00;CYQR 021800Z 16013KT 15SM FEW022 FEW340 06/00 A3051 RMK CF1CI1 SLP360

CYQR;2013-05-02 19:00;CYQR 021900Z 16016KT 15SM FEW028 FEW340 07/00 A3047 RMK CF1CI1 CC ASOCTD SLP348

CYQR;2013-05-02 20:00;CYQR 022000Z 16015G20KT 15SM FEW100 BKN340 09/01 A3045 RMK AC1CI1 SLP341

CYQR;2013-05-02 21:00;CYQR 022100Z 14016KT 15SM FEW100 BKN340 09/02 A3042 RMK AC1CI2 SLP329

CYQR;2013-05-02 22:00;CYQR 022200Z 14014G19KT 15SM BKN340 10/01 A3039 RMK CI2 SLP319

CYQR;2013-05-02 23:00;CYQR 022300Z 14016KT 15SM FEW150 OVC340 10/01 A3037 RMK AC1CI3 SLP311

CYQR;2013-05-03 00:00;CYQR 030000Z 14014G19KT 15SM FEW150 BKN340 10/M00 A3035 RMK AC1CI1 SLP303

CYQR;2013-05-03 01:00;CYQR 030100Z 13017KT 15SM FEW080 BKN150 BKN340 10/M01 A3032 RMK AC2AC1CI1 SLP293

CYQR;2013-05-03 02:00;CYQR 030200Z 13016G21KT 15SM FEW080 FEW150 BKN340 08/M01 A3031 RMK AC1AC1CI0 SLP289

CYQR;2013-05-03 03:00;CYQR 030300Z 13017KT 15SM FEW080 SCT320 07/M00 A3030 RMK AC1CI0 SLP287

CYQR;2013-05-03 04:00;CYQR 030400Z 14018G24KT 15SM FEW300 05/M00 A3030 RMK CI0 SLP287

CYQR;2013-05-03 05:00;CYQR 030500Z 14019G24KT 15SM SKC 04/M01 A3030 RMK SLP285

CYQR;2013-05-03 06:00;CYQR 030600Z 14019KT 15SM FEW280 03/M01 A3029 RMK CI0 SLP280

CYQR;2013-05-03 07:00;CYQR 030700Z 14016G21KT 15SM SKC 03/M01 A3028 RMK SLP277

CYQR;2013-05-03 08:00;CYQR 030800Z 14016G21KT 15SM BKN120 02/M01 A3027 RMK AC7 SLP274

CYQR;2013-05-03 09:00;CYQR 030900Z 15013KT 15SM FEW120 02/M02 A3026 RMK AC2 SLP268

CYQR;2013-05-03 10:00;CYQR 031000Z 15014KT 15SM BKN120 02/M02 A3025 RMK AC7 SLP267

CYQR;2013-05-03 11:00;CYQR 031100Z 14015KT 15SM BKN120 02/M02 A3025 RMK AC2 SLP264

CYQR;2013-05-03 12:00;CYQR 031200Z 15016KT 15SM BKN120 BKN240 02/M02 A3025 RMK AC2CI1 SLP264

CYQR;2013-05-03 13:00;CYQR 031300Z 14014KT 15SM SCT096 OVC240 02/M03 A3024 RMK AC3CI1 SLP261

CYQR;2013-05-03 14:00;CYQR 031400Z 15014G20KT 15SM SCT096 BKN240 02/M02 A3023 RMK AC3CI0 SLP260

CYQR;2013-05-03 15:00;CYQR 031500Z 15017G22KT 15SM FEW091 BKN240 04/M01 A3023 RMK AC1CI1 CC ASOCTD SLP258

CYQR;2013-05-03 16:00;CYQR 031600Z 14018G24KT 15SM SCT081 OVC240 05/M00 A3022 RMK AC4CI2 SLP257

CYQR;2013-05-03 17:00;CYQR 031700Z 15014G20KT 15SM BKN100 06/01 A3022 RMK AS7 SLP257

CYQR;2013-05-03 18:00;CYQR 031800Z 14015KT 15SM OVC077 07/01 A3023 RMK AS8 SLP258

CYQR;2013-05-03 19:00;CYQR 031900Z 14017G22KT 15SM OVC086 09/02 A3022 RMK AS8 SLP255

CYQR;2013-05-03 20:00;CYQR 032000Z 15014G19KT 15SM SCT085 OVC210 11/03 A3021 RMK AC2CS6 HALO SLP254

CYQR;2013-05-03 21:00;CYQR 032100Z 16012KT 15SM OVC180 13/03 A3021 RMK AS8 SLP249

CYQR;2013-05-03 22:00;CYQR 032200Z 14013KT 15SM BKN086 OVC200 14/02 A3020 RMK AC5CI3 SLP246

CYQR;2013-05-03 23:00;CYQR 032300Z 15013KT 15SM BKN081 OVC200 13/03 A3019 RMK AC6CI2 SLP244

CYQR;2013-05-04 00:00;CYQR 040000Z 15010KT 15SM SCT075 OVC200 13/02 A3020 RMK AC1CI7 SLP246

CYQR;2013-05-04 01:00;CYQR 040100Z 14009KT 15SM SCT075 OVC200 13/03 A3020 RMK AC2CI5 SLP247

CYQR;2013-05-04 02:00;CYQR 040200Z 14008KT 15SM FEW075 BKN200 OVC260 12/01 A3021 RMK AC2CI4CI2 SLP250

CYQR;2013-05-04 03:00;CYQR 040300Z 13009KT 15SM FEW080 OVC230 11/02 A3023 RMK AC1CI6 SLP255

CYQR;2013-05-04 04:00;CYQR 040400Z 14013KT 15SM SCT090 OVC230 10/02 A3024 RMK AC3CI4 SLP260

CYQR;2013-05-04 05:00;CYQR 040500Z 15012KT 15SM SCT087 OVC230 08/01 A3025 RMK AC2CI5 SLP264

CYQR;2013-05-04 06:00;CYQR 040600Z 15011KT 15SM BKN085 OVC230 07/02 A3027 RMK AC5CI3 SLP269

CYQR;2013-05-04 07:00;CYQR 040700Z 13010KT 15SM BKN080 OVC230 07/02 A3027 RMK AC3CI4 SLP271

CYQR;2013-05-04 08:00;CYQR 040800Z 14008KT 15SM SCT080 BKN230 06/01 A3028 RMK AC2CI4 SLP273

CYQR;2013-05-04 09:00;CYQR 040900Z 13007KT 15SM BKN080 BKN230 05/01 A3027 RMK AC4CI2 SLP270

CYQR;2013-05-04 10:00;CYQR 041000Z 13005KT 15SM BKN090 BKN230 04/02 A3028 RMK AC5CI1 SLP272

CYQR;2013-05-04 11:00;CYQR 041100Z 13007KT 15SM BKN090 BKN230 04/01 A3029 RMK AC5CI2 SLP275

CYQR;2013-05-04 12:00;CYQR 041200Z 13009KT 15SM SCT089 BKN250 03/01 A3029 RMK AC2CI1 SLP277

CYQR;2013-05-04 13:00;CYQR 041300Z 14006KT 15SM BKN095 BKN250 05/01 A3030 RMK AC5CI1 SLP280

CYQR;2013-05-04 14:00;CYQR 041400Z 14008KT 15SM SCT075 BKN095 BKN250 05/01 A3031 RMK AC3AC1CI0 SLP283

CYQR;2013-05-04 15:00;CYQR 041500Z 15005KT 15SM FEW075 BKN095 BKN250 06/01 A3032 RMK ACC1AC4CI1 SLP286

CYQR;2013-05-04 16:00;CYQR 041600Z 16006KT 15SM BKN090 BKN250 08/02 A3032 RMK AC5CI2 ACC ASOCTD SLP286

CYQR;2013-05-04 17:00;CYQR 041700Z 15004KT 15SM FEW030 SCT090 SCT250 11/03 A3032 RMK CU1AC3CI0 SLP287

CYQR;2013-05-04 18:00;CYQR 041800Z 17005KT 15SM FEW040 FEW095 FEW250 13/03 A3032 RMK CU1AC1CI1 SLP285

CYQR;2013-05-04 19:00;CYQR 041900Z 17006KT 15SM FEW045 FEW250 14/03 A3031 RMK CU1CI1 SLP282

CYQR;2013-05-04 20:00;CYQR 042000Z 18008KT 15SM FEW055 FEW250 16/00 A3030 RMK CU1CI1 SLP278

CYQR;2013-05-04 21:00;CYQR 042100Z 18007KT 15SM FEW060 FEW250 16/00 A3029 RMK CU1CI1 CI TR SLP273

CYQR;2013-05-04 22:00;CYQR 042200Z 16005KT 15SM FEW060 FEW100 FEW250 16/01 A3027 RMK CU1AC1CI1 SLP267

CYQR;2013-05-04 23:00;CYQR 042300Z 20006KT 15SM FEW060 FEW100 17/01 A3027 RMK CU1AC1 SLP266

CYQR;2013-05-05 00:00;CYQR 050000Z 18005KT 15SM FEW060 FEW100 FEW250 16/01 A3026 RMK CU1AC1CI1 SLP265

CYQR;2013-05-05 01:00;CYQR 050100Z 18006KT 15SM FEW060 FEW100 16/01 A3026 RMK SC1AC1 ACC ASOCTD SLP263

CYQR;2013-05-05 02:00;CYQR 050200Z 19004KT 15SM FEW100 13/05 A3025 RMK AC1 SLP261

CYQR;2013-05-05 03:00;CYQR 050300Z 16005KT 15SM FEW100 12/04 A3025 RMK AC1 SLP262

CYQR;2013-05-05 04:00;CYQR 050400Z 16007KT 15SM FEW100 11/04 A3025 RMK AC1 SLP262

CYQR;2013-05-05 05:00;CYQR 050500Z 16007KT 15SM FEW100 10/03 A3025 RMK AC1 SLP262

CYQR;2013-05-05 06:00;CYQR 050600Z 16008KT 15SM SKC 08/04 A3025 RMK SLP260

CYQR;2013-05-05 07:00;CYQR 050700Z 16007KT 15SM SKC 08/03 A3025 RMK SLP259

CYQR;2013-05-05 08:00;CYQR 050800Z 17006KT 15SM SKC 06/02 A3024 RMK SLP257

CYQR;2013-05-05 09:00;CYQR 050900Z 16006KT 15SM SKC 05/02 A3023 RMK SLP252

CYQR;2013-05-05 10:00;CYQR 051000Z 15005KT 15SM SKC 04/01 A3023 RMK SLP251

CYQR;2013-05-05 11:00;CYQR 051100Z 13005KT 15SM SKC 03/01 A3022 RMK SLP248

CYQR;2013-05-05 12:00;CYQR 051200Z 12005KT 15SM SKC 03/01 A3021 RMK SLP247

CYQR;2013-05-05 13:00;CYQR 051300Z 13005KT 15SM SKC 05/03 A3021 RMK SLP247

CYQR;2013-05-05 14:00;CYQR 051400Z 17005KT 15SM SKC 08/02 A3020 RMK SLP245

CYQR;2013-05-05 15:00;CYQR 051500Z 25007KT 15SM FEW330 12/02 A3020 RMK CI1 SLP242

CYQR;2013-05-05 16:00;CYQR 051600Z 26011KT 15SM FEW330 16/01 A3019 RMK CI1 SLP238

CYQR;2013-05-05 17:00;CYQR 051700Z 25012G17KT 15SM FEW330 18/02 A3018 RMK CI1 SLP233

CYQR;2013-05-05 18:00;CYQR 051800Z 25010G16KT 15SM FEW070 FEW330 19/02 A3016 RMK CF1CI1 SLP225

CYQR;2013-05-05 19:00;CYQR 051900Z 27010G16KT 15SM FEW070 FEW330 19/00 A3014 RMK AC1CI1 CONTRAILS SLP217

CYQR;2013-05-05 20:00;CYQR 052000Z 23013KT 15SM FEW330 20/M00 A3012 RMK CI1 CONTRAILS SLP212

CYQR;2013-05-05 21:00;CYQR 052100Z 25013KT 15SM FEW330 21/M00 A3010 RMK CI1 SLP204

CYQR;2013-05-05 22:00;CYQR 052200Z 25015KT 15SM FEW330 21/M01 A3008 RMK CI0 CONTRAILS SLP197

CYQR;2013-05-05 23:00;CYQR 052300Z 25011G17KT 15SM BKN330 21/M01 A3005 RMK CI1 CONTRAILS SLP190

CYQR;2013-05-06 00:00;CYQR 060000Z 27014KT 15SM OVC330 21/M01 A3004 RMK CI2 CONTRAILS SLP184

CYQR;2013-05-06 01:00;CYQR 060100Z 25006KT 15SM BKN300 19/00 A3003 RMK CI1 SLP181

CYQR;2013-05-06 02:00;CYQR 060200Z 23007KT 15SM SCT250 BKN330 16/04 A3002 RMK CI2CI1 SLP180

CYQR;2013-05-06 03:00;CYQR 060300Z 21009KT 15SM BKN300 11/05 A3002 RMK CI2 SLP179

CYQR;2013-05-06 04:00;CYQR 060400Z 21009KT 15SM BKN300 09/05 A3002 RMK CI1 SLP178

CYQR;2013-05-06 05:00;CYQR 060500Z 23009KT 15SM FEW300 08/03 A3002 RMK CI0 SLP178

CYQR;2013-05-06 06:00;CYQR 060600Z 22007KT 15SM FEW300 07/03 A3001 RMK CI0 SLP175

CYQR;2013-05-06 07:00;CYQR 060700Z 23007KT 15SM FEW300 06/02 A3001 RMK CI1 SLP174

CYQR;2013-05-06 08:00;CYQR 060800Z 21006KT 15SM FEW300 06/02 A3001 RMK CI1 SLP173

CYQR;2013-05-06 09:00;CYQR 060900Z 21004KT 15SM FEW300 05/02 A3001 RMK CI1 SLP173

CYQR;2013-05-06 10:00;CYQR 061000Z 18006KT 15SM FEW300 04/01 A3001 RMK CI1 SLP173

CYQR;2013-05-06 11:00;CYQR 061100Z 18005KT 15SM FEW300 05/01 A3002 RMK CI1 SLP176

CYQR;2013-05-06 12:00;CYQR 061200Z 15004KT 15SM FEW300 04/01 A3003 RMK CI1 SLP180

CYQR;2013-05-06 13:00;CYQR 061300Z 21003KT 15SM FEW300 09/03 A3003 RMK CI1 SLP181

CYQR;2013-05-06 14:00;CYQR 061400Z 22004KT 15SM FEW300 12/03 A3004 RMK CI1 SLP183

CYQR;2013-05-06 15:00;CYQR 061500Z 25010KT 15SM FEW300 17/02 A3003 RMK CI1 SLP180

CYQR;2013-05-06 16:00;CYQR 061600Z 23013KT 15SM SKC 19/02 A3003 RMK SLP178

CYQR;2013-05-06 17:00;CYQR 061700Z 25012KT 15SM FEW300 21/01 A3002 RMK CI1 CONTRAILS SLP177

CYQR;2013-05-06 18:00;CYQR 061800Z 25010KT 15SM FEW300 22/01 A3001 RMK CI0 SLP171

CYQR;2013-05-06 19:00;CYQR 061900Z 23008KT 15SM SKC 22/00 A3000 RMK SLP169

CYQR;2013-05-06 20:00;CYQR 062000Z 21007G16KT 15SM SKC 22/00 A2999 RMK SLP165

CYQR;2013-05-06 21:00;CYQR 062100Z 20009KT 15SM SKC 23/01 A2997 RMK SLP159

CYQR;2013-05-06 22:00;CYQR 062200Z 20012KT 15SM SKC 23/M01 A2995 RMK SLP153

CYQR;2013-05-06 23:00;CYQR 062300Z 17006G17KT 15SM SKC 23/M01 A2993 RMK SLP147

CYQR;2013-05-07 00:00;CYQR 070000Z 19010KT 15SM SKC 23/M01 A2993 RMK SLP144

CYQR;2013-05-07 01:00;CYQR 070100Z 18007KT 15SM SKC 22/M00 A2991 RMK SLP139

CYQR;2013-05-07 02:00;CYQR 070200Z 16006KT 15SM SKC 19/02 A2990 RMK SLP135

CYQR;2013-05-07 03:00;CYQR 070300Z 14006KT 15SM SKC 16/04 A2990 RMK SLP130

CYQR;2013-05-07 04:00;CYQR 070400Z 15008KT 15SM SKC 16/05 A2990 RMK SLP130

CYQR;2013-05-07 05:00;CYQR 070500Z 16008KT 15SM SKC 13/07 A2989 RMK SLP128

CYQR;2013-05-07 06:00;CYQR 070600Z 17009KT 15SM SKC 12/06 A2989 RMK SLP126

CYQR;2013-05-07 07:00;CYQR 070700Z 18009KT 15SM SKC 10/04 A2988 RMK SLP125

CYQR;2013-05-07 08:00;CYQR 070800Z 18009KT 15SM SKC 09/04 A2987 RMK SLP122

CYQR;2013-05-07 09:00;CYQR 070900Z 18009KT 15SM SKC 09/04 A2986 RMK SLP119

CYQR;2013-05-07 10:00;CYQR 071000Z 17010KT 15SM SKC 09/03 A2986 RMK SLP118

CYQR;2013-05-07 11:00;CYQR 071100Z 17010KT 15SM FEW300 08/03 A2985 RMK CI1 SLP116

CYQR;2013-05-07 12:00;CYQR 071200Z 16008KT 15SM FEW300 08/03 A2985 RMK CI1 SLP114

CYQR;2013-05-07 13:00;CYQR 071300Z 17009KT 15SM FEW300 10/03 A2985 RMK CI0 SLP115

CYQR;2013-05-07 14:00;CYQR 071400Z 20008KT 15SM FEW300 14/02 A2986 RMK CI1 CONTRAILS SLP117

CYQR;2013-05-07 15:00;CYQR 071500Z 19008KT 15SM FEW300 17/04 A2985 RMK CI0 SLP112

CYQR;2013-05-07 16:00;CYQR 071600Z 19006KT 15SM FEW300 20/04 A2983 RMK CI0 CONTRAILS SLP106

CYQR;2013-05-07 17:00;CYQR 071700Z 24007KT 15SM FEW300 23/03 A2982 RMK CI0 SLP104

CYQR;2013-05-07 18:00;CYQR 071800Z 23011KT 15SM FEW300 25/02 A2981 RMK CI1 SLP098

CYQR;2013-05-07 19:00;CYQR 071900Z 28011KT 15SM FEW300 25/01 A2981 RMK CI0 SLP096

CYQR;2013-05-07 20:00;CYQR 072000Z 29013KT 15SM FEW300 26/03 A2981 RMK CI1 SLP096

CYQR;2013-05-07 21:00;CYQR 072100Z 34018G25KT 15SM FEW300 25/03 A2981 RMK CI1 SLP100

CYQR;2013-05-07 22:00;CYQR 072200Z 36023KT 15SM FEW300 23/05 A2984 RMK CI1 SLP108

CYQR;2013-05-07 23:00;CYQR 072300Z 03021G29KT 15SM FEW170 FEW300 22/05 A2986 RMK AC1CI1 SLP115

CYQR;2013-05-08 00:00;CYQR 080000Z 01028G33KT 15SM FEW120 FEW300 19/05 A2990 RMK AC2CI0 SLP134

CYQR;2013-05-08 01:00;CYQR 080100Z 02021G29KT 15SM FEW120 FEW300 17/03 A2993 RMK AC1CI1 SLP144

CYQR;2013-05-08 02:00;CYQR 080200Z 02021G27KT 15SM BKN100 BKN300 15/03 A2997 RMK AC6CI1 SLP158

CYQR;2013-05-08 03:00;CYQR 080300Z 03018KT 15SM BKN100 BKN150 BKN300 13/02 A3001 RMK AC6AC2CI1 SLP172

CYQR;2013-05-08 04:00;CYQR 080400Z 02018G24KT 15SM SCT100 BKN150 12/01 A3004 RMK AC4AC1 SLP181

CYQR;2013-05-08 05:00;CYQR 080500Z 03017G22KT 15SM FEW100 10/01 A3007 RMK AC2 SLP192

CYQR;2013-05-08 06:00;CYQR 080600Z 03016KT 15SM FEW100 08/00 A3009 RMK AC2 SLP195

CYQR;2013-05-08 07:00;CYQR 080700Z 04013KT 15SM FEW100 07/00 A3011 RMK AC1 SLP202

CYQR;2013-05-08 08:00;CYQR 080800Z 05013KT 15SM SKC 06/M00 A3012 RMK SLP205

CYQR;2013-05-08 09:00;CYQR 080900Z 06011KT 15SM SKC 06/M00 A3014 RMK SLP214

CYQR;2013-05-08 10:00;CYQR 081000Z 07011G17KT 15SM FEW270 05/M01 A3016 RMK CI0 SLP222

CYQR;2013-05-08 11:00;CYQR 081100Z 07010KT 15SM FEW100 FEW270 04/M02 A3020 RMK AC1CI1 CONTRAILS SLP232

CYQR;2013-05-08 12:00;CYQR 081200Z 07010KT 15SM FEW100 FEW270 04/M04 A3022 RMK AC1CI1 CONTRAILS SLP248

CYQR;2013-05-08 13:00;CYQR 081300Z 07014KT 15SM FEW100 FEW270 05/M04 A3024 RMK AC1CI0 CONTRAILS SLP253

CYQR;2013-05-08 14:00;CYQR 081400Z 09015KT 15SM FEW270 06/M04 A3025 RMK CI1 CONTRAILS SLP259

CYQR;2013-05-08 15:00;CYQR 081500Z 10013G18KT 15SM SCT270 07/M04 A3027 RMK CI2 SLP267

CYQR;2013-05-08 16:00;CYQR 081600Z 07009G16KT 15SM BKN270 08/M05 A3027 RMK CI1 CONTRAILS SLP268

CYQR;2013-05-08 17:00;CYQR 081700Z 10011KT 15SM BKN270 09/M04 A3028 RMK CI2 CONTRAILS SLP269

CYQR;2013-05-08 18:00;CYQR 081800Z 08009G17KT 15SM BKN270 10/M05 A3028 RMK CI2 CONTRAILS SLP271

CYQR;2013-05-08 19:00;CYQR 081900Z 09005G16KT 15SM OVC270 11/M07 A3027 RMK CI2 CONTRAILS SLP269

CYQR;2013-05-08 20:00;CYQR 082000Z 11008G15KT 15SM BKN270 12/M05 A3027 RMK CI3 CONTRAILS SLP267

CYQR;2013-05-08 21:00;CYQR 082100Z 10008KT 15SM BKN270 13/M06 A3025 RMK CI3 SLP262

CYQR;2013-05-08 22:00;CYQR 082200Z 08012G19KT 15SM OVC270 14/M07 A3024 RMK CI5 CONTRAILS SLP256

CYQR;2013-05-08 23:00;CYQR 082300Z 08012G17KT 15SM BKN270 13/M05 A3024 RMK CI6 SLP256

CYQR;2013-05-09 00:00;CYQR 090000Z 09009KT 15SM FEW120 OVC270 13/M06 A3024 RMK AC1CI5 CONTRAILS SLP259

CYQR;2013-05-09 01:00;CYQR 090100Z 10010KT 15SM BKN270 12/M05 A3025 RMK CI5 SLP260

CYQR;2013-05-09 02:00;CYQR 090200Z 09011KT 15SM FEW140 BKN270 10/M06 A3025 RMK AC1CI1 SLP262

CYQR;2013-05-09 03:00;CYQR 090300Z 09009KT 15SM FEW140 BKN270 08/M05 A3026 RMK AC1CI1 SLP268

CYQR;2013-05-09 04:00;CYQR 090400Z 08008KT 15SM FEW140 FEW270 07/M04 A3027 RMK AC1CI0 SLP270

CYQR;2013-05-09 05:00;CYQR 090500Z 09011KT 15SM FEW270 06/M05 A3027 RMK CI0 SLP270

CYQR;2013-05-09 06:00;CYQR 090600Z 10010KT 15SM FEW270 05/M04 A3027 RMK CI0 SLP270

CYQR;2013-05-09 07:00;CYQR 090700Z 10009KT 15SM SKC 04/M05 A3028 RMK SLP274

CYQR;2013-05-09 08:00;CYQR 090800Z 12011G16KT 15SM SKC 04/M05 A3028 RMK SLP274

CYQR;2013-05-09 09:00;CYQR 090900Z 14011KT 15SM SKC 02/M04 A3029 RMK SLP277

CYQR;2013-05-09 10:00;CYQR 091000Z 12009KT 15SM FEW260 01/M03 A3029 RMK CI1 SLP278

CYQR;2013-05-09 11:00;CYQR 091100Z 13010KT 15SM FEW100 FEW260 00/M03 A3030 RMK AC1CI1 SLP280

CYQR;2013-05-09 12:00;CYQR 091200Z 14009KT 15SM FEW100 FEW270 01/M03 A3030 RMK AC1CI0 SLP281

CYQR;2013-05-09 13:00;CYQR 091300Z 15011KT 15SM FEW100 FEW270 03/M03 A3030 RMK AC1CI0 SLP283

CYQR;2013-05-09 14:00;CYQR 091400Z 15014KT 15SM FEW270 04/M03 A3031 RMK CI0 SLP285

CYQR;2013-05-09 15:00;CYQR 091500Z 15012KT 15SM FEW270 06/M03 A3031 RMK CI0 SLP286

CYQR;2013-05-09 16:00;CYQR 091600Z 16012KT 15SM FEW250 08/M04 A3030 RMK CI0 SLP283

CYQR;2013-05-09 17:00;CYQR 091700Z 16015KT 15SM FEW250 09/M05 A3030 RMK CI0 SLP280

CYQR;2013-05-09 18:00;CYQR 091800Z 15016KT 15SM SCT250 11/M06 A3026 RMK CI0 SLP267

CYQR;2013-05-09 19:00;CYQR 091900Z 17016KT 15SM FEW280 13/M06 A3025 RMK CI1 SLP261

CYQR;2013-05-09 20:00;CYQR 092000Z 18014G19KT 15SM SKC 14/M08 A3023 RMK SLP256

CYQR;2013-05-09 21:00;CYQR 092100Z 16011G16KT 15SM FEW280 15/M06 A3020 RMK CI0 SLP245

CYQR;2013-05-09 22:00;CYQR 092200Z 17010KT 15SM FEW280 16/M06 A3017 RMK CI0 SLP236

CYQR;2013-05-09 23:00;CYQR 092300Z 20012KT 15SM SCT280 16/M07 A3015 RMK CI0 SLP229

CYQR;2013-05-10 00:00;CYQR 100000Z 19010KT 15SM SCT280 17/M06 A3013 RMK CI0 SLP221

CYQR;2013-05-10 01:00;CYQR 100100Z 18008KT 15SM FEW170 SCT280 16/M05 A3011 RMK AC1CI0 SLP215

CYQR;2013-05-10 02:00;CYQR 100200Z 16009KT 15SM FEW170 BKN280 15/M04 A3010 RMK AC1CI1 SLP209

CYQR;2013-05-10 03:00;CYQR 100300Z 16012KT 15SM FEW170 SCT280 12/M02 A3009 RMK AC1CI0 SLP206

CYQR;2013-05-10 04:00;CYQR 100400Z 16013KT 15SM FEW170 SCT280 11/M01 A3007 RMK AC1CI0 SLP201

CYQR;2013-05-10 05:00;CYQR 100500Z 17014G19KT 15SM SCT280 10/M01 A3005 RMK CI0 SLP193

CYQR;2013-05-10 06:00;CYQR 100600Z 17014KT 15SM SCT280 10/M01 A3001 RMK CI1 SLP178

CYQR;2013-05-10 07:00;CYQR 100700Z 17013KT 15SM SCT080 BKN260 09/M01 A2998 RMK AC2CI2 SLP168

CYQR;2013-05-10 08:00;CYQR 100800Z 16010G16KT 15SM BKN080 OVC260 10/M01 A2996 RMK AC5CI2 SLP160

CYQR;2013-05-10 09:00;CYQR 100900Z 19018KT 15SM BKN080 12/M03 A2995 RMK AC4 SLP152

CYQR;2013-05-10 10:00;CYQR 101000Z 00000KT 15SM SCT080 BKN250 08/M02 A2997 RMK AC2CI2 ACC ASOCTD PRES UNSTDY SLP158

CYQR;2013-05-10 11:00;CYQR 101100Z 28010KT 15SM FEW070 SCT100 BKN150 OVC250 08/M00 A2998 RMK AC1AC2AC3CI1 ACC ASOCTD SLP161

CYQR;2013-05-10 12:00;CYQR 101200Z CCA 34023KT 15SM SCT070 BKN150 BKN250 09/01 A3003 RMK AC2AC2CI1 ACC ASOCTD PRESRR SLP180

CYQR;2013-05-10 13:00;CYQR 101300Z 36017G31KT 15SM BKN016 08/05 A3009 RMK SC7 SLP199

CYQR;2013-05-10 14:00;CYQR 101400Z 35025G30KT 15SM SCT015 BKN250 08/04 A3013 RMK SC3CI0 SLP213

CYQR;2013-05-10 15:00;CYQR 101500Z 36022G27KT 15SM BKN015 BKN250 07/02 A3018 RMK SC6CI1 SLP237

CYQR;2013-05-10 16:00;CYQR 101600Z 34023G28KT 15SM FEW030 FEW250 09/01 A3020 RMK CF1CI1 SLP244

CYQR;2013-05-10 17:00;CYQR 101700Z 34028KT 15SM FEW048 FEW250 11/M02 A3022 RMK CF1CI0 SLP249

CYQR;2013-05-10 18:00;CYQR 101800Z 35020G34KT 15SM FEW060 FEW280 11/M05 A3024 RMK CU1CI1 SLP257

CYQR;2013-05-10 19:00;CYQR 101900Z 36017G27KT 15SM FEW060 11/M05 A3026 RMK CU1 SLP262

CYQR;2013-05-10 20:00;CYQR 102000Z 35020G30KT 15SM FEW065 FEW280 13/M03 A3026 RMK CU1CI1 SLP263

CYQR;2013-05-10 21:00;CYQR 102100Z 35025G31KT 15SM SCT062 12/M03 A3027 RMK CU3 SLP264

CYQR;2013-05-10 22:00;CYQR 102200Z 34025G31KT 15SM FEW064 13/M04 A3027 RMK CU2 SLP263

CYQR;2013-05-10 23:00;CYQR 102300Z 34023G30KT 15SM FEW064 13/M03 A3026 RMK CU1 SLP262

CYQR;2013-05-11 00:00;CYQR 110000Z 36021G33KT 15SM FEW060 11/M05 A3028 RMK CU1 SLP269

CYQR;2013-05-11 01:00;CYQR 110100Z 34019G29KT 15SM FEW055 11/M05 A3029 RMK CU1 SLP273

CYQR;2013-05-11 02:00;CYQR 110200Z 36020G27KT 15SM FEW060 09/M06 A3031 RMK CU1 SLP280

CYQR;2013-05-11 03:00;CYQR 110300Z 36013G18KT 15SM FEW280 07/M06 A3034 RMK CI1 SLP295

CYQR;2013-05-11 04:00;CYQR 110400Z 02015G21KT 15SM SKC 06/M08 A3037 RMK SLP305

CYQR;2013-05-11 05:00;CYQR 110500Z 03012KT 15SM SKC 04/M07 A3040 RMK SLP312

CYQR;2013-05-11 06:00;CYQR 110600Z 03009KT 15SM SKC 02/M08 A3041 RMK SLP320

CYQR;2013-05-11 07:00;CYQR 110700Z 02004KT 15SM SKC 01/M08 A3044 RMK SLP328

CYQR;2013-05-11 08:00;CYQR 110800Z CCA 01004KT 15SM SKC M02/M08 A3044 RMK SLP329

CYQR;2013-05-11 09:00;CYQR 110900Z 35004KT 15SM SKC M03/M07 A3044 RMK SLP333

CYQR;2013-05-11 10:00;CYQR 111000Z 28005KT 15SM SKC M05/M08 A3044 RMK SLP333

CYQR;2013-05-11 11:00;CYQR 111100Z 29002KT 15SM FEW250 M04/M07 A3044 RMK CI1 SLP332

CYQR;2013-05-11 12:00;CYQR 111200Z 05002KT 15SM FEW250 M03/M06 A3044 RMK CI1 SLP333

CYQR;2013-05-11 13:00;CYQR 111300Z 00000KT 15SM FEW250 02/M04 A3044 RMK CI1 CONTRAILS SLP333

CYQR;2013-05-11 14:00;CYQR 111400Z 19005KT 15SM BKN250 04/M06 A3043 RMK CI1 CONTRAILS SLP331

CYQR;2013-05-11 15:00;CYQR 111500Z 21006KT 15SM OVC250 05/M07 A3042 RMK CI2 CONTRAILS SLP325

CYQR;2013-05-11 16:00;CYQR 111600Z 21004KT 15SM BKN250 06/M08 A3041 RMK CI3 SLP320

CYQR;2013-05-11 17:00;CYQR 111700Z 18005KT 15SM FEW250 07/M08 A3039 RMK CI1 SLP313

CYQR;2013-05-11 18:00;CYQR 111800Z 16005KT 15SM FEW250 09/M07 A3036 RMK CI1 SLP304

CYQR;2013-05-11 19:00;CYQR 111900Z 16007KT 15SM FEW250 09/M09 A3033 RMK CI1 CONTRAILS SLP294

CYQR;2013-05-11 20:00;CYQR 112000Z CCA 18008KT 15SM FEW250 11/M08 A3030 RMK CI1 SLP284

CYQR;2013-05-11 21:00;CYQR 112100Z 08003KT 15SM FEW250 13/M07 A3028 RMK CI1 SLP276

CYQR;2013-05-11 22:00;CYQR 112200Z 13007KT 15SM FEW160 BKN250 13/M08 A3024 RMK AC1CI2 SLP265

CYQR;2013-05-11 23:00;CYQR 112300Z 14003KT 15SM FEW250 13/M08 A3022 RMK CI1 SLP257

CYQR;2013-05-12 00:00;CYQR 120000Z 20005KT 15SM FEW250 14/M08 A3020 RMK CI1 SLP247

CYQR;2013-05-12 01:00;CYQR 120100Z 17005KT 15SM FEW250 14/M08 A3017 RMK CI1 SLP239

CYQR;2013-05-12 02:00;CYQR 120200Z 13008KT 15SM FEW100 FEW250 12/M07 A3016 RMK AC1CI1 SLP236

CYQR;2013-05-12 03:00;CYQR 120300Z 12008KT 15SM FEW100 FEW250 09/M03 A3016 RMK AC1CI1 SLP232

CYQR;2013-05-12 04:00;CYQR 120400Z 12009KT 15SM FEW250 08/M06 A3015 RMK CI1 SLP229

CYQR;2013-05-12 05:00;CYQR 120500Z 14014KT 15SM SKC 07/M04 A3013 RMK SLP224

CYQR;2013-05-12 06:00;CYQR 120600Z 14011KT 15SM FEW120 06/M03 A3013 RMK AC2 SLP223

CYQR;2013-05-12 07:00;CYQR 120700Z 14012KT 15SM FEW120 SCT250 06/M03 A3012 RMK AC2CI0 SLP220

CYQR;2013-05-12 08:00;CYQR 120800Z 14012KT 15SM FEW250 05/M03 A3012 RMK CI0 SLP218

CYQR;2013-05-12 09:00;CYQR 120900Z 14009KT 15SM SKC 04/M03 A3010 RMK SLP211

CYQR;2013-05-12 10:00;CYQR 121000Z 14008KT 15SM SKC 03/M03 A3009 RMK SLP206

CYQR;2013-05-12 11:00;CYQR 121100Z 13009KT 15SM FEW250 02/M03 A3007 RMK CI1 SLP200

CYQR;2013-05-12 12:00;CYQR 121200Z 13011KT 15SM FEW250 02/M03 A3006 RMK CI1 SLP199

CYQR;2013-05-12 13:00;CYQR 121300Z 13012KT 15SM FEW250 04/M02 A3005 RMK CI1 CONTRAILS SLP193

CYQR;2013-05-12 14:00;CYQR 121400Z 13013KT 15SM BKN250 08/M02 A3002 RMK CI2 CC ASOCTD CONTRAILS SLP185

CYQR;2013-05-12 15:00;CYQR 121500Z 15012KT 15SM SCT150 BKN250 11/M02 A3000 RMK AC2CI3 CC ASOCTD SLP172

CYQR;2013-05-12 16:00;CYQR 121600Z 16013KT 15SM BKN093 BKN250 14/M01 A2998 RMK AC4CI0 SLP166

CYQR;2013-05-12 17:00;CYQR 121700Z 15018KT 15SM SCT100 BKN250 18/M00 A2995 RMK AC2CI4 SLP157

CYQR;2013-05-12 18:00;CYQR 121800Z 15019G26KT 15SM FEW096 SCT120 BKN250 22/01 A2991 RMK AC2AC2CI3 SLP138

CYQR;2013-05-12 19:00;CYQR 121900Z 17018KT 15SM FEW096 FEW120 BKN250 24/01 A2987 RMK AC1AC1CI6 SLP126

CYQR;2013-05-12 20:00;CYQR 122000Z 18017G28KT 15SM SCT100 SCT120 OVC250 24/01 A2985 RMK AC2AC1CI4 SLP119

CYQR;2013-05-12 21:00;CYQR 122100Z 18020G26KT 15SM FEW088 SCT120 OVC250 26/01 A2982 RMK AC2AC1CI3 SLP105

CYQR;2013-05-12 22:00;CYQR 122200Z 17019G25KT 15SM FEW055 SCT100 OVC280 27/03 A2976 RMK SC2AC2CI1 PRESFR SLP088

CYQR;2013-05-12 23:00;CYQR 122300Z 17019KT 15SM FEW060 BKN100 OVC280 26/04 A2973 RMK SC1AC2CI2 SLP076

CYQR;2013-05-13 00:00;CYQR 130000Z 16017KT 15SM FEW100 OVC260 26/04 A2970 RMK AC1CI3 SLP064

CYQR;2013-05-13 01:00;CYQR 130100Z 21009KT 15SM FEW060 BKN100 BKN320 25/05 A2966 RMK SC1AC5CI2 SLP053

CYQR;2013-05-13 02:00;CYQR 130200Z 17008KT 15SM FEW060 BKN100 BKN320 22/06 A2963 RMK SC1AC3CI4 SLP043

CYQR;2013-05-13 03:00;CYQR 130300Z 16012KT 15SM SCT100 BKN300 20/06 A2962 RMK AC2CI6 SLP037

CYQR;2013-05-13 04:00;CYQR 130400Z 16010G15KT 15SM BKN300 18/06 A2961 RMK CI7 SLP034

CYQR;2013-05-13 05:00;CYQR 130500Z 17009KT 15SM BKN300 16/06 A2960 RMK CI7 SLP028

CYQR;2013-05-13 06:00;CYQR 130600Z 21005KT 15SM BKN300 15/07 A2958 RMK CI7 SLP018

CYQR;2013-05-13 07:00;CYQR 130700Z 24011KT 15SM BKN300 17/07 A2957 RMK CI7 SLP016

CYQR;2013-05-13 08:00;CYQR 130800Z 27016KT 15SM BKN300 18/07 A2955 RMK CI7 SLP010

CYQR;2013-05-13 09:00;CYQR 130900Z 28017KT 15SM BKN300 19/07 A2957 RMK CI7 SLP010

CYQR;2013-05-13 10:00;CYQR 131000Z 28013KT 15SM BKN300 17/07 A2959 RMK CI7 SLP017

CYQR;2013-05-13 11:00;CYQR 131100Z 30014KT 15SM BKN120 BKN300 16/08 A2962 RMK AC3CI4 SLP028

CYQR;2013-05-13 12:00;CYQR 131200Z 31017KT 15SM BKN160 BKN310 16/08 A2966 RMK AC5CI2 SLP044

CYQR;2013-05-13 13:00;CYQR 131300Z 31017KT 15SM FEW160 OVC310 16/09 A2969 RMK AC1CI2 SLP052

CYQR;2013-05-13 14:00;CYQR 131400Z 32014KT 15SM BKN310 18/10 A2971 RMK CI1 SLP058

CYQR;2013-05-13 15:00;CYQR 131500Z 30013KT 15SM FEW310 20/10 A2972 RMK CI1 SLP064

CYQR;2013-05-13 16:00;CYQR 131600Z 31008KT 15SM FEW310 22/08 A2971 RMK CI0 SLP061

CYQR;2013-05-13 17:00;CYQR 131700Z 30008G17KT 15SM FEW120 FEW310 24/06 A2971 RMK AC1CI0 SLP061

CYQR;2013-05-13 18:00;CYQR 131800Z 28007G17KT 15SM FEW120 FEW310 25/05 A2970 RMK AC1CI0 SLP057

CYQR;2013-05-13 19:00;CYQR 131900Z 25013G18KT 15SM FEW097 SCT310 26/05 A2968 RMK AC2CI0 SLP052

CYQR;2013-05-13 20:00;CYQR 132000Z 29015G20KT 15SM FEW090 SCT310 28/06 A2965 RMK AC2CI0 CU ASOCTD SLP043

CYQR;2013-05-13 21:00;CYQR 132100Z 28017KT 15SM FEW097 28/05 A2963 RMK AC2 CU ASOCTD SLP029

CYQR;2013-05-13 22:00;CYQR 132200Z 30017G25KT 15SM FEW097 29/05 A2961 RMK AC1 SLP024

CYQR;2013-05-13 23:00;CYQR 132300Z 30018G27KT 15SM FEW097 28/04 A2961 RMK AC1 SLP022

CYQR;2013-05-14 00:00;CYQR 140000Z 31021G26KT 15SM FEW097 28/04 A2958 RMK AC1 SLP015

CYQR;2013-05-14 01:00;CYQR 140100Z 31013G19KT 15SM FEW100 27/03 A2956 RMK AC1 SLP008

CYQR;2013-05-14 02:00;CYQR 140200Z 33004KT 15SM FEW100 23/06 A2953 RMK AC1 SLP000

CYQR;2013-05-14 03:00;CYQR 140300Z 00000KT 15SM FEW100 FEW150 20/05 A2953 RMK AC1AC1 SLP999

CYQR;2013-05-14 04:00;CYQR 140400Z 13004KT 15SM FEW150 FEW300 18/06 A2951 RMK AC2CI0 SLP992

CYQR;2013-05-14 05:00;CYQR 140500Z 12007KT 15SM BKN130 16/07 A2949 RMK AC6 SLP986

CYQR;2013-05-14 05:55;CYQR 140555Z 23020KT 12SM -RA BKN045 OVC100 21/ RMK SC7AC1

CYQR;2013-05-14 06:00;CYQR 140600Z 24032KT 12SM -RA BKN045 OVC100 20/06 A2956 RMK SC7AC1 SLP007

CYQR;2013-05-14 07:00;CYQR 140700Z 26015KT 15SM -RA OVC031 16/11 A2954 RMK SC8 SLP001

CYQR;2013-05-14 08:00;CYQR 140800Z 25017KT 15SM -RA OVC034 15/12 A2955 RMK SC8 SLP003

CYQR;2013-05-14 08:30;CYQR 140830Z 21009KT 15SM OVC034 14/ RMK SC8

CYQR;2013-05-14 09:00;CYQR 140900Z 20009KT 15SM SCT045 OVC081 14/12 A2946 RMK SC3AC5 SLP975

CYQR;2013-05-14 10:00;CYQR 141000Z 25018KT 15SM BKN050 14/11 A2949 RMK SC5 SLP983

CYQR;2013-05-14 11:00;CYQR 141100Z 26016G25KT 15SM FEW053 12/08 A2947 RMK SC2 SLP979

CYQR;2013-05-14 12:00;CYQR 141200Z 28025G35KT 15SM BKN031 12/06 A2948 RMK SC6 SLP983

CYQR;2013-05-14 13:00;CYQR 141300Z 29018G25KT 15SM FEW030 BKN047 12/08 A2951 RMK SC1SC6 SLP991

CYQR;2013-05-14 14:00;CYQR 141400Z 31018G25KT 15SM BKN020 BKN054 12/08 A2954 RMK SC5SC2 SLP001

CYQR;2013-05-14 14:17;CYQR 141417Z 32024G30KT 15SM -SHRA BKN019 12/ RMK SC7

CYQR;2013-05-14 15:00;CYQR 141500Z 32024KT 15SM FEW020 BKN054 BKN074 13/07 A2961 RMK SC2SC5AC1 PRESRR SLP033

CYQR;2013-05-14 16:00;CYQR 141600Z 32020KT 15SM FEW020 BKN056 BKN074 13/07 A2965 RMK SC1SC5AC1 SLP046

CYQR;2013-05-14 17:00;CYQR 141700Z 30020G30KT 15SM BKN044 17/06 A2968 RMK SC5 CU ASOCTD SLP056

CYQR;2013-05-14 18:00;CYQR 141800Z 30021G27KT 15SM FEW044 20/06 A2968 RMK CU1 SLP051

CYQR;2013-05-14 19:00;CYQR 141900Z 31022G30KT 15SM BKN055 21/02 A2969 RMK CU6 SLP053

CYQR;2013-05-14 20:00;CYQR 142000Z 34020G30KT 15SM SCT073 BKN280 22/02 A2970 RMK CU4CI0 SLP058

CYQR;2013-05-14 21:00;CYQR 142100Z 34018G24KT 15SM FEW081 BKN280 22/02 A2971 RMK CU2CI1 SLP062

CYQR;2013-05-14 22:00;CYQR 142200Z 30016G25KT 15SM FEW080 BKN260 22/01 A2971 RMK CU2CS4 HALO SLP065

CYQR;2013-05-14 23:00;CYQR 142300Z 31017G24KT 15SM FEW090 OVC260 22/M00 A2972 RMK CU2CI6 SLP066

CYQR;2013-05-15 00:00;CYQR 150000Z 31019G25KT 15SM FEW090 SCT260 22/M01 A2972 RMK CU1CI1 SLP070

CYQR;2013-05-15 01:00;CYQR 150100Z 31014KT 15SM FEW100 BKN260 20/M00 A2973 RMK CU2CI1 CB ASOCTD N SLP073

CYQR;2013-05-15 02:00;CYQR 150200Z 34017KT 15SM SCT094 BKN260 18/01 A2976 RMK AC3CI0 CVCTV CLD EMBD SLP081

CYQR;2013-05-15 03:00;CYQR 150300Z 32015KT 15SM FEW098 BKN260 15/03 A2979 RMK AC2CI1 SLP096

CYQR;2013-05-15 04:00;CYQR 150400Z 27016KT 15SM OVC100 15/04 A2981 RMK AC8 SLP102

CYQR;2013-05-15 05:00;CYQR 150500Z 30007KT 15SM SCT079 OVC260 14/04 A2981 RMK AC3CI2 SLP102

CYQR;2013-05-15 06:00;CYQR 150600Z 28004KT 15SM SCT079 BKN260 12/04 A2981 RMK AC3CI1 SLP099

CYQR;2013-05-15 07:00;CYQR 150700Z 28006KT 15SM FEW100 08/03 A2982 RMK AC2 SLP105

CYQR;2013-05-15 08:00;CYQR 150800Z 27007KT 15SM FEW100 06/03 A2983 RMK AC1 SLP108

CYQR;2013-05-15 09:00;CYQR 150900Z 22007KT 15SM FEW100 05/03 A2984 RMK AC1 SLP114

CYQR;2013-05-15 10:00;CYQR 151000Z 25008KT 15SM FEW100 06/03 A2985 RMK AC1 SLP118

CYQR;2013-05-15 11:00;CYQR 151100Z 25005KT 15SM FEW100 FEW320 05/03 A2986 RMK AC1CI0 SLP122

CYQR;2013-05-15 12:00;CYQR 151200Z 28005KT 15SM FEW100 FEW320 05/03 A2987 RMK AC1CI0 SLP125

CYQR;2013-05-15 13:00;CYQR 151300Z 27008KT 15SM FEW100 FEW320 09/06 A2988 RMK AC1CI0 SLP129

CYQR;2013-05-15 14:00;CYQR 151400Z 31009KT 15SM FEW100 FEW320 12/06 A2990 RMK AC1CI1 SLP133

CYQR;2013-05-15 15:00;CYQR 151500Z 31009KT 15SM FEW100 SCT320 15/05 A2991 RMK AC1CI0 CONTRAILS SLP134

CYQR;2013-05-15 16:00;CYQR 151600Z 32013KT 15SM FEW100 SCT320 18/04 A2991 RMK AC1CI0 CONTRAILS SLP134

CYQR;2013-05-15 17:00;CYQR 151700Z 34010G15KT 15SM FEW320 20/01 A2991 RMK CI0 SLP134

CYQR;2013-05-15 18:00;CYQR 151800Z 33010G16KT 15SM FEW084 SCT320 20/M01 A2991 RMK CF1CI0 CONTRAILS SLP133

CYQR;2013-05-15 19:00;CYQR 151900Z 31012G20KT 15SM FEW098 SCT320 22/M02 A2990 RMK CF1CI0 CONTRAILS SLP130

CYQR;2013-05-15 20:00;CYQR 152000Z 33015G21KT 15SM FEW096 SCT320 21/M00 A2990 RMK CF1CI0 CONTRAILS SLP131

CYQR;2013-05-15 21:00;CYQR 152100Z 31013G21KT 15SM FEW092 SCT320 22/M01 A2989 RMK CU1CI0 CONTRAILS SLP130

CYQR;2013-05-15 22:00;CYQR 152200Z 32014KT 15SM FEW090 BKN320 22/M01 A2988 RMK CU1CI0 SLP129

CYQR;2013-05-15 23:00;CYQR 152300Z 32006G16KT 15SM FEW095 BKN320 21/M02 A2988 RMK CU2CI0 CONTRAILS SLP128

CYQR;2013-05-16 00:00;CYQR 160000Z 02011KT 15SM FEW095 FEW150 SCT320 21/M02 A2987 RMK CU1AC1CI0 CONTRAILS SLP125

CYQR;2013-05-16 01:00;CYQR 160100Z 01007KT 15SM SCT100 BKN320 21/M01 A2987 RMK AC4CI0 SLP126

CYQR;2013-05-16 02:00;CYQR 160200Z 02007KT 15SM FEW100 19/M01 A2988 RMK AC2 SLP127

CYQR;2013-05-16 03:00;CYQR 160300Z 04004KT 15SM FEW100 FEW330 16/M02 A2988 RMK AC1CI1 CONTRAILS SLP126

CYQR;2013-05-16 04:00;CYQR 160400Z 06005KT 15SM FEW100 FEW220 14/M02 A2989 RMK AC1CI0 CONTRAILS SLP128

CYQR;2013-05-16 05:00;CYQR 160500Z 10007KT 15SM FEW330 11/01 A2990 RMK CI0 SLP130

CYQR;2013-05-16 06:00;CYQR 160600Z 09009KT 12SM FEW090 FEW330 12/02 A2990 RMK AC1CI0 FU SLP131

CYQR;2013-05-16 07:00;CYQR 160700Z 10009KT 15SM FEW090 FEW330 12/02 A2990 RMK AC1CI0 SLP131

CYQR;2013-05-16 08:00;CYQR 160800Z 11008KT 15SM FEW090 FEW330 11/02 A2989 RMK AC1CI0 SLP128

CYQR;2013-05-16 09:00;CYQR 160900Z 11009KT 15SM FEW330 10/02 A2989 RMK CI0 SLP127

CYQR;2013-05-16 10:00;CYQR 161000Z 12009KT 15SM FEW140 FEW330 09/03 A2989 RMK AC1CI0 SLP129

CYQR;2013-05-16 11:00;CYQR 161100Z 12007KT 15SM FEW090 FEW140 SCT330 09/03 A2989 RMK AC2AC1CI0 ACC ASOCTD SLP128

CYQR;2013-05-16 12:00;CYQR 161200Z 14006KT 15SM FEW090 SCT130 BKN330 09/03 A2990 RMK AC2AC2CI0 SLP133

CYQR;2013-05-16 13:00;CYQR 161300Z 14004KT 15SM FEW090 FEW130 BKN330 09/03 A2990 RMK AC1AC1CI1 SLP133

CYQR;2013-05-16 14:00;CYQR 161400Z 14010KT 15SM FEW040 BKN130 BKN300 14/04 A2989 RMK CF1AC5CI0 VIRGA SW ACC ASOCTD SLP131

CYQR;2013-05-16 15:00;CYQR 161500Z 14012KT 15SM FEW040 SCT087 BKN300 18/04 A2989 RMK CF1AC3CI1 TR CF SLP126

CYQR;2013-05-16 16:00;CYQR 161600Z 14012G19KT 15SM BKN092 BKN130 BKN300 19/03 A2988 RMK AC6AC1CI0 SLP123

CYQR;2013-05-16 17:00;CYQR 161700Z 12012KT 15SM BKN092 BKN130 BKN300 21/M00 A2987 RMK AC5AC2CI0 SLP121

CYQR;2013-05-16 18:00;CYQR 161800Z 11006KT 15SM SCT066 BKN094 OVC300 21/M00 A2986 RMK AC4AC2CI0 SLP118

CYQR;2013-05-16 19:00;CYQR 161900Z 15011G19KT 15SM SCT066 BKN300 22/01 A2985 RMK CU3CI1 SLP113

CYQR;2013-05-16 20:00;CYQR 162000Z 13006G18KT 15SM BKN085 OVC300 22/00 A2983 RMK CU5CI2 VIRGA S-W SLP107

CYQR;2013-05-16 21:00;CYQR 162100Z 16012KT 15SM BKN068 OVC300 22/01 A2983 RMK CU6CI2 VIRGA SLP109

CYQR;2013-05-16 22:00;CYQR 162200Z 17013G18KT 15SM BKN070 OVC300 22/01 A2982 RMK CU7CI1 VIRGA SLP105

CYQR;2013-05-16 23:00;CYQR 162300Z 14016G22KT 15SM BKN076 BKN110 OVC300 22/02 A2981 RMK CU5AC2CI1 VIRGA SLP102

CYQR;2013-05-17 00:00;CYQR 170000Z 17012G17KT 15SM BKN090 OVC300 22/02 A2981 RMK AC6CI2 SLP100

CYQR;2013-05-17 01:00;CYQR 170100Z 13009KT 15SM SCT092 OVC300 21/03 A2979 RMK AC4CI4 SLP096

CYQR;2013-05-17 02:00;CYQR 170200Z 17012KT 15SM FEW100 OVC300 20/08 A2980 RMK AC2CI6 SLP099

CYQR;2013-05-17 03:00;CYQR 170300Z 16010KT 15SM FEW100 OVC300 17/08 A2981 RMK AC1CI6 SLP098

CYQR;2013-05-17 04:00;CYQR 170400Z 17016G22KT 15SM FEW100 OVC300 17/08 A2983 RMK AC1CI6 SLP105

CYQR;2013-05-17 05:00;CYQR 170500Z 16020G25KT 15SM SCT110 OVC300 16/09 A2984 RMK AC3CI4 SLP107

CYQR;2013-05-17 06:00;CYQR 170600Z 16023G29KT 15SM -RA BKN064 OVC100 16/09 A2985 RMK SC6AC2 SLP111

CYQR;2013-05-17 06:36;CYQR 170636Z 16018KT 15SM SCT038 OVC051 14/ RMK SC4SC4

CYQR;2013-05-17 07:00;CYQR 170700Z 17015G21KT 15SM FEW038 OVC051 14/10 A2988 RMK SC1SC7 SLP121

CYQR;2013-05-17 08:00;CYQR 170800Z 17012KT 15SM BKN050 OVC100 13/10 A2988 RMK SC6AC2 SLP121

CYQR;2013-05-17 09:00;CYQR 170900Z 16011KT 15SM BKN054 OVC100 13/10 A2988 RMK SC6AC2 SLP122

CYQR;2013-05-17 09:51;CYQR 170951Z 15011KT 15SM -RA SCT067 OVC100 12/ RMK AC4AC4

CYQR;2013-05-17 10:00;CYQR 171000Z 15011KT 15SM -RA SCT067 OVC100 12/10 A2987 RMK AC4AC4 SLP120

CYQR;2013-05-17 10:09;CYQR 171009Z 15013KT 15SM BKN067 OVC100 13/ RMK AC5AC3

CYQR;2013-05-17 11:00;CYQR 171100Z 15011G16KT 15SM SCT067 BKN098 OVC300 12/10 A2986 RMK AC3AC3CI2 SLP118

CYQR;2013-05-17 12:00;CYQR 171200Z 17007KT 15SM FEW076 BKN120 OVC300 12/10 A2988 RMK AC2AC5CI2 SLP123

CYQR;2013-05-17 12:39;CYQR 171239Z 18006KT 15SM -RA SCT055 OVC089 12/ RMK SC3AC5

CYQR;2013-05-17 13:00;CYQR 171300Z 17007KT 15SM -RA SCT055 OVC089 12/10 A2989 RMK SC3AC5 SLP128

CYQR;2013-05-17 14:00;CYQR 171400Z 17009KT 15SM BKN032 OVC088 12/10 A2990 RMK SC5AC3 SLP130

CYQR;2013-05-17 14:41;CYQR 171441Z 17007KT 15SM FEW009 BKN067 OVC081 13/ RMK SF1AC6AC2

CYQR;2013-05-17 15:00;CYQR 171500Z 18008KT 15SM FEW010 BKN067 OVC081 13/10 A2990 RMK SF1AC5AC2 SLP131

CYQR;2013-05-17 16:00;CYQR 171600Z 17011KT 15SM FEW010 SCT059 BKN078 OVC260 14/11 A2990 RMK SF1SC2AC3CI2 SLP131

CYQR;2013-05-17 17:00;CYQR 171700Z 17013KT 15SM SCT022 BKN090 BKN300 16/11 A2990 RMK CU3AC2CI1 SLP132

CYQR;2013-05-17 18:00;CYQR 171800Z 17012KT 15SM BKN028 BKN078 BKN300 17/11 A2990 RMK CU6AC1CI1 SLP130

CYQR;2013-05-17 19:00;CYQR 171900Z 17011KT 15SM BKN023 BKN080 18/10 A2988 RMK CU6AC1 SLP126

CYQR;2013-05-17 20:00;CYQR 172000Z 17007KT 15SM BKN033 OVC082 17/09 A2987 RMK SC7AC1 SLP122

CYQR;2013-05-17 21:00;CYQR 172100Z 16009KT 15SM BKN039 BKN066 19/09 A2986 RMK SC5AC2 SLP120

CYQR;2013-05-17 22:00;CYQR 172200Z 16006KT 15SM BKN045 BKN094 20/09 A2985 RMK CU6AC1 SLP116

CYQR;2013-05-17 23:00;CYQR 172300Z 16007KT 15SM BKN045 BKN074 19/09 A2984 RMK CU5AC2 SLP112

CYQR;2013-05-18 00:00;CYQR 180000Z 13004KT 15SM SCT049 SCT074 19/09 A2984 RMK CU3AC1 SLP110

CYQR;2013-05-18 01:00;CYQR 180100Z 10008KT 15SM FEW049 FEW300 19/10 A2984 RMK CU2CI0 SLP111

CYQR;2013-05-18 02:00;CYQR 180200Z 10010KT 15SM FEW050 FEW300 17/10 A2984 RMK SC1CI0 SLP111

CYQR;2013-05-18 03:00;CYQR 180300Z 09009KT 15SM FEW050 FEW300 16/10 A2986 RMK SC1CI0 SLP121

CYQR;2013-05-18 04:00;CYQR 180400Z 09008KT 15SM FEW300 15/10 A2987 RMK CI0 SLP123

CYQR;2013-05-18 05:00;CYQR 180500Z 10010KT 15SM SKC 14/09 A2987 RMK SLP123

CYQR;2013-05-18 06:00;CYQR 180600Z 11007KT 15SM FEW056 13/09 A2987 RMK SC2 SLP124

CYQR;2013-05-18 07:00;CYQR 180700Z 13006KT 15SM FEW056 FEW300 11/09 A2988 RMK SC1CI0 SLP126

CYQR;2013-05-18 08:00;CYQR 180800Z 12005KT 15SM FEW051 SCT300 11/09 A2988 RMK SC1CI0 SLP128

CYQR;2013-05-18 09:00;CYQR 180900Z 10003KT 15SM SCT300 10/09 A2988 RMK CI1 SLP126

CYQR;2013-05-18 10:00;CYQR 181000Z 03002KT 15SM BKN300 10/09 A2987 RMK CI2 SLP125

CYQR;2013-05-18 11:00;CYQR 181100Z 05005KT 12SM BKN300 08/08 A2987 RMK CI2 FU SLP125

CYQR;2013-05-18 12:00;CYQR 181200Z 09002KT 12SM FEW200 BKN300 10/08 A2987 RMK CI1CI1 FU SLP125

CYQR;2013-05-18 13:00;CYQR 181300Z 07003KT 15SM FEW200 BKN300 13/10 A2990 RMK CI2CI2 SLP133

CYQR;2013-05-18 14:00;CYQR 181400Z 08003KT 15SM FEW130 SCT200 BKN300 16/11 A2991 RMK AC1CI3CI0 SLP135

CYQR;2013-05-18 15:00;CYQR 181500Z 08006KT 15SM SCT100 BKN300 17/11 A2990 RMK AC1CI0 FU SLP132

CYQR;2013-05-18 16:00;CYQR 181600Z 06004KT 15SM FEW032 FEW100 OVC300 18/10 A2990 RMK CU1AC1CI1 CU TR SLP130

CYQR;2013-05-18 17:00;CYQR 181700Z 05006KT 15SM FEW041 BKN140 BKN320 20/09 A2990 RMK CU2AC1CI0 SLP130

CYQR;2013-05-18 18:00;CYQR 181800Z 09011KT 15SM SCT047 BKN160 BKN300 21/09 A2988 RMK CU4AC0CI0 SLP124

CYQR;2013-05-18 19:00;CYQR 181900Z 02006KT 15SM BKN051 BKN160 BKN320 21/08 A2987 RMK CU5AC2CI1 TCU EMBD CC ASOCTD SLP120

CYQR;2013-05-18 20:00;CYQR 182000Z 09010KT 15SM SCT054 BKN120 BKN320 21/09 A2986 RMK CU4AC2CI0 TCU ASOCTD SLP118

CYQR;2013-05-18 21:00;CYQR 182100Z 09014G19KT 15SM BKN056TCU BKN120 BKN160 21/08 A2986 RMK TCU6AC1AC1 SHWRS SW SLP119

CYQR;2013-05-18 22:00;CYQR 182200Z 05005KT 15SM VCSH BKN058TCU BKN072 OVC160 20/08 A2986 RMK TCU5AC2AC2 SLP120

CYQR;2013-05-18 23:00;CYQR 182300Z 06006KT 15SM VCSH BKN058TCU BKN082 20/08 A2987 RMK TCU6AC2 SLP122

CYQR;2013-05-18 23:36;CYQR 182336Z 04010KT 15SM -SHRA BKN060TCU BKN081 OVC160 20/ RMK TCU5AC2AC1

CYQR;2013-05-19 00:00;CYQR 190000Z 05008KT 15SM -SHRA BKN060 OVC081 19/09 A2987 RMK CU6AC2 PCPN VRY LGT SLP125

CYQR;2013-05-19 00:27;CYQR 190027Z 07005KT 15SM VCSH BKN060 OVC160 20/ RMK CU6AC2 TCU EMBD

CYQR;2013-05-19 01:00;CYQR 190100Z 07008KT 15SM BKN060 BKN160 20/08 A2988 RMK CU6AC1 SLP127

CYQR;2013-05-19 02:00;CYQR 190200Z 04007KT 15SM VCSH BKN086 BKN160 BKN250 19/09 A2988 RMK AC5AC1CI1 ACC ASOCTD SLP128

CYQR;2013-05-19 03:00;CYQR 190300Z 03006KT 15SM BKN088 BKN250 17/09 A2990 RMK AC5CI2 SLP129

CYQR;2013-05-19 04:00;CYQR 190400Z 04006KT 15SM BKN090 15/09 A2991 RMK AC5 SLP133

CYQR;2013-05-19 05:00;CYQR 190500Z CCA 05006KT 15SM SCT100 14/08 A2991 RMK AC3 SLP134

CYQR;2013-05-19 06:00;CYQR 190600Z 11009KT 15SM SCT250 14/09 A2993 RMK CI2 SLP140

CYQR;2013-05-19 07:00;CYQR 190700Z 11007KT 15SM FEW250 12/10 A2993 RMK CI1 SLP141

CYQR;2013-05-19 08:00;CYQR 190800Z 10008KT 15SM SKC 11/10 A2995 RMK SLP147

CYQR;2013-05-19 09:00;CYQR 190900Z 04003KT 15SM SKC 10/09 A2994 RMK SLP146

CYQR;2013-05-19 10:00;CYQR 191000Z 08004KT 15SM FEW100 FEW250 10/09 A2996 RMK AC1CI1 SLP151

CYQR;2013-05-19 11:00;CYQR 191100Z 08006KT 15SM FEW100 SCT250 10/09 A2997 RMK AC1CI1 SLP157

CYQR;2013-05-19 12:00;CYQR 191200Z 06008KT 15SM FEW012 FEW100 FEW200 BKN250 12/11 A2998 RMK CU1AC1CI1CI2 SLP161

CYQR;2013-05-19 13:00;CYQR 191300Z 05009KT 15SM FEW100 FEW210 BKN280 13/11 A2999 RMK AC1CI1CI0 SLP163

CYQR;2013-05-19 14:00;CYQR 191400Z 07011KT 15SM FEW089 BKN280 15/10 A2999 RMK AC1CI0 SLP163

CYQR;2013-05-19 15:00;CYQR 191500Z 07012KT 15SM FEW028 FEW090 BKN280 17/10 A2999 RMK CF1AC1CI0 SLP160

CYQR;2013-05-19 16:00;CYQR 191600Z 08016G22KT 15SM FEW040 FEW090 BKN280 18/09 A2999 RMK CU1AC1CI1 TR CU SLP161

CYQR;2013-05-19 17:00;CYQR 191700Z 09018G25KT 15SM FEW041 FEW120 BKN300 19/07 A3000 RMK CU2AC1CI0 SLP163

CYQR;2013-05-19 18:00;CYQR 191800Z 07017G25KT 15SM FEW050 OVC300 19/07 A2999 RMK CU2CI5 SLP162

CYQR;2013-05-19 19:00;CYQR 191900Z 07022KT 15SM FEW052 OVC300 19/06 A2997 RMK CU2CI6 SLP157

CYQR;2013-05-19 20:00;CYQR 192000Z 06013G21KT 15SM SCT054 BKN180 OVC300 20/06 A2997 RMK CU3AS3CI2 SLP156

CYQR;2013-05-19 21:00;CYQR 192100Z 08019KT 15SM FEW063 BKN180 OVC300 20/06 A2996 RMK CU2AS4CI2 SLP155

CYQR;2013-05-19 22:00;CYQR 192200Z 07018G24KT 15SM FEW067 BKN180 OVC300 20/05 A2997 RMK CU2AC2CI3 SLP157

CYQR;2013-05-19 23:00;CYQR 192300Z 07014G24KT 15SM FEW067 BKN180 OVC300 20/05 A2998 RMK CU2AS4CI2 SLP159

CYQR;2013-05-20 00:00;CYQR 200000Z 06021KT 15SM FEW065 BKN180 OVC300 20/04 A2998 RMK SC1AS6CS2 SLP159

CYQR;2013-05-20 01:00;CYQR 200100Z 06018KT 15SM FEW065 BKN180 OVC300 19/04 A2999 RMK SC1AS6CI2 SLP161

CYQR;2013-05-20 02:00;CYQR 200200Z 05016G22KT 15SM BKN180 OVC300 18/05 A3000 RMK AS5CS3 SLP164

CYQR;2013-05-20 03:00;CYQR 200300Z 04013G18KT 15SM BKN180 OVC300 17/05 A3001 RMK AC5CI3 SLP169

CYQR;2013-05-20 04:00;CYQR 200400Z 06018KT 15SM SCT180 OVC300 16/04 A3002 RMK AC3CI5 SLP172

CYQR;2013-05-20 05:00;CYQR 200500Z 06015G21KT 15SM OVC300 15/05 A3003 RMK CI8 SLP176

CYQR;2013-05-20 06:00;CYQR 200600Z 06015KT 15SM OVC300 14/05 A3004 RMK CI8 SLP179

CYQR;2013-05-20 07:00;CYQR 200700Z 07018KT 15SM SCT300 12/03 A3003 RMK CI4 SLP175

CYQR;2013-05-20 08:00;CYQR 200800Z 05010KT 15SM OVC300 10/03 A3003 RMK CI8 SLP175

CYQR;2013-05-20 09:00;CYQR 200900Z 03011KT 15SM OVC300 10/02 A3003 RMK CI8 SLP176

CYQR;2013-05-20 10:00;CYQR 201000Z 03011KT 15SM OVC120 10/02 A3003 RMK AC8 SLP176

CYQR;2013-05-20 11:00;CYQR 201100Z 01011KT 15SM OVC120 09/02 A3004 RMK AC8 SLP181

CYQR;2013-05-20 12:00;CYQR 201200Z 01012KT 15SM OVC120 09/01 A3005 RMK AC8 SLP186

CYQR;2013-05-20 13:00;CYQR 201300Z 02010KT 15SM FEW070 OVC120 09/02 A3006 RMK AC1AC7 SLP188

CYQR;2013-05-20 14:00;CYQR 201400Z 02013KT 15SM FEW030 SCT070 OVC120 10/03 A3006 RMK SC1AC2AC6 SLP188

CYQR;2013-05-20 15:00;CYQR 201500Z 02015KT 15SM FEW070 BKN120 OVC280 12/04 A3006 RMK AC1AC6CI1 SLP189

CYQR;2013-05-20 16:00;CYQR 201600Z 02015KT 15SM FEW070 SCT120 OVC280 15/05 A3006 RMK AC1AC3CI3 SLP189

CYQR;2013-05-20 17:00;CYQR 201700Z 04011G18KT 15SM SCT120 OVC240 18/07 A3005 RMK AC1CI5 SLP187

CYQR;2013-05-20 18:00;CYQR 201800Z 05017G25KT 15SM FEW050 SCT120 BKN240 19/07 A3004 RMK CF1AC1CI2 SLP180

CYQR;2013-05-20 19:00;CYQR 201900Z 03019KT 15SM FEW050 BKN180 OVC240 19/06 A3004 RMK CU1AC3CI2 SLP178

CYQR;2013-05-20 20:00;CYQR 202000Z 04015G26KT 15SM FEW050 SCT150 BKN240 21/06 A3004 RMK CU1AC2CI2 SLP178

CYQR;2013-05-20 21:00;CYQR 202100Z 06019G24KT 15SM FEW060 SCT150 OVC240 21/02 A3003 RMK CU1AC2CI2 SLP177

CYQR;2013-05-20 22:00;CYQR 202200Z 05018G26KT 15SM FEW060 FEW150 OVC240 22/01 A3003 RMK CU1AC1CI2 SLP176

CYQR;2013-05-20 23:00;CYQR 202300Z 04013G26KT 15SM FEW060 FEW150 BKN280 21/00 A3002 RMK SC1AC1CI2 SLP175

CYQR;2013-05-21 00:00;CYQR 210000Z 06014G21KT 15SM FEW035 FEW150 OVC280 20/M02 A3002 RMK SC1AC1CI2 SLP176

CYQR;2013-05-21 01:00;CYQR 210100Z 06012G19KT 15SM FEW035 FEW150 OVC280 20/M02 A3003 RMK SC1AC1CI2 SLP179

CYQR;2013-05-21 02:00;CYQR 210200Z 07010KT 15SM FEW150 BKN280 18/M02 A3004 RMK AC1CI4 CC ASOCTD CONTRAILS SLP182

CYQR;2013-05-21 03:00;CYQR 210300Z 06011G18KT 15SM BKN280 16/M03 A3006 RMK CI3 SLP191

CYQR;2013-05-21 04:00;CYQR 210400Z 06011G17KT 15SM SCT280 15/M03 A3008 RMK CI2 SLP195

CYQR;2013-05-21 05:00;CYQR 210500Z 08014KT 15SM FEW280 13/00 A3008 RMK CI1 SLP196

CYQR;2013-05-21 06:00;CYQR 210600Z 08009KT 15SM FEW280 10/01 A3009 RMK CI1 SLP198

CYQR;2013-05-21 07:00;CYQR 210700Z 03005KT 15SM FEW280 08/M01 A3009 RMK CI1 SLP199

CYQR;2013-05-21 08:00;CYQR 210800Z 36007KT 15SM FEW280 05/M00 A3010 RMK CI1 SLP201

CYQR;2013-05-21 09:00;CYQR 210900Z 36005KT 15SM FEW280 05/M01 A3010 RMK CI1 SLP202

CYQR;2013-05-21 10:00;CYQR 211000Z 03006KT 15SM SCT280 04/M01 A3010 RMK CI2 SLP203

CYQR;2013-05-21 11:00;CYQR 211100Z 01006KT 15SM BKN250 BKN280 04/M00 A3011 RMK CI5CI1 SLP206

CYQR;2013-05-21 12:00;CYQR 211200Z 35007KT 15SM BKN250 BKN280 06/01 A3012 RMK CI5CI1 CONTRAILS SLP211

CYQR;2013-05-21 13:00;CYQR 211300Z 03005KT 15SM BKN250 09/02 A3012 RMK CI2 CONTRAILS SLP211

CYQR;2013-05-21 14:00;CYQR 211400Z 07012G17KT 15SM BKN250 13/M00 A3012 RMK CI3 SLP212

CYQR;2013-05-21 15:00;CYQR 211500Z 08015G21KT 15SM OVC250 14/M00 A3012 RMK CI6 SLP207

CYQR;2013-05-21 16:00;CYQR 211600Z 09013G20KT 15SM OVC250 16/00 A3011 RMK CI6 CONTRAILS SLP205

CYQR;2013-05-21 17:00;CYQR 211700Z 05011G18KT 15SM OVC250 17/M00 A3010 RMK CI6 SLP200

CYQR;2013-05-21 18:00;CYQR 211800Z 07019G26KT 15SM OVC250 18/M02 A3009 RMK CI4 CONTRAILS SLP199

CYQR;2013-05-21 19:00;CYQR 211900Z 07014G26KT 15SM OVC250 20/M01 A3008 RMK CI3 SLP196

CYQR;2013-05-21 20:00;CYQR 212000Z 09023G28KT 15SM BKN250 21/M03 A3006 RMK CI3 SLP190

CYQR;2013-05-21 21:00;CYQR 212100Z 09019G29KT 15SM BKN250 21/M04 A3005 RMK CI4 SLP188

CYQR;2013-05-21 22:00;CYQR 212200Z 07022KT 15SM OVC250 22/M03 A3005 RMK CI2 SLP185

CYQR;2013-05-21 23:00;CYQR 212300Z 07020G29KT 15SM OVC250 21/M04 A3004 RMK CI4 SLP183

CYQR;2013-05-22 00:00;CYQR 220000Z 09022G30KT 15SM BKN250 21/M03 A3004 RMK CI2 SLP182

CYQR;2013-05-22 01:00;CYQR 220100Z 08018G26KT 15SM BKN250 19/M03 A3005 RMK CI2 SLP185

CYQR;2013-05-22 02:00;CYQR 220200Z 09016G21KT 15SM BKN250 18/M03 A3006 RMK CI5 CONTRAILS SLP190

CYQR;2013-05-22 03:00;CYQR 220300Z 09012KT 15SM BKN250 16/M03 A3008 RMK CI3 SLP194

CYQR;2013-05-22 04:00;CYQR 220400Z 10009KT 15SM BKN250 14/M02 A3009 RMK CI3 SLP198

CYQR;2013-05-22 05:00;CYQR 220500Z 09009KT 15SM OVC250 13/M00 A3010 RMK CI8 SLP201

CYQR;2013-05-22 06:00;CYQR 220600Z 09008KT 15SM OVC250 13/00 A3010 RMK CI8 SLP201

CYQR;2013-05-22 07:00;CYQR 220700Z 09008KT 15SM OVC250 12/01 A3010 RMK CI8 SLP202

CYQR;2013-05-22 08:00;CYQR 220800Z 09007KT 15SM OVC250 11/01 A3011 RMK CI8 SLP203

CYQR;2013-05-22 09:00;CYQR 220900Z 08008KT 15SM OVC250 10/01 A3011 RMK CI8 SLP206

CYQR;2013-05-22 10:00;CYQR 221000Z 08010KT 15SM SCT250 10/01 A3012 RMK CI2 SLP207

CYQR;2013-05-22 11:00;CYQR 221100Z 09011KT 15SM BKN250 11/01 A3012 RMK CI6 SLP207

CYQR;2013-05-22 12:00;CYQR 221200Z 08013KT 15SM BKN250 11/01 A3012 RMK CI5 CONTRAILS SLP208

CYQR;2013-05-22 13:00;CYQR 221300Z 09011KT 15SM BKN250 13/02 A3013 RMK CI2 SLP210

CYQR;2013-05-22 14:00;CYQR 221400Z 10010G15KT 15SM BKN250 16/02 A3014 RMK CI2 SLP212

CYQR;2013-05-22 15:00;CYQR 221500Z 10013KT 15SM OVC250 18/03 A3015 RMK CI2 CONTRAILS SLP215

CYQR;2013-05-22 16:00;CYQR 221600Z 10013G19KT 15SM OVC250 20/02 A3015 RMK CI3 CONTRAILS SLP216

CYQR;2013-05-22 17:00;CYQR 221700Z 11015G24KT 15SM OVC290 21/02 A3015 RMK CI2 CONTRAILS SLP216

CYQR;2013-05-22 18:00;CYQR 221800Z 11017G26KT 15SM FEW075 OVC290 22/03 A3015 RMK CF1CI3 CONTRAILS SLP215

CYQR;2013-05-22 19:00;CYQR 221900Z 12016G26KT 15SM FEW075 OVC290 22/03 A3014 RMK CU1CI5 CONTRAILS SLP213

CYQR;2013-05-22 20:00;CYQR 222000Z 09016G29KT 15SM FEW075 OVC250 22/04 A3014 RMK CU2CI3 CONTRAILS SLP211

CYQR;2013-05-22 21:00;CYQR 222100Z 10015KT 15SM SCT082 OVC290 23/04 A3014 RMK CU3CI3 SLP212

CYQR;2013-05-22 22:00;CYQR 222200Z 11018G24KT 15SM SCT082 OVC290 22/03 A3014 RMK CU4CI2 SLP212

CYQR;2013-05-22 23:00;CYQR 222300Z 09019G25KT 15SM SCT077 OVC290 21/05 A3014 RMK CU4CI3 SLP214

CYQR;2013-05-23 00:00;CYQR 230000Z 08015G24KT 15SM FEW090 OVC290 21/05 A3014 RMK AC1CI6 SLP215

CYQR;2013-05-23 01:00;CYQR 230100Z 10017G22KT 15SM FEW090 OVC280 20/05 A3015 RMK AC1CI6 SLP218

CYQR;2013-05-23 02:00;CYQR 230200Z 10017G24KT 15SM OVC280 18/02 A3016 RMK CI6 CONTRAILS SLP220

CYQR;2013-05-23 03:00;CYQR 230300Z 10012G18KT 15SM BKN280 16/01 A3018 RMK CI3 SLP227

CYQR;2013-05-23 04:00;CYQR 230400Z 10017G22KT 15SM BKN280 14/M01 A3020 RMK CI2 SLP234

CYQR;2013-05-23 05:00;CYQR 230500Z 11016KT 15SM BKN280 12/01 A3023 RMK CI2 SLP243

CYQR;2013-05-23 06:00;CYQR 230600Z 11015KT 15SM SCT280 11/02 A3024 RMK CI1 SLP249

CYQR;2013-05-23 07:00;CYQR 230700Z 11016KT 15SM SCT280 10/03 A3025 RMK CI1 SLP253

CYQR;2013-05-23 08:00;CYQR 230800Z 11015G21KT 15SM SCT280 08/03 A3025 RMK CI1 SLP253

CYQR;2013-05-23 09:00;CYQR 230900Z 11013KT 15SM SCT250 07/03 A3026 RMK CI1 SLP257

CYQR;2013-05-23 10:00;CYQR 231000Z 11015KT 15SM FEW280 06/03 A3026 RMK CI0 SLP258

CYQR;2013-05-23 11:00;CYQR 231100Z 11014KT 15SM FEW280 06/02 A3027 RMK CI1 SLP259

CYQR;2013-05-23 12:00;CYQR 231200Z 11014G19KT 15SM SCT280 06/02 A3027 RMK CI1 SLP261

CYQR;2013-05-23 13:00;CYQR 231300Z 12015G22KT 15SM SCT280 08/03 A3026 RMK CI1 SLP259

CYQR;2013-05-23 14:00;CYQR 231400Z 13019G24KT 15SM FEW280 11/03 A3026 RMK CI1 SLP259

CYQR;2013-05-23 15:00;CYQR 231500Z 13020G25KT 15SM FEW280 13/03 A3026 RMK CI1 SLP256

CYQR;2013-05-23 16:00;CYQR 231600Z 13018KT 15SM BKN280 16/04 A3023 RMK CI2 SLP248

CYQR;2013-05-23 17:00;CYQR 231700Z 13016G25KT 15SM BKN280 18/05 A3022 RMK CI2 SLP243

CYQR;2013-05-23 18:00;CYQR 231800Z 14015G27KT 15SM FEW055 BKN280 19/05 A3020 RMK CF1CI2 SLP237

CYQR;2013-05-23 19:00;CYQR 231900Z 14018G26KT 15SM FEW055 BKN280 20/05 A3019 RMK CU1CI2 SLP232

CYQR;2013-05-23 20:00;CYQR 232000Z 13019G29KT 15SM FEW065 BKN280 20/04 A3017 RMK CF1CI2 SLP226

CYQR;2013-05-23 21:00;CYQR 232100Z 13017G31KT 15SM FEW065 FEW100 BKN280 21/04 A3015 RMK CF1AC1CI2 SLP220

CYQR;2013-05-23 22:00;CYQR 232200Z 14026KT 15SM FEW160 BKN280 21/04 A3013 RMK AC1CI4 SLP214

CYQR;2013-05-23 23:00;CYQR 232300Z 14024G30KT 15SM FEW160 OVC280 21/04 A3011 RMK AC1CI3 SLP209

CYQR;2013-05-24 00:00;CYQR 240000Z 14022G31KT 15SM FEW120 OVC280 20/02 A3011 RMK AC1CI2 SLP207

CYQR;2013-05-24 01:00;CYQR 240100Z 13018G27KT 15SM FEW090 SCT120 OVC280 19/02 A3010 RMK AC2AC2CI2 SLP203

CYQR;2013-05-24 02:00;CYQR 240200Z 13016G21KT 15SM SCT098 BKN150 OVC260 18/02 A3010 RMK AC3AC2CI2 SLP203

CYQR;2013-05-24 03:00;CYQR 240300Z 13018G24KT 15SM FEW100 SCT150 OVC260 17/01 A3010 RMK AC2AC2CI2 SLP201

CYQR;2013-05-24 04:00;CYQR 240400Z 12017KT 15SM BKN150 OVC260 16/01 A3011 RMK AC5CI2 OBS TAKEN -08 SLP205

CYQR;2013-05-24 05:00;CYQR 240500Z 12017G22KT 15SM BKN150 OVC250 15/02 A3010 RMK AC6CI2 SLP203

CYQR;2013-05-24 06:00;CYQR 240600Z 12017G25KT 15SM BKN150 OVC250 14/02 A3009 RMK AC3CI3 SLP197

CYQR;2013-05-24 07:00;CYQR 240700Z 12017KT 15SM SCT140 BKN250 13/02 A3008 RMK AC2CI2 SLP192

CYQR;2013-05-24 08:00;CYQR 240800Z 11018G26KT 15SM SCT085 BKN140 13/02 A3004 RMK AC2AC4 SLP180

CYQR;2013-05-24 09:00;CYQR 240900Z 12017G24KT 10SM OVC088 13/02 A3003 RMK AC8 SLP174

CYQR;2013-05-24 10:00;CYQR 241000Z 12020KT 15SM OVC090 13/03 A3000 RMK AC8 SLP165

CYQR;2013-05-24 11:00;CYQR 241100Z 12020G26KT 15SM BKN098 13/04 A2999 RMK AC7 SLP162

CYQR;2013-05-24 12:00;CYQR 241200Z 11018G27KT 15SM FEW100 SCT280 12/04 A2996 RMK AC2CI0 SLP154

CYQR;2013-05-24 13:00;CYQR 241300Z 12020KT 15SM BKN093 BKN280 12/05 A2996 RMK AC5CI0 SLP152

CYQR;2013-05-24 14:00;CYQR 241400Z 12022G34KT 15SM BKN084 14/06 A2992 RMK AC7 SLP140

CYQR;2013-05-24 15:00;CYQR 241500Z 12029G35KT 15SM BKN059 OVC280 15/05 A2991 RMK SC7CI1 SLP135

CYQR;2013-05-24 16:00;CYQR 241600Z 13028G34KT 15SM FEW020 BKN062 OVC100 15/05 A2990 RMK SC1SC7AC1 SLP132

CYQR;2013-05-24 17:00;CYQR 241700Z 13027G38KT 8SM -SHRA OVC035 14/06 A2990 RMK SC8 SLP132

CYQR;2013-05-24 18:00;CYQR 241800Z 13020G33KT 6SM -SHRA OVC037 13/08 A2989 RMK SC8 SLP133

CYQR;2013-05-24 19:00;CYQR 241900Z 13022G27KT 6SM -SHRA OVC035 12/08 A2990 RMK SC8 SLP136

CYQR;2013-05-24 20:00;CYQR 242000Z 13019G26KT 15SM -SHRA BKN035 OVC100 12/08 A2990 RMK SC6AC2 SLP136

CYQR;2013-05-24 21:00;CYQR 242100Z 14019G25KT 4SM -SHRA OVC019 11/09 A2991 RMK SC8 SLP142

CYQR;2013-05-24 21:47;CYQR 242147Z 14017G22KT 15SM BKN017 OVC075 11/ RMK SC6AC2

CYQR;2013-05-24 22:00;CYQR 242200Z 14017G22KT 15SM BKN017 OVC075 11/10 A2993 RMK SC6AC2 SLP146

CYQR;2013-05-24 23:00;CYQR 242300Z 13017KT 15SM FEW020 SCT046 BKN100 BKN150 13/11 A2992 RMK SC1SC3AC2AC1 SLP143

CYQR;2013-05-25 00:00;CYQR 250000Z 13015G20KT 15SM SCT013 SCT036 13/11 A2993 RMK SC3SC1 SLP147

CYQR;2013-05-25 00:18;CYQR 250018Z 14015KT 15SM BKN013 BKN036 14/ RMK SC5SC1

CYQR;2013-05-25 01:00;CYQR 250100Z 14011G16KT 15SM BKN032 14/11 A2995 RMK CU7 SLP153

CYQR;2013-05-25 02:00;CYQR 250200Z 14011G17KT 15SM FEW034 13/11 A2996 RMK CU2 SLP157

CYQR;2013-05-25 03:00;CYQR 250300Z 13007KT 15SM FEW030 11/10 A2999 RMK SC1 SLP165

CYQR;2013-05-25 04:00;CYQR 250400Z 12012KT 15SM SKC 10/09 A3000 RMK OBS TAKEN -08 SLP170

CYQR;2013-05-25 05:00;CYQR 250500Z 12014KT 12SM SKC 10/09 A3001 RMK SLP173

CYQR;2013-05-25 05:40;CYQR 250540Z 12012KT 15SM BKN006 09/ RMK SF6

CYQR;2013-05-25 06:00;CYQR 250600Z 12014KT 6SM BR OVC003 10/09 A3000 RMK SF8 SLP173

CYQR;2013-05-25 07:00;CYQR 250700Z 14014KT 3SM BR OVC002 10/10 A3000 RMK SF8 SLP173

CYQR;2013-05-25 08:00;CYQR 250800Z 13016KT 3SM BR OVC002 10/10 A2999 RMK SF8 SLP170

CYQR;2013-05-25 09:00;CYQR 250900Z 13017KT 8SM OVC005 10/10 A2999 RMK SC8 SLP170

CYQR;2013-05-25 10:00;CYQR 251000Z 14015KT 12SM OVC007 11/10 A3000 RMK SC8 SLP174

CYQR;2013-05-25 11:00;CYQR 251100Z 14011KT 4SM BR OVC006 10/09 A3001 RMK SC8 SLP176

CYQR;2013-05-25 12:00;CYQR 251200Z 15010KT 5SM BR OVC006 10/09 A3002 RMK SC8 SLP179

CYQR;2013-05-25 13:00;CYQR 251300Z 14010KT 5SM BR OVC006 10/09 A3004 RMK SC8 SLP184

CYQR;2013-05-25 14:00;CYQR 251400Z 14013KT 5SM BR OVC007 11/10 A3005 RMK SC8 SLP190

CYQR;2013-05-25 14:48;CYQR 251448Z 13012KT 10SM BKN010 13/ RMK SC4

CYQR;2013-05-25 15:00;CYQR 251500Z 13013KT 12SM BKN010 13/11 A3004 RMK SC4 SLP183

CYQR;2013-05-25 16:00;CYQR 251600Z 12012G20KT 15SM FEW016 BKN280 16/11 A3002 RMK SC1CI0 SLP177

CYQR;2013-05-25 17:00;CYQR 251700Z 13014G19KT 15SM FEW100 FEW150 SCT300 18/11 A3000 RMK AC2AC1CI0 SLP171

CYQR;2013-05-25 18:00;CYQR 251800Z 10012KT 15SM SCT066 BKN220 BKN300 18/11 A2999 RMK AC3CI2CI1 SLP166

CYQR;2013-05-25 19:00;CYQR 251900Z 12016G21KT 15SM FEW046 SCT066 BKN300 21/10 A2998 RMK CF1AC2CI0 SLP163

CYQR;2013-05-25 20:00;CYQR 252000Z 15021G27KT 15SM SCT040 BKN070 BKN300 20/12 A2998 RMK CU3ACC2CI1 SLP161

CYQR;2013-05-25 21:00;CYQR 252100Z 12015G20KT 15SM FEW035 FEW080 BKN300 21/10 A2996 RMK CU1ACC2CI0 SLP153

CYQR;2013-05-25 22:00;CYQR 252200Z 16018KT 15SM FEW048 BKN320 22/10 A2995 RMK CU1CI1 SLP149

CYQR;2013-05-25 23:00;CYQR 252300Z 13017G26KT 15SM FEW050 SCT090 BKN320 21/09 A2994 RMK CU1ACC2CI0 SLP147

CYQR;2013-05-26 00:00;CYQR 260000Z 14021G29KT 15SM FEW040 FEW090 SCT320 21/11 A2993 RMK CU2ACC1CI1 SLP143

CYQR;2013-05-26 01:00;CYQR 260100Z 13022G28KT 15SM SCT040 BKN320 18/11 A2992 RMK CU4CI0 SLP140

CYQR;2013-05-26 02:00;CYQR 260200Z 12015G22KT 15SM FEW035 BKN082 BKN300 17/11 A2993 RMK CU2AC5CI1 SLP143

CYQR;2013-05-26 02:45;CYQR 260245Z 13016G21KT 15SM TS FEW030CB BKN084 OVC300 17/ RMK CB2AC4CI2 LTGCC W-NW

CYQR;2013-05-26 03:00;CYQR 260300Z 12015G20KT 15SM TS SCT030CB BKN084 OVC300 16/11 A2997 RMK CB3AC4CI1 LTGCG SW SLP159

CYQR;2013-05-26 03:31;CYQR 260331Z 03008KT 15SM -TSRA BKN029CB OVC072 16/ RMK CB5AC3 PRESRR

CYQR;2013-05-26 04:00;CYQR 260400Z 05012KT 15SM -TSRA BKN023 OVC072 15/12 A3003 RMK SC6AC2 CB EMBD SW-NW OBS TAKEN -08 SLP178

CYQR;2013-05-26 04:31;CYQR 260431Z 08009KT 12SM SHRA OVC021 14/ RETS RMK SC8 CVCTV CLD EMBD LTG DIST SW

CYQR;2013-05-26 04:47;CYQR 260447Z 08011KT 15SM -SHRA OVC023 14/ RETSRA RMK SC8 CVCTV CLD EMBD LTG DIST S

CYQR;2013-05-26 05:00;CYQR 260500Z 09005KT 15SM -TSRA BKN021 OVC045 14/12 A3003 RERA RMK SC7SC1 CB EMBD S SLP178

CYQR;2013-05-26 05:23;CYQR 260523Z 09011KT 8SM -SHRA OVC019 13/ RETS RMK SC8 CVCTV CLD EMBD

CYQR;2013-05-26 06:00;CYQR 260600Z 09011KT 12SM BKN019 OVC071 13/12 A2999 RETS RMK SC7AC1 SLP162

CYQR;2013-05-26 07:00;CYQR 260700Z 11010KT 15SM BKN018 OVC080 13/12 A2997 RMK SC6AC2 SLP158

CYQR;2013-05-26 08:00;CYQR 260800Z 11012KT 15SM SCT022 BKN095 12/11 A2995 RMK SC2AC2 SLP149

CYQR;2013-05-26 09:00;CYQR 260900Z 13007KT 12SM SCT120 OVC260 12/11 A2995 RMK AC3CI3 SLP147

CYQR;2013-05-26 10:00;CYQR 261000Z 11005KT 12SM FEW120 BKN260 11/10 A2994 RMK AC2CI2 SLP145

CYQR;2013-05-26 11:00;CYQR 261100Z 12008KT 4SM BR FEW055 SCT120 OVC260 11/11 A2995 RMK SC1AC2CI1 SLP147

CYQR;2013-05-26 11:35;CYQR 261135Z 13009KT 4SM BR BKN009 OVC120 11/ RMK SF3AC5

CYQR;2013-05-26 11:41;CYQR 261141Z 13010KT 4SM BR OVC009 11/ RMK SF8

CYQR;2013-05-26 12:00;CYQR 261200Z 13010KT 4SM BR OVC008 12/11 A2996 RMK ST8 SLP154

CYQR;2013-05-26 12:26;CYQR 261226Z 14010G15KT 3SM BR OVC004 12/ RMK ST8

CYQR;2013-05-26 12:52;CYQR 261252Z 14010KT 4SM -RA BR OVC005 12/ RMK SF8

CYQR;2013-05-26 13:00;CYQR 261300Z 14009KT 3SM -RA BR OVC005 12/12 A2998 RMK SF8 SLP159

CYQR;2013-05-26 14:00;CYQR 261400Z 15007KT 5SM -RA BR OVC005 13/12 A2998 RMK SF8 SLP159

CYQR;2013-05-26 14:35;CYQR 261435Z 17008KT 6SM BR OVC007 13/ RMK SF8

CYQR;2013-05-26 15:00;CYQR 261500Z 16008KT 6SM BR OVC007 14/12 A2998 RMK SF8 SLP162

CYQR;2013-05-26 16:00;CYQR 261600Z 14010KT 6SM BR OVC008 15/13 A2997 RMK SF8 SLP159

CYQR;2013-05-26 17:00;CYQR 261700Z 16008KT 10SM OVC012 15/13 A2997 RMK SC8 SLP158

CYQR;2013-05-26 18:00;CYQR 261800Z 16005KT 12SM OVC015 16/12 A2996 RMK SC8 SLP154

CYQR;2013-05-26 19:00;CYQR 261900Z 12007KT 10SM OVC015 16/13 A2995 RMK SC8 SLP152

CYQR;2013-05-26 20:00;CYQR 262000Z 12009KT 15SM BKN019 OVC030 17/13 A2995 RMK SC6SC1 SLP150

CYQR;2013-05-26 21:00;CYQR 262100Z 12010KT 15SM OVC022 18/13 A2995 RMK SC7 SLP149

CYQR;2013-05-26 22:00;CYQR 262200Z 13012KT 15SM FEW026 SCT038 SCT300 19/13 A2994 RMK CU2SC1CI1 SLP147

CYQR;2013-05-26 23:00;CYQR 262300Z 12013KT 15SM FEW028 BKN300 19/13 A2993 RMK CU1CI0 SLP143

CYQR;2013-05-27 00:00;CYQR 270000Z 13012G19KT 15SM FEW033 FEW100 SCT300 19/12 A2991 RMK CU1ACC1CI0 SLP138

CYQR;2013-05-27 01:00;CYQR 270100Z 12011G16KT 15SM FEW028 SCT120 BKN300 17/12 A2992 RMK CU1AC3CI0 ACC ASOCTD SLP139

CYQR;2013-05-27 02:00;CYQR 270200Z 13013G18KT 15SM BKN021 BKN270 15/12 A2992 RMK SC3CI2 SLP140

CYQR;2013-05-27 03:00;CYQR 270300Z 14014KT 15SM BKN019 OVC270 15/11 A2993 RMK SC6CI2 SLP143

CYQR;2013-05-27 04:00;CYQR 270400Z 12012KT 15SM BKN019 OVC270 14/11 A2993 RMK SC6CI2 SLP144

CYQR;2013-05-27 05:00;CYQR 270500Z 11011KT 15SM FEW020 BKN140 OVC270 13/11 A2993 RMK SC2AC4CI2 SLP143

CYQR;2013-05-27 06:00;CYQR 270600Z 13010KT 15SM BKN014 OVC140 12/11 A2991 RMK SC6AC2 SLP136

CYQR;2013-05-27 07:00;CYQR 270700Z 12009KT 15SM OVC012 13/11 A2991 RMK SC8 SLP137

CYQR;2013-05-27 08:00;CYQR 270800Z 12008KT 15SM OVC012 12/11 A2989 RMK SC8 SLP132

CYQR;2013-05-27 09:00;CYQR 270900Z 12009KT 12SM OVC008 12/11 A2988 RMK SC8 SLP126

CYQR;2013-05-27 10:00;CYQR 271000Z 11008KT 10SM OVC007 12/11 A2985 RMK SC8 SLP116

CYQR;2013-05-27 11:00;CYQR 271100Z 10009KT 8SM OVC008 12/10 A2985 RMK SC8 SLP117

CYQR;2013-05-27 11:23;CYQR 271123Z 11008KT 4SM BR OVC007 12/ RMK SC8

CYQR;2013-05-27 11:37;CYQR 271137Z 11008KT 3SM BR OVC005 12/ RMK SF8

CYQR;2013-05-27 12:00;CYQR 271200Z 11006KT 2SM BR OVC004 12/11 A2986 RMK ST8 SLP119

CYQR;2013-05-27 12:18;CYQR 271218Z 10007KT 2SM -RA OVC003 12/ RMK ST8

CYQR;2013-05-27 12:48;CYQR 271248Z 10005KT 2 1/2SM -RA BR OVC004 12/ RMK ST8

CYQR;2013-05-27 13:00;CYQR 271300Z 09005KT 2 1/2SM -RA BR OVC004 12/11 A2986 RMK ST8 SLP119

CYQR;2013-05-27 13:25;CYQR 271325Z 08005KT 2 1/2SM -RA BR OVC005 12/ RMK ST8

CYQR;2013-05-27 13:41;CYQR 271341Z 07004KT 2 1/2SM -RA BR OVC004 12/ RMK ST8 CIG VRB 3-5

CYQR;2013-05-27 14:00;CYQR 271400Z 09005KT 3SM -RA BR OVC005 12/11 A2986 RMK SF8 SLP117

CYQR;2013-05-27 14:45;CYQR 271445Z 07004KT 3SM -RA BR OVC006 12/ RMK SF8

CYQR;2013-05-27 15:00;CYQR 271500Z 07007KT 3SM -RA BR OVC005 12/12 A2985 RMK SF8 SLP116

CYQR;2013-05-27 16:00;CYQR 271600Z 06008KT 4SM -RA BR OVC005 12/12 A2983 RMK SF8 SLP110

CYQR;2013-05-27 16:21;CYQR 271621Z 05009KT 5SM -RA BR BKN006 OVC019 13/ RMK SF6SC2

CYQR;2013-05-27 16:42;CYQR 271642Z 03008KT 6SM -RA BR SCT006 OVC019 13/ RMK SF4SC4

CYQR;2013-05-27 17:00;CYQR 271700Z 02008KT 6SM -RA BR FEW006 OVC022 13/12 A2981 RMK SF2SC6 SLP103

CYQR;2013-05-27 18:00;CYQR 271800Z 05013KT 15SM FEW006 BKN066 BKN090 BKN300 15/14 A2978 RMK SF2AC3AC2CI1 SLP094

CYQR;2013-05-27 19:00;CYQR 271900Z 06010G15KT 15SM FEW015 BKN080 BKN300 17/14 A2977 RMK SC2AC4CI1 SLP092

CYQR;2013-05-27 20:00;CYQR 272000Z 09008KT 15SM BKN017TCU OVC059 16/13 A2977 RMK TCU6SC2 SLP092

CYQR;2013-05-27 21:00;CYQR 272100Z 10010KT 15SM VCSH BKN019 BKN060 16/12 A2976 RMK CU6SC1 TCU ASOCTD SLP086

CYQR;2013-05-27 22:00;CYQR 272200Z 10009KT 15SM BKN022 BKN060 BKN300 16/12 A2976 RMK CU5SC2CI0 TCU ASOCTD SLP084

CYQR;2013-05-27 23:00;CYQR 272300Z 09004KT 15SM BKN025 BKN090 16/12 A2974 RMK CU6AC1 TCU ASOCTD SLP080

CYQR;2013-05-28 00:00;CYQR 280000Z 08010KT 15SM BKN023 BKN090 16/11 A2972 RMK CU6AC1 TCU ASOCTD SLP073

CYQR;2013-05-28 01:00;CYQR 280100Z 08010KT 15SM BKN037 BKN052 OVC300 16/12 A2972 RMK CU6SC2CI0 SH DIST S SLP072

CYQR;2013-05-28 02:00;CYQR 280200Z 06007KT 15SM FEW030 SCT060 OVC280 15/11 A2971 RMK SC1SC2CI6 SLP069

CYQR;2013-05-28 03:00;CYQR 280300Z 05006KT 15SM FEW025 BKN066 OVC280 14/11 A2971 RMK SC1AC3CI2 SLP072

CYQR;2013-05-28 04:00;CYQR 280400Z 03007KT 15SM BKN017 BKN068 14/12 A2970 RMK SC3AC3 OBS TAKEN -08 SLP068

CYQR;2013-05-28 05:00;CYQR 280500Z 03007KT 15SM SCT015 OVC065 14/12 A2970 RMK SC4SC4 SLP068

CYQR;2013-05-28 05:37;CYQR 280537Z 03007KT 15SM BKN010 OVC045 14/ RMK SC6SC2

CYQR;2013-05-28 06:00;CYQR 280600Z 03007KT 15SM BKN010 OVC045 13/12 A2970 RMK SC6SC2 SLP065

CYQR;2013-05-28 07:00;CYQR 280700Z 03005KT 15SM OVC010 13/12 A2968 RMK SC8 SLP059

CYQR;2013-05-28 08:00;CYQR 280800Z 02007KT 15SM OVC012 13/12 A2966 RMK SC8 SLP053

CYQR;2013-05-28 09:00;CYQR 280900Z 04008KT 15SM OVC008 13/11 A2966 RMK SC8 SLP050

CYQR;2013-05-28 09:13;CYQR 280913Z 05008KT 10SM -DZ OVC006 13/ RMK SF8

CYQR;2013-05-28 09:26;CYQR 280926Z 04007KT 10SM -DZ OVC005 12/ RMK SF8

CYQR;2013-05-28 10:00;CYQR 281000Z 01006KT 15SM -DZ BKN014 12/12 A2965 RMK SC6 CIG RAG SLP048

CYQR;2013-05-28 10:33;CYQR 281033Z 35005KT 15SM OVC008 12/ RMK SC6

CYQR;2013-05-28 11:00;CYQR 281100Z 36005KT 12SM BKN005 OVC018 12/12 A2965 RMK SC6SC2 SLP047

CYQR;2013-05-28 12:00;CYQR 281200Z 01009KT 5SM BR OVC005 12/11 A2964 RMK SC8 SLP045

CYQR;2013-05-28 12:14;CYQR 281214Z 01007KT 6SM -DZ BR OVC005 12/ RMK SC8

CYQR;2013-05-28 12:33;CYQR 281233Z 01010KT 3SM -DZ BR BKN004 OVC018 12/ RMK SF6SC2

CYQR;2013-05-28 12:47;CYQR 281247Z 02008KT 4SM -DZ BR BKN006 OVC018 12/ RMK SF6SC2

CYQR;2013-05-28 13:00;CYQR 281300Z 01008KT 8SM -DZ BKN005 OVC016 12/12 A2964 RMK SF6SC2 SLP045

CYQR;2013-05-28 13:42;CYQR 281342Z 03009KT 12SM SCT007 OVC018 12/ RMK SF4SC4 VIS SE 3 -DZ

CYQR;2013-05-28 14:00;CYQR 281400Z 03009KT 12SM BKN006 OVC023 13/12 A2963 RMK SF5SC3 SLP043

CYQR;2013-05-28 14:34;CYQR 281434Z 02010KT 15SM BKN008 OVC033 13/ RMK SF6SC2

CYQR;2013-05-28 15:00;CYQR 281500Z 03009KT 15SM OVC008 OVC033 13/12 A2964 RMK SF7SC1 SLP044

CYQR;2013-05-28 15:40;CYQR 281540Z 01009KT 8SM -DZ BKN008 OVC035 14/ RMK SF6SC2

CYQR;2013-05-28 16:00;CYQR 281600Z 01011KT 8SM -RA BKN008 OVC035 14/12 A2964 RMK SF7SC1 SLP044

CYQR;2013-05-28 16:44;CYQR 281644Z 02010KT 15SM -RA BKN011 OVC031 15/ RMK SC5SC3

CYQR;2013-05-28 17:00;CYQR 281700Z 02007KT 12SM -RA SCT013 OVC021 15/13 A2964 RMK SC4SC4 SLP046

CYQR;2013-05-28 17:23;CYQR 281723Z 35009KT 12SM -RA BKN012 OVC066 14/ RMK SC6AC2 CVCTV CLD EMBD

CYQR;2013-05-28 17:50;CYQR 281750Z 01009KT 15SM BKN020 OVC066 16/ RMK SC6AC2

CYQR;2013-05-28 18:00;CYQR 281800Z 02010KT 15SM BKN025 OVC066 16/13 A2964 RMK SC6AC2 SLP044

CYQR;2013-05-28 19:00;CYQR 281900Z 36011G16KT 15SM BKN023 BKN092 OVC330 18/12 A2963 RMK CU5AC2CI0 SLP041

CYQR;2013-05-28 20:00;CYQR 282000Z 02010G15KT 15SM SCT034 OVC330 20/12 A2962 RMK CU4CI2 TCU ASOCTD SLP037

CYQR;2013-05-28 21:00;CYQR 282100Z 03009KT 15SM BKN040 BKN300 21/11 A2961 RMK CU6CI2 TCU ASOCTD SLP032

CYQR;2013-05-28 22:00;CYQR 282200Z CCA 34013KT 15SM BKN049 BKN120 BKN300 19/11 A2962 RMK CU6AC1CI0 TCU ASOCTD SLP035

CYQR;2013-05-28 23:00;CYQR 282300Z 04006KT 15SM -SHRA SCT046 BKN088 BKN300 20/11 A2963 RMK CU3AC2CI1 TCU EMBD SLP036

CYQR;2013-05-28 23:21;CYQR 282321Z 05006KT 15SM FEW046 FEW081 SCT120 BKN300 21/ RMK CU1AC2AC1CI1

CYQR;2013-05-29 00:00;CYQR 290000Z 06007KT 15SM FEW050 FEW081 FEW120 SCT300 21/12 A2962 RMK CU1AC1AC1CI1 SLP037

CYQR;2013-05-29 01:00;CYQR 290100Z 05009KT 15SM FEW050 FEW090 FEW300 19/11 A2964 RMK CU1AC1CI1 SLP041

CYQR;2013-05-29 02:00;CYQR 290200Z 05006KT 15SM FEW030 FEW300 18/11 A2965 RMK CU1CI1 TR CU SLP044

CYQR;2013-05-29 03:00;CYQR 290300Z 05004KT 15SM FEW090 FEW300 15/10 A2966 RMK AC1CI1 SLP052

CYQR;2013-05-29 04:00;CYQR 290400Z 12003KT 15SM FEW090 FEW300 14/10 A2968 RMK AC1CI0 SLP059

CYQR;2013-05-29 05:00;CYQR 290500Z 11002KT 15SM SKC 12/10 A2968 RMK SLP057

CYQR;2013-05-29 06:00;CYQR 290600Z 16003KT 15SM SKC 11/10 A2969 RMK SLP062

CYQR;2013-05-29 07:00;CYQR 290700Z 18004KT 15SM FEW300 11/10 A2971 RMK CI0 SLP068

CYQR;2013-05-29 08:00;CYQR 290800Z 08003KT 15SM FEW300 10/09 A2970 RMK CI0 SLP067

CYQR;2013-05-29 09:00;CYQR 290900Z 14003KT 15SM R13/3000V6000FT/N FEW090 FEW300 09/08 A2971 RMK AC0CI0 SLP069

CYQR;2013-05-29 10:00;CYQR 291000Z 10002KT 6SM BR FEW090 SCT300 08/08 A2971 RMK AC1CI1 SLP066

CYQR;2013-05-29 10:08;CYQR 291008Z 00000KT 2SM BR FEW090 SCT300 08/ RMK AC1CI1

CYQR;2013-05-29 10:14;CYQR 291014Z 12002KT 1SM R13/3500VP6000FT/D BR FEW090 BKN300 09/ RMK FG1AC1CI1

CYQR;2013-05-29 10:18;CYQR 291018Z 00000KT 3/8SM R13/2800FT/N FG BKN300 08/ RMK FG2CI1

CYQR;2013-05-29 10:36;CYQR 291036Z 07005KT 3/4SM R13/1400V2200FT/N BR BKN300 07/ RMK FG1CI1

CYQR;2013-05-29 10:46;CYQR 291046Z 09004KT 2SM R13/2800V5500FT/N BR SCT300 07/ RMK CI1 VIS LWR S-NW

CYQR;2013-05-29 11:00;CYQR 291100Z 08004KT 3/8SM R13/2400VP6000FT/N FG SCT300 07/07 A2969 RMK FG1CI1 SLP062

CYQR;2013-05-29 11:12;CYQR 291112Z 06003KT 3/4SM R13/1100V2000FT/N BR SCT300 08/ RMK FG1CI1

CYQR;2013-05-29 11:23;CYQR 291123Z 13003KT 1/2SM R13/0900V1400FT/N FG SCT300 07/ RMK FG1CI1

CYQR;2013-05-29 11:29;CYQR 291129Z 13005KT 1SM R13/3000VP6000FT/N BR SCT300 08/ RMK FG1CI1

CYQR;2013-05-29 11:41;CYQR 291141Z 15003KT 3SM R13/2600V5000FT/N BR FEW300 08/ RMK CI1 VIS LWR NW

CYQR;2013-05-29 12:00;CYQR 291200Z 13004KT 3SM BR FEW300 09/09 A2972 RMK CI1 SLP072

CYQR;2013-05-29 13:00;CYQR 291300Z 15003KT 12SM FEW300 11/11 A2973 RMK CI1 SLP074

CYQR;2013-05-29 13:15;CYQR 291315Z 18005KT 12SM FEW004 FEW300 12/ RMK SF1CI1

CYQR;2013-05-29 14:00;CYQR 291400Z 13002KT 12SM FEW002 FEW300 14/12 A2972 RMK SF1CI1 SLP073

CYQR;2013-05-29 15:00;CYQR 291500Z 12004KT 15SM FEW002 FEW020 FEW300 17/12 A2972 RMK SF1CF1CI0 SLP070

CYQR;2013-05-29 16:00;CYQR 291600Z 07007KT 15SM SCT026 SCT300 19/12 A2972 RMK CU3CI1 SLP070

CYQR;2013-05-29 17:00;CYQR 291700Z 07011G16KT 15SM FEW034 SCT300 20/11 A2972 RMK CU2CI0 SLP071

CYQR;2013-05-29 18:00;CYQR 291800Z 10012G17KT 15SM FEW039 BKN300 20/11 A2973 RMK CU1CI1 SLP075

CYQR;2013-05-29 19:00;CYQR 291900Z 10012KT 15SM FEW041 BKN300 20/11 A2973 RMK CU1CI1 SLP075

CYQR;2013-05-29 20:00;CYQR 292000Z 10011G16KT 15SM FEW041 BKN300 20/10 A2972 RMK CU2CI2 SLP071

CYQR;2013-05-29 21:00;CYQR 292100Z 08013KT 15SM FEW041 BKN300 20/11 A2972 RMK CU1CI5 SLP071

CYQR;2013-05-29 22:00;CYQR 292200Z 07015G20KT 15SM FEW040 BKN300 20/11 A2971 RMK CU1CI3 SLP067

CYQR;2013-05-29 23:00;CYQR 292300Z 10014G21KT 15SM FEW045 BKN300 19/10 A2972 RMK CU2CI5 SLP071

CYQR;2013-05-30 00:00;CYQR 300000Z 11014KT 15SM FEW045 BKN300 20/10 A2971 RMK CU1CI5 SLP069

CYQR;2013-05-30 01:00;CYQR 300100Z 12015KT 15SM FEW045 BKN300 19/10 A2972 RMK SC1CI6 SLP071

CYQR;2013-05-30 02:00;CYQR 300200Z 10014KT 15SM FEW040 BKN300 17/10 A2973 RMK SC1CI2 CU ASOCTD SLP074

CYQR;2013-05-30 03:00;CYQR 300300Z 09012KT 15SM FEW030 FEW300 16/10 A2972 RMK SC1CI0 SLP071

CYQR;2013-05-30 04:00;CYQR 300400Z 10007KT 15SM FEW030 14/10 A2975 RMK SC1 SLP078

CYQR;2013-05-30 05:00;CYQR 300500Z 09010KT 15SM FEW030 13/10 A2975 RMK SC1 SLP079

CYQR;2013-05-30 06:00;CYQR 300600Z 09010G15KT 15SM SKC 13/09 A2975 RMK SLP078

CYQR;2013-05-30 07:00;CYQR 300700Z 09010KT 15SM SKC 12/09 A2974 RMK SLP075

CYQR;2013-05-30 08:00;CYQR 300800Z 07008KT 15SM FEW280 11/09 A2975 RMK CI0 SLP079

CYQR;2013-05-30 09:00;CYQR 300900Z 08011KT 15SM FEW280 11/09 A2974 RMK CI1 SLP079

CYQR;2013-05-30 10:00;CYQR 301000Z 07012KT 15SM BKN280 10/09 A2972 RMK CI0 SLP072

CYQR;2013-05-30 11:00;CYQR 301100Z 08013KT 15SM SCT008 BKN280 09/08 A2973 RMK SF2CI0 CLD INVDG FM E SLP074

CYQR;2013-05-30 11:10;CYQR 301110Z 08021KT 15SM BKN008 BKN280 09/ RMK SC6CI1 CC ASOCTD

CYQR;2013-05-30 12:00;CYQR 301200Z 09018KT 15SM OVC010 10/08 A2974 RMK SC8 SLP078

CYQR;2013-05-30 13:00;CYQR 301300Z 09016KT 15SM OVC014 10/08 A2974 RMK SC8 SLP079

CYQR;2013-05-30 14:00;CYQR 301400Z 08018G25KT 15SM OVC012 10/08 A2974 RMK SC8 SLP077

CYQR;2013-05-30 15:00;CYQR 301500Z 08016G24KT 12SM -DZ OVC010 11/09 A2974 RMK SC8 SLP080

CYQR;2013-05-30 15:32;CYQR 301532Z 09015G22KT 15SM OVC014 11/ RMK SC8

CYQR;2013-05-30 16:00;CYQR 301600Z 07013G19KT 15SM OVC014 11/09 A2974 RMK SC8 SLP079

CYQR;2013-05-30 16:51;CYQR 301651Z 07014G20KT 15SM BKN017 OVC030 13/ RMK SC7SC1

CYQR;2013-05-30 17:00;CYQR 301700Z 07012G17KT 15SM OVC019 13/09 A2972 RMK SC8 SLP074

CYQR;2013-05-30 18:00;CYQR 301800Z 06019G24KT 15SM OVC019 14/09 A2972 RMK SC8 SLP073

CYQR;2013-05-30 19:00;CYQR 301900Z 08016G22KT 15SM OVC021 15/10 A2971 RMK SC8 SLP070

CYQR;2013-05-30 20:00;CYQR 302000Z 06015G20KT 15SM OVC028 16/10 A2970 RMK SC8 SLP068

CYQR;2013-05-30 21:00;CYQR 302100Z 05017G22KT 15SM OVC028 17/10 A2970 RMK SC8 SLP067

CYQR;2013-05-30 22:00;CYQR 302200Z 05023G29KT 15SM BKN030 OVC088 17/10 A2970 RMK SC7AC1 SLP065

CYQR;2013-05-30 23:00;CYQR 302300Z 06017G25KT 15SM FEW030 OVC100 16/10 A2968 RMK SC2AC6 SLP061

CYQR;2013-05-31 00:00;CYQR 310000Z 05019G27KT 15SM FEW030 OVC096 16/09 A2968 RMK SC2AC6 SLP060

CYQR;2013-05-31 01:00;CYQR 310100Z 05016G26KT 15SM SCT040 OVC096 15/09 A2968 RMK SC4AC4 SLP061

CYQR;2013-05-31 01:13;CYQR 310113Z 06021G26KT 15SM -RA BKN051 OVC100 14/ RMK SC7AC1

CYQR;2013-05-31 02:00;CYQR 310200Z 04017G29KT 15SM -RA SCT026 BKN070 OVC100 13/09 A2969 RMK SC3AC2AC2 SLP062

CYQR;2013-05-31 03:00;CYQR 310300Z 05020G25KT 10SM -RA BKN035 OVC070 12/09 A2970 RMK SC6AC2 SLP068

CYQR;2013-05-31 04:00;CYQR 310400Z 04019G26KT 12SM -RA BKN015 OVC070 11/09 A2971 RMK SC7AC1 SLP071

CYQR;2013-05-31 05:00;CYQR 310500Z 05020G28KT 12SM -RA FEW020 OVC062 11/08 A2971 RMK SC1SC7 SLP071

CYQR;2013-05-31 06:00;CYQR 310600Z 05018G24KT 15SM -RA BKN042 OVC070 11/07 A2970 RMK SC6AC2 -RA INTMT SLP069

CYQR;2013-05-31 07:00;CYQR 310700Z 05019G25KT 15SM -RA BKN041 OVC058 11/07 A2970 RMK SC6SC2 SLP069

CYQR;2013-05-31 07:33;CYQR 310733Z 06021G28KT 15SM BKN024 OVC056 12/ RMK SC6SC2

CYQR;2013-05-31 08:00;CYQR 310800Z 05021G30KT 15SM BKN040 OVC060 11/06 A2970 RMK SC6SC2 SLP068

CYQR;2013-05-31 09:00;CYQR 310900Z 05017G25KT 15SM BKN043 OVC060 11/06 A2969 RMK SC5SC3 INTMT -RA SLP063

CYQR;2013-05-31 10:00;CYQR 311000Z 05019G26KT 15SM BKN043 BKN083 11/06 A2970 RMK SC5AC2 SLP065

CYQR;2013-05-31 11:00;CYQR 311100Z 05024KT 15SM BKN049 OVC083 11/05 A2971 RMK SC6AC2 SLP068

CYQR;2013-05-31 12:00;CYQR 311200Z 05023G28KT 15SM BKN049 BKN083 10/05 A2972 RMK SC6AC2 SLP075

CYQR;2013-05-31 13:00;CYQR 311300Z 05024G33KT 15SM FEW068 BKN092 10/05 A2974 RMK SC2AC5 SLP079

CYQR;2013-05-31 14:00;CYQR 311400Z 05025G33KT 15SM FEW068 SCT130 OVC320 11/04 A2976 RMK AC2AS2CI3 SLP087

CYQR;2013-05-31 15:00;CYQR 311500Z 05026G32KT 15SM FEW070 FEW130 BKN220 OVC320 13/04 A2978 RMK AC1AS1CI3CI2 SLP096

CYQR;2013-05-31 16:00;CYQR 311600Z 06025G34KT 15SM FEW070 SCT140 OVC250 15/02 A2980 RMK AC1AC2CI3 SLP101

CYQR;2013-05-31 17:00;CYQR 311700Z 05026G37KT 15SM FEW140 SCT230 BKN300 17/04 A2982 RMK AC1CI2CI1 SLP107

CYQR;2013-05-31 18:00;CYQR 311800Z 04024G38KT 15SM FEW140 BKN230 BKN300 18/03 A2984 RMK AC1CI5CI0 SLP114

CYQR;2013-05-31 19:00;CYQR 311900Z 05031G40KT 15SM FEW080 BKN230 BKN300 17/03 A2986 RMK AC1CI4CI0 SLP120

CYQR;2013-05-31 20:00;CYQR 312000Z 04026G38KT 15SM FEW075 BKN230 BKN300 17/04 A2988 RMK AC1CI5CI0 SLP127

CYQR;2013-05-31 21:00;CYQR 312100Z 05021G29KT 15SM BKN180 BKN300 17/04 A2990 RMK AC6CI1 SLP135

CYQR;2013-05-31 22:00;CYQR 312200Z 05022G32KT 15SM BKN180 BKN300 18/04 A2991 RMK AC5CI2 SLP138

CYQR;2013-05-31 23:00;CYQR 312300Z 04015G27KT 15SM BKN200 18/05 A2993 RMK CI6 SLP143

CYQR;2013-06-01 00:00;CYQR 010000Z 03014G24KT 15SM BKN200 18/05 A2995 RMK CI4 SLP151

CYQR;2013-06-01 01:00;CYQR 010100Z 05019G28KT 15SM OVC200 18/04 A2996 RMK CI5 SLP156

CYQR;2013-06-01 02:00;CYQR 010200Z 05017G24KT 15SM OVC200 17/04 A2999 RMK CI5 SLP164

CYQR;2013-06-01 03:00;CYQR 010300Z 05013KT 15SM BKN230 15/04 A3002 RMK CI2 SLP175

CYQR;2013-06-01 04:00;CYQR 010400Z 04010KT 15SM BKN230 13/05 A3005 RMK CI2 SLP184

CYQR;2013-06-01 05:00;CYQR 010500Z 03006KT 15SM FEW230 10/04 A3007 RMK CI0 AURORA SLP192

CYQR;2013-06-01 06:00;CYQR 010600Z 04007KT 15SM SKC 09/04 A3009 RMK AURORA SLP200

CYQR;2013-06-01 07:00;CYQR 010700Z 07004KT 15SM SKC 08/04 A3011 RMK AURORA SLP208

CYQR;2013-06-01 08:00;CYQR 010800Z 00000KT 15SM SKC 07/04 A3013 RMK AURORA SLP214

CYQR;2013-06-01 09:00;CYQR 010900Z 35004KT 15SM FEW230 04/02 A3014 RMK CI0 AURORA SLP222

CYQR;2013-06-01 10:00;CYQR 011000Z 02002KT 15SM BKN230 05/02 A3015 RMK CI0 SLP225

CYQR;2013-06-01 11:00;CYQR 011100Z 34003KT 15SM FEW120 BKN230 04/02 A3016 RMK AC1CI1 SLP227

CYQR;2013-06-01 12:00;CYQR 011200Z 36004KT 15SM FEW120 BKN170 BKN260 05/03 A3017 RMK AC1AC0CI1 SLP230

CYQR;2013-06-01 13:00;CYQR 011300Z 00000KT 15SM BKN300 10/05 A3018 RMK CI2 SLP234

CYQR;2013-06-01 14:00;CYQR 011400Z 00000KT 15SM SCT300 12/06 A3018 RMK CI1 SLP234

CYQR;2013-06-01 15:00;CYQR 011500Z 04007KT 15SM BKN300 14/04 A3018 RMK CI2 CONTRAILS SLP229

CYQR;2013-06-01 16:00;CYQR 011600Z 10006KT 15SM FEW048 BKN300 15/03 A3017 RMK CF1CI1 CONTRAILS SLP228

CYQR;2013-06-01 17:00;CYQR 011700Z 12005KT 15SM FEW052 OVC260 16/03 A3016 RMK CF1CI2 SLP225

CYQR;2013-06-01 18:00;CYQR 011800Z 12006KT 15SM FEW052 OVC260 17/04 A3016 RMK CF1CI5 CONTRAILS SLP225

CYQR;2013-06-01 19:00;CYQR 011900Z 36004KT 15SM OVC260 17/02 A3015 RMK CI4 SLP220

CYQR;2013-06-01 20:00;CYQR 012000Z 32006KT 15SM OVC260 18/03 A3014 RMK CI5 CONTRAILS SLP218

CYQR;2013-06-01 21:00;CYQR 012100Z 34003KT 15SM FEW060 OVC260 19/03 A3012 RMK CF1CI6 CONTRAILS SLP215

CYQR;2013-06-01 22:00;CYQR 012200Z 02004KT 15SM FEW060 OVC260 19/04 A3011 RMK SC1CI7 SLP212

CYQR;2013-06-01 23:00;CYQR 012300Z 01004KT 15SM FEW060 OVC260 19/04 A3010 RMK SC1CI8 SLP209

CYQR;2013-06-02 00:00;CYQR 020000Z 00000KT 15SM FEW060 OVC260 19/02 A3010 RMK SC1CI6 SLP204

CYQR;2013-06-02 01:00;CYQR 020100Z 13002KT 15SM FEW060 OVC260 18/04 A3009 RMK SC1CI6 CONTRAILS SLP201

CYQR;2013-06-02 02:00;CYQR 020200Z 13004KT 15SM FEW070 BKN260 17/05 A3008 RMK AC1CI5 CONTRAILS SLP200

CYQR;2013-06-02 03:00;CYQR 020300Z 13005KT 15SM FEW069 BKN280 14/04 A3009 RMK AC1CI1 SLP199

CYQR;2013-06-02 04:00;CYQR 020400Z 11005KT 15SM FEW070 SCT280 12/03 A3010 RMK AC1CI0 SLP201

CYQR;2013-06-02 05:00;CYQR 020500Z 12006KT 15SM FEW280 10/03 A3010 RMK CI0 SLP202

CYQR;2013-06-02 06:00;CYQR 020600Z 11009KT 15SM FEW280 09/04 A3010 RMK CI0 SLP203

CYQR;2013-06-02 07:00;CYQR 020700Z 13009KT 15SM SKC 09/04 A3010 RMK SLP203

CYQR;2013-06-02 08:00;CYQR 020800Z 12008KT 15SM SKC 07/04 A3009 RMK SLP201

CYQR;2013-06-02 09:00;CYQR 020900Z 13009KT 15SM FEW230 07/04 A3008 RMK CI1 SLP199

CYQR;2013-06-02 10:00;CYQR 021000Z 12010KT 15SM FEW250 07/04 A3008 RMK CI0 SLP199

CYQR;2013-06-02 11:00;CYQR 021100Z 14010KT 15SM BKN250 07/03 A3008 RMK CI1 SLP199

CYQR;2013-06-02 12:00;CYQR 021200Z 14012KT 15SM BKN250 07/04 A3008 RMK CI1 SLP197

CYQR;2013-06-02 13:00;CYQR 021300Z 13010G15KT 15SM BKN280 09/05 A3008 RMK CI4 SLP196

CYQR;2013-06-02 14:00;CYQR 021400Z 14014KT 15SM FEW120 BKN280 10/05 A3008 RMK AC1CI2 SLP196

CYQR;2013-06-02 15:00;CYQR 021500Z 14011G16KT 15SM FEW120 BKN280 12/06 A3007 RMK AC1CI6 SLP194

CYQR;2013-06-02 16:00;CYQR 021600Z 13013KT 15SM FEW090 BKN280 15/07 A3006 RMK AC1CS6 HALO SLP192

CYQR;2013-06-02 17:00;CYQR 021700Z 16011KT 15SM FEW048 FEW090 OVC280 17/05 A3005 RMK CU1AC1CI6 CS ASOCTD SLP187

CYQR;2013-06-02 18:00;CYQR 021800Z 16013KT 15SM FEW056 FEW110 OVC280 18/05 A3004 RMK CU1AC1CS4 SLP184

CYQR;2013-06-02 19:00;CYQR 021900Z 16007G18KT 15SM FEW059 BKN280 19/05 A3003 RMK CU2CI3 SLP180

CYQR;2013-06-02 20:00;CYQR 022000Z 14008G16KT 15SM FEW061 OVC280 19/05 A3002 RMK CU2CS2 SLP177

CYQR;2013-06-02 21:00;CYQR 022100Z 13012KT 15SM FEW064 OVC280 20/04 A3000 RMK CU1CI2 SLP171

CYQR;2013-06-02 22:00;CYQR 022200Z 13011KT 15SM FEW060 BKN280 18/03 A2999 RMK CU1CI1 SLP166

CYQR;2013-06-02 23:00;CYQR 022300Z 12011KT 15SM FEW064 BKN280 19/03 A2998 RMK CU1CI2 SLP164

CYQR;2013-06-03 00:00;CYQR 030000Z 12015G20KT 15SM FEW065 BKN280 18/03 A2997 RMK CU1CI6 SLP160

CYQR;2013-06-03 01:00;CYQR 030100Z 12013G19KT 15SM FEW065 BKN250 18/03 A2997 RMK CU1CI5 SLP161

CYQR;2013-06-03 02:00;CYQR 030200Z 10012G17KT 15SM FEW065 BKN280 16/01 A2997 RMK SC1CI3 SLP161

CYQR;2013-06-03 03:00;CYQR 030300Z 10010KT 15SM FEW100 FEW280 14/01 A2998 RMK AC1CI0 SLP163

CYQR;2013-06-03 04:00;CYQR 030400Z 10011KT 15SM FEW100 SCT280 12/01 A3000 RMK AC1CI0 SLP168

CYQR;2013-06-03 05:00;CYQR 030500Z 11014KT 15SM FEW100 SCT280 12/02 A2999 RMK AC2CI0 SLP167

CYQR;2013-06-03 06:00;CYQR 030600Z 12013KT 15SM FEW100 BKN280 10/01 A3001 RMK AC1CI2 SLP172

CYQR;2013-06-03 07:00;CYQR 030700Z 11011KT 15SM FEW100 BKN280 09/01 A2999 RMK AC1CI2 SLP166

CYQR;2013-06-03 08:00;CYQR 030800Z 12013KT 15SM OVC280 09/01 A3000 RMK CI5 SLP167

CYQR;2013-06-03 09:00;CYQR 030900Z 11012KT 15SM OVC280 09/01 A2999 RMK CI6 SLP164

CYQR;2013-06-03 10:00;CYQR 031000Z 11014G19KT 15SM BKN220 08/02 A2998 RMK CI6 SLP162

CYQR;2013-06-03 11:00;CYQR 031100Z 11014G19KT 15SM BKN220 08/02 A2997 RMK CI6 SLP159

CYQR;2013-06-03 12:00;CYQR 031200Z 11013KT 15SM OVC220 09/01 A2997 RMK CI7 SLP159

CYQR;2013-06-03 13:00;CYQR 031300Z 10014KT 15SM SCT090 OVC220 10/01 A2996 RMK AC3CI4 SLP157

CYQR;2013-06-03 14:00;CYQR 031400Z 11013G19KT 15SM SCT090 BKN220 11/02 A2996 RMK AC4CI3 SLP157

CYQR;2013-06-03 15:00;CYQR 031500Z 10015G21KT 15SM SCT097 BKN220 13/03 A2998 RMK AC3CI4 SLP161

CYQR;2013-06-03 16:00;CYQR 031600Z 12018G25KT 15SM FEW100 BKN220 13/02 A2998 RMK AC2CI5 SLP162

CYQR;2013-06-03 17:00;CYQR 031700Z 12021G29KT 15SM FEW050 FEW100 BKN220 14/01 A2998 RMK CF1AC1CI6 SLP161

CYQR;2013-06-03 18:00;CYQR 031800Z 11022G27KT 15SM FEW100 BKN220 15/M01 A2996 RMK AC2CI6 SLP157

CYQR;2013-06-03 19:00;CYQR 031900Z 10023G28KT 15SM FEW060 FEW100 BKN220 16/M00 A2996 RMK SC1AC2CI6 SLP156

CYQR;2013-06-03 20:00;CYQR 032000Z 11020G27KT 15SM SCT100 BKN220 16/M01 A2998 RMK AC3CI4 SLP163

CYQR;2013-06-03 21:00;CYQR 032100Z 11015G28KT 15SM FEW060 FEW100 BKN220 17/M01 A2998 RMK SC1AC2CI5 SLP164

CYQR;2013-06-03 22:00;CYQR 032200Z 11016G22KT 15SM FEW060 FEW100 OVC220 16/M03 A3000 RMK SC1AC2CI5 SLP169

CYQR;2013-06-03 23:00;CYQR 032300Z 18016G25KT 15SM FEW060 FEW100 OVC200 13/02 A3004 RMK SC1AC2CI5 SLP182

CYQR;2013-06-04 00:00;CYQR 040000Z 18012G20KT 15SM FEW060 FEW100 OVC200 12/02 A3006 RMK SC1AC2CI5 SLP195

CYQR;2013-06-04 01:00;CYQR 040100Z 17013KT 15SM FEW060 SCT100 OVC200 11/02 A3007 RMK SC1AC4CI4 SLP197

CYQR;2013-06-04 02:00;CYQR 040200Z 18012KT 15SM FEW060 BKN100 OVC200 11/03 A3009 RMK SC1AC4CI3 CVCTV CLD EMBD SLP202

CYQR;2013-06-04 03:00;CYQR 040300Z 15006KT 15SM BKN160 BKN220 10/04 A3009 RMK AC5CI2 SLP203

CYQR;2013-06-04 04:00;CYQR 040400Z 10002KT 15SM SCT100 OVC220 09/04 A3010 RMK AC4CI3 SLP205

CYQR;2013-06-04 05:00;CYQR 040500Z 09003KT 15SM SCT100 OVC220 09/04 A3011 RMK AC3CI4 SLP209

CYQR;2013-06-04 06:00;CYQR 040600Z 01007KT 15SM BKN095 OVC220 09/04 A3011 RMK AC6CI2 SLP209

CYQR;2013-06-04 07:00;CYQR 040700Z 01008KT 15SM BKN093 OVC220 09/04 A3010 RMK AC6CI2 SLP208

CYQR;2013-06-04 08:00;CYQR 040800Z 02007KT 15SM SCT100 OVC220 09/03 A3010 RMK AC4CI3 SLP208

CYQR;2013-06-04 09:00;CYQR 040900Z 01010KT 15SM FEW100 OVC220 08/03 A3011 RMK AC2CI3 SLP208

CYQR;2013-06-04 10:00;CYQR 041000Z 01010KT 15SM FEW120 SCT250 07/02 A3011 RMK AC2CI0 SLP208

CYQR;2013-06-04 11:00;CYQR 041100Z 02007KT 15SM FEW120 SCT250 05/02 A3011 RMK AC2CI0 SLP210

CYQR;2013-06-04 12:00;CYQR 041200Z 02007KT 15SM FEW120 BKN250 06/02 A3012 RMK AC2CI1 SLP218

CYQR;2013-06-04 13:00;CYQR 041300Z 02011KT 15SM FEW120 BKN280 10/03 A3014 RMK AC1CI1 SLP222

CYQR;2013-06-04 14:00;CYQR 041400Z 03007KT 15SM FEW120 BKN280 13/04 A3014 RMK AC1CI2 SLP224

CYQR;2013-06-04 15:00;CYQR 041500Z 08013KT 15SM FEW120 BKN280 15/M00 A3015 RMK AC1CI2 SLP221

CYQR;2013-06-04 16:00;CYQR 041600Z 08010KT 15SM FEW065 FEW120 BKN280 17/M00 A3015 RMK CF1AC1CI2 SLP221

CYQR;2013-06-04 17:00;CYQR 041700Z 09009KT 15SM FEW065 FEW120 SCT280 18/00 A3015 RMK CU1AC1CI2 SLP222

CYQR;2013-06-04 18:00;CYQR 041800Z 07007KT 15SM FEW065 FEW120 SCT250 18/M00 A3015 RMK CU1AC1CI1 SLP221

CYQR;2013-06-04 19:00;CYQR 041900Z 08009KT 15SM FEW065 FEW120 FEW280 19/M00 A3014 RMK CU1AC1CI1 SLP219

CYQR;2013-06-04 20:00;CYQR 042000Z 06006KT 15SM FEW065 FEW280 19/M01 A3014 RMK CU1CI0 SLP217

CYQR;2013-06-04 21:00;CYQR 042100Z 07013KT 15SM FEW060 FEW093 20/M01 A3013 RMK SC1AC2 SLP214

CYQR;2013-06-04 22:00;CYQR 042200Z 06008KT 15SM FEW060 FEW100 SCT280 20/M01 A3013 RMK SC1AC2CI1 SLP213

CYQR;2013-06-04 23:00;CYQR 042300Z 07012G17KT 15SM FEW060 BKN093 BKN280 20/00 A3013 RMK SC1AC5CI1 SLP212

CYQR;2013-06-05 00:00;CYQR 050000Z 12007G16KT 15SM BKN100 19/M02 A3013 RMK AC3 SLP216

CYQR;2013-06-05 01:00;CYQR 050100Z 13003KT 15SM SCT100 19/M02 A3013 RMK AC3 SLP216

CYQR;2013-06-05 02:00;CYQR 050200Z 15003KT 15SM FEW120 FEW300 18/M02 A3014 RMK AC2CI0 SLP219

CYQR;2013-06-05 03:00;CYQR 050300Z 20004KT 15SM FEW120 FEW300 14/M00 A3015 RMK AC1CI0 SLP220

CYQR;2013-06-05 04:00;CYQR 050400Z 23005KT 15SM FEW120 FEW300 11/M02 A3016 RMK AC1CI0 SLP223

CYQR;2013-06-05 05:00;CYQR 050500Z 28006KT 15SM FEW120 FEW300 09/M01 A3016 RMK AC1CI0 SLP224

CYQR;2013-06-05 06:00;CYQR 050600Z 32004KT 15SM FEW120 08/M01 A3017 RMK AC1 SLP228

CYQR;2013-06-05 07:00;CYQR 050700Z 00000KT 15SM FEW120 08/01 A3017 RMK AC1 SLP228

CYQR;2013-06-05 08:00;CYQR 050800Z 00000KT 15SM FEW120 07/02 A3017 RMK AC1 SLP228

CYQR;2013-06-05 09:00;CYQR 050900Z 13002KT 15SM FEW120 05/01 A3017 RMK AC1 SLP230

CYQR;2013-06-05 10:00;CYQR 051000Z 00000KT 15SM FEW300 05/01 A3017 RMK CI1 SLP229

CYQR;2013-06-05 11:00;CYQR 051100Z 11002KT 15SM FEW300 05/02 A3017 RMK CI0 SLP230

CYQR;2013-06-05 12:00;CYQR 051200Z 00000KT 15SM FEW300 06/02 A3017 RMK CI0 SLP230

CYQR;2013-06-05 13:00;CYQR 051300Z 10003KT 15SM FEW300 12/06 A3018 RMK CI0 SLP231

CYQR;2013-06-05 14:00;CYQR 051400Z 00000KT 15SM FEW300 15/06 A3017 RMK CI0 SLP229

CYQR;2013-06-05 15:00;CYQR 051500Z 09004KT 15SM SCT300 18/05 A3016 RMK CI1 SLP222

CYQR;2013-06-05 16:00;CYQR 051600Z 15003KT 15SM SCT300 19/00 A3015 RMK CI1 SLP219

CYQR;2013-06-05 17:00;CYQR 051700Z 15011G19KT 15SM SCT300 20/00 A3015 RMK CI1 SLP218

CYQR;2013-06-05 18:00;CYQR 051800Z 18013G18KT 15SM FEW080 FEW300 22/02 A3015 RMK CF1CI0 SLP218

CYQR;2013-06-05 19:00;CYQR 051900Z 17011G20KT 15SM FEW080 FEW300 22/01 A3013 RMK AC1CI0 SLP213

CYQR;2013-06-05 20:00;CYQR 052000Z 19012G24KT 15SM FEW080 FEW300 22/01 A3011 RMK AC1CI0 SLP208

CYQR;2013-06-05 21:00;CYQR 052100Z 17018KT 15SM FEW084 22/02 A3010 RMK CU1 SLP205

CYQR;2013-06-05 22:00;CYQR 052200Z 18010G19KT 15SM FEW084 22/02 A3009 RMK CU1 SLP199

CYQR;2013-06-05 23:00;CYQR 052300Z 16013G19KT 15SM FEW084 22/01 A3007 RMK CU1 SLP195

CYQR;2013-06-06 00:00;CYQR 060000Z 16013G18KT 15SM FEW080 21/01 A3006 RMK CU1 SLP190

CYQR;2013-06-06 01:00;CYQR 060100Z 16012G18KT 15SM FEW080 FEW280 21/01 A3005 RMK CU1CI1 SLP185

CYQR;2013-06-06 02:00;CYQR 060200Z 19012KT 15SM FEW080 SCT300 19/02 A3004 RMK AC1CI1 SLP184

CYQR;2013-06-06 03:00;CYQR 060300Z 17009KT 15SM FEW090 BKN300 16/03 A3004 RMK AC1CI2 SLP178

CYQR;2013-06-06 04:00;CYQR 060400Z 17009KT 15SM FEW100 BKN300 15/03 A3004 RMK AC1CI2 SLP178

CYQR;2013-06-06 05:00;CYQR 060500Z 18011KT 15SM FEW100 BKN300 14/04 A3004 RMK AC1CI2 SLP179

CYQR;2013-06-06 06:00;CYQR 060600Z 17009KT 15SM FEW100 SCT300 12/05 A3004 RMK AC1CI1 SLP177

CYQR;2013-06-06 07:00;CYQR 060700Z 17009KT 15SM FEW100 BKN300 11/05 A3003 RMK AC1CI0 SLP176

CYQR;2013-06-06 08:00;CYQR 060800Z 17010KT 15SM FEW100 BKN300 11/06 A3002 RMK AC1CI1 SLP172

CYQR;2013-06-06 09:00;CYQR 060900Z 18009KT 15SM FEW100 BKN300 11/06 A3001 RMK AC1CI1 SLP169

CYQR;2013-06-06 10:00;CYQR 061000Z 18009KT 15SM FEW120 BKN300 10/06 A3000 RMK AC1CI2 SLP165

CYQR;2013-06-06 11:00;CYQR 061100Z 15009KT 15SM SCT180 BKN300 11/06 A2999 RMK AC3CI1 SLP162

CYQR;2013-06-06 12:00;CYQR 061200Z 18010KT 15SM FEW080 SCT160 BKN300 11/06 A3000 RMK AC1AC3CI1 SLP165

CYQR;2013-06-06 13:00;CYQR 061300Z 20015KT 15SM SCT080 BKN120 BKN300 14/06 A3000 RMK AC3AC2CI1 SLP165

CYQR;2013-06-06 14:00;CYQR 061400Z 19013KT 15SM SCT073 BKN110 BKN300 15/07 A2998 RMK AC4AC2CI1 SLP159

CYQR;2013-06-06 15:00;CYQR 061500Z 19019G25KT 15SM BKN066 BKN100 OVC300 16/07 A2997 RMK AC6AC1CI1 SLP155

CYQR;2013-06-06 15:25;CYQR 061525Z 21023KT 15SM -SHRA BKN052 OVC094 16/ RMK SC6AC2 CVCTV CLD EMBD

CYQR;2013-06-06 15:43;CYQR 061543Z 20015G20KT 15SM VCSH BKN035 BKN094 15/ RMK SC6AC2 CVCTV CLD EMBD

CYQR;2013-06-06 16:00;CYQR 061600Z 21022G28KT 15SM SCT035 BKN094 17/09 A2996 RMK SC4AC3 SLP153

CYQR;2013-06-06 17:00;CYQR 061700Z 22018G26KT 15SM BKN040 BKN300 18/08 A2996 RMK CU5CI2 SLP151

CYQR;2013-06-06 18:00;CYQR 061800Z 28013G20KT 15SM FEW043 BKN300 20/09 A2994 RMK CU2CI1 SLP145

CYQR;2013-06-06 19:00;CYQR 061900Z 31016G27KT 15SM FEW053 BKN300 23/05 A2994 RMK CU2CI2 SLP144

CYQR;2013-06-06 20:00;CYQR 062000Z 30017KT 15SM FEW072 BKN300 22/05 A2994 RMK CU2CI1 SLP146

CYQR;2013-06-06 21:00;CYQR 062100Z 29013G22KT 15SM FEW078 BKN300 23/04 A2993 RMK CU2CI1 SLP140

CYQR;2013-06-06 22:00;CYQR 062200Z 30017G25KT 15SM FEW084 BKN300 22/02 A2992 RMK CU2CI2 SLP138

CYQR;2013-06-06 23:00;CYQR 062300Z 31019G27KT 15SM FEW085 BKN300 23/00 A2992 RMK CU1CI1 SLP137

CYQR;2013-06-07 00:00;CYQR 070000Z 30021G26KT 15SM FEW085 FEW300 22/M01 A2991 RMK CU1CI0 SLP136

CYQR;2013-06-07 01:00;CYQR 070100Z 31020G30KT 15SM FEW085 FEW300 22/M02 A2991 RMK CU1CI1 SLP135

CYQR;2013-06-07 02:00;CYQR 070200Z 32018KT 15SM FEW085 FEW300 20/M01 A2991 RMK AC1CI1 SLP136

CYQR;2013-06-07 03:00;CYQR 070300Z 32009KT 15SM FEW085 16/01 A2992 RMK AC1 SLP140

CYQR;2013-06-07 04:00;CYQR 070400Z 01007KT 15SM FEW260 14/05 A2994 RMK CI0 OBS TAKEN -08 SLP145

CYQR;2013-06-07 05:00;CYQR 070500Z 04006KT 15SM SKC 12/05 A2995 RMK SLP148

CYQR;2013-06-07 06:00;CYQR 070600Z 06007KT 15SM SKC 12/06 A2995 RMK SLP149

CYQR;2013-06-07 07:00;CYQR 070700Z 10004KT 15SM SKC 11/06 A2995 RMK SLP150

CYQR;2013-06-07 08:00;CYQR 070800Z 16004KT 15SM SKC 08/05 A2995 RMK SLP148

CYQR;2013-06-07 09:00;CYQR 070900Z 16003KT 15SM FEW150 07/04 A2994 RMK AC1 SLP147

CYQR;2013-06-07 10:00;CYQR 071000Z 21004KT 15SM FEW250 06/03 A2994 RMK CI1 SLP146

CYQR;2013-06-07 11:00;CYQR 071100Z 18004KT 15SM FEW080 FEW250 07/03 A2993 RMK AC1CI1 CONTRAILS SLP145

CYQR;2013-06-07 12:00;CYQR 071200Z 14003KT 15SM FEW080 BKN280 08/06 A2993 RMK AC1CI1 SLP144

CYQR;2013-06-07 13:00;CYQR 071300Z 16004KT 15SM FEW080 BKN280 13/06 A2993 RMK AC1CI1 SLP144

CYQR;2013-06-07 14:00;CYQR 071400Z 16005KT 15SM FEW080 BKN280 16/07 A2992 RMK AC1CI2 CONTRAILS SLP141

CYQR;2013-06-07 15:00;CYQR 071500Z 15007KT 15SM FEW080 BKN280 19/07 A2991 RMK AC1CI2 CONTRAILS SLP133

CYQR;2013-06-07 16:00;CYQR 071600Z 18007KT 15SM FEW060 FEW150 BKN300 21/06 A2988 RMK CF1AC1CI1 CONTRAILS SLP124

CYQR;2013-06-07 17:00;CYQR 071700Z 18005KT 15SM FEW100 SCT300 22/05 A2986 RMK AC1CI0 SLP116

CYQR;2013-06-07 18:00;CYQR 071800Z 13007KT 15SM FEW070 FEW100 BKN320 23/05 A2983 RMK CF1AC2CI2 SLP107

CYQR;2013-06-07 19:00;CYQR 071900Z 15007KT 15SM FEW070 FEW100 BKN320 23/05 A2982 RMK CF1AC2CI5 SLP102

CYQR;2013-06-07 20:00;CYQR 072000Z 16009G15KT 15SM FEW077 BKN100 BKN320 24/04 A2980 RMK CF1AC4CI2 SLP095

CYQR;2013-06-07 21:00;CYQR 072100Z 18009KT 15SM FEW077 SCT110 BKN320 24/05 A2978 RMK CF1AC4CI2 SLP091

CYQR;2013-06-07 22:00;CYQR 072200Z 18009KT 15SM FEW088 FEW110 OVC320 24/05 A2976 RMK AC1AC1CI4 SLP084

CYQR;2013-06-07 23:00;CYQR 072300Z 20011KT 15SM FEW088 BKN110 OVC320 24/05 A2973 RMK AC2AS3CI2 SLP075

CYQR;2013-06-08 00:00;CYQR 080000Z 28019KT 15SM BKN082 OVC280 20/10 A2972 RMK AC5CI3 SLP073

CYQR;2013-06-08 01:00;CYQR 080100Z 26014KT 15SM SCT082 OVC280 19/10 A2972 RMK AC3CI5 SLP073

CYQR;2013-06-08 02:00;CYQR 080200Z 26007KT 15SM FEW087 BKN120 OVC280 18/10 A2971 RMK AC2AS4CI2 SLP069

CYQR;2013-06-08 03:00;CYQR 080300Z 23002KT 15SM SCT090 BKN120 OVC280 16/09 A2971 RMK AC2AS2CI3 SLP063

CYQR;2013-06-08 04:00;CYQR 080400Z 00000KT 15SM SCT090 BKN120 OVC280 16/10 A2970 RMK AC2AS2CI3 SLP061

CYQR;2013-06-08 05:00;CYQR 080500Z 13003KT 15SM BKN080 OVC120 16/11 A2968 RMK AC6AS2 SLP055

CYQR;2013-06-08 06:00;CYQR 080600Z 08007KT 15SM OVC082 16/11 A2968 RMK AC8 SLP051

CYQR;2013-06-08 07:00;CYQR 080700Z 10007KT 15SM BKN072 OVC120 16/10 A2966 RMK AC6AC2 SLP047

CYQR;2013-06-08 08:00;CYQR 080800Z 10005KT 15SM OVC066 15/10 A2966 RMK SC8 SLP044

CYQR;2013-06-08 08:34;CYQR 080834Z 14006KT 15SM -SHRA OVC062 16/ RMK SC8

CYQR;2013-06-08 09:00;CYQR 080900Z 21008KT 15SM -SHRA OVC062 14/11 A2968 RMK SC8 SLP051

CYQR;2013-06-08 09:46;CYQR 080946Z 12008KT 15SM BKN060 BKN093 13/ RMK SC4AC2

CYQR;2013-06-08 10:00;CYQR 081000Z 13013G18KT 15SM BKN060 BKN093 14/10 A2964 RMK SC3AC2 SLP039

CYQR;2013-06-08 11:00;CYQR 081100Z 13014KT 15SM FEW045 BKN076 OVC100 15/09 A2964 RMK SC2AC4AC2 SLP038

CYQR;2013-06-08 12:00;CYQR 081200Z 16008KT 15SM FEW027 BKN041 BKN075 BKN110 15/10 A2965 RMK SC2SC3AC2AC1 SLP043

CYQR;2013-06-08 12:32;CYQR 081232Z 15010KT 15SM -SHRA BKN031 OVC075 14/ RMK SC5AC3

CYQR;2013-06-08 13:00;CYQR 081300Z 13009KT 15SM -SHRA BKN028 OVC075 13/11 A2964 RMK SC6AC2 CVCTV CLD ASOCTD SLP042

CYQR;2013-06-08 14:00;CYQR 081400Z 12012KT 15SM -SHRA BKN030 OVC075 13/12 A2965 RMK SC6AC2 CVCTV CLD ASOCTD SLP043

CYQR;2013-06-08 15:00;CYQR 081500Z 12011KT 12SM -SHRA FEW007 OVC049 14/13 A2965 RMK SF2SC6 CVCTV CLD EMBD SLP045

CYQR;2013-06-08 15:09;CYQR 081509Z 12009KT 12SM -SHRA BKN007 OVC049 15/ RMK SF5SC3 CVCTV CLD EMBD

CYQR;2013-06-08 16:00;CYQR 081600Z 15007KT 5SM -SHRA BR OVC005 14/14 A2965 RMK SC8 CVCTV CLD EMBD SLP046

CYQR;2013-06-08 16:25;CYQR 081625Z 16005KT 6SM -SHRA BR SCT006 OVC014 15/ RMK SC4SC4 CVCTV CLD EMBD

CYQR;2013-06-08 17:00;CYQR 081700Z 19004KT 10SM -SHRA FEW006 OVC012 15/13 A2964 RMK SF2SC6 CVCTV CLD EMBD SLP044

CYQR;2013-06-08 17:37;CYQR 081737Z 23003KT 12SM -SHRA BKN009 OVC014 15/ RMK SC7SC1 CVCTV CLD EMBD

CYQR;2013-06-08 18:00;CYQR 081800Z 26002KT 12SM -SHRA OVC008 15/14 A2965 RMK SC8 CVCTV CLD EMBD SLP045

CYQR;2013-06-08 19:00;CYQR 081900Z 02003KT 4SM -SHRA BR OVC012 16/15 A2964 RMK SC8 CVCTV CLD EMBD SLP042

CYQR;2013-06-08 19:06;CYQR 081906Z 36005KT 6SM -SHRA BR OVC007 15/ RMK SC8 CVCTV CLD EMBD

CYQR;2013-06-08 19:43;CYQR 081943Z 35006KT 6SM -RA BR SCT007 OVC015 16/ RMK SF4SC4

CYQR;2013-06-08 20:00;CYQR 082000Z 35005KT 6SM -RA BR BKN006 OVC015 15/14 A2964 RMK SF6SC2 SLP042

CYQR;2013-06-08 21:00;CYQR 082100Z 32003KT 10SM -RA BKN006 OVC030 16/15 A2964 RMK SF5SC3 SLP045

CYQR;2013-06-08 21:13;CYQR 082113Z 26002KT 12SM -RA SCT006 BKN033 OVC085 16/ RMK SF3SC4AC1

CYQR;2013-06-08 21:27;CYQR 082127Z 24012G17KT 5SM R13/4000VP6000FT/D RA BKN007 OVC020 15/ RMK SC6SC2

CYQR;2013-06-08 21:37;CYQR 082137Z 27012G19KT 12SM -RA BKN007 OVC021 15/ RERA RMK SC7SC1

CYQR;2013-06-08 22:00;CYQR 082200Z 26010KT 12SM -RA SCT007 BKN015 OVC026 15/14 A2966 RERA RMK SC4SC3SC1 SLP049

CYQR;2013-06-08 23:00;CYQR 082300Z 28007KT 15SM -RA SCT007 BKN033 OVC076 15/14 A2966 RMK SC4SC2AC2 SLP051

CYQR;2013-06-08 23:23;CYQR 082323Z 30021KT 12SM -RA BKN007 OVC023 14/ RMK SF6SC2

CYQR;2013-06-08 23:51;CYQR 082351Z 30019KT 4SM -RA BR BKN006 OVC016 14/ RMK SF6SC2

CYQR;2013-06-09 00:00;CYQR 090000Z 30018KT 4SM -RA BR BKN006 OVC018 14/13 A2968 RMK SF7SC1 SLP058

CYQR;2013-06-09 00:34;CYQR 090034Z 31015G22KT 6SM -RA BR SCT008 OVC019 14/ RMK SF4SC4

CYQR;2013-06-09 01:00;CYQR 090100Z 31012KT 8SM -RA FEW008 OVC022 14/13 A2969 RMK SF2SC6 -RA INTMT SLP062

CYQR;2013-06-09 01:34;CYQR 090134Z 30011KT 15SM FEW008 BKN045 OVC086 14/ RMK SF1SC5AC3

CYQR;2013-06-09 02:00;CYQR 090200Z 29009KT 15SM FEW008 SCT021 BKN050 BKN220 14/13 A2971 RMK SF1SC4SC2CI1 SLP066

CYQR;2013-06-09 03:04;CYQR 090304Z 28012KT 15SM -SHRA BKN016 BKN078 BKN220 14/ RMK SC3AC2CI1 CVCTV CLD EMBD

CYQR;2013-06-09 03:37;CYQR 090337Z 29012KT 15SM BKN029 BKN060 14/ RMK SC5SC2 CVCTV CLD EMBD

CYQR;2013-06-09 04:00;CYQR 090400Z 29013KT 15SM SCT025 BKN060 BKN220 14/12 A2972 RMK SC3SC2CI1 CVCTV CLD EMBD SLP073

CYQR;2013-06-09 05:00;CYQR 090500Z 29012KT 15SM BKN020 13/12 A2974 RMK SC7 CVCTV CLD EMBD SLP078

CYQR;2013-06-09 06:00;CYQR 090600Z 28011KT 15SM BKN027 12/12 A2975 RMK SC7 SLP083

CYQR;2013-06-09 07:00;CYQR 090700Z 29008KT 15SM FEW024 11/10 A2976 RMK SC2 SLP086

CYQR;2013-06-09 08:00;CYQR 090800Z 28008KT 15SM FEW025 10/09 A2977 RMK SC1 SLP090

CYQR;2013-06-09 09:00;CYQR 090900Z 27008KT 12SM FEW020 08/08 A2978 RMK SC1 SLP095

CYQR;2013-06-09 10:00;CYQR 091000Z 26007KT 12SM FEW020 FEW060 08/07 A2979 RMK SC1SC0 SLP097

CYQR;2013-06-09 11:00;CYQR 091100Z 25005KT 10SM FEW080 06/06 A2980 RMK AC1 BR SLP100

CYQR;2013-06-09 12:00;CYQR 091200Z 25006KT 15SM FEW080 09/09 A2981 RMK AC1 SLP105

CYQR;2013-06-09 13:00;CYQR 091300Z 27010KT 15SM FEW015 FEW080 12/10 A2981 RMK SC1AC1 SLP106

CYQR;2013-06-09 14:00;CYQR 091400Z 28010KT 15SM SKC 14/11 A2981 RMK SLP106

CYQR;2013-06-09 15:00;CYQR 091500Z 27002KT 15SM FEW020 16/12 A2980 RMK CU1 SLP099

CYQR;2013-06-09 16:00;CYQR 091600Z 26007KT 15SM FEW030 FEW080 19/11 A2979 RMK CU1AC1 ACC ASOCTD SLP096

CYQR;2013-06-09 17:00;CYQR 091700Z 23004G18KT 15SM FEW042 BKN056 BKN250 20/11 A2978 RMK CU2SC3CI1 SLP093

CYQR;2013-06-09 18:00;CYQR 091800Z 26012KT 15SM SCT046 BKN067 20/10 A2977 RMK CU3AC3 SLP086

CYQR;2013-06-09 19:00;CYQR 091900Z 26014KT 15SM BKN059 BKN068 20/09 A2976 RMK CU5AC2 TCU ASOCTD SLP085

CYQR;2013-06-09 20:00;CYQR 092000Z 26010G19KT 15SM BKN058 BKN070 20/09 A2976 RMK CU6AC2 SLP085

CYQR;2013-06-09 21:00;CYQR 092100Z 31011KT 15SM FEW060 BKN071 BKN280 21/09 A2975 RMK CU2AC4CI0 SLP082

CYQR;2013-06-09 22:00;CYQR 092200Z 25010KT 15SM FEW060 BKN073 BKN280 21/08 A2974 RMK CU2AC4CI1 SLP079

CYQR;2013-06-09 23:00;CYQR 092300Z 28012KT 15SM FEW062 BKN094 BKN280 20/09 A2973 RMK CU2AC3CI1 SLP077

CYQR;2013-06-09 23:38;CYQR 092338Z 32018KT 15SM -SHRA BKN037TCU OVC090 17/ RMK TCU5AC3

CYQR;2013-06-10 00:00;CYQR 100000Z 32017KT 15SM -SHRA BKN033TCU OVC087 16/10 A2975 RMK TCU5AC3 VIS S 6SM SLP086

CYQR;2013-06-10 01:00;CYQR 100100Z 28009KT 8SM -SHRA BKN024 OVC080 13/11 A2980 RMK SC6AC2 TCU EMBD SLP100

CYQR;2013-06-10 01:52;CYQR 100152Z 16008KT 15SM VCSH BKN039 BKN090 14/ RMK SC5AC2 VIS LWR N-NE

CYQR;2013-06-10 02:00;CYQR 100200Z 16007KT 15SM VCSH BKN039 BKN087 14/12 A2974 RMK SC5AC2 TCU EMBD VIS + CIG LWR N-E SLP081

CYQR;2013-06-10 03:00;CYQR 100300Z 34009KT 15SM FEW030 FEW060 FEW090 12/11 A2975 RMK SC1SC1AC1 ACC ASOCTD SLP083

CYQR;2013-06-10 04:00;CYQR 100400Z 02003KT 15SM FEW030 FEW060 FEW090 11/10 A2976 RMK SC1SC1AC1 CVCTV CLD EMBD SLP085

CYQR;2013-06-10 05:00;CYQR 100500Z 19002KT 15SM FEW030 FEW060 09/09 A2976 RMK SC1SC1 SLP084

CYQR;2013-06-10 05:50;CYQR 100550Z 24004KT 1/2SM R13/3000VP6000FT/D FG SKC 08/ RMK FG3 VIS NW-NE 3

CYQR;2013-06-10 06:00;CYQR 100600Z 24005KT 1/2SM R13/3000VP6000FT/U FG SKC 08/08 A2977 RMK FG4 VIS NW-NE 3 SLP089

CYQR;2013-06-10 06:11;CYQR 100611Z 22006KT 10SM R13/3500VP6000FT/D VCFG FEW060 08/ RMK SC1 VIS NW-NE 1

CYQR;2013-06-10 07:00;CYQR 100700Z 21004KT 15SM SKC 08/08 A2977 RMK SLP091

CYQR;2013-06-10 08:00;CYQR 100800Z 23003KT 8SM R13/2600FT/N BCFG FEW030 06/06 A2977 RMK SC1 BR SLP091

CYQR;2013-06-10 09:00;CYQR 100900Z 19006KT 6SM R13/2000FT/N BR BCFG FEW030 FEW060 07/07 A2977 RMK SC1SC1 VIS S-SW 1 SLP090

CYQR;2013-06-10 09:16;CYQR 100916Z 21004KT 1SM R13/1200FT/N BR SKC 07/ RMK FG2 VIS S-SW 3/8

CYQR;2013-06-10 09:33;CYQR 100933Z 00000KT 3/8SM R13/1600V2600FT/U FG SKC 06/ RMK FG6

CYQR;2013-06-10 10:00;CYQR 101000Z 32006KT 1/4SM R13/2000FT/N FG SKC 06/06 A2979 RMK FG6 SLP095

CYQR;2013-06-10 10:44;CYQR 101044Z 23003KT 3/4SM R13/3000FT/N BR BCFG FEW035 06/ RMK FG1SC2

CYQR;2013-06-10 10:50;CYQR 101050Z 26003KT 5SM R13/2400V3500FT/D BR PRFG FEW035 05/ RMK SC1 VIS S-W 3/4

CYQR;2013-06-10 11:00;CYQR 101100Z 24005KT 10SM R13/2600V6000FT/U PRFG FEW035 06/06 A2978 RMK SC1 VIS S-SW 3/4 TCU TOP W SLP092

CYQR;2013-06-10 12:00;CYQR 101200Z 19005KT 15SM FEW080 08/08 A2978 RMK AC1 ACC ASOCTD SLP095

CYQR;2013-06-10 13:00;CYQR 101300Z 23005KT 15SM FEW080 11/11 A2978 RMK AC2 SLP096

CYQR;2013-06-10 14:00;CYQR 101400Z 29006KT 15SM FEW010 FEW080 14/11 A2979 RMK CU2AC1 SLP098

CYQR;2013-06-10 15:00;CYQR 101500Z 30009KT 15SM FEW010 SCT067 15/12 A2980 RMK SF1AC4 SLP100

CYQR;2013-06-10 16:00;CYQR 101600Z 33006KT 15SM FEW017 17/12 A2981 RMK CU2 SLP102

CYQR;2013-06-10 17:00;CYQR 101700Z 32010KT 15SM FEW030 18/10 A2981 RMK CU1 SLP103

CYQR;2013-06-10 18:00;CYQR 101800Z 27015KT 15SM SCT042 19/10 A2981 RMK CU3 SLP104

CYQR;2013-06-10 19:00;CYQR 101900Z 28011G24KT 15SM BKN048 BKN200 20/09 A2981 RMK CU5CI1 SLP104

CYQR;2013-06-10 20:00;CYQR 102000Z 29018G24KT 15SM BKN054 BKN200 21/07 A2981 RMK CU6CI1 SLP102

CYQR;2013-06-10 21:00;CYQR 102100Z 30018G24KT 15SM SCT061 21/07 A2980 RMK CU4 SLP101

CYQR;2013-06-10 22:00;CYQR 102200Z 27017KT 15SM BKN068 20/05 A2981 RMK CU6 SLP102

CYQR;2013-06-10 23:00;CYQR 102300Z 28014G25KT 15SM FEW072 21/06 A2981 RMK CU2 SLP102

CYQR;2013-06-11 00:00;CYQR 110000Z 31017G24KT 15SM FEW074 20/05 A2981 RMK CU2 SLP104

CYQR;2013-06-11 01:00;CYQR 110100Z 31015G21KT 15SM FEW072 19/05 A2981 RMK CU1 SLP105

CYQR;2013-06-11 02:00;CYQR 110200Z 31013G18KT 15SM FEW070 FEW210 18/05 A2981 RMK AC1CI1 SLP105

CYQR;2013-06-11 03:00;CYQR 110300Z 34007KT 15SM FEW080 14/05 A2983 RMK AC1 SLP110

CYQR;2013-06-11 04:00;CYQR 110400Z 33008KT 15SM FEW080 10/05 A2987 RMK AC1 SLP122

CYQR;2013-06-11 05:00;CYQR 110500Z 34008KT 15SM SKC 08/05 A2989 RMK SLP129

CYQR;2013-06-11 06:00;CYQR 110600Z 35006KT 15SM SKC 08/05 A2991 RMK SLP138

CYQR;2013-06-11 07:00;CYQR 110700Z 35006KT 15SM SKC 07/05 A2991 RMK SLP139

CYQR;2013-06-11 08:00;CYQR 110800Z 33005KT 15SM SKC 05/04 A2992 RMK SLP141

CYQR;2013-06-11 09:00;CYQR 110900Z 32005KT 15SM SKC 05/04 A2992 RMK SLP143

CYQR;2013-06-11 10:00;CYQR 111000Z 26005KT 15SM FEW280 04/03 A2994 RMK CI1 SLP149

CYQR;2013-06-11 11:00;CYQR 111100Z 25005KT 15SM FEW220 03/03 A2994 RMK CI1 SLP150

CYQR;2013-06-11 12:00;CYQR 111200Z 27003KT 15SM FEW240 07/05 A2994 RMK CI0 SLP150

CYQR;2013-06-11 13:00;CYQR 111300Z 33003KT 15SM FEW240 09/06 A2995 RMK CI0 SLP152

CYQR;2013-06-11 14:00;CYQR 111400Z 33007KT 15SM FEW250 12/07 A2996 RMK CI0 SLP157

CYQR;2013-06-11 15:00;CYQR 111500Z 29008KT 15SM FEW025 FEW250 14/07 A2997 RMK CU1CI1 SLP160

CYQR;2013-06-11 16:00;CYQR 111600Z 28009KT 15SM FEW033 FEW250 15/07 A2997 RMK SC1CI1 SLP160

CYQR;2013-06-11 17:00;CYQR 111700Z 32010KT 15SM FEW035 FEW100 SCT250 15/07 A2997 RMK SC1AC1CI0 SLP160

CYQR;2013-06-11 18:00;CYQR 111800Z 32009G18KT 15SM FEW035 FEW083 SCT250 17/08 A2997 RMK SC1AC2CI1 SLP161

CYQR;2013-06-11 19:00;CYQR 111900Z 34009G15KT 15SM FEW040 FEW085 SCT250 17/08 A2996 RMK SC1AC1CI0 SLP156

CYQR;2013-06-11 20:00;CYQR 112000Z 31008G17KT 15SM FEW090 FEW250 19/08 A2995 RMK AC1CI0 SLP154

CYQR;2013-06-11 21:00;CYQR 112100Z 31007G18KT 15SM FEW045 FEW100 SCT300 20/09 A2995 RMK CU1AC1CI0 SLP154

CYQR;2013-06-11 22:00;CYQR 112200Z 32009KT 15SM FEW045 SCT080 BKN300 20/09 A2996 RMK CU1AC2CI1 SLP156

CYQR;2013-06-11 23:00;CYQR 112300Z 30007KT 15SM FEW050 BKN080 BKN300 20/09 A2997 RMK CU1AC5CI1 SLP159

CYQR;2013-06-12 00:00;CYQR 120000Z 33008KT 15SM SCT085 BKN300 20/08 A2996 RMK AC4CI1 SLP156

CYQR;2013-06-12 01:00;CYQR 120100Z 34009KT 15SM SCT090 BKN300 19/08 A2996 RMK AC4CI2 SLP154

CYQR;2013-06-12 02:00;CYQR 120200Z 34007KT 15SM SCT090 BKN300 17/08 A2996 RMK AC2CI2 SLP157

CYQR;2013-06-12 03:00;CYQR 120300Z 36005KT 15SM SCT080 BKN120 BKN300 17/09 A2998 RMK AC3AC2CI1 SLP159

CYQR;2013-06-12 04:00;CYQR 120400Z 01005KT 15SM SCT080 BKN100 BKN300 16/09 A3001 RMK AC2AC5CI1 SLP170

CYQR;2013-06-12 05:00;CYQR 120500Z 03009KT 15SM FEW080 BKN100 BKN280 14/07 A3002 RMK AC1AC4CI0 SLP174

CYQR;2013-06-12 06:00;CYQR 120600Z 03007KT 15SM FEW100 12/07 A3003 RMK AC2 SLP179

CYQR;2013-06-12 07:00;CYQR 120700Z 04006KT 15SM FEW100 10/07 A3003 RMK AC1 SLP179

CYQR;2013-06-12 08:00;CYQR 120800Z 02005KT 15SM SKC 10/07 A3004 RMK SLP180

CYQR;2013-06-12 09:00;CYQR 120900Z 03002KT 15SM FEW100 09/06 A3006 RMK AC1 SLP190

CYQR;2013-06-12 10:00;CYQR 121000Z 03004KT 15SM FEW100 BKN280 08/06 A3007 RMK AC1CI0 SLP192

CYQR;2013-06-12 11:00;CYQR 121100Z 00000KT 15SM FEW100 BKN280 08/06 A3008 RMK AC2CI1 SLP194

CYQR;2013-06-12 12:00;CYQR 121200Z 26002KT 15SM FEW080 BKN100 BKN280 09/08 A3009 RMK AC1AC4CI0 SLP198

CYQR;2013-06-12 13:00;CYQR 121300Z 00000KT 15SM BKN080 BKN095 BKN300 13/08 A3010 RMK AC5AC2CI1 SLP201

CYQR;2013-06-12 14:00;CYQR 121400Z 05002KT 15SM BKN083 BKN300 16/09 A3010 RMK AC5CI2 SLP201

CYQR;2013-06-12 15:00;CYQR 121500Z 00000KT 15SM BKN080 BKN100 BKN300 16/09 A3010 RMK AC5AC2CI0 SLP198

CYQR;2013-06-12 16:00;CYQR 121600Z 00000KT 15SM BKN080 BKN100 BKN300 17/08 A3010 RMK AC5AC2CI1 SLP200

CYQR;2013-06-12 17:00;CYQR 121700Z 08002KT 15SM FEW080 BKN096 18/08 A3010 RMK AC2AC4 SLP198

CYQR;2013-06-12 18:00;CYQR 121800Z 20002KT 15SM FEW040 FEW076 FEW300 20/08 A3009 RMK CU1AC1CI1 SLP196

CYQR;2013-06-12 19:00;CYQR 121900Z 19002KT 15SM FEW080 FEW300 21/08 A3008 RMK AC1CI0 SLP195

CYQR;2013-06-12 20:00;CYQR 122000Z 07003KT 15SM FEW050 FEW080 FEW300 22/08 A3007 RMK CU1AC1CI0 SLP191

CYQR;2013-06-12 21:00;CYQR 122100Z 25006KT 15SM FEW055 FEW090 FEW300 23/09 A3007 RMK CU1AC1CI0 AC TR SLP190

CYQR;2013-06-12 22:00;CYQR 122200Z 10003KT 15SM FEW055 SCT100 BKN300 23/09 A3006 RMK CU2AC1CI1 SLP188

CYQR;2013-06-12 23:00;CYQR 122300Z 16004KT 15SM BKN062 BKN100 23/11 A3005 RMK CU5AC2 SLP185

CYQR;2013-06-13 00:00;CYQR 130000Z 17003KT 15SM BKN062 BKN100 22/10 A3005 RMK SC6AC2 CU ASOCTD SLP182

CYQR;2013-06-13 01:00;CYQR 130100Z 17006KT 15SM SCT073 BKN110 BKN300 23/11 A3004 RMK CU3AC2CI0 SLP179

CYQR;2013-06-13 02:00;CYQR 130200Z 16007KT 15SM SCT064 SCT110 SCT300 22/11 A3005 RMK SC3AC1CI0 SLP184

CYQR;2013-06-13 03:00;CYQR 130300Z 16007KT 15SM FEW053 FEW110 BKN300 21/12 A3006 RMK SC2AC1CI1 SLP183

CYQR;2013-06-13 04:00;CYQR 130400Z 16007KT 15SM FEW053 FEW300 19/12 A3005 RMK SC1CI1 SLP182

CYQR;2013-06-13 05:00;CYQR 130500Z 16008KT 15SM FEW300 17/12 A3007 RMK CI1 SLP187

CYQR;2013-06-13 06:00;CYQR 130600Z 16008KT 15SM FEW300 17/12 A3007 RMK CI0 SLP186

CYQR;2013-06-13 07:00;CYQR 130700Z 13009KT 15SM FEW300 15/12 A3008 RMK CI1 SLP190

CYQR;2013-06-13 08:00;CYQR 130800Z 13013KT 15SM BKN063 15/11 A3008 RMK SC6 SLP190

CYQR;2013-06-13 09:00;CYQR 130900Z 14015KT 15SM BKN054 16/11 A3007 RMK SC6 SLP185

CYQR;2013-06-13 10:00;CYQR 131000Z 14011KT 15SM BKN053 17/11 A3006 RMK SC7 SLP182

CYQR;2013-06-13 11:00;CYQR 131100Z 13012KT 15SM FEW053 BKN200 16/11 A3003 RMK SC1CI4 SLP174

CYQR;2013-06-13 12:00;CYQR 131200Z 13011G17KT 15SM FEW130 BKN200 16/11 A3003 RMK AC1CI6 SLP171

CYQR;2013-06-13 13:00;CYQR 131300Z 14015KT 15SM FEW110 BKN250 16/11 A3001 RMK AC1CI1 SLP167

CYQR;2013-06-13 14:00;CYQR 131400Z 16014G21KT 15SM FEW110 FEW280 18/13 A3002 RMK AC1CI0 SLP170

CYQR;2013-06-13 15:00;CYQR 131500Z 16019G27KT 15SM BKN140 BKN280 20/13 A3001 RMK AC6CI1 SLP165

CYQR;2013-06-13 16:00;CYQR 131600Z 16021G26KT 15SM FEW030 BKN140 21/13 A2999 RMK CF1AC7 ACC ASOCTD SLP158

CYQR;2013-06-13 17:00;CYQR 131700Z 15023G28KT 15SM FEW035 BKN140 22/13 A2998 RMK CU2AC6 ACC ASOCTD SLP154

CYQR;2013-06-13 18:00;CYQR 131800Z 16021G29KT 15SM SCT040 OVC120 23/13 A2998 RMK CU4ACC4 SLP153

CYQR;2013-06-13 18:11;CYQR 131811Z 17020G26KT 15SM -SHRA BKN020 OVC120 22/ RMK CU5ACC3

CYQR;2013-06-13 19:00;CYQR 131900Z 15018G26KT 15SM -SHRA SCT020 OVC120 22/13 A2996 RMK CU3AC5 SLP146

CYQR;2013-06-13 20:00;CYQR 132000Z 15016G27KT 15SM -SHRA FEW017 SCT055 BKN099 21/14 A2994 RMK CU2SC2AC4 ACC ASOCTD SLP141

CYQR;2013-06-13 21:00;CYQR 132100Z 14015G27KT 15SM -SHRA BKN027 BKN100 20/14 A2991 RMK SC5AC2 SLP130

CYQR;2013-06-13 21:25;CYQR 132125Z 13020G27KT 15SM VCSH FEW019 BKN060 BKN099 20/ RMK SC2SC5AC1

CYQR;2013-06-13 22:00;CYQR 132200Z 15023KT 15SM FEW020 BKN078 21/14 A2991 RMK SC1AC6 SLP130

CYQR;2013-06-13 22:24;CYQR 132224Z 14020G25KT 15SM -SHRA FEW015 BKN098 BKN300 21/ RMK SC2AC4CI1

CYQR;2013-06-13 23:00;CYQR 132300Z 14019G25KT 15SM FEW020 BKN110 OVC300 22/14 A2988 RMK SC2ACC5CI1 SLP123

CYQR;2013-06-13 23:20;CYQR 132320Z 16017G27KT 15SM -SHRA FEW018 SCT050 OVC110 21/ RMK SC2CU2ACC3

CYQR;2013-06-14 00:00;CYQR 140000Z 15015G20KT 15SM -SHRA FEW020 BKN110 21/14 A2988 RMK SC2ACC6 SLP123

CYQR;2013-06-14 00:14;CYQR 140014Z 14019G24KT 15SM FEW030 BKN110 BKN300 22/ RMK SC2ACC5CI1

CYQR;2013-06-14 01:00;CYQR 140100Z 14016G21KT 15SM BKN073 BKN110 OVC300 22/12 A2985 RMK AC6AC1CI0 SLP113

CYQR;2013-06-14 02:00;CYQR 140200Z 14020KT 15SM BKN069 OVC300 23/12 A2986 RMK AC7CI0 SLP115

CYQR;2013-06-14 03:00;CYQR 140300Z 15016KT 15SM BKN058 OVC092 22/12 A2986 RMK SC7AC1 SLP111

CYQR;2013-06-14 04:00;CYQR 140400Z 14013G18KT 15SM BKN056 BKN300 21/13 A2984 RMK SC5CI1 SLP106

CYQR;2013-06-14 05:00;CYQR 140500Z 14011KT 15SM BKN056 OVC096 20/13 A2985 RMK SC7AC1 SLP108

CYQR;2013-06-14 06:00;CYQR 140600Z 15012KT 15SM OVC056 20/13 A2985 RMK SC8 SLP108

CYQR;2013-06-14 07:00;CYQR 140700Z 14010KT 15SM OVC047 19/13 A2983 RMK SC8 SLP101

CYQR;2013-06-14 08:00;CYQR 140800Z 15011KT 15SM SCT047 OVC095 19/13 A2981 RMK SC4AC4 SLP094

CYQR;2013-06-14 09:00;CYQR 140900Z 15010KT 15SM FEW045 OVC100 18/14 A2978 RMK SC1AC7 SLP087

CYQR;2013-06-14 10:00;CYQR 141000Z 15008KT 15SM FEW045 OVC100 17/14 A2976 RMK SC1AC7 SLP082

CYQR;2013-06-14 11:00;CYQR 141100Z 14012KT 15SM SCT074 OVC110 17/14 A2975 RMK AC3AC5 CVCTV CLD EMBD SLP077

CYQR;2013-06-14 11:16;CYQR 141116Z 14011KT 15SM -SHRA SCT074 OVC110 17/ RMK AC4AC4 CVCTV CLD EMBD

CYQR;2013-06-14 12:00;CYQR 141200Z 14008KT 15SM -SHRA BKN048 OVC110 16/14 A2974 RMK SC6AC2 CVCTV CLD EMBD SLP073

CYQR;2013-06-14 12:28;CYQR 141228Z 16007KT 15SM OVC023 16/ RMK SC8

CYQR;2013-06-14 13:00;CYQR 141300Z 27003KT 15SM VCSH BKN017 OVC021 16/14 A2972 RMK SC5SC3 CU EMBD SLP067

CYQR;2013-06-14 13:21;CYQR 141321Z 21003KT 12SM -SHRA OVC015 16/ RMK SC8 CU EMBD

CYQR;2013-06-14 13:44;CYQR 141344Z 29003KT 10SM -SHRA OVC010 16/ RMK SC8 CU EMBD

CYQR;2013-06-14 14:00;CYQR 141400Z 34002KT 8SM -SHRA BKN010 OVC044 16/15 A2969 RMK SC6SC2 CVCTV CLD EMBD SLP057

CYQR;2013-06-14 14:17;CYQR 141417Z 00000KT 10SM -SHRA SCT006 BKN015 OVC042 16/ RMK SF2SC3SC3 CVCTV CLD EMBD

CYQR;2013-06-14 15:00;CYQR 141500Z 35005KT 12SM -SHRA BKN009 OVC046 16/15 A2968 RMK SC5SC3 CVCTV CLD EMBD SLP054

CYQR;2013-06-14 16:00;CYQR 141600Z 25007KT 15SM -SHRA FEW010 SCT020 OVC034 16/14 A2968 RMK CU2SC2SC4 OBS TAKEN +07 SLP053

CYQR;2013-06-14 17:00;CYQR 141700Z 23009KT 15SM -SHRA FEW007 SCT028 BKN051 17/15 A2967 RMK CU2SC2SC3 SLP049

CYQR;2013-06-14 17:19;CYQR 141719Z 23009KT 15SM VCSH BKN007 OVC060 17/ RMK CU6SC2 OCNL -SHRA

CYQR;2013-06-14 17:33;CYQR 141733Z 25015KT 8SM SHRA BKN007TCU OVC060 16/ RMK TCU7SC1

CYQR;2013-06-14 18:00;CYQR 141800Z 29019G26KT 8SM -SHRA BKN006TCU OVC070 15/15 A2968 RMK TCU5AC3 SLP056

CYQR;2013-06-14 18:41;CYQR 141841Z 29020G26KT 15SM BKN009 16/ RMK CU7

CYQR;2013-06-14 19:00;CYQR 141900Z 29020G26KT 15SM BKN013 16/14 A2970 RMK CU7 SLP062

CYQR;2013-06-14 20:00;CYQR 142000Z 30017G24KT 15SM BKN015 17/14 A2972 RMK CU6 SLP068

CYQR;2013-06-14 21:00;CYQR 142100Z 29016KT 15SM BKN024 BKN080 BKN250 18/13 A2972 RMK CU6AC1CI1 SLP067

CYQR;2013-06-14 22:00;CYQR 142200Z 29013G20KT 15SM SCT027 BKN320 19/12 A2972 RMK CU4CI1 SLP068

CYQR;2013-06-14 23:00;CYQR 142300Z 28024G33KT 15SM -SHRA BKN035CB BKN320 16/10 A2976 RMK CB5CI2 SLP079

CYQR;2013-06-14 23:06;CYQR 142306Z 28024G34KT 15SM -TSRA BKN037CB BKN320 12/ RMK CB6CI1 VIS LWR S-W

CYQR;2013-06-15 00:00;CYQR 150000Z 20007KT 15SM -SHRA BKN025CB BKN100 BKN300 12/10 A2975 RETS RMK CB6AC1CI1 SLP082

CYQR;2013-06-15 00:31;CYQR 150031Z 22009KT 15SM BKN029TCU BKN100 BKN300 12/ RMK TCU5AC2CI1

CYQR;2013-06-15 01:00;CYQR 150100Z 21009KT 15SM FEW038TCU SCT100 BKN300 13/11 A2974 RMK TCU1AC2CI3 SLP080

CYQR;2013-06-15 02:00;CYQR 150200Z 21009KT 15SM FEW040TCU FEW110 OVC280 13/12 A2975 RMK TCU1AC2CI6 SLP083

CYQR;2013-06-15 03:00;CYQR 150300Z 20008KT 15SM FEW040TCU FEW110 BKN280 13/12 A2974 RMK TCU1AC2CI2 SLP079

CYQR;2013-06-15 03:33;CYQR 150333Z 23019G25KT 15SM -SHRA FEW040CB BKN052 OVC280 14/ RMK CB1SC5CI2 LTNG W-NW

CYQR;2013-06-15 04:00;CYQR 150400Z 26030G37KT 15SM -SHRA FEW040CB BKN052 BKN090 OVC280 13/09 A2975 RMK CB1SC6AC1CI1 LTNG NW SLP083

CYQR;2013-06-15 04:07;CYQR 150407Z 26027KT 15SM BKN052 OVC280 12/ RMK SC6CI2 CB EMBD N

CYQR;2013-06-15 05:00;CYQR 150500Z 26023KT 15SM SCT058 OVC110 12/08 A2973 RMK SC3AC5 SLP077

CYQR;2013-06-15 06:00;CYQR 150600Z 24014KT 15SM SCT086 BKN280 12/09 A2973 RMK AC4CI1 SLP078

CYQR;2013-06-15 07:00;CYQR 150700Z 25012KT 15SM FEW280 11/10 A2973 RMK CI0 SLP077

CYQR;2013-06-15 08:00;CYQR 150800Z 25012G17KT 15SM SKC 11/09 A2972 RMK SLP075

CYQR;2013-06-15 09:00;CYQR 150900Z 24013KT 15SM FEW066 10/09 A2973 RMK AC1 SLP076

CYQR;2013-06-15 10:00;CYQR 151000Z 24009KT 15SM FEW070 09/08 A2973 RMK AC1 SLP075

CYQR;2013-06-15 11:00;CYQR 151100Z 23011KT 15SM FEW070 FEW320 09/08 A2973 RMK AC1CI1 SLP076

CYQR;2013-06-15 12:00;CYQR 151200Z 24015G20KT 15SM SCT042 BKN110 BKN320 11/10 A2972 RMK SC3AC2CI1 SLP077

CYQR;2013-06-15 13:00;CYQR 151300Z 26015G20KT 15SM FEW012 FEW040 SCT080 BKN320 12/10 A2972 RMK SF1SC1AC2CI1 SLP076

CYQR;2013-06-15 13:44;CYQR 151344Z 26019G27KT 15SM FEW007 SCT049 BKN082 BKN320 14/ RMK CF1SC2AC2CI0

CYQR;2013-06-15 14:00;CYQR 151400Z 26022KT 15SM FEW010 BKN049 BKN082 BKN320 14/11 A2971 RMK CU1SC4AC1CI1 SLP071

CYQR;2013-06-15 15:00;CYQR 151500Z 27024G29KT 15SM SCT017 BKN080 BKN320 15/12 A2970 RMK CU3AC3CI1 SLP064

CYQR;2013-06-15 16:00;CYQR 151600Z 26024G32KT 15SM BKN018 BKN090 BKN320 16/12 A2970 RMK CU5AC1CI0 SLP066

CYQR;2013-06-15 17:00;CYQR 151700Z 27024G31KT 15SM BKN024 BKN085 16/12 A2971 RMK CU6AC1 SLP067

CYQR;2013-06-15 18:00;CYQR 151800Z 28020G32KT 15SM BKN024 OVC081 16/12 A2972 RMK CU6AC2 SLP072

CYQR;2013-06-15 19:01;CYQR 151901Z 27024G30KT 15SM -SHRA BKN030 BKN057 BKN300 17/ RMK CU6SC1CI0 TCU ASOCTD

CYQR;2013-06-15 19:18;CYQR 151918Z 27022G28KT 15SM VCSH SCT030TCU SCT060 BKN300 18/ RMK TCU4SC1CI0

CYQR;2013-06-15 20:00;CYQR 152000Z CCA 27024G32KT 15SM VCSH BKN040 BKN080 BKN300 18/11 A2971 RMK CU5AC2CI1 TCU ASOCTD SLP068

CYQR;2013-06-15 21:00;CYQR 152100Z 28027G35KT 15SM VCSH SCT030CB BKN040 BKN080 BKN300 19/10 A2971 RMK CB4CU1AC1CI0 CB/SH W-NE SLP068

CYQR;2013-06-15 21:06;CYQR 152106Z 31029G35KT 6SM SHRA BKN026CB BKN080 BKN300 14/ RMK CB5AC2CI0

CYQR;2013-06-15 21:20;CYQR 152120Z 28021G28KT 15SM VCSH FEW026CB SCT040TCU BKN089 BKN300 15/ RERA RMK CB1TCU2AC2CI1 CB/SH E VIS E 5

CYQR;2013-06-15 22:00;CYQR 152200Z 28020G28KT 15SM -SHRA FEW016CB BKN026TCU BKN080 BKN300 17/12 A2971 RERA RMK CB2TCU2AC2CI1 SLP068

CYQR;2013-06-15 22:17;CYQR 152217Z 28028KT 15SM VCSH SCT030 BKN080 BKN300 19/ RMK CU3AC2CI1 CB ASOCTD E+S

CYQR;2013-06-15 23:00;CYQR 152300Z 28025G31KT 15SM SCT041TCU SCT080 BKN300 18/12 A2971 RMK TCU3AC1CI0 SLP069

CYQR;2013-06-15 23:34;CYQR 152334Z 29023G30KT 15SM -SHRA BKN038TCU BKN079 18/ RMK TCU5AC2

CYQR;2013-06-15 23:52;CYQR 152352Z 31017G26KT 15SM VCSH FEW035TCU SCT081 BKN300 16/ RMK TCU2AC2CI2

CYQR;2013-06-16 00:00;CYQR 160000Z 30017G22KT 15SM VCSH FEW035TCU SCT080 BKN300 16/12 A2972 RMK TCU2AC2CI2 SLP073

CYQR;2013-06-16 01:00;CYQR 160100Z 29018G25KT 15SM BKN048 BKN100 BKN300 16/11 A2972 RMK SC5AC1CI1 TCU EMBD SLP073

CYQR;2013-06-16 01:20;CYQR 160120Z 29016KT 15SM -SHRA FEW048 FEW100 BKN300 16/ RMK SC2AC1CI2 CB DIST S

CYQR;2013-06-16 02:00;CYQR 160200Z 28012KT 15SM FEW050 FEW100 BKN300 15/12 A2973 RMK SC1AC1CI2 TCU EMBD SLP075

CYQR;2013-06-16 03:00;CYQR 160300Z 27014KT 15SM FEW050 SCT300 14/11 A2973 RMK SC1CI1 SLP075

CYQR;2013-06-16 04:00;CYQR 160400Z 27014KT 15SM FEW050 BKN300 14/10 A2974 RMK SC1CI3 SLP079

CYQR;2013-06-16 05:00;CYQR 160500Z 28019G25KT 15SM FEW012 FEW050 BKN300 14/10 A2976 RMK SC1SC1CI2 SLP085

CYQR;2013-06-16 06:00;CYQR 160600Z 27012KT 15SM FEW050 12/10 A2976 RMK SC1 SLP086

CYQR;2013-06-16 07:00;CYQR 160700Z 26013KT 15SM FEW033 12/10 A2976 RMK SC1 SLP085

CYQR;2013-06-16 08:00;CYQR 160800Z 27016G22KT 15SM OVC021 13/11 A2975 RMK SC8 SLP083

CYQR;2013-06-16 09:00;CYQR 160900Z 28018KT 15SM -RA OVC015 13/11 A2975 RMK SC8 SLP081

CYQR;2013-06-16 09:13;CYQR 160913Z 28020KT 15SM OVC015 13/ RMK SC8

CYQR;2013-06-16 09:41;CYQR 160941Z 28019KT 15SM OVC012 13/ RMK SC8

CYQR;2013-06-16 10:00;CYQR 161000Z 28021KT 15SM OVC011 13/11 A2976 RMK SC8 SLP082

CYQR;2013-06-16 11:00;CYQR 161100Z 29017G25KT 15SM OVC010 13/11 A2977 RMK SC8 SLP086

CYQR;2013-06-16 11:27;CYQR 161127Z 29016G24KT 15SM -RA BKN012 OVC033 13/ RMK SC7SC1

CYQR;2013-06-16 11:36;CYQR 161136Z 28017G22KT 15SM BKN010 OVC033 13/ RMK SC7SC1

CYQR;2013-06-16 12:00;CYQR 161200Z 28016KT 15SM BKN010 OVC028 13/12 A2979 RMK SC6SC1 SLP094

CYQR;2013-06-16 12:21;CYQR 161221Z 29017G22KT 5SM -RA BR OVC012 13/ RMK SC8

CYQR;2013-06-16 13:00;CYQR 161300Z 30018G24KT 15SM BKN009 13/12 A2980 RMK SC7 SLP099

CYQR;2013-06-16 13:19;CYQR 161319Z 31019KT 10SM -SHRA OVC008 13/ RMK SC8 VIS N-E 3SM BR

CYQR;2013-06-16 14:00;CYQR 161400Z 31018KT 15SM VCSH OVC010 14/12 A2982 RMK SC8 OCNL -SHRA SLP105

CYQR;2013-06-16 15:00;CYQR 161500Z 32020KT 15SM VCSH OVC010 14/12 A2985 RMK SC8 0CNL -SHRA SLP117

CYQR;2013-06-16 16:00;CYQR 161600Z 33020G26KT 15SM -SHRA OVC008 14/13 A2986 RMK SC8 -SHRA OCNL SLP122

CYQR;2013-06-16 16:29;CYQR 161629Z 33021G27KT 15SM BKN009 15/ RMK SC7

CYQR;2013-06-16 17:00;CYQR 161700Z 33021G26KT 15SM BKN011 15/13 A2987 RMK SC7 SLP125

CYQR;2013-06-16 18:00;CYQR 161800Z 31021G26KT 15SM OVC010 15/13 A2990 RMK SC8 SLP133

CYQR;2013-06-16 18:24;CYQR 161824Z 32021G26KT 15SM -SHRA OVC010 15/ RMK SC8 CVCTV CLD ASOCTD

CYQR;2013-06-16 19:00;CYQR 161900Z 33021G28KT 15SM -SHRA BKN013 15/13 A2991 RMK SC7 CVCTV CLD ASOCTD SLP139

CYQR;2013-06-16 20:00;CYQR 162000Z 34019G24KT 15SM BKN012 BKN074 17/14 A2993 RMK CU6AC1 SLP144

CYQR;2013-06-16 21:00;CYQR 162100Z 36019G25KT 15SM VCSH BKN015 BKN080 18/14 A2995 RMK CU7AC1 SLP148

CYQR;2013-06-16 21:27;CYQR 162127Z 02020G26KT 15SM -SHRA BKN017 OVC090 16/ RMK CU7AC1

CYQR;2013-06-16 22:00;CYQR 162200Z 35009KT 15SM -SHRA BKN022 OVC090 15/14 A2997 RMK CU6AC1 SLP155

CYQR;2013-06-16 23:00;CYQR 162300Z 34013KT 15SM -SHRA BKN023 BKN090 OVC300 16/14 A2997 RMK CU6AC1CI0 SLP157

CYQR;2013-06-17 00:00;CYQR 170000Z 36013KT 15SM -SHRA SCT013TCU BKN061 16/14 A2999 RMK TCU4SC2 -SHRA OCNL SLP164

CYQR;2013-06-17 01:00;CYQR 170100Z 03009KT 15SM -SHRA SCT017TCU OVC035 15/14 A3000 RMK TCU3CU4 SLP169

CYQR;2013-06-17 02:00;CYQR 170200Z 04004KT 15SM SCT015TCU BKN051 BKN077 14/14 A3002 RMK TCU3SC3AC1 SLP173

CYQR;2013-06-17 03:00;CYQR 170300Z 36003KT 15SM -SHRA BKN019TCU BKN049 15/14 A3004 RMK TCU6SC2 SLP181

CYQR;2013-06-17 03:14;CYQR 170314Z 03002KT 15SM SCT019TCU BKN060 15/ RMK TCU3SC2

CYQR;2013-06-17 04:00;CYQR 170400Z 03004KT 15SM FEW019TCU FEW043 13/12 A3005 RMK TCU1SC1 SLP187

CYQR;2013-06-17 05:00;CYQR 170500Z 33006KT 15SM FEW010 BKN051 12/12 A3007 RMK SC1SC5 SLP192

CYQR;2013-06-17 06:00;CYQR 170600Z 35006KT 15SM SCT025 BKN047 12/12 A3008 RMK SC3SC2 SLP196

CYQR;2013-06-17 07:00;CYQR 170700Z 02005KT 15SM BKN043 12/12 A3009 RMK SC7 SLP198

CYQR;2013-06-17 08:00;CYQR 170800Z 07004KT 15SM BKN053 12/12 A3009 RMK SC6 SLP198

CYQR;2013-06-17 09:00;CYQR 170900Z 33003KT 12SM FEW057 10/10 A3009 RMK SC1 SLP198

CYQR;2013-06-17 09:51;CYQR 170951Z 24002KT 2SM R13/2200FT/N BR FEW060 09/ RMK SC1

CYQR;2013-06-17 10:02;CYQR 171002Z 23002KT 1/4SM R13/1800FT/N FG FEW060 09/ RMK FG2SC1 VIS E 3

CYQR;2013-06-17 10:24;CYQR 171024Z 32004KT 1/8SM R13/1100V1600FT/N FG SCT060 08/ RMK FG3SC1

CYQR;2013-06-17 10:45;CYQR 171045Z 00000KT 1/4SM R13/2400FT/N FG BKN092 08/ RMK FG2AC3

CYQR;2013-06-17 11:02;CYQR 171102Z 00000KT 1/2SM R13/3000V6000FT/U FG SCT037 BKN090 08/ RMK SC3AC2

CYQR;2013-06-17 11:28;CYQR 171128Z 00000KT 3/4SM R13/2600V5000FT/N BR BKN034 BKN090 10/ RMK SC5AC2

CYQR;2013-06-17 11:35;CYQR 171135Z 00000KT 1SM R13/3500VP6000FT/U BR BKN034 BKN090 10/ RMK SC6AC2

CYQR;2013-06-17 12:00;CYQR 171200Z 12002KT 3SM BR BKN034 BKN090 10/10 A3011 RMK SC5AC2 VIS E 2 SLP207

CYQR;2013-06-17 13:00;CYQR 171300Z 17002KT 6SM BR BKN032 OVC090 12/12 A3012 RMK SC6AC2 SLP211

CYQR;2013-06-17 13:50;CYQR 171350Z 00000KT 6SM BR BKN004 OVC030 12/ RMK SF5SC3

CYQR;2013-06-17 14:00;CYQR 171400Z 00000KT 10SM BKN004 OVC030 12/12 A3013 RMK SF4SC4 SLP213

CYQR;2013-06-17 15:00;CYQR 171500Z 18003KT 10SM BKN005 OVC026 13/13 A3013 RMK SF6SC2 SLP213

CYQR;2013-06-17 15:27;CYQR 171527Z 19004KT 10SM BKN006 OVC022 14/ RMK SF6SC2 CIG RAG

CYQR;2013-06-17 16:00;CYQR 171600Z 22004KT 12SM BKN007 OVC020 14/13 A3012 RMK SF7SC1 SLP211

CYQR;2013-06-17 17:00;CYQR 171700Z 20003KT 15SM BKN009 OVC025 15/13 A3013 RMK SF6SC2 SLP212

CYQR;2013-06-17 17:17;CYQR 171717Z 21003KT 15SM BKN012 OVC036 15/ RMK SC6SC2 CU ASOCTD

CYQR;2013-06-17 18:00;CYQR 171800Z 00000KT 15SM BKN015 OVC040 16/13 A3012 RMK CU6SC1 SLP211

CYQR;2013-06-17 19:00;CYQR 171900Z 22002KT 15SM SCT020 BKN090 17/12 A3011 RMK CU3AC2 SLP206

CYQR;2013-06-17 20:00;CYQR 172000Z 21005KT 15SM BKN030 BKN090 20/12 A3010 RMK CU6AC1 SLP204

CYQR;2013-06-17 21:00;CYQR 172100Z 25003KT 15SM SCT033 BKN066 19/12 A3009 RMK CU3AC2 SLP200

CYQR;2013-06-17 22:00;CYQR 172200Z 00000KT 15SM SCT040 BKN080 20/12 A3008 RMK CU3AC2 SLP197

CYQR;2013-06-17 23:00;CYQR 172300Z 19007KT 15SM FEW045 SCT085 21/10 A3007 RMK CU2AC2 SLP193

CYQR;2013-06-18 00:00;CYQR 180000Z 15008KT 15SM SCT050 BKN080 20/12 A3005 RMK CU3AC2 SLP186

CYQR;2013-06-18 01:00;CYQR 180100Z 20006KT 15SM SCT050 BKN080 20/11 A3005 RMK SC3AC2 CU ASOCTD SLP186

CYQR;2013-06-18 02:00;CYQR 180200Z 17008KT 15SM FEW047 FEW080 SCT270 19/12 A3005 RMK CU2AC1CI0 SLP184

CYQR;2013-06-18 03:00;CYQR 180300Z 16007KT 15SM FEW052 FEW080 FEW220 17/12 A3005 RMK CU1AC1CI1 SLP182

CYQR;2013-06-18 04:00;CYQR 180400Z 16006KT 15SM FEW085 FEW220 16/11 A3006 RMK AC1CI1 SLP187

CYQR;2013-06-18 05:00;CYQR 180500Z 16008KT 15SM SCT066 BKN220 15/11 A3005 RMK AC3CI2 SLP183

CYQR;2013-06-18 06:00;CYQR 180600Z 17010KT 15SM SCT066 BKN220 15/11 A3005 RMK AC3CI2 SLP186

CYQR;2013-06-18 07:00;CYQR 180700Z 16009KT 15SM SCT069 BKN220 14/11 A3005 RMK AC3CI2 SLP184

CYQR;2013-06-18 08:00;CYQR 180800Z 16007KT 15SM FEW012 FEW070 SCT220 13/10 A3005 RMK CF1AC1CI3 SLP186

CYQR;2013-06-18 09:00;CYQR 180900Z 16008KT 15SM FEW012 BKN058 BKN220 13/10 A3005 RMK CU1SC4CI1 SLP184

CYQR;2013-06-18 10:00;CYQR 181000Z 15006KT 15SM FEW012 FEW060 FEW080 SCT220 11/10 A3004 RMK CU1SC1AC1CI1 SLP180

CYQR;2013-06-18 11:00;CYQR 181100Z 13005KT 15SM FEW012 FEW080 SCT220 11/10 A3004 RMK CF1AC1CI2 ACC ASOCTD SLP179

CYQR;2013-06-18 12:00;CYQR 181200Z 14009KT 15SM FEW080 FEW220 11/10 A3003 RMK AC1CI1 ACC ASOCTD SLP175

CYQR;2013-06-18 13:00;CYQR 181300Z 15008KT 15SM FEW080 FEW220 14/11 A3002 RMK AC1CI1 SLP174

CYQR;2013-06-18 14:00;CYQR 181400Z 16010KT 15SM FEW120 SCT250 18/13 A3002 RMK AC1CI1 SLP174

CYQR;2013-06-18 15:00;CYQR 181500Z 16010KT 15SM FEW120 BKN250 20/13 A3001 RMK AC2CI1 SLP167

CYQR;2013-06-18 16:00;CYQR 181600Z 19010KT 15SM FEW032 FEW120 BKN250 22/14 A3000 RMK CF1AC1CI2 SLP165

CYQR;2013-06-18 17:00;CYQR 181700Z 18008G17KT 15SM FEW040 FEW150 BKN250 23/14 A2999 RMK CF1AC1CI2 SLP159

CYQR;2013-06-18 18:00;CYQR 181800Z 19008G16KT 15SM FEW045 SCT300 24/13 A2997 RMK CF1CI0 SLP152

CYQR;2013-06-18 19:00;CYQR 181900Z 21006KT 15SM FEW050 FEW300 25/11 A2996 RMK CU1CI0 SLP148

CYQR;2013-06-18 20:00;CYQR 182000Z 16008G18KT 15SM FEW050 FEW300 25/12 A2995 RMK CU1CI0 SLP144

CYQR;2013-06-18 21:00;CYQR 182100Z 16009KT 15SM FEW063 FEW300 25/12 A2994 RMK CU2CI0 SLP140

CYQR;2013-06-18 22:00;CYQR 182200Z 19012KT 15SM FEW063 SCT300 26/12 A2992 RMK CU2CI0 SLP135

CYQR;2013-06-18 23:00;CYQR 182300Z 19011KT 15SM FEW067 FEW300 26/12 A2991 RMK CU1CI1 SLP131

CYQR;2013-06-19 00:00;CYQR 190000Z 17008KT 15SM FEW070 SCT300 26/12 A2989 RMK AC1CI1 SLP126

CYQR;2013-06-19 01:00;CYQR 190100Z 16010KT 15SM FEW070 BKN300 26/11 A2988 RMK AC1CI1 SLP123

CYQR;2013-06-19 02:00;CYQR 190200Z 15009KT 15SM FEW300 24/11 A2987 RMK CI0 SLP118

CYQR;2013-06-19 03:00;CYQR 190300Z 14009KT 15SM SCT300 22/11 A2987 RMK CI2 SLP117

CYQR;2013-06-19 04:00;CYQR 190400Z 14009KT 15SM FEW220 BKN300 21/11 A2991 RMK CC1CI3 SLP127

CYQR;2013-06-19 05:00;CYQR 190500Z 14010KT 15SM OVC300 19/11 A2990 RMK CI6 SLP126

CYQR;2013-06-19 06:00;CYQR 190600Z 13009KT 15SM OVC300 17/11 A2990 RMK CI6 SLP127

CYQR;2013-06-19 07:00;CYQR 190700Z 12009KT 15SM FEW020 BKN300 16/12 A2989 RMK SC1CI5 SLP124

CYQR;2013-06-19 08:00;CYQR 190800Z 13011KT 15SM BKN300 17/12 A2988 RMK CI5 SLP119

CYQR;2013-06-19 09:00;CYQR 190900Z 12009KT 15SM BKN300 15/12 A2987 RMK CI3 SLP117

CYQR;2013-06-19 10:00;CYQR 191000Z 13011KT 15SM BKN300 15/11 A2987 RMK CI3 SLP117

CYQR;2013-06-19 11:00;CYQR 191100Z 12009KT 15SM FEW100 BKN300 15/11 A2988 RMK ACC1CI5 SLP119

CYQR;2013-06-19 12:00;CYQR 191200Z 12011KT 15SM FEW020TCU FEW100 FEW250 BKN300 16/11 A2988 RMK TCU1ACC1CI2CI5 SLP118

CYQR;2013-06-19 13:00;CYQR 191300Z 11010KT 15SM FEW020TCU FEW100 OVC250 17/12 A2987 RMK TCU1AC2CI5 SLP116

CYQR;2013-06-19 14:00;CYQR 191400Z 12013KT 15SM FEW040 SCT100 OVC250 20/14 A2986 RMK SC2AC2CI5 TCU ASOCTD SLP113

CYQR;2013-06-19 15:00;CYQR 191500Z 13015KT 15SM FEW040 SCT100 OVC250 22/14 A2986 RMK SC2AC2CI3 SLP112

CYQR;2013-06-19 16:00;CYQR 191600Z 14011KT 15SM FEW060 BKN120 OVC250 23/14 A2987 RMK SC2AC4CI2 TCU ASOCTD SLP114

CYQR;2013-06-19 17:00;CYQR 191700Z 10012KT 15SM BKN098 OVC300 22/14 A2987 RMK ACC6CI2 SLP113

CYQR;2013-06-19 17:10;CYQR 191710Z 10013KT 15SM -SHRA FEW040TCU BKN095 OVC250 22/ RMK TCU2ACC3CI2

CYQR;2013-06-19 18:00;CYQR 191800Z 10019G25KT 15SM FEW040TCU BKN110 BKN250 23/15 A2982 RMK TCU2ACC4CI2 SLP099

CYQR;2013-06-19 19:00;CYQR 191900Z 10016G21KT 15SM FEW060TCU BKN099 BKN280 24/14 A2981 RMK TCU2AC4CI1 SLP096

CYQR;2013-06-19 19:09;CYQR 191909Z 09014G19KT 15SM TS FEW060CB BKN095 BKN280 24/ RMK CB2AC4CI1

CYQR;2013-06-19 19:18;CYQR 191918Z 09013G21KT 15SM -TSRA SCT060CB BKN095 BKN280 23/ RMK CB3AC3CI1

CYQR;2013-06-19 20:00;CYQR 192000Z 07012KT 15SM -TSRA BKN025CB BKN095 OVC280 21/16 A2983 RMK CB5AC2CI1 SLP103

CYQR;2013-06-19 20:26;CYQR 192026Z 09011G16KT 15SM -SHRA BKN030CB BKN089 OVC280 21/ RETS RMK CB5AC2CI1

CYQR;2013-06-19 21:00;CYQR 192100Z 07009KT 15SM -SHRA SCT024CB OVC087 20/16 A2984 RETS RMK CB3AC5 SLP110

CYQR;2013-06-19 22:00;CYQR 192200Z 06021G27KT 15SM FEW060TCU OVC083 21/15 A2982 RMK TCU2AC6 SLP104

CYQR;2013-06-19 22:17;CYQR 192217Z 07022G28KT 15SM -SHRA FEW050TCU OVC080 21/ RMK TCU2ACC6

CYQR;2013-06-19 22:52;CYQR 192252Z 06022G30KT 15SM -TSRA SCT050CB BKN080 21/ RMK CB3AC4

CYQR;2013-06-19 23:00;CYQR 192300Z 06022G30KT 15SM -TSRA SCT050CB BKN080 21/14 A2980 RMK CB3AC4 SLP095

CYQR;2013-06-20 00:00;CYQR 200000Z 04010G20KT 10SM -TSRA BKN050CB OVC080 19/15 A2984 RMK CB5AC3 SLP108

CYQR;2013-06-20 01:00;CYQR 200100Z 08023G31KT 15SM -TSRA SCT050CB BKN095 21/15 A2979 RMK CB3AC3 SLP093

CYQR;2013-06-20 01:27;CYQR 200127Z 09022G33KT 15SM VCSH SCT050CB SCT095 BKN300 22/ RETS RMK CB3AC1CI1

CYQR;2013-06-20 02:00;CYQR 200200Z 08020G28KT 15SM VCSH FEW050CB SCT095 BKN300 21/14 A2977 RETS RMK CB2AC1CI1 SLP087

CYQR;2013-06-20 03:00;CYQR 200300Z 08023G31KT 15SM VCSH FEW050CB SCT062 BKN095 BKN300 21/15 A2981 RMK CB2SC1AC2CI1 MAMMATUS ACC ASOCTD SLP092

CYQR;2013-06-20 04:00;CYQR 200400Z 09027G35KT 15SM FEW050CB FEW095 SCT300 20/14 A2979 RMK CB1AC1CI1 SLP087

CYQR;2013-06-20 05:00;CYQR 200500Z 09026G34KT 15SM FEW059CB FEW095 OVC300 19/13 A2979 RMK CB2AC1CI4 LTGIC DSNT NE-E SLP086

CYQR;2013-06-20 06:00;CYQR 200600Z 09023G32KT 15SM FEW062 OVC300 18/13 A2980 RMK SC2CI4 SLP092

CYQR;2013-06-20 07:00;CYQR 200700Z 09027G34KT 15SM FEW065 BKN300 18/12 A2979 RMK SC1CI4 SLP088

CYQR;2013-06-20 08:00;CYQR 200800Z 09020G31KT 15SM FEW040CB SCT300 17/12 A2979 RMK CB1CI2 LTGIC DSNT S SLP088

CYQR;2013-06-20 09:00;CYQR 200900Z 09023G31KT 15SM FEW040CB FEW080 SCT300 16/09 A2981 RMK CB2AC1CI0 LTGICCC S-SW-W SLP097

CYQR;2013-06-20 10:00;CYQR 201000Z 09022G33KT 15SM FEW040CB SCT080 BKN300 16/08 A2980 RMK CB2AC2CI2 LTGICCCCG SE-S-SW-W SLP095

CYQR;2013-06-20 10:24;CYQR 201024Z 23021G27KT 15SM VCSH SCT040CB BKN080 BKN300 16/ RMK CB3AC2CI2 WND SHFT 1020 LTGICCCCG SE-S-SW-W-NW

CYQR;2013-06-20 10:27;CYQR 201027Z CCA 23021G27KT 15SM VCSH SCT040CB BKN080 BKN300 16/ RMK CB3AC2CI2 WND SHFT 1020 LTGICCCCG SE-S-SW-W-NW PRESRR

CYQR;2013-06-20 10:40;CYQR 201040Z 18012G28KT 15SM VCSH BKN042CB BKN081 BKN300 16/ RMK CB5AC2CI1 WND SHFT LTGICCCCG SE-SW-W-NW PRESRR

CYQR;2013-06-20 11:00;CYQR 201100Z 11008G18KT 15SM SHRA BKN040CB BKN081 BKN300 16/10 A2995 RMK CB5AC2CI1 LTGICCCCG SW-S-SW-W-NW SLP142

CYQR;2013-06-20 11:07;CYQR 201107Z 15007KT 15SM -TSRA BKN040CB BKN081 BKN300 15/ RMK CB5AC2CI1 LTGICCCCG SE-S-SW-W-NW

CYQR;2013-06-20 11:09;CYQR 201109Z CCA 15007KT 15SM -TSRA BKN040CB BKN081 BKN300 15/ RERA RMK CB5AC2CI1 LTGICCCCG SE-S-SW-W-NW

CYQR;2013-06-20 12:00;CYQR 201200Z 10014KT 10SM -TSRA BKN045CB OVC081 13/11 A2991 RERA RMK CB6AC2 SLP135

CYQR;2013-06-20 12:30;CYQR 201230Z 09018G24KT 6SM SHRA OVC029 13/ RETS RMK SC8 CVCTV CLD EMBD

CYQR;2013-06-20 12:42;CYQR 201242Z 10017G26KT 6SM TSRA OVC027CB 13/ RMK CB8

CYQR;2013-06-20 13:00;CYQR 201300Z 09020KT 4SM TSRA OVC017CB 13/12 A2986 RMK CB8 PRESFR SLP117

CYQR;2013-06-20 13:23;CYQR 201323Z 07025G33KT 8SM -SHRA BKN017CB BKN080 OVC250 13/ RETS RMK CB5AC2CI1 PRESFR

CYQR;2013-06-20 14:00;CYQR 201400Z 07028G36KT 15SM -SHRA BKN020TCU BKN080 BKN250 13/12 A2970 RETS RMK TCU5AC2CI1 PRESFR SLP066

CYQR;2013-06-20 14:42;CYQR 201442Z 09022KT 15SM BKN040 BKN100 OVC250 14/ RMK SC5AC2CI1 TCU ASOCTD

CYQR;2013-06-20 15:00;CYQR 201500Z 09021G29KT 15SM FEW010 BKN040 BKN100 OVC250 14/12 A2977 RMK SF2SC3AC2CI2 TCU ASOCTD SLP086

CYQR;2013-06-20 16:00;CYQR 201600Z 14010G15KT 15SM BKN014 BKN120 OVC250 15/13 A2984 RMK SC5AC2CI2 SLP107

CYQR;2013-06-20 16:14;CYQR 201614Z 14007KT 15SM SCT016 BKN120 OVC250 16/ RMK SC3AC2CI2

CYQR;2013-06-20 17:00;CYQR 201700Z 16006KT 15SM FEW020 SCT035 BKN120 BKN250 18/15 A2985 RMK SC1SC3AC1CI1 SLP110

CYQR;2013-06-20 18:00;CYQR 201800Z 14005KT 15SM BKN023 BKN120 BKN280 19/15 A2986 RMK SC6AC1CI1 CU ASOCTD SLP114

CYQR;2013-06-20 19:00;CYQR 201900Z 14007KT 15SM BKN023 OVC085 20/16 A2989 RMK SC7AC1 CU ASOCTD SLP123

CYQR;2013-06-20 20:00;CYQR 202000Z 16011KT 15SM SCT023 BKN043 21/16 A2988 RMK SC4SC3 CVCTV CLD ASOCTD SLP120

CYQR;2013-06-20 21:00;CYQR 202100Z 13012KT 15SM BKN024CB BKN073 20/16 A2987 RMK CB6AC2 DIST LTG S-W SLP119

CYQR;2013-06-20 21:34;CYQR 202134Z 13009KT 15SM -SHRA BKN024CB OVC073 20/ RMK CB6AC2 LTGCG S-SW

CYQR;2013-06-20 21:44;CYQR 202144Z 16007KT 12SM -TSRA BKN024CB OVC073 19/ RMK CB6AC2

CYQR;2013-06-20 21:50;CYQR 202150Z 16011KT 2SM TSRA BKN024CB OVC073 18/ RMK CB7AC1

CYQR;2013-06-20 22:00;CYQR 202200Z 13013KT 2SM TSRA BR FEW007 BKN020CB OVC070 17/16 A2987 RERA RMK SF2CB6AC1 LTGIC NE-S SLP119

CYQR;2013-06-20 22:21;CYQR 202221Z 13012G21KT 3SM +TSRA BKN008 OVC018CB 16/ RMK SF5CB3 LTGIC NE-SE

CYQR;2013-06-20 22:29;CYQR 202229Z 14010G15KT 1 3/4SM +TSRA BR BKN008 BKN015CB OVC050 15/ RMK SF4CB3SC1 LTGIC NE-SE

CYQR;2013-06-20 22:34;CYQR 202234Z 13011KT 1 3/4SM TSRA BR BKN008 BKN015CB OVC050 15/ RERA RMK SF4CB3SC1

CYQR;2013-06-20 23:00;CYQR 202300Z 09007KT 7SM -TSRA SCT006 BKN015CB OVC050 15/15 A2987 RMK SF2CB5SC1 VIS N-E 2 RERA /R20/ SLP118

CYQR;2013-06-20 23:33;CYQR 202333Z 08009KT 12SM VCSH FEW006 BKN021 BKN060 18/ RETS RMK SF1SC5SC2 CB EMBD VIS LWR W

CYQR;2013-06-21 00:00;CYQR 210000Z 07009KT 15SM BKN030 OVC060TCU 18/16 A2985 RETS RMK SC6TCU2 CB ASOCTD SLP115

CYQR;2013-06-21 01:00;CYQR 210100Z 20005KT 15SM BKN028TCU OVC050 19/17 A2986 RMK TCU6SC2 SLP119

CYQR;2013-06-21 02:00;CYQR 210200Z 18006KT 15SM SCT016TCU BKN046 BKN250 18/17 A2987 RMK TCU3SC2CI1 SLP123

CYQR;2013-06-21 03:00;CYQR 210300Z 31008KT 15SM VCSH SCT016TCU BKN023 BKN250 17/16 A2990 RMK TCU3SC2CI2 SLP132

CYQR;2013-06-21 03:09;CYQR 210309Z 36004KT 15SM -SHRA SCT016TCU BKN023 BKN250 17/ RMK TCU3SC2CI2

CYQR;2013-06-21 03:35;CYQR 210335Z 01003KT 15SM VCSH BKN016TCU BKN023 BKN250 16/ RMK TCU5SC1CI0

CYQR;2013-06-21 04:00;CYQR 210400Z 07003KT 15SM VCSH SCT016TCU BKN080 BKN250 16/15 A2991 RMK TCU3AC2CI1 CB EMBD LTGICCG SE SLP134

CYQR;2013-06-21 05:00;CYQR 210500Z 36005KT 15SM FEW016TCU SCT250 15/15 A2990 RMK TCU2CI2 CB EMBD LTGICCG SE SLP132

CYQR;2013-06-21 06:00;CYQR 210600Z 26002KT 1/2SM R13/1800V2800FT/U FG SKC 14/14 A2991 RMK FG4 SLP133

CYQR;2013-06-21 06:42;CYQR 210642Z 28002KT 1/4SM R13/1400FT/N FG SKC 12/ RMK FG5

CYQR;2013-06-21 07:00;CYQR 210700Z 22003KT 1/4SM R13/1100V1600FT/U FG SKC 12/12 A2992 RMK FG6 SLP138

CYQR;2013-06-21 07:38;CYQR 210738Z 27005KT 1/4SM R13/1400FT/N FG VV001 12/ RMK FG8

CYQR;2013-06-21 08:00;CYQR 210800Z 29005KT 1/2SM R13/2600V3500FT/U FG VV001 13/13 A2991 RMK FG8 SLP136

CYQR;2013-06-21 08:26;CYQR 210826Z 32002KT 3/4SM R13/P6000FT/U BR OVC001 13/ RMK ST8

CYQR;2013-06-21 09:04;CYQR 210904Z 32003KT 1/4SM R13/1400V1800FT/N FG SKC 12/ RMK FG6

CYQR;2013-06-21 10:00;CYQR 211000Z 28003KT 1/4SM R13/1400FT/N FG VV001 11/11 A2992 RMK FG8 SLP139

CYQR;2013-06-21 10:43;CYQR 211043Z 29002KT 1/2SM R13/2800FT/N FG VV001 11/ RMK FG8

CYQR;2013-06-21 11:00;CYQR 211100Z 23003KT 1/4SM R13/2800FT/N FG VV001 12/12 A2995 RMK FG8 SLP148

CYQR;2013-06-21 11:33;CYQR 211133Z 29005KT 1/2SM R13/2800V4500FT/N FG VV001 12/ RMK FG8

CYQR;2013-06-21 11:46;CYQR 211146Z 33003KT 1/4SM R13/1400V1800FT/N FG VV001 12/ RMK FG8

CYQR;2013-06-21 12:00;CYQR 211200Z 00000KT 1/4SM R13/1200FT/N FG VV001 12/12 A2997 RMK FG8 SLP156

CYQR;2013-06-21 12:16;CYQR 211216Z 00000KT 1/8SM R13/1200V1800FT/N FG VV001 13/ RMK FG8

CYQR;2013-06-21 12:44;CYQR 211244Z 00000KT 1/4SM R13/2000FT/N FG VV001 14/ RMK FG8

CYQR;2013-06-21 13:00;CYQR 211300Z 23002KT 1/4SM R13/1600FT/N FG VV001 14/14 A2998 RMK FG8 SLP160

CYQR;2013-06-21 13:14;CYQR 211314Z 20002KT 1/8SM R13/2800VP6000FT/N FG VV001 14/ RMK FG8

CYQR;2013-06-21 13:27;CYQR 211327Z 22002KT 1/4SM R13/P6000FT/U FG VV001 14/ RMK FG8

CYQR;2013-06-21 13:34;CYQR 211334Z 00000KT 1/2SM R13/P6000FT/N FG OVC001 14/ RMK FG3SF5

CYQR;2013-06-21 13:46;CYQR 211346Z 00000KT 1 1/2SM BR OVC001 14/ RMK ST8

CYQR;2013-06-21 13:51;CYQR 211351Z 29002KT 3SM BR OVC001 14/ RMK ST8

CYQR;2013-06-21 14:00;CYQR 211400Z 26002KT 2 1/2SM BR OVC002 14/14 A2998 RMK ST8 SLP159

CYQR;2013-06-21 14:33;CYQR 211433Z 27003KT 4SM BR OVC003 14/ RMK ST8

CYQR;2013-06-21 15:00;CYQR 211500Z 24005KT 5SM BR OVC004 15/15 A3001 RMK SF8 SLP169

CYQR;2013-06-21 15:29;CYQR 211529Z 25003KT 12SM FEW004 BKN009 BKN090 16/ RMK SF2SC5AC1

CYQR;2013-06-21 15:42;CYQR 211542Z 27005KT 15SM BKN012 BKN300 16/ RMK SC6CI1

CYQR;2013-06-21 16:00;CYQR 211600Z 25004KT 15SM SCT012 BKN100 BKN300 17/15 A3002 RMK SC4AC2CI2 SLP174

CYQR;2013-06-21 17:00;CYQR 211700Z 28004KT 15SM FEW015 FEW100 BKN300 18/14 A3002 RMK CF1AC2CI1 SLP174

CYQR;2013-06-21 18:00;CYQR 211800Z 26008KT 15SM FEW028 FEW100 BKN300 20/13 A3002 RMK CF1AC2CI2 SLP173

CYQR;2013-06-21 19:00;CYQR 211900Z 25008KT 15SM FEW040 FEW100 FEW300 21/11 A3002 RMK CF1AC1CI1 TR CF SLP173

CYQR;2013-06-21 20:00;CYQR 212000Z 33005KT 15SM FEW040 SCT092 BKN270 20/09 A3001 RMK CF1AC3CI4 TR CF SLP168

CYQR;2013-06-21 21:00;CYQR 212100Z 32004KT 15SM FEW040 SCT100 BKN270 21/11 A3001 RMK SC1AC3CI4 SLP168

CYQR;2013-06-21 22:00;CYQR 212200Z 36008KT 15SM FEW045CB FEW100 BKN270 22/11 A3000 RMK CB2AC1CI2 SH DIST E-SE SLP163

CYQR;2013-06-21 23:00;CYQR 212300Z 05006KT 15SM SCT045CB SCT100 BKN270 22/11 A3000 RMK CB3AC1CI2 SH DIST E-S SLP166

CYQR;2013-06-22 00:00;CYQR 220000Z 11010KT 15SM FEW045 FEW063CB BKN100 BKN270 20/11 A3002 RMK CU1CB2AC3CI2 SLP172

CYQR;2013-06-22 01:00;CYQR 220100Z 15007KT 15SM VCSH FEW045TCU SCT087 BKN270 19/12 A3001 RMK TCU2AC2CI2 SLP171

CYQR;2013-06-22 02:00;CYQR 220200Z 15005KT 15SM FEW040TCU BKN089 BKN270 19/10 A3001 RMK TCU2AC3CI2 SLP170

CYQR;2013-06-22 03:00;CYQR 220300Z 09005KT 15SM FEW040TCU SCT089 BKN270 17/12 A3000 RMK TCU1AC2CI2 CB ASOCTD DSNT N SLP167

CYQR;2013-06-22 04:00;CYQR 220400Z 15003KT 15SM FEW090 BKN270 17/13 A3000 RMK AC2CI3 SLP168

CYQR;2013-06-22 05:00;CYQR 220500Z 11006KT 15SM SCT098 OVC270 16/13 A3001 RMK AC3CI5 SLP170

CYQR;2013-06-22 05:28;CYQR 220528Z 12004KT 15SM -RA OVC063 16/ RMK SC8

CYQR;2013-06-22 06:00;CYQR 220600Z 14004KT 12SM -RA BKN028 OVC046 16/13 A3003 RMK SC5SC3 SLP174

CYQR;2013-06-22 07:00;CYQR 220700Z 19004KT 12SM -RA OVC044 15/14 A3000 RMK SC8 SLP165

CYQR;2013-06-22 08:00;CYQR 220800Z 09006KT 15SM -RA OVC053 14/13 A2996 RMK SC8 SLP153

CYQR;2013-06-22 09:00;CYQR 220900Z 08006KT 15SM -RA OVC069 14/13 A2998 RMK AC8 SLP158

CYQR;2013-06-22 09:39;CYQR 220939Z 01005KT 15SM BKN069 14/ RMK AC7

CYQR;2013-06-22 10:00;CYQR 221000Z 34006KT 15SM BKN066 14/13 A2997 RMK AC7 SLP155

CYQR;2013-06-22 11:00;CYQR 221100Z 35005KT 15SM SCT063 BKN088 BKN250 13/13 A2997 RMK SC3AC3CI1 SLP153

CYQR;2013-06-22 12:00;CYQR 221200Z 34006KT 15SM FEW020TCU SCT063 BKN090 BKN250 14/13 A2996 RMK TCU1SC3AC3CI1 TCU E ACC ASOCTD SLP151

CYQR;2013-06-22 13:00;CYQR 221300Z 34010KT 15SM BKN063 15/14 A2995 RMK SC4 SLP147

CYQR;2013-06-22 14:00;CYQR 221400Z 02008KT 15SM FEW010 FEW065 FEW320 17/14 A2992 RMK CF1SC1CI0 SLP140

CYQR;2013-06-22 15:00;CYQR 221500Z 09007KT 15SM FEW020 FEW100 SCT300 18/13 A2991 RMK CU1AC1CI0 SLP135

CYQR;2013-06-22 16:00;CYQR 221600Z 03007KT 15SM SCT025 BKN100 20/13 A2993 RMK CU4AC1 SLP140

CYQR;2013-06-22 17:00;CYQR 221700Z 36004KT 15SM BKN040 BKN100 BKN300 19/13 A2993 RMK CU6AC1CI0 SLP140

CYQR;2013-06-22 18:00;CYQR 221800Z 33004KT 15SM BKN034 BKN300 20/13 A2992 RMK CU6CI0 SLP137

CYQR;2013-06-22 19:00;CYQR 221900Z 33004KT 15SM BKN038 BKN300 20/13 A2992 RMK CU6CI0 SLP135

CYQR;2013-06-22 20:00;CYQR 222000Z 21004KT 15SM BKN045 BKN300 22/12 A2990 RMK CU6CI1 TCU EMBD SLP129

CYQR;2013-06-22 21:00;CYQR 222100Z 28008KT 15SM BKN051 BKN300 22/12 A2988 RMK CU6CI1 TCU EMBD SLP123

CYQR;2013-06-22 22:00;CYQR 222200Z 20002KT 15SM BKN055 BKN300 22/12 A2986 RMK CU5CI1 TCU ASOCTD SLP116

CYQR;2013-06-22 23:00;CYQR 222300Z 34003KT 15SM SCT050 BKN090 BKN300 21/13 A2986 RMK CU4AC1CI0 TCU ASOCTD SLP114

CYQR;2013-06-23 00:00;CYQR 230000Z 24002KT 15SM SCT050 SCT095 BKN300 23/12 A2985 RMK CU3AC1CI2 TCU ASOCTD SLP110

CYQR;2013-06-23 01:00;CYQR 230100Z 24002KT 15SM FEW052 SCT300 22/12 A2983 RMK CU2CI0 TCU ASOCTD SH DIST N SLP104

CYQR;2013-06-23 02:00;CYQR 230200Z 33007KT 15SM VCSH SCT054TCU BKN300 20/14 A2983 RMK TCU4CI2 SLP106

CYQR;2013-06-23 03:00;CYQR 230300Z 00000KT 15SM VCSH FEW056TCU SCT300 19/14 A2983 RMK TCU2CI0 SH E SLP104

CYQR;2013-06-23 04:00;CYQR 230400Z 31003KT 15SM FEW050 SCT110 BKN300 17/13 A2984 RMK SC1AC1CI0 OBS TAKEN -08 SLP106

CYQR;2013-06-23 05:00;CYQR 230500Z 10006KT 15SM FEW050 BKN270 15/13 A2982 RMK SC1CI2 SLP102

CYQR;2013-06-23 06:00;CYQR 230600Z 10005KT 15SM FEW050 BKN270 14/13 A2981 RMK SC1CI2 SLP101

CYQR;2013-06-23 07:00;CYQR 230700Z 09003KT 15SM FEW080 BKN280 14/13 A2979 RMK AC1CI3 SLP094

CYQR;2013-06-23 08:00;CYQR 230800Z 12003KT 15SM BKN070 OVC280 14/13 A2977 RMK AC6CI2 SLP088

CYQR;2013-06-23 09:00;CYQR 230900Z 12004KT 15SM FEW035 BKN067 15/13 A2976 RMK SC1AC7 SLP081

CYQR;2013-06-23 10:00;CYQR 231000Z 13003KT 15SM OVC075 15/13 A2975 RMK AC8 SLP078

CYQR;2013-06-23 11:00;CYQR 231100Z 18002KT 15SM FEW010 FEW040 BKN097 14/13 A2975 RMK CF1SC2AC6 SLP077

CYQR;2013-06-23 12:00;CYQR 231200Z 25003KT 15SM FEW010 SCT087 BKN300 14/13 A2972 RMK CF1AC2CI4 SLP068

CYQR;2013-06-23 13:00;CYQR 231300Z 00000KT 15SM FEW012 SCT100 BKN200 BKN300 15/14 A2971 RMK CU1AC2CI2CI2 SLP065

CYQR;2013-06-23 14:00;CYQR 231400Z 00000KT 15SM FEW012TCU SCT100 BKN160 BKN300 16/14 A2973 RMK TCU1AC3AC3CI1 SLP069

CYQR;2013-06-23 15:00;CYQR 231500Z 26004KT 15SM BKN076 BKN110 BKN300 17/13 A2972 RMK AC5AC2CI1 SLP067

CYQR;2013-06-23 16:00;CYQR 231600Z 25008KT 15SM FEW024 FEW110 SCT300 19/13 A2970 RMK CF1AC1CI1 SLP061

CYQR;2013-06-23 17:00;CYQR 231700Z 30010G15KT 15SM FEW033 FEW110 SCT300 20/12 A2968 RMK CU1AC1CI1 SLP056

CYQR;2013-06-23 18:00;CYQR 231800Z 27012G17KT 15SM SCT037 SCT110 BKN300 20/12 A2968 RMK CU3AC1CI0 TCU ASOCTD SLP053

CYQR;2013-06-23 19:00;CYQR 231900Z 28012G18KT 15SM SCT039 BKN300 21/13 A2967 RMK CU4CI1 TCU ASOCTD SLP050

CYQR;2013-06-23 20:00;CYQR 232000Z 27013KT 15SM BKN044 BKN100 BKN300 20/11 A2966 RMK CU5AC1CI1 TCU ASOCTD SLP047

CYQR;2013-06-23 21:00;CYQR 232100Z 30011G20KT 15SM SCT045 SCT090 BKN300 20/12 A2965 RMK CU3AC1CI2 TCU ASOCTD CB TOP E SLP044

CYQR;2013-06-23 22:00;CYQR 232200Z 31014G19KT 15SM FEW045 FEW090 BKN300 21/12 A2965 RMK CU2AC1CI1 TCU ASOCTD SLP043

CYQR;2013-06-23 23:00;CYQR 232300Z 30014G19KT 15SM FEW046 SCT300 21/11 A2965 RMK CU2CI1 SLP044

CYQR;2013-06-24 00:00;CYQR 240000Z 29012G18KT 15SM FEW046 FEW080 FEW300 21/11 A2965 RMK CU2AC1CI1 TCU ASOCTD SLP043

CYQR;2013-06-24 01:00;CYQR 240100Z 30015KT 15SM FEW052 FEW080 FEW300 20/10 A2965 RMK CU1AC1CI1 TCU ASOCTD SLP045

CYQR;2013-06-24 02:00;CYQR 240200Z 31007KT 15SM FEW052 FEW080 FEW300 19/11 A2966 RMK CU1AC1CI1 TCU ASOCTD SLP046

CYQR;2013-06-24 03:00;CYQR 240300Z 27007KT 15SM FEW050TCU FEW080 FEW300 16/11 A2966 RMK TCU1AC1CI1 SLP048

CYQR;2013-06-24 04:00;CYQR 240400Z 25007KT 15SM FEW080 FEW300 14/11 A2967 RMK AC1CI1 SLP051

CYQR;2013-06-24 05:00;CYQR 240500Z 24006KT 15SM SKC 12/11 A2967 RMK SLP051

CYQR;2013-06-24 06:00;CYQR 240600Z 26007KT 15SM SKC 12/11 A2966 RMK SLP051

CYQR;2013-06-24 07:00;CYQR 240700Z 26006KT 15SM SKC 11/10 A2967 RMK SLP053

CYQR;2013-06-24 08:00;CYQR 240800Z 25005KT 15SM SKC 10/10 A2968 RMK SLP056

CYQR;2013-06-24 09:00;CYQR 240900Z 28006KT 15SM SKC 09/09 A2968 RMK SLP057

CYQR;2013-06-24 10:00;CYQR 241000Z 25005KT 15SM FEW080 FEW250 09/08 A2969 RMK AC1CI1 SLP062

CYQR;2013-06-24 11:00;CYQR 241100Z 20006KT 15SM FEW080 FEW250 09/09 A2970 RMK AC1CI1 SLP065

CYQR;2013-06-24 12:00;CYQR 241200Z 20002KT 15SM SKC 11/10 A2970 RMK SLP064

CYQR;2013-06-24 13:00;CYQR 241300Z 31003KT 15SM FEW004 14/12 A2971 RMK SF1 SLP065

CYQR;2013-06-24 14:00;CYQR 241400Z 21002KT 15SM SKC 16/12 A2971 RMK SLP067

CYQR;2013-06-24 15:00;CYQR 241500Z 26003KT 15SM FEW300 18/12 A2972 RMK CI0 SLP067

CYQR;2013-06-24 16:00;CYQR 241600Z 30003KT 15SM FEW300 20/12 A2973 RMK CI1 SLP070

CYQR;2013-06-24 17:00;CYQR 241700Z 13002KT 15SM FEW300 21/11 A2972 RMK CI1 SLP069

CYQR;2013-06-24 18:00;CYQR 241800Z 22002KT 15SM FEW045 FEW300 22/12 A2972 RMK CF1CI1 SLP068

CYQR;2013-06-24 19:00;CYQR 241900Z 25004KT 15SM FEW045 FEW300 23/12 A2971 RMK CF1CI1 SLP066

CYQR;2013-06-24 20:00;CYQR 242000Z 29004KT 15SM FEW045 FEW300 24/12 A2970 RMK CF1CI0 SLP063

CYQR;2013-06-24 21:00;CYQR 242100Z 25002KT 15SM FEW045 FEW300 25/12 A2971 RMK CF1CI0 SLP063

CYQR;2013-06-24 22:00;CYQR 242200Z 20006KT 15SM FEW050 SCT300 26/12 A2971 RMK CF1CI0 SLP063

CYQR;2013-06-24 23:00;CYQR 242300Z 14009KT 15SM FEW055 BKN300 26/12 A2971 RMK CF1CI1 SLP063

CYQR;2013-06-25 00:00;CYQR 250000Z 09002KT 15SM FEW060 BKN300 25/13 A2970 RMK CF1CI1 SLP061

CYQR;2013-06-25 01:00;CYQR 250100Z 15008KT 15SM FEW300 25/13 A2969 RMK CI1 SLP057

CYQR;2013-06-25 02:00;CYQR 250200Z 10009KT 15SM BKN300 24/13 A2969 RMK CI1 CONTRAILS SLP056

CYQR;2013-06-25 03:00;CYQR 250300Z 11008KT 15SM FEW110 SCT300 22/14 A2969 RMK AC1CI0 SLP056

CYQR;2013-06-25 04:00;CYQR 250400Z 11007KT 15SM FEW028 FEW110 21/13 A2970 RMK CU1AC1 OBS TAKEN -07 SLP059

CYQR;2013-06-25 05:00;CYQR 250500Z 10012KT 15SM FEW066 SCT320 20/13 A2968 RMK AC1CI1 SLP051

CYQR;2013-06-25 06:00;CYQR 250600Z 10014KT 15SM SCT051 BKN320 20/13 A2968 RMK SC2CI1 SLP051

CYQR;2013-06-25 07:00;CYQR 250700Z 11015KT 15SM SCT052 BKN076 OVC320 20/13 A2969 RMK SC3AC2CI2 SLP052

CYQR;2013-06-25 07:45;CYQR 250745Z 11013KT 15SM TS BKN052CB OVC072 20/ RMK CB5AC3 LTGIC NE

CYQR;2013-06-25 08:00;CYQR 250800Z 11012G18KT 15SM TS BKN052CB OVC072 20/13 A2965 RMK CB5AC3 LTGCG SW LTGCC N-NE SLP041

CYQR;2013-06-25 09:00;CYQR 250900Z 11011KT 15SM BKN052TCU OVC070 20/13 A2966 RETS RMK TCU5AC3 SLP042

CYQR;2013-06-25 09:32;CYQR 250932Z 24011G20KT 15SM TS BKN029CB OVC041 19/ RMK CB5SC3 WIND SHFT 0925Z

CYQR;2013-06-25 09:41;CYQR 250941Z 23014G20KT 15SM -TSRA BKN029CB OVC040 20/ RMK CB5SC3

CYQR;2013-06-25 10:00;CYQR 251000Z 29015KT 15SM -TSRA BKN029 OVC320 18/15 A2971 RMK SC7CI1 CB EMBD LTG SW-W SLP057

CYQR;2013-06-25 10:27;CYQR 251027Z 34009KT 15SM -SHRA BKN025TCU OVC320 17/ RETS RMK TCU6CI2

CYQR;2013-06-25 11:00;CYQR 251100Z 36007KT 15SM -SHRA BKN025TCU BKN055 OVC320 17/16 A2970 RETS RMK TCU5SC2CI2 SLP055

CYQR;2013-06-25 12:00;CYQR 251200Z 03009KT 15SM VCSH FEW020CB SCT060 OVC320 17/16 A2965 RMK CB2SC1CI5 CB/SH NE-SE MVG EWD SLP038

CYQR;2013-06-25 13:00;CYQR 251300Z 32006KT 15SM VCSH FEW025CB SCT050 BKN075 OVC320 17/16 A2967 RMK CB2SC2AC2CI1 CB/SH SE SLP047

CYQR;2013-06-25 13:16;CYQR 251316Z 04006KT 15SM -TSRA FEW025CB SCT050 BKN075 OVC320 17/ RMK CB2SC2AC2CI1 LTGICCG SE-S

CYQR;2013-06-25 13:52;CYQR 251352Z 10019G27KT 15SM -SHRA FEW025CB BKN060 OVC300 17/ RETS RMK CB2SC4CI1 LTGICCG SE

CYQR;2013-06-25 14:00;CYQR 251400Z 10017G27KT 15SM -RA FEW025CB BKN060 OVC300 17/15 A2961 RETS RMK CB2SC5CI1 LTGICCG SE SLP026

CYQR;2013-06-25 15:00;CYQR 251500Z 09022G32KT 15SM -SHRA FEW010 BKN030 OVC300 16/15 A2957 RMK SC1SC6CI0 CVCTV CLD EMBD SLP016

CYQR;2013-06-25 16:00;CYQR 251600Z 12007KT 15SM FEW012 SCT045 BKN090 OVC300 17/15 A2962 RMK CF1SC3AC3CI0 SLP030

CYQR;2013-06-25 17:00;CYQR 251700Z 07005KT 15SM FEW012 FEW035TCU SCT090 OVC300 18/16 A2963 RMK CU1TCU1AC1CI6 SLP035

CYQR;2013-06-25 17:34;CYQR 251734Z 17007KT 15SM BKN014 BKN090 OVC300 20/ RMK SC5AC2CI1

CYQR;2013-06-25 18:00;CYQR 251800Z 16009KT 15SM BKN014 OVC090 20/17 A2967 RMK SC7AC1 CU ASOCTD SLP049

CYQR;2013-06-25 18:50;CYQR 251850Z 13010G15KT 15SM BKN020 OVC090 21/ RMK SC7AC1

CYQR;2013-06-25 19:00;CYQR 251900Z 14009G15KT 15SM BKN020 OVC090 21/17 A2968 RMK SC7AC1 SLP052

CYQR;2013-06-25 20:00;CYQR 252000Z 14009G18KT 15SM FEW020 SCT065 BKN090 BKN300 22/18 A2967 RMK CU2SC2AC1CI1 SLP047

CYQR;2013-06-25 21:00;CYQR 252100Z 11013G20KT 15SM FEW025 BKN055 BKN100 OVC300 22/17 A2967 RMK CU2SC3AC2CI1 SLP048

CYQR;2013-06-25 22:00;CYQR 252200Z 12011KT 15SM FEW025 SCT050 SCT100 OVC280 22/17 A2967 RMK CU2SC2AC1CI3 SLP048

CYQR;2013-06-25 23:00;CYQR 252300Z 13010KT 15SM FEW030 SCT050TCU SCT100 OVC280 21/17 A2966 RMK CU2TCU2AC1CI3 SLP045

CYQR;2013-06-25 23:21;CYQR 252321Z 13011KT 15SM -SHRA FEW014 SCT060 SCT100 BKN280 21/ RMK CU2SC2ACC1CI3 TCU ASOCTD

CYQR;2013-06-25 23:50;CYQR 252350Z 16009KT 15SM FEW014 SCT060 BKN090 OVC280 21/ RMK CU2SC2ACC2CI2 TCU ASOCTD

CYQR;2013-06-26 00:00;CYQR 260000Z 14009KT 15SM FEW014 SCT060 BKN090 OVC280 21/17 A2966 RMK CU2SC2ACC2CI2 TCU ASOCTD SLP047

CYQR;2013-06-26 01:00;CYQR 260100Z 13008KT 15SM FEW014TCU FEW060 SCT160 BKN280 21/18 A2965 RMK TCU1SC1AC1CI2 SLP044

CYQR;2013-06-26 02:00;CYQR 260200Z 13007KT 15SM FEW026TCU SCT094 SCT280 21/18 A2966 RMK TCU2AC2CI1 SLP047

CYQR;2013-06-26 03:00;CYQR 260300Z 23004KT 15SM FEW025TCU FEW280 20/18 A2966 RMK TCU1CI0 SLP048

CYQR;2013-06-26 04:00;CYQR 260400Z 27004KT 15SM FEW020 FEW055 FEW230 18/16 A2968 RMK CU1SC1CI1 OBS TAKEN -10 SLP054

CYQR;2013-06-26 05:00;CYQR 260500Z 22003KT 15SM FEW020 FEW230 16/16 A2968 RMK SC1CI0 SLP052

CYQR;2013-06-26 06:00;CYQR 260600Z 00000KT 15SM SKC 16/15 A2967 RMK SLP052

CYQR;2013-06-26 07:00;CYQR 260700Z 25005KT 15SM R13/3000VP6000FT/U MIFG SKC 15/15 A2967 RMK MIFG E-SE SLP052

CYQR;2013-06-26 08:00;CYQR 260800Z 21005KT 15SM SKC 14/14 A2968 RMK SLP055

CYQR;2013-06-26 09:00;CYQR 260900Z 20005KT 15SM FEW100 14/13 A2968 RMK AC1 SLP053

CYQR;2013-06-26 10:00;CYQR 261000Z 22005KT 15SM FEW035 12/12 A2968 RMK SC1 SLP055

CYQR;2013-06-26 11:00;CYQR 261100Z 26006KT 15SM FEW035 FEW210 12/12 A2968 RMK SC1CI0 SLP054

CYQR;2013-06-26 12:00;CYQR 261200Z 27006KT 15SM FEW035 FEW210 14/14 A2969 RMK SC1CI1 SLP059

CYQR;2013-06-26 13:00;CYQR 261300Z 27008KT 15SM FEW035 FEW120 SCT250 17/15 A2970 RMK SC1AC1CI0 ACC ASOCTD SLP062

CYQR;2013-06-26 14:00;CYQR 261400Z 27012KT 15SM FEW040 FEW120 SCT250 20/15 A2971 RMK SC1AC1CI0 ACC ASOCTD SLP066

CYQR;2013-06-26 15:00;CYQR 261500Z 28012KT 15SM FEW040 FEW120 FEW250 21/13 A2972 RMK SC1AC1CI0 TR SC ACC ASOCTD SLP065

CYQR;2013-06-26 16:00;CYQR 261600Z 27016KT 15SM FEW040 FEW120 FEW250 21/13 A2972 RMK CU1ACC1CI1 SLP066

CYQR;2013-06-26 17:00;CYQR 261700Z 27014G22KT 15SM FEW040 FEW120 23/12 A2972 RMK CF1ACC1 SLP065

CYQR;2013-06-26 18:00;CYQR 261800Z 25017G22KT 15SM FEW052 FEW120 FEW250 24/12 A2972 RMK CU1ACC1CI1 TCU ASOCTD SLP064

CYQR;2013-06-26 19:00;CYQR 261900Z 27018G27KT 15SM FEW052 FEW120 FEW250 24/13 A2972 RMK CU1AC1CI1 TCU + ACC ASOCTD SLP065

CYQR;2013-06-26 20:00;CYQR 262000Z 28016G22KT 15SM FEW055 25/13 A2972 RMK CU2 TCU TOPS NW-N SLP065

CYQR;2013-06-26 21:00;CYQR 262100Z 29016G27KT 15SM SCT053 SCT250 24/13 A2973 RMK CU3CI1 TCU ASOCTD SLP071

CYQR;2013-06-26 22:00;CYQR 262200Z 30015G22KT 15SM FEW049TCU FEW250 25/14 A2975 RMK TCU2CI0 SLP075

CYQR;2013-06-26 23:00;CYQR 262300Z 30023G28KT 15SM SCT046TCU BKN250 24/13 A2975 RMK TCU4CI0 SLP076

CYQR;2013-06-27 00:00;CYQR 270000Z 31018G24KT 15SM FEW045TCU FEW080 SCT250 23/13 A2978 RMK TCU1AC1CI1 CB TOP N SLP087

CYQR;2013-06-27 01:00;CYQR 270100Z 32014KT 15SM FEW045CB FEW076 FEW250 22/13 A2979 RMK CB1AC1CI1 SLP091

CYQR;2013-06-27 02:00;CYQR 270200Z 35010KT 15SM FEW040TCU SCT250 22/14 A2981 RMK TCU1CI1 CB TOPS N-NE SLP095

CYQR;2013-06-27 03:00;CYQR 270300Z 20004KT 15SM FEW020TCU FEW250 19/15 A2982 RMK TCU1CI1 SLP101

CYQR;2013-06-27 04:00;CYQR 270400Z 36005KT 15SM FEW020 FEW250 17/13 A2985 RMK CU1CI0 OBS TAKEN -07 SLP108

CYQR;2013-06-27 05:00;CYQR 270500Z 00000KT 15SM FEW025TCU SCT080 BKN250 17/15 A2985 RMK TCU2AC1CI0 SLP108

CYQR;2013-06-27 06:00;CYQR 270600Z 27010KT 12SM -SHRA SCT034CB BKN058 16/14 A2987 RMK CB3SC3 SLP118

CYQR;2013-06-27 06:26;CYQR 270626Z 33004KT 15SM FEW010 SCT035TCU BKN280 16/ RMK SF1TCU2CI0

CYQR;2013-06-27 07:00;CYQR 270700Z 18003KT 15SM FEW018 SCT280 15/14 A2987 RMK SC1CI1 SLP117

CYQR;2013-06-27 08:00;CYQR 270800Z 24004KT 15SM SCT095 13/13 A2987 RMK AC1 SLP118

CYQR;2013-06-27 09:00;CYQR 270900Z 26005KT 15SM FEW092 13/12 A2988 RMK AC1 SLP121

CYQR;2013-06-27 10:00;CYQR 271000Z 27006KT 15SM FEW020 13/12 A2989 RMK SC1 SLP124

CYQR;2013-06-27 11:00;CYQR 271100Z 27006KT 15SM FEW020 FEW280 12/11 A2988 RMK SC1CI0 SLP123

CYQR;2013-06-27 12:00;CYQR 271200Z 29004KT 15SM FEW020 13/12 A2991 RMK SC1 SLP131

CYQR;2013-06-27 13:00;CYQR 271300Z 28008KT 15SM FEW010 FEW100 FEW300 15/13 A2993 RMK SC1AC1CI0 SLP138

CYQR;2013-06-27 14:00;CYQR 271400Z 28008KT 15SM FEW010 FEW300 17/14 A2994 RMK SC1CI1 SLP142

CYQR;2013-06-27 15:00;CYQR 271500Z 32008KT 15SM SKC 19/14 A2995 RMK SLP146

CYQR;2013-06-27 16:00;CYQR 271600Z 30005KT 15SM SKC 21/14 A2996 RMK SLP148

CYQR;2013-06-27 17:00;CYQR 271700Z 31007KT 15SM SKC 23/15 A2997 RMK SLP152

CYQR;2013-06-27 18:00;CYQR 271800Z 33008KT 15SM FEW040 24/13 A2998 RMK CF1 SLP154

CYQR;2013-06-27 19:00;CYQR 271900Z 31012KT 15SM FEW045 25/13 A2999 RMK CU1 SLP156

CYQR;2013-06-27 20:00;CYQR 272000Z 33010G15KT 15SM FEW055 25/13 A2999 RMK CU2 SLP158

CYQR;2013-06-27 21:00;CYQR 272100Z 30010G15KT 15SM FEW058 24/13 A2999 RMK CU2 SLP160

CYQR;2013-06-27 22:00;CYQR 272200Z 32011G21KT 15SM VCSH SCT062 26/13 A3000 RMK CU3 TCU ASOCTD SHWRS E SLP161

CYQR;2013-06-27 23:00;CYQR 272300Z 32017KT 15SM FEW062 26/13 A3000 RMK CU2 TCU ASOCTD SLP163

CYQR;2013-06-28 00:00;CYQR 280000Z CCA 32013KT 15SM FEW066 26/14 A3000 RMK CU1 TCU ASOCTD SLP164

CYQR;2013-06-28 01:00;CYQR 280100Z 33011G16KT 15SM FEW063 25/14 A3002 RMK CU1 SLP168

CYQR;2013-06-28 02:00;CYQR 280200Z 25005KT 15SM FEW050 22/15 A3003 RMK CU1 SLP171

CYQR;2013-06-28 03:00;CYQR 280300Z 20007KT 15SM FEW030 FEW250 20/15 A3003 RMK CU1CI1 SLP173

CYQR;2013-06-28 04:00;CYQR 280400Z 33005KT 15SM FEW030 17/14 A3006 RMK CU1 SLP182

CYQR;2013-06-28 05:00;CYQR 280500Z 29004KT 15SM FEW030 16/14 A3007 RMK CU1 SLP185

CYQR;2013-06-28 06:00;CYQR 280600Z 28005KT 15SM SKC 15/13 A3008 RMK SLP190

CYQR;2013-06-28 07:00;CYQR 280700Z 31002KT 15SM SKC 13/12 A3009 RMK SLP191

CYQR;2013-06-28 08:00;CYQR 280800Z 25002KT 15SM SKC 13/12 A3009 RMK SLP192

CYQR;2013-06-28 09:00;CYQR 280900Z 28003KT 15SM FEW250 12/11 A3009 RMK CI0 SLP195

CYQR;2013-06-28 10:00;CYQR 281000Z 29004KT 15SM FEW100 FEW250 12/12 A3010 RMK AC1CI0 SLP197

CYQR;2013-06-28 11:00;CYQR 281100Z 30003KT 15SM FEW250 11/11 A3010 RMK CI0 SLP199

CYQR;2013-06-28 12:00;CYQR 281200Z 27004KT 15SM FEW100 13/12 A3012 RMK AC1 SLP203

CYQR;2013-06-28 13:00;CYQR 281300Z 29005KT 15SM FEW063 16/14 A3013 RMK SC1 SLP207

CYQR;2013-06-28 14:00;CYQR 281400Z 33010KT 15SM FEW330 19/14 A3014 RMK CI0 CONTRAILS SLP210

CYQR;2013-06-28 15:00;CYQR 281500Z 23007KT 15SM FEW330 21/15 A3015 RMK CI0 SLP211

CYQR;2013-06-28 16:00;CYQR 281600Z 34008KT 15SM FEW330 22/14 A3015 RMK CI0 SLP212

CYQR;2013-06-28 17:00;CYQR 281700Z 34010G16KT 15SM FEW045 FEW330 24/13 A3015 RMK CU1CI1 SLP212

CYQR;2013-06-28 18:00;CYQR 281800Z 34010G18KT 15SM FEW055 FEW330 25/11 A3015 RMK CU1CI1 SLP212

CYQR;2013-06-28 19:00;CYQR 281900Z 35009G17KT 15SM FEW065 FEW330 26/12 A3015 RMK CU1CI1 SLP212

CYQR;2013-06-28 20:00;CYQR 282000Z 32013G19KT 15SM FEW062 25/11 A3014 RMK CU2 SLP210

CYQR;2013-06-28 21:00;CYQR 282100Z 35011KT 15SM SCT070 26/12 A3014 RMK CU3 SLP209

CYQR;2013-06-28 22:00;CYQR 282200Z 35012KT 15SM FEW072 26/12 A3013 RMK CU2 SLP208

CYQR;2013-06-28 23:00;CYQR 282300Z 33013KT 15SM FEW070 26/11 A3012 RMK CU2 SLP205

CYQR;2013-06-29 00:00;CYQR 290000Z 34013KT 15SM FEW075 26/11 A3012 RMK CU2 SLP204

CYQR;2013-06-29 01:00;CYQR 290100Z 33009KT 15SM FEW055 25/13 A3011 RMK CU1 SLP200

CYQR;2013-06-29 02:00;CYQR 290200Z 32009KT 15SM SCT050 23/13 A3011 RMK CU4 SLP199

CYQR;2013-06-29 03:00;CYQR 290300Z 35007KT 15SM FEW040 FEW250 20/14 A3011 RMK CU1CI0 SLP200

CYQR;2013-06-29 04:00;CYQR 290400Z 33005KT 15SM FEW250 18/13 A3011 RMK CI0 SLP200

CYQR;2013-06-29 05:00;CYQR 290500Z 33005KT 15SM SKC 16/13 A3012 RMK SLP202

CYQR;2013-06-29 06:00;CYQR 290600Z 35006KT 15SM SKC 14/12 A3013 RMK SLP206

CYQR;2013-06-29 07:00;CYQR 290700Z 33007KT 15SM SKC 14/12 A3014 RMK SLP208

CYQR;2013-06-29 08:00;CYQR 290800Z 33006KT 15SM SKC 13/12 A3014 RMK SLP209

CYQR;2013-06-29 09:00;CYQR 290900Z CCA 30002KT 15SM SKC 11/10 A3015 RMK SLP215

CYQR;2013-06-29 10:00;CYQR 291000Z 34007KT 15SM FEW250 11/11 A3015 RMK CI0 SLP216

CYQR;2013-06-29 11:00;CYQR 291100Z 33007KT 15SM FEW100 FEW250 11/11 A3017 RMK AC1CI0 SLP221

CYQR;2013-06-29 12:00;CYQR 291200Z 35005KT 15SM FEW250 13/12 A3018 RMK CI1 SLP225

CYQR;2013-06-29 13:00;CYQR 291300Z 36004KT 15SM FEW010 FEW250 15/14 A3019 RMK SC1CI0 SLP227

CYQR;2013-06-29 13:23;CYQR 291323Z 04008KT 15SM BKN008 BKN080 16/ RMK SC7AC1

CYQR;2013-06-29 13:47;CYQR 291347Z 04008KT 8SM OVC005 15/ RMK SF8

CYQR;2013-06-29 14:00;CYQR 291400Z 05007KT 10SM OVC004 15/14 A3020 RMK SF8 SLP230

CYQR;2013-06-29 14:25;CYQR 291425Z 01006KT 15SM OVC006 16/ RMK SF8

CYQR;2013-06-29 15:00;CYQR 291500Z 02005KT 15SM OVC006 16/14 A3020 RMK SF8 SLP234

CYQR;2013-06-29 15:32;CYQR 291532Z 06004KT 15SM SCT009 17/ RMK CU4

CYQR;2013-06-29 15:52;CYQR 291552Z 13002KT 15SM BKN013 18/ RMK CU5

CYQR;2013-06-29 16:00;CYQR 291600Z 02004KT 15SM BKN013 18/15 A3020 RMK CU6 SLP232

CYQR;2013-06-29 16:34;CYQR 291634Z 07004KT 15SM SCT020 20/ RMK CU3

CYQR;2013-06-29 17:00;CYQR 291700Z 36004KT 15SM BKN023 20/14 A3020 RMK CU6 SLP231

CYQR;2013-06-29 18:00;CYQR 291800Z 07005KT 15SM BKN030 22/13 A3019 RMK CU6 SLP230

CYQR;2013-06-29 19:00;CYQR 291900Z 07006KT 15SM BKN037 BKN090 22/14 A3019 RMK CU5AC1 SLP229

CYQR;2013-06-29 20:00;CYQR 292000Z 01007KT 15SM BKN039 BKN090 22/14 A3018 RMK CU6AC1 SLP227

CYQR;2013-06-29 21:00;CYQR 292100Z 05006G15KT 15SM SCT047 BKN320 22/13 A3018 RMK CU4CI0 SLP226

CYQR;2013-06-29 22:00;CYQR 292200Z 07007KT 15SM SCT049 SCT090 SCT320 22/12 A3017 RMK CU3AC0CI1 SLP225

CYQR;2013-06-29 23:00;CYQR 292300Z 16003KT 15SM BKN051 BKN320 23/12 A3017 RMK CU5CI0 SLP224

CYQR;2013-06-30 00:00;CYQR 300000Z 03007KT 15SM FEW054 BKN320 22/12 A3017 RMK CU1CI2 CONTRAILS SLP222

CYQR;2013-06-30 01:00;CYQR 300100Z 09008KT 15SM FEW048 BKN300 22/12 A3015 RMK CU1CI2 SLP217

CYQR;2013-06-30 02:00;CYQR 300200Z 08006KT 15SM FEW050 BKN300 21/12 A3014 RMK CU1CI2 CONTRAILS SLP214

CYQR;2013-06-30 03:00;CYQR 300300Z 08006KT 15SM SCT300 19/13 A3015 RMK CI1 SLP215

CYQR;2013-06-30 04:00;CYQR 300400Z 08005KT 15SM SCT300 17/13 A3016 RMK CI1 SLP219

CYQR;2013-06-30 05:00;CYQR 300500Z 09004KT 15SM FEW300 17/12 A3017 RMK CI0 SLP223

CYQR;2013-06-30 06:00;CYQR 300600Z 08003KT 15SM SKC 16/13 A3018 RMK SLP223

CYQR;2013-06-30 07:00;CYQR 300700Z 07003KT 15SM SKC 16/13 A3018 RMK SLP224

CYQR;2013-06-30 08:00;CYQR 300800Z 09006KT 15SM SKC 14/12 A3017 RMK SLP222

CYQR;2013-06-30 09:00;CYQR 300900Z 10006KT 15SM FEW250 14/13 A3018 RMK CI0 SLP225

CYQR;2013-06-30 10:00;CYQR 301000Z 12005KT 15SM FEW250 14/12 A3019 RMK CI1 SLP227

CYQR;2013-06-30 11:00;CYQR 301100Z 12007KT 15SM FEW100 FEW250 14/13 A3017 RMK AC1CI1 SLP223

CYQR;2013-06-30 12:00;CYQR 301200Z 14008KT 15SM FEW100 BKN250 16/14 A3018 RMK AC1CI2 SLP225

CYQR;2013-06-30 13:00;CYQR 301300Z 15009KT 15SM BKN250 17/15 A3019 RMK CI2 CC ASOCTD SLP228

CYQR;2013-06-30 14:00;CYQR 301400Z 13009KT 15SM BKN250 19/16 A3020 RMK CI1 SLP230

CYQR;2013-06-30 15:00;CYQR 301500Z 14012KT 15SM FEW250 20/16 A3021 RMK CI1 SLP233

CYQR;2013-06-30 16:00;CYQR 301600Z 16011KT 15SM FEW024 FEW320 22/16 A3021 RMK CU1CI0 SLP234

CYQR;2013-06-30 17:00;CYQR 301700Z 15013KT 15SM FEW033 BKN320 24/16 A3021 RMK CU1CI0 SLP234

CYQR;2013-06-30 18:00;CYQR 301800Z 17011G16KT 15SM SCT035 SCT320 25/15 A3021 RMK CU3CI0 SLP232

CYQR;2013-06-30 19:00;CYQR 301900Z 15014KT 15SM SCT042 BKN320 24/14 A3020 RMK CU4CI0 SLP231

CYQR;2013-06-30 20:00;CYQR 302000Z 15009G17KT 15SM FEW045 FEW320 25/14 A3020 RMK CU2CI0 SLP228

CYQR;2013-06-30 21:00;CYQR 302100Z 17014KT 15SM SCT049 BKN320 26/15 A3019 RMK CU4CI0 SLP226

CYQR;2013-06-30 22:00;CYQR 302200Z 14013G21KT 15SM FEW049 BKN330 26/15 A3018 RMK CU2CI0 SLP222

CYQR;2013-06-30 23:00;CYQR 302300Z 14014KT 15SM FEW049 OVC330 26/15 A3018 RMK CU2CI2 SLP222

CYQR;2013-07-01 00:00;CYQR 010000Z 15010G18KT 15SM FEW053 FEW100 OVC330 25/14 A3017 RMK CU1AC1CI5 SLP220

CYQR;2013-07-01 01:00;CYQR 010100Z 15011G17KT 15SM FEW048 SCT100 BKN330 25/14 A3018 RMK CU2AC2CI2 SLP222

CYQR;2013-07-01 02:00;CYQR 010200Z 15009KT 15SM FEW040 BKN083 BKN330 24/14 A3018 RMK SC2AC3CI0 SLP221

CYQR;2013-07-01 03:00;CYQR 010300Z 14010KT 15SM FEW040 BKN083 BKN330 23/15 A3018 RMK SC2AC4CI1 SLP220

CYQR;2013-07-01 04:00;CYQR 010400Z 15012KT 15SM FEW040 BKN100 22/14 A3018 RMK SC2AC6 SLP221

CYQR;2013-07-01 05:00;CYQR 010500Z 15010KT 15SM BKN100 21/14 A3019 RMK AC7 SLP224

CYQR;2013-07-01 06:00;CYQR 010600Z 15010KT 15SM BKN100 20/13 A3020 RMK AC6 SLP226

CYQR;2013-07-01 07:00;CYQR 010700Z 15010G15KT 15SM BKN100 19/13 A3020 RMK AC7 SLP227

CYQR;2013-07-01 08:00;CYQR 010800Z 15009KT 15SM BKN100 18/13 A3021 RMK AC7 SLP230

CYQR;2013-07-01 09:00;CYQR 010900Z 15009KT 15SM BKN100 18/13 A3020 RMK AC7 SLP229

CYQR;2013-07-01 10:00;CYQR 011000Z 14008KT 15SM FEW040 BKN095 17/13 A3021 RMK SC2AC5 SLP231

CYQR;2013-07-01 11:00;CYQR 011100Z 14008KT 15SM FEW040 BKN095 17/13 A3021 RMK SC2AC5 SLP232

CYQR;2013-07-01 12:00;CYQR 011200Z 15010KT 15SM FEW040 BKN097 16/13 A3021 RMK SC2AC5 CVCTV CLD ASOCTD SLP232

CYQR;2013-07-01 13:00;CYQR 011300Z 14008KT 15SM FEW035 SCT095 17/14 A3021 RMK CU1AC4 SLP232

CYQR;2013-07-01 14:00;CYQR 011400Z 15009KT 15SM FEW035 FEW095 21/14 A3021 RMK CU1AC2 SLP233

CYQR;2013-07-01 15:00;CYQR 011500Z 17010KT 15SM FEW095 22/14 A3021 RMK AC1 SLP229

CYQR;2013-07-01 16:00;CYQR 011600Z 17011G16KT 15SM FEW034 FEW100 24/15 A3020 RMK CU1AC1 SLP226

CYQR;2013-07-01 17:00;CYQR 011700Z 19011KT 15SM FEW100 25/16 A3019 RMK AC1 SLP224

CYQR;2013-07-01 18:00;CYQR 011800Z 17011KT 15SM FEW040 FEW120 27/17 A3019 RMK CU1AC1 SLP221

CYQR;2013-07-01 19:00;CYQR 011900Z 16009KT 15SM FEW040 28/17 A3018 RMK CU2 SLP218

CYQR;2013-07-01 20:00;CYQR 012000Z 16007KT 15SM SCT050 28/17 A3016 RMK CU3 SLP214

CYQR;2013-07-01 21:00;CYQR 012100Z 22006KT 15SM SCT052 SCT330 28/16 A3016 RMK CU3CI1 SLP212

CYQR;2013-07-01 22:00;CYQR 012200Z 26008KT 15SM FEW057 SCT330 29/15 A3015 RMK CU2CI0 SLP210

CYQR;2013-07-01 23:00;CYQR 012300Z 24006KT 15SM FEW062 FEW330 29/16 A3015 RMK CU1CI0 SLP208

CYQR;2013-07-02 00:00;CYQR 020000Z 27004KT 15SM FEW052 FEW330 29/16 A3013 RMK CU1CI0 SLP202

CYQR;2013-07-02 01:00;CYQR 020100Z 23005KT 15SM FEW050 FEW330 28/16 A3013 RMK CU1CI1 SLP201

CYQR;2013-07-02 02:00;CYQR 020200Z 24002KT 15SM FEW050 FEW330 27/18 A3012 RMK SC1CI0 SLP199

CYQR;2013-07-02 03:00;CYQR 020300Z 20002KT 15SM FEW050 FEW330 25/18 A3012 RMK SC1CI0 TCU ASOCTD DIST E SLP197

CYQR;2013-07-02 04:00;CYQR 020400Z 00000KT 15SM FEW050 FEW330 22/16 A3013 RMK SC1CI0 TCU ASOCTD SLP201

CYQR;2013-07-02 05:00;CYQR 020500Z 16004KT 15SM SKC 21/17 A3012 RMK SLP199

CYQR;2013-07-02 06:00;CYQR 020600Z 16007KT 15SM SKC 21/17 A3013 RMK SLP200

CYQR;2013-07-02 07:00;CYQR 020700Z 15005KT 15SM SKC 20/17 A3013 RMK SLP200

CYQR;2013-07-02 08:00;CYQR 020800Z 12005KT 15SM SKC 17/16 A3013 RMK SLP201

CYQR;2013-07-02 09:00;CYQR 020900Z 12005KT 15SM FEW050 FEW330 16/16 A3012 RMK SC1CI0 SLP201

CYQR;2013-07-02 10:00;CYQR 021000Z 11006KT 15SM FEW300 16/15 A3012 RMK CI0 SLP199

CYQR;2013-07-02 11:00;CYQR 021100Z 11006KT 15SM FEW070 FEW300 15/14 A3012 RMK ACC1CI0 SLP200

CYQR;2013-07-02 12:00;CYQR 021200Z 11005KT 15SM FEW070 FEW300 16/15 A3013 RMK AC1CI0 SLP202

CYQR;2013-07-02 13:00;CYQR 021300Z 11004KT 15SM FEW025 FEW070 19/16 A3013 RMK CF1AC1 SLP202

CYQR;2013-07-02 14:00;CYQR 021400Z 16004KT 15SM FEW070 FEW300 22/17 A3013 RMK AC1CI1 SLP201

CYQR;2013-07-02 15:00;CYQR 021500Z 13004KT 15SM FEW090 FEW310 24/18 A3012 RMK AC1CI1 SLP196

CYQR;2013-07-02 16:00;CYQR 021600Z 16003KT 15SM FEW090 26/17 A3011 RMK AC1 SLP195

CYQR;2013-07-02 17:00;CYQR 021700Z 18008KT 15SM FEW040 FEW100 28/18 A3011 RMK CU1AC1 SLP193

CYQR;2013-07-02 18:00;CYQR 021800Z 18005KT 15SM FEW048 29/17 A3009 RMK CU2 SLP187

CYQR;2013-07-02 19:00;CYQR 021900Z 18010KT 15SM SCT054 30/16 A3009 RMK CU3 SLP185

CYQR;2013-07-02 20:00;CYQR 022000Z 16009G16KT 15SM FEW064 30/16 A3007 RMK CU2 SLP180

CYQR;2013-07-02 21:00;CYQR 022100Z 16010KT 15SM FEW071 31/14 A3006 RMK CU2 SLP176

CYQR;2013-07-02 22:00;CYQR 022200Z 18008KT 15SM FEW056 30/16 A3004 RMK CU2 SLP171

CYQR;2013-07-02 23:00;CYQR 022300Z 18008KT 15SM FEW060 30/15 A3002 RMK CU1 SLP165

CYQR;2013-07-03 00:00;CYQR 030000Z 18012KT 15SM FEW060 30/15 A3001 RMK CU1 SLP161

CYQR;2013-07-03 01:00;CYQR 030100Z 18013KT 15SM FEW060 FEW330 29/15 A3000 RMK SC1CI0 SLP156

CYQR;2013-07-03 02:00;CYQR 030200Z 16012KT 15SM FEW330 27/17 A2998 RMK CI0 SLP150

CYQR;2013-07-03 03:00;CYQR 030300Z 16009KT 15SM FEW230 SCT330 25/17 A2996 RMK CI0CI0 SLP142

CYQR;2013-07-03 04:00;CYQR 030400Z 16012KT 15SM FEW300 23/17 A2996 RMK CI0 SLP140

CYQR;2013-07-03 05:00;CYQR 030500Z 16012KT 15SM FEW300 22/17 A2993 RMK CI0 SLP133

CYQR;2013-07-03 06:00;CYQR 030600Z 16010KT 15SM FEW300 21/17 A2992 RMK CI0 SLP129

CYQR;2013-07-03 07:00;CYQR 030700Z 17010KT 15SM SKC 20/16 A2991 RMK SLP126

CYQR;2013-07-03 08:00;CYQR 030800Z 17010KT 15SM SKC 20/15 A2991 RMK SLP124

CYQR;2013-07-03 09:00;CYQR 030900Z 15008KT 15SM FEW280 18/14 A2989 RMK CI0 SLP119

CYQR;2013-07-03 10:00;CYQR 031000Z 14010KT 15SM FEW180 BKN300 17/14 A2987 RMK AC1CI1 SLP113

CYQR;2013-07-03 11:00;CYQR 031100Z 15009KT 12SM FEW180 BKN300 17/14 A2986 RMK AC1CI1 SLP108

CYQR;2013-07-03 12:00;CYQR 031200Z 14010KT 12SM BKN300 17/14 A2985 RMK CI0 SLP104

CYQR;2013-07-03 13:00;CYQR 031300Z 15011G16KT 15SM SCT300 18/15 A2983 RMK CI0 CONTRAILS SLP100

CYQR;2013-07-03 14:00;CYQR 031400Z 15012KT 12SM SCT300 20/15 A2981 RMK CI0 SLP093

CYQR;2013-07-03 15:00;CYQR 031500Z 16013KT 15SM FEW300 23/16 A2981 RMK CI1 SLP089

CYQR;2013-07-03 16:00;CYQR 031600Z 16012KT 12SM FEW320 25/17 A2978 RMK CI0 SLP081

CYQR;2013-07-03 17:00;CYQR 031700Z 16015KT 15SM FEW320 28/18 A2975 RMK CI1 SLP072

CYQR;2013-07-03 18:00;CYQR 031800Z 17015G21KT 15SM FEW040 FEW100 FEW320 30/19 A2974 RMK CU1ACC1CI1 SLP065

CYQR;2013-07-03 19:00;CYQR 031900Z 17018KT 15SM FEW056 FEW100 FEW320 32/17 A2971 RMK CU1ACC1CI1 SLP056

CYQR;2013-07-03 20:00;CYQR 032000Z 20018G24KT 15SM FEW056 FEW100 FEW320 33/19 A2970 RMK CU1ACC1CI1 SLP052

CYQR;2013-07-03 21:00;CYQR 032100Z 21016G25KT 15SM FEW064 FEW320 34/18 A2969 RMK CU2CI0 SLP049

CYQR;2013-07-03 22:00;CYQR 032200Z 28014G21KT 12SM FEW052 FEW320 33/20 A2969 RMK CU1CI0 SLP047

CYQR;2013-07-03 23:00;CYQR 032300Z 29015KT 12SM FEW052 FEW320 31/21 A2968 RMK CU1CI0 TCU ASOCTD SLP044

CYQR;2013-07-04 00:00;CYQR 040000Z 32019G24KT 12SM FEW050 30/21 A2969 RMK CU2 SLP049

CYQR;2013-07-04 01:00;CYQR 040100Z 33022KT 15SM FEW053TCU FEW100 FEW320 26/21 A2971 RMK TCU1AC1CI1 SLP055

CYQR;2013-07-04 02:00;CYQR 040200Z 34018G27KT 15SM FEW050 FEW100 25/20 A2973 RMK CU1AC1 CB TOPS DIST S-E SLP062

CYQR;2013-07-04 03:00;CYQR 040300Z 34015G21KT 15SM FEW020 23/19 A2975 RMK CU1 SLP071

CYQR;2013-07-04 04:00;CYQR 040400Z 34009KT 15SM FEW330 21/18 A2978 RMK CI1 CB TOPS DIST SE-E SLP080

CYQR;2013-07-04 05:00;CYQR 040500Z 34010KT 15SM SKC 20/18 A2979 RMK SLP083

CYQR;2013-07-04 06:00;CYQR 040600Z 34009KT 15SM SKC 18/16 A2980 RMK SLP086

CYQR;2013-07-04 07:00;CYQR 040700Z 33007KT 15SM SKC 16/15 A2981 RMK SLP090

CYQR;2013-07-04 08:00;CYQR 040800Z 34008KT 15SM SKC 15/14 A2981 RMK SLP091

CYQR;2013-07-04 09:00;CYQR 040900Z 32006KT 15SM SKC 15/14 A2982 RMK SLP093

CYQR;2013-07-04 10:00;CYQR 041000Z 32008KT 15SM FEW030 14/14 A2982 RMK SC1 SLP095

CYQR;2013-07-04 11:00;CYQR 041100Z 28005KT 15SM FEW070 FEW160 13/13 A2983 RMK AC1AC0 SLP098

CYQR;2013-07-04 12:00;CYQR 041200Z 30005KT 15SM FEW080 14/14 A2984 RMK AC1 SLP104

CYQR;2013-07-04 13:00;CYQR 041300Z 34008KT 15SM FEW080 16/15 A2985 RMK AC1 SLP106

CYQR;2013-07-04 14:00;CYQR 041400Z 34008KT 15SM FEW080 FEW300 19/15 A2986 RMK AC1CI0 ACC ASOCTD SLP109

CYQR;2013-07-04 15:00;CYQR 041500Z 33009KT 15SM FEW080 FEW300 21/16 A2986 RMK ACC1CI1 SLP109

CYQR;2013-07-04 16:00;CYQR 041600Z 33008KT 15SM SKC 23/16 A2985 RMK SLP108

CYQR;2013-07-04 17:00;CYQR 041700Z 34010KT 15SM FEW040 24/14 A2985 RMK CU1 SLP108

CYQR;2013-07-04 18:00;CYQR 041800Z 34007KT 15SM FEW050 25/14 A2985 RMK CU1 SLP107

CYQR;2013-07-04 19:00;CYQR 041900Z 02008KT 15SM FEW058 26/13 A2985 RMK CU2 SLP106

CYQR;2013-07-04 20:00;CYQR 042000Z 03006KT 15SM FEW058 26/12 A2984 RMK CU2 SLP105

CYQR;2013-07-04 21:00;CYQR 042100Z 36007KT 15SM FEW060 FEW350 26/12 A2984 RMK CU2CI1 SLP106

CYQR;2013-07-04 22:00;CYQR 042200Z 34005KT 15SM FEW067 SCT350 27/12 A2983 RMK CU2CI1 SLP102

CYQR;2013-07-04 23:00;CYQR 042300Z 33005KT 15SM FEW067 BKN350 27/12 A2982 RMK CU1CI2 SLP099

CYQR;2013-07-05 00:00;CYQR 050000Z 33003KT 15SM FEW067 BKN350 26/12 A2981 RMK CU1CI2 SLP096

CYQR;2013-07-05 01:00;CYQR 050100Z 01002KT 15SM FEW070 BKN350 26/13 A2980 RMK AC1CI1 SLP093

CYQR;2013-07-05 02:00;CYQR 050200Z 00000KT 15SM FEW068 FEW100 FEW350 25/12 A2980 RMK AC1AC1CI1 SLP091

CYQR;2013-07-05 03:00;CYQR 050300Z 10007KT 15SM FEW100 FEW300 22/12 A2979 RMK AC1CI1 SLP086

CYQR;2013-07-05 04:00;CYQR 050400Z 12004KT 15SM FEW280 20/12 A2981 RMK CI1 OBS TAKEN -10 SLP092

CYQR;2013-07-05 05:00;CYQR 050500Z 13007KT 15SM SCT250 18/13 A2981 RMK CI1 SLP092

CYQR;2013-07-05 06:00;CYQR 050600Z 12006KT 15SM SCT085 BKN250 18/13 A2980 RMK AC3CI2 SLP089

CYQR;2013-07-05 07:00;CYQR 050700Z 13006KT 15SM BKN110 OVC250 19/13 A2979 RMK AC6CI2 SLP087

CYQR;2013-07-05 08:00;CYQR 050800Z 15009KT 15SM BKN100 OVC250 19/13 A2979 RMK AC6CI2 SLP088

CYQR;2013-07-05 09:00;CYQR 050900Z 14007KT 15SM OVC100 19/14 A2980 RMK AC8 SLP088

CYQR;2013-07-05 10:00;CYQR 051000Z 14006KT 15SM BKN097 18/14 A2978 RMK AC6 SLP082

CYQR;2013-07-05 11:00;CYQR 051100Z 13007KT 15SM BKN089 18/14 A2977 RMK AC6 SLP081

CYQR;2013-07-05 12:00;CYQR 051200Z 12007KT 15SM FEW015TCU FEW090 SCT280 17/14 A2976 RMK TCU1AC1CI2 SLP078

CYQR;2013-07-05 13:00;CYQR 051300Z 12006KT 15SM FEW015TCU BKN098 OVC280 18/14 A2977 RMK TCU1AC4CI1 SLP080

CYQR;2013-07-05 14:00;CYQR 051400Z 27006KT 12SM FEW040TCU BKN088 OVC280 18/15 A2981 RMK TCU1AC6CI1 ACC EMBD SLP092

CYQR;2013-07-05 14:48;CYQR 051448Z 00000KT 12SM -SHRA BKN057TCU BKN090 OVC280 18/ RMK TCU5AC2CI1

CYQR;2013-07-05 15:00;CYQR 051500Z 17003KT 12SM -SHRA FEW020 BKN049TCU BKN090 OVC280 18/16 A2980 RMK SC2TCU5AC1CI0 SLP091

CYQR;2013-07-05 16:00;CYQR 051600Z 13003KT 15SM FEW026 SCT047TCU BKN083 OVC280 19/16 A2979 RMK SC1TCU3AC2CI2 SLP088

CYQR;2013-07-05 17:00;CYQR 051700Z 21004KT 15SM FEW012 FEW050 BKN100 OVC300 20/17 A2982 RMK CF1SC2AC4CI2 ACC ASOCTD SLP098

CYQR;2013-07-05 18:00;CYQR 051800Z 21007KT 15SM -SHRA FEW018 BKN089 OVC300 19/16 A2981 RMK SC2AC4CI2 ACC EMBD SLP099

CYQR;2013-07-05 19:00;CYQR 051900Z 17013KT 15SM FEW015 SCT090 BKN300 20/17 A2977 RMK CU1AC3CI2 SLP085

CYQR;2013-07-05 20:00;CYQR 052000Z 16010KT 15SM FEW020 FEW090 FEW300 23/18 A2979 RMK CU1AC2CI1 SLP091

CYQR;2013-07-05 21:00;CYQR 052100Z 18010KT 15SM FEW027 FEW090 SCT300 23/17 A2979 RMK CU2AC1CI2 SLP089

CYQR;2013-07-05 22:00;CYQR 052200Z 15004KT 15SM FEW032 FEW073 BKN210 23/15 A2978 RMK CU1AC1CI3 SLP084

CYQR;2013-07-05 23:00;CYQR 052300Z 16005KT 15SM FEW032 FEW071 BKN310 24/16 A2976 RMK CU1AC2CI2 TCU ASOCTD SLP080

CYQR;2013-07-06 00:00;CYQR 060000Z 18005KT 15SM SCT074 BKN180 OVC310 23/16 A2977 RMK AC3AS2CI2 SLP081

CYQR;2013-07-06 01:00;CYQR 060100Z 12007KT 15SM FEW024 BKN074 OVC310 23/17 A2975 RMK CU1AC5CI2 SLP076

CYQR;2013-07-06 02:00;CYQR 060200Z 18005KT 15SM FEW024 BKN070 BKN310 22/16 A2975 RMK CU2ACC3CI2 TCU AOSCTD SLP076

CYQR;2013-07-06 03:00;CYQR 060300Z 12007KT 15SM VCSH BKN068TCU BKN300 21/16 A2976 RMK TCU6CI2 SLP078

CYQR;2013-07-06 04:00;CYQR 060400Z 34010G16KT 15SM -SHRA OVC053 18/16 A2980 RMK SC8 CVCTV CLD EMBD OBS TAKEN +05 SLP092

CYQR;2013-07-06 05:00;CYQR 060500Z 34003KT 15SM -SHRA BKN022 OVC050 17/16 A2980 RMK SC6SC2 LTG DIST SW SLP091

CYQR;2013-07-06 06:00;CYQR 060600Z 00000KT 15SM -SHRA BKN030 OVC060 17/16 A2978 RMK SC6SC2 -SHRA OCNL CVCTV CLD EMBD SLP088

CYQR;2013-07-06 06:41;CYQR 060641Z 05003KT 15SM BKN027 OVC100 17/ RMK SC6AC2

CYQR;2013-07-06 07:00;CYQR 060700Z 08005KT 15SM BKN027 OVC066 17/16 A2977 RMK SC6AC2 SLP085

CYQR;2013-07-06 08:00;CYQR 060800Z 03005KT 15SM OVC079 18/17 A2976 RMK AC8 SLP080

CYQR;2013-07-06 09:00;CYQR 060900Z 05005KT 15SM OVC074 18/16 A2976 RMK AC8 SLP077

CYQR;2013-07-06 10:00;CYQR 061000Z 07006KT 15SM -SHRA OVC062 18/16 A2975 RMK SC7 CVCTV CLD EMBD SLP074

CYQR;2013-07-06 10:27;CYQR 061027Z 08006KT 15SM BKN060 OVC280 18/ RMK SC6CI2

CYQR;2013-07-06 11:00;CYQR 061100Z 10007KT 15SM SCT035 BKN060 OVC280 18/17 A2972 RMK SC3SC2CI2 SLP067

CYQR;2013-07-06 11:54;CYQR 061154Z 17006KT 15SM TS SCT020CB BKN038 BKN300 18/ RMK CB3SC2CI2

CYQR;2013-07-06 12:00;CYQR 061200Z 26012G17KT 15SM -TSRA FEW007 SCT020CB BKN038 OVC280 17/16 A2975 RMK SF1CB3SC3CI1 SLP074

CYQR;2013-07-06 12:26;CYQR 061226Z 31009KT 15SM -SHRA SCT006 BKN015CB OVC280 15/ RETS RMK SC4CB3CI1

CYQR;2013-07-06 13:00;CYQR 061300Z 34006KT 10SM -TSRA BKN003 OVC021CB 16/15 A2974 RMK SF7CB1 SLP071

CYQR;2013-07-06 13:09;CYQR 061309Z 05005KT 15SM -TSRA SCT003 BKN021CB OVC058 16/ RMK SF4CB3SC1

CYQR;2013-07-06 13:27;CYQR 061327Z 02007KT 15SM -SHRA FEW003 BKN023 OVC050 16/ RETS RMK SF1SC6SC1 CB EMBD

CYQR;2013-07-06 14:00;CYQR 061400Z 09009KT 15SM FEW003 OVC023 17/16 A2972 RETS RMK SF1SC7 CVCTV CLD EMBD SLP066

CYQR;2013-07-06 14:05;CYQR 061405Z 09009KT 12SM -SHRA FEW003 OVC019 17/ RMK SF1SC7 CVCTV CLD EMBD

CYQR;2013-07-06 14:08;CYQR 061408Z 09009KT 12SM -TSRA FEW003 OVC019CB 17/ RMK SF1CB7 LTNG W

CYQR;2013-07-06 14:21;CYQR 061421Z 11006KT 8SM TSRA FEW003 OVC013CB 17/ RMK SF1CB7 LTNG ALQDS

CYQR;2013-07-06 14:27;CYQR 061427Z 12006KT 12SM -TSRA FEW003 OVC013CB 17/ RERA RMK SF1CB7 LTNG ALQDS

CYQR;2013-07-06 14:30;CYQR 061430Z 15010KT 2SM TSRA FEW003 OVC013CB 17/ RMK SF1CB7

CYQR;2013-07-06 14:34;CYQR 061434Z 11010KT 1 1/2SM +TSRA OVC009CB 17/ RMK CB8

CYQR;2013-07-06 14:39;CYQR 061439Z 09008KT 10SM -TSRA BKN009 OVC020CB 17/ RERA RMK SF5CB3 LTNG ALQDS

CYQR;2013-07-06 15:00;CYQR 061500Z 07005KT 8SM -TSRA BKN008 OVC020CB 17/16 A2971 RERA RMK SF5CB3 SLP063

CYQR;2013-07-06 15:30;CYQR 061530Z 10011KT 15SM -SHRA BKN004 BKN015 17/ RMK SF5SC2

CYQR;2013-07-06 15:42;CYQR 061542Z 10013KT 15SM SCT004 BKN030 BKN110 17/ RETS RMK SF4SC2AC1 /R11/

CYQR;2013-07-06 16:00;CYQR 061600Z 11010G15KT 15SM FEW004 BKN020 BKN120 18/17 A2969 RETS RMK SF2SC3AC2 SLP055

CYQR;2013-07-06 16:07;CYQR 061607Z 12012G17KT 15SM BKN005 18/ RMK SF7

CYQR;2013-07-06 16:32;CYQR 061632Z 12013KT 15SM SCT008 BKN030 BKN120 BKN330 19/ RMK SF4SC1AC1CI0

CYQR;2013-07-06 17:00;CYQR 061700Z 15013KT 15SM SCT010 BKN088 BKN330 20/17 A2969 RMK CU3AC2CI0 SLP056

CYQR;2013-07-06 18:00;CYQR 061800Z 21009KT 15SM BKN020 BKN088 22/17 A2970 RMK CU6AC1 TCU ASOCTD SLP058

CYQR;2013-07-06 19:00;CYQR 061900Z 24013KT 15SM VCSH BKN024TCU BKN073 22/16 A2971 RMK TCU6AC1 SLP060

CYQR;2013-07-06 20:00;CYQR 062000Z 30021KT 15SM BKN014TCU OVC039 20/16 A2972 RMK TCU6SC1 SLP066

CYQR;2013-07-06 20:08;CYQR 062008Z 30017G26KT 15SM SCT014TCU BKN059 20/ RMK TCU3SC3

CYQR;2013-07-06 20:29;CYQR 062029Z 28014G20KT 15SM -SHRA FEW014TCU BKN036 BKN095 18/ RMK TCU2SC2AC2

CYQR;2013-07-06 20:43;CYQR 062043Z 28013KT 15SM FEW014TCU SCT036 BKN095 19/ RMK TCU1SC3AC2

CYQR;2013-07-06 21:00;CYQR 062100Z 28012KT 15SM FEW018TCU BKN036 BKN095 20/16 A2973 RMK TCU1SC4AC1 SLP070

CYQR;2013-07-06 22:00;CYQR 062200Z 30017G22KT 15SM BKN020TCU BKN077 20/16 A2973 RMK TCU6AC1 SLP071

CYQR;2013-07-06 22:30;CYQR 062230Z 29021G27KT 15SM -SHRA BKN020TCU 19/ RMK TCU7

CYQR;2013-07-06 22:46;CYQR 062246Z 30021KT 15SM VCSH BKN020TCU BKN058 19/ RMK TCU6SC1

CYQR;2013-07-06 23:00;CYQR 062300Z 30022KT 15SM SCT020 SCT060 BKN300 20/15 A2974 RMK CU3SC1CI1 TCU ASOCTD SLP074

CYQR;2013-07-07 00:00;CYQR 070000Z 29018G29KT 15SM SCT025 BKN110 20/14 A2976 RMK SC4AC1 SLP079

CYQR;2013-07-07 01:00;CYQR 070100Z 29019G26KT 15SM FEW026 FEW110 19/14 A2976 RMK SC2AC1 SLP081

CYQR;2013-07-07 02:00;CYQR 070200Z 30019G26KT 15SM BKN026 18/13 A2977 RMK SC7 SLP083

CYQR;2013-07-07 03:00;CYQR 070300Z 29016KT 15SM FEW023 FEW045 16/14 A2978 RMK SC1SC1 TCU TOPS DIST SW SLP091

CYQR;2013-07-07 04:00;CYQR 070400Z 27009KT 15SM SCT020 SCT045 15/14 A2981 RMK SC2SC1 SLP101

CYQR;2013-07-07 05:00;CYQR 070500Z 29012KT 15SM BKN020 15/14 A2984 RMK SC6 SLP109

CYQR;2013-07-07 06:00;CYQR 070600Z 28010KT 15SM FEW024 14/13 A2986 RMK SC1 SLP114

CYQR;2013-07-07 07:00;CYQR 070700Z 30008KT 15SM FEW015 14/13 A2986 RMK SC1 SLP114

CYQR;2013-07-07 08:00;CYQR 070800Z 30008KT 15SM FEW010 13/13 A2986 RMK SF1 SLP114

CYQR;2013-07-07 09:00;CYQR 070900Z 26006KT 15SM FEW010 12/12 A2988 RMK SC1 SLP124

CYQR;2013-07-07 10:00;CYQR 071000Z 24005KT 15SM FEW010 FEW280 11/11 A2988 RMK SC1CI0 SLP125

CYQR;2013-07-07 10:44;CYQR 071044Z 26005KT 6SM BR FEW005 BKN019 BKN040 12/ RMK SF1SC6SC1

CYQR;2013-07-07 11:00;CYQR 071100Z 26005KT 8SM FEW003 OVC017 12/12 A2990 RMK SF1SC7 BR SLP132

CYQR;2013-07-07 12:00;CYQR 071200Z 27004KT 12SM FEW003 BKN015 BKN050 14/13 A2991 RMK SF1SC6SC1 SLP133

CYQR;2013-07-07 12:26;CYQR 071226Z 28003KT 15SM FEW003 BKN013 14/ RMK SF1SC6

CYQR;2013-07-07 13:02;CYQR 071302Z 27005KT 15SM BKN007 15/ RMK SC7

CYQR;2013-07-07 13:45;CYQR 071345Z 27009KT 15SM OVC005 15/ RMK SC8

CYQR;2013-07-07 14:00;CYQR 071400Z 29008KT 15SM OVC005 15/14 A2992 RMK SC8 SLP138

CYQR;2013-07-07 14:13;CYQR 071413Z 30009KT 15SM OVC004 16/ RMK SC7

CYQR;2013-07-07 14:33;CYQR 071433Z 28009KT 15SM BKN006 16/ RMK SC7

CYQR;2013-07-07 15:00;CYQR 071500Z 27005KT 15SM SCT007 17/15 A2992 RMK CU3 SLP139

CYQR;2013-07-07 15:47;CYQR 071547Z 31005KT 15SM BKN012 18/ RMK CU6

CYQR;2013-07-07 16:00;CYQR 071600Z 29007KT 15SM BKN012 19/15 A2993 RMK CU6 SLP141

CYQR;2013-07-07 16:19;CYQR 071619Z 29008KT 15SM BKN016 19/ RMK CU6

CYQR;2013-07-07 17:00;CYQR 071700Z 31009KT 15SM BKN021 BKN080 BKN280 20/15 A2993 RMK CU5AC1CI1 SLP142

CYQR;2013-07-07 18:00;CYQR 071800Z 29009G15KT 15SM SCT027 SCT280 21/14 A2993 RMK CU4CI1 SLP141

CYQR;2013-07-07 19:00;CYQR 071900Z 26010KT 15SM FEW033 22/14 A2994 RMK CU2 SLP142

CYQR;2013-07-07 20:00;CYQR 072000Z 26012G17KT 15SM FEW037 23/14 A2994 RMK CU2 SLP143

CYQR;2013-07-07 21:00;CYQR 072100Z 28012KT 15SM FEW046 FEW280 23/13 A2994 RMK CU1CI1 SLP145

CYQR;2013-07-07 22:00;CYQR 072200Z 29008KT 15SM FEW046 FEW100 FEW280 23/12 A2994 RMK CU1ACC1CI1 SLP144

CYQR;2013-07-07 23:00;CYQR 072300Z 24008KT 15SM FEW046 FEW100 FEW280 24/12 A2994 RMK CU1ACC1CI1 SLP143

CYQR;2013-07-08 00:00;CYQR 080000Z 24006KT 15SM FEW070 FEW120 FEW280 24/12 A2992 RMK CU1AC1CI1 SLP137

CYQR;2013-07-08 01:00;CYQR 080100Z 25007KT 15SM FEW046 FEW120 FEW280 23/14 A2992 RMK CU1AC1CI0 SLP136

CYQR;2013-07-08 02:00;CYQR 080200Z 20004KT 15SM FEW045 FEW120 SCT300 21/17 A2992 RMK CU2ACC1CI0 SLP135

CYQR;2013-07-08 03:00;CYQR 080300Z 20003KT 15SM FEW040 FEW120 SCT300 19/15 A2992 RMK SC2ACC1CI0 CB SW SLP138

CYQR;2013-07-08 04:00;CYQR 080400Z 00000KT 15SM SCT020CB BKN040 19/14 A2993 RMK CB3SC2 LTGCGCC SW SLP139

CYQR;2013-07-08 05:00;CYQR 080500Z 21008KT 15SM SCT020CB BKN120 18/14 A2996 RMK CB3AC4 LTGCGCC DIST S-E SLP149

CYQR;2013-07-08 05:10;CYQR 080510Z 18006KT 15SM -SHRA BKN024 17/ RMK SC7 CB + LTGIC DIST E

CYQR;2013-07-08 05:45;CYQR 080545Z 20005KT 15SM BKN024 16/ RMK SC6

CYQR;2013-07-08 06:00;CYQR 080600Z 19004KT 15SM FEW024 BKN045 15/14 A2994 RMK SC2SC2 SLP141

CYQR;2013-07-08 07:00;CYQR 080700Z 21005KT 15SM BKN065 16/14 A2995 RMK SC6 CB + LTGCC SW-S SLP145

CYQR;2013-07-08 07:27;CYQR 080727Z 27008KT 6SM -SHRA OVC038 16/ RMK SC8

CYQR;2013-07-08 08:00;CYQR 080800Z 18007KT 12SM -SHRA BKN015 OVC036 16/15 A2995 RMK SC6SC2 SLP145

CYQR;2013-07-08 08:33;CYQR 080833Z 18004KT 15SM BKN020 BKN036 15/ RMK SC5SC2

CYQR;2013-07-08 09:00;CYQR 080900Z 18002KT 15SM FEW034 SCT057 15/14 A2994 RMK SC2SC2 SLP142

CYQR;2013-07-08 10:00;CYQR 081000Z 19002KT 15SM FEW020 FEW065 15/14 A2996 RMK SC1SC2 SLP148

CYQR;2013-07-08 11:00;CYQR 081100Z 00000KT 15SM R13/3000VP6000FT/D MIFG VCFG FEW065 FEW082 14/14 A2996 RMK SC2ACC1 VIS SW 2 SLP147

CYQR;2013-07-08 12:00;CYQR 081200Z 31003KT 15SM FEW065 FEW082 14/14 A2997 RMK SC1ACC1 SLP151

CYQR;2013-07-08 13:00;CYQR 081300Z 30005KT 15SM FEW067 FEW250 16/15 A2997 RMK AC1CI0 SLP153

CYQR;2013-07-08 14:00;CYQR 081400Z 36005KT 15SM FEW070 FEW230 17/15 A2998 RMK AC1CI1 SLP154

CYQR;2013-07-08 15:00;CYQR 081500Z 01010KT 15SM FEW080 FEW230 FEW330 19/14 A2999 RMK AC1CI1CI0 SLP159

CYQR;2013-07-08 16:00;CYQR 081600Z 35007KT 15SM FEW025 BKN230 20/14 A3000 RMK CF1CI3 SLP161

CYQR;2013-07-08 17:00;CYQR 081700Z 35012KT 15SM FEW025 FEW110 BKN230 BKN330 19/14 A2999 RMK CF1AC1CI4CI1 SLP159

CYQR;2013-07-08 18:00;CYQR 081800Z 36006KT 15SM BKN230 BKN330 19/14 A3000 RMK CI6CI0 SLP163

CYQR;2013-07-08 19:00;CYQR 081900Z 01008KT 15SM FEW150 BKN230 BKN330 20/13 A2999 RMK AC1CI6CI0 SLP162

CYQR;2013-07-08 20:00;CYQR 082000Z 03008KT 15SM FEW150 BKN230 BKN330 21/13 A2999 RMK AC1CI2CI0 SLP160

CYQR;2013-07-08 21:00;CYQR 082100Z 35003KT 15SM FEW040 SCT097 BKN230 BKN330 22/12 A3000 RMK CF1AC2CI2CI1 SLP162

CYQR;2013-07-08 22:00;CYQR 082200Z 27006KT 15SM SCT091 BKN230 21/11 A3000 RMK AC3CI4 SLP163

CYQR;2013-07-08 23:00;CYQR 082300Z 03004KT 15SM FEW097 BKN230 21/12 A2999 RMK AC2CI2 SLP159

CYQR;2013-07-09 00:00;CYQR 090000Z 02008KT 15SM BKN100 BKN230 20/12 A2997 RMK AC5CI1 SLP154

CYQR;2013-07-09 01:00;CYQR 090100Z 04012KT 15SM SCT100 BKN230 20/10 A2995 RMK AC4CI2 SLP146

CYQR;2013-07-09 02:00;CYQR 090200Z 04011KT 15SM FEW080 SCT120 OVC250 19/11 A2994 RMK AC2AC1CI2 SLP145

CYQR;2013-07-09 03:00;CYQR 090300Z 02006KT 15SM BKN110 BKN280 18/12 A2998 RMK AC6CI1 VIRGA SW SLP155

CYQR;2013-07-09 04:00;CYQR 090400Z 03013KT 15SM OVC061 18/12 A2999 RMK SC8 SLP158

CYQR;2013-07-09 05:00;CYQR 090500Z 04007KT 15SM BKN100 17/12 A3001 RMK AC7 SLP166

CYQR;2013-07-09 06:00;CYQR 090600Z 08008KT 15SM BKN100 17/12 A3001 RMK AC7 SLP167

CYQR;2013-07-09 07:00;CYQR 090700Z 09008KT 15SM BKN100 16/12 A2999 RMK AC7 SLP159

CYQR;2013-07-09 08:00;CYQR 090800Z 08007KT 15SM BKN100 16/12 A2997 RMK AC7 SLP155

CYQR;2013-07-09 09:00;CYQR 090900Z 04005KT 15SM BKN100 15/11 A2998 RMK AC7 SLP157

CYQR;2013-07-09 10:00;CYQR 091000Z 30002KT 15SM BKN068 OVC100 14/13 A3001 RMK AC6AC2 SLP166

CYQR;2013-07-09 10:24;CYQR 091024Z 00000KT 10SM -SHRA OVC047 14/ RMK SC8

CYQR;2013-07-09 10:52;CYQR 091052Z 09007KT 15SM BKN032 OVC100 14/ RMK SC6AC2

CYQR;2013-07-09 11:00;CYQR 091100Z 10005KT 15SM BKN032 OVC100 14/12 A3001 RMK SC6AC2 SLP167

CYQR;2013-07-09 12:00;CYQR 091200Z 10003KT 15SM OVC085 14/13 A3004 RMK AC8 SLP177

CYQR;2013-07-09 13:00;CYQR 091300Z 11002KT 15SM FEW039 BKN085 OVC300 14/12 A3006 RMK SC2AC4CI2 SLP186

CYQR;2013-07-09 14:00;CYQR 091400Z 11002KT 15SM FEW037 OVC110 14/12 A3007 RMK SC2AS6 SLP189

CYQR;2013-07-09 15:00;CYQR 091500Z 12002KT 12SM FEW012 BKN090 OVC300 16/11 A3009 RMK SC1AC6CI2 SLP194

CYQR;2013-07-09 16:00;CYQR 091600Z 00000KT 12SM FEW012 OVC110 16/10 A3009 RMK CF1AS7 SLP196

CYQR;2013-07-09 17:00;CYQR 091700Z 30004KT 12SM FEW024 SCT110 OVC300 17/11 A3011 RMK CU2AC2CI2 SLP202

CYQR;2013-07-09 18:00;CYQR 091800Z 32005KT 12SM FEW028 BKN300 18/11 A3011 RMK CU2CI0 SLP203

CYQR;2013-07-09 19:00;CYQR 091900Z 31006KT 10SM FEW032 SCT320 19/11 A3010 RMK CU1CI0 SLP200

CYQR;2013-07-09 20:00;CYQR 092000Z 33004KT 10SM FEW036 SCT320 20/10 A3010 RMK CU1CI1 SLP200

CYQR;2013-07-09 21:00;CYQR 092100Z 26005KT 10SM FEW044 BKN320 21/11 A3010 RMK CU1CI2 SLP196

CYQR;2013-07-09 22:00;CYQR 092200Z 30006KT 10SM FEW040 SCT320 22/12 A3010 RMK CU1CI0 SLP196

CYQR;2013-07-09 23:00;CYQR 092300Z 23007KT 10SM FEW040 FEW320 22/12 A3009 RMK CF1CI0 SLP194

CYQR;2013-07-10 00:00;CYQR 100000Z 25004KT 10SM FEW040 FEW320 22/13 A3008 RMK CF1CI0 SLP192

CYQR;2013-07-10 01:00;CYQR 100100Z 25002KT 10SM FEW030 FEW320 22/13 A3007 RMK CF1CI0 SLP189

CYQR;2013-07-10 02:00;CYQR 100200Z 18005KT 15SM FEW030 20/15 A3006 RMK CF1 SLP186

CYQR;2013-07-10 03:00;CYQR 100300Z 19007KT 15SM FEW030 17/14 A3006 RMK SC1 SLP186

CYQR;2013-07-10 04:00;CYQR 100400Z 18007KT 15SM FEW030 16/14 A3007 RMK SC1 SLP189

CYQR;2013-07-10 05:00;CYQR 100500Z 18007KT 15SM FEW056 15/13 A3007 RMK SC2 SLP189

CYQR;2013-07-10 06:00;CYQR 100600Z 19007KT 15SM FEW056 15/13 A3006 RMK SC1 SLP188

CYQR;2013-07-10 07:00;CYQR 100700Z 19006KT 15SM FEW055 13/13 A3006 RMK SC1 SLP186

CYQR;2013-07-10 08:00;CYQR 100800Z 21007KT 15SM SKC 14/13 A3005 RMK SLP183

CYQR;2013-07-10 09:00;CYQR 100900Z 21006KT 10SM SKC 13/12 A3004 RMK SLP179

CYQR;2013-07-10 10:00;CYQR 101000Z 20005KT 10SM FEW030 12/12 A3003 RMK SC1 SLP176

CYQR;2013-07-10 11:00;CYQR 101100Z 21006KT 10SM FEW100 12/12 A3003 RMK AC1 SLP175

CYQR;2013-07-10 12:00;CYQR 101200Z 22005KT 10SM FEW100 13/13 A3003 RMK AC1 SLP173

CYQR;2013-07-10 13:00;CYQR 101300Z 22005KT 12SM FEW100 16/14 A3003 RMK AC1 SLP173

CYQR;2013-07-10 14:00;CYQR 101400Z 24007KT 15SM FEW100 19/15 A3002 RMK AC1 SLP172

CYQR;2013-07-10 15:00;CYQR 101500Z 24008KT 15SM SKC 20/15 A3002 RMK SLP169

CYQR;2013-07-10 16:00;CYQR 101600Z 24007KT 15SM SKC 22/16 A3001 RMK SLP166

CYQR;2013-07-10 17:00;CYQR 101700Z 26007KT 15SM FEW032 FEW320 24/17 A3000 RMK CU1CI1 SLP163

CYQR;2013-07-10 18:00;CYQR 101800Z 27005KT 15SM FEW036 FEW320 25/16 A2999 RMK CU1CI1 SLP159

CYQR;2013-07-10 19:00;CYQR 101900Z 23008KT 15SM FEW042 26/15 A2998 RMK CU1 SLP156

CYQR;2013-07-10 20:00;CYQR 102000Z 24004KT 15SM FEW048 26/14 A2997 RMK CF1 SLP152

CYQR;2013-07-10 21:00;CYQR 102100Z 25005KT 15SM FEW050 27/13 A2996 RMK CF1 SLP147

CYQR;2013-07-10 22:00;CYQR 102200Z 23007KT 15SM FEW050 27/15 A2995 RMK CF1 SLP144

CYQR;2013-07-10 23:00;CYQR 102300Z 19006KT 15SM FEW050 27/15 A2994 RMK CF1 SLP140

CYQR;2013-07-11 00:00;CYQR 110000Z 21008KT 15SM SKC 27/15 A2992 RMK SLP134

CYQR;2013-07-11 01:00;CYQR 110100Z 19006KT 15SM SKC 26/16 A2990 RMK SLP128

CYQR;2013-07-11 02:00;CYQR 110200Z 16008KT 15SM SKC 25/16 A2989 RMK SLP123

CYQR;2013-07-11 03:00;CYQR 110300Z 16008KT 15SM SKC 23/16 A2987 RMK SLP116

CYQR;2013-07-11 04:00;CYQR 110400Z 15009KT 15SM SKC 22/16 A2987 RMK SLP114

CYQR;2013-07-11 05:00;CYQR 110500Z 16010KT 15SM SKC 20/16 A2986 RMK SLP112

CYQR;2013-07-11 06:00;CYQR 110600Z 16009KT 15SM SKC 19/16 A2985 RMK SLP108

CYQR;2013-07-11 07:00;CYQR 110700Z 16009KT 15SM SKC 18/15 A2985 RMK SLP106

CYQR;2013-07-11 08:00;CYQR 110800Z 15011KT 15SM SKC 17/14 A2983 RMK SLP102

CYQR;2013-07-11 09:00;CYQR 110900Z 15009KT 15SM SKC 17/14 A2983 RMK SLP100

CYQR;2013-07-11 10:00;CYQR 111000Z 14010KT 15SM SKC 16/14 A2980 RMK SLP092

CYQR;2013-07-11 11:00;CYQR 111100Z 14010KT 15SM SKC 15/14 A2978 RMK SLP086

CYQR;2013-07-11 12:00;CYQR 111200Z 13010KT 12SM FEW080 16/14 A2977 RMK AC1 CB DIST SW SLP081

CYQR;2013-07-11 13:00;CYQR 111300Z 15013G18KT 12SM FEW050 FEW080 FEW330 18/16 A2975 RMK SC1AC1CI1 SLP075

CYQR;2013-07-11 14:00;CYQR 111400Z 20011G17KT 12SM FEW035CB BKN090 BKN130 19/17 A2979 RMK CB2AC4AC1 SH S-NW SLP088

CYQR;2013-07-11 14:10;CYQR 111410Z 22010G17KT 12SM -SHRA FEW031CB BKN090 BKN130 19/ RMK CB2AC4AC1

CYQR;2013-07-11 14:29;CYQR 111429Z 13011KT 15SM VCSH FEW031CB BKN090 BKN130 19/ RMK CB1AC4AC2

CYQR;2013-07-11 15:00;CYQR 111500Z 13010KT 15SM VCSH FEW035TCU BKN090 BKN130 BKN200 20/18 A2971 RMK TCU1AC4AC2CI1 ACC EMBD PRES UNSTDY SLP061

CYQR;2013-07-11 16:00;CYQR 111600Z 15011G18KT 15SM FEW100 FEW250 23/20 A2971 RMK ACC2CI0 SLP059

CYQR;2013-07-11 17:00;CYQR 111700Z 14014KT 15SM FEW060 BKN120 BKN250 26/20 A2968 RMK SC2AC2CI1 CVCTV CLD EMBD W-NW SLP050

CYQR;2013-07-11 18:00;CYQR 111800Z 14014G20KT 15SM SCT060 BKN089 BKN250 26/20 A2966 RMK SC3AC2CI1 CVCTV CLD EMBD SLP042

CYQR;2013-07-11 19:00;CYQR 111900Z 14017G22KT 15SM VCSH SCT047TCU BKN090 BKN250 27/21 A2964 RMK TCU3AC2CI1 ACC ASOCTD SLP035

CYQR;2013-07-11 19:34;CYQR 111934Z 14018KT 15SM -SHRA SCT035TCU BKN090 BKN250 26/ RMK TCU3AC3CI1

CYQR;2013-07-11 20:00;CYQR 112000Z 15018KT 15SM VCSH FEW045TCU BKN093 BKN250 26/20 A2963 RMK TCU2AC4CI1 SLP031

CYQR;2013-07-11 20:08;CYQR 112008Z 14017G22KT 15SM TS FEW045CB BKN093 BKN250 25/ RMK CB2AC4CI1

CYQR;2013-07-11 20:12;CYQR 112012Z 15012G21KT 15SM -TSRA FEW045CB BKN093 BKN250 25/ RMK CB2AC4CI1

CYQR;2013-07-11 20:43;CYQR 112043Z 12010G16KT 15SM VCSH FEW045CB BKN090 BKN250 27/ RETS RMK CB2AC2CI2 CB SE

CYQR;2013-07-11 21:00;CYQR 112100Z 15015G22KT 15SM FEW045CB SCT090 BKN250 28/22 A2962 RETS RMK CB2AC2CI2 SLP027

CYQR;2013-07-11 22:00;CYQR 112200Z 16011G16KT 15SM FEW095 BKN250 28/23 A2962 RMK ACC2CI6 SLP028

CYQR;2013-07-11 23:00;CYQR 112300Z 17007KT 15SM BKN092 OVC250 29/23 A2961 RMK AC5CI3 SLP025

CYQR;2013-07-12 00:00;CYQR 120000Z 21005KT 15SM SCT092 OVC250 29/24 A2960 RMK AC3CI5 SLP022

CYQR;2013-07-12 01:00;CYQR 120100Z 28007KT 15SM BKN100 BKN330 28/22 A2960 RMK AC4CI0 SLP021

CYQR;2013-07-12 02:00;CYQR 120200Z 23004KT 15SM BKN100 BKN330 26/23 A2960 RMK AC6CI1 SLP020

CYQR;2013-07-12 03:00;CYQR 120300Z 19005KT 15SM BKN100 BKN330 24/22 A2959 RMK AC6CI1 SLP019

CYQR;2013-07-12 04:00;CYQR 120400Z 22007KT 15SM BKN100 BKN310 22/21 A2961 RMK AC6CI1 SLP023

CYQR;2013-07-12 05:00;CYQR 120500Z 25005KT 15SM BKN100 22/19 A2962 RMK AC7 SLP027

CYQR;2013-07-12 06:00;CYQR 120600Z 20007KT 15SM BKN100 20/19 A2964 RMK AC7 SLP034

CYQR;2013-07-12 07:00;CYQR 120700Z 21005KT 15SM FEW030 BKN100 20/18 A2965 RMK SC1AC6 SLP036

CYQR;2013-07-12 08:00;CYQR 120800Z 24011KT 15SM TS BKN030CB OVC100 20/18 A2967 RMK CB5AC3 OCNL LTGCG SW-NW SLP043

CYQR;2013-07-12 08:05;CYQR 120805Z 26016G21KT 15SM -TSRA BKN030CB OVC100 21/ RMK CB6AC2 OCNL LTGCG SW-NW

CYQR;2013-07-12 08:40;CYQR 120840Z 27008KT 15SM BKN034 OVC100 19/ RETS RMK SC6AC2

CYQR;2013-07-12 09:00;CYQR 120900Z 25008KT 15SM BKN034 OVC100 19/13 A2968 RETS RMK SC6AC2 SLP048

CYQR;2013-07-12 09:08;CYQR 120908Z 25009KT 15SM -SHRA BKN034 OVC100 19/ RMK SC5AC3

CYQR;2013-07-12 09:29;CYQR 120929Z 18009KT 15SM FEW034 OVC073 18/ RMK SC2AC6

CYQR;2013-07-12 10:00;CYQR 121000Z 30007G19KT 15SM BKN058 18/14 A2965 RMK SC7 SLP038

CYQR;2013-07-12 11:00;CYQR 121100Z 23006KT 15SM FEW058 BKN100 BKN270 16/14 A2966 RMK SC1AC6CI1 SLP039

CYQR;2013-07-12 12:00;CYQR 121200Z 30005KT 15SM BKN100 BKN270 17/14 A2967 RMK AC6CI1 SHWRS SW SLP045

CYQR;2013-07-12 13:00;CYQR 121300Z 28006KT 15SM SCT100 SCT270 17/15 A2969 RMK AC3CI1 SLP052

CYQR;2013-07-12 14:00;CYQR 121400Z 33009KT 15SM FEW010 FEW100 FEW150 FEW270 19/17 A2971 RMK CF1ACC1AC1CI1 SLP057

CYQR;2013-07-12 14:52;CYQR 121452Z 32013KT 15SM BKN012 BKN100 BKN270 21/ RMK CU5AC1CI1

CYQR;2013-07-12 15:00;CYQR 121500Z 33014KT 15SM BKN012 BKN100 BKN270 20/18 A2972 RMK CU6AC1CI1 SLP062

CYQR;2013-07-12 16:00;CYQR 121600Z 34010KT 15SM BKN014 BKN150 BKN270 21/17 A2974 RMK CU5AC1CI1 SLP068

CYQR;2013-07-12 16:18;CYQR 121618Z 35012KT 15SM BKN016 BKN150 BKN270 22/ RMK CU5AC1CI1

CYQR;2013-07-12 17:00;CYQR 121700Z 33011KT 15SM BKN016 22/17 A2975 RMK CU6 SLP073

CYQR;2013-07-12 18:00;CYQR 121800Z 32009KT 15SM BKN021 23/17 A2977 RMK CU6 SLP080

CYQR;2013-07-12 19:00;CYQR 121900Z 31014KT 15SM SCT027 24/16 A2978 RMK CU3 SLP085

CYQR;2013-07-12 20:00;CYQR 122000Z 32011KT 15SM FEW034 24/15 A2981 RMK CU2 SLP092

CYQR;2013-07-12 21:00;CYQR 122100Z 32008KT 15SM FEW035 24/14 A2982 RMK CU1 SLP096

CYQR;2013-07-12 22:00;CYQR 122200Z 34009KT 15SM FEW035 24/14 A2983 RMK CU1 SLP100

CYQR;2013-07-12 23:00;CYQR 122300Z 34010KT 15SM FEW035 24/14 A2984 RMK CU1 SLP104

CYQR;2013-07-13 00:00;CYQR 130000Z 28008KT 15SM FEW035 23/14 A2986 RMK CU1 SLP111

CYQR;2013-07-13 01:00;CYQR 130100Z 34007KT 15SM FEW035 23/13 A2986 RMK CU1 SLP112

CYQR;2013-07-13 02:00;CYQR 130200Z 34004KT 15SM FEW100 FEW250 22/14 A2987 RMK AC1CI1 SLP115

CYQR;2013-07-13 03:00;CYQR 130300Z 21003KT 15SM BKN100 BKN270 19/12 A2989 RMK AC1CI1 SLP123

CYQR;2013-07-13 04:00;CYQR 130400Z 04002KT 15SM BKN100 19/12 A2991 RMK AC7 SLP130

CYQR;2013-07-13 05:00;CYQR 130500Z 04006KT 15SM BKN100 19/13 A2992 RMK AC7 SLP134

CYQR;2013-07-13 06:00;CYQR 130600Z 03007KT 15SM BKN100 17/12 A2993 RMK AC0 SLP139

CYQR;2013-07-13 07:00;CYQR 130700Z 11005KT 15SM BKN100 15/11 A2995 RMK AC2 SLP145

CYQR;2013-07-13 08:00;CYQR 130800Z 09006KT 15SM -SHRA BKN059 17/12 A2996 RMK SC7 SLP146

CYQR;2013-07-13 09:00;CYQR 130900Z 11005KT 15SM BKN035 16/13 A2994 RMK SC6 SLP141

CYQR;2013-07-13 10:00;CYQR 131000Z 11008KT 15SM BKN040 16/13 A2994 RMK SC6 TCU EMBD SLP141

CYQR;2013-07-13 11:00;CYQR 131100Z 07009KT 15SM -SHRA BKN047TCU BKN084 BKN270 17/13 A2993 RMK TCU6ACC1CI1 SLP139

CYQR;2013-07-13 12:00;CYQR 131200Z 08007KT 15SM SCT032TCU BKN090 16/12 A2995 RMK TCU4ACC1 CB S SLP143

CYQR;2013-07-13 13:00;CYQR 131300Z 11007KT 15SM BKN045 BKN095 17/13 A2997 RMK SC5AC2 SH DIST N SLP152

CYQR;2013-07-13 14:00;CYQR 131400Z 10007KT 15SM BKN073 17/13 A2998 RMK AC7 SLP153

CYQR;2013-07-13 15:00;CYQR 131500Z 05012KT 15SM BKN073 18/14 A2998 RMK AC6 SLP156

CYQR;2013-07-13 16:00;CYQR 131600Z 06018G24KT 15SM SCT070 BKN094 19/14 A2995 RMK AC3AC3 SLP147

CYQR;2013-07-13 17:00;CYQR 131700Z 06017KT 15SM FEW020 FEW073 BKN084 BKN250 18/13 A2996 RMK CU1AC2AC4CI1 ACC ASOCTD SLP150

CYQR;2013-07-13 18:00;CYQR 131800Z 07018KT 15SM FEW030 FEW090 FEW250 21/13 A2995 RMK CU1AC1CI1 ACC ASOCTD SLP145

CYQR;2013-07-13 19:00;CYQR 131900Z 03015KT 15SM FEW028 BKN040 OVC073 20/13 A2998 RMK CU1SC6AC1 SLP155

CYQR;2013-07-13 20:00;CYQR 132000Z 05023G33KT 15SM BKN034TCU OVC070 16/11 A2996 RMK TCU6AC2 SLP147

CYQR;2013-07-13 20:18;CYQR 132018Z 34023KT 15SM VCSH BKN028TCU BKN069 OVC090 15/ RMK TCU6AC2AC1 WND SHFT

CYQR;2013-07-13 20:21;CYQR 132021Z 33029G36KT 15SM TSRA FEW017CB BKN028TCU BKN069 OVC090 14/ RMK CB2TCU4AC2AC1

CYQR;2013-07-13 20:37;CYQR 132037Z 01025G30KT 12SM -TSRA FEW017CB BKN036TCU OVC069 14/ RMK CB2TCU4AC2 WND SHFT

CYQR;2013-07-13 21:00;CYQR 132100Z 35016G27KT 6SM TSRA FEW013CB OVC028TCU 13/12 A3007 RMK CB1TCU7 PRESRR SLP194

CYQR;2013-07-13 21:13;CYQR 132113Z 02021G30KT 12SM -TSRA FEW006 BKN013CB BKN070 13/ RERA RMK SF1CB5AC2 PRES UNSTDY

CYQR;2013-07-13 21:26;CYQR 132126Z 01014G22KT 12SM TS VCSH BKN021CB BKN074 13/ RERA RMK CB5AC2 OCNL -SHRA

CYQR;2013-07-13 21:37;CYQR 132137Z 03013G21KT 4SM +TSRA BR BKN021CB OVC085 13/ RMK CB6AC2

CYQR;2013-07-13 21:47;CYQR 132147Z 03012G17KT 15SM -TSRA BKN020CB BKN085 13/ RERA RMK CB6AC2

CYQR;2013-07-13 22:00;CYQR 132200Z 03014KT 15SM SCT020CB BKN085 13/12 A3005 RETSRA RMK CB3AC4 SLP188

CYQR;2013-07-13 22:24;CYQR 132224Z 05014KT 15SM -SHRA SCT022TCU BKN034 OVC085 13/ RMK TCU3SC3AC2

CYQR;2013-07-13 22:47;CYQR 132247Z 05010G15KT 15SM VCSH FEW034TCU OVC060 14/ RMK TCU2SC6

CYQR;2013-07-13 23:00;CYQR 132300Z 05009KT 15SM VCSH FEW010 FEW034TCU OVC060 14/13 A3004 RMK CF1TCU2SC6 SLP184

CYQR;2013-07-14 00:00;CYQR 140000Z 02007KT 15SM FEW008 BKN074 14/13 A3003 RMK CU1AC7 SLP177

CYQR;2013-07-14 01:00;CYQR 140100Z 33012KT 15SM FEW008 SCT095 15/13 A3010 RMK SF1AC2 PRESRR SLP200

CYQR;2013-07-14 01:08;CYQR 140108Z 33014KT 15SM BKN008 BKN095 14/ RMK SC5AC1

CYQR;2013-07-14 01:27;CYQR 140127Z 34011G16KT 15SM SCT010 BKN058 BKN095 14/ RMK SC3SC4AC1

CYQR;2013-07-14 02:00;CYQR 140200Z 35007KT 15SM BKN012 BKN050 14/13 A3015 RMK SC5SC2 CVCTV CLD EMBD SLP215

CYQR;2013-07-14 02:18;CYQR 140218Z 34006KT 15SM BKN009 BKN050 14/ RMK SC5SC2 CVCTV CLD EMBD

CYQR;2013-07-14 02:40;CYQR 140240Z 34007KT 15SM SCT009 BKN017 BKN060 BKN095 14/ RMK SF2SC3SC1AC1 CVCTV CLD EMBD

CYQR;2013-07-14 02:52;CYQR 140252Z 34008KT 15SM BKN008 BKN025 BKN060 14/ RMK SC5SC2SC1 CVCTV CLD EMBD

CYQR;2013-07-14 03:00;CYQR 140300Z 34007KT 15SM BKN009 BKN060 14/13 A3016 RMK SC6SC1 CVCTV CLD EMBD CIG RAG SLP220

CYQR;2013-07-14 03:37;CYQR 140337Z 35007KT 15SM SCT010 BKN017 BKN060 13/ RMK SC2SC2SC1 CVCTV CLD EMBD

CYQR;2013-07-14 04:00;CYQR 140400Z 34006KT 15SM FEW010 FEW017 FEW060 12/12 A3017 RMK SF1SC2SC1 SLP225

CYQR;2013-07-14 05:00;CYQR 140500Z 33008KT 15SM FEW017 FEW060 10/10 A3020 RMK SC1SC1 SLP232

CYQR;2013-07-14 06:00;CYQR 140600Z 35005KT 15SM SKC 09/09 A3021 RMK SLP239

CYQR;2013-07-14 07:00;CYQR 140700Z 28002KT 15SM R13/3000VP6000FT/D VCFG SKC 09/09 A3023 RMK SLP245

CYQR;2013-07-14 07:24;CYQR 140724Z 30003KT 1/2SM R13/3000FT/N FG SKC 09/ RMK FG2 VIS N-E 4

CYQR;2013-07-14 07:43;CYQR 140743Z 27002KT 1/2SM R13/1200V1800FT/U FG VV002 10/ RMK FG8

CYQR;2013-07-14 07:49;CYQR 140749Z 25002KT 1/4SM R13/1800FT/N FG VV002 10/ RMK FG8

CYQR;2013-07-14 08:00;CYQR 140800Z 00000KT 1/4SM R13/2000FT/N FG VV001 10/10 A3024 RMK FG8 SLP249

CYQR;2013-07-14 09:00;CYQR 140900Z 26003KT 1/4SM R13/2800FT/N FG VV001 08/08 A3024 RMK FG8 SLP257

CYQR;2013-07-14 09:16;CYQR 140916Z 27002KT 5/8SM R13/2600V5000FT/U BR SKC 08/ RMK FG7

CYQR;2013-07-14 09:34;CYQR 140934Z 31003KT 1/4SM R13/1800FT/N FG VV002 07/ RMK FG8

CYQR;2013-07-14 10:00;CYQR 141000Z 00000KT 3/8SM R13/4000VP6000FT/D FG VV002 07/07 A3025 RMK FG8 SLP259

CYQR;2013-07-14 10:22;CYQR 141022Z 00000KT 3/8SM R13/2600FT/N FG SKC 07/ RMK FG6 VIS VRB 1/8-5/8

CYQR;2013-07-14 11:00;CYQR 141100Z 30004KT 3/8SM R13/0800FT/N FG SKC 06/06 A3025 RMK FG3 VIS VRB 1/8-5/8 SLP260

CYQR;2013-07-14 11:08;CYQR 141108Z 31004KT 1/8SM R13/0900V1400FT/U FG SKC 06/ RMK FG7

CYQR;2013-07-14 11:25;CYQR 141125Z 32003KT 3/8SM R13/2200FT/N FG SKC 06/ RMK FG3 VIS VRB 1/8-5/8

CYQR;2013-07-14 12:00;CYQR 141200Z 00000KT 5/8SM R13/1600FT/N BR SKC 06/06 A3027 RMK FG1 VIS NE 2 SLP265

CYQR;2013-07-14 12:13;CYQR 141213Z 34004KT 3SM R13/1400FT/N BR FEW100 07/ RMK AC1 VIS S-SW 3/4

CYQR;2013-07-14 13:00;CYQR 141300Z 19002KT 15SM VCFG FEW040 09/09 A3028 RMK SC1 VIS S-W 1 SLP268

CYQR;2013-07-14 14:00;CYQR 141400Z 34004KT 15SM FEW001 12/12 A3028 RMK SF1 SLP270

CYQR;2013-07-14 15:00;CYQR 141500Z 36004KT 15SM FEW016 FEW085 15/11 A3028 RMK CU1AC1 SLP264

CYQR;2013-07-14 16:00;CYQR 141600Z 00000KT 15SM FEW024 FEW230 17/10 A3027 RMK CU1CI1 SLP262

CYQR;2013-07-14 17:00;CYQR 141700Z 00000KT 15SM SCT035 17/10 A3028 RMK CU3 SLP263

CYQR;2013-07-14 18:00;CYQR 141800Z 23006KT 15SM BKN033 18/11 A3029 RMK CU5 SLP269

CYQR;2013-07-14 19:00;CYQR 141900Z 18007KT 15SM BKN040 BKN250 19/11 A3027 RMK CU6CI1 SLP263

CYQR;2013-07-14 20:00;CYQR 142000Z 14006KT 15SM SCT040 BKN250 20/11 A3026 RMK CU3CI2 CC ASOCTD SLP260

CYQR;2013-07-14 21:00;CYQR 142100Z 18010KT 15SM SCT038 BKN250 21/13 A3025 RMK CU3CI2 SLP254

CYQR;2013-07-14 22:00;CYQR 142200Z 18007KT 15SM FEW041 BKN250 19/11 A3025 RMK CU2CI3 SLP254

CYQR;2013-07-14 23:00;CYQR 142300Z 14007KT 15SM FEW044 BKN250 19/11 A3022 RMK CU2CI4 SLP245

CYQR;2013-07-15 00:00;CYQR 150000Z 15007KT 15SM FEW044 FEW080 FEW250 20/11 A3020 RMK CU1ACC1CI1 SLP240

CYQR;2013-07-15 01:00;CYQR 150100Z 18007KT 15SM FEW028 19/12 A3020 RMK CU1 SLP239

CYQR;2013-07-15 02:00;CYQR 150200Z 18007KT 15SM FEW028 FEW080 FEW250 17/12 A3019 RMK CU1ACC1CI1 SLP234

CYQR;2013-07-15 03:00;CYQR 150300Z 15006KT 15SM FEW080 16/12 A3018 RMK ACC1 SLP230

CYQR;2013-07-15 04:00;CYQR 150400Z 14007KT 15SM FEW080 14/11 A3018 RMK AC1 SLP230

CYQR;2013-07-15 05:00;CYQR 150500Z 15008KT 15SM SKC 14/12 A3019 RMK SLP231

CYQR;2013-07-15 06:00;CYQR 150600Z 15008KT 15SM SKC 14/12 A3018 RMK SLP229

CYQR;2013-07-15 07:00;CYQR 150700Z 13008KT 15SM SKC 12/11 A3017 RMK SLP225

CYQR;2013-07-15 08:00;CYQR 150800Z 13009KT 15SM SKC 13/12 A3015 RMK SLP220

CYQR;2013-07-15 09:00;CYQR 150900Z 14011KT 15SM SKC 13/12 A3013 RMK SLP210

CYQR;2013-07-15 10:00;CYQR 151000Z 14010KT 15SM SKC 13/12 A3011 RMK SLP204

CYQR;2013-07-15 11:00;CYQR 151100Z 14014KT 15SM FEW035 13/12 A3009 RMK SC1 SLP197

CYQR;2013-07-15 12:00;CYQR 151200Z 14012KT 15SM FEW027 13/12 A3007 RMK SC1 SLP191

CYQR;2013-07-15 13:00;CYQR 151300Z 14013KT 15SM BKN025 15/14 A3005 RMK SC5 SLP185

CYQR;2013-07-15 14:00;CYQR 151400Z 15017KT 15SM BKN025 17/15 A3003 RMK SC5 SLP178

CYQR;2013-07-15 15:00;CYQR 151500Z 15017G22KT 15SM SCT012 BKN021 19/16 A3001 RMK SC2SC4 SLP170

CYQR;2013-07-15 16:00;CYQR 151600Z 15019KT 15SM BKN013 OVC025 19/16 A2999 RMK SC6SC2 SLP161

CYQR;2013-07-15 17:00;CYQR 151700Z 16016G24KT 15SM OVC013 20/17 A2997 RMK SC8 SLP156

CYQR;2013-07-15 18:00;CYQR 151800Z 15018G24KT 15SM OVC015 21/18 A2993 RMK SC8 PRESFR SLP140

CYQR;2013-07-15 19:00;CYQR 151900Z 15022G29KT 15SM BKN015 BKN070 22/19 A2989 RMK SC6AC1 CVCTV CLD EMBD SLP127

CYQR;2013-07-15 20:00;CYQR 152000Z 16019G25KT 15SM BKN019 BKN070 24/20 A2989 RMK CU6AC2 SLP128

CYQR;2013-07-15 21:01;CYQR 152101Z 16022G28KT 15SM -SHRA FEW010 BKN025TCU BKN085 25/ RMK SC1TCU5AC2

CYQR;2013-07-15 21:25;CYQR 152125Z 17016G24KT 15SM BKN025TCU BKN090 26/ RMK TCU5AC2

CYQR;2013-07-15 21:49;CYQR 152149Z 17011G20KT 15SM TS BKN027CB 25/ RMK CB7

CYQR;2013-07-15 22:00;CYQR 152200Z 17011KT 15SM -TSRA BKN027CB 25/21 A2983 RMK CB7 SLP103

CYQR;2013-07-15 22:37;CYQR 152237Z 20016KT 15SM TS FEW010 BKN024CB 22/ RMK SF1CB7 CB NW-S MVG NE

CYQR;2013-07-15 23:00;CYQR 152300Z 18020G25KT 15SM TS VCSH FEW010 BKN024CB BKN076 23/18 A2980 RMK SF1CB5AC1 SLP094

CYQR;2013-07-15 23:48;CYQR 152348Z 17011G22KT 15SM FEW024CB BKN042TCU BKN085 BKN300 22/ RETS RMK CB2TCU4AC1CI1 CB + LTGCG NE-SE

CYQR;2013-07-16 00:00;CYQR 160000Z 17017G24KT 15SM FEW006 FEW024CB SCT040TCU 20/17 A2985 RETS RMK SF1CB2TCU1 CB SE-E SLP114

CYQR;2013-07-16 01:00;CYQR 160100Z 18010KT 15SM FEW030CB 23/19 A2983 RMK CB1 SLP107

CYQR;2013-07-16 02:00;CYQR 160200Z 25005KT 15SM FEW030CB 23/20 A2984 RMK CB1 LRG CB DIST S SLP110

CYQR;2013-07-16 03:00;CYQR 160300Z 30008KT 15SM FEW080 21/16 A2986 RMK ACC1 CB DIST SE SLP115

CYQR;2013-07-16 04:00;CYQR 160400Z 32013G18KT 15SM BKN100 20/16 A2991 RMK AC5 SLP131

CYQR;2013-07-16 05:00;CYQR 160500Z 32003KT 15SM FEW100 18/15 A2994 RMK AC1 CB + LTGCGIC SW SLP139

CYQR;2013-07-16 06:00;CYQR 160600Z 29010G16KT 15SM FEW020 17/14 A2998 RMK SC1 CB + LTGIC DIST SE-SW SLP154

CYQR;2013-07-16 07:00;CYQR 160700Z 28009KT 15SM SCT024 14/11 A2999 RMK SC2 SLP159

CYQR;2013-07-16 08:00;CYQR 160800Z 29011KT 15SM SKC 13/11 A3000 RMK SLP160

CYQR;2013-07-16 09:00;CYQR 160900Z 28010KT 15SM FEW020 12/11 A3002 RMK SC1 SLP171

CYQR;2013-07-16 10:00;CYQR 161000Z 27007KT 15SM BKN015 12/11 A3005 RMK SC7 SLP181

CYQR;2013-07-16 10:44;CYQR 161044Z 30010KT 15SM BKN010 13/ RMK SC7

CYQR;2013-07-16 11:00;CYQR 161100Z 31010KT 15SM SCT010 OVC014 13/12 A3009 RMK SF3SC5 SLP191

CYQR;2013-07-16 12:00;CYQR 161200Z 33010KT 15SM FEW014 FEW270 12/11 A3011 RMK SC1CI1 SLP205

CYQR;2013-07-16 13:00;CYQR 161300Z 34012KT 15SM FEW010 13/12 A3014 RMK SC2 SLP213

CYQR;2013-07-16 13:18;CYQR 161318Z 33012KT 15SM FEW008 13/ RMK SC2

CYQR;2013-07-16 14:00;CYQR 161400Z 33011KT 15SM FEW013 15/12 A3016 RMK SC1 SLP219

CYQR;2013-07-16 15:00;CYQR 161500Z 32009KT 15SM FEW013 FEW300 16/12 A3016 RMK SC1CI1 SLP218

CYQR;2013-07-16 16:00;CYQR 161600Z 32008KT 15SM FEW025 FEW220 18/12 A3019 RMK CF1CI1 SLP227

CYQR;2013-07-16 17:00;CYQR 161700Z 34008KT 15SM FEW034 19/11 A3020 RMK CU2 SLP232

CYQR;2013-07-16 18:00;CYQR 161800Z 33007KT 15SM FEW038 20/10 A3022 RMK CU1 SLP237

CYQR;2013-07-16 19:00;CYQR 161900Z 32009KT 15SM FEW044 FEW300 21/10 A3022 RMK CU1CI1 SLP239

CYQR;2013-07-16 20:00;CYQR 162000Z 34008KT 15SM FEW050 FEW300 22/09 A3022 RMK CU1CI1 SLP238

CYQR;2013-07-16 21:00;CYQR 162100Z 34004KT 15SM FEW050 22/08 A3022 RMK CU1 SLP239

CYQR;2013-07-16 22:00;CYQR 162200Z 34005KT 15SM FEW050 22/10 A3022 RMK CU1 SLP239

CYQR;2013-07-16 23:00;CYQR 162300Z 30008KT 15SM FEW060 22/10 A3022 RMK CU1 SLP239

CYQR;2013-07-17 00:00;CYQR 170000Z 23005KT 15SM FEW050 22/10 A3022 RMK CU1 SLP241

CYQR;2013-07-17 01:00;CYQR 170100Z 30005KT 15SM FEW060 22/10 A3022 RMK CU1 SLP239

CYQR;2013-07-17 02:00;CYQR 170200Z 31002KT 15SM FEW050 21/13 A3021 RMK CU1 SLP238

CYQR;2013-07-17 03:00;CYQR 170300Z 23003KT 15SM FEW100 18/13 A3023 RMK AC1 SLP243

CYQR;2013-07-17 04:00;CYQR 170400Z 21005KT 15SM FEW100 15/12 A3025 RMK AC1 SLP249

CYQR;2013-07-17 05:00;CYQR 170500Z 25004KT 15SM SKC 13/12 A3025 RMK SLP249

CYQR;2013-07-17 06:00;CYQR 170600Z 25004KT 15SM SKC 12/11 A3024 RMK SLP249

CYQR;2013-07-17 07:00;CYQR 170700Z 18002KT 15SM SKC 11/11 A3025 RMK SLP250

CYQR;2013-07-17 08:00;CYQR 170800Z 16003KT 15SM SKC 10/09 A3025 RMK SLP252

CYQR;2013-07-17 09:00;CYQR 170900Z 15002KT 15SM SKC 10/09 A3025 RMK SLP254

CYQR;2013-07-17 10:00;CYQR 171000Z 12002KT 15SM FEW020 09/09 A3025 RMK SC1 SLP254

CYQR;2013-07-17 11:00;CYQR 171100Z 13004KT 15SM MIFG FEW260 09/09 A3026 RMK CI1 SLP255

CYQR;2013-07-17 12:00;CYQR 171200Z 07004KT 15SM BKN260 11/10 A3026 RMK CI0 SLP256

CYQR;2013-07-17 13:00;CYQR 171300Z 07002KT 15SM BKN260 13/13 A3027 RMK CI1 SLP258

CYQR;2013-07-17 14:00;CYQR 171400Z 12003KT 15SM BKN230 16/12 A3027 RMK CI2 SLP258

CYQR;2013-07-17 15:00;CYQR 171500Z 11002KT 15SM BKN240 20/12 A3025 RMK CI3 SLP250

CYQR;2013-07-17 16:00;CYQR 171600Z 16004KT 15SM BKN240 20/14 A3024 RMK CI5 SLP246

CYQR;2013-07-17 17:00;CYQR 171700Z 16005KT 15SM SCT170 BKN240 21/11 A3023 RMK AC2CI3 SLP243

CYQR;2013-07-17 18:00;CYQR 171800Z 15011KT 15SM FEW140 BKN220 22/12 A3024 RMK AC1CI2 SLP246

CYQR;2013-07-17 19:00;CYQR 171900Z 14008KT 15SM SCT140 BKN220 23/12 A3022 RMK AC4CI1 SLP241

CYQR;2013-07-17 20:00;CYQR 172000Z 18011KT 15SM FEW035 BKN086 22/13 A3021 RMK CU1AC6 SLP237

CYQR;2013-07-17 21:00;CYQR 172100Z 14009KT 15SM FEW035 BKN086 22/13 A3018 RMK CU1AC7 SLP229

CYQR;2013-07-17 22:00;CYQR 172200Z 15011KT 15SM BKN089 23/14 A3016 RMK AC6 SLP221

CYQR;2013-07-17 23:00;CYQR 172300Z 17010G15KT 15SM OVC083 21/14 A3015 RMK AC8 SLP219

CYQR;2013-07-18 00:00;CYQR 180000Z 18012KT 15SM BKN073 BKN091 20/14 A3013 RMK AC6AC1 SLP211

CYQR;2013-07-18 01:00;CYQR 180100Z 18010KT 15SM BKN052 19/14 A3011 RMK SC7 CVCTV CLD EMBD SLP205

CYQR;2013-07-18 02:00;CYQR 180200Z 15010KT 15SM SCT048 BKN280 18/13 A3010 RMK SC2CI0 SLP200

CYQR;2013-07-18 03:00;CYQR 180300Z 16009KT 15SM BKN041 18/14 A3008 RMK SC7 SLP190

CYQR;2013-07-18 04:00;CYQR 180400Z 15009KT 15SM SCT041 BKN058 BKN280 17/14 A3005 RMK SC2SC2CI0 SLP182

CYQR;2013-07-18 05:00;CYQR 180500Z 16005KT 15SM SCT060 OVC250 16/14 A3005 RMK SC2CI2 SLP181

CYQR;2013-07-18 06:00;CYQR 180600Z 22004KT 15SM BKN048 OVC250 15/14 A3006 RMK SC6CI2 SLP183

CYQR;2013-07-18 07:00;CYQR 180700Z 19005KT 15SM FEW030 SCT051 OVC280 15/14 A3001 RMK SC2SC2CI3 SLP167

CYQR;2013-07-18 08:00;CYQR 180800Z 16004KT 15SM SCT069 OVC280 15/14 A2997 RMK AC2CI6 SLP154

CYQR;2013-07-18 09:00;CYQR 180900Z 15006KT 15SM OVC041 16/14 A2996 RMK SC8 SLP147

CYQR;2013-07-18 10:00;CYQR 181000Z 15005KT 15SM OVC034 16/14 A2993 RMK SC8 SLP140

CYQR;2013-07-18 11:00;CYQR 181100Z 15004KT 15SM BKN030 16/14 A2992 RMK SC7 SLP135

CYQR;2013-07-18 12:00;CYQR 181200Z 15005KT 15SM BKN028 16/15 A2991 RMK SC7 SLP132

CYQR;2013-07-18 13:00;CYQR 181300Z 17010KT 15SM BKN028 16/15 A2991 RMK SC7 SLP134

CYQR;2013-07-18 14:00;CYQR 181400Z 18011KT 15SM FEW008 BKN028 17/15 A2991 RMK CF1SC6 SLP132

CYQR;2013-07-18 15:00;CYQR 181500Z 22010KT 15SM FEW010 FEW030 FEW100 19/16 A2989 RMK CF1SC1AC1 SLP125

CYQR;2013-07-18 16:00;CYQR 181600Z 22009KT 15SM FEW075 22/18 A2985 RMK AC1 SLP113

CYQR;2013-07-18 17:00;CYQR 181700Z 25010G15KT 15SM BKN020 23/19 A2984 RMK SC7 CU ASOCTD SLP108

CYQR;2013-07-18 18:00;CYQR 181800Z 27013G20KT 15SM BKN022 26/19 A2982 RMK CU7 SLP098

CYQR;2013-07-18 19:00;CYQR 181900Z 28013KT 15SM BKN024 25/18 A2980 RMK CU6 TCU ASOCTD SLP091

CYQR;2013-07-18 20:00;CYQR 182000Z 28025G35KT 15SM VCSH BKN033TCU 25/18 A2979 RMK TCU7 SLP089

CYQR;2013-07-18 21:00;CYQR 182100Z 35019KT 15SM SCT020 BKN050 BKN300 22/16 A2984 RMK CU3SC3CI0 TCU ASOCTD SLP109

CYQR;2013-07-18 22:00;CYQR 182200Z 33013KT 15SM SCT020 BKN070 20/15 A2988 RMK CU3AC4 TCU ASOCTD SLP120

CYQR;2013-07-18 23:00;CYQR 182300Z 31012KT 15SM SCT025TCU BKN080 21/16 A2989 RMK TCU3AC2 SLP124

CYQR;2013-07-19 00:00;CYQR 190000Z 33013KT 15SM FEW030 FEW090 FEW280 22/16 A2990 RMK CU2AC1CI1 SLP126

CYQR;2013-07-19 01:00;CYQR 190100Z 32011KT 15SM FEW035 FEW300 22/14 A2990 RMK CU1CI1 SLP128

CYQR;2013-07-19 02:00;CYQR 190200Z 30005KT 15SM FEW300 21/15 A2991 RMK CI1 SLP129

CYQR;2013-07-19 03:00;CYQR 190300Z 23007KT 15SM FEW020TCU FEW300 17/15 A2991 RMK TCU1CI1 CB TOP DIST N SLP134

CYQR;2013-07-19 04:00;CYQR 190400Z 24008KT 15SM FEW300 15/14 A2992 RMK CI1 SLP135

CYQR;2013-07-19 05:00;CYQR 190500Z 27007KT 15SM FEW300 15/14 A2992 RMK CI0 SLP137

CYQR;2013-07-19 06:00;CYQR 190600Z 27007KT 15SM SKC 14/14 A2993 RMK SLP136

CYQR;2013-07-19 07:00;CYQR 190700Z 27008KT 15SM FEW080 15/14 A2993 RMK AC1 SLP136

CYQR;2013-07-19 08:00;CYQR 190800Z 26007KT 15SM SCT058 14/13 A2993 RMK SC3 SLP136

CYQR;2013-07-19 09:00;CYQR 190900Z 27007KT 15SM SCT058 BKN076 OVC280 14/13 A2992 RMK SC3AC3CI2 SLP135

CYQR;2013-07-19 10:00;CYQR 191000Z 26006KT 15SM FEW020CB FEW063 BKN280 13/13 A2992 RMK CB2SC1CI0 CB S-SW-W LGTICCG SLP135

CYQR;2013-07-19 11:00;CYQR 191100Z 27002KT 15SM FEW020CB SCT059 SCT100 BKN280 13/12 A2993 RMK CB2SC1ACC1CI1 CB S-SW-W SLP138

CYQR;2013-07-19 12:00;CYQR 191200Z 27005KT 15SM FEW060 FEW100 BKN280 14/13 A2993 RMK SC1ACC1CI3 SLP141

CYQR;2013-07-19 13:00;CYQR 191300Z 26006KT 15SM FEW100 SCT280 15/14 A2993 RMK AC1CI1 TR AC SLP141

CYQR;2013-07-19 14:00;CYQR 191400Z 29008KT 15SM BKN300 18/15 A2994 RMK CI2 SLP142

CYQR;2013-07-19 15:00;CYQR 191500Z 30008KT 15SM FEW077 BKN300 20/16 A2994 RMK ACC1CI1 SLP143

CYQR;2013-07-19 16:00;CYQR 191600Z 31005KT 15SM FEW050TCU BKN095 BKN300 21/16 A2993 RMK TCU2ACC3CI2 SLP140

CYQR;2013-07-19 17:00;CYQR 191700Z 30006KT 15SM FEW050TCU FEW095 SCT300 22/17 A2993 RMK TCU1ACC1CI1 SLP140

CYQR;2013-07-19 18:00;CYQR 191800Z 32004KT 15SM FEW050TCU FEW078 SCT300 23/17 A2992 RMK TCU1ACC1CI1 SLP135

CYQR;2013-07-19 19:00;CYQR 191900Z 27009KT 15SM FEW030 FEW100 BKN300 26/18 A2991 RMK CU2ACC1CI1 SLP132

CYQR;2013-07-19 20:00;CYQR 192000Z 29011G16KT 15SM SCT040TCU BKN090 BKN300 26/17 A2990 RMK TCU3ACC2CI0 SLP128

CYQR;2013-07-19 20:21;CYQR 192021Z 28015KT 15SM -TSRA BKN040CB BKN090 27/ RMK CB5AC2

CYQR;2013-07-19 20:36;CYQR 192036Z 05015G33KT 6SM TSRAGR OVC021CB 15/ RMK CB8 HAIL DIAM 10 MM

CYQR;2013-07-19 20:44;CYQR 192044Z 12012G18KT 15SM -TSRA BKN032CB 13/ REGR RMK CB7

CYQR;2013-07-19 21:00;CYQR 192100Z 07006KT 15SM -TSRA BKN054CB 16/15 A2995 REGR RMK CB7 SLP149

CYQR;2013-07-19 21:26;CYQR 192126Z 04005KT 15SM TS FEW050CB BKN095 BKN300 18/ RMK CB2ACC4CI0

CYQR;2013-07-19 21:42;CYQR 192142Z 08006KT 15SM FEW050CB BKN085 BKN300 19/ RETS RMK CB2ACC5CI0

CYQR;2013-07-19 22:00;CYQR 192200Z 07008KT 15SM FEW050CB BKN085 OVC300 19/16 A2993 RETS RMK CB1AC6CI0 ACC ASOCTD SLP143

CYQR;2013-07-19 23:00;CYQR 192300Z 06010KT 15SM SCT040CB BKN100 20/15 A2993 RMK CB3AC4 SLP144

CYQR;2013-07-19 23:16;CYQR 192316Z 03013KT 10SM -SHRA BKN039CB 19/ RMK CB7

CYQR;2013-07-19 23:19;CYQR 192319Z 04013KT 8SM -TSRA OVC039CB 18/ RMK CB8 LTGCG

CYQR;2013-07-19 23:51;CYQR 192351Z 07007KT 15SM -SHRA FEW040CB OVC085 18/ RETS RMK CB2ACC5

CYQR;2013-07-20 00:00;CYQR 200000Z 07006KT 15SM -SHRA FEW040CB OVC085 18/16 A2996 RETS RMK CB2ACC5 SLP151

CYQR;2013-07-20 00:46;CYQR 200046Z 05006KT 15SM VCSH FEW012 FEW040CB FEW085 SCT300 18/ RMK CU1CB2AC1CI1

CYQR;2013-07-20 01:00;CYQR 200100Z 07006KT 15SM VCSH FEW012 FEW040CB FEW085 SCT300 18/15 A2996 RMK CU1CB2AC1CI1 SLP153

CYQR;2013-07-20 02:00;CYQR 200200Z 07005KT 15SM FEW021 FEW040CB SCT100 BKN300 18/15 A2998 RMK CU1CB2AC1CI1 CB SE-S-SW SLP158

CYQR;2013-07-20 03:00;CYQR 200300Z 09005KT 15SM FEW040CB SCT064 BKN300 16/12 A2998 RMK CB2SC2CI1 SLP158

CYQR;2013-07-20 04:00;CYQR 200400Z 04007KT 15SM FEW064 SCT300 15/12 A3000 RMK SC2CI2 SLP164

CYQR;2013-07-20 05:00;CYQR 200500Z 06010KT 15SM SCT063 BKN300 14/11 A3001 RMK SC3CI2 SLP167

CYQR;2013-07-20 06:00;CYQR 200600Z 07009KT 15SM BKN061 14/11 A3001 RMK SC6 SLP166

CYQR;2013-07-20 07:00;CYQR 200700Z 04006KT 15SM FEW053 FEW100 FEW250 12/11 A3002 RMK SC1AC1CI1 SLP168

CYQR;2013-07-20 08:00;CYQR 200800Z 07006KT 15SM FEW100 BKN250 13/11 A3002 RMK AC2CI2 SLP168

CYQR;2013-07-20 09:00;CYQR 200900Z 08008KT 15SM SKC 12/11 A3002 RMK SLP176

CYQR;2013-07-20 10:00;CYQR 201000Z 10008KT 15SM FEW060 SCT250 12/11 A3003 RMK SC2CI2 SLP178

CYQR;2013-07-20 11:00;CYQR 201100Z 10008KT 15SM FEW043 FEW100 FEW250 11/11 A3003 RMK SC1AC1CI1 SLP180

CYQR;2013-07-20 12:00;CYQR 201200Z 12007KT 15SM FEW010 FEW046 FEW100 BKN250 11/11 A3004 RMK CU1SC1AC1CI1 SLP181

CYQR;2013-07-20 13:00;CYQR 201300Z 13007KT 15SM FEW010 SCT021 BKN100 12/11 A3005 RMK CU1SC4AC2 SLP185

CYQR;2013-07-20 14:00;CYQR 201400Z 14012KT 15SM FEW010 FEW017 SCT120 13/11 A3005 RMK CU1SC2AC2 SLP183

CYQR;2013-07-20 15:00;CYQR 201500Z 14013KT 15SM FEW010 SCT110 BKN300 14/11 A3004 RMK CU2AC2CI2 SLP182

CYQR;2013-07-20 15:34;CYQR 201534Z 15010KT 15SM BKN012 BKN110 14/ RMK SC6AC1

CYQR;2013-07-20 16:00;CYQR 201600Z 16012KT 15SM BKN012 14/12 A3004 RMK SC7 SLP181

CYQR;2013-07-20 17:00;CYQR 201700Z 16008KT 15SM BKN012 16/13 A3002 RMK SC7 SLP176

CYQR;2013-07-20 18:00;CYQR 201800Z 16011KT 15SM OVC014 16/14 A3001 RMK SC7 SLP172

CYQR;2013-07-20 19:00;CYQR 201900Z 15012KT 15SM OVC014 17/14 A3000 RMK SC8 SLP168

CYQR;2013-07-20 19:29;CYQR 201929Z 16013KT 15SM BKN017 18/ RMK CU6

CYQR;2013-07-20 20:00;CYQR 202000Z 16010G15KT 15SM BKN020 BKN100 18/14 A2999 RMK CU5AC2 SLP164

CYQR;2013-07-20 21:00;CYQR 202100Z 17011KT 15SM SCT024 BKN250 20/15 A2998 RMK CU4CI1 SLP158

CYQR;2013-07-20 22:00;CYQR 202200Z 14013KT 15SM SCT026 BKN280 20/15 A2996 RMK CU4CI2 SLP152

CYQR;2013-07-20 23:00;CYQR 202300Z 14011G16KT 15SM SCT026 SCT075 BKN280 20/14 A2994 RMK CU3AC1CI1 SLP147

CYQR;2013-07-21 00:00;CYQR 210000Z 15012KT 15SM BKN040 BKN067 20/15 A2992 RMK SC6AC1 SLP138

CYQR;2013-07-21 01:00;CYQR 210100Z 15009KT 15SM SCT040 SCT075 BKN300 19/15 A2991 RMK SC3AC1CI1 CU ASOCTD SLP135

CYQR;2013-07-21 02:00;CYQR 210200Z 15008KT 15SM FEW020CB SCT040 SCT060 BKN300 19/15 A2990 RMK CB1SC3SC1CI2 CB S SLP132

CYQR;2013-07-21 03:00;CYQR 210300Z 14010KT 15SM FEW020TCU FEW055 SCT150 BKN300 17/14 A2988 RMK TCU1SC1AC2CI2 SLP125

CYQR;2013-07-21 04:00;CYQR 210400Z 14010KT 15SM FEW055 FEW150 BKN300 17/15 A2988 RMK SC1AC1CI2 SLP126

CYQR;2013-07-21 05:00;CYQR 210500Z 14010KT 15SM BKN250 16/15 A2987 RMK CI2 SLP122

CYQR;2013-07-21 06:00;CYQR 210600Z 15014G19KT 15SM SCT250 16/14 A2986 RMK CI0 SLP116

CYQR;2013-07-21 07:00;CYQR 210700Z 14012G17KT 15SM FEW250 15/14 A2984 RMK CI1 SLP111

CYQR;2013-07-21 08:00;CYQR 210800Z 15012G17KT 15SM SKC 15/14 A2982 RMK SLP105

CYQR;2013-07-21 09:00;CYQR 210900Z 14012KT 15SM BKN250 14/13 A2981 RMK CI2 SLP098

CYQR;2013-07-21 10:00;CYQR 211000Z 14014KT 15SM FEW004 FEW020 BKN250 14/13 A2977 RMK SF1SC1CI2 SLP088

CYQR;2013-07-21 11:00;CYQR 211100Z 14012G17KT 15SM SCT007 SCT020 BKN250 13/13 A2976 RMK SF2CU1CI1 SLP084

CYQR;2013-07-21 11:25;CYQR 211125Z 14014KT 15SM BKN006 BKN250 13/ RMK SF6CI1

CYQR;2013-07-21 12:00;CYQR 211200Z 14013G18KT 15SM BKN005 BKN080 OVC250 14/13 A2974 RMK SF6AC1CI1 SLP076

CYQR;2013-07-21 13:00;CYQR 211300Z 14017KT 12SM OVC005 15/14 A2970 RMK SF8 SLP062

CYQR;2013-07-21 13:19;CYQR 211319Z 15015G21KT 12SM BKN006 OVC020 15/ RMK SF6SC1

CYQR;2013-07-21 13:27;CYQR 211327Z 15014G20KT 12SM TS OVC006 15/ RMK SF8 CB EMBD LTGCG W-SW

CYQR;2013-07-21 13:35;CYQR 211335Z 20015KT 8SM TSRA OVC007CB 15/ RMK CB8 LTGCG W-SW

CYQR;2013-07-21 13:38;CYQR 211338Z 18014G19KT 1 1/4SM +TSRA OVC006CB 15/ RMK CB8 LTNG ALQDS

CYQR;2013-07-21 13:43;CYQR 211343Z 16023G30KT 7SM -TSRA BKN005CB OVC065 14/ RERA RMK CB6SC2 LTNG NE-SE VIS E 1

CYQR;2013-07-21 13:51;CYQR 211351Z 16015G30KT 12SM -TSRA FEW005 SCT020CB OVC076 14/ RERA RMK SF1CB2AC5 LTNG E

CYQR;2013-07-21 14:00;CYQR 211400Z 18014G24KT 10SM -TSRA FEW005 SCT038CB OVC100 15/14 A2972 RERA RMK SF1CB2AC5 LTNG E SLP069

CYQR;2013-07-21 14:13;CYQR 211413Z 18011G16KT 5SM -SHRA BR BKN007 OVC076 15/ RETS RMK SF5AC3

CYQR;2013-07-21 14:26;CYQR 211426Z 18007KT 6SM -TSRA BR BKN005 OVC019CB 15/ RMK SF5CB3

CYQR;2013-07-21 14:35;CYQR 211435Z 16013KT 5SM TSRA BR SCT005 BKN019CB OVC100 15/ RMK SF3CB3AC2

CYQR;2013-07-21 14:42;CYQR 211442Z 14009G15KT 12SM -TSRA FEW005 BKN020 OVC100 15/ RERA RMK SF1SC6AC2 CB EMBD

CYQR;2013-07-21 14:47;CYQR 211447Z 13013KT 12SM -SHRA FEW005 BKN020 OVC100 15/ RETSRA RMK SF1SC6AC2

CYQR;2013-07-21 15:00;CYQR 211500Z 14015KT 15SM -SHRA FEW005 FEW030 OVC085 15/15 A2966 RETSRA RMK SF1SC2AC6 CVCTV CLD ASOCTD SLP049

CYQR;2013-07-21 15:37;CYQR 211537Z 18013KT 12SM BKN006 OVC084 16/ RMK SF6AC2

CYQR;2013-07-21 15:47;CYQR 211547Z 15013G20KT 15SM -SHRA BKN006 BKN090 16/ RMK SF6AC1 CVCTV CLD ASOCTD

CYQR;2013-07-21 16:00;CYQR 211600Z 18009G20KT 15SM -SHRA BKN007 OVC090 16/16 A2968 RMK SF6AC1 CVCTV CLD ASOCTD SLP057

CYQR;2013-07-21 16:48;CYQR 211648Z 19006KT 15SM BKN008 OVC035 17/ RMK SF7SC1

CYQR;2013-07-21 17:00;CYQR 211700Z 19005KT 15SM BKN007 OVC014 17/16 A2967 RMK SF6SC2 SLP054

CYQR;2013-07-21 17:13;CYQR 211713Z 20005KT 15SM FEW007 BKN160 18/ RMK SF2AC3

CYQR;2013-07-21 17:32;CYQR 211732Z 28006KT 15SM BKN009 BKN026 19/ RMK SC6SC1 CU ASOCTD

CYQR;2013-07-21 17:47;CYQR 211747Z 30010KT 15SM BKN012 BKN047 20/ RMK SC6SC1 CU EMBD

CYQR;2013-07-21 18:00;CYQR 211800Z 29010KT 15SM BKN012 BKN047 20/17 A2968 RMK SC6SC1 CU EMBD SLP053

CYQR;2013-07-21 18:11;CYQR 211811Z 30012KT 15SM SCT012 BKN160 20/ RMK SC4AC1

CYQR;2013-07-21 18:20;CYQR 211820Z 29010G18KT 15SM BKN012 BKN160 21/ RMK CU5AC1 TCU EMBD

CYQR;2013-07-21 19:00;CYQR 211900Z 30017G22KT 15SM BKN017 22/16 A2967 RMK CU7 TCU EMBD SLP052

CYQR;2013-07-21 20:00;CYQR 212000Z 31015G24KT 15SM BKN030 22/15 A2969 RMK CU4 TCU EMBD SLP056

CYQR;2013-07-21 21:00;CYQR 212100Z 30017G24KT 15SM SCT030 22/16 A2969 RMK CU4 TCU EMBD SLP057

CYQR;2013-07-21 22:00;CYQR 212200Z 31020G29KT 15SM FEW030 23/16 A2970 RMK CU2 SLP060

CYQR;2013-07-21 23:00;CYQR 212300Z 31023G29KT 15SM FEW035 22/14 A2971 RMK CU2 SLP062

CYQR;2013-07-22 00:00;CYQR 220000Z 34021G27KT 15SM SCT020 20/16 A2973 RMK CU3 SLP073

CYQR;2013-07-22 01:00;CYQR 220100Z 33021G27KT 15SM SCT040 BKN060 BKN250 18/15 A2975 RMK CU3SC2CI1 TCU ASOCTD SLP080

CYQR;2013-07-22 02:00;CYQR 220200Z 34019KT 15SM SCT020 BKN040 17/13 A2978 RMK CU4SC2 TCU ASOCTD SLP089

CYQR;2013-07-22 03:00;CYQR 220300Z 34012KT 15SM SCT017 BKN025 BKN250 15/13 A2980 RMK CU3SC3CI1 SLP099

CYQR;2013-07-22 04:00;CYQR 220400Z 32008KT 15SM SCT016 BKN026 14/13 A2983 RMK CU3SC2 SLP107

CYQR;2013-07-22 05:00;CYQR 220500Z 32007KT 15SM BKN012 OVC030 14/13 A2984 RMK CU5SC3 SLP110

CYQR;2013-07-22 05:18;CYQR 220518Z 32007KT 15SM SCT018 OVC030 14/ RMK CU3SC4

CYQR;2013-07-22 06:00;CYQR 220600Z 34012G17KT 15SM FEW014 BKN025 OVC100 15/13 A2984 RMK CU2SC2AC3 SLP111

CYQR;2013-07-22 07:00;CYQR 220700Z 36013KT 15SM OVC023 15/12 A2986 RMK SC8 SLP115

CYQR;2013-07-22 08:00;CYQR 220800Z 36010KT 15SM OVC023 14/12 A2987 RMK SC7 SLP119

CYQR;2013-07-22 09:00;CYQR 220900Z 34009KT 15SM BKN012 OVC023 13/12 A2988 RMK SC6SC2 SLP122

CYQR;2013-07-22 10:00;CYQR 221000Z 33011KT 15SM OVC014 13/11 A2988 RMK SC8 SLP124

CYQR;2013-07-22 11:00;CYQR 221100Z 34006KT 15SM SCT019 11/10 A2990 RMK SC3 SLP129

CYQR;2013-07-22 11:35;CYQR 221135Z 33005KT 15SM SCT008 BKN019 10/ RMK ST3SC2

CYQR;2013-07-22 11:38;CYQR 221138Z 32004KT 15SM BKN005 BKN019 10/ RMK ST5SC2

CYQR;2013-07-22 11:43;CYQR 221143Z 31003KT 15SM BKN004 BKN019 10/ RMK ST6SC2

CYQR;2013-07-22 11:47;CYQR 221147Z 32005KT 15SM BKN003 BKN019 11/ RMK ST6SC1

CYQR;2013-07-22 11:49;CYQR 221149Z 33006KT 15SM BKN002 BKN019 11/ RMK ST6SC1

CYQR;2013-07-22 12:00;CYQR 221200Z 34004KT 6SM R13/3000V5500FT/N BR VCFG BKN001 BKN019 11/11 A2992 RMK ST6SC1 VIS SW-W-NW 1 VIS E 10 SLP140

CYQR;2013-07-22 12:09;CYQR 221209Z 34005KT 2SM R13/5000FT/U BR BKN001 BKN019 11/ RMK ST6SC1 VIS SW-W-NW-N-1 VIS E 3

CYQR;2013-07-22 12:26;CYQR 221226Z 35006KT 4SM BR BKN001 BKN019 11/ RMK ST6SC1 VIS SW-W-NW 2 VIS E 6

CYQR;2013-07-22 12:41;CYQR 221241Z 35006KT 6SM BR BKN002 11/ RMK ST7

CYQR;2013-07-22 13:02;CYQR 221302Z 34005KT 15SM FEW002 FEW300 12/ RMK SF2CI1

CYQR;2013-07-22 14:00;CYQR 221400Z 19003KT 15SM SCT009 BKN300 14/12 A2995 RMK SC4CI1 SLP148

CYQR;2013-07-22 14:11;CYQR 221411Z 35006KT 15SM BKN007 BKN300 12/ RMK SC6CI0 CU ASOCTD

CYQR;2013-07-22 15:00;CYQR 221500Z 28005KT 15SM BKN010 13/11 A2996 RMK SC7 SLP155

CYQR;2013-07-22 15:47;CYQR 221547Z 06004KT 15SM SCT014 SCT300 15/ RMK SC3CI1

CYQR;2013-07-22 16:00;CYQR 221600Z 05006KT 15SM FEW014 SCT300 15/12 A2996 RMK CU2CI1 SLP153

CYQR;2013-07-22 17:00;CYQR 221700Z 07009KT 15SM FEW026 BKN300 18/11 A2995 RMK CU1CI2 SLP152

CYQR;2013-07-22 18:00;CYQR 221800Z 10004KT 15SM FEW034 BKN300 18/12 A2995 RMK CU1CI2 SLP149

CYQR;2013-07-22 19:00;CYQR 221900Z 05006KT 15SM FEW036 BKN300 20/11 A2995 RMK CU1CI2 SLP149

CYQR;2013-07-22 20:00;CYQR 222000Z 08010KT 15SM FEW040 BKN300 19/11 A2995 RMK CU2CI2 SLP147

CYQR;2013-07-22 21:00;CYQR 222100Z 02008KT 15SM FEW042 BKN300 20/11 A2996 RMK CU2CI4 SLP151

CYQR;2013-07-22 22:00;CYQR 222200Z 14006KT 15SM FEW044 SCT160 BKN300 19/11 A2995 RMK CU2AC2CI2 SLP149

CYQR;2013-07-22 23:00;CYQR 222300Z 14008KT 15SM FEW046 BKN160 BKN300 20/11 A2996 RMK CU2AC3CI0 SLP152

CYQR;2013-07-23 00:00;CYQR 230000Z 14004KT 15SM FEW046 BKN110 BKN300 19/10 A2997 RMK CU2ACC4CI1 SLP157

CYQR;2013-07-23 00:12;CYQR 230012Z 12002KT 15SM -SHRA FEW046 BKN110 BKN300 19/ RMK CU2ACC4CI1

CYQR;2013-07-23 00:17;CYQR 230017Z CCA 03004KT 15SM -SHRA FEW046 BKN110 BKN300 19/ RMK CU2ACC4CI1

CYQR;2013-07-23 01:00;CYQR 230100Z 22006KT 15SM -SHRA FEW046 BKN100 BKN300 16/14 A2998 RMK CU1ACC6CI2 SLP161

CYQR;2013-07-23 02:00;CYQR 230200Z 08003KT 15SM FEW024 BKN083 BKN120 16/14 A2998 RMK CU1ACC5AC2 SLP161

CYQR;2013-07-23 03:00;CYQR 230300Z 03003KT 15SM BKN078 16/14 A2999 RMK AC7 SLP164

CYQR;2013-07-23 04:00;CYQR 230400Z 05003KT 15SM BKN078 16/14 A3000 RMK AC6 OBS TAKEN -10 SLP166

CYQR;2013-07-23 05:00;CYQR 230500Z 08003KT 15SM FEW080 14/14 A3000 RMK AC2 SLP167

CYQR;2013-07-23 06:00;CYQR 230600Z 16002KT 15SM BKN280 12/12 A3001 RMK CI0 SLP171

CYQR;2013-07-23 07:00;CYQR 230700Z 00000KT 15SM BKN280 12/12 A3001 RMK CI0 SLP172

CYQR;2013-07-23 08:00;CYQR 230800Z 06002KT 15SM FEW090 SCT280 12/12 A3003 RMK AC1CI0 SLP178

CYQR;2013-07-23 09:00;CYQR 230900Z 00000KT 12SM MIFG SKC 11/11 A3004 RMK SLP180

CYQR;2013-07-23 10:00;CYQR 231000Z 13003KT 12SM R13/3000VP6000FT/D MIFG SKC 10/10 A3004 RMK SLP180

CYQR;2013-07-23 11:00;CYQR 231100Z 09003KT 12SM MIFG FEW100 10/10 A3004 RMK AC1 SLP179

CYQR;2013-07-23 12:00;CYQR 231200Z 12003KT 15SM FEW080 BKN280 10/10 A3004 RMK AC1CI1 SLP183

CYQR;2013-07-23 13:00;CYQR 231300Z 08003KT 15SM FEW100 BKN300 14/12 A3004 RMK AC1CI1 SLP183

CYQR;2013-07-23 14:00;CYQR 231400Z 14002KT 15SM FEW100 BKN300 16/12 A3007 RMK AC1CI1 SLP191

CYQR;2013-07-23 15:00;CYQR 231500Z 17005KT 15SM BKN080 OVC300 17/12 A3007 RMK AC6CI1 SLP188

CYQR;2013-07-23 16:00;CYQR 231600Z 18005KT 15SM BKN085 OVC300 17/14 A3006 RMK AC5CI3 SLP187

CYQR;2013-07-23 17:00;CYQR 231700Z 14005KT 15SM FEW025 SCT095 OVC300 19/14 A3006 RMK CU1AC2CI4 SLP185

CYQR;2013-07-23 18:00;CYQR 231800Z 19002KT 15SM FEW030 BKN090 OVC300 19/13 A3006 RMK CU2AC3CI2 SLP188

CYQR;2013-07-23 19:00;CYQR 231900Z 18006KT 15SM FEW030 SCT087 BKN300 21/15 A3006 RMK CU2AC2CI1 SLP187

CYQR;2013-07-23 20:00;CYQR 232000Z 19008KT 15SM FEW035 BKN300 21/13 A3005 RMK CU2CI2 SLP185

CYQR;2013-07-23 21:00;CYQR 232100Z 22009KT 15SM FEW035 SCT300 22/14 A3004 RMK CU2CI1 SLP180

CYQR;2013-07-23 22:00;CYQR 232200Z 24009KT 15SM BKN040 BKN300 22/15 A3003 RMK CU5CI1 SLP177

CYQR;2013-07-23 23:00;CYQR 232300Z 25005KT 15SM FEW040 BKN300 23/15 A3002 RMK CU2CI2 SLP172

CYQR;2013-07-24 00:00;CYQR 240000Z 24006KT 15SM FEW040TCU BKN300 23/15 A3001 RMK TCU1CI2 SLP170

CYQR;2013-07-24 01:00;CYQR 240100Z 23006KT 15SM FEW032 FEW300 22/15 A2999 RMK CU1CI1 SLP164

CYQR;2013-07-24 02:00;CYQR 240200Z 21004KT 15SM FEW030CB BKN100 20/17 A3001 RMK CB2AC2 SLP169

CYQR;2013-07-24 02:24;CYQR 240224Z 36012G21KT 10SM SHRA BKN048CB 19/ RMK CB5

CYQR;2013-07-24 02:28;CYQR 240228Z 02023G28KT 8SM +SHRA BKN027CB 16/ RMK CB6

CYQR;2013-07-24 02:34;CYQR 240234Z 03020G30KT 10SM R13/3000VP6000FT/D -TSRA SCT030CB 14/ RERA RMK CB4

CYQR;2013-07-24 02:43;CYQR 240243Z 07010G18KT 15SM TS SCT025CB 14/ RERA RMK CB3

CYQR;2013-07-24 03:00;CYQR 240300Z 00000KT 15SM TS FEW025CB 15/ A3001 RERA RMK CB2 SLP171

CYQR;2013-07-24 04:00;CYQR 240400Z 12006KT 15SM SCT042 13/ A3003 RETS RMK CU3 LTNG DIST E-SE OBS TAKEN -09 SLP176

CYQR;2013-07-24 05:00;CYQR 240500Z 21002KT 15SM FEW020 13/13 A3003 RMK SC1 SLP175

CYQR;2013-07-24 06:00;CYQR 240600Z 21005KT 15SM FEW045 12/12 A3003 RMK SC1 SLP175

CYQR;2013-07-24 07:00;CYQR 240700Z 23005KT 15SM FEW060 11/11 A3004 RMK SC1 SLP178

CYQR;2013-07-24 08:00;CYQR 240800Z 24004KT 15SM FEW230 10/10 A3004 RMK CI0 SLP178

CYQR;2013-07-24 09:00;CYQR 240900Z 27007KT 15SM SCT240 11/11 A3004 RMK CI0 SLP180

CYQR;2013-07-24 10:00;CYQR 241000Z 27006KT 15SM BKN210 11/11 A3005 RMK CI1 SLP182

CYQR;2013-07-24 11:00;CYQR 241100Z 29006KT 15SM FEW070 SCT210 10/10 A3006 RMK ACC1CI1 SLP185

CYQR;2013-07-24 12:00;CYQR 241200Z 30005KT 15SM FEW070 FEW210 10/10 A3007 RMK ACC1CI1 ACC TR SLP191

CYQR;2013-07-24 13:00;CYQR 241300Z 33007KT 15SM FEW100 FEW280 13/13 A3008 RMK AC1CI0 SLP192

CYQR;2013-07-24 14:00;CYQR 241400Z 34008KT 15SM BKN280 15/14 A3008 RMK CI2 SLP194

CYQR;2013-07-24 15:00;CYQR 241500Z 32007KT 15SM FEW010 BKN280 16/14 A3009 RMK CU1CI6 SLP196

CYQR;2013-07-24 16:00;CYQR 241600Z 33011KT 15SM FEW014 BKN280 17/14 A3008 RMK CU1CI5 SLP193

CYQR;2013-07-24 17:00;CYQR 241700Z 34011G16KT 15SM FEW015 BKN280 19/14 A3007 RMK CU1CI5 SLP192

CYQR;2013-07-24 18:00;CYQR 241800Z 34007KT 15SM FEW025 FEW100 BKN300 20/14 A3007 RMK CU1AC1CI3 SLP191

CYQR;2013-07-24 19:00;CYQR 241900Z 34008KT 15SM FEW025 BKN300 20/14 A3008 RMK CU1CI5 SLP192

CYQR;2013-07-24 20:00;CYQR 242000Z 29008KT 15SM FEW030 BKN300 21/14 A3007 RMK CU2CI2 SLP189

CYQR;2013-07-24 21:00;CYQR 242100Z 24007KT 15SM SCT039 SCT300 22/13 A3006 RMK CU3CI0 SLP188

CYQR;2013-07-24 22:00;CYQR 242200Z 26006KT 15SM SCT040 BKN300 22/14 A3005 RMK CU3CI2 SLP185

CYQR;2013-07-24 23:00;CYQR 242300Z 32009KT 15SM FEW053 BKN300 22/13 A3004 RMK CU1CI5 SLP180

CYQR;2013-07-25 00:00;CYQR 250000Z 33004KT 15SM FEW055 FEW120 BKN300 21/14 A3003 RMK CU1AC2CI3 SLP177

CYQR;2013-07-25 01:00;CYQR 250100Z 26004KT 15SM FEW055 FEW120 BKN300 21/15 A3001 RMK CU1AC1CI2 SLP171

CYQR;2013-07-25 02:00;CYQR 250200Z 21005KT 15SM FEW055 FEW120 BKN300 19/16 A3001 RMK SC1AC2CI2 SLP171

CYQR;2013-07-25 03:00;CYQR 250300Z 30006KT 15SM FEW050 BKN070 BKN300 17/15 A3002 RMK SC1AC5CI1 SLP173

CYQR;2013-07-25 04:00;CYQR 250400Z 32007KT 15SM FEW040 BKN110 18/15 A3004 RMK CU2AC5 OBS TAKEN -09 SLP178

CYQR;2013-07-25 05:00;CYQR 250500Z 33008KT 15SM SCT120 16/14 A3003 RMK AC2 SLP174

CYQR;2013-07-25 06:00;CYQR 250600Z 32009KT 15SM FEW120 14/13 A3005 RMK AC1 SLP180

CYQR;2013-07-25 07:00;CYQR 250700Z 31004KT 15SM SKC 13/12 A3005 RMK SLP180

CYQR;2013-07-25 08:00;CYQR 250800Z 31006KT 15SM FEW007 FEW080 13/13 A3005 RMK SF1AC2 SLP182

CYQR;2013-07-25 09:00;CYQR 250900Z 31005KT 15SM OVC008 13/13 A3007 RMK SC8 CIG RAG SLP190

CYQR;2013-07-25 09:39;CYQR 250939Z 33013G20KT 15SM SCT008 14/ RMK SC3

CYQR;2013-07-25 10:00;CYQR 251000Z 32010KT 15SM FEW008 FEW085 12/12 A3010 RMK SC1AC1 SC TR SLP197

CYQR;2013-07-25 11:00;CYQR 251100Z 33014KT 15SM OVC015 11/11 A3011 RMK SC8 SLP203

CYQR;2013-07-25 12:00;CYQR 251200Z 33015G20KT 15SM FEW016 11/09 A3012 RMK SC1 SLP207

CYQR;2013-07-25 13:00;CYQR 251300Z 33013G20KT 15SM FEW010 11/09 A3015 RMK SC1 SLP215

CYQR;2013-07-25 13:27;CYQR 251327Z 33012G18KT 15SM BKN010 12/ RMK SC6

CYQR;2013-07-25 14:00;CYQR 251400Z 32014G22KT 15SM BKN012 13/09 A3015 RMK CU6 SLP218

CYQR;2013-07-25 15:00;CYQR 251500Z 34016KT 15SM BKN020 14/09 A3016 RMK CU6 SLP223

CYQR;2013-07-25 16:00;CYQR 251600Z 01017KT 15SM OVC017 14/10 A3018 RMK CU7 SLP229

CYQR;2013-07-25 17:00;CYQR 251700Z 36014KT 15SM BKN017 14/10 A3019 RMK CU7 SLP232

CYQR;2013-07-25 18:00;CYQR 251800Z 35017KT 15SM BKN027 16/10 A3020 RMK CU6 SLP234

CYQR;2013-07-25 19:00;CYQR 251900Z 35015G21KT 15SM BKN031 18/10 A3019 RMK CU6 SLP232

CYQR;2013-07-25 20:00;CYQR 252000Z 36017G22KT 15SM BKN035 18/09 A3020 RMK CU6 SLP234

CYQR;2013-07-25 21:00;CYQR 252100Z 01014G22KT 15SM BKN038 BKN070 17/09 A3020 RMK CU6AC1 TCU ASOCTD SLP235

CYQR;2013-07-25 22:00;CYQR 252200Z 02018KT 15SM BKN035 BKN075 17/09 A3021 RMK CU5AC1 TCU ASOCTD SLP239

CYQR;2013-07-25 23:00;CYQR 252300Z 02014G19KT 15SM BKN031 BKN078 BKN250 18/10 A3022 RMK CU5AC1CI1 TCU ASOCTD SLP242

CYQR;2013-07-26 00:00;CYQR 260000Z 03016KT 15SM SCT030 BKN075 BKN280 16/10 A3024 RMK CU3AC2CI1 TCU ASOCTD SLP250

CYQR;2013-07-26 01:00;CYQR 260100Z 09014KT 15SM FEW032 FEW050 14/08 A3025 RMK CU1SC1 SC TR SLP255

CYQR;2013-07-26 02:00;CYQR 260200Z 06009KT 15SM FEW030 14/07 A3026 RMK SC1 SLP259

CYQR;2013-07-26 03:00;CYQR 260300Z 09005KT 15SM FEW030 11/08 A3028 RMK SC1 SLP265

CYQR;2013-07-26 04:00;CYQR 260400Z 09003KT 15SM FEW035 11/08 A3029 RMK SC1 OBS TAKEN -09 SLP269

CYQR;2013-07-26 05:00;CYQR 260500Z 10002KT 15SM SKC 09/07 A3030 RMK SLP271

CYQR;2013-07-26 06:00;CYQR 260600Z 30002KT 15SM SKC 07/06 A3030 RMK SLP275

CYQR;2013-07-26 07:00;CYQR 260700Z 27003KT 15SM SKC 06/05 A3030 RMK SLP276

CYQR;2013-07-26 08:00;CYQR 260800Z 34006KT 15SM SKC 06/05 A3031 RMK SLP278

CYQR;2013-07-26 09:00;CYQR 260900Z 05005KT 15SM SKC 06/06 A3030 RMK SLP276

CYQR;2013-07-26 10:00;CYQR 261000Z 05004KT 15SM FEW040 SCT230 07/07 A3032 RMK SC1CI0 SLP281

CYQR;2013-07-26 11:00;CYQR 261100Z 00000KT 15SM MIFG FEW210 05/05 A3034 RMK CI0 SLP287

CYQR;2013-07-26 12:00;CYQR 261200Z 10003KT 15SM VCFG FEW060 BKN220 08/07 A3036 RMK SC1CI0 SLP294

CYQR;2013-07-26 13:00;CYQR 261300Z 20004KT 15SM FEW100 BKN220 06/05 A3036 RMK AC1CI1 SLP295

CYQR;2013-07-26 14:00;CYQR 261400Z 11005KT 15SM FEW100 FEW250 12/10 A3036 RMK AC1CI0 SLP295

CYQR;2013-07-26 15:00;CYQR 261500Z 14009KT 15SM FEW020 FEW250 14/09 A3036 RMK CU1CI1 SLP293

CYQR;2013-07-26 16:00;CYQR 261600Z 11007KT 15SM FEW026 15/09 A3035 RMK CU2 SLP292

CYQR;2013-07-26 17:00;CYQR 261700Z 13007KT 15SM SCT030 16/09 A3035 RMK CU4 SLP289

CYQR;2013-07-26 18:00;CYQR 261800Z 14009G15KT 15SM BKN040 16/08 A3034 RMK CU5 SLP289

CYQR;2013-07-26 19:00;CYQR 261900Z 13007KT 15SM BKN041 18/09 A3033 RMK CU6 SLP285

CYQR;2013-07-26 20:00;CYQR 262000Z 14012G18KT 15SM BKN045 19/09 A3032 RMK CU6 SLP282

CYQR;2013-07-26 21:00;CYQR 262100Z 12004KT 15SM BKN047 18/08 A3031 RMK CU6 SLP279

CYQR;2013-07-26 22:00;CYQR 262200Z 11008KT 15SM BKN050 18/08 A3030 RMK CU5 SLP276

CYQR;2013-07-26 23:00;CYQR 262300Z 12009KT 15SM SCT051 SCT350 19/08 A3029 RMK CU3CI0 SLP271

CYQR;2013-07-27 00:00;CYQR 270000Z 12011G16KT 15SM FEW051 FEW350 19/08 A3028 RMK SC1CI0 SLP265

CYQR;2013-07-27 01:00;CYQR 270100Z 11011KT 15SM FEW050 FEW350 18/07 A3026 RMK SC1CI0 SLP261

CYQR;2013-07-27 02:00;CYQR 270200Z 12007KT 15SM FEW300 16/08 A3027 RMK CI0 SLP262

CYQR;2013-07-27 03:00;CYQR 270300Z 10007KT 15SM FEW300 13/08 A3026 RMK CI0 SLP259

CYQR;2013-07-27 04:00;CYQR 270400Z 11007KT 15SM FEW300 12/08 A3026 RMK CI0 SLP258

CYQR;2013-07-27 05:00;CYQR 270500Z 11008KT 15SM FEW300 12/08 A3025 RMK CI0 SLP257

CYQR;2013-07-27 06:00;CYQR 270600Z 12012KT 15SM SKC 11/08 A3025 RMK SLP256

CYQR;2013-07-27 07:00;CYQR 270700Z 13011KT 15SM FEW280 11/08 A3025 RMK CI0 SLP254

CYQR;2013-07-27 08:00;CYQR 270800Z 13008KT 15SM FEW280 09/08 A3025 RMK CI0 SLP253

CYQR;2013-07-27 09:00;CYQR 270900Z 13008KT 15SM FEW280 08/07 A3024 RMK CI0 SLP253

CYQR;2013-07-27 10:00;CYQR 271000Z 12009KT 15SM FEW280 08/07 A3024 RMK CI0 SLP251

CYQR;2013-07-27 11:00;CYQR 271100Z 13009KT 15SM FEW280 07/07 A3023 RMK CI0 SLP249

CYQR;2013-07-27 12:00;CYQR 271200Z 13008KT 15SM FEW280 08/07 A3022 RMK CI0 SLP246

CYQR;2013-07-27 13:00;CYQR 271300Z 14012KT 15SM FEW280 09/08 A3021 RMK CI1 SLP241

CYQR;2013-07-27 14:00;CYQR 271400Z 15011G17KT 15SM FEW280 12/09 A3020 RMK CI0 SLP240

CYQR;2013-07-27 15:00;CYQR 271500Z 14016G22KT 15SM FEW300 14/09 A3019 RMK CI0 SLP234

CYQR;2013-07-27 16:00;CYQR 271600Z 16016KT 15SM FEW320 15/09 A3017 RMK CI1 SLP229

CYQR;2013-07-27 17:00;CYQR 271700Z 13019G25KT 15SM FEW040 FEW320 17/08 A3015 RMK CU1CI1 SLP220

CYQR;2013-07-27 18:00;CYQR 271800Z 14019G24KT 15SM FEW040 FEW320 18/08 A3013 RMK CU1CI1 SLP212

CYQR;2013-07-27 19:00;CYQR 271900Z 15017G26KT 15SM FEW040 FEW120 FEW320 19/08 A3011 RMK CU1ACC1CI1 SLP205

CYQR;2013-07-27 20:00;CYQR 272000Z 16019G27KT 15SM FEW080 FEW320 20/08 A3009 RMK ACC1CI0 SLP198

CYQR;2013-07-27 21:00;CYQR 272100Z 15018G26KT 15SM FEW080 FEW320 20/07 A3007 RMK ACC1CI1 SLP192

CYQR;2013-07-27 22:00;CYQR 272200Z 15017G26KT 15SM FEW050 FEW080 FEW320 20/07 A3005 RMK CU1ACC1CI1 SLP187

CYQR;2013-07-27 23:00;CYQR 272300Z 14020G26KT 15SM FEW050 FEW080 FEW320 20/07 A3003 RMK CU1ACC1CI1 SLP179

CYQR;2013-07-28 00:00;CYQR 280000Z 14020G27KT 15SM FEW320 20/07 A3001 RMK CI0 SLP173

CYQR;2013-07-28 01:00;CYQR 280100Z 14016G22KT 15SM FEW100 FEW320 19/08 A3000 RMK AC1CI0 SLP171

CYQR;2013-07-28 02:00;CYQR 280200Z 14014KT 15SM FEW080 FEW300 17/09 A3000 RMK ACC1CI1 SLP169

CYQR;2013-07-28 03:00;CYQR 280300Z 13011KT 15SM FEW040 FEW080 BKN280 16/09 A3001 RMK SC1ACC1CI2 SLP170

CYQR;2013-07-28 04:00;CYQR 280400Z 12014KT 15SM FEW080 FEW120 BKN280 14/09 A3001 RMK ACC1AC1CI2 SLP171

CYQR;2013-07-28 05:00;CYQR 280500Z 13015G22KT 15SM FEW080 FEW120 BKN250 14/09 A2999 RMK ACC1AC1CI2 SLP165

CYQR;2013-07-28 06:00;CYQR 280600Z 13016G21KT 15SM FEW080 SCT120 BKN250 14/09 A2998 RMK AC1AC2CI1 SLP160

CYQR;2013-07-28 07:00;CYQR 280700Z 14013KT 15SM FEW080 BKN120 13/09 A2998 RMK AC2AC2 SLP160

CYQR;2013-07-28 08:00;CYQR 280800Z 13010KT 15SM FEW080 BKN120 12/09 A2999 RMK AC2AC2 SLP162

CYQR;2013-07-28 09:00;CYQR 280900Z 13014KT 15SM BKN095 12/09 A2997 RMK AC6 SLP155

CYQR;2013-07-28 10:00;CYQR 281000Z 15014KT 15SM BKN081 12/09 A2997 RMK AC5 SLP156

CYQR;2013-07-28 11:00;CYQR 281100Z 15013G18KT 15SM SCT080 SCT130 BKN250 12/08 A2996 RMK AC3AC1CI2 ACC ASOCTD SLP154

CYQR;2013-07-28 12:00;CYQR 281200Z 14012G17KT 15SM FEW080 SCT130 BKN250 11/08 A2996 RMK ACC1AC2CI3 SLP151

CYQR;2013-07-28 13:00;CYQR 281300Z 14012KT 15SM FEW080 SCT160 OVC280 12/09 A2996 RMK ACC1AC2CI4 SLP154

CYQR;2013-07-28 14:00;CYQR 281400Z 16013KT 15SM BKN080 BKN200 OVC280 13/09 A2996 RMK AC5CI2CI2 SLP153

CYQR;2013-07-28 15:00;CYQR 281500Z 16011G16KT 15SM FEW100 OVC200 13/10 A2996 RMK AC2CS6 SLP156

CYQR;2013-07-28 16:00;CYQR 281600Z 16016KT 15SM FEW100 OVC180 15/10 A2995 RMK AC2AS6 ACC ASOCTD SLP151

CYQR;2013-07-28 17:00;CYQR 281700Z 17012KT 15SM BKN085 OVC220 15/11 A2997 RMK AC7CI1 ACC ASOCTD SLP157

CYQR;2013-07-28 18:00;CYQR 281800Z 13007KT 15SM VCSH BKN071 BKN087 OVC220 15/12 A2995 RMK AC5AC2CI1 ACC EMBD SLP149

CYQR;2013-07-28 19:00;CYQR 281900Z 16008KT 15SM VCSH BKN071 OVC120 18/11 A2996 RMK AC5AC3 ACC EMBD SLP154

CYQR;2013-07-28 20:00;CYQR 282000Z 14011KT 15SM FEW075 BKN120 OVC220 18/12 A2995 RMK AC2AC5CI2 ACC ASOCTD SLP149

CYQR;2013-07-28 21:00;CYQR 282100Z 13009KT 15SM BKN110 BKN280 18/13 A2993 RMK AC6CI2 SLP143

CYQR;2013-07-28 22:00;CYQR 282200Z 16013KT 15SM FEW110 SCT280 21/14 A2991 RMK ACC2CI2 SLP136

CYQR;2013-07-28 23:00;CYQR 282300Z 15013KT 15SM FEW030 FEW110 SCT280 21/14 A2990 RMK CU1ACC1CI2 SLP134

CYQR;2013-07-29 00:00;CYQR 290000Z 15012KT 15SM FEW050 FEW120 SCT300 22/14 A2991 RMK CU1AC1CI0 SLP133

CYQR;2013-07-29 01:00;CYQR 290100Z 13006KT 15SM FEW050 BKN095 OVC300 20/14 A2991 RMK SC2AC3CI2 CVCTV CLD EMBD SLP134

CYQR;2013-07-29 02:00;CYQR 290200Z 13006KT 15SM FEW050 BKN086 OVC250 19/14 A2991 RMK SC2AC4CI2 CVCTV CLD EMBD SW SLP135

CYQR;2013-07-29 03:00;CYQR 290300Z 15011KT 15SM VCSH FEW050 SCT089 BKN170 19/13 A2989 RMK SC2AC2AC4 CB EMBD S-SW LTGIC DIST S SLP128

CYQR;2013-07-29 04:00;CYQR 290400Z 13007KT 15SM VCSH FEW050 BKN120 BKN170 17/13 A2989 RMK SC2AC2AC2 CVCTV CLD EMBD SLP127

CYQR;2013-07-29 05:00;CYQR 290500Z 10003KT 15SM BKN110 17/13 A2989 RMK AC6 SLP129

CYQR;2013-07-29 06:00;CYQR 290600Z 12006KT 15SM FEW100 13/12 A2990 RMK AC2 SLP132

CYQR;2013-07-29 07:00;CYQR 290700Z 16007KT 15SM SKC 13/12 A2991 RMK SLP138

CYQR;2013-07-29 08:00;CYQR 290800Z 16004KT 15SM SKC 13/12 A2991 RMK SLP136

CYQR;2013-07-29 09:00;CYQR 290900Z 15004KT 15SM FEW100 12/12 A2990 RMK AC1 SLP134

CYQR;2013-07-29 10:00;CYQR 291000Z 14005KT 15SM FEW100 11/11 A2989 RMK AC1 CB TOP LTGIC DIST N SLP130

CYQR;2013-07-29 11:00;CYQR 291100Z 15005KT 15SM MIFG FEW100 BKN280 12/12 A2989 RMK AC1CI1 CB TOPS DIST N SLP130

CYQR;2013-07-29 11:33;CYQR 291133Z 29006KT 1/2SM R13/2400FT/N FG FEW100 BKN280 09/ RMK FG2AC1CI2 VIS N-E 2

CYQR;2013-07-29 11:40;CYQR 291140Z 28005KT 1/4SM R13/2400FT/N FG SCT100 OVC280 09/ RMK FG3AC1CI2

CYQR;2013-07-29 12:00;CYQR 291200Z 28004KT 3/4SM R13/2600V4500FT/N BR SCT100 BKN280 10/10 A2990 RMK FG2AC1CI2 SLP133

CYQR;2013-07-29 12:09;CYQR 291209Z 29002KT 1SM R13/P6000FT/U BR BKN004 OVC280 10/ RMK FG2ST2CI2

CYQR;2013-07-29 12:31;CYQR 291231Z 00000KT 3SM BR SCT003 SCT100 OVC280 11/ RMK FG2SF2AC1CI2

CYQR;2013-07-29 13:00;CYQR 291300Z 25002KT 12SM FEW003 BKN120 OVC260 12/12 A2991 RMK SF1AC5CI2 SLP136

CYQR;2013-07-29 14:00;CYQR 291400Z 22005KT 15SM FEW003 BKN095 OVC280 13/13 A2991 RMK SF1AC6CI1 SLP137

CYQR;2013-07-29 15:00;CYQR 291500Z 23003KT 15SM FEW005 BKN085 OVC280 14/14 A2992 RMK SF1AC6CI1 SLP139

CYQR;2013-07-29 16:00;CYQR 291600Z 31008KT 15SM FEW008 BKN085 OVC280 17/14 A2993 RMK SF1AC6CI1 SLP140

CYQR;2013-07-29 17:00;CYQR 291700Z 34009KT 15SM BKN052 BKN150 OVC280 17/13 A2994 RMK SC6AC1CI2 SLP143

CYQR;2013-07-29 18:00;CYQR 291800Z 25008KT 15SM FEW020 FEW050 FEW150 BKN280 18/13 A2995 RMK CU1SC2AC1CI4 SLP149

CYQR;2013-07-29 19:00;CYQR 291900Z 30012KT 15SM SCT030 BKN090 BKN300 21/14 A2995 RMK CU3AC2CI2 SLP148

CYQR;2013-07-29 20:00;CYQR 292000Z 31012G18KT 15SM FEW032 BKN300 20/12 A2996 RMK CU1CI6 SLP152

CYQR;2013-07-29 21:00;CYQR 292100Z 32014KT 15SM SCT037 BKN300 21/12 A2996 RMK CU3CI1 SLP153

CYQR;2013-07-29 22:00;CYQR 292200Z 32013G19KT 15SM SCT037 BKN300 21/11 A2997 RMK CU4CI0 SLP155

CYQR;2013-07-29 23:00;CYQR 292300Z 32014G20KT 15SM FEW040 BKN300 20/11 A2998 RMK CU2CI0 SLP159

CYQR;2013-07-30 00:00;CYQR 300000Z 31016KT 15SM FEW040 FEW300 19/10 A2999 RMK SC1CI1 SLP165

CYQR;2013-07-30 01:00;CYQR 300100Z 31011KT 15SM FEW035 FEW300 18/10 A3000 RMK SC1CI1 CB TOP DIST E SLP169

CYQR;2013-07-30 02:00;CYQR 300200Z 31006KT 15SM FEW035 FEW090 FEW300 16/11 A3000 RMK SC1AC1CI1 CB TOP DIST E SLP169

CYQR;2013-07-30 03:00;CYQR 300300Z 29008KT 15SM FEW070 FEW250 12/10 A3002 RMK AC1CI1 SLP176

CYQR;2013-07-30 04:00;CYQR 300400Z 29007KT 15SM FEW070 FEW250 11/09 A3003 RMK AC1CI1 OBS TAKEN -7 SLP179

CYQR;2013-07-30 05:00;CYQR 300500Z 28008KT 15SM SKC 10/09 A3003 RMK SLP181

CYQR;2013-07-30 06:00;CYQR 300600Z 29006KT 15SM SKC 10/08 A3005 RMK SLP184

CYQR;2013-07-30 07:00;CYQR 300700Z 28007KT 15SM FEW110 08/08 A3005 RMK AC1 SLP187

CYQR;2013-07-30 08:00;CYQR 300800Z 29005KT 15SM FEW120 08/08 A3005 RMK AC1 SLP185

CYQR;2013-07-30 09:00;CYQR 300900Z 26006KT 15SM SCT080 OVC120 09/08 A3006 RMK AC3AC4 SLP189

CYQR;2013-07-30 09:16;CYQR 300916Z 24002KT 15SM -SHRA BKN065 OVC090 09/ RMK SC5AC3

CYQR;2013-07-30 09:46;CYQR 300946Z 00000KT 15SM BKN060 BKN120 09/ RMK SC5AC2

CYQR;2013-07-30 10:00;CYQR 301000Z 32003KT 15SM BKN060 BKN120 09/09 A3005 RMK SC5AC2 SLP184

CYQR;2013-07-30 11:00;CYQR 301100Z 25005KT 15SM BKN098 10/10 A3007 RMK AC7 SLP191

CYQR;2013-07-30 11:18;CYQR 301118Z 28003KT 15SM -SHRA FEW040 BKN100 10/ RMK SC2AC5

CYQR;2013-07-30 12:00;CYQR 301200Z 27003KT 15SM FEW048 BKN100 11/10 A3008 RMK SC2AC5 SLP195

CYQR;2013-07-30 13:00;CYQR 301300Z 28006KT 15SM FEW045 SCT092 12/11 A3009 RMK SC1AC2 SLP198

CYQR;2013-07-30 14:00;CYQR 301400Z 28011KT 15SM BKN079 14/12 A3010 RMK AC6 SLP200

CYQR;2013-07-30 15:00;CYQR 301500Z 28012KT 15SM FEW014 BKN079 BKN350 15/12 A3010 RMK CF1AC6CI1 SLP205

CYQR;2013-07-30 16:00;CYQR 301600Z 31008KT 15SM FEW015 BKN065 BKN098 16/11 A3010 RMK CF1SC4AC2 SLP203

CYQR;2013-07-30 17:00;CYQR 301700Z 26008KT 15SM FEW015 BKN062 17/10 A3010 RMK CF1SC6 SLP204

CYQR;2013-07-30 18:00;CYQR 301800Z 31009KT 15SM BKN029 17/11 A3011 RMK CU7 SLP208

CYQR;2013-07-30 19:00;CYQR 301900Z 26006KT 15SM SCT031TCU 18/11 A3010 RMK TCU3 SLP204

CYQR;2013-07-30 19:29;CYQR 301929Z 28013KT 15SM -SHRA BKN033TCU 20/ RMK TCU6

CYQR;2013-07-30 19:41;CYQR 301941Z 33015KT 15SM BKN035TCU 18/ RMK TCU6

CYQR;2013-07-30 20:00;CYQR 302000Z 32012G19KT 15SM SCT037TCU 19/11 A3009 RMK TCU4 SLP201

CYQR;2013-07-30 21:00;CYQR 302100Z 32013KT 15SM SCT042TCU SCT350 20/10 A3008 RMK TCU3CI1 SLP196

CYQR;2013-07-30 22:00;CYQR 302200Z 29021G32KT 15SM FEW048TCU SCT090 22/08 A3007 RMK TCU2AC2 SH N-E SLP194

CYQR;2013-07-30 23:00;CYQR 302300Z 34013KT 15SM FEW040TCU FEW084 19/09 A3009 RMK TCU1AC1 SLP198

CYQR;2013-07-31 00:00;CYQR 310000Z 30016KT 15SM FEW040TCU FEW100 20/09 A3008 RMK TCU1AC1 SLP194

CYQR;2013-07-31 01:00;CYQR 310100Z 32014KT 15SM FEW040TCU 19/09 A3009 RMK TCU1 SLP197

CYQR;2013-07-31 02:00;CYQR 310200Z 33013KT 15SM FEW040 17/09 A3010 RMK SC1 SLP200

CYQR;2013-07-31 03:00;CYQR 310300Z 33009KT 15SM FEW080 FEW300 13/09 A3012 RMK AC1CI1 SLP209

CYQR;2013-07-31 04:00;CYQR 310400Z 31006KT 15SM FEW080 10/08 A3014 RMK AC1 SLP215

CYQR;2013-07-31 05:00;CYQR 310500Z 31007KT 15SM SKC 09/07 A3014 RMK SLP217

CYQR;2013-07-31 06:00;CYQR 310600Z 29003KT 15SM SKC 07/06 A3015 RMK SLP223

CYQR;2013-07-31 07:00;CYQR 310700Z 27006KT 15SM SKC 06/05 A3016 RMK SLP225

CYQR;2013-07-31 08:00;CYQR 310800Z 26006KT 15SM SKC 07/06 A3015 RMK SLP223

CYQR;2013-07-31 09:00;CYQR 310900Z 25005KT 15SM SKC 05/05 A3015 RMK SLP223

CYQR;2013-07-31 10:00;CYQR 311000Z 26003KT 15SM FEW280 05/04 A3015 RMK CI0 SLP222

CYQR;2013-07-31 11:00;CYQR 311100Z 28002KT 15SM SCT084 SCT280 06/05 A3015 RMK AC2CI0 SLP221

CYQR;2013-07-31 12:00;CYQR 311200Z 27006KT 15SM FEW082 FEW280 07/06 A3015 RMK AC1CI0 ACC ASOCTD SLP221

CYQR;2013-07-31 13:00;CYQR 311300Z 27005KT 15SM FEW082 FEW280 10/09 A3015 RMK AC1CI0 ACC ASOCTD SLP220

CYQR;2013-07-31 14:00;CYQR 311400Z 28009KT 15SM FEW080 BKN280 14/12 A3015 RMK AC1CI0 SLP220

CYQR;2013-07-31 15:00;CYQR 311500Z 28008KT 15SM FEW025 FEW080 BKN250 17/11 A3014 RMK CU1ACC1CI2 CONTRAILS SLP216

CYQR;2013-07-31 16:00;CYQR 311600Z 32011KT 15SM FEW035 FEW080 FEW280 19/10 A3013 RMK CU1AC1CI1 SLP213

CYQR;2013-07-31 17:00;CYQR 311700Z 30018KT 15SM SCT043 BKN280 20/09 A3013 RMK CU4CI1 SLP212

CYQR;2013-07-31 18:00;CYQR 311800Z 31016G21KT 15SM SCT049 21/08 A3013 RMK CU3 SLP212

CYQR;2013-07-31 19:00;CYQR 311900Z 32019G25KT 15SM SCT052 SCT280 22/09 A3011 RMK CU3CI0 SLP207

CYQR;2013-07-31 20:00;CYQR 312000Z 31011G17KT 15SM BKN052 BKN092 BKN280 22/09 A3010 RMK CU5AC1CI1 SLP205

CYQR;2013-07-31 21:00;CYQR 312100Z 32008KT 15SM BKN056 BKN100 BKN280 21/09 A3010 RMK CU5AC1CI1 SLP203

CYQR;2013-07-31 22:00;CYQR 312200Z 34012KT 15SM SCT056 BKN080 BKN280 23/10 A3008 RMK CU3AC2CI1 TCU ASOCTD SLP199

CYQR;2013-07-31 23:00;CYQR 312300Z 30010G15KT 15SM FEW056 BKN081 21/10 A3008 RMK CU2AC5 SLP198

CYQR;2013-08-01 00:00;CYQR 010000Z 30012KT 15SM FEW050 SCT073 22/10 A3006 RMK CU1AC2 SLP191

CYQR;2013-08-01 01:00;CYQR 010100Z 32010KT 15SM FEW050 SCT080 22/10 A3005 RMK CU1AC3 SLP186

CYQR;2013-08-01 02:00;CYQR 010200Z 33006KT 15SM FEW080 FEW280 19/12 A3005 RMK AC1CI1 SLP185

CYQR;2013-08-01 03:00;CYQR 010300Z 26004KT 15SM FEW080 FEW280 15/12 A3005 RMK AC1CI0 CONTRAILS SLP185

CYQR;2013-08-01 04:00;CYQR 010400Z 25007KT 15SM FEW080 FEW280 12/11 A3006 RMK AC1CI0 SLP186

CYQR;2013-08-01 05:00;CYQR 010500Z 26006KT 15SM FEW280 11/09 A3005 RMK CI0 SLP185

CYQR;2013-08-01 06:00;CYQR 010600Z 28006KT 15SM SKC 10/08 A3006 RMK SLP189

CYQR;2013-08-01 07:00;CYQR 010700Z 23002KT 15SM FEW065 09/08 A3007 RMK SC1 SLP190

CYQR;2013-08-01 08:00;CYQR 010800Z 35005KT 15SM SKC 10/09 A3007 RMK SLP190

CYQR;2013-08-01 09:00;CYQR 010900Z 36004KT 15SM FEW280 09/08 A3007 RMK CI0 SLP192

CYQR;2013-08-01 10:00;CYQR 011000Z 31006KT 15SM SKC 07/07 A3007 RMK SLP193

CYQR;2013-08-01 11:00;CYQR 011100Z 36004KT 15SM BCFG FEW100 FEW280 07/07 A3007 RMK AC1CI0 VIS W 6 SLP193

CYQR;2013-08-01 12:00;CYQR 011200Z 30003KT 12SM R13/4000VP6000FT/D VCFG FEW080 FEW280 06/06 A3007 RMK AC1CI0 VIS W 4 SLP194

CYQR;2013-08-01 13:00;CYQR 011300Z 34003KT 12SM FEW080 11/11 A3008 RMK AC1 SLP196

CYQR;2013-08-01 14:00;CYQR 011400Z 22002KT 15SM FEW080 FEW280 14/12 A3008 RMK AC1CI1 SLP196

CYQR;2013-08-01 15:00;CYQR 011500Z 21004KT 15SM FEW020 FEW280 18/14 A3008 RMK CF1CI1 SLP194

CYQR;2013-08-01 16:00;CYQR 011600Z 33008KT 15SM FEW030 FEW080 FEW280 20/12 A3007 RMK CU1AC1CI1 SLP189

CYQR;2013-08-01 17:00;CYQR 011700Z 32007KT 15SM FEW034 FEW300 21/12 A3006 RMK CU1CI1 CU TR SLP187

CYQR;2013-08-01 18:00;CYQR 011800Z 33010KT 15SM FEW038 FEW300 22/12 A3005 RMK CU1CI1 SLP182

CYQR;2013-08-01 19:00;CYQR 011900Z 23005KT 15SM SCT041 SCT300 22/13 A3004 RMK CU3CI1 SLP180

CYQR;2013-08-01 20:00;CYQR 012000Z 36013KT 15SM BKN049 BKN300 24/12 A3004 RMK CU5CI1 TCU ASOCTD SLP179

CYQR;2013-08-01 21:00;CYQR 012100Z 32012KT 15SM FEW049 FEW300 24/11 A3003 RMK CU1CI1 SLP176

CYQR;2013-08-01 22:00;CYQR 012200Z 34013KT 15SM FEW053 SCT320 24/11 A3002 RMK CU2CI1 SLP174

CYQR;2013-08-01 23:00;CYQR 012300Z 35011KT 15SM FEW053 BKN320 23/11 A3001 RMK CU1CI2 SLP170

CYQR;2013-08-02 00:00;CYQR 020000Z 35006KT 15SM FEW053 BKN320 23/11 A3000 RMK CU1CI4 SLP169

CYQR;2013-08-02 01:00;CYQR 020100Z 35010KT 15SM FEW050 SCT230 BKN320 22/10 A3000 RMK SC1CI2CI1 SLP167

CYQR;2013-08-02 02:00;CYQR 020200Z 34005KT 15SM FEW090 BKN320 19/11 A3000 RMK ACC1CI2 SLP167

CYQR;2013-08-02 03:00;CYQR 020300Z 35005KT 15SM FEW070 FEW100 SCT220 BKN320 16/12 A3002 RMK AC1AC1CI1CI2 SLP171

CYQR;2013-08-02 04:00;CYQR 020400Z 01006KT 15SM SCT070 BKN280 15/11 A3002 RMK AC3CI1 SLP171

CYQR;2013-08-02 05:00;CYQR 020500Z 03006KT 15SM FEW070 SCT280 15/10 A3002 RMK AC2CI0 SLP173

CYQR;2013-08-02 06:00;CYQR 020600Z 06008KT 15SM FEW280 15/10 A3003 RMK CI0 SLP173

CYQR;2013-08-02 07:00;CYQR 020700Z 08006KT 15SM SKC 13/09 A3005 RMK SLP179

CYQR;2013-08-02 08:00;CYQR 020800Z 08006KT 15SM SKC 12/09 A3005 RMK SLP179

CYQR;2013-08-02 09:00;CYQR 020900Z 07007KT 15SM SCT280 12/08 A3004 RMK CI0 SLP176

CYQR;2013-08-02 10:00;CYQR 021000Z 08005KT 15SM SCT280 11/08 A3003 RMK CI1 SLP174

CYQR;2013-08-02 11:00;CYQR 021100Z 07004KT 15SM FEW130 SCT220 BKN300 10/07 A3004 RMK AC1CI2CI0 SLP176

CYQR;2013-08-02 12:00;CYQR 021200Z 11003KT 15SM FEW090 SCT220 BKN320 10/08 A3007 RMK ACC1CI2CI1 SLP191

CYQR;2013-08-02 13:00;CYQR 021300Z 07006KT 15SM FEW090 SCT220 BKN320 13/08 A3008 RMK ACC1CI2CI1 SLP192

CYQR;2013-08-02 14:00;CYQR 021400Z 11005KT 15SM FEW090 SCT220 BKN350 15/09 A3008 RMK AC1CI2CI2 SLP194

CYQR;2013-08-02 15:00;CYQR 021500Z 18003KT 15SM FEW090 SCT220 BKN350 17/10 A3008 RMK AC1CI3CI2 SLP194

CYQR;2013-08-02 16:00;CYQR 021600Z 08005KT 15SM FEW035 FEW090 SCT220 BKN320 18/10 A3008 RMK CU1AC1CI2CI2 SLP194

CYQR;2013-08-02 17:00;CYQR 021700Z 08012KT 15SM FEW043 FEW090 BKN250 20/07 A3008 RMK CU2AC1CI2 SLP193

CYQR;2013-08-02 18:00;CYQR 021800Z 08010KT 15SM FEW048 BKN250 21/09 A3009 RMK CU1CI2 SLP195

CYQR;2013-08-02 19:00;CYQR 021900Z 12010KT 15SM FEW050 BKN250 20/09 A3010 RMK CU1CI2 SLP197

CYQR;2013-08-02 20:00;CYQR 022000Z 12009KT 15SM FEW049 BKN250 20/09 A3010 RMK CU2CI2 SLP198

CYQR;2013-08-02 21:00;CYQR 022100Z 13008KT 15SM FEW051 BKN250 22/09 A3009 RMK CU2CI1 SLP197

CYQR;2013-08-02 22:00;CYQR 022200Z 13008KT 15SM FEW054 BKN250 20/09 A3009 RMK CU2CI2 SLP197

CYQR;2013-08-02 23:00;CYQR 022300Z 07007KT 15SM FEW054 BKN250 21/08 A3009 RMK CU1CI4 SLP197

CYQR;2013-08-03 00:00;CYQR 030000Z 09010G15KT 15SM FEW054 FEW100 BKN230 20/08 A3009 RMK CU1AC2CI3 SLP199

CYQR;2013-08-03 01:00;CYQR 030100Z 11009KT 15SM FEW100 BKN210 19/08 A3011 RMK AC1CI7 SLP204

CYQR;2013-08-03 02:00;CYQR 030200Z 09010KT 15SM FEW100 BKN210 BKN300 18/08 A3012 RMK AC1CI6CI2 SLP208

CYQR;2013-08-03 03:00;CYQR 030300Z 09008KT 15SM FEW080 BKN210 BKN300 16/08 A3013 RMK AC1CI5CI1 SLP211

CYQR;2013-08-03 04:00;CYQR 030400Z 10007KT 15SM FEW066 BKN220 BKN300 15/08 A3015 RMK SC1CI5CI0 SLP215

CYQR;2013-08-03 05:00;CYQR 030500Z 11008KT 15SM SCT068 BKN220 14/08 A3016 RMK AC2CI2 SLP220

CYQR;2013-08-03 06:00;CYQR 030600Z 12008KT 15SM SCT075 BKN220 12/08 A3017 RMK AC2CI1 SLP225

CYQR;2013-08-03 07:00;CYQR 030700Z 11007KT 15SM BKN065 13/09 A3018 RMK SC5 SLP227

CYQR;2013-08-03 08:00;CYQR 030800Z 11006KT 15SM BKN060 13/08 A3018 RMK SC4 SLP228

CYQR;2013-08-03 09:00;CYQR 030900Z 11006KT 15SM BKN060 13/08 A3019 RMK SC6 SLP229

CYQR;2013-08-03 10:00;CYQR 031000Z 09006KT 15SM SCT060 11/07 A3019 RMK SC2 SLP228

CYQR;2013-08-03 11:00;CYQR 031100Z 10006KT 15SM FEW060 SCT280 10/07 A3020 RMK SC1CI0 SLP231

CYQR;2013-08-03 12:00;CYQR 031200Z 11006KT 15SM SCT055 SCT130 BKN280 10/07 A3020 RMK SC2AC1CI1 SLP236

CYQR;2013-08-03 13:00;CYQR 031300Z 10006KT 15SM FEW055 FEW280 14/09 A3021 RMK SC1CI0 SLP238

CYQR;2013-08-03 14:00;CYQR 031400Z 12010KT 15SM FEW059 FEW300 16/09 A3022 RMK SC2CI1 SLP242

CYQR;2013-08-03 15:00;CYQR 031500Z 13008KT 15SM FEW030 FEW059 FEW300 17/10 A3022 RMK CU1SC1CI1 SLP242

CYQR;2013-08-03 16:00;CYQR 031600Z 12010KT 15SM FEW035 FEW060 FEW300 20/11 A3022 RMK CU1SC1CI1 SLP241

CYQR;2013-08-03 17:00;CYQR 031700Z 13007KT 15SM FEW040 FEW300 20/10 A3022 RMK CU1CI1 SLP241

CYQR;2013-08-03 18:00;CYQR 031800Z 16011KT 15SM FEW047 FEW300 21/11 A3022 RMK CU1CI1 SLP240

CYQR;2013-08-03 19:00;CYQR 031900Z 13007KT 15SM SCT045 SCT300 21/11 A3021 RMK CU3CI1 SLP237

CYQR;2013-08-03 20:00;CYQR 032000Z 14009G16KT 15SM SCT049 SCT180 22/10 A3020 RMK CU4AC1 SLP234

CYQR;2013-08-03 21:00;CYQR 032100Z 16006KT 15SM SCT055 SCT170 23/10 A3019 RMK CU4AC1 SLP227

CYQR;2013-08-03 22:00;CYQR 032200Z 16009KT 15SM SCT058 BKN170 BKN300 22/11 A3018 RMK CU3AC2CI2 SLP225

CYQR;2013-08-03 23:00;CYQR 032300Z 16010KT 15SM SCT050 BKN067 BKN120 BKN300 22/10 A3017 RMK CU3AC2AC1CI1 SLP222

CYQR;2013-08-04 00:00;CYQR 040000Z 12010KT 15SM FEW050 FEW070 FEW130 SCT300 22/11 A3015 RMK SC1AC1AC1CI1 SLP218

CYQR;2013-08-04 01:00;CYQR 040100Z 13008KT 15SM BKN080 21/11 A3013 RMK AC4 SLP211

CYQR;2013-08-04 02:00;CYQR 040200Z 13008KT 15SM BKN080 20/12 A3013 RMK AC6 SLP210

CYQR;2013-08-04 03:00;CYQR 040300Z 12008KT 15SM FEW030 BKN078 18/12 A3012 RMK SC1AC4 SLP206

CYQR;2013-08-04 04:00;CYQR 040400Z 12010KT 15SM BKN078 18/12 A3013 RMK AC5 SLP207

CYQR;2013-08-04 05:00;CYQR 040500Z 14010KT 15SM BKN078 17/12 A3013 RMK AC3 SLP209

CYQR;2013-08-04 06:00;CYQR 040600Z 13010KT 15SM SCT080 OVC240 16/12 A3012 RMK AC3CI5 SLP204

CYQR;2013-08-04 07:00;CYQR 040700Z 12012KT 15SM FEW080 OVC240 15/11 A3011 RMK AC2CI6 SLP201

CYQR;2013-08-04 08:00;CYQR 040800Z 13013KT 15SM BKN055 BKN080 OVC240 15/11 A3010 RMK SC5AC2CI2 SLP199

CYQR;2013-08-04 09:00;CYQR 040900Z 13010KT 15SM BKN039 OVC100 15/11 A3009 RMK SC6AC2 SLP194

CYQR;2013-08-04 10:04;CYQR 041004Z 13013KT 12SM -SHRA BKN040 OVC100 15/ RMK SC6AC2 CVCTV CLD EMBD

CYQR;2013-08-04 11:00;CYQR 041100Z 14009KT 15SM -SHRA BKN041 BKN120 14/14 A3007 RMK SC5AC2 CVCTV CLD EMBD SLP188

CYQR;2013-08-04 11:37;CYQR 041137Z 13006KT 15SM FEW010 BKN043 BKN120 14/ RMK SF1SC5AC2

CYQR;2013-08-04 12:00;CYQR 041200Z 12007KT 15SM FEW007 SCT040 BKN120 14/13 A3007 RMK SF1SC3AC4 SLP188

CYQR;2013-08-04 13:00;CYQR 041300Z 13007KT 15SM FEW007 FEW040 BKN110 BKN300 14/13 A3008 RMK SF1SC2AC5CI1 SLP190

CYQR;2013-08-04 14:00;CYQR 041400Z 14007KT 15SM FEW007 SCT025 OVC110 15/14 A3008 RMK SF1SC3AC3 SLP190

CYQR;2013-08-04 15:00;CYQR 041500Z 14010KT 15SM SCT008 BKN038 BKN100 OVC300 15/14 A3008 RMK SF3SC2AC2CI1 SLP192

CYQR;2013-08-04 15:34;CYQR 041534Z 12009KT 15SM BKN009 BKN029 BKN100 16/ RMK SF5SC2AC1

CYQR;2013-08-04 16:00;CYQR 041600Z 13009KT 15SM BKN009 BKN029 16/14 A3007 RMK SC6SC2 SLP189

CYQR;2013-08-04 16:32;CYQR 041632Z 16008KT 15SM FEW009 BKN027 BKN100 BKN300 16/ RMK SC2SC2AC2CI0

CYQR;2013-08-04 17:00;CYQR 041700Z 14009KT 15SM FEW009 FEW023 BKN110 BKN300 16/15 A3005 RMK SC1SC2AC2CI0 SLP183

CYQR;2013-08-04 18:00;CYQR 041800Z 13009KT 15SM FEW020 SCT110 BKN300 19/14 A3004 RMK SC2AC2CI2 SLP177

CYQR;2013-08-04 19:00;CYQR 041900Z 13005KT 15SM BKN022 BKN110 BKN300 20/14 A3003 RMK SC5AC1CI1 SLP175

CYQR;2013-08-04 20:00;CYQR 042000Z 13005KT 15SM BKN028 BKN110 20/14 A3003 RMK CU6AC1 CB TOPS DIST W SLP174

CYQR;2013-08-04 21:00;CYQR 042100Z 17010G15KT 15SM BKN028 BKN110 21/15 A3002 RMK CU6AC1 CB TOPS DIST W SLP170

CYQR;2013-08-04 22:00;CYQR 042200Z 12006KT 15SM BKN033 BKN110 BKN300 21/14 A3000 RMK CU6AC1CI1 TCU ASOCTD CB S SLP164

CYQR;2013-08-04 23:00;CYQR 042300Z 10005KT 15SM SCT033 SCT300 22/14 A3000 RMK CU3CI1 TCU ASOCTD CB S SLP162

CYQR;2013-08-05 00:00;CYQR 050000Z 12007KT 15SM FEW033TCU SCT300 21/15 A2998 RMK TCU2CI0 SLP158

CYQR;2013-08-05 01:00;CYQR 050100Z 12007KT 15SM FEW034 FEW100 FEW300 21/13 A2997 RMK CU1AC1CI1 TCU ASOCTD SLP155

CYQR;2013-08-05 02:00;CYQR 050200Z 14005KT 15SM FEW020 FEW210 19/14 A2998 RMK CU1CI1 SLP158

CYQR;2013-08-05 03:00;CYQR 050300Z 13007KT 15SM FEW020 16/13 A2999 RMK SC1 SLP164

CYQR;2013-08-05 04:00;CYQR 050400Z 13006KT 15SM FEW035 15/13 A3000 RMK SC1 OBS TAKEN -08 SLP167

CYQR;2013-08-05 05:00;CYQR 050500Z 15006KT 15SM SKC 15/13 A3000 RMK SLP165

CYQR;2013-08-05 06:00;CYQR 050600Z 15006KT 15SM SKC 13/13 A3000 RMK SLP165

CYQR;2013-08-05 07:00;CYQR 050700Z 17007KT 15SM FEW095 13/13 A2999 RMK AC0 SLP161

CYQR;2013-08-05 08:00;CYQR 050800Z 17005KT 15SM SKC 12/11 A2999 RMK SLP161

CYQR;2013-08-05 09:00;CYQR 050900Z 13004KT 12SM SKC 11/11 A2997 RMK SLP156

CYQR;2013-08-05 10:00;CYQR 051000Z 12005KT 15SM VCFG SKC 10/10 A2996 RMK FG BANK S-SW SLP152

CYQR;2013-08-05 11:00;CYQR 051100Z 12005KT 15SM VCFG FEW030 FEW210 10/10 A2995 RMK SC1CI1 FG BANK S-SW SLP150

CYQR;2013-08-05 12:00;CYQR 051200Z 12006KT 12SM VCFG FEW045 09/09 A2994 RMK SC1 FG BANK E-S-SW SLP147

CYQR;2013-08-05 13:00;CYQR 051300Z 11005KT 15SM FEW001 FEW090 SCT220 11/11 A2994 RMK SF1AC2CI0 SLP147

CYQR;2013-08-05 14:00;CYQR 051400Z 14004KT 15SM FEW090 SCT220 13/13 A2994 RMK AC2CI1 ACC ASOCTD SLP147

CYQR;2013-08-05 15:00;CYQR 051500Z 18007KT 15SM FEW150 BKN240 16/14 A2992 RMK AC1CI1 CONTRAILS SLP140

CYQR;2013-08-05 16:00;CYQR 051600Z 14004KT 15SM FEW160 OVC230 20/16 A2991 RMK AC2CI5 CONTRAILS SLP134

CYQR;2013-08-05 17:00;CYQR 051700Z 14006KT 15SM FEW120 FEW160 OVC230 21/16 A2989 RMK AC2AC1CI4 SLP130

CYQR;2013-08-05 18:00;CYQR 051800Z 18006KT 15SM FEW030 FEW120 FEW160 OVC230 23/16 A2989 RMK CF1AC1AC1CI2 CC ASOCTD SLP124

CYQR;2013-08-05 19:00;CYQR 051900Z 19007KT 15SM FEW035 FEW120 BKN280 25/17 A2987 RMK CU1AC2CI3 CC ASOCTD SLP118

CYQR;2013-08-05 20:00;CYQR 052000Z 21005KT 15SM FEW041CB SCT120 OVC280 24/16 A2984 RMK CB2AC1CI4 CB NW-NE SLP108

CYQR;2013-08-05 21:00;CYQR 052100Z 03008KT 15SM BKN033CB BKN140 BKN280 21/15 A2983 RMK CB5AC1CI1 CB N-E SLP108

CYQR;2013-08-05 21:34;CYQR 052134Z 03011KT 15SM TS VCSH BKN035CB BKN140 BKN280 21/ RMK CB5AC1CI1

CYQR;2013-08-05 21:41;CYQR 052141Z 03011KT 15SM -TSRA BKN035CB BKN140 BKN280 20/ RMK CB5AC1CI1

CYQR;2013-08-05 21:50;CYQR 052150Z 01016KT 12SM TSRA FEW011 BKN035CB BKN140 BKN280 18/ RMK SF1CB5AC1CI1

CYQR;2013-08-05 22:00;CYQR 052200Z 01012G20KT 15SM -TSRA FEW011 SCT035CB BKN140 BKN280 18/16 A2984 RMK SF1CB4AC2CI1 SLP110

CYQR;2013-08-05 22:16;CYQR 052216Z 04009KT 15SM TS VCSH FEW011 SCT035CB BKN140 BKN280 19/ RMK SF1CB3AC2CI1

CYQR;2013-08-05 22:32;CYQR 052232Z 03008KT 15SM FEW035CB SCT140 BKN300 20/ RETS RMK CB2AC1CI2

CYQR;2013-08-05 23:00;CYQR 052300Z 02006KT 15SM -SHRA SCT035CB BKN140 BKN300 19/16 A2981 RETS RMK CB4AC2CI1 SLP102

CYQR;2013-08-05 23:24;CYQR 052324Z 02005KT 15SM -TSRA BKN035CB BKN060 BKN140 BKN300 19/ RMK CB5SC1ACC1CI2

CYQR;2013-08-06 00:00;CYQR 060000Z 08003KT 15SM -SHRA BKN035CB BKN070 BKN140 BKN300 19/17 A2979 RETS RMK CB5AC1AC1CI2 SLP096

CYQR;2013-08-06 00:11;CYQR 060011Z 05007KT 15SM VCSH FEW035CB BKN070 BKN140 BKN300 19/ RMK CB2AC2AC1CI2

CYQR;2013-08-06 01:00;CYQR 060100Z 22003KT 15SM FEW035CB SCT079 BKN120 BKN300 19/18 A2978 RMK CB2AC2AC2CI2 SLP093

CYQR;2013-08-06 01:08;CYQR 060108Z 00000KT 15SM -SHRA FEW035CB SCT079 BKN120 BKN300 19/ RMK CB2AC2AC2CI2

CYQR;2013-08-06 02:00;CYQR 060200Z 09005KT 15SM FEW029 BKN130 BKN300 19/16 A2978 RMK SC1AC6CI1 SLP094

CYQR;2013-08-06 03:00;CYQR 060300Z 11004KT 15SM BKN082 OVC130 17/16 A2980 RMK AC7AC1 SLP096

CYQR;2013-08-06 03:47;CYQR 060347Z 13005KT 15SM -SHRA BKN063 OVC130 17/ RMK SC6AC2

CYQR;2013-08-06 04:00;CYQR 060400Z 14005KT 12SM -SHRA BKN036 OVC063 17/16 A2981 RMK SC7SC1 LTGIC DIST SW SLP099

CYQR;2013-08-06 04:32;CYQR 060432Z 13006KT 15SM FEW016 BKN065 OVC130 16/ RMK SC2SC5AC2

CYQR;2013-08-06 05:00;CYQR 060500Z 14005KT 15SM FEW023 BKN093 OVC250 16/15 A2979 RMK SC2AC6CI1 SLP094

CYQR;2013-08-06 06:00;CYQR 060600Z 07002KT 15SM SCT065 BKN130 OVC250 15/15 A2979 RMK SC3AC4CI1 SLP090

CYQR;2013-08-06 07:00;CYQR 060700Z 03007KT 15SM -SHRA BKN056 OVC130 16/15 A2980 RMK SC6AC2 SLP093

CYQR;2013-08-06 08:00;CYQR 060800Z 25004KT 12SM -SHRA OVC078 15/15 A2979 RMK AC8 SLP089

CYQR;2013-08-06 09:00;CYQR 060900Z 01006KT 15SM -SHRA BKN080 OVC120 16/15 A2979 RMK AC6AC2 SLP090

CYQR;2013-08-06 09:53;CYQR 060953Z 35006KT 15SM FEW020 BKN082 OVC120 15/ RMK SC1AC6AC2

CYQR;2013-08-06 10:00;CYQR 061000Z 35006KT 15SM FEW020 BKN082 OVC110 15/14 A2980 RMK SC2AC5AC2 SLP094

CYQR;2013-08-06 11:00;CYQR 061100Z 34004KT 15SM FEW020 SCT044 BKN085 14/14 A2981 RMK SC1SC2AC1 SLP096

CYQR;2013-08-06 12:00;CYQR 061200Z 01004KT 15SM BKN025 BKN130 15/14 A2982 RMK SC6AC2 SLP105

CYQR;2013-08-06 13:00;CYQR 061300Z 05006KT 15SM FEW025 BKN041 BKN090 BKN250 15/14 A2983 RMK SC2SC4AC2CI1 TCU EMBD SLP108

CYQR;2013-08-06 13:46;CYQR 061346Z 05003KT 15SM FEW004 BKN041 OVC090 15/ RMK SF2SC5AC1 CVCTV CLD EMBD

CYQR;2013-08-06 14:00;CYQR 061400Z 04003KT 15SM FEW004 BKN043 OVC084 16/15 A2985 RMK SF1SC6AC1 SLP113

CYQR;2013-08-06 14:16;CYQR 061416Z 05004KT 15SM BKN006 BKN040 OVC070 16/ RMK SF5SC2AC1

CYQR;2013-08-06 14:23;CYQR 061423Z 05006KT 12SM -RA BKN006 BKN034 OVC070 16/ RMK SF5SC2AC1

CYQR;2013-08-06 14:40;CYQR 061440Z 08006KT 8SM -RA SCT007 OVC019 15/ RMK SF4SC4

CYQR;2013-08-06 15:00;CYQR 061500Z 08004KT 15SM BKN009 OVC074 16/15 A2987 RMK SC7AC1 SLP120

CYQR;2013-08-06 15:22;CYQR 061522Z 08006KT 15SM BKN011 OVC079 16/ RMK SC7AC1

CYQR;2013-08-06 15:36;CYQR 061536Z 10007KT 15SM SCT015 OVC056 16/ RMK SC4SC4

CYQR;2013-08-06 15:47;CYQR 061547Z 09006KT 15SM BKN009 OVC079 16/ RMK SC5AC2

CYQR;2013-08-06 16:00;CYQR 061600Z 09006KT 15SM BKN009 OVC065 16/14 A2988 RMK SC6SC1 SLP124

CYQR;2013-08-06 16:16;CYQR 061616Z 09007KT 15SM BKN011 OVC050 17/ RMK SC7SC1 CIG RAG

CYQR;2013-08-06 17:00;CYQR 061700Z 07007KT 15SM BKN018 OVC080 17/14 A2989 RMK CU6AC2 SLP127

CYQR;2013-08-06 18:00;CYQR 061800Z 08008KT 15SM SCT018 OVC080 18/14 A2989 RMK CU3AC4 SLP127

CYQR;2013-08-06 19:00;CYQR 061900Z 14007KT 15SM BKN023 OVC087 18/14 A2989 RMK CU6AC2 TCU ASOCTD SLP128

CYQR;2013-08-06 19:13;CYQR 061913Z 12008KT 15SM -SHRA BKN023 OVC087 17/ RMK CU7AC1 TCU EMBD

CYQR;2013-08-06 20:00;CYQR 062000Z 02007KT 4SM SHRA BR OVC016 16/14 A2991 RMK SC8 TCU EMBD SLP134

CYQR;2013-08-06 20:13;CYQR 062013Z 05004KT 5SM -SHRA BR SCT014TCU OVC046 15/ RERA RMK TCU4SC4

CYQR;2013-08-06 21:00;CYQR 062100Z 07004KT 6SM -SHRA BR SCT017TCU BKN045 OVC080 15/13 A2993 RERA RMK TCU3SC3AC2 SLP142

CYQR;2013-08-06 22:00;CYQR 062200Z 08004KT 15SM -SHRA FEW020TCU SCT060 OVC090 16/14 A2994 RMK TCU2SC2AC4 SLP146

CYQR;2013-08-06 22:29;CYQR 062229Z 02002KT 15SM FEW012 BKN067 BKN100 BKN300 16/ RMK CU2AC3AC1CI1

CYQR;2013-08-06 23:00;CYQR 062300Z 05002KT 15SM FEW012 BKN060 BKN100 16/14 A2994 RMK CU2SC4AC2 SLP147

CYQR;2013-08-07 00:00;CYQR 070000Z 04010KT 15SM FEW024 FEW100 FEW200 18/12 A2995 RMK CU1AC1CI1 SLP149

CYQR;2013-08-07 01:00;CYQR 070100Z 02006KT 15SM FEW024 FEW050 FEW200 18/10 A2996 RMK CU1SC1CI1 SLP151

CYQR;2013-08-07 02:00;CYQR 070200Z 32003KT 15SM SCT054 SCT150 15/11 A2997 RMK CU2AC1 SLP156

CYQR;2013-08-07 03:00;CYQR 070300Z 35005KT 15SM FEW048 FEW150 13/11 A2999 RMK CU1AC1 SLP163

CYQR;2013-08-07 04:00;CYQR 070400Z 02006KT 15SM FEW040 11/09 A3001 RMK CU1 SLP170

CYQR;2013-08-07 05:00;CYQR 070500Z 03004KT 15SM SKC 11/09 A3002 RMK SLP174

CYQR;2013-08-07 06:00;CYQR 070600Z 03002KT 15SM SKC 10/09 A3003 RMK SLP178

CYQR;2013-08-07 07:00;CYQR 070700Z 36003KT 15SM SKC 08/07 A3004 RMK SLP181

CYQR;2013-08-07 08:00;CYQR 070800Z 35002KT 15SM SKC 08/07 A3004 RMK SLP182

CYQR;2013-08-07 09:00;CYQR 070900Z 34002KT 15SM SKC 07/06 A3004 RMK SLP186

CYQR;2013-08-07 10:00;CYQR 071000Z 26003KT 15SM SKC 05/05 A3004 RMK SLP187

CYQR;2013-08-07 11:00;CYQR 071100Z 30003KT 15SM FEW052 05/05 A3006 RMK CU2 SLP192

CYQR;2013-08-07 12:00;CYQR 071200Z 35002KT 15SM FEW050 FEW090 06/05 A3006 RMK CU1AC1 SLP193

CYQR;2013-08-07 13:00;CYQR 071300Z 10002KT 12SM FEW060 FEW090 FEW260 08/08 A3006 RMK SC1AC1CI0 TCU ASOCTD SLP193

CYQR;2013-08-07 14:00;CYQR 071400Z 00000KT 12SM FEW060 FEW090 FEW260 12/09 A3006 RMK CU1AC1CI1 TCU + ACC ASOCTD SLP193

CYQR;2013-08-07 15:00;CYQR 071500Z 17002KT 15SM FEW060 FEW090 SCT300 14/12 A3006 RMK CU1AC1CI0 TCU ASOCTD SLP189

CYQR;2013-08-07 16:00;CYQR 071600Z 23005KT 15SM FEW060 FEW090 BKN300 16/11 A3005 RMK CU1AC1CI2 SLP186

CYQR;2013-08-07 17:00;CYQR 071700Z 23006KT 15SM FEW060 SCT096 BKN300 18/11 A3005 RMK CU1AC2CI2 TCU + CC ASOCTD SLP186

CYQR;2013-08-07 18:00;CYQR 071800Z 25006KT 15SM FEW050 SCT070 BKN100 BKN300 17/12 A3006 RMK CU2AC2AC2CI1 TCU ASOCTD SLP191

CYQR;2013-08-07 19:00;CYQR 071900Z 32009KT 15SM FEW020 BKN066 OVC080 16/13 A3005 RMK CU2AC3AC3 TCU ASOCTD SLP189

CYQR;2013-08-07 20:00;CYQR 072000Z 23002KT 15SM FEW020TCU BKN068 BKN100 OVC300 17/13 A3005 RMK TCU2AC3AC2CI0 SLP186

CYQR;2013-08-07 21:00;CYQR 072100Z 24007KT 15SM FEW030TCU BKN095 BKN300 17/13 A3005 RMK TCU2AC3CI2 SLP188

CYQR;2013-08-07 21:25;CYQR 072125Z 26005KT 15SM -SHRA SCT032TCU BKN086 BKN300 18/ RMK TCU3AC2CI2

CYQR;2013-08-07 22:00;CYQR 072200Z 20002KT 15SM VCSH FEW030TCU BKN058 OVC090 17/12 A3004 RMK TCU2SC2AC2 SLP185

CYQR;2013-08-07 22:35;CYQR 072235Z 33003KT 15SM -SHRA SCT036 OVC080 17/ RMK SC4AC4 TCU EMBD

CYQR;2013-08-07 23:00;CYQR 072300Z 31006KT 12SM -SHRA SCT036 OVC083 16/13 A3005 RMK SC4AC4 TCU ASOCTD SLP188

CYQR;2013-08-07 23:43;CYQR 072343Z 29002KT 15SM VCSH FEW020 BKN068 15/ RMK SC2AC5 TCU EMBD

CYQR;2013-08-07 23:53;CYQR 072353Z 33004KT 15SM -SHRA FEW025 BKN070 OVC100 15/ RMK SC2AC5AC2 CVCTV CLD EMBD

CYQR;2013-08-08 00:00;CYQR 080000Z 32005KT 12SM -SHRA FEW027 BKN071 OVC100 15/14 A3005 RMK SC2AC5AC2 CVCTV CLD EMBD SLP192

CYQR;2013-08-08 01:00;CYQR 080100Z 25005KT 12SM -SHRA SCT020 BKN060 BKN100 15/14 A3005 RMK CU3SC3AC1 CVCTV CLD EMBD SLP192

CYQR;2013-08-08 02:00;CYQR 080200Z 21004KT 15SM FEW020 BKN051 BKN100 14/13 A3004 RMK SC1SC5AC2 SLP188

CYQR;2013-08-08 03:00;CYQR 080300Z 18003KT 15SM BKN075 BKN120 13/13 A3005 RMK AC5AC2 SLP187

CYQR;2013-08-08 04:00;CYQR 080400Z 04002KT 15SM BKN079 BKN120 14/13 A3006 RMK AC6AC1 SLP189

CYQR;2013-08-08 05:00;CYQR 080500Z 01002KT 15SM BKN062 OVC090 13/13 A3006 RMK SC6AC2 SLP189

CYQR;2013-08-08 06:00;CYQR 080600Z 33003KT 15SM BKN056 OVC085 13/13 A3006 RMK SC6AC2 SLP189

CYQR;2013-08-08 07:00;CYQR 080700Z 04005KT 15SM BKN054 OVC081 14/13 A3007 RMK SC7AC1 SLP191

CYQR;2013-08-08 08:00;CYQR 080800Z 04008KT 15SM FEW023 OVC047 13/12 A3009 RMK SC2SC6 SLP196

CYQR;2013-08-08 09:00;CYQR 080900Z 05009KT 15SM BKN027 OVC043 12/09 A3009 RMK SC6SC2 SLP198

CYQR;2013-08-08 10:00;CYQR 081000Z 06007KT 15SM BKN034 OVC059 12/08 A3009 RMK SC7SC1 SLP198

CYQR;2013-08-08 11:00;CYQR 081100Z 03005KT 15SM FEW040 BKN057 BKN170 11/09 A3010 RMK SC1SC2AC1 SLP200

CYQR;2013-08-08 12:00;CYQR 081200Z 04004KT 15SM BKN053 BKN090 BKN170 10/09 A3011 RMK SC5AC1AC1 SLP208

CYQR;2013-08-08 13:00;CYQR 081300Z 03005KT 15SM FEW045 FEW090 SCT170 10/08 A3012 RMK SC1AC2AC1 SLP213

CYQR;2013-08-08 14:00;CYQR 081400Z 03005KT 15SM FEW090 FEW170 13/07 A3013 RMK AC1AC1 SLP215

CYQR;2013-08-08 15:00;CYQR 081500Z 05009KT 15SM FEW090 FEW170 FEW340 14/05 A3014 RMK AC1AC1CI0 CONTRAILS SLP217

CYQR;2013-08-08 16:00;CYQR 081600Z 05009KT 15SM FEW035 FEW090 FEW340 15/06 A3015 RMK CF1AC1CI1 CONTRAILS SLP219

CYQR;2013-08-08 17:00;CYQR 081700Z 02011KT 15SM FEW040 FEW130 BKN340 16/06 A3015 RMK CU1AC1CI2 SLP220

CYQR;2013-08-08 18:00;CYQR 081800Z 36006KT 15SM FEW045 FEW130 BKN340 16/06 A3015 RMK CU1AC1CI4 SLP220

CYQR;2013-08-08 19:00;CYQR 081900Z 04008KT 15SM FEW045 FEW130 BKN340 17/06 A3015 RMK CU1AC1CI2 SLP219

CYQR;2013-08-08 20:00;CYQR 082000Z 34009KT 15SM FEW048 FEW130 BKN340 18/07 A3015 RMK CU1AC1CI1 SLP219

CYQR;2013-08-08 21:00;CYQR 082100Z 35010KT 15SM FEW050 FEW130 BKN340 18/07 A3015 RMK CU1AC1CI1 SLP218

CYQR;2013-08-08 22:00;CYQR 082200Z 32007KT 15SM FEW056 FEW170 BKN340 18/06 A3015 RMK CU1AC1CI2 SLP217

CYQR;2013-08-08 23:00;CYQR 082300Z 32007KT 15SM FEW056 FEW100 FEW170 BKN340 18/07 A3015 RMK CU1AC1AC1CI1 AC TR SLP217

CYQR;2013-08-09 00:00;CYQR 090000Z 34008KT 15SM BKN060 BKN100 BKN170 BKN340 18/08 A3015 RMK SC5AC1AC1CI1 SLP218

CYQR;2013-08-09 01:00;CYQR 090100Z 34009KT 15SM BKN060 BKN100 BKN340 17/08 A3015 RMK SC5AC1CI1 SLP218

CYQR;2013-08-09 02:00;CYQR 090200Z 29005KT 15SM FEW060 FEW340 15/09 A3014 RMK SC1CI1 SLP217

CYQR;2013-08-09 03:00;CYQR 090300Z 34005KT 15SM FEW090 12/09 A3016 RMK AC1 SLP224

CYQR;2013-08-09 04:00;CYQR 090400Z 34005KT 15SM SKC 11/09 A3017 RMK SLP227

CYQR;2013-08-09 05:00;CYQR 090500Z 32006KT 15SM SKC 09/07 A3017 RMK SLP229

CYQR;2013-08-09 06:00;CYQR 090600Z 30005KT 15SM SKC 08/07 A3019 RMK SLP235

CYQR;2013-08-09 07:00;CYQR 090700Z 31004KT 15SM SKC 07/06 A3019 RMK SLP237

CYQR;2013-08-09 08:00;CYQR 090800Z 32003KT 15SM SKC 07/07 A3020 RMK SLP238

CYQR;2013-08-09 09:00;CYQR 090900Z 33004KT 15SM SKC 06/06 A3020 RMK SLP239

CYQR;2013-08-09 10:00;CYQR 091000Z 32005KT 15SM SKC 06/05 A3020 RMK SLP239

CYQR;2013-08-09 11:00;CYQR 091100Z 30003KT 15SM FEW100 06/05 A3020 RMK AC1 SLP241

CYQR;2013-08-09 12:00;CYQR 091200Z 36002KT 15SM FEW100 05/05 A3021 RMK AC1 SLP244

CYQR;2013-08-09 13:00;CYQR 091300Z 31003KT 15SM FEW100 08/08 A3022 RMK AC1 SLP248

CYQR;2013-08-09 14:00;CYQR 091400Z 04006KT 15SM FEW100 FEW300 13/10 A3023 RMK AC1CI1 SLP250

CYQR;2013-08-09 15:00;CYQR 091500Z 01006KT 15SM FEW020 FEW120 15/10 A3023 RMK CF1AC1 SLP250

CYQR;2013-08-09 16:00;CYQR 091600Z 03004KT 15SM FEW024 FEW120 FEW300 16/10 A3024 RMK CU1AC1CI1 SLP251

CYQR;2013-08-09 17:00;CYQR 091700Z 36009KT 15SM FEW028 BKN049 17/10 A3023 RMK CU1SC6 SLP250

CYQR;2013-08-09 18:00;CYQR 091800Z 01008KT 15SM BKN026 BKN040 17/11 A3024 RMK CU5SC2 SLP252

CYQR;2013-08-09 19:00;CYQR 091900Z 02005KT 15SM SCT026 OVC047 17/11 A3023 RMK CU4SC4 SLP251

CYQR;2013-08-09 20:00;CYQR 092000Z 03006KT 15SM SCT026 OVC042 17/11 A3023 RMK CU4SC4 SLP251

CYQR;2013-08-09 21:00;CYQR 092100Z 02007KT 15SM SCT040 BKN060 18/12 A3022 RMK CU4SC3 SLP248

CYQR;2013-08-09 22:00;CYQR 092200Z 04004KT 15SM SCT030 BKN063 18/12 A3021 RMK CU3SC4 SLP245

CYQR;2013-08-09 23:00;CYQR 092300Z 03003KT 15SM SCT030 BKN048 18/12 A3020 RMK CU3SC4 SLP242

CYQR;2013-08-10 00:00;CYQR 100000Z 06006KT 15SM SCT034 BKN060 19/11 A3020 RMK CU3SC3 SLP238

CYQR;2013-08-10 01:00;CYQR 100100Z 07006KT 15SM FEW036 SCT050 18/11 A3019 RMK CU1SC4 SLP236

CYQR;2013-08-10 02:00;CYQR 100200Z 08006KT 15SM FEW060 FEW320 17/10 A3019 RMK SC1CI0 SLP236

CYQR;2013-08-10 03:00;CYQR 100300Z 04003KT 15SM FEW062 14/10 A3019 RMK SC2 SLP234

CYQR;2013-08-10 04:00;CYQR 100400Z 09003KT 15SM FEW062 13/10 A3020 RMK SC2 SLP235

CYQR;2013-08-10 05:00;CYQR 100500Z 13004KT 15SM BKN062 13/11 A3020 RMK SC7 SLP236

CYQR;2013-08-10 06:00;CYQR 100600Z 03003KT 15SM SCT062 11/10 A3019 RMK SC3 SLP235

CYQR;2013-08-10 07:00;CYQR 100700Z 07002KT 15SM SCT140 11/10 A3019 RMK AC2 SLP234

CYQR;2013-08-10 08:00;CYQR 100800Z 07005KT 15SM FEW140 11/10 A3019 RMK AC1 SLP233

CYQR;2013-08-10 09:00;CYQR 100900Z 11003KT 15SM SKC 10/10 A3018 RMK SLP231

CYQR;2013-08-10 10:00;CYQR 101000Z 12004KT 15SM FEW180 09/09 A3018 RMK CI0 SLP229

CYQR;2013-08-10 11:00;CYQR 101100Z 12004KT 15SM FEW060 BKN170 09/09 A3017 RMK SC2AC1 SLP228

CYQR;2013-08-10 12:00;CYQR 101200Z 10005KT 15SM BKN092 BKN170 11/11 A3017 RMK AC5AC1 SLP225

CYQR;2013-08-10 13:00;CYQR 101300Z 12004KT 15SM BKN092 BKN170 12/11 A3017 RMK AC6AC1 SLP225

CYQR;2013-08-10 14:00;CYQR 101400Z 10003KT 15SM FEW050 OVC086 12/12 A3017 RMK SC1AC7 SLP227

CYQR;2013-08-10 14:21;CYQR 101421Z 09002KT 15SM -SHRA FEW050 OVC086 13/ RMK SC1AC7 CVCTV CLD ASOCTD

CYQR;2013-08-10 15:00;CYQR 101500Z 05004KT 15SM -SHRA BKN028 BKN047 OVC086 13/13 A3018 RMK CU5SC2AC2 SLP230

CYQR;2013-08-10 16:00;CYQR 101600Z 09002KT 8SM -SHRA BKN022 OVC050 14/13 A3018 RMK SC6SC2 CU ASOCTD SLP229

CYQR;2013-08-10 17:00;CYQR 101700Z 07006KT 15SM -SHRA SCT025 OVC085 14/14 A3016 RMK SC4AC4 CU ASOCTD SLP225

CYQR;2013-08-10 18:00;CYQR 101800Z 19002KT 8SM -SHRA BKN020 OVC080 14/14 A3018 RMK SC6AC2 CU ASOCTD SLP232

CYQR;2013-08-10 18:43;CYQR 101843Z 14003KT 15SM FEW007 FEW020 BKN077 15/ RMK CU2SC1AC3

CYQR;2013-08-10 19:00;CYQR 101900Z 16003KT 15SM FEW008 FEW025 BKN075 15/14 A3017 RMK CU1SC1AC3 SLP230

CYQR;2013-08-10 20:00;CYQR 102000Z 00000KT 15SM BKN016 BKN075 18/13 A3016 RMK CU6AC1 SLP227

CYQR;2013-08-10 21:00;CYQR 102100Z 16003KT 15SM BKN021 18/14 A3015 RMK CU6 SLP222

CYQR;2013-08-10 22:00;CYQR 102200Z 21005KT 15SM SCT022 SCT200 18/14 A3014 RMK CU4CI1 SLP218

CYQR;2013-08-10 23:00;CYQR 102300Z 18005KT 15SM FEW030 SCT220 19/14 A3013 RMK CU2CI1 SLP215

CYQR;2013-08-11 00:00;CYQR 110000Z 21005KT 15SM FEW030 FEW220 19/13 A3012 RMK CU1CI1 SLP209

CYQR;2013-08-11 01:00;CYQR 110100Z 21005KT 15SM FEW040 FEW270 18/13 A3011 RMK CU1CI1 SLP205

CYQR;2013-08-11 02:00;CYQR 110200Z 22005KT 15SM FEW044 16/14 A3011 RMK CU1 SLP207

CYQR;2013-08-11 03:00;CYQR 110300Z 23003KT 15SM FEW040 14/13 A3012 RMK CU1 SLP212

CYQR;2013-08-11 04:00;CYQR 110400Z 24003KT 15SM SKC 12/11 A3014 RMK SLP218

CYQR;2013-08-11 05:00;CYQR 110500Z 22002KT 15SM SKC 11/11 A3015 RMK SLP222

CYQR;2013-08-11 06:00;CYQR 110600Z 24003KT 15SM SKC 10/10 A3017 RMK SLP228

CYQR;2013-08-11 07:00;CYQR 110700Z 00000KT 15SM SKC 10/10 A3017 RMK SLP229

CYQR;2013-08-11 08:00;CYQR 110800Z 07002KT 15SM SKC 09/09 A3016 RMK SLP226

CYQR;2013-08-11 09:00;CYQR 110900Z 00000KT 15SM MIFG SKC 09/09 A3016 RMK SLP224

CYQR;2013-08-11 10:00;CYQR 111000Z 11002KT 15SM MIFG SKC 08/08 A3016 RMK VIS SW 4 SLP224

CYQR;2013-08-11 11:00;CYQR 111100Z 04002KT 15SM FEW250 08/08 A3015 RMK CI1 VIS SW 4 SLP222

CYQR;2013-08-11 12:00;CYQR 111200Z 19002KT 8SM MIFG FEW170 FEW250 07/07 A3016 RMK AC1CI1 VIS SW 4 SHALLOW FG VCNTY RWYS SLP225

CYQR;2013-08-11 13:00;CYQR 111300Z 00000KT 10SM MIFG FEW250 07/07 A3017 RMK CI1 VIS SW 4 SLP228

CYQR;2013-08-11 14:00;CYQR 111400Z 21003KT 10SM MIFG FEW280 11/11 A3018 RMK CI1 VIS S-SW 2 SHALLOW FG VCNTY RWY SLP230

CYQR;2013-08-11 15:00;CYQR 111500Z 20004KT 15SM FEW100 FEW280 15/13 A3018 RMK ACC1CI1 SLP229

CYQR;2013-08-11 16:00;CYQR 111600Z 20002KT 15SM FEW015 FEW280 17/13 A3018 RMK CF1CI0 SLP229

CYQR;2013-08-11 17:00;CYQR 111700Z 16004KT 15SM FEW022 FEW300 19/13 A3017 RMK CU1CI0 SLP228

CYQR;2013-08-11 18:00;CYQR 111800Z 18006KT 15SM FEW028 FEW300 20/12 A3016 RMK CU1CI1 SLP223

CYQR;2013-08-11 19:00;CYQR 111900Z 15006KT 15SM FEW030 FEW300 20/12 A3015 RMK CU1CI1 SLP220

CYQR;2013-08-11 20:00;CYQR 112000Z 14004KT 15SM FEW040 FEW300 21/12 A3014 RMK CU1CI0 SLP216

CYQR;2013-08-11 21:00;CYQR 112100Z 16011KT 15SM FEW045 BKN300 22/13 A3014 RMK CU1CI0 SLP214

CYQR;2013-08-11 22:00;CYQR 112200Z 15006KT 15SM FEW043 SCT300 22/13 A3012 RMK CU1CI1 SLP210

CYQR;2013-08-11 23:00;CYQR 112300Z 16008KT 15SM FEW045 BKN300 22/13 A3012 RMK CU1CI2 SLP210

CYQR;2013-08-12 00:00;CYQR 120000Z 21006KT 15SM FEW045 BKN300 22/13 A3011 RMK CU1CI1 SLP206

CYQR;2013-08-12 01:00;CYQR 120100Z 13003KT 15SM FEW045 BKN300 21/13 A3010 RMK SC1CI1 SLP201

CYQR;2013-08-12 02:00;CYQR 120200Z 12005KT 15SM FEW045 BKN300 18/13 A3010 RMK SC1CI1 SLP201

CYQR;2013-08-12 03:00;CYQR 120300Z 12004KT 15SM SCT300 16/12 A3010 RMK CI1 SLP201

CYQR;2013-08-12 04:00;CYQR 120400Z 11004KT 15SM SCT300 15/12 A3011 RMK CI1 SLP205

CYQR;2013-08-12 05:00;CYQR 120500Z 09006KT 15SM FEW300 14/12 A3011 RMK CI0 SLP206

CYQR;2013-08-12 06:00;CYQR 120600Z 12005KT 15SM FEW300 13/11 A3012 RMK CI0 SLP206

CYQR;2013-08-12 07:00;CYQR 120700Z 11005KT 15SM FEW300 12/11 A3013 RMK CI0 SLP210

CYQR;2013-08-12 08:00;CYQR 120800Z 10006KT 15SM FEW300 11/10 A3013 RMK CI0 SLP210

CYQR;2013-08-12 09:00;CYQR 120900Z 11006KT 15SM FEW300 11/10 A3014 RMK CI0 SLP213

CYQR;2013-08-12 10:00;CYQR 121000Z 12006KT 15SM FEW300 11/09 A3014 RMK CI0 SLP212

CYQR;2013-08-12 11:00;CYQR 121100Z 13005KT 15SM FEW300 09/08 A3014 RMK CI0 SLP214

CYQR;2013-08-12 12:00;CYQR 121200Z 11006KT 15SM BKN300 10/09 A3014 RMK CI1 CONTRAILS SLP215

CYQR;2013-08-12 13:00;CYQR 121300Z 10004KT 15SM BKN300 13/11 A3015 RMK CI1 SLP219

CYQR;2013-08-12 14:00;CYQR 121400Z 12004KT 15SM FEW220 SCT300 16/12 A3017 RMK CI1CI1 SLP223

CYQR;2013-08-12 15:00;CYQR 121500Z 14004KT 15SM FEW160 BKN300 18/12 A3017 RMK AC1CI1 SLP223

CYQR;2013-08-12 16:00;CYQR 121600Z 15007KT 15SM FEW160 BKN300 20/13 A3018 RMK AC1CI2 CONTRAILS SLP225

CYQR;2013-08-12 17:00;CYQR 121700Z 16005KT 15SM FEW025 FEW220 SCT300 20/14 A3018 RMK CU1CI2CI1 SLP227

CYQR;2013-08-12 18:00;CYQR 121800Z 12007KT 15SM FEW036 SCT240 22/13 A3019 RMK CU1CI2 SLP229

CYQR;2013-08-12 19:00;CYQR 121900Z 16008KT 15SM FEW044 FEW240 23/12 A3019 RMK CU1CI1 SLP229

CYQR;2013-08-12 20:00;CYQR 122000Z 14011KT 15SM FEW044 FEW240 24/12 A3018 RMK CU1CI1 SLP225

CYQR;2013-08-12 21:00;CYQR 122100Z 15007KT 15SM FEW044 FEW240 FEW300 24/14 A3017 RMK CU1CI1CI1 SLP224

CYQR;2013-08-12 22:00;CYQR 122200Z 18008KT 15SM FEW044 FEW095 SCT260 24/13 A3016 RMK CU1AC0CI0 SLP221

CYQR;2013-08-12 23:00;CYQR 122300Z 18008KT 15SM FEW044 FEW120 BKN280 24/13 A3015 RMK CU1AC1CI0 SLP217

CYQR;2013-08-13 00:00;CYQR 130000Z 16006KT 15SM FEW044 FEW280 24/13 A3014 RMK CU1CI1 SLP213

CYQR;2013-08-13 01:00;CYQR 130100Z 14004KT 15SM FEW045 FEW280 23/14 A3013 RMK SC1CI1 SLP210

CYQR;2013-08-13 02:00;CYQR 130200Z 12005KT 15SM FEW045 BKN280 20/13 A3014 RMK SC1CI1 SLP213

CYQR;2013-08-13 03:00;CYQR 130300Z 12006KT 15SM FEW045 FEW280 17/13 A3016 RMK SC1CI0 SLP219

CYQR;2013-08-13 04:00;CYQR 130400Z 10011KT 15SM FEW059 FEW300 19/13 A3017 RMK SC1CI0 SLP222

CYQR;2013-08-13 05:00;CYQR 130500Z 12011KT 15SM FEW020 FEW300 18/13 A3018 RMK SC1CI1 SLP224

CYQR;2013-08-13 06:00;CYQR 130600Z 12008KT 15SM FEW300 15/13 A3018 RMK CI1 SLP224

CYQR;2013-08-13 07:00;CYQR 130700Z 10008KT 15SM FEW300 15/12 A3019 RMK CI1 SLP226

CYQR;2013-08-13 08:00;CYQR 130800Z 11012KT 15SM FEW300 15/12 A3018 RMK CI1 SLP223

CYQR;2013-08-13 09:00;CYQR 130900Z 12012KT 15SM FEW300 15/12 A3017 RMK CI1 SLP219

CYQR;2013-08-13 10:00;CYQR 131000Z 12009KT 15SM FEW300 14/12 A3018 RMK CI0 SLP223

CYQR;2013-08-13 11:00;CYQR 131100Z 12007KT 15SM SCT300 13/12 A3019 RMK CI1 SLP227

CYQR;2013-08-13 12:00;CYQR 131200Z 13008KT 12SM FEW130 BKN300 13/12 A3018 RMK AC1CI1 SLP226

CYQR;2013-08-13 13:00;CYQR 131300Z 12008KT 12SM FEW130 SCT300 14/13 A3018 RMK AC1CI1 SLP225

CYQR;2013-08-13 14:00;CYQR 131400Z 12010KT 12SM FEW130 OVC300 15/13 A3017 RMK AC1CI0 SLP223

CYQR;2013-08-13 15:00;CYQR 131500Z 14008KT 12SM FEW110 FEW170 BKN300 18/14 A3018 RMK AC1AC1CI0 SLP225

CYQR;2013-08-13 16:00;CYQR 131600Z 15007KT 12SM FEW100 SCT200 BKN300 21/15 A3018 RMK AC1CI2CI0 SLP224

CYQR;2013-08-13 17:00;CYQR 131700Z 14007KT 12SM FEW024 SCT210 OVC300 22/15 A3019 RMK CU1CI2CI1 SLP228

CYQR;2013-08-13 18:00;CYQR 131800Z 16008KT 12SM FEW030 BKN130 BKN300 23/16 A3019 RMK CU1AC5CI1 SLP226

CYQR;2013-08-13 19:00;CYQR 131900Z 16009KT 15SM FEW030 BKN110 OVC300 22/15 A3018 RMK CU2AC5CI1 SLP225

CYQR;2013-08-13 20:00;CYQR 132000Z 14010KT 15SM FEW035 FEW068 BKN120 OVC300 23/15 A3017 RMK CU1AC1AC5CI1 SLP222

CYQR;2013-08-13 21:00;CYQR 132100Z 12011KT 15SM FEW035 FEW070 BKN120 BKN300 24/15 A3016 RMK CU1AC1AC4CI1 SLP217

CYQR;2013-08-13 22:00;CYQR 132200Z 15009G15KT 15SM FEW045 FEW120 BKN300 24/14 A3015 RMK CU1AC2CI1 SLP213

CYQR;2013-08-13 23:00;CYQR 132300Z 11012G17KT 15SM FEW045 FEW120 24/14 A3013 RMK CU1AC2 SLP208

CYQR;2013-08-14 00:00;CYQR 140000Z 13012KT 15SM FEW050 FEW120 SCT300 23/14 A3012 RMK CU1AC1CI0 SLP206

CYQR;2013-08-14 01:00;CYQR 140100Z 12008KT 15SM FEW120 FEW300 22/14 A3011 RMK AC1CI0 SLP203

CYQR;2013-08-14 02:00;CYQR 140200Z 11011KT 15SM FEW120 OVC300 20/14 A3011 RMK AC1CI1 SLP201

CYQR;2013-08-14 03:00;CYQR 140300Z 12010KT 15SM FEW150 BKN300 18/13 A3012 RMK AC1CI1 SLP205

CYQR;2013-08-14 04:00;CYQR 140400Z 12009KT 15SM FEW150 FEW300 17/13 A3013 RMK AC1CI1 SLP209

CYQR;2013-08-14 05:00;CYQR 140500Z 12009KT 15SM BKN120 17/13 A3013 RMK AC4 SLP209

CYQR;2013-08-14 06:00;CYQR 140600Z 12008KT 15SM OVC120 17/13 A3013 RMK AC7 SLP205

CYQR;2013-08-14 07:00;CYQR 140700Z 12009KT 15SM OVC120 17/12 A3012 RMK AC8 SLP202

CYQR;2013-08-14 08:00;CYQR 140800Z 12009KT 15SM SCT120 15/13 A3011 RMK AC3 SLP201

CYQR;2013-08-14 09:00;CYQR 140900Z 13009KT 15SM FEW120 15/13 A3010 RMK AC1 SLP197

CYQR;2013-08-14 10:00;CYQR 141000Z 12009KT 15SM BKN110 14/12 A3010 RMK AC6 SLP197

CYQR;2013-08-14 11:00;CYQR 141100Z 12008KT 15SM OVC110 14/13 A3010 RMK AC7 SLP196

CYQR;2013-08-14 12:00;CYQR 141200Z 13009KT 15SM FEW110 BKN330 14/12 A3010 RMK AC1CI1 SLP196

CYQR;2013-08-14 13:00;CYQR 141300Z 12010KT 15SM FEW110 OVC330 14/12 A3009 RMK AC1CI2 SLP194

CYQR;2013-08-14 14:00;CYQR 141400Z 14010KT 15SM FEW110 OVC330 16/13 A3009 RMK AC1CI2 SLP195

CYQR;2013-08-14 15:00;CYQR 141500Z 14010KT 15SM FEW120 OVC330 17/13 A3008 RMK AC1CI2 SLP191

CYQR;2013-08-14 16:00;CYQR 141600Z 13007KT 15SM OVC330 19/13 A3007 RMK CI2 SLP189

CYQR;2013-08-14 17:00;CYQR 141700Z 15010KT 15SM FEW120 OVC330 21/15 A3006 RMK AC1CI1 SLP186

CYQR;2013-08-14 18:00;CYQR 141800Z 14011KT 15SM SCT052 OVC330 22/15 A3006 RMK CU3CI0 SLP183

CYQR;2013-08-14 19:00;CYQR 141900Z 16012KT 15SM FEW055 OVC330 23/15 A3005 RMK CU2CI1 SLP180

CYQR;2013-08-14 20:00;CYQR 142000Z 15010G16KT 15SM FEW051 SCT150 OVC330 24/16 A3005 RMK CU2AC1CI0 SLP179

CYQR;2013-08-14 21:00;CYQR 142100Z 13010KT 15SM FEW035 SCT120 OVC330 24/16 A3004 RMK CU2AC1CI0 TCU ASOCTD SLP174

CYQR;2013-08-14 22:00;CYQR 142200Z 13010KT 15SM FEW035 FEW120 BKN330 25/16 A3002 RMK CU2AC1CI0 SLP168

CYQR;2013-08-14 23:00;CYQR 142300Z 11010G15KT 15SM FEW060 BKN330 25/16 A3000 RMK CU1CI0 SLP163

CYQR;2013-08-15 00:00;CYQR 150000Z 12010KT 15SM FEW060 SCT300 24/16 A3000 RMK CU1CI0 TCU ASOCTD SLP163

CYQR;2013-08-15 01:00;CYQR 150100Z 11010KT 15SM FEW065 SCT300 22/17 A3000 RMK CU1CI0 TCU ASOCTD SLP163

CYQR;2013-08-15 02:00;CYQR 150200Z 12007KT 15SM FEW120 BKN300 21/16 A3000 RMK AC1CI2 SLP164

CYQR;2013-08-15 03:00;CYQR 150300Z 12007KT 15SM SCT300 19/16 A3000 RMK CI1 SLP164

CYQR;2013-08-15 04:00;CYQR 150400Z 14010KT 15SM SCT300 19/15 A3000 RMK CI1 SLP165

CYQR;2013-08-15 05:00;CYQR 150500Z 12006KT 15SM FEW300 16/15 A3000 RMK CI1 SLP164

CYQR;2013-08-15 06:00;CYQR 150600Z 13008KT 15SM FEW300 16/14 A3000 RMK CI1 SLP163

CYQR;2013-08-15 07:00;CYQR 150700Z 13009KT 15SM FEW300 15/13 A3001 RMK CI0 SLP165

CYQR;2013-08-15 08:00;CYQR 150800Z 13007KT 15SM FEW300 13/13 A3000 RMK CI0 SLP164

CYQR;2013-08-15 09:00;CYQR 150900Z 11007KT 15SM SKC 13/12 A3000 RMK SLP164

CYQR;2013-08-15 10:00;CYQR 151000Z 13007KT 15SM SKC 13/12 A3000 RMK SLP163

CYQR;2013-08-15 11:00;CYQR 151100Z 12008KT 15SM FEW350 12/12 A3000 RMK CI1 SLP162

CYQR;2013-08-15 12:00;CYQR 151200Z 12007KT 15SM FEW350 12/11 A3000 RMK CI1 SLP164

CYQR;2013-08-15 13:00;CYQR 151300Z 12008KT 15SM BKN350 13/12 A3000 RMK CI1 CONTRAILS SLP164

CYQR;2013-08-15 14:00;CYQR 151400Z 15007KT 15SM SCT350 15/13 A3001 RMK CI1 SLP166

CYQR;2013-08-15 15:00;CYQR 151500Z 15006KT 15SM FEW040 BKN350 17/15 A3002 RMK SC1CI1 SLP170

CYQR;2013-08-15 16:00;CYQR 151600Z 14007KT 15SM BKN350 19/16 A3000 RMK CI1 SLP166

CYQR;2013-08-15 17:00;CYQR 151700Z 16007KT 15SM SCT230 BKN350 22/17 A3000 RMK CI1CI0 SLP165

CYQR;2013-08-15 18:00;CYQR 151800Z 17007KT 15SM SCT230 BKN350 23/17 A3000 RMK CI1CI0 SLP162

CYQR;2013-08-15 19:00;CYQR 151900Z 16006KT 15SM FEW028 FEW230 BKN350 25/18 A2999 RMK CU1CI1CI0 SLP159

CYQR;2013-08-15 20:00;CYQR 152000Z 16003KT 15SM FEW032 FEW230 BKN350 26/18 A2998 RMK CU1CI1CI0 SLP154

CYQR;2013-08-15 21:00;CYQR 152100Z 18007KT 15SM FEW040 FEW230 SCT350 27/17 A2997 RMK CU1CI0CI0 SLP151

CYQR;2013-08-15 22:00;CYQR 152200Z 19007KT 15SM FEW040 FEW250 27/17 A2996 RMK CU1CI1 SLP148

CYQR;2013-08-15 23:00;CYQR 152300Z 17005KT 15SM FEW044 FEW300 28/17 A2996 RMK CU1CI0 SLP146

CYQR;2013-08-16 00:00;CYQR 160000Z 15006KT 15SM FEW045 FEW250 SCT300 27/17 A2995 RMK CU1CI0CI0 CONTRAILS SLP145

CYQR;2013-08-16 01:00;CYQR 160100Z 13008KT 15SM BKN300 25/18 A2994 RMK CI2 CONTRAILS SLP141

CYQR;2013-08-16 02:00;CYQR 160200Z 13008KT 15SM BKN300 23/18 A2994 RMK CI4 CONTRAILS SLP141

CYQR;2013-08-16 03:00;CYQR 160300Z 14010KT 15SM BKN300 22/17 A2994 RMK CI2 SLP140

CYQR;2013-08-16 04:00;CYQR 160400Z 14010KT 15SM SCT300 22/16 A2994 RMK CI1 SLP140

CYQR;2013-08-16 05:00;CYQR 160500Z 15011KT 15SM BKN210 20/16 A2993 RMK CI2 SLP137

CYQR;2013-08-16 06:00;CYQR 160600Z 15009KT 15SM BKN240 19/16 A2992 RMK CI2 SLP132

CYQR;2013-08-16 07:00;CYQR 160700Z 15009KT 15SM SCT240 19/16 A2991 RMK CI1 SLP130

CYQR;2013-08-16 08:00;CYQR 160800Z 14009KT 15SM FEW240 18/16 A2991 RMK CI0 SLP127

CYQR;2013-08-16 09:00;CYQR 160900Z 15007KT 15SM SKC 17/15 A2991 RMK SLP126

CYQR;2013-08-16 10:00;CYQR 161000Z 15007KT 15SM SKC 16/15 A2990 RMK SLP124

CYQR;2013-08-16 11:00;CYQR 161100Z 15007KT 15SM FEW180 17/14 A2989 RMK AC2 SLP121

CYQR;2013-08-16 12:00;CYQR 161200Z 15008KT 15SM FEW120 BKN340 16/14 A2988 RMK AC2CI1 SLP119

CYQR;2013-08-16 13:00;CYQR 161300Z 15007KT 15SM FEW120 BKN340 17/14 A2988 RMK AC1CI0 CONTRAILS SLP119

CYQR;2013-08-16 14:00;CYQR 161400Z 18008KT 15SM FEW055 BKN340 19/16 A2987 RMK CU1CI0 CONTRAILS SLP116

CYQR;2013-08-16 15:00;CYQR 161500Z 19008KT 15SM BKN340 23/17 A2986 RMK CI0 CONTRAILS SLP111

CYQR;2013-08-16 16:00;CYQR 161600Z 19009KT 15SM FEW230 BKN340 25/18 A2986 RMK CI0CI0 CONTRAILS SLP108

CYQR;2013-08-16 17:00;CYQR 161700Z 20011KT 15SM BKN320 29/17 A2984 RMK CI2 SLP104

CYQR;2013-08-16 18:00;CYQR 161800Z 23011G16KT 15SM SCT320 31/18 A2984 RMK CI1 SLP100

CYQR;2013-08-16 19:00;CYQR 161900Z 21012KT 15SM FEW320 32/18 A2983 RMK CI1 CONTRAILS SLP097

CYQR;2013-08-16 20:00;CYQR 162000Z 25016KT 15SM FEW320 33/16 A2982 RMK CI1 SLP094

CYQR;2013-08-16 21:00;CYQR 162100Z 25010G15KT 15SM FEW320 34/17 A2981 RMK CI1 SLP091

CYQR;2013-08-16 22:00;CYQR 162200Z 25010KT 15SM FEW085 34/16 A2980 RMK AC1 SLP087

CYQR;2013-08-16 23:00;CYQR 162300Z 23006KT 15SM FEW100 FEW320 33/19 A2980 RMK AC1CI0 SLP085

CYQR;2013-08-17 00:00;CYQR 170000Z 24003KT 15SM FEW230 FEW320 32/20 A2979 RMK CI0CI0 CONTRAILS SLP085

CYQR;2013-08-17 01:00;CYQR 170100Z 18003KT 15SM FEW230 BKN320 30/21 A2978 RMK CI0CI0 CONTRAILS SLP081

CYQR;2013-08-17 02:00;CYQR 170200Z 15006KT 15SM FEW100 SCT230 BKN320 26/20 A2978 RMK AC1CI1CI2 SLP081

CYQR;2013-08-17 03:00;CYQR 170300Z 15008KT 15SM SCT200 BKN320 26/20 A2979 RMK CI2CI2 SLP082

CYQR;2013-08-17 04:00;CYQR 170400Z 19013KT 15SM SCT320 23/17 A2979 RMK CI1 SLP082

CYQR;2013-08-17 05:00;CYQR 170500Z 16008KT 15SM SCT320 22/18 A2978 RMK CI0 SLP081

CYQR;2013-08-17 06:00;CYQR 170600Z 17009KT 15SM SCT320 21/17 A2978 RMK CI1 SLP079

CYQR;2013-08-17 07:00;CYQR 170700Z 15008KT 15SM SCT320 19/16 A2978 RMK CI1 SLP079

CYQR;2013-08-17 08:00;CYQR 170800Z 12004KT 15SM SCT320 18/16 A2979 RMK CI2 SLP081

CYQR;2013-08-17 09:00;CYQR 170900Z 09003KT 15SM SCT320 17/16 A2978 RMK CI0 SLP080

CYQR;2013-08-17 10:00;CYQR 171000Z 19003KT 15SM SCT320 15/14 A2980 RMK CI1 SLP084

CYQR;2013-08-17 11:00;CYQR 171100Z 35003KT 15SM BKN320 14/13 A2981 RMK CI3 SLP087

CYQR;2013-08-17 12:00;CYQR 171200Z 15004KT 15SM FEW080 SCT150 OVC320 14/13 A2982 RMK ACC1AC2CI6 SLP095

CYQR;2013-08-17 13:00;CYQR 171300Z 25003KT 15SM FEW100 BKN180 OVC330 14/14 A2983 RMK ACC1AC5CI2 SLP098

CYQR;2013-08-17 14:00;CYQR 171400Z 31003KT 15SM BKN180 OVC330 17/15 A2984 RMK AC6CI2 ACC ASOCTD SLP102

CYQR;2013-08-17 15:00;CYQR 171500Z 27002KT 15SM BKN170 OVC330 19/16 A2986 RMK AC6CI0 ACC ASOCTD SLP108

CYQR;2013-08-17 16:00;CYQR 171600Z 32005KT 12SM SCT080 BKN170 OVC330 21/17 A2986 RMK ACC3AC3CI0 SLP109

CYQR;2013-08-17 17:00;CYQR 171700Z 33006KT 15SM FEW100 BKN170 OVC330 23/18 A2986 RMK ACC2AC3CI2 SLP111

CYQR;2013-08-17 18:00;CYQR 171800Z 36006KT 15SM BKN110 BKN180 OVC330 24/19 A2986 RMK AC5AC2CI1 ACC ASOCTD SLP111

CYQR;2013-08-17 19:00;CYQR 171900Z 36009KT 15SM BKN090 OVC330 26/20 A2986 RMK ACC6CI0 SLP110

CYQR;2013-08-17 20:00;CYQR 172000Z 35006KT 15SM SCT080 OVC330 27/19 A2986 RMK ACC4CI3 SLP111

CYQR;2013-08-17 21:00;CYQR 172100Z 33006KT 15SM FEW100 BKN180 OVC330 28/18 A2986 RMK ACC2AC3CI3 SLP112

CYQR;2013-08-17 22:00;CYQR 172200Z 06005KT 15SM FEW040 SCT150 OVC330 28/18 A2986 RMK CU1AC3CI0 SLP112

CYQR;2013-08-17 23:00;CYQR 172300Z 04006KT 15SM SCT040 BKN150 27/18 A2984 RMK CU3AC4 SLP103

CYQR;2013-08-18 00:00;CYQR 180000Z 36007KT 15SM SCT130 BKN330 28/18 A2984 RMK AC4CI0 ACC ASOCTD SLP106

CYQR;2013-08-18 01:00;CYQR 180100Z 01010KT 15SM FEW032 FEW300 26/18 A2985 RMK CU1CI1 SLP108

CYQR;2013-08-18 02:00;CYQR 180200Z 04006KT 15SM FEW032 FEW080 FEW300 23/17 A2986 RMK CU1ACC1CI1 SLP111

CYQR;2013-08-18 03:00;CYQR 180300Z 04005KT 15SM FEW080 SCT300 20/17 A2987 RMK AC1CI2 SLP116

CYQR;2013-08-18 04:00;CYQR 180400Z 05003KT 15SM SCT300 21/16 A2987 RMK CI1 SLP117

CYQR;2013-08-18 05:00;CYQR 180500Z 05006KT 15SM FEW300 18/16 A2987 RMK CI0 SLP116

CYQR;2013-08-18 06:00;CYQR 180600Z 10006KT 15SM SKC 18/15 A2987 RMK SLP114

CYQR;2013-08-18 07:00;CYQR 180700Z 11005KT 15SM FEW300 18/15 A2987 RMK CI1 SLP114

CYQR;2013-08-18 08:00;CYQR 180800Z 18004KT 15SM BKN300 17/14 A2986 RMK CI1 SLP113

CYQR;2013-08-18 09:00;CYQR 180900Z 14003KT 15SM FEW300 15/14 A2986 RMK CI0 SLP113

CYQR;2013-08-18 10:00;CYQR 181000Z 09004KT 15SM FEW300 16/14 A2987 RMK CI0 SLP115

CYQR;2013-08-18 11:00;CYQR 181100Z 13002KT 15SM FEW080 FEW300 14/14 A2988 RMK ACC1CI1 SLP117

CYQR;2013-08-18 12:00;CYQR 181200Z 14005KT 15SM BKN300 14/13 A2988 RMK CI2 CC ASOCTD SLP118

CYQR;2013-08-18 13:00;CYQR 181300Z 12003KT 15SM FEW080 BKN300 17/15 A2988 RMK AC1CI1 SLP120

CYQR;2013-08-18 14:00;CYQR 181400Z 12008KT 15SM FEW080 BKN300 19/16 A2987 RMK AC1CI2 SLP115

CYQR;2013-08-18 15:00;CYQR 181500Z 13008KT 15SM FEW100 BKN330 20/17 A2987 RMK AC1CI3 SLP117

CYQR;2013-08-18 16:00;CYQR 181600Z 16010KT 15SM FEW100 BKN330 22/18 A2986 RMK AC1CI2 ACC ASOCTD SLP114

CYQR;2013-08-18 17:00;CYQR 181700Z 13009KT 15SM FEW100 BKN330 25/19 A2986 RMK AC2CI2 ACC ASOCTD SLP111

CYQR;2013-08-18 18:00;CYQR 181800Z 15012KT 15SM FEW085 BKN280 26/20 A2985 RMK AC2CI4 ACC ASOCTD SLP106

CYQR;2013-08-18 19:00;CYQR 181900Z 15009KT 15SM FEW100 BKN280 27/20 A2983 RMK ACC2CI2 SLP099

CYQR;2013-08-18 20:00;CYQR 182000Z 18003KT 15SM SCT100 BKN300 28/19 A2982 RMK AC4CI1 ACC ASOCTD SLP098

CYQR;2013-08-18 21:00;CYQR 182100Z 24006KT 15SM FEW099 SCT300 29/18 A2981 RMK AC2CI2 ACC ASOCTD SLP094

CYQR;2013-08-18 22:00;CYQR 182200Z 23007KT 15SM FEW100 SCT300 30/17 A2980 RMK AC1CI1 ACC ASOCTD SLP091

CYQR;2013-08-18 23:00;CYQR 182300Z 25006KT 15SM FEW060TCU FEW100 FEW330 30/17 A2980 RMK TCU1AC1CI0 SLP089

CYQR;2013-08-19 00:00;CYQR 190000Z 27006KT 15SM FEW050 FEW300 29/17 A2980 RMK CU1CI0 SLP089

CYQR;2013-08-19 01:00;CYQR 190100Z 23004KT 15SM FEW330 27/20 A2979 RMK CI0 SLP086

CYQR;2013-08-19 02:00;CYQR 190200Z 20005KT 15SM FEW330 24/19 A2979 RMK CI1 SLP086

CYQR;2013-08-19 03:00;CYQR 190300Z 17004KT 15SM FEW330 22/17 A2979 RMK CI1 SLP087

CYQR;2013-08-19 04:00;CYQR 190400Z 18007KT 15SM SKC 19/17 A2980 RMK SLP091

CYQR;2013-08-19 05:00;CYQR 190500Z 19007KT 15SM SKC 17/16 A2981 RMK SLP092

CYQR;2013-08-19 06:00;CYQR 190600Z 19006KT 15SM SKC 16/14 A2980 RMK SLP091

CYQR;2013-08-19 07:00;CYQR 190700Z 18007KT 15SM FEW086 15/13 A2980 RMK AC1 SLP090

CYQR;2013-08-19 08:00;CYQR 190800Z 16005KT 15SM SKC 15/12 A2979 RMK SLP087

CYQR;2013-08-19 09:00;CYQR 190900Z 18004KT 15SM FEW100 FEW250 15/12 A2978 RMK AC1CI1 SLP084

CYQR;2013-08-19 10:00;CYQR 191000Z 18005KT 15SM FEW250 14/11 A2978 RMK CI1 SLP083

CYQR;2013-08-19 11:00;CYQR 191100Z 18006KT 15SM FEW250 14/11 A2977 RMK CI1 SLP081

CYQR;2013-08-19 12:00;CYQR 191200Z 13004KT 15SM FEW250 12/11 A2977 RMK CI1 SLP081

CYQR;2013-08-19 13:00;CYQR 191300Z 12003KT 15SM SCT300 15/13 A2977 RMK CI0 CONTRAILS SLP081

CYQR;2013-08-19 14:00;CYQR 191400Z 21003KT 15SM FEW300 18/12 A2977 RMK CI0 SLP081

CYQR;2013-08-19 15:00;CYQR 191500Z 26005KT 15SM FEW300 21/13 A2977 RMK CI0 SLP080

CYQR;2013-08-19 16:00;CYQR 191600Z 27009KT 15SM FEW300 23/13 A2977 RMK CI0 SLP081

CYQR;2013-08-19 17:00;CYQR 191700Z 25008KT 15SM SKC 25/14 A2977 RMK SLP080

CYQR;2013-08-19 18:00;CYQR 191800Z 23009KT 15SM FEW300 26/14 A2976 RMK CI1 SLP077

CYQR;2013-08-19 19:00;CYQR 191900Z 25014KT 15SM SKC 28/14 A2975 RMK SLP075

CYQR;2013-08-19 20:00;CYQR 192000Z 27013KT 15SM SKC 29/15 A2975 RMK SLP073

CYQR;2013-08-19 21:00;CYQR 192100Z 28012G18KT 15SM SKC 31/13 A2974 RMK SLP061

CYQR;2013-08-19 22:00;CYQR 192200Z 27013KT 15SM FEW070 FEW330 31/13 A2973 RMK CU1CI1 SLP057

CYQR;2013-08-19 23:00;CYQR 192300Z 28011KT 15SM FEW068 30/13 A2973 RMK CU1 SLP055

CYQR;2013-08-20 00:00;CYQR 200000Z 27009KT 15SM FEW070 29/13 A2972 RMK CU1 SLP064

CYQR;2013-08-20 01:00;CYQR 200100Z 29005KT 15SM FEW070 FEW330 28/14 A2971 RMK CU1CI1 SLP062

CYQR;2013-08-20 02:00;CYQR 200200Z 29002KT 15SM FEW070 FEW330 24/14 A2972 RMK AC1CI1 SLP064

CYQR;2013-08-20 03:00;CYQR 200300Z 00000KT 15SM FEW330 20/14 A2973 RMK CI1 SLP068

CYQR;2013-08-20 04:00;CYQR 200400Z 11002KT 15SM SKC 19/14 A2974 RMK SLP070

CYQR;2013-08-20 05:00;CYQR 200500Z 12005KT 15SM SKC 18/14 A2973 RMK SLP067

CYQR;2013-08-20 06:00;CYQR 200600Z 11005KT 15SM FEW120 19/15 A2973 RMK AC2 SLP066

CYQR;2013-08-20 07:00;CYQR 200700Z 13005KT 15SM BKN120 17/15 A2973 RMK AC5 SLP066

CYQR;2013-08-20 08:00;CYQR 200800Z 10005KT 15SM BKN120 18/15 A2974 RMK AC7 SLP068

CYQR;2013-08-20 09:00;CYQR 200900Z 12006KT 15SM BKN120 18/15 A2973 RMK AC6 SLP062

CYQR;2013-08-20 10:00;CYQR 201000Z 04011KT 15SM BKN120 20/15 A2973 RMK AC6 SLP064

CYQR;2013-08-20 11:00;CYQR 201100Z 04013KT 15SM SCT120 19/14 A2974 RMK AC3 SLP065

CYQR;2013-08-20 12:00;CYQR 201200Z 04009G19KT 15SM FEW120 SCT250 BKN300 19/13 A2975 RMK AC2CI1CI1 CC ASOCTD SLP070

CYQR;2013-08-20 13:00;CYQR 201300Z 04012G18KT 15SM FEW080 BKN120 BKN250 19/12 A2976 RMK AC1AC5CI1 CC ASOCTD SLP075

CYQR;2013-08-20 14:00;CYQR 201400Z 03013KT 15SM FEW080 SCT120 BKN250 20/12 A2979 RMK ACC1AC2CI1 SLP082

CYQR;2013-08-20 15:00;CYQR 201500Z 04015KT 15SM FEW080 22/12 A2980 RMK AC1 SLP090

CYQR;2013-08-20 16:00;CYQR 201600Z 03016KT 15SM FEW080 FEW120 FEW300 22/11 A2982 RMK AC1AC1CI0 SLP099

CYQR;2013-08-20 17:00;CYQR 201700Z 02011KT 15SM FEW080 FEW120 23/12 A2982 RMK AC1AC1 SLP099

CYQR;2013-08-20 18:00;CYQR 201800Z 36015KT 15SM FEW060 FEW120 23/12 A2984 RMK SC1AC1 SLP106

CYQR;2013-08-20 19:00;CYQR 201900Z 03008G17KT 15SM FEW060 FEW120 23/11 A2984 RMK SC1AC0 SLP105

CYQR;2013-08-20 20:00;CYQR 202000Z 35014KT 15SM BKN064 25/10 A2985 RMK SC3 SLP109

CYQR;2013-08-20 21:00;CYQR 202100Z 35015KT 15SM SCT062 BKN120 23/08 A2986 RMK SC3AC2 SLP113

CYQR;2013-08-20 22:00;CYQR 202200Z 01012KT 15SM BKN062 BKN120 BKN300 23/10 A2986 RMK SC5AC1CI0 ACC ASOCTD SLP113

CYQR;2013-08-20 23:00;CYQR 202300Z 33010KT 15SM BKN062 23/08 A2987 RMK SC6 SLP116

CYQR;2013-08-21 00:00;CYQR 210000Z 33008KT 15SM SCT062 SCT090 23/09 A2989 RMK SC3AC1 CVCTV CLD EMBD SLP121

CYQR;2013-08-21 01:00;CYQR 210100Z 35006KT 15SM FEW081 22/07 A2988 RMK AC1 SLP119

CYQR;2013-08-21 02:00;CYQR 210200Z 03008KT 15SM FEW080 20/06 A2989 RMK AC1 SLP121

CYQR;2013-08-21 03:00;CYQR 210300Z 03008KT 15SM FEW060 FEW080 18/07 A2991 RMK CU2AC1 TCU+ACC ASOCTD SLP130

CYQR;2013-08-21 04:00;CYQR 210400Z 04009KT 15SM BKN100 18/06 A2992 RMK AC6 SLP134

CYQR;2013-08-21 05:00;CYQR 210500Z 05008KT 15SM FEW052 SCT080 17/05 A2992 RMK CU1AC3 SLP133

CYQR;2013-08-21 06:00;CYQR 210600Z 36011KT 15SM BKN072 17/05 A2995 RMK AC6 ACC ASOCTD SLP145

CYQR;2013-08-21 06:24;CYQR 210624Z 02006KT 15SM -SHRA FEW020 BKN072 16/ RMK SC2AC5 CVCTV CLD EMBD

CYQR;2013-08-21 06:47;CYQR 210647Z 03008KT 15SM SCT020 BKN072 14/ RMK CU3AC2

CYQR;2013-08-21 07:00;CYQR 210700Z 02007KT 15SM FEW020 SCT072 13/09 A2997 RMK CU2AC2 SLP151

CYQR;2013-08-21 08:00;CYQR 210800Z 35011KT 15SM BKN072 13/09 A3003 RMK AC6 PRESRR SLP169

CYQR;2013-08-21 09:00;CYQR 210900Z 36012KT 15SM BKN070 BKN100 13/08 A3002 RMK AC5AC1 SLP170

CYQR;2013-08-21 10:00;CYQR 211000Z 00000KT 15SM BKN068 12/09 A3002 RMK AC6 SLP171

CYQR;2013-08-21 10:36;CYQR 211036Z 33003KT 15SM -SHRA BKN068 12/ RMK AC6

CYQR;2013-08-21 11:00;CYQR 211100Z 30002KT 15SM BKN072 11/09 A3002 RMK AC7 SLP171

CYQR;2013-08-21 11:14;CYQR 211114Z 28006KT 15SM -SHRA SCT044 BKN072 11/ RMK CU3AC3

CYQR;2013-08-21 12:00;CYQR 211200Z 24005KT 15SM VCSH FEW034 BKN078 BKN250 09/09 A3006 RMK CU1AC4CI1 ACC ASOCTD SLP186

CYQR;2013-08-21 13:00;CYQR 211300Z 25004KT 15SM FEW075 FEW130 10/09 A3008 RMK AC2AC1 ACC ASOCTD SLP194

CYQR;2013-08-21 14:00;CYQR 211400Z 28006KT 15SM FEW075 13/10 A3010 RMK AC1 SLP200

CYQR;2013-08-21 15:00;CYQR 211500Z 31006KT 15SM FEW075 FEW220 16/09 A3012 RMK AC1CI1 SLP205

CYQR;2013-08-21 16:00;CYQR 211600Z 34010KT 15SM FEW075 FEW120 18/09 A3013 RMK ACC1AC1 TR ACC SLP209

CYQR;2013-08-21 17:00;CYQR 211700Z 32008KT 15SM FEW075 FEW120 20/09 A3014 RMK ACC1AC1 SLP211

CYQR;2013-08-21 18:00;CYQR 211800Z 32010G15KT 15SM FEW075 FEW120 21/08 A3014 RMK ACC1AC1 SLP211

CYQR;2013-08-21 19:00;CYQR 211900Z 32013G19KT 15SM FEW060 FEW120 22/06 A3014 RMK CU1AC1 SLP210

CYQR;2013-08-21 20:00;CYQR 212000Z 30016KT 15SM FEW068 FEW120 23/05 A3013 RMK CU1AC1 SLP208

CYQR;2013-08-21 21:00;CYQR 212100Z 32015G21KT 15SM FEW068 23/04 A3013 RMK CU1 SLP208

CYQR;2013-08-21 22:00;CYQR 212200Z 31015G24KT 15SM FEW085 22/03 A3013 RMK CU2 SLP208

CYQR;2013-08-21 23:00;CYQR 212300Z 32010KT 15SM FEW064 21/05 A3013 RMK CU1 SLP207

CYQR;2013-08-22 00:00;CYQR 220000Z 32010KT 15SM FEW065 23/04 A3012 RMK SC1 SLP208

CYQR;2013-08-22 01:00;CYQR 220100Z 32006KT 15SM SKC 21/07 A3012 RMK SLP207

CYQR;2013-08-22 02:00;CYQR 220200Z 34004KT 15SM SKC 18/08 A3013 RMK SLP210

CYQR;2013-08-22 03:00;CYQR 220300Z 01002KT 15SM SKC 16/07 A3015 RMK SLP217

CYQR;2013-08-22 04:00;CYQR 220400Z 00000KT 15SM SKC 11/08 A3016 RMK SLP220

CYQR;2013-08-22 05:00;CYQR 220500Z 18005KT 15SM SKC 10/08 A3017 RMK SLP224

CYQR;2013-08-22 06:00;CYQR 220600Z 17003KT 15SM SKC 10/08 A3018 RMK SLP229

CYQR;2013-08-22 07:00;CYQR 220700Z 10004KT 15SM SKC 09/07 A3018 RMK SLP229

CYQR;2013-08-22 08:00;CYQR 220800Z 12003KT 15SM SKC 09/07 A3018 RMK SLP228

CYQR;2013-08-22 09:00;CYQR 220900Z 08002KT 15SM SKC 08/07 A3018 RMK SLP230

CYQR;2013-08-22 10:00;CYQR 221000Z 10004KT 15SM SKC 08/07 A3018 RMK SLP229

CYQR;2013-08-22 11:00;CYQR 221100Z 14005KT 15SM SKC 07/05 A3019 RMK SLP231

CYQR;2013-08-22 12:00;CYQR 221200Z 12004KT 15SM FEW080 07/05 A3019 RMK AC1 SLP233

CYQR;2013-08-22 13:00;CYQR 221300Z 12005KT 15SM FEW090 10/07 A3019 RMK AC1 ACC ASOCTD SLP234

CYQR;2013-08-22 14:00;CYQR 221400Z 15006KT 15SM FEW090 13/08 A3020 RMK AC1 SLP236

CYQR;2013-08-22 15:00;CYQR 221500Z 15007KT 15SM FEW090 17/08 A3020 RMK AC1 SLP233

CYQR;2013-08-22 16:00;CYQR 221600Z 16009KT 15SM FEW090 FEW300 20/09 A3019 RMK AC1CI1 SLP230

CYQR;2013-08-22 17:00;CYQR 221700Z 17013KT 15SM FEW090 FEW300 22/09 A3017 RMK AC1CI1 SLP226

CYQR;2013-08-22 18:00;CYQR 221800Z 15012KT 15SM FEW090 FEW300 24/09 A3015 RMK AC1CI1 SLP216

CYQR;2013-08-22 19:00;CYQR 221900Z 16010G19KT 15SM FEW100 FEW320 25/08 A3012 RMK AC1CI0 SLP208

CYQR;2013-08-22 20:00;CYQR 222000Z 18012G18KT 15SM FEW072 FEW320 26/08 A3010 RMK CU1CI0 SLP199

CYQR;2013-08-22 21:00;CYQR 222100Z 16009G21KT 15SM FEW075 FEW230 BKN340 27/09 A3007 RMK AC1CI1CI0 SLP187

CYQR;2013-08-22 22:00;CYQR 222200Z 17013G19KT 15SM FEW075 FEW230 BKN340 27/09 A3004 RMK AC1CI1CI0 SLP179

CYQR;2013-08-23 00:00;CYQR 230000Z 14013KT 15SM FEW230 BKN340 25/09 A3000 RMK CI2CI0 SLP167

CYQR;2013-08-23 03:00;CYQR 230300Z 14014KT 15SM FEW340 20/10 A2998 RMK CI1 SLP156

CYQR;2013-08-23 04:00;CYQR 230400Z 14013KT 15SM FEW340 17/10 A2998 RMK CI1 SLP157

CYQR;2013-08-23 05:00;CYQR 230500Z 14012KT 15SM FEW340 16/10 A2997 RMK CI1 CC ASOCTD SLP154

CYQR;2013-08-23 06:00;CYQR 230600Z 13012KT 15SM SCT340 15/10 A2997 RMK CI1 SLP150

CYQR;2013-08-23 07:00;CYQR 230700Z 13011KT 15SM SCT300 15/10 A2994 RMK CI1 SLP142

CYQR;2013-08-23 08:00;CYQR 230800Z 13012KT 15SM FEW300 15/10 A2992 RMK CI1 SLP134

CYQR;2013-08-23 09:00;CYQR 230900Z 13013KT 15SM SCT300 15/10 A2990 RMK CI1 SLP124

CYQR;2013-08-23 10:00;CYQR 231000Z 13012G17KT 15SM SCT300 15/10 A2988 RMK CI1 SLP120

CYQR;2013-08-23 11:00;CYQR 231100Z 13010KT 15SM FEW100 SCT300 14/10 A2987 RMK AC1CI1 SLP117

CYQR;2013-08-23 12:00;CYQR 231200Z 13010KT 15SM FEW079 BKN300 13/11 A2987 RMK AC1CI2 ACC ASOCTD SLP116

CYQR;2013-08-23 13:00;CYQR 231300Z 12011KT 15SM FEW085 BKN330 14/11 A2985 RMK AC1CI2 ACC ASOCTD SLP111

CYQR;2013-08-23 14:00;CYQR 231400Z 13010G15KT 15SM BKN330 16/12 A2985 RMK CI2 SLP109

CYQR;2013-08-23 15:00;CYQR 231500Z 15010KT 15SM FEW100 BKN330 18/14 A2984 RMK AC1CI2 SLP108

CYQR;2013-08-23 16:00;CYQR 231600Z 16008KT 15SM FEW100 BKN300 20/15 A2983 RMK AC2CI0 SLP104

CYQR;2013-08-23 17:00;CYQR 231700Z 14008KT 15SM FEW100 SCT210 BKN330 22/16 A2983 RMK AC1CI2CI1 SLP103

CYQR;2013-08-23 18:00;CYQR 231800Z 15009KT 15SM FEW100 SCT220 BKN330 25/17 A2980 RMK AC1CI2CI1 SLP092

CYQR;2013-08-23 19:00;CYQR 231900Z 14011KT 15SM SCT110 BKN220 BKN330 26/18 A2978 RMK AC2CI2CI0 SLP086

CYQR;2013-08-23 20:00;CYQR 232000Z 15011G16KT 15SM SCT110 BKN180 OVC330 26/18 A2977 RMK AC2AC3CI1 SLP083

CYQR;2013-08-23 21:00;CYQR 232100Z 14008KT 15SM FEW100 OVC140 25/18 A2978 RMK AC1AC7 SLP086

CYQR;2013-08-23 22:00;CYQR 232200Z 12011KT 15SM FEW090 BKN120 OVC330 26/19 A2976 RMK AC1AC6CI1 SLP079

CYQR;2013-08-23 23:00;CYQR 232300Z 11007KT 15SM BKN200 BKN330 27/19 A2975 RMK CI6CI1 SLP075

CYQR;2013-08-24 00:00;CYQR 240000Z 10011KT 15SM BKN180 BKN330 27/20 A2974 RMK AC6CI1 SLP070

CYQR;2013-08-24 01:00;CYQR 240100Z 11009KT 15SM SCT100 BKN170 BKN330 26/20 A2972 RMK AC3AC2CI0 SLP066

CYQR;2013-08-24 02:00;CYQR 240200Z 10009KT 15SM FEW100 BKN160 OVC330 25/19 A2970 RMK AC2AC3CI2 CVCTV CLD EMBD SW SLP058

CYQR;2013-08-24 03:00;CYQR 240300Z 11012KT 15SM FEW100 BKN150 OVC300 24/19 A2971 RMK AC2AC5CI2 ACC ASOCTD SLP059

CYQR;2013-08-24 04:00;CYQR 240400Z 11011KT 15SM FEW100 BKN150 BKN300 23/19 A2970 RMK AC2AC2CI2 HZ SLP057

CYQR;2013-08-24 05:00;CYQR 240500Z 13010KT 15SM BKN150 BKN300 22/19 A2970 RMK AC3CI2 HZ SLP055

CYQR;2013-08-24 06:00;CYQR 240600Z 12008KT 15SM SCT150 BKN280 20/19 A2968 RMK AC2CI2 HZ SLP048

CYQR;2013-08-24 07:00;CYQR 240700Z 12009KT 15SM FEW080 BKN150 BKN280 21/19 A2967 RMK AC1AC2CI2 SLP045

CYQR;2013-08-24 08:00;CYQR 240800Z 14009KT 15SM BKN080 BKN150 21/19 A2966 RMK AC5AC1 SLP043

CYQR;2013-08-24 09:00;CYQR 240900Z 15007KT 15SM SCT080 BKN280 20/19 A2967 RMK AC3CI2 SLP044

CYQR;2013-08-24 10:00;CYQR 241000Z 16007KT 15SM FEW150 BKN280 19/18 A2968 RMK AC1CI3 SLP047

CYQR;2013-08-24 11:00;CYQR 241100Z 12004KT 15SM FEW080 BKN160 BKN280 18/18 A2967 RMK AC1AC4CI2 SLP044

CYQR;2013-08-24 12:00;CYQR 241200Z 14007KT 10SM VCFG FEW090 BKN150 BKN280 18/18 A2967 RMK AC1AC4CI1 SLP046

CYQR;2013-08-24 13:00;CYQR 241300Z 18004KT 10SM VCFG FEW100 BKN140 BKN300 17/17 A2967 RMK AC1AC4CI1 SLP046

CYQR;2013-08-24 14:00;CYQR 241400Z 19004KT 10SM VCFG FEW100 BKN140 BKN300 18/18 A2970 RMK AC1AC4CI1 SLP053

CYQR;2013-08-24 15:00;CYQR 241500Z 27007KT 15SM FEW140 BKN300 21/18 A2970 RMK AC2CI1 SLP056

CYQR;2013-08-24 16:00;CYQR 241600Z 27011KT 15SM BKN160 OVC330 22/19 A2970 RMK AC5CI2 SLP056

CYQR;2013-08-24 17:00;CYQR 241700Z 23010KT 15SM FEW160 BKN220 OVC330 24/20 A2973 RMK AC2CI4CI2 SLP066

CYQR;2013-08-24 18:00;CYQR 241800Z 29011KT 15SM BKN150 BKN220 OVC330 26/20 A2972 RMK AC5CI2CI1 SLP062

CYQR;2013-08-24 19:00;CYQR 241900Z 28009G17KT 15SM FEW160 OVC330 27/19 A2973 RMK AC2CI2 SLP063

CYQR;2013-08-24 20:00;CYQR 242000Z 27009KT 15SM BKN330 29/16 A2973 RMK CI1 SLP064

CYQR;2013-08-24 21:00;CYQR 242100Z 26010KT 15SM BKN330 30/14 A2973 RMK CI1 SLP063

CYQR;2013-08-24 22:00;CYQR 242200Z 26012KT 15SM BKN330 31/12 A2973 RMK CI1 SLP063

CYQR;2013-08-24 23:00;CYQR 242300Z 26014KT 15SM FEW330 30/12 A2972 RMK CI1 SLP061

CYQR;2013-08-25 00:00;CYQR 250000Z 24007KT 15SM FEW330 29/15 A2973 RMK CI1 SLP063

CYQR;2013-08-25 01:00;CYQR 250100Z 23006KT 15SM FEW330 26/17 A2973 RMK CI1 SLP064

CYQR;2013-08-25 02:00;CYQR 250200Z 28006KT 15SM FEW330 21/15 A2974 RMK CI1 SLP066

CYQR;2013-08-25 03:00;CYQR 250300Z 22004KT 15SM FEW330 18/14 A2976 RMK CI1 SLP079

CYQR;2013-08-25 04:00;CYQR 250400Z 24007KT 15SM SKC 16/12 A2978 RMK SLP087

CYQR;2013-08-25 05:00;CYQR 250500Z 23003KT 15SM FEW300 15/12 A2979 RMK CI0 SLP090

CYQR;2013-08-25 06:00;CYQR 250600Z 24004KT 15SM SKC 14/12 A2981 RMK SLP096

CYQR;2013-08-25 07:00;CYQR 250700Z 29003KT 15SM FEW300 13/11 A2983 RMK CI0 SLP101

CYQR;2013-08-25 08:00;CYQR 250800Z 19003KT 15SM SKC 12/10 A2983 RMK SLP103

CYQR;2013-08-25 09:00;CYQR 250900Z 23003KT 15SM SKC 12/10 A2985 RMK SLP107

CYQR;2013-08-25 10:00;CYQR 251000Z 17003KT 15SM FEW300 11/08 A2986 RMK CI1 SLP111

CYQR;2013-08-25 11:00;CYQR 251100Z 11002KT 15SM SCT300 11/09 A2987 RMK CI0 SLP116

CYQR;2013-08-25 12:00;CYQR 251200Z 10004KT 15SM FEW210 BKN300 11/09 A2990 RMK CI1CI0 CONTRAILS SLP125

CYQR;2013-08-25 13:00;CYQR 251300Z 10004KT 15SM SCT210 BKN300 12/10 A2990 RMK CI2CI2 SLP127

CYQR;2013-08-25 14:00;CYQR 251400Z 12002KT 15SM FEW210 BKN300 16/13 A2991 RMK CI1CI2 SLP131

CYQR;2013-08-25 15:00;CYQR 251500Z 00000KT 15SM FEW240 BKN330 20/12 A2992 RMK CI1CI2 SLP134

CYQR;2013-08-25 16:00;CYQR 251600Z 15002KT 15SM FEW240 BKN330 24/13 A2993 RMK CI2CI3 CC ASOCTD SLP137

CYQR;2013-08-25 17:00;CYQR 251700Z 17003KT 15SM FEW240 BKN330 25/13 A2993 RMK CI1CI5 SLP138

CYQR;2013-08-25 18:00;CYQR 251800Z 14005KT 15SM SCT240 BKN330 28/12 A2992 RMK CI2CI5 CC ASOCTD SLP134

CYQR;2013-08-25 19:00;CYQR 251900Z 16006KT 15SM SCT240 BKN330 29/14 A2991 RMK CI2CI2 CC ASOCTD SLP131

CYQR;2013-08-25 20:00;CYQR 252000Z 16005KT 15SM FEW150 SCT240 BKN330 31/11 A2990 RMK AC1CI2CI2 CC ASOCTD SLP127

CYQR;2013-08-25 21:00;CYQR 252100Z 12007KT 15SM SCT150 BKN240 BKN330 30/13 A2990 RMK AC3CI2CI2 SLP125

CYQR;2013-08-25 22:00;CYQR 252200Z 12008KT 15SM BKN150 BKN330 30/14 A2990 RMK AC5CI2 SLP124

CYQR;2013-08-25 23:00;CYQR 252300Z 12009KT 15SM SCT150 BKN240 BKN330 30/13 A2988 RMK AC3CI2CI1 SLP120

CYQR;2013-08-26 00:00;CYQR 260000Z 16007KT 15SM BKN160 BKN330 29/17 A2988 RMK AC5CI1 SLP120

CYQR;2013-08-26 01:00;CYQR 260100Z 17007KT 15SM FEW160 27/17 A2986 RMK AC1 SLP115

CYQR;2013-08-26 02:00;CYQR 260200Z 13007KT 15SM FEW120 23/16 A2987 RMK AC1 SLP116

CYQR;2013-08-26 03:00;CYQR 260300Z 13008KT 15SM FEW120 23/15 A2987 RMK AC1 SLP116

CYQR;2013-08-26 04:00;CYQR 260400Z 14009KT 15SM FEW120 22/15 A2989 RMK AC1 SLP120

CYQR;2013-08-26 05:00;CYQR 260500Z 14009KT 15SM SKC 20/15 A2988 RMK SLP118

CYQR;2013-08-26 06:00;CYQR 260600Z 16008KT 15SM SKC 19/14 A2989 RMK SLP118

CYQR;2013-08-26 07:00;CYQR 260700Z 15008KT 15SM FEW250 19/14 A2988 RMK CI0 SLP117

CYQR;2013-08-26 08:00;CYQR 260800Z 15007KT 15SM FEW250 18/14 A2988 RMK CI0 SLP116

CYQR;2013-08-26 09:00;CYQR 260900Z 13007KT 15SM FEW250 16/14 A2987 RMK CI0 SLP114

CYQR;2013-08-26 10:00;CYQR 261000Z 12008KT 15SM FEW250 15/14 A2988 RMK CI0 SLP115

CYQR;2013-08-26 11:00;CYQR 261100Z 13006KT 15SM FEW250 16/14 A2988 RMK CI0 SLP117

CYQR;2013-08-26 12:00;CYQR 261200Z 14006KT 15SM FEW250 14/13 A2989 RMK CI1 SLP121

CYQR;2013-08-26 13:00;CYQR 261300Z 14008KT 15SM BKN300 15/14 A2989 RMK CI2 SLP121

CYQR;2013-08-26 14:00;CYQR 261400Z 14008KT 15SM BKN300 17/14 A2988 RMK CI4 SLP117

CYQR;2013-08-26 15:00;CYQR 261500Z 15005KT 15SM FEW240 BKN330 19/15 A2988 RMK CI2CI2 SLP118

CYQR;2013-08-26 16:00;CYQR 261600Z 00000KT 15SM FEW240 BKN330 22/16 A2988 RMK CI2CI1 SLP119

CYQR;2013-08-26 17:00;CYQR 261700Z 00000KT 15SM FEW240 OVC330 24/17 A2989 RMK CI2CI3 SLP121

CYQR;2013-08-26 18:00;CYQR 261800Z 30002KT 15SM BKN220 OVC330 26/17 A2988 RMK CI5CI2 SLP116

CYQR;2013-08-26 19:00;CYQR 261900Z 34003KT 15SM FEW100 FEW150 BKN250 26/17 A2987 RMK ACC1AC2CI5 SLP115

CYQR;2013-08-26 20:00;CYQR 262000Z 19007KT 15SM FEW100 SCT160 BKN280 27/19 A2988 RMK ACC2AC2CI2 SLP118

CYQR;2013-08-26 21:00;CYQR 262100Z 30002KT 15SM FEW100 FEW160 SCT300 29/17 A2984 RMK AC1AC2CI0 SLP104

CYQR;2013-08-26 22:00;CYQR 262200Z 12002KT 15SM FEW100 FEW160 30/17 A2983 RMK AC1AC1 SLP099

CYQR;2013-08-26 23:00;CYQR 262300Z 18008KT 15SM FEW060TCU FEW150 30/20 A2983 RMK TCU1AC1 SLP099

CYQR;2013-08-27 00:00;CYQR 270000Z 17005KT 15SM FEW060TCU FEW140 29/17 A2982 RMK TCU1AC1 SLP098

CYQR;2013-08-27 01:00;CYQR 270100Z 24003KT 15SM FEW050CB FEW120 FEW250 28/19 A2982 RMK CB1AC1CI0 SLP096

CYQR;2013-08-27 02:00;CYQR 270200Z 17002KT 15SM FEW040TCU FEW250 24/18 A2982 RMK TCU1CI1 SLP096

CYQR;2013-08-27 03:00;CYQR 270300Z 14004KT 15SM FEW040 FEW250 21/16 A2983 RMK SC1CI0 SLP104

CYQR;2013-08-27 04:00;CYQR 270400Z 16002KT 15SM SKC 19/15 A2982 RMK SLP101

CYQR;2013-08-27 05:00;CYQR 270500Z 15007KT 15SM SKC 21/17 A2983 RMK SLP104

CYQR;2013-08-27 06:00;CYQR 270600Z 14005KT 15SM FEW250 19/16 A2984 RMK CI0 SLP101

CYQR;2013-08-27 07:00;CYQR 270700Z 12006KT 15SM SCT250 18/16 A2983 RMK CI2 SLP100

CYQR;2013-08-27 08:00;CYQR 270800Z 15004KT 15SM FEW040 BKN100 18/17 A2983 RMK SC2AC5 SLP100

CYQR;2013-08-27 09:00;CYQR 270900Z 27006KT 15SM FEW040CB BKN100 BKN250 17/16 A2987 RMK CB2AC4CI1 PRESRR LTG NW SLP114

CYQR;2013-08-27 10:00;CYQR 271000Z 28006KT 15SM SCT040 BKN100 18/15 A2988 RMK SC3AC4 SLP117

CYQR;2013-08-27 11:00;CYQR 271100Z 31006KT 15SM FEW040 BKN140 18/14 A2990 RMK SC2AC6 SLP121

CYQR;2013-08-27 12:00;CYQR 271200Z 33002KT 15SM FEW040 BKN160 OVC250 16/14 A2991 RMK SC1AC6CI1 SLP125

CYQR;2013-08-27 13:00;CYQR 271300Z 14002KT 15SM BKN140 17/14 A2989 RMK AC7 ACC ASOCTD SLP121

CYQR;2013-08-27 14:00;CYQR 271400Z 25002KT 15SM FEW110 19/16 A2990 RMK AC2 VIS S-SW 4-6 IN FG PTCHS SLP123

CYQR;2013-08-27 15:00;CYQR 271500Z 23003KT 12SM FEW120 24/16 A2991 RMK AC1 HZ SLP128

CYQR;2013-08-27 16:00;CYQR 271600Z 27006KT 15SM SKC 26/13 A2993 RMK SLP133

CYQR;2013-08-27 17:00;CYQR 271700Z 29009KT 15SM SKC 27/12 A2993 RMK SLP135

CYQR;2013-08-27 18:00;CYQR 271800Z 25006KT 15SM SKC 29/10 A2993 RMK SLP133

CYQR;2013-08-27 19:00;CYQR 271900Z 26009G16KT 15SM SKC 30/10 A2992 RMK SLP130

CYQR;2013-08-27 20:00;CYQR 272000Z 28009G16KT 15SM SKC 31/09 A2991 RMK SLP127

CYQR;2013-08-27 21:00;CYQR 272100Z 28009G17KT 15SM FEW090 FEW300 32/09 A2991 RMK CU1CI1 SLP124

CYQR;2013-08-27 22:00;CYQR 272200Z 25006KT 15SM FEW300 32/08 A2991 RMK CI1 SLP123

CYQR;2013-08-27 23:00;CYQR 272300Z 30011KT 15SM FEW090 FEW330 32/07 A2990 RMK CU1CI1 SLP121

CYQR;2013-08-28 00:00;CYQR 280000Z 31008KT 15SM FEW090 31/08 A2990 RMK CU1 SLP122

CYQR;2013-08-28 01:00;CYQR 280100Z 33005KT 15SM SKC 28/13 A2990 RMK SLP121

CYQR;2013-08-28 02:00;CYQR 280200Z 09007KT 15SM FEW090 FEW300 24/10 A2990 RMK AC1CI1 SLP122

CYQR;2013-08-28 03:00;CYQR 280300Z 09008KT 15SM SKC 22/10 A2991 RMK SLP127

CYQR;2013-08-28 04:00;CYQR 280400Z 11007KT 15SM SKC 19/10 A2992 RMK SLP129

CYQR;2013-08-28 05:00;CYQR 280500Z 11009KT 15SM FEW120 20/11 A2993 RMK AC1 SLP132

CYQR;2013-08-28 06:00;CYQR 280600Z 13009KT 15SM FEW120 18/11 A2993 RMK AC1 SLP134

CYQR;2013-08-28 07:00;CYQR 280700Z 15009KT 15SM SKC 18/11 A2993 RMK SLP132

CYQR;2013-08-28 08:00;CYQR 280800Z 14008KT 15SM SKC 17/12 A2992 RMK SLP131

CYQR;2013-08-28 09:00;CYQR 280900Z 15009KT 15SM SKC 17/12 A2993 RMK SLP132

CYQR;2013-08-28 10:00;CYQR 281000Z 14008KT 15SM SKC 16/12 A2992 RMK SLP130

CYQR;2013-08-28 11:00;CYQR 281100Z 13007KT 15SM SKC 14/11 A2992 RMK SLP130

CYQR;2013-08-28 12:00;CYQR 281200Z 12009KT 15SM FEW120 14/12 A2993 RMK AC1 SLP133

CYQR;2013-08-28 13:00;CYQR 281300Z 12009KT 15SM FEW120 FEW300 15/13 A2993 RMK AC1CI1 SLP133

CYQR;2013-08-28 14:00;CYQR 281400Z 16006KT 15SM FEW120 FEW300 17/14 A2995 RMK ACC1CI1 SLP139

CYQR;2013-08-28 15:00;CYQR 281500Z 14008KT 15SM FEW120 FEW300 21/15 A2993 RMK ACC1CI1 SLP136

CYQR;2013-08-28 16:00;CYQR 281600Z 16010KT 15SM FEW120 FEW300 26/17 A2993 RMK AC1CI1 SLP136

CYQR;2013-08-28 17:00;CYQR 281700Z 19011G16KT 15SM FEW120 30/18 A2994 RMK AC1 SLP138

CYQR;2013-08-28 18:00;CYQR 281800Z 16010KT 15SM FEW300 32/17 A2993 RMK CI1 SLP130

CYQR;2013-08-28 19:00;CYQR 281900Z 18013G19KT 15SM FEW350 34/15 A2992 RMK CI1 SLP127

CYQR;2013-08-28 20:00;CYQR 282000Z 19014G20KT 15SM FEW080 FEW350 34/14 A2990 RMK CU1CI0 SLP122

CYQR;2013-08-28 21:00;CYQR 282100Z 18016KT 15SM SCT350 34/13 A2988 RMK CI2 CB TOP DIST W SLP114

CYQR;2013-08-28 22:00;CYQR 282200Z 17013G18KT 15SM FEW090 BKN190 BKN350 33/14 A2986 RMK AC1AC5CI1 CB DIST W-NW SLP107

CYQR;2013-08-28 23:00;CYQR 282300Z 17008KT 15SM FEW090 BKN190 BKN350 31/15 A2986 RMK AC1AC6CI2 CB DIST W-NW SLP108

CYQR;2013-08-29 00:00;CYQR 290000Z 35019G24KT 15SM BKN100 BKN140 BKN350 27/14 A2989 RMK AC5AC1CI2 CB DIST NW SLP124

CYQR;2013-08-29 01:00;CYQR 290100Z 03017KT 15SM FEW040TCU SCT098 BKN300 24/14 A2990 RMK TCU2AC2CI1 CB DIST NW-NE SLP126

CYQR;2013-08-29 02:00;CYQR 290200Z 07009KT 15SM FEW040TCU FEW100 BKN300 24/14 A2989 RMK TCU1AC2CI2 CB DIST NW-NE SLP124

CYQR;2013-08-29 03:00;CYQR 290300Z 08014KT 15SM FEW100 BKN300 23/14 A2990 RMK AC2CI3 SLP124

CYQR;2013-08-29 04:00;CYQR 290400Z 04008KT 15SM FEW100 BKN300 22/14 A2992 RMK AC2CI2 SLP130

CYQR;2013-08-29 05:00;CYQR 290500Z 35015G20KT 15SM SCT078 BKN300 22/15 A2996 RMK AC3CI2 SLP143

CYQR;2013-08-29 06:00;CYQR 290600Z 01015G21KT 15SM SCT088 OVC250 20/16 A2994 RMK AC4CI4 SLP132

CYQR;2013-08-29 07:00;CYQR 290700Z 03011KT 15SM FEW030CB SCT088 OVC250 20/16 A2991 RMK CB1AC3CI4 LTG DIST W SLP123

CYQR;2013-08-29 08:00;CYQR 290800Z 33015G24KT 15SM FEW030CB BKN065 OVC250 19/16 A2994 RMK CB2SC5CI2 LTGIC NW SLP132

CYQR;2013-08-29 09:00;CYQR 290900Z 05014KT 15SM TS FEW030CB BKN065 OVC120 21/14 A2987 RMK CB2SC3AC2 PRESFR SLP108

CYQR;2013-08-29 09:42;CYQR 290942Z 09012KT 15SM -TSRA BKN051CB OVC120 20/ RMK CB5AC3

CYQR;2013-08-29 09:53;CYQR 290953Z 07008G16KT 15SM FEW051CB BKN120 20/ RETS RMK CB2AC4

CYQR;2013-08-29 10:00;CYQR 291000Z 28002KT 15SM FEW051CB BKN120 20/15 A2987 RETS RMK CB2AC5 SLP108

CYQR;2013-08-29 11:00;CYQR 291100Z 00000KT 15SM FEW086 BKN120 18/14 A2990 RMK AC2AC3 SLP116

CYQR;2013-08-29 12:00;CYQR 291200Z 31007KT 15SM FEW120 15/14 A2991 RMK AC1 SLP129

CYQR;2013-08-29 13:00;CYQR 291300Z 33006KT 15SM FEW085 16/14 A2991 RMK AC1 SLP131

CYQR;2013-08-29 14:00;CYQR 291400Z 32010KT 15SM FEW085 19/16 A2995 RMK AC1 SLP142

CYQR;2013-08-29 15:00;CYQR 291500Z 33010KT 15SM FEW020 21/16 A2996 RMK CU1 SLP144

CYQR;2013-08-29 16:00;CYQR 291600Z 31007KT 15SM FEW080 24/16 A2996 RMK ACC1 SLP143

CYQR;2013-08-29 17:00;CYQR 291700Z 32002KT 15SM SKC 25/16 A2996 RMK SLP146

CYQR;2013-08-29 18:00;CYQR 291800Z 08003KT 15SM SKC 28/16 A2997 RMK SLP147

CYQR;2013-08-29 19:00;CYQR 291900Z 05004KT 15SM SKC 29/15 A2996 RMK SLP144

CYQR;2013-08-29 20:00;CYQR 292000Z 12006KT 15SM SKC 29/15 A2996 RMK SLP142

CYQR;2013-08-29 21:00;CYQR 292100Z 12003KT 15SM FEW062 30/15 A2995 RMK CF1 SLP138

CYQR;2013-08-29 22:00;CYQR 292200Z 06003KT 15SM FEW060 FEW340 30/15 A2995 RMK CU1CI0 SLP137

CYQR;2013-08-29 23:00;CYQR 292300Z 22004KT 15SM FEW062 SCT340 30/15 A2995 RMK CF1CI0 SLP136

CYQR;2013-08-30 00:00;CYQR 300000Z 14005KT 15SM FEW060 FEW340 30/15 A2994 RMK CF1CI0 SLP139

CYQR;2013-08-30 01:00;CYQR 300100Z 13007KT 15SM FEW340 28/15 A2993 RMK CI1 SLP136

CYQR;2013-08-30 02:00;CYQR 300200Z 11008KT 15SM FEW240 FEW340 24/16 A2993 RMK CI1CI0 SLP136

CYQR;2013-08-30 03:00;CYQR 300300Z 12009KT 15SM FEW240 FEW340 24/16 A2995 RMK CI1CI0 SLP140

CYQR;2013-08-30 04:00;CYQR 300400Z 12012G17KT 15SM SKC 22/16 A2995 RMK SLP141

CYQR;2013-08-30 05:00;CYQR 300500Z 13011G16KT 15SM SKC 22/16 A2995 RMK SLP139

CYQR;2013-08-30 06:00;CYQR 300600Z 13010KT 15SM FEW300 20/16 A2993 RMK CI0 SLP133

CYQR;2013-08-30 07:00;CYQR 300700Z 14009KT 15SM SKC 20/17 A2993 RMK SLP132

CYQR;2013-08-30 08:00;CYQR 300800Z 14010KT 15SM BKN270 19/17 A2992 RMK CI2 SLP130

CYQR;2013-08-30 09:00;CYQR 300900Z 16008G15KT 15SM BKN270 19/17 A2991 RMK CI2 SLP124

CYQR;2013-08-30 10:00;CYQR 301000Z 16007KT 15SM FEW100 BKN240 18/17 A2990 RMK AC2CI3 SLP122

CYQR;2013-08-30 11:00;CYQR 301100Z 18006KT 15SM FEW180 BKN240 17/15 A2988 RMK AC1CI5 SLP116

CYQR;2013-08-30 12:00;CYQR 301200Z 21007KT 15SM BKN150 BKN240 16/15 A2989 RMK AC4CI2 SLP121

CYQR;2013-08-30 13:00;CYQR 301300Z 18007KT 15SM FEW130 SCT280 16/14 A2988 RMK AC2CI1 ACC ASOCTD SLP118

CYQR;2013-08-30 14:00;CYQR 301400Z 25005KT 15SM FEW080 FEW170 FEW320 18/15 A2990 RMK AC1AC1CI0 SLP122

CYQR;2013-08-30 15:00;CYQR 301500Z 21009KT 15SM FEW080 FEW150 23/15 A2989 RMK AC1AC1 SLP120

CYQR;2013-08-30 16:00;CYQR 301600Z 25011KT 15SM FEW080 FEW150 26/15 A2989 RMK AC1AC1 SLP119

CYQR;2013-08-30 17:00;CYQR 301700Z 27016KT 15SM FEW080 FEW330 28/13 A2987 RMK ACC1CI1 SLP114

CYQR;2013-08-30 18:00;CYQR 301800Z 28016KT 15SM FEW080 30/12 A2987 RMK AC1 SLP111

CYQR;2013-08-30 19:00;CYQR 301900Z 26012G20KT 15SM SKC 30/11 A2985 RMK SLP105

CYQR;2013-08-30 20:00;CYQR 302000Z 26017G25KT 15SM FEW086 FEW330 32/10 A2983 RMK CU1CI1 SLP099

CYQR;2013-08-30 21:00;CYQR 302100Z 28018G25KT 15SM FEW080 FEW180 BKN330 32/11 A2981 RMK CF1AC1CI0 SLP088

CYQR;2013-08-30 22:00;CYQR 302200Z 28015KT 15SM FEW080 SCT180 BKN330 30/11 A2980 RMK CU1AC2CI0 SLP085

CYQR;2013-08-30 23:00;CYQR 302300Z 29016KT 15SM FEW080 BKN160 BKN330 30/10 A2979 RMK CU1AC6CI0 SLP083

CYQR;2013-08-31 00:00;CYQR 310000Z 29016G24KT 15SM FEW180 SCT330 30/10 A2978 RMK AC2CI0 SLP082

CYQR;2013-08-31 01:00;CYQR 310100Z 29009KT 15SM FEW070TCU FEW140 27/10 A2977 RMK TCU1AC1 SLP079

CYQR;2013-08-31 02:00;CYQR 310200Z 28007KT 15SM FEW140 FEW300 22/11 A2977 RMK AC1CI1 SLP078

CYQR;2013-08-31 03:00;CYQR 310300Z 27006KT 15SM FEW300 20/12 A2976 RMK CI1 SLP079

CYQR;2013-08-31 04:00;CYQR 310400Z 25007KT 15SM SCT100 17/11 A2978 RMK AC4 SLP083

CYQR;2013-08-31 05:00;CYQR 310500Z 28007KT 15SM FEW110 16/11 A2979 RMK AC2 SLP086

CYQR;2013-08-31 06:00;CYQR 310600Z 00000KT 15SM FEW100 15/11 A2978 RMK AC2 SLP084

CYQR;2013-08-31 07:00;CYQR 310700Z 22005KT 15SM SKC 13/11 A2977 RMK SLP080

CYQR;2013-08-31 08:00;CYQR 310800Z 27005KT 15SM SKC 13/10 A2977 RMK SLP079

CYQR;2013-08-31 09:00;CYQR 310900Z 28007KT 15SM SKC 11/09 A2978 RMK SLP085

CYQR;2013-08-31 10:00;CYQR 311000Z 35006KT 15SM SKC 12/10 A2979 RMK SLP086

CYQR;2013-08-31 11:00;CYQR 311100Z 35011KT 15SM FEW100 15/13 A2979 RMK AC1 SLP087

CYQR;2013-08-31 12:00;CYQR 311200Z 34018KT 15SM BKN041 BKN300 15/14 A2984 RMK SC5CI1 CB EMBD N PRESRR SLP103

CYQR;2013-08-31 12:29;CYQR 311229Z 34012G17KT 15SM TS BKN041CB 16/ RMK CB7 LTG NW

CYQR;2013-08-31 12:41;CYQR 311241Z 32013KT 15SM -TSRA FEW020 BKN044CB 16/ RMK SC2CB5

CYQR;2013-08-31 12:44;CYQR 311244Z 32014KT 10SM +TSRA FEW016 BKN044CB 15/ RMK SC2CB5

CYQR;2013-08-31 12:47;CYQR 311247Z 32013G18KT 15SM -TSRA FEW016 BKN047CB 15/ RERA RMK SC2CB5

CYQR;2013-08-31 12:50;CYQR 311250Z 32012G18KT 15SM TS FEW015 BKN047CB BKN068 15/ RERA RMK SC2CB2AC2

CYQR;2013-08-31 13:00;CYQR 311300Z 31010G15KT 15SM TS FEW015 SCT049CB BKN076 14/14 A2986 RERA RMK SC2CB2AC3 PRESRR SLP111

CYQR;2013-08-31 13:32;CYQR 311332Z 30011KT 15SM BKN016 BKN045TCU 15/ RETS RMK SC5TCU2

CYQR;2013-08-31 14:00;CYQR 311400Z 29013KT 15SM SCT017 SCT040 15/14 A2988 RETS RMK SC2SC1 SLP115

CYQR;2013-08-31 15:00;CYQR 311500Z 31014G19KT 15SM BKN012 BKN040 BKN150 16/14 A2988 RMK SC5SC1AC1 SLP121

CYQR;2013-08-31 16:00;CYQR 311600Z 30019G25KT 15SM BKN012 16/13 A2989 RMK SC7 SLP124

CYQR;2013-08-31 17:00;CYQR 311700Z 29016G21KT 15SM OVC012 15/13 A2990 RMK SC8 SLP127

CYQR;2013-08-31 18:00;CYQR 311800Z 30015G22KT 15SM OVC012 16/13 A2991 RMK SC8 SLP134

CYQR;2013-08-31 19:00;CYQR 311900Z 30015KT 15SM BKN014 BKN032 18/14 A2991 RMK SC6SC1 SLP136

CYQR;2013-08-31 20:00;CYQR 312000Z 30010KT 15SM BKN027 19/14 A2991 RMK SC6 CU ASOCTD SLP137

CYQR;2013-08-31 21:00;CYQR 312100Z 28011KT 15SM BKN026 BKN052 20/14 A2992 RMK CU6SC2 SLP140

CYQR;2013-08-31 22:00;CYQR 312200Z 31008KT 15SM BKN022 BKN046 20/15 A2992 RMK CU6SC1 SLP141

CYQR;2013-08-31 23:00;CYQR 312300Z 35012KT 15SM FEW025 FEW057 FEW160 20/14 A2993 RMK CU1SC1AC1 CU TR SLP142

CYQR;2013-09-01 00:00;CYQR 010000Z 35013KT 15SM BKN025 BKN060 BKN160 20/15 A2993 RMK CU5SC1AC1 SLP141

CYQR;2013-09-01 01:00;CYQR 010100Z CCA 01013KT 15SM FEW025 SCT040 BKN060 BKN160 19/15 A2996 RMK CU2SC2SC1AC0 CVCTV CLD EMBD SLP151

CYQR;2013-09-01 02:00;CYQR 010200Z 36013G20KT 15SM BKN027 OVC060 17/14 A2999 RMK SC6SC1 SLP160

CYQR;2013-09-01 03:00;CYQR 010300Z 01012KT 15SM BKN020 OVC060 16/13 A3002 RMK SC7SC1 SLP174

CYQR;2013-09-01 04:00;CYQR 010400Z 36011KT 15SM FEW014 OVC025 16/13 A3004 RMK SC1SC7 SLP179

CYQR;2013-09-01 05:00;CYQR 010500Z 33008KT 15SM FEW015 OVC023 15/13 A3005 RMK SC1SC7 SLP182

CYQR;2013-09-01 06:00;CYQR 010600Z 33006KT 15SM FEW015 OVC025 15/13 A3006 RMK SC1SC8 SLP188

CYQR;2013-09-01 07:00;CYQR 010700Z 34005KT 15SM FEW012 OVC025 14/13 A3006 RMK SC1SC8 SLP189

CYQR;2013-09-01 08:00;CYQR 010800Z 33004KT 15SM FEW012 OVC027 14/13 A3007 RMK SC1SC8 SLP190

CYQR;2013-09-01 09:00;CYQR 010900Z 34004KT 15SM FEW012 OVC029 14/13 A3008 RMK SC1SC8 SLP191

CYQR;2013-09-01 10:00;CYQR 011000Z 01006KT 15SM FEW015 OVC029 14/12 A3007 RMK SC1SC8 SLP189

CYQR;2013-09-01 11:00;CYQR 011100Z 02003KT 15SM FEW015 BKN033 14/12 A3008 RMK SC1SC6 SLP192

CYQR;2013-09-01 12:00;CYQR 011200Z 33002KT 15SM FEW016 OVC031 13/13 A3009 RMK SC1SC8 SLP195

CYQR;2013-09-01 13:00;CYQR 011300Z 33004KT 15SM FEW016 OVC032 13/13 A3010 RMK SC1SC8 SLP199

CYQR;2013-09-01 14:00;CYQR 011400Z 00000KT 15SM FEW015 OVC031 14/13 A3011 RMK CU1SC7 SLP203

CYQR;2013-09-01 15:00;CYQR 011500Z 00000KT 15SM FEW013 OVC030 15/12 A3012 RMK CU2SC6 SLP207

CYQR;2013-09-01 16:00;CYQR 011600Z 00000KT 15SM SCT017 OVC029 16/12 A3011 RMK CU3SC5 SLP205

CYQR;2013-09-01 17:00;CYQR 011700Z 18004KT 15SM SCT022 OVC027 16/11 A3011 RMK CU3SC5 SLP205

CYQR;2013-09-01 18:00;CYQR 011800Z 00000KT 15SM OVC027 17/11 A3010 RMK SC8 SLP200

CYQR;2013-09-01 19:00;CYQR 011900Z 13004KT 15SM BKN029 18/11 A3009 RMK SC7 SLP197

CYQR;2013-09-01 20:00;CYQR 012000Z 16006KT 15SM BKN031 20/12 A3008 RMK SC6 SLP194

CYQR;2013-09-01 21:00;CYQR 012100Z 19009KT 15SM FEW033 20/12 A3007 RMK SC2 SLP189

CYQR;2013-09-01 22:00;CYQR 012200Z 15003KT 15SM FEW036 21/12 A3005 RMK CU1 SLP181

CYQR;2013-09-01 23:00;CYQR 012300Z 16005KT 15SM FEW030 22/12 A3003 RMK SC1 SLP176

CYQR;2013-09-02 00:00;CYQR 020000Z 17007KT 15SM SKC 22/11 A3001 RMK SLP169

CYQR;2013-09-02 01:00;CYQR 020100Z 14006KT 15SM SKC 20/11 A3000 RMK SLP166

CYQR;2013-09-02 02:00;CYQR 020200Z 12006KT 15SM FEW300 16/10 A3000 RMK CI1 SLP165

CYQR;2013-09-02 03:00;CYQR 020300Z 16011KT 15SM SKC 17/11 A3000 RMK SLP165

CYQR;2013-09-02 04:00;CYQR 020400Z 16008KT 15SM SKC 15/11 A3000 RMK SLP165

CYQR;2013-09-02 05:00;CYQR 020500Z 16008KT 15SM SKC 14/11 A3000 RMK SLP166

CYQR;2013-09-02 06:00;CYQR 020600Z 16008KT 15SM SKC 13/11 A3000 RMK SLP169

CYQR;2013-09-02 07:00;CYQR 020700Z 15011KT 15SM SKC 13/11 A3000 RMK SLP167

CYQR;2013-09-02 08:00;CYQR 020800Z 14010KT 15SM SKC 12/11 A2999 RMK SLP164

CYQR;2013-09-02 09:00;CYQR 020900Z 14009KT 15SM SKC 12/10 A2999 RMK SLP161

CYQR;2013-09-02 10:00;CYQR 021000Z 13009KT 15SM SKC 11/10 A2998 RMK SLP160

CYQR;2013-09-02 11:00;CYQR 021100Z 13008KT 15SM SKC 11/10 A2997 RMK SLP157

CYQR;2013-09-02 12:00;CYQR 021200Z 13008KT 10SM FEW300 11/10 A2997 RMK CI0 BR CONTRAILS SLP156

CYQR;2013-09-02 13:00;CYQR 021300Z 14009KT 15SM BKN300 11/11 A2997 RMK CI0 CONTRAILS SLP155

CYQR;2013-09-02 14:00;CYQR 021400Z 13009KT 15SM FEW300 13/12 A2996 RMK CI1 SLP154

CYQR;2013-09-02 15:00;CYQR 021500Z 14011KT 15SM BKN300 15/13 A2996 RMK CI1 CONTRAILS SLP152

CYQR;2013-09-02 16:00;CYQR 021600Z 14009KT 15SM BKN300 19/14 A2995 RMK CI1 SLP148

CYQR;2013-09-02 17:00;CYQR 021700Z 15009KT 15SM BKN300 23/14 A2994 RMK CI1 SLP144

CYQR;2013-09-02 18:00;CYQR 021800Z 15009G15KT 15SM BKN300 26/15 A2992 RMK CI1 SLP136

CYQR;2013-09-02 19:00;CYQR 021900Z 16010KT 15SM BKN300 29/14 A2991 RMK CI1 SLP133

CYQR;2013-09-02 20:00;CYQR 022000Z 18012KT 15SM SCT300 30/14 A2990 RMK CI1 SLP127

CYQR;2013-09-02 21:00;CYQR 022100Z 16014KT 15SM SCT300 32/12 A2988 RMK CI2 SLP118

CYQR;2013-09-02 22:00;CYQR 022200Z 18008KT 15SM BKN300 32/10 A2986 RMK CI2 SLP113

CYQR;2013-09-02 23:00;CYQR 022300Z 20011KT 15SM SCT300 32/10 A2986 RMK CI1 SLP112

CYQR;2013-09-03 00:00;CYQR 030000Z 21006KT 15SM FEW300 31/09 A2986 RMK CI1 SLP111

CYQR;2013-09-03 01:00;CYQR 030100Z 17005KT 15SM FEW210 BKN320 26/12 A2985 RMK CI1CI0 SLP109

CYQR;2013-09-03 02:00;CYQR 030200Z 15006KT 15SM FEW190 BKN320 23/12 A2986 RMK AC1CI1 SLP111

CYQR;2013-09-03 03:00;CYQR 030300Z 15008KT 15SM FEW190 BKN300 23/12 A2986 RMK AC1CI1 SLP115

CYQR;2013-09-03 04:00;CYQR 030400Z 16011KT 15SM FEW180 BKN300 20/13 A2987 RMK AC2CI2 SLP116

CYQR;2013-09-03 05:00;CYQR 030500Z 17010KT 15SM SCT170 BKN300 19/12 A2987 RMK AC2CI2 SLP117

CYQR;2013-09-03 06:00;CYQR 030600Z 16008KT 15SM SCT160 BKN220 18/12 A2987 RMK AC3CI2 SLP114

CYQR;2013-09-03 07:00;CYQR 030700Z 14007KT 15SM SCT160 OVC220 18/12 A2988 RMK AC2CI4 SLP116

CYQR;2013-09-03 08:00;CYQR 030800Z 11005KT 15SM FEW160 BKN220 15/12 A2989 RMK AC2CI3 SLP119

CYQR;2013-09-03 09:00;CYQR 030900Z 08003KT 15SM FEW150 BKN220 15/12 A2989 RMK AC2CI2 SLP120

CYQR;2013-09-03 10:00;CYQR 031000Z 07003KT 15SM FEW150 BKN220 16/13 A2992 RMK AC2CI2 SLP128

CYQR;2013-09-03 11:00;CYQR 031100Z 17003KT 15SM FEW150 OVC190 15/13 A2991 RMK AC1AC6 SLP127

CYQR;2013-09-03 12:00;CYQR 031200Z 04005KT 15SM BKN140 16/14 A2993 RMK AC7 SLP133

CYQR;2013-09-03 13:00;CYQR 031300Z 01006KT 15SM FEW080 BKN140 BKN280 18/13 A2995 RMK AC1AC7CI1 SLP137

CYQR;2013-09-03 14:00;CYQR 031400Z 04012KT 15SM VCSH FEW100 BKN140 BKN280 21/12 A2994 RMK AC1AC6CI1 ACC EMBD SLP136

CYQR;2013-09-03 15:00;CYQR 031500Z 02008KT 15SM BKN130 OVC280 22/12 A2998 RMK AC6CI1 SLP150

CYQR;2013-09-03 16:00;CYQR 031600Z 04012KT 15SM FEW090 BKN140 BKN280 22/13 A2999 RMK AC1AC6CI1 SLP154

CYQR;2013-09-03 17:00;CYQR 031700Z 07009G16KT 15SM FEW090 BKN150 BKN280 23/14 A3000 RMK AC1AC6CI1 SLP157

CYQR;2013-09-03 18:00;CYQR 031800Z 04007KT 15SM FEW090 BKN130 OVC280 23/14 A3004 RMK AC1AC6CI1 SLP173

CYQR;2013-09-03 19:00;CYQR 031900Z 04010KT 15SM FEW090 BKN140 BKN280 22/14 A3004 RMK AC1AC6CI1 SLP173

CYQR;2013-09-03 20:00;CYQR 032000Z 03011KT 15SM FEW120 BKN150 OVC280 22/14 A3006 RMK AC2AC5CI1 SLP181

CYQR;2013-09-03 21:00;CYQR 032100Z 05011KT 15SM BKN140 BKN220 BKN280 23/12 A3006 RMK AC5CI1CI1 SLP183

CYQR;2013-09-03 22:00;CYQR 032200Z 04008KT 15SM SCT130 SCT220 BKN280 24/13 A3007 RMK AC3CI1CI1 SLP185

CYQR;2013-09-03 23:00;CYQR 032300Z 03010KT 15SM BKN160 BKN280 23/12 A3008 RMK AC5CI1 SLP188

CYQR;2013-09-04 00:00;CYQR 040000Z 04008KT 15SM BKN120 BKN220 BKN280 22/13 A3009 RMK AC5CC1CI1 SLP191

CYQR;2013-09-04 01:00;CYQR 040100Z 04007KT 15SM FEW080 BKN120 BKN220 BKN280 21/12 A3009 RMK AC1AC2CI1CI0 ACC ASOCTD SLP191

CYQR;2013-09-04 02:00;CYQR 040200Z 02006KT 15SM FEW130 SCT280 17/12 A3009 RMK AC1CI0 SLP193

CYQR;2013-09-04 03:00;CYQR 040300Z 04005KT 15SM BKN130 16/12 A3010 RMK AC6 SLP198

CYQR;2013-09-04 04:00;CYQR 040400Z 05009KT 15SM BKN130 OVC280 18/12 A3012 RMK AC6CI1 SLP202

CYQR;2013-09-04 05:00;CYQR 040500Z 07009KT 15SM BKN130 OVC280 18/10 A3013 RMK AC6CI2 SLP205

CYQR;2013-09-04 06:00;CYQR 040600Z 08008KT 15SM OVC130 17/10 A3012 RMK AC8 SLP203

CYQR;2013-09-04 07:00;CYQR 040700Z 10008KT 15SM OVC120 17/10 A3013 RMK AC8 SLP206

CYQR;2013-09-04 08:00;CYQR 040800Z 11009KT 15SM BKN120 17/12 A3014 RMK AC7 SLP208

CYQR;2013-09-04 08:33;CYQR 040833Z 10009KT 15SM -SHRA FEW080 OVC120 17/ RMK ACC1AC7

CYQR;2013-09-04 09:00;CYQR 040900Z 13009KT 15SM -SHRA FEW080 OVC120 15/13 A3013 RMK ACC1AC7 SLP205

CYQR;2013-09-04 09:38;CYQR 040938Z 10008KT 15SM FEW080 OVC120 15/ RMK ACC1AC8

CYQR;2013-09-04 10:00;CYQR 041000Z 14007KT 15SM FEW080 OVC100 15/13 A3014 RMK ACC1AC8 SLP209

CYQR;2013-09-04 10:27;CYQR 041027Z 13006KT 15SM -SHRA OVC100 15/ RMK AC8 ACC EMBD

CYQR;2013-09-04 11:00;CYQR 041100Z 12009KT 15SM -SHRA OVC110 15/14 A3014 RMK AC8 ACC EMBD SLP208

CYQR;2013-09-04 11:13;CYQR 041113Z 12007KT 15SM OVC100 15/ RMK AC8 ACC EMBD

CYQR;2013-09-04 12:00;CYQR 041200Z 13007KT 15SM BKN090 OVC160 15/14 A3013 RMK AC6AC2 SLP208

CYQR;2013-09-04 13:00;CYQR 041300Z 14008KT 15SM SCT093 BKN170 15/14 A3013 RMK AC4AC3 SLP209

CYQR;2013-09-04 14:00;CYQR 041400Z 14009KT 15SM SCT091 BKN160 15/13 A3014 RMK AC3AC4 SLP210

CYQR;2013-09-04 15:00;CYQR 041500Z 14012KT 15SM SCT095 BKN170 BKN300 15/14 A3013 RMK AC4AC2CI1 SLP212

CYQR;2013-09-04 16:00;CYQR 041600Z 13013KT 15SM BKN150 BKN310 17/14 A3013 RMK AC6CI1 SLP212

CYQR;2013-09-04 17:00;CYQR 041700Z 14011KT 15SM BKN150 OVC310 18/14 A3013 RMK AC7CI1 SLP212

CYQR;2013-09-04 18:00;CYQR 041800Z 12012KT 15SM BKN160 BKN310 20/15 A3013 RMK AC6CI2 SLP207

CYQR;2013-09-04 19:00;CYQR 041900Z 12013G18KT 15SM SCT160 BKN320 20/14 A3012 RMK AC4CI2 SLP205

CYQR;2013-09-04 20:00;CYQR 042000Z 13016KT 15SM FEW080 SCT150 BKN320 22/13 A3010 RMK AC1AC2CI1 SLP199

CYQR;2013-09-04 21:00;CYQR 042100Z 13016KT 15SM FEW080 BKN160 24/13 A3009 RMK AC1AC4 SLP192

CYQR;2013-09-04 22:00;CYQR 042200Z 13014G20KT 15SM FEW093 BKN160 26/12 A3007 RMK AC2AC4 SLP186

CYQR;2013-09-04 23:00;CYQR 042300Z 13016G21KT 15SM FEW160 26/12 A3005 RMK AC2 SLP181

CYQR;2013-09-05 00:00;CYQR 050000Z 13013G18KT 15SM FEW160 FEW300 25/13 A3004 RMK AC1CI0 SLP174

CYQR;2013-09-05 01:00;CYQR 050100Z 14015KT 15SM FEW160 FEW300 24/13 A3003 RMK AC1CI0 SLP171

CYQR;2013-09-05 02:00;CYQR 050200Z 14015KT 15SM FEW150 FEW300 22/13 A3003 RMK AC1CI0 SLP171

CYQR;2013-09-05 03:00;CYQR 050300Z 14012KT 15SM FEW300 19/13 A3005 RMK CI0 SLP181

CYQR;2013-09-05 04:00;CYQR 050400Z 15014KT 15SM FEW300 19/14 A3006 RMK CI0 SLP186

CYQR;2013-09-05 05:00;CYQR 050500Z 15012KT 15SM FEW300 18/13 A3007 RMK CI0 SLP188

CYQR;2013-09-05 06:00;CYQR 050600Z 15010KT 15SM FEW300 17/13 A3007 RMK CI0 SLP187

CYQR;2013-09-05 07:00;CYQR 050700Z 14010KT 15SM FEW300 16/13 A3007 RMK CI0 SLP188

CYQR;2013-09-05 08:00;CYQR 050800Z 14011KT 15SM FEW300 15/12 A3006 RMK CI0 SLP185

CYQR;2013-09-05 09:00;CYQR 050900Z 15008KT 15SM FEW300 14/12 A3006 RMK CI0 SLP183

CYQR;2013-09-05 10:00;CYQR 051000Z 14009KT 15SM FEW270 14/12 A3005 RMK CI0 SLP179

CYQR;2013-09-05 11:00;CYQR 051100Z 12008KT 15SM FEW270 13/11 A3005 RMK CI0 SLP178

CYQR;2013-09-05 12:00;CYQR 051200Z 13011KT 15SM FEW150 FEW270 13/12 A3004 RMK AC1CI0 SLP176

CYQR;2013-09-05 13:00;CYQR 051300Z 14012KT 15SM FEW170 FEW270 14/12 A3004 RMK AC1CI0 SLP176

CYQR;2013-09-05 14:00;CYQR 051400Z 14010KT 15SM SKC 16/13 A3004 RMK SLP175

CYQR;2013-09-05 15:00;CYQR 051500Z 13006KT 15SM SKC 19/14 A3003 RMK SLP173

CYQR;2013-09-05 16:00;CYQR 051600Z 14006KT 15SM SKC 21/15 A3002 RMK SLP171

CYQR;2013-09-05 17:00;CYQR 051700Z 17007KT 15SM SKC 24/16 A3001 RMK SLP167

CYQR;2013-09-05 18:00;CYQR 051800Z 12005KT 15SM SKC 26/16 A3000 RMK SLP158

CYQR;2013-09-05 19:00;CYQR 051900Z 15005KT 15SM FEW090 FEW340 29/17 A2998 RMK ACC1CI1 SLP152

CYQR;2013-09-05 20:00;CYQR 052000Z 17009KT 15SM FEW090 30/18 A2996 RMK ACC1 SLP146

CYQR;2013-09-05 21:00;CYQR 052100Z 15008KT 15SM FEW055 33/18 A2994 RMK CU1 SLP136

CYQR;2013-09-05 22:00;CYQR 052200Z 13003KT 15SM FEW070 33/18 A2991 RMK CU1 SLP128

CYQR;2013-09-05 23:00;CYQR 052300Z 23002KT 15SM FEW060 33/18 A2990 RMK CU1 SLP123

CYQR;2013-09-06 00:00;CYQR 060000Z 32007KT 15SM FEW060 32/17 A2989 RMK CU1 SLP121

CYQR;2013-09-06 01:00;CYQR 060100Z 33006KT 15SM FEW060 29/18 A2989 RMK CU1 SLP120

CYQR;2013-09-06 02:00;CYQR 060200Z 01007KT 15SM FEW340 25/17 A2990 RMK CI1 SLP122

CYQR;2013-09-06 03:00;CYQR 060300Z 03007KT 15SM FEW340 24/18 A2990 RMK CI0 SLP124

CYQR;2013-09-06 04:00;CYQR 060400Z 04006KT 15SM SKC 24/18 A2990 RMK SLP125

CYQR;2013-09-06 05:00;CYQR 060500Z 11003KT 15SM SKC 22/17 A2991 RMK SLP126

CYQR;2013-09-06 06:00;CYQR 060600Z 11003KT 15SM BKN300 22/17 A2990 RMK CI7 SLP123

CYQR;2013-09-06 07:00;CYQR 060700Z 00000KT 15SM BKN300 20/17 A2991 RMK CI7 SLP124

CYQR;2013-09-06 08:00;CYQR 060800Z 00000KT 15SM SCT300 17/15 A2990 RMK CI4 SLP123

CYQR;2013-09-06 09:00;CYQR 060900Z 26003KT 15SM BKN300 16/14 A2989 RMK CI6 SLP119

CYQR;2013-09-06 10:00;CYQR 061000Z 32002KT 15SM BKN300 16/14 A2989 RMK CI7 SLP118

CYQR;2013-09-06 11:00;CYQR 061100Z 01003KT 15SM FEW100 BKN170 15/14 A2989 RMK AC2AC2 SLP118

CYQR;2013-09-06 12:00;CYQR 061200Z 32011KT 14SM FEW100 SCT170 15/14 A2991 RMK AC1AC3 SLP125

CYQR;2013-09-06 13:00;CYQR 061300Z 35008KT 15SM FEW100 BKN150 BKN300 19/17 A2991 RMK AC1AC6CI1 CB SW SLP124

CYQR;2013-09-06 14:00;CYQR 061400Z 33004KT 15SM BKN140 BKN300 20/17 A2993 RMK AC6CI1 SLP131

CYQR;2013-09-06 15:00;CYQR 061500Z 23006KT 15SM BKN086 OVC160 22/17 A2995 RMK AC6AC2 SLP139

CYQR;2013-09-06 16:00;CYQR 061600Z 28006KT 15SM BKN095 OVC130 23/18 A2996 RMK AC3AC5 SLP142

CYQR;2013-09-06 17:00;CYQR 061700Z 29008KT 15SM FEW045 BKN090 BKN130 22/17 A2996 RMK CU1AC5AC2 SLP145

CYQR;2013-09-06 18:00;CYQR 061800Z 36011KT 15SM SCT090 BKN160 BKN230 25/17 A2996 RMK ACC3AC4CI1 SLP142

CYQR;2013-09-06 19:00;CYQR 061900Z 36011KT 15SM SCT090 BKN160 BKN250 24/17 A2996 RMK AC2AC4CI1 SLP144

CYQR;2013-09-06 20:00;CYQR 062000Z 03013KT 15SM FEW090 BKN150 26/18 A2996 RMK ACC1AC5 SLP144

CYQR;2013-09-06 21:00;CYQR 062100Z 02015G20KT 15SM FEW085 SCT120 27/15 A2997 RMK ACC2AC1 SLP149

CYQR;2013-09-06 22:00;CYQR 062200Z 02015KT 15SM FEW100 BKN130 BKN250 26/14 A2998 RMK ACC1AC3CI1 SLP153

CYQR;2013-09-06 23:00;CYQR 062300Z 03013KT 15SM BKN130 26/13 A2999 RMK AC5 SLP154

CYQR;2013-09-07 00:00;CYQR 070000Z 05010KT 15SM BKN120 BKN300 26/12 A2999 RMK AC6CI1 SLP155

CYQR;2013-09-07 01:00;CYQR 070100Z 03008KT 15SM FEW120 FEW300 25/13 A2999 RMK AC2CI0 SLP156

CYQR;2013-09-07 02:00;CYQR 070200Z 06002KT 15SM FEW120 BKN300 21/12 A3002 RMK AC1CI1 SLP166

CYQR;2013-09-07 03:00;CYQR 070300Z 02006KT 15SM FEW120 SCT300 20/13 A3004 RMK AC2CI2 SLP172

CYQR;2013-09-07 04:00;CYQR 070400Z 05012KT 15SM BKN280 21/12 A3004 RMK CI6 SLP173

CYQR;2013-09-07 05:00;CYQR 070500Z 06011G16KT 15SM BKN280 21/12 A3007 RMK CI4 SLP182

CYQR;2013-09-07 06:00;CYQR 070600Z 07011G18KT 15SM BKN280 20/12 A3009 RMK CI2 SLP188

CYQR;2013-09-07 07:00;CYQR 070700Z 07011KT 15SM BKN280 18/12 A3010 RMK CI4 SLP194

CYQR;2013-09-07 08:00;CYQR 070800Z 08012KT 15SM BKN280 18/12 A3011 RMK CI6 SLP197

CYQR;2013-09-07 09:00;CYQR 070900Z 09011KT 15SM BKN130 BKN250 17/12 A3013 RMK AC5CI2 SLP202

CYQR;2013-09-07 10:00;CYQR 071000Z 10008KT 15SM FEW120 17/12 A3014 RMK AC2 SLP205

CYQR;2013-09-07 11:00;CYQR 071100Z 08008KT 15SM FEW140 16/12 A3014 RMK AC2 SLP207

CYQR;2013-09-07 12:00;CYQR 071200Z 09010KT 15SM FEW140 SCT280 15/12 A3014 RMK AC1CI0 SLP208

CYQR;2013-09-07 13:00;CYQR 071300Z 08008KT 15SM FEW075 FEW140 OVC300 16/11 A3016 RMK AC1AC0CI2 SLP216

CYQR;2013-09-07 14:00;CYQR 071400Z 07006KT 15SM FEW075 BKN120 BKN250 17/11 A3019 RMK AC1AC3CI4 SLP223

CYQR;2013-09-07 15:00;CYQR 071500Z 09007KT 15SM SCT110 BKN240 18/11 A3019 RMK AC4CI3 SLP226

CYQR;2013-09-07 16:00;CYQR 071600Z 09010KT 15SM SCT120 BKN220 18/12 A3020 RMK AC2CI6 SLP230

CYQR;2013-09-07 17:00;CYQR 071700Z 09011KT 15SM SCT110 OVC200 19/12 A3020 RMK AC1CI7 SLP229

CYQR;2013-09-07 18:00;CYQR 071800Z 09011KT 15SM FEW110 OVC200 20/12 A3020 RMK AC2CI6 SLP230

CYQR;2013-09-07 19:00;CYQR 071900Z 10010KT 15SM SCT100 OVC180 21/12 A3018 RMK AC2AC6 SLP224

CYQR;2013-09-07 20:00;CYQR 072000Z 10010KT 15SM FEW095 OVC170 21/12 A3018 RMK AC1AC7 SLP222

CYQR;2013-09-07 21:00;CYQR 072100Z 10011KT 15SM FEW080 OVC150 22/11 A3017 RMK AC1AC7 SLP219

CYQR;2013-09-07 22:00;CYQR 072200Z 10012KT 15SM SCT110 OVC210 23/11 A3017 RMK AC4CI3 SLP220

CYQR;2013-09-07 23:00;CYQR 072300Z 10011G18KT 15SM BKN110 OVC210 22/11 A3017 RMK AC6CI2 SLP219

CYQR;2013-09-08 00:00;CYQR 080000Z 11009KT 15SM FEW090 BKN110 OVC210 21/11 A3015 RMK AC2AC6CI1 SLP214

CYQR;2013-09-08 01:00;CYQR 080100Z 16007KT 15SM BKN130 OVC210 19/13 A3013 RMK AC6CI2 SLP209

CYQR;2013-09-08 02:00;CYQR 080200Z 12006KT 15SM BKN100 OVC210 18/13 A3012 RMK AC7CI1 SLP206

CYQR;2013-09-08 03:00;CYQR 080300Z 10006KT 15SM OVC110 18/12 A3012 RMK AC8 SLP205

CYQR;2013-09-08 04:00;CYQR 080400Z 08005KT 15SM OVC100 18/12 A3012 RMK AC8 SLP205

CYQR;2013-09-08 05:00;CYQR 080500Z 08006KT 15SM BKN080 OVC110 18/12 A3012 RMK AC6AC2 SLP206

CYQR;2013-09-08 06:00;CYQR 080600Z 10008KT 15SM BKN094 OVC110 17/13 A3012 RMK AC7AC1 SLP205

CYQR;2013-09-08 07:00;CYQR 080700Z 12007KT 15SM OVC064 17/13 A3013 RMK SC8 SLP208

CYQR;2013-09-08 07:37;CYQR 080737Z 11008KT 15SM -SHRA OVC053 16/ RMK SC8

CYQR;2013-09-08 08:00;CYQR 080800Z 11007KT 15SM -SHRA FEW025 OVC070 15/14 A3011 RMK SC2AC6 SLP200

CYQR;2013-09-08 09:00;CYQR 080900Z 09008KT 15SM -SHRA OVC050 15/14 A3010 RMK SC8 SLP197

CYQR;2013-09-08 09:31;CYQR 080931Z 08006KT 15SM BKN034 OVC050 15/ RMK SC6SC2

CYQR;2013-09-08 10:00;CYQR 081000Z 12007KT 15SM -SHRA BKN036 OVC050 15/14 A3009 RMK SC7SC1 SLP194

CYQR;2013-09-08 11:00;CYQR 081100Z 12010KT 15SM OVC040 14/13 A3007 RMK SC8 SLP189

CYQR;2013-09-08 12:00;CYQR 081200Z 11010KT 15SM BKN038 OVC047 14/13 A3004 RMK SC7SC1 SLP176

CYQR;2013-09-08 13:00;CYQR 081300Z 10008KT 15SM OVC040 15/13 A3003 RMK SC8 SLP173

CYQR;2013-09-08 14:00;CYQR 081400Z 11005KT 15SM BKN042 BKN065 15/13 A3000 RMK SC6SC2 SLP166

CYQR;2013-09-08 15:00;CYQR 081500Z 13008KT 15SM OVC044 15/14 A2999 RMK SC8 SLP161

CYQR;2013-09-08 16:00;CYQR 081600Z 14006KT 15SM FEW020 OVC044 16/14 A2999 RMK SC1SC8 SLP161

CYQR;2013-09-08 17:00;CYQR 081700Z 12003KT 15SM FEW020 OVC046 17/14 A2998 RMK SC1SC8 SLP158

CYQR;2013-09-08 18:00;CYQR 081800Z 15006KT 15SM FEW017 OVC046 18/14 A2996 RMK CU2SC6 SLP151

CYQR;2013-09-08 19:00;CYQR 081900Z 13006KT 15SM FEW025 OVC047 19/14 A2995 RMK CU2SC6 SLP146

CYQR;2013-09-08 20:00;CYQR 082000Z 11006KT 15SM SCT023 OVC046 20/14 A2993 RMK CU3SC5 SLP140

CYQR;2013-09-08 21:00;CYQR 082100Z 08006KT 15SM FEW026 BKN043 20/14 A2991 RMK CU2SC6 SLP133

CYQR;2013-09-08 22:00;CYQR 082200Z 09005KT 15SM FEW025 BKN043 OVC280 20/14 A2990 RMK SC1SC6CI0 SLP129

CYQR;2013-09-08 23:00;CYQR 082300Z 11005KT 15SM BKN043 BKN058 20/14 A2988 RMK SC3SC4 SLP125

CYQR;2013-09-09 00:00;CYQR 090000Z 11008KT 15SM FEW058 BKN230 20/14 A2987 RMK SC2CI2 SLP120

CYQR;2013-09-09 01:00;CYQR 090100Z 13010KT 15SM BKN028 BKN058 BKN230 19/14 A2984 RMK SC2SC2CI0 SLP110

CYQR;2013-09-09 02:00;CYQR 090200Z 16002KT 15SM BKN028 BKN230 17/14 A2984 RMK SC2CI0 SLP110

CYQR;2013-09-09 03:00;CYQR 090300Z 00000KT 15SM BKN028 17/14 A2985 RMK SC7 SLP113

CYQR;2013-09-09 04:00;CYQR 090400Z 18002KT 15SM BKN024 17/14 A2984 RMK SC7 SLP111

CYQR;2013-09-09 05:00;CYQR 090500Z 12003KT 15SM BKN024 17/14 A2982 RMK SC7 SLP104

CYQR;2013-09-09 06:00;CYQR 090600Z 11003KT 15SM BKN024 17/14 A2981 RMK SC7 SLP100

CYQR;2013-09-09 07:00;CYQR 090700Z 10004KT 15SM OVC022 17/14 A2980 RMK SC8 SLP096

CYQR;2013-09-09 08:00;CYQR 090800Z 11004KT 15SM OVC022 16/14 A2980 RMK SC8 SLP096

CYQR;2013-09-09 09:00;CYQR 090900Z 16002KT 15SM OVC022 16/14 A2978 RMK SC6 SLP087

CYQR;2013-09-09 10:00;CYQR 091000Z 33004KT 15SM SCT022 BKN240 14/13 A2976 RMK SC3CI0 SLP081

CYQR;2013-09-09 11:00;CYQR 091100Z 08002KT 15SM FEW024 BKN240 13/12 A2976 RMK SC1CI7 SLP080

CYQR;2013-09-09 12:00;CYQR 091200Z 00000KT 15SM SCT150 BKN240 14/13 A2977 RMK AC4CI2 SLP086

CYQR;2013-09-09 13:00;CYQR 091300Z 09003KT 15SM BKN029 OVC150 14/14 A2978 RMK SC6AC2 SLP090

CYQR;2013-09-09 14:00;CYQR 091400Z 14005KT 15SM BKN024 OVC091 16/14 A2979 RMK SC7AC1 SLP091

CYQR;2013-09-09 15:00;CYQR 091500Z 10002KT 15SM BKN024 BKN091 OVC160 16/14 A2977 RMK SC5AC1AS2 SLP086

CYQR;2013-09-09 16:00;CYQR 091600Z 07003KT 15SM SCT025 BKN090 OVC160 17/14 A2977 RMK SC3AC2AS2 SLP086

CYQR;2013-09-09 17:00;CYQR 091700Z 00000KT 15SM BKN020 OVC090 18/14 A2978 RMK SC7AC1 SLP088

CYQR;2013-09-09 18:00;CYQR 091800Z 00000KT 15SM BKN023 OVC140 19/14 A2978 RMK SC7AC1 CU ASOCTD SLP087

CYQR;2013-09-09 19:00;CYQR 091900Z 27004KT 15SM BKN026 OVC140 20/14 A2978 RMK SC7AC1 SLP089

CYQR;2013-09-09 20:00;CYQR 092000Z 29003KT 15SM BKN023 OVC120 20/14 A2978 RMK SC7AC1 SLP087

CYQR;2013-09-09 21:00;CYQR 092100Z 30006KT 15SM BKN025 OVC160 20/14 A2977 RMK SC6AC2 SLP084

CYQR;2013-09-09 22:00;CYQR 092200Z 27006KT 15SM SCT025 BKN150 BKN300 21/14 A2977 RMK CU3AC2CI2 SLP086

CYQR;2013-09-09 23:00;CYQR 092300Z 29008KT 15SM FEW029 FEW150 OVC300 21/14 A2978 RMK CU2AC1CI2 SLP089

CYQR;2013-09-10 00:00;CYQR 100000Z 29006KT 15SM FEW030 BKN160 OVC300 21/14 A2979 RMK SC2AC2CI2 SLP091

CYQR;2013-09-10 01:00;CYQR 100100Z 29003KT 15SM FEW037 BKN100 BKN160 OVC300 20/15 A2980 RMK SC1AC5AC1CI2 SLP094

CYQR;2013-09-10 01:47;CYQR 100147Z 23005KT 15SM -SHRA FEW025 FEW100 OVC300 18/ RMK SC2AC1CI2

CYQR;2013-09-10 02:00;CYQR 100200Z 22005KT 15SM FEW025 FEW100 BKN300 18/15 A2980 RMK SC2AC1CI2 SLP094

CYQR;2013-09-10 03:00;CYQR 100300Z 23006KT 15SM FEW110 SCT190 15/14 A2981 RMK AC2AC0 SLP102

CYQR;2013-09-10 04:00;CYQR 100400Z 23006KT 15SM FEW110 13/13 A2981 RMK AC2 SLP103

CYQR;2013-09-10 05:00;CYQR 100500Z 22007KT 15SM FEW088 14/13 A2982 RMK AC1 SLP106

CYQR;2013-09-10 06:00;CYQR 100600Z 23006KT 15SM BKN080 14/13 A2982 RMK AC3 SLP105

CYQR;2013-09-10 07:00;CYQR 100700Z 22006KT 15SM FEW080 14/13 A2981 RMK AC1 SLP102

CYQR;2013-09-10 08:00;CYQR 100800Z 17002KT 15SM SKC 13/12 A2981 RMK SLP100

CYQR;2013-09-10 09:00;CYQR 100900Z 25006KT 15SM SKC 12/12 A2982 RMK SLP104

CYQR;2013-09-10 10:00;CYQR 101000Z 27007KT 15SM SKC 10/10 A2982 RMK SLP105

CYQR;2013-09-10 11:00;CYQR 101100Z 26007KT 15SM SKC 09/09 A2983 RMK SLP108

CYQR;2013-09-10 12:00;CYQR 101200Z 28008KT 15SM FEW030 09/09 A2986 RMK SC1 SLP119

CYQR;2013-09-10 13:00;CYQR 101300Z 28007KT 15SM FEW077 FEW120 10/10 A2987 RMK AC2AC1 SLP124

CYQR;2013-09-10 14:00;CYQR 101400Z 30008KT 15SM FEW080 FEW260 13/12 A2988 RMK AC1CI0 SLP127

CYQR;2013-09-10 15:00;CYQR 101500Z 31012KT 15SM FEW260 16/13 A2990 RMK CI0 SLP132

CYQR;2013-09-10 16:00;CYQR 101600Z 31012KT 15SM SCT260 18/13 A2992 RMK CI0 SLP140

CYQR;2013-09-10 17:00;CYQR 101700Z 30012G19KT 15SM BKN300 20/13 A2993 RMK CI2 SLP142

CYQR;2013-09-10 18:00;CYQR 101800Z 31017KT 15SM BKN300 22/12 A2994 RMK CI2 SLP141

CYQR;2013-09-10 19:00;CYQR 101900Z 33014G19KT 15SM FEW050 FEW300 24/08 A2995 RMK CU1CI0 SLP144

CYQR;2013-09-10 20:00;CYQR 102000Z 33014G19KT 15SM FEW060 FEW300 25/07 A2994 RMK CU1CI0 SLP142

CYQR;2013-09-10 21:00;CYQR 102100Z 32016KT 15SM FEW070 FEW300 25/08 A2993 RMK CU1CI0 SLP140

CYQR;2013-09-10 22:00;CYQR 102200Z 30014G19KT 15SM FEW070 FEW300 24/07 A2993 RMK CU1CI0 SLP139

CYQR;2013-09-10 23:00;CYQR 102300Z 30012G19KT 15SM FEW077 FEW300 25/07 A2993 RMK CU1CI0 SLP138

CYQR;2013-09-11 00:00;CYQR 110000Z 31015KT 15SM FEW072 24/06 A2994 RMK CU1 SLP144

CYQR;2013-09-11 01:00;CYQR 110100Z 30008KT 15SM FEW085 22/07 A2995 RMK AC1 SLP148

CYQR;2013-09-11 02:00;CYQR 110200Z 30009KT 15SM FEW085 17/07 A2996 RMK AC1 SLP152

CYQR;2013-09-11 03:00;CYQR 110300Z 28005KT 15SM SCT150 14/06 A2998 RMK AC2 SLP162

CYQR;2013-09-11 04:00;CYQR 110400Z 30007KT 12SM BKN140 13/06 A3000 RMK AC2 SLP169

CYQR;2013-09-11 05:00;CYQR 110500Z 32003KT 15SM BKN140 12/06 A3002 RMK AC4 SLP175

CYQR;2013-09-11 06:00;CYQR 110600Z 29005KT 15SM SCT140 11/06 A3004 RMK AC2 SLP178

CYQR;2013-09-11 07:00;CYQR 110700Z 30002KT 15SM BKN120 09/06 A3005 RMK AC4 SLP184

CYQR;2013-09-11 08:00;CYQR 110800Z 26007KT 15SM FEW120 08/05 A3007 RMK AC1 SLP188

CYQR;2013-09-11 09:00;CYQR 110900Z 27006KT 15SM SKC 08/05 A3008 RMK SLP192

CYQR;2013-09-11 10:00;CYQR 111000Z 30004KT 15SM SKC 07/05 A3009 RMK SLP197

CYQR;2013-09-11 11:00;CYQR 111100Z 31005KT 15SM SKC 07/05 A3011 RMK SLP204

CYQR;2013-09-11 12:00;CYQR 111200Z 29004KT 15SM FEW330 06/05 A3012 RMK CI1 SLP210

CYQR;2013-09-11 13:00;CYQR 111300Z 30004KT 15SM FEW330 07/05 A3015 RMK CI1 SLP217

CYQR;2013-09-11 14:00;CYQR 111400Z 29003KT 15SM SKC 10/07 A3016 RMK SLP223

CYQR;2013-09-11 15:00;CYQR 111500Z 35006KT 15SM SKC 15/07 A3018 RMK SLP230

CYQR;2013-09-11 16:00;CYQR 111600Z 34009KT 15SM SKC 18/07 A3020 RMK SLP235

CYQR;2013-09-11 17:00;CYQR 111700Z 01009G15KT 15SM SKC 19/07 A3021 RMK SLP240

CYQR;2013-09-11 18:00;CYQR 111800Z 36015KT 15SM SKC 21/07 A3022 RMK SLP242

CYQR;2013-09-11 19:00;CYQR 111900Z 36013G21KT 15SM SKC 21/06 A3023 RMK SLP244

CYQR;2013-09-11 20:00;CYQR 112000Z 36013G20KT 15SM SKC 22/05 A3023 RMK SLP244

CYQR;2013-09-11 21:00;CYQR 112100Z 36010G20KT 15SM SKC 22/05 A3023 RMK SLP246

CYQR;2013-09-11 22:00;CYQR 112200Z 32014G19KT 15SM SKC 22/05 A3023 RMK SLP247

CYQR;2013-09-11 23:00;CYQR 112300Z 34013KT 15SM SKC 21/05 A3024 RMK SLP249

CYQR;2013-09-12 00:00;CYQR 120000Z 35013KT 15SM FEW300 20/05 A3024 RMK CI1 SLP253

CYQR;2013-09-12 01:00;CYQR 120100Z 36007KT 15SM FEW300 18/05 A3025 RMK CI1 SLP255

CYQR;2013-09-12 02:00;CYQR 120200Z 01004KT 12SM SKC 15/05 A3026 RMK SLP258

CYQR;2013-09-12 03:00;CYQR 120300Z 02004KT 15SM SKC 14/05 A3027 RMK SLP260

CYQR;2013-09-12 04:00;CYQR 120400Z 00000KT 15SM SKC 10/04 A3027 RMK SLP262

CYQR;2013-09-12 05:00;CYQR 120500Z 00000KT 10SM SKC 08/04 A3029 RMK SLP267

CYQR;2013-09-12 06:00;CYQR 120600Z 28004KT 12SM SKC 08/04 A3030 RMK SLP271

CYQR;2013-09-12 07:00;CYQR 120700Z 28006KT 12SM SKC 05/02 A3030 RMK SLP273

CYQR;2013-09-12 08:00;CYQR 120800Z 26002KT 15SM SKC 05/03 A3031 RMK SLP274

CYQR;2013-09-12 09:00;CYQR 120900Z 00000KT 15SM SKC 06/04 A3031 RMK SLP276

CYQR;2013-09-12 10:00;CYQR 121000Z 05002KT 15SM SKC 06/04 A3031 RMK SLP276

CYQR;2013-09-12 11:00;CYQR 121100Z 13002KT 15SM SKC 06/04 A3031 RMK SLP276

CYQR;2013-09-12 11:48;CYQR 121148Z 17003KT 15SM SKC 02/

CYQR;2013-09-12 12:00;CYQR 121200Z 16004KT 15SM SKC 02/01 A3032 RMK SLP282

CYQR;2013-09-12 13:00;CYQR 121300Z 14002KT 15SM VCFG FEW250 03/02 A3032 RMK CI1 SLP283

CYQR;2013-09-12 14:00;CYQR 121400Z 13002KT 15SM SKC 09/06 A3033 RMK SLP284

CYQR;2013-09-12 15:00;CYQR 121500Z 18003KT 15SM SKC 14/07 A3033 RMK SLP281

CYQR;2013-09-12 16:00;CYQR 121600Z 22003KT 15SM SKC 18/07 A3033 RMK SLP281

CYQR;2013-09-12 17:00;CYQR 121700Z 25004KT 15SM SKC 20/06 A3031 RMK SLP277

CYQR;2013-09-12 18:00;CYQR 121800Z 21005KT 15SM SKC 21/06 A3030 RMK SLP269

CYQR;2013-09-12 19:00;CYQR 121900Z 22007KT 15SM SKC 23/05 A3027 RMK SLP262

CYQR;2013-09-12 20:00;CYQR 122000Z 26003KT 15SM FEW320 23/03 A3025 RMK CI1 SLP254

CYQR;2013-09-12 21:00;CYQR 122100Z 19008KT 15SM SKC 25/04 A3022 RMK SLP243

CYQR;2013-09-12 22:00;CYQR 122200Z 22006KT 15SM SKC 25/03 A3020 RMK SLP237

CYQR;2013-09-12 23:00;CYQR 122300Z 20003KT 15SM SKC 25/03 A3018 RMK SLP229

CYQR;2013-09-13 00:00;CYQR 130000Z 19009KT 15SM SKC 24/04 A3016 RMK SLP226

CYQR;2013-09-13 01:00;CYQR 130100Z 17006KT 12SM SKC 21/04 A3015 RMK SLP222

CYQR;2013-09-13 02:00;CYQR 130200Z 16008KT 12SM SKC 18/05 A3015 RMK SLP220

CYQR;2013-09-13 03:00;CYQR 130300Z 16010KT 12SM SKC 17/05 A3014 RMK SLP215

CYQR;2013-09-13 04:00;CYQR 130400Z 16008KT 15SM SKC 14/06 A3013 RMK SLP213

CYQR;2013-09-13 05:00;CYQR 130500Z 16010KT 15SM SKC 13/06 A3012 RMK SLP208

CYQR;2013-09-13 06:00;CYQR 130600Z 16009KT 15SM SKC 12/06 A3010 RMK SLP199

CYQR;2013-09-13 07:00;CYQR 130700Z 15009KT 15SM SKC 11/06 A3009 RMK SLP195

CYQR;2013-09-13 08:00;CYQR 130800Z 14009KT 15SM SKC 11/06 A3007 RMK SLP190

CYQR;2013-09-13 09:00;CYQR 130900Z 14008KT 15SM SKC 10/06 A3005 RMK SLP180

CYQR;2013-09-13 10:00;CYQR 131000Z 13008KT 15SM SKC 09/06 A3003 RMK SLP174

CYQR;2013-09-13 11:00;CYQR 131100Z 12011KT 15SM SKC 08/06 A3001 RMK SLP169

CYQR;2013-09-13 12:00;CYQR 131200Z 12011KT 15SM SKC 08/06 A2999 RMK SLP163

CYQR;2013-09-13 13:00;CYQR 131300Z 13010KT 15SM SKC 09/07 A2997 RMK SLP157

CYQR;2013-09-13 14:00;CYQR 131400Z 12009KT 15SM SKC 11/08 A2996 RMK SLP152

CYQR;2013-09-13 15:00;CYQR 131500Z 14008KT 15SM FEW120 15/10 A2993 RMK AC1 SLP143

CYQR;2013-09-13 16:00;CYQR 131600Z 16006KT 15SM FEW120 19/11 A2991 RMK AC1 SLP137

CYQR;2013-09-13 17:00;CYQR 131700Z 14006KT 15SM FEW120 FEW270 23/12 A2989 RMK AC1CI1 SLP130

CYQR;2013-09-13 18:00;CYQR 131800Z 15009KT 15SM FEW270 26/12 A2986 RMK CI1 SLP115

CYQR;2013-09-13 19:00;CYQR 131900Z 18006KT 15SM FEW300 29/12 A2983 RMK CI1 SLP106

CYQR;2013-09-13 20:00;CYQR 132000Z 21010G15KT 15SM FEW075 FEW300 31/12 A2981 RMK CU1CI1 SLP098

CYQR;2013-09-13 21:00;CYQR 132100Z 25016KT 15SM FEW080 FEW330 31/11 A2978 RMK CU1CI1 SLP086

CYQR;2013-09-13 22:00;CYQR 132200Z 22014KT 15SM FEW085 BKN330 31/11 A2977 RMK CU1CI1 SLP081

CYQR;2013-09-13 23:00;CYQR 132300Z 21017KT 15SM FEW070 FEW170 BKN330 30/12 A2976 RMK CU1AC1CI2 SLP078

CYQR;2013-09-14 00:00;CYQR 140000Z 23012KT 15SM FEW064 FEW170 BKN330 29/13 A2975 RMK CU1AC1CI1 SLP077

CYQR;2013-09-14 01:00;CYQR 140100Z 23007KT 15SM FEW130 BKN330 25/13 A2974 RMK AC1CI2 SLP073

CYQR;2013-09-14 02:00;CYQR 140200Z 22005KT 15SM SCT330 21/12 A2974 RMK CI1 SLP075

CYQR;2013-09-14 03:00;CYQR 140300Z 22006KT 15SM FEW330 19/12 A2974 RMK CI0 SLP075

CYQR;2013-09-14 04:00;CYQR 140400Z 18005KT 15SM FEW330 19/12 A2974 RMK CI0 SLP075

CYQR;2013-09-14 05:00;CYQR 140500Z 16003KT 15SM FEW330 18/12 A2975 RMK CI0 SLP077

CYQR;2013-09-14 06:00;CYQR 140600Z 16003KT 15SM FEW330 15/11 A2975 RMK CI0 SLP074

CYQR;2013-09-14 07:00;CYQR 140700Z 19003KT 15SM SKC 15/11 A2974 RMK SLP071

CYQR;2013-09-14 08:00;CYQR 140800Z 10004KT 15SM SKC 14/12 A2975 RMK SLP073

CYQR;2013-09-14 09:00;CYQR 140900Z 03004KT 15SM SKC 13/12 A2976 RMK SLP076

CYQR;2013-09-14 10:00;CYQR 141000Z 04008KT 15SM SKC 15/12 A2978 RMK SLP082

CYQR;2013-09-14 11:00;CYQR 141100Z 04017G22KT 15SM FEW120 17/12 A2981 RMK AC1 SLP090

CYQR;2013-09-14 12:00;CYQR 141200Z 03018KT 15SM FEW120 16/11 A2984 RMK AC1 SLP103

CYQR;2013-09-14 13:00;CYQR 141300Z 03014G21KT 15SM FEW120 FEW350 15/09 A2988 RMK AC1CI1 SLP117

CYQR;2013-09-14 14:00;CYQR 141400Z 04016G21KT 15SM FEW100 FEW150 FEW350 16/09 A2992 RMK AC1AC1CI0 SLP128

CYQR;2013-09-14 15:00;CYQR 141500Z 04017KT 15SM FEW036 FEW300 17/08 A2994 RMK CU1CI1 SLP143

CYQR;2013-09-14 16:00;CYQR 141600Z 03017G22KT 15SM FEW035 FEW300 18/07 A2998 RMK CU1CI1 SLP154

CYQR;2013-09-14 17:00;CYQR 141700Z 04014G19KT 15SM FEW300 20/06 A2999 RMK CI1 SLP159

CYQR;2013-09-14 18:00;CYQR 141800Z 03017KT 15SM FEW035 21/06 A3000 RMK CU1 SLP163

CYQR;2013-09-14 19:00;CYQR 141900Z 01015G21KT 15SM SKC 21/04 A3001 RMK SLP166

CYQR;2013-09-14 20:00;CYQR 142000Z 01012G22KT 15SM SKC 21/05 A3001 RMK SLP167

CYQR;2013-09-14 21:00;CYQR 142100Z 36011G21KT 15SM SKC 21/05 A3002 RMK SLP170

CYQR;2013-09-14 22:00;CYQR 142200Z 01014KT 15SM SKC 21/05 A3003 RMK SLP175

CYQR;2013-09-14 23:00;CYQR 142300Z 03014G19KT 15SM SKC 20/05 A3006 RMK SLP183

CYQR;2013-09-15 00:00;CYQR 150000Z 03012KT 15SM SKC 19/05 A3008 RMK SLP192

CYQR;2013-09-15 01:00;CYQR 150100Z 02010KT 15SM SKC 17/05 A3010 RMK SLP198

CYQR;2013-09-15 02:00;CYQR 150200Z 01007KT 15SM SKC 13/05 A3012 RMK SLP205

CYQR;2013-09-15 03:00;CYQR 150300Z 04007KT 15SM SKC 13/06 A3014 RMK SLP215

CYQR;2013-09-15 04:00;CYQR 150400Z 09014KT 15SM SKC 13/05 A3016 RMK SLP221

CYQR;2013-09-15 05:00;CYQR 150500Z 09015KT 15SM SKC 12/03 A3017 RMK SLP225

CYQR;2013-09-15 06:00;CYQR 150600Z 10012KT 15SM SKC 11/03 A3019 RMK SLP232

CYQR;2013-09-15 07:00;CYQR 150700Z 11009KT 15SM SKC 09/03 A3021 RMK SLP238

CYQR;2013-09-15 08:00;CYQR 150800Z 11009KT 15SM SKC 07/03 A3022 RMK SLP241

CYQR;2013-09-15 09:00;CYQR 150900Z 12008KT 15SM SKC 06/03 A3024 RMK SLP250

CYQR;2013-09-15 10:00;CYQR 151000Z 12009KT 15SM SKC 06/04 A3025 RMK SLP253

CYQR;2013-09-15 11:00;CYQR 151100Z 12009KT 15SM SKC 05/04 A3026 RMK SLP257

CYQR;2013-09-15 12:00;CYQR 151200Z 12008KT 15SM SKC 04/03 A3027 RMK SLP264

CYQR;2013-09-15 13:00;CYQR 151300Z 12009KT 15SM SKC 05/04 A3028 RMK SLP266

CYQR;2013-09-15 14:00;CYQR 151400Z 15010G15KT 15SM SKC 06/05 A3029 RMK SLP271

CYQR;2013-09-15 15:00;CYQR 151500Z 17010G15KT 15SM SKC 09/06 A3030 RMK SLP275

CYQR;2013-09-15 16:00;CYQR 151600Z 17012KT 15SM SKC 12/06 A3030 RMK SLP276

CYQR;2013-09-15 17:00;CYQR 151700Z 13009KT 15SM SKC 14/07 A3030 RMK SLP274

CYQR;2013-09-15 18:00;CYQR 151800Z 14011KT 15SM SKC 16/07 A3028 RMK SLP266

CYQR;2013-09-15 19:00;CYQR 151900Z 14012KT 15SM SKC 18/06 A3026 RMK SLP260

CYQR;2013-09-15 20:00;CYQR 152000Z 16011G16KT 15SM SKC 19/05 A3024 RMK SLP254

CYQR;2013-09-15 21:00;CYQR 152100Z 18012G18KT 15SM SKC 20/04 A3022 RMK SLP247

CYQR;2013-09-15 22:00;CYQR 152200Z 16011G17KT 15SM SKC 20/04 A3020 RMK SLP240

CYQR;2013-09-15 23:00;CYQR 152300Z 16011G17KT 15SM SKC 20/04 A3018 RMK SLP234

CYQR;2013-09-16 00:00;CYQR 160000Z 16014KT 15SM SKC 19/05 A3017 RMK SLP230

CYQR;2013-09-16 01:00;CYQR 160100Z 14010KT 15SM SKC 17/05 A3016 RMK SLP226

CYQR;2013-09-16 02:00;CYQR 160200Z 15013KT 15SM SKC 15/04 A3016 RMK SLP226

CYQR;2013-09-16 03:00;CYQR 160300Z 14014KT 15SM SKC 13/04 A3015 RMK SLP225

CYQR;2013-09-16 04:00;CYQR 160400Z 15013KT 15SM SKC 12/04 A3015 RMK SLP223

CYQR;2013-09-16 05:00;CYQR 160500Z 15013KT 15SM SKC 11/04 A3014 RMK SLP220

CYQR;2013-09-16 06:00;CYQR 160600Z 15013KT 15SM SKC 10/04 A3012 RMK SLP210

CYQR;2013-09-16 07:00;CYQR 160700Z 14012KT 15SM SKC 09/04 A3011 RMK SLP208

CYQR;2013-09-16 08:00;CYQR 160800Z 14012KT 15SM SKC 08/05 A3009 RMK SLP202

CYQR;2013-09-16 09:00;CYQR 160900Z 14011G16KT 15SM SKC 07/05 A3007 RMK SLP195

CYQR;2013-09-16 10:00;CYQR 161000Z 14011KT 15SM SKC 07/05 A3005 RMK SLP189

CYQR;2013-09-16 11:00;CYQR 161100Z 14013KT 15SM SKC 07/05 A3004 RMK SLP183

CYQR;2013-09-16 12:00;CYQR 161200Z 14015KT 15SM SKC 07/06 A3001 RMK SLP174

CYQR;2013-09-16 13:00;CYQR 161300Z 13012KT 15SM SKC 07/06 A3000 RMK SLP169

CYQR;2013-09-16 14:00;CYQR 161400Z 14013KT 15SM SKC 09/07 A2999 RMK SLP166

CYQR;2013-09-16 15:00;CYQR 161500Z 15015G20KT 15SM SKC 13/09 A2996 RMK SLP157

CYQR;2013-09-16 16:00;CYQR 161600Z 16018KT 15SM SKC 17/11 A2993 RMK SLP147

CYQR;2013-09-16 17:00;CYQR 161700Z 16016G22KT 15SM FEW160 20/11 A2992 RMK AC1 SLP142

CYQR;2013-09-16 18:00;CYQR 161800Z 15022G28KT 15SM FEW160 23/12 A2988 RMK AC1 SLP125

CYQR;2013-09-16 19:00;CYQR 161900Z 15021G29KT 15SM FEW160 25/11 A2985 RMK AC1 SLP115

CYQR;2013-09-16 20:00;CYQR 162000Z 16026G32KT 15SM FEW200 26/11 A2982 RMK CI1 SLP104

CYQR;2013-09-16 21:00;CYQR 162100Z 17025G31KT 15SM FEW200 FEW300 25/12 A2980 RMK CI1CI0 SLP097

CYQR;2013-09-16 22:00;CYQR 162200Z 16022G28KT 15SM FEW200 SCT300 26/12 A2977 RMK CI1CI0 SLP089

CYQR;2013-09-16 23:00;CYQR 162300Z 17022G30KT 15SM FEW200 BKN300 25/12 A2976 RMK CI2CI2 SLP085

CYQR;2013-09-17 00:00;CYQR 170000Z 16014G24KT 15SM FEW200 BKN300 25/12 A2973 RMK CI2CI2 SLP074

CYQR;2013-09-17 01:00;CYQR 170100Z 17018KT 15SM FEW200 SCT300 23/12 A2971 RMK CI1CI0 SLP068

CYQR;2013-09-17 02:00;CYQR 170200Z 15014KT 15SM FEW200 FEW300 21/12 A2971 RMK CI1CI1 SLP068

CYQR;2013-09-17 03:00;CYQR 170300Z 15012KT 15SM SKC 20/12 A2971 RMK SLP066

CYQR;2013-09-17 04:00;CYQR 170400Z 14013KT 15SM SKC 19/12 A2970 RMK SLP062

CYQR;2013-09-17 05:00;CYQR 170500Z 15013KT 15SM FEW200 18/12 A2970 RMK CI1 SLP063

CYQR;2013-09-17 06:00;CYQR 170600Z 15013KT 15SM FEW200 17/12 A2968 RMK CI1 SLP052

CYQR;2013-09-17 07:00;CYQR 170700Z 14012KT 15SM SCT200 16/12 A2967 RMK CI2 SLP049

CYQR;2013-09-17 08:00;CYQR 170800Z 15011G18KT 15SM SCT150 16/12 A2966 RMK AC3 SLP045

CYQR;2013-09-17 09:00;CYQR 170900Z 14008KT 15SM FEW130 BKN170 15/12 A2967 RMK AC1AC5 SLP048

CYQR;2013-09-17 10:00;CYQR 171000Z 13009KT 15SM SCT150 14/12 A2966 RMK AC3 SLP045

CYQR;2013-09-17 11:00;CYQR 171100Z 14009KT 15SM FEW150 14/12 A2966 RMK AC2 SLP044

CYQR;2013-09-17 12:00;CYQR 171200Z 14006KT 15SM VCSH FEW150 FEW200 12/11 A2967 RMK ACC1CI1 SLP049

CYQR;2013-09-17 13:00;CYQR 171300Z 15005KT 15SM FEW150 FEW250 12/11 A2966 RMK AC1CI0 SLP048

CYQR;2013-09-17 14:00;CYQR 171400Z 17004KT 15SM FEW150 FEW300 14/12 A2966 RMK AC1CI0 SLP048

CYQR;2013-09-17 15:00;CYQR 171500Z 26004KT 15SM FEW080 FEW300 18/12 A2967 RMK AC1CI0 SLP048

CYQR;2013-09-17 16:00;CYQR 171600Z 27015KT 15SM FEW080 FEW300 23/10 A2966 RMK AC1CI1 SLP047

CYQR;2013-09-17 17:00;CYQR 171700Z 28012G19KT 15SM FEW080 FEW300 25/10 A2966 RMK AC1CI1 SLP044

CYQR;2013-09-17 18:00;CYQR 171800Z 26010G16KT 15SM FEW300 26/08 A2964 RMK CI0 SLP037

CYQR;2013-09-17 19:00;CYQR 171900Z 27019KT 15SM FEW300 28/07 A2964 RMK CI0 SLP037

CYQR;2013-09-17 20:00;CYQR 172000Z 26016G24KT 15SM FEW300 28/06 A2964 RMK CI0 SLP035

CYQR;2013-09-17 21:00;CYQR 172100Z 29012G21KT 15SM BKN300 28/07 A2964 RMK CI1 SLP034

CYQR;2013-09-17 22:00;CYQR 172200Z 30015KT 15SM BKN250 27/07 A2963 RMK CI3 SLP032

CYQR;2013-09-17 23:00;CYQR 172300Z 30011KT 15SM BKN250 26/07 A2964 RMK CI4 SLP035

CYQR;2013-09-18 00:00;CYQR 180000Z 32008KT 15SM FEW120 BKN250 24/08 A2964 RMK AC2CI2 SLP040

CYQR;2013-09-18 01:00;CYQR 180100Z 34007KT 15SM FEW120 BKN250 19/08 A2963 RMK AC2CI2 SLP037

CYQR;2013-09-18 02:00;CYQR 180200Z 01004KT 15SM FEW120 SCT220 18/08 A2964 RMK AC1CI2 SLP039

CYQR;2013-09-18 03:00;CYQR 180300Z 04005KT 15SM -RA FEW060 BKN100 17/09 A2965 RMK SC1AC6 SLP045

CYQR;2013-09-18 03:41;CYQR 180341Z 03008KT 15SM FEW051 OVC120 18/ RMK SC1AC7

CYQR;2013-09-18 04:00;CYQR 180400Z 04007KT 15SM FEW051 BKN120 OVC160 19/09 A2965 RMK SC1AC6AC1 SLP043

CYQR;2013-09-18 05:00;CYQR 180500Z 05008KT 15SM BKN160 OVC250 19/08 A2963 RMK AC5CI2 SLP038

CYQR;2013-09-18 06:00;CYQR 180600Z 03006KT 15SM OVC100 19/08 A2965 RMK AC8 SLP037

CYQR;2013-09-18 07:00;CYQR 180700Z 04006KT 15SM OVC098 18/07 A2966 RMK AC8 SLP042

CYQR;2013-09-18 08:00;CYQR 180800Z 07009KT 15SM OVC093 19/07 A2967 RMK AC8 SLP044

CYQR;2013-09-18 08:09;CYQR 180809Z 08009KT 15SM -RA OVC093 18/ RMK AC8 CB EMBD LGTICCG DIST SE-S

CYQR;2013-09-18 09:00;CYQR 180900Z 10008KT 12SM -RA BKN090 OVC130 15/11 A2967 RMK AC6AC2 SLP046

CYQR;2013-09-18 10:00;CYQR 181000Z 04010KT 12SM -RA OVC110 15/10 A2962 RMK AC8 SLP030

CYQR;2013-09-18 11:00;CYQR 181100Z 08010KT 15SM OVC078 15/11 A2962 RMK AC8 SLP030

CYQR;2013-09-18 12:00;CYQR 181200Z 08005KT 15SM BKN037 OVC075 14/12 A2963 RMK SC6AC2 SLP036

CYQR;2013-09-18 13:00;CYQR 181300Z 06009KT 15SM BKN037 OVC084 14/11 A2965 RMK SC7AC1 SLP041

CYQR;2013-09-18 14:00;CYQR 181400Z 06012KT 15SM BKN040 OVC090 14/10 A2965 RMK SC7AC1 SLP042

CYQR;2013-09-18 14:42;CYQR 181442Z 05010KT 15SM -SHRA OVC040 13/ RMK SC8

CYQR;2013-09-18 15:00;CYQR 181500Z 06014KT 15SM -SHRA BKN040 OVC090 13/10 A2966 RMK SC6AC2 SLP049

CYQR;2013-09-18 16:00;CYQR 181600Z 05010KT 5SM -SHRA BKN017 OVC025 12/11 A2967 RMK SC6SC2 SLP053

CYQR;2013-09-18 17:00;CYQR 181700Z 01008KT 3SM -SHRA BR FEW005 SCT014 OVC021 12/12 A2967 RMK SF2SC2SC5 SLP055

CYQR;2013-09-18 17:23;CYQR 181723Z 36008KT 3SM -SHRA BR BKN004 OVC015 12/ RMK SF5SC3

CYQR;2013-09-18 18:00;CYQR 181800Z 02008KT 8SM -SHRA BKN005 OVC014 12/12 A2967 RMK SF7SC1 SLP054

CYQR;2013-09-18 19:00;CYQR 181900Z 03013KT 10SM -SHRA BKN006 OVC026 12/12 A2966 RMK SF6SC2 SLP052

CYQR;2013-09-18 20:00;CYQR 182000Z 01010G15KT 15SM -SHRA BKN006 OVC030 13/12 A2966 RMK SC7SC1 SLP052

CYQR;2013-09-18 20:29;CYQR 182029Z 01012G17KT 15SM BKN008 OVC030 13/ RMK SC7SC1

CYQR;2013-09-18 21:00;CYQR 182100Z 36012G17KT 15SM OVC010 13/11 A2968 RMK SC8 SLP059

CYQR;2013-09-18 22:00;CYQR 182200Z 02014KT 15SM OVC014 13/11 A2968 RMK SC8 SLP058

CYQR;2013-09-18 22:25;CYQR 182225Z 02014KT 15SM BKN020 OVC050 13/ RMK SC6SC1

CYQR;2013-09-18 23:00;CYQR 182300Z 03015KT 15SM OVC022 13/10 A2966 RMK SC7 SLP054

CYQR;2013-09-19 00:00;CYQR 190000Z 04008KT 15SM OVC031 13/09 A2971 RMK SC8 SLP069

CYQR;2013-09-19 01:00;CYQR 190100Z 36007KT 15SM OVC031 13/10 A2972 RMK SC8 SLP073

CYQR;2013-09-19 02:00;CYQR 190200Z 36009KT 15SM OVC036 12/10 A2973 RMK SC8 SLP076

CYQR;2013-09-19 03:00;CYQR 190300Z 35013KT 15SM OVC043 12/10 A2974 RMK SC8 SLP081

CYQR;2013-09-19 04:00;CYQR 190400Z 33008KT 15SM OVC045 11/09 A2976 RMK SC8 SLP089

CYQR;2013-09-19 04:23;CYQR 190423Z 32012KT 15SM -RA SCT030 OVC042 11/ RMK SC2SC6

CYQR;2013-09-19 05:00;CYQR 190500Z 33017G22KT 10SM -RA SCT055 OVC068 10/09 A2976 RMK SC3AC5 SLP087

CYQR;2013-09-19 06:00;CYQR 190600Z 32007KT 15SM -RA OVC052 09/09 A2979 RMK SC8 SLP099

CYQR;2013-09-19 07:00;CYQR 190700Z 33011KT 15SM -RA FEW008 OVC065 09/09 A2980 RMK SF2SC6 SLP102

CYQR;2013-09-19 08:00;CYQR 190800Z 33014KT 12SM -RA OVC050 09/08 A2981 RMK SC8 SLP108

CYQR;2013-09-19 09:00;CYQR 190900Z 32013G18KT 12SM -RA FEW027 BKN054 OVC080 08/08 A2982 RMK SC2SC3AC3 SLP112

CYQR;2013-09-19 09:26;CYQR 190926Z 32014G19KT 12SM -RA FEW006 FEW027 OVC044 08/ RMK SF1SC2SC6

CYQR;2013-09-19 10:00;CYQR 191000Z 31013G18KT 12SM -RA BKN004 OVC060 08/08 A2983 RMK SF5SC3 SLP116

CYQR;2013-09-19 11:00;CYQR 191100Z 31017KT 12SM -RA OVC005 07/07 A2986 RMK SF8 SLP125

CYQR;2013-09-19 12:00;CYQR 191200Z 31019G25KT 12SM -RA OVC006 07/07 A2988 RMK SF8 SLP131

CYQR;2013-09-19 13:00;CYQR 191300Z 32017KT 15SM -RA OVC007 07/07 A2991 RMK SC8 SLP141

CYQR;2013-09-19 14:00;CYQR 191400Z 33013KT 15SM BKN009 OVC024 07/07 A2993 RMK SC6SC2 SLP149

CYQR;2013-09-19 14:32;CYQR 191432Z 34015KT 15SM BKN011 OVC032 08/ RMK SC6SC2

CYQR;2013-09-19 15:00;CYQR 191500Z 33013G18KT 15SM BKN016 OVC036 08/07 A2995 RMK SC6SC2 SLP157

CYQR;2013-09-19 16:00;CYQR 191600Z 33016G21KT 15SM BKN018 BKN036 09/06 A2996 RMK SC6SC2 SLP161

CYQR;2013-09-19 17:00;CYQR 191700Z 33020KT 15SM OVC025 09/04 A2997 RMK SC8 SLP163

CYQR;2013-09-19 18:00;CYQR 191800Z 32016KT 15SM OVC027 09/05 A2998 RMK SC8 SLP169

CYQR;2013-09-19 19:00;CYQR 191900Z 31014G20KT 15SM OVC024 09/05 A3000 RMK SC8 SLP173

CYQR;2013-09-19 20:00;CYQR 192000Z 31016G21KT 15SM BKN027 OVC050 10/04 A2999 RMK SC7SC1 SLP172

CYQR;2013-09-19 21:00;CYQR 192100Z 32014G19KT 15SM OVC029 10/04 A3000 RMK SC8 SLP175

CYQR;2013-09-19 22:00;CYQR 192200Z 32013KT 15SM BKN033 12/04 A3001 RMK SC6 SLP177

CYQR;2013-09-19 23:00;CYQR 192300Z 34010KT 15SM FEW040 12/04 A3000 RMK SC1 SLP176

CYQR;2013-09-20 00:00;CYQR 200000Z 35004KT 15SM FEW040 12/04 A3000 RMK SC1 SLP174

CYQR;2013-09-20 01:00;CYQR 200100Z 00000KT 15SM SKC 10/04 A3000 RMK SLP173

CYQR;2013-09-20 02:00;CYQR 200200Z 00000KT 15SM SKC 08/04 A3000 RMK SLP175

CYQR;2013-09-20 03:00;CYQR 200300Z 23003KT 15SM SKC 05/03 A3001 RMK SLP181

CYQR;2013-09-20 04:00;CYQR 200400Z 24002KT 15SM SKC 04/03 A3001 RMK SLP182

CYQR;2013-09-20 05:00;CYQR 200500Z 23003KT 15SM SKC 03/02 A3002 RMK SLP184

CYQR;2013-09-20 06:00;CYQR 200600Z 26002KT 15SM SKC 03/02 A3002 RMK SLP187

CYQR;2013-09-20 07:00;CYQR 200700Z 28002KT 15SM SKC 01/01 A3003 RMK SLP191

CYQR;2013-09-20 08:00;CYQR 200800Z 27002KT 15SM SKC 01/00 A3004 RMK SLP192

CYQR;2013-09-20 09:00;CYQR 200900Z 33002KT 15SM SKC M00/M01 A3003 RMK SLP192

CYQR;2013-09-20 10:00;CYQR 201000Z 00000KT 15SM FEW200 00/M01 A3004 RMK CI1 SLP194

CYQR;2013-09-20 11:00;CYQR 201100Z 31002KT 15SM SKC M01/M01 A3003 RMK SLP192

CYQR;2013-09-20 12:00;CYQR 201200Z 00000KT 15SM FEW200 M00/M01 A3003 RMK CI1 SLP189

CYQR;2013-09-20 13:00;CYQR 201300Z 00000KT 15SM FEW200 M00/M01 A3003 RMK CI1 SLP189

CYQR;2013-09-20 14:00;CYQR 201400Z 00000KT 15SM FEW200 01/01 A3002 RMK CI1 SLP188

CYQR;2013-09-20 15:00;CYQR 201500Z 15002KT 15SM FEW200 06/04 A3004 RMK CI1 SLP193

CYQR;2013-09-20 16:00;CYQR 201600Z 17003KT 15SM SKC 09/05 A3004 RMK SLP193

CYQR;2013-09-20 17:00;CYQR 201700Z 19003KT 15SM SKC 12/05 A3002 RMK SLP189

CYQR;2013-09-20 18:00;CYQR 201800Z 00000KT 15SM FEW250 14/03 A3001 RMK CI1 SLP180

CYQR;2013-09-20 19:00;CYQR 201900Z 14004KT 15SM FEW250 16/03 A2999 RMK CI1 SLP174

CYQR;2013-09-20 20:00;CYQR 202000Z 20003KT 15SM FEW250 17/03 A2997 RMK CI1 SLP167

CYQR;2013-09-20 21:00;CYQR 202100Z 17003KT 15SM FEW250 17/02 A2995 RMK CI1 SLP159

CYQR;2013-09-20 22:00;CYQR 202200Z 09004KT 15SM SKC 17/02 A2994 RMK SLP154

CYQR;2013-09-20 23:00;CYQR 202300Z 17007KT 15SM SKC 18/02 A2992 RMK SLP149

CYQR;2013-09-21 00:00;CYQR 210000Z 14008KT 15SM SKC 17/03 A2990 RMK SLP142

CYQR;2013-09-21 01:00;CYQR 210100Z 12008KT 15SM FEW300 13/03 A2989 RMK CI1 SLP137

CYQR;2013-09-21 02:00;CYQR 210200Z 12010KT 15SM SKC 11/02 A2989 RMK SLP138

CYQR;2013-09-21 03:00;CYQR 210300Z 12012KT 15SM SKC 11/02 A2989 RMK SLP137

CYQR;2013-09-21 04:00;CYQR 210400Z 13011KT 15SM SKC 10/02 A2988 RMK OBS TAKEN -08 SLP136

CYQR;2013-09-21 05:00;CYQR 210500Z 13012KT 15SM SKC 08/03 A2987 RMK SLP132

CYQR;2013-09-21 06:00;CYQR 210600Z 14012KT 15SM SKC 08/03 A2987 RMK SLP129

CYQR;2013-09-21 07:00;CYQR 210700Z 13012KT 15SM SKC 07/03 A2987 RMK SLP127

CYQR;2013-09-21 08:00;CYQR 210800Z 13013KT 15SM SKC 06/03 A2986 RMK SLP124

CYQR;2013-09-21 09:00;CYQR 210900Z 14015KT 15SM SKC 06/04 A2985 RMK SLP118

CYQR;2013-09-21 10:00;CYQR 211000Z 14014KT 15SM SKC 06/04 A2983 RMK SLP113

CYQR;2013-09-21 11:00;CYQR 211100Z 13015KT 15SM SKC 06/04 A2981 RMK SLP108

CYQR;2013-09-21 12:00;CYQR 211200Z 14018KT 15SM SKC 07/04 A2980 RMK SLP102

CYQR;2013-09-21 13:00;CYQR 211300Z 14015KT 15SM FEW340 06/04 A2979 RMK CI1 SLP100

CYQR;2013-09-21 14:00;CYQR 211400Z 13016KT 15SM BKN340 07/05 A2978 RMK CI2 SLP097

CYQR;2013-09-21 15:00;CYQR 211500Z 14015KT 15SM BKN340 10/06 A2977 RMK CI2 SLP094

CYQR;2013-09-21 16:00;CYQR 211600Z 15017G22KT 15SM BKN340 13/06 A2975 RMK CI1 SLP087

CYQR;2013-09-21 17:00;CYQR 211700Z 15016G26KT 15SM BKN340 16/06 A2972 RMK CI1 SLP079

CYQR;2013-09-21 18:00;CYQR 211800Z 15021G26KT 15SM FEW340 19/07 A2970 RMK CI1 SLP067

CYQR;2013-09-21 19:00;CYQR 211900Z 14024KT 15SM FEW340 21/08 A2967 RMK CI1 SLP058

CYQR;2013-09-21 20:00;CYQR 212000Z 16019G28KT 15SM SCT340 21/08 A2966 RMK CI1 SLP052

CYQR;2013-09-21 21:00;CYQR 212100Z 16023G28KT 15SM BKN340 22/07 A2964 RMK CI2 SLP043

CYQR;2013-09-21 22:00;CYQR 212200Z 15017G26KT 15SM BKN340 22/07 A2961 RMK CI2 SLP035

CYQR;2013-09-21 23:00;CYQR 212300Z 16018KT 15SM BKN340 23/08 A2960 RMK CI4 SLP031

CYQR;2013-09-22 00:00;CYQR 220000Z 15014G19KT 15SM BKN300 21/08 A2959 RMK CI5 SLP028

CYQR;2013-09-22 01:00;CYQR 220100Z 14017KT 15SM SCT240 BKN310 19/08 A2958 RMK CI3CI2 SLP025

CYQR;2013-09-22 02:00;CYQR 220200Z 14018KT 15SM FEW240 BKN300 17/08 A2958 RMK CI1CI1 SLP026

CYQR;2013-09-22 03:00;CYQR 220300Z 14016G21KT 15SM BKN260 16/08 A2959 RMK CI1 SLP028

CYQR;2013-09-22 04:00;CYQR 220400Z 14014KT 15SM BKN260 15/08 A2959 RMK CI0 SLP029

CYQR;2013-09-22 05:00;CYQR 220500Z 13014KT 15SM SCT260 13/08 A2958 RMK CI0 SLP026

CYQR;2013-09-22 06:00;CYQR 220600Z 14014G19KT 15SM SCT260 13/08 A2957 RMK CI1 SLP018

CYQR;2013-09-22 07:00;CYQR 220700Z 13011KT 15SM FEW260 12/08 A2956 RMK CI0 SLP017

CYQR;2013-09-22 08:00;CYQR 220800Z 13011KT 15SM SCT260 11/08 A2956 RMK CI0 SLP014

CYQR;2013-09-22 09:00;CYQR 220900Z 14012KT 15SM OVC230 10/08 A2956 RMK CI5 SLP014

CYQR;2013-09-22 10:00;CYQR 221000Z 15006KT 15SM FEW150 BKN230 09/07 A2957 RMK AC1CI1 SLP019

CYQR;2013-09-22 11:00;CYQR 221100Z 12010KT 15SM FEW130 FEW230 09/07 A2956 RMK AC1CI0 SLP013

CYQR;2013-09-22 12:00;CYQR 221200Z 12011KT 15SM BKN150 BKN250 08/07 A2955 RMK AC2CI1 SLP012

CYQR;2013-09-22 13:00;CYQR 221300Z 14013KT 15SM FEW150 OVC250 08/07 A2954 RMK AC2CI4 SLP009

CYQR;2013-09-22 14:00;CYQR 221400Z 14010KT 15SM FEW150 OVC250 09/07 A2953 RMK AC2CI4 SLP006

CYQR;2013-09-22 15:00;CYQR 221500Z 16011KT 15SM FEW120 BKN280 10/08 A2954 RMK AC2CI3 SLP011

CYQR;2013-09-22 16:00;CYQR 221600Z 16007KT 15SM FEW150 OVC300 12/08 A2954 RMK AC1CI6 SLP013

CYQR;2013-09-22 17:00;CYQR 221700Z 23004KT 15SM BKN150 BKN300 14/09 A2955 RMK AC6CI1 SLP015

CYQR;2013-09-22 18:00;CYQR 221800Z 30006KT 15SM BKN150 BKN300 16/09 A2955 RMK AC6CI1 SLP012

CYQR;2013-09-22 19:00;CYQR 221900Z 33006KT 15SM FEW150 FEW300 19/09 A2953 RMK AC1CI0 SLP007

CYQR;2013-09-22 20:00;CYQR 222000Z 02010KT 15SM FEW080 FEW150 BKN300 22/09 A2951 RMK AC1AC1CI2 SLP000

CYQR;2013-09-22 21:00;CYQR 222100Z 04008KT 15SM FEW080 FEW150 BKN300 22/08 A2948 RMK AC1AC1CI5 SLP987

CYQR;2013-09-22 22:00;CYQR 222200Z 05011KT 15SM BKN120 BKN300 22/07 A2945 RMK AC6CI2 SLP978

CYQR;2013-09-22 23:00;CYQR 222300Z 07010KT 15SM SCT100 BKN160 BKN300 21/08 A2946 RMK AC3AC3CI1 SLP983

CYQR;2013-09-23 00:00;CYQR 230000Z 16002KT 15SM BKN100 BKN160 BKN300 20/08 A2950 RMK AC6AC1CI1 VIRGA E-S SLP996

CYQR;2013-09-23 01:00;CYQR 230100Z 13003KT 15SM BKN120 OVC200 18/09 A2951 RMK AC5CI3 SLP999

CYQR;2013-09-23 02:00;CYQR 230200Z 21003KT 15SM BKN100 BKN200 16/09 A2954 RMK AC6CI2 SLP008

CYQR;2013-09-23 03:00;CYQR 230300Z 29009KT 15SM BKN110 OVC240 15/10 A2954 RMK AC7CI1 SLP011

CYQR;2013-09-23 04:00;CYQR 230400Z 01002KT 15SM BKN095 OVC250 15/09 A2953 RMK AC7CI1 OBS TAKEN -08 SLP008

CYQR;2013-09-23 05:00;CYQR 230500Z 10005KT 15SM SCT061 BKN170 BKN250 15/10 A2951 RMK SC3AC2CI2 SLP001

CYQR;2013-09-23 06:00;CYQR 230600Z 14002KT 15SM FEW060 SCT170 BKN250 12/10 A2950 RMK SC1AC2CI1 SLP996

CYQR;2013-09-23 07:00;CYQR 230700Z 30007KT 15SM SCT170 10/08 A2951 RMK AC2 SLP998

CYQR;2013-09-23 08:00;CYQR 230800Z 30003KT 15SM FEW170 10/08 A2951 RMK AC1 SLP001

CYQR;2013-09-23 09:00;CYQR 230900Z 00000KT 15SM FEW170 07/07 A2953 RMK AC1 SLP005

CYQR;2013-09-23 10:00;CYQR 231000Z 27005KT 15SM SCT140 08/07 A2954 RMK AC0 SLP009

CYQR;2013-09-23 11:00;CYQR 231100Z 26002KT 15SM BKN090 08/07 A2954 RMK AC4 SLP008

CYQR;2013-09-23 12:00;CYQR 231200Z 00000KT 15SM FEW100 BKN230 08/07 A2954 RMK AC2CI0 SLP012

CYQR;2013-09-23 13:00;CYQR 231300Z 22004KT 15SM FEW120 BKN180 BKN280 07/06 A2956 RMK AC1AC3CI1 SLP019

CYQR;2013-09-23 14:00;CYQR 231400Z 29005KT 15SM FEW120 SCT170 BKN280 09/07 A2957 RMK AC1AC2CI2 SLP020

CYQR;2013-09-23 15:00;CYQR 231500Z 23002KT 15SM BKN120 OVC280 10/08 A2959 RMK AC7CI1 SLP029

CYQR;2013-09-23 16:00;CYQR 231600Z 26002KT 15SM OVC090 11/09 A2960 RMK AC8 SLP032

CYQR;2013-09-23 17:00;CYQR 231700Z 28011KT 15SM FEW040 OVC095 15/08 A2961 RMK SC2AC6 SLP037

CYQR;2013-09-23 18:00;CYQR 231800Z 27013KT 15SM FEW040 BKN100 BKN140 16/07 A2961 RMK SC2AC4AC2 SLP035

CYQR;2013-09-23 19:00;CYQR 231900Z 25008KT 15SM FEW100 SCT140 BKN250 17/07 A2960 RMK AC2AC2CI3 SLP032

CYQR;2013-09-23 20:00;CYQR 232000Z 27009KT 15SM FEW040 FEW120 BKN180 18/06 A2959 RMK CU1AC2AC5 SLP028

CYQR;2013-09-23 21:00;CYQR 232100Z 26011KT 15SM FEW040 BKN120 BKN200 19/05 A2959 RMK CU1AC6CI2 SLP028

CYQR;2013-09-23 22:00;CYQR 232200Z 24010G16KT 15SM FEW040 BKN140 BKN220 19/04 A2959 RMK CU1AC6CI2 SLP030

CYQR;2013-09-23 23:00;CYQR 232300Z 24012G17KT 15SM FEW040 FEW140 SCT220 21/05 A2958 RMK CU1AC2CI1 SLP027

CYQR;2013-09-24 00:00;CYQR 240000Z 24014G21KT 15SM FEW040 FEW140 SCT220 20/02 A2959 RMK SC1AC1CI1 SLP028

CYQR;2013-09-24 01:00;CYQR 240100Z 25010KT 15SM FEW140 16/02 A2960 RMK AC1 SLP031

CYQR;2013-09-24 02:00;CYQR 240200Z 22008KT 15SM SKC 10/02 A2961 RMK SLP034

CYQR;2013-09-24 03:00;CYQR 240300Z 23012KT 15SM FEW085 12/04 A2962 RMK AC1 SLP042

CYQR;2013-09-24 04:00;CYQR 240400Z 25012KT 15SM FEW085 12/04 A2963 RMK AC1 OBS TAKEN -09 SLP046

CYQR;2013-09-24 05:00;CYQR 240500Z 24011KT 15SM FEW070 10/04 A2965 RMK AC1 SLP052

CYQR;2013-09-24 06:00;CYQR 240600Z 24011KT 15SM FEW070 11/04 A2966 RMK AC0 SLP053

CYQR;2013-09-24 07:00;CYQR 240700Z 25012KT 15SM SKC 10/03 A2967 RMK SLP057

CYQR;2013-09-24 08:00;CYQR 240800Z 25010KT 15SM SKC 09/03 A2969 RMK SLP061

CYQR;2013-09-24 09:00;CYQR 240900Z 24012KT 15SM SKC 09/03 A2970 RMK SLP067

CYQR;2013-09-24 10:00;CYQR 241000Z 25011KT 15SM SKC 08/03 A2972 RMK SLP072

CYQR;2013-09-24 11:00;CYQR 241100Z 25009KT 15SM SKC 07/03 A2973 RMK SLP076

CYQR;2013-09-24 12:00;CYQR 241200Z 25009KT 15SM SKC 06/03 A2975 RMK SLP084

CYQR;2013-09-24 13:00;CYQR 241300Z 26004KT 15SM SKC 05/03 A2977 RMK SLP090

CYQR;2013-09-24 14:00;CYQR 241400Z 25006KT 15SM SKC 07/04 A2977 RMK SLP092

CYQR;2013-09-24 15:00;CYQR 241500Z 26015KT 15SM SKC 11/05 A2979 RMK SLP099

CYQR;2013-09-24 16:00;CYQR 241600Z 27012KT 15SM FEW100 14/05 A2979 RMK AC1 SLP100

CYQR;2013-09-24 17:00;CYQR 241700Z 24010G15KT 15SM FEW100 16/04 A2980 RMK AC1 SLP101

CYQR;2013-09-24 18:00;CYQR 241800Z 25010G16KT 15SM FEW120 18/05 A2980 RMK AC1 SLP098

CYQR;2013-09-24 19:00;CYQR 241900Z 26015G21KT 15SM FEW300 20/03 A2978 RMK CI0 SLP092

CYQR;2013-09-24 20:00;CYQR 242000Z 25015G22KT 15SM BKN300 21/02 A2976 RMK CI0 SLP086

CYQR;2013-09-24 21:00;CYQR 242100Z 24014G19KT 15SM SCT300 20/02 A2976 RMK CI0 SLP086

CYQR;2013-09-24 22:00;CYQR 242200Z 26017KT 15SM FEW074 FEW300 21/02 A2975 RMK CU1CI0 SLP083

CYQR;2013-09-24 23:00;CYQR 242300Z 27011KT 15SM FEW072 BKN300 20/02 A2975 RMK CU1CI1 SLP082

CYQR;2013-09-25 00:00;CYQR 250000Z 26006KT 15SM BKN250 18/02 A2975 RMK CI4 SLP084

CYQR;2013-09-25 01:00;CYQR 250100Z 22006KT 15SM BKN200 14/03 A2975 RMK CI7 SLP085

CYQR;2013-09-25 02:00;CYQR 250200Z 18006KT 15SM OVC200 13/03 A2975 RMK CI8 SLP086

CYQR;2013-09-25 03:00;CYQR 250300Z 17004KT 15SM OVC160 14/03 A2976 RMK AC8 SLP087

CYQR;2013-09-25 04:00;CYQR 250400Z 11003KT 15SM SCT090 OVC160 13/05 A2975 RMK AC3AC5 SLP086

CYQR;2013-09-25 05:00;CYQR 250500Z 11006KT 15SM OVC085 12/05 A2975 RMK AC8 SLP085

CYQR;2013-09-25 06:00;CYQR 250600Z 13007KT 15SM OVC055 12/04 A2974 RMK SC8 SLP078

CYQR;2013-09-25 07:00;CYQR 250700Z 03002KT 15SM -RA OVC052 13/04 A2972 RMK SC8 SLP073

CYQR;2013-09-25 07:37;CYQR 250737Z 03008KT 15SM BKN052 OVC093 11/ RMK SC6AC2

CYQR;2013-09-25 08:00;CYQR 250800Z 04006KT 15SM SCT050 OVC073 11/08 A2971 RMK SC3AC5 SLP067

CYQR;2013-09-25 09:00;CYQR 250900Z 09006KT 15SM BKN050 OVC075 12/07 A2968 RMK SC6AC2 SLP056

CYQR;2013-09-25 09:27;CYQR 250927Z 12011G16KT 15SM -RA OVC054 13/ RMK SC8

CYQR;2013-09-25 10:00;CYQR 251000Z 02005KT 12SM -RA OVC048 11/09 A2968 RMK SC8 SLP056

CYQR;2013-09-25 10:13;CYQR 251013Z 34012KT 12SM -SHRA OVC048 10/ RMK SC8 WND SHFT AT 1005 CVCTV CLD EMBD

CYQR;2013-09-25 11:00;CYQR 251100Z 04013KT 15SM -SHRA OVC048 11/10 A2965 RMK SC8 CVCTV CLD EMBD SLP047

CYQR;2013-09-25 11:38;CYQR 251138Z 06016G22KT 15SM BKN030 OVC100 10/ RMK SC6AC2

CYQR;2013-09-25 12:00;CYQR 251200Z 07020G27KT 15SM BKN049 11/10 A2960 RMK SC6 SLP029

CYQR;2013-09-25 13:00;CYQR 251300Z 07016KT 15SM FEW050 BKN100 BKN280 11/09 A2958 RMK SC2AC4CI1 SLP025

CYQR;2013-09-25 14:00;CYQR 251400Z 08013G18KT 15SM FEW050 BKN120 BKN280 11/09 A2956 RMK SC2AC4CI1 SLP019

CYQR;2013-09-25 15:00;CYQR 251500Z 09011KT 15SM FEW050 BKN120 OVC240 12/09 A2957 RMK SC1AC4CI2 SLP022

CYQR;2013-09-25 16:00;CYQR 251600Z CCA 09011KT 15SM FEW040 BKN140 OVC200 13/10 A2956 RMK SC1AC4CI2 SLP019

CYQR;2013-09-25 17:00;CYQR 251700Z 10006KT 15SM FEW020 BKN110 OVC180 14/10 A2957 RMK SC1AC4AC3 SLP022

CYQR;2013-09-25 18:00;CYQR 251800Z 17003KT 15SM FEW020 SCT100 BKN180 OVC250 15/10 A2957 RMK SC1AC2AC2CI2 SLP021

CYQR;2013-09-25 19:00;CYQR 251900Z 35003KT 15SM FEW020 SCT150 OVC250 16/10 A2955 RMK SC1AC3CI3 SLP016

CYQR;2013-09-25 20:00;CYQR 252000Z 35011KT 15SM FEW020 BKN110 OVC250 15/11 A2956 RMK SC1AC5CI2 SLP017

CYQR;2013-09-25 21:00;CYQR 252100Z 01011KT 15SM FEW015 BKN095 OVC250 15/11 A2958 RMK CF1AC6CI1 SLP024

CYQR;2013-09-25 22:00;CYQR 252200Z 02010KT 15SM FEW015 BKN095 OVC250 15/11 A2959 RMK SC1AC5CI2 SLP029

CYQR;2013-09-25 23:00;CYQR 252300Z 01010KT 15SM FEW015 BKN095 OVC250 15/12 A2960 RMK CF1AC5CI2 SLP031

CYQR;2013-09-25 23:15;CYQR 252315Z 36011KT 15SM -SHRA FEW007 FEW015 BKN095 OVC250 14/ RMK SF1SC1AC5CI2

CYQR;2013-09-26 00:00;CYQR 260000Z 34014KT 15SM FEW007 FEW015 BKN095 BKN250 12/11 A2961 RMK SC1SC1AC6CI2 SLP037

CYQR;2013-09-26 01:00;CYQR 260100Z 34013KT 15SM FEW008 BKN070 11/10 A2964 RMK SC2AC6 SLP046

CYQR;2013-09-26 01:36;CYQR 260136Z 34013KT 15SM -SHRA FEW008 BKN058 10/ RMK SC2SC5

CYQR;2013-09-26 02:00;CYQR 260200Z 36016KT 15SM -SHRA FEW008 BKN058 OVC100 10/09 A2964 RMK SF1SC5AC2 SLP047

CYQR;2013-09-26 02:29;CYQR 260229Z 36014KT 15SM SCT007 OVC058 10/ RMK SF4SC4

CYQR;2013-09-26 02:40;CYQR 260240Z 35014KT 15SM -SHRA SCT007 OVC061 10/ RMK SF4SC4

CYQR;2013-09-26 03:00;CYQR 260300Z 34014KT 15SM -SHRA BKN006 OVC061 09/09 A2966 RMK SF6SC2 SLP054

CYQR;2013-09-26 03:34;CYQR 260334Z 35013KT 15SM BKN005 OVC061 09/ RMK SC7SC1

CYQR;2013-09-26 04:00;CYQR 260400Z 36013KT 15SM BKN006 OVC077 09/09 A2966 RMK SC7AC1 SLP057

CYQR;2013-09-26 05:00;CYQR 260500Z 35017KT 15SM BKN005 OVC077 09/09 A2963 RMK SC7AC1 SLP046

CYQR;2013-09-26 06:00;CYQR 260600Z 34015KT 15SM OVC005 09/09 A2964 RMK SC8 SLP047

CYQR;2013-09-26 07:00;CYQR 260700Z 01014KT 15SM OVC005 09/09 A2964 RMK SC8 SLP048

CYQR;2013-09-26 07:17;CYQR 260717Z 01011G16KT 15SM -RA OVC005 09/ RMK SC8

CYQR;2013-09-26 08:00;CYQR 260800Z 36012G17KT 15SM OVC005 09/09 A2963 RMK SC8 SLP045

CYQR;2013-09-26 09:00;CYQR 260900Z 01012KT 15SM -RA OVC004 09/09 A2961 RMK SC8 SLP039

CYQR;2013-09-26 09:53;CYQR 260953Z 01013KT 15SM -RA OVC003 09/ RMK SC8

CYQR;2013-09-26 10:00;CYQR 261000Z 01015KT 15SM -RA OVC003 09/09 A2959 RMK SC8 SLP031

CYQR;2013-09-26 11:00;CYQR 261100Z 01014G19KT 10SM -RA OVC003 10/09 A2958 RMK SC8 SLP029

CYQR;2013-09-26 11:26;CYQR 261126Z 36015KT 6SM -RA BR OVC002 10/ RMK SC8

CYQR;2013-09-26 12:00;CYQR 261200Z 01010KT 6SM -RA BR OVC003 10/10 A2958 RMK SC8 SLP028

CYQR;2013-09-26 12:12;CYQR 261212Z 36009KT 6SM -RA BR OVC004 10/ RMK SC8

CYQR;2013-09-26 12:49;CYQR 261249Z 34010KT 4SM -RA BR OVC005 09/ RMK SC8 CIG RAG

CYQR;2013-09-26 13:00;CYQR 261300Z 34008KT 4SM -RA OVC004 09/09 A2958 RMK SC8 SLP029

CYQR;2013-09-26 14:00;CYQR 261400Z 34006KT 6SM -RA BR OVC004 09/09 A2958 RMK SC8 SLP028

CYQR;2013-09-26 15:04;CYQR 261504Z 35010KT 6SM -DZ BR BKN003 OVC010 10/ RMK SF5SC3

CYQR;2013-09-26 16:00;CYQR 261600Z 35009KT 6SM -DZ BR BKN004 OVC014 10/10 A2955 RMK SF6SC2 SLP019

CYQR;2013-09-26 17:02;CYQR 261702Z 32010KT 2SM -DZ BR OVC004 10/ RMK SF8

CYQR;2013-09-26 18:00;CYQR 261800Z 33012KT 2SM R13/6000FT/N -DZ BR OVC003 10/10 A2954 RMK SF8 SLP015

CYQR;2013-09-26 19:00;CYQR 261900Z 34011KT 2SM -DZ BR OVC005 10/10 A2953 RMK SF8 SLP014

CYQR;2013-09-26 19:14;CYQR 261914Z 34010KT 3SM -DZ BR OVC004 10/ RMK SF8

CYQR;2013-09-26 20:00;CYQR 262000Z 31012KT 3SM -DZ BR OVC004 10/10 A2952 RMK SF8 SLP011

CYQR;2013-09-26 21:00;CYQR 262100Z 30012KT 1 1/2SM -DZ BR OVC004 10/10 A2953 RMK SF8 SLP013

CYQR;2013-09-26 21:37;CYQR 262137Z 28016KT 2SM -DZ BR OVC004 10/ RMK SF8

CYQR;2013-09-26 22:00;CYQR 262200Z 29015G25KT 3SM -DZ BR OVC005 10/10 A2953 RMK SF8 SLP014

CYQR;2013-09-26 22:26;CYQR 262226Z 29020G26KT 2SM -DZ BR OVC006 09/ RMK SF8

CYQR;2013-09-26 23:00;CYQR 262300Z 29024G30KT 2SM -DZ BR OVC006 09/09 A2955 RMK SF8 SLP019

CYQR;2013-09-27 00:00;CYQR 270000Z 29024G32KT 2SM -RA BR OVC006 09/08 A2957 RMK SC8 SLP028

CYQR;2013-09-27 01:00;CYQR 270100Z 29025G35KT 2SM -RA BR OVC007 08/08 A2960 RMK SC8 SLP038

CYQR;2013-09-27 01:24;CYQR 270124Z 29026G35KT 4SM -RA BR OVC006 08/ RMK SC8

CYQR;2013-09-27 02:00;CYQR 270200Z 29026G33KT 6SM -RA BR BKN009 OVC025 08/08 A2966 RMK SC6SC2 PRESRR SLP057

CYQR;2013-09-27 03:00;CYQR 270300Z 29026G32KT 12SM -RA BKN010 OVC032 09/08 A2971 RMK SC6SC2 SLP075

CYQR;2013-09-27 03:25;CYQR 270325Z 29022KT 15SM -RA SCT007 BKN032 08/ RMK SC3SC3

CYQR;2013-09-27 03:47;CYQR 270347Z 29021KT 15SM -RA BKN007 OVC039 08/ RMK SC6SC2

CYQR;2013-09-27 04:00;CYQR 270400Z 29019G25KT 15SM -RA BKN007 OVC023 08/08 A2974 RMK SC6SC2 SLP085

CYQR;2013-09-27 05:00;CYQR 270500Z 31021G26KT 15SM -RA OVC009 08/08 A2972 RMK SC8 SLP078

CYQR;2013-09-27 06:00;CYQR 270600Z 30012G18KT 15SM OVC010 09/08 A2976 RMK SC8 SLP092

CYQR;2013-09-27 07:00;CYQR 270700Z 27009KT 15SM BKN008 OVC027 08/08 A2979 RMK SC6SC2 SLP103

CYQR;2013-09-27 07:31;CYQR 270731Z 28010KT 15SM OVC011 08/ RMK SC8

CYQR;2013-09-27 08:00;CYQR 270800Z 28009KT 15SM OVC010 08/08 A2981 RMK SC8 SLP110

CYQR;2013-09-27 09:00;CYQR 270900Z 29010KT 15SM BKN010 OVC026 08/08 A2981 RMK SC7SC1 SLP110

CYQR;2013-09-27 10:00;CYQR 271000Z 29007KT 15SM BKN009 OVC032 08/08 A2982 RMK SC7SC1 SLP114

CYQR;2013-09-27 10:52;CYQR 271052Z 28006KT 15SM SCT010 BKN032 08/ RMK SC4SC3

CYQR;2013-09-27 11:00;CYQR 271100Z 27005KT 15SM SCT010 BKN030 08/08 A2982 RMK SC4SC3 SLP112

CYQR;2013-09-27 12:03;CYQR 271203Z 28008KT 15SM FEW005 BKN015 OVC048 08/ RMK SC2SC5SC2

CYQR;2013-09-27 13:00;CYQR 271300Z 28007KT 15SM BKN022 OVC048 08/08 A2981 RMK SC7SC1 SLP113

CYQR;2013-09-27 14:00;CYQR 271400Z 29009KT 15SM FEW010 SCT020 SCT130 BKN320 07/07 A2982 RMK CF1SC3AC1CI1 SLP114

CYQR;2013-09-27 15:00;CYQR 271500Z 29008KT 15SM FEW010 BKN048 BKN130 BKN320 08/08 A2985 RMK SF1SC5AC1CI2 SLP123

CYQR;2013-09-27 16:00;CYQR 271600Z 30007KT 15SM FEW010 SCT180 BKN320 10/08 A2985 RMK CU1AC2CI3 SLP123

CYQR;2013-09-27 17:00;CYQR 271700Z 26005KT 15SM BKN012 BKN055 BKN320 10/08 A2984 RMK CU5SC1CI2 SLP122

CYQR;2013-09-27 18:00;CYQR 271800Z 30007KT 15SM SCT014 BKN055 11/07 A2982 RMK CU3SC2 SLP114

CYQR;2013-09-27 19:00;CYQR 271900Z 28006KT 15SM SCT022 SCT130 BKN250 11/07 A2981 RMK CU3AC1CI1 SLP109

CYQR;2013-09-27 20:00;CYQR 272000Z 27007KT 15SM BKN031 BKN130 BKN350 12/05 A2980 RMK CU5AC1CI2 SLP105

CYQR;2013-09-27 21:00;CYQR 272100Z 28003KT 15SM BKN031 BKN130 BKN350 12/05 A2978 RMK CU6AC1CI1 SLP099

CYQR;2013-09-27 22:00;CYQR 272200Z 25005KT 15SM FEW050 BKN350 13/03 A2977 RMK CU2CI1 SLP095

CYQR;2013-09-27 23:00;CYQR 272300Z 22012KT 15SM FEW050 BKN350 13/00 A2977 RMK CU1CI2 SLP095

CYQR;2013-09-28 00:00;CYQR 280000Z 22005KT 15SM FEW050 SCT350 12/01 A2977 RMK CU1CI0 SLP095

CYQR;2013-09-28 01:00;CYQR 280100Z 18004KT 15SM FEW100 FEW220 10/01 A2976 RMK AC1CI0 SLP092

CYQR;2013-09-28 02:00;CYQR 280200Z 15007KT 15SM SKC 07/02 A2976 RMK SLP092

CYQR;2013-09-28 03:00;CYQR 280300Z 16008KT 15SM SKC 06/01 A2976 RMK SLP095

CYQR;2013-09-28 04:00;CYQR 280400Z 15009KT 15SM FEW080 06/01 A2975 RMK AC1 SLP093

CYQR;2013-09-28 05:00;CYQR 280500Z 14009KT 15SM SKC 05/01 A2974 RMK SLP088

CYQR;2013-09-28 06:00;CYQR 280600Z 13006KT 15SM SKC 03/01 A2972 RMK SLP082

CYQR;2013-09-28 07:00;CYQR 280700Z 13006KT 15SM SKC 02/01 A2970 RMK SLP075

CYQR;2013-09-28 08:00;CYQR 280800Z 12007KT 15SM SKC 01/M00 A2969 RMK SLP071

CYQR;2013-09-28 09:00;CYQR 280900Z 08005KT 15SM SKC 01/00 A2968 RMK SLP067

CYQR;2013-09-28 10:00;CYQR 281000Z 12007KT 15SM SKC 01/M00 A2968 RMK SLP068

CYQR;2013-09-28 11:00;CYQR 281100Z 11007KT 15SM SKC 00/M01 A2968 RMK SLP068

CYQR;2013-09-28 12:00;CYQR 281200Z 13006KT 15SM SKC M00/M01 A2968 RMK SLP068

CYQR;2013-09-28 13:00;CYQR 281300Z 12004KT 15SM FEW140 00/M01 A2967 RMK AC0 SLP067

CYQR;2013-09-28 14:00;CYQR 281400Z 16003KT 15SM FEW140 03/01 A2966 RMK AC1 SLP064

CYQR;2013-09-28 15:00;CYQR 281500Z 25007KT 15SM FEW015 FEW140 07/04 A2966 RMK CF1AC1 SLP061

CYQR;2013-09-28 16:00;CYQR 281600Z 28012KT 15SM FEW140 10/03 A2965 RMK AC1 SLP059

CYQR;2013-09-28 17:00;CYQR 281700Z 25009KT 15SM FEW140 11/04 A2966 RMK AC1 SLP060

CYQR;2013-09-28 18:00;CYQR 281800Z 26012KT 15SM FEW200 14/04 A2964 RMK CI1 SLP053

CYQR;2013-09-28 19:00;CYQR 281900Z 27010KT 15SM FEW050 16/03 A2963 RMK CU1 SLP048

CYQR;2013-09-28 20:00;CYQR 282000Z 26013KT 15SM FEW064 17/01 A2963 RMK CU1 SLP048

CYQR;2013-09-28 21:00;CYQR 282100Z 27014G21KT 15SM FEW072 17/M01 A2963 RMK CU1 SLP048

CYQR;2013-09-28 22:00;CYQR 282200Z 26014KT 15SM FEW070 17/M01 A2963 RMK CU1 SLP048

CYQR;2013-09-28 23:00;CYQR 282300Z 25009KT 15SM FEW070 FEW260 17/M00 A2963 RMK CU1CI0 SLP049

CYQR;2013-09-29 00:00;CYQR 290000Z 25006KT 15SM FEW056 FEW260 15/01 A2963 RMK CU1CI1 SLP050

CYQR;2013-09-29 01:00;CYQR 290100Z 24007KT 15SM FEW260 10/M00 A2963 RMK CI1 SLP051

CYQR;2013-09-29 02:00;CYQR 290200Z 19007KT 15SM FEW260 07/00 A2963 RMK CI0 SLP050

CYQR;2013-09-29 03:00;CYQR 290300Z 16007KT 15SM SKC 07/01 A2962 RMK SLP048

CYQR;2013-09-29 04:00;CYQR 290400Z 17008KT 15SM SKC 07/01 A2961 RMK SLP045

CYQR;2013-09-29 05:00;CYQR 290500Z 16008KT 15SM FEW250 07/02 A2959 RMK CI0 SLP038

CYQR;2013-09-29 06:00;CYQR 290600Z 17010KT 15SM SKC 06/02 A2958 RMK SLP028

CYQR;2013-09-29 07:00;CYQR 290700Z 16010KT 15SM SKC 07/02 A2954 RMK SLP017

CYQR;2013-09-29 08:00;CYQR 290800Z 15010KT 15SM SKC 06/02 A2952 RMK SLP009

CYQR;2013-09-29 09:00;CYQR 290900Z 16011KT 15SM SCT250 06/03 A2951 RMK CI3 SLP003

CYQR;2013-09-29 10:00;CYQR 291000Z 15009KT 15SM FEW250 07/03 A2948 RMK CI1 SLP993

CYQR;2013-09-29 11:00;CYQR 291100Z 17009KT 15SM SKC 07/03 A2946 RMK SLP987

CYQR;2013-09-29 12:00;CYQR 291200Z 16011KT 15SM FEW250 08/04 A2944 RMK CI0 SLP980

CYQR;2013-09-29 13:00;CYQR 291300Z 16009KT 15SM SCT250 08/04 A2943 RMK CI2 SLP978

CYQR;2013-09-29 14:00;CYQR 291400Z 19014G19KT 15SM BKN250 10/05 A2941 RMK CI2 SLP970

CYQR;2013-09-29 15:00;CYQR 291500Z 19015KT 15SM FEW220 BKN280 13/09 A2940 RMK CI1CI1 SLP966

CYQR;2013-09-29 16:00;CYQR 291600Z 19017KT 15SM FEW220 BKN280 16/06 A2938 RMK CI1CI2 SLP960

CYQR;2013-09-29 17:00;CYQR 291700Z 19019G24KT 15SM FEW220 BKN280 19/06 A2937 RMK CI1CI2 SLP958

CYQR;2013-09-29 18:00;CYQR 291800Z 20020KT 15SM FEW130 SCT220 BKN280 19/06 A2934 RMK AC2CI2CI1 SLP942

CYQR;2013-09-29 19:00;CYQR 291900Z 22024G30KT 15SM FEW120 SCT220 BKN280 22/05 A2932 RMK AC2CI2CI2 SLP937

CYQR;2013-09-29 20:00;CYQR 292000Z 24029G35KT 15SM SCT130 BKN220 BKN280 22/05 A2932 RMK AC3CI2CI2 SLP936

CYQR;2013-09-29 21:00;CYQR 292100Z 23023G35KT 15SM BKN120 BKN220 OVC280 21/05 A2932 RMK AC5CI1CI2 SLP936

CYQR;2013-09-29 22:00;CYQR 292200Z 24026G33KT 15SM FEW140 FEW180 BKN240 21/02 A2933 RMK AC1AC2CI0 SLP939

CYQR;2013-09-29 23:00;CYQR 292300Z 24019G28KT 15SM BKN140 BKN180 18/01 A2935 RMK AC6AC2 SLP946

CYQR;2013-09-30 00:00;CYQR 300000Z 23015G28KT 15SM SCT140 BKN180 18/01 A2936 RMK AC3AC1 SLP948

CYQR;2013-09-30 01:00;CYQR 300100Z 23010KT 15SM FEW140 SCT200 14/02 A2938 RMK AC1CI1 SLP957

CYQR;2013-09-30 02:00;CYQR 300200Z 24013KT 15SM SCT200 13/02 A2939 RMK CI2 SLP960

CYQR;2013-09-30 03:00;CYQR 300300Z 24010KT 15SM FEW200 11/02 A2941 RMK CI0 SLP970

CYQR;2013-09-30 04:00;CYQR 300400Z 23013KT 15SM FEW200 11/02 A2941 RMK CI0 SLP967

CYQR;2013-09-30 05:00;CYQR 300500Z 24015KT 15SM SKC 10/02 A2940 RMK SLP966

CYQR;2013-09-30 06:00;CYQR 300600Z 23015KT 15SM SKC 10/02 A2940 RMK SLP963

CYQR;2013-09-30 07:00;CYQR 300700Z 24015KT 15SM SKC 10/02 A2941 RMK SLP964

CYQR;2013-09-30 08:00;CYQR 300800Z 23012G17KT 15SM SKC 08/02 A2940 RMK SLP963

CYQR;2013-09-30 09:00;CYQR 300900Z CCA 24010KT 15SM SKC 07/02 A2940 RMK SLP963

CYQR;2013-09-30 10:00;CYQR 301000Z 24009KT 15SM SKC 07/02 A2940 RMK SLP963

CYQR;2013-09-30 11:00;CYQR 301100Z 24012KT 15SM SKC 07/02 A2941 RMK SLP966

CYQR;2013-09-30 12:00;CYQR 301200Z 22010KT 15SM SKC 05/01 A2941 RMK SLP967

CYQR;2013-09-30 13:00;CYQR 301300Z 19007KT 15SM FEW090 FEW280 03/01 A2941 RMK AC1CI1 SLP968

CYQR;2013-09-30 14:00;CYQR 301400Z 22009KT 15SM FEW230 06/02 A2939 RMK CI1 SLP963

CYQR;2013-09-30 15:00;CYQR 301500Z 25014KT 15SM FEW250 10/03 A2939 RMK CI1 SLP965

CYQR;2013-09-30 16:00;CYQR 301600Z 24010KT 15SM FEW250 13/03 A2939 RMK CI1 SLP964

CYQR;2013-09-30 17:00;CYQR 301700Z 22012G17KT 15SM FEW250 17/03 A2938 RMK CI1 SLP960

CYQR;2013-09-30 18:00;CYQR 301800Z 22015KT 15SM FEW120 SCT250 18/03 A2936 RMK AC1CI2 SLP950

CYQR;2013-09-30 19:00;CYQR 301900Z 24015G25KT 15SM BKN140 BKN250 18/03 A2934 RMK AC5CI2 SLP943

CYQR;2013-09-30 20:00;CYQR 302000Z 24020G26KT 15SM FEW055 BKN140 BKN250 18/04 A2933 RMK SC1AC5CI1 SLP940

CYQR;2013-09-30 20:51;CYQR 302051Z 24017G24KT 15SM -SHRA BKN056 BKN140 17/ RMK SC6ACC1

CYQR;2013-09-30 21:00;CYQR 302100Z 23014G21KT 15SM VCSH BKN056 BKN140 17/05 A2934 RMK SC6ACC1 OCNL -SHRA SLP945

CYQR;2013-09-30 21:16;CYQR 302116Z 22010KT 15SM FEW030 BKN056 BKN140 17/ RMK SC0SC5AC2

CYQR;2013-09-30 22:00;CYQR 302200Z 23016KT 15SM BKN062 BKN150 17/05 A2934 RMK SC5AC2 SLP945

CYQR;2013-09-30 23:00;CYQR 302300Z 23016G24KT 15SM FEW048 BKN079 17/05 A2933 RMK CU1AC7 SLP943

CYQR;2013-10-01 00:00;CYQR 010000Z 25016G21KT 15SM FEW065 FEW130 16/01 A2933 RMK CU1ACC1 VIRGA E-SE SLP942

CYQR;2013-10-01 01:00;CYQR 010100Z 24014KT 15SM FEW065 FEW140 13/00 A2935 RMK CU1ACC1 SLP948

CYQR;2013-10-01 02:00;CYQR 010200Z 25010G15KT 15SM FEW100 11/M01 A2936 RMK AC1 SLP954

CYQR;2013-10-01 03:00;CYQR 010300Z 24009KT 15SM FEW120 09/M01 A2938 RMK AC2 SLP963

CYQR;2013-10-01 04:00;CYQR 010400Z 24014KT 15SM BKN110 10/M00 A2939 RMK AC6 SLP964

CYQR;2013-10-01 05:00;CYQR 010500Z 23016G22KT 15SM FEW100 09/M00 A2938 RMK AC2 SLP963

CYQR;2013-10-01 06:00;CYQR 010600Z 27026G37KT 15SM FEW040 FEW100 09/03 A2941 RMK SC1AC1 SLP969

CYQR;2013-10-01 07:00;CYQR 010700Z 27025G37KT 15SM BKN026 09/04 A2943 RMK SC7 SLP975

CYQR;2013-10-01 08:00;CYQR 010800Z 27026G33KT 15SM BKN040 BKN100 08/04 A2945 RMK SC5AC2 SLP981

CYQR;2013-10-01 09:00;CYQR 010900Z 27024KT 15SM BKN040 BKN100 07/03 A2948 RMK SC5AC1 SLP992

CYQR;2013-10-01 10:00;CYQR 011000Z 26021KT 15SM BKN030 BKN100 08/03 A2951 RMK SC6AC1 SLP002

CYQR;2013-10-01 11:00;CYQR 011100Z 27018G25KT 15SM BKN029 BKN100 07/03 A2953 RMK SC5AC2 SLP008

CYQR;2013-10-01 12:00;CYQR 011200Z 28018G24KT 15SM SCT034 BKN110 07/03 A2955 RMK SC4AC1 SLP018

CYQR;2013-10-01 13:00;CYQR 011300Z 27017G22KT 15SM FEW034 FEW110 SCT270 06/03 A2957 RMK SC1AC1CI0 SC TR SLP023

CYQR;2013-10-01 14:00;CYQR 011400Z 26016KT 15SM FEW110 FEW270 06/03 A2959 RMK AC1CI1 SLP031

CYQR;2013-10-01 15:00;CYQR 011500Z 27020G25KT 15SM FEW020 FEW110 FEW270 09/03 A2963 RMK CU1AC1CI1 SLP048

CYQR;2013-10-01 16:00;CYQR 011600Z 27024G31KT 15SM FEW028 FEW270 11/03 A2964 RMK CU1CI1 TR CU SLP051

CYQR;2013-10-01 17:00;CYQR 011700Z 29021G30KT 15SM FEW030 12/04 A2966 RMK CU1 SLP057

CYQR;2013-10-01 18:00;CYQR 011800Z 29022G29KT 15SM FEW037 14/04 A2967 RMK CU1 SLP058

CYQR;2013-10-01 19:00;CYQR 011900Z 26020G31KT 15SM FEW050 15/03 A2968 RMK CU1 SLP061

CYQR;2013-10-01 20:00;CYQR 012000Z 28019G26KT 15SM FEW050 16/03 A2968 RMK CU1 SLP063

CYQR;2013-10-01 21:00;CYQR 012100Z 28023G28KT 15SM FEW060 16/01 A2969 RMK CU1 SLP066

CYQR;2013-10-01 22:00;CYQR 012200Z 28017G24KT 15SM FEW070 17/M00 A2970 RMK CU1 SLP068

CYQR;2013-10-01 23:00;CYQR 012300Z 27013KT 15SM FEW075 16/M00 A2971 RMK AC2 SLP070

CYQR;2013-10-02 00:00;CYQR 020000Z 27009KT 15SM BKN080 14/00 A2972 RMK AC6 SLP076

CYQR;2013-10-02 01:00;CYQR 020100Z 25006KT 15SM SCT080 11/M00 A2973 RMK AC4 SLP079

CYQR;2013-10-02 02:00;CYQR 020200Z 24009KT 15SM FEW080 06/M01 A2975 RMK AC2 SLP086

CYQR;2013-10-02 03:00;CYQR 020300Z 23008KT 15SM BKN090 08/00 A2976 RMK AC6 SLP094

CYQR;2013-10-02 04:00;CYQR 020400Z 24007KT 15SM SCT090 07/00 A2978 RMK AC3 SLP099

CYQR;2013-10-02 05:00;CYQR 020500Z 24008KT 15SM FEW090 05/M00 A2979 RMK AC2 SLP103

CYQR;2013-10-02 06:00;CYQR 020600Z 27010KT 15SM FEW100 03/M00 A2981 RMK AC1 SLP110

CYQR;2013-10-02 07:00;CYQR 020700Z 34002KT 15SM FEW100 01/M01 A2982 RMK AC1 SLP113

CYQR;2013-10-02 08:00;CYQR 020800Z 29006KT 15SM SKC M01/M02 A2984 RMK SLP119

CYQR;2013-10-02 09:00;CYQR 020900Z 23008KT 15SM SKC M01/M02 A2986 RMK SLP130

CYQR;2013-10-02 10:00;CYQR 021000Z 23004KT 15SM SKC M01/M02 A2987 RMK SLP133

CYQR;2013-10-02 11:00;CYQR 021100Z 26006KT 15SM SKC 00/M01 A2988 RMK SLP135

CYQR;2013-10-02 12:00;CYQR 021200Z 25009KT 15SM FEW280 02/01 A2988 RMK CI1 SLP135

CYQR;2013-10-02 13:00;CYQR 021300Z 18006KT 15SM FEW280 M00/M01 A2989 RMK CI1 SLP137

CYQR;2013-10-02 14:00;CYQR 021400Z 27007KT 15SM FEW280 01/00 A2991 RMK CI1 SLP145

CYQR;2013-10-02 15:00;CYQR 021500Z 27011KT 15SM FEW300 05/01 A2992 RMK CI1 SLP151

CYQR;2013-10-02 16:00;CYQR 021600Z 29010KT 15SM FEW200 SCT300 07/02 A2994 RMK CI2CI1 SLP157

CYQR;2013-10-02 17:00;CYQR 021700Z 30012G17KT 15SM FEW025 FEW150 FEW200 10/04 A2994 RMK SC1ACC1CI1 SLP158

CYQR;2013-10-02 18:00;CYQR 021800Z 29015KT 15SM FEW030 12/04 A2995 RMK SC1 SLP160

CYQR;2013-10-02 19:00;CYQR 021900Z 27016KT 15SM FEW032 13/04 A2995 RMK CU1 SLP160

CYQR;2013-10-02 20:00;CYQR 022000Z 30019G26KT 15SM FEW038 14/03 A2994 RMK CU2 SLP157

CYQR;2013-10-02 21:00;CYQR 022100Z 28024KT 15SM FEW050 13/01 A2995 RMK CU1 SLP161

CYQR;2013-10-02 22:00;CYQR 022200Z 30019KT 15SM FEW050 12/02 A2996 RMK CU1 SLP167

CYQR;2013-10-02 23:00;CYQR 022300Z 32014KT 15SM FEW050 11/02 A2997 RMK SC1 SLP168

CYQR;2013-10-03 00:00;CYQR 030000Z 31009KT 15SM FEW050 09/02 A2998 RMK SC1 SLP172

CYQR;2013-10-03 01:00;CYQR 030100Z 32007KT 15SM FEW050 06/01 A2999 RMK SC1 SLP177

CYQR;2013-10-03 02:00;CYQR 030200Z 33003KT 15SM FEW050 04/00 A3000 RMK SC1 SLP181

CYQR;2013-10-03 03:00;CYQR 030300Z 27003KT 15SM FEW050 SCT300 02/M01 A3001 RMK SC1CI0 SLP187

CYQR;2013-10-03 04:00;CYQR 030400Z 31005KT 15SM FEW085 SCT300 01/M01 A3003 RMK AC1CI0 SLP193

CYQR;2013-10-03 05:00;CYQR 030500Z 26006KT 15SM FEW040 M02/M03 A3004 RMK SC2 SLP195

CYQR;2013-10-03 06:00;CYQR 030600Z 21005KT 15SM BKN035 M00/M01 A3004 RMK SC6 SLP194

CYQR;2013-10-03 07:00;CYQR 030700Z 27007KT 15SM BKN040 01/00 A3004 RMK SC6 SLP193

CYQR;2013-10-03 08:00;CYQR 030800Z 27006KT 15SM BKN040 02/01 A3006 RMK SC7 SLP199

CYQR;2013-10-03 09:00;CYQR 030900Z 31006KT 15SM BKN040 03/02 A3007 RMK SC7 SLP200

CYQR;2013-10-03 10:03;CYQR 031003Z 33009KT 15SM OVC012 04/ RMK SC8

CYQR;2013-10-03 11:00;CYQR 031100Z 33011KT 15SM OVC010 03/02 A3009 RMK SC8 SLP208

CYQR;2013-10-03 11:16;CYQR 031116Z 33008KT 4SM -DZ BR OVC006 03/ RMK SF8

CYQR;2013-10-03 11:26;CYQR 031126Z 34007KT 4SM -DZ BR OVC004 03/ RMK SF8

CYQR;2013-10-03 11:39;CYQR 031139Z 33008KT 10SM BKN004 OVC012 03/ RMK SF5SC2

CYQR;2013-10-03 12:00;CYQR 031200Z 35008KT 10SM BKN004 OVC012 03/03 A3011 RMK SF5SC3 SLP217

CYQR;2013-10-03 12:17;CYQR 031217Z 34004KT 12SM SCT006 OVC016 03/ RMK SF3SC5

CYQR;2013-10-03 12:29;CYQR 031229Z 35009KT 10SM -DZ BKN003 OVC012 03/ RMK SF6SC2

CYQR;2013-10-03 12:41;CYQR 031241Z 35006KT 2 1/2SM -DZ BR OVC003 03/ RMK SF8 CIG RAG

CYQR;2013-10-03 13:00;CYQR 031300Z 35010KT 1 1/2SM -DZ BR OVC002 03/03 A3013 RMK SF8 VIS W 2 SLP224

CYQR;2013-10-03 13:14;CYQR 031314Z 35012KT 3SM -DZ BR OVC003 03/ RMK SF8

CYQR;2013-10-03 13:27;CYQR 031327Z 36009G18KT 8SM -DZ OVC004 03/ RMK SF8 VIS E 3

CYQR;2013-10-03 14:00;CYQR 031400Z 35011KT 8SM -DZ OVC006 03/03 A3015 RMK SF8 CIG VRB 4-8 SLP231

CYQR;2013-10-03 15:00;CYQR 031500Z 36013KT 10SM -DZ OVC005 03/03 A3018 RMK SF8 CIG VRB 4-6 SLP246

CYQR;2013-10-03 15:16;CYQR 031516Z 36013KT 15SM OVC006 03/ RMK SF8

CYQR;2013-10-03 16:00;CYQR 031600Z 36013KT 15SM BKN007 04/03 A3019 RMK SF7 SLP248

CYQR;2013-10-03 17:00;CYQR 031700Z 36010KT 15SM BKN009 04/02 A3020 RMK SC7 SLP253

CYQR;2013-10-03 17:42;CYQR 031742Z 02009KT 15SM BKN012 04/ RMK SC7

CYQR;2013-10-03 18:00;CYQR 031800Z 36010KT 15SM OVC014 04/02 A3022 RMK SC8 SLP261

CYQR;2013-10-03 18:23;CYQR 031823Z 36009G15KT 15SM OVC017 05/ RMK SC8

CYQR;2013-10-03 19:00;CYQR 031900Z 36012KT 15SM OVC017 05/01 A3022 RMK SC8 SLP261

CYQR;2013-10-03 20:00;CYQR 032000Z 02011KT 15SM OVC018 06/01 A3022 RMK SC8 SLP261

CYQR;2013-10-03 21:00;CYQR 032100Z 01013G18KT 15SM OVC015 05/01 A3022 RMK SC8 SLP259

CYQR;2013-10-03 22:00;CYQR 032200Z 02008KT 15SM OVC021 05/01 A3024 RMK SC8 SLP265

CYQR;2013-10-03 23:00;CYQR 032300Z 36009KT 15SM OVC023 05/00 A3028 RMK SC8 SLP276

CYQR;2013-10-04 00:00;CYQR 040000Z 36007KT 15SM BKN035 OVC068 05/M01 A3029 RMK SC7AC1 SLP282

CYQR;2013-10-04 01:00;CYQR 040100Z 35006KT 15SM BKN037 OVC068 05/M02 A3031 RMK SC7AC1 SLP287

CYQR;2013-10-04 02:00;CYQR 040200Z 02007KT 15SM OVC040 04/M02 A3032 RMK SC8 SLP291

CYQR;2013-10-04 03:00;CYQR 040300Z 03007KT 15SM BKN040 03/M03 A3034 RMK SC5 SLP300

CYQR;2013-10-04 04:00;CYQR 040400Z 03005KT 15SM SCT040 01/M03 A3036 RMK SC4 SLP307

CYQR;2013-10-04 05:00;CYQR 040500Z 35005KT 15SM BKN040 M01/M03 A3037 RMK SC7 SLP309

CYQR;2013-10-04 06:00;CYQR 040600Z 02002KT 15SM BKN040 M00/M03 A3038 RMK SC7 SLP314

CYQR;2013-10-04 07:00;CYQR 040700Z 02003KT 15SM BKN040 00/M03 A3039 RMK SC5 SLP317

CYQR;2013-10-04 08:00;CYQR 040800Z 34009KT 15SM FEW040 M04/M05 A3038 RMK SC1 SLP315

CYQR;2013-10-04 09:00;CYQR 040900Z 34002KT 15SM FEW040 M03/M05 A3041 RMK SC1 SLP328

CYQR;2013-10-04 10:00;CYQR 041000Z 34004KT 15SM FEW040 M04/M06 A3042 RMK SC1 SLP330

CYQR;2013-10-04 11:00;CYQR 041100Z 36004KT 15SM FEW040 M05/M06 A3043 RMK SC1 SLP332

CYQR;2013-10-04 12:00;CYQR 041200Z 34005KT 15SM FEW040 M06/M07 A3044 RMK SC1 SLP339

CYQR;2013-10-04 13:00;CYQR 041300Z 35005KT 15SM FEW220 M07/M08 A3044 RMK CI1 SLP339

CYQR;2013-10-04 14:00;CYQR 041400Z 35005KT 15SM FEW006 SCT240 M05/M06 A3044 RMK SF1CI0 SLP340

CYQR;2013-10-04 15:00;CYQR 041500Z 23002KT 15SM FEW006 FEW240 00/M01 A3049 RMK SC1CI1 SLP353

CYQR;2013-10-04 16:00;CYQR 041600Z 35005KT 15SM FEW012 FEW240 04/M00 A3047 RMK SC1CI1 SLP347

CYQR;2013-10-04 17:00;CYQR 041700Z 34008KT 15SM FEW024 FEW240 06/M03 A3046 RMK CU1CI1 SLP344

CYQR;2013-10-04 18:00;CYQR 041800Z 01006KT 15SM FEW040 FEW240 07/M03 A3045 RMK CU1CI0 SLP339

CYQR;2013-10-04 19:00;CYQR 041900Z 36007KT 15SM FEW044 FEW240 08/M03 A3044 RMK CU1CI1 SLP335

CYQR;2013-10-04 20:00;CYQR 042000Z 35008KT 15SM FEW049 SCT240 10/M03 A3041 RMK CU2CI1 SLP325

CYQR;2013-10-04 21:00;CYQR 042100Z 36009KT 15SM FEW055 SCT240 10/M03 A3040 RMK CU2CI0 SLP319

CYQR;2013-10-04 22:00;CYQR 042200Z 03005KT 15SM SCT062 BKN260 09/M04 A3039 RMK SC4CI0 CU ASOCTD SLP318

CYQR;2013-10-04 23:00;CYQR 042300Z 01007KT 15SM FEW056 SCT260 08/M04 A3039 RMK SC1CI0 SLP316

CYQR;2013-10-05 00:00;CYQR 050000Z 01006KT 15SM FEW060 FEW260 07/M04 A3038 RMK SC1CI0 SLP316

CYQR;2013-10-05 01:00;CYQR 050100Z 01003KT 15SM FEW055 FEW260 05/M05 A3037 RMK SC1CI0 SLP315

CYQR;2013-10-05 02:00;CYQR 050200Z 12002KT 15SM FEW060 04/M04 A3037 RMK SC1 SLP315

CYQR;2013-10-05 03:00;CYQR 050300Z 21002KT 15SM FEW060 M00/M06 A3036 RMK SC2 SLP312

CYQR;2013-10-05 04:00;CYQR 050400Z 14005KT 15SM SKC M00/M05 A3034 RMK SLP305

CYQR;2013-10-05 05:00;CYQR 050500Z 16005KT 15SM SKC M03/M06 A3033 RMK SLP302

CYQR;2013-10-05 06:00;CYQR 050600Z 16003KT 15SM SKC M02/M06 A3031 RMK SLP290

CYQR;2013-10-05 07:00;CYQR 050700Z 16004KT 15SM SKC M03/M06 A3030 RMK SLP287

CYQR;2013-10-05 08:00;CYQR 050800Z 13004KT 15SM SKC M03/M05 A3029 RMK SLP284

CYQR;2013-10-05 09:00;CYQR 050900Z 14002KT 15SM SKC M04/M06 A3027 RMK SLP276

CYQR;2013-10-05 10:00;CYQR 051000Z 15005KT 15SM SKC M06/M07 A3027 RMK SLP276

CYQR;2013-10-05 11:00;CYQR 051100Z 13007KT 15SM SKC M05/M07 A3025 RMK SLP270

CYQR;2013-10-05 12:00;CYQR 051200Z 15005KT 15SM BKN120 M04/M06 A3025 RMK AC1 SLP273

CYQR;2013-10-05 13:00;CYQR 051300Z 14005KT 15SM FEW120 SCT240 M04/M06 A3023 RMK AC1CI1 SLP266

CYQR;2013-10-05 14:00;CYQR 051400Z 13005KT 15SM FEW120 BKN240 M03/M05 A3023 RMK AC2CI4 SLP265

CYQR;2013-10-05 15:00;CYQR 051500Z 16007KT 15SM FEW120 BKN240 M00/M04 A3021 RMK AC1CI6 SLP261

CYQR;2013-10-05 16:00;CYQR 051600Z 17008KT 15SM FEW120 BKN240 04/M01 A3020 RMK AC1CI2 SLP256

CYQR;2013-10-05 17:00;CYQR 051700Z 19014KT 15SM OVC240 08/M03 A3017 RMK CI4 SLP247

CYQR;2013-10-05 18:00;CYQR 051800Z 19013KT 15SM OVC240 09/M03 A3013 RMK CI4 SLP228

CYQR;2013-10-05 19:00;CYQR 051900Z 20010G17KT 15SM BKN240 11/M03 A3010 RMK CI6 SLP217

CYQR;2013-10-05 20:00;CYQR 052000Z 21011G16KT 15SM OVC240 12/M02 A3008 RMK CI6 SLP212

CYQR;2013-10-05 21:00;CYQR 052100Z 22011KT 15SM OVC240 13/M02 A3006 RMK CI2 SLP202

CYQR;2013-10-05 22:00;CYQR 052200Z 21009KT 15SM OVC240 13/M02 A3004 RMK CI5 SLP194

CYQR;2013-10-05 23:00;CYQR 052300Z 20008KT 15SM OVC240 13/M02 A3003 RMK CI6 SLP192

CYQR;2013-10-06 00:00;CYQR 060000Z 19006KT 15SM OVC230 10/M01 A3002 RMK CI8 SLP189

CYQR;2013-10-06 01:00;CYQR 060100Z 17006KT 15SM OVC230 08/M01 A3001 RMK CI6 SLP186

CYQR;2013-10-06 02:00;CYQR 060200Z 18007KT 15SM SCT250 07/M02 A3000 RMK CI1 SLP185

CYQR;2013-10-06 03:00;CYQR 060300Z 18006KT 15SM FEW250 05/M02 A3000 RMK CI1 SLP185

CYQR;2013-10-06 04:00;CYQR 060400Z 20006KT 15SM FEW250 03/M02 A3000 RMK CI1 SLP183

CYQR;2013-10-06 05:00;CYQR 060500Z 24004KT 15SM SKC 02/M02 A3000 RMK SLP185

CYQR;2013-10-06 06:00;CYQR 060600Z 25005KT 15SM SKC 00/M03 A2999 RMK SLP178

CYQR;2013-10-06 07:00;CYQR 060700Z 27005KT 15SM SKC M00/M03 A2999 RMK SLP177

CYQR;2013-10-06 08:00;CYQR 060800Z 23002KT 15SM SKC M01/M03 A2998 RMK SLP174

CYQR;2013-10-06 09:00;CYQR 060900Z 24005KT 15SM SKC M00/M02 A2997 RMK SLP168

CYQR;2013-10-06 10:00;CYQR 061000Z 20005KT 15SM SKC 00/M02 A2996 RMK SLP163

CYQR;2013-10-06 11:00;CYQR 061100Z 21005KT 15SM SKC 00/M02 A2995 RMK SLP162

CYQR;2013-10-06 12:00;CYQR 061200Z 19003KT 15SM FEW100 00/M02 A2996 RMK AC1 SLP167

CYQR;2013-10-06 13:00;CYQR 061300Z 18005KT 15SM BKN100 BKN250 03/00 A2995 RMK AC6CI1 SLP163

CYQR;2013-10-06 14:00;CYQR 061400Z 23004KT 15SM BKN095 03/01 A2996 RMK AC7 SLP166

CYQR;2013-10-06 15:00;CYQR 061500Z 27006KT 15SM BKN110 BKN320 07/03 A2994 RMK AC6CI1 SLP160

CYQR;2013-10-06 16:00;CYQR 061600Z 30009KT 15SM BKN110 10/04 A2996 RMK AC7 SLP164

CYQR;2013-10-06 17:00;CYQR 061700Z 31011KT 15SM BKN120 BKN300 12/05 A2996 RMK AC6CI1 SLP166

CYQR;2013-10-06 18:00;CYQR 061800Z 33009KT 15SM BKN120 BKN300 15/04 A2996 RMK AC6CI1 SLP163

CYQR;2013-10-06 19:00;CYQR 061900Z 33014KT 15SM FEW110 SCT300 17/04 A2995 RMK AC2CI0 SLP160

CYQR;2013-10-06 20:00;CYQR 062000Z 31012G17KT 15SM FEW110 SCT300 17/03 A2994 RMK AC1CI0 SLP156

CYQR;2013-10-06 21:00;CYQR 062100Z 30013G19KT 15SM BKN300 18/03 A2993 RMK CI1 SLP152

CYQR;2013-10-06 22:00;CYQR 062200Z 32016G22KT 15SM SCT300 18/03 A2993 RMK CI1 SLP151

CYQR;2013-10-06 23:00;CYQR 062300Z 32015KT 15SM FEW120 BKN300 17/03 A2993 RMK AC1CI2 SLP151

CYQR;2013-10-07 00:00;CYQR 070000Z 35007KT 15SM SCT120 BKN300 14/03 A2994 RMK AC4CI0 SLP157

CYQR;2013-10-07 01:00;CYQR 070100Z 36004KT 15SM BKN120 BKN300 12/03 A2994 RMK AC6CI1 SLP157

CYQR;2013-10-07 02:00;CYQR 070200Z 02003KT 15SM OVC110 12/03 A2994 RMK AC8 SLP157

CYQR;2013-10-07 03:00;CYQR 070300Z 00000KT 15SM OVC110 10/02 A2994 RMK AC8 SLP154

CYQR;2013-10-07 04:00;CYQR 070400Z 05004KT 15SM OVC100 11/02 A2993 RMK AC8 SLP152

CYQR;2013-10-07 05:00;CYQR 070500Z 12005KT 15SM BKN100 10/02 A2992 RMK AC7 SLP149

CYQR;2013-10-07 06:00;CYQR 070600Z 13005KT 15SM BKN085 08/01 A2992 RMK AC7 SLP144

CYQR;2013-10-07 07:00;CYQR 070700Z 15004KT 15SM BKN083 07/02 A2991 RMK AC7 SLP142

CYQR;2013-10-07 08:00;CYQR 070800Z 13006KT 15SM SCT090 06/01 A2990 RMK AC4 SLP138

CYQR;2013-10-07 09:00;CYQR 070900Z 15007KT 15SM SCT095 07/01 A2989 RMK AC2 SLP134

CYQR;2013-10-07 10:00;CYQR 071000Z 15010KT 15SM FEW100 07/01 A2988 RMK AC1 SLP129

CYQR;2013-10-07 11:00;CYQR 071100Z 13009KT 15SM FEW100 06/01 A2986 RMK AC1 SLP123

CYQR;2013-10-07 12:00;CYQR 071200Z 13011KT 15SM BKN250 05/01 A2984 RMK CI1 SLP119

CYQR;2013-10-07 13:00;CYQR 071300Z 13012KT 15SM BKN250 04/01 A2982 RMK CI1 SLP113

CYQR;2013-10-07 14:00;CYQR 071400Z 14013KT 15SM SCT200 BKN260 06/02 A2980 RMK CI2CI0 SLP106

CYQR;2013-10-07 15:00;CYQR 071500Z 14015KT 15SM SCT260 07/03 A2978 RMK CI1 SLP099

CYQR;2013-10-07 16:00;CYQR 071600Z 15015G20KT 15SM FEW260 12/04 A2975 RMK CI0 SLP090

CYQR;2013-10-07 17:00;CYQR 071700Z 15018KT 15SM FEW240 16/04 A2972 RMK CI1 SLP081

CYQR;2013-10-07 18:00;CYQR 071800Z 15015KT 15SM FEW260 18/05 A2968 RMK CI1 SLP062

CYQR;2013-10-07 19:00;CYQR 071900Z 17016G24KT 15SM SCT260 20/06 A2964 RMK CI2 SLP048

CYQR;2013-10-07 20:00;CYQR 072000Z 20015G25KT 15SM SCT260 23/04 A2959 RMK CI1 SLP033

CYQR;2013-10-07 21:00;CYQR 072100Z 22015KT 15SM BKN260 23/03 A2956 RMK CI6 CC ASOCTD SLP016

CYQR;2013-10-07 22:00;CYQR 072200Z 24013KT 15SM BKN250 24/M02 A2954 RMK CI5 SLP008

CYQR;2013-10-07 23:00;CYQR 072300Z 23009KT 15SM FEW170 BKN250 22/M01 A2952 RMK AC1CI6 SLP002

CYQR;2013-10-08 00:00;CYQR 080000Z 22007KT 15SM SCT200 OVC260 17/M01 A2951 RMK CI2CI0 SLP002

CYQR;2013-10-08 01:00;CYQR 080100Z 21010KT 15SM BKN260 14/00 A2951 RMK CI2 SLP002

CYQR;2013-10-08 02:00;CYQR 080200Z 23012KT 15SM FEW260 14/01 A2951 RMK CI1 SLP002

CYQR;2013-10-08 03:00;CYQR 080300Z 25009KT 15SM SCT260 10/00 A2951 RMK CI2 SLP009

CYQR;2013-10-08 04:00;CYQR 080400Z 26006KT 15SM SKC 08/00 A2952 RMK SLP011

CYQR;2013-10-08 05:00;CYQR 080500Z 27007KT 15SM SKC 06/00 A2952 RMK SLP012

CYQR;2013-10-08 06:00;CYQR 080600Z 26006KT 15SM SKC 07/00 A2952 RMK SLP007

CYQR;2013-10-08 07:00;CYQR 080700Z 23008KT 15SM SKC 06/00 A2954 RMK SLP013

CYQR;2013-10-08 08:00;CYQR 080800Z 24009KT 15SM FEW260 07/00 A2954 RMK CI1 SLP012

CYQR;2013-10-08 09:00;CYQR 080900Z 24010KT 15SM SKC 08/00 A2954 RMK SLP010

CYQR;2013-10-08 10:00;CYQR 081000Z 24012KT 15SM SKC 08/00 A2953 RMK SLP007

CYQR;2013-10-08 11:00;CYQR 081100Z 26011KT 15SM FEW260 08/01 A2954 RMK CI0 SLP010

CYQR;2013-10-08 12:00;CYQR 081200Z 23012KT 15SM FEW260 07/01 A2955 RMK CI1 SLP017

CYQR;2013-10-08 13:00;CYQR 081300Z 24014KT 15SM FEW140 FEW260 07/01 A2956 RMK AC1CI0 SLP021

CYQR;2013-10-08 14:00;CYQR 081400Z 23011KT 15SM FEW120 FEW280 07/01 A2957 RMK AC1CI0 SLP023

CYQR;2013-10-08 15:00;CYQR 081500Z 26017KT 15SM FEW120 FEW280 10/02 A2958 RMK ACC1CI1 SLP029

CYQR;2013-10-08 16:00;CYQR 081600Z 27018KT 15SM FEW120 FEW280 11/02 A2959 RMK ACC1CI1 TR ACC SLP034

CYQR;2013-10-08 17:00;CYQR 081700Z 27014G19KT 15SM FEW120 FEW280 12/02 A2961 RMK AC1CI0 SLP038

CYQR;2013-10-08 18:00;CYQR 081800Z 27012G18KT 15SM FEW280 13/03 A2961 RMK CI2 SLP042

CYQR;2013-10-08 19:00;CYQR 081900Z 26008KT 15SM FEW280 14/04 A2963 RMK CI2 SLP046

CYQR;2013-10-08 20:00;CYQR 082000Z 26008KT 15SM FEW280 16/04 A2962 RMK CI2 SLP044

CYQR;2013-10-08 21:00;CYQR 082100Z 31010KT 15SM FEW280 17/04 A2963 RMK CI2 SLP045

CYQR;2013-10-08 22:00;CYQR 082200Z 27008G15KT 15SM FEW050 SCT280 17/04 A2965 RMK CU1CI1 SLP050

CYQR;2013-10-08 23:00;CYQR 082300Z 27007KT 15SM FEW050 BKN280 16/04 A2967 RMK CU1CI4 SLP057

CYQR;2013-10-09 00:00;CYQR 090000Z 25006KT 15SM FEW050 FEW120 BKN280 14/04 A2969 RMK CU1AC1CI2 SLP068

CYQR;2013-10-09 01:00;CYQR 090100Z 27003KT 15SM FEW100 SCT280 11/03 A2971 RMK AC1CI1 SLP075

CYQR;2013-10-09 02:00;CYQR 090200Z 26003KT 15SM FEW280 08/02 A2974 RMK CI1 SLP084

CYQR;2013-10-09 03:00;CYQR 090300Z 28002KT 15SM FEW280 07/02 A2976 RMK CI1 SLP093

CYQR;2013-10-09 04:00;CYQR 090400Z 28005KT 15SM FEW067 05/01 A2978 RMK AC1 SLP101

CYQR;2013-10-09 05:00;CYQR 090500Z 25004KT 15SM BKN100 04/01 A2981 RMK AC5 SLP109

CYQR;2013-10-09 06:00;CYQR 090600Z 27007KT 15SM BKN100 05/02 A2983 RMK AC6 SLP116

CYQR;2013-10-09 07:00;CYQR 090700Z 33013G19KT 15SM BKN053 OVC090 08/04 A2988 RMK SC6AC2 SLP133

CYQR;2013-10-09 08:00;CYQR 090800Z 34012G17KT 15SM BKN060 BKN079 07/04 A2991 RMK SC5AC2 SLP141

CYQR;2013-10-09 09:00;CYQR 090900Z 33013KT 15SM SCT060 BKN081 07/04 A2992 RMK SC3AC2 SLP144

CYQR;2013-10-09 10:00;CYQR 091000Z 34007KT 15SM BKN058 BKN081 06/03 A2994 RMK SC5AC2 SLP149

CYQR;2013-10-09 11:00;CYQR 091100Z 30007KT 15SM SKC 03/02 A2996 RMK SLP157

CYQR;2013-10-09 12:00;CYQR 091200Z 30005KT 15SM SKC 01/00 A2999 RMK SLP173

CYQR;2013-10-09 13:00;CYQR 091300Z 31006KT 15SM FEW100 01/M00 A2999 RMK AC1 SLP175

CYQR;2013-10-09 14:00;CYQR 091400Z 31002KT 15SM FEW280 M01/M02 A3002 RMK CI1 SLP185

CYQR;2013-10-09 15:00;CYQR 091500Z 29009KT 15SM FEW280 03/02 A3006 RMK CI1 SLP201

CYQR;2013-10-09 16:00;CYQR 091600Z 32013KT 15SM FEW015 FEW280 07/03 A3007 RMK CF1CI1 SLP203

CYQR;2013-10-09 17:00;CYQR 091700Z 31013KT 15SM FEW020 FEW280 08/03 A3007 RMK CF1CI1 SLP204

CYQR;2013-10-09 18:00;CYQR 091800Z 27011KT 15SM FEW025 FEW280 09/03 A3007 RMK CF1CI1 SLP201

CYQR;2013-10-09 19:00;CYQR 091900Z 29012KT 15SM FEW030 FEW280 10/02 A3006 RMK CU1CI0 SLP199

CYQR;2013-10-09 20:00;CYQR 092000Z 28011KT 15SM FEW030 FEW280 11/02 A3004 RMK CU1CI1 SLP192

CYQR;2013-10-09 21:00;CYQR 092100Z 25009KT 15SM FEW030 12/02 A3003 RMK CU1 SLP186

CYQR;2013-10-09 22:00;CYQR 092200Z 26008KT 15SM SKC 12/02 A3001 RMK SLP178

CYQR;2013-10-09 23:00;CYQR 092300Z 24007KT 15SM SKC 11/01 A3000 RMK SLP175

CYQR;2013-10-10 00:00;CYQR 100000Z 25003KT 15SM SKC 09/00 A2999 RMK SLP176

CYQR;2013-10-10 01:00;CYQR 100100Z 20004KT 15SM SKC 06/00 A2998 RMK SLP175

CYQR;2013-10-10 02:00;CYQR 100200Z 20006KT 15SM SKC 04/M01 A2998 RMK SLP174

CYQR;2013-10-10 03:00;CYQR 100300Z 16005KT 10SM SKC 04/M01 A2997 RMK SLP172

CYQR;2013-10-10 04:00;CYQR 100400Z 11006KT 15SM SKC 02/M01 A2996 RMK SLP167

CYQR;2013-10-10 05:00;CYQR 100500Z 13008KT 15SM BKN095 04/M00 A2995 RMK AC6 SLP166

CYQR;2013-10-10 06:00;CYQR 100600Z 13010KT 15SM OVC086 05/00 A2993 RMK AC8 SLP155

CYQR;2013-10-10 07:00;CYQR 100700Z 14011KT 15SM OVC086 06/01 A2991 RMK AC8 SLP148

CYQR;2013-10-10 08:00;CYQR 100800Z 15011KT 15SM BKN093 07/02 A2989 RMK AC7 SLP142

CYQR;2013-10-10 09:00;CYQR 100900Z 14012KT 15SM SCT090 06/02 A2988 RMK AC2 SLP134

CYQR;2013-10-10 10:00;CYQR 101000Z 14013KT 15SM BKN089 06/02 A2986 RMK AC7 SLP128

CYQR;2013-10-10 11:00;CYQR 101100Z 13013KT 15SM BKN083 06/02 A2984 RMK AC7 SLP120

CYQR;2013-10-10 12:00;CYQR 101200Z 14011KT 15SM BKN081 OVC100 06/03 A2982 RMK AC7AC1 SLP116

CYQR;2013-10-10 12:17;CYQR 101217Z 15009KT 15SM -SHRA BKN067 OVC080 07/ RMK AC6AC2 CVCTV CLD EMBD

CYQR;2013-10-10 13:00;CYQR 101300Z 14012KT 15SM BKN060 07/05 A2980 RMK SC5 SLP109

CYQR;2013-10-10 14:00;CYQR 101400Z 13017KT 15SM VCSH BKN085 08/06 A2979 RMK AC7 ACC EMBD SLP106

CYQR;2013-10-10 15:00;CYQR 101500Z 14016KT 15SM VCSH BKN090 09/07 A2980 RMK AC7 ACC EMBD SLP109

CYQR;2013-10-10 16:00;CYQR 101600Z 15017KT 15SM VCSH BKN100 10/06 A2979 RMK AC7 ACC EMBD SLP105

CYQR;2013-10-10 17:00;CYQR 101700Z 15014G19KT 15SM SCT100 BKN130 BKN250 12/06 A2978 RMK AC3AC3CI1 ACC EMBD SLP102

CYQR;2013-10-10 18:00;CYQR 101800Z 15018G30KT 15SM BKN110 14/06 A2975 RMK AC6 SLP089

CYQR;2013-10-10 19:00;CYQR 101900Z 15019G27KT 15SM FEW110 BKN250 17/04 A2973 RMK AC2CI5 SLP078 DENSITY ALT 2700FT

CYQR;2013-10-10 20:00;CYQR 102000Z 15016G23KT 15SM FEW140 BKN160 17/03 A2971 RMK AC2AS5 SLP072 DENSITY ALT 2800FT

CYQR;2013-10-10 21:00;CYQR 102100Z 16017G22KT 15SM FEW140 FEW160 BKN280 17/03 A2970 RMK AC1AC1CI5 SLP068 DENSITY ALT 2800FT

CYQR;2013-10-10 22:00;CYQR 102200Z 17014G22KT 15SM FEW160 BKN280 18/04 A2969 RMK AC1CI6 SLP063 DENSITY ALT 2900FT

CYQR;2013-10-10 23:00;CYQR 102300Z 16014G20KT 15SM FEW120 SCT280 18/04 A2968 RMK AC1CI2 SLP062 DENSITY ALT 2900FT

CYQR;2013-10-11 00:00;CYQR 110000Z 16013KT 15SM FEW065 FEW150 SCT280 16/04 A2968 RMK SC1AC1CI1 SLP064 DENSITY ALT 2600FT

CYQR;2013-10-11 01:00;CYQR 110100Z 15014KT 15SM BKN064 OVC280 15/03 A2969 RMK SC7CI1 SLP065 DENSITY ALT 2500FT

CYQR;2013-10-11 02:00;CYQR 110200Z 13011KT 15SM FEW064 SCT280 11/03 A2969 RMK SC2CI1 SLP068 DENSITY ALT 2100FT

CYQR;2013-10-11 03:00;CYQR 110300Z 14008KT 15SM BKN130 10/04 A2970 RMK AC6 SLP070 DENSITY ALT 1900FT

CYQR;2013-10-11 04:00;CYQR 110400Z 19006KT 15SM FEW300 06/02 A2971 RMK CI1 SLP079

CYQR;2013-10-11 05:00;CYQR 110500Z 30006KT 15SM SKC 07/02 A2971 RMK SLP077

CYQR;2013-10-11 06:00;CYQR 110600Z 32006KT 15SM SKC 05/01 A2972 RMK SLP078

CYQR;2013-10-11 06:41;CYQR 110641Z 28007KT 15SM SKC 02/M00 A2972 RMK SLP080

CYQR;2013-10-11 07:00;CYQR 110700Z 27006KT 15SM FEW120 01/M01 A2974 RMK AC1 SLP084

CYQR;2013-10-11 08:00;CYQR 110800Z 29006KT 15SM BKN120 03/00 A2972 RMK AC7 SLP079

CYQR;2013-10-11 08:46;CYQR 110846Z 29005KT 15SM BKN120 02/00 A2971 RMK AC5 SLP075

CYQR;2013-10-11 09:00;CYQR 110900Z 30006KT 15SM SCT120 02/M00 A2971 RMK AC3 SLP075

CYQR;2013-10-11 10:00;CYQR 111000Z 31006KT 15SM FEW120 02/01 A2972 RMK AC2 SLP079

CYQR;2013-10-11 11:00;CYQR 111100Z 30005KT 15SM BKN120 03/01 A2974 RMK AC5 SLP084

CYQR;2013-10-11 12:00;CYQR 111200Z 31007KT 15SM BKN110 03/01 A2973 RMK AC6 SLP081

CYQR;2013-10-11 13:00;CYQR 111300Z 32009KT 15SM BKN110 OVC250 03/01 A2972 RMK AC7CI1 SLP081

CYQR;2013-10-11 14:00;CYQR 111400Z 33013KT 15SM BKN090 BKN110 04/02 A2972 RMK AC5AC2 SLP080

CYQR;2013-10-11 15:00;CYQR 111500Z 34012G19KT 15SM FEW040 BKN100 BKN150 05/03 A2974 RMK SC1AC5AC1 SLP088

CYQR;2013-10-11 16:00;CYQR 111600Z 35013KT 15SM BKN095 06/04 A2976 RMK AC7 TR SF SLP096

CYQR;2013-10-11 17:00;CYQR 111700Z 33015KT 15SM FEW010 BKN130 07/04 A2975 RMK SC1AS6 SLP094

CYQR;2013-10-11 18:00;CYQR 111800Z 33019G25KT 15SM BKN120 08/05 A2974 RMK AS7 TR SF SLP089

CYQR;2013-10-11 19:00;CYQR 111900Z 34019G29KT 15SM FEW010 BKN130 BKN250 10/04 A2972 RMK SF1AS5CI1 SLP083 DENSITY ALT 1900FT

CYQR;2013-10-11 20:00;CYQR 112000Z 34020G30KT 15SM FEW010 BKN130 10/03 A2969 RMK SF1AS6 SLP073 DENSITY ALT 1900FT

CYQR;2013-10-11 21:00;CYQR 112100Z 34024G34KT 15SM FEW010 BKN130 11/01 A2970 RMK SF1AS6 SLP075 DENSITY ALT 2000FT

CYQR;2013-10-11 22:00;CYQR 112200Z 34021G35KT 15SM OVC120 11/M00 A2972 RMK AC8 TR SC SLP081 DENSITY ALT 2000FT

CYQR;2013-10-11 23:00;CYQR 112300Z 33020G26KT 15SM OVC130 11/M01 A2973 RMK AC8 SLP085 DENSITY ALT 2000FT

CYQR;2013-10-12 00:00;CYQR 120000Z 33018G28KT 15SM BKN160 10/M02 A2975 RMK AC7 SLP092 DENSITY ALT 1900FT

CYQR;2013-10-12 01:00;CYQR 120100Z 32017G24KT 15SM BKN160 09/M02 A2978 RMK AC7 SLP103

CYQR;2013-10-12 02:00;CYQR 120200Z 33020KT 15SM OVC160 09/M02 A2978 RMK AC8 SLP103

CYQR;2013-10-12 03:00;CYQR 120300Z 33019KT 15SM OVC190 08/M02 A2978 RMK AC8 SLP104

CYQR;2013-10-12 04:00;CYQR 120400Z 32017KT 15SM OVC170 07/M02 A2979 RMK AC8 SLP107

CYQR;2013-10-12 05:00;CYQR 120500Z 32015G23KT 15SM OVC170 07/M02 A2980 RMK AC8 SLP109

CYQR;2013-10-12 06:00;CYQR 120600Z 32013G18KT 15SM BKN180 05/M02 A2981 RMK AC6 SLP113

CYQR;2013-10-12 07:00;CYQR 120700Z 31014KT 15SM SCT180 04/M02 A2983 RMK AC3 SLP118

CYQR;2013-10-12 08:00;CYQR 120800Z 32013KT 15SM FEW190 03/M02 A2984 RMK AC2 SLP123

CYQR;2013-10-12 08:39;CYQR 120839Z 31012KT 15SM FEW230 02/M03 A2985 RMK CI2 SLP128

CYQR;2013-10-12 09:00;CYQR 120900Z 31013KT 15SM SCT240 02/M02 A2985 RMK CI3 SLP129

CYQR;2013-10-12 10:00;CYQR 121000Z 30013KT 15SM SKC 02/M02 A2987 RMK SLP135

CYQR;2013-10-12 11:00;CYQR 121100Z 29013KT 15SM SKC M00/M03 A2990 RMK SLP144

CYQR;2013-10-12 12:00;CYQR 121200Z 30009KT 15SM SKC M02/M03 A2991 RMK SLP152

CYQR;2013-10-12 13:00;CYQR 121300Z 29009KT 15SM FEW100 M01/M03 A2994 RMK AC1 SLP161

CYQR;2013-10-12 14:00;CYQR 121400Z 29009KT 15SM FEW100 M01/M02 A2996 RMK AC1 SLP169

CYQR;2013-10-12 15:00;CYQR 121500Z 29011G17KT 15SM FEW100 02/M01 A2999 RMK AC1 SLP175

CYQR;2013-10-12 16:00;CYQR 121600Z 30012KT 15SM BKN050 05/M00 A3000 RMK SC6 SLP180

CYQR;2013-10-12 17:00;CYQR 121700Z 30012KT 15SM FEW050 08/01 A3002 RMK SC2 SLP185

CYQR;2013-10-12 18:00;CYQR 121800Z 31018KT 15SM FEW050 FEW270 09/M01 A3003 RMK CU1CI1 CI TR SLP189

CYQR;2013-10-12 19:00;CYQR 121900Z 32018G26KT 15SM FEW050 FEW270 10/M03 A3002 RMK CU1CI1 CI TR SLP186

CYQR;2013-10-12 20:00;CYQR 122000Z 31020KT 15SM FEW050 FEW270 10/M04 A3003 RMK CU1CI1 SLP188

CYQR;2013-10-12 21:00;CYQR 122100Z 30016G25KT 15SM FEW050 FEW270 11/M05 A3004 RMK CU1CI1 SLP193

CYQR;2013-10-12 22:00;CYQR 122200Z 31015G24KT 15SM FEW050 FEW270 10/M04 A3007 RMK CU1CI2 CU TR SLP202

CYQR;2013-10-12 23:00;CYQR 122300Z 30012G20KT 15SM FEW050 FEW270 09/M06 A3008 RMK CU1CI1 CU TR SLP207

CYQR;2013-10-13 00:00;CYQR 130000Z 30008KT 15SM FEW050 BKN270 06/M05 A3010 RMK SC1CI4 SLP218

CYQR;2013-10-13 01:00;CYQR 130100Z 29008KT 15SM SCT270 03/M06 A3011 RMK CI4 SLP225

CYQR;2013-10-13 01:06;CYQR 130106Z 28008KT 15SM SCT270 02/M06 A3011 RMK CI4 SLP226

CYQR;2013-10-13 02:00;CYQR 130200Z 29008KT 15SM SCT240 01/M06 A3013 RMK CI3 SLP233

CYQR;2013-10-13 03:00;CYQR 130300Z 28004KT 15SM SCT220 M01/M06 A3015 RMK CI4 SLP237

CYQR;2013-10-13 04:00;CYQR 130400Z 30006KT 15SM BKN210 M00/M06 A3016 RMK CI6 SLP240

CYQR;2013-10-13 05:00;CYQR 130500Z 23005KT 15SM SCT210 M04/M07 A3018 RMK CI4 SLP247

CYQR;2013-10-13 06:00;CYQR 130600Z 28003KT 15SM BKN210 M03/M06 A3019 RMK CI6 SLP250

CYQR;2013-10-13 07:00;CYQR 130700Z 26003KT 15SM SCT180 M05/M07 A3021 RMK AC4 SLP256

CYQR;2013-10-13 08:00;CYQR 130800Z 23002KT 15SM SCT180 M03/M06 A3023 RMK AC4 SLP260

CYQR;2013-10-13 09:00;CYQR 130900Z 21002KT 15SM FEW180 M03/M06 A3024 RMK AC2 SLP264

CYQR;2013-10-13 10:00;CYQR 131000Z 00000KT 15SM OVC180 M03/M05 A3024 RMK AC8 SLP265

CYQR;2013-10-13 11:00;CYQR 131100Z 18003KT 15SM SKC M04/M06 A3024 RMK SLP267

CYQR;2013-10-13 12:00;CYQR 131200Z 00000KT 15SM FEW190 M05/M06 A3025 RMK AC2 SLP274

CYQR;2013-10-13 13:00;CYQR 131300Z 18003KT 15SM BKN180 M04/M06 A3027 RMK AC6 SLP281

CYQR;2013-10-13 14:00;CYQR 131400Z 19004KT 15SM BKN150 M04/M06 A3029 RMK AC7 SLP289

CYQR;2013-10-13 15:00;CYQR 131500Z 00000KT 15SM OVC160 M02/M04 A3030 RMK AC8 SLP294

CYQR;2013-10-13 16:00;CYQR 131600Z 33002KT 15SM BKN160 01/M02 A3031 RMK AC7 SLP295

CYQR;2013-10-13 17:00;CYQR 131700Z 26003KT 15SM BKN140 05/M02 A3032 RMK CI5 SLP297

CYQR;2013-10-13 18:00;CYQR 131800Z 31003KT 15SM FEW040 SCT270 08/M03 A3031 RMK SC1CI3 SLP292

CYQR;2013-10-13 19:00;CYQR 131900Z 02004KT 15SM FEW040 BKN270 09/M04 A3030 RMK SC1CI5 SLP288

CYQR;2013-10-13 20:00;CYQR 132000Z 34010KT 15SM FEW060 BKN270 09/M07 A3029 RMK CU1CI6 SLP283

CYQR;2013-10-13 21:00;CYQR 132100Z 33007KT 15SM FEW064 FEW270 10/M06 A3028 RMK CU1CI2 CU TR SLP279

CYQR;2013-10-13 22:00;CYQR 132200Z 01009KT 15SM FEW060 10/M07 A3028 RMK SC1 SLP279

CYQR;2013-10-13 23:00;CYQR 132300Z 34004KT 15SM FEW270 09/M06 A3028 RMK CI1 SLP281

CYQR;2013-10-14 00:00;CYQR 140000Z 03004KT 15SM FEW100 FEW270 08/M08 A3029 RMK AC1CI1 AC TR SLP284

CYQR;2013-10-14 01:00;CYQR 140100Z 12004KT 15SM SCT270 06/M08 A3031 RMK CI4 SLP292

CYQR;2013-10-14 01:37;CYQR 140137Z 17004KT 15SM FEW100 02/M08 A3031 RMK AC1 SLP297

CYQR;2013-10-14 02:00;CYQR 140200Z 15004KT 15SM FEW270 01/M08 A3032 RMK CI1 SLP299

CYQR;2013-10-14 03:00;CYQR 140300Z 13004KT 15SM FEW270 02/M07 A3032 RMK CI2 SLP299

CYQR;2013-10-14 04:00;CYQR 140400Z 13003KT 15SM FEW240 00/M06 A3033 RMK CI2 SLP299

CYQR;2013-10-14 05:00;CYQR 140500Z 16004KT 15SM FEW240 M01/M07 A3033 RMK CI2 SLP299

CYQR;2013-10-14 06:00;CYQR 140600Z 11004KT 15SM FEW240 M01/M07 A3033 RMK CI2 SLP297

CYQR;2013-10-14 07:00;CYQR 140700Z 11003KT 15SM FEW240 M01/M06 A3033 RMK CI2 SLP296

CYQR;2013-10-14 08:00;CYQR 140800Z 09003KT 15SM SCT240 M02/M06 A3032 RMK CI3 AC TR SLP293

CYQR;2013-10-14 09:00;CYQR 140900Z 07003KT 15SM SCT240 M03/M06 A3031 RMK CI3 SLP290

CYQR;2013-10-14 10:00;CYQR 141000Z 12002KT 15SM FEW240 M04/M08 A3031 RMK CI2 SLP291

CYQR;2013-10-14 11:00;CYQR 141100Z 22004KT 15SM FEW240 M07/M10 A3032 RMK CI2 SLP296

CYQR;2013-10-14 12:00;CYQR 141200Z 24003KT 15SM FEW240 M07/M10 A3033 RMK CI2 SLP301

CYQR;2013-10-14 13:00;CYQR 141300Z 36004KT 15SM SCT270 M05/M08 A3032 RMK CI4 AC TR SLP297

CYQR;2013-10-14 14:00;CYQR 141400Z 12003KT 15SM FEW270 M05/M09 A3034 RMK CI2 AC TR SLP306

CYQR;2013-10-14 15:00;CYQR 141500Z 12004KT 15SM FEW270 M02/M05 A3035 RMK CI1 AC TR SLP306

CYQR;2013-10-14 16:00;CYQR 141600Z 20004KT 15SM FEW270 04/M03 A3037 RMK CI2 SLP311

CYQR;2013-10-14 17:00;CYQR 141700Z 25003KT 15SM FEW270 07/M04 A3036 RMK CI1 SLP309

CYQR;2013-10-14 18:00;CYQR 141800Z 28006KT 15SM FEW270 10/M04 A3035 RMK CI1 SLP302

CYQR;2013-10-14 19:00;CYQR 141900Z 36005KT 15SM FEW270 11/M03 A3034 RMK CI1 CU TR SLP298

CYQR;2013-10-14 20:00;CYQR 142000Z 36010KT 15SM FEW063 SCT270 12/M04 A3033 RMK CU1CI2 SLP295

CYQR;2013-10-14 21:00;CYQR 142100Z 33016KT 15SM FEW060 FEW270 12/M05 A3031 RMK SC1CI1 SLP289

CYQR;2013-10-14 22:00;CYQR 142200Z 32017G22KT 15SM FEW270 11/M05 A3031 RMK CI1 SC TR SLP289

CYQR;2013-10-14 23:00;CYQR 142300Z 35009G15KT 15SM SKC 10/M05 A3031 RMK CI TR SLP294

CYQR;2013-10-15 00:00;CYQR 150000Z 35009KT 15SM SKC 08/M05 A3032 RMK AC TR CI TR SLP299

CYQR;2013-10-15 01:00;CYQR 150100Z 36005KT 15SM SKC 04/M06 A3035 RMK AC TR CI TR SLP307

CYQR;2013-10-15 02:00;CYQR 150200Z 02006KT 15SM SKC 05/M05 A3034 RMK SLP305

CYQR;2013-10-15 03:00;CYQR 150300Z 04005KT 15SM SKC 04/M05 A3034 RMK SLP304

CYQR;2013-10-15 04:00;CYQR 150400Z 05004KT 15SM SKC 03/M05 A3034 RMK WND ESTD SLP299

CYQR;2013-10-15 04:13;CYQR 150413Z 04002KT 15SM SKC 01/M07 A3034 RMK SLP302

CYQR;2013-10-15 05:00;CYQR 150500Z 31003KT 15SM SKC M04/M08 A3035 RMK SLP304

CYQR;2013-10-15 06:00;CYQR 150600Z 30003KT 15SM SKC M03/M06 A3034 RMK SLP299

CYQR;2013-10-15 07:00;CYQR 150700Z 32003KT 15SM SKC M04/M07 A3034 RMK SLP298

CYQR;2013-10-15 08:00;CYQR 150800Z 25006KT 15SM SKC M06/M08 A3032 RMK SLP294

CYQR;2013-10-15 09:00;CYQR 150900Z 24004KT 15SM SKC M06/M08 A3031 RMK SLP290

CYQR;2013-10-15 10:00;CYQR 151000Z 23002KT 15SM FEW240 M06/M08 A3030 RMK CI2 SLP285

CYQR;2013-10-15 11:00;CYQR 151100Z 22002KT 15SM SCT240 M06/M08 A3029 RMK CI3 SLP284

CYQR;2013-10-15 12:00;CYQR 151200Z 27002KT 15SM SCT240 M05/M06 A3028 RMK CI3 FROIN SLP283

CYQR;2013-10-15 13:00;CYQR 151300Z 17003KT 15SM FEW270 M05/M06 A3026 RMK CI2 TR SC SLP278

CYQR;2013-10-15 14:00;CYQR 151400Z 00000KT 15SM BKN270 M05/M06 A3025 RMK CI6 SLP275

CYQR;2013-10-15 15:00;CYQR 151500Z 17004KT 15SM BKN270 M02/M04 A3024 RMK CI7 SLP269

CYQR;2013-10-15 16:00;CYQR 151600Z 26007KT 15SM BKN280 04/M02 A3023 RMK CI7 SLP261

CYQR;2013-10-15 17:00;CYQR 151700Z 26009KT 15SM BKN280 08/M02 A3020 RMK CI6 CONTRAILS SLP255

CYQR;2013-10-15 18:00;CYQR 151800Z 28012KT 15SM BKN280 11/M01 A3018 RMK CI7 SLP245

CYQR;2013-10-15 19:00;CYQR 151900Z 28015G20KT 15SM OVC300 12/M04 A3015 RMK CI8 CONTRAILS SLP233

CYQR;2013-10-15 20:00;CYQR 152000Z 25012G21KT 15SM BKN160 BKN300 13/M03 A3011 RMK AC6CI1 SLP221

CYQR;2013-10-15 21:00;CYQR 152100Z 25012G20KT 15SM SCT160 BKN300 13/M03 A3009 RMK AC3CI4 SLP212

CYQR;2013-10-15 22:00;CYQR 152200Z 26014G20KT 15SM FEW160 OVC300 13/M03 A3005 RMK AC1CI7 SLP200 DENSITY ALT 1900FT

CYQR;2013-10-15 23:00;CYQR 152300Z 24013G18KT 15SM FEW160 BKN300 12/M02 A3002 RMK AC1CI5 SLP189 DENSITY ALT 1900FT

CYQR;2013-10-16 00:00;CYQR 160000Z 23010KT 15SM SCT300 09/M03 A3000 RMK CI3 AC TR SLP185

CYQR;2013-10-16 01:00;CYQR 160100Z 21009KT 15SM FEW160 FEW300 04/M03 A2999 RMK AC1CI1 SLP184

CYQR;2013-10-16 02:00;CYQR 160200Z 21007KT 15SM FEW160 FEW300 02/M03 A2997 RMK AC1CI1 SLP180

CYQR;2013-10-16 03:00;CYQR 160300Z 23008KT 15SM FEW190 FEW300 01/M04 A2995 RMK AC1CI1 SLP169

CYQR;2013-10-16 04:00;CYQR 160400Z 23008KT 15SM FEW190 SCT300 02/M03 A2993 RMK AC1CI2 SLP160

CYQR;2013-10-16 05:00;CYQR 160500Z 24009KT 15SM FEW190 FEW300 02/M02 A2992 RMK AC1CI1 SLP153

CYQR;2013-10-16 06:00;CYQR 160600Z 25010KT 15SM BKN230 03/M02 A2991 RMK CI5 CC ASOCTD SLP148

CYQR;2013-10-16 07:00;CYQR 160700Z 24007KT 15SM FEW230 01/M03 A2990 RMK CI1 SLP146

CYQR;2013-10-16 08:00;CYQR 160800Z 27007KT 15SM SCT210 00/M03 A2990 RMK CI3 CC ASOCTD SLP144

CYQR;2013-10-16 09:00;CYQR 160900Z 29006KT 15SM BKN210 02/M03 A2989 RMK CI6 SLP139

CYQR;2013-10-16 10:00;CYQR 161000Z 29007KT 15SM SCT210 02/M03 A2988 RMK CI4 SLP137

CYQR;2013-10-16 11:00;CYQR 161100Z 29007KT 15SM FEW200 M00/M03 A2988 RMK CI2 SLP138

CYQR;2013-10-16 12:00;CYQR 161200Z 29006KT 15SM FEW200 00/M02 A2989 RMK CI1 SLP144

CYQR;2013-10-16 13:00;CYQR 161300Z 31006KT 15SM FEW130 BKN220 M01/M02 A2989 RMK AC1CI6 SLP146

CYQR;2013-10-16 14:00;CYQR 161400Z 32006KT 15SM FEW130 BKN220 01/M00 A2990 RMK AC2CI5 SLP152

CYQR;2013-10-16 15:00;CYQR 161500Z 34009KT 15SM BKN088 BKN240 05/02 A2991 RMK AC6CI1 SLP154

CYQR;2013-10-16 16:00;CYQR 161600Z 33010KT 15SM FEW080 BKN180 BKN270 06/01 A2993 RMK AC2AC4CI1 SLP157

CYQR;2013-10-16 17:00;CYQR 161700Z 34014KT 15SM FEW100 BKN180 BKN280 09/01 A2992 RMK AC2AC3CI1 SLP153

CYQR;2013-10-16 18:00;CYQR 161800Z 34013KT 15SM FEW090 BKN190 BKN280 10/01 A2992 RMK AC2AC3CI2 SLP153

CYQR;2013-10-16 19:00;CYQR 161900Z 32020KT 15SM SCT040 BKN180 OVC280 10/01 A2993 RMK CU3AC3CI2 SLP156

CYQR;2013-10-16 20:00;CYQR 162000Z 33014G20KT 15SM BKN040 OVC180 09/01 A2993 RMK SC7AC1 SLP158

CYQR;2013-10-16 21:00;CYQR 162100Z 33020KT 15SM BKN038 OVC180 08/00 A2994 RMK SC7AC1 SLP161

CYQR;2013-10-16 22:00;CYQR 162200Z 32019G24KT 15SM BKN042 OVC110 07/M00 A2996 RMK SC6AC2 SLP169

CYQR;2013-10-16 23:00;CYQR 162300Z 33017G22KT 15SM FEW040 BKN130 06/M02 A2998 RMK SC2AC5 SLP177

CYQR;2013-10-17 00:00;CYQR 170000Z 34012G19KT 15SM BKN040 OVC100 05/M03 A2999 RMK SC6AC2 SLP182

CYQR;2013-10-17 01:00;CYQR 170100Z 34017KT 15SM BKN040 OVC100 04/M04 A3002 RMK SC7AC1 SLP191

CYQR;2013-10-17 02:00;CYQR 170200Z 33009KT 15SM OVC046 04/M04 A3002 RMK SC8 SLP192

CYQR;2013-10-17 03:00;CYQR 170300Z 30006KT 15SM OVC050 03/M03 A3003 RMK SC8 SLP193

CYQR;2013-10-17 04:00;CYQR 170400Z 31009KT 15SM OVC050 04/M03 A3005 RMK SC8 SLP196

CYQR;2013-10-17 05:00;CYQR 170500Z 31009KT 15SM OVC051 04/M03 A3005 RMK SC8 SLP198

CYQR;2013-10-17 05:39;CYQR 170539Z 31007KT 15SM OVC052 02/M03 A3006 RMK SC8 SLP199

CYQR;2013-10-17 06:00;CYQR 170600Z 31007KT 15SM SCT051 00/M04 A3006 RMK SC3 SLP201

CYQR;2013-10-17 07:00;CYQR 170700Z 29009KT 15SM SKC M01/M04 A3006 RMK SLP203

CYQR;2013-10-17 08:00;CYQR 170800Z 28005KT 15SM SKC M04/M06 A3006 RMK SLP207

CYQR;2013-10-17 09:00;CYQR 170900Z 28007KT 15SM SKC M06/M07 A3007 RMK SLP209

CYQR;2013-10-17 10:00;CYQR 171000Z 28006KT 15SM SKC M06/M07 A3007 RMK SLP211

CYQR;2013-10-17 11:00;CYQR 171100Z 30004KT 15SM FEW200 M06/M07 A3007 RMK CI1 SLP212

CYQR;2013-10-17 12:00;CYQR 171200Z 29002KT 15SM FEW200 M07/M07 A3008 RMK CI1 SLP216

CYQR;2013-10-17 13:00;CYQR 171300Z 24005KT 15SM SCT250 M08/M08 A3007 RMK CI3 SC TR SLP214

CYQR;2013-10-17 14:00;CYQR 171400Z 24004KT 15SM FEW100 SCT280 M07/M08 A3007 RMK AC2CI2 SLP215

CYQR;2013-10-17 15:00;CYQR 171500Z 25004KT 15SM FEW080 BKN280 M04/M05 A3007 RMK AC2CI4 SLP213

CYQR;2013-10-17 16:00;CYQR 171600Z 28010KT 15SM BKN094 BKN280 02/M03 A3006 RMK AC5CI2 SLP203

CYQR;2013-10-17 17:00;CYQR 171700Z 29012KT 15SM FEW040 BKN090 BKN280 05/M02 A3006 RMK SC2AC4CI1 SLP201

CYQR;2013-10-17 18:00;CYQR 171800Z 32005KT 15SM FEW020 BKN045 BKN090 OVC280 04/M02 A3005 RMK CU1SC5AC1CI1 VIRGA SLP202

CYQR;2013-10-17 18:23;CYQR 171823Z 30007KT 15SM -SHRA FEW020 BKN045 BKN090 OVC280 04/M02 A3005 RMK CU1SC5AC1CI1 SLP200

CYQR;2013-10-17 19:00;CYQR 171900Z 27010KT 15SM FEW020 BKN045 BKN090 OVC280 06/M01 A3003 RMK CU1SC4AC2CI1 SLP194

CYQR;2013-10-17 20:00;CYQR 172000Z 31005KT 15SM FEW025 BKN045 BKN090 OVC280 07/M02 A3001 RMK CU1SC4AC1CI2 SLP188

CYQR;2013-10-17 21:00;CYQR 172100Z 31008KT 15SM BKN045 BKN084 OVC280 08/M04 A3000 RMK SC5AC2CI1 SLP186

CYQR;2013-10-17 22:00;CYQR 172200Z 30008KT 15SM BKN045 BKN080 BKN180 07/M04 A2999 RMK SC5AC1AS1 CU TR SLP185

CYQR;2013-10-17 23:00;CYQR 172300Z 30008KT 15SM SCT050 BKN090 OVC250 07/M04 A2999 RMK SC3AC4CI1 SLP185

CYQR;2013-10-18 00:00;CYQR 180000Z 01004KT 15SM FEW050 SCT090 OVC280 04/M03 A3000 RMK SC1AC2CC5 SLP188

CYQR;2013-10-18 01:00;CYQR 180100Z 32004KT 15SM FEW100 OVC280 02/M03 A3000 RMK AC2CI6 SLP191

CYQR;2013-10-18 02:00;CYQR 180200Z 25006KT 15SM FEW070 FEW100 OVC280 00/M04 A3000 RMK AC1AC1CI6 SLP193

CYQR;2013-10-18 03:00;CYQR 180300Z 27006KT 15SM OVC065 01/M03 A3000 RMK SC8 SLP191

CYQR;2013-10-18 04:00;CYQR 180400Z 29007KT 15SM OVC063 02/M02 A3000 RMK SC8 SLP185

CYQR;2013-10-18 05:00;CYQR 180500Z 29010KT 15SM OVC055 03/M01 A3000 RMK SC8 SLP183

CYQR;2013-10-18 05:18;CYQR 180518Z 03009KT 15SM -RA OVC050 03/ RMK SC8 WND ESTD

CYQR;2013-10-18 06:00;CYQR 180600Z 30008KT 15SM FEW050 BKN075 02/M00 A3000 RMK SC1AC6 SLP183

CYQR;2013-10-18 07:00;CYQR 180700Z 30008KT 15SM BKN073 02/M01 A3000 RMK AC6 SLP182

CYQR;2013-10-18 08:00;CYQR 180800Z 27007KT 15SM FEW050 OVC069 02/M00 A2999 RMK SC1AC7 SLP177

CYQR;2013-10-18 09:00;CYQR 180900Z 28009KT 15SM FEW040 OVC065 02/00 A2998 RMK SC1SC7 SLP175

CYQR;2013-10-18 09:22;CYQR 180922Z 28009KT 15SM -RA SCT030 OVC065 02/00 A2998 RMK SC3SC5 SLP175

CYQR;2013-10-18 09:43;CYQR 180943Z 29008KT 12SM -RASN BKN035 OVC065 02/00 A2999 RMK SC5SC3 SLP177

CYQR;2013-10-18 10:00;CYQR 181000Z 30004KT 12SM -SHRAGS BKN022 OVC065 02/01 A2999 RMK SC7SC1 SLP176

CYQR;2013-10-18 10:22;CYQR 181022Z 28005KT 15SM VCSH SCT022 OVC068 02/01 A2998 RMK SC3AC5 SLP174

CYQR;2013-10-18 11:00;CYQR 181100Z 27006KT 15SM FEW020 OVC071 02/01 A2996 RMK SC1AC7 SLP169

CYQR;2013-10-18 12:00;CYQR 181200Z 28010KT 15SM OVC066 02/01 A2996 RMK AC8 SLP170

CYQR;2013-10-18 13:00;CYQR 181300Z 26007KT 15SM OVC048 02/00 A2996 RMK SC8 SLP172

CYQR;2013-10-18 14:00;CYQR 181400Z 27010KT 15SM OVC048 02/00 A2995 RMK SC8 SLP170

CYQR;2013-10-18 15:00;CYQR 181500Z 26010KT 15SM OVC048 02/00 A2993 RMK SC8 SLP162

CYQR;2013-10-18 16:00;CYQR 181600Z 25009KT 15SM OVC045 04/00 A2992 RMK SC8 SLP155

CYQR;2013-10-18 17:00;CYQR 181700Z 29012G18KT 15SM OVC045 06/01 A2990 RMK SC8 SLP147

CYQR;2013-10-18 18:00;CYQR 181800Z 31022G28KT 15SM SCT048 BKN130 OVC280 08/00 A2988 RMK SC3AC3CI2 SLP141

CYQR;2013-10-18 19:00;CYQR 181900Z 31018G28KT 15SM BKN045 BKN130 08/M01 A2986 RMK SC6AC1 SLP134

CYQR;2013-10-18 20:00;CYQR 182000Z 31016G24KT 15SM BKN040 BKN140 OVC280 08/M01 A2984 RMK SC6AC1CI1 SLP127

CYQR;2013-10-18 21:00;CYQR 182100Z 32020KT 15SM FEW050 BKN280 10/M02 A2983 RMK SC2CI5 SLP121

CYQR;2013-10-18 22:00;CYQR 182200Z 33019KT 15SM FEW050 SCT090 BKN280 10/M01 A2982 RMK SC2AC2CI3 SLP119

CYQR;2013-10-18 23:00;CYQR 182300Z 32013KT 15SM BKN050 BKN090 08/M01 A2982 RMK SC5AC2 SLP119

CYQR;2013-10-19 00:00;CYQR 190000Z 33009KT 15SM BKN050 OVC100 07/M01 A2983 RMK SC7AC1 SLP123

CYQR;2013-10-19 01:00;CYQR 190100Z 30006KT 15SM BKN050 OVC100 06/M00 A2983 RMK SC7AC1 SLP122

CYQR;2013-10-19 02:00;CYQR 190200Z 33004KT 15SM FEW050 BKN065 OVC080 05/M00 A2982 RMK SC2SC5AC1 SLP121

CYQR;2013-10-19 03:00;CYQR 190300Z 34004KT 15SM OVC055 05/M00 A2983 RMK SC8 SLP124

CYQR;2013-10-19 04:00;CYQR 190400Z 04006KT 15SM OVC065 05/00 A2982 RMK SC8 SLP120

CYQR;2013-10-19 05:00;CYQR 190500Z 03003KT 15SM OVC066 05/00 A2981 RMK AC8 SLP117

CYQR;2013-10-19 06:00;CYQR 190600Z 05003KT 15SM OVC070 04/01 A2982 RMK AC8 SLP116

CYQR;2013-10-19 07:00;CYQR 190700Z 11006KT 15SM OVC074 04/01 A2981 RMK AC8 SLP114

CYQR;2013-10-19 08:00;CYQR 190800Z 13005KT 15SM FEW050 BKN075 OVC090 02/M01 A2980 RMK SC1AC5AC2 SLP111

CYQR;2013-10-19 09:00;CYQR 190900Z 13009KT 15SM SCT060 OVC090 02/M01 A2979 RMK SC3AC5 SLP106

CYQR;2013-10-19 10:00;CYQR 191000Z 15006KT 15SM OVC045 02/M01 A2979 RMK SC8 SLP107

CYQR;2013-10-19 11:00;CYQR 191100Z 15008KT 15SM BKN040 BKN070 OVC100 02/M01 A2978 RMK SC5AC2AC1 SLP105

CYQR;2013-10-19 11:34;CYQR 191134Z 16007KT 15SM -RA SCT045 BKN075 OVC090 02/M01 A2977 RMK SC3AC3AC2 SLP103

CYQR;2013-10-19 12:00;CYQR 191200Z 16007KT 15SM SCT045 BKN100 02/M01 A2976 RMK SC3AC3 SLP100

CYQR;2013-10-19 13:00;CYQR 191300Z 15009KT 15SM BKN057 02/M01 A2975 RMK SC7 SLP097

CYQR;2013-10-19 14:00;CYQR 191400Z 15008KT 15SM BKN040 OVC070 02/M01 A2974 RMK SC6AC2 SLP093

CYQR;2013-10-19 15:00;CYQR 191500Z 13009KT 15SM FEW040 BKN085 OVC300 03/M00 A2972 RMK SC2AC4CI2 SLP087

CYQR;2013-10-19 16:00;CYQR 191600Z 15008KT 15SM FEW080 OVC320 05/00 A2971 RMK AC2CI6 SLP080

CYQR;2013-10-19 17:00;CYQR 191700Z 16008KT 15SM FEW110 OVC320 07/00 A2969 RMK AC2CI6 SLP072

CYQR;2013-10-19 18:00;CYQR 191800Z 18010KT 15SM FEW080 FEW120 OVC290 09/00 A2967 RMK AC1AC1CI6 SLP065

CYQR;2013-10-19 19:00;CYQR 191900Z 20007KT 15SM SCT080 SCT130 OVC290 10/00 A2965 RMK AC3AC1CI4 SLP057 DENSITY ALT 2000FT

CYQR;2013-10-19 19:50;CYQR 191950Z 26007KT 15SM -SHRA BKN050 OVC130 10/01 A2964 RMK SC5AS3 SLP053 DENSITY ALT 2000FT

CYQR;2013-10-19 20:00;CYQR 192000Z 26008KT 15SM -SHRA BKN050 OVC130 10/01 A2963 RMK SC5AS3 SLP053 DENSITY ALT 2000FT

CYQR;2013-10-19 20:47;CYQR 192047Z 25004KT 15SM SCT065 OVC130 10/01 A2961 RMK SC4AS4 SLP046 DENSITY ALT 2000FT

CYQR;2013-10-19 21:00;CYQR 192100Z 26005KT 15SM SCT065 OVC130 10/01 A2961 RMK SC3AS5 SLP045 DENSITY ALT 2100FT

CYQR;2013-10-19 21:23;CYQR 192123Z 27007KT 15SM BKN052 OVC130 10/01 A2961 RMK SC6AS2 SLP045 DENSITY ALT 2100FT

CYQR;2013-10-19 22:00;CYQR 192200Z 28007KT 15SM -SHRA OVC048 09/04 A2961 RMK SC8 SLP046 DENSITY ALT 1900FT

CYQR;2013-10-19 23:00;CYQR 192300Z 26007KT 15SM -SHRA OVC033 07/05 A2961 RMK NS8 SLP048

CYQR;2013-10-19 23:13;CYQR 192313Z 26008KT 15SM -RA OVC029 07/05 A2961 RMK SC8 SLP049

CYQR;2013-10-20 00:00;CYQR 200000Z 28011KT 10SM -RA OVC047 07/05 A2960 RMK SC8 SLP046

CYQR;2013-10-20 01:00;CYQR 200100Z 32015KT 12SM -RA OVC040 07/05 A2961 RMK SC8 SLP048

CYQR;2013-10-20 02:00;CYQR 200200Z 33011KT 15SM -RA BKN013 OVC024 06/05 A2963 RMK SC7SC1 SLP055

CYQR;2013-10-20 03:00;CYQR 200300Z 32015KT 12SM -RA BKN011 OVC024 05/05 A2965 RMK SF6SC2 SLP060

CYQR;2013-10-20 03:42;CYQR 200342Z 33018G25KT 12SM -RA OVC009 05/04 A2966 RMK SF8 SLP067

CYQR;2013-10-20 04:00;CYQR 200400Z 33017G26KT 12SM -RA OVC008 05/04 A2967 RMK SF8 SLP068

CYQR;2013-10-20 05:00;CYQR 200500Z 34020KT 15SM OVC006 04/03 A2970 RMK SF8 SLP076

CYQR;2013-10-20 05:38;CYQR 200538Z 35019G24KT 15SM SCT006 OVC016 04/03 A2972 RMK SF4SC4 SLP085

CYQR;2013-10-20 06:00;CYQR 200600Z 35017G29KT 15SM BKN007 OVC016 03/02 A2974 RMK SF5SC3 SLP089

CYQR;2013-10-20 06:27;CYQR 200627Z 34017G24KT 15SM OVC007 02/02 A2976 RMK SF8 SLP097

CYQR;2013-10-20 07:00;CYQR 200700Z 34018KT 15SM OVC008 02/01 A2978 RMK SF8 SLP105

CYQR;2013-10-20 08:00;CYQR 200800Z 35016G24KT 15SM BKN007 OVC013 01/00 A2982 RMK SF6SC2 SLP119

CYQR;2013-10-20 09:00;CYQR 200900Z 36013G20KT 15SM BKN008 OVC020 01/M00 A2986 RMK SF6SC2 SLP131

CYQR;2013-10-20 09:27;CYQR 200927Z 34018KT 15SM BKN005 OVC020 M00/M01 A2987 RMK SF6SC2 SLP137

CYQR;2013-10-20 09:30;CYQR 200930Z 34018G23KT 15SM -FZRA BKN005 OVC020 M00/M01 A2987 RMK SF6SC2 SLP137

CYQR;2013-10-20 09:35;CYQR 200935Z 35016G23KT 15SM -FZDZ BKN005 OVC020 M00/M01 A2988 REFZRA RMK SF6SC2 SLP138

CYQR;2013-10-20 10:00;CYQR 201000Z 35015G20KT 10SM -FZDZ OVC005 M00/M01 A2989 REFZRA RMK SF8 SLP143

CYQR;2013-10-20 10:05;CYQR 201005Z 35012G19KT 15SM OVC006 M00/M01 A2989 REFZDZ RMK SF8 SLP144

CYQR;2013-10-20 11:00;CYQR 201100Z 34014G19KT 15SM OVC007 M00/M01 A2991 REFZDZ RMK SF8 SLP153

CYQR;2013-10-20 12:00;CYQR 201200Z 36012G17KT 15SM BKN006 OVC013 M01/M03 A2994 RMK SF5SC3 SLP163

CYQR;2013-10-20 12:23;CYQR 201223Z 35012G17KT 15SM SCT006 OVC012 M01/M03 A2995 RMK SF3SC5 SLP167

CYQR;2013-10-20 13:00;CYQR 201300Z 34013KT 15SM OVC013 M01/M04 A2996 RMK SC8 SLP172

CYQR;2013-10-20 14:00;CYQR 201400Z 34009KT 15SM BKN015 BKN057 M02/M04 A2999 RMK SC6SC1 SLP181

CYQR;2013-10-20 15:00;CYQR 201500Z 01007KT 15SM FEW013 OVC052 M02/M05 A3001 RMK SC1SC7 SLP189

CYQR;2013-10-20 16:00;CYQR 201600Z 01008KT 15SM FEW018 OVC053 M01/M04 A3002 RMK SC2SC6 SLP193

CYQR;2013-10-20 17:00;CYQR 201700Z 36007KT 15SM FEW018 OVC048 M00/M04 A3003 RMK SC2SC6 SLP194

CYQR;2013-10-20 18:00;CYQR 201800Z 33005KT 15SM FEW021 BKN047 01/M04 A3002 RMK SC2SC5 SLP193

CYQR;2013-10-20 19:00;CYQR 201900Z 30005KT 15SM BKN022 OVC045 01/M03 A3002 RMK SC5SC3 SLP191

CYQR;2013-10-20 20:00;CYQR 202000Z 30010KT 15SM SCT022 OVC035 02/M04 A3000 RMK SC3SC5 SLP187

CYQR;2013-10-20 21:00;CYQR 202100Z 34010KT 15SM FEW022 BKN041 02/M05 A3000 RMK SC1SC6 SLP186

CYQR;2013-10-20 22:00;CYQR 202200Z 34008G16KT 15SM BKN044 02/M05 A3000 RMK SC7 SLP187

CYQR;2013-10-20 23:00;CYQR 202300Z 36006KT 15SM BKN042 02/M06 A3000 RMK SC6 SLP186

CYQR;2013-10-21 00:00;CYQR 210000Z 04005KT 15SM FEW040 00/M06 A3000 RMK SC2 SLP190

CYQR;2013-10-21 01:00;CYQR 210100Z 05004KT 15SM BKN037 M00/M06 A3001 RMK SC5 SLP193

CYQR;2013-10-21 02:00;CYQR 210200Z 10007KT 15SM SCT036 M02/M05 A3000 RMK SC3 SLP192

CYQR;2013-10-21 03:00;CYQR 210300Z 13007KT 15SM FEW036 M04/M06 A3000 RMK SC2 SLP192

CYQR;2013-10-21 04:00;CYQR 210400Z 13008KT 15SM FEW036 M04/M06 A3000 RMK SC1 SLP192

CYQR;2013-10-21 05:00;CYQR 210500Z 14007KT 15SM SKC M05/M07 A3000 RMK SLP190

CYQR;2013-10-21 06:00;CYQR 210600Z 14008KT 15SM SKC M05/M07 A2999 RMK SLP188

CYQR;2013-10-21 07:00;CYQR 210700Z 15008KT 15SM SKC M06/M07 A2998 RMK SLP185

CYQR;2013-10-21 08:00;CYQR 210800Z 15007KT 15SM SCT038 M05/M07 A2999 RMK SC3 SLP186

CYQR;2013-10-21 09:00;CYQR 210900Z 13009KT 15SM FEW038 M05/M07 A2997 RMK SC1 FROIN SLP179

CYQR;2013-10-21 10:00;CYQR 211000Z 13008KT 15SM BKN110 OVC140 M04/M06 A2996 RMK AC6AC2 SLP175

CYQR;2013-10-21 11:00;CYQR 211100Z 14009KT 15SM -SN FEW025 OVC082 M04/M06 A2995 RMK SC1AC7 SLP171

CYQR;2013-10-21 12:00;CYQR 211200Z 14008KT 15SM -SN OVC028 M03/M05 A2994 RMK SC8 SLP168

CYQR;2013-10-21 12:27;CYQR 211227Z 14009KT 15SM OVC027 M03/M05 A2993 RMK SC8 SLP166

CYQR;2013-10-21 13:00;CYQR 211300Z 15010KT 15SM -SN OVC025 M03/M05 A2993 RMK SC8 SLP165

CYQR;2013-10-21 14:00;CYQR 211400Z 14010KT 15SM -SN OVC025 M02/M05 A2992 RMK SC8 SLP164

CYQR;2013-10-21 14:33;CYQR 211433Z 14011KT 2SM -SN OVC015 M02/M05 A2992 RMK SC8 SLP164

CYQR;2013-10-21 14:53;CYQR 211453Z 14013KT 6SM -SN OVC025 M02/M04 A2991 RMK SC8 PRESFR SLP159

CYQR;2013-10-21 15:00;CYQR 211500Z 15014KT 6SM -SN OVC025 M02/M04 A2991 RMK SC8 SLP161

CYQR;2013-10-21 15:34;CYQR 211534Z 15015G20KT 2 1/2SM -SN OVC015 M02/M04 A2989 RMK SC8 SLP155

CYQR;2013-10-21 15:47;CYQR 211547Z 15013G19KT 4SM -SN OVC020 M02/M03 A2990 RMK SC8 SLP157

CYQR;2013-10-21 16:00;CYQR 211600Z 14013KT 4SM -SN OVC025 M02/M03 A2989 RMK SC8 SLP154

CYQR;2013-10-21 16:05;CYQR 211605Z 14012KT 1 1/2SM -SN OVC012 M02/M03 A2990 RMK SN1SC7 SLP156

CYQR;2013-10-21 17:00;CYQR 211700Z 14013KT 1SM -SN OVC021 M02/M02 A2989 RMK SN2SC6 /S01/ SLP154

CYQR;2013-10-21 17:17;CYQR 211717Z 14014KT 2SM -SN OVC029 M02/M02 A2989 RMK SC8 SLP153

CYQR;2013-10-21 17:23;CYQR 211723Z 14012G18KT 4SM -SN OVC028 M01/M02 A2988 RMK SC8 SLP152

CYQR;2013-10-21 17:44;CYQR 211744Z 13012KT 5SM -SN SCT007 OVC025 M01/M02 A2988 RMK SF4SC4 SLP152

CYQR;2013-10-21 17:50;CYQR 211750Z 13015KT 4SM -FZDZ -SN BKN007 OVC022 M01/M02 A2988 RMK SF5SC3 SLP152

CYQR;2013-10-21 18:00;CYQR 211800Z 12013KT 3SM -FZRA SN BKN007 OVC018 M01/M02 A2989 RMK SF6SC2 SLP153

CYQR;2013-10-21 18:35;CYQR 211835Z 14015KT 4SM -FZRA -SN BKN006 OVC017 M01/M02 A2988 REFZDZ RMK SF6SC2 SLP151

CYQR;2013-10-21 19:00;CYQR 211900Z 13015KT 5SM -FZRA -SN BKN005 OVC017 M01/M02 A2987 REFZDZ RMK SF6SC2 SLP149

CYQR;2013-10-21 19:18;CYQR 211918Z 14014KT 10SM -FZDZ OVC006 M01/M02 A2987 REFZRA RMK SF8 SLP149

CYQR;2013-10-21 19:50;CYQR 211950Z 13012KT 12SM OVC006 M01/M02 A2988 REFZDZ REFZRA RMK SF8 SLP151

CYQR;2013-10-21 20:00;CYQR 212000Z 13011G17KT 12SM OVC006 M01/M02 A2988 REFZRA REFZDZ RMK SF8 SLP152

CYQR;2013-10-21 20:17;CYQR 212017Z 14012KT 10SM -FZDZ OVC006 M01/M01 A2988 RMK SF8 SLP150

CYQR;2013-10-21 21:00;CYQR 212100Z 15010KT 12SM -FZDZ OVC005 M00/M01 A2987 RMK SF8 SLP148

CYQR;2013-10-21 21:28;CYQR 212128Z 15008KT 12SM OVC005 M00/M01 A2989 REFZDZ RMK SF8 SLP155

CYQR;2013-10-21 22:00;CYQR 212200Z 16008KT 4SM BR OVC004 M00/M01 A2989 REFZDZ RMK SF8 SLP154

CYQR;2013-10-21 22:45;CYQR 212245Z 17008KT 4SM BR OVC003 M00/M01 A2990 RMK SF8 SLP155

CYQR;2013-10-21 23:00;CYQR 212300Z 17005KT 4SM BR OVC003 M00/M01 A2990 RMK SF8 SLP156

CYQR;2013-10-21 23:25;CYQR 212325Z 16005KT 2SM BR OVC003 M00/M01 A2990 RMK SF8 SLP158

CYQR;2013-10-21 23:44;CYQR 212344Z 14004KT 1SM BR OVC002 M00/M00 A2990 RMK ST8 SLP158

CYQR;2013-10-22 00:00;CYQR 220000Z 13003KT 1SM BR OVC002 M00/M00 A2991 RMK ST8 SLP158

CYQR;2013-10-22 00:22;CYQR 220022Z 11004KT 2SM BR OVC002 M00/M00 A2990 RMK ST8 SLP156

CYQR;2013-10-22 01:00;CYQR 220100Z 10005KT 2 1/2SM BR OVC003 M00/M00 A2992 RMK ST8 SLP161

CYQR;2013-10-22 01:15;CYQR 220115Z 11005KT 4SM BR BKN003 OVC032 M00/M00 A2991 RMK SF7SC1 SLP159

CYQR;2013-10-22 01:38;CYQR 220138Z VRB02KT 5SM BR SCT003 OVC035 M00/M00 A2992 RMK SF4SC4 SLP162

CYQR;2013-10-22 01:51;CYQR 220151Z 19002KT 5SM BR BKN007 OVC034 M00/M00 A2992 RMK SF6SC2 SLP163

CYQR;2013-10-22 02:00;CYQR 220200Z VRB02KT 4SM BR BKN006 OVC034 M01/M01 A2993 RMK ST7SC1 SLP165

CYQR;2013-10-22 02:32;CYQR 220232Z 00000KT 3SM BR OVC003 M01/M01 A2994 RMK ST8 CIG RAG SLP168

CYQR;2013-10-22 02:44;CYQR 220244Z 00000KT 3SM BR BKN002 OVC010 M00/M00 A2994 RMK SF7SC1 CIG RAG SLP169

CYQR;2013-10-22 03:00;CYQR 220300Z 13002KT 3SM BR BKN002 OVC009 M00/M00 A2995 RMK SF5SC3 CIG RAG SLP172

CYQR;2013-10-22 03:09;CYQR 220309Z 12003KT 3SM BR SCT003 OVC009 M00/M00 A2995 RMK SF4SC4 CIG RAG SLP172

CYQR;2013-10-22 03:38;CYQR 220338Z 00000KT 5SM BR OVC004 00/00 A2996 RMK ST8 CIG RAG SLP175

CYQR;2013-10-22 04:00;CYQR 220400Z 12003KT 6SM BR OVC004 M00/M00 A2997 RMK ST8 CIG RAG SLP178

CYQR;2013-10-22 04:26;CYQR 220426Z 12003KT 6SM BR OVC003 M00/M00 A2997 RMK ST8 CIG RAG SLP180

CYQR;2013-10-22 04:54;CYQR 220454Z 13005KT 2 1/2SM BR OVC003 M00/M00 A2998 RMK ST8 CIG RAG SLP182

CYQR;2013-10-22 05:00;CYQR 220500Z 14004KT 2 1/2SM BR OVC003 M00/M00 A2998 RMK ST8 CIG RAG SLP182

CYQR;2013-10-22 05:11;CYQR 220511Z 12005KT 1 3/4SM BR OVC002 M00/M00 A2998 RMK ST8 CIG RAG SLP182

CYQR;2013-10-22 05:17;CYQR 220517Z 11006KT 3/4SM BR OVC002 M00/M00 A2998 RMK FG1ST7 CIG RAG SLP182

CYQR;2013-10-22 05:40;CYQR 220540Z 10006KT 1 1/2SM R13/5500VP6000FT/U BR OVC002 M01/M01 A2999 RMK ST8 CIG RAG SLP185

CYQR;2013-10-22 05:49;CYQR 220549Z 09005KT 1SM R13/4000VP6000FT/D BR OVC002 M01/M01 A2999 RMK FG1ST7 VIS VRB 1/2-11/2 CIG RAG SLP187

CYQR;2013-10-22 06:00;CYQR 220600Z 10004KT 1SM R13/4500FT/N BR OVC002 M01/M01 A2999 RMK FG1ST7 VIS VRB 1/2-11/2 CIG RAG SLP186

CYQR;2013-10-22 06:30;CYQR 220630Z 09004KT 2SM BR OVC003 M01/M01 A3000 RMK ST8 CIG RAG SLP191

CYQR;2013-10-22 06:48;CYQR 220648Z 07004KT 3SM BR OVC003 M01/M01 A3001 RMK ST8 CIG RAG SLP193

CYQR;2013-10-22 07:00;CYQR 220700Z 08006KT 4SM BR OVC003 M01/M01 A3002 RMK ST8 SLP196

CYQR;2013-10-22 08:00;CYQR 220800Z 06004KT 7SM OVC005 M01/M01 A3005 RMK ST8 BR SLP204

CYQR;2013-10-22 08:28;CYQR 220828Z 08005KT 10SM SCT005 OVC019 M01/M02 A3005 RMK SF4SC4 BR SLP204

CYQR;2013-10-22 09:00;CYQR 220900Z 10005KT 15SM SCT008 BKN020 M01/M02 A3005 RMK SF3SC4 SLP205

CYQR;2013-10-22 09:26;CYQR 220926Z 11006KT 15SM OVC008 M01/M02 A3005 RMK ST8 SLP204

CYQR;2013-10-22 10:00;CYQR 221000Z 15002KT 15SM OVC009 M01/M03 A3006 RMK ST8 SLP211

CYQR;2013-10-22 10:16;CYQR 221016Z 00000KT 15SM OVC010 M01/M03 A3007 RMK ST8 SLP213

CYQR;2013-10-22 11:00;CYQR 221100Z 32002KT 15SM OVC009 M01/M03 A3008 RMK ST8 SLP215

CYQR;2013-10-22 12:00;CYQR 221200Z 00000KT 15SM OVC007 M02/M03 A3008 RMK ST8 CIG RAG SLP218

CYQR;2013-10-22 12:49;CYQR 221249Z 25003KT 250V330 15SM BKN010 M02/M03 A3009 RMK ST7 CIG RAG SLP220

CYQR;2013-10-22 13:00;CYQR 221300Z 19002KT 15SM BKN012 M02/M03 A3009 RMK SC7 CIG RAG SLP221

CYQR;2013-10-22 13:17;CYQR 221317Z 20002KT 15SM BKN015 M02/M03 A3009 RMK SC7 AC TR SLP220

CYQR;2013-10-22 14:00;CYQR 221400Z 18002KT 15SM BKN013 M02/M03 A3009 RMK SC7 AC TR SLP221

CYQR;2013-10-22 15:00;CYQR 221500Z 00000KT 15SM BKN011 M01/M02 A3010 RMK SC7 CIG VRB 9-13 SLP225

CYQR;2013-10-22 15:54;CYQR 221554Z 00000KT 15SM OVC009 M01/M02 A3010 RMK SC8 SLP223

CYQR;2013-10-22 16:00;CYQR 221600Z 00000KT 15SM OVC009 M01/M02 A3010 RMK SC8 SLP224

CYQR;2013-10-22 17:00;CYQR 221700Z 19003KT 12SM OVC008 M01/M02 A3010 RMK SC8 CIG RAG SLP224

CYQR;2013-10-22 18:00;CYQR 221800Z 20003KT 12SM OVC010 M00/M01 A3009 RMK SC8 CIG RAG SLP219

CYQR;2013-10-22 19:00;CYQR 221900Z 19003KT 15SM OVC010 M00/M02 A3008 RMK SC8 CIG RAG SLP215

CYQR;2013-10-22 20:00;CYQR 222000Z VRB02KT 15SM OVC011 00/M01 A3007 RMK SC8 CIG RAG SLP211

CYQR;2013-10-22 21:00;CYQR 222100Z 00000KT 15SM OVC010 01/M01 A3006 RMK SC8 CIG RAG SLP210

CYQR;2013-10-22 21:19;CYQR 222119Z 08003KT 10SM -RA BKN012 OVC042 01/M01 A3007 RMK SC7SC1 CIG RAG SLP211

CYQR;2013-10-22 22:00;CYQR 222200Z 17003KT 15SM FEW025 OVC036 01/M01 A3005 RMK SC1SC7 SLP205

CYQR;2013-10-22 23:00;CYQR 222300Z 12004KT 15SM FEW025 OVC039 01/M00 A3004 RMK SC1SC7 SLP203

CYQR;2013-10-23 00:00;CYQR 230000Z 17003KT 15SM OVC037 01/M00 A3004 RMK SC8 SLP201

CYQR;2013-10-23 00:37;CYQR 230037Z 13005KT 15SM -RA OVC042 01/M00 A3002 RMK SC8 SLP196

CYQR;2013-10-23 01:00;CYQR 230100Z 11005KT 15SM -RA OVC042 01/M00 A3003 RMK SC8 SLP199

CYQR;2013-10-23 02:00;CYQR 230200Z 13005KT 12SM -RA OVC021 01/M00 A3003 RMK SC8 SLP199

CYQR;2013-10-23 03:00;CYQR 230300Z CCA 10005KT 6SM -RA BR OVC017 01/M00 A3004 RMK SC8 SLP203

CYQR;2013-10-23 03:26;CYQR 230326Z 13002KT 2 1/2SM -RA BR OVC017 01/M00 A3005 RMK SC8 SLP204

CYQR;2013-10-23 04:00;CYQR 230400Z 10004KT 3SM BR OVC018 01/M00 A3005 RMK SC8 SLP205

CYQR;2013-10-23 05:00;CYQR 230500Z 14002KT 6SM -SN BR OVC017 01/M00 A3006 RMK SC8 SLP209

CYQR;2013-10-23 06:00;CYQR 230600Z 16002KT 6SM BR OVC018 01/M00 A3007 RMK SC8 SLP213

CYQR;2013-10-23 06:07;CYQR 230607Z 00000KT 6SM BR SCT007 OVC017 01/M00 A3008 RMK SF3SC5 SLP214

CYQR;2013-10-23 06:21;CYQR 230621Z 00000KT 6SM BR BKN007 OVC017 01/M00 A3008 RMK SF6SC2 SLP214

CYQR;2013-10-23 06:32;CYQR 230632Z 00000KT 5SM -SN BR OVC007 01/M00 A3008 RMK SF8 SLP214

CYQR;2013-10-23 06:43;CYQR 230643Z 00000KT 6SM BR OVC007 01/M00 A3008 RMK SF8 SLP215

CYQR;2013-10-23 07:00;CYQR 230700Z 00000KT 4SM BR OVC006 01/M00 A3008 RMK SF8 SLP215

CYQR;2013-10-23 07:43;CYQR 230743Z 00000KT 6SM BR SCT006 OVC013 01/00 A3009 RMK SF4SC4 SLP218

CYQR;2013-10-23 08:00;CYQR 230800Z 00000KT 6SM BR FEW006 OVC014 01/00 A3009 RMK SF2SC6 SLP219

CYQR;2013-10-23 08:17;CYQR 230817Z 00000KT 6SM BR BKN005 OVC014 01/00 A3010 RMK SF5SC3 SLP221

CYQR;2013-10-23 09:00;CYQR 230900Z 23003KT 6SM BR SCT006 OVC018 01/00 A3010 RMK SF3SC5 SLP223

CYQR;2013-10-23 09:54;CYQR 230954Z 26004KT 6SM -SN BR OVC024 00/00 A3012 RMK SC8 SLP227

CYQR;2013-10-23 10:00;CYQR 231000Z 26004KT 6SM -SN BR OVC024 00/00 A3012 RMK SC8 SLP227

CYQR;2013-10-23 10:32;CYQR 231032Z 27005KT 6SM BR OVC025 00/M00 A3013 RMK SC8 SLP231

CYQR;2013-10-23 11:00;CYQR 231100Z 28004KT 6SM -SN BR OVC026 01/00 A3014 RMK SC8 SLP233

CYQR;2013-10-23 11:22;CYQR 231122Z 26005KT 5SM BR OVC025 01/00 A3014 RMK SC8 SLP234

CYQR;2013-10-23 11:43;CYQR 231143Z 28006KT 5SM -SN BR OVC020 01/00 A3015 RMK SC8 SLP237

CYQR;2013-10-23 12:00;CYQR 231200Z 31004KT 3SM -SN BR BKN004 OVC020 01/00 A3015 RMK SF5SC3 SLP239

CYQR;2013-10-23 12:11;CYQR 231211Z 31005KT 3SM -SN BR FEW004 OVC012 01/01 A3015 RMK SF2SC6 SLP240

CYQR;2013-10-23 12:26;CYQR 231226Z 32004KT 3SM -DZ BR OVC009 01/01 A3016 RMK SC8 SLP242

CYQR;2013-10-23 13:00;CYQR 231300Z 35006KT 3SM -DZ BR OVC007 01/01 A3017 RMK SF8 SLP245

CYQR;2013-10-23 13:21;CYQR 231321Z 34004KT 8SM -DZ FEW007 OVC020 01/01 A3017 RMK SF2SC6 SLP246

CYQR;2013-10-23 14:00;CYQR 231400Z 36005KT 12SM FEW007 BKN030 01/00 A3019 RMK SF1SC6 SLP250

CYQR;2013-10-23 15:00;CYQR 231500Z 01007KT 15SM FEW007 BKN030 BKN280 02/00 A3020 RMK SF2SC4CI1 SLP257

CYQR;2013-10-23 16:00;CYQR 231600Z 36008KT 15SM FEW030 BKN280 02/M01 A3022 RMK SC1CI6 SLP263

CYQR;2013-10-23 17:00;CYQR 231700Z 35010KT 15SM FEW020 SCT280 04/M01 A3024 RMK SC2CI1 SLP266

CYQR;2013-10-23 18:00;CYQR 231800Z 36007KT 15SM FEW025 FEW280 04/M02 A3025 RMK SC1CI1 SLP269

CYQR;2013-10-23 19:00;CYQR 231900Z 33007KT 15SM FEW030 04/M02 A3025 RMK SC1 CI TR CONTRAILS SLP269

CYQR;2013-10-23 20:00;CYQR 232000Z 30008KT 15SM SCT035 BKN280 05/M03 A3025 RMK CU3CI3 SLP270

CYQR;2013-10-23 21:00;CYQR 232100Z 32010KT 15SM FEW035 BKN280 04/M03 A3025 RMK CU2CI3 SLP269

CYQR;2013-10-23 22:00;CYQR 232200Z 30011KT 15SM FEW035 SCT280 05/M03 A3025 RMK SC1CI2 SLP268

CYQR;2013-10-23 23:00;CYQR 232300Z 31011KT 15SM FEW035 SCT280 04/M03 A3025 RMK CU1CI2 SLP271

CYQR;2013-10-24 00:00;CYQR 240000Z 31008KT 15SM FEW040 SCT280 01/M03 A3025 RMK SC1CI2 SLP274

CYQR;2013-10-24 01:00;CYQR 240100Z 31008KT 15SM FEW040 FEW280 M01/M04 A3026 RMK SC1CI1 SLP277

CYQR;2013-10-24 02:00;CYQR 240200Z 30008KT 15SM SKC M02/M04 A3027 RMK SLP280

CYQR;2013-10-24 03:00;CYQR 240300Z 30006KT 15SM SKC M03/M04 A3027 RMK SLP282

CYQR;2013-10-24 04:00;CYQR 240400Z 29004KT 15SM SKC M04/M05 A3026 RMK SLP280

CYQR;2013-10-24 05:00;CYQR 240500Z 29007KT 15SM SKC M04/M05 A3027 RMK SLP281

CYQR;2013-10-24 06:00;CYQR 240600Z 30003KT 15SM SKC M05/M06 A3028 RMK SLP285

CYQR;2013-10-24 07:00;CYQR 240700Z 32003KT 15SM FEW030 M05/M05 A3029 RMK SC1 SLP287

CYQR;2013-10-24 08:00;CYQR 240800Z 30006KT 15SM BKN028 M05/M06 A3030 RMK SC6 SLP289

CYQR;2013-10-24 09:00;CYQR 240900Z 31004KT 15SM BKN028 M03/M04 A3031 RMK SC7 SLP293

CYQR;2013-10-24 10:00;CYQR 241000Z 32004KT 15SM BKN025 M03/M04 A3031 RMK SC5 SLP292

CYQR;2013-10-24 11:00;CYQR 241100Z 00000KT 15SM SCT025 M06/M07 A3031 RMK SC3 SLP295

CYQR;2013-10-24 12:00;CYQR 241200Z 29005KT 15SM FEW025 M06/M06 A3031 RMK SC2 SLP299

CYQR;2013-10-24 13:00;CYQR 241300Z 24004KT 15SM BKN022 M06/M06 A3031 RMK SC7 SLP301

CYQR;2013-10-24 14:00;CYQR 241400Z 26004KT 15SM OVC021 M04/M04 A3031 RMK SC8 SLP299

CYQR;2013-10-24 15:00;CYQR 241500Z 24006KT 15SM OVC021 M02/M02 A3031 RMK SC8 SLP299

CYQR;2013-10-24 16:00;CYQR 241600Z 26005KT 15SM OVC021 00/M01 A3031 RMK SC8 SLP298

CYQR;2013-10-24 17:00;CYQR 241700Z 28004KT 15SM OVC023 02/M03 A3031 RMK SC8 SLP295

CYQR;2013-10-24 18:00;CYQR 241800Z 20006KT 15SM BKN022 02/M03 A3031 RMK SC7 SLP297

CYQR;2013-10-24 19:00;CYQR 241900Z 21003KT 15SM BKN022 02/M03 A3029 RMK SC7 SLP288

CYQR;2013-10-24 21:00;CYQR 242100Z 17007KT 15SM FEW023 BKN250 04/M02 A3022 RMK SC1CI4 SLP263

CYQR;2013-10-24 22:00;CYQR 242200Z 16011KT 15SM BKN250 04/M02 A3020 RMK CI6 SLP255

CYQR;2013-10-24 23:00;CYQR 242300Z 17010KT 15SM BKN250 04/M02 A3016 RMK CI6 CONTRAILS SLP245

CYQR;2013-10-24 23:47;CYQR 242347Z 15008KT 15SM SCT250 02/M02 A3015 RMK CI4 CONTRAILS SLP240

CYQR;2013-10-25 00:00;CYQR 250000Z 15008KT 15SM BKN280 01/M02 A3014 RMK CI5 SLP239

CYQR;2013-10-25 01:00;CYQR 250100Z 16011KT 15SM SCT280 01/M02 A3010 RMK CI3 SLP226

CYQR;2013-10-25 02:00;CYQR 250200Z 16013KT 15SM FEW270 M00/M03 A3006 RMK CI1 SLP209

CYQR;2013-10-25 03:00;CYQR 250300Z 15013KT 15SM SKC 01/M02 A3002 RMK SLP195

CYQR;2013-10-25 04:00;CYQR 250400Z 16012KT 15SM FEW140 01/M02 A2998 RMK AC2 SLP180

CYQR;2013-10-25 05:00;CYQR 250500Z 15009KT 15SM BKN130 02/M01 A2996 RMK AC7 SLP173

CYQR;2013-10-25 06:00;CYQR 250600Z 16011KT 15SM SCT140 01/M01 A2992 RMK AC3 SLP159

CYQR;2013-10-25 07:00;CYQR 250700Z 15009KT 15SM SKC 01/M02 A2990 RMK AC TR SLP151

CYQR;2013-10-25 08:00;CYQR 250800Z 15006KT 15SM SKC M01/M03 A2988 RMK SLP145

CYQR;2013-10-25 09:00;CYQR 250900Z 20007KT 15SM SKC M00/M02 A2986 RMK SLP138

CYQR;2013-10-25 10:00;CYQR 251000Z 28007KT 15SM FEW160 01/M00 A2986 RMK AC1 SLP137

CYQR;2013-10-25 11:00;CYQR 251100Z 29008KT 15SM SKC 02/01 A2988 RMK AC TR SLP142

CYQR;2013-10-25 12:00;CYQR 251200Z 30009KT 15SM BKN240 03/01 A2989 RMK CI7 SLP148

CYQR;2013-10-25 12:29;CYQR 251229Z 30008KT 15SM BKN240 02/01 A2990 RMK CI7 SLP151

CYQR;2013-10-25 13:00;CYQR 251300Z 31009KT 15SM FEW170 SCT210 02/01 A2991 RMK AC1CI3 SLP156

CYQR;2013-10-25 14:00;CYQR 251400Z 28010KT 15SM FEW140 FEW280 02/00 A2991 RMK AC1CI1 SLP155

CYQR;2013-10-25 15:00;CYQR 251500Z 29009KT 15SM FEW140 04/01 A2994 RMK AC1 SLP163

CYQR;2013-10-25 16:00;CYQR 251600Z 30019G25KT 15SM FEW140 FEW280 08/02 A2994 RMK AC1CI1 SLP161

CYQR;2013-10-25 17:00;CYQR 251700Z 30021G29KT 15SM FEW280 09/00 A2995 RMK CI1 SLP163

CYQR;2013-10-25 18:00;CYQR 251800Z 31027G33KT 15SM BKN280 09/M02 A2998 RMK CI6 SLP172

CYQR;2013-10-25 19:00;CYQR 251900Z 32026G34KT 15SM BKN280 09/M02 A2999 RMK CI7 CONTRAILS SC TR SLP177

CYQR;2013-10-25 20:00;CYQR 252000Z 33024G32KT 15SM FEW040 BKN250 09/M03 A3001 RMK SC1CI6 SLP186

CYQR;2013-10-25 21:00;CYQR 252100Z 31022G32KT 15SM FEW045 BKN250 09/M03 A3002 RMK SC1CI4 SLP189

CYQR;2013-10-25 22:00;CYQR 252200Z 32023G29KT 15SM SCT250 08/M03 A3004 RMK CI4 SLP196

CYQR;2013-10-25 23:00;CYQR 252300Z 32017G25KT 15SM BKN250 07/M03 A3007 RMK CI6 SLP207

CYQR;2013-10-26 05:00;CYQR 260500Z 34005KT 15SM SKC M03/M06 A3021 RMK SLP256

CYQR;2013-10-26 06:00;CYQR 260600Z 30004KT 15SM SKC M05/M07 A3022 RMK SLP261

CYQR;2013-10-26 07:00;CYQR 260700Z 29006KT 15SM SKC M05/M07 A3024 RMK SLP266

CYQR;2013-10-26 08:00;CYQR 260800Z 33005KT 15SM FEW250 M06/M07 A3023 RMK CI1 SLP264

CYQR;2013-10-26 09:00;CYQR 260900Z 27008KT 15SM SKC M08/M09 A3025 RMK SLP272

CYQR;2013-10-26 10:00;CYQR 261000Z 32005KT 15SM FEW250 M07/M08 A3023 RMK CI1 SLP266

CYQR;2013-10-26 11:00;CYQR 261100Z 24004KT 15SM FEW250 M10/M11 A3023 RMK CI2 SLP268

CYQR;2013-10-26 12:00;CYQR 261200Z 25006KT 15SM FEW250 M09/M10 A3023 RMK CI1 SLP270

CYQR;2013-10-26 13:00;CYQR 261300Z 20004KT 15SM FEW100 SCT250 M09/M11 A3021 RMK AC1CI3 SLP264

CYQR;2013-10-26 14:00;CYQR 261400Z 17003KT 15SM FEW100 OVC250 M08/M09 A3020 RMK AC1CI7 SLP260

CYQR;2013-10-26 15:00;CYQR 261500Z 18006KT 15SM SCT100 BKN250 M06/M07 A3018 RMK AC3CI3 SLP254

CYQR;2013-10-26 16:00;CYQR 261600Z 17006KT 15SM FEW140 BKN250 M01/M03 A3015 RMK AC1CI6 SLP241

CYQR;2013-10-26 17:00;CYQR 261700Z 19010KT 15SM OVC250 03/M03 A3012 RMK CI8 TRACE AC AT 14 000FT. CONTRAILS SLP228

CYQR;2013-10-26 18:00;CYQR 261800Z 18009KT 15SM FEW140 SCT250 OVC280 06/M03 A3006 RMK AC1CI3CI4 CC ASOCTD CONTRAILS PRESFR SLP209

CYQR;2013-10-26 19:00;CYQR 261900Z 20013KT 15SM SCT240 BKN280 08/M04 A3001 RMK CI3CI3 SLP190

CYQR;2013-10-26 20:00;CYQR 262000Z 21012KT 15SM FEW240 BKN300 10/M03 A2996 RMK CI2CI4 CONTRAILS SLP171

CYQR;2013-10-26 21:00;CYQR 262100Z 21013G18KT 15SM FEW120 BKN320 13/M01 A2990 RMK AC1CI5 PRESFR SLP151 DENSITY ALT 2000FT

CYQR;2013-10-26 22:00;CYQR 262200Z 25015KT 15SM FEW120 SCT320 14/M02 A2987 RMK AC1CI3 SLP137 DENSITY ALT 2200FT

CYQR;2013-10-26 23:00;CYQR 262300Z 25013KT 15SM FEW220 BKN320 13/M01 A2984 RMK CI2CI5 SLP130 DENSITY ALT 2200FT

CYQR;2013-10-27 00:00;CYQR 270000Z 27010KT 15SM FEW120 FEW250 BKN320 11/00 A2983 RMK AC1CI1CI5 SLP128 DENSITY ALT 1900FT

CYQR;2013-10-27 03:00;CYQR 270300Z 30008KT 15SM SCT120 BKN250 07/M00 A2981 RMK AC4CI1 SLP121

CYQR;2013-10-27 04:00;CYQR 270400Z 30007KT 15SM BKN110 04/M01 A2981 RMK AC6 SLP120

CYQR;2013-10-27 04:34;CYQR 270434Z 32008KT 15SM FEW120 BKN200 02/M01 A2981 RMK AC2CI4 SLP123

CYQR;2013-10-27 05:00;CYQR 270500Z 32007KT 15SM FEW120 BKN200 02/M01 A2982 RMK AC2CI5 SLP121

CYQR;2013-10-27 06:00;CYQR 270600Z 25005KT 15SM FEW120 BKN200 02/M02 A2982 RMK AC1CI6 SLP120

CYQR;2013-10-27 07:00;CYQR 270700Z 32009KT 15SM BKN170 03/M01 A2984 RMK AC7 SLP124

CYQR;2013-10-27 07:12;CYQR 270712Z 32009KT 15SM BKN170 02/M01 A2985 RMK AC7 SLP127

CYQR;2013-10-27 08:00;CYQR 270800Z 35006KT 15SM OVC170 03/M01 A2985 RMK AC8 SLP127

CYQR;2013-10-27 09:00;CYQR 270900Z 36009KT 15SM BKN150 03/M02 A2987 RMK AC7 SLP133

CYQR;2013-10-27 09:29;CYQR 270929Z 36010KT 15SM BKN160 03/M02 A2989 RMK AC7 SLP139

CYQR;2013-10-27 10:00;CYQR 271000Z 35008KT 15SM FEW040 BKN130 02/M02 A2990 RMK SC1AC6 SLP144

CYQR;2013-10-27 11:00;CYQR 271100Z 36007KT 15SM SCT020 OVC140 01/M02 A2994 RMK SC4AC4 PRESRR SLP156

CYQR;2013-10-27 12:00;CYQR 271200Z 36006KT 15SM OVC023 01/M02 A2997 RMK SC8 SLP170

CYQR;2013-10-27 13:00;CYQR 271300Z 02008KT 15SM OVC025 02/M02 A2999 RMK SC8 SLP178

CYQR;2013-10-27 14:00;CYQR 271400Z 02011KT 15SM OVC024 01/M03 A3002 RMK SC8 SLP188

CYQR;2013-10-27 15:00;CYQR 271500Z 06015G22KT 15SM OVC027 01/M04 A3007 RMK SC8 PRESRR SLP206

CYQR;2013-10-27 16:00;CYQR 271600Z 06015KT 15SM BKN027 OVC220 01/M05 A3011 RMK SC7CI1 SLP222

CYQR;2013-10-27 17:00;CYQR 271700Z 06016G21KT 15SM BKN032 BKN300 02/M06 A3015 RMK SC5CI2 SLP235

CYQR;2013-10-27 18:00;CYQR 271800Z 05014G20KT 15SM BKN030 01/M06 A3018 RMK SC7 SLP246

CYQR;2013-10-27 19:00;CYQR 271900Z 07012G18KT 15SM FEW024 OVC031 00/M05 A3020 RMK SC1SC7 SLP256

CYQR;2013-10-27 20:00;CYQR 272000Z 06016G22KT 15SM BKN020 BKN047 BKN300 M01/M06 A3024 RMK SC5SC1CI1 SLP267

CYQR;2013-10-27 21:00;CYQR 272100Z 06012G21KT 15SM BKN030 OVC300 M00/M07 A3026 RMK SC7CI1 SLP275

CYQR;2013-10-27 22:00;CYQR 272200Z 04012G17KT 15SM BKN026 OVC300 M02/M08 A3030 RMK SC7CI1 SLP291

CYQR;2013-10-27 23:00;CYQR 272300Z 07011G20KT 15SM BKN028 BKN300 M03/M09 A3034 RMK SC6CI1 SLP304

CYQR;2013-10-28 00:00;CYQR 280000Z 06013KT 15SM FEW300 M05/M11 A3037 RMK CI2 TRACE OF SC AT 3 000FT SLP319

CYQR;2013-10-28 01:00;CYQR 280100Z 07011G19KT 15SM FEW170 SCT300 M05/M11 A3041 RMK AC2CI2 SLP331

CYQR;2013-10-28 02:00;CYQR 280200Z 06014KT 15SM BKN240 M06/M12 A3044 RMK CI7 SLP341

CYQR;2013-10-28 03:00;CYQR 280300Z 06013KT 15SM BKN160 M06/M11 A3046 RMK AC7 SLP350

CYQR;2013-10-28 04:00;CYQR 280400Z 06011KT 15SM SCT140 BKN190 M07/M11 A3049 RMK AC4CI2 SLP359

CYQR;2013-10-28 05:00;CYQR 280500Z 07011KT 15SM SCT190 M07/M11 A3050 RMK CI4 SLP365

CYQR;2013-10-28 06:00;CYQR 280600Z 06008KT 15SM BKN150 M07/M11 A3052 RMK AC6 SLP372

CYQR;2013-10-28 07:00;CYQR 280700Z 07006KT 15SM FEW038 SCT150 M08/M11 A3054 RMK SC2AC2 SLP379

CYQR;2013-10-28 08:00;CYQR 280800Z 07006KT 15SM SCT250 M08/M11 A3055 RMK CI4 SLP382

CYQR;2013-10-28 09:00;CYQR 280900Z 08008KT 15SM FEW250 M08/M11 A3055 RMK CI2 SLP382

CYQR;2013-10-28 10:00;CYQR 281000Z 07006KT 15SM FEW100 M09/M12 A3055 RMK AC1 SLP385

CYQR;2013-10-28 11:00;CYQR 281100Z 07005KT 15SM FEW100 M10/M12 A3055 RMK AC1 SLP385

CYQR;2013-10-28 12:00;CYQR 281200Z 08007KT 15SM FEW100 M09/M12 A3055 RMK AC1 SLP387

CYQR;2013-10-28 13:00;CYQR 281300Z 08007KT 15SM FEW100 M09/M11 A3055 RMK AC1 SLP388

CYQR;2013-10-28 14:00;CYQR 281400Z 08007KT 15SM FEW030 FEW100 BKN320 M09/M11 A3057 RMK SC1AC1CI5 SLP396

CYQR;2013-10-28 15:00;CYQR 281500Z 07006KT 15SM FEW030 BKN320 M07/M10 A3059 RMK SC1CI6 SLP399

CYQR;2013-10-28 16:00;CYQR 281600Z 08005KT 15SM FEW030 BKN300 M06/M10 A3059 RMK SC1CI5 SLP401

CYQR;2013-10-28 17:00;CYQR 281700Z 10008KT 15SM SCT025 BKN110 BKN300 M05/M12 A3059 RMK SC4AC1CI1 SLP398

CYQR;2013-10-28 18:00;CYQR 281800Z 11007KT 15SM SCT028 BKN300 M05/M12 A3056 RMK SC3CI4 SLP390

CYQR;2013-10-28 19:00;CYQR 281900Z 10002KT 15SM BKN029 BKN300 M05/M12 A3054 RMK SC6CI1 SLP381

CYQR;2013-10-28 20:00;CYQR 282000Z 13005KT 15SM BKN029 BKN300 M05/M12 A3051 RMK SC6CI1 SLP373

CYQR;2013-10-28 21:00;CYQR 282100Z 14005KT 15SM BKN030 M03/M11 A3049 RMK SC7 SLP363

CYQR;2013-10-28 22:00;CYQR 282200Z 09003KT 15SM BKN031 M04/M11 A3048 RMK SC7 SLP364

CYQR;2013-10-28 23:00;CYQR 282300Z 20005KT 15SM BKN031 BKN250 M05/M11 A3046 RMK SC5CI1 SLP356

CYQR;2013-10-29 00:00;CYQR 290000Z 19007KT 15SM FEW029 SCT250 M07/M12 A3044 RMK SC2CI2 SLP351

CYQR;2013-10-29 01:00;CYQR 290100Z 20006KT 15SM FEW029 SCT250 M09/M12 A3045 RMK SC2CI2 SLP355

CYQR;2013-10-29 02:00;CYQR 290200Z 20005KT 15SM SCT029 BKN250 M09/M12 A3045 RMK SC3CI2 SLP355

CYQR;2013-10-29 03:00;CYQR 290300Z 16005KT 15SM SKC M10/M13 A3041 RMK SLP343

CYQR;2013-10-29 04:00;CYQR 290400Z 12005KT 15SM SKC M10/M13 A3040 RMK SLP339

CYQR;2013-10-29 05:00;CYQR 290500Z 15007KT 15SM SKC M12/M14 A3038 RMK SLP332

CYQR;2013-10-29 06:00;CYQR 290600Z 16008KT 15SM SKC M10/M12 A3037 RMK SLP327

CYQR;2013-10-29 07:00;CYQR 290700Z 16007KT 15SM SKC M11/M13 A3036 RMK SLP323

CYQR;2013-10-29 08:00;CYQR 290800Z 13006KT 15SM SKC M12/M14 A3034 RMK SLP316

CYQR;2013-10-29 09:00;CYQR 290900Z 15007KT 15SM SKC M11/M13 A3029 RMK PRESFR SLP298

CYQR;2013-10-29 10:00;CYQR 291000Z 15008KT 15SM SKC M11/M13 A3027 RMK SLP293

CYQR;2013-10-29 11:00;CYQR 291100Z 14008KT 15SM FEW250 M11/M12 A3023 RMK CI2 SLP280

CYQR;2013-10-29 12:00;CYQR 291200Z 13006KT 15SM SCT045 M10/M12 A3022 RMK SC4 FROIN SLP277

CYQR;2013-10-29 13:00;CYQR 291300Z 14008KT 15SM BKN045 M09/M11 A3019 RMK SC7 FROIN SLP267

CYQR;2013-10-29 14:00;CYQR 291400Z 13006KT 15SM BKN047 M08/M09 A3019 RMK SC7 SLP264

CYQR;2013-10-29 15:00;CYQR 291500Z 14008KT 15SM BKN043 M06/M08 A3017 RMK SC7 SLP259

CYQR;2013-10-29 16:00;CYQR 291600Z 17008KT 15SM OVC044 M04/M05 A3016 RMK SC8 SLP253

CYQR;2013-10-29 17:00;CYQR 291700Z 19011KT 15SM OVC044 M02/M04 A3015 RMK SC8 SLP249

CYQR;2013-10-29 18:00;CYQR 291800Z 18011KT 15SM BKN046 00/M04 A3012 RMK SC7 SLP236

CYQR;2013-10-29 19:00;CYQR 291900Z 20007KT 15SM FEW050 FEW280 02/M04 A3009 RMK SC1CI1 SLP223

CYQR;2013-10-29 20:00;CYQR 292000Z 18010G17KT 15SM BKN280 04/M04 A3005 RMK CI6 SLP209

CYQR;2013-10-29 21:00;CYQR 292100Z 19011KT 15SM BKN280 05/M05 A3001 RMK CI5 SLP198

CYQR;2013-10-29 22:00;CYQR 292200Z 20012G18KT 15SM BKN280 05/M04 A3000 RMK CI7 SLP192

CYQR;2013-10-29 23:00;CYQR 292300Z 21008KT 15SM BKN280 03/M05 A2998 RMK CI6 SLP188

CYQR;2013-10-30 00:00;CYQR 300000Z 17009KT 15SM FEW280 M01/M06 A2997 RMK CI1 SLP186

CYQR;2013-10-30 01:00;CYQR 300100Z 19007KT 15SM FEW280 M04/M07 A2997 RMK CI1 SLP186

CYQR;2013-10-30 02:00;CYQR 300200Z 19007KT 15SM SKC M05/M08 A2995 RMK SLP182

CYQR;2013-10-30 03:00;CYQR 300300Z 18009KT 15SM SKC M06/M07 A2995 RMK SLP178

CYQR;2013-10-30 04:00;CYQR 300400Z 17009KT 15SM SKC M05/M07 A2994 RMK SLP174

CYQR;2013-10-30 05:00;CYQR 300500Z 17008KT 15SM SKC M05/M07 A2994 RMK SLP171

CYQR;2013-10-30 06:00;CYQR 300600Z 17009KT 15SM SKC M06/M07 A2991 RMK SLP162

CYQR;2013-10-30 07:00;CYQR 300700Z 17009KT 15SM SKC M06/M07 A2990 RMK SLP155

CYQR;2013-10-30 08:00;CYQR 300800Z 16008KT 15SM SKC M06/M06 A2988 RMK SLP146

CYQR;2013-10-30 09:00;CYQR 300900Z 18007KT 15SM BKN036 M04/M04 A2986 RMK SC7 SLP140

CYQR;2013-10-30 10:00;CYQR 301000Z 17008KT 15SM FEW036 M04/M05 A2984 RMK SC2 SLP133

CYQR;2013-10-30 11:00;CYQR 301100Z 17008KT 15SM FEW032 M06/M06 A2983 RMK SC2 SLP132

CYQR;2013-10-30 12:00;CYQR 301200Z 18009KT 15SM SKC M06/M06 A2981 RMK SLP126

CYQR;2013-10-30 12:28;CYQR 301228Z 19006KT 15SM BKN014 M04/M04 A2981 RMK SC7 SLP124

CYQR;2013-10-30 13:00;CYQR 301300Z 18008KT 15SM BKN014 M03/M04 A2979 RMK SC7 SLP121

CYQR;2013-10-30 13:19;CYQR 301319Z 18007KT 15SM BKN017 M03/M04 A2979 RMK SC7 SLP119

CYQR;2013-10-30 14:00;CYQR 301400Z 17009KT 15SM SKC M05/M06 A2979 RMK SC TR SLP121

CYQR;2013-10-30 15:00;CYQR 301500Z 18009KT 15SM SKC M03/M04 A2977 RMK SC TR SLP114

CYQR;2013-10-30 16:00;CYQR 301600Z 21010KT 15SM SKC M00/M02 A2975 RMK SC TR SLP105

CYQR;2013-10-30 16:27;CYQR 301627Z 21012KT 15SM BKN010 01/M01 A2974 RMK SC7 SLP102

CYQR;2013-10-30 17:00;CYQR 301700Z 22011KT 15SM OVC010 01/M02 A2974 RMK SC8 SLP100

CYQR;2013-10-30 18:00;CYQR 301800Z 20013KT 15SM SCT013 03/M01 A2971 RMK SC4 SLP091

CYQR;2013-10-30 19:00;CYQR 301900Z 23009G17KT 15SM SKC 05/M01 A2968 RMK SC TR SLP079

CYQR;2013-10-30 20:00;CYQR 302000Z 24011G18KT 15SM SKC 07/M02 A2966 RMK CI TR SLP069

CYQR;2013-10-30 21:00;CYQR 302100Z 26008KT 15SM SKC 07/M02 A2964 RMK SLP060

CYQR;2013-10-30 22:00;CYQR 302200Z 25007KT 15SM SKC 07/M03 A2963 RMK CI TR SLP058

CYQR;2013-10-30 23:00;CYQR 302300Z 27007KT 15SM SCT240 05/M03 A2963 RMK CI4 SC TR SLP062

CYQR;2013-10-31 00:00;CYQR 310000Z 25004KT 15SM BKN140 BKN240 03/M04 A2962 RMK AC5CI2 SLP059

CYQR;2013-10-31 01:00;CYQR 310100Z 26008KT 15SM BKN150 01/M04 A2963 RMK AC7 SLP061

CYQR;2013-10-31 02:00;CYQR 310200Z 25005KT 15SM BKN140 M01/M05 A2962 RMK AC7 SLP060

CYQR;2013-10-31 03:00;CYQR 310300Z 25007KT 15SM OVC140 M00/M04 A2961 RMK AC8 SLP056

CYQR;2013-10-31 04:00;CYQR 310400Z 29006KT 15SM BKN130 01/M03 A2960 RMK AC7 SLP050

CYQR;2013-10-31 05:00;CYQR 310500Z 30005KT 15SM BKN140 00/M03 A2960 RMK AC7 SLP049

CYQR;2013-10-31 06:00;CYQR 310600Z 28004KT 15SM BKN140 01/M03 A2959 RMK AC7 SLP044

CYQR;2013-10-31 07:00;CYQR 310700Z 28005KT 15SM OVC090 01/M02 A2959 RMK AC8 SLP044

CYQR;2013-10-31 08:00;CYQR 310800Z 28007KT 15SM OVC100 00/M03 A2959 RMK AC8 SLP041

CYQR;2013-10-31 09:00;CYQR 310900Z 29007KT 15SM BKN120 M00/M03 A2959 RMK AC7 SLP043

CYQR;2013-10-31 10:00;CYQR 311000Z 29008KT 15SM BKN140 M01/M03 A2959 RMK AC7 SLP041

CYQR;2013-10-31 11:00;CYQR 311100Z 29005KT 15SM BKN140 M02/M04 A2958 RMK AC6 SLP042

CYQR;2013-10-31 12:00;CYQR 311200Z 28004KT 15SM BKN150 M02/M04 A2958 RMK AC7 SLP043

CYQR;2013-10-31 13:00;CYQR 311300Z 26004KT 15SM BKN140 BKN240 M04/M05 A2959 RMK AC5CI2 SLP050

CYQR;2013-10-31 14:00;CYQR 311400Z 27006KT 15SM SCT160 SCT240 M05/M06 A2959 RMK AC3CI1 SLP051

CYQR;2013-10-31 15:00;CYQR 311500Z 26004KT 15SM FEW160 M03/M04 A2959 RMK AC1 CI TR SLP047

CYQR;2013-10-31 16:00;CYQR 311600Z 27008KT 15SM FEW210 02/M02 A2957 RMK CI2 AC TR SLP039

CYQR;2013-10-31 17:00;CYQR 311700Z 27009KT 15SM BKN210 05/M01 A2956 RMK CI6 SLP034

CYQR;2013-10-31 18:00;CYQR 311800Z 27010KT 15SM BKN210 07/M01 A2956 RMK CI7 SLP031

CYQR;2013-10-31 19:00;CYQR 311900Z 30010KT 15SM SCT140 BKN210 10/M00 A2953 RMK AC3CI4 SLP020 DENSITY ALT 2100FT

CYQR;2013-10-31 20:00;CYQR 312000Z 32011KT 15SM SCT120 OVC230 09/M01 A2952 RMK AC3CI5 SLP016 DENSITY ALT 2000FT

CYQR;2013-10-31 21:00;CYQR 312100Z 30012KT 15SM SCT120 OVC240 10/M02 A2952 RMK AC3CI5 SLP015 DENSITY ALT 2100FT

CYQR;2013-10-31 22:00;CYQR 312200Z 29013KT 15SM BKN120 BKN200 10/M02 A2952 RMK AC5CI2 SLP016 DENSITY ALT 2200FT

CYQR;2013-10-31 23:00;CYQR 312300Z 27009KT 15SM SCT090 BKN120 OVC240 09/M02 A2952 RMK AC4AC1CI3 VIRGA SLP017 DENSITY ALT 2000FT

CYQR;2013-11-01 00:00;CYQR 010000Z 26009KT 15SM VCSH BKN060 BKN130 06/M02 A2952 RMK SC5AC2 SLP019

CYQR;2013-11-01 01:00;CYQR 010100Z 28014G19KT 15SM VCSH BKN050 BKN120 08/01 A2952 RMK SC6AC1 SLP020 DENSITY ALT 1900FT

CYQR;2013-11-01 02:00;CYQR 010200Z 30010KT 15SM OVC030 07/03 A2953 RMK SC8 SLP025

CYQR;2013-11-01 02:08;CYQR 010208Z 30014G20KT 15SM -SHRA OVC030 07/03 A2954 RMK SC8 SLP027

CYQR;2013-11-01 03:00;CYQR 010300Z 31015KT 15SM -SHRA OVC030 06/04 A2953 RMK SC8 SLP025

CYQR;2013-11-01 03:37;CYQR 010337Z 29012G18KT 15SM -SHRASN BKN045 OVC090 05/04 A2954 RMK SC6AC2 SLP028

CYQR;2013-11-01 04:00;CYQR 010400Z 29013G19KT 15SM -SHRASN BKN040 OVC100 05/03 A2955 RMK SC6AC2 SLP028

CYQR;2013-11-01 05:00;CYQR 010500Z 31017G24KT 15SM -SHRA BKN015 OVC030 04/03 A2957 RMK SC6SC2 SLP033

CYQR;2013-11-01 06:00;CYQR 010600Z 30016G22KT 15SM -SHRA BKN012 OVC075 04/03 A2958 RMK SC6AC2 SLP036

CYQR;2013-11-01 07:00;CYQR 010700Z 31016G22KT 15SM -SHRA BKN016 OVC035 04/03 A2960 RMK SC6SC2 SLP040

CYQR;2013-11-01 08:00;CYQR 010800Z 31016KT 15SM -SHRA OVC010 04/03 A2962 RMK SC8 SLP047

CYQR;2013-11-01 09:00;CYQR 010900Z 33015G26KT 15SM -SHRA OVC010 03/02 A2965 RMK SC8 SLP057

CYQR;2013-11-01 10:00;CYQR 011000Z 33015G22KT 15SM -SHRA OVC010 03/02 A2968 RMK SC8 SLP069

CYQR;2013-11-01 10:21;CYQR 011021Z 33017KT 12SM -SHRA OVC009 03/02 A2970 RMK SC8 CIG RAG SLP075

CYQR;2013-11-01 10:46;CYQR 011046Z 32015G21KT 10SM -SHRA OVC005 03/03 A2971 RMK SF8 SLP079

CYQR;2013-11-01 11:00;CYQR 011100Z 32017G23KT 10SM -SHRA OVC006 03/02 A2972 RMK SF8 SLP083

CYQR;2013-11-01 12:00;CYQR 011200Z 31020G28KT 15SM -SHRA OVC009 03/02 A2976 RMK SF8 SLP099

CYQR;2013-11-01 12:10;CYQR 011210Z 31019G25KT 15SM OVC010 03/02 A2976 RMK SC8 CIG RAG SLP100

CYQR;2013-11-01 12:36;CYQR 011236Z 31014G19KT 15SM SCT015 02/01 A2978 RMK SC3 SLP106

CYQR;2013-11-01 13:00;CYQR 011300Z 30014KT 15SM FEW016 SCT180 01/00 A2979 RMK SC2AC2 SLP110

CYQR;2013-11-01 14:00;CYQR 011400Z 30013G19KT 15SM FEW008 FEW180 SCT250 01/M00 A2982 RMK SF1AC1CI1 SLP122

CYQR;2013-11-01 15:00;CYQR 011500Z 30012KT 15SM FEW008 FEW180 SCT250 01/M00 A2985 RMK SF1AC1CI1 SLP132

CYQR;2013-11-01 16:00;CYQR 011600Z 30016KT 15SM SKC 02/00 A2987 RMK SF TR AC TR SLP138

CYQR;2013-11-01 17:00;CYQR 011700Z 31014G20KT 15SM FEW011 FEW040 SCT080 SCT250 04/01 A2988 RMK SF1SC1AC1CI1 SLP140

CYQR;2013-11-01 18:00;CYQR 011800Z 30014KT 15SM FEW013 FEW035 SCT080 SCT250 05/01 A2989 RMK SF1SC1AC1CI1 SLP143

CYQR;2013-11-01 19:00;CYQR 011900Z 30016G22KT 15SM VCSH FEW020 SCT040 SCT250 07/02 A2990 RMK CU1SC2CI1 SLP144

CYQR;2013-11-01 20:00;CYQR 012000Z 29011KT 15SM VCSH FEW020 SCT080 BKN250 07/02 A2989 RMK CU1AC3CI1 CVCTV CLD EMBD SLP143

CYQR;2013-11-01 21:00;CYQR 012100Z 28014KT 15SM FEW020 BKN100 08/02 A2988 RMK CU1AC4 CVCTV CLD EMBD SLP139

CYQR;2013-11-01 22:00;CYQR 012200Z 30015G24KT 15SM FEW020 FEW100 SCT250 09/01 A2989 RMK CU1AC1CI1 TCU ASOCTD SLP140

CYQR;2013-11-01 23:00;CYQR 012300Z 29011KT 15SM SKC 08/00 A2991 RMK SLP149

CYQR;2013-11-02 00:00;CYQR 020000Z 29008KT 15SM SKC 04/M01 A2992 RMK AC TR CI TR SLP157

CYQR;2013-11-02 00:12;CYQR 020012Z 28009KT 15SM SKC 02/M01 A2993 RMK AC TR CI TR SLP159

CYQR;2013-11-02 01:00;CYQR 020100Z 28008KT 15SM SKC 02/M02 A2993 RMK CI TR SLP163

CYQR;2013-11-02 02:00;CYQR 020200Z 33003KT 15SM SKC M01/M03 A2994 RMK SLP167

CYQR;2013-11-02 03:00;CYQR 020300Z 22005KT 220V300 15SM SKC M02/M04 A2994 RMK SLP169

CYQR;2013-11-02 04:00;CYQR 020400Z 27008KT 15SM SKC M04/M05 A2994 RMK SLP169

CYQR;2013-11-02 05:00;CYQR 020500Z 26008KT 15SM SKC M03/M05 A2995 RMK SLP168

CYQR;2013-11-02 06:00;CYQR 020600Z 26010KT 15SM SKC M03/M05 A2995 RMK SLP171

CYQR;2013-11-02 07:00;CYQR 020700Z 26006KT 15SM SKC M04/M06 A2996 RMK SLP173

CYQR;2013-11-02 08:00;CYQR 020800Z 26006KT 15SM SKC M05/M07 A2997 RMK SLP176

CYQR;2013-11-02 09:00;CYQR 020900Z 26006KT 15SM SKC M04/M06 A2996 RMK SLP173

CYQR;2013-11-02 10:00;CYQR 021000Z 00000KT 15SM SKC M04/M06 A2996 RMK SLP171

CYQR;2013-11-02 11:00;CYQR 021100Z 24005KT 15SM SKC M04/M06 A2995 RMK SLP169

CYQR;2013-11-02 12:00;CYQR 021200Z 19005KT 15SM SKC M06/M07 A2996 RMK SLP175

CYQR;2013-11-02 13:00;CYQR 021300Z 16003KT 15SM SKC M05/M07 A2994 RMK SLP169

CYQR;2013-11-02 14:00;CYQR 021400Z 13005KT 15SM FEW100 FEW230 M07/M08 A2994 RMK AC1CI1 SLP173

CYQR;2013-11-02 15:00;CYQR 021500Z 12004KT 15SM FEW100 FEW250 M03/M05 A2994 RMK AC1CI1 SLP170

CYQR;2013-11-02 16:00;CYQR 021600Z 15005KT 15SM FEW100 FEW250 M00/M03 A2993 RMK AC1CI1 SLP166

CYQR;2013-11-02 17:00;CYQR 021700Z 14005KT 15SM FEW100 04/M02 A2990 RMK AC1 SLP154

CYQR;2013-11-02 18:00;CYQR 021800Z 15009KT 15SM FEW100 FEW230 07/M00 A2989 RMK AC1CI1 SLP148

CYQR;2013-11-02 19:00;CYQR 021900Z 16009KT 15SM SCT180 SCT250 09/M01 A2985 RMK AC3CI1 SLP133

CYQR;2013-11-02 20:00;CYQR 022000Z 16010KT 15SM FEW180 FEW250 12/M01 A2982 RMK AC1CI1 SLP121 DENSITY ALT 2000FT

CYQR;2013-11-02 21:00;CYQR 022100Z 17009KT 15SM FEW180 FEW210 BKN250 12/M03 A2979 RMK AC1CI1CI4 SLP111 DENSITY ALT 2000FT

CYQR;2013-11-02 22:00;CYQR 022200Z 17009KT 15SM FEW180 SCT220 BKN250 11/M03 A2977 RMK AC1CI2CI3 CC ASOCTD SLP105 DENSITY ALT 2000FT

CYQR;2013-11-02 23:00;CYQR 022300Z 15010KT 15SM SCT140 BKN180 BKN250 09/M03 A2976 RMK AC3AC2CI2 SLP103

CYQR;2013-11-03 05:00;CYQR 030500Z 11016KT 15SM SCT040 OVC075 06/M03 A2965 RMK SC3AC5 SLP058

CYQR;2013-11-03 06:00;CYQR 030600Z 12016G22KT 15SM OVC090 06/M03 A2962 RMK AC8 SLP048

CYQR;2013-11-03 07:00;CYQR 030700Z 11016G22KT 15SM OVC075 06/M03 A2959 RMK AC8 SLP037

CYQR;2013-11-03 08:00;CYQR 030800Z 12017G25KT 15SM BKN080 OVC130 06/M02 A2957 RMK AC6AC2 SLP028

CYQR;2013-11-03 09:00;CYQR 030900Z 13018G26KT 15SM OVC090 06/M02 A2956 RMK AC8 SLP025

CYQR;2013-11-03 10:00;CYQR 031000Z 13017G23KT 15SM OVC090 06/M02 A2954 RMK AC8 SLP019

CYQR;2013-11-03 11:00;CYQR 031100Z 13015KT 15SM OVC120 05/M02 A2953 RMK AC8 SLP016

CYQR;2013-11-03 12:00;CYQR 031200Z 13013KT 15SM OVC060 05/M02 A2953 RMK SC8 SLP018

CYQR;2013-11-03 13:00;CYQR 031300Z 14011KT 15SM OVC060 04/M01 A2951 RMK SC8 SLP011

CYQR;2013-11-03 14:00;CYQR 031400Z 13013KT 15SM OVC075 04/M01 A2949 RMK AC8 SLP004

CYQR;2013-11-03 15:00;CYQR 031500Z 14010G17KT 15SM BKN053 OVC100 04/M01 A2948 RMK SC5AC3 SLP002

CYQR;2013-11-03 16:00;CYQR 031600Z 16010G16KT 15SM BKN041 OVC100 04/M01 A2949 RMK SC7AC1 SLP004

CYQR;2013-11-03 16:30;CYQR 031630Z 14012KT 15SM -SHRA OVC038 03/00 A2948 RMK SC8 SLP003

CYQR;2013-11-03 17:00;CYQR 031700Z 16007KT 15SM -SHRA OVC033 03/01 A2948 RMK SC8 SLP002

CYQR;2013-11-03 18:00;CYQR 031800Z 16006KT 15SM -SHRA OVC014 04/01 A2948 RMK SC8 SLP003

CYQR;2013-11-03 18:44;CYQR 031844Z 20007KT 15SM BKN012 OVC028 05/02 A2949 RMK SC7SC1 SLP004

CYQR;2013-11-03 19:00;CYQR 031900Z 24007KT 15SM OVC011 05/03 A2949 RMK SC8 SLP003

CYQR;2013-11-03 19:07;CYQR 031907Z 24006KT 8SM -SHRA OVC009 05/03 A2949 RMK SC8 SLP003

CYQR;2013-11-03 19:38;CYQR 031938Z 24010KT 15SM OVC006 05/04 A2949 RMK SC8 SLP003

CYQR;2013-11-03 19:53;CYQR 031953Z 26010G16KT 15SM SCT006 OVC010 04/03 A2948 RMK SF4SC4 SLP003

CYQR;2013-11-03 20:00;CYQR 032000Z 27012KT 15SM FEW006 OVC017 05/03 A2948 RMK SF2SC6 SLP002

CYQR;2013-11-03 21:00;CYQR 032100Z 26016G21KT 15SM OVC020 04/M00 A2950 RMK SC8 PRESRR SLP010

CYQR;2013-11-03 22:00;CYQR 032200Z 24004KT 15SM OVC020 04/00 A2952 RMK SC8 SLP016

CYQR;2013-11-03 23:00;CYQR 032300Z 25010G17KT 15SM BKN023 04/M01 A2951 RMK SC7 SLP013

CYQR;2013-11-04 00:00;CYQR 040000Z 16004KT 15SM OVC035 03/M00 A2951 RMK SC8 SLP015

CYQR;2013-11-04 01:00;CYQR 040100Z 16007KT 15SM BKN027 OVC045 03/M01 A2951 RMK SC5SC3 SLP015

CYQR;2013-11-04 02:00;CYQR 040200Z 18008KT 15SM BKN029 OVC040 03/M01 A2950 RMK SC7SC1 SLP012

CYQR;2013-11-04 03:00;CYQR 040300Z 22009KT 15SM OVC024 03/00 A2950 RMK SC8 SLP011

CYQR;2013-11-04 04:00;CYQR 040400Z 21007KT 15SM BKN027 OVC038 03/M00 A2950 RMK SC7SC1 SLP010

CYQR;2013-11-04 05:00;CYQR 040500Z 23010KT 15SM SCT022 OVC031 02/M00 A2950 RMK SC3SC5 SLP012

CYQR;2013-11-04 05:06;CYQR 040506Z 24011KT 15SM BKN011 OVC028 02/00 A2950 RMK SC5SC3 VIS SW-W 4 SLP012

CYQR;2013-11-04 05:13;CYQR 040513Z 24011KT 10SM -DZ BKN006 OVC026 02/01 A2950 RMK SF7SC1 SLP011

CYQR;2013-11-04 06:00;CYQR 040600Z 27014KT 15SM -SN BKN008 OVC025 01/00 A2951 RMK SF7SC1 SLP016

CYQR;2013-11-04 07:00;CYQR 040700Z 27018G26KT 15SM -SN OVC008 M01/M02 A2953 RMK SF8 SLP023

CYQR;2013-11-04 08:00;CYQR 040800Z 28019G26KT 6SM -SN OVC010 M02/M02 A2954 RMK SF8 CIG VRB 8-12 SLP026

CYQR;2013-11-04 09:00;CYQR 040900Z 28023G29KT 10SM -SN OVC012 M02/M04 A2956 RMK SC8 SLP034

CYQR;2013-11-04 10:00;CYQR 041000Z 29023G31KT 15SM -SN OVC013 M02/M04 A2958 RMK SC8 SLP043

CYQR;2013-11-04 11:00;CYQR 041100Z 29022G32KT 15SM -SN OVC013 M03/M05 A2960 RMK SC8 SLP050

CYQR;2013-11-04 12:00;CYQR 041200Z 29024G31KT 12SM -SN OVC013 M03/M05 A2964 RMK SC8 SLP063

CYQR;2013-11-04 12:45;CYQR 041245Z 29023G38KT 10SM -FZDZ -SN OVC013 M04/M05 A2965 RMK SC8 SLP068

CYQR;2013-11-04 13:00;CYQR 041300Z 30025G33KT 8SM -FZDZ -SN OVC013 M04/M06 A2965 RMK SC8 SLP070

CYQR;2013-11-04 13:38;CYQR 041338Z 30025G33KT 8SM -FZDZ -SN OVC015 M04/M06 A2967 RMK SC8 SLP076

CYQR;2013-11-04 14:00;CYQR 041400Z 29022G34KT 5SM -FZDZ -SN DRSN OVC018 M04/M06 A2969 RMK SC8 SLP081

CYQR;2013-11-04 14:06;CYQR 041406Z 29022G31KT 2SM -FZDZ -SN DRSN OVC013 M04/M06 A2969 RMK SC8 SLP081

CYQR;2013-11-04 14:14;CYQR 041414Z 29023G33KT 3/4SM -FZDZ -SN DRSN OVC013 M04/M06 A2969 RMK SC8 SLP083

CYQR;2013-11-04 14:43;CYQR 041443Z 29020G27KT 3/4SM -SN DRSN OVC015 M04/M05 A2971 REFZDZ RMK SC8 SLP089

CYQR;2013-11-04 15:00;CYQR 041500Z 29020G28KT 5/8SM -SN DRSN SCT005 OVC010 M05/M06 A2972 REFZDZ RMK SF3SC5 SLP093

CYQR;2013-11-04 15:15;CYQR 041515Z 29022G28KT 3/4SM -SN DRSN FEW005 OVC016 M05/M06 A2973 RMK SF2SC6 SLP095

CYQR;2013-11-04 15:41;CYQR 041541Z 29022G30KT 2SM R13/3000FT/N -SN DRSN FEW005 OVC015 M05/M06 A2974 RMK SF2SC6 SLP099

CYQR;2013-11-04 16:29;CYQR 041629Z 29018G29KT 4SM -SN DRSN FEW005 OVC017 M05/M07 A2975 RMK SF2SC6 SLP104

CYQR;2013-11-04 17:00;CYQR 041700Z 29026G33KT 4SM -SN DRSN OVC020 M05/M07 A2976 RMK SC8 SLP108

CYQR;2013-11-04 18:00;CYQR 041800Z 28023G33KT 6SM -SN DRSN OVC020 M05/M08 A2979 RMK SC8 SLP117

CYQR;2013-11-04 19:00;CYQR 041900Z 29023G31KT 10SM -SN DRSN OVC017 M05/M08 A2980 RMK SC8 SLP121

CYQR;2013-11-04 20:00;CYQR 042000Z 29023G29KT 12SM -SN DRSN OVC017 M05/M09 A2981 RMK SC8 SLP129

CYQR;2013-11-04 21:00;CYQR 042100Z 29024G32KT 15SM -SN DRSN BKN020 BKN100 M06/M09 A2983 RMK SC6AC1 SLP135

CYQR;2013-11-04 22:00;CYQR 042200Z 29022G29KT 8SM -SN DRSN BKN015 OVC080 M06/M09 A2985 RMK SC6AC2 SLP143

CYQR;2013-11-04 23:00;CYQR 042300Z 29020G26KT 15SM -SN DRSN BKN020 OVC080 M07/M10 A2987 RMK SC6AC2 SLP151

CYQR;2013-11-05 00:00;CYQR 050000Z 29020KT 10SM -SN DRSN BKN018 OVC062 M07/M10 A2990 RMK SC6SC2 SLP159

CYQR;2013-11-05 01:00;CYQR 050100Z 29017G23KT 15SM -SN DRSN FEW015 OVC040 M07/M09 A2991 RMK SC1SC7 SLP166

CYQR;2013-11-05 02:00;CYQR 050200Z 30018G26KT 12SM -SN DRSN OVC033 M07/M10 A2993 RMK SC8 SLP171

CYQR;2013-11-05 03:00;CYQR 050300Z 29017G23KT 8SM -SN DRSN FEW015 BKN030 M08/M10 A2994 RMK SC1SC6 SLP177

CYQR;2013-11-05 04:00;CYQR 050400Z 29015G22KT 12SM -SN DRSN FEW015 BKN034 M09/M11 A2996 RMK SC1SC6 SLP184

CYQR;2013-11-05 05:00;CYQR 050500Z 29014G21KT 15SM BKN030 M08/M11 A2998 RMK SC7 SLP189

CYQR;2013-11-05 06:00;CYQR 050600Z 29014G20KT 15SM BKN016 BKN050 M09/M11 A2999 RMK SC6SC1 SLP193

CYQR;2013-11-05 06:33;CYQR 050633Z 29013KT 15SM -SN BKN014 OVC035 M08/M10 A2999 RMK SC6SC2 SLP195

CYQR;2013-11-05 07:00;CYQR 050700Z 29017KT 15SM -SN OVC015 M08/M10 A3000 RMK SC8 SLP198

CYQR;2013-11-05 08:00;CYQR 050800Z 28013G19KT 15SM -SN OVC013 M08/M10 A3001 RMK SC8 SLP202

CYQR;2013-11-05 09:00;CYQR 050900Z 29015KT 15SM OVC013 M08/M11 A3003 RMK SC8 SLP207

CYQR;2013-11-05 10:00;CYQR 051000Z 28014KT 15SM OVC014 M08/M11 A3003 RMK SC8 SLP208

CYQR;2013-11-05 11:00;CYQR 051100Z 28013KT 15SM OVC014 M09/M11 A3004 RMK SC8 SLP211

CYQR;2013-11-05 12:00;CYQR 051200Z 26015KT 15SM -SN OVC014 M09/M12 A3005 RMK SC8 SLP216

CYQR;2013-11-05 13:00;CYQR 051300Z 27010G16KT 15SM -SN OVC013 M10/M12 A3005 RMK SC8 SLP218

CYQR;2013-11-05 14:00;CYQR 051400Z 28010KT 15SM -SN OVC015 M10/M12 A3006 RMK SC8 SLP220

CYQR;2013-11-05 15:00;CYQR 051500Z 29010KT 15SM -SN OVC016 M09/M12 A3007 RMK SC8 SLP225

CYQR;2013-11-05 16:00;CYQR 051600Z 28010KT 15SM -SN OVC017 M09/M12 A3009 RMK SC8 SLP231

CYQR;2013-11-05 17:00;CYQR 051700Z 24009KT 15SM -SN BKN015 M08/M11 A3009 RMK SC7 SLP230

CYQR;2013-11-05 17:33;CYQR 051733Z 28009KT 15SM BKN015 M09/M12 A3009 RMK SC7 SLP231

CYQR;2013-11-05 18:00;CYQR 051800Z 27006G15KT 15SM BKN015 M08/M11 A3009 RMK SC7 SLP230

CYQR;2013-11-05 19:00;CYQR 051900Z 27007KT 15SM SCT015 M08/M12 A3008 RMK SC4 SLP227

CYQR;2013-11-05 20:00;CYQR 052000Z 28005KT 15SM SKC M07/M11 A3007 RMK TR SC SLP222

CYQR;2013-11-05 21:00;CYQR 052100Z 26004KT 15SM SKC M07/M11 A3006 RMK TR SC SLP218

CYQR;2013-11-05 22:00;CYQR 052200Z 28003KT 15SM SKC M06/M12 A3005 RMK TR SC SLP216

CYQR;2013-11-05 23:00;CYQR 052300Z 30003KT 15SM SKC M07/M12 A3005 RMK TR SC SLP217

CYQR;2013-11-06 00:00;CYQR 060000Z 21002KT 15SM SKC M09/M12 A3005 RMK SLP217

CYQR;2013-11-06 01:00;CYQR 060100Z 36003KT 15SM SKC M10/M12 A3005 RMK TR SC SLP220

CYQR;2013-11-06 02:00;CYQR 060200Z 03006KT 15SM SKC M09/M12 A3004 RMK SC TR SLP216

CYQR;2013-11-06 03:00;CYQR 060300Z 01005KT 15SM BKN036 M10/M12 A3004 RMK SC6 SLP216

CYQR;2013-11-06 04:00;CYQR 060400Z 06003KT 15SM BKN041 M11/M13 A3005 RMK SC7 SLP219

CYQR;2013-11-06 05:00;CYQR 060500Z 00000KT 15SM BKN040 M11/M12 A3005 RMK SC7 SLP217

CYQR;2013-11-06 06:00;CYQR 060600Z 01003KT 15SM BKN037 M09/M11 A3004 RMK SC7 SLP212

CYQR;2013-11-06 07:00;CYQR 060700Z 02002KT 15SM BKN035 M09/M11 A3004 RMK SC7 SLP213

CYQR;2013-11-06 08:00;CYQR 060800Z 03004KT 15SM FEW036 M10/M12 A3003 RMK SC1 SLP209

CYQR;2013-11-06 09:00;CYQR 060900Z 02005KT 15SM SKC M11/M13 A3003 RMK SLP211

CYQR;2013-11-06 10:00;CYQR 061000Z 04006KT 15SM SKC M12/M14 A3004 RMK SLP215

CYQR;2013-11-06 11:00;CYQR 061100Z 07004KT 070V150 15SM SKC M13/M14 A3004 RMK SLP217

CYQR;2013-11-06 12:00;CYQR 061200Z 05007KT 15SM SKC M14/M16 A3004 RMK SLP218

CYQR;2013-11-06 13:00;CYQR 061300Z 00000KT 15SM SKC M16/M17 A3006 RMK TR SC SLP226

CYQR;2013-11-06 14:00;CYQR 061400Z 33006KT 15SM FEW280 M18/M20 A3008 RMK CI2 TR SC TR AC SLP236

CYQR;2013-11-06 15:00;CYQR 061500Z 33005KT 15SM FEW280 M16/M18 A3011 RMK CI1 TR AC SLP243

CYQR;2013-11-06 16:00;CYQR 061600Z 32003KT 15SM FEW100 FEW280 M13/M14 A3011 RMK AC1CI1 SLP242

CYQR;2013-11-06 17:00;CYQR 061700Z 28002KT 15SM FEW100 SCT280 M11/M13 A3011 RMK AC1CI2 SLP241

CYQR;2013-11-06 18:00;CYQR 061800Z 28005KT 15SM BKN100 M09/M12 A3012 RMK AC6 SLP243

CYQR;2013-11-06 19:00;CYQR 061900Z 32004KT 15SM BKN110 M08/M11 A3012 RMK AC7 SLP242

CYQR;2013-11-06 20:00;CYQR 062000Z 00000KT 15SM FEW120 M06/M12 A3012 RMK AC1 SLP241

CYQR;2013-11-06 21:00;CYQR 062100Z 24004KT 15SM SCT110 M05/M12 A3013 RMK AC4 SLP245

CYQR;2013-11-06 22:00;CYQR 062200Z 24004KT 15SM FEW110 M05/M13 A3014 RMK AC1 SLP248

CYQR;2013-11-06 23:00;CYQR 062300Z 16002KT 15SM BKN073 M06/M12 A3014 RMK AC7 SLP248

CYQR;2013-11-07 00:00;CYQR 070000Z 16005KT 15SM BKN078 M06/M11 A3013 RMK AC5 SLP247

CYQR;2013-11-07 01:00;CYQR 070100Z 16006KT 15SM BKN097 M07/M12 A3013 RMK AC5 SLP250

CYQR;2013-11-07 02:00;CYQR 070200Z 17006KT 15SM FEW060 BKN088 M06/M10 A3013 RMK SC1AC6 SLP250

CYQR;2013-11-07 03:00;CYQR 070300Z 18006KT 15SM FEW060 BKN070 M05/M09 A3012 RMK SC1AC6 SLP245

CYQR;2013-11-07 04:00;CYQR 070400Z 23005KT 15SM BKN085 M05/M07 A3012 RMK AC7 SLP241

CYQR;2013-11-07 05:00;CYQR 070500Z 26008KT 15SM -SN BKN042 OVC100 M01/M04 A3012 RMK SC6AC2 SLP238

CYQR;2013-11-07 06:00;CYQR 070600Z 26009KT 15SM BKN084 M01/M03 A3011 RMK AC7 SLP234

CYQR;2013-11-07 07:00;CYQR 070700Z 30006KT 15SM FEW080 M03/M04 A3012 RMK AC1 SLP237

CYQR;2013-11-07 08:00;CYQR 070800Z 28007KT 15SM SKC M05/M06 A3013 RMK SLP239

CYQR;2013-11-07 09:00;CYQR 070900Z 28009KT 15SM SKC M04/M06 A3014 RMK SLP241

CYQR;2013-11-07 10:00;CYQR 071000Z 29008KT 15SM SKC M06/M07 A3014 RMK SLP244

CYQR;2013-11-07 11:00;CYQR 071100Z 27008KT 15SM SKC M07/M08 A3015 RMK SLP249

CYQR;2013-11-07 12:00;CYQR 071200Z 28008KT 15SM SKC M08/M09 A3017 RMK SLP257

CYQR;2013-11-07 13:00;CYQR 071300Z 28005KT 15SM SKC M08/M09 A3017 RMK AC TR SLP259

CYQR;2013-11-07 14:00;CYQR 071400Z 28007KT 15SM FEW230 M07/M09 A3017 RMK CI2 SLP257

CYQR;2013-11-07 15:00;CYQR 071500Z 26007KT 15SM FEW230 M07/M09 A3019 RMK CI1 SLP261

CYQR;2013-11-07 16:00;CYQR 071600Z 26003KT 15SM FEW250 M05/M07 A3019 RMK CI1 AC TR SLP261

CYQR;2013-11-07 17:00;CYQR 071700Z 27007KT 15SM SCT250 M02/M05 A3018 RMK CI3 CONTRAILS SLP251

CYQR;2013-11-07 18:00;CYQR 071800Z 26005KT 15SM BKN250 M00/M05 A3016 RMK CI6 SLP245

CYQR;2013-11-07 19:00;CYQR 071900Z 24006KT 15SM SCT250 02/M04 A3014 RMK CI4 CC ASOCTD CONTRAILS SLP237

CYQR;2013-11-07 20:00;CYQR 072000Z 20005KT 15SM SCT250 04/M04 A3010 RMK CI3 CC ASOCTD CONTRAILS SLP223

CYQR;2013-11-07 21:00;CYQR 072100Z 19005KT 15SM FEW250 05/M03 A3007 RMK CI1 SLP213

CYQR;2013-11-07 22:00;CYQR 072200Z 17008KT 15SM SCT250 05/M03 A3005 RMK CI3 CONTRAILS SLP206

CYQR;2013-11-07 22:48;CYQR 072248Z 15008KT 15SM SCT250 02/M04 A3003 RMK CI3 CONTRAILS SLP199

CYQR;2013-11-07 23:00;CYQR 072300Z 14007KT 15SM SCT250 01/M04 A3002 RMK CI3 CONTRAILS SLP198

CYQR;2013-11-08 00:00;CYQR 080000Z 13009KT 15SM FEW250 M01/M05 A2999 RMK CI1 SLP191

CYQR;2013-11-08 01:00;CYQR 080100Z 14009KT 15SM SCT250 M00/M05 A2996 RMK CI3 SLP179

CYQR;2013-11-08 02:00;CYQR 080200Z 14012KT 15SM BKN140 OVC250 M00/M06 A2993 RMK AC6CI2 SLP170

CYQR;2013-11-08 03:00;CYQR 080300Z 14012KT 15SM OVC130 M01/M06 A2989 RMK AC8 PRESFR SLP155

CYQR;2013-11-08 04:00;CYQR 080400Z 13012KT 15SM OVC110 M00/M05 A2986 RMK AC8 SLP143

CYQR;2013-11-08 05:00;CYQR 080500Z 13013KT 15SM OVC084 M00/M05 A2983 RMK AC8 SLP130

CYQR;2013-11-08 06:00;CYQR 080600Z 15012KT 15SM -SN OVC063 00/M04 A2979 RMK SC8 SLP116

CYQR;2013-11-08 07:00;CYQR 080700Z 14017KT 15SM -SN OVC051 01/M04 A2974 RMK SC8 SLP095

CYQR;2013-11-08 08:00;CYQR 080800Z 13016G21KT 15SM -SN OVC036 01/M03 A2970 RMK SC8 SLP082

CYQR;2013-11-08 09:00;CYQR 080900Z 12017KT 8SM -SN OVC037 01/M02 A2966 RMK SC8 SLP068

CYQR;2013-11-08 10:00;CYQR 081000Z 11016KT 15SM -SN OVC050 01/M02 A2962 RMK SC8 SLP052

CYQR;2013-11-08 11:00;CYQR 081100Z 12013G20KT 15SM -SN OVC073 01/M03 A2960 RMK AC8 SLP048

CYQR;2013-11-08 12:00;CYQR 081200Z 13010KT 12SM -SN OVC042 01/M02 A2959 RMK SC8 SLP045

CYQR;2013-11-08 13:00;CYQR 081300Z 13011KT 10SM -SN OVC030 01/M01 A2957 RMK SC8 SLP038

CYQR;2013-11-08 14:00;CYQR 081400Z 14012G18KT 15SM -SN OVC023 02/M01 A2955 RMK SC8 SLP030

CYQR;2013-11-08 14:22;CYQR 081422Z 14012KT 15SM OVC023 02/M01 A2955 RMK SC8 SLP031

CYQR;2013-11-08 15:00;CYQR 081500Z 14012KT 15SM BKN027 BKN040 02/M01 A2955 RMK SC6SC1 SLP033

CYQR;2013-11-08 16:00;CYQR 081600Z 15012KT 15SM BKN020 02/M01 A2954 RMK SC7 SLP027

CYQR;2013-11-08 17:00;CYQR 081700Z 15011KT 15SM BKN017 03/M00 A2954 RMK SC7 SLP027

CYQR;2013-11-08 18:00;CYQR 081800Z 16008KT 15SM FEW017 BKN100 BKN250 04/01 A2952 RMK SC1AC5CI1 SLP021

CYQR;2013-11-08 19:00;CYQR 081900Z 25008KT 15SM OVC017 05/01 A2953 RMK SC8 SLP023

CYQR;2013-11-08 20:00;CYQR 082000Z 29019KT 15SM OVC015 04/01 A2956 RMK SC8 SLP033

CYQR;2013-11-08 20:06;CYQR 082006Z 29015G22KT 15SM OVC012 03/01 A2956 RMK SC8 SLP034

CYQR;2013-11-08 21:00;CYQR 082100Z 30015KT 15SM OVC010 03/01 A2958 RMK SC8 SLP042

CYQR;2013-11-08 21:12;CYQR 082112Z 30015G21KT 15SM OVC008 03/01 A2959 RMK SC8 SLP044

CYQR;2013-11-08 21:22;CYQR 082122Z 30018G23KT 12SM -RA OVC008 02/01 A2960 RMK SC8 SLP046

CYQR;2013-11-08 21:36;CYQR 082136Z 30015G23KT 6SM -DZ OVC005 02/01 A2961 RMK SF8 SLP051

CYQR;2013-11-08 21:51;CYQR 082151Z 30020KT 2 1/2SM -DZ OVC005 02/01 A2961 RMK SF8 SLP053

CYQR;2013-11-08 22:00;CYQR 082200Z 29018KT 2SM -DZ OVC004 01/01 A2962 RMK SF8 SLP056

CYQR;2013-11-08 22:19;CYQR 082219Z 30018G25KT 12SM OVC006 01/01 A2963 RMK SF8 SLP058

CYQR;2013-11-08 23:00;CYQR 082300Z 31018G24KT 15SM OVC008 01/00 A2965 RMK SF8 SLP064

CYQR;2013-11-09 00:00;CYQR 090000Z 30015G23KT 15SM OVC009 01/M01 A2969 RMK SF8 SLP078

CYQR;2013-11-09 00:12;CYQR 090012Z 31017G24KT 15SM OVC012 00/M01 A2969 RMK SF8 SLP081

CYQR;2013-11-09 01:00;CYQR 090100Z 30017G22KT 15SM OVC011 00/M02 A2971 RMK SF8 SLP088

CYQR;2013-11-09 02:00;CYQR 090200Z 30017G25KT 15SM FEW011 BKN020 M01/M02 A2974 RMK SF1SC6 SLP097

CYQR;2013-11-09 03:00;CYQR 090300Z 30020G27KT 15SM FEW012 OVC027 M01/M03 A2975 RMK SF2SC6 SLP102

CYQR;2013-11-09 04:00;CYQR 090400Z 30016G22KT 15SM FEW010 OVC025 M01/M03 A2978 RMK SF1SC7 SLP111

CYQR;2013-11-09 05:03;CYQR 090503Z 31014G22KT 15SM OVC009 M01/M03 A2980 RMK SC8 SLP119

CYQR;2013-11-09 05:30;CYQR 090530Z 31016G24KT 15SM -SN OVC008 M01/M03 A2980 RMK SC8 SLP120

CYQR;2013-11-09 06:00;CYQR 090600Z 31018G25KT 15SM -SN OVC009 M02/M04 A2982 RMK SC8 SLP123

CYQR;2013-11-09 07:00;CYQR 090700Z 31019G24KT 15SM -SN FEW008 OVC012 M03/M05 A2984 RMK SF1SC7 SLP131

CYQR;2013-11-09 08:00;CYQR 090800Z 31024KT 15SM -SN OVC013 M03/M05 A2987 RMK SC8 SLP143

CYQR;2013-11-09 09:00;CYQR 090900Z 31018G29KT 15SM -SN BKN012 OVC020 M03/M05 A2990 RMK SC7SC1 SLP155

CYQR;2013-11-09 10:00;CYQR 091000Z 32018KT 15SM -SN OVC013 M03/M06 A2995 RMK SC8 SLP170

CYQR;2013-11-09 11:00;CYQR 091100Z 31013G21KT 15SM FEW013 OVC023 M04/M06 A2998 RMK SC2SC6 SLP182

CYQR;2013-11-09 11:28;CYQR 091128Z 31017KT 15SM BKN013 OVC023 M04/M06 A3000 RMK SC7SC1 SLP189

CYQR;2013-11-09 12:00;CYQR 091200Z 31019G25KT 15SM OVC010 M04/M06 A3003 RMK SC8 SLP199

CYQR;2013-11-09 13:00;CYQR 091300Z 30016G23KT 15SM OVC010 M04/M06 A3006 RMK SC8 SLP212

CYQR;2013-11-09 14:00;CYQR 091400Z 31014KT 15SM OVC012 M04/M06 A3010 RMK SC8 SLP225

CYQR;2013-11-09 15:00;CYQR 091500Z 31014KT 15SM OVC015 M04/M06 A3013 RMK SC8 SLP237

CYQR;2013-11-09 16:00;CYQR 091600Z 31014G23KT 15SM OVC014 M04/M07 A3015 RMK SC8 SLP242

CYQR;2013-11-09 17:00;CYQR 091700Z 29014KT 15SM OVC014 M04/M07 A3017 RMK SC8 SLP251

CYQR;2013-11-09 18:00;CYQR 091800Z 32009KT 15SM OVC014 M04/M07 A3018 RMK SC8 SLP255

CYQR;2013-11-09 19:00;CYQR 091900Z 30010KT 15SM OVC013 M04/M07 A3018 RMK SC8 SLP253

CYQR;2013-11-09 20:00;CYQR 092000Z 25010KT 15SM OVC013 M03/M06 A3017 RMK SC8 SLP252

CYQR;2013-11-09 21:00;CYQR 092100Z 26011KT 15SM OVC014 M03/M05 A3018 RMK SC8 SLP252

CYQR;2013-11-09 21:43;CYQR 092143Z 26008KT 15SM OVC017 M02/M05 A3018 RMK SC8 SLP252

CYQR;2013-11-09 22:00;CYQR 092200Z 25007KT 15SM OVC017 M02/M05 A3017 RMK SC8 SLP251

CYQR;2013-11-09 23:00;CYQR 092300Z 27009KT 15SM BKN019 M01/M05 A3017 RMK SC7 SLP250

CYQR;2013-11-10 00:00;CYQR 100000Z 20005KT 15SM FEW020 FEW080 M05/M07 A3017 RMK SC1AC1 SLP252

CYQR;2013-11-10 01:00;CYQR 100100Z 16008KT 15SM SKC M06/M07 A3015 RMK SLP249

CYQR;2013-11-10 02:00;CYQR 100200Z 16010KT 15SM SKC M05/M07 A3014 RMK SLP241

CYQR;2013-11-10 03:00;CYQR 100300Z 15009KT 15SM SCT150 M05/M07 A3012 RMK AC3 SLP235

CYQR;2013-11-10 04:00;CYQR 100400Z 16009KT 15SM OVC130 M05/M06 A3010 RMK AC8 SLP230

CYQR;2013-11-10 05:00;CYQR 100500Z 16008KT 15SM BKN130 M04/M06 A3009 RMK AC7 SLP225

CYQR;2013-11-10 06:00;CYQR 100600Z 17006KT 15SM FEW070 OVC130 M04/M06 A3007 RMK AC2AC6 SLP218

CYQR;2013-11-10 07:00;CYQR 100700Z 20004KT 15SM FEW060 OVC300 M04/M06 A3008 RMK SC1CI7 SLP219

CYQR;2013-11-10 08:00;CYQR 100800Z 28010KT 15SM SCT160 BKN210 M03/M04 A3008 RMK AC3CI2 SLP219

CYQR;2013-11-10 09:00;CYQR 100900Z 33013KT 15SM SCT010 BKN120 M04/M05 A3010 RMK SC4AC3 SLP226

CYQR;2013-11-10 09:24;CYQR 100924Z 34015KT 15SM BKN009 OVC120 M04/M05 A3011 RMK SC6AC2 SLP231

CYQR;2013-11-10 10:00;CYQR 101000Z 34018KT 15SM OVC007 M04/M05 A3013 RMK SF8 SLP236

CYQR;2013-11-10 10:41;CYQR 101041Z 35017KT 15SM OVC012 M05/M07 A3016 RMK SC8 SLP248

CYQR;2013-11-10 11:00;CYQR 101100Z 36017G26KT 15SM OVC011 M05/M07 A3018 RMK SC8 PRESRR SLP253

CYQR;2013-11-10 12:00;CYQR 101200Z 01015G25KT 15SM OVC012 M07/M09 A3021 RMK SC8 SLP269

CYQR;2013-11-10 12:29;CYQR 101229Z 01013G20KT 15SM FEW012 M09/M11 A3023 RMK SC2 SLP276

CYQR;2013-11-10 13:00;CYQR 101300Z 01013G21KT 15SM BKN016 M09/M12 A3024 RMK SC6 SLP282

CYQR;2013-11-10 14:00;CYQR 101400Z 36011G16KT 15SM BKN016 OVC120 M11/M13 A3028 RMK SC5AC3 SLP294

CYQR;2013-11-10 14:56;CYQR 101456Z 35013KT 15SM -SN BKN015 OVC120 M11/M13 A3030 RMK SC7AC1 SLP301

CYQR;2013-11-10 15:00;CYQR 101500Z 34013KT 15SM -SN BKN015 OVC120 M11/M13 A3030 RMK SC7AC1 SLP302

CYQR;2013-11-10 15:52;CYQR 101552Z 33014KT 15SM BKN015 OVC120 M11/M14 A3031 RMK SC7AC1 SLP307

CYQR;2013-11-10 16:00;CYQR 101600Z 34013KT 15SM BKN015 OVC120 M12/M14 A3031 RMK SC7AC1 SLP308

CYQR;2013-11-10 17:00;CYQR 101700Z 35011KT 15SM BKN016 OVC120 M11/M15 A3035 RMK SC7AC1 SLP318

CYQR;2013-11-10 18:00;CYQR 101800Z 35010G16KT 15SM BKN017 BKN120 OVC280 M11/M15 A3035 RMK SC5AC1CI2 SLP320

CYQR;2013-11-10 19:00;CYQR 101900Z 35012KT 15SM SCT019 BKN120 OVC280 M11/M15 A3034 RMK SC4AC1CI3 SLP316

CYQR;2013-11-10 20:00;CYQR 102000Z 36013KT 15SM FEW020 BKN140 OVC280 M11/M16 A3035 RMK SC1AC4CI3 SLP319

CYQR;2013-11-10 21:00;CYQR 102100Z 34012KT 15SM FEW020 BKN190 OVC280 M11/M17 A3036 RMK SC1AC4CI3 SLP322

CYQR;2013-11-10 22:00;CYQR 102200Z 34011KT 15SM FEW020 SCT160 BKN280 M13/M17 A3038 RMK SC1AC3CI1 SLP331

CYQR;2013-11-10 23:00;CYQR 102300Z 32005KT 15SM FEW160 SCT280 M15/M18 A3039 RMK AC2CI1 SLP337

CYQR;2013-11-11 00:00;CYQR 110000Z 34005KT 15SM FEW160 M16/M19 A3040 RMK AC2 SLP345

CYQR;2013-11-11 01:00;CYQR 110100Z 34004KT 15SM FEW160 M17/M19 A3043 RMK AC1 SLP354

CYQR;2013-11-11 02:00;CYQR 110200Z 34005KT 15SM SKC M18/M21 A3045 RMK SLP362

CYQR;2013-11-11 03:00;CYQR 110300Z 30006KT 15SM SKC M19/M21 A3045 RMK SLP367

CYQR;2013-11-11 04:00;CYQR 110400Z 34006KT 15SM SKC M18/M20 A3047 RMK SLP372

CYQR;2013-11-11 05:00;CYQR 110500Z 32004KT 15SM SKC M19/M21 A3049 RMK SLP378

CYQR;2013-11-11 06:00;CYQR 110600Z 35003KT 15SM SKC M19/M20 A3050 RMK FROIN SLP383

CYQR;2013-11-11 07:00;CYQR 110700Z 30004KT 15SM SKC M20/M22 A3051 RMK FROIN SLP388

CYQR;2013-11-11 08:00;CYQR 110800Z 34004KT 15SM SKC M20/M22 A3051 RMK SLP386

CYQR;2013-11-11 09:00;CYQR 110900Z 04002KT 15SM SKC M18/M20 A3051 RMK FROIN SLP386

CYQR;2013-11-11 10:00;CYQR 111000Z 15003KT 15SM SKC M18/M20 A3052 RMK SLP391

CYQR;2013-11-11 11:00;CYQR 111100Z 17004KT 15SM SKC M20/M22 A3054 RMK SLP399

CYQR;2013-11-11 12:00;CYQR 111200Z 13004KT 15SM SKC M20/M22 A3055 RMK FROIN SLP404

CYQR;2013-11-11 13:00;CYQR 111300Z 15005KT 15SM SKC M20/M22 A3056 RMK FROIN SLP409

CYQR;2013-11-11 14:00;CYQR 111400Z 14006KT 15SM SKC M20/M23 A3057 RMK TR SC SLP413

CYQR;2013-11-11 15:00;CYQR 111500Z 14007KT 15SM SKC M17/M19 A3058 RMK TR SC SLP415

CYQR;2013-11-11 16:00;CYQR 111600Z 17006KT 15SM SKC M15/M17 A3058 RMK SC TR SLP412

CYQR;2013-11-11 17:00;CYQR 111700Z 16008KT 15SM BKN040 M12/M15 A3057 RMK SC5 SLP407

CYQR;2013-11-11 18:00;CYQR 111800Z 16009KT 15SM SKC M10/M14 A3056 RMK SC TR SLP403

CYQR;2013-11-11 19:00;CYQR 111900Z 18010KT 15SM FEW240 M07/M13 A3055 RMK CI1 SLP399

CYQR;2013-11-11 20:00;CYQR 112000Z 19009KT 15SM SKC M05/M14 A3054 RMK CI TR SLP391

CYQR;2013-11-11 21:00;CYQR 112100Z 20012KT 15SM FEW230 M04/M13 A3052 RMK CI1 SLP382

CYQR;2013-11-11 22:00;CYQR 112200Z 19010KT 15SM SKC M03/M12 A3051 RMK SLP380

CYQR;2013-11-11 23:00;CYQR 112300Z 19008KT 15SM FEW230 M05/M11 A3050 RMK CI1 SLP380

CYQR;2013-11-12 00:00;CYQR 120000Z 16009KT 15SM SKC M07/M12 A3050 RMK SLP382

CYQR;2013-11-12 01:00;CYQR 120100Z 17010KT 15SM SKC M09/M12 A3050 RMK SLP381

CYQR;2013-11-12 02:00;CYQR 120200Z 17009KT 15SM SKC M10/M12 A3049 RMK SLP378

CYQR;2013-11-12 03:00;CYQR 120300Z 17007KT 15SM SKC M10/M12 A3048 RMK SLP372

CYQR;2013-11-12 04:00;CYQR 120400Z 16008KT 15SM SKC M11/M12 A3047 RMK SLP369

CYQR;2013-11-12 05:00;CYQR 120500Z 16008KT 15SM SKC M10/M12 A3047 RMK SLP366

CYQR;2013-11-12 06:00;CYQR 120600Z 16009KT 15SM SKC M10/M12 A3046 RMK SLP362

CYQR;2013-11-12 07:00;CYQR 120700Z 16008KT 15SM SKC M11/M12 A3045 RMK SLP356

CYQR;2013-11-12 08:00;CYQR 120800Z 15009KT 15SM SKC M10/M12 A3044 RMK SLP350

CYQR;2013-11-12 09:00;CYQR 120900Z 15009KT 15SM SKC M11/M13 A3041 RMK SLP340

CYQR;2013-11-12 10:00;CYQR 121000Z 16009KT 15SM SKC M10/M12 A3040 RMK FROIN SLP336

CYQR;2013-11-12 11:00;CYQR 121100Z 13007KT 15SM SKC M12/M13 A3037 RMK SLP326

CYQR;2013-11-12 12:00;CYQR 121200Z 13007KT 15SM SKC M11/M13 A3035 RMK FROIN SLP322

CYQR;2013-11-12 13:00;CYQR 121300Z 13010KT 15SM SKC M12/M13 A3033 RMK FROIN SLP315

CYQR;2013-11-12 14:00;CYQR 121400Z 13010KT 15SM SKC M12/M13 A3030 RMK TR CI SLP308

CYQR;2013-11-12 15:00;CYQR 121500Z 13009KT 15SM SKC M10/M12 A3029 RMK TR CI SLP301

CYQR;2013-11-12 16:00;CYQR 121600Z 13008KT 15SM SKC M08/M10 A3028 RMK CI TR SLP296

CYQR;2013-11-12 17:00;CYQR 121700Z 14009KT 15SM SKC M04/M07 A3025 RMK CI TR SLP282

CYQR;2013-11-12 18:00;CYQR 121800Z 15013KT 15SM SKC 00/M04 A3020 RMK CI TR SLP266

CYQR;2013-11-12 19:00;CYQR 121900Z 16013KT 15SM FEW280 05/M01 A3015 RMK CI2 SLP244

CYQR;2013-11-12 20:00;CYQR 122000Z 17011G16KT 15SM FEW280 07/M01 A3011 RMK CI1 PRESFR SLP227

CYQR;2013-11-12 21:00;CYQR 122100Z 17012KT 15SM SCT230 08/M01 A3008 RMK CI4 CONTRAILS SLP216

CYQR;2013-11-12 22:00;CYQR 122200Z 18015KT 15SM SCT280 09/M02 A3004 RMK CI3 PRESFR SLP201

CYQR;2013-11-12 23:00;CYQR 122300Z 17011KT 15SM BKN280 06/M02 A3001 RMK CI7 AC TR CONTRAILS SLP194

CYQR;2013-11-13 00:00;CYQR 130000Z 17012KT 15SM BKN260 04/M02 A2997 RMK CI6 SLP183

CYQR;2013-11-13 01:00;CYQR 130100Z 17008KT 15SM BKN260 03/M02 A2995 RMK CI6 SLP176

CYQR;2013-11-13 01:07;CYQR 130107Z 17011KT 15SM BKN260 02/M02 A2994 RMK CC6 SLP175

CYQR;2013-11-13 02:00;CYQR 130200Z 18010KT 15SM FEW260 01/M02 A2993 RMK CI2 WND ESTD SLP170

CYQR;2013-11-13 03:00;CYQR 130300Z 20009KT 15SM BKN280 00/M02 A2992 RMK CI6 SLP167

CYQR;2013-11-13 04:00;CYQR 130400Z 17007KT 15SM SCT280 00/M03 A2990 RMK CI3 SLP157

CYQR;2013-11-13 05:00;CYQR 130500Z 22012KT 15SM BKN290 04/M01 A2986 RMK CI5 PRESFR SLP137

CYQR;2013-11-13 05:15;CYQR 130515Z 18010KT 15SM BKN290 02/M03 A2985 RMK CI5 SLP137

CYQR;2013-11-13 06:00;CYQR 130600Z 21011KT 15SM BKN290 03/M02 A2982 RMK CI5 SLP125

CYQR;2013-11-13 07:00;CYQR 130700Z 26015KT 15SM FEW160 SCT290 06/M01 A2982 RMK AC1CI3 SLP118

CYQR;2013-11-13 08:00;CYQR 130800Z 28011KT 15SM FEW180 SCT290 06/M00 A2982 RMK AC1CI3 PRESRR SLP116

CYQR;2013-11-13 09:00;CYQR 130900Z 28014G19KT 15SM FEW200 BKN290 07/01 A2983 RMK CI2CI4 PRESRR SLP119

CYQR;2013-11-13 10:00;CYQR 131000Z 29011KT 15SM BKN240 05/00 A2986 RMK CI5 SLP129

CYQR;2013-11-13 11:00;CYQR 131100Z 29010KT 15SM FEW220 03/M01 A2986 RMK CI2 SLP133

CYQR;2013-11-13 11:12;CYQR 131112Z 28010KT 15SM FEW220 02/M01 A2987 RMK CI2 SLP137

CYQR;2013-11-13 12:00;CYQR 131200Z 26011KT 15SM FEW220 01/M02 A2990 RMK CI1 SLP148

CYQR;2013-11-13 13:00;CYQR 131300Z 28010KT 15SM FEW060 01/M02 A2991 RMK SC1 SLP154

CYQR;2013-11-13 14:00;CYQR 131400Z 27008KT 15SM FEW060 M02/M03 A2991 RMK SC1 SLP159

CYQR;2013-11-13 15:00;CYQR 131500Z 28009KT 15SM BKN110 02/M01 A2992 RMK AC6 SLP160

CYQR;2013-11-13 16:00;CYQR 131600Z 28007KT 15SM BKN110 BKN170 03/M00 A2992 RMK AC6AC1 SLP158

CYQR;2013-11-13 17:00;CYQR 131700Z 28008KT 15SM FEW050 BKN110 05/01 A2992 RMK SC1AC6 SLP155

CYQR;2013-11-13 18:00;CYQR 131800Z 27007KT 15SM FEW050 BKN120 07/01 A2991 RMK SC1AC6 SLP150

CYQR;2013-11-13 19:00;CYQR 131900Z 26009KT 15SM BKN130 08/02 A2989 RMK AC7 TR SC VIRGA SLP139

CYQR;2013-11-13 20:00;CYQR 132000Z 27010KT 15SM BKN130 08/02 A2988 RMK AC6 SLP136

CYQR;2013-11-13 21:00;CYQR 132100Z 27007KT 15SM BKN090 08/02 A2987 RMK AC7 SLP134

CYQR;2013-11-13 22:00;CYQR 132200Z 29006KT 15SM BKN070 BKN150 08/02 A2987 RMK AC5AC2 VIRGA SLP133

CYQR;2013-11-13 23:00;CYQR 132300Z 29003KT 15SM BKN062 BKN090 06/01 A2986 RMK SC6AC1 SLP135

CYQR;2013-11-13 23:50;CYQR 132350Z 33006KT 15SM -SHRA BKN043 BKN075 05/01 A2987 RMK SC5AC2 SLP136

CYQR;2013-11-14 00:00;CYQR 140000Z 32006KT 15SM -SHRA OVC041 05/02 A2987 RMK SC8 SLP138

CYQR;2013-11-14 01:00;CYQR 140100Z 34006KT 15SM -SHRA BKN042 OVC080 04/03 A2987 RMK SC6AC2 SLP139

CYQR;2013-11-14 02:00;CYQR 140200Z 34003KT 15SM -SHRA BKN040 OVC080 03/03 A2985 RMK SC7AC1 SLP136

CYQR;2013-11-14 02:52;CYQR 140252Z 30005KT 15SM -DZ OVC069 03/02 A2986 RMK AC8 SLP139

CYQR;2013-11-14 03:00;CYQR 140300Z 26004KT 15SM -DZ SCT044 OVC070 03/03 A2986 RMK SC4AC4 SLP136

CYQR;2013-11-14 03:07;CYQR 140307Z 25005KT 15SM BKN047 OVC070 02/02 A2986 RMK SC5AC3 SLP137

CYQR;2013-11-14 04:00;CYQR 140400Z 27006KT 15SM BKN040 OVC070 02/02 A2987 RMK SC7AC1 SLP139

CYQR;2013-11-14 04:23;CYQR 140423Z 29006KT 12SM FEW002 OVC040 02/02 A2988 RMK SF1SC7 SLP142

CYQR;2013-11-14 05:00;CYQR 140500Z 29008KT 10SM FEW002 BKN034 BKN190 02/02 A2987 RMK SF1SC5CI1 SLP138

CYQR;2013-11-14 06:00;CYQR 140600Z 31007KT 15SM BKN028 02/01 A2987 RMK SC7 SLP137

CYQR;2013-11-14 07:00;CYQR 140700Z 28006KT 15SM BKN027 01/01 A2986 RMK SC7 SLP134

CYQR;2013-11-14 08:00;CYQR 140800Z 28006KT 15SM FEW025 BKN067 00/00 A2985 RMK SC2AC5 SLP130

CYQR;2013-11-14 09:00;CYQR 140900Z 28009KT 5SM BR OVC073 00/M00 A2985 RMK AC8 SLP130

CYQR;2013-11-14 10:00;CYQR 141000Z 25005KT 6SM BR OVC009 00/M00 A2983 RMK SF8 PRESFR SLP122

CYQR;2013-11-14 10:13;CYQR 141013Z 24004KT 7SM SCT008 OVC021 00/M00 A2982 RMK SF4SC4 SLP120

CYQR;2013-11-14 11:00;CYQR 141100Z 23005KT 15SM -FZRA BKN017 OVC110 M00/M00 A2980 RMK SC6AC2 SLP114

CYQR;2013-11-14 11:16;CYQR 141116Z 25005KT 4SM -FZRA BR BKN005 OVC027 M00/M00 A2980 RMK SF5SC3 SLP114

CYQR;2013-11-14 11:27;CYQR 141127Z 23006KT 2 1/2SM -FZRA BR OVC005 M00/M00 A2980 RMK SF8 SLP113

CYQR;2013-11-14 11:44;CYQR 141144Z 24011KT 3SM -FZRA BR BKN005 OVC025 M00/M00 A2980 RMK SF6SC2 SLP116

CYQR;2013-11-14 12:00;CYQR 141200Z 23010KT 5SM -FZRA BR FEW005 BKN026 OVC051 00/M00 A2979 RMK SF2SC3SC3 PRESFR SLP112

CYQR;2013-11-14 12:13;CYQR 141213Z 24007KT 4SM BR FEW005 BKN029 OVC060 00/00 A2978 REFZRA RMK SF1SC5SC2 SLP110

CYQR;2013-11-14 13:00;CYQR 141300Z 26005KT 12SM SCT007 OVC038 00/00 A2976 REFZRA RMK SF3SC5 SLP102

CYQR;2013-11-14 14:00;CYQR 141400Z 25009KT 12SM OVC034 01/00 A2976 RMK SC8 SLP102

CYQR;2013-11-14 15:00;CYQR 141500Z 29013KT 15SM OVC018 01/00 A2976 RMK SC8 SLP104

CYQR;2013-11-14 16:00;CYQR 141600Z 30011KT 15SM BKN018 01/01 A2977 RMK SC7 SLP105

CYQR;2013-11-14 16:30;CYQR 141630Z 31015G20KT 15SM OVC014 01/M01 A2978 RMK SC8 SLP108

CYQR;2013-11-14 17:00;CYQR 141700Z 34014G20KT 15SM OVC009 00/M01 A2979 RMK SC8 SLP113

CYQR;2013-11-14 17:40;CYQR 141740Z 32014G21KT 15SM OVC012 00/M02 A2979 RMK SC8 SLP115

CYQR;2013-11-14 18:00;CYQR 141800Z 31011G18KT 15SM OVC012 00/M01 A2979 RMK SC8 SLP115

CYQR;2013-11-14 19:00;CYQR 141900Z 30009KT 15SM OVC011 00/M02 A2977 RMK SC8 SLP107

CYQR;2013-11-14 20:00;CYQR 142000Z 28012KT 15SM OVC013 00/M02 A2978 RMK SC8 PRESRR SLP111

CYQR;2013-11-14 20:23;CYQR 142023Z 28012KT 15SM OVC008 M00/M01 A2976 RMK SC8 SLP104

CYQR;2013-11-14 21:00;CYQR 142100Z 30010KT 15SM OVC010 M00/M02 A2976 RMK SC8 SLP104

CYQR;2013-11-14 21:32;CYQR 142132Z 29007KT 15SM OVC016 00/M01 A2975 RMK SC8 SLP102

CYQR;2013-11-14 22:00;CYQR 142200Z 27005KT 15SM BKN022 00/M01 A2974 RMK SC7 SLP099

CYQR;2013-11-14 23:00;CYQR 142300Z 20007KT 15SM FEW021 SCT040 BKN100 M01/M01 A2972 RMK SC2SC2AC1 SLP093

CYQR;2013-11-15 00:00;CYQR 150000Z 17005KT 15SM FEW020 SCT110 M02/M02 A2971 RMK SC1AC3 SLP088

CYQR;2013-11-15 01:00;CYQR 150100Z 17007KT 15SM BKN030 OVC100 M02/M02 A2969 RMK SC6AC2 SLP081

CYQR;2013-11-15 02:00;CYQR 150200Z 19006KT 15SM OVC110 M02/M02 A2967 RMK AC8 SLP074

CYQR;2013-11-15 03:00;CYQR 150300Z 19006KT 15SM BKN110 M01/M02 A2965 RMK AC7 SLP067

CYQR;2013-11-15 04:00;CYQR 150400Z 18008KT 15SM BKN110 M01/M02 A2963 RMK AC7 SLP061

CYQR;2013-11-15 05:00;CYQR 150500Z 17008KT 15SM SCT070 BKN100 M01/M02 A2961 RMK AC3AC3 SLP055

CYQR;2013-11-15 06:00;CYQR 150600Z 16006KT 15SM BKN085 M02/M03 A2958 RMK AC5 SLP043

CYQR;2013-11-15 07:00;CYQR 150700Z 17009KT 15SM SCT072 M01/M02 A2956 RMK AC4 SLP035

CYQR;2013-11-15 08:00;CYQR 150800Z 18009KT 15SM FEW057 M03/M04 A2952 RMK SC1 SLP024

CYQR;2013-11-15 09:00;CYQR 150900Z 17007KT 15SM SKC M03/M04 A2949 RMK SLP013

CYQR;2013-11-15 10:00;CYQR 151000Z 19005KT 15SM SCT250 M04/M05 A2946 RMK CI3 SLP003

CYQR;2013-11-15 11:00;CYQR 151100Z 18006KT 15SM SCT250 M04/M05 A2944 RMK CI3 SLP997

CYQR;2013-11-15 12:00;CYQR 151200Z 19008KT 15SM SCT250 M04/M05 A2940 RMK CI3 SLP986

CYQR;2013-11-15 13:00;CYQR 151300Z 21010KT 15SM BKN220 M02/M03 A2938 RMK CI6 SLP978

CYQR;2013-11-15 14:00;CYQR 151400Z 22008KT 15SM BKN200 M03/M05 A2938 RMK CI5 SLP979

CYQR;2013-11-15 15:00;CYQR 151500Z 23013KT 15SM FEW100 BKN200 M01/M03 A2937 RMK AC2CI5 SLP973

CYQR;2013-11-15 16:00;CYQR 151600Z 25012G19KT 15SM BKN190 01/M02 A2936 RMK CI7 TR SC SLP969

CYQR;2013-11-15 17:00;CYQR 151700Z 24015G20KT 15SM FEW075 BKN200 02/M02 A2934 RMK AC1CI6 SLP959

CYQR;2013-11-15 18:00;CYQR 151800Z 25013KT 15SM FEW080 BKN250 04/M01 A2934 RMK AC1CI6 SLP960

CYQR;2013-11-15 19:00;CYQR 151900Z 27010G16KT 15SM FEW080 BKN250 04/M01 A2932 RMK AC1CI6 SLP953

CYQR;2013-11-15 20:00;CYQR 152000Z 28009KT 15SM SCT094 BKN220 05/M01 A2931 RMK AC4CI3 SLP950

CYQR;2013-11-15 21:00;CYQR 152100Z 29008KT 15SM BKN094 OVC250 04/M01 A2931 RMK AC5CI3 SLP950

CYQR;2013-11-15 22:00;CYQR 152200Z 28005KT 15SM BKN080 OVC220 04/M01 A2931 RMK AC6CI2 SLP949

CYQR;2013-11-15 23:00;CYQR 152300Z 29005KT 15SM FEW040 BKN070 03/M01 A2931 RMK SC1AC6 SLP952

CYQR;2013-11-15 23:24;CYQR 152324Z 30006KT 15SM FEW035 OVC060 02/M01 A2931 RMK SC1SC7 SLP952

CYQR;2013-11-16 00:00;CYQR 160000Z 32005KT 15SM FEW030 OVC060 01/M01 A2932 RMK SC1SC7 SLP955

CYQR;2013-11-16 00:15;CYQR 160015Z 31007KT 15SM -RA OVC060 01/M00 A2932 RMK SC8 SLP955

CYQR;2013-11-16 00:43;CYQR 160043Z 32008KT 15SM -RASN OVC038 01/M00 A2932 RMK SC8 SLP955

CYQR;2013-11-16 01:00;CYQR 160100Z 31008KT 12SM -RASN OVC035 01/M00 A2932 RMK SC8 SLP953

CYQR;2013-11-16 01:13;CYQR 160113Z 32006KT 12SM -SN OVC041 00/M00 A2932 RMK SC8 SLP954

CYQR;2013-11-16 01:37;CYQR 160137Z 31005KT 15SM RASN OVC051 00/M00 A2931 RMK SC8 SLP951

CYQR;2013-11-16 02:00;CYQR 160200Z 32003KT 15SM -RASN OVC045 00/00 A2931 RMK SC8 SLP950

CYQR;2013-11-16 02:31;CYQR 160231Z 00000KT 12SM -SN OVC025 00/00 A2931 RMK SC8 SLP950

CYQR;2013-11-16 02:50;CYQR 160250Z 27002KT 2 1/2SM -SN OVC019 00/M00 A2931 RMK SC8 SLP951

CYQR;2013-11-16 03:00;CYQR 160300Z 31002KT 2 1/2SM -SN OVC019 00/M00 A2931 RMK SC8 SLP949

CYQR;2013-11-16 03:40;CYQR 160340Z 28004KT 2SM -SN OVC009 00/00 A2931 RMK SC8 SLP952

CYQR;2013-11-16 03:44;CYQR 160344Z 28003KT 1 1/2SM -SN VV003 00/00 A2931 RMK SHGR8 SLP952

CYQR;2013-11-16 04:00;CYQR 160400Z 29002KT 1SM R13/P6000FT/U -SN VV003 00/00 A2931 RMK SN8 SLP949

CYQR;2013-11-16 05:00;CYQR 160500Z 35003KT 2SM -SN VV003 00/00 A2930 RMK SN8 SLP944

CYQR;2013-11-16 06:00;CYQR 160600Z 32003KT 2SM -SN VV003 M00/M00 A2930 RMK SN8 SNOW WET /S01/ SLP944

CYQR;2013-11-16 07:00;CYQR 160700Z 00000KT 2SM -SN VV004 M00/M00 A2929 RMK SN8 SLP942

CYQR;2013-11-16 08:00;CYQR 160800Z 04003KT 2 1/2SM -SN VV004 00/00 A2928 RMK SN8 SLP935

CYQR;2013-11-16 09:00;CYQR 160900Z 07003KT 4SM -SN OVC006 00/M00 A2929 RMK ST8 SLP940

CYQR;2013-11-16 10:00;CYQR 161000Z 09004KT 10SM -SN BKN006 OVC024 00/M00 A2929 RMK ST5SC3 SLP940

CYQR;2013-11-16 10:43;CYQR 161043Z 08005KT 10SM -SN BKN008 OVC019 00/00 A2929 RMK ST6SC2 SLP942

CYQR;2013-11-16 11:00;CYQR 161100Z 08005KT 6SM -SN BKN007 OVC019 00/M00 A2929 RMK ST6SC2 SLP942

CYQR;2013-11-16 12:00;CYQR 161200Z 08008KT 5SM -SN OVC006 00/M00 A2930 RMK ST8 SLP944

CYQR;2013-11-16 12:40;CYQR 161240Z 07010KT 2SM -SN OVC005 00/M00 A2929 RMK ST8 SLP941

CYQR;2013-11-16 13:00;CYQR 161300Z 06011KT 2SM -SN OVC005 M00/M00 A2929 RMK ST8 SLP942

CYQR;2013-11-16 13:47;CYQR 161347Z 07014KT 2 1/2SM -SN BKN006 OVC020 M01/M01 A2930 RMK ST6SC2 SLP946

CYQR;2013-11-16 14:00;CYQR 161400Z 07011KT 2SM -SN BKN008 OVC015 M01/M01 A2931 RMK ST5SC3 SLP950

CYQR;2013-11-16 15:00;CYQR 161500Z 06014KT 2SM -SN SCT007 OVC032 M01/M02 A2932 RMK ST4SC4 SLP954

CYQR;2013-11-16 15:17;CYQR 161517Z 06014G19KT 3SM -SN SCT007 OVC025 M01/M02 A2932 RMK ST3SC5 SLP954

CYQR;2013-11-16 16:00;CYQR 161600Z 06015KT 2 1/2SM -SN SCT008 OVC036 M01/M02 A2932 RMK ST3SC5 SLP956

CYQR;2013-11-16 17:00;CYQR 161700Z 06017KT 2 1/2SM -SN BKN008 OVC031 M01/M03 A2933 RMK ST5SC3 SLP959

CYQR;2013-11-16 18:00;CYQR 161800Z 07018G24KT 1SM R13/5500VP6000FT/D -SN BKN006 OVC030 M01/M02 A2933 RMK ST7SC1 SLP959

CYQR;2013-11-16 18:11;CYQR 161811Z 06017KT 3/4SM R13/5000FT/N -SN OVC006 M01/M02 A2933 RMK SN3ST5 SLP959

CYQR;2013-11-16 19:00;CYQR 161900Z 07016G23KT 1 1/2SM -SN OVC007 M02/M03 A2934 RMK SN2ST6 SLP961

CYQR;2013-11-16 20:00;CYQR 162000Z 07016G23KT 2SM -SN DRSN SCT007 OVC022 M02/M03 A2934 RMK ST3SC5 SLP962

CYQR;2013-11-16 21:00;CYQR 162100Z 06016G25KT 1 1/2SM -SN DRSN FEW007 OVC019 M03/M04 A2935 RMK ST2SC6 SLP965

CYQR;2013-11-16 21:47;CYQR 162147Z 06020KT 3/4SM R13/6000FT/N -SN DRSN OVC007 M04/M05 A2936 RMK SN2SC6 SLP968

CYQR;2013-11-16 22:00;CYQR 162200Z 06016G23KT 3/4SM R13/6000FT/N -SN DRSN OVC007 M04/M05 A2936 RMK SN2SC6 /S02/ SLP971

CYQR;2013-11-16 23:00;CYQR 162300Z 06017G24KT 3/4SM R13/P6000FT/U -SN DRSN OVC008 M05/M06 A2939 RMK SN2SC6 /S03/ SLP979

CYQR;2013-11-16 23:55;CYQR 162355Z 06017G26KT 1SM R13/P6000FT/U -SN DRSN OVC009 M05/M06 A2941 RMK SN1SC7 SLP989

CYQR;2013-11-17 00:00;CYQR 170000Z 06018KT 1 1/2SM -SN DRSN BKN010 OVC030 M05/M06 A2941 RMK SN1SC5SC2 SLP989

CYQR;2013-11-17 01:00;CYQR 170100Z 06016KT 1 1/2SM -SN DRSN OVC015 M05/M07 A2944 RMK SC8 SLP997

CYQR;2013-11-17 02:00;CYQR 170200Z 06017G22KT 1 1/2SM -SN DRSN OVC021 M06/M07 A2945 RMK SC8 SLP005

CYQR;2013-11-17 03:00;CYQR 170300Z 06017KT 2 1/2SM -SN DRSN OVC045 M06/M07 A2947 RMK SC8 SLP010

CYQR;2013-11-17 04:00;CYQR 170400Z 06016G22KT 2 1/2SM -SN DRSN SCT030 OVC048 M06/M07 A2949 RMK SC3SC5 SLP017

CYQR;2013-11-17 05:00;CYQR 170500Z 06014KT 4SM -SN DRSN OVC040 M06/M08 A2951 RMK SC8 SLP025

CYQR;2013-11-17 06:00;CYQR 170600Z 06013KT 4SM -SN DRSN OVC037 M06/M08 A2953 RMK SC8 SLP032

CYQR;2013-11-17 07:00;CYQR 170700Z 06014KT 6SM -SN DRSN OVC033 M07/M08 A2955 RMK SC8 SLP038

CYQR;2013-11-17 08:00;CYQR 170800Z 06015G21KT 4SM -SN DRSN OVC032 M07/M09 A2956 RMK SC8 SLP041

CYQR;2013-11-17 09:00;CYQR 170900Z 04010KT 4SM -SN DRSN OVC026 M07/M09 A2959 RMK SC8 /S01/ SLP053

CYQR;2013-11-17 10:00;CYQR 171000Z 05009G16KT 10SM -SN DRSN FEW016 OVC024 M07/M09 A2961 RMK SC1SC7 SLP060

CYQR;2013-11-17 11:00;CYQR 171100Z 05008KT 6SM -SN DRSN FEW016 OVC026 M07/M10 A2963 RMK SC1SC7 SLP069

CYQR;2013-11-17 12:00;CYQR 171200Z 04007KT 8SM -SN DRSN FEW016 OVC026 M08/M10 A2966 RMK SC1SC7 SLP079

CYQR;2013-11-17 13:00;CYQR 171300Z 06011KT 12SM -SN DRSN FEW013 OVC025 M08/M10 A2968 RMK SC1SC7 SLP087

CYQR;2013-11-17 14:00;CYQR 171400Z 06007KT 4SM -SN OVC025 M08/M10 A2971 RMK SC8 SLP098

CYQR;2013-11-17 15:00;CYQR 171500Z 05008KT 4SM -SN OVC025 M08/M10 A2973 RMK SC8 SLP106

CYQR;2013-11-17 16:00;CYQR 171600Z 06005KT 8SM -SN SCT013 BKN090 OVC250 M08/M10 A2976 RMK SC4AC2CI2 SLP114

CYQR;2013-11-17 17:00;CYQR 171700Z 09008KT 3SM -SN FEW015 BKN037 OVC250 M08/M10 A2977 RMK SC2SC5CI1 SLP120

CYQR;2013-11-17 18:00;CYQR 171800Z 09003KT 6SM -SN FEW020 BKN040 OVC250 M07/M10 A2979 RMK SC2SC4CI2 SLP124

CYQR;2013-11-17 18:53;CYQR 171853Z 16003KT 2 1/2SM -SN OVC012 M07/M10 A2980 RMK SC8 SLP129

CYQR;2013-11-17 19:00;CYQR 171900Z 15005KT 2 1/2SM -SN BKN012 OVC030 M07/M10 A2981 RMK SC7SC1 SLP132

CYQR;2013-11-17 19:16;CYQR 171916Z 15005KT 2SM -SN SCT012 OVC023 M07/M10 A2981 RMK SC3SC5 SLP131

CYQR;2013-11-17 19:51;CYQR 171951Z 14004KT 3SM -SN FEW012 BKN023 OVC250 M08/M09 A2981 RMK SC2SC3CI3 SLP131

CYQR;2013-11-17 20:00;CYQR 172000Z 11004KT 4SM -SN FEW012 BKN029 OVC250 M07/M09 A2981 RMK SC2SC3CI3 SLP131

CYQR;2013-11-17 21:00;CYQR 172100Z 16004KT 3SM -SN BKN012 OVC030 M08/M10 A2983 RMK SC5SC3 SLP138

CYQR;2013-11-17 22:00;CYQR 172200Z 19003KT 3SM -SN BKN012 OVC030 M08/M09 A2985 RMK SC5SC3 SLP145

CYQR;2013-11-17 23:00;CYQR 172300Z 19003KT 3SM -SN SCT015 OVC040 M08/M09 A2986 RMK SC3SC5 SLP151

CYQR;2013-11-18 00:00;CYQR 180000Z 19005KT 8SM -SN FEW020 BKN043 OVC250 M09/M10 A2988 RMK SC2SC4CI2 SLP158

CYQR;2013-11-18 01:00;CYQR 180100Z 17003KT 10SM -SN OVC042 M09/M10 A2989 RMK SC8 SLP161

CYQR;2013-11-18 02:00;CYQR 180200Z 18005KT 12SM -SN BKN016 OVC040 M09/M10 A2990 RMK SC5SC3 SLP166

CYQR;2013-11-18 02:36;CYQR 180236Z 18003KT 8SM SN OVC014 M09/M10 A2991 RMK SC8 SLP169

CYQR;2013-11-18 03:00;CYQR 180300Z 17003KT 10SM -SN OVC012 M09/M10 A2992 RMK SC8 SLP171

CYQR;2013-11-18 03:44;CYQR 180344Z 23005KT 0SM R13/P6000FT/N -SN SCT010 OVC018 M09/M10 A2992 RMK SC4SC4 SLP172

CYQR;2013-11-18 04:00;CYQR 180400Z 29004KT 12SM -SN OVC018 M09/M10 A2992 RMK SC8 SLP171

CYQR;2013-11-18 05:00;CYQR 180500Z 25005KT 12SM -SN OVC017 M13/M14 A2993 RMK SC8 SLP179

CYQR;2013-11-18 05:27;CYQR 180527Z 26006KT 15SM OVC013 M13/M14 A2993 RMK SC8 SLP179

CYQR;2013-11-18 06:00;CYQR 180600Z 26004KT 15SM OVC013 M14/M15 A2993 RMK SC8 SLP180

CYQR;2013-11-18 06:33;CYQR 180633Z 20007KT 10SM FEW002 OVC011 M17/M18 A2995 RMK SF2SC6 SLP187

CYQR;2013-11-18 06:37;CYQR 180637Z 19006KT 2SM BR BKN001 OVC011 M17/M18 A2994 RMK SF5SC3 SLP186

CYQR;2013-11-18 06:46;CYQR 180646Z 20005KT 3/4SM R13/P6000FT/N BR VV001 M17/M19 A2994 RMK FG8 SLP186

CYQR;2013-11-18 07:00;CYQR 180700Z 23004KT 3/4SM R13/P6000FT/N BR VV001 M17/M19 A2994 RMK FG8 SLP186

CYQR;2013-11-18 07:08;CYQR 180708Z 24003KT 1/2SM R13/3000VP6000FT/D FZFG VV001 M17/M18 A2994 RMK FG8 SLP184

CYQR;2013-11-18 07:18;CYQR 180718Z 00000KT 1/2SM R13/2200FT/D FZFG VV003 M17/M18 A2994 RMK FG8 VV VRB 2-4 SLP183

CYQR;2013-11-18 07:47;CYQR 180747Z 20005KT 4SM R13/5500VP6000FT/U BR OVC002 M17/M19 A2994 RMK ST8 SLP184

CYQR;2013-11-18 08:00;CYQR 180800Z 20006KT 4SM BR OVC003 M16/M18 A2994 RMK ST8 SLP184

CYQR;2013-11-18 09:00;CYQR 180900Z 00000KT 3SM BR OVC003 M14/M16 A2995 RMK ST8 SLP186

CYQR;2013-11-18 10:00;CYQR 181000Z 10002KT 2 1/2SM BR OVC003 M13/M15 A2995 RMK ST8 SLP185

CYQR;2013-11-18 10:41;CYQR 181041Z 14006KT 6SM BR OVC003 M12/M13 A2994 RMK ST8 SLP182

CYQR;2013-11-18 11:00;CYQR 181100Z 14008KT 8SM OVC003 M11/M12 A2994 RMK ST8 SLP181

CYQR;2013-11-18 12:00;CYQR 181200Z 14013KT 15SM OVC004 M11/M12 A2993 RMK ST8 SLP178

CYQR;2013-11-18 13:00;CYQR 181300Z 13012KT 15SM OVC004 M11/M12 A2994 RMK SF8 SLP183

CYQR;2013-11-18 13:25;CYQR 181325Z 13012KT 15SM FEW004 BKN082 M12/M13 A2994 RMK SF2AC5 SLP181

CYQR;2013-11-18 14:00;CYQR 181400Z 11011KT 10SM FEW002 SCT080 M13/M14 A2992 RMK SF1AC2 SLP177

CYQR;2013-11-18 15:00;CYQR 181500Z 12014KT 12SM FEW003 SCT070 M13/M14 A2992 RMK SF1AC2 SLP175

CYQR;2013-11-18 15:36;CYQR 181536Z 12014KT 15SM FEW003 BKN014 BKN070 M12/M13 A2992 RMK SF1SC5AC1 SLP175

CYQR;2013-11-18 16:00;CYQR 181600Z 12015KT 15SM FEW015 BKN030 BKN090 M11/M12 A2992 RMK SC1SC4AC2 SLP174

CYQR;2013-11-18 17:00;CYQR 181700Z 13017KT 15SM FEW025 M09/M10 A2991 RMK SC2 SLP173

CYQR;2013-11-18 18:00;CYQR 181800Z 13019G24KT 15SM FEW100 FEW290 M08/M09 A2989 RMK AC1CI1 SLP165

CYQR;2013-11-18 19:00;CYQR 181900Z 13020KT 15SM DRSN FEW040 FEW100 SCT250 M07/M09 A2987 RMK SC1AC1CI1 SLP161

CYQR;2013-11-18 20:00;CYQR 182000Z 13016KT 15SM DRSN FEW040 BKN290 M07/M09 A2987 RMK SC1CI4 SLP159

CYQR;2013-11-18 21:00;CYQR 182100Z 13015KT 15SM FEW040 BKN250 M06/M08 A2986 RMK SC1CI6 SLP154

CYQR;2013-11-18 22:00;CYQR 182200Z 13017KT 15SM FEW100 BKN250 M05/M07 A2985 RMK AC2CI4 SLP149

CYQR;2013-11-18 23:00;CYQR 182300Z 13014KT 15SM DRSN SCT100 BKN220 M06/M07 A2985 RMK AC3CI3 SLP148

CYQR;2013-11-19 00:00;CYQR 190000Z 13013KT 15SM FEW120 BKN220 M06/M07 A2984 RMK AC2CI4 SLP146

CYQR;2013-11-19 01:00;CYQR 190100Z 13015KT 15SM DRSN OVC083 M05/M06 A2982 RMK AC8 SLP139

CYQR;2013-11-19 02:00;CYQR 190200Z 13012KT 15SM DRSN OVC080 M04/M05 A2981 RMK AC8 SLP136

CYQR;2013-11-19 03:00;CYQR 190300Z 13011KT 15SM SCT077 OVC100 M04/M05 A2981 RMK AC3AC5 SLP135

CYQR;2013-11-19 04:00;CYQR 190400Z 13013KT 15SM BKN100 OVC250 M03/M04 A2979 RMK AC6CI2 SLP127

CYQR;2013-11-19 05:00;CYQR 190500Z 12013KT 15SM BKN085 M04/M05 A2978 RMK AC6 SLP121

CYQR;2013-11-19 06:00;CYQR 190600Z 13015KT 15SM BKN098 M04/M06 A2975 RMK AC6 SLP110

CYQR;2013-11-19 07:00;CYQR 190700Z 12014KT 15SM DRSN FEW250 M06/M07 A2973 RMK CI2 SLP103

CYQR;2013-11-19 08:00;CYQR 190800Z 12013KT 15SM SCT200 M06/M07 A2970 RMK CI4 SLP094

CYQR;2013-11-19 09:00;CYQR 190900Z 13014KT 15SM SCT200 M07/M08 A2968 RMK CI3 SLP086

CYQR;2013-11-19 10:00;CYQR 191000Z 13015KT 15SM SCT200 M07/M08 A2965 RMK CI3 SLP075

CYQR;2013-11-19 11:00;CYQR 191100Z 13015KT 15SM SCT200 M07/M09 A2961 RMK CI3 SLP065

CYQR;2013-11-19 12:00;CYQR 191200Z 12014KT 15SM SCT200 M07/M09 A2959 RMK CI3 SLP055

CYQR;2013-11-19 13:00;CYQR 191300Z 13015KT 15SM DRSN SCT200 M07/M08 A2955 RMK CI4 SLP042

CYQR;2013-11-19 14:00;CYQR 191400Z 13015KT 15SM FEW120 OVC200 M07/M08 A2953 RMK AC1CI7 SLP034

CYQR;2013-11-19 15:00;CYQR 191500Z 14012KT 15SM FEW120 OVC200 M07/M08 A2952 RMK AC1CI7 SLP031

CYQR;2013-11-19 16:00;CYQR 191600Z 13009KT 15SM BKN100 OVC200 M06/M07 A2951 RMK AC6CI2 SLP025

CYQR;2013-11-19 17:00;CYQR 191700Z 20005KT 15SM BKN100 OVC200 M05/M07 A2951 RMK AC7CI1 SLP026

CYQR;2013-11-19 17:51;CYQR 191751Z 30013KT 15SM FEW008 SCT110 BKN200 M06/M08 A2952 RMK SF1AC2CI4 SLP029

CYQR;2013-11-19 18:00;CYQR 191800Z 30015KT 15SM BKN007 BKN110 M06/M08 A2951 RMK SC6AC1 SLP028

CYQR;2013-11-19 19:00;CYQR 191900Z 29011KT 6SM BR OVC005 M06/M08 A2950 RMK SC8 SLP024

CYQR;2013-11-19 20:00;CYQR 192000Z 29017KT 15SM BKN009 OVC080 M07/M09 A2952 RMK SC7AC1 SLP031

CYQR;2013-11-19 21:00;CYQR 192100Z 29014G24KT 15SM FEW010 BKN093 M07/M09 A2952 RMK SF1AC6 SLP032

CYQR;2013-11-19 22:00;CYQR 192200Z 29019KT 10SM DRSN FEW010 BKN080 M08/M11 A2954 RMK SF1AC6 SLP041

CYQR;2013-11-19 23:00;CYQR 192300Z 29016G22KT 15SM DRSN FEW010 OVC084 M09/M11 A2956 RMK SC1AC7 SLP049

CYQR;2013-11-20 00:00;CYQR 200000Z 29018G24KT 15SM DRSN FEW016 BKN082 M09/M12 A2959 RMK SC1AC6 SLP058

CYQR;2013-11-20 01:00;CYQR 200100Z 28016G21KT 15SM DRSN BKN075 M10/M12 A2961 RMK AC7 SLP064

CYQR;2013-11-20 02:00;CYQR 200200Z 29013G19KT 15SM DRSN FEW016 SCT048 BKN100 M11/M13 A2963 RMK SC1SC2AC3 SLP074

CYQR;2013-11-20 02:14;CYQR 200214Z 30014G22KT 12SM -SHSN DRSN SCT017 BKN100 M10/M13 A2964 RMK SC4AC3 SLP077

CYQR;2013-11-20 03:00;CYQR 200300Z 29016G24KT 15SM -SHSN DRSN BKN039 BKN110 M11/M14 A2967 RMK SC6AC1 SLP086

CYQR;2013-11-20 04:00;CYQR 200400Z 30022G27KT 15SM -SHSN DRSN BKN042 OVC100 M11/M14 A2971 RMK SC6AC2 SLP099

CYQR;2013-11-20 05:00;CYQR 200500Z 29014G22KT 15SM DRSN FEW019 SCT040 M13/M15 A2974 RMK SC1SC2 PRESRR SLP112

CYQR;2013-11-20 06:00;CYQR 200600Z 31013KT 15SM DRSN BKN120 M13/M15 A2978 RMK AC6 PRESRR SLP125

CYQR;2013-11-20 07:00;CYQR 200700Z 32015G20KT 15SM DRSN SCT016 BKN120 M13/M16 A2981 RMK SC3AC3 SLP137

CYQR;2013-11-20 08:00;CYQR 200800Z 32018KT 15SM -SN DRSN OVC014 M13/M15 A2984 RMK SC8 PRESRR SLP147

CYQR;2013-11-20 09:00;CYQR 200900Z 32013G18KT 15SM -SN DRSN OVC014 M14/M16 A2987 RMK SC8 SLP159

CYQR;2013-11-20 09:17;CYQR 200917Z 31015KT 15SM DRSN BKN016 M14/M16 A2992 RMK SC7 PRESRR SLP174

CYQR;2013-11-20 10:00;CYQR 201000Z 32015KT 10SM -SN DRSN OVC014 M14/M17 A2992 RMK SC8 SLP176

CYQR;2013-11-20 10:31;CYQR 201031Z 33017KT 15SM DRSN SCT018 BKN120 M15/M18 A2993 RMK SC3AC4 SLP181

CYQR;2013-11-20 11:00;CYQR 201100Z 34012KT 15SM DRSN BKN120 M16/M18 A2993 RMK AC6 TR SC SLP181

CYQR;2013-11-20 11:42;CYQR 201142Z 31012KT 15SM DRSN BKN012 OVC120 M16/M19 A2996 RMK SC7AC1 SLP192

CYQR;2013-11-20 12:00;CYQR 201200Z 31012KT 15SM -SN DRSN OVC011 M17/M19 A2996 RMK SC8 SLP195

CYQR;2013-11-20 13:00;CYQR 201300Z 30009KT 15SM DRSN FEW012 OVC100 M17/M19 A3000 RMK SC1AC7 SLP207

CYQR;2013-11-20 13:28;CYQR 201328Z 30010KT 15SM BKN011 OVC100 M17/M19 A3001 RMK SC5AC3 SLP211

CYQR;2013-11-20 14:00;CYQR 201400Z 31012KT 15SM BKN012 OVC090 M17/M19 A3002 RMK SC7AC1 SLP215

CYQR;2013-11-20 14:45;CYQR 201445Z 31014KT 15SM SCT012 OVC074 M17/M20 A3006 RMK SC3AC5 SLP227

CYQR;2013-11-20 15:00;CYQR 201500Z 31012G17KT 15SM FEW010 OVC075 M17/M20 A3006 RMK SC2AC6 SLP231

CYQR;2013-11-20 15:20;CYQR 201520Z 32016KT 4SM -SN DRSN SCT012 OVC040 M17/M19 A3007 RMK SC3SC5 SLP232

CYQR;2013-11-20 15:36;CYQR 201536Z 32017KT 2SM -SN DRSN SCT010 OVC020 M17/M20 A3008 RMK SC3SC5 PRESRR SLP237

CYQR;2013-11-20 16:00;CYQR 201600Z 32016KT 1 1/2SM -SN DRSN SCT010 OVC020 M17/M19 A3011 RMK SC3SC5 PRESRR SLP245

CYQR;2013-11-20 16:43;CYQR 201643Z 32016KT 1SM R13/5500VP6000FT/D -SN DRSN OVC015 M17/M20 A3011 RMK SC8 SLP248

CYQR;2013-11-20 17:00;CYQR 201700Z 33015KT 1SM R13/6000FT/U -SN DRSN OVC016 M17/M19 A3011 RMK SC8 SLP247

CYQR;2013-11-20 17:18;CYQR 201718Z 33016KT 3/4SM R13/5500VP6000FT/D -SN DRSN VV015 M17/M19 A3012 RMK SN8 SLP250

CYQR;2013-11-20 17:51;CYQR 201751Z 32015KT 1 1/4SM -SN DRSN OVC019 M17/M19 A3013 RMK SC8 SLP254

CYQR;2013-11-20 18:00;CYQR 201800Z 32014KT 1 1/4SM -SN DRSN OVC015 M17/M19 A3013 RMK SC8 /S01/ SLP255

CYQR;2013-11-20 18:28;CYQR 201828Z 32014KT 1SM R13/5000FT/U -SN DRSN OVC022 M17/M19 A3013 RMK SN2SC6 SLP255

CYQR;2013-11-20 19:00;CYQR 201900Z 32015KT 1 1/4SM -SN DRSN OVC024 M17/M19 A3013 RMK SC8 SLP256

CYQR;2013-11-20 19:29;CYQR 201929Z 33012KT 2SM -SN DRSN OVC026 M17/M19 A3015 RMK SC8 SLP261

CYQR;2013-11-20 20:00;CYQR 202000Z 31015KT 2SM -SN DRSN OVC030 M17/M20 A3016 RMK SC8 SLP264

CYQR;2013-11-20 20:33;CYQR 202033Z 32012KT 4SM -SN DRSN OVC045 M17/M19 A3017 RMK SC8 SLP269

CYQR;2013-11-20 21:00;CYQR 202100Z 32012KT 3SM -SN DRSN BKN035 OVC220 M17/M19 A3018 RMK SC7CI1 SLP273

CYQR;2013-11-20 22:00;CYQR 202200Z 31012KT 12SM DRSN FEW020 BKN240 M17/M20 A3022 RMK SC1CI6 SLP287

CYQR;2013-11-20 23:00;CYQR 202300Z 31012KT 12SM DRSN FEW020 SCT080 SCT220 M18/M21 A3026 RMK SC1AC2CI1 SLP303

CYQR;2013-11-21 00:00;CYQR 210000Z 29010KT 15SM DRSN FEW140 SCT220 M20/M22 A3030 RMK AC1CI2 SLP318

CYQR;2013-11-21 01:00;CYQR 210100Z 30007KT 15SM FEW140 FEW220 M20/M23 A3033 RMK AC1CI1 SLP331

CYQR;2013-11-21 02:00;CYQR 210200Z 29007KT 15SM SKC M21/M24 A3036 RMK SC TR SLP340

CYQR;2013-11-21 03:00;CYQR 210300Z 32005KT 15SM SKC M24/M26 A3037 RMK SLP348

CYQR;2013-11-21 04:00;CYQR 210400Z 27005KT 15SM SKC M24/M26 A3040 RMK SLP356

CYQR;2013-11-21 05:00;CYQR 210500Z 25008KT 15SM SKC M26/M28 A3042 RMK SLP366

CYQR;2013-11-21 06:00;CYQR 210600Z 24006KT 15SM BKN008 M27/M29 A3044 RMK SC7 SLP373

CYQR;2013-11-21 06:12;CYQR 210612Z 24006KT 3SM BR OVC002 M27/M29 A3045 RMK SF8 SLP375

CYQR;2013-11-21 06:22;CYQR 210622Z 25005KT 1 1/2SM BR OVC002 M27/M29 A3045 RMK SF8 SLP377

CYQR;2013-11-21 07:00;CYQR 210700Z 26002KT 2SM BR OVC002 M25/M27 A3046 RMK SF8 CIG THIN OVRHD SLP376

CYQR;2013-11-21 07:22;CYQR 210722Z 19004KT 4SM BR BKN002 M25/M27 A3045 RMK SF7 SLP375

CYQR;2013-11-21 07:36;CYQR 210736Z 19002KT 15SM FEW002 M25/M28 A3045 RMK SF1 SLP375

CYQR;2013-11-21 08:00;CYQR 210800Z 21003KT 8SM SKC M25/M28 A3046 RMK SLP377

CYQR;2013-11-21 09:00;CYQR 210900Z 18003KT 15SM SKC M26/M28 A3046 RMK SLP378

CYQR;2013-11-21 10:00;CYQR 211000Z 16005KT 15SM SKC M26/M29 A3047 RMK SLP382

CYQR;2013-11-21 11:00;CYQR 211100Z 16008KT 15SM SKC M27/M30 A3044 RMK SLP372

CYQR;2013-11-21 12:00;CYQR 211200Z 14009KT 15SM SKC M27/M29 A3044 RMK FROIN SLP375

CYQR;2013-11-21 13:00;CYQR 211300Z 13012KT 15SM SKC M26/M29 A3043 RMK SLP372

CYQR;2013-11-21 14:00;CYQR 211400Z 14010KT 15SM SKC M27/M30 A3042 RMK SLP369

CYQR;2013-11-21 15:00;CYQR 211500Z 14013KT 15SM SKC M24/M27 A3040 RMK SLP362

CYQR;2013-11-21 16:00;CYQR 211600Z 14011G17KT 15SM BKN120 M22/M25 A3039 RMK AC7 SLP357

CYQR;2013-11-21 17:00;CYQR 211700Z 15012KT 15SM FEW090 M20/M22 A3038 RMK AC2 SLP353

CYQR;2013-11-21 18:00;CYQR 211800Z 15009KT 15SM BKN100 M17/M19 A3037 RMK AC6 SLP350

CYQR;2013-11-21 18:51;CYQR 211851Z 24012KT 15SM FEW090 BKN250 M12/M14 A3036 RMK AC1CI5 WSHFT 1840 SLP340

CYQR;2013-11-21 19:00;CYQR 211900Z 24011KT 15SM FEW090 BKN250 M12/M14 A3035 RMK AC1CI6 SLP336

CYQR;2013-11-21 20:00;CYQR 212000Z 23011KT 15SM BKN110 BKN250 M11/M16 A3034 RMK AC5CI2 SLP331

CYQR;2013-11-21 21:00;CYQR 212100Z 23009KT 15SM FEW100 BKN220 M12/M15 A3032 RMK AC2CI3 SLP326

CYQR;2013-11-21 22:00;CYQR 212200Z 26011KT 15SM BKN140 OVC220 M11/M15 A3032 RMK AC7CI1 SLP327

CYQR;2013-11-21 23:00;CYQR 212300Z 27008KT 15SM BKN140 OVC220 M11/M15 A3031 RMK AC7CI1 SLP321

CYQR;2013-11-22 00:00;CYQR 220000Z 26007KT 15SM OVC100 M10/M14 A3031 RMK AC8 SLP322

CYQR;2013-11-22 01:00;CYQR 220100Z 29008KT 15SM OVC090 M10/M14 A3031 RMK AC8 SLP321

CYQR;2013-11-22 02:00;CYQR 220200Z 32008KT 15SM -SN OVC055 M10/M13 A3031 RMK SC8 SLP324

CYQR;2013-11-22 02:34;CYQR 220234Z 32012KT 2SM -SN BKN019 OVC030 M10/M11 A3032 RMK SC5SC3 SLP327

CYQR;2013-11-22 03:00;CYQR 220300Z 32012KT 3SM -SN SCT020 OVC039 M10/M11 A3032 RMK SC3SC5 SLP325

CYQR;2013-11-22 04:00;CYQR 220400Z 32015KT 8SM -SN DRSN FEW020 SCT055 OVC075 M11/M13 A3034 RMK SC2SC2AC4 SLP328

CYQR;2013-11-22 04:37;CYQR 220437Z 32014KT 15SM DRSN OVC069 M11/M14 A3035 RMK AC8 SF TR SLP334

CYQR;2013-11-22 05:00;CYQR 220500Z 32015KT 15SM DRSN OVC068 M11/M15 A3036 RMK AC8 SF TR SLP336

CYQR;2013-11-22 05:44;CYQR 220544Z 34015KT 12SM -SHSN DRSN BKN017 OVC070 M12/M15 A3038 RMK SC6AC2 SLP342

CYQR;2013-11-22 06:00;CYQR 220600Z 35016KT 15SM -SHSN DRSN SCT015 BKN035 OVC070 M14/M16 A3039 RMK SC4SC3AC1 SLP343

CYQR;2013-11-22 06:21;CYQR 220621Z 34014G19KT 15SM DRSN FEW015 SCT083 OVC250 M14/M17 A3040 RMK SC1AC3CI4 SLP347

CYQR;2013-11-22 07:00;CYQR 220700Z 35011KT 15SM DRSN FEW015 BKN098 OVC250 M16/M19 A3041 RMK SC1AC4CI3 SLP351

CYQR;2013-11-22 08:00;CYQR 220800Z 34011KT 15SM SCT095 BKN250 M18/M22 A3043 RMK AC3CI3 SLP357

CYQR;2013-11-22 09:00;CYQR 220900Z 35010KT 15SM BKN250 M20/M23 A3045 RMK CI5 SLP367

CYQR;2013-11-22 10:00;CYQR 221000Z 34010KT 15SM SCT084 BKN250 M21/M24 A3049 RMK AC3CI2 SLP379

CYQR;2013-11-22 11:00;CYQR 221100Z 34009KT 15SM BKN085 M22/M25 A3051 RMK AC7 SLP389

CYQR;2013-11-22 11:18;CYQR 221118Z 35009KT 12SM -SN BKN085 M22/M25 A3052 RMK AC7 SLP392

CYQR;2013-11-22 12:00;CYQR 221200Z 33007KT 12SM OVC089 M23/M25 A3055 RMK AC8 SLP401

CYQR;2013-11-22 13:00;CYQR 221300Z 31005KT 15SM FEW100 M24/M26 A3059 RMK AC2 SLP415

CYQR;2013-11-22 14:00;CYQR 221400Z 33009KT 15SM SKC M26/M28 A3061 RMK AC TR SLP426

CYQR;2013-11-22 15:00;CYQR 221500Z 34008KT 15SM FEW090 M27/M29 A3065 RMK AC1 SLP439

CYQR;2013-11-22 16:00;CYQR 221600Z 32009KT 15SM SKC M26/M29 A3068 RMK SLP450

CYQR;2013-11-22 17:00;CYQR 221700Z 33007KT 15SM SKC M25/M28 A3071 RMK AC TR SLP462

CYQR;2013-11-22 18:00;CYQR 221800Z 32007KT 8SM IC FEW010 M25/M28 A3073 RMK SC1 SLP468

CYQR;2013-11-22 18:53;CYQR 221853Z 30005KT 15SM SKC M23/M26 A3073 RMK SC TR SLP468

CYQR;2013-11-22 19:00;CYQR 221900Z 29006KT 15SM SKC M23/M27 A3074 RMK SC TR SLP471

CYQR;2013-11-22 20:00;CYQR 222000Z 31007KT 15SM SKC M22/M26 A3074 RMK SC TR SLP475

CYQR;2013-11-22 21:00;CYQR 222100Z 31007KT 15SM SKC M22/M25 A3074 RMK SLP476

CYQR;2013-11-22 22:00;CYQR 222200Z 28006KT 15SM SKC M23/M26 A3075 RMK SLP482

CYQR;2013-11-22 23:00;CYQR 222300Z 28007KT 15SM SKC M25/M28 A3077 RMK AC TR SLP489

CYQR;2013-11-23 00:00;CYQR 230000Z 31004KT 15SM SKC M25/M27 A3077 RMK AC TR SLP492

CYQR;2013-11-23 01:00;CYQR 230100Z 01002KT 15SM SKC M24/M26 A3077 RMK SLP492

CYQR;2013-11-23 02:00;CYQR 230200Z 25003KT 15SM SKC M27/M30 A3078 RMK SLP498

CYQR;2013-11-23 03:00;CYQR 230300Z 09002KT 15SM FEW002 M27/M30 A3077 RMK ST2 SLP496

CYQR;2013-11-23 04:00;CYQR 230400Z 13004KT 15SM SKC M27/M29 A3076 RMK ST TR SLP493

CYQR;2013-11-23 05:00;CYQR 230500Z 16006KT 15SM SKC M31/M34 A3077 RMK SLP498

CYQR;2013-11-23 06:00;CYQR 230600Z 15005KT 12SM SKC M29/M32 A3077 RMK VIS 3SM S-SE SLP495

CYQR;2013-11-23 07:00;CYQR 230700Z 14008KT 15SM SKC M28/M31 A3075 RMK SLP486

CYQR;2013-11-23 08:00;CYQR 230800Z /////KT 15SM SKC M28/M31 A3074 RMK SLP482

CYQR;2013-11-23 09:00;CYQR 230900Z 12011KT 15SM SKC M27/M30 A3071 RMK SLP472

CYQR;2013-11-23 10:00;CYQR 231000Z 12014KT 15SM SKC M27/M30 A3069 RMK PRESFR SLP465

CYQR;2013-11-23 11:00;CYQR 231100Z 13015KT 15SM SKC M26/M29 A3067 RMK SLP460

CYQR;2013-11-23 12:00;CYQR 231200Z 13015KT 15SM BKN160 M25/M28 A3066 RMK AC6 SLP454

CYQR;2013-11-23 13:00;CYQR 231300Z 13016KT 15SM FEW120 BKN160 M24/M27 A3063 RMK AC1AC6 PRESFR SLP444

CYQR;2013-11-23 14:00;CYQR 231400Z 12013KT 15SM BKN054 BKN120 BKN250 M23/M25 A3061 RMK SC5AC1CI1 SLP439

CYQR;2013-11-23 15:00;CYQR 231500Z 12014KT 15SM BKN049 BKN120 M20/M23 A3059 RMK SC6AC1 SLP427

CYQR;2013-11-23 16:00;CYQR 231600Z 13016KT 15SM DRSN OVC040 M19/M21 A3056 RMK SC8 SLP415

CYQR;2013-11-23 17:00;CYQR 231700Z 14016KT 15SM DRSN BKN043 M17/M18 A3053 RMK SC7 SLP406

CYQR;2013-11-23 18:00;CYQR 231800Z 14016KT 15SM DRSN BKN048 M15/M17 A3050 RMK SC7 SLP393

CYQR;2013-11-23 19:00;CYQR 231900Z 14017KT 15SM DRSN FEW050 FEW220 M14/M16 A3045 RMK SC1CI1 SLP376

CYQR;2013-11-23 20:00;CYQR 232000Z 14016KT 15SM FEW050 FEW220 M12/M14 A3041 RMK SC1CI1 SLP360

CYQR;2013-11-23 21:00;CYQR 232100Z 13016KT 15SM DRSN BKN140 BKN220 M11/M14 A3038 RMK AC6CI1 SLP347

CYQR;2013-11-23 22:00;CYQR 232200Z 14017KT 15SM DRSN BKN150 M10/M13 A3033 RMK AC7 PRESFR SLP328

CYQR;2013-11-23 23:00;CYQR 232300Z 13017KT 15SM DRSN SCT140 SCT220 M10/M12 A3028 RMK AC3CI1 PRESFR SLP312

CYQR;2013-11-24 00:00;CYQR 240000Z 13018KT 15SM DRSN FEW120 M10/M12 A3026 RMK AC1 SLP303

CYQR;2013-11-24 01:00;CYQR 240100Z 13017KT 15SM DRSN FEW120 M10/M12 A3023 RMK AC1 SLP292

CYQR;2013-11-24 02:00;CYQR 240200Z 14017G22KT 15SM DRSN SKC M10/M13 A3018 RMK SLP276

CYQR;2013-11-24 03:00;CYQR 240300Z 14018KT 15SM DRSN BKN230 M10/M13 A3013 RMK CI5 PRESFR SLP254

CYQR;2013-11-24 04:00;CYQR 240400Z /////KT 15SM DRSN BKN220 M10/M12 A3007 RMK CI7 PRESFR SLP233

CYQR;2013-11-24 05:00;CYQR 240500Z 14013KT 15SM DRSN SCT220 M10/M12 A3005 RMK CI3 SLP223

CYQR;2013-11-24 06:00;CYQR 240600Z 14013KT 15SM DRSN FEW220 M10/M13 A3000 RMK CI2 SLP206

CYQR;2013-11-24 07:00;CYQR 240700Z 14013KT 15SM DRSN BKN240 M10/M12 A2995 RMK CI6 SLP189

CYQR;2013-11-24 08:00;CYQR 240800Z 15011KT 15SM DRSN BKN250 M10/M12 A2990 RMK CI6 SLP169

CYQR;2013-11-24 09:00;CYQR 240900Z 15009KT 15SM BKN220 M09/M12 A2988 RMK CI7 SLP162

CYQR;2013-11-24 10:00;CYQR 241000Z 11006KT 15SM OVC200 M10/M12 A2986 RMK CI8 SLP152

CYQR;2013-11-24 11:00;CYQR 241100Z 14005KT 090V180 15SM OVC210 M08/M10 A2983 RMK CI8 SLP141

CYQR;2013-11-24 12:00;CYQR 241200Z 23004KT 15SM BKN170 BKN220 M09/M11 A2983 RMK AC5CI2 SLP143

CYQR;2013-11-24 13:00;CYQR 241300Z 25004KT 15SM OVC095 M07/M09 A2983 RMK AC8 SLP141

CYQR;2013-11-24 14:00;CYQR 241400Z 27006KT 15SM OVC065 M03/M05 A2981 RMK SC8 SLP131

CYQR;2013-11-24 15:00;CYQR 241500Z 28012KT 15SM BKN080 BKN220 M02/M05 A2983 RMK AC5CI2 SLP138

CYQR;2013-11-24 16:00;CYQR 241600Z 27014KT 15SM FEW080 FEW220 M03/M05 A2984 RMK AC1CI1 SLP140

CYQR;2013-11-24 17:00;CYQR 241700Z 27012KT 15SM FEW100 FEW220 M01/M04 A2983 RMK AC1CI1 SLP136

CYQR;2013-11-24 18:00;CYQR 241800Z 27015KT 15SM FEW020 FEW220 M00/M04 A2983 RMK SC1CI1 CONTRAILS SLP135

CYQR;2013-11-24 19:00;CYQR 241900Z 28016KT 15SM FEW220 02/M03 A2982 RMK CI1 SLP133

CYQR;2013-11-24 20:00;CYQR 242000Z 28018G23KT 15SM BKN280 02/M02 A2983 RMK CI6 SLP134

CYQR;2013-11-24 21:00;CYQR 242100Z 28019KT 15SM BKN280 03/M02 A2983 RMK CI7 SLP133

CYQR;2013-11-24 22:00;CYQR 242200Z 29024G30KT 15SM BKN280 02/M02 A2985 RMK CI6 PRESRR SLP140

CYQR;2013-11-24 23:00;CYQR 242300Z 29016G22KT 15SM BKN280 01/M02 A2986 RMK CI6 SLP144

CYQR;2013-11-25 00:00;CYQR 250000Z 29017KT 15SM BKN280 00/M03 A2987 RMK CI6 SLP150

CYQR;2013-11-25 01:00;CYQR 250100Z 29014KT 15SM FEW280 M01/M04 A2989 RMK CI2 SLP156

CYQR;2013-11-25 02:00;CYQR 250200Z 30016G21KT 15SM FEW240 M01/M04 A2991 RMK CI1 SLP161

CYQR;2013-11-25 03:00;CYQR 250300Z 30016G23KT 15SM FEW240 M01/M05 A2993 RMK CI1 SLP167

CYQR;2013-11-25 04:00;CYQR 250400Z 30015KT 15SM SKC M02/M06 A2995 RMK SLP175

CYQR;2013-11-25 05:00;CYQR 250500Z 30015G20KT 15SM SKC M03/M06 A2997 RMK SLP180

CYQR;2013-11-25 06:00;CYQR 250600Z 28014KT 15SM FEW039 M04/M07 A2999 RMK SC1 SLP186

CYQR;2013-11-25 07:00;CYQR 250700Z 29014KT 15SM FEW039 M04/M07 A3000 RMK SC2 SLP188

CYQR;2013-11-25 08:00;CYQR 250800Z 29015KT 15SM FEW040 M05/M08 A3001 RMK SC1 SLP194

CYQR;2013-11-25 09:00;CYQR 250900Z 28012G19KT 15SM FEW037 M06/M09 A3003 RMK SC2 SLP199

CYQR;2013-11-25 10:00;CYQR 251000Z 29016KT 15SM SKC M06/M09 A3005 RMK SC TR SLP207

CYQR;2013-11-25 11:00;CYQR 251100Z 29015KT 15SM SKC M07/M09 A3006 RMK SLP212

CYQR;2013-11-25 12:00;CYQR 251200Z 29017G22KT 15SM OVC032 M06/M09 A3007 RMK SC8 SLP217

CYQR;2013-11-25 13:00;CYQR 251300Z 30016G21KT 15SM OVC030 M06/M09 A3010 RMK SC8 SLP227

CYQR;2013-11-25 14:00;CYQR 251400Z 31015KT 15SM SCT015 OVC028 M05/M08 A3012 RMK SC3SC5 SLP235

CYQR;2013-11-25 15:00;CYQR 251500Z 31014KT 15SM FEW016 BKN026 OVC040 M05/M08 A3014 RMK SC1SC6SC1 SLP240

CYQR;2013-11-25 16:00;CYQR 251600Z 30014G19KT 15SM OVC022 M05/M08 A3017 RMK SC8 SLP251

CYQR;2013-11-25 17:00;CYQR 251700Z 31014G20KT 15SM OVC023 M05/M07 A3020 RMK SC8 SLP262

CYQR;2013-11-25 18:00;CYQR 251800Z 32014KT 15SM OVC015 M05/M06 A3022 RMK SC8 SLP268

CYQR;2013-11-25 18:43;CYQR 251843Z 31013KT 15SM OVC010 M05/M06 A3022 RMK SC8 SLP269

CYQR;2013-11-25 19:00;CYQR 251900Z 32013KT 15SM OVC009 M05/M06 A3022 RMK SC8 SLP269

CYQR;2013-11-25 20:00;CYQR 252000Z 31013KT 15SM OVC009 M05/M06 A3023 RMK SC8 SLP274

CYQR;2013-11-25 20:34;CYQR 252034Z 32017G24KT 15SM OVC012 M05/M07 A3023 RMK SC8 SLP272

CYQR;2013-11-25 21:00;CYQR 252100Z 33019KT 15SM OVC016 M05/M08 A3023 RMK SC8 CIG RAG SLP276

CYQR;2013-11-25 22:00;CYQR 252200Z 33017KT 15SM OVC026 M06/M10 A3026 RMK SC8 CIG RAG SLP286

CYQR;2013-11-25 23:00;CYQR 252300Z 33014KT 15SM OVC025 M07/M11 A3028 RMK SC8 SLP295

CYQR;2013-11-26 00:00;CYQR 260000Z 31008KT 15SM BKN023 M08/M11 A3030 RMK SC7 SLP299

CYQR;2013-11-26 01:00;CYQR 260100Z 31008KT 15SM FEW020 M11/M13 A3031 RMK SC1 SLP305

CYQR;2013-11-26 02:00;CYQR 260200Z 30008KT 15SM FEW030 M13/M14 A3032 RMK SC1 SLP310

CYQR;2013-11-26 03:00;CYQR 260300Z 27007KT 15SM SKC M15/M15 A3034 RMK SLP318

CYQR;2013-11-26 04:00;CYQR 260400Z 29008KT 15SM FEW018 M14/M16 A3034 RMK SC1 SLP320

CYQR;2013-11-26 05:00;CYQR 260500Z 31007KT 15SM SKC M16/M17 A3036 RMK SLP327

CYQR;2013-11-26 06:00;CYQR 260600Z 32011KT 15SM SKC M14/M16 A3038 RMK SLP332

CYQR;2013-11-26 07:00;CYQR 260700Z 33006KT 15SM SKC M16/M17 A3040 RMK SLP339

CYQR;2013-11-26 08:00;CYQR 260800Z 30005KT 15SM SKC M16/M18 A3042 RMK SLP347

CYQR;2013-11-26 09:00;CYQR 260900Z 28004KT 15SM SKC M18/M20 A3042 RMK SLP351

CYQR;2013-11-26 10:00;CYQR 261000Z 29005KT 15SM SKC M21/M24 A3043 RMK SLP356

CYQR;2013-11-26 11:00;CYQR 261100Z 27009KT 15SM SKC M21/M23 A3043 RMK SLP357

CYQR;2013-11-26 12:00;CYQR 261200Z 32002KT 15SM SKC M20/M22 A3044 RMK SLP361

CYQR;2013-11-26 13:00;CYQR 261300Z 20004KT 15SM SKC M22/M25 A3044 RMK FROIN SLP365

CYQR;2013-11-26 13:56;CYQR 261356Z 24006KT 5SM IC SKC M22/M24 A3045 RMK SLP366

CYQR;2013-11-26 14:00;CYQR 261400Z 24006KT 5SM IC SKC M22/M24 A3045 RMK SLP367

CYQR;2013-11-26 14:06;CYQR 261406Z 25005KT 2SM IC SKC M22/M24 A3045 RMK IC4 SLP367

CYQR;2013-11-26 14:14;CYQR 261414Z 25004KT 1SM R13/5500VP6000FT/D IC SKC M22/M24 A3045 RMK IC6 SLP367

CYQR;2013-11-26 14:19;CYQR 261419Z 00000KT 3/4SM R13/5500VP6000FT/N IC SKC M22/M25 A3045 RMK IC7 SLP368

CYQR;2013-11-26 14:27;CYQR 261427Z 00000KT 1/2SM R13/2000FT/N FZFG SKC M21/M23 A3044 RMK FG4 SLP366

CYQR;2013-11-26 14:39;CYQR 261439Z 24003KT 3/8SM R13/1600FT/N FZFG SKC M21/M24 A3045 RMK FG6 SLP367

CYQR;2013-11-26 14:45;CYQR 261445Z 24003KT 1/4SM R13/1400FT/N FZFG SKC M22/M24 A3045 RMK FG7 SLP367

CYQR;2013-11-26 15:00;CYQR 261500Z 21002KT 1/4SM R13/1600V2000FT/N FZFG SKC M22/M24 A3044 RMK FG7 SLP368

CYQR;2013-11-26 15:26;CYQR 261526Z 11002KT 1/2SM R13/1400V2000FT/N FZFG FEW002 SCT270 M21/M23 A3044 RMK FG1SF1CI1 SLP365

CYQR;2013-11-26 15:30;CYQR 261530Z 00000KT 2SM R13/1600V2200FT/N BR FEW002 FEW270 M20/M22 A3044 RMK SF1CI1 SLP365

CYQR;2013-11-26 15:39;CYQR 261539Z 15002KT 8SM R13/2600VP6000FT/N IC VCFG FEW270 M20/M22 A3044 RMK CI2 SF TR SLP366

CYQR;2013-11-26 16:00;CYQR 261600Z 15004KT 12SM IC FEW270 M19/M21 A3044 RMK CI1 TRACE SF SLP364

CYQR;2013-11-26 17:00;CYQR 261700Z 15005KT 12SM IC FEW270 M17/M19 A3044 RMK CI1 SF TR SLP363

CYQR;2013-11-26 17:39;CYQR 261739Z 13007KT 12SM SCT150 BKN270 M15/M17 A3042 RMK AC4CI2 SLP357

CYQR;2013-11-26 18:00;CYQR 261800Z 13009KT 15SM FEW150 BKN270 M15/M17 A3041 RMK AC1CI6 SLP351

CYQR;2013-11-26 19:00;CYQR 261900Z 13008KT 15SM BKN270 M15/M17 A3038 RMK CI7 SLP341

CYQR;2013-11-26 20:00;CYQR 262000Z 13010KT 15SM BKN270 M13/M15 A3035 RMK CI7 SLP328

CYQR;2013-11-26 21:00;CYQR 262100Z 13009KT 15SM OVC270 M12/M15 A3032 RMK CI8 CONTRAILS SLP319

CYQR;2013-11-26 22:00;CYQR 262200Z 13014KT 15SM BKN270 M12/M14 A3029 RMK CI7 SLP311

CYQR;2013-11-26 23:00;CYQR 262300Z 14015G21KT 15SM BKN220 M11/M14 A3025 RMK CI7 SLP299

CYQR;2013-11-27 00:00;CYQR 270000Z 14017KT 15SM SCT140 BKN220 M10/M13 A3021 RMK AC4CI3 SLP284

CYQR;2013-11-27 01:00;CYQR 270100Z 14018KT 15SM SCT150 OVC220 M09/M12 A3016 RMK AC3CI5 SLP268

CYQR;2013-11-27 02:00;CYQR 270200Z 14021G27KT 15SM OVC120 M08/M12 A3011 RMK AC8 PRESFR SLP249

CYQR;2013-11-27 03:00;CYQR 270300Z 16024G32KT 15SM OVC092 M07/M12 A3004 RMK AC8 SLP222

CYQR;2013-11-27 04:00;CYQR 270400Z 15017G24KT 15SM OVC100 M07/M12 A3004 RMK AC8 SLP220

CYQR;2013-11-27 05:00;CYQR 270500Z 15016KT 15SM OVC090 M07/M10 A3000 RMK AC8 PRESFR SLP204

CYQR;2013-11-27 06:00;CYQR 270600Z 14017G22KT 15SM OVC110 M06/M09 A2996 RMK AC8 SLP191

CYQR;2013-11-27 07:00;CYQR 270700Z 14012KT 15SM OVC120 M06/M09 A2995 RMK AC8 SLP186

CYQR;2013-11-27 08:00;CYQR 270800Z 14012KT 15SM OVC130 M06/M09 A2992 RMK AC8 SLP174

CYQR;2013-11-27 09:00;CYQR 270900Z 13009KT 15SM BKN120 OVC220 M07/M09 A2990 RMK AC5CI3 SLP167

CYQR;2013-11-27 10:00;CYQR 271000Z 15008KT 15SM BKN120 M07/M10 A2989 RMK AC6 SLP165

CYQR;2013-11-27 11:00;CYQR 271100Z 16003KT 15SM BKN170 M08/M10 A2987 RMK AC7 SLP158

CYQR;2013-11-27 12:00;CYQR 271200Z 29008KT 15SM SCT190 M08/M10 A2989 RMK CI4 SLP162

CYQR;2013-11-27 13:00;CYQR 271300Z 32015KT 15SM SKC M07/M08 A2991 RMK SLP169

CYQR;2013-11-27 14:00;CYQR 271400Z 33022KT 15SM FEW230 M07/M09 A2993 RMK CI1 CONTRAILS SLP176

CYQR;2013-11-27 15:00;CYQR 271500Z 33017KT 15SM FEW012 FEW230 M09/M11 A2998 RMK SC1CI1 SLP191

CYQR;2013-11-27 15:16;CYQR 271516Z 33018KT 15SM BKN013 OVC230 M08/M10 A2999 RMK SC7CI1 SLP195

CYQR;2013-11-27 15:31;CYQR 271531Z 33019KT 15SM BKN009 OVC230 M08/M10 A2999 RMK SC7CI1 SLP196

CYQR;2013-11-27 15:42;CYQR 271542Z 33016KT 15SM OVC006 M08/M09 A3000 RMK ST8 SLP197

CYQR;2013-11-27 16:00;CYQR 271600Z 33020KT 15SM OVC005 M07/M08 A3000 RMK ST8 SLP199

CYQR;2013-11-27 16:24;CYQR 271624Z 33020KT 15SM OVC004 M07/M07 A3001 RMK ST8 SLP203

CYQR;2013-11-27 17:00;CYQR 271700Z 32015KT 12SM OVC006 M05/M06 A3002 RMK ST8 SLP205

CYQR;2013-11-27 18:00;CYQR 271800Z 32015KT 10SM OVC008 M05/M06 A3005 RMK ST8 SLP213

CYQR;2013-11-27 19:00;CYQR 271900Z 32019KT 12SM OVC008 M05/M06 A3006 RMK ST8 SLP214

CYQR;2013-11-27 20:00;CYQR 272000Z 33022KT 12SM OVC009 M04/M06 A3006 RMK ST8 SLP217

CYQR;2013-11-27 21:00;CYQR 272100Z 32021KT 15SM OVC009 M04/M06 A3009 RMK SC8 SLP225

CYQR;2013-11-27 21:44;CYQR 272144Z 32016G22KT 15SM OVC010 M05/M06 A3010 RMK SC8 CIG RAG SLP231

CYQR;2013-11-27 22:00;CYQR 272200Z 32017KT 15SM OVC012 M05/M06 A3011 RMK SC8 SLP234

CYQR;2013-11-27 22:30;CYQR 272230Z 32016KT 15SM OVC007 M05/M06 A3012 RMK SC8 SLP238

CYQR;2013-11-27 23:00;CYQR 272300Z 34015KT 15SM OVC013 M05/M07 A3013 RMK SC8 SLP243

CYQR;2013-11-27 23:27;CYQR 272327Z 33016G22KT 15SM -SN OVC012 M05/M07 A3014 RMK SC8 SLP245

CYQR;2013-11-27 23:45;CYQR 272345Z 33011G17KT 15SM SCT012 OVC023 M05/M07 A3014 RMK SC4SC4 SLP245

CYQR;2013-11-28 00:00;CYQR 280000Z 32009KT 15SM SCT012 OVC023 M05/M07 A3015 RMK SC3SC5 SLP249

CYQR;2013-11-28 01:00;CYQR 280100Z 32010KT 15SM OVC017 M05/M07 A3017 RMK SC8 SLP255

CYQR;2013-11-28 01:11;CYQR 280111Z 32009KT 15SM -SN OVC017 M05/M07 A3017 RMK SC8 SLP256

CYQR;2013-11-28 02:00;CYQR 280200Z 34012G17KT 15SM -SN OVC016 M05/M08 A3019 RMK SC8 SLP262

CYQR;2013-11-28 03:00;CYQR 280300Z 34011KT 15SM OVC015 M05/M08 A3021 RMK SC8 SLP270

CYQR;2013-11-28 04:00;CYQR 280400Z 35013KT 15SM -SN OVC015 M06/M09 A3022 RMK SC8 SLP274

CYQR;2013-11-28 05:00;CYQR 280500Z 02009KT 15SM -SN OVC015 M07/M09 A3024 RMK SC8 SLP280

CYQR;2013-11-28 05:53;CYQR 280553Z 01010KT 15SM -SN OVC014 M07/M10 A3025 RMK SC8 SLP284

CYQR;2013-11-28 06:00;CYQR 280600Z 36009KT 15SM -SN OVC014 M07/M10 A3025 RMK SC8 WND ESTD SLP284

CYQR;2013-11-28 07:00;CYQR 280700Z 36008KT 15SM -SN OVC014 M08/M11 A3026 RMK SC8 SLP288

CYQR;2013-11-28 08:00;CYQR 280800Z 34007KT 6SM -SHSN OVC015 M09/M12 A3027 RMK SC8 SLP290

CYQR;2013-11-28 09:00;CYQR 280900Z 35002KT 8SM -SHSN OVC017 M09/M11 A3028 RMK SC8 SLP293

CYQR;2013-11-28 10:00;CYQR 281000Z 36006KT 290V360 15SM -SHSN OVC014 M09/M11 A3029 RMK SC8 SLP296

CYQR;2013-11-28 11:00;CYQR 281100Z 35003KT 8SM -SHSN OVC018 M10/M12 A3029 RMK SC8 SLP298

CYQR;2013-11-28 12:00;CYQR 281200Z 00000KT 10SM -SHSN OVC019 M10/M12 A3030 RMK SC8 SLP302

CYQR;2013-11-28 13:00;CYQR 281300Z 33002KT 4SM -SHSN OVC014 M10/M12 A3030 RMK SC8 SLP302

CYQR;2013-11-28 13:28;CYQR 281328Z 11002KT 3SM -SN OVC013 M10/M12 A3030 RMK SC8 SLP301

CYQR;2013-11-28 14:00;CYQR 281400Z 12007KT 4SM -SN OVC015 M10/M11 A3029 RMK SC8 SLP297

CYQR;2013-11-28 14:27;CYQR 281427Z 10008KT 12SM -SN OVC012 M10/M12 A3029 RMK SC8 SLP297

CYQR;2013-11-28 15:00;CYQR 281500Z 12008KT 15SM -SN OVC011 M10/M12 A3028 RMK SC8 SLP296

CYQR;2013-11-28 16:00;CYQR 281600Z 13011KT 3SM -SN OVC013 M10/M11 A3027 RMK SC8 SLP292

CYQR;2013-11-28 17:00;CYQR 281700Z 13013KT 12SM -SN OVC012 M10/M12 A3026 RMK SC8 SLP291

CYQR;2013-11-28 18:00;CYQR 281800Z 13014KT 15SM -SN OVC010 M09/M11 A3025 RMK SC8 SLP285

CYQR;2013-11-28 19:00;CYQR 281900Z 13014KT 15SM OVC010 M09/M11 A3023 RMK SC8 SLP281

CYQR;2013-11-28 20:00;CYQR 282000Z 13015KT 15SM OVC010 M08/M10 A3020 RMK SC8 SLP271

CYQR;2013-11-28 21:00;CYQR 282100Z 14016KT 15SM DRSN OVC011 M08/M10 A3017 RMK SC8 SLP260

CYQR;2013-11-28 22:00;CYQR 282200Z 13016KT 15SM DRSN OVC013 M07/M09 A3016 RMK SC8 SLP254

CYQR;2013-11-28 23:00;CYQR 282300Z 13016KT 15SM DRSN BKN030 BKN140 M07/M08 A3013 RMK SC6AC1 CI TR SLP246

CYQR;2013-11-29 00:00;CYQR 290000Z 13016G21KT 15SM DRSN FEW120 BKN260 M08/M09 A3012 RMK AC2CI3 SLP242

CYQR;2013-11-29 01:00;CYQR 290100Z 13016KT 15SM DRSN FEW180 BKN260 M08/M09 A3011 RMK AC1CI4 SLP238

CYQR;2013-11-29 02:00;CYQR 290200Z 13015KT 15SM BKN190 M09/M10 A3009 RMK CI6 SLP233

CYQR;2013-11-29 03:00;CYQR 290300Z 13019KT 15SM BKN140 M09/M10 A3006 RMK AC7 SLP223

CYQR;2013-11-29 04:00;CYQR 290400Z 14022G27KT 15SM DRSN OVC140 M08/M10 A3004 RMK AC8 SLP213

CYQR;2013-11-29 05:00;CYQR 290500Z 14017G23KT 15SM DRSN OVC130 M08/M09 A3003 RMK AC8 SLP212

CYQR;2013-11-29 06:00;CYQR 290600Z 14021G27KT 15SM DRSN OVC120 M07/M09 A3001 RMK AC8 SLP202

CYQR;2013-11-29 07:00;CYQR 290700Z 14018KT 15SM DRSN OVC130 M08/M09 A2999 RMK AC8 SLP196

CYQR;2013-11-29 08:00;CYQR 290800Z 14017KT 15SM DRSN BKN130 M08/M10 A2997 RMK AC6 SLP188

CYQR;2013-11-29 09:00;CYQR 290900Z 14015KT 15SM DRSN FEW120 M08/M10 A2995 RMK AC2 SLP183

CYQR;2013-11-29 10:00;CYQR 291000Z 13016KT 15SM DRSN FEW120 SCT210 M09/M10 A2994 RMK AC1CI3 SLP177

CYQR;2013-11-29 11:00;CYQR 291100Z 14015G20KT 15SM DRSN BKN220 M09/M10 A2992 RMK CI6 SLP173

CYQR;2013-11-29 12:00;CYQR 291200Z 14010KT 15SM DRSN SCT220 M09/M11 A2993 RMK CI4 SLP176

CYQR;2013-11-29 13:00;CYQR 291300Z 14010KT 15SM BKN120 BKN250 M09/M10 A2993 RMK AC5CI2 SLP175

CYQR;2013-11-29 14:00;CYQR 291400Z 14010KT 15SM BKN120 BKN250 M09/M11 A2991 RMK AC6CI1 SLP170

CYQR;2013-11-29 15:00;CYQR 291500Z 14008KT 15SM BKN120 OVC250 M09/M10 A2992 RMK AC7CI1 SLP172

CYQR;2013-11-29 16:00;CYQR 291600Z 15005KT 15SM BKN120 OVC250 M08/M10 A2993 RMK AC6CI2 SLP177

CYQR;2013-11-29 17:00;CYQR 291700Z 18003KT 15SM BKN120 OVC250 M07/M09 A2994 RMK AC5CI3 SLP177

CYQR;2013-11-29 18:00;CYQR 291800Z 00000KT 15SM SCT120 OVC250 M07/M09 A2994 RMK AC4CI4 PRESFR SLP176

CYQR;2013-11-29 19:00;CYQR 291900Z 26004KT 15SM SCT100 OVC250 M06/M08 A2993 RMK AC4CI4 SLP173

CYQR;2013-11-29 20:00;CYQR 292000Z 29006KT 15SM BKN140 OVC250 M05/M07 A2993 RMK AC5CI3 PRESRR SLP174

CYQR;2013-11-29 21:00;CYQR 292100Z 30006KT 15SM FEW090 BKN140 OVC250 M04/M06 A2994 RMK AC2AC3CI3 SLP175

CYQR;2013-11-29 22:00;CYQR 292200Z 29008KT 15SM BKN140 OVC250 M04/M05 A2995 RMK AC6CI2 SLP181

CYQR;2013-11-29 23:00;CYQR 292300Z 31007KT 15SM OVC130 M04/M05 A2996 RMK AC8 SLP184

CYQR;2013-11-30 00:00;CYQR 300000Z 31005KT 15SM OVC087 M04/M05 A2997 RMK AC8 SLP186

CYQR;2013-11-30 00:28;CYQR 300028Z 30007KT 15SM -SHSN OVC075 M04/M05 A2998 RMK AC8 PRESRR SLP190

CYQR;2013-11-30 00:52;CYQR 300052Z 30004KT 15SM SCT075 OVC097 M04/M05 A2998 RMK AC3AC5 SLP189

CYQR;2013-11-30 01:00;CYQR 300100Z 30004KT 15SM BKN075 OVC097 M04/M05 A2998 RMK AC5AC3 SLP190

CYQR;2013-11-30 02:00;CYQR 300200Z 25004KT 15SM BKN110 M04/M05 A2999 RMK AC5 SLP194

CYQR;2013-11-30 03:00;CYQR 300300Z 29005KT 15SM R13/4000VP6000FT/D BCFG FEW130 M06/M07 A2999 RMK AC1 VIS S-W 2 SLP194

CYQR;2013-11-30 03:18;CYQR 300318Z 26005KT 3/4SM R13/5000VP6000FT/D BR SKC M06/M06 A2999 RMK FG BNK SE-N 40 FT THICK VIS N-SE 10 SLP195

CYQR;2013-11-30 03:33;CYQR 300333Z 26005KT 1/2SM R13/2400FT/N FZFG SKC M06/M06 A2999 RMK FG BNK SE-N 40 FT THK. VIS N-SE 10 SLP196

CYQR;2013-11-30 03:50;CYQR 300350Z 27005KT 3/4SM R13/2000FT/N BR SKC M08/M08 A3000 RMK VIS VRB 1/2-1 FG BNK SE-N 40 FT THK. VIS N-SE 10 SLP198

CYQR;2013-11-30 04:00;CYQR 300400Z 29005KT 3/4SM R13/2200FT/N BR SKC M08/M08 A3000 RMK VIS VRB 1/2-1. FG BNK E-N ESTD 40FT THK. VIS N-E 10. FROIN SLP199

CYQR;2013-11-30 04:34;CYQR 300434Z 27004KT 1/2SM R13/2000FT/N FZFG SKC M08/M08 A3000 RMK VIS VRB 1/4-3/4. FG BNK ESTD 50 FT THK. VIS N-E 6. FROIN SLP199

CYQR;2013-11-30 05:00;CYQR 300500Z 28002KT 1/2SM R13/2800FT/N FZFG SKC M09/M09 A3000 RMK VIS VRB 1/4-3/4. FG BNK ESTD 50 FT THK. VIS NE 2. FROIN SLP200

CYQR;2013-11-30 05:33;CYQR 300533Z 16003KT 150V230 3/8SM R13/1600V2200FT/U FZFG SKC M10/M11 A3000 RMK FG2 VIS VRB 1/8-5/8 SLP202

CYQR;2013-11-30 06:00;CYQR 300600Z 31005KT 3/8SM R13/3000FT/N FZFG SKC M12/M12 A3003 RMK FG2 VIS VRB 1/8-5/8 FROIN SLP211

CYQR;2013-11-30 06:10;CYQR 300610Z 33005KT 3SM R13/2600FT/N BR SKC M12/M12 A3003 RMK VIS S-W 1 1/2 SLP213

CYQR;2013-11-30 06:39;CYQR 300639Z 26005KT 1/2SM R13/2600FT/N FZFG SKC M10/M11 A3003 RMK VIS VRB 1/4-3/4 VIS N-E 2 1/2 FROIN SLP211

CYQR;2013-11-30 07:00;CYQR 300700Z 27006KT 1/2SM R13/2400FT/N FZFG SKC M12/M13 A3003 RMK VIS VRB 1/4-3/4 VIS N-E 3 SLP209

CYQR;2013-11-30 07:10;CYQR 300710Z 26006KT 3SM R13/3000FT/N BR PRFG SKC M11/M12 A3002 RMK FG ESTD 60 FT THK SLP208

CYQR;2013-11-30 07:35;CYQR 300735Z 25009KT 1SM R13/3500VP6000FT/U BR PRFG SKC M10/M11 A3002 RMK VIS N-E 2 FG BNK ESTD 80 FT THK SLP207

CYQR;2013-11-30 07:44;CYQR 300744Z 25007KT 4SM BR SKC M11/M12 A3002 RMK SLP207

CYQR;2013-11-30 08:00;CYQR 300800Z 22007KT 5SM BR SKC M12/M13 A3002 RMK FROIN SLP207

CYQR;2013-11-30 09:00;CYQR 300900Z 00000KT 10SM SKC M10/M11 A3004 RMK ST TR FROIN SLP213

CYQR;2013-11-30 10:00;CYQR 301000Z 25005KT 15SM SKC M12/M13 A3005 RMK FROIN SLP217

CYQR;2013-11-30 11:00;CYQR 301100Z 30005KT 12SM VCFG SKC M13/M14 A3006 RMK VIS S-W 3 FROIN SLP222

CYQR;2013-11-30 12:00;CYQR 301200Z 30005KT 6SM R13/5000VP6000FT/D BR BCFG SKC M14/M15 A3007 RMK FROIN SLP226

CYQR;2013-11-30 12:41;CYQR 301241Z 30004KT 2 1/2SM R13/4500VP6000FT/U BR BCFG SKC M13/M15 A3008 RMK FROIN SLP229

CYQR;2013-11-30 13:00;CYQR 301300Z 33005KT 2 1/2SM R13/2000FT/N BR BCFG SKC M15/M16 A3009 RMK FROIN SLP231

CYQR;2013-11-30 13:14;CYQR 301314Z 32004KT 1SM R13/2000FT/U BR BCFG SCT001 M14/M15 A3010 RMK ST4 VIS VRB 3/4-1 1/2 SLP233

CYQR;2013-11-30 13:19;CYQR 301319Z 30004KT 1/2SM R13/1600FT/N FZFG SKC M14/M16 A3010 RMK FG5 SLP234

CYQR;2013-11-30 13:30;CYQR 301330Z 32002KT 1/4SM R13/1200FT/N FZFG SKC M14/M16 A3010 RMK SLP235

CYQR;2013-11-30 13:46;CYQR 301346Z 33004KT 1/2SM R13/1200FT/N FZFG SKC M14/M15 A3010 RMK VIS SE 1 SLP235

CYQR;2013-11-30 14:00;CYQR 301400Z 34004KT 1/2SM R13/1200V2400FT/U FZFG SKC M15/M16 A3011 RMK FG1 FROIN SLP238

CYQR;2013-11-30 14:15;CYQR 301415Z 33003KT 1/4SM R13/1600FT/N FZFG SKC M15/M17 A3011 RMK FG3 FROIN SLP239

CYQR;2013-11-30 14:38;CYQR 301438Z 36003KT 0SM R13/1200FT/N FZFG VV001 M15/M17 A3011 RMK FG8 SLP241

CYQR;2013-11-30 15:00;CYQR 301500Z 00000KT 1/8SM R13/1100FT/N FZFG VV001 M15/M17 A3012 RMK FG8 FROIN SLP244

CYQR;2013-11-30 16:00;CYQR 301600Z 01004KT 1/4SM R13/0900V1400FT/N FZFG SKC M14/M15 A3012 RMK FG7 FROIN SLP245

CYQR;2013-11-30 16:25;CYQR 301625Z 04002KT 1/2SM R13/1200FT/N FZFG FEW002 M13/M14 A3012 RMK ST1 VIS E 2 SLP245

CYQR;2013-11-30 16:34;CYQR 301634Z 03004KT 1SM R13/2600VP6000FT/N BR FEW002 FEW080 M12/M13 A3012 RMK ST1AC1 VIS E 3 SLP244

CYQR;2013-11-30 16:41;CYQR 301641Z 03005KT 2SM BR FEW002 FEW080 M11/M12 A3012 RMK SF1AC1 VIS E 5 SLP244

CYQR;2013-11-30 17:00;CYQR 301700Z 00000KT 2 1/2SM BR FEW002 FEW080 M10/M11 A3014 RMK ST1AC1 VIS E 5 SLP250

CYQR;2013-11-30 17:14;CYQR 301714Z 21005KT 4SM BR SKC M13/M15 A3014 RMK SLP252

CYQR;2013-11-30 18:00;CYQR 301800Z 19003KT 5SM BR SKC M13/M14 A3014 RMK SLP255

CYQR;2013-11-30 19:00;CYQR 301900Z 00000KT 8SM SKC M11/M12 A3012 RMK AC TR SLP247

CYQR;2013-11-30 20:00;CYQR 302000Z 19003KT 8SM FEW200 M09/M10 A3011 RMK CI1 SLP240

CYQR;2013-11-30 21:00;CYQR 302100Z 17007KT 10SM FEW200 M10/M11 A3012 RMK CI1 SLP244

CYQR;2013-11-30 22:00;CYQR 302200Z 12006KT 12SM SKC M10/M11 A3011 RMK SLP244

CYQR;2013-11-30 23:00;CYQR 302300Z 09006KT 12SM SKC M11/M12 A3012 RMK AC TR SLP246

CYQR;2013-12-01 00:00;CYQR 010000Z 10006KT 12SM SKC M11/M12 A3013 RMK AC TR SLP249

CYQR;2013-12-01 01:00;CYQR 010100Z 11008KT 12SM FEW085 M11/M12 A3012 RMK AC1 SLP248

CYQR;2013-12-01 02:00;CYQR 010200Z 12011KT 15SM FEW085 M10/M11 A3010 RMK AC1 SLP241

CYQR;2013-12-01 03:00;CYQR 010300Z 13012KT 15SM SKC M10/M11 A3010 RMK SLP239

CYQR;2013-12-01 04:00;CYQR 010400Z 13013KT 15SM SCT250 M10/M11 A3008 RMK CI3 SLP234

CYQR;2013-12-01 05:00;CYQR 010500Z 13012KT 15SM BKN220 M11/M12 A3008 RMK CI6 SLP231

CYQR;2013-12-01 06:00;CYQR 010600Z 14013KT 15SM OVC210 M10/M11 A3008 RMK CI8 SLP232

CYQR;2013-12-01 07:00;CYQR 010700Z 13015KT 15SM OVC230 M10/M11 A3005 RMK CI8 SLP221

CYQR;2013-12-01 08:00;CYQR 010800Z 13015KT 15SM OVC140 M10/M11 A3003 RMK AC8 SLP213

CYQR;2013-12-01 09:00;CYQR 010900Z 13016KT 15SM BKN053 BKN120 M09/M10 A3001 RMK SC5AC2 SLP206

CYQR;2013-12-01 10:00;CYQR 011000Z 12016KT 6SM -SHSN SCT013 BKN029 M08/M09 A2998 RMK SC4SC3 SLP195

CYQR;2013-12-01 10:09;CYQR 011009Z 12016KT 2 1/2SM -SHSN DRSN BKN010 OVC023 M08/M09 A2998 RMK SC5SC3 SLP193

CYQR;2013-12-01 10:45;CYQR 011045Z 13015G21KT 2 1/2SM -SHSN DRSN OVC008 M07/M08 A2996 RMK SC8 SLP188

CYQR;2013-12-01 11:00;CYQR 011100Z 13018KT 3SM -SHSN DRSN OVC007 M07/M08 A2995 RMK SC8 SLP185

CYQR;2013-12-01 12:00;CYQR 011200Z 12016KT 5SM -SHSN DRSN BKN006 OVC021 M07/M07 A2992 RMK SC6SC2 /S02/ SLP173

CYQR;2013-12-01 12:10;CYQR 011210Z 12016KT 10SM -SHSN DRSN SCT006 OVC018 M07/M08 A2992 RMK SC4SC4 SLP172

CYQR;2013-12-01 13:00;CYQR 011300Z 12014KT 3SM -SN DRSN OVC023 M07/M07 A2990 RMK SC8 SLP168

CYQR;2013-12-01 13:57;CYQR 011357Z 12017KT 6SM -FZRA -SN DRSN OVC019 M07/M07 A2988 RMK SC8 SLP159

CYQR;2013-12-01 14:00;CYQR 011400Z 13015G22KT 6SM -FZRA -SN DRSN OVC019 M06/M07 A2988 RMK SC8 SLP157

CYQR;2013-12-01 14:48;CYQR 011448Z 13015G21KT 8SM DRSN SCT006 OVC024 M06/M07 A2986 RMK SF4SC4 SLP150

CYQR;2013-12-01 14:52;CYQR 011452Z 13015G21KT 8SM DRSN BKN006 OVC024 M06/M07 A2986 RMK SF6SC2 SLP150

CYQR;2013-12-01 15:00;CYQR 011500Z 13016KT 10SM DRSN BKN007 OVC023 M06/M07 A2986 RMK SF7SC1 SLP149

CYQR;2013-12-01 16:00;CYQR 011600Z 13016KT 12SM DRSN OVC007 M06/M07 A2984 RMK ST8 SLP145

CYQR;2013-12-01 17:00;CYQR 011700Z 14017KT 12SM DRSN OVC009 M06/M07 A2983 RMK ST8 SLP141

CYQR;2013-12-01 18:00;CYQR 011800Z 14013KT 10SM DRSN OVC006 M06/M06 A2980 RMK ST8 SLP130

CYQR;2013-12-01 19:00;CYQR 011900Z 13012KT 6SM BR DRSN OVC005 M05/M06 A2976 RMK ST8 SLP117

CYQR;2013-12-01 19:38;CYQR 011938Z 14015KT 2 1/2SM BR DRSN OVC004 M05/M05 A2975 RMK ST8 SLP112

CYQR;2013-12-01 20:00;CYQR 012000Z 13012KT 2SM BR DRSN OVC003 M04/M05 A2974 RMK ST8 SLP108

CYQR;2013-12-01 20:06;CYQR 012006Z 14014KT 1 1/2SM BR DRSN OVC003 M04/M05 A2974 RMK ST8 SLP108

CYQR;2013-12-01 20:21;CYQR 012021Z 14014KT 1SM R13/5500VP6000FT/D BR DRSN OVC002 M04/M05 A2974 RMK ST8 SLP109

CYQR;2013-12-01 20:39;CYQR 012039Z 13013KT 1/2SM R13/3500V5500FT/D FZFG DRSN OVC002 M04/M05 A2973 RMK FG4ST4 SLP105

CYQR;2013-12-01 21:00;CYQR 012100Z 14013KT 5/8SM R13/3500V5500FT/D BR DRSN OVC002 M04/M05 A2972 RMK FG5ST3 SLP102

CYQR;2013-12-01 22:00;CYQR 012200Z 13011KT 3/4SM R13/P6000FT/U BR DRSN OVC003 M05/M05 A2972 RMK FG3ST5 SLP100

CYQR;2013-12-01 23:00;CYQR 012300Z 13014KT 3/4SM R13/P6000FT/U BR DRSN OVC002 M06/M06 A2972 RMK FG3ST5 SLP100

CYQR;2013-12-01 23:36;CYQR 012336Z 13012KT 3/4SM R13/P6000FT/N -FZDZ BR DRSN OVC002 M06/M06 A2972 RMK FG3ST5 SLP101

CYQR;2013-12-02 00:00;CYQR 020000Z 12013KT 1/2SM R13/5000FT/D FZFG OVC002 M06/M06 A2972 RMK FG4ST4 SLP100

CYQR;2013-12-02 01:00;CYQR 020100Z 12014KT 1/4SM R13/3000FT/N FZFG VV002 M06/M07 A2970 RMK FG8 SLP094

CYQR;2013-12-02 02:00;CYQR 020200Z 12010KT 1/4SM R13/2800FT/D FZFG VV002 M06/M07 A2969 RMK FG8 SLP089

CYQR;2013-12-02 03:00;CYQR 020300Z 10011KT 1/4SM R13/2600FT/N FZFG VV002 M06/M07 A2968 RMK FG8 SLP088

CYQR;2013-12-02 04:00;CYQR 020400Z 09008KT 3/8SM R13/2800FT/N FZFG VV002 M06/M06 A2967 RMK FG8 SLP083

CYQR;2013-12-02 05:00;CYQR 020500Z 10008KT 3/8SM R13/3000FT/D FZFG VV002 M06/M06 A2966 RMK FG8 SLP081

CYQR;2013-12-02 06:00;CYQR 020600Z 08010KT 3/8SM R13/4000FT/N FZFG VV002 M06/M06 A2966 RMK FG8 SLP077

CYQR;2013-12-02 07:00;CYQR 020700Z 10010KT 3/8SM R13/5500FT/D FZFG VV002 M06/M06 A2965 RMK FG8 SLP075

CYQR;2013-12-02 07:17;CYQR 020717Z 10011KT 1/2SM R13/5500VP6000FT/U FZFG VV002 M06/M06 A2965 RMK FG8 SLP075

CYQR;2013-12-02 07:52;CYQR 020752Z 09011G16KT 3/4SM BR OVC003 M06/M06 A2965 RMK FG6ST2 SLP073

CYQR;2013-12-02 08:00;CYQR 020800Z 09010KT 1SM R13/P6000FT/D BR OVC003 M06/M06 A2965 RMK FG2ST6 SLP074

CYQR;2013-12-02 09:00;CYQR 020900Z 09012KT 2SM BR OVC003 M06/M06 A2966 RMK ST8 SLP076

CYQR;2013-12-02 10:00;CYQR 021000Z 08012KT 3SM BR OVC003 M06/M07 A2966 RMK ST8 SLP077

CYQR;2013-12-02 11:00;CYQR 021100Z 07010G17KT 6SM BR OVC005 M07/M07 A2966 RMK SF8 SLP080

CYQR;2013-12-02 12:00;CYQR 021200Z 08015KT 6SM BR OVC005 M07/M08 A2967 RMK SF8 SLP084

CYQR;2013-12-02 12:50;CYQR 021250Z 08014G20KT 8SM OVC006 M08/M08 A2969 RMK SF8 BR SLP091

CYQR;2013-12-02 13:00;CYQR 021300Z 08012G21KT 8SM OVC006 M08/M09 A2969 RMK SF8 BR SLP090

CYQR;2013-12-02 13:40;CYQR 021340Z 08011G18KT 6SM -SN OVC006 M08/M09 A2969 RMK SF8 SLP091

CYQR;2013-12-02 14:00;CYQR 021400Z 08013G21KT 6SM -SN OVC006 M08/M09 A2969 RMK SF8 FROIN CIG RAG SLP091

CYQR;2013-12-02 15:00;CYQR 021500Z 09018KT 12SM -SN OVC009 M08/M09 A2972 RMK SC8 SLP101

CYQR;2013-12-02 15:23;CYQR 021523Z 08015G22KT 12SM -SN OVC011 M08/M09 A2973 RMK SC8 SLP104

CYQR;2013-12-02 15:37;CYQR 021537Z 08015G23KT 12SM OVC012 M08/M09 A2973 RMK SC8 SLP106

CYQR;2013-12-02 16:00;CYQR 021600Z 09013G18KT 15SM OVC012 M08/M09 A2975 RMK SC8 SLP110

CYQR;2013-12-02 17:00;CYQR 021700Z 08017G24KT 12SM OVC010 M08/M09 A2977 RMK SC8 SLP117

CYQR;2013-12-02 17:24;CYQR 021724Z 08014G23KT 10SM -SN DRSN OVC010 M08/M09 A2978 RMK SC8 SLP120

CYQR;2013-12-02 18:00;CYQR 021800Z 08016KT 4SM -SN BR DRSN BKN015 OVC030 M08/M10 A2978 RMK SC7SC1 SLP123

CYQR;2013-12-02 19:00;CYQR 021900Z 07015KT 4SM -SN BR DRSN FEW015 OVC036 M07/M10 A2979 RMK SC2SC6 SLP124

CYQR;2013-12-02 20:00;CYQR 022000Z 07017KT 9SM -SN DRSN FEW015 OVC037 M08/M10 A2980 RMK SC1SC7 SLP128

CYQR;2013-12-02 21:00;CYQR 022100Z 06018G25KT 6SM -SN DRSN FEW015 OVC040 M08/M10 A2982 RMK SC1SC7 SLP137

CYQR;2013-12-02 22:00;CYQR 022200Z 07019G26KT 10SM -SN DRSN FEW015 OVC032 M08/M11 A2984 RMK SC1SC7 SLP143

CYQR;2013-12-02 23:00;CYQR 022300Z 07018G27KT 2 1/2SM -SN DRSN FEW018 OVC041 M08/M10 A2987 RMK SC1SC7 SLP154

CYQR;2013-12-02 23:26;CYQR 022326Z 06013G25KT 1 1/2SM -SN DRSN FEW018 OVC046 M08/M10 A2989 RMK SC1SC7 SLP159

CYQR;2013-12-02 23:50;CYQR 022350Z 06017KT 3SM -SN DRSN FEW015 OVC055 M08/M10 A2990 RMK SC1SC7 SLP165

CYQR;2013-12-03 00:00;CYQR 030000Z 06016G22KT 3SM -SN DRSN FEW015 OVC056 M08/M10 A2990 RMK SC1SC7 SLP165

CYQR;2013-12-03 00:14;CYQR 030014Z 07017KT 2SM -SN DRSN FEW015 OVC046 M08/M11 A2991 RMK SC1SC7 SLP167

CYQR;2013-12-03 01:00;CYQR 030100Z 06016KT 2SM -SN DRSN OVC045 M08/M10 A2992 RMK SC8 SLP173

CYQR;2013-12-03 02:00;CYQR 030200Z 04013G21KT 3SM -SN DRSN OVC040 M09/M11 A2995 RMK SC8 SLP181

CYQR;2013-12-03 03:00;CYQR 030300Z 05014G22KT 2 1/2SM -SN DRSN OVC016 M09/M11 A2998 RMK SC8 /S01/ SLP192

CYQR;2013-12-03 04:00;CYQR 030400Z 05015G24KT 2 1/2SM -SN DRSN OVC023 M09/M12 A2999 RMK SC8 SLP198

CYQR;2013-12-03 05:00;CYQR 030500Z 05015G21KT 3SM -SN DRSN OVC025 M10/M13 A3002 RMK SC8 PRESRR SLP207

CYQR;2013-12-03 06:00;CYQR 030600Z 05013G18KT 6SM -SN DRSN OVC040 M11/M14 A3004 RMK SC8 SLP216

CYQR;2013-12-03 07:00;CYQR 030700Z 04012KT 12SM -SN DRSN FEW040 OVC100 M12/M15 A3005 RMK SC2AC6 SLP218

CYQR;2013-12-03 07:10;CYQR 030710Z 04013G19KT 15SM DRSN FEW040 OVC100 M12/M15 A3005 RMK SC2AC6 SLP218

CYQR;2013-12-03 08:00;CYQR 030800Z 03010G17KT 15SM DRSN FEW040 OVC100 M12/M15 A3010 RMK SC1AC7 SLP235

CYQR;2013-12-03 09:00;CYQR 030900Z 04011KT 15SM DRSN FEW050 OVC120 M13/M15 A3009 RMK SC2AC6 SLP235

CYQR;2013-12-03 10:00;CYQR 031000Z 03012KT 15SM DRSN FEW050 SCT180 M14/M16 A3008 RMK SC1AC3 SLP231

CYQR;2013-12-03 11:00;CYQR 031100Z 03012G19KT 15SM DRSN BKN140 M14/M16 A3008 RMK AC5 SLP232

CYQR;2013-12-03 11:45;CYQR 031145Z 02012KT 15SM DRSN FEW008 SCT060 M14/M16 A3011 RMK SF2SC1 PRESRR SLP241

CYQR;2013-12-03 12:00;CYQR 031200Z 02009G16KT 15SM DRSN FEW008 SCT060 BKN250 M14/M17 A3011 RMK SF1SC2CI3 SLP244

CYQR;2013-12-03 13:00;CYQR 031300Z 03012KT 15SM DRSN OVC056 M15/M17 A3013 RMK SC8 SLP249

CYQR;2013-12-03 13:57;CYQR 031357Z 35009KT 15SM -SN DRSN OVC045 M15/M17 A3014 RMK SC8 SLP252

CYQR;2013-12-03 14:00;CYQR 031400Z 36010KT 15SM -SN DRSN OVC045 M15/M17 A3014 RMK SC8 SLP254

CYQR;2013-12-03 15:00;CYQR 031500Z 35008KT 15SM -SN FEW045 OVC230 M17/M19 A3016 RMK SC2CI6 SLP261

CYQR;2013-12-03 15:50;CYQR 031550Z 01009KT 20SM FEW031 BKN130 OVC230 M16/M19 A3016 RMK SC1AC5CI2 SLP263

CYQR;2013-12-03 16:00;CYQR 031600Z 01010G16KT 15SM FEW031 BKN130 BKN230 M16/M18 A3016 RMK SC1AC4CI2 SLP263

CYQR;2013-12-03 16:46;CYQR 031646Z 35010KT 12SM -SN BKN034 BKN130 OVC230 M16/M18 A3018 RMK SC6AC1CI1 SLP267

CYQR;2013-12-03 17:00;CYQR 031700Z 35011KT 4SM -SN OVC028 M15/M18 A3018 RMK SC8 SLP270

CYQR;2013-12-03 18:00;CYQR 031800Z 35011KT 6SM -SN OVC028 M15/M17 A3018 RMK SC8 SLP270

CYQR;2013-12-03 19:00;CYQR 031900Z 35012KT 4SM -SN BR OVC030 M14/M16 A3017 RMK SC8 SLP265

CYQR;2013-12-03 20:00;CYQR 032000Z 34013KT 4SM -SN BR OVC030 M15/M17 A3017 RMK SC8 SLP265

CYQR;2013-12-03 21:00;CYQR 032100Z 34015KT 5SM -SN BR OVC029 M15/M18 A3017 RMK SC8 SLP267

CYQR;2013-12-03 22:00;CYQR 032200Z 34017KT 15SM -SN DRSN OVC029 M16/M19 A3017 RMK SC8 SLP268

CYQR;2013-12-03 22:46;CYQR 032246Z 35012KT 15SM DRSN OVC031 M16/M19 A3018 RMK SC8 SLP271

CYQR;2013-12-03 23:00;CYQR 032300Z 36009KT 15SM DRSN OVC031 M16/M19 A3018 RMK SC8 SLP271

CYQR;2013-12-03 23:26;CYQR 032326Z 35011KT 15SM -SN OVC031 M16/M19 A3018 RMK SC8 SLP273

CYQR;2013-12-04 00:00;CYQR 040000Z 34014KT 10SM -SN OVC030 M17/M19 A3018 RMK SC8 SLP274

CYQR;2013-12-04 01:00;CYQR 040100Z 36012KT 12SM -SN OVC028 M17/M19 A3019 RMK SC8 SLP276

CYQR;2013-12-04 02:00;CYQR 040200Z 35013KT 15SM -SN OVC028 M17/M19 A3020 RMK SC8 SLP280

CYQR;2013-12-04 03:00;CYQR 040300Z 34012KT 15SM -SN OVC027 M17/M19 A3020 RMK SC8 SLP280

CYQR;2013-12-04 04:00;CYQR 040400Z 33012KT 15SM -SN OVC027 M17/M19 A3020 RMK SC8 SLP282

CYQR;2013-12-04 05:00;CYQR 040500Z 33013KT 15SM -SN OVC026 M18/M20 A3020 RMK SC8 SLP281

CYQR;2013-12-04 06:00;CYQR 040600Z 33012KT 15SM -SN OVC025 M18/M20 A3021 RMK SC8 SLP284

CYQR;2013-12-04 07:00;CYQR 040700Z 33013KT 8SM -SN DRSN OVC024 M18/M21 A3021 RMK SC8 SLP284

CYQR;2013-12-04 08:00;CYQR 040800Z 34012KT 10SM -SN DRSN OVC025 M19/M22 A3021 RMK SC8 SLP286

CYQR;2013-12-04 09:00;CYQR 040900Z 34013KT 10SM -SN DRSN OVC050 M19/M21 A3021 RMK NS8 SLP285

CYQR;2013-12-04 10:00;CYQR 041000Z 34012KT 12SM -SN DRSN OVC026 M19/M21 A3019 RMK SC8 SLP280

CYQR;2013-12-04 11:00;CYQR 041100Z 33008KT 12SM -SN DRSN OVC055 M20/M22 A3020 RMK SC8 SLP282

CYQR;2013-12-04 12:00;CYQR 041200Z 33010KT 15SM -SN DRSN OVC055 M21/M23 A3019 RMK SC8 SLP282

CYQR;2013-12-04 13:00;CYQR 041300Z 32010KT 15SM -SN SCT055 M24/M26 A3019 RMK SC3 SLP285

CYQR;2013-12-04 14:00;CYQR 041400Z 33007KT 15SM -SN FEW040 BKN190 M24/M26 A3020 RMK SC2CI5 SLP288

CYQR;2013-12-04 15:00;CYQR 041500Z 33008KT 15SM -SN SCT053 BKN190 M24/M27 A3021 RMK SC4CI3 SLP291

CYQR;2013-12-04 15:51;CYQR 041551Z 32013KT 2SM -SN OVC043 M22/M25 A3021 RMK SC8 VIS 8 NE-SE SLP290

CYQR;2013-12-04 16:00;CYQR 041600Z 32016KT 2SM -SN DRSN OVC044 M23/M25 A3021 RMK SC8 SLP290

CYQR;2013-12-04 17:00;CYQR 041700Z 32014KT 3SM -SN DRSN BKN047 OVC100 M22/M25 A3021 RMK SC6AC2 SLP292

CYQR;2013-12-04 17:37;CYQR 041737Z 33013KT 5SM BR DRSN BKN048 BKN100 M22/M24 A3022 RMK SC6AC1 SLP293

CYQR;2013-12-04 18:00;CYQR 041800Z 32014KT 6SM BR DRSN SCT048 BKN100 BKN220 M22/M24 A3021 RMK SC3AC2CI2 SLP290

CYQR;2013-12-04 19:00;CYQR 041900Z 33012KT 10SM SCT046 BKN100 BKN220 M21/M23 A3020 RMK SC3AC2CI1 SF TR SLP285

CYQR;2013-12-04 19:42;CYQR 041942Z 31013KT 6SM BR SCT012 SCT040 BKN220 M20/M23 A3018 RMK SC3SC1CI2 SLP279

CYQR;2013-12-04 20:00;CYQR 042000Z 32015KT 6SM BR DRSN BKN012 BKN040 BKN220 M20/M23 A3017 RMK SC5SC1CI1 SLP277

CYQR;2013-12-04 21:00;CYQR 042100Z 32015KT 10SM DRSN BKN011 M21/M23 A3017 RMK SC7 SLP277

CYQR;2013-12-04 21:40;CYQR 042140Z 32013KT 12SM DRSN FEW012 SCT220 M21/M24 A3018 RMK SC2CI1 SLP281

CYQR;2013-12-04 22:00;CYQR 042200Z 32011KT 12SM FEW040 M22/M24 A3019 RMK SC1 SF TR CI TR SLP283

CYQR;2013-12-04 23:00;CYQR 042300Z 32012KT 12SM SCT045 M23/M25 A3018 RMK SC3 CI TR SLP284

CYQR;2013-12-05 00:00;CYQR 050000Z 32009KT 15SM BKN090 M24/M26 A3018 RMK AC6 CI TR SLP286

CYQR;2013-12-05 00:32;CYQR 050032Z 34006KT 12SM -SN OVC039 M23/M26 A3018 RMK SC8 SLP283

CYQR;2013-12-05 01:00;CYQR 050100Z 32008KT 15SM -SN OVC045 M22/M24 A3017 RMK SC8 SLP282

CYQR;2013-12-05 02:00;CYQR 050200Z 32008KT 12SM -SN BKN040 OVC120 M23/M25 A3017 RMK SC7AC1 SLP282

CYQR;2013-12-05 03:00;CYQR 050300Z 31007KT 12SM -SN BKN040 BKN120 M24/M26 A3016 RMK SC6AC1 SLP281

CYQR;2013-12-05 04:00;CYQR 050400Z 31006KT 15SM -SN BKN050 OVC250 M24/M27 A3017 RMK SC5CI3 SLP282

CYQR;2013-12-05 04:30;CYQR 050430Z 31006KT 12SM IC FEW050 SCT250 M26/M28 A3017 RMK SC2CI1 SLP285

CYQR;2013-12-05 05:00;CYQR 050500Z 31009KT 4SM -SN BKN015 M24/M27 A3016 RMK SC5 SLP280

CYQR;2013-12-05 05:41;CYQR 050541Z 32009KT 15SM IC FEW020 FEW100 M24/M27 A3016 RMK SC1AC1 SLP279

CYQR;2013-12-05 06:00;CYQR 050600Z 31010KT 15SM IC FEW030 FEW100 M24/M26 A3016 RMK SC1AC1 SLP279

CYQR;2013-12-05 07:00;CYQR 050700Z 31012KT 10SM -SN BKN050 M23/M25 A3016 RMK SC7 SLP277

CYQR;2013-12-05 08:00;CYQR 050800Z 31010KT 10SM -SN BKN050 OVC140 M23/M25 A3016 RMK SC6AC2 SLP276

CYQR;2013-12-05 09:00;CYQR 050900Z 30011KT 15SM -SN OVC055 M23/M25 A3016 RMK SC8 SLP276

CYQR;2013-12-05 10:00;CYQR 051000Z 32012KT 10SM -SN OVC055 M23/M25 A3017 RMK SC8 SLP280

CYQR;2013-12-05 11:00;CYQR 051100Z 31014KT 10SM -SN OVC038 M22/M25 A3017 RMK SC8 SLP280

CYQR;2013-12-05 12:00;CYQR 051200Z 31013KT 5SM -SN DRSN OVC040 M22/M24 A3016 RMK SC8 SLP280

CYQR;2013-12-05 13:00;CYQR 051300Z 33015KT 4SM -SN DRSN OVC038 M21/M24 A3017 RMK SC8 SLP281

CYQR;2013-12-05 14:00;CYQR 051400Z 33015KT 4SM -SN DRSN OVC040 M21/M24 A3019 RMK SC8 SLP286

CYQR;2013-12-05 15:00;CYQR 051500Z 32014KT 6SM -SN DRSN BKN050 OVC100 M22/M24 A3020 RMK SC7AC1 SLP291

CYQR;2013-12-05 15:44;CYQR 051544Z 32013KT 6SM IC DRSN SCT019 BKN062 OVC230 M22/M25 A3021 RMK SC3SC2CI3 SLP297

CYQR;2013-12-05 16:00;CYQR 051600Z 31013KT 6SM IC BR DRSN FEW020 BKN066 OVC230 M22/M25 A3022 RMK SC1AC4CI3 SLP299

CYQR;2013-12-05 17:00;CYQR 051700Z 32014KT 8SM IC DRSN FEW020 SCT060 OVC230 M22/M25 A3023 RMK SC1SC3CI4 SLP303

CYQR;2013-12-05 18:00;CYQR 051800Z 31013KT 12SM IC DRSN OVC230 M22/M25 A3024 RMK CI8 SLP305

CYQR;2013-12-05 19:00;CYQR 051900Z 31012G18KT 6SM IC DRSN FEW013 OVC230 M22/M25 A3024 RMK SC2CI6 SLP305

CYQR;2013-12-05 20:00;CYQR 052000Z 32012G18KT 8SM IC DRSN FEW015 OVC230 M22/M26 A3025 RMK SC2CI6 SLP307

CYQR;2013-12-05 21:00;CYQR 052100Z 31014KT 12SM IC DRSN BKN250 M23/M26 A3026 RMK CI7 SC TR SLP310

CYQR;2013-12-05 22:00;CYQR 052200Z 32011G16KT 12SM IC DRSN FEW015 FEW230 M24/M27 A3027 RMK SC1CI1 SLP315

CYQR;2013-12-05 23:00;CYQR 052300Z 31011KT 15SM IC DRSN FEW230 M25/M28 A3028 RMK CI1 SLP321

CYQR;2013-12-05 23:42;CYQR 052342Z 31010KT 15SM SKC M25/M28 A3029 RMK SC TR SLP325

CYQR;2013-12-06 00:00;CYQR 060000Z 31010KT 15SM SKC M26/M29 A3030 RMK SC TR SLP327

CYQR;2013-12-06 01:00;CYQR 060100Z 29010KT 15SM SKC M27/M30 A3031 RMK SC TR SLP332

CYQR;2013-12-06 02:00;CYQR 060200Z 29010KT 15SM SKC M28/M30 A3032 RMK SLP337

CYQR;2013-12-06 03:00;CYQR 060300Z 29011KT 15SM SKC M29/M32 A3033 RMK SLP342

CYQR;2013-12-06 04:00;CYQR 060400Z 30008KT 15SM SKC M30/M33 A3035 RMK SLP348

CYQR;2013-12-06 05:00;CYQR 060500Z 27009KT 15SM SKC M33/M36 A3036 RMK SLP353

CYQR;2013-12-06 06:00;CYQR 060600Z 28009KT 15SM SKC M32/M35 A3037 RMK SLP358

CYQR;2013-12-06 07:00;CYQR 060700Z 28011KT 15SM SKC M30/M33 A3037 RMK SLP358

CYQR;2013-12-06 08:00;CYQR 060800Z 28011KT 15SM SKC M31/M34 A3038 RMK SLP359

CYQR;2013-12-06 09:00;CYQR 060900Z 29010KT 15SM SKC M31/M34 A3039 RMK SLP364

CYQR;2013-12-06 10:00;CYQR 061000Z 30009KT 15SM SKC M33/M36 A3040 RMK SLP370

CYQR;2013-12-06 11:00;CYQR 061100Z 30008KT 15SM SKC M32/M35 A3040 RMK SLP371

CYQR;2013-12-06 12:00;CYQR 061200Z 29008KT 15SM SKC M33/M36 A3041 RMK SLP377

CYQR;2013-12-06 13:00;CYQR 061300Z 29008KT 15SM FEW040 M32/M35 A3042 RMK SC2 SLP381

CYQR;2013-12-06 14:00;CYQR 061400Z 31008KT 15SM FEW012 FEW130 SCT250 M32/M35 A3043 RMK SC1AC1CI2 SLP383

CYQR;2013-12-06 15:00;CYQR 061500Z 28009KT 12SM IC BKN250 M32/M35 A3045 RMK CI7 SC+AC TR SLP391

CYQR;2013-12-06 16:00;CYQR 061600Z 29009KT 10SM IC SCT039 OVC250 M29/M32 A3046 RMK SC3CI5 SLP392

CYQR;2013-12-06 17:00;CYQR 061700Z 29010KT 10SM IC DRSN FEW020 SCT052 OVC250 M28/M31 A3047 RMK SC1SC2CI5 SLP399

CYQR;2013-12-06 18:00;CYQR 061800Z 30012KT 10SM IC DRSN OVC250 M27/M30 A3048 RMK CI8 SLP399

CYQR;2013-12-06 19:00;CYQR 061900Z 29012KT 10SM IC DRSN BKN250 M27/M30 A3047 RMK CI7 SLP396

CYQR;2013-12-06 20:00;CYQR 062000Z 30010KT 12SM IC DRSN OVC250 M27/M30 A3047 RMK CI8 SLP396

CYQR;2013-12-06 21:00;CYQR 062100Z 29010KT 12SM IC DRSN BKN250 M26/M29 A3047 RMK CI6 SLP395

CYQR;2013-12-06 22:00;CYQR 062200Z 29010KT 12SM IC DRSN FEW080 OVC250 M26/M29 A3048 RMK AC1CI7 SLP398

CYQR;2013-12-06 23:00;CYQR 062300Z 30009KT 12SM IC DRSN FEW065 OVC250 M26/M29 A3048 RMK SC2CI6 LWR SC TR SLP399

CYQR;2013-12-06 23:45;CYQR 062345Z 28008KT 12SM -SN DRSN SCT070 OVC250 M26/M29 A3049 RMK AC4CI4 SC TR SLP401

CYQR;2013-12-07 00:00;CYQR 070000Z 28009KT 12SM -SN DRSN SCT065 OVC230 M26/M29 A3049 RMK SC3CI5 SC TR SLP403

CYQR;2013-12-07 01:00;CYQR 070100Z 30009KT 10SM -SN DRSN SCT069 OVC230 M26/M29 A3049 RMK AC4CI4 SLP402

CYQR;2013-12-07 02:00;CYQR 070200Z 29009KT 10SM -SN BKN050 M27/M30 A3049 RMK SC5 SLP404

CYQR;2013-12-07 03:00;CYQR 070300Z 30009KT 12SM -SN SCT052 M27/M30 A3050 RMK SC3 SLP405

CYQR;2013-12-07 04:00;CYQR 070400Z 29009KT 10SM SKC M28/M31 A3050 RMK HZ SLP405

CYQR;2013-12-07 05:00;CYQR 070500Z 28009KT 12SM SKC M28/M31 A3050 RMK HZ SLP404

CYQR;2013-12-07 06:00;CYQR 070600Z 26008KT 10SM IC SKC M29/M32 A3051 RMK SLP406

CYQR;2013-12-07 07:00;CYQR 070700Z 28010KT 10SM IC SKC M28/M31 A3050 RMK SLP402

CYQR;2013-12-07 08:00;CYQR 070800Z 29011KT 12SM IC SKC M28/M31 A3048 RMK SLP396

CYQR;2013-12-07 09:00;CYQR 070900Z 28010KT 12SM IC SKC M29/M32 A3048 RMK SLP398

CYQR;2013-12-07 10:00;CYQR 071000Z 27009KT 15SM IC SKC M29/M33 A3047 RMK SLP395

CYQR;2013-12-07 11:00;CYQR 071100Z 28011KT 15SM IC SKC M30/M33 A3046 RMK SLP392

CYQR;2013-12-07 12:00;CYQR 071200Z 27009KT 15SM IC SKC M31/M35 A3045 RMK SLP388

CYQR;2013-12-07 13:00;CYQR 071300Z 27011KT 15SM IC SKC M32/M35 A3044 RMK SLP385

CYQR;2013-12-07 14:00;CYQR 071400Z 27011KT 15SM IC FEW200 M32/M35 A3043 RMK CI1 SLP382

CYQR;2013-12-07 15:00;CYQR 071500Z 25005KT 15SM IC FEW200 M33/M37 A3042 RMK CI1 SLP382

CYQR;2013-12-07 16:00;CYQR 071600Z 26005KT 15SM IC SKC M32/M36 A3042 RMK SLP379

CYQR;2013-12-07 17:00;CYQR 071700Z 24009KT 15SM IC FEW200 M31/M34 A3042 RMK CI1 SLP377

CYQR;2013-12-07 18:00;CYQR 071800Z 25010KT 15SM IC SKC M29/M33 A3039 RMK SLP369

CYQR;2013-12-07 19:00;CYQR 071900Z 25010KT 15SM IC SKC M28/M33 A3037 RMK SLP360

CYQR;2013-12-07 20:00;CYQR 072000Z 24009KT 15SM SKC M28/M32 A3034 RMK TR CI SLP349

CYQR;2013-12-07 21:00;CYQR 072100Z 24008KT 15SM FEW200 M27/M31 A3031 RMK CI1 SLP340

CYQR;2013-12-07 22:00;CYQR 072200Z 22007KT 15SM FEW200 M28/M32 A3028 RMK CI1 SLP330

CYQR;2013-12-07 23:00;CYQR 072300Z 20010KT 15SM SKC M30/M33 A3026 RMK TR CI SLP324

CYQR;2013-12-08 00:00;CYQR 080000Z 18007KT 15SM SKC M29/M32 A3023 RMK SLP316

CYQR;2013-12-08 01:00;CYQR 080100Z 18009KT 15SM SKC M30/M33 A3021 RMK SLP309

CYQR;2013-12-08 02:00;CYQR 080200Z 20007KT 15SM SKC M31/M34 A3018 RMK SLP300

CYQR;2013-12-08 03:00;CYQR 080300Z 19008KT 15SM FEW210 M31/M34 A3016 RMK CI2 SLP293

CYQR;2013-12-08 04:00;CYQR 080400Z 19007KT 15SM BKN210 M29/M32 A3013 RMK CI6 SLP280

CYQR;2013-12-08 05:00;CYQR 080500Z 18007KT 15SM BKN210 M29/M32 A3010 RMK CI5 SLP268

CYQR;2013-12-08 06:00;CYQR 080600Z 16008KT 15SM BKN180 M28/M32 A3007 RMK AC5 SLP256

CYQR;2013-12-08 07:00;CYQR 080700Z 19009KT 15SM BKN180 M28/M32 A3004 RMK AC5 SLP245

CYQR;2013-12-08 08:00;CYQR 080800Z 17007KT 15SM BKN180 M26/M30 A3001 RMK AC6 SLP233

CYQR;2013-12-08 09:00;CYQR 080900Z 21012KT 15SM BKN140 M25/M29 A2998 RMK AC7 SLP221

CYQR;2013-12-08 10:00;CYQR 081000Z 21011KT 15SM OVC130 M25/M29 A2994 RMK AC8 PRESFR SLP208

CYQR;2013-12-08 11:00;CYQR 081100Z 20012KT 15SM BKN120 M24/M28 A2990 RMK AC7 PRESFR SLP196

CYQR;2013-12-08 12:00;CYQR 081200Z 20012KT 15SM OVC110 M24/M28 A2988 RMK AC8 SLP188

CYQR;2013-12-08 13:00;CYQR 081300Z 24011KT 15SM OVC085 M24/M28 A2987 RMK AC8 SLP184

CYQR;2013-12-08 14:00;CYQR 081400Z 25013KT 15SM BKN075 M23/M28 A2986 RMK AC7 SLP182

CYQR;2013-12-08 15:00;CYQR 081500Z 25009KT 4SM BR FEW054 BKN250 M24/M27 A2987 RMK SC2CI3 SLP184

CYQR;2013-12-08 16:00;CYQR 081600Z 29011KT 6SM BR OVC074 M22/M25 A2988 RMK AC8 SLP186

CYQR;2013-12-08 16:16;CYQR 081616Z 30009KT 6SM -SN BR OVC050 M21/M24 A2989 RMK SC8 SLP188

CYQR;2013-12-08 17:00;CYQR 081700Z 31014KT 5SM -SN BR DRSN BKN050 BKN120 OVC250 M21/M24 A2992 RMK SC6AC1CI1 SLP197

CYQR;2013-12-08 17:31;CYQR 081731Z 31012G18KT 12SM DRSN SCT050 SCT120 BKN250 M21/M24 A2992 RMK SC3AC1CI3 SLP199

CYQR;2013-12-08 18:00;CYQR 081800Z 32013KT 8SM DRSN FEW015 SCT050 SCT120 OVC250 M21/M24 A2992 RMK CU1SC2AC1CI4 SLP199

CYQR;2013-12-08 19:00;CYQR 081900Z 32017KT 6SM BLSN FEW015 FEW050 SCT250 M21/M24 A2993 RMK CU1SC1CI1 SLP202

CYQR;2013-12-08 20:00;CYQR 082000Z 32017KT 10SM DRSN FEW015 FEW250 M21/M25 A2995 RMK SC1CI1 SLP208

CYQR;2013-12-08 21:00;CYQR 082100Z 31015KT 12SM DRSN FEW020 FEW250 M21/M25 A2996 RMK SC1CI1 SLP209

CYQR;2013-12-08 22:00;CYQR 082200Z 31016KT 12SM DRSN FEW020 FEW250 M21/M25 A2997 RMK SC1CI1 SLP214

CYQR;2013-12-08 23:00;CYQR 082300Z 30009KT 15SM DRSN FEW250 M23/M26 A3000 RMK CI1 SLP223

CYQR;2013-12-09 00:00;CYQR 090000Z 31015KT 15SM DRSN FEW250 M23/M26 A3001 RMK CI1 SLP226

CYQR;2013-12-09 01:00;CYQR 090100Z 29011KT 15SM SKC M25/M27 A3003 RMK SLP235

CYQR;2013-12-09 01:27;CYQR 090127Z 25007KT 15SM IC SKC M26/M28 A3004 RMK SLP238

CYQR;2013-12-09 02:00;CYQR 090200Z 27007KT 15SM IC SKC M27/M29 A3004 RMK SLP239

CYQR;2013-12-09 03:00;CYQR 090300Z 28009KT 15SM IC SKC M27/M30 A3004 RMK SLP242

CYQR;2013-12-09 04:00;CYQR 090400Z 29009KT 15SM SKC M27/M29 A3004 RMK SLP239

CYQR;2013-12-09 05:00;CYQR 090500Z 29010KT 15SM SKC M27/M30 A3002 RMK SLP233

CYQR;2013-12-09 06:00;CYQR 090600Z 27011KT 15SM SKC M29/M31 A3002 RMK SLP233

CYQR;2013-12-09 07:00;CYQR 090700Z 29011KT 15SM SKC M27/M30 A3001 RMK SLP228

CYQR;2013-12-09 08:00;CYQR 090800Z 20004KT 15SM SKC M30/M33 A2998 RMK SLP221

CYQR;2013-12-09 09:00;CYQR 090900Z 25007KT 15SM FEW016 M31/M34 A2996 RMK SC1 SLP213

CYQR;2013-12-09 09:17;CYQR 090917Z 25010KT 15SM BKN007 M31/M34 A2996 RMK SC6 SLP215

CYQR;2013-12-09 09:43;CYQR 090943Z 25009KT 15SM FEW007 BKN170 M29/M32 A2994 RMK SC1AC6 SLP206

CYQR;2013-12-09 10:00;CYQR 091000Z /////KT 15SM SCT170 M29/M32 A2993 RMK AC3 SLP202

CYQR;2013-12-09 11:00;CYQR 091100Z 23009KT 15SM SCT170 M28/M31 A2986 RMK AC3 PRESFR SLP180

CYQR;2013-12-09 12:00;CYQR 091200Z 21006KT 15SM SKC M29/M31 A2982 RMK PRESFR SLP165

CYQR;2013-12-09 13:00;CYQR 091300Z 18007KT 15SM FEW160 M30/M33 A2980 RMK AC2 SLP161

CYQR;2013-12-09 14:00;CYQR 091400Z 18010KT 15SM OVC120 M26/M28 A2976 RMK AC8 PRESFR SLP145

CYQR;2013-12-09 15:00;CYQR 091500Z 12008KT 15SM OVC100 M25/M28 A2971 RMK AC8 SLP128

CYQR;2013-12-09 16:00;CYQR 091600Z 13009KT 15SM FEW055 OVC070 M24/M27 A2970 RMK SC2AC6 SLP122

CYQR;2013-12-09 16:49;CYQR 091649Z 14009KT 10SM -SN DRSN OVC050 M23/M25 A2964 RMK SC8 PRESFR SLP100

CYQR;2013-12-09 17:00;CYQR 091700Z 15006KT 8SM -SN OVC050 M22/M25 A2965 RMK SC8 SLP103

CYQR;2013-12-09 18:00;CYQR 091800Z 13005KT 6SM -SN OVC030 M21/M23 A2962 RMK SC8 SLP095

CYQR;2013-12-09 19:00;CYQR 091900Z 11005KT 6SM -SN BKN030 OVC075 M20/M22 A2961 RMK SC6AC2 SLP090

CYQR;2013-12-09 20:00;CYQR 092000Z 13004KT 10SM -SN BKN050 BKN250 M19/M22 A2962 RMK SC5CI1 SLP095

CYQR;2013-12-09 20:49;CYQR 092049Z 25002KT 15SM FEW025 SCT043 BKN250 M19/M22 A2965 RMK SC1SC3CI3 SLP105

CYQR;2013-12-09 21:00;CYQR 092100Z 28004KT 15SM FEW025 SCT043 BKN250 M19/M22 A2966 RMK SC1SC2CI2 SLP108

CYQR;2013-12-09 22:00;CYQR 092200Z 31015KT 15SM DRSN FEW055 M19/M22 A2971 RMK SC1 PRESRR SLP127

CYQR;2013-12-09 23:00;CYQR 092300Z 32016KT 12SM DRSN FEW060 M21/M23 A2976 RMK SC1 SLP144

CYQR;2013-12-10 00:00;CYQR 100000Z 31010KT 15SM DRSN FEW045 M22/M24 A2981 RMK SC1 SLP160

CYQR;2013-12-10 01:00;CYQR 100100Z 31017KT 15SM SKC M21/M24 A2983 RMK SLP168

CYQR;2013-12-10 02:00;CYQR 100200Z 26007KT 15SM SKC M24/M26 A2984 RMK SLP172

CYQR;2013-12-10 03:00;CYQR 100300Z 29012KT 15SM SKC M23/M25 A2983 RMK SLP167

CYQR;2013-12-10 04:00;CYQR 100400Z 27009KT 15SM BKN210 M23/M25 A2983 RMK CI7 SLP166

CYQR;2013-12-10 05:00;CYQR 100500Z 27004KT 15SM FEW026 BKN190 M23/M25 A2982 RMK SC2CI5 SLP160

CYQR;2013-12-10 06:00;CYQR 100600Z 19004KT 15SM BKN023 OVC037 M21/M24 A2980 RMK SC6SC2 SLP150

CYQR;2013-12-10 06:13;CYQR 100613Z 22005KT 12SM -SN OVC037 M20/M22 A2981 RMK SC8 SLP151

CYQR;2013-12-10 07:00;CYQR 100700Z 17004KT 8SM -SN OVC037 M19/M21 A2979 RMK SC8 SLP145

CYQR;2013-12-10 08:00;CYQR 100800Z 17005KT 12SM -SN FEW035 OVC060 M18/M20 A2977 RMK SC1SC7 SLP136

CYQR;2013-12-10 09:00;CYQR 100900Z 22005KT 6SM -SN OVC020 M16/M18 A2977 RMK SC8 SLP134

CYQR;2013-12-10 10:00;CYQR 101000Z 32015KT 12SM -SN BKN037 OVC057 M12/M14 A2978 RMK SC6SC2 SLP136

CYQR;2013-12-10 11:00;CYQR 101100Z 33019KT 12SM -SN FEW016 OVC051 M14/M16 A2981 RMK SC2SC6 SLP146

CYQR;2013-12-10 12:00;CYQR 101200Z 35018KT 10SM -SN DRSN BKN048 OVC170 M14/M18 A2984 RMK SC7AC1 BR SLP158

CYQR;2013-12-10 13:00;CYQR 101300Z 34022G29KT 4SM -SN DRSN SCT048 M17/M21 A2987 RMK SC4 SLP171

CYQR;2013-12-10 13:51;CYQR 101351Z 34017G23KT 15SM DRSN FEW048 FEW250 M19/M22 A2991 RMK SC1CI1 PRESRR SLP189

CYQR;2013-12-10 14:00;CYQR 101400Z 33014G19KT 15SM DRSN FEW048 FEW250 M19/M23 A2992 RMK SC1CI1 SLP193

CYQR;2013-12-10 15:00;CYQR 101500Z 34016G22KT 15SM DRSN FEW050 FEW250 M20/M24 A2997 RMK SC1CI1 PRESRR SLP209

CYQR;2013-12-10 16:00;CYQR 101600Z 33018KT 15SM DRSN SKC M21/M25 A3002 RMK SC TR CI TR PRESRR SLP228

CYQR;2013-12-10 17:00;CYQR 101700Z 34018KT 15SM DRSN OVC050 M21/M26 A3007 RMK SC8 CI TR SLP246

CYQR;2013-12-10 18:00;CYQR 101800Z 33021G27KT 8SM DRSN SKC M21/M26 A3009 RMK CI TR SLP251

CYQR;2013-12-10 19:00;CYQR 101900Z 34022KT 10SM DRSN SKC M21/M26 A3011 RMK SC TR CI TR SLP255

CYQR;2013-12-10 20:00;CYQR 102000Z 32024KT 7SM DRSN FEW010 M22/M26 A3015 RMK SC1 SLP268

CYQR;2013-12-10 21:00;CYQR 102100Z 31013G20KT 7SM DRSN SKC M22/M27 A3020 RMK SLP284

CYQR;2013-12-10 22:00;CYQR 102200Z 31019KT 8SM DRSN SKC M23/M27 A3021 RMK SC TR SLP287

CYQR;2013-12-10 23:00;CYQR 102300Z 30007KT 15SM DRSN SKC M25/M28 A3025 RMK SC TR SLP304

CYQR;2013-12-11 00:00;CYQR 110000Z 30013KT 15SM DRSN SKC M26/M29 A3027 RMK SC TR SLP312

CYQR;2013-12-11 01:00;CYQR 110100Z 30010KT 15SM SKC M27/M30 A3029 RMK SLP322

CYQR;2013-12-11 02:00;CYQR 110200Z 29010KT 15SM SKC M27/M30 A3030 RMK SLP327

CYQR;2013-12-11 03:00;CYQR 110300Z 30008KT 15SM SKC M29/M32 A3031 RMK SLP334

CYQR;2013-12-11 04:00;CYQR 110400Z 28010KT 15SM SKC M30/M32 A3031 RMK SLP333

CYQR;2013-12-11 05:00;CYQR 110500Z 26009KT 15SM SKC M30/M33 A3032 RMK SLP338

CYQR;2013-12-11 06:00;CYQR 110600Z 26007KT 15SM SKC M31/M34 A3032 RMK SLP338

CYQR;2013-12-11 07:00;CYQR 110700Z 26011KT 15SM SKC M31/M34 A3030 RMK SLP333

CYQR;2013-12-11 08:00;CYQR 110800Z 26009KT 15SM SKC M32/M35 A3028 RMK SC TR SLP328

CYQR;2013-12-11 09:00;CYQR 110900Z 25010KT 15SM SKC M31/M34 A3027 RMK SLP324

CYQR;2013-12-11 10:00;CYQR 111000Z 23007KT 15SM SKC M31/M34 A3027 RMK SC TR SLP325

CYQR;2013-12-11 11:00;CYQR 111100Z 22007KT 15SM SKC M32/M35 A3025 RMK SC TR SLP317

CYQR;2013-12-11 12:00;CYQR 111200Z 18005KT 15SM SKC M32/M35 A3022 RMK SC TR SLP310

CYQR;2013-12-11 13:00;CYQR 111300Z 15009KT 15SM SCT150 M30/M33 A3019 RMK AC4 FROIN SLP298

CYQR;2013-12-11 14:00;CYQR 111400Z 12008KT 15SM BKN052 M30/M33 A3018 RMK SC7 SLP296

CYQR;2013-12-11 15:00;CYQR 111500Z 13009KT 15SM BKN045 OVC100 M28/M31 A3013 RMK SC5AC3 PRESFR SLP279

CYQR;2013-12-11 16:00;CYQR 111600Z 12009KT 15SM OVC063 M27/M30 A3011 RMK SC8 SLP271

CYQR;2013-12-11 16:34;CYQR 111634Z 12009KT 6SM -SN BKN041 OVC100 M26/M28 A3010 RMK SC6AC2 SLP266

CYQR;2013-12-11 17:00;CYQR 111700Z 13011KT 3SM -SN OVC030 M24/M27 A3009 RMK SC8 SLP262

CYQR;2013-12-11 17:38;CYQR 111738Z 12009KT 2 1/2SM -SN DRSN OVC022 M23/M26 A3008 RMK SC8 SLP258

CYQR;2013-12-11 18:00;CYQR 111800Z 13009KT 2 1/2SM -SN DRSN OVC023 M22/M25 A3007 RMK SC8 SLP252

CYQR;2013-12-11 19:00;CYQR 111900Z 11006KT 2 1/2SM -SN DRSN OVC027 M21/M24 A3005 RMK SC8 /S01/ SLP245

CYQR;2013-12-11 19:35;CYQR 111935Z 11007KT 3SM -SN BKN021 BKN100 OVC250 M21/M23 A3003 RMK SC5AC2CI1 SLP237

CYQR;2013-12-11 20:00;CYQR 112000Z 13007KT 12SM -SN FEW100 OVC250 M20/M22 A3002 RMK AC2CI6 SLP237

CYQR;2013-12-11 20:09;CYQR 112009Z 13008KT 12SM FEW100 OVC250 M20/M22 A3002 RMK AC1CI7 SC TR SLP235

CYQR;2013-12-11 21:00;CYQR 112100Z 14008KT 15SM BKN250 M19/M22 A3003 RMK CI7 SLP237

CYQR;2013-12-11 22:00;CYQR 112200Z 13006KT 15SM BKN250 M19/M22 A3003 RMK CI6 SLP238

CYQR;2013-12-11 23:00;CYQR 112300Z 13004KT 15SM FEW250 M19/M22 A3004 RMK CI2 TR AC SLP240

CYQR;2013-12-12 00:00;CYQR 120000Z 12004KT 15SM FEW250 M20/M22 A3006 RMK CI1 TR AC SLP250

CYQR;2013-12-12 01:00;CYQR 120100Z 14005KT 15SM FEW250 M21/M23 A3006 RMK CI1 SLP247

CYQR;2013-12-12 02:00;CYQR 120200Z 15003KT 15SM BKN080 M23/M25 A3007 RMK AC6 SLP252

CYQR;2013-12-12 03:00;CYQR 120300Z 24002KT 15SM FEW100 SCT240 M21/M23 A3008 RMK AC2CI1 SLP252

CYQR;2013-12-12 04:00;CYQR 120400Z 31003KT 15SM FEW100 BKN240 M21/M23 A3007 RMK AC1CI5 SLP249

CYQR;2013-12-12 05:00;CYQR 120500Z 34005KT 15SM SCT050 SCT240 M21/M23 A3008 RMK SC3CI1 SLP249

CYQR;2013-12-12 06:00;CYQR 120600Z 32002KT 15SM -SN OVC046 M19/M21 A3009 RMK SC8 SLP249

CYQR;2013-12-12 07:00;CYQR 120700Z 24003KT 5SM -SN OVC035 M19/M21 A3010 RMK SC8 SLP251

CYQR;2013-12-12 08:00;CYQR 120800Z 30002KT 10SM -SN OVC032 M18/M20 A3008 RMK SC8 SLP243

CYQR;2013-12-12 09:00;CYQR 120900Z 04003KT 15SM -SN OVC040 M18/M20 A3007 RMK SC8 SLP239

CYQR;2013-12-12 10:00;CYQR 121000Z 06004KT 15SM -SN OVC038 M16/M18 A3007 RMK SC8 SLP240

CYQR;2013-12-12 11:00;CYQR 121100Z 05003KT 15SM -SN OVC034 M16/M18 A3009 RMK SC8 SLP245

CYQR;2013-12-12 12:00;CYQR 121200Z 04004KT 15SM -SN OVC024 M16/M18 A3009 RMK SC8 SLP245

CYQR;2013-12-12 13:00;CYQR 121300Z 06006KT 15SM -SN OVC022 M15/M18 A3008 RMK SC8 SLP241

CYQR;2013-12-12 13:20;CYQR 121320Z 11005KT 15SM OVC021 M15/M18 A3008 RMK SC8 SLP242

CYQR;2013-12-12 14:00;CYQR 121400Z 05004KT 15SM OVC022 M15/M18 A3009 RMK SC8 SLP248

CYQR;2013-12-12 15:00;CYQR 121500Z 03008KT 15SM OVC023 M15/M18 A3011 RMK SC8 SLP253

CYQR;2013-12-12 16:00;CYQR 121600Z 05008KT 15SM OVC021 M15/M19 A3013 RMK SC8 SLP259

CYQR;2013-12-12 17:00;CYQR 121700Z 04011KT 15SM OVC023 M15/M19 A3013 RMK SC8 SLP260

CYQR;2013-12-12 18:00;CYQR 121800Z 05010KT 15SM OVC022 M15/M19 A3014 RMK SC8 SLP261

CYQR;2013-12-12 18:32;CYQR 121832Z 06011KT 15SM -SN OVC023 M15/M20 A3014 RMK SC8 SLP261

CYQR;2013-12-12 19:00;CYQR 121900Z 06010KT 12SM -SN OVC023 M15/M19 A3013 RMK SC8 SLP259

CYQR;2013-12-12 20:00;CYQR 122000Z 08010KT 15SM -SN OVC023 M15/M20 A3014 RMK SC8 SLP261

CYQR;2013-12-12 21:00;CYQR 122100Z 06010KT 15SM OVC031 M16/M20 A3013 RMK SC8 SLP256

CYQR;2013-12-12 21:33;CYQR 122133Z 09008KT 15SM -SN OVC032 M16/M20 A3012 RMK SC8 SLP255

CYQR;2013-12-12 22:00;CYQR 122200Z 08008KT 4SM -SN OVC032 M16/M19 A3012 RMK SC8 SLP254

CYQR;2013-12-12 22:17;CYQR 122217Z 08009KT 1 1/2SM -SN OVC030 M16/M19 A3013 RMK SC8 SLP255

CYQR;2013-12-12 23:00;CYQR 122300Z 08010KT 1 1/2SM -SN OVC035 M16/M19 A3011 RMK SC8 SLP251

CYQR;2013-12-13 00:00;CYQR 130000Z 08009KT 1 1/2SM -SN OVC028 M16/M19 A3011 RMK SC8 /S01/ SLP251

CYQR;2013-12-13 01:00;CYQR 130100Z 08010KT 1 3/4SM -SN DRSN OVC015 M17/M19 A3011 RMK SC8 SLP250

CYQR;2013-12-13 01:37;CYQR 130137Z 08010KT 1 1/4SM -SN DRSN OVC022 M17/M20 A3011 RMK SN1SC7 SLP250

CYQR;2013-12-13 01:49;CYQR 130149Z 07012KT 1 1/2SM -SN DRSN OVC022 M17/M20 A3011 RMK SC8 VIS VRB 1-2 SLP248

CYQR;2013-12-13 02:00;CYQR 130200Z 09014KT 1 1/2SM -SN DRSN OVC018 M17/M20 A3011 RMK SC8 VIS VRB 1-2 /S01/ SLP250

CYQR;2013-12-13 02:24;CYQR 130224Z 08012KT 2 1/4SM -SN DRSN OVC030 M18/M20 A3012 RMK SC8 SLP254

CYQR;2013-12-13 02:35;CYQR 130235Z 08013KT 3SM -SN DRSN OVC040 M18/M21 A3012 RMK SC8 SLP252

CYQR;2013-12-13 03:00;CYQR 130300Z 09013KT 3SM -SN DRSN OVC050 M18/M21 A3011 RMK SC8 /S02/ SLP249

CYQR;2013-12-13 04:00;CYQR 130400Z 08015KT 6SM -SN DRSN OVC043 M19/M22 A3013 RMK SC8 SLP257

CYQR;2013-12-13 04:50;CYQR 130450Z 09014KT 2 1/2SM -SN DRSN OVC030 M19/M22 A3012 RMK SC8 SLP254

CYQR;2013-12-13 05:00;CYQR 130500Z 09017KT 2 1/2SM -SN OVC038 M19/M22 A3012 RMK SC8 /S03/ SLP254

CYQR;2013-12-13 05:28;CYQR 130528Z 09013KT 3SM -SN DRSN OVC045 M19/M22 A3011 RMK SC8 SLP252

CYQR;2013-12-13 05:47;CYQR 130547Z 09011G16KT 2 1/2SM -SN DRSN OVC038 M19/M22 A3011 RMK SC8 SLP252

CYQR;2013-12-13 06:00;CYQR 130600Z 09013KT 2SM -SN DRSN OVC040 M19/M22 A3011 RMK SC8 SLP253

CYQR;2013-12-13 07:05;CYQR 130705Z 07013KT 3SM -SN DRSN OVC042 M19/M22 A3012 RMK SC8 SLP255

CYQR;2013-12-13 08:00;CYQR 130800Z 08013KT 15SM -SN DRSN SCT045 OVC130 M20/M23 A3012 RMK SC3AC5 /S01/ SLP257

CYQR;2013-12-13 09:00;CYQR 130900Z 08013KT 15SM BKN060 OVC100 M20/M24 A3014 RMK SC6AC2 SLP262

CYQR;2013-12-13 09:29;CYQR 130929Z 07012G19KT 2 1/2SM -SN DRSN OVC032 M20/M23 A3014 RMK SC8 SLP264

CYQR;2013-12-13 09:38;CYQR 130938Z 08012G18KT 1 1/2SM -SN DRSN OVC030 M20/M23 A3014 RMK SN1SC7 SLP262

CYQR;2013-12-13 10:00;CYQR 131000Z 08013KT 1 1/2SM -SN DRSN OVC030 M20/M23 A3015 RMK SN2SC6 VIS VRB 1-2 /S01/ SLP265

CYQR;2013-12-13 11:00;CYQR 131100Z 09012KT 1 1/2SM -SN DRSN OVC042 M20/M23 A3015 RMK SN1SC7 VIS VRB 1-2 /S03/ SLP266

CYQR;2013-12-13 11:15;CYQR 131115Z 08013KT 2 1/2SM -SN DRSN OVC055 M20/M23 A3015 RMK SC8 SLP266

CYQR;2013-12-13 11:20;CYQR 131120Z 09014KT 3SM -SN DRSN OVC055 M20/M23 A3015 RMK SC8 SLP266

CYQR;2013-12-13 12:00;CYQR 131200Z 09012KT 6SM -SN DRSN OVC050 M19/M22 A3016 RMK SC8 SLP271

CYQR;2013-12-13 13:00;CYQR 131300Z 08010G17KT 5SM -SN DRSN OVC050 M20/M23 A3017 RMK SC8 SLP273

CYQR;2013-12-13 14:00;CYQR 131400Z 10011KT 12SM -SN DRSN SCT060 BKN100 BKN190 M20/M23 A3017 RMK SC4AC2CI1 SLP275

CYQR;2013-12-13 14:23;CYQR 131423Z 11013KT 15SM DRSN BKN059 OVC190 M20/M23 A3018 RMK SC7CI1 SLP279

CYQR;2013-12-13 15:00;CYQR 131500Z 11014KT 15SM DRSN BKN055 OVC100 M19/M23 A3019 RMK SC7AC1 SLP282

CYQR;2013-12-13 16:00;CYQR 131600Z 11014KT 15SM DRSN BKN053 OVC100 M20/M23 A3022 RMK SC7AC1 SLP292

CYQR;2013-12-13 17:00;CYQR 131700Z /////KT 15SM DRSN OVC050 M20/M24 A3023 RMK SC8 WIND 11013KTS SLP297

CYQR;2013-12-13 18:00;CYQR 131800Z 12014KT 15SM DRSN OVC047 M20/M23 A3022 RMK SC8 SLP292

CYQR;2013-12-13 19:00;CYQR 131900Z 13017KT 12SM DRSN OVC046 M20/M23 A3020 RMK SC8 SLP285

CYQR;2013-12-13 19:36;CYQR 131936Z 14016KT 6SM -SN DRSN BKN047 M20/M24 A3020 RMK SC7 SLP285

CYQR;2013-12-13 20:00;CYQR 132000Z 13016KT 6SM -SN DRSN BKN037 M20/M24 A3020 RMK SC6 SLP285

CYQR;2013-12-13 20:33;CYQR 132033Z 14015KT 8SM DRSN VCBLSN FEW035 SCT120 OVC240 M20/M24 A3018 RMK SC1AC2CI5 VIS W 4SM SLP281

CYQR;2013-12-13 21:00;CYQR 132100Z 13012KT 12SM DRSN BKN064 BKN240 M20/M24 A3020 RMK SC6CI1 SLP287

CYQR;2013-12-13 22:00;CYQR 132200Z 14015KT 6SM BLSN BKN070 OVC240 M21/M24 A3019 RMK AC5CI3 SLP284

CYQR;2013-12-13 23:00;CYQR 132300Z 14014KT 12SM -SN DRSN OVC054 M21/M25 A3021 RMK SC8 OCNL BLSN SLP290

CYQR;2013-12-13 23:40;CYQR 132340Z 14010G16KT 2SM -SN DRSN OVC045 M21/M24 A3022 RMK SC8 SLP295

CYQR;2013-12-14 00:00;CYQR 140000Z 14014KT 2SM -SN DRSN VV017 M21/M25 A3021 RMK SN8 OCNL BLSN SLP291

CYQR;2013-12-14 01:00;CYQR 140100Z 14015KT 1 1/2SM -SN DRSN VV014 M21/M24 A3020 RMK SN8 PRESFR SLP287

CYQR;2013-12-14 01:35;CYQR 140135Z 14015KT 3SM -SN DRSN OVC040 M21/M24 A3020 RMK SC8 OCNL BLSN SLP288

CYQR;2013-12-14 02:00;CYQR 140200Z 14013KT 4SM -SN DRSN OVC048 M21/M24 A3020 RMK SC8 SLP286

CYQR;2013-12-14 03:00;CYQR 140300Z 14013KT 10SM -SN DRSN OVC040 M21/M24 A3019 RMK SC8 SLP285

CYQR;2013-12-14 04:00;CYQR 140400Z 15011KT 15SM -SN DRSN OVC036 M20/M23 A3018 RMK SC8 SLP281

CYQR;2013-12-14 05:00;CYQR 140500Z 14010KT 15SM -SN DRSN FEW013 OVC029 M20/M23 A3017 RMK CF1SC7 SLP277

CYQR;2013-12-14 06:00;CYQR 140600Z 15007KT 15SM -SN DRSN OVC028 M20/M23 A3017 RMK SC8 SLP277

CYQR;2013-12-14 07:00;CYQR 140700Z 17004KT 15SM -SN OVC025 M19/M22 A3018 RMK SC8 SLP280

CYQR;2013-12-14 08:00;CYQR 140800Z 21003KT 15SM -SN OVC026 M19/M22 A3016 RMK SC8 SLP274

CYQR;2013-12-14 09:00;CYQR 140900Z 29008KT 15SM -SN OVC025 M20/M22 A3018 RMK SC8 SLP281

CYQR;2013-12-14 10:00;CYQR 141000Z 33012KT 15SM -SN OVC020 M20/M23 A3018 RMK SC8 SLP281

CYQR;2013-12-14 11:00;CYQR 141100Z 33010KT 15SM -SN OVC019 M20/M23 A3020 RMK SC8 SLP287

CYQR;2013-12-14 11:22;CYQR 141122Z 32010KT 15SM FEW019 SCT250 M22/M24 A3021 RMK SC2CI1 SLP291

CYQR;2013-12-14 12:00;CYQR 141200Z 32005KT 15SM SCT098 M23/M25 A3020 RMK AC3 SLP289

CYQR;2013-12-14 13:00;CYQR 141300Z 32004KT 15SM OVC090 M22/M24 A3019 RMK AC8 SLP286

CYQR;2013-12-14 14:00;CYQR 141400Z 31004KT 15SM FEW065 BKN100 M21/M24 A3018 RMK SC2AC5 SLP282

CYQR;2013-12-14 15:00;CYQR 141500Z 32003KT 15SM BKN074 M21/M23 A3018 RMK AS7 SLP282

CYQR;2013-12-14 16:00;CYQR 141600Z VRB02KT 15SM BKN055 OVC100 M20/M23 A3017 RMK SC5AS3 SLP277

CYQR;2013-12-14 16:10;CYQR 141610Z 17003KT 8SM -SN BKN047 OVC100 M20/M23 A3017 RMK SC7AS1 SLP277

CYQR;2013-12-14 16:52;CYQR 141652Z 16003KT 150V280 1 3/4SM -SN OVC045 M20/M23 A3017 RMK SN2SC6 SLP276

CYQR;2013-12-14 17:00;CYQR 141700Z 16003KT 2 1/2SM -SN OVC038 M20/M23 A3017 RMK SN1SC7 SLP278

CYQR;2013-12-14 17:12;CYQR 141712Z 18004KT 1 1/2SM -SN OVC032 M20/M22 A3017 RMK SN3SC5 VIS VRB 1-2 SLP275

CYQR;2013-12-14 17:48;CYQR 141748Z 18006KT 2SM -SN OVC040 M19/M22 A3016 RMK SN2SC6 SLP271

CYQR;2013-12-14 18:00;CYQR 141800Z 16005KT 2 1/4SM -SN OVC040 M19/M22 A3015 RMK SN1SC7 /S02/ SLP267

CYQR;2013-12-14 18:15;CYQR 141815Z 16006KT 3SM -SN BKN058 OVC090 M19/M22 A3014 RMK SC7AC1 SLP266

CYQR;2013-12-14 18:41;CYQR 141841Z 16007KT 2SM -SN OVC040 M19/M22 A3013 RMK SN1SC7 SLP261

CYQR;2013-12-14 19:00;CYQR 141900Z 17008KT 3SM -SN OVC038 M19/M22 A3012 RMK SC8 SLP259

CYQR;2013-12-14 19:08;CYQR 141908Z 16008KT 2SM -SN OVC038 M19/M22 A3012 RMK SN2SC6 VIS VRB 1-3 SLP259

CYQR;2013-12-14 20:00;CYQR 142000Z 15008KT 1 1/2SM -SN OVC090 M19/M22 A3011 RMK SN3AC5 SLP253

CYQR;2013-12-14 20:21;CYQR 142021Z 15009KT 2SM -SN BKN040 OVC090 M19/M22 A3009 RMK SC6AC2 SLP247

CYQR;2013-12-14 21:00;CYQR 142100Z 14010KT 2 1/2SM -SN OVC042 M19/M22 A3008 RMK SC8 SLP243

CYQR;2013-12-14 22:00;CYQR 142200Z 13012KT 5SM -SN DRSN OVC053 M19/M22 A3006 RMK SC8 SLP237

CYQR;2013-12-14 23:00;CYQR 142300Z 13012KT 9SM -SN DRSN OVC044 M19/M21 A3006 RMK SC8 SLP239

CYQR;2013-12-15 00:00;CYQR 150000Z 12013KT 8SM -SN DRSN OVC055 M18/M21 A3004 RMK SC8 SLP233

CYQR;2013-12-15 01:00;CYQR 150100Z 12013KT 4SM -SN DRSN OVC047 M18/M21 A3002 RMK SC8 SLP225

CYQR;2013-12-15 02:00;CYQR 150200Z 12015KT 4SM -SN DRSN BKN038 OVC087 M18/M21 A3002 RMK SC7AC1 PRESFR SLP225

CYQR;2013-12-15 03:00;CYQR 150300Z 12017KT 12SM -SN DRSN BKN035 OVC110 M18/M21 A3000 RMK SC5AC3 SLP218

CYQR;2013-12-15 04:00;CYQR 150400Z 12018KT 10SM -SN DRSN OVC035 M18/M21 A3000 RMK SC8 SLP215

CYQR;2013-12-15 05:00;CYQR 150500Z 12015G21KT 10SM -SN DRSN SCT027 OVC082 M18/M20 A2999 RMK SC3AC5 SLP211

CYQR;2013-12-15 06:00;CYQR 150600Z 13015G26KT 4SM -SN DRSN BKN025 OVC080 M17/M20 A2997 RMK SC5AC3 PRESRR SLP204

CYQR;2013-12-15 07:00;CYQR 150700Z 13020G26KT 6SM -SN DRSN OVC030 M17/M20 A2996 RMK SC8 SLP199

CYQR;2013-12-15 07:45;CYQR 150745Z 13022G27KT 2SM -SN DRSN OVC029 M17/M20 A2993 RMK SC8 OCNL BLSN SLP191

CYQR;2013-12-15 08:00;CYQR 150800Z 13021G26KT 2SM -SN DRSN OVC020 M17/M20 A2992 RMK SC8 SLP188

CYQR;2013-12-15 09:00;CYQR 150900Z 14019G25KT 2SM -SN DRSN OVC023 M17/M20 A2992 RMK SC8 OCNL BLSN SLP186

CYQR;2013-12-15 10:00;CYQR 151000Z 13019G30KT 1 1/2SM -SN BLSN OVC027 M17/M20 A2989 RMK SC8 SLP178

CYQR;2013-12-15 11:00;CYQR 151100Z 14018G25KT 1 1/2SM -SN BLSN OVC026 M17/M20 A2987 RMK SC8 SLP169

CYQR;2013-12-15 12:00;CYQR 151200Z 13020KT 1 1/2SM -SN BLSN OVC023 M18/M20 A2985 RMK SC8 /S01/ SLP162

CYQR;2013-12-15 13:00;CYQR 151300Z 13020G25KT 2SM -SN BLSN OVC023 M17/M20 A2982 RMK SC8 SLP154

CYQR;2013-12-15 14:00;CYQR 151400Z 14023KT 2 1/2SM -SN BLSN OVC030 M17/M20 A2981 RMK SC8 SLP149

CYQR;2013-12-15 15:00;CYQR 151500Z 15021G28KT 2SM -SN BLSN OVC045 M17/M19 A2979 RMK SC8 SLP140

CYQR;2013-12-15 16:00;CYQR 151600Z 14020G26KT 1 1/2SM -SN BLSN SCT050 OVC100 M17/M19 A2977 RMK SC4AC4 SLP135

CYQR;2013-12-15 16:13;CYQR 151613Z 14021G27KT 3SM BLSN SCT050 OVC100 M17/M19 A2977 RMK SC4AC4 SLP135

CYQR;2013-12-15 17:00;CYQR 151700Z 14022KT 3SM BLSN SCT050 BKN100 M16/M18 A2974 RMK SC4AC3 PRESFR SLP124

CYQR;2013-12-15 18:00;CYQR 151800Z 14019G26KT 2SM -SN BLSN SCT040 OVC090 M16/M18 A2974 RMK SC4AC4 SLP123

CYQR;2013-12-15 19:00;CYQR 151900Z 14019G24KT 2 1/2SM -SN BLSN OVC075 M15/M17 A2972 RMK AC8 PRESRR SLP117

CYQR;2013-12-15 19:24;CYQR 151924Z 13017G23KT 3SM -SN DRSN VCBLSN BKN070 OVC110 M14/M17 A2971 RMK AC7AC1 SLP113

CYQR;2013-12-15 19:45;CYQR 151945Z 13020KT 5SM DRSN VCBLSN SCT070 BKN120 M14/M17 A2969 RMK AC4AC3 VIS S-W 3 SLP104

CYQR;2013-12-15 20:00;CYQR 152000Z 13015KT 5SM DRSN VCBLSN SCT070 BKN130 M14/M17 A2970 RMK AC3AC4 VIS LWR S-W SLP108

CYQR;2013-12-15 21:00;CYQR 152100Z 13014KT 12SM DRSN BKN070 M13/M15 A2969 RMK AC7 SLP103

CYQR;2013-12-15 22:00;CYQR 152200Z 13013G19KT 15SM DRSN BKN090 M13/M15 A2968 RMK AC7 PRESRR SLP101

CYQR;2013-12-15 23:00;CYQR 152300Z 12010KT 15SM DRSN FEW060 SCT140 BKN240 M13/M15 A2972 RMK SC1AC3CI3 SLP113

CYQR;2013-12-16 00:00;CYQR 160000Z 12011KT 15SM DRSN FEW070 SCT140 BKN240 M13/M15 A2969 RMK AC2AC2CI3 SLP104

CYQR;2013-12-16 01:00;CYQR 160100Z 12008KT 15SM SCT080 M14/M15 A2970 RMK AC4 SLP107

CYQR;2013-12-16 01:42;CYQR 160142Z 14004KT 15SM -SN BKN070 M13/M15 A2973 RMK AC7 SLP117

CYQR;2013-12-16 02:00;CYQR 160200Z 12005KT 15SM OVC080 M13/M15 A2972 RMK AC8 SLP114

CYQR;2013-12-16 03:00;CYQR 160300Z 21008KT 15SM FEW040 OVC070 M09/M10 A2970 RMK SC2AC6 SLP104

CYQR;2013-12-16 04:00;CYQR 160400Z 27013KT 15SM FEW040 OVC073 00/M04 A2968 RMK SC1AC7 SLP088

CYQR;2013-12-16 05:00;CYQR 160500Z 28015KT 15SM BKN080 BKN120 01/M05 A2969 RMK AC5AC2 SLP093

CYQR;2013-12-16 06:00;CYQR 160600Z 29016KT 15SM FEW180 BKN220 M01/M06 A2972 RMK AC2CI5 SLP102

CYQR;2013-12-16 07:00;CYQR 160700Z 29018G24KT 15SM BKN200 M02/M06 A2974 RMK CI5 SLP111

CYQR;2013-12-16 08:00;CYQR 160800Z 28015KT 15SM SKC M03/M08 A2976 RMK SLP116

CYQR;2013-12-16 09:00;CYQR 160900Z 28016KT 15SM FEW047 SCT070 M04/M08 A2980 RMK SC2AC1 SLP130

CYQR;2013-12-16 10:00;CYQR 161000Z 28017KT 15SM SKC M05/M09 A2980 RMK SLP131

CYQR;2013-12-16 11:00;CYQR 161100Z 28016KT 15SM FEW080 M06/M10 A2981 RMK AC1 SLP136

CYQR;2013-12-16 12:00;CYQR 161200Z 28016KT 15SM SKC M06/M10 A2981 RMK SLP136

CYQR;2013-12-16 13:00;CYQR 161300Z 28017KT 15SM SKC M06/M10 A2981 RMK SLP137

CYQR;2013-12-16 14:00;CYQR 161400Z 27016KT 15SM FEW100 M07/M10 A2981 RMK AC1 SLP137

CYQR;2013-12-16 15:00;CYQR 161500Z 27014KT 15SM SKC M07/M11 A2980 RMK AC TR SLP131

CYQR;2013-12-16 16:00;CYQR 161600Z 27017KT 15SM SKC M05/M09 A2982 RMK AC TR SLP129

CYQR;2013-12-16 17:00;CYQR 161700Z 28018G24KT 15SM DRSN FEW050 FEW140 SCT250 M03/M06 A2985 RMK SC1AC1CI1 SLP138

CYQR;2013-12-16 18:00;CYQR 161800Z 28016KT 15SM DRSN SKC M02/M05 A2983 RMK TR SC+AC SLP130

CYQR;2013-12-16 19:00;CYQR 161900Z 29022KT 15SM DRSN SCT160 BKN250 M01/M04 A2983 RMK AC4CI2 TR SC SLP132

CYQR;2013-12-16 20:00;CYQR 162000Z 29023G29KT 15SM DRSN FEW055 FEW160 BKN250 M00/M03 A2982 RMK SC1AC1CI4 SLP129

CYQR;2013-12-16 21:00;CYQR 162100Z 29021G26KT 15SM DRSN FEW120 M01/M03 A2983 RMK AC2 SC TR CI TR SLP134

CYQR;2013-12-16 22:00;CYQR 162200Z 29020G26KT 15SM DRSN FEW057 M01/M04 A2986 RMK SC1 TR LWR SC SLP144

CYQR;2013-12-16 23:00;CYQR 162300Z 29020KT 15SM DRSN FEW050 SCT220 M03/M06 A2989 RMK SC1CI2 SLP157

CYQR;2013-12-17 00:00;CYQR 170000Z 29019G26KT 15SM DRSN FEW045 FEW220 M04/M07 A2990 RMK SC1CI1 SLP162

CYQR;2013-12-17 01:00;CYQR 170100Z 28023KT 15SM DRSN FEW086 SCT220 M04/M07 A2992 RMK AC2CI2 SLP166

CYQR;2013-12-17 02:00;CYQR 170200Z 29021G27KT 15SM DRSN FEW086 M05/M08 A2994 RMK AC2 SLP175

CYQR;2013-12-17 03:00;CYQR 170300Z 28021KT 15SM FEW080 M05/M09 A2995 RMK AC2 SLP181

CYQR;2013-12-17 04:00;CYQR 170400Z 29020KT 15SM DRSN SKC M06/M09 A2997 RMK SLP186

CYQR;2013-12-17 05:00;CYQR 170500Z 28019G26KT 15SM DRSN SKC M06/M10 A2999 RMK SLP192

CYQR;2013-12-17 06:00;CYQR 170600Z 29020KT 15SM DRSN SKC M06/M10 A3002 RMK SLP200

CYQR;2013-12-17 07:00;CYQR 170700Z 29018KT 15SM DRSN SKC M07/M11 A3004 RMK SLP207

CYQR;2013-12-17 08:00;CYQR 170800Z 28015KT 15SM DRSN SKC M08/M11 A3006 RMK SLP216

CYQR;2013-12-17 09:00;CYQR 170900Z 29011KT 15SM DRSN SKC M10/M13 A3008 RMK SLP222

CYQR;2013-12-17 10:00;CYQR 171000Z 29015KT 15SM DRSN SKC M10/M13 A3008 RMK SLP223

CYQR;2013-12-17 11:00;CYQR 171100Z 28010KT 15SM DRSN SCT200 M12/M15 A3008 RMK CI3 SLP225

CYQR;2013-12-17 12:00;CYQR 171200Z 28003KT 15SM SCT250 M13/M15 A3007 RMK CI4 SLP224

CYQR;2013-12-17 13:00;CYQR 171300Z 30005KT 15SM BKN250 M15/M16 A3007 RMK CI5 SLP226

CYQR;2013-12-17 14:00;CYQR 171400Z 28003KT 15SM BKN220 M14/M15 A3007 RMK CI7 SLP226

CYQR;2013-12-17 15:00;CYQR 171500Z 22004KT 15SM FEW120 BKN240 M16/M18 A3006 RMK AC1CI6 SLP223

CYQR;2013-12-17 16:00;CYQR 171600Z 16005KT 15SM FEW120 BKN260 M15/M16 A3003 RMK AC1CI4 SLP212

CYQR;2013-12-17 17:00;CYQR 171700Z 11008KT 15SM OVC110 M11/M13 A2999 RMK AC8 SLP198

CYQR;2013-12-17 18:00;CYQR 171800Z 14009KT 15SM BKN100 OVC260 M11/M13 A2995 RMK AC7CI1 SLP185

CYQR;2013-12-17 19:00;CYQR 171900Z 12012KT 15SM OVC090 M10/M12 A2990 RMK AC8 SLP165

CYQR;2013-12-17 20:00;CYQR 172000Z 12014KT 15SM DRSN BKN086 BKN240 M09/M12 A2983 RMK AC5CI2 PRESFR SLP141

CYQR;2013-12-17 21:00;CYQR 172100Z 12015KT 15SM DRSN SCT090 BKN240 M10/M12 A2977 RMK AC3CI4 SLP124

CYQR;2013-12-17 22:00;CYQR 172200Z 12017KT 15SM DRSN SCT100 BKN220 M10/M12 A2974 RMK AC3CI4 SLP112

CYQR;2013-12-17 23:00;CYQR 172300Z 14019G28KT 15SM DRSN BKN100 OVC220 M09/M12 A2971 RMK AC5CI3 SLP102

CYQR;2013-12-18 00:00;CYQR 180000Z 14020G26KT 15SM DRSN BKN130 OVC220 M09/M11 A2966 RMK AC7CI1 SLP088

CYQR;2013-12-18 01:00;CYQR 180100Z 14019KT 15SM DRSN OVC130 M08/M10 A2963 RMK AC8 SLP076

CYQR;2013-12-18 02:00;CYQR 180200Z 14015KT 15SM DRSN BKN120 OVC220 M09/M10 A2959 RMK AC5CI3 SLP063

CYQR;2013-12-18 03:00;CYQR 180300Z 14011KT 15SM DRSN OVC120 M08/M10 A2957 RMK AC8 SLP059

CYQR;2013-12-18 04:00;CYQR 180400Z 13008KT 15SM DRSN BKN250 M09/M11 A2956 RMK CI6 SLP052

CYQR;2013-12-18 05:00;CYQR 180500Z 13006KT 15SM DRSN OVC230 M10/M12 A2955 RMK CI8 SLP047

CYQR;2013-12-18 06:00;CYQR 180600Z 00000KT 15SM SCT210 M09/M11 A2954 RMK CI3 SLP045

CYQR;2013-12-18 07:00;CYQR 180700Z 20011KT 15SM FEW100 SCT250 M12/M13 A2954 RMK AC1CI2 SLP045

CYQR;2013-12-18 08:00;CYQR 180800Z 32005KT 15SM OVC140 M09/M11 A2952 RMK AC8 SLP037

CYQR;2013-12-18 09:00;CYQR 180900Z 20003KT 15SM OVC100 M08/M10 A2952 RMK AC8 SLP036

CYQR;2013-12-18 10:00;CYQR 181000Z 18004KT 15SM OVC082 M07/M08 A2952 RMK AC8 SLP034

CYQR;2013-12-18 11:00;CYQR 181100Z VRB02KT 15SM OVC066 M06/M07 A2952 RMK AC8 SLP034

CYQR;2013-12-18 12:00;CYQR 181200Z 04003KT 15SM -SN OVC050 M05/M07 A2951 RMK SC8 SLP028

CYQR;2013-12-18 12:38;CYQR 181238Z 36007KT 15SM -FZRA BKN040 OVC120 M04/M06 A2951 RMK SC7AC1 SLP027

CYQR;2013-12-18 12:49;CYQR 181249Z 35006KT 15SM SCT040 BKN100 M05/M06 A2951 RMK SC3AC3 SLP029

CYQR;2013-12-18 13:00;CYQR 181300Z 34004KT 15SM FEW040 OVC120 M05/M06 A2952 RMK SC2AC6 SLP031

CYQR;2013-12-18 13:19;CYQR 181319Z 29005KT 15SM BKN009 OVC090 M05/M07 A2953 RMK SC5AC3 SLP036

CYQR;2013-12-18 13:46;CYQR 181346Z 29005KT 15SM -SN OVC008 M05/M06 A2955 RMK SC8 SLP042

CYQR;2013-12-18 14:00;CYQR 181400Z 30009KT 3SM -SN OVC012 M04/M05 A2956 RMK SC8 PRESRR SLP047

CYQR;2013-12-18 14:26;CYQR 181426Z 33017KT 1SM -SN DRSN OVC008 M04/M04 A2958 RMK SC8 PRESRR SLP053

CYQR;2013-12-18 14:48;CYQR 181448Z 33020G27KT 2SM -SN DRSN BKN008 OVC057 M05/M06 A2960 RMK SC5SC3 PRESRR SLP060

CYQR;2013-12-18 15:00;CYQR 181500Z 34023KT 2SM -SN DRSN BKN008 OVC036 M06/M07 A2960 RMK SC6SC2 SLP061

CYQR;2013-12-18 15:10;CYQR 181510Z 33027KT 1/2SM -SN DRSN BKN008 OVC016 M07/M08 A2961 RMK SC5SC3 PRESRR SLP066

CYQR;2013-12-18 15:34;CYQR 181534Z 34019G25KT 1 1/2SM -SN DRSN BKN008 OVC061 M07/M08 A2963 RMK SC5SC3 SLP073

CYQR;2013-12-18 15:52;CYQR 181552Z 33012G17KT 2SM -SN DRSN BKN008 OVC060 M07/M09 A2965 RMK SC5SC3 PRESRR SLP077

CYQR;2013-12-18 16:00;CYQR 181600Z 34014KT 3SM -SN DRSN SCT008 BKN053 M07/M09 A2965 RMK SC4SC3 SLP078

CYQR;2013-12-18 16:20;CYQR 181620Z 35020G27KT 1SM -SN DRSN OVC012 M10/M12 A2968 RMK SC8 PRESRR SLP092

CYQR;2013-12-18 17:00;CYQR 181700Z 33020KT 1 1/2SM -SN DRSN OVC014 M12/M14 A2975 RMK SC8 PRESRR SLP118

CYQR;2013-12-18 18:00;CYQR 181800Z 34017G26KT 3SM -SN DRSN OVC016 M15/M17 A2982 RMK SC8 PRESRR SLP142

CYQR;2013-12-18 19:00;CYQR 181900Z 34019KT 4SM -SN DRSN OVC027 M16/M18 A2986 RMK SC8 PRESRR SLP160

CYQR;2013-12-18 19:52;CYQR 181952Z 33027G33KT 12SM DRSN SCT019 BKN260 M17/M20 A2990 RMK SC3CI4 BLSN W PRESRR SLP174

CYQR;2013-12-18 20:00;CYQR 182000Z 34024G30KT 12SM DRSN SCT019 BKN260 M17/M20 A2990 RMK SC3CI4 BLSN W PRESRR SLP173

CYQR;2013-12-18 21:00;CYQR 182100Z 34018KT 12SM DRSN FEW020 BKN120 OVC240 M17/M20 A2993 RMK SC2AC4CI2 SLP181

CYQR;2013-12-18 22:00;CYQR 182200Z 34017G24KT 15SM DRSN FEW020 FEW120 BKN240 M19/M22 A2996 RMK SC1AC1CI5 SLP191

CYQR;2013-12-18 23:00;CYQR 182300Z 35018G23KT 15SM DRSN SCT140 OVC220 M20/M24 A2998 RMK AC3CI5 SLP199

CYQR;2013-12-19 00:00;CYQR 190000Z 36013G18KT 15SM DRSN FEW160 SCT220 M21/M24 A3002 RMK AC1CI3 SLP213

CYQR;2013-12-19 01:00;CYQR 190100Z 34013KT 15SM DRSN FEW160 M21/M25 A3005 RMK AC2 SLP223

CYQR;2013-12-19 02:00;CYQR 190200Z 31006KT 15SM DRSN OVC140 M23/M25 A3008 RMK AC8 PRESRR SLP236

CYQR;2013-12-19 03:00;CYQR 190300Z 34009KT 15SM FEW140 OVC190 M23/M26 A3010 RMK AC2AC6 SLP242

CYQR;2013-12-19 04:00;CYQR 190400Z 32007KT 15SM FEW080 OVC150 M23/M26 A3013 RMK AC2AC6 SLP255

CYQR;2013-12-19 05:00;CYQR 190500Z 34010KT 15SM FEW015 OVC140 M24/M26 A3015 RMK SC1AC7 SC LYR OVR CITY SLP266

CYQR;2013-12-19 06:00;CYQR 190600Z 32006KT 15SM FEW002 OVC140 M24/M27 A3017 RMK ST2AS6 ST LYR OVR CITY SLP276

CYQR;2013-12-19 07:00;CYQR 190700Z 29005KT 15SM FEW002 SCT140 OVC250 M25/M27 A3019 RMK ST2AC2CI4 SLP283

CYQR;2013-12-19 08:00;CYQR 190800Z 32008KT 15SM FEW002 FEW020 BKN170 OVC250 M25/M28 A3020 RMK ST1SC1AC4CI2 SLP288

CYQR;2013-12-19 09:00;CYQR 190900Z 28007KT 15SM FEW002 SCT120 BKN250 M25/M28 A3022 RMK ST1AC2CI2 SLP296

CYQR;2013-12-19 10:00;CYQR 191000Z 33009KT 15SM FEW002 SCT120 OVC250 M25/M27 A3021 RMK ST1AC2CI5 SLP295

CYQR;2013-12-19 11:00;CYQR 191100Z 32007KT 15SM FEW002 OVC130 M24/M27 A3020 RMK ST1AS7 SLP290

CYQR;2013-12-19 12:00;CYQR 191200Z 32007KT 15SM FEW002 SCT110 M25/M27 A3020 RMK ST1AC3 SLP290

CYQR;2013-12-19 13:00;CYQR 191300Z 31007KT 15SM SKC M26/M29 A3021 RMK SLP297

CYQR;2013-12-19 14:00;CYQR 191400Z 30007KT 15SM SCT140 BKN240 M26/M29 A3022 RMK AC3CI4 SLP300

CYQR;2013-12-19 15:00;CYQR 191500Z 28005KT 15SM BKN100 OVC240 M25/M28 A3022 RMK AC6CI2 SLP302

CYQR;2013-12-19 16:00;CYQR 191600Z 27004KT 15SM FEW010 FEW048 BKN260 M25/M28 A3024 RMK SC1SC1CI5 SLP308

CYQR;2013-12-19 17:00;CYQR 191700Z 25006KT 15SM FEW240 M25/M28 A3024 RMK CI2 SC TR AC TR SLP308

CYQR;2013-12-19 18:00;CYQR 191800Z 26008KT 15SM SKC M24/M27 A3022 RMK SC TR SLP302

CYQR;2013-12-19 19:00;CYQR 191900Z 26007KT 15SM SKC M23/M27 A3020 RMK SC TR SLP293

CYQR;2013-12-19 20:00;CYQR 192000Z 27010KT 15SM FEW260 M22/M26 A3018 RMK CI1 SLP287

CYQR;2013-12-19 21:00;CYQR 192100Z 26006KT 15SM SKC M22/M26 A3015 RMK CI TR SLP275

CYQR;2013-12-19 22:00;CYQR 192200Z 23004KT 15SM SKC M23/M27 A3015 RMK CI TR SLP276

CYQR;2013-12-19 23:00;CYQR 192300Z 22008KT 15SM SKC M25/M27 A3013 RMK CI TR SLP271

CYQR;2013-12-20 00:00;CYQR 200000Z 17009KT 15SM SKC M26/M29 A3010 RMK SLP261

CYQR;2013-12-20 01:00;CYQR 200100Z 19010KT 15SM SKC M27/M29 A3007 RMK SLP253

CYQR;2013-12-20 02:00;CYQR 200200Z 17011KT 15SM SKC M26/M29 A3004 RMK PRESFR SLP242

CYQR;2013-12-20 03:00;CYQR 200300Z 17010KT 15SM SKC M25/M28 A3000 RMK SLP225

CYQR;2013-12-20 04:00;CYQR 200400Z 17008KT 15SM SKC M25/M28 A2997 RMK SLP215

CYQR;2013-12-20 05:00;CYQR 200500Z 17010KT 15SM SKC M24/M27 A2994 RMK SLP206

CYQR;2013-12-20 06:00;CYQR 200600Z 17008KT 15SM SKC M26/M28 A2991 RMK SLP195

CYQR;2013-12-20 07:00;CYQR 200700Z 14006KT 15SM SKC M25/M28 A2989 RMK SLP188

CYQR;2013-12-20 08:00;CYQR 200800Z 17006KT 15SM FEW160 M25/M27 A2987 RMK AC2 SLP179

CYQR;2013-12-20 09:00;CYQR 200900Z 19005KT 15SM BKN140 M25/M28 A2984 RMK AC6 SLP168

CYQR;2013-12-20 10:00;CYQR 201000Z 15004KT 15SM SCT160 OVC200 M24/M26 A2983 RMK AC4CI4 SLP164

CYQR;2013-12-20 11:00;CYQR 201100Z 14003KT 15SM SCT120 BKN210 M25/M28 A2980 RMK AC4CI3 SLP157

CYQR;2013-12-20 12:00;CYQR 201200Z 09005KT 15SM BKN120 OVC210 M25/M28 A2978 RMK AC6CI2 SLP152

CYQR;2013-12-20 13:00;CYQR 201300Z 10005KT 15SM OVC110 M25/M27 A2978 RMK AC8 SLP150

CYQR;2013-12-20 14:00;CYQR 201400Z 10003KT 15SM BKN110 OVC240 M24/M27 A2976 RMK AC5CI3 SLP145

CYQR;2013-12-20 15:00;CYQR 201500Z 00000KT 15SM FEW120 OVC240 M24/M27 A2977 RMK AC2CI6 SLP146

CYQR;2013-12-20 16:00;CYQR 201600Z 16002KT 15SM SCT084 OVC240 M23/M26 A2977 RMK AC4CI4 SLP147

CYQR;2013-12-20 17:00;CYQR 201700Z 27002KT 15SM SCT100 OVC240 M22/M24 A2978 RMK AS4CI4 SLP148

CYQR;2013-12-20 18:00;CYQR 201800Z 25004KT 15SM SCT100 BKN240 M21/M24 A2979 RMK AC3CI3 SLP150

CYQR;2013-12-20 19:00;CYQR 201900Z 36004KT 15SM BKN090 OVC240 M18/M21 A2976 RMK AC6CI2 SLP138

CYQR;2013-12-20 20:00;CYQR 202000Z 32007KT 15SM FEW090 SCT140 OVC240 M19/M23 A2975 RMK AC2AC2CI4 SLP135

CYQR;2013-12-20 21:00;CYQR 202100Z 32009KT 15SM FEW100 BKN240 M20/M23 A2973 RMK AC2CI5 SLP130

CYQR;2013-12-20 22:00;CYQR 202200Z 33007KT 15SM FEW100 BKN240 M22/M25 A2975 RMK AC1CI6 SLP135

CYQR;2013-12-20 23:00;CYQR 202300Z 35006KT 15SM FEW100 BKN240 M24/M27 A2976 RMK AC1CI6 SLP143

CYQR;2013-12-21 00:00;CYQR 210000Z 02006KT 15SM FEW080 BKN240 M22/M25 A2976 RMK AC1CI4 SLP143

CYQR;2013-12-21 01:00;CYQR 210100Z 02006KT 15SM FEW240 M23/M26 A2977 RMK CI2 SLP144

CYQR;2013-12-21 02:00;CYQR 210200Z 03004KT 15SM BKN074 M23/M26 A2977 RMK AC6 SLP146

CYQR;2013-12-21 03:00;CYQR 210300Z 35003KT 15SM BKN067 M23/M25 A2979 RMK AC7 SLP151

CYQR;2013-12-21 04:00;CYQR 210400Z 00000KT 15SM OVC062 M22/M25 A2980 RMK SC8 SLP152

CYQR;2013-12-21 05:00;CYQR 210500Z 05007KT 15SM OVC061 M22/M24 A2981 RMK SC8 SLP155

CYQR;2013-12-21 06:00;CYQR 210600Z 09005KT 15SM FEW060 M22/M25 A2982 RMK SC2 PRESRR SLP160

CYQR;2013-12-21 07:00;CYQR 210700Z 10006KT 15SM SCT060 M24/M27 A2982 RMK SC3 SLP158

CYQR;2013-12-21 08:00;CYQR 210800Z 10008KT 15SM SCT060 M24/M27 A2982 RMK SC3 SLP160

CYQR;2013-12-21 09:00;CYQR 210900Z 10008KT 15SM BKN065 M24/M27 A2984 RMK SC6 SLP166

CYQR;2013-12-21 10:00;CYQR 211000Z 09008KT 15SM BKN062 BKN095 M24/M27 A2986 RMK SC5AC2 SLP175

CYQR;2013-12-21 11:00;CYQR 211100Z 11008KT 15SM OVC110 M24/M26 A2987 RMK AC8 SLP181

CYQR;2013-12-21 12:00;CYQR 211200Z 12006KT 15SM OVC055 M24/M27 A2990 RMK SC8 SLP189

CYQR;2013-12-21 13:00;CYQR 211300Z 11008KT 15SM BKN055 OVC250 M23/M26 A2992 RMK SC6CI2 SLP196

CYQR;2013-12-21 13:40;CYQR 211340Z 12009KT 15SM -SN FEW010 OVC072 M23/M26 A2994 RMK SC1AC7 SLP203

CYQR;2013-12-21 14:00;CYQR 211400Z 12009KT 15SM -SN FEW010 OVC069 M23/M26 A2995 RMK SC1AC7 SLP205

CYQR;2013-12-21 15:00;CYQR 211500Z 12009KT 15SM OVC073 M23/M25 A2997 RMK AC8 SLP212

CYQR;2013-12-21 16:00;CYQR 211600Z 13010KT 15SM SCT053 OVC100 M23/M26 A3000 RMK SC4AS4 SLP220

CYQR;2013-12-21 17:00;CYQR 211700Z 12010KT 10SM SCT045 OVC100 M22/M25 A3003 RMK SC4AS4 SLP230

CYQR;2013-12-21 17:28;CYQR 211728Z 12009KT 3SM -SN DRSN SCT043 BKN100 M22/M25 A3003 RMK SC3AS4 SLP232

CYQR;2013-12-21 18:00;CYQR 211800Z 12010KT 6SM -SN DRSN BKN100 M22/M25 A3004 RMK AC7 SLP235

CYQR;2013-12-21 19:00;CYQR 211900Z 13010KT 6SM -SN DRSN OVC062 M21/M24 A3004 RMK SC8 SLP237

CYQR;2013-12-21 20:00;CYQR 212000Z 13010KT 3SM -SN DRSN OVC042 M21/M24 A3005 RMK SC8 SLP240

CYQR;2013-12-21 20:11;CYQR 212011Z 13009KT 2 1/2SM -SN DRSN OVC033 M21/M24 A3006 RMK SC8 SLP241

CYQR;2013-12-21 21:00;CYQR 212100Z 13009KT 2 1/2SM -SN DRSN OVC037 M21/M24 A3006 RMK SC8 SLP243

CYQR;2013-12-21 22:00;CYQR 212200Z 12008KT 2SM -SN OVC037 M21/M24 A3007 RMK SN4SC4 SLP245

CYQR;2013-12-21 23:00;CYQR 212300Z 12008KT 4SM -SN OVC037 M21/M24 A3008 RMK SC8 SLP250

CYQR;2013-12-22 00:00;CYQR 220000Z 13006KT 10SM -SN BKN060 BKN100 M21/M24 A3010 RMK SC5AC2 SLP255

CYQR;2013-12-22 01:00;CYQR 220100Z 13008KT 12SM -SN SCT055 OVC120 M22/M24 A3011 RMK SC3AC5 SLP258

CYQR;2013-12-22 02:00;CYQR 220200Z 11007KT 12SM -SN BKN084 OVC120 M22/M25 A3011 RMK AC5AC3 SLP262

CYQR;2013-12-22 03:00;CYQR 220300Z 12006KT 5SM -SN OVC065 M22/M25 A3013 RMK SC8 SLP267

CYQR;2013-12-22 04:00;CYQR 220400Z 11005KT 3SM -SN BKN062 M22/M25 A3014 RMK SC7 SLP270

CYQR;2013-12-22 05:00;CYQR 220500Z 12006KT 5SM -SN BKN055 OVC120 M22/M25 A3014 RMK SC7AC1 SLP271

CYQR;2013-12-22 06:00;CYQR 220600Z 11005KT 15SM -SN BKN110 M23/M25 A3014 RMK AC6 SLP270

CYQR;2013-12-22 06:34;CYQR 220634Z 09003KT 15SM IC SCT095 M24/M26 A3014 RMK AC3 SLP272

CYQR;2013-12-22 07:00;CYQR 220700Z 10003KT 15SM IC FEW090 M23/M26 A3014 RMK AC2 SLP269

CYQR;2013-12-22 08:00;CYQR 220800Z 11004KT 15SM IC SKC M24/M26 A3013 RMK SLP268

CYQR;2013-12-22 09:00;CYQR 220900Z 11003KT 15SM SKC M25/M27 A3015 RMK SLP273

CYQR;2013-12-22 10:00;CYQR 221000Z 11003KT 15SM SCT070 M26/M28 A3016 RMK AC4 SLP279

CYQR;2013-12-22 10:18;CYQR 221018Z 10003KT 12SM -SN OVC081 M25/M28 A3017 RMK AC8 SLP281

CYQR;2013-12-22 11:00;CYQR 221100Z 11002KT 12SM -SN OVC083 M25/M28 A3016 RMK AC8 SLP280

CYQR;2013-12-22 12:00;CYQR 221200Z 09003KT 6SM -SN BKN065 M25/M28 A3018 RMK SC7 SLP285

CYQR;2013-12-22 13:00;CYQR 221300Z 14004KT 9SM -SN BKN065 M25/M27 A3020 RMK SC6 SLP291

CYQR;2013-12-22 14:00;CYQR 221400Z 00000KT 10SM IC SCT085 SCT200 M25/M28 A3021 RMK AC3CI1 SLP298

CYQR;2013-12-22 15:00;CYQR 221500Z 11005KT 12SM SCT082 M26/M29 A3023 RMK AC3 SLP306

CYQR;2013-12-22 16:00;CYQR 221600Z 09004KT 12SM FEW058 SCT100 M26/M29 A3025 RMK SC1AC3 SLP312

CYQR;2013-12-22 17:00;CYQR 221700Z 00000KT 12SM FEW100 FEW220 M25/M28 A3028 RMK AC1CI1 SLP320

CYQR;2013-12-22 18:00;CYQR 221800Z 27005KT 4SM IC SCT044 BKN220 M26/M29 A3029 RMK SC3CI3 SLP325

CYQR;2013-12-22 19:00;CYQR 221900Z 29005KT 5SM IC FEW021 BKN220 M24/M27 A3029 RMK SC1CS6 SLP323

CYQR;2013-12-22 19:31;CYQR 221931Z 32005KT 12SM SCT220 M25/M28 A3029 RMK CI3 SLP326

CYQR;2013-12-22 20:00;CYQR 222000Z 31006KT 12SM BKN220 M25/M28 A3029 RMK CI7 CC ASOCTD SLP327

CYQR;2013-12-22 21:00;CYQR 222100Z 33006KT 15SM FEW220 M26/M29 A3031 RMK CI1 SLP332

CYQR;2013-12-22 22:00;CYQR 222200Z 32004KT 15SM SKC M26/M29 A3033 RMK SLP342

CYQR;2013-12-22 23:00;CYQR 222300Z 28006KT 15SM SKC M28/M31 A3036 RMK AC TR SLP355

CYQR;2013-12-23 00:00;CYQR 230000Z 31005KT 15SM SKC M30/M33 A3039 RMK SLP364

CYQR;2013-12-23 01:00;CYQR 230100Z 33006KT 15SM SKC M30/M33 A3041 RMK SLP370

CYQR;2013-12-23 02:00;CYQR 230200Z 26004KT 15SM SKC M30/M33 A3041 RMK TR SC SLP374

CYQR;2013-12-23 03:00;CYQR 230300Z 29006KT 15SM SKC M32/M36 A3043 RMK SLP383

CYQR;2013-12-23 04:00;CYQR 230400Z 30002KT 15SM SKC M33/M37 A3043 RMK SC TR SLP384

CYQR;2013-12-23 05:00;CYQR 230500Z 31002KT 12SM SKC M33/M36 A3043 RMK TR AC SLP383

CYQR;2013-12-23 06:00;CYQR 230600Z 19002KT 15SM SKC M32/M35 A3043 RMK SLP382

CYQR;2013-12-23 07:00;CYQR 230700Z 20003KT 15SM SKC M34/M37 A3043 RMK SLP381

CYQR;2013-12-23 07:47;CYQR 230747Z 19002KT 15SM SCT005 M34/M37 A3042 RMK SC3 SLP379

CYQR;2013-12-23 08:00;CYQR 230800Z 15002KT 15SM FEW005 M32/M35 A3041 RMK SC1 SLP375

CYQR;2013-12-23 09:00;CYQR 230900Z 13006KT 15SM SKC M32/M35 A3041 RMK TR SC SLP372

CYQR;2013-12-23 10:00;CYQR 231000Z 12007KT 15SM SKC M34/M38 A3038 RMK SLP367

CYQR;2013-12-23 11:00;CYQR 231100Z 12010KT 15SM SKC M34/M37 A3035 RMK SLP359

CYQR;2013-12-23 12:00;CYQR 231200Z 12012KT 15SM SKC M34/M37 A3033 RMK SLP353

CYQR;2013-12-23 13:00;CYQR 231300Z 13014KT 12SM IC SKC M33/M36 A3031 RMK SLP343

CYQR;2013-12-23 13:33;CYQR 231333Z 13015KT 2SM BR SKC M33/M36 A3029 RMK SLP339

CYQR;2013-12-23 14:00;CYQR 231400Z 13017KT 2SM BR SKC M32/M36 A3027 RMK SLP332

CYQR;2013-12-23 14:16;CYQR 231416Z 13017KT 1 1/2SM BR SKC M32/M36 A3026 RMK SLP329

CYQR;2013-12-23 15:00;CYQR 231500Z 13019KT 1SM BR DRSN SKC M32/M35 A3024 RMK SLP322

CYQR;2013-12-23 15:28;CYQR 231528Z 13019KT 1 1/2SM BR DRSN FEW250 M31/M34 A3022 RMK CI1 SLP315

CYQR;2013-12-23 16:00;CYQR 231600Z 14017KT 1 1/2SM BR DRSN FEW250 M30/M33 A3022 RMK CI1 SLP315

CYQR;2013-12-23 17:00;CYQR 231700Z 13018KT 1 1/2SM BR DRSN FEW250 M29/M33 A3020 RMK CI2 SLP306

CYQR;2013-12-23 18:00;CYQR 231800Z 14020KT 1 1/2SM BR DRSN BKN250 M26/M29 A3016 RMK CI7 SLP288

CYQR;2013-12-23 19:00;CYQR 231900Z 14022G28KT 1 1/2SM BR DRSN SCT050 OVC230 M25/M27 A3010 RMK SC4CI4 SLP269

CYQR;2013-12-23 20:00;CYQR 232000Z 14024G29KT 1 1/2SM -SN DRSN SCT050 OVC160 M23/M25 A3004 RMK SC4AC4 PRESFR SLP245

CYQR;2013-12-23 21:00;CYQR 232100Z 14025G31KT 2SM -SN BLSN FEW050 SCT140 OVC250 M21/M23 A2998 RMK SC1AC3CI4 PRESFR SLP222

CYQR;2013-12-23 22:00;CYQR 232200Z 14025G30KT 1SM -SN BLSN FEW130 M20/M23 A2994 RMK AC1 SLP208

CYQR;2013-12-23 23:00;CYQR 232300Z 14027KT 2SM -SN BLSN SCT062 BKN120 M19/M21 A2989 RMK SC4AC3 SLP191

CYQR;2013-12-24 00:00;CYQR 240000Z 14024G29KT 6SM -SN DRSN BKN049 M17/M19 A2985 RMK SC7 SLP176

CYQR;2013-12-24 01:00;CYQR 240100Z 14021KT 10SM DRSN BKN064 BKN095 M17/M19 A2983 RMK SC5AC2 SLP169

CYQR;2013-12-24 02:00;CYQR 240200Z 14021KT 10SM DRSN BKN085 OVC150 M16/M18 A2978 RMK AC6AC2 OCNL BLSN SLP149

CYQR;2013-12-24 03:00;CYQR 240300Z 15019KT 15SM DRSN BKN092 BKN120 M15/M17 A2976 RMK AC6AC1 SLP139

CYQR;2013-12-24 04:00;CYQR 240400Z 14018KT 15SM DRSN FEW095 M15/M17 A2972 RMK AC2 PRESFR SLP126

CYQR;2013-12-24 05:00;CYQR 240500Z 16013KT 15SM DRSN BKN030 OVC220 M14/M16 A2974 RMK SC6CI2 PRESRR SLP130

CYQR;2013-12-24 06:00;CYQR 240600Z 15009KT 15SM SCT030 SCT100 BKN200 M15/M17 A2972 RMK SC3AC1CI2 SLP123

CYQR;2013-12-24 06:21;CYQR 240621Z 13008KT 15SM BKN014 OVC200 M15/M17 A2971 RMK SC5CI3 SLP118

CYQR;2013-12-24 07:00;CYQR 240700Z 17007KT 15SM OVC013 M14/M16 A2973 RMK SC8 SLP122

CYQR;2013-12-24 08:00;CYQR 240800Z 23004KT 160V230 15SM FEW010 M13/M15 A2973 RMK SC1 SLP121

CYQR;2013-12-24 09:00;CYQR 240900Z 27009KT 15SM SCT014 M14/M16 A2974 RMK SC3 SLP125

CYQR;2013-12-24 10:00;CYQR 241000Z 30013KT 15SM OVC006 M10/M11 A2978 RMK ST8 SLP134

CYQR;2013-12-24 11:00;CYQR 241100Z 31013KT 15SM SCT012 BKN020 M08/M09 A2980 RMK SC3SC4 SLP138

CYQR;2013-12-24 12:00;CYQR 241200Z 28010KT 15SM SCT012 M09/M10 A2982 RMK SC3 SLP146

CYQR;2013-12-24 13:00;CYQR 241300Z 27011KT 15SM FEW020 M10/M11 A2986 RMK SC1 SLP158

CYQR;2013-12-24 14:00;CYQR 241400Z 29010KT 15SM OVC017 M07/M08 A2987 RMK SC8 SLP160

CYQR;2013-12-24 15:00;CYQR 241500Z 27011KT 15SM OVC015 M07/M08 A2988 RMK SC8 SLP162

CYQR;2013-12-24 15:07;CYQR 241507Z 27013KT 15SM OVC014 M06/M07 A2989 RMK SC8 PRESRR SLP165

CYQR;2013-12-24 15:47;CYQR 241547Z 29011KT 15SM SCT014 SCT100 M06/M07 A2990 RMK SC3AC1 SLP167

CYQR;2013-12-24 16:00;CYQR 241600Z 28013KT 15SM FEW015 M07/M08 A2991 RMK SC1 TRACE AC AT 10 000 FT SLP172

CYQR;2013-12-24 17:00;CYQR 241700Z 28011KT 15SM FEW015 BKN100 BKN150 M06/M08 A2991 RMK CF1AC5AC1 SLP171

CYQR;2013-12-24 18:00;CYQR 241800Z 26009KT 15SM FEW020 BKN037 BKN100 M04/M05 A2991 RMK CU1SC5AC1 SLP170

CYQR;2013-12-24 19:00;CYQR 241900Z 26012KT 9SM -SN OVC031 M02/M04 A2990 RMK SC8 SLP163

CYQR;2013-12-24 20:00;CYQR 242000Z 27018KT 15SM FEW015 OVC023 M02/M04 A2989 RMK CU1SC7 SLP161

CYQR;2013-12-24 20:44;CYQR 242044Z 27015G21KT 15SM BKN033 BKN230 M03/M05 A2989 RMK SC6CI1 SLP161

CYQR;2013-12-24 21:00;CYQR 242100Z 29016KT 15SM BKN031 BKN110 BKN230 M03/M06 A2990 RMK SC5AC1CI1 SLP164

CYQR;2013-12-24 22:00;CYQR 242200Z 29017G23KT 15SM OVC066 M03/M06 A2991 RMK AC8 SLP165

CYQR;2013-12-24 23:00;CYQR 242300Z 29013KT 15SM BKN054 OVC140 M03/M05 A2992 RMK SC7AC1 SLP169

CYQR;2013-12-25 00:00;CYQR 250000Z 29010KT 15SM -SN FEW011 BKN029 OVC140 M03/M04 A2994 RMK SC1SC6AC1 SLP174

CYQR;2013-12-25 00:41;CYQR 250041Z 29009KT 15SM -SN OVC013 M03/M04 A2995 RMK SC8 SLP178

CYQR;2013-12-25 00:47;CYQR 250047Z 29008KT 15SM -SN OVC009 M03/M04 A2995 RMK SC8 SLP179

CYQR;2013-12-25 01:00;CYQR 250100Z 29009KT 15SM -SN OVC008 M03/M04 A2995 RMK SC8 SLP180

CYQR;2013-12-25 01:33;CYQR 250133Z 32008KT 2 1/2SM -SN SCT008 OVC017 M03/M04 A2996 RMK SC4SC4 SLP185

CYQR;2013-12-25 02:00;CYQR 250200Z 32010KT 3SM -SN FEW017 BKN030 OVC056 M04/M04 A2997 RMK SC2SC3SC3 SLP186

CYQR;2013-12-25 03:00;CYQR 250300Z 32011KT 15SM -SN FEW015 OVC031 M04/M05 A3000 RMK SC2SC6 SLP193

CYQR;2013-12-25 03:49;CYQR 250349Z 32007KT 15SM FEW015 OVC036 M04/M05 A3001 RMK SC2SC6 SLP198

CYQR;2013-12-25 04:00;CYQR 250400Z 32007KT 15SM FEW015 OVC038 M04/M05 A3001 RMK SC2SC6 SLP200

CYQR;2013-12-25 04:44;CYQR 250444Z 31007KT 8SM -SN FEW015 OVC027 M04/M05 A3004 RMK SC2SC6 SLP208

CYQR;2013-12-25 05:00;CYQR 250500Z 32009KT 12SM -SN FEW015 OVC031 M04/M05 A3004 RMK SC2SC6 SLP210

CYQR;2013-12-25 05:28;CYQR 250528Z 31010KT 15SM FEW015 SCT030 OVC130 M05/M06 A3006 RMK SC2SC2AC4 SLP214

CYQR;2013-12-25 06:00;CYQR 250600Z 31010KT 15SM SCT050 BKN130 M05/M06 A3007 RMK SC4AC3 SLP217

CYQR;2013-12-25 07:00;CYQR 250700Z 31008KT 15SM OVC036 M05/M06 A3007 RMK SC8 SLP217

CYQR;2013-12-25 08:00;CYQR 250800Z 29013KT 15SM OVC031 M05/M06 A3007 RMK SC8 SLP217

CYQR;2013-12-25 09:00;CYQR 250900Z 29013KT 15SM OVC021 M04/M06 A3010 RMK SC8 SLP229

CYQR;2013-12-25 10:00;CYQR 251000Z 31012G17KT 15SM DRSN OVC023 M04/M06 A3012 RMK SC8 SLP234

CYQR;2013-12-25 11:00;CYQR 251100Z 29007KT 15SM OVC020 M05/M06 A3013 RMK SC8 SLP238

CYQR;2013-12-25 12:00;CYQR 251200Z 28012KT 15SM BKN023 M06/M07 A3014 RMK SC7 SLP241

CYQR;2013-12-25 13:00;CYQR 251300Z 28011KT 15SM FEW023 M08/M09 A3012 RMK SC1 SLP238

CYQR;2013-12-25 14:00;CYQR 251400Z 27009KT 15SM BKN093 M11/M12 A3012 RMK AC5 SLP239

CYQR;2013-12-25 15:00;CYQR 251500Z 26011KT 15SM BKN023 BKN090 M10/M11 A3011 RMK SC5ACC2 SLP237

CYQR;2013-12-25 16:00;CYQR 251600Z 27012KT 15SM FEW023 M11/M12 A3010 RMK SC2 SLP234

CYQR;2013-12-25 17:00;CYQR 251700Z 25006KT 15SM SKC M11/M12 A3010 RMK TRACE SC AT 5 000 FT SLP233

CYQR;2013-12-25 18:00;CYQR 251800Z 25012KT 15SM FEW040 M10/M11 A3009 RMK SC1 SLP228

CYQR;2013-12-25 19:00;CYQR 251900Z 27011KT 15SM FEW060 SCT280 M08/M10 A3007 RMK NS1CI2 SLP221

CYQR;2013-12-25 20:00;CYQR 252000Z 29011KT 15SM FEW120 BKN280 M07/M09 A3005 RMK AC1CI6 TRACE SC AT 6 000 FT SLP213

CYQR;2013-12-25 21:00;CYQR 252100Z 30007KT 15SM BKN120 OVC280 M07/M09 A3003 RMK AC7CI1 SLP206

CYQR;2013-12-25 22:00;CYQR 252200Z 29005KT 15SM BKN100 OVC280 M07/M09 A3002 RMK AC7CI1 SLP203

CYQR;2013-12-25 23:00;CYQR 252300Z 34002KT 15SM OVC090 M07/M09 A3000 RMK AC8 SLP198

CYQR;2013-12-26 00:00;CYQR 260000Z 06004KT 15SM OVC100 M07/M08 A2998 RMK AC8 SLP189

CYQR;2013-12-26 01:00;CYQR 260100Z 17005KT 15SM OVC067 M08/M09 A2995 RMK AC8 SLP181

CYQR;2013-12-26 02:00;CYQR 260200Z 13007KT 15SM OVC063 M08/M09 A2993 RMK SC8 SLP178

CYQR;2013-12-26 03:00;CYQR 260300Z 13008KT 15SM OVC045 M07/M08 A2991 RMK SC8 SLP170

CYQR;2013-12-26 03:06;CYQR 260306Z 13007KT 15SM -SN OVC037 M07/M08 A2991 RMK SC8 SLP171

CYQR;2013-12-26 04:00;CYQR 260400Z 14011KT 3SM -SN OVC023 M07/M08 A2989 RMK SC8 SLP164

CYQR;2013-12-26 05:00;CYQR 260500Z 14013KT 4SM -SN DRSN OVC027 M07/M08 A2986 RMK SC8 PRESFR SLP152

CYQR;2013-12-26 06:00;CYQR 260600Z 15012KT 4SM -SN DRSN OVC015 M06/M07 A2983 RMK SC8 SLP142

CYQR;2013-12-26 06:52;CYQR 260652Z 16011KT 15SM DRSN OVC027 M05/M06 A2980 RMK SC8 SLP130

CYQR;2013-12-26 07:00;CYQR 260700Z 16009KT 15SM DRSN OVC026 M05/M05 A2980 RMK SC8 SLP129

CYQR;2013-12-26 08:00;CYQR 260800Z 23007KT 15SM OVC020 M05/M06 A2981 RMK SC8 SLP129

CYQR;2013-12-26 08:46;CYQR 260846Z 31019G25KT 15SM OVC012 M01/M03 A2983 RMK SC8 SLP135

CYQR;2013-12-26 09:00;CYQR 260900Z 31016G22KT 15SM OVC013 M01/M03 A2983 RMK SC8 SLP136

CYQR;2013-12-26 10:00;CYQR 261000Z 32024G33KT 12SM DRSN OVC008 M02/M03 A2986 RMK SC8 SLP147

CYQR;2013-12-26 10:31;CYQR 261031Z 31018G23KT 15SM DRSN SCT008 OVC015 M02/M03 A2987 RMK SC4SC4 SLP148

CYQR;2013-12-26 11:00;CYQR 261100Z 32019KT 15SM DRSN OVC014 M02/M03 A2988 RMK SC8 SLP152

CYQR;2013-12-26 12:00;CYQR 261200Z 31014G19KT 15SM DRSN OVC017 M02/M04 A2989 RMK SC8 SLP155

CYQR;2013-12-26 13:00;CYQR 261300Z 30014KT 15SM DRSN OVC013 M02/M03 A2992 RMK SC8 SLP166

CYQR;2013-12-26 14:00;CYQR 261400Z 29009KT 15SM OVC013 M02/M03 A2994 RMK SC8 SLP172

CYQR;2013-12-26 15:00;CYQR 261500Z 26009KT 15SM BKN015 OVC300 M04/M05 A2993 RMK SC7CI1 SLP171

CYQR;2013-12-26 15:18;CYQR 261518Z 26009KT 15SM FEW015 M05/M06 A2993 RMK SC1 TRACE CI AT 30 000 FT SLP173

CYQR;2013-12-26 16:00;CYQR 261600Z 26007KT 15SM FEW300 M06/M08 A2994 RMK CI1 TRACE SC AT 1 500 FT SLP176

CYQR;2013-12-26 17:00;CYQR 261700Z 23006KT 15SM FEW300 M07/M08 A2993 RMK CI2 SLP174

CYQR;2013-12-26 18:00;CYQR 261800Z 00000KT 15SM FEW300 M05/M08 A2991 RMK CI2 SLP165

CYQR;2013-12-26 19:00;CYQR 261900Z 19009KT 15SM FEW300 M03/M06 A2988 RMK CI2 SLP152

CYQR;2013-12-26 20:00;CYQR 262000Z 18006KT 15SM SCT300 M04/M07 A2986 RMK CI3 CONTRAILS SLP148

CYQR;2013-12-26 21:00;CYQR 262100Z 17005KT 15SM BKN300 M03/M06 A2986 RMK CI7 CONTRAILS SLP144

CYQR;2013-12-26 22:00;CYQR 262200Z 17005KT 15SM BKN300 M03/M06 A2985 RMK CI7 CONTRAILS TRACE AC AT 8 000 FT SLP140

CYQR;2013-12-26 23:00;CYQR 262300Z 17008KT 15SM BKN300 M05/M07 A2983 RMK CI6 CONTRAILS SLP133

CYQR;2013-12-27 00:00;CYQR 270000Z 15008KT 15SM FEW300 M07/M09 A2981 RMK CI1 PRESFR SLP129

CYQR;2013-12-27 01:00;CYQR 270100Z 15007KT 15SM FEW300 M07/M09 A2980 RMK CI1 SLP126

CYQR;2013-12-27 02:00;CYQR 270200Z 16011KT 15SM FEW100 M06/M08 A2976 RMK AC1 SLP110

CYQR;2013-12-27 03:00;CYQR 270300Z 14008KT 15SM SKC M07/M09 A2973 RMK SLP103

CYQR;2013-12-27 04:00;CYQR 270400Z 15007KT 15SM SKC M07/M09 A2971 RMK SLP096

CYQR;2013-12-27 05:00;CYQR 270500Z 16006KT 15SM SKC M08/M10 A2969 RMK SLP090

CYQR;2013-12-27 06:00;CYQR 270600Z 25008KT 15SM SKC M06/M07 A2969 RMK SLP090

CYQR;2013-12-27 07:00;CYQR 270700Z 26012KT 15SM SKC M03/M04 A2970 RMK SLP088

CYQR;2013-12-27 08:00;CYQR 270800Z 29016G23KT 15SM SCT240 01/M02 A2972 RMK CI4 SLP093

CYQR;2013-12-27 09:00;CYQR 270900Z 29016G21KT 15SM FEW240 00/M02 A2973 RMK CI2 SLP096

CYQR;2013-12-27 10:00;CYQR 271000Z 29015G20KT 15SM SCT240 01/M01 A2976 RMK CI4 SLP107

CYQR;2013-12-27 11:00;CYQR 271100Z 28016KT 15SM SCT240 00/M02 A2978 RMK CI3 SLP114

CYQR;2013-12-27 12:00;CYQR 271200Z 29019KT 15SM SKC 00/M02 A2980 RMK SLP123

CYQR;2013-12-27 13:00;CYQR 271300Z 30014KT 15SM FEW320 M01/M03 A2983 RMK CI1 SLP134

CYQR;2013-12-27 14:00;CYQR 271400Z 30008KT 15SM FEW070 FEW320 M01/M03 A2985 RMK AC1CI1 SLP140

CYQR;2013-12-27 15:00;CYQR 271500Z 30008KT 15SM BKN016 M02/M03 A2986 RMK SC7 TRACE CI AT 32 000 FT SLP148

CYQR;2013-12-27 16:00;CYQR 271600Z 24004KT 15SM BKN018 M02/M03 A2990 RMK SC7 TRACE CI AT 32 000 FT SLP158

CYQR;2013-12-27 17:00;CYQR 271700Z 20004KT 15SM FEW020 BKN110 M02/M03 A2988 RMK ST1AC6 SLP155

CYQR;2013-12-27 18:00;CYQR 271800Z 22008KT 15SM FEW110 BKN210 M01/M02 A2987 RMK AC2CI4 SLP148

CYQR;2013-12-27 19:00;CYQR 271900Z 28004KT 15SM BKN130 BKN240 01/M01 A2986 RMK AC6CI1 SLP142

CYQR;2013-12-27 20:00;CYQR 272000Z 22004KT 15SM FEW120 BKN240 M01/M02 A2984 RMK AC2CI5 SLP134

CYQR;2013-12-27 21:00;CYQR 272100Z 07003KT 300V070 15SM FEW120 BKN240 M02/M03 A2981 RMK AC1CI6 SLP121

CYQR;2013-12-27 22:00;CYQR 272200Z 13006KT 15SM FEW120 BKN240 M01/M02 A2979 RMK AC2CI5 SLP115

CYQR;2013-12-27 23:00;CYQR 272300Z 11008KT 15SM BKN170 M02/M03 A2978 RMK AC7 SLP113

CYQR;2013-12-28 00:00;CYQR 280000Z 11010KT 15SM OVC200 M03/M04 A2976 RMK CI8 SLP108

CYQR;2013-12-28 01:00;CYQR 280100Z 12012KT 15SM OVC150 M03/M04 A2973 RMK AC8 SLP098

CYQR;2013-12-28 02:00;CYQR 280200Z 11013KT 15SM OVC140 M02/M03 A2970 RMK AC8 SLP086

CYQR;2013-12-28 03:00;CYQR 280300Z 11014KT 15SM OVC140 M02/M03 A2968 RMK AC8 SLP081

CYQR;2013-12-28 04:00;CYQR 280400Z 09011KT 15SM SCT008 OVC140 M01/M02 A2965 RMK SC3AC5 SLP071

CYQR;2013-12-28 04:14;CYQR 280414Z 09017KT 15SM BKN006 OVC140 M02/M04 A2965 RMK SC6AC2 SLP070

CYQR;2013-12-28 05:00;CYQR 280500Z 08015G22KT 15SM OVC006 M03/M04 A2965 RMK SC8 SLP070

CYQR;2013-12-28 05:14;CYQR 280514Z 08018G24KT 15SM -SN OVC006 M04/M05 A2965 RMK SC8 SLP072

CYQR;2013-12-28 06:00;CYQR 280600Z 07017KT 15SM OVC006 M05/M07 A2965 RMK SC8 SLP070

CYQR;2013-12-28 07:00;CYQR 280700Z 07021G28KT 8SM -SN DRSN OVC008 M09/M11 A2967 RMK SC8 SLP079

CYQR;2013-12-28 07:36;CYQR 280736Z 06025G33KT 2 1/2SM -SN DRSN OVC009 M11/M13 A2969 RMK SC8 SLP087

CYQR;2013-12-28 08:00;CYQR 280800Z 06027G36KT 2SM -SN BLSN OVC009 M12/M14 A2970 RMK SC8 SLP092

CYQR;2013-12-28 08:21;CYQR 280821Z 06023G31KT 1SM -SN BLSN OVC009 M13/M14 A2971 RMK BLSN2SC6 SLP099

CYQR;2013-12-28 08:46;CYQR 280846Z 05030G40KT 2SM -SN BLSN OVC012 M13/M16 A2974 RMK SC8 PRESRR SLP109

CYQR;2013-12-28 09:00;CYQR 280900Z 04024G34KT 3SM -SN BLSN OVC013 M14/M16 A2977 RMK SC8 PRESRR SLP119

CYQR;2013-12-28 09:15;CYQR 280915Z 04020G35KT 1 1/2SM -SN BLSN OVC013 M14/M16 A2980 RMK SC8 VIS VRB 1-2 PRESRR SLP129

CYQR;2013-12-28 10:00;CYQR 281000Z 04025G35KT 1 1/2SM -SN BLSN OVC014 M16/M18 A2988 RMK SC8 VIS VRB 1-2 PRESRR SLP157

CYQR;2013-12-28 11:00;CYQR 281100Z 03021G29KT 1 1/2SM -SN BLSN OVC023 M16/M19 A2993 RMK SC8 SLP177

CYQR;2013-12-28 11:40;CYQR 281140Z 02018G23KT 1/2SM -SN BLSN VV009 M17/M19 A3000 RMK BLSN8 PRESRR SLP203

CYQR;2013-12-28 11:46;CYQR 281146Z 02015G25KT 1/4SM -SN BLSN VV006 M17/M19 A3002 RMK BLSN8 PRESRR SLP207

CYQR;2013-12-28 12:00;CYQR 281200Z 02022G29KT 3/8SM R13/2800V5000FT/D -SN BLSN VV007 M17/M20 A3004 RMK BLSN8 PRESRR SLP216

CYQR;2013-12-28 12:12;CYQR 281212Z 02022G31KT 3/4SM R13/4000VP6000FT/U -SN BLSN OVC013 M17/M20 A3005 RMK BLSN4SC4 PRESRR SLP220

CYQR;2013-12-28 12:27;CYQR 281227Z 02018G25KT 1 1/2SM R13/5500VP6000FT/U -SN BLSN OVC030 M17/M19 A3007 RMK SC8 PRESRR SLP228

CYQR;2013-12-28 12:55;CYQR 281255Z 01021KT 1SM R13/P6000FT/D -SN BLSN OVC010 M17/M20 A3012 RMK SC8 PRESRR SLP245

CYQR;2013-12-28 13:00;CYQR 281300Z 01020G26KT 3/4SM R13/6000FT/D -SN BLSN OVC010 M17/M20 A3013 RMK BLSN4SC4 PRESRR SLP249

CYQR;2013-12-28 13:38;CYQR 281338Z 36022KT 1 1/4SM -SN BLSN OVC013 M18/M21 A3019 RMK BLSN3SC5 VIS VRB 1-11/2 PRESRR SLP268

CYQR;2013-12-28 14:00;CYQR 281400Z 36021G30KT 1 1/2SM -SN BLSN OVC033 M18/M21 A3021 RMK BLSN2SC6 VIS VRB 1-2 PRESRR SLP277

CYQR;2013-12-28 15:00;CYQR 281500Z 35020G29KT 1 1/2SM BLSN SCT030 M20/M23 A3028 RMK BLSN2SC2 VIS VRB 1-2 PRESRR SLP301

CYQR;2013-12-28 15:46;CYQR 281546Z 35019G26KT 10SM BLSN BKN067 BKN110 M21/M24 A3032 RMK AC6AC1 VIS SW-NW 2 SLP314

CYQR;2013-12-28 16:00;CYQR 281600Z 35020G26KT 10SM DRSN BKN067 BKN110 M22/M25 A3033 RMK AC6AC1 VIS SW-NW 2 OCNL BLSN SLP318

CYQR;2013-12-28 17:00;CYQR 281700Z 34020KT 12SM DRSN FEW110 SCT220 M23/M27 A3040 RMK AC1CI3 VIS SW-NW 3 PRESRR SLP345

CYQR;2013-12-28 18:00;CYQR 281800Z 34017KT 12SM DRSN FEW220 M24/M28 A3043 RMK CI2 AC TR VIS SW-NW 3 SLP357

CYQR;2013-12-28 19:00;CYQR 281900Z 34018G24KT 12SM DRSN FEW110 SCT220 M24/M29 A3044 RMK AC2CI1 VIS SW-NW 3 SLP365

CYQR;2013-12-28 20:00;CYQR 282000Z 34018KT 12SM DRSN BKN120 M24/M29 A3046 RMK AC7 PRESRR SLP372

CYQR;2013-12-28 21:00;CYQR 282100Z 31009KT 15SM BKN058 BKN110 M24/M28 A3046 RMK SC5AC2 SLP374

CYQR;2013-12-28 22:00;CYQR 282200Z 33010KT 15SM BKN120 M24/M28 A3046 RMK AC7 SLP377

CYQR;2013-12-28 22:53;CYQR 282253Z 33011KT 10SM -SN BKN120 M24/M27 A3048 RMK AC7 SLP382

CYQR;2013-12-28 23:00;CYQR 282300Z 33010KT 8SM -SN BKN120 M24/M27 A3048 RMK AC7 SLP383

CYQR;2013-12-29 00:00;CYQR 290000Z 29009KT 12SM -SN OVC120 M23/M27 A3049 RMK AC8 SLP386

CYQR;2013-12-29 01:00;CYQR 290100Z 31008KT 12SM -SN OVC075 M23/M27 A3049 RMK AC8 SLP389

CYQR;2013-12-29 02:00;CYQR 290200Z 31008KT 12SM -SN OVC073 M23/M27 A3050 RMK AC8 SLP390

CYQR;2013-12-29 03:00;CYQR 290300Z 33007KT 15SM -SN FEW015 OVC071 M23/M27 A3049 RMK SC1AC7 SLP390

CYQR;2013-12-29 04:00;CYQR 290400Z 32007KT 15SM FEW070 M25/M28 A3047 RMK AC2 SLP387

CYQR;2013-12-29 05:00;CYQR 290500Z 33004KT 15SM SKC M25/M28 A3047 RMK SLP387

CYQR;2013-12-29 06:00;CYQR 290600Z 26005KT 15SM SKC M26/M29 A3046 RMK SLP387

CYQR;2013-12-29 07:00;CYQR 290700Z 24003KT 15SM SKC M29/M31 A3046 RMK SLP386

CYQR;2013-12-29 08:00;CYQR 290800Z 25004KT 15SM SKC M29/M32 A3043 RMK SLP379

CYQR;2013-12-29 09:00;CYQR 290900Z 30002KT 15SM SKC M29/M31 A3041 RMK SLP370

CYQR;2013-12-29 10:00;CYQR 291000Z 22003KT 15SM SKC M30/M32 A3039 RMK SLP365

CYQR;2013-12-29 11:00;CYQR 291100Z 23005KT 15SM FEW033 M30/M33 A3037 RMK SC2 SLP357

CYQR;2013-12-29 12:00;CYQR 291200Z 07003KT 15SM FEW001 BKN035 M27/M30 A3033 RMK SF1SC6 SLP342

CYQR;2013-12-29 13:00;CYQR 291300Z 15004KT 15SM -SN BKN031 M27/M29 A3030 RMK SC7 SLP330

CYQR;2013-12-29 14:00;CYQR 291400Z 12007KT 12SM -SN BKN029 M28/M30 A3027 RMK SC7 PRESFR SLP319

CYQR;2013-12-29 15:00;CYQR 291500Z 13006KT 15SM BKN027 M27/M30 A3027 RMK SC7 SLP319

CYQR;2013-12-29 16:00;CYQR 291600Z 11006KT 15SM FEW220 M27/M30 A3022 RMK CI2 SC TR CC ASOCTD SLP304

CYQR;2013-12-29 17:00;CYQR 291700Z 13009KT 15SM BKN200 M25/M28 A3018 RMK CS7 HALO SLP290

CYQR;2013-12-29 18:00;CYQR 291800Z 13010KT 15SM BKN250 M23/M26 A3014 RMK CI7 SLP274

CYQR;2013-12-29 19:00;CYQR 291900Z 12010KT 15SM FEW020 OVC250 M22/M25 A3010 RMK SC1CI7 SLP262

CYQR;2013-12-29 20:00;CYQR 292000Z 13010KT 15SM FEW020 OVC120 M21/M23 A3005 RMK SC1AS7 PRESFR SLP243

CYQR;2013-12-29 21:00;CYQR 292100Z 13010KT 15SM R13/3500FT/N SCT090 BKN250 M20/M22 A3001 RMK AS3CI4 SLP227

CYQR;2013-12-29 22:00;CYQR 292200Z 12010KT 15SM SCT066 BKN250 M19/M21 A2998 RMK AS3CI4 SLP217

CYQR;2013-12-29 23:00;CYQR 292300Z 12011KT 12SM -SN BKN093 OVC250 M19/M21 A2995 RMK AS7CI1 SLP209

CYQR;2013-12-30 00:00;CYQR 300000Z 13012KT 8SM -SN OVC066 M18/M20 A2993 RMK AS8 SLP198

CYQR;2013-12-30 01:00;CYQR 300100Z 12009KT 8SM -SN OVC041 M18/M20 A2992 RMK SC8 SLP194

CYQR;2013-12-30 02:00;CYQR 300200Z 11010KT 8SM -SN OVC042 M17/M19 A2991 RMK SC8 SLP190

CYQR;2013-12-30 03:00;CYQR 300300Z 10010KT 3SM -SN OVC022 M17/M19 A2991 RMK SC8 SLP190

CYQR;2013-12-30 04:00;CYQR 300400Z 11009KT 12SM -SN BKN042 OVC110 M17/M19 A2991 RMK SC5AC3 SLP190

CYQR;2013-12-30 05:00;CYQR 300500Z 10009KT 10SM -SN OVC049 M17/M19 A2991 RMK SC8 SLP190

CYQR;2013-12-30 06:00;CYQR 300600Z 08009KT 6SM -SN OVC037 M17/M19 A2995 RMK SC8 PRESRR SLP199

CYQR;2013-12-30 07:00;CYQR 300700Z 05008KT 5SM -SN OVC034 M18/M20 A2997 RMK SC8 SLP209

CYQR;2013-12-30 08:00;CYQR 300800Z 04007KT 7SM -SN OVC039 M18/M21 A3001 RMK SC8 /S01/ SLP221

CYQR;2013-12-30 09:00;CYQR 300900Z 05006KT 4SM -SN OVC036 M19/M21 A3003 RMK SC8 SLP228

CYQR;2013-12-30 10:00;CYQR 301000Z 02005KT 12SM -SN OVC038 M20/M23 A3007 RMK SC8 SLP242

CYQR;2013-12-30 11:00;CYQR 301100Z 01005KT 15SM -SN BKN053 BKN082 M21/M24 A3011 RMK SC5AC2 /S02/ SLP255

CYQR;2013-12-30 12:00;CYQR 301200Z 34007KT 15SM -SN BKN063 OVC100 M21/M24 A3013 RMK SC5AC3 SLP263

CYQR;2013-12-30 13:00;CYQR 301300Z 34008KT 15SM -SN OVC110 M22/M24 A3017 RMK AC8 SLP278

CYQR;2013-12-30 13:43;CYQR 301343Z 34011KT 15SM FEW020 FEW110 SCT250 M24/M27 A3018 RMK SC1AC1CI1 SLP283

CYQR;2013-12-30 14:00;CYQR 301400Z 33009KT 15SM FEW020 FEW110 SCT250 M26/M28 A3020 RMK SC1AC1CI1 SLP288

CYQR;2013-12-30 15:00;CYQR 301500Z 32013KT 15SM FEW110 FEW250 M27/M30 A3021 RMK AC1CI1 SLP296

CYQR;2013-12-30 16:00;CYQR 301600Z 32012KT 12SM IC SKC M28/M30 A3025 RMK TRACE AC AT 11 000 FT SLP307

CYQR;2013-12-30 17:00;CYQR 301700Z 32011KT 12SM IC FEW250 M28/M31 A3025 RMK CI1 VIS W 5 SLP307

CYQR;2013-12-30 18:00;CYQR 301800Z 32004KT 12SM IC FEW110 M27/M30 A3025 RMK AC1 SLP306

CYQR;2013-12-30 18:14;CYQR 301814Z 31004KT 15SM FEW110 M27/M30 A3024 RMK AC1 SLP303

CYQR;2013-12-30 19:00;CYQR 301900Z 28003KT 15SM FEW110 M26/M29 A3024 RMK AC1 SLP303

CYQR;2013-12-30 20:00;CYQR 302000Z 31003KT 15SM SKC M26/M29 A3021 RMK TRACE CI AT 20 000 FT SLP294

CYQR;2013-12-30 21:00;CYQR 302100Z 31002KT 15SM FEW110 M26/M30 A3021 RMK AC1 SLP295

CYQR;2013-12-30 22:00;CYQR 302200Z 33006KT 15SM FEW110 FEW250 M25/M29 A3021 RMK AC1CI1 CC ASOCTD SLP294

CYQR;2013-12-30 23:00;CYQR 302300Z 31004KT 15SM FEW110 BKN250 M26/M29 A3020 RMK AC1CI5 SLP292

CYQR;2013-12-31 00:00;CYQR 310000Z 27004KT 15SM FEW110 SCT250 M27/M30 A3020 RMK AC1CI2 SLP294

CYQR;2013-12-31 01:00;CYQR 310100Z 28006KT 15SM FEW110 BKN210 M28/M31 A3019 RMK AC1CI5 SLP292

CYQR;2013-12-31 02:00;CYQR 310200Z 29005KT 15SM BKN210 M27/M30 A3017 RMK CI6 SLP289

CYQR;2013-12-31 03:00;CYQR 310300Z 33007KT 15SM FEW210 M29/M31 A3018 RMK CI1 SLP294

CYQR;2013-12-31 04:00;CYQR 310400Z 33006KT 15SM SCT180 M28/M30 A3017 RMK CI3 SLP291

CYQR;2013-12-31 05:00;CYQR 310500Z 31005KT 15SM FEW140 M29/M31 A3018 RMK AC2 SLP294

CYQR;2013-12-31 06:00;CYQR 310600Z 01006KT 15SM SKC M27/M30 A3017 RMK SLP288

CYQR;2013-12-31 07:00;CYQR 310700Z 02007KT 15SM BKN140 M27/M29 A3015 RMK AC7 SLP279

CYQR;2013-12-31 08:00;CYQR 310800Z 03009KT 15SM BKN140 BKN190 M27/M30 A3015 RMK AC5CI2 SLP281

CYQR;2013-12-31 09:00;CYQR 310900Z 05005KT 15SM SCT220 M27/M30 A3016 RMK CI4 SLP284

CYQR;2013-12-31 10:00;CYQR 311000Z 12004KT 15SM FEW220 M28/M31 A3017 RMK CI2 SLP287

CYQR;2013-12-31 11:00;CYQR 311100Z 12002KT 15SM SKC M29/M32 A3018 RMK SLP294

CYQR;2013-12-31 12:00;CYQR 311200Z 13005KT 15SM BKN140 M29/M32 A3018 RMK AC5 SLP294

CYQR;2013-12-31 13:00;CYQR 311300Z 12006KT 15SM SCT140 BKN260 M28/M32 A3018 RMK AC4CI2 SLP295

CYQR;2013-12-31 14:00;CYQR 311400Z 13005KT 15SM SCT120 BKN260 M28/M32 A3019 RMK AC4CI3 SLP296

CYQR;2013-12-31 15:00;CYQR 311500Z 12005KT 15SM FEW100 SCT140 BKN260 M29/M32 A3020 RMK AC1AC2CI3 SLP300

CYQR;2013-12-31 16:00;CYQR 311600Z 13004KT 15SM BKN110 OVC260 M28/M31 A3021 RMK AC5CI3 SLP305

CYQR;2013-12-31 17:00;CYQR 311700Z 13006KT 15SM SCT130 OVC260 M28/M31 A3022 RMK AC4CI4 SLP309

CYQR;2013-12-31 18:00;CYQR 311800Z 12008KT 15SM SCT100 BKN160 BKN250 M26/M30 A3022 RMK AC3AC2CI2 SLP304

CYQR;2013-12-31 19:00;CYQR 311900Z 12010KT 15SM OVC090 M26/M30 A3020 RMK AC8 PRESFR SLP296

CYQR;2013-12-31 20:00;CYQR 312000Z 11012KT 15SM BKN074 OVC280 M25/M29 A3017 RMK AC7CI1 PRESFR SLP287

CYQR;2013-12-31 21:00;CYQR 312100Z 13011KT 15SM OVC087 M25/M29 A3018 RMK AC8 SLP289

CYQR;2013-12-31 21:49;CYQR 312149Z 12011KT 12SM -SN OVC045 M25/M28 A3017 RMK SC8 SLP287

CYQR;2013-12-31 22:00;CYQR 312200Z 12012KT 4SM -SN DRSN OVC040 M24/M28 A3017 RMK SC8 SLP287

CYQR;2013-12-31 22:29;CYQR 312229Z 14014KT 2SM -SN DRSN OVC023 M24/M28 A3018 RMK SC8 SLP290

CYQR;2013-12-31 23:00;CYQR 312300Z 13012KT 2SM -SN DRSN SCT023 OVC040 M24/M27 A3018 RMK SC4SC4 SLP291

CYQR;2013-12-31 23:41;CYQR 312341Z 14013KT 4SM SN DRSN BKN070 OVC120 M24/M27 A3017 RMK ACC7AC1 SLP287

