CYSC;2002-08-15 00:00;METAR CYSC 150000Z AUTO 14004KT 5SM CLR 26/21 A2997 RMK SLP147
CYSC;2002-08-15 01:00;METAR CYSC 150100Z AUTO 09003KT 5SM CLR 25/20 A2998 RMK SLP150
CYSC;2002-08-15 02:00;METAR CYSC 150200Z AUTO 23002KT 4SM CLR 23/20 A2999 RMK SLP155
CYSC;2002-08-15 03:00;METAR CYSC 150300Z AUTO 30002KT 3SM CLR 22/20 A3002 RMK SLP164
CYSC;2002-08-15 04:00;METAR CYSC 150400Z AUTO 11004KT 2 1/4SM CLR 20/19 A3001 RMK SLP161
CYSC;2002-08-15 05:00;METAR CYSC 150500Z AUTO 00000KT 2 1/2SM CLR 20/19 A3001 RMK SLP161
CYSC;2002-08-15 06:00;METAR CYSC 150600Z AUTO 08004KT 2 1/2SM CLR 20/19 A3000 RMK SLP156
CYSC;2002-08-15 07:00;METAR CYSC 150700Z AUTO 00000KT 2 1/8SM CLR 19/18 A2999 RMK SLP154
CYSC;2002-08-15 08:00;METAR CYSC 150800Z AUTO 10002KT 2 3/8SM CLR 19/18 A2999 RMK SLP154
CYSC;2002-08-15 09:00;METAR CYSC 150900Z AUTO 00000KT 2 1/4SM FEW086 20/18 A3002 RMK SLP164
CYSC;2002-08-15 10:00;METAR CYSC 151000Z AUTO 09002KT 2 1/4SM CLR 20/18 A3003 RMK SLP167
CYSC;2002-08-15 11:00;METAR CYSC 151100Z AUTO 10002KT 2 3/8SM CLR 21/19 A3005 RMK SLP173
CYSC;2002-08-15 12:00;METAR CYSC 151200Z 24002KT 3SM HZ FEW090 FEW140 BKN220 25/21 A3008 RMK AC1AC2CI1 SLP182
CYSC;2002-08-15 13:00;METAR CYSC 151300Z 21006KT 4SM HZ SCT095 BKN220 26/21 A3009 RMK AC3CI1 SLP186
CYSC;2002-08-15 14:00;METAR CYSC 151400Z 22003KT 5SM HZ FEW033 SCT100 OVC200 27/21 A3009 RMK SC2AC2CI3 SLP188
CYSC;2002-08-15 15:00;METAR CYSC 151500Z 24006KT 6SM HZ FEW060 BKN086 BKN140 27/20 A3010 RMK SC2AC4AC1 SLP190
CYSC;2002-08-15 16:00;METAR CYSC 151600Z 22004KT 8SM FEW041 BKN062 BKN090 27/20 A3009 RMK SC1SC5AC2 HAZE SLP187
CYSC;2002-08-15 17:00;METAR CYSC 151700Z 27006KT 8SM FEW041 SCT068 BKN140 BKN220 28/20 A3008 RMK CU1AC3AC2CI0 HAZE SLP183
CYSC;2002-08-15 18:00;METAR CYSC 151800Z 27003KT 6SM HZ SCT069 BKN100 BKN140 28/21 A3006 RMK AC3AC2AC1 SLP179
CYSC;2002-08-15 19:00;METAR CYSC 151900Z 36002KT 10SM BKN063 BKN100 27/22 A3005 RMK SC6AC2 HAZE SLP174
CYSC;2002-08-15 20:00;METAR CYSC 152000Z 00000KT 8SM FEW060 BKN100 BKN220 29/22 A3003 RMK SC2AC3CI0 HAZE SLP169
CYSC;2002-08-15 21:00;METAR CYSC 152100Z 31002KT 6SM HZ BKN100 28/22 A3003 RMK AC6 LAST MANNED OB/NEXT 161200 SLP166
CYSC;2002-08-15 22:00;METAR CYSC 152200Z AUTO 26002KT 5SM FEW047 FEW092 27/23 A3002 RMK SLP165
CYSC;2002-08-15 23:00;METAR CYSC 152300Z AUTO 00000KT 4SM CLR 26/23 A3002 RMK SLP165
CYSC;2002-08-16 00:00;METAR CYSC 160000Z AUTO 00000KT 4SM FEW040 FEW068 FEW097 25/22 A3002 RMK SLP164
CYSC;2002-08-16 01:00;METAR CYSC 160100Z AUTO 00000KT 3SM FEW064 SCT090 24/22 A3004 RMK SLP170
CYSC;2002-08-16 02:00;METAR CYSC 160200Z AUTO 19003KT 2 1/4SM FEW088 22/21 A3004 RMK SLP172
CYSC;2002-08-16 03:00;METAR CYSC 160300Z AUTO 20003KT 3 1/2SM CLR 23/20 A3004 RMK SLP172
CYSC;2002-08-16 04:00;METAR CYSC 160400Z AUTO 00000KT 1 1/4SM CLR 20/19 A3004 RMK SLP171
CYSC;2002-08-16 05:00;METAR CYSC 160500Z AUTO 00000KT 1 3/4SM CLR 19/19 A3003 RMK SLP169
CYSC;2002-08-16 06:00;METAR CYSC 160600Z AUTO 13002KT 2 1/2SM CLR 19/18 A3002 RMK SLP166
CYSC;2002-08-16 07:00;METAR CYSC 160700Z AUTO 00000KT 2SM FEW073 FEW088 19/18 A3001 RMK SLP163
CYSC;2002-08-16 08:00;METAR CYSC 160800Z AUTO 00000KT 3SM FEW054 SCT069 20/18 A3001 RMK SLP160
CYSC;2002-08-16 09:00;METAR CYSC 160900Z AUTO 00000KT 1 5/8SM FEW063 19/18 A3001 RMK SLP160
CYSC;2002-08-16 10:00;METAR CYSC 161000Z AUTO 00000KT 3 1/2SM FEW094 19/18 A3002 RMK SLP165
CYSC;2002-08-16 11:00;METAR CYSC 161100Z AUTO 00000KT 2 1/2SM SCT091 20/19 A3003 RMK SLP170
CYSC;2002-08-16 12:00;METAR CYSC 161200Z 14002KT 6SM HZ FEW067 SCT091 BKN140 BKN240 23/20 A3004 RMK AC1AC2AC2CI0 SLP172
CYSC;2002-08-16 13:00;METAR CYSC 161300Z 21003KT 8SM FEW090 FEW140 SCT240 25/20 A3004 RMK AC2AC1CI0 HAZE SLP170
CYSC;2002-08-16 14:00;METAR CYSC 161400Z 21007KT 15SM FEW040 FEW090 FEW240 27/20 A3002 RMK CU1AC2CI0 SLP165
CYSC;2002-08-16 15:00;METAR CYSC 161500Z 21007KT 15SM FEW034 SCT090 28/21 A3001 RMK SC2AC2 CU ASOCTD SLP160
CYSC;2002-08-16 16:00;METAR CYSC 161600Z 21007KT 15SM SCT034 SCT120 28/20 A2999 RMK SC3AC1 TCU ASOCTD SLP155
CYSC;2002-08-16 17:00;METAR CYSC 161700Z 23008KT 15SM FEW034 29/20 A2996 RMK CU2 TCU ASOCTD SLP145
CYSC;2002-08-16 18:00;METAR CYSC 161800Z CCA 22008G15KT 15SM SCT043 31/20 A2994 RMK SC3 TCU EMBDD SLP137
CYSC;2002-08-16 19:00;METAR CYSC 161900Z 23007KT 15SM SCT049 SCT069 31/20 A2993 RMK CU3AC1 SLP132
CYSC;2002-08-16 20:00;METAR CYSC 162000Z 23011G16KT 15SM FEW040 SCT068 BKN100 30/19 A2991 RMK CU2AC2AC1 TCU EMBDD SLP125
CYSC;2002-08-16 21:00;METAR CYSC 162100Z 22010G15KT 15SM FEW047 SCT240 30/20 A2991 RMK CU2CI0 LAST MANNED OB/NEXT 171200 TCU ASOCTD SLP125
CYSC;2002-08-16 22:00;METAR CYSC 162200Z AUTO 23007KT 9SM FEW047 FEW062 29/20 A2990 RMK SLP122
CYSC;2002-08-16 23:00;METAR CYSC 162300Z AUTO 23005KT 9SM CLR 27/20 A2990 RMK SLP123
CYSC;2002-08-17 00:00;METAR CYSC 170000Z AUTO 20003KT 9SM CLR 25/20 A2990 RMK SLP125
CYSC;2002-08-17 01:00;METAR CYSC 170100Z AUTO 21002KT 9SM CLR 24/20 A2991 RMK SLP126
CYSC;2002-08-17 02:00;METAR CYSC 170200Z AUTO 23005KT 9SM CLR 24/20 A2991 RMK SLP128
CYSC;2002-08-17 03:00;METAR CYSC 170300Z AUTO 24006KT 9SM FEW076 24/20 A2992 RMK SLP130
CYSC;2002-08-17 04:00;METAR CYSC 170400Z AUTO 21005KT 9SM FEW093 24/20 A2992 RMK SLP131
CYSC;2002-08-17 05:00;METAR CYSC 170500Z AUTO 24007KT 9SM FEW051 BKN071 24/19 A2992 RMK SLP131
CYSC;2002-08-17 06:00;METAR CYSC 170600Z AUTO 27010G15KT 9SM BKN024 BKN043 23/19 A2992 RMK SLP131
CYSC;2002-08-17 07:00;METAR CYSC 170700Z AUTO 26010G15KT 9SM OVC019 22/19 A2993 RMK SLP135
CYSC;2002-08-17 08:00;METAR CYSC 170800Z AUTO 26006KT 9SM OVC017 22/19 A2994 RMK SLP136
CYSC;2002-08-17 09:00;METAR CYSC 170900Z AUTO 25004KT 9SM OVC015 21/18 A2995 RMK SLP139
CYSC;2002-08-17 10:00;METAR CYSC 171000Z AUTO 24007KT 9SM OVC015 21/18 A2997 RMK SLP147
CYSC;2002-08-17 11:00;METAR CYSC 171100Z AUTO 24005KT 9SM OVC014 21/18 A2999 RMK SLP155
CYSC;2002-08-17 12:00;METAR CYSC 171200Z 22004KT 15SM BKN014 21/18 A3000 RMK SC7 SLP158
CYSC;2002-08-17 13:00;METAR CYSC 171300Z 21005KT 15SM BKN016 21/16 A3000 RMK SC7 SLP157
CYSC;2002-08-17 14:00;METAR CYSC 171400Z 19004KT 15SM BKN017 BKN240 23/18 A2999 RMK SC6CI0 SLP155
CYSC;2002-08-17 15:00;METAR CYSC 171500Z 22004KT 15SM FEW027 SCT220 24/18 A2998 RMK CU2CI0 SLP149
CYSC;2002-08-17 16:00;METAR CYSC 171600Z 25006KT 15SM SCT026 SCT220 25/18 A2998 RMK CU3CI0
CYSC;2002-08-17 17:00;METAR CYSC 171700Z 28007KT 15SM SCT030 27/18 A2997 RMK CU4 SLP147
CYSC;2002-08-17 18:00;METAR CYSC 171800Z 27009KT 15SM SCT037 28/17 A2997 RMK CU3 SLP146
CYSC;2002-08-17 19:00;METAR CYSC 171900Z 29007KT 15SM FEW037 SCT220 27/16 A2996 RMK CU2CI0 SLP142
CYSC;2002-08-17 20:00;METAR CYSC 172000Z 28006KT 15SM FEW040 FEW160 SCT220 27/16 A2994 RMK CU2AC0CI0 SLP136
CYSC;2002-08-17 21:00;METAR CYSC 172100Z 25005KT 15SM FEW054 FEW240 26/16 A2993 RMK CU1CI0 LAST MANNED OB/NEXT 181200 SLP134
CYSC;2002-08-17 22:00;METAR CYSC 172200Z AUTO 23005KT 9SM FEW054 26/15 A2992 RMK SLP131
CYSC;2002-08-17 23:00;METAR CYSC 172300Z AUTO 20003KT 9SM CLR 24/16 A2992 RMK SLP132
CYSC;2002-08-18 00:00;METAR CYSC 180000Z AUTO 16003KT 9SM CLR 20/16 A2991 RMK SLP129
CYSC;2002-08-18 01:00;METAR CYSC 180100Z AUTO 10003KT 9SM CLR 17/15 A2991 RMK SLP130
CYSC;2002-08-18 02:00;METAR CYSC 180200Z AUTO 10003KT 9SM CLR 16/15 A2991 RMK SLP128
CYSC;2002-08-18 03:00;METAR CYSC 180300Z AUTO 08003KT 9SM CLR 15/13 A2990 RMK SLP126
CYSC;2002-08-18 04:00;METAR CYSC 180400Z AUTO 07002KT 9SM CLR 15/14 A2991 RMK SLP127
CYSC;2002-08-18 05:00;METAR CYSC 180500Z AUTO 11003KT 9SM CLR 14/13 A2990 RMK SLP124
CYSC;2002-08-18 06:00;METAR CYSC 180600Z AUTO 09003KT 9SM CLR 15/14 A2988 RMK SLP118
CYSC;2002-08-18 07:00;METAR CYSC 180700Z AUTO 00000KT 9SM FEW050 15/14 A2986 RMK SLP110
CYSC;2002-08-18 08:00;METAR CYSC 180800Z AUTO 06002KT 9SM CLR 14/13 A2984 RMK SLP105
CYSC;2002-08-18 09:00;METAR CYSC 180900Z AUTO 08002KT 9SM CLR 15/13 A2983 RMK SLP103
CYSC;2002-08-18 10:00;METAR CYSC 181000Z AUTO 07002KT 9SM CLR 14/13 A2983 RMK SLP103
CYSC;2002-08-18 11:00;METAR CYSC 181100Z AUTO 07003KT 9SM CLR 17/15 A2983 RMK SLP101
CYSC;2002-08-18 12:00;METAR CYSC 181200Z 00000KT 15SM FEW140 21/17 A2983 RMK AC1 SLP101
CYSC;2002-08-18 13:00;METAR CYSC 181300Z 19003KT 15SM FEW250 24/19 A2982 RMK CI2 SLP097
CYSC;2002-08-18 14:00;METAR CYSC 181400Z 23004KT 15SM FEW080 SCT250 27/21 A2981 RMK ACC1CI2 SLP093
CYSC;2002-08-18 15:00;METAR CYSC 181500Z 19007KT 15SM FEW025 FEW080 SCT250 29/21 A2979 RMK CU1ACC1CI2 ACC TR SLP088
CYSC;2002-08-18 16:00;METAR CYSC 181600Z 20008KT 15SM FEW036 SCT080 BKN250 29/20 A2977 RMK CU2ACC2CI1 SLP081
CYSC;2002-08-18 17:00;METAR CYSC 181700Z 23009KT 15SM FEW040 SCT077 BKN250 30/20 A2976 RMK CU2ACC2CI1 TCU ASOCTD SLP077
CYSC;2002-08-18 18:00;METAR CYSC 181800Z 21011G17KT 15SM SCT036 BKN250 31/20 A2973 RMK CU3CI1 TCU ASOCTD SLP066
CYSC;2002-08-18 19:00;METAR CYSC 181900Z 21012G18KT 15SM SCT039 SCT071 BKN250 31/20 A2971 RMK CU3ACC1CI1 TCU EMBDD SLP059
CYSC;2002-08-18 20:00;METAR CYSC 182000Z 23010G18KT 15SM BKN044 BKN093 BKN250 30/19 A2972 RMK CU5AC1CI0 TCU EMBDD SLP063
CYSC;2002-08-18 21:00;METAR CYSC 182100Z 23011G16KT 15SM FEW051 FEW096 BKN250 28/19 A2973 RMK CU2ACC1CI1 LAST MANNED OB/NEXT 191200 SLP066
CYSC;2002-08-18 22:00;METAR CYSC 182200Z AUTO 22007KT 9SM FEW053 FEW066 28/21 A2972 RMK SLP066
CYSC;2002-08-18 23:00;METAR CYSC 182300Z AUTO 17004KT 9SM CLR 26/21 A2972 RMK SLP064
CYSC;2002-08-19 00:00;METAR CYSC 190000Z AUTO 27009G17KT 9SM FEW031 FEW045 FEW067 26/18 A2975 RMK SLP072
CYSC;2002-08-19 01:00;METAR CYSC 190100Z AUTO 24005KT 9SM CLR 25/17 A2978 RMK SLP084
CYSC;2002-08-19 02:00;METAR CYSC 190200Z AUTO 21004KT 9SM FEW063 FEW094 23/16 A2980 RMK SLP088
CYSC;2002-08-19 03:00;METAR CYSC 190300Z AUTO 22005KT 9SM FEW071 FEW086 22/14 A2982 RMK SLP096
CYSC;2002-08-19 04:00;METAR CYSC 190400Z AUTO 21002KT 9SM FEW070 17/14 A2985 RMK SLP106
CYSC;2002-08-19 05:00;METAR CYSC 190500Z AUTO 24004KT 9SM BKN068 19/12 A2985 RMK SLP107
CYSC;2002-08-19 06:00;METAR CYSC 190600Z AUTO 27002KT 9SM BKN068 17/12 A2985 RMK SLP106
CYSC;2002-08-19 07:00;METAR CYSC 190700Z AUTO 25004KT 9SM FEW068 16/12 A2986 RMK SLP110
CYSC;2002-08-19 08:00;METAR CYSC 190800Z AUTO 29002KT 9SM FEW062 14/13 A2987 RMK SLP116
CYSC;2002-08-19 09:00;METAR CYSC 190900Z AUTO 22004KT 9SM FEW059 14/12 A2989 RMK SLP122
CYSC;2002-08-19 10:00;METAR CYSC 191000Z AUTO 19002KT 9SM FEW064 12/11 A2990 RMK SLP125
CYSC;2002-08-19 11:00;METAR CYSC 191100Z AUTO 00000KT 9SM SCT061 16/14 A2991 RMK SLP130
CYSC;2002-08-19 12:00;METAR CYSC 191200Z CCA 24003KT 15SM FEW056 18/15 A2992 RMK CU2 SLP130
CYSC;2002-08-19 13:00;METAR CYSC 191300Z 27002KT 15SM FEW058 20/14 A2991 RMK CU2 SLP128
CYSC;2002-08-19 14:00;METAR CYSC 191400Z 28005KT 15SM FEW055 21/14 A2992 RMK CU2 SLP130
CYSC;2002-08-19 15:00;METAR CYSC 191500Z 28006KT 15SM FEW040 SCT250 23/15 A2991 RMK CU2CI1 SLP126
CYSC;2002-08-19 16:00;METAR CYSC 191600Z 26006KT 15SM FEW033 SCT250 24/13 A2990 RMK CU2CI1 SLP125
CYSC;2002-08-19 17:00;METAR CYSC 191700Z 28009KT 15SM FEW041 SCT250 25/14 A2990 RMK CU2CI1 SLP124
CYSC;2002-08-19 18:00;METAR CYSC 191800Z 26009KT 15SM FEW036 SCT094 BKN250 25/14 A2989 RMK CU2AC2CI1 SLP123
CYSC;2002-08-19 19:00;METAR CYSC 191900Z 26009KT 15SM SCT041 BKN080 BKN250 24/14 A2989 RMK CU3AC2CI1 SLP122
CYSC;2002-08-19 20:00;METAR CYSC 192000Z 29008KT 15SM SCT048 BKN080 BKN120 BKN250 22/13 A2989 RMK CU3AC2AS2CI0 SLP123
CYSC;2002-08-19 21:00;METAR CYSC 192100Z 31003KT 15SM SCT052 BKN089 BKN120 BKN250 22/14 A2987 RMK CU3AC2AS1CI0 LAST MANNED OB/NEXT 201200 SLP115
CYSC;2002-08-19 22:00;METAR CYSC 192200Z AUTO 30002KT 9SM CLR 21/15 A2986 RMK SLP113
CYSC;2002-08-19 23:00;METAR CYSC 192300Z AUTO 32003KT 9SM CLR 19/15 A2988 RMK SLP119
CYSC;2002-08-20 00:00;METAR CYSC 200000Z AUTO 00000KT 9SM CLR 18/15 A2987 RMK SLP118
CYSC;2002-08-20 01:00;METAR CYSC 200100Z AUTO 22003KT 9SM -RA BKN088 17/16 A2990 RMK SLP127
CYSC;2002-08-20 02:00;METAR CYSC 200200Z AUTO 27004KT 9SM -RA FEW078 17/15 A2991 RMK SLP131
CYSC;2002-08-20 03:00;METAR CYSC 200300Z AUTO 28002KT 9SM SCT078 16/15 A2992 RMK SLP134
CYSC;2002-08-20 04:00;METAR CYSC 200400Z AUTO 21002KT 9SM OVC070 16/14 A2993 RMK SLP137
CYSC;2002-08-20 05:00;METAR CYSC 200500Z AUTO 26002KT 9SM BKN063 15/14 A2994 RMK SLP138
CYSC;2002-08-20 06:00;METAR CYSC 200600Z AUTO 00000KT 9SM FEW065 13/12 A2993 RMK SLP138
CYSC;2002-08-20 07:00;METAR CYSC 200700Z AUTO 18002KT 9SM CLR 12/11 A2993 RMK SLP139
CYSC;2002-08-20 08:00;METAR CYSC 200800Z AUTO 33003KT 5SM CLR 12/12 A2993 RMK SLP138
CYSC;2002-08-20 09:00;METAR CYSC 200900Z AUTO 28003KT 9SM CLR 13/13 A2995 RMK SLP144
CYSC;2002-08-20 10:00;METAR CYSC 201000Z AUTO 21002KT 9SM CLR 11/11 A2997 RMK SLP151
CYSC;2002-08-20 11:00;METAR CYSC 201100Z AUTO 00000KT 3/8SM CLR 13/13 A2999 RMK VSBY VRBL 0.2V7.0 SLP158
CYSC;2002-08-20 12:00;METAR CYSC 201200Z 28002KT 15SM SCT007 15/14 A3001 RMK CU3 SLP165
CYSC;2002-08-20 13:00;METAR CYSC 201300Z 32003KT 15SM BKN010 18/15 A3002 RMK CU6 SLP169
CYSC;2002-08-20 14:00;METAR CYSC 201400Z 26003KT 15SM BKN012 19/15 A3004 RMK CU5 SLP173
CYSC;2002-08-20 15:00;METAR CYSC 201500Z 35003KT 15SM BKN023 20/14 A3004 RMK CU5 SLP172
CYSC;2002-08-20 16:00;METAR CYSC 201600Z 27007KT 15SM BKN030 22/13 A3004 RMK CU5 SLP174
CYSC;2002-08-20 17:00;METAR CYSC 201700Z 30011KT 15SM BKN034 22/13 A3005 RMK CU6 SLP175
CYSC;2002-08-20 18:00;METAR CYSC 201800Z 29010KT 15SM SCT039 24/13 A3005 RMK CU4 SLP176
CYSC;2002-08-20 19:00;METAR CYSC 201900Z 31009KT 15SM SCT043 22/12 A3005 RMK CU3 SLP178
CYSC;2002-08-20 20:00;METAR CYSC 202000Z 28011KT 15SM FEW038 23/12 A3006 RMK CU2 SLP181
CYSC;2002-08-20 21:00;METAR CYSC 202100Z 30008G15KT 15SM FEW049 23/11 A3007 RMK CU2 LAST MANNED OB/NEXT 211200 SLP185
CYSC;2002-08-21 00:00;METAR CYSC 210000Z AUTO 32002KT 9SM CLR 15/12 A3012 RMK SLP203
CYSC;2002-08-21 04:00;METAR CYSC 210400Z AUTO 10002KT 9SM CLR 10/10 A3018 RMK SLP223
CYSC;2002-08-21 05:00;METAR CYSC 210500Z AUTO 00000KT 9SM CLR 09/08 A3019 RMK SLP228
CYSC;2002-08-21 06:00;METAR CYSC 210600Z AUTO 09002KT 8SM CLR 08/08 A3020 RMK SLP231
CYSC;2002-08-21 07:00;METAR CYSC 210700Z AUTO 00000KT 3SM CLR 07/07 A3022 RMK SLP237
CYSC;2002-08-21 08:00;METAR CYSC 210800Z AUTO 00000KT 1 1/2SM CLR 07/06 A3023 RMK VSBY VRBL 0.3V9.+ SLP242
CYSC;2002-08-21 09:00;METAR CYSC 210900Z AUTO 00000KT 9SM CLR 06/05 A3026 RMK SLP253
CYSC;2002-08-21 10:00;METAR CYSC 211000Z AUTO 09002KT 9SM CLR 06/05 A3028 RMK SLP260
CYSC;2002-08-21 11:00;METAR CYSC 211100Z AUTO 00000KT 9SM CLR 10/09 A3030 RMK SLP264
CYSC;2002-08-21 12:00;METAR CYSC 211200Z 09002KT 15SM SKC 13/11 A3030 RMK SLP265
CYSC;2002-08-21 13:00;METAR CYSC 211300Z 00000KT 15SM SKC 16/13 A3031 RMK SLP266
CYSC;2002-08-21 14:00;METAR CYSC 211400Z 17002KT 15SM FEW250 19/12 A3030 RMK CI0 SLP265
CYSC;2002-08-21 15:00;METAR CYSC 211500Z 23003KT 15SM FEW020 FEW250 22/12 A3030 RMK CU1CI0 SLP264
CYSC;2002-08-21 16:00;METAR CYSC 211600Z 00000KT 15SM FEW030 FEW250 23/10 A3029 RMK CU1CI0 SLP259
CYSC;2002-08-21 17:00;METAR CYSC 211700Z 18003KT 15SM FEW035 SCT250 24/10 A3028 RMK CU2CI1 SLP257
CYSC;2002-08-21 18:00;METAR CYSC 211800Z 20005KT 15SM FEW030 SCT250 25/12 A3027 RMK CU2CI1 SLP252
CYSC;2002-08-21 19:00;METAR CYSC 211900Z 13003KT 15SM FEW043 FEW087 SCT250 25/11 A3024 RMK CU1AC1CI1 SLP243
CYSC;2002-08-21 20:00;METAR CYSC 212000Z 16004KT 15SM FEW090 SCT140 BKN250 24/11 A3023 RMK AC1AS2CI1 SLP240
CYSC;2002-08-21 21:00;METAR CYSC 212100Z 22004KT 15SM SCT077 BKN140 BKN250 24/11 A3021 RMK AC3AS2CI1 LAST MANNED OB/NEXT 221200 SLP235
CYSC;2002-08-21 22:00;METAR CYSC 212200Z AUTO 20003KT 9SM CLR 23/12 A3021 RMK SLP233
CYSC;2002-08-21 23:00;METAR CYSC 212300Z AUTO 18002KT 9SM CLR 21/14 A3020 RMK SLP229
CYSC;2002-08-22 00:00;METAR CYSC 220000Z AUTO 33002KT 9SM CLR 17/13 A3019 RMK SLP225
CYSC;2002-08-22 01:00;METAR CYSC 220100Z AUTO 00000KT 9SM CLR 14/12 A3020 RMK SLP230
CYSC;2002-08-22 02:00;METAR CYSC 220200Z AUTO 11004KT 9SM CLR 14/12 A3021 RMK SLP232
CYSC;2002-08-22 03:00;METAR CYSC 220300Z AUTO 11003KT 9SM CLR 12/11 A3019 RMK SLP228
CYSC;2002-08-22 04:00;METAR CYSC 220400Z AUTO 08003KT 9SM CLR 12/11 A3019 RMK SLP226
CYSC;2002-08-22 05:00;METAR CYSC 220500Z AUTO 09004KT 9SM CLR 12/11 A3015 RMK SLP213
CYSC;2002-08-22 06:00;METAR CYSC 220600Z AUTO 02002KT 9SM CLR 12/11 A3014 RMK SLP210
CYSC;2002-08-22 07:00;METAR CYSC 220700Z AUTO 12003KT 9SM CLR 12/11 A3013 RMK SLP205
CYSC;2002-08-22 08:00;METAR CYSC 220800Z AUTO 00000KT 9SM CLR 12/11 A3012 RMK SLP203
CYSC;2002-08-22 09:00;METAR CYSC 220900Z AUTO 09002KT 9SM CLR 11/11 A3011 RMK SLP199
CYSC;2002-08-22 10:00;METAR CYSC 221000Z AUTO 07003KT 9SM CLR 13/11 A3009 RMK SLP192
CYSC;2002-08-22 11:00;METAR CYSC 221100Z AUTO 12003KT 9SM CLR 14/12 A3007 RMK SLP185
CYSC;2002-08-22 12:00;METAR CYSC 221200Z CCA 00000KT 15SM BKN061 BKN250 15/13 A3006 RMK SC5CI2
CYSC;2002-08-22 13:00;METAR CYSC 221300Z 00000KT 15SM SCT061 BKN140 OVC250 16/14 A3004 RMK SC3AS2CI2 SLP176
CYSC;2002-08-22 14:00;METAR CYSC 221400Z 00000KT 15SM -RA SCT031 BKN053 BKN140 OVC250 18/14 A3003 RMK SC3SC2AS2CI1 SLP171
CYSC;2002-08-22 15:00;METAR CYSC 221500Z 21002KT 15SM SCT039 BKN093 OVC250 19/15 A3002 RMK SC4AC2CI1 SLP169
CYSC;2002-08-22 16:00;METAR CYSC 221600Z 20002KT 15SM -RA SCT035 BKN080 BKN250 19/16 A2999 RMK SC4AC2CI1 SLP160
CYSC;2002-08-22 17:00;METAR CYSC 221700Z 32004KT 12SM -RA BKN035 BKN080 OVC250 19/17 A3001 RMK SC5AC2CI1 SLP164
CYSC;2002-08-22 18:00;METAR CYSC 221800Z 00000KT 10SM -RA BKN039 BKN084 OVC250 19/17 A2999 RMK SC5AC2CI1 SLP157
CYSC;2002-08-22 19:00;METAR CYSC 221900Z 21002KT 8SM RA BKN026 BKN080 OVC250 18/17 A2998 RMK SC5AC2CI1 SLP155
CYSC;2002-08-22 20:00;METAR CYSC 222000Z 00000KT 3SM -SHRA BR FEW005 SCT010 BKN016 OVC250 18/17 A2996 RERA RMK CF2CF2SC2CI1 SLP147
CYSC;2002-08-22 21:00;METAR CYSC 222100Z 00000KT 4SM BR FEW002 BKN007 BKN020 OVC070 18/17 A2995 RMK CF2CF3SC2AC2 LAST MANNED OB/NEXT 231200 SLP143 17/17 A2994 RMK PCPN 0.5MM PAST HR SLP142
CYSC;2002-08-22 23:00;METAR CYSC 222300Z AUTO 32003KT 1 1/2SM -RA BKN011 17/16 A2995 RMK PCPN 1.0MM PAST HR SLP146
CYSC;2002-08-23 00:00;METAR CYSC 230000Z AUTO 34002KT 6SM BKN009 BKN018 OVC023 16/16 A2996 RMK SLP148
CYSC;2002-08-23 01:00;METAR CYSC 230100Z AUTO 12004KT 9SM OVC030 OVC047 16/15 A2996 RMK SLP150
CYSC;2002-08-23 02:00;METAR CYSC 230200Z AUTO 32002KT 2 1/2SM OVC040 16/15 A2999 RMK SLP158
CYSC;2002-08-23 03:00;METAR CYSC 230300Z AUTO 34002KT 7SM BKN017 BKN056 OVC092 16/15 A3000 RMK SLP163
CYSC;2002-08-23 04:00;METAR CYSC 230400Z AUTO 00000KT 6SM FEW016 OVC026 16/15 A3002 RMK SLP168
CYSC;2002-08-23 05:00;METAR CYSC 230500Z AUTO 35003KT 6SM CLR 15/14 A3003 RMK SLP171
CYSC;2002-08-23 06:00;METAR CYSC 230600Z AUTO 03002KT 8SM CLR 12/12 A3003 RMK SLP173
CYSC;2002-08-23 07:00;METAR CYSC 230700Z AUTO 00000KT 2SM CLR 09/09 A3004 RMK VSBY VRBL 0.7V9.0 SLP175
CYSC;2002-08-23 08:00;METAR CYSC 230800Z AUTO 26002KT 1SM CLR 07/07 A3005 RMK VSBY VRBL 0.4V4.0 SLP179
CYSC;2002-08-23 09:00;METAR CYSC 230900Z AUTO 00000KT 3/8SM CLR 07/07 A3005 RMK VSBY VRBL 0.1V6.0 SLP181
CYSC;2002-08-23 10:00;METAR CYSC 231000Z AUTO 00000KT 1SM CLR 07/07 A3007 RMK VSBY VRBL 0.3V3.0 SLP189
CYSC;2002-08-23 11:00;METAR CYSC 231100Z AUTO 08002KT 1/8SM BKN000 09/09 A3009 RMK SLP193
CYSC;2002-08-23 12:00;METAR CYSC 231200Z 24002KT 1/8SM FG VV001 11/11 A3011 RMK FG8 SLP200
CYSC;2002-08-23 13:00;METAR CYSC 231300Z 00000KT 1 1/2SM BR BKN002 BKN240 11/11 A3011 RMK CF4CI0 SLP201
CYSC;2002-08-23 14:00;METAR CYSC 231400Z 00000KT 15SM FEW010 FEW240 14/13 A3012 RMK SC2CI1 CU ASOCTD SLP203
CYSC;2002-08-23 15:00;METAR CYSC 231500Z 24002KT 15SM FEW014 FEW240 16/13 A3011 RMK CU2CI1 SLP200
CYSC;2002-08-23 16:00;METAR CYSC 231600Z 20003KT 15SM FEW024 FEW240 18/10 A3010 RMK CU1CI0 SLP194
CYSC;2002-08-23 17:00;METAR CYSC 231700Z 00000KT 15SM FEW030 FEW240 20/10 A3009 RMK CU1CI0 SLP191
CYSC;2002-08-23 18:00;METAR CYSC 231800Z 19003KT 15SM FEW035 FEW240 21/10 A3007 RMK CU1CI0 SLP184
CYSC;2002-08-23 19:00;METAR CYSC 231900Z 27004KT 15SM FEW040 FEW240 22/10 A3005 RMK CU1CI1 CUTR SLP180
CYSC;2002-08-23 20:00;METAR CYSC 232000Z 25007KT 15SM FEW220 FEW240 21/11 A3005 RMK CC1CI2 SLP177
CYSC;2002-08-23 21:00;METAR CYSC 232100Z 29006KT 15SM FEW160 SCT200 21/10 A3004 RMK AC1CI2 LAST MANNED OB/NEXT 241200 SLP177
CYSC;2002-08-23 22:00;METAR CYSC 232200Z AUTO 30004KT 9SM CLR 20/10 A3003 RMK SLP173
CYSC;2002-08-23 23:00;METAR CYSC 232300Z AUTO 31003KT 9SM CLR 17/11 A3003 RMK SLP172
CYSC;2002-08-24 00:00;METAR CYSC 240000Z AUTO 35003KT 9SM CLR 13/11 A3001 RMK SLP169
CYSC;2002-08-24 01:00;METAR CYSC 240100Z AUTO 04003KT 9SM CLR 11/09 A3003 RMK SLP173
CYSC;2002-08-24 02:00;METAR CYSC 240200Z AUTO 10003KT 9SM CLR 10/09 A3001 RMK SLP168
CYSC;2002-08-24 03:00;METAR CYSC 240300Z AUTO 09002KT 9SM CLR 10/10 A3000 RMK SLP165
CYSC;2002-08-24 04:00;METAR CYSC 240400Z AUTO 08004KT 9SM CLR 10/10 A3000 RMK SLP164
CYSC;2002-08-24 05:00;METAR CYSC 240500Z AUTO 09003KT 9SM CLR 10/09 A2999 RMK SLP159
CYSC;2002-08-24 06:00;METAR CYSC 240600Z AUTO 05003KT 9SM CLR 10/09 A2997 RMK SLP153
CYSC;2002-08-24 07:00;METAR CYSC 240700Z AUTO 07002KT 9SM CLR 09/08 A2997 RMK SLP150
CYSC;2002-08-24 08:00;METAR CYSC 240800Z AUTO 09005KT 9SM CLR 09/09 A2995 RMK SLP145
CYSC;2002-08-24 09:00;METAR CYSC 240900Z AUTO 10003KT 9SM CLR 08/07 A2995 RMK SLP145
CYSC;2002-08-24 10:00;METAR CYSC 241000Z AUTO 04003KT 9SM CLR 08/07 A2994 RMK SLP142
CYSC;2002-08-24 11:00;METAR CYSC 241100Z AUTO 05003KT 9SM CLR 09/08 A2993 RMK SLP141
CYSC;2002-08-24 12:00;METAR CYSC 241200Z CCA 09003KT 15SM SCT120 BKN250 12/11 A2993 RMK AC3CI2
CYSC;2002-08-24 13:00;METAR CYSC 241300Z 06003KT 15SM SCT120 BKN250 16/13 A2993 RMK AC3CI2 ACC ASOCTD SLP139
CYSC;2002-08-24 14:00;METAR CYSC 241400Z 00000KT 15SM FEW073 SCT120 BKN250 19/13 A2992 RMK AC2AC1CI1 SLP135
CYSC;2002-08-24 15:00;METAR CYSC 241500Z 20005KT 15SM FEW041 SCT120 BKN250 20/14 A2991 RMK SC2AC2CI2 SLP130
CYSC;2002-08-24 16:00;METAR CYSC 241600Z 19007KT 15SM FEW036 SCT069 BKN120 BKN250 21/14 A2988 RMK SC2AC2AC2CI1 SLP122
CYSC;2002-08-24 17:00;METAR CYSC 241700Z 18006KT 15SM FEW043 SCT077 BKN120 BKN250 21/12 A2987 RMK SC2AC2AC2CI1 SLP117
CYSC;2002-08-24 18:00;METAR CYSC 241800Z 21008KT 15SM FEW037 SCT077 BKN120 BKN250 22/12 A2984 RMK SC2AC2AC1CI0 SLP107
CYSC;2002-08-24 19:00;METAR CYSC 241900Z 23006KT 15SM FEW048 SCT083 SCT140 BKN250 22/13 A2982 RMK CU1AC2AC1CI0 ACC ASOCTD SLP102
CYSC;2002-08-24 20:00;METAR CYSC 242000Z 21006KT 15SM FEW045 FEW072 SCT140 BKN250 23/13 A2982 RMK CU1AC2AC1CI0 SLP099
CYSC;2002-08-24 21:00;METAR CYSC 242100Z 24005KT 15SM FEW043 FEW072 SCT098 BKN250 22/13 A2981 RMK CU1AC2AC2CI0 LAST MANNED OB/NEXT 251200 SLP096
CYSC;2002-08-24 22:00;METAR CYSC 242200Z AUTO 27003KT 9SM CLR 21/12 A2979 RMK SLP092
CYSC;2002-08-24 23:00;METAR CYSC 242300Z AUTO 22006KT 9SM CLR 19/13 A2980 RMK SLP094
CYSC;2002-08-25 00:00;METAR CYSC 250000Z AUTO 19003KT 9SM CLR 17/12 A2980 RMK SLP093
CYSC;2002-08-25 01:00;METAR CYSC 250100Z AUTO 18003KT 9SM CLR 15/11 A2980 RMK SLP095
CYSC;2002-08-25 02:00;METAR CYSC 250200Z AUTO 14005KT 9SM CLR 14/11 A2979 RMK SLP090
CYSC;2002-08-25 03:00;METAR CYSC 250300Z AUTO 00000KT 9SM CLR 11/10 A2978 RMK SLP087
CYSC;2002-08-25 04:00;METAR CYSC 250400Z AUTO 28002KT 9SM CLR 10/09 A2979 RMK SLP090
CYSC;2002-08-25 05:00;METAR CYSC 250500Z AUTO 10002KT 9SM CLR 10/10 A2978 RMK SLP089
CYSC;2002-08-25 06:00;METAR CYSC 250600Z AUTO 23002KT 3/4SM CLR 09/09 A2979 RMK VSBY VRBL 0.3V9.+ SLP089
CYSC;2002-08-25 07:00;METAR CYSC 250700Z AUTO 16002KT 9SM CLR 11/10 A2979 RMK SLP089
CYSC;2002-08-25 08:00;METAR CYSC 250800Z AUTO 00000KT 9SM CLR 10/10 A2978 RMK SLP086
CYSC;2002-08-25 09:00;METAR CYSC 250900Z AUTO 05002KT 9SM CLR 10/10 A2977 RMK SLP085
CYSC;2002-08-25 10:00;METAR CYSC 251000Z AUTO 00000KT 9SM FEW042 FEW068 10/10 A2978 RMK SLP086
CYSC;2002-08-25 11:00;METAR CYSC 251100Z AUTO 10002KT 9SM FEW016 FEW044 FEW097 10/10 A2979 RMK SLP092
CYSC;2002-08-25 12:00;METAR CYSC 251200Z 00000KT 15SM BKN010 OVC050 13/11 A2980 RMK CF6SC2 SLP095
CYSC;2002-08-25 13:00;METAR CYSC 251300Z 20002KT 15SM BKN010 BKN045 BKN074 15/13 A2980 RMK CF5SC1AC1 SLP095
CYSC;2002-08-25 14:00;METAR CYSC 251400Z 27002KT 15SM SCT012 SCT070 17/14 A2981 RMK CF4AC1 SLP096
CYSC;2002-08-25 15:00;METAR CYSC 251500Z 26005KT 15SM BKN016 BKN056 19/15 A2981 RMK SC5SC1 CU ASOCTD SLP097
CYSC;2002-08-25 16:00;METAR CYSC 251600Z 30006KT 15SM SCT023 SCT060 22/15 A2981 RMK CU3SC1
CYSC;2002-08-25 17:00;METAR CYSC 251700Z 27010KT 15SM FEW031 BKN061 22/15 A2981 RMK CU2SC3 SLP097
CYSC;2002-08-25 18:00;METAR CYSC 251800Z 31005KT 15SM FEW033 SCT059 22/15 A2981 RMK CU2SC2 TCU ASOCTD SLP096
CYSC;2002-08-25 19:00;METAR CYSC 251900Z 30006KT 15SM FEW034 SCT064 22/14 A2981 RMK CU2SC1
CYSC;2002-08-25 20:00;METAR CYSC 252000Z 30008G16KT 15SM FEW039 FEW070 22/14 A2981 RMK CU2AC1
CYSC;2002-08-25 21:00;METAR CYSC 252100Z 27011KT 15SM FEW039 FEW070 23/14 A2982 RMK CU2AC1 LAST MANNED OB/NEXT 261200 SLP098
CYSC;2002-08-25 22:00;METAR CYSC 252200Z AUTO 29009KT 9SM FEW040 22/13 A2982 RMK SLP101
CYSC;2002-08-25 23:00;METAR CYSC 252300Z AUTO 26005KT 9SM CLR 20/13 A2983 RMK SLP105
CYSC;2002-08-26 00:00;METAR CYSC 260000Z AUTO 23003KT 9SM FEW047 17/13 A2985 RMK SLP111
CYSC;2002-08-26 01:00;METAR CYSC 260100Z AUTO 24004KT 9SM FEW043 FEW058 17/13 A2987 RMK SLP117
CYSC;2002-08-26 02:00;METAR CYSC 260200Z AUTO 25005KT 9SM CLR 15/13 A2988 RMK SLP122
CYSC;2002-08-26 03:00;METAR CYSC 260300Z AUTO 23005KT 9SM CLR 14/12 A2990 RMK SLP128
CYSC;2002-08-26 04:00;METAR CYSC 260400Z AUTO 26003KT 9SM BKN041 13/11 A2991 RMK SLP130
CYSC;2002-08-26 05:00;METAR CYSC 260500Z AUTO 22003KT 9SM CLR 10/09 A2992 RMK SLP135
CYSC;2002-08-26 06:00;METAR CYSC 260600Z AUTO 00000KT 9SM FEW041 09/09 A2993 RMK SLP137
CYSC;2002-08-26 07:00;METAR CYSC 260700Z AUTO 21003KT 9SM CLR 08/08 A2993 RMK SLP139
CYSC;2002-08-26 08:00;METAR CYSC 260800Z AUTO 00000KT 1 1/2SM CLR 07/07 A2994 RMK VSBY VRBL 0.9V9.0 SLP141
CYSC;2002-08-26 09:00;METAR CYSC 260900Z AUTO 00000KT 9SM CLR 07/06 A2994 RMK SLP141
CYSC;2002-08-26 10:00;METAR CYSC 261000Z AUTO 08002KT 1SM CLR 07/07 A2994 RMK VSBY VRBL 0.3V9.+ SLP144
CYSC;2002-08-26 11:00;METAR CYSC 261100Z AUTO 07002KT 9SM CLR 10/10 A2995 RMK SLP145
CYSC;2002-08-26 12:00;METAR CYSC 261200Z 00000KT 15SM SKC 14/12 A2996 RMK SLP149
CYSC;2002-08-26 13:00;METAR CYSC 261300Z 23006KT 15SM SKC 18/13 A2996 RMK SLP149
CYSC;2002-08-26 14:00;METAR CYSC 261400Z 21009KT 15SM SKC 20/13 A2995 RMK SLP145
CYSC;2002-08-26 15:00;METAR CYSC 261500Z 23006KT 15SM SKC 22/14 A2994 RMK SLP138
CYSC;2002-08-26 16:00;METAR CYSC 261600Z 21009KT 15SM FEW020 FEW250 24/15 A2992 RMK CF1CI1 SLP132
CYSC;2002-08-26 17:00;METAR CYSC 261700Z 24010KT 15SM FEW025 FEW250 25/15 A2991 RMK CF1CI1 SLP129
CYSC;2002-08-26 18:00;METAR CYSC 261800Z 23011KT 15SM FEW048 FEW250 26/14 A2991 RMK CU1CI1
CYSC;2002-08-26 19:00;METAR CYSC 261900Z 28010G15KT 15SM FEW053 FEW250 27/14 A2991 RMK CU1CI1 CI TR SLP128
CYSC;2002-08-26 20:00;METAR CYSC 262000Z 27013KT 15SM FEW040 FEW250 26/14 A2990 RMK CU2CI1 SLP126
CYSC;2002-08-26 21:00;METAR CYSC 262100Z 26013G18KT 15SM FEW054 SCT250 26/14 A2990 RMK CU2CI1 LAST MANNED OB/NEXT 271200 SLP127
CYSC;2002-08-26 22:00;METAR CYSC 262200Z AUTO 27010G16KT 9SM SCT050 25/14 A2991 RMK SLP131
CYSC;2002-08-26 23:00;METAR CYSC 262300Z AUTO 25006KT 9SM BKN050 23/14 A2992 RMK SLP134
CYSC;2002-08-27 00:00;METAR CYSC 270000Z AUTO 20003KT 9SM FEW055 20/14 A2993 RMK SLP138
CYSC;2002-08-27 01:00;METAR CYSC 270100Z AUTO 21003KT 9SM FEW074 19/14 A2995 RMK SLP143
CYSC;2002-08-27 02:00;METAR CYSC 270200Z AUTO 23004KT 9SM FEW042 SCT067 19/14 A2996 RMK SLP146
CYSC;2002-08-27 03:00;METAR CYSC 270300Z AUTO 28003KT 9SM SCT067 16/14 A2998 RMK SLP153
CYSC;2002-08-27 04:00;METAR CYSC 270400Z AUTO 36002KT 9SM CLR 16/13 A3000 RMK SLP161
CYSC;2002-08-27 05:00;METAR CYSC 270500Z AUTO 02003KT 9SM FEW056 17/09 A3004 RMK SLP172
CYSC;2002-08-27 06:00;METAR CYSC 270600Z AUTO 33003KT 9SM CLR 15/09 A3006 RMK SLP178
CYSC;2002-08-27 07:00;METAR CYSC 270700Z AUTO 28003KT 9SM FEW062 13/09 A3008 RMK SLP187
CYSC;2002-08-27 08:00;METAR CYSC 270800Z AUTO 32003KT 9SM FEW069 12/08 A3009 RMK SLP192
CYSC;2002-08-27 09:00;METAR CYSC 270900Z AUTO 30005KT 9SM FEW067 10/07 A3011 RMK SLP199
CYSC;2002-08-27 10:00;METAR CYSC 271000Z AUTO 22003KT 9SM CLR 08/06 A3014 RMK SLP210
CYSC;2002-08-27 11:00;METAR CYSC 271100Z AUTO 33002KT 9SM CLR 10/06 A3017 RMK SLP218
CYSC;2002-08-27 12:00;METAR CYSC 271200Z 32008KT 15SM FEW240 12/07 A3018 RMK CI1 SLP224
CYSC;2002-08-27 13:00;METAR CYSC 271300Z 32006KT 15SM FEW024 FEW240 14/08 A3021 RMK CU1CI0 SLP233
CYSC;2002-08-27 14:00;METAR CYSC 271400Z 30006KT 15SM FEW030 FEW240 15/08 A3022 RMK CU1CI0 SLP236
CYSC;2002-08-27 15:00;METAR CYSC 271500Z 33007KT 15SM FEW032 FEW240 16/08 A3024 RMK CU1CI1 SLP242
CYSC;2002-08-27 16:00;METAR CYSC 271600Z 30007KT 15SM FEW034 FEW240 18/09 A3023 RMK CU1CI1 SLP240
CYSC;2002-08-27 17:00;METAR CYSC 271700Z 32007KT 15SM FEW036 FEW240 18/08 A3024 RMK CU1CI0 SLP241
CYSC;2002-08-27 18:00;METAR CYSC 271800Z 33006KT 15SM FEW040 FEW240 18/09 A3023 RMK CU1CI1
CYSC;2002-08-27 19:00;METAR CYSC 271900Z 33005KT 15SM FEW041 FEW240 18/09 A3024 RMK CU1CI1 SLP243
CYSC;2002-08-27 20:00;METAR CYSC 272000Z 35007KT 15SM FEW043 FEW240 19/08 A3025 RMK CU1CI1 SLP245
CYSC;2002-08-27 21:00;METAR CYSC 272100Z 32007KT 15SM FEW043 FEW240 18/08 A3026 RMK CU1CI0 LAST MANNED OB/NEXT 281200 SLP251
CYSC;2002-08-27 22:00;METAR CYSC 272200Z AUTO 36004KT 9SM CLR 17/09 A3027 RMK SLP256
CYSC;2002-08-27 23:00;METAR CYSC 272300Z AUTO 32004KT 9SM CLR 16/09 A3028 RMK SLP259
CYSC;2002-08-28 00:00;METAR CYSC 280000Z AUTO 32003KT 9SM CLR 12/08 A3031 RMK SLP269
CYSC;2002-08-28 01:00;METAR CYSC 280100Z AUTO 26002KT 9SM CLR 08/07 A3033 RMK SLP276
CYSC;2002-08-28 02:00;METAR CYSC 280200Z AUTO 00000KT 9SM CLR 07/06 A3035 RMK SLP283
CYSC;2002-08-28 03:00;METAR CYSC 280300Z AUTO 09004KT 9SM CLR 07/06 A3035 RMK SLP284
CYSC;2002-08-28 04:00;METAR CYSC 280400Z AUTO 00000KT 9SM CLR 07/06 A3037 RMK SLP290
CYSC;2002-08-28 05:00;METAR CYSC 280500Z AUTO 09002KT 9SM CLR 06/05 A3038 RMK SLP292
CYSC;2002-08-28 06:00;METAR CYSC 280600Z AUTO 06002KT 9SM CLR 05/05 A3038 RMK SLP295
CYSC;2002-08-28 07:00;METAR CYSC 280700Z AUTO 07003KT 9SM CLR 05/04 A3038 RMK SLP293
CYSC;2002-08-28 08:00;METAR CYSC 280800Z AUTO 08003KT 9SM CLR 05/04 A3039 RMK SLP295
CYSC;2002-08-28 09:00;METAR CYSC 280900Z AUTO 14002KT 9SM CLR 04/03 A3039 RMK SLP296
CYSC;2002-08-28 10:00;METAR CYSC 281000Z AUTO 00000KT 9SM CLR 03/02 A3040 RMK SLP301
CYSC;2002-08-28 11:00;METAR CYSC 281100Z AUTO 11002KT 9SM CLR 04/03 A3042 RMK SLP307
CYSC;2002-08-28 12:00;METAR CYSC 281200Z 07004KT 3SM VCFG SCT220 07/07 A3043 RMK CI2 VSBY S 10 F BANK E-N-W SLP312
CYSC;2002-08-28 13:00;METAR CYSC 281300Z 04004KT 15SM SCT220 12/10 A3044 RMK CI2 SLP313
CYSC;2002-08-28 14:00;METAR CYSC 281400Z 09004KT 15SM FEW220 16/09 A3044 RMK CI2 SLP313
CYSC;2002-08-28 15:00;METAR CYSC 281500Z 14002KT 15SM FEW220 18/09 A3043 RMK CI2 SLP309
CYSC;2002-08-28 16:00;METAR CYSC 281600Z 31002KT 15SM FEW220 20/10 A3041 RMK CI2 SLP303
CYSC;2002-08-28 17:00;METAR CYSC 281700Z 16002KT 15SM FEW220 21/11 A3040 RMK CI1 SLP299
CYSC;2002-08-28 18:00;METAR CYSC 281800Z 25003KT 15SM FEW220 22/10 A3038 RMK CI1 SLP293
CYSC;2002-08-28 19:00;METAR CYSC 281900Z 14003KT 15SM FEW100 SCT220 23/10 A3037 RMK AC1CI2 SLP287
CYSC;2002-08-28 20:00;METAR CYSC 282000Z 17003KT 15SM FEW110 SCT220 23/09 A3035 RMK AC1CI1 CC ASOCTD SLP283
CYSC;2002-08-28 21:00;METAR CYSC 282100Z 00000KT 15SM BKN220 23/10 A3035 RMK CI2 LAST MANNED OB/NEXT 291200 SLP281
CYSC;2002-08-28 22:00;METAR CYSC 282200Z AUTO 30002KT 9SM CLR 22/13 A3034 RMK SLP279
CYSC;2002-08-28 23:00;METAR CYSC 282300Z AUTO 26002KT 9SM CLR 17/14 A3034 RMK SLP280
CYSC;2002-08-29 00:00;METAR CYSC 290000Z AUTO 00000KT 9SM CLR 14/11 A3034 RMK SLP280
CYSC;2002-08-29 01:00;METAR CYSC 290100Z AUTO 26002KT 9SM CLR 12/11 A3034 RMK SLP281
CYSC;2002-08-29 02:00;METAR CYSC 290200Z AUTO 11003KT 9SM CLR 11/10 A3034 RMK SLP279
CYSC;2002-08-29 03:00;METAR CYSC 290300Z AUTO 09003KT 9SM CLR 10/09 A3034 RMK SLP277
CYSC;2002-08-29 04:00;METAR CYSC 290400Z AUTO 08003KT 9SM CLR 11/10 A3034 RMK SLP278
CYSC;2002-08-29 05:00;METAR CYSC 290500Z AUTO 09002KT 9SM CLR 10/09 A3034 RMK SLP278
CYSC;2002-08-29 06:00;METAR CYSC 290600Z AUTO 00000KT 9SM CLR 09/09 A3033 RMK SLP277
CYSC;2002-08-29 07:00;METAR CYSC 290700Z AUTO 10002KT 9SM CLR 09/09 A3033 RMK SLP273
CYSC;2002-08-29 08:00;METAR CYSC 290800Z AUTO 01003KT 9SM CLR 08/08 A3033 RMK SLP275
CYSC;2002-08-29 09:00;METAR CYSC 290900Z AUTO 11004KT 9SM CLR 09/08 A3032 RMK SLP273
CYSC;2002-08-29 10:00;METAR CYSC 291000Z AUTO 06002KT 9SM CLR 08/08 A3032 RMK SLP271
CYSC;2002-08-29 11:00;METAR CYSC 291100Z AUTO 12002KT 9SM CLR 09/09 A3032 RMK SLP273
CYSC;2002-08-29 12:00;METAR CYSC 291200Z 00000KT 15SM FEW120 BKN220 12/11 A3034 RMK AC1CS2 HALO SLP277
CYSC;2002-08-29 13:00;METAR CYSC 291300Z 00000KT 15SM BKN220 15/12 A3033 RMK CS2 HALO SLP276
CYSC;2002-08-29 14:00;METAR CYSC 291400Z 20003KT 15SM FEW110 BKN200 18/12 A3032 RMK AC1CS4 HALO SLP272
CYSC;2002-08-29 15:00;METAR CYSC 291500Z 00000KT 15SM FEW110 BKN200 19/11 A3031 RMK AC1CS5 HALO SLP266
CYSC;2002-08-29 16:00;METAR CYSC 291600Z 23004KT 15SM FEW100 OVC200 20/11 A3028 RMK AC1CI6 SLP259
CYSC;2002-08-29 17:00;METAR CYSC 291700Z 25003KT 15SM SCT100 BKN200 20/12 A3028 RMK AC3CI4 SLP256
CYSC;2002-08-29 18:00;METAR CYSC 291800Z 21004KT 15SM SCT100 OVC200 20/11 A3026 RMK AC4CI3 SLP250
CYSC;2002-08-29 19:00;METAR CYSC 291900Z 22004KT 15SM BKN091 OVC200 20/13 A3025 RMK AC5CI2 SLP246
CYSC;2002-08-29 20:00;METAR CYSC 292000Z 23003KT 15SM BKN100 OVC160 19/12 A3024 RMK AC5AS3 SLP244
CYSC;2002-08-29 21:00;METAR CYSC 292100Z 23003KT 15SM FEW045 BKN090 OVC140 18/11 A3024 RMK SC2AC5AS2 LAST MANNED OB/NEXT 301200 SLP245
CYSC;2002-08-29 22:00;METAR CYSC 292200Z AUTO 24002KT 9SM CLR 17/12 A3023 RMK SLP243
CYSC;2002-08-29 23:00;METAR CYSC 292300Z AUTO 23003KT 9SM CLR 16/12 A3023 RMK SLP242
CYSC;2002-08-30 00:00;METAR CYSC 300000Z AUTO 21004KT 9SM CLR 15/11 A3022 RMK SLP240
CYSC;2002-08-30 01:00;METAR CYSC 300100Z AUTO 20003KT 9SM FEW081 15/11 A3022 RMK SLP239
CYSC;2002-08-30 02:00;METAR CYSC 300200Z AUTO 19003KT 9SM CLR 14/12 A3021 RMK SLP235
CYSC;2002-08-30 03:00;METAR CYSC 300300Z AUTO 00000KT 9SM CLR 14/12 A3021 RMK SLP233
CYSC;2002-08-30 04:00;METAR CYSC 300400Z AUTO 00000KT 9SM CLR 13/12 A3020 RMK SLP230
CYSC;2002-08-30 05:00;METAR CYSC 300500Z AUTO 00000KT 9SM CLR 12/11 A3020 RMK SLP229
CYSC;2002-08-30 06:00;METAR CYSC 300600Z AUTO 00000KT 9SM CLR 12/11 A3019 RMK SLP228
CYSC;2002-08-30 07:00;METAR CYSC 300700Z AUTO 12003KT 9SM CLR 12/11 A3019 RMK SLP227
CYSC;2002-08-30 08:00;METAR CYSC 300800Z AUTO 00000KT 9SM CLR 11/10 A3019 RMK SLP228
CYSC;2002-08-30 09:00;METAR CYSC 300900Z AUTO 00000KT 1/4SM CLR 08/08 A3020 RMK VSBY VRBL 0.1V5.0 SLP232
CYSC;2002-08-30 10:00;METAR CYSC 301000Z AUTO 12003KT 5SM FEW002 07/06 A3020 RMK SLP233
CYSC;2002-08-30 11:00;METAR CYSC 301100Z AUTO 00000KT 1/4SM OVC000 09/09 A3021 RMK SLP236
CYSC;2002-08-30 12:00;METAR CYSC 301200Z 00000KT 2SM BR FEW001 SCT090 11/11 A3022 RMK SF2AC1 VSBY SE 5 SLP239
CYSC;2002-08-30 13:00;METAR CYSC 301300Z 24004KT 15SM FEW090 FEW120 FEW240 14/12 A3022 RMK AC1AC1CI0 SLP238
CYSC;2002-08-30 14:00;METAR CYSC 301400Z 25004KT 15SM FEW120 FEW240 18/12 A3022 RMK AC1CI0 SLP237
CYSC;2002-08-30 15:00;METAR CYSC 301500Z 27006KT 15SM FEW040 FEW120 FEW240 20/13 A3021 RMK CU1AC1CI0 CU TR SLP233
CYSC;2002-08-30 16:00;METAR CYSC 301600Z 29005KT 15SM FEW040 FEW120 22/14 A3021 RMK CU1AC1 SLP233
CYSC;2002-08-30 17:00;METAR CYSC 301700Z 28008KT 15SM FEW032 FEW061 BKN092 BKN120 22/15 A3021 RMK CU1SC2AC2AC1 SLP234
CYSC;2002-08-30 18:00;METAR CYSC 301800Z 26009KT 15SM FEW036 FEW061 SCT089 23/15 A3021 RMK CU1SC2AC2 SLP232
CYSC;2002-08-30 19:00;METAR CYSC 301900Z 30008KT 15SM FEW039 FEW059 SCT099 SCT240 23/15 A3022 RMK CU1SC2AC2CI0 SLP236
CYSC;2002-08-30 20:00;METAR CYSC 302000Z 29006KT 15SM FEW035 FEW055 BKN084 23/15 A3023 RMK CU1SC1AC5 SLP237
CYSC;2002-08-30 21:00;METAR CYSC 302100Z 29004KT 15SM FEW040 FEW066 24/15 A3023 RMK CU1AC2 LAST MANNED OB/NEXT 311200 TCU ASOCTD SLP240
CYSC;2002-08-30 22:00;METAR CYSC 302200Z AUTO 31004KT 9SM CLR 23/15 A3024 RMK SLP245
CYSC;2002-08-30 23:00;METAR CYSC 302300Z AUTO 31003KT 9SM FEW048 FEW088 21/15 A3026 RMK SLP251
CYSC;2002-08-31 00:00;METAR CYSC 310000Z AUTO 03005KT 9SM FEW038 FEW044 BKN055 BKN088 20/15 A3029 RMK SLP261
CYSC;2002-08-31 01:00;METAR CYSC 310100Z AUTO 03005KT 9SM OVC065 19/15 A3032 RMK SLP271
CYSC;2002-08-31 02:00;METAR CYSC 310200Z AUTO 04006KT 9SM FEW067 FEW080 BKN091 17/15 A3035 RMK SLP279
CYSC;2002-08-31 03:00;METAR CYSC 310300Z AUTO 04006KT 9SM CLR 16/14 A3036 RMK SLP285
CYSC;2002-08-31 04:00;METAR CYSC 310400Z AUTO 04005KT 9SM CLR 15/14 A3040 RMK SLP294
CYSC;2002-08-31 05:00;METAR CYSC 310500Z AUTO 03009KT 9SM FEW044 15/13 A3041 RMK SLP301
CYSC;2002-08-31 06:00;METAR CYSC 310600Z AUTO 04009KT 9SM CLR 14/12 A3043 RMK SLP306
CYSC;2002-08-31 07:00;METAR CYSC 310700Z AUTO 05005KT 9SM CLR 13/11 A3044 RMK SLP311
CYSC;2002-08-31 08:00;METAR CYSC 310800Z AUTO 05004KT 9SM CLR 12/10 A3046 RMK SLP317
CYSC;2002-08-31 09:00;METAR CYSC 310900Z AUTO 05006KT 9SM CLR 11/09 A3049 RMK SLP326
CYSC;2002-08-31 10:00;METAR CYSC 311000Z AUTO 05006KT 9SM CLR 10/08 A3051 RMK SLP336
CYSC;2002-08-31 11:00;METAR CYSC 311100Z AUTO 05005KT 9SM CLR 10/08 A3053 RMK SLP344
CYSC;2002-08-31 12:00;METAR CYSC 311200Z 06007KT 15SM SKC 12/07 A3054 RMK SLP346
CYSC;2002-08-31 13:00;METAR CYSC 311300Z 05006KT 15SM SKC 14/08 A3056 RMK SLP350
CYSC;2002-08-31 14:00;METAR CYSC 311400Z 09005KT 15SM SKC 17/10 A3055 RMK SLP349
CYSC;2002-08-31 15:00;METAR CYSC 311500Z 07002KT 15SM FEW020 19/11 A3056 RMK CU1 SLP350
CYSC;2002-08-31 16:00;METAR CYSC 311600Z 00000KT 15SM FEW025 FEW250 21/11 A3054 RMK CU1CI1 CI TR SLP345
CYSC;2002-08-31 17:00;METAR CYSC 311700Z 06006KT 15SM FEW030 FEW250 22/11 A3053 RMK CU1CI1 CI TR SLP341
CYSC;2002-08-31 18:00;METAR CYSC 311800Z 07007KT 15SM FEW035 FEW250 24/12 A3052 RMK CU1CI1 CI TR SLP336
CYSC;2002-08-31 19:00;METAR CYSC 311900Z AUTO 10004KT 9SM FEW056 FEW072 25/12 A3050 RMK SLP329
CYSC;2002-08-31 20:00;METAR CYSC 312000Z 21003KT 15SM FEW050 FEW250 24/10 A3049 RMK CU1CI1 SLP328
CYSC;2002-08-31 21:00;METAR CYSC 312100Z 23006KT 15SM FEW050 FEW250 24/11 A3048 RMK CU1CI1 LAST MANNED OB/NEXT 011200 SLP323
CYSC;2002-08-31 22:00;METAR CYSC 312200Z AUTO 22002KT 9SM CLR 24/13 A3047 RMK SLP320
CYSC;2002-08-31 23:00;METAR CYSC 312300Z AUTO 00000KT 9SM FEW057 21/15 A3047 RMK SLP321
CYSC;2002-09-01 00:00;METAR CYSC 010000Z AUTO 16004KT 9SM CLR 15/12 A3047 RMK SLP322
CYSC;2002-09-01 01:00;METAR CYSC 010100Z AUTO 12003KT 9SM CLR 14/11 A3048 RMK SLP326
CYSC;2002-09-01 02:00;METAR CYSC 010200Z AUTO 10002KT 9SM CLR 12/10 A3049 RMK SLP331
CYSC;2002-09-01 03:00;METAR CYSC 010300Z AUTO 13005KT 9SM CLR 13/10 A3049 RMK SLP328
CYSC;2002-09-01 04:00;METAR CYSC 010400Z AUTO 11005KT 9SM CLR 11/09 A3049 RMK SLP328
CYSC;2002-09-01 05:00;METAR CYSC 010500Z AUTO 11002KT 9SM CLR 10/09 A3048 RMK SLP326
CYSC;2002-09-01 06:00;METAR CYSC 010600Z AUTO 07002KT 9SM CLR 08/08 A3047 RMK SLP323
CYSC;2002-09-01 07:00;METAR CYSC 010700Z AUTO 11004KT 9SM CLR 08/07 A3046 RMK SLP319
CYSC;2002-09-01 08:00;METAR CYSC 010800Z AUTO 11003KT 9SM CLR 07/06 A3046 RMK SLP319
CYSC;2002-09-01 09:00;METAR CYSC 010900Z AUTO 00000KT 9SM CLR 07/07 A3046 RMK SLP319
CYSC;2002-09-01 10:00;METAR CYSC 011000Z AUTO 10002KT 9SM FEW056 08/07 A3047 RMK SLP322
CYSC;2002-09-01 11:00;METAR CYSC 011100Z AUTO 00000KT 9SM FEW048 OVC056 10/09 A3048 RMK SLP324
CYSC;2002-09-01 12:00;METAR CYSC 011200Z CCA 00000KT 15SM BKN048 13/11 A3047 RMK SC6 CU EMBDD SLP324
CYSC;2002-09-01 13:00;METAR CYSC 011300Z 19002KT 15SM BKN040 BKN250 15/10 A3046 RMK CU5CI1 SLP320
CYSC;2002-09-01 14:00;METAR CYSC 011400Z 23004KT 15SM BKN034 BKN250 17/10 A3044 RMK SC5CI1 CU EMBDD SLP314
CYSC;2002-09-01 15:00;METAR CYSC 011500Z 20005KT 15SM BKN040 BKN250 19/08 A3043 RMK SC5CI1 CU ASOCTD SLP306
CYSC;2002-09-01 16:00;METAR CYSC 011600Z 21005KT 15SM BKN038 BKN073 BKN250 20/08 A3042 RMK SC5AC2CI0 CU EMBDD SLP303
CYSC;2002-09-01 17:00;METAR CYSC 011700Z 18006KT 15SM BKN039 BKN071 BKN250 22/08 A3040 RMK SC5AC1CI1 SLP296
CYSC;2002-09-01 18:00;METAR CYSC 011800Z 21004KT 15SM FEW048 SCT070 BKN120 BKN250 22/10 A3037 RMK SC2AC2AC2CI2 SLP286
CYSC;2002-09-01 19:00;METAR CYSC 011900Z 20004KT 15SM FEW033 SCT070 BKN120 BKN250 23/10 A3034 RMK SC1AC2AC2CI1 SLP278
CYSC;2002-09-01 20:00;METAR CYSC 012000Z 23004KT 15SM SCT071 BKN120 BKN250 23/10 A3033 RMK AC3AC2CI1 SLP273
CYSC;2002-09-01 21:00;METAR CYSC 012100Z 26004KT 15SM SCT062 BKN095 BKN250 23/11 A3031 RMK SC3AC2CI0 LAST MANNED OB/NEXT 021200 SLP266
CYSC;2002-09-01 22:00;METAR CYSC 012200Z AUTO 22003KT 9SM FEW075 21/10 A3029 RMK SLP263
CYSC;2002-09-01 23:00;METAR CYSC 012300Z AUTO 22003KT 9SM CLR 19/10 A3028 RMK SLP259
CYSC;2002-09-02 00:00;METAR CYSC 020000Z AUTO 18005KT 9SM CLR 17/09 A3028 RMK SLP259
CYSC;2002-09-02 01:00;METAR CYSC 020100Z AUTO 19005KT 9SM CLR 16/06 A3029 RMK SLP261
CYSC;2002-09-02 02:00;METAR CYSC 020200Z AUTO 18003KT 9SM CLR 16/06 A3028 RMK SLP259
CYSC;2002-09-02 03:00;METAR CYSC 020300Z AUTO 14004KT 9SM CLR 14/08 A3028 RMK SLP258
CYSC;2002-09-02 04:00;METAR CYSC 020400Z AUTO 12003KT 9SM CLR 10/08 A3027 RMK SLP254
CYSC;2002-09-02 05:00;METAR CYSC 020500Z AUTO 00000KT 9SM CLR 09/08 A3027 RMK SLP253
CYSC;2002-09-02 06:00;METAR CYSC 020600Z AUTO 10003KT 9SM CLR 08/07 A3026 RMK SLP249
CYSC;2002-09-02 07:00;METAR CYSC 020700Z AUTO 08002KT 9SM CLR 09/08 A3024 RMK SLP244
CYSC;2002-09-02 08:00;METAR CYSC 020800Z AUTO 11002KT 9SM CLR 09/08 A3023 RMK SLP240
CYSC;2002-09-02 09:00;METAR CYSC 020900Z AUTO 03003KT 9SM CLR 09/08 A3022 RMK SLP238
CYSC;2002-09-02 10:00;METAR CYSC 021000Z AUTO 00000KT 9SM CLR 08/07 A3023 RMK SLP242
CYSC;2002-09-02 11:00;METAR CYSC 021100Z AUTO 10002KT 9SM CLR 07/07 A3023 RMK SLP243
CYSC;2002-09-02 12:00;METAR CYSC 021200Z 08002KT 15SM SCT120 11/09 A3024 RMK AC3 SLP244
CYSC;2002-09-02 13:00;METAR CYSC 021300Z 00000KT 15SM SCT120 15/11 A3024 RMK AC3 SLP244
CYSC;2002-09-02 14:00;METAR CYSC 021400Z 18006KT 15SM FEW096 FEW250 19/12 A3023 RMK AC2CI0 SLP241
CYSC;2002-09-02 15:00;METAR CYSC 021500Z 19005KT 15SM FEW045 BKN069 BKN250 20/12 A3021 RMK SC2AC3CI0 SLP234
CYSC;2002-09-02 16:00;METAR CYSC 021600Z 17003KT 15SM FEW037 BKN074 BKN250 22/13 A3018 RMK CU2AC3CI0 SLP224
CYSC;2002-09-02 17:00;METAR CYSC 021700Z 25005KT 15SM FEW040 SCT077 SCT250 24/12 A3016 RMK CU1AC2CI0 SLP215
CYSC;2002-09-02 18:00;METAR CYSC 021800Z 27003KT 15SM FEW044 FEW071 FEW250 24/12 A3012 RMK CU1AC1CI0 SLP202
CYSC;2002-09-02 19:00;METAR CYSC 021900Z 16004KT 15SM FEW045 FEW070 FEW250 25/12 A3009 RMK CU1AC1CI0 SLP193
CYSC;2002-09-02 20:00;METAR CYSC 022000Z 00000KT 15SM SCT037 BKN090 BKN250 26/12 A3007 RMK CU3AC2CI0 SLP186
CYSC;2002-09-02 21:00;METAR CYSC 022100Z 20007KT 15SM SCT040 BKN084 BKN250 23/12 A3007 RMK CU4AC2CI0 LAST MANNED OB/NEXT 031200 SLP186
CYSC;2002-09-02 22:00;METAR CYSC 022200Z AUTO 19006KT 9SM FEW058 BKN066 22/14 A3007 RMK SLP187
CYSC;2002-09-02 23:00;METAR CYSC 022300Z AUTO 16003KT 9SM FEW055 OVC065 21/14 A3007 RMK SLP187
CYSC;2002-09-03 00:00;METAR CYSC 030000Z AUTO 18004KT 9SM OVC067 20/13 A3008 RMK SLP188
CYSC;2002-09-03 01:00;METAR CYSC 030100Z AUTO 00000KT 9SM BKN067 18/13 A3008 RMK SLP191
CYSC;2002-09-03 02:00;METAR CYSC 030200Z AUTO 16004KT 9SM FEW059 16/13 A3008 RMK SLP189
CYSC;2002-09-03 03:00;METAR CYSC 030300Z AUTO 17004KT 9SM CLR 16/13 A3008 RMK SLP188
CYSC;2002-09-03 04:00;METAR CYSC 030400Z AUTO 18002KT 9SM SCT037 13/12 A3008 RMK SLP188
CYSC;2002-09-03 05:00;METAR CYSC 030500Z AUTO 00000KT 9SM CLR 11/11 A3007 RMK SLP185
CYSC;2002-09-03 06:00;METAR CYSC 030600Z AUTO 11002KT 9SM CLR 11/11 A3006 RMK SLP183
CYSC;2002-09-03 07:00;METAR CYSC 030700Z AUTO 10002KT 5/8SM CLR 10/10 A3006 RMK SLP182
CYSC;2002-09-03 08:00;METAR CYSC 030800Z AUTO 09003KT 9SM FEW045 10/10 A3005 RMK SLP177
CYSC;2002-09-03 09:00;METAR CYSC 030900Z AUTO 09002KT 9SM SCT047 SCT090 11/10 A3004 RMK SLP175
CYSC;2002-09-03 10:00;METAR CYSC 031000Z AUTO 11002KT 9SM FEW051 10/09 A3004 RMK SLP175
CYSC;2002-09-03 11:00;METAR CYSC 031100Z AUTO 10002KT 9SM FEW051 12/12 A3004 RMK SLP174
CYSC;2002-09-03 12:00;METAR CYSC 031200Z 08004KT 15SM FEW020 FEW100 FEW250 17/14 A3003 RMK CU1AC1CI1 SLP171
CYSC;2002-09-03 13:00;METAR CYSC 031300Z 16009KT 15SM FEW020 FEW100 FEW250 21/15 A3004 RMK CU1AC1CI0 SLP173
CYSC;2002-09-03 14:00;METAR CYSC 031400Z 13009KT 15SM FEW037 SCT100 SCT250 23/16 A3004 RMK CU2AC1CI0 SLP173
CYSC;2002-09-03 15:00;METAR CYSC 031500Z 12011KT 15SM SCT027 SCT080 BKN250 23/16 A3000 RMK CU3AC1CI1 SLP159
CYSC;2002-09-03 17:00;METAR CYSC 031700Z 19006KT 15SM SCT031 SCT080 BKN250 26/16 A2997 RMK CU3AC1CI0 SLP148
CYSC;2002-09-03 18:00;METAR CYSC 031800Z 17006KT 15SM FEW037 SCT076 BKN250 27/17 A2993 RMK CU2AC1CI1 SLP137
CYSC;2002-09-03 19:00;METAR CYSC 031900Z 17008KT 15SM FEW044 FEW080 SCT250 27/16 A2991 RMK CU2AC1CI1 SLP129
CYSC;2002-09-03 20:00;METAR CYSC 032000Z 16009KT 15SM FEW044 FEW080 SCT250 27/16 A2989 RMK CU1AC1CI1 SLP123
CYSC;2002-09-03 21:00;METAR CYSC 032100Z 16008KT 15SM FEW045 FEW080 BKN250 27/16 A2988 RMK CU1AC1CI2 LAST MANNED OB/NEXT 041200 SLP120
CYSC;2002-09-03 22:00;METAR CYSC 032200Z AUTO 16007KT 9SM CLR 26/16 A2986 RMK SLP113
CYSC;2002-09-03 23:00;METAR CYSC 032300Z AUTO 13006KT 9SM CLR 23/17 A2986 RMK SLP113
CYSC;2002-09-04 00:00;METAR CYSC 040000Z AUTO 12006KT 9SM CLR 21/17 A2987 RMK SLP115
CYSC;2002-09-04 01:00;METAR CYSC 040100Z AUTO 14006KT 9SM CLR 20/16 A2988 RMK SLP120
CYSC;2002-09-04 02:00;METAR CYSC 040200Z AUTO 14007KT 9SM CLR 19/16 A2988 RMK SLP117
CYSC;2002-09-04 03:00;METAR CYSC 040300Z AUTO 14005KT 9SM FEW070 SCT096 20/17 A2987 RMK SLP116
CYSC;2002-09-04 04:00;METAR CYSC 040400Z AUTO 12003KT 9SM FEW054 FEW068 FEW079 19/16 A2986 RMK SLP111
CYSC;2002-09-04 05:00;METAR CYSC 040500Z AUTO 17006KT 9SM FEW044 FEW080 20/16 A2986 RMK SLP109
CYSC;2002-09-04 06:00;METAR CYSC 040600Z AUTO 15003KT 9SM SCT042 20/16 A2984 RMK SLP105
CYSC;2002-09-04 07:00;METAR CYSC 040700Z AUTO 22002KT 9SM OVC035 20/17 A2985 RMK SLP108
CYSC;2002-09-04 08:00;METAR CYSC 040800Z AUTO 20003KT 9SM FEW031 BKN041 BKN070 19/17 A2985 RMK SLP107
CYSC;2002-09-04 09:00;METAR CYSC 040900Z AUTO 22004KT 9SM SCT024 SCT054 20/17 A2985 RMK SLP108
CYSC;2002-09-04 10:00;METAR CYSC 041000Z AUTO 21003KT 9SM BKN054 19/17 A2986 RMK SLP109
CYSC;2002-09-04 11:00;METAR CYSC 041100Z AUTO 23004KT 9SM CLR 19/17 A2987 RMK SLP115
CYSC;2002-09-04 12:00;METAR CYSC 041200Z 21003KT 15SM FEW120 FEW250 20/15 A2989 RMK AC1CI0 SLP120
CYSC;2002-09-04 13:00;METAR CYSC 041300Z 23005KT 15SM FEW020 FEW250 21/13 A2990 RMK CF1CI0 SLP124
CYSC;2002-09-04 14:00;METAR CYSC 041400Z 24006KT 15SM FEW025 FEW250 23/13 A2989 RMK CU1CI0 SLP121
CYSC;2002-09-04 15:00;METAR CYSC 041500Z 22009KT 15SM FEW025 FEW250 24/12 A2987 RMK CU1CI0 SLP115
CYSC;2002-09-04 16:00;METAR CYSC 041600Z 27011G16KT 15SM FEW030 FEW250 25/12 A2986 RMK CU1CI0 SLP112
CYSC;2002-09-04 17:00;METAR CYSC 041700Z 25013G20KT 15SM SCT050 SCT250 26/11 A2987 RMK CU3CI0 SLP113
CYSC;2002-09-04 18:00;METAR CYSC 041800Z 26013G19KT 15SM SCT035 SCT087 BKN250 24/11 A2987 RMK CU3AC1CI0 SLP114
CYSC;2002-09-04 19:00;METAR CYSC 041900Z 25008KT 15SM SCT035 24/12 A2986 RMK CU3 SLP111
CYSC;2002-09-04 20:00;METAR CYSC 042000Z 26012G18KT 15SM SCT040 SCT092 25/12 A2986 RMK CU3AC1
CYSC;2002-09-04 21:00;METAR CYSC 042100Z 26012G17KT 15SM BKN041 BKN085 24/12 A2987 RMK CU5AC1 LAST MANNED OB/NEXT 051200 SLP113
CYSC;2002-09-04 22:00;METAR CYSC 042200Z AUTO 27009KT 9SM FEW053 BKN065 22/12 A2988 RMK SLP119
CYSC;2002-09-04 23:00;METAR CYSC 042300Z AUTO 27006KT 9SM OVC067 21/13 A2989 RMK SLP121
CYSC;2002-09-05 00:00;METAR CYSC 050000Z AUTO 27007KT 9SM BKN057 20/13 A2990 RMK SLP125
CYSC;2002-09-05 01:00;METAR CYSC 050100Z AUTO 28009KT 9SM FEW041 OVC061 OVC079 19/13 A2991 RMK SLP130
CYSC;2002-09-05 02:00;METAR CYSC 050200Z AUTO 30009KT 9SM BKN035 OVC059 19/13 A2992 RMK SLP133
CYSC;2002-09-05 03:00;METAR CYSC 050300Z AUTO 30009KT 9SM BKN043 BKN075 17/13 A2993 RMK SLP134
CYSC;2002-09-05 04:00;METAR CYSC 050400Z AUTO 28010KT 9SM BKN037 BKN070 16/12 A2993 RMK SLP136
CYSC;2002-09-05 05:00;METAR CYSC 050500Z AUTO 27005KT 9SM FEW030 SCT046 BKN068 15/11 A2994 RMK SLP139
CYSC;2002-09-05 06:00;METAR CYSC 050600Z AUTO 27004KT 9SM FEW021 FEW035 OVC046 15/12 A2994 RMK
CYSC;2002-09-05 07:00;METAR CYSC 050700Z AUTO 29010G15KT 9SM SCT048 15/12 A2993 RMK SLP136
CYSC;2002-09-05 08:00;METAR CYSC 050800Z AUTO 28007KT 9SM OVC052 14/11 A2993 RMK SLP137
CYSC;2002-09-05 09:00;METAR CYSC 050900Z AUTO 29008KT 9SM BKN023 OVC054 14/11 A2994 RMK SLP141
CYSC;2002-09-05 10:00;METAR CYSC 051000Z AUTO 30011KT 9SM OVC021 OVC052 14/09 A2996 RMK SLP149
CYSC;2002-09-05 11:00;METAR CYSC 051100Z AUTO 30006KT 9SM OVC023 13/08 A2999 RMK SLP158
CYSC;2002-09-05 12:00;METAR CYSC 051200Z 29010KT 15SM BKN025 BKN047 13/08 A3000 RMK SC6SC1 SLP161
CYSC;2002-09-05 13:00;METAR CYSC 051300Z 30008KT 15SM BKN023 BKN050 13/08 A3001 RMK SC6SC2 SLP164
CYSC;2002-09-05 14:00;METAR CYSC 051400Z 31007KT 15SM BKN025 14/08 A3002 RMK SC7 CU ASOCTD SLP166
CYSC;2002-09-05 15:00;METAR CYSC 051500Z 28009KT 15SM BKN027 16/09 A3001 RMK SC5 CU ASOCTD
CYSC;2002-09-05 16:00;METAR CYSC 051600Z 29011G17KT 15SM SCT029 17/08 A3000 RMK SC3 CU ASOCTD SLP160
CYSC;2002-09-05 17:00;METAR CYSC 051700Z 28013KT 15SM FEW043 19/07 A2999 RMK CU2 SLP159
CYSC;2002-09-05 18:00;METAR CYSC 051800Z 27015KT 15SM FEW045 FEW240 19/06 A2999 RMK CU1CI0 SLP159
CYSC;2002-09-05 19:00;METAR CYSC 051900Z 28013G22KT 15SM FEW045 FEW240 20/06 A2999 RMK CU1CI0 SLP157
CYSC;2002-09-05 20:00;METAR CYSC 052000Z 29010G15KT 15SM FEW050 20/06 A2999 RMK CU1 SLP158
CYSC;2002-09-05 21:00;METAR CYSC 052100Z 29010G18KT 15SM FEW050 19/05 A2999 RMK CU1 LAST MANNED OB/NEXT 061200 SLP157
CYSC;2002-09-05 22:00;METAR CYSC 052200Z AUTO 29010G15KT 9SM CLR 19/05 A3000 RMK SLP161
CYSC;2002-09-05 23:00;METAR CYSC 052300Z AUTO 27005KT 9SM CLR 16/05 A3001 RMK SLP165
CYSC;2002-09-06 00:00;METAR CYSC 060000Z AUTO 27005KT 9SM CLR 13/05 A3002 RMK SLP171
CYSC;2002-09-06 01:00;METAR CYSC 060100Z AUTO 25004KT 9SM CLR 11/04 A3004 RMK SLP178
CYSC;2002-09-06 02:00;METAR CYSC 060200Z AUTO 30006KT 9SM CLR 11/05 A3005 RMK SLP183
CYSC;2002-09-06 03:00;METAR CYSC 060300Z AUTO 30008KT 9SM CLR 11/05 A3005 RMK SLP181
CYSC;2002-09-06 04:00;METAR CYSC 060400Z AUTO 30007KT 9SM CLR 10/05 A3006 RMK SLP183
CYSC;2002-09-06 05:00;METAR CYSC 060500Z AUTO 00000KT 9SM CLR 08/05 A3006 RMK SLP184
CYSC;2002-09-06 06:00;METAR CYSC 060600Z AUTO 19002KT 9SM CLR 05/04 A3008 RMK SLP190
CYSC;2002-09-06 07:00;METAR CYSC 060700Z AUTO 21003KT 9SM CLR 08/05 A3009 RMK SLP193
CYSC;2002-09-06 08:00;METAR CYSC 060800Z AUTO 23003KT 9SM CLR 07/04 A3010 RMK SLP199
CYSC;2002-09-06 09:00;METAR CYSC 060900Z AUTO 22005KT 9SM CLR 08/05 A3013 RMK SLP208
CYSC;2002-09-06 10:00;METAR CYSC 061000Z AUTO 15003KT 9SM CLR 04/02 A3015 RMK SLP215
CYSC;2002-09-06 11:00;METAR CYSC 061100Z AUTO 24004KT 9SM CLR 05/04 A3015 RMK SLP216
CYSC;2002-09-06 12:00;METAR CYSC 061200Z 24006KT 15SM SKC 10/06 A3017 RMK SLP220
CYSC;2002-09-06 13:00;METAR CYSC 061300Z 26006KT 15SM FEW240 12/07 A3018 RMK CI1 SLP223
CYSC;2002-09-06 14:00;METAR CYSC 061400Z 30008KT 15SM SKC 15/07 A3018 RMK SLP224
CYSC;2002-09-06 15:00;METAR CYSC 061500Z 29007KT 15SM FEW240 17/06 A3018 RMK CI1 SLP222
CYSC;2002-09-06 16:00;METAR CYSC 061600Z 27004KT 15SM FEW240 19/05 A3015 RMK CI1 SLP214
CYSC;2002-09-06 17:00;METAR CYSC 061700Z 28008KT 15SM FEW140 21/05 A3014 RMK AC1 SLP209
CYSC;2002-09-06 18:00;METAR CYSC 061800Z 27006KT 15SM FEW120 22/05 A3013 RMK AC1 SLP207
CYSC;2002-09-06 19:00;METAR CYSC 061900Z 26010KT 15SM FEW120 23/04 A3013 RMK AC1 SLP206
CYSC;2002-09-06 20:00;METAR CYSC 062000Z 27008KT 15SM FEW120 FEW240 23/03 A3012 RMK AC1CI0 SLP205
CYSC;2002-09-06 21:00;METAR CYSC 062100Z 27006KT 15SM FEW240 22/04 A3012 RMK CI1 LAST MANNED OB/NEXT 071200 SLP204
CYSC;2002-09-06 22:00;METAR CYSC 062200Z AUTO 27008KT 9SM CLR 21/06 A3012 RMK SLP205
CYSC;2002-09-06 23:00;METAR CYSC 062300Z AUTO 27003KT 9SM CLR 17/08 A3013 RMK SLP209
CYSC;2002-09-07 00:00;METAR CYSC 070000Z AUTO 17003KT 9SM CLR 12/08 A3014 RMK SLP212
CYSC;2002-09-07 01:00;METAR CYSC 070100Z AUTO 18004KT 9SM CLR 14/08 A3015 RMK SLP214
CYSC;2002-09-07 02:00;METAR CYSC 070200Z AUTO 00000KT 9SM CLR 10/07 A3016 RMK SLP219
CYSC;2002-09-07 03:00;METAR CYSC 070300Z AUTO 11003KT 9SM CLR 09/07 A3018 RMK SLP224
CYSC;2002-09-07 04:00;METAR CYSC 070400Z AUTO 00000KT 9SM CLR 09/07 A3018 RMK SLP225
CYSC;2002-09-07 05:00;METAR CYSC 070500Z AUTO 04003KT 9SM CLR 08/07 A3020 RMK SLP230
CYSC;2002-09-07 06:00;METAR CYSC 070600Z AUTO 00000KT 9SM OVC046 10/09 A3019 RMK SLP226
CYSC;2002-09-07 07:00;METAR CYSC 070700Z AUTO 00000KT 9SM FEW046 BKN053 12/10 A3020 RMK SLP227
CYSC;2002-09-07 08:00;METAR CYSC 070800Z AUTO 04002KT 9SM BKN053 12/10 A3020 RMK SLP230
CYSC;2002-09-07 09:00;METAR CYSC 070900Z AUTO 02002KT 9SM OVC057 13/10 A3021 RMK SLP233
CYSC;2002-09-07 10:00;METAR CYSC 071000Z AUTO 00000KT 9SM BKN055 13/10 A3023 RMK SLP239
CYSC;2002-09-07 11:00;METAR CYSC 071100Z AUTO 35005KT 9SM OVC055 13/10 A3025 RMK SLP247
CYSC;2002-09-07 12:00;METAR CYSC 071200Z 00000KT 15SM BKN053 BKN080 15/11 A3026 RMK SC6AC1 SLP252
CYSC;2002-09-07 13:00;METAR CYSC 071300Z 20004KT 15SM BKN053 17/11 A3027 RMK SC7 SLP253
CYSC;2002-09-07 14:00;METAR CYSC 071400Z 24004KT 15SM SCT053 BKN086 19/12 A3028 RMK SC3AC2 SLP256
CYSC;2002-09-07 15:00;METAR CYSC 071500Z CCA 22006KT 15SM FEW059 FEW240 22/13 A3028 RMK SC1CI0 SLP255
CYSC;2002-09-07 16:00;METAR CYSC 071600Z 24007KT 15SM FEW055 FEW240 24/14 A3027 RMK SC1CI1
CYSC;2002-09-07 17:00;METAR CYSC 071700Z 20007KT 15SM FEW240 25/14 A3026 RMK CI0 SLP250
CYSC;2002-09-07 18:00;METAR CYSC 071800Z 21004KT 15SM FEW040 FEW240 26/15 A3024 RMK CU1CI0 CUTR SLP241
CYSC;2002-09-07 19:00;METAR CYSC 071900Z 24005KT 15SM FEW045 28/15 A3023 RMK CU1 SLP238
CYSC;2002-09-07 20:00;METAR CYSC 072000Z 23004KT 15SM FEW050 28/15 A3022 RMK CU1 SLP235
CYSC;2002-09-07 21:00;METAR CYSC 072100Z 19007KT 15SM FEW240 27/15 A3021 RMK CI1 LAST MANNED OB/NEXT 081200 SLP232
CYSC;2002-09-07 22:00;METAR CYSC 072200Z AUTO 20004KT 9SM CLR 26/15 A3021 RMK SLP232
CYSC;2002-09-07 23:00;METAR CYSC 072300Z AUTO 17003KT 9SM CLR 23/16 A3022 RMK SLP236
CYSC;2002-09-08 00:00;METAR CYSC 080000Z AUTO 00000KT 9SM CLR 18/15 A3023 RMK SLP240
CYSC;2002-09-08 01:00;METAR CYSC 080100Z AUTO 20002KT 9SM CLR 16/14 A3024 RMK SLP242
CYSC;2002-09-08 02:00;METAR CYSC 080200Z AUTO 10002KT 9SM CLR 14/13 A3023 RMK SLP240
CYSC;2002-09-08 03:00;METAR CYSC 080300Z AUTO 00000KT 9SM CLR 13/12 A3022 RMK SLP238
CYSC;2002-09-08 04:00;METAR CYSC 080400Z AUTO 10002KT 9SM CLR 12/11 A3022 RMK SLP236
CYSC;2002-09-08 05:00;METAR CYSC 080500Z AUTO 06002KT 9SM CLR 12/11 A3023 RMK SLP238
CYSC;2002-09-08 06:00;METAR CYSC 080600Z AUTO 00000KT 3SM CLR 11/10 A3022 RMK SLP234
CYSC;2002-09-08 07:00;METAR CYSC 080700Z AUTO 10003KT 3SM CLR 10/10 A3020 RMK SLP230
CYSC;2002-09-08 08:00;METAR CYSC 080800Z AUTO 00000KT 9SM CLR 09/09 A3020 RMK SLP230
CYSC;2002-09-08 09:00;METAR CYSC 080900Z AUTO 14003KT 9SM CLR 10/10 A3020 RMK SLP229
CYSC;2002-09-08 10:00;METAR CYSC 081000Z AUTO 11003KT 8SM CLR 09/09 A3022 RMK SLP236
CYSC;2002-09-08 11:00;METAR CYSC 081100Z AUTO 00000KT 9SM CLR 11/11 A3023 RMK SLP240
CYSC;2002-09-08 12:00;METAR CYSC 081200Z 00000KT 15SM FEW095 SCT140 15/14 A3022 RMK AC2AC1 SLP236
CYSC;2002-09-08 13:00;METAR CYSC 081300Z 22003KT 15SM FEW096 FEW140 FEW240 19/14 A3021 RMK AC1AC1CI0 SLP232
CYSC;2002-09-08 14:00;METAR CYSC 081400Z 25006KT 15SM FEW160 24/15 A3020 RMK AC1 SLP228
CYSC;2002-09-08 15:00;METAR CYSC 081500Z 22006KT 15SM FEW160 FEW240 27/15 A3018 RMK AC1CI0 SLP219
CYSC;2002-09-08 16:00;METAR CYSC 081600Z 22011KT 15SM FEW240 29/13 A3015 RMK CI0 SLP211
CYSC;2002-09-08 17:00;METAR CYSC 081700Z 28017KT 15SM FEW160 FEW240 30/14 A3013 RMK ACC1CI0 SLP205
CYSC;2002-09-08 18:00;METAR CYSC 081800Z 26017G22KT 15SM FEW160 SCT240 31/14 A3012 RMK AC1CI0 ACC ASOCTD SLP201
CYSC;2002-09-08 19:00;METAR CYSC 081900Z 26013G20KT 15SM FEW120 FEW240 31/15 A3011 RMK AC1CI1 SLP197
CYSC;2002-09-08 20:00;METAR CYSC 082000Z 25011G17KT 15SM FEW090 FEW140 SCT200 30/15 A3009 RMK AC1AC1CI1 SLP190
CYSC;2002-09-08 21:00;METAR CYSC 082100Z 25010G16KT 15SM FEW095 FEW120 BKN200 30/15 A3008 RMK AC2AC1CI1 LAST MANNED OB/NEXT 091200 SLP186
CYSC;2002-09-08 22:00;METAR CYSC 082200Z AUTO 23003KT 9SM CLR 28/16 A3009 RMK SLP190
CYSC;2002-09-08 23:00;METAR CYSC 082300Z AUTO 22004KT 9SM CLR 26/16 A3007 RMK SLP185
CYSC;2002-09-09 00:00;METAR CYSC 090000Z AUTO 21004KT 9SM CLR 24/16 A3009 RMK SLP190
CYSC;2002-09-09 01:00;METAR CYSC 090100Z AUTO 19003KT 9SM CLR 21/16 A3009 RMK SLP192
CYSC;2002-09-09 02:00;METAR CYSC 090200Z AUTO 19004KT 9SM CLR 19/16 A3009 RMK SLP191
CYSC;2002-09-09 03:00;METAR CYSC 090300Z AUTO 13003KT 9SM CLR 18/16 A3010 RMK SLP192
CYSC;2002-09-09 04:00;METAR CYSC 090400Z AUTO 15003KT 9SM CLR 18/16 A3010 RMK SLP191
CYSC;2002-09-09 05:00;METAR CYSC 090500Z AUTO 20004KT 9SM CLR 18/15 A3010 RMK SLP193
CYSC;2002-09-09 06:00;METAR CYSC 090600Z AUTO 26003KT 9SM CLR 19/15 A3010 RMK SLP193
CYSC;2002-09-09 07:00;METAR CYSC 090700Z AUTO 14002KT 9SM CLR 17/15 A3010 RMK SLP192
CYSC;2002-09-09 08:00;METAR CYSC 090800Z AUTO 15004KT 8SM CLR 16/14 A3009 RMK SLP189
CYSC;2002-09-09 09:00;METAR CYSC 090900Z AUTO 16003KT 8SM CLR 17/15 A3009 RMK SLP189
CYSC;2002-09-09 10:00;METAR CYSC 091000Z AUTO 20003KT 8SM CLR 17/15 A3009 RMK SLP189
CYSC;2002-09-09 11:00;METAR CYSC 091100Z AUTO 21003KT 7SM CLR 19/15 A3009 RMK SLP189
CYSC;2002-09-09 12:00;METAR CYSC 091200Z 24002KT 15SM FEW090 FEW120 BKN220 20/16 A3010 RMK AC1AC2CI1 SLP192
CYSC;2002-09-09 13:00;METAR CYSC 091300Z 24004KT 15SM FEW120 SCT220 24/17 A3009 RMK AC1CI1 SLP190
CYSC;2002-09-09 14:00;METAR CYSC 091400Z 25006KT 15SM FEW120 FEW220 27/17 A3008 RMK AC1CI1 SLP184
CYSC;2002-09-09 15:00;METAR CYSC 091500Z 21004KT 15SM FEW220 29/17 A3006 RMK CI1 SLP179
CYSC;2002-09-09 16:00;METAR CYSC 091600Z 24006KT 15SM FEW220 30/17 A3004 RMK CI1 SLP172
CYSC;2002-09-09 17:00;METAR CYSC 091700Z 21008KT 15SM FEW220 32/17 A3002 RMK CI1 SLP165
CYSC;2002-09-09 18:00;METAR CYSC 091800Z 23007KT 15SM FEW240 33/17 A3000 RMK CI1 SLP156
CYSC;2002-09-09 19:00;METAR CYSC 091900Z 28010G16KT 15SM FEW120 34/13 A2999 RMK AC1 SLP152
CYSC;2002-09-09 20:00;METAR CYSC 092000Z 27011G16KT 15SM FEW120 33/14 A2997 RMK AC1 SLP146
CYSC;2002-09-09 21:00;METAR CYSC 092100Z 27010KT 15SM FEW240 32/13 A2996 RMK CI1 LAST MANNED OB/NEXT 101200 SLP143
CYSC;2002-09-09 22:00;METAR CYSC 092200Z AUTO 26006KT 9SM CLR 30/14 A2995 RMK SLP141
CYSC;2002-09-09 23:00;METAR CYSC 092300Z AUTO 23004KT 9SM CLR 24/15 A2994 RMK SLP141
CYSC;2002-09-10 00:00;METAR CYSC 100000Z AUTO 22005KT 9SM CLR 23/13 A2995 RMK SLP141
CYSC;2002-09-10 01:00;METAR CYSC 100100Z AUTO 00000KT 9SM CLR 18/14 A2994 RMK SLP139
CYSC;2002-09-10 02:00;METAR CYSC 100200Z AUTO 00000KT 9SM CLR 16/14 A2993 RMK SLP137
CYSC;2002-09-10 03:00;METAR CYSC 100300Z AUTO 22003KT 8SM CLR 15/13 A2993 RMK SLP136
CYSC;2002-09-10 04:00;METAR CYSC 100400Z AUTO 09002KT 7SM CLR 14/13 A2993 RMK SLP134
CYSC;2002-09-10 05:00;METAR CYSC 100500Z AUTO 10002KT 6SM CLR 14/13 A2992 RMK SLP132
CYSC;2002-09-10 06:00;METAR CYSC 100600Z AUTO 00000KT 4SM CLR 13/12 A2992 RMK SLP130
CYSC;2002-09-10 07:00;METAR CYSC 100700Z AUTO 00000KT 3 1/2SM CLR 13/13 A2991 RMK SLP126
CYSC;2002-09-10 08:00;METAR CYSC 100800Z AUTO 12002KT 4SM CLR 13/12 A2989 RMK SLP121
CYSC;2002-09-10 09:00;METAR CYSC 100900Z AUTO 09002KT 3 1/2SM CLR 13/12 A2987 RMK SLP115
CYSC;2002-09-10 10:00;METAR CYSC 101000Z AUTO 10002KT 3 1/2SM CLR 13/12 A2986 RMK SLP111
CYSC;2002-09-10 11:00;METAR CYSC 101100Z AUTO 00000KT 2 1/2SM CLR 14/13 A2985 RMK SLP110
CYSC;2002-09-10 12:00;METAR CYSC 101200Z 00000KT 10SM SKC 18/16 A2984 RMK HAZY SLP105
CYSC;2002-09-10 13:00;METAR CYSC 101300Z 00000KT 10SM FEW240 23/17 A2982 RMK CI1 HAZY SLP099
CYSC;2002-09-10 14:00;METAR CYSC 101400Z 23007KT 8SM SKC 26/17 A2980 RMK HAZY SLP091
CYSC;2002-09-10 15:00;METAR CYSC 101500Z CCA 23007KT 10SM FEW240 28/17 A2979 RMK CI1 HAZY SLP085
CYSC;2002-09-10 16:00;METAR CYSC 101600Z CCA 18004KT 12SM FEW040 30/18 A2976 RMK CU1 HAZY SLP075
CYSC;2002-09-10 17:00;METAR CYSC 101700Z 21010KT 12SM FEW045 31/16 A2972 RMK CU1 HAZY SLP064
CYSC;2002-09-10 18:00;METAR CYSC 101800Z 29011KT 12SM FEW050 32/14 A2969 RMK CU1 HAZY TCU ASOCTD SLP052
CYSC;2002-09-10 19:00;METAR CYSC 101900Z 27009KT 12SM FEW050 32/15 A2967 RMK CU2 HAZY TCU ASOCTD SLP045
CYSC;2002-09-10 20:00;METAR CYSC 102000Z 26010KT 12SM FEW054 31/15 A2964 RMK CU2 HAZY TCU EMBDD SLP035
CYSC;2002-09-10 21:00;METAR CYSC 102100Z 26010G15KT 12SM FEW055 SCT240 29/14 A2962 RMK CU2CI0 LAST MANNED OB/NEXT 111200 HAZY TCU EMBDD SLP028
CYSC;2002-09-10 22:00;METAR CYSC 102200Z AUTO 23005KT 8SM FEW070 28/15 A2959 RMK SLP020
CYSC;2002-09-10 23:00;METAR CYSC 102300Z AUTO 21002KT 7SM CLR 25/15 A2957 RMK SLP013
CYSC;2002-09-11 00:00;METAR CYSC 110000Z AUTO 18004KT 6SM CLR 21/15 A2955 RMK SLP007
CYSC;2002-09-11 01:00;METAR CYSC 110100Z AUTO 23004KT 6SM CLR 22/15 A2954 RMK SLP003
CYSC;2002-09-11 02:00;METAR CYSC 110200Z AUTO 22005KT 6SM FEW079 22/15 A2952 RMK SLP994
CYSC;2002-09-11 03:00;METAR CYSC 110300Z AUTO 25005KT 5SM SCT073 20/15 A2950 RMK SLP989
CYSC;2002-09-11 04:00;METAR CYSC 110400Z AUTO 23005KT 5SM SCT099 21/15 A2949 RMK SLP985
CYSC;2002-09-11 05:00;METAR CYSC 110500Z AUTO 23007KT 2 1/8SM -RA FEW020 FEW025 BKN033 19/17 A2949 RMK SLP985
CYSC;2002-09-11 06:00;METAR CYSC 110600Z AUTO 21004KT 1 1/2SM -RA FEW001 FEW019 FEW025 OVC038 19/18 A2947 RMK PCPN 1.5MM PAST HR SLP975
CYSC;2002-09-11 07:00;METAR CYSC 110700Z AUTO 14005KT 2SM -RA FEW031 FEW056 SCT072 SCT095 19/18 A2942 RMK SLP960
CYSC;2002-09-11 08:00;METAR CYSC 110800Z AUTO 29003KT 1 1/8SM CLR 18/17 A2940 RMK SLP952
CYSC;2002-09-11 09:00;METAR CYSC 110900Z AUTO 26003KT 1/2SM FEW089 18/17 A2938 RMK SLP945
CYSC;2002-09-11 10:00;METAR CYSC 111000Z AUTO 00000KT 1/8SM FEW042 FEW058 FEW083 17/16 A2934 RMK SLP934
CYSC;2002-09-11 11:00;METAR CYSC 111100Z AUTO 12003KT 3/4SM FEW033 SCT045 SCT058 SCT077 17/17 A2932 RMK SLP927
CYSC;2002-09-11 12:00;METAR CYSC 111200Z 00000KT 1SM -RA BR FEW010 BKN029 OVC049 18/18 A2928 RMK SF2SC5NS1 SLP914
CYSC;2002-09-11 13:00;METAR CYSC 111300Z 23003KT 1SM -TSRA BR OVC005 18/17 A2927 RMK SF8 CB EMBDD RERA SLP910
CYSC;2002-09-11 14:00;METAR CYSC 111400Z 32006KT 4SM -SHRA BR FEW005 BKN016 OVC033 14/14 A2927 RETS RMK SF2SC5SC1 SLP912
CYSC;2002-09-11 15:00;METAR CYSC 111500Z CCA 36007KT 5SM -SHRA BKN008 OVC017 12/11 A2931 RMK SF7SC1 SLP925
CYSC;2002-09-11 16:00;METAR CYSC 111600Z 01007G16KT 10SM -RA BKN011 OVC030 11/10 A2933 RMK SC7SC1 SLP933
CYSC;2002-09-11 17:00;METAR CYSC 111700Z 36008G15KT 12SM -RA OVC012 11/10 A2934 RMK SC8 SLP937
CYSC;2002-09-11 18:00;METAR CYSC 111800Z 34008KT 15SM OVC014 10/09 A2938 RMK SC8 SLP951
CYSC;2002-09-11 19:00;METAR CYSC 111900Z 33012KT 3SM -RA BR SCT008 OVC013 10/09 A2942 RMK CF3SC5 SLP963
CYSC;2002-09-11 20:00;METAR CYSC 112000Z 34013G21KT 2 1/2SM -RA BR FEW008 BKN012 OVC029 10/09 A2946 RMK CF2SC6SC1 SLP977
CYSC;2002-09-11 21:00;METAR CYSC 112100Z CCA 34009G15KT 8SM -RA FEW012 OVC020 09/08 A2952 RMK CF2SC6 LAST MANNED OB/NEXT 121200 PRESRR SLP998
CYSC;2002-09-11 22:00;METAR CYSC 112200Z AUTO 34005KT 7SM -RA OVC027 09/08 A2955 RMK PCPN 1.0MM PAST HR SLP009
CYSC;2002-09-11 23:00;METAR CYSC 112300Z AUTO 31003KT 5SM -RA OVC015 09/08 A2958 RMK PCPN 1.0MM PAST HR SLP020
CYSC;2002-09-12 00:00;METAR CYSC 120000Z AUTO 30007KT 9SM -RA OVC010 OVC048 OVC056 10/09 A2959 RMK PCPN 2.0MM PAST HR SLP024
CYSC;2002-09-12 01:00;METAR CYSC 120100Z AUTO 31010G17KT 9SM FEW014 SCT039 10/09 A2961 RMK SLP029
CYSC;2002-09-12 02:00;METAR CYSC 120200Z AUTO 32009G18KT 9SM FEW023 SCT038 SCT089 10/08 A2962 RMK PCPN 0.5MM PAST HR SLP035
CYSC;2002-09-12 03:00;METAR CYSC 120300Z AUTO 31010G15KT 9SM FEW049 FEW060 FEW082 09/07 A2964 RMK SLP041
CYSC;2002-09-12 04:00;METAR CYSC 120400Z AUTO 30010G17KT 9SM FEW067 08/05 A2966 RMK SLP048
CYSC;2002-09-12 05:00;METAR CYSC 120500Z AUTO 29009KT 9SM CLR 08/05 A2968 RMK SLP056
CYSC;2002-09-12 06:00;METAR CYSC 120600Z AUTO 30011G17KT 9SM SCT065 08/04 A2970 RMK SLP063
CYSC;2002-09-12 07:00;METAR CYSC 120700Z AUTO 29011KT 9SM CLR 06/04 A2972 RMK SLP071
CYSC;2002-09-12 08:00;METAR CYSC 120800Z AUTO 28012KT 9SM CLR 06/03 A2974 RMK SLP077
CYSC;2002-09-12 09:00;METAR CYSC 120900Z AUTO 28009KT 9SM CLR 05/03 A2976 RMK SLP086
CYSC;2002-09-12 10:00;METAR CYSC 121000Z AUTO 28006KT 9SM CLR 04/03 A2979 RMK SLP096
CYSC;2002-09-12 11:00;METAR CYSC 121100Z AUTO 29009KT 9SM CLR 04/03 A2982 RMK SLP106
CYSC;2002-09-12 12:00;METAR CYSC 121200Z 28008KT 15SM FEW020 FEW060 06/03 A2985 RMK CF1SC1 SLP114
CYSC;2002-09-12 13:00;METAR CYSC 121300Z 30007KT 15SM FEW022 08/04 A2987 RMK SC2 CU ASOCTD SLP121
CYSC;2002-09-12 14:00;METAR CYSC 121400Z 30009KT 15SM FEW026 10/04 A2988 RMK CU2 SLP125
CYSC;2002-09-12 15:00;METAR CYSC 121500Z 29013G18KT 15SM FEW032 11/03 A2988 RMK CU2 SLP124
CYSC;2002-09-12 16:00;METAR CYSC 121600Z 29011G17KT 15SM FEW035 12/02 A2988 RMK CU1 SLP123
CYSC;2002-09-12 17:00;METAR CYSC 121700Z 30014KT 15SM FEW040 13/02 A2989 RMK CU1 SLP125
CYSC;2002-09-12 18:00;METAR CYSC 121800Z 27013G18KT 15SM FEW040 FEW220 14/02 A2988 RMK CU1CI0 SLP124
CYSC;2002-09-12 19:00;METAR CYSC 121900Z 28014KT 15SM FEW040 FEW240 15/03 A2989 RMK CU1CI0 SLP125
CYSC;2002-09-12 20:00;METAR CYSC 122000Z 28012G20KT 15SM FEW040 FEW240 15/02 A2989 RMK CU1CI1 SLP127
CYSC;2002-09-12 21:00;METAR CYSC 122100Z 29010G16KT 15SM FEW045 FEW100 FEW240 15/02 A2989 RMK CU1AC1CI0 LAST MANNED OB/NEXT 131200 SLP126
CYSC;2002-09-12 22:00;METAR CYSC 122200Z AUTO 27008KT 9SM CLR 14/03 A2989 RMK SLP128
CYSC;2002-09-13 00:00;METAR CYSC 130000Z AUTO 23005KT 9SM CLR 10/04 A2991 RMK SLP133
CYSC;2002-09-13 01:00;METAR CYSC 130100Z AUTO 22006KT 9SM CLR 10/04 A2990 RMK SLP132
CYSC;2002-09-13 02:00;METAR CYSC 130200Z AUTO 23003KT 9SM CLR 08/04 A2990 RMK SLP133
CYSC;2002-09-13 03:00;METAR CYSC 130300Z AUTO 00000KT 9SM CLR 05/04 A2990 RMK SLP132
CYSC;2002-09-13 04:00;METAR CYSC 130400Z AUTO 00000KT 9SM CLR 05/04 A2989 RMK SLP130
CYSC;2002-09-13 05:00;METAR CYSC 130500Z AUTO 09002KT 9SM CLR 04/03 A2988 RMK SLP123
CYSC;2002-09-13 06:00;METAR CYSC 130600Z AUTO 00000KT 9SM FEW064 FEW091 05/05 A2986 RMK SLP117
CYSC;2002-09-13 07:00;METAR CYSC 130700Z AUTO 00000KT 9SM FEW047 BKN083 08/07 A2983 RMK SLP107
CYSC;2002-09-13 08:00;METAR CYSC 130800Z AUTO 00000KT 9SM OVC041 09/08 A2981 RMK SLP101
CYSC;2002-09-13 09:00;METAR CYSC 130900Z AUTO 00000KT 9SM BKN055 BKN085 09/08 A2980 RMK SLP094
CYSC;2002-09-13 10:00;METAR CYSC 131000Z AUTO 21004KT 9SM FEW075 FEW085 12/09 A2978 RMK SLP089
CYSC;2002-09-13 11:00;METAR CYSC 131100Z AUTO 21006KT 9SM CLR 14/10 A2978 RMK PCPN 0.5MM PAST HR SLP090
CYSC;2002-09-13 12:00;METAR CYSC 131200Z 23006KT 12SM -SHRA SCT053 BKN071 BKN091 15/11 A2978 RMK SC3AC3AC1 SLP088
CYSC;2002-09-13 13:00;METAR CYSC 131300Z 24009KT 10SM -SHRA FEW005 BKN014 BKN030 OVC047 14/13 A2981 RMK CF1SC4SC2SC1 SLP098
CYSC;2002-09-13 14:00;METAR CYSC 131400Z 24012G18KT 12SM FEW014 BKN029 OVC050 15/13 A2982 RMK CF1SC6SC2 SLP101
CYSC;2002-09-13 15:00;METAR CYSC 131500Z 25010G15KT 15SM BKN018 BKN040 BKN087 15/13 A2982 RMK SC5SC2AC1 SLP105
CYSC;2002-09-13 16:00;METAR CYSC 131600Z 25012G17KT 15SM SCT018 BKN067 BKN095 17/14 A2983 RMK SC3AC2AC1 CU ASOCTD SLP108
CYSC;2002-09-13 17:00;METAR CYSC 131700Z 26014KT 15SM SCT023 SCT063 20/14 A2984 RMK SC3SC1 CU ASOCTD SLP111
CYSC;2002-09-13 18:00;METAR CYSC 131800Z CCA 27012G20KT 15SM SCT033 20/13 A2984 RMK CU4 TCU ASOCTD SLP109
CYSC;2002-09-13 19:00;METAR CYSC 131900Z 31006KT 15SM SCT030 BKN045TCU 18/11 A2986 RETS RMK CU3TCU2 SLP114
CYSC;2002-09-13 20:00;METAR CYSC 132000Z CCA 25008G15KT 15SM FEW034 FEW070 FEW240 21/14 A2986 RMK CU2AC1CI1 CITR TCU ASOCTD SLP116
CYSC;2002-09-13 21:00;METAR CYSC 132100Z 27009KT 15SM FEW036 FEW240 21/10 A2988 RMK CU2CI1 LAST MANNED OB/NEXT 141200 TCU ASOCTD SLP122
CYSC;2002-09-13 22:00;METAR CYSC 132200Z AUTO 30009KT 9SM CLR 20/09 A2991 RMK SLP131
CYSC;2002-09-13 23:00;METAR CYSC 132300Z AUTO 28003KT 9SM CLR 16/09 A2994 RMK SLP141
CYSC;2002-09-14 00:00;METAR CYSC 140000Z AUTO 30003KT 9SM CLR 11/08 A2998 RMK SLP157
CYSC;2002-09-14 01:00;METAR CYSC 140100Z AUTO 23002KT 9SM CLR 09/07 A3000 RMK SLP164
CYSC;2002-09-14 02:00;METAR CYSC 140200Z AUTO 00000KT 9SM CLR 08/06 A3003 RMK SLP173
CYSC;2002-09-14 03:00;METAR CYSC 140300Z AUTO 00000KT 9SM CLR 06/05 A3005 RMK SLP182
CYSC;2002-09-14 04:00;METAR CYSC 140400Z AUTO 13002KT 9SM CLR 06/05 A3007 RMK SLP187
CYSC;2002-09-14 05:00;METAR CYSC 140500Z AUTO 07002KT 9SM CLR 05/05 A3009 RMK SLP196
CYSC;2002-09-14 06:00;METAR CYSC 140600Z AUTO 05002KT 9SM CLR 05/04 A3011 RMK SLP201
CYSC;2002-09-14 07:00;METAR CYSC 140700Z AUTO 09004KT 9SM CLR 04/04 A3012 RMK SLP206
CYSC;2002-09-14 08:00;METAR CYSC 140800Z AUTO 08003KT 9SM CLR 05/04 A3014 RMK SLP211
CYSC;2002-09-14 09:00;METAR CYSC 140900Z AUTO 09005KT 9SM CLR 05/05 A3015 RMK SLP213
CYSC;2002-09-14 10:00;METAR CYSC 141000Z AUTO 08004KT 9SM CLR 05/04 A3015 RMK SLP214
CYSC;2002-09-14 11:00;METAR CYSC 141100Z AUTO 00000KT 9SM CLR 05/05 A3017 RMK SLP224
CYSC;2002-09-14 12:00;METAR CYSC 141200Z 07004KT 15SM FEW040 SCT120 BKN250 07/06 A3018 RMK SC1AC2CI2 SLP226
CYSC;2002-09-14 13:00;METAR CYSC 141300Z 05004KT 15SM FEW120 BKN250 11/09 A3017 RMK AC2CI2 SLP224
CYSC;2002-09-14 14:00;METAR CYSC 141400Z 09004KT 15SM FEW120 BKN250 14/10 A3016 RMK AC2CI2 SLP220
CYSC;2002-09-14 15:00;METAR CYSC 141500Z 09002KT 15SM FEW089 BKN250 19/12 A3014 RMK AC2CI2 SLP209
CYSC;2002-09-14 16:00;METAR CYSC 141600Z 00000KT 15SM FEW033 BKN077 BKN250 21/13 A3011 RMK SC2AC3CI2 SLP202
CYSC;2002-09-14 17:00;METAR CYSC 141700Z 20006KT 15SM SCT050 BKN080 BKN250 24/16 A3009 RMK SC3AC2CI1 CU ASOCTD SLP195
CYSC;2002-09-14 18:00;METAR CYSC 141800Z 16010KT 15SM FEW051 SCT079 BKN250 25/16 A3007 RMK CU2AC2CI1 SLP184
CYSC;2002-09-14 19:00;METAR CYSC 141900Z 19007KT 15SM FEW044 FEW071 BKN250 25/15 A3004 RMK CU2AC1CI1 SLP176
CYSC;2002-09-14 20:00;METAR CYSC 142000Z 18007G15KT 15SM FEW045 SCT080 BKN250 24/15 A3003 RMK CU2AC2CI1 SLP173
CYSC;2002-09-14 21:00;METAR CYSC 142100Z 16009KT 15SM FEW057 SCT099 BKN250 24/15 A3002 RMK CU2AC2CI1 LAST MANNED OB/NEXT 151200 SLP169
CYSC;2002-09-14 22:00;METAR CYSC 142200Z AUTO 15008KT 9SM CLR 23/14 A3001 RMK SLP165
CYSC;2002-09-14 23:00;METAR CYSC 142300Z AUTO 13006KT 9SM CLR 20/14 A2999 RMK SLP162
CYSC;2002-09-15 00:00;METAR CYSC 150000Z AUTO 00000KT 9SM FEW098 19/14 A3000 RMK SLP165
CYSC;2002-09-15 01:00;METAR CYSC 150100Z AUTO 17005KT 9SM FEW089 21/13 A3000 RMK SLP163
CYSC;2002-09-15 02:00;METAR CYSC 150200Z AUTO 17007KT 9SM CLR 21/13 A3000 RMK SLP160
CYSC;2002-09-15 03:00;METAR CYSC 150300Z AUTO 18007KT 9SM FEW072 FEW084 21/14 A2999 RMK SLP157
CYSC;2002-09-15 04:00;METAR CYSC 150400Z AUTO 18007KT 9SM FEW073 20/14 A2997 RMK SLP150
CYSC;2002-09-15 05:00;METAR CYSC 150500Z AUTO 18004KT 9SM FEW080 20/15 A2997 RMK SLP148
CYSC;2002-09-15 06:00;METAR CYSC 150600Z AUTO 18006KT 9SM FEW072 FEW095 21/16 A2996 RMK SLP143
CYSC;2002-09-15 07:00;METAR CYSC 150700Z AUTO 19007KT 9SM FEW061 SCT077 21/16 A2994 RMK SLP139
CYSC;2002-09-15 08:00;METAR CYSC 150800Z AUTO 16003KT 3 1/2SM -RA SCT029 SCT090 19/17 A2994 RMK SLP140
CYSC;2002-09-15 09:00;METAR CYSC 150900Z AUTO 00000KT 4SM FEW039 FEW076 FEW092 19/17 A2993 RMK SLP136
CYSC;2002-09-15 10:00;METAR CYSC 151000Z AUTO 13002KT 1 3/4SM CLR 18/17 A2992 RMK SLP134
CYSC;2002-09-15 11:00;METAR CYSC 151100Z AUTO 25003KT 3/8SM +RA BKN000 OVC010 OVC090 18/18 A2995 RMK PCPN 5.0MM PAST HR SLP143
CYSC;2002-09-15 12:00;METAR CYSC 151200Z 20003KT 3/4SM RA BR OVC010 18/18 A2995 RMK RA3ST5 /R18 AFT 21/ SLP143
CYSC;2002-09-15 13:00;METAR CYSC 151300Z 26002KT 1 1/2SM -RA BR SCT002 OVC016 19/18 A2997
CYSC;2002-09-15 14:00;METAR CYSC 151400Z 21004KT 5SM -RA BR SCT012 OVC026 19/18 A2998 RMK SF3SC5 SLP151
CYSC;2002-09-15 15:00;METAR CYSC 151500Z 24004KT 8SM BKN010 OVC041 19/18 A2998 RMK SF6SC2 SLP153
CYSC;2002-09-15 16:00;METAR CYSC 151600Z 29007KT 1 1/2SM +RA BR OVC007 18/18 A3000 RMK FG2SF6 SLP159
CYSC;2002-09-15 17:00;METAR CYSC 151700Z 00000KT 12SM FEW012 BKN018 OVC070 17/16 A3001 RERA RMK CU2CU3AC2 SLP162
CYSC;2002-09-15 18:00;METAR CYSC 151800Z 30003KT 6SM -RADZ BR SCT008 OVC039 17/17 A3002 RMK SF3SC5 SLP165
CYSC;2002-09-15 19:00;METAR CYSC 151900Z 32002KT 12SM FEW008 BKN019 OVC064 17/16 A3003 RMK CF2SC3SC2 SLP169
CYSC;2002-09-15 20:00;METAR CYSC 152000Z 32003KT 15SM -SHRA FEW012 BKN023 OVC064 16/14 A3004 RMK CF2SC5SC2 SLP174
CYSC;2002-09-15 21:00;METAR CYSC 152100Z 30004KT 15SM FEW010 SCT014 OVC061 16/14 A3006 RMK CF2CF2SC4 LAST MANNED OB/NEXT 161200 SLP181
CYSC;2002-09-15 22:00;METAR CYSC 152200Z AUTO 00000KT 9SM FEW021 BKN030 OVC058 16/15 A3006 RMK SLP183
CYSC;2002-09-15 23:00;METAR CYSC 152300Z AUTO 30002KT 9SM OVC021 OVC062 15/14 A3007 RMK SLP186
CYSC;2002-09-16 00:00;METAR CYSC 160000Z AUTO 34002KT 9SM OVC021 15/13 A3008 RMK SLP188
CYSC;2002-09-16 01:00;METAR CYSC 160100Z AUTO 34002KT 9SM OVC021 14/12 A3008 RMK SLP189
CYSC;2002-09-16 02:00;METAR CYSC 160200Z AUTO 00000KT 9SM OVC023 OVC075 14/12 A3007 RMK SLP187
CYSC;2002-09-16 03:00;METAR CYSC 160300Z AUTO 06002KT 9SM SCT019 OVC067 13/12 A3005 RMK SLP180
CYSC;2002-09-16 04:00;METAR CYSC 160400Z AUTO 03005KT 9SM FEW020 OVC067 13/11 A3004 RMK SLP175
CYSC;2002-09-16 06:00;METAR CYSC 160600Z AUTO 04003KT 9SM FEW023 BKN079 12/10 A3001 RMK SLP168
CYSC;2002-09-16 07:00;METAR CYSC 160700Z AUTO 04004KT 9SM OVC072 12/10 A2999 RMK SLP160
CYSC;2002-09-16 08:00;METAR CYSC 160800Z AUTO 05004KT 9SM BKN026 OVC068 12/11 A2998 RMK SLP155
CYSC;2002-09-16 09:00;METAR CYSC 160900Z AUTO 05006KT 9SM -RA OVC015 OVC031 12/11 A2997 RMK SLP151
CYSC;2002-09-16 10:00;METAR CYSC 161000Z AUTO 05004KT 6SM -RA BKN013 12/12 A2995 RMK SLP148
CYSC;2002-09-16 11:00;METAR CYSC 161100Z AUTO 06006KT 9SM -RA FEW013 OVC028 OVC067 12/12 A2995 RMK SLP147
CYSC;2002-09-16 12:00;METAR CYSC 161200Z 03007KT 15SM FEW003 BKN012 OVC017 12/12 A2996 RMK SF2SC3SC2 SLP148
CYSC;2002-09-16 13:00;METAR CYSC 161300Z 03008KT 15SM FEW005 BKN012 OVC016 12/11 A2996 RMK SF2SC4SC2 SLP148
CYSC;2002-09-16 14:00;METAR CYSC 161400Z 03004KT 15SM SCT005 OVC014 12/11 A2997 RMK SF4SC4 SLP152
CYSC;2002-09-16 15:00;METAR CYSC 161500Z 04006KT 15SM BKN006 OVC013 12/11 A2997 RMK SF5SC3 SLP153
CYSC;2002-09-16 16:00;METAR CYSC 161600Z 35003KT 15SM BKN007 OVC020 13/11 A2997 RMK SF5SC3
CYSC;2002-09-16 17:00;METAR CYSC 161700Z 09004KT 15SM BKN007 OVC045 13/12 A2997 RMK SF6SC2
CYSC;2002-09-16 18:00;METAR CYSC 161800Z 00000KT 15SM BKN006 OVC070 14/12 A2996 RMK SF5AC3 SLP148
CYSC;2002-09-16 19:00;METAR CYSC 161900Z 16003KT 15SM BKN007 OVC048 14/13 A2995 RMK CF6SC2 CU EMBDD SLP147
CYSC;2002-09-16 20:00;METAR CYSC 162000Z 18004KT 15SM SCT017 BKN055 15/13 A2995 RMK CU3SC2 SLP146
CYSC;2002-09-16 21:00;METAR CYSC 162100Z 21005KT 15SM FEW018 17/13 A2994 RMK CU2 LAST MANNED OB/NEXT 171200 SLP142
CYSC;2002-09-16 22:00;METAR CYSC 162200Z AUTO 21005KT 9SM CLR 16/13 A2994 RMK SLP144
CYSC;2002-09-16 23:00;METAR CYSC 162300Z AUTO 21003KT 9SM CLR 14/11 A2995 RMK SLP146
CYSC;2002-09-17 00:00;METAR CYSC 170000Z AUTO 22004KT 9SM CLR 12/11 A2996 RMK SLP150
CYSC;2002-09-17 01:00;METAR CYSC 170100Z AUTO 21003KT 9SM CLR 11/10 A2997 RMK SLP153
CYSC;2002-09-17 02:00;METAR CYSC 170200Z AUTO 00000KT 1/8SM CLR 07/07 A2998 RMK SLP157
CYSC;2002-09-17 03:00;METAR CYSC 170300Z AUTO 08002KT 5/8SM CLR 06/05 A2998 RMK VSBY VRBL 0.4V9.+ SLP159
CYSC;2002-09-17 04:00;METAR CYSC 170400Z AUTO 00000KT 1/4SM CLR 05/05 A2998 RMK SLP160
CYSC;2002-09-17 05:00;METAR CYSC 170500Z AUTO 07002KT 1/8SM CLR 05/04 A2998 RMK SLP158
CYSC;2002-09-17 06:00;METAR CYSC 170600Z AUTO 00000KT 1/8SM CLR 04/04 A2996 RMK SLP153
CYSC;2002-09-17 07:00;METAR CYSC 170700Z AUTO 11002KT 1SM CLR 04/03 A2996 RMK SLP152
CYSC;2002-09-17 08:00;METAR CYSC 170800Z AUTO 08002KT 1 1/8SM CLR 04/03 A2996 RMK VSBY VRBL 0.5V3.0 SLP150
CYSC;2002-09-17 09:00;METAR CYSC 170900Z AUTO 09002KT 3SM CLR 04/03 A2995 RMK SLP149
CYSC;2002-09-17 10:00;METAR CYSC 171000Z AUTO 00000KT 2 1/8SM CLR 03/03 A2995 RMK VSBY VRBL 0.9V6.0 SLP149
CYSC;2002-09-17 11:00;METAR CYSC 171100Z AUTO 00000KT 9SM CLR 04/03 A2996 RMK SLP153
CYSC;2002-09-17 12:00;METAR CYSC 171200Z 00000KT 15SM FEW050 FEW250 08/08 A2997 RMK SC2CI0 SLP154
CYSC;2002-09-17 13:00;METAR CYSC 171300Z 00000KT 15SM FEW050 SCT250 11/11 A2997 RMK SC2CI0 SLP155
CYSC;2002-09-17 14:00;METAR CYSC 171400Z 24003KT 15SM FEW020 SCT083 SCT250 15/12 A2998 RMK CU1AC2CI0 SLP159
CYSC;2002-09-17 15:00;METAR CYSC 171500Z 24009KT 15SM FEW023 FEW080 SCT250 16/11 A2998 RMK CU1AC2CI0 SLP155
CYSC;2002-09-17 16:00;METAR CYSC 171600Z 25008KT 15SM FEW025 FEW110 19/10 A2997 RMK CU1AC2 SLP152
CYSC;2002-09-17 17:00;METAR CYSC 171700Z 27012KT 15SM FEW025 FEW110 FEW250 20/10 A2996 RMK CF1AC1CI0 CF TR SLP150
CYSC;2002-09-17 18:00;METAR CYSC 171800Z 25008KT 15SM FEW030 FEW086 FEW250 21/09 A2995 RMK CF1AC1CI0 CF TR SLP145
CYSC;2002-09-17 19:00;METAR CYSC 171900Z 27011G16KT 15SM FEW040 FEW250 21/10 A2995 RMK CU1CI0 SLP144
CYSC;2002-09-17 20:00;METAR CYSC 172000Z 29008KT 15SM FEW045 SCT120 SCT250 20/11 A2994 RMK CU2AC1CI0 SLP142
CYSC;2002-09-17 21:00;METAR CYSC 172100Z 28008KT 15SM FEW041 FEW072 SCT250 20/11 A2994 RMK CU2AC1CI0 LAST MANNED OB/NEXT 181200 SLP143
CYSC;2002-09-17 22:00;METAR CYSC 172200Z AUTO 27007KT 9SM CLR 19/11 A2995 RMK SLP146
CYSC;2002-09-17 23:00;METAR CYSC 172300Z AUTO 26003KT 9SM CLR 15/11 A2995 RMK SLP149
CYSC;2002-09-19 00:00;METAR CYSC 190000Z AUTO 00000KT 9SM CLR 10/08 A3006 RMK SLP185
CYSC;2002-09-19 01:00;METAR CYSC 190100Z AUTO 12003KT 9SM CLR 09/08 A3005 RMK SLP184
CYSC;2002-09-19 02:00;METAR CYSC 190200Z AUTO 00000KT 9SM CLR 08/07 A3005 RMK SLP182
CYSC;2002-09-19 03:00;METAR CYSC 190300Z AUTO 08003KT 9SM CLR 07/06 A3004 RMK SLP182
CYSC;2002-09-19 04:00;METAR CYSC 190400Z AUTO 00000KT 4SM CLR 06/06 A3004 RMK SLP177
CYSC;2002-09-19 05:00;METAR CYSC 190500Z AUTO 12003KT 9SM CLR 06/06 A3005 RMK SLP180
CYSC;2002-09-19 06:00;METAR CYSC 190600Z AUTO 10004KT 9SM CLR 06/06 A3004 RMK SLP176
CYSC;2002-09-19 07:00;METAR CYSC 190700Z AUTO 09002KT 9SM CLR 06/05 A3004 RMK SLP178
CYSC;2002-09-19 08:00;METAR CYSC 190800Z AUTO 08003KT 9SM CLR 06/05 A3004 RMK SLP177
CYSC;2002-09-19 09:00;METAR CYSC 190900Z AUTO 00000KT 2 3/8SM CLR 05/04 A3004 RMK VSBY VRBL 0.5V9.+ SLP178
CYSC;2002-09-19 10:00;METAR CYSC 191000Z AUTO 08002KT 9SM CLR 05/05 A3004 RMK SLP177
CYSC;2002-09-19 11:00;METAR CYSC 191100Z AUTO 11002KT 9SM CLR 06/06 A3005 RMK SLP182
CYSC;2002-09-19 12:00;METAR CYSC 191200Z 09002KT 15SM SCT250 10/09 A3005 RMK CI2 SLP182
CYSC;2002-09-19 13:00;METAR CYSC 191300Z 00000KT 15SM FEW220 BKN250 12/10 A3006 RMK CC1CI2 SLP184
CYSC;2002-09-19 14:00;METAR CYSC 191400Z 00000KT 15SM FEW220 BKN250 15/12 A3005 RMK CC1CI2 SLP181
CYSC;2002-09-19 15:00;METAR CYSC 191500Z 00000KT 15SM SCT250 20/13 A3004 RMK CI2 SLP175
CYSC;2002-09-19 16:00;METAR CYSC 191600Z 23002KT 15SM FEW250 23/14 A3002 RMK CI1 SLP168
CYSC;2002-09-19 17:00;METAR CYSC 191700Z 23004KT 15SM FEW250 25/13 A3001 RMK CI1 SLP166
CYSC;2002-09-19 18:00;METAR CYSC 191800Z 23004KT 15SM FEW250 26/13 A2999 RMK CI2 SLP157
CYSC;2002-09-19 19:00;METAR CYSC 191900Z 21005KT 15SM SCT250 26/12 A2997 RMK CI2 SLP151
CYSC;2002-09-19 20:00;METAR CYSC 192000Z CCA 16007KT 15SM FEW040 FEW091 FEW250 26/12 A2995 RMK CU1AC1CI1 CU TR SLP143
CYSC;2002-09-19 21:00;METAR CYSC 192100Z 23009KT 15SM FEW090 FEW250 26/11 A2994 RMK AC1CI1 LAST MANNED OB/NEXT 201200 SLP142
CYSC;2002-09-19 22:00;METAR CYSC 192200Z AUTO 21004KT 9SM CLR 23/12 A2993 RMK SLP140
CYSC;2002-09-19 23:00;METAR CYSC 192300Z AUTO 18005KT 9SM CLR 19/13 A2993 RMK SLP141
CYSC;2002-09-20 00:00;METAR CYSC 200000Z AUTO 12005KT 9SM CLR 16/13 A2994 RMK SLP144
CYSC;2002-09-20 01:00;METAR CYSC 200100Z AUTO 00000KT 9SM CLR 14/12 A2994 RMK SLP143
CYSC;2002-09-20 02:00;METAR CYSC 200200Z AUTO 08002KT 9SM CLR 14/11 A2993 RMK SLP140
CYSC;2002-09-20 03:00;METAR CYSC 200300Z AUTO 08002KT 9SM CLR 13/11 A2993 RMK SLP139
CYSC;2002-09-20 04:00;METAR CYSC 200400Z AUTO 08003KT 9SM CLR 11/10 A2992 RMK SLP135
CYSC;2002-09-20 05:00;METAR CYSC 200500Z AUTO 02002KT 9SM CLR 12/11 A2992 RMK SLP133
CYSC;2002-09-20 06:00;METAR CYSC 200600Z AUTO 12002KT 9SM CLR 12/11 A2993 RMK SLP138
CYSC;2002-09-20 07:00;METAR CYSC 200700Z AUTO 14003KT 9SM CLR 12/12 A2992 RMK SLP134
CYSC;2002-09-20 08:00;METAR CYSC 200800Z AUTO 16002KT 9SM CLR 14/12 A2992 RMK SLP133
CYSC;2002-09-20 09:00;METAR CYSC 200900Z AUTO 13004KT 5SM CLR 12/12 A2991 RMK SLP130
CYSC;2002-09-20 10:00;METAR CYSC 201000Z AUTO 11002KT 7SM CLR 13/12 A2991 RMK SLP131
CYSC;2002-09-20 11:00;METAR CYSC 201100Z AUTO 14004KT 6SM CLR 15/14 A2990 RMK SLP129
CYSC;2002-09-20 12:00;METAR CYSC 201200Z 00000KT 8SM SCT060 BKN120 BKN240 16/15 A2990 RMK SC3AC2CI1 SLP127
CYSC;2002-09-20 13:00;METAR CYSC 201300Z 18007KT 8SM FEW060 FEW140 BKN240 20/16 A2989 RMK SC1AC2CI2 SLP124
CYSC;2002-09-20 14:00;METAR CYSC 201400Z 21009KT 6SM HZ FEW037 FEW065 SCT140 BKN240 22/17 A2989 RMK SC1SC2AC2CI0 SLP123
CYSC;2002-09-20 15:00;METAR CYSC 201500Z 21012KT 8SM FEW035 BKN060 BKN099 BKN220 24/17 A2988 RMK SC2SC3AC1CI0 HAZY SLP119
CYSC;2002-09-20 16:00;METAR CYSC 201600Z 21010KT 6SM HZ FEW035 BKN055 OVC099 24/18 A2988 RMK SC2SC4AC1 SLP118
CYSC;2002-09-20 17:00;METAR CYSC 201700Z 19006KT 6SM -SHRA HZ FEW035 BKN058 OVC099 23/18 A2988 RMK SC1SC5AC2 SLP117
CYSC;2002-09-21 00:00;METAR CYSC 210000Z AUTO 21002KT 5SM CLR 21/18 A2986 RMK SLP113
CYSC;2002-09-21 01:00;METAR CYSC 210100Z AUTO 21003KT 5SM FEW055 20/18 A2987 RMK SLP115
CYSC;2002-09-21 02:00;METAR CYSC 210200Z AUTO 00000KT 5SM CLR 20/18 A2986 RMK SLP113
CYSC;2002-09-21 03:00;METAR CYSC 210300Z AUTO 00000KT 2SM CLR 17/17 A2987 RMK SLP115
CYSC;2002-09-21 04:00;METAR CYSC 210400Z AUTO 00000KT 5/8SM CLR 17/17 A2987 RMK SLP114
CYSC;2002-09-21 05:00;METAR CYSC 210500Z AUTO 07002KT 1 1/8SM CLR 16/16 A2987 RMK SLP114
CYSC;2002-09-21 05:37;SPECI CYSC 210537Z AUTO 00000KT 1SM CLR 17/16 A2986
CYSC;2002-09-21 05:55;SPECI CYSC 210555Z AUTO 10002KT 1 1/4SM CLR 16/16 A2986
CYSC;2002-09-21 06:00;METAR CYSC 210600Z AUTO 07003KT 1 1/4SM CLR 16/16 A2986 RMK SLP112
CYSC;2002-09-21 06:15;SPECI CYSC 210615Z AUTO 08002KT 1 1/2SM CLR 17/16 A2985
CYSC;2002-09-21 06:17;SPECI CYSC 210617Z AUTO 08002KT 1 3/8SM CLR 17/17 A2985
CYSC;2002-09-21 06:20;SPECI CYSC 210620Z AUTO 08002KT 1SM CLR 17/16 A2985
CYSC;2002-09-21 06:43;SPECI CYSC 210643Z AUTO 08002KT 1 1/8SM CLR 17/16 A2985
CYSC;2002-09-21 07:03;SPECI CYSC 210703Z AUTO 00000KT 3/4SM CLR 16/15 A2985
CYSC;2002-09-21 07:04;SPECI CYSC 210704Z AUTO 00000KT 5/8SM CLR 17/16 A2985
CYSC;2002-09-21 07:00;METAR CYSC 210700Z AUTO 00000KT 1 1/4SM CLR 16/16 A2985 RMK SLP109
CYSC;2002-09-21 07:09;SPECI CYSC 210709Z AUTO 06002KT 3/8SM CLR 16/16 A2985
CYSC;2002-09-21 07:20;SPECI CYSC 210720Z AUTO 08002KT 3/4SM CLR 16/16 A2985
CYSC;2002-09-21 07:28;SPECI CYSC 210728Z AUTO 00000KT 5/8SM CLR 16/16 A2986
CYSC;2002-09-21 07:32;SPECI CYSC 210732Z AUTO 07002KT 3/8SM CLR 16/16 A2986
CYSC;2002-09-21 07:52;SPECI CYSC 210752Z AUTO 09002KT 3/4SM CLR 16/16 A2985
CYSC;2002-09-21 07:59;SPECI CYSC 210759Z AUTO 11002KT 1 1/2SM CLR 16/16 A2985
CYSC;2002-09-21 08:00;METAR CYSC 210800Z AUTO 12003KT 1 1/2SM CLR 16/16 A2985 RMK SLP109
CYSC;2002-09-21 08:57;SPECI CYSC 210857Z AUTO 00000KT 1 3/8SM CLR 16/16 A2986
CYSC;2002-09-21 09:01;SPECI CYSC 210901Z AUTO 10002KT 1SM CLR 16/16 A2986
CYSC;2002-09-21 09:02;SPECI CYSC 210902Z AUTO 00000KT 5/8SM CLR 16/15 A2986
CYSC;2002-09-21 09:00;METAR CYSC 210900Z AUTO 10002KT 1 1/8SM CLR 16/16 A2986 RMK SLP112
CYSC;2002-09-21 09:13;SPECI CYSC 210913Z AUTO 10002KT 1 1/2SM CLR 16/15 A2987
CYSC;2002-09-21 09:20;SPECI CYSC 210920Z AUTO 09002KT 1 3/8SM CLR 16/16 A2987
CYSC;2002-09-21 09:25;SPECI CYSC 210925Z AUTO 00000KT 1SM CLR 16/15 A2987
CYSC;2002-09-21 09:27;SPECI CYSC 210927Z AUTO 00000KT 5/8SM CLR 16/15 A2987
CYSC;2002-09-21 09:37;SPECI CYSC 210937Z AUTO 00000KT 1SM CLR 16/15 A2987
CYSC;2002-09-21 09:41;SPECI CYSC 210941Z AUTO 00000KT 5/8SM CLR 16/16 A2987
CYSC;2002-09-21 09:43;SPECI CYSC 210943Z AUTO 09002KT 1/4SM CLR 16/15 A2987
CYSC;2002-09-21 09:45;SPECI CYSC 210945Z AUTO 09002KT 1/8SM CLR 15/15 A2987
CYSC;2002-09-21 10:00;METAR CYSC 211000Z AUTO 12002KT 1/4SM CLR 16/15 A2987 RMK SLP116
CYSC;2002-09-21 10:07;SPECI CYSC 211007Z AUTO 11002KT 3/4SM CLR 16/15 A2987
CYSC;2002-09-21 10:09;SPECI CYSC 211009Z AUTO 00000KT 1 1/2SM CLR 16/15 A2987
CYSC;2002-09-21 10:18;SPECI CYSC 211018Z AUTO 08002KT 1SM CLR 15/15 A2987
CYSC;2002-09-21 10:19;SPECI CYSC 211019Z AUTO 08002KT 3/4SM CLR 15/15 A2988
CYSC;2002-09-21 10:20;SPECI CYSC 211020Z AUTO 07002KT 5/8SM CLR 15/15 A2988
CYSC;2002-09-21 10:29;SPECI CYSC 211029Z AUTO 09002KT 1 1/8SM CLR 15/15 A2988
CYSC;2002-09-21 11:00;METAR CYSC 211100Z AUTO 10003KT 2 1/2SM CLR 16/16 A2988 RMK SLP121
CYSC;2002-09-21 12:00;METAR CYSC 211200Z 00000KT 8SM FEW140 OVC220 18/17 A2989 RMK AC2CI2 SLP121
CYSC;2002-09-21 13:00;METAR CYSC 211300Z 00000KT 8SM FEW120 SCT220 22/19 A2988 RMK AC1CI1 SLP119
CYSC;2002-09-21 14:00;METAR CYSC 211400Z 21008KT 10SM FEW120 SCT220 24/18 A2989 RMK AC1CI2 HAZY SLP121
CYSC;2002-09-21 15:00;METAR CYSC 211500Z 20009G17KT 10SM FEW035 FEW120 BKN220 25/18 A2989 RMK CU1AC1CI2 HAZY CU TR SLP123
CYSC;2002-09-21 16:00;METAR CYSC 211600Z 20006KT 10SM FEW033 SCT060 BKN220 25/19 A2989 RMK CU1SC3CI0 HAZY SLP122
CYSC;2002-09-21 17:00;METAR CYSC 211700Z 21007KT 10SM FEW033 BKN060 OVC200 27/19 A2989 RMK CU2SC3CI0 HAZY SLP120
CYSC;2002-09-21 18:00;METAR CYSC 211800Z 22005KT 12SM VCSH BKN031 BKN065 OVC200 26/19 A2988 RMK SC5SC2CI0 HAZY CU ASOCTD SLP118
CYSC;2002-09-21 19:00;METAR CYSC 211900Z 22004KT 8SM BKN031 OVC062 25/20 A2988 RMK SC7SC1 HAZY CU EMBDD SLP118
CYSC;2002-09-21 20:00;METAR CYSC 212000Z 19003KT 10SM BKN044 BKN075 25/20 A2989 RMK SC5AC2 HAZY CU EMBDD SLP119
CYSC;2002-09-21 21:00;METAR CYSC 212100Z 18003KT 12SM BKN035 BKN070 OVC099 24/20 A2990 RMK SC6AC2AC1 LAST MANNED OB/NEXT 221200 HAZY SLP124
CYSC;2002-09-21 22:00;METAR CYSC 212200Z AUTO 00000KT 5SM SCT050 SCT074 24/20 A2990 RMK SLP126
CYSC;2002-09-21 23:00;METAR CYSC 212300Z AUTO 16002KT 4SM FEW051 22/20 A2991 RMK SLP131
CYSC;2002-09-22 00:00;METAR CYSC 220000Z AUTO 27002KT 4SM SCT025 22/20 A2994 RMK SLP139
CYSC;2002-09-22 01:00;METAR CYSC 220100Z AUTO 21002KT 4SM BKN023 BKN089 21/19 A2996 RMK SLP145
CYSC;2002-09-22 02:00;METAR CYSC 220200Z AUTO 29003KT 2 1/8SM -RA FEW026 20/19 A2998 RMK SLP151
CYSC;2002-09-22 03:00;METAR CYSC 220300Z AUTO 25003KT 5SM OVC028 OVC041 19/19 A2998 RMK SLP153
CYSC;2002-09-22 04:00;METAR CYSC 220400Z AUTO 29005KT 2 1/2SM -RA FEW011 OVC019 OVC035 19/18 A2999 RMK VSBY VRBL 1.6V5.0 PCPN 1.0MM PAST HR SLP156
CYSC;2002-09-22 05:00;METAR CYSC 220500Z AUTO 19002KT 3SM -RA BKN006 OVC025 19/18 A3000 RMK PCPN 0.5MM PAST HR SLP159
CYSC;2002-09-22 06:00;METAR CYSC 220600Z AUTO 16003KT 2 1/4SM -RA BKN036 19/18 A3000 RMK PCPN 5.0MM PAST HR SLP160
CYSC;2002-09-22 07:00;METAR CYSC 220700Z AUTO 12002KT 2 3/8SM BKN010 OVC027 OVC056 18/18 A3001 RMK PCPN 1.0MM PAST HR SLP161
CYSC;2002-09-22 08:00;METAR CYSC 220800Z AUTO 14003KT 3 1/2SM SCT007 OVC032 18/18 A3001 RMK SLP162
CYSC;2002-09-22 09:00;METAR CYSC 220900Z AUTO 00000KT 3/8SM FEW090 17/16 A3002 RMK SLP165
CYSC;2002-09-22 10:00;METAR CYSC 221000Z AUTO 00000KT 1/8SM FEW028 15/15 A3002 RMK SLP167
CYSC;2002-09-22 11:00;METAR CYSC 221100Z AUTO 14002KT 1/8SM FEW001 15/15 A3003 RMK SLP169
CYSC;2002-09-22 12:00;METAR CYSC 221200Z 00000KT 2SM BR SCT090 BKN120 BKN220 18/18 A3003 RMK AC4AC2CI0 SLP168
CYSC;2002-09-22 13:00;METAR CYSC 221300Z 00000KT 3SM BR FEW003 FEW050 BKN095 BKN220 18/18 A3004 RMK CF1SC2AC3CI0 VSBY SE 10 SLP171
CYSC;2002-09-22 14:00;METAR CYSC 221400Z 20002KT 12SM SCT009 BKN055 BKN088 20/18 A3002 RMK CU3SC2AC1 SLP165
CYSC;2002-09-22 15:00;METAR CYSC 221500Z 23003KT 12SM FEW010 BKN043 BKN084 19/18 A3002 RMK CF1SC4AC2 SLP166
CYSC;2002-09-22 16:00;METAR CYSC 221600Z 00000KT 12SM -RA FEW010 BKN038 BKN092 20/18 A3002 RMK CF1SC6AC2 SLP165
CYSC;2002-09-22 17:00;METAR CYSC 221700Z 21005KT 12SM FEW010 FEW042 BKN073 BKN100 20/18 A3001 RMK CF1SC2AC3AC2 SLP163
CYSC;2002-09-22 18:00;METAR CYSC 221800Z 18002KT 12SM FEW034 BKN048 BKN077 BKN097 22/18 A2999 RMK SC1SC4AC2AC1 AC TR SLP156
CYSC;2002-09-22 19:00;METAR CYSC 221900Z 13003KT 15SM FEW037 BKN058 BKN087 22/18 A2997 RMK SC1SC4AC2 SLP150
CYSC;2002-09-22 20:00;METAR CYSC 222000Z 09003KT 12SM -RA BKN026 OVC060 21/19 A2995 RMK SC6SC2 SLP143
CYSC;2002-09-22 21:00;METAR CYSC 222100Z 14002KT 12SM -RA BKN034 BKN065 OVC090 20/19 A2995 RMK SC5SC2AC1 LAST MANNED OB/NEXT 231200 SLP141
CYSC;2002-09-22 22:00;METAR CYSC 222200Z AUTO 13003KT 9SM SCT097 20/19 A2994 RMK SLP140
CYSC;2002-09-22 23:00;METAR CYSC 222300Z AUTO 11002KT 9SM FEW064 BKN082 20/18 A2992 RMK SLP135
CYSC;2002-09-23 00:00;METAR CYSC 230000Z AUTO 11002KT 7SM -RA BKN062 19/18 A2991 RMK SLP131
CYSC;2002-09-23 01:00;METAR CYSC 230100Z AUTO 08003KT 7SM -RA FEW014 BKN027 OVC063 19/19 A2990 RMK PCPN 0.5MM PAST HR SLP128
CYSC;2002-09-23 02:00;METAR CYSC 230200Z AUTO 00000KT 3SM SCT061 19/18 A2990 RMK SLP126
CYSC;2002-09-23 03:00;METAR CYSC 230300Z AUTO 12002KT 3 1/2SM BKN080 18/18 A2988 RMK SLP121
CYSC;2002-09-23 04:00;METAR CYSC 230400Z AUTO 15003KT 9SM SCT052 BKN060 19/18 A2985 RMK SLP110
CYSC;2002-09-23 05:00;METAR CYSC 230500Z AUTO 17010G17KT 9SM FEW052 SCT067 20/15 A2984 RMK SLP105
CYSC;2002-09-23 06:00;METAR CYSC 230600Z AUTO 18008KT 9SM FEW047 BKN056 BKN075 20/15 A2986 RMK SLP113
CYSC;2002-09-23 07:00;METAR CYSC 230700Z AUTO 20010KT 9SM SCT030 BKN057 20/16 A2986 RMK SLP111
CYSC;2002-09-23 08:00;METAR CYSC 230800Z AUTO 20007KT 9SM FEW028 BKN044 BKN057 BKN081 20/16 A2986 RMK SLP113
CYSC;2002-09-23 09:00;METAR CYSC 230900Z AUTO 24004KT 3SM -RA OVC014 18/17 A2987 RMK SLP117
CYSC;2002-09-23 10:00;METAR CYSC 231000Z AUTO 21003KT 9SM OVC011 OVC031 OVC038 OVC060 18/17 A2990 RMK PCPN 0.5MM PAST HR SLP126
CYSC;2002-09-23 11:00;METAR CYSC 231100Z AUTO 20003KT 9SM FEW010 SCT016 OVC021 OVC058 17/16 A2993 RMK SLP137
CYSC;2002-09-23 12:00;METAR CYSC 231200Z CCA 25011G17KT 12SM BKN014 OVC037 15/13 A3000 RMK CF5SC3 PRESRR SLP159
CYSC;2002-09-23 13:00;METAR CYSC 231300Z 25011G18KT 15SM BKN012 BKN050 14/12 A3003 RMK CF5SC2 SLP169
CYSC;2002-09-23 14:00;METAR CYSC 231400Z 26012G17KT 15SM SCT018 BKN052 BKN084 16/12 A3007 RMK CF3SC2AC1 SLP182
CYSC;2002-09-23 15:00;METAR CYSC 231500Z 28006KT 15SM BKN017 BKN050 BKN085 15/11 A3009 RMK CF5SC2AC1 SLP191
CYSC;2002-09-23 16:00;METAR CYSC 231600Z CCA 28006KT 15SM BKN022 BKN050 BKN220 15/11 A3011 RMK SC6SC1CI1 CU ASOCTD SLP197
CYSC;2002-09-23 17:00;METAR CYSC 231700Z 27007KT 15SM SCT022 BKN220 17/10 A3012 RMK SC4CI1 SLP200
CYSC;2002-09-23 18:00;METAR CYSC 231800Z 27008G15KT 15SM FEW028 FEW076 BKN220 19/10 A3012 RMK CU2AC1CI1 AC TR SLP200
CYSC;2002-09-23 19:00;METAR CYSC 231900Z 27007KT 15SM FEW040 SCT220 19/09 A3013 RMK CU2CI1 SLP203
CYSC;2002-09-23 20:00;METAR CYSC 232000Z 28009KT 15SM FEW044 FEW080 SCT220 17/08 A3014 RMK CU1AC1CI2 SLP206
CYSC;2002-09-23 21:00;METAR CYSC 232100Z 32006KT 15SM FEW044 SCT220 17/08 A3015 RMK CU1CI1 LAST MANNED OB/NEXT 241200 SLP211
CYSC;2002-09-23 22:00;METAR CYSC 232200Z AUTO 30004KT 9SM CLR 16/08 A3017 RMK SLP219
CYSC;2002-09-23 23:00;METAR CYSC 232300Z AUTO 00000KT 9SM CLR 11/08 A3018 RMK SLP225
CYSC;2002-09-24 00:00;METAR CYSC 240000Z AUTO 00000KT 9SM CLR 08/07 A3019 RMK SLP230
CYSC;2002-09-24 01:00;METAR CYSC 240100Z AUTO 12002KT 9SM CLR 07/06 A3021 RMK SLP236
CYSC;2002-09-24 02:00;METAR CYSC 240200Z AUTO 10002KT 8SM CLR 07/06 A3022 RMK SLP239
CYSC;2002-09-24 03:00;METAR CYSC 240300Z AUTO 09003KT 9SM CLR 06/05 A3022 RMK SLP240
CYSC;2002-09-24 04:00;METAR CYSC 240400Z AUTO 00000KT 7SM CLR 05/04 A3023 RMK SLP244
CYSC;2002-09-24 05:00;METAR CYSC 240500Z AUTO 09004KT 8SM CLR 05/05 A3023 RMK SLP244
CYSC;2002-09-24 06:00;METAR CYSC 240600Z AUTO 10004KT 9SM CLR 05/05 A3023 RMK SLP244
CYSC;2002-09-24 07:00;METAR CYSC 240700Z AUTO 08004KT 9SM CLR 05/04 A3023 RMK SLP244
CYSC;2002-09-24 08:00;METAR CYSC 240800Z AUTO 08003KT 9SM CLR 04/04 A3024 RMK SLP246
CYSC;2002-09-24 09:00;METAR CYSC 240900Z AUTO 09003KT 7SM CLR 04/03 A3025 RMK SLP252
CYSC;2002-09-24 10:00;METAR CYSC 241000Z AUTO 07004KT 9SM CLR 03/03 A3026 RMK SLP254
CYSC;2002-09-24 11:00;METAR CYSC 241100Z AUTO 09003KT 3/8SM OVC000 03/03 A3027 RMK SLP260
CYSC;2002-09-24 12:00;METAR CYSC 241200Z 06004KT 1/4SM FG VV000 04/04 A3028 RMK FG8 SLP261
CYSC;2002-09-24 13:00;METAR CYSC 241300Z 07003KT 8SM FEW003 FEW020 FEW220 08/08 A3027 RMK CF1SC1CI1 F BANK N VSBY 2 SLP258
CYSC;2002-09-24 14:00;METAR CYSC 241400Z 06004KT 15SM FEW100 FEW220 11/09 A3027 RMK AC1CI1 AC TR SLP257
CYSC;2002-09-24 15:00;METAR CYSC 241500Z 07005KT 15SM FEW025 FEW100 15/10 A3025 RMK CU1AC1 SLP249
CYSC;2002-09-24 16:00;METAR CYSC 241600Z 16004KT 15SM FEW034 FEW100 18/10 A3024 RMK CU1AC1 AC TR SLP244
CYSC;2002-09-24 17:00;METAR CYSC 241700Z 27006KT 15SM FEW038 FEW100 19/09 A3022 RMK CU1AC1 AC TR SLP240
CYSC;2002-09-24 18:00;METAR CYSC 241800Z 20008KT 15SM FEW040 20/08 A3021 RMK CU1 SLP236
CYSC;2002-09-24 19:00;METAR CYSC 241900Z 25007KT 15SM FEW040 FEW100 20/08 A3021 RMK CU1AC1 SLP235
CYSC;2002-09-24 20:00;METAR CYSC 242000Z 23004KT 15SM FEW040 FEW100 19/07 A3021 RMK CU1AC1 SLP236
CYSC;2002-09-24 21:00;METAR CYSC 242100Z 27006KT 15SM FEW040 19/08 A3022 RMK CU1 LAST MANNED OB/NEXT 251200 SLP238
CYSC;2002-09-24 22:00;METAR CYSC 242200Z AUTO 28002KT 9SM CLR 18/09 A3022 RMK SLP241
CYSC;2002-09-24 23:00;METAR CYSC 242300Z AUTO 00000KT 9SM CLR 11/09 A3023 RMK SLP244
CYSC;2002-09-25 00:00;METAR CYSC 250000Z AUTO 00000KT 9SM CLR 09/07 A3024 RMK SLP250
CYSC;2002-09-25 01:00;METAR CYSC 250100Z AUTO 08002KT 9SM CLR 08/07 A3026 RMK SLP256
CYSC;2002-09-25 02:00;METAR CYSC 250200Z AUTO 09003KT 9SM CLR 07/06 A3028 RMK SLP263
CYSC;2002-09-25 03:00;METAR CYSC 250300Z AUTO 09004KT 3 1/2SM CLR 07/06 A3030 RMK SLP266
CYSC;2002-09-25 04:00;METAR CYSC 250400Z AUTO 09003KT 9SM CLR 07/06 A3030 RMK SLP267
CYSC;2002-09-25 05:00;METAR CYSC 250500Z AUTO 09005KT 9SM CLR 06/06 A3031 RMK SLP268
CYSC;2002-09-25 06:00;METAR CYSC 250600Z AUTO 09003KT 9SM CLR 06/05 A3031 RMK SLP270
CYSC;2002-09-25 07:00;METAR CYSC 250700Z AUTO 07003KT 9SM CLR 05/04 A3031 RMK SLP268
CYSC;2002-09-25 08:00;METAR CYSC 250800Z AUTO 00000KT 9SM CLR 04/03 A3032 RMK SLP271
CYSC;2002-09-25 09:00;METAR CYSC 250900Z AUTO 08003KT 5SM CLR 04/03 A3033 RMK SLP277
CYSC;2002-09-25 10:00;METAR CYSC 251000Z AUTO 00000KT 9SM CLR 03/03 A3034 RMK SLP281
CYSC;2002-09-25 11:00;METAR CYSC 251100Z AUTO 09003KT 9SM CLR 03/03 A3035 RMK SLP287
CYSC;2002-09-25 12:00;METAR CYSC 251200Z CCA 07003KT 15SM SKC 06/05 A3037 RMK SLP291
CYSC;2002-09-25 13:00;METAR CYSC 251300Z 00000KT 15SM SKC 10/08 A3039 RMK SLP297
CYSC;2002-09-25 14:00;METAR CYSC 251400Z 23002KT 15SM SKC 13/09 A3039 RMK SLP298
CYSC;2002-09-25 15:00;METAR CYSC 251500Z 23002KT 15SM SKC 17/10 A3038 RMK SLP292
CYSC;2002-09-25 16:00;METAR CYSC 251600Z 27004KT 15SM FEW030 19/11 A3036 RMK CU1 SLP286
CYSC;2002-09-25 17:00;METAR CYSC 251700Z 25004KT 15SM FEW035 20/10 A3034 RMK CU2 SLP281
CYSC;2002-09-25 18:00;METAR CYSC 251800Z 30003KT 15SM FEW033 21/09 A3032 RMK CU2 SLP271
CYSC;2002-09-25 19:00;METAR CYSC 251900Z 00000KT 15SM FEW035 SCT250 21/08 A3031 RMK CU2CI0 SLP267
CYSC;2002-09-25 20:00;METAR CYSC 252000Z 19007KT 15SM FEW040 FEW250 21/08 A3030 RMK CU2CI0 SLP264
CYSC;2002-09-25 21:00;METAR CYSC 252100Z 21002KT 15SM FEW040 FEW250 21/07 A3030 RMK CF1CI1 LAST MANNED OB/NEXT 261200 SLP265
CYSC;2002-09-25 22:00;METAR CYSC 252200Z AUTO 30003KT 9SM CLR 19/10 A3029 RMK SLP263
CYSC;2002-09-25 23:00;METAR CYSC 252300Z AUTO 32003KT 9SM CLR 12/09 A3029 RMK SLP265
CYSC;2002-09-26 00:00;METAR CYSC 260000Z AUTO 11003KT 9SM CLR 10/08 A3029 RMK SLP264
CYSC;2002-09-26 01:00;METAR CYSC 260100Z AUTO 08002KT 9SM CLR 09/08 A3028 RMK SLP263
CYSC;2002-09-26 02:00;METAR CYSC 260200Z AUTO 08002KT 9SM CLR 08/07 A3029 RMK SLP263
CYSC;2002-09-26 03:00;METAR CYSC 260300Z AUTO 09004KT 9SM CLR 08/08 A3029 RMK SLP263
CYSC;2002-09-26 04:00;METAR CYSC 260400Z AUTO 09005KT 9SM CLR 08/07 A3029 RMK SLP262
CYSC;2002-09-26 05:00;METAR CYSC 260500Z AUTO 08003KT 9SM CLR 07/06 A3029 RMK SLP262
CYSC;2002-09-26 06:00;METAR CYSC 260600Z AUTO 08005KT 9SM CLR 07/06 A3028 RMK SLP259
CYSC;2002-09-26 07:00;METAR CYSC 260700Z AUTO 07003KT 9SM CLR 06/05 A3028 RMK SLP257
CYSC;2002-09-26 08:00;METAR CYSC 260800Z AUTO 09004KT 8SM CLR 05/05 A3027 RMK SLP254
CYSC;2002-09-26 09:00;METAR CYSC 260900Z AUTO 08004KT 8SM CLR 05/05 A3027 RMK SLP255
CYSC;2002-09-26 10:00;METAR CYSC 261000Z AUTO 09004KT 3SM CLR 04/04 A3027 RMK SLP257
CYSC;2002-09-26 11:00;METAR CYSC 261100Z AUTO 09003KT 4SM CLR 04/04 A3027 RMK SLP259
CYSC;2002-09-26 12:00;METAR CYSC 261200Z 08003KT 15SM FEW090 FEW240 06/05 A3027 RMK AC1CI1 SLP256
CYSC;2002-09-26 13:00;METAR CYSC 261300Z 08002KT 15SM FEW090 FEW140 FEW240 10/08 A3026 RMK AC1AC1CI0 SLP255
CYSC;2002-09-26 14:00;METAR CYSC 261400Z 00000KT 15SM FEW090 FEW140 12/10 A3025 RMK AC1AC1 SLP251
CYSC;2002-09-26 15:00;METAR CYSC 261500Z 27002KT 15SM FEW020 FEW090 FEW140 16/12 A3023 RMK CU1AC1AC2 CU TR SLP242
CYSC;2002-09-26 16:00;METAR CYSC 261600Z 20006KT 15SM FEW040 SCT096 SCT130 21/12 A3020 RMK CU1AC2AC1 CU TR SLP232
CYSC;2002-09-26 17:00;METAR CYSC 261700Z 19006KT 15SM FEW042 FEW084 SCT110 21/10 A3018 RMK CU1AC2AC2 SLP223
CYSC;2002-09-26 18:00;METAR CYSC 261800Z 19007KT 15SM FEW051 FEW085 FEW200 FEW240 22/09 A3016 RMK CU1AC1CC1CI0 CU TR SLP215
CYSC;2002-09-26 19:00;METAR CYSC 261900Z 15007KT 15SM FEW050 FEW080 FEW200 22/08 A3012 RMK CU1AC1CC1 CU TR SLP204
CYSC;2002-09-26 20:00;METAR CYSC 262000Z 22006KT 15SM FEW050 FEW085 FEW200 22/08 A3011 RMK CU1AC1CC1 CU TR SLP199
CYSC;2002-09-26 21:00;METAR CYSC 262100Z 22004KT 15SM FEW080 FEW100 SCT200 20/08 A3010 RMK AC1AC1CI2 LAST MANNED OB/NEXT 261200 SLP196
CYSC;2002-09-26 22:00;METAR CYSC 262200Z AUTO 20003KT 9SM CLR 18/09 A3009 RMK SLP196
CYSC;2002-09-26 23:00;METAR CYSC 262300Z AUTO 20004KT 9SM CLR 16/07 A3010 RMK SLP198
CYSC;2002-09-27 00:00;METAR CYSC 270000Z AUTO 11003KT 9SM CLR 11/08 A3011 RMK SLP202
CYSC;2002-09-27 01:00;METAR CYSC 270100Z AUTO 00000KT 9SM CLR 11/09 A3011 RMK SLP203
CYSC;2002-09-27 02:00;METAR CYSC 270200Z AUTO 15003KT 9SM CLR 12/09 A3010 RMK SLP198
CYSC;2002-09-27 03:00;METAR CYSC 270300Z AUTO 12004KT 9SM CLR 11/09 A3008 RMK SLP191
CYSC;2002-09-27 04:00;METAR CYSC 270400Z AUTO 07003KT 9SM CLR 09/08 A3007 RMK SLP188
CYSC;2002-09-27 05:00;METAR CYSC 270500Z AUTO 10003KT 9SM CLR 08/07 A3006 RMK SLP182
CYSC;2002-09-27 06:00;METAR CYSC 270600Z AUTO 07003KT 8SM CLR 07/06 A3005 RMK SLP181
CYSC;2002-09-27 07:00;METAR CYSC 270700Z AUTO 10003KT 9SM CLR 07/06 A3003 RMK SLP174
CYSC;2002-09-27 08:00;METAR CYSC 270800Z AUTO 10004KT 9SM CLR 07/06 A3002 RMK SLP169
CYSC;2002-09-27 09:00;METAR CYSC 270900Z AUTO 08003KT 9SM CLR 06/06 A3001 RMK SLP168
CYSC;2002-09-27 10:00;METAR CYSC 271000Z AUTO 10004KT 9SM CLR 06/06 A3000 RMK SLP163
CYSC;2002-09-27 11:00;METAR CYSC 271100Z AUTO 00000KT 9SM CLR 06/06 A3000 RMK SLP165
CYSC;2002-09-27 12:00;METAR CYSC 271200Z 05002KT 15SM FEW050 BKN140 BKN220 08/07 A3000 RMK SC1AC5CI1 SLP164
CYSC;2002-09-27 13:00;METAR CYSC 271300Z 05003KT 15SM BKN140 OVC220 10/09 A2998 RMK AC5CI1 SLP157
CYSC;2002-09-27 14:00;METAR CYSC 271400Z 06003KT 15SM FEW050 BKN120 OVC220 13/09 A2996 RMK SC1AC5CI2 SLP151
CYSC;2002-09-27 15:00;METAR CYSC 271500Z 07004KT 15SM FEW050 BKN090 BKN220 15/10 A2993 RMK SC1AC5CI2 SLP140
CYSC;2002-09-27 16:00;METAR CYSC 271600Z 13004KT 15SM FEW050 SCT090 OVC120 16/10 A2989 RMK SC1AC3AC4 SLP127
CYSC;2002-09-27 17:00;METAR CYSC 271700Z 16004KT 12SM -RA FEW032 BKN070 OVC100 15/10 A2987 RMK SC2AC2AC3 SLP120
CYSC;2002-09-27 18:00;METAR CYSC 271800Z 20005KT 2 1/2SM -RA OVC022 13/11 A2987 RMK SC8 SLP120
CYSC;2002-09-27 19:00;METAR CYSC 271900Z 00000KT 3SM -RA BR OVC026 12/12 A2984 RMK SC8 SLP111
CYSC;2002-09-27 20:00;METAR CYSC 272000Z 05007KT 3SM -RA BR SCT006 OVC024 13/12 A2976 RMK SF3SC5 VSBY SE 7 SLP085
CYSC;2002-09-27 21:00;METAR CYSC 272100Z 05003KT 1 1/2SM -RA BR FEW002 OVC013 13/12 A2976 RMK SF2SC6 LAST MANNED OB/NEXT 281200 SLP081
CYSC;2002-09-27 22:00;METAR CYSC 272200Z AUTO 05005KT 1 1/2SM RA OVC000 OVC007 OVC018 OVC024 13/12 A2971 RMK PCPN 4.0MM PAST HR SLP067
CYSC;2002-09-27 23:00;METAR CYSC 272300Z AUTO 06004KT 1 3/4SM RA OVC000 OVC007 OVC013 13/12 A2969 RMK PCPN 6.0MM PAST HR SLP060
CYSC;2002-09-28 00:00;METAR CYSC 280000Z AUTO 05006KT 3SM RA BKN001 BKN016 OVC024 13/12 A2966 RMK PCPN 6.5MM PAST HR SLP049
CYSC;2002-09-28 01:00;METAR CYSC 280100Z AUTO 03005KT 1 1/8SM +RA OVC000 OVC009 13/12 A2965 RMK PCPN 8.0MM PAST HR SLP043
CYSC;2002-09-28 02:00;METAR CYSC 280200Z AUTO 06004KT 4SM RA OVC020 13/12 A2963 RMK PCPN 5.5MM PAST HR SLP036
CYSC;2002-09-28 03:00;METAR CYSC 280300Z AUTO 05003KT 9SM -RA OVC018 12/12 A2960 RMK PCPN 1.0MM PAST HR SLP026
CYSC;2002-09-28 04:00;METAR CYSC 280400Z AUTO 02004KT 9SM -RA SCT007 OVC014 12/12 A2959 RMK PCPN 1.0MM PAST HR SLP023
CYSC;2002-09-28 05:00;METAR CYSC 280500Z AUTO 02004KT 2 1/2SM -RA OVC007 OVC019 12/12 A2958 RMK PCPN 1.0MM PAST HR SLP021
CYSC;2002-09-28 06:00;METAR CYSC 280600Z AUTO 00000KT 6SM FEW002 OVC015 12/12 A2959 RMK PCPN 0.5MM PAST HR SLP026
CYSC;2002-09-28 07:00;METAR CYSC 280700Z AUTO 28007KT 7SM OVC000 13/12 A2962 RMK SLP033
CYSC;2002-09-28 08:00;METAR CYSC 280800Z AUTO 30005KT 4SM OVC004 OVC017 12/12 A2965 RMK SLP045
CYSC;2002-09-28 09:00;METAR CYSC 280900Z AUTO 32005KT 9SM OVC011 12/12 A2969 RMK PCPN 0.5MM PAST HR SLP060
CYSC;2002-09-28 10:00;METAR CYSC 281000Z AUTO 30005KT 9SM OVC006 OVC020 12/12 A2974 RMK SLP076
CYSC;2002-09-28 11:00;METAR CYSC 281100Z AUTO 29008KT 9SM OVC009 OVC063 12/11 A2979 RMK SLP094
CYSC;2002-09-28 12:00;METAR CYSC 281200Z CCA 30006KT 15SM OVC007 12/11 A2983 RMK SC8 /R33 AFT 21Z/ SLP104
CYSC;2002-09-28 13:00;METAR CYSC 281300Z 29008KT 12SM OVC007 12/11 A2987 RMK SC8 CU EMBDD SLP117
CYSC;2002-09-28 14:00;METAR CYSC 281400Z 30009KT 12SM OVC007 12/11 A2990 RMK SC8 CU EMBDD SLP127
CYSC;2002-09-28 15:00;METAR CYSC 281500Z 30009KT 15SM BKN008 OVC016 12/10 A2992 RMK SC6SC2 SLP136
CYSC;2002-09-28 16:00;METAR CYSC 281600Z 30010G15KT 15SM BKN010 13/10 A2996 RMK CU6 SLP149
CYSC;2002-09-28 17:00;METAR CYSC 281700Z 30012G17KT 15SM BKN016 14/07 A2997 RMK CU5 SLP153
CYSC;2002-09-28 18:00;METAR CYSC 281800Z 32009KT 15SM BKN036 14/06 A2999 RMK CU6 SLP160
CYSC;2002-09-28 19:00;METAR CYSC 281900Z 30010G15KT 15SM BKN034 13/05 A3001 RMK CU6 SLP167
CYSC;2002-09-29 00:00;METAR CYSC 290000Z AUTO 20002KT 9SM CLR 04/02 A3012 RMK SLP207
CYSC;2002-09-29 01:00;METAR CYSC 290100Z AUTO 28003KT 9SM CLR 03/02 A3014 RMK SLP216
CYSC;2002-09-29 02:00;METAR CYSC 290200Z AUTO 28002KT 9SM CLR 03/00 A3016 RMK SLP219
CYSC;2002-09-29 03:00;METAR CYSC 290300Z AUTO 00000KT 9SM CLR 01/M00 A3017 RMK SLP226
CYSC;2002-09-29 04:00;METAR CYSC 290400Z AUTO 00000KT 9SM CLR M00/M01 A3018 RMK SLP229
CYSC;2002-09-29 05:00;METAR CYSC 290500Z AUTO 00000KT 1SM CLR M01/M02 A3019 RMK VSBY VRBL 0.3V9.+ SLP232
CYSC;2002-09-29 06:00;METAR CYSC 290600Z AUTO 00000KT 9SM CLR M01/M02 A3021 RMK SLP238
CYSC;2002-09-29 07:00;METAR CYSC 290700Z AUTO 00000KT 3SM CLR M02/M03 A3021 RMK SLP241
CYSC;2002-09-29 08:00;METAR CYSC 290800Z AUTO 00000KT 9SM CLR M02/M03 A3023 RMK ICG SLP245
CYSC;2002-09-29 09:00;METAR CYSC 290900Z AUTO 00000KT 9SM CLR M01/M02 A3025 RMK ICG PAST HR SLP251
CYSC;2002-09-29 10:00;METAR CYSC 291000Z AUTO 00000KT 9SM CLR M02/M03 A3026 RMK SLP256
CYSC;2002-09-29 12:00;METAR CYSC 291200Z 10002KT 15SM BKN120 01/00 A3028 RMK AC5 SLP262
CYSC;2002-09-29 13:00;METAR CYSC 291300Z 00000KT 15SM SCT120 BKN250 05/03 A3028 RMK AC3CI1 SLP264
CYSC;2002-09-29 14:00;METAR CYSC 291400Z 00000KT 15SM FEW120 SCT250 08/03 A3028 RMK AC2CI0 SLP263
CYSC;2002-09-29 15:00;METAR CYSC 291500Z 23004KT 15SM SCT062 BKN091 BKN250 10/01 A3028 RMK SC3AC2CI0 SLP261
CYSC;2002-09-29 16:00;METAR CYSC 291600Z 24004KT 15SM SCT040 BKN082 BKN250 10/M01 A3028 RMK SC3AC2CI1 SLP261
CYSC;2002-09-29 17:00;METAR CYSC 291700Z 28007KT 15SM SCT037 BKN073 BKN250 11/M02 A3027 RMK SC4AC2CI0 SLP259
CYSC;2002-09-29 18:00;METAR CYSC 291800Z 25004KT 15SM SCT035 BKN071 BKN250 11/M00 A3025 RMK SC3AC2CI1 SLP254
CYSC;2002-09-29 19:00;METAR CYSC 291900Z 33002KT 15SM SCT045 BKN077 BKN250 11/01 A3025 RMK SC4AC2CI0 SLP252
CYSC;2002-09-29 20:00;METAR CYSC 292000Z 32002KT 15SM BKN036 BKN094 BKN250 11/01 A3024 RMK SC5AC2CI0 SLP251
CYSC;2002-09-29 21:00;METAR CYSC 292100Z 00000KT 15SM BKN060 BKN087 11/03 A3024 RMK SC5AC2 LAST MANNED OB/NEXT 301200 SLP249
CYSC;2002-09-29 22:00;METAR CYSC 292200Z AUTO 32002KT 9SM OVC056 10/05 A3024 RMK SLP250
CYSC;2002-09-29 23:00;METAR CYSC 292300Z AUTO 00000KT 9SM OVC044 09/06 A3024 RMK SLP252
CYSC;2002-09-30 00:00;METAR CYSC 300000Z AUTO 08002KT 9SM OVC032 08/06 A3025 RMK SLP253
CYSC;2002-09-30 01:00;METAR CYSC 300100Z AUTO 00000KT 9SM OVC038 08/06 A3025 RMK SLP253
CYSC;2002-09-30 02:00;METAR CYSC 300200Z AUTO 09004KT 9SM OVC036 08/06 A3025 RMK SLP251
CYSC;2002-09-30 03:00;METAR CYSC 300300Z AUTO 09003KT 9SM OVC036 08/06 A3024 RMK SLP249
CYSC;2002-09-30 04:00;METAR CYSC 300400Z AUTO 11004KT 9SM BKN038 08/06 A3024 RMK SLP248
CYSC;2002-09-30 05:00;METAR CYSC 300500Z AUTO 04003KT 9SM FEW047 FEW055 07/06 A3023 RMK SLP244
CYSC;2002-09-30 06:00;METAR CYSC 300600Z AUTO 09003KT 9SM SCT074 07/05 A3022 RMK SLP241
CYSC;2002-09-30 07:00;METAR CYSC 300700Z AUTO 07002KT 9SM SCT076 04/03 A3021 RMK SLP238
CYSC;2002-09-30 08:00;METAR CYSC 300800Z AUTO 09003KT 9SM SCT079 04/03 A3020 RMK SLP234
CYSC;2002-09-30 09:00;METAR CYSC 300900Z AUTO 09003KT 9SM BKN079 05/05 A3020 RMK SLP235
CYSC;2002-09-30 10:00;METAR CYSC 301000Z AUTO 07002KT 9SM FEW070 BKN079 04/04 A3020 RMK SLP236
CYSC;2002-09-30 11:00;METAR CYSC 301100Z AUTO 00000KT 9SM FEW068 SCT082 03/02 A3020 RMK SLP237
CYSC;2002-09-30 12:00;METAR CYSC 301200Z CCA 03003KT 15SM FEW066 SCT076 07/06 A3020 RMK AC2AC1
CYSC;2002-09-30 13:00;METAR CYSC 301300Z 10002KT 15SM BKN040 09/07 A3019 RMK SC5 CU EMBDD SLP230
CYSC;2002-09-30 14:00;METAR CYSC 301400Z 28002KT 15SM BKN036 11/08 A3019 RMK SC7 SLP230
CYSC;2002-09-30 15:00;METAR CYSC 301500Z 00000KT 15SM OVC034 12/09 A3016 RMK SC8 SLP220
CYSC;2002-09-30 16:00;METAR CYSC 301600Z 00000KT 15SM BKN028 OVC080 14/10 A3014 RMK SC6AC2 SLP212
CYSC;2002-09-30 17:00;METAR CYSC 301700Z 00000KT 6SM -RA BR BKN013 OVC080 13/12 A3014 RMK SF6AC2
CYSC;2002-09-30 18:00;METAR CYSC 301800Z 09002KT 12SM SCT027 BKN085 16/14 A3011 RMK SC3AC2 SLP200
CYSC;2002-09-30 19:00;METAR CYSC 301900Z 00000KT 15SM SCT045 OVC073 17/14 A3010 RMK SC4AC3 SLP197
CYSC;2002-09-30 20:00;METAR CYSC 302000Z 24002KT 12SM BKN065 BKN097 18/15 A3008 RMK SC5AC2 SLP191
CYSC;2002-09-30 21:00;METAR CYSC 302100Z 23005KT 10SM -RA BKN031 OVC089 16/14 A3008 RMK SC6AC2 LAST MANNED OB/NEXT 011200 SLP191
CYSC;2002-10-01 00:00;METAR CYSC 010000Z AUTO 14002KT 6SM BKN086 13/12 A3000 RMK SLP166
CYSC;2002-10-01 01:00;METAR CYSC 010100Z AUTO 00000KT 2 1/4SM FEW051 SCT060 12/12 A3000 RMK SLP164
CYSC;2002-10-01 02:00;METAR CYSC 010200Z AUTO 00000KT 7SM BKN047 14/13 A3000 RMK SLP164
CYSC;2002-10-01 03:00;METAR CYSC 010300Z AUTO 22003KT 8SM BKN047 15/13 A3000 RMK SLP164
CYSC;2002-10-01 04:00;METAR CYSC 010400Z AUTO 25003KT 8SM FEW048 FEW055 SCT065 15/13 A3001 RMK SLP165
CYSC;2002-10-01 05:00;METAR CYSC 010500Z AUTO 00000KT 7SM CLR 12/11 A3001 RMK SLP166
CYSC;2002-10-01 06:00;METAR CYSC 010600Z AUTO 20002KT 8SM FEW075 13/12 A3000 RMK SLP163
CYSC;2002-10-01 07:00;METAR CYSC 010700Z AUTO 18002KT 7SM CLR 14/12 A2998 RMK SLP155
CYSC;2002-10-01 08:00;METAR CYSC 010800Z AUTO 00000KT 3SM CLR 11/11 A2998 RMK SLP155
CYSC;2002-10-01 09:00;METAR CYSC 010900Z AUTO 00000KT 2 3/8SM CLR 10/10 A2998 RMK SLP156
CYSC;2002-10-01 10:00;METAR CYSC 011000Z AUTO 21002KT 3 1/2SM CLR 10/09 A2997 RMK SLP154
CYSC;2002-10-01 11:00;METAR CYSC 011100Z AUTO 25002KT 3SM CLR 09/09 A2997 RMK SLP154
CYSC;2002-10-01 12:00;METAR CYSC 011200Z 00000KT 10SM FEW120 FEW250 14/13 A2997 RMK AC2CI0 SLP152
CYSC;2002-10-01 13:00;METAR CYSC 011300Z 21003KT 10SM FEW120 FEW250 19/14 A2997 RMK AC2CI0 HAZY
CYSC;2002-10-01 14:00;METAR CYSC 011400Z 20004KT 12SM FEW120 FEW250 21/15 A2996 RMK AC1CI0 SLP148
CYSC;2002-10-01 15:00;METAR CYSC 011500Z 23009KT 12SM FEW120 FEW250 23/16 A2993 RMK AC2CI0 SLP136
CYSC;2002-10-01 16:00;METAR CYSC 011600Z 24010KT 12SM FEW056 SCT120 BKN250 24/17 A2990 RMK SC2AC1CI1 SLP127
CYSC;2002-10-01 17:00;METAR CYSC 011700Z 23011G16KT 12SM SCT044 BKN250 25/17 A2988 RMK CU3CI1 SLP119
CYSC;2002-10-01 18:00;METAR CYSC 011800Z 22010G20KT 15SM FEW039 SCT090 BKN250 26/17 A2985 RMK CU2AC2CI1 SLP109
CYSC;2002-10-01 19:00;METAR CYSC 011900Z 24009G17KT 15SM BKN043 BKN094 BKN250 26/17 A2984 RMK CU5AC1CI0 TCU ASOCTD SLP106
CYSC;2002-10-01 20:00;METAR CYSC 012000Z 26016G27KT 15SM SCT037 SCT100 BKN250 25/17 A2985 RMK CU3AC1CI0 SLP109
CYSC;2002-10-01 21:00;METAR CYSC 012100Z 25009KT 15SM BKN039 BKN085 23/17 A2986 RMK CU6AC2 TCU EMBDD LAST MANNED OB/NEXT 021200 SLP112
CYSC;2002-10-01 22:00;METAR CYSC 012200Z AUTO 26006KT 9SM BKN035 22/17 A2988 RMK SLP120
CYSC;2002-10-01 23:00;METAR CYSC 012300Z AUTO 23003KT 8SM FEW041 FEW046 FEW081 21/17 A2989 RMK SLP126
CYSC;2002-10-02 00:00;METAR CYSC 020000Z AUTO 25003KT 6SM CLR 19/16 A2989 RMK SLP125
CYSC;2002-10-02 01:00;METAR CYSC 020100Z AUTO 22004KT 5SM CLR 19/16 A2990 RMK SLP126
CYSC;2002-10-02 02:00;METAR CYSC 020200Z AUTO 22005KT 5SM CLR 18/16 A2990 RMK SLP124
CYSC;2002-10-02 03:00;METAR CYSC 020300Z AUTO 22005KT 5SM FEW032 19/16 A2989 RMK SLP123
CYSC;2002-10-02 04:00;METAR CYSC 020400Z AUTO 21005KT 5SM FEW030 19/16 A2989 RMK SLP122
CYSC;2002-10-02 05:00;METAR CYSC 020500Z AUTO 21004KT 5SM BKN028 19/16 A2989 RMK SLP122
CYSC;2002-10-02 06:00;METAR CYSC 020600Z AUTO 20003KT 6SM FEW032 FEW072 19/16 A2989 RMK SLP121
CYSC;2002-10-02 07:00;METAR CYSC 020700Z AUTO 20004KT 6SM CLR 18/16 A2987 RMK SLP115
CYSC;2002-10-02 08:00;METAR CYSC 020800Z AUTO 21004KT 6SM FEW027 FEW047 FEW053 18/16 A2985 RMK SLP109
CYSC;2002-10-02 09:00;METAR CYSC 020900Z AUTO 21003KT 6SM CLR 18/16 A2985 RMK SLP108
CYSC;2002-10-02 10:00;METAR CYSC 021000Z AUTO 20004KT 5SM FEW035 18/16 A2985 RMK SLP108
CYSC;2002-10-02 11:00;METAR CYSC 021100Z AUTO 21004KT 5SM FEW024 FEW032 18/16 A2986 RMK SLP111
CYSC;2002-10-02 12:00;METAR CYSC 021200Z 23006KT 10SM BKN022 BKN120 19/17 A2987 RMK CU5AC1 HAZY SLP116
CYSC;2002-10-02 13:00;METAR CYSC 021300Z 22004KT 10SM BKN020 BKN120 BKN250 20/17 A2986 RMK CU5AC1CI0 HAZY SLP113
CYSC;2002-10-02 14:00;METAR CYSC 021400Z 26005KT 12SM BKN018 BKN082 BKN250 21/18 A2986 RMK CU5AC2CI0 HAZY SLP111
CYSC;2002-10-02 15:00;METAR CYSC 021500Z 25006KT 10SM BKN018 BKN085 OVC250 21/18 A2986 RMK CU6AC2CI0 HAZY SLP112
CYSC;2002-10-02 17:00;METAR CYSC 021700Z 25008KT 10SM BKN016 BKN090 OVC250 22/18 A2984 RMK SC6AC1CI1 CU EMBDD SLP106
CYSC;2002-10-02 18:00;METAR CYSC 021800Z 24010KT 10SM BKN029 23/18 A2982 RMK CU6 HAZY SLP099
CYSC;2002-10-02 19:00;METAR CYSC 021900Z 25007KT 12SM BKN026 23/18 A2982 RMK CU6 TCU ASOCTD SLP097
CYSC;2002-10-02 20:00;METAR CYSC 022000Z 25010G15KT 12SM SCT028 SCT250 23/17 A2982 RMK CU3CI0 TCU ASOCTD SLP096
CYSC;2002-10-02 21:00;METAR CYSC 022100Z 26007KT 12SM SCT029 SCT110 BKN250 23/17 A2982 RMK CU3AC1CI1 FEW TCU LAST MANNED OB/NEXT 031200 SLP098
CYSC;2002-10-02 22:00;METAR CYSC 022200Z AUTO 25006KT 8SM CLR 21/16 A2981 RMK SLP097
CYSC;2002-10-02 23:00;METAR CYSC 022300Z AUTO 22004KT 7SM CLR 19/16 A2981 RMK SLP097
CYSC;2002-10-03 00:00;METAR CYSC 030000Z AUTO 22005KT 6SM CLR 19/17 A2981 RMK SLP097
CYSC;2002-10-03 01:00;METAR CYSC 030100Z AUTO 24005KT 6SM SCT088 20/17 A2982 RMK SLP100
CYSC;2002-10-03 02:00;METAR CYSC 030200Z AUTO 34007KT 7SM FEW016 FEW023 FEW034 SCT046 18/14 A2983 RMK SLP103
CYSC;2002-10-03 03:00;METAR CYSC 030300Z AUTO 32003KT 9SM -RA FEW067 OVC085 16/12 A2985 RMK SLP108
CYSC;2002-10-03 04:00;METAR CYSC 030400Z AUTO 30004KT 9SM -RA FEW067 14/12 A2986 RMK SLP114
CYSC;2002-10-03 05:00;METAR CYSC 030500Z AUTO 33004KT 9SM FEW081 FEW094 13/11 A2986 RMK SLP113
CYSC;2002-10-03 06:00;METAR CYSC 030600Z AUTO 33007KT 9SM -RA SCT037 BKN088 12/10 A2988 RMK SLP121
CYSC;2002-10-03 07:00;METAR CYSC 030700Z AUTO 32005KT 9SM BKN037 11/09 A2990 RMK SLP128
CYSC;2002-10-03 08:00;METAR CYSC 030800Z AUTO 00000KT 9SM OVC037 OVC073 10/07 A2992 RMK SLP135
CYSC;2002-10-03 09:00;METAR CYSC 030900Z AUTO 31005KT 9SM -RA BKN032 09/07 A2995 RMK SLP144
CYSC;2002-10-03 10:00;METAR CYSC 031000Z AUTO 30006KT 9SM SCT034 08/06 A2998 RMK SLP155
CYSC;2002-10-03 11:00;METAR CYSC 031100Z AUTO 30003KT 9SM FEW019 07/05 A3001 RMK SLP166
CYSC;2002-10-03 12:00;METAR CYSC 031200Z 34002KT 15SM FEW033 BKN065 BKN090 07/03 A3005 RMK SC2SC3AC2 SLP180
CYSC;2002-10-03 13:00;METAR CYSC 031300Z 31004KT 15SM FEW030 SCT065 BKN100 07/03 A3008 RMK SC1SC3AC2 SLP188
CYSC;2002-10-03 14:00;METAR CYSC 031400Z 34007KT 15SM FEW040 BKN088 BKN120 09/03 A3009 RMK SC1AC5AC2 SLP194
CYSC;2002-10-03 15:00;METAR CYSC 031500Z 01007KT 15SM FEW036 FEW085 BKN130 09/01 A3012 RMK CF1AC2AC3 SLP204
CYSC;2002-10-03 16:00;METAR CYSC 031600Z 01005KT 15SM FEW038 FEW085 FEW140 SCT240 11/01 A3013 RMK CU1AC2AC1CI0 CU TR SLP207
CYSC;2002-10-03 17:00;METAR CYSC 031700Z 28003KT 15SM FEW040 FEW140 FEW240 12/01 A3012 RMK CU1AC1CI0 SLP205
CYSC;2002-10-03 18:00;METAR CYSC 031800Z 33007KT 15SM FEW045 FEW100 FEW240 13/00 A3012 RMK CU1AC1CI0 CU TR SLP203
CYSC;2002-10-03 19:00;METAR CYSC 031900Z 36003KT 15SM FEW100 FEW240 13/M01 A3012 RMK AC1CI1 AC TR SLP205
CYSC;2002-10-03 20:00;METAR CYSC 032000Z 03004KT 15SM FEW240 13/M00 A3014 RMK CI2 SLP210
CYSC;2002-10-03 21:00;METAR CYSC 032100Z 32005KT 15SM FEW100 SCT240 11/00 A3016 RMK AC1CI2 LAST MANNED OB/NEXT 041200 SLP218
CYSC;2002-10-03 22:00;METAR CYSC 032200Z AUTO 30004KT 9SM CLR 09/01 A3017 RMK SLP225
CYSC;2002-10-03 23:00;METAR CYSC 032300Z AUTO 26002KT 9SM CLR 06/01 A3019 RMK SLP233
CYSC;2002-10-04 00:00;METAR CYSC 040000Z AUTO 00000KT 9SM CLR 02/00 A3021 RMK SLP241
CYSC;2002-10-04 01:00;METAR CYSC 040100Z AUTO 11003KT 9SM CLR 02/01 A3023 RMK SLP246
CYSC;2002-10-04 02:00;METAR CYSC 040200Z AUTO 09004KT 9SM CLR 02/00 A3023 RMK SLP247
CYSC;2002-10-04 04:00;METAR CYSC 040400Z AUTO 07004KT 9SM CLR 01/M00 A3025 RMK SLP251
CYSC;2002-10-04 05:00;METAR CYSC 040500Z AUTO 08004KT 9SM CLR 00/M01 A3025 RMK SLP252
CYSC;2002-10-04 06:00;METAR CYSC 040600Z AUTO 09005KT 9SM CLR 00/M01 A3024 RMK SLP248
CYSC;2002-10-04 07:00;METAR CYSC 040700Z AUTO 06003KT 9SM FEW031 00/M01 A3022 RMK SLP244
CYSC;2002-10-04 08:00;METAR CYSC 040800Z AUTO 07003KT 9SM OVC031 01/M00 A3023 RMK ICG PAST HR SLP246
CYSC;2002-10-04 09:00;METAR CYSC 040900Z AUTO 08004KT 9SM BKN026 00/M01 A3023 RMK SLP245
CYSC;2002-10-04 10:00;METAR CYSC 041000Z AUTO 07003KT 9SM CLR 00/M01 A3022 RMK SLP245
CYSC;2002-10-04 11:00;METAR CYSC 041100Z AUTO 09004KT 9SM FEW030 M00/M01 A3023 RMK SLP248
CYSC;2002-10-04 12:00;METAR CYSC 041200Z CCA 07003KT 15SM SCT028 SCT140 02/01 A3022 RMK SC3AC1 CF ASOCTD SLP245
CYSC;2002-10-04 13:00;METAR CYSC 041300Z 08004KT 15SM SCT028 SCT140 07/04 A3021 RMK SC4AC1 SLP240
CYSC;2002-10-04 14:00;METAR CYSC 041400Z 16007KT 15SM FEW026 SCT075 SCT240 11/06 A3019 RMK SC2AC2CI1 SLP234
CYSC;2002-10-04 15:00;METAR CYSC 041500Z 16010KT 15SM BKN026 BKN070 13/07 A3017 RMK SC6AC1 SLP224
CYSC;2002-10-04 16:00;METAR CYSC 041600Z 16011KT 15SM FEW015 BKN026 OVC060 14/08 A3015 RMK CF1SC5SC2 SLP216
CYSC;2002-10-04 17:00;METAR CYSC 041700Z 16011KT 15SM BKN026 OVC069 12/07 A3013 RMK SC6AC2 SLP210
CYSC;2002-10-04 18:00;METAR CYSC 041800Z 17013KT 15SM OVC026 13/07 A3009 RMK SC8 SLP197
CYSC;2002-10-04 19:00;METAR CYSC 041900Z 17007KT 10SM -SHRA SCT020 OVC026 12/08 A3007 RMK SC3SC5 SLP190
CYSC;2002-10-04 20:00;METAR CYSC 042000Z 16009KT 15SM OVC026 12/08 A3004 RMK SC8 SLP179
CYSC;2002-10-04 21:00;METAR CYSC 042100Z 17007KT 15SM OVC024 12/08 A3002 RMK SC8 LAST MANNED OB/NEXT 051200 SLP172
CYSC;2002-10-05 00:00;METAR CYSC 050000Z AUTO 16009KT 9SM OVC022 13/09 A2994 RMK SLP145
CYSC;2002-10-05 01:00;METAR CYSC 050100Z AUTO 15007KT 9SM OVC020 14/10 A2990 RMK SLP132
CYSC;2002-10-05 02:00;METAR CYSC 050200Z AUTO 17007KT 9SM OVC020 14/10 A2987 RMK SLP121
CYSC;2002-10-05 03:00;METAR CYSC 050300Z AUTO 16010KT 9SM OVC020 14/11 A2980 RMK PRESFR SLP093
CYSC;2002-10-05 04:00;METAR CYSC 050400Z AUTO 17006G16KT 9SM BKN022 15/12 A2974 RMK PRESFR SLP072
CYSC;2002-10-05 05:00;METAR CYSC 050500Z AUTO 17010G20KT 9SM OVC022 17/13 A2968 RMK SLP054
CYSC;2002-10-05 06:00;METAR CYSC 050600Z AUTO 17015G20KT 9SM BKN024 18/14 A2962 RMK SLP034
CYSC;2002-10-05 07:00;METAR CYSC 050700Z AUTO 18014G28KT 9SM -RA FEW024 FEW075 19/15 A2957 RMK SLP014
CYSC;2002-10-05 08:00;METAR CYSC 050800Z AUTO 18015G27KT 4SM -RA BKN021 OVC057 18/16 A2950 RMK PCPN 1.0MM PAST HR PRESFR SLP994
CYSC;2002-10-05 09:00;METAR CYSC 050900Z AUTO 20016G25KT 6SM -RA SCT019 BKN042 BKN051 OVC063 18/16 A2951 RMK SLP997
CYSC;2002-10-05 10:00;METAR CYSC 051000Z AUTO 21015G20KT 9SM -RA OVC013 18/16 A2955 RMK PCPN 0.5MM PAST HR SLP007
CYSC;2002-10-05 11:00;METAR CYSC 051100Z AUTO 22009G16KT 9SM SCT026 SCT058 BKN069 17/16 A2959 RMK SLP024
CYSC;2002-10-05 12:00;METAR CYSC 051200Z 24008KT 15SM SCT031 SCT048 BKN080 17/15 A2962 RMK CF3SC1AC1 CU ASOCTD SLP032
CYSC;2002-10-05 13:00;METAR CYSC 051300Z 23011G16KT 15SM FEW035 FEW052 SCT080 18/14 A2963 RMK SC2SC1AC1 CU ASOCTD SLP037
CYSC;2002-10-05 14:00;METAR CYSC 051400Z 23012G17KT 15SM FEW035 SCT060 20/13 A2965 RMK SC2SC2 CU ASOCTD SLP041
CYSC;2002-10-05 15:00;METAR CYSC 051500Z 26015G25KT 15SM BKN034 BKN060 22/13 A2967 RMK SC5SC1 CU ASOCTD SLP048
CYSC;2002-10-05 16:00;METAR CYSC 051600Z 27017G28KT 15SM SCT034 BKN055 BKN090 19/12 A2969 RMK CU3SC2AC1 SLP055
CYSC;2002-10-05 17:00;METAR CYSC 051700Z 25012G19KT 15SM BKN041 BKN055 BKN099 19/11 A2972 RMK SC6SC2AC1 CU ASOCTD SLP066
CYSC;2002-10-05 18:00;METAR CYSC 051800Z 25016G25KT 15SM BKN032 BKN060 18/11 A2976 RMK SC6SC1 CU ASOCTD SLP079
CYSC;2002-10-05 19:00;METAR CYSC 051900Z CCA 27017G24KT 15SM SCT039 BKN065 BKN240 19/10 A2979 RMK SC3SC2CI0 CU ASOCTD SLP089
CYSC;2002-10-05 20:00;METAR CYSC 052000Z 25013G21KT 15SM BKN028 BKN065 16/09 A2985 RMK SC5SC2 CF ASOCTD PRESRR SLP107
CYSC;2002-10-05 21:00;METAR CYSC 052100Z CCA 27014G20KT 15SM BKN030 BKN065 14/09 A2989 RMK SC6SC1 LAST MANNED OB/NEXT 061200 CU EMBDD SLP124
CYSC;2002-10-05 22:00;METAR CYSC 052200Z AUTO 28006KT 9SM BKN036 BKN093 13/08 A2994 RMK SLP141
CYSC;2002-10-05 23:00;METAR CYSC 052300Z AUTO 29008KT 9SM SCT034 12/07 A2997 RMK SLP153
CYSC;2002-10-06 00:00;METAR CYSC 060000Z AUTO 28008KT 9SM SCT030 SCT042 BKN051 11/06 A3003 RMK PRESRR SLP174
CYSC;2002-10-06 01:00;METAR CYSC 060100Z AUTO 28007KT 9SM CLR 09/03 A3007 RMK SLP185
CYSC;2002-10-06 02:00;METAR CYSC 060200Z AUTO 27006KT 9SM CLR 06/03 A3010 RMK SLP197
CYSC;2002-10-06 03:00;METAR CYSC 060300Z AUTO 24004KT 9SM CLR 06/03 A3012 RMK SLP205
CYSC;2002-10-06 04:00;METAR CYSC 060400Z AUTO 23002KT 9SM CLR 03/01 A3014 RMK SLP212
CYSC;2002-10-06 05:00;METAR CYSC 060500Z AUTO 25002KT 9SM CLR 03/01 A3016 RMK SLP217
CYSC;2002-10-06 06:00;METAR CYSC 060600Z AUTO 28004KT 9SM CLR 02/00 A3017 RMK SLP223
CYSC;2002-10-06 07:00;METAR CYSC 060700Z AUTO 26002KT 9SM CLR 01/00 A3019 RMK SLP230
CYSC;2002-10-06 08:00;METAR CYSC 060800Z AUTO 25002KT 9SM CLR 02/01 A3021 RMK SLP238
CYSC;2002-10-06 09:00;METAR CYSC 060900Z AUTO 28002KT 9SM CLR M00/M01 A3024 RMK SLP247
CYSC;2002-10-06 10:00;METAR CYSC 061000Z AUTO 00000KT 9SM CLR M01/M02 A3025 RMK SLP254
CYSC;2002-10-06 11:00;METAR CYSC 061100Z AUTO 10002KT 9SM CLR M02/M03 A3028 RMK ICG PAST HR SLP265
CYSC;2002-10-06 12:00;METAR CYSC 061200Z 12002KT 15SM SKC 01/00 A3031 RMK FROIN SLP272
CYSC;2002-10-06 13:00;METAR CYSC 061300Z 00000KT 15SM SKC 06/04 A3034 RMK SLP282
CYSC;2002-10-06 14:00;METAR CYSC 061400Z 16002KT 15SM FEW020 FEW240 08/03 A3034 RMK CU1CI0 SLP283
CYSC;2002-10-06 15:00;METAR CYSC 061500Z 11002KT 15SM FEW025 FEW240 11/01 A3033 RMK CU1CI0 SLP279
CYSC;2002-10-06 16:00;METAR CYSC 061600Z 00000KT 15SM FEW030 FEW140 FEW240 12/01 A3033 RMK CU1AC1CI0 CU TR SLP277
CYSC;2002-10-06 17:00;METAR CYSC 061700Z 23003KT 15SM FEW240 12/M00 A3029 RMK CI1 SLP265
CYSC;2002-10-06 18:00;METAR CYSC 061800Z 32003KT 15SM FEW240 13/01 A3028 RMK CI1 SLP261
CYSC;2002-10-06 19:00;METAR CYSC 061900Z 21002KT 15SM FEW240 14/00 A3026 RMK CI1 SLP254
CYSC;2002-10-06 20:00;METAR CYSC 062000Z 00000KT 15SM FEW120 FEW240 14/01 A3022 RMK AC1CI1 SLP241
CYSC;2002-10-06 21:00;METAR CYSC 062100Z 10004KT 15SM FEW240 13/00 A3020 RMK CI1 LAST MANNED OB/NEXT 071200 SLP234
CYSC;2002-10-06 22:00;METAR CYSC 062200Z AUTO 04003KT 9SM CLR 11/03 A3020 RMK SLP237
CYSC;2002-10-06 23:00;METAR CYSC 062300Z AUTO 06005KT 9SM CLR 08/02 A3018 RMK SLP230
CYSC;2002-10-07 00:00;METAR CYSC 070000Z AUTO 09005KT 9SM CLR 07/03 A3017 RMK SLP226
CYSC;2002-10-07 01:00;METAR CYSC 070100Z AUTO 08006KT 9SM CLR 06/02 A3015 RMK SLP217
CYSC;2002-10-07 02:00;METAR CYSC 070200Z AUTO 09004KT 9SM CLR 06/03 A3014 RMK SLP215
CYSC;2002-10-07 03:00;METAR CYSC 070300Z AUTO 09004KT 9SM CLR 06/03 A3011 RMK SLP204
CYSC;2002-10-07 04:00;METAR CYSC 070400Z AUTO 10010KT 9SM CLR 09/04 A3009 RMK SLP194
CYSC;2002-10-07 05:00;METAR CYSC 070500Z AUTO 13008KT 9SM CLR 09/04 A3005 RMK SLP183
CYSC;2002-10-07 06:00;METAR CYSC 070600Z AUTO 13010KT 9SM CLR 09/04 A3002 RMK SLP171
CYSC;2002-10-07 07:00;METAR CYSC 070700Z AUTO 15008KT 9SM CLR 09/04 A3000 RMK SLP165
CYSC;2002-10-07 08:00;METAR CYSC 070800Z AUTO 14011G17KT 9SM FEW058 10/03 A2996 RMK SLP152
CYSC;2002-10-07 09:00;METAR CYSC 070900Z AUTO 14010KT 9SM BKN041 BKN056 BKN063 10/02 A2994 RMK SLP144
CYSC;2002-10-07 10:00;METAR CYSC 071000Z AUTO 14009G15KT 9SM OVC037 10/02 A2990 RMK SLP132
CYSC;2002-10-07 11:00;METAR CYSC 071100Z AUTO 16009KT 9SM OVC033 10/02 A2988 RMK SLP126
CYSC;2002-10-07 12:00;METAR CYSC 071200Z 16009G15KT 15SM OVC029 10/02 A2985 RMK SC8 SLP113
CYSC;2002-10-07 13:00;METAR CYSC 071300Z 17005KT 15SM OVC025 11/04 A2982 RMK SC8 SLP105
CYSC;2002-10-07 14:00;METAR CYSC 071400Z 17008KT 15SM BKN025 OVC063 12/07 A2979 RMK SC6SC2 CF ASOCTD SLP093
CYSC;2002-10-07 15:00;METAR CYSC 071500Z 20014G22KT 15SM BKN030 BKN040 OVC067 14/09 A2978 RMK SC6SC2AC1 SLP090
CYSC;2002-10-07 16:00;METAR CYSC 071600Z 21009G17KT 12SM -SHRA FEW014 BKN030 OVC048 12/09 A2979 RMK CF1SC4SC3 SLP093
CYSC;2002-10-07 17:00;METAR CYSC 071700Z CCA 21010G15KT 15SM BKN031 BKN047 BKN069 13/09 A2979 RMK SC5SC2AC1 CU ASOCTD SLP092
CYSC;2002-10-07 18:00;METAR CYSC 071800Z CCA 22013KT 15SM BKN033 BKN070 15/09 A2979 RMK CU5AC2
CYSC;2002-10-07 19:00;METAR CYSC 071900Z 24017G22KT 15SM SCT035 BKN057 BKN080 16/08 A2978 RMK CU3SC2AC1 SLP089
CYSC;2002-10-07 20:00;METAR CYSC 072000Z 27020G25KT 15SM FEW040 SCT065 BKN220 16/04 A2981 RMK CU2SC2CI1 SLP097
CYSC;2002-10-07 21:00;METAR CYSC 072100Z 26016KT 15SM FEW040 FEW065 SCT220 15/03 A2984 RMK CU1SC1CI1 LAST MANNED OB/NEXT 081200 SLP109
CYSC;2002-10-07 22:00;METAR CYSC 072200Z AUTO 26013G19KT 9SM CLR 13/03 A2987 RMK SLP121
CYSC;2002-10-07 23:00;METAR CYSC 072300Z AUTO 27012KT 9SM CLR 11/01 A2991 RMK SLP135
CYSC;2002-10-08 00:00;METAR CYSC 080000Z AUTO 26008KT 9SM CLR 09/M00 A2996 RMK SLP151
CYSC;2002-10-08 01:00;METAR CYSC 080100Z AUTO 28007KT 9SM FEW062 07/M00 A2998 RMK SLP161
CYSC;2002-10-08 02:00;METAR CYSC 080200Z AUTO 29005KT 9SM CLR 06/M00 A3000 RMK SLP167
CYSC;2002-10-08 03:00;METAR CYSC 080300Z AUTO 23002KT 9SM CLR 03/M01 A3001 RMK SLP171
CYSC;2002-10-08 04:00;METAR CYSC 080400Z AUTO 27003KT 9SM CLR 01/M02 A3001 RMK SLP172
CYSC;2002-10-08 05:00;METAR CYSC 080500Z AUTO 19003KT 9SM CLR M00/M02 A3005 RMK SLP184
CYSC;2002-10-08 06:00;METAR CYSC 080600Z AUTO 00000KT 9SM FEW075 M00/M02 A3007 RMK SLP191
CYSC;2002-10-08 07:00;METAR CYSC 080700Z AUTO 25003KT 9SM FEW070 M02/M03 A3009 RMK SLP199
CYSC;2002-10-08 08:00;METAR CYSC 080800Z AUTO 00000KT 9SM CLR M02/M04 A3011 RMK SLP203
CYSC;2002-10-08 09:00;METAR CYSC 080900Z AUTO 27004KT 9SM CLR M01/M02 A3014 RMK SLP213
CYSC;2002-10-08 10:00;METAR CYSC 081000Z AUTO 25005KT 9SM CLR M00/M02 A3017 RMK SLP226
CYSC;2002-10-08 11:00;METAR CYSC 081100Z AUTO 29004KT 9SM CLR M02/M03 A3020 RMK SLP237
CYSC;2002-10-08 12:00;METAR CYSC 081200Z 27004KT 15SM FEW120 00/M01 A3025 RMK AC1 SLP252
CYSC;2002-10-08 13:00;METAR CYSC 081300Z 30009KT 15SM FEW020 FEW070 02/M02 A3027 RMK CF1AC1 AC TR SLP259
CYSC;2002-10-08 14:00;METAR CYSC 081400Z 28010G16KT 15SM FEW021 04/M03 A3029 RMK CU2 SLP267
CYSC;2002-10-08 15:00;METAR CYSC 081500Z 30007KT 15SM FEW030 05/M04 A3031 RMK CU2 SLP272
CYSC;2002-10-08 16:00;METAR CYSC 081600Z 27011G16KT 15SM FEW034 FEW120 06/M04 A3031 RMK CU2AC1 SLP272
CYSC;2002-10-08 17:00;METAR CYSC 081700Z 27005KT 15SM FEW040 FEW240 06/M04 A3028 RMK CU1CI0 SLP264
CYSC;2002-10-08 18:00;METAR CYSC 081800Z 32007KT 15SM FEW045 FEW240 07/M05 A3028 RMK CU1CI0 SLP263
CYSC;2002-10-09 00:00;METAR CYSC 090000Z AUTO 00000KT 9SM CLR M02/M04 A3032 RMK SLP280
CYSC;2002-10-09 01:00;METAR CYSC 090100Z AUTO 12002KT 9SM CLR M03/M05 A3033 RMK SLP284
CYSC;2002-10-09 02:00;METAR CYSC 090200Z AUTO 00000KT 9SM CLR M03/M05 A3035 RMK SLP290
CYSC;2002-10-09 03:00;METAR CYSC 090300Z AUTO 10004KT 9SM CLR M04/M05 A3036 RMK SLP292
CYSC;2002-10-09 04:00;METAR CYSC 090400Z AUTO 10004KT 9SM CLR M03/M05 A3036 RMK ICG PAST HR SLP293
CYSC;2002-10-09 05:00;METAR CYSC 090500Z AUTO 07004KT 9SM CLR M03/M05 A3037 RMK ICG PAST HR SLP295
CYSC;2002-10-09 06:00;METAR CYSC 090600Z AUTO 07002KT 9SM CLR M03/M05 A3037 RMK SLP297
CYSC;2002-10-09 07:00;METAR CYSC 090700Z AUTO 08002KT 9SM BKN091 M03/M04 A3036 RMK SLP293
CYSC;2002-10-09 08:00;METAR CYSC 090800Z AUTO 08003KT 9SM CLR M03/M04 A3036 RMK SLP293
CYSC;2002-10-09 09:00;METAR CYSC 090900Z AUTO 05003KT 9SM CLR M02/M04 A3036 RMK ICG PAST HR SLP292
CYSC;2002-10-09 10:00;METAR CYSC 091000Z AUTO 05004KT 9SM OVC091 M02/M03 A3036 RMK SLP293
CYSC;2002-10-09 11:00;METAR CYSC 091100Z AUTO 08003KT 9SM OVC078 M02/M03 A3037 RMK SLP297
CYSC;2002-10-09 12:00;METAR CYSC 091200Z 05003KT 15SM BKN074 BKN120 OVC220 M01/M02 A3037 RMK AC5AC2CI1 SLP297
CYSC;2002-10-09 13:00;METAR CYSC 091300Z 06004KT 15SM BKN071 OVC120 01/M01 A3037 RMK AC6AC2 SLP296
CYSC;2002-10-09 14:00;METAR CYSC 091400Z 03003KT 15SM FEW030 OVC067 03/M01 A3038 RMK SC1AC7 SLP302
CYSC;2002-10-09 15:00;METAR CYSC 091500Z 06004KT 15SM FEW034 BKN069 OVC099 04/M00 A3036 RMK SC2AC4AC2 SLP293
CYSC;2002-10-09 16:00;METAR CYSC 091600Z 05003KT 15SM FEW041 BKN070 BKN099 06/00 A3034 RMK SC2AC3AC2 SLP288
CYSC;2002-10-09 17:00;METAR CYSC 091700Z 15006KT 15SM BKN053 OVC093 10/M01 A3032 RMK SC5AC2 SLP281
CYSC;2002-10-09 18:00;METAR CYSC 091800Z 15006KT 15SM FEW052 BKN072 OVC093 10/M01 A3031 RMK SC2AC6AC1 SLP272
CYSC;2002-10-09 19:00;METAR CYSC 091900Z 00000KT 10SM -RA OVC027 10/02 A3030 RMK SC8 SLP269
CYSC;2002-10-11 00:00;METAR CYSC 110000Z AUTO 00000KT 6SM FEW068 07/06 A3033 RMK SLP278
CYSC;2002-10-11 01:00;METAR CYSC 110100Z AUTO 11003KT 4SM SCT034 SCT069 07/07 A3033 RMK SLP279
CYSC;2002-10-11 02:00;METAR CYSC 110200Z AUTO 10003KT 5SM FEW067 06/05 A3033 RMK SLP279
CYSC;2002-10-11 03:00;METAR CYSC 110300Z AUTO 00000KT 2SM CLR 06/05 A3033 RMK SLP278
CYSC;2002-10-11 04:00;METAR CYSC 110400Z AUTO 06002KT 4SM FEW023 08/08 A3033 RMK SLP276
CYSC;2002-10-11 05:00;METAR CYSC 110500Z AUTO 10003KT 5SM OVC019 OVC046 OVC064 09/08 A3032 RMK SLP275
CYSC;2002-10-11 06:00;METAR CYSC 110600Z AUTO 02002KT 5SM OVC021 OVC047 OVC071 09/08 A3033 RMK SLP278
CYSC;2002-10-11 07:00;METAR CYSC 110700Z AUTO 00000KT 6SM OVC020 08/08 A3034 RMK SLP280
CYSC;2002-10-11 08:00;METAR CYSC 110800Z AUTO 00000KT 6SM OVC018 09/09 A3034 RMK SLP280
CYSC;2002-10-11 09:00;METAR CYSC 110900Z AUTO 12003KT 6SM OVC016 OVC022 10/09 A3035 RMK SLP284
CYSC;2002-10-11 10:00;METAR CYSC 111000Z AUTO 00000KT 7SM OVC016 OVC027 10/09 A3037 RMK SLP289
CYSC;2002-10-11 11:00;METAR CYSC 111100Z AUTO 00000KT 7SM OVC016 OVC033 10/09 A3037 RMK SLP292 SLP298
CYSC;2002-10-11 13:00;METAR CYSC 111300Z 00000KT 15SM BKN018 BKN035 12/10 A3040 RMK SC6SC1 SLP300
CYSC;2002-10-11 14:00;METAR CYSC 111400Z 15004KT 15SM FEW015 BKN020 OVC055 13/10 A3041 RMK CF1SC5SC2 SLP303
CYSC;2002-10-11 15:00;METAR CYSC 111500Z 16003KT 15SM BKN017 OVC058 14/10 A3041 RMK SC7SC1 SLP305
CYSC;2002-10-11 16:00;METAR CYSC 111600Z 17004KT 15SM OVC017 14/10 A3041 RMK SC8 SLP304
CYSC;2002-10-11 17:00;METAR CYSC 111700Z 14003KT 15SM BKN019 OVC050 14/10 A3040 RMK SC6SC2 SLP301
CYSC;2002-10-11 18:00;METAR CYSC 111800Z 14006KT 15SM SCT023 SCT058 BKN240 16/10 A3038 RMK SC3SC1CI0 CU ASOCTD SLP294
CYSC;2002-10-11 19:00;METAR CYSC 111900Z 10005KT 15SM BKN023 BKN067 OVC240 15/10 A3038 RMK SC5AC2CI0 SLP293
CYSC;2002-10-11 20:00;METAR CYSC 112000Z 10002KT 15SM BKN029 BKN063 OVC240 16/10 A3038 RMK SC6SC2CI0 SLP292
CYSC;2002-10-11 21:00;METAR CYSC 112100Z 13007KT 15SM FEW030 BKN067 BKN240 15/10 A3037 RMK SC2AC3CI0 LAST MANNED OB/NEXT 121200 SLP291
CYSC;2002-10-11 22:00;METAR CYSC 112200Z AUTO 13006KT 9SM OVC064 14/09 A3038 RMK SLP294
CYSC;2002-10-11 23:00;METAR CYSC 112300Z AUTO 12006KT 9SM BKN070 12/09 A3039 RMK SLP296
CYSC;2002-10-12 00:00;METAR CYSC 120000Z AUTO 11005KT 9SM BKN070 11/08 A3039 RMK SLP299
CYSC;2002-10-12 01:00;METAR CYSC 120100Z AUTO 09004KT 9SM SCT073 10/08 A3040 RMK SLP301
CYSC;2002-10-12 02:00;METAR CYSC 120200Z AUTO 11003KT 9SM BKN069 10/08 A3040 RMK SLP301
CYSC;2002-10-12 03:00;METAR CYSC 120300Z AUTO 07003KT 9SM OVC076 08/07 A3040 RMK SLP301
CYSC;2002-10-12 04:00;METAR CYSC 120400Z AUTO 05004KT 8SM BKN076 08/07 A3040 RMK SLP300
CYSC;2002-10-12 05:00;METAR CYSC 120500Z AUTO 05004KT 9SM OVC073 09/08 A3040 RMK SLP299
CYSC;2002-10-12 06:00;METAR CYSC 120600Z AUTO 04004KT 9SM OVC076 09/07 A3039 RMK SLP296
CYSC;2002-10-12 07:00;METAR CYSC 120700Z AUTO 07004KT 9SM SCT048 BKN085 08/07 A3038 RMK SLP293
CYSC;2002-10-12 08:00;METAR CYSC 120800Z AUTO 10005KT 9SM SCT046 BKN054 08/06 A3038 RMK SLP294
CYSC;2002-10-12 09:00;METAR CYSC 120900Z AUTO 11004KT 9SM FEW054 08/06 A3038 RMK SLP295
CYSC;2002-10-12 10:00;METAR CYSC 121000Z AUTO 04003KT 9SM FEW054 07/05 A3038 RMK SLP295
CYSC;2002-10-12 11:00;METAR CYSC 121100Z AUTO 06005KT 6SM CLR 06/05 A3038 RMK SLP296
CYSC;2002-10-12 12:00;METAR CYSC 121200Z 05007KT 15SM FEW120 FEW250 07/06 A3039 RMK AC2CI0 SLP297
CYSC;2002-10-12 13:00;METAR CYSC 121300Z 06004KT 15SM FEW120 FEW250 10/07 A3039 RMK AC2CI0
CYSC;2002-10-12 14:00;METAR CYSC 121400Z 07003KT 15SM FEW120 SCT250 13/08 A3038 RMK AC2CI1 SLP295
CYSC;2002-10-12 15:00;METAR CYSC 121500Z 14009KT 15SM FEW120 SCT250 16/06 A3037 RMK AC2CI1 SLP290
CYSC;2002-10-12 16:00;METAR CYSC 121600Z 11012KT 15SM FEW120 FEW250 17/05 A3037 RMK AC2CI0 SLP288
CYSC;2002-10-12 17:00;METAR CYSC 121700Z 15009G15KT 15SM SCT085 SCT250 18/06 A3035 RMK AC3CI0 SLP282
CYSC;2002-10-12 18:00;METAR CYSC 121800Z 15007KT 15SM SCT100 SCT250 17/05 A3033 RMK AC3CI0 SLP275
CYSC;2002-10-12 19:00;METAR CYSC 121900Z 14009KT 15SM FEW110 FEW250 18/06 A3031 RMK AC2CI0 SLP269
CYSC;2002-10-12 20:00;METAR CYSC 122000Z 16011KT 15SM FEW110 FEW250 17/04 A3030 RMK AC1CI0 SLP266
CYSC;2002-10-12 21:00;METAR CYSC 122100Z 15010G17KT 15SM FEW110 FEW250 15/03 A3030 RMK AC1CI0 LAST MANNED OB/NEXT 131200 SLP266
CYSC;2002-10-12 22:00;METAR CYSC 122200Z AUTO 13014KT 9SM CLR 13/04 A3030 RMK SLP267
CYSC;2002-10-12 23:00;METAR CYSC 122300Z AUTO 12007KT 9SM CLR 11/05 A3030 RMK SLP268
CYSC;2002-10-13 00:00;METAR CYSC 130000Z AUTO 12004KT 9SM CLR 10/05 A3030 RMK SLP267
CYSC;2002-10-13 01:00;METAR CYSC 130100Z AUTO 10007KT 9SM CLR 10/05 A3029 RMK SLP263
CYSC;2002-10-13 02:00;METAR CYSC 130200Z AUTO 13006KT 9SM CLR 10/05 A3029 RMK SLP262
CYSC;2002-10-13 04:00;METAR CYSC 130400Z AUTO 11002KT 9SM CLR 04/02 A3026 RMK SLP254
CYSC;2002-10-13 05:00;METAR CYSC 130500Z AUTO 14004KT 9SM CLR 07/04 A3024 RMK SLP244
CYSC;2002-10-13 06:00;METAR CYSC 130600Z AUTO 15004KT 9SM CLR 07/04 A3022 RMK SLP239
CYSC;2002-10-13 07:00;METAR CYSC 130700Z AUTO 00000KT 9SM CLR 04/03 A3021 RMK SLP236
CYSC;2002-10-13 08:00;METAR CYSC 130800Z AUTO 14003KT 9SM CLR 03/02 A3019 RMK SLP231
CYSC;2002-10-13 09:00;METAR CYSC 130900Z AUTO 08002KT 8SM CLR 04/03 A3017 RMK SLP223
CYSC;2002-10-13 10:00;METAR CYSC 131000Z AUTO 10003KT 7SM CLR 04/03 A3016 RMK SLP220
CYSC;2002-10-13 11:00;METAR CYSC 131100Z AUTO 00000KT 8SM CLR 03/02 A3015 RMK SLP219
CYSC;2002-10-13 12:00;METAR CYSC 131200Z 00000KT 15SM BKN050 07/07 A3015 RMK SC6 SLP216
CYSC;2002-10-13 13:00;METAR CYSC 131300Z 00000KT 15SM BKN045 11/08 A3014 RMK SC7 SLP212
CYSC;2002-10-13 14:00;METAR CYSC 131400Z 15004KT 15SM SCT016 BKN027 OVC079 13/08 A3012 RMK SC3SC3AC2 SLP207
CYSC;2002-10-13 15:00;METAR CYSC 131500Z 15007KT 15SM -SHRA BKN015 OVC082 14/09 A3010 RMK SC5AC3 SLP199
CYSC;2002-10-13 16:00;METAR CYSC 131600Z 13009KT 15SM -SHRA BKN026 BKN082 14/10 A3007 RMK SC6AC2 CU EMBDD SLP187
CYSC;2002-10-13 17:00;METAR CYSC 131700Z 15011G19KT 15SM FEW041 SCT071 BKN250 18/09 A3002 RMK CU2AC2CI0 SLP172
CYSC;2002-10-13 18:00;METAR CYSC 131800Z 17011G24KT 15SM FEW038 BKN067 BKN250 17/09 A3000 RMK CU2AC3CI0 SLP163
CYSC;2002-10-13 19:00;METAR CYSC 131900Z 16010KT 15SM FEW032 SCT089 BKN250 18/10 A2998 RMK CU2AC2CI0 SLP155
CYSC;2002-10-13 20:00;METAR CYSC 132000Z 16008KT 15SM BKN032 BKN085 17/10 A2997 RMK SC6AC2 CU EMBDD SLP153
CYSC;2002-10-13 21:00;METAR CYSC 132100Z 16008KT 15SM FEW015 OVC030 15/10 A2997 RMK CF1SC7 LAST MANNED OB/NEXT 141200 SLP153
CYSC;2002-10-13 22:00;METAR CYSC 132200Z AUTO 16009KT 1 1/2SM -RA OVC010 12/12 A2997 RMK SLP157
CYSC;2002-10-14 00:00;METAR CYSC 140000Z AUTO 24009KT 1 1/2SM -RA OVC003 OVC017 OVC031 12/12 A3000 RMK PCPN 1.5MM PAST HR SLP164
CYSC;2002-10-14 01:00;METAR CYSC 140100Z AUTO 23007KT 9SM -RA OVC023 08/07 A3004 RMK PCPN 1.0MM PAST HR SLP180
CYSC;2002-10-14 02:00;METAR CYSC 140200Z AUTO 24006KT 8SM -RA SCT020 08/06 A3006 RMK PCPN 0.5MM PAST HR SLP184
CYSC;2002-10-14 03:00;METAR CYSC 140300Z AUTO 23003KT 9SM -RA BKN026 08/07 A3006 RMK SLP185
CYSC;2002-10-14 04:00;METAR CYSC 140400Z AUTO 22004KT 9SM BKN022 08/07 A3007 RMK SLP187
CYSC;2002-10-14 05:00;METAR CYSC 140500Z AUTO 26008G15KT 9SM BKN052 07/05 A3007 RMK PCPN 0.5MM PAST HR SLP189
CYSC;2002-10-14 06:00;METAR CYSC 140600Z AUTO 25009G16KT 9SM FEW019 OVC057 06/04 A3009 RMK SLP195
CYSC;2002-10-14 07:00;METAR CYSC 140700Z AUTO 24010G15KT 9SM FEW082 05/01 A3010 RMK SLP199
CYSC;2002-10-14 08:00;METAR CYSC 140800Z AUTO 25010KT 9SM FEW025 FEW030 04/00 A3011 RMK SLP204
CYSC;2002-10-14 09:00;METAR CYSC 140900Z AUTO 26013G20KT 9SM CLR 03/M01 A3012 RMK SLP208
CYSC;2002-10-14 10:00;METAR CYSC 141000Z AUTO 25010KT 9SM BKN026 02/M02 A3014 RMK SLP215
CYSC;2002-10-14 11:00;METAR CYSC 141100Z AUTO 26008KT 9SM FEW035 01/M02 A3016 RMK SLP220
CYSC;2002-10-14 12:00;METAR CYSC 141200Z CCA 26011KT 15SM FEW019 02/M02 A3018 RMK CF2 SLP228
CYSC;2002-10-14 13:00;METAR CYSC 141300Z 26008G15KT 15SM SCT020 04/M01 A3020 RMK CU3 SLP235
CYSC;2002-10-14 14:00;METAR CYSC 141400Z 28010G17KT 15SM BKN022 04/M02 A3021 RMK CU5 SLP239
CYSC;2002-10-14 15:00;METAR CYSC 141500Z 30013KT 15SM BKN027 06/M01 A3021 RMK CU5 SLP236
CYSC;2002-10-14 16:00;METAR CYSC 141600Z 30013KT 15SM BKN031 06/M02 A3021 RMK CU5 SLP239
CYSC;2002-10-14 17:00;METAR CYSC 141700Z 29009G18KT 15SM SCT035 08/M02 A3021 RMK CU4 SLP239
CYSC;2002-10-14 18:00;METAR CYSC 141800Z 28013G19KT 15SM BKN037 07/M04 A3022 RMK CU5 SLP240
CYSC;2002-10-14 19:00;METAR CYSC 141900Z 31012KT 15SM SCT048 08/M04 A3022 RMK CU3 SLP241
CYSC;2002-10-14 20:00;METAR CYSC 142000Z 28009G16KT 15SM FEW050 08/M04 A3022 RMK CU2 SLP242
CYSC;2002-10-14 21:00;METAR CYSC 142100Z 28009G15KT 15SM FEW050 07/M06 A3023 RMK CU2 LAST MANNED OB/NEXT 151200 SLP246
CYSC;2002-10-14 22:00;METAR CYSC 142200Z AUTO 29006KT 9SM CLR 04/M05 A3025 RMK SLP253
CYSC;2002-10-14 23:00;METAR CYSC 142300Z AUTO 00000KT 9SM CLR M00/M04 A3026 RMK SLP261
CYSC;2002-10-15 00:00;METAR CYSC 150000Z AUTO 29002KT 9SM CLR M01/M05 A3027 RMK SLP263
CYSC;2002-10-15 01:00;METAR CYSC 150100Z AUTO 32003KT 9SM CLR 00/M05 A3028 RMK SLP264
CYSC;2002-10-15 02:00;METAR CYSC 150200Z AUTO 25002KT 9SM CLR M03/M05 A3029 RMK SLP270
CYSC;2002-10-15 03:00;METAR CYSC 150300Z AUTO 00000KT 9SM CLR M04/M06 A3029 RMK SLP270
CYSC;2002-10-15 04:00;METAR CYSC 150400Z AUTO 09002KT 9SM CLR M04/M05 A3029 RMK ICG SLP271
CYSC;2002-10-15 05:00;METAR CYSC 150500Z AUTO 00000KT 9SM CLR M05/M06 A3029 RMK ICG PAST HR SLP270
CYSC;2002-10-15 06:00;METAR CYSC 150600Z AUTO 00000KT 9SM CLR M06/M07 A3030 RMK ICG SLP272
CYSC;2002-10-15 07:00;METAR CYSC 150700Z AUTO 10003KT 9SM CLR M06/M08 A3029 RMK ICG PAST HR SLP269
CYSC;2002-10-15 08:00;METAR CYSC 150800Z AUTO 05002KT 9SM CLR M06/M08 A3027 RMK SLP264
CYSC;2002-10-15 09:00;METAR CYSC 150900Z AUTO 10003KT 9SM CLR M07/M09 A3027 RMK ICG SLP265
CYSC;2002-10-15 10:00;METAR CYSC 151000Z AUTO 00000KT 9SM CLR M08/M09 A3028 RMK ICG INTMT SLP268
CYSC;2002-10-15 11:00;METAR CYSC 151100Z AUTO 09003KT 9SM CLR M07/M09 A3027 RMK ICG SLP266
CYSC;2002-10-15 12:00;METAR CYSC 151200Z CCA 08003KT 15SM FEW250 M04/M06 A3028 RMK CI1 FROIN
CYSC;2002-10-15 13:00;METAR CYSC 151300Z 09003KT 15SM FEW250 M02/M05 A3028 RMK CI1 FROIN SLP267
CYSC;2002-10-15 14:00;METAR CYSC 151400Z 24002KT 15SM FEW250 01/M02 A3027 RMK CI0 SLP263
CYSC;2002-10-15 15:00;METAR CYSC 151500Z 14002KT 15SM FEW250 05/M03 A3024 RMK CI0 SLP250
CYSC;2002-10-15 16:00;METAR CYSC 151600Z 00000KT 15SM FEW250 07/M05 A3022 RMK CI1 SLP244
CYSC;2002-10-15 17:00;METAR CYSC 151700Z 34003KT 15SM SCT250 08/M04 A3018 RMK CI2 SLP230
CYSC;2002-10-15 18:00;METAR CYSC 151800Z 10005KT 15SM FEW220 BKN250 10/M05 A3013 RMK CC1CI2 SLP214
CYSC;2002-10-15 19:00;METAR CYSC 151900Z 34002KT 15SM FEW220 SCT250 11/M05 A3011 RMK CC1CI2 SLP208
CYSC;2002-10-15 20:00;METAR CYSC 152000Z 22004KT 15SM FEW150 BKN250 11/M06 A3010 RMK AC1CI3 SLP203
CYSC;2002-10-15 21:00;METAR CYSC 152100Z 00000KT 15SM FEW150 BKN250 11/M07 A3009 RMK AC1CI3 COTRA ACC TR LAST MANNED OB/NEXT 161200 SLP199
CYSC;2002-10-15 22:00;METAR CYSC 152200Z AUTO 00000KT 9SM CLR 07/M02 A3009 RMK SLP203
CYSC;2002-10-15 23:00;METAR CYSC 152300Z AUTO 12002KT 9SM CLR 02/M03 A3009 RMK SLP202
CYSC;2002-10-16 00:00;METAR CYSC 160000Z AUTO 13004KT 9SM CLR 01/M02 A3008 RMK SLP201
CYSC;2002-10-16 01:00;METAR CYSC 160100Z AUTO 12004KT 9SM CLR M00/M03 A3008 RMK SLP201
CYSC;2002-10-16 02:00;METAR CYSC 160200Z AUTO 09003KT 9SM CLR 01/M03 A3008 RMK SLP199
CYSC;2002-10-16 03:00;METAR CYSC 160300Z AUTO 07002KT 9SM CLR M01/M03 A3009 RMK SLP201
CYSC;2002-10-16 04:00;METAR CYSC 160400Z AUTO 09005KT 9SM CLR 02/M02 A3007 RMK SLP192
CYSC;2002-10-16 05:00;METAR CYSC 160500Z AUTO 09006KT 9SM CLR 02/M02 A3006 RMK SLP188
CYSC;2002-10-16 06:00;METAR CYSC 160600Z AUTO 08006KT 9SM CLR 01/M02 A3006 RMK SLP187
CYSC;2002-10-16 07:00;METAR CYSC 160700Z AUTO 08004KT 9SM CLR 02/M02 A3005 RMK SLP185
CYSC;2002-10-16 08:00;METAR CYSC 160800Z AUTO 09006KT 9SM CLR 02/M02 A3004 RMK SLP183
CYSC;2002-10-16 09:00;METAR CYSC 160900Z AUTO 11004KT 9SM CLR 02/M01 A3005 RMK SLP184
CYSC;2002-10-16 10:00;METAR CYSC 161000Z AUTO 10006KT 9SM CLR 03/M01 A3005 RMK SLP186
CYSC;2002-10-16 11:00;METAR CYSC 161100Z AUTO 08005KT 9SM CLR 02/M01 A3004 RMK SLP183
CYSC;2002-10-16 12:00;METAR CYSC 161200Z 07003KT 15SM SCT120 BKN250 02/M01 A3003 RMK AC4CI2 SLP180
CYSC;2002-10-16 13:00;METAR CYSC 161300Z 08004KT 15SM SCT120 BKN250 04/00 A3002 RMK AC4CI2 SLP177
CYSC;2002-10-16 14:00;METAR CYSC 161400Z 08004KT 15SM BKN120 OVC250 07/02 A3001 RMK AC5CI2 SLP173
CYSC;2002-10-16 15:00;METAR CYSC 161500Z 14008KT 15SM FEW048 BKN120 OVC250 09/02 A3001 RMK SC2AC3CI2 SLP171
CYSC;2002-10-16 16:00;METAR CYSC 161600Z 14008KT 15SM FEW035 BKN120 OVC250 09/02 A2998 RMK SC2AC3CI2 SLP163
CYSC;2002-10-16 17:00;METAR CYSC 161700Z 13009G17KT 15SM FEW030 BKN090 OVC250 11/01 A2994 RMK SC2AC4CI2 SLP147
CYSC;2002-10-16 18:00;METAR CYSC 161800Z 13009KT 15SM FEW030 SCT059 BKN081 OVC250 11/M00 A2991 RMK SC2SC2AC2CI1 SLP135
CYSC;2002-10-16 19:00;METAR CYSC 161900Z 10007KT 12SM -RA SCT037 BKN057 OVC085 08/00 A2991 RMK SC4SC2AC2 SLP135
CYSC;2002-10-16 21:00;METAR CYSC 162100Z 08013G18KT 7SM RA SCT015 OVC024 04/02 A2987 RMK NS3SC5 LAST MANNED OB/NEXT171200 SLP123
CYSC;2002-10-16 22:00;METAR CYSC 162200Z AUTO 07013KT 3 1/2SM RA FEW015 OVC019 OVC057 04/03 A2981 RMK PCPN 3.0MM PAST HR SLP104
CYSC;2002-10-16 22:26;SPECI CYSC 162226Z AUTO 06013KT 3SM +RA BKN011 03/02 A2978 RMK PRESFR
CYSC;2002-10-16 23:00;METAR CYSC 162300Z AUTO 05011G18KT 3SM RA OVC011 03/02 A2975 RMK PCPN 4.5MM PAST HR SLP085
CYSC;2002-10-16 23:20;SPECI CYSC 162320Z AUTO 04011G18KT 9SM -RA SCT019 OVC033 03/02 A2972 RMK PRESFR
CYSC;2002-10-16 23:21;SPECI CYSC 162321Z AUTO 05012G18KT 9SM SCT019 OVC033 03/02 A2972 RMK
CYSC;2002-10-16 23:48;SPECI CYSC 162348Z AUTO 05013KT 9SM -RA FEW028 BKN044 BKN073 03/02 A2968
CYSC;2002-10-17 23:48;SPECI CYSC 162348Z AUTO 05013KT 9SM -RA FEW028 BKN044 BKN073 03/02 A2968
CYSC;2002-10-17 00:00;METAR CYSC 170000Z AUTO 05011G22KT 9SM -RA FEW028 BKN044 OVC073 03/02 A2966 RMK PRESFR SLP054
CYSC;2002-10-17 00:06;SPECI CYSC 170006Z AUTO 05015G22KT 8SM -RA BKN018 BKN073 03/02 A2966 RMK PRESFR
CYSC;2002-10-17 00:22;SPECI CYSC 170022Z AUTO 06013G22KT 9SM BKN018 OVC041 OVC083 03/02 A2966 RMK
CYSC;2002-10-17 00:46;SPECI CYSC 170046Z AUTO 05014G19KT 9SM -RA FEW015 OVC019 OVC035 OVC042 03/02 A2964
CYSC;2002-10-17 01:04;SPECI CYSC 170104Z AUTO 05012G19KT 9SM OVC019 OVC086 03/02 A2964
CYSC;2002-10-17 01:00;METAR CYSC 170100Z AUTO 05013G19KT 9SM -RA OVC019 OVC086 03/02 A2964 RMK SLP047
CYSC;2002-10-17 01:09;SPECI CYSC 170109Z AUTO 05012G18KT 9SM -RA OVC019 OVC086 03/02 A2963
CYSC;2002-10-17 01:34;SPECI CYSC 170134Z AUTO 05011G19KT 9SM OVC020 03/02 A2960
CYSC;2002-10-17 01:51;SPECI CYSC 170151Z AUTO 04010G17KT 9SM -RA OVC022 03/02 A2959
CYSC;2002-10-17 02:00;METAR CYSC 170200Z AUTO 04009G17KT 9SM -RA OVC022 03/02 A2958 RMK SLP026
CYSC;2002-10-17 02:12;SPECI CYSC 170212Z AUTO 04011G16KT 9SM OVC022 03/02 A2957 RMK PRESFR
CYSC;2002-10-17 03:00;METAR CYSC 170300Z AUTO 06014G22KT 9SM OVC022 04/02 A2952 RMK PRESFR SLP004
CYSC;2002-10-17 03:39;SPECI CYSC 170339Z AUTO 04009G16KT 9SM -RA OVC022 04/03 A2945
CYSC;2002-10-17 03:53;SPECI CYSC 170353Z AUTO 04009G16KT 9SM OVC022 04/03 A2944
CYSC;2002-10-17 04:00;METAR CYSC 170400Z AUTO 04008KT 9SM OVC022 04/03 A2943 RMK PCPN 0.5MM PAST HR PRESFR SLP973
CYSC;2002-10-17 04:54;SPECI CYSC 170454Z AUTO 30003KT 7SM -RA OVC019 06/04 A2946
CYSC;2002-10-17 04:58;SPECI CYSC 170458Z AUTO 28005KT 2 3/8SM RA BKN000 OVC019 05/04 A2946 RMK VSBY VRBL 0.9V9.+
CYSC;2002-10-17 05:00;METAR CYSC 170500Z AUTO 29004KT 2SM RA BKN000 OVC019 05/04 A2946 RMK VSBY VRBL 0.9V9.+ SLP982
CYSC;2002-10-17 05:14;SPECI CYSC 170514Z AUTO 32003KT 2SM -RA FEW000 BKN013 OVC019 05/04 A2947 RMK VSBY VRBL 1.3V4.0
CYSC;2002-10-17 05:20;SPECI CYSC 170520Z AUTO 30004KT 2SM -RA OVC017 05/04 A2947
CYSC;2002-10-17 05:31;SPECI CYSC 170531Z AUTO 27005KT 2 1/4SM -RA FEW001 OVC013 05/04 A2947
CYSC;2002-10-17 05:57;SPECI CYSC 170557Z AUTO 28004KT 2 1/8SM -RA OVC015 05/04 A2947
CYSC;2002-10-17 05:58;SPECI CYSC 170558Z AUTO 28005KT 2 1/8SM -RA OVC012 05/04 A2947
CYSC;2002-10-17 06:05;SPECI CYSC 170605Z AUTO 26006KT 2 1/8SM -RA BKN003 OVC012 05/04 A2947
CYSC;2002-10-17 06:00;METAR CYSC 170600Z AUTO 27006KT 2 1/8SM -RA OVC012 05/04 A2947 RMK PCPN 4.0MM PAST HR SLP986
CYSC;2002-10-17 06:07;SPECI CYSC 170607Z AUTO 26007KT 2 1/2SM -RA OVC002 OVC010 05/04 A2947
CYSC;2002-10-17 06:17;SPECI CYSC 170617Z AUTO 28005KT 2 1/2SM -RA OVC003 OVC022 OVC031 05/04 A2948
CYSC;2002-10-17 06:22;SPECI CYSC 170622Z AUTO 27006KT 3SM -RA OVC003 OVC033 04/04 A2948
CYSC;2002-10-17 06:23;SPECI CYSC 170623Z AUTO 28006KT 2 1/2SM -RA FEW002 OVC007 OVC033 04/04
CYSC;2002-10-17 06:30;SPECI CYSC 170630Z AUTO 26007KT 2 1/2SM -RA BKN002 OVC009 OVC017 OVC025 04/04 A2948
CYSC;2002-10-17 06:50;SPECI CYSC 170650Z AUTO 27010KT 2SM -RA OVC001 OVC025 04/04 A2949
CYSC;2002-10-17 07:04;SPECI CYSC 170704Z AUTO 30009KT 2 1/8SM -RA BKN003 OVC014 04/03 A2949
CYSC;2002-10-17 07:00;METAR CYSC 170700Z AUTO 28009KT 2 1/8SM -RA OVC001 04/03 A2949 RMK PCPN 2.0MM PAST HR SLP995
CYSC;2002-10-17 07:08;SPECI CYSC 170708Z AUTO 32007KT 2 1/4SM -RA FEW001 SCT004 BKN014 BKN037 04/03 A2949
CYSC;2002-10-17 07:29;SPECI CYSC 170729Z AUTO 02005KT 3SM -RA BKN014 BKN044 04/04 A2947
CYSC;2002-10-17 07:32;SPECI CYSC 170732Z AUTO 01002KT 3SM -RA OVC016 04/04 A2947
CYSC;2002-10-17 07:38;SPECI CYSC 170738Z AUTO 01002KT 3SM RA BKN003 OVC016 04/04 A2947
CYSC;2002-10-17 07:44;SPECI CYSC 170744Z AUTO 00000KT 3 1/2SM -RA SCT005 BKN016 OVC026 04/04
CYSC;2002-10-17 07:55;SPECI CYSC 170755Z AUTO 22005KT 4SM -RA BKN005 OVC017 04/04 A2949
CYSC;2002-10-17 08:04;SPECI CYSC 170804Z AUTO 21005KT 3SM -RA BKN000 OVC017 04/03 A2950
CYSC;2002-10-17 08:00;METAR CYSC 170800Z AUTO 21005KT 3SM -RA OVC002 OVC017 OVC029 04/03 A2949 RMK PCPN 2.0MM PAST HR SLP995
CYSC;2002-10-17 08:17;SPECI CYSC 170817Z AUTO 23008KT 5SM -RA OVC002 OVC021 OVC032 03/03 A2951
CYSC;2002-10-17 08:21;SPECI CYSC 170821Z AUTO 23008KT 5SM -RA OVC001 OVC021 OVC032 03/03 A2951
CYSC;2002-10-17 08:49;SPECI CYSC 170849Z AUTO 24008KT 6SM -RA OVC002 03/02 A2954
CYSC;2002-10-17 08:59;SPECI CYSC 170859Z AUTO 23011KT 3 1/2SM -RA OVC001 OVC011 03/02 A2955
CYSC;2002-10-17 09:04;SPECI CYSC 170904Z AUTO 23010KT 3SM -RA FEW001 BKN004 03/02 A2956 RMK PRESRR
CYSC;2002-10-17 09:00;METAR CYSC 170900Z AUTO 24010KT 3 1/2SM -RA OVC001 03/02 A2955 RMK PCPN 1.0MM PAST HR PRESRR SLP017
CYSC;2002-10-17 09:08;SPECI CYSC 170908Z AUTO 24009KT 3SM -RA OVC003 OVC011 03/02 A2956 RMK
CYSC;2002-10-17 09:29;SPECI CYSC 170929Z AUTO 25009KT 9SM -RA OVC005 03/02 A2957 RMK PRESRR
CYSC;2002-10-17 09:34;SPECI CYSC 170934Z AUTO 26010KT 9SM FEW003 OVC007 03/02 A2958
CYSC;2002-10-17 09:49;SPECI CYSC 170949Z AUTO 25010G17KT 9SM SCT011 BKN016 BKN024 OVC036 02/01 A2959
CYSC;2002-10-17 09:59;SPECI CYSC 170959Z AUTO 25010G15KT 9SM BKN014 OVC036 02/01 A2960
CYSC;2002-10-17 10:00;METAR CYSC 171000Z AUTO 24010G15KT 9SM BKN014 OVC024 OVC036 02/01 A2960 RMK PCPN 0.5MM PAST HR SLP031
CYSC;2002-10-17 10:36;SPECI CYSC 171036Z AUTO 24008KT 9SM OVC008 OVC046 02/01 A2964
CYSC;2002-10-17 11:00;METAR CYSC 171100Z AUTO 25010G15KT 9SM OVC007 02/01 A2966 RMK PRESRR SLP053
CYSC;2002-10-17 11:10;SPECI CYSC 171110Z AUTO 25012KT 9SM FEW007 OVC011 02/01 A2967 RMK PRESRR
CYSC;2002-10-17 11:27;SPECI CYSC 171127Z AUTO 24008KT 9SM OVC009 02/01 A2968 RMK PRESRR
CYSC;2002-10-17 12:00;METAR CYSC 171200Z CCA 24011G16KT 15SM BKN010 BKN020 02/01 A2973 RMK CF5SC2 /R19 AFT 21Z/ PRESRR SLP076
CYSC;2002-10-17 12:42;SPECI CYSC 171242Z 25010KT 15SM BKN014 RMK CU6
CYSC;2002-10-17 13:00;METAR CYSC 171300Z 25011KT 15SM BKN012 03/02 A2973 RMK CU6 SLP077
CYSC;2002-10-17 13:42;SPECI CYSC 171342Z 23008KT 15SM BKN009 OVC023 RMK SC6SC2 CU EMBDD
CYSC;2002-10-17 14:00;METAR CYSC 171400Z 23009KT 15SM BKN009 OVC020 03/02 A2978 RMK SC7SC1 CU EMBDD SLP092
CYSC;2002-10-17 14:37;SPECI CYSC 171437Z 24013KT 15SM OVC011 RMK SC8 CU EMBDD
CYSC;2002-10-17 15:00;METAR CYSC 171500Z 23012G18KT 15SM OVC013 04/02 A2982 RMK SC8 SLP106
CYSC;2002-10-17 16:00;METAR CYSC 171600Z 26007KT 15SM BKN010 OVC021 04/03 A2983 RMK SC6SC2 SLP109
CYSC;2002-10-17 17:00;METAR CYSC 171700Z 27009KT 15SM BKN012 OVC025 05/03 A2982 RMK SC6SC2 SLP108
CYSC;2002-10-17 18:00;METAR CYSC 171800Z 24005KT 15SM OVC016 06/03 A2983 RMK SC8 SLP108
CYSC;2002-10-17 19:00;METAR CYSC 171900Z 23011KT 15SM OVC016 06/03 A2984 RMK SC8 SLP112
CYSC;2002-10-17 20:00;METAR CYSC 172000Z 22005KT 15SM BKN022 OVC085 06/03 A2986 RMK SC7AC1 SLP118
CYSC;2002-10-17 21:00;METAR CYSC 172100Z 24005KT 15SM BKN019 OVC085 06/03 A2986 RMK SC6AC2 LAST MANNED OB/NEXT 181200 SLP120
CYSC;2002-10-17 21:36;SPECI CYSC 172136Z AUTO 20002KT 9SM OVC026 06/03 A2987
CYSC;2002-10-17 21:47;SPECI CYSC 172147Z AUTO 21002KT 9SM OVC022 06/03 A2988
CYSC;2002-10-17 22:00;METAR CYSC 172200Z AUTO 21004KT 9SM OVC022 06/03 A2988 RMK SLP128
CYSC;2002-10-17 22:41;SPECI CYSC 172241Z AUTO 16003KT 9SM OVC027 06/04 A2989
CYSC;2002-10-17 23:00;METAR CYSC 172300Z AUTO 15002KT 9SM OVC027 06/04 A2989 RMK SLP133
CYSC;2002-10-17 23:08;SPECI CYSC 172308Z AUTO 15002KT 9SM OVC023 06/04 A2989
CYSC;2002-10-18 00:00;METAR CYSC 180000Z AUTO 15003KT 9SM OVC023 06/04 A2990 RMK SLP135
CYSC;2002-10-18 00:27;SPECI CYSC 180027Z AUTO 11003KT 9SM OVC025 05/04 A2990
CYSC;2002-10-18 01:00;METAR CYSC 180100Z AUTO 07004KT 9SM OVC027 05/04 A2988 RMK SLP128
CYSC;2002-10-18 02:00;METAR CYSC 180200Z AUTO 00000KT 9SM SCT037 BKN071 04/03 A2988 RMK SLP127
CYSC;2002-10-18 03:04;SPECI CYSC 180304Z AUTO 11003KT 8SM -RA OVC028 OVC040 OVC071 05/04 A2989
CYSC;2002-10-18 03:00;METAR CYSC 180300Z AUTO 12003KT 9SM OVC028 OVC040 OVC071 05/04 A2989 RMK SLP131
CYSC;2002-10-18 03:27;SPECI CYSC 180327Z AUTO 06004KT 5SM BKN028 05/04 A2986
CYSC;2002-10-18 03:52;SPECI CYSC 180352Z AUTO 14002KT 7SM -RA SCT039 05/04 A2986
CYSC;2002-10-18 04:00;METAR CYSC 180400Z AUTO 13002KT 6SM -RA SCT039 05/04 A2986 RMK SLP122
CYSC;2002-10-18 04:23;SPECI CYSC 180423Z AUTO 00000KT 4SM -RA FEW016 BKN020 OVC039 05/04 A2986
CYSC;2002-10-18 04:38;SPECI CYSC 180438Z AUTO 00000KT 2 1/2SM -RA FEW012 OVC020 04/04 A2986
CYSC;2002-10-18 04:55;SPECI CYSC 180455Z AUTO 00000KT 2SM -RA BKN012 OVC020 04/04 A2986
CYSC;2002-10-18 05:00;METAR CYSC 180500Z AUTO 00000KT 2SM -RA OVC012 04/04 A2987 RMK SLP122
CYSC;2002-10-18 06:01;SPECI CYSC 180601Z AUTO 00000KT 1 3/8SM -RA FEW014 OVC019 04/04 A2986
CYSC;2002-10-18 06:00;METAR CYSC 180600Z AUTO 00000KT 1 1/2SM -RA FEW014 OVC019 04/04 A2986 RMK PCPN 1.0MM PAST HR SLP121
CYSC;2002-10-18 06:07;SPECI CYSC 180607Z AUTO 27002KT 1SM -RA FEW014 OVC019 04/04 A2986
CYSC;2002-10-18 06:19;SPECI CYSC 180619Z AUTO 28002KT 3/4SM -RA BKN004 OVC017 04/04 A2986
CYSC;2002-10-18 06:27;SPECI CYSC 180627Z AUTO 00000KT 3/4SM -RA OVC003 OVC027 04/04 A2986
CYSC;2002-10-18 06:45;SPECI CYSC 180645Z AUTO 29002KT 3/4SM -RA FEW003 OVC008 04/04 A2986
CYSC;2002-10-18 06:46;SPECI CYSC 180646Z AUTO 29002KT 1SM -RA FEW003 FEW008 OVC016 04/04 A2986
CYSC;2002-10-18 06:56;SPECI CYSC 180656Z AUTO 29002KT 1 1/4SM -RA FEW001 OVC016 04/04 A2986
CYSC;2002-10-18 07:02;SPECI CYSC 180702Z AUTO 28002KT 1 1/4SM -RA FEW001 OVC014 04/04 A2986
CYSC;2002-10-18 07:00;METAR CYSC 180700Z AUTO 29002KT 1 1/4SM -RA FEW001 OVC016 04/04 A2986 RMK PCPN 0.5MM PAST HR SLP121
CYSC;2002-10-18 07:09;SPECI CYSC 180709Z AUTO 27010KT 1 3/8SM -RA BKN001 OVC014 04/04 A2986 RMK VSBY VRBL 1.2V6.0
CYSC;2002-10-18 07:11;SPECI CYSC 180711Z AUTO 28008KT 1 3/8SM -RA FEW001 BKN004 OVC014 04/04 A2986 RMK VSBY VRBL 1.2V6.0
CYSC;2002-10-18 07:14;SPECI CYSC 180714Z AUTO 28008KT 3SM -RA FEW001 BKN004 OVC014 04/04 A2987
CYSC;2002-10-18 07:16;SPECI CYSC 180716Z AUTO 28007KT 5SM -RA FEW001 SCT005 OVC014 04/04 A2987
CYSC;2002-10-18 07:31;SPECI CYSC 180731Z AUTO 28008KT 5SM -RA BKN005 OVC016 04/03 A2987
CYSC;2002-10-18 07:58;SPECI CYSC 180758Z AUTO 26004KT 7SM -RA SCT006 OVC021 04/03 A2987
CYSC;2002-10-18 08:03;SPECI CYSC 180803Z AUTO 27003KT 7SM -RA SCT005 BKN013 OVC021 04/03 A2987
CYSC;2002-10-18 08:05;SPECI CYSC 180805Z AUTO 26004KT 7SM -RA BKN004 OVC021 04/03 A2987
CYSC;2002-10-18 08:00;METAR CYSC 180800Z AUTO 26004KT 7SM -RA SCT005 SCT013 OVC021 04/03 A2987 RMK PCPN 0.5MM PAST HR SLP125
CYSC;2002-10-18 08:11;SPECI CYSC 180811Z AUTO 25003KT 8SM -RA SCT005 OVC021 04/03 A2987
CYSC;2002-10-18 08:14;SPECI CYSC 180814Z AUTO 25003KT 8SM -RA BKN005 OVC021 04/03 A2987
CYSC;2002-10-18 08:37;SPECI CYSC 180837Z AUTO 23003KT 9SM FEW005 BKN008 BKN028 BKN034 04/03 A2988
CYSC;2002-10-18 08:39;SPECI CYSC 180839Z AUTO 23004KT 9SM FEW008 SCT013 BKN024 04/03 A2988
CYSC;2002-10-18 09:00;METAR CYSC 180900Z AUTO 24004KT 9SM FEW016 BKN024 04/03 A2988 RMK SLP128
CYSC;2002-10-18 09:07;SPECI CYSC 180907Z AUTO 24004KT 9SM BKN014 BKN027 BKN061 04/03 A2988
CYSC;2002-10-18 09:32;SPECI CYSC 180932Z AUTO 23002KT 9SM SCT018 BKN032 BKN050 BKN061 04/03
CYSC;2002-10-18 09:54;SPECI CYSC 180954Z AUTO 19002KT 9SM BKN018 OVC050 OVC061 OVC078 03/03 A2989
CYSC;2002-10-18 10:04;SPECI CYSC 181004Z AUTO 18002KT 9SM OVC013 OVC031 OVC050 OVC061 03/03
CYSC;2002-10-18 10:00;METAR CYSC 181000Z AUTO 17002KT 9SM BKN018 OVC050 OVC061 OVC078 03/03 A2989 RMK SLP131
CYSC;2002-10-18 10:26;SPECI CYSC 181026Z AUTO 24003KT 9SM OVC021 OVC050 04/03 A2990
CYSC;2002-10-18 10:53;SPECI CYSC 181053Z AUTO 22003KT 9SM OVC014 04/03 A2990
CYSC;2002-10-18 11:00;METAR CYSC 181100Z AUTO 23003KT 9SM OVC014 04/03 A2990 RMK SLP136
CYSC;2002-10-18 11:16;SPECI CYSC 181116Z AUTO 24007KT 9SM OVC018 04/03 A2991
CYSC;2002-10-18 11:26;SPECI CYSC 181126Z AUTO 25006KT 9SM OVC014 03/03 A2991
CYSC;2002-10-18 12:00;METAR CYSC 181200Z 25008KT 15SM OVC012 03/02 A2993 RMK SC7 SLP143
CYSC;2002-10-18 13:00;METAR CYSC 181300Z 26006KT 15SM BKN012 OVC025 03/02 A2994 RMK CF6SC2 SLP148
CYSC;2002-10-18 14:00;METAR CYSC 181400Z 25011KT 15SM BKN017 04/01 A2995 RMK SC7 SLP152
CYSC;2002-10-18 15:00;METAR CYSC 181500Z 25012KT 15SM SCT022 04/M00 A2997 RMK SC4 SLP158
CYSC;2002-10-18 16:00;METAR CYSC 181600Z 25010G15KT 15SM SCT028 06/01 A2998 RMK SC3 SLP162
CYSC;2002-10-18 17:00;METAR CYSC 181700Z 26011G19KT 15SM SCT030 05/M03 A2998 RMK SC3 SLP160
CYSC;2002-10-18 18:00;METAR CYSC 181800Z 25011G16KT 15SM SCT035 06/M03 A2998 RMK SC3 SLP162
CYSC;2002-10-18 19:00;METAR CYSC 181900Z 27012KT 15SM FEW041 SCT240 06/M03 A2999 RMK SC2CI0 SLP164
CYSC;2002-10-18 20:00;METAR CYSC 182000Z 25012G17KT 15SM FEW038 07/M04 A3001 RMK SC2 SLP170
CYSC;2002-10-18 21:00;METAR CYSC 182100Z 28012G17KT 15SM FEW043 06/M04 A3002 RMK SC1 LAST MANNED OB/NEXT 191200 SLP174
CYSC;2002-10-18 22:00;METAR CYSC 182200Z AUTO 27005KT 9SM CLR 03/M04 A3003 RMK SLP181
CYSC;2002-10-18 23:00;METAR CYSC 182300Z AUTO 15002KT 9SM CLR M01/M04 A3005 RMK SLP187
CYSC;2002-10-19 00:00;METAR CYSC 190000Z AUTO 23004KT 9SM FEW099 00/M04 A3006 RMK SLP191
CYSC;2002-10-19 01:00;METAR CYSC 190100Z AUTO 14003KT 9SM OVC075 M01/M03 A3006 RMK SLP191
CYSC;2002-10-19 02:00;METAR CYSC 190200Z AUTO 06003KT 9SM SCT073 M02/M03 A3005 RMK SLP188
CYSC;2002-10-19 03:00;METAR CYSC 190300Z AUTO 07002KT 9SM FEW083 M03/M05 A3005 RMK SLP189
CYSC;2002-10-19 04:00;METAR CYSC 190400Z AUTO 08003KT 9SM SCT046 SCT081 M01/M03 A3005 RMK SLP187
CYSC;2002-10-19 05:00;METAR CYSC 190500Z AUTO 06002KT 9SM FEW031 M00/M02 A3004 RMK SLP182
CYSC;2002-10-19 05:56;SPECI CYSC 190556Z AUTO 13002KT 9SM -RA SCT033 SCT047 SCT054 00/M01 A3003
CYSC;2002-10-19 06:00;METAR CYSC 190600Z AUTO 13002KT 9SM -RA SCT033 SCT047 SCT054 01/M01 A3003 RMK SLP179
CYSC;2002-10-19 06:22;SPECI CYSC 190622Z AUTO 03002KT 9SM BKN026 BKN047 00/M01 A3002
CYSC;2002-10-19 06:42;SPECI CYSC 190642Z AUTO 07002KT 9SM -RA BKN035 01/M01 A3001
CYSC;2002-10-19 06:57;SPECI CYSC 190657Z AUTO 09003KT 9SM OVC035 01/M01 A3000
CYSC;2002-10-19 07:00;METAR CYSC 190700Z AUTO 09003KT 9SM OVC035 01/M00 A3000 RMK SLP169
CYSC;2002-10-19 08:00;METAR CYSC 190800Z AUTO 11003KT 9SM BKN039 02/00 A2998 RMK SLP162
CYSC;2002-10-19 09:00;METAR CYSC 190900Z AUTO 07003KT 9SM SCT039 02/01 A2996 RMK SLP157
CYSC;2002-10-19 10:00;METAR CYSC 191000Z AUTO 05003KT 9SM FEW042 02/00 A2993 RMK SLP146
CYSC;2002-10-19 11:00;METAR CYSC 191100Z AUTO 08006KT 9SM FEW046 SCT056 SCT065 03/00 A2989 RMK SLP132
CYSC;2002-10-19 12:00;METAR CYSC 191200Z 10005KT 15SM BKN042 OVC067 05/00 A2985 RMK SC5AC3 SLP117
CYSC;2002-10-19 12:15;SPECI CYSC 191215Z 09004KT 12SM -RA OVC038 RMK SC8
CYSC;2002-10-19 13:00;METAR CYSC 191300Z 13003KT 8SM -RA OVC016 05/03 A2983 RMK SC8 SLP111
CYSC;2002-10-19 14:00;METAR CYSC 191400Z 13005KT 5SM -RA BR BKN015 OVC025 05/04 A2979 RMK SC6SC2 SLP098
CYSC;2002-10-19 15:00;METAR CYSC 191500Z 18004KT 3SM -RA BR FEW012 BKN019 OVC027 05/05 A2974 RMK SF2SC5SC1 PRESFR SLP080
CYSC;2002-10-19 15:16;SPECI CYSC 191516Z 18006KT 5SM -RA BR BKN014 OVC025 RMK SF5SC3
CYSC;2002-10-19 15:41;SPECI CYSC 191541Z 16008KT 8SM -RA SCT014 OVC027 RMK SF4SC4
CYSC;2002-10-19 16:00;METAR CYSC 191600Z 16008KT 3SM -RA BR FEW013 OVC020 06/05 A2970 RMK SF2SC6 SLP066
CYSC;2002-10-19 16:14;SPECI CYSC 191614Z 17006KT 5SM -RA BKN011 OVC020 RMK SF6SC2
CYSC;2002-10-19 17:00;METAR CYSC 191700Z CCA 18005KT 8SM -RA FEW011 BKN019 OVC030 06/06 A2966 RMK SF2SC6SC1 /R10/ SLP052
CYSC;2002-10-19 18:00;METAR CYSC 191800Z 19007KT 8SM -RA SCT012 OVC020 07/06 A2962 RMK SF3SC5 SLP038
CYSC;2002-10-19 18:37;SPECI CYSC 191837Z 20007KT 3SM -RA BR OVC013 RMK SF8
CYSC;2002-10-19 19:00;METAR CYSC 191900Z 22007KT 2 1/2SM RA BR FEW009 BKN013 OVC030 07/06 A2961 RMK SF2SF5SC2 SLP037
CYSC;2002-10-19 19:20;SPECI CYSC 191920Z 21005KT 3SM -RA BR SCT010 OVC015 RMK SF3SC5 RERA
CYSC;2002-10-19 20:00;METAR CYSC 192000Z CCA 19009KT 4SM -RA BR FEW010 BKN020 OVC030 07/07 A2961 RMK SF1SF6SC2 RERA SLP036
CYSC;2002-10-19 21:00;METAR CYSC 192100Z 18009KT 12SM -RA FEW010 BKN038 BKN057 08/07 A2957 RMK SF1SC5SC2 LAST MANNED OB/NEXT 201200 SLP022
CYSC;2002-10-19 22:00;METAR CYSC 192200Z AUTO 19002KT 9SM FEW043 OVC071 08/07 A2958 RMK SLP024
CYSC;2002-10-19 23:00;METAR CYSC 192300Z AUTO 15003KT 9SM FEW069 SCT086 07/07 A2956 RMK SLP019
CYSC;2002-10-19 23:22;SPECI CYSC 192322Z AUTO 00000KT 9SM -RA FEW028 BKN069 BKN086 07/07 A2957
CYSC;2002-10-19 23:28;SPECI CYSC 192328Z AUTO 26003KT 3 1/2SM RA BKN016 BKN040 OVC069 OVC086 07/07 A2958
CYSC;2002-10-19 23:30;SPECI CYSC 192330Z AUTO 25002KT 2 1/2SM -RA FEW001 BKN016 OVC040 OVC069 07/07 A2958 RMK VSBY VRBL 1.5V9.0
CYSC;2002-10-19 23:33;SPECI CYSC 192333Z AUTO 26002KT 2 1/8SM -RA BKN000 OVC016 OVC040 OVC069 07/07 A2958 RMK VSBY VRBL 1.5V4.0
CYSC;2002-10-19 23:36;SPECI CYSC 192336Z AUTO 27002KT 2SM RA FEW000 OVC014 OVC040 OVC069 07/07 A2957
CYSC;2002-10-20 23:50;SPECI CYSC 192350Z AUTO 22003KT 9SM -RA SCT014 BKN041 OVC069 07/07 A2957
CYSC;2002-10-20 23:53;SPECI CYSC 192353Z AUTO 24002KT 9SM FEW001 FEW014 OVC041 OVC069 07/07 A2957
CYSC;2002-10-20 00:00;METAR CYSC 200000Z AUTO 21002KT 9SM BKN028 OVC069 OVC095 07/07 A2957 RMK PCPN 1.0MM PAST HR SLP020
CYSC;2002-10-20 00:18;SPECI CYSC 200018Z AUTO 23005KT 9SM FEW012 OVC016 08/07 A2957
CYSC;2002-10-20 00:25;SPECI CYSC 200025Z AUTO 23005KT 4SM -RA FEW012 OVC016 08/07 A2958
CYSC;2002-10-20 00:52;SPECI CYSC 200052Z AUTO 21007KT 9SM -RA FEW016 BKN031 08/08 A2957
CYSC;2002-10-20 00:56;SPECI CYSC 200056Z AUTO 22008KT 9SM FEW019 SCT031 08/08 A2957
CYSC;2002-10-20 01:00;METAR CYSC 200100Z AUTO 23011KT 9SM -RA FEW021 SCT038 BKN068 08/07 A2958 RMK PCPN 0.5MM PAST HR SLP023
CYSC;2002-10-20 01:21;SPECI CYSC 200121Z AUTO 25009G15KT 9SM FEW037 SCT059 SCT074 08/07 A2959
CYSC;2002-10-20 01:36;SPECI CYSC 200136Z AUTO 25008KT 9SM BKN020 BKN037 BKN059 08/07 A2960
CYSC;2002-10-20 02:00;METAR CYSC 200200Z AUTO 25008KT 9SM SCT016 BKN059 07/06 A2961 RMK SLP036
CYSC;2002-10-20 02:07;SPECI CYSC 200207Z AUTO 24007KT 9SM BKN016 OVC059 07/06 A2962
CYSC;2002-10-20 03:00;METAR CYSC 200300Z AUTO 26008KT 9SM OVC016 OVC044 07/06 A2963 RMK SLP041
CYSC;2002-10-20 03:39;SPECI CYSC 200339Z AUTO 25005KT 9SM -RA OVC015 OVC041 07/06 A2963
CYSC;2002-10-20 03:51;SPECI CYSC 200351Z AUTO 25005KT 3 1/2SM -RA OVC012 OVC041 07/06 A2963
CYSC;2002-10-20 04:00;METAR CYSC 200400Z AUTO 26008KT 7SM -RA BKN012 OVC036 OVC041 07/06 A2964 RMK PCPN 0.5MM PAST HR SLP043
CYSC;2002-10-20 04:09;SPECI CYSC 200409Z AUTO 28006KT 3 1/2SM -RA OVC007 OVC036 OVC041 07/06 A2964
CYSC;2002-10-20 04:43;SPECI CYSC 200443Z AUTO 28008KT 3SM -RA FEW007 OVC011 OVC018 06/06 A2965
CYSC;2002-10-20 04:44;SPECI CYSC 200444Z AUTO 27008KT 2SM -RA FEW007 OVC011 06/06 A2965 RMK VSBY VRBL 0.5V9.+
CYSC;2002-10-20 04:46;SPECI CYSC 200446Z AUTO 27010KT 1 3/8SM RA OVC011 06/06 A2964 RMK VSBY VRBL 0.5V6.0
CYSC;2002-10-20 04:55;SPECI CYSC 200455Z AUTO 27008KT 3 1/2SM RA OVC011 OVC032 06/05 A2965
CYSC;2002-10-20 04:56;SPECI CYSC 200456Z AUTO 27008KT 4SM RA OVC009 OVC032 06/05 A2965
CYSC;2002-10-20 05:00;METAR CYSC 200500Z AUTO 27008KT 5SM -RA OVC009 06/05 A2965 RMK PCPN 2.0MM PAST HR SLP048
CYSC;2002-10-20 05:18;SPECI CYSC 200518Z AUTO 27007KT 5SM FEW006 BKN017 OVC031 06/06 A2966
CYSC;2002-10-20 05:23;SPECI CYSC 200523Z AUTO 28008KT 5SM FEW006 OVC010 OVC031 06/06 A2966
CYSC;2002-10-20 05:29;SPECI CYSC 200529Z AUTO 29009KT 5SM BKN007 OVC012 OVC031 06/05 A2966
CYSC;2002-10-20 05:40;SPECI CYSC 200540Z AUTO 30009KT 5SM OVC004 OVC014 OVC031 06/05 A2966
CYSC;2002-10-20 05:49;SPECI CYSC 200549Z AUTO 30008KT 3SM -RA OVC004 OVC011 OVC023 OVC036 05/05 A2967
CYSC;2002-10-20 05:51;SPECI CYSC 200551Z AUTO 29008KT 3SM -RA OVC003 OVC023 OVC045 05/05 A2967
CYSC;2002-10-20 05:58;SPECI CYSC 200558Z AUTO 30008KT 3SM -RA OVC005 OVC013 OVC023 OVC045 05/04
CYSC;2002-10-20 06:00;METAR CYSC 200600Z AUTO 30009KT 3SM -RA OVC005 OVC013 OVC045 05/04 A2967 RMK SLP056
CYSC;2002-10-20 06:14;SPECI CYSC 200614Z AUTO 29008KT 5SM -RA SCT007 BKN019 BKN031 04/03 A2967
CYSC;2002-10-20 06:26;SPECI CYSC 200626Z AUTO 28007KT 6SM BKN006 BKN019 OVC031 04/03 A2967
CYSC;2002-10-20 06:32;SPECI CYSC 200632Z AUTO 28005KT 6SM OVC004 OVC019 OVC031 04/03 A2968
CYSC;2002-10-20 06:34;SPECI CYSC 200634Z AUTO 28008KT 6SM OVC003 OVC019 OVC031 04/03 A2968
CYSC;2002-10-20 06:41;SPECI CYSC 200641Z AUTO 29006KT 8SM OVC005 OVC031 04/03 A2968
CYSC;2002-10-20 06:45;SPECI CYSC 200645Z AUTO 30006KT 9SM OVC004 OVC031 04/03 A2968
CYSC;2002-10-20 06:56;SPECI CYSC 200656Z AUTO 28007KT 9SM FEW004 OVC009 OVC031 OVC040 03/02 A2968
CYSC;2002-10-20 07:00;METAR CYSC 200700Z AUTO 28009KT 9SM FEW004 OVC009 03/02 A2968 RMK SLP059
CYSC;2002-10-20 07:09;SPECI CYSC 200709Z AUTO 29008KT 9SM OVC011 03/02 A2968
CYSC;2002-10-20 07:13;SPECI CYSC 200713Z AUTO 29007KT 9SM OVC006 03/02 A2969
CYSC;2002-10-20 07:32;SPECI CYSC 200732Z AUTO 29007KT 9SM BKN004 OVC012 OVC045 03/02 A2970
CYSC;2002-10-20 07:43;SPECI CYSC 200743Z AUTO 29006KT 9SM OVC003 OVC012 OVC045 03/02 A2970
CYSC;2002-10-20 07:56;SPECI CYSC 200756Z AUTO 27007KT 9SM OVC004 OVC045 03/02 A2971
CYSC;2002-10-20 08:00;METAR CYSC 200800Z AUTO 27005KT 9SM OVC004 OVC045 02/02 A2971 RMK SLP069
CYSC;2002-10-20 08:11;SPECI CYSC 200811Z AUTO 27005KT 9SM OVC005 OVC045 02/02 A2971
CYSC;2002-10-20 08:17;SPECI CYSC 200817Z AUTO 27005KT 9SM OVC004 03/02 A2972
CYSC;2002-10-20 09:00;METAR CYSC 200900Z AUTO 27009KT 9SM OVC004 02/02 A2974 RMK SLP079
CYSC;2002-10-20 09:12;SPECI CYSC 200912Z AUTO 27009KT 9SM OVC006 02/01 A2974
CYSC;2002-10-20 09:19;SPECI CYSC 200919Z AUTO 27008KT 9SM OVC004 02/01 A2974
CYSC;2002-10-20 09:25;SPECI CYSC 200925Z AUTO 27008KT 4SM OVC003 02/01 A2975
CYSC;2002-10-20 09:26;SPECI CYSC 200926Z AUTO 27009KT 4SM OVC002 02/01 A2975
CYSC;2002-10-20 09:43;SPECI CYSC 200943Z AUTO 30008KT 3SM OVC003 01/01 A2975
CYSC;2002-10-20 09:49;SPECI CYSC 200949Z AUTO 29007KT 3SM FEW002 OVC005 01/00 A2976
CYSC;2002-10-20 10:00;METAR CYSC 201000Z AUTO 29007KT 9SM OVC007 01/M00 A2976 RMK SLP087
CYSC;2002-10-20 10:37;SPECI CYSC 201037Z AUTO 29006KT 9SM OVC010 01/M00 A2977
CYSC;2002-10-20 10:43;SPECI CYSC 201043Z AUTO 30005KT 9SM OVC009 OVC045 01/M01 A2976
CYSC;2002-10-20 11:00;METAR CYSC 201100Z AUTO 28006KT 9SM OVC009 OVC045 01/M01 A2978 RMK SLP093
CYSC;2002-10-20 11:10;SPECI CYSC 201110Z AUTO 27004KT 9SM OVC010 OVC022 OVC045 01/M01 A2978
CYSC;2002-10-20 11:45;SPECI CYSC 201145Z AUTO 25003KT 9SM OVC009 01/M00 A2979
CYSC;2002-10-20 12:00;METAR CYSC 201200Z 27005KT 12SM OVC009 01/M00 A2980 RMK SF8 SLP100
CYSC;2002-10-20 12:30;SPECI CYSC 201230Z 29007KT 12SM SCT010 OVC020 RMK SF3SC5
CYSC;2002-10-20 12:53;SPECI CYSC 201253Z 28008KT 12SM BKN012 OVC025 RMK SF6SC2
CYSC;2002-10-20 13:00;METAR CYSC 201300Z 28008KT 12SM OVC012 01/M01 A2983 RMK SC8 SLP110
CYSC;2002-10-20 13:46;SPECI CYSC 201346Z 29006KT 12SM -FZDZ OVC009 RMK SF8
CYSC;2002-10-20 14:00;METAR CYSC 201400Z 30008KT 12SM -FZDZ BKN009 OVC025 00/M01 A2985 RMK SF5SC3 SLP118
CYSC;2002-10-20 14:05;SPECI CYSC 201405Z CCA 29008KT 12SM OVC013 RMK SC8
CYSC;2002-10-20 14:36;SPECI CYSC 201436Z 30007KT 12SM -SG OVC011 RMK SC8
CYSC;2002-10-20 15:00;METAR CYSC 201500Z 29008KT 12SM -SG OVC010 01/M01 A2987 RMK SC8 SLP124
CYSC;2002-10-20 15:23;SPECI CYSC 201523Z 29007KT 15SM BKN014 OVC030 RMK SC6SC2
CYSC;2002-10-20 16:00;METAR CYSC 201600Z 29009KT 15SM OVC012 01/M01 A2989 RMK SC8 SLP130
CYSC;2002-10-20 17:00;METAR CYSC 201700Z 29008KT 15SM OVC016 01/M02 A2989 RMK SC8 SLP132
CYSC;2002-10-20 18:00;METAR CYSC 201800Z 26008KT 15SM OVC019 01/M02 A2989 RMK SC8 SLP132
CYSC;2002-10-20 19:00;METAR CYSC 201900Z 28008KT 15SM BKN019 02/M02 A2991 RMK SC7 SLP137
CYSC;2002-10-20 19:30;SPECI CYSC 201930Z 27006KT 15SM -SN OVC023 RMK SC8
CYSC;2002-10-20 19:56;SPECI CYSC 201956Z 27008KT 15SM BKN023 OVC045 RMK SC7SC1
CYSC;2002-10-20 20:00;METAR CYSC 202000Z 27007KT 15SM BKN025 OVC045 02/M03 A2993 RMK SC7SC1 SLP143
CYSC;2002-10-20 20:38;SPECI CYSC 202038Z 28005KT 15SM -SG OVC021 RMK SC8
CYSC;2002-10-20 21:00;METAR CYSC 202100Z CCA 27006KT 15SM OVC021 02/M02 A2993 RMK SC8 LAST MANNED OB/NEXT 211200 SLP145
CYSC;2002-10-20 22:00;METAR CYSC 202200Z AUTO 30005KT 9SM OVC019 01/M02 A2994 RMK SLP149
CYSC;2002-10-20 23:00;METAR CYSC 202300Z AUTO 29005KT 9SM OVC019 OVC038 01/M03 A2996 RMK SLP157
CYSC;2002-10-21 00:00;METAR CYSC 210000Z AUTO 32003KT 9SM OVC019 M00/M04 A2996 RMK SLP158
CYSC;2002-10-21 01:00;METAR CYSC 210100Z AUTO 00000KT 9SM OVC021 M00/M03 A2996 RMK SLP156
CYSC;2002-10-21 02:00;METAR CYSC 210200Z AUTO 06004KT 9SM OVC021 M00/M03 A2996 RMK SLP159
CYSC;2002-10-21 03:00;METAR CYSC 210300Z AUTO 11002KT 9SM OVC021 M01/M03 A2996 RMK SLP158
CYSC;2002-10-21 03:50;SPECI CYSC 210350Z AUTO 12003KT 9SM FEW023 BKN038 BKN052 BKN076 M01/M04 A2994
CYSC;2002-10-21 04:04;SPECI CYSC 210404Z AUTO 13002KT 9SM BKN023 BKN038 OVC050 OVC076 M01/M04
CYSC;2002-10-21 04:00;METAR CYSC 210400Z AUTO 15002KT 9SM SCT023 BKN038 OVC050 OVC076 M01/M04 A2995 RMK SLP153
CYSC;2002-10-21 05:00;METAR CYSC 210500Z AUTO 00000KT 9SM OVC023 M01/M03 A2994 RMK SLP151
CYSC;2002-10-21 05:25;SPECI CYSC 210525Z AUTO 00000KT 9SM OVC025 M01/M03 A2994
CYSC;2002-10-21 06:00;METAR CYSC 210600Z AUTO 08003KT 9SM OVC025 M01/M03 A2993 RMK SLP147
CYSC;2002-10-21 06:24;SPECI CYSC 210624Z AUTO 12002KT 7SM OVC023 M00/M03 A2993
CYSC;2002-10-21 06:25;SPECI CYSC 210625Z AUTO 00000KT 7SM -SN OVC023 M00/M03 A2993
CYSC;2002-10-21 06:32;SPECI CYSC 210632Z AUTO 00000KT 2 1/2SM -SN FEW012 OVC017 M01/M02 A2993
CYSC;2002-10-21 06:34;SPECI CYSC 210634Z AUTO 10002KT 2SM -SN BKN012 OVC027 M01/M02 A2993
CYSC;2002-10-21 06:38;SPECI CYSC 210638Z AUTO 05002KT 1 1/4SM -SN VV001 M01/M02 A2993
CYSC;2002-10-21 06:42;SPECI CYSC 210642Z AUTO 02002KT 1SM -SN VV000 M01/M02 A2993
CYSC;2002-10-21 06:51;SPECI CYSC 210651Z AUTO 01002KT 1SM -SN BKN027 M01/M03 A2993
CYSC;2002-10-21 06:56;SPECI CYSC 210656Z AUTO 01002KT 1 1/2SM -SN BKN027 M01/M03 A2993
CYSC;2002-10-21 07:05;SPECI CYSC 210705Z AUTO 00000KT 1 1/2SM -SN BKN011 OVC027 M01/M03 A2993
CYSC;2002-10-21 07:00;METAR CYSC 210700Z AUTO 03002KT 1 5/8SM -SN BKN027 M01/M03 A2993 RMK SLP147
CYSC;2002-10-21 07:27;SPECI CYSC 210727Z AUTO 09002KT 2 1/2SM -SN OVC025 M01/M03 A2993
CYSC;2002-10-21 07:31;SPECI CYSC 210731Z AUTO 10002KT 3SM -SN OVC025 M01/M03 A2992
CYSC;2002-10-21 07:51;SPECI CYSC 210751Z AUTO 34003KT 3 1/2SM -SN OVC020 M01/M03 A2993
CYSC;2002-10-21 07:53;SPECI CYSC 210753Z AUTO 33002KT 2 1/2SM -SN OVC013 M01/M03 A2993
CYSC;2002-10-21 07:56;SPECI CYSC 210756Z AUTO 32002KT 1 3/8SM -SN FEW005 OVC010 M01/M02 A2993
CYSC;2002-10-21 07:58;SPECI CYSC 210758Z AUTO 00000KT 1SM -SN BKN001 OVC010 M01/M02 A2993
CYSC;2002-10-21 07:59;SPECI CYSC 210759Z AUTO 00000KT 1SM -SN BKN000 OVC010 M01/M02 A2993
CYSC;2002-10-21 08:03;SPECI CYSC 210803Z AUTO 33002KT 5/8SM -SN OVC000 OVC027 M01/M02 A2993
CYSC;2002-10-21 08:00;METAR CYSC 210800Z AUTO 00000KT 3/4SM -SN OVC000 OVC010 M01/M02 A2993 RMK
CYSC;2002-10-21 08:14;SPECI CYSC 210814Z AUTO 00000KT 5/8SM -SN VV003 M01/M02 A2993
CYSC;2002-10-21 08:15;SPECI CYSC 210815Z AUTO 00000KT 1SM -SN BKN003 BKN020 OVC027 M01/M02 A2993
CYSC;2002-10-21 08:26;SPECI CYSC 210826Z AUTO 00000KT 1SM -SN VV010 M01/M02 A2993
CYSC;2002-10-21 08:27;SPECI CYSC 210827Z AUTO 00000KT 1SM -SN VV009 M01/M02 A2993
CYSC;2002-10-21 08:32;SPECI CYSC 210832Z AUTO 00000KT 1SM -SN VV006 M01/M02 A2993
CYSC;2002-10-21 08:36;SPECI CYSC 210836Z AUTO 00000KT 1SM -SN BKN001 OVC006 OVC018 M01/M02 A2993
CYSC;2002-10-21 08:43;SPECI CYSC 210843Z AUTO 33002KT 1SM -SN VV003 M01/M02 A2994
CYSC;2002-10-21 08:44;SPECI CYSC 210844Z AUTO 34002KT 1 1/2SM -SN VV003 M01/M02 A2994
CYSC;2002-10-21 08:58;SPECI CYSC 210858Z AUTO 31002KT 2 1/8SM -SN VV004 M01/M02 A2995
CYSC;2002-10-21 09:02;SPECI CYSC 210902Z AUTO 32002KT 2SM -SN VV002 M01/M02 A2995
CYSC;2002-10-21 09:05;SPECI CYSC 210905Z AUTO 00000KT 1 5/8SM -SN VV001 M01/M02 A2995
CYSC;2002-10-21 09:00;METAR CYSC 210900Z AUTO 31003KT 2SM -SN VV004 M01/M02 A2995 RMK SLP156
CYSC;2002-10-21 09:18;SPECI CYSC 210918Z AUTO 32002KT 2 1/8SM -SN OVC032 M01/M02 A2996
CYSC;2002-10-21 09:26;SPECI CYSC 210926Z AUTO 35002KT 1 1/2SM -SN SCT010 BKN020 OVC032 M01/M02 A2996
CYSC;2002-10-21 09:27;SPECI CYSC 210927Z AUTO 35002KT 1 1/8SM -SN FEW002 BKN010 BKN020 OVC032 M01/M02 A2996
CYSC;2002-10-21 09:29;SPECI CYSC 210929Z AUTO 00000KT 1SM -SN BKN001 OVC010 OVC020 OVC032 M01/M02
CYSC;2002-10-21 09:30;SPECI CYSC 210930Z AUTO 00000KT 1SM -SN BKN001 OVC010 OVC020 OVC032 M01/M02
CYSC;2002-10-21 09:38;SPECI CYSC 210938Z AUTO 30002KT 1SM -SN FEW002 SCT020 OVC032 M01/M02 A2997
CYSC;2002-10-21 09:39;SPECI CYSC 210939Z AUTO 29002KT 1 1/2SM -SN FEW002 SCT020 OVC032 M01/M02 A2997
CYSC;2002-10-21 09:48;SPECI CYSC 210948Z AUTO 28003KT 2 1/2SM FEW003 OVC032 M01/M02 A2997 RMK VSBY VRBL 2.5V8.0
CYSC;2002-10-21 09:53;SPECI CYSC 210953Z AUTO 26002KT 7SM FEW002 OVC034 M01/M02 A2998
CYSC;2002-10-21 10:00;METAR CYSC 211000Z AUTO 26002KT 9SM FEW003 OVC034 M01/M02 A2998 RMK SLP165
CYSC;2002-10-21 10:12;SPECI CYSC 211012Z AUTO 26002KT 9SM -SN OVC034 M01/M02 A2999
CYSC;2002-10-21 10:37;SPECI CYSC 211037Z AUTO 24002KT 9SM FEW008 OVC034 M01/M02 A2999
CYSC;2002-10-21 10:39;SPECI CYSC 211039Z AUTO 25003KT 9SM BKN007 OVC034 M01/M02 A2999
CYSC;2002-10-21 10:41;SPECI CYSC 211041Z AUTO 26003KT 9SM SCT007 OVC036 M01/M02 A3000
CYSC;2002-10-21 10:59;SPECI CYSC 211059Z AUTO 24002KT 9SM -SN OVC036 M01/M02 A3000
CYSC;2002-10-21 11:00;METAR CYSC 211100Z AUTO 24002KT 9SM FEW003 OVC036 M01/M02 A3000 RMK SLP172
CYSC;2002-10-21 11:30;SPECI CYSC 211130Z AUTO 26002KT 9SM BKN012 OVC040 OVC069 M01/M02 A3001
CYSC;2002-10-21 12:00;METAR CYSC 211200Z 28004KT 10SM -SN BKN010 OVC030 M01/M02 A3003 RMK CF5SC2 /S02 AFT 21Z/ SLP181
CYSC;2002-10-21 12:26;SPECI CYSC 211226Z 25003KT 12SM -SN SCT006 OVC023 RMK CF4SC4
CYSC;2002-10-21 12:40;SPECI CYSC 211240Z 23003KT 12SM -SN FEW004 BKN009 OVC022 RMK CF1CF6SC2
CYSC;2002-10-21 13:00;METAR CYSC 211300Z 22004KT 12SM -SN BKN005 OVC022 M01/M02 A3005 RMK CF7SC1 SLP187
CYSC;2002-10-21 13:26;SPECI CYSC 211326Z 24003KT 2 1/2SM -SN OVC006 RMK SN1CF7
CYSC;2002-10-21 13:47;SPECI CYSC 211347Z 27007KT 8SM -SN SCT005 OVC017 RMK CF3SC5 VSBY SE 1
CYSC;2002-10-21 14:00;METAR CYSC 211400Z 25003KT 10SM -SN FEW005 OVC017 M01/M02 A3007 RMK CF2SC6 SLP193
CYSC;2002-10-21 15:00;METAR CYSC 211500Z 28006KT 15SM -SHSN FEW005 BKN015 M00/M03 A3008 RMK CF1SC6 SLP198
CYSC;2002-10-21 15:19;SPECI CYSC 211519Z 28006KT 15SM FEW010 BKN024 RMK CF1SC6
CYSC;2002-10-21 16:00;METAR CYSC 211600Z 27010KT 15SM BKN024 BKN062 02/M03 A3009 RMK SC5SC1 CU ASOCTD SLP200
CYSC;2002-10-21 17:00;METAR CYSC 211700Z 25010G15KT 15SM BKN029 02/M04 A3008 RMK SC6 CU EMBDD SLP199
CYSC;2002-10-21 18:00;METAR CYSC 211800Z 25008KT 15SM BKN031 OVC070 02/M04 A3009 RMK SC6AC2 SLP200
CYSC;2002-10-21 18:34;SPECI CYSC 211834Z 28011KT 15SM -SHSN BKN031 OVC062 RMK SC6SC2 CU EMBDD
CYSC;2002-10-21 19:00;METAR CYSC 211900Z 29008G15KT 15SM -SHSN FEW015 BKN027 01/M04 A3010 RMK CF2SC6 SLP204
CYSC;2002-10-21 19:24;SPECI CYSC 211924Z 29007KT 15SM FEW015 BKN027 BKN075 RMK CF1SC4AC2 CU ASOCTD
CYSC;2002-10-21 20:00;METAR CYSC 212000Z 27007KT 15SM BKN027 BKN075 02/M05 A3011 RMK SC5AC2 CU ASOCTD SLP206
CYSC;2002-10-21 21:00;METAR CYSC 212100Z 28011KT 15SM BKN034 01/M05 A3012 RMK SC7 LAST MANNED OB/NEXT 221200 CU EMBDD SLP212
CYSC;2002-10-21 22:00;METAR CYSC 212200Z AUTO 24003KT 9SM OVC038 01/M05 A3012 RMK SLP213
CYSC;2002-10-21 23:00;METAR CYSC 212300Z AUTO 26003KT 9SM OVC039 00/M04 A3014 RMK SLP218
CYSC;2002-10-22 00:00;METAR CYSC 220000Z AUTO 29004KT 9SM BKN033 BKN044 00/M04 A3015 RMK SLP222
CYSC;2002-10-22 01:00;METAR CYSC 220100Z AUTO 31003KT 9SM FEW033 OVC044 00/M05 A3016 RMK SLP224
CYSC;2002-10-22 02:00;METAR CYSC 220200Z AUTO 25003KT 9SM OVC046 M01/M04 A3016 RMK SLP224
CYSC;2002-10-22 03:00;METAR CYSC 220300Z AUTO 27003KT 9SM CLR M02/M05 A3016 RMK SLP227
CYSC;2002-10-22 04:00;METAR CYSC 220400Z AUTO 21003KT 9SM CLR M04/M06 A3016 RMK SLP228
CYSC;2002-10-22 05:00;METAR CYSC 220500Z AUTO 21002KT 9SM CLR M05/M06 A3017 RMK SLP229
CYSC;2002-10-22 06:00;METAR CYSC 220600Z AUTO 21002KT 9SM CLR M05/M07 A3017 RMK ICG SLP231
CYSC;2002-10-22 07:00;METAR CYSC 220700Z AUTO 20002KT 9SM CLR M04/M06 A3018 RMK ICG INTMT SLP232
CYSC;2002-10-22 08:00;METAR CYSC 220800Z AUTO 00000KT 9SM CLR M05/M07 A3018 RMK ICG PAST HR SLP232
CYSC;2002-10-22 09:00;METAR CYSC 220900Z AUTO 00000KT 9SM CLR M06/M08 A3017 RMK SLP232
CYSC;2002-10-22 10:00;METAR CYSC 221000Z AUTO 00000KT 9SM CLR M06/M08 A3018 RMK SLP233
CYSC;2002-10-22 11:00;METAR CYSC 221100Z AUTO 00000KT 9SM CLR M07/M09 A3018 RMK ICG INTMT SLP234
CYSC;2002-10-22 12:00;METAR CYSC 221200Z 00000KT 15SM FEW100 FEW240 M05/M05 A3019 RMK AC2CI0 FROIN SLP236
CYSC;2002-10-22 13:00;METAR CYSC 221300Z 26003KT 15SM FEW100 FEW240 M02/M03 A3021 RMK AC1CI2 SLP243
CYSC;2002-10-22 14:00;METAR CYSC 221400Z 27004KT 15SM FEW020 FEW090 BKN200 M01/M04 A3022 RMK CU1AC2CI2 SLP246
CYSC;2002-10-22 15:00;METAR CYSC 221500Z 27006KT 15SM FEW025 FEW095 SCT200 02/M04 A3021 RMK CU1AC1CI2 AC TR SLP243
CYSC;2002-10-22 16:00;METAR CYSC 221600Z 27011KT 15SM FEW030 FEW090 FEW200 03/M06 A3020 RMK CU2AC1CI0 SLP239
CYSC;2002-10-22 17:00;METAR CYSC 221700Z 27011KT 15SM FEW036 FEW090 FEW200 05/M05 A3018 RMK CU2AC1CI0 SLP233
CYSC;2002-10-22 18:00;METAR CYSC 221800Z 26013G18KT 15SM FEW040 SCT200 05/M06 A3016 RMK CU2CI0 SLP226
CYSC;2002-10-22 19:00;METAR CYSC 221900Z 30010G16KT 15SM FEW040 FEW090 05/M06 A3015 RMK CU2AC1 SLP222
CYSC;2002-10-22 20:00;METAR CYSC 222000Z 29012G17KT 15SM FEW042 04/M06 A3016 RMK CU2 SLP225
CYSC;2002-10-22 21:00;METAR CYSC 222100Z 30011KT 15SM FEW042 FEW200 03/M06 A3016 RMK CU2CI0 LAST MANNED OB/NEXT 231200 SLP226
CYSC;2002-10-22 22:00;METAR CYSC 222200Z AUTO 28004KT 9SM SCT040 00/M06 A3017 RMK SLP230
CYSC;2002-10-22 23:00;METAR CYSC 222300Z AUTO 26002KT 9SM FEW042 M03/M06 A3017 RMK SLP234
CYSC;2002-10-23 00:00;METAR CYSC 230000Z AUTO 00000KT 9SM CLR M04/M06 A3018 RMK SLP235
CYSC;2002-10-23 01:00;METAR CYSC 230100Z AUTO 00000KT 9SM CLR M05/M06 A3019 RMK SLP238
CYSC;2002-10-23 02:00;METAR CYSC 230200Z AUTO 00000KT 9SM CLR M05/M07 A3020 RMK SLP241
CYSC;2002-10-23 03:00;METAR CYSC 230300Z AUTO 15002KT 9SM CLR M06/M08 A3021 RMK SLP243
CYSC;2002-10-23 04:00;METAR CYSC 230400Z AUTO 23003KT 9SM CLR M06/M07 A3020 RMK SLP241
CYSC;2002-10-23 05:00;METAR CYSC 230500Z AUTO 00000KT 9SM CLR M07/M09 A3021 RMK ICG PAST HR SLP242
CYSC;2002-10-23 06:00;METAR CYSC 230600Z AUTO 00000KT 9SM CLR M07/M10 A3020 RMK ICG SLP240
CYSC;2002-10-23 07:00;METAR CYSC 230700Z AUTO 00000KT 9SM CLR M08/M10 A3020 RMK ICG INTMT SLP239
CYSC;2002-10-23 08:00;METAR CYSC 230800Z AUTO 25002KT 9SM CLR M07/M09 A3020 RMK ICG INTMT SLP241
CYSC;2002-10-23 09:00;METAR CYSC 230900Z AUTO 00000KT 9SM SCT025 M07/M09 A3021 RMK ICG PAST HR SLP244
CYSC;2002-10-23 10:00;METAR CYSC 231000Z AUTO 00000KT 9SM CLR M09/M10 A3021 RMK SLP245
CYSC;2002-10-23 11:00;METAR CYSC 231100Z AUTO 20003KT 9SM CLR M09/M10 A3022 RMK SLP251
CYSC;2002-10-23 12:00;METAR CYSC 231200Z 00000KT 15SM FEW120 M07/M08 A3024 RMK AC1 FROIN SLP255
CYSC;2002-10-23 13:00;METAR CYSC 231300Z 27003KT 15SM FEW020 FEW070 FEW120 M03/M04 A3025 RMK CU1AC1AC1 CU TR SLP258
CYSC;2002-10-23 14:00;METAR CYSC 231400Z 25005KT 15SM FEW025 FEW065 FEW100 M01/M04 A3024 RMK CU1SC1AC1 SLP257
CYSC;2002-10-23 15:00;METAR CYSC 231500Z 26007KT 15SM FEW015 BKN025 01/M03 A3024 RMK CU1SC4 SLP253
CYSC;2002-10-23 16:00;METAR CYSC 231600Z 27009KT 15SM OVC018 02/M04 A3023 RMK SC7 SLP251
CYSC;2002-10-23 17:00;METAR CYSC 231700Z 27008KT 15SM OVC023 03/M04 A3022 RMK SC8 SLP248
CYSC;2002-10-23 18:00;METAR CYSC 231800Z 28007KT 15SM OVC025 03/M04 A3022 RMK SC8 SLP248
CYSC;2002-10-23 19:00;METAR CYSC 231900Z 28010KT 15SM OVC025 02/M04 A3023 RMK SC8 SLP249
CYSC;2002-10-23 20:00;METAR CYSC 232000Z 30006KT 15SM OVC025 02/M04 A3024 RMK SC8 SLP252
CYSC;2002-10-23 21:00;METAR CYSC 232100Z 28004KT 15SM BKN025 OVC050 02/M03 A3024 RMK SC5SC2 LAST MANNED OB/NEXT 241200 SLP252
CYSC;2002-10-23 22:00;METAR CYSC 232200Z AUTO 00000KT 9SM OVC025 01/M03 A3024 RMK SLP256
CYSC;2002-10-23 23:00;METAR CYSC 232300Z AUTO 00000KT 9SM OVC030 OVC041 00/M03 A3026 RMK SLP263
CYSC;2002-10-24 00:00;METAR CYSC 240000Z AUTO 00000KT 9SM OVC030 01/M01 A3027 RMK SLP264
CYSC;2002-10-24 01:00;METAR CYSC 240100Z AUTO 19003KT 9SM OVC038 M00/M02 A3027 RMK SLP265
CYSC;2002-10-24 02:00;METAR CYSC 240200Z AUTO 21004KT 9SM FEW043 BKN054 BKN071 M01/M03 A3028 RMK SLP268
CYSC;2002-10-24 03:00;METAR CYSC 240300Z AUTO 00000KT 9SM OVC033 OVC049 OVC062 M00/M02 A3028 RMK SLP267
CYSC;2002-10-24 04:00;METAR CYSC 240400Z AUTO 00000KT 9SM OVC031 00/M02 A3028 RMK SLP265
CYSC;2002-10-24 05:00;METAR CYSC 240500Z AUTO 21002KT 9SM OVC031 00/M02 A3028 RMK SLP267
CYSC;2002-10-24 06:00;METAR CYSC 240600Z AUTO 23003KT 9SM OVC015 OVC031 00/M02 A3029 RMK SLP270
CYSC;2002-10-24 07:00;METAR CYSC 240700Z AUTO 24004KT 9SM OVC018 OVC036 00/M02 A3030 RMK SLP274
CYSC;2002-10-24 08:00;METAR CYSC 240800Z AUTO 24002KT 9SM OVC030 OVC069 00/M02 A3030 RMK SLP274
CYSC;2002-10-24 09:00;METAR CYSC 240900Z AUTO 26003KT 4SM -SN BKN015 OVC025 00/M02 A3032 RMK SLP279
CYSC;2002-10-24 10:00;METAR CYSC 241000Z AUTO 22004KT 9SM BKN016 OVC030 00/M02 A3033 RMK SLP284
CYSC;2002-10-24 11:00;METAR CYSC 241100Z AUTO 22004KT 9SM OVC013 OVC041 OVC064 M00/M02 A3034 RMK SLP288
CYSC;2002-10-24 12:00;METAR CYSC 241200Z 22003KT 15SM -SHSN SCT016 BKN039 M00/M02 A3035 RMK CF3SC2 SLP291
CYSC;2002-10-24 13:00;METAR CYSC 241300Z 23004KT 12SM -SHSN FEW012 BKN019 BKN041 01/M02 A3037 RMK CU1SC5SC1 SLP297
CYSC;2002-10-24 14:00;METAR CYSC 241400Z 24007KT 15SM -SHSN FEW015 BKN025 02/M02 A3038 RMK CU2SC4 SLP299
CYSC;2002-10-24 15:00;METAR CYSC 241500Z 28007KT 15SM SCT017 BKN040 04/M02 A3037 RMK CU3SC2 SLP294
CYSC;2002-10-24 16:00;METAR CYSC 241600Z 29006KT 15SM BKN030 BKN050 06/M02 A3036 RMK SC6SC1 CU EMBDD SLP292
CYSC;2002-10-24 17:00;METAR CYSC 241700Z 30004KT 15SM OVC028 05/M03 A3035 RMK SC8 S- INTMT SLP289
CYSC;2002-10-24 18:00;METAR CYSC 241800Z 27004KT 15SM SCT015 BKN031 OVC060 05/M03 A3034 RMK CF3SC4SC1 SLP285
CYSC;2002-10-24 19:00;METAR CYSC 241900Z 30004KT 15SM FEW015 OVC035 04/M03 A3034 RMK CF2SC6 SLP283
CYSC;2002-10-24 20:00;METAR CYSC 242000Z 28005KT 15SM BKN037 OVC060 04/M04 A3034 RMK SC5SC3 SLP285
CYSC;2002-10-24 21:00;METAR CYSC 242100Z 26004KT 15SM FEW020 OVC037 04/M04 A3034 RMK CF2SC4 LAST MANNED OB/NEXT 251200 SLP286
CYSC;2002-10-24 22:00;METAR CYSC 242200Z AUTO 28004KT 9SM OVC037 03/M03 A3035 RMK SLP290
CYSC;2002-10-24 23:00;METAR CYSC 242300Z AUTO 00000KT 9SM OVC037 02/M04 A3035 RMK SLP291
CYSC;2002-10-25 00:00;METAR CYSC 250000Z AUTO 22002KT 9SM OVC037 02/M03 A3036 RMK SLP293
CYSC;2002-10-25 01:00;METAR CYSC 250100Z AUTO 21002KT 9SM OVC039 01/M02 A3036 RMK SLP293
CYSC;2002-10-25 02:00;METAR CYSC 250200Z AUTO 00000KT 9SM OVC044 00/M03 A3036 RMK SLP293
CYSC;2002-10-25 03:00;METAR CYSC 250300Z AUTO 00000KT 9SM FEW038 OVC044 00/M01 A3036 RMK SLP293
CYSC;2002-10-25 04:00;METAR CYSC 250400Z AUTO 20002KT 9SM OVC042 01/M03 A3036 RMK SLP291
CYSC;2002-10-25 05:00;METAR CYSC 250500Z AUTO 00000KT 9SM OVC048 00/M03 A3036 RMK SLP292
CYSC;2002-10-25 06:00;METAR CYSC 250600Z AUTO 23002KT 9SM OVC054 M00/M03 A3036 RMK SLP292
CYSC;2002-10-25 07:00;METAR CYSC 250700Z AUTO 21004KT 9SM OVC054 M00/M03 A3036 RMK SLP293
CYSC;2002-10-25 08:00;METAR CYSC 250800Z AUTO 00000KT 9SM OVC058 M01/M03 A3036 RMK SLP293
CYSC;2002-10-25 09:00;METAR CYSC 250900Z AUTO 21003KT 9SM OVC058 M01/M04 A3037 RMK SLP295
CYSC;2002-10-25 10:00;METAR CYSC 251000Z AUTO 22004KT 9SM OVC058 M00/M04 A3039 RMK SLP305
CYSC;2002-10-25 11:00;METAR CYSC 251100Z AUTO 23005KT 9SM SCT039 OVC045 M01/M04 A3040 RMK SLP308
CYSC;2002-10-26 00:00;METAR CYSC 260000Z AUTO 08004KT 9SM CLR M02/M05 A3031 RMK SLP278
CYSC;2002-10-26 01:00;METAR CYSC 260100Z AUTO 08006KT 9SM CLR M01/M05 A3030 RMK SLP275
CYSC;2002-10-26 02:00;METAR CYSC 260200Z AUTO 08006KT 9SM CLR M02/M05 A3028 RMK SLP265
CYSC;2002-10-26 03:00;METAR CYSC 260300Z AUTO 07006KT 9SM CLR M02/M05 A3027 RMK SLP264
CYSC;2002-10-26 04:00;METAR CYSC 260400Z AUTO 08006KT 9SM CLR M02/M05 A3025 RMK SLP256
CYSC;2002-10-26 05:00;METAR CYSC 260500Z AUTO 09005KT 9SM CLR M02/M05 A3023 RMK SLP248
CYSC;2002-10-26 06:00;METAR CYSC 260600Z AUTO 09006KT 9SM CLR M01/M05 A3021 RMK SLP242
CYSC;2002-10-26 07:00;METAR CYSC 260700Z AUTO 09006KT 9SM CLR M00/M05 A3019 RMK SLP234
CYSC;2002-10-26 08:00;METAR CYSC 260800Z AUTO 07005KT 9SM CLR 01/M04 A3015 RMK SLP222
CYSC;2002-10-26 09:00;METAR CYSC 260900Z AUTO 10004KT 9SM CLR 02/M04 A3014 RMK SLP217
CYSC;2002-10-26 10:00;METAR CYSC 261000Z AUTO 11004KT 9SM CLR 02/M04 A3012 RMK SLP213
CYSC;2002-10-26 11:00;METAR CYSC 261100Z AUTO 11005KT 9SM CLR 02/M03 A3009 RMK SLP200
CYSC;2002-10-26 12:00;METAR CYSC 261200Z 13006KT 12SM -RA BKN017 OVC120 03/00 A3005 RMK SC5AC3 SLP189
CYSC;2002-10-26 13:00;METAR CYSC 261300Z 07004KT 12SM -RA BKN017 OVC120 03/02 A3003 RMK SC5AC3 SLP182
CYSC;2002-10-26 14:00;METAR CYSC 261400Z 12010KT 10SM -RA BKN014 BKN036 OVC120 03/02 A3002 RMK SC5SC2AC2 SLP176
CYSC;2002-10-26 15:00;METAR CYSC 261500Z 12006KT 8SM -RASN BKN012 OVC094 03/02 A3000 RERA RMK SC6AC2 SLP169
CYSC;2002-10-26 15:20;SPECI CYSC 261520Z 14003KT 7SM RA BKN012 OVC094 RMK SC6AC2
CYSC;2002-10-26 16:00;METAR CYSC 261600Z 08002KT 8SM -RASN BKN012 OVC110 03/02 A2998 RERA RMK SC6AC2 SLP163
CYSC;2002-10-26 16:18;SPECI CYSC 261618Z 00000KT 8SM -RA BKN009 OVC087 RMK SC6AC2
CYSC;2002-10-26 16:39;SPECI CYSC 261639Z 00000KT 10SM -RA BKN011 OVC087 RMK SC5AC3
CYSC;2002-10-26 17:00;METAR CYSC 261700Z 00000KT 12SM -RA BKN011 OVC087 03/02 A2996 RMK SC5AC3 SLP156
CYSC;2002-10-26 17:17;SPECI CYSC 261717Z 16002KT 12SM -RA BKN008 OVC080 RMK SC5AC3
CYSC;2002-10-26 17:48;SPECI CYSC 261748Z 15003KT 12SM -RA BKN015 OVC080 RMK SC6AC2
CYSC;2002-10-26 18:00;METAR CYSC 261800Z 13005KT 12SM -RA BKN017 OVC080 03/03 A2994 RMK SC6AC2 SLP149
CYSC;2002-10-26 19:00;METAR CYSC 261900Z 14003KT 10SM -RA BKN012 OVC080 04/03 A2992 RMK SC7AC1 SLP143
CYSC;2002-10-26 20:00;METAR CYSC 262000Z 15006KT 12SM -RA FEW008 BKN019 OVC068 04/03 A2990 RMK SF2SC4AC2 SLP137
CYSC;2002-10-26 21:00;METAR CYSC 262100Z 15002KT 12SM -RA FEW010 OVC026 04/03 A2989 RMK SF2SC6 LAST MANNED OB/NEXT 271200 SLP131
CYSC;2002-10-26 21:58;SPECI CYSC 262158Z AUTO 13002KT 7SM -RA OVC023 04/03 A2989
CYSC;2002-10-26 22:00;METAR CYSC 262200Z AUTO 12002KT 6SM -RA OVC023 04/03 A2989 RMK SLP130
CYSC;2002-10-26 22:28;SPECI CYSC 262228Z AUTO 00000KT 3SM -RA OVC011 04/03 A2989
CYSC;2002-10-26 22:30;SPECI CYSC 262230Z AUTO 00000KT 2 1/2SM -RA OVC011 04/03 A2989
CYSC;2002-10-26 23:00;METAR CYSC 262300Z AUTO 10004KT 3SM -RA OVC011 04/03 A2988 RMK PCPN 0.5MM PAST HR SLP126
CYSC;2002-10-26 23:10;SPECI CYSC 262310Z AUTO 00000KT 5SM OVC018 04/03 A2988
CYSC;2002-10-26 23:30;SPECI CYSC 262330Z AUTO 00000KT 5SM OVC012 04/03 A2988
CYSC;2002-10-27 23:49;SPECI CYSC 262349Z AUTO 00000KT 4SM FEW012 FEW018 04/03 A2988
CYSC;2002-10-27 23:50;SPECI CYSC 262350Z AUTO 03002KT 4SM FEW012 OVC021 04/03 A2988
CYSC;2002-10-27 00:00;METAR CYSC 270000Z AUTO 09002KT 6SM OVC021 04/03 A2987 RMK SLP126
CYSC;2002-10-27 00:50;SPECI CYSC 270050Z AUTO 00000KT 5SM BKN000 OVC017 04/03 A2987
CYSC;2002-10-27 00:59;SPECI CYSC 270059Z AUTO 34002KT 2 1/2SM OVC000 OVC013 04/03 A2987
CYSC;2002-10-27 01:00;METAR CYSC 270100Z AUTO 34002KT 2 1/4SM OVC000 OVC013 04/03 A2987 RMK SLP125
CYSC;2002-10-27 01:19;SPECI CYSC 270119Z AUTO 00000KT 1 1/8SM OVC003 04/03 A2987
CYSC;2002-10-27 01:23;SPECI CYSC 270123Z AUTO 00000KT 1SM FEW000 OVC003 04/03 A2987
CYSC;2002-10-27 01:26;SPECI CYSC 270126Z AUTO 00000KT 1SM BKN000 OVC003 04/03 A2987 PCPN 1.0MM PAST HR SLP125
CYSC;2002-10-27 02:41;SPECI CYSC 270241Z AUTO 00000KT 1 3/8SM DZ FEW004 04/03 A2987
CYSC;2002-10-27 02:43;SPECI CYSC 270243Z AUTO 25002KT 1 3/8SM DZ BKN004 03/03 A2987
CYSC;2002-10-27 02:45;SPECI CYSC 270245Z AUTO 23002KT 1 3/8SM DZ OVC002 OVC008 04/03 A2987
CYSC;2002-10-27 02:47;SPECI CYSC 270247Z AUTO 24002KT 1 3/8SM BKN002 OVC008 03/03 A2987
CYSC;2002-10-27 02:49;SPECI CYSC 270249Z AUTO 26003KT 2 1/2SM BKN002 OVC008 04/03 A2987 RMK VSBY VRBL 2.2V4.0
CYSC;2002-10-27 02:53;SPECI CYSC 270253Z AUTO 25003KT 2 1/2SM OVC000 03/03 A2987
CYSC;2002-10-27 03:00;METAR CYSC 270300Z AUTO 28003KT 1 3/4SM OVC001 04/03 A2987 RMK PCPN 0.5MM PAST HR SLP125
CYSC;2002-10-27 03:09;SPECI CYSC 270309Z AUTO 00000KT 1 1/2SM OVC007 04/03 A2987
CYSC;2002-10-27 03:13;SPECI CYSC 270313Z AUTO 27003KT 1 5/8SM BKN001 OVC007 04/03 A2987
CYSC;2002-10-27 03:25;SPECI CYSC 270325Z AUTO 25002KT 2SM -RA OVC000 OVC007 03/03 A2987
CYSC;2002-10-27 04:00;METAR CYSC 270400Z AUTO 23003KT 2 1/4SM -RA OVC000 04/03 A2986 RMK PCPN 0.5MM PAST HR SLP123
CYSC;2002-10-27 04:20;SPECI CYSC 270420Z AUTO 23004KT 1 1/2SM OVC000 04/03 A2986
CYSC;2002-10-27 04:27;SPECI CYSC 270427Z AUTO 23004KT 1 3/8SM OVC000 04/04 A2986
CYSC;2002-10-27 05:00;METAR CYSC 270500Z AUTO 24005KT 1 1/8SM OVC000 04/04 A2987 RMK SLP124
CYSC;2002-10-27 06:00;METAR CYSC 270600Z AUTO 27012KT 3 1/2SM BKN003 03/03 A2988 RMK PCPN 0.5MM PAST HR SLP128
CYSC;2002-10-27 07:00;METAR CYSC 270700Z AUTO 27011KT 7SM BKN003 03/02 A2990 RMK SLP135
CYSC;2002-10-27 08:00;METAR CYSC 270800Z AUTO 28009G15KT 6SM OVC005 02/02 A2991 RMK SLP140
CYSC;2002-10-27 09:00;METAR CYSC 270900Z AUTO 29013KT 2 1/2SM BKN002 BKN013 OVC021 02/02 A2993 RMK SLP145
CYSC;2002-10-27 10:00;METAR CYSC 271000Z AUTO 26006KT 4SM -RA OVC003 02/01 A2994 RMK SLP148
CYSC;2002-10-27 11:00;METAR CYSC 271100Z AUTO 26006KT 9SM FEW005 OVC014 01/01 A2994 RMK PCPN 0.5MM PAST HR SLP150
CYSC;2002-10-27 13:00;METAR CYSC 271300Z AUTO 26007KT 9SM FEW012 OVC016 01/00 A2996 RMK SLP154
CYSC;2002-10-27 14:00;METAR CYSC 271400Z 26006KT 15SM FEW012 OVC019 02/01 A2995 RMK SF1SC7 SLP151
CYSC;2002-10-27 15:00;METAR CYSC 271500Z 27008KT 15SM FEW012 OVC016 03/01 A2993 RMK SF2SC6 SLP145
CYSC;2002-10-27 16:00;METAR CYSC 271600Z 24006KT 15SM FEW010 OVC014 03/01 A2992 RMK SF2SC6 SLP142
CYSC;2002-10-27 17:00;METAR CYSC 271700Z 24007KT 15SM OVC014 03/00 A2990 RMK SC8 SLP136
CYSC;2002-10-27 18:00;METAR CYSC 271800Z 25007KT 10SM -SN OVC012 02/01 A2989 RMK SC8 SLP132
CYSC;2002-10-27 19:00;METAR CYSC 271900Z 23006KT 8SM -RASN OVC006 02/01 A2988 RMK SF8 SLP128
CYSC;2002-10-27 20:00;METAR CYSC 272000Z 22004KT 6SM -RASN BR BKN005 OVC009 02/01 A2988 RMK SF5SC3 SLP128
CYSC;2002-10-27 21:00;METAR CYSC 272100Z 25005KT 8SM -RA OVC006 02/02 A2988 RMK NS8 SLP129
CYSC;2002-10-27 22:00;METAR CYSC 272200Z AUTO 27008KT 8SM BKN008 OVC027 03/02 A2992 RMK SLP141
CYSC;2002-10-27 23:00;METAR CYSC 272300Z AUTO 27009KT 9SM FEW014 OVC018 02/01 A2994 RMK SLP151
CYSC;2002-10-28 00:00;METAR CYSC 280000Z AUTO 25007KT 9SM FEW014 01/00 A2994 RMK SLP150
CYSC;2002-10-28 01:00;METAR CYSC 280100Z AUTO 21005KT 9SM SCT014 00/M01 A2993 RMK SLP147
CYSC;2002-10-28 02:00;METAR CYSC 280200Z AUTO 22004KT 9SM OVC024 OVC053 01/M01 A2995 RMK SLP154
CYSC;2002-10-28 03:00;METAR CYSC 280300Z AUTO 26003KT 9SM OVC020 OVC050 01/M00 A2996 RMK SLP157
CYSC;2002-10-28 04:00;METAR CYSC 280400Z AUTO 27005KT 9SM OVC016 OVC058 01/M00 A2997 RMK SLP160
CYSC;2002-10-28 05:00;METAR CYSC 280500Z AUTO 31002KT 9SM OVC018 OVC053 01/M00 A2998 RMK SLP164
CYSC;2002-10-28 06:00;METAR CYSC 280600Z AUTO 29005KT 9SM OVC008 01/M00 A2999 RMK SLP168
CYSC;2002-10-28 07:00;METAR CYSC 280700Z AUTO 29005KT 8SM BKN008 OVC019 OVC044 01/M00 A3000 RMK SLP170
CYSC;2002-10-28 08:00;METAR CYSC 280800Z AUTO 28005KT 7SM OVC008 OVC023 OVC048 01/M00 A3001 RMK SLP172
CYSC;2002-10-28 09:00;METAR CYSC 280900Z AUTO 28004KT 9SM CLR M01/M02 A3001 RMK SLP174
CYSC;2002-10-28 10:00;METAR CYSC 281000Z AUTO 27005KT 9SM CLR M02/M03 A3002 RMK SLP178
CYSC;2002-10-28 11:00;METAR CYSC 281100Z AUTO 24004KT 8SM CLR M02/M03 A3003 RMK ICG SLP180
CYSC;2002-10-28 12:00;METAR CYSC 281200Z AUTO 18004KT 8SM BKN007 M02/M03 A3005 RMK ICG INTMT SLP187
CYSC;2002-10-28 13:00;METAR CYSC 281300Z 16002KT 15SM FEW009 FEW022 SCT120 M00/M02 A3007 RMK CF2CU1AC1 SLP194
CYSC;2002-10-28 14:00;METAR CYSC 281400Z 27005KT 15SM FEW010 SCT020 SCT250 02/00 A3007 RMK CF2CU1CI0 SLP194
CYSC;2002-10-28 15:00;METAR CYSC 281500Z 31007KT 15SM BKN017 03/M01 A3007 RMK CU6 SLP192
CYSC;2002-10-28 16:00;METAR CYSC 281600Z 34003KT 15SM BKN017 03/M02 A3007 RMK CU6 SLP193
CYSC;2002-10-28 17:00;METAR CYSC 281700Z 30005KT 15SM OVC025 03/M02 A3006 RMK CU8 TCU EMBDD SLP191
CYSC;2002-10-28 18:00;METAR CYSC 281800Z 31004KT 15SM BKN025 OVC110 03/M03 A3006 RMK CU6AC2 SLP190
CYSC;2002-10-28 19:00;METAR CYSC 281900Z 30007KT 15SM -SHSN BKN020 OVC110 02/M02 A3006 RMK CU6AC2
CYSC;2002-10-28 20:00;METAR CYSC 282000Z 28005KT 15SM BKN035 OVC110 02/M02 A3006 RMK SC6AC2
CYSC;2002-10-28 21:00;METAR CYSC 282100Z 30005KT 15SM BKN025 OVC110 02/M03 A3006 RMK SC6AC2
CYSC;2002-10-28 22:00;METAR CYSC 282200Z 29003KT 15SM BKN032 OVC110 02/M03 A3006 RMK SC6AC2 LAST MANNED OB/NEXT 291300 SLP192
CYSC;2002-10-28 23:00;METAR CYSC 282300Z AUTO 29006KT 9SM OVC038 01/M04 A3008 RMK SLP197
CYSC;2002-10-29 00:00;METAR CYSC 290000Z AUTO 30005KT 9SM OVC034 01/M04 A3008 RMK SLP201
CYSC;2002-10-29 01:00;METAR CYSC 290100Z AUTO 30004KT 9SM OVC034 01/M04 A3009 RMK SLP203
CYSC;2002-10-29 02:00;METAR CYSC 290200Z AUTO 31007KT 9SM OVC036 01/M05 A3011 RMK SLP206
CYSC;2002-10-29 03:00;METAR CYSC 290300Z AUTO 31004KT 9SM FEW022 OVC036 M00/M04 A3011 RMK SLP207
CYSC;2002-10-29 04:00;METAR CYSC 290400Z AUTO 30005KT 9SM OVC034 M00/M05 A3011 RMK SLP207
CYSC;2002-10-29 04:55;SPECI CYSC 290455Z AUTO 31009KT 9SM -SN OVC023 M00/M05 A3012
CYSC;2002-10-29 05:00;METAR CYSC 290500Z AUTO 32009KT 5SM -SN SCT020 OVC028 M00/M05 A3012 RMK SLP213
CYSC;2002-10-29 05:12;SPECI CYSC 290512Z AUTO 34006KT 4SM FEW016 SCT020 OVC028 M01/M04 A3012
CYSC;2002-10-29 05:15;SPECI CYSC 290515Z AUTO 34006KT 8SM -SN FEW016 SCT020 OVC028 M01/M05 A3013
CYSC;2002-10-29 05:20;SPECI CYSC 290520Z AUTO 33005KT 9SM FEW016 SCT020 OVC028 M01/M05 A3013
CYSC;2002-10-29 06:00;METAR CYSC 290600Z AUTO 34005KT 9SM BKN028 M01/M06 A3014 RMK SLP218
CYSC;2002-10-29 07:00;METAR CYSC 290700Z AUTO 28004KT 9SM OVC029 M02/M05 A3015 RMK SLP223
CYSC;2002-10-29 08:00;METAR CYSC 290800Z AUTO 30006KT 9SM CLR M03/M06 A3016 RMK SLP225
CYSC;2002-10-29 09:00;METAR CYSC 290900Z AUTO 30004KT 9SM CLR M04/M07 A3016 RMK SLP226
CYSC;2002-10-29 10:00;METAR CYSC 291000Z AUTO 30004KT 9SM CLR M04/M07 A3017 RMK SLP231
CYSC;2002-10-29 11:00;METAR CYSC 291100Z AUTO 30003KT 9SM CLR M05/M08 A3018 RMK SLP233
CYSC;2002-10-29 12:00;METAR CYSC 291200Z AUTO 28002KT 9SM CLR M04/M07 A3019 RMK SLP237
CYSC;2002-10-29 13:00;METAR CYSC 291300Z 32003KT 15SM FEW015 M02/M05 A3020 RMK CF1 SLP238
CYSC;2002-10-29 14:00;METAR CYSC 291400Z 34008KT 15SM FEW020 M01/M06 A3020 RMK CU1 SLP240
CYSC;2002-10-29 15:00;METAR CYSC 291500Z 32004KT 15SM FEW025 01/M07 A3020 RMK CU2 SLP238
CYSC;2002-10-29 16:00;METAR CYSC 291600Z 32009KT 15SM FEW025 02/M08 A3018 RMK CF1 SLP232
CYSC;2002-10-29 17:00;METAR CYSC 291700Z 31012KT 15SM FEW025 03/M08 A3017 RMK CU1 SLP227
CYSC;2002-10-29 18:00;METAR CYSC 291800Z 34007KT 15SM FEW030 03/M07 A3015 RMK CU2 SLP222
CYSC;2002-10-29 19:00;METAR CYSC 291900Z 32009KT 15SM FEW039 SCT250 03/M08 A3015 RMK CU2CI0 SLP221
CYSC;2002-10-29 20:00;METAR CYSC 292000Z 32006KT 15SM FEW039 SCT250 00/M08 A3015 RMK CU2CI0 SLP219
CYSC;2002-10-29 21:00;METAR CYSC 292100Z 33003KT 15SM SCT037 SCT250 00/M08 A3015 RMK CU3CI0 SLP223
CYSC;2002-10-29 22:00;METAR CYSC 292200Z 32004KT 15SM FEW037 SCT250 M01/M08 A3015 RMK CU2CI1 LAST MANNED OB/NEXT 301300 SLP222
CYSC;2002-10-29 23:00;METAR CYSC 292300Z AUTO 36002KT 9SM OVC039 M01/M08 A3015 RMK SLP223
CYSC;2002-10-30 00:00;METAR CYSC 300000Z AUTO 34003KT 9SM OVC039 M01/M08 A3016 RMK SLP226
CYSC;2002-10-30 01:00;METAR CYSC 300100Z AUTO 35004KT 9SM OVC030 M01/M08 A3016 RMK SLP227
CYSC;2002-10-30 02:00;METAR CYSC 300200Z AUTO 34006KT 9SM OVC030 M01/M09 A3017 RMK SLP230
CYSC;2002-10-30 03:00;METAR CYSC 300300Z AUTO 35004KT 9SM SCT032 M02/M09 A3016 RMK SLP225
CYSC;2002-10-30 04:00;METAR CYSC 300400Z AUTO 30002KT 9SM CLR M04/M08 A3014 RMK SLP220
CYSC;2002-10-30 05:00;METAR CYSC 300500Z AUTO 30004KT 9SM CLR M04/M08 A3013 RMK SLP216
CYSC;2002-10-30 06:00;METAR CYSC 300600Z AUTO 29004KT 9SM CLR M05/M08 A3012 RMK SLP213
CYSC;2002-10-30 07:00;METAR CYSC 300700Z AUTO 24003KT 9SM CLR M05/M08 A3012 RMK SLP212
CYSC;2002-10-30 08:00;METAR CYSC 300800Z AUTO 29002KT 9SM CLR M07/M09 A3010 RMK SLP208
CYSC;2002-10-30 09:00;METAR CYSC 300900Z AUTO 27003KT 9SM CLR M08/M09 A3010 RMK SLP207
CYSC;2002-10-30 10:00;METAR CYSC 301000Z AUTO 00000KT 9SM CLR M08/M09 A3008 RMK ICG PAST HR SLP203
CYSC;2002-10-30 11:00;METAR CYSC 301100Z AUTO 19002KT 9SM CLR M08/M09 A3010 RMK ICG SLP207
CYSC;2002-10-30 12:00;METAR CYSC 301200Z AUTO 23003KT 9SM CLR M07/M09 A3010 RMK ICG SLP208
CYSC;2002-10-30 13:00;METAR CYSC 301300Z 23003KT 15SM FEW015 SCT250 M05/M07 A3012 RMK CF1CI2 SLP213
CYSC;2002-10-30 14:00;METAR CYSC 301400Z 18002KT 15SM FEW015 SCT250 M02/M07 A3011 RMK CF1CI2 SLP209
CYSC;2002-10-30 15:00;METAR CYSC 301500Z 26002KT 15SM FEW015 SCT250 M01/M07 A3008 RMK CF1CI2 SLP197
CYSC;2002-10-30 16:00;METAR CYSC 301600Z 00000KT 15SM FEW020 SCT250 01/M08 A3005 RMK CF1CI2 SLP189
CYSC;2002-10-30 17:00;METAR CYSC 301700Z 30003KT 15SM FEW250 02/M09 A3003 RMK CI1 SLP182
CYSC;2002-10-30 18:00;METAR CYSC 301800Z 31007KT 15SM FEW250 03/M08 A2999 RMK CI1 SLP169
CYSC;2002-10-30 19:00;METAR CYSC 301900Z 30009KT 15SM FEW250 03/M09 A2998 RMK CI1 SLP166
CYSC;2002-10-30 20:00;METAR CYSC 302000Z 29007KT 15SM SCT250 02/M08 A3000 RMK CI2 SLP171
CYSC;2002-10-30 21:00;METAR CYSC 302100Z 30006KT 15SM SCT250 01/M09 A3001 RMK CI2 SLP175
CYSC;2002-10-30 22:00;METAR CYSC 302200Z 32003KT 15SM FEW250 M02/M09 A3000 RMK CI1 LAST MANNED OB/NEXT 311300 SLP173
CYSC;2002-10-30 23:00;METAR CYSC 302300Z AUTO 32002KT 9SM CLR M02/M09 A3000 RMK SLP176
CYSC;2002-10-31 00:00;METAR CYSC 310000Z AUTO 31004KT 9SM CLR M03/M09 A3001 RMK SLP178
CYSC;2002-10-31 01:00;METAR CYSC 310100Z AUTO 28002KT 9SM CLR M06/M09 A3001 RMK SLP179
CYSC;2002-10-31 02:00;METAR CYSC 310200Z AUTO 00000KT 9SM CLR M07/M09 A3001 RMK SLP177
CYSC;2002-10-31 03:00;METAR CYSC 310300Z AUTO 22002KT 9SM CLR M08/M10 A3001 RMK SLP177
CYSC;2002-10-31 04:00;METAR CYSC 310400Z AUTO 00000KT 9SM CLR M09/M11 A3000 RMK SLP174
CYSC;2002-10-31 05:00;METAR CYSC 310500Z AUTO 12002KT 9SM CLR M09/M11 A3000 RMK ICG SLP173
CYSC;2002-10-31 06:00;METAR CYSC 310600Z AUTO 00000KT 9SM CLR M09/M11 A2999 RMK ICG INTMT SLP169
CYSC;2002-10-31 07:00;METAR CYSC 310700Z AUTO 00000KT 9SM CLR M10/M11 A2998 RMK ICG PAST HR SLP168
CYSC;2002-10-31 08:00;METAR CYSC 310800Z AUTO 09002KT 9SM CLR M09/M11 A2998 RMK ICG PAST HR SLP165
CYSC;2002-10-31 09:00;METAR CYSC 310900Z AUTO 12002KT 9SM BKN097 M09/M11 A2997 RMK SLP165
CYSC;2002-10-31 10:00;METAR CYSC 311000Z AUTO 08002KT 9SM FEW095 M10/M11 A2998 RMK SLP169
CYSC;2002-10-31 11:00;METAR CYSC 311100Z AUTO 10002KT 9SM SCT094 M10/M11 A2999 RMK ICG PAST HR SLP170
CYSC;2002-10-31 12:00;METAR CYSC 311200Z AUTO 12002KT 9SM BKN092 M08/M10 A3000 RMK ICG SLP174
CYSC;2002-10-31 13:00;METAR CYSC 311300Z CCA 00000KT 15SM FEW090 FEW250 M05/M07 A3001 RMK AC1CI1 FROIN SLP176
CYSC;2002-10-31 14:00;METAR CYSC 311400Z 17003KT 15SM SCT097 BKN250 M02/M06 A3000 RMK AC3CI1 SLP175
CYSC;2002-10-31 15:00;METAR CYSC 311500Z 20003KT 15SM BKN079 BKN250 M00/M05 A2998 RMK AC5CI1
CYSC;2002-10-31 16:00;METAR CYSC 311600Z 19005KT 15SM FEW037 BKN076 BKN250 02/M06 A2997 RMK SC2AC4CI1 SLP163
CYSC;2002-10-31 17:00;METAR CYSC 311700Z 25006KT 15SM FEW055 BKN078 BKN250 02/M06 A2995 RMK SC2AC4CI0 SLP155
CYSC;2002-10-31 18:00;METAR CYSC 311800Z 26005KT 15SM FEW066 BKN097 BKN250 04/M05 A2993 RMK AC2AC3CI1 SLP147
CYSC;2002-10-31 19:00;METAR CYSC 311900Z 25006KT 15SM FEW050 BKN076 BKN250 04/M08 A2992 RMK SC2AC3CI1 SLP143
CYSC;2002-10-31 20:00;METAR CYSC 312000Z 26003KT 15SM FEW041 SCT080 BKN250 03/M08 A2991 RMK SC2AC2CI1 SLP140
CYSC;2002-10-31 21:00;METAR CYSC 312100Z 24002KT 15SM SCT048 BKN076 BKN250 03/M08 A2991 RMK SC3AC2CI1 SLP142
CYSC;2002-10-31 22:00;METAR CYSC 312200Z 26007KT 15SM BKN042 OVC080 03/M08 A2992 RMK SC6AC2 LAST MANNED OB/NEXT 011300 SLP145
CYSC;2002-10-31 23:00;METAR CYSC 312300Z AUTO 25006KT 9SM SCT039 SCT072 SCT082 02/M08 A2992 RMK SLP146
CYSC;2002-11-01 00:00;METAR CYSC 010000Z AUTO 23005KT 9SM FEW060 FEW078 02/M07 A2992 RMK SLP146
CYSC;2002-11-01 01:00;METAR CYSC 010100Z AUTO 25006KT 9SM FEW037 02/M05 A2991 RMK SLP143
CYSC;2002-11-01 02:00;METAR CYSC 010200Z AUTO 22005KT 9SM BKN027 OVC060 01/M05 A2991 RMK SLP141
CYSC;2002-11-01 03:00;METAR CYSC 010300Z AUTO 23004KT 9SM BKN025 BKN036 BKN057 01/M04 A2990 RMK SLP137
CYSC;2002-11-01 04:00;METAR CYSC 010400Z AUTO 18003KT 9SM FEW023 00/M04 A2989 RMK SLP132
CYSC;2002-11-01 05:00;METAR CYSC 010500Z AUTO 21003KT 9SM FEW047 BKN055 00/M04 A2987 RMK SLP127
CYSC;2002-11-01 06:00;METAR CYSC 010600Z AUTO 22006KT 2 1/8SM -SN FEW027 OVC036 M00/M02 A2986 RMK VSBY VRBL 1.3V5.0 SLP124
CYSC;2002-11-01 07:00;METAR CYSC 010700Z AUTO 22003KT 5SM -SN OVC014 M00/M01 A2985 RMK SLP120
CYSC;2002-11-01 08:00;METAR CYSC 010800Z AUTO 24008KT 8SM OVC012 M00/M02 A2985 RMK SLP119
CYSC;2002-11-01 09:00;METAR CYSC 010900Z AUTO 26008KT 9SM BKN020 M01/M05 A2985 RMK SLP118
CYSC;2002-11-01 10:00;METAR CYSC 011000Z AUTO 20003KT 9SM BKN084 M01/M04 A2984 RMK SLP115
CYSC;2002-11-01 11:00;METAR CYSC 011100Z AUTO 21003KT 9SM OVC088 M02/M04 A2983 RMK SLP114
CYSC;2002-11-01 12:00;METAR CYSC 011200Z AUTO 20002KT 9SM BKN063 OVC086 M01/M05 A2982 RMK SLP111
CYSC;2002-11-01 13:00;METAR CYSC 011300Z 24004KT 15SM FEW048 BKN061 BKN100 M01/M06 A2982 RMK SC2SC3AC1 SLP108
CYSC;2002-11-01 14:00;METAR CYSC 011400Z 23006KT 2 1/2SM -SN BKN015 OVC025 M01/M04 A2981 RMK SN2SC6SC1 VSBY SE 8 SLP105
CYSC;2002-11-01 15:00;METAR CYSC 011500Z 00000KT 2 1/2SM -SN BKN012 OVC031 M00/M03 A2978 RMK SN1CF6SC2 SLP095
CYSC;2002-11-01 16:00;METAR CYSC 011600Z 07002KT 1/2SM SN VV009 M01/M03 A2976 RMK SN8 SLP087
CYSC;2002-11-01 17:00;METAR CYSC 011700Z 08003KT 2SM -SN BKN004 OVC012 M01/M02 A2972 RESN RMK SN2CF6SC1 /S02/ VSBY SE 6 SLP074
CYSC;2002-11-01 18:00;METAR CYSC 011800Z 09003KT 2SM -SN BKN004 OVC020 M00/M02 A2969 RESN RMK SN1CF4SC3 /S03/ SLP065
CYSC;2002-11-01 19:00;METAR CYSC 011900Z 00000KT 12SM SCT005 BKN020 OVC040 00/M01 A2967 RMK CF4SC3SC1 SLP059
CYSC;2002-11-01 20:00;METAR CYSC 012000Z 21002KT 2SM -SN OVC008 00/M01 A2967 RMK SN1CF7 VSBY SE 6 SLP058
CYSC;2002-11-01 21:00;METAR CYSC 012100Z 20003KT 8SM -SHSN FEW005 SCT015 BKN043 BKN080 M00/M01 A2966 RMK CF2SC2SC1AC1 SLP053
CYSC;2002-11-01 22:00;METAR CYSC 012200Z 00000KT 2 1/2SM -SN FEW005 BKN025 OVC053 M00/M01 A2964 RMK CF1SC5SC2 LAST MANNED OB/NEXT 021200 VSBY SE 8 SLP048
CYSC;2002-11-01 23:00;METAR CYSC 012300Z AUTO 25007KT 1/2SM -SN OVC000 M01/M01 A2966 RMK PCPN 1.5MM PAST HR SLP055
CYSC;2002-11-02 00:00;METAR CYSC 020000Z AUTO 30017G26KT 1 1/4SM -SN BKN000 BKN008 OVC016 M03/M06 A2970 RMK PCPN 0.5MM PAST HR SLP072
CYSC;2002-11-02 01:00;METAR CYSC 020100Z AUTO 29007KT 1 1/2SM -SN OVC009 M04/M06 A2974 RMK PCPN 0.5MM PAST HR SLP084
CYSC;2002-11-02 02:00;METAR CYSC 020200Z AUTO 31006KT 4SM -SN OVC012 M05/M07 A2976 RMK SLP092
CYSC;2002-11-02 03:00;METAR CYSC 020300Z AUTO 27007KT 9SM FEW019 SCT038 M06/M09 A2978 RMK PCPN 0.5MM PAST HR SLP098
CYSC;2002-11-02 04:00;METAR CYSC 020400Z AUTO 28010G15KT 9SM FEW022 M07/M11 A2978 RMK SLP099
CYSC;2002-11-02 05:00;METAR CYSC 020500Z AUTO 27007KT 9SM BKN022 M09/M11 A2978 RMK SLP098
CYSC;2002-11-02 06:00;METAR CYSC 020600Z AUTO 27006KT 9SM CLR M09/M12 A2978 RMK SLP098
CYSC;2002-11-02 07:00;METAR CYSC 020700Z AUTO 25005KT 9SM CLR M10/M12 A2978 RMK SLP098
CYSC;2002-11-02 08:00;METAR CYSC 020800Z AUTO 26004KT 9SM FEW028 M11/M13 A2977 RMK SLP095
CYSC;2002-11-02 09:00;METAR CYSC 020900Z AUTO 27006KT 9SM CLR M11/M13 A2977 RMK SLP095
CYSC;2002-11-02 10:00;METAR CYSC 021000Z AUTO 27008KT 9SM CLR M10/M13 A2977 RMK SLP097
CYSC;2002-11-02 11:00;METAR CYSC 021100Z AUTO 26008KT 9SM CLR M10/M13 A2977 RMK SLP097
CYSC;2002-11-02 12:00;METAR CYSC 021200Z AUTO 26006KT 9SM CLR M10/M13 A2978 RMK SLP102
CYSC;2002-11-02 13:00;METAR CYSC 021300Z 27011G16KT 15SM FEW015 FEW040 M08/M12 A2979 RMK SC1SC1 /SO3 AFT 22Z/ SLP104
CYSC;2002-11-02 14:00;METAR CYSC 021400Z 26012G17KT 15SM FEW020 SCT047 M08/M11 A2980 RMK SC2SC2 SLP106
CYSC;2002-11-02 15:00;METAR CYSC 021500Z 28010G19KT 15SM -SHSN SCT017 M06/M11 A2979 RMK SC4 CU ASOCTD SLP103
CYSC;2002-11-02 16:00;METAR CYSC 021600Z 29013G18KT 15SM -SHSN SCT024 M05/M10 A2979 RMK SC3 CU
CYSC;2002-11-02 17:00;METAR CYSC 021700Z 28010G19KT 15SM SCT026 M04/M10 A2978 RMK SC4 CU ASOCTD SLP100
CYSC;2002-11-02 18:00;METAR CYSC 021800Z 29013G19KT 15SM SCT026 BKN220 M04/M11 A2978 RMK SC4CI0 CU ASOCTD SLP101
CYSC;2002-11-02 19:00;METAR CYSC 021900Z 30009G17KT 15SM -SHSN BKN030 M04/M11 A2979 RMK SC6 CU ASOCTD SLP105
CYSC;2002-11-02 20:00;METAR CYSC 022000Z 29005KT 15SM -SHSN BKN030 BKN220 M04/M11 A2981 RMK SC6CI1 CU EMBDD SLP110
CYSC;2002-11-02 21:00;METAR CYSC 022100Z 28011KT 15SM VCSH BKN032 BKN220 M04/M11 A2983 RMK SC6CI0 SLP117
CYSC;2002-11-02 22:00;METAR CYSC 022200Z 28006KT 15SM SCT037 SCT075 BKN220 M05/M11 A2985 RMK SC3AC1CI0 LAST MANNED OB/NEXT 031300 SLP124
CYSC;2002-11-02 23:00;METAR CYSC 022300Z AUTO 24003KT 9SM SCT047 M08/M12 A2986 RMK SLP131
CYSC;2002-11-03 00:00;METAR CYSC 030000Z AUTO 20003KT 9SM CLR M10/M13 A2988 RMK SLP136
CYSC;2002-11-03 01:00;METAR CYSC 030100Z AUTO 17002KT 9SM CLR M12/M14 A2989 RMK SLP141
CYSC;2002-11-03 02:00;METAR CYSC 030200Z AUTO 13003KT 9SM CLR M13/M15 A2991 RMK SLP147
CYSC;2002-11-03 03:00;METAR CYSC 030300Z AUTO 17002KT 9SM CLR M13/M15 A2992 RMK SLP150
CYSC;2002-11-03 04:00;METAR CYSC 030400Z AUTO 19003KT 9SM CLR M14/M16 A2993 RMK ICG SLP152
CYSC;2002-11-03 05:00;METAR CYSC 030500Z AUTO 00000KT 9SM CLR M14/M16 A2994 RMK ICG PAST HR SLP157
CYSC;2002-11-03 06:00;METAR CYSC 030600Z AUTO 20003KT 9SM CLR M14/M16 A2995 RMK SLP160
CYSC;2002-11-03 07:00;METAR CYSC 030700Z AUTO 20002KT 9SM CLR M15/M17 A2997 RMK SLP166
CYSC;2002-11-03 08:00;METAR CYSC 030800Z AUTO 07002KT 9SM CLR M16/M17 A2998 RMK SLP171
CYSC;2002-11-03 09:00;METAR CYSC 030900Z AUTO 06002KT 9SM CLR M16/M18 A3000 RMK SLP177
CYSC;2002-11-03 10:00;METAR CYSC 031000Z AUTO 09002KT 9SM CLR M16/M18 A3002 RMK SLP186
CYSC;2002-11-03 11:00;METAR CYSC 031100Z AUTO 00000KT 9SM CLR M16/M18 A3004 RMK SLP192
CYSC;2002-11-03 12:00;METAR CYSC 031200Z AUTO 00000KT 9SM CLR M15/M17 A3006 RMK SLP201
CYSC;2002-11-03 13:00;METAR CYSC 031300Z CCA 00000KT 15SM SKC M11/M13 A3008 RMK FROIN SLP207
CYSC;2002-11-03 14:00;METAR CYSC 031400Z 22004KT 15SM FEW020 M07/M10 A3010 RMK CU1 SLP211
CYSC;2002-11-03 15:00;METAR CYSC 031500Z 25006KT 15SM FEW025 M05/M09 A3011 RMK CU1 SLP213
CYSC;2002-11-03 16:00;METAR CYSC 031600Z 25003KT 15SM FEW030 M03/M10 A3010 RMK CU1 SLP211
CYSC;2002-11-03 17:00;METAR CYSC 031700Z 27007KT 15SM FEW035 M02/M09 A3009 RMK CU1 SLP208
CYSC;2002-11-03 18:00;METAR CYSC 031800Z 26006KT 15SM FEW039 M01/M09 A3009 RMK CU2 SLP205
CYSC;2002-11-03 19:00;METAR CYSC 031900Z 29007KT 15SM FEW041 M01/M10 A3008 RMK CU1 SLP204
CYSC;2002-11-03 20:00;METAR CYSC 032000Z 27009KT 15SM FEW037 FEW220 M01/M10 A3008 RMK CU1CI0 SLP204
CYSC;2002-11-03 21:00;METAR CYSC 032100Z 27007KT 15SM FEW040 FEW220 M02/M11 A3009 RMK CU1CI0 SLP207
CYSC;2002-11-03 22:00;METAR CYSC 032200Z 27003KT 15SM FEW220 M05/M11 A3011 RMK CI1 LAST MANNED OB/NEXT 041300 SLP213
CYSC;2002-11-03 23:00;METAR CYSC 032300Z AUTO 00000KT 9SM CLR M07/M11 A3010 RMK SLP214
CYSC;2002-11-04 00:00;METAR CYSC 040000Z AUTO 23003KT 9SM CLR M07/M10 A3011 RMK SLP217
CYSC;2002-11-04 01:00;METAR CYSC 040100Z AUTO 23002KT 9SM CLR M08/M11 A3011 RMK SLP215
CYSC;2002-11-04 02:00;METAR CYSC 040200Z AUTO 08003KT 9SM CLR M08/M11 A3011 RMK SLP215
CYSC;2002-11-04 03:00;METAR CYSC 040300Z AUTO 10002KT 9SM CLR M08/M11 A3011 RMK SLP213
CYSC;2002-11-04 04:00;METAR CYSC 040400Z AUTO 10002KT 9SM CLR M09/M12 A3012 RMK SLP215
CYSC;2002-11-04 05:00;METAR CYSC 040500Z AUTO 08003KT 9SM CLR M09/M11 A3012 RMK SLP215
CYSC;2002-11-04 06:00;METAR CYSC 040600Z AUTO 08003KT 9SM CLR M10/M12 A3011 RMK SLP211
CYSC;2002-11-04 07:00;METAR CYSC 040700Z AUTO 10004KT 9SM CLR M11/M13 A3010 RMK SLP207
CYSC;2002-11-04 08:00;METAR CYSC 040800Z AUTO 08004KT 9SM CLR M09/M12 A3008 RMK SLP200
CYSC;2002-11-04 09:00;METAR CYSC 040900Z AUTO 07004KT 9SM CLR M09/M12 A3007 RMK SLP198
CYSC;2002-11-04 10:00;METAR CYSC 041000Z AUTO 07004KT 9SM FEW047 M09/M11 A3005 RMK SLP194
CYSC;2002-11-04 11:00;METAR CYSC 041100Z AUTO 05002KT 9SM BKN030 OVC099 M09/M11 A3005 RMK SLP192
CYSC;2002-11-04 12:00;METAR CYSC 041200Z AUTO 07002KT 9SM OVC027 M08/M10 A3004 RMK SLP191
CYSC;2002-11-04 13:00;METAR CYSC 041300Z 06003KT 15SM FEW027 BKN078 OVC120 M06/M09 A3003 RMK SC2AC3AS3 SLP186
CYSC;2002-11-04 14:00;METAR CYSC 041400Z 06003KT 15SM FEW078 SCT110 OVC220 M04/M08 A3002 RMK AC2AC2CI1 SLP182
CYSC;2002-11-04 15:00;METAR CYSC 041500Z 14004KT 15SM SCT028 BKN088 OVC220 M01/M08 A3002 RMK SC4AC1CI1 SLP180
CYSC;2002-11-04 16:00;METAR CYSC 041600Z 17006KT 3SM -SHSN SCT019 OVC070 M01/M05 A2999 RMK CF4AC2 VSBY SE 8 SLP172
CYSC;2002-11-04 17:00;METAR CYSC 041700Z 14005KT 2SM -SHSN BKN017 OVC058 M01/M04 A2996 RMK CF6SC2 SLP161
CYSC;2002-11-04 18:00;METAR CYSC 041800Z 16005KT 1 1/4SM -SN BKN011 OVC030 M01/M03 A2994 RMK SN4SF2SC2 SLP152
CYSC;2002-11-04 19:00;METAR CYSC 041900Z 12004KT 3/4SM -SN VV007 M01/M02 A2992 RMK SN8 SLP148
CYSC;2002-11-04 20:00;METAR CYSC 042000Z 13003KT 1SM -SN VV005 M01/M02 A2992 RMK SN8 SLP146
CYSC;2002-11-04 21:00;METAR CYSC 042100Z CCA 10003KT 1 1/4SM -SN BKN007 OVC015 M01/M02 A2992 RMK SN5SF2SC1 /S01/ SLP145
CYSC;2002-11-04 22:00;METAR CYSC 042200Z 07003KT 1 1/2SM -SN OVC020 M01/M02 A2991 RMK SN3SC5 LAST MANNED OB/NEXT 051300 /S02/ SLP143
CYSC;2002-11-04 23:00;METAR CYSC 042300Z AUTO 08004KT 1 3/4SM -SN BKN015 BKN022 M01/M02 A2990 RMK SLP141
CYSC;2002-11-05 00:00;METAR CYSC 050000Z AUTO 09004KT 3SM -SN OVC017 M01/M02 A2990 RMK SLP140
CYSC;2002-11-05 01:00;METAR CYSC 050100Z AUTO 09005KT 5/8SM -SN BKN000 OVC005 OVC010 M01/M02 A2990 RMK PCPN 0.5MM PAST HR SLP139
CYSC;2002-11-05 02:00;METAR CYSC 050200Z AUTO 09004KT 1 1/8SM -SN BKN016 BKN032 M01/M02 A2989 RMK PCPN 1.0MM PAST HR SLP137
CYSC;2002-11-05 03:00;METAR CYSC 050300Z AUTO 09004KT 5/8SM -SN BKN001 OVC007 M01/M02 A2989 RMK PCPN 1.0MM PAST HR SLP136
CYSC;2002-11-05 04:00;METAR CYSC 050400Z AUTO 00000KT 1 1/8SM -SN OVC004 M01/M01 A2990 RMK PCPN 2.0MM PAST HR SLP138
CYSC;2002-11-05 05:00;METAR CYSC 050500Z AUTO 27002KT 1 3/4SM OVC003 M01/M01 A2992 RMK SLP145
CYSC;2002-11-05 06:00;METAR CYSC 050600Z AUTO 25006KT 3SM -UP OVC007 00/M00 A2995 RMK PCPN 0.5MM PAST HR SLP153
CYSC;2002-11-05 07:00;METAR CYSC 050700Z AUTO 27010KT 8SM OVC007 M00/M01 A2998 RMK SLP165
CYSC;2002-11-05 08:00;METAR CYSC 050800Z AUTO 28008KT 7SM OVC006 M01/M02 A3002 RMK SLP177
CYSC;2002-11-05 09:00;METAR CYSC 050900Z AUTO 27010KT 3 1/2SM OVC003 M01/M02 A3005 RMK SLP187
CYSC;2002-11-06 00:00;METAR CYSC 060000Z AUTO 05003KT 9SM OVC019 M02/M03 A3009 RMK SLP202
CYSC;2002-11-06 01:00;METAR CYSC 060100Z AUTO 05005KT 7SM CLR M02/M03 A3007 RMK SLP195
CYSC;2002-11-06 02:00;METAR CYSC 060200Z AUTO 06004KT 8SM CLR M02/M03 A3004 RMK SLP185
CYSC;2002-11-06 03:00;METAR CYSC 060300Z AUTO 10007KT 9SM OVC033 M01/M03 A3002 RMK SLP179
CYSC;2002-11-06 04:00;METAR CYSC 060400Z AUTO 11008KT 9SM CLR M01/M03 A3001 RMK SLP176
CYSC;2002-11-06 05:00;METAR CYSC 060500Z AUTO 09004KT 9SM CLR M01/M03 A2998 RMK SLP163
CYSC;2002-11-06 06:00;METAR CYSC 060600Z AUTO 10010KT 9SM FEW099 M00/M03 A2992 RMK SLP146
CYSC;2002-11-06 07:00;METAR CYSC 060700Z AUTO 09009KT 9SM SCT038 M00/M03 A2986 RMK PRESFR SLP123
CYSC;2002-11-06 08:00;METAR CYSC 060800Z AUTO 10006KT 9SM FEW077 M00/M03 A2982 RMK SLP110
CYSC;2002-11-07 00:00;METAR CYSC 070000Z AUTO 24003KT 5/8SM -UP OVC000 00/M00 A2949 RMK ICG SLP997
CYSC;2002-11-07 01:00;METAR CYSC 070100Z AUTO 25004KT 1SM -UP OVC000 00/M00 A2950 RMK ICG PCPN 0.5MM PAST HR SLP999
CYSC;2002-11-07 02:00;METAR CYSC 070200Z AUTO 27010G15KT 1SM OVC000 00/00 A2950 RMK ICG PAST HR SLP001
CYSC;2002-11-07 03:00;METAR CYSC 070300Z AUTO 27010KT 7SM OVC005 00/M00 A2951 RMK PCPN 0.5MM PAST HR SLP004
CYSC;2002-11-07 04:00;METAR CYSC 070400Z AUTO 27009KT 5SM OVC003 00/M00 A2952 RMK SLP007
CYSC;2002-11-07 05:00;METAR CYSC 070500Z AUTO 28011KT 6SM OVC007 00/M01 A2953 RMK SLP010
CYSC;2002-11-07 06:00;METAR CYSC 070600Z AUTO 28008KT 7SM OVC008 M00/M01 A2953 RMK SLP009
CYSC;2002-11-07 07:00;METAR CYSC 070700Z AUTO 27006KT 6SM -SN FEW016 OVC024 M00/M01 A2953 RMK SLP010
CYSC;2002-11-07 08:00;METAR CYSC 070800Z AUTO 27006KT 3SM -SN OVC006 OVC019 OVC025 M00/M01 A2953 RMK SLP012
CYSC;2002-11-07 09:00;METAR CYSC 070900Z AUTO 28004KT 3 1/2SM -SN OVC006 OVC016 M00/M01 A2954 RMK SLP014
CYSC;2002-11-07 10:00;METAR CYSC 071000Z AUTO 28008KT 3/4SM -SN VV002 M00/M01 A2955 RMK PCPN 0.5MM PAST HR SLP019
CYSC;2002-11-07 11:00;METAR CYSC 071100Z AUTO 30018G25KT 5/8SM -SN BKN010 M03/M05 A2961 RMK PCPN 0.5MM PAST HR SLP038
CYSC;2002-11-07 12:00;METAR CYSC 071200Z AUTO 32013G26KT 9SM OVC013 OVC039 OVC051 M06/M09 A2969 RMK PRESRR SLP066
CYSC;2002-11-07 13:00;METAR CYSC 071300Z CCA 31015G25KT 12SM -SHSN DRSN SCT015 M08/M12 A2977 RMK SC4 /S02 AFT 22Z/ SLP095
CYSC;2002-11-07 14:00;METAR CYSC 071400Z 28019G24KT 12SM DRSN VCSH FEW025 M08/M13 A2982 RMK SC2 SLP111
CYSC;2002-11-07 15:00;METAR CYSC 071500Z 28015G21KT 15SM DRSN FEW025 M09/M15 A2987 RMK SC1 SLP130
CYSC;2002-11-07 16:00;METAR CYSC 071600Z 29011G19KT 15SM FEW030 M08/M15 A2991 RMK CF1 SLP143
CYSC;2002-11-07 17:00;METAR CYSC 071700Z 29011KT 15SM FEW035 M08/M15 A2991 RMK CU1 SLP143
CYSC;2002-11-07 18:00;METAR CYSC 071800Z 29011KT 15SM FEW035 M07/M14 A2993 RMK CU1 SLP149
CYSC;2002-11-07 19:00;METAR CYSC 071900Z 28015KT 15SM FEW040 M07/M14 A2995 RMK CU1 SLP156
CYSC;2002-11-07 20:00;METAR CYSC 072000Z 28008KT 15SM FEW045 M07/M15 A2998 RMK CU1 SLP165
CYSC;2002-11-07 21:00;METAR CYSC 072100Z 27008KT 15SM FEW045 M08/M16 A2999 RMK CU1 SLP171
CYSC;2002-11-07 22:00;METAR CYSC 072200Z 25004KT 15SM FEW045 FEW220 M11/M15 A3001 RMK CU1CI1 LAST MANNED OB/NEXT 081300 SLP175
CYSC;2002-11-07 23:00;METAR CYSC 072300Z AUTO 18003KT 9SM CLR M13/M15 A3001 RMK SLP180
CYSC;2002-11-08 00:00;METAR CYSC 080000Z AUTO 22005KT 9SM CLR M12/M15 A3002 RMK SLP182
CYSC;2002-11-08 22:00;METAR CYSC 072200Z 25004KT 15SM FEW045 FEW220 M11/M15 A3001 RMK CU1CI1 LAST MANNED OB/NEXT 081300 SLP175
CYSC;2002-11-08 23:00;METAR CYSC 072300Z AUTO 18003KT 9SM CLR M13/M15 A3001 RMK SLP180
CYSC;2002-11-08 01:00;METAR CYSC 080100Z AUTO 22006KT 9SM CLR M12/M14 A3001 RMK SLP182
CYSC;2002-11-08 02:00;METAR CYSC 080200Z AUTO 21003KT 9SM CLR M11/M14 A3000 RMK SLP178
CYSC;2002-11-08 03:00;METAR CYSC 080300Z AUTO 00000KT 9SM CLR M12/M14 A2999 RMK SLP174
CYSC;2002-11-08 04:00;METAR CYSC 080400Z AUTO 10002KT 9SM CLR M11/M13 A2998 RMK SLP172
CYSC;2002-11-08 05:00;METAR CYSC 080500Z AUTO 08002KT 9SM FEW072 M11/M13 A2997 RMK SLP168
CYSC;2002-11-08 06:00;METAR CYSC 080600Z AUTO 10002KT 9SM CLR M10/M12 A2998 RMK SLP169
CYSC;2002-11-08 07:00;METAR CYSC 080700Z AUTO 10006KT 9SM FEW064 M09/M12 A2995 RMK SLP158
CYSC;2002-11-08 08:00;METAR CYSC 080800Z AUTO 12005KT 9SM OVC038 M08/M12 A2989 RMK SLP140
CYSC;2002-11-08 09:00;METAR CYSC 080900Z AUTO 12003KT 9SM OVC028 M07/M11 A2987 RMK SLP132
CYSC;2002-11-08 10:00;METAR CYSC 081000Z AUTO 10002KT 2 1/2SM -SN OVC028 M07/M10 A2986 RMK SLP128
CYSC;2002-11-08 11:00;METAR CYSC 081100Z AUTO 16004KT 8SM -SN OVC024 M05/M08 A2984 RMK SLP123
CYSC;2002-11-08 12:00;METAR CYSC 081200Z AUTO 16003KT 1SM -SN BKN010 OVC015 OVC020 M04/M06 A2983 RMK PCPN 0.5MM PAST HR SLP120
CYSC;2002-11-08 13:00;METAR CYSC 081300Z 08002KT 10SM -SN OVC027 M04/M05 A2983 RMK SC8 /S01 AFT 22Z/ SLP117
CYSC;2002-11-08 14:00;METAR CYSC 081400Z 00000KT 12SM OVC027 M02/M04 A2982 RMK SC8 SLP113
CYSC;2002-11-08 15:00;METAR CYSC 081500Z 21003KT 15SM OVC029 01/M03 A2979 RMK SC8 SLP104
CYSC;2002-11-08 16:00;METAR CYSC 081600Z 20003KT 15SM OVC033 02/M02 A2977 RMK SC8 SLP095
CYSC;2002-11-08 17:00;METAR CYSC 081700Z 19006KT 15SM BKN033 OVC074 04/M02 A2976 RMK SC6AC1 SLP092
CYSC;2002-11-08 18:00;METAR CYSC 081800Z 19008KT 15SM FEW089 SCT240 06/M01 A2972 RMK AC1CI1 SLP078
CYSC;2002-11-08 19:00;METAR CYSC 081900Z 19008KT 15SM FEW120 FEW220 07/M00 A2972 RMK AC1CI0 SLP076
CYSC;2002-11-08 20:00;METAR CYSC 082000Z 18008KT 15SM FEW120 07/M00 A2972 RMK AC1 SLP075
CYSC;2002-11-08 21:00;METAR CYSC 082100Z 18006KT 15SM FEW120 06/M00 A2972 RMK AC1 SLP074
CYSC;2002-11-08 22:00;METAR CYSC 082200Z 18005KT 15SM FEW120 FEW220 05/M01 A2972 RMK AC1CI1 LAST MANNED OB/NEXT 091300 SLP076
CYSC;2002-11-08 23:00;METAR CYSC 082300Z AUTO 19002KT 9SM CLR 04/M01 A2973 RMK SLP081
CYSC;2002-11-09 00:00;METAR CYSC 090000Z AUTO 10002KT 9SM CLR 00/M02 A2974 RMK SLP084
CYSC;2002-11-09 01:00;METAR CYSC 090100Z AUTO 09002KT 9SM CLR M01/M02 A2975 RMK SLP087
CYSC;2002-11-09 02:00;METAR CYSC 090200Z AUTO 00000KT 7SM FEW065 M02/M03 A2976 RMK SLP090
CYSC;2002-11-09 03:00;METAR CYSC 090300Z AUTO 18002KT 9SM BKN063 02/00 A2976 RMK SLP088
CYSC;2002-11-09 04:00;METAR CYSC 090400Z AUTO 01004KT 9SM OVC057 02/M00 A2977 RMK SLP091
CYSC;2002-11-09 05:00;METAR CYSC 090500Z AUTO 21002KT 9SM FEW046 SCT055 03/01 A2979 RMK SLP097
CYSC;2002-11-09 06:00;METAR CYSC 090600Z AUTO 21002KT 9SM BKN044 BKN055 04/01 A2980 RMK SLP100
CYSC;2002-11-09 07:00;METAR CYSC 090700Z AUTO 22003KT 9SM OVC044 03/01 A2981 RMK SLP104
CYSC;2002-11-09 08:00;METAR CYSC 090800Z AUTO 00000KT 9SM SCT040 SCT051 05/01 A2982 RMK SLP106
CYSC;2002-11-09 09:00;METAR CYSC 090900Z AUTO 23002KT 9SM FEW055 04/01 A2983 RMK SLP108
CYSC;2002-11-09 10:00;METAR CYSC 091000Z AUTO 20004KT 9SM FEW040 FEW051 08/02 A2984 RMK SLP114
CYSC;2002-11-09 11:00;METAR CYSC 091100Z AUTO 23002KT 9SM BKN040 OVC055 05/01 A2986 RMK SLP120
CYSC;2002-11-09 12:00;METAR CYSC 091200Z AUTO 21002KT 9SM OVC040 06/02 A2989 RMK SLP130
CYSC;2002-11-09 13:00;METAR CYSC 091300Z 10002KT 15SM BKN055 BKN120 05/02 A2990 RMK SC5AC2 SLP135
CYSC;2002-11-09 14:00;METAR CYSC 091400Z 00000KT 15SM SCT051 BKN120 BKN250 08/03 A2992 RMK SC4AC2CI0 SLP141
CYSC;2002-11-09 15:00;METAR CYSC 091500Z 00000KT 15SM FEW045 SCT120 BKN250 11/03 A2992 RMK SC2AC1CI1 SLP141
CYSC;2002-11-09 16:00;METAR CYSC 091600Z 22003KT 15SM FEW045 SCT120 BKN250 12/03 A2991 RMK SC2AC2CI1 ACC ASOCTD SLP137
CYSC;2002-11-09 17:00;METAR CYSC 091700Z 21005KT 15SM FEW040 FEW120 BKN250 15/04 A2989 RMK CU1AC2CI1 ACC ASOCTD CU TR SLP129
CYSC;2002-11-10 00:00;METAR CYSC 100000Z AUTO 10003KT 9SM FEW094 04/01 A2986 RMK SLP119
CYSC;2002-11-10 01:00;METAR CYSC 100100Z AUTO 09004KT 9SM SCT092 05/01 A2985 RMK SLP117
CYSC;2002-11-10 02:00;METAR CYSC 100200Z AUTO 08003KT 9SM BKN071 06/01 A2985 RMK SLP117
CYSC;2002-11-10 03:00;METAR CYSC 100300Z AUTO 07003KT 9SM OVC069 06/01 A2985 RMK SLP115
CYSC;2002-11-10 04:00;METAR CYSC 100400Z AUTO 06002KT 9SM BKN081 05/02 A2985 RMK SLP116
CYSC;2002-11-10 05:00;METAR CYSC 100500Z AUTO 09002KT 9SM OVC081 05/02 A2985 RMK SLP113
CYSC;2002-11-10 06:00;METAR CYSC 100600Z AUTO 10002KT 9SM FEW061 BKN083 04/02 A2985 RMK SLP114
CYSC;2002-11-10 07:00;METAR CYSC 100700Z AUTO 09004KT 9SM SCT050 BKN083 BKN096 05/02 A2985 RMK SLP115
CYSC;2002-11-10 08:00;METAR CYSC 100800Z AUTO 09003KT 9SM FEW093 05/02 A2984 RMK SLP112
CYSC;2002-11-10 09:00;METAR CYSC 100900Z AUTO 09004KT 9SM SCT068 SCT085 SCT095 06/03 A2984 RMK SLP113
CYSC;2002-11-10 10:00;METAR CYSC 101000Z AUTO 09003KT 9SM BKN043 BKN068 OVC085 07/03 A2984 RMK SLP112
CYSC;2002-11-10 11:00;METAR CYSC 101100Z AUTO 06002KT 9SM FEW056 BKN081 07/03 A2983 RMK SLP110
CYSC;2002-11-10 12:00;METAR CYSC 101200Z AUTO 07004KT 9SM FEW066 BKN076 05/03 A2983 RMK SLP109
CYSC;2002-11-10 13:00;METAR CYSC 101300Z 00000KT 15SM FEW048 SCT110 BKN250 08/05 A2982 RMK SC2AC2CI1 SLP107
CYSC;2002-11-10 14:00;METAR CYSC 101400Z 04002KT 15SM FEW068 SCT110 SCT250 11/05 A2979 RMK AC2AC2CI0 SLP096
CYSC;2002-11-11 00:00;METAR CYSC 110000Z AUTO 19014G20KT 9SM FEW034 BKN059 18/11 A2961 RMK SLP030
CYSC;2002-11-11 01:00;METAR CYSC 110100Z AUTO 19011KT 9SM FEW036 SCT052 17/12 A2961 RMK SLP030
CYSC;2002-11-11 02:00;METAR CYSC 110200Z AUTO 20012KT 9SM FEW050 BKN062 17/12 A2963 RMK SLP037
CYSC;2002-11-11 03:00;METAR CYSC 110300Z AUTO 18011KT 9SM BKN052 17/12 A2963 RMK SLP038
CYSC;2002-11-11 04:00;METAR CYSC 110400Z AUTO 20006G15KT 9SM CLR 16/12 A2964 RMK SLP038
CYSC;2002-11-11 05:00;METAR CYSC 110500Z AUTO 17004KT 9SM CLR 15/12 A2965 RMK SLP042
CYSC;2002-11-11 06:00;METAR CYSC 110600Z AUTO 20005KT 9SM FEW070 15/12 A2964 RMK SLP038
CYSC;2002-11-11 07:00;METAR CYSC 110700Z AUTO 06002KT 9SM CLR 12/10 A2961 RMK SLP031
CYSC;2002-11-11 08:00;METAR CYSC 110800Z AUTO 16009KT 9SM CLR 17/13 A2957 RMK SLP014
CYSC;2002-11-11 09:00;METAR CYSC 110900Z AUTO 18007KT 9SM FEW047 FEW053 18/13 A2957 RMK SLP014
CYSC;2002-11-11 10:00;METAR CYSC 111000Z AUTO 19005KT 9SM FEW055 18/14 A2956 RMK SLP013
CYSC;2002-11-11 11:00;METAR CYSC 111100Z AUTO 17010G17KT 9SM CLR 18/14 A2955 RMK SLP009
CYSC;2002-11-12 00:00;METAR CYSC 120000Z AUTO 27013G21KT 9SM FEW030 12/09 A2985 RMK PCPN 0.5MM PAST HR SLP110
CYSC;2002-11-12 01:00;METAR CYSC 120100Z AUTO 27011G19KT 9SM FEW027 FEW041 11/08 A2988 RMK SLP122
CYSC;2002-11-12 02:00;METAR CYSC 120200Z AUTO 28009KT 9SM OVC017 OVC051 10/07 A2993 RMK SLP138
CYSC;2002-11-12 03:00;METAR CYSC 120300Z AUTO 30009G16KT 9SM OVC017 08/05 A2996 RMK SLP149
CYSC;2002-11-12 04:00;METAR CYSC 120400Z AUTO 30009KT 9SM OVC021 08/04 A2998 RMK SLP158
CYSC;2002-11-12 05:00;METAR CYSC 120500Z AUTO 28003KT 9SM FEW021 BKN037 07/04 A3002 RMK SLP171
CYSC;2002-11-12 06:00;METAR CYSC 120600Z AUTO 27004KT 9SM OVC019 07/04 A3005 RMK SLP181
CYSC;2002-11-12 07:00;METAR CYSC 120700Z AUTO 26006KT 9SM SCT019 OVC025 OVC035 06/03 A3008 RMK SLP192
CYSC;2002-11-12 08:00;METAR CYSC 120800Z AUTO 25003KT 9SM BKN036 06/03 A3009 RMK SLP196
CYSC;2002-11-12 09:00;METAR CYSC 120900Z AUTO 26002KT 9SM OVC036 05/03 A3011 RMK SLP202
CYSC;2002-11-12 10:00;METAR CYSC 121000Z AUTO 17002KT 9SM OVC034 05/03 A3012 RMK SLP205
CYSC;2002-11-12 11:00;METAR CYSC 121100Z AUTO 19003KT 9SM OVC032 05/03 A3014 RMK SLP212
CYSC;2002-11-12 12:00;METAR CYSC 121200Z AUTO 29002KT 9SM OVC032 05/03 A3015 RMK SLP218
CYSC;2002-11-13 00:00;METAR CYSC 130000Z AUTO 09003KT 9SM -RA BKN035 06/05 A3008 RMK SLP196
CYSC;2002-11-13 01:00;METAR CYSC 130100Z AUTO 04003KT 6SM -RA FEW031 06/05 A3005 RMK SLP183
CYSC;2002-11-13 02:00;METAR CYSC 130200Z AUTO 10002KT 4SM -RA FEW022 BKN029 05/05 A3006 RMK SLP189
CYSC;2002-11-13 03:00;METAR CYSC 130300Z AUTO 03002KT 1 1/2SM -RA BKN000 OVC018 05/05 A3004 RMK PCPN 0.5MM PAST HR SLP181
CYSC;2002-11-13 04:00;METAR CYSC 130400Z AUTO 09003KT 2 1/2SM -RA BKN026 06/05 A3003 RMK PCPN 1.0MM PAST HR SLP176
CYSC;2002-11-13 05:00;METAR CYSC 130500Z AUTO 05002KT 1 3/8SM -RA FEW002 OVC029 05/05 A3001 RMK PCPN 0.5MM PAST HR SLP170
CYSC;2002-11-13 06:00;METAR CYSC 130600Z AUTO 05002KT 2SM -RA BKN027 05/05 A2998 RMK SLP159
CYSC;2002-11-13 07:00;METAR CYSC 130700Z AUTO 00000KT 2 1/8SM -RA FEW027 BKN034 05/04 A2998 RMK PCPN 0.5MM PAST HR SLP162
CYSC;2002-11-13 08:00;METAR CYSC 130800Z AUTO 00000KT 2 3/8SM -RA CLR 05/04 A2997 RMK PCPN 0.5MM PAST HR SLP158
CYSC;2002-11-13 09:00;METAR CYSC 130900Z AUTO 00000KT 2SM OVC012 OVC024 OVC041 05/05 A2997 RMK SLP156
CYSC;2002-11-13 10:00;METAR CYSC 131000Z AUTO 00000KT 1 1/4SM -RA OVC024 OVC041 05/04 A2999 RMK SLP164
CYSC;2002-11-13 11:00;METAR CYSC 131100Z AUTO 00000KT 2 1/2SM OVC010 05/05 A2997 RMK SLP158
CYSC;2002-11-13 12:00;METAR CYSC 131200Z AUTO 00000KT 1SM OVC007 05/05 A2999 RMK PCPN 0.5MM PAST HR SLP163
CYSC;2002-11-13 13:00;METAR CYSC 131300Z 27003KT 1/2SM FG VV000 05/05 A2999 RMK FG8 SLP164
CYSC;2002-11-13 14:00;METAR CYSC 131400Z 28004KT 3SM -RA BR FEW002 BKN016 OVC025 05/04 A3000 RMK SF2SC4SC2 SLP168
CYSC;2002-11-13 15:00;METAR CYSC 131500Z 29004KT 4SM BR SCT003 OVC022 05/04 A2998 RMK SF3SC5 SLP162
CYSC;2002-11-13 16:00;METAR CYSC 131600Z 28007KT 2SM BR BKN002 OVC022 04/04 A2998 RMK ST6SC2 SLP161
CYSC;2002-11-14 00:00;METAR CYSC 140000Z AUTO 26004KT 3 1/2SM FEW013 SCT028 OVC034 03/02 A2998 RMK SLP163
CYSC;2002-11-14 01:00;METAR CYSC 140100Z AUTO 27004KT 4SM BKN024 OVC037 03/02 A2997 RMK SLP159
CYSC;2002-11-14 02:00;METAR CYSC 140200Z AUTO 26002KT 7SM SCT028 OVC036 03/01 A2997 RMK SLP159
CYSC;2002-11-14 03:00;METAR CYSC 140300Z AUTO 28005KT 5SM BKN019 OVC030 02/01 A2998 RMK SLP161
CYSC;2002-11-14 04:00;METAR CYSC 140400Z AUTO 27002KT 5SM OVC029 02/01 A2997 RMK SLP158
CYSC;2002-11-14 05:00;METAR CYSC 140500Z AUTO 24002KT 3SM SCT029 01/M00 A2996 RMK SLP154
CYSC;2002-11-14 06:00;METAR CYSC 140600Z AUTO 26002KT 4SM FEW010 BKN018 01/00 A2996 RMK SLP154
CYSC;2002-11-14 07:00;METAR CYSC 140700Z AUTO 29003KT 2 1/4SM BKN006 BKN029 00/M01 A2996 RMK SLP157
CYSC;2002-11-14 08:00;METAR CYSC 140800Z AUTO 00000KT 1 5/8SM CLR M02/M03 A2997 RMK SLP159
CYSC;2002-11-14 09:00;METAR CYSC 140900Z AUTO 00000KT 1 1/2SM CLR M02/M03 A2996 RMK ICG SLP158
CYSC;2002-11-14 10:00;METAR CYSC 141000Z AUTO 12003KT 5/8SM SCT000 M03/M04 A2997 RMK ICG INTMT SLP160
CYSC;2002-11-14 11:00;METAR CYSC 141100Z AUTO 12004KT 1/8SM OVC000 M02/M03 A2998 RMK ICG SLP164
CYSC;2002-11-14 12:00;METAR CYSC 141200Z AUTO 10003KT 1/8SM OVC000 M01/M01 A2998 RMK ICG INTMT SLP163
CYSC;2002-11-14 13:00;METAR CYSC 141300Z CCA 00000KT 1/8SM FZFG VV000 M01/M01 A2998 RMK FG8 FROIN SLP161
CYSC;2002-11-14 14:00;METAR CYSC 141400Z 00000KT 1/2SM FZFG BKN007 M00/M01 A2997 RMK FG5ST2
CYSC;2002-11-14 15:00;METAR CYSC 141500Z 09002KT 1/4SM FG VV000 01/01 A2996 RMK FG8 SLP155
CYSC;2002-11-14 16:00;METAR CYSC 141600Z 00000KT 8SM FEW002 BKN005 03/03 A2994 RMK ST2ST3 SLP148
CYSC;2002-11-14 17:00;METAR CYSC 141700Z 19003KT 15SM FEW016 05/02 A2991 RMK CU2 SLP140
CYSC;2002-11-14 18:00;METAR CYSC 141800Z 14006KT 15SM FEW026 07/00 A2988 RMK CU2 SLP127
CYSC;2002-11-14 19:00;METAR CYSC 141900Z 16005KT 15SM FEW030 08/M01 A2986 RMK CF1 SLP119
CYSC;2002-11-14 20:00;METAR CYSC 142000Z 17006KT 15SM FEW120 FEW250 07/M02 A2985 RMK AC1CI0 SLP116
CYSC;2002-11-14 21:00;METAR CYSC 142100Z 13006KT 15SM FEW088 BKN250 06/M01 A2983 RMK AC2CI1 SLP111
CYSC;2002-11-14 22:00;METAR CYSC 142200Z 13005KT 15SM BKN066 BKN250 05/M00 A2983 RMK AC5CI1 LAST MANNED OB/NEXT 151300 SLP111
CYSC;2002-11-14 23:00;METAR CYSC 142300Z AUTO 16005KT 9SM BKN062 BKN095 05/M01 A2983 RMK SLP111
CYSC;2002-11-15 00:00;METAR CYSC 150000Z AUTO 17005KT 9SM FEW055 BKN062 05/M01 A2982 RMK SLP107
CYSC;2002-11-15 01:00;METAR CYSC 150100Z AUTO 17006KT 9SM OVC045 OVC093 06/M01 A2981 RMK SLP105
CYSC;2002-11-15 02:00;METAR CYSC 150200Z AUTO 18006KT 9SM OVC043 06/M01 A2980 RMK SLP100
CYSC;2002-11-15 03:00;METAR CYSC 150300Z AUTO 18006KT 9SM BKN046 06/M00 A2979 RMK SLP097
CYSC;2002-11-15 04:00;METAR CYSC 150400Z AUTO 18004KT 9SM FEW050 FEW090 06/M00 A2978 RMK SLP094
CYSC;2002-11-15 05:00;METAR CYSC 150500Z AUTO 18003KT 9SM BKN046 OVC093 06/00 A2978 RMK SLP092
CYSC;2002-11-15 06:00;METAR CYSC 150600Z AUTO 00000KT 9SM OVC038 OVC051 06/01 A2978 RMK SLP090
CYSC;2002-11-15 07:00;METAR CYSC 150700Z AUTO 19003KT 9SM -RA SCT036 06/03 A2978 RMK SLP093
CYSC;2002-11-15 08:00;METAR CYSC 150800Z AUTO 21002KT 9SM FEW044 FEW050 06/04 A2978 RMK SLP091
CYSC;2002-11-15 09:00;METAR CYSC 150900Z AUTO 21006KT 7SM BKN027 BKN055 06/04 A2978 RMK SLP093
CYSC;2002-11-15 10:00;METAR CYSC 151000Z AUTO 21005KT 6SM OVC027 06/04 A2978 RMK SLP091
CYSC;2002-11-15 11:00;METAR CYSC 151100Z AUTO 19006KT 9SM OVC027 07/04 A2977 RMK SLP089
CYSC;2002-11-16 00:00;METAR CYSC 160000Z AUTO 32006KT 9SM SCT019 OVC027 M01/M04 A3010 RMK SLP205
CYSC;2002-11-16 01:00;METAR CYSC 160100Z AUTO 31009KT 9SM OVC019 OVC029 M02/M06 A3014 RMK SLP218
CYSC;2002-11-16 02:00;METAR CYSC 160200Z AUTO 33007KT 9SM OVC019 OVC035 M03/M07 A3018 RMK SLP230
CYSC;2002-11-16 03:00;METAR CYSC 160300Z AUTO 33006KT 9SM OVC021 OVC039 M05/M08 A3020 RMK SLP240
CYSC;2002-11-16 04:00;METAR CYSC 160400Z AUTO 31005KT 9SM OVC019 OVC037 M05/M10 A3024 RMK SLP253
CYSC;2002-11-16 05:00;METAR CYSC 160500Z AUTO 31005KT 9SM CLR M07/M11 A3026 RMK SLP260
CYSC;2002-11-16 06:00;METAR CYSC 160600Z AUTO 02002KT 9SM CLR M07/M11 A3028 RMK SLP270
CYSC;2002-11-16 07:00;METAR CYSC 160700Z AUTO 33004KT 9SM CLR M08/M12 A3031 RMK SLP278
CYSC;2002-11-16 08:00;METAR CYSC 160800Z AUTO 35002KT 9SM CLR M09/M11 A3032 RMK SLP283
CYSC;2002-11-16 09:00;METAR CYSC 160900Z AUTO 01002KT 9SM CLR M09/M12 A3033 RMK SLP287
CYSC;2002-11-16 10:00;METAR CYSC 161000Z AUTO 03004KT 9SM CLR M08/M12 A3035 RMK SLP293
CYSC;2002-11-16 11:00;METAR CYSC 161100Z AUTO 04005KT 9SM CLR M09/M12 A3036 RMK SLP298
CYSC;2002-11-16 12:00;METAR CYSC 161200Z AUTO 04004KT 9SM CLR M09/M12 A3038 RMK SLP302
CYSC;2002-11-16 13:00;METAR CYSC 161300Z 04006KT 15SM FEW090 SCT140 BKN220 M08/M11 A3040 RMK AC2AC1CI0 SLP311
CYSC;2002-11-16 14:00;METAR CYSC 161400Z 04005KT 15SM SCT088 SCT120 BKN220 M07/M11 A3042 RMK AC3AC1CI1 SLP318
CYSC;2002-11-16 15:00;METAR CYSC 161500Z 05005KT 15SM FEW090 FEW120 BKN200 M05/M10 A3043 RMK AC1AC1CS2 HALO SLP319
CYSC;2002-11-16 16:00;METAR CYSC 161600Z 08007KT 15SM FEW088 FEW140 SCT200 M04/M10 A3041 RMK AC1AC2CI1 AC TR SLP315
CYSC;2002-11-16 17:00;METAR CYSC 161700Z 05005KT 15SM FEW140 SCT200 M02/M09 A3041 RMK AC2CI0 SLP312
CYSC;2002-11-16 18:00;METAR CYSC 161800Z 06006KT 15SM FEW091 FEW140 FEW200 M01/M09 A3038 RMK AC1AC1CI0 SLP304
CYSC;2002-11-16 19:00;METAR CYSC 161900Z 07008KT 15SM FEW060 FEW095 SCT120 BKN200 M01/M11 A3037 RMK SC1AC1AC2CI0 SLP300
CYSC;2002-11-16 20:00;METAR CYSC 162000Z 06007KT 15SM SCT090 BKN200 M01/M11 A3037 RMK AC3CI1 SLP299
CYSC;2002-11-16 21:00;METAR CYSC 162100Z 05007KT 15SM FEW030 FEW060 SCT090 BKN200 M02/M12 A3037 RMK CF1SC1AC2CI1 SLP301
CYSC;2002-11-16 22:00;METAR CYSC 162200Z 06007KT 15SM FEW030 BKN110 BKN200 M03/M13 A3037 RMK CF1AC5CI0 LAST MANNED OB/NEXT 171300 SLP300
CYSC;2002-11-16 23:00;METAR CYSC 162300Z AUTO 06007KT 9SM CLR M03/M12 A3037 RMK SLP301
CYSC;2002-11-17 00:00;METAR CYSC 170000Z AUTO 06007KT 9SM CLR M03/M11 A3035 RMK SLP295
CYSC;2002-11-17 01:00;METAR CYSC 170100Z AUTO 06005KT 9SM CLR M03/M11 A3035 RMK SLP293
CYSC;2002-11-17 02:00;METAR CYSC 170200Z AUTO 05005KT 9SM CLR M03/M11 A3033 RMK SLP287
CYSC;2002-11-17 03:00;METAR CYSC 170300Z AUTO 05004KT 9SM CLR M03/M11 A3032 RMK SLP281
CYSC;2002-11-17 04:00;METAR CYSC 170400Z AUTO 07004KT 9SM CLR M03/M11 A3031 RMK SLP280
CYSC;2002-11-17 05:00;METAR CYSC 170500Z AUTO 05003KT 9SM CLR M02/M12 A3028 RMK SLP269
CYSC;2002-11-17 06:00;METAR CYSC 170600Z AUTO 05004KT 9SM CLR M02/M12 A3026 RMK SLP260
CYSC;2002-11-17 07:00;METAR CYSC 170700Z AUTO 06007KT 9SM CLR M02/M14 A3024 RMK SLP256
CYSC;2002-11-17 08:00;METAR CYSC 170800Z AUTO 09008KT 6SM -SN FEW025 M03/M10 A3021 RMK SLP243
CYSC;2002-11-17 09:00;METAR CYSC 170900Z AUTO 07006KT 1 1/8SM -SN OVC015 M04/M06 A3018 RMK SLP233
CYSC;2002-11-17 10:00;METAR CYSC 171000Z AUTO 05009KT 1SM -SN BKN010 OVC015 M04/M05 A3015 RMK PCPN 1.0MM PAST HR SLP224
CYSC;2002-11-17 11:00;METAR CYSC 171100Z AUTO 05007KT 5/8SM -SN BKN000 OVC009 M04/M05 A3012 RMK PCPN 1.5MM PAST HR SLP216
CYSC;2002-11-17 12:00;METAR CYSC 171200Z AUTO 05007KT 5/8SM -SN VV000 M03/M05 A3010 RMK PCPN 2.0MM PAST HR SLP208
CYSC;2002-11-17 13:00;METAR CYSC 171300Z 04009KT 1SM -SN BKN010 OVC015 M03/M05 A3006 RMK SN4SF3SC1 /S03 AFT 22Z/ VSBY SE 6 SLP193
CYSC;2002-11-17 14:00;METAR CYSC 171400Z 05009KT 2 1/2SM -SN FEW010 OVC015 M03/M05 A3001 RMK SN2CF1SC5 VSBY SE 8 SLP177
CYSC;2002-11-17 16:00;METAR CYSC 171600Z 06010G18KT 12SM PL DRSN -FZRA FEW022 SCT041 BKN065 BKN095 M01/M05 A2992 RMK CF1SC2SC3AC1 SLP143
CYSC;2002-11-17 17:00;METAR CYSC 171700Z 06013G19KT 12SM -PL DRSN -FZRA FEW025 SCT040 OVC067 M01/M05 A2986 RMK CF2SC2AC4 SLP124
CYSC;2002-11-17 18:00;METAR CYSC 171800Z 05010KT 15SM FEW025 BKN033 OVC067 M00/M05 A2988 REFZRA RMK CF2SC4AC2 SLP130
CYSC;2002-11-17 19:00;METAR CYSC 171900Z CCA 06013G19KT 15SM -RA FEW020 OVC035 M00/M04 A2979 RMK CF1SC7 PRESFR SLP101
CYSC;2002-11-17 20:00;METAR CYSC 172000Z 04011G21KT 15SM FEW030 OVC041 00/M04 A2979 RMK SC2SC6 SLP102
CYSC;2002-11-17 21:00;METAR CYSC 172100Z 05010G15KT 15SM -RA OVC032 M00/M04 A2979 RMK SC8 SLP101
CYSC;2002-11-17 22:00;METAR CYSC 172200Z 05012G18KT 8SM -FZRA OVC026 M01/M03 A2976 RMK SC8 LAST MANNED OB/NEXT 181300 SLP092
CYSC;2002-11-17 23:00;METAR CYSC 172300Z AUTO 05011G18KT 9SM -FZRA OVC029 OVC070 M01/M03 A2975 RMK SLP086
CYSC;2002-11-18 00:00;METAR CYSC 180000Z AUTO 05009KT 9SM -FZRA OVC027 M01/M02 A2973 RMK SLP081
CYSC;2002-11-18 01:00;METAR CYSC 180100Z AUTO 05009G17KT 8SM -FZRA OVC022 M01/M02 A2969 RMK SLP065
CYSC;2002-11-18 02:00;METAR CYSC 180200Z AUTO 04008KT 6SM -FZRA OVC025 M00/M02 A2970 RMK SLP068
CYSC;2002-11-18 03:00;METAR CYSC 180300Z AUTO 05010KT 9SM -FZRA BKN025 M00/M02 A2963 RMK PCPN 0.5MM PAST HR PRESFR SLP046
CYSC;2002-11-18 04:00;METAR CYSC 180400Z AUTO 06011KT 9SM -FZRA OVC029 M00/M02 A2959 RMK SLP031
CYSC;2002-11-18 05:00;METAR CYSC 180500Z AUTO 04009KT 9SM -RA OVC031 M01/M03 A2953 RMK ICG PAST HR SLP012
CYSC;2002-11-18 06:00;METAR CYSC 180600Z AUTO 03006KT 3SM -RA OVC024 M01/M03 A2953 RMK PCPN 0.5MM PAST HR SLP010
CYSC;2002-11-18 07:00;METAR CYSC 180700Z AUTO 04009KT 3/4SM -SN BKN000 OVC004 OVC015 M02/M03 A2946 RMK PCPN 1.0MM PAST HR PRESFR SLP987
CYSC;2002-11-18 08:00;METAR CYSC 180800Z AUTO 03006KT 3/4SM -SN BKN001 OVC005 OVC028 M02/M03 A2942 RMK PCPN 1.0MM PAST HR SLP972
CYSC;2002-11-18 09:00;METAR CYSC 180900Z AUTO 04007KT 2SM -SN OVC014 M02/M04 A2939 RMK PCPN 1.5MM PAST HR SLP964
CYSC;2002-11-18 10:00;METAR CYSC 181000Z AUTO 03006KT 1/4SM -SN OVC000 M03/M04 A2938 RMK PCPN 1.5MM PAST HR SLP961
CYSC;2002-11-18 11:00;METAR CYSC 181100Z AUTO 02005KT 1/8SM SN OVC000 M03/M04 A2937 RMK PCPN 3.0MM PAST HR SLP959
CYSC;2002-11-18 12:00;METAR CYSC 181200Z AUTO 28004KT 5/8SM -SN BKN000 OVC010 OVC026 M03/M04 A2940 RMK PCPN 2.5MM PAST HR SLP967
CYSC;2002-11-18 13:00;METAR CYSC 181300Z 29006KT 3/4SM -SN VV005 M04/M05 A2943 RMK SN8 /S12 AFT 22Z/ SLP978
CYSC;2002-11-18 14:00;METAR CYSC 181400Z 27008KT 5/8SM -SN VV005 M04/M05 A2947 RESN RMK SN8 SLP989
CYSC;2002-11-18 15:00;METAR CYSC 181500Z 27012KT 3/4SM -SN VV007 M03/M05 A2950 RESN RMK SN8 /S01/ SLP002
CYSC;2002-11-18 16:00;METAR CYSC 181600Z 29011G19KT 1SM -SN DRSN BKN005 OVC012 M02/M04 A2954 RESN RMK SN3CF2SC2 /S02/ SLP014
CYSC;2002-11-18 17:00;METAR CYSC 181700Z 27009KT 1SM -SN DRSN VV006 M02/M04 A2956 RMK SN8 /S03/ VSBY VRBL 3/4-11/4 SLP021
CYSC;2002-11-18 18:00;METAR CYSC 181800Z 26014KT 1SM -SN DRSN OVC009 M02/M04 A2958 RMK SN6CF2 /S04/ SLP029
CYSC;2002-11-18 19:00;METAR CYSC 181900Z CCA 29012G19KT 2SM -SN DRSN OVC010 M03/M05 A2963 RMK SN2CF6 /S01/ SLP046
CYSC;2002-11-18 20:00;METAR CYSC 182000Z 28017G22KT 3/4SM -SN BLSN VV009 M03/M05 A2970 RMK SN8 /S02/ SLP069
CYSC;2002-11-18 21:00;METAR CYSC 182100Z 27011G18KT 1SM -SN BKN012 OVC021 M04/M06 A2977 REBLSN RMK SN3CF2SC2 /S03/ PRESRR SLP095
CYSC;2002-11-18 22:00;METAR CYSC 182200Z CCA 28016G22KT 8SM -SHSN BKN012 OVC030 M03/M06 A2983 RMK CF6SC2 LAST MANNED OB/NEXT 191300 PRESRR SLP115
CYSC;2002-11-19 00:00;METAR CYSC 190000Z AUTO 27011G18KT 9SM BKN016 M03/M06 A2996 RMK PRESRR SLP160
CYSC;2002-11-19 01:00;METAR CYSC 190100Z AUTO 27014KT 9SM OVC016 M03/M06 A3002 RMK PRESRR SLP181
CYSC;2002-11-19 02:00;METAR CYSC 190200Z AUTO 26010KT 9SM OVC020 M03/M06 A3007 RMK SLP195
CYSC;2002-11-20 00:00;METAR CYSC 200000Z AUTO 13006KT 9SM SCT099 M01/M04 A3013 RMK SLP217
CYSC;2002-11-20 01:00;METAR CYSC 200100Z AUTO 13005KT 9SM FEW088 M00/M04 A3013 RMK SLP217
CYSC;2002-11-20 02:00;METAR CYSC 200200Z AUTO 14006KT 1/2SM -SN VV000 M01/M02 A3013 RMK SLP215
CYSC;2002-11-20 03:00;METAR CYSC 200300Z AUTO 10004KT 3SM -SN OVC025 M01/M02 A3010 RMK PCPN 1.5MM PAST HR SLP206
CYSC;2002-11-20 04:00;METAR CYSC 200400Z AUTO 08002KT 9SM SCT026 OVC043 OVC055 M01/M02 A3007 RMK SLP197
CYSC;2002-11-20 05:00;METAR CYSC 200500Z AUTO 12002KT 9SM BKN024 BKN041 BKN057 M01/M03 A3005 RMK SLP190
CYSC;2002-11-20 06:00;METAR CYSC 200600Z AUTO 00000KT 9SM FEW022 BKN035 M01/M02 A3006 RMK SLP191
CYSC;2002-11-20 07:00;METAR CYSC 200700Z AUTO 00000KT 9SM BKN018 OVC031 M00/M01 A3007 RMK SLP195
CYSC;2002-11-20 08:00;METAR CYSC 200800Z AUTO 19004KT 9SM -UP OVC016 01/M00 A3007 RMK SLP195
CYSC;2002-11-20 09:00;METAR CYSC 200900Z AUTO 20005KT 9SM OVC021 01/00 A3007 RMK SLP194
CYSC;2002-11-20 10:00;METAR CYSC 201000Z AUTO 22003KT 9SM OVC019 01/00 A3007 RMK SLP196
CYSC;2002-11-20 11:00;METAR CYSC 201100Z AUTO 00000KT 8SM OVC019 01/00 A3007 RMK SLP196
CYSC;2002-11-20 12:00;METAR CYSC 201200Z AUTO 00000KT 9SM OVC027 02/00 A3008 RMK SLP199
CYSC;2002-11-20 13:00;METAR CYSC 201300Z 00000KT 8SM OVC027 01/00 A3008 RMK SC7 SLP199
CYSC;2002-11-20 14:00;METAR CYSC 201400Z 28003KT 10SM BKN031 OVC050 02/01 A3010 RMK SC6SC1 SLP203
CYSC;2002-11-20 15:00;METAR CYSC 201500Z CCA 23004KT 8SM BKN027 OVC060 03/01 A3012 RMK SC6SC2
CYSC;2002-11-20 16:00;METAR CYSC 201600Z 19006KT 10SM BKN027 OVC060 04/01 A3011 RMK SC6SC2 SLP207
CYSC;2002-11-21 00:00;METAR CYSC 210000Z AUTO 09002KT 1/8SM SCT040 M01/M02 A3012 RMK SLP213
CYSC;2002-11-21 01:00;METAR CYSC 210100Z AUTO 09002KT 1 1/2SM BKN028 M00/M01 A3012 RMK SLP213
CYSC;2002-11-21 02:00;METAR CYSC 210200Z AUTO 00000KT 1 1/8SM SCT028 M02/M02 A3012 RMK SLP210
CYSC;2002-11-21 03:00;METAR CYSC 210300Z AUTO 11002KT 2 1/2SM BKN035 00/M00 A3011 RMK ICG INTMT SLP208
CYSC;2002-11-21 04:00;METAR CYSC 210400Z AUTO 00000KT 3SM CLR M00/M01 A3010 RMK ICG INTMT SLP205
CYSC;2002-11-21 05:00;METAR CYSC 210500Z AUTO 00000KT 1/8SM FEW033 M01/M03 A3010 RMK ICG PAST HR SLP206
CYSC;2002-11-21 06:00;METAR CYSC 210600Z AUTO 04003KT 1/8SM FEW099 M03/M04 A3009 RMK ICG SLP202
CYSC;2002-11-21 07:00;METAR CYSC 210700Z AUTO 06003KT 5/8SM FEW092 M02/M03 A3009 RMK ICG SLP200
CYSC;2002-11-21 08:00;METAR CYSC 210800Z AUTO 07004KT 1 3/4SM FEW092 M01/M02 A3007 RMK ICG SLP194
CYSC;2002-11-21 09:00;METAR CYSC 210900Z AUTO 05003KT 2 1/4SM CLR M01/M03 A3005 RMK ICG SLP189
CYSC;2002-11-21 10:00;METAR CYSC 211000Z AUTO 05002KT 2 1/8SM CLR M02/M03 A3005 RMK ICG PAST HR SLP188
CYSC;2002-11-21 11:00;METAR CYSC 211100Z AUTO 07003KT 2 1/2SM CLR M03/M04 A3002 RMK SLP181
CYSC;2002-11-21 12:00;METAR CYSC 211200Z AUTO 08004KT 3SM CLR M02/M03 A3002 RMK SLP178
CYSC;2002-11-21 13:00;METAR CYSC 211300Z 08005KT 12SM FEW120 FEW200 BKN220 00/M00 A3001 RMK AC1CC1CI2 SLP172
CYSC;2002-11-21 14:00;METAR CYSC 211400Z 02002KT 15SM FEW085 SCT120 BKN220 01/01 A2999 RMK AC1AC2CI2 SLP168
CYSC;2002-11-21 15:00;METAR CYSC 211500Z 00000KT 15SM SCT085 BKN120 BKN220 02/01 A2999 RMK AC3AC2CI1 SLP168
CYSC;2002-11-21 16:00;METAR CYSC 211600Z 09002KT 12SM FEW060 BKN100 05/02 A2995 RMK SC2AC4 SLP155
CYSC;2002-11-21 17:00;METAR CYSC 211700Z 13008KT 15SM SCT042 BKN080 BKN120 07/01 A2992 RMK SC3AC2AC1 SLP145
CYSC;2002-11-21 18:00;METAR CYSC 211800Z 14005KT 15SM FEW040 SCT080 BKN120 07/01 A2991 RMK SC2AC2AC3 SLP137
CYSC;2002-11-21 19:00;METAR CYSC 211900Z 14005KT 15SM FEW080 BKN120 OVC220 07/01 A2991 RMK AC1AC6CS2 SLP138
CYSC;2002-11-21 20:00;METAR CYSC 212000Z 13007KT 15SM FEW085 BKN110 BKN150 06/01 A2989 RMK AC2AC3AC1 SLP132
CYSC;2002-11-21 21:00;METAR CYSC 212100Z 15007KT 15SM FEW085 OVC110 06/01 A2989 RMK AC2AS6 SLP133
CYSC;2002-11-21 22:00;METAR CYSC 212200Z 13012KT 15SM FEW080 OVC100 05/01 A2986 RMK AC1AC7 LAST MANNED OB/NEXT 221300 SLP123
CYSC;2002-11-21 23:00;METAR CYSC 212300Z AUTO 13007KT 9SM CLR 04/01 A2987 RMK SLP128
CYSC;2002-11-22 00:00;METAR CYSC 220000Z AUTO 09004KT 9SM CLR 04/01 A2986 RMK SLP121
CYSC;2002-11-22 01:00;METAR CYSC 220100Z AUTO 10003KT 9SM CLR 04/01 A2985 RMK SLP117
CYSC;2002-11-22 02:00;METAR CYSC 220200Z AUTO 00000KT 9SM FEW074 03/01 A2985 RMK SLP117
CYSC;2002-11-22 03:00;METAR CYSC 220300Z AUTO 00000KT 8SM -RA FEW033 FEW043 FEW058 03/01 A2984 RMK SLP116
CYSC;2002-11-22 04:00;METAR CYSC 220400Z AUTO 00000KT 5SM FEW060 02/01 A2982 RMK SLP108
CYSC;2002-11-22 05:00;METAR CYSC 220500Z AUTO 06003KT 7SM BKN032 OVC043 OVC058 03/02 A2980 RMK SLP100
CYSC;2002-11-22 06:00;METAR CYSC 220600Z AUTO 09004KT 8SM OVC032 04/02 A2979 RMK SLP096
CYSC;2002-11-22 07:00;METAR CYSC 220700Z AUTO 12002KT 6SM OVC040 03/02 A2977 RMK SLP091
CYSC;2002-11-22 08:00;METAR CYSC 220800Z AUTO 07003KT 5SM BKN047 02/01 A2975 RMK SLP083
CYSC;2002-11-22 09:00;METAR CYSC 220900Z AUTO 07004KT 5SM OVC042 03/02 A2974 RMK SLP078
CYSC;2002-11-22 10:00;METAR CYSC 221000Z AUTO 04003KT 6SM FEW044 02/01 A2971 RMK SLP070
CYSC;2002-11-22 11:00;METAR CYSC 221100Z AUTO 05005KT 5SM SCT047 02/01 A2971 RMK SLP069
CYSC;2002-11-22 12:00;METAR CYSC 221200Z AUTO 06004KT 3 1/2SM CLR 01/01 A2969 RMK SLP066
CYSC;2002-11-22 13:00;METAR CYSC 221300Z 09003KT 3SM BR FEW080 FEW200 FEW240 01/01 A2968 RMK AC1CC1CI1 VSBY NW-NE 8 CC TR SLP061
CYSC;2002-11-22 14:00;METAR CYSC 221400Z CCA 08004KT 3SM BR FEW064 SCT200 SCT240 02/01 A2966 RMK SC2CC1CI0 VSBY NW-NE 10 SLP054
CYSC;2002-11-22 15:00;METAR CYSC 221500Z 06006KT 12SM FEW085 FEW120 SCT240 04/02 A2963 RMK AC2AC1CI1 SLP044
CYSC;2002-11-22 16:00;METAR CYSC 221600Z 04005KT 15SM FEW060 FEW085 FEW240 06/03 A2960 RMK SC1AC2CI1 SC TR SLP034
CYSC;2002-11-22 17:00;METAR CYSC 221700Z 05005KT 15SM FEW060 FEW120 SCT200 08/04 A2956 RMK SC2AC1CC1 SLP019
CYSC;2002-11-22 18:00;METAR CYSC 221800Z 03004KT 15SM BKN046 BKN084 08/04 A2953 RMK SC5AC2 SLP009
CYSC;2002-11-22 19:00;METAR CYSC 221900Z 04004KT 15SM BKN029 OVC050 06/03 A2952 RMK SC6SC2 SLP005
CYSC;2002-11-22 20:00;METAR CYSC 222000Z 05008KT 10SM -RA OVC025 06/04 A2951 RMK SC8 VSBY SE 5 F SLP001
CYSC;2002-11-22 21:00;METAR CYSC 222100Z 04005KT 2SM -RA BR BKN010 OVC019 05/04 A2950 RMK SF7SC1 SLP997
CYSC;2002-11-22 22:00;METAR CYSC 222200Z 04007KT 2SM -RA BR BKN002 OVC013 04/04 A2947 RMK SF6SC2 LAST MANNED OB/NEXT 231300 SLP987
CYSC;2002-11-22 23:00;METAR CYSC 222300Z AUTO 04007KT 3SM -RA BKN001 OVC013 OVC022 OVC038 04/03 A2945 RMK SLP982
CYSC;2002-11-23 00:00;METAR CYSC 230000Z AUTO 05007KT 7SM OVC002 OVC015 OVC048 04/03 A2941 RMK SLP969
CYSC;2002-11-23 01:00;METAR CYSC 230100Z AUTO 04007KT 6SM OVC002 OVC015 OVC036 03/03 A2937 RMK PCPN 0.5MM PAST HR SLP956
CYSC;2002-11-23 02:00;METAR CYSC 230200Z AUTO 04006KT 9SM OVC003 OVC016 OVC041 03/03 A2934 RMK SLP944
CYSC;2002-11-23 03:00;METAR CYSC 230300Z AUTO 03007KT 3 1/2SM RA BKN001 OVC010 OVC021 OVC031 03/03 A2931 RMK PCPN 2.0MM PAST HR SLP934
CYSC;2002-11-23 04:00;METAR CYSC 230400Z AUTO 04007KT 4SM +RA OVC003 OVC022 OVC032 OVC043 03/03 A2927 RMK PCPN 4.0MM PAST HR SLP918
CYSC;2002-11-23 05:00;METAR CYSC 230500Z AUTO 04008KT 7SM -RA BKN004 OVC028 OVC038 OVC050 02/02 A2923 RMK PCPN 3.0MM PAST HR SLP904
CYSC;2002-11-23 06:00;METAR CYSC 230600Z AUTO 04008KT 3SM -RA BKN005 02/02 A2919 RMK PCPN 0.5MM PAST HR SLP892
CYSC;2002-11-23 07:00;METAR CYSC 230700Z AUTO 03010KT 3SM RA BKN004 OVC020 02/01 A2916 RMK PCPN 1.0MM PAST HR SLP884
CYSC;2002-11-23 08:00;METAR CYSC 230800Z AUTO 03010G15KT 3 1/2SM -RA OVC003 OVC041 01/01 A2913 RMK PCPN 1.0MM PAST HR SLP871
CYSC;2002-11-23 09:00;METAR CYSC 230900Z AUTO 36006KT 3SM UP BKN005 BKN015 OVC028 01/00 A2912 RMK PCPN 1.5MM PAST HR SLP871
CYSC;2002-11-23 10:00;METAR CYSC 231000Z AUTO 31005KT 1/2SM -UP OVC000 00/M00 A2913 RMK ICG PCPN 1.5MM PAST HR SLP872
CYSC;2002-11-23 11:00;METAR CYSC 231100Z AUTO 32006KT 3/4SM -UP BKN000 BKN010 OVC015 00/M00 A2914 RMK ICG PAST HR PCPN 0.5MM PAST HR SLP878
CYSC;2002-11-23 12:00;METAR CYSC 231200Z AUTO 34007KT 2 1/2SM -UP BKN008 00/M01 A2918 RMK ICG PAST HR SLP891
CYSC;2002-11-23 13:00;METAR CYSC 231300Z CCA 31008KT 3SM -SN OVC008 00/M00 A2922 RMK SF8 /R14 S04 AFT 22Z/ SLP903
CYSC;2002-11-23 14:00;METAR CYSC 231400Z 29008KT 6SM -SHSN OVC009 00/M00 A2925 RMK SC8 CU EMBDD SLP912
CYSC;2002-11-23 15:00;METAR CYSC 231500Z 29010G18KT 3SM -SN OVC006 00/M01 A2927 RMK SC8 SLP922
CYSC;2002-11-23 16:00;METAR CYSC 231600Z 28013G18KT 1SM -SN BR VV007 00/M01 A2931 RMK SN8 SLP933
CYSC;2002-11-23 17:00;METAR CYSC 231700Z CCA 29015G22KT 4SM -SN OVC008 M00/M01 A2933 RESN RMK SC8 /S02/ SLP941
CYSC;2002-11-23 18:00;METAR CYSC 231800Z 27016G22KT 15SM -SHSN BKN009 OVC070 M00/M01 A2937 RMK SC7AC1 CU EMBDD SLP953
CYSC;2002-11-23 19:00;METAR CYSC 231900Z 27016G22KT 15SM -SHSN OVC012 M00/M02 A2941 RMK SC8 SLP968
CYSC;2002-11-23 20:00;METAR CYSC 232000Z 27019G24KT 3SM -SHSN OVC010 M01/M03 A2946 RMK SC8 SLP984
CYSC;2002-11-23 21:00;METAR CYSC 232100Z 25016G24KT 10SM -SHSN OVC012 M02/M04 A2951 RMK SC8 SLP004
CYSC;2002-11-23 22:00;METAR CYSC 232200Z 27014G20KT 10SM -SHSN OVC012 M03/M05 A2955 RMK SC8 LAST MANNED OB/NEXT 241300 SLP017
CYSC;2002-11-23 23:00;METAR CYSC 232300Z AUTO 27016G24KT 9SM -SN OVC014 M03/M06 A2957 RMK SLP026
CYSC;2002-11-24 00:00;METAR CYSC 240000Z AUTO 25011G17KT 9SM -SN OVC017 M03/M06 A2960 RMK SLP035
CYSC;2002-11-24 01:00;METAR CYSC 240100Z AUTO 25012G17KT 9SM -SN OVC014 M03/M06 A2961 RMK SLP040
CYSC;2002-11-24 02:00;METAR CYSC 240200Z AUTO 25012G20KT 9SM OVC012 M04/M06 A2962 RMK SLP044
CYSC;2002-11-24 03:00;METAR CYSC 240300Z AUTO 25013KT 9SM OVC011 M04/M06 A2963 RMK SLP045
CYSC;2002-11-24 04:00;METAR CYSC 240400Z AUTO 24014G20KT 9SM OVC010 M04/M06 A2963 RMK SLP046
CYSC;2002-11-24 05:00;METAR CYSC 240500Z AUTO 26015KT 9SM OVC012 M04/M06 A2963 RMK SLP048
CYSC;2002-11-24 06:00;METAR CYSC 240600Z AUTO 24010KT 9SM OVC012 M04/M06 A2962 RMK SLP045
CYSC;2002-11-24 07:00;METAR CYSC 240700Z AUTO 25011KT 9SM OVC014 OVC048 OVC060 M04/M06 A2961 RMK SLP041
CYSC;2002-11-24 08:00;METAR CYSC 240800Z AUTO 24009KT 4SM OVC026 M04/M06 A2960 RMK SLP038
CYSC;2002-11-24 09:00;METAR CYSC 240900Z AUTO 23005KT 6SM -SN OVC010 M04/M05 A2961 RMK SLP039
CYSC;2002-11-24 10:00;METAR CYSC 241000Z AUTO 26005KT 5SM -SN OVC012 M03/M05 A2961 RMK SLP038
CYSC;2002-11-24 11:00;METAR CYSC 241100Z AUTO 26005KT 1 3/8SM -SN FEW005 OVC011 M03/M04 A2961 RMK PCPN 1.0MM PAST HR SLP040
CYSC;2002-11-24 12:00;METAR CYSC 241200Z AUTO 27007KT 1 3/8SM -SN OVC005 M02/M03 A2962 RMK SLP042
CYSC;2002-11-24 13:00;METAR CYSC 241300Z 28012KT 4SM -SN BR OVC006 M01/M03 A2964 RMK SF8 /S01 AFT 22Z/ SLP050
CYSC;2002-11-24 14:00;METAR CYSC 241400Z 28014G20KT 3SM -SN OVC007 M01/M03 A2968 RMK SF8 SLP062
CYSC;2002-11-24 15:00;METAR CYSC 241500Z 27012KT 6SM -SN OVC010 M02/M03 A2970 RMK SF8 SLP070
CYSC;2002-11-24 16:00;METAR CYSC 241600Z 27010G16KT 15SM -SHSN OVC012 M01/M04 A2972 RMK SC8 CU EMBDD SLP075
CYSC;2002-11-24 17:00;METAR CYSC 241700Z 27014G20KT 15SM -SHSN BKN014 M01/M03 A2972 RMK SC7 SLP075
CYSC;2002-11-24 18:00;METAR CYSC 241800Z 27012G20KT 15SM -SHSN OVC014 M00/M03 A2974 RMK SC8 SLP083
CYSC;2002-11-24 19:00;METAR CYSC 241900Z 27019KT 15SM -SHSN BKN018 M00/M04 A2976 RMK SC7 CU ASOCTD SLP089
CYSC;2002-11-24 20:00;METAR CYSC 242000Z 26014G20KT 15SM FEW015 BKN022 M00/M04 A2979 RMK CF2SC6 CU ASOCTD SLP100
CYSC;2002-11-24 21:00;METAR CYSC 242100Z 27015G22KT 15SM FEW015 BKN026 M01/M05 A2983 RMK CF1SC6 CU EMBDD SLP113
CYSC;2002-11-24 22:00;METAR CYSC 242200Z 27012KT 15SM BKN029 M01/M05 A2987 RMK SC7 LAST MANNED OB/NEXT 251300 SLP128
CYSC;2002-11-24 23:00;METAR CYSC 242300Z AUTO 26007KT 9SM OVC029 M01/M05 A2991 RMK SLP142
CYSC;2002-11-25 00:00;METAR CYSC 250000Z AUTO 25008KT 9SM OVC030 M01/M05 A2993 RMK SLP150
CYSC;2002-11-25 01:00;METAR CYSC 250100Z AUTO 27007KT 9SM OVC030 M02/M05 A2995 RMK SLP156
CYSC;2002-11-25 02:00;METAR CYSC 250200Z AUTO 27008KT 9SM OVC028 M02/M06 A2997 RMK SLP161
CYSC;2002-11-25 03:00;METAR CYSC 250300Z AUTO 29006KT 9SM OVC030 M02/M06 A2998 RMK SLP164
CYSC;2002-11-25 04:00;METAR CYSC 250400Z AUTO 26003KT 9SM OVC030 M03/M06 A2998 RMK SLP166
CYSC;2002-11-25 05:00;METAR CYSC 250500Z AUTO 27008KT 9SM BKN030 M03/M06 A2999 RMK SLP168
CYSC;2002-11-25 06:00;METAR CYSC 250600Z AUTO 27006KT 9SM FEW022 BKN030 M04/M07 A3000 RMK SLP172
CYSC;2002-11-25 07:00;METAR CYSC 250700Z AUTO 25004KT 9SM FEW030 M05/M07 A3002 RMK SLP178
CYSC;2002-11-25 08:00;METAR CYSC 250800Z AUTO 23003KT 9SM FEW038 M06/M08 A3003 RMK SLP185
CYSC;2002-11-25 09:00;METAR CYSC 250900Z AUTO 00000KT 9SM CLR M08/M10 A3004 RMK SLP189
CYSC;2002-11-25 10:00;METAR CYSC 251000Z AUTO 00000KT 9SM CLR M09/M10 A3004 RMK ICG SLP189
CYSC;2002-11-25 11:00;METAR CYSC 251100Z AUTO 18002KT 9SM CLR M09/M11 A3006 RMK ICG INTMT SLP193
CYSC;2002-11-25 12:00;METAR CYSC 251200Z AUTO 00000KT 9SM CLR M10/M12 A3007 RMK ICG SLP198
CYSC;2002-11-25 13:00;METAR CYSC 251300Z 00000KT 15SM FEW015 FEW120 M08/M09 A3008 RMK CF1AC1 SLP202
CYSC;2002-11-25 14:00;METAR CYSC 251400Z 00000KT 15SM FEW020 FEW120 M04/M07 A3010 RMK CF1AC1 AC TR SLP207
CYSC;2002-11-25 15:00;METAR CYSC 251500Z 25004KT 15SM FEW025 FEW120 M02/M06 A3011 RMK CU1AC1 SLP209
CYSC;2002-11-25 16:00;METAR CYSC 251600Z 26006KT 15SM FEW025 FEW120 FEW250 M01/M07 A3009 RMK CU1AC1CI0 SLP203
CYSC;2002-11-25 17:00;METAR CYSC 251700Z 23009KT 15SM FEW030 FEW120 FEW250 M00/M06 A3009 RMK CU1AC1CI0 SLP202
CYSC;2002-11-25 18:00;METAR CYSC 251800Z 25005KT 15SM FEW030 FEW120 FEW250 01/M05 A3008 RMK CU1AC1CI0 SLP200
CYSC;2002-11-25 19:00;METAR CYSC 251900Z 24006KT 15SM FEW035 FEW120 FEW250 01/M05 A3008 RMK CU1AC1CI0 AC TR SLP197
CYSC;2002-11-25 20:00;METAR CYSC 252000Z 27008KT 15SM FEW030 FEW120 FEW250 M00/M06 A3008 RMK CU1AC1CI0 CU TR SLP199
CYSC;2002-11-25 21:00;METAR CYSC 252100Z 26004KT 15SM FEW120 FEW250 M02/M06 A3009 RMK AC1CI0 SLP203
CYSC;2002-11-25 22:00;METAR CYSC 252200Z 23002KT 15SM FEW120 SCT250 M04/M07 A3011 RMK AC2CI0 LAST MANNED OB/NEXT 261300 SLP209
CYSC;2002-11-25 23:00;METAR CYSC 252300Z AUTO 23002KT 9SM FEW072 M05/M07 A3012 RMK SLP218
CYSC;2002-11-26 00:00;METAR CYSC 260000Z AUTO 28002KT 9SM OVC070 M03/M06 A3014 RMK SLP223
CYSC;2002-11-26 01:00;METAR CYSC 260100Z AUTO 00000KT 9SM SCT070 OVC096 M05/M07 A3014 RMK SLP223
CYSC;2002-11-26 02:00;METAR CYSC 260200Z AUTO 08002KT 8SM SCT068 BKN091 M06/M07 A3014 RMK SLP222
CYSC;2002-11-26 03:00;METAR CYSC 260300Z AUTO 00000KT 9SM FEW065 OVC075 M05/M06 A3014 RMK ICG PAST HR SLP220
CYSC;2002-11-26 04:00;METAR CYSC 260400Z AUTO 00000KT 9SM BKN069 M05/M06 A3013 RMK ICG PAST HR SLP215
CYSC;2002-11-26 05:00;METAR CYSC 260500Z AUTO 04002KT 9SM FEW036 SCT050 M05/M07 A3012 RMK SLP215
CYSC;2002-11-26 06:00;METAR CYSC 260600Z AUTO 06002KT 9SM BKN038 BKN078 M05/M06 A3012 RMK SLP214
CYSC;2002-11-26 07:00;METAR CYSC 260700Z AUTO 00000KT 7SM BKN035 BKN054 BKN071 M04/M06 A3013 RMK SLP217
CYSC;2002-11-26 08:00;METAR CYSC 260800Z AUTO 00000KT 3SM -SN FEW005 OVC011 M04/M06 A3014 RMK SLP219
CYSC;2002-11-26 09:00;METAR CYSC 260900Z AUTO 00000KT 5SM OVC027 M04/M06 A3014 RMK SLP221
CYSC;2002-11-26 10:00;METAR CYSC 261000Z AUTO 00000KT 4SM OVC025 M04/M06 A3016 RMK SLP227
CYSC;2002-11-26 11:00;METAR CYSC 261100Z AUTO 00000KT 7SM OVC019 M04/M05 A3017 RMK SLP233
CYSC;2002-11-26 12:00;METAR CYSC 261200Z AUTO 00000KT 7SM OVC020 M04/M05 A3019 RMK SLP236
CYSC;2002-11-26 13:00;METAR CYSC 261300Z 00000KT 6SM BR OVC008 M03/M04 A3020 RMK SF8 SLP242
CYSC;2002-11-26 14:00;METAR CYSC 261400Z CCA 28005KT 5SM -SN BR OVC006 M02/M04 A3022 RMK SF8 SLP247
CYSC;2002-11-26 15:00;METAR CYSC 261500Z 28010KT 10SM -SHSN SCT012 BKN030 BKN065 M02/M04 A3023 RMK SC4SC2SC1 SLP250
CYSC;2002-11-26 16:00;METAR CYSC 261600Z 25007KT 12SM -SHSN BKN015 BKN035 BKN065 M01/M05 A3022 RMK SC5SC2SC1 SLP248
CYSC;2002-11-26 17:00;METAR CYSC 261700Z 27007KT 15SM SCT017 BKN240 M01/M06 A3021 RMK SC4CI0 CF ASOCTD SLP245
CYSC;2002-11-26 18:00;METAR CYSC 261800Z 30009KT 15SM -SHSN BKN020 M01/M07 A3020 RMK SC6 CU EMBDD SLP240
CYSC;2002-11-26 19:00;METAR CYSC 261900Z 26007KT 15SM VCSH BKN020 M01/M06 A3020 RMK SC6 CU EMBDD SLP241
CYSC;2002-11-26 20:00;METAR CYSC 262000Z 27007KT 15SM SCT022 BKN240 M02/M07 A3021 RMK SC3CI0 SLP242
CYSC;2002-11-26 21:00;METAR CYSC 262100Z 27006KT 15SM FEW020 SCT240 M03/M08 A3020 RMK SC1CI0
CYSC;2002-11-26 22:00;METAR CYSC 262200Z 28004KT 15SM FEW027 SCT240 M04/M08 A3021 RMK SC2CI0 LAST MANNED OB/NEXT 271300 SLP246
CYSC;2002-11-26 23:00;METAR CYSC 262300Z AUTO 26002KT 9SM FEW019 M05/M08 A3022 RMK SLP250
CYSC;2002-11-27 00:00;METAR CYSC 270000Z AUTO 25002KT 9SM SCT026 M06/M08 A3022 RMK SLP250
CYSC;2002-11-27 01:00;METAR CYSC 270100Z AUTO 00000KT 9SM FEW027 BKN033 M07/M08 A3022 RMK SLP251
CYSC;2002-11-27 02:00;METAR CYSC 270200Z AUTO 00000KT 9SM SCT037 M07/M09 A3019 RMK SLP240
CYSC;2002-11-27 03:00;METAR CYSC 270300Z AUTO 06002KT 9SM FEW047 M07/M08 A3018 RMK SLP234
CYSC;2002-11-27 04:00;METAR CYSC 270400Z AUTO 00000KT 8SM FEW039 M07/M08 A3016 RMK SLP230
CYSC;2002-11-27 05:00;METAR CYSC 270500Z AUTO 00000KT 8SM FEW039 M07/M08 A3015 RMK SLP226
CYSC;2002-11-27 06:00;METAR CYSC 270600Z AUTO 00000KT 8SM SCT037 M07/M08 A3014 RMK SLP222
CYSC;2002-11-27 08:00;METAR CYSC 270800Z AUTO 00000KT 2 1/8SM BKN015 M06/M08 A3013 RMK SLP218
CYSC;2002-11-27 09:00;METAR CYSC 270900Z AUTO 00000KT 3 1/2SM FEW021 M07/M08 A3011 RMK SLP214
CYSC;2002-11-27 10:00;METAR CYSC 271000Z AUTO 00000KT 4SM FEW025 M07/M08 A3011 RMK SLP213
CYSC;2002-11-27 11:00;METAR CYSC 271100Z AUTO 26002KT 5SM FEW033 FEW041 M07/M09 A3011 RMK SLP214
CYSC;2002-11-27 12:00;METAR CYSC 271200Z AUTO 26002KT 9SM OVC013 M09/M10 A3011 RMK SLP215
CYSC;2002-11-27 13:00;METAR CYSC 271300Z 26002KT 15SM FEW017 FEW120 FEW250 M08/M09 A3011 RMK CF1AC1CI0 CF TR SLP213
CYSC;2002-11-27 14:00;METAR CYSC 271400Z 27003KT 15SM FEW015 FEW120 SCT250 M06/M09 A3010 RMK CF1AC1CI1 AC TR SLP210
CYSC;2002-11-27 15:00;METAR CYSC 271500Z 31005KT 15SM FEW034 SCT120 SCT250 M05/M10 A3009 RMK CU1AC2CI0 SLP204
CYSC;2002-11-27 16:00;METAR CYSC 271600Z 28005KT 15SM -SHSN BKN020 BKN250 M05/M10 A3006 RMK CU6CI0 SLP195
CYSC;2002-11-27 17:00;METAR CYSC 271700Z 32007KT 15SM -SHSN BKN018 BKN078 M05/M10 A3004 RMK CU6AC1 SLP188
CYSC;2002-11-27 18:00;METAR CYSC 271800Z 29009KT 15SM -SHSN BKN016 BKN087 M06/M11 A3004 RMK CU6AC1 SLP187
CYSC;2002-11-27 19:00;METAR CYSC 271900Z 31008KT 15SM -SHSN BKN018 BKN078 M06/M11 A3003 RMK CU6AC1 SLP185
CYSC;2002-11-27 20:00;METAR CYSC 272000Z 28006KT 15SM FEW015 BKN023 BKN088 M06/M12 A3002 RMK CF1CU5AC2 SLP181
CYSC;2002-11-27 21:00;METAR CYSC 272100Z 27008KT 15SM -SHSN BKN017 BKN080 M07/M12 A3002 RMK CU6AC1 SLP180
CYSC;2002-11-27 22:00;METAR CYSC 272200Z 26003KT 15SM BKN030 M08/M12 A3001 RMK SC6 LAST MANNED OB/NEXT 281300 SLP179
CYSC;2002-11-27 23:00;METAR CYSC 272300Z AUTO 31006KT 3SM -SN FEW009 OVC014 M08/M11 A3001 RMK SLP180
