CYYC;2002-08-15 00:00;METAR CYYC 150000Z 34022G27KT 30SM SCT057CB SCT080 17/03 A2991 RMK CB3AC1 SH S QUADS SLP135 QUADS SLP135
CYYC;2002-08-15 01:00;METAR CYYC 150100Z 35019KT 30SM FEW060TCU FEW090 16/04 A2993 RMK TCU1AC1 CB S QUADS SLP140 QUADS SLP140
CYYC;2002-08-15 02:00;METAR CYYC 150200Z 36016G21KT 40SM FEW060 BKN100 15/05 A2995 RMK CU1AC3 TR CU CB DSNT S SLP145 DSNT S SLP145
CYYC;2002-08-15 03:00;METAR CYYC 150300Z 34010KT 30SM FEW060 BKN096 13/04 A2997 RMK CU1AC6 SLP161
CYYC;2002-08-15 05:00;METAR CYYC 150500Z 30007KT 15SM FEW060 BKN090 12/03 A3001 RMK CU1AC6 TR CU SLP172
CYYC;2002-08-15 06:00;METAR CYYC 150600Z 29007KT 15SM FEW060 BKN095 BKN120 11/03 A3001 RMK CU1AC6AC1 TR CU SLP175 CU SLP175
CYYC;2002-08-15 07:00;METAR CYYC 150700Z 36008KT 15SM FEW048 BKN098 11/04 A3002 RMK CU1AC6 TR CU SLP176
CYYC;2002-08-15 08:00;METAR CYYC 150800Z 01003KT 15SM FEW035 BKN120 10/04 A3001 RMK CU1AC6 TR CU SLP175
CYYC;2002-08-15 09:00;METAR CYYC 150900Z 30004KT 15SM FEW160 09/03 A3000 RMK AC2 SLP167
CYYC;2002-08-15 10:00;METAR CYYC 151000Z 28005KT 15SM SKC 08/02 A3000 RMK SLP166
CYYC;2002-08-15 11:00;METAR CYYC 151100Z 31006KT 15SM FEW100 BKN120 08/03 A2999 RMK AC2AC2 SLP165
CYYC;2002-08-15 12:00;METAR CYYC 151200Z 30005KT 15SM FEW100 BKN120 09/03 A3001 RMK AC1AC4 SLP171
CYYC;2002-08-15 13:00;METAR CYYC 151300Z 32004KT 20SM SCT040 BKN110 10/04 A3001 RMK SC4AC1
CYYC;2002-08-15 14:00;METAR CYYC 151400Z 31006KT 30SM FEW040 BKN120 10/04 A3002 RMK SC2AC2
CYYC;2002-08-15 15:00;METAR CYYC 151500Z 34011KT 30SM FEW028 FEW033 BKN100 BKN120 BKN250 11/04 A3002 RMK CF0SC2AC2AC2CI0 SLP177 RMK CF0SC2AC2AC2CI0 SLP177
CYYC;2002-08-15 16:00;METAR CYYC 151600Z 35011KT 30SM FEW024 BKN053 OVC120 11/04 A3001 RMK SC1SC6AC1 SLP175
CYYC;2002-08-15 17:00;METAR CYYC 151700Z 33009KT 30SM FEW030 OVC051 11/04 A3000 RMK CU2SC6
CYYC;2002-08-15 18:00;METAR CYYC 151800Z 33009KT 20SM BKN024 OVC051 12/04 A3001 RMK CU5SC3
CYYC;2002-08-15 19:00;METAR CYYC 151900Z 35010KT 20SM -RA BKN024 OVC051 11/04 A3001 RMK SC6SC2
CYYC;2002-08-15 20:00;METAR CYYC 152000Z 34013KT 20SM -RA SCT024 BKN040 OVC088 11/04 A3001 RMK SC3ST4AC1 SLP177
CYYC;2002-08-15 21:00;METAR CYYC 152100Z 35008KT 20SM SCT023 OVC042 12/03 A3001 RMK SC3ST5 SLP179
CYYC;2002-08-15 22:00;METAR CYYC 152200Z 33014KT 20SM FEW026 SCT033 OVC052 12/02 A3001 RMK SC1SC2ST5 SLP180 SLP180
CYYC;2002-08-15 23:00;METAR CYYC 152300Z 34012KT 20SM FEW029 FEW043 BKN061 12/02 A3000 RMK CF0SC2ST6 TCU DIST N SLP176 TCU DIST N SLP176
CYYC;2002-08-16 00:00;METAR CYYC 160000Z 34009KT 20SM FEW043TCU BKN063 12/02 A2999 RMK TCU1SC6 SLP174
CYYC;2002-08-16 01:00;METAR CYYC 160100Z 33009KT 20SM FEW043TCU BKN063 12/02 A2999 RMK TCU1SC6 TCU TR / SH N SLP174 SH N SLP174
CYYC;2002-08-16 02:00;METAR CYYC 160200Z 32005KT 20SM FEW030 FEW050TCU BKN055 BKN095 11/03 A2998 RMK CF1TCU1SC7AC1 TR CF TR TCU TR AC TCU DSNT NE SLP171 CF1TCU1SC7AC1 TR CF TR TCU TR AC TCU DSNT NE SLP171
CYYC;2002-08-16 03:00;METAR CYYC 160300Z 30005KT 20SM FEW050 FEW055 BKN060 BKN095 11/03 A2997 RMK CF1CU1SC6AC1 TR CF TR AC SLP162
CYYC;2002-08-16 04:00;METAR CYYC 160400Z 25005KT 15SM FEW053 BKN060 11/03 A2997 RMK CU1SC6 SLP163
CYYC;2002-08-16 05:00;METAR CYYC 160500Z 33005KT 15SM FEW040 OVC058 10/04 A2997 RMK CU2SC6
CYYC;2002-08-16 06:00;METAR CYYC 160600Z 01013KT 15SM FEW030 OVC040 09/03 A2996 RMK CU2SC6
CYYC;2002-08-16 07:00;METAR CYYC 160700Z 03010KT 15SM OVC036 08/02 A2996 RMK SC8 SLP161
CYYC;2002-08-16 08:00;METAR CYYC 160800Z 02008KT 5SM -RA OVC040 07/03 A2995 RMK SC8 SLP160 TR CF SLP158
CYYC;2002-08-16 10:00;METAR CYYC 161000Z 04004KT 10SM -RA FEW032 OVC045 08/M00 A2992 RMK CF1SC8 SLP153
CYYC;2002-08-16 11:00;METAR CYYC 161100Z 34005KT 3SM -RA FEW021 OVC034 06/01 A2993 RMK CF1SC8 SLP155
CYYC;2002-08-16 12:00;METAR CYYC 161200Z 32010KT 4SM -RA FEW015 OVC024 06/02 A2995 RMK CF1SC8 TR CF SLP162 SLP162
CYYC;2002-08-16 14:00;METAR CYYC 161400Z 32014KT 20SM FEW012 BKN016 OVC044 05/01 A3002 RMK CF0SC6SC2 SLP183 SLP183
CYYC;2002-08-16 15:00;METAR CYYC 161500Z 34014G19KT 20SM BKN008 BKN089 07/02 A3004 RMK SC5AC1 SLP193
CYYC;2002-08-16 16:00;METAR CYYC 161600Z 34017G22KT 40SM FEW012 FEW090 SCT180 08/M00 A3007 RMK SC1AC1AC1 SLP203
CYYC;2002-08-16 17:00;METAR CYYC 161700Z 34015KT 40SM BKN028 BKN190 09/M00 A3009 RMK SC5AC1 SLP208
CYYC;2002-08-16 18:00;METAR CYYC 161800Z 33016KT 40SM BKN028 09/M00 A3011 RMK SC7 SLP218
CYYC;2002-08-16 19:00;METAR CYYC 161900Z 34012KT 40SM FEW035 SCT051 BKN070 11/01 A3010 RMK SC2SC2AC2 SLP217 SLP217
CYYC;2002-08-16 20:00;METAR CYYC 162000Z 34011KT 40SM BKN038 11/M00 A3010 RMK SC7 SLP217
CYYC;2002-08-16 21:00;METAR CYYC 162100Z 31007KT 40SM SCT035 BKN054 11/M00 A3011 RMK SC4SC2 TCU ASOCTD SLP217
CYYC;2002-08-16 22:00;METAR CYYC 162200Z 22005KT 40SM FEW042 BKN055 BKN071 13/M00 A3011 RMK CU1SC4AC0 TCU ASOCTD N SLP218 TCU ASOCTD N SLP218
CYYC;2002-08-16 23:00;METAR CYYC 162300Z 04006KT 40SM SCT057 BKN071 12/01 A3012 RMK SC4AC2 SLP220
CYYC;2002-08-17 00:00;METAR CYYC 170000Z 04004KT 40SM FEW054 BKN075 12/00 A3012 RMK SC1AC6 SLP221
CYYC;2002-08-17 01:00;METAR CYYC 170100Z 12004KT 40SM FEW046 FEW054 BKN061 BKN090 12/02 A3011 RMK CU0SC1SC5AC2 SLP219
CYYC;2002-08-17 03:00;METAR CYYC 170300Z 14006KT 30SM FEW070 BKN096 BKN300 10/01 A3011 RMK CU1AC4CI1 TR CU TR CI SLP218 CU TR CI SLP218
CYYC;2002-08-17 04:00;METAR CYYC 170400Z 15007KT 15SM SCT085 09/01 A3010 RMK AC2 SLP215
CYYC;2002-08-17 05:00;METAR CYYC 170500Z 18005KT 15SM FEW060 09/01 A3009 RMK CU1 TR CU SLP213
CYYC;2002-08-17 06:00;METAR CYYC 170600Z 19005KT 15SM FEW100 07/02 A3008 RMK AC1 TR AC SLP212
CYYC;2002-08-17 07:00;METAR CYYC 170700Z 19006KT 15SM FEW100 07/01 A3008 RMK AC1 SLP211
CYYC;2002-08-17 08:00;METAR CYYC 170800Z 18004KT 15SM SKC 07/01 A3007 RMK SLP207
CYYC;2002-08-17 09:00;METAR CYYC 170900Z 19006KT 15SM SKC 06/00 A3006 RMK SLP201
CYYC;2002-08-17 10:00;METAR CYYC 171000Z 20006KT 15SM SKC 05/M00 A3004 RMK SLP197
CYYC;2002-08-17 11:00;METAR CYYC 171100Z 21007KT 15SM FEW140 05/M00 A3003 RMK AC2 SLP192
CYYC;2002-08-17 12:00;METAR CYYC 171200Z 21007KT 40SM FEW140 04/M00 A3002 RMK AC2 SLP189
CYYC;2002-08-17 13:00;METAR CYYC 171300Z 21007KT 40SM FEW140 FEW250 04/M00 A3001 RMK AC1CI1 TR AC SLP186
CYYC;2002-08-17 14:00;METAR CYYC 171400Z 19006KT 40SM FEW140 FEW250 06/01 A3000 RMK AC0CI1 SLP185
CYYC;2002-08-17 15:00;METAR CYYC 171500Z 21006KT 40SM FEW140 SCT250 08/01 A2999 RMK AC0CI1 SLP176
CYYC;2002-08-17 16:00;METAR CYYC 171600Z 21005KT 40SM FEW160 FEW270 11/02 A2998 RMK AC0CI0 AC+CI TR SLP172 SLP172
CYYC;2002-08-17 17:00;METAR CYYC 171700Z 20004KT 40SM FEW160 14/02 A2996 RMK AC1 AC TR SLP167
CYYC;2002-08-17 18:00;METAR CYYC 171800Z 16006KT 40SM FEW160 FEW270 16/02 A2995 RMK AC1CI0 SLP153
CYYC;2002-08-17 19:00;METAR CYYC 171900Z 17007G16KT 40SM FEW070 FEW160 BKN250 18/00 A2992 RMK AC0AC1CC2 SLP145 SLP145
CYYC;2002-08-17 20:00;METAR CYYC 172000Z 21007KT 40SM FEW080 FEW180 BKN260 18/02 A2990 RMK AC0AC1CC2 ACSL ASOCTD UPR AC LYR SLP140 ACSL ASOCTD UPR AC LYR SLP140
CYYC;2002-08-17 21:00;METAR CYYC 172100Z 14005KT 40SM FEW090 FEW180 FEW270 19/01 A2989 RMK AC0AC1CI0 ACSL ASOCTD UPR AC LYR SLP132 ACSL ASOCTD UPR AC LYR SLP132
CYYC;2002-08-17 22:00;METAR CYYC 172200Z 05005KT 40SM FEW090 FEW160 SCT180 20/02 A2987 RMK AC1AC0AC2 SLP127 SLP127
CYYC;2002-08-17 23:00;METAR CYYC 172300Z 07006KT 40SM FEW070 BKN090 BKN180 19/01 A2987 RMK CF0AC5AC2 CF TR / VIRGA W QUADS SLP127 TR / VIRGA W QUADS SLP127
CYYC;2002-08-18 00:00;METAR CYYC 180000Z 08004KT 40SM FEW070 SCT088 BKN160 18/03 A2988 RMK CU1AC3AS3 SH NW QUAD SLP132 NW QUAD SLP132
CYYC;2002-08-18 01:00;METAR CYYC 180100Z 33021G29KT 4SM -RA BKN023 OVC070 11/06 A2995 RMK SC7AC1 PRESRR SLP155 SLP155
CYYC;2002-08-18 02:00;METAR CYYC 180200Z 36011KT 40SM -SHRA FEW031 BKN078 OVC088 11/06 A2997 RERA RMK SC2AC4AC2 SLP160
CYYC;2002-08-18 03:00;METAR CYYC 180300Z 04008KT 40SM FEW056 SCT082 BKN098 OVC240 10/05 A2996 RMK SC2AC2AC2CI1 SLP167
CYYC;2002-08-18 04:00;METAR CYYC 180400Z 01005KT 15SM BKN078 OVC100 10/05 A2998 RMK AC5AC2 SLP172
CYYC;2002-08-18 05:00;METAR CYYC 180500Z 35008KT 15SM FEW071 BKN120 10/05 A2999 RMK AC2AC2 SLP176
CYYC;2002-08-18 06:00;METAR CYYC 180600Z 35010G15KT 15SM SCT084 09/05 A3001 RMK AC2 SLP174
CYYC;2002-08-18 07:00;METAR CYYC 180700Z 34008KT 15SM BKN057 OVC084 09/04 A3002 RMK SC6AC2
CYYC;2002-08-18 08:00;METAR CYYC 180800Z 33013KT 15SM FEW053 BKN075 OVC091 09/04 A3002 RMK SC2AC4AC1 SLP176
CYYC;2002-08-18 09:00;METAR CYYC 180900Z 33012KT 15SM FEW059 FEW091 08/03 A3002 RMK SC1AC2 SLP175
CYYC;2002-08-18 10:00;METAR CYYC 181000Z 27005KT 15SM FEW053 FEW088 07/03 A3003 RMK SC1AC1 SLP177
CYYC;2002-08-18 11:00;METAR CYYC 181100Z 24004KT 15SM FEW074 SCT095 07/02 A3003 RMK AC2AC2
CYYC;2002-08-18 12:00;METAR CYYC 181200Z 00000KT 40SM FEW100 FEW250 07/02 A3004 RMK AC1CI0 AC TR SLP184
CYYC;2002-08-18 13:00;METAR CYYC 181300Z 21004KT 40SM FEW120 FEW250 06/01 A3004 RMK AC2CI0 SLP183
CYYC;2002-08-18 14:00;METAR CYYC 181400Z 21004KT 40SM FEW250 08/03 A3004 RMK CI0 SLP183
CYYC;2002-08-18 15:00;METAR CYYC 181500Z 23006KT 40SM FEW160 FEW280 11/03 A3003 RMK AC0CI0 SLP186
CYYC;2002-08-18 16:00;METAR CYYC 181600Z 24006KT 40SM FEW140 FEW280 13/03 A3003 RMK AC0CI0 AC TR
CYYC;2002-08-18 17:00;METAR CYYC 181700Z 15002KT 40SM FEW065 FEW280 15/02 A3003 RMK CU0CI0 CU TR SLP187
CYYC;2002-08-18 18:00;METAR CYYC 181800Z 20007KT 40SM FEW065 FEW280 16/03 A3002 RMK CU0CI0 SLP178
CYYC;2002-08-18 19:00;METAR CYYC 181900Z 21005KT 40SM FEW065 FEW280 17/04 A3000 RMK CU1CI1
CYYC;2002-08-18 20:00;METAR CYYC 182000Z 17004KT 40SM FEW052 FEW280 17/02 A2999 RMK CU1CI1 SLP169
CYYC;2002-08-18 21:00;METAR CYYC 182100Z 16006KT 40SM FEW052 FEW280 19/04 A2998 RMK CU1CI1 SLP160
CYYC;2002-08-18 22:00;METAR CYYC 182200Z 16007KT 40SM FEW060 FEW280 19/04 A2996 RMK CU1CI1 SLP153
CYYC;2002-08-18 23:00;METAR CYYC 182300Z 19008KT 40SM FEW060 FEW280 20/05 A2993 RMK CU1CI1 SLP144
CYYC;2002-08-19 00:00;METAR CYYC 190000Z 16008KT 30SM FEW060 FEW280 20/05 A2991 RMK CU1CI1 SLP137
CYYC;2002-08-19 01:00;METAR CYYC 190100Z 16012KT 30SM FEW060 FEW120 SCT280 19/05 A2989 RMK CU1AC2CI0 SLP132 SLP132
CYYC;2002-08-19 02:00;METAR CYYC 190200Z 16013KT 30SM FEW060 FEW110 SCT150 BKN280 18/06 A2988 RMK CU1AC1AC2CI2 SLP129
CYYC;2002-08-19 03:00;METAR CYYC 190300Z 16008KT 40SM FEW120 BKN250 17/07 A2987 RMK AC2CI4 SLP121
CYYC;2002-08-19 04:00;METAR CYYC 190400Z 15005KT 15SM FEW120 BKN250 15/07 A2987 RMK AC2CI4 SLP120
CYYC;2002-08-19 05:00;METAR CYYC 190500Z 16006KT 15SM FEW140 SCT250 14/07 A2986 RMK AC2CI1 SLP117
CYYC;2002-08-19 06:00;METAR CYYC 190600Z 17005KT 15SM FEW140 SCT250 13/07 A2984 RMK AC2CI0 SLP110
CYYC;2002-08-19 07:00;METAR CYYC 190700Z 20006KT 15SM FEW140 FEW250 11/06 A2983 RMK AC1CI0 SLP106
CYYC;2002-08-19 08:00;METAR CYYC 190800Z 00000KT 15SM FEW140 FEW250 12/06 A2982 RMK AC1CI0 SLP104
CYYC;2002-08-19 09:00;METAR CYYC 190900Z 02002KT 15SM FEW250 10/06 A2982 RMK CI0 SLP101
CYYC;2002-08-19 10:00;METAR CYYC 191000Z 07004KT 15SM FEW250 10/05 A2981 RMK CI0 SLP100
CYYC;2002-08-19 11:00;METAR CYYC 191100Z 00000KT 15SM FEW120 BKN250 10/02 A2982 RMK AC2CI3 SLP101
CYYC;2002-08-19 12:00;METAR CYYC 191200Z 32003KT 20SM SCT120 BKN250 11/02 A2981 RMK AC3CI2 SLP098
CYYC;2002-08-19 13:00;METAR CYYC 191300Z 00000KT 40SM BKN140 OVC250 11/02 A2982 RMK AC5CI2 SLP099
CYYC;2002-08-19 14:00;METAR CYYC 191400Z 16006KT 40SM FEW080 FEW120 BKN250 15/03 A2982 RMK CU1AC2CC1 TR CU SLP099 CU SLP099
CYYC;2002-08-19 15:00;METAR CYYC 191500Z 23006KT 40SM FEW140 BKN250 17/04 A2982 RMK AC1CI1 TR AC CC ASOCTD SLP094 ASOCTD SLP094
CYYC;2002-08-19 16:00;METAR CYYC 191600Z 00000KT 40SM FEW065 FEW140 SCT250 SCT300 19/04 A2983 RMK CU1AC1CI1CC0 TR CU TR AC SLP097
CYYC;2002-08-19 17:00;METAR CYYC 191700Z 36014KT 40SM FEW070 FEW140 SCT250 BKN300 18/04 A2983 RMK CU1AC1CI1CC0 TR CU TR AC SLP098
CYYC;2002-08-19 18:00;METAR CYYC 191800Z 02012KT 40SM FEW070 SCT270 SCT300 18/06 A2984 RMK CU1CI1CC1 TR CU TR CC SLP106 CU TR CC SLP106
CYYC;2002-08-19 19:00;METAR CYYC 191900Z 04009KT 40SM FEW070 SCT270 19/05 A2984 RMK CU1CI1 SLP107
CYYC;2002-08-19 20:00;METAR CYYC 192000Z 04008KT 40SM FEW060 FEW160 SCT270 21/05 A2983 RMK CU2AC1CI0 TR AC SLP104 AC SLP104
CYYC;2002-08-19 21:00;METAR CYYC 192100Z 06008KT 40SM FEW058 FEW065CB FEW160 SCT270 21/05 A2981 RMK CF1CB2AC1CI0 TR CF COTRA CB NW SLP096 CF1CB2AC1CI0 TR CF COTRA CB NW SLP096
CYYC;2002-08-19 22:00;METAR CYYC 192200Z 07008KT 40SM FEW060 FEW065CB SCT160 BKN270 22/05 A2981 RMK CU1CB2AC2CI0 TR CU CB NW-N SLP094 CU1CB2AC2CI0 TR CU CB NW-N SLP094
CYYC;2002-08-19 23:00;METAR CYYC 192300Z 11007KT 40SM FEW060 SCT065CB SCT150 BKN270 22/05 A2980 RMK CU1CB2AC1CI0 SLP093 CU1CB2AC1CI0 SLP093
CYYC;2002-08-20 00:00;METAR CYYC 200000Z 14008KT 40SM FEW060 SCT065CB SCT140 SCT250 22/05 A2979 RMK CU1CB2AC1CI1 TR AC TR CI VCSH NW-N SLP088 CU1CB2AC1CI1 TR AC TR CI VCSH NW-N SLP088
CYYC;2002-08-20 01:00;METAR CYYC 200100Z 09005KT 40SM FEW060 SCT065CB BKN130 BKN250 21/04 A2980 RMK CF1CB3AC2CI0 TR CF VCSH N-NE SLP090 CF1CB3AC2CI0 TR CF VCSH N-NE SLP090
CYYC;2002-08-20 02:00;METAR CYYC 200200Z 05012KT 40SM BKN077 BKN099 17/04 A2981 RMK AC5AC2 SLP092
CYYC;2002-08-20 03:00;METAR CYYC 200300Z 03012KT 20SM BKN077 OVC100 16/05 A2983 RMK AC5AC2 SHWRS DSNT SE SLP099 SE SLP099
CYYC;2002-08-20 04:00;METAR CYYC 200400Z 02010KT 15SM SCT076 OVC100 14/06 A2985 RMK AC4AC3 SLP108
CYYC;2002-08-20 05:00;METAR CYYC 200500Z 35013KT 10SM SHRA SCT045 OVC093 13/08 A2989 RMK SC3AC5 ACC EMBDD SLP119 EMBDD SLP119
CYYC;2002-08-20 06:00;METAR CYYC 200600Z 04012KT 15SM -SHRA FEW014 BKN078 OVC120 12/07 A2990 RERA RMK SC2AC4AC2 LTGIC S/ CB EMBDD S SLP129
CYYC;2002-08-20 07:00;METAR CYYC 200700Z 02008KT 15SM -SHRA FEW017 BKN050 OVC090 11/08 A2991 RMK SC2SC2AC2 LTGIC S/ CB EMBDD SLP133
CYYC;2002-08-20 08:00;METAR CYYC 200800Z 01009KT 15SM FEW008 BKN048 OVC084 11/08 A2992 RMK SF2SC4AC2 SLP134 SLP134
CYYC;2002-08-20 09:00;METAR CYYC 200900Z 36006KT 8SM -SHRA BKN006 BKN060 OVC084 11/08 A2993 RMK SC6SC2AC1 SLP134
CYYC;2002-08-20 10:00;METAR CYYC 201000Z 02005KT 10SM -SHRA BKN006 BKN015 OVC064 11/08 A2993 RMK SC6SC1SC1 SLP136
CYYC;2002-08-20 11:00;METAR CYYC 201100Z 07002KT 12SM FEW007 OVC062 11/07 A2992 RMK SF1SC7 SLP133
CYYC;2002-08-20 12:00;METAR CYYC 201200Z 18002KT 15SM FEW008 BKN064 OVC085 11/07 A2992 RMK SF1SC4AC3 SLP132 SLP132
CYYC;2002-08-20 13:00;METAR CYYC 201300Z 19005KT 20SM FEW060 SCT091 BKN099 BKN250 11/07 A2992 RMK SC1AC2AC2CI0 SLP131 SF1CU2AC2CI1 SLP137
CYYC;2002-08-20 16:00;METAR CYYC 201600Z 13008KT 30SM FEW015 SCT018 SCT100 BKN270 14/08 A2992 RMK CF1CU2AC1CI1 SLP136
CYYC;2002-08-20 17:00;METAR CYYC 201700Z 16009KT 20SM FEW018 BKN021 BKN110 BKN270 15/08 A2991 RMK CF1CU4AC1CI0 TR AC SLP135
CYYC;2002-08-20 18:00;METAR CYYC 201800Z 00000KT 20SM SCT026 BKN100 BKN270 16/08 A2991 RMK CU4AC2CI0 CC ASOCTD SLP134 ASOCTD SLP134
CYYC;2002-08-20 19:00;METAR CYYC 201900Z 10005KT 20SM FEW027 BKN100 BKN270 18/08 A2990 RMK CU2AC1CI0 SLP132
CYYC;2002-08-20 20:00;METAR CYYC 202000Z 06004KT 20SM FEW032 SCT100 BKN270 18/08 A2989 RMK CU2AC1CI0 CC ASOCTD SLP129 ASOCTD SLP129
CYYC;2002-08-20 21:00;METAR CYYC 202100Z 02005KT 20SM SCT040 BKN110 BKN250 18/08 A2990 RMK CU3AC2CI0 CC ASOCTD SLP129
CYYC;2002-08-21 00:00;METAR CYYC 210000Z 01005KT 20SM SCT050TCU BKN100 BKN250 19/07 A2988 RMK TCU4AC2CI1 TR CI SLP123
CYYC;2002-08-21 04:00;METAR CYYC 210400Z 31007KT 15SM -SHRA SCT069 OVC120 14/07 A2994 RMK AC4AC2 ACC ASOCTD E SLP145 ASOCTD E SLP145
CYYC;2002-08-21 05:00;METAR CYYC 210500Z 36006KT 15SM FEW120 FEW250 12/07 A2994 RMK AC1CI1 BOTH CLDS TR SLP147 SLP147
CYYC;2002-08-21 06:00;METAR CYYC 210600Z 30007KT 15SM FEW120 11/06 A2994 RMK AC1 AC TR SLP147
CYYC;2002-08-21 07:00;METAR CYYC 210700Z 35002KT 15SM FEW270 10/05 A2996 RMK CI1 CI TR SLP153
CYYC;2002-08-21 08:00;METAR CYYC 210800Z 21002KT 15SM FEW140 FEW270 10/05 A2997 RMK AC1CI1 SLP157
CYYC;2002-08-21 09:00;METAR CYYC 210900Z 21004KT 15SM SKC 09/05 A2997 RMK SLP158
CYYC;2002-08-21 10:00;METAR CYYC 211000Z 32005KT 15SM SKC 07/03 A2998 RMK SLP161
CYYC;2002-08-21 11:00;METAR CYYC 211100Z 03002KT 15SM SKC 07/03 A2998 RMK SLP162
CYYC;2002-08-21 12:00;METAR CYYC 211200Z 30002KT 15SM FEW250 07/03 A3000 RMK CI1 SLP168
CYYC;2002-08-21 13:00;METAR CYYC 211300Z 30002KT 15SM FEW250 08/03 A3000 RMK CI1 SLP168
CYYC;2002-08-21 14:00;METAR CYYC 211400Z 00000KT 40SM FEW250 10/05 A3002 RMK CI0 SLP175
CYYC;2002-08-21 15:00;METAR CYYC 211500Z 23002KT 40SM FEW270 13/06 A3003 RMK CI1 TR CI SLP178
CYYC;2002-08-21 16:00;METAR CYYC 211600Z 30002KT 40SM FEW270 16/07 A3003 RMK CI1 TR CI SLP178
CYYC;2002-08-21 17:00;METAR CYYC 211700Z 20005KT 40SM FEW044 FEW270 18/06 A3004 RMK CU1CI1 TR CU TR CI SLP182 SLP182
CYYC;2002-08-21 18:00;METAR CYYC 211800Z 20005KT 40SM FEW052 FEW270 19/06 A3004 RMK CU1CI1 TR CU TR CI SLP176 SLP176
CYYC;2002-08-21 19:00;METAR CYYC 211900Z 20006KT 40SM FEW060 FEW270 21/06 A3003 RMK CU1CI1 TR CU TR CI SLP174 SLP174
CYYC;2002-08-21 20:00;METAR CYYC 212000Z 19008KT 40SM FEW062 FEW270 21/06 A3001 RMK CU1CI0 TCU ASOCTD SW SLP168 SW SLP168
CYYC;2002-08-21 21:00;METAR CYYC 212100Z 14007G15KT 40SM FEW058 FEW270 22/07 A3001 RMK CU2CI1 TR CI TCU ASOCTD SLP164 ASOCTD SLP164
CYYC;2002-08-21 22:00;METAR CYYC 212200Z 16009KT 40SM FEW062 FEW270 22/07 A2999 RMK CU2CI1 TR CI TCU ASOCTD SLP160 ASOCTD SLP160
CYYC;2002-08-21 23:00;METAR CYYC 212300Z 18010G15KT 40SM FEW064 FEW300 22/06 A2998 RMK CU2CI1 TR CI TCU ASOCTD SLP157 ASOCTD SLP157
CYYC;2002-08-22 00:00;METAR CYYC 220000Z 16012KT 40SM FEW064 FEW300 22/06 A2998 RMK CU1CI0 TCU ASOCTD SLP157 SLP157
CYYC;2002-08-22 01:00;METAR CYYC 220100Z 17014KT 40SM FEW064 FEW140 FEW300 21/05 A2998 RMK CU1AC1CI0 TR AC TCU ASOCTD SLP156 AC TCU ASOCTD SLP156
CYYC;2002-08-22 02:00;METAR CYYC 220200Z 16009KT 40SM FEW120 FEW270 20/06 A2997 RMK AC1CI0 SLP155
CYYC;2002-08-22 04:00;METAR CYYC 220400Z 17013KT 15SM FEW140 FEW270 17/07 A2999 RMK AC1CI1 SLP158
CYYC;2002-08-22 05:00;METAR CYYC 220500Z 18009KT 15SM SKC 15/07 A2999 RMK SLP158
CYYC;2002-08-22 06:00;METAR CYYC 220600Z 14008KT 15SM SKC 14/07 A2998 RMK SLP152
CYYC;2002-08-22 07:00;METAR CYYC 220700Z 16008KT 15SM SKC 13/07 A2998 RMK SLP151
CYYC;2002-08-22 08:00;METAR CYYC 220800Z 18005KT 15SM SKC 11/06 A2996 RMK SLP146
CYYC;2002-08-22 09:00;METAR CYYC 220900Z 16004KT 15SM SKC 11/06 A2996 RMK SLP145
CYYC;2002-08-22 10:00;METAR CYYC 221000Z 22003KT 15SM SKC 10/05 A2995 RMK SLP142
CYYC;2002-08-22 11:00;METAR CYYC 221100Z 22003KT 15SM SKC 10/05 A2995 RMK SLP142
CYYC;2002-08-22 12:00;METAR CYYC 221200Z 12007KT 15SM FEW270 08/04 A2996 RMK CI1 SLP148
CYYC;2002-08-22 13:00;METAR CYYC 221300Z 29004KT 40SM FEW160 FEW270 09/04 A2998 RMK AC1CI1 BOTH CLDS TR SLP153
CYYC;2002-08-22 14:00;METAR CYYC 221400Z 32002KT 40SM FEW160 FEW300 12/06 A2999 RMK AC1CI0
CYYC;2002-08-22 15:00;METAR CYYC 221500Z 32012KT 40SM FEW160 BKN270 17/05 A3000 RMK AC1CI1 TR AC
CYYC;2002-08-22 16:00;METAR CYYC 221600Z 34011G16KT 40SM FEW160 BKN300 19/05 A3001 RMK AC1CI2 TR AC SLP158
CYYC;2002-08-22 17:00;METAR CYYC 221700Z 36010KT 40SM FEW060 BKN300 21/06 A3001 RMK CU1CI2 TR CU
CYYC;2002-08-22 18:00;METAR CYYC 221800Z 33014KT 40SM FEW070 BKN300 22/07 A3002 RMK CU1CI2 CC ASOCTD SLP161 SLP161
CYYC;2002-08-22 19:00;METAR CYYC 221900Z 36008KT 40SM FEW070 SCT300 22/07 A3001 RMK CU1CI1 TR CU SLP160
CYYC;2002-08-22 20:00;METAR CYYC 222000Z 01008KT 40SM FEW070 FEW300 24/07 A3000 RMK CU1CI0 TR CU
CYYC;2002-08-22 21:00;METAR CYYC 222100Z 33003KT 40SM FEW072 FEW160 SCT300 24/06 A3000 RMK CU1AC1CI0 TR AC SLP155 AC SLP155
CYYC;2002-08-22 22:00;METAR CYYC 222200Z 24003KT 40SM FEW078 FEW140 SCT300 24/06 A3000 RMK CU2ACC1CI0 TR ACC SLP155 TR ACC SLP155
CYYC;2002-08-23 01:00;METAR CYYC 230100Z 12002KT 40SM FEW074 FEW140 BKN270 24/05 A3000 RMK
CYYC;2002-08-23 02:00;METAR CYYC 230200Z 12005KT 40SM FEW110 FEW270 21/06 A3001 RMK AC0CI1 SLP163
CYYC;2002-08-23 03:00;METAR CYYC 230300Z 13004KT 40SM FEW270 20/06 A3003 RMK CI0 SLP163
CYYC;2002-08-23 04:00;METAR CYYC 230400Z 14005KT 15SM FEW160 FEW270 18/07 A3005 RMK AC1CI1 AC TR SLP171
CYYC;2002-08-23 05:00;METAR CYYC 230500Z 00000KT 15SM BKN270 18/07 A3006 RMK CI1 SLP174
CYYC;2002-08-23 06:00;METAR CYYC 230600Z 01005KT 15SM BKN270 13/07 A3008 RMK CI1 SLP184
CYYC;2002-08-23 07:00;METAR CYYC 230700Z 36004KT 15SM SCT270 13/06 A3009 RMK CI1 SLP187
CYYC;2002-08-23 08:00;METAR CYYC 230800Z 32005KT 15SM FEW140 BKN270 12/06 A3010 RMK AC1CI1 AC TR SLP190
CYYC;2002-08-23 09:00;METAR CYYC 230900Z 00000KT 15SM FEW140 BKN250 11/06 A3010 RMK AC2CI2 SLP189
CYYC;2002-08-23 10:00;METAR CYYC 231000Z 28004KT 15SM SCT140 BKN250 12/05 A3010 RMK AC2CI2
CYYC;2002-08-23 11:00;METAR CYYC 231100Z 32004KT 15SM FEW140 SCT250 11/05 A3012 RMK AC1CI1 SLP195
CYYC;2002-08-23 12:00;METAR CYYC 231200Z 34005KT 15SM FEW090 BKN250 11/05 A3013 RMK AC2CI2 SLP200
CYYC;2002-08-23 13:00;METAR CYYC 231300Z 32004KT 40SM FEW070 BKN088 BKN250 13/06 A3014 RMK AC1AC5CI1 SLP203 SLP203
CYYC;2002-08-23 14:00;METAR CYYC 231400Z 00000KT 40SM FEW090 SCT250 15/07 A3014 RMK AC2CI0 SLP204
CYYC;2002-08-23 15:00;METAR CYYC 231500Z 32007KT 40SM FEW090 FEW180 BKN250 19/07 A3015 RMK AC1AC0CI1 SLP204
CYYC;2002-08-23 16:00;METAR CYYC 231600Z 33005KT 30SM FEW060 FEW090 FEW180 BKN270 21/07 A3016 RMK CU0AC1AC1CI0 HAZY SLP206
CYYC;2002-08-23 17:00;METAR CYYC 231700Z 05005KT 40SM FEW067 FEW100 SCT180 BKN270 23/08 A3016 RMK AC0AC0AC0CI0 SLP207
CYYC;2002-08-23 18:00;METAR CYYC 231800Z 03005KT 40SM FEW090 BKN180 OVC270 25/08 A3016 RMK AC1AC0CI0 SLP207 SLP207
CYYC;2002-08-23 19:00;METAR CYYC 231900Z 02002KT 40SM FEW090 FEW180 BKN270 25/08 A3015 RMK AC0AC0CI0 SLP206 SLP206
CYYC;2002-08-23 20:00;METAR CYYC 232000Z 08005KT 30SM FEW090 FEW180 BKN270 26/08 A3013 RMK AC1AC0CI0 HAZY / TCU-W SLP199 HAZY / TCU-W SLP199
CYYC;2002-08-23 21:00;METAR CYYC 232100Z 20007KT 30SM FEW090 FEW180 BKN270 27/08 A3011 RMK AC1AC0CI0 TCU ASOCTD SW QUAD / HAZY SLP191 TCU ASOCTD SW QUAD / HAZY SLP191
CYYC;2002-08-23 22:00;METAR CYYC 232200Z 21006KT 30SM FEW090 FEW180 SCT270 27/07 A3010 RMK AC1AC0CI0 TCU ASOCTD W / HAZY SLP188 TCU ASOCTD W / HAZY SLP188
CYYC;2002-08-23 23:00;METAR CYYC 232300Z 20008KT 30SM FEW090 FEW160 SCT270 27/07 A3009 RMK AC1AC0CI0 HAZY SLP184 HAZY SLP184
CYYC;2002-08-24 00:00;METAR CYYC 240000Z 15003KT 30SM FEW090 FEW140 SCT270 27/08 A3008 RMK AC1AC0CI0 HAZY / TCU W SLP182 HAZY / TCU W SLP182
CYYC;2002-08-24 01:00;METAR CYYC 240100Z 19006KT 30SM FEW080 FEW120 FEW250 26/07 A3007 RMK AC1AC1CI1 HAZY / AC CLDS TR SLP179 HAZY / AC CLDS TR SLP179
CYYC;2002-08-24 02:00;METAR CYYC 240200Z 14009KT 30SM FEW120 FEW250 24/07 A3007 RMK AC0CI0 SLP178
CYYC;2002-08-24 03:00;METAR CYYC 240300Z 15006KT 20SM FEW120 FEW250 21/07 A3008 RMK AC0CI0 SLP176
CYYC;2002-08-24 04:00;METAR CYYC 240400Z 18006KT 15SM FEW120 SCT250 20/08 A3008 RMK AC1CI0
CYYC;2002-08-24 05:00;METAR CYYC 240500Z 19007KT 15SM FEW120 SCT250 18/08 A3009 RMK AC1CI0 SLP179
CYYC;2002-08-24 06:00;METAR CYYC 240600Z 18006KT 15SM FEW120 SCT250 18/08 A3009 RMK AC1CI0
CYYC;2002-08-24 07:00;METAR CYYC 240700Z 19004KT 15SM FEW120 SCT250 16/08 A3009 RMK AC1CI0
CYYC;2002-08-24 08:00;METAR CYYC 240800Z 18005KT 15SM FEW120 SCT250 16/07 A3009 RMK AC1CI0
CYYC;2002-08-24 09:00;METAR CYYC 240900Z 20005KT 15SM FEW120 SCT250 14/07 A3009 RMK AC1CI0
CYYC;2002-08-24 10:00;METAR CYYC 241000Z 34006KT 15SM FEW120 SCT250 11/05 A3008 RMK AC1CI0 SLP177
CYYC;2002-08-24 11:00;METAR CYYC 241100Z 31006KT 15SM FEW120 SCT250 10/06 A3008 RMK AC1CI0
CYYC;2002-08-24 12:00;METAR CYYC 241200Z 32006KT 15SM FEW120 SCT250 10/06 A3008 RMK AC1CI0 SLP183
CYYC;2002-08-24 13:00;METAR CYYC 241300Z 29003KT 30SM FEW120 SCT250 11/06 A3008 RMK AC1CI0
CYYC;2002-08-24 14:00;METAR CYYC 241400Z 00000KT 40SM FEW120 FEW250 13/07 A3009 RMK AC0CI0 AC+CI TR SLP185 SLP185
CYYC;2002-08-24 15:00;METAR CYYC 241500Z 00000KT 30SM FEW120 FEW270 15/08 A3011 RMK AC0CI0 HAZY / AC TR SLP192 SLP192
CYYC;2002-08-24 16:00;METAR CYYC 241600Z 00000KT 30SM FEW120 FEW270 21/09 A3011 RMK AC1CI0 HAZY SLP194
CYYC;2002-08-24 17:00;METAR CYYC 241700Z 13004KT 30SM FEW080 FEW140 FEW270 24/08 A3011 RMK AC1AC1CI1 ALL CLDS TR SLP192 ALL CLDS TR SLP192
CYYC;2002-08-24 18:00;METAR CYYC 241800Z 17008KT 30SM FEW080 FEW160 SCT270 25/06 A3011 RMK AC1AC0CI0 HAZY / TCU ASOCTD SLP185 HAZY / TCU ASOCTD SLP185
CYYC;2002-08-24 19:00;METAR CYYC 241900Z 12007KT 30SM FEW080TCU FEW160 FEW270 25/06 A3011 RMK TCU1AC1CI0 HAZY SLP185
CYYC;2002-08-24 20:00;METAR CYYC 242000Z 15010G16KT 30SM FEW080TCU FEW160 SCT270 26/07 A3010 RMK TCU1AC1CI1 HAZY SLP182
CYYC;2002-08-24 22:00;METAR CYYC 242200Z 11007KT 30SM FEW080CB FEW160 SCT250 27/07 A3008 RMK CB1AC2CI0 SLP176
CYYC;2002-08-24 23:00;METAR CYYC 242300Z 14009KT 30SM FEW080CB FEW160 SCT250 26/07 A3007 RMK CB1AC2CI1 HAZY SLP173 HAZY SLP173
CYYC;2002-08-25 00:00;METAR CYYC 250000Z 15007KT 30SM FEW080CB FEW160 FEW250 26/05 A3007 RMK CB1AC1CI0 HAZY SLP178 HAZY SLP178
CYYC;2002-08-25 01:00;METAR CYYC 250100Z 12004KT 20SM FEW080CB FEW160 FEW250 26/07 A3006 RMK CB1AC1CI0 HAZY SLP175 HAZY SLP175
CYYC;2002-08-25 02:00;METAR CYYC 250200Z 13004KT 20SM FEW080CB FEW160 FEW250 23/08 A3006 RMK CB1AC1CI0 HAZY SLP174 HAZY SLP174
CYYC;2002-08-25 03:00;METAR CYYC 250300Z 10002KT 20SM FEW080CB FEW160 FEW250 21/07 A3006 RMK CB1AC1CI0 SLP177 SLP177
CYYC;2002-08-25 04:00;METAR CYYC 250400Z 14006KT 15SM FEW160 FEW250 20/07 A3007 RMK AC1CI0 SLP179
CYYC;2002-08-25 05:00;METAR CYYC 250500Z 17006KT 15SM FEW160 FEW250 19/07 A3007 RMK AC1CI0 SLP180
CYYC;2002-08-25 06:00;METAR CYYC 250600Z 00000KT 15SM FEW160 FEW250 17/07 A3007 RMK AC1CI0 SLP174
CYYC;2002-08-25 07:00;METAR CYYC 250700Z 00000KT 15SM FEW160 FEW250 15/07 A3007 RMK AC1CI0
CYYC;2002-08-25 08:00;METAR CYYC 250800Z 36002KT 15SM FEW160 FEW250 13/07 A3006 RMK AC1CI0 SLP171
CYYC;2002-08-25 09:00;METAR CYYC 250900Z 02002KT 15SM FEW160 FEW250 12/06 A3006 RMK AC1CI0
CYYC;2002-08-25 10:00;METAR CYYC 251000Z 34004KT 15SM FEW089 FEW250 11/06 A3005 RMK AC1CI0 SLP168
CYYC;2002-08-25 11:00;METAR CYYC 251100Z 19002KT 15SM FEW089 FEW250 11/06 A3005 RMK AC2CI0 SLP169
CYYC;2002-08-25 12:00;METAR CYYC 251200Z 35003KT 15SM FEW089 FEW250 11/05 A3005 RMK AC1CI0
CYYC;2002-08-25 13:00;METAR CYYC 251300Z 34003KT 20SM FEW089 SCT250 11/05 A3005 RMK AC2CI0
CYYC;2002-08-25 14:00;METAR CYYC 251400Z 27002KT 30SM FEW087 BKN250 13/07 A3005 RMK AC2CI1
CYYC;2002-08-25 15:00;METAR CYYC 251500Z 00000KT 30SM FEW085 SCT250 17/08 A3005 RMK AC1CI1 AC FLOCCUS+ACC ASOCTD SLP170
CYYC;2002-08-25 16:00;METAR CYYC 251600Z 00000KT 30SM FEW085 BKN250 20/09 A3005 RMK AC1CS1 AC FLOCCUS ASOCTD SLP168 ASOCTD SLP168
CYYC;2002-08-25 17:00;METAR CYYC 251700Z 18002KT 30SM FEW085 FEW180 BKN250 22/08 A3004 RMK AC1AC1CS0 SLP167 SLP167
CYYC;2002-08-25 18:00;METAR CYYC 251800Z 14005KT 30SM FEW085TCU SCT180 BKN250 24/07 A3004 RMK TCU1AC3CC2 AC FLOCCUS SLP163
CYYC;2002-08-25 19:00;METAR CYYC 251900Z 16007KT 20SM FEW085CB SCT160 BKN250 25/08 A3003 RMK CB1AC3CI2 AC FLOCCUS / HAZY SLP158 AC FLOCCUS / HAZY SLP158
CYYC;2002-08-25 20:00;METAR CYYC 252000Z 17009KT 20SM FEW085CB FEW160 OVC250 27/09 A3003 RMK CB1AC1CI1 HAZE SLP158 HAZE SLP158
CYYC;2002-08-25 21:00;METAR CYYC 252100Z 18011KT 20SM FEW080CB FEW120 FEW180 OVC250 26/06 A3002 RMK CB1AC0AC1CI1 HAZE SLP157 CB1AC0AC1CI1 HAZE SLP157
CYYC;2002-08-25 22:00;METAR CYYC 252200Z 18011KT 20SM FEW085CB OVC250 26/07 A3000 RMK CB2CI1 HAZE SLP153
CYYC;2002-08-25 23:00;METAR CYYC 252300Z 25010KT 20SM FEW080TCU SCT160 OVC250 26/06 A3000 RMK TCU2AC2CI0 HAZE SLP153
CYYC;2002-08-26 00:00;METAR CYYC 260000Z 23006KT 20SM FEW080TCU FEW160 OVC250 25/07 A3000 RMK TCU1AC1CI1 HAZE SLP156
CYYC;2002-08-26 01:00;METAR CYYC 260100Z 23008KT 20SM FEW085 BKN250 24/07 A3001 RMK AC2CI2 HAZE SLP158
CYYC;2002-08-26 02:00;METAR CYYC 260200Z 24005KT 20SM FEW085 BKN250 21/08 A3001 RMK AC2CI2
CYYC;2002-08-26 03:00;METAR CYYC 260300Z 30003KT 15SM FEW085 BKN250 20/07 A3001 RMK AC2CI2
CYYC;2002-08-26 04:00;METAR CYYC 260400Z 34004KT 15SM FEW085 BKN250 17/06 A3003 RMK AC2CI2 SLP163
CYYC;2002-08-26 05:00;METAR CYYC 260500Z 32006KT 15SM FEW085 BKN250 17/06 A3004 RMK AC1CI1 SLP167
CYYC;2002-08-26 06:00;METAR CYYC 260600Z 32011KT 15SM FEW085 BKN250 16/07 A3005 RMK AC1CI1 SLP168
CYYC;2002-08-26 07:00;METAR CYYC 260700Z 34013KT 15SM FEW085 BKN250 16/08 A3007 RMK AC1CI1 SLP173
CYYC;2002-08-26 08:00;METAR CYYC 260800Z 34011KT 15SM FEW085 BKN250 14/07 A3009 RMK AC1CI1 SLP179
CYYC;2002-08-26 09:00;METAR CYYC 260900Z 34011KT 15SM FEW085 BKN250 14/07 A3009 RMK AC1CI0 SLP182
CYYC;2002-08-26 10:00;METAR CYYC 261000Z 32011KT 15SM FEW085 BKN250 14/07 A3010 RMK AC1CI0 SLP183
CYYC;2002-08-26 11:00;METAR CYYC 261100Z 32009KT 15SM FEW085 BKN250 13/07 A3009 RMK AC1CI0
CYYC;2002-08-26 12:00;METAR CYYC 261200Z 32008KT 15SM FEW085 BKN250 12/06 A3010 RMK AC1CI0 SLP188
CYYC;2002-08-26 13:00;METAR CYYC 261300Z 33009KT 20SM SCT095 BKN250 12/06 A3012 RMK AC3CI0 SLP195
CYYC;2002-08-26 14:00;METAR CYYC 261400Z 32007KT 40SM FEW040 BKN067 OVC240 15/07 A3014 RMK CU1AC6CI2 CU TR SLP201 TR SLP201
CYYC;2002-08-26 15:00;METAR CYYC 261500Z 32010KT 40SM FEW040 SCT067 BKN081 OVC250 18/08 A3014 RMK CU1AC3AC2CI1 CU TR SLP203
CYYC;2002-08-26 16:00;METAR CYYC 261600Z 33012G19KT 40SM FEW040 SCT070 BKN250 19/08 A3014 RMK CU1AC3CI1 SLP201 SLP201
CYYC;2002-08-26 17:00;METAR CYYC 261700Z 32015KT 40SM FEW040 SCT090 BKN250 21/08 A3014 RMK CU1AC2CI1 SLP203 SLP203
CYYC;2002-08-26 18:00;METAR CYYC 261800Z 33016G21KT 40SM SCT044 BKN090 BKN250 22/08 A3014 RMK CU3AC2CI1 SLP203
CYYC;2002-08-26 19:00;METAR CYYC 261900Z 35015G21KT 40SM SCT044 BKN098 BKN250 22/08 A3014 RMK SC3AC2CI0 SLP202 SLP202
CYYC;2002-08-26 20:00;METAR CYYC 262000Z 36015G22KT 40SM SCT053 BKN093 BKN250 21/07 A3014 RMK
CYYC;2002-08-26 21:00;METAR CYYC 262100Z 35014G21KT 40SM SCT053 BKN080 BKN100 23/07 A3014 RMK CU3AC2AC2 SLP203
CYYC;2002-08-26 22:00;METAR CYYC 262200Z 34014G21KT 40SM SCT055 BKN099 22/06 A3014 RMK CU3AC3
CYYC;2002-08-26 23:00;METAR CYYC 262300Z 35016KT 40SM SCT055 BKN098 24/07 A3014 RMK CU3AC2
CYYC;2002-08-27 01:00;METAR CYYC 270100Z 35010G15KT 40SM FEW060 SCT094 BKN120 OVC250 21/07 A3015 RMK CU1AC2AC2CI1 SLP212 CU1AC2AC2CI1 SLP212
CYYC;2002-08-27 02:00;METAR CYYC 270200Z 35008KT 40SM FEW068 SCT130 BKN270 OVC300 19/07 A3016 RMK CU2AC2CI0CC0 TCU ASOCTD VIRGA E SLP214
CYYC;2002-08-27 03:00;METAR CYYC 270300Z 35007KT 40SM FEW068 BKN120 BKN270 17/07 A3018 RMK CU2AC3CI0 SLP218 SLP218 LTNG NE-E TR CI SLP222
CYYC;2002-08-27 05:00;METAR CYYC 270500Z 32006KT 15SM SCT100 SCT250 14/07 A3021 RMK AC3CI0 SLP227
CYYC;2002-08-27 06:00;METAR CYYC 270600Z 31008KT 15SM BKN100 14/07 A3022 RMK AC4 SLP231
CYYC;2002-08-27 07:00;METAR CYYC 270700Z 32007KT 15SM BKN130 13/06 A3022 RMK AC5 SLP232
CYYC;2002-08-27 08:00;METAR CYYC 270800Z 32007KT 15SM SCT140 12/06 A3023 RMK AC3 SLP234
CYYC;2002-08-27 09:00;METAR CYYC 270900Z 32007KT 15SM SCT140 12/05 A3023 RMK AC2 SLP237
CYYC;2002-08-27 10:00;METAR CYYC 271000Z 29003KT 15SM FEW140 11/05 A3024 RMK AC2 SLP238
CYYC;2002-08-27 11:00;METAR CYYC 271100Z 34006KT 15SM FEW140 11/05 A3025 RMK AC1 SLP242
CYYC;2002-08-27 12:00;METAR CYYC 271200Z 35004KT 15SM FEW150 10/04 A3026 RMK AC2 SLP250
CYYC;2002-08-27 13:00;METAR CYYC 271300Z 32012KT 40SM FEW060 FEW130 FEW250 12/04 A3027 RMK CU1AC2CI1 TR CI SLP256 CI SLP256
CYYC;2002-08-27 14:00;METAR CYYC 271400Z 32012KT 40SM FEW060 FEW140 14/04 A3028 RMK SC1AC1 SLP258
CYYC;2002-08-27 16:00;METAR CYYC 271600Z 33011KT 40SM FEW070 FEW140 FEW250 20/06 A3028 RMK CU1AC1CI1 ALL CLDS TR SLP256 ALL CLDS TR SLP256
CYYC;2002-08-27 17:00;METAR CYYC 271700Z 35010KT 40SM FEW070 FEW140 FEW250 21/07 A3028 RMK CU1AC1CI1 CU+CI TR SLP255 CU+CI TR SLP255
CYYC;2002-08-27 18:00;METAR CYYC 271800Z 02009KT 40SM FEW070 23/07 A3029 RMK CU1 SLP253
CYYC;2002-08-27 19:00;METAR CYYC 271900Z 05004KT 40SM SCT062 24/07 A3028 RMK CU3 SLP252
CYYC;2002-08-27 20:00;METAR CYYC 272000Z 35004KT 40SM SCT062 SCT075 23/06 A3027 RMK CU3AC1 AC TR SLP249
CYYC;2002-08-27 21:00;METAR CYYC 272100Z 05009KT 40SM SCT064 25/06 A3027 RMK CU3 SLP248
CYYC;2002-08-27 22:00;METAR CYYC 272200Z 03007KT 40SM SCT071 25/05 A3026 RMK CU3 SLP245
CYYC;2002-08-27 23:00;METAR CYYC 272300Z 04005KT 40SM SCT076 24/05 A3025 RMK CU3 SLP241
CYYC;2002-08-28 00:00;METAR CYYC 280000Z 00000KT 40SM FEW070 24/04 A3023 RMK CU2 SLP238
CYYC;2002-08-28 01:00;METAR CYYC 280100Z 00000KT 40SM FEW070 FEW140 FEW250 25/04 A3023 RMK CU1AC1CI0 SLP236 SLP236
CYYC;2002-08-28 02:00;METAR CYYC 280200Z 11006KT 40SM FEW070 FEW140 FEW270 21/06 A3022 RMK CU1AC1CI0 TR CU TR AC HAZY SLP233 CU TR AC HAZY SLP233
CYYC;2002-08-28 03:00;METAR CYYC 280300Z 13006KT 40SM FEW270 19/05 A3023 RMK CI1 SLP233
CYYC;2002-08-28 04:00;METAR CYYC 280400Z 14006KT 15SM FEW140 18/05 A3023 RMK AC0 SLP235
CYYC;2002-08-28 05:00;METAR CYYC 280500Z 18005KT 15SM FEW160 SCT270 16/05 A3024 RMK AC1CI1 TR AC
CYYC;2002-08-28 06:00;METAR CYYC 280600Z 20003KT 15SM BKN300 15/05 A3024 RMK CI1 SLP233
CYYC;2002-08-28 07:00;METAR CYYC 280700Z 16003KT 15SM SKC 15/06 A3024 RMK SLP234
CYYC;2002-08-28 08:00;METAR CYYC 280800Z 19006KT 15SM SKC 14/06 A3023 RMK SLP230
CYYC;2002-08-28 09:00;METAR CYYC 280900Z 18005KT 15SM FEW300 13/06 A3023 RMK CI0 SLP232
CYYC;2002-08-28 10:00;METAR CYYC 281000Z 19004KT 15SM SKC 13/06 A3022 RMK SLP229
CYYC;2002-08-28 11:00;METAR CYYC 281100Z 20005KT 15SM SKC 11/05 A3021 RMK SLP226
CYYC;2002-08-28 12:00;METAR CYYC 281200Z 20006KT 15SM FEW270 10/04 A3019 RMK CI1 TR CI SLP225
CYYC;2002-08-28 13:00;METAR CYYC 281300Z 24004KT 40SM FEW270 09/04 A3019 RMK CI0 HAZY SLP224
CYYC;2002-08-28 14:00;METAR CYYC 281400Z 00000KT 40SM FEW270 11/05 A3019 RMK CI0 SLP223
CYYC;2002-08-28 15:00;METAR CYYC 281500Z 20006KT 40SM FEW270 15/06 A3018 RMK CI0 SLP219
CYYC;2002-08-28 16:00;METAR CYYC 281600Z 19006KT 40SM FEW270 18/06 A3016 RMK CI0 SLP215
CYYC;2002-08-28 17:00;METAR CYYC 281700Z 18009KT 40SM FEW270 21/07 A3016 RMK CI0 SLP214
CYYC;2002-08-28 19:00;METAR CYYC 281900Z 16012G17KT 40SM FEW270 25/08 A3012 RMK CI0 SLP192
CYYC;2002-08-28 20:00;METAR CYYC 282000Z 18016G21KT 40SM FEW070 FEW270 26/06 A3010 RMK CU1CI0 CU TR SLP187 SLP187
CYYC;2002-08-28 21:00;METAR CYYC 282100Z 19014G21KT 40SM FEW075 FEW270 27/06 A3008 RMK CU1CI0 CU TR SLP178 SLP178
CYYC;2002-08-28 23:00;METAR CYYC 282300Z 17017KT 40SM FEW075 FEW270 26/05 A3004 RMK CU1CI0 CU TR SLP165
CYYC;2002-08-29 00:00;METAR CYYC 290000Z 18018KT 40SM FEW270 25/06 A3002 RMK CI0 SLP163
CYYC;2002-08-29 01:00;METAR CYYC 290100Z 17013KT 40SM FEW300 24/07 A3001 RMK CI0 SLP161
CYYC;2002-08-29 02:00;METAR CYYC 290200Z 16015KT 40SM FEW300 22/07 A3000 RMK CI0 HAZY SLP157
CYYC;2002-08-29 03:00;METAR CYYC 290300Z 15012KT 40SM FEW300 20/08 A3000 RMK CI0 HAZY SLP154
CYYC;2002-08-29 04:00;METAR CYYC 290400Z 15011KT 15SM FEW300 18/07 A2999 RMK CI1 TR CI SLP151
CYYC;2002-08-29 05:00;METAR CYYC 290500Z 16009KT 15SM SKC 17/07 A2997 RMK SLP147
CYYC;2002-08-29 06:00;METAR CYYC 290600Z 15009KT 15SM SKC 16/08 A2996 RMK SLP136
CYYC;2002-08-29 07:00;METAR CYYC 290700Z 16010KT 15SM SKC 16/08 A2995 RMK SLP133
CYYC;2002-08-29 08:00;METAR CYYC 290800Z 17008KT 15SM SKC 15/08 A2994 RMK SLP129
CYYC;2002-08-29 09:00;METAR CYYC 290900Z 18007KT 15SM SKC 14/08 A2992 RMK SLP122
CYYC;2002-08-29 10:00;METAR CYYC 291000Z 15005KT 15SM SKC 14/08 A2991 RMK SLP118
CYYC;2002-08-29 11:00;METAR CYYC 291100Z 16006KT 15SM SKC 12/07 A2990 RMK SLP115
CYYC;2002-08-29 12:00;METAR CYYC 291200Z 19004KT 15SM SKC 11/07 A2988 RMK SLP114
CYYC;2002-08-29 13:00;METAR CYYC 291300Z 23002KT 40SM FEW150 11/07 A2987 RMK AC1 TR AC SLP111
CYYC;2002-08-29 14:00;METAR CYYC 291400Z 00000KT 40SM FEW180 11/07 A2986 RMK AC1 AC TR SLP108
CYYC;2002-08-29 15:00;METAR CYYC 291500Z 20003KT 40SM FEW180 14/08 A2985 RMK AC1 AC TR SLP107
CYYC;2002-08-29 16:00;METAR CYYC 291600Z 00000KT 30SM FEW180 18/08 A2985 RMK AC1 HAZY SLP104
CYYC;2002-08-29 17:00;METAR CYYC 291700Z 19003KT 40SM FEW090 FEW180 21/08 A2983 RMK AC1AC1 ALL AC TR SLP099 SLP099
CYYC;2002-08-29 18:00;METAR CYYC 291800Z 20004KT 40SM FEW075 FEW180 24/06 A2983 RMK CU1AC1 ALL CLDS TR SLP089 SLP089
CYYC;2002-08-29 19:00;METAR CYYC 291900Z 20005KT 40SM FEW080 FEW180 25/06 A2981 RMK CU1AC1 AC TR SLP085
CYYC;2002-08-29 20:00;METAR CYYC 292000Z 09002KT 30SM FEW080 FEW180 26/06 A2980 RMK CU1AC1 TCU DIST SW / AC TR / HAZY SLP082 / AC TR / HAZY SLP082
CYYC;2002-08-29 21:00;METAR CYYC 292100Z 16003KT 30SM FEW080TCU FEW180 27/05 A2979 RMK TCU2AC1 AC TR / HAZY SLP076 HAZY SLP076
CYYC;2002-08-29 22:00;METAR CYYC 292200Z 07007KT 30SM FEW085CB FEW180 28/06 A2979 RMK CB2AC1 SH DIST SW / HAZY SLP074 / HAZY SLP074
CYYC;2002-08-29 23:00;METAR CYYC 292300Z 12004KT 30SM FEW085CB FEW180 SCT250 27/06 A2978 RMK CB2AC1CI0 HAZY SLP072 HAZY SLP072
CYYC;2002-08-30 00:00;METAR CYYC 300000Z 18002KT 30SM FEW085CB FEW180 SCT250 26/05 A2977 RMK CB1AC2CI1 HAZY SLP073 HAZY SLP073
CYYC;2002-08-30 01:00;METAR CYYC 300100Z 11002KT 30SM FEW085 FEW180 BKN250 26/06 A2976 RMK AC1AC2CI1 HAZY SLP071 HAZY SLP071
CYYC;2002-08-30 02:00;METAR CYYC 300200Z 26003KT 40SM FEW060CB FEW150 SCT250 24/05 A2977 RMK CB1AC1CI1 CB DSNT S CC ASOCTD HAZY SLP074 CB DSNT S CC ASOCTD HAZY SLP074
CYYC;2002-08-30 03:00;METAR CYYC 300300Z 34009KT 20SM FEW060 FEW150 SCT250 20/07 A2978 RMK CU1AC1CI1 SLP082 SLP082
CYYC;2002-08-30 04:00;METAR CYYC 300400Z 34006KT 15SM FEW150 16/07 A2980 RMK AC1 SLP086
CYYC;2002-08-30 05:00;METAR CYYC 300500Z 32009KT 15SM SKC 16/08 A2981 RMK SLP089
CYYC;2002-08-30 06:00;METAR CYYC 300600Z 33005KT 15SM FEW170 16/08 A2982 RMK AC1 SLP089
CYYC;2002-08-30 07:00;METAR CYYC 300700Z 34010KT 15SM FEW160 FEW270 14/08 A2982 RMK AC2CI0 SLP089
CYYC;2002-08-30 08:00;METAR CYYC 300800Z 34015G20KT 15SM FEW060CB SCT100 17/09 A2985 RMK CB2AC2 LTGICCG NW-N SLP099 NW-N SLP099
CYYC;2002-08-30 09:00;METAR CYYC 300900Z 34014G20KT 15SM FEW060 BKN110 15/08 A2987 RMK CU2AC1 SLP103
CYYC;2002-08-30 10:00;METAR CYYC 301000Z 34013KT 15SM FEW050 FEW110 14/08 A2989 RMK CU1AC2 TR CU SLP109
CYYC;2002-08-30 11:00;METAR CYYC 301100Z 33011KT 15SM FEW110 13/08 A2990 RMK AC1 SLP110
CYYC;2002-08-30 12:00;METAR CYYC 301200Z 32009KT 15SM FEW110 12/07 A2992 RMK AC2 SLP123
CYYC;2002-08-30 13:00;METAR CYYC 301300Z 33009KT 30SM FEW060CB FEW110 FEW250 12/07 A2994 RMK CB1AC2CI1 TR CI SLP129 TR CI SLP129
CYYC;2002-08-30 14:00;METAR CYYC 301400Z 33010KT 40SM FEW080 SCT096 BKN140 BKN250 13/07 A2995 RMK AC1AC3AC2CI1 ACC ASOCTD E/VIRGA E/ CI TR SLP132
CYYC;2002-08-30 15:00;METAR CYYC 301500Z 34012KT 40SM BKN092 BKN250 15/08 A2997 RMK AC6CI1 SLP148
CYYC;2002-08-30 16:00;METAR CYYC 301600Z 33014KT 40SM FEW016 SCT094 BKN250 16/08 A2997 RMK CU1AC3CI0 SLP148
CYYC;2002-08-30 17:00;METAR CYYC 301700Z 35015KT 40SM FEW030 SCT120 BKN270 18/08 A2997 RMK CU1AC2CI0 SLP146 SLP146
CYYC;2002-08-30 18:00;METAR CYYC 301800Z 32011G16KT 40SM SCT029 BKN110 BKN250 19/09 A2997 RMK CU3AC2CI1 SLP148
CYYC;2002-08-30 19:00;METAR CYYC 301900Z 34011KT 30SM VCSH SCT029 BKN091 OVC250 19/08 A2997 RMK CU3AC3CI1 SHWRS ALQDS SLP148
CYYC;2002-08-30 20:00;METAR CYYC 302000Z 01007KT 30SM FEW030 FEW059 BKN095 OVC250 19/08 A2998 RMK CU2SC1AC3CI1 SLP149
CYYC;2002-08-30 21:00;METAR CYYC 302100Z 01009KT 40SM FEW030 FEW080 BKN140 BKN250 20/08 A2996 RMK CU2AC1AC2CI0 SLP142 RMK CU2SC2AC2CI1 SHWRS S-W/ TCU EMBDD SLP142
CYYC;2002-08-30 23:00;METAR CYYC 302300Z 02010KT 15SM VCSH FEW030 BKN043 OVC096 19/07 A2997 RMK CU1SC4AC2 SHWRS ALQDS/ TCU EMBDD SLP145
CYYC;2002-08-31 00:00;METAR CYYC 310000Z 34016G21KT 6SM -TSRA FEW028 OVC040CB 14/09 A3002 RMK SC2CB6 PRESRR SLP174 PRESRR SLP174
CYYC;2002-08-31 01:00;METAR CYYC 310100Z 30006KT 4SM -RA OVC025 14/10 A3003 RETS RMK SC8 SLP179
CYYC;2002-08-31 02:00;METAR CYYC 310200Z 20003KT 4SM -RA OVC018 13/10 A3003 RMK SC8 SLP178
CYYC;2002-08-31 03:00;METAR CYYC 310300Z 24004KT 10SM BKN030 OVC096 13/10 A3004 RMK SC6AC2 SLP178
CYYC;2002-08-31 04:00;METAR CYYC 310400Z 27006KT 15SM BKN031 OVC085 13/09 A3005 RMK SC6AC2 SLP181
CYYC;2002-08-31 05:00;METAR CYYC 310500Z 29005KT 15SM FEW031 OVC085 13/09 A3004 RMK SC1AC7 SLP179
CYYC;2002-08-31 06:00;METAR CYYC 310600Z 29005KT 15SM FEW033 OVC090 13/08 A3004 RMK SC1AC7 SLP175
CYYC;2002-08-31 07:00;METAR CYYC 310700Z 33004KT 15SM FEW033 OVC090 11/07 A3004 RMK SC1AC7
CYYC;2002-08-31 08:00;METAR CYYC 310800Z 00000KT 15SM FEW033 OVC090 11/07 A3003 RMK SC1AC7 SLP172
CYYC;2002-08-31 09:00;METAR CYYC 310900Z 35002KT 15SM FEW033 OVC090 10/07 A3003 RMK SC1AC7 SLP174
CYYC;2002-08-31 10:00;METAR CYYC 311000Z 31004KT 15SM BKN150 09/05 A3005 RMK AC3 SLP178
CYYC;2002-08-31 11:00;METAR CYYC 311100Z 00000KT 15SM BKN150 09/05 A3005 RMK AC4 SLP180
CYYC;2002-08-31 12:00;METAR CYYC 311200Z 24002KT 15SM SCT150 09/06 A3005 RMK AC2 SLP189
CYYC;2002-08-31 13:00;METAR CYYC 311300Z 00000KT 15SM FEW150 08/04 A3005 RMK AC1 SLP190
CYYC;2002-08-31 14:00;METAR CYYC 311400Z 02002KT 40SM FEW050 FEW120 FEW270 09/05 A3005 RMK SC1AC1CI0 SC TR SLP191 TR SLP191
CYYC;2002-08-31 15:00;METAR CYYC 311500Z 00000KT 40SM FEW050 FEW100 12/06 A3006 RMK SC1AC1 BOTH CLDS TR SLP190 SLP190
CYYC;2002-08-31 16:00;METAR CYYC 311600Z 19002KT 40SM FEW050 FEW100 14/08 A3006 RMK SC1AC1 BOTH CLDS TR SLP189 SLP189
CYYC;2002-08-31 17:00;METAR CYYC 311700Z 17004KT 40SM FEW045 FEW100 16/07 A3005 RMK CF1AC1 BOTH CLDS TR SLP187 SLP187
CYYC;2002-08-31 18:00;METAR CYYC 311800Z 19006KT 40SM FEW050 FEW270 17/08 A3004 RMK CU1CI1 CI TR
CYYC;2002-08-31 19:00;METAR CYYC 311900Z 18009KT 40SM FEW050 FEW270 19/09 A3002 RMK CU1CI0 SLP170
CYYC;2002-08-31 20:00;METAR CYYC 312000Z 15005KT 40SM FEW050 FEW270 20/08 A2999 RMK CU2CI1 CI TR SLP161
CYYC;2002-08-31 21:00;METAR CYYC 312100Z 16005KT 40SM FEW055 SCT270 21/07 A2996 RMK CU2CI0 SLP149
CYYC;2002-08-31 22:00;METAR CYYC 312200Z 18008KT 40SM SCT055 SCT094 BKN250 21/07 A2994 RMK CU3AC1CI0 SLP143 SLP143
CYYC;2002-08-31 23:00;METAR CYYC 312300Z 16006KT 40SM FEW050 SCT140 BKN250 21/07 A2992 RMK CU1AC2CI2 SLP137 SLP137
CYYC;2002-09-01 00:00;METAR CYYC 010000Z 20006KT 40SM FEW050 SCT140 OVC250 22/07 A2991 RMK CU1AC2CI2 ACSL W SLP131 ACSL W SLP131
CYYC;2002-09-01 01:00;METAR CYYC 010100Z 25009KT 40SM FEW050 SCT140 BKN250 21/04 A2990 RMK CU1AC2CI2 ACSL S-W SLP128 ACSL S-W SLP128
CYYC;2002-09-01 02:00;METAR CYYC 010200Z 24009KT 40SM FEW050 SCT140 BKN250 20/04 A2988 RMK CU1AC2CI2 SLP123 SLP123
CYYC;2002-09-01 03:00;METAR CYYC 010300Z 23007KT 15SM FEW050 SCT140 BKN250 18/04 A2987 RMK CU1AC2CI2 SLP119 SLP119
CYYC;2002-09-01 04:00;METAR CYYC 010400Z 22007KT 15SM FEW050 SCT140 BKN250 18/05 A2986 RMK CU1AC2CI2 SLP116 SLP116
CYYC;2002-09-01 05:00;METAR CYYC 010500Z 21004KT 15SM BKN083 18/05 A2985 RMK AC5 SLP112
CYYC;2002-09-01 06:00;METAR CYYC 010600Z 13006KT 15SM -SHRA BKN053 16/08 A2983 RMK SC5 SLP099
CYYC;2002-09-01 07:00;METAR CYYC 010700Z 19006KT 15SM BKN053 BKN070 16/07 A2983 RMK SC5AC1 SLP099
CYYC;2002-09-01 08:00;METAR CYYC 010800Z 18004KT 15SM BKN053 BKN070 16/07 A2981 RMK SC5AC1 SLP094
CYYC;2002-09-01 09:00;METAR CYYC 010900Z 21007KT 15SM BKN053 BKN070 15/08 A2979 RMK SC5AC1 SLP083
CYYC;2002-09-01 10:00;METAR CYYC 011000Z 36008KT 15SM BKN053 BKN070 15/06 A2977 RMK SC5AC1 SLP078
CYYC;2002-09-01 11:00;METAR CYYC 011100Z 36007KT 15SM BKN078 13/07 A2976 RMK AC6 SLP074
CYYC;2002-09-01 12:00;METAR CYYC 011200Z 34010KT 15SM BKN078 13/07 A2974 RMK AC6 SLP066
CYYC;2002-09-01 13:00;METAR CYYC 011300Z 35012KT 15SM -SHRA OVC063 12/07 A2975 RMK SC8 SLP071
CYYC;2002-09-01 14:00;METAR CYYC 011400Z 35012KT 8SM -SHRA BKN029 OVC060 11/07 A2979 RMK SC6SC2 TCU EMBDD SLP081 EMBDD SLP081
CYYC;2002-09-01 15:00;METAR CYYC 011500Z 02014KT 15SM -SHRA FEW007 BKN014 OVC055 11/07 A2978 RERA RMK SF2SC3SC2 TCU EMBDD SLP087 SF2SC4AC2 TCU EMBDD SLP088
CYYC;2002-09-01 17:00;METAR CYYC 011700Z 35008KT 20SM -SHRA SCT009 BKN026 OVC056 11/07 A2979 RMK SF3SC3SC2 TCU EMBDD SLP090
CYYC;2002-09-01 18:00;METAR CYYC 011800Z 03005KT 15SM -RA FEW009 SCT013 OVC042 11/07 A2980
CYYC;2002-09-01 19:00;METAR CYYC 011900Z 32009KT 12SM -RA SCT013 OVC035 11/07 A2982 RMK SC4SC4 SLP103 SC1SC4SC3 PRESRR SLP121
CYYC;2002-09-01 21:00;METAR CYYC 012100Z 32014KT 15SM -SHRA BKN031 OVC065 09/04 A2989 RMK SC6SC2 SLP135
CYYC;2002-09-01 22:00;METAR CYYC 012200Z 33011KT 20SM FEW040 SCT081 BKN250 14/05 A2987 RMK SC1AC2CI0 SLP128 SLP128
CYYC;2002-09-01 23:00;METAR CYYC 012300Z 26010KT 30SM FEW040 SCT095 BKN250 14/05 A2989 RMK SC2AC2CI0 SLP134 SLP134
CYYC;2002-09-02 00:00;METAR CYYC 020000Z 26009KT 40SM FEW050 SCT100 15/05 A2989 RMK SC2AC1 SHWRS DSNT N SLP130 SLP130
CYYC;2002-09-02 01:00;METAR CYYC 020100Z 32008KT 20SM VCSH FEW055 SCT071 BKN100 15/04 A2991 RMK SC2AC2AC1 SHWRS ALQDS SLP136
CYYC;2002-09-02 02:00;METAR CYYC 020200Z 06003KT 20SM FEW054CB BKN071 10/03 A2993 RMK CB1AC2 SLP141
CYYC;2002-09-02 03:00;METAR CYYC 020300Z 01002KT 15SM FEW054CB FEW071 09/02 A2995 RMK CB1AC0 SLP159
CYYC;2002-09-02 04:00;METAR CYYC 020400Z 00000KT 15SM FEW054 FEW071 09/02 A2997 RMK SC1AC0 SLP165
CYYC;2002-09-02 05:00;METAR CYYC 020500Z 22006KT 15SM FEW054 FEW071 07/02 A2998 RMK SC1AC0 SLP169
CYYC;2002-09-02 06:00;METAR CYYC 020600Z 24003KT 15SM FEW071 08/03 A2999 RMK AC0 SLP174
CYYC;2002-09-02 07:00;METAR CYYC 020700Z 21006KT 15SM FEW071 06/01 A2999 RMK AC0 SLP174
CYYC;2002-09-02 08:00;METAR CYYC 020800Z 22006KT 15SM FEW071 06/01 A2998 RMK AC0 SLP173
CYYC;2002-09-02 10:00;METAR CYYC 021000Z 19003KT 15SM FEW071 06/01 A2998 RMK AC0 SLP173
CYYC;2002-09-02 11:00;METAR CYYC 021100Z 00000KT 15SM FEW071 04/M01 A2997 RMK AC0 SLP171
CYYC;2002-09-02 12:00;METAR CYYC 021200Z 30005KT 15SM FEW071 04/M02 A2997 RMK AC0 SLP170
CYYC;2002-09-02 14:00;METAR CYYC 021400Z 21002KT 40SM FEW080 SCT120 BKN250 06/01 A2996 RMK AC2AC1CI1 SLP165
CYYC;2002-09-02 15:00;METAR CYYC 021500Z 21004KT 40SM FEW070 FEW120 BKN270 08/01 A2995 RMK CU1AC2CI2 TR CU SLP163 CU SLP163
CYYC;2002-09-02 16:00;METAR CYYC 021600Z 19004KT 40SM FEW070 BKN110 BKN270 12/01 A2993 RMK CU1AC4CI1 TR CU CC ASOCTD SLP158 CU CC ASOCTD SLP158
CYYC;2002-09-02 17:00;METAR CYYC 021700Z 17003KT 40SM FEW070 FEW110 BKN270 13/01 A2990 RMK CU1AC2CS3 TR CU CC ASOCTD SLP150 CU CC ASOCTD SLP150
CYYC;2002-09-02 18:00;METAR CYYC 021800Z 16008KT 40SM FEW120 SCT250 BKN280 16/01 A2988 RMK AC2CI0CS2 CC ASOCTD SLP130 ASOCTD SLP130
CYYC;2002-09-02 19:00;METAR CYYC 021900Z 19007KT 40SM FEW100 BKN250 BKN280 17/03 A2985 RMK AC2CI1CS2 SLP120 SLP120
CYYC;2002-09-02 20:00;METAR CYYC 022000Z 19009KT 40SM FEW070 FEW100 SCT250 BKN280 18/03 A2983 RMK CU1AC1CI0CS2 CC ASOCTD SLP114
CYYC;2002-09-02 21:00;METAR CYYC 022100Z 16005KT 40SM FEW070 FEW110 BKN250 BKN280 20/03 A2980 RMK CU2AC1CI0CS2 TR AC SLP099
CYYC;2002-09-02 22:00;METAR CYYC 022200Z 14004KT 40SM FEW072 SCT250 BKN280 21/03 A2977 RMK CU2CC1CS2 SLP091 SLP091
CYYC;2002-09-02 23:00;METAR CYYC 022300Z 22006KT 40SM FEW072 FEW120 BKN270 BKN300 21/02 A2978 RMK CU2AC1CS2CC0 TR AC SLP092
CYYC;2002-09-03 00:00;METAR CYYC 030000Z 27006KT 40SM FEW070 FEW095 BKN270 BKN300 20/04 A2977 RMK CU1AC2CS3CI0 SLP092
CYYC;2002-09-03 01:00;METAR CYYC 030100Z 27008KT 40SM FEW070 FEW095 SCT270 BKN300 19/04 A2976 RMK CU1AC1CS2CC1 TR AC SLP090
CYYC;2002-09-03 02:00;METAR CYYC 030200Z 26008KT 40SM FEW075 FEW120 SCT250 17/04 A2976 RMK AC1AC2CI0 SLP089 SLP089
CYYC;2002-09-03 03:00;METAR CYYC 030300Z 27005KT 15SM FEW060 FEW080 FEW250 15/03 A2977 RMK SC1AC1CI0 FEW ACC TOPS W/ SC TR SLP093 FEW ACC TOPS W/ SC TR SLP093
CYYC;2002-09-03 04:00;METAR CYYC 030400Z 04004KT 15SM FEW080 12/04 A2977 RMK AC1 AC TR SLP093
CYYC;2002-09-03 05:00;METAR CYYC 030500Z 05004KT 15SM SKC 10/04 A2975 RMK SLP088
CYYC;2002-09-03 06:00;METAR CYYC 030600Z 02002KT 15SM FEW160 10/03 A2975 RMK AC1 AC TR SLP083
CYYC;2002-09-03 07:00;METAR CYYC 030700Z 34004KT 15SM FEW120 10/04 A2974 RMK AC1 AC TR SLP080
CYYC;2002-09-03 08:00;METAR CYYC 030800Z 33005KT 15SM SCT079 10/04 A2973 RMK AC3 SLP078
CYYC;2002-09-03 09:00;METAR CYYC 030900Z 34003KT 15SM FEW082 09/04 A2973 RMK AC2 SLP070
CYYC;2002-09-03 10:00;METAR CYYC 031000Z 00000KT 15SM SCT080 10/05 A2972 RMK AC3 SLP067
CYYC;2002-09-03 12:00;METAR CYYC 031200Z CCA 36011KT 15SM SCT079 OVC100 11/05 A2974 RMK AC4AC2 SLP073
CYYC;2002-09-03 13:00;METAR CYYC 031300Z 34010KT 40SM SCT075 OVC100 09/04 A2977 RMK AC3AC5 SLP081
CYYC;2002-09-03 14:00;METAR CYYC 031400Z 35008KT 40SM FEW060 FEW075 BKN100 BKN300 09/03 A2977 RMK CF1AC2AC2CI0 TR CF SLP082
CYYC;2002-09-03 15:00;METAR CYYC 031500Z 34011KT 40SM FEW080 SCT095 BKN280 11/04 A2978 RMK AC2AC2CS1 SLP091 SLP091 CU CS ASOCTD SLP094
CYYC;2002-09-03 17:00;METAR CYYC 031700Z 33008KT 40SM FEW065 SCT090 BKN280 14/05 A2979 RMK CU1AC3CI1 TR CU SLP094 CU SLP094
CYYC;2002-09-03 18:00;METAR CYYC 031800Z 01006KT 40SM FEW070 FEW090 BKN280 15/06 A2978 RMK CU1AC1CI2 SLP093 SLP093
CYYC;2002-09-03 19:00;METAR CYYC 031900Z 01005KT 40SM FEW070 FEW085 BKN280 BKN300 15/05 A2976 RMK CU2AC1CI1CC1 TR CU TR CC SLP089
CYYC;2002-09-03 20:00;METAR CYYC 032000Z 31002KT 40SM FEW070 BKN280 BKN300 16/05 A2978 RMK CU2CI1CC1 TR CC SLP093 CC SLP093
CYYC;2002-09-03 21:00;METAR CYYC 032100Z 04009KT 40SM FEW065 SCT280 SCT300 18/07 A2978 RMK CU2CI1CI1 TR CI SLP090 CI SLP090
CYYC;2002-09-03 22:00;METAR CYYC 032200Z 02010KT 30SM FEW065TCU SCT280 SCT300 18/07 A2978 RMK TCU2CI0CI1 TR CI SLP090
CYYC;2002-09-03 23:00;METAR CYYC 032300Z 02012KT 30SM FEW065 SCT260 SCT300 18/07 A2978 RMK CU2CI0CI1 TR CI TCU ASOCTD SLP092 CI TCU ASOCTD SLP092
CYYC;2002-09-04 00:00;METAR CYYC 040000Z 02012KT 40SM FEW065 FEW260 SCT300 17/06 A2979 RMK CU1CI1CI0 TCU ASOCTD SLP092 TCU ASOCTD SLP092
CYYC;2002-09-04 01:00;METAR CYYC 040100Z 36017KT 30SM FEW070 FEW260 FEW300 16/06 A2981 RMK CU1CI1CI1 TR CI SLP100 CI SLP100
CYYC;2002-09-04 02:00;METAR CYYC 040200Z 36016G21KT 20SM FEW070 FEW140 FEW270 14/06 A2983 RMK AC0AC1CI0 HAZY SLP105 HAZY SLP105
CYYC;2002-09-04 03:00;METAR CYYC 040300Z 36015KT 15SM BKN032 BKN140 13/06 A2985 RMK SC5AC1 SLP122
CYYC;2002-09-04 04:00;METAR CYYC 040400Z 36013G20KT 15SM FEW020 BKN034 BKN049 BKN080 13/06 A2988 RMK SC1SC5SC1AC1 LWR LYR SC TR SLP130 SC1SC5SC1AC1 LWR LYR SC TR SLP130
CYYC;2002-09-04 05:00;METAR CYYC 040500Z 36012KT 15SM FEW015 BKN038 BKN078 12/06 A2990 RMK SC1SC4AC2 SLP135 SLP135
CYYC;2002-09-04 06:00;METAR CYYC 040600Z 36009KT 15SM FEW014 BKN042 BKN078 11/06 A2991 RMK SC1SC5AC2 SLP138 SLP138
CYYC;2002-09-04 07:00;METAR CYYC 040700Z 33007KT 15SM FEW015 BKN050 BKN092 11/05 A2992 RMK SC1SC5AC1 LWR SC TR SLP141 LWR SC TR SLP141
CYYC;2002-09-04 08:00;METAR CYYC 040800Z 33006KT 15SM BKN053 BKN087 10/04 A2995 RMK SC6AC1 SLP151
CYYC;2002-09-04 09:00;METAR CYYC 040900Z 34006KT 15SM SCT056 BKN083 09/04 A2995 RMK SC4AC1 SLP152
CYYC;2002-09-04 10:00;METAR CYYC 041000Z 34008KT 15SM FEW010 FEW058 FEW085 08/04 A2996 RMK SF1SC2AC1 AURBO / SF TR SLP154 AURBO / SF TR SLP154
CYYC;2002-09-04 11:00;METAR CYYC 041100Z 34009KT 15SM FEW010 FEW058 FEW140 08/04 A2996 RMK SC0SC1AC0 AURBO / LWR SC LYR TR SLP154 AURBO / LWR SC LYR TR SLP154
CYYC;2002-09-04 12:00;METAR CYYC 041200Z 35007KT 15SM FEW010 FEW058 BKN088 BKN140 07/03 A3000 RMK SC0SC1AC5AC1 LWR LYR SC TR SLP169
CYYC;2002-09-04 13:00;METAR CYYC 041300Z 35008KT 20SM FEW028 FEW055 BKN080 BKN160 07/03 A3000 RMK SC0SC2AC2AC1 AC FLOCCUS ASOCTD SLP170
CYYC;2002-09-04 14:00;METAR CYYC 041400Z 35007KT 20SM FEW010 SCT030 BKN060 BKN090 BKN300 08/04 A3002 RMK SF2SC1SC2AC2CI1 SLP176 RMK SF2SC1SC2AC2CI1 SLP176
CYYC;2002-09-04 15:00;METAR CYYC 041500Z 04011KT 20SM FEW006 BKN030 08/04 A3003 RMK SF2SC6 SLP187
CYYC;2002-09-04 16:00;METAR CYYC 041600Z 03009KT 20SM FEW006 BKN010 07/03 A3004 RMK CF2SC5 SLP189
CYYC;2002-09-04 17:00;METAR CYYC 041700Z 36006KT 20SM FEW010 BKN015 BKN250 09/03 A3005 RMK CU1SC6CI1 TR CU TR CI SLP192 CU TR CI SLP192
CYYC;2002-09-04 18:00;METAR CYYC 041800Z 03005KT 20SM FEW018 BKN030 BKN090 BKN250 10/03 A3005 RMK CU1SC5AC1CI0 TR AC SLP193
CYYC;2002-09-04 19:00;METAR CYYC 041900Z 35004KT 20SM BKN025 OVC090 11/03 A3005 RMK SC6AC1 SLP192
CYYC;2002-09-04 20:00;METAR CYYC 042000Z 02006KT 20SM FEW021 OVC025 11/03 A3005 RMK CF1SC7
CYYC;2002-09-04 21:00;METAR CYYC 042100Z 03004KT 20SM FEW011 OVC029 11/03 A3005 RMK SF1SC7
CYYC;2002-09-04 22:00;METAR CYYC 042200Z 36007KT 20SM FEW023 OVC025 11/04 A3005 RMK SF1SC7 SLP194
CYYC;2002-09-04 23:00;METAR CYYC 042300Z 05004KT 20SM FEW027 OVC030 12/04 A3006 RMK SF1SC7 SLP196
CYYC;2002-09-05 00:00;METAR CYYC 050000Z 04005KT 20SM FEW031 OVC033 12/04 A3006 RMK CF1SC8 TR CF SLP201
CYYC;2002-09-05 01:00;METAR CYYC 050100Z 04005KT 20SM FEW040 OVC042 11/04 A3007 RMK SF1SC7 SLP203
CYYC;2002-09-05 02:00;METAR CYYC 050200Z 02006KT 20SM OVC033 11/04 A3008 RMK SC8 SLP205
CYYC;2002-09-05 03:00;METAR CYYC 050300Z 02010KT 15SM BKN035 OVC080 10/04 A3008 RMK SC7AC1 SLP209
CYYC;2002-09-05 04:00;METAR CYYC 050400Z 01008KT 15SM BKN035 OVC057 10/04 A3008 RMK SC6SC1
CYYC;2002-09-05 05:00;METAR CYYC 050500Z 02008KT 15SM OVC035 10/03 A3009 RMK SC7 SLP212
CYYC;2002-09-05 06:00;METAR CYYC 050600Z 01006KT 15SM OVC035 10/04 A3010 RMK SC8 SLP212
CYYC;2002-09-05 07:00;METAR CYYC 050700Z 35004KT 15SM OVC032 10/04 A3012 RMK SC8 SLP218
CYYC;2002-09-05 08:00;METAR CYYC 050800Z 02008KT 15SM OVC032 10/03 A3009 RMK SC8 SLP211
CYYC;2002-09-05 09:00;METAR CYYC 050900Z 01009KT 8SM -RA FEW016 OVC030 09/04 A3009 RMK CF2SC6 SLP210
CYYC;2002-09-05 11:00;METAR CYYC 051100Z 01012KT 5SM -RA FEW006 OVC019 06/02 A3011 RMK CF2SC6
CYYC;2002-09-05 12:00;METAR CYYC 051200Z 01012KT 8SM SCT008 OVC022 06/02 A3009 RMK SC3SC5 SLP211
CYYC;2002-09-05 13:00;METAR CYYC 051300Z 36011KT 5SM -RA BKN007 OVC021 06/02 A3012 RMK SC6SC2 SLP220
CYYC;2002-09-05 14:00;METAR CYYC 051400Z 36009KT 2SM -RA FEW004 OVC016 05/02 A3013 RMK SF1SC7 SLP223
CYYC;2002-09-05 15:00;METAR CYYC 051500Z 36010KT 3SM -RA FEW004 OVC010 05/02 A3013 RMK SF2SC6 SLP228
CYYC;2002-09-05 16:00;METAR CYYC 051600Z 35009KT 2 1/2SM -RA FEW005 OVC013 05/02 A3012 RMK SF2SC6 SLP227 SF1SC5ST2 SLP224 SLP224 CF1SC5ST2 SLP223 RMK SF1SC5ST2 SLP223 SF1SC5ST2 SLP223
CYYC;2002-09-05 19:00;METAR CYYC 051900Z 05006KT 8SM FEW007 BKN012 OVC024 07/03 A3011 RMK CF1SC5ST2 SLP221 SLP221
CYYC;2002-09-05 20:00;METAR CYYC 052000Z 04006KT 20SM FEW006 BKN010 OVC020 07/03 A3011 RMK SF1SC6ST2 VSBY NW-N 5 SLP221 VSBY NW-N 5 SLP221
CYYC;2002-09-05 21:00;METAR CYYC 052100Z 07003KT 20SM FEW007 OVC009 07/03 A3009 RMK SF1SC7 SLP216
CYYC;2002-09-05 22:00;METAR CYYC 052200Z 04005KT 20SM FEW007 OVC009 07/03 A3008 RMK SF1SC7 SLP213
CYYC;2002-09-05 23:00;METAR CYYC 052300Z 12006KT 20SM FEW009 OVC011 08/03 A3008 RMK CF1SC8 TR CF SLP212
CYYC;2002-09-06 00:00;METAR CYYC 060000Z 11002KT 15SM FEW012 OVC014 08/03 A3007 RMK CF2SC6 VSBY NW 6 SLP211 SLP211
CYYC;2002-09-06 01:00;METAR CYYC 060100Z 07005KT 10SM FEW007 OVC011 08/04 A3007 RMK CF2SC6 VCBY NW 5 SLP209 SLP209
CYYC;2002-09-06 04:00;METAR CYYC 060400Z CCA 06007KT 2SM -RA OVC003 07/03 A3007 RMK SC8 SLP214
CYYC;2002-09-06 05:00;METAR CYYC 060500Z 04005KT 2SM -RA OVC003 06/03 A3006 RMK SC8 SLP211
CYYC;2002-09-06 06:00;METAR CYYC 060600Z 05009KT 4SM -RA OVC003 06/03 A3004 RMK SC8 SLP202
CYYC;2002-09-06 07:00;METAR CYYC 060700Z 04005KT 4SM -RA OVC004 06/03 A3004 RMK SC8 SLP202
CYYC;2002-09-06 08:00;METAR CYYC 060800Z 03006KT 5SM -RA OVC004 06/03 A3002 RMK SC8 SLP195
CYYC;2002-09-06 09:00;METAR CYYC 060900Z 36008KT 7SM OVC004 06/03 A3001 RMK SC8 SLP189 SLP190
CYYC;2002-09-06 12:00;METAR CYYC 061200Z 35008KT 7SM OVC004 06/02 A3001 RMK SC8 SLP188
CYYC;2002-09-06 13:00;METAR CYYC 061300Z 34010KT 10SM OVC005 06/02 A3002 RMK SC8 SLP192
CYYC;2002-09-06 14:00;METAR CYYC 061400Z 34010KT 12SM OVC005 06/02 A3002 RMK SC8 SLP193
CYYC;2002-09-06 15:00;METAR CYYC 061500Z 35009KT 12SM OVC005 06/02 A3002 RMK SC8 SLP194
CYYC;2002-09-06 16:00;METAR CYYC 061600Z 36007KT 7SM VCFG OVC009 06/02 A3003 RMK SC8 FOG BANK S/ CIG RGD SLP197 RGD SLP197
CYYC;2002-09-06 17:00;METAR CYYC 061700Z 01009KT 10SM BKN009 OVC012 07/02 A3003 RMK SC5SC3 SLP197
CYYC;2002-09-06 18:00;METAR CYYC 061800Z 35005KT 15SM OVC014 07/02 A3002 RMK SC8 SLP193
CYYC;2002-09-06 19:00;METAR CYYC 061900Z 34013KT 15SM OVC014 08/02 A3002 RMK SC8 SLP193
CYYC;2002-09-06 20:00;METAR CYYC 062000Z 30003KT 15SM OVC021 09/02 A3002 RMK SC8 SLP193
CYYC;2002-09-06 21:00;METAR CYYC 062100Z 00000KT 15SM BKN022 OVC087 09/02 A3000 RMK SC7AC1 SLP183
CYYC;2002-09-06 22:00;METAR CYYC 062200Z 00000KT 20SM OVC027 10/02 A2999 RMK SC8 SLP181
CYYC;2002-09-06 23:00;METAR CYYC 062300Z 11002KT 20SM BKN027 OVC088 10/02 A2999 RMK SC7AC1 SLP179
CYYC;2002-09-07 00:00;METAR CYYC 070000Z 00000KT 20SM BKN029 BKN046 BKN095 10/01 A2998 RMK SC5SC1AC2 SLP177 SLP177
CYYC;2002-09-07 02:00;METAR CYYC 070200Z 14003KT 20SM BKN031 BKN096 10/02 A2996 RMK SC6AC1 SLP170
CYYC;2002-09-07 03:00;METAR CYYC 070300Z 14005KT 10SM SCT029 BKN096 07/02 A2996 RMK SC4AC1
CYYC;2002-09-07 05:00;METAR CYYC 070500Z 10004KT 15SM FEW055 BKN110 06/01 A2993 RMK CF1AC2 SLP163
CYYC;2002-09-07 07:00;METAR CYYC 070700Z 12004KT 15SM OVC045 07/02 A2992 RMK SC8 SLP157
CYYC;2002-09-07 08:00;METAR CYYC 070800Z 15002KT 4SM -RA BKN006 OVC035 07/04 A2992 RMK SC6SC2 SLP156
CYYC;2002-09-07 09:00;METAR CYYC 070900Z 20003KT 4SM -RA OVC005 07/04 A2991 RMK SC8 SLP150
CYYC;2002-09-07 10:00;METAR CYYC 071000Z 12003KT 4SM -RA BKN005 OVC024 07/04 A2989 RMK SC6SC2 SLP144
CYYC;2002-09-07 11:00;METAR CYYC 071100Z 00000KT 3SM -RA BR OVC023 07/04 A2988 RMK FG1SC7 SLP143 SLP137 SC1SC2SC5 SLP130
CYYC;2002-09-07 14:00;METAR CYYC 071400Z 04003KT 2 1/2SM -RA BR FEW003 SCT008 OVC025 07/04 A2987 RMK SF1SF3SC4 SLP136 SF1SF3SC4 SLP136
CYYC;2002-09-07 15:00;METAR CYYC 071500Z 36002KT 3SM -RA BR FEW005 OVC021 07/04 A2987 RMK SF2SC6 SLP139
CYYC;2002-09-07 16:00;METAR CYYC 071600Z 07002KT 10SM -RA FEW015 OVC023 08/04 A2986 RMK CU2SC6 CF ASOCTD SLP137
CYYC;2002-09-07 17:00;METAR CYYC 071700Z 00000KT 10SM SCT010 OVC035 09/04 A2986 RMK SC3SC4 CU ASOCTD SLP136 SLP136
CYYC;2002-09-07 18:00;METAR CYYC 071800Z 00000KT 15SM BKN013 OVC035 09/04 A2985 RMK SC6SC2 SLP132
CYYC;2002-09-07 19:00;METAR CYYC 071900Z 14006KT 20SM BKN015 BKN035 11/05 A2984 RMK SC6SC1 SLP128
CYYC;2002-09-07 20:00;METAR CYYC 072000Z 15005KT 25SM BKN019 BKN250 12/05 A2983 RMK CU5CI1 TCU ASOCTD W + NW SLP125 + NW SLP125
CYYC;2002-09-07 21:00;METAR CYYC 072100Z 13008KT 20SM SCT022 SCT100 13/05 A2983 RMK CU3AC1 TCU EMBDD W-NW SLP116 W-NW SLP116
CYYC;2002-09-07 22:00;METAR CYYC 072200Z 16008KT 20SM FEW020 BKN120 BKN250 13/05 A2980 RMK CU1AC5CI1 CB BASE SW MAMATUS OVR STN SHWRS DIST SW TCU EMBDD W-NW SLP109 BASE SW MAMATUS OVR STN SHWRS DIST SW TCU EMBDD W-NW SLP109
CYYC;2002-09-07 23:00;METAR CYYC 072300Z 26002KT 20SM FEW020TCU BKN076 BKN140 BKN250 14/05 A2983 RETS RMK TCU2AC4AC2CI1 VIRGA SHWRS DIST SW SLP117 RMK TCU2AC4AC2CI1 VIRGA SHWRS DIST SW SLP117
CYYC;2002-09-08 00:00;METAR CYYC 080000Z 33003KT 40SM -TSRA FEW025 BKN050 BKN080 BKN250 12/06 A2985 RMK CU1SC6AC1CI1 CB EMBDD SLP126 CU1SC6AC1CI1 CB EMBDD SLP126
CYYC;2002-09-08 01:00;METAR CYYC 080100Z 16006KT 30SM FEW025CB FEW080 FEW250 13/04 A2984 CB2AC1CI1 CB E MAMATUS SLP123
CYYC;2002-09-08 02:00;METAR CYYC 080200Z 04004KT 30SM FEW030CB FEW060 FEW090 09/04 A2984 RMK CB1SC1AC1 CB E SLP123 CB E SLP123
CYYC;2002-09-08 03:00;METAR CYYC 080300Z 17006KT 15SM FEW060 FEW090 FEW250 07/03 A2985 RMK SC1AC1CI1 CI TR SLP134 TR SLP134
CYYC;2002-09-08 04:00;METAR CYYC 080400Z 21007KT 15SM FEW100 FEW250 07/02 A2986 RMK AC1CI1 BOTH CLDS TR SLP135
CYYC;2002-09-08 05:00;METAR CYYC 080500Z 20005KT 15SM FEW250 06/02 A2987 RMK CI1 CI TR SLP138
CYYC;2002-09-08 06:00;METAR CYYC 080600Z 18006KT 15SM FEW250 07/02 A2986 RMK CI1 CI TR SLP134
CYYC;2002-09-08 07:00;METAR CYYC 080700Z 20002KT 15SM SKC 06/01 A2986 RMK SLP133
CYYC;2002-09-08 08:00;METAR CYYC 080800Z 21005KT 15SM SKC 05/M00 A2987 RMK SLP136
CYYC;2002-09-08 09:00;METAR CYYC 080900Z 22003KT 15SM SKC 05/M01 A2988 RMK SLP140
CYYC;2002-09-08 10:00;METAR CYYC 081000Z 21006KT 15SM SKC 05/M02 A2988 RMK SLP140
CYYC;2002-09-08 11:00;METAR CYYC 081100Z 21009KT 15SM SKC 05/M02 A2989 RMK SLP143
CYYC;2002-09-08 12:00;METAR CYYC 081200Z 21004KT 15SM FEW140 03/M02 A2990 RMK AC1 AC TR SLP150
CYYC;2002-09-08 13:00;METAR CYYC 081300Z 18005KT 30SM FEW050 FEW120 FEW250 05/M03 A2991 RMK SC1AC1CI1 SC+CI TR SLP152 SC+CI TR SLP152
CYYC;2002-09-08 14:00;METAR CYYC 081400Z 20008KT 40SM FEW050 FEW120 FEW250 05/M02 A2992 RMK CU1AC1CI1 SLP156 SLP156
CYYC;2002-09-08 15:00;METAR CYYC 081500Z 20004KT 40SM FEW050 FEW120 FEW250 08/M00 A2993 RMK CU1AC1CI1 SLP160 SLP160
CYYC;2002-09-08 16:00;METAR CYYC 081600Z 21006KT 40SM FEW050 FEW120 FEW250 11/00 A2994 RMK CU1AC1CI1 SLP164 SLP164
CYYC;2002-09-08 17:00;METAR CYYC 081700Z 21004KT 40SM FEW050 FEW120 FEW250 14/02 A2994 RMK
CYYC;2002-09-08 18:00;METAR CYYC 081800Z 29011KT 40SM FEW050 FEW250 15/M00 A2994 RMK CU1CI1 SLP153
CYYC;2002-09-08 19:00;METAR CYYC 081900Z 27014G19KT 40SM FEW072 SCT260 16/M01 A2993 RMK CU2CI1 SLP151
CYYC;2002-09-08 20:00;METAR CYYC 082000Z 26016KT 40SM FEW070 BKN100 BKN250 16/M03 A2995 RMK CU2AC2CI0 SLP155 SLP155
CYYC;2002-09-08 21:00;METAR CYYC 082100Z 28013KT 40SM FEW070 BKN150 BKN260 16/M03 A2995 RMK CU2AC3CI0 SLP158 SLP158
CYYC;2002-09-08 22:00;METAR CYYC 082200Z 26017KT 40SM FEW080 FEW150 17/M03 A2994 RMK CU2AC1 SLP157
CYYC;2002-09-08 23:00;METAR CYYC 082300Z 26016KT 30SM FEW080 FEW150 FEW260 17/M03 A2994 RMK CU1AC1CI1 SLP157
CYYC;2002-09-09 00:00;METAR CYYC 090000Z 28019KT 30SM FEW065 FEW150 FEW260 16/M04 A2996 RMK CU1AC1CI1 SLP162 SLP162
CYYC;2002-09-09 01:00;METAR CYYC 090100Z 26011KT 30SM FEW065 FEW260 15/M03 A2996 RMK CU1CI1 SLP164
CYYC;2002-09-09 02:00;METAR CYYC 090200Z 26010G15KT 30SM FEW060 FEW100 FEW250 13/M03 A2997 RMK SC1AC1CI1 AC+CI TR SLP166
CYYC;2002-09-09 03:00;METAR CYYC 090300Z 25010KT 15SM FEW090 FEW250 12/M03 A2997 RMK AC1CI1 CI TR SLP168
CYYC;2002-09-09 04:00;METAR CYYC 090400Z 19004KT 15SM FEW090 11/M04 A2998 RMK AC1 AC TR SLP169
CYYC;2002-09-09 05:00;METAR CYYC 090500Z 14002KT 15SM SCT120 09/M03 A2999 RMK AC2 SLP172
CYYC;2002-09-09 07:00;METAR CYYC 090700Z 22004KT 15SM FEW120 SCT250 09/M02 A2999 RMK AC2CI1 SLP169
CYYC;2002-09-09 08:00;METAR CYYC 090800Z 22004KT 15SM SCT120 BKN250 08/M02 A3000 RMK AC3CI1 SLP171
CYYC;2002-09-09 09:00;METAR CYYC 090900Z 22006KT 15SM FEW090 SCT140 BKN250 07/M01 A3001 RMK AC1AC3CI2 SLP175 SLP175
CYYC;2002-09-09 10:00;METAR CYYC 091000Z 20004KT 15SM FEW120 SCT250 09/M02 A3002 RMK AC2CI1 SLP180
CYYC;2002-09-09 11:00;METAR CYYC 091100Z 17004KT 15SM FEW120 SCT250 11/M02 A3003 RMK AC1CI1 SLP181
CYYC;2002-09-09 12:00;METAR CYYC 091200Z 25009KT 15SM FEW100 FEW250 10/M02 A3004 RMK AC1CI0 SLP182
CYYC;2002-09-09 13:00;METAR CYYC 091300Z 26011KT 20SM FEW120 FEW250 11/M03 A3006 RMK AC1CI1 AC TR SLP189
CYYC;2002-09-09 14:00;METAR CYYC 091400Z 25007KT 40SM FEW070 FEW120 FEW250 10/M01 A3008 RMK CU1AC1CI0 CC ASOCTD ACC ASOCTD TR CU TR AC SLP196 CC ASOCTD ACC ASOCTD TR CU TR AC SLP196
CYYC;2002-09-09 15:00;METAR CYYC 091500Z 23008KT 40SM FEW070 FEW140 BKN250 12/00 A3009 RMK CU1AC1CI0 TR CU TR AC CC ASOCTD SLP203 CU TR AC CC ASOCTD SLP203
CYYC;2002-09-09 16:00;METAR CYYC 091600Z 23008KT 40SM FEW070 FEW260 BKN280 15/01 A3011 RMK CU1CI1CI1 TR CU TR CI CC ASOCTD SLP209 CU TR CI CC ASOCTD SLP209
CYYC;2002-09-09 17:00;METAR CYYC 091700Z 25010G19KT 40SM FEW070 FEW140 BKN280 16/00 A3012 RMK CU1AC1CI0 TR AC CC ASOCTD SLP212 TR AC CC ASOCTD SLP212
CYYC;2002-09-09 18:00;METAR CYYC 091800Z 26013G20KT 40SM FEW068 FEW140 SCT300 18/M00 A3011 RMK CU2AC1CI0 TR AC CC ASOCTD SLP208
CYYC;2002-09-09 19:00;METAR CYYC 091900Z 23009KT 40SM SCT073 SCT140 SCT300 18/01 A3011 RMK CU3AC1CC0 TR AC SLP208 AC SLP208
CYYC;2002-09-09 20:00;METAR CYYC 092000Z 21011G16KT 40SM FEW075 FEW300 20/02 A3010 RMK CU2CI1 TR CI SLP205 SLP205
CYYC;2002-09-09 21:00;METAR CYYC 092100Z 26016G21KT 40SM FEW075 FEW300 20/01 A3010 RMK CU2CI1 TR CI SLP202 SLP202
CYYC;2002-09-09 22:00;METAR CYYC 092200Z 27018G24KT 40SM FEW078 SCT300 20/01 A3008 RMK CU2CI0 SLP197
CYYC;2002-09-09 23:00;METAR CYYC 092300Z 28018KT 40SM FEW072 FEW270 20/01 A3009 RMK CU2CI1 SLP199
CYYC;2002-09-10 00:00;METAR CYYC 100000Z 27019KT 40SM FEW072 FEW270 19/01 A3009 RMK CU1CI1 SLP195
CYYC;2002-09-10 02:00;METAR CYYC 100200Z 25009KT 40SM FEW070 FEW160 FEW270 16/01 A3010 RMK CU1AC2CI0 ACSL TR SLP200 ACSL TR SLP200
CYYC;2002-09-10 03:00;METAR CYYC 100300Z 26010KT 15SM FEW070 FEW160 FEW270 15/01 A3013 RMK CU1AC1CI1 SLP211 SLP211
CYYC;2002-09-10 04:00;METAR CYYC 100400Z 20002KT 15SM SCT260 14/01 A3013 RMK CI1 SLP213
CYYC;2002-09-10 05:00;METAR CYYC 100500Z 25006KT 15SM FEW270 13/01 A3014 RMK CI0 SLP214
CYYC;2002-09-10 06:00;METAR CYYC 100600Z 25006KT 15SM FEW270 11/01 A3014 RMK CI0 SLP213
CYYC;2002-09-10 07:00;METAR CYYC 100700Z 19002KT 15SM FEW270 10/01 A3014 RMK CI0 SLP213
CYYC;2002-09-10 08:00;METAR CYYC 100800Z 16003KT 15SM FEW240 11/01 A3014 RMK CI0 SLP214
CYYC;2002-09-10 09:00;METAR CYYC 100900Z 21004KT 15SM SCT140 SCT240 10/00 A3013 RMK AC2CI1 SLP210
CYYC;2002-09-10 10:00;METAR CYYC 101000Z 21007KT 15SM FEW080 SCT240 10/01 A3014 RMK AC2CI1 SLP213
CYYC;2002-09-10 11:00;METAR CYYC 101100Z 22003KT 15SM FEW100 SCT240 11/00 A3014 RMK AC2CI0 SLP212
CYYC;2002-09-10 12:00;METAR CYYC 101200Z 00000KT 15SM FEW100 FEW240 11/00 A3013 RMK AC1CI1 SLP209
CYYC;2002-09-10 13:00;METAR CYYC 101300Z 23006KT 40SM FEW100 FEW240 10/01 A3013 RMK AC1CI1 SLP207
CYYC;2002-09-10 14:00;METAR CYYC 101400Z 20004KT 40SM SCT250 11/02 A3013 RMK CI1 CC ASOCTD SLP208
CYYC;2002-09-10 15:00;METAR CYYC 101500Z 20005KT 40SM FEW170 BKN250 15/03 A3012 RMK AC1CC2 TR AC SLP204
CYYC;2002-09-10 16:00;METAR CYYC 101600Z 16005KT 40SM FEW170 BKN250 17/03 A3012 RMK AC1CC2 TR AC
CYYC;2002-09-10 17:00;METAR CYYC 101700Z 16003KT 40SM SCT270 19/04 A3011 RMK CI2 CC ASOCTD SLP201
CYYC;2002-09-10 18:00;METAR CYYC 101800Z 16008KT 40SM SCT270 21/04 A3008 RMK CI2 CC ASOCTD SLP189
CYYC;2002-09-10 19:00;METAR CYYC 101900Z 16012G17KT 40SM FEW072 FEW270 22/05 A3006 RMK CU1CI2 TR CU SLP181 SLP181
CYYC;2002-09-10 20:00;METAR CYYC 102000Z 15011G16KT 40SM FEW072 FEW270 24/06 A3003 RMK CU1CI1 TR CU SLP172 SLP172
CYYC;2002-09-10 21:00;METAR CYYC 102100Z 18011G16KT 40SM FEW075 FEW270 25/07 A2999 RMK CF1CI0 TR CF SLP152 SLP152
CYYC;2002-09-10 22:00;METAR CYYC 102200Z 17013G18KT 40SM FEW075 FEW270 26/05 A2996 RMK CF1CI0 TR CF CC ASOCTD SLP144 ASOCTD SLP144 ASOCTD COTRA SLP137
CYYC;2002-09-11 00:00;METAR CYYC 110000Z 21012KT 40SM FEW072 SCT270 25/04 A2993 RMK CU1CI1 TR CU SLP130
CYYC;2002-09-11 01:00;METAR CYYC 110100Z 28010KT 40SM FEW070 BKN270 24/03 A2993 RMK CU1CC3 TR CU SLP131
CYYC;2002-09-11 02:00;METAR CYYC 110200Z 27010KT 40SM FEW070 BKN270 22/01 A2993 RMK CU1CI3 CC ASOCTD SLP131
CYYC;2002-09-11 03:00;METAR CYYC 110300Z 34009G15KT 40SM FEW070 BKN270 19/02 A2995 RMK CU1CI2 SLP142
CYYC;2002-09-11 04:00;METAR CYYC 110400Z 29018KT 15SM BKN270 20/00 A2997 RMK CI2 SLP147
CYYC;2002-09-11 05:00;METAR CYYC 110500Z 27011G16KT 15SM BKN270 20/M00 A2997 RMK CI2 SLP149
CYYC;2002-09-11 06:00;METAR CYYC 110600Z 28012KT 15SM FEW270 18/00 A2999 RMK CI0 SLP146
CYYC;2002-09-11 07:00;METAR CYYC 110700Z 36005KT 15SM FEW270 15/01 A3001 RMK CI0 SLP153
CYYC;2002-09-11 08:00;METAR CYYC 110800Z 02003KT 15SM FEW270 12/01 A3003 RMK CI0 SLP159
CYYC;2002-09-11 09:00;METAR CYYC 110900Z 34012KT 15SM FEW100 12/00 A3007 RMK AC1 AURBO SLP178
CYYC;2002-09-11 10:00;METAR CYYC 111000Z 34011KT 15SM SKC 10/03 A3009 RMK SLP184
CYYC;2002-09-11 11:00;METAR CYYC 111100Z 34009KT 15SM FEW240 09/03 A3010 RMK CI1 SLP188
CYYC;2002-09-11 12:00;METAR CYYC 111200Z 32009KT 15SM FEW240 09/03 A3012 RMK CI0 SLP199
CYYC;2002-09-11 13:00;METAR CYYC 111300Z 30007KT 30SM FEW080 FEW240 09/03 A3014 RMK AC1CI0 SLP207
CYYC;2002-09-11 14:00;METAR CYYC 111400Z 30003KT 40SM FEW090 FEW250 08/03 A3016 RMK AC1CI0 TR AC SLP212
CYYC;2002-09-11 15:00;METAR CYYC 111500Z 31007KT 40SM SCT280 12/04 A3016 RMK CC1 SLP219
CYYC;2002-09-11 16:00;METAR CYYC 111600Z 00000KT 40SM FEW280 13/03 A3015 RMK CI1 CC ASOCTD SLP216
CYYC;2002-09-11 17:00;METAR CYYC 111700Z 00000KT 40SM FEW075 SCT280 14/03 A3015 RMK CU1CI1 TR CU CC ASOCTD SLP216 ASOCTD SLP216
CYYC;2002-09-11 18:00;METAR CYYC 111800Z 20002KT 40SM FEW070 FEW280 16/04 A3015 RMK CU1CI0 TR CU SLP210
CYYC;2002-09-11 19:00;METAR CYYC 111900Z 15005KT 40SM FEW070 FEW280 16/04 A3012 RMK CU1CI0 TR CU SLP202
CYYC;2002-09-11 20:00;METAR CYYC 112000Z 15008KT 40SM FEW065 FEW280 18/05 A3011 RMK CU1CI0 TR CU SLP199
CYYC;2002-09-11 21:00;METAR CYYC 112100Z 14012KT 40SM FEW065 FEW280 19/05 A3007 RMK CU1CI0 TR CU SLP189
CYYC;2002-09-11 22:00;METAR CYYC 112200Z 13008KT 40SM FEW065 FEW280 19/05 A3006 RMK CU1CI0 TR CU CC ASOCTD COTRA SLP186 ASOCTD COTRA SLP186
CYYC;2002-09-11 23:00;METAR CYYC 112300Z 15007G15KT 40SM FEW065 SCT300 20/05 A3005 RMK CU1CI0 TR CU CC ASOCTD COTRA SLP181 ASOCTD COTRA SLP181
CYYC;2002-09-12 00:00;METAR CYYC 120000Z 13010G15KT 40SM FEW065 FEW300 20/05 A3004 RMK CU1CI0 TR CU SLP177 SLP177
CYYC;2002-09-12 01:00;METAR CYYC 120100Z 15010KT 40SM FEW065 FEW280 19/05 A3003 RMK CU1CI0 TR CU SLP175
CYYC;2002-09-12 02:00;METAR CYYC 120200Z 14008KT 40SM FEW060 FEW300 16/05 A3003 RMK CU1CI0 CU TR
CYYC;2002-09-12 03:00;METAR CYYC 120300Z 13008KT 15SM FEW300 14/05 A3004 RMK CI0 SLP182
CYYC;2002-09-12 04:00;METAR CYYC 120400Z 12009KT 15SM SKC 13/05 A3004 RMK SLP182
CYYC;2002-09-12 05:00;METAR CYYC 120500Z 17007KT 15SM SKC 12/05 A3003 RMK SLP181
CYYC;2002-09-12 06:00;METAR CYYC 120600Z 18007KT 15SM SKC 13/05 A3003 RMK SLP174
CYYC;2002-09-12 07:00;METAR CYYC 120700Z 17006KT 15SM SKC 11/05 A3003 RMK SLP175
CYYC;2002-09-12 08:00;METAR CYYC 120800Z 13006KT 15SM SKC 10/05 A3002 RMK SLP171
CYYC;2002-09-12 09:00;METAR CYYC 120900Z 30003KT 15SM SKC 09/04 A3001 RMK SLP169
CYYC;2002-09-12 10:00;METAR CYYC 121000Z 33006KT 15SM SKC 07/03 A3001 RMK SLP168
CYYC;2002-09-12 11:00;METAR CYYC 121100Z 34004KT 15SM SKC 06/02 A3000 RMK SLP166
CYYC;2002-09-12 12:00;METAR CYYC 121200Z 32003KT 15SM FEW160 06/02 A2999 RMK AC1 AC TR SLP166
CYYC;2002-09-12 13:00;METAR CYYC 121300Z 33003KT 30SM FEW140 FEW270 05/01 A2999 RMK AC1CI1 CLDS TR SLP166 SLP166
CYYC;2002-09-12 14:00;METAR CYYC 121400Z 33005KT 40SM FEW140 FEW270 07/03 A2999 RMK AC1CI1 ALL CLDS TR SLP166
CYYC;2002-09-12 15:00;METAR CYYC 121500Z 31002KT 40SM FEW140 FEW270 11/05 A2999 RMK AC1CI1 CLDS TR SLP167 SLP167
CYYC;2002-09-12 16:00;METAR CYYC 121600Z 00000KT 40SM FEW140 FEW270 15/06 A2998 RMK AC1CI1 CI TR SLP165
CYYC;2002-09-12 17:00;METAR CYYC 121700Z 19003KT 40SM FEW140 FEW270 18/06 A2997 RMK AC1CI1 CI TR SLP161
CYYC;2002-09-12 18:00;METAR CYYC 121800Z 20005KT 40SM FEW160 21/07 A2997 RMK AC1 SLP148
CYYC;2002-09-12 19:00;METAR CYYC 121900Z 16006KT 30SM FEW140 23/08 A2994 RMK AC1 HAZY SLP139
CYYC;2002-09-12 20:00;METAR CYYC 122000Z 16008KT 30SM FEW140 FEW270 25/06 A2992 RMK AC1CI1 CI TR / HAZY SLP132 SLP132
CYYC;2002-09-12 21:00;METAR CYYC 122100Z 18008KT 30SM FEW085 FEW140 FEW270 26/05 A2990 RMK AC0AC2CI0 ACSL ASOCTD / LWR AC TR / HAZY SLP120 ACSL ASOCTD / LWR AC TR / HAZY SLP120
CYYC;2002-09-12 22:00;METAR CYYC 122200Z 14006KT 30SM FEW085 SCT140 BKN270 27/05 A2987 RMK AC1AC2CI0 LWR AC TR / HAZY SLP113 LWR AC TR / HAZY SLP113
CYYC;2002-09-12 23:00;METAR CYYC 122300Z 15005KT 40SM FEW080 SCT140 BKN270 25/05 A2985 RMK AC1AC2CI0 LWR AC TR SLP107 LWR AC TR SLP107
CYYC;2002-09-13 00:00;METAR CYYC 130000Z 09006KT 40SM FEW080 FEW160 BKN270 26/07 A2984 RMK AC1AC2CI0 SLP105 SLP105
CYYC;2002-09-13 01:00;METAR CYYC 130100Z 14008KT 40SM FEW075 FEW160 SCT270 25/06 A2982 RMK AC1AC1CI1 LWR AC TR SLP100 LWR AC TR SLP100
CYYC;2002-09-13 02:00;METAR CYYC 130200Z 13006KT 40SM FEW140 FEW270 22/07 A2981 RMK AC1CI0 SLP096
CYYC;2002-09-13 03:00;METAR CYYC 130300Z 34010KT 15SM FEW140 FEW270 17/06 A2982 RMK AC1CI0 SLP103
CYYC;2002-09-13 04:00;METAR CYYC 130400Z 32009KT 15SM FEW140 FEW270 14/09 A2982 RMK AC1CI0 GUST PST 30 MIN 20KT SLP103 MIN 20KT SLP103
CYYC;2002-09-13 05:00;METAR CYYC 130500Z 30009KT 15SM FEW270 13/08 A2984 RMK CI0 SLP109
CYYC;2002-09-13 06:00;METAR CYYC 130600Z 33007KT 15SM SKC 12/08 A2984 RMK SLP104
CYYC;2002-09-13 07:00;METAR CYYC 130700Z 31008KT 15SM SKC 11/06 A2984 RMK SLP104
CYYC;2002-09-13 08:00;METAR CYYC 130800Z 32008KT 15SM FEW270 12/07 A2983 RMK CI0 SLP099
CYYC;2002-09-13 09:00;METAR CYYC 130900Z 33011KT 15SM FEW270 11/07 A2983 RMK CI0 SLP092
CYYC;2002-09-13 11:00;METAR CYYC 131100Z CCA 34025G35KT 10SM SCT014 BKN080 10/05 A2993 RMK SC3AC2 PRESRR/ CLDS MOVING FM N SLP124
CYYC;2002-09-13 12:00;METAR CYYC 131200Z 35020G26KT 10SM SCT014 BKN090 08/03 A2996 RMK SC3AC2 SLP145
CYYC;2002-09-13 13:00;METAR CYYC 131300Z 34012KT 20SM FEW014 FEW100 BKN250 08/03 A2998 RMK SC2AC1CI1 SLP149 SLP149
CYYC;2002-09-13 14:00;METAR CYYC 131400Z 33009KT 20SM FEW025 FEW140 BKN270 08/03 A3000 RMK SC0AC1CI0 SLP157 SLP157
CYYC;2002-09-13 15:00;METAR CYYC 131500Z 32011KT 20SM FEW025 FEW140 SCT300 10/03 A3001 RMK SC0AC1CI1 SLP169 SLP169
CYYC;2002-09-13 16:00;METAR CYYC 131600Z 34012KT 20SM FEW030 SCT044 BKN300 11/03 A3004 RMK CF0SC3CI1 SLP179 SLP179
CYYC;2002-09-13 17:00;METAR CYYC 131700Z 34010KT 20SM FEW030 BKN042 13/04 A3006 RMK CU1SC6 SLP185
CYYC;2002-09-13 18:00;METAR CYYC 131800Z 34012G17KT 20SM SCT031 OVC044 13/04 A3006 RMK CU3SC4 SLP192
CYYC;2002-09-13 19:00;METAR CYYC 131900Z 36012KT 20SM SCT031 OVC044 13/04 A3007 RMK CU4SC3 SLP194
CYYC;2002-09-13 20:00;METAR CYYC 132000Z 34011KT 20SM BKN033 BKN044 13/04 A3008 RMK CU5SC2 SLP197
CYYC;2002-09-13 21:00;METAR CYYC 132100Z 36008KT 20SM SCT033 BKN044 13/04 A3008 RMK SC4SC3 SLP200
CYYC;2002-09-13 22:00;METAR CYYC 132200Z 35005KT 20SM BKN037 14/04 A3008 RMK SC7 SLP199
CYYC;2002-09-13 23:00;METAR CYYC 132300Z 36004KT 20SM BKN042 14/02 A3008 RMK SC7 SLP199
CYYC;2002-09-14 00:00;METAR CYYC 140000Z 02005KT 20SM BKN042 13/03 A3008 RMK SC7 SLP202
CYYC;2002-09-14 01:00;METAR CYYC 140100Z 04005KT 20SM BKN042 13/03 A3007 RMK SC7 SLP201
CYYC;2002-09-14 02:00;METAR CYYC 140200Z 06003KT 15SM OVC042 12/03 A3009 RMK SC8 SLP205
CYYC;2002-09-14 03:00;METAR CYYC 140300Z 08003KT 15SM OVC042 12/03 A3010 RMK SC8 SLP210
CYYC;2002-09-14 04:00;METAR CYYC 140400Z 13004KT 15SM OVC040 12/02 A3010 RMK SC8 SLP209
CYYC;2002-09-14 05:00;METAR CYYC 140500Z 16004KT 15SM OVC038 11/02 A3010 RMK SC7 SLP211
CYYC;2002-09-14 07:00;METAR CYYC 140700Z 16006KT 15SM FEW250 09/01 A3009 RMK CI0 SLP206
CYYC;2002-09-14 08:00;METAR CYYC 140800Z 18005KT 15SM FEW250 09/01 A3009 RMK CI1 CI TR SLP206
CYYC;2002-09-14 09:00;METAR CYYC 140900Z 17004KT 15SM SKC 08/01 A3009 RMK SLP207
CYYC;2002-09-14 10:00;METAR CYYC 141000Z 12004KT 15SM SKC 06/01 A3008 RMK SLP204
CYYC;2002-09-14 11:00;METAR CYYC 141100Z 17005KT 15SM SKC 06/01 A3006 RMK SLP200
CYYC;2002-09-14 12:00;METAR CYYC 141200Z 20005KT 15SM FEW270 06/01 A3006 RMK CI0 SLP198
CYYC;2002-09-14 13:00;METAR CYYC 141300Z 21006KT 20SM BKN270 05/01 A3005 RMK CI2 SLP195
CYYC;2002-09-14 14:00;METAR CYYC 141400Z 18005KT 40SM FEW180 OVC270 06/02 A3005 RMK AC1CI2 AC TR SLP194
CYYC;2002-09-14 15:00;METAR CYYC 141500Z 20007KT 40SM FEW180 BKN270 07/02 A3005 RMK AC1CI1 AC TR SLP195
CYYC;2002-09-14 16:00;METAR CYYC 141600Z 21006KT 40SM FEW180 OVC300 11/03 A3003 RMK AC1CI1 CONTRAILS SLP190 SLP190
CYYC;2002-09-14 17:00;METAR CYYC 141700Z 19006KT 40SM FEW180 OVC300 14/05 A3002 RMK AC1CI1 AC TR / CONTRAILS SLP187 CONTRAILS SLP187
CYYC;2002-09-14 18:00;METAR CYYC 141800Z 20006KT 40SM FEW180 OVC300 16/06 A3001 RMK AC1CI1 SLP173
CYYC;2002-09-14 19:00;METAR CYYC 141900Z 18008KT 40SM FEW180 OVC300 19/06 A2999 RMK AC2CI1 SLP167
CYYC;2002-09-14 20:00;METAR CYYC 142000Z 17009KT 40SM FEW160 OVC270 21/07 A2996 RMK AC2CI1 SLP158
CYYC;2002-09-14 21:00;METAR CYYC 142100Z 17010KT 40SM FEW160 FEW210 OVC270 22/07 A2994 RMK AC1CI2CI1 SLP143 SLP143
CYYC;2002-09-14 22:00;METAR CYYC 142200Z 16009KT 40SM FEW160 FEW210 OVC270 23/07 A2992 RMK AC0CI2CI1 AC TR SLP136 TR SLP136
CYYC;2002-09-14 23:00;METAR CYYC 142300Z 17012KT 40SM FEW096 FEW160 SCT240 OVC270 24/06 A2990 RMK AC0AC1CI2CI1 AC LYRS TR SLP132
CYYC;2002-09-15 00:00;METAR CYYC 150000Z 16009KT 40SM FEW096 FEW160 SCT240 OVC270 24/06 A2988 RMK AC1AC1CI2CI1 AC LYRS TR SLP123
CYYC;2002-09-15 01:00;METAR CYYC 150100Z 15006KT 40SM FEW100 FEW240 OVC270 22/07 A2986 RMK AC0CI2CI1 SLP118 SLP118
CYYC;2002-09-15 02:00;METAR CYYC 150200Z 15002KT 40SM FEW070 FEW120 OVC270 21/05 A2986 RMK AC1AC1CI2 LWR AC TR SLP116 LWR AC TR SLP116
CYYC;2002-09-15 03:00;METAR CYYC 150300Z 18006KT 15SM FEW120 BKN270 17/05 A2985 RMK AC1CI2 SLP119
CYYC;2002-09-15 04:00;METAR CYYC 150400Z 19008KT 15SM SCT270 17/04 A2985 RMK CI1 SLP119
CYYC;2002-09-15 05:00;METAR CYYC 150500Z 18008KT 15SM FEW270 14/03 A2984 RMK CI0 SLP116
CYYC;2002-09-15 06:00;METAR CYYC 150600Z 20006KT 15SM FEW250 14/03 A2985 RMK CI1 SLP109
CYYC;2002-09-15 07:00;METAR CYYC 150700Z 21003KT 15SM FEW250 14/02 A2984 RMK CI1 SLP108
CYYC;2002-09-15 08:00;METAR CYYC 150800Z 00000KT 15SM FEW250 11/02 A2984 RMK CI1 SLP107
CYYC;2002-09-15 09:00;METAR CYYC 150900Z 21002KT 15SM FEW250 11/02 A2985 RMK CI2 SLP105
CYYC;2002-09-15 10:00;METAR CYYC 151000Z 32008KT 15SM FEW250 10/01 A2985 RMK CI2 SLP108
CYYC;2002-09-15 11:00;METAR CYYC 151100Z 34005KT 15SM SCT250 09/01 A2985 RMK CI2 SLP107
CYYC;2002-09-15 12:00;METAR CYYC 151200Z 22003KT 15SM FEW120 BKN250 08/01 A2986 RMK AC1CI2 SLP114
CYYC;2002-09-15 13:00;METAR CYYC 151300Z 20003KT 20SM FEW120 BKN250 07/00 A2987 RMK AC2CI2 SLP116
CYYC;2002-09-15 14:00;METAR CYYC 151400Z 22004KT 30SM FEW140 BKN270 08/02 A2988 RMK AC2CI1
CYYC;2002-09-15 15:00;METAR CYYC 151500Z 00000KT 30SM FEW120 BKN270 11/03 A2988 RMK AC1CI3 SLP123
CYYC;2002-09-15 16:00;METAR CYYC 151600Z 00000KT 30SM FEW100 BKN270 15/05 A2989 RMK AC0CI2 SLP127
CYYC;2002-09-15 17:00;METAR CYYC 151700Z 12003KT 30SM FEW100 BKN270 20/05 A2989 RMK AC0CI1 SLP125
CYYC;2002-09-15 18:00;METAR CYYC 151800Z 13010KT 30SM FEW100 BKN270 21/04 A2988 RMK AC0CI2
CYYC;2002-09-15 19:00;METAR CYYC 151900Z 15006KT 30SM FEW100 BKN270 22/04 A2985 RMK AC0CI2 SLP107
CYYC;2002-09-15 20:00;METAR CYYC 152000Z 16005KT 30SM FEW100 OVC270 23/04 A2983 RMK AC1CI3 SLP098
CYYC;2002-09-15 21:00;METAR CYYC 152100Z 15008KT 30SM FEW120 BKN270 25/05 A2981 RMK AC1CI4 SLP088
CYYC;2002-09-15 22:00;METAR CYYC 152200Z 15008G17KT 30SM FEW140 OVC270 26/03 A2977 RMK AC1CI5 SLP077
CYYC;2002-09-15 23:00;METAR CYYC 152300Z 17014G19KT 30SM FEW140 BKN270 27/02 A2974 RMK AC1CI2 SLP068
CYYC;2002-09-16 00:00;METAR CYYC 160000Z 16011KT 30SM FEW140 BKN270 26/04 A2972 RMK AC1CI2 SLP062
CYYC;2002-09-16 01:00;METAR CYYC 160100Z 16009KT 30SM FEW140 BKN270 25/04 A2969 RMK AC2CI2 SLP053
CYYC;2002-09-16 02:00;METAR CYYC 160200Z 18010KT 30SM FEW140 BKN270 23/01 A2969 RMK AC1CI2 SLP052
CYYC;2002-09-16 03:00;METAR CYYC 160300Z 19009KT 15SM FEW120 SCT270 20/01 A2969 RMK AC1CI2 SLP055
CYYC;2002-09-16 04:00;METAR CYYC 160400Z 18006KT 15SM FEW270 16/00 A2969 RMK CI0 SLP054
CYYC;2002-09-16 06:00;METAR CYYC 160600Z 21006KT 15SM FEW270 15/M01 A2967 RMK CI0 SLP043
CYYC;2002-09-16 07:00;METAR CYYC 160700Z 18010KT 15SM FEW270 15/M02 A2967 RMK CI1 SLP043
CYYC;2002-09-16 08:00;METAR CYYC 160800Z 18006KT 15SM FEW140 FEW270 13/M03 A2967 RMK AC1CI1 AC TR SLP042
CYYC;2002-09-16 09:00;METAR CYYC 160900Z 28002KT 15SM FEW140 FEW270 09/M02 A2967 RMK AC1CI1 AC TR SLP044
CYYC;2002-09-16 10:00;METAR CYYC 161000Z 32002KT 15SM FEW140 FEW270 08/M02 A2967 RMK AC1CI0
CYYC;2002-09-16 12:00;METAR CYYC 161200Z CCA 20007KT 15SM FEW270 08/M00 A2967 RMK CI1 SLP044
CYYC;2002-09-16 13:00;METAR CYYC 161300Z 23003KT 40SM FEW140 OVC250 09/M01 A2967 RMK AC2CI5
CYYC;2002-09-16 14:00;METAR CYYC 161400Z 20008KT 40SM SCT140 BKN260 10/M01 A2967 RMK AC3CI3
CYYC;2002-09-16 15:00;METAR CYYC 161500Z 19004KT 40SM SCT140 BKN260 12/01 A2967 RMK AC3CI2 SLP047
CYYC;2002-09-16 16:00;METAR CYYC 161600Z 25004KT 40SM BKN140 BKN260 13/02 A2967 RMK AC4CI1
CYYC;2002-09-16 17:00;METAR CYYC 161700Z 00000KT 40SM SCT140 BKN270 18/01 A2966 RMK AC3CI1
CYYC;2002-09-16 18:00;METAR CYYC 161800Z 19003KT 40SM FEW064 SCT130 BKN270 19/01 A2966 RMK SC1AC2CI0 SLP041 SLP041
CYYC;2002-09-16 19:00;METAR CYYC 161900Z 00000KT 40SM FEW064 BKN096 BKN270 19/02 A2964 RMK SC1AC3CI0 SLP036 SLP036
CYYC;2002-09-16 21:00;METAR CYYC 162100Z CCA 29015G21KT 40SM FEW064 SCT130 BKN270 23/01 A2962 RMK SC1AC2CI0 SLP029
CYYC;2002-09-16 22:00;METAR CYYC 162200Z 27020G25KT 40SM FEW064 SCT130 BKN270 22/01 A2962 RMK SC1AC1CI1 SLP028
CYYC;2002-09-16 23:00;METAR CYYC 162300Z 27024G29KT 40SM FEW064 BKN150 BKN270 21/00 A2963 RMK SC1AC2CI0 SLP030 SLP030
CYYC;2002-09-17 00:00;METAR CYYC 170000Z 26017KT 30SM FEW064 FEW150 SCT270 20/00 A2964 RMK SC1AC1CI0 SLP039 SLP039
CYYC;2002-09-17 01:00;METAR CYYC 170100Z 26013G18KT 20SM FEW064 SCT150 BKN270 19/00 A2964 RMK SC1AC2CI0 SLP040 SLP040
CYYC;2002-09-17 02:00;METAR CYYC 170200Z 26017KT 20SM FEW060 SCT120 BKN250 17/M01 A2964 RMK SC1AC2CI1 SLP041 SLP041
CYYC;2002-09-17 03:00;METAR CYYC 170300Z 26020G25KT 15SM FEW060 FEW120 SCT250 16/M02 A2965 RMK SC1AC2CI0 SLP045
CYYC;2002-09-17 04:00;METAR CYYC 170400Z 27015G21KT 15SM SCT120 OVC250 16/M01 A2967 RMK AC2CI2 SLP050
CYYC;2002-09-17 05:00;METAR CYYC 170500Z 27013KT 15SM FEW120 SCT270 14/M01 A2968 RMK AC2CI0 SLP054
CYYC;2002-09-17 06:00;METAR CYYC 170600Z 32008KT 15SM FEW120 FEW250 11/M01 A2969 RMK AC1CI1 SLP055
CYYC;2002-09-17 07:00;METAR CYYC 170700Z 31014KT 15SM FEW120 SCT250 10/02 A2975 RMK AC1CI2 SLP073
CYYC;2002-09-17 08:00;METAR CYYC 170800Z 34010G17KT 15SM FEW140 SCT250 09/02 A2974 RMK AC2CI2 SLP072
CYYC;2002-09-17 09:00;METAR CYYC 170900Z 32007KT 15SM FEW140 SCT250 08/01 A2975 RMK AC2CI1 SLP074
CYYC;2002-09-17 10:00;METAR CYYC 171000Z 33009KT 15SM FEW140 BKN250 08/01 A2974 RMK AC2CI2 SLP071
CYYC;2002-09-17 11:00;METAR CYYC 171100Z 32008KT 15SM SCT110 BKN250 08/01 A2975 RMK AC3CI2
CYYC;2002-09-17 12:00;METAR CYYC 171200Z 30004KT 15SM SCT100 BKN250 08/01 A2977 RMK AC4CI2 SLP087
CYYC;2002-09-17 13:00;METAR CYYC 171300Z 33004KT 20SM FEW070 BKN100 OVC250 08/01 A2978 RMK AC2AC4CI2 VIRGA SLP089 VIRGA SLP089 CF1AC2AC4CI2 VIRGA SE-S SLP095
CYYC;2002-09-17 15:00;METAR CYYC 171500Z 32006KT 30SM BKN060 BKN085 OVC095 09/02 A2981 RMK SC6AC1AS2 SUN DIMLY VSB SLP104 SUN DIMLY VSB SLP104
CYYC;2002-09-17 16:00;METAR CYYC 171600Z 35006KT 30SM BKN065 BKN085 OVC100 10/02 A2982 RMK SC5AC1AS2 SUN DIMLY VSB SLP107 SUN DIMLY VSB SLP107
CYYC;2002-09-17 17:00;METAR CYYC 171700Z 03007KT 30SM FEW058 FEW065 SCT100 OVC110 12/01 A2982 RMK CF1SC2AC2AS4 SUN DIMLY VSB TR CF SLP107
CYYC;2002-09-17 18:00;METAR CYYC 171800Z 02003KT 30SM FEW040 BKN053 BKN090 OVC100 12/M00 A2982 RMK CU1SC5AC1AS2 SUN DIMLY VSB SLP112 CU1SC5AC1AS2 SUN DIMLY VSB SLP112 CU3SC4AS1 SLP115
CYYC;2002-09-17 20:00;METAR CYYC 172000Z 14002KT 20SM FEW035 BKN042 OVC090 11/01 A2983 RMK CU2SC5AS2 SUN DIMLY VSB SLP115 SUN DIMLY VSB SLP115
CYYC;2002-09-17 21:00;METAR CYYC 172100Z 16003KT 20SM FEW040 BKN046 OVC080 12/00 A2982 RMK CU1SC5AS2 SUN DIMLY VSB SLP116 SUN DIMLY VSB SLP116
CYYC;2002-09-17 22:00;METAR CYYC 172200Z 08004KT 30SM FEW040 BKN045 BKN080 13/00 A2982 RMK CU1SC4AS2 SUN DIMLY VSB SLP116
CYYC;2002-09-17 23:00;METAR CYYC 172300Z 15004KT 30SM FEW040 BKN043 BKN069 BKN073 BKN250 12/00 A2983 RMK CU1SC5AC1AS1CC1 TR CU TR AC SLP117 RMK CU1SC5AC1AS1CC1 TR CU TR AC SLP117
CYYC;2002-09-18 00:00;METAR CYYC 180000Z 19009KT 30SM FEW045 BKN070 BKN100 12/01 A2983 RMK CU1AC5AS2 SUN DIMLY VSB TR CU SLP117 SUN DIMLY VSB TR CU SLP117
CYYC;2002-09-18 01:00;METAR CYYC 180100Z 18007KT 30SM -RA FEW055 BKN060 BKN100 11/01 A2984 RMK CU1SC4AS2 SLP121
CYYC;2002-09-18 02:00;METAR CYYC 180200Z 17006KT 20SM -SHRA SCT051 OVC090 10/01 A2985 RMK SC4AC4 ACC ASOCTD W SLP125 ASOCTD W SLP125
CYYC;2002-09-18 03:00;METAR CYYC 180300Z 18005KT 15SM BKN080 OVC110 10/02 A2986 RMK AC6AC2 SLP130
CYYC;2002-09-18 04:00;METAR CYYC 180400Z 19004KT 15SM SCT080 BKN120 09/02 A2988 RMK AC3AC2 SLP135
CYYC;2002-09-18 05:00;METAR CYYC 180500Z 33005KT 15SM FEW082 BKN120 OVC250 07/01 A2989 RMK AC2AC3CI1 SLP140 SLP140
CYYC;2002-09-18 06:00;METAR CYYC 180600Z 33008KT 15SM FEW090 FEW120 SCT250 06/01 A2990 RMK AC1AC1CI0 SLP146 SLP146
CYYC;2002-09-18 07:00;METAR CYYC 180700Z 28004KT 15SM FEW080 SCT120 BKN250 05/00 A2990 RMK AC2AC2CI0 SLP147 SLP147
CYYC;2002-09-18 08:00;METAR CYYC 180800Z 21008KT 15SM SCT068 BKN080 BKN110 06/01 A2991 RMK AC3AC2AC2 SLP149 SLP149
CYYC;2002-09-18 09:00;METAR CYYC 180900Z 24005KT 15SM FEW068 SCT110 06/01 A2991 RMK AC2AC2 SLP150
CYYC;2002-09-18 10:00;METAR CYYC 181000Z 33008KT 15SM FEW074 SCT110 06/01 A2992 RMK AC2AC2 SLP151
CYYC;2002-09-18 11:00;METAR CYYC 181100Z 00000KT 15SM BKN074 BKN090 05/01 A2993 RMK AC5AC1 SLP155
CYYC;2002-09-18 12:00;METAR CYYC 181200Z 30003KT 15SM SCT070 BKN100 05/00 A2994 RMK AC3AC2 SLP160
CYYC;2002-09-18 13:00;METAR CYYC 181300Z 32004KT 20SM FEW060 SCT083 BKN095 OVC250 04/M00 A2994 RMK SC1AC3AC2CI1 SC TR SLP162 SC1AC3AC2CI1 SC TR SLP162
CYYC;2002-09-18 14:00;METAR CYYC 181400Z 00000KT 40SM FEW056 FEW080 FEW120 SCT270 05/M00 A2994 RMK CU0AC1AC0CI1 SLP161 CU0AC1AC0CI1 SLP161 SLP162
CYYC;2002-09-18 16:00;METAR CYYC 181600Z 21004KT 40SM FEW080 BKN270 10/02 A2994 RMK AC1CI1 AC TR / ACC ASOCTD E SLP161 ASOCTD E SLP161
CYYC;2002-09-18 17:00;METAR CYYC 181700Z 22007KT 40SM FEW080 BKN270 12/01 A2993 RMK AC1CI1 AC TR SLP156
CYYC;2002-09-18 18:00;METAR CYYC 181800Z 21006KT 40SM FEW060 FEW080 BKN270 14/02 A2991 RMK CU1AC1CI1 CU+AC TR SLP147 CU+AC TR SLP147
CYYC;2002-09-18 19:00;METAR CYYC 181900Z 23008G18KT 40SM FEW060 BKN270 15/M02 A2989 RMK CU1CI1 SLP141
CYYC;2002-09-18 20:00;METAR CYYC 182000Z 20007KT 40SM FEW066 BKN270 17/M01 A2987 RMK CU2CI1 SLP136
CYYC;2002-09-18 21:00;METAR CYYC 182100Z 29016G21KT 40SM FEW070 SCT250 BKN270 17/M05 A2987 RMK CU2CI1CI1 SLP127
CYYC;2002-09-18 22:00;METAR CYYC 182200Z 26014KT 30SM FEW080 FEW100 FEW200 BKN270 18/M04 A2985 RMK AC2AC0CI1CI0 SLP122 AC2AC0CI1CI0 SLP122
CYYC;2002-09-18 23:00;METAR CYYC 182300Z 25015KT 30SM FEW100 FEW200 BKN270 17/M04 A2984 RMK AC1CI1CI0 SLP117 SLP117
CYYC;2002-09-19 00:00;METAR CYYC 190000Z 26018KT 30SM FEW100 BKN200 16/M03 A2981 RMK AC1CI1 SLP109
CYYC;2002-09-19 01:00;METAR CYYC 190100Z 27019G28KT 30SM FEW100 FEW200 15/M03 A2982 RMK AC0CI0 CLDS TR SLP111 SLP111
CYYC;2002-09-19 02:00;METAR CYYC 190200Z 26014KT 40SM FEW070 FEW100 FEW250 13/M03 A2982 RMK CU1AC2CI0 TR CU SLP111 TR CU SLP111
CYYC;2002-09-19 03:00;METAR CYYC 190300Z 26011G16KT 15SM FEW070 FEW110 12/M03 A2982 RMK CU1AC1 TR CU SLP113 SLP113
CYYC;2002-09-19 04:00;METAR CYYC 190400Z 26011KT 15SM FEW110 12/M02 A2981 RMK AC1 SLP111
CYYC;2002-09-19 05:00;METAR CYYC 190500Z 25012KT 15SM FEW120 13/M02 A2979 RMK AC2 SLP105
CYYC;2002-09-19 06:00;METAR CYYC 190600Z 26011G16KT 15SM FEW120 BKN250 13/M01 A2977 RMK AC1CI2 SLP086
CYYC;2002-09-19 07:00;METAR CYYC 190700Z 21006KT 15SM BKN250 10/M01 A2975 RMK CI2 SLP080
CYYC;2002-09-19 08:00;METAR CYYC 190800Z 00000KT 15SM BKN250 09/M01 A2973 RMK CI2 SLP076
CYYC;2002-09-19 09:00;METAR CYYC 190900Z 18010KT 15SM BKN270 13/M00 A2973 RMK CI2 SLP069
CYYC;2002-09-19 10:00;METAR CYYC 191000Z 22013G18KT 15SM BKN270 16/00 A2968 RMK CI2 SLP055
CYYC;2002-09-19 14:00;METAR CYYC 191400Z 23005KT 40SM FEW090 FEW140 BKN270 14/00 A2963 RMK AC0AC2CI2 SLP031 SLP031
CYYC;2002-09-19 15:00;METAR CYYC 191500Z 23008G21KT 40SM FEW070 FEW140 FEW270 17/M00 A2961 RMK CU0AC1CI0 CU+CI TR SLP029
CYYC;2002-09-19 16:00;METAR CYYC 191600Z 21011KT 40SM FEW070 FEW140 FEW270 18/01 A2958 RMK CU0AC1CI0 CU+CI TR SLP019 CU+CI TR SLP019
CYYC;2002-09-19 17:00;METAR CYYC 191700Z 22010KT 40SM FEW070 FEW140 20/01 A2956 RMK CU0AC1 SLP014
CYYC;2002-09-19 18:00;METAR CYYC 191800Z 20009KT 40SM FEW070 BKN140 22/01 A2953 RMK CU1AC4 CU TR SLP994
CYYC;2002-09-19 19:00;METAR CYYC 191900Z 27012KT 40SM FEW070 FEW100 BKN140 22/00 A2949 RMK CU1AC1AC6 CU TR SLP982 TR SLP982
CYYC;2002-09-19 20:00;METAR CYYC 192000Z 26020G25KT 40SM FEW070 BKN140 21/M01 A2947 RMK CU1AC6 SLP974
CYYC;2002-09-19 21:00;METAR CYYC 192100Z 25015G20KT 40SM FEW070 BKN140 22/00 A2945 RMK CU1AC6 SLP965
CYYC;2002-09-19 22:00;METAR CYYC 192200Z 23016G21KT 40SM FEW050 FEW070 BKN140 23/01 A2942 RMK CF0CU1AC3 ACSL ASOCTD SLP957 ACSL ASOCTD SLP957
CYYC;2002-09-19 23:00;METAR CYYC 192300Z 36026G32KT 15SM FEW070 BKN140 12/01 A2951 RMK CU1AC2 PRESRR SLP983 SLP983
CYYC;2002-09-20 00:00;METAR CYYC 200000Z 36027G33KT 10SM FEW060 FEW080 FEW140 09/M01 A2957 RMK SC1AC1AC1 SLP018
CYYC;2002-09-20 01:00;METAR CYYC 200100Z 36025G33KT 20SM SCT027 BKN084 07/M03 A2961 RMK SC3AC2 SLP031
CYYC;2002-09-20 02:00;METAR CYYC 200200Z 01017KT 15SM -RA BKN019 OVC045 05/M01 A2965 RMK SC6SC2 SLP045
CYYC;2002-09-20 03:00;METAR CYYC 200300Z 36014G20KT 5SM -SHRA OVC011 03/M01 A2970 RMK SC8 TCU EMBDD SLP073 SLP073
CYYC;2002-09-20 04:00;METAR CYYC 200400Z 24010KT 2SM -SN BKN009 OVC011 01/M03 A2972 RERA RMK SC5SC3 SNW VRY WET SLP080 VRY WET SLP080
CYYC;2002-09-20 05:00;METAR CYYC 200500Z 19013KT 15SM FEW042 SCT053 OVC095 03/M01 A2967 RMK SC2SC2AC3 SLP065 SLP065
CYYC;2002-09-20 06:00;METAR CYYC 200600Z 10002KT 15SM SCT015 BKN050 OVC100 04/M01 A2971 RMK SC3SC2AC2 SLP070 SLP070
CYYC;2002-09-20 07:00;METAR CYYC 200700Z 33003KT 15SM FEW050 FEW100 FEW250 02/M02 A2974 RMK SC2AC1CI1 CI TR SLP079 CI TR SLP079
CYYC;2002-09-20 08:00;METAR CYYC 200800Z 34002KT 15SM FEW100 02/M02 A2976 RMK AC1 SLP085
CYYC;2002-09-20 09:00;METAR CYYC 200900Z 19007KT 15SM FEW120 01/M02 A2978 RMK AC1 SLP095
CYYC;2002-09-20 10:00;METAR CYYC 201000Z 00000KT 15SM SCT090 03/M01 A2980 RMK AC2 SLP103
CYYC;2002-09-20 11:00;METAR CYYC 201100Z 22002KT 15SM FEW120 02/M02 A2981 RMK AC2 SLP105
CYYC;2002-09-20 12:00;METAR CYYC 201200Z 21004KT 15SM SCT110 01/M02 A2983 RMK AC4 SLP130
CYYC;2002-09-20 13:00;METAR CYYC 201300Z 00000KT 20SM FEW060 BKN090 OVC120 02/M02 A2985 RMK SC2AC4AC2 SLP136 SLP136
CYYC;2002-09-20 14:00;METAR CYYC 201400Z 20004KT 40SM FEW060 BKN085 03/M02 A2986 RMK CF1AC6 SH DIST E SLP142 SLP142
CYYC;2002-09-20 15:00;METAR CYYC 201500Z 22006KT 40SM FEW060 BKN080 03/M02 A2988 RMK CF2AC5 SH DIST E QUADS SLP155 QUADS SLP155
CYYC;2002-09-20 16:00;METAR CYYC 201600Z 17003KT 40SM FEW078 FEW085 BKN100 06/M01 A2990 RMK AC1AC2AC4 VIRGA E SLP160 VIRGA E SLP160
CYYC;2002-09-20 17:00;METAR CYYC 201700Z 19005KT 40SM FEW078 BKN086 08/M00 A2991 RMK AC0AC7 VIRGA E SLP163 SLP163
CYYC;2002-09-20 18:00;METAR CYYC 201800Z 08002KT 40SM FEW065 BKN085 11/00 A2991 RMK CU2AC2 SLP152
CYYC;2002-09-20 20:00;METAR CYYC 202000Z 28007KT 40SM FEW060 BKN074 12/M04 A2991 RMK CU1AC6 SLP153
CYYC;2002-09-20 21:00;METAR CYYC 202100Z 36012KT 40SM FEW060 BKN076 11/M05 A2991 RMK CU0AC7 VIRGA ALQDS SLP159 SLP159
CYYC;2002-09-20 23:00;METAR CYYC 202300Z 28008G16KT 40SM -SHRA SCT040 BKN061 BKN090 09/M04 A2994 RMK SC4SC3AC0 TCU EMBD / RW- INTMT SLP168 SC4SC3AC0 TCU EMBD / RW- INTMT SLP168
CYYC;2002-09-21 01:00;METAR CYYC 210100Z 19003KT 40SM FEW020 SCT044 SCT065 BKN081 BKN270 07/M00 A2997 RMK SC1SC2SC1AC2CI1 TCU EMBD / VIRGA ALQDS SLP180 RMK SC1SC2SC1AC2CI1 TCU EMBD / VIRGA ALQDS SLP180
CYYC;2002-09-21 02:00;METAR CYYC 210200Z 31008KT 15SM SCT065 BKN090 OVC120 07/M04 A2999 RMK SC4AC2AC2 VIRGA ALQDS/ ACC EMBDD SLP186 VIRGA ALQDS/ ACC EMBDD SLP186
CYYC;2002-09-21 03:00;METAR CYYC 210300Z 28005KT 15SM BKN062 BKN083 OVC120 07/M03 A3002 RMK SC5AC2AC1 VIRGA SW SLP197 VIRGA SW SLP197
CYYC;2002-09-21 04:00;METAR CYYC 210400Z 36011KT 15SM SCT033 BKN085 OVC120 06/M03 A3005 RMK SC3AC2AC2 SLP206 SLP206
CYYC;2002-09-21 05:00;METAR CYYC 210500Z 34011G17KT 15SM SCT061 BKN095 BKN110 05/M02 A3008 RMK SC3AC2AC1 VIRGA SW SLP215
CYYC;2002-09-21 06:00;METAR CYYC 210600Z 33011KT 15SM FEW079 FEW095 SCT250 04/M02 A3008 RMK AC2AC1CI0 SLP214 SLP214
CYYC;2002-09-21 07:00;METAR CYYC 210700Z 33011KT 15SM FEW090 FEW250 03/M03 A3010 RMK AC1CI0 AC TR SLP220
CYYC;2002-09-21 08:00;METAR CYYC 210800Z 32012KT 15SM FEW090 03/M03 A3011 RMK AC1 SLP223
CYYC;2002-09-21 09:00;METAR CYYC 210900Z 31009KT 15SM BKN081 OVC095 04/M03 A3013 RMK AC6AC2 SLP231
CYYC;2002-09-21 10:00;METAR CYYC 211000Z 31009KT 15SM FEW081 03/M03 A3015 RMK AC2 SLP237
CYYC;2002-09-21 11:00;METAR CYYC 211100Z 32008KT 15SM FEW082 02/M04 A3017 RMK AC2 SLP244
CYYC;2002-09-21 12:00;METAR CYYC 211200Z 31006KT 15SM SCT079 BKN090 02/M04 A3020 RMK AC3AC2 SLP259
CYYC;2002-09-21 13:00;METAR CYYC 211300Z 31005KT 30SM FEW079 BKN110 BKN250 01/M04 A3021 RMK AC2AC3CI1 VIRGA E/ ACC EMBDD SLP263 VIRGA E/ ACC EMBDD SLP263
CYYC;2002-09-21 14:00;METAR CYYC 211400Z 33009KT 40SM BKN080 BKN250 03/M03 A3024 RMK AC4CI1 SLP272
CYYC;2002-09-21 15:00;METAR CYYC 211500Z 33010G16KT 40SM FEW080 FEW250 04/M03 A3026 RMK AC1CI1 SLP281
CYYC;2002-09-21 16:00;METAR CYYC 211600Z 33017G25KT 40SM FEW030 FEW080 FEW250 07/M04 A3028 RMK CU1AC1CI0 SLP286
CYYC;2002-09-21 17:00;METAR CYYC 211700Z 32017KT 40SM FEW030 FEW080 BKN260 08/M03 A3029 RMK CU1AC1CI1 SLP290 SLP290
CYYC;2002-09-21 18:00;METAR CYYC 211800Z 34012G19KT 40SM FEW042 FEW090 BKN260 10/M03 A3029 RMK CU1AC1CI1 SLP288
CYYC;2002-09-21 19:00;METAR CYYC 211900Z 32010G17KT 40SM FEW050 SCT060 BKN260 11/M03 A3029 RMK CU1CU2CI0 SLP288
CYYC;2002-09-21 20:00;METAR CYYC 212000Z 33009KT 40SM FEW055 SCT070 BKN260 11/M04 A3028 RMK CU1CU3CI0 SLP284 SLP284
CYYC;2002-09-21 21:00;METAR CYYC 212100Z 01005KT 40SM FEW055 SCT070 SCT260 10/M04 A3026 RMK CU1CU2CI0 SLP276 SLP276
CYYC;2002-09-21 22:00;METAR CYYC 212200Z 01002KT 40SM FEW055 FEW070 BKN260 12/M05 A3025 RMK CU1CU1CI0 SLP272
CYYC;2002-09-21 23:00;METAR CYYC 212300Z 07004KT 40SM FEW055 FEW070 BKN260 12/M04 A3022 RMK CU1CU1CI0 SLP264 SLP264
CYYC;2002-09-22 00:00;METAR CYYC 220000Z CCA 19010KT 40SM FEW055 FEW120 SCT260 12/M03 A3020 RMK
CYYC;2002-09-22 01:00;METAR CYYC 220100Z 17011KT 40SM FEW080 FEW120 FEW260 11/M04 A3019 RMK AC1AC1CI0 ACSL SLP251 ACSL SLP251
CYYC;2002-09-22 02:00;METAR CYYC 220200Z 16007KT 20SM FEW060 FEW100 FEW250 09/M04 A3016 RMK SC1AC1CI0 SLP244 SLP244
CYYC;2002-09-22 03:00;METAR CYYC 220300Z 12006KT 15SM FEW060 FEW100 FEW250 05/M04 A3015 RMK SC1AC1CI0 SC TR SLP246 SC TR SLP246
CYYC;2002-09-22 04:00;METAR CYYC 220400Z 14007KT 15SM FEW100 FEW250 05/M04 A3012 RMK AC1CI0 SLP235
CYYC;2002-09-22 05:00;METAR CYYC 220500Z 13007KT 15SM SKC 03/M05 A3010 RMK SLP230
CYYC;2002-09-22 06:00;METAR CYYC 220600Z 15006KT 15SM FEW100 FEW250 03/M04 A3007 RMK AC1CI0 SLP213
CYYC;2002-09-22 07:00;METAR CYYC 220700Z 19005KT 15SM FEW120 FEW250 02/M04 A3006 RMK AC2CI0 SLP208
CYYC;2002-09-22 08:00;METAR CYYC 220800Z 19003KT 15SM FEW079 SCT095 03/M04 A3003 RMK AC2AC2 SLP200
CYYC;2002-09-22 09:00;METAR CYYC 220900Z 21004KT 15SM FEW077 BKN120 04/M04 A3001 RMK AC2AC1 SLP190
CYYC;2002-09-22 11:00;METAR CYYC 221100Z 36007KT 15SM SCT073 BKN096 07/M03 A3003 RMK AC3AC2 SLP194
CYYC;2002-09-22 12:00;METAR CYYC 221200Z 33009KT 15SM SCT075 BKN095 05/M04 A3003 RMK AC3AC2
CYYC;2002-09-22 13:00;METAR CYYC 221300Z 34008KT 20SM SCT083 OVC100 03/M04 A3007 RMK AC3AC2 SLP204
CYYC;2002-09-22 14:00;METAR CYYC 221400Z 36015G22KT 40SM BKN023 BKN089 BKN260 07/M01 A3011 RMK SC2AC3CI1 SLP216
CYYC;2002-09-22 15:00;METAR CYYC 221500Z 35016G22KT 40SM FEW023 FEW083 BKN094 BKN260 07/M00 A3016 RMK CU1AC1AC6CI1 PRESRR SLP245 CU1AC1AC6CI1 PRESRR SLP245
CYYC;2002-09-22 16:00;METAR CYYC 221600Z 34018G24KT 20SM FEW020 BKN057 BKN094 07/M01 A3020 RMK CU1SC6AC1 CF ASOCTD SLP257
CYYC;2002-09-22 17:00;METAR CYYC 221700Z 33020G28KT 20SM FEW025 BKN059 07/M02 A3024 RMK CU2SC6 SLP269
CYYC;2002-09-22 18:00;METAR CYYC 221800Z 34020G26KT 20SM FEW030 OVC064 06/M02 A3026 RMK CU2SC6 SLP285
CYYC;2002-09-22 19:00;METAR CYYC 221900Z 34020G26KT 15SM SCT035 OVC064 07/M02 A3030 RMK CU3SC5 SLP295
CYYC;2002-09-22 20:00;METAR CYYC 222000Z 33018KT 12SM SCT030 BKN080 07/M02 A3031 RMK CU4AC3 SLP300
CYYC;2002-09-22 21:00;METAR CYYC 222100Z 34017KT 12SM SCT030 BKN078 08/M03 A3033 RMK SC3AC4 SLP306
CYYC;2002-09-22 22:00;METAR CYYC 222200Z 35014KT 30SM FEW030 OVC079 07/M02 A3034 RMK SC2AC6 SHWRS DIST SW SLP308 SW SLP308
CYYC;2002-09-22 23:00;METAR CYYC 222300Z 01011G16KT 30SM FEW030 BKN077 BKN098 07/M02 A3035 RMK SC2AC3AC2 SLP311
CYYC;2002-09-23 00:00;METAR CYYC 230000Z 36006KT 30SM -RA FEW030 BKN073 BKN110 07/M02 A3036 RMK SC2AC3AC1 SLP313
CYYC;2002-09-23 01:00;METAR CYYC 230100Z 35007KT 30SM FEW030 BKN070 BKN090 06/M02 A3035 RMK SC1AC6AC1 SLP312 SLP312
CYYC;2002-09-23 02:00;METAR CYYC 230200Z 35005KT 15SM FEW037 OVC065 06/M02 A3036 RMK SC2SC6 SLP314
CYYC;2002-09-23 03:00;METAR CYYC 230300Z 01002KT 15SM BKN062 OVC099 06/M03 A3036 RMK SC6AC2 SLP315
CYYC;2002-09-23 04:00;METAR CYYC 230400Z 00000KT 15SM BKN060 BKN072 OVC097 04/M02 A3037 RMK SC5AC2AC1 SLP316 SLP316
CYYC;2002-09-23 05:00;METAR CYYC 230500Z 11002KT 15SM SCT056 BKN074 OVC090 04/M03 A3036 RMK SC4AC2AC1 SLP314
CYYC;2002-09-23 06:00;METAR CYYC 230600Z 18004KT 15SM SCT038 BKN062 OVC075 03/M02 A3035 RMK SC4SC2AC1 SLP312
CYYC;2002-09-23 07:00;METAR CYYC 230700Z 16006KT 15SM FEW036 SCT054 BKN088 03/M03 A3033 RMK SC2SC2AC2 SLP306 SLP306
CYYC;2002-09-23 08:00;METAR CYYC 230800Z 16005KT 15SM SCT056 BKN078 04/M03 A3031 RMK SC3AC2 SLP300
CYYC;2002-09-23 09:00;METAR CYYC 230900Z 16005KT 15SM FEW078 02/M03 A3028 RMK AC1 SLP289
CYYC;2002-09-23 10:00;METAR CYYC 231000Z 16006KT 15SM SKC 02/M03 A3026 RMK SLP282
CYYC;2002-09-23 11:00;METAR CYYC 231100Z 18006KT 15SM SKC 01/M04 A3022 RMK SLP270
CYYC;2002-09-23 13:00;METAR CYYC 231300Z 18007KT 30SM FEW120 SCT250 00/M04 A3016 RMK AC2CI0 SLP254
CYYC;2002-09-23 14:00;METAR CYYC 231400Z 18005KT 40SM FEW070 BKN080 BKN250 01/M03 A3014 RMK CU1AC6CI0 TR CU SLP248 TR CU SLP248
CYYC;2002-09-23 15:00;METAR CYYC 231500Z 20005KT 40SM FEW070 FEW090 BKN250 03/M03 A3012 RMK CU1AC2CI1 CC ASOCTD TR CU SLP236 CC ASOCTD TR CU SLP236
CYYC;2002-09-23 16:00;METAR CYYC 231600Z 19007KT 40SM FEW070 SCT080 SCT250 06/M02 A3010 RMK CU1AC3CI0 TR CU CC ASOCTD SLP231 TR CU CC ASOCTD SLP231
CYYC;2002-09-23 17:00;METAR CYYC 231700Z 18008KT 40SM FEW070 SCT085 BKN270 08/M01 A3008 RMK CU1AC2CI1 TR CU COTRA CC ASOCTD SLP223 TR CU COTRA CC ASOCTD SLP223
CYYC;2002-09-23 18:00;METAR CYYC 231800Z 22004KT 40SM FEW075 FEW120 BKN270 10/M01 A3008 RMK CU1AC2CI2 TR CU COTRA CS ASOCTD SLP214 TR CU COTRA CS ASOCTD SLP214
CYYC;2002-09-23 19:00;METAR CYYC 231900Z 18002KT 40SM FEW080 BKN110 BKN270 11/M00 A3006 RMK CU1AC6CS1 TR CU SLP209 TR CU SLP209
CYYC;2002-09-23 20:00;METAR CYYC 232000Z 00000KT 40SM FEW070 BKN090 BKN270 13/01 A3005 RMK CU1AC6CI1 TR CU SLP206 CU SLP206
CYYC;2002-09-23 21:00;METAR CYYC 232100Z 04007KT 40SM FEW070 BKN090 BKN270 14/00 A3002 RMK CU1AC6CI1 TR CU SLP190 CU SLP190
CYYC;2002-09-23 22:00;METAR CYYC 232200Z 04009KT 30SM -RA FEW060 BKN085 OVC270 14/01 A3003 RMK CU1AC6CI1 TR CU SLP192
CYYC;2002-09-23 23:00;METAR CYYC 232300Z 03011KT 30SM FEW074 BKN100 BKN270 13/01 A3002 RMK CU1AC6CI1 TR CU TR CI SLP188 CU TR CI SLP188
CYYC;2002-09-24 00:00;METAR CYYC 240000Z 03015KT 30SM FEW070 BKN100 BKN270 11/01 A3003 RMK CU1AC6CI1 TR CU SLP199 CU SLP199
CYYC;2002-09-24 01:00;METAR CYYC 240100Z 01017G24KT 30SM FEW056 BKN070 BKN270 08/03 A3004 RMK CU2AC3CI1 SLP202 SLP202
CYYC;2002-09-24 02:00;METAR CYYC 240200Z 01018KT 4SM -RA SCT006 BKN040 OVC070 07/03 A3006 RMK SF4SC2AC2 SLP210 SLP210
CYYC;2002-09-24 03:00;METAR CYYC 240300Z 36011KT 5SM -RA FEW003 FEW006 BKN020 OVC040 06/03 A3009 RERA RMK SF1SF2SC4SC2 SLP224 RMK SF1SF2SC4SC2 SLP224
CYYC;2002-09-24 04:00;METAR CYYC 240400Z 35008KT 15SM -RA FEW006 OVC041 07/03 A3009 RMK SF1SC7 R- INTMT SLP224 SLP224
CYYC;2002-09-24 05:00;METAR CYYC 240500Z 34009KT 15SM FEW020 OVC041 07/02 A3010 RMK SC2SC6 CU + CF ASOCTD SLP228 ASOCTD SLP228
CYYC;2002-09-24 06:00;METAR CYYC 240600Z 33014KT 15SM -SHRA FEW015TCU OVC048 06/02 A3011 RMK TCU2SC6 SLP221 SLP221
CYYC;2002-09-24 07:00;METAR CYYC 240700Z 34009KT 15SM FEW020 OVC053 05/00 A3012 RMK SC1SC7 SLP225
CYYC;2002-09-24 08:00;METAR CYYC 240800Z 33008KT 15SM FEW025 OVC058 05/M00 A3013 RMK CF1SC8 SLP228
CYYC;2002-09-24 09:00;METAR CYYC 240900Z 32007KT 15SM -SHRA FEW030 OVC068 05/M00 A3014 RMK CU1AC8 SLP229
CYYC;2002-09-24 10:00;METAR CYYC 241000Z 31006KT 15SM -SHRA FEW020 FEW030 BKN072 OVC097 04/M00 A3015 RMK SC1SC2AC4AC1 MN VSB SLP232 RMK SC1SC2AC4AC1 MN VSB SLP232
CYYC;2002-09-24 11:00;METAR CYYC 241100Z 33005KT 15SM FEW025 BKN067 OVC100 04/M01 A3016 RMK SC1AC6AC2 SLP234 SLP234 SC1SC1SC5AC2 CU + CF ASOCTD SLP242
CYYC;2002-09-24 13:00;METAR CYYC 241300Z 35003KT 15SM FEW045 OVC060 04/M01 A3016 RMK CU1SC7 SLP240
CYYC;2002-09-24 14:00;METAR CYYC 241400Z 34003KT 20SM -RA FEW015 FEW045 OVC064 04/M01 A3017 RMK SF1CU1SC7 TR SF SLP242
CYYC;2002-09-24 15:00;METAR CYYC 241500Z 00000KT 20SM -RA FEW024 FEW031 BKN065 BKN130 04/M01 A3017 RMK SF1CU2SC5AC1 TR SF TR AC SLP249 SF1CU2SC5AC1 TR SF TR AC SLP249
CYYC;2002-09-24 16:00;METAR CYYC 241600Z 00000KT 20SM FEW015 FEW045 BKN065 04/M01 A3018 RMK SF1CU2SC4 TR SF SLP252 TR SF SLP252
CYYC;2002-09-24 17:00;METAR CYYC 241700Z 03002KT 10SM -RA FEW014 FEW040 OVC060 05/02 A3019 RMK SF1CU2SC6 TR SF SLP256
CYYC;2002-09-24 18:00;METAR CYYC 241800Z 32004KT 10SM -RA FEW015 FEW024 OVC034 05/02 A3019 RMK SF1CU2SC6 TR SF SLP257
CYYC;2002-09-24 19:00;METAR CYYC 241900Z 22005KT 20SM FEW015 FEW020 SCT030 BKN090 06/02 A3018 RMK SF1CU2SC2AC2 TR SF SLP254
CYYC;2002-09-24 20:00;METAR CYYC 242000Z 22009KT 20SM FEW016 FEW025 SCT035 BKN095 07/03 A3018 RMK SF1CU1SC2AC2 TR SF SLP252 SF1CU4AC1CI1 TR SF TR CI TCU ASOCTD SLP244
CYYC;2002-09-24 23:00;METAR CYYC 242300Z 00000KT 30SM FEW036 FEW043 BKN050 BKN096 10/M00 A3015 RMK SF1CU2SC3AC1 TR SF SLP241 SF1CU2SC3AC1 TR SF SLP241
CYYC;2002-09-25 00:00;METAR CYYC 250000Z 32005KT 30SM FEW038 FEW042 BKN050 BKN085 09/01 A3016 RMK SF1CU1SC6AC1 TR SF TR AC SLP243
CYYC;2002-09-25 01:00;METAR CYYC 250100Z 35003KT 30SM FEW052 FEW055 BKN060 BKN096 08/02 A3016 RMK CF1CU1SC6AC1 TR CF TR CU TR AC SLP242
CYYC;2002-09-25 02:00;METAR CYYC 250200Z 00000KT 15SM BKN069 08/02 A3017 RMK AC7 SLP245
CYYC;2002-09-25 03:00;METAR CYYC 250300Z 32004KT 15SM BKN080 07/03 A3018 RMK AC7 SLP251
CYYC;2002-09-25 04:00;METAR CYYC 250400Z 30004KT 15SM FEW055 BKN080 07/03 A3019 RMK SC1AC5 SLP254
CYYC;2002-09-25 05:00;METAR CYYC 250500Z 32008KT 15SM FEW055 BKN083 06/02 A3020 RMK CU1AC4 SLP259
CYYC;2002-09-25 06:00;METAR CYYC 250600Z 31007KT 15SM FEW060 SCT080 03/02 A3021 RMK SC1AC2 SLP268
CYYC;2002-09-25 07:00;METAR CYYC 250700Z 28005KT 15SM FEW070 SCT084 02/01 A3022 RMK AC1AC3 SLP269
CYYC;2002-09-25 08:00;METAR CYYC 250800Z 20004KT 15SM BKN088 03/01 A3021 RMK AC4 SLP266
CYYC;2002-09-25 09:00;METAR CYYC 250900Z 21003KT 15SM FEW070 BKN089 03/01 A3020 RMK AC1AC5 SLP257
CYYC;2002-09-25 10:00;METAR CYYC 251000Z 21004KT 15SM BKN086 03/02 A3019 RMK AC6 SLP254
CYYC;2002-09-25 11:00;METAR CYYC 251100Z 23006KT 15SM BKN086 04/02 A3018 RMK AC6 SLP252
CYYC;2002-09-25 12:00;METAR CYYC 251200Z 21005KT 15SM BKN085 04/02 A3018 RMK AC6 SLP248
CYYC;2002-09-25 13:00;METAR CYYC 251300Z 23006KT 30SM FEW085 03/01 A3017 RMK AC2 SLP246
CYYC;2002-09-25 14:00;METAR CYYC 251400Z 22002KT 40SM FEW090 FEW250 03/00 A3017 RMK AC2CI1 CI TR SLP245
CYYC;2002-09-25 15:00;METAR CYYC 251500Z 00000KT 40SM FEW095 FEW120 FEW250 06/02 A3016 RMK AC2AC1CI1 SLP244 SLP244
CYYC;2002-09-25 16:00;METAR CYYC 251600Z 25008KT 40SM BKN065 08/03 A3016 RMK SC6 SLP244
CYYC;2002-09-25 17:00;METAR CYYC 251700Z 23006KT 40SM BKN061 BKN120 08/02 A3016 RMK SC6AC1 AC TR SLP243
CYYC;2002-09-25 18:00;METAR CYYC 251800Z 22004KT 40SM FEW060 FEW120 SCT250 11/02 A3015 RMK SC1AC1CI1 SLP237 SLP237
CYYC;2002-09-25 19:00;METAR CYYC 251900Z 21002KT 40SM FEW061 BKN250 12/M03 A3013 RMK SC1CI2 SLP232
CYYC;2002-09-25 20:00;METAR CYYC 252000Z 21007KT 40SM FEW060 FEW100 BKN300 13/M00 A3011 RMK SC2AC1CS2 SLP225 SLP225
CYYC;2002-09-25 21:00;METAR CYYC 252100Z 18003KT 30SM BKN065 OVC300 13/M00 A3008 RMK SC5CS1 SLP212
CYYC;2002-09-25 22:00;METAR CYYC 252200Z 32004KT 30SM BKN065 BKN300 12/M01 A3007 RMK SC5CS1 SLP208
CYYC;2002-09-25 23:00;METAR CYYC 252300Z 03005KT 30SM FEW050 FEW072 BKN280 13/M01 A3006 RMK CU1AC2CI2 CU TR SLP206 CU TR SLP206
CYYC;2002-09-26 00:00;METAR CYYC 260000Z 03008KT 30SM FEW079 BKN098 12/00 A3007 RMK AC2AC3 SLP208
CYYC;2002-09-26 01:00;METAR CYYC 260100Z 03007KT 30SM FEW072 FEW098 BKN280 09/02 A3006 RMK AC2AC1CI1 SLP203 SLP203
CYYC;2002-09-26 02:00;METAR CYYC 260200Z 07006KT 20SM FEW063 SCT072 BKN240 07/02 A3005 RMK SC2AC2CI1 SLP202 SLP202
CYYC;2002-09-26 03:00;METAR CYYC 260300Z 07004KT 15SM FEW063 SCT093 BKN120 BKN250 07/03 A3004 RMK SC2AC2AC2CI1 SLP202
CYYC;2002-09-26 04:00;METAR CYYC 260400Z 05002KT 15SM SCT061 BKN120 BKN250 07/02 A3003 RMK SC3AC2CI1 SLP199 SLP199
CYYC;2002-09-26 06:00;METAR CYYC 260600Z 00000KT 15SM FEW080 FEW120 SCT250 04/02 A3001 RMK AC2AC1CI0 SLP188 SLP188
CYYC;2002-09-26 07:00;METAR CYYC 260700Z 00000KT 15SM FEW058 SCT094 SCT250 04/02 A2999 RMK SC1AC2CI0 SLP182 SLP182
CYYC;2002-09-26 08:00;METAR CYYC 260800Z 00000KT 15SM SCT054 BKN120 02/01 A2998 RMK SC3AC2 SLP177
CYYC;2002-09-26 09:00;METAR CYYC 260900Z 18002KT 15SM SCT074 BKN120 03/01 A2998 RMK AC3AC2 SLP175
CYYC;2002-09-26 10:00;METAR CYYC 261000Z 02003KT 15SM BKN074 OVC100 03/02 A2993 RMK AC5AC2 SLP159
CYYC;2002-09-26 11:00;METAR CYYC 261100Z 32003KT 15SM SCT080 BKN100 03/01 A2991 RMK AC4AC2 SLP154
CYYC;2002-09-26 12:00;METAR CYYC 261200Z 00000KT 15SM SCT080 BKN110 02/01 A2990 RMK AC4AC2 SLP150
CYYC;2002-09-26 13:00;METAR CYYC 261300Z 32002KT 15SM SCT092 OVC120 02/02 A2989 RMK AS3AC3 SLP147
CYYC;2002-09-26 15:00;METAR CYYC 261500Z 35006KT 30SM FEW070 OVC090 04/03 A2989 RMK AC1AS7 SLP152
CYYC;2002-09-26 16:00;METAR CYYC 261600Z 36004KT 20SM FEW050 OVC070 06/04 A2989 RMK SC1AS8 SC TR SLP153
CYYC;2002-09-26 17:00;METAR CYYC 261700Z 05004KT 20SM SCT070 OVC080 OVC140 07/04 A2990 RMK AC3AS1AC1 SLP156 SLP156
CYYC;2002-09-26 18:00;METAR CYYC 261800Z 09006KT 20SM FEW053 BKN058 09/03 A2990 RMK CF1SC7 CF TR
CYYC;2002-09-26 19:00;METAR CYYC 261900Z 06007KT 20SM FEW040 FEW058 BKN090 10/03 A2990 RMK CU1SC2AC5 CU TR SLP152 TR SLP152
CYYC;2002-09-26 20:00;METAR CYYC 262000Z 03002KT 20SM BKN043 BKN087 10/02 A2990 RMK SC5AC2
CYYC;2002-09-26 21:00;METAR CYYC 262100Z 05007KT 20SM OVC041 10/03 A2990 RMK SC8 SLP153
CYYC;2002-09-26 22:00;METAR CYYC 262200Z 06010KT 20SM FEW036 OVC039 10/04 A2992 RMK CF2SC6 SLP157
CYYC;2002-09-26 23:00;METAR CYYC 262300Z 05008KT 20SM FEW030 OVC040 09/04 A2994 RMK CF2SC6 SLP163
CYYC;2002-09-27 00:00;METAR CYYC 270000Z 04007KT 20SM FEW030 OVC032 09/03 A2995 RMK CF2SC6 SLP173
CYYC;2002-09-27 01:00;METAR CYYC 270100Z 04010KT 10SM SCT034 OVC040 07/05 A2996 RMK SC3SC5 SLP177
CYYC;2002-09-27 02:00;METAR CYYC 270200Z 03006KT 12SM -RA FEW029 BKN035 OVC046 07/05 A2997 RMK SC2SC4SC2 RAIN VRY LGT SLP179
CYYC;2002-09-27 03:00;METAR CYYC 270300Z 00000KT 12SM FEW030 BKN040 OVC091 06/05 A2998 RMK SC2SC5AC2 SLP182 SLP182
CYYC;2002-09-27 04:00;METAR CYYC 270400Z 00000KT 12SM FEW031 OVC042 07/05 A2998 RMK SC2SC6 SLP184
CYYC;2002-09-27 05:00;METAR CYYC 270500Z 00000KT 12SM FEW036 OVC045 06/06 A2998 RMK SC2SC6
CYYC;2002-09-27 06:00;METAR CYYC 270600Z 00000KT 10SM FEW036 OVC051 07/05 A2999 RMK SC2SC6 SLP178
CYYC;2002-09-27 07:00;METAR CYYC 270700Z 05014KT 8SM -RA PRFG SCT009 BKN011 OVC021 03/01 A3000 RMK SC3SC4SC1 SLP182 SC3SC4SC1 SLP182
CYYC;2002-09-27 08:00;METAR CYYC 270800Z 03010KT 12SM -SN OVC021 01/01 A3003 RMK SC8 SLP192
CYYC;2002-09-27 09:00;METAR CYYC 270900Z CCA 03012KT 6SM -SN FEW016 OVC023 01/M01 A3005 RMK SC2SC6 SLP207
CYYC;2002-09-27 10:00;METAR CYYC 271000Z 03008KT 1SM -SN BR SCT004 BKN008 OVC023 00/00 A3005 RMK SC3SC2SC2 SLP208 A3006 RMK FG2ST6 SLP211
CYYC;2002-09-27 12:00;METAR CYYC 271200Z CCA 05003KT 3SM -SN BR OVC015 M00/M00 A3006 RMK FG2SC6 /S01/ SLP213
CYYC;2002-09-27 13:00;METAR CYYC 271300Z 00000KT 2 1/2SM -SN OVC024 M00/M00 A3007 RMK SC8 SLP218
CYYC;2002-09-27 14:00;METAR CYYC 271400Z 00000KT 4SM -SN FEW012 BKN017 BKN300 M00/M00 A3008 RMK CU2SC3CI0 SLP222
CYYC;2002-09-27 15:00;METAR CYYC 271500Z 19004KT 10SM FEW008 FEW010 BKN015 BKN080 01/00 A3009 RMK SF1CU1SC5AC0 TR SF TR CU SLP226
CYYC;2002-09-27 16:00;METAR CYYC 271600Z 17006KT 20SM FEW012 BKN015 BKN080 BKN280 02/01 A3009 RMK SF1SC5AC1CI1 TR SF TR AC TR CI SLP226
CYYC;2002-09-27 17:00;METAR CYYC 271700Z 20009G15KT 20SM FEW015 BKN020 BKN280 04/01 A3008 RMK SF2SC3CI0 CC ASOCTD SLP224 CC ASOCTD SLP224
CYYC;2002-09-27 18:00;METAR CYYC 271800Z 19006KT 15SM FEW016 BKN018 BKN074 BKN280 04/01 A3008 RMK SF1SC4AC1CI1 TR SF TR AC TR CI SLP217
CYYC;2002-09-27 19:00;METAR CYYC 271900Z 20006KT 15SM BKN020 BKN070 06/01 A3006 RMK CU4AC1
CYYC;2002-09-27 20:00;METAR CYYC 272000Z 19008KT 15SM SCT021 SCT080 06/01 A3006 RMK CU3AC1 TR AC SLP210
CYYC;2002-09-27 21:00;METAR CYYC 272100Z 16009KT 15SM FEW024 07/01 A3003 RMK CU2 SLP204
CYYC;2002-09-27 22:00;METAR CYYC 272200Z 18008KT 15SM FEW024 07/01 A3002 RMK CU1 SLP201
CYYC;2002-09-27 23:00;METAR CYYC 272300Z 18011KT 15SM FEW270 08/02 A2999 RMK CI0 SLP194
CYYC;2002-09-28 00:00;METAR CYYC 280000Z 18011KT 20SM FEW050 FEW270 07/02 A2997 RMK CU1CI0 TR CU SLP186
CYYC;2002-09-28 01:00;METAR CYYC 280100Z 18012KT 40SM FEW065 SCT270 06/02 A2995 RMK CU1CI1 TR CU CC ASOCTD SLP178 ASOCTD SLP178
CYYC;2002-09-28 02:00;METAR CYYC 280200Z 17008KT 15SM FEW065 FEW270 05/02 A2993 RMK CU1CI1 CU TR SLP174
CYYC;2002-09-28 03:00;METAR CYYC 280300Z 18011KT 15SM FEW270 04/02 A2991 RMK CI0 SLP169
CYYC;2002-09-28 04:00;METAR CYYC 280400Z 18010KT 15SM SKC 03/02 A2989 RMK SLP162
CYYC;2002-09-28 05:00;METAR CYYC 280500Z 18006KT 15SM FEW210 02/01 A2987 RMK CI1 SLP156
CYYC;2002-09-28 06:00;METAR CYYC 280600Z 20005KT 15SM FEW140 FEW250 01/01 A2985 RMK AC1CI1 SLP147
CYYC;2002-09-28 07:00;METAR CYYC 280700Z 19007KT 15SM FEW140 FEW250 02/01 A2984 RMK AC2CI0 SLP141
CYYC;2002-09-28 08:00;METAR CYYC 280800Z 21008KT 15SM FEW140 01/01 A2981 RMK AC2 SLP134
CYYC;2002-09-28 09:00;METAR CYYC 280900Z 21007KT 15SM FEW250 01/01 A2980 RMK CI0 SLP125
CYYC;2002-09-28 10:00;METAR CYYC 281000Z CCA 21007KT 15SM FEW083 FEW250 01/00 A2978 RMK AC1CI0
CYYC;2002-09-28 11:00;METAR CYYC 281100Z 20004KT 15SM FEW080 01/M00 A2976 RMK AC1 SLP114
CYYC;2002-09-28 12:00;METAR CYYC 281200Z 21008KT 15SM FEW080 SCT250 01/M00 A2976 RMK AC1CI0 CLR ICG ON INDCTR SLP110 INDCTR SLP110
CYYC;2002-09-28 13:00;METAR CYYC 281300Z 21008KT 15SM FEW090 BKN250 02/01 A2974 RMK AC1CI1 SLP104
CYYC;2002-09-28 14:00;METAR CYYC 281400Z 22005KT 40SM FEW070 BKN250 BKN280 05/02 A2973 RMK CU1CI4CC0 TR CU SLP102 CU SLP102
CYYC;2002-09-28 15:00;METAR CYYC 281500Z 16005KT 40SM FEW070 FEW098 FEW250 SCT280 07/03 A2973 RMK CU1AC1CI2CI0 TR CU TR AC SLP095
CYYC;2002-09-28 16:00;METAR CYYC 281600Z 18005KT 40SM FEW070 FEW100 FEW250 FEW280 11/05 A2971 RMK CU1AC1CI1CI1 COTRA TR CU TR AC TR UPR LVL CI SLP089
CYYC;2002-09-28 17:00;METAR CYYC 281700Z 19008KT 40SM FEW065 FEW130 BKN260 14/06 A2970 RMK CU1AC1CI2 TR CU SLP086 CU SLP086
CYYC;2002-09-28 18:00;METAR CYYC 281800Z 19006KT 40SM FEW070 FEW130 BKN260 16/06 A2968 RMK CU1AC1CI3 TR CU COTRA SLP069 CU COTRA SLP069
CYYC;2002-09-28 19:00;METAR CYYC 281900Z 19003KT 40SM FEW070 FEW130 BKN260 BKN300 16/06 A2965 RMK CU1AC1CI4CC1 COTRA TR CU TR CC SLP062
CYYC;2002-09-28 20:00;METAR CYYC 282000Z 17006KT 40SM FEW070 FEW130 BKN260 BKN300 19/06 A2963 RMK CU1AC2CI2CC0 TR CU SLP054
CYYC;2002-09-28 21:00;METAR CYYC 282100Z 18006KT 40SM FEW070 FEW130 BKN260 BKN300 20/07 A2961 RMK CU1AC2CI2CC1 TR CU SLP040
CYYC;2002-09-28 22:00;METAR CYYC 282200Z 17007KT 40SM FEW065 FEW130 SCT260 BKN300 21/07 A2959 RMK CU1AC1CI2CC2 COTRA TR CU SLP033
CYYC;2002-09-28 23:00;METAR CYYC 282300Z 26014KT 40SM FEW065 FEW130 SCT260 BKN300 21/05 A2955 RMK CU1AC1CI2CC1 TR CU SLP023
CYYC;2002-09-29 00:00;METAR CYYC 290000Z 26011KT 40SM FEW065 FEW120 SCT260 BKN290 19/05 A2954 RMK CU1AC1CI2CC1 TR CU TR AC COTRA SLP018
CYYC;2002-09-29 01:00;METAR CYYC 290100Z 27007KT 40SM FEW065 FEW100 BKN260 BKN280 16/05 A2954 RMK CU1AC2CI1CC0 TR CU SLP017
CYYC;2002-09-29 02:00;METAR CYYC 290200Z 27009KT 20SM FEW065 BKN140 OVC250 14/05 A2953 RMK SC1AC4CI2 SLP015 SLP015
CYYC;2002-09-29 03:00;METAR CYYC 290300Z 30008KT 15SM BKN140 OVC250 14/03 A2954 RMK AC5CI2
CYYC;2002-09-29 04:00;METAR CYYC 290400Z 28021G26KT 15SM OVC140 16/02 A2953 RMK AC7 SLP013
CYYC;2002-09-29 05:00;METAR CYYC 290500Z 27023G29KT 15SM OVC140 16/01 A2953 RMK AC8 SLP014
CYYC;2002-09-29 06:00;METAR CYYC 290600Z 28015KT 15SM OVC130 15/01 A2954 RMK AC8 SLP001
CYYC;2002-09-29 07:00;METAR CYYC 290700Z 30012G20KT 15SM OVC130 15/01 A2954 RMK AC8 SLP002
CYYC;2002-09-29 08:00;METAR CYYC 290800Z 33009KT 15SM OVC130 14/02 A2955 RMK AC8 SLP006
CYYC;2002-09-29 09:00;METAR CYYC 290900Z 28005KT 15SM OVC130 13/02 A2956 RMK AC8 SLP006
CYYC;2002-09-29 10:00;METAR CYYC 291000Z 30009KT 15SM FEW110 OVC140 14/02 A2956 RMK AS2AC6 SLP008
CYYC;2002-09-29 11:00;METAR CYYC 291100Z 01007KT 15SM FEW110 OVC140 11/03 A2957 RMK AS2AC6 SLP011
CYYC;2002-09-29 12:00;METAR CYYC 291200Z 02011G17KT 15SM SCT095 OVC120 10/04 A2962 RMK AC3AC5 PRESRR SLP033 SLP033
CYYC;2002-09-29 13:00;METAR CYYC 291300Z 35009KT 20SM SCT095 BKN120 OVC240 07/04 A2963 RMK AC3AC3CI2 SLP037 SLP037
CYYC;2002-09-29 14:00;METAR CYYC 291400Z 34009KT 30SM FEW065 SCT085 BKN130 07/03 A2963 RMK CU1AC2AC3 TR CU SLP037 CU SLP037
CYYC;2002-09-29 15:00;METAR CYYC 291500Z 35010KT 40SM FEW060 SCT073 BKN082 08/03 A2964 RMK CU1AC3AC4 TR CU SLP048 CU SLP048
CYYC;2002-09-29 16:00;METAR CYYC 291600Z 36006KT 40SM BKN044 BKN080 08/03 A2964 RMK SC7AC1 TR AC SLP051
CYYC;2002-09-29 17:00;METAR CYYC 291700Z 36008KT 40SM FEW025 BKN045 BKN092 08/02 A2965 RMK SF2SC5AC1 TR AC SLP052 AC SLP052
CYYC;2002-09-29 18:00;METAR CYYC 291800Z 01008KT 20SM -RA FEW025 OVC043 07/05 A2964 RMK SF2SC6
CYYC;2002-09-29 19:00;METAR CYYC 291900Z 02009KT 30SM FEW020 FEW032 OVC041 07/05 A2964 RMK SF2CF1SC6 TR CF SLP049 CF SLP049
CYYC;2002-09-29 20:00;METAR CYYC 292000Z 03009KT 30SM FEW020 FEW028 SCT035 OVC042 07/03 A2964 RMK SF1CF1SC3SC4 TR CF SLP048
CYYC;2002-09-29 21:00;METAR CYYC 292100Z 02008KT 20SM -RA FEW023 BKN026 OVC035 07/04 A2963 RMK SF1SC6SC2 SLP047
CYYC;2002-09-29 22:00;METAR CYYC 292200Z 04007KT 15SM -RA FEW018 BKN022 OVC030 06/05 A2962 RMK SF1SC4SC3 SLP046
CYYC;2002-09-29 23:00;METAR CYYC 292300Z 04007KT 15SM -RA FEW018 BKN020 OVC030 06/05 A2963 RMK SF1SC5SC2 SLP047
CYYC;2002-09-30 00:00;METAR CYYC 300000Z 02007KT 10SM -RA FEW020 SCT024 OVC031 06/05 A2962 RMK SF1SC2SC5 SLP052
CYYC;2002-09-30 01:00;METAR CYYC 300100Z 36009KT 7SM -RA FEW007 BKN021 OVC031 05/05 A2963 RMK SF2SC2SC3 SLP053 SLP053
CYYC;2002-09-30 02:00;METAR CYYC 300200Z 36009KT 4SM -RA SCT005 BKN012 OVC033 05/05 A2963 RMK SF3SC3SC2 SLP055 SLP055
CYYC;2002-09-30 03:00;METAR CYYC 300300Z 36010KT 5SM -RA SCT005 BKN014 OVC020 05/05 A2964 RMK SF4SC2SC2 SLP062 SLP062
CYYC;2002-09-30 04:00;METAR CYYC 300400Z 02010KT 4SM -RA SCT006 BKN010 OVC032 05/04 A2965 RMK SF4SC3SC1 SLP065 SLP065
CYYC;2002-09-30 05:00;METAR CYYC 300500Z 04009KT 4SM -RA SCT003 BKN010 OVC020 04/04 A2965 RMK SF3SC4SC1 SLP067 SLP067
CYYC;2002-09-30 06:00;METAR CYYC 300600Z 03010KT 4SM -RA BKN005 OVC017 04/04 A2965 RMK SF5SC3 SLP070
CYYC;2002-09-30 07:00;METAR CYYC 300700Z 02013KT 6SM -RA BKN006 OVC024 03/03 A2965 RMK SF5SC3
CYYC;2002-09-30 08:00;METAR CYYC 300800Z 36010KT 7SM -RA BKN005 OVC015 02/02 A2967 RMK SC6SC2 SLP074
CYYC;2002-09-30 09:00;METAR CYYC 300900Z 35009KT 6SM -RA BKN005 OVC014 02/02 A2968 RMK SC7SC1 SLP083
CYYC;2002-09-30 10:00;METAR CYYC 301000Z 33006KT 6SM -RASN BKN004 OVC009 01/01 A2968 RMK SC6SC2 SLP082
CYYC;2002-09-30 11:00;METAR CYYC 301100Z 33010KT 5SM -SN OVC005 01/01 A2969 RMK SC8 SNW WET SLP084
CYYC;2002-09-30 12:00;METAR CYYC 301200Z 34011KT 4SM -SN OVC005 01/01 A2969 RMK SC8 SLP089
CYYC;2002-09-30 13:00;METAR CYYC 301300Z 33012KT 1 1/2SM -SN OVC004 01/01 A2970 RMK SC8 SLP092
CYYC;2002-09-30 14:00;METAR CYYC 301400Z 33014KT 1 1/2SM -SN OVC005 01/01 A2972 RMK SC8 SLP096
CYYC;2002-09-30 15:00;METAR CYYC 301500Z 34015KT 1 1/2SM -RASN VV007 01/01 A2974 RMK SN8 SLP106
CYYC;2002-09-30 16:00;METAR CYYC 301600Z 34018KT 1 1/2SM -RASN VV006 01/01 A2976 RMK SN8 SLP113
CYYC;2002-09-30 17:00;METAR CYYC 301700Z 35017KT 1 1/2SM -RASN VV006 01/01 A2979 RMK SN8 SLP122
CYYC;2002-09-30 18:00;METAR CYYC 301800Z 34014G20KT 1 3/4SM -RASN VV006 02/01 A2982 RMK SN8 SLP135
CYYC;2002-09-30 19:00;METAR CYYC 301900Z 34014G20KT 2 1/2SM -RASN OVC006 02/01 A2985 RMK SC8 SLP143
CYYC;2002-09-30 20:00;METAR CYYC 302000Z 34013KT 5SM -RA OVC007 02/02 A2987 RMK SC8 SLP150
CYYC;2002-09-30 21:00;METAR CYYC 302100Z 35014KT 8SM -RA OVC008 03/02 A2989 RMK SC8 SLP162
CYYC;2002-09-30 22:00;METAR CYYC 302200Z 34014KT 8SM -RA BKN008 OVC047 03/02 A2992 RMK SC6SC2 SLP171
CYYC;2002-09-30 23:00;METAR CYYC 302300Z 34014KT 5SM -RA OVC008 03/02 A2995 RMK SC8 SLP180
CYYC;2002-10-01 00:00;METAR CYYC 010000Z 36015KT 5SM -RA OVC006 02/02 A2999 RMK SC8 SLP197
CYYC;2002-10-01 01:00;METAR CYYC 010100Z 01011KT 4SM -RASN OVC006 01/01 A3002 RMK SC8 SLP207
CYYC;2002-10-01 02:00;METAR CYYC 010200Z 36012KT 5SM -RASN OVC005 01/01 A3005 RMK SC8 SLP216
CYYC;2002-10-01 03:00;METAR CYYC 010300Z 36010KT 10SM BKN006 OVC012 01/01 A3008 RMK SC6SC2 SLP231
CYYC;2002-10-01 04:00;METAR CYYC 010400Z 31007KT 15SM FEW009 FEW035 BKN055 OVC079 01/01 A3009 RMK CF1SC1SC5AC2 SLP234
CYYC;2002-10-01 05:00;METAR CYYC 010500Z 34008KT 15SM FEW010 FEW054 OVC075 01/01 A3011 RMK CF1SC2AC6 TR CF SLP239 CF SLP239
CYYC;2002-10-01 06:00;METAR CYYC 010600Z 33005KT 15SM FEW056 BKN072 00/M00 A3012 RMK SC1AC6 SLP245
CYYC;2002-10-01 07:00;METAR CYYC 010700Z 30005KT 15SM FEW056 BKN075 M00/M01 A3013 RMK CU1AC6 TR CU SLP248 SLP248
CYYC;2002-10-01 08:00;METAR CYYC 010800Z 33004KT 15SM FEW070 OVC087 00/M01 A3014 RMK AC1AC6 SLP252
CYYC;2002-10-01 09:00;METAR CYYC 010900Z 23004KT 15SM FEW040 OVC072 00/M01 A3015 RMK CF2AC6 SLP255
CYYC;2002-10-01 10:00;METAR CYYC 011000Z 23003KT 15SM FEW040 BKN075 M00/M02 A3015 RMK CF1AC5 TR CF SLP253 SLP253
CYYC;2002-10-01 11:00;METAR CYYC 011100Z 22004KT 15SM FEW075 M02/M03 A3016 RMK AC2 XTNSV AURBO SLP256 AURBO SLP260
CYYC;2002-10-01 13:00;METAR CYYC 011300Z 22006KT 15SM FEW080 M02/M03 A3016 RMK AC1 FROIN SLP260
CYYC;2002-10-01 14:00;METAR CYYC 011400Z 20003KT 40SM FEW080 FEW240 M01/M02 A3016 RMK AC1CI0 FROIN SLP261 SLP261
CYYC;2002-10-01 15:00;METAR CYYC 011500Z 20003KT 40SM FEW080 FEW240 00/M01 A3016 RMK AC1CI0
CYYC;2002-10-01 16:00;METAR CYYC 011600Z 21010KT 40SM FEW080 FEW240 03/M01 A3018 RMK AC1CI0 SLP265
CYYC;2002-10-01 17:00;METAR CYYC 011700Z 19009KT 40SM FEW080 04/M01 A3018 RMK AC1 AC TR SLP265
CYYC;2002-10-01 18:00;METAR CYYC 011800Z 18007KT 40SM FEW065 FEW080 FEW240 05/M00 A3018 RMK SC1AC1CI0 SC+AC TR SLP261 SC+AC TR SLP261
CYYC;2002-10-01 19:00;METAR CYYC 011900Z 19006KT 40SM FEW065 FEW240 07/M01 A3018 RMK CU1CI0
CYYC;2002-10-01 20:00;METAR CYYC 012000Z 21005KT 40SM FEW060 FEW240 09/00 A3018 RMK CU1CI0 SLP259
CYYC;2002-10-01 21:00;METAR CYYC 012100Z 01002KT 40SM FEW060 08/M03 A3017 RMK CU2 TCU SW+NW
CYYC;2002-10-01 22:00;METAR CYYC 012200Z 35004KT 40SM FEW052 08/M05 A3016 RMK CU2 TCU W SLP249
CYYC;2002-10-01 23:00;METAR CYYC 012300Z 27004KT 40SM FEW050 SCT070 08/M02 A3015 RMK CU2AC1 TCU SW / VIRGA SW SLP247 VIRGA SW SLP247
CYYC;2002-10-02 00:00;METAR CYYC 020000Z 25002KT 40SM FEW057 FEW093 09/M03 A3015 RMK CU1AC1 AC TR SLP249
CYYC;2002-10-02 01:00;METAR CYYC 020100Z 17002KT 40SM FEW060 FEW090 07/M03 A3015 RMK CU1AC1 CU TR SLP247
CYYC;2002-10-02 02:00;METAR CYYC 020200Z 14006KT 15SM FEW060 FEW200 05/M03 A3014 RMK CU1CI1 SLP244
CYYC;2002-10-02 03:00;METAR CYYC 020300Z 17006KT 15SM FEW210 03/M03 A3012 RMK CI1 SLP243
CYYC;2002-10-02 04:00;METAR CYYC 020400Z 21005KT 15SM FEW055 FEW210 04/M03 A3012 RMK CF1CI1 SLP243
CYYC;2002-10-02 05:00;METAR CYYC 020500Z 22003KT 15SM FEW100 FEW210 02/M02 A3010 RMK AC1CI1 AURBO SLP237
CYYC;2002-10-02 06:00;METAR CYYC 020600Z 21006KT 15SM FEW210 00/M02 A3007 RMK CI1 AURBO SLP224
CYYC;2002-10-02 08:00;METAR CYYC 020800Z 21005KT 15SM SKC M01/M03 A3005 RMK SLP215
CYYC;2002-10-02 09:00;METAR CYYC 020900Z 21006KT 15SM FEW210 M01/M04 A3002 RMK CI1 SLP204
CYYC;2002-10-02 10:00;METAR CYYC 021000Z 19006KT 15SM FEW210 M01/M04 A2998 RMK CI1 AURBO SLP191
CYYC;2002-10-02 11:00;METAR CYYC 021100Z 21006KT 15SM SCT210 M01/M05 A2996 RMK CI1 SLP184
CYYC;2002-10-02 12:00;METAR CYYC 021200Z 22005KT 15SM FEW100 SCT210 M01/M05 A2993 RMK AC1CI1 SLP171
CYYC;2002-10-02 13:00;METAR CYYC 021300Z 00000KT 15SM SCT150 BKN210 00/M05 A2991 RMK AC2CI2 SLP165
CYYC;2002-10-02 14:00;METAR CYYC 021400Z 18003KT 40SM FEW100 FEW140 BKN240 01/M04 A2990 RMK AC1AC2CI1 LWR AC TR SLP160 LWR AC TR SLP160
CYYC;2002-10-02 15:00;METAR CYYC 021500Z 16004KT 40SM FEW100 SCT140 BKN240 03/M04 A2988 RMK AC1AC3CI0 LWR AC TR SLP156 LWR AC TR SLP156
CYYC;2002-10-02 16:00;METAR CYYC 021600Z 22004KT 40SM FEW140 BKN250 07/M02 A2987 RMK AC2CI1 SLP153
CYYC;2002-10-02 17:00;METAR CYYC 021700Z 27013KT 40SM FEW100 FEW140 BKN250 11/M02 A2986 RMK AC1AC2CI1 LWR AC TR / ACSL ASOCTD SLP148 LWR AC TR / ACSL ASOCTD SLP148
CYYC;2002-10-02 18:00;METAR CYYC 021800Z 26018G24KT 40SM FEW092 SCT140 BKN250 13/M01 A2985 RMK AC1AC3CI1 LWR AC TR SLP133
CYYC;2002-10-02 19:00;METAR CYYC 021900Z 26014G19KT 40SM FEW092 FEW150 BKN250 13/M01 A2983 RMK AC1AC2CI1 LWR AC TR / ACSL SLP129
CYYC;2002-10-02 20:00;METAR CYYC 022000Z 26016G22KT 40SM FEW090 BKN150 BKN250 14/M00 A2981 RMK AC1AC5CI0 LWR AC TR ACSL SLP122
CYYC;2002-10-02 21:00;METAR CYYC 022100Z 26012G20KT 40SM FEW100 FEW150 BKN250 15/00 A2978 RMK AC1AC1CI1 LWR LYR ACSL SLP111 LWR LYR ACSL SLP111
CYYC;2002-10-02 22:00;METAR CYYC 022200Z 27021G29KT 40SM FEW100 FEW150 BKN250 16/00 A2976 RMK AC1AC2CI0 ACSL ASOCTD LWR LYR SLP105 ACSL ASOCTD LWR LYR SLP105
CYYC;2002-10-02 23:00;METAR CYYC 022300Z 28022G30KT 40SM FEW100 FEW150 BKN250 14/00 A2976 RMK AC1AC2CI1 SLP103 SLP103
CYYC;2002-10-03 00:00;METAR CYYC 030000Z 27019G24KT 40SM FEW100 BKN150 BKN250 13/01 A2973 RMK AC1AC4CI0 ACSL ASOCTD SLP095 ACSL ASOCTD SLP095
CYYC;2002-10-03 01:00;METAR CYYC 030100Z 27015G25KT 40SM FEW100 BKN150 OVC250 13/01 A2971 RMK AC1AC6CI0 SLP088 SLP088
CYYC;2002-10-03 02:00;METAR CYYC 030200Z 27024G29KT 15SM FEW100 BKN150 12/00 A2970 RMK AC1AC7 ACSL LWR LYR SLP086 LYR SLP086
CYYC;2002-10-03 03:00;METAR CYYC 030300Z 27022G28KT 15SM FEW080 SCT120 BKN250 12/00 A2970 RMK AC1AC2CI2 SLP081 SLP081
CYYC;2002-10-03 04:00;METAR CYYC 030400Z 27021G27KT 15SM FEW100 BKN250 11/00 A2972 RMK AC2CI2 SLP086
CYYC;2002-10-03 05:00;METAR CYYC 030500Z 27016G22KT 15SM SCT140 BKN250 11/M00 A2972 RMK AC2CI1 SLP087
CYYC;2002-10-03 07:00;METAR CYYC 030700Z 31008KT 15SM FEW100 09/M00 A2975 RMK AC1 SLP085
CYYC;2002-10-03 08:00;METAR CYYC 030800Z 36020KT 15SM FEW050 FEW080 BKN090 09/00 A2982 RMK CU1AC2AC5 SLP104 SLP104
CYYC;2002-10-03 09:00;METAR CYYC 030900Z 34013KT 15SM FEW050 05/01 A2985 RMK CU1 SLP128
CYYC;2002-10-03 10:00;METAR CYYC 031000Z 33012KT 15SM FEW040 04/01 A2986 RMK CU1 SLP131
CYYC;2002-10-03 11:00;METAR CYYC 031100Z 33010KT 15SM FEW050 BKN240 04/01 A2989 RMK SC1CI1 SLP138
CYYC;2002-10-03 12:00;METAR CYYC 031200Z 32011KT 15SM SCT054 BKN240 04/01 A2990 RMK SC3CI1 SLP147
CYYC;2002-10-03 13:00;METAR CYYC 031300Z 32005KT 15SM BKN052 BKN110 04/01 A2992 RMK SC6AC1 SLP154
CYYC;2002-10-03 14:00;METAR CYYC 031400Z 32009KT 40SM -RA BKN055 BKN110 05/01 A2995 RMK SC7AC1 TR AC SLP163 SLP163
CYYC;2002-10-03 15:00;METAR CYYC 031500Z 30004KT 40SM -RA FEW041 BKN061 04/02 A2998 RMK CU1SC6 TR CU SLP174 SLP174
CYYC;2002-10-03 16:00;METAR CYYC 031600Z 31008KT 30SM FEW043 BKN064 BKN080 05/02 A2999 RMK CU1SC6AC1 TR CU TR AC SLP177 CU TR AC SLP177
CYYC;2002-10-03 17:00;METAR CYYC 031700Z 30010KT 30SM FEW040 BKN064 BKN080 06/01 A3000 RMK CU1SC7AC1 TR CU TR AC SLP181 CU TR AC SLP181
CYYC;2002-10-03 18:00;METAR CYYC 031800Z 30010KT 30SM FEW040 BKN064 BKN075 06/01 A3000 RMK CU1SC7AC1 TR CU TR AC SLP182 CU TR AC SLP182 CF1CU1SC6AC1 TR CF TR AC SLP181
CYYC;2002-10-03 20:00;METAR CYYC 032000Z 31008KT 20SM FEW051 BKN057 BKN076 07/M01 A2999 RMK CU2SC4AC1 TR AC SLP179 TR AC SLP179
CYYC;2002-10-03 21:00;METAR CYYC 032100Z 36007KT 40SM FEW040 FEW045 BKN067 BKN075 07/M02 A2998 RMK CF1CU2AC3AC1 TR UPR LVL AC SLP183 CF1CU2AC3AC1 TR UPR LVL AC SLP183
CYYC;2002-10-03 22:00;METAR CYYC 032200Z 30007KT 40SM FEW043 BKN049 BKN068 07/M02 A2998 RMK CF1SC5AC2 TR CF SLP183 TR CF SLP183
CYYC;2002-10-03 23:00;METAR CYYC 032300Z 31007KT 30SM FEW015 FEW037 BKN042 BKN068 BKN080 07/M02 A2998 RMK CF1CU1SC6AC2AC1 VCSH N-NE TR CF TR CU TR UPR LVL AC SLP183 RMK CF1CU1SC6AC2AC1 VCSH N-NE TR CF TR CU TR UPR LVL AC SLP183
CYYC;2002-10-04 00:00;METAR CYYC 040000Z 35007KT 40SM FEW015 FEW040 BKN045 BKN071 06/M02 A2999 RMK CF1CU2SC6AC1 TR CF TR AC SLP188 CF1CU2SC6AC1 TR CF TR AC SLP188
CYYC;2002-10-04 01:00;METAR CYYC 040100Z 30002KT 40SM -RA FEW042 BKN050 05/00 A3000 RMK CF1SC7 TR CF SLP191 SLP191
CYYC;2002-10-04 02:00;METAR CYYC 040200Z 00000KT 15SM SCT045 BKN065 OVC082 04/00 A3002 RMK SC4SC3AC1 SLP196 SLP196
CYYC;2002-10-04 03:00;METAR CYYC 040300Z 01005KT 15SM FEW040 SCT053 BKN065 OVC078 04/01 A3001 RMK CF1SC4SC3AC1 CF TR SLP199
CYYC;2002-10-04 04:00;METAR CYYC 040400Z 34004KT 12SM VCSH OVC044 04/01 A3002 RMK SC8 SHWRS ALQDS SLP202
CYYC;2002-10-04 05:00;METAR CYYC 040500Z 12003KT 12SM -RA OVC014 02/01 A3003 RMK SC8 SLP203
CYYC;2002-10-04 06:00;METAR CYYC 040600Z 23008KT 12SM -RA FEW016 BKN034 OVC090 03/01 A3001 RMK SF1SC6AC2 SLP198
CYYC;2002-10-04 07:00;METAR CYYC 040700Z 00000KT 10SM -RA FEW010 BKN013 OVC044 03/02 A3000 RMK SF1SC4SC3 SLP195
CYYC;2002-10-04 08:00;METAR CYYC 040800Z 12003KT 12SM -RA BKN015 OVC028 03/02 A2999 RMK SC6SC2
CYYC;2002-10-04 09:00;METAR CYYC 040900Z 00000KT 15SM -RA FEW038 BKN079 OVC094 02/02 A2999 RMK SC2AC3AC2 RAIN VRY LGT SLP190
CYYC;2002-10-04 10:00;METAR CYYC 041000Z 32006KT 6SM -RA FEW016 OVC020 02/02 A3000 RMK SC2SC6 SLP192
CYYC;2002-10-04 11:00;METAR CYYC 041100Z 01004KT 2 1/2SM -SN BKN004 BKN018 OVC039 01/01 A3001 RMK SC6SC1SC1 SNW WET SLP195
CYYC;2002-10-04 12:00;METAR CYYC 041200Z 36009KT 4SM -SN OVC003 01/01 A3003 RMK SC8 SLP205
CYYC;2002-10-04 13:00;METAR CYYC 041300Z 36011KT 10SM -SN OVC004 01/00 A3003 RMK ST8 SLP207
CYYC;2002-10-04 14:00;METAR CYYC 041400Z 35007KT 10SM -SN FEW006 BKN045 OVC085 00/M00 A3004 RMK SC2SC5AC1 SNW VRY LGT SLP210
CYYC;2002-10-04 15:00;METAR CYYC 041500Z 35007KT 20SM FEW008 SCT040 BKN070 01/M00 A3006 RMK CF2SC2AC2 SLP218 SLP218
CYYC;2002-10-04 16:00;METAR CYYC 041600Z 35009KT 20SM FEW011 SCT030 BKN086 02/M00 A3006 RMK SC1SC3AC2 SLP221 SLP221
CYYC;2002-10-04 17:00;METAR CYYC 041700Z 34010KT 20SM FEW019 SCT030 BKN080 02/M01 A3006 RMK CF1SC3AC2 SLP221
CYYC;2002-10-04 18:00;METAR CYYC 041800Z 32006KT 30SM FEW020 BKN023 BKN090 03/M01 A3005 RMK CF1SC5AC2 TR CF SLP215 TR CF SLP215
CYYC;2002-10-04 19:00;METAR CYYC 041900Z 29003KT 30SM BKN021 BKN084 BKN140 04/M01 A3004 RMK SC6AC1AC1 TR UPR LVL AC SLP210 TR UPR LVL AC SLP210
CYYC;2002-10-04 20:00;METAR CYYC 042000Z 29004KT 30SM FEW025 SCT050 BKN083 BKN140 04/M02 A3001 RMK CU1SC2AC2AC1 TR UPR LVL AC SLP203 CU1SC2AC2AC1 TR UPR LVL AC SLP203
CYYC;2002-10-04 21:00;METAR CYYC 042100Z 36003KT 30SM FEW035 BKN075 BKN300 05/M03 A2999 RMK SC2AC2CS0 SLP192
CYYC;2002-10-04 22:00;METAR CYYC 042200Z 05002KT 30SM SCT035 SCT080 BKN300 06/M03 A2997 RMK CU3AC1CS0 CC ASOCTD SLP186 CC ASOCTD SLP186
CYYC;2002-10-04 23:00;METAR CYYC 042300Z 21005KT 30SM FEW035 BKN074 BKN300 06/M02 A2995 RMK SC2AC3CS0 TCU ASOCTD DSNT SW SLP180 TCU ASOCTD DSNT SW SLP180
CYYC;2002-10-05 00:00;METAR CYYC 050000Z 19008KT 30SM FEW058 BKN079 BKN300 05/M02 A2993 RMK SC2AC2CS1 CC ASOCTD SLP174 CC ASOCTD SLP174
CYYC;2002-10-05 01:00;METAR CYYC 050100Z 18008KT 30SM FEW057 SCT080 BKN300 04/M03 A2992 RMK SC1AC2CI1 CC ASOCTD SLP169 CC ASOCTD SLP169
CYYC;2002-10-05 02:00;METAR CYYC 050200Z 16008KT 15SM FEW100 BKN270 03/M02 A2991 RMK AC2CI3 SLP167
CYYC;2002-10-05 03:00;METAR CYYC 050300Z 17010KT 15SM BKN120 BKN270 03/M02 A2990 RMK AC5CI1 SLP164
CYYC;2002-10-05 04:00;METAR CYYC 050400Z 16008KT 15SM SCT120 BKN270 02/M01 A2988 RMK AC2CI2 SLP159
CYYC;2002-10-05 05:00;METAR CYYC 050500Z 15006KT 15SM FEW120 SCT270 01/M01 A2987 RMK AC1CI1 SLP155
CYYC;2002-10-05 06:00;METAR CYYC 050600Z 19008KT 15SM BKN110 OVC250 01/M01 A2984 RMK AC5CI2 SLP144
CYYC;2002-10-05 07:00;METAR CYYC 050700Z 17007KT 15SM FEW090 OVC100 01/M00 A2980 RMK AC2AC5 SLP132
CYYC;2002-10-05 08:00;METAR CYYC 050800Z 18005KT 15SM BKN100 OVC120 01/M00 A2978 RMK AC6AC2 SLP124
CYYC;2002-10-05 09:00;METAR CYYC 050900Z 19004KT 15SM FEW020 OVC085 01/00 A2975 RMK SC2AC6 SLP108
CYYC;2002-10-05 10:00;METAR CYYC 051000Z 11003KT 15SM FEW040 OVC080 01/00 A2973 RMK SC2AC6 SLP104
CYYC;2002-10-05 11:00;METAR CYYC 051100Z 32012KT 15SM -SHRA FEW020 OVC040 06/M01 A2973 RMK SC2SC6 PCPN VRY LGT SLP102 VRY LGT SLP102
CYYC;2002-10-05 12:00;METAR CYYC 051200Z 30009KT 15SM FEW025 BKN040 OVC070 06/M02 A2974 RMK SC1SC4AC3 SLP097 SLP097
CYYC;2002-10-05 13:00;METAR CYYC 051300Z 35008KT 15SM BKN087 02/M01 A2974 RMK AC6 SLP097
CYYC;2002-10-05 14:00;METAR CYYC 051400Z 36009KT 40SM FEW050 BKN080 BKN100 02/M01 A2977 RMK CF1AC4AC1 TR CF SLP107 TR CF SLP107
CYYC;2002-10-05 15:00;METAR CYYC 051500Z 36014KT 1 1/2SM -SN VV006 01/00 A2984 RMK SN8 PRESRR SLP143
CYYC;2002-10-05 16:00;METAR CYYC 051600Z 32011KT 10SM FEW007 SCT014 OVC059 01/00 A2988 RMK SF1SF2SC5 SLP157 SLP157
CYYC;2002-10-05 17:00;METAR CYYC 051700Z 33021G27KT 20SM FEW017 SCT055 BKN099 02/00 A2993 RMK SF1SC2AC4 SLP171 SLP171
CYYC;2002-10-05 18:00;METAR CYYC 051800Z 34019G27KT 20SM FEW017 BKN025 BKN100 BKN270 03/M00 A2996 RMK SF1SC4AC2CI1 TR CI SLP186 SF1SC4AC2CI1 TR CI SLP186
CYYC;2002-10-05 19:00;METAR CYYC 051900Z 35018KT 30SM FEW018 SCT021 BKN110 BKN270 03/M01 A2999 RMK SF2CU2AC3CI1 TR CI SLP194 SF2CU2AC3CI1 TR CI SLP194
CYYC;2002-10-05 20:00;METAR CYYC 052000Z 35013G20KT 30SM FEW023 FEW027 BKN098 04/M02 A3002 RMK SF1CU2AC4 SLP203
CYYC;2002-10-05 21:00;METAR CYYC 052100Z 34016KT 30SM FEW022 FEW026 OVC094 04/M03 A3003 RMK SF1CU2AC6 TR SF SLP208 TR SF SLP208
CYYC;2002-10-05 22:00;METAR CYYC 052200Z 35013KT 40SM FEW028 FEW031 OVC088 04/M02 A3006 RMK SF1CU2AC6 TR SF SLP216 TR SF SLP216
CYYC;2002-10-05 23:00;METAR CYYC 052300Z 35012KT 40SM FEW035 BKN078 04/M02 A3006 RMK CU1AC6 SLP219
CYYC;2002-10-06 00:00;METAR CYYC 060000Z 36008KT 40SM FEW035 BKN075 04/M02 A3009 RMK CU1AC6 TR CU SLP222
CYYC;2002-10-06 01:00;METAR CYYC 060100Z 34004KT 40SM BKN071 03/M02 A3011 RMK AC6 SLP230
CYYC;2002-10-06 02:00;METAR CYYC 060200Z 30002KT 15SM BKN063 BKN100 03/M02 A3013 RMK SC6AC2 SLP235
CYYC;2002-10-06 03:00;METAR CYYC 060300Z 00000KT 15SM OVC059 03/M02 A3014 RMK SC7 SLP249
CYYC;2002-10-06 04:00;METAR CYYC 060400Z 00000KT 15SM SCT058 BKN095 02/M03 A3014 RMK SC2AC2 SLP248
CYYC;2002-10-06 05:00;METAR CYYC 060500Z 12004KT 15SM FEW058 BKN097 01/M02 A3013 RMK SC1AC2 SLP247
CYYC;2002-10-06 06:00;METAR CYYC 060600Z 18006KT 15SM BKN090 02/M01 A3012 RMK AC5 SLP241
CYYC;2002-10-06 07:00;METAR CYYC 060700Z 16005KT 15SM FEW055 BKN093 00/M03 A3010 RMK SC1AC2 SLP236
CYYC;2002-10-06 08:00;METAR CYYC 060800Z 16005KT 15SM BKN089 00/M02 A3009 RMK AC7 SLP232
CYYC;2002-10-06 09:00;METAR CYYC 060900Z 18005KT 15SM BKN081 BKN120 01/M02 A3007 RMK AC6AC1 SLP225
CYYC;2002-10-06 10:00;METAR CYYC 061000Z 18005KT 15SM FEW050 BKN080 BKN120 01/M02 A3005 RMK SC1AC2AC1 SLP218 SLP218
CYYC;2002-10-06 11:00;METAR CYYC 061100Z 16006KT 15SM BKN080 BKN120 01/M02 A3003 RMK AC2AC1 SLP210
CYYC;2002-10-06 12:00;METAR CYYC 061200Z 18006KT 15SM BKN079 00/M02 A3001 RMK AC7 SLP203
CYYC;2002-10-06 13:00;METAR CYYC 061300Z 20004KT 15SM BKN079 00/M02 A3000 RMK AC6 SLP199
CYYC;2002-10-06 14:00;METAR CYYC 061400Z 21006KT 40SM FEW065 SCT087 BKN100 BKN270 M00/M02 A2998 RMK CU1AC2AC2CI0 TR CU CC ASOCTD SLP195 CU1AC2AC2CI0 TR CU CC ASOCTD SLP195
CYYC;2002-10-06 15:00;METAR CYYC 061500Z 20006KT 40SM FEW070 FEW087 BKN120 BKN270 01/M01 A2996 RMK CU1AC1AC6CI1 TR CU TR CI SLP184 CU1AC1AC6CI1 TR CU TR CI SLP184
CYYC;2002-10-06 16:00;METAR CYYC 061600Z 22007KT 40SM FEW070 BKN098 BKN270 03/M01 A2994 RMK CU1AC6CI1 TR CU TR CI SLP178 TR CU TR CI SLP178
CYYC;2002-10-06 17:00;METAR CYYC 061700Z 21009KT 40SM FEW070 FEW095 SCT120 BKN280 07/01 A2992 RMK CU1AC2AC2CI0 TR CU SLP172
CYYC;2002-10-06 18:00;METAR CYYC 061800Z 20007KT 40SM FEW070 FEW098 BKN280 13/04 A2990 RMK CU1AC1CI2 TR CU CC ASOCTD SLP149 CU CC ASOCTD SLP149
CYYC;2002-10-06 19:00;METAR CYYC 061900Z 26019G24KT 40SM FEW070 BKN094 BKN280 17/02 A2988 RMK CU1AC3CS2 TR CU SLP145 TR CU SLP145
CYYC;2002-10-06 20:00;METAR CYYC 062000Z 27021G31KT 40SM FEW070 FEW095 BKN300 17/02 A2986 RMK CU1AC1CI2 TR CU CS ASOCTD SLP138 TR CU CS ASOCTD SLP138
CYYC;2002-10-06 21:00;METAR CYYC 062100Z 27019G27KT 40SM FEW070 FEW100 BKN300 18/02 A2986 RMK CU1AC2CI2 TR CU CS ASOCTD SLP131 TR CU CS ASOCTD SLP131
CYYC;2002-10-06 22:00;METAR CYYC 062200Z 27023G32KT 40SM FEW070 FEW100 BKN300 18/02 A2987 RMK CU1AC1CI2 TR CU CC ASOCTD TCU ASOCTD SW SLP132 TR CU CC ASOCTD TCU ASOCTD SW SLP132
CYYC;2002-10-06 23:00;METAR CYYC 062300Z 27023G28KT 40SM FEW070 FEW120 BKN300 17/02 A2988 RMK CU1AC1CI2 CC ASOCTD SLP135 CC ASOCTD SLP135
CYYC;2002-10-07 00:00;METAR CYYC 070000Z 27014G21KT 40SM FEW070 FEW095 SCT120 BKN300 15/02 A2988 RMK CU1AC1AC2CI1 CC ASOCTD SLP143 CU1AC1AC2CI1 CC ASOCTD SLP143
CYYC;2002-10-07 01:00;METAR CYYC 070100Z 27017KT 40SM FEW070 FEW095 BKN110 BKN300 15/02 A2989 RMK CU1AC1AC2CI0 CC ASOCTD SLP145
CYYC;2002-10-07 02:00;METAR CYYC 070200Z 27016G22KT 15SM FEW070 FEW096 BKN140 BKN300 14/01 A2990 RMK CU1AC1AC2CI0 SLP148 CU1AC1AC2CI0 SLP148
CYYC;2002-10-07 03:00;METAR CYYC 070300Z 27016G21KT 15SM FEW070 SCT100 BKN270 14/02 A2991 RMK AC1AC2CI1 SLP153 SLP153
CYYC;2002-10-07 04:00;METAR CYYC 070400Z 27018KT 15SM FEW100 FEW250 14/01 A2991 RMK AC1CI1
CYYC;2002-10-07 05:00;METAR CYYC 070500Z 29009KT 15SM FEW070 BKN120 BKN250 13/01 A2991 RMK AC2AC2CI0 SLP152 SLP152
CYYC;2002-10-07 06:00;METAR CYYC 070600Z 27014KT 15SM FEW050 BKN090 OVC120 14/01 A2990 RMK CF1AC5AC2 SLP134 SLP134
CYYC;2002-10-07 07:00;METAR CYYC 070700Z 27010KT 15SM FEW085 SCT110 BKN150 13/01 A2990 RMK AC2AC1AC4 SLP132 SLP132
CYYC;2002-10-07 08:00;METAR CYYC 070800Z 06006KT 15SM OVC100 11/02 A2991 RMK AC8 SLP137
CYYC;2002-10-07 09:00;METAR CYYC 070900Z 03004KT 15SM -SHRA FEW030 BKN052 OVC100 09/03 A2993 RMK SC1SC5AC2 SLP142
CYYC;2002-10-07 10:00;METAR CYYC 071000Z 02008KT 15SM -SHRA BKN080 BKN100 07/04 A2994 RMK AC5AC1 SLP147
CYYC;2002-10-07 11:00;METAR CYYC 071100Z 04004KT 15SM FEW070 SCT080 BKN100 06/04 A2996 RMK AC1AC3AC1 SLP151 SLP151
CYYC;2002-10-07 12:00;METAR CYYC 071200Z 00000KT 15SM SCT082 SCT100 06/04 A2996 RMK AC2AC1 SLP162
CYYC;2002-10-07 13:00;METAR CYYC 071300Z 24004KT 15SM FEW060 BKN090 BKN110 06/04 A2996 RMK SC1AC4AC1 SLP163 SLP163
CYYC;2002-10-07 14:00;METAR CYYC 071400Z 22007KT 40SM FEW060 FEW080 SCT100 05/04 A2998 RMK CU1AC2AC1 CU TR SLP167 TR SLP167
CYYC;2002-10-07 15:00;METAR CYYC 071500Z 22005KT 40SM FEW083 SCT100 07/05 A2999 RMK AC2AC1 VIRGA NW SLP171 SLP171
CYYC;2002-10-07 16:00;METAR CYYC 071600Z 00000KT 40SM FEW060 FEW080 10/04 A3000 RMK SC1AC2 SC TR / VIRGA ALQDS SLP175 VIRGA ALQDS SLP175
CYYC;2002-10-07 17:00;METAR CYYC 071700Z 18006KT 40SM FEW060 SCT080 SCT100 12/05 A3000 RMK SC1AC3AC1 SC TR SLP176 TR SLP176
CYYC;2002-10-07 18:00;METAR CYYC 071800Z 12009KT 40SM FEW060 BKN086 BKN120 12/04 A3000 RMK SC1AC4AC1 UPR AC TR SLP168 UPR AC TR SLP168
CYYC;2002-10-07 19:00;METAR CYYC 071900Z 03021KT 40SM -RA FEW035 BKN040 BKN087 09/06 A3001 RMK SC1SC5AC2 SLP172
CYYC;2002-10-07 20:00;METAR CYYC 072000Z 02017KT 40SM FEW010 BKN061 BKN080 08/06 A3005 RMK SC2SC4AC1 SH SW / TCU EMBD S SLP184 SW / TCU EMBD S SLP184
CYYC;2002-10-07 21:00;METAR CYYC 072100Z 01022G28KT 40SM -SHRA FEW021 BKN038 06/05 A3002 RMK SC1SC6 TCU ASOCTD / PRESFR SLP191 ASOCTD / PRESFR SLP191
CYYC;2002-10-07 22:00;METAR CYYC 072200Z 35023G30KT 40SM -SHRA FEW020 BKN031 08/03 A3009 RMK SC2SC5 TCU ASOCTD SLP212 ASOCTD SLP212
CYYC;2002-10-07 23:00;METAR CYYC 072300Z 32019KT 20SM -SHRA FEW020 BKN039 BKN088 06/04 A3011 RMK SC1SC6AC1 TCU ASOCTD / LWR LYR TR SLP217
CYYC;2002-10-08 00:00;METAR CYYC 080000Z 34011KT 20SM SCT030CB BKN086 07/03 A3011 RMK CB3AC4 CB DIST N SLP224 SLP224
CYYC;2002-10-08 01:00;METAR CYYC 080100Z 30008KT 20SM FEW030 BKN041CB BKN100 07/03 A3013 RMK SC1CB5AC1 SC TR SLP231 SC TR SLP231
CYYC;2002-10-08 02:00;METAR CYYC 080200Z 27009KT 15SM FEW040 FEW100 FEW250 06/03 A3013 RMK SC1AC2CI0 SLP232 SLP232
CYYC;2002-10-08 03:00;METAR CYYC 080300Z 25007KT 15SM SKC 04/02 A3014 RMK SLP238
CYYC;2002-10-08 04:00;METAR CYYC 080400Z 26002KT 15SM SKC 04/01 A3014 RMK SLP237
CYYC;2002-10-08 05:00;METAR CYYC 080500Z 00000KT 15SM SKC 03/01 A3014 RMK SLP237
CYYC;2002-10-08 06:00;METAR CYYC 080600Z 23004KT 15SM FEW100 FEW250 03/01 A3013 RMK AC1CI1 AURBO SLP228
CYYC;2002-10-08 07:00;METAR CYYC 080700Z 21005KT 15SM FEW070 01/00 A3011 RMK AC1 SLP224
CYYC;2002-10-08 08:00;METAR CYYC 080800Z 19007KT 15SM FEW069 02/01 A3009 RMK AC1 SLP217
CYYC;2002-10-08 09:00;METAR CYYC 080900Z 21007KT 15SM SKC 01/00 A3007 RMK FROIN SLP221
CYYC;2002-10-08 10:00;METAR CYYC 081000Z 21009KT 15SM SKC 01/M00 A3005 RMK FROIN AURBO SLP213
CYYC;2002-10-08 11:00;METAR CYYC 081100Z 20005KT 15SM SKC 00/M01 A3003 RMK SLP206
CYYC;2002-10-08 12:00;METAR CYYC 081200Z 20004KT 15SM FEW080 FEW250 M00/M01 A3001 RMK AC1CI1 FROIN SLP197 SLP197
CYYC;2002-10-08 13:00;METAR CYYC 081300Z 21005KT 15SM FEW080 FEW250 M01/M02 A3000 RMK AC1CI0 SLP194
CYYC;2002-10-08 15:00;METAR CYYC 081500Z 20003KT 40SM FEW140 FEW250 01/M01 A2998 RMK AC1CI1 ALCLDS TR SLP193 SLP193
CYYC;2002-10-08 16:00;METAR CYYC 081600Z 00000KT 40SM FEW140 FEW250 06/01 A2997 RMK AC1CI1 CI TR SLP189
CYYC;2002-10-08 17:00;METAR CYYC 081700Z 24002KT 40SM FEW140 BKN250 10/01 A2997 RMK AC1CI2 SLP190
CYYC;2002-10-08 18:00;METAR CYYC 081800Z 31009KT 40SM FEW140 FEW180 BKN250 12/M02 A2996 RMK AC1AC2CI2 SLP170 SLP170
CYYC;2002-10-08 19:00;METAR CYYC 081900Z 30006KT 40SM FEW140 FEW180 BKN250 13/M03 A2994 RMK AC1AC2CI2 LWR AC TR SLP165 LWR AC TR SLP165
CYYC;2002-10-08 20:00;METAR CYYC 082000Z 30009KT 40SM FEW100 FEW180 BKN250 14/M02 A2991 RMK AC1AC1CI1 LWR AC TR SLP157 LWR AC TR SLP157
CYYC;2002-10-08 21:00;METAR CYYC 082100Z 27008KT 40SM FEW100 FEW180 SCT250 14/M02 A2988 RMK AC1AC2CI1 SLP143 SLP143
CYYC;2002-10-08 22:00;METAR CYYC 082200Z 28014KT 40SM FEW080 SCT110 BKN250 14/M03 A2987 RMK AC1AC2CI1 SLP139 SLP139
CYYC;2002-10-08 23:00;METAR CYYC 082300Z 27013KT 40SM FEW080 BKN110 13/M02 A2985 RMK AC1AC2 SLP134
CYYC;2002-10-09 00:00;METAR CYYC 090000Z 26009G15KT 30SM FEW089 SCT140 BKN250 13/M02 A2985 RMK AC2AC2CI0 SLP137
CYYC;2002-10-09 01:00;METAR CYYC 090100Z 26011KT 30SM FEW089 FEW140 FEW240 11/M02 A2984 RMK AC1AC1CI1 UPR AC+CI TR SLP131 UPR AC+CI TR SLP131
CYYC;2002-10-09 02:00;METAR CYYC 090200Z 26011KT 15SM FEW070 10/M02 A2983 RMK AC2 SLP130
CYYC;2002-10-09 03:00;METAR CYYC 090300Z 26010KT 15SM FEW090 09/M02 A2982 RMK AC2 SLP130
CYYC;2002-10-09 04:00;METAR CYYC 090400Z 25007KT 15SM FEW100 07/M02 A2982 RMK AC1 SLP130
CYYC;2002-10-09 05:00;METAR CYYC 090500Z 26006KT 15SM FEW100 07/M02 A2982 RMK AC1 SLP128
CYYC;2002-10-09 06:00;METAR CYYC 090600Z 22007KT 15SM SKC 04/M02 A2982 RMK SLP120
CYYC;2002-10-09 07:00;METAR CYYC 090700Z 21002KT 15SM SKC 05/M02 A2980 RMK SLP116
CYYC;2002-10-09 08:00;METAR CYYC 090800Z 23004KT 15SM FEW085 03/M03 A2980 RMK AC1 SLP116
CYYC;2002-10-09 09:00;METAR CYYC 090900Z 00000KT 15SM FEW085 03/M03 A2980 RMK AC1 SLP111
CYYC;2002-10-09 10:00;METAR CYYC 091000Z 26004KT 15SM FEW090 04/M03 A2980 RMK AC1 SLP110
CYYC;2002-10-09 11:00;METAR CYYC 091100Z 04003KT 15SM FEW090 M01/M04 A2980 RMK AC1 AC TR SLP110
CYYC;2002-10-09 12:00;METAR CYYC 091200Z 03003KT 15SM FEW100 FEW270 01/M04 A2979 RMK AC1CI0 AC TR SLP114
CYYC;2002-10-09 13:00;METAR CYYC 091300Z 11004KT 15SM FEW100 FEW270 01/M04 A2978 RMK AC1CI0 SLP110
CYYC;2002-10-09 15:00;METAR CYYC 091500Z 25003KT 30SM FEW091 BKN140 05/00 A2977 RMK AC1AC6 SLP105
CYYC;2002-10-09 16:00;METAR CYYC 091600Z 16002KT 30SM FEW091 BKN140 05/01 A2977 RMK AC1AC6
CYYC;2002-10-09 17:00;METAR CYYC 091700Z 19003KT 30SM FEW091 BKN140 07/00 A2975 RMK AC2AS6 SLP101
CYYC;2002-10-09 18:00;METAR CYYC 091800Z 18008KT 30SM FEW091 BKN140 08/01 A2973 RMK AC2AS6 SLP094
CYYC;2002-10-09 19:00;METAR CYYC 091900Z 18006KT 40SM FEW100 BKN160 BKN270 09/M00 A2971 RMK AC2AS3CI0 SLP089 SLP089
CYYC;2002-10-09 20:00;METAR CYYC 092000Z 18005KT 40SM FEW100 FEW160 BKN270 13/M02 A2968 RMK AC1AC2CI3 LWR AC TR SLP079 LWR AC TR SLP079
CYYC;2002-10-09 21:00;METAR CYYC 092100Z 16008KT 40SM FEW100 FEW160 BKN250 15/M01 A2963 RMK AC1AC1CI2 LWR AC TR SLP051 LWR AC TR SLP051
CYYC;2002-10-09 22:00;METAR CYYC 092200Z 13004KT 40SM FEW093 FEW150 BKN250 15/M01 A2961 RMK AC1AC1CI3 LWR AC TR SLP047 LWR AC TR SLP047
CYYC;2002-10-09 23:00;METAR CYYC 092300Z 14002KT 30SM FEW091 BKN250 15/M01 A2960 RMK AC1CI2 AC TR SLP044
CYYC;2002-10-10 00:00;METAR CYYC 100000Z 29009KT 30SM FEW090 BKN250 15/M05 A2960 RMK AC1CI2 AC TR SLP044
CYYC;2002-10-10 01:00;METAR CYYC 100100Z 31012KT 30SM FEW092 BKN250 12/M05 A2962 RMK AC1CI2 SLP050
CYYC;2002-10-10 02:00;METAR CYYC 100200Z 27016KT 15SM FEW065 FEW110 FEW250 12/M06 A2962 RMK SC1AC1CI0 SLP049 SLP049
CYYC;2002-10-10 03:00;METAR CYYC 100300Z 35016G21KT 15SM FEW100 06/01 A2965 RMK AC1 SLP069
CYYC;2002-10-10 04:00;METAR CYYC 100400Z 35010KT 15SM FEW090 03/01 A2965 RMK AC2 SLP069
CYYC;2002-10-10 05:00;METAR CYYC 100500Z 35006KT 15SM FEW100 02/00 A2965 RMK AC2 SLP068
CYYC;2002-10-10 06:00;METAR CYYC 100600Z 21002KT 15SM FEW100 01/M00 A2965 RMK AC1 SLP073
CYYC;2002-10-10 07:00;METAR CYYC 100700Z 22004KT 15SM BKN093 BKN110 01/M00 A2966 RMK AC5AC1 SLP074
CYYC;2002-10-10 08:00;METAR CYYC 100800Z 23003KT 15SM BKN095 02/00 A2964 RMK AC5 SLP067
CYYC;2002-10-10 10:00;METAR CYYC 101000Z 35005KT 15SM BKN084 01/00 A2964 RMK AC6 SLP058
CYYC;2002-10-10 11:00;METAR CYYC 101100Z 01021KT 12SM BKN021 OVC069 02/01 A2966 RMK SC6AC2 SLP065
CYYC;2002-10-10 12:00;METAR CYYC 101200Z 01016G21KT 1 3/4SM -SN BKN007 OVC025 00/M00 A2967 RMK SN1SC6SC2 SLP071
CYYC;2002-10-10 13:00;METAR CYYC 101300Z 36013KT 12SM -SN BKN007 OVC022 00/M00 A2967 RMK SC6SC2 SLP070
CYYC;2002-10-10 14:00;METAR CYYC 101400Z 36010KT 3SM -SN BKN007 OVC020 00/M00 A2968 RMK SC6SC2 SLP072
CYYC;2002-10-10 15:00;METAR CYYC 101500Z 01007KT 2SM -SN BKN007 OVC016 00/M00 A2969 RMK SC6SC2 SLP088 5500 / RWY 34 6000 SLP091
CYYC;2002-10-10 17:00;METAR CYYC 101700Z 31005KT 1 3/4SM -SN VV009 00/M00 A2971 RMK SN8 /S01/ SLP096
CYYC;2002-10-10 18:00;METAR CYYC 101800Z 30007KT 1 1/2SM -SN VV007 00/M00 A2972 RMK SN8 SLP108
CYYC;2002-10-10 19:00;METAR CYYC 101900Z 28006KT 2 1/2SM -SN OVC020 00/00 A2972 RMK ST8 SUN DIMLY VSB SLP108 SLP108
CYYC;2002-10-10 20:00;METAR CYYC 102000Z 29005KT 20SM FEW007 SCT060 BKN078 02/M00 A2972 RMK SF1SC2AS4 SUN DIMLY VSB SLP106 SUN DIMLY VSB SLP106 CF1CU2AS3CI2 TR CF SUN DIMLY VSB SLP102
CYYC;2002-10-10 22:00;METAR CYYC 102200Z 26011KT 20SM FEW020 SCT032 OVC070 03/M00 A2975 RMK CF1SC3AS5 TR CF SUN DIMLY VSB SLP111 TR CF SUN DIMLY VSB SLP111
CYYC;2002-10-10 23:00;METAR CYYC 102300Z 26009KT 20SM FEW020 FEW051 OVC070 03/M01 A2977 RMK CF1SC2AS6 TR CF SUN DIMLY VSB SLP117 TR CF SUN DIMLY VSB SLP117
CYYC;2002-10-11 00:00;METAR CYYC 110000Z 29007KT 20SM FEW051 BKN082 BKN270 03/M01 A2979 RMK SC2AS3CI0 TCU ASOCTD NW SLP127 TCU ASOCTD NW SLP127
CYYC;2002-10-11 01:00;METAR CYYC 110100Z 28004KT 40SM SCT048 BKN110 BKN270 02/M01 A2980 RMK SC3AC3CI1 TR CI SLP132 TR CI SLP132
CYYC;2002-10-11 02:00;METAR CYYC 110200Z 27003KT 15SM FEW100 00/M02 A2982 RMK AC2 SLP137
CYYC;2002-10-11 03:00;METAR CYYC 110300Z 32004KT 12SM SCT049 BKN071 01/M01 A2984 RMK SC3AC2 SLP147
CYYC;2002-10-11 04:00;METAR CYYC 110400Z 30008KT 1/2SM R16/6000FT R28/6000FT SN BKN003 OVC049 00/M00 A2987 RMK SN6SC2SC1 SLP157 A2987 RMK SN6SC2SC1 SLP157
CYYC;2002-10-11 05:00;METAR CYYC 110500Z 32008KT 2SM -SN BKN008 BKN032 OVC054 M01/M01 A2988
CYYC;2002-10-11 06:00;METAR CYYC 110600Z 33008KT 1 1/2SM -SN OVC009 M01/M01 A2989 RMK SN2SC6 /S02/ SLP168 SLP168
CYYC;2002-10-11 08:00;METAR CYYC 110800Z 31006KT 15SM -SN FEW016 SCT061 BKN076 OVC110 M02/M03 A2990 RMK SC1SC2AC2AC2 SLP171 SC1SC2AC2AC2 SLP171
CYYC;2002-10-11 09:00;METAR CYYC 110900Z 34004KT 15SM -SN FEW017 BKN083 OVC110 M02/M03 A2991 RMK SC2AC4AC2 SNW VRY LGT SLP175
CYYC;2002-10-11 10:00;METAR CYYC 111000Z 04002KT 15SM FEW018 SCT038 OVC083 M02/M03 A2992 RMK SC2SC2AC4 SLP176 SLP176
CYYC;2002-10-11 11:00;METAR CYYC 111100Z 03004KT 15SM SCT015 OVC021 M02/M03 A2992 RMK SC4SC4 SLP178
CYYC;2002-10-11 12:00;METAR CYYC 111200Z 01010KT 15SM OVC015 M02/M03 A2994 RMK SC8 SLP184
CYYC;2002-10-11 13:00;METAR CYYC 111300Z 36014KT 1/2SM R28/2200FT R16/5500FT SN VV004 M02/M03 A2997 RMK SN8 /S01/ SLP192 SN8 /S01/ SLP192
CYYC;2002-10-11 14:00;METAR CYYC 111400Z 01014G21KT 3/4SM R28/6000FT R34/6000FT -SN BKN008 OVC012 M03/M04 A3000 RESN RMK SN4SC3SC1 /S03/ SLP201 OVC017 M04/M05 A3003 RESN RMK SN4SC2SC2 SLP221
CYYC;2002-10-11 16:00;METAR CYYC 111600Z 36017G25KT 3SM -SN FEW013 BKN020 OVC030 M04/M06 A3007 RMK SF2SC3SC3 /S04/ SUN DIMLY VSB SLP233 SF2SC3SC3 /S04/ SUN DIMLY VSB SLP233
CYYC;2002-10-11 18:00;METAR CYYC 111800Z 35021G26KT 15SM FEW021 FEW045 BKN080 OVC100 M04/M08 A3013 RMK CF1SC2AS5AC1 TR CF SUN DIMLY VSB SLP259 CF1SC2AS5AC1 TR CF SUN DIMLY VSB SLP259
CYYC;2002-10-11 19:00;METAR CYYC 111900Z 35017G24KT 20SM BKN026 BKN075 BKN250 M04/M08 A3016 RMK SC4AS1CI1 CC ASOCTD SLP268
CYYC;2002-10-11 20:00;METAR CYYC 112000Z 34017G25KT 20SM FEW027 FEW035 BKN084 BKN250 M03/M09 A3018 RMK CF1SC2AC2CI0 TR CF CC ASOCTD SLP273 CF1SC2AC2CI0 TR CF CC ASOCTD SLP273
CYYC;2002-10-11 21:00;METAR CYYC 112100Z 36015G20KT 30SM FEW030 SCT100 BKN280 M04/M09 A3020 RMK CU2AC1CI2 CC ASOCTD SLP282
CYYC;2002-10-11 22:00;METAR CYYC 112200Z 35013G18KT 30SM FEW035 SCT092 BKN280 M03/M10 A3021 RMK CU1AC2CI0 CC ASOCTD SLP286
CYYC;2002-10-11 23:00;METAR CYYC 112300Z 01014KT 20SM FEW030 FEW059 BKN068 BKN280 M03/M09 A3023 RMK CF1CU1AC5CI0 TR CF TR CU SLP293 CF1CU1AC5CI0 TR CF TR CU SLP293
CYYC;2002-10-12 00:00;METAR CYYC 120000Z 35007KT 20SM FEW055 SCT070 SCT280 M04/M10 A3026 RMK CU1AC3CI1 TR CU TR CI SLP304 TR CU TR CI SLP304
CYYC;2002-10-12 02:00;METAR CYYC 120200Z 30003KT 15SM BKN063 BKN078 M05/M09 A3030 RMK SC6AC1 SLP317
CYYC;2002-10-12 03:00;METAR CYYC 120300Z 27002KT 15SM SCT060 BKN079 M05/M09 A3030 RMK SC2AC2 SLP324
CYYC;2002-10-12 04:00;METAR CYYC 120400Z 24007KT 15SM FEW046 SCT060 BKN072 M06/M10 A3031 RMK SC1SC2AC2 SLP327 SLP327
CYYC;2002-10-12 05:00;METAR CYYC 120500Z 23006KT 15SM FEW060 FEW072 M06/M10 A3032 RMK SC1AC1 SLP328
CYYC;2002-10-12 06:00;METAR CYYC 120600Z 23007KT 15SM SKC M08/M11 A3031 RMK SLP333
CYYC;2002-10-12 07:00;METAR CYYC 120700Z 23006KT 15SM SKC M08/M11 A3031 RMK SLP331
CYYC;2002-10-12 08:00;METAR CYYC 120800Z 23007KT 15SM SKC M08/M11 A3031 RMK SLP332
CYYC;2002-10-12 09:00;METAR CYYC 120900Z 21003KT 15SM SKC M07/M11 A3031 RMK SLP331
CYYC;2002-10-12 10:00;METAR CYYC 121000Z 20004KT 15SM SKC M08/M12 A3031 RMK SLP329
CYYC;2002-10-12 11:00;METAR CYYC 121100Z 22002KT 15SM SKC M08/M11 A3031 RMK SLP329
CYYC;2002-10-12 12:00;METAR CYYC 121200Z 20007KT 15SM SKC M11/M13 A3031 RMK SLP335
CYYC;2002-10-12 13:00;METAR CYYC 121300Z 20008KT 15SM SKC M10/M12 A3030 RMK SLP332
CYYC;2002-10-12 14:00;METAR CYYC 121400Z 22007KT 40SM FEW120 FEW300 M10/M12 A3029 RMK AC1CI0 TR AC SLP331 SLP331
CYYC;2002-10-12 16:00;METAR CYYC 121600Z 22008KT 40SM FEW300 M04/M10 A3029 RMK CI1 CC ASOCTD SLP326
CYYC;2002-10-12 17:00;METAR CYYC 121700Z 23008KT 40SM FEW300 M02/M09 A3029 RMK CI1 COTRA SLP325
CYYC;2002-10-12 18:00;METAR CYYC 121800Z 22007KT 40SM FEW300 01/M09 A3029 RMK CI0 COTRA CC ASOCTD SLP318
CYYC;2002-10-12 19:00;METAR CYYC 121900Z 20006KT 40SM FEW300 03/M08 A3029 RMK CI0 SLP317
CYYC;2002-10-12 20:00;METAR CYYC 122000Z 20008KT 40SM FEW050 FEW300 04/M07 A3026 RMK CF1CI1 TR CF TR CI SLP308 SLP308
CYYC;2002-10-12 21:00;METAR CYYC 122100Z 19007KT 40SM BKN300 06/M07 A3025 RMK CI0 CC ASOCTD SLP296
CYYC;2002-10-12 22:00;METAR CYYC 122200Z 19007KT 40SM SCT300 06/M08 A3025 RMK CI0 SLP294
CYYC;2002-10-12 23:00;METAR CYYC 122300Z 19006KT 40SM FEW060 SCT300 05/M05 A3023 RMK CU1CI0 TR CU SLP289
CYYC;2002-10-13 00:00;METAR CYYC 130000Z 19007KT 40SM SCT300 05/M04 A3022 RMK CI0 SLP290
CYYC;2002-10-13 01:00;METAR CYYC 130100Z 19005KT 40SM SCT300 03/M04 A3020 RMK CI1 COTRA SLP286
CYYC;2002-10-13 02:00;METAR CYYC 130200Z 13002KT 15SM FEW100 SCT300 02/M04 A3019 RMK AC1CI0 SLP283
CYYC;2002-10-13 04:00;METAR CYYC 130400Z 22004KT 15SM FEW270 06/M06 A3019 RMK CI1 SLP277
CYYC;2002-10-13 05:00;METAR CYYC 130500Z 29008KT 15SM SKC 07/M07 A3018 RMK SLP274
CYYC;2002-10-13 06:00;METAR CYYC 130600Z 30007KT 15SM SKC 06/M07 A3017 RMK SLP253
CYYC;2002-10-13 07:00;METAR CYYC 130700Z 29010KT 15SM SKC 07/M07 A3014 RMK SLP246
CYYC;2002-10-13 08:00;METAR CYYC 130800Z 20002KT 15SM FEW250 08/M07 A3013 RMK CI1 SLP241
CYYC;2002-10-13 09:00;METAR CYYC 130900Z 18005KT 15SM FEW120 FEW270 08/M06 A3011 RMK AC1CI0 SLP224
CYYC;2002-10-13 10:00;METAR CYYC 131000Z 22011KT 15SM FEW130 BKN270 05/M05 A3008 RMK AC2CI1 SLP215
CYYC;2002-10-13 11:00;METAR CYYC 131100Z 21007KT 15SM FEW130 05/M05 A3004 RMK AC2 SLP204
CYYC;2002-10-13 12:00;METAR CYYC 131200Z 21007KT 15SM BKN140 03/M04 A3001 RMK AC6 SLP200
CYYC;2002-10-13 13:00;METAR CYYC 131300Z 34002KT 15SM BKN140 04/M05 A2999 RMK AC7 SLP193
CYYC;2002-10-13 14:00;METAR CYYC 131400Z 33006KT 40SM SCT140 BKN180 04/M05 A2997 RMK AC3AC4 SLP187
CYYC;2002-10-13 15:00;METAR CYYC 131500Z 34005KT 40SM SCT140 BKN180 BKN220 BKN270 05/M06 A2994 RMK AC3AC2CI1CI1 LWR CI LYR TR SLP172 AC3AC2CI1CI1 LWR CI LYR TR SLP172
CYYC;2002-10-13 16:00;METAR CYYC 131600Z 24003KT 40SM FEW120 SCT180 BKN210 BKN270 07/M06 A2993 RMK AC2AC2CI2CI0 SLP169 AC2AC2CI2CI0 SLP169
CYYC;2002-10-13 17:00;METAR CYYC 131700Z 27017G24KT 40SM FEW120 FEW180 FEW210 FEW270 13/M06 A2992 RMK AC1AC1CI1CI1 UPR CI TR SLP165 AC1AC1CI1CI1 UPR CI TR SLP165
CYYC;2002-10-13 18:00;METAR CYYC 131800Z 27018G28KT 40SM FEW120 FEW180 FEW210 14/M03 A2991 RMK AC1AC1CI1 SLP144
CYYC;2002-10-13 19:00;METAR CYYC 131900Z 27020G28KT 40SM FEW120 BKN160 13/M03 A2989 RMK AC1AC6 SLP140
CYYC;2002-10-13 20:00;METAR CYYC 132000Z 27022G29KT 40SM FEW092 BKN180 13/M03 A2987 RMK AC1AC4 SLP134
CYYC;2002-10-13 21:00;METAR CYYC 132100Z 27020G29KT 40SM FEW100 FEW180 BKN210 14/M04 A2987 RMK AC1AC2CI2 SLP132
CYYC;2002-10-13 22:00;METAR CYYC 132200Z 28020G29KT 40SM FEW100 SCT160 BKN210 12/M06 A2989 RMK AC1AC2CI1 SLP138
CYYC;2002-10-13 23:00;METAR CYYC 132300Z 31016G24KT 40SM FEW100 FEW160 13/M07 A2993 RMK AC1AC1 LWR AC TR SLP149 TR SLP149
CYYC;2002-10-14 00:00;METAR CYYC 140000Z 28017KT 40SM FEW091 12/M06 A2996 RMK AC2 SLP172
CYYC;2002-10-14 01:00;METAR CYYC 140100Z 27014KT 30SM FEW095 09/M05 A2996 RMK AC1 SLP172
CYYC;2002-10-14 02:00;METAR CYYC 140200Z 28014G19KT 15SM SKC 08/M06 A3000 RMK SLP184
CYYC;2002-10-14 03:00;METAR CYYC 140300Z 29009KT 15SM FEW100 07/M06 A3003 RMK AC1 SLP200
CYYC;2002-10-14 04:00;METAR CYYC 140400Z 31009KT 15SM FEW100 05/M06 A3006 RMK AC1 SLP208
CYYC;2002-10-14 05:00;METAR CYYC 140500Z 01010KT 15SM FEW080 SCT090 05/M05 A3013 RMK AC1AC3 SLP229
CYYC;2002-10-14 07:00;METAR CYYC 140700Z 26004KT 15SM SKC 02/M04 A3018 RMK SLP244
CYYC;2002-10-14 08:00;METAR CYYC 140800Z 32008KT 15SM BKN086 02/M04 A3019 RMK AC4 SLP248
CYYC;2002-10-14 09:00;METAR CYYC 140900Z 30008KT 15SM BKN084 03/M04 A3021 RMK AC3 SLP254
CYYC;2002-10-14 10:00;METAR CYYC 141000Z 31007KT 15SM FEW085 01/M05 A3022 RMK AC1 AURBO SLP257
CYYC;2002-10-14 11:00;METAR CYYC 141100Z 31003KT 15SM SKC 02/M06 A3022 RMK SLP258
CYYC;2002-10-14 12:00;METAR CYYC 141200Z 32008KT 15SM SKC M01/M06 A3022 RMK AURBO SLP267
CYYC;2002-10-14 13:00;METAR CYYC 141300Z 22003KT 15SM SKC M02/M06 A3022 RMK SLP268
CYYC;2002-10-14 14:00;METAR CYYC 141400Z 00000KT 40SM FEW140 M02/M06 A3023 RMK AC1 SLP269
CYYC;2002-10-14 15:00;METAR CYYC 141500Z 00000KT 40SM FEW140 M01/M04 A3023 RMK AC1 AC TR SLP277
CYYC;2002-10-14 16:00;METAR CYYC 141600Z 24002KT 40SM FEW140 FEW250 03/M05 A3026 RMK AC1CI1 ALL CLDS TR SLP285 SLP285
CYYC;2002-10-14 17:00;METAR CYYC 141700Z 22006KT 40SM FEW250 06/M04 A3025 RMK CI1 SLP282
CYYC;2002-10-14 18:00;METAR CYYC 141800Z 19009KT 40SM FEW250 07/M04 A3024 RMK CI1 SLP276
CYYC;2002-10-14 19:00;METAR CYYC 141900Z 21009KT 40SM FEW160 FEW250 09/M04 A3023 RMK AC1CI1 AC TR SLP273
CYYC;2002-10-14 20:00;METAR CYYC 142000Z 19007KT 40SM FEW180 FEW270 10/M04 A3022 RMK AC1CI1 AC TR SLP269
CYYC;2002-10-14 21:00;METAR CYYC 142100Z 20003KT 40SM FEW065 FEW160 FEW270 11/M05 A3020 RMK CU1AC1CI1 CU+AC TR SLP257 CU+AC TR SLP257
CYYC;2002-10-14 22:00;METAR CYYC 142200Z 17002KT 40SM FEW065 SCT110 SCT250 10/M06 A3019 RMK CU1AC3CI0 CU TR SLP253 CU TR SLP253
CYYC;2002-10-14 23:00;METAR CYYC 142300Z 12004KT 40SM FEW065 BKN100 10/M05 A3019 RMK CU1AC4 CU TR SLP252
CYYC;2002-10-15 00:00;METAR CYYC 150000Z 04005KT 40SM BKN086 09/M03 A3019 RMK AC7 SLP261
CYYC;2002-10-15 01:00;METAR CYYC 150100Z 03008KT 40SM BKN086 07/M03 A3021 RMK AC7 SLP267
CYYC;2002-10-15 02:00;METAR CYYC 150200Z 03006KT 15SM SCT086 04/M03 A3022 RMK AC2 SLP270
CYYC;2002-10-15 03:00;METAR CYYC 150300Z 34004KT 15SM FEW085 04/M03 A3023 RMK AC1 SLP280
CYYC;2002-10-15 04:00;METAR CYYC 150400Z 00000KT 15SM SKC 02/M04 A3022 RMK SLP277
CYYC;2002-10-15 05:00;METAR CYYC 150500Z 22003KT 15SM SKC 01/M04 A3021 RMK SLP275
CYYC;2002-10-15 06:00;METAR CYYC 150600Z 00000KT 15SM FEW250 M01/M04 A3020 RMK CI1 SLP266
CYYC;2002-10-15 07:00;METAR CYYC 150700Z 21005KT 15SM FEW250 M00/M04 A3017 RMK CI1 SLP258
CYYC;2002-10-15 08:00;METAR CYYC 150800Z 22004KT 15SM SKC M00/M04 A3018 RMK SLP260
CYYC;2002-10-15 09:00;METAR CYYC 150900Z 19002KT 15SM SKC M00/M05 A3015 RMK SLP244
CYYC;2002-10-15 10:00;METAR CYYC 151000Z 20004KT 15SM SKC M01/M05 A3012 RMK SLP235
CYYC;2002-10-15 11:00;METAR CYYC 151100Z 21006KT 15SM FEW100 M03/M06 A3011 RMK AC1 SLP230
CYYC;2002-10-15 12:00;METAR CYYC 151200Z 19004KT 15SM FEW250 M02/M06 A3009 RMK CI0 SLP227
CYYC;2002-10-15 13:00;METAR CYYC 151300Z 22002KT 15SM FEW120 FEW250 M02/M05 A3007 RMK AC1CI0 SLP223
CYYC;2002-10-15 14:00;METAR CYYC 151400Z 34003KT 30SM FEW110 FEW250 M03/M06 A3007 RMK AC1CI1
CYYC;2002-10-15 15:00;METAR CYYC 151500Z 19003KT 40SM BKN088 BKN250 M01/M04 A3007 RMK AC6CI0 SLP227
CYYC;2002-10-15 16:00;METAR CYYC 151600Z 00000KT 40SM BKN076 BKN250 03/M01 A3009 RMK AC6CI0 VIRGA E SLP231 SLP231
CYYC;2002-10-15 17:00;METAR CYYC 151700Z 31009KT 40SM BKN066 BKN270 07/M01 A3012 RMK AC6CI0 SLP240
CYYC;2002-10-15 18:00;METAR CYYC 151800Z 34018G24KT 40SM BKN067 BKN270 09/M02 A3013 RMK AC6CI0
CYYC;2002-10-15 19:00;METAR CYYC 151900Z 34017G24KT 40SM FEW062 BKN087 BKN140 OVC270 09/01 A3013 RMK CU1AC6AC1CI1 CU+UPR AC TR SLP241 CU1AC6AC1CI1 CU+UPR AC TR SLP241
CYYC;2002-10-15 20:00;METAR CYYC 152000Z 34013G21KT 40SM FEW054 BKN069 BKN250 10/01 A3013 RMK CU1AC5CI1 SLP241 SLP241
CYYC;2002-10-15 21:00;METAR CYYC 152100Z 33017G22KT 40SM FEW062 BKN092 OVC250 10/00 A3013 RMK CF1AC5CI1 SLP237 SLP237
CYYC;2002-10-15 22:00;METAR CYYC 152200Z 35016KT 40SM FEW067 SCT078 OVC250 10/M02 A3013 RMK AC1AC3CI1 LWR AC TR SLP237 LWR AC TR SLP237
CYYC;2002-10-15 23:00;METAR CYYC 152300Z 36014KT 40SM FEW078 OVC250 10/M02 A3013 RMK AC2CI2 SLP236
CYYC;2002-10-16 00:00;METAR CYYC 160000Z 34007KT 30SM FEW073 BKN250 08/M01 A3014 RMK AC2CI1 SLP244
CYYC;2002-10-16 01:00;METAR CYYC 160100Z 32005KT 30SM FEW070 FEW084 SCT270 06/M02 A3014 RMK AC1AC1CI1 SLP245 SLP245
CYYC;2002-10-16 02:00;METAR CYYC 160200Z 32006KT 15SM SCT065 BKN093 05/M01 A3015 RMK SC3AC3 SLP249
CYYC;2002-10-16 03:00;METAR CYYC 160300Z 35003KT 15SM BKN064 OVC099 04/M01 A3016 RMK SC6AC2 SLP257
CYYC;2002-10-16 04:00;METAR CYYC 160400Z 31005KT 15SM OVC064 05/M00 A3017 RMK SC7 SLP259
CYYC;2002-10-16 05:00;METAR CYYC 160500Z 01004KT 15SM OVC062 04/M00 A3017 RMK SC8 SLP259
CYYC;2002-10-16 06:00;METAR CYYC 160600Z 32002KT 15SM BKN060 OVC087 04/M00 A3017 RMK SC6AC2 SLP248
CYYC;2002-10-16 07:00;METAR CYYC 160700Z 33003KT 15SM BKN060 BKN092 04/M00 A3017 RMK SC5AC2
CYYC;2002-10-16 08:00;METAR CYYC 160800Z 32005KT 15SM SCT058 BKN089 03/00 A3019 RMK SC3AC4 SLP252
CYYC;2002-10-16 09:00;METAR CYYC 160900Z 34005KT 15SM SCT050 OVC089 03/M00 A3020 RMK SC4AC3 SLP255
CYYC;2002-10-16 10:00;METAR CYYC 161000Z 31004KT 15SM BKN043 OVC076 03/M01 A3020 RMK SC5AC3
CYYC;2002-10-16 11:00;METAR CYYC 161100Z 26002KT 15SM FEW048 FEW085 03/M01 A3019 RMK SC2AC1
CYYC;2002-10-16 12:00;METAR CYYC 161200Z 21007KT 15SM FEW090 FEW250 M01/M02 A3018 RMK AC1CI0 SLP256
CYYC;2002-10-16 13:00;METAR CYYC 161300Z 23002KT 15SM SCT083 BKN250 M00/M02 A3018 RMK AC2CI1
CYYC;2002-10-16 14:00;METAR CYYC 161400Z 22005KT 40SM SCT081 BKN250 M00/M03 A3016 RMK AC2CI1 CC ASOCTD SLP250 SLP250
CYYC;2002-10-16 15:00;METAR CYYC 161500Z 20004KT 40SM FEW080 BKN260 01/M01 A3016 RMK AC2CI2 CC ASOCTD SLP256
CYYC;2002-10-16 16:00;METAR CYYC 161600Z 23006KT 40SM FEW080 BKN260 04/00 A3015 RMK AC2CI1 CC ASOCTD SLP252
CYYC;2002-10-16 17:00;METAR CYYC 161700Z 24009KT 40SM SCT068 BKN260 06/M00 A3013 RMK AC2CI1 CC ASOCTD SLP247 SLP247
CYYC;2002-10-16 18:00;METAR CYYC 161800Z 23010KT 40SM FEW070 BKN260 09/M00 A3011 RMK AC1CI2 CC ASOCTD SLP226 SLP226
CYYC;2002-10-16 19:00;METAR CYYC 161900Z 22009KT 40SM FEW070 SCT270 BKN300 11/00 A3008 RMK AC1CI2CC1 TR AC SLP216 AC SLP216 TR AC TR CC SLP204
CYYC;2002-10-16 21:00;METAR CYYC 162100Z 24004KT 40SM FEW090 BKN280 BKN300 13/M01 A3001 RMK AC1CI4CC0 TR AC COTRA SLP185 TR AC COTRA SLP185
CYYC;2002-10-16 22:00;METAR CYYC 162200Z 17003KT 40SM SCT280 BKN300 14/M01 A2997 RMK CI2CC1 SLP175
CYYC;2002-10-16 23:00;METAR CYYC 162300Z 18009KT 40SM FEW100 SCT280 BKN300 13/M01 A2995 RMK AC1CI2CC1 TR AC SLP167 TR AC SLP167
CYYC;2002-10-17 00:00;METAR CYYC 170000Z 17008KT 40SM FEW100 BKN280 BKN300 12/M01 A2992 RMK AC1CI2CC0 TR AC SLP160 TR AC SLP160
CYYC;2002-10-17 01:00;METAR CYYC 170100Z 17007KT 40SM FEW100 BKN280 BKN300 08/M01 A2990 RMK AC1CI2CC0 TR AC SLP154 TR AC SLP154
CYYC;2002-10-17 02:00;METAR CYYC 170200Z 19008KT 15SM FEW120 BKN250 07/M01 A2987 RMK AC1CI2 SLP146
CYYC;2002-10-17 03:00;METAR CYYC 170300Z 16003KT 15SM FEW120 SCT250 08/M01 A2984 RMK AC1CI1 AC TR SLP139
CYYC;2002-10-17 04:00;METAR CYYC 170400Z 27005KT 15SM OVC250 10/M02 A2983 RMK CI6 SLP134
CYYC;2002-10-17 05:00;METAR CYYC 170500Z 20005KT 15SM BKN250 09/M02 A2981 RMK CI4 SLP129
CYYC;2002-10-17 05:54;SPECI CYYC 170554Z 26014G19KT 15SM FEW160 BKN250 RMK AC1CI3 WND SHFT 0539Z
CYYC;2002-10-17 06:00;METAR CYYC 170600Z 25014G19KT 15SM FEW160 BKN250 12/M04 A2978 RMK AC1CI3 SLP100
CYYC;2002-10-17 07:00;METAR CYYC 170700Z 27014KT 15SM FEW160 OVC250 12/M05 A2976 RMK AC2CI4 SLP094
CYYC;2002-10-17 08:00;METAR CYYC 170800Z 28012G19KT 15SM FEW160 BKN250 13/M06 A2976 RMK AC2CI3 SLP093
CYYC;2002-10-17 09:00;METAR CYYC 170900Z 28018KT 15SM FEW140 OVC250 14/M07 A2974 RMK AC2CI3 SLP078
CYYC;2002-10-17 10:00;METAR CYYC 171000Z 28019G24KT 15SM FEW140 OVC250 14/M08 A2974 RMK AC2CI2
CYYC;2002-10-17 11:00;METAR CYYC 171100Z 29014G20KT 15SM FEW140 OVC250 14/M08 A2973 RMK AC2CI2 SLP075
CYYC;2002-10-17 12:00;METAR CYYC 171200Z 32009KT 15SM FEW140 BKN250 11/M06 A2973 RMK AC2CI3
CYYC;2002-10-17 13:00;METAR CYYC 171300Z 28016KT 15SM FEW087 SCT140 OVC250 14/M08 A2972 RMK AC2AC2CI2 SLP077 SLP077
CYYC;2002-10-17 14:00;METAR CYYC 171400Z 28015G21KT 40SM FEW085 SCT140 BKN250 14/M08 A2973 RMK AC2AC1CI1 SLP080
CYYC;2002-10-17 15:00;METAR CYYC 171500Z 27016KT 40SM FEW085 BKN110 BKN250 BKN280 14/M07 A2972 RMK AC2AC2CI1CC1 TR CC SLP079 AC2AC2CI1CC1 TR CC SLP079
CYYC;2002-10-17 16:00;METAR CYYC 171600Z 36011G17KT 40SM FEW095 BKN250 BKN280 12/M05 A2975 RMK AC1CI4CC1 SLP088
CYYC;2002-10-17 17:00;METAR CYYC 171700Z 01008KT 40SM FEW100 BKN250 BKN280 14/M04 A2976 RMK AC1CI5CC1 TR AC SLP091 TR AC SLP091
CYYC;2002-10-17 18:00;METAR CYYC 171800Z 03009KT 40SM FEW095 BKN250 BKN280 15/M03 A2977 RMK AC1CI4CI0 CC ASOCTD SLP088 CC ASOCTD SLP088
CYYC;2002-10-17 19:00;METAR CYYC 171900Z 02009KT 40SM FEW095 SCT250 BKN280 14/M02 A2976 RMK AC1CI2CI2 CC ASOCTD SLP086 CC ASOCTD SLP086
CYYC;2002-10-17 20:00;METAR CYYC 172000Z 36007KT 40SM SCT100 BKN250 BKN280 15/M01 A2976 RMK AC3CI1CI2 CC ASOCTD SLP085 CC ASOCTD SLP085
CYYC;2002-10-17 22:00;METAR CYYC 172200Z 03008KT 40SM BKN100 BKN260 BKN300 14/00 A2977 RMK AC5CI1CC1 TR CC SLP084 CC SLP084
CYYC;2002-10-17 23:00;METAR CYYC 172300Z 04009KT 40SM BKN100 BKN260 BKN300 13/01 A2978 RMK AC6CI1CC1 TR CC COTRA SLP086 CC COTRA SLP086
CYYC;2002-10-18 00:00;METAR CYYC 180000Z 04005KT 40SM BKN110 BKN260 BKN300 11/02 A2977 RMK AC6CI1CC1 TR CC SLP095 CC SLP095
CYYC;2002-10-18 01:00;METAR CYYC 180100Z 08005KT 40SM BKN110 BKN270 09/02 A2978 RMK AC4CI1 SLP096
CYYC;2002-10-18 02:00;METAR CYYC 180200Z 05003KT 15SM FEW110 SCT250 09/01 A2979 RMK AC2CI1 SLP100
CYYC;2002-10-18 03:00;METAR CYYC 180300Z 32006KT 15SM SCT250 05/01 A2980 RMK CI1 SLP110
CYYC;2002-10-18 04:00;METAR CYYC 180400Z 34004KT 15SM SCT250 03/00 A2982 RMK CI1 SLP114
CYYC;2002-10-18 05:00;METAR CYYC 180500Z 33005KT 15SM FEW041 FEW100 SCT250 03/00 A2985 RMK SC2AC1CI0 SLP123 SLP123
CYYC;2002-10-18 06:00;METAR CYYC 180600Z 33005KT 15SM BKN041 OVC100 04/01 A2986 RMK SC5AC2 SLP130
CYYC;2002-10-18 07:00;METAR CYYC 180700Z 34007KT 15SM SCT043 OVC061 06/03 A2988 RMK SC3SC4 SLP138
CYYC;2002-10-18 08:00;METAR CYYC 180800Z 32005KT 15SM BKN050 OVC095 06/03 A2990 RMK SC5AC2 SLP142
CYYC;2002-10-18 09:00;METAR CYYC 180900Z 34007KT 15SM BKN059 OVC095 06/03 A2991 RMK SC6AC2 SLP147
CYYC;2002-10-18 10:00;METAR CYYC 181000Z 33005KT 15SM BKN051 OVC093 05/03 A2993 RMK SC5AC2 SLP152
CYYC;2002-10-18 11:00;METAR CYYC 181100Z 30005KT 15SM SCT030 BKN051 OVC093 05/03 A2994 RMK SC4SC2AC2 SLP155 SLP155
CYYC;2002-10-18 12:00;METAR CYYC 181200Z 31005KT 15SM SCT026 BKN059 OVC087 06/03 A2995 RMK SC3SC2AC2 SLP163 SLP163
CYYC;2002-10-18 13:00;METAR CYYC 181300Z 00000KT 15SM SCT024 BKN050 OVC090 05/03 A2996 RMK SC3SC2AC2 SLP166 SLP166
CYYC;2002-10-18 14:00;METAR CYYC 181400Z 00000KT 20SM FEW015 BKN018 BKN052 BKN095 06/03 A2997 RMK CF1SC6SC1AC1 TR CF SLP169
CYYC;2002-10-18 15:00;METAR CYYC 181500Z 21003KT 40SM FEW014 SCT018 BKN052 BKN085 06/03 A2998 RMK CF1SC3SC2AC1 TR CF TR AC SLP182
CYYC;2002-10-18 16:00;METAR CYYC 181600Z 22004KT 40SM FEW016 BKN025 BKN085 06/03 A2999 RMK CF1SC6AC1 TR CF SLP185 CF SLP185
CYYC;2002-10-18 17:00;METAR CYYC 181700Z 18004KT 40SM FEW014 BKN018 BKN085 BKN270 07/04 A2999 RMK CF1SC5AC1CI1 TR CF TR AC TR CI HAZY SLP187
CYYC;2002-10-18 19:00;METAR CYYC 181900Z 18008KT 40SM FEW027 BKN088 BKN300 11/04 A2997 RMK CU2AC2CC0 HAZY SLP179 HAZY SLP179
CYYC;2002-10-18 20:00;METAR CYYC 182000Z 19004KT 40SM FEW034 FEW090 12/03 A2996 RMK CU2AC1 HAZY SLP174
CYYC;2002-10-18 21:00;METAR CYYC 182100Z 22005KT 40SM FEW040 FEW120 FEW300 13/03 A2995 RMK CU2AC1CI1 TR CI HAZY SLP161 CI HAZY SLP161
CYYC;2002-10-18 22:00;METAR CYYC 182200Z 19006KT 30SM FEW038 FEW120 FEW300 13/03 A2994 RMK CU2AC1CI1 TR AC TR CI HAZY SLP159 AC TR CI HAZY SLP159
CYYC;2002-10-18 23:00;METAR CYYC 182300Z 17007KT 30SM FEW040 FEW120 FEW300 12/03 A2994 RMK CF1AC1CI1 TR AC TR CI HAZY SLP160 AC TR CI HAZY SLP160
CYYC;2002-10-19 00:00;METAR CYYC 190000Z 14007KT 30SM FEW036 FEW120 FEW300 11/03 A2994 RMK CF1AC1CI1 TR CF TR AC TR CI HAZY SLP163 CF TR AC TR CI HAZY SLP163
CYYC;2002-10-19 01:00;METAR CYYC 190100Z 16007KT 40SM FEW120 FEW300 08/02 A2995 RMK AC1CI0 TR AC SLP166
CYYC;2002-10-19 02:00;METAR CYYC 190200Z 15006KT 15SM FEW270 07/02 A2995 RMK CI0 SLP165
CYYC;2002-10-19 04:00;METAR CYYC 190400Z 19007KT 15SM SCT250 05/02 A2996 RMK CI1 SLP174
CYYC;2002-10-19 05:00;METAR CYYC 190500Z 18005KT 15SM BKN250 04/02 A2996 RMK CI1 SLP173
CYYC;2002-10-19 06:00;METAR CYYC 190600Z 20009KT 15SM FEW270 03/02 A2995 RMK CI0 SLP171
CYYC;2002-10-19 07:00;METAR CYYC 190700Z 19006KT 15SM FEW270 03/02 A2994 RMK CI0 SLP168
CYYC;2002-10-19 08:00;METAR CYYC 190800Z 21007KT 15SM FEW270 01/M00 A2994 RMK CI1 SLP167
CYYC;2002-10-19 09:00;METAR CYYC 190900Z 21006KT 15SM SKC 01/M01 A2992 RMK SLP160
CYYC;2002-10-19 10:00;METAR CYYC 191000Z 21007KT 15SM FEW270 M00/M03 A2992 RMK CI1 SLP159
CYYC;2002-10-19 11:00;METAR CYYC 191100Z 19005KT 15SM FEW120 FEW250 00/M04 A2990 RMK AC1CI1 SLP154
CYYC;2002-10-19 12:00;METAR CYYC 191200Z 19005KT 15SM FEW120 FEW270 01/M04 A2990 RMK AC1CI1 SLP155
CYYC;2002-10-19 13:00;METAR CYYC 191300Z 20003KT 15SM FEW160 FEW270 00/M04 A2990 RMK AC1CI0 AC TR
CYYC;2002-10-19 14:00;METAR CYYC 191400Z 02002KT 40SM FEW160 FEW270 M01/M05 A2990 RMK AC1CI0
CYYC;2002-10-19 16:00;METAR CYYC 191600Z 00000KT 40SM BKN180 BKN280 08/M01 A2992 RMK AC3CI1 SLP162
CYYC;2002-10-19 17:00;METAR CYYC 191700Z 30004KT 40SM BKN180 BKN280 12/M00 A2992 RMK AC4CI2 SLP163
CYYC;2002-10-19 18:00;METAR CYYC 191800Z 32008KT 40SM FEW180 BKN280 14/M05 A2992 RMK AC2CI1 SLP152
CYYC;2002-10-19 19:00;METAR CYYC 191900Z 35003KT 40SM FEW180 BKN270 15/M07 A2992 RMK AC2CI1 SLP153
CYYC;2002-10-19 20:00;METAR CYYC 192000Z 35006KT 40SM FEW120 SCT160 BKN270 16/M06 A2991 RMK AC1AC2CI1 LWR AC TR SLP151 LWR AC TR SLP151
CYYC;2002-10-19 21:00;METAR CYYC 192100Z 06010KT 40SM FEW098 FEW160 BKN270 14/M01 A2991 RMK AC1AC2CI2 SLP153
CYYC;2002-10-19 22:00;METAR CYYC 192200Z 07008KT 40SM FEW098 SCT160 BKN270 13/M01 A2991 RMK AC1AC2CI1 SLP154
CYYC;2002-10-19 23:00;METAR CYYC 192300Z 05006KT 30SM FEW120 BKN160 BKN250 10/00 A2992 RMK AC2AC3CI0 SLP155
CYYC;2002-10-20 00:00;METAR CYYC 200000Z 07003KT 20SM FEW120 SCT160 BKN250 08/02 A2992 RMK AC1AC2CI1 SLP166 SLP166
CYYC;2002-10-20 01:00;METAR CYYC 200100Z 10006KT 15SM FEW120 BKN160 OVC250 05/01 A2993 RMK AC2AC3CI0 SLP168 SLP168
CYYC;2002-10-20 02:00;METAR CYYC 200200Z 07005KT 15SM FEW120 BKN250 03/01 A2994 RMK AC2CI2 SLP172
CYYC;2002-10-20 03:00;METAR CYYC 200300Z 08004KT 15SM SCT120 OVC250 01/00 A2995 RMK AC2CI2 SLP180
CYYC;2002-10-20 03:38;SPECI CYYC 200338Z 08003KT 3SM BR OVC080 RMK FG5AC3
CYYC;2002-10-20 03:42;SPECI CYYC 200342Z 09003KT 1/2SM R16/2600FT R28/3000FT FG VV001 RMK FG8
CYYC;2002-10-20 03:52;SPECI CYYC 200352Z 07003KT 0SM R28/1800FT R16/2000FT FG VV001 RMK FG8
CYYC;2002-10-20 04:00;METAR CYYC 200400Z 06003KT 0SM R28/1600FT R16/1800FT FG VV001 01/01 A2996 RMK FG8 SLP183 SLP183
CYYC;2002-10-20 04:15;SPECI CYYC 200415Z 00000KT 0SM R16/1600FT R28/1600FT FG VV000 RMK FG8 RVR RWY34 2000 2000
CYYC;2002-10-20 05:00;METAR CYYC 200500Z 05004KT 0SM R28/1600FT R34/1800FT FG VV000 00/00 A2996
CYYC;2002-10-20 06:00;METAR CYYC 200600Z 04002KT 0SM R16/2000FT R28/2600FT FZFG VV000 M00/M00 A2996 RMK FG8 SLP172 FG8 SLP172
CYYC;2002-10-20 06:20;SPECI CYYC 200620Z 00000KT 1/8SM R28/2400FT R16/3000FT FZFG VV001 RMK FG8
CYYC;2002-10-20 07:00;METAR CYYC 200700Z 00000KT 1/4SM R34/2600FT R28/4000FT FG VV001 00/00 A2996 RMK FG8 SLP172
CYYC;2002-10-20 08:00;METAR CYYC 200800Z 05003KT 1/4SM R28/2200FT R34/4000FT FZFG VV001 M00/M00 A2997 RMK FG8 SLP173 RMK FG8 SLP173
CYYC;2002-10-20 09:00;METAR CYYC 200900Z 01002KT 1/4SM R16/2600FT R28/3000FT FG VV001 00/00 A2998 RMK FG8 SLP177 FG8 SLP177
CYYC;2002-10-20 10:00;METAR CYYC 201000Z 32002KT 3/8SM R16/2800FT R28/3000FT FG VV001 00/00 A2997 RMK FG8 SLP175 FG8 SLP175
CYYC;2002-10-20 11:36;SPECI CYYC 201136Z 26002KT 10SM FEW088 BKN110 RMK AC2AC3
CYYC;2002-10-20 11:00;METAR CYYC 201100Z 26003KT 6SM BR FEW008 OVC100 00/00 A2997 RMK SC2AC6 SLP175
CYYC;2002-10-20 12:00;METAR CYYC 201200Z 22003KT 12SM SCT088 BKN100 01/01 A2997 RMK AC3AC3 SLP184
CYYC;2002-10-20 13:00;METAR CYYC 201300Z 00000KT 12SM SCT070 OVC096 01/00 A2998 RMK AC3AC4 SLP186
CYYC;2002-10-20 14:00;METAR CYYC 201400Z 19004KT 30SM FEW074 BKN090 BKN140 01/01 A2997 RMK AC1AC6AC1 LWR AC TR / VIRGA SE SLP184 LWR AC TR / VIRGA SE SLP184
CYYC;2002-10-20 15:00;METAR CYYC 201500Z 00000KT 40SM FEW074 BKN087 02/01 A2998 RMK AC1AC6 SLP195
CYYC;2002-10-20 16:00;METAR CYYC 201600Z 24003KT 40SM OVC087 03/02 A2999 RMK AC8 SLP197
CYYC;2002-10-20 17:00;METAR CYYC 201700Z 20002KT 40SM FEW060 BKN089 05/01 A3000 RMK CF1AC7 CF TR SLP200
CYYC;2002-10-20 18:00;METAR CYYC 201800Z 24002KT 40SM FEW070 BKN087 07/01 A3001 RMK AC1AC7 LWR AC TR SLP198 SLP198
CYYC;2002-10-20 19:00;METAR CYYC 201900Z 24003KT 40SM FEW070 OVC089 08/01 A3001 RMK AC1AC8 LWR AC
CYYC;2002-10-20 20:00;METAR CYYC 202000Z 00000KT 40SM FEW074 BKN090 10/02 A3000 RMK AC1AC6 SLP196
CYYC;2002-10-20 21:00;METAR CYYC 202100Z 33009KT 30SM FEW065 FEW082 12/01 A2999 RMK SC1AC2 SLP185
CYYC;2002-10-20 22:00;METAR CYYC 202200Z 01011KT 30SM FEW065 FEW082 SCT270 13/02 A2999 RMK SC1AC1CC1 SLP185
CYYC;2002-10-20 23:00;METAR CYYC 202300Z 03008KT 30SM FEW063 BKN110 BKN270 12/02 A3001 RMK SC2AC3CC1 SLP190 SLP190
CYYC;2002-10-21 00:00;METAR CYYC 210000Z 36008KT 30SM FEW082 BKN110 BKN270 12/02 A3001 RMK AC1AC5CI0 LWR AC TR SLP191 LWR AC TR SLP191
CYYC;2002-10-21 22:00;METAR CYYC 202200Z 01011KT 30SM FEW065 FEW082 SCT270 13/02 A2999 RMK SC1AC1CC1 SLP185
CYYC;2002-10-21 23:00;METAR CYYC 202300Z 03008KT 30SM FEW063 BKN110 BKN270 12/02 A3001 RMK SC2AC3CC1 SLP190
CYYC;2002-10-21 01:48;SPECI CYYC 210148Z 05008KT 15SM -RA SCT060 OVC089 RMK SC3AC5
CYYC;2002-10-21 02:00;METAR CYYC 210200Z 06006KT 15SM -RA BKN060 OVC090 07/03 A3004 RMK SC5AC3 SLP200
CYYC;2002-10-21 03:00;METAR CYYC 210300Z 08002KT 15SM -RA OVC055 07/03 A3005 RMK SC8 SLP210
CYYC;2002-10-21 03:16;SPECI CYYC 210316Z 00000KT 15SM OVC055 RMK SC8
CYYC;2002-10-21 03:30;SPECI CYYC 210330Z 02002KT 15SM -RA BKN053 OVC078 RMK SC6AC2
CYYC;2002-10-21 04:00;METAR CYYC 210400Z 00000KT 15SM -RA BKN053 OVC071 06/04 A3006 RMK SC6AC2 SLP212
CYYC;2002-10-21 04:51;SPECI CYYC 210451Z 18003KT 15SM BKN063 OVC080 RMK SC6AC2
CYYC;2002-10-21 05:45;SPECI CYYC 210545Z 21005KT 15SM BKN054 OVC080 RMK SC6AC2
CYYC;2002-10-21 06:00;METAR CYYC 210600Z 22006KT 15SM BKN050 OVC098 06/04 A3004 RMK SC5AC2 SLP202
CYYC;2002-10-21 06:19;SPECI CYYC 210619Z 25004KT 15SM -RA FEW041 BKN065 OVC098 RMK SC1SC4AC3
CYYC;2002-10-21 07:00;METAR CYYC 210700Z 22006KT 15SM -RA BKN065 OVC097 06/05 A3003 RMK SC5AC3 SLP198
CYYC;2002-10-21 09:00;METAR CYYC 210900Z CCA 28004KT 15SM -RA BKN044 OVC099 07/05 A3003 RMK SC5AC3 SLP188
CYYC;2002-10-21 09:30;SPECI CYYC 210930Z 34004KT 15SM SCT048 BKN074 OVC099 RMK SC4AC2AC2
CYYC;2002-10-21 10:00;METAR CYYC 211000Z 01006KT 15SM SCT040 BKN086 OVC095 07/05 A3003 RMK SC4AC2AC2 SLP190 SLP190
CYYC;2002-10-21 10:20;SPECI CYYC 211020Z 05006KT 8SM -RA SCT029 BKN086 OVC095 RMK SC3AC3AC2
CYYC;2002-10-21 11:00;METAR CYYC 211100Z 00000KT 3SM -RA OVC033 04/04 A3002 RMK SC8 SLP185
CYYC;2002-10-21 11:07;SPECI CYYC 211107Z 00000KT 2 1/2SM -RA OVC033 RMK SC8
CYYC;2002-10-21 12:00;METAR CYYC 211200Z 03006KT 2 1/2SM RA BKN046 OVC096 04/04 A3002 RMK SC5AC3
CYYC;2002-10-21 12:44;SPECI CYYC 211244Z 07003KT 3SM -RA FEW024 BKN037 OVC050 RMK SC2SC6SC1
CYYC;2002-10-21 13:00;METAR CYYC 211300Z 05006KT 3SM -RA OVC042 04/04 A3002 RMK SC8 SLP191
CYYC;2002-10-21 13:54;SPECI CYYC 211354Z 05009KT 5SM -RA FEW002 BKN015 OVC040 RMK SF1SC6SC2
CYYC;2002-10-21 14:00;METAR CYYC 211400Z 05009KT 5SM -RA FEW002 BKN015 OVC040 03/02 A3003 RMK SF1SC6SC2 SLP193 SLP193
CYYC;2002-10-21 15:00;METAR CYYC 211500Z 04010KT 5SM -RA FEW003 BKN017 OVC028 02/01 A3006 RMK SF1SC6SC1 SLP214 SLP214
CYYC;2002-10-21 15:49;SPECI CYYC 211549Z 04008KT 3SM -SN FEW003 OVC012 RMK SF1SC7
CYYC;2002-10-21 15:54;SPECI CYYC 211554Z 05008KT 2SM -SN FEW003 OVC012 RMK SF1SC7
CYYC;2002-10-21 16:00;METAR CYYC 211600Z 04007KT 2SM -SN FEW005 OVC012 00/M00 A3009 RMK SF2SC6 SLP224
CYYC;2002-10-21 16:28;SPECI CYYC 211628Z 04006KT 3SM -SN FEW005 BKN015 OVC020 RMK SF2SC3SC2
CYYC;2002-10-21 17:00;METAR CYYC 211700Z 05008KT 6SM -SN FEW006 BKN015 OVC018 00/M00 A3012 RMK SF2SC4SC2 SLP232
CYYC;2002-10-21 17:40;SPECI CYYC 211740Z 05008KT 2SM -SN BKN004 OVC015 RMK SC6SC2
CYYC;2002-10-21 18:00;METAR CYYC 211800Z 05009KT 1 3/4SM -SN BKN004 OVC020 M00/M01 A3015 RMK SC6SC2 SLP249
CYYC;2002-10-21 18:08;SPECI CYYC 211808Z 05012KT 2SM -SN BKN007 OVC020 RMK SC6SC2 SLP249
CYYC;2002-10-21 19:00;METAR CYYC 211900Z 04011KT 1 1/2SM -SN BKN007 BKN015 OVC024 M01/M02 A3018 RMK SC5SC2SC1 SLP259 RWY 28 5500 / RVR RWY 34 5500
CYYC;2002-10-21 19:38;SPECI CYYC 211938Z 05009KT 1 3/4SM -SN BKN006 BKN015 OVC024 RMK SC5SC2SC1
CYYC;2002-10-21 20:00;METAR CYYC 212000Z 04012KT 1 3/4SM -SN BKN007 BKN011 OVC022 M01/M02 A3021 RMK SC5SC2SC1 SLP269
CYYC;2002-10-21 20:18;SPECI CYYC 212018Z 04009KT 1SM -SN BKN006 BKN011 OVC018 RMK SC5SC2SC1 RVR RWY 28 5000 / RVR RWY 34 6000 SC5SC2SC1 SLP269
CYYC;2002-10-21 20:37;SPECI CYYC 212037Z 05010KT 3/4SM -SN VV006 RMK SN8 RVR RWY 28 6000 / RVR RWY 34 5500 5000 / RVR RWY 34 6000 5500
CYYC;2002-10-21 21:00;METAR CYYC 212100Z 04008KT 3/4SM -SN VV006 M02/M03 A3025 RMK SN8 RVR RWY 28 6000 / RVR RWY 34 6000 /S01/ SLP285 / RVR RWY 34 6000 /S01/ SLP285
CYYC;2002-10-21 21:13;SPECI CYYC 212113Z 04007KT 1 1/2SM -SN VV006 RMK SN8
CYYC;2002-10-21 22:00;METAR CYYC 212200Z 04007KT 2SM -SN BKN006 OVC010 M02/M03 A3026 RMK SN1SC6SC1 SLP291 SLP291
CYYC;2002-10-21 22:11;SPECI CYYC 212211Z 05007KT 5SM -SN BKN006 OVC010 RMK SC6SC2
CYYC;2002-10-21 22:21;SPECI CYYC 212221Z 04007KT 8SM BKN005 OVC010 RMK SC6SC2
CYYC;2002-10-21 23:00;METAR CYYC 212300Z 05007KT 8SM OVC004 M03/M04 A3030 RMK SC8 SLP301
CYYC;2002-10-21 23:16;SPECI CYYC 212316Z 04007KT 5SM -SN OVC005 RMK SC8
CYYC;2002-10-21 23:38;SPECI CYYC 212338Z 04007KT 1 3/4SM -SN OVC004 RMK SC8
CYYC;2002-10-22 00:00;METAR CYYC 220000Z 05008KT 2 1/2SM -SN OVC004 M03/M04 A3032 RMK SC8 SLP317
CYYC;2002-10-22 00:09;SPECI CYYC 220009Z 05008KT 3SM -SN BKN006 OVC012 RMK SC6SC2
CYYC;2002-10-22 00:16;SPECI CYYC 220016Z 05009KT 3SM -SN BKN004 OVC012 RMK SC6SC2
CYYC;2002-10-22 00:18;SPECI CYYC 220018Z 05008KT 1 1/2SM -SN BKN003 OVC012 RMK SC6SC2
CYYC;2002-10-22 00:39;SPECI CYYC 220039Z 06008KT 3SM BKN004 OVC012 RMK SC6SC2
CYYC;2002-10-22 01:00;METAR CYYC 220100Z 07007KT 10SM BKN008 OVC017 M03/M04 A3034 RMK SC6SC2 SLP323
CYYC;2002-10-22 01:12;SPECI CYYC 220112Z 08007KT 10SM -SN BKN008 OVC017 RMK SC6SC2
CYYC;2002-10-22 02:00;METAR CYYC 220200Z 08007KT 12SM -SN BKN009 OVC021 M03/M05 A3037 RMK SC6SC2 SLP330
CYYC;2002-10-22 02:54;SPECI CYYC 220254Z 09009KT 6SM -SN BR OVC003 RMK ST8
CYYC;2002-10-22 03:00;METAR CYYC 220300Z 11008KT 5SM -SN PRFG OVC003 M04/M04 A3039 RMK ST8 FOG BANK S-W SLP344 SLP344
CYYC;2002-10-22 03:32;SPECI CYYC 220332Z 10007KT 2 1/2SM -SN PRFG OVC002 RMK SN2ST6
CYYC;2002-10-22 04:00;METAR CYYC 220400Z 10008KT 2SM -SN PRFG OVC002 M04/M05 A3040 RMK SN2ST6 SLP348
CYYC;2002-10-22 05:00;METAR CYYC 220500Z 11008KT 3SM -SN OVC005 M04/M05 A3042 RMK ST8 SLP353
CYYC;2002-10-22 06:00;METAR CYYC 220600Z 14009KT 4SM -SN OVC008 M04/M06 A3043 RMK SC8 SLP360
CYYC;2002-10-22 07:00;METAR CYYC 220700Z 14007KT 5SM -SN BKN009 OVC018 M04/M06 A3043 RMK SC6SC2 SLP360
CYYC;2002-10-22 08:00;METAR CYYC 220800Z 15008KT 5SM -SN BKN006 OVC021 M04/M05 A3042 RMK SC6SC2 SLP357
CYYC;2002-10-22 08:42;SPECI CYYC 220842Z 14008KT 4SM -SN OVC004 RMK ST8
CYYC;2002-10-22 09:00;METAR CYYC 220900Z 15008KT 4SM -SN OVC004 M04/M05 A3042 RMK ST8 SLP359
CYYC;2002-10-22 10:00;METAR CYYC 221000Z 15010KT 6SM -SN OVC006 M04/M05 A3041 RMK ST8 SLP358
CYYC;2002-10-22 11:00;METAR CYYC 221100Z 16008KT 7SM -SN OVC009 M04/M06 A3041 RMK SC8 SLP357
CYYC;2002-10-22 12:00;METAR CYYC 221200Z 17010KT 6SM -SN OVC009 M04/M06 A3040 RMK SC8 SLP357
CYYC;2002-10-22 13:00;METAR CYYC 221300Z 15009KT 8SM -SN BKN009 OVC022 M05/M06 A3040 RMK SC7SC1 SLP356
CYYC;2002-10-22 13:18;SPECI CYYC 221318Z 16012KT 12SM BKN010 OVC021 RMK SC6SC2
CYYC;2002-10-22 14:00;METAR CYYC 221400Z 17011KT 15SM BKN011 OVC020 M04/M06 A3039 RMK SC7SC1 SLP353
CYYC;2002-10-22 14:45;SPECI CYYC 221445Z 17012KT 20SM SCT012 OVC018 RMK SC3SC4
CYYC;2002-10-22 16:00;METAR CYYC 221600Z 16012KT 20SM FEW012 OVC020 M04/M06 A3039 RMK CU2SC6
CYYC;2002-10-22 17:00;METAR CYYC 221700Z 18012KT 20SM BKN017 BKN021 M03/M05 A3039 RMK SC6SC1
CYYC;2002-10-22 18:00;METAR CYYC 221800Z 18011G17KT 20SM BKN016 M02/M05 A3038 RMK SC6 SLP349
CYYC;2002-10-22 19:00;METAR CYYC 221900Z 17015KT 20SM BKN018 M02/M06 A3037 RMK SC7 SLP345
CYYC;2002-10-22 20:00;METAR CYYC 222000Z 18013G18KT 20SM BKN020 M02/M05 A3035 RMK SC6 SLP340
CYYC;2002-10-22 21:00;METAR CYYC 222100Z 18015G20KT 20SM BKN022 M01/M05 A3034 RMK SC3 SLP331
CYYC;2002-10-22 22:00;METAR CYYC 222200Z 17016KT 20SM FEW025 M00/M06 A3033 RMK SC2 SLP329
CYYC;2002-10-22 23:00;METAR CYYC 222300Z 16017KT 20SM SCT026 M01/M06 A3033 RMK SC2 SLP328 AC SLP329
CYYC;2002-10-23 01:00;METAR CYYC 230100Z 18014KT 15SM FEW020 FEW025 FEW140 M03/M06 A3031 RMK CF1SC1AC1 SLP325 SLP325
CYYC;2002-10-23 02:00;METAR CYYC 230200Z 17010G17KT 15SM FEW140 FEW250 M03/M06 A3031 RMK AC1CI1
CYYC;2002-10-23 03:00;METAR CYYC 230300Z 15008KT 15SM FEW140 FEW250 M05/M07 A3030 RMK AC1CI0
CYYC;2002-10-23 04:00;METAR CYYC 230400Z 17011G16KT 15SM SKC M05/M08 A3029 RMK SLP320
CYYC;2002-10-23 05:00;METAR CYYC 230500Z 17009KT 15SM SKC M05/M08 A3027 RMK SLP316
CYYC;2002-10-23 06:00;METAR CYYC 230600Z 18011KT 15SM SKC M06/M08 A3026 RMK SLP308
CYYC;2002-10-23 07:00;METAR CYYC 230700Z 18010KT 15SM SKC M06/M08 A3025 RMK SLP305
CYYC;2002-10-23 08:00;METAR CYYC 230800Z 18009KT 15SM SKC M07/M09 A3025 RMK SLP304
CYYC;2002-10-23 10:00;METAR CYYC 231000Z CCA 21006KT 15SM SKC M08/M10 A3023 RMK SLP298
CYYC;2002-10-23 11:00;METAR CYYC 231100Z 19004KT 15SM FEW250 M09/M10 A3022 RMK CI1 SLP294
CYYC;2002-10-23 12:00;METAR CYYC 231200Z 19006KT 15SM FEW250 M09/M11 A3020 RMK CI0 SLP293
CYYC;2002-10-23 13:00;METAR CYYC 231300Z 21005KT 15SM SKC M10/M11 A3020 RMK SLP291 SEC VSBY NW 4 DUE TO FG SLP287
CYYC;2002-10-23 14:54;SPECI CYYC 231454Z 22004KT 1/2SM FZFG SKC
CYYC;2002-10-23 15:00;METAR CYYC 231500Z CCB 22004KT 1/2SM FZFG SKC M09/M10 A3018 RMK FROIN RVR RNWY 16 3000 / RVR RWY 16 1800 SLP288
CYYC;2002-10-23 15:11;SPECI CYYC 231511Z 24004KT 1/4SM FZFG VV001 RMK FG8 FROIN RVR RNWY 16 3000 / RVR RWY 16 2000 1600 / RVR RWY 28 4000
CYYC;2002-10-23 15:29;SPECI CYYC 231529Z 21003KT 2SM BR SKC RMK FG1 VSBY VRBL 2-40 FROIN
CYYC;2002-10-23 15:45;SPECI CYYC 231545Z 20004KT 40SM SKC RMK SEC VSBY SE 5
CYYC;2002-10-23 16:00;METAR CYYC 231600Z 20005KT 40SM SKC M07/M07 A3017 RMK SEC VSBY SE 5 SLP286
CYYC;2002-10-23 17:00;METAR CYYC 231700Z 20005KT 40SM SKC M04/M07 A3016 RMK SLP283
CYYC;2002-10-23 18:00;METAR CYYC 231800Z 19006KT 40SM FEW300 M02/M06 A3016 RMK CI1 TR CI SLP271
CYYC;2002-10-23 19:00;METAR CYYC 231900Z 18007KT 40SM FEW300 01/M06 A3015 RMK CI1 TR CI SLP268
CYYC;2002-10-23 20:00;METAR CYYC 232000Z 18008KT 40SM FEW300 02/M06 A3013 RMK CI1 TR CI SLP264
CYYC;2002-10-23 21:00;METAR CYYC 232100Z 19008KT 40SM FEW300 03/M06 A3011 RMK CI1 TR CI COTRA SLP250
CYYC;2002-10-23 22:00;METAR CYYC 232200Z 19010KT 40SM FEW300 04/M06 A3009 RMK CC0 HAZY SLP244
CYYC;2002-10-23 23:00;METAR CYYC 232300Z 18008KT 40SM FEW270 FEW300 04/M06 A3008 RMK CI0CC0 HAZY SLP241
CYYC;2002-10-24 00:00;METAR CYYC 240000Z 17007KT 40SM FEW270 FEW300 02/M05 A3006 RMK CI1CC0 HAZY TR CI SLP239 SLP239
CYYC;2002-10-24 01:00;METAR CYYC 240100Z 18009KT 40SM FEW270 00/M05 A3006 RMK CI1 TR CI SLP236
CYYC;2002-10-24 02:00;METAR CYYC 240200Z 18008KT 15SM FEW270 M01/M05 A3004 RMK CI1 TR CI SLP232
CYYC;2002-10-24 03:00;METAR CYYC 240300Z 19008KT 15SM FEW270 M02/M05 A3004 RMK CI1 TR CI SLP234
CYYC;2002-10-24 04:00;METAR CYYC 240400Z 19006KT 15SM SKC M04/M06 A3002 RMK SLP229
CYYC;2002-10-24 05:00;METAR CYYC 240500Z 21007KT 15SM SKC M04/M06 A3001 RMK SLP226
CYYC;2002-10-24 06:00;METAR CYYC 240600Z 00000KT 15SM SKC M04/M06 A3000 RMK SLP213
CYYC;2002-10-24 07:00;METAR CYYC 240700Z 21004KT 15SM SKC M04/M08 A2999 RMK SLP209
CYYC;2002-10-24 08:00;METAR CYYC 240800Z 00000KT 15SM SKC M06/M09 A2998 RMK SLP207
CYYC;2002-10-24 09:00;METAR CYYC 240900Z 00000KT 15SM SKC M06/M10 A2997 RMK SLP200
CYYC;2002-10-24 10:00;METAR CYYC 241000Z 33003KT 15SM SKC M03/M09 A2996 RMK SLP195
CYYC;2002-10-24 11:00;METAR CYYC 241100Z 01002KT 15SM SKC M05/M10 A2995 RMK SLP193
CYYC;2002-10-24 12:00;METAR CYYC 241200Z 33002KT 15SM SKC M05/M10 A2995 RMK SLP194
CYYC;2002-10-24 13:00;METAR CYYC 241300Z 34003KT 15SM FEW270 M05/M10 A2994 RMK CI1 CI TR SLP191
CYYC;2002-10-24 14:00;METAR CYYC 241400Z 33004KT 30SM FEW160 SCT270 M06/M10 A2994 RMK AC1CI1 AC TR SLP190 SLP190
CYYC;2002-10-24 15:00;METAR CYYC 241500Z 32007KT 40SM FEW160 SCT270 M04/M08 A2994 RMK AC1CI0 AC TR SLP196 SLP196
CYYC;2002-10-24 16:00;METAR CYYC 241600Z 00000KT 40SM FEW160 FEW270 M00/M05 A2994 RMK AC1CI1 AC TR SLP195 SLP195
CYYC;2002-10-24 17:00;METAR CYYC 241700Z 31007KT 40SM FEW180 FEW270 04/M04 A2994 RMK AC1CI1 AC TR SLP194
CYYC;2002-10-24 18:00;METAR CYYC 241800Z 35007KT 40SM BKN270 06/M03 A2992 RMK CI1 SLP175
CYYC;2002-10-24 19:00;METAR CYYC 241900Z 35007KT 40SM OVC270 07/M02 A2992 RMK CI2 SLP175
CYYC;2002-10-24 20:00;METAR CYYC 242000Z 01007KT 40SM FEW089 BKN270 08/M02 A2990 RMK AC1CI1 AC TR SLP169
CYYC;2002-10-24 21:00;METAR CYYC 242100Z 36008KT 40SM BKN270 08/M01 A2990 RMK CI2 SLP169
CYYC;2002-10-24 22:00;METAR CYYC 242200Z 01009KT 40SM BKN270 08/M02 A2990 RMK CI2 SLP169
CYYC;2002-10-24 23:00;METAR CYYC 242300Z 01011KT 40SM FEW180 BKN270 06/M01 A2991 RMK AC1CI2 AC TR SLP170
CYYC;2002-10-25 00:00;METAR CYYC 250000Z 03010KT 30SM FEW160 BKN270 03/M01 A2992 RMK AC1CI1 SLP179
CYYC;2002-10-25 01:00;METAR CYYC 250100Z 02008KT 40SM FEW160 BKN270 01/M01 A2993 RMK AC1CI0 SLP183
CYYC;2002-10-25 02:00;METAR CYYC 250200Z 28004KT 15SM FEW270 M00/M02 A2994 RMK CI1 SLP186
CYYC;2002-10-25 03:00;METAR CYYC 250300Z 32007KT 15SM FEW120 BKN270 M01/M03 A2995 RMK AC1CI1 SLP196
CYYC;2002-10-25 04:00;METAR CYYC 250400Z 34006KT 15SM FEW160 BKN270 M02/M03 A2995 RMK AS2CI2
CYYC;2002-10-25 05:00;METAR CYYC 250500Z 32007KT 15SM FEW028 FEW160 BKN270 M02/M03 A2997 RMK SC1AC1CS1 HALO SLP201 HALO SLP201
CYYC;2002-10-25 06:00;METAR CYYC 250600Z 32006KT 15SM FEW028 FEW100 BKN270 M02/M03 A2998 RMK SC2AC1CS0 SLP192 SLP192
CYYC;2002-10-25 07:00;METAR CYYC 250700Z 21002KT 15SM BKN048 OVC080 M00/M02 A2999 RMK SC6AC2 SLP194
CYYC;2002-10-25 08:00;METAR CYYC 250800Z 21002KT 15SM FEW034 OVC051 00/M01 A2999 RMK SC1SC7
CYYC;2002-10-25 09:00;METAR CYYC 250900Z 20004KT 15SM FEW035 OVC051 00/M01 A2998 RMK CF1SC7 SLP188
CYYC;2002-10-25 10:00;METAR CYYC 251000Z 00000KT 12SM FEW035 BKN058 00/M01 A2998 RMK CF1SC6 SLP187
CYYC;2002-10-25 11:00;METAR CYYC 251100Z 00000KT 12SM FEW035 BKN058 00/M01 A2998 RMK CF1SC6 SLP186
CYYC;2002-10-25 12:00;METAR CYYC 251200Z 00000KT 12SM BKN024 OVC058 M00/M02 A2998 RMK SC5SC3
CYYC;2002-10-25 13:00;METAR CYYC 251300Z 32003KT 12SM FEW024 SCT034 BKN056 00/M01 A2999 RMK SC1SC2SC4 SLP198 SLP198
CYYC;2002-10-25 14:00;METAR CYYC 251400Z 36006KT 15SM BKN031 OVC045 00/M01 A2999 RMK SC6SC2
CYYC;2002-10-25 17:00;METAR CYYC 251700Z 05005KT 4SM HZ BKN005 OVC013 01/01 A3000 RMK SC6SC2
CYYC;2002-10-25 18:00;METAR CYYC 251800Z 09004KT 5SM HZ BKN007 OVC016 02/01 A2999 RMK SC6SC2 SLP201
CYYC;2002-10-25 19:00;METAR CYYC 251900Z 12004KT 6SM HZ BKN010 OVC021 03/01 A2999 RMK SC6SC2 SLP200
CYYC;2002-10-25 20:00;METAR CYYC 252000Z 08005KT 6SM HZ BKN012 OVC020 03/01 A2997 RMK SC6SC2 SLP195
CYYC;2002-10-25 22:00;METAR CYYC 252200Z 06008KT 8SM OVC014 04/M00 A2997 RMK SC6 SLP189
CYYC;2002-10-25 23:00;METAR CYYC 252300Z 05009KT 8SM BKN016 OVC035 02/M00 A2998 RMK SC6SC2 SLP191
CYYC;2002-10-26 00:00;METAR CYYC 260000Z 05008KT 8SM BKN009 OVC019 01/00 A2999 RMK SC6SC2 SLP199
CYYC;2002-10-26 01:00;METAR CYYC 260100Z 04007KT 3SM -SNSG BKN009 OVC018 01/00 A3001 RMK SC5SC3 SLP206
CYYC;2002-10-26 02:00;METAR CYYC 260200Z 04006KT 5SM -SN OVC008 00/M00 A3003 RMK ST8 SLP213
CYYC;2002-10-26 03:00;METAR CYYC 260300Z 04008KT 1 1/4SM -SN BR OVC006 M00/M01 A3005 RMK ST8 VSBY S-W 3/4 SLP223 3/4 SLP223
CYYC;2002-10-26 04:00;METAR CYYC 260400Z 04005KT 1 1/4SM -SN BR BKN004 BKN009 OVC030 M01/M01 A3006 RMK SC5SC2SC1 SLP227 SC5SC2SC1 SLP227
CYYC;2002-10-26 05:00;METAR CYYC 260500Z 03005KT 2 1/2SM -SN VCFG BKN005 OVC011 M01/M01 A3008 RMK SC6SC2 VSBY W 1 F SLP231
CYYC;2002-10-26 06:00;METAR CYYC 260600Z 05010KT 2 1/2SM -SN OVC005 M02/M03 A3009 RMK SC8 VSBY E 5 SLP237 SLP237
CYYC;2002-10-26 07:00;METAR CYYC 260700Z 05008KT 2SM -SN BCFG OVC002 M03/M03 A3010 RMK ST8 VSBY W 1 IN F BANK SLP240 F BANK SLP240
CYYC;2002-10-26 08:00;METAR CYYC 260800Z 04006KT 4SM -SN OVC004 M03/M04 A3011 RMK ST8 VSBY W 13/4 F SLP243 SLP243
CYYC;2002-10-26 09:00;METAR CYYC 260900Z 04005KT 5SM -SN OVC004 M04/M05 A3011 RMK ST8 SLP243
CYYC;2002-10-26 10:00;METAR CYYC 261000Z 05004KT 8SM -SN BKN009 OVC035 M04/M06 A3011 RMK SC5SC3
CYYC;2002-10-26 11:00;METAR CYYC 261100Z 04003KT 10SM -SN SCT015 OVC025 M04/M06 A3010 RMK SC4SC4 SLP242
CYYC;2002-10-26 12:00;METAR CYYC 261200Z 05003KT 12SM -SN FEW017 OVC030 M04/M07 A3011 RMK SC2SC6 SLP247
CYYC;2002-10-26 13:00;METAR CYYC 261300Z 04002KT 12SM -SN BKN017 OVC026 M04/M06 A3011 RMK SC7SC1 SNW VRY LGT SLP248 VRY LGT SLP248
CYYC;2002-10-26 14:00;METAR CYYC 261400Z 00000KT 8SM -SN OVC017 M04/M06 A3011 RMK SC8 SLP247 SC TR SLP251
CYYC;2002-10-26 16:00;METAR CYYC 261600Z 12004KT 8SM -SN OVC019 M04/M06 A3011 RMK SC8 SLP251
CYYC;2002-10-26 17:00;METAR CYYC 261700Z 13005KT 8SM -SN FEW008 OVC021 M03/M05 A3011 RMK SC2SC6 SLP249
CYYC;2002-10-26 18:00;METAR CYYC 261800Z 14007KT 8SM -SN BKN010 OVC019 M03/M06 A3010 RMK SC6SC2 SLP250
CYYC;2002-10-26 19:00;METAR CYYC 261900Z 15008KT 15SM -SN OVC013 M03/M05 A3010 RMK SC8 SN VRY LGT SLP248
CYYC;2002-10-26 20:00;METAR CYYC 262000Z 16007KT 15SM OVC010 M03/M05 A3008 RMK SC8 SLP243
CYYC;2002-10-26 21:00;METAR CYYC 262100Z 15007KT 15SM OVC010 M03/M05 A3008 RMK SC8 SLP242
CYYC;2002-10-26 21:21;SPECI CYYC 262121Z 16008KT 15SM -SN OVC009 RMK SC8
CYYC;2002-10-26 21:39;SPECI CYYC 262139Z 15008KT 15SM OVC009 RMK SC8
CYYC;2002-10-26 21:54;SPECI CYYC 262154Z 17008KT 8SM -SN OVC008 RMK SC8
CYYC;2002-10-26 22:00;METAR CYYC 262200Z CCA 16006KT 8SM -SN OVC009 M03/M05 A3007 RMK SC8 S- INTMT SLP239
CYYC;2002-10-26 23:00;METAR CYYC 262300Z 15006KT 5SM -SN OVC008 M03/M05 A3006 RMK SC8 SLP238
CYYC;2002-10-27 00:00;METAR CYYC 270000Z 16009KT 4SM -SN OVC007 M03/M05 A3006 RMK SC8 SLP238
CYYC;2002-10-27 01:00;METAR CYYC 270100Z 15007KT 4SM -SN OVC006 M04/M05 A3006 RMK SC8 SLP237
CYYC;2002-10-27 02:00;METAR CYYC 270200Z 15008KT 3SM -SN BCFG OVC006 M04/M05 A3006 RMK ST8 F BANK W SLP237 SLP237
CYYC;2002-10-27 03:00;METAR CYYC 270300Z 14006KT 3SM -SN BCFG OVC005 M04/M05 A3005 RMK ST8 F BANK W SLP235 SLP235
CYYC;2002-10-27 03:29;SPECI CYYC 270329Z 14006KT 3SM -SN BR OVC004 RMK ST8 VSBY W 13/4
CYYC;2002-10-27 04:00;METAR CYYC 270400Z 14007KT 3SM -SN BR OVC004 M04/M05 A3004 RMK ST8 SLP232
CYYC;2002-10-27 05:00;METAR CYYC 270500Z 15007KT 4SM -SN BR OVC004 M04/M05 A3003 RMK ST8 VSBY W 2 SLP229
CYYC;2002-10-27 06:00;METAR CYYC 270600Z 18009KT 5SM -SN BR OVC008 M04/M05 A3002 RMK ST8 SLP223
CYYC;2002-10-27 07:00;METAR CYYC 270700Z 18008KT 4SM -SN BR OVC006 M04/M05 A3000 RMK ST8 VSBY W 11/4 SLP217 SLP217
CYYC;2002-10-27 08:00;METAR CYYC 270800Z 19012KT 3SM -SN BR OVC005 M03/M04 A2998 RMK ST8 SLP210
CYYC;2002-10-27 09:00;METAR CYYC 270900Z 17008KT 3SM -SN BR OVC005 M03/M04 A2996 RMK ST8 SLP199
CYYC;2002-10-27 11:00;METAR CYYC 271100Z 17008KT 4SM -SN BR BKN006 OVC009 M03/M04 A2991 RMK SC5SC3 VSBY W 2 SLP185 W 2 SLP185
CYYC;2002-10-27 12:00;METAR CYYC 271200Z 17009KT 5SM -SN BCFG OVC007 M03/M05 A2989 RMK SC8 F BANK W SLP178 SLP178
CYYC;2002-10-27 13:00;METAR CYYC 271300Z 18009KT 5SM -SN BCFG OVC007 M04/M05 A2987 RMK SC8 F BANK W SLP171 SLP171
CYYC;2002-10-27 15:00;METAR CYYC 271500Z 17007KT 4SM HZ OVC005 M04/M05 A2984 RMK SC8 SLP159
CYYC;2002-10-27 16:00;METAR CYYC 271600Z 17008KT 4SM HZ OVC005 M04/M05 A2983 RMK ST8 SLP156
CYYC;2002-10-27 17:00;METAR CYYC 271700Z 17006KT 4SM HZ OVC005 M04/M05 A2981 RMK ST8 SLP150
CYYC;2002-10-27 18:00;METAR CYYC 271800Z 15005KT 4SM HZ OVC006 M03/M04 A2980 RMK SC8 SLP144
CYYC;2002-10-27 19:00;METAR CYYC 271900Z 17004KT 4SM HZ OVC005 M03/M04 A2978 RMK SC8 SLP140
CYYC;2002-10-27 20:00;METAR CYYC 272000Z 18005KT 4SM HZ OVC006 M02/M04 A2977 RMK SC7 SLP136 SC2AC2CI1 CI TR SLP132
CYYC;2002-10-27 22:00;METAR CYYC 272200Z 06002KT 5SM HZ FEW008 BKN100 OVC250 M01/M03 A2977 RMK SC2AC3CI1 CI TR SLP133
CYYC;2002-10-27 23:00;METAR CYYC 272300Z 07004KT 4SM HZ OVC006 M02/M03 A2978 RMK SC7 SLP136
CYYC;2002-10-28 00:00;METAR CYYC 280000Z 05006KT 4SM HZ OVC006 M02/M03 A2979 RMK SC8 SLP141
CYYC;2002-10-28 01:00;METAR CYYC 280100Z 05005KT 4SM HZ OVC006 M02/M03 A2982 RMK SC8 SLP148
CYYC;2002-10-28 02:00;METAR CYYC 280200Z 36006KT 4SM BR BKN006 OVC070 M02/M03 A2982 RMK SC5AC1 SLP149
CYYC;2002-10-28 03:00;METAR CYYC 280300Z 35006KT 4SM BR OVC010 M02/M03 A2983 RMK SC8 SLP153
CYYC;2002-10-28 04:00;METAR CYYC 280400Z 35007KT 4SM BR BKN012 OVC075 M02/M03 A2984 RMK SC7AC1 SLP157
CYYC;2002-10-28 05:00;METAR CYYC 280500Z 35006KT 4SM BR OVC012 M02/M03 A2985 RMK SC8 SLP161
CYYC;2002-10-28 06:00;METAR CYYC 280600Z 03007KT 4SM BR OVC005 M01/M02 A2987 RMK SC8 SLP166
CYYC;2002-10-28 07:00;METAR CYYC 280700Z 34004KT 1 1/4SM -SN BR BKN004 OVC014 M02/M02 A2988 RMK SC6SC2 VSBY E 3 SLP169 VSBY E 3 SLP169
CYYC;2002-10-28 08:00;METAR CYYC 280800Z 35005KT 1 1/4SM -SN BR OVC004 M02/M02 A2989 RMK SC8 SLP173
CYYC;2002-10-28 09:00;METAR CYYC 280900Z 35004KT 2 1/2SM -SN BR OVC007 M01/M02 A2991 RMK SC8 SLP179
CYYC;2002-10-28 11:00;METAR CYYC 281100Z CCA 35007KT 1SM -SN BR OVC006 M02/M03 A2994 RMK SN3SC5 SLP188
CYYC;2002-10-28 11:00;METAR CYYC 281100Z 35007KT 1SM -SN BR OVC006 M02/M03 A2994 RMK SN3SC5 A2994 RMK SN3SC5 SLP188
CYYC;2002-10-28 12:00;METAR CYYC 281200Z 36007KT 3/4SM R16/6000FT R28/6000FT -SN BR BKN008 OVC036 M02/M03 A2996 RMK SN3SC4SC1 /S01/ SLP196
CYYC;2002-10-28 13:00;METAR CYYC 281300Z 36008KT 1 1/4SM -SN BR OVC009 M03/M03 A2999 RMK SN2SC6 VSBY W 3/4 SLP206 3/4 SLP206
CYYC;2002-10-28 14:00;METAR CYYC 281400Z 36011KT 5/8SM R28/4500FT R16/6000FT -SN BR OVC005 M03/M03 A3001 RMK SN5SC3 SLP212 A3001 RMK SN5SC3 SLP212
CYYC;2002-10-28 16:00;METAR CYYC 281600Z 04014KT 1SM R28/5000FT R34/6000FT -SN VV006 M05/M07 A3011 RMK SN8 SLP250 SN8 SLP250
CYYC;2002-10-28 17:00;METAR CYYC 281700Z 02011KT 3/4SM R34/4500FT R28/5000FT -SN VV009 M06/M07 A3014 RMK SN8 SLP261 RMK SN8 SLP261
CYYC;2002-10-28 18:00;METAR CYYC 281800Z 02015KT 1SM -SN VV007 M06/M08 A3017 RMK SN8 SLP276
CYYC;2002-10-28 19:00;METAR CYYC 281900Z 02011KT 1 1/2SM -SN VV010 M06/M09 A3020 RMK SN8 /S01/ SLP285
CYYC;2002-10-28 20:00;METAR CYYC 282000Z 04012KT 2 1/2SM -SN OVC012 M06/M09 A3022 RMK SC8 SLP292
CYYC;2002-10-28 22:00;METAR CYYC 282200Z 04010KT 3SM -SN BKN011 OVC021 M07/M09 A3028 RMK SC6SC2 SLP314
CYYC;2002-10-28 23:00;METAR CYYC 282300Z 01006KT 1SM -SN VV008 M07/M09 A3031 RMK SN8 SLP324
CYYC;2002-10-29 00:00;METAR CYYC 290000Z 03011KT 4SM -SN FEW009 OVC046 M08/M10 A3035 RMK SC2SC6 SLP343
CYYC;2002-10-29 00:32;SPECI CYYC 290032Z 02011KT 8SM FEW009 BKN030 OVC065 RMK SC1SC4SC2
CYYC;2002-10-29 01:22;SPECI CYYC 290122Z 36008KT 8SM -SN SCT020 OVC045 RMK SC4SC4
CYYC;2002-10-29 01:37;SPECI CYYC 290137Z 01008KT 2SM -SN BKN015 OVC045 RMK SC6SC2
CYYC;2002-10-29 02:00;METAR CYYC 290200Z 35007KT 2 1/2SM -SN FEW009 SCT015 OVC050 M10/M11 A3041 RMK SC1SC4SC4 LWR SC TR SLP362 SC1SC4SC4 LWR SC TR SLP362
CYYC;2002-10-29 02:41;SPECI CYYC 290241Z 36007KT 8SM -SN SCT032 OVC055 RMK SC3SC5
CYYC;2002-10-29 03:00;METAR CYYC 290300Z 02009KT 4SM -SN FEW036 OVC054 M10/M12 A3044 RMK SC2SC6 SLP381
CYYC;2002-10-29 04:00;METAR CYYC 290400Z 02009KT 12SM -SN OVC049 M10/M14 A3046 RMK SC8 SNW VRY LGT SLP387 SLP387
CYYC;2002-10-29 04:17;SPECI CYYC 290417Z 03007KT 15SM OVC056 RMK SC7
CYYC;2002-10-29 05:00;METAR CYYC 290500Z 01006KT 15SM OVC059 M11/M14 A3048 RMK SC8 SLP392
CYYC;2002-10-29 06:00;METAR CYYC 290600Z 31005KT 15SM FEW052 OVC064 M12/M14 A3049 RMK SC1SC6 SLP402
CYYC;2002-10-29 07:00;METAR CYYC 290700Z 30004KT 15SM FEW051 OVC063 M12/M14 A3050 RMK SC1SC6 SLP406
CYYC;2002-10-29 08:00;METAR CYYC 290800Z 34005KT 15SM OVC060 M13/M15 A3051 RMK SC7 SLP408
CYYC;2002-10-29 09:00;METAR CYYC 290900Z 36002KT 15SM BKN059 OVC094 M13/M15 A3052 RMK SC7AC1 SLP416
CYYC;2002-10-29 10:00;METAR CYYC 291000Z 34003KT 15SM OVC054 M13/M15 A3052 RMK SC8 SLP418
CYYC;2002-10-29 11:00;METAR CYYC 291100Z 35002KT 15SM -SN FEW028 OVC059 M13/M15 A3052 RMK SC2SC6 SLP418
CYYC;2002-10-29 12:00;METAR CYYC 291200Z 35003KT 15SM FEW035 OVC056 M13/M15 A3053 RMK SC1SC7 SLP421
CYYC;2002-10-29 13:00;METAR CYYC 291300Z 35004KT 12SM OVC052 M12/M14 A3054 RMK SC8 SLP423
CYYC;2002-10-29 14:00;METAR CYYC 291400Z 35003KT 12SM OVC049 M12/M14 A3054 RMK SC8 SLP424 CU1SC6AC1 SNW VRY LGT TR CU TR AC SLP432
CYYC;2002-10-29 16:00;METAR CYYC 291600Z 00000KT 5SM -SN BKN053 BKN093 M11/M13 A3056 RMK SC6AC1 SNW VRY LGT TR AC SLP433 LGT TR AC SLP433
CYYC;2002-10-29 17:00;METAR CYYC 291700Z 32005KT 15SM -SN FEW032 BKN050 BKN095 M10/M13 A3056 RMK CU1SC6AC1 SNW VRY LGT TR CU TR AC SLP433 CF1SC2SC3AC1 TR CF TR AC SLP428
CYYC;2002-10-29 19:00;METAR CYYC 291900Z 05004KT 20SM FEW037 SCT046 BKN082 M08/M15 A3054 RMK CF1SC2AC1 TR CF SLP425 TR CF SLP425
CYYC;2002-10-29 20:00;METAR CYYC 292000Z 09002KT 20SM FEW032 FEW043 BKN082 M08/M16 A3052 RMK CU1SC2AC1 TR CU SLP419 TR CU SLP419
CYYC;2002-10-29 21:00;METAR CYYC 292100Z 01003KT 20SM FEW035 SCT042 BKN095 M08/M16 A3050 RMK CU1SC2AC1 SLP412 SLP412
CYYC;2002-10-29 22:00;METAR CYYC 292200Z 03002KT 20SM FEW034 FEW043 BKN095 BKN300 M09/M15 A3049 RMK CU1SC2AC2CC1 TR CU TR CC SLP408 CU1SC2AC2CC1 TR CU TR CC SLP408
CYYC;2002-10-29 23:00;METAR CYYC 292300Z 06004KT 20SM FEW035 FEW042 FEW095 M09/M14 A3048 RMK CU1SC2AC1 TR CU TR AC SLP406 TR CU TR AC SLP406
CYYC;2002-10-30 00:00;METAR CYYC 300000Z 09004KT 20SM FEW035 FEW042 FEW095 M11/M14 A3047 RMK CU1SC2AC1 TR CU TR AC SLP404 TR CU TR AC SLP404
CYYC;2002-10-30 01:00;METAR CYYC 300100Z 14004KT 40SM FEW040 FEW095 M12/M13 A3046 RMK SC1AC1 TR SC TR AC SLP402 AC SLP402
CYYC;2002-10-30 02:00;METAR CYYC 300200Z 13005KT 15SM FEW095 M12/M13 A3045 RMK AC1 TR AC SLP399
CYYC;2002-10-30 03:00;METAR CYYC 300300Z 16003KT 15SM FEW270 M14/M15 A3044 RMK CI1 CI TR SLP399
CYYC;2002-10-30 05:00;METAR CYYC 300500Z 36002KT 12SM SKC M17/M18 A3041 RMK SLP390
CYYC;2002-10-30 06:00;METAR CYYC 300600Z 00000KT 12SM SKC M18/M19 A3039 RMK SLP383
CYYC;2002-10-30 07:00;METAR CYYC 300700Z 20002KT 12SM SKC M17/M18 A3038 RMK SLP378
CYYC;2002-10-30 08:00;METAR CYYC 300800Z 00000KT 12SM SKC M18/M19 A3036 RMK SLP374
CYYC;2002-10-30 09:00;METAR CYYC 300900Z 00000KT 12SM SKC M17/M18 A3036 RMK SLP366
CYYC;2002-10-30 10:00;METAR CYYC 301000Z 00000KT 12SM SKC M17/M18 A3034 RMK SLP362
CYYC;2002-10-30 11:00;METAR CYYC 301100Z 21004KT 12SM SKC M18/M18 A3033 RMK SLP358
CYYC;2002-10-30 13:00;METAR CYYC 301300Z 20004KT 12SM SKC M17/M18 A3030 RMK SLP351
CYYC;2002-10-30 14:00;METAR CYYC 301400Z 21004KT 40SM SKC M17/M18 A3029 RMK SLP349
CYYC;2002-10-30 16:00;METAR CYYC 301600Z 21004KT 40SM FEW130 FEW270 M14/M16 A3029 RMK AC1CI1 TR AC TR CI HAZY SLP353 CI HAZY SLP353
CYYC;2002-10-30 17:00;METAR CYYC 301700Z 19006KT 40SM FEW130 FEW270 M11/M14 A3029 RMK AC1CI1 TR AC TR CI HAZY SLP352 CI HAZY SLP352
CYYC;2002-10-30 18:00;METAR CYYC 301800Z 22006KT 40SM FEW070 FEW270 M09/M14 A3028 RMK CU1CI1 TR CU TR CI HAZY SLP342 CI HAZY SLP342
CYYC;2002-10-30 19:00;METAR CYYC 301900Z 20005KT 40SM FEW070 FEW270 M07/M12 A3026 RMK CU1CI1 TR CU TR CI HAZY SLP335 CI HAZY SLP335
CYYC;2002-10-30 20:00;METAR CYYC 302000Z 18004KT 40SM FEW070 FEW270 M05/M12 A3024 RMK CU1CI1 .TR CU TR CI HAZY SLP329 CI HAZY SLP329
CYYC;2002-10-30 21:00;METAR CYYC 302100Z 14007KT 40SM FEW070 FEW270 M05/M12 A3023 RMK CU1CI1 TR CU TR CI HAZY SLP319 CI HAZY SLP319
CYYC;2002-10-30 22:00;METAR CYYC 302200Z 15007KT 40SM FEW070 FEW270 M07/M13 A3024 RMK CU1CI1 TR CU TR CI HAZY SLP320 CI HAZY SLP320
CYYC;2002-10-30 23:00;METAR CYYC 302300Z 17009KT 40SM FEW070 FEW270 M07/M13 A3025 RMK CU1CI1 TR CU TR CI HAZY SLP325 CI HAZY SLP325
CYYC;2002-10-31 00:00;METAR CYYC 310000Z 17009KT 40SM FEW070 FEW140 FEW270 M09/M14 A3026 RMK CU1AC1CI1 TR CU TR AC TR CI HAZY SLP333 TR CU TR AC TR CI HAZY SLP333
CYYC;2002-10-31 01:00;METAR CYYC 310100Z 18008KT 40SM FEW070 FEW140 M10/M14 A3026 RMK CU1AC1 TR CU TR AC SLP333 AC SLP333
CYYC;2002-10-31 02:00;METAR CYYC 310200Z 19007KT 15SM SKC M12/M15 A3024 RMK SLP329
CYYC;2002-10-31 03:00;METAR CYYC 310300Z 19006KT 15SM SKC M12/M15 A3022 RMK SLP325
CYYC;2002-10-31 04:00;METAR CYYC 310400Z 18004KT 15SM SKC M13/M16 A3022 RMK SLP324
CYYC;2002-10-31 05:00;METAR CYYC 310500Z 16007KT 15SM SKC M15/M17 A3022 RMK SLP323
CYYC;2002-10-31 06:00;METAR CYYC 310600Z 20008KT 15SM SKC M14/M16 A3022 RMK SLP315
CYYC;2002-10-31 07:00;METAR CYYC 310700Z 21007KT 15SM FEW100 M14/M16 A3020 RMK AC1 SLP311
CYYC;2002-10-31 08:00;METAR CYYC 310800Z 21008KT 15SM SKC M14/M15 A3021 RMK SLP312
CYYC;2002-10-31 09:00;METAR CYYC 310900Z 22004KT 15SM FEW240 M13/M15 A3019 RMK CI1 SLP300
CYYC;2002-10-31 10:00;METAR CYYC 311000Z 22003KT 15SM FEW100 BKN140 M11/M13 A3017 RMK AC2AC3 SLP293
CYYC;2002-10-31 11:00;METAR CYYC 311100Z 00000KT 15SM FEW100 BKN140 M10/M12 A3016 RMK AC1AC6 SLP291
CYYC;2002-10-31 12:00;METAR CYYC 311200Z 00000KT 15SM SCT150 BKN240 M09/M12 A3016 RMK AC2CI2 SLP290
CYYC;2002-10-31 13:00;METAR CYYC 311300Z 08003KT 15SM SCT110 SCT150 BKN240 M10/M13 A3017 RMK AC2AC1CI1 SLP293
CYYC;2002-10-31 16:00;METAR CYYC 311600Z 30002KT 40SM BKN110 BKN250 M09/M12 A3021 RMK AC4CC0 SLP310
CYYC;2002-10-31 17:00;METAR CYYC 311700Z 00000KT 40SM BKN100 M06/M12 A3022 RMK AC6 SLP315
CYYC;2002-10-31 18:00;METAR CYYC 311800Z 00000KT 40SM FEW090 FEW250 M03/M10 A3022 RMK AC1CI0 HAZY SLP308
CYYC;2002-10-31 19:00;METAR CYYC 311900Z 25002KT 40SM FEW095 FEW250 M01/M09 A3021 RMK AC1CI1 TR CI HAZY SLP305 SLP305
CYYC;2002-10-31 20:00;METAR CYYC 312000Z 33003KT 40SM FEW120 01/M10 A3021 RMK AC1 TR AC HAZY SLP304
CYYC;2002-10-31 21:00;METAR CYYC 312100Z 10003KT 40SM FEW120 03/M10 A3021 RMK AC1 TR AC HAZY SLP295
CYYC;2002-10-31 22:00;METAR CYYC 312200Z 00000KT 40SM SKC 04/M11 A3021 RMK HAZY SLP295
CYYC;2002-10-31 23:00;METAR CYYC 312300Z 14007KT 40SM SKC 01/M08 A3022 RMK HAZY SLP298
CYYC;2002-11-01 00:00;METAR CYYC 010000Z 16005KT 40SM SKC M02/M09 A3023 RMK HAZY SLP302
CYYC;2002-11-01 01:00;METAR CYYC 010100Z 19004KT 40SM SKC M02/M09 A3023 RMK SLP302
CYYC;2002-11-01 02:00;METAR CYYC 010200Z 19005KT 15SM SKC M03/M09 A3022 RMK SLP300
CYYC;2002-11-01 03:00;METAR CYYC 010300Z 19004KT 15SM SKC M05/M10 A3022 RMK SLP306
CYYC;2002-11-01 04:00;METAR CYYC 010400Z 22007KT 15SM SKC M05/M09 A3022 RMK SLP305
CYYC;2002-11-01 05:00;METAR CYYC 010500Z 23005KT 15SM SKC M05/M09 A3022 RMK SLP304
CYYC;2002-11-01 06:00;METAR CYYC 010600Z 22005KT 15SM FEW250 M07/M10 A3021 RMK CI1 CI TR SLP291
CYYC;2002-11-01 07:00;METAR CYYC 010700Z 20003KT 15SM FEW270 M05/M10 A3020 RMK CI1 CI TR SLP288
CYYC;2002-11-01 08:00;METAR CYYC 010800Z 21006KT 15SM SKC M07/M11 A3018 RMK SLP284
CYYC;2002-11-01 09:00;METAR CYYC 010900Z 21005KT 15SM SKC M07/M11 A3017 RMK SLP270
CYYC;2002-11-01 10:00;METAR CYYC 011000Z 22005KT 15SM SKC M07/M11 A3016 RMK SLP267
CYYC;2002-11-01 11:00;METAR CYYC 011100Z 20006KT 15SM SKC M07/M11 A3014 RMK SLP261
CYYC;2002-11-01 12:00;METAR CYYC 011200Z 20002KT 15SM SKC M06/M12 A3014 RMK SLP265
CYYC;2002-11-01 13:00;METAR CYYC 011300Z 19003KT 15SM SKC M05/M11 A3013 RMK SLP263
CYYC;2002-11-01 14:00;METAR CYYC 011400Z 03002KT 20SM FEW270 M07/M12 A3013 RMK CI0 SLP263
CYYC;2002-11-01 15:00;METAR CYYC 011500Z 33004KT 40SM FEW270 M04/M11 A3013 RMK CI0 SLP265
CYYC;2002-11-01 16:00;METAR CYYC 011600Z 00000KT 40SM FEW270 M02/M09 A3014 RMK CI0 SLP268
CYYC;2002-11-01 17:00;METAR CYYC 011700Z 00000KT 40SM FEW180 FEW270 02/M08 A3014 RMK AC1CI1 ALCDS TR SLP268 SLP268
CYYC;2002-11-01 18:00;METAR CYYC 011800Z 00000KT 40SM FEW270 03/M07 A3013 RMK CI1 CI TR SLP257
CYYC;2002-11-01 19:00;METAR CYYC 011900Z 33006KT 40SM FEW270 06/M07 A3012 RMK CI1 CI TR SLP252
CYYC;2002-11-01 20:00;METAR CYYC 012000Z 01006KT 40SM FEW180 FEW270 07/M08 A3011 RMK AC1CI1 ALCDS TR SLP249 SLP249
CYYC;2002-11-01 21:00;METAR CYYC 012100Z 02003KT 40SM FEW180 FEW320 07/M08 A3010 RMK AC1CI1 ALCDS TR SLP239 SLP239
CYYC;2002-11-01 22:00;METAR CYYC 012200Z 04004KT 40SM FEW180 07/M08 A3009 RMK AC1 AC TR SLP237
CYYC;2002-11-01 23:00;METAR CYYC 012300Z 35003KT 30SM FEW180 FEW320 06/M07 A3009 RMK AC1CI1 ALCDS TR SLP236 SLP236
CYYC;2002-11-02 00:00;METAR CYYC 020000Z 33003KT 30SM FEW180 FEW300 06/M10 A3007 RMK AC1CI1 ALL CLDS TR SLP233 SLP233
CYYC;2002-11-02 01:00;METAR CYYC 020100Z 01003KT 15SM FEW270 02/M08 A3006 RMK CI1 CI TR SLP230
CYYC;2002-11-02 02:00;METAR CYYC 020200Z 22005KT 15SM SKC 01/M08 A3006 RMK SLP227
CYYC;2002-11-02 03:00;METAR CYYC 020300Z 21005KT 15SM SKC M00/M07 A3004 RMK SLP224
CYYC;2002-11-02 04:00;METAR CYYC 020400Z 00000KT 15SM SKC M01/M07 A3003 RMK SLP222
CYYC;2002-11-02 05:00;METAR CYYC 020500Z 34002KT 15SM SKC M04/M08 A3003 RMK SLP221
CYYC;2002-11-02 06:00;METAR CYYC 020600Z 32005KT 15SM SKC M04/M08 A3002 RMK SLP215
CYYC;2002-11-02 07:00;METAR CYYC 020700Z 32005KT 15SM SKC M05/M09 A3002 RMK SLP214
CYYC;2002-11-02 08:00;METAR CYYC 020800Z 32009KT 15SM SKC M05/M09 A3003 RMK SLP216
CYYC;2002-11-02 09:00;METAR CYYC 020900Z 32005KT 15SM SKC M04/M09 A3002 RMK SLP207
CYYC;2002-11-02 10:00;METAR CYYC 021000Z 00000KT 15SM SKC M06/M10 A3002 RMK SLP208
CYYC;2002-11-02 11:00;METAR CYYC 021100Z 34007KT 15SM SKC M06/M10 A3004 RMK SLP212
CYYC;2002-11-02 12:00;METAR CYYC 021200Z 31005KT 15SM SKC M06/M10 A3004 RMK SLP219
CYYC;2002-11-02 13:00;METAR CYYC 021300Z 34004KT 15SM SKC M06/M11 A3005 RMK SLP222
CYYC;2002-11-02 14:00;METAR CYYC 021400Z 00000KT 40SM FEW300 M05/M11 A3004 RMK CI1 CI TR SLP221
CYYC;2002-11-02 15:00;METAR CYYC 021500Z 30003KT 40SM FEW300 M04/M10 A3006 RMK CI1 CI TR SLP233
CYYC;2002-11-02 16:00;METAR CYYC 021600Z 00000KT 40SM FEW300 M01/M08 A3007 RMK CI1 CI TR SLP237
CYYC;2002-11-02 17:00;METAR CYYC 021700Z 19003KT 40SM FEW270 02/M06 A3007 RMK CI1 CI TR SLP235
CYYC;2002-11-02 18:00;METAR CYYC 021800Z 32009KT 40SM FEW270 05/M06 A3007 RMK CI1 CI TR SLP228
CYYC;2002-11-02 19:00;METAR CYYC 021900Z 34012G17KT 40SM FEW300 06/M05 A3006 RMK CI1 CI TR / CONTRAILS SLP227 SLP227
CYYC;2002-11-02 20:00;METAR CYYC 022000Z 34012KT 40SM FEW300 07/M03 A3006 RMK CI1 CI TR / CONTRAILS SLP224 SLP224
CYYC;2002-11-02 21:00;METAR CYYC 022100Z 36011KT 40SM FEW300 07/M03 A3005 RMK CI1 CI TR CONTRAILS SLP219
CYYC;2002-11-02 22:00;METAR CYYC 022200Z 01010KT 40SM FEW300 06/M03 A3005 RMK CI1 CI TR CONTRAIL SLP218
CYYC;2002-11-02 23:00;METAR CYYC 022300Z 01002KT 40SM FEW300 06/M03 A3006 RMK CI0 CONTRAIL SLP221
CYYC;2002-11-03 00:00;METAR CYYC 030000Z 20002KT 30SM FEW300 03/M03 A3006 RMK CI1 CI TR SLP230
CYYC;2002-11-03 01:00;METAR CYYC 030100Z 00000KT 15SM FEW300 04/M04 A3006 RMK CI1 CI TR SLP232
CYYC;2002-11-03 02:00;METAR CYYC 030200Z 00000KT 15SM SKC 02/M03 A3006 RMK SLP233
CYYC;2002-11-03 03:00;METAR CYYC 030300Z 23004KT 15SM SKC M00/M04 A3007 RMK SLP237
CYYC;2002-11-03 04:00;METAR CYYC 030400Z 00000KT 15SM SKC M03/M06 A3008 RMK SLP239
CYYC;2002-11-03 05:00;METAR CYYC 030500Z 36003KT 15SM SKC M03/M06 A3009 RMK SLP241
CYYC;2002-11-03 06:00;METAR CYYC 030600Z 33004KT 15SM SKC M04/M06 A3009 RMK SLP234
CYYC;2002-11-03 07:00;METAR CYYC 030700Z 33004KT 15SM SKC M05/M07 A3009 RMK SLP236
CYYC;2002-11-03 08:00;METAR CYYC 030800Z 30005KT 15SM SKC M04/M07 A3010 RMK SLP238
CYYC;2002-11-03 10:00;METAR CYYC 031000Z 33008KT 15SM SKC M05/M07 A3011 RMK SLP243
CYYC;2002-11-03 11:00;METAR CYYC 031100Z 33009KT 15SM SKC M05/M07 A3011 RMK SLP243
CYYC;2002-11-03 12:00;METAR CYYC 031200Z 34004KT 15SM SKC M05/M08 A3011 RMK SLP249
CYYC;2002-11-03 13:00;METAR CYYC 031300Z 36003KT 15SM SKC M07/M09 A3010 RMK SLP245
CYYC;2002-11-03 14:00;METAR CYYC 031400Z 30002KT 40SM FEW250 M07/M09 A3009 RMK CI1 SLP241
CYYC;2002-11-03 15:00;METAR CYYC 031500Z 21002KT 40SM FEW250 FEW300 M06/M09 A3009 RMK CI1CI0 SLP248
CYYC;2002-11-03 16:00;METAR CYYC 031600Z 00000KT 40SM FEW180 FEW300 M03/M06 A3007 RMK AC1CI1 AC TR SLP242 SLP242
CYYC;2002-11-03 17:00;METAR CYYC 031700Z 00000KT 40SM FEW180 FEW300 M01/M05 A3007 RMK AC1CI1 AC TR SLP240 SLP240
CYYC;2002-11-03 18:00;METAR CYYC 031800Z 15004KT 40SM FEW180 FEW300 01/M05 A3004 RMK AC1CI1 AC TR SLP222
CYYC;2002-11-03 19:00;METAR CYYC 031900Z 16007KT 30SM FEW180 FEW270 03/M04 A3001 RMK AC1CI1 AC TR SLP214
CYYC;2002-11-03 20:00;METAR CYYC 032000Z 16009KT 30SM FEW180 FEW270 03/M04 A2998 RMK AC1CI1 CI TR SLP206
CYYC;2002-11-03 21:00;METAR CYYC 032100Z 18009KT 30SM FEW180 FEW270 03/M03 A2995 RMK AC1CI1 SLP190
CYYC;2002-11-03 22:00;METAR CYYC 032200Z 16010KT 20SM FEW180 FEW270 04/M03 A2992 RMK AC1CI1 LGT HAZE SLP181 SLP181
CYYC;2002-11-03 23:00;METAR CYYC 032300Z 15009KT 30SM FEW140 FEW180 SCT270 02/M03 A2990 RMK AC1AC2CI1 LWR AC TR SLP175 LWR AC TR SLP175
CYYC;2002-11-04 00:00;METAR CYYC 040000Z 14007KT 30SM BKN160 BKN270 M00/M03 A2987 RMK AC2CI1 SLP169
CYYC;2002-11-04 01:00;METAR CYYC 040100Z 14005KT 15SM BKN160 M02/M03 A2985 RMK AC3 SLP163
CYYC;2002-11-04 02:00;METAR CYYC 040200Z 14003KT 15SM BKN160 M01/M03 A2985 RMK AC6 SLP160
CYYC;2002-11-04 03:00;METAR CYYC 040300Z 03002KT 15SM FEW110 BKN160 BKN250 M02/M04 A2984 RMK AC2AC3CI0 SLP162 SLP162
CYYC;2002-11-04 04:00;METAR CYYC 040400Z 34006KT 15SM FEW120 FEW160 SCT250 M03/M04 A2983 RMK AC1AC1CI0 SLP159 SLP159
CYYC;2002-11-04 05:00;METAR CYYC 040500Z 34005KT 15SM SCT099 BKN160 BKN250 M03/M04 A2984 RMK AC3AC1CI0 SLP161 SLP161
CYYC;2002-11-04 06:00;METAR CYYC 040600Z 32006KT 12SM SCT120 BKN250 M03/M04 A2983 RMK AC4CI2 SLP149
CYYC;2002-11-04 07:00;METAR CYYC 040700Z 34006KT 12SM SCT120 BKN250 M04/M05 A2983 RMK AC2CI1 SLP148
CYYC;2002-11-04 08:00;METAR CYYC 040800Z 36006KT 12SM FEW120 FEW250 M03/M05 A2982 RMK AC1CI0 SLP146
CYYC;2002-11-04 09:00;METAR CYYC 040900Z 32009KT 15SM FEW120 FEW250 M04/M06 A2982 RMK AC1CI0 SLP145
CYYC;2002-11-04 10:00;METAR CYYC 041000Z 35008KT 15SM FEW140 FEW250 M04/M07 A2981 RMK AC1CI0 SLP142
CYYC;2002-11-04 11:00;METAR CYYC 041100Z 33008KT 15SM FEW140 FEW250 M05/M08 A2982 RMK AC1CI0 SLP144
CYYC;2002-11-04 12:00;METAR CYYC 041200Z 35003KT 15SM FEW140 FEW250 M04/M09 A2982 RMK AC1CI0 SLP150
CYYC;2002-11-04 13:00;METAR CYYC 041300Z 30002KT 15SM FEW140 FEW250 M02/M09 A2983 RMK AC1CI0 SLP152
CYYC;2002-11-04 14:00;METAR CYYC 041400Z 35004KT 20SM SCT120 OVC250 M02/M09 A2983 RMK AC4CI2 SLP151
CYYC;2002-11-04 15:00;METAR CYYC 041500Z 32002KT 30SM SCT100 BKN140 M02/M09 A2984 RMK AC4AC2 SLP155
CYYC;2002-11-04 16:00;METAR CYYC 041600Z 00000KT 30SM BKN120 BKN160 M01/M08 A2984 RMK AC6AC1 SLP157
CYYC;2002-11-04 17:00;METAR CYYC 041700Z 32007KT 40SM FEW120 02/M07 A2984 RMK AC1 SLP156
CYYC;2002-11-04 18:00;METAR CYYC 041800Z 33007KT 40SM FEW120 04/M10 A2984 RMK AC1 AC TR SLP149
CYYC;2002-11-04 19:00;METAR CYYC 041900Z 31004KT 40SM FEW140 05/M10 A2982 RMK AC1 AC TR SLP143
CYYC;2002-11-04 20:00;METAR CYYC 042000Z 28002KT 30SM FEW180 07/M12 A2981 RMK AC1 AC TR / LGT HAZE SLP140 SLP140
CYYC;2002-11-04 21:00;METAR CYYC 042100Z 22004KT 30SM FEW180 07/M11 A2979 RMK AC1 AC TR / LGT HAZE SLP129 SLP129
CYYC;2002-11-04 22:00;METAR CYYC 042200Z 19007KT 20SM FEW250 07/M09 A2978 RMK CI0 LGT HAZE SLP125
CYYC;2002-11-04 23:00;METAR CYYC 042300Z 18007KT 20SM FEW300 06/M09 A2976 RMK CI0 LGT HAZE SLP120
CYYC;2002-11-05 00:00;METAR CYYC 050000Z 17007KT 30SM FEW180 FEW300 03/M09 A2976 RMK AC1CI0 SLP123
CYYC;2002-11-05 01:00;METAR CYYC 050100Z 16004KT 15SM FEW180 FEW280 02/M08 A2976 RMK AC1CI0 SLP124
CYYC;2002-11-05 02:00;METAR CYYC 050200Z 19006KT 15SM BKN180 01/M08 A2975 RMK AC6 SLP120
CYYC;2002-11-05 03:00;METAR CYYC 050300Z 28008KT 15SM FEW250 05/M10 A2976 RMK CI0 SLP117
CYYC;2002-11-05 04:00;METAR CYYC 050400Z 29010KT 15SM FEW270 05/M10 A2976 RMK CI0 SLP117
CYYC;2002-11-05 05:00;METAR CYYC 050500Z 29009KT 15SM FEW140 FEW270 05/M10 A2978 RMK AC1CI0
CYYC;2002-11-05 06:00;METAR CYYC 050600Z 27013KT 15SM FEW099 SCT250 06/M10 A2979 RMK AC2CI2 SLP120
CYYC;2002-11-05 07:00;METAR CYYC 050700Z 27011G16KT 15SM FEW098 05/M10 A2980 RMK AC2 SLP121
CYYC;2002-11-05 08:00;METAR CYYC 050800Z 27011KT 15SM SCT062 BKN110 06/M09 A2980 RMK SC3AC2
CYYC;2002-11-05 09:00;METAR CYYC 050900Z 28012KT 15SM FEW060 FEW120 06/M09 A2981 RMK SC1AC1
CYYC;2002-11-05 10:00;METAR CYYC 051000Z 28015KT 15SM FEW064 SCT110 07/M09 A2983 RMK SC2AC1 SLP126
CYYC;2002-11-05 11:00;METAR CYYC 051100Z 26010KT 15SM FEW068 FEW120 06/M08 A2982 RMK AC1AC1
CYYC;2002-11-05 12:00;METAR CYYC 051200Z 27015KT 15SM FEW120 06/M08 A2982 RMK AC1 SLP129
CYYC;2002-11-05 13:00;METAR CYYC 051300Z 29009KT 15SM FEW140 FEW250 06/M08 A2982 RMK AC1CI0 SLP130
CYYC;2002-11-05 14:00;METAR CYYC 051400Z 00000KT 30SM BKN110 OVC240 06/M08 A2982 RMK AC6CI1
CYYC;2002-11-05 16:00;METAR CYYC 051600Z 29004KT 40SM FEW110 FEW130 BKN240 07/M09 A2984 RMK AC1AC2CI2 SLP133 SLP133
CYYC;2002-11-05 18:00;METAR CYYC 051800Z 27017KT 40SM FEW070 FEW130 SCT240 11/M07 A2983 RMK CU1AC1CI2 TR CU CC ASOCTD SLP123 TR CU CC ASOCTD SLP123
CYYC;2002-11-05 19:00;METAR CYYC 051900Z 28015KT 40SM FEW070 FEW120 SCT210 BKN240 12/M07 A2981 RMK CU1AC1CI1CI2 TR CU TR AC CC ASOCTD SLP117
CYYC;2002-11-05 20:00;METAR CYYC 052000Z 27017KT 40SM FEW076 FEW120 SCT210 BKN240 12/M07 A2981 RMK CU1AC1CI1CI2 TR CU TR AC SLP116 CU1AC1CI1CI2 TR CU TR AC SLP116
CYYC;2002-11-05 21:00;METAR CYYC 052100Z 28016G22KT 40SM FEW076 FEW120 FEW220 BKN250 13/M06 A2980 RMK CU1AC1CI1CI2 TR CU TR AC SLP111 CU1AC1CI1CI2 TR CU TR AC SLP111
CYYC;2002-11-05 22:00;METAR CYYC 052200Z 27015KT 40SM FEW070 FEW120 BKN220 BKN250 12/M05 A2981 RMK CU1AC1CI3CI1 TR CU TR AC TR UPR LVL CI COTRA CC ASOCTD SLP112 CU1AC1CI3CI1 TR CU TR AC TR UPR LVL CI COTRA CC ASOCTD SLP112
CYYC;2002-11-05 23:00;METAR CYYC 052300Z 28015KT 40SM FEW068 BKN220 BKN260 11/M06 A2983 RMK CU1CI3CC0 TR CU COTRA SLP119 TR CU COTRA SLP119
CYYC;2002-11-06 00:00;METAR CYYC 060000Z 27012KT 40SM FEW054 FEW120 BKN220 BKN260 08/M05 A2984 RMK CU1AC1CI2CC0 TR CU TR AC COTRA SLP128 CU1AC1CI2CC0 TR CU TR AC COTRA SLP128
CYYC;2002-11-06 01:00;METAR CYYC 060100Z 30011G16KT 15SM FEW054 BKN230 08/M05 A2986 RMK CU1CI2 TR CU SLP135 SLP135
CYYC;2002-11-06 02:00;METAR CYYC 060200Z 32005KT 15SM FEW054 FEW091 BKN230 07/M05 A2986 RMK CU1AC2CI1 TR CU SLP135 TR CU SLP135
CYYC;2002-11-06 03:00;METAR CYYC 060300Z 27013KT 15SM FEW088 FEW110 FEW250 08/M04 A2986 RMK AC1AC1CI0 SLP137 SLP137
CYYC;2002-11-06 04:00;METAR CYYC 060400Z 27015KT 15SM FEW089 FEW250 08/M04 A2985 RMK AC2CI0
CYYC;2002-11-06 05:00;METAR CYYC 060500Z 26011KT 15SM FEW120 FEW250 07/M03 A2985 RMK AC1CI0 AC TR
CYYC;2002-11-06 06:00;METAR CYYC 060600Z 26010KT 15SM FEW140 SCT250 07/M03 A2986 RMK AC2CI1 SLP131
CYYC;2002-11-06 07:00;METAR CYYC 060700Z 00000KT 15SM FEW250 06/M03 A2986 RMK CI1 SLP133
CYYC;2002-11-06 08:00;METAR CYYC 060800Z 25006KT 15SM FEW250 07/M03 A2985 RMK CI1 CI TR SLP128
CYYC;2002-11-06 09:00;METAR CYYC 060900Z 25012KT 15SM FEW250 07/M03 A2985 RMK CI1 SLP123
CYYC;2002-11-06 10:00;METAR CYYC 061000Z 23011KT 15SM FEW250 07/M03 A2983 RMK CI1 SLP117
CYYC;2002-11-06 11:00;METAR CYYC 061100Z 27017G24KT 15SM FEW089 SCT120 SCT250 10/M03 A2981 RMK AC2AC2CI0 SLP113
CYYC;2002-11-06 12:00;METAR CYYC 061200Z 22007KT 15SM FEW091 BKN120 BKN250 07/M02 A2980 RMK AC1AC4CI1 SLP115 SLP115
CYYC;2002-11-06 14:00;METAR CYYC 061400Z 21010KT 20SM FEW070 BKN140 OVC240 05/M02 A2977 RMK AC1AC5CI1 SLP104 SLP104
CYYC;2002-11-06 15:00;METAR CYYC 061500Z 23002KT 40SM FEW030 FEW040 BKN140 BKN250 05/M02 A2976 RMK CF1CU1AC6CI1 TR CF TR CU SLP103 CF1CU1AC6CI1 TR CF TR CU SLP103
CYYC;2002-11-06 16:00;METAR CYYC 061600Z 23009KT 40SM FEW034 FEW045 BKN140 BKN250 07/M01 A2976 RMK CF1CU1AC6CI1 TR CF TR CU SLP102 CF1CU1AC6CI1 TR CF TR CU SLP102
CYYC;2002-11-06 17:00;METAR CYYC 061700Z 22005KT 40SM FEW030 BKN140 BKN250 06/M01 A2977 RMK CU1AC6CI2 TR CU SLP105 TR CU SLP105
CYYC;2002-11-06 18:00;METAR CYYC 061800Z 22006KT 40SM FEW025 FEW030 BKN140 BKN250 07/M01 A2976 RMK CF1SC1AC6CI2 TR CF TR SC SLP101 CF1SC1AC6CI2 TR CF TR SC SLP101
CYYC;2002-11-06 19:00;METAR CYYC 061900Z 21005KT 40SM FEW036 BKN130 BKN250 09/M01 A2974 RMK SC1AC6CI1 TR SC SLP096 TR SC SLP096
CYYC;2002-11-06 20:00;METAR CYYC 062000Z 24007KT 40SM FEW036 BKN130 BKN250 09/M00 A2971 RMK SC1AC6CI1 TR SC SLP088 TR SC SLP088
CYYC;2002-11-06 22:00;METAR CYYC 062200Z 20005KT 40SM FEW052 SCT130 BKN250 11/01 A2969 RMK CU1AC3CI2 HAZY SLP074 HAZY SLP074
CYYC;2002-11-06 23:00;METAR CYYC 062300Z 14003KT 40SM FEW052 FEW130 BKN250 13/00 A2968 RMK CU1AC2CI3 CC ASOCTD HAZY SLP072 ASOCTD HAZY SLP072
CYYC;2002-11-07 00:00;METAR CYYC 070000Z 16003KT 40SM FEW040 FEW048 FEW130 BKN250 BKN270 11/M00 A2965 RMK CF1CU1AC1CI2CC1 TR CF COTRA HAZY SLP060 RMK CF1CU1AC1CI2CC1 TR CF COTRA HAZY SLP060
CYYC;2002-11-07 01:00;METAR CYYC 070100Z 26015G26KT 15SM FEW048 FEW056 FEW130 BKN250 13/M01 A2965 RMK CF1CU2AC1CI2 TR CF TR AC SLP060 CF1CU2AC1CI2 TR CF TR AC SLP060
CYYC;2002-11-07 02:00;METAR CYYC 070200Z 27015KT 15SM SCT087 BKN250 12/M01 A2964 RMK AC3CI1 SLP056
CYYC;2002-11-07 03:00;METAR CYYC 070300Z 26012KT 15SM SCT092 BKN270 11/M01 A2964 RMK AC3CI1 SLP057
CYYC;2002-11-07 04:00;METAR CYYC 070400Z 26013KT 15SM FEW090 BKN270 10/M00 A2963 RMK AC2CI1 SLP054
CYYC;2002-11-07 05:00;METAR CYYC 070500Z 25007KT 15SM FEW090 BKN140 BKN270 07/M01 A2961 RMK AC2AS3CI1 SLP049 SLP049
CYYC;2002-11-07 06:00;METAR CYYC 070600Z 30009KT 15SM BKN080 09/M01 A2961 RMK AC6 SLP046
CYYC;2002-11-07 07:00;METAR CYYC 070700Z 30018KT 15SM FEW080 BKN270 11/M01 A2960 RMK AC1CI2 SLP042
CYYC;2002-11-07 08:00;METAR CYYC 070800Z 28015KT 15SM FEW080 SCT150 BKN270 10/M02 A2958 RMK AC1AC2CI2 SLP036 SLP036
CYYC;2002-11-07 09:00;METAR CYYC 070900Z 30015G20KT 15SM FEW080 SCT150 BKN270 10/M02 A2959 RMK AC1AC2CI1 SLP034
CYYC;2002-11-07 10:00;METAR CYYC 071000Z 28017KT 15SM FEW080 SCT150 BKN270 10/M02 A2958 RMK AC1AC2CI2 SLP032 SLP032
CYYC;2002-11-07 11:00;METAR CYYC 071100Z 27016G22KT 15SM BKN085 BKN150 09/M02 A2957 RMK AC5AC1 SLP028
CYYC;2002-11-07 12:00;METAR CYYC 071200Z 27014G19KT 15SM BKN086 BKN150 09/M02 A2956 RMK AC5AC2 SLP024
CYYC;2002-11-07 13:00;METAR CYYC 071300Z 27015KT 15SM SCT080 BKN150 10/M03 A2955 RMK AC3AS2 SLP020
CYYC;2002-11-07 14:00;METAR CYYC 071400Z 25014G20KT 15SM FEW090 SCT100 BKN110 10/M03 A2952 RMK AC2AC2AC2 SLP013
CYYC;2002-11-07 15:00;METAR CYYC 071500Z 26013KT 40SM FEW044 BKN120 BKN270 08/M03 A2950 RMK SC2AC4CI0 SLP006 SLP006
CYYC;2002-11-07 16:00;METAR CYYC 071600Z 21008KT 40SM FEW035 FEW040 BKN098 BKN270 07/M03 A2950 RMK CF1SC1AC5CI1 TR CF TR CI SLP004 CF1SC1AC5CI1 TR CF TR CI SLP004
CYYC;2002-11-07 17:00;METAR CYYC 071700Z 24007KT 40SM FEW038 FEW044 FEW094 BKN100 BKN270 08/M02 A2948 RMK CF1SC1AC2AC3CI1 TR CF TR SC SLP000 RMK CF1SC1AC2AC3CI1 TR CF TR SC SLP000
CYYC;2002-11-07 18:00;METAR CYYC 071800Z 13009G21KT 40SM FEW052 FEW081 BKN092 BKN270 09/M02 A2949 RMK CU1AC2AS3CI1 TR CU SUN DIMLY VSB SLP003 CU1AC2AS3CI1 TR CU SUN DIMLY VSB SLP003
CYYC;2002-11-07 19:00;METAR CYYC 071900Z 12006KT 40SM FEW040 FEW078 BKN091 BKN260 BKN300 08/M01 A2947 RMK CU1AC2AS3CI1CC1 TR CU TR CC SUN DIMLY VSB SLP996 RMK CU1AC2AS3CI1CC1 TR CU TR CC SUN DIMLY VSB SLP996
CYYC;2002-11-07 20:00;METAR CYYC 072000Z 18004KT 40SM FEW040 FEW080 BKN092 BKN260 09/M01 A2946 RMK CU1AC2AS4CI1 TR CU TR CI SUN DIMLY VSB SLP995 CU1AC2AS4CI1 TR CU TR CI SUN DIMLY VSB SLP995
CYYC;2002-11-07 21:00;METAR CYYC 072100Z 14004KT 40SM FEW058 FEW081 BKN092 BKN260 10/M01 A2942 RMK CU1AC2AS3CI1 TR CU TR CI SUN DIMLY VSB SLP975 CU1AC2AS3CI1 TR CU TR CI SUN DIMLY VSB SLP975
CYYC;2002-11-07 22:00;METAR CYYC 072200Z 20004KT 40SM FEW060 SCT097 BKN260 BKN300 10/M01 A2940 RMK CU1AC2CI1CC1 TR CU VIRGA NE HAZY SLP969 CU1AC2CI1CC1 TR CU VIRGA NE HAZY SLP969
CYYC;2002-11-07 23:00;METAR CYYC 072300Z 15008KT 40SM FEW034 FEW100 BKN120 08/00 A2939 RMK CU1AC2AC5 TR CU SLP966 CU SLP966
CYYC;2002-11-08 00:00;METAR CYYC 080000Z 16007KT 40SM FEW054 FEW061 BKN098 07/01 A2937 RMK CF2CU1AC6 TR CU SLP964 CU SLP964
CYYC;2002-11-08 22:00;METAR CYYC 072200Z 20004KT 40SM FEW060 SCT097 BKN260 BKN300 10/M01 A2940 RMK CU1AC2CI1CC1 TR CU VIRGA NE HAZY SLP969 CU1AC2CI1CC1 TR CU VIRGA NE HAZY SLP969
CYYC;2002-11-08 23:00;METAR CYYC 072300Z 15008KT 40SM FEW034 FEW100 BKN120 08/00 A2939 RMK CU1AC2AC5 TR CU SLP966 CU SLP966
CYYC;2002-11-08 01:00;METAR CYYC 080100Z 22003KT 15SM FEW055 SCT090 BKN110 07/M00 A2937 RMK CU1AC3AC4 TR CU SLP962 TR CU SLP962
CYYC;2002-11-08 02:00;METAR CYYC 080200Z 00000KT 15SM BKN085 BKN100 07/M00 A2935 RMK AC5AC2 SLP958
CYYC;2002-11-08 03:00;METAR CYYC 080300Z 14002KT 15SM FEW080 OVC120 04/M01 A2934 RMK AC1AC8 SLP959
CYYC;2002-11-08 04:00;METAR CYYC 080400Z 00000KT 15SM FEW080 OVC140 05/M01 A2933 RMK AC1AC8 SLP955
CYYC;2002-11-08 05:00;METAR CYYC 080500Z 19004KT 15SM FEW080 OVC140 04/M01 A2932 RMK AC1AC8 SLP952
CYYC;2002-11-08 06:00;METAR CYYC 080600Z 21007KT 15SM FEW080 BKN150 04/M02 A2932 RMK AC1AC6 SLP949
CYYC;2002-11-08 07:00;METAR CYYC 080700Z 22006KT 15SM FEW080 BKN150 03/M03 A2930 RMK AC1AC4 SLP945
CYYC;2002-11-08 08:00;METAR CYYC 080800Z 25007KT 15SM FEW080 FEW250 03/M04 A2929 RMK AC1CI1 SLP941
CYYC;2002-11-08 09:00;METAR CYYC 080900Z 36004KT 15SM FEW150 BKN250 02/M04 A2927 RMK AC1CI2 SLP934
CYYC;2002-11-08 10:00;METAR CYYC 081000Z 00000KT 15SM FEW080 SCT250 02/M04 A2925 RMK AC1CI2 SLP928
CYYC;2002-11-08 11:00;METAR CYYC 081100Z 18007KT 15SM SCT150 BKN250 M00/M04 A2924 RMK AC3CI2 SLP926
CYYC;2002-11-08 12:00;METAR CYYC 081200Z 24003KT 15SM FEW085 BKN150 BKN250 01/M03 A2922 RMK AC2AC3CI1 SLP924 SLP924
CYYC;2002-11-08 13:00;METAR CYYC 081300Z 05005KT 15SM BKN085 M00/M02 A2921 RMK AC6 SLP921
CYYC;2002-11-08 15:00;METAR CYYC 081500Z CCA 36007KT 20SM OVC084 M02/M03 A2919 RMK AC8 SLP921
CYYC;2002-11-08 16:00;METAR CYYC 081600Z 02006KT 3SM BR BKN002 OVC068 M02/M03 A2921 RMK ST6AC2 SLP925
CYYC;2002-11-08 17:00;METAR CYYC 081700Z 01006KT 2SM -SN BR OVC002 M02/M02 A2921 RMK ST8 SLP926
CYYC;2002-11-08 18:00;METAR CYYC 081800Z 01004KT 2SM -SN -FZDZ BR BKN003 OVC039 M01/M02 A2920 RMK ST7SC1 SLP923 RMK ST6SC2 SLP917
CYYC;2002-11-08 20:00;METAR CYYC 082000Z 02010KT 3SM -SN BR BKN005 OVC018 M01/M01 A2917 RMK ST6SC2 SLP913 SLP913
CYYC;2002-11-08 21:00;METAR CYYC 082100Z 03010KT 1 1/4SM -SN OVC004 M01/M02 A2916 RMK ST8 SLP911
CYYC;2002-11-08 22:00;METAR CYYC 082200Z 03010KT 1 1/4SM -SN OVC004 M01/M02 A2917 RMK ST8 SLP915
CYYC;2002-11-08 23:00;METAR CYYC 082300Z 01008KT 1 1/4SM -SN OVC004 M01/M02 A2919 RMK ST8 /S01/ SLP921
CYYC;2002-11-09 00:00;METAR CYYC 090000Z 04009KT 1 1/4SM -SN BKN004 BKN009 OVC021 M02/M03 A2921 RMK SC6SC2SC1 /S02/ SLP930 SC6SC2SC1 /S02/ SLP930
CYYC;2002-11-09 01:00;METAR CYYC 090100Z 04010KT 5SM -SN FEW005 OVC021 M03/M04 A2922 RMK SC2SC6 SLP934
CYYC;2002-11-09 02:00;METAR CYYC 090200Z 04007KT 3/4SM R16/6000FT R28/6000FT -SN OVC005 M03/M04 A2923 RMK SN6SC2 /S02/ SLP937 RMK SN6SC2 /S02/ SLP937
CYYC;2002-11-09 03:00;METAR CYYC 090300Z 03008KT 1/2SM SN OVC003 M04/M04 A2924 RMK SN3ST5 RVR RWY 28 4500 FT RVR RWY 34 4000 FT SLP948 4500 FT RVR RWY 34 4000 FT SLP948
CYYC;2002-11-09 04:00;METAR CYYC 090400Z 03006KT 3/4SM -SN OVC006 M04/M05 A2925 RESN RMK SN2ST6 RVR RWY 28 6000+ FT RVR RWY 34 6000+ FT SLP951 28 6000+ FT RVR RWY 34 6000+ FT SLP951
CYYC;2002-11-09 05:00;METAR CYYC 090500Z 03007KT 2 1/2SM -SN FEW010 BKN014 OVC035 M05/M06 A2927 RMK SC1SC5SC2 SLP957 SC1SC5SC2 SLP957
CYYC;2002-11-09 06:00;METAR CYYC 090600Z 02007KT 2SM -SN SCT008 OVC011 M05/M06 A2926 RMK SF3ST5 /S04/ SLP958 SLP958
CYYC;2002-11-09 07:00;METAR CYYC 090700Z 02008KT 1 1/4SM -SN OVC007 M06/M07 A2929 RMK SN2ST6 SLP965
CYYC;2002-11-09 08:00;METAR CYYC 090800Z 03006KT 3SM -SN FEW008 SCT011 OVC033 M06/M07 A2930 RMK SF1SF3SC5 /S01/ SLP968
CYYC;2002-11-09 09:00;METAR CYYC 090900Z 02007KT 3SM -SN FEW008 OVC033 M06/M07 A2932 RMK SF2SC6 SLP978
CYYC;2002-11-09 10:00;METAR CYYC 091000Z 01005KT 4SM -SN FEW008 OVC033 M06/M07 A2932 RMK SF2SC6 SLP980
CYYC;2002-11-09 11:00;METAR CYYC 091100Z 03005KT 3SM -SN FEW008 OVC036 M07/M08 A2934 RMK SF2SC6 SLP984
CYYC;2002-11-09 12:00;METAR CYYC 091200Z 04004KT 2 1/2SM -SN FEW008 BKN014 OVC036 M07/M08 A2935 RMK SF2SC3SC2 SLP992
CYYC;2002-11-09 12:06;SPECI CYYC 091206Z 03003KT 3SM -SN FEW008 SCT014 OVC065 RMK SF2SF2SC5 SF2SC3SC2 SLP992 RMK SF1SF2SC3AC2 VIS LWR W SLP000
CYYC;2002-11-09 13:48;SPECI CYYC 091348Z 05003KT 2SM -SN BKN009 OVC035 RMK SF5SC3
CYYC;2002-11-09 14:00;METAR CYYC 091400Z 06002KT 2SM -SN FEW009 BKN017 OVC035 M07/M08 A2939 RMK SF1ST5SC2 SLP003
CYYC;2002-11-09 14:45;SPECI CYYC 091445Z 05003KT 1 1/4SM -SN SCT007 OVC059 RMK SN2SC2SC4
CYYC;2002-11-09 15:00;METAR CYYC 091500Z 05003KT 1 1/4SM -SN SCT011 OVC058 M07/M09 A2941 RMK SN2SC2SC4 /S01/ SLP014 /S01/ SLP014
CYYC;2002-11-09 16:00;METAR CYYC 091600Z 00000KT 1 1/4SM -SN SCT012 OVC022 M07/M09 A2942 RMK SN2SC2SC4 SLP020 SLP020
CYYC;2002-11-09 16:44;SPECI CYYC 091644Z 00000KT 1 1/4SM -SN BKN009 OVC030 RMK SN3SC4SC1
CYYC;2002-11-09 17:00;METAR CYYC 091700Z 00000KT 1 1/4SM -SN BKN007 OVC020 M07/M08 A2943 RMK SN3SC4SC1 /S02/ SLP023 /S02/ SLP023
CYYC;2002-11-09 18:00;METAR CYYC 091800Z 00000KT 1 1/4SM -SN BKN008 OVC030 M06/M08 A2945 RMK SN2SC4SC2 /S03/ SLP031
CYYC;2002-11-09 18:11;SPECI CYYC 091811Z 00000KT 3SM -SN OVC045 RMK SC8 /S03/ SLP031
CYYC;2002-11-09 19:00;METAR CYYC 091900Z 09002KT 4SM -SN OVC053 M05/M08 A2946 RMK SC8 SLP032
CYYC;2002-11-09 20:00;METAR CYYC 092000Z 00000KT 8SM -SN FEW013 BKN060 OVC072 M05/M08 A2946 RMK SC2SC5AC2 SNW VRY LGT SLP034
CYYC;2002-11-09 21:00;METAR CYYC 092100Z 07002KT 12SM -SN FEW040 BKN063 OVC074 M04/M08 A2947 RMK SC2SC5AC2 SNW VRY LGT SLP035
CYYC;2002-11-09 21:13;SPECI CYYC 092113Z 00000KT 12SM SCT057 BKN063 OVC074 RMK SC3SC3AC2
CYYC;2002-11-09 21:34;SPECI CYYC 092134Z 15004KT 10SM -SN BKN013 OVC060 RMK SC5SC3
CYYC;2002-11-09 22:00;METAR CYYC 092200Z 13006KT 10SM -SN BKN013 OVC063 M05/M07 A2948 RMK SC6SC2 SLP039
CYYC;2002-11-09 23:00;METAR CYYC 092300Z 13006KT 7SM -SN OVC010 M05/M07 A2950 RMK SC8 SLP046
CYYC;2002-11-10 00:00;METAR CYYC 100000Z 14005KT 12SM -SN FEW012 BKN065 OVC090 M07/M09 A2952 RMK SC2SC4AC2 SNW VRY LGT SLP057
CYYC;2002-11-10 00:14;SPECI CYYC 100014Z 13004KT 10SM VCFG FEW012 BKN065 OVC090 RMK SC2SC4AC2 FOG BANK S VSBY 6 S VSBY 6
CYYC;2002-11-10 01:00;METAR CYYC 100100Z 12003KT 12SM VCFG FEW014 BKN065 OVC100 M08/M09 A2954 RMK SC2SC3AC3 FOG BANK S SLP063
CYYC;2002-11-10 02:00;METAR CYYC 100200Z 08002KT 7SM VCFG FEW013 BKN065 OVC090 M10/M10 A2955 RMK SC2SC3AC2 FOG BANK S VSBY 5 SLP067
CYYC;2002-11-10 02:26;SPECI CYYC 100226Z 03003KT 6SM BR BKN010 OVC099 RMK SC5AC3
CYYC;2002-11-10 03:00;METAR CYYC 100300Z 05003KT 6SM BR OVC009 M09/M10 A2956 RMK SC8 SLP076
CYYC;2002-11-10 04:00;METAR CYYC 100400Z 01003KT 4SM BR BKN008 OVC011 M08/M09 A2957 RMK ST6ST2 SLP078
CYYC;2002-11-10 05:00;METAR CYYC 100500Z 01004KT 3SM BR FEW005 OVC007 M07/M08 A2959 RMK SF1ST8 SLP085
CYYC;2002-11-10 05:51;SPECI CYYC 100551Z 03003KT 2SM BR OVC002 RMK FG1ST7
CYYC;2002-11-10 06:00;METAR CYYC 100600Z 03003KT 3/4SM BR VV001 M07/M08 A2961 RMK FG8 RVR RWY 28 6000+ FT RVR RWY 34 6000+ FT SLP086
CYYC;2002-11-10 06:06;SPECI CYYC 100606Z 03003KT 3/8SM FZFG VV001 RMK FG8 RVR RWY 28 6000FT RVR RWY 34 6000+ FT FT RVR RWY 34 6000+ FT SLP086 6000+ FT
CYYC;2002-11-10 06:40;SPECI CYYC 100640Z 34002KT 1/2SM FZFG OVC003 RMK FG2ST6 RVR RWY 28 4000FT RVR RWY 34 4500FT 34 4500FT
CYYC;2002-11-10 06:49;SPECI CYYC 100649Z 35002KT 1SM BR FEW001 BKN006 OVC009 RMK FG1SF1ST4ST2 RVR RWY 28 6000FT RVR RWY 34 6000+ FT 28 6000FT RVR RWY 34 6000+ FT
CYYC;2002-11-10 07:00;METAR CYYC 100700Z 36003KT 1 1/4SM BR BKN001 OVC009 M07/M08 A2961 RMK ST6ST2 SLP087 SLP087
CYYC;2002-11-10 07:19;SPECI CYYC 100719Z 36004KT 1 1/2SM BR SCT002 BKN004 OVC010 RMK ST3ST3ST2
CYYC;2002-11-10 08:00;METAR CYYC 100800Z 36003KT 2 1/2SM BR FEW003 BKN004 OVC009 M07/M07 A2962 RMK SF1ST6ST1 SLP091 SF1ST6ST1 SLP091
CYYC;2002-11-10 08:32;SPECI CYYC 100832Z 36005KT 3SM BR BKN005 OVC010 RMK ST6ST2
CYYC;2002-11-10 09:00;METAR CYYC 100900Z 36005KT 3SM BR OVC006 M07/M07 A2963 RMK ST8 SLP093
CYYC;2002-11-10 10:00;METAR CYYC 101000Z 02005KT 3SM BR FEW006 OVC008 M07/M08 A2965 RMK SF2ST6 SLP098
CYYC;2002-11-10 11:00;METAR CYYC 101100Z 03003KT 4SM BR BKN006 BKN009 OVC014 M07/M08 A2965 RMK SC5SC2SC2 SLP100
CYYC;2002-11-10 12:00;METAR CYYC 101200Z 05004KT 4SM BR FEW006 OVC013 M07/M08 A2966 RMK SF2ST6 SLP108
CYYC;2002-11-10 13:00;METAR CYYC 101300Z 05004KT 3SM BR BKN006 OVC013 M07/M09 A2969 RMK ST5ST3 SLP116
CYYC;2002-11-10 14:00;METAR CYYC 101400Z 05002KT 4SM BR OVC005 M08/M09 A2970 RMK ST8 SLP120
CYYC;2002-11-10 15:00;METAR CYYC 101500Z 09004KT 3SM BR OVC005 M08/M09 A2972 RMK ST8 SLP130
CYYC;2002-11-10 16:00;METAR CYYC 101600Z 10003KT 3SM BR OVC005 M07/M08 A2973 RMK ST8 VSBY W 2 SLP134
CYYC;2002-11-10 17:00;METAR CYYC 101700Z 10005KT 3SM BR OVC005 M07/M08 A2975 RMK ST8 SLP139 RMK ST8 SLP142
CYYC;2002-11-10 19:00;METAR CYYC 101900Z 09003KT 2 1/2SM BR OVC005 M07/M08 A2976 RMK ST8 SLP141
CYYC;2002-11-10 20:00;METAR CYYC 102000Z 13003KT 4SM -SN BR OVC008 M07/M08 A2975 RMK ST8 SLP140
CYYC;2002-11-10 21:00;METAR CYYC 102100Z 16007KT 6SM BR OVC009 M07/M08 A2975 RMK ST8 SLP136
CYYC;2002-11-10 22:00;METAR CYYC 102200Z 17006KT 7SM OVC009 M07/M08 A2975 RMK ST8 SLP137
CYYC;2002-11-10 23:00;METAR CYYC 102300Z 17007KT 4SM BR OVC009 M06/M08 A2976 RMK ST8 OCNL S- SLP140
CYYC;2002-11-11 00:00;METAR CYYC 110000Z 17007KT 4SM BR OVC008 M06/M08 A2977 RMK ST8 SLP144
CYYC;2002-11-11 01:00;METAR CYYC 110100Z 16007KT 3SM BR OVC007 M06/M08 A2978 RMK ST8 SLP147
CYYC;2002-11-11 02:00;METAR CYYC 110200Z 18008KT 3SM BR OVC005 M06/M07 A2978 RMK ST8 VSBY S-W 2 SLP148
CYYC;2002-11-11 03:00;METAR CYYC 110300Z 18010KT 3SM BR OVC004 M06/M07 A2977 RMK ST8 SLP146
CYYC;2002-11-11 04:00;METAR CYYC 110400Z 20009KT 3SM BR OVC003 M06/M07 A2977 RMK ST8 SLP144
CYYC;2002-11-11 05:00;METAR CYYC 110500Z 21009KT 2 1/2SM BR OVC003 M06/M07 A2977 RMK ST8 SLP144
CYYC;2002-11-11 06:00;METAR CYYC 110600Z 22010KT 1 1/4SM BR BKN001 M07/M08 A2977 RMK SC5 SLP144
CYYC;2002-11-11 07:00;METAR CYYC 110700Z 21008KT 2SM -SG BR SCT003 SCT006 M08/M09 A2977 RMK SF2SF1 VIS SW-W 1 SLP144 SW-W 1 SLP144
CYYC;2002-11-11 08:00;METAR CYYC 110800Z 18007KT 8SM VCFG FEW007 FEW025 M08/M09 A2977 RMK SF1SC1 VIS LWR SW F SW SLP144 LWR SW F SW SLP144
CYYC;2002-11-11 09:00;METAR CYYC 110900Z 17004KT 15SM SKC M08/M09 A2977 RMK SLP148
CYYC;2002-11-11 10:00;METAR CYYC 111000Z 19006KT 15SM SKC M07/M09 A2977 RMK SLP148
CYYC;2002-11-11 11:00;METAR CYYC 111100Z 28005KT 15SM SKC M01/M07 A2978 RMK SLP150
CYYC;2002-11-11 12:00;METAR CYYC 111200Z 20004KT 15SM FEW100 M04/M08 A2978 RMK AC1 SLP145
CYYC;2002-11-11 13:00;METAR CYYC 111300Z 20005KT 15SM SCT080 M04/M08 A2979 RMK AC2 SLP147
CYYC;2002-11-11 14:00;METAR CYYC 111400Z 21005KT 15SM SCT100 SCT260 M01/M06 A2980 RMK AC2CI1 SLP149
CYYC;2002-11-11 15:00;METAR CYYC 111500Z 19004KT 40SM FEW065 SCT099 BKN260 M02/M06 A2981 RMK SC1AC2CI0 SLP150 SLP150
CYYC;2002-11-11 16:00;METAR CYYC 111600Z 21006KT 40SM FEW065 FEW085 BKN110 BKN260 M01/M06 A2983 RMK SC1AC2AC2CI0 SLP156 SC1AC2AC2CI0 SLP156
CYYC;2002-11-11 17:00;METAR CYYC 111700Z 20006KT 40SM FEW065 FEW078 SCT100 BKN270 01/M04 A2984 RMK SC1AC1AC1CI0 SLP160 SC1AC1AC1CI0 SLP160
CYYC;2002-11-11 18:00;METAR CYYC 111800Z 25009KT 40SM FEW065 SCT086 SCT270 04/M03 A2985 RMK SC1AC2CI0 SLP158 SLP158
CYYC;2002-11-11 19:00;METAR CYYC 111900Z 19004KT 40SM FEW065 FEW080 FEW120 SCT270 05/M02 A2985 RMK SC1AC1AC1CI0 SC TR SLP159 SC1AC1AC1CI0 SC TR SLP159
CYYC;2002-11-11 20:00;METAR CYYC 112000Z 27007KT 40SM FEW065 FEW120 FEW270 07/M03 A2986 RMK SC1AC1CI0 SC TR SLP160 SC TR SLP160
CYYC;2002-11-11 21:00;METAR CYYC 112100Z 27012KT 40SM FEW065 FEW120 FEW270 07/M03 A2986 RMK SC1AC1CI0 SC TR SLP159 SC TR SLP159
CYYC;2002-11-11 22:00;METAR CYYC 112200Z 27011G17KT 40SM FEW065 FEW120 FEW270 07/M03 A2987 RMK SC1AC1CI0 SC TR SLP162
CYYC;2002-11-11 23:00;METAR CYYC 112300Z 27016KT 40SM FEW065 FEW120 FEW270 07/M04 A2990 RMK SC1AC1CI0 SC TR SLP170 SC TR SLP170
CYYC;2002-11-12 00:00;METAR CYYC 120000Z 27013KT 40SM FEW060 FEW110 FEW270 05/M04 A2992 RMK SC1AC1CI0 SLP175 SLP175
CYYC;2002-11-12 01:00;METAR CYYC 120100Z 27013KT 40SM FEW060 FEW120 FEW270 05/M04 A2993 RMK SC1AC1CI0 AC TR SLP178 AC TR SLP178
CYYC;2002-11-12 02:00;METAR CYYC 120200Z 02007KT 15SM FEW060 FEW120 FEW270 02/M04 A2996 RMK SC1AC1CI0 AC TR SLP189 AC TR SLP189
CYYC;2002-11-12 03:00;METAR CYYC 120300Z 36008KT 15SM SKC M01/M04 A2998 RMK SLP202
CYYC;2002-11-12 04:00;METAR CYYC 120400Z 36004KT 15SM FEW270 M03/M05 A2998 RMK CI1 SLP203
CYYC;2002-11-12 05:00;METAR CYYC 120500Z 04002KT 15SM FEW270 M04/M06 A3000 RMK CI1 SLP207
CYYC;2002-11-12 06:00;METAR CYYC 120600Z 35005KT 15SM SCT270 M04/M06 A3003 RMK CI1 SLP214
CYYC;2002-11-12 07:00;METAR CYYC 120700Z 00000KT 15SM SCT270 M04/M06 A3003 RMK CI1 SLP215
CYYC;2002-11-12 08:00;METAR CYYC 120800Z 36004KT 15SM SCT270 M07/M09 A3005 RMK CI1 SLP221
CYYC;2002-11-12 09:00;METAR CYYC 120900Z 04004KT 15SM BKN270 M08/M10 A3005 RMK CI2 SLP226
CYYC;2002-11-12 10:00;METAR CYYC 121000Z 02003KT 15SM FEW270 M07/M09 A3005 RMK CI1 FROIN SLP226
CYYC;2002-11-12 11:00;METAR CYYC 121100Z 00000KT 15SM SKC M07/M08 A3004 RMK FROIN SLP222
CYYC;2002-11-12 12:00;METAR CYYC 121200Z 25003KT 15SM FEW270 M07/M08 A3002 RMK CI0 FROIN SLP216
CYYC;2002-11-12 13:00;METAR CYYC 121300Z 19003KT 8SM BKN270 M06/M07 A3000 RMK CI2 FROIN SLP208
CYYC;2002-11-12 14:00;METAR CYYC 121400Z 19004KT 8SM BKN270 M04/M05 A2997 RMK CI2 FROIN SLP201
CYYC;2002-11-12 15:00;METAR CYYC 121500Z 14006KT 20SM FEW150 BKN270 M04/M05 A2995 RMK AC2CI2 FROIN H S-SW-W SLP196 S-SW-W SLP196
CYYC;2002-11-12 16:00;METAR CYYC 121600Z 17008KT 10SM FEW150 BKN270 M04/M05 A2993 RMK AC2CI2 H SW-W SLP190 SLP190
CYYC;2002-11-12 17:00;METAR CYYC 121700Z 18006KT 6SM BR BKN090 OVC270 M04/M05 A2993 RMK AC3CI2 SLP188
CYYC;2002-11-12 18:00;METAR CYYC 121800Z 16004KT 7SM FEW075 SCT090 OVC270 M03/M05 A2989 RMK AC2AC2CI2 SLP176 SLP176
CYYC;2002-11-12 19:00;METAR CYYC 121900Z 18005KT 20SM SCT060 OVC067 M02/M04 A2985 RMK SC2AC2 H ALQDS SLP165 SLP165
CYYC;2002-11-12 20:00;METAR CYYC 122000Z 16005KT 30SM FEW050 BKN060 OVC080 M01/M03 A2981 RMK SC2SC2AC2 VIRGA ACC EMBDD ALQDS SLP153 VIRGA ACC EMBDD ALQDS SLP153
CYYC;2002-11-12 21:00;METAR CYYC 122100Z 15006KT 20SM FEW090 OVC100 M01/M04 A2978 RMK AC2AC4 H ALQDS SLP144 SLP144
CYYC;2002-11-12 22:00;METAR CYYC 122200Z 19003KT 20SM FEW060 OVC140 M00/M03 A2974 RMK SC1AC4 VIRGA ACC EMBDD ALQDS SLP130 EMBDD ALQDS SLP130
CYYC;2002-11-12 23:00;METAR CYYC 122300Z 20005KT 20SM FEW120 OVC140 M01/M03 A2971 RMK AC2AC4 SLP123
CYYC;2002-11-13 00:00;METAR CYYC 130000Z 21007KT 30SM FEW060 SCT130 BKN170 M00/M03 A2968 RMK SC1AC2AC2 SLP105 SLP105
CYYC;2002-11-13 01:00;METAR CYYC 130100Z 22005KT 15SM SCT120 OVC150 01/M02 A2967 RMK AC3AC2 SLP103
CYYC;2002-11-13 02:00;METAR CYYC 130200Z 20009KT 15SM FEW060 SCT150 BKN180 01/M02 A2968 RMK SC1AC2AC1 SLP105
CYYC;2002-11-13 03:00;METAR CYYC 130300Z 26021KT 15SM FEW060 BKN140 OVC250 06/M02 A2967 RMK SC1AC5CI1 SLP087 SLP087
CYYC;2002-11-13 04:00;METAR CYYC 130400Z 26017KT 15SM FEW060 BKN140 OVC250 07/M02 A2969 RMK SC1AC5CI1 SLP093 SLP093
CYYC;2002-11-13 05:00;METAR CYYC 130500Z 26012KT 15SM BKN140 OVC250 07/M03 A2969 RMK AC6CI1 SLP095
CYYC;2002-11-13 06:00;METAR CYYC 130600Z 15002KT 15SM BKN150 OVC250 04/M03 A2969 RMK AC4CI2 SLP098
CYYC;2002-11-13 07:00;METAR CYYC 130700Z 08005KT 15SM FEW140 FEW250 04/M04 A2971 RMK AC1CI0 SLP104
CYYC;2002-11-13 08:00;METAR CYYC 130800Z 27011KT 15SM SCT140 BKN250 06/M04 A2972 RMK AC2CI2 SLP107
CYYC;2002-11-13 09:00;METAR CYYC 130900Z 27008KT 15SM SCT140 BKN250 06/M04 A2974 RMK AC4CI2
CYYC;2002-11-13 10:00;METAR CYYC 131000Z 28011G16KT 15SM BKN140 OVC250 07/M05 A2975 RMK AC5CI2 SLP110
CYYC;2002-11-13 11:00;METAR CYYC 131100Z 28009KT 15SM BKN110 OVC250 06/M05 A2975 RMK AC5CI2 SLP112
CYYC;2002-11-13 12:00;METAR CYYC 131200Z 29002KT 15SM BKN120 OVC250 05/M05 A2977 RMK AC6CI1 SLP117
CYYC;2002-11-13 13:00;METAR CYYC 131300Z 36003KT 15SM BKN120 OVC240 05/M04 A2978 RMK AC6CI2 SLP121
CYYC;2002-11-13 14:00;METAR CYYC 131400Z 32006KT 20SM BKN110 OVC240 05/M04 A2980 RMK AC7CI1 SLP127
CYYC;2002-11-13 15:00;METAR CYYC 131500Z 03006KT 40SM FEW028 BKN120 BKN240 02/M04 A2983 RMK CU1AC5CI1 TR CU TR CI SLP134 TR CU TR CI SLP134
CYYC;2002-11-13 16:00;METAR CYYC 131600Z 00000KT 40SM FEW030 BKN130 BKN240 M01/M04 A2985 RMK CU1AC5CI1 TR CU TR CI SLP140 TR CU TR CI SLP140
CYYC;2002-11-13 17:00;METAR CYYC 131700Z 00000KT 40SM FEW040 FEW130 BKN240 01/M03 A2986 RMK CU1AC2CI2 TR CU SLP145 TR CU SLP145
CYYC;2002-11-13 18:00;METAR CYYC 131800Z 00000KT 40SM FEW040 FEW130 BKN250 04/M03 A2988 RMK CU1AC2CI2 TR CU HAZY CC ASOCTD SLP153 TR CU HAZY CC ASOCTD SLP153
CYYC;2002-11-13 19:00;METAR CYYC 131900Z 00000KT 40SM FEW060 BKN110 BKN250 08/M02 A2989 RMK CU1AC5CI1 TR CU HAZY SLP156 TR CU HAZY SLP156
CYYC;2002-11-13 20:00;METAR CYYC 132000Z 06003KT 40SM FEW060 BKN090 BKN250 06/M01 A2989 RMK CU1AC5CI1 TR CU TR CI HAZY SLP157 TR CU TR CI HAZY SLP157
CYYC;2002-11-13 21:00;METAR CYYC 132100Z 17003KT 30SM FEW060 BKN083 BKN110 BKN250 07/M01 A2990 RMK CU1AC4AC1CI1 TR CU TR CI HAZY SLP153 CU1AC4AC1CI1 TR CU TR CI HAZY SLP153
CYYC;2002-11-13 22:00;METAR CYYC 132200Z 17005KT 40SM FEW060 BKN084 BKN100 BKN250 05/M01 A2991 RMK CU1AC5AC1CI1 TR CU TR CI HAZY VIRGA NE SLP155 CU1AC5AC1CI1 TR CU TR CI HAZY VIRGA NE SLP155
CYYC;2002-11-13 23:00;METAR CYYC 132300Z 18004KT 40SM FEW055 BKN085 BKN092 04/M02 A2991 RMK CU1AC6AC1 TR CU TR UPR LVL AC HAZY SLP157 TR CU TR UPR LVL AC HAZY SLP157
CYYC;2002-11-14 00:00;METAR CYYC 140000Z 15003KT 40SM FEW050 BKN076 BKN110 BKN250 04/M02 A2993 RMK CU1AC6AC1CI1 TR CU TR UPR LVL AC TR CI HAZY SLP166 CU1AC6AC1CI1 TR CU TR UPR LVL AC TR CI HAZY SLP166
CYYC;2002-11-14 01:00;METAR CYYC 140100Z 19004KT 20SM FEW050 BKN085 BKN100 BKN250 04/M01 A2993 RMK CU1AC5AC1CI1 TR CU TR UPR LVL AC TR CI VIRGA SW SLP168 CU1AC5AC1CI1 TR CU TR UPR LVL AC TR CI VIRGA SW SLP168
CYYC;2002-11-14 02:00;METAR CYYC 140200Z 21005KT 15SM BKN080 04/M02 A2993 RMK AC3 SLP168
CYYC;2002-11-14 03:00;METAR CYYC 140300Z 00000KT 15SM BKN090 04/M02 A2994 RMK AC4 SLP176
CYYC;2002-11-14 04:00;METAR CYYC 140400Z 00000KT 15SM BKN090 04/M03 A2994 RMK AC5 SLP177
CYYC;2002-11-14 05:00;METAR CYYC 140500Z 31003KT 15SM SCT086 03/M05 A2995 RMK AC2 SLP179
CYYC;2002-11-14 06:00;METAR CYYC 140600Z 35004KT 15SM FEW100 FEW250 00/M06 A2995 RMK AC1CI0 SLP181
CYYC;2002-11-14 07:00;METAR CYYC 140700Z 05002KT 15SM FEW250 M01/M06 A2994 RMK CI0 SLP180
CYYC;2002-11-14 08:00;METAR CYYC 140800Z 02002KT 15SM FEW250 M02/M07 A2994 RMK CI1 CI TR SLP180
CYYC;2002-11-14 09:00;METAR CYYC 140900Z 34002KT 15SM SKC M01/M07 A2994 RMK SLP178
CYYC;2002-11-14 10:00;METAR CYYC 141000Z 34004KT 15SM FEW160 02/M07 A2994 RMK AC1 AC TR SLP177
CYYC;2002-11-14 11:00;METAR CYYC 141100Z 32005KT 15SM SKC 01/M06 A2994 RMK SLP176
CYYC;2002-11-14 12:00;METAR CYYC 141200Z 34003KT 15SM FEW140 SCT250 01/M06 A2993 RMK AC2CI0 SLP174
CYYC;2002-11-14 13:00;METAR CYYC 141300Z 33008KT 15SM SCT140 BKN250 03/M06 A2994 RMK AC3CI1 SLP175
CYYC;2002-11-14 14:00;METAR CYYC 141400Z 06005KT 20SM BKN140 OVC250 M01/M06 A2994 RMK AC6CI1 SLP176
CYYC;2002-11-14 15:00;METAR CYYC 141500Z 03004KT 40SM FEW050 FEW140 BKN250 BKN280 M01/M06 A2994 RMK CU1AC2CI2CC1 TR CU TR CC SLP181 CU1AC2CI2CC1 TR CU TR CC SLP181
CYYC;2002-11-14 16:00;METAR CYYC 141600Z 01004KT 40SM FEW060 FEW140 BKN250 BKN280 01/M06 A2996 RMK CU1AC1CI5CC0 TR CU TR AC SLP185 CU1AC1CI5CC0 TR CU TR AC SLP185
CYYC;2002-11-14 17:00;METAR CYYC 141700Z 32003KT 40SM FEW060 FEW150 BKN250 BKN280 02/M05 A2996 RMK CU1AC1CI4CC0 TR CU TR AC SLP186 CU1AC1CI4CC0 TR CU TR AC SLP186 CU1AC1CI4CC1 TR CU TR AC TR CC SLP187
CYYC;2002-11-14 19:00;METAR CYYC 141900Z 00000KT 40SM FEW060 FEW150 BKN250 BKN280 06/M06 A2996 RMK CU1AC1CI2CC1 TR CU TR CC SLP186 CU1AC1CI2CC1 TR CU TR CC SLP186
CYYC;2002-11-14 20:00;METAR CYYC 142000Z 28002KT 40SM FEW060 FEW150 BKN240 BKN280 07/M04 A2996 RMK CU1AC1CS4CC1 TR CU TR CC HALO SLP184 CU1AC1CS4CC1 TR CU TR CC HALO SLP184
CYYC;2002-11-14 23:00;METAR CYYC 142300Z 20002KT 40SM FEW064 FEW086 FEW140 BKN230 04/M05 A2998 RMK CU1AC1AC1CS6 TR CU TR AC TR AC HAZY SLP189 CU1AC1AC1CS6 TR CU TR AC TR AC HAZY SLP189
CYYC;2002-11-15 00:00;METAR CYYC 150000Z 00000KT 40SM FEW066 SCT086 BKN230 04/M05 A2998 RMK CU1AC2CS3 HAZY SLP192 HAZY SLP192
CYYC;2002-11-15 01:00;METAR CYYC 150100Z 22003KT 15SM FEW059 FEW085 BKN230 02/M03 A3000 RMK CU1AC2CS3 TR CU SLP197 TR CU SLP197
CYYC;2002-11-15 02:00;METAR CYYC 150200Z 23004KT 15SM SCT077 BKN220 03/M03 A3001 RMK AC3CS4 SLP201
CYYC;2002-11-15 03:00;METAR CYYC 150300Z 30005KT 15SM FEW047 OVC090 03/M04 A3003 RMK SC2AC4 SLP213
CYYC;2002-11-15 04:00;METAR CYYC 150400Z 32002KT 15SM FEW081 BKN250 02/M04 A3004 RMK AC2CI2 SLP215
CYYC;2002-11-15 05:00;METAR CYYC 150500Z 00000KT 15SM FEW074 BKN250 01/M04 A3005 RMK AC2CI1 SLP218
CYYC;2002-11-15 06:00;METAR CYYC 150600Z 22004KT 15SM SCT072 OVC250 01/M04 A3006 RMK AC3CI2 SLP220
CYYC;2002-11-15 07:00;METAR CYYC 150700Z 21005KT 15SM BKN084 OVC240 00/M03 A3006 RMK AC5CI2 DSNT SHWRS ALQDS SLP219 ALQDS SLP219
CYYC;2002-11-15 08:00;METAR CYYC 150800Z 21004KT 15SM FEW065 FEW250 01/M05 A3006 RMK SC1CI0 SLP221
CYYC;2002-11-15 09:00;METAR CYYC 150900Z 08003KT 15SM FEW076 FEW250 M03/M06 A3008 RMK AC2CI0 SLP227
CYYC;2002-11-15 10:00;METAR CYYC 151000Z 07003KT 15SM BKN076 BKN250 M01/M05 A3008 RMK AC5CI1 SLP229
CYYC;2002-11-15 11:00;METAR CYYC 151100Z 00000KT 15SM FEW076 SCT250 M01/M05 A3008 RMK AC2CI1 SLP228
CYYC;2002-11-15 12:00;METAR CYYC 151200Z 00000KT 15SM SCT140 BKN250 M01/M06 A3008 RMK AC3CI1 SLP231
CYYC;2002-11-15 13:00;METAR CYYC 151300Z 26004KT 15SM SCT140 BKN250 01/M07 A3009 RMK AC2CI1 SLP232
CYYC;2002-11-15 14:00;METAR CYYC 151400Z 20002KT 20SM FEW140 FEW250 01/M08 A3008 RMK AC1CI0 SLP230
CYYC;2002-11-15 15:00;METAR CYYC 151500Z 10004KT 40SM FEW060 FEW140 FEW250 01/M08 A3007 RMK CU1AC1CC0 TR CU SLP225 TR CU SLP225
CYYC;2002-11-15 16:00;METAR CYYC 151600Z 20007KT 40SM FEW060 FEW140 SCT250 01/M07 A3006 RMK CU1AC1CI1 TR CU CC ASOCTD SLP222 TR CU CC ASOCTD SLP222
CYYC;2002-11-15 17:00;METAR CYYC 151700Z 23005KT 40SM FEW042 FEW120 BKN230 04/M07 A3006 RMK CU1AC1CI2 TR CU TR AC CC ASOCTD SLP220 TR CU TR AC CC ASOCTD SLP220
CYYC;2002-11-15 18:00;METAR CYYC 151800Z 21005KT 40SM FEW045 FEW120 BKN230 05/M06 A3005 RMK CU1AC1CI4 TR CU TR AC CC ASOCTD SLP215 TR CU TR AC CC ASOCTD SLP215
CYYC;2002-11-15 21:00;METAR CYYC 152100Z 18006KT 40SM FEW056 FEW120 BKN250 08/M05 A3000 RMK CU1AC1CI3 TR CU TR AC CC ASOCTD SLP199 TR CU TR AC CC ASOCTD SLP199
CYYC;2002-11-15 22:00;METAR CYYC 152200Z 20006KT 40SM FEW056 BKN250 07/M05 A3000 RMK CU1CI3 TR CU COTRA CC ASOCTD SLP197 CC ASOCTD SLP197
CYYC;2002-11-15 23:00;METAR CYYC 152300Z 25006KT 40SM FEW050 FEW120 BKN250 06/M05 A3000 RMK CU1AC1CI2 CC ASOCTD SLP197
CYYC;2002-11-16 00:00;METAR CYYC 160000Z 26008KT 40SM FEW045 FEW110 BKN240 05/M05 A2998 RMK CU1AC1CI2 CC ASOCTD SLP192 CC ASOCTD SLP192
CYYC;2002-11-16 01:00;METAR CYYC 160100Z 22007KT 15SM BKN250 05/M04 A2997 RMK CI5 SLP190
CYYC;2002-11-16 02:00;METAR CYYC 160200Z 00000KT 15SM BKN250 05/M06 A2995 RMK CI5 SLP183
CYYC;2002-11-16 03:00;METAR CYYC 160300Z 23004KT 15SM BKN160 OVC240 04/M05 A2993 RMK AC5CI2 SLP174
CYYC;2002-11-16 04:00;METAR CYYC 160400Z 19008KT 15SM SCT160 OVC250 02/M05 A2992 RMK AC3CI2 SLP171
CYYC;2002-11-16 05:00;METAR CYYC 160500Z 22007KT 15SM FEW160 BKN250 01/M05 A2991 RMK AC2CI2 SLP168
CYYC;2002-11-16 06:00;METAR CYYC 160600Z 21005KT 15SM FEW160 SCT250 04/M06 A2989 RMK AC2CI0 SLP154
CYYC;2002-11-16 07:00;METAR CYYC 160700Z 18005KT 15SM FEW160 BKN250 01/M04 A2987 RMK AC1CI1 SLP148
CYYC;2002-11-16 08:00;METAR CYYC 160800Z 21007KT 15SM FEW160 BKN250 M01/M05 A2985 RMK AC1CI2 SLP141
CYYC;2002-11-16 09:00;METAR CYYC 160900Z 20006KT 15SM FEW140 FEW250 M01/M06 A2981 RMK AC2CI0 SLP129
CYYC;2002-11-16 10:00;METAR CYYC 161000Z 18005KT 15SM FEW140 FEW250 00/M04 A2979 RMK AC2CI0 SLP122
CYYC;2002-11-16 11:00;METAR CYYC 161100Z 20003KT 15SM SCT140 BKN250 01/M05 A2976 RMK AC2CI2 SLP112
CYYC;2002-11-16 12:00;METAR CYYC 161200Z 22008KT 15SM SCT140 BKN250 00/M05 A2973 RMK AC3CI2 SLP102
CYYC;2002-11-16 14:00;METAR CYYC 161400Z 18004KT 15SM BKN160 OVC250 00/M05 A2967 RMK AC5CI2 SLP085
CYYC;2002-11-16 15:00;METAR CYYC 161500Z 22002KT 40SM FEW050 BKN160 BKN250 01/M05 A2965 RMK SC1AC5CI1 SLP079 SLP079
CYYC;2002-11-16 16:00;METAR CYYC 161600Z 19006KT 40SM FEW050 SCT160 BKN250 M01/M05 A2963 RMK CU1AC2CI1 SLP072
CYYC;2002-11-16 17:00;METAR CYYC 161700Z 21008KT 40SM FEW080 SCT150 BKN250 04/M04 A2961 RMK AC1AC2CI1 CC ASOCTD SLP065 CC ASOCTD SLP065
CYYC;2002-11-16 18:00;METAR CYYC 161800Z 19006KT 40SM FEW093 FEW140 SCT160 BKN250 05/M05 A2958 RMK AC1AC2AS1CI0 SLP046 AC1AC2AS1CI0 SLP046
CYYC;2002-11-16 19:00;METAR CYYC 161900Z 20009KT 40SM FEW080 BKN140 BKN160 OVC250 05/M03 A2954 RMK AC1AC5AS1CI1 SLP035 AC1AC5AS1CI1 SLP035
CYYC;2002-11-16 20:00;METAR CYYC 162000Z 17008KT 40SM FEW090 BKN140 BKN160 BKN250 06/M03 A2948 RMK AC1AC5AS1CI1 SLP017 AC1AC5AS1CI1 SLP017
CYYC;2002-11-16 21:00;METAR CYYC 162100Z 19006KT 30SM FEW095 SCT140 BKN160 BKN250 07/M03 A2945 RMK AC1AC3AS2CI1 SLP004 AC1AC3AS2CI1 SLP004
CYYC;2002-11-16 22:00;METAR CYYC 162200Z 21009KT 20SM FEW060 FEW080 FEW150 SCT260 08/M03 A2942 RMK CU1AC1AC2CI1 SLP997 CU1AC1AC2CI1 SLP997
CYYC;2002-11-16 23:00;METAR CYYC 162300Z 00000KT 15SM FEW035 FEW140 SCT260 09/M03 A2945 RMK CU1AC1CI1 CF ASOCTD SLP005 CF ASOCTD SLP005
CYYC;2002-11-17 00:00;METAR CYYC 170000Z 24011KT 15SM FEW035 FEW100 FEW260 07/M05 A2944 RMK CU1AC1CI0 SLP999
CYYC;2002-11-17 01:00;METAR CYYC 170100Z 25015G22KT 15SM FEW100 FEW260 08/M06 A2942 RMK AC1CI0 SLP993
CYYC;2002-11-17 02:00;METAR CYYC 170200Z 23019G24KT 15SM FEW260 07/M05 A2937 RMK CI1 SLP979
CYYC;2002-11-17 03:00;METAR CYYC 170300Z 23018G28KT 15SM FEW260 07/M04 A2934 RMK CI1 PRESFR SLP965
CYYC;2002-11-17 04:00;METAR CYYC 170400Z 10008KT 15SM SCT250 04/M04 A2934 RMK CI2 SLP966
CYYC;2002-11-17 05:00;METAR CYYC 170500Z 18005KT 15SM BKN270 03/M04 A2929 RMK CI3 SLP951
CYYC;2002-11-17 06:00;METAR CYYC 170600Z 20004KT 15SM BKN270 05/M04 A2930 RMK CI3 SLP948
CYYC;2002-11-17 07:00;METAR CYYC 170700Z 25023G30KT 15SM FEW270 08/M05 A2929 RMK CI1 SLP944
CYYC;2002-11-17 08:00;METAR CYYC 170800Z 11008KT 15SM FEW270 05/M05 A2933 RMK CI1 TR CI SLP957
CYYC;2002-11-17 09:00;METAR CYYC 170900Z 29012KT 15SM FEW270 06/M05 A2935 RMK CI1 TR CI SLP959
CYYC;2002-11-17 10:00;METAR CYYC 171000Z 33005KT 15SM FEW300 07/M07 A2939 RMK CI1 SLP973
CYYC;2002-11-17 11:00;METAR CYYC 171100Z 27021G27KT 15SM FEW050 BKN300 07/M07 A2942 RMK CU1CI1 SLP981
CYYC;2002-11-17 12:00;METAR CYYC 171200Z 32008KT 15SM BKN096 BKN300 04/M06 A2947 RMK AC3CI0 SLP006
CYYC;2002-11-17 13:00;METAR CYYC 171300Z 28017G28KT 15SM FEW085 BKN110 05/M03 A2952 RMK AC1AC4 SLP021
CYYC;2002-11-17 14:00;METAR CYYC 171400Z 27013G18KT 15SM FEW090 FEW110 03/M04 A2957 RMK AC1AC2 TR LWR LVL AC SLP034 LVL AC SLP034
CYYC;2002-11-17 16:00;METAR CYYC 171600Z 26012KT 40SM FEW040 FEW080 FEW160 02/M05 A2962 RMK CU1AC1AC2 SLP057 SLP057
CYYC;2002-11-17 17:00;METAR CYYC 171700Z 25007KT 40SM FEW040 FEW160 05/M06 A2965 RMK CU1AC1 SLP067
CYYC;2002-11-17 18:00;METAR CYYC 171800Z 27014KT 40SM FEW040 FEW160 07/M09 A2966 RMK CU1AC1 SLP070
CYYC;2002-11-17 19:00;METAR CYYC 171900Z 28022G28KT 40SM FEW040 FEW100 FEW160 FEW260 07/M09 A2967 RMK CU1AC1AC1CI1 SLP073 CU1AC1AC1CI1 SLP073
CYYC;2002-11-17 20:00;METAR CYYC 172000Z 27024G32KT 40SM FEW040 FEW160 FEW260 07/M09 A2966 RMK CU1AC1CI1 SLP071
CYYC;2002-11-17 21:00;METAR CYYC 172100Z 27025G34KT 40SM FEW040 FEW160 SCT260 07/M08 A2968 RMK CU1AC1CI0 SLP075
CYYC;2002-11-17 22:00;METAR CYYC 172200Z 27024G32KT 40SM FEW040 FEW160 FEW260 07/M09 A2970 RMK CU1AC1CI0 SLP081
CYYC;2002-11-17 23:00;METAR CYYC 172300Z 27024G31KT 40SM FEW040 FEW100 FEW160 FEW260 06/M09 A2971 RMK CU1AC1AC1CI0 SLP084 CU1AC1AC1CI0 SLP084
CYYC;2002-11-18 00:00;METAR CYYC 180000Z 26021G26KT 40SM FEW040 FEW100 FEW160 SCT260 05/M09 A2972 RMK CU1AC0AC1CI0 SLP096 CU1AC0AC1CI0 SLP096
CYYC;2002-11-18 01:00;METAR CYYC 180100Z 25018KT 15SM FEW040 FEW160 BKN260 05/M09 A2972 RMK CU1AC2CI1 SLP095 SLP095
CYYC;2002-11-18 02:00;METAR CYYC 180200Z 26013G18KT 15SM FEW120 BKN260 05/M09 A2973 RMK AC2CI1 SLP097
CYYC;2002-11-18 03:00;METAR CYYC 180300Z 26013G19KT 15SM FEW140 BKN260 05/M09 A2971 RMK AC2CI2 SLP094
CYYC;2002-11-18 04:00;METAR CYYC 180400Z 26010KT 15SM FEW160 BKN250 05/M08 A2971 RMK AC2CI2
CYYC;2002-11-18 05:00;METAR CYYC 180500Z 26012KT 15SM FEW160 BKN260 05/M08 A2972 RMK AC2CI2
CYYC;2002-11-18 07:00;METAR CYYC 180700Z 25021G27KT 15SM SCT100 OVC250 07/M08 A2971 RMK AC3CI4 SLP084
CYYC;2002-11-18 08:00;METAR CYYC 180800Z 26014G20KT 15SM SCT140 OVC250 06/M07 A2972 RMK AC4CI3 SLP089
CYYC;2002-11-18 09:00;METAR CYYC 180900Z 26020G26KT 15SM SCT140 OVC250 07/M07 A2972 RMK AC3CI3 SLP090
CYYC;2002-11-18 10:00;METAR CYYC 181000Z 26018G25KT 15SM SCT140 OVC250 07/M07 A2974 RMK AC3CI2
CYYC;2002-11-18 11:00;METAR CYYC 181100Z 26017KT 15SM FEW140 OVC250 07/M07 A2973 RMK AC2CI3 SLP092
CYYC;2002-11-18 12:00;METAR CYYC 181200Z 27013KT 15SM SCT140 OVC250 07/M07 A2977 RMK AC3CI4 SLP109
CYYC;2002-11-18 13:00;METAR CYYC 181300Z 24007KT 15SM SCT140 OVC250 07/M07 A2978 RMK AC3CI4 SLP111
CYYC;2002-11-18 14:00;METAR CYYC 181400Z 25007KT 15SM SCT140 OVC250 06/M07 A2978 RMK AC3CI4 SLP112
CYYC;2002-11-18 15:00;METAR CYYC 181500Z 20007KT 40SM FEW035 BKN160 BKN250 05/M06 A2978 RMK CU1AC6CI2 SLP115 SLP115
CYYC;2002-11-18 16:00;METAR CYYC 181600Z 22009KT 40SM FEW035 BKN150 BKN250 06/M06 A2979 RMK CU1AC6CI1 SLP117 SLP117
CYYC;2002-11-18 17:00;METAR CYYC 181700Z 22004KT 40SM FEW035 FEW120 BKN150 BKN250 06/M06 A2980 RMK CU1AC1AC6CI1 SLP120 CU1AC1AC6CI1 SLP120
CYYC;2002-11-18 18:00;METAR CYYC 181800Z 22003KT 40SM FEW035 FEW120 BKN150 BKN250 06/M06 A2981 RMK CU1AC1AC6CI1 VIRGA S SLP121 CU1AC1AC6CI1 VIRGA S SLP121
CYYC;2002-11-18 19:00;METAR CYYC 181900Z 27010G15KT 40SM FEW035 BKN150 BKN250 08/M06 A2981 RMK CU1AC6CI1 SLP120
CYYC;2002-11-18 20:00;METAR CYYC 182000Z 24004KT 40SM FEW035 BKN150 BKN250 08/M06 A2980 RMK CU1AC6CI1 VIRGA S SLP119 VIRGA S SLP119
CYYC;2002-11-18 21:00;METAR CYYC 182100Z 26006KT 40SM FEW035 FEW095 BKN130 BKN250 08/M05 A2979 RMK CU1AC1AC6CI1 VIRGA S ACSL SLP111 CU1AC1AC6CI1 VIRGA S ACSL SLP111
CYYC;2002-11-18 22:00;METAR CYYC 182200Z 27006KT 40SM FEW035 FEW095 FEW150 SCT250 08/M06 A2979 RMK CU1AC2AC1CI0 SLP111 CU1AC2AC1CI0 SLP111
CYYC;2002-11-18 23:00;METAR CYYC 182300Z 23009KT 30SM FEW035 FEW120 FEW250 08/M06 A2979 RMK CU1AC2CI1 SLP110 SLP110
CYYC;2002-11-19 00:00;METAR CYYC 190000Z 25006KT 40SM FEW035 FEW120 FEW250 04/M05 A2977 RMK CU1AC2CI0 SLP110 SLP110
CYYC;2002-11-19 01:00;METAR CYYC 190100Z 15004KT 15SM FEW035 BKN130 BKN250 06/M05 A2978 RMK CU1AC6CI0 SLP113 SLP113
CYYC;2002-11-19 02:00;METAR CYYC 190200Z 21008KT 15SM BKN130 BKN250 04/M05 A2977 RMK AC6CI1 SLP111
CYYC;2002-11-19 03:00;METAR CYYC 190300Z 24003KT 15SM BKN140 BKN250 07/M05 A2977 RMK AC5CI2 SLP109
CYYC;2002-11-19 04:00;METAR CYYC 190400Z 25010G17KT 15SM BKN140 BKN250 08/M05 A2978 RMK AC5CI2 SLP112
CYYC;2002-11-19 05:00;METAR CYYC 190500Z 27018G25KT 15SM BKN160 OVC250 09/M05 A2978 RMK AC5CI2
CYYC;2002-11-19 06:00;METAR CYYC 190600Z 26011KT 15SM BKN160 OVC250 09/M05 A2979 RMK AC6CI2
CYYC;2002-11-19 08:00;METAR CYYC 190800Z 00000KT 15SM OVC140 08/M05 A2980 RMK AC7 SLP114
CYYC;2002-11-19 09:00;METAR CYYC 190900Z 36009KT 15SM BKN140 06/M04 A2981 RMK AC4 SLP120
CYYC;2002-11-19 10:00;METAR CYYC 191000Z 29010KT 15SM FEW140 BKN250 07/M04 A2984 RMK AC2CI1 SLP128
CYYC;2002-11-19 11:00;METAR CYYC 191100Z 27016G21KT 15SM BKN140 BKN250 08/M04 A2983 RMK AC6CI1 SLP126
CYYC;2002-11-19 12:00;METAR CYYC 191200Z 28020G28KT 15SM BKN140 OVC250 09/M04 A2984 RMK AC5CI2 SLP130
CYYC;2002-11-19 13:00;METAR CYYC 191300Z 26022G30KT 15SM BKN140 OVC250 09/M04 A2987 RMK AC6CI2 SLP141
CYYC;2002-11-19 14:00;METAR CYYC 191400Z 27023G35KT 15SM SCT087 BKN100 OVC250 09/M03 A2989 RMK AC4AC2CI2 SLP146
CYYC;2002-11-19 15:00;METAR CYYC 191500Z 26020G26KT 40SM FEW060 BKN083 BKN110 10/M03 A2991 RMK CU1AC5AC2 TR CU SLP150
CYYC;2002-11-19 16:00;METAR CYYC 191600Z 26015G31KT 40SM FEW061 SCT092 BKN120 BKN250 09/M03 A2995 RMK SC1AC2AC4CI1 VIRGA NE-SE TR CI SLP164 SC1AC2AC4CI1 VIRGA NE-SE TR CI SLP164
CYYC;2002-11-19 17:00;METAR CYYC 191700Z 25004KT 40SM FEW064 FEW094 BKN120 BKN250 09/M02 A2997 RMK SC1AC2AC3CI1 TR SC TR CI SLP170 SC1AC2AC3CI1 TR SC TR CI SLP170
CYYC;2002-11-19 18:00;METAR CYYC 191800Z 20006KT 40SM FEW065 FEW120 BKN150 BKN270 11/M03 A2999 RMK SC1AC2AC2CI1 TR SC TR CI SLP173 SC1AC2AC2CI1 TR SC TR CI SLP173
CYYC;2002-11-19 19:00;METAR CYYC 191900Z 24007KT 40SM FEW065 SCT140 BKN270 12/M02 A2998 RMK SC1AC2CI1 TR SC ACC ASOCTD E CC ASOCTD SLP171 TR SC ACC ASOCTD E CC ASOCTD SLP171
CYYC;2002-11-19 20:00;METAR CYYC 192000Z 27024G32KT 40SM FEW065 FEW140 SCT270 14/M01 A2997 RMK CU1AC1CI1 TR CU ACC ASOCTD E CC ASOCTD SLP168
CYYC;2002-11-19 21:00;METAR CYYC 192100Z 27020G29KT 40SM FEW070 FEW140 BKN280 13/M01 A2999 RMK CU1AC1CC2 TR CU SLP173
CYYC;2002-11-19 22:00;METAR CYYC 192200Z 27026G31KT 40SM FEW070 FEW140 BKN280 12/M01 A2999 RMK CU1AC1CC2 TR CU SLP175
CYYC;2002-11-19 23:00;METAR CYYC 192300Z 28016G21KT 40SM FEW070 FEW140 BKN280 11/M01 A3002 RMK CU1AC1CC3 TR CU SLP183
CYYC;2002-11-20 00:00;METAR CYYC 200000Z 27016G21KT 40SM FEW060 FEW130 BKN270 11/M01 A3003 RMK CU1AC2CC1 TR CU SLP186
CYYC;2002-11-20 01:00;METAR CYYC 200100Z 26008KT 15SM FEW130 BKN270 09/M01 A3003 RMK AC2CI2 SLP187
CYYC;2002-11-20 02:00;METAR CYYC 200200Z 27008KT 15SM FEW130 SCT270 10/M00 A3003 RMK AC1CI2 TR AC SLP186
CYYC;2002-11-20 03:00;METAR CYYC 200300Z 26016KT 15SM FEW080 FEW130 FEW270 11/00 A3003 RMK AC1AC1CI0 SLP188 SLP188
CYYC;2002-11-20 04:00;METAR CYYC 200400Z 27016G21KT 15SM FEW080 FEW130 FEW270 11/00 A3004 RMK AC1AC1CI0 SLP190 SLP190
CYYC;2002-11-20 05:00;METAR CYYC 200500Z 26020G25KT 15SM FEW120 BKN270 11/00 A3007 RMK AC2CS1 SLP199
CYYC;2002-11-20 06:00;METAR CYYC 200600Z 27014KT 15SM SCT130 BKN270 11/00 A3007 RMK AC2CI2 SLP198
CYYC;2002-11-20 07:00;METAR CYYC 200700Z 26012KT 15SM SCT130 BKN250 11/00 A3006 RMK AC3CI1 SLP197
CYYC;2002-11-20 08:00;METAR CYYC 200800Z 27019KT 15SM BKN130 BKN250 12/01 A3007 RMK AC3CI1 SLP200
CYYC;2002-11-20 09:00;METAR CYYC 200900Z 26014KT 15SM BKN130 BKN250 12/01 A3007 RMK AC5CI1 SLP196
CYYC;2002-11-20 10:00;METAR CYYC 201000Z 27008KT 15SM BKN130 BKN250 11/01 A3008 RMK AC5CI1
CYYC;2002-11-20 11:00;METAR CYYC 201100Z 27016KT 15SM FEW100 BKN130 12/01 A3009 RMK AC1AC6
CYYC;2002-11-20 12:00;METAR CYYC 201200Z 27019KT 15SM FEW080 SCT130 SCT250 12/01 A3009 RMK AC1AC2CI1 SLP203 SLP203
CYYC;2002-11-20 13:00;METAR CYYC 201300Z 27020G26KT 15SM FEW100 BKN110 12/01 A3011 RMK AC1AC5 SLP209
CYYC;2002-11-20 14:00;METAR CYYC 201400Z 26019G26KT 15SM BKN120 13/01 A3012 RMK AC6 SLP213
CYYC;2002-11-20 15:00;METAR CYYC 201500Z 27017G27KT 40SM FEW130 11/01 A3012 RMK AC2 SLP217
CYYC;2002-11-20 16:00;METAR CYYC 201600Z 27021G27KT 40SM FEW130 FEW260 12/02 A3015 RMK AC1CI1 TR CI SLP224 SLP224
CYYC;2002-11-20 17:00;METAR CYYC 201700Z 27021G26KT 40SM FEW060 FEW130 FEW260 14/02 A3016 RMK CU1AC1CI1 ALL CLDS TR SLP229 ALL CLDS TR SLP229
CYYC;2002-11-20 18:00;METAR CYYC 201800Z 27016KT 40SM FEW066 FEW140 FEW280 15/02 A3019 RMK CU1AC1CI1 ALL CLDS TR SLP233 ALL CLDS TR SLP233
CYYC;2002-11-20 19:00;METAR CYYC 201900Z 27016G24KT 40SM FEW070 FEW140 FEW280 16/01 A3018 RMK CU1AC1CI0 TR CU CC ASOCTD SLP230 TR CU CC ASOCTD SLP230
CYYC;2002-11-20 20:00;METAR CYYC 202000Z 27012G19KT 40SM FEW074 FEW150 FEW300 17/01 A3018 RMK CU1AC1CI0 TR CU TR AC CC ASOCTD SLP232 TR CU TR AC CC ASOCTD SLP232
CYYC;2002-11-20 21:00;METAR CYYC 202100Z 27018KT 40SM FEW070 FEW150 FEW300 17/01 A3018 RMK CU1AC1CI1 ALL CLDS TR SLP228 ALL CLDS TR SLP228
CYYC;2002-11-20 22:00;METAR CYYC 202200Z 27010G17KT 40SM FEW070 FEW280 16/00 A3019 RMK CU1CI0 TR CU CC ASOCTD SLP230 ASOCTD SLP230
CYYC;2002-11-20 23:00;METAR CYYC 202300Z 28012KT 40SM FEW070 FEW280 15/00 A3021 RMK CU1CI0 TR CU SLP235
CYYC;2002-11-21 00:00;METAR CYYC 210000Z 28011G16KT 40SM FEW070 FEW130 FEW270 13/M00 A3021 RMK CU1AC1CI1 ALL CLDS TR SLP242
CYYC;2002-11-21 01:00;METAR CYYC 210100Z 27013G20KT 15SM FEW070 FEW130 12/M00 A3020 RMK CU1AC1 TR CU SLP238 SLP238
CYYC;2002-11-21 02:00;METAR CYYC 210200Z 27007KT 15SM FEW130 11/M01 A3020 RMK AC1 TR AC SLP240
CYYC;2002-11-21 03:00;METAR CYYC 210300Z 00000KT 15SM FEW270 11/M01 A3021 RMK CI1 SLP247
CYYC;2002-11-21 04:00;METAR CYYC 210400Z 27011G18KT 15SM FEW270 12/M01 A3021 RMK CI1 CI TR SLP247
CYYC;2002-11-21 05:00;METAR CYYC 210500Z 15007KT 15SM FEW270 07/M01 A3020 RMK CI1 CI TR SLP244
CYYC;2002-11-21 06:00;METAR CYYC 210600Z 20006KT 15SM FEW140 FEW250 08/M01 A3020 RMK AC1CI1 SLP242
CYYC;2002-11-21 07:00;METAR CYYC 210700Z 20005KT 15SM FEW140 FEW250 05/M01 A3018 RMK AC1CI0 SLP237
CYYC;2002-11-21 08:00;METAR CYYC 210800Z 21010KT 15SM FEW250 07/M01 A3017 RMK CI0 SLP233
CYYC;2002-11-21 09:00;METAR CYYC 210900Z 17004KT 15SM FEW240 06/M01 A3016 RMK CI1 SLP228
CYYC;2002-11-21 10:00;METAR CYYC 211000Z 20004KT 15SM FEW140 FEW240 04/M02 A3014 RMK AC2CI0 SLP223
CYYC;2002-11-21 11:00;METAR CYYC 211100Z 21009KT 15SM FEW160 SCT250 05/M01 A3011 RMK AC2CI1 SLP213
CYYC;2002-11-21 12:00;METAR CYYC 211200Z 26007KT 15SM FEW160 SCT250 07/M02 A3009 RMK AC2CI1 SLP209
CYYC;2002-11-21 13:00;METAR CYYC 211300Z 35004KT 15SM SCT140 BKN250 08/M02 A3007 RMK AC3CI1 SLP202
CYYC;2002-11-21 15:00;METAR CYYC 211500Z 29007KT 40SM FEW046 BKN140 BKN250 09/M03 A3004 RMK CU1AC5CI1 TR CU SLP192 TR CU SLP192
CYYC;2002-11-21 16:00;METAR CYYC 211600Z 28004KT 40SM FEW040 FEW100 BKN140 BKN250 09/M02 A3003 RMK CU1AC1AC6CI0 TR CU TR LWR LVL AC SLP188 CU1AC1AC6CI0 TR CU TR LWR LVL AC SLP188
CYYC;2002-11-21 17:00;METAR CYYC 211700Z 28007KT 40SM FEW044 FEW110 BKN150 BKN250 10/M01 A3002 RMK CU1AC1AC6CI0 TR CU TR LWR LVL AC SLP185 CU1AC1AC6CI0 TR CU TR LWR LVL AC SLP185
CYYC;2002-11-21 18:00;METAR CYYC 211800Z 25008KT 40SM FEW050 FEW110 BKN150 BKN250 12/01 A3000 RMK CU1AC1AC6CI0 TR CU TR LWR LVL AC SLP177
CYYC;2002-11-21 19:00;METAR CYYC 211900Z 22007KT 40SM FEW045 BKN150 BKN250 09/01 A2998 RMK CU1AC6CI0 TR CU SLP171 CU SLP171
CYYC;2002-11-21 20:00;METAR CYYC 212000Z 23006KT 40SM FEW044 BKN150 BKN250 09/02 A2996 RMK CU1AC6CI1 TR CU TR CI SLP165 CU TR CI SLP165
CYYC;2002-11-21 21:00;METAR CYYC 212100Z 22006KT 40SM FEW040 BKN140 BKN250 08/02 A2993 RMK CU1AC6CI1 TR CU TR CI SLP161 CU TR CI SLP161
CYYC;2002-11-21 22:00;METAR CYYC 212200Z 19007KT 40SM FEW040 BKN140 BKN250 09/01 A2990 RMK CU1AC6CI1 TR CU SLP151 CU SLP151
CYYC;2002-11-21 23:00;METAR CYYC 212300Z 24010KT 40SM FEW064 BKN150 BKN250 13/03 A2988 RMK CU1AC6CI0 TR CU CC ASOCTD SLP147 CU CC ASOCTD SLP147
CYYC;2002-11-22 00:00;METAR CYYC 220000Z 27012KT 40SM FEW045 BKN150 BKN250 14/03 A2987 RMK CU1AC4CI1 SLP130 SLP130
CYYC;2002-11-22 01:00;METAR CYYC 220100Z 31016G24KT 15SM FEW050 BKN150 14/03 A2987 RMK CU1AC6
CYYC;2002-11-22 02:00;METAR CYYC 220200Z 28015KT 15SM FEW050 BKN150 14/03 A2984 RMK CU1AC6 TR CU SLP121
CYYC;2002-11-22 03:00;METAR CYYC 220300Z 26007KT 15SM FEW050 BKN160 13/03 A2982 RMK SC1AC6 SLP111
CYYC;2002-11-22 04:00;METAR CYYC 220400Z 25006KT 15SM BKN160 14/03 A2980 RMK AC7 SLP107
CYYC;2002-11-22 05:00;METAR CYYC 220500Z 26012KT 15SM BKN160 13/02 A2979 RMK AC6 SLP103
CYYC;2002-11-22 06:00;METAR CYYC 220600Z 26011KT 15SM BKN160 11/02 A2978 RMK AC6 SLP098
CYYC;2002-11-22 08:00;METAR CYYC 220800Z 30011KT 15SM BKN140 OVC250 12/00 A2982 RMK AC6CI2 SLP108
CYYC;2002-11-22 09:00;METAR CYYC 220900Z 35014G19KT 15SM BKN093 OVC250 09/01 A2986 RMK AC6CI2 SLP132
CYYC;2002-11-22 10:00;METAR CYYC 221000Z 36007KT 15SM FEW072 BKN080 OVC250 06/01 A2993 RMK AC2AC2CI2 SLP154 SLP154
CYYC;2002-11-22 11:00;METAR CYYC 221100Z 01015G20KT 15SM FEW079 BKN091 OVC110 07/M00 A2995 RMK AC2AC3AC2 SLP161
CYYC;2002-11-22 13:00;METAR CYYC 221300Z 35007KT 15SM FEW048 BKN065 BKN090 03/01 A3004 RMK SC2SC3AC2 SLP189 SLP189
CYYC;2002-11-22 14:00;METAR CYYC 221400Z 34006KT 15SM BKN046 OVC060 04/01 A3007 RMK SC6SC1 SLP200
CYYC;2002-11-22 15:00;METAR CYYC 221500Z 36008KT 20SM FEW022 BKN033 BKN041 04/M00 A3011 RMK CF1SC5SC2 TR CF SLP220 TR CF SLP220
CYYC;2002-11-22 16:00;METAR CYYC 221600Z 35008KT 30SM FEW042 BKN051 04/M01 A3015 RMK SF1SC6 TR SF SLP232
CYYC;2002-11-22 17:00;METAR CYYC 221700Z 34014G19KT 30SM BKN052 BKN089 04/M04 A3018 RMK SC6AC1 TR AC SLP241 SLP241
CYYC;2002-11-22 18:00;METAR CYYC 221800Z 34016KT 30SM BKN052 BKN073 04/M05 A3020 RMK SC6AC1 TR AC SLP254
CYYC;2002-11-22 19:00;METAR CYYC 221900Z 34017G22KT 30SM FEW054 FEW072 FEW270 06/M05 A3020 RMK SC2AC1CC0 TR AC SLP254
CYYC;2002-11-22 20:00;METAR CYYC 222000Z 35016KT 30SM FEW054 FEW270 06/M06 A3021 RMK CU1CI0 CC ASOCTD SLP257 SLP257
CYYC;2002-11-22 21:00;METAR CYYC 222100Z 35013KT 40SM FEW054 FEW130 SCT300 06/M07 A3022 RMK CU1AC1CC1 TR CU TR AC SLP260 TR CU TR AC SLP260
CYYC;2002-11-22 22:00;METAR CYYC 222200Z 01009KT 40SM FEW054 FEW130 SCT300 05/M06 A3022 RMK
CYYC;2002-11-22 23:00;METAR CYYC 222300Z 36007KT 40SM FEW050 FEW130 BKN300 04/M08 A3025 RMK CU1AC1CI2 TR CU TR AC CC ASOCTD SLP268 TR CU TR AC CC ASOCTD SLP268
CYYC;2002-11-23 00:00;METAR CYYC 230000Z 03002KT 40SM FEW050 FEW130 SCT300 02/M08 A3026 RMK CU1AC1CI1 TR CU TR AC SLP286 TR CU TR AC SLP286
CYYC;2002-11-23 01:00;METAR CYYC 230100Z 33006KT 15SM FEW045 FEW120 FEW280 01/M08 A3027 RMK CU1AC1CI1 TR CU TR AC SLP290 TR CU TR AC SLP290
CYYC;2002-11-23 02:00;METAR CYYC 230200Z 33008KT 15SM FEW120 FEW280 M02/M08 A3028 RMK AC1CI0 TR AC SLP292 SLP292
CYYC;2002-11-23 03:00;METAR CYYC 230300Z 33007KT 15SM FEW140 FEW300 M04/M08 A3028 RMK AC1CI0 AC TR SLP302 SLP302
CYYC;2002-11-23 04:00;METAR CYYC 230400Z 34008KT 15SM FEW300 M03/M08 A3028 RMK CI1 SLP303
CYYC;2002-11-23 05:00;METAR CYYC 230500Z 33004KT 15SM FEW300 M04/M09 A3029 RMK CI1 CI TR SLP305
CYYC;2002-11-23 06:00;METAR CYYC 230600Z 33006KT 15SM FEW100 M05/M09 A3029 RMK AC1 SLP308
CYYC;2002-11-23 07:00;METAR CYYC 230700Z 34005KT 15SM FEW120 M05/M09 A3029 RMK AC1 SLP309
CYYC;2002-11-23 08:00;METAR CYYC 230800Z 33006KT 15SM FEW050 SCT089 M05/M09 A3030 RMK SC2AC2 SLP311
CYYC;2002-11-23 09:00;METAR CYYC 230900Z 35005KT 15SM FEW053 FEW120 M05/M09 A3030 RMK SC2AC1 SLP310
CYYC;2002-11-23 10:00;METAR CYYC 231000Z 34004KT 15SM FEW055 FEW090 M05/M09 A3031 RMK SC1AC1 SLP314
CYYC;2002-11-23 11:00;METAR CYYC 231100Z 32005KT 15SM FEW055 FEW090 M06/M09 A3031 RMK SC1AC1 SLP312
CYYC;2002-11-23 12:00;METAR CYYC 231200Z 32005KT 15SM FEW140 BKN270 M07/M10 A3032 RMK AC1CI1 SLP323
CYYC;2002-11-23 13:00;METAR CYYC 231300Z 35005KT 15SM FEW140 BKN270 M08/M10 A3033 RMK AC1CI2 SLP328
CYYC;2002-11-23 14:00;METAR CYYC 231400Z 30002KT 15SM FEW140 BKN270 M08/M10 A3034 RMK AC1CI2 SLP331
CYYC;2002-11-23 15:00;METAR CYYC 231500Z 30005KT 20SM FEW140 BKN270 M08/M10 A3034 RMK AC1CI2 SLP342
CYYC;2002-11-23 16:00;METAR CYYC 231600Z 32005KT 40SM FEW045 FEW140 BKN270 M07/M09 A3034 RMK CF1AC1CI2 TR CF CC ASOCTD SLP341 TR CF CC ASOCTD SLP341
CYYC;2002-11-23 17:00;METAR CYYC 231700Z 36002KT 40SM FEW070 FEW140 BKN270 M04/M07 A3036 RMK CU1AC1CI4 TR CU TR AC CC ASOCTD SLP346 TR CU TR AC CC ASOCTD SLP346
CYYC;2002-11-23 18:00;METAR CYYC 231800Z 36004KT 40SM FEW070 FEW140 BKN270 M03/M06 A3037 RMK CU1AC1CI5 TR CU TR AC CC ASOCTD SLP347 TR CU TR AC CC ASOCTD SLP347
CYYC;2002-11-23 19:00;METAR CYYC 231900Z 33004KT 40SM FEW070 FEW140 BKN270 M03/M06 A3036 RMK CU1AC1CI3 TR CU TR AC CC ASOCTD SLP343 TR CU TR AC CC ASOCTD SLP343
CYYC;2002-11-23 20:00;METAR CYYC 232000Z 34003KT 40SM FEW070 FEW140 BKN270 M02/M07 A3035 RMK CU1AC1CI3 TR CU TR AC CC ASOCTD SLP342 TR CU TR AC CC ASOCTD SLP342
CYYC;2002-11-23 21:00;METAR CYYC 232100Z 03004KT 40SM FEW070 FEW140 BKN270 M02/M07 A3034 RMK CU1AC1CI2 TR CU TR AC CC ASOCTD SLP334 TR CU TR AC CC ASOCTD SLP334
CYYC;2002-11-23 22:00;METAR CYYC 232200Z 05003KT 40SM FEW070 BKN270 M02/M09 A3034 RMK CU1CI3 TR CU CC ASOCTD SLP333 ASOCTD SLP333
CYYC;2002-11-23 23:00;METAR CYYC 232300Z 07004KT 40SM FEW070 BKN270 M03/M08 A3034 RMK CU1CI2 TR CU CC ASOCTD SLP335 ASOCTD SLP335
CYYC;2002-11-24 00:00;METAR CYYC 240000Z 10005KT 40SM FEW070 SCT270 M05/M09 A3035 RMK CU1CI1 TR CU SLP345 SLP345
CYYC;2002-11-24 01:00;METAR CYYC 240100Z 11005KT 15SM FEW270 M06/M09 A3035 RMK CI0 SLP346
CYYC;2002-11-24 02:00;METAR CYYC 240200Z 16004KT 15SM FEW270 M05/M09 A3035 RMK CI0 SLP344
CYYC;2002-11-24 03:00;METAR CYYC 240300Z 18005KT 15SM FEW300 M07/M09 A3033 RMK CI0 SLP343
CYYC;2002-11-24 04:00;METAR CYYC 240400Z 18005KT 15SM SKC M07/M09 A3033 RMK SLP341
CYYC;2002-11-24 05:00;METAR CYYC 240500Z 15004KT 15SM FEW300 M07/M10 A3033 RMK CI0 SLP342
CYYC;2002-11-24 06:00;METAR CYYC 240600Z 17004KT 15SM FEW300 M08/M10 A3033 RMK CI0 SLP338
CYYC;2002-11-24 07:00;METAR CYYC 240700Z 18005KT 15SM SKC M09/M11 A3032 RMK SLP336
CYYC;2002-11-24 08:00;METAR CYYC 240800Z 19005KT 15SM SKC M08/M10 A3032 RMK SLP335
CYYC;2002-11-24 09:00;METAR CYYC 240900Z 20006KT 15SM SKC M10/M11 A3030 RMK SLP326
CYYC;2002-11-24 10:00;METAR CYYC 241000Z 21005KT 15SM SKC M10/M11 A3029 RMK SLP324
CYYC;2002-11-24 11:00;METAR CYYC 241100Z 20007KT 15SM SKC M10/M11 A3027 RMK SLP318
CYYC;2002-11-24 12:00;METAR CYYC 241200Z 20005KT 15SM SKC M11/M12 A3027 RMK SLP323
CYYC;2002-11-24 13:00;METAR CYYC 241300Z 21004KT 15SM SKC M12/M13 A3026 RMK SLP321
CYYC;2002-11-24 14:00;METAR CYYC 241400Z 21005KT 15SM SKC M12/M13 A3025 RMK SLP316
CYYC;2002-11-24 15:00;METAR CYYC 241500Z 21005KT 40SM FEW250 M12/M14 A3025 RMK CI1 SLP318
CYYC;2002-11-24 16:00;METAR CYYC 241600Z 00000KT 40SM FEW250 M11/M14 A3025 RMK CI0 SLP318
CYYC;2002-11-24 17:00;METAR CYYC 241700Z 21006KT 40SM FEW250 M07/M10 A3024 RMK CI0 SLP315
CYYC;2002-11-24 18:00;METAR CYYC 241800Z 21005KT 40SM FEW090 SCT250 M04/M09 A3023 RMK AC1CI0 SLP302
CYYC;2002-11-24 19:00;METAR CYYC 241900Z 22010KT 40SM FEW100 SCT250 M02/M09 A3020 RMK AC1CI0 SLP295
CYYC;2002-11-24 20:00;METAR CYYC 242000Z 22009KT 40SM FEW100 FEW250 01/M10 A3018 RMK AC1CI1 SLP288
CYYC;2002-11-24 21:00;METAR CYYC 242100Z 23009KT 40SM FEW100 SCT250 03/M10 A3015 RMK AC1CI1 SLP267
CYYC;2002-11-24 22:00;METAR CYYC 242200Z 24008KT 40SM FEW090 BKN250 03/M09 A3012 RMK AC2CI2 SLP258
CYYC;2002-11-24 23:00;METAR CYYC 242300Z 22007KT 40SM FEW100 BKN250 04/M10 A3010 RMK AC2CI2 SLP254
CYYC;2002-11-25 00:00;METAR CYYC 250000Z 27005KT 40SM FEW100 BKN250 03/M13 A3009 RMK AC2CI1 SLP250
CYYC;2002-11-25 01:00;METAR CYYC 250100Z 29008KT 40SM FEW100 BKN250 04/M15 A3008 RMK AC2CI2 SLP246
CYYC;2002-11-25 02:00;METAR CYYC 250200Z 28013KT 15SM SCT140 BKN250 05/M15 A3007 RMK AC3CI2 SLP243
CYYC;2002-11-25 03:00;METAR CYYC 250300Z 30013KT 15SM SCT160 OVC250 05/M15 A3008 RMK AC3CI3 SLP244
CYYC;2002-11-25 04:00;METAR CYYC 250400Z 31016G25KT 15SM SCT160 OVC250 06/M16 A3008 RMK AC3CI4
CYYC;2002-11-25 05:00;METAR CYYC 250500Z 31017KT 15SM SCT140 OVC250 05/M16 A3009 RMK AC3CI4 SLP248
CYYC;2002-11-25 06:00;METAR CYYC 250600Z 33008KT 15SM FEW140 OVC250 03/M15 A3011 RMK AC2CI5
CYYC;2002-11-25 07:00;METAR CYYC 250700Z 28006KT 15SM FEW140 BKN250 02/M16 A3014 RMK AC2CI3 SLP256
CYYC;2002-11-25 08:00;METAR CYYC 250800Z 31009KT 15SM FEW250 01/M15 A3015 RMK CI1 SLP259
CYYC;2002-11-25 09:00;METAR CYYC 250900Z 34010KT 15SM FEW250 M01/M14 A3017 RMK CI0 SLP264
CYYC;2002-11-25 10:00;METAR CYYC 251000Z 33012G17KT 15SM SKC 01/M15 A3019 RMK SLP270
CYYC;2002-11-25 11:00;METAR CYYC 251100Z 32010KT 15SM FEW250 M01/M14 A3021 RMK CI0 SLP275
CYYC;2002-11-25 12:00;METAR CYYC 251200Z 33011KT 15SM SKC M01/M14 A3025 RMK SLP289
CYYC;2002-11-25 13:00;METAR CYYC 251300Z 34010KT 15SM SKC M02/M14 A3029 RMK SLP303
CYYC;2002-11-25 14:00;METAR CYYC 251400Z 34010KT 15SM FEW250 M03/M14 A3031 RMK CI1 SLP309
CYYC;2002-11-25 15:00;METAR CYYC 251500Z 35009KT 40SM FEW250 M05/M14 A3037 RMK CI1 SLP335
CYYC;2002-11-25 16:00;METAR CYYC 251600Z 36005KT 40SM FEW250 M03/M13 A3039 RMK CI1 SLP339
CYYC;2002-11-25 17:00;METAR CYYC 251700Z 29003KT 40SM FEW250 M01/M13 A3040 RMK CI1 SLP342
CYYC;2002-11-25 18:00;METAR CYYC 251800Z 29003KT 40SM FEW150 SCT250 02/M14 A3037 RMK AC1CI0 SLP329
CYYC;2002-11-25 19:00;METAR CYYC 251900Z 19003KT 40SM FEW095 FEW150 BKN250 03/M14 A3034 RMK AC1AC1CI1 CC ASOCTD SLP318 CC ASOCTD SLP318
CYYC;2002-11-25 20:00;METAR CYYC 252000Z 20004KT 40SM FEW100 FEW150 BKN250 04/M14 A3032 RMK AC1AC1CI0 SLP312 SLP312
CYYC;2002-11-25 21:00;METAR CYYC 252100Z 18005KT 40SM FEW150 BKN250 04/M14 A3029 RMK AC2CI1 SLP303
CYYC;2002-11-25 22:00;METAR CYYC 252200Z 19005KT 40SM FEW150 BKN170 BKN270 03/M13 A3029 RMK AC2AS3CI1 SLP304 SLP304
CYYC;2002-11-25 23:00;METAR CYYC 252300Z 17005KT 40SM FEW150 BKN170 BKN270 02/M12 A3029 RMK AC1AS6CI1 SLP304
CYYC;2002-11-26 00:00;METAR CYYC 260000Z 19004KT 40SM FEW100 BKN150 BKN270 01/M12 A3030 RMK AC1AS5CI1 SLP312 SLP312
CYYC;2002-11-26 01:00;METAR CYYC 260100Z 24003KT 15SM BKN130 OVC250 01/M12 A3033 RMK AC5CI2 SLP319
CYYC;2002-11-26 02:00;METAR CYYC 260200Z 20006KT 15SM BKN130 OVC250 00/M10 A3033 RMK AC6CI2 SLP321
CYYC;2002-11-26 03:00;METAR CYYC 260300Z 23005KT 15SM BKN140 OVC250 01/M11 A3033 RMK AC5CI3 SLP325
CYYC;2002-11-26 04:00;METAR CYYC 260400Z 00000KT 15SM BKN140 OVC250 01/M11 A3032 RMK AC5CI3 SLP323
CYYC;2002-11-26 05:00;METAR CYYC 260500Z 00000KT 15SM SCT110 OVC250 M01/M10 A3032 RMK AC4CI3 SLP322
CYYC;2002-11-26 06:00;METAR CYYC 260600Z 00000KT 15SM BKN100 OVC250 M00/M11 A3032 RMK AC6CI2 SLP314
CYYC;2002-11-26 07:00;METAR CYYC 260700Z 22004KT 15SM BKN092 BKN120 OVC250 M00/M10 A3032 RMK AC5AC2CI1 SLP315 SLP315
CYYC;2002-11-26 08:00;METAR CYYC 260800Z 35002KT 15SM SCT098 OVC250 00/M11 A3032 RMK AC2CI2
CYYC;2002-11-26 09:00;METAR CYYC 260900Z 21003KT 15SM BKN086 BKN120 OVC250 M01/M10 A3033 RMK
CYYC;2002-11-26 10:00;METAR CYYC 261000Z 21003KT 15SM OVC082 M01/M09 A3032 RMK AC7 SLP314
CYYC;2002-11-26 11:00;METAR CYYC 261100Z 00000KT 15SM BKN082 BKN250 M01/M09 A3032 RMK AC5CI1
CYYC;2002-11-26 12:00;METAR CYYC 261200Z 19002KT 15SM FEW100 FEW250 M01/M10 A3032 RMK AC2CI0 SLP317
CYYC;2002-11-26 14:00;METAR CYYC 261400Z 20002KT 15SM SCT140 OVC250 M02/M10 A3031 RMK AC2CI2 CS ASOCTD/ HALO SLP314 HALO SLP314
CYYC;2002-11-26 15:00;METAR CYYC 261500Z 36003KT 30SM FEW140 OVC250 M05/M10 A3030 RMK AC2CI2
CYYC;2002-11-26 16:00;METAR CYYC 261600Z 18002KT 40SM FEW140 FEW180 OVC250 M02/M09 A3029 RMK AC1AC2CI1 SLP313 SLP313
CYYC;2002-11-26 17:00;METAR CYYC 261700Z 20006KT 40SM BKN052 BKN180 00/M08 A3027 RMK SC5AC0 SLP308
CYYC;2002-11-26 18:00;METAR CYYC 261800Z 00000KT 40SM BKN045 04/M10 A3026 RMK SC6 SLP292
CYYC;2002-11-26 19:00;METAR CYYC 261900Z 24006KT 40SM OVC042 07/M09 A3025 RMK SC6 SLP288
CYYC;2002-11-26 20:00;METAR CYYC 262000Z 24006KT 40SM OVC036 07/M08 A3024 RMK SC8 SLP283
CYYC;2002-11-26 21:00;METAR CYYC 262100Z 31012KT 40SM OVC024 08/M01 A3023 RMK SC8 SLP275
CYYC;2002-11-27 03:00;METAR CYYC 270300Z 32007KT 7SM -RA BKN029 OVC037 05/05 A3020 RMK SC6SC2 SLP274
CYYC;2002-11-27 04:00;METAR CYYC 270400Z 27008KT 15SM BKN029 OVC031 05/04 A3019 RMK SC6SC2 SLP272
CYYC;2002-11-27 05:00;METAR CYYC 270500Z 27006KT 7SM -RA BKN027 OVC040 05/04 A3019 RMK SC7SC1 SLP271
CYYC;2002-11-27 06:00;METAR CYYC 270600Z 34002KT 15SM BKN017 OVC043 05/04 A3020 RMK SC5SC3 SLP261
CYYC;2002-11-27 07:00;METAR CYYC 270700Z 28003KT 12SM -RA BKN015 OVC026 04/04 A3020 RMK SC6SC2 SLP262
CYYC;2002-11-27 08:00;METAR CYYC 270800Z 26009KT 15SM BKN026 OVC050 05/04 A3019 RMK SC5SC3 SLP260
CYYC;2002-11-27 09:00;METAR CYYC 270900Z 26004KT 15SM BKN048 OVC084 05/04 A3018 RMK SC6AC2 SLP250
CYYC;2002-11-27 10:00;METAR CYYC 271000Z 31009KT 15SM BKN058 OVC087 06/04 A3019 RMK SC6AC2 SLP252
CYYC;2002-11-27 11:00;METAR CYYC 271100Z 30006KT 15SM BKN056 OVC093 04/02 A3018 RMK SC5AC2 SLP249
CYYC;2002-11-27 12:00;METAR CYYC 271200Z 26004KT 15SM FEW063 OVC095 04/02 A3017 RMK SC2AC6 SLP253
CYYC;2002-11-27 13:00;METAR CYYC 271300Z 10002KT 15SM FEW077 OVC100 04/02 A3017 RMK AC2AC6
CYYC;2002-11-27 14:00;METAR CYYC 271400Z 23003KT 15SM FEW120 SCT250 03/M01 A3017 RMK AC2CI1
CYYC;2002-11-27 15:00;METAR CYYC 271500Z 22002KT 40SM BKN140 BKN250 02/M01 A3017 RMK AC1CI1 SLP254
CYYC;2002-11-27 16:00;METAR CYYC 271600Z 21005KT 40SM FEW140 OVC250 02/M01 A3017 RMK AC2CI3
CYYC;2002-11-27 17:00;METAR CYYC 271700Z 22004KT 40SM FEW160 OVC250 03/00 A3018 RMK AC2CI2 SLP257
CYYC;2002-11-27 18:00;METAR CYYC 271800Z 21002KT 40SM FEW110 SCT160 OVC250 07/04 A3018 RMK AC1AC2CI2 LWR AC TR SLP251 LWR AC TR SLP251
CYYC;2002-11-27 19:00;METAR CYYC 271900Z 23004KT 40SM FEW160 BKN250 10/02 A3016 RMK AC2CI1 SLP246
CYYC;2002-11-27 20:00;METAR CYYC 272000Z 24004KT 40SM FEW160 BKN250 BKN300 12/03 A3016 RMK AC2CI1CI0 SLP244 SLP244
CYYC;2002-11-27 21:00;METAR CYYC 272100Z 24005KT 40SM FEW160 BKN250 BKN300 12/01 A3014 RMK AC1CI1CI0 SLP229 SLP229
CYYC;2002-11-27 22:00;METAR CYYC 272200Z 22008KT 40SM FEW160 BKN250 BKN300 12/01 A3012 RMK AC1CI1CI0 SLP223 SLP223
CYYC;2002-11-27 23:00;METAR CYYC 272300Z 21008KT 30SM FEW160 BKN250 09/00 A3010 RMK AC1CI0 SLP219
CYYG;2002-08-15 00:00;METAR CYYG 150000Z 18004KT 8SM FEW280 23/19 A3003 RMK CI1 HAZY SLP170
CYYG;2002-08-15 01:00;METAR CYYG 150100Z 18005KT 10SM FEW280 23/19 A3003 RMK CI0 SLP170
CYYG;2002-08-15 02:00;METAR CYYG 150200Z 18004KT 10SM SKC 23/19 A3004 RMK SLP171
CYYG;2002-08-15 03:00;METAR CYYG 150300Z 19005KT 8SM SKC 23/19 A3004 RMK HAZY SLP173
CYYG;2002-08-15 04:00;METAR CYYG 150400Z 23004KT 10SM SKC 22/19 A3005 RMK SLP176
CYYG;2002-08-15 05:00;METAR CYYG 150500Z 23005KT 10SM SKC 22/18 A3005 RMK SLP175
CYYG;2002-08-15 06:00;METAR CYYG 150600Z 24008KT 10SM SKC 22/18 A3005 RMK SLP176
CYYG;2002-08-15 07:00;METAR CYYG 150700Z 24008KT 8SM SKC 21/17 A3004 RMK HAZY SLP173
CYYG;2002-08-15 08:00;METAR CYYG 150800Z 23006KT 8SM SKC 21/17 A3005 RMK HAZY SLP175
CYYG;2002-08-15 09:00;METAR CYYG 150900Z 24007KT 6SM HZ SKC 20/17 A3006 RMK SLP180
CYYG;2002-08-15 10:00;METAR CYYG 151000Z 22006KT 3SM HZ SKC 21/17 A3007 RMK SLP183
CYYG;2002-08-15 11:00;METAR CYYG 151100Z 19005KT 3SM HZ SKC 22/18 A3008 RMK SLP186
CYYG;2002-08-15 12:00;METAR CYYG 151200Z 22008KT 3SM HZ SKC 23/19 A3009 RMK SLP190
CYYG;2002-08-15 13:00;METAR CYYG 151300Z 18005KT 4SM HZ SKC 25/20 A3009 RMK SLP189
CYYG;2002-08-15 14:00;METAR CYYG 151400Z 18007KT 5SM HZ SKC 27/21 A3009 RMK SLP190
CYYG;2002-08-15 15:00;METAR CYYG 151500Z 20007KT 6SM HZ SKC 28/21 A3008 RMK SLP185
CYYG;2002-08-15 16:00;METAR CYYG 151600Z 21009KT 6SM HZ SKC 29/22 A3007 RMK SLP183
CYYG;2002-08-15 17:00;METAR CYYG 151700Z 19007KT 10SM SKC 30/22 A3006 RMK HAZY SLP179
CYYG;2002-08-15 18:00;METAR CYYG 151800Z 23007KT 10SM SKC 31/22 A3006 RMK HAZY SLP179
CYYG;2002-08-15 19:00;METAR CYYG 151900Z 22008KT 10SM SKC 31/22 A3005 RMK HAZY SLP176
CYYG;2002-08-15 20:00;METAR CYYG 152000Z 22008KT 10SM SKC 30/22 A3004 RMK HAZY SLP173
CYYG;2002-08-15 21:00;METAR CYYG 152100Z 25007KT 10SM SKC 30/21 A3004 RMK HAZY SLP170
CYYG;2002-08-15 22:00;METAR CYYG 152200Z 25010G16KT 10SM SKC 29/19 A3004 RMK SLP170
CYYG;2002-08-15 23:00;METAR CYYG 152300Z 24009G16KT 15SM SKC 28/18 A3004 RMK SLP172
CYYG;2002-08-16 00:00;METAR CYYG 160000Z 23009G16KT 10SM SKC 26/18 A3005 RMK SLP175
CYYG;2002-08-16 01:00;METAR CYYG 160100Z 24009KT 15SM SKC 25/18 A3006 RMK SLP180
CYYG;2002-08-16 02:00;METAR CYYG 160200Z 24011G18KT 15SM SCT240 24/17 A3007 RMK CI2 SLP182
CYYG;2002-08-16 03:00;METAR CYYG 160300Z 24012G17KT 15SM BKN240 23/16 A3007 RMK CI2 SLP181
CYYG;2002-08-16 04:00;METAR CYYG 160400Z 24009KT 15SM BKN220 22/17 A3007 RMK CI2 SLP181
CYYG;2002-08-16 05:00;METAR CYYG 160500Z 23012KT 15SM BKN220 21/17 A3005 RMK CI2 SLP176
CYYG;2002-08-16 06:00;METAR CYYG 160600Z 22013G18KT 15SM BKN220 21/18 A3004 RMK CI2 SLP172
CYYG;2002-08-16 07:00;METAR CYYG 160700Z 23010KT 15SM BKN220 21/18 A3004 RMK CI2 SLP172
CYYG;2002-08-16 08:00;METAR CYYG 160800Z 23011KT 15SM BKN220 20/18 A3004 RMK CI3 SLP170
CYYG;2002-08-16 09:00;METAR CYYG 160900Z 23008KT 15SM BKN200 20/18 A3004 RMK CI3 SLP172
CYYG;2002-08-16 10:00;METAR CYYG 161000Z 22009KT 8SM BKN005 BKN200 21/18 A3004 RMK SF5CC2 SLP173
CYYG;2002-08-16 11:00;METAR CYYG 161100Z 23009KT 10SM BKN007 21/18 A3005 RMK SF6 SLP175
CYYG;2002-08-16 12:00;METAR CYYG 161200Z 23010G16KT 10SM SCT007 22/19 A3005 RMK SF4 SLP175
CYYG;2002-08-16 13:00;METAR CYYG 161300Z 22015KT 15SM SCT007 22/19 A3004 RMK SF3 SLP173
CYYG;2002-08-16 14:00;METAR CYYG 161400Z 23011KT 12SM BKN008 23/19 A3004 RMK SF6 SLP171
CYYG;2002-08-16 15:00;METAR CYYG 161500Z 24012KT 12SM SCT011 24/20 A3003 RMK SC4 SLP169
CYYG;2002-08-16 16:00;METAR CYYG 161600Z 22014G19KT 10SM FEW014 26/21 A3001 RMK CU2 SLP162
CYYG;2002-08-16 17:00;METAR CYYG 161700Z 23015KT 12SM FEW018 26/21 A3000 RMK CU2 SLP158
CYYG;2002-08-16 18:00;METAR CYYG 161800Z 23014KT 12SM FEW018 27/21 A2997 RMK CF1 SLP148
CYYG;2002-08-16 19:00;METAR CYYG 161900Z 22012G17KT 15SM FEW300 28/21 A2996 RMK CI1 SLP144
CYYG;2002-08-16 20:00;METAR CYYG 162000Z 22012G17KT 15SM FEW100 SCT300 28/22 A2995 RMK AC1CI1 SLP140
CYYG;2002-08-16 21:00;METAR CYYG 162100Z 22011G17KT 15SM FEW200 SCT300 28/21 A2993 RMK CC1CI1 SLP136
CYYG;2002-08-16 22:00;METAR CYYG 162200Z 22008KT 15SM FEW200 SCT300 27/21 A2993 RMK CC1CI1 SLP133
CYYG;2002-08-16 23:00;METAR CYYG 162300Z 23006KT 8SM FEW200 SCT300 25/20 A2992 RMK CI2CI1 HAZY SLP131
CYYG;2002-08-17 00:00;METAR CYYG 170000Z 24006KT 10SM SCT200 23/19 A2993 RMK CI2 HAZY SLP136
CYYG;2002-08-17 01:00;METAR CYYG 170100Z 25007KT 15SM SCT200 22/20 A2994 RMK CI2 SLP137
CYYG;2002-08-17 02:00;METAR CYYG 170200Z 23008G15KT 15SM FEW200 23/20 A2993 RMK CI1 SLP133
CYYG;2002-08-17 03:00;METAR CYYG 170300Z 22009KT 15SM FEW130 SCT200 23/20 A2991 RMK AC2CI1 SLP128
CYYG;2002-08-17 04:00;METAR CYYG 170400Z 23010G15KT 15SM SCT011 BKN140 23/20 A2990 RMK SC3AC2 SLP123
CYYG;2002-08-17 05:00;METAR CYYG 170500Z 23009G15KT 15SM BKN010 BKN140 22/19 A2989 RMK SC5AC2 SLP120
CYYG;2002-08-17 06:00;METAR CYYG 170600Z 23011KT 15SM SCT010 BKN140 22/19 A2988 RMK SC3AC1 SLP119
CYYG;2002-08-17 07:00;METAR CYYG 170700Z 23004KT 15SM SCT008 22/19 A2986 RMK SF4 SLP112
CYYG;2002-08-17 08:00;METAR CYYG 170800Z 23010G16KT 15SM BKN007 OVC100 22/19 A2986 RMK SF6AC2 SLP110
CYYG;2002-08-17 09:00;METAR CYYG 170900Z 22009G15KT 8SM BKN007 OVC100 22/19 A2985 RMK SF6AC2 HAZY SLP108
CYYG;2002-08-17 10:00;METAR CYYG 171000Z 22012KT 6SM HZ OVC006 22/19 A2985 RMK SF8 SLP106
CYYG;2002-08-17 11:00;METAR CYYG 171100Z 22011KT 6SM BR OVC005 22/20 A2985 RMK SF8 SLP109
CYYG;2002-08-17 12:00;METAR CYYG 171200Z 23011G16KT 8SM OVC005 22/20 A2986 RMK SF8 HAZY SLP112
CYYG;2002-08-17 13:00;METAR CYYG 171300Z 25011KT 8SM FEW005 SCT300 23/20 A2987 RMK SF2CI1 HAZY SLP113
CYYG;2002-08-17 14:00;METAR CYYG 171400Z 24010KT 15SM FEW015 FEW089 BKN300 25/21 A2985 RMK CU1AC2CI1 SLP109
CYYG;2002-08-17 15:00;METAR CYYG 171500Z 25009KT 15SM FEW085 BKN300 25/21 A2985 RMK AC2CI1 SLP107
CYYG;2002-08-17 16:00;METAR CYYG 171600Z 25008KT 15SM FEW020 FEW085 FEW300 27/22 A2984 RMK CU1AC1CI1 SLP104
CYYG;2002-08-17 17:00;METAR CYYG 171700Z 28008KT 15SM FEW023 FEW058 SCT068 27/21 A2982 RMK CU2SC1AC1 SLP099
CYYG;2002-08-17 18:00;METAR CYYG 171800Z 27007KT 15SM FEW030 BKN054 BKN066 28/21 A2983 RMK CU1SC4AC2 SLP100
CYYG;2002-08-17 19:00;METAR CYYG 171900Z 28007KT 15SM FEW030CB FEW054 29/19 A2983 RMK CB1SC1 CB DSNT E SLP101
CYYG;2002-08-17 20:00;METAR CYYG 172000Z 30005KT 15SM FEW035CB FEW300 29/17 A2982 RMK CB1CI1 CB DSNT S-SW SLP097
CYYG;2002-08-17 21:00;METAR CYYG 172100Z 27005KT 15SM FEW035TCU SCT300 29/17 A2982 RMK TCU1CI1 TCU SE-S SLP098
CYYG;2002-08-17 22:00;METAR CYYG 172200Z 27002KT 15SM FEW057CB BKN300 27/18 A2983 RMK CB1CI2 CB DSNT SE SLP101
CYYG;2002-08-17 23:00;METAR CYYG 172300Z 27002KT 15SM FEW060 BKN300 26/16 A2984 RMK SC2CI2 SLP104
CYYG;2002-08-18 00:00;METAR CYYG 180000Z 18006KT 15SM FEW090 BKN300 24/17 A2985 RMK AC2CI2 SLP107
CYYG;2002-08-18 01:00;METAR CYYG 180100Z 05002KT 15SM FEW090 BKN300 21/17 A2987 RMK AC2CI2 SLP115
CYYG;2002-08-18 02:00;METAR CYYG 180200Z 07005KT 15SM FEW090 SCT300 21/17 A2987 RMK AC1CI1
CYYG;2002-08-18 03:00;METAR CYYG 180300Z 04003KT 15SM SCT080 21/18 A2987 RMK AC2 SLP114
CYYG;2002-08-18 04:00;METAR CYYG 180400Z 07004KT 15SM BKN080 21/18 A2987 RMK AC5 SLP116
CYYG;2002-08-18 05:00;METAR CYYG 180500Z 00000KT 15SM SCT030 BKN080 21/17 A2988 RMK SC3AC4 SLP117
CYYG;2002-08-18 06:00;METAR CYYG 180600Z 00000KT 15SM SCT030 BKN080 18/15 A2987 RMK SC3AC2
CYYG;2002-08-18 08:00;METAR CYYG 180800Z 30003KT 15SM FEW030 17/15 A2988 RMK SC2 SLP119
CYYG;2002-08-18 09:00;METAR CYYG 180900Z 00000KT 15SM FEW240 16/14 A2990 RMK CI1 SLP123
CYYG;2002-08-18 10:00;METAR CYYG 181000Z 00000KT 15SM FEW240 17/15 A2990 RMK CI1 HAZY SLP126
CYYG;2002-08-18 11:00;METAR CYYG 181100Z 09002KT 15SM FEW240 21/18 A2991 RMK CI1 HAZY SLP129
CYYG;2002-08-18 12:00;METAR CYYG 181200Z 11003KT 15SM FEW240 23/18 A2991 RMK CI1 SLP129
CYYG;2002-08-18 13:00;METAR CYYG 181300Z 18005KT 15SM SCT240 25/18 A2991 RMK CI2 SLP128
CYYG;2002-08-18 14:00;METAR CYYG 181400Z 18006KT 15SM BKN240 25/17 A2990 RMK CI2 SLP124
CYYG;2002-08-18 15:00;METAR CYYG 181500Z 15005KT 15SM BKN240 27/18 A2990 RMK CI2 SLP125
CYYG;2002-08-18 16:00;METAR CYYG 181600Z 18008KT 15SM BKN240 27/19 A2988 RMK CI3 SLP118
CYYG;2002-08-18 17:00;METAR CYYG 181700Z 18008KT 15SM FEW031 BKN240 27/19 A2987 RMK CU1CI4 TR CU
CYYG;2002-08-18 18:00;METAR CYYG 181800Z 22005KT 15SM FEW044 BKN240 29/18 A2986 RMK CU1CI3 TR CU SLP110
CYYG;2002-08-18 19:00;METAR CYYG 181900Z 19007KT 15SM FEW042 BKN240 29/19 A2985 RMK CU1CI2 TR CU SLP106
CYYG;2002-08-18 20:00;METAR CYYG 182000Z 18010KT 15SM FEW037 BKN240 29/20 A2983 RMK CU1CI4 TR CU SLP102
CYYG;2002-08-18 21:00;METAR CYYG 182100Z 19005KT 15SM BKN240 28/20 A2984 RMK CI3 SLP103
CYYG;2002-08-18 22:00;METAR CYYG 182200Z 17005KT 12SM FEW210 SCT290 27/19 A2984 RMK CC1CI1 SLP103
CYYG;2002-08-18 23:00;METAR CYYG 182300Z 20003KT 12SM SCT170 SCT290 25/19 A2984 RMK AC3CI0 HAZY SLP104
CYYG;2002-08-19 00:00;METAR CYYG 190000Z 18005KT 12SM SCT170 SCT250 23/18 A2985 RMK AC3CI0 HAZY SLP107
CYYG;2002-08-19 01:00;METAR CYYG 190100Z 20007KT 12SM FEW170 FEW250 23/18 A2985 RMK AC1CI0 HAZY SLP108
CYYG;2002-08-19 02:00;METAR CYYG 190200Z 23004KT 12SM FEW250 23/17 A2985 RMK CI1 HAZY SLP109
CYYG;2002-08-19 03:00;METAR CYYG 190300Z 21005KT 12SM FEW230 22/17 A2984 RMK CC2 HAZY SLP103
CYYG;2002-08-19 04:00;METAR CYYG 190400Z 22005KT 12SM FEW130 SCT230 22/18 A2982 RMK AC2CC2 HAZY SLP099
CYYG;2002-08-19 05:00;METAR CYYG 190500Z 22006KT 12SM SCT110 OVC130 22/18 A2982 RMK AC3AC5 CB DSNT NW OCNL LTGIC SLP099
CYYG;2002-08-19 06:00;METAR CYYG 190600Z 21007KT 15SM FEW030CB BKN090 OVC130 22/17 A2981 RMK CB1AC5AC2 CB DSNT NW-N OCNL LTGICCG SLP093
CYYG;2002-08-19 07:00;METAR CYYG 190700Z 20006KT 15SM TS FEW030CB BKN087 BKN130 22/18 A2982 RMK CB1AC4AC2 CB W-N MOVG E FQT LTGICCCCG SLP098
CYYG;2002-08-19 08:00;METAR CYYG 190800Z 23004KT 15SM TS FEW030CB SCT090 BKN150 22/17 A2983 RMK CB2AC2AC3 CB W-NE MOVG E FQT LTGICCCCG SLP100
CYYG;2002-08-19 09:00;METAR CYYG 190900Z 19007KT 15SM TS FEW030CB OVC082 22/17 A2982 RMK CB2ACC6 CB W-N OCNL LTGICCG SLP099
CYYG;2002-08-19 10:00;METAR CYYG 191000Z 22010KT 15SM FEW030CB SCT080 OVC250 22/18 A2982
CYYG;2002-08-19 11:00;METAR CYYG 191100Z 19008KT 15SM -TSRA FEW030CB SCT080 OVC250 22/18 A2982 RMK CB2ACC2CI5 LTGCG VSBY LWR W SLP097
CYYG;2002-08-19 12:00;METAR CYYG 191200Z 19010KT 6SM -TSRA FEW020CB BKN080 OVC250 21/18 A2984 RMK CB2ACC2CI3 LTGICCG SLP105
CYYG;2002-08-19 13:00;METAR CYYG 191300Z 23009KT 10SM TS SCT020CB BKN090 OVC250 22/19 A2984 RMK CB4AC2CI2 LTGCG VSBY LWR NW SLP103
CYYG;2002-08-19 14:00;METAR CYYG 191400Z 20016KT 15SM TS SCT020CB BKN090 OVC250 25/ A2980
CYYG;2002-08-19 15:00;METAR CYYG 191500Z CCA 22010G16KT 15SM TS FEW020CB SCT090 OVC250 26/ A2979 RMK CB2AC2CI4 LTGCG VSBY LWR N SLP087
CYYG;2002-08-19 15:00;METAR CYYG 191500Z CCB 22010G16KT 15SM TS FEW020CB SCT090 OVC250 26/ A2979 RMK CB2AC2CI2 LTGCG VSBY LWR N SLP087
CYYG;2002-08-19 16:00;METAR CYYG 191600Z 27004KT 10SM -TSRA SCT020CB BKN090 OVC250 23/ A2980 RMK CB4AC1CI3 FREQ LTGCG VSBY LWR N SLP091
CYYG;2002-08-19 17:00;METAR CYYG 191700Z 26003KT 3SM TSRA BKN020CB OVC064 23/22 A2981 RMK CB6AC2 LTGCG ALL QUAD VSBY LWR N SLP094
CYYG;2002-08-19 18:00;METAR CYYG 191800Z 23006KT 15SM FEW015 BKN067 OVC095 25/22 A2980 RMK SC2AC6AC1 SLP090
CYYG;2002-08-19 19:00;METAR CYYG 191900Z 25008KT 10SM FEW015 OVC038 26/22 A2979 RMK SC2SC6 HAZY SLP088
CYYG;2002-08-19 20:00;METAR CYYG 192000Z 26011KT 10SM OVC038 26/21 A2978 RMK SC8 HAZY SLP085
CYYG;2002-08-19 21:00;METAR CYYG 192100Z 28007KT 10SM SCT038 OVC250 25/22 A2979 RMK SC3CI5 HAZY SLP087
CYYG;2002-08-19 22:00;METAR CYYG 192200Z 28007KT 10SM SCT070 BKN250 25/21 A2980 RMK AC3CI0 HAZY SLP092
CYYG;2002-08-19 23:00;METAR CYYG 192300Z 00000KT 10SM FEW040TCU FEW300 23/21 A2979 RMK TCU1CI1 TCU DSNT SE SLP088
CYYG;2002-08-20 00:00;METAR CYYG 200000Z 29003KT 10SM FEW300 20/20 A2981 RMK CI2 SLP094
CYYG;2002-08-20 01:00;METAR CYYG 200100Z 03002KT 10SM BKN300 20/20 A2981 RMK CI2 SLP093
CYYG;2002-08-20 02:00;METAR CYYG 200200Z 15003KT 10SM BKN240 21/20 A2980 RMK CI6 SLP092
CYYG;2002-08-20 03:00;METAR CYYG 200300Z 15005KT 5SM BR FEW240 20/20 A2980 RMK CI2 SLP090
CYYG;2002-08-20 04:00;METAR CYYG 200400Z 22004KT 5SM BR FEW003 BKN210 21/21 A2982 RMK SF1CI2 SLP097
CYYG;2002-08-20 05:00;METAR CYYG 200500Z 22004KT 10SM BKN200 21/21 A2982 RMK CI2 SLP096
CYYG;2002-08-20 06:00;METAR CYYG 200600Z 22004KT 15SM FEW200 BKN240 21/19 A2981 RMK CI2CI4 SLP095
CYYG;2002-08-20 07:00;METAR CYYG 200700Z 23003KT 15SM OVC230 20/19 A2982 RMK CI6 SLP099
CYYG;2002-08-20 08:00;METAR CYYG 200800Z 23004KT 15SM OVC220 20/18 A2983 RMK CI8 SLP100
CYYG;2002-08-20 09:00;METAR CYYG 200900Z 26005KT 10SM FEW058 BKN200 19/18 A2984 RMK SC2CI2 SLP103
CYYG;2002-08-20 10:00;METAR CYYG 201000Z 33004KT 6SM BR BKN180 BKN220 19/18 A2985 RMK AC6CI2 SLP107
CYYG;2002-08-20 11:00;METAR CYYG 201100Z 33005KT 3SM BR OVC002 20/20 A2987 RMK ST8 SLP113
CYYG;2002-08-20 12:00;METAR CYYG 201200Z 35002KT 4SM BR SCT002 BKN060 OVC150 21/20 A2989 RMK SF3SC2AC3 VSBY LWR SW SLP122
CYYG;2002-08-20 13:00;METAR CYYG 201300Z CCA 34004KT 10SM SCT060 BKN140 OVC280 22/19 A2990 RMK SC3AC2CI2 SLP125
CYYG;2002-08-20 14:00;METAR CYYG 201400Z 35003KT 12SM FEW020 SCT060 BKN140 OVC280 23/19 A2990 RMK CF1SC2AC2CI2 SLP124
CYYG;2002-08-20 15:00;METAR CYYG 201500Z 01005KT 15SM FEW024 SCT060 BKN130 OVC280 22/18 A2990 RMK CF1SC2AC2CI3 SLP123
CYYG;2002-08-20 16:00;METAR CYYG 201600Z 35004KT 15SM FEW024 FEW060 BKN080 OVC280 23/17 A2990 RMK CF1SC2AC2CI3 SLP124
CYYG;2002-08-20 17:00;METAR CYYG 201700Z 33005KT 15SM FEW024 SCT060 BKN100 OVC280 22/18 A2990 RMK CF2SC2AC3CI2 SLP125
CYYG;2002-08-20 18:00;METAR CYYG 201800Z 36005KT 15SM FEW024 SCT060 BKN110 OVC280 21/19 A2989 RMK CF2SC2AC3CI2 SLP120
CYYG;2002-08-20 19:00;METAR CYYG 201900Z 34003KT 15SM FEW024 BKN054 OVC110 20/17 A2990 RMK CU1SC4AC3 SLP125
CYYG;2002-08-20 20:00;METAR CYYG 202000Z 31003KT 15SM BKN056 OVC100 19/16 A2991 RMK SC5AC3 SLP129
CYYG;2002-08-20 21:00;METAR CYYG 202100Z 28003KT 15SM -SHRA FEW030 BKN059 OVC120 19/15 A2993 RMK CU1SC5AC2 SLP134
CYYG;2002-08-21 00:00;METAR CYYG 210000Z 27004KT 15SM SCT060 BKN250 17/15 A2997 RMK SC4CI2 SLP149
CYYG;2002-08-21 04:00;METAR CYYG 210400Z 30006KT 15SM FEW058 SCT250 16/14 A3001 RMK SC1CI2 SLP164
CYYG;2002-08-21 05:00;METAR CYYG 210500Z 29009KT 15SM FEW250 16/14 A3003 RMK CI2 SLP169
CYYG;2002-08-21 06:00;METAR CYYG 210600Z 30007KT 15SM FEW250 15/13 A3004 RMK CI2 SLP172
CYYG;2002-08-21 07:00;METAR CYYG 210700Z 31005KT 15SM FEW018 FEW250 14/13 A3006 RMK SC1CI1 SLP181
CYYG;2002-08-21 08:00;METAR CYYG 210800Z 31005KT 15SM FEW250 14/13 A3008 RMK CI0 SLP185
CYYG;2002-08-21 09:00;METAR CYYG 210900Z 31006KT 15SM FEW250 14/12 A3010 RMK CI1 SLP193
CYYG;2002-08-21 10:00;METAR CYYG 211000Z 30005KT 15SM FEW250 14/13 A3013 RMK CI1 SLP202
CYYG;2002-08-21 11:00;METAR CYYG 211100Z 31006KT 15SM FEW250 17/14 A3014 RMK CI1 SLP207
CYYG;2002-08-21 12:00;METAR CYYG 211200Z 32007KT 15SM FEW250 19/15 A3016 RMK CI1 SLP213
CYYG;2002-08-21 13:00;METAR CYYG 211300Z 34009KT 15SM FEW028 FEW250 20/13 A3017 RMK CF1CI1 SLP218
CYYG;2002-08-21 14:00;METAR CYYG 211400Z 33009KT 15SM FEW030 FEW250 20/13 A3019 RMK CF1CI1 SLP223
CYYG;2002-08-21 15:00;METAR CYYG 211500Z 33009KT 15SM FEW032 FEW250 21/13 A3020 RMK CF1CI1 SLP225
CYYG;2002-08-21 16:00;METAR CYYG 211600Z 32010KT 15SM FEW032 FEW250 21/11 A3019 RMK CF1CI1
CYYG;2002-08-21 17:00;METAR CYYG 211700Z 34008KT 15SM FEW036 21/11 A3019 RMK CF1 SLP223
CYYG;2002-08-21 18:00;METAR CYYG 211800Z 33008KT 15SM FEW040 21/11 A3019 RMK CF1 SLP223
CYYG;2002-08-21 19:00;METAR CYYG 211900Z 34006KT 15SM FEW040 21/10 A3020 RMK CF1 SLP228
CYYG;2002-08-21 20:00;METAR CYYG 212000Z 34009KT 15SM FEW040 21/09 A3020 RMK CF1 SLP225
CYYG;2002-08-21 21:00;METAR CYYG 212100Z 01005KT 15SM FEW040 21/08 A3019 RMK CF1 SLP222
CYYG;2002-08-21 22:00;METAR CYYG 212200Z 02002KT 15SM SKC 20/08 A3018 RMK SLP221
CYYG;2002-08-21 23:00;METAR CYYG 212300Z 13004KT 15SM FEW250 18/09 A3018 RMK CI1 SLP220
CYYG;2002-08-22 00:00;METAR CYYG 220000Z 16004KT 15SM SKC 17/09 A3019 RMK SLP223
CYYG;2002-08-22 01:00;METAR CYYG 220100Z 17004KT 15SM SKC 17/09 A3020 RMK SLP225
CYYG;2002-08-22 02:00;METAR CYYG 220200Z 16004KT 15SM SKC 16/10 A3019 RMK SLP223
CYYG;2002-08-22 03:00;METAR CYYG 220300Z 19007KT 15SM SKC 15/11 A3018 RMK SLP220
CYYG;2002-08-22 04:00;METAR CYYG 220400Z 21007KT 15SM SKC 17/14 A3018 RMK SLP221
CYYG;2002-08-22 05:00;METAR CYYG 220500Z 22006KT 15SM SKC 17/13 A3017 RMK SLP216
CYYG;2002-08-22 06:00;METAR CYYG 220600Z 23005KT 15SM SKC 16/12 A3016 RMK SLP214
CYYG;2002-08-22 07:00;METAR CYYG 220700Z 22006KT 15SM SKC 16/12 A3015 RMK SLP211
CYYG;2002-08-22 08:00;METAR CYYG 220800Z 23006KT 15SM SKC 16/12 A3014 RMK SLP206
CYYG;2002-08-22 09:00;METAR CYYG 220900Z 22006KT 15SM FEW240 16/12 A3014 RMK CI0 SLP207
CYYG;2002-08-22 10:00;METAR CYYG 221000Z 23006KT 15SM FEW240 16/12 A3014 RMK CI1 SLP207
CYYG;2002-08-22 11:00;METAR CYYG 221100Z 23005KT 15SM FEW240 18/13 A3014 RMK CI1 SLP205
CYYG;2002-08-22 12:00;METAR CYYG 221200Z 20009KT 15SM FEW240 19/14 A3012 RMK CI2 SLP200
CYYG;2002-08-22 13:00;METAR CYYG 221300Z 21013KT 15SM FEW240 20/13 A3010 RMK CI2 SLP192
CYYG;2002-08-22 14:00;METAR CYYG 221400Z 21013KT 15SM SCT250 22/14 A3008 RMK CI2 SLP187
CYYG;2002-08-22 15:00;METAR CYYG 221500Z 22012KT 15SM SCT250 24/14 A3006 RMK CI3 SLP181
CYYG;2002-08-22 16:00;METAR CYYG 221600Z 24012G20KT 15SM BKN250 24/14 A3004 RMK CI3 SLP172
CYYG;2002-08-22 17:00;METAR CYYG 221700Z 24016G25KT 15SM BKN250 24/12 A3002 RMK CI6 SLP166
CYYG;2002-08-22 18:00;METAR CYYG 221800Z 25017G22KT 15SM FEW040 FEW100 OVC250 23/11 A3000 RMK CU1AC1CI6 SLP159
CYYG;2002-08-22 19:00;METAR CYYG 221900Z 23014G21KT 15SM FEW040 FEW100 OVC250 23/11 A2996 RMK CU1AC1CI6 SLP147
CYYG;2002-08-22 20:00;METAR CYYG 222000Z 23011G16KT 15SM FEW100 OVC250 22/11 A2995 RMK AC2CI6 SLP142
CYYG;2002-08-22 21:00;METAR CYYG 222100Z 24011G16KT 15SM SCT100 OVC250 21/12 A2994 RMK AC3CI5 SLP138
CYYG;2002-08-22 22:00;METAR CYYG 222200Z 24015G21KT 15SM -SHRA FEW060 SCT090 OVC250 19/11 A2993 RMK SC2AC2CI4 SLP135
CYYG;2002-08-22 23:00;METAR CYYG 222300Z 24012G21KT 12SM -SHRA SCT060 BKN100 OVC250 16/12 A2991 RMK SC3AC3CI2 SLP130
CYYG;2002-08-23 00:00;METAR CYYG 230000Z 23010KT 15SM -SHRA SCT060 BKN100 OVC250 16/12 A2990 RMK SC3AC4CI1 SLP125
CYYG;2002-08-23 01:00;METAR CYYG 230100Z 24012G18KT 15SM SCT040 OVC100 18/11 A2988 RMK SC4AC4 SLP118
CYYG;2002-08-23 02:00;METAR CYYG 230200Z 24012KT 10SM -SHRA OVC024 16/15 A2987 RMK SC8 SLP114
CYYG;2002-08-23 03:00;METAR CYYG 230300Z 24010KT 10SM -SHRA OVC024 17/16 A2986 RMK SC8 SLP110
CYYG;2002-08-23 04:00;METAR CYYG 230400Z 25009KT 10SM -SHRA FEW010 BKN024 OVC100 17/16 A2986 RMK SC2SC3AC2 SLP110
CYYG;2002-08-23 05:00;METAR CYYG 230500Z 25008KT 15SM -SHRA BKN057 OVC120 17/16 A2985 RMK SC6AC2 SLP107
CYYG;2002-08-23 06:00;METAR CYYG 230600Z 24008KT 15SM SCT058 17/16 A2986 RMK SC3 SLP111
CYYG;2002-08-23 07:00;METAR CYYG 230700Z 30007KT 15SM FEW020 SCT057 16/14 A2986 RMK SC2SC2 SLP112
CYYG;2002-08-23 08:00;METAR CYYG 230800Z 30006KT 15SM FEW057 13/12 A2986 RMK SC2 SLP111
CYYG;2002-08-23 09:00;METAR CYYG 230900Z 30006KT 15SM FEW050 13/11 A2987 RMK SC2 SLP115
CYYG;2002-08-23 10:00;METAR CYYG 231000Z 30007KT 15SM FEW030 13/12 A2989 RMK CU1 SLP123
CYYG;2002-08-23 11:00;METAR CYYG 231100Z 31009KT 15SM FEW018 14/13 A2991 RMK CU2 SLP128
CYYG;2002-08-23 12:00;METAR CYYG 231200Z 30008KT 15SM FEW021 FEW250 16/14 A2992 RMK CU2CI1 SLP132
CYYG;2002-08-23 13:00;METAR CYYG 231300Z 35011KT 15SM BKN026 17/13 A2993 RMK CU5 SLP136
CYYG;2002-08-23 14:00;METAR CYYG 231400Z 36012KT 15SM SCT028 18/12 A2994 RMK CU4 SLP139
CYYG;2002-08-23 15:00;METAR CYYG 231500Z 33010G15KT 15SM BKN030 18/12 A2996 RMK CU6 SLP146
CYYG;2002-08-23 16:00;METAR CYYG 231600Z 34011G16KT 15SM BKN032 18/12 A2997 RMK CU5 SLP148
CYYG;2002-08-23 17:00;METAR CYYG 231700Z 35010G16KT 15SM FEW032 18/10 A2997 RMK CU2 SLP149
CYYG;2002-08-23 18:00;METAR CYYG 231800Z 36007G15KT 15SM SCT035 18/11 A2998 RMK CU3 SLP152
CYYG;2002-08-23 19:00;METAR CYYG 231900Z 34012KT 15SM FEW036 FEW250 18/11 A2997 RMK CU2CI1 TR CI SLP149
CYYG;2002-08-23 20:00;METAR CYYG 232000Z 34009KT 15SM FEW031 FEW250 18/10 A2997 RMK CU1CI1 SLP150
CYYG;2002-08-23 21:00;METAR CYYG 232100Z 36009KT 15SM FEW036 FEW250 17/09 A2998 RMK CU1CI1 SLP151
CYYG;2002-08-23 22:00;METAR CYYG 232200Z 35008KT 15SM FEW036 FEW250 16/09 A2999 RMK SC1CI1 SLP155
CYYG;2002-08-23 23:00;METAR CYYG 232300Z 36002KT 15SM FEW040 FEW250 14/09 A3000 RMK SC1CI1 SLP158
CYYG;2002-08-24 00:00;METAR CYYG 240000Z 00000KT 15SM FEW250 12/09 A3001 RMK CI1 SLP163
CYYG;2002-08-24 01:00;METAR CYYG 240100Z 00000KT 15SM FEW250 11/08 A3002 RMK CI1 SLP165
CYYG;2002-08-24 02:00;METAR CYYG 240200Z 00000KT 15SM SCT240 10/08 A3002 RMK CI1 SLP166
CYYG;2002-08-24 03:00;METAR CYYG 240300Z 14004KT 15SM SCT240 11/09 A3002 RMK CI1 SLP166
CYYG;2002-08-24 04:00;METAR CYYG 240400Z 00000KT 15SM BKN240 10/09 A3003 RMK CI1 SLP168
CYYG;2002-08-24 05:00;METAR CYYG 240500Z 19002KT 15SM BKN240 13/10 A3002 RMK CI1 SLP167
CYYG;2002-08-24 06:00;METAR CYYG 240600Z 19002KT 15SM BKN240 11/09 A3002 RMK CI2 SLP165
CYYG;2002-08-24 07:00;METAR CYYG 240700Z 19002KT 15SM BKN240 11/09 A3002 RMK CI2 SLP165
CYYG;2002-08-24 08:00;METAR CYYG 240800Z 21004KT 15SM BKN240 13/11 A3002 RMK CI2 SLP165
CYYG;2002-08-24 09:00;METAR CYYG 240900Z 20003KT 15SM FEW025 BKN240 12/10 A3002 RMK SC1CI2 SLP165
CYYG;2002-08-24 10:00;METAR CYYG 241000Z 20004KT 15SM FEW025 FEW160 BKN240 12/10 A3003 RMK SC1AC1CI3 SLP169
CYYG;2002-08-24 11:00;METAR CYYG 241100Z 15002KT 15SM FEW025 SCT160 OVC240 14/13 A3003 RMK SC1AC3CI2 SLP168
CYYG;2002-08-24 12:00;METAR CYYG 241200Z 21006KT 15SM FEW025 FEW160 OVC240 16/13 A3004 RMK SC1AC2CI5 SLP172
CYYG;2002-08-24 13:00;METAR CYYG 241300Z 20009KT 15SM FEW160 BKN240 17/12 A3002 RMK AC1CI5 SLP167
CYYG;2002-08-24 14:00;METAR CYYG 241400Z 19009KT 15SM FEW160 BKN240 18/12 A3002 RMK AC1CI6 SLP166
CYYG;2002-08-24 15:00;METAR CYYG 241500Z 21009KT 15SM FEW030 FEW160 BKN250 19/13 A3001 RMK CU1AC2CI5 SLP161
CYYG;2002-08-24 16:00;METAR CYYG 241600Z 20013KT 15SM FEW030 BKN250 19/12 A2999 RMK CU1CI5 SLP155
CYYG;2002-08-24 17:00;METAR CYYG 241700Z 20014KT 15SM FEW030 FEW160 BKN250 21/12 A2996 RMK CU1AC2CI1 SLP146
CYYG;2002-08-24 18:00;METAR CYYG 241800Z 21010G15KT 15SM FEW035 FEW160 BKN250 21/12 A2994 RMK CU1AC1CI2 COTRA SLP140
CYYG;2002-08-24 19:00;METAR CYYG 241900Z 18010KT 15SM FEW035 FEW160 BKN250 21/12 A2993 RMK CU1AC1CI2 COTRA SLP135
CYYG;2002-08-24 20:00;METAR CYYG 242000Z 16007KT 15SM FEW025 FEW160 BKN250 21/13 A2991 RMK SC1AC1CI3 COTRA SLP129
CYYG;2002-08-24 21:00;METAR CYYG 242100Z 18006KT 15SM FEW035 FEW160 BKN250 21/13 A2990 RMK SC1AC1CI3 SLP127
CYYG;2002-08-24 22:00;METAR CYYG 242200Z 16005KT 15SM FEW051 OVC250 20/13 A2990 RMK CU1CI6 SLP125
CYYG;2002-08-24 23:00;METAR CYYG 242300Z 15004KT 15SM FEW160 OVC250 19/13 A2989 RMK AC1CI8 SLP121
CYYG;2002-08-25 00:00;METAR CYYG 250000Z 17008KT 15SM FEW160 BKN250 19/13 A2990 RMK AC1CI7 SLP125
CYYG;2002-08-25 01:00;METAR CYYG 250100Z 17010KT 15SM BKN210 18/10 A2989 RMK CI7 SLP122
CYYG;2002-08-25 02:00;METAR CYYG 250200Z 17009KT 15SM BKN210 18/10 A2988 RMK CI7 SLP120
CYYG;2002-08-25 03:00;METAR CYYG 250300Z 17010KT 15SM OVC210 17/13 A2986 RMK CI8 SLP111
CYYG;2002-08-25 04:00;METAR CYYG 250400Z 14005KT 15SM FEW160 OVC250 17/13 A2985 RMK AC2CI6 SLP108
CYYG;2002-08-25 05:00;METAR CYYG 250500Z 10002KT 15SM SCT130 OVC250 16/14 A2982 RMK AC4CI4 SLP099
CYYG;2002-08-25 06:00;METAR CYYG 250600Z 14002KT 15SM -SHRA FEW078 BKN100 BKN250 16/14 A2980 RMK AC1AC6CI1 SLP092
CYYG;2002-08-25 07:00;METAR CYYG 250700Z 12007KT 15SM -SHRA FEW080 BKN100 16/15 A2977 RMK AC2AC5 SLP080
CYYG;2002-08-25 08:00;METAR CYYG 250800Z 11004KT 15SM -SHRA FEW075 BKN110 16/15 A2975 RMK AC2AC5 SLP074
CYYG;2002-08-25 09:00;METAR CYYG 250900Z 10006KT 15SM -SHRA FEW075 BKN110 OVC250 17/16 A2974 RMK AC1AC6CI2 SLP070
CYYG;2002-08-25 10:00;METAR CYYG 251000Z 07005KT 15SM -RA FEW005 OVC110 16/15 A2974 RMK SF1AC7 SLP069
CYYG;2002-08-25 11:00;METAR CYYG 251100Z 02007KT 15SM -RA BKN005 BKN009 OVC110 16/15 A2972 RMK SF6SF2AS1 SLP063
CYYG;2002-08-25 12:00;METAR CYYG 251200Z 04009KT 15SM FEW005 SCT030 OVC093 17/16 A2970 RMK SF2CU2AS5 SLP056
CYYG;2002-08-25 13:00;METAR CYYG 251300Z 04010KT 15SM -RA FEW009 BKN087 18/16 A2968 RMK SC1AC6 SLP051
CYYG;2002-08-25 14:00;METAR CYYG 251400Z 05012KT 15SM FEW012 BKN086 BKN300 18/15 A2966 RMK SC1AC6CI1 SLP043
CYYG;2002-08-25 15:00;METAR CYYG 251500Z 03010G18KT 15SM FEW015 BKN093 BKN300 19/14 A2965 RMK SC1AC5CI1 SLP041
CYYG;2002-08-25 16:00;METAR CYYG 251600Z 36010KT 15SM FEW015 FEW093 BKN110 19/14 A2965 RMK SC1AC2AC3 SLP040
CYYG;2002-08-25 17:00;METAR CYYG 251700Z 36010KT 15SM SCT021 SCT093 19/14 A2965 RMK CU3AC1 SLP039
CYYG;2002-08-25 18:00;METAR CYYG 251800Z 35009G15KT 15SM FEW019 BKN130 19/14 A2965 RMK CU2AC4
CYYG;2002-08-25 19:00;METAR CYYG 251900Z 34006KT 15SM FEW019 BKN110 19/15 A2965 RMK CU2AC6 SLP041
CYYG;2002-08-25 20:00;METAR CYYG 252000Z 35006KT 15SM FEW019 FEW041 BKN120 18/14 A2966 RMK SC1SC1AC6 SLP045
CYYG;2002-08-25 21:00;METAR CYYG 252100Z 36003KT 15SM FEW020 FEW030 BKN087 BKN120 18/14 A2968 RMK SC1SC1AC3AC2 SLP049
CYYG;2002-08-25 22:00;METAR CYYG 252200Z 34002KT 15SM FEW030 BKN090 BKN120 17/15 A2969 RMK SC1AC6AC1 SLP052
CYYG;2002-08-25 23:00;METAR CYYG 252300Z 00000KT 15SM FEW032 BKN160 BKN210 17/14 A2970 RMK SC1AC5CI1 TCU ASOCTD S SLP056
CYYG;2002-08-26 00:00;METAR CYYG 260000Z 22003KT 15SM BKN160 OVC210 17/14 A2971 RMK AC6CI2 SLP060
CYYG;2002-08-26 01:00;METAR CYYG 260100Z 22003KT 15SM BKN130 BKN140 BKN190 16/14 A2972 RMK AC5AC2AC1 SLP066
CYYG;2002-08-26 02:00;METAR CYYG 260200Z 26005KT 15SM SCT070 BKN130 16/15 A2973 RMK AC3AC2 SLP068
CYYG;2002-08-26 03:00;METAR CYYG 260300Z 27006KT 15SM SCT130 16/14 A2974 RMK AC3 SLP071
CYYG;2002-08-26 04:00;METAR CYYG 260400Z 26007KT 15SM FEW130 15/13 A2975 RMK AC1 SLP075
CYYG;2002-08-26 05:00;METAR CYYG 260500Z 25009KT 15SM FEW130 15/13 A2976 RMK AC1 SLP077
CYYG;2002-08-26 06:00;METAR CYYG 260600Z 27007KT 15SM FEW130 15/13 A2976 RMK AC1 SLP078
CYYG;2002-08-26 07:00;METAR CYYG 260700Z 27007KT 15SM SKC 15/13 A2977 RMK SLP082
CYYG;2002-08-26 08:00;METAR CYYG 260800Z 23005KT 15SM SKC 14/13 A2979 RMK SLP087
CYYG;2002-08-26 09:00;METAR CYYG 260900Z 23006KT 15SM FEW250 14/13 A2979 RMK CI0 SLP090
CYYG;2002-08-26 10:00;METAR CYYG 261000Z 23007KT 15SM FEW010 FEW100 15/14 A2980 RMK SF1AC1 SLP092
CYYG;2002-08-26 11:00;METAR CYYG 261100Z 26008KT 15SM BKN007 BKN030 16/15 A2982 RMK SF5SC1 SLP098
CYYG;2002-08-26 12:00;METAR CYYG 261200Z 26010KT 15SM SCT008 SCT100 16/14 A2982 RMK SF4AC1 SLP100
CYYG;2002-08-26 13:00;METAR CYYG 261300Z 26011KT 15SM FEW015 18/13 A2983 RMK CU1 SLP102
CYYG;2002-08-26 14:00;METAR CYYG 261400Z 26015G21KT 15SM FEW020 19/12 A2984 RMK CU1 SLP104
CYYG;2002-08-26 15:00;METAR CYYG 261500Z 27016G22KT 15SM FEW025 20/12 A2983 RMK CU1 SLP103
CYYG;2002-08-26 16:00;METAR CYYG 261600Z 27017KT 15SM FEW025 20/11 A2984 RMK CU1 SLP104
CYYG;2002-08-26 17:00;METAR CYYG 261700Z 25012G20KT 15SM FEW025 FEW100 21/11 A2983 RMK CU1AC1 SLP101
CYYG;2002-08-26 18:00;METAR CYYG 261800Z 27012KT 15SM FEW025 FEW100 22/12 A2983 RMK CU1AC1
CYYG;2002-08-26 19:00;METAR CYYG 261900Z 25012KT 15SM FEW030 23/12 A2982 RMK CU1 SLP100
CYYG;2002-08-26 20:00;METAR CYYG 262000Z 24014KT 15SM FEW100 23/13 A2982 RMK AC1 SLP100
CYYG;2002-08-26 21:00;METAR CYYG 262100Z 25010G18KT 15SM FEW100 23/13 A2983 RMK AC1 SLP103
CYYG;2002-08-26 22:00;METAR CYYG 262200Z 24009KT 15SM FEW100 22/13 A2984 RMK AC1 SLP106
CYYG;2002-08-26 23:00;METAR CYYG 262300Z 24007KT 15SM FEW100 20/13 A2986 RMK AC1 SLP112
CYYG;2002-08-27 00:00;METAR CYYG 270000Z 23005KT 15SM FEW100 18/13 A2987 RMK AC1 SLP116
CYYG;2002-08-27 01:00;METAR CYYG 270100Z 23007KT 15SM FEW100 18/13 A2988 RMK AC1 SLP120
CYYG;2002-08-27 02:00;METAR CYYG 270200Z 25010G15KT 15SM FEW120 18/13 A2990 RMK AC2 SLP124
CYYG;2002-08-27 03:00;METAR CYYG 270300Z 23010KT 15SM FEW120 18/12 A2989 RMK AC2 SLP123
CYYG;2002-08-27 04:00;METAR CYYG 270400Z 22006KT 15SM FEW120 17/13 A2990 RMK AC2 SLP125
CYYG;2002-08-27 05:00;METAR CYYG 270500Z 25006KT 15SM FEW120 17/12 A2991 RMK AC2 SLP128
CYYG;2002-08-27 06:00;METAR CYYG 270600Z 24005KT 15SM SCT066 17/13 A2991 RMK AC3 SLP129
CYYG;2002-08-27 07:00;METAR CYYG 270700Z 22005KT 15SM SCT070 16/13 A2991 RMK AC3 SLP129
CYYG;2002-08-27 09:00;METAR CYYG 270900Z CCA 25007KT 15SM FEW090 SCT280 16/14 A2993 RMK AC2CI1 SLP136
CYYG;2002-08-27 09:00;METAR CYYG 270900Z 25007KT 15SM FEW090 SCT280 16/14 A2993 RMK AC2CI1
CYYG;2002-08-27 10:00;METAR CYYG 271000Z 25005KT 15SM FEW020 FEW078 BKN300 16/14 A2994 RMK CU1AC2CI1 SLP140
CYYG;2002-08-27 11:00;METAR CYYG 271100Z 27005KT 15SM FEW070 SCT093 BKN300 16/14 A2996 RMK ACC2AC1CI1 SLP147
CYYG;2002-08-27 12:00;METAR CYYG 271200Z 30007KT 15SM BKN069 BKN093 BKN300 18/14 A2998 RMK ACC5AC1CI0 SLP152
CYYG;2002-08-27 13:00;METAR CYYG 271300Z 34008KT 15SM FEW030 FEW069 BKN300 19/13 A3000 RMK CU1ACC1CI0 SLP158
CYYG;2002-08-27 14:00;METAR CYYG 271400Z 32007KT 15SM FEW040 FEW070 SCT300 20/14 A3001 RMK CU1AC1CI0 SLP163
CYYG;2002-08-27 15:00;METAR CYYG 271500Z 34009KT 15SM FEW031 FEW067 SCT300 20/13 A3003 RMK CU2AC1CI0 SLP168
CYYG;2002-08-27 16:00;METAR CYYG 271600Z 35009KT 15SM FEW031 FEW067 SCT300 20/12 A3003 RMK CU2AC1CI0 SLP170
CYYG;2002-08-27 17:00;METAR CYYG 271700Z 34008KT 15SM FEW038 FEW067 FEW300 21/11 A3004 RMK SC1AC1CI1 SLP172
CYYG;2002-08-27 18:00;METAR CYYG 271800Z 29010G15KT 15SM FEW044 FEW300 21/11 A3005 RMK SC2CI1 SLP176
CYYG;2002-08-27 19:00;METAR CYYG 271900Z 36010G15KT 15SM FEW043 FEW300 20/12 A3006 RMK CU2CI1 SLP178
CYYG;2002-08-27 20:00;METAR CYYG 272000Z 01010KT 15SM FEW058 FEW080 FEW300 19/12 A3008 RMK CU1AC1CI1 SLP187
CYYG;2002-08-27 21:00;METAR CYYG 272100Z 34008KT 15SM FEW058 FEW080 FEW300 19/12 A3010 RMK CU1AC1CI1 SLP193
CYYG;2002-08-27 22:00;METAR CYYG 272200Z 36006KT 15SM FEW080 17/12 A3012 RMK AC1 SLP198
CYYG;2002-08-27 23:00;METAR CYYG 272300Z 36002KT 15SM FEW080 16/12 A3014 RMK AC1 SLP205
CYYG;2002-08-28 00:00;METAR CYYG 280000Z 34003KT 15SM FEW080 14/11 A3017 RMK AC1 SLP216
CYYG;2002-08-28 01:00;METAR CYYG 280100Z 32004KT 15SM SKC 13/10 A3018 RMK SLP221
CYYG;2002-08-28 02:00;METAR CYYG 280200Z 32004KT 15SM SKC 13/10 A3019 RMK SLP223
CYYG;2002-08-28 03:00;METAR CYYG 280300Z 30003KT 15SM SKC 14/10 A3019 RMK SLP224
CYYG;2002-08-28 04:00;METAR CYYG 280400Z 31004KT 15SM SKC 13/10 A3020 RMK SLP227
CYYG;2002-08-28 05:00;METAR CYYG 280500Z 31004KT 15SM SKC 13/10 A3020 RMK SLP228
CYYG;2002-08-28 06:00;METAR CYYG 280600Z 31005KT 15SM SKC 13/10 A3021 RMK SLP232
CYYG;2002-08-28 07:00;METAR CYYG 280700Z 31004KT 15SM SKC 13/11 A3023 RMK SLP236
CYYG;2002-08-28 08:00;METAR CYYG 280800Z 32004KT 15SM SKC 12/11 A3024 RMK SLP241
CYYG;2002-08-28 09:00;METAR CYYG 280900Z 34006KT 15SM FEW280 12/11 A3025 RMK CI0 SLP246
CYYG;2002-08-28 10:00;METAR CYYG 281000Z 00000KT 15SM FEW015 FEW280 14/11 A3028 RMK CF1CI1 SLP254
CYYG;2002-08-28 11:00;METAR CYYG 281100Z 35004KT 15SM FEW015 SCT280 15/12 A3030 RMK CF2CI0 SLP260
CYYG;2002-08-28 12:00;METAR CYYG 281200Z 35012G17KT 15SM FEW020 SCT280 16/11 A3032 RMK CF1CI1 SLP267
CYYG;2002-08-28 13:00;METAR CYYG 281300Z 35011KT 15SM FEW022 SCT280 17/11 A3034 RMK CF1CI1 SLP276
CYYG;2002-08-28 14:00;METAR CYYG 281400Z 36010G15KT 15SM FEW028 SCT280 17/11 A3036 RMK CU1CI1 SLP281
CYYG;2002-08-28 15:00;METAR CYYG 281500Z 34011G17KT 15SM FEW020 SCT280 18/12 A3037 RMK CU2CI0 SLP284
CYYG;2002-08-28 16:00;METAR CYYG 281600Z 01011G16KT 15SM BKN021 18/12 A3038 RMK CU6 SLP287
CYYG;2002-08-28 17:00;METAR CYYG 281700Z 02012G18KT 15SM BKN024 18/12 A3039 RMK CU7 SLP290
CYYG;2002-08-28 18:00;METAR CYYG 281800Z 36008KT 15SM BKN025 18/12 A3039 RMK CU7 SLP293
CYYG;2002-08-28 19:00;METAR CYYG 281900Z 01008G15KT 15SM BKN024 BKN035 BKN280 17/12 A3040 RMK CU6SC1CI0 SLP294
CYYG;2002-08-28 20:00;METAR CYYG 282000Z 35009KT 15SM SCT024 BKN031 BKN280 18/12 A3040 RMK CU4SC2CI0 SLP295
CYYG;2002-08-28 21:00;METAR CYYG 282100Z 36008KT 15SM BKN025 BKN280 17/12 A3041 RMK SC6CI0 SLP297
CYYG;2002-08-28 22:00;METAR CYYG 282200Z 04006KT 15SM BKN025 BKN280 16/11 A3041 RMK SC6CI0 SLP300
CYYG;2002-08-28 23:00;METAR CYYG 282300Z 03006KT 15SM SCT025 BKN280 14/11 A3041 RMK SC3CI1
CYYG;2002-08-29 00:00;METAR CYYG 290000Z 00000KT 15SM FEW025 SCT280 13/11 A3043 RMK SC2CI0 SLP305
CYYG;2002-08-29 01:00;METAR CYYG 290100Z 35004KT 15SM FEW025 FEW280 10/08 A3044 RMK SC1CI0 SLP309
CYYG;2002-08-29 02:00;METAR CYYG 290200Z 04002KT 15SM SKC 10/09 A3044 RMK SLP307
CYYG;2002-08-29 03:00;METAR CYYG 290300Z 12002KT 15SM FEW250 11/10 A3042 RMK CI0 SLP303
CYYG;2002-08-29 04:00;METAR CYYG 290400Z 00000KT 15SM BKN250 11/10 A3042 RMK CI1 SLP303
CYYG;2002-08-29 05:00;METAR CYYG 290500Z 00000KT 15SM BKN250 10/09 A3041 RMK CI2 SLP299
CYYG;2002-08-29 06:00;METAR CYYG 290600Z 00000KT 15SM BKN250 10/09 A3041 RMK CI2 SLP297
CYYG;2002-08-29 07:00;METAR CYYG 290700Z 00000KT 15SM BKN250 09/08 A3041 RMK CI2 SLP298
CYYG;2002-08-29 08:00;METAR CYYG 290800Z 00000KT 15SM SCT250 09/08 A3040 RMK CI1 SLP296
CYYG;2002-08-29 09:00;METAR CYYG 290900Z 13002KT 15SM MIFG FEW030 BKN250 10/09 A3041 RMK SC1CI1 SLP297
CYYG;2002-08-29 10:00;METAR CYYG 291000Z 00000KT 15SM MIFG FEW030 BKN250 08/08 A3042 RMK SC2CI2 SLP302
CYYG;2002-08-29 11:00;METAR CYYG 291100Z 10002KT 15SM FEW030 BKN250 13/13 A3041 RMK SC1CI2 SLP299
CYYG;2002-08-29 12:00;METAR CYYG 291200Z 14002KT 15SM FEW018 BKN250 15/13 A3041 RMK SC1CI4
CYYG;2002-08-29 13:00;METAR CYYG 291300Z 19006KT 15SM FEW016 BKN250 17/14 A3040 RMK SC2CI3 SLP294
CYYG;2002-08-29 14:00;METAR CYYG 291400Z 18012KT 15SM BKN018 BKN250 17/14 A3038 RMK SC6CI1 SLP288
CYYG;2002-08-29 15:00;METAR CYYG 291500Z 19010KT 15SM BKN018 BKN029 BKN250 19/14 A3037 RMK SC5SC1CI2 SLP284
CYYG;2002-08-29 16:00;METAR CYYG 291600Z 20009KT 15SM SCT018 BKN250 19/14 A3034 RMK SC4CI2 SLP274
CYYG;2002-08-29 17:00;METAR CYYG 291700Z 18009KT 15SM FEW020 BKN250 20/14 A3032 RMK SC2CI4 SLP267
CYYG;2002-08-29 18:00;METAR CYYG 291800Z 17008KT 15SM FEW020 BKN250 20/14 A3029 RMK SC1CI4 SLP259
CYYG;2002-08-29 19:00;METAR CYYG 291900Z 20008KT 15SM FEW020 BKN250 20/14 A3026 RMK SC1CI4 TR SC SLP249
CYYG;2002-08-29 20:00;METAR CYYG 292000Z CCA 20009KT 15SM FEW026 OVC250 21/14 A3025 RMK SC1CI6 TR SC SLP244
CYYG;2002-08-29 21:00;METAR CYYG 292100Z 18006KT 15SM FEW024 OVC250 20/14 A3024 RMK SC1CI7 TR SC SLP240
CYYG;2002-08-29 22:00;METAR CYYG 292200Z 17006KT 15SM OVC250 19/14 A3022 RMK CS7 SLP234
CYYG;2002-08-29 23:00;METAR CYYG 292300Z 19006KT 15SM OVC250 18/14 A3021 RMK CS7 SLP232
CYYG;2002-08-30 00:00;METAR CYYG 300000Z 24005KT 15SM OVC240 18/14 A3021 RMK CS8 SLP231
CYYG;2002-08-30 01:00;METAR CYYG 300100Z 21006KT 15SM OVC200 18/14 A3021 RMK CS8 SLP231
CYYG;2002-08-30 02:00;METAR CYYG 300200Z 20008KT 15SM OVC200 18/14 A3020 RMK CS8 SLP227
CYYG;2002-08-30 03:00;METAR CYYG 300300Z 20009KT 15SM OVC150 18/14 A3018 RMK AS8 SLP221
CYYG;2002-08-30 04:00;METAR CYYG 300400Z 22004KT 15SM FEW030 OVC140 17/14 A3017 RMK SC1AS7 SLP217
CYYG;2002-08-30 05:00;METAR CYYG 300500Z 22008KT 15SM OVC150 18/14 A3015 RMK AS8 SLP211
CYYG;2002-08-30 06:00;METAR CYYG 300600Z 22006KT 15SM OVC140 17/14 A3013 RMK AS8 SLP204
CYYG;2002-08-30 07:00;METAR CYYG 300700Z 22007KT 15SM OVC120 17/13 A3011 RMK AS8 SLP197
CYYG;2002-08-30 08:00;METAR CYYG 300800Z 24007KT 15SM OVC100 17/14 A3010 RMK AS8 SLP194
CYYG;2002-08-30 09:00;METAR CYYG 300900Z 23006KT 15SM OVC130 17/13 A3012 RMK AC8 SLP200
CYYG;2002-08-30 10:00;METAR CYYG 301000Z 22006KT 15SM OVC130 17/14 A3013 RMK AC8 SLP202
CYYG;2002-08-30 11:00;METAR CYYG 301100Z 23006KT 15SM FEW011 BKN150 OVC250 17/14 A3012 RMK SC1AC6CI2 TR SC SLP200
CYYG;2002-08-30 12:00;METAR CYYG 301200Z 23008KT 15SM BKN160 BKN250 17/14 A3012 RMK AC6CI2 SLP198
CYYG;2002-08-30 13:00;METAR CYYG 301300Z 25011KT 15SM FEW014 BKN160 BKN250 18/15 A3011 RMK SC1AC5CI2 SLP197
CYYG;2002-08-30 14:00;METAR CYYG 301400Z 24011KT 15SM FEW019 SCT160 BKN250 19/14 A3010 RMK SC1AC4CI3 TR SC SLP193
CYYG;2002-08-30 15:00;METAR CYYG 301500Z 26007KT 15SM FEW018 BKN170 BKN250 18/14 A3009 RMK CU1AC5CI2 SLP189
CYYG;2002-08-30 16:00;METAR CYYG 301600Z 29007KT 15SM FEW022 BKN180 OVC250 19/14 A3009 RMK CU1AC6CI2 SLP188
CYYG;2002-08-30 17:00;METAR CYYG 301700Z 28009G15KT 15SM SCT022 BKN180 OVC250 20/14 A3009 RMK SC4AC3CI1 SLP191
CYYG;2002-08-30 18:00;METAR CYYG 301800Z 32005KT 15SM BKN024 OVC180 20/14 A3010 RMK SC5AC3 SLP193
CYYG;2002-08-30 19:00;METAR CYYG 301900Z 36011KT 15SM FEW016 BKN078 OVC180 19/14 A3012 RMK SC2AS6AC1 SLP198
CYYG;2002-08-30 20:00;METAR CYYG 302000Z 36008KT 15SM SCT017 OVC062 17/14 A3014 RMK SC3SC5 SLP205
CYYG;2002-08-30 21:00;METAR CYYG 302100Z CCA 01014KT 15SM VCSH OVC009 16/14 A3015 RMK SC8 CIG RAG SLP211
CYYG;2002-08-30 22:00;METAR CYYG 302200Z 01010G17KT 5SM -RA BR BKN008 OVC013 14/13 A3020 RMK SF6SC2 SLP227
CYYG;2002-08-30 23:00;METAR CYYG 302300Z 01012KT 15SM -RA BKN013 OVC021 14/12 A3023 RMK SC6SC2 SLP235
CYYG;2002-08-31 00:00;METAR CYYG 310000Z 01014G19KT 15SM OVC016 13/11 A3025 RMK SC8 SLP245
CYYG;2002-08-31 01:00;METAR CYYG 310100Z 02012G17KT 15SM BKN023 13/09 A3028 RMK SC6 SLP254
CYYG;2002-08-31 02:00;METAR CYYG 310200Z 01009G15KT 15SM SCT028 12/07 A3030 RMK SC3 SLP262
CYYG;2002-08-31 03:00;METAR CYYG 310300Z 03011KT 15SM FEW030 11/05 A3032 RMK SC2 SLP268
CYYG;2002-08-31 04:00;METAR CYYG 310400Z 02008KT 15SM SKC 11/04 A3035 RMK SLP278
CYYG;2002-08-31 05:00;METAR CYYG 310500Z 02010G15KT 15SM SKC 12/02 A3036 RMK SLP282
CYYG;2002-08-31 06:00;METAR CYYG 310600Z 01007KT 15SM FEW048 12/04 A3038 RMK SC2 SLP288
CYYG;2002-08-31 07:00;METAR CYYG 310700Z 36006KT 15SM SCT050 12/04 A3039 RMK SC3 SLP293
CYYG;2002-08-31 08:00;METAR CYYG 310800Z 02009KT 15SM FEW055 11/02 A3041 RMK SC2 SLP298
CYYG;2002-08-31 09:00;METAR CYYG 310900Z 02010KT 15SM FEW054 12/03 A3043 RMK SC2 SLP306
CYYG;2002-08-31 10:00;METAR CYYG 311000Z 01011G17KT 15SM FEW055 12/02 A3046 RMK SC2 SLP315
CYYG;2002-08-31 11:00;METAR CYYG 311100Z 36011G19KT 15SM FEW055 13/02 A3049 RMK SC2 SLP326
CYYG;2002-08-31 12:00;METAR CYYG 311200Z 03017KT 15SM FEW050 14/02 A3052 RMK SC2 SLP337
CYYG;2002-08-31 13:00;METAR CYYG 311300Z 02014G22KT 15SM FEW050 15/03 A3054 RMK SC1 SLP344
CYYG;2002-08-31 14:00;METAR CYYG 311400Z 01013G20KT 15SM FEW050 15/04 A3056 RMK SC1 SLP350
CYYG;2002-08-31 15:00;METAR CYYG 311500Z 02017KT 15SM FEW050 15/04 A3057 RMK SC1 SLP353
CYYG;2002-08-31 16:00;METAR CYYG 311600Z 02013G20KT 15SM FEW050 16/04 A3058 RMK SC1 SLP355
CYYG;2002-08-31 17:00;METAR CYYG 311700Z 36008G16KT 15SM FEW050 15/03 A3059 RMK SC1 SLP359
CYYG;2002-08-31 18:00;METAR CYYG 311800Z 01010G15KT 15SM FEW050 15/04 A3058 RMK SC1 SLP355
CYYG;2002-08-31 19:00;METAR CYYG 311900Z 01010KT 15SM FEW050 15/04 A3058 RMK CU1 SLP356
CYYG;2002-08-31 20:00;METAR CYYG 312000Z 34006KT 15SM FEW050 15/05 A3058 RMK CU1 SLP356
CYYG;2002-08-31 21:00;METAR CYYG 312100Z 34008KT 15SM FEW250 14/05 A3058 RMK CI0 SLP356
CYYG;2002-08-31 22:00;METAR CYYG 312200Z 34003KT 15SM FEW250 13/05 A3058 RMK CI0 SLP356
CYYG;2002-08-31 23:00;METAR CYYG 312300Z 29002KT 15SM SCT250 11/04 A3058 RMK CI1 SLP357
CYYG;2002-09-01 00:00;METAR CYYG 010000Z 29002KT 15SM FEW250 11/04 A3058 RMK CI0 SLP358
CYYG;2002-09-01 01:00;METAR CYYG 010100Z 21003KT 15SM FEW250 09/03 A3058 RMK CI0 SLP357
CYYG;2002-09-01 02:00;METAR CYYG 010200Z 22005KT 15SM FEW250 10/06 A3058 RMK CI0 SLP355
CYYG;2002-09-01 03:00;METAR CYYG 010300Z 21005KT 15SM FEW250 10/05 A3057 RMK CI0 SLP352
CYYG;2002-09-01 04:00;METAR CYYG 010400Z 20006KT 15SM FEW250 11/05 A3055 RMK CI0 SLP347
CYYG;2002-09-01 05:00;METAR CYYG 010500Z 22006KT 15SM FEW250 10/07 A3053 RMK CI0 SLP341
CYYG;2002-09-01 06:00;METAR CYYG 010600Z 24005KT 15SM SKC 09/06 A3052 RMK SLP336
CYYG;2002-09-01 08:00;METAR CYYG 010800Z CCA 24006KT 15SM FEW250 09/06 A3051 RMK CI0 SLP333
CYYG;2002-09-01 10:00;METAR CYYG 011000Z 22005KT 15SM FEW250 10/07 A3051 RMK CI1 SLP332
CYYG;2002-09-01 11:00;METAR CYYG 011100Z 24005KT 15SM SCT250 12/09 A3050 RMK CI1 SLP331
CYYG;2002-09-01 12:00;METAR CYYG 011200Z 25006KT 15SM BKN250 14/10 A3050 RMK CI1 SLP328
CYYG;2002-09-01 13:00;METAR CYYG 011300Z 25011KT 15SM BKN250 16/08 A3049 RMK CI1 SLP325
CYYG;2002-09-01 14:00;METAR CYYG 011400Z 26011KT 15SM BKN250 17/07 A3047 RMK CI1 SLP319
CYYG;2002-09-01 15:00;METAR CYYG 011500Z 25009KT 15SM BKN250 18/08 A3045 RMK CI1 SLP311
CYYG;2002-09-01 16:00;METAR CYYG 011600Z 25009KT 15SM BKN250 19/08 A3043 RMK CI1 SLP304
CYYG;2002-09-01 17:00;METAR CYYG 011700Z 23013KT 15SM BKN250 19/06 A3040 RMK CI1 SLP294
CYYG;2002-09-01 18:00;METAR CYYG 011800Z 22013KT 15SM BKN250 20/07 A3036 RMK CI1 SLP283
CYYG;2002-09-01 19:00;METAR CYYG 011900Z 24013KT 15SM SCT250 21/06 A3035 RMK CI1 SLP277
CYYG;2002-09-01 20:00;METAR CYYG 012000Z 23010G17KT 15SM FEW250 21/05 A3033 RMK CI1 SLP270
CYYG;2002-09-01 21:00;METAR CYYG 012100Z 22012KT 15SM FEW250 21/08 A3031 RMK CI0 SLP266
CYYG;2002-09-01 22:00;METAR CYYG 012200Z 23009KT 15SM FEW250 19/09 A3030 RMK CI0 SLP261
CYYG;2002-09-02 00:00;METAR CYYG 020000Z 25010G16KT 15SM FEW250 16/05 A3031 RMK CI0 SLP265
CYYG;2002-09-02 01:00;METAR CYYG 020100Z 24011KT 15SM FEW250 15/04 A3031 RMK CI0 SLP263
CYYG;2002-09-02 02:00;METAR CYYG 020200Z 24009KT 15SM SKC 15/06 A3030 RMK SLP261
CYYG;2002-09-02 03:00;METAR CYYG 020300Z 23009KT 15SM SKC 14/07 A3029 RMK SLP257
CYYG;2002-09-02 04:00;METAR CYYG 020400Z 24010KT 15SM SKC 14/09 A3028 RMK SLP254
CYYG;2002-09-02 05:00;METAR CYYG 020500Z 24009KT 15SM SKC 13/10 A3028 RMK SLP254
CYYG;2002-09-02 06:00;METAR CYYG 020600Z 23007KT 15SM SKC 13/10 A3028 RMK SLP253
CYYG;2002-09-02 07:00;METAR CYYG 020700Z 23008KT 15SM SKC 13/11 A3027 RMK SLP250
CYYG;2002-09-02 08:00;METAR CYYG 020800Z 24007KT 15SM FEW250 12/11 A3027 RMK CI1 SLP250
CYYG;2002-09-02 09:00;METAR CYYG 020900Z 23007KT 15SM FEW250 12/11 A3026 RMK CI0 SLP249
CYYG;2002-09-02 10:00;METAR CYYG 021000Z 23008KT 15SM FEW010 BKN250 13/11 A3026 RMK SC1CI2 SLP248
CYYG;2002-09-02 11:00;METAR CYYG 021100Z 24009KT 15SM FEW010 BKN250 14/12 A3025 RMK SC1CI2 SLP246
CYYG;2002-09-02 12:00;METAR CYYG 021200Z 23012KT 15SM FEW010 BKN250 15/12 A3025 RMK SC1CI2 SLP244
CYYG;2002-09-02 13:00;METAR CYYG 021300Z 23012G17KT 15SM FEW012 BKN250 16/12 A3024 RMK CF1CI2 COTRA SLP242
CYYG;2002-09-02 14:00;METAR CYYG 021400Z 22012G17KT 15SM FEW120 BKN250 17/11 A3023 RMK AC1CI3 SLP238
CYYG;2002-09-02 15:00;METAR CYYG 021500Z 23013G18KT 15SM BKN250 17/11 A3024 RMK CS5 HALO SLP240
CYYG;2002-09-02 16:00;METAR CYYG 021600Z 23015G20KT 15SM BKN250 18/10 A3023 RMK CS6 HALO SLP237
CYYG;2002-09-02 17:00;METAR CYYG 021700Z 22010G17KT 15SM OVC250 19/10 A3021 RMK CS6 SLP232
CYYG;2002-09-02 18:00;METAR CYYG 021800Z 24011G16KT 15SM OVC250 20/10 A3020 RMK CS6 SLP226
CYYG;2002-09-02 19:00;METAR CYYG 021900Z 22013KT 15SM FEW220 OVC250 20/10 A3017 RMK CC2CS4 SLP219
CYYG;2002-09-02 20:00;METAR CYYG 022000Z 22014KT 15SM FEW220 OVC250 20/09 A3017 RMK CC2CS4 SLP216
CYYG;2002-09-02 21:00;METAR CYYG 022100Z 23012G17KT 15SM FEW160 SCT220 OVC260 19/09 A3016 RMK AC2CC2CI2 SLP215
CYYG;2002-09-02 22:00;METAR CYYG 022200Z 21005KT 15SM FEW160 SCT220 OVC260 18/08 A3016 RMK AC2CC2CI2 SLP213
CYYG;2002-09-02 23:00;METAR CYYG 022300Z 22005KT 15SM SCT220 BKN260 17/08 A3016 RMK CC4CI1 SLP215
CYYG;2002-09-03 00:00;METAR CYYG 030000Z 22007KT 15SM SCT220 OVC260 16/09 A3017 RMK CC4CI1 SLP216
CYYG;2002-09-03 01:00;METAR CYYG 030100Z 22006KT 15SM BKN220 15/11 A3017 RMK CI5 SLP219
CYYG;2002-09-03 02:00;METAR CYYG 030200Z 22009KT 15SM BKN220 16/11 A3017 RMK CI5 SLP217
CYYG;2002-09-03 03:00;METAR CYYG 030300Z 23005KT 15SM BKN220 15/11 A3017 RMK CI5 SLP219
CYYG;2002-09-03 04:00;METAR CYYG 030400Z 22006KT 15SM BKN240 14/11 A3017 RMK CI5 SLP219
CYYG;2002-09-03 05:00;METAR CYYG 030500Z 21008KT 15SM SCT240 14/11 A3017 RMK CI3 SLP217
CYYG;2002-09-03 06:00;METAR CYYG 030600Z 22007KT 15SM FEW240 14/11 A3016 RMK CI2 SLP213
CYYG;2002-09-03 07:00;METAR CYYG 030700Z 23005KT 15SM FEW240 13/11 A3016 RMK CI1 SLP212
CYYG;2002-09-03 08:00;METAR CYYG 030800Z 23002KT 15SM FEW240 13/11 A3016 RMK CI2 SLP212
CYYG;2002-09-03 09:00;METAR CYYG 030900Z 21004KT 15SM BKN220 14/12 A3016 RMK CI5 SLP212
CYYG;2002-09-03 10:00;METAR CYYG 031000Z 22007KT 15SM FEW025 SCT150 BKN210 14/12 A3017 RMK SC1AC3CS3 SLP217
CYYG;2002-09-03 11:00;METAR CYYG 031100Z 19003KT 15SM FEW025 SCT170 BKN250 14/13 A3018 RMK SC1AC3CS2 SLP219
CYYG;2002-09-03 12:00;METAR CYYG 031200Z 21007KT 15SM FEW012 BKN170 BKN250 17/14 A3018 RMK SC1AC4CS2 SLP221
CYYG;2002-09-03 13:00;METAR CYYG 031300Z 20009KT 15SM BKN011 BKN170 17/15 A3018 RMK SC6AC1 SLP221
CYYG;2002-09-03 14:00;METAR CYYG 031400Z 20007KT 15SM BKN012 BKN170 19/16 A3017 RMK SC6AC2 SLP218
CYYG;2002-09-03 15:00;METAR CYYG 031500Z 19009KT 15SM SCT012 BKN160 20/16 A3017 RMK SC4AC2 SLP215
CYYG;2002-09-03 17:00;METAR CYYG 031700Z 18011KT 15SM FEW020 BKN160 BKN250 22/17 A3014 RMK CU2AC4CI0 SLP208
CYYG;2002-09-03 18:00;METAR CYYG 031800Z 18010KT 15SM FEW028 BKN120 23/17 A3013 RMK CU1AC6 SLP203
CYYG;2002-09-03 19:00;METAR CYYG 031900Z 18010KT 15SM FEW030 BKN110 23/16 A3012 RMK CU1AC6 SLP201
CYYG;2002-09-03 20:00;METAR CYYG 032000Z 20007KT 15SM FEW028 SCT110 BKN160 23/16 A3012 RMK CU1AC3AC2 SLP201
CYYG;2002-09-03 21:00;METAR CYYG 032100Z 18007KT 15SM FEW028 FEW100 BKN160 23/15 A3009 RMK CU1AC2AC2 SLP191
CYYG;2002-09-03 22:00;METAR CYYG 032200Z 17011KT 15SM FEW120 SCT160 22/14 A3010 RMK AC2AC2 SLP192
CYYG;2002-09-03 23:00;METAR CYYG 032300Z 17007KT 15SM FEW120 SCT160 20/14 A3011 RMK AC2AC2 SLP195
CYYG;2002-09-04 00:00;METAR CYYG 040000Z 18009KT 15SM FEW120 SCT160 19/15 A3012 RMK AC2AC2 SLP199
CYYG;2002-09-04 01:00;METAR CYYG 040100Z 19011KT 15SM FEW120 SCT160 19/15 A3012 RMK AC1AC3 SLP201
CYYG;2002-09-04 02:00;METAR CYYG 040200Z 18009KT 15SM SCT130 18/14 A3012 RMK AC4 SLP200
CYYG;2002-09-04 03:00;METAR CYYG 040300Z 18010KT 15SM SCT130 17/13 A3011 RMK AC3 SLP196
CYYG;2002-09-04 04:00;METAR CYYG 040400Z 17008KT 15SM SCT120 17/14 A3011 RMK AC3 SLP195
CYYG;2002-09-04 05:00;METAR CYYG 040500Z 17007KT 15SM FEW120 17/14 A3010 RMK AC2 SLP193
CYYG;2002-09-04 06:00;METAR CYYG 040600Z 16006KT 15SM FEW120 16/15 A3009 RMK AC2 SLP189
CYYG;2002-09-04 07:00;METAR CYYG 040700Z 16008KT 15SM FEW050 FEW110 FEW120 SCT190 17/15 A3007 RMK SC1AC1AC1AC2 SLP183
CYYG;2002-09-04 08:00;METAR CYYG 040800Z 16009KT 15SM FEW050 FEW080 SCT120 17/15 A3006 RMK SC1AC1AC2 SLP180
CYYG;2002-09-04 09:00;METAR CYYG 040900Z 16008KT 15SM FEW062 FEW080 BKN130 17/15 A3007 RMK SC1AC2AC4 SLP182
CYYG;2002-09-04 10:00;METAR CYYG 041000Z 16008KT 15SM FEW064 BKN079 17/15 A3006 RMK SC2AC3 SLP179
CYYG;2002-09-04 11:00;METAR CYYG 041100Z 16010G15KT 15SM FEW079 FEW160 18/15 A3006 RMK AC1AC2 SLP178
CYYG;2002-09-04 12:00;METAR CYYG 041200Z 16015KT 15SM FEW010 FEW160 18/15 A3005 RMK CF1AC2 SLP175
CYYG;2002-09-04 13:00;METAR CYYG 041300Z 16013G18KT 15SM FEW011 FEW130 BKN190 18/15 A3005 RMK CF1AC2AC1 SLP175
CYYG;2002-09-04 14:00;METAR CYYG 041400Z 17016KT 15SM FEW015 FEW130 FEW180 20/15 A3004 RMK CU1AC1AC1 SLP174
CYYG;2002-09-04 15:00;METAR CYYG 041500Z 17016KT 15SM FEW015 FEW180 FEW300 21/15 A3003 RMK CF1AC2CI1 SLP169
CYYG;2002-09-04 16:00;METAR CYYG 041600Z 16014KT 15SM FEW020 FEW180 SCT300 23/14 A3001 RMK CF1AC2CI1 SLP161
CYYG;2002-09-04 17:00;METAR CYYG 041700Z 17013KT 15SM FEW070 FEW180 SCT300 23/12 A2999 RMK AC1AC2CI1 SLP155
CYYG;2002-09-04 18:00;METAR CYYG 041800Z 17014G19KT 15SM FEW030 FEW180 SCT300 25/12 A2997 RMK SC1AC2CI1 SLP148
CYYG;2002-09-04 19:00;METAR CYYG 041900Z 16014KT 15SM FEW030 FEW100 BKN220 25/13 A2995 RMK SC1AC1CC4 SLP141
CYYG;2002-09-04 20:00;METAR CYYG 042000Z 18012KT 15SM FEW030 BKN220 BKN300 23/15 A2993 RMK SC1CC4CI0 SLP137
CYYG;2002-09-04 21:00;METAR CYYG 042100Z 19015KT 15SM FEW050 SCT220 SCT300 23/15 A2992 RMK SC1CC2CI1 SLP133
CYYG;2002-09-04 22:00;METAR CYYG 042200Z 16009KT 15SM FEW040 SCT120 SCT220 21/15 A2991 RMK SC1AC2CC1 SLP130
CYYG;2002-09-04 23:00;METAR CYYG 042300Z 16011G17KT 15SM BKN120 BKN220 OVC300 20/16 A2990 RMK AC5CC1CI1 SLP127
CYYG;2002-09-05 00:00;METAR CYYG 050000Z 16011G17KT 15SM BKN120 BKN180 20/16 A2990 RMK AC5AC2 SLP124
CYYG;2002-09-05 01:00;METAR CYYG 050100Z 16015KT 15SM SCT120 BKN170 19/16 A2989 RMK AC3AC2 SLP122
CYYG;2002-09-05 02:00;METAR CYYG 050200Z 15011KT 15SM SCT020 BKN130 BKN190 19/16 A2986 RMK SC3AC2AC2 SLP113
CYYG;2002-09-05 03:00;METAR CYYG 050300Z 16012KT 15SM BKN013 OVC130 19/16 A2984 RMK SF6AC2 SLP103
CYYG;2002-09-05 04:00;METAR CYYG 050400Z 16011G16KT 15SM OVC008 19/16 A2981 RMK SF8 SLP095
CYYG;2002-09-05 05:00;METAR CYYG 050500Z 15011KT 15SM BKN007 OVC076 18/16 A2978 RMK SF7AC1 SLP084
CYYG;2002-09-05 06:00;METAR CYYG 050600Z 14007KT 15SM BKN007 OVC040 18/17 A2976 RMK SF7SC1 SLP076
CYYG;2002-09-05 06:00;METAR CYYG 050600Z CCA 14007KT 15SM -SHRA BKN007 OVC040 18/17 A2976 RMK SF7SC1 SLP076
CYYG;2002-09-05 06:00;METAR CYYG 050600Z CCB 14007KT 15SM -SHRA BKN007 OVC040 18/17 A2976 RMK
CYYG;2002-09-05 07:00;METAR CYYG 050700Z CCA 14008KT 15SM -SHRA BKN007 OVC018 18/17 A2971 RMK SF6SC2 SLP062
CYYG;2002-09-05 09:00;METAR CYYG 050900Z 30004KT 10SM SHRA BKN007 OVC038 17/16 A2971 RMK SF6SC2 SLP060
CYYG;2002-09-05 10:00;METAR CYYG 051000Z 09009KT 5SM SHRA BR BKN007 OVC028 17/16 A2966 RMK SF6SC2 RERA PRESFR SLP042
CYYG;2002-09-05 11:00;METAR CYYG 051100Z 16002KT 15SM -SHRA FEW007 BKN031 17/16 A2966 RMK SF2SC5 SLP045
CYYG;2002-09-05 12:00;METAR CYYG 051200Z 00000KT 15SM -SHRA FEW007 BKN021 18/17 A2966 RMK SF1SC6 SLP042
CYYG;2002-09-05 13:00;METAR CYYG 051300Z 26008KT 15SM SCT009 BKN024 19/18 A2965 RMK SF3SC4 SLP041
CYYG;2002-09-05 14:00;METAR CYYG 051400Z 29011KT 15SM BKN023 20/17 A2965 RMK SC7 SLP039
CYYG;2002-09-05 15:00;METAR CYYG 051500Z 29012KT 15SM BKN020 20/17 A2964 RMK SC7 SLP036
CYYG;2002-09-05 16:00;METAR CYYG 051600Z 33008KT 15SM BKN021 19/16 A2964 RMK SC7 SLP037
CYYG;2002-09-05 17:00;METAR CYYG 051700Z 33008KT 15SM -SHRA FEW010 BKN024 17/15 A2965 RMK SF2SC6 SLP039
CYYG;2002-09-05 18:00;METAR CYYG 051800Z 32007KT 15SM BKN020 18/15 A2963 RMK SC7 SLP035
CYYG;2002-09-05 19:00;METAR CYYG 051900Z 32011G16KT 15SM BKN025 BKN060 17/14 A2964 RMK SC6SC2 SLP037
CYYG;2002-09-05 20:00;METAR CYYG 052000Z 32009G16KT 15SM -SHRA BKN029 17/13 A2965 RMK SC7 SLP040
CYYG;2002-09-05 21:00;METAR CYYG 052100Z 31007KT 15SM BKN030 16/13 A2967 RMK SC6 SLP047
CYYG;2002-09-05 22:00;METAR CYYG 052200Z 31011G16KT 15SM SCT030 BKN056 16/11 A2969 RMK SC4SC3 SLP055
CYYG;2002-09-05 23:00;METAR CYYG 052300Z 30007KT 15SM FEW028 BKN049 15/09 A2972 RMK SC2SC5 SLP065
CYYG;2002-09-06 00:00;METAR CYYG 060000Z 30008KT 15SM FEW025 BKN056 15/09 A2974 RMK SC2SC6 SLP072
CYYG;2002-09-06 01:00;METAR CYYG 060100Z 28007KT 15SM FEW025 BKN060 14/08 A2975 RMK SC2SC6 SLP074
CYYG;2002-09-06 02:00;METAR CYYG 060200Z CCA 29007KT 15SM FEW025 BKN065 14/08 A2976 RMK SC1SC6
CYYG;2002-09-06 03:00;METAR CYYG 060300Z 28007KT 15SM SCT065 12/08 A2976 RMK SC4 SLP077
CYYG;2002-09-06 04:00;METAR CYYG 060400Z 28008KT 15SM FEW060 11/07 A2976 RMK SC2 SLP077
CYYG;2002-09-06 05:00;METAR CYYG 060500Z 29009KT 15SM FEW060 11/07 A2975 RMK SC2 SLP076
CYYG;2002-09-06 06:00;METAR CYYG 060600Z 27007KT 15SM FEW060 10/06 A2975 RMK SC1 SLP076
CYYG;2002-09-06 07:00;METAR CYYG 060700Z 26007KT 15SM FEW060 09/06 A2976 RMK SC1 SLP078
CYYG;2002-09-06 08:00;METAR CYYG 060800Z 27006KT 15SM FEW030 09/06 A2977 RMK SC1 SLP081
CYYG;2002-09-06 09:00;METAR CYYG 060900Z 27006KT 15SM FEW028 09/06 A2979 RMK SC2 SLP087
CYYG;2002-09-06 10:00;METAR CYYG 061000Z 28007KT 15SM FEW028 09/07 A2980 RMK SC2 SLP092
CYYG;2002-09-06 11:00;METAR CYYG 061100Z 27007KT 15SM FEW030 11/07 A2982 RMK SC2 SLP100
CYYG;2002-09-06 12:00;METAR CYYG 061200Z 29011G16KT 15SM SCT030 13/08 A2984 RMK SC3 SLP104
CYYG;2002-09-06 13:00;METAR CYYG 061300Z 30012KT 15SM BKN029 14/09 A2986 RMK SC6 SLP112
CYYG;2002-09-06 14:00;METAR CYYG 061400Z 31010G16KT 15SM BKN027 14/08 A2987 RMK SC7 SLP117
CYYG;2002-09-06 15:00;METAR CYYG 061500Z 30009KT 15SM BKN027 14/09 A2989 RMK SC7 SLP123
CYYG;2002-09-06 16:00;METAR CYYG 061600Z 29012KT 15SM BKN026 15/09 A2990 RMK SC7 SLP127
CYYG;2002-09-06 17:00;METAR CYYG 061700Z 32008KT 15SM BKN032 15/09 A2992 RMK SC7 SLP133
CYYG;2002-09-06 18:00;METAR CYYG 061800Z 32010KT 15SM BKN034 16/10 A2993 RMK SC7 SLP134
CYYG;2002-09-06 19:00;METAR CYYG 061900Z 31010G17KT 15SM BKN040 16/09 A2994 RMK SC6 SLP138
CYYG;2002-09-06 20:00;METAR CYYG 062000Z 35007KT 15SM SCT040 17/10 A2994 RMK SC4 SLP140
CYYG;2002-09-06 21:00;METAR CYYG 062100Z 34007KT 15SM FEW040 17/10 A2996 RMK SC2 SLP145
CYYG;2002-09-06 22:00;METAR CYYG 062200Z 34005KT 15SM FEW035 FEW050 FEW250 15/10 A2999 RMK SC1SC1CI1 SLP157
CYYG;2002-09-06 23:00;METAR CYYG 062300Z 00000KT 15SM FEW050 FEW250 13/09 A3001 RMK SC1CI1 SLP162
CYYG;2002-09-07 00:00;METAR CYYG 070000Z 00000KT 15SM FEW250 12/09 A3001 RMK CI1 SLP165
CYYG;2002-09-07 01:00;METAR CYYG 070100Z 29002KT 15SM FEW250 10/09 A3004 RMK CI1 SLP172
CYYG;2002-09-07 02:00;METAR CYYG 070200Z 31002KT 15SM SKC 09/08 A3005 RMK SLP176
CYYG;2002-09-07 03:00;METAR CYYG 070300Z 26004KT 15SM BKN070 13/09 A3006 RMK AC6 SLP180
CYYG;2002-09-07 04:00;METAR CYYG 070400Z 25005KT 15SM FEW070 OVC100 13/10 A3006 RMK AC2AC6 SLP180
CYYG;2002-09-07 05:00;METAR CYYG 070500Z 28007KT 15SM OVC070 15/11 A3007 RMK AC8 SLP184
CYYG;2002-09-07 06:00;METAR CYYG 070600Z 34005KT 15SM FEW070 OVC086 14/10 A3007 RMK AC2AC6 SLP183
CYYG;2002-09-07 07:00;METAR CYYG 070700Z 34004KT 15SM OVC069 14/10 A3010 RMK AC8 SLP192
CYYG;2002-09-07 08:00;METAR CYYG 070800Z 31004KT 15SM OVC060 14/10 A3011 RMK SC8 SLP196
CYYG;2002-09-07 09:00;METAR CYYG 070900Z 29005KT 15SM BKN062 OVC250 14/09 A3013 RMK SC7CI0 SLP204
CYYG;2002-09-07 10:00;METAR CYYG 071000Z 28004KT 15SM BKN062 BKN250 14/10 A3014 RMK SC6CI1 SLP209
CYYG;2002-09-07 11:00;METAR CYYG 071100Z 29005KT 15SM BKN059 BKN250 14/10 A3017 RMK SC6CI1 SLP218
CYYG;2002-09-07 12:00;METAR CYYG 071200Z 30005KT 15SM BKN062 15/11 A3019 RMK SC7 SLP224
CYYG;2002-09-07 13:00;METAR CYYG 071300Z 31005KT 15SM BKN068 16/11 A3020 RMK AC7 SLP226
CYYG;2002-09-07 14:00;METAR CYYG 071400Z 34006KT 15SM BKN057 17/11 A3021 RMK SC6 SLP232
CYYG;2002-09-07 15:00;METAR CYYG 071500Z 01006KT 15SM SCT060 BKN250 18/11 A3021 RMK SC3CI1 SLP231
CYYG;2002-09-07 16:00;METAR CYYG 071600Z 33002KT 15SM SCT060 BKN250 19/12 A3021 RMK SC3CI1 SLP230
CYYG;2002-09-07 17:00;METAR CYYG 071700Z 02009KT 15SM BKN068 BKN250 18/11 A3022 RMK AC6CI1 SLP233
CYYG;2002-09-07 18:00;METAR CYYG 071800Z 02006KT 15SM SCT068 BKN250 17/11 A3023 RMK AC4CI2 SLP236
CYYG;2002-09-07 19:00;METAR CYYG 071900Z 34005KT 15SM SCT060 BKN250 18/11 A3024 RMK SC4CI2 SLP241
CYYG;2002-09-07 20:00;METAR CYYG 072000Z 02008KT 15SM SCT060 BKN250 18/11 A3025 RMK SC3CI2 SLP245
CYYG;2002-09-07 21:00;METAR CYYG 072100Z 02005KT 15SM BKN057 BKN250 16/10 A3027 RMK SC5CI1 SLP250
CYYG;2002-09-07 22:00;METAR CYYG 072200Z 06004KT 15SM FEW055 FEW075 BKN250 15/10 A3027 RMK SC1AC1CI2 SLP250
CYYG;2002-09-07 23:00;METAR CYYG 072300Z 04003KT 15SM FEW075 SCT120 BKN220 13/10 A3026 RMK AC1AC3CI2 SLP247
CYYG;2002-09-08 00:00;METAR CYYG 080000Z 14002KT 15SM BKN045 OVC170 14/10 A3028 RMK SC6AC2 SLP256
CYYG;2002-09-08 01:00;METAR CYYG 080100Z 13004KT 15SM FEW045 SCT170 OVC210 13/10 A3028 RMK SC2AC2CI3 SLP256
CYYG;2002-09-08 02:00;METAR CYYG 080200Z 09003KT 15SM BKN052 BKN110 OVC200 13/11 A3028 RMK SC6AC1CI1 SLP256
CYYG;2002-09-08 03:00;METAR CYYG 080300Z 10002KT 15SM OVC045 14/11 A3028 RMK SC8 SLP254
CYYG;2002-09-08 04:00;METAR CYYG 080400Z 15005KT 15SM BKN045 OVC090 14/10 A3026 RMK SC6AC2 SLP249
CYYG;2002-09-08 05:00;METAR CYYG 080500Z 15004KT 15SM BKN048 OVC090 14/11 A3025 RMK SC6AC2 SLP244
CYYG;2002-09-08 06:00;METAR CYYG 080600Z 13005KT 15SM OVC050 15/11 A3024 RMK SC8 SLP240
CYYG;2002-09-08 07:00;METAR CYYG 080700Z 14006KT 15SM FEW050 SCT090 OVC120 15/12 A3021 RMK SC2AC2AC4 SLP231
CYYG;2002-09-08 08:00;METAR CYYG 080800Z 16005KT 15SM BKN055 BKN120 15/13 A3019 RMK SC6AC1 SLP224
CYYG;2002-09-08 09:00;METAR CYYG 080900Z 18010KT 15SM BKN055 BKN250 16/13 A3016 RMK SC6CI0 SLP213
CYYG;2002-09-08 10:00;METAR CYYG 081000Z 20010KT 15SM BKN058 OVC250 17/13 A3014 RMK SC6CI2 SLP208
CYYG;2002-09-08 11:00;METAR CYYG 081100Z 20010KT 15SM SCT058 BKN200 OVC250 17/13 A3013 RMK SC3CI3CI2 SLP204
CYYG;2002-09-08 12:00;METAR CYYG 081200Z 22010G15KT 15SM FEW058 BKN180 OVC250 18/12 A3013 RMK SC2AC5CI2 SLP204
CYYG;2002-09-08 13:00;METAR CYYG 081300Z 23012KT 15SM FEW080 BKN180 OVC250 19/13 A3010 RMK AC1AC6CI0 SLP194
CYYG;2002-09-08 14:00;METAR CYYG 081400Z 24014G19KT 15SM BKN170 BKN250 21/13 A3008 RMK AC6CI1 SLP186
CYYG;2002-09-08 15:00;METAR CYYG 081500Z 23015G20KT 15SM BKN150 OVC250 21/14 A3005 RMK AC7CI0 SLP175
CYYG;2002-09-08 16:00;METAR CYYG 081600Z 23011G17KT 15SM BKN120 OVC250 21/14 A3001 RMK AC7CI1 SLP161
CYYG;2002-09-08 17:00;METAR CYYG 081700Z 23011G18KT 15SM BKN120 OVC250 21/15 A2998 RMK AC7CI1 SLP153
CYYG;2002-09-08 18:00;METAR CYYG 081800Z 24016G24KT 15SM BKN120 OVC250 22/14 A2994 RMK AC6CI2 SLP139
CYYG;2002-09-08 19:00;METAR CYYG 081900Z 24015G20KT 15SM OVC089 22/14 A2992 RMK AC8 SLP133
CYYG;2002-09-08 20:00;METAR CYYG 082000Z 25013G19KT 15SM BKN062 OVC250 23/15 A2992 RMK SC7CI1 SLP131
CYYG;2002-09-08 21:00;METAR CYYG 082100Z 26008KT 15SM OVC057 21/15 A2993 RMK SC8 SLP135
CYYG;2002-09-08 22:00;METAR CYYG 082200Z 27007KT 15SM OVC053 21/16 A2993 RMK SC8 SLP136
CYYG;2002-09-08 23:00;METAR CYYG 082300Z 27006KT 15SM OVC047 20/16 A2996 RMK SC8 SLP144
CYYG;2002-09-09 00:00;METAR CYYG 090000Z 33005KT 15SM OVC068 19/15 A2997 RMK AC8 SLP149
CYYG;2002-09-09 01:00;METAR CYYG 090100Z 35009KT 15SM OVC068 17/14 A3000 RMK AC8 SLP160
CYYG;2002-09-09 02:00;METAR CYYG 090200Z 36010KT 15SM FEW009 OVC069 16/13 A3001 RMK SF2AC6 SLP163
CYYG;2002-09-09 03:00;METAR CYYG 090300Z 36007KT 15SM FEW009 BKN015 OVC100 15/13 A3001 RMK SF1SC6AC1 SLP161
CYYG;2002-09-09 04:00;METAR CYYG 090400Z 36006KT 15SM SCT009 OVC100 15/13 A3001 RMK SF3AC5 SLP161
CYYG;2002-09-09 05:00;METAR CYYG 090500Z 01004KT 15SM OVC009 14/13 A3001 RMK SF8 SLP163
CYYG;2002-09-09 06:00;METAR CYYG 090600Z 02008KT 15SM OVC009 14/12 A3001 RMK SF8 SLP162
CYYG;2002-09-09 07:00;METAR CYYG 090700Z 30002KT 15SM OVC012 14/13 A3003 RMK SC8 SLP168
CYYG;2002-09-09 08:00;METAR CYYG 090800Z 02003KT 15SM BKN014 OVC080 14/13 A3002 RMK SC6AC2 SLP166
CYYG;2002-09-09 09:00;METAR CYYG 090900Z 07005KT 15SM OVC012 15/13 A3002 RMK SC8 SLP165
CYYG;2002-09-09 10:00;METAR CYYG 091000Z 07002KT 15SM -SHRA BKN012 OVC060 14/13 A3004 RMK SC7SC1 SLP173
CYYG;2002-09-09 11:00;METAR CYYG 091100Z 07004KT 12SM -SHRA BKN014 OVC060 14/13 A3006 RMK SC6SC2 SLP179
CYYG;2002-09-09 12:00;METAR CYYG 091200Z 00000KT 10SM -SHRA BKN014 OVC023 14/13 A3007 RMK SC5SC3 SLP182
CYYG;2002-09-09 13:00;METAR CYYG 091300Z 09004KT 15SM -SHRA FEW007 BKN028 OVC080 15/13 A3005 RMK SF2SC4AC2 SLP176
CYYG;2002-09-09 14:00;METAR CYYG 091400Z 09008KT 15SM FEW008 BKN014 BKN070 15/13 A3004 RMK SF1SC6AC1 SLP173
CYYG;2002-09-09 15:00;METAR CYYG 091500Z 09004KT 15SM SCT014 BKN044 BKN070 16/13 A3005 RMK SC3SC2AC2 SLP175
CYYG;2002-09-09 16:00;METAR CYYG 091600Z 08004KT 15SM BKN016 OVC040 16/13 A3005 RMK SC5SC3 SLP175
CYYG;2002-09-09 17:00;METAR CYYG 091700Z 13002KT 15SM VCSH SCT016 OVC047 16/13 A3003 RMK SC4SC4 VSBY LWR N SLP169
CYYG;2002-09-09 18:00;METAR CYYG 091800Z 16004KT 15SM SCT013 OVC042 17/13 A3001 RMK SC3SC5
CYYG;2002-09-09 19:00;METAR CYYG 091900Z 15004KT 15SM FEW017 OVC042 17/13 A3001 RMK SC2SC6
CYYG;2002-09-09 20:00;METAR CYYG 092000Z 16008KT 15SM FEW017 OVC035 16/12 A2998 RMK SC1SC7 SLP152
CYYG;2002-09-09 21:00;METAR CYYG 092100Z 15007KT 15SM FEW017 OVC031 16/12 A2997 RMK SC1SC7 SLP150
CYYG;2002-09-09 22:00;METAR CYYG 092200Z 17008KT 15SM SCT017 OVC023 16/13 A2996 RMK SC3SC5 SLP146
CYYG;2002-09-09 23:00;METAR CYYG 092300Z 17009KT 15SM BKN009 OVC038 16/14 A2993 RMK SC6SC2 SLP136
CYYG;2002-09-10 00:00;METAR CYYG 100000Z 19010G16KT 15SM BKN007 OVC012 17/15 A2993 RMK SF6SC2 SLP134
CYYG;2002-09-10 01:00;METAR CYYG 100100Z 18011KT 15SM BKN006 OVC009 17/15 A2990 RMK SF6SF2 SLP124
CYYG;2002-09-10 02:00;METAR CYYG 100200Z 19011KT 15SM OVC007 17/15 A2986 RMK SF8 SLP112
CYYG;2002-09-10 03:00;METAR CYYG 100300Z 19013KT 15SM BKN007 BKN014 OVC093 17/15 A2983 RMK SF5SC2AC2 SLP102
CYYG;2002-09-10 04:00;METAR CYYG 100400Z 20012KT 15SM BKN008 BKN089 OVC110 17/15 A2980 RMK SF6AC1AC2 SLP092
CYYG;2002-09-10 05:00;METAR CYYG 100500Z 22012KT 15SM OVC006 17/15 A2977 RMK SF8 SLP082
CYYG;2002-09-10 06:00;METAR CYYG 100600Z 22010G16KT 15SM BKN005 17/15 A2975 RMK SF6 SLP075
CYYG;2002-09-10 07:00;METAR CYYG 100700Z 22011KT 15SM FEW005 17/16 A2972 RMK SF2 SLP065
CYYG;2002-09-10 08:00;METAR CYYG 100800Z 24010KT 15SM FEW005 FEW097 18/16 A2970 RMK SF1AC2 SLP058
CYYG;2002-09-10 09:00;METAR CYYG 100900Z 24011KT 15SM FEW097 18/16 A2968 RMK AC1 SLP051
CYYG;2002-09-10 10:00;METAR CYYG 101000Z 25012G17KT 15SM FEW097 18/16 A2967 RMK AC1 SLP048
CYYG;2002-09-10 11:00;METAR CYYG 101100Z 25009KT 15SM SCT100 19/16 A2967 RMK AC3 SLP048
CYYG;2002-09-10 12:00;METAR CYYG 101200Z 25011KT 15SM FEW090 21/17 A2965 RMK AC2 SLP040
CYYG;2002-09-10 13:00;METAR CYYG 101300Z 27011KT 15SM FEW090 23/18 A2965 RMK AC1 HAZY SLP041
CYYG;2002-09-10 14:00;METAR CYYG 101400Z 28011KT 15SM FEW090 25/18 A2963 RMK AC1 SLP035
CYYG;2002-09-10 15:00;METAR CYYG 101500Z 29010KT 15SM SKC 26/19 A2963 RMK SLP033
CYYG;2002-09-10 17:00;METAR CYYG 101700Z 29006KT 15SM SKC 28/19 A2961 RMK SLP026
CYYG;2002-09-10 16:00;METAR CYYG 101600Z 30008KT 15SM SKC 27/19 A2962 RMK SLP030
CYYG;2002-09-10 18:00;METAR CYYG 101800Z 33008KT 15SM FEW250 27/19 A2959 RMK CI1 SLP020
CYYG;2002-09-10 19:00;METAR CYYG 101900Z 34005KT 15SM SCT250 27/19 A2958 RMK CI1 SLP018
CYYG;2002-09-10 20:00;METAR CYYG 102000Z 01005KT 15SM SCT250 26/18 A2958 RMK CI2 SLP015
CYYG;2002-09-10 21:00;METAR CYYG 102100Z 02008KT 15SM SCT250 24/17 A2957 RMK CI2 SLP014
CYYG;2002-09-10 22:00;METAR CYYG 102200Z 03004KT 15SM SCT250 22/18 A2957 RMK CI2 SLP013
CYYG;2002-09-10 23:00;METAR CYYG 102300Z 00000KT 10SM SCT250 21/17 A2957 RMK CI2 HAZY SLP014
CYYG;2002-09-11 00:00;METAR CYYG 110000Z 08002KT 15SM SCT250 19/17 A2958 RMK CI2 SLP015
CYYG;2002-09-11 01:00;METAR CYYG 110100Z 12003KT 15SM FEW060 SCT250 19/17 A2956 RMK SC1CI2 SLP010
CYYG;2002-09-11 02:00;METAR CYYG 110200Z 06007KT 15SM BKN250 18/16 A2956 RMK CI2 SLP010
CYYG;2002-09-11 03:00;METAR CYYG 110300Z 04007KT 15SM TS BKN190 17/15 A2955 RMK AC3 LTGIC N CB ASOCTD SLP006
CYYG;2002-09-11 04:00;METAR CYYG 110400Z 07007KT 15SM OVC190 17/14 A2952 RMK AC6 LTGIC DSTNT NNE SLP998
CYYG;2002-09-11 05:00;METAR CYYG 110500Z 07005KT 15SM BKN180 15/13 A2951 RMK AC6 SLP992
CYYG;2002-09-11 06:00;METAR CYYG 110600Z 34006KT 15SM BKN180 15/12 A2950 RMK AC6 SLP990
CYYG;2002-09-11 07:00;METAR CYYG 110700Z 10002KT 15SM FEW030 BKN180 15/11 A2946 RMK SC2AC2 SLP975
CYYG;2002-09-11 08:00;METAR CYYG 110800Z 06004KT 15SM BKN020 OVC180 16/13 A2944 RMK SC5AC3 SLP968
CYYG;2002-09-11 09:00;METAR CYYG 110900Z 03003KT 15SM OVC018 16/14 A2942 RMK SC8 SLP963
CYYG;2002-09-11 10:00;METAR CYYG 111000Z 06005KT 15SM OVC015 16/14 A2941 RMK SC8 SLP960
CYYG;2002-09-11 11:00;METAR CYYG 111100Z 07006KT 15SM OVC012 16/14 A2939 RMK SC8 SLP954
CYYG;2002-09-11 12:00;METAR CYYG 111200Z 07004KT 15SM OVC010 16/14 A2938 RMK SC8 SLP949
CYYG;2002-09-11 13:00;METAR CYYG 111300Z 09003KT 12SM OVC007 17/15 A2937 RMK SC8 SLP946
CYYG;2002-09-11 14:00;METAR CYYG 111400Z 00000KT 12SM OVC007 17/15 A2936 RMK SC8 SLP943
CYYG;2002-09-11 15:00;METAR CYYG 111500Z 08003KT 5SM BR OVC005 17/15 A2935 RMK SF8 SLP938 SLP931 SLP920
CYYG;2002-09-11 18:00;METAR CYYG 111800Z 15005KT 8SM BKN009 OVC011 19/17 A2928 RMK SF6SC2 SLP915
CYYG;2002-09-11 19:00;METAR CYYG 111900Z 11004KT 10SM OVC010 19/17 A2925 RMK SC8 SLP905
CYYG;2002-09-11 20:00;METAR CYYG 112000Z 03007KT 10SM OVC013 18/16 A2921 RMK SC8 SLP893
CYYG;2002-09-11 21:00;METAR CYYG 112100Z 06004KT 7SM -SHRA BKN008 OVC023 17/16 A2919 RMK SF7SC1 SLP886
CYYG;2002-09-11 22:00;METAR CYYG 112200Z 06007KT 3SM -SHRA BR BKN002 OVC006 17/16 A2916 RMK SF6SF2 SLP874
CYYG;2002-09-11 23:00;METAR CYYG 112300Z 05009KT 3SM -SHRA BR BKN003 OVC020 17/16 A2911 RMK SF6SC2 SLP859
CYYG;2002-09-12 00:00;METAR CYYG 120000Z 04013KT 4SM -SHRA BR OVC005 17/16 A2903 RMK SF8 PRESFR SLP830
CYYG;2002-09-12 01:00;METAR CYYG 120100Z 03022G27KT 4SM RA BR OVC005 16/15 A2896 RMK SF8 PRESFR SLP806
CYYG;2002-09-12 02:00;METAR CYYG 120200Z 03023G32KT 6SM RA OVC007 15/14 A2894 RMK SF8 SLP799
CYYG;2002-09-12 03:00;METAR CYYG 120300Z 02031G42KT 4SM +RA OVC008 13/12 A2887 RMK SF8 PRESFR /R23/ SLP775
CYYG;2002-09-12 04:00;METAR CYYG 120400Z 01028G40KT 6SM RA BKN009 OVC014 12/11 A2888 RMK SF6SC2 RERA SLP778
CYYG;2002-09-12 05:00;METAR CYYG 120500Z 36029G41KT 8SM RA BKN010 OVC014 12/11 A2890 RMK SF6SC2 /R32/ SLP786
CYYG;2002-09-12 06:00;METAR CYYG 120600Z 36022G41KT 8SM RA BKN009 OVC014 11/10 A2893 RMK SF6SC2 /R43/ SLP795
CYYG;2002-09-12 07:00;METAR CYYG 120700Z 36026G43KT 15SM -SHRA BKN010 OVC020 10/09 A2895 RMK SC6SC2 SLP803
CYYG;2002-09-12 08:00;METAR CYYG 120800Z 36021G38KT 10SM -SHRA BKN014 OVC020 10/09 A2905 RMK SC6SC2 PRESRR SLP836
CYYG;2002-09-12 09:00;METAR CYYG 120900Z 36020G35KT 10SM -RA BKN014 OVC025 10/08 A2909 RMK SC6SC2 SLP850
CYYG;2002-09-12 10:00;METAR CYYG 121000Z 34023G30KT 6SM -RA OVC012 09/08 A2916 RMK SC8 PRESRR SLP874
CYYG;2002-09-12 11:00;METAR CYYG 121100Z 34023G30KT 4SM RA BR FEW010 OVC013 09/08 A2920 RMK SF2SC6 /R15/ SLP888
CYYG;2002-09-12 12:00;METAR CYYG 121200Z 35020G27KT 4SM RA BR BKN015 OVC028 09/07 A2925 RMK SC6SC2 SLP905
CYYG;2002-09-12 13:00;METAR CYYG 121300Z 34020G27KT 5SM RA BR BKN018 OVC037 08/06 A2931 RMK SC6SC2 PRESRR SLP925
CYYG;2002-09-12 14:00;METAR CYYG 121400Z 34014G22KT 5SM RA BR BKN015 OVC037 08/07 A2934 RMK SC6SC2 SLP937
CYYG;2002-09-12 15:00;METAR CYYG 121500Z CCA 34015G26KT 8SM -RA BKN018 OVC033 08/07 A2939
CYYG;2002-09-12 16:00;METAR CYYG 121600Z 34017G25KT 6SM -RA BR BKN020 OVC030 09/07 A2942 RMK SC6SC2 SLP963
CYYG;2002-09-12 17:00;METAR CYYG 121700Z 34013G26KT 15SM -RA BKN021 OVC033 10/07 A2946 RMK SC6SC2 SLP978
CYYG;2002-09-12 18:00;METAR CYYG 121800Z 33013G20KT 15SM -RA BKN030 OVC047 10/06 A2950 RMK SC6SC2 SLP991
CYYG;2002-09-12 19:00;METAR CYYG 121900Z 31014G19KT 15SM -SHRA BKN033 BKN045 11/06 A2954 RMK SC5SC2 SLP004
CYYG;2002-09-12 20:00;METAR CYYG 122000Z 35011G17KT 15SM -SHRA BKN038 BKN250 11/05 A2957 RMK SC5CI1 SLP015
CYYG;2002-09-12 21:00;METAR CYYG 122100Z 32011G16KT 15SM VCSH FEW038 FEW072 SCT250 12/05 A2962 RMK SC2AC1CI0 SLP030
CYYG;2002-09-12 22:00;METAR CYYG 122200Z 29008KT 15SM VCSH SCT045 BKN055 BKN070 10/06 A2965 RMK SC3SC2AC1 SLP040
CYYG;2002-09-12 23:00;METAR CYYG 122300Z 30006KT 15SM -SHRA BKN045 BKN070 10/06 A2969 RMK SC5AC1 SLP056
CYYG;2002-09-13 00:00;METAR CYYG 130000Z 23006KT 15SM SCT070 09/07 A2972 RMK AC4 SLP066
CYYG;2002-09-13 01:00;METAR CYYG 130100Z 27007KT 15SM FEW070 09/05 A2974 RMK AC2 SLP071
CYYG;2002-09-13 02:00;METAR CYYG 130200Z 29010KT 15SM FEW070 09/04 A2976 RMK AC2 SLP079
CYYG;2002-09-13 03:00;METAR CYYG 130300Z 29010KT 15SM SKC 09/04 A2977 RMK SLP084
CYYG;2002-09-13 04:00;METAR CYYG 130400Z 26008KT 15SM SKC 08/04 A2979 RMK SLP089
CYYG;2002-09-13 05:00;METAR CYYG 130500Z 27006KT 15SM SKC 08/03 A2979 RMK SLP091
CYYG;2002-09-13 06:00;METAR CYYG 130600Z 26006KT 15SM SKC 08/04 A2980 RMK SLP092
CYYG;2002-09-13 07:00;METAR CYYG 130700Z 26007KT 15SM SKC 08/05 A2981 RMK SLP096
CYYG;2002-09-13 08:00;METAR CYYG 130800Z 26006KT 15SM SKC 08/04 A2982 RMK SLP098
CYYG;2002-09-13 09:00;METAR CYYG 130900Z 26007KT 15SM SKC 08/04 A2982 RMK SLP099
CYYG;2002-09-13 10:00;METAR CYYG 131000Z 25005KT 15SM FEW020 FEW200 08/04 A2983 RMK CF1CI1 SLP102
CYYG;2002-09-13 11:00;METAR CYYG 131100Z 24004KT 15SM FEW020 FEW200 10/05 A2982 RMK CF1CI1 SLP101
CYYG;2002-09-13 12:00;METAR CYYG 131200Z 24009KT 15SM FEW012 FEW200 13/08 A2981 RMK CF1CI1 SLP096
CYYG;2002-09-13 13:00;METAR CYYG 131300Z 23012G17KT 15SM FEW100 FEW200 14/08 A2980 RMK AC1CI1 SLP093
CYYG;2002-09-13 14:00;METAR CYYG 131400Z 23013G25KT 15SM FEW100 BKN200 15/08 A2978 RMK AC1CS6 SLP086
CYYG;2002-09-13 15:00;METAR CYYG 131500Z 22014G25KT 15SM BKN140 BKN200 15/07 A2976 RMK AC6CS1 SLP077
CYYG;2002-09-13 16:00;METAR CYYG 131600Z 22017G28KT 15SM BKN075 BKN120 OVC200 15/07 A2973 RMK AC5AC2CS1 SLP067
CYYG;2002-09-13 17:00;METAR CYYG 131700Z 22015G24KT 12SM -SHRA BKN055 OVC080 14/08 A2971 RMK SC6AC2 SLP062
CYYG;2002-09-13 18:00;METAR CYYG 131800Z 25014G34KT 10SM -SHRA OVC042 14/08 A2972 RMK SC8 SLP065
CYYG;2002-09-13 19:00;METAR CYYG 131900Z 23015G22KT 15SM -SHRA FEW035 BKN080 13/10 A2971 RMK SC2AC5 SLP061
CYYG;2002-09-13 20:00;METAR CYYG 132000Z 23013G20KT 15SM FEW010 FEW055 SCT080 15/12 A2970 RMK CF1SC2AC1 SLP059
CYYG;2002-09-13 21:00;METAR CYYG 132100Z 25011G17KT 15SM FEW018 SCT080 SCT200 16/12 A2971 RMK SC2AC1CI1 SLP062
CYYG;2002-09-13 22:00;METAR CYYG 132200Z 24013KT 15SM TSRA FEW018CB BKN110 BKN180 15/13 A2972 RMK CB2AC3AC1 VSBY LWR W SLP065
CYYG;2002-09-13 23:00;METAR CYYG 132300Z 23010G21KT 6SM -TSRA BKN040CB BKN100 15/09 A2972 RMK CB5AC2 LTGICCC CIG RAG SLP064
CYYG;2002-09-14 00:00;METAR CYYG 140000Z 25010KT 15SM -SHRA FEW040 BKN180 13/09 A2977 RMK SC2AC3 RETS PRESRR SLP082
CYYG;2002-09-14 01:00;METAR CYYG 140100Z 25010KT 15SM SCT040 13/10 A2980 RMK SC3 SLP091
CYYG;2002-09-14 02:00;METAR CYYG 140200Z 25006KT 15SM FEW040 12/10 A2983 RMK SC2 SLP101
CYYG;2002-09-14 03:00;METAR CYYG 140300Z 27007KT 15SM FEW040 12/10 A2985 RMK SC2 SLP110
CYYG;2002-09-14 04:00;METAR CYYG 140400Z 28010KT 15SM FEW040 13/08 A2988 RMK SC1 SLP118
CYYG;2002-09-14 05:00;METAR CYYG 140500Z 28008KT 15SM SKC 12/08 A2992 RMK SLP131
CYYG;2002-09-14 06:00;METAR CYYG 140600Z 29010G16KT 15SM SKC 12/07 A2994 RMK SLP140
CYYG;2002-09-14 07:00;METAR CYYG 140700Z 28010KT 15SM SKC 11/06 A2998 RMK SLP151
CYYG;2002-09-14 08:00;METAR CYYG 140800Z 29009KT 15SM SKC 10/05 A3002 RMK SLP166
CYYG;2002-09-14 09:00;METAR CYYG 140900Z 27007KT 15SM FEW027 FEW280 08/04 A3006 RMK SC1CI0 SLP180
CYYG;2002-09-14 10:00;METAR CYYG 141000Z 28007KT 15SM FEW027 FEW280 08/04 A3009 RMK SC1CI0 SLP190
CYYG;2002-09-14 11:00;METAR CYYG 141100Z 28007KT 15SM FEW025 SCT280 09/04 A3014 RMK SC1CI1 SLP206
CYYG;2002-09-14 12:00;METAR CYYG 141200Z 29009KT 15SM FEW025 BKN280 10/04 A3017 RMK SC1CI1 SLP216
CYYG;2002-09-14 13:00;METAR CYYG 141300Z 30012KT 15SM FEW025 BKN280 12/06 A3020 RMK SC1CI2 SLP226
CYYG;2002-09-14 14:00;METAR CYYG 141400Z 34011KT 15SM FEW025 BKN280 13/05 A3021 RMK SC1CI2 SLP232
CYYG;2002-09-14 15:00;METAR CYYG 141500Z 31008KT 15SM FEW030 BKN280 14/06 A3022 RMK SC1CI2 SLP234
CYYG;2002-09-14 16:00;METAR CYYG 141600Z 28005KT 15SM FEW030 BKN280 14/06 A3023 RMK SC1CI2 COTRA SLP237
CYYG;2002-09-14 17:00;METAR CYYG 141700Z 33004KT 15SM FEW030 BKN280 15/06 A3023 RMK SC1CI2 COTRA SLP238
CYYG;2002-09-14 18:00;METAR CYYG 141800Z 29002KT 15SM FEW020 BKN280 16/05 A3022 RMK SC1CI1 COTRA SLP235
CYYG;2002-09-14 19:00;METAR CYYG 141900Z 05003KT 15SM FEW030 BKN280 15/07 A3024 RMK SC1CI2 COTRA SLP240
CYYG;2002-09-14 20:00;METAR CYYG 142000Z 18002KT 15SM FEW030 BKN280 15/06 A3025 RMK SC1CI2 COTRA SLP243
CYYG;2002-09-14 21:00;METAR CYYG 142100Z 21002KT 15SM BKN280 15/03 A3024 RMK CI3 COTRA SLP241
CYYG;2002-09-14 22:00;METAR CYYG 142200Z 22003KT 15SM BKN280 14/03 A3026 RMK CI3 SLP247
CYYG;2002-09-14 23:00;METAR CYYG 142300Z 15002KT 15SM BKN280 12/06 A3026 RMK CI3 SLP249
CYYG;2002-09-15 00:00;METAR CYYG 150000Z 16004KT 15SM BKN240 11/06 A3028 RMK CI4 SLP254
CYYG;2002-09-15 01:00;METAR CYYG 150100Z 14006KT 15SM BKN220 10/07 A3028 RMK CI5 SLP253
CYYG;2002-09-15 02:00;METAR CYYG 150200Z 14005KT 15SM BKN220 11/08 A3028 RMK CI6 SLP254
CYYG;2002-09-15 03:00;METAR CYYG 150300Z 17008KT 15SM BKN220 13/09 A3026 RMK CI6 SLP249
CYYG;2002-09-15 04:00;METAR CYYG 150400Z 18008KT 15SM BKN200 13/09 A3025 RMK CI6 SLP243
CYYG;2002-09-15 05:00;METAR CYYG 150500Z 19008KT 15SM BKN220 13/09 A3024 RMK CI6 SLP242
CYYG;2002-09-15 06:00;METAR CYYG 150600Z 18008KT 15SM FEW060 BKN220 13/09 A3023 RMK SC2CI5 SLP238
CYYG;2002-09-15 07:00;METAR CYYG 150700Z 18012KT 15SM FEW060 BKN220 14/10 A3020 RMK SC2CI5 SLP229
CYYG;2002-09-15 08:00;METAR CYYG 150800Z 18010KT 15SM FEW060 BKN270 15/10 A3020 RMK SC1CI6 SLP227
CYYG;2002-09-15 09:00;METAR CYYG 150900Z 18016KT 15SM FEW060 BKN220 15/10 A3018 RMK SC1CI6 SLP221
CYYG;2002-09-15 10:00;METAR CYYG 151000Z 18019KT 15SM FEW020 BKN210 BKN300 16/13 A3017 RMK CU1CC5CI2 SLP217
CYYG;2002-09-15 11:00;METAR CYYG 151100Z 20015G21KT 15SM FEW009 FEW160 SCT210 BKN300 16/13 A3016 RMK SC2AC1CC2CI2 SLP215
CYYG;2002-09-15 12:00;METAR CYYG 151200Z 19017G22KT 15SM BKN009 OVC160 16/14 A3015 RMK SF7AC1 SLP211
CYYG;2002-09-15 13:00;METAR CYYG 151300Z 18016KT 15SM SCT009 SCT160 BKN300 17/15 A3014 RMK SF3AC1CI0 SLP209
CYYG;2002-09-15 14:00;METAR CYYG 151400Z 18018KT 15SM FEW010 FEW160 BKN300 19/15 A3012 RMK CU1AC1CI2 SLP199
CYYG;2002-09-15 15:00;METAR CYYG 151500Z 18014G25KT 15SM FEW015 FEW210 BKN300 21/15 A3009 RMK CU1CC2CI1 SLP189
CYYG;2002-09-15 16:00;METAR CYYG 151600Z 20016G22KT 15SM BKN029 OVC210 20/16 A3007 RMK SC7CC1 SLP182
CYYG;2002-09-15 17:00;METAR CYYG 151700Z 20020G27KT 15SM OVC030 21/16 A3004 RMK SC8 SLP172
CYYG;2002-09-15 18:00;METAR CYYG 151800Z 20017G24KT 15SM OVC026 21/16 A3003 RMK SC8 SLP168
CYYG;2002-09-15 19:00;METAR CYYG 151900Z 20019G27KT 15SM FEW021 OVC032 20/17 A3001 RMK CU1SC7 SLP164
CYYG;2002-09-15 20:00;METAR CYYG 152000Z 21015G24KT 10SM -SHRA FEW011 OVC022 19/17 A3001
CYYG;2002-09-15 21:00;METAR CYYG 152100Z 21011G18KT 5SM -SHRA BR FEW009 BKN018 OVC028 19/17 A3001 RMK SF2SC4SC2 SLP163
CYYG;2002-09-15 22:00;METAR CYYG 152200Z 22009KT 10SM -SHRA SCT008 OVC011 19/17 A3002 RMK SF3SC5 SLP166
CYYG;2002-09-15 23:00;METAR CYYG 152300Z 23009KT 8SM -SHRA OVC009 19/17 A3003 RMK SF8 SLP168
CYYG;2002-09-16 00:00;METAR CYYG 160000Z 25011G18KT 8SM -SHRA OVC006 18/16 A3005 RMK SF8 SLP177
CYYG;2002-09-16 01:00;METAR CYYG 160100Z 25009KT 8SM -SHRA OVC005 17/16 A3006 RMK SF8 SLP179
CYYG;2002-09-16 02:00;METAR CYYG 160200Z 27006KT 8SM -SHRA OVC005 17/16 A3007 RMK SF8 SLP184
CYYG;2002-09-16 06:00;METAR CYYG 160600Z 03010KT 10SM -RA OVC012 12/10 A3010 RMK SC8 SLP194
CYYG;2002-09-16 07:00;METAR CYYG 160700Z 04008KT 10SM -RA OVC015 11/10 A3009 RMK SC8 SLP189
CYYG;2002-09-16 08:00;METAR CYYG 160800Z 05008KT 10SM -RA OVC017 11/10 A3009 RMK SC8 SLP188
CYYG;2002-09-16 09:00;METAR CYYG 160900Z 05006KT 8SM -RA SCT008 OVC018 11/10 A3008 RMK SF4SC4 SLP185
CYYG;2002-09-16 10:00;METAR CYYG 161000Z 07006KT 10SM -RA BKN004 OVC018 12/10 A3007 RMK SF7NS1 SLP182
CYYG;2002-09-16 11:00;METAR CYYG 161100Z 05008KT 8SM -RA BKN004 OVC015 12/11 A3005 RMK SF6NS2 SLP177
CYYG;2002-09-16 12:00;METAR CYYG 161200Z 05013KT 15SM -RA BKN007 OVC013 12/11 A3003 RMK SF7NS1 SLP169 SLP152
CYYG;2002-09-16 17:00;METAR CYYG 161700Z 02007KT 2 1/2SM -RA BR OVC004 13/12 A2989 RMK SF8 SLP122
CYYG;2002-09-16 18:00;METAR CYYG 161800Z 02010G16KT 3SM RA BR OVC005 13/12 A2987 RMK SF8 SLP115
CYYG;2002-09-16 19:00;METAR CYYG 161900Z 02010G16KT 3SM -RA BR OVC005 13/12 A2984 RMK SF8 RERA SLP105
CYYG;2002-09-16 20:00;METAR CYYG 162000Z 03014KT 2 1/2SM -RA BR BKN005 OVC008 12/11 A2982 RMK SF7SF1 RERA SLP099
CYYG;2002-09-16 21:00;METAR CYYG 162100Z 02011G17KT 2SM -RA BR BKN005 OVC009 12/11 A2983 RMK SF7SC1 RERA SLP101
CYYG;2002-09-16 22:00;METAR CYYG 162200Z 02009KT 3SM -RA BR BKN004 OVC009 11/10 A2982 RMK SF7SC1 SLP100
CYYG;2002-09-16 23:00;METAR CYYG 162300Z 24007KT 6SM -SHRA BR BKN004 OVC010 11/10 A2986 RMK SF6SC2 SLP111
CYYG;2002-09-17 00:00;METAR CYYG 170000Z 35008KT 4SM -SHRA BR BKN004 OVC010 11/10 A2989 RMK SF6SC2 SLP121
CYYG;2002-09-17 01:00;METAR CYYG 170100Z 01008KT 6SM -SHRA OVC006 10/09 A2988 RMK SF8 SLP119
CYYG;2002-09-17 02:00;METAR CYYG 170200Z 34005KT 6SM -SHRA OVC006 11/10 A2991 RMK SF8 SLP129
CYYG;2002-09-17 03:00;METAR CYYG 170300Z 32006KT 6SM -SHRA BKN004 OVC008 10/10 A2991 RMK SF6SF2 SLP130
CYYG;2002-09-17 04:00;METAR CYYG 170400Z 31003KT 10SM -SHRA OVC010 10/09 A2992 RMK SC8 SLP134
CYYG;2002-09-17 05:00;METAR CYYG 170500Z 00000KT 15SM OVC012 10/10 A2991 RMK SC8 SLP129
CYYG;2002-09-17 06:00;METAR CYYG 170600Z 26005KT 15SM OVC012 10/09 A2992 RMK SC8 SLP134
CYYG;2002-09-17 07:00;METAR CYYG 170700Z 28003KT 15SM OVC020 10/10 A2992 RMK SC8 SLP134
CYYG;2002-09-17 08:00;METAR CYYG 170800Z 27003KT 15SM OVC018 10/09 A2994 RMK SC8 SLP139
CYYG;2002-09-17 09:00;METAR CYYG 170900Z 29005KT 15SM OVC019 10/08 A2994 RMK SC8 SLP140
CYYG;2002-09-17 10:00;METAR CYYG 171000Z 24004KT 15SM BKN022 10/08 A2994 RMK SC7 SLP140
CYYG;2002-09-17 11:00;METAR CYYG 171100Z 28004KT 15SM BKN022 10/08 A2994 RMK SC7 SLP141
CYYG;2002-09-17 12:00;METAR CYYG 171200Z 27005KT 15SM BKN022 BKN040 11/08 A2996 RMK SC5SC2 SLP146
CYYG;2002-09-17 13:00;METAR CYYG 171300Z 28005KT 15SM BKN017 11/08 A2995 RMK SC6 SLP144
CYYG;2002-09-17 14:00;METAR CYYG 171400Z 26004KT 15SM FEW017 FEW280 13/08 A2994 RMK SC2CI0 SLP139
CYYG;2002-09-17 15:00;METAR CYYG 171500Z 23005KT 15SM FEW018 FEW280 14/09 A2993 RMK SC2CI1 SLP135
CYYG;2002-09-17 16:00;METAR CYYG 171600Z 24005KT 15SM SCT022 SCT280 15/10 A2991 RMK SC3CI1 SLP128
CYYG;2002-09-17 17:00;METAR CYYG 171700Z 20008KT 15SM FEW022 FEW280 15/11 A2990 RMK SC1CI0 SLP124
CYYG;2002-09-17 18:00;METAR CYYG 171800Z 23007KT 15SM FEW022 FEW280 15/10 A2989 RMK SC1CS1 SLP122
CYYG;2002-09-17 19:00;METAR CYYG 171900Z 19006KT 15SM FEW025 FEW150 FEW280 15/10 A2987 RMK SC1AC1CS1 SLP117
CYYG;2002-09-17 20:00;METAR CYYG 172000Z 22006KT 15SM FEW025 SCT130 SCT280 16/10 A2986 RMK SC1AC4CS1 SLP111
CYYG;2002-09-17 21:00;METAR CYYG 172100Z 25005KT 15SM FEW025 SCT130 SCT280 16/09 A2986 RMK SC1AC4CS1 SLP112
CYYG;2002-09-17 22:00;METAR CYYG 172200Z 26002KT 15SM FEW130 SCT280 15/10 A2986 RMK AC2CI1 SLP112
CYYG;2002-09-17 23:00;METAR CYYG 172300Z 23002KT 15SM FEW130 FEW280 14/10 A2988 RMK AC2CI0 SLP118
CYYG;2002-09-18 00:00;METAR CYYG 180000Z 23002KT 15SM SCT120 12/10 A2988 RMK AC3 SLP119
CYYG;2002-09-18 01:00;METAR CYYG 180100Z 24004KT 15SM SCT110 12/10 A2988 RMK AC3 SLP120
CYYG;2002-09-18 02:00;METAR CYYG 180200Z 22002KT 15SM BKN120 13/11 A2987 RMK AC5 SLP117
CYYG;2002-09-18 03:00;METAR CYYG 180300Z 00000KT 15SM BKN110 12/11 A2988 RMK AC5 SLP120
CYYG;2002-09-18 04:00;METAR CYYG 180400Z 26003KT 15SM SCT110 11/10 A2988 RMK AC3 SLP118
CYYG;2002-09-18 05:00;METAR CYYG 180500Z 30005KT 15SM FEW058 SCT110 13/11 A2988 RMK SC2AC2 SLP120
CYYG;2002-09-18 06:00;METAR CYYG 180600Z 32003KT 15SM FEW058 12/10 A2988 RMK SC2 SLP119
CYYG;2002-09-18 07:00;METAR CYYG 180700Z 36006KT 15SM FEW005 12/11 A2989 RMK SF2 SLP122
CYYG;2002-09-18 08:00;METAR CYYG 180800Z 26006KT 15SM FEW005 FEW060 10/08 A2991 RMK SF1SC2 SLP128
CYYG;2002-09-18 09:00;METAR CYYG 180900Z 35005KT 15SM FEW060 10/07 A2993 RMK SC1 SLP135
CYYG;2002-09-18 10:00;METAR CYYG 181000Z 35006KT 15SM FEW060 09/07 A2994 RMK SC1 SLP139
CYYG;2002-09-18 11:00;METAR CYYG 181100Z 34006KT 15SM FEW060 11/08 A2997 RMK SC1 SLP148
CYYG;2002-09-18 12:00;METAR CYYG 181200Z 34008KT 15SM FEW017 12/08 A2998 RMK CU1 SLP154
CYYG;2002-09-18 13:00;METAR CYYG 181300Z 34010G15KT 15SM FEW022 13/08 A3000 RMK CU1 TR CU SLP160
CYYG;2002-09-18 14:00;METAR CYYG 181400Z 01012G18KT 15SM FEW027 14/07 A3001 RMK CU1 TR CU SLP164
CYYG;2002-09-18 15:00;METAR CYYG 181500Z 36011G17KT 15SM FEW034 14/06 A3001 RMK CU1 SLP164
CYYG;2002-09-18 16:00;METAR CYYG 181600Z 34008KT 15SM FEW032 14/06 A3001 RMK CU1 SLP165
CYYG;2002-09-18 17:00;METAR CYYG 181700Z CCA 36008KT 15SM FEW036 FEW260 14/05 A3001 RMK CU1CI1 TR CI SLP164
CYYG;2002-09-18 18:00;METAR CYYG 181800Z 35009KT 15SM FEW032 FEW260 15/07 A3001 RMK CU1CI1 SLP163
CYYG;2002-09-18 19:00;METAR CYYG 181900Z 35008KT 15SM FEW040 SCT260 14/04 A3001 RMK CU1CI1 TR CU COTRA SLP164
CYYG;2002-09-18 20:00;METAR CYYG 182000Z 34005KT 15SM FEW033 SCT260 15/06 A3000 RMK CU1CI1 TR CU COTRA SLP160
CYYG;2002-09-18 21:00;METAR CYYG 182100Z 34004KT 15SM FEW026 FEW260 14/07 A3000 RMK SC1CI1 TR SC SLP161
CYYG;2002-09-18 22:00;METAR CYYG 182200Z 36004KT 15SM FEW026 FEW260 11/07 A3002 RMK SC1CI1 SLP166
CYYG;2002-09-18 23:00;METAR CYYG 182300Z 00000KT 15SM FEW026 FEW260 11/07 A3002 RMK SC1CI0
CYYG;2002-09-19 00:00;METAR CYYG 190000Z 15003KT 15SM FEW260 10/06 A3003 RMK CI0 SLP169
CYYG;2002-09-19 01:00;METAR CYYG 190100Z 18005KT 15SM FEW260 09/06 A3003 RMK CI0 SLP171
CYYG;2002-09-19 02:00;METAR CYYG 190200Z 21004KT 15SM FEW260 11/08 A3003 RMK CI0 SLP171
CYYG;2002-09-19 03:00;METAR CYYG 190300Z 22003KT 15SM FEW260 11/08 A3003 RMK CI0 SLP169
CYYG;2002-09-19 04:00;METAR CYYG 190400Z 23005KT 15SM SKC 10/07 A3001 RMK SLP164
CYYG;2002-09-19 05:00;METAR CYYG 190500Z 24006KT 15SM FEW300 10/08 A3000 RMK CI0 SLP161
CYYG;2002-09-19 06:00;METAR CYYG 190600Z 26006KT 15SM FEW300 10/08 A2999 RMK CI0 SLP156
CYYG;2002-09-19 07:00;METAR CYYG 190700Z 24007KT 15SM FEW300 09/07 A2998 RMK CI0 SLP154
CYYG;2002-09-19 08:00;METAR CYYG 190800Z 26006KT 15SM FEW300 10/07 A2999 RMK CI0 SLP156
CYYG;2002-09-19 09:00;METAR CYYG 190900Z 24007KT 15SM FEW300 09/07 A2999 RMK CI0 SLP158
CYYG;2002-09-19 10:00;METAR CYYG 191000Z 25006KT 15SM FEW280 10/08 A3001 RMK CI0 SLP162
CYYG;2002-09-19 11:00;METAR CYYG 191100Z 23005KT 15SM FEW280 11/09 A3001 RMK CI0 COTRA SLP164
CYYG;2002-09-19 12:00;METAR CYYG 191200Z 24008KT 15SM FEW280 14/11 A3001 RMK CI0 SLP163
CYYG;2002-09-19 13:00;METAR CYYG 191300Z 26011G17KT 15SM FEW280 15/10 A3001 RMK CI0 SLP163
CYYG;2002-09-19 14:00;METAR CYYG 191400Z 28008KT 15SM SCT280 17/10 A3000 RMK CI1 COTRA SLP161
CYYG;2002-09-19 15:00;METAR CYYG 191500Z 24009KT 15SM SCT280 17/10 A3000 RMK CI1 COTRA SLP158
CYYG;2002-09-19 16:00;METAR CYYG 191600Z 32007KT 15SM BKN280 19/11 A3000 RMK CI2 COTRA SLP159
CYYG;2002-09-19 17:00;METAR CYYG 191700Z 02008KT 15SM BKN280 18/11 A3000 RMK CI2 SLP160
CYYG;2002-09-19 18:00;METAR CYYG 191800Z 33004KT 15SM OVC280 18/10 A3001 RMK CI3 COTRA SLP162
CYYG;2002-09-19 19:00;METAR CYYG 191900Z 02005KT 15SM OVC280 18/11 A3000 RMK CI4 COTRA SLP160
CYYG;2002-09-19 20:00;METAR CYYG 192000Z 01003KT 15SM OVC280 19/12 A3001 RMK CI6 COTRA SLP164
CYYG;2002-09-19 21:00;METAR CYYG 192100Z 08005KT 15SM BKN280 17/11 A3002 RMK CI4 COTRA SLP168
CYYG;2002-09-19 22:00;METAR CYYG 192200Z 10002KT 15SM BKN280 16/10 A3003 RMK CI2 SLP169
CYYG;2002-09-19 23:00;METAR CYYG 192300Z 11003KT 15SM BKN280 14/10 A3002 RMK CI2 SLP168
CYYG;2002-09-20 00:00;METAR CYYG 200000Z 14005KT 15SM BKN280 13/10 A3003 RMK CI2 SLP170
CYYG;2002-09-20 01:00;METAR CYYG 200100Z 16006KT 15SM BKN280 13/10 A3003 RMK CI2 SLP170
CYYG;2002-09-20 02:00;METAR CYYG 200200Z 16005KT 15SM BKN280 13/11 A3003 RMK CI2 SLP170
CYYG;2002-09-20 03:00;METAR CYYG 200300Z 18006KT 15SM BKN230 13/12 A3002 RMK CI2 SLP165
CYYG;2002-09-20 04:00;METAR CYYG 200400Z 19009KT 15SM SCT230 14/13 A3001 RMK CI1 SLP162
CYYG;2002-09-20 05:00;METAR CYYG 200500Z 22009KT 15SM FEW230 14/12 A3001 RMK CI0 SLP161
CYYG;2002-09-20 06:00;METAR CYYG 200600Z 21013KT 15SM BKN006 14/12 A3000 RMK SF7 SLP158
CYYG;2002-09-20 07:00;METAR CYYG 200700Z 22011KT 15SM OVC006 14/13 A2999 RMK ST8 SLP155
CYYG;2002-09-20 08:00;METAR CYYG 200800Z 21009KT 15SM BKN007 BKN010 14/13 A2999 RMK SF5SF2 SLP155
CYYG;2002-09-20 09:00;METAR CYYG 200900Z 21010KT 15SM SCT007 SCT190 14/13 A2998 RMK SF3AC1 SLP152
CYYG;2002-09-20 10:00;METAR CYYG 201000Z 22009KT 15SM FEW007 SCT190 OVC280 14/13 A2997 RMK SF1AC3CI2 HAZY SLP149
CYYG;2002-09-20 11:00;METAR CYYG 201100Z 22009KT 15SM FEW190 BKN280 15/13 A2997 RMK AC2CI2 SLP148
CYYG;2002-09-20 12:00;METAR CYYG 201200Z 22015G20KT 15SM FEW190 OVC280 17/13 A2996 RMK AC1CI5 SLP146
CYYG;2002-09-20 13:00;METAR CYYG 201300Z 22014G20KT 15SM SCT190 BKN280 17/14 A2996 RMK AC3CI2 SLP145
CYYG;2002-09-20 14:00;METAR CYYG 201400Z 22013G18KT 15SM SCT190 OVC280 17/14 A2995 RMK AC4CI3 SLP141
CYYG;2002-09-20 15:00;METAR CYYG 201500Z 22015KT 15SM BKN190 OVC280 19/14 A2992 RMK AC6CI2 SLP132
CYYG;2002-09-20 16:00;METAR CYYG 201600Z 21016G21KT 15SM BKN190 OVC280 20/14 A2990 RMK AC5CI3 SLP125
CYYG;2002-09-20 17:00;METAR CYYG 201700Z 22019G25KT 15SM SCT190 OVC280 21/14 A2987 RMK AC3CI4 SLP114
CYYG;2002-09-20 18:00;METAR CYYG 201800Z 22015G22KT 15SM FEW180 OVC280 21/14 A2984 RMK AC2CI5 SLP106
CYYG;2002-09-20 19:00;METAR CYYG 201900Z 23012G18KT 15SM FEW180 OVC280 21/13 A2983 RMK AC2CI6 SLP101
CYYG;2002-09-20 20:00;METAR CYYG 202000Z 24015G25KT 15SM SCT200 OVC280 20/13 A2980 RMK CC3CI4 SLP092
CYYG;2002-09-20 21:00;METAR CYYG 202100Z 22017G24KT 15SM FEW160 SCT200 OVC280 20/12 A2978 RMK AC2CC2CI5 SLP086
CYYG;2002-09-20 22:00;METAR CYYG 202200Z 23021G27KT 15SM BKN200 OVC300 20/10 A2978 RMK CC6CI2 SLP086
CYYG;2002-09-20 23:00;METAR CYYG 202300Z 23019G25KT 15SM BKN140 BKN200 OVC300 19/11 A2979 RMK AC5CC1CI1 SLP089
CYYG;2002-09-21 00:00;METAR CYYG 210000Z 24020G28KT 15SM BKN093 OVC110 18/13 A2980 RMK AC5AC3 SLP093
CYYG;2002-09-21 01:00;METAR CYYG 210100Z 24015G25KT 15SM -SHRA BKN065 OVC110 17/14 A2981 RMK SC5AC3 SLP095
CYYG;2002-09-21 02:00;METAR CYYG 210200Z 24016G22KT 10SM -SHRA BKN050 OVC095 17/14 A2981 RMK SC6AC2 SLP095
CYYG;2002-09-21 03:00;METAR CYYG 210300Z 24014G21KT 15SM -SHRA SCT048 OVC077 17/15 A2980 RMK SC3AC5 SLP092
CYYG;2002-09-21 04:00;METAR CYYG 210400Z 24015G21KT 15SM BKN010 OVC089 17/15 A2981 RMK SC5AC3 SLP094
CYYG;2002-09-21 05:00;METAR CYYG 210500Z 25013G19KT 15SM SCT008 BKN089 17/15 A2982 RMK SF3AC4 SLP097
CYYG;2002-09-21 06:00;METAR CYYG 210600Z 25012G18KT 15SM FEW008 BKN089 17/15 A2982 RMK SF2AC5
CYYG;2002-09-21 07:00;METAR CYYG 210700Z 25013KT 15SM FEW008 SCT092 BKN300 17/15 A2982 RMK SF2AC2CI1 SLP100
CYYG;2002-09-21 08:00;METAR CYYG 210800Z 25014KT 15SM FEW057 FEW092 SCT300 17/15 A2983 RMK SC2AC1CI0 SLP102
CYYG;2002-09-21 09:00;METAR CYYG 210900Z 25010KT 15SM FEW006 BKN048 BKN300 16/15 A2985 RMK SF1SC4CI1 SLP107
CYYG;2002-09-21 10:00;METAR CYYG 211000Z 25011KT 15SM FEW006 BKN033 16/15 A2986 RMK SF2SC4 SLP112
CYYG;2002-09-21 11:00;METAR CYYG 211100Z 25010KT 15SM FEW006 OVC037 17/15 A2988 RMK SF2SC6 SLP118
CYYG;2002-09-21 12:00;METAR CYYG 211200Z 24009KT 15SM FEW006 OVC040 17/15 A2990 RMK SF2SC6 SLP125
CYYG;2002-09-21 13:00;METAR CYYG 211300Z 25010KT 12SM OVC024 18/15 A2992 RMK SC8 SLP131
CYYG;2002-09-21 14:00;METAR CYYG 211400Z 25010KT 15SM OVC030 18/15 A2993 RMK SC8 SLP134
CYYG;2002-09-21 15:00;METAR CYYG 211500Z 24009KT 12SM SCT024 OVC057 18/15 A2993 RMK SC4SC4 SLP135
CYYG;2002-09-21 16:00;METAR CYYG 211600Z 24009KT 12SM FEW025 OVC047 19/16 A2993 RMK SC2SC6 SLP136
CYYG;2002-09-21 17:00;METAR CYYG 211700Z 23007KT 12SM OVC050 20/17 A2992 RMK SC8 SLP132
CYYG;2002-09-21 18:00;METAR CYYG 211800Z 23007KT 12SM OVC050 20/17 A2993 RMK SC8 SLP134
CYYG;2002-09-21 19:00;METAR CYYG 211900Z 22004KT 10SM OVC062 21/17 A2993 RMK SC8 HAZY SLP135
CYYG;2002-09-21 20:00;METAR CYYG 212000Z 22005KT 15SM BKN067 BKN250 22/18 A2993 RMK AC6CI1 SLP137
CYYG;2002-09-21 21:00;METAR CYYG 212100Z 25006KT 15SM SCT067 BKN250 22/18 A2994 RMK AC4CI1 SLP138
CYYG;2002-09-21 22:00;METAR CYYG 212200Z 23003KT 15SM BKN250 20/17 A2995 RMK CI5 SLP143
CYYG;2002-09-21 23:00;METAR CYYG 212300Z 22006KT 15SM BKN250 20/17 A2997 RMK CI5 SLP150
CYYG;2002-09-22 00:00;METAR CYYG 220000Z 22006KT 15SM SCT200 19/17 A2998 RMK CI3 SLP154
CYYG;2002-09-22 01:00;METAR CYYG 220100Z 23007KT 15SM BKN200 19/16 A2999 RMK CI3 SLP157
CYYG;2002-09-22 02:00;METAR CYYG 220200Z 24008KT 15SM SCT230 19/15 A3001 RMK CI2 SLP162
CYYG;2002-09-22 03:00;METAR CYYG 220300Z 22007KT 15SM SCT240 18/15 A3001 RMK CI2 SLP163
CYYG;2002-09-22 04:00;METAR CYYG 220400Z 22005KT 15SM SCT240 17/15 A3003 RMK CI2 SLP168
CYYG;2002-09-22 05:00;METAR CYYG 220500Z 21006KT 15SM FEW240 17/16 A3003 RMK CI1 SLP169
CYYG;2002-09-22 06:00;METAR CYYG 220600Z 22009KT 15SM SKC 18/16 A3003 RMK SLP168
CYYG;2002-09-22 07:00;METAR CYYG 220700Z 21008KT 15SM SKC 17/15 A3002 RMK SLP167
CYYG;2002-09-22 08:00;METAR CYYG 220800Z 21008KT 15SM SKC 17/15 A3002 RMK SLP167
CYYG;2002-09-22 09:00;METAR CYYG 220900Z 20007KT 15SM SCT007 18/16 A3004 RMK SF4 SLP171
CYYG;2002-09-22 10:00;METAR CYYG 221000Z 22010KT 10SM OVC007 18/16 A3004 RMK SF8 SLP174
CYYG;2002-09-22 11:00;METAR CYYG 221100Z 22009KT 5SM BR OVC004 18/16 A3006 RMK SF8 SLP178
CYYG;2002-09-22 12:00;METAR CYYG 221200Z 21010KT 4SM BR OVC004 18/17 A3006 RMK SF8 SLP181
CYYG;2002-09-22 13:00;METAR CYYG 221300Z 22007KT 4SM BR OVC004 19/17 A3008 RMK SF8 SLP187
CYYG;2002-09-22 14:00;METAR CYYG 221400Z 21008KT 6SM BR OVC005 19/17 A3008 RMK SF8 SLP187
CYYG;2002-09-22 15:00;METAR CYYG 221500Z 21009KT 10SM BKN008 20/17 A3009 RMK SF7 SLP188
CYYG;2002-09-22 16:00;METAR CYYG 221600Z 22010G15KT 12SM FEW015 23/19 A3007 RMK CF1 HAZY SLP183
CYYG;2002-09-22 17:00;METAR CYYG 221700Z 20010KT 15SM FEW018 23/19 A3006 RMK CF1 HAZY SLP181
CYYG;2002-09-22 18:00;METAR CYYG 221800Z 20008KT 12SM FEW020 24/19 A3006 RMK CF1 HAZY SLP181
CYYG;2002-09-22 19:00;METAR CYYG 221900Z 23011G17KT 10SM FEW020 24/19 A3006 RMK CU2 HAZY SLP180
CYYG;2002-09-22 20:00;METAR CYYG 222000Z 22012KT 10SM FEW020 FEW042 24/19 A3007 RMK CF1SC1 HAZY SLP183
CYYG;2002-09-22 21:00;METAR CYYG 222100Z 23006KT 10SM BKN045 23/19 A3007 RMK SC6 HAZY SLP184
CYYG;2002-09-22 22:00;METAR CYYG 222200Z 26007KT 10SM FEW045 22/18 A3009 RMK SC2 HAZY SLP191
CYYG;2002-09-22 23:00;METAR CYYG 222300Z 25006KT 15SM FEW200 21/17 A3010 RMK CI2 SLP193
CYYG;2002-09-23 00:00;METAR CYYG 230000Z 22005KT 15SM FEW200 20/17 A3010 RMK CI2 SLP194
CYYG;2002-09-23 01:00;METAR CYYG 230100Z 22006KT 15SM SKC 20/16 A3011 RMK SLP195
CYYG;2002-09-23 02:00;METAR CYYG 230200Z 21006KT 15SM BKN050 19/16 A3011 RMK SC5 SLP197
CYYG;2002-09-23 03:00;METAR CYYG 230300Z 18005KT 15SM SCT050 17/16 A3010 RMK SC2 SLP193
CYYG;2002-09-23 04:00;METAR CYYG 230400Z 18004KT 15SM BKN050 18/15 A3010 RMK SC5 SLP193
CYYG;2002-09-23 05:00;METAR CYYG 230500Z 18007KT 15SM BKN060 18/16 A3011 RMK SC6 SLP197
CYYG;2002-09-23 06:00;METAR CYYG 230600Z 18007KT 15SM BKN061 17/15 A3011 RMK SC6 SLP195
CYYG;2002-09-23 07:00;METAR CYYG 230700Z 18006KT 15SM BKN060 16/15 A3009 RMK SC5 SLP191
CYYG;2002-09-23 08:00;METAR CYYG 230800Z 18008KT 15SM BKN060 17/15 A3009 RMK SC5 SLP191
CYYG;2002-09-23 09:00;METAR CYYG 230900Z 16007KT 15SM SCT060 16/15 A3009 RMK SC3 SLP191
CYYG;2002-09-23 10:00;METAR CYYG 231000Z 18010KT 15SM FEW060 FEW290 17/14 A3009 RMK SC1CI1 SLP191
CYYG;2002-09-23 11:00;METAR CYYG 231100Z 18009KT 15SM FEW030 SCT062 18/15 A3009 RMK CU1SC3 CU OVR STR SLP191
CYYG;2002-09-23 12:00;METAR CYYG 231200Z 17010KT 15SM SCT025 BKN070 18/15 A3010 RMK SC3AC4 CU ASOCTD SLP193
CYYG;2002-09-23 13:00;METAR CYYG 231300Z 18013KT 15SM BKN011 BKN070 BKN290 20/16 A3010 RMK SC5AC1CI0 SLP193
CYYG;2002-09-23 14:00;METAR CYYG 231400Z 19014G19KT 15SM BKN010 21/18 A3011 RMK SC7 SLP195
CYYG;2002-09-23 15:00;METAR CYYG 231500Z 20017KT 15SM FEW011 FEW070 SCT290 22/19 A3010 RMK SC2ACC1CI0 SLP193
CYYG;2002-09-23 16:00;METAR CYYG 231600Z 18014G20KT 15SM FEW012 FEW100 SCT290 23/19 A3010 RMK CU1AC1CI1 SLP192
CYYG;2002-09-23 17:00;METAR CYYG 231700Z 20013G21KT 15SM FEW015 FEW100 SCT290 25/19 A3008 RMK CF1AC1CI1 SLP186
CYYG;2002-09-23 18:00;METAR CYYG 231800Z 19014G20KT 15SM FEW020 FEW100 SCT290 26/19 A3006 RMK CU1AC1CI1 SLP181
CYYG;2002-09-23 19:00;METAR CYYG 231900Z 18014G24KT 15SM FEW020 FEW100 SCT290 25/18 A3006 RMK CU1AC1CI1 SLP178
CYYG;2002-09-23 20:00;METAR CYYG 232000Z 19018G24KT 15SM FEW020 FEW100 SCT290 25/18 A3006 RMK CU1AC1CI2 SLP180
CYYG;2002-09-23 21:00;METAR CYYG 232100Z 19012KT 15SM FEW025 BKN140 BKN290 23/18 A3008 RMK CU1AC6CI0 SLP185
CYYG;2002-09-23 22:00;METAR CYYG 232200Z 20013G19KT 15SM BKN140 BKN290 23/18 A3008 RMK AC6CI1 SLP187
CYYG;2002-09-23 23:00;METAR CYYG 232300Z 20011G19KT 15SM BKN097 BKN290 22/18 A3010 RMK AC6CI1 SLP193
CYYG;2002-09-24 00:00;METAR CYYG 240000Z 21011KT 15SM -SHRA BKN076 21/19 A3012 RMK AC6 SLP200
CYYG;2002-09-24 01:00;METAR CYYG 240100Z 20009KT 10SM SHRA FEW004 BKN021 BKN039 20/19 A3013 RMK SF2SC3SC2 SLP203
CYYG;2002-09-24 02:00;METAR CYYG 240200Z 20009KT 10SM -SHRA BKN002 OVC008 20/19 A3013 RMK SF7SF1 SLP203
CYYG;2002-09-24 03:00;METAR CYYG 240300Z 20008KT 6SM -SHRA BKN003 BKN012 OVC024 20/19 A3013 RMK SF6SF1SC1 SLP202
CYYG;2002-09-24 04:00;METAR CYYG 240400Z 25006KT 6SM -SHRA BKN004 OVC011 20/19 A3014 RMK SF6SF2 SLP208
CYYG;2002-09-24 05:00;METAR CYYG 240500Z 35007KT 6SM -SHRA BKN004 OVC012 18/16 A3016 RMK SF5SF3 SLP213
CYYG;2002-09-24 06:00;METAR CYYG 240600Z 35009KT 6SM -SHRA BKN010 OVC020 15/14 A3017 RMK SF5SC3 SLP216
CYYG;2002-09-24 07:00;METAR CYYG 240700Z 35008KT 15SM -SHRA BKN007 OVC018 15/13 A3017 RMK SF6SF2
CYYG;2002-09-24 08:00;METAR CYYG 240800Z 03013G19KT 6SM -SHRA OVC004 14/13 A3018 RMK SF8 SLP221
CYYG;2002-09-24 09:00;METAR CYYG 240900Z 04011G17KT 15SM OVC013 13/11 A3020 RMK SF8 SLP225
CYYG;2002-09-24 10:00;METAR CYYG 241000Z 03014G20KT 5SM -SHRA BR OVC014 12/10 A3020 RMK SF8 SLP225
CYYG;2002-09-24 11:00;METAR CYYG 241100Z 03013G22KT 5SM -SHRA BR SCT005 OVC019 12/11 A3021 RMK SF4SC4 SLP230
CYYG;2002-09-24 12:00;METAR CYYG 241200Z 01010G16KT 4SM -SHRA BR OVC007 12/11 A3023 RMK SF8 SLP238
CYYG;2002-09-24 13:00;METAR CYYG 241300Z 02014KT 5SM -SHRA BR BKN004 OVC010 12/11 A3023 RMK SF6SC2 CIG RGD SLP238 SLP237 15 SLP237 SLP229
CYYG;2002-09-24 19:00;METAR CYYG 241900Z 02008KT 3SM BR OVC002 14/13 A3019 RMK SF8 SLP225
CYYG;2002-09-24 20:00;METAR CYYG 242000Z 36006KT 1SM BR VV002 14/12 A3019 RMK FG8 RWY03 RVR 6000P SLP224
CYYG;2002-09-24 21:00;METAR CYYG 242100Z 36003KT 4SM -SHRA BR OVC004 13/12 A3020 RMK SF8 SLP228
CYYG;2002-09-24 22:00;METAR CYYG 242200Z 01005KT 3SM -SHRA BR OVC004 13/12 A3020 RMK SF8 SLP227
CYYG;2002-09-24 23:00;METAR CYYG 242300Z 36005KT 3SM -SHRA BR OVC004 13/12 A3019 RMK SF8 SLP223
CYYG;2002-09-25 00:00;METAR CYYG 250000Z 36003KT 3SM -SHRA BR OVC002 13/12 A3019 RMK SF8 SLP224
CYYG;2002-09-25 01:00;METAR CYYG 250100Z 35004KT 1SM -SHRA BR OVC002 13/12 A3020 RMK SF8 SLP228
CYYG;2002-09-25 02:00;METAR CYYG 250200Z 34004KT 3/4SM -SHRA BR VV001 13/12 A3020 RMK FG8 RVR RWY03 3000FT SLP229
CYYG;2002-09-25 03:00;METAR CYYG 250300Z 34005KT 1SM -SHRA BR OVC002 13/12 A3021 RMK SF8 SLP232
CYYG;2002-09-25 04:00;METAR CYYG 250400Z 34006KT 3SM -SHRA BR OVC003 13/12 A3022 RMK SF8 SLP234
CYYG;2002-09-25 05:00;METAR CYYG 250500Z 34004KT 15SM -SHRA BKN010 OVC018 13/12 A3022 RMK SF6SC2 SLP235 SLP237
CYYG;2002-09-25 07:00;METAR CYYG 250700Z 34004KT 15SM FEW010 BKN038 12/11 A3023 RMK SF2SC6
CYYG;2002-09-25 08:00;METAR CYYG 250800Z 33005KT 15SM FEW038 BKN260 11/10 A3023 RMK SC2CI2 SLP238
CYYG;2002-09-25 09:00;METAR CYYG 250900Z 31004KT 15SM FEW038 SCT260 11/09 A3025 RMK SC1CI2 SLP245
CYYG;2002-09-25 10:00;METAR CYYG 251000Z 34005KT 15SM FEW038 SCT260 10/09 A3026 RMK SC1CI1 SLP249
CYYG;2002-09-25 11:00;METAR CYYG 251100Z 36004KT 15SM FEW038 FEW260 10/08 A3028 RMK CU1CI1 SLP254
CYYG;2002-09-25 12:00;METAR CYYG 251200Z 01005KT 15SM FEW038 FEW260 13/10 A3030 RMK CU1CI1 SLP260
CYYG;2002-09-25 13:00;METAR CYYG 251300Z 02010KT 15SM FEW025 FEW260 14/10 A3030 RMK CU1CI1 SLP262
CYYG;2002-09-25 14:00;METAR CYYG 251400Z 03010KT 15SM FEW030 FEW260 15/09 A3031 RMK CU1CI1 SLP265
CYYG;2002-09-25 15:00;METAR CYYG 251500Z 02008KT 15SM FEW030 FEW260 15/08 A3032 RMK CU1CI1 SLP267
CYYG;2002-09-25 16:00;METAR CYYG 251600Z 01008KT 15SM FEW030 FEW260 16/08 A3031 RMK SC1CI1
CYYG;2002-09-25 17:00;METAR CYYG 251700Z 35009KT 15SM FEW030 16/08 A3031 RMK SC1 SLP264
CYYG;2002-09-25 18:00;METAR CYYG 251800Z 01009G16KT 15SM FEW030 16/08 A3030 RMK SC1 SLP261
CYYG;2002-09-25 19:00;METAR CYYG 251900Z 35006KT 15SM FEW030 16/08 A3029 RMK SC1 SLP259
CYYG;2002-09-25 20:00;METAR CYYG 252000Z 35006KT 15SM FEW030 15/08 A3030 RMK CU1 SLP261
CYYG;2002-09-25 21:00;METAR CYYG 252100Z 36005KT 15SM FEW260 15/08 A3030 RMK CI1 SLP262
CYYG;2002-09-25 22:00;METAR CYYG 252200Z 33003KT 15SM SKC 13/08 A3031 RMK SLP266
CYYG;2002-09-25 23:00;METAR CYYG 252300Z 32003KT 15SM SKC 10/08 A3032 RMK SLP268
CYYG;2002-09-26 00:00;METAR CYYG 260000Z 32003KT 15SM SKC 10/07 A3033 RMK SLP271
CYYG;2002-09-26 02:00;METAR CYYG 260200Z 34002KT 15SM SKC 07/06 A3033 RMK SLP271
CYYG;2002-09-26 03:00;METAR CYYG 260300Z 00000KT 15SM SKC 07/06 A3033 RMK SLP272
CYYG;2002-09-26 04:00;METAR CYYG 260400Z 31003KT 15SM SKC 06/05 A3032 RMK SLP269
CYYG;2002-09-26 05:00;METAR CYYG 260500Z 32003KT 15SM SKC 06/05 A3033 RMK SLP270
CYYG;2002-09-26 06:00;METAR CYYG 260600Z 31002KT 15SM SKC 06/05 A3032 RMK SLP268
CYYG;2002-09-26 07:00;METAR CYYG 260700Z CCA 33004KT 15SM SKC 05/03 A3032 RMK SLP267
CYYG;2002-09-26 08:00;METAR CYYG 260800Z 35003KT 15SM SKC 05/03 A3032 RMK SLP268
CYYG;2002-09-26 09:00;METAR CYYG 260900Z 34005KT 15SM SKC 05/04 A3033 RMK SLP271
CYYG;2002-09-26 10:00;METAR CYYG 261000Z 33003KT 15SM FEW120 05/04 A3033 RMK AC1 SLP271
CYYG;2002-09-26 11:00;METAR CYYG 261100Z 00000KT 15SM VCFG FEW120 08/06 A3032 RMK AC0 SLP270
CYYG;2002-09-26 12:00;METAR CYYG 261200Z 00000KT 15SM VCFG FEW120 12/10 A3033 RMK AC0 SLP271
CYYG;2002-09-26 13:00;METAR CYYG 261300Z 04004KT 15SM FEW120 15/11 A3034 RMK AC0 SLP274
CYYG;2002-09-26 14:00;METAR CYYG 261400Z 03004KT 15SM FEW120 16/10 A3033 RMK AC1 SLP273
CYYG;2002-09-26 15:00;METAR CYYG 261500Z 06002KT 15SM FEW120 18/09 A3031 RMK AC1 SLP264
CYYG;2002-09-26 16:00;METAR CYYG 261600Z 00000KT 15SM FEW120 18/10 A3028 RMK AC1 SLP256
CYYG;2002-09-26 17:00;METAR CYYG 261700Z 09004KT 15SM FEW037 FEW120 19/07 A3027 RMK CF0AC0 SLP250
CYYG;2002-09-26 18:00;METAR CYYG 261800Z CCA 02005KT 15SM FEW037 FEW120 19/07 A3025 RMK CF0AC1
CYYG;2002-09-26 19:00;METAR CYYG 261900Z 14003KT 15SM FEW040 FEW120 19/09 A3023 RMK CF1AC1 SLP239
CYYG;2002-09-26 20:00;METAR CYYG 262000Z 20007KT 15SM FEW040 FEW140 17/11 A3023 RMK SC1AC1 SLP238
CYYG;2002-09-26 21:00;METAR CYYG 262100Z 17007KT 15SM FEW040 SCT240 15/11 A3023 RMK SC1CI1 SLP237
CYYG;2002-09-26 22:00;METAR CYYG 262200Z 16004KT 15SM FEW030 SCT100 14/11 A3023 RMK SC2AC2
CYYG;2002-09-26 23:00;METAR CYYG 262300Z 13005KT 15SM SCT100 13/11 A3023 RMK AC3 SLP238
CYYG;2002-09-27 00:00;METAR CYYG 270000Z 11005KT 15SM FEW100 12/08 A3022 RMK AC1 SLP234
CYYG;2002-09-27 01:00;METAR CYYG 270100Z 16003KT 15SM SCT150 11/08 A3020 RMK AC3 SLP229
CYYG;2002-09-27 02:00;METAR CYYG 270200Z 15004KT 15SM FEW150 FEW250 11/09 A3020 RMK AC1CI1 SLP226
CYYG;2002-09-27 03:00;METAR CYYG 270300Z 20010KT 15SM BKN014 OVC250 14/12 A3020 RMK SC7CI1 SLP228
CYYG;2002-09-27 04:00;METAR CYYG 270400Z 19010KT 15SM OVC014 14/11 A3019 RMK SC8 SLP225
CYYG;2002-09-27 05:00;METAR CYYG 270500Z 18008KT 15SM FEW014 OVC250 13/10 A3019 RMK SC1CS6 SLP223
CYYG;2002-09-27 06:00;METAR CYYG 270600Z 19006KT 15SM OVC250 12/10 A3017 RMK CS6 SLP217
CYYG;2002-09-27 07:00;METAR CYYG 270700Z 20006KT 15SM FEW100 OVC250 12/10 A3015 RMK AC2CS3 SLP210
CYYG;2002-09-27 08:00;METAR CYYG 270800Z 18004KT 15SM SCT100 BKN250 11/10 A3015 RMK AC3CS2
CYYG;2002-09-27 09:00;METAR CYYG 270900Z 22003KT 15SM SCT100 OVC250 12/10 A3015 RMK AC3CI2 SLP212
CYYG;2002-09-27 10:00;METAR CYYG 271000Z 20002KT 15SM SCT100 OVC250 11/10 A3016 RMK AC3CI3 SLP213
CYYG;2002-09-27 11:00;METAR CYYG 271100Z 12004KT 15SM FEW100 OVC250 11/09 A3014 RMK AC2CI3 SLP207
CYYG;2002-09-27 12:00;METAR CYYG 271200Z 10003KT 15SM FEW100 BKN250 13/11 A3012 RMK AC2CI3 SLP202
CYYG;2002-09-27 13:00;METAR CYYG 271300Z 16006KT 15SM FEW020 BKN250 15/12 A3012 RMK SC2CI3 SLP199
CYYG;2002-09-27 14:00;METAR CYYG 271400Z 15006KT 15SM FEW010 BKN250 16/12 A3010 RMK SC2CI3 SLP193
CYYG;2002-09-27 15:00;METAR CYYG 271500Z 15009KT 15SM FEW016 BKN250 17/12 A3009 RMK SC2CI3 SLP188
CYYG;2002-09-27 16:00;METAR CYYG 271600Z 17009KT 15SM FEW020 BKN250 18/13 A3006 RMK SC2CI3 SLP181
CYYG;2002-09-27 17:00;METAR CYYG 271700Z 18012KT 15SM FEW020 OVC250 18/12 A3003 RMK SC2CI4 SLP169
CYYG;2002-09-27 18:00;METAR CYYG 271800Z 16012KT 15SM FEW020 OVC250 18/12 A3000 RMK SC1CI5 SLP160
CYYG;2002-09-27 19:00;METAR CYYG 271900Z 14009KT 15SM OVC250 18/13 A2998 RMK CI7 SLP151
CYYG;2002-09-27 20:00;METAR CYYG 272000Z 15010KT 15SM BKN031 OVC250 18/12 A2996 RMK SC5CI3 SLP146
CYYG;2002-09-27 21:00;METAR CYYG 272100Z 15007KT 15SM -SHRA FEW030 BKN100 OVC250 17/13 A2994 RMK SC2AC5CI2 SLP140
CYYG;2002-09-27 22:00;METAR CYYG 272200Z 17009KT 12SM -RA OVC058 15/12 A2995 RMK SC8 SLP143
CYYG;2002-09-27 23:00;METAR CYYG 272300Z 14007KT 8SM -RA BKN014 OVC045 15/13 A2993 RMK SC6SC2 SLP137
CYYG;2002-09-28 00:00;METAR CYYG 280000Z 12007KT 8SM -RA SCT005 OVC019 14/13 A2989 RMK SF3SC5 SLP123
CYYG;2002-09-28 01:00;METAR CYYG 280100Z 13008KT 5SM -RA BR OVC006 14/13 A2986 RMK SF8 SLP111
CYYG;2002-09-28 02:00;METAR CYYG 280200Z 12007KT 3SM -RA BR BKN003 OVC011 14/13 A2982 RMK SF7SC1 SLP097
CYYG;2002-09-28 03:00;METAR CYYG 280300Z 11008KT 5SM -RA BR BKN003 OVC030 14/13 A2976 RMK SF7SC1 SLP078 PRESFR SLP058 SF6SF2 SLP031 SLP008
CYYG;2002-09-28 10:00;METAR CYYG 281000Z 17010KT 6SM RA BKN003 OVC009 16/15 A2948 RMK SF5SF3 RERA SLP983
CYYG;2002-09-28 11:00;METAR CYYG 281100Z 22008G16KT 4SM RA BR OVC005 17/16 A2946 RMK SF8 SLP977
CYYG;2002-09-28 12:00;METAR CYYG 281200Z 00000KT 4SM -SHRA BR BKN008 OVC026 16/15 A2945 RMK SF6SC2 RERA SLP973
CYYG;2002-09-28 13:00;METAR CYYG 281300Z 26007KT 4SM -SHRA BR BKN008 OVC028 17/15 A2945 RMK SF6SC2 SLP973
CYYG;2002-09-28 14:00;METAR CYYG 281400Z 31011KT 4SM -SHRA BR OVC008 17/15 A2947 RMK SF8 SLP978
CYYG;2002-09-28 15:00;METAR CYYG 281500Z 33014G19KT 15SM OVC007 15/14 A2951 RMK SF8 SLP993
CYYG;2002-09-28 16:00;METAR CYYG 281600Z 33013G22KT 15SM OVC006 14/12 A2955 RMK SF8 SLP007
CYYG;2002-09-28 17:00;METAR CYYG 281700Z 33019G26KT 15SM BKN008 OVC012 19/11 A2958 RMK SF5SC3 SLP018
CYYG;2002-09-28 18:00;METAR CYYG 281800Z 33012G24KT 15SM OVC012 14/11 A2962 RMK SC8 SLP030
CYYG;2002-09-28 19:00;METAR CYYG 281900Z 33014KT 15SM OVC010 14/11 A2965 RMK SC8 SLP040
CYYG;2002-09-28 20:00;METAR CYYG 282000Z 33009G18KT 15SM BKN015 14/11 A2966 RMK SC7 SLP046
CYYG;2002-09-28 21:00;METAR CYYG 282100Z 32008KT 15SM FEW018 SCT046 14/11 A2970 RMK SC1SC3 SLP058
CYYG;2002-09-28 22:00;METAR CYYG 282200Z 31007KT 15SM FEW018 SCT032 BKN048 14/12 A2972 RMK CU1SC3SC3 SLP066
CYYG;2002-09-28 23:00;METAR CYYG 282300Z 32013G28KT 15SM VCSH FEW015 SCT026 BKN049 13/10 A2978 RMK SC2SC2SC3 SLP084
CYYG;2002-09-29 00:00;METAR CYYG 290000Z 32012G22KT 15SM BKN032 13/07 A2982 RMK SC5 SLP100
CYYG;2002-09-29 01:00;METAR CYYG 290100Z 32011G16KT 15SM BKN038 12/07 A2984 RMK SC6 SLP106
CYYG;2002-09-29 02:00;METAR CYYG 290200Z 32013G20KT 15SM SCT037 11/05 A2988 RMK SC3 SLP118
CYYG;2002-09-29 03:00;METAR CYYG 290300Z 32011G19KT 15SM SCT040 11/04 A2990 RMK SC4 SLP125
CYYG;2002-09-29 04:00;METAR CYYG 290400Z 32010G18KT 15SM BKN044 10/03 A2991 RMK SC6 SLP130
CYYG;2002-09-29 05:00;METAR CYYG 290500Z 31008KT 15SM SCT048 09/02 A2993 RMK SC4 SLP137
CYYG;2002-09-29 06:00;METAR CYYG 290600Z 34009G17KT 15SM BKN054 10/M00 A2996 RMK SC6 SLP146
CYYG;2002-09-29 07:00;METAR CYYG 290700Z 33008KT 15SM BKN053 08/M01 A2998 RMK SC6 SLP153
CYYG;2002-09-29 08:00;METAR CYYG 290800Z 34007KT 15SM BKN056 08/M01 A2999 RMK SC6 SLP158
CYYG;2002-09-29 09:00;METAR CYYG 290900Z 30006KT 15SM SCT048 BKN061 08/00 A3001 RMK SC3SC3 SLP165
CYYG;2002-09-29 10:00;METAR CYYG 291000Z 27006KT 15SM BKN048 BKN280 06/01 A3004 RMK SC6CI2 SLP175
CYYG;2002-09-29 11:00;METAR CYYG 291100Z 28008KT 15SM FEW048 BKN280 06/02 A3006 RMK SC2CI3 SLP179
CYYG;2002-09-29 12:00;METAR CYYG 291200Z 29011G16KT 15SM FEW042 BKN280 08/02 A3006 RMK SC2CI2 SLP181
CYYG;2002-09-29 13:00;METAR CYYG 291300Z 30010G15KT 15SM FEW042 SCT280 10/03 A3006 RMK SC1CI1
CYYG;2002-09-29 14:00;METAR CYYG 291400Z 29014G20KT 15SM SCT028 BKN280 09/02 A3008 RMK SC3CI1 SLP186
CYYG;2002-09-29 15:00;METAR CYYG 291500Z 28012KT 15SM FEW030 BKN280 10/01 A3006 RMK SC2CI1 SLP182
CYYG;2002-09-29 16:00;METAR CYYG 291600Z 29013G19KT 15SM FEW040 BKN280 11/01 A3006 RMK SC2CI2
CYYG;2002-09-29 17:00;METAR CYYG 291700Z 29012G18KT 15SM FEW042 FEW150 SCT280 10/M02 A3005 RMK SC1AC1CI1 SLP176
CYYG;2002-09-29 18:00;METAR CYYG 291800Z 28017G22KT 15SM FEW045 SCT280 11/M00 A3004 RMK SC1CI1
CYYG;2002-09-29 19:00;METAR CYYG 291900Z 29016G21KT 15SM FEW048 BKN280 11/M01 A3004 RMK SC2CI1
CYYG;2002-09-29 20:00;METAR CYYG 292000Z 31013G19KT 15SM SCT060 BKN280 11/M01 A3006 RMK SC3CI1
CYYG;2002-09-29 21:00;METAR CYYG 292100Z 32009KT 15SM FEW060 BKN280 10/00 A3006 RMK SC2CI1 TR CI
CYYG;2002-09-29 22:00;METAR CYYG 292200Z 30007KT 15SM FEW057 FEW072 09/M01 A3009 RMK SC2AC1 SLP189
CYYG;2002-09-29 23:00;METAR CYYG 292300Z 31010KT 15SM FEW048 SCT062 08/M00 A3010 RMK CU2SC2 SLP195
CYYG;2002-09-30 00:00;METAR CYYG 300000Z 32014G22KT 15SM SCT045 08/01 A3012 RMK SC3 SLP201
CYYG;2002-09-30 01:00;METAR CYYG 300100Z 32010G15KT 15SM FEW045 07/M01 A3013 RMK CU2 SLP205
CYYG;2002-09-30 02:00;METAR CYYG 300200Z 31009KT 15SM BKN049 08/M01 A3014 RMK SC6 SLP209
CYYG;2002-09-30 03:00;METAR CYYG 300300Z 32009KT 15SM BKN049 08/M01 A3015 RMK SC6 SLP211
CYYG;2002-09-30 04:00;METAR CYYG 300400Z 27005KT 15SM BKN053 06/M00 A3016 RMK SC5 SLP213
CYYG;2002-09-30 05:00;METAR CYYG 300500Z 27006KT 15SM BKN045 06/00 A3017 RMK SC6 SLP219
CYYG;2002-09-30 06:00;METAR CYYG 300600Z 27006KT 15SM BKN052 05/00 A3018 RMK SC6 SLP220
CYYG;2002-09-30 07:00;METAR CYYG 300700Z 27008KT 15SM BKN050 05/00 A3019 RMK SC5 SLP224
CYYG;2002-09-30 08:00;METAR CYYG 300800Z 29008KT 15SM BKN043 05/M00 A3019 RMK SC5 SLP224
CYYG;2002-09-30 09:00;METAR CYYG 300900Z 29010KT 15SM FEW043 05/M01 A3021 RMK SC2 SLP232
CYYG;2002-09-30 10:00;METAR CYYG 301000Z 28007KT 15SM FEW043 FEW280 05/01 A3022 RMK SC2CI0 SLP236
CYYG;2002-09-30 11:00;METAR CYYG 301100Z 25006KT 15SM FEW043 FEW120 05/01 A3024 RMK SC1AC1 SLP241
CYYG;2002-09-30 12:00;METAR CYYG 301200Z 26006KT 15SM FEW043 FEW120 07/02 A3024 RMK SC1AC1 SLP243
CYYG;2002-09-30 13:00;METAR CYYG 301300Z 29009KT 15SM FEW040 SCT120 09/01 A3025 RMK SC1AC3 SLP246
CYYG;2002-09-30 14:00;METAR CYYG 301400Z 31010KT 15SM FEW040 SCT120 09/00 A3025 RMK SC2AC2
CYYG;2002-09-30 15:00;METAR CYYG 301500Z 28012KT 15SM FEW040 FEW120 SCT280 10/00 A3024 RMK SC1AC1CI2 SLP240
CYYG;2002-09-30 16:00;METAR CYYG 301600Z 30008KT 15SM FEW040 FEW120 BKN280 11/02 A3021 RMK SC1AC1CI2 SLP232
CYYG;2002-09-30 17:00;METAR CYYG 301700Z 28006KT 15SM FEW040 FEW120 SCT280 12/02 A3019 RMK SC1AC1CI0 SLP225
CYYG;2002-09-30 18:00;METAR CYYG 301800Z 28008KT 15SM FEW040 FEW120 SCT280 12/01 A3018 RMK SC1AC1CI1 SLP221
CYYG;2002-09-30 19:00;METAR CYYG 301900Z 27009KT 15SM FEW040 FEW120 BKN280 12/M00 A3017 RMK SC1AC1CI2 SLP218
CYYG;2002-09-30 20:00;METAR CYYG 302000Z 24008KT 15SM FEW040 FEW120 BKN280 12/01 A3015 RMK SC1AC1CI3 SLP211
CYYG;2002-09-30 21:00;METAR CYYG 302100Z 24008KT 15SM FEW040 FEW120 BKN280 12/03 A3014 RMK SC1AC1CI4 SLP207
CYYG;2002-09-30 22:00;METAR CYYG 302200Z 25004KT 15SM FEW120 FEW280 11/03 A3013 RMK AC1CI0 SLP204
CYYG;2002-09-30 23:00;METAR CYYG 302300Z 22006KT 15SM BKN074 BKN280 11/04 A3012 RMK AC5CI1 SLP201
CYYG;2002-10-01 00:00;METAR CYYG 010000Z 22005KT 15SM FEW053 BKN075 BKN160 11/05 A3010 RMK SC2AC3AC2 SLP194
CYYG;2002-10-01 01:00;METAR CYYG 010100Z 24008KT 15SM BKN058 11/08 A3009 RMK SC6 SLP190
CYYG;2002-10-01 02:00;METAR CYYG 010200Z 23006KT 15SM BKN067 12/09 A3006 RMK AC6 SLP180
CYYG;2002-10-01 03:00;METAR CYYG 010300Z 20010KT 15SM BKN016 BKN058 BKN071 OVC120 13/10 A3002 RMK SC5SC2AC1AC1 SLP167
CYYG;2002-10-01 04:00;METAR CYYG 010400Z 20010KT 15SM OVC012 13/10 A3000 RMK SC8 SLP161
CYYG;2002-10-01 05:00;METAR CYYG 010500Z 23006KT 10SM -RA BKN007 BKN012 OVC037 13/12 A3000 RMK SF5SC2SC2 SLP159
CYYG;2002-10-01 06:00;METAR CYYG 010600Z 23009KT 15SM -RA BKN017 OVC026 14/11 A2996 RMK SC6SC2 SLP147
CYYG;2002-10-01 07:00;METAR CYYG 010700Z 22009KT 10SM -RA BKN005 OVC009 13/12 A2994 RMK SF5SF3 SLP138
CYYG;2002-10-01 08:00;METAR CYYG 010800Z 23009KT 10SM -RA BKN007 OVC012 14/12 A2991 RMK SF6SC2 SLP130
CYYG;2002-10-01 09:00;METAR CYYG 010900Z 24009KT 10SM -RA BKN005 OVC010 14/12 A2990 RMK SF6SF2 SLP126
CYYG;2002-10-01 10:00;METAR CYYG 011000Z 24009KT 7SM -RA BKN005 OVC011 14/13 A2989 RMK SF7SC1 SLP121
CYYG;2002-10-01 11:00;METAR CYYG 011100Z 24011KT 10SM -RA BKN005 OVC012 14/13 A2988 RMK SF7SC1 SLP120
CYYG;2002-10-01 12:00;METAR CYYG 011200Z 26010G15KT 12SM FEW005 OVC009 15/13 A2989 RMK SF1SC8 SLP123
CYYG;2002-10-01 13:00;METAR CYYG 011300Z 25008KT 12SM FEW005 OVC010 15/13 A2988 RMK SF2SC6 SLP118
CYYG;2002-10-01 14:00;METAR CYYG 011400Z 26012KT 12SM BKN009 16/14 A2988 RMK SC7 SLP119
CYYG;2002-10-01 15:00;METAR CYYG 011500Z 26010G17KT 12SM FEW007 BKN013 17/14 A2987 RMK SF2SC6 SLP117
CYYG;2002-10-01 16:00;METAR CYYG 011600Z 27010KT 15SM BKN015 BKN290 19/15 A2985 RMK SC6CI0 CU ASOCTD SLP109
CYYG;2002-10-01 17:00;METAR CYYG 011700Z 22008KT 15SM BKN017 BKN290 20/15 A2983 RMK SC6CI0 CU ASOCTD SLP101
CYYG;2002-10-01 18:00;METAR CYYG 011800Z 21014KT 12SM FEW013 FEW080 SCT290 19/15 A2980 RMK CU2AC1CI0 SLP093
CYYG;2002-10-01 19:00;METAR CYYG 011900Z 22013G19KT 15SM BKN020 BKN290 20/16 A2979 RMK SC6CI0 SLP087
CYYG;2002-10-01 20:00;METAR CYYG 012000Z 22014G20KT 10SM FEW020 BKN290 20/15 A2976 RMK SC1CI2 HAZY SLP079
CYYG;2002-10-01 21:00;METAR CYYG 012100Z 22009KT 15SM BKN140 BKN250 20/15 A2974 RMK ACC6CI1 VIRGA ALQDS SLP073
CYYG;2002-10-01 22:00;METAR CYYG 012200Z 23013G18KT 10SM BKN140 OVC250 19/14 A2972 RMK AC6CI2 HAZY SLP066
CYYG;2002-10-01 23:00;METAR CYYG 012300Z 23015G20KT 15SM BKN170 OVC250 19/13 A2973 RMK AC5CI2 SLP067
CYYG;2002-10-02 00:00;METAR CYYG 020000Z 24017G24KT 15SM -TSRA FEW070 BKN170 OVC250 18/13 A2971 RMK AC2AC5CI2 CB EMBDD LTGCG W-N SLP062
CYYG;2002-10-02 01:00;METAR CYYG 020100Z 24011G16KT 15SM FEW050 SCT150 16/13 A2973 RMK SC2AC2 RETS SLP069
CYYG;2002-10-02 02:00;METAR CYYG 020200Z 25013KT 15SM FEW050 FEW150 16/13 A2972 RMK SC1AC1 SLP065
CYYG;2002-10-02 03:00;METAR CYYG 020300Z 25004KT 15SM SKC 16/14 A2973 RMK SLP067
CYYG;2002-10-02 04:00;METAR CYYG 020400Z 26008KT 15SM SKC 16/14 A2974 RMK SLP072
CYYG;2002-10-02 05:00;METAR CYYG 020500Z 26008KT 15SM SKC 16/14 A2974 RMK SLP073
CYYG;2002-10-02 06:00;METAR CYYG 020600Z 25008KT 15SM SKC 16/14 A2975 RMK SLP076
CYYG;2002-10-02 07:00;METAR CYYG 020700Z 26008KT 15SM SKC 16/14 A2976 RMK SLP077
CYYG;2002-10-02 08:00;METAR CYYG 020800Z 23007KT 10SM SKC 15/14 A2977 RMK SLP082
CYYG;2002-10-02 09:00;METAR CYYG 020900Z 23007KT 15SM SKC 15/13 A2978 RMK SLP085
CYYG;2002-10-02 10:00;METAR CYYG 021000Z 25009KT 4SM BR FEW240 16/14 A2978 RMK CI1 SLP085
CYYG;2002-10-02 11:00;METAR CYYG 021100Z 26007KT 3SM BR FEW240 16/14 A2977 RMK CI1 SLP081
CYYG;2002-10-02 12:00;METAR CYYG 021200Z 23008KT 5SM HZ SCT240 17/15 A2977 RMK CI1 SLP080
CYYG;2002-10-02 13:00;METAR CYYG 021300Z 25009KT 7SM FEW050 BKN240 18/15 A2977 RMK CU1CI2 HAZY SLP082
CYYG;2002-10-02 14:00;METAR CYYG 021400Z 24010KT 10SM FEW080 BKN240 20/16 A2975 RMK ACC1CI2 HAZY SLP074
CYYG;2002-10-02 15:00;METAR CYYG 021500Z 25011KT 10SM BKN240 22/16 A2972 RMK CI2 HAZY SLP064
CYYG;2002-10-02 16:00;METAR CYYG 021600Z 23011G19KT 10SM FEW100 BKN240 23/17 A2969 RMK AC1CI2 HAZY SLP055
CYYG;2002-10-02 17:00;METAR CYYG 021700Z 24015G20KT 12SM FEW100 SCT240 24/16 A2967 RMK AC1CI1 HAZY SLP046
CYYG;2002-10-02 18:00;METAR CYYG 021800Z 25015G25KT 12SM FEW240 24/17 A2963 RMK CI1 HAZY SLP035
CYYG;2002-10-02 19:00;METAR CYYG 021900Z 25017KT 10SM FEW050TCU FEW240 24/17 A2963 RMK TCU1CI1 TCU NW-N SLP034
CYYG;2002-10-02 20:00;METAR CYYG 022000Z 27010KT 10SM FEW050TCU BKN240 23/17 A2965 RMK TCU2CI1 HAZY SLP041
CYYG;2002-10-02 21:00;METAR CYYG 022100Z 25007KT 10SM SCT050TCU BKN120 BKN240 21/16 A2966 RMK TCU3AC2CI1 CB ASOCTD SLP044
CYYG;2002-10-02 22:00;METAR CYYG 022200Z 23006KT 15SM FEW036TCU SCT080 BKN120 20/16 A2966 RMK TCU2AC2AC2 SLP043
CYYG;2002-10-02 23:00;METAR CYYG 022300Z 29005KT 15SM BKN045 OVC240 18/16 A2969 RMK SC5CS2 LTGCC DIST W SLP055
CYYG;2002-10-03 00:00;METAR CYYG 030000Z 33005KT 15SM -SHRA BKN045 BKN120 18/16 A2970 RMK SC5AC1 LTGCC DIST N SLP058
CYYG;2002-10-03 01:00;METAR CYYG 030100Z 29004KT 15SM BKN044 BKN170 18/16 A2971 RMK SC5AC1 SLP062
CYYG;2002-10-03 02:00;METAR CYYG 030200Z 31005KT 15SM -TSRA BKN042 BKN160 17/14 A2971 RMK SC5AC2 CB EMBDD SLP061
CYYG;2002-10-03 03:00;METAR CYYG 030300Z 30007KT 15SM OVC051 16/13 A2974 RMK SC8 LTGCC DIST N SLP070
CYYG;2002-10-03 04:00;METAR CYYG 030400Z 34005KT 15SM OVC054 14/11 A2972 RMK SC8 SLP064
CYYG;2002-10-03 05:00;METAR CYYG 030500Z 34007KT 15SM OVC052 15/10 A2973 RMK SC8 SLP067
CYYG;2002-10-03 06:00;METAR CYYG 030600Z 35009KT 15SM OVC057 14/09 A2974 RMK SC8 SLP071
CYYG;2002-10-03 07:00;METAR CYYG 030700Z 36009G16KT 15SM OVC061 13/08 A2974 RMK SC8 SLP072
CYYG;2002-10-03 08:00;METAR CYYG 030800Z 01012KT 15SM OVC064 12/07 A2976 RMK SC8 SLP076
CYYG;2002-10-03 09:00;METAR CYYG 030900Z 36009KT 15SM OVC064 12/08 A2978 RMK SC8 SLP085
CYYG;2002-10-03 10:00;METAR CYYG 031000Z 36008KT 12SM -SHRA OVC065 10/07 A2979 RMK SC8 SLP088
CYYG;2002-10-03 11:00;METAR CYYG 031100Z 36012KT 15SM -SHRA FEW060 OVC078 09/06 A2981 RMK SC2AC6 SLP096
CYYG;2002-10-03 12:00;METAR CYYG 031200Z 35010KT 15SM -SHRA SCT024 BKN045 OVC082 09/06 A2985 RMK SC4SC2AC2 SLP107
CYYG;2002-10-03 13:00;METAR CYYG 031300Z 35012G17KT 15SM FEW025 SCT045 OVC090 10/05 A2986 RMK SC2SC1AC5 SLP112
CYYG;2002-10-03 14:00;METAR CYYG 031400Z 35017G24KT 15SM SCT030 SCT090 BKN220 10/04 A2987 RMK SC3AC1CS4 SLP117
CYYG;2002-10-03 15:00;METAR CYYG 031500Z 02017G24KT 15SM BKN032 BKN220 10/03 A2990 RMK SC5CS2 SLP127
CYYG;2002-10-03 16:00;METAR CYYG 031600Z 36020G26KT 15SM BKN035 BKN220 10/02 A2992 RMK SC6CS1 CU ASOCTD SLP133
CYYG;2002-10-03 17:00;METAR CYYG 031700Z 36017G27KT 15SM BKN038 09/01 A2996 RMK SC7 SLP144
CYYG;2002-10-03 18:00;METAR CYYG 031800Z 35015G26KT 15SM BKN036 09/M00 A2999 RMK SC6 SLP158
CYYG;2002-10-03 19:00;METAR CYYG 031900Z 36015G21KT 15SM BKN043 08/M01 A3002 RMK SC6 SLP168
CYYG;2002-10-03 20:00;METAR CYYG 032000Z 36013G21KT 15SM BKN048 08/M03 A3005 RMK SC5 SLP178
CYYG;2002-10-03 21:00;METAR CYYG 032100Z 36010KT 15SM BKN050 08/M01 A3009 RMK SC5 SLP190
CYYG;2002-10-03 22:00;METAR CYYG 032200Z 34007KT 15SM SCT051 07/M02 A3012 RMK SC3 SLP200
CYYG;2002-10-03 23:00;METAR CYYG 032300Z 35006KT 15SM FEW050 05/M01 A3014 RMK SC2 SLP209
CYYG;2002-10-04 00:00;METAR CYYG 040000Z 35004KT 15SM FEW050 05/M01 A3017 RMK SC2 SLP218
CYYG;2002-10-04 01:00;METAR CYYG 040100Z 32002KT 15SM SCT050 06/M00 A3021 RMK SC3 SLP231
CYYG;2002-10-04 02:00;METAR CYYG 040200Z 31003KT 15SM SCT048 04/00 A3022 RMK SC3 SLP236
CYYG;2002-10-04 03:00;METAR CYYG 040300Z 32003KT 15SM SCT055 05/01 A3024 RMK SC4 SLP241
CYYG;2002-10-04 04:00;METAR CYYG 040400Z 27003KT 15SM SCT055 05/02 A3025 RMK SC4 SLP246
CYYG;2002-10-04 05:00;METAR CYYG 040500Z 33002KT 15SM BKN051 06/02 A3026 RMK SC5 SLP250
CYYG;2002-10-04 06:00;METAR CYYG 040600Z 28003KT 15SM BKN052 06/00 A3028 RMK SC5 SLP254
CYYG;2002-10-04 07:00;METAR CYYG 040700Z 27004KT 15SM BKN050 05/01 A3029 RMK SC5 SLP259
CYYG;2002-10-04 08:00;METAR CYYG 040800Z 27004KT 15SM SCT050 04/00 A3030 RMK SC4 SLP263
CYYG;2002-10-04 09:00;METAR CYYG 040900Z 29003KT 15SM FEW050 03/M01 A3033 RMK SC2 SLP271
CYYG;2002-10-04 10:00;METAR CYYG 041000Z 27004KT 15SM FEW049 02/M02 A3032 RMK SC2 SLP269
CYYG;2002-10-04 11:00;METAR CYYG 041100Z 27003KT 15SM FEW049 02/M01 A3033 RMK SC2 SLP273
CYYG;2002-10-04 12:00;METAR CYYG 041200Z 27004KT 15SM FEW025 FEW049 07/01 A3036 RMK SC1SC1 SLP282
CYYG;2002-10-04 13:00;METAR CYYG 041300Z 32005KT 15SM FEW025 FEW049 09/00 A3037 RMK SC1SC1 SLP287
CYYG;2002-10-04 14:00;METAR CYYG 041400Z 27005KT 15SM FEW040 09/00 A3038 RMK SC2 SLP288
CYYG;2002-10-04 15:00;METAR CYYG 041500Z 27008KT 15SM BKN039 10/01 A3038 RMK CU5 SLP288
CYYG;2002-10-04 16:00;METAR CYYG 041600Z 29005KT 15SM SCT040 10/01 A3035 RMK SC3 SLP280
CYYG;2002-10-04 17:00;METAR CYYG 041700Z 25010KT 15SM FEW042 FEW300 11/01 A3032 RMK CU2CI0 SLP270
CYYG;2002-10-04 18:00;METAR CYYG 041800Z 25006KT 15SM FEW039 SCT300 11/02 A3032 RMK CU2CI0 SLP268
CYYG;2002-10-04 19:00;METAR CYYG 041900Z 23008KT 15SM FEW039 BKN300 11/M01 A3029 RMK CU1CI1 SLP260
CYYG;2002-10-04 20:00;METAR CYYG 042000Z 22008KT 15SM FEW039 BKN300 11/01 A3027 RMK SC1CI1 SLP253
CYYG;2002-10-04 21:00;METAR CYYG 042100Z 18007KT 15SM FEW039 BKN300 10/02 A3026 RMK CU1CI1 SLP250
CYYG;2002-10-04 22:00;METAR CYYG 042200Z 18006KT 15SM FEW039 BKN300 09/03 A3024 RMK SC1CI2 SLP243
CYYG;2002-10-04 23:00;METAR CYYG 042300Z 21007KT 15SM SCT280 10/03 A3023 RMK CI2 SLP240
CYYG;2002-10-05 00:00;METAR CYYG 050000Z 21010KT 15SM FEW280 10/03 A3023 RMK CI1 SLP238
CYYG;2002-10-05 01:00;METAR CYYG 050100Z 21015G21KT 15SM FEW280 10/04 A3020 RMK CI1 SLP226
CYYG;2002-10-05 02:00;METAR CYYG 050200Z 21013G20KT 15SM FEW160 SCT280 10/04 A3018 RMK AC2CI1 SLP220
CYYG;2002-10-05 03:00;METAR CYYG 050300Z 20016G22KT 15SM BKN160 10/04 A3015 RMK AC5 SLP210
CYYG;2002-10-05 04:00;METAR CYYG 050400Z 20017KT 15SM FEW140 BKN170 10/05 A3012 RMK AC2AC3 SLP200
CYYG;2002-10-05 05:00;METAR CYYG 050500Z 19021G29KT 15SM BKN053 BKN100 11/05 A3008 RMK SC5AC2 SLP186
CYYG;2002-10-05 06:00;METAR CYYG 050600Z 20022G28KT 15SM OVC040 11/06 A3005 RMK SC8 SLP177
CYYG;2002-10-05 07:00;METAR CYYG 050700Z 19019G30KT 15SM OVC046 12/07 A2999 RMK SC8 PRESFR SLP156
CYYG;2002-10-05 08:00;METAR CYYG 050800Z 19018G25KT 15SM OVC052 12/07 A2996 RMK SC8 SLP146
CYYG;2002-10-05 09:00;METAR CYYG 050900Z 19019G28KT 15SM -SHRA OVC056 13/09 A2993 RMK SC8 SLP135
CYYG;2002-10-05 10:00;METAR CYYG 051000Z 19020G29KT 15SM FEW022 BKN057 OVC100 14/10 A2989 RMK SC2SC4AC2 SLP123
CYYG;2002-10-05 11:00;METAR CYYG 051100Z 19020G28KT 15SM BKN020 BKN120 BKN300 14/11 A2986 RMK SC5AC2CI1 SLP113
CYYG;2002-10-05 12:00;METAR CYYG 051200Z 19022G31KT 15SM BKN024 BKN120 15/12 A2981 RMK SC5AC2 SLP095
CYYG;2002-10-05 13:00;METAR CYYG 051300Z 19025G32KT 15SM OVC015 17/13 A2977 RMK SC8 SLP081
CYYG;2002-10-05 14:00;METAR CYYG 051400Z 19022G30KT 12SM -SHRA OVC020 17/14 A2973 RMK SC8 SLP069
CYYG;2002-10-05 15:00;METAR CYYG 051500Z 18021G32KT 12SM -SHRA OVC020 18/15 A2969 RERA RMK SC8 SLP056
CYYG;2002-10-05 16:00;METAR CYYG 051600Z 20023KT 10SM -SHRA OVC019 19/16 A2967 RMK SC8 SLP049
CYYG;2002-10-05 17:00;METAR CYYG 051700Z 19018G24KT 10SM -SHRA FEW014 OVC022 18/16 A2964
CYYG;2002-10-05 18:00;METAR CYYG 051800Z 20015G21KT 5SM -SHRA BR OVC011 19/17 A2962 RERA RMK SC8 SLP031
CYYG;2002-10-05 19:00;METAR CYYG 051900Z 22015G22KT 3SM -SHRA BR OVC006 19/17 A2961 RMK SF8 SLP027
CYYG;2002-10-05 20:00;METAR CYYG 052000Z 23013G24KT 12SM OVC007 19/18 A2963 RMK SF8 SLP033
CYYG;2002-10-05 21:00;METAR CYYG 052100Z 23014G20KT 10SM FEW007 BKN066 19/17 A2965 RMK SF1ACC6 SLP040
CYYG;2002-10-05 22:00;METAR CYYG 052200Z 23011G18KT 5SM BR BKN010 BKN068 OVC280 18/16 A2969 RMK SF5AC2CI2 SLP055
CYYG;2002-10-05 23:00;METAR CYYG 052300Z 23013KT 10SM BKN008 OVC075 18/16 A2972 RMK SF6AC2 SLP064
CYYG;2002-10-06 00:00;METAR CYYG 060000Z 23008G15KT 10SM OVC008 18/16 A2974 RMK SF8 SLP071
CYYG;2002-10-06 01:00;METAR CYYG 060100Z 25011G16KT 10SM OVC007 17/16 A2977 RMK SF8 SLP080
CYYG;2002-10-06 02:00;METAR CYYG 060200Z 25011KT 10SM BKN007 17/15 A2979 RMK SF7 SLP087
CYYG;2002-10-06 03:00;METAR CYYG 060300Z 31009KT 15SM BKN007 BKN045 BKN080 17/14 A2984 RMK SF5SC1AC2 SLP104
CYYG;2002-10-06 04:00;METAR CYYG 060400Z 32012G20KT 15SM FEW007 OVC078 14/08 A2987 RMK SF2AC6 SLP116
CYYG;2002-10-06 05:00;METAR CYYG 060500Z 30011G18KT 15SM BKN078 13/05 A2992 RMK AC6 SLP131
CYYG;2002-10-06 06:00;METAR CYYG 060600Z 30009KT 15SM SCT078 11/04 A2995 RMK AC4 SLP141
CYYG;2002-10-06 07:00;METAR CYYG 060700Z 29010KT 15SM SCT078 11/03 A2998 RMK AC3 SLP152
CYYG;2002-10-06 08:00;METAR CYYG 060800Z 29007KT 15SM FEW078 10/03 A3001 RMK AC2 SLP164
CYYG;2002-10-06 09:00;METAR CYYG 060900Z 29010KT 15SM FEW078 10/03 A3004 RMK AC1 SLP174
CYYG;2002-10-06 10:00;METAR CYYG 061000Z 29006KT 15SM FEW040 08/02 A3009 RMK SC1 SLP188
CYYG;2002-10-06 11:00;METAR CYYG 061100Z 28008KT 15SM FEW032 08/03 A3011 RMK SC1 SLP195
CYYG;2002-10-06 12:00;METAR CYYG 061200Z 29010KT 15SM FEW032 09/03 A3014 RMK SC1 SLP208
CYYG;2002-10-06 13:00;METAR CYYG 061300Z 30013G18KT 15SM FEW030 10/02 A3017 RMK SC1 SLP218
CYYG;2002-10-06 14:00;METAR CYYG 061400Z 31010G17KT 15SM SKC 10/01 A3020 RMK SLP226
CYYG;2002-10-06 15:00;METAR CYYG 061500Z 31009G15KT 15SM SKC 11/01 A3021 RMK SLP231
CYYG;2002-10-06 16:00;METAR CYYG 061600Z 31009G17KT 15SM FEW250 11/00 A3022 RMK CI0 SLP233
CYYG;2002-10-06 17:00;METAR CYYG 061700Z 32008G15KT 15SM FEW250 12/M01 A3022 RMK CI0 SLP234
CYYG;2002-10-06 18:00;METAR CYYG 061800Z 32008KT 15SM FEW250 12/00 A3023 RMK CI0 SLP238
CYYG;2002-10-06 19:00;METAR CYYG 061900Z 33008KT 15SM FEW250 11/M00 A3024 RMK CI0 SLP242
CYYG;2002-10-06 20:00;METAR CYYG 062000Z 33007KT 15SM FEW250 11/M02 A3025 RMK CI0 SLP245
CYYG;2002-10-06 21:00;METAR CYYG 062100Z 34004KT 15SM FEW250 10/M01 A3028 RMK CI1 SLP254
CYYG;2002-10-06 22:00;METAR CYYG 062200Z 17002KT 15SM FEW250 08/M00 A3031 RMK CI1 SLP263
CYYG;2002-10-06 23:00;METAR CYYG 062300Z 00000KT 15SM FEW250 06/01 A3033 RMK CI1 SLP270
CYYG;2002-10-07 00:00;METAR CYYG 070000Z 00000KT 15SM FEW250 03/01 A3033 RMK CI0 SLP271
CYYG;2002-10-07 01:00;METAR CYYG 070100Z 00000KT 15SM SKC 03/00 A3034 RMK SLP275
CYYG;2002-10-07 02:00;METAR CYYG 070200Z 16002KT 15SM SKC 04/01 A3034 RMK SLP275
CYYG;2002-10-07 03:00;METAR CYYG 070300Z 00000KT 15SM SKC 03/00 A3033 RMK SLP273
CYYG;2002-10-07 04:00;METAR CYYG 070400Z 13003KT 15SM SKC 04/01 A3033 RMK AURBO SLP272
CYYG;2002-10-07 05:00;METAR CYYG 070500Z 12004KT 15SM SKC 04/M00 A3032 RMK AURBO SLP270
CYYG;2002-10-07 06:00;METAR CYYG 070600Z 00000KT 15SM SKC 02/M01 A3031 RMK AURBO SLP267
CYYG;2002-10-07 07:00;METAR CYYG 070700Z 00000KT 15SM FEW250 03/M00 A3031 RMK CI1 AURBO SLP267
CYYG;2002-10-07 08:00;METAR CYYG 070800Z 11003KT 15SM FEW250 04/00 A3031 RMK CI1 AURBO SLP265
CYYG;2002-10-07 09:00;METAR CYYG 070900Z 13003KT 15SM SCT250 04/01 A3029 RMK CI1 SLP260
CYYG;2002-10-07 10:00;METAR CYYG 071000Z 14005KT 15SM FEW160 BKN250 05/03 A3028 RMK AC2CI2 SLP257
CYYG;2002-10-07 11:00;METAR CYYG 071100Z 15007KT 15SM SCT160 BKN230 07/04 A3028 RMK AC3CI2 SLP254
CYYG;2002-10-07 12:00;METAR CYYG 071200Z 13007KT 15SM FEW160 SCT230 09/05 A3025 RMK AC2CI2 SLP245
CYYG;2002-10-07 13:00;METAR CYYG 071300Z 14014KT 15SM FEW020 FEW160 BKN230 10/05 A3021 RMK CF1AC2CI1 SLP232
CYYG;2002-10-07 14:00;METAR CYYG 071400Z 15013G19KT 15SM FEW024 SCT230 12/06 A3017 RMK CF1CI1 SLP219
CYYG;2002-10-07 15:00;METAR CYYG 071500Z 16016G22KT 15SM SCT022 BKN230 14/08 A3011 RMK SC3CI1 PRESFR SLP197
CYYG;2002-10-07 16:00;METAR CYYG 071600Z 16021G27KT 15SM SCT022 BKN250 15/08 A3008 RMK SC3CI2 SLP187
CYYG;2002-10-07 17:00;METAR CYYG 071700Z 15015G28KT 15SM FEW022 BKN250 16/09 A3004 RMK SC2CI2 SLP174
CYYG;2002-10-07 18:00;METAR CYYG 071800Z 16020G25KT 15SM FEW020 BKN033 OVC240 14/08 A3001 RMK SC2SC3CI2 SLP162
CYYG;2002-10-07 19:00;METAR CYYG 071900Z 16017KT 15SM BKN038 OVC056 14/09 A2996 RMK SC6SC2 SLP146
CYYG;2002-10-07 20:00;METAR CYYG 072000Z 16015G21KT 15SM VCSH BKN019 OVC034 13/09 A2994 RMK SC6SC2 VIS LWR SW SLP141
CYYG;2002-10-07 21:00;METAR CYYG 072100Z 14013G20KT 3SM -SHRA BR SCT007 OVC014 11/10 A2992 RMK SF3SC5 SLP133
CYYG;2002-10-07 22:00;METAR CYYG 072200Z 14009KT 2 1/2SM -RA BR BKN006 OVC014 11/10 A2987 RMK SF6SC2 SLP117
CYYG;2002-10-07 23:00;METAR CYYG 072300Z 15011KT 5SM -RA BR BKN004 OVC010 11/10 A2984 RMK SF6SC2 SLP107 SLP096 SLP092
CYYG;2002-10-08 02:00;METAR CYYG 080200Z 21005KT 8SM SCT003 OVC009 12/11 A2979 RMK SF3SF5 SLP090
CYYG;2002-10-08 03:00;METAR CYYG 080300Z 24005KT 15SM FEW009 BKN022 OVC040 13/12 A2979 RMK SF1SC6SC2 SLP087
CYYG;2002-10-08 04:00;METAR CYYG 080400Z 26008KT 15SM FEW007 OVC045 13/12 A2979 RMK SF2SC6 SLP089
CYYG;2002-10-08 05:00;METAR CYYG 080500Z 26008KT 15SM SCT012 OVC051 13/12 A2981 RMK SF3SC5 SLP095
CYYG;2002-10-08 06:00;METAR CYYG 080600Z 28011KT 15SM FEW012 FEW051 13/10 A2983 RMK SF1SC2 AURBO SLP101
CYYG;2002-10-08 07:00;METAR CYYG 080700Z 28009G16KT 15SM FEW052 11/08 A2985 RMK SC2 AURBO SLP107
CYYG;2002-10-08 08:00;METAR CYYG 080800Z 30009KT 15SM FEW050 10/06 A2987 RMK SC1 SLP115
CYYG;2002-10-08 09:00;METAR CYYG 080900Z 29009KT 15SM FEW050 08/03 A2990 RMK SC1 SLP128
CYYG;2002-10-08 10:00;METAR CYYG 081000Z 28005KT 15SM FEW050 FEW240 06/02 A2994 RMK SC1CI1 SLP139
CYYG;2002-10-08 11:00;METAR CYYG 081100Z 27005KT 15SM FEW050 FEW240 06/02 A2996 RMK SC1CI0 SLP147
CYYG;2002-10-08 12:00;METAR CYYG 081200Z 27008KT 15SM FEW050 FEW240 08/03 A2998 RMK SC1CI0 SLP155
CYYG;2002-10-08 13:00;METAR CYYG 081300Z 28013KT 15SM FEW050 FEW240 09/02 A3000 RMK SC1CI0 SLP159
CYYG;2002-10-08 14:00;METAR CYYG 081400Z 30011G17KT 15SM FEW040 FEW240 09/01 A3002 RMK CU1CI0 SLP166
CYYG;2002-10-08 15:00;METAR CYYG 081500Z 28011G17KT 15SM FEW040 FEW240 10/01 A3004 RMK CU1CI1 SLP174
CYYG;2002-10-08 16:00;METAR CYYG 081600Z 27013G19KT 15SM FEW040 FEW240 10/01 A3004 RMK CU1CI0 SLP175
CYYG;2002-10-08 17:00;METAR CYYG 081700Z 28013KT 15SM FEW040 FEW240 10/00 A3004 RMK CU1CI0
CYYG;2002-10-08 18:00;METAR CYYG 081800Z 30011G19KT 15SM FEW047 FEW240 11/01 A3006 RMK CU1CI0 SLP180
CYYG;2002-10-08 19:00;METAR CYYG 081900Z 32015KT 15SM FEW046 FEW240 10/M01 A3007 RMK CU1CI0 SLP184
CYYG;2002-10-08 20:00;METAR CYYG 082000Z 29012KT 15SM FEW046 FEW240 10/M02 A3009 RMK CU1CI1 SLP191
CYYG;2002-10-08 21:00;METAR CYYG 082100Z 30004KT 15SM FEW046 FEW240 09/M00 A3012 RMK SC1CI1 SLP201
CYYG;2002-10-08 22:00;METAR CYYG 082200Z 28004KT 15SM FEW045 07/M01 A3014 RMK SC1 SLP209
CYYG;2002-10-08 23:00;METAR CYYG 082300Z 26006KT 15SM FEW045 07/M02 A3017 RMK SC1 SLP217
CYYG;2002-10-09 00:00;METAR CYYG 090000Z 28006KT 15SM FEW045 05/M02 A3020 RMK SC1 SLP227
CYYG;2002-10-09 01:00;METAR CYYG 090100Z 32004KT 15SM FEW055 06/M00 A3023 RMK SC2 SLP238
CYYG;2002-10-09 02:00;METAR CYYG 090200Z 32005KT 15SM FEW055 05/M01 A3024 RMK SC1 SLP242
CYYG;2002-10-09 03:00;METAR CYYG 090300Z 32006KT 15SM FEW055 05/M02 A3025 RMK SC1 SLP244
CYYG;2002-10-09 04:00;METAR CYYG 090400Z 30007KT 15SM FEW055 04/M02 A3024 RMK SC1 SLP243
CYYG;2002-10-09 05:00;METAR CYYG 090500Z 28007KT 15SM FEW055 04/M02 A3025 RMK SC1 SLP247
CYYG;2002-10-09 06:00;METAR CYYG 090600Z 27006KT 15SM FEW055 02/M02 A3026 RMK SC1 SLP250
CYYG;2002-10-09 07:00;METAR CYYG 090700Z 27006KT 15SM FEW055 03/M02 A3027 RMK SC1 SLP252
CYYG;2002-10-09 08:00;METAR CYYG 090800Z CCA 29007KT 15SM FEW040 04/M02 A3029 RMK SC2 SLP258
CYYG;2002-10-09 09:00;METAR CYYG 090900Z 27007KT 15SM BKN045 04/M01 A3030 RMK SC6 SLP263
CYYG;2002-10-09 10:00;METAR CYYG 091000Z 29008KT 15SM BKN045 04/M01 A3031 RMK SC6 SLP266
CYYG;2002-10-09 11:00;METAR CYYG 091100Z 32004KT 15SM BKN046 04/M00 A3033 RMK SC6 SLP271
CYYG;2002-10-09 12:00;METAR CYYG 091200Z 30005KT 15SM BKN045 05/01 A3033 RMK SC5 SLP274
CYYG;2002-10-09 13:00;METAR CYYG 091300Z 36008KT 15SM BKN045 07/M00 A3035 RMK SC5 SLP280
CYYG;2002-10-09 14:00;METAR CYYG 091400Z 36009KT 15SM BKN041 08/M01 A3037 RMK SC6 SLP287
CYYG;2002-10-09 15:00;METAR CYYG 091500Z 33010KT 15SM BKN039 08/M01 A3039 RMK SC6 SLP292
CYYG;2002-10-09 16:00;METAR CYYG 091600Z 33010KT 15SM BKN041 08/M01 A3039 RMK SC6 SLP294
CYYG;2002-10-09 17:00;METAR CYYG 091700Z 34009KT 15SM BKN041 08/M01 A3039 RMK SC7 SLP292
CYYG;2002-10-09 18:00;METAR CYYG 091800Z 01006KT 15SM BKN041 07/M02 A3039 RMK SC7 SLP293
CYYG;2002-10-09 19:00;METAR CYYG 091900Z 01006KT 15SM BKN038 07/M01 A3039 RMK SC7 SLP293
CYYG;2002-10-09 20:00;METAR CYYG 092000Z 36006KT 15SM BKN041 07/M01 A3040 RMK SC6 SLP295
CYYG;2002-10-09 21:00;METAR CYYG 092100Z 36005KT 15SM BKN040 BKN250 06/M02 A3041 RMK SC5CI1 SLP299
CYYG;2002-10-09 22:00;METAR CYYG 092200Z 36004KT 15SM BKN036 BKN250 04/M02 A3041 RMK SC5CI1 SLP301
CYYG;2002-10-09 23:00;METAR CYYG 092300Z 35004KT 15SM SCT035 BKN130 BKN250 03/M01 A3043 RMK SC3AC2CI0 SLP305
CYYG;2002-10-10 00:00;METAR CYYG 100000Z 36003KT 15SM FEW038 BKN140 03/M01 A3044 RMK SC2AC5 SLP311
CYYG;2002-10-10 01:00;METAR CYYG 100100Z 36002KT 15SM FEW036 BKN130 04/M01 A3045 RMK SC2AC6 SLP312
CYYG;2002-10-10 02:00;METAR CYYG 100200Z 02002KT 15SM FEW038 BKN110 04/00 A3045 RMK SC2AC6
CYYG;2002-10-10 03:00;METAR CYYG 100300Z 36002KT 15SM FEW035 OVC120 04/00 A3045 RMK SC2AC6
CYYG;2002-10-10 04:00;METAR CYYG 100400Z 05002KT 15SM OVC098 04/M00 A3044 RMK AC8 SLP311
CYYG;2002-10-10 05:00;METAR CYYG 100500Z 00000KT 15SM OVC088 04/01 A3045 RMK AC8 SLP314
CYYG;2002-10-10 06:00;METAR CYYG 100600Z 32002KT 15SM OVC097 04/01 A3046 RMK AC8 SLP317
CYYG;2002-10-10 07:00;METAR CYYG 100700Z 29002KT 15SM OVC092 04/01 A3047 RMK AC8 SLP319
CYYG;2002-10-10 08:00;METAR CYYG 100800Z 00000KT 15SM SCT090 OVC140 03/01 A3048 RMK AC4AC4 SLP322
CYYG;2002-10-10 09:00;METAR CYYG 100900Z 00000KT 15SM BKN100 OVC140 03/01 A3048 RMK AC5AC3 SLP324
CYYG;2002-10-10 10:00;METAR CYYG 101000Z 00000KT 15SM FEW080 BKN140 03/M00 A3049 RMK AC2AC6 SLP326
CYYG;2002-10-10 11:00;METAR CYYG 101100Z 32002KT 15SM FEW080 BKN110 03/00 A3050 RMK AC2AC6 SLP328
CYYG;2002-10-10 12:00;METAR CYYG 101200Z 00000KT 15SM BKN100 04/02 A3050 RMK AC7 SLP331
CYYG;2002-10-10 13:00;METAR CYYG 101300Z 10003KT 15SM BKN086 07/00 A3050 RMK AC7 SLP331
CYYG;2002-10-10 14:00;METAR CYYG 101400Z 08005KT 15SM BKN085 08/00 A3050 RMK AC7 SLP330
CYYG;2002-10-10 15:00;METAR CYYG 101500Z 13003KT 15SM FEW050 BKN100 08/M01 A3050 RMK SC1AC6 SLP330
CYYG;2002-10-10 16:00;METAR CYYG 101600Z 09003KT 15SM FEW050 BKN090 09/M00 A3049 RMK SC1AC5
CYYG;2002-10-10 17:00;METAR CYYG 101700Z 09004KT 15SM FEW050 BKN075 10/M01 A3048 RMK SC2AC6
CYYG;2002-10-10 18:00;METAR CYYG 101800Z 12003KT 15SM FEW040 BKN070 09/M02 A3047 RMK SC1AC6 SLP321
CYYG;2002-10-10 19:00;METAR CYYG 101900Z 05007KT 15SM FEW040 BKN065 09/00 A3048 RMK SC1AC6
CYYG;2002-10-10 20:00;METAR CYYG 102000Z 05007KT 15SM FEW040 BKN060 09/01 A3047 RMK SC1SC6
CYYG;2002-10-10 21:00;METAR CYYG 102100Z 07005KT 15SM FEW040 BKN062 07/01 A3047 RMK SC1SC7 SLP320
CYYG;2002-10-10 22:00;METAR CYYG 102200Z 08005KT 15SM SCT034 OVC070 06/02 A3048 RMK SC4AC4
CYYG;2002-10-10 23:00;METAR CYYG 102300Z 10006KT 15SM SCT032 OVC065 07/02 A3049 RMK SC3SC5 SLP325
CYYG;2002-10-11 00:00;METAR CYYG 110000Z 09004KT 15SM FEW030 OVC063 06/02 A3050 RMK SC2SC6 SLP328
CYYG;2002-10-11 01:00;METAR CYYG 110100Z 11005KT 15SM OVC060 06/01 A3049 RMK SC8 SLP326
CYYG;2002-10-11 02:00;METAR CYYG 110200Z 11004KT 15SM OVC061 06/02 A3050 RMK SC8 SLP329
CYYG;2002-10-11 03:00;METAR CYYG 110300Z 10003KT 15SM OVC050 06/02 A3050 RMK SC8 SLP328
CYYG;2002-10-11 04:00;METAR CYYG 110400Z 12004KT 15SM OVC053 06/02 A3049 RMK SC8 SLP325
CYYG;2002-10-11 05:00;METAR CYYG 110500Z 10004KT 15SM OVC047 06/02 A3048 RMK SC8 SLP324
CYYG;2002-10-11 06:00;METAR CYYG 110600Z 10003KT 15SM OVC048 06/03 A3048 RMK SC8 SLP324
CYYG;2002-10-11 07:00;METAR CYYG 110700Z 12003KT 15SM OVC043 07/04 A3048 RMK SC8 SLP324
CYYG;2002-10-11 08:00;METAR CYYG 110800Z 11002KT 15SM OVC046 07/04 A3048 RMK SC8 SLP323
CYYG;2002-10-11 09:00;METAR CYYG 110900Z 13002KT 15SM OVC045 07/04 A3049 RMK SC8 SLP327
CYYG;2002-10-11 10:00;METAR CYYG 111000Z 13003KT 15SM BKN045 OVC100 07/04 A3049 RMK SC6AC2 SLP326
CYYG;2002-10-11 11:00;METAR CYYG 111100Z 00000KT 15SM OVC038 07/05 A3051 RMK SC8 SLP332
CYYG;2002-10-11 12:00;METAR CYYG 111200Z 17002KT 15SM -SHRA OVC034 08/05 A3052 RMK SC8 VSBY LWR NW SLP335
CYYG;2002-10-11 13:00;METAR CYYG 111300Z 14005KT 15SM OVC028 08/06 A3052 RMK SC8 SLP337
CYYG;2002-10-11 14:00;METAR CYYG 111400Z 16004KT 15SM OVC031 09/07 A3053 RMK SC8 SLP339
CYYG;2002-10-11 15:00;METAR CYYG 111500Z 19008KT 15SM OVC042 11/08 A3051 RMK SC8 SLP333
CYYG;2002-10-11 16:00;METAR CYYG 111600Z 20009KT 15SM BKN017 BKN047 OVC096 12/08 A3050 RMK CU5SC1AC2 SLP331
CYYG;2002-10-11 17:00;METAR CYYG 111700Z 19008KT 15SM SCT019 BKN066 BKN097 13/08 A3049 RMK CU3AC2AC2 SLP327
CYYG;2002-10-11 18:00;METAR CYYG 111800Z 25009KT 15SM FEW020 OVC058 12/08 A3049 RMK SC2SC6
CYYG;2002-10-11 19:00;METAR CYYG 111900Z 23006KT 15SM FEW020 OVC058 12/08 A3049 RMK SC2SC6
CYYG;2002-10-11 20:00;METAR CYYG 112000Z 22004KT 15SM FEW030 OVC047 13/08 A3049 RMK SC2SC6 SLP325
CYYG;2002-10-11 21:00;METAR CYYG 112100Z 23004KT 15SM BKN052 OVC160 12/08 A3049 RMK SC6AC2 SLP327
CYYG;2002-10-11 22:00;METAR CYYG 112200Z 21003KT 15SM BKN070 OVC160 12/08 A3050 RMK AC6AC2
CYYG;2002-10-11 23:00;METAR CYYG 112300Z 20003KT 15SM OVC075 11/08 A3050 RMK AC6 SLP331
CYYG;2002-10-12 00:00;METAR CYYG 120000Z 21004KT 15SM FEW042 OVC075 11/08 A3050 RMK SC2AC6 SLP329
CYYG;2002-10-12 01:00;METAR CYYG 120100Z 23004KT 15SM FEW040 OVC072 11/08 A3050 RMK SC2AC6
CYYG;2002-10-12 02:00;METAR CYYG 120200Z 22003KT 15SM OVC070 11/08 A3050 RMK AC8 SLP331
CYYG;2002-10-12 03:00;METAR CYYG 120300Z 23004KT 15SM OVC066 11/08 A3051 RMK AC8 SLP332
CYYG;2002-10-12 04:00;METAR CYYG 120400Z 23004KT 15SM SCT035 OVC072 11/08 A3051 RMK SC3AC5 SLP333
CYYG;2002-10-12 05:00;METAR CYYG 120500Z 24004KT 15SM SCT030 OVC070 11/08 A3052 RMK SC3AC5 SLP335
CYYG;2002-10-12 06:00;METAR CYYG 120600Z 29003KT 15SM FEW030 OVC070 10/08 A3051 RMK SC2AC6
CYYG;2002-10-12 07:00;METAR CYYG 120700Z 27004KT 15SM OVC066 10/08 A3051 RMK AC8 SLP332
CYYG;2002-10-12 08:00;METAR CYYG 120800Z 00000KT 15SM FEW020 OVC068 10/08 A3052 RMK SC2AC6 SLP336
CYYG;2002-10-12 09:00;METAR CYYG 120900Z 27003KT 15SM SCT020 OVC068 11/08 A3052 RMK SC3AC5 SLP338
CYYG;2002-10-12 10:00;METAR CYYG 121000Z 33002KT 15SM BKN016 OVC067 10/08 A3052 RMK SC7AC1 SLP337
CYYG;2002-10-12 11:00;METAR CYYG 121100Z 34003KT 15SM BKN012 10/08 A3052 RMK SC7 SLP337
CYYG;2002-10-12 12:00;METAR CYYG 121200Z 03003KT 10SM BKN013 BKN062 11/09 A3053 RMK SC5SC2 SLP340
CYYG;2002-10-12 13:00;METAR CYYG 121300Z 08003KT 12SM BKN010 BKN035 12/09 A3053 RMK SC5SC2 SLP341
CYYG;2002-10-12 14:00;METAR CYYG 121400Z 11003KT 15SM BKN012 BKN035 13/09 A3054 RMK SC6SC1 CU ASOCTD SLP343
CYYG;2002-10-12 15:00;METAR CYYG 121500Z 00000KT 15SM BKN018 14/09 A3053 RMK CU6 SLP340
CYYG;2002-10-12 16:00;METAR CYYG 121600Z 05004KT 15SM BKN025 14/09 A3051 RMK CU5 SLP334
CYYG;2002-10-12 17:00;METAR CYYG 121700Z 07002KT 15SM SCT034 15/09 A3050 RMK CU4 SLP330
CYYG;2002-10-12 18:00;METAR CYYG 121800Z 05008KT 15SM SCT025 SCT060 BKN260 12/08 A3051 RMK CU4SC1CI0 SLP332
CYYG;2002-10-12 19:00;METAR CYYG 121900Z 04006KT 15SM SCT022 BKN050 11/08 A3050 RMK CU3SC3 SLP330
CYYG;2002-10-12 20:00;METAR CYYG 122000Z 03008KT 15SM BKN020 BKN045 11/07 A3049 RMK SC5SC2 SLP326
CYYG;2002-10-12 21:00;METAR CYYG 122100Z 05008KT 15SM SCT024 BKN045 11/07 A3048 RMK SC3SC2 SLP324
CYYG;2002-10-12 22:00;METAR CYYG 122200Z 03004KT 15SM SCT025 BKN045 08/06 A3049 RMK SC3SC2 SLP325
CYYG;2002-10-12 23:00;METAR CYYG 122300Z 07006KT 15SM FEW025 SCT045 08/06 A3048 RMK SC2SC2 SLP323
CYYG;2002-10-13 00:00;METAR CYYG 130000Z 08005KT 15SM FEW045 08/05 A3047 RMK SC2 SLP319
CYYG;2002-10-13 01:00;METAR CYYG 130100Z 10003KT 15SM FEW045 07/06 A3047 RMK SC2 SLP321
CYYG;2002-10-13 02:00;METAR CYYG 130200Z 09003KT 15SM FEW045 05/04 A3046 RMK SC2 SLP317
CYYG;2002-10-13 04:00;METAR CYYG 130400Z 00000KT 15SM FEW040 04/02 A3044 RMK SC2 SLP308
CYYG;2002-10-13 05:00;METAR CYYG 130500Z 00000KT 15SM SKC 03/02 A3042 RMK SLP304
CYYG;2002-10-13 06:00;METAR CYYG 130600Z 09002KT 15SM SKC 02/02 A3041 RMK SLP300
CYYG;2002-10-13 07:00;METAR CYYG 130700Z 09002KT 15SM SKC 03/02 A3039 RMK SLP294
CYYG;2002-10-13 08:00;METAR CYYG 130800Z 11002KT 15SM SKC 04/02 A3038 RMK SLP290
CYYG;2002-10-13 09:00;METAR CYYG 130900Z 08003KT 15SM SKC 02/01 A3038 RMK SLP289
CYYG;2002-10-13 10:00;METAR CYYG 131000Z 09002KT 8SM MIFG FEW120 03/02 A3038 RMK AC1 FROIN SLP290
CYYG;2002-10-13 11:00;METAR CYYG 131100Z 04002KT 12SM MIFG FEW030 01/M00 A3038 RMK CU1 CU OVR STR FROIN SLP289
CYYG;2002-10-13 12:00;METAR CYYG 131200Z 00000KT 10SM FEW030 06/05 A3038 RMK CU1 CU OVR STR
CYYG;2002-10-13 13:00;METAR CYYG 131300Z 10005KT 10SM SCT015 10/08 A3037 RMK SC3 SLP285
CYYG;2002-10-13 14:00;METAR CYYG 131400Z 12007KT 10SM FEW009 FEW015 12/09 A3035 RMK CF1CU2 SLP279
CYYG;2002-10-13 15:00;METAR CYYG 131500Z 11007KT 12SM BKN016 12/08 A3033 RMK CU6 SLP271
CYYG;2002-10-13 16:00;METAR CYYG 131600Z 13008KT 15SM BKN025 13/08 A3030 RMK SC7 CU ASOCTD SLP262
CYYG;2002-10-13 17:00;METAR CYYG 131700Z 18010KT 15SM BKN024 14/08 A3027 RMK SC6 SLP253
CYYG;2002-10-13 18:00;METAR CYYG 131800Z 17009KT 15SM SCT022 14/08 A3025 RMK SC3 SLP246
CYYG;2002-10-13 19:00;METAR CYYG 131900Z 16006KT 15SM FEW022 13/08 A3023 RMK SC1 SLP239
CYYG;2002-10-13 20:00;METAR CYYG 132000Z 15005KT 15SM FEW022 FEW290 13/08 A3022 RMK SC1CI1 SLP235
CYYG;2002-10-13 21:00;METAR CYYG 132100Z 14004KT 15SM FEW020 FEW290 12/07 A3021 RMK SC1CI1 SLP231
CYYG;2002-10-13 22:00;METAR CYYG 132200Z 12006KT 15SM SKC 10/07 A3020 RMK SLP228
CYYG;2002-10-13 23:00;METAR CYYG 132300Z 11005KT 15SM FEW280 09/06 A3020 RMK CI0 SLP227
CYYG;2002-10-14 00:00;METAR CYYG 140000Z 12006KT 15SM FEW280 09/06 A3018 RMK CI0 SLP223
CYYG;2002-10-14 01:00;METAR CYYG 140100Z 15008KT 15SM FEW280 09/07 A3016 RMK CI0 SLP215
CYYG;2002-10-14 02:00;METAR CYYG 140200Z 17014KT 15SM FEW016 FEW280 11/08 A3014 RMK SC1CI0 SLP208
CYYG;2002-10-14 03:00;METAR CYYG 140300Z 17014KT 15SM SCT019 11/08 A3011 RMK SC3 SLP197
CYYG;2002-10-14 04:00;METAR CYYG 140400Z 16011KT 15SM BKN020 12/09 A3008 RMK SC5 SLP188
CYYG;2002-10-14 05:00;METAR CYYG 140500Z 19011G19KT 15SM SCT016 12/09 A3007 RMK SC4 SLP184
CYYG;2002-10-14 06:00;METAR CYYG 140600Z 17011G16KT 15SM BKN011 11/09 A3004 RMK SC6 SLP174
CYYG;2002-10-14 07:00;METAR CYYG 140700Z 17009KT 15SM BKN010 12/09 A3002 RMK SC6 SLP168
CYYG;2002-10-14 08:00;METAR CYYG 140800Z 15007KT 15SM BKN010 12/10 A3000 RMK SC6 SLP161
CYYG;2002-10-14 09:00;METAR CYYG 140900Z 14010KT 15SM BKN010 12/10 A2996 RMK SF7 SLP147
CYYG;2002-10-14 10:00;METAR CYYG 141000Z 16004KT 5SM -SHRA BR BKN005 OVC008 12/11 A2995 RMK SF5SF3 SLP143
CYYG;2002-10-14 11:00;METAR CYYG 141100Z 15007KT 3SM -SHRA BR FEW002 OVC004 12/11 A2992 RMK SF2SF6 SLP132
CYYG;2002-10-14 12:00;METAR CYYG 141200Z 14009KT 3SM -SHRA BR BKN002 OVC004 13/11 A2988 RMK SF5SF3 SLP119
CYYG;2002-10-14 13:00;METAR CYYG 141300Z 17009KT 5SM -SHRA BR BKN002 OVC006 13/12 A2986 RMK SF6SF2 SLP112
CYYG;2002-10-14 14:00;METAR CYYG 141400Z 27008KT 3SM -SHRA BR BKN002 BKN009 OVC015 14/13 A2986 RMK SF5SF2SC2 SLP112
CYYG;2002-10-14 15:00;METAR CYYG 141500Z 29015KT 10SM -SHRA FEW006 BKN011 OVC031 12/10 A2986 RMK SF2SC3SC2 SLP111
CYYG;2002-10-14 16:00;METAR CYYG 141600Z 30015G20KT 10SM -SHRA OVC009 08/06 A2987 RMK SF8 SLP116
CYYG;2002-10-14 17:00;METAR CYYG 141700Z 29012G19KT 8SM -SHRA BKN007 OVC030 07/04 A2989 RMK SF5SC3 SLP121
CYYG;2002-10-14 18:00;METAR CYYG 141800Z 29012G18KT 15SM FEW025 BKN046 08/04 A2989 RMK CU1SC6 SLP124
CYYG;2002-10-14 19:00;METAR CYYG 141900Z 29014G24KT 15SM FEW030 SCT058 10/03 A2992 RMK CU2SC1 SLP132
CYYG;2002-10-14 20:00;METAR CYYG 142000Z 30011G20KT 15SM FEW035 FEW300 09/02 A2994 RMK CU2CI1 SLP140
CYYG;2002-10-14 21:00;METAR CYYG 142100Z 30008KT 15SM FEW035 FEW300 08/M01 A2996 RMK SC1CI1 SLP146
CYYG;2002-10-14 22:00;METAR CYYG 142200Z 29007KT 15SM FEW035 07/M01 A2998 RMK SC2 SLP152
CYYG;2002-10-14 23:00;METAR CYYG 142300Z 28007KT 15SM FEW035 06/M02 A3000 RMK SC1 SLP160
CYYG;2002-10-15 00:00;METAR CYYG 150000Z 31011KT 15SM SKC 06/M01 A3002 RMK SLP166
CYYG;2002-10-15 01:00;METAR CYYG 150100Z 30009KT 15SM SKC 06/M02 A3004 RMK SLP175
CYYG;2002-10-15 02:00;METAR CYYG 150200Z 31008KT 15SM SKC 05/M02 A3005 RMK SLP178
CYYG;2002-10-15 03:00;METAR CYYG 150300Z 31011KT 15SM SKC 04/M02 A3007 RMK SLP183
CYYG;2002-10-15 04:00;METAR CYYG 150400Z 28009KT 15SM SKC 04/M03 A3008 RMK SLP188
CYYG;2002-10-15 05:00;METAR CYYG 150500Z 29010KT 15SM SKC 03/M03 A3010 RMK SLP195
CYYG;2002-10-15 06:00;METAR CYYG 150600Z 30009KT 15SM SKC 03/M03 A3011 RMK SLP197
CYYG;2002-10-15 07:00;METAR CYYG 150700Z 28010KT 15SM SKC 02/M03 A3011 RMK SLP197
CYYG;2002-10-15 08:00;METAR CYYG 150800Z 28009KT 15SM SKC 02/M03 A3012 RMK SLP201
CYYG;2002-10-15 09:00;METAR CYYG 150900Z 29011KT 15SM SKC 02/M03 A3013 RMK SLP206
CYYG;2002-10-15 10:00;METAR CYYG 151000Z 28008KT 15SM FEW030 01/M03 A3014 RMK SC1 SLP207
CYYG;2002-10-15 11:00;METAR CYYG 151100Z 28007KT 15SM FEW030 01/M04 A3015 RMK SC1 SLP211
CYYG;2002-10-15 12:00;METAR CYYG 151200Z 29010KT 15SM FEW030 FEW300 02/M03 A3016 RMK SC1CI1 SLP214
CYYG;2002-10-15 13:00;METAR CYYG 151300Z 29013KT 15SM FEW030 04/M03 A3016 RMK SC2 SLP214
CYYG;2002-10-15 14:00;METAR CYYG 151400Z 29010G15KT 15SM FEW025 05/M02 A3016 RMK SC2 SLP216
CYYG;2002-10-15 15:00;METAR CYYG 151500Z 29011KT 15SM FEW025 05/M02 A3015 RMK SC2 SLP213
CYYG;2002-10-15 16:00;METAR CYYG 151600Z 28010G15KT 15SM FEW025 06/M02 A3014 RMK SC1 SLP209
CYYG;2002-10-15 17:00;METAR CYYG 151700Z 29008G15KT 15SM FEW025 07/M02 A3013 RMK SC1 SLP205
CYYG;2002-10-15 18:00;METAR CYYG 151800Z 28009KT 15SM FEW025 08/M02 A3011 RMK SC1 SLP199
CYYG;2002-10-15 19:00;METAR CYYG 151900Z 27006KT 15SM FEW025 FEW300 08/M02 A3012 RMK SC1CI1 SLP200
CYYG;2002-10-15 20:00;METAR CYYG 152000Z 27007KT 15SM FEW025 FEW300 08/M02 A3012 RMK SC1CI1 SLP201
CYYG;2002-10-15 21:00;METAR CYYG 152100Z 29007KT 15SM FEW025 FEW300 07/M04 A3012 RMK SC1CI0 SLP203
CYYG;2002-10-15 22:00;METAR CYYG 152200Z 27004KT 15SM FEW300 05/M03 A3014 RMK CI0 SLP209
CYYG;2002-10-15 23:00;METAR CYYG 152300Z 28004KT 15SM FEW300 03/M04 A3014 RMK CI0 SLP209
CYYG;2002-10-16 00:00;METAR CYYG 160000Z 29006KT 15SM FEW300 04/M04 A3015 RMK CI0 SLP213
CYYG;2002-10-16 01:00;METAR CYYG 160100Z 26006KT 15SM FEW300 04/M04 A3017 RMK CI0 SLP218
CYYG;2002-10-16 02:00;METAR CYYG 160200Z 27005KT 15SM SKC 04/M03 A3017 RMK SLP220
CYYG;2002-10-16 03:00;METAR CYYG 160300Z 27003KT 15SM SKC 03/M03 A3017 RMK SLP218
CYYG;2002-10-16 04:00;METAR CYYG 160400Z 29007KT 15SM FEW280 05/M03 A3016 RMK CI0 SLP216
CYYG;2002-10-16 05:00;METAR CYYG 160500Z 30004KT 15SM FEW280 03/M03 A3016 RMK CI0 SLP216
CYYG;2002-10-16 06:00;METAR CYYG 160600Z 29005KT 15SM FEW280 03/M03 A3018 RMK CI0 SLP223
CYYG;2002-10-16 07:00;METAR CYYG 160700Z 23004KT 15SM FEW280 03/M03 A3018 RMK CI0 SLP223
CYYG;2002-10-16 08:00;METAR CYYG 160800Z 29004KT 15SM FEW280 01/M03 A3020 RMK CI1 SLP228
CYYG;2002-10-16 09:00;METAR CYYG 160900Z 34002KT 15SM FEW280 00/M03 A3020 RMK CI1 FROIN SLP227
CYYG;2002-10-16 10:00;METAR CYYG 161000Z 00000KT 15SM FEW280 M00/M03 A3021 RMK CI1 FROIN SLP233
CYYG;2002-10-16 11:00;METAR CYYG 161100Z 00000KT 15SM BKN280 M00/M02 A3023 RMK CI6 SLP237
CYYG;2002-10-16 12:00;METAR CYYG 161200Z 00000KT 15SM FEW160 BKN280 03/01 A3025 RMK AC1CI5 SLP247
CYYG;2002-10-16 13:00;METAR CYYG 161300Z 00000KT 15SM BKN280 08/03 A3025 RMK CI5 SLP245
CYYG;2002-10-16 14:00;METAR CYYG 161400Z 09004KT 15SM BKN280 09/02 A3024 RMK CI6 SLP243
CYYG;2002-10-16 15:00;METAR CYYG 161500Z 09004KT 15SM BKN280 09/02 A3023 RMK CI6 SLP240
CYYG;2002-10-16 16:00;METAR CYYG 161600Z 12004KT 15SM BKN280 10/02 A3023 RMK CI7 SLP238
CYYG;2002-10-16 17:00;METAR CYYG 161700Z 15003KT 15SM BKN280 11/03 A3023 RMK CI7 SLP237
CYYG;2002-10-16 18:00;METAR CYYG 161800Z 10002KT 15SM BKN280 11/03 A3022 RMK CS2 SLP236
CYYG;2002-10-16 19:00;METAR CYYG 161900Z 04010KT 15SM OVC280 10/03 A3020 RMK CS2 SLP230
CYYG;2002-10-16 21:00;METAR CYYG 162100Z 07007KT 15SM OVC280 08/03 A3019 RMK CI8 SLP224
CYYG;2002-10-16 22:00;METAR CYYG 162200Z 07008KT 15SM SCT170 OVC280 07/03 A3018 RMK AC3CI5 SLP221
CYYG;2002-10-16 23:00;METAR CYYG 162300Z 08008KT 15SM BKN170 OVC280 07/03 A3017 RMK AC6CI2 SLP217
CYYG;2002-10-17 00:00;METAR CYYG 170000Z 09007KT 15SM OVC150 07/03 A3017 RMK AC8 SLP220
CYYG;2002-10-17 01:00;METAR CYYG 170100Z 07010KT 15SM OVC140 07/03 A3015 RMK AC8 SLP213
CYYG;2002-10-17 02:00;METAR CYYG 170200Z 08011KT 15SM OVC100 07/04 A3012 RMK AC8 SLP200
CYYG;2002-10-17 03:00;METAR CYYG 170300Z 09009KT 15SM OVC120 08/05 A3007 RMK AC8 SLP184
CYYG;2002-10-17 04:00;METAR CYYG 170400Z 11013G21KT 15SM OVC110 09/06 A3003 RMK AC8 SLP171
CYYG;2002-10-17 05:00;METAR CYYG 170500Z 11014KT 15SM -SHRA OVC080 09/06 A3001 RMK AC8 SLP164
CYYG;2002-10-17 06:00;METAR CYYG 170600Z 10010KT 15SM -SHRA OVC080 08/06 A3000 RMK AC8 SLP161
CYYG;2002-10-17 07:00;METAR CYYG 170700Z 11012G17KT 15SM -SHRA BKN020 OVC040 08/06 A2997 RMK SC5SC3 SLP149
CYYG;2002-10-17 08:00;METAR CYYG 170800Z 11018G26KT 15SM -SHRA SCT020 OVC067 08/06 A2990 RMK SC3SC5 PRESFR SLP126
CYYG;2002-10-17 09:00;METAR CYYG 170900Z 11019G28KT 15SM -RA BKN011 OVC015 08/06 A2987 RMK SC6SC2 SLP116
CYYG;2002-10-17 09:50;SPECI CYYG 170950Z 11019G27KT 5SM +RA BR BKN008 OVC017 RMK SF6SC2
CYYG;2002-10-17 10:00;METAR CYYG 171000Z 11018G27KT 5SM +RA BR BKN008 OVC017 08/07 A2984 RMK SF6SC2 /R11/ SLP106
CYYG;2002-10-17 11:00;METAR CYYG 171100Z 11016G24KT 5SM RA BR SCT007 OVC010 09/07 A2984 RMK SF3SC5 SLP106
CYYG;2002-10-17 11:16;SPECI CYYG 171116Z 12018G24KT 2SM +RA BR BKN009 OVC020 RMK SF6SC2
CYYG;2002-10-17 12:04;SPECI CYYG 171204Z 12020G27KT 15SM -RA FEW006 OVC015 RMK SF2SC6
CYYG;2002-10-17 12:00;METAR CYYG 171200Z 11016G22KT 8SM -RA BKN006 OVC016 09/08 A2981 RERA RMK SF5SC3 SLP096
CYYG;2002-10-17 13:00;METAR CYYG 171300Z 11017G22KT 5SM RA BR FEW010 OVC013 09/07 A2980 RMK SF2SC6 SLP092
CYYG;2002-10-17 13:12;SPECI CYYG 171312Z 11018G25KT 15SM FEW009 OVC015 RERA RMK SF2SC6
CYYG;2002-10-17 13:29;SPECI CYYG 171329Z 11018G26KT 15SM -RA FEW011 OVC014 RERA RMK SC2SC6
CYYG;2002-10-17 14:00;METAR CYYG 171400Z 12018G28KT 15SM -RA OVC012 10/08 A2977 RERA RMK SC8 SLP081
CYYG;2002-10-17 15:00;METAR CYYG 171500Z 13017G26KT 15SM BKN010 11/09 A2976 RMK SC7 SLP079
CYYG;2002-10-17 16:00;METAR CYYG 171600Z 13014G20KT 15SM BKN013 12/09 A2976 RMK SC7 SLP078
CYYG;2002-10-17 17:00;METAR CYYG 171700Z 14017G27KT 15SM OVC015 12/10 A2974 RMK SC8 SLP070
CYYG;2002-10-17 18:00;METAR CYYG 171800Z 15014G21KT 15SM OVC016 13/10 A2975 RMK SC8 SLP075
CYYG;2002-10-17 19:00;METAR CYYG 171900Z 15016G21KT 15SM OVC018 14/11 A2976 RMK SC8 SLP078
CYYG;2002-10-17 20:00;METAR CYYG 172000Z 14016KT 15SM OVC016 14/11 A2978 RMK SC8 SLP086
CYYG;2002-10-17 21:00;METAR CYYG 172100Z 15013G19KT 15SM BKN015 OVC030 13/11 A2980 RMK SC6SC2 SLP092
CYYG;2002-10-17 21:34;SPECI CYYG 172134Z 15013KT 15SM BKN014 OVC036 RMK SC6SC2
CYYG;2002-10-17 22:00;METAR CYYG 172200Z 15012KT 15SM -SHRA BKN017 OVC032 13/10 A2983 RMK SC6SC2 SLP101
CYYG;2002-10-17 23:00;METAR CYYG 172300Z 13007KT 15SM BKN013 OVC030 13/11 A2985 RMK SC5SC3 SLP108
CYYG;2002-10-18 00:00;METAR CYYG 180000Z 14006KT 15SM SCT011 OVC030 13/11 A2985 RMK SC4SC4 SLP109
CYYG;2002-10-18 01:00;METAR CYYG 180100Z 11003KT 15SM OVC010 12/11 A2987 RMK SC8 SLP114 SLP118 SLP115
CYYG;2002-10-18 03:39;SPECI CYYG 180339Z 00000KT 15SM FEW008 OVC030 RMK SF2SC6
CYYG;2002-10-18 04:00;METAR CYYG 180400Z 23002KT 15SM FEW007 OVC030 12/11 A2987 RMK SF2SC6
CYYG;2002-10-18 05:00;METAR CYYG 180500Z 00000KT 15SM FEW007 OVC032 12/11 A2987 RMK SF2SC6 SLP114
CYYG;2002-10-18 06:00;METAR CYYG 180600Z 00000KT 15SM FEW009 OVC032 12/11 A2986 RMK SF2SC6 SLP113
CYYG;2002-10-18 07:00;METAR CYYG 180700Z 04002KT 2SM BR OVC002 12/11 A2985 RMK SF8 SLP110
CYYG;2002-10-18 07:05;SPECI CYYG 180705Z 03002KT 1/2SM FG VV002 RMK FG8
CYYG;2002-10-18 08:00;METAR CYYG 180800Z 33007KT 1/2SM FG VV002 11/10 A2985 RMK FG8 SLP108
CYYG;2002-10-18 08:45;SPECI CYYG 180845Z 34005KT 6SM BR OVC003 RMK SF8 SLP101 SF6SF2 SLP104
CYYG;2002-10-18 11:32;SPECI CYYG 181132Z 32006KT 12SM SCT003 BKN009 OVC040 RMK SF3SF2SC3
CYYG;2002-10-18 11:51;SPECI CYYG 181151Z 32005KT 12SM BKN005 OVC009 RMK SF6SF2
CYYG;2002-10-18 12:00;METAR CYYG 181200Z 31005KT 15SM BKN004 OVC009 10/09 A2983 RMK SF6SF2 SLP103
CYYG;2002-10-18 12:10;SPECI CYYG 181210Z 32005KT 15SM FEW004 BKN042 RMK SF2SC5
CYYG;2002-10-18 12:42;SPECI CYYG 181242Z 33006KT 15SM BKN003 RMK SF7
CYYG;2002-10-18 13:00;METAR CYYG 181300Z 33003KT 15SM OVC004 11/09 A2983 RMK SF7 SLP102
CYYG;2002-10-18 13:23;SPECI CYYG 181323Z 30004KT 10SM OVC003 RMK SF8 SUN VSBL
CYYG;2002-10-18 14:00;METAR CYYG 181400Z 00000KT 12SM OVC004 11/09 A2982 RMK SF8 SUN OCNL VSBL SLP099
CYYG;2002-10-18 14:34;SPECI CYYG 181434Z 25007KT 15SM OVC008 RMK SF8
CYYG;2002-10-18 15:00;METAR CYYG 181500Z 26006KT 15SM BKN008 BKN012 11/09 A2982 RMK SF5SC2 SLP097
CYYG;2002-10-18 15:24;SPECI CYYG 181524Z 28009KT 15SM BKN012 BKN034 RMK SC5SC2
CYYG;2002-10-18 16:00;METAR CYYG 181600Z 30006KT 15SM SCT013 SCT120 12/09 A2981 RMK SC4AC1 SLP094
CYYG;2002-10-18 17:00;METAR CYYG 181700Z 28009KT 15SM BKN018 BKN120 12/08 A2978 RMK SC5AC1 SLP084
CYYG;2002-10-18 18:00;METAR CYYG 181800Z 27008KT 15SM FEW020 FEW120 FEW200 13/07 A2978 RMK SC1AC1CI0 SLP084
CYYG;2002-10-18 19:00;METAR CYYG 181900Z 26008KT 15SM FEW025 FEW120 14/07 A2978 RMK CU1AC1 SLP086
CYYG;2002-10-18 20:00;METAR CYYG 182000Z 28010KT 15SM FEW025 FEW120 11/06 A2980 RMK CU1AC2 SLP093
CYYG;2002-10-18 21:00;METAR CYYG 182100Z 32006KT 15SM FEW020 BKN130 09/05 A2981 RMK SC1AC6
CYYG;2002-10-18 22:00;METAR CYYG 182200Z 31004KT 15SM -SHRA SCT037 BKN100 09/05 A2982 RMK SC4AC3
CYYG;2002-10-18 23:00;METAR CYYG 182300Z 30004KT 15SM -SHRA BKN027 BKN039 09/06 A2983 RMK SC6SC2 SLP104
CYYG;2002-10-19 00:00;METAR CYYG 190000Z 28009KT 15SM -SHRA OVC015 09/06 A2985 RMK SC8 SLP110
CYYG;2002-10-19 01:00;METAR CYYG 190100Z 29010G17KT 15SM OVC017 08/05 A2988 RMK SC8 SLP119
CYYG;2002-10-19 02:00;METAR CYYG 190200Z 27011KT 15SM SCT017 OVC058 08/04 A2990 RMK SC3SC5 SLP126
CYYG;2002-10-19 03:00;METAR CYYG 190300Z 27009G15KT 15SM FEW017 BKN055 06/03 A2991 RMK SC2SC4 SLP130
CYYG;2002-10-19 04:00;METAR CYYG 190400Z 26012KT 15SM FEW020 SCT055 06/03 A2993 RMK SC2SC2 SLP137
CYYG;2002-10-19 05:00;METAR CYYG 190500Z 25009KT 15SM FEW028 06/02 A2995 RMK SC2 SLP144
CYYG;2002-10-19 06:00;METAR CYYG 190600Z 27007KT 15SM SCT020 05/01 A2997 RMK SC3 SLP149
CYYG;2002-10-19 07:00;METAR CYYG 190700Z 28008KT 15SM FEW020 04/00 A2998 RMK SC2 SLP152
CYYG;2002-10-19 08:00;METAR CYYG 190800Z 26005KT 15SM FEW020 04/M00 A2998 RMK SC1 SLP155
CYYG;2002-10-19 09:00;METAR CYYG 190900Z 26005KT 15SM FEW020 03/M00 A3000 RMK SC1 SLP160
CYYG;2002-10-19 10:00;METAR CYYG 191000Z 27005KT 15SM BKN026 02/M02 A3001 RMK SC5 SLP165
CYYG;2002-10-19 11:00;METAR CYYG 191100Z 25009KT 15SM SCT018 03/00 A3004 RMK SC3 SLP173
CYYG;2002-10-19 12:00;METAR CYYG 191200Z 27008KT 15SM FEW018 FEW300 04/00 A3004 RMK SC1CI1 SLP172
CYYG;2002-10-19 13:00;METAR CYYG 191300Z 26011KT 15SM FEW020 SCT300 05/M00 A3003 RMK SC1CI2 SLP170
CYYG;2002-10-19 14:00;METAR CYYG 191400Z 24012KT 15SM FEW020 BKN300 06/01 A3004 RMK SC1CI1 SLP174
CYYG;2002-10-19 15:00;METAR CYYG 191500Z 24012G17KT 15SM FEW022 FEW150 SCT300 06/M00 A3004 RMK SC1AC2CI0 SLP174
CYYG;2002-10-19 16:00;METAR CYYG 191600Z 27009KT 15SM FEW025 BKN220 06/M01 A3002 RMK SC1CS5 SLP168
CYYG;2002-10-19 17:00;METAR CYYG 191700Z 25013KT 15SM FEW100 SCT220 08/M01 A3001 RMK AC1CI2 SLP163
CYYG;2002-10-19 18:00;METAR CYYG 191800Z 25008KT 15SM FEW100 BKN220 08/M00 A2998 RMK AC1CS6 SLP155
CYYG;2002-10-19 19:00;METAR CYYG 191900Z 26004KT 15SM FEW100 OVC200 09/00 A2996 RMK AC1CS7 SLP146
CYYG;2002-10-19 20:00;METAR CYYG 192000Z 23007KT 15SM OVC100 08/M00 A2996 RMK AS8 VIRGA SLP145
CYYG;2002-10-19 20:33;SPECI CYYG 192033Z 26002KT 15SM -RA OVC030 RMK SC8
CYYG;2002-10-19 21:00;METAR CYYG 192100Z 14003KT 15SM -RA FEW030 OVC054 08/02 A2993 RMK SC2SC6 PCPN VRY LGT SLP135
CYYG;2002-10-19 21:35;SPECI CYYG 192135Z 20006KT 15SM FEW030 OVC055 RMK SC2SC6
CYYG;2002-10-19 21:48;SPECI CYYG 192148Z 20013G18KT 15SM -RA FEW030 OVC055 RMK SC2SC6
CYYG;2002-10-19 22:00;METAR CYYG 192200Z 20013G21KT 15SM -RA FEW030 OVC040 08/02 A2991 RMK SC1SC7 SLP129
CYYG;2002-10-19 23:00;METAR CYYG 192300Z 19010G18KT 15SM -RA OVC038 07/03 A2988 RMK SC8 SLP121
CYYG;2002-10-20 00:00;METAR CYYG 200000Z 18012G19KT 15SM -RA OVC025 07/03 A2984 RMK SC8 SLP106
CYYG;2002-10-20 01:00;METAR CYYG 200100Z 18015G24KT 15SM -RA OVC025 08/04 A2979 RMK SC8 SLP089
CYYG;2002-10-20 02:00;METAR CYYG 200200Z 17017KT 15SM -RA OVC038 08/05 A2974 RMK SC8 SLP072
CYYG;2002-10-20 03:00;METAR CYYG 200300Z CCA 16018G25KT 15SM -RA OVC017 08/06 A2966 RMK SC8 PRESFR SLP044
CYYG;2002-10-20 03:31;SPECI CYYG 200331Z 16017G26KT 15SM -RA OVC015 RMK SC8
CYYG;2002-10-20 03:41;SPECI CYYG 200341Z 16020G25KT 15SM -RA OVC009 RMK SC8
CYYG;2002-10-20 04:00;METAR CYYG 200400Z 16021G26KT 15SM -RA OVC009 09/07 A2958 RMK SC8 PRESFR SLP019
CYYG;2002-10-20 05:00;METAR CYYG 200500Z 18013G21KT 15SM -RA OVC009 10/09 A2954 RMK SC8 SLP006
CYYG;2002-10-20 05:13;SPECI CYYG 200513Z 18016KT 10SM RA OVC007 RMK SC8
CYYG;2002-10-20 05:49;SPECI CYYG 200549Z CCA 22016G25KT 15SM -RA OVC006 RMK SC8 RERA
CYYG;2002-10-20 06:00;METAR CYYG 200600Z 22017G25KT 15SM -RA OVC005 11/09 A2952 RMK SF8 RERA SLP998
CYYG;2002-10-20 06:20;SPECI CYYG 200620Z 25011G18KT 15SM BKN008 BKN020 OVC034 RMK SF5SC1SC2
CYYG;2002-10-20 06:54;SPECI CYYG 200654Z 25011G18KT 15SM SCT008 BKN029 OVC050 RMK SF4SC2SC2
CYYG;2002-10-20 07:00;METAR CYYG 200700Z 26008KT 15SM FEW008 FEW014 BKN029 OVC050 11/09 A2952 RMK SF1SC2SC3SC2 SLP998
CYYG;2002-10-20 08:00;METAR CYYG 200800Z 25007KT 15SM FEW014 SCT040 OVC056 10/08 A2953 RMK SC2SC2SC5 SLP000
CYYG;2002-10-20 09:00;METAR CYYG 200900Z 27007KT 15SM FEW040 BKN056 09/07 A2954 RMK SC2SC4 SLP004
CYYG;2002-10-20 10:00;METAR CYYG 201000Z 23005KT 15SM SCT040 08/06 A2953 RMK SC3 SLP001
CYYG;2002-10-20 11:00;METAR CYYG 201100Z 24005KT 15SM FEW016 BKN050 BKN098 07/06 A2953 RMK SC1SC4AC1 SLP001
CYYG;2002-10-20 12:00;METAR CYYG 201200Z 25008KT 15SM FEW011 BKN037 BKN051 09/07 A2954 RMK SC2SC2SC2 SLP004
CYYG;2002-10-20 13:00;METAR CYYG 201300Z 26008KT 15SM FEW012 FEW026 BKN045 10/07 A2954 RMK SC2SC1SC5 SLP003
CYYG;2002-10-20 14:00;METAR CYYG 201400Z 27011G16KT 15SM FEW013 FEW028 BKN054 10/07 A2954 RMK CU2SC1SC5 SLP004
CYYG;2002-10-20 14:17;SPECI CYYG 201417Z 25011G21KT 15SM -SHRA SCT015 BKN030 RMK CU3SC4 VIS W-N 3
CYYG;2002-10-20 14:33;SPECI CYYG 201433Z 31011G22KT 10SM -SHRA SCT010 BKN027 RERA RMK SF3SC4 WSHFT 1433Z
CYYG;2002-10-20 14:44;SPECI CYYG 201444Z 29010G16KT 10SM -SHRA BKN007 OVC027 RERA RMK SF5SC3
CYYG;2002-10-20 15:00;METAR CYYG 201500Z 29012G17KT 10SM -SHRA BKN007 BKN010 OVC026 08/06 A2956 RERA RMK SF5SF2SC2 VIS LWR E SLP012
CYYG;2002-10-20 15:12;SPECI CYYG 201512Z 29010G17KT 15SM VCSH FEW007 BKN015 BKN046 RMK SF2SC4SC1
CYYG;2002-10-20 16:00;METAR CYYG 201600Z 29011G21KT 15SM SCT012 BKN042 07/04 A2958 RMK CU3SC3
CYYG;2002-10-20 17:00;METAR CYYG 201700Z 29012KT 15SM OVC018 06/02 A2960 RMK SC8 SLP026
CYYG;2002-10-20 18:00;METAR CYYG 201800Z 29011G18KT 15SM BKN019 OVC026 05/01 A2963 RMK SC6SC2 SLP035
CYYG;2002-10-20 19:00;METAR CYYG 201900Z 29012G17KT 15SM FEW021 BKN037 05/01 A2965 RMK CU2SC2 SLP041
CYYG;2002-10-20 20:00;METAR CYYG 202000Z 29013G18KT 15SM FEW021 SCT037 06/01 A2967 RMK CU2SC2 SLP047
CYYG;2002-10-20 20:19;SPECI CYYG 202019Z 28009G16KT 15SM -SHRA FEW030 BKN048 RMK CU2SC4
CYYG;2002-10-20 21:00;METAR CYYG 202100Z 29009KT 15SM -SHRA FEW015 FEW022 BKN043 04/01 A2970 RMK SC1SC1SC5 SLP058
CYYG;2002-10-20 21:21;SPECI CYYG 202121Z 29007KT 15SM VCSH FEW015 FEW022 BKN043 RMK SC1SC1SC6
CYYG;2002-10-20 22:00;METAR CYYG 202200Z 28009KT 15SM FEW022 BKN045 04/00 A2972 RMK SC1SC6 SLP065
CYYG;2002-10-20 23:00;METAR CYYG 202300Z 29010G15KT 15SM BKN045 04/M01 A2974 RMK SC7 SLP072
CYYG;2002-10-21 00:00;METAR CYYG 210000Z 28012KT 15SM BKN052 04/M00 A2975 RMK SC7 SLP077
CYYG;2002-10-21 22:00;METAR CYYG 202200Z 28009KT 15SM FEW022 BKN045 04/00 A2972 RMK SC1SC6 SLP065
CYYG;2002-10-21 01:00;METAR CYYG 210100Z 29008KT 15SM BKN043 03/M02 A2978 RMK SC7 SLP085
CYYG;2002-10-21 02:00;METAR CYYG 210200Z 28006KT 15SM BKN034 03/M03 A2979 RMK SC7 SLP090
CYYG;2002-10-21 03:00;METAR CYYG 210300Z 29008KT 15SM OVC035 03/M03 A2979 RMK SC8 SLP091
CYYG;2002-10-21 04:00;METAR CYYG 210400Z 29007KT 15SM OVC035 03/M03 A2979 RMK SC8 SLP090
CYYG;2002-10-21 05:00;METAR CYYG 210500Z 28007KT 15SM OVC034 03/M03 A2980 RMK SC8 SLP093
CYYG;2002-10-21 06:00;METAR CYYG 210600Z 29010G15KT 15SM OVC033 03/M04 A2981 RMK SC8 SLP096
CYYG;2002-10-21 07:00;METAR CYYG 210700Z 27007KT 15SM OVC033 02/M03 A2981 RMK SC8 SLP096
CYYG;2002-10-21 08:00;METAR CYYG 210800Z 29011G16KT 15SM BKN035 02/M05 A2982 RMK SC7 SLP099
CYYG;2002-10-21 09:00;METAR CYYG 210900Z 28009KT 15SM OVC034 02/M05 A2982 RMK SC8 SLP098
CYYG;2002-10-21 10:00;METAR CYYG 211000Z 28007KT 15SM OVC034 02/M05 A2982 RMK SC8 SLP100
CYYG;2002-10-21 11:00;METAR CYYG 211100Z 29010KT 15SM OVC033 02/M05 A2984 RMK SC8 SLP105
CYYG;2002-10-21 12:00;METAR CYYG 211200Z 28010G15KT 15SM OVC034 02/M05 A2985 RMK SC8 SLP110
CYYG;2002-10-21 13:00;METAR CYYG 211300Z 27006KT 15SM BKN031 02/M04 A2985 RMK SC7 SLP111
CYYG;2002-10-21 14:00;METAR CYYG 211400Z 27012G20KT 15SM BKN035 03/M05 A2985 RMK SC7 SLP110
CYYG;2002-10-21 15:00;METAR CYYG 211500Z 27012KT 15SM BKN029 02/M04 A2985 RMK SC7 SLP111
CYYG;2002-10-21 16:00;METAR CYYG 211600Z 28009G18KT 15SM BKN028 BKN040 04/M04 A2984 RMK SC5SC2 SLP107
CYYG;2002-10-21 17:00;METAR CYYG 211700Z 27013G18KT 15SM BKN030 03/M04 A2985 RMK SC7 SLP108
CYYG;2002-10-21 18:00;METAR CYYG 211800Z 26015G20KT 15SM BKN034 04/M04 A2984 RMK SC6 SLP106
CYYG;2002-10-21 19:00;METAR CYYG 211900Z 27013KT 15SM BKN038 04/M04 A2984 RMK SC5 SLP106
CYYG;2002-10-21 20:00;METAR CYYG 212000Z 27010KT 15SM SCT038 04/M04 A2985 RMK SC3 SLP110
CYYG;2002-10-21 21:00;METAR CYYG 212100Z 28010G17KT 15SM FEW038 04/M05 A2986 RMK SC2 SLP113
CYYG;2002-10-21 22:00;METAR CYYG 212200Z 26005KT 15SM SCT055 02/M05 A2988 RMK SC3 SLP121
CYYG;2002-10-21 23:00;METAR CYYG 212300Z 27007KT 15SM BKN054 03/M04 A2990 RMK SC5 SLP126
CYYG;2002-10-22 00:00;METAR CYYG 220000Z 29011KT 15SM BKN050 04/M05 A2991 RMK SC6 SLP130
CYYG;2002-10-22 01:00;METAR CYYG 220100Z 27008KT 15SM OVC044 04/M05 A2992 RMK SC8 SLP135
CYYG;2002-10-22 02:00;METAR CYYG 220200Z 28010KT 15SM OVC045 03/M05 A2993 RMK SC8 SLP139
CYYG;2002-10-22 03:00;METAR CYYG 220300Z 28007KT 15SM OVC041 03/M05 A2994 RMK SC8 SLP142
CYYG;2002-10-22 04:00;METAR CYYG 220400Z 29007KT 15SM OVC039 03/M04 A2995 RMK SC8 SLP143
CYYG;2002-10-22 05:00;METAR CYYG 220500Z 29006KT 15SM OVC038 03/M04 A2995 RMK SC8 SLP143
CYYG;2002-10-22 06:00;METAR CYYG 220600Z 27005KT 15SM OVC036 03/M04 A2995 RMK SC8 SLP143
CYYG;2002-10-22 07:00;METAR CYYG 220700Z 26005KT 15SM OVC034 03/M04 A2995 RMK SC8 SLP143
CYYG;2002-10-22 08:00;METAR CYYG 220800Z 28007KT 15SM OVC034 03/M04 A2995 RMK SC8 SLP143
CYYG;2002-10-22 09:00;METAR CYYG 220900Z 28011KT 15SM OVC030 03/M03 A2995 RMK SC8 SLP145
CYYG;2002-10-22 10:00;METAR CYYG 221000Z 28012G17KT 15SM OVC028 03/M03 A2996 RMK SC8 SLP146
CYYG;2002-10-22 11:00;METAR CYYG 221100Z 27007G15KT 15SM BKN026 02/M03 A2996 RMK SC7 SLP149
CYYG;2002-10-22 12:00;METAR CYYG 221200Z 28011G16KT 15SM BKN026 03/M03 A2997 RMK SC6 SLP152
CYYG;2002-10-22 13:00;METAR CYYG 221300Z 27015KT 15SM BKN022 03/M03 A2997 RMK SC7 SLP152
CYYG;2002-10-22 14:00;METAR CYYG 221400Z 27014G20KT 15SM BKN022 BKN300 04/M02 A2997 RMK SC6CI0 SLP150
CYYG;2002-10-22 15:00;METAR CYYG 221500Z 26013G19KT 15SM SCT022 BKN300 05/M01 A2995 RMK SC3CI1 SLP145
CYYG;2002-10-22 16:00;METAR CYYG 221600Z 25015G20KT 15SM BKN022 BKN300 04/M02 A2994 RMK SC6CI0 SLP141
CYYG;2002-10-22 17:00;METAR CYYG 221700Z 26011G19KT 15SM FEW022 SCT300 05/M02 A2992 RMK SC2CI0 SLP135
CYYG;2002-10-22 18:00;METAR CYYG 221800Z 26012G21KT 15SM FEW028 FEW300 06/M02 A2990 RMK SC2CI0 SLP128
CYYG;2002-10-22 19:00;METAR CYYG 221900Z 26011G19KT 15SM FEW028 FEW300 06/M02 A2990 RMK SC2CI0 SLP127
CYYG;2002-10-22 20:00;METAR CYYG 222000Z 27015KT 15SM FEW035 SCT300 06/M03 A2990 RMK SC2CI1
CYYG;2002-10-22 21:00;METAR CYYG 222100Z 28009KT 15SM SCT040 SCT300 05/M02 A2990 RMK SC3CI0
CYYG;2002-10-22 22:00;METAR CYYG 222200Z 29008KT 15SM SCT040 04/M03 A2991 RMK SC3 SLP131
CYYG;2002-10-22 23:00;METAR CYYG 222300Z 29012KT 15SM SCT040 04/M03 A2993 RMK SC3 SLP135
CYYG;2002-10-23 00:00;METAR CYYG 230000Z 28010G15KT 15SM FEW040 03/M03 A2993 RMK SC2 SLP136
CYYG;2002-10-23 01:00;METAR CYYG 230100Z 27009KT 15SM FEW040 03/M03 A2993 RMK SC2 SLP137
CYYG;2002-10-23 02:00;METAR CYYG 230200Z 27008G15KT 15SM SCT040 04/M03 A2993 RMK SC3 SLP137
CYYG;2002-10-23 03:00;METAR CYYG 230300Z 29009G16KT 15SM BKN039 04/M03 A2993 RMK SC5 SLP135
CYYG;2002-10-23 04:00;METAR CYYG 230400Z 28011KT 15SM BKN040 04/M03 A2992 RMK SC6 SLP134
CYYG;2002-10-23 05:00;METAR CYYG 230500Z 28008KT 15SM SCT040 03/M02 A2993 RMK SC4 SLP136
CYYG;2002-10-23 06:00;METAR CYYG 230600Z 28009G18KT 15SM SCT040 03/M02 A2993 RMK SC4 SLP138
CYYG;2002-10-23 07:00;METAR CYYG 230700Z 28010KT 15SM BKN034 03/M02 A2993 RMK SC6 SLP138
CYYG;2002-10-23 08:00;METAR CYYG 230800Z 28011G17KT 15SM BKN040 03/M02 A2994 RMK SC6 SLP141
CYYG;2002-10-23 09:00;METAR CYYG 230900Z 27009KT 15SM BKN040 02/M02 A2996 RMK SC6 SLP146
CYYG;2002-10-23 10:00;METAR CYYG 231000Z 28009KT 15SM FEW030 SCT045 02/M02 A2997 RMK SC1SC2 SLP151
CYYG;2002-10-23 11:00;METAR CYYG 231100Z 29011G16KT 15SM FEW025 SCT045 03/M01 A2999 RMK SC2SC2 SLP157
CYYG;2002-10-23 12:00;METAR CYYG 231200Z 28010G15KT 15SM SCT021 BKN047 04/00 A3001 RMK SC4SC2 SLP164
CYYG;2002-10-23 12:38;SPECI CYYG 231238Z 28014KT 15SM -SHRA BKN017 BKN050 RMK SC6SC1 VIS LWR NE-E
CYYG;2002-10-23 13:00;METAR CYYG 231300Z 28010G17KT 15SM -SHRA BKN010 BKN048 05/02 A3002 RMK SC5SC2 VIS LWR NE-E SLP168
CYYG;2002-10-23 13:29;SPECI CYYG 231329Z 28009KT 15SM -SHRA SCT008 BKN024 RMK SC3SC4 VSBY LWR N-E
CYYG;2002-10-23 14:00;METAR CYYG 231400Z 30007KT 6SM -SHRA BR BKN008 OVC024 05/03 A3004 RMK SC6SC2 SLP173
CYYG;2002-10-23 15:00;METAR CYYG 231500Z 32008KT 4SM -SHRA BR BKN008 OVC021 07/05 A3004 RMK SC5SC3 SLP174
CYYG;2002-10-23 15:44;SPECI CYYG 231544Z 33006KT 15SM VCSH FEW008 BKN024 RMK SF2SC5 VIS LWR SW-W
CYYG;2002-10-23 16:00;METAR CYYG 231600Z 36007KT 15SM VCSH FEW008 BKN018 08/05 A3003 RMK SF1CU6 SLP171
CYYG;2002-10-23 17:02;SPECI CYYG 231702Z 02012KT 15SM -SHRA FEW008 BKN018 RMK SF1SC6 CU ASOCTD
CYYG;2002-10-23 17:00;METAR CYYG 231700Z 02007KT 15SM VCSH FEW008 BKN018 08/03 A3002 RMK SF1SC6 CU ASOCTD SLP169
CYYG;2002-10-23 17:36;SPECI CYYG 231736Z 02009KT 15SM VCSH FEW008 BKN022 RMK SF1SC7 CU ASOCTD
CYYG;2002-10-23 18:00;METAR CYYG 231800Z 01008KT 15SM VCSH FEW008 BKN022 08/04 A3004 RMK SF1SC6 CU ASOCTD SLP172
CYYG;2002-10-23 19:00;METAR CYYG 231900Z 36006KT 15SM VCSH FEW011 BKN020 08/05 A3004 RMK SF1SC6 CU ASOCTD SLP175
CYYG;2002-10-23 19:17;SPECI CYYG 231917Z 36006KT 15SM -SHRA FEW012 BKN020 RMK SF2SC5 CU ASOCTD
CYYG;2002-10-23 20:00;METAR CYYG 232000Z 04009KT 15SM VCSH FEW010 BKN020 BKN035 06/03 A3006 RMK SF2SC5SC1 CU ASOCTD OCNL -SHRA SLP180
CYYG;2002-10-23 21:00;METAR CYYG 232100Z 01006KT 15SM VCSH FEW010 BKN022 BKN065 06/04 A3007 RMK SF2SC6SC1 OCNL -SHRA CU ASOCTD SLP184
CYYG;2002-10-23 22:00;METAR CYYG 232200Z 06004KT 15SM -SHRA FEW010 BKN020 OVC068 05/04 A3008 RMK SF2SC5SC2 SLP188
CYYG;2002-10-23 23:00;METAR CYYG 232300Z 03005KT 15SM BKN023 OVC070 05/03 A3009 RMK SC6AC2 SLP191
CYYG;2002-10-24 00:00;METAR CYYG 240000Z 03010KT 15SM -SHRA BKN023 OVC070 05/03 A3009 RMK SC6AC2 SLP191
CYYG;2002-10-24 01:00;METAR CYYG 240100Z 05006KT 15SM -SHRA BKN030 OVC060 05/03 A3009 RMK SC6SC2 SLP193
CYYG;2002-10-24 02:00;METAR CYYG 240200Z 04005KT 15SM -SHRA BKN027 OVC050 05/03 A3011 RMK SC6SC2 SLP197
CYYG;2002-10-24 03:00;METAR CYYG 240300Z 02003KT 15SM -SHRA BKN025 OVC062 04/03 A3011 RMK SC6SC2
CYYG;2002-10-24 04:00;METAR CYYG 240400Z 01004KT 15SM -SHRA BKN025 OVC060 05/03 A3011 RMK SC6SC2
CYYG;2002-10-24 05:00;METAR CYYG 240500Z 07004KT 15SM -SHRA BKN024 OVC060 04/02 A3011 RMK SC5SC3 SLP198
CYYG;2002-10-24 06:00;METAR CYYG 240600Z 07003KT 15SM -SHRA BKN022 OVC060 04/02 A3012 RMK SC6SC2 SLP203
CYYG;2002-10-24 07:00;METAR CYYG 240700Z 00000KT 15SM -SHRA BKN030 OVC090 04/02 A3013 RMK SC5AC3 SLP204
CYYG;2002-10-24 08:00;METAR CYYG 240800Z 02002KT 15SM -SHRA BKN020 OVC040 04/02 A3014 RMK SC6SC2 SLP209
CYYG;2002-10-24 09:00;METAR CYYG 240900Z 03011KT 15SM -SHRA BKN024 OVC042 05/02 A3015 RMK SC5SC3 SLP213
CYYG;2002-10-24 10:00;METAR CYYG 241000Z 02007KT 15SM SCT024 BKN044 04/01 A3017 RMK SC3SC4 SLP217
CYYG;2002-10-24 11:00;METAR CYYG 241100Z 01008KT 15SM BKN030 BKN056 04/M01 A3019 RMK SC6SC2 SLP224
CYYG;2002-10-24 12:00;METAR CYYG 241200Z 01008KT 15SM BKN028 BKN055 05/M01 A3022 RMK SC5SC2 SLP234
CYYG;2002-10-24 13:00;METAR CYYG 241300Z 36006KT 15SM SCT037 BKN052 05/M01 A3023 RMK SC4SC3 SLP238
CYYG;2002-10-24 14:00;METAR CYYG 241400Z 36014G19KT 15SM -SHRA BKN031 BKN052 05/M01 A3024 RMK SC6SC2 SLP242
CYYG;2002-10-24 15:00;METAR CYYG 241500Z 36011KT 15SM VCSH BKN030 BKN049 06/M01 A3026 RMK SC6SC1 SLP248
CYYG;2002-10-24 16:00;METAR CYYG 241600Z 36009KT 15SM VCSH BKN031 BKN050 06/M02 A3025 RMK SC6SC1 SLP245
CYYG;2002-10-24 17:00;METAR CYYG 241700Z 33009KT 15SM BKN034 05/M02 A3026 RMK SC7 VIRGA SLP248
CYYG;2002-10-24 18:00;METAR CYYG 241800Z 33010G17KT 15SM -SHRA BKN032 04/M00 A3027 RMK SC7 SLP252
CYYG;2002-10-24 19:00;METAR CYYG 241900Z 34011KT 15SM BKN034 BKN046 04/M01 A3027 RMK SC6SC1
CYYG;2002-10-24 20:00;METAR CYYG 242000Z 32008KT 15SM BKN040 04/M03 A3028 RMK SC6 SLP256
CYYG;2002-10-24 21:00;METAR CYYG 242100Z 34005KT 15SM BKN042 04/M02 A3028 RMK SC7 SLP257
CYYG;2002-10-24 22:00;METAR CYYG 242200Z 34006KT 15SM BKN034 04/M03 A3029 RMK SC7 SLP260
CYYG;2002-10-24 23:00;METAR CYYG 242300Z 34008KT 15SM BKN038 04/M04 A3031 RMK SC7 SLP264
CYYG;2002-10-25 00:00;METAR CYYG 250000Z 34006KT 15SM BKN043 03/M04 A3031 RMK SC6 SLP264
CYYG;2002-10-25 01:00;METAR CYYG 250100Z 35005KT 15SM BKN039 04/M04 A3031 RMK SC6 SLP267
CYYG;2002-10-25 02:00;METAR CYYG 250200Z 33005KT 15SM BKN039 04/M04 A3031 RMK SC7 SLP267
CYYG;2002-10-25 03:00;METAR CYYG 250300Z 34005KT 15SM BKN043 04/M04 A3031 RMK SC7 SLP267
CYYG;2002-10-25 04:00;METAR CYYG 250400Z 32004KT 15SM BKN041 04/M03 A3031 RMK SC7 SLP267
CYYG;2002-10-25 05:00;METAR CYYG 250500Z 29003KT 15SM OVC041 03/M04 A3032 RMK SC8 SLP269
CYYG;2002-10-25 06:00;METAR CYYG 250600Z 27005KT 15SM OVC044 03/M03 A3032 RMK SC8 SLP268
CYYG;2002-10-25 07:00;METAR CYYG 250700Z 26005KT 15SM OVC044 03/M02 A3031 RMK SC8 SLP267
CYYG;2002-10-25 08:00;METAR CYYG 250800Z 29007KT 15SM FEW037 OVC040 03/M02 A3032 RMK SC2SC6 SLP269
CYYG;2002-10-25 09:00;METAR CYYG 250900Z 29006KT 15SM -SHSN OVC045 03/M02 A3032 RMK SC8 SLP269
CYYG;2002-10-25 10:00;METAR CYYG 251000Z 30006KT 15SM OVC045 03/M01 A3033 RMK SC8 SLP271
CYYG;2002-10-25 11:00;METAR CYYG 251100Z 30003KT 15SM BKN041 03/M01 A3033 RMK SC7 SLP274
CYYG;2002-10-25 12:00;METAR CYYG 251200Z 29004KT 15SM BKN046 03/M01 A3035 RMK SC7 SLP280
CYYG;2002-10-25 13:00;METAR CYYG 251300Z 29005KT 15SM BKN042 04/M02 A3037 RMK SC7 SLP286
CYYG;2002-10-25 14:00;METAR CYYG 251400Z 30009KT 15SM BKN042 04/M02 A3038 RMK SC7 SLP288
CYYG;2002-10-25 15:00;METAR CYYG 251500Z 33007KT 15SM VCSH BKN044 05/M04 A3038 RMK SC7 SLP288
CYYG;2002-10-25 17:00;METAR CYYG 251700Z 36008KT 15SM OVC045 05/M05 A3037 RMK SC8 SLP287
CYYG;2002-10-25 18:00;METAR CYYG 251800Z 32011G18KT 15SM OVC046 05/M03 A3037 RMK SC8 SLP285
CYYG;2002-10-25 19:00;METAR CYYG 251900Z 32010KT 15SM OVC045 04/M05 A3038 RMK SC8 SLP288
CYYG;2002-10-25 20:00;METAR CYYG 252000Z 34008KT 15SM OVC044 04/M04 A3038 RMK SC8 SLP289
CYYG;2002-10-25 21:00;METAR CYYG 252100Z 33005KT 15SM BKN049 03/M05 A3038 RMK SC7 SLP289
CYYG;2002-10-25 22:00;METAR CYYG 252200Z 33005KT 15SM BKN043 03/M05 A3038 RMK SC6 SLP290
CYYG;2002-10-25 23:00;METAR CYYG 252300Z 34004KT 15SM BKN043 02/M05 A3039 RMK SC5 SLP291
CYYG;2002-10-26 00:00;METAR CYYG 260000Z 31004KT 15SM BKN042 01/M05 A3039 RMK SC6 SLP294
CYYG;2002-10-26 01:00;METAR CYYG 260100Z 28004KT 15SM FEW042 01/M05 A3040 RMK SC2 SLP296
CYYG;2002-10-26 02:00;METAR CYYG 260200Z 27005KT 15SM FEW042 M00/M05 A3041 RMK SC2 SLP300
CYYG;2002-10-26 03:00;METAR CYYG 260300Z 28004KT 15SM FEW042 M00/M05 A3041 RMK SC2 SLP301
CYYG;2002-10-26 04:00;METAR CYYG 260400Z 30004KT 15SM FEW042 M00/M05 A3041 RMK SC2 SLP299
CYYG;2002-10-26 05:00;METAR CYYG 260500Z 31004KT 15SM FEW045 00/M05 A3040 RMK SC2 SLP298
CYYG;2002-10-26 06:00;METAR CYYG 260600Z 27003KT 15SM FEW045 M01/M05 A3041 RMK SC2 SLP300
CYYG;2002-10-26 07:00;METAR CYYG 260700Z 29004KT 15SM FEW045 M01/M05 A3041 RMK SC2 SLP299
CYYG;2002-10-26 08:00;METAR CYYG 260800Z 30004KT 15SM FEW040 M01/M05 A3041 RMK SC1 SLP299
CYYG;2002-10-26 09:00;METAR CYYG 260900Z 32003KT 15SM FEW040 M02/M06 A3040 RMK SC1 SLP297
CYYG;2002-10-26 10:00;METAR CYYG 261000Z 34003KT 15SM FEW040 M03/M06 A3040 RMK SC1 SLP296
CYYG;2002-10-26 11:00;METAR CYYG 261100Z CCA 31002KT 15SM FEW040 FEW200 BKN300 M03/M06 A3040 RMK SC1CI1CI1 FROIN SLP297
CYYG;2002-10-26 12:00;METAR CYYG 261200Z 00000KT 15SM FEW040 FEW200 BKN300 M00/M04 A3040 RMK SC1CI2CI1 SHSN DIST E SLP296
CYYG;2002-10-26 13:00;METAR CYYG 261300Z 12004KT 15SM FEW040 OVC290 03/M01 A3039 RMK SC1CS3 HALO SHSN DSNT E SLP292
CYYG;2002-10-26 14:00;METAR CYYG 261400Z 11005KT 15SM FEW040 OVC280 05/M00 A3038 RMK SC1CS2 HALO SLP291
CYYG;2002-10-26 15:00;METAR CYYG 261500Z 10004KT 15SM FEW035 BKN045 OVC280 06/M01 A3038 RMK SC2SC2CI0 SHRA DIST E-S SLP288
CYYG;2002-10-26 15:11;SPECI CYYG 261511Z 11008KT 15SM BKN033 BKN045 OVC280 RMK SC6SC2CI0 SHRA DIST E-SW
CYYG;2002-10-26 16:00;METAR CYYG 261600Z 12010KT 15SM SCT033 BKN045 OVC280 05/01 A3035 RMK SC3SC4CI0 SHRA DIST ALQDS SLP279
CYYG;2002-10-26 17:00;METAR CYYG 261700Z 14008KT 15SM FEW025 BKN035 OVC280 06/01 A3031 RMK SC2SC4CS1 SLP267
CYYG;2002-10-26 18:00;METAR CYYG 261800Z 14009KT 15SM BKN041 OVC250 07/M01 A3030 RMK SC7CS1 SLP263
CYYG;2002-10-26 19:00;METAR CYYG 261900Z 13009KT 15SM BKN035 OVC250 07/M01 A3028 RMK SC6CS2 SLP257
CYYG;2002-10-26 20:00;METAR CYYG 262000Z 13007KT 15SM FEW040 OVC220 06/M01 A3026 RMK SC2CS6 SLP249
CYYG;2002-10-26 21:00;METAR CYYG 262100Z 11007KT 15SM BKN042 OVC220 06/M00 A3023 RMK SC6CS2 SLP238
CYYG;2002-10-26 22:00;METAR CYYG 262200Z 13005KT 15SM BKN042 OVC120 05/M00 A3023 RMK SC6AS2 SLP237
CYYG;2002-10-26 23:00;METAR CYYG 262300Z 13005KT 15SM BKN040 OVC120 05/M00 A3021 RMK SC6AS2 SLP231
CYYG;2002-10-27 00:00;METAR CYYG 270000Z 12005KT 15SM BKN040 OVC120 05/M00 A3019 RMK SC6AS2 SLP224
CYYG;2002-10-27 01:00;METAR CYYG 270100Z 12008KT 15SM BKN036 OVC100 05/01 A3014 RMK SC6AS2 SLP207
CYYG;2002-10-27 02:00;METAR CYYG 270200Z 13007KT 15SM OVC036 06/02 A3012 RMK SC8 SLP203
CYYG;2002-10-27 03:00;METAR CYYG 270300Z 13008KT 15SM BKN036 OVC085 06/03 A3006 RMK SC6AS2 PRESFR SLP182
CYYG;2002-10-27 03:50;SPECI CYYG 270350Z 13012G19KT 15SM -SHRA OVC024 RMK SC8
CYYG;2002-10-27 04:00;METAR CYYG 270400Z 13013G19KT 15SM -SHRA OVC020 06/04 A3000 RMK SC8 PRESFR SLP160
CYYG;2002-10-27 05:00;METAR CYYG 270500Z 13012KT 15SM -SHRA BKN010 OVC030 06/04 A2994 RMK SC6SC2 SLP141
CYYG;2002-10-27 06:00;METAR CYYG 270600Z 12008G15KT 15SM -SHRA OVC012 06/04 A2991 RMK SC8 SLP130
CYYG;2002-10-27 07:00;METAR CYYG 270700Z 13011G17KT 15SM -SHRA OVC017 06/04 A2990 RMK SC8 SLP126
CYYG;2002-10-27 08:00;METAR CYYG 270800Z 13012G17KT 15SM -SHRA OVC023 05/03 A2987 RMK SC8 SLP116
CYYG;2002-10-27 09:00;METAR CYYG 270900Z 12009KT 15SM -RA OVC017 05/03 A2985 RMK SC8 SLP111
CYYG;2002-10-27 10:00;METAR CYYG 271000Z 07008KT 15SM -RA OVC020 04/02 A2980 RMK SC8 SLP094
CYYG;2002-10-27 11:00;METAR CYYG 271100Z 03010KT 7SM -RA BKN023 OVC030 05/03 A2977 RMK SC6NS2 SLP081
CYYG;2002-10-27 12:00;METAR CYYG 271200Z 03016G21KT 4SM -RA BR FEW015 OVC055 05/04 A2971 RMK SC1NS7 RERA SLP064
CYYG;2002-10-27 13:00;METAR CYYG 271300Z 03020G26KT 4SM RA BR FEW008 FEW015 OVC055 06/04 A2967 RMK SF2SC1NS6 SLP048
CYYG;2002-10-27 14:00;METAR CYYG 271400Z 03018G27KT 2 1/2SM RA BR BKN007 OVC050 06/05 A2962 RMK SF6NS2 SLP032
CYYG;2002-10-27 15:00;METAR CYYG 271500Z 02018G25KT 5SM RA BR OVC006 07/05 A2958 RMK SF8 RERA SLP018
CYYG;2002-10-27 16:00;METAR CYYG 271600Z 02018KT 4SM -RA BR OVC006 07/06 A2955 RMK SF8 RERA SLP007
CYYG;2002-10-27 18:00;METAR CYYG 271800Z 04022G32KT 15SM VCSH BKN012 OVC035 07/04 A2954 RMK SC6SC2 SLP004
CYYG;2002-10-27 19:00;METAR CYYG 271900Z 02015G27KT 15SM OVC016 06/03 A2956 RMK SC8 SLP012
CYYG;2002-10-27 20:00;METAR CYYG 272000Z 02019G24KT 15SM OVC017 05/02 A2957 RMK SC8 SLP014 SLP016 SC5SC3 SLP023 SF2SF3SC2 SLP025
CYYG;2002-10-28 00:00;METAR CYYG 280000Z 34006KT 10SM -RA FEW008 BKN013 OVC022 05/03 A2959 RMK SF2SC4SC2 SLP023
CYYG;2002-10-28 01:00;METAR CYYG 280100Z 32008KT 5SM -RA BR OVC007 05/04 A2959 RMK SF8 SLP023
CYYG;2002-10-28 02:00;METAR CYYG 280200Z 31007KT 3SM -SHRA BR BKN005 OVC018 05/04 A2960 RMK SF6SC2 SLP025
CYYG;2002-10-28 03:00;METAR CYYG 280300Z 31007KT 5SM -SHRA BR BKN005 OVC013 04/03 A2958 RMK SF6SC2 SLP019
CYYG;2002-10-28 04:00;METAR CYYG 280400Z 31009KT 10SM -SHRA OVC006 04/03 A2956 RMK SF8 SLP012
CYYG;2002-10-28 05:00;METAR CYYG 280500Z 31008KT 15SM -SHRA BKN009 OVC025 04/02 A2957 RMK SF6SC2 SLP015
CYYG;2002-10-28 06:00;METAR CYYG 280600Z 29008G15KT 10SM -RA BKN007 OVC016 04/02 A2958 RMK SF6SC2 SLP019
CYYG;2002-10-28 07:00;METAR CYYG 280700Z 31010KT 15SM -RA BKN010 OVC022 04/02 A2959 RMK SF6SC2 SLP022
CYYG;2002-10-28 08:00;METAR CYYG 280800Z 30012G17KT 10SM -RA OVC010 04/02 A2960 RMK SF8 SLP025
CYYG;2002-10-28 09:00;METAR CYYG 280900Z 31009G17KT 10SM -RA BKN009 OVC020 04/02 A2962 RMK SF6SC2 SLP031
CYYG;2002-10-28 10:00;METAR CYYG 281000Z 29008KT 10SM -RA BKN009 OVC020 03/02 A2963 RMK SF6SC2 SLP034
CYYG;2002-10-28 11:00;METAR CYYG 281100Z 32009KT 15SM VCSH FEW009 BKN020 BKN061 04/02 A2964 RMK SF1SC6SC1 SLP039
CYYG;2002-10-28 12:00;METAR CYYG 281200Z 32010G16KT 15SM -SHRA BKN023 04/01 A2966 RMK SC7 CU ASOCTD SLP044
CYYG;2002-10-28 13:00;METAR CYYG 281300Z 32014G21KT 15SM -SHRA FEW010 BKN021 05/01 A2966 RMK SF1SC6 SLP047
CYYG;2002-10-28 14:00;METAR CYYG 281400Z 31014G19KT 15SM VCSH FEW012 BKN020 05/01 A2968 RMK SF1SC6 SLP051
CYYG;2002-10-28 15:00;METAR CYYG 281500Z 32019G28KT 15SM VCSH FEW012 BKN024 05/M00 A2968 RMK SF1SC6 SLP053
CYYG;2002-10-28 16:00;METAR CYYG 281600Z 31016G24KT 15SM BKN024 06/00 A2969 RMK SC7 SLP054
CYYG;2002-10-28 17:00;METAR CYYG 281700Z 31017G30KT 15SM BKN028 07/01 A2968 RMK SC6 SLP053
CYYG;2002-10-28 18:00;METAR CYYG 281800Z 31014G25KT 15SM BKN030 08/01 A2969 RMK SC6 SLP054
CYYG;2002-10-28 19:00;METAR CYYG 281900Z 31015G20KT 15SM BKN034 07/M00 A2970 RMK SC6 SLP060
CYYG;2002-10-28 20:00;METAR CYYG 282000Z 31015G22KT 15SM BKN032 06/M01 A2971 RMK SC6 SLP061
CYYG;2002-10-28 21:00;METAR CYYG 282100Z 30014G20KT 15SM FEW030 06/M00 A2971 RMK SC2 SLP063
CYYG;2002-10-28 22:00;METAR CYYG 282200Z 31014G22KT 15SM FEW030 05/M00 A2971 RMK SC2 SLP064
CYYG;2002-10-28 23:00;METAR CYYG 282300Z 31018G24KT 15SM SCT039 04/M00 A2971 RMK SC3 SLP064
CYYG;2002-10-29 00:00;METAR CYYG 290000Z 29015G24KT 15SM SCT036 04/M01 A2972 RMK SC3 SLP065
CYYG;2002-10-29 01:00;METAR CYYG 290100Z 29016G25KT 15SM BKN025 04/M01 A2973 RMK SC5 CIG RAG SLP069
CYYG;2002-10-29 02:00;METAR CYYG 290200Z 30016G22KT 15SM SCT022 BKN035 03/M01 A2973 RMK SC3SC2 SLP070
CYYG;2002-10-29 02:45;SPECI CYYG 290245Z 29017G25KT 15SM -SHRA BKN039 RMK SC5 CIG RAG
CYYG;2002-10-29 03:00;METAR CYYG 290300Z 29016G25KT 15SM -SHRA SCT037 03/M01 A2973 RMK SC4
CYYG;2002-10-29 04:00;METAR CYYG 290400Z 29016G24KT 15SM -SHRA FEW024 BKN035 02/M02 A2971 RMK SC1SC4 SLP062
CYYG;2002-10-29 05:00;METAR CYYG 290500Z 29017G24KT 15SM FEW012 FEW022 BKN038 02/M02 A2970 RMK SC1SC1SC3 SLP060
CYYG;2002-10-29 06:00;METAR CYYG 290600Z 29017G22KT 15SM BKN033 02/M02 A2971 RMK SC5 SLP062
CYYG;2002-10-29 07:00;METAR CYYG 290700Z 29018G24KT 15SM BKN030 02/M02 A2969 RMK SC5 SLP057
CYYG;2002-10-29 08:00;METAR CYYG 290800Z 29018KT 15SM BKN028 02/M02 A2969 RMK SC6 SLP055
CYYG;2002-10-29 09:00;METAR CYYG 290900Z 29017G22KT 15SM BKN031 03/M03 A2970 RMK SC6 SLP059
CYYG;2002-10-29 10:00;METAR CYYG 291000Z 29013G25KT 15SM BKN031 02/M03 A2970 RMK SC6 SLP058
CYYG;2002-10-29 11:00;METAR CYYG 291100Z 30017G27KT 15SM BKN036 02/M03 A2969 RMK SC7 SLP055
CYYG;2002-10-29 12:00;METAR CYYG 291200Z 29020G28KT 15SM -SHSN BKN030 02/M03 A2971 RMK SC7 SLP061
CYYG;2002-10-29 13:00;METAR CYYG 291300Z 30017G28KT 15SM BKN028 BKN039 02/M04 A2971 RMK SC6SC2 SLP063
CYYG;2002-10-29 14:00;METAR CYYG 291400Z 31019G29KT 15SM FEW024 BKN028 03/M04 A2970 RMK SC2SC6 SLP060
CYYG;2002-10-29 15:00;METAR CYYG 291500Z 31021G29KT 15SM BKN026 03/M04 A2970 RMK SC7 SLP058
CYYG;2002-10-29 16:00;METAR CYYG 291600Z 31020G30KT 15SM -SHSN BKN029 03/M04 A2969 RMK SC7 SLP054
CYYG;2002-10-29 17:00;METAR CYYG 291700Z 30017G32KT 15SM -SHSN BKN030 03/M04 A2969 RMK SC7
CYYG;2002-10-29 18:00;METAR CYYG 291800Z 30021G32KT 15SM -SHSN BKN033 03/M04 A2969 RMK SC7 SLP055
CYYG;2002-10-29 19:00;METAR CYYG 291900Z 29017G31KT 15SM BKN033 03/M04 A2970 RMK SC7 SLP058
CYYG;2002-10-29 20:00;METAR CYYG 292000Z 31018G28KT 15SM BKN033 03/M04 A2971 RMK SC7 SLP061
CYYG;2002-10-29 21:00;METAR CYYG 292100Z 31018G30KT 15SM BKN035 03/M05 A2970 RMK SC7 SLP059
CYYG;2002-10-29 22:00;METAR CYYG 292200Z 31019G33KT 15SM -SHSN BKN033 03/M04 A2970 RMK SC7 SLP059
CYYG;2002-10-29 23:00;METAR CYYG 292300Z 32022G31KT 15SM OVC035 03/M04 A2970 RMK SC8 SLP058
CYYG;2002-10-30 00:00;METAR CYYG 300000Z 31017G27KT 15SM -SHSN OVC035 03/M04 A2971 RMK SC8 SLP063
CYYG;2002-10-30 01:00;METAR CYYG 300100Z 31019G28KT 15SM -SHSN OVC038 03/M04 A2971 RMK SC8 SLP064
CYYG;2002-10-30 02:00;METAR CYYG 300200Z 31018G26KT 15SM OVC038 03/M04 A2972 RMK SC8 SLP066
CYYG;2002-10-30 03:00;METAR CYYG 300300Z 32018G27KT 15SM -SHSN OVC035 03/M04 A2971 RMK SC8 CIG RAG SLP063
CYYG;2002-10-30 04:00;METAR CYYG 300400Z 31013G21KT 15SM -SHSN OVC030 03/M03 A2972 RMK SC8 CIG RAG SLP067
CYYG;2002-10-30 05:00;METAR CYYG 300500Z 32013G21KT 15SM -SHSN OVC028 02/M03 A2973 RMK SC8 SLP068
CYYG;2002-10-30 06:00;METAR CYYG 300600Z 32016G27KT 15SM -SHSN OVC030 02/M03 A2972 RMK SC8 SLP066
CYYG;2002-10-30 07:00;METAR CYYG 300700Z 31015G24KT 15SM -SHSN OVC027 02/M03 A2973 RMK SC8 SLP069
CYYG;2002-10-30 08:00;METAR CYYG 300800Z 32016G26KT 15SM -SHRASN OVC025 02/M02 A2973 RMK SC8
CYYG;2002-10-30 09:00;METAR CYYG 300900Z 33015G26KT 15SM -SHRASN OVC020 02/M02 A2974 RMK SC8 SLP073
CYYG;2002-10-30 10:00;METAR CYYG 301000Z 33015G21KT 10SM -SHSN OVC014 02/M01 A2975 RMK SC8 CIG RAG SLP077
CYYG;2002-10-30 11:00;METAR CYYG 301100Z 32011G16KT 12SM -SHSN BKN018 BKN043 01/M01 A2976 RMK SC6SC1 VIS LWR W SLP080
CYYG;2002-10-30 12:00;METAR CYYG 301200Z 32004KT 15SM -SHSN BKN019 BKN045 02/M00 A2978 RMK SC6SC2 VIS LWR N-NE SLP085
CYYG;2002-10-30 13:00;METAR CYYG 301300Z 33011G17KT 15SM VCSH FEW018 BKN052 04/01 A2978 RMK SC2SC3 SLP085
CYYG;2002-10-30 14:00;METAR CYYG 301400Z 32008G18KT 15SM -SHRASN SCT008 OVC036 03/00 A2979 RMK SC3SC5 SLP091
CYYG;2002-10-30 15:00;METAR CYYG 301500Z 35012G17KT 15SM -SHRASN SCT010 OVC034 03/01 A2979 RMK SC4SC3 SLP089
CYYG;2002-10-30 16:00;METAR CYYG 301600Z 33010G21KT 15SM VCSH FEW009 BKN017 05/02 A2979 RMK SF1SC6 SLP089
CYYG;2002-10-30 17:00;METAR CYYG 301700Z 34012G18KT 15SM -SHRA FEW009 BKN023 04/01 A2978 RMK SF2SC6 SLP087
CYYG;2002-10-30 18:00;METAR CYYG 301800Z 34016G21KT 15SM VCSH FEW009 BKN024 04/M00 A2977 RMK SF1SC6 SLP082
CYYG;2002-10-30 19:00;METAR CYYG 301900Z 34012G18KT 15SM VCSH FEW009 BKN027 04/M01 A2977 RMK SF1SC6 SLP081
CYYG;2002-10-30 20:00;METAR CYYG 302000Z 32010KT 15SM -SHRA BKN021 03/M00 A2979 RMK SC7 SLP089
CYYG;2002-10-30 21:00;METAR CYYG 302100Z 31005KT 12SM -SHRASN FEW012 OVC021 02/M00 A2981 RMK SC2SC6 SLP095
CYYG;2002-10-30 22:00;METAR CYYG 302200Z 29008KT 12SM -SHRASN OVC019 01/M00 A2981 RMK SC8 SLP095
CYYG;2002-10-30 23:00;METAR CYYG 302300Z 28007KT 15SM -SHSN FEW012 BKN029 OVC046 01/M01 A2982 RMK SF1SC6SC2 SLP098
CYYG;2002-10-31 00:00;METAR CYYG 310000Z 28010KT 15SM -SHSN FEW020 BKN040 OVC061 01/M01 A2983 RMK SC2SC2SC3 SLP103
CYYG;2002-10-31 01:00;METAR CYYG 310100Z 29009KT 15SM -SHSN BKN023 OVC049 01/M01 A2983 RMK SC6SC2 SLP105
CYYG;2002-10-31 02:00;METAR CYYG 310200Z 29011KT 15SM -SHSN FEW023 OVC042 01/M02 A2982 RMK SC2SC6 SLP102
CYYG;2002-10-31 03:00;METAR CYYG 310300Z 29011KT 15SM -SHSN FEW025 OVC049 01/M02 A2981 RMK SC2SC6 SLP097
CYYG;2002-10-31 04:00;METAR CYYG 310400Z 28011KT 10SM -SHSN BKN052 OVC060 01/M02 A2981 RMK SC6SC2 SLP095
CYYG;2002-10-31 05:00;METAR CYYG 310500Z 29010G15KT 5SM -SHSN FEW007 OVC054 00/M01 A2981 RMK SF2SC6 SLP096
CYYG;2002-10-31 06:00;METAR CYYG 310600Z 29012KT 10SM -SHSN FEW007 OVC050 01/M01 A2980 RMK SF2SC6 SLP094
CYYG;2002-10-31 07:00;METAR CYYG 310700Z 30009G15KT 15SM -SHSN FEW007 BKN047 00/M01 A2981 RMK SF2SC5 SLP096
CYYG;2002-10-31 08:00;METAR CYYG 310800Z 33002KT 10SM -SHSN BKN036 00/M02 A2980 RMK SC7 SLP093
CYYG;2002-10-31 09:00;METAR CYYG 310900Z 28009KT 15SM BKN039 01/M02 A2980 RMK SC7 SLP094
CYYG;2002-10-31 10:00;METAR CYYG 311000Z 29009KT 15SM OVC035 01/M03 A2981 RMK SC8 SLP098
CYYG;2002-10-31 11:00;METAR CYYG 311100Z 28008KT 15SM VCSH OVC032 01/M04 A2982 RMK SC8 SLP100
CYYG;2002-10-31 12:00;METAR CYYG 311200Z 28008KT 15SM OVC031 01/M04 A2983 RMK SC8 SLP103
CYYG;2002-10-31 13:00;METAR CYYG 311300Z 28007KT 15SM OVC032 01/M03 A2984 RMK SC8 SLP108
CYYG;2002-10-31 14:00;METAR CYYG 311400Z 28008KT 15SM OVC032 02/M03 A2985 RMK SC8 SLP112
CYYG;2002-10-31 15:00;METAR CYYG 311500Z 28012KT 15SM BKN032 02/M04 A2983 RMK SC7 SLP105
CYYG;2002-10-31 16:00;METAR CYYG 311600Z 28010G15KT 15SM BKN032 03/M04 A2982 RMK SC6 SLP100
CYYG;2002-10-31 17:00;METAR CYYG 311700Z 31008KT 15SM BKN031 03/M04 A2981 RMK SC6 SLP098
CYYG;2002-10-31 18:00;METAR CYYG 311800Z 30006KT 15SM BKN032 04/M04 A2981 RMK SC5 SLP095
CYYG;2002-10-31 19:00;METAR CYYG 311900Z 28009KT 15SM BKN032 04/M04 A2981 RMK SC5 SLP095
CYYG;2002-10-31 20:00;METAR CYYG 312000Z 28007KT 15SM FEW030 FEW280 03/M05 A2982 RMK SC1CI1 SLP098
CYYG;2002-10-31 21:00;METAR CYYG 312100Z 28005KT 15SM FEW030 FEW280 01/M06 A2983 RMK SC1CI1 SLP103
CYYG;2002-10-31 22:00;METAR CYYG 312200Z 30003KT 15SM FEW030 FEW280 00/M06 A2983 RMK SC1CI1 SLP104
CYYG;2002-10-31 23:00;METAR CYYG 312300Z 29003KT 15SM FEW030 FEW280 M01/M07 A2984 RMK SC1CI1 SLP106
CYYG;2002-11-01 00:00;METAR CYYG 010000Z 36002KT 15SM FEW030 FEW280 M02/M06 A2984 RMK SC1CI1 SLP106
CYYG;2002-11-01 01:00;METAR CYYG 010100Z 26004KT 15SM FEW030 BKN057 00/M06 A2984 RMK SC1SC6 SLP108
CYYG;2002-11-01 02:00;METAR CYYG 010200Z 31006KT 15SM BKN065 01/M05 A2985 RMK SC6 SLP111
CYYG;2002-11-01 03:00;METAR CYYG 010300Z 29006KT 15SM FEW043 BKN060 01/M05 A2985 RMK SC2SC6 SLP112
CYYG;2002-11-01 04:00;METAR CYYG 010400Z 29010KT 15SM FEW052 01/M06 A2985 RMK SC2 SLP112
CYYG;2002-11-01 05:00;METAR CYYG 010500Z 28008KT 15SM FEW052 M00/M07 A2985 RMK SC2 SLP111
CYYG;2002-11-01 06:00;METAR CYYG 010600Z 27007KT 15SM FEW052 M01/M07 A2986 RMK SC2 SLP113
CYYG;2002-11-01 07:00;METAR CYYG 010700Z 27007KT 15SM SKC M02/M07 A2986 RMK SLP113
CYYG;2002-11-01 08:00;METAR CYYG 010800Z 27006KT 15SM SKC M02/M08 A2986 RMK SLP114
CYYG;2002-11-01 09:00;METAR CYYG 010900Z 30006KT 15SM SKC M02/M07 A2986 RMK SLP113
CYYG;2002-11-01 10:00;METAR CYYG 011000Z 27004KT 15SM FEW050 M02/M07 A2987 RMK SC1 SLP116
CYYG;2002-11-01 11:00;METAR CYYG 011100Z 27006KT 15SM FEW030 BKN280 M03/M08 A2988 RMK SC1CI1 SLP121
CYYG;2002-11-01 12:00;METAR CYYG 011200Z 26004KT 15SM FEW030 BKN280 M02/M08 A2989 RMK SC1CI2 SLP125
CYYG;2002-11-01 13:00;METAR CYYG 011300Z 26003KT 15SM FEW030 OVC280 M00/M07 A2989 RMK SC1CI2
CYYG;2002-11-01 14:00;METAR CYYG 011400Z 23004KT 15SM FEW030 FEW060 BKN280 01/M06 A2988 RMK SC1SC2CI2 SLP120
CYYG;2002-11-01 15:00;METAR CYYG 011500Z 25005KT 15SM FEW030 BKN065 OVC260 02/M06 A2987 RMK SC1SC4CS2 SLP116
CYYG;2002-11-01 16:00;METAR CYYG 011600Z 22008KT 15SM FEW030 BKN052 OVC260 02/M05 A2985 RMK SC1SC5CS2 SLP109
CYYG;2002-11-01 17:00;METAR CYYG 011700Z 20009KT 15SM -SHSN BKN036 OVC060 02/M04 A2982 RMK SC6SC2 SLP101
CYYG;2002-11-01 18:00;METAR CYYG 011800Z 18008KT 12SM -SHSN FEW017 BKN029 OVC060 02/M02 A2980 RMK SC1SC5SC2 SLP093
CYYG;2002-11-01 19:00;METAR CYYG 011900Z 19008KT 15SM -SHSN FEW015 BKN026 OVC075 02/M02 A2979 RMK SC1SC6AC1 SLP090
CYYG;2002-11-01 20:00;METAR CYYG 012000Z 17008KT 12SM -SHSN SCT014 BKN028 02/M01 A2978 RMK SC3SC4 SLP088
CYYG;2002-11-01 21:00;METAR CYYG 012100Z 17008KT 15SM -SHSN FEW008 BKN015 02/M01 A2977 RMK SF1SC6 SLP085
CYYG;2002-11-01 22:00;METAR CYYG 012200Z 14004KT 15SM -SHSN FEW007 BKN017 01/M01 A2977 RMK SF2SC6 SLP082
CYYG;2002-11-01 23:00;METAR CYYG 012300Z 14004KT 15SM FEW009 SCT018 00/M01 A2976 RMK SF1SC2 FROIN SLP080
CYYG;2002-11-02 00:00;METAR CYYG 020000Z 14004KT 12SM FEW015 BKN150 M00/M02 A2974 RMK SC1AC6 FROIN SLP073
CYYG;2002-11-02 01:00;METAR CYYG 020100Z 13004KT 15SM FEW015 OVC070 00/M01 A2972 RMK SC1AC8 FROIN SLP068
CYYG;2002-11-02 02:00;METAR CYYG 020200Z 11005KT 15SM OVC060 01/M01 A2970 RMK SC8 SLP060
CYYG;2002-11-02 03:00;METAR CYYG 020300Z 12005KT 15SM OVC070 01/M01 A2966 RMK AC8 SLP046
CYYG;2002-11-02 04:00;METAR CYYG 020400Z 13005KT 25SM BKN070 00/M01 A2963 RMK AC6 SLP035
CYYG;2002-11-02 05:00;METAR CYYG 020500Z 12007KT 15SM OVC065 01/M01 A2958 RMK SC8 SLP017
CYYG;2002-11-02 06:00;METAR CYYG 020600Z 11011KT 15SM OVC040 01/M01 A2952 RMK SC8 SLP000
CYYG;2002-11-02 07:00;METAR CYYG 020700Z 13008G15KT 10SM -SHRASN OVC021 02/M00 A2948 RMK SC8 SLP985
CYYG;2002-11-02 08:00;METAR CYYG 020800Z 14010KT 5SM -SHRA BR FEW009 OVC018 03/01 A2944 RMK SF2SC6 SLP972
CYYG;2002-11-02 09:00;METAR CYYG 020900Z 18016G22KT 10SM -SHRA OVC007 04/02 A2941 RMK SF8 SLP962
CYYG;2002-11-02 10:00;METAR CYYG 021000Z 20010KT 15SM FEW007 OVC020 04/02 A2940 RMK SF1SC7 SLP957
CYYG;2002-11-02 11:00;METAR CYYG 021100Z 24007KT 15SM -SHRA FEW008 BKN017 BKN030 03/01 A2939 RMK SF1SC5SC2 SLP954
CYYG;2002-11-02 12:00;METAR CYYG 021200Z 26011KT 15SM BKN016 BKN062 02/M01 A2940 RMK SC6SC2 SLP958
CYYG;2002-11-02 13:00;METAR CYYG 021300Z 26010G17KT 15SM BKN020 OVC026 02/M01 A2940 RMK SC7SC1
CYYG;2002-11-02 14:00;METAR CYYG 021400Z 26013KT 15SM BKN022 BKN280 02/M02 A2937 RMK SC6CI1 SLP948
CYYG;2002-11-02 15:00;METAR CYYG 021500Z 25012G18KT 15SM BKN022 02/M02 A2936 RMK SC7 CIG RAG SLP946
CYYG;2002-11-02 16:00;METAR CYYG 021600Z 24016G21KT 15SM BKN019 01/M04 A2936 RMK SC7 SLP943
CYYG;2002-11-02 17:00;METAR CYYG 021700Z 25012G19KT 15SM BKN028 00/M05 A2934 RMK SC7 SLP939
CYYG;2002-11-02 18:00;METAR CYYG 021800Z 25016G24KT 15SM FEW020 BKN038 M01/M06 A2934 RMK SC2SC4 SLP939
CYYG;2002-11-02 19:00;METAR CYYG 021900Z 26016G25KT 15SM BKN025 M03/M09 A2936 RMK SC7 SLP945
CYYG;2002-11-02 20:00;METAR CYYG 022000Z 25016G25KT 15SM OVC028 M03/M09 A2936 RMK SC8 SLP944
CYYG;2002-11-02 21:00;METAR CYYG 022100Z 25007G15KT 15SM OVC025 M03/M10 A2936 RMK SC8 SLP946
CYYG;2002-11-02 22:00;METAR CYYG 022200Z 26006KT 15SM -SHSN OVC025 M03/M09 A2936 RMK SC8 SLP946
CYYG;2002-11-02 23:00;METAR CYYG 022300Z 25006KT 6SM -SHSN OVC025 M04/M07 A2937 RMK SC8 SLP947
CYYG;2002-11-03 00:00;METAR CYYG 030000Z CCA 25006KT 6SM -SHSN OVC024 M04/M07 A2936 RMK SC8 SLP943
CYYG;2002-11-03 01:00;METAR CYYG 030100Z 28002KT 15SM SCT026 M04/M07 A2935 RMK SC3 SLP941
CYYG;2002-11-03 02:00;METAR CYYG 030200Z 27004KT 15SM FEW020 OVC028 M04/M07 A2937 RMK SC2SC6 SLP949
CYYG;2002-11-03 03:00;METAR CYYG 030300Z 27006KT 2SM -SHSN OVC053 M03/M06 A2938 RMK SN2SC6 SLP950
CYYG;2002-11-03 04:00;METAR CYYG 030400Z 33027G33KT 1 1/2SM -SHSN DRSN BKN008 OVC018 M00/M03 A2939 RMK SN4SF2SC2 RESN /S02/ SLP954
CYYG;2002-11-03 05:00;METAR CYYG 030500Z 32021G34KT 6SM -SHSN BLSN BKN023 OVC045 M01/M04 A2944 RMK SC6SC2 RESN /S04/ SLP970
CYYG;2002-11-03 06:00;METAR CYYG 030600Z 32020G30KT 2 1/2SM -SHGSSN DRSN OVC015 M01/M04 A2949 RMK SC8 TCU ASOCTD SLP989
CYYG;2002-11-03 07:00;METAR CYYG 030700Z 32019G30KT 2 1/2SM -SHGSSN DRSN SCT025 OVC040 M01/M06 A2953 RMK SC3SC5 TCU ASOCTD SLP001
CYYG;2002-11-03 08:00;METAR CYYG 030800Z 30016G26KT 12SM -SHSN DRSN OVC026 M01/M07 A2957 RMK SC8 SLP016
CYYG;2002-11-03 09:00;METAR CYYG 030900Z 30016G25KT 15SM DRSN OVC038 M01/M08 A2960 RMK SC8 SLP028
CYYG;2002-11-03 10:00;METAR CYYG 031000Z 30014G19KT 15SM OVC040 M02/M09 A2963 RMK SC8 SLP038
CYYG;2002-11-03 11:00;METAR CYYG 031100Z 28010G18KT 10SM -SHSN OVC042 M03/M07 A2967 RMK SC8 SLP050
CYYG;2002-11-03 12:00;METAR CYYG 031200Z 29012G17KT 4SM -SHSN SCT019 OVC038 M04/M06 A2969 RMK SC3SC5 SLP055
CYYG;2002-11-03 13:00;METAR CYYG 031300Z 28016G22KT 4SM -SHSN BKN020 OVC030 M03/M06 A2970 RMK SC5SC3 SLP059
CYYG;2002-11-03 14:00;METAR CYYG 031400Z 29016G25KT 15SM -SHSN FEW020 BKN033 M02/M07 A2971 RMK SC2SC5 /S01/ SLP065
CYYG;2002-11-03 15:00;METAR CYYG 031500Z 29014G25KT 15SM -SHSN BKN025 M02/M06 A2973 RMK SC7 VSBY LWR N-NE SLP071
CYYG;2002-11-03 16:00;METAR CYYG 031600Z 29012G21KT 3SM -SHSN OVC020 M03/M06 A2975 RMK SN4SC4 /S02/ SLP076
CYYG;2002-11-03 17:00;METAR CYYG 031700Z 29016G24KT 3SM -SHSN SCT009 BKN020 M03/M07 A2976 RMK SN2SF2SC4 /S03/ SLP079
CYYG;2002-11-03 18:00;METAR CYYG 031800Z 28016G25KT 3SM -SHSN FEW009 OVC019 M03/M06 A2977 RMK SF2SC6 SLP085
CYYG;2002-11-03 19:00;METAR CYYG 031900Z CCA 30013G20KT 3SM -SHSN FEW009 BKN030 M03/M07 A2980 RMK SN2SF1SC5 /S01/ SLP094
CYYG;2002-11-03 20:00;METAR CYYG 032000Z 29018G24KT 3SM -SHSN BKN026 M03/M07 A2982 RMK SN2SC5 SLP102
CYYG;2002-11-03 21:00;METAR CYYG 032100Z 29018G28KT 3SM -SHSN BKN030 M03/M08 A2985 RMK SN2SC4 /S03/ SLP109
CYYG;2002-11-03 22:00;METAR CYYG 032200Z 29017KT 15SM -SHSN FEW030 SCT062 M02/M09 A2987 RMK SC2SC2 SLP118
CYYG;2002-11-03 23:00;METAR CYYG 032300Z 29020G25KT 15SM -SHSN DRSN SCT020 M03/M09 A2989 RMK SC3 SLP123
CYYG;2002-11-04 00:00;METAR CYYG 040000Z 29018G26KT 5SM -SHSN DRSN BKN040 M02/M08 A2991 RMK SC6 SLP131
CYYG;2002-11-04 01:00;METAR CYYG 040100Z 31012G27KT 4SM -SHSN DRSN BKN015 OVC025 M03/M07 A2993 RMK SC6SC2 SLP138
CYYG;2002-11-04 02:00;METAR CYYG 040200Z 30011G16KT 8SM -SHSN DRSN OVC025 M03/M07 A2995 RMK SC8 SLP143
CYYG;2002-11-04 03:00;METAR CYYG 040300Z 29015G21KT 15SM -SHSN DRSN BKN025 OVC036 M02/M07 A2995 RMK SC6SC2 SLP145
CYYG;2002-11-04 04:00;METAR CYYG 040400Z 31012G17KT 10SM -SHSN DRSN OVC025 M03/M07 A2997 RMK SC8 SLP152
CYYG;2002-11-04 05:00;METAR CYYG 040500Z 29009G15KT 3SM -SHSN DRSN SCT025 OVC037 M04/M06 A3000 RMK SC3SC5 SLP160
CYYG;2002-11-04 06:00;METAR CYYG 040600Z 29010KT 5SM -SHSN OVC023 M03/M07 A3001 RMK SC8 SLP167
CYYG;2002-11-04 07:00;METAR CYYG 040700Z 29013G20KT 15SM DRSN BKN032 M03/M07 A3001 RMK SC6 SLP167
CYYG;2002-11-04 08:00;METAR CYYG 040800Z 28013KT 15SM DRSN FEW032 M03/M07 A3003 RMK SC2 SLP173
CYYG;2002-11-04 09:00;METAR CYYG 040900Z 28011KT 15SM SKC M03/M07 A3006 RMK SLP181
CYYG;2002-11-04 10:00;METAR CYYG 041000Z 28011KT 15SM SKC M04/M07 A3006 RMK SLP184
CYYG;2002-11-04 11:00;METAR CYYG 041100Z 27010KT 15SM VCSH FEW023 M04/M08 A3009 RMK SC1 SLP192
CYYG;2002-11-04 12:00;METAR CYYG 041200Z 28008KT 15SM VCSH FEW023 M04/M07 A3011 RMK SC2 CU EMBD SLP200
CYYG;2002-11-04 13:00;METAR CYYG 041300Z 27008KT 15SM VCSH FEW023 M02/M06 A3012 RMK SC1 SLP204
CYYG;2002-11-04 14:00;METAR CYYG 041400Z 26009KT 15SM VCSH FEW023 FEW280 M01/M06 A3013 RMK SC1CI0 SLP207
CYYG;2002-11-04 15:00;METAR CYYG 041500Z 27011KT 15SM VCSH FEW023 SCT280 M00/M06 A3014 RMK SC1CI1 SLP211
CYYG;2002-11-04 16:00;METAR CYYG 041600Z 29008KT 15SM FEW025 SCT280 00/M07 A3014 RMK SC1CI1 SHS DIST NE SLP208
CYYG;2002-11-04 17:00;METAR CYYG 041700Z 26008KT 15SM FEW025 BKN280 01/M09 A3013 RMK SC1CI2 SLP205
CYYG;2002-11-04 18:00;METAR CYYG 041800Z 26008KT 15SM FEW032 BKN280 01/M07 A3013 RMK SC1CI5 SLP206
CYYG;2002-11-04 19:00;METAR CYYG 041900Z 26006KT 15SM FEW030 BKN280 M00/M08 A3013 RMK SC1CI5
CYYG;2002-11-04 20:00;METAR CYYG 042000Z 26003KT 15SM FEW030 OVC280 M01/M09 A3014 RMK SC1CI6 SLP209
CYYG;2002-11-04 21:00;METAR CYYG 042100Z 26003KT 15SM FEW030 OVC280 M01/M08 A3014 RMK SC1CI6
CYYG;2002-11-04 22:00;METAR CYYG 042200Z 00000KT 15SM OVC280 M03/M08 A3013 RMK CI6 SLP207
CYYG;2002-11-04 23:00;METAR CYYG 042300Z 07002KT 15SM SCT120 OVC280 M04/M08 A3013 RMK AC3CI5
CYYG;2002-11-05 00:00;METAR CYYG 050000Z 12002KT 15SM OVC110 M03/M07 A3013 RMK AC8 SLP207
CYYG;2002-11-05 01:00;METAR CYYG 050100Z 09004KT 15SM OVC110 M03/M07 A3014 RMK AC8 SLP208
CYYG;2002-11-05 02:00;METAR CYYG 050200Z 09002KT 15SM BKN066 OVC110 M03/M07 A3014 RMK AC6AC2 SLP211
CYYG;2002-11-05 03:00;METAR CYYG 050300Z 11003KT 15SM OVC048 M02/M07 A3014 RMK SC8 SLP210
CYYG;2002-11-05 04:00;METAR CYYG 050400Z 11002KT 15SM OVC042 M02/M08 A3014 RMK SC8 SLP211
CYYG;2002-11-05 05:00;METAR CYYG 050500Z 10004KT 15SM SCT030 OVC046 M01/M09 A3014 RMK SC3SC5
CYYG;2002-11-05 06:00;METAR CYYG 050600Z 09002KT 15SM SCT050 OVC081 M02/M09 A3014 RMK SC3AC5 SLP209
CYYG;2002-11-05 07:00;METAR CYYG 050700Z 09002KT 15SM OVC090 M03/M09 A3014 RMK AC8 SLP207
CYYG;2002-11-05 08:00;METAR CYYG 050800Z 00000KT 15SM BKN090 OVC280 M05/M09 A3014 RMK AC6CI2 SLP208
CYYG;2002-11-05 09:00;METAR CYYG 050900Z 04002KT 15SM OVC077 M05/M09 A3015 RMK AC8 SLP212
CYYG;2002-11-05 10:00;METAR CYYG 051000Z 04002KT 15SM FEW077 BKN097 M05/M09 A3016 RMK AC2AC4 SLP216
CYYG;2002-11-05 11:00;METAR CYYG 051100Z 07002KT 15SM FEW025 FEW080 BKN280 M06/M09 A3017 RMK SC1AC2CI2 SLP221
CYYG;2002-11-05 12:00;METAR CYYG 051200Z 08002KT 15SM FEW025 FEW080 BKN280 M05/M09 A3019 RMK SC1AC2CI2 SLP226
CYYG;2002-11-05 13:00;METAR CYYG 051300Z 10003KT 15SM FEW025 FEW080 BKN280 M00/M08 A3020 RMK SC1AC1CI1 SLP228
CYYG;2002-11-05 14:00;METAR CYYG 051400Z 07006KT 15SM FEW025 FEW080 BKN280 01/M08 A3020 RMK SC1AC1CI1 SLP230
CYYG;2002-11-05 15:00;METAR CYYG 051500Z 07006KT 15SM FEW025 FEW090 BKN280 02/M08 A3021 RMK SC1AC1CI1 SLP232
CYYG;2002-11-05 16:00;METAR CYYG 051600Z 09004KT 15SM FEW025 FEW090 SCT280 03/M07 A3021 RMK
CYYG;2002-11-05 18:00;METAR CYYG 051800Z 06004KT 15SM FEW030 SCT090 BKN280 04/M08 A3020 RMK SC1AC2CI0 SLP230
CYYG;2002-11-05 19:00;METAR CYYG 051900Z 03006KT 15SM FEW030 SCT090 BKN280 03/M06 A3022 RMK SC1AC3CI0 SLP235
CYYG;2002-11-05 20:00;METAR CYYG 052000Z 03006KT 15SM FEW030 SCT080 BKN280 02/M05 A3023 RMK SC1AC3CI0 SLP239
CYYG;2002-11-05 21:00;METAR CYYG 052100Z 01003KT 15SM FEW030 BKN075 BKN280 01/M05 A3024 RMK SC1AC4CI0 SLP242
CYYG;2002-11-05 22:00;METAR CYYG 052200Z 06005KT 15SM FEW030 SCT075 BKN280 M00/M05 A3024 RMK SC1AC3CI0 SLP242
CYYG;2002-11-05 23:00;METAR CYYG 052300Z 10003KT 15SM SCT048 BKN280 00/M04 A3026 RMK SC3CI1 SLP249
CYYG;2002-11-06 00:00;METAR CYYG 060000Z 08007KT 15SM SCT038 BKN280 00/M04 A3025 RMK SC3CI0 SLP247
CYYG;2002-11-06 01:00;METAR CYYG 060100Z 11004KT 15SM SCT041 M01/M05 A3027 RMK SC4 SLP252
CYYG;2002-11-06 02:00;METAR CYYG 060200Z 12004KT 15SM BKN046 M01/M05 A3026 RMK SC5 SLP250
CYYG;2002-11-06 03:00;METAR CYYG 060300Z 09002KT 15SM SCT060 M02/M05 A3025 RMK SC3 SLP247
CYYG;2002-11-06 04:00;METAR CYYG 060400Z 11003KT 15SM BKN059 M01/M05 A3025 RMK SC6 SLP247
CYYG;2002-11-06 05:00;METAR CYYG 060500Z 08004KT 15SM BKN057 M01/M04 A3024 RMK SC6 SLP243
CYYG;2002-11-06 06:00;METAR CYYG 060600Z 07005KT 15SM BKN060 M02/M06 A3022 RMK SC5 SLP236
CYYG;2002-11-06 07:00;METAR CYYG 060700Z 10003KT 15SM SCT060 M02/M06 A3020 RMK SC3 SLP230
CYYG;2002-11-06 08:00;METAR CYYG 060800Z 06004KT 15SM FEW055 M02/M06 A3018 RMK SC2 SLP223
CYYG;2002-11-06 09:00;METAR CYYG 060900Z 09005KT 15SM FEW055 M01/M06 A3015 RMK SC2 SLP213
CYYG;2002-11-06 10:00;METAR CYYG 061000Z 09005KT 15SM FEW055 BKN180 M02/M06 A3013 RMK SC2AC2 SLP204
CYYG;2002-11-06 11:00;METAR CYYG 061100Z 10007KT 15SM FEW050 BKN180 BKN250 M00/M06 A3011 RMK SC1AC6CI1 SLP199
CYYG;2002-11-06 12:00;METAR CYYG 061200Z 09005KT 15SM FEW050 FEW180 OVC210 M00/M06 A3013 RMK SC1AC1CS6 SLP205
CYYG;2002-11-06 14:00;METAR CYYG 061400Z 10010G16KT 15SM BKN027 OVC210 00/M05 A3005 RMK SC7CS1 SLP178
CYYG;2002-11-06 15:00;METAR CYYG 061500Z 11005KT 15SM FEW020 BKN031 OVC210 01/M04 A3003 RMK CU1SC6CS1 SLP170
CYYG;2002-11-06 16:00;METAR CYYG 061600Z 11008KT 15SM BKN032 OVC210 02/M04 A2997 RMK SC5CS3 SLP152
CYYG;2002-11-06 17:00;METAR CYYG 061700Z 12009KT 15SM OVC025 02/M04 A2996 RMK SC8 SLP148
CYYG;2002-11-06 18:00;METAR CYYG 061800Z 10010KT 15SM SCT025 OVC170 02/M04 A2990 RMK SC3AS5 PRESFR SLP126
CYYG;2002-11-06 19:00;METAR CYYG 061900Z 11010G16KT 15SM FEW025 FEW100 OVC170 02/M04 A2985 RMK SC1AC1AS6 VIRGA SUN VSBL SLP110
CYYG;2002-11-06 20:00;METAR CYYG 062000Z 11009G15KT 15SM FEW025 FEW100 OVC170 01/M05 A2981 RMK SC1AC2AS6 SLP097
CYYG;2002-11-06 21:00;METAR CYYG 062100Z 10007KT 15SM FEW025 OVC090 01/M05 A2977 RMK SC1AS8 SLP083
CYYG;2002-11-06 22:00;METAR CYYG 062200Z 08008KT 15SM OVC085 01/M05 A2971 RMK AS8 PRESFR SLP064
CYYG;2002-11-06 23:00;METAR CYYG 062300Z 08009KT 15SM OVC083 01/M05 A2968 RMK AS8 SLP052
CYYG;2002-11-07 00:00;METAR CYYG 070000Z 10006KT 15SM OVC080 00/M04 A2963 RMK AS8 SLP035
CYYG;2002-11-07 01:00;METAR CYYG 070100Z 12010KT 15SM FEW022 OVC080 01/M04 A2959 RMK SC2AS6 SLP021
CYYG;2002-11-07 02:00;METAR CYYG 070200Z 10008KT 15SM FEW022 OVC079 01/M04 A2952 RMK SC1AS7 PRESFR SLP000
CYYG;2002-11-07 03:00;METAR CYYG 070300Z 11009KT 15SM SCT022 OVC079 01/M04 A2949 RMK SC4AS4 SLP989
CYYG;2002-11-07 04:00;METAR CYYG 070400Z 09008KT 15SM OVC020 01/M03 A2946 RMK SC8 SLP977
CYYG;2002-11-07 05:00;METAR CYYG 070500Z 08010KT 15SM OVC022 01/M03 A2942 RMK SC8 SLP964
CYYG;2002-11-07 06:00;METAR CYYG 070600Z 05007KT 15SM -SHSN BKN022 OVC066 01/M03 A2939 RMK SC6AS2 SLP956
CYYG;2002-11-07 07:00;METAR CYYG 070700Z 05010KT 1 1/2SM -SN VV007 M00/M03 A2936 RMK SN8 SLP946
CYYG;2002-11-07 08:00;METAR CYYG 070800Z CCA 04012KT 1SM -SN VV005 M00/M02 A2933 RMK SN8 /S02/
CYYG;2002-11-07 09:00;METAR CYYG 070900Z 05009KT 3SM -SN OVC020 M00/M02 A2930 RMK SN4SC4 /S03/ SLP925
CYYG;2002-11-07 10:00;METAR CYYG 071000Z 02008KT 2SM -SN VV010 00/M02 A2929 RMK SN8 SLP920
CYYG;2002-11-07 11:00;METAR CYYG 071100Z 36007KT 2 1/2SM -SN BR OVC020 01/M01 A2929 RMK SN1SC7 SLP922
CYYG;2002-11-07 12:00;METAR CYYG 071200Z 35005KT 12SM -SN SCT024 OVC040 01/M01 A2931 RMK SC3SC5 SLP929
CYYG;2002-11-07 13:00;METAR CYYG 071300Z 35006KT 15SM -SN FEW025 OVC042 02/M01 A2932 RMK SC2SC6 VIS E-SW 4 SLP930
CYYG;2002-11-07 14:00;METAR CYYG 071400Z 36005KT 3SM -SN VV012 02/M00 A2933 RMK SN8 SLP934
CYYG;2002-11-07 15:00;METAR CYYG 071500Z 36004KT 15SM -SHRA FEW010 BKN027 OVC045 02/01 A2933 RMK SC2SC4SC2 SLP935
CYYG;2002-11-07 16:00;METAR CYYG 071600Z 24004KT 15SM VCSH FEW010 OVC025 03/00 A2934 RMK SC2SC6 SLP938
CYYG;2002-11-07 17:00;METAR CYYG 071700Z 35005KT 15SM FEW010 BKN022 OVC080 03/M00 A2934 RMK SC2SC5AC1 SLP939
CYYG;2002-11-07 18:00;METAR CYYG 071800Z 34009KT 15SM VCSH FEW010 BKN020 OVC080 03/M01 A2936 RMK SC2SC4AC2 SLP945
CYYG;2002-11-07 19:00;METAR CYYG 071900Z 32011KT 12SM -SHRASN FEW010 BKN022 OVC040 02/M00 A2939 RMK SC2SC5SC1 VIS W-N 3 SLP954
CYYG;2002-11-07 20:00;METAR CYYG 072000Z 32008KT 12SM -SHRASN FEW010 OVC031 02/M01 A2942 RMK SC1SC7 SLP963
CYYG;2002-11-07 21:00;METAR CYYG 072100Z 31007KT 15SM VCSH FEW010 SCT030 BKN080 02/M02 A2944 RMK SC1SC2AC4 SLP971
CYYG;2002-11-07 22:00;METAR CYYG 072200Z 31020G26KT 5/8SM -SHSN VV006 M00/M02 A2948 RMK SN8 RVR RWY03 3000FT SLP984
CYYG;2002-11-07 23:00;METAR CYYG 072300Z 31017G26KT 2SM -SHSN OVC012 M02/M04 A2952 RMK SN2SC6 SLP999
CYYG;2002-11-08 00:00;METAR CYYG 080000Z 31015G21KT 3SM -SHSN DRSN OVC015 M03/M06 A2956 RMK SN1SC7 /S01/ SLP012
CYYG;2002-11-08 22:00;METAR CYYG 072200Z 31020G26KT 5/8SM -SHSN VV006 M00/M02 A2948 RMK SN8 RVR RWY03 3000FT SLP984
CYYG;2002-11-08 23:00;METAR CYYG 072300Z 31017G26KT 2SM -SHSN OVC012 M02/M04 A2952 RMK SN2SC6 SLP999
CYYG;2002-11-08 01:00;METAR CYYG 080100Z 30020G27KT 1 1/2SM -SHSN DRSN VV010 M04/M07 A2959 RMK SN8 SLP022
CYYG;2002-11-08 02:00;METAR CYYG 080200Z 29016G24KT 1 1/2SM -SHSN DRSN VV010 M05/M07 A2963 RMK SN8 SLP034
CYYG;2002-11-08 03:00;METAR CYYG 080300Z 29017G22KT 3SM -SHSN DRSN OVC017 M05/M08 A2966 RMK SN2SC6 SLP048
CYYG;2002-11-08 04:00;METAR CYYG 080400Z 29014G25KT 10SM -SHSN DRSN OVC020 M05/M08 A2970 RMK SC8 SLP060
CYYG;2002-11-08 05:00;METAR CYYG 080500Z 29018KT 10SM -SHSN DRSN OVC022 M05/M09 A2974 RMK SC8 SLP073
CYYG;2002-11-08 06:00;METAR CYYG 080600Z 29014G21KT 10SM -SHSN DRSN OVC025 M05/M09 A2977 RMK SC8 SLP084
CYYG;2002-11-08 07:00;METAR CYYG 080700Z 29013KT 10SM -SHSN DRSN OVC026 M05/M09 A2982 RMK SC8 SLP100
CYYG;2002-11-08 08:00;METAR CYYG 080800Z 27009G15KT 15SM -SHSN OVC028 M05/M09 A2985 RMK SC8 SLP109
CYYG;2002-11-08 09:00;METAR CYYG 080900Z 28012KT 15SM -SHSN OVC029 M05/M09 A2986 RMK SC8 SLP114
CYYG;2002-11-08 10:00;METAR CYYG 081000Z 29014KT 15SM OVC031 M05/M09 A2989 RMK SC8 SLP123
CYYG;2002-11-08 11:00;METAR CYYG 081100Z 29015KT 10SM -SHSN DRSN BKN029 M06/M10 A2992 RMK SC7 SLP133
CYYG;2002-11-08 12:00;METAR CYYG 081200Z 28011G17KT 15SM -SHSN DRSN BKN029 M06/M10 A2995 RMK SC6 SLP145
CYYG;2002-11-08 13:00;METAR CYYG 081300Z 29014KT 15SM FEW029 M06/M11 A2997 RMK SC2 SLP152
CYYG;2002-11-08 14:00;METAR CYYG 081400Z 27010KT 15SM FEW029 M06/M11 A2999 RMK SC2 SLP158
CYYG;2002-11-08 15:00;METAR CYYG 081500Z 27009KT 15SM FEW029 FEW100 M05/M10 A3000 RMK SC1AC1 SLP162
CYYG;2002-11-08 16:00;METAR CYYG 081600Z 27009KT 15SM FEW029 FEW090 M04/M11 A2999 RMK SC1AC1 SLP159
CYYG;2002-11-08 17:00;METAR CYYG 081700Z 24009KT 15SM FEW029 FEW130 FEW300 M03/M12 A2998 RMK SC1AC2CI1 SLP154
CYYG;2002-11-08 18:00;METAR CYYG 081800Z 24012KT 15SM BKN058 BKN300 M02/M14 A2997 RMK SC5CI1 SLP153
CYYG;2002-11-08 19:00;METAR CYYG 081900Z 23009KT 15SM BKN057 M01/M12 A2996 RMK SC6 SLP147
CYYG;2002-11-08 20:00;METAR CYYG 082000Z 22013G18KT 15SM FEW047 BKN057 BKN079 M01/M09 A2994 RMK SC1SC5AC2 SLP143
CYYG;2002-11-08 21:00;METAR CYYG 082100Z 21011G16KT 15SM BKN039 OVC052 00/M06 A2994 RMK SC6SC2 SLP140
CYYG;2002-11-08 22:00;METAR CYYG 082200Z 21012G17KT 15SM SCT035 OVC043 01/M04 A2993 RMK SC3SC5 SLP137
CYYG;2002-11-08 23:00;METAR CYYG 082300Z 20013KT 15SM SCT026 OVC035 02/M03 A2991 RMK SC3SC5 SLP132
CYYG;2002-11-09 00:00;METAR CYYG 090000Z 20014G19KT 15SM BKN038 OVC046 02/M03 A2989 RMK SC5SC3 SLP125
CYYG;2002-11-09 01:00;METAR CYYG 090100Z 20011KT 15SM BKN040 OVC050 03/M01 A2988 RMK SC5SC3 SLP120
CYYG;2002-11-09 02:00;METAR CYYG 090200Z 20010KT 15SM FEW030 OVC050 04/00 A2987 RMK SC2SC6 SLP118
CYYG;2002-11-09 03:00;METAR CYYG 090300Z 20011KT 15SM FEW025 OVC039 04/01 A2986 RMK SC2SC6 SLP115
CYYG;2002-11-09 04:00;METAR CYYG 090400Z 20010KT 15SM BKN020 OVC030 04/02 A2985 RMK SC5SC3 SLP111
CYYG;2002-11-09 05:00;METAR CYYG 090500Z 21009KT 15SM BKN014 BKN030 OVC210 04/02 A2985 RMK SC5SC2CI2 SLP109
CYYG;2002-11-09 06:00;METAR CYYG 090600Z 22008KT 15SM FEW014 SCT050 BKN220 04/02 A2985 RMK SC2SC2CI2 SLP109
CYYG;2002-11-09 07:00;METAR CYYG 090700Z 22008KT 15SM BKN050 BKN220 05/03 A2984 RMK SC5CI2 SLP107
CYYG;2002-11-09 08:00;METAR CYYG 090800Z 22007KT 15SM BKN006 OVC050 05/04 A2984 RMK SF5SC3 SLP106
CYYG;2002-11-09 09:00;METAR CYYG 090900Z 22006KT 15SM OVC006 06/05 A2985 RMK SF8 SLP111
CYYG;2002-11-09 10:00;METAR CYYG 091000Z 23007KT 15SM OVC006 06/05 A2987 RMK SF8 SLP117
CYYG;2002-11-09 11:00;METAR CYYG 091100Z 24006KT 4SM BR BKN005 OVC060 06/05 A2989 RMK SF6SC2 SLP124
CYYG;2002-11-09 12:00;METAR CYYG 091200Z 25008KT 4SM BR FEW005 OVC066 07/05 A2993 RMK SF2AC6 SLP135
CYYG;2002-11-09 13:00;METAR CYYG 091300Z 25006KT 8SM FEW045 OVC066 07/05 A2996 RMK SC2AC6 SLP145
CYYG;2002-11-09 14:00;METAR CYYG 091400Z 28005KT 10SM BKN066 07/05 A2997 RMK AC7 SLP151
CYYG;2002-11-09 15:00;METAR CYYG 091500Z 29007KT 15SM FEW010 BKN069 08/04 A3000 RMK CU1AC6 SLP161
CYYG;2002-11-09 16:00;METAR CYYG 091600Z 32005KT 15SM FEW015 BKN069 08/03 A3001 RMK SC1AC6 SLP162
CYYG;2002-11-09 17:00;METAR CYYG 091700Z 34005KT 15SM FEW025 OVC067 06/02 A3002 RMK SC1AC7 SLP168
CYYG;2002-11-09 18:00;METAR CYYG 091800Z 35004KT 15SM FEW025 OVC071 06/02 A3003 RMK SC1AC7 SLP170
CYYG;2002-11-09 19:00;METAR CYYG 091900Z 03004KT 15SM FEW025 OVC066 06/02 A3004 RMK SC1AC7 SLP175
CYYG;2002-11-09 20:00;METAR CYYG 092000Z 03005KT 15SM OVC068 05/03 A3006 RMK AC8 SLP182
CYYG;2002-11-09 21:00;METAR CYYG 092100Z 05004KT 15SM FEW025 OVC068 05/02 A3007 RMK SC1AC7 SLP185
CYYG;2002-11-09 22:00;METAR CYYG 092200Z 08004KT 15SM FEW023 OVC069 04/02 A3009 RMK SC1AC7 SLP193
CYYG;2002-11-09 23:00;METAR CYYG 092300Z 07004KT 12SM FEW022 OVC071 04/02 A3012 RMK SC2AC6 SLP201
CYYG;2002-11-10 00:00;METAR CYYG 100000Z 08005KT 10SM BKN018 OVC023 04/03 A3012 RMK SC6SC2 SLP201
CYYG;2002-11-10 01:00;METAR CYYG 100100Z 11004KT 10SM BKN016 OVC021 04/02 A3012 RMK SC6SC2 SLP203
CYYG;2002-11-10 01:48;SPECI CYYG 100148Z 09005KT 8SM BKN014 OVC075 RMK SC6AC2
CYYG;2002-11-10 02:00;METAR CYYG 100200Z 10005KT 8SM BKN014 OVC075 04/02 A3012 RMK SC7AC1 SLP202
CYYG;2002-11-10 02:52;SPECI CYYG 100252Z 09005KT 8SM SCT014 BKN075 OVC095 RMK SC3AC3AC2
CYYG;2002-11-10 03:00;METAR CYYG 100300Z 10004KT 8SM FEW014 BKN075 OVC095 04/03 A3010 RMK SC2AC2AC3 SLP195
CYYG;2002-11-10 04:00;METAR CYYG 100400Z 11006KT 8SM FEW015 SCT075 OVC110 05/03 A3009 RMK SC1AC2AC5 SLP190
CYYG;2002-11-10 05:00;METAR CYYG 100500Z 13008KT 8SM OVC110 05/04 A3007 RMK AC8 SLP186
CYYG;2002-11-10 06:00;METAR CYYG 100600Z 12008KT 8SM FEW110 OVC210 06/04 A3005 RMK AC2CI6 SLP178
CYYG;2002-11-10 07:00;METAR CYYG 100700Z 15010KT 8SM FEW010 OVC110 06/05 A3004 RMK SF2AC6 SLP172
CYYG;2002-11-10 07:30;SPECI CYYG 100730Z 15008KT 8SM OVC008 RMK SF8
CYYG;2002-11-10 07:44;SPECI CYYG 100744Z 14008KT 6SM BR BKN005 OVC008 RMK SF6SF2
CYYG;2002-11-10 08:00;METAR CYYG 100800Z 16012KT 3SM BR OVC003 06/04 A3004 RMK SF8 SLP175
CYYG;2002-11-10 08:13;SPECI CYYG 100813Z 16013KT 2 1/2SM BR OVC002 RMK SF8
CYYG;2002-11-10 09:00;METAR CYYG 100900Z 17011G16KT 2 1/2SM BR OVC002 06/05 A3002 RMK SF8 SLP168
CYYG;2002-11-10 10:00;METAR CYYG 101000Z CCA 16010KT 3SM BR OVC004 06/05 A3001 RMK SF8 SLP163
CYYG;2002-11-10 11:00;METAR CYYG 101100Z 19009G15KT 3SM BR OVC004 07/06 A3000 RMK SF8 SLP162
CYYG;2002-11-10 12:00;METAR CYYG 101200Z 19011KT 3SM BR BKN010 OVC030 08/07 A3001 RMK SF6SC2 SLP163
CYYG;2002-11-10 13:00;METAR CYYG 101300Z 20011KT 8SM BKN009 OVC030 09/05 A3001 RMK SF6SC2 HAZY SLP162
CYYG;2002-11-10 14:00;METAR CYYG 101400Z 23007KT 8SM BKN010 OVC030 10/05 A3002 RMK SF6SC2 HAZY SLP168
CYYG;2002-11-10 15:00;METAR CYYG 101500Z 22008KT 10SM OVC010 11/05 A3002 RMK SF8 SLP167
CYYG;2002-11-10 16:00;METAR CYYG 101600Z 22011KT 10SM OVC012 11/05 A3001 RMK SC8 HAZY SLP164
CYYG;2002-11-10 17:00;METAR CYYG 101700Z 23009KT 10SM OVC013 12/05 A3001 RMK SC8 SLP162
CYYG;2002-11-10 18:00;METAR CYYG 101800Z 22008KT 6SM HZ FEW013 BKN110 13/10 A3001 RMK SC1AC4
CYYG;2002-11-10 19:00;METAR CYYG 101900Z 19008KT 8SM BKN120 OVC240 12/09 A3001 RMK AC5CI0 HAZY
CYYG;2002-11-10 20:00;METAR CYYG 102000Z 20007KT 10SM FEW120 BKN240 12/08 A3001 RMK AC2CI2 HAZY SLP164
CYYG;2002-11-10 21:00;METAR CYYG 102100Z 17005KT 8SM FEW120 BKN240 09/07 A3001 RMK AC2CI2 HAZY
CYYG;2002-11-10 22:00;METAR CYYG 102200Z 18011KT 15SM FEW160 SCT240 10/08 A3001 RMK AC2CI2 SLP165
CYYG;2002-11-10 23:00;METAR CYYG 102300Z 17011KT 15SM FEW160 BKN180 BKN240 11/08 A3001 RMK AC2AC2CI2 SLP163
CYYG;2002-11-11 00:00;METAR CYYG 110000Z 17012KT 15SM BKN170 OVC240 11/09 A2999 RMK AC5CI2 SLP157
CYYG;2002-11-11 01:00;METAR CYYG 110100Z 16010KT 15SM BKN041 BKN062 BKN240 11/09 A2998 RMK SC5SC1CI1 SLP154
CYYG;2002-11-11 02:00;METAR CYYG 110200Z 18012KT 15SM FEW038 BKN095 BKN210 11/09 A2997 RMK SC2AC3CI1 SLP149
CYYG;2002-11-11 03:00;METAR CYYG 110300Z 19016KT 15SM BKN062 BKN074 14/11 A2995 RMK SC5AC2 SLP141
CYYG;2002-11-11 04:00;METAR CYYG 110400Z 18017KT 15SM BKN071 BKN120 14/12 A2993 RMK AC5AC2 SLP137
CYYG;2002-11-11 05:00;METAR CYYG 110500Z 18015KT 15SM -SHRA FEW040 OVC091 13/11 A2994 RMK SC2AC6 SLP138
CYYG;2002-11-11 06:00;METAR CYYG 110600Z 18014KT 15SM -SHRA BKN045 OVC090 13/11 A2992 RMK SC6AC2 SLP131
CYYG;2002-11-11 07:00;METAR CYYG 110700Z 18016KT 15SM -SHRA BKN048 BKN098 OVC110 13/11 A2992 RMK SC5AC2AC2 SLP131
CYYG;2002-11-11 08:00;METAR CYYG 110800Z 19018KT 10SM -SHRA OVC045 13/12 A2991 RMK SC8 SLP130
CYYG;2002-11-11 09:00;METAR CYYG 110900Z 18013KT 10SM -SHRA BKN005 BKN035 OVC087 13/12 A2991 RERA RMK SF5SC2AC2 SLP130
CYYG;2002-11-11 10:00;METAR CYYG 111000Z 19014G20KT 15SM -SHRA FEW005 SCT017 OVC055 14/12 A2992 RMK SF2SC2SC4 SLP133 SLP140
CYYG;2002-11-11 13:00;METAR CYYG 111300Z 18010KT 15SM BKN011 OVC030 15/14 A2994 RMK SC6SC2 SLP139
CYYG;2002-11-11 14:00;METAR CYYG 111400Z 19014KT 15SM FEW005 FEW012 BKN080 15/14 A2992 RMK SF1SC1AC2 SLP133
CYYG;2002-11-11 15:00;METAR CYYG 111500Z 19015KT 15SM FEW005 BKN013 16/15 A2992 RMK SF2SC6 SLP133
CYYG;2002-11-11 16:00;METAR CYYG 111600Z 19018G24KT 15SM FEW005 BKN012 BKN080 17/15 A2989 RMK SF2SC3AC1 SLP122
CYYG;2002-11-11 17:00;METAR CYYG 111700Z 19017KT 15SM FEW005 BKN017 BKN080 16/14 A2988 RMK SF1SC5AC1 SLP120
CYYG;2002-11-11 18:00;METAR CYYG 111800Z 18020KT 15SM FEW005 BKN065 BKN200 16/14 A2987 RMK SF1SC4CI0 SLP114
CYYG;2002-11-11 19:00;METAR CYYG 111900Z CCA 18024KT 15SM BKN030 BKN200 16/14 A2984 RMK SC6CI1
CYYG;2002-11-11 20:00;METAR CYYG 112000Z 19021G26KT 15SM BKN022 BKN200 16/14 A2983 RMK SC6CI0 SLP103
CYYG;2002-11-11 21:00;METAR CYYG 112100Z 18020G26KT 15SM BKN018 OVC080 15/13 A2983 RMK SC6AC1 SLP101
CYYG;2002-11-11 22:00;METAR CYYG 112200Z 18018KT 15SM OVC016 15/14 A2983 RMK SC8 SLP103
CYYG;2002-11-11 23:00;METAR CYYG 112300Z 18013KT 15SM OVC013 15/13 A2984 RMK SC8 SLP106
CYYG;2002-11-12 00:00;METAR CYYG 120000Z 18011G16KT 12SM FEW007 BKN018 OVC150 14/13 A2983 RMK SF1SC6AC2 SLP103
CYYG;2002-11-12 01:00;METAR CYYG 120100Z 18021G26KT 15SM FEW008 BKN019 OVC100 15/14 A2981 RMK SF1SC6AC2 SLP095
CYYG;2002-11-12 02:00;METAR CYYG 120200Z 19017KT 15SM FEW008 OVC017 15/14 A2982 RMK SF1SC8 RERA SLP100
CYYG;2002-11-12 03:00;METAR CYYG 120300Z 22012G24KT 12SM -SHRA BKN013 OVC030 17/16 A2983 RMK SC7SC1 SLP102
CYYG;2002-11-12 04:00;METAR CYYG 120400Z 24017G28KT 15SM BKN007 OVC022 16/15 A2986 RMK SF6SC2 SLP113
CYYG;2002-11-12 05:00;METAR CYYG 120500Z 26006KT 15SM FEW007 OVC040 14/13 A2990 RMK SF1SC7 SLP125
CYYG;2002-11-12 06:00;METAR CYYG 120600Z 22007KT 15SM FEW040 OVC058 13/12 A2994 RMK SC1SC7 SLP138
CYYG;2002-11-12 07:00;METAR CYYG 120700Z 23006KT 15SM OVC060 13/12 A2994 RMK SC8 SLP140
CYYG;2002-11-12 08:00;METAR CYYG 120800Z 25008KT 15SM OVC070 13/11 A2996 RMK AC8 SLP147
CYYG;2002-11-12 09:00;METAR CYYG 120900Z 26009KT 15SM OVC072 13/10 A2998 RMK AC8 SLP153
CYYG;2002-11-12 10:00;METAR CYYG 121000Z 27006KT 15SM OVC082 12/10 A3001 RMK AC8 SLP163
CYYG;2002-11-12 11:00;METAR CYYG 121100Z 28007KT 15SM BKN085 BKN250 12/09 A3005 RMK AC6CI0 SLP177
CYYG;2002-11-12 12:00;METAR CYYG 121200Z 29007KT 15SM SCT085 BKN250 11/08 A3008 RMK AC4CI1 SLP187
CYYG;2002-11-12 13:00;METAR CYYG 121300Z 32006KT 15SM SCT046 BKN085 BKN250 11/08 A3010 RMK SC3AC2CI1 SLP195
CYYG;2002-11-12 14:00;METAR CYYG 121400Z 36006KT 15SM FEW013 SCT045 BKN260 11/06 A3014 RMK SC1SC3CI2 SLP208
CYYG;2002-11-12 15:00;METAR CYYG 121500Z 36009KT 15SM FEW013 BKN045 BKN260 10/05 A3016 RMK SC2SC4CI1 SLP215
CYYG;2002-11-12 16:00;METAR CYYG 121600Z 36011KT 15SM SCT020 BKN044 BKN260 09/03 A3017 RMK SC4SC2CI1 SLP217
CYYG;2002-11-12 17:00;METAR CYYG 121700Z 36008KT 15SM BKN024 08/03 A3018 RMK SC7 SLP221
CYYG;2002-11-12 18:00;METAR CYYG 121800Z 02011KT 15SM BKN026 BKN260 08/03 A3019 RMK SC6CI1 SLP224
CYYG;2002-11-12 19:00;METAR CYYG 121900Z 36008KT 15SM BKN026 07/02 A3020 RMK SC7 SLP227
CYYG;2002-11-12 20:00;METAR CYYG 122000Z 01009KT 15SM BKN024 BKN140 BKN260 07/01 A3020 RMK SC5AC1CI1 SLP229
CYYG;2002-11-12 21:00;METAR CYYG 122100Z 04008KT 15SM BKN026 06/01 A3023 RMK SC7 SLP236
CYYG;2002-11-12 22:00;METAR CYYG 122200Z 02004KT 15SM BKN028 06/01 A3024 RMK SC7 SLP241
CYYG;2002-11-12 23:00;METAR CYYG 122300Z 08005KT 15SM BKN029 OVC130 06/02 A3025 RMK SC6AC2 SLP243
CYYG;2002-11-13 00:00;METAR CYYG 130000Z 05005KT 15SM BKN024 OVC120 06/02 A3023 RMK SC6AC2 SLP238
CYYG;2002-11-13 01:00;METAR CYYG 130100Z 01005KT 15SM FEW022 OVC100 05/02 A3022 RMK SC2AC6 SLP236
CYYG;2002-11-13 02:00;METAR CYYG 130200Z 04006KT 15SM BKN024 OVC093 06/02 A3022 RMK SC5AC3
CYYG;2002-11-13 03:00;METAR CYYG 130300Z 08004KT 15SM FEW024 OVC080 06/03 A3019 RMK SC2AC6 SLP226
CYYG;2002-11-13 04:00;METAR CYYG 130400Z 10005KT 15SM OVC073 06/04 A3017 RMK AC8 SLP219
CYYG;2002-11-13 05:00;METAR CYYG 130500Z 10007KT 15SM -RA OVC066 06/04 A3015 RMK AS8 SLP211
CYYG;2002-11-13 06:00;METAR CYYG 130600Z 08008KT 15SM -RA OVC057 05/04 A3011 RMK NS8 SLP197
CYYG;2002-11-13 07:00;METAR CYYG 130700Z 05007KT 10SM -RA BKN048 OVC057 05/03 A3008 RMK SC6SC2 SLP189
CYYG;2002-11-13 08:00;METAR CYYG 130800Z 06010KT 10SM -RA BKN005 OVC048 05/03 A3005 RMK SF6SC2 SLP177
CYYG;2002-11-13 09:00;METAR CYYG 130900Z 04011KT 15SM -RA BKN007 OVC029 05/03 A3004 RMK SF6SC2 SLP176
CYYG;2002-11-13 10:00;METAR CYYG 131000Z 07013G20KT 10SM -RA BKN006 OVC034 04/03 A2997 RMK SF6SC2 PRESFR SLP152
CYYG;2002-11-13 11:00;METAR CYYG 131100Z 06010G17KT 8SM -RA BKN005 OVC024 04/03 A2996 RERA RMK SF7SC1 SLP149
CYYG;2002-11-13 12:00;METAR CYYG 131200Z 03010KT 2SM -RA BR FEW003 BKN005 OVC020 05/04 A2996 RMK SF2SF3SC2 SLP145
CYYG;2002-11-13 13:00;METAR CYYG 131300Z 04011KT 2SM -RA BR OVC004 06/05 A2994 RMK SF8 SLP141
CYYG;2002-11-13 14:00;METAR CYYG 131400Z 04010G16KT 2 1/2SM -RA BR OVC006 06/05 A2993 RMK SF8 SLP138 SLP129
CYYG;2002-11-13 17:00;METAR CYYG 131700Z 01004KT 6SM -RA BR BKN006 OVC012 06/04 A2990 RMK SF6SC2 SLP125
CYYG;2002-11-13 18:00;METAR CYYG 131800Z 36005KT 8SM -RA FEW004 BKN007 OVC030 06/05 A2986 RMK SF1SF6SC1 SLP112
CYYG;2002-11-13 19:00;METAR CYYG 131900Z 36007KT 10SM -RA OVC006 06/04 A2986 RMK SF8 SLP114
CYYG;2002-11-13 20:00;METAR CYYG 132000Z 35006KT 1 1/2SM RA BR FEW003 BKN006 OVC030 05/04 A2987 RMK SF1SF6SC1 SLP117
CYYG;2002-11-13 21:00;METAR CYYG 132100Z 01008KT 10SM -RA FEW003 BKN009 OVC020 05/04 A2986
CYYG;2002-11-13 22:00;METAR CYYG 132200Z 01006KT 12SM -RA FEW004 OVC009 05/04 A2985 RMK SF1SC7 SLP111
CYYG;2002-11-13 23:00;METAR CYYG 132300Z 36010G15KT 15SM -RA OVC004 05/04 A2985 RMK SF8 SLP108
CYYG;2002-11-14 00:00;METAR CYYG 140000Z 03012KT 15SM OVC004 05/04 A2982 RMK SF8 SLP098
CYYG;2002-11-14 01:00;METAR CYYG 140100Z 02008KT 5SM -RA BR BKN003 OVC010 05/04 A2982 RERA RMK SF6SF2 SLP099
CYYG;2002-11-14 02:00;METAR CYYG 140200Z 36008KT 8SM -RA BKN003 OVC027 05/04 A2979 RERA RMK SF6SC2 SLP091
CYYG;2002-11-14 03:00;METAR CYYG 140300Z 36007KT 5SM RA BR BKN004 OVC014 05/04 A2980 RMK SF6SC2 /R14/ SLP093
CYYG;2002-11-14 04:00;METAR CYYG 140400Z 36002KT 8SM -RA OVC004 05/04 A2977 RERA RMK SF8 SLP081
CYYG;2002-11-14 05:00;METAR CYYG 140500Z 00000KT 15SM -RA BKN005 OVC010 05/04 A2973 RMK SF6SF2 SLP070
CYYG;2002-11-14 06:00;METAR CYYG 140600Z 36015KT 5SM RA BR BKN005 OVC008 05/04 A2974 RMK SF6SF2 /R25/ SLP072
CYYG;2002-11-14 07:00;METAR CYYG 140700Z 01011G17KT 6SM RA BR BKN004 OVC019 05/03 A2976 RMK SF6SC2 SLP079
CYYG;2002-11-14 08:00;METAR CYYG 140800Z 01013G21KT 6SM RA BR BKN005 OVC011 04/03 A2974 RMK SF6SC2 /R11/ SLP071
CYYG;2002-11-14 09:00;METAR CYYG 140900Z 02018KT 5SM RA BR OVC006 04/03 A2971 RMK SF8 SLP061
CYYG;2002-11-14 10:00;METAR CYYG 141000Z 36015G20KT 10SM -RA BKN006 OVC013 04/03 A2974 RERA RMK SF6SC2 SLP073
CYYG;2002-11-14 11:00;METAR CYYG 141100Z 36011G16KT 5SM RA BR BKN006 OVC013 04/03 A2978 RMK SF6SC2 /R21/ SLP085
CYYG;2002-11-14 12:00;METAR CYYG 141200Z 36014KT 6SM -RA BR BKN007 OVC030 04/02 A2979 RERA RMK SF7SC1 WND ESTD SLP091
CYYG;2002-11-14 13:00;METAR CYYG 141300Z 36014KT 6SM -RA BR BKN008 OVC018 04/02 A2979 RMK SF7SC1 WND ESTD SLP089
CYYG;2002-11-14 14:00;METAR CYYG 141400Z 36009KT 6SM -RA BR OVC009 04/02 A2978 RMK SF8 WND ESTD SLP085
CYYG;2002-11-14 15:00;METAR CYYG 141500Z 36014KT 8SM -RA OVC008 04/02 A2974 RMK SF8 WND ESTD / VIS LWR N-NE SLP074
CYYG;2002-11-14 16:00;METAR CYYG 141600Z 35013KT 8SM -RA OVC007 04/02 A2977 RMK SF8 SLP084
CYYG;2002-11-14 17:00;METAR CYYG 141700Z 36013G19KT 10SM -RA OVC008 04/02 A2975 RMK SF8 SLP077
CYYG;2002-11-14 18:00;METAR CYYG 141800Z 36011G18KT 12SM -RA OVC009 03/02 A2975 RMK SC8 SLP077
CYYG;2002-11-14 19:00;METAR CYYG 141900Z 01013KT 10SM -RA OVC008 03/02 A2974 RMK SC8 SLP074
CYYG;2002-11-14 20:00;METAR CYYG 142000Z 01009KT 10SM -RA OVC009 03/02 A2975 RMK SC8 SLP075
CYYG;2002-11-14 21:00;METAR CYYG 142100Z 36011G18KT 8SM -RA OVC009 03/02 A2973 RMK SC8 SLP070
CYYG;2002-11-14 22:00;METAR CYYG 142200Z 35014G20KT 10SM -RA OVC010 03/01 A2974 RMK SC8 SLP072
CYYG;2002-11-15 01:00;METAR CYYG 150100Z 34013G18KT 15SM OVC010 03/01 A2976 RMK SC8 SLP079
CYYG;2002-11-15 02:00;METAR CYYG 150200Z 34010G18KT 15SM OVC016 03/01 A2976 RMK SC8 SLP079
CYYG;2002-11-15 03:00;METAR CYYG 150300Z 34011KT 15SM OVC013 03/01 A2977 RMK SC8 SLP081
CYYG;2002-11-15 04:00;METAR CYYG 150400Z 33010G15KT 15SM OVC013 03/00 A2978 RMK SC8 SLP086
CYYG;2002-11-15 05:00;METAR CYYG 150500Z 33011KT 15SM OVC015 03/01 A2979 RMK SC8 SLP090
CYYG;2002-11-15 06:00;METAR CYYG 150600Z 31012KT 15SM OVC017 03/00 A2981 RMK SC8 SLP097
CYYG;2002-11-15 07:00;METAR CYYG 150700Z 30004KT 15SM OVC020 03/00 A2984 RMK SC8 SLP106
CYYG;2002-11-15 08:00;METAR CYYG 150800Z 28008KT 15SM OVC020 03/00 A2985 RMK SC8 SLP111
CYYG;2002-11-15 09:00;METAR CYYG 150900Z 28004KT 15SM OVC017 03/M00 A2987 RMK SC8 SLP117
CYYG;2002-11-15 10:00;METAR CYYG 151000Z 27003KT 15SM OVC010 02/M01 A2988 RMK SC8 SLP121
CYYG;2002-11-15 11:00;METAR CYYG 151100Z 25005KT 15SM BKN005 02/M00 A2991 RMK SF7 SLP129
CYYG;2002-11-15 12:00;METAR CYYG 151200Z 23006KT 15SM FEW006 BKN095 BKN270 02/00 A2992 RMK SF1AC6CI0 SLP135
CYYG;2002-11-15 13:00;METAR CYYG 151300Z 21006KT 15SM FEW020 FEW095 SCT270 03/01 A2993 RMK SC1AC1CI1 SLP138
CYYG;2002-11-15 14:00;METAR CYYG 151400Z 19008KT 15SM FEW010 BKN055 BKN180 05/02 A2992 RMK SF1SC5AC1 SLP134
CYYG;2002-11-15 15:00;METAR CYYG 151500Z 20011KT 15SM FEW055 SCT095 BKN180 06/02 A2991 RMK SC1AC3AC3 SLP131
CYYG;2002-11-15 16:00;METAR CYYG 151600Z 21012KT 15SM BKN100 BKN120 07/01 A2991 RMK AC5AC2 SLP129
CYYG;2002-11-15 17:00;METAR CYYG 151700Z 19013KT 15SM FEW030 BKN068 07/03 A2989 RMK SC1AC7 SLP123
CYYG;2002-11-15 18:00;METAR CYYG 151800Z 20013KT 15SM FEW018 BKN065 07/04 A2989 RMK SC2SC5 SLP122
CYYG;2002-11-15 19:00;METAR CYYG 151900Z 20012KT 15SM BKN021 08/04 A2990 RMK SC7 SLP125
CYYG;2002-11-15 20:00;METAR CYYG 152000Z 18010KT 15SM FEW022 SCT150 BKN250 08/05 A2989 RMK SC2AC1CI1 SLP122
CYYG;2002-11-15 21:00;METAR CYYG 152100Z 19012KT 15SM FEW025 FEW120 SCT250 08/04 A2988 RMK SC1AC1CI1 SLP121
CYYG;2002-11-15 22:00;METAR CYYG 152200Z 19010KT 15SM BKN180 BKN250 07/05 A2989 RMK AC5CI0
CYYG;2002-11-15 23:00;METAR CYYG 152300Z 20006KT 15SM FEW080 BKN170 07/05 A2990 RMK AC2AC3 SLP127
CYYG;2002-11-16 00:00;METAR CYYG 160000Z 21007KT 15SM FEW086 BKN170 08/06 A2991 RMK AC2AC3 SLP130
CYYG;2002-11-16 01:00;METAR CYYG 160100Z 20006KT 15SM BKN160 08/06 A2990 RMK AC5 SLP128
CYYG;2002-11-16 02:00;METAR CYYG 160200Z 22007KT 15SM OVC150 08/06 A2991 RMK AC8 SLP131
CYYG;2002-11-16 03:00;METAR CYYG 160300Z 25007KT 15SM FEW023 OVC150 09/07 A2993 RMK SC2AC6 SLP136
CYYG;2002-11-16 04:00;METAR CYYG 160400Z 31011G16KT 15SM SCT025 OVC150 08/04 A2997 RMK SC4AC4 SLP150
CYYG;2002-11-16 05:00;METAR CYYG 160500Z 32016KT 15SM BKN010 OVC033 04/02 A3003 RMK SC6SC2 SLP169
CYYG;2002-11-16 06:00;METAR CYYG 160600Z 33012KT 15SM SCT016 OVC040 04/00 A3006 RMK SC3SC5 SLP180
CYYG;2002-11-16 07:00;METAR CYYG 160700Z 33010G18KT 15SM -SHSN FEW016 OVC054 02/M01 A3011 RMK SC2SC6 SLP199
CYYG;2002-11-16 08:00;METAR CYYG 160800Z 33014KT 15SM -SHSN FEW027 OVC061 01/M03 A3015 RMK SC2SC6 SLP211
CYYG;2002-11-16 09:00;METAR CYYG 160900Z 33013G19KT 15SM FEW036 OVC071 01/M06 A3020 RMK SC2AC6 SLP227
CYYG;2002-11-16 10:00;METAR CYYG 161000Z 32016G21KT 15SM FEW040 OVC080 M00/M07 A3024 RMK SC2AC6 SLP241
CYYG;2002-11-16 11:00;METAR CYYG 161100Z 32014G19KT 15SM FEW035 FEW075 BKN090 M00/M07 A3028 RMK SC1AC2AC5 SLP257
CYYG;2002-11-16 12:00;METAR CYYG 161200Z 32008G15KT 15SM FEW035 FEW075 SCT090 BKN180 M01/M07 A3033 RMK SC2AC1AC2AC3 SLP271
CYYG;2002-11-16 13:00;METAR CYYG 161300Z 34008G16KT 15SM SCT035 BKN090 BKN180 M00/M07 A3034 RMK SC3AC3AC1 SLP277
CYYG;2002-11-16 14:00;METAR CYYG 161400Z 35012G17KT 15SM BKN035 BKN090 M00/M07 A3038 RMK SC6AC2 SLP289
CYYG;2002-11-16 15:00;METAR CYYG 161500Z 36011KT 15SM SCT035 SCT090 OVC250 M00/M08 A3039 RMK SC3AC1CS5 SLP293
CYYG;2002-11-16 16:00;METAR CYYG 161600Z 36013KT 15SM BKN033 OVC250 M01/M09 A3041 RMK SC6CS2 SLP299
CYYG;2002-11-16 17:00;METAR CYYG 161700Z 01013KT 15SM BKN032 OVC250 M01/M08 A3044 RMK SC6CS1 SLP310
CYYG;2002-11-16 18:00;METAR CYYG 161800Z 36009KT 15SM BKN034 OVC250 M01/M09 A3046 RMK SC6CS1 SLP316
CYYG;2002-11-16 19:00;METAR CYYG 161900Z 02011KT 15SM BKN035 OVC250 M00/M08 A3047 RMK SC5CS2 SLP321
CYYG;2002-11-16 20:00;METAR CYYG 162000Z 36007KT 15SM BKN035 BKN120 BKN250 M01/M08 A3048 RMK SC5AC1CI1 SLP324
CYYG;2002-11-16 21:00;METAR CYYG 162100Z 36006KT 15SM BKN035 BKN250 M01/M08 A3050 RMK SC5CI1 SLP331
CYYG;2002-11-16 22:00;METAR CYYG 162200Z 36005KT 15SM SCT035 BKN250 M02/M08 A3052 RMK SC3CI2 SLP337
CYYG;2002-11-16 23:00;METAR CYYG 162300Z 36003KT 15SM FEW030 OVC250 M03/M08 A3053 RMK SC2CS4 SLP341
CYYG;2002-11-17 01:00;METAR CYYG 170100Z 35003KT 15SM SCT028 OVC260 M03/M07 A3055 RMK SC4CI4 SLP347
CYYG;2002-11-17 02:00;METAR CYYG 170200Z 36002KT 15SM FEW030 OVC260 M03/M07 A3055 RMK SC2CI6
CYYG;2002-11-17 03:00;METAR CYYG 170300Z 03004KT 15SM SCT030 OVC260 M04/M07 A3054 RMK SC3CI5 SLP345
CYYG;2002-11-17 04:00;METAR CYYG 170400Z 07004KT 15SM SCT030 BKN160 OVC250 M03/M07 A3055 RMK SC3AC2CI2 SLP346
CYYG;2002-11-17 05:00;METAR CYYG 170500Z 06004KT 15SM FEW030 OVC160 M03/M06 A3053 RMK SC2AC6 SLP341
CYYG;2002-11-17 06:00;METAR CYYG 170600Z 08004KT 15SM FEW030 OVC170 M02/M06 A3055 RMK SC2AC6 SLP348
CYYG;2002-11-17 07:00;METAR CYYG 170700Z 08005KT 15SM FEW030 OVC140 M01/M06 A3055 RMK SC2AC6 SLP346
CYYG;2002-11-17 08:00;METAR CYYG 170800Z 08006KT 15SM FEW030 OVC150 M01/M05 A3052 RMK SC2AC6 SLP339
CYYG;2002-11-17 09:00;METAR CYYG 170900Z 07009KT 15SM FEW030 OVC120 M01/M06 A3052 RMK SC2AC6 SLP337
CYYG;2002-11-17 10:00;METAR CYYG 171000Z 08011KT 15SM FEW030 OVC110 M00/M06 A3050 RMK SC2AC6 SLP330
CYYG;2002-11-17 11:00;METAR CYYG 171100Z 07011KT 15SM FEW030 OVC080 00/M06 A3049 RMK SC2AS6 SLP328
CYYG;2002-11-17 12:00;METAR CYYG 171200Z 07010G15KT 15SM FEW028 OVC066 00/M06 A3049 RMK SC2AS6 SLP326
CYYG;2002-11-17 13:00;METAR CYYG 171300Z 07014KT 15SM FEW028 OVC057 01/M06 A3047 RMK SC2NS6 SLP320
CYYG;2002-11-17 14:00;METAR CYYG 171400Z 09015KT 3SM -SN DRSN OVC023 01/M05 A3044 RMK SC8 SLP312
CYYG;2002-11-17 16:00;METAR CYYG 171600Z 06013KT 1/2SM SN DRSN OVC010 M01/M03 A3034 RMK SN4SF4 PRESFR RVR RWY03 2600 FT SLP278
CYYG;2002-11-17 17:00;METAR CYYG 171700Z 06017KT 1/4SM +SN DRSN VV003 M01/M03 A3028 RMK SN8 PRESFR RVR RWY03 1400 FT SLP258
CYYG;2002-11-17 18:00;METAR CYYG 171800Z 07016KT 1/4SM +SN DRSN VV003 M01/M03 A3024 RMK SN8 /S03/ RVR RWY03 1800 FT SLP242
CYYG;2002-11-17 19:00;METAR CYYG 171900Z 07016G21KT 3SM -PL -FZRA BKN007 OVC015 M00/M02 A3019 RESN RMK SF6SC2 SLP227
CYYG;2002-11-17 20:00;METAR CYYG 172000Z 06017G22KT 3SM -PL FZRA SCT008 OVC050 M00/M02 A3014 RMK SF3SC5 /S01/ SLP209
CYYG;2002-11-17 21:00;METAR CYYG 172100Z 06016G24KT 4SM RA BR FEW008 SCT020 OVC049 00/M01 A3010 RMK SF2SC2SC5 SLP196
CYYG;2002-11-17 22:00;METAR CYYG 172200Z 05017G24KT 8SM -RAPL BKN008 OVC042 01/M01 A3006 RMK SF5SC3 SLP181
CYYG;2002-11-17 23:00;METAR CYYG 172300Z 06021G26KT 8SM -RAPL OVC008 01/M01 A3000 RMK SF8 PRESFR SLP162
CYYG;2002-11-18 00:00;METAR CYYG 180000Z 07022G30KT 8SM -RA OVC008 01/M01 A2996 RMK SF8 SLP146
CYYG;2002-11-18 01:00;METAR CYYG 180100Z 07019G28KT 8SM -RA OVC008 01/M01 A2990 RMK SF8 SLP129
CYYG;2002-11-18 02:00;METAR CYYG 180200Z 06017G25KT 8SM -RA OVC010 01/M01 A2987 RMK SF8 RERA SLP117
CYYG;2002-11-18 03:00;METAR CYYG 180300Z 05015G22KT 7SM -RA OVC007 01/M00 A2986 RMK SF8 SLP114
CYYG;2002-11-18 04:00;METAR CYYG 180400Z 06017G22KT 7SM -RA OVC006 02/00 A2982 RMK SF8 SLP099
CYYG;2002-11-18 05:00;METAR CYYG 180500Z 07014G21KT 10SM -RA BKN009 OVC018 02/01 A2976 RMK SF6SC2 SLP081
CYYG;2002-11-18 06:00;METAR CYYG 180600Z 08016KT 8SM -RA OVC006 02/01 A2973 RMK SF8 SLP069
CYYG;2002-11-18 07:00;METAR CYYG 180700Z 07015KT 8SM -RA OVC007 02/01 A2967 RMK SF8 PRESFR SLP048
CYYG;2002-11-18 08:00;METAR CYYG 180800Z 07012G17KT 8SM -RA BKN006 OVC013 02/01 A2962 RMK SF6SC2 SLP033
CYYG;2002-11-18 09:00;METAR CYYG 180900Z 06013KT 8SM RA BKN006 OVC015 02/01 A2954 RMK SF6SC2 SLP004
CYYG;2002-11-18 10:00;METAR CYYG 181000Z 08011G16KT 8SM RA OVC005 02/01 A2947 RMK SF8 PRESFR SLP983
CYYG;2002-11-18 11:00;METAR CYYG 181100Z 09017KT 8SM -RA BKN003 OVC007 04/02 A2936 RERA RMK SF7SF1 PRESFR SLP946
CYYG;2002-11-18 12:00;METAR CYYG 181200Z CCA 11015G20KT 6SM -RA BR OVC003 05/04 A2925 RMK SF8 /R27/ SLP908
CYYG;2002-11-18 13:00;METAR CYYG 181300Z 15015G22KT 12SM BKN004 OVC008 08/08 A2918 RMK SF7SF1 CIG/VIS LWR N PRESFR SLP883
CYYG;2002-11-18 14:00;METAR CYYG 181400Z 16014KT 1SM BR FEW002 SCT100 10/10 A2915 RMK FG1SF2AC2 TWR VIS 15 SLP871
CYYG;2002-11-18 15:00;METAR CYYG 181500Z 18016KT 15SM FEW025 SCT120 12/10 A2912 RMK SC2AC2 SLP864
CYYG;2002-11-18 16:00;METAR CYYG 181600Z 21013KT 15SM BKN027 BKN120 12/10 A2910 RMK SC5AC2 SLP856
CYYG;2002-11-18 17:00;METAR CYYG 181700Z 22018G24KT 15SM BKN022 BKN120 10/08 A2908 RMK SC6AC1 SLP850
CYYG;2002-11-18 19:00;METAR CYYG 181900Z CCA 23032G44KT 15SM FEW018 BKN089 06/02 A2910 RMK SF2AC5 SLP854
CYYG;2002-11-18 19:00;METAR CYYG 181900Z 23032G44KT 15SM FEW018 BKN089 06/02 A2910 RMK SF2AC5
CYYG;2002-11-18 20:00;METAR CYYG 182000Z 24024G37KT 15SM -SHRA BKN020 05/01 A2911 RMK SC7 SLP857
CYYG;2002-11-18 21:00;METAR CYYG 182100Z CCA 24026G42KT 15SM -SHRA FEW014 OVC022 04/M00 A2915 RMK
CYYG;2002-11-18 22:00;METAR CYYG 182200Z 26026G39KT 15SM BKN035 03/M03 A2920 RMK SC7 SLP889
CYYG;2002-11-18 23:00;METAR CYYG 182300Z 25019G34KT 15SM OVC030 01/M05 A2927 RMK SC8 PRESRR SLP913
CYYG;2002-11-19 00:00;METAR CYYG 190000Z 26027G34KT 15SM OVC035 01/M05 A2931 RMK SC8 SLP927
CYYG;2002-11-19 01:00;METAR CYYG 190100Z 27023G37KT 15SM -SHSN OVC033 00/M05 A2938 RMK SC8 SLP949
CYYG;2002-11-19 02:00;METAR CYYG 190200Z 28029G35KT 15SM -SHSN OVC034 M00/M06 A2946 RMK SC8 PRESRR SLP976
CYYG;2002-11-19 03:00;METAR CYYG 190300Z 28022G31KT 15SM -SHSN OVC035 M00/M06 A2951 RMK SC8 SLP994
CYYG;2002-11-19 04:00;METAR CYYG 190400Z 29022G31KT 15SM -SHSN BKN030 M01/M06 A2961 RMK SC7 PRESRR SLP029
CYYG;2002-11-19 05:00;METAR CYYG 190500Z 29020G30KT 15SM -SHSN BKN043 M01/M07 A2967 RMK SC7 PRESRR SLP047
CYYG;2002-11-19 06:00;METAR CYYG 190600Z 29017G33KT 15SM BKN030 M01/M07 A2975 RMK SC6 SLP076
CYYG;2002-11-19 08:00;METAR CYYG 190800Z 29020G25KT 15SM -SHSN OVC033 M01/M06 A2992 RMK SC8 PRESRR SLP133
CYYG;2002-11-19 09:00;METAR CYYG 190900Z 29017KT 15SM -SHRA OVC037 M01/M06 A3000 RMK SC8 SLP160
CYYG;2002-11-19 10:00;METAR CYYG 191000Z 31016G21KT 15SM -SHSN OVC038 M01/M06 A3004 RMK SC8 SLP176
CYYG;2002-11-19 11:00;METAR CYYG 191100Z 34013G18KT 15SM -SHSN OVC032 M00/M06 A3011 RMK SC8 PRESRR SLP198
CYYG;2002-11-19 12:00;METAR CYYG 191200Z 33009G20KT 15SM -SHSN OVC037 00/M06 A3018 RMK SC7 PRESRR SLP221
CYYG;2002-11-19 13:00;METAR CYYG 191300Z 34010G16KT 15SM VCSH OVC027 00/M06 A3023 RMK SC7 SLP237
CYYG;2002-11-19 14:00;METAR CYYG 191400Z 32010G16KT 15SM VCSH OVC027 00/M06 A3026 RMK SC8 SLP249
CYYG;2002-11-19 15:00;METAR CYYG 191500Z 34007KT 15SM OVC027 01/M06 A3030 RMK SC8 SLP262
CYYG;2002-11-19 16:00;METAR CYYG 191600Z 33007KT 15SM OVC027 01/M05 A3030 RMK SC8 SLP264
CYYG;2002-11-19 17:00;METAR CYYG 191700Z 31005KT 15SM OVC028 01/M06 A3033 RMK SC8 SLP272
CYYG;2002-11-19 18:00;METAR CYYG 191800Z 27007KT 15SM OVC029 00/M05 A3033 RMK SC8 SLP273
CYYG;2002-11-19 19:00;METAR CYYG 191900Z 28006KT 15SM OVC029 00/M05 A3034 RMK SC8 SLP277
CYYG;2002-11-19 20:00;METAR CYYG 192000Z 27003KT 15SM OVC027 00/M05 A3036 RMK SC8 SLP284
CYYG;2002-11-19 21:00;METAR CYYG 192100Z 28003KT 15SM OVC027 M00/M05 A3036 RMK SC8 SLP283
CYYG;2002-11-19 22:00;METAR CYYG 192200Z 26004KT 15SM BKN027 M00/M05 A3036 RMK SC7 SLP283
CYYG;2002-11-19 23:00;METAR CYYG 192300Z 22003KT 15SM BKN027 M01/M05 A3037 RMK SC7 SLP287
CYYG;2002-11-20 00:00;METAR CYYG 200000Z 24002KT 15SM BKN027 M01/M06 A3038 RMK SC7 SLP290
CYYG;2002-11-20 01:00;METAR CYYG 200100Z 18002KT 15SM FEW027 OVC280 M01/M05 A3037 RMK SC1CS6 HALO SLP287
CYYG;2002-11-20 02:00;METAR CYYG 200200Z 18004KT 15SM FEW027 FEW150 BKN280 M02/M06 A3038 RMK SC1AC1CI2 SLP289
CYYG;2002-11-20 03:00;METAR CYYG 200300Z 21004KT 15SM FEW022 OVC280 M01/M05 A3037 RMK SC1CS6 HALO
CYYG;2002-11-20 04:00;METAR CYYG 200400Z 19005KT 15SM OVC150 M01/M05 A3036 RMK AS8 MOON VISBL SLP282
CYYG;2002-11-20 05:00;METAR CYYG 200500Z 19007KT 15SM OVC120 00/M05 A3034 RMK AS8 SLP278
CYYG;2002-11-20 06:00;METAR CYYG 200600Z 19006KT 15SM OVC100 00/M04 A3033 RMK AS8 SLP275
CYYG;2002-11-20 07:00;METAR CYYG 200700Z 19006KT 15SM OVC090 00/M04 A3033 RMK AS8 SLP275
CYYG;2002-11-20 08:00;METAR CYYG 200800Z 18007KT 5SM -SN OVC070 01/M03 A3031 RMK AS8 SLP268
CYYG;2002-11-20 09:00;METAR CYYG 200900Z 19006KT 5SM -SN VV025 00/M02 A3030 RMK SN8 SLP264
CYYG;2002-11-20 10:00;METAR CYYG 201000Z 19004KT 2 1/2SM -SN BR BKN004 OVC018 00/M01 A3029 RMK SF7SC1 SLP259
CYYG;2002-11-20 11:00;METAR CYYG 201100Z 15005KT 10SM -SN FEW004 OVC037 00/M01 A3029 RMK SF2SC6 SLP260
CYYG;2002-11-20 12:00;METAR CYYG 201200Z 14003KT 15SM -SN BKN005 BKN025 01/M01 A3029 RMK SF6SC2 SLP259
CYYG;2002-11-20 13:00;METAR CYYG 201300Z 14004KT 15SM VCSH FEW005 SCT025 BKN100 01/M01 A3028 RMK SF2SC2AC3 SLP257
CYYG;2002-11-20 14:00;METAR CYYG 201400Z 19008KT 15SM FEW025 OVC096 02/M00 A3027 RMK SC2AC6 SLP254
CYYG;2002-11-20 15:00;METAR CYYG 201500Z 19010KT 15SM FEW025 SCT060 BKN086 03/00 A3026 RMK SC2SC2AC4 SLP249
CYYG;2002-11-20 16:00;METAR CYYG 201600Z 20007KT 15SM FEW025 BKN056 OVC082 04/01 A3024 RMK SC1SC4AC3 SLP243
CYYG;2002-11-20 17:00;METAR CYYG 201700Z 19007KT 15SM FEW025 BKN059 OVC080 04/01 A3023 RMK SC1SC4AC3 SLP240
CYYG;2002-11-20 18:00;METAR CYYG 201800Z 18006KT 15SM FEW028 BKN038 OVC080 04/01 A3022 RMK SC2SC4AC2 SLP234
CYYG;2002-11-20 19:00;METAR CYYG 201900Z 17008KT 15SM FEW032 OVC077 05/02 A3021 RMK SC2AC6 SLP231
CYYG;2002-11-20 20:00;METAR CYYG 202000Z 17007KT 15SM FEW030 BKN058 05/02 A3020 RMK SC2SC5 SLP227
CYYG;2002-11-20 21:00;METAR CYYG 202100Z 17007KT 15SM FEW025 BKN059 05/02 A3020 RMK SC1SC6 SLP228
CYYG;2002-11-20 22:00;METAR CYYG 202200Z 20009KT 15SM FEW025 BKN059 06/04 A3020 RMK SC2SC5
CYYG;2002-11-20 23:00;METAR CYYG 202300Z 18009KT 15SM SCT015 BKN028 OVC060 06/04 A3019 RMK SC3SC3SC2 SLP224
CYYG;2002-11-21 00:00;METAR CYYG 210000Z 19006KT 15SM OVC007 06/04 A3020 RMK ST8 SLP228
CYYG;2002-11-21 01:00;METAR CYYG 210100Z 18006KT 12SM FEW007 SCT022 OVC032 06/04 A3020 RMK SF1SC2SC5 SLP227
CYYG;2002-11-21 02:00;METAR CYYG 210200Z 20006KT 12SM BKN007 OVC019 06/05 A3020 RMK SF7SC1 SLP227
CYYG;2002-11-21 03:00;METAR CYYG 210300Z 21004KT 12SM SCT007 OVC012 06/05 A3019 RMK SF3SC5 SLP226
CYYG;2002-11-21 04:00;METAR CYYG 210400Z 24007KT 12SM OVC008 06/05 A3020 RMK SF8 SLP227
CYYG;2002-11-21 05:00;METAR CYYG 210500Z 22003KT 5SM BR SCT005 OVC018 06/05 A3020 RMK SF3SC5
CYYG;2002-11-21 06:00;METAR CYYG 210600Z 25003KT 2 1/2SM BR OVC003 06/05 A3020 RMK SF8 SLP229
CYYG;2002-11-21 07:00;METAR CYYG 210700Z 22003KT 2 1/2SM BR OVC003 05/05 A3020 RMK ST8 SLP230
CYYG;2002-11-21 08:00;METAR CYYG 210800Z 22002KT 2 1/2SM BR OVC003 05/04 A3021 RMK ST8 SLP231
CYYG;2002-11-21 09:00;METAR CYYG 210900Z 25004KT 1/4SM FG VV002 05/04 A3021 RMK FG8 SLP233
CYYG;2002-11-21 10:00;METAR CYYG 211000Z 26003KT 1/8SM FG VV002 03/02 A3021 RMK FG8 RVR RWY03 1000 FT SLP231
CYYG;2002-11-21 11:00;METAR CYYG 211100Z 32002KT 1SM BR BKN025 03/02 A3022 RMK SC6 SLP235
CYYG;2002-11-21 12:00;METAR CYYG 211200Z 32002KT 1 1/2SM BR BKN022 03/02 A3023 RMK SC7 SLP237
CYYG;2002-11-21 13:00;METAR CYYG 211300Z 00000KT 3SM BR BKN024 04/03 A3023 RMK SC7 SLP239
CYYG;2002-11-21 14:00;METAR CYYG 211400Z 00000KT 5SM BR BKN024 BKN250 04/04 A3023 RMK SC6CI1 SLP240
CYYG;2002-11-21 15:00;METAR CYYG 211500Z 22002KT 10SM FEW003 BKN025 06/04 A3024 RMK SF2SC5 SLP241
CYYG;2002-11-21 16:00;METAR CYYG 211600Z 22004KT 15SM FEW025 BKN250 07/03 A3020 RMK SC2CI2 SLP229
CYYG;2002-11-21 17:00;METAR CYYG 211700Z 24004KT 15SM FEW025 BKN250 07/04 A3018 RMK SC2CI6 SLP223
CYYG;2002-11-21 18:00;METAR CYYG 211800Z 00000KT 15SM SCT018 BKN250 08/03 A3018 RMK SC3CI4 SLP221
CYYG;2002-11-21 19:00;METAR CYYG 211900Z 05004KT 15SM FEW020 BKN250 06/03 A3017 RMK SC2CI6 SLP220
CYYG;2002-11-21 20:00;METAR CYYG 212000Z 03004KT 3SM BR FEW003 OVC250 03/02 A3017 RMK FG2SF1CI6 VIS SE-SW 15 SLP218
CYYG;2002-11-21 21:00;METAR CYYG 212100Z 02004KT 1/2SM FG VV002 02/01 A3017 RMK FG8 RVR RWY03 3200FT LGTS 5 SLP217
CYYG;2002-11-21 22:00;METAR CYYG 212200Z 06004KT 1/4SM FG VV001 02/01 A3015 RMK FG8 RVR RWY03 1400FT SLP212
CYYG;2002-11-21 23:00;METAR CYYG 212300Z 09003KT 1/8SM FG VV001 03/02 A3014 RMK FG8 RVR RWY03 1000 FT SLP210
CYYG;2002-11-22 00:00;METAR CYYG 220000Z 09005KT 1/4SM FG VV001 03/02 A3010 RMK FG8 RVR RWY03 1400 FT SLP196
CYYG;2002-11-22 01:00;METAR CYYG 220100Z 08005KT 1/4SM FG VV001 04/02 A3011 RMK FG8 RVR RWY03 1600 FT SLP198
CYYG;2002-11-22 02:00;METAR CYYG 220200Z 09004KT 3/8SM FG VV002 04/03 A3009 RMK FG8 RVR RWY03 2000 FT SLP191
CYYG;2002-11-22 03:00;METAR CYYG 220300Z 10005KT 3/8SM FG VV002 04/03 A3004 RMK FG8 SLP174
CYYG;2002-11-22 04:00;METAR CYYG 220400Z 13005KT 3/8SM FG VV002 04/03 A3002 RMK FG8 RVR RWY03 2000 FT SLP169
CYYG;2002-11-22 05:00;METAR CYYG 220500Z 16004KT 1/4SM FG VV002 05/04 A3001 RMK FG8 RVR RWY03 2400 FT SLP164
CYYG;2002-11-22 06:00;METAR CYYG 220600Z 15005KT 1/4SM FG VV002 06/05 A2997 RMK FG8 RVR RWY 03 2400 FT SLP150
CYYG;2002-11-22 07:00;METAR CYYG 220700Z 16004KT 3/4SM -RA BR OVC003 06/06 A2996 RMK FG5SF3 SLP147
CYYG;2002-11-22 08:00;METAR CYYG 220800Z 14004KT 3/4SM -RA BR OVC003 07/06 A2992 RMK FG5SF3 SLP132
CYYG;2002-11-22 09:00;METAR CYYG 220900Z 14006KT 1/2SM -RA FG VV002 07/07 A2989 RMK FG8 RVR RWY03 2400 FT SLP122
CYYG;2002-11-22 10:00;METAR CYYG 221000Z 00000KT 3/4SM -RA BR OVC004 07/07 A2988 RMK FG3SF5 RVR RWY03 5000 FT SLP119
CYYG;2002-11-22 11:00;METAR CYYG 221100Z 08002KT 3SM -RA BR OVC004 07/07 A2987 RMK ST8 SLP117
CYYG;2002-11-22 12:00;METAR CYYG 221200Z 09002KT 3SM -RA BR OVC004 07/07 A2987 RMK ST8 SLP115
CYYG;2002-11-22 13:00;METAR CYYG 221300Z 06003KT 5SM -RA BR OVC005 08/07 A2983 RMK ST8 SLP102
CYYG;2002-11-22 14:00;METAR CYYG 221400Z 06006KT 3SM -RA BR OVC002 08/07 A2980 RMK ST8 SLP092
CYYG;2002-11-22 15:00;METAR CYYG 221500Z 08005KT 8SM -RA BKN003 OVC010 09/08 A2976 RMK SF6SC2 SLP078
CYYG;2002-11-22 16:00;METAR CYYG 221600Z 04007KT 2SM -RA BR OVC002 08/08 A2971 RMK SF8 SLP064 2600FT SLP063 SLP028 6000+ SLP021
CYYG;2002-11-22 22:00;METAR CYYG 222200Z 03008KT 6SM -RA BR OVC004 07/07 A2958 RMK SF8 SLP019
CYYG;2002-11-22 23:00;METAR CYYG 222300Z 05009KT 6SM -RA BR FEW003 BKN009 OVC014 07/06 A2953 RMK SF2SF4SC2 SLP001
CYYG;2002-11-23 00:00;METAR CYYG 230000Z 07008KT 10SM -RA BKN003 OVC010 08/07 A2950 RMK SF5SC3 SLP992
CYYG;2002-11-23 01:00;METAR CYYG 230100Z 09005KT 10SM -RA BKN002 OVC013 08/07 A2949 RMK SF6SC2 SLP988
CYYG;2002-11-23 02:00;METAR CYYG 230200Z 04002KT 10SM -SHRA BKN004 OVC013 08/07 A2948 RMK SF6SC2 SLP985
CYYG;2002-11-23 04:00;METAR CYYG 230400Z 16004KT 1/2SM FG OVC002 08/07 A2942 RMK SF8 SLP963
CYYG;2002-11-23 05:00;METAR CYYG 230500Z 17003KT 1/2SM FG OVC002 08/07 A2938 RMK SF8 RVR03 2600FT SLP949
CYYG;2002-11-23 06:00;METAR CYYG 230600Z 16006KT 1/2SM FG OVC002 08/07 A2936 RMK SF8 RVR03 2400FT SLP944
CYYG;2002-11-23 07:00;METAR CYYG 230700Z 16002KT 3/4SM BR OVC002 08/08 A2933 RMK SF8 SLP934
CYYG;2002-11-23 08:00;METAR CYYG 230800Z 14004KT 4SM BR OVC007 09/08 A2929 RMK SF8 SLP921
CYYG;2002-11-23 09:00;METAR CYYG 230900Z 14003KT 2SM BR OVC002 09/08 A2927 RMK SF8 VSBY VRBL 1-3 SLP914
CYYG;2002-11-23 10:00;METAR CYYG 231000Z 16006KT 1/2SM FG VV001 09/09 A2923 RMK FG8 RVR RWY03 2400 FT SLP901
CYYG;2002-11-23 11:00;METAR CYYG 231100Z 17005KT 1/2SM FG VV001 11/10 A2921 RMK FG8 RVR RWY03 2600FT SLP892
CYYG;2002-11-23 12:00;METAR CYYG 231200Z 16011KT 5SM BR BKN002 OVC056 11/10 A2919 RMK SF6SC2 VIS NW 21/2 SLP884
CYYG;2002-11-23 13:00;METAR CYYG 231300Z 16009KT 10SM -RA FEW002 OVC040 12/11 A2915 RMK SF2SC6 SLP872
CYYG;2002-11-23 14:00;METAR CYYG 231400Z 17009KT 3SM -RA BR OVC004 12/11 A2912 RMK SF8 SLP860
CYYG;2002-11-23 15:00;METAR CYYG 231500Z 17013KT 2 1/2SM -RA BR OVC002 12/11 A2907 RMK SF8 SLP845
CYYG;2002-11-23 16:00;METAR CYYG 231600Z 19014KT 3SM -RA BR OVC002 12/11 A2903 RMK SF8 SLP830
CYYG;2002-11-23 17:00;METAR CYYG 231700Z 19007KT 15SM SCT025 BKN046 11/10 A2899 RMK SC4SC3 SLP819
CYYG;2002-11-23 18:00;METAR CYYG 231800Z 25011G24KT 15SM BKN033 09/06 A2898 RMK SC7 SLP815
CYYG;2002-11-23 19:00;METAR CYYG 231900Z 23008KT 15SM SCT035 09/06 A2895 RMK SC3 SLP803
CYYG;2002-11-23 20:00;METAR CYYG 232000Z 23008KT 15SM VCSH BKN030 08/03 A2892 RMK SC6 SLP793
CYYG;2002-11-23 21:00;METAR CYYG 232100Z 21007KT 15SM BKN043 07/04 A2888 RMK SC6 SLP782
CYYG;2002-11-23 22:00;METAR CYYG 232200Z 22006KT 10SM -SHRA SCT011 OVC024 05/03 A2888 RMK SC4SC4 RERA SLP781
CYYG;2002-11-23 23:00;METAR CYYG 232300Z 22012KT 12SM OVC018 06/04 A2885 RMK SC8 SLP771
CYYG;2002-11-24 00:00;METAR CYYG 240000Z 26012G18KT 15SM OVC020 05/03 A2884 RMK SC8 SLP767
CYYG;2002-11-24 01:00;METAR CYYG 240100Z 26014G27KT 15SM -SHRA OVC010 05/03 A2884 RMK SC8 SLP768
CYYG;2002-11-24 02:00;METAR CYYG 240200Z 28023G33KT 15SM -SHRA BKN011 OVC020 03/00 A2888 RMK SC6SC2 SLP780
CYYG;2002-11-24 03:00;METAR CYYG 240300Z 27021G32KT 15SM -SHRA OVC018 03/M00 A2890 RMK SC8 SLP787
CYYG;2002-11-24 04:00;METAR CYYG 240400Z 27019G33KT 15SM -SHRA OVC020 02/M01 A2894 RMK SC8 SLP802
CYYG;2002-11-24 05:00;METAR CYYG 240500Z 27023G36KT 15SM -SHSN BKN034 OVC041 03/M02 A2899 RMK SC6SC2 SLP817
CYYG;2002-11-24 06:00;METAR CYYG 240600Z 27025G36KT 15SM -SHSN OVC030 02/M03 A2900 RMK SC8 SLP821
CYYG;2002-11-24 07:00;METAR CYYG 240700Z 27023G35KT 15SM -SHSN OVC032 02/M03 A2902 RMK SC8 SLP827
CYYG;2002-11-24 08:00;METAR CYYG 240800Z 27025G35KT 15SM -SHSN OVC030 01/M04 A2903 RMK SC8 SLP831
CYYG;2002-11-24 09:00;METAR CYYG 240900Z 27022G39KT 15SM -SHSN OVC029 01/M04 A2904 RMK SC8 SLP835
CYYG;2002-11-24 10:00;METAR CYYG 241000Z 27024G31KT 15SM -SHSN OVC027 01/M05 A2906 RMK SC8 SLP842
CYYG;2002-11-24 11:00;METAR CYYG 241100Z 27024G33KT 15SM -SHSN OVC027 01/M05 A2907 RMK SC8 SLP845
CYYG;2002-11-24 12:00;METAR CYYG 241200Z 27032G40KT 15SM OVC030 00/M06 A2907 RMK SC8 SLP846
CYYG;2002-11-24 13:00;METAR CYYG 241300Z 27035G43KT 15SM OVC035 00/M07 A2908 RMK SC8 SLP850
CYYG;2002-11-24 14:00;METAR CYYG 241400Z 27029G38KT 15SM BKN034 00/M07 A2909 RMK SC7 SLP853
CYYG;2002-11-24 15:00;METAR CYYG 241500Z 27029G40KT 15SM OVC032 00/M07 A2910 RMK SC8 SLP857
CYYG;2002-11-24 16:00;METAR CYYG 241600Z CCA 27022G36KT 15SM OVC032 00/M07 A2911 RMK SC8 SLP860
CYYG;2002-11-24 17:00;METAR CYYG 241700Z 27023G33KT 15SM OVC033 01/M07 A2912 RMK SC8 SLP864
CYYG;2002-11-24 18:00;METAR CYYG 241800Z 27025G36KT 15SM OVC035 01/M07 A2913 RMK SC8 SLP867
CYYG;2002-11-24 19:00;METAR CYYG 241900Z 28030G40KT 15SM -SHSN OVC035 01/M07 A2915 RMK SC8 VIS LWR NW-NE SLP874
CYYG;2002-11-24 20:00;METAR CYYG 242000Z 29022G35KT 2 1/2SM -SHSN SCT022 BKN032 M00/M05 A2918 RMK SC3SC4 SLP883
CYYG;2002-11-24 21:00;METAR CYYG 242100Z 28022G34KT 15SM BKN020 BKN040 00/M05 A2921 RMK SC5SC2 SLP894
CYYG;2002-11-24 22:00;METAR CYYG 242200Z 29023G38KT 15SM BKN035 01/M06 A2923 RMK SC7 SLP901
CYYG;2002-11-24 23:00;METAR CYYG 242300Z 29028G38KT 15SM BKN035 01/M06 A2927 RMK SC6 SLP914
CYYG;2002-11-25 00:00;METAR CYYG 250000Z 29027G36KT 15SM BKN030 01/M06 A2931 RMK SC6 CIG RAG SLP928
CYYG;2002-11-25 01:00;METAR CYYG 250100Z 29029G38KT 15SM BKN032 01/M05 A2932 RMK SC6 CIG RAG SLP932
CYYG;2002-11-25 02:00;METAR CYYG 250200Z 29024G35KT 15SM BKN032 BKN050 01/M05 A2936 RMK SC5SC2 SLP944
CYYG;2002-11-25 03:00;METAR CYYG 250300Z 29023G33KT 15SM BKN032 BKN049 01/M05 A2940 RMK SC6SC2 SLP958
CYYG;2002-11-25 04:00;METAR CYYG 250400Z 30026G38KT 15SM BKN032 BKN050 01/M05 A2942 RMK SC5SC2 SLP963
CYYG;2002-11-25 05:00;METAR CYYG 250500Z 30022G29KT 15SM SCT032 SCT050 BKN170 01/M04 A2947 RMK SC3SC1AC1 PRESRR SLP981
CYYG;2002-11-25 06:00;METAR CYYG 250600Z 29021G31KT 15SM FEW050 SCT170 01/M04 A2951 RMK SC2AC2 SLP994
CYYG;2002-11-25 07:00;METAR CYYG 250700Z 29021G30KT 15SM SCT034 01/M04 A2957 RMK SC4 PRESRR SLP016
CYYG;2002-11-25 08:00;METAR CYYG 250800Z 29020G28KT 15SM BKN036 01/M04 A2961 RMK SC5 SLP028
CYYG;2002-11-25 09:00;METAR CYYG 250900Z 29020G30KT 15SM BKN028 BKN053 01/M04 A2965 RMK SC5SC1 SLP043
CYYG;2002-11-25 10:00;METAR CYYG 251000Z 29021G29KT 15SM BKN032 BKN043 01/M04 A2969 RMK SC5SC1 SLP057
CYYG;2002-11-25 11:00;METAR CYYG 251100Z 29017G27KT 15SM SCT028 OVC038 01/M04 A2974 RMK SC3SC5 SLP073
CYYG;2002-11-25 12:00;METAR CYYG 251200Z 30018G25KT 15SM FEW025 FEW040 01/M04 A2979 RMK SC1SC2 SLP089
CYYG;2002-11-25 13:00;METAR CYYG 251300Z 30019G25KT 15SM FEW025 FEW040 01/M04 A2981 RMK SC1SC1 SLP097
CYYG;2002-11-25 14:00;METAR CYYG 251400Z 30013G19KT 15SM FEW025 02/M03 A2983 RMK SC1 SLP105
CYYG;2002-11-25 15:00;METAR CYYG 251500Z 31014G19KT 15SM FEW025 03/M03 A2985 RMK SC1 SLP110
CYYG;2002-11-25 16:00;METAR CYYG 251600Z 29010G16KT 15SM FEW022 04/M02 A2987 RMK SC2 SLP119
CYYG;2002-11-25 17:00;METAR CYYG 251700Z 29010G17KT 15SM BKN022 03/M03 A2990 RMK SC6 SLP127
CYYG;2002-11-25 18:00;METAR CYYG 251800Z 30010G16KT 15SM BKN023 03/M03 A2991 RMK SC6 SLP132
CYYG;2002-11-25 19:00;METAR CYYG 251900Z 30009KT 15SM BKN024 03/M02 A2993 RMK SC6 SLP138
CYYG;2002-11-25 20:00;METAR CYYG 252000Z 29008KT 15SM SCT025 03/M03 A2996 RMK SC3 SLP146
CYYG;2002-11-25 21:00;METAR CYYG 252100Z 27005KT 15SM FEW025 01/M04 A2997 RMK SC2 SLP151
CYYG;2002-11-25 22:00;METAR CYYG 252200Z 31003KT 15SM FEW025 00/M04 A2999 RMK SC1 SLP158
CYYG;2002-11-25 23:00;METAR CYYG 252300Z 24004KT 15SM FEW025 00/M04 A3001 RMK SC1 SLP166
CYYG;2002-11-26 00:00;METAR CYYG 260000Z 27005KT 15SM FEW025 00/M04 A3003 RMK SC1 SLP170
CYYG;2002-11-26 01:00;METAR CYYG 260100Z 27006KT 15SM FEW025 M00/M04 A3004 RMK SC1 SLP174
CYYG;2002-11-26 02:00;METAR CYYG 260200Z 27005KT 15SM FEW025 M00/M05 A3005 RMK SC1 SLP178
CYYG;2002-11-26 03:00;METAR CYYG 260300Z 28005KT 15SM FEW029 M01/M05 A3005 RMK SC2 SLP179
CYYG;2002-11-26 04:00;METAR CYYG 260400Z 26007KT 15SM FEW029 M01/M05 A3006 RMK SC1 SLP182
CYYG;2002-11-26 05:00;METAR CYYG 260500Z 27006KT 15SM FEW029 M01/M05 A3007 RMK SC1 SLP184
CYYG;2002-11-26 06:00;METAR CYYG 260600Z 27008KT 15SM FEW030 M02/M06 A3007 RMK SC1 SLP186
CYYG;2002-11-26 07:00;METAR CYYG 260700Z 26008KT 15SM FEW030 M01/M06 A3009 RMK SC2 SLP190
CYYG;2002-11-26 08:00;METAR CYYG 260800Z 25007KT 15SM SCT028 M02/M06 A3008 RMK SC3 SLP188
CYYG;2002-11-26 09:00;METAR CYYG 260900Z 27008KT 15SM SCT025 M01/M06 A3009 RMK SC4 SLP193
CYYG;2002-11-26 10:00;METAR CYYG 261000Z 25007KT 15SM SCT021 M02/M06 A3010 RMK SC3 FROIN SLP194
CYYG;2002-11-26 11:00;METAR CYYG 261100Z CCA 31005KT 15SM FEW021 FEW280 M03/M07 A3012 RMK SC1CI1 FROIN TRCI SLP201
CYYG;2002-11-26 12:00;METAR CYYG 261200Z 25007KT 15SM FEW025 SCT083 BKN280 M03/M06 A3014 RMK SC1AC2CI2 SLP209
CYYG;2002-11-26 13:00;METAR CYYG 261300Z 23008KT 15SM FEW025 SCT085 OVC280 M02/M06 A3015 RMK SC1AC3CI2 SLP212
CYYG;2002-11-26 14:00;METAR CYYG 261400Z 27006KT 15SM FEW025 FEW080 OVC260 M01/M05 A3015 RMK SC1AC2CS2 SLP212
CYYG;2002-11-26 15:00;METAR CYYG 261500Z 27010KT 15SM FEW025 SCT080 OVC260 00/M06 A3014 RMK SC1AC2CS2 SLP208
CYYG;2002-11-26 16:00;METAR CYYG 261600Z 25008KT 15SM FEW025 SCT090 BKN260 01/M06 A3011 RMK SC1AC2CS2 SLP199
CYYG;2002-11-26 17:00;METAR CYYG 261700Z 26010KT 15SM FEW025 SCT090 BKN260 01/M07 A3011 RMK SC1AC3CS2 SLP197
CYYG;2002-11-26 18:00;METAR CYYG 261800Z 26007KT 15SM FEW025 BKN093 BKN260 01/M07 A3010 RMK SC1AC4CS1 SLP195
CYYG;2002-11-26 19:00;METAR CYYG 261900Z 26009KT 15SM FEW025 SCT089 BKN260 01/M08 A3009 RMK SC1AC3CS0 SLP193
CYYG;2002-11-26 20:00;METAR CYYG 262000Z 25005KT 15SM FEW025 BKN090 BKN260 01/M08 A3009 RMK SC1AC4CS0 SLP193
CYYG;2002-11-26 21:00;METAR CYYG 262100Z 26005KT 15SM FEW025 FEW090 SCT260 M01/M09 A3009 RMK SC1AC2CS0 SLP193
CYYG;2002-11-26 22:00;METAR CYYG 262200Z 25005KT 15SM FEW090 M01/M09 A3009 RMK AC2 SLP193
CYYG;2002-11-26 23:00;METAR CYYG 262300Z 25004KT 15SM FEW090 M02/M08 A3010 RMK AC2 SLP195
CYYG;2002-11-27 00:00;METAR CYYG 270000Z 25005KT 15SM FEW090 M02/M07 A3009 RMK AC2 SLP193
CYYG;2002-11-27 01:00;METAR CYYG 270100Z 24005KT 15SM SKC M02/M07 A3010 RMK SLP195
CYYG;2002-11-27 02:00;METAR CYYG 270200Z 27004KT 15SM SKC M02/M07 A3009 RMK SLP194
CYYG;2002-11-27 03:00;METAR CYYG 270300Z 27004KT 15SM FEW250 M02/M07 A3009 RMK CI1 SLP193
CYYG;2002-11-27 04:00;METAR CYYG 270400Z 28006KT 15SM SCT220 M03/M08 A3010 RMK CI3 SLP194
CYYG;2002-11-27 05:00;METAR CYYG 270500Z 30005KT 15SM SCT220 M03/M09 A3008 RMK CI3 SLP189
CYYG;2002-11-27 06:00;METAR CYYG 270600Z 25004KT 15SM FEW220 M04/M10 A3008 RMK CI2 SLP189
CYYG;2002-11-27 07:00;METAR CYYG 270700Z 27005KT 15SM FEW220 M04/M10 A3008 RMK CI2 SLP189
CYYG;2002-11-27 08:00;METAR CYYG 270800Z 28005KT 15SM SKC M05/M10 A3006 RMK SLP183
CYYG;2002-11-27 09:00;METAR CYYG 270900Z 29004KT 15SM SKC M05/M10 A3007 RMK SLP185
CYYG;2002-11-27 10:00;METAR CYYG 271000Z 30004KT 15SM SKC M05/M10 A3004 RMK SLP177
CYYG;2002-11-27 11:00;METAR CYYG 271100Z 30004KT 15SM BKN110 M04/M09 A3005 RMK AC5 SLP178
CYYG;2002-11-27 12:00;METAR CYYG 271200Z 23003KT 15SM FEW025 BKN100 BKN220 M04/M08 A3006 RMK SC1AC4CS0 SLP181
CYYG;2002-11-27 13:00;METAR CYYG 271300Z 25004KT 15SM FEW025 BKN110 BKN220 M03/M08 A3004 RMK SC1AC5CS0 SLP177
CYYG;2002-11-27 14:00;METAR CYYG 271400Z 26004KT 15SM FEW025 BKN074 OVC110 M03/M08 A3004 RMK SC1AC5AC2 SLP177
CYYG;2002-11-27 15:00;METAR CYYG 271500Z 27010KT 15SM FEW021 BKN063 OVC120 M02/M07 A3002 RMK SC2SC2AS2 SLP169
CYYG;2002-11-27 16:00;METAR CYYG 271600Z 26006KT 15SM FEW020 OVC038 M02/M08 A2999 RMK SC2SC6 SLP159
CYYG;2002-11-27 17:00;METAR CYYG 271700Z 27008KT 15SM FEW020 OVC037 M02/M09 A2996 RMK SC2SC6 SLP148
CYYG;2002-11-27 18:00;METAR CYYG 271800Z 30005KT 10SM -SHSN BKN035 OVC120 M02/M09 A2993 RMK SC6AC2 SLP137
CYYG;2002-11-27 19:00;METAR CYYG 271900Z 28003KT 15SM -SHSN FEW020 BKN047 OVC110 M02/M09 A2990 RMK SC2SC4AS2 SLP126
CYYG;2002-11-27 20:00;METAR CYYG 272000Z 31004KT 15SM FEW020 BKN050 BKN110 M03/M09 A2988 RMK SC1SC5AS2 SLP122
CYYG;2002-11-27 21:00;METAR CYYG 272100Z 30005KT 15SM BKN057 BKN110 M03/M09 A2986 RMK SC5AS1 SLP115
CYYG;2002-11-27 22:00;METAR CYYG 272200Z 32003KT 15SM BKN060 BKN110 M04/M09 A2984 RMK SC5AS1 SLP107
CYYG;2002-11-27 23:00;METAR CYYG 272300Z 36003KT 15SM BKN060 BKN110 M04/M09 A2980 RMK SC5AS1 SLP093
CYQB;2002-08-15 00:00;METAR CYQB 150000Z 00000KT 10SM FEW120 FEW270 29/21 A2992 RMK AC1CI0 CB TOPS VSBL N SLP133 N SLP133
CYQB;2002-08-15 01:00;METAR CYQB 150100Z 28002KT 10SM FEW080 26/21 A2993 RMK AC2 HAZY SLP136 SLP137
CYQB;2002-08-15 03:00;METAR CYQB 150300Z 30002KT 8SM FEW080 SCT110 24/21 A2995 RMK AC2AC2 SLP143
CYQB;2002-08-15 04:00;METAR CYQB 150400Z 27006KT 8SM FEW080 SCT180 26/19 A2995 RMK AC2AC2 SLP143
CYQB;2002-08-15 05:00;METAR CYQB 150500Z 10002KT 10SM FEW080 BKN200 25/20 A2995 RMK AC2CC3 SLP143
CYQB;2002-08-15 06:00;METAR CYQB 150600Z 23005KT 10SM FEW080 BKN210 24/19 A2995 RMK AC2CC3 SLP142
CYQB;2002-08-15 07:00;METAR CYQB 150700Z 00000KT 10SM FEW080 SCT200 24/19 A2995 RMK AC2CC2 SLP141
CYQB;2002-08-15 08:00;METAR CYQB 150800Z 00000KT 8SM FEW090 22/19 A2995 RMK AC2 SLP141
CYQB;2002-08-15 09:00;METAR CYQB 150900Z 36004KT 10SM FEW090 22/19 A2998 RMK AC2 SLP150
CYQB;2002-08-15 10:00;METAR CYQB 151000Z 00000KT 6SM BR FEW040 FEW090 FEW200 SCT220 21/19 A2999 RMK CU1AC1CI2CC1 SLP153 CU1AC1CI2CC1 SLP153
CYQB;2002-08-15 11:00;METAR CYQB 151100Z 00000KT 6SM BR FEW090 FEW200 SCT220 21/19 A2999 RMK ACC2CI1CC1 SLP155 SLP155
CYQB;2002-08-15 12:00;METAR CYQB 151200Z 23006KT 4SM HZ FEW100 BKN240 24/21 A3002 RMK AC1CI3 SLP164
CYQB;2002-08-15 13:00;METAR CYQB 151300Z 24009KT 4SM HZ FEW100 OVC240 25/21 A3003 RMK AC1CI6 SLP167
CYQB;2002-08-15 14:00;METAR CYQB 151400Z 26011KT 4SM HZ FEW070 OVC240 27/22 A3003 RMK AC1CI6 SLP168
CYQB;2002-08-15 15:00;METAR CYQB 151500Z 27014KT 4SM HZ OVC110 26/21 A3003 RMK AC8 SLP169
CYQB;2002-08-15 16:00;METAR CYQB 151600Z 23019G25KT 5SM HZ FEW040 BKN140 28/21 A3003 RMK CU1AC6
CYQB;2002-08-15 17:00;METAR CYQB 151700Z 25015G22KT 5SM HZ FEW050 SCT180 BKN240 28/21 A3003 RMK CU2AC2CI1 SLP167
CYQB;2002-08-15 18:00;METAR CYQB 151800Z 26012G21KT 7SM SCT038 BKN160 BKN240 28/21 A3002 RMK CU3AC2CI1 TCU ASOCTD SLP165 TCU ASOCTD SLP165
CYQB;2002-08-15 19:00;METAR CYQB 151900Z 24013G18KT 12SM BKN035TCU BKN110 28/21 A3002 RMK TCU6AC2
CYQB;2002-08-15 20:00;METAR CYQB 152000Z 23013KT 12SM FEW035TCU BKN110 28/21 A3000 RMK TCU2AC5 SLP158
CYQB;2002-08-15 21:00;METAR CYQB 152100Z 24014G19KT 10SM FEW040 BKN120 29/21 A2999 RMK CU1AC5 SLP156
CYQB;2002-08-15 22:00;METAR CYQB 152200Z 25009G15KT 12SM FEW040 BKN120 27/21 A2999 RMK CU1AC7
CYQB;2002-08-15 23:00;METAR CYQB 152300Z 23009KT 12SM FEW088 BKN120 27/21 A2999 RMK AC2AC6 SLP154
CYQB;2002-08-16 00:00;METAR CYQB 160000Z 22005KT 12SM BKN110 26/22 A2999 RMK AC6 SLP154
CYQB;2002-08-16 01:00;METAR CYQB 160100Z 23004KT 10SM BKN100 26/22 A3000 RMK AC7 SLP158
CYQB;2002-08-16 02:00;METAR CYQB 160200Z 25005KT 10SM BKN110 BKN190 24/22 A3000 RMK AC6CI1 HAZY SLP157
CYQB;2002-08-16 03:00;METAR CYQB 160300Z 27002KT 8SM FEW170 22/22 A3000 RMK AC2 SLP159
CYQB;2002-08-16 04:00;METAR CYQB 160400Z 00000KT 10SM FEW110 FEW170 22/21 A3000 RMK AC2AC1 SLP159
CYQB;2002-08-16 05:00;METAR CYQB 160500Z 00000KT 10SM SCT040 BKN080 21/20 A2999 RMK SC4AC2 SLP156
CYQB;2002-08-16 06:00;METAR CYQB 160600Z 00000KT 10SM BKN035 21/21 A2998 RMK SC6 SLP152
CYQB;2002-08-16 07:00;METAR CYQB 160700Z 00000KT 10SM R06/6000FT/D SCT035 21/21 A2997 RMK SC3 SLP150
CYQB;2002-08-16 08:00;METAR CYQB 160800Z 02002KT 10SM FEW035 BKN080 21/21 A2997 RMK SC2AC5 SLP147
CYQB;2002-08-16 09:00;METAR CYQB 160900Z 00000KT 8SM -SHRA BKN038 21/21 A2996 RMK SC7 TCU EMBDD SLP146
CYQB;2002-08-16 10:00;METAR CYQB 161000Z 00000KT 1 1/2SM -SHRA BR SCT038 OVC055 21/21 A2996 RMK SC3SC5 SLP146
CYQB;2002-08-16 11:00;METAR CYQB 161100Z 22004KT 2SM BR OVC043 22/21 A2997 RMK SC7 SLP148
CYQB;2002-08-16 12:00;METAR CYQB 161200Z 23008KT 2SM BR BKN012 OVC043 23/21 A2997 RMK SF5SC2
CYQB;2002-08-16 13:00;METAR CYQB 161300Z 22009KT 2 1/2SM BR BKN009 OVC035 23/22 A2997 RMK SF6SC2
CYQB;2002-08-16 14:00;METAR CYQB 161400Z 24011KT 4SM BR FEW014 OVC022 25/22 A2996 RMK SF2SC6
CYQB;2002-08-16 15:00;METAR CYQB 161500Z 25011KT 8SM FEW014 BKN018 27/22 A2995 RMK SF1CU6 SLP143
CYQB;2002-08-16 16:00;METAR CYQB 161600Z 23012G18KT 12SM BKN025 28/21 A2993 RMK CU5 SLP136
CYQB;2002-08-16 17:00;METAR CYQB 161700Z 23013G24KT 20SM SCT028 29/22 A2990 RMK CU3 SLP125
CYQB;2002-08-16 18:00;METAR CYQB 161800Z 24013G21KT 20SM FEW034 SCT070 30/21 A2988 RMK CU2AC1 SLP117
CYQB;2002-08-16 19:00;METAR CYQB 161900Z 24014KT 20SM BKN035 30/22 A2986 RMK CU6 TCU ASOCTD SLP112
CYQB;2002-08-16 20:00;METAR CYQB 162000Z 25012G18KT 8SM BKN055TCU 30/22 A2984 RMK TCU7 HAZY SLP103
CYQB;2002-08-16 21:00;METAR CYQB 162100Z 23012G19KT 10SM BKN062TCU OVC200 27/23 A2983 RMK TCU7CI0 HAZY SLP102 SLP102
CYQB;2002-08-16 22:00;METAR CYQB 162200Z 23014G19KT 10SM BKN050TCU BKN200 28/23 A2982 RMK TCU5CI2 HAZY SLP099 SLP099
CYQB;2002-08-16 23:00;METAR CYQB 162300Z 23009KT 8SM FEW050TCU BKN140 OVC200 27/23 A2981 RMK TCU1AC5CI1 HAZY SLP094 HAZY SLP094
CYQB;2002-08-17 00:00;METAR CYQB 170000Z 25010KT 8SM -SHRA FEW030TCU BKN073 OVC200 26/23 A2983 RMK TCU2AC3CI1 HAZY SLP099 TCU2AC3CI1 HAZY SLP099
CYQB;2002-08-17 01:00;METAR CYQB 170100Z 25008KT 15SM FEW040CB BKN100 OVC200 24/21 A2983 RMK CB1AC6CI1 LTGCC NW SLP101 LTGCC NW SLP101
CYQB;2002-08-17 02:00;METAR CYQB 170200Z 26007KT 15SM BKN041 BKN080 OVC200 24/21 A2984 RMK SC5AC2CI1 SLP104 SLP104
CYQB;2002-08-17 03:00;METAR CYQB 170300Z 24006KT 15SM SCT040 BKN130 OVC200 24/21 A2984 RMK SC3AC3CI1 SLP104
CYQB;2002-08-17 04:00;METAR CYQB 170400Z 25008KT 15SM FEW040 SCT130 BKN200 23/22 A2985 RMK SC2AC2CI2 SLP107 SLP107
CYQB;2002-08-17 05:00;METAR CYQB 170500Z 25007KT 15SM FEW040 FEW130 SCT200 23/22 A2985 RMK SC1AC1CI1 SLP107
CYQB;2002-08-17 06:00;METAR CYQB 170600Z 25007KT 8SM FEW040 FEW130 SCT200 22/22 A2985 RMK SC1AC1CI1 SLP108 SLP108
CYQB;2002-08-17 07:00;METAR CYQB 170700Z 25008KT 12SM FEW040 FEW080 FEW200 21/21 A2986 RMK SC1AC1CI0 SLP110 SLP110
CYQB;2002-08-17 08:00;METAR CYQB 170800Z 24009KT 8SM FEW040 FEW080 21/21 A2986 RMK SC1AC1 SLP111
CYQB;2002-08-17 09:00;METAR CYQB 170900Z 23008KT 8SM FEW040 FEW080 21/21 A2988 RMK SC1AC1 SLP119
CYQB;2002-08-17 10:00;METAR CYQB 171000Z 26006KT 7SM FEW030 FEW080 20/20 A2991 RMK CU1AC1 SLP128
CYQB;2002-08-17 11:00;METAR CYQB 171100Z 25004KT 7SM FEW030 FEW090 SCT240 20/20 A2993 RMK CU1AC2CI0 SLP135 SLP135
CYQB;2002-08-17 12:00;METAR CYQB 171200Z 24004KT 10SM FEW030 FEW100 SCT240 23/20 A2994 RMK CU1AC1CI0 SLP140 SLP140
CYQB;2002-08-17 13:00;METAR CYQB 171300Z 22006KT 30SM FEW030 BKN074 BKN240 24/20 A2995 RMK CU1AC6CI1 SLP141 SLP141
CYQB;2002-08-17 14:00;METAR CYQB 171400Z 28007KT 30SM FEW035 BKN076 BKN240 25/18 A2994 RMK CU1AC4CI1 SLP140
CYQB;2002-08-17 15:00;METAR CYQB 171500Z 28008KT 30SM FEW035 FEW075 SCT240 27/16 A2994 RMK CU1AC1CI1 SLP137 SLP137
CYQB;2002-08-17 17:00;METAR CYQB 171700Z 25011G16KT 30SM FEW040 BKN072 28/16 A2992 RMK CU2AC2 SLP130
CYQB;2002-08-17 18:00;METAR CYQB 171800Z 20010G16KT 30SM FEW040 SCT065 SCT240 27/15 A2992 RMK CU1CU2CI0 SLP130
CYQB;2002-08-17 19:00;METAR CYQB 171900Z 24011KT 30SM BKN065 28/16 A2991 RMK CU5 SLP128
CYQB;2002-08-17 20:00;METAR CYQB 172000Z 24014G19KT 30SM FEW065 SCT250 29/16 A2989 RMK CU2CI0 SLP122
CYQB;2002-08-17 21:00;METAR CYQB 172100Z 23009G15KT 30SM FEW065 SCT250 28/16 A2989 RMK CU2CI0 SLP121
CYQB;2002-08-17 22:00;METAR CYQB 172200Z 24011KT 30SM FEW055 FEW250 27/17 A2988 RMK CU2CI0 SLP118
CYQB;2002-08-17 23:00;METAR CYQB 172300Z 25008KT 30SM FEW055 SCT250 26/17 A2988 RMK CU1CI1 SLP117
CYQB;2002-08-18 00:00;METAR CYQB 180000Z 26006KT 30SM FEW100 SCT250 24/17 A2988 RMK AC1CI1 SLP118
CYQB;2002-08-18 01:00;METAR CYQB 180100Z 21002KT 15SM SKC 22/17 A2988 RMK SLP117
CYQB;2002-08-18 02:00;METAR CYQB 180200Z 00000KT 15SM SKC 20/17 A2987 RMK SLP116
CYQB;2002-08-18 03:00;METAR CYQB 180300Z 29002KT 15SM FEW230 19/17 A2986 RMK CI1 SLP112
CYQB;2002-08-18 04:00;METAR CYQB 180400Z 00000KT 15SM FEW230 18/16 A2986 RMK CI1 SLP113
CYQB;2002-08-18 05:00;METAR CYQB 180500Z 00000KT 15SM FEW120 17/16 A2986 RMK AC1 SLP112
CYQB;2002-08-18 06:00;METAR CYQB 180600Z 05004KT 12SM SKC 18/17 A2984 RMK SLP106
CYQB;2002-08-18 07:00;METAR CYQB 180700Z 01004KT 10SM BKN060 19/17 A2982 RMK SC6 SLP099
CYQB;2002-08-18 08:00;METAR CYQB 180800Z 08005KT 12SM BKN050 BKN080 19/17 A2980 RMK SC5AC2 SLP092
CYQB;2002-08-18 09:00;METAR CYQB 180900Z 00000KT 12SM BKN049 20/17 A2980 RMK SC7 SLP091
CYQB;2002-08-18 10:00;METAR CYQB 181000Z 08004KT 15SM -SHRA OVC045 20/17 A2980 RMK SC8 SLP090
CYQB;2002-08-18 11:00;METAR CYQB 181100Z 36002KT 20SM BKN042 BKN055 20/18 A2979 RMK SC6SC2 SLP088
CYQB;2002-08-18 12:00;METAR CYQB 181200Z 07004KT 30SM BKN040 20/19 A2978 RMK SC7 TCU ASOCTD OCNL RW- RERA SLP086 RERA SLP086
CYQB;2002-08-18 13:00;METAR CYQB 181300Z 05004KT 30SM FEW010 FEW025 BKN045 22/19 A2977 RMK SF1SC1SC6 SLP082 SLP082
CYQB;2002-08-18 14:00;METAR CYQB 181400Z 09002KT 30SM FEW012 FEW030TCU BKN042 BKN060 23/19 A2976 RMK SF1TCU2SC3SC2 OCNL RW- RERA SLP077 SF1TCU2SC3SC2 OCNL RW- RERA SLP077
CYQB;2002-08-18 15:00;METAR CYQB 181500Z 04003KT 25SM FEW030 BKN050 25/19 A2974 RMK SC2SC5 SLP070
CYQB;2002-08-18 16:00;METAR CYQB 181600Z 00000KT 20SM BKN040 BKN060 28/21 A2971 RMK SC6SC2 SLP061
CYQB;2002-08-18 17:00;METAR CYQB 181700Z 21004KT 25SM FEW013 SCT033TCU OVC060 28/22 A2968 RMK SF1TCU2SC6 SLP051
CYQB;2002-08-18 18:00;METAR CYQB 181800Z 23011G16KT 15SM -SHRA SCT040 OVC060 28/22 A2966 RMK SC4SC4 TCU EMBDD SLP044 EMBDD SLP044
CYQB;2002-08-18 19:00;METAR CYQB 181900Z 23013G21KT 15SM FEW020 FEW040 BKN060CB 28/23 A2966 RMK CU1SC2CB4 CB E MOVING NE SLP044
CYQB;2002-08-18 20:00;METAR CYQB 182000Z 22013KT 12SM FEW040 BKN200 29/21 A2966 RMK CU2CI2 TCU EMBDD HAZY SLP042 HAZY SLP042
CYQB;2002-08-18 21:00;METAR CYQB 182100Z 22014G19KT 15SM BKN038 29/22 A2964 RMK CU6 CB EMBDD SHWRS N AND E SLP037 AND E SLP037
CYQB;2002-08-18 22:00;METAR CYQB 182200Z 24020G25KT 15SM BKN040 BKN200 28/21 A2963 RMK CU6CI2 CB EMBDD SLP033 SLP033
CYQB;2002-08-18 23:00;METAR CYQB 182300Z 27010G21KT 15SM BKN053CB BKN200 23/19 A2967 RETS RMK CB5CI2 CB ALL QUADS SLP046 ALL QUADS SLP046
CYQB;2002-08-19 00:00;METAR CYQB 190000Z 23005KT 15SM BKN062TCU BKN100 BKN200 23/20 A2969 RMK TCU5ACC2CI0 SHWRS E AND W QUADS SLP053
CYQB;2002-08-19 01:00;METAR CYQB 190100Z 32006KT 15SM SCT082 BKN200 24/18 A2971 RMK AC2CI0 SLP060
CYQB;2002-08-19 02:00;METAR CYQB 190200Z 32007KT 15SM FEW070 23/18 A2974 RMK AC2 SLP070
CYQB;2002-08-19 03:00;METAR CYQB 190300Z 27005KT 15SM FEW076 21/17 A2977 RMK AC2 SLP079
CYQB;2002-08-19 04:00;METAR CYQB 190400Z 27004KT 15SM FEW075 18/16 A2979 RMK AC1 SLP087
CYQB;2002-08-19 05:00;METAR CYQB 190500Z 28007KT 15SM FEW075 16/15 A2981 RMK AC1 SLP092
CYQB;2002-08-19 06:00;METAR CYQB 190600Z 25006KT 15SM FEW075 17/15 A2981 RMK AC2 SLP096
CYQB;2002-08-19 07:00;METAR CYQB 190700Z 00000KT 15SM FEW075 16/14 A2982 RMK AC1 SLP099
CYQB;2002-08-19 08:00;METAR CYQB 190800Z 27004KT 15SM FEW070 17/13 A2984 RMK AC1 SLP104
CYQB;2002-08-19 09:00;METAR CYQB 190900Z 21004KT 15SM FEW070 15/13 A2986 RMK AC1 SLP111
CYQB;2002-08-19 10:00;METAR CYQB 191000Z 25003KT 15SM FEW070 FEW220 14/12 A2988 RMK AC1CI1 SLP117
CYQB;2002-08-19 11:00;METAR CYQB 191100Z 25004KT 30SM FEW070 FEW220 15/14 A2989 RMK AC2CI1 SLP121
CYQB;2002-08-19 12:00;METAR CYQB 191200Z 28005KT 30SM FEW030 FEW080 FEW240 19/14 A2989 RMK CU1AC2CI1 SLP123 SLP123
CYQB;2002-08-19 13:00;METAR CYQB 191300Z 28002KT 30SM FEW030 SCT073 SCT240 20/14 A2989 RMK CU2AC2CI1 SLP121
CYQB;2002-08-19 14:00;METAR CYQB 191400Z 31002KT 30SM FEW030 FEW075 21/14 A2988 RMK CU2AC1 SLP118
CYQB;2002-08-19 15:00;METAR CYQB 191500Z 34003KT 30SM FEW040 SCT250 23/13 A2990 RMK CU2CI1 SLP125
CYQB;2002-08-19 16:00;METAR CYQB 191600Z 22006KT 30SM SCT047 BKN250 23/14 A2988 RMK CU4CI0 SLP119
CYQB;2002-08-19 17:00;METAR CYQB 191700Z 26011G19KT 30SM BKN047 BKN250 23/13 A2988 RMK CU6CI1
CYQB;2002-08-19 18:00;METAR CYQB 191800Z 24012G17KT 30SM SCT045 BKN072 BKN250 24/13 A2988 RMK CU3AC3CI0 SLP117
CYQB;2002-08-19 19:00;METAR CYQB 191900Z 25013KT 30SM FEW045 BKN075 BKN250 24/12 A2986 RMK CU2AC3CI1 VIRGA SLP113 VIRGA SLP113
CYQB;2002-08-19 20:00;METAR CYQB 192000Z 25011G16KT 30SM FEW058 BKN210 OVC250 24/13 A2986 RMK SC2CI2CS0 SLP113 SLP113
CYQB;2002-08-19 21:00;METAR CYQB 192100Z 25010KT 30SM BKN080 BKN210 OVC250 23/13 A2986 RMK AC5CI2CS0 SLP113
CYQB;2002-08-19 22:00;METAR CYQB 192200Z 25006KT 30SM SCT080 BKN170 BKN210 22/14 A2984 RMK AC4AC2CI1 SLP105 SLP105
CYQB;2002-08-19 23:00;METAR CYQB 192300Z 25004KT 30SM FEW080 BKN130 OVC210 21/14 A2984 RMK AC1AC6CI1 SLP105
CYQB;2002-08-20 00:00;METAR CYQB 200000Z 00000KT 15SM FEW050 BKN110 OVC210 20/14 A2983 RMK CU1AC6CI1 SLP103 SLP103
CYQB;2002-08-20 01:00;METAR CYQB 200100Z 26003KT 30SM SCT060 OVC078 19/15 A2985 RMK SC3AC5 SLP109
CYQB;2002-08-20 02:00;METAR CYQB 200200Z 31008KT 15SM BKN071 OVC100 20/14 A2987 RMK AC5AC3 SLP114
CYQB;2002-08-20 03:00;METAR CYQB 200300Z 24008KT 15SM OVC066 19/14 A2988 RMK SC8 SLP118
CYQB;2002-08-20 04:00;METAR CYQB 200400Z 25006KT 15SM FEW085 17/14 A2988 RMK AC2 SLP119
CYQB;2002-08-20 05:00;METAR CYQB 200500Z 26007KT 15SM FEW090 15/14 A2990 RMK AC1 SLP124
CYQB;2002-08-20 06:00;METAR CYQB 200600Z 29005KT 15SM FEW030 FEW090 15/14 A2989 RMK CU1AC2 SLP121
CYQB;2002-08-20 07:00;METAR CYQB 200700Z 23007KT 15SM FEW030 FEW075 14/13 A2990 RMK SC1AC2 SLP124
CYQB;2002-08-20 08:00;METAR CYQB 200800Z 27002KT 15SM FEW030 FEW075 14/13 A2990 RMK SC1AC1 SLP125
CYQB;2002-08-20 09:00;METAR CYQB 200900Z 24004KT 15SM FEW030 SCT090 13/13 A2993 RMK SC1AC2 SLP136
CYQB;2002-08-20 10:00;METAR CYQB 201000Z 26003KT 30SM FEW025 BKN095 13/12 A2995 RMK SC1AC4 SLP144
CYQB;2002-08-20 11:00;METAR CYQB 201100Z 23004KT 30SM FEW025 FEW095 14/13 A2997 RMK SC1AC1 SLP149
CYQB;2002-08-20 12:00;METAR CYQB 201200Z 28004KT 30SM FEW006 SCT100 17/15 A2999 RMK CF1AC2 SLP156
CYQB;2002-08-20 13:00;METAR CYQB 201300Z 32007KT 30SM FEW009 FEW030 FEW100 19/13 A3000 RMK CF1CU1AC1 SLP160 SLP160
CYQB;2002-08-20 14:00;METAR CYQB 201400Z 33009G15KT 30SM SCT035 SCT100 21/12 A3001 RMK CU4AC1 SLP163
CYQB;2002-08-20 15:00;METAR CYQB 201500Z 32006KT 30SM BKN037 20/12 A3002 RMK CU6 SLP165
CYQB;2002-08-20 16:00;METAR CYQB 201600Z 29008KT 30SM BKN045 22/13 A3002 RMK CU6 SLP165
CYQB;2002-08-20 17:00;METAR CYQB 201700Z 32006KT 30SM BKN050 24/13 A3002 RMK CU5 SLP165
CYQB;2002-08-20 18:00;METAR CYQB 201800Z 30010G16KT 30SM BKN055 23/10 A3002 RMK CU5 SLP165
CYQB;2002-08-20 19:00;METAR CYQB 201900Z 33010G17KT 30SM SCT062 25/10 A3002 RMK CU4 SLP167
CYQB;2002-08-20 20:00;METAR CYQB 202000Z 29011G17KT 30SM SCT045 24/09 A3003 RMK CU4 SLP171
CYQB;2002-08-20 21:00;METAR CYQB 202100Z 30009G15KT 30SM SCT045 24/09 A3005 RMK CU3 SLP176
CYQB;2002-08-21 00:00;METAR CYQB 210000Z 29004KT 30SM FEW024 18/10 A3009 RMK CU1 SLP191
CYQB;2002-08-21 04:00;METAR CYQB 210400Z 04006KT 15SM SKC 15/11 A3017 RMK SLP215
CYQB;2002-08-21 05:00;METAR CYQB 210500Z 36002KT 15SM SKC 14/11 A3017 RMK SLP218
CYQB;2002-08-21 06:00;METAR CYQB 210600Z 00000KT 15SM SKC 12/11 A3018 RMK SLP221
CYQB;2002-08-21 07:00;METAR CYQB 210700Z 30002KT 15SM SKC 11/10 A3019 RMK SLP225
CYQB;2002-08-21 08:00;METAR CYQB 210800Z 34003KT 15SM FEW080 11/10 A3021 RMK AC1 SLP231
CYQB;2002-08-21 09:00;METAR CYQB 210900Z 00000KT 15SM SCT070 11/10 A3023 RMK AC3 SLP238
CYQB;2002-08-21 10:00;METAR CYQB 211000Z 00000KT 30SM FEW025 SCT080 13/11 A3026 RMK CF1AC3 SLP247
CYQB;2002-08-21 11:00;METAR CYQB 211100Z 00000KT 30SM FEW030 FEW070 13/11 A3027 RMK CF1AC1 SLP252
CYQB;2002-08-21 12:00;METAR CYQB 211200Z 27003KT 30SM FEW070 15/14 A3027 RMK AC1 SLP252
CYQB;2002-08-21 13:00;METAR CYQB 211300Z 23007KT 30SM SKC 18/15 A3027 RMK SLP251
CYQB;2002-08-21 14:00;METAR CYQB 211400Z 24009KT 30SM SKC 21/14 A3026 RMK SLP247
CYQB;2002-08-21 15:00;METAR CYQB 211500Z 24011KT 30SM FEW030 FEW080 23/14 A3025 RMK CU1AC1 SLP244
CYQB;2002-08-21 16:00;METAR CYQB 211600Z 25008KT 30SM FEW040 24/13 A3025 RMK CU1 SLP242
CYQB;2002-08-21 17:00;METAR CYQB 211700Z 24010G17KT 30SM FEW040 FEW250 26/14 A3023 RMK CU1CI1 SLP237
CYQB;2002-08-21 18:00;METAR CYQB 211800Z 22014KT 30SM FEW060 FEW250 27/12 A3019 RMK CU1CI1 OBS TAKEN +15 SLP224 +15 SLP224
CYQB;2002-08-21 19:00;METAR CYQB 211900Z 24016KT 30SM FEW060 FEW250 27/12 A3019 RMK CU1CI0 SLP222
CYQB;2002-08-21 20:00;METAR CYQB 212000Z 23014G21KT 30SM FEW060 BKN260 27/12 A3017 RMK CU1CI1 SLP217
CYQB;2002-08-21 21:00;METAR CYQB 212100Z 24016KT 30SM FEW060 BKN260 26/12 A3016 RMK CU1CI1 SLP212
CYQB;2002-08-21 22:00;METAR CYQB 212200Z 24016G21KT 30SM FEW060 BKN260 25/12 A3016 RMK CU1CI1 SLP214
CYQB;2002-08-21 23:00;METAR CYQB 212300Z 25011KT 30SM FEW060 FEW120 BKN220 23/12 A3017 RMK CU1AC1CI2 SLP215 SLP215
CYQB;2002-08-22 00:00;METAR CYQB 220000Z 25004KT 15SM FEW120 OVC220 20/13 A3016 RMK AC1CI2 SLP215
CYQB;2002-08-22 01:00;METAR CYQB 220100Z 27006KT 15SM OVC220 18/13 A3017 RMK CI3 SLP218
CYQB;2002-08-22 02:00;METAR CYQB 220200Z 27005KT 15SM FEW120 BKN220 18/13 A3016 RMK AC1CI2
CYQB;2002-08-22 03:00;METAR CYQB 220300Z 25006KT 15SM FEW120 BKN220 19/13 A3016 RMK AC1CI2 SLP212
CYQB;2002-08-22 04:00;METAR CYQB 220400Z 24004KT 15SM FEW130 BKN220 18/13 A3014 RMK AC2CI3 SLP205
CYQB;2002-08-22 05:00;METAR CYQB 220500Z 21003KT 15SM BKN180 17/13 A3012 RMK AC6 SLP199
CYQB;2002-08-22 06:00;METAR CYQB 220600Z 23005KT 15SM BKN180 18/13 A3010 RMK AC6 SLP194
CYQB;2002-08-22 07:00;METAR CYQB 220700Z 00000KT 15SM OVC180 18/13 A3010 RMK AC8 SLP193
CYQB;2002-08-22 08:00;METAR CYQB 220800Z 00000KT 15SM FEW070 OVC180 17/13 A3008 RMK AC2AC6 SLP188
CYQB;2002-08-22 09:00;METAR CYQB 220900Z 35002KT 15SM FEW070 OVC180 17/13 A3007 RMK AC2AC6 SLP183
CYQB;2002-08-22 10:00;METAR CYQB 221000Z 00000KT 20SM FEW065 BKN160 BKN230 16/14 A3005 RMK CF1AC6CI1 SLP177 SLP177
CYQB;2002-08-22 11:00;METAR CYQB 221100Z 02003KT 20SM FEW065 BKN110 OVC220 17/14 A3003 RMK SC2AC5CI2 SLP169 SLP169
CYQB;2002-08-22 12:00;METAR CYQB 221200Z 28004KT 15SM -RA FEW080 OVC100 17/14 A3003 RMK AC2AC6
CYQB;2002-08-22 13:00;METAR CYQB 221300Z 25008KT 12SM -RA SCT063 OVC095 17/15 A3003 RMK SC3AC5
CYQB;2002-08-22 14:00;METAR CYQB 221400Z 23007KT 20SM -RA OVC051 17/15 A3002 RMK SC8 SLP166
CYQB;2002-08-22 15:00;METAR CYQB 221500Z 25008KT 5SM -RA BR FEW008 BKN034 OVC057 16/16 A3001 RMK SF1SC5SC3 SLP164
CYQB;2002-08-22 16:00;METAR CYQB 221600Z 26006KT 4SM -RA BR BKN014 OVC030 16/16 A3000 RMK SC6SC2 SLP158
CYQB;2002-08-22 17:00;METAR CYQB 221700Z 24008KT 5SM -RA BR FEW006 BKN015 OVC030 17/17 A2998 RMK SF2SC5SC2 SLP152
CYQB;2002-08-22 18:00;METAR CYQB 221800Z 24008KT 4SM -RA BR BKN007 BKN010 OVC030 17/17 A2996 RMK SF6SC2SC1 SLP146
CYQB;2002-08-22 19:00;METAR CYQB 221900Z 22007KT 5SM BR BKN006 OVC011 17/17 A2995 RMK SF6SC2 SLP143
CYQB;2002-08-22 20:00;METAR CYQB 222000Z 24011KT 10SM SCT006 BKN016 OVC025 17/17 A2994 RMK SF4SC2SC2 SLP138 SLP138
CYQB;2002-08-22 21:00;METAR CYQB 222100Z 25009KT 6SM -RADZ BR FEW004 BKN008 OVC020 17/17 A2993 RMK SF1SF6SC2 SLP137 SF1SF6SC2 SLP137 SF1SF5SC2 SLP136
CYQB;2002-08-22 23:00;METAR CYQB 222300Z 27008KT 10SM FEW003 FEW009 BKN033 BKN060 17/17 A2994 RMK SF1SF1SC6SC1 SLP141
CYQB;2002-08-23 00:00;METAR CYQB 230000Z 26003KT 10SM FEW006 BKN050 17/17 A2996 RMK SF1SC3 SLP146
CYQB;2002-08-23 01:00;METAR CYQB 230100Z 32007KT 15SM FEW005 15/14 A2999 RMK SC1 SLP156
CYQB;2002-08-23 02:00;METAR CYQB 230200Z 00000KT 15SM SKC 13/12 A3001 RMK SLP163
CYQB;2002-08-23 03:00;METAR CYQB 230300Z 31007KT 15SM SKC 12/12 A3002 RMK SLP166
CYQB;2002-08-23 04:00;METAR CYQB 230400Z 32002KT 15SM SKC 11/10 A3003 RMK SLP171
CYQB;2002-08-23 05:00;METAR CYQB 230500Z 34005KT 15SM SKC 11/10 A3005 RMK SLP176
CYQB;2002-08-23 06:00;METAR CYQB 230600Z 34007KT 15SM SKC 11/11 A3005 RMK SLP178
CYQB;2002-08-23 07:00;METAR CYQB 230700Z 35006KT 15SM SKC 11/10 A3006 RMK SLP180
CYQB;2002-08-23 08:00;METAR CYQB 230800Z 01004KT 15SM SKC 10/10 A3007 RMK SLP183
CYQB;2002-08-23 09:00;METAR CYQB 230900Z 01007KT 15SM FEW025 09/09 A3008 RMK SC1 SLP187
CYQB;2002-08-23 10:00;METAR CYQB 231000Z 34003KT 20SM FEW025 09/09 A3010 RMK SC1 FOG IN VALLEYS N SLP195
CYQB;2002-08-23 11:00;METAR CYQB 231100Z 00000KT 30SM SKC 10/09 A3012 RMK FOG IN VALLEYS N SLP202
CYQB;2002-08-23 12:00;METAR CYQB 231200Z 01005KT 30SM FEW008 13/09 A3013 RMK CF1 SLP205
CYQB;2002-08-23 13:00;METAR CYQB 231300Z 34006KT 30SM FEW120 15/10 A3013 RMK AC1 SLP203
CYQB;2002-08-23 14:00;METAR CYQB 231400Z 33008KT 30SM FEW030 16/08 A3013 RMK CU1 SLP203
CYQB;2002-08-23 15:00;METAR CYQB 231500Z 36009KT 30SM FEW030 FEW200 18/07 A3012 RMK CU1CI1
CYQB;2002-08-23 16:00;METAR CYQB 231600Z 35005KT 30SM FEW030 FEW200 18/09 A3011 RMK CU1CI1 SLP197
CYQB;2002-08-23 17:00;METAR CYQB 231700Z 20004KT 30SM FEW030 FEW220 20/09 A3009 RMK CU1CI1 SLP190
CYQB;2002-08-23 18:00;METAR CYQB 231800Z 21014KT 30SM FEW030 SCT220 20/10 A3007 RMK CU1CI1 SLP184
CYQB;2002-08-23 19:00;METAR CYQB 231900Z 22009KT 30SM FEW100 BKN230 21/11 A3005 RMK AC1CI2 SLP178
CYQB;2002-08-23 20:00;METAR CYQB 232000Z 22010KT 30SM FEW100 BKN230 21/10 A3004 RMK AC1CI2 CC ASOCTD SLP174 SLP174
CYQB;2002-08-23 21:00;METAR CYQB 232100Z 23012KT 30SM FEW100 BKN230 20/10 A3003 RMK AC1CS2 SLP169
CYQB;2002-08-23 22:00;METAR CYQB 232200Z 25011KT 30SM FEW100 BKN230 20/10 A3003 RMK AC1CI2 SLP171
CYQB;2002-08-23 23:00;METAR CYQB 232300Z 23005KT 30SM BKN220 18/10 A3002 RMK CI3 SLP166
CYQB;2002-08-24 00:00;METAR CYQB 240000Z 28006KT 30SM OVC240 15/11 A3001 RMK CI3 SLP164
CYQB;2002-08-24 01:00;METAR CYQB 240100Z 26006KT 15SM OVC240 15/11 A3002 RMK CI3 SLP168
CYQB;2002-08-24 02:00;METAR CYQB 240200Z 00000KT 15SM OVC240 15/10 A3000 RMK CI5 SLP162
CYQB;2002-08-24 03:00;METAR CYQB 240300Z 35002KT 15SM BKN220 14/10 A3000 RMK CI2 SLP160
CYQB;2002-08-24 04:00;METAR CYQB 240400Z 00000KT 15SM BKN220 12/10 A3000 RMK CI2 SLP161
CYQB;2002-08-24 05:00;METAR CYQB 240500Z 01004KT 15SM BKN190 13/10 A2999 RMK CI5 SLP157
CYQB;2002-08-24 06:00;METAR CYQB 240600Z 05003KT 15SM BKN190 12/09 A2999 RMK CI3 SLP156
CYQB;2002-08-24 07:00;METAR CYQB 240700Z 36004KT 15SM BKN210 12/09 A2998 RMK CI6 SLP153
CYQB;2002-08-24 08:00;METAR CYQB 240800Z 01004KT 15SM BKN210 11/09 A2997 RMK CI5 SLP149
CYQB;2002-08-24 09:00;METAR CYQB 240900Z 02005KT 15SM BKN180 11/09 A2996 RMK CI5 SLP146
CYQB;2002-08-24 10:00;METAR CYQB 241000Z 01006KT 15SM BKN190 11/09 A2996 RMK CI6 SLP146
CYQB;2002-08-24 11:00;METAR CYQB 241100Z 02005KT 15SM BKN180 11/09 A2995 RMK CI6 SLP144
CYQB;2002-08-24 12:00;METAR CYQB 241200Z 03004KT 30SM FEW180 BKN200 13/10 A2994 RMK AC2CI1 SLP140
CYQB;2002-08-24 13:00;METAR CYQB 241300Z 10004KT 30SM FEW180 BKN200 BKN300 16/11 A2993 RMK AC2CI1CS0 SLP135 SLP135
CYQB;2002-08-24 14:00;METAR CYQB 241400Z 08002KT 30SM FEW180 BKN200 18/11 A2991 RMK AC2CI0 SLP129
CYQB;2002-08-24 15:00;METAR CYQB 241500Z 17002KT 30SM FEW190 BKN240 20/11 A2989 RMK AC2CI0 CC ASOCTD SLP124 SLP124
CYQB;2002-08-24 16:00;METAR CYQB 241600Z 25004KT 30SM FEW190 BKN240 21/10 A2987 RMK AC1CI1 SLP115
CYQB;2002-08-24 17:00;METAR CYQB 241700Z 24006KT 30SM FEW045 FEW180 SCT240 23/08 A2984 RMK CF1AC1CI0 SLP106 SLP106
CYQB;2002-08-24 18:00;METAR CYQB 241800Z 23006KT 30SM FEW036 FEW150 SCT240 24/12 A2982 RMK CF1AC1CI0 SLP097 SLP097
CYQB;2002-08-24 19:00;METAR CYQB 241900Z 27012KT 30SM FEW036 FEW120 BKN240 26/13 A2979 RMK CU2AC1CI1 SLP089 SLP089
CYQB;2002-08-24 20:00;METAR CYQB 242000Z 23010G16KT 50SM FEW045 FEW170 SCT300 26/14 A2978 RMK CU1AC2CI1 SLP084 SLP084
CYQB;2002-08-24 21:00;METAR CYQB 242100Z 25009G16KT 50SM FEW045 FEW170 SCT300 25/14 A2978 RMK
CYQB;2002-08-24 22:00;METAR CYQB 242200Z 29006KT 50SM FEW045 BKN180 BKN320 23/15 A2977 RMK CU1AC4CI1 CC ASOCTD SLP082 ASOCTD SLP082
CYQB;2002-08-24 23:00;METAR CYQB 242300Z 30003KT 50SM FEW045 FEW150 BKN180 22/15 A2977 RMK SC1AC2AC5 SLP082 SLP082
CYQB;2002-08-25 00:00;METAR CYQB 250000Z 00000KT 20SM FEW045 SCT140 BKN180 21/15 A2977 RMK SC1AC3AC2 SLP080 SLP080
CYQB;2002-08-25 01:00;METAR CYQB 250100Z 26002KT 15SM BKN190 19/15 A2976 RMK AC5 SLP079
CYQB;2002-08-25 02:00;METAR CYQB 250200Z 29002KT 15SM BKN040 18/16 A2976 RMK SC6 SLP078
CYQB;2002-08-25 03:00;METAR CYQB 250300Z 27004KT 15SM SCT040 BKN210 17/15 A2976 RMK SC3CI2 SLP077
CYQB;2002-08-25 04:00;METAR CYQB 250400Z 25008KT 15SM FEW040 BKN180 18/16 A2975 RMK SC2AC4 SLP076
CYQB;2002-08-25 05:00;METAR CYQB 250500Z 24007KT 15SM FEW040 SCT180 BKN230 17/15 A2976 RMK SC1AC2CI1 SLP077
CYQB;2002-08-25 06:00;METAR CYQB 250600Z 23006KT 15SM FEW030 BKN170 16/15 A2976 RMK SC2AC6 SLP078
CYQB;2002-08-25 07:00;METAR CYQB 250700Z 21006KT 15SM FEW035 SCT120 BKN190 16/14 A2975 RMK SC2AC2AC4 SLP074 SLP074
CYQB;2002-08-25 08:00;METAR CYQB 250800Z 26005KT 15SM FEW035 BKN130 15/14 A2975 RMK SC2AC6
CYQB;2002-08-25 09:00;METAR CYQB 250900Z 00000KT 15SM FEW035 OVC120 15/14 A2975 RMK SC2AC6 SLP075
CYQB;2002-08-25 10:00;METAR CYQB 251000Z 22007KT 20SM FEW035 SCT100 BKN120 15/14 A2975 RMK SC2AC2AC3 SLP074
CYQB;2002-08-25 11:00;METAR CYQB 251100Z 24007KT 30SM FEW030 SCT100 BKN140 15/14 A2976 RMK SC1AC3AC3 SLP078
CYQB;2002-08-25 12:00;METAR CYQB 251200Z 24009KT 12SM FEW008 BKN060 BKN140 16/14 A2976 RMK SF1SC4AC2 SLP079 SLP079
CYQB;2002-08-25 13:00;METAR CYQB 251300Z 26009KT 12SM FEW012 SCT060 BKN110 17/15 A2977 RMK SC1SC3AC3 SLP081 SLP081
CYQB;2002-08-25 14:00;METAR CYQB 251400Z 24010G15KT 12SM FEW012 SCT050 BKN100 17/15 A2978 RMK SC1SC3AC3 SLP084 SLP084
CYQB;2002-08-25 15:00;METAR CYQB 251500Z 23008KT 12SM FEW020 SCT120 20/16 A2977 RMK CU1AC2 SLP082
CYQB;2002-08-25 16:00;METAR CYQB 251600Z 20020KT 15SM SCT035 BKN120 23/17 A2975 RMK CU4AC1
CYQB;2002-08-25 17:00;METAR CYQB 251700Z 26009G15KT 20SM SCT045 23/14 A2976 RMK CU4 SLP077
CYQB;2002-08-25 18:00;METAR CYQB 251800Z 30014KT 20SM SCT060 25/13 A2975 RMK CU4 SLP075
CYQB;2002-08-25 19:00;METAR CYQB 251900Z 31012G19KT 30SM SCT050 24/12 A2976 RMK CU3 SLP077
CYQB;2002-08-25 20:00;METAR CYQB 252000Z 28015G22KT 30SM SCT050 23/12 A2978 RMK CU3 SLP083
CYQB;2002-08-25 21:00;METAR CYQB 252100Z 28013G18KT 30SM SCT050 23/10 A2978 RMK CU3 SLP083
CYQB;2002-08-25 22:00;METAR CYQB 252200Z 29009KT 30SM FEW050 22/11 A2978 RMK CU2 SLP086
CYQB;2002-08-25 23:00;METAR CYQB 252300Z 30005KT 30SM FEW050 21/11 A2980 RMK CU2 SLP090
CYQB;2002-08-26 00:00;METAR CYQB 260000Z 27003KT 30SM FEW100 18/11 A2981 RMK AC1 SLP095
CYQB;2002-08-26 01:00;METAR CYQB 260100Z 29003KT 15SM SKC 17/11 A2983 RMK SLP103
CYQB;2002-08-26 02:00;METAR CYQB 260200Z 19002KT 15SM SKC 16/10 A2985 RMK SLP109
CYQB;2002-08-26 03:00;METAR CYQB 260300Z 27003KT 15SM SKC 14/09 A2987 RMK SLP115
CYQB;2002-08-26 04:00;METAR CYQB 260400Z 27003KT 15SM SKC 13/09 A2988 RMK SLP119
CYQB;2002-08-26 05:00;METAR CYQB 260500Z 00000KT 15SM SKC 12/09 A2990 RMK SLP125
CYQB;2002-08-26 06:00;METAR CYQB 260600Z 24005KT 15SM SKC 10/08 A2989 RMK SLP123
CYQB;2002-08-26 07:00;METAR CYQB 260700Z 23004KT 15SM FEW120 10/08 A2989 RMK AC1 SLP123
CYQB;2002-08-26 08:00;METAR CYQB 260800Z 20003KT 15SM FEW120 11/09 A2990 RMK AC2 SLP126
CYQB;2002-08-26 09:00;METAR CYQB 260900Z 16003KT 15SM BKN120 10/09 A2990 RMK AC5 SLP125
CYQB;2002-08-26 10:00;METAR CYQB 261000Z 00000KT 30SM FEW130 11/09 A2990 RMK AC2 SLP127
CYQB;2002-08-26 11:00;METAR CYQB 261100Z 00000KT 30SM FEW120 SCT220 12/10 A2992 RMK AC2CI0 SLP132
CYQB;2002-08-26 12:00;METAR CYQB 261200Z 24007KT 30SM BKN097 13/11 A2991 RMK AC6 SLP129
CYQB;2002-08-26 13:00;METAR CYQB 261300Z 24009KT 30SM FEW011 BKN090 BKN140 15/12 A2989 RMK CF1AC4AC2 SLP124 SLP124
CYQB;2002-08-26 14:00;METAR CYQB 261400Z 25011KT 30SM FEW045 BKN070 BKN095 18/13 A2990 RMK CU1AC4AC1 SLP126 SLP126
CYQB;2002-08-26 15:00;METAR CYQB 261500Z 25013G18KT 30SM FEW040 BKN081 19/14 A2989 RMK CU2AC5 SLP121
CYQB;2002-08-26 16:00;METAR CYQB 261600Z 25015G21KT 30SM FEW028 BKN084 21/15 A2987 RMK CF1AC4 SLP115
CYQB;2002-08-26 17:00;METAR CYQB 261700Z 25014KT 30SM FEW031 BKN090 22/16 A2987 RMK CF2AC5
CYQB;2002-08-26 18:00;METAR CYQB 261800Z 27012KT 30SM FEW030 BKN081 22/16 A2988 RMK CF2AC6 SLP119
CYQB;2002-08-26 19:00;METAR CYQB 261900Z 23011KT 30SM FEW030 SCT080 BKN210 24/16 A2986 RMK CU2AC2CI2 SLP114 SLP114
CYQB;2002-08-26 20:00;METAR CYQB 262000Z 23012KT 30SM SCT040 25/16 A2985 RMK CU2 SLP109
CYQB;2002-08-26 21:00;METAR CYQB 262100Z 28011KT 30SM SCT040 26/16 A2985 RMK CU2 TCU EMBDD SLP109
CYQB;2002-08-26 22:00;METAR CYQB 262200Z 29007KT 30SM BKN064 24/15 A2986 RMK SC6 TCU EMBDD SLP113
CYQB;2002-08-26 23:00;METAR CYQB 262300Z 30004KT 30SM SCT064 23/11 A2988 RMK SC4 TCU EMBDD SLP118
CYQB;2002-08-27 00:00;METAR CYQB 270000Z 27002KT 15SM FEW060 SCT080 21/11 A2989 RMK SC2AC2 SLP124
CYQB;2002-08-27 01:00;METAR CYQB 270100Z 29005KT 15SM FEW080 18/11 A2993 RMK AC2 SLP135
CYQB;2002-08-27 02:00;METAR CYQB 270200Z 31003KT 15SM FEW080 18/10 A2996 RMK AC2 SLP145
CYQB;2002-08-27 03:00;METAR CYQB 270300Z 31005KT 15SM FEW080 16/09 A2997 RMK AC2 SLP151
CYQB;2002-08-27 04:00;METAR CYQB 270400Z 36003KT 15SM FEW080 15/09 A3001 RMK AC2 SLP162
CYQB;2002-08-27 05:00;METAR CYQB 270500Z 32008KT 15SM FEW070 14/09 A3005 RMK AC2 SLP176
CYQB;2002-08-27 06:00;METAR CYQB 270600Z 32012KT 15SM FEW070 14/08 A3006 RMK AC1 SLP179
CYQB;2002-08-27 07:00;METAR CYQB 270700Z 29006KT 15SM FEW070 12/07 A3008 RMK AC1 SLP187
CYQB;2002-08-27 08:00;METAR CYQB 270800Z 23003KT 15SM SKC 11/07 A3011 RMK SLP195
CYQB;2002-08-27 09:00;METAR CYQB 270900Z 30002KT 15SM FEW070 11/06 A3013 RMK AC1 SLP202
CYQB;2002-08-27 10:00;METAR CYQB 271000Z 27004KT 30SM FEW070 08/06 A3014 RMK AC1 SLP208
CYQB;2002-08-27 11:00;METAR CYQB 271100Z 29003KT 30SM SCT040 11/08 A3017 RMK SC3 SLP218
CYQB;2002-08-27 12:00;METAR CYQB 271200Z 35006KT 30SM SCT038 13/06 A3019 RMK SC4 SLP223
CYQB;2002-08-27 13:00;METAR CYQB 271300Z 34008KT 30SM SCT040 15/06 A3020 RMK SC4 SLP227
CYQB;2002-08-27 14:00;METAR CYQB 271400Z 30010KT 30SM BKN042 15/07 A3022 RMK SC6 SLP235
CYQB;2002-08-27 15:00;METAR CYQB 271500Z 30005KT 30SM SCT047 16/07 A3024 RMK SC4 SLP241
CYQB;2002-08-27 16:00;METAR CYQB 271600Z 29004KT 30SM BKN045 18/07 A3024 RMK SC5 SLP240
CYQB;2002-08-27 17:00;METAR CYQB 271700Z 34010G15KT 30SM SCT050 20/08 A3023 RMK SC4 SLP237
CYQB;2002-08-27 18:00;METAR CYQB 271800Z 35007KT 30SM FEW050 20/08 A3023 RMK SC2 SLP238
CYQB;2002-08-27 19:00;METAR CYQB 271900Z 34006KT 30SM BKN055 21/08 A3024 RMK SC6 SLP240
CYQB;2002-08-27 20:00;METAR CYQB 272000Z 36010KT 15SM SCT058 21/08 A3025 RMK SC4 SLP246
CYQB;2002-08-27 21:00;METAR CYQB 272100Z 36010G15KT 30SM SCT056 21/08 A3027 RMK SC4 SLP250
CYQB;2002-08-27 22:00;METAR CYQB 272200Z 35009KT 30SM SCT055 20/08 A3028 RMK SC3 SLP256
CYQB;2002-08-27 23:00;METAR CYQB 272300Z 36009KT 30SM SCT052 18/08 A3030 RMK SC4 SLP262
CYQB;2002-08-28 00:00;METAR CYQB 280000Z 36005KT 30SM SCT050 18/08 A3032 RMK SC4 SLP269
CYQB;2002-08-28 01:00;METAR CYQB 280100Z 01006KT 30SM BKN051 17/08 A3035 RMK SC6 SLP278
CYQB;2002-08-28 02:00;METAR CYQB 280200Z 32004KT 30SM FEW050 12/08 A3037 RMK SC2 SLP285
CYQB;2002-08-28 03:00;METAR CYQB 280300Z 34005KT 15SM FEW050 12/08 A3037 RMK SC1 SLP286
CYQB;2002-08-28 04:00;METAR CYQB 280400Z 36002KT 15SM SKC 12/08 A3038 RMK SLP288
CYQB;2002-08-28 05:00;METAR CYQB 280500Z 00000KT 15SM SKC 11/08 A3039 RMK SLP293
CYQB;2002-08-28 06:00;METAR CYQB 280600Z 34005KT 15SM SKC 11/08 A3040 RMK SLP296
CYQB;2002-08-28 07:00;METAR CYQB 280700Z 02003KT 15SM SKC 11/08 A3040 RMK SLP296
CYQB;2002-08-28 08:00;METAR CYQB 280800Z 02003KT 15SM SKC 10/08 A3041 RMK SLP299
CYQB;2002-08-28 09:00;METAR CYQB 280900Z 01006KT 15SM SKC 10/08 A3041 RMK SLP301
CYQB;2002-08-28 11:00;METAR CYQB 281100Z 02006KT 30SM FEW230 10/07 A3044 RMK CI1 SLP310
CYQB;2002-08-28 12:00;METAR CYQB 281200Z 02004KT 30SM FEW040 FEW230 12/08 A3046 RMK CU1CI1 SLP317
CYQB;2002-08-28 13:00;METAR CYQB 281300Z 07003KT 30SM FEW040 FEW230 15/09 A3047 RMK CU1CI1 MDT CU NE SLP319 SLP319
CYQB;2002-08-28 14:00;METAR CYQB 281400Z 09004KT 30SM FEW025 FEW230 17/10 A3048 RMK CU1CI1 MDT CU NE-E SLP322 SLP322
CYQB;2002-08-28 15:00;METAR CYQB 281500Z 10006KT 30SM FEW025 FEW230 18/10 A3047 RMK CU1CI1 SLP320
CYQB;2002-08-28 16:00;METAR CYQB 281600Z 06008KT 30SM FEW025 FEW230 20/09 A3045 RMK CU1CI1 SLP314
CYQB;2002-08-28 17:00;METAR CYQB 281700Z 10009KT 30SM FEW025 FEW230 21/09 A3044 RMK CU1CI1 SLP310
CYQB;2002-08-28 18:00;METAR CYQB 281800Z 09003KT 30SM FEW025 FEW230 21/10 A3042 RMK CF1CI1 SLP303
CYQB;2002-08-28 19:00;METAR CYQB 281900Z 11006KT 30SM FEW050 FEW230 22/09 A3040 RMK CU1CI1 SLP296
CYQB;2002-08-28 20:00;METAR CYQB 282000Z 11005KT 30SM FEW230 22/09 A3038 RMK CI1 SLP290
CYQB;2002-08-28 21:00;METAR CYQB 282100Z 07007KT 30SM FEW230 23/11 A3037 RMK CI1 SLP285
CYQB;2002-08-28 22:00;METAR CYQB 282200Z 10008KT 30SM FEW230 22/11 A3036 RMK CI2 SLP282
CYQB;2002-08-28 23:00;METAR CYQB 282300Z 09006KT 30SM FEW230 20/11 A3036 RMK CI2 SLP282
CYQB;2002-08-29 00:00;METAR CYQB 290000Z 08006KT 30SM FEW230 18/11 A3036 RMK CI2 SLP281
CYQB;2002-08-29 01:00;METAR CYQB 290100Z 01003KT 30SM SCT230 17/11 A3036 RMK CI2 SLP281
CYQB;2002-08-29 02:00;METAR CYQB 290200Z 01002KT 15SM BKN230 15/11 A3035 RMK CI2 SLP279
CYQB;2002-08-29 03:00;METAR CYQB 290300Z 36003KT 15SM BKN230 14/10 A3034 RMK CI2 SLP276
CYQB;2002-08-29 04:00;METAR CYQB 290400Z 02003KT 15SM BKN230 13/10 A3033 RMK CI2 SLP272
CYQB;2002-08-29 05:00;METAR CYQB 290500Z 03005KT 15SM BKN230 13/10 A3033 RMK CI2 SLP271
CYQB;2002-08-29 06:00;METAR CYQB 290600Z 01003KT 15SM SCT230 12/10 A3034 RMK CI2 SLP274
CYQB;2002-08-29 07:00;METAR CYQB 290700Z 01004KT 15SM SCT230 12/09 A3033 RMK CI2 SLP273
CYQB;2002-08-29 08:00;METAR CYQB 290800Z 02003KT 15SM FEW230 11/09 A3033 RMK CI2 SLP272
CYQB;2002-08-29 09:00;METAR CYQB 290900Z 01003KT 15SM FEW230 11/09 A3032 RMK CI1 SLP268
CYQB;2002-08-29 10:00;METAR CYQB 291000Z 01005KT 15SM SCT230 11/09 A3032 RMK CI2 SLP268
CYQB;2002-08-29 11:00;METAR CYQB 291100Z 02003KT 15SM BKN250 11/09 A3033 RMK CI3 SLP270
CYQB;2002-08-29 12:00;METAR CYQB 291200Z 04003KT 30SM BKN250 13/10 A3033 RMK CI4 SLP271
CYQB;2002-08-29 13:00;METAR CYQB 291300Z 05002KT 30SM BKN250 15/11 A3033 RMK CI2 SLP271
CYQB;2002-08-29 14:00;METAR CYQB 291400Z 00000KT 30SM BKN250 18/12 A3031 RMK CI2 SLP266
CYQB;2002-08-29 15:00;METAR CYQB 291500Z 21003KT 30SM BKN250 20/12 A3030 RMK CI2 SLP260
CYQB;2002-08-29 16:00;METAR CYQB 291600Z 23007KT 30SM BKN250 22/12 A3027 RMK CI2 SLP250
CYQB;2002-08-29 17:00;METAR CYQB 291700Z 23009G15KT 30SM BKN250 23/13 A3024 RMK CI2 SLP242
CYQB;2002-08-29 18:00;METAR CYQB 291800Z 25009G15KT 30SM FEW035 BKN250 24/13 A3023 RMK CU1CI2 SLP237
CYQB;2002-08-29 19:00;METAR CYQB 291900Z 25009KT 30SM FEW040 FEW180 BKN230 24/13 A3021 RMK CU1AC1CS4 SLP230 SLP230
CYQB;2002-08-29 20:00;METAR CYQB 292000Z 26012KT 30SM FEW040 FEW180 OVC220 24/14 A3019 RMK CU1AC2CS6 SLP226 SLP226
CYQB;2002-08-29 21:00;METAR CYQB 292100Z 24011KT 30SM FEW040 SCT180 OVC220 23/14 A3018 RMK CU1AC3CS5 SLP222 SLP222
CYQB;2002-08-29 22:00;METAR CYQB 292200Z 22008KT 30SM FEW040 SCT180 OVC220 21/14 A3019 RMK CU1AC3CS5 SLP224 SLP224
CYQB;2002-08-29 23:00;METAR CYQB 292300Z 23008KT 30SM BKN170 OVC220 21/14 A3018 RMK AC6CS2
CYQB;2002-08-30 00:00;METAR CYQB 300000Z 25008KT 15SM SCT170 OVC250 19/14 A3018 RMK AC3CS5 SLP222
CYQB;2002-08-30 01:00;METAR CYQB 300100Z 23005KT 15SM FEW170 OVC250 18/14 A3019 RMK AC2CS6 SLP223
CYQB;2002-08-30 02:00;METAR CYQB 300200Z 26007KT 15SM OVC240 18/11 A3019 RMK CS8 SLP226
CYQB;2002-08-30 03:00;METAR CYQB 300300Z 27007KT 15SM FEW050 FEW120 OVC220 17/10 A3019 RMK SC1AC1CS6 SLP223
CYQB;2002-08-30 04:00;METAR CYQB 300400Z 25006KT 15SM BKN240 15/10 A3019 RMK CS6 SLP224
CYQB;2002-08-30 05:00;METAR CYQB 300500Z 25006KT 15SM BKN240 14/11 A3019 RMK CI3 SLP222
CYQB;2002-08-30 06:00;METAR CYQB 300600Z 26007KT 15SM BKN250 13/11 A3018 RMK CI2 SLP221
CYQB;2002-08-30 07:00;METAR CYQB 300700Z 24004KT 15SM BKN250 13/11 A3018 RMK CI3 SLP219
CYQB;2002-08-30 08:00;METAR CYQB 300800Z 25007KT 15SM FEW070 BKN250 13/11 A3017 RMK AC1CI4 SLP217
CYQB;2002-08-30 09:00;METAR CYQB 300900Z 23004KT 15SM BKN160 12/11 A3018 RMK AC5 SLP220
CYQB;2002-08-30 10:00;METAR CYQB 301000Z 24007KT 15SM FEW160 BKN250 12/11 A3018 RMK AC2CI1
CYQB;2002-08-30 11:00;METAR CYQB 301100Z 23007KT 15SM SCT120 BKN250 13/11 A3019 RMK AC3CI2
CYQB;2002-08-30 12:00;METAR CYQB 301200Z 25009KT 20SM FEW020 SCT120 BKN160 BKN220 14/12 A3020 RMK CU1AC3AC2CI0 SLP227
CYQB;2002-08-30 13:00;METAR CYQB 301300Z 24010KT 20SM FEW020 BKN076 BKN150 15/12 A3019 RMK CU1AC5AC2 SLP226 SLP226
CYQB;2002-08-30 14:00;METAR CYQB 301400Z 26008KT 20SM -SHRA FEW020 BKN053 OVC150 15/13 A3020 RMK CU1SC6AC2 SLP229
CYQB;2002-08-30 15:00;METAR CYQB 301500Z 23008KT 20SM FEW030 BKN065 BKN150 16/14 A3021 RMK CU1SC5AC2 SLP230 SLP230
CYQB;2002-08-30 16:00;METAR CYQB 301600Z 23009KT 30SM SCT030 BKN072 BKN200 20/15 A3020 RMK CU3AC2CI1 TCU ASOCTD SLP228 TCU ASOCTD SLP228
CYQB;2002-08-30 17:00;METAR CYQB 301700Z 20007KT 30SM SCT030 BKN081 21/15 A3020 RMK CU4AC2 TCU ASOCTD SLP228 SLP228
CYQB;2002-08-30 18:00;METAR CYQB 301800Z 19007KT 30SM SCT030 SCT080 BKN120 23/16 A3020 RMK CU3AC1AC1 SLP228
CYQB;2002-08-30 19:00;METAR CYQB 301900Z 06020G28KT 20SM FEW015 BKN035TCU 17/13 A3026 RMK CF1TCU6 PRESRR SLP249
CYQB;2002-08-30 20:00;METAR CYQB 302000Z 07014G28KT 30SM FEW020 SCT050TCU BKN085 BKN120 16/13 A3028 RMK CF1TCU3AC2AC2 SLP255 CF1TCU3AC2AC2 SLP255
CYQB;2002-08-30 21:00;METAR CYQB 302100Z 07016G26KT 30SM FEW035 FEW050TCU BKN140 17/12 A3030 RMK CU2TCU1AC2 SLP262
CYQB;2002-08-30 22:00;METAR CYQB 302200Z 07015G21KT 30SM FEW055TCU FEW140 18/11 A3031 RMK TCU1AC1 SLP266
CYQB;2002-08-30 23:00;METAR CYQB 302300Z 08013G19KT 30SM FEW055TCU FEW140 17/11 A3033 RMK TCU1AC1 SLP272
CYQB;2002-08-31 00:00;METAR CYQB 310000Z 07010KT 20SM FEW040 FEW120 FEW220 16/11 A3036 RMK SC1AC1CI0 SLP284 SLP284
CYQB;2002-08-31 01:00;METAR CYQB 310100Z 07008KT 15SM FEW060 15/11 A3040 RMK SC1 SLP295
CYQB;2002-08-31 02:00;METAR CYQB 310200Z 07008KT 15SM FEW040 15/11 A3042 RMK SC2 SLP304
CYQB;2002-08-31 03:00;METAR CYQB 310300Z 07008KT 15SM FEW043 14/10 A3045 RMK SC1 SLP313
CYQB;2002-08-31 04:00;METAR CYQB 310400Z 05004KT 15SM FEW040 13/10 A3047 RMK SC1 SLP321
CYQB;2002-08-31 05:00;METAR CYQB 310500Z 04008KT 15SM SKC 13/09 A3050 RMK SLP328
CYQB;2002-08-31 06:00;METAR CYQB 310600Z 05007KT 15SM SKC 12/09 A3051 RMK SLP334
CYQB;2002-08-31 07:00;METAR CYQB 310700Z 03003KT 15SM SKC 11/09 A3052 RMK SLP337
CYQB;2002-08-31 08:00;METAR CYQB 310800Z 03004KT 15SM SKC 10/09 A3054 RMK SLP342
CYQB;2002-08-31 09:00;METAR CYQB 310900Z 36003KT 15SM SKC 08/08 A3055 RMK SLP348
CYQB;2002-08-31 10:00;METAR CYQB 311000Z 02003KT 15SM FEW250 07/06 A3058 RMK CI1 SLP355
CYQB;2002-08-31 11:00;METAR CYQB 311100Z 02006KT 15SM SKC 08/06 A3060 RMK SLP363
CYQB;2002-08-31 12:00;METAR CYQB 311200Z 07005KT 50SM FEW250 12/07 A3062 RMK CI0 SLP370
CYQB;2002-08-31 13:00;METAR CYQB 311300Z 07009KT 50SM FEW250 14/09 A3063 RMK CI0 SLP373
CYQB;2002-08-31 14:00;METAR CYQB 311400Z 07008KT 50SM FEW250 16/09 A3063 RMK CI0 SLP374
CYQB;2002-08-31 15:00;METAR CYQB 311500Z 07008KT 50SM FEW250 19/07 A3062 RMK CI0 SLP371
CYQB;2002-08-31 16:00;METAR CYQB 311600Z 09007KT 45SM FEW250 FEW350 19/04 A3061 RMK CI0CI1 SLP367
CYQB;2002-08-31 17:00;METAR CYQB 311700Z 07007KT 50SM FEW250 20/06 A3059 RMK CI0 SLP361
CYQB;2002-08-31 18:00;METAR CYQB 311800Z 07004KT 50SM FEW250 21/06 A3057 RMK CI0 SLP353
CYQB;2002-08-31 19:00;METAR CYQB 311900Z 08002KT 50SM FEW250 21/06 A3055 RMK CI0 SLP346
CYQB;2002-08-31 20:00;METAR CYQB 312000Z 07006KT 50SM FEW280 22/06 A3053 RMK CI0 SLP339
CYQB;2002-08-31 21:00;METAR CYQB 312100Z 07005KT 50SM FEW280 22/06 A3051 RMK CI0 SLP333
CYQB;2002-08-31 22:00;METAR CYQB 312200Z 05006KT 30SM FEW280 21/06 A3049 RMK CI0 SLP327
CYQB;2002-08-31 23:00;METAR CYQB 312300Z 07005KT 30SM SCT280 20/06 A3049 RMK CI1 SLP325
CYQB;2002-09-01 00:00;METAR CYQB 010000Z 06004KT 15SM SCT250 18/07 A3048 RMK CI1 SLP324
CYQB;2002-09-01 01:00;METAR CYQB 010100Z 01005KT 15SM FEW220 15/08 A3048 RMK CI1 SLP324
CYQB;2002-09-01 02:00;METAR CYQB 010200Z 02006KT 15SM FEW220 13/07 A3048 RMK CI0 SLP322
CYQB;2002-09-01 03:00;METAR CYQB 010300Z 01005KT 15SM SKC 12/07 A3047 RMK SLP321
CYQB;2002-09-01 04:00;METAR CYQB 010400Z 01004KT 15SM SKC 12/07 A3046 RMK SLP317
CYQB;2002-09-01 05:00;METAR CYQB 010500Z 02005KT 15SM SKC 11/06 A3045 RMK SLP313
CYQB;2002-09-01 06:00;METAR CYQB 010600Z 01005KT 15SM FEW060 11/06 A3044 RMK SC1 SLP310
CYQB;2002-09-01 07:00;METAR CYQB 010700Z 01005KT 15SM SCT055 11/06 A3044 RMK SC3 SLP311
CYQB;2002-09-01 08:00;METAR CYQB 010800Z 01004KT 15SM SCT060 10/06 A3044 RMK SC3 SLP311
CYQB;2002-09-01 09:00;METAR CYQB 010900Z 36002KT 15SM FEW060 09/06 A3044 RMK SF1 SLP310
CYQB;2002-09-01 10:00;METAR CYQB 011000Z 03002KT 15SM FEW060 10/06 A3045 RMK SC2 SLP312
CYQB;2002-09-01 11:00;METAR CYQB 011100Z 02002KT 20SM FEW060 10/07 A3045 RMK SC2 SLP314
CYQB;2002-09-01 12:00;METAR CYQB 011200Z 01005KT 30SM FEW060 13/08 A3045 RMK SC1 SLP313
CYQB;2002-09-01 13:00;METAR CYQB 011300Z 00000KT 30SM SCT060 17/11 A3044 RMK SC2 SLP310
CYQB;2002-09-01 14:00;METAR CYQB 011400Z 23007KT 30SM FEW035 SCT080 BKN230 19/12 A3042 RMK SC2AC2CI1 SLP303 SLP303
CYQB;2002-09-01 15:00;METAR CYQB 011500Z 23008KT 30SM FEW035 FEW060 SCT090 BKN230 20/13 A3040 RMK SC1SC2AC2CI0 SLP296
CYQB;2002-09-01 16:00;METAR CYQB 011600Z 24009KT 30SM SCT062 BKN090 BKN230 22/14 A3038 RMK SC4AC1CI1 SLP289 SLP289
CYQB;2002-09-01 17:00;METAR CYQB 011700Z 20008KT 30SM FEW040 FEW063 BKN250 23/15 A3036 RMK CU1SC2CI1 SLP281 SLP281
CYQB;2002-09-01 18:00;METAR CYQB 011800Z 25009KT 30SM FEW055 FEW080 SCT260 25/16 A3033 RMK CU1AC1CI2 SLP272 SLP272
CYQB;2002-09-01 19:00;METAR CYQB 011900Z 26009KT 30SM FEW045 BKN260 25/16 A3030 RMK CU1CI2 SLP263
CYQB;2002-09-01 20:00;METAR CYQB 012000Z 25008KT 30SM FEW045 BKN260 26/16 A3029 RMK CU1CI2 SLP257
CYQB;2002-09-01 21:00;METAR CYQB 012100Z 21008KT 30SM FEW045 SCT250 24/16 A3027 RMK CU1CI2 SLP251
CYQB;2002-09-01 22:00;METAR CYQB 012200Z 25008KT 30SM FEW040 BKN250 24/16 A3025 RMK CU1CI2 TCU S ASOCT SLP245 SLP245
CYQB;2002-09-01 23:00;METAR CYQB 012300Z 24004KT 30SM FEW050TCU SCT250 22/16 A3024 RMK TCU1CI2 SLP242
CYQB;2002-09-02 00:00;METAR CYQB 020000Z 25005KT 15SM FEW250 20/16 A3024 RMK CI1 SLP242
CYQB;2002-09-02 01:00;METAR CYQB 020100Z 32002KT 15SM FEW090 SCT250 19/16 A3024 RMK AC1CI1 SLP241
CYQB;2002-09-02 02:00;METAR CYQB 020200Z 25003KT 15SM FEW250 18/16 A3024 RMK CI1 SLP241
CYQB;2002-09-02 03:00;METAR CYQB 020300Z 22004KT 15SM FEW250 17/16 A3024 RMK CI1 SLP241
CYQB;2002-09-02 04:00;METAR CYQB 020400Z 25003KT 15SM FEW250 17/15 A3024 RMK CI1 SLP242
CYQB;2002-09-02 05:00;METAR CYQB 020500Z 00000KT 15SM SKC 16/13 A3024 RMK SLP242
CYQB;2002-09-02 06:00;METAR CYQB 020600Z 31005KT 15SM FEW210 14/12 A3024 RMK CI2 SLP240
CYQB;2002-09-02 07:00;METAR CYQB 020700Z 26003KT 15SM BKN220 14/12 A3023 RMK CI6 SLP236
CYQB;2002-09-02 08:00;METAR CYQB 020800Z 24004KT 15SM BKN220 15/11 A3023 RMK CI6 SLP236
CYQB;2002-09-02 09:00;METAR CYQB 020900Z 35004KT 15SM SCT220 13/12 A3022 RMK CI3 SLP234
CYQB;2002-09-02 10:00;METAR CYQB 021000Z 36002KT 15SM FEW220 12/10 A3021 RMK CI2 SLP231
CYQB;2002-09-02 11:00;METAR CYQB 021100Z 33002KT 15SM FEW200 13/10 A3022 RMK CI2 SLP232
CYQB;2002-09-02 12:00;METAR CYQB 021200Z 20004KT 30SM FEW100 FEW220 16/12 A3022 RMK AC1CI1 SLP235
CYQB;2002-09-02 13:00;METAR CYQB 021300Z 28005KT 30SM FEW120 FEW220 18/11 A3022 RMK AC1CI0 SLP234
CYQB;2002-09-02 14:00;METAR CYQB 021400Z 23006KT 30SM FEW120 FEW240 19/11 A3022 RMK AC1CI1
CYQB;2002-09-02 15:00;METAR CYQB 021500Z 22008KT 30SM FEW060 FEW120 FEW240 21/12 A3020 RMK SC1AC1CI0 SLP227 SLP227
CYQB;2002-09-02 16:00;METAR CYQB 021600Z 23004KT 30SM FEW070 SCT240 22/12 A3019 RMK AC2CI0 SLP222
CYQB;2002-09-02 17:00;METAR CYQB 021700Z 24008KT 30SM FEW070 SCT240 24/12 A3016 RMK AC2CI0 SLP213
CYQB;2002-09-02 18:00;METAR CYQB 021800Z 22006KT 30SM FEW060 25/11 A3013 RMK SC1 CU ASOCTD SLP203
CYQB;2002-09-02 19:00;METAR CYQB 021900Z 21006KT 30SM FEW060 26/10 A3008 RMK SC1 CU ASOCTD SLP188
CYQB;2002-09-02 20:00;METAR CYQB 022000Z 24005KT 30SM FEW060 26/09 A3006 RMK SC1 SLP180
CYQB;2002-09-02 21:00;METAR CYQB 022100Z 25007KT 30SM FEW100 26/10 A3006 RMK AC1 SLP180
CYQB;2002-09-02 23:00;METAR CYQB 022300Z 27004KT 30SM FEW030 FEW100 23/12 A3005 RMK CU1AC1 SLP175
CYQB;2002-09-03 00:00;METAR CYQB 030000Z 32004KT 15SM SKC 20/12 A3005 RMK SLP175
CYQB;2002-09-03 01:00;METAR CYQB 030100Z 00000KT 15SM SKC 19/12 A3004 RMK SLP174
CYQB;2002-09-03 02:00;METAR CYQB 030200Z 36002KT 15SM SKC 18/11 A3005 RMK SLP175
CYQB;2002-09-03 03:00;METAR CYQB 030300Z 02003KT 15SM SKC 17/11 A3005 RMK SLP175
CYQB;2002-09-03 04:00;METAR CYQB 030400Z 00000KT 30SM SKC 15/11 A3005 RMK SLP177
CYQB;2002-09-03 05:00;METAR CYQB 030500Z 05002KT 30SM SKC 15/11 A3006 RMK SLP178
CYQB;2002-09-03 06:00;METAR CYQB 030600Z 01004KT 15SM FEW120 15/12 A3006 RMK AC1 SLP178
CYQB;2002-09-03 07:00;METAR CYQB 030700Z 03003KT 15SM SKC 14/12 A3005 RMK SLP176
CYQB;2002-09-03 08:00;METAR CYQB 030800Z 01004KT 15SM SCT070 14/12 A3004 RMK AC3 SLP174
CYQB;2002-09-03 09:00;METAR CYQB 030900Z 36004KT 15SM FEW040 SCT070 14/12 A3004 RMK CF1AC2 SLP172
CYQB;2002-09-03 10:00;METAR CYQB 031000Z 02004KT 15SM FEW040 BKN078 14/12 A3004 RMK CF1AC5
CYQB;2002-09-03 11:00;METAR CYQB 031100Z 01003KT 15SM FEW078 SCT180 15/13 A3003 RMK AC2CI2 SLP170
CYQB;2002-09-03 12:00;METAR CYQB 031200Z 05003KT 15SM FEW025 FEW078 BKN210 16/13 A3004 RMK SC1AC2CI1 SLP172
CYQB;2002-09-03 13:00;METAR CYQB 031300Z 07002KT 15SM FEW045 SCT080 BKN210 19/15 A3005 RMK SC2AC1CI0 SLP175 SLP175
CYQB;2002-09-03 14:00;METAR CYQB 031400Z 17002KT 15SM FEW080 BKN210 22/15 A3003 RMK AC2CI1 SLP169
CYQB;2002-09-03 15:00;METAR CYQB 031500Z 16004KT 15SM FEW032 SCT210 23/15 A3000 RMK CU2CI1 SLP159
CYQB;2002-09-03 17:00;METAR CYQB 031700Z 16005KT 15SM BKN040 BKN140 BKN230 26/16 A2996 RMK CU5AC1CI0 SLP145 SLP145
CYQB;2002-09-03 18:00;METAR CYQB 031800Z 17008KT 15SM SCT045 SCT140 BKN230 27/16 A2992 RMK CU3AC1CI2 SLP131 SLP131
CYQB;2002-09-03 19:00;METAR CYQB 031900Z 18010KT 20SM FEW050 SCT150 BKN230 28/16 A2989 RMK CU2AC2CI2 SLP120 SLP120
CYQB;2002-09-03 20:00;METAR CYQB 032000Z 17006KT 30SM SCT055 BKN150 BKN250 28/16 A2987 RMK CU3AC2CI1 SLP116 SLP116
CYQB;2002-09-03 21:00;METAR CYQB 032100Z 15007KT 30SM FEW060 SCT150 BKN250 28/17 A2986 RMK CU2AC2CI1 SLP112 SLP112
CYQB;2002-09-03 22:00;METAR CYQB 032200Z 13011KT 30SM SCT058 BKN150 BKN250 26/17 A2984 RMK CU3AC2CI1 SLP106 SLP106
CYQB;2002-09-03 23:00;METAR CYQB 032300Z 14013KT 30SM FEW060 SCT170 BKN240 25/17 A2984 RMK SC2AC2CI2 SLP104 SLP104
CYQB;2002-09-04 00:00;METAR CYQB 040000Z 14010G21KT 15SM FEW060 FEW170 BKN240 23/17 A2983 RMK SC2AC1CI2 SLP103 SLP103
CYQB;2002-09-04 01:00;METAR CYQB 040100Z 14009G18KT 15SM FEW060 SCT150 BKN240 22/17 A2984 RMK SC2AC2CI2 LTNG DST W SLP106 LTNG DST W SLP106
CYQB;2002-09-04 02:00;METAR CYQB 040200Z 09004KT 15SM -SHRA FEW060 BKN076 BKN220 21/17 A2987 RMK SC2AC4CI1 LTNG W-NW SLP114
CYQB;2002-09-04 03:00;METAR CYQB 040300Z 10007KT 15SM TS FEW055 BKN078 OVC220 20/18 A2985 RMK SC2AC6CI1 CB EMBDD LTGIC N SLP109 CB EMBDD LTGIC N SLP109
CYQB;2002-09-04 04:00;METAR CYQB 040400Z 09007KT 6SM TSRA OVC050 19/18 A2983 RMK SC8 CB EMBDD LTGCG SLP102 SLP102
CYQB;2002-09-04 05:00;METAR CYQB 040500Z 08006KT 10SM -TSRA OVC031 19/18 A2981 RMK SC8 RERA CB EMBDD LTGCG W SLP093 LTGCG W SLP093
CYQB;2002-09-04 06:00;METAR CYQB 040600Z 08005KT 15SM BKN050 OVC100 19/18 A2981 RMK SC7AC1 RETA RERA SLP095 SLP095
CYQB;2002-09-04 07:00;METAR CYQB 040700Z 10004KT 15SM BKN042 OVC100 19/18 A2980 RMK SC6AC2 SLP090
CYQB;2002-09-04 08:00;METAR CYQB 040800Z 36003KT 15SM OVC026 19/18 A2979 RMK SC8 SLP087
CYQB;2002-09-04 09:00;METAR CYQB 040900Z 00000KT 15SM OVC019 19/18 A2979 RMK SC8 SLP089
CYQB;2002-09-04 10:00;METAR CYQB 041000Z 17002KT 12SM OVC013 19/18 A2980 RMK SC8 SLP091
CYQB;2002-09-04 11:00;METAR CYQB 041100Z 22005KT 12SM BKN009 BKN028 19/19 A2981 RMK SC5SC2 SLP094
CYQB;2002-09-04 12:00;METAR CYQB 041200Z 25006KT 12SM FEW008 BKN020 20/19 A2983 RMK SF2SC4 SLP101
CYQB;2002-09-04 13:00;METAR CYQB 041300Z 23012KT 12SM BKN020 21/18 A2983 RMK SC6 SLP103
CYQB;2002-09-04 14:00;METAR CYQB 041400Z 23009KT 12SM SCT020 22/18 A2984 RMK CU4 SLP105
CYQB;2002-09-04 15:00;METAR CYQB 041500Z 23013KT 20SM FEW030 23/16 A2984 RMK CU2 SLP104
CYQB;2002-09-04 16:00;METAR CYQB 041600Z 25016KT 20SM FEW035 FEW220 25/15 A2982 RMK CU1CI1 SLP098
CYQB;2002-09-04 17:00;METAR CYQB 041700Z 24016G21KT 25SM FEW050 FEW220 26/15 A2981 RMK CU2CI1 SLP096
CYQB;2002-09-04 18:00;METAR CYQB 041800Z 22015G22KT 25SM FEW060 FEW150 26/13 A2981 RMK CU2AC1
CYQB;2002-09-04 19:00;METAR CYQB 041900Z 25018G25KT 25SM SCT060 BKN085 25/13 A2980 RMK CU4AC2 SLP091
CYQB;2002-09-04 20:00;METAR CYQB 042000Z 26014G20KT 30SM SCT050 BKN064 BKN090 24/14 A2981 RMK CU3SC2AC2 SLP093 SLP093
CYQB;2002-09-04 21:00;METAR CYQB 042100Z 25010G15KT 30SM FEW050 BKN076 23/15 A2981 RMK CU2AC5 SHWRS N SLP096
CYQB;2002-09-04 22:00;METAR CYQB 042200Z 28012G17KT 30SM FEW050 BKN088 22/14 A2983 RMK CU2AC5
CYQB;2002-09-04 23:00;METAR CYQB 042300Z 28008KT 30SM FEW050 BKN075 21/14 A2985 RMK CU1AC6 SLP107
CYQB;2002-09-05 00:00;METAR CYQB 050000Z 27006KT 15SM FEW045 BKN060 BKN090 20/14 A2987 RMK CU1SC5AC2 SLP115 SLP115
CYQB;2002-09-05 01:00;METAR CYQB 050100Z 31008KT 15SM FEW045 BKN075 19/14 A2989 RMK CU2AC5 SLP120
CYQB;2002-09-05 02:00;METAR CYQB 050200Z 27009KT 15SM FEW045 SCT090 18/13 A2989 RMK CF1AC2 SLP121
CYQB;2002-09-05 03:00;METAR CYQB 050300Z 24009KT 15SM FEW045 FEW090 16/14 A2989 RMK CF1AC1
CYQB;2002-09-05 04:00;METAR CYQB 050400Z 22010KT 15SM BKN036 16/14 A2989 RMK SC6 SLP122
CYQB;2002-09-05 05:00;METAR CYQB 050500Z 22007KT 15SM FEW035 16/13 A2989 RMK SC2 SLP123
CYQB;2002-09-05 06:00;METAR CYQB 050600Z 23005KT 15SM FEW035 SCT090 15/13 A2988 RMK SC1AC3 SLP119
CYQB;2002-09-05 07:00;METAR CYQB 050700Z 30011KT 15SM FEW035 FEW080 15/12 A2987 RMK SC2AC1
CYQB;2002-09-05 08:00;METAR CYQB 050800Z 31014G20KT 15SM FEW030 BKN073 15/11 A2988 RMK SC2AC4 SLP118
CYQB;2002-09-05 09:00;METAR CYQB 050900Z 29009KT 15SM FEW030 BKN080 13/09 A2991 RMK SC2AC3 SLP128
CYQB;2002-09-05 10:00;METAR CYQB 051000Z 31007KT 30SM SCT035 BKN075 14/09 A2993 RMK SC3AC2 SLP135
CYQB;2002-09-05 11:00;METAR CYQB 051100Z 29010G17KT 30SM FEW035 FEW075 14/09 A2994 RMK SC1AC2 SLP140
CYQB;2002-09-05 12:00;METAR CYQB 051200Z 29006G16KT 30SM BKN040 15/09 A2996 RMK SC6 SLP147
CYQB;2002-09-05 13:00;METAR CYQB 051300Z 31011G17KT 30SM BKN038 15/08 A2998 RMK SC6 SLP152
CYQB;2002-09-05 14:00;METAR CYQB 051400Z 33015G21KT 30SM SCT038 15/05 A2999 RMK SC4 SLP156
CYQB;2002-09-05 15:00;METAR CYQB 051500Z 29010G15KT 30SM FEW040 17/07 A2997 RMK CU2 SLP151
CYQB;2002-09-05 16:00;METAR CYQB 051600Z 31009G15KT 30SM FEW040 FEW080 18/05 A2995 RMK CF1AC1 SLP142
CYQB;2002-09-05 17:00;METAR CYQB 051700Z 28016G21KT 30SM FEW040 20/05 A2994 RMK SC1 SLP139
CYQB;2002-09-05 18:00;METAR CYQB 051800Z 30012G20KT 30SM FEW040 20/05 A2993 RMK CF1 SLP135
CYQB;2002-09-05 19:00;METAR CYQB 051900Z 29014G24KT 30SM FEW040 21/04 A2992 RMK CF1 SLP134
CYQB;2002-09-05 20:00;METAR CYQB 052000Z 30018G27KT 30SM FEW040 21/03 A2992 RMK CF1 SLP131
CYQB;2002-09-05 21:00;METAR CYQB 052100Z 32010G21KT 30SM FEW040 21/03 A2993 RMK CF1 SLP136
CYQB;2002-09-05 22:00;METAR CYQB 052200Z 31010G26KT 30SM FEW055 20/04 A2995 RMK CF1 SLP143
CYQB;2002-09-05 23:00;METAR CYQB 052300Z 31011KT 30SM FEW060 18/04 A2997 RMK CF1 SLP150
CYQB;2002-09-06 00:00;METAR CYQB 060000Z 27007KT 15SM SKC 15/04 A3000 RMK SLP158
CYQB;2002-09-06 01:00;METAR CYQB 060100Z 25009KT 15SM SKC 14/04 A3002 RMK SLP167
CYQB;2002-09-06 02:00;METAR CYQB 060200Z 25008KT 15SM SKC 13/05 A3003 RMK SLP170
CYQB;2002-09-06 03:00;METAR CYQB 060300Z 26007KT 15SM SKC 11/05 A3004 RMK SLP173
CYQB;2002-09-06 04:00;METAR CYQB 060400Z 32008KT 15SM FEW040 12/05 A3005 RMK CF1 SLP176
CYQB;2002-09-06 05:00;METAR CYQB 060500Z 29006KT 15SM FEW040 09/05 A3005 RMK CF1 SLP177
CYQB;2002-09-06 06:00;METAR CYQB 060600Z 29007KT 15SM SKC 09/06 A3006 RMK SLP179
CYQB;2002-09-06 07:00;METAR CYQB 060700Z 30010KT 15SM FEW040 10/06 A3005 RMK CF1 SLP177
CYQB;2002-09-06 08:00;METAR CYQB 060800Z 27006KT 15SM FEW040 10/06 A3006 RMK CF1 SLP179
CYQB;2002-09-06 09:00;METAR CYQB 060900Z 29009KT 15SM FEW040 10/06 A3007 RMK CF1 SLP185
CYQB;2002-09-06 10:00;METAR CYQB 061000Z 26009KT 15SM FEW070 08/05 A3009 RMK AC1 SLP192
CYQB;2002-09-06 11:00;METAR CYQB 061100Z 26008KT 30SM FEW100 08/06 A3012 RMK AC2 SLP200
CYQB;2002-09-06 12:00;METAR CYQB 061200Z 25009KT 30SM FEW030 FEW200 11/07 A3014 RMK CF1CI1 SLP207
CYQB;2002-09-06 13:00;METAR CYQB 061300Z 26010KT 30SM FEW210 13/07 A3015 RMK CI1 SLP210
CYQB;2002-09-06 14:00;METAR CYQB 061400Z 27013KT 30SM FEW210 16/07 A3014 RMK CI1 SLP207
CYQB;2002-09-06 15:00;METAR CYQB 061500Z 27008KT 30SM FEW210 18/06 A3012 RMK CI1 SLP201
CYQB;2002-09-06 16:00;METAR CYQB 061600Z 24012G20KT 30SM SKC 20/06 A3010 RMK SLP193
CYQB;2002-09-06 17:00;METAR CYQB 061700Z 25015G20KT 30SM SKC 21/07 A3009 RMK SLP190
CYQB;2002-09-06 18:00;METAR CYQB 061800Z 23015G22KT 30SM SKC 21/08 A3007 RMK SLP184
CYQB;2002-09-06 19:00;METAR CYQB 061900Z 23016KT 30SM FEW220 22/08 A3007 RMK CI1 SLP183
CYQB;2002-09-06 20:00;METAR CYQB 062000Z 24018KT 30SM FEW220 22/08 A3007 RMK CI1 SLP184
CYQB;2002-09-06 21:00;METAR CYQB 062100Z 23013G18KT 30SM FEW220 21/08 A3006 RMK CI1 SLP181
CYQB;2002-09-06 22:00;METAR CYQB 062200Z 24013KT 30SM FEW120 21/09 A3007 RMK AC2 SLP184
CYQB;2002-09-06 23:00;METAR CYQB 062300Z 25008KT 30SM FEW120 20/10 A3007 RMK AC1 SLP185
CYQB;2002-09-07 00:00;METAR CYQB 070000Z 00000KT 30SM FEW063 BKN110 18/10 A3009 RMK SC2AC5 SLP190
CYQB;2002-09-07 01:00;METAR CYQB 070100Z 25007KT 15SM BKN059 19/11 A3008 RMK SC7 SLP189
CYQB;2002-09-07 02:00;METAR CYQB 070200Z 25009KT 15SM OVC054 19/11 A3011 RMK SC8 SLP196
CYQB;2002-09-07 03:00;METAR CYQB 070300Z 26009KT 15SM OVC052 19/11 A3012 RMK SC8 SLP199
CYQB;2002-09-07 04:00;METAR CYQB 070400Z 24009KT 15SM OVC060 19/11 A3011 RMK SC8 SLP196
CYQB;2002-09-07 05:00;METAR CYQB 070500Z 25009KT 15SM OVC062 19/12 A3011 RMK SC8 SLP198
CYQB;2002-09-07 06:00;METAR CYQB 070600Z 25011KT 15SM OVC062 18/12 A3012 RMK SC8 SLP201
CYQB;2002-09-07 07:00;METAR CYQB 070700Z 24007KT 15SM OVC064 18/13 A3013 RMK SC8 SLP203
CYQB;2002-09-07 08:00;METAR CYQB 070800Z 24007KT 15SM OVC065 18/14 A3014 RMK SC8 SLP205
CYQB;2002-09-07 09:00;METAR CYQB 070900Z 23007KT 15SM OVC074 18/13 A3015 RMK AC8 SLP211
CYQB;2002-09-07 10:00;METAR CYQB 071000Z 25010KT 30SM OVC076 18/12 A3017 RMK AC7 SLP218
CYQB;2002-09-07 11:00;METAR CYQB 071100Z 25008KT 30SM BKN074 17/13 A3020 RMK AC6 SLP227
CYQB;2002-09-07 12:00;METAR CYQB 071200Z 25007KT 30SM BKN082 18/13 A3021 RMK AC5 SLP232
CYQB;2002-09-07 13:00;METAR CYQB 071300Z 23009KT 30SM FEW042 SCT082 20/14 A3022 RMK CU1AC2 SLP235
CYQB;2002-09-07 14:00;METAR CYQB 071400Z 22007KT 30SM BKN057 20/14 A3022 RMK SC6 SLP236
CYQB;2002-09-07 15:00;METAR CYQB 071500Z 25006KT 30SM BKN062 21/15 A3022 RMK SC6 SLP235
CYQB;2002-09-07 16:00;METAR CYQB 071600Z 23010G15KT 30SM FEW062 BKN072 24/16 A3021 RMK SC2AC4 SLP229
CYQB;2002-09-07 17:00;METAR CYQB 071700Z 22012G17KT 30SM FEW060 BKN070 25/16 A3020 RMK CU2AC3 SLP228
CYQB;2002-09-07 18:00;METAR CYQB 071800Z 24014KT 30SM FEW060 FEW070 FEW210 27/17 A3018 RMK CU1AC1CI1 SLP221 SLP221
CYQB;2002-09-07 19:00;METAR CYQB 071900Z 22012G17KT 30SM FEW050 FEW210 28/17 A3017 RMK CU1CI1 SLP218
CYQB;2002-09-07 20:00;METAR CYQB 072000Z 26013KT 30SM FEW050 FEW210 28/17 A3017 RMK CU1CI0 SLP215
CYQB;2002-09-07 21:00;METAR CYQB 072100Z 25010KT 30SM FEW050 FEW210 28/17 A3017 RMK CU1CI0
CYQB;2002-09-07 22:00;METAR CYQB 072200Z 23010KT 30SM FEW050 FEW210 27/16 A3017 RMK CU1CI1 SLP217
CYQB;2002-09-07 23:00;METAR CYQB 072300Z 06008KT 30SM SCT210 20/15 A3018 RMK CI1 SLP220
CYQB;2002-09-08 00:00;METAR CYQB 080000Z 07006KT 30SM FEW210 18/15 A3020 RMK CI1 SLP227
CYQB;2002-09-08 01:00;METAR CYQB 080100Z 06005KT 15SM SKC 17/14 A3020 RMK SLP227
CYQB;2002-09-08 02:00;METAR CYQB 080200Z 08004KT 15SM SKC 16/14 A3019 RMK SLP223
CYQB;2002-09-08 03:00;METAR CYQB 080300Z 05003KT 15SM SKC 16/14 A3018 RMK SLP221
CYQB;2002-09-08 04:00;METAR CYQB 080400Z 36003KT 15SM SKC 16/14 A3018 RMK SLP221
CYQB;2002-09-08 05:00;METAR CYQB 080500Z 00000KT 15SM SCT240 14/13 A3017 RMK CI2 SLP218
CYQB;2002-09-08 06:00;METAR CYQB 080600Z 00000KT 15SM SCT240 13/12 A3016 RMK CI1 SLP213
CYQB;2002-09-08 07:00;METAR CYQB 080700Z 00000KT 15SM FEW240 13/12 A3017 RMK CI0 SLP216
CYQB;2002-09-08 08:00;METAR CYQB 080800Z 30002KT 15SM BKN180 14/13 A3015 RMK AC5 SLP211
CYQB;2002-09-08 09:00;METAR CYQB 080900Z 24007KT 15SM BKN160 16/15 A3014 RMK AC6 SLP205
CYQB;2002-09-08 10:00;METAR CYQB 081000Z 25011KT 15SM BKN160 17/15 A3014 RMK AC7 SLP206
CYQB;2002-09-08 11:00;METAR CYQB 081100Z 26014KT 20SM FEW040 BKN160 BKN220 17/15 A3013 RMK SC1AC6CI1 SLP204 SLP204
CYQB;2002-09-08 12:00;METAR CYQB 081200Z 25009KT 20SM FEW180 BKN200 18/15 A3014 RMK AC2CC4 SLP205
CYQB;2002-09-08 13:00;METAR CYQB 081300Z 26010KT 20SM SCT160 BKN200 19/15 A3013 RMK AC4CC2 SLP202
CYQB;2002-09-08 14:00;METAR CYQB 081400Z 26012KT 25SM SCT080 SCT220 21/16 A3011 RMK AC3CI0 SLP197
CYQB;2002-09-08 15:00;METAR CYQB 081500Z 25015G20KT 25SM FEW090 SCT190 25/16 A3008 RMK AC2CI2 SLP186
CYQB;2002-09-08 16:00;METAR CYQB 081600Z 29014KT 30SM FEW060 BKN090 27/16 A3007 RMK SC2AC3 SLP184
CYQB;2002-09-08 17:00;METAR CYQB 081700Z 25013G18KT 30SM BKN060 BKN160 OVC300 26/16 A3006 RMK SC5AC2CS0 SLP181 SLP181
CYQB;2002-09-08 18:00;METAR CYQB 081800Z 25015KT 30SM BKN060 BKN140 OVC240 27/17 A3005 RMK SC5AC2CI0 SLP176 SLP176
CYQB;2002-09-08 19:00;METAR CYQB 081900Z 26016KT 30SM BKN060 BKN140 BKN240 29/17 A3004 RMK SC5AC2CI0 SLP174 SLP174
CYQB;2002-09-08 20:00;METAR CYQB 082000Z 24009G15KT 30SM FEW060 FEW140 SCT240 30/18 A3002 RMK SC2AC1CI1 SLP166 SLP166
CYQB;2002-09-08 21:00;METAR CYQB 082100Z 24011G17KT 30SM FEW060 BKN210 29/18 A3001 RMK SC2CI2 SLP161
CYQB;2002-09-08 22:00;METAR CYQB 082200Z 25011KT 30SM FEW060 BKN210 29/19 A3000 RMK SC2CI1 SLP159
CYQB;2002-09-08 23:00;METAR CYQB 082300Z 25008KT 30SM FEW060 BKN210 27/19 A3000 RMK SC1CI6
CYQB;2002-09-09 00:00;METAR CYQB 090000Z 24009KT 15SM FEW060 SCT200 26/19 A3001 RMK SC1CI2 SLP161
CYQB;2002-09-09 01:00;METAR CYQB 090100Z 22009KT 15SM FEW200 25/19 A3001 RMK CI2 SLP162
CYQB;2002-09-09 02:00;METAR CYQB 090200Z 23009KT 15SM BKN160 25/19 A3001 RMK AC5 SLP162
CYQB;2002-09-09 03:00;METAR CYQB 090300Z 24008KT 15SM BKN160 25/19 A3000 RMK AC6 SLP160
CYQB;2002-09-09 04:00;METAR CYQB 090400Z 25007KT 15SM SCT160 BKN240 24/20 A3000 RMK AC3CI3 SLP158
CYQB;2002-09-09 05:00;METAR CYQB 090500Z 24003KT 15SM FEW160 BKN240 23/19 A3001 RMK AC2CI5 SLP162
CYQB;2002-09-09 06:00;METAR CYQB 090600Z 26008KT 15SM BKN240 23/19 A3002 RMK CI6 SLP165
CYQB;2002-09-09 07:00;METAR CYQB 090700Z 23008KT 15SM BKN240 23/19 A3002 RMK CI6 SLP166
CYQB;2002-09-09 08:00;METAR CYQB 090800Z 05005KT 15SM SCT240 18/16 A3003 RMK CI4 SLP169
CYQB;2002-09-09 09:00;METAR CYQB 090900Z 06002KT 15SM BKN220 17/16 A3002 RMK CI5 SLP166
CYQB;2002-09-09 10:00;METAR CYQB 091000Z 04003KT 15SM FEW150 SCT220 16/15 A3003 RMK AC2CI1 SLP168
CYQB;2002-09-09 11:00;METAR CYQB 091100Z 20002KT 20SM FEW220 16/15 A3003 RMK CI1 SLP169
CYQB;2002-09-09 12:00;METAR CYQB 091200Z 24009KT 15SM FEW220 21/18 A3003 RMK CI1 SLP168
CYQB;2002-09-09 13:00;METAR CYQB 091300Z 23012KT 10SM FEW220 23/18 A3002 RMK CI1 SLP166
CYQB;2002-09-09 14:00;METAR CYQB 091400Z 24014KT 10SM FEW220 25/19 A3001 RMK CI1 SLP162
CYQB;2002-09-09 15:00;METAR CYQB 091500Z 22011KT 10SM FEW220 27/19 A3000 RMK CI1 SLP159
CYQB;2002-09-09 16:00;METAR CYQB 091600Z 25011KT 10SM FEW220 29/20 A2998 RMK CI1 SLP151
CYQB;2002-09-09 17:00;METAR CYQB 091700Z 24011G16KT 15SM FEW220 31/20 A2995 RMK CI1 SLP141
CYQB;2002-09-09 18:00;METAR CYQB 091800Z 22015G20KT 15SM SKC 32/19 A2992 RMK SLP131
CYQB;2002-09-09 19:00;METAR CYQB 091900Z 23018G24KT 15SM SKC 33/18 A2990 RMK SLP125
CYQB;2002-09-09 20:00;METAR CYQB 092000Z 23015G22KT 15SM SKC 33/18 A2989 RMK SLP119
CYQB;2002-09-09 21:00;METAR CYQB 092100Z 25015G21KT 15SM SKC 33/18 A2987 RMK SLP116
CYQB;2002-09-09 22:00;METAR CYQB 092200Z 25011G19KT 15SM SKC 31/17 A2987 RMK SLP115
CYQB;2002-09-09 23:00;METAR CYQB 092300Z 24008KT 15SM SKC 29/17 A2986 RMK SLP113
CYQB;2002-09-10 00:00;METAR CYQB 100000Z 24007KT 15SM SKC 27/17 A2986 RMK SLP111
CYQB;2002-09-10 01:00;METAR CYQB 100100Z 26007KT 15SM SKC 25/17 A2985 RMK SLP108
CYQB;2002-09-10 02:00;METAR CYQB 100200Z 24011KT 15SM SKC 25/17 A2985 RMK SLP107
CYQB;2002-09-10 03:00;METAR CYQB 100300Z 27005KT 15SM SKC 23/18 A2985 RMK SLP107
CYQB;2002-09-10 04:00;METAR CYQB 100400Z 24007KT 15SM SKC 23/18 A2984 RMK SLP104
CYQB;2002-09-10 05:00;METAR CYQB 100500Z 26005KT 15SM SKC 21/18 A2984 RMK SLP105
CYQB;2002-09-10 06:00;METAR CYQB 100600Z 24008KT 15SM SKC 21/18 A2983 RMK SLP102
CYQB;2002-09-10 07:00;METAR CYQB 100700Z 26009KT 15SM SKC 20/17 A2982 RMK SLP098
CYQB;2002-09-10 08:00;METAR CYQB 100800Z 23009KT 15SM SKC 19/17 A2981 RMK SLP093
CYQB;2002-09-10 09:00;METAR CYQB 100900Z 23008KT 15SM SKC 19/17 A2980 RMK SLP091
CYQB;2002-09-10 10:00;METAR CYQB 101000Z 26011KT 12SM FEW240 18/17 A2979 RMK CI1 SLP088
CYQB;2002-09-10 11:00;METAR CYQB 101100Z 25010KT 10SM FEW160 FEW240 18/17 A2979 RMK AC1CI1 SLP088
CYQB;2002-09-10 12:00;METAR CYQB 101200Z 25009KT 3SM HZ SKC 20/17 A2978 RMK SLP083
CYQB;2002-09-10 13:00;METAR CYQB 101300Z 24013KT 3SM HZ SKC 22/18 A2977 RMK SLP079
CYQB;2002-09-10 14:00;METAR CYQB 101400Z 25009KT 4SM HZ SKC 24/18 A2976 RMK SLP076
CYQB;2002-09-10 15:00;METAR CYQB 101500Z 23009KT 6SM HZ SKC 26/18 A2973 RMK SLP068
CYQB;2002-09-10 17:00;METAR CYQB 101700Z 26015G20KT 8SM SKC 29/18 A2967 RMK HAZY SLP046
CYQB;2002-09-10 16:00;METAR CYQB 101600Z 22008KT 6SM HZ SKC 27/18 A2970 RMK SLP057
CYQB;2002-09-10 18:00;METAR CYQB 101800Z 24014G19KT 6SM HZ FEW100 31/17 A2962 RMK AC1 SLP031
CYQB;2002-09-10 19:00;METAR CYQB 101900Z 23018KT 6SM HZ FEW040 31/18 A2959 RMK CU1 TCU N SLP020
CYQB;2002-09-10 20:00;METAR CYQB 102000Z 24012G18KT 6SM HZ FEW035 31/14 A2956 RMK CU1 TCU N SLP008
CYQB;2002-09-10 21:00;METAR CYQB 102100Z 24008G16KT 6SM HZ SCT060TCU BKN150 30/17 A2954 RMK TCU3AC2 SHWRS N SLP002 SHWRS N SLP002
CYQB;2002-09-10 22:00;METAR CYQB 102200Z 36011KT 8SM TS SCT040CB BKN070 24/19 A2954 RMK CB4AC3 LTGCG W SLP003 SLP003
CYQB;2002-09-10 23:00;METAR CYQB 102300Z 01006KT 8SM FEW050TCU OVC100 22/19 A2951 RETS RMK TCU2AC6 SLP993 SLP993
CYQB;2002-09-11 00:00;METAR CYQB 110000Z 35009KT 8SM TS OVC052CB 23/19 A2952 RMK CB8 LTGCG SLP995
CYQB;2002-09-11 01:00;METAR CYQB 110100Z 07011KT 2SM -TSRA BR OVC010CB 20/20 A2952 RMK CB8 LTGCG SLP996
CYQB;2002-09-11 02:00;METAR CYQB 110200Z 09011G16KT 4SM -SHRA BR BKN005 OVC009 18/18 A2952 RMK SF6SF2 RETS SLP997 RETS SLP997
CYQB;2002-09-11 03:00;METAR CYQB 110300Z 09015G20KT 10SM -SHRA BKN006 OVC083 17/16 A2950 RMK SF5AC3 SLP989 SLP989
CYQB;2002-09-11 04:00;METAR CYQB 110400Z 07012G20KT 12SM FEW007 SCT030 BKN070 OVC140 17/15 A2948 RMK SF2SC2AC3AC1 SLP984 SF2SC2AC3AC1 SLP984
CYQB;2002-09-11 05:00;METAR CYQB 110500Z 09009G15KT 12SM FEW030 OVC058 16/13 A2948 RMK SC2SC6 SLP982
CYQB;2002-09-11 06:00;METAR CYQB 110600Z 09012G17KT 12SM -RA BKN030 OVC045 16/12 A2945 RMK SC5SC3 PRESFR SLP973
CYQB;2002-09-11 07:00;METAR CYQB 110700Z 09014G20KT 15SM OVC038 16/12 A2942 RMK SC8 SLP963
CYQB;2002-09-11 08:00;METAR CYQB 110800Z 08013G24KT 12SM -SHRA BKN023 OVC038 15/12 A2942 RMK SC5SC3 SLP961 SLP961
CYQB;2002-09-11 09:00;METAR CYQB 110900Z 07015G24KT 6SM -SHRA BKN015 OVC022 14/13 A2941 RMK SC5SC3 SLP958 SLP958
CYQB;2002-09-11 10:00;METAR CYQB 111000Z 08013G19KT 3SM SHRA BR FEW004 BKN009 OVC030 13/13 A2942 RMK SF2SF6SC1 SLP962 SF2SF6SC1 SLP962
CYQB;2002-09-11 11:00;METAR CYQB 111100Z 08013G22KT 4SM -SHRA BR FEW005 BKN009 OVC033 13/12 A2941 RERA RMK CF1CF4SC3 SLP960 RMK CF1CF4SC3 SLP960
CYQB;2002-09-11 12:00;METAR CYQB 111200Z 06019G27KT 6SM -RA BR BKN008 OVC016 13/12 A2940 RMK SF4NS4 SLP956 SLP956
CYQB;2002-09-11 13:00;METAR CYQB 111300Z 06013G22KT 3SM RA BR BKN006 OVC015 12/12 A2941 RMK SF4NS4 SLP959 SLP959
CYQB;2002-09-11 14:00;METAR CYQB 111400Z 05008KT 6SM -RA BR SCT008 OVC059 12/11 A2945 RMK SF2SC6 SLP971
CYQB;2002-09-11 15:00;METAR CYQB 111500Z 05010KT 6SM RA BR SCT008 OVC040 12/11 A2944 RMK SF2SC6 SLP969
CYQB;2002-09-11 16:00;METAR CYQB 111600Z 08005KT 8SM -RA SCT008 OVC042 12/12 A2945 RMK SF2SC6 SLP974
CYQB;2002-09-11 17:00;METAR CYQB 111700Z 07004KT 6SM -RA BR SCT009 OVC040 12/12 A2947 RMK SF2SC6 SLP980
CYQB;2002-09-11 18:00;METAR CYQB 111800Z 03008KT 10SM -RA FEW010 OVC055 12/11 A2948 RMK SF2SC6 SLP983
CYQB;2002-09-11 19:00;METAR CYQB 111900Z 04010KT 8SM -RA FEW010 SCT035 OVC056 12/10 A2950 RMK SF2SC2SC4 OCNL R SLP990 OCNL R SLP990
CYQB;2002-09-11 20:00;METAR CYQB 112000Z 05004KT 8SM -RA FEW010 OVC040 11/10 A2951 RMK SF2SC6
CYQB;2002-09-11 21:00;METAR CYQB 112100Z 22002KT 10SM -RA OVC053 11/11 A2955 RMK SC8 SLP007
CYQB;2002-09-11 22:00;METAR CYQB 112200Z 15004KT 10SM -RA OVC048 11/11 A2957 RMK SC8 SLP014
CYQB;2002-09-11 23:00;METAR CYQB 112300Z 20002KT 12SM FEW015 BKN060 11/11 A2960 RMK SF2SC4 SLP023
CYQB;2002-09-12 00:00;METAR CYQB 120000Z 24003KT 12SM FEW015 BKN044 11/11 A2962 RMK SF2SC4 SLP032
CYQB;2002-09-12 01:00;METAR CYQB 120100Z 32008KT 15SM SCT044 BKN062 11/10 A2962 RMK SC4SC2
CYQB;2002-09-12 02:00;METAR CYQB 120200Z 34014KT 15SM SCT044 BKN230 11/08 A2963 RMK SC3CI2 SLP035
CYQB;2002-09-12 03:00;METAR CYQB 120300Z 34009KT 15SM FEW044 BKN230 11/07 A2963 RMK SC2CI2
CYQB;2002-09-12 04:00;METAR CYQB 120400Z 34012G17KT 15SM FEW080 BKN230 11/06 A2964 RMK AC2CI3 SLP038
CYQB;2002-09-12 05:00;METAR CYQB 120500Z 34018G26KT 15SM FEW080 BKN230 10/06 A2964 RMK AC2CI2
CYQB;2002-09-12 06:00;METAR CYQB 120600Z 34018G25KT 15SM FEW080 BKN230 10/05 A2966 RMK AC2CI2 SLP046
CYQB;2002-09-12 07:00;METAR CYQB 120700Z 32011KT 15SM FEW080 FEW240 08/04 A2970 RMK AC1CI1 SLP058
CYQB;2002-09-12 08:00;METAR CYQB 120800Z 29009KT 15SM FEW240 07/04 A2972 RMK CI1 SLP065
CYQB;2002-09-12 09:00;METAR CYQB 120900Z 27010KT 15SM FEW240 06/04 A2974 RMK CI1 SLP072
CYQB;2002-09-12 10:00;METAR CYQB 121000Z 30006KT 15SM FEW240 06/03 A2976 RMK CI1 SLP079
CYQB;2002-09-12 11:00;METAR CYQB 121100Z 28008KT 30SM FEW015 FEW240 07/03 A2979 RMK CF1CI1 SLP089
CYQB;2002-09-12 12:00;METAR CYQB 121200Z 29004KT 30SM FEW015 08/04 A2981 RMK CF1 SLP097
CYQB;2002-09-12 13:00;METAR CYQB 121300Z 36012G20KT 30SM FEW015 10/03 A2983 RMK CF1 SLP104
CYQB;2002-09-12 14:00;METAR CYQB 121400Z 34009KT 30SM FEW015 FEW042 11/03 A2985 RMK CF1SC1 SLP110
CYQB;2002-09-12 15:00;METAR CYQB 121500Z 35007KT 30SM FEW044 12/03 A2984 RMK CF1 SLP108
CYQB;2002-09-12 16:00;METAR CYQB 121600Z 30015KT 30SM FEW044 14/03 A2984 RMK CF1 SLP108
CYQB;2002-09-12 17:00;METAR CYQB 121700Z 32010G15KT 30SM FEW048 15/03 A2984 RMK CF1 SLP108
CYQB;2002-09-12 18:00;METAR CYQB 121800Z 30011G17KT 30SM FEW048 FEW250 16/02 A2983 RMK CF1CI0 SLP101
CYQB;2002-09-12 19:00;METAR CYQB 121900Z 29016G22KT 30SM FEW060 FEW250 17/02 A2983 RMK CF1CI0
CYQB;2002-09-12 20:00;METAR CYQB 122000Z 24014G19KT 30SM FEW060 FEW250 17/02 A2983 RMK CF1CI0 SLP103
CYQB;2002-09-12 21:00;METAR CYQB 122100Z 29012G17KT 30SM FEW060 FEW250 17/02 A2983 RMK SC1CI0
CYQB;2002-09-12 22:00;METAR CYQB 122200Z 28011KT 30SM FEW250 17/02 A2983 RMK CI0 SLP104
CYQB;2002-09-12 23:00;METAR CYQB 122300Z 29006KT 30SM FEW250 12/04 A2983 RMK CI1 SLP104
CYQB;2002-09-13 00:00;METAR CYQB 130000Z 27004KT 15SM FEW250 11/05 A2984 RMK CI1 SLP107
CYQB;2002-09-13 01:00;METAR CYQB 130100Z 27007KT 15SM FEW250 10/05 A2984 RMK CI1 SLP106
CYQB;2002-09-13 02:00;METAR CYQB 130200Z 26005KT 15SM SKC 10/06 A2983 RMK SLP104
CYQB;2002-09-13 03:00;METAR CYQB 130300Z 26004KT 15SM SCT120 10/07 A2983 RMK AC4 SLP102
CYQB;2002-09-13 04:00;METAR CYQB 130400Z 00000KT 15SM BKN080 BKN220 11/07 A2982 RMK AC6CI1 SLP100
CYQB;2002-09-13 05:00;METAR CYQB 130500Z 21003KT 15SM SCT023 BKN090 10/08 A2979 RMK SC3AC3 SLP089
CYQB;2002-09-13 06:00;METAR CYQB 130600Z 36003KT 15SM SCT023 BKN060 OVC200 12/08 A2977 RMK SC3SC3CI1 SLP083 SLP083
CYQB;2002-09-13 07:00;METAR CYQB 130700Z 25008KT 10SM -SHRA FEW020 OVC051 11/11 A2975 RMK SC2SC6 SLP075
CYQB;2002-09-13 08:00;METAR CYQB 130800Z 24011G16KT 12SM -SHRA FEW016 BKN021 OVC050 12/12 A2972 RMK CF2SC6SC1 SLP065 CF2SC6SC1 SLP065
CYQB;2002-09-13 09:00;METAR CYQB 130900Z 24011G16KT 15SM -SHRA FEW016 BKN020 OVC040 12/12 A2968 RMK CF2SC5SC2 SLP052 CF2SC5SC2 SLP052
CYQB;2002-09-13 10:00;METAR CYQB 131000Z 24013G19KT 5SM SHRA BR FEW017 OVC020 12/12 A2967 RMK CF2SC6 LTG N SLP050 LTG N SLP050
CYQB;2002-09-13 11:00;METAR CYQB 131100Z 25014KT 5SM -SHRA BR FEW008 OVC013 13/13 A2970 SLP058
CYQB;2002-09-13 12:00;METAR CYQB 131200Z 25018G24KT 7SM -SHRA BKN009 OVC080 14/14 A2969 RMK SF6AC2 SLP056 SLP056
CYQB;2002-09-13 13:00;METAR CYQB 131300Z 26016KT 10SM FEW009 BKN013 15/15 A2972 RMK SF2SC5 SLP066
CYQB;2002-09-13 14:00;METAR CYQB 131400Z 27013G18KT 25SM FEW015 BKN030 BKN100 16/15 A2975 RMK SC2SC4AC1 SLP076 SLP076
CYQB;2002-09-13 15:00;METAR CYQB 131500Z 29015G22KT 30SM FEW025 FEW070 18/15 A2974 RMK SC2AC1 SLP072
CYQB;2002-09-13 16:00;METAR CYQB 131600Z 29021G28KT 30SM BKN040 BKN090 20/13 A2975 RMK SC5AC1 TCU ASOCTD SLP076
CYQB;2002-09-13 17:00;METAR CYQB 131700Z 28023G30KT 30SM FEW040TCU 20/11 A2976 RMK TCU2 SLP078
CYQB;2002-09-13 18:00;METAR CYQB 131800Z 30023G32KT 30SM FEW050 22/10 A2978 RMK CU2 SLP083
CYQB;2002-09-13 19:00;METAR CYQB 131900Z 31017G26KT 30SM FEW060 21/10 A2980 RMK CU2 SLP091
CYQB;2002-09-13 20:00;METAR CYQB 132000Z 29019G27KT 30SM FEW060 FEW200 21/08 A2983 RMK CU1CI1
CYQB;2002-09-13 21:00;METAR CYQB 132100Z 31013KT 30SM FEW060 FEW200 20/08 A2986 RMK CU1CI1 CI TR SLP112
CYQB;2002-09-13 22:00;METAR CYQB 132200Z 31013G18KT 30SM FEW060 FEW200 19/07 A2989 RMK CU1CI1 SLP123
CYQB;2002-09-13 23:00;METAR CYQB 132300Z 30008KT 30SM FEW200 16/06 A2992 RMK CI1 SLP133
CYQB;2002-09-14 00:00;METAR CYQB 140000Z 22006KT 30SM FEW200 14/07 A2996 RMK CI1 SLP148
CYQB;2002-09-14 01:00;METAR CYQB 140100Z 25005KT 30SM FEW200 16/06 A3000 RMK CI0 SLP160
CYQB;2002-09-14 02:00;METAR CYQB 140200Z 27003KT 30SM FEW200 14/05 A3003 RMK CI0 SLP172
CYQB;2002-09-14 03:00;METAR CYQB 140300Z 31006KT 30SM FEW200 12/05 A3005 RMK CI0 SLP177
CYQB;2002-09-14 04:00;METAR CYQB 140400Z 31006KT 15SM FEW200 10/05 A3006 RMK CI0 SLP182
CYQB;2002-09-14 05:00;METAR CYQB 140500Z 36004KT 15SM SKC 10/05 A3009 RMK SLP191
CYQB;2002-09-14 06:00;METAR CYQB 140600Z 35007KT 15SM SKC 09/04 A3010 RMK SLP195
CYQB;2002-09-14 07:00;METAR CYQB 140700Z 35007KT 15SM SKC 08/04 A3012 RMK SLP201
CYQB;2002-09-14 08:00;METAR CYQB 140800Z 01005KT 15SM FEW220 07/04 A3014 RMK CI0 SLP209
CYQB;2002-09-14 09:00;METAR CYQB 140900Z 01005KT 15SM FEW220 07/04 A3017 RMK CI0 SLP216
CYQB;2002-09-14 10:00;METAR CYQB 141000Z 03006KT 15SM FEW220 06/04 A3019 RMK CI1 SLP223
CYQB;2002-09-14 11:00;METAR CYQB 141100Z 02005KT 30SM FEW010 BKN220 06/04 A3020 RMK CF1CI2 SLP229
CYQB;2002-09-14 12:00;METAR CYQB 141200Z 02003KT 30SM BKN250 07/05 A3022 RMK CI2 SLP234
CYQB;2002-09-14 13:00;METAR CYQB 141300Z 07007KT 30SM BKN250 11/08 A3022 RMK CI2 SLP236
CYQB;2002-09-14 14:00;METAR CYQB 141400Z 08010KT 30SM BKN250 14/06 A3020 RMK CI2 SLP229
CYQB;2002-09-14 15:00;METAR CYQB 141500Z 07008KT 30SM BKN220 15/07 A3019 RMK CI5 SLP223
CYQB;2002-09-14 16:00;METAR CYQB 141600Z 07007KT 30SM FEW150 BKN250 16/08 A3016 RMK AC2CI5 SLP213
CYQB;2002-09-14 17:00;METAR CYQB 141700Z 05007KT 30SM FEW150 BKN200 OVC250 16/08 A3014 RMK AC2CI6CI1 SLP206 SLP206
CYQB;2002-09-14 18:00;METAR CYQB 141800Z 06008KT 30SM FEW080 FEW150 OVC250 18/08 A3010 RMK AC2AC1CI4 SLP194 SLP194
CYQB;2002-09-14 19:00;METAR CYQB 141900Z 07009KT 30SM FEW080 FEW150 BKN250 19/09 A3006 RMK AC1AC2CI2 SLP182 SLP182
CYQB;2002-09-14 20:00;METAR CYQB 142000Z 07007KT 30SM BKN065 BKN150 BKN250 19/09 A3005 RMK AC5AC1CI1 SLP178 SLP178
CYQB;2002-09-14 21:00;METAR CYQB 142100Z 08005KT 30SM BKN064 BKN150 19/09 A3003 RMK AC6AC2 SLP170
CYQB;2002-09-14 22:00;METAR CYQB 142200Z 07006KT 30SM FEW030 BKN070 BKN250 18/11 A3001 RMK CU1AC5CI2 SLP164 SLP164
CYQB;2002-09-14 23:00;METAR CYQB 142300Z 07006KT 30SM FEW030 SCT070 BKN250 17/13 A3000 RMK CU2AC2CI2 SLP159 SLP159
CYQB;2002-09-15 00:00;METAR CYQB 150000Z 07007KT 15SM SCT030 BKN070 16/12 A2999 RMK CU3AC3 SLP156
CYQB;2002-09-15 01:00;METAR CYQB 150100Z 06008KT 15SM FEW030 BKN130 16/12 A2997 RMK CU2AC4 SLP150
CYQB;2002-09-15 02:00;METAR CYQB 150200Z 07009KT 15SM FEW030 BKN100 16/13 A2996 RMK CU1AC5 SLP146
CYQB;2002-09-15 03:00;METAR CYQB 150300Z 08005KT 15SM -SHRA BKN072 OVC140 17/13 A2995 RMK AC5AC2 SLP143
CYQB;2002-09-15 04:00;METAR CYQB 150400Z 07006KT 15SM BKN057 BKN080 16/14 A2993 RMK SC6AC2 SLP135
CYQB;2002-09-15 05:00;METAR CYQB 150500Z 06005KT 15SM BKN054 BKN080 16/15 A2991 RMK SC6AC2 SLP128
CYQB;2002-09-15 06:00;METAR CYQB 150600Z 36003KT 15SM OVC050 17/15 A2990 RMK SC8 SLP126
CYQB;2002-09-15 07:00;METAR CYQB 150700Z 34003KT 15SM OVC040 16/15 A2988 RMK SC8 SLP119 EMBDD LTGIC DSNT S-SW SLP117
CYQB;2002-09-15 09:00;METAR CYQB 150900Z 25010KT 3SM -SHRA FEW008 OVC010 18/18 A2988 RMK SC2SC6 TCU EMBDD SLP120 EMBDD SLP120
CYQB;2002-09-15 10:00;METAR CYQB 151000Z 23007KT 2SM -SHRA BR OVC008 18/18 A2987 RMK SF8 SLP116
CYQB;2002-09-15 11:00;METAR CYQB 151100Z 22010G15KT 1SM R06/P6000FT/N -SHRA BR BKN004 OVC011 19/19 A2987 RMK SF6SC2 RERA SLP117 A2987 RMK SF6SC2 RERA SLP117
CYQB;2002-09-15 12:00;METAR CYQB 151200Z 23011G17KT 3SM BR FEW008 BKN011 OVC022 19/19 A2988 RMK SF2SC5SC1 SLP120
CYQB;2002-09-15 13:00;METAR CYQB 151300Z 26013KT 3SM -SHRA BR SCT006 BKN020 OVC080 19/18 A2991 RMK SF3SC2AC3 PCPN VRY LGT SLP130 SF3SC2AC3 PCPN VRY LGT SLP130
CYQB;2002-09-15 15:00;METAR CYQB 151500Z 33013G20KT 10SM FEW007 SCT030 BKN100 16/14 A2996 RMK SF2SC2AC4 SLP145 SLP145
CYQB;2002-09-15 16:00;METAR CYQB 151600Z 36013G21KT 15SM FEW030 BKN110 BKN200 18/12 A2997 RMK SC2AC3CI0 SLP151 SLP151
CYQB;2002-09-15 17:00;METAR CYQB 151700Z 32004KT 15SM FEW060 FEW140 BKN200 20/12 A3000 RMK SC1AC2CI0 SLP160 SLP160
CYQB;2002-09-15 18:00;METAR CYQB 151800Z 32011KT 15SM FEW040 BKN200 20/12 A3001 RMK SC2CI1 SLP163
CYQB;2002-09-15 19:00;METAR CYQB 151900Z 36011G16KT 15SM FEW040 BKN200 19/10 A3003 RMK SC1CI1 SLP168
CYQB;2002-09-15 20:00;METAR CYQB 152000Z 35007KT 15SM FEW040 BKN200 18/09 A3004 RMK SC1CI5 SLP174
CYQB;2002-09-15 21:00;METAR CYQB 152100Z 36007KT 15SM FEW040 BKN200 19/09 A3006 RMK SC1CI5 SLP180
CYQB;2002-09-15 22:00;METAR CYQB 152200Z 35007KT 15SM FEW040 BKN200 18/10 A3007 RMK SC2CI2 SLP184
CYQB;2002-09-15 23:00;METAR CYQB 152300Z 35004KT 15SM FEW038 BKN200 16/09 A3010 RMK SC2CI2 SLP192
CYQB;2002-09-16 00:00;METAR CYQB 160000Z 35005KT 15SM FEW038 BKN200 14/09 A3011 RMK SC2CI2 SLP196
CYQB;2002-09-16 01:00;METAR CYQB 160100Z 35007KT 15SM FEW038 BKN200 13/08 A3011 RMK SC1CI2 SLP195
CYQB;2002-09-16 02:00;METAR CYQB 160200Z 36009KT 15SM BKN200 12/08 A3011 RMK CI2 SLP198
CYQB;2002-09-16 03:00;METAR CYQB 160300Z 02006KT 15SM BKN200 11/08 A3011 RMK CI2 SLP197
CYQB;2002-09-16 04:00;METAR CYQB 160400Z 02005KT 15SM FEW120 BKN200 11/08 A3010 RMK AC1CI1
CYQB;2002-09-16 06:00;METAR CYQB 160600Z 04004KT 15SM FEW045 BKN200 11/06 A3009 RMK SC2CI2 SLP191
CYQB;2002-09-16 07:00;METAR CYQB 160700Z 06011KT 15SM BKN045 11/05 A3009 RMK SC6 SLP190
CYQB;2002-09-16 08:00;METAR CYQB 160800Z 07010G16KT 15SM BKN045 BKN200 11/07 A3008 RMK SC6CI0 SLP187
CYQB;2002-09-16 09:00;METAR CYQB 160900Z 06010KT 15SM FEW009 BKN048 11/07 A3007 RMK SF1SC7 SLP183
CYQB;2002-09-16 10:00;METAR CYQB 161000Z 05008KT 15SM FEW010 BKN047 OVC220 11/06 A3006 RMK SF1SC6CI1 SLP181 SLP181
CYQB;2002-09-16 11:00;METAR CYQB 161100Z 06009KT 30SM FEW050 BKN100 OVC230 11/06 A3007 RMK SC2AC2CI2 SLP183
CYQB;2002-09-16 12:00;METAR CYQB 161200Z 05009KT 30SM FEW050 FEW120 BKN250 11/05 A3007 RMK SC1AC1CI3 SLP183
CYQB;2002-09-16 13:00;METAR CYQB 161300Z 07011KT 30SM FEW120 SCT250 12/06 A3005 RMK AC1CI2 SLP177
CYQB;2002-09-16 14:00;METAR CYQB 161400Z 07013G19KT 30SM FEW120 FEW250 14/07 A3004 RMK AC1CI0 SLP174
CYQB;2002-09-16 15:00;METAR CYQB 161500Z 07008G15KT 30SM FEW120 FEW250 15/07 A3002 RMK AC1CI0 SLP166
CYQB;2002-09-16 16:00;METAR CYQB 161600Z 07010KT 30SM FEW120 16/07 A3000 RMK AC1 SLP162
CYQB;2002-09-16 17:00;METAR CYQB 161700Z 13005KT 30SM FEW120 16/06 A2999 RMK AC1 SLP156
CYQB;2002-09-16 18:00;METAR CYQB 161800Z 15003KT 30SM FEW120 FEW250 17/07 A2997 RMK AC1CI1 SLP149
CYQB;2002-09-16 19:00;METAR CYQB 161900Z 14002KT 30SM FEW120 FEW250 18/07 A2994 RMK AC2CI0 SLP142
CYQB;2002-09-16 20:00;METAR CYQB 162000Z 21006KT 30SM FEW040 FEW230 19/07 A2993 RMK CU1CI2 SLP138
CYQB;2002-09-16 21:00;METAR CYQB 162100Z 22007KT 30SM FEW040 FEW120 18/07 A2992 RMK SC1AC1 SLP133
CYQB;2002-09-16 22:00;METAR CYQB 162200Z 23007KT 30SM FEW040 FEW120 17/07 A2992 RMK SC1AC1 SLP134
CYQB;2002-09-16 23:00;METAR CYQB 162300Z 24005KT 30SM FEW250 15/07 A2992 RMK CI1 SLP133
CYQB;2002-09-17 00:00;METAR CYQB 170000Z 26006KT 15SM FEW250 13/08 A2993 RMK CI1 SLP138
CYQB;2002-09-17 01:00;METAR CYQB 170100Z 28004KT 15SM SKC 12/07 A2993 RMK SLP137
CYQB;2002-09-17 02:00;METAR CYQB 170200Z 00000KT 15SM SKC 11/07 A2994 RMK SLP141
CYQB;2002-09-17 03:00;METAR CYQB 170300Z 06002KT 15SM SKC 10/08 A2994 RMK SLP141
CYQB;2002-09-17 04:00;METAR CYQB 170400Z 03003KT 15SM SKC 10/08 A2994 RMK SLP140
CYQB;2002-09-17 05:00;METAR CYQB 170500Z 00000KT 15SM SCT140 09/08 A2993 RMK AC3 SLP137
CYQB;2002-09-17 06:00;METAR CYQB 170600Z 00000KT 15SM FEW140 09/07 A2993 RMK AC1 SLP137
CYQB;2002-09-17 07:00;METAR CYQB 170700Z 00000KT 15SM FEW140 09/08 A2993 RMK AC2 SLP136
CYQB;2002-09-17 08:00;METAR CYQB 170800Z 00000KT 15SM SCT100 08/08 A2992 RMK AC4 SLP135
CYQB;2002-09-17 09:00;METAR CYQB 170900Z 00000KT 15SM FEW100 BKN120 09/09 A2992 RMK AC2AC4 SLP133
CYQB;2002-09-17 10:00;METAR CYQB 171000Z 35002KT 10SM BKN100 09/09 A2992 RMK AC7 SLP134
CYQB;2002-09-17 11:00;METAR CYQB 171100Z 26003KT 8SM BKN110 09/09 A2993 RMK AC7 SLP136
CYQB;2002-09-17 12:00;METAR CYQB 171200Z 24005KT 10SM BKN120 11/11 A2994 RMK AC6 SLP139
CYQB;2002-09-17 13:00;METAR CYQB 171300Z 25010KT 5SM BR SCT006 BKN080 OVC120 12/12 A2994 RMK SF3AC3AC2 SLP142 SLP142 SE 2 SLP145 SLP147
CYQB;2002-09-17 16:00;METAR CYQB 171600Z 26012KT 10SM FEW012 BKN071 16/12 A2995 RMK SF1AC5
CYQB;2002-09-17 17:00;METAR CYQB 171700Z 22010KT 15SM FEW012 SCT071 19/13 A2994 RMK SF1AC1 SLP140
CYQB;2002-09-17 18:00;METAR CYQB 171800Z 25012KT 15SM FEW050 SCT100 21/13 A2993 RMK SC2AC2 SLP135
CYQB;2002-09-17 19:00;METAR CYQB 171900Z 26007KT 15SM FEW040 SCT080 20/14 A2992 RMK SC2AC2 SLP131
CYQB;2002-09-17 20:00;METAR CYQB 172000Z 28013KT 30SM FEW040 FEW080 21/11 A2991 RMK SC2AC1 SLP130
CYQB;2002-09-17 21:00;METAR CYQB 172100Z 27011G16KT 30SM FEW040 FEW080 20/11 A2992 RMK SC2AC1
CYQB;2002-09-17 22:00;METAR CYQB 172200Z 28006KT 30SM FEW040 FEW080 19/11 A2993 RMK SC2AC1
CYQB;2002-09-17 23:00;METAR CYQB 172300Z 31004KT 30SM FEW040 FEW080 16/10 A2994 RMK SC2AC1 SLP141
CYQB;2002-09-18 00:00;METAR CYQB 180000Z 34004KT 15SM FEW040 15/10 A2997 RMK SC1 SLP150
CYQB;2002-09-18 01:00;METAR CYQB 180100Z 05004KT 15SM FEW080 13/10 A2998 RMK AC1 SLP155
CYQB;2002-09-18 02:00;METAR CYQB 180200Z 01007KT 15SM FEW080 13/09 A3001 RMK AC1 SLP163
CYQB;2002-09-18 03:00;METAR CYQB 180300Z 35008KT 15SM FEW080 11/08 A3003 RMK AC1 SLP170
CYQB;2002-09-18 04:00;METAR CYQB 180400Z 02005KT 15SM SKC 11/06 A3004 RMK SLP173
CYQB;2002-09-18 05:00;METAR CYQB 180500Z 01006KT 15SM SKC 10/05 A3006 RMK SLP179
CYQB;2002-09-18 06:00;METAR CYQB 180600Z 36004KT 15SM SKC 09/05 A3006 RMK SLP182
CYQB;2002-09-18 07:00;METAR CYQB 180700Z 01005KT 15SM SKC 08/05 A3007 RMK SLP183
CYQB;2002-09-18 08:00;METAR CYQB 180800Z 01005KT 15SM SKC 07/04 A3008 RMK SLP187
CYQB;2002-09-18 09:00;METAR CYQB 180900Z 35007KT 15SM SKC 06/04 A3010 RMK SLP194
CYQB;2002-09-18 10:00;METAR CYQB 181000Z 36003KT 15SM SKC 06/04 A3011 RMK SLP196
CYQB;2002-09-18 11:00;METAR CYQB 181100Z 36004KT 30SM SKC 06/04 A3013 RMK SLP203
CYQB;2002-09-18 12:00;METAR CYQB 181200Z 01005KT 30SM SKC 08/05 A3014 RMK SLP209
CYQB;2002-09-18 13:00;METAR CYQB 181300Z 05003KT 30SM SKC 10/05 A3015 RMK SLP211
CYQB;2002-09-18 14:00;METAR CYQB 181400Z 12002KT 30SM FEW250 13/06 A3014 RMK CI0 SLP209
CYQB;2002-09-18 15:00;METAR CYQB 181500Z 19005KT 30SM FEW250 15/07 A3013 RMK CI0 SLP204
CYQB;2002-09-18 16:00;METAR CYQB 181600Z 27005KT 30SM SCT250 16/07 A3011 RMK CI0 SLP197
CYQB;2002-09-18 17:00;METAR CYQB 181700Z 26003KT 30SM FEW250 17/06 A3009 RMK CI0 SLP190
CYQB;2002-09-18 18:00;METAR CYQB 181800Z 24009KT 30SM FEW250 19/07 A3007 RMK CI0 SLP184
CYQB;2002-09-18 19:00;METAR CYQB 181900Z 26006KT 30SM FEW250 19/07 A3006 RMK CI0 SLP180
CYQB;2002-09-18 20:00;METAR CYQB 182000Z 23011KT 30SM FEW250 19/06 A3004 RMK CI0 SLP174
CYQB;2002-09-18 22:00;METAR CYQB 182200Z 27007KT 30SM FEW250 18/04 A3004 RMK CI1 SLP174
CYQB;2002-09-18 23:00;METAR CYQB 182300Z 27003KT 30SM FEW250 14/06 A3003 RMK CI1 SLP172
CYQB;2002-09-19 00:00;METAR CYQB 190000Z 28005KT 15SM FEW250 12/07 A3004 RMK CI1 SLP175
CYQB;2002-09-19 01:00;METAR CYQB 190100Z 29003KT 15SM FEW250 12/06 A3004 RMK CI1 SLP173
CYQB;2002-09-19 02:00;METAR CYQB 190200Z 32004KT 15SM FEW250 11/06 A3004 RMK CI1 SLP173
CYQB;2002-09-19 03:00;METAR CYQB 190300Z 16003KT 15SM SCT250 09/06 A3003 RMK CI1 SLP172
CYQB;2002-09-19 04:00;METAR CYQB 190400Z 34003KT 15SM FEW250 09/07 A3003 RMK CI1 SLP171
CYQB;2002-09-19 05:00;METAR CYQB 190500Z 00000KT 15SM FEW250 08/06 A3003 RMK CI0 SLP170
CYQB;2002-09-19 06:00;METAR CYQB 190600Z 00000KT 15SM FEW250 07/06 A3001 RMK CI0 SLP165
CYQB;2002-09-19 07:00;METAR CYQB 190700Z 25002KT 15SM SCT250 07/06 A3002 RMK CI2 SLP167
CYQB;2002-09-19 08:00;METAR CYQB 190800Z 00000KT 15SM FEW250 07/06 A3002 RMK CI2 SLP167
CYQB;2002-09-19 09:00;METAR CYQB 190900Z 05003KT 15SM FEW250 08/06 A3003 RMK CI2 SLP169
CYQB;2002-09-19 10:00;METAR CYQB 191000Z 00000KT 15SM SCT250 07/06 A3003 RMK CI2 SLP171
CYQB;2002-09-19 11:00;METAR CYQB 191100Z 02002KT 15SM SCT120 BKN250 08/07 A3004 RMK AC3CI2 SLP173
CYQB;2002-09-19 12:00;METAR CYQB 191200Z 00000KT 15SM FEW150 BKN250 10/09 A3004 RMK AC2CI0 SLP175
CYQB;2002-09-19 13:00;METAR CYQB 191300Z 00000KT 15SM FEW150 SCT250 14/09 A3004 RMK AC1CI0 SLP174
CYQB;2002-09-19 14:00;METAR CYQB 191400Z 24004KT 15SM SCT250 17/11 A3003 RMK CI0 SLP172
CYQB;2002-09-19 15:00;METAR CYQB 191500Z 20004KT 15SM SCT230 19/12 A3001 RMK CI1 SLP165
CYQB;2002-09-19 16:00;METAR CYQB 191600Z 23009KT 15SM BKN220 20/14 A3000 RMK CI3 SLP161
CYQB;2002-09-19 17:00;METAR CYQB 191700Z 24005KT 15SM BKN220 23/15 A2999 RMK CI2 SLP157
CYQB;2002-09-19 18:00;METAR CYQB 191800Z 24005KT 15SM SCT220 24/15 A2997 RMK CI1 SLP148
CYQB;2002-09-19 19:00;METAR CYQB 191900Z 27006KT 15SM SCT220 25/16 A2994 RMK CI1 SLP139
CYQB;2002-09-19 20:00;METAR CYQB 192000Z 24007KT 15SM FEW220 26/15 A2992 RMK CI1 SLP132
CYQB;2002-09-19 21:00;METAR CYQB 192100Z 26006KT 15SM SCT220 26/15 A2991 RMK CI1 SLP128
CYQB;2002-09-19 22:00;METAR CYQB 192200Z 23004KT 15SM FEW140 SCT220 24/15 A2989 RMK AC1CI1 SLP124
CYQB;2002-09-19 23:00;METAR CYQB 192300Z 32002KT 15SM FEW130 SCT220 22/15 A2989 RMK AC1CI1 SLP122
CYQB;2002-09-20 00:00;METAR CYQB 200000Z 34002KT 15SM FEW065 SCT130 BKN220 20/16 A2989 RMK SC2AC1CI0 SLP124 SLP124
CYQB;2002-09-20 01:00;METAR CYQB 200100Z 00000KT 15SM SCT062 BKN130 BKN220 18/15 A2989 RMK SC3AC2CI0 SLP123 SLP123
CYQB;2002-09-20 02:00;METAR CYQB 200200Z 35002KT 15SM FEW060 SCT130 BKN220 17/15 A2989 RMK
CYQB;2002-09-20 03:00;METAR CYQB 200300Z 00000KT 15SM BKN050 BKN120 OVC220 16/15 A2989 RMK SC5AC2CI0 SLP124
CYQB;2002-09-20 04:00;METAR CYQB 200400Z 00000KT 15SM SCT050 BKN160 OVC220 16/15 A2988 RMK SC4AC3CI0 SLP120 SLP120
CYQB;2002-09-20 05:00;METAR CYQB 200500Z 02002KT 15SM BKN055 OVC170 18/15 A2988 RMK SC6AC2
CYQB;2002-09-20 06:00;METAR CYQB 200600Z 22003KT 15SM FEW043 BKN060 OVC230 17/16 A2987 RMK SC2SC4CI2 SLP116 SLP116
CYQB;2002-09-20 07:00;METAR CYQB 200700Z 22003KT 15SM SCT045 BKN160 BKN220 18/15 A2987 RMK SC3AC2CI2 SLP114 SLP114
CYQB;2002-09-20 08:00;METAR CYQB 200800Z 24004KT 15SM BKN040 BKN220 17/15 A2986 RMK SC6CI2 SLP110
CYQB;2002-09-20 09:00;METAR CYQB 200900Z 23003KT 15SM OVC041 18/16 A2986 RMK SC8 SLP110
CYQB;2002-09-20 10:00;METAR CYQB 201000Z 23003KT 15SM BKN029 OVC041 18/16 A2984 RMK SC7SC1 SLP106
CYQB;2002-09-20 11:00;METAR CYQB 201100Z 24003KT 15SM BKN029 OVC040 18/16 A2983 RMK SC7SC1 SLP103
CYQB;2002-09-20 12:00;METAR CYQB 201200Z 21004KT 8SM BKN030 OVC045 19/17 A2981 RMK SC6SC2 SLP094
CYQB;2002-09-20 13:00;METAR CYQB 201300Z 22011KT 7SM OVC030 20/17 A2981 RMK SC8 SLP093
CYQB;2002-09-20 14:00;METAR CYQB 201400Z 23010KT 7SM OVC030 21/18 A2979 RMK SC8 SLP089
CYQB;2002-09-20 15:00;METAR CYQB 201500Z 24012G17KT 7SM OVC030 22/18 A2978 RMK SC8 SLP086
CYQB;2002-09-20 16:00;METAR CYQB 201600Z 25010G16KT 5SM -SHRA OVC026 21/19 A2978 RMK SC8 SLP085
CYQB;2002-09-20 17:00;METAR CYQB 201700Z 25010G16KT 5SM HZ OVC025 22/19 A2978 RMK SC8 SLP086
CYQB;2002-09-20 18:00;METAR CYQB 201800Z 24013G19KT 5SM HZ OVC026 22/19 A2977 RMK SC8 SLP081
CYQB;2002-09-20 19:00;METAR CYQB 201900Z 26007KT 5SM HZ OVC023 22/20 A2977 RMK SC8 SLP082
CYQB;2002-09-20 20:00;METAR CYQB 202000Z 25011G16KT 4SM BR OVC023 22/20 A2977 RMK SC8 SLP081
CYQB;2002-09-20 21:00;METAR CYQB 202100Z 25013KT 3SM HZ BKN030 OVC100 23/20 A2977 RMK SC7AC1 SLP080
CYQB;2002-09-20 22:00;METAR CYQB 202200Z 26011KT 4SM HZ BKN028 OVC100 23/20 A2978 RMK SC7AC1 SLP086
CYQB;2002-09-20 23:00;METAR CYQB 202300Z 26007KT 4SM HZ FEW028 OVC043 22/20 A2979 RMK SC2SC6 SLP089
CYQB;2002-09-21 00:00;METAR CYQB 210000Z 25008KT 4SM BR FEW030 OVC045 22/20 A2980 RMK SC2SC6 SLP091
CYQB;2002-09-21 01:00;METAR CYQB 210100Z 25007KT 5SM BR OVC039 22/20 A2981 RMK SC8 SLP094
CYQB;2002-09-21 02:00;METAR CYQB 210200Z 23005KT 5SM BR OVC043 21/20 A2981 RMK SC8 SLP095
CYQB;2002-09-21 03:00;METAR CYQB 210300Z 25003KT 5SM BR OVC050 21/20 A2981 RMK SC8 SLP095
CYQB;2002-09-21 04:00;METAR CYQB 210400Z 23003KT 6SM BR BKN060 21/20 A2981 RMK SC6 SLP093
CYQB;2002-09-21 05:00;METAR CYQB 210500Z 27004KT 6SM -RA BR OVC070 21/20 A2981 RMK SC8 SLP094
CYQB;2002-09-21 06:00;METAR CYQB 210600Z 24002KT 6SM BR OVC031 20/19 A2981 RMK SC8 SLP096
CYQB;2002-09-21 07:00;METAR CYQB 210700Z 23003KT 5SM BR BKN065 20/20 A2981 RMK SC6 SLP094
CYQB;2002-09-21 08:00;METAR CYQB 210800Z 00000KT 5SM BR SCT065 BKN200 19/19 A2981 RMK SC4CI2 SLP095
CYQB;2002-09-21 09:00;METAR CYQB 210900Z 00000KT 3SM R06/1100VP6000FT/D BR SCT065 18/18 A2982 RMK SC3 SLP098 SLP098
CYQB;2002-09-21 10:00;METAR CYQB 211000Z 05002KT 2 1/2SM R06/1200VP6000FT/U BR BKN047 18/18 A2983 RMK SC6 SLP103 SC6 SLP103
CYQB;2002-09-21 10:40;SPECI CYQB 211040Z 00000KT 1/2SM R06/1400V2600FT/D FG SCT200 RMK CI2 TWR VSBY 2
CYQB;2002-09-21 11:00;METAR CYQB 211100Z 00000KT 1/2SM R06/0900V1400FT/N FG SCT200 17/17 A2983 RMK CI1 TWR VSBY 2 SLP103 TWR VSBY 2 SLP103
CYQB;2002-09-21 11:44;SPECI CYQB 211144Z 12002KT 3/4SM R06/P6000FT/N BR OVC240 RMK CI5 TWR VSBY 2
CYQB;2002-09-21 12:00;METAR CYQB 211200Z 00000KT 1SM R06/6000FT/U HZ OVC240 19/19 A2983 RMK CI5 TWR VSBY 3 SLP103 VSBY 3 SLP103
CYQB;2002-09-21 12:33;SPECI CYQB 211233Z 00000KT 1 1/2SM BR OVC240 RMK CI4 TWR VSBY 3
CYQB;2002-09-21 13:00;METAR CYQB 211300Z 00000KT 2SM BR FEW040 BKN240 22/21 A2985 RMK CU1CI2 TWR VSBY 4 SLP107 SLP107
CYQB;2002-09-21 13:35;SPECI CYQB 211335Z 00000KT 5SM HZ FEW040 BKN240 RMK CU1CI2
CYQB;2002-09-21 14:00;METAR CYQB 211400Z 24003KT 5SM HZ FEW040 BKN240 24/20 A2985 RMK CU2CI1
CYQB;2002-09-21 15:00;METAR CYQB 211500Z 22010KT 8SM FEW020 FEW040 BKN240 25/21 A2984 RMK CF1CU2CI2 SLP106 SLP106
CYQB;2002-09-21 16:00;METAR CYQB 211600Z 24013KT 10SM FEW035 OVC045 26/20 A2983 RMK SC2SC6 SLP102
CYQB;2002-09-21 17:00;METAR CYQB 211700Z 24011G17KT 10SM SCT032 OVC042 26/20 A2983 RMK SC3SC5 SLP101
CYQB;2002-09-21 18:00;METAR CYQB 211800Z 25013G18KT 10SM BKN035 OVC043 26/20 A2983 RMK SC5SC3 HAZY SLP102
CYQB;2002-09-21 19:00;METAR CYQB 211900Z 25006KT 10SM BKN032 OVC040 25/20 A2984 RMK SC6SC2
CYQB;2002-09-21 20:00;METAR CYQB 212000Z 25005KT 6SM HZ BKN035 OVC075 25/21 A2984 RMK SC6AC2
CYQB;2002-09-21 21:00;METAR CYQB 212100Z 23005KT 6SM HZ SCT030 OVC065 23/21 A2985 RMK SC4SC4 SLP109
CYQB;2002-09-21 22:00;METAR CYQB 212200Z 20007KT 5SM -SHRA BR FEW015 BKN025 OVC055 21/20 A2988 RMK SF2SC5SC2 SLP117 SF2SC5SC2 SLP117
CYQB;2002-09-21 23:00;METAR CYQB 212300Z 00000KT 7SM FEW025 SCT055 BKN090 20/20 A2988 RMK SC1SC3AC3 SLP119 SLP119
CYQB;2002-09-22 00:00;METAR CYQB 220000Z 26002KT 8SM BKN090 BKN240 20/19 A2990 RMK AC6CI2 SLP125
CYQB;2002-09-22 01:00;METAR CYQB 220100Z 36002KT 8SM SCT090 BKN240 20/20 A2992 RMK AC4CI2 SLP132
CYQB;2002-09-22 02:00;METAR CYQB 220200Z 00000KT 8SM R06/4500VP6000FT/N FEW090 BKN240 19/19 A2993 RMK AC2CI3 SLP135 AC2CI3 SLP135
CYQB;2002-09-22 03:00;METAR CYQB 220300Z 00000KT 8SM R06/2400VP6000FT/D FEW090 SCT240 19/19 A2994 RMK AC2CI2 SLP140 AC2CI2 SLP140
CYQB;2002-09-22 04:00;METAR CYQB 220400Z 00000KT 6SM R06/2400V4000FT/N BR BKN093 18/18 A2995 RMK AC6 SLP143 SLP143
CYQB;2002-09-22 05:00;METAR CYQB 220500Z 00000KT 5SM R06/3000VP6000FT/U BR SCT080 17/17 A2996 RMK AC3 SLP144 SLP144
CYQB;2002-09-22 06:00;METAR CYQB 220600Z 00000KT 5SM BR BKN084 18/18 A2996 RMK AC6 SLP146
CYQB;2002-09-22 07:00;METAR CYQB 220700Z 35003KT 6SM BR BKN061 18/18 A2996 RMK SC6 SLP146
CYQB;2002-09-22 08:00;METAR CYQB 220800Z 00000KT 3SM R06/1000V1600FT/N BR SCT060 17/17 A2997 RMK SC3 SLP149 SLP149
CYQB;2002-09-22 09:00;METAR CYQB 220900Z 00000KT 3SM R06/1100V2000FT/D BR BKN070 17/17 A2998 RMK AC5 SLP153 SLP153
CYQB;2002-09-22 10:00;METAR CYQB 221000Z 00000KT 1/2SM R06/1800V3000FT/U FG BKN040 16/16 A2999 RMK FG2SC3 VSBY N-E 3 SLP157 FG2SC3 VSBY N-E 3 SLP157 RMK FG2SC5 VSBY SW 3/4 SLP159
CYQB;2002-09-22 12:00;METAR CYQB 221200Z 00000KT 3SM BR BKN011 OVC025 18/18 A3000 RMK FG1SF6SC1 VSBY S 6 W 1 SLP158 6 W 1 SLP158
CYQB;2002-09-22 13:00;METAR CYQB 221300Z 24003KT 4SM BR BKN011 OVC020 19/19 A3001 RMK SF7SC1 SLP162
CYQB;2002-09-22 14:00;METAR CYQB 221400Z 24005KT 5SM BR BKN011 OVC035 20/19 A3001 RMK SF6SC1 VSBY S 15 SLP162
CYQB;2002-09-22 15:00;METAR CYQB 221500Z 26005KT 8SM BKN013 OVC050 21/18 A3000 RMK SF5SC3 SLP158
CYQB;2002-09-22 16:00;METAR CYQB 221600Z 25005KT 8SM BKN016 BKN060 21/19 A2999 RMK SF6SC2 SLP156
CYQB;2002-09-22 17:00;METAR CYQB 221700Z 24004KT 10SM BKN020 OVC045 21/18 A2999 RMK SC6SC2 SLP156
CYQB;2002-09-22 18:00;METAR CYQB 221800Z 25004KT 15SM SCT023 BKN043 BKN200 23/19 A2997 RMK CU3SC2CI2 SLP151 SLP151
CYQB;2002-09-22 19:00;METAR CYQB 221900Z 22003KT 15SM SCT050 OVC200 23/18 A2997 RMK CU3CS4 SLP148
CYQB;2002-09-22 20:00;METAR CYQB 222000Z 23003KT 12SM FEW032 BKN055 BKN210 23/19 A2996 RMK CU2SC2CI2 SLP147 SLP147
CYQB;2002-09-22 21:00;METAR CYQB 222100Z 14003KT 15SM FEW030 BKN090 BKN220 22/19 A2994 RMK CU2AC3CI2 SLP139 SLP139
CYQB;2002-09-22 22:00;METAR CYQB 222200Z 09007KT 6SM BR FEW025 BKN065 BKN220 19/18 A2993 RMK CU2SC3CI2 SLP137 SLP137
CYQB;2002-09-22 23:00;METAR CYQB 222300Z 07007KT 6SM BR FEW025 BKN058 OVC085 17/17 A2993 RMK CF2SC5AC2 SLP137
CYQB;2002-09-23 00:00;METAR CYQB 230000Z 07006KT 5SM BR BKN003 OVC033 17/17 A2993 RMK SF6SC2 SLP135
CYQB;2002-09-23 01:00;METAR CYQB 230100Z 06008KT 5SM BR BKN004 OVC028 16/16 A2991 RMK SF5SC3 SLP130
CYQB;2002-09-23 02:00;METAR CYQB 230200Z 07004KT 8SM -SHRA SCT004 OVC032 16/16 A2991 RMK SF4SC4 SLP129
CYQB;2002-09-23 03:00;METAR CYQB 230300Z 06006KT 2 1/2SM -SHRA BR SCT002 BKN006 OVC030 15/15 A2989 RMK SF3ST2SC2 SLP122 SF3ST2SC2 SLP122
CYQB;2002-09-23 04:00;METAR CYQB 230400Z 06003KT 2 1/2SM -SHRA BR OVC002 15/15 A2986 RMK ST8 SLP113
CYQB;2002-09-23 05:00;METAR CYQB 230500Z 07009KT 3SM BR OVC002 15/15 A2982 RMK ST8 SLP099
CYQB;2002-09-23 06:00;METAR CYQB 230600Z 07006KT 2 1/2SM -SHRA BR OVC002 15/15 A2980 RMK ST8 SLP091
CYQB;2002-09-23 07:00;METAR CYQB 230700Z 13002KT 2 1/2SM -SHRA BR SCT002 OVC010 15/15 A2981 RMK SF3ST5 SLP096 SLP096
CYQB;2002-09-23 08:00;METAR CYQB 230800Z 22014G20KT 6SM -SHRA BR SCT005 OVC014 19/18 A2982 RMK SF3ST5 RERA SLP098 RERA SLP098
CYQB;2002-09-23 09:00;METAR CYQB 230900Z 22009KT 10SM -SHRA SCT004 OVC010 19/18 A2982 RMK SF3ST5 SLP097
CYQB;2002-09-23 10:00;METAR CYQB 231000Z 23012KT 12SM -SHRA FEW005 OVC009 19/18 A2983 RMK SF2SC6 SLP100
CYQB;2002-09-23 11:00;METAR CYQB 231100Z 22009KT 10SM -SHRA FEW005 OVC011 18/18 A2984 RMK SF2SC6 SLP106
CYQB;2002-09-23 12:00;METAR CYQB 231200Z 26014KT 15SM VCSH FEW009 FEW015 BKN043 BKN110 17/16 A2989 RMK CF1CF2SC2AC2 SLP123 CF1CF2SC2AC2 SLP123
CYQB;2002-09-23 13:00;METAR CYQB 231300Z 24017KT 30SM FEW012 FEW025 SCT110 BKN230 17/15 A2994 RMK CF1CU2AC2CI2 ACC ASOCTD SLP141
CYQB;2002-09-23 14:00;METAR CYQB 231400Z 28012G19KT 30SM FEW020 SCT030 BKN240 16/12 A2999 RMK CF1CU3CI1 SLP156 SLP156
CYQB;2002-09-23 15:00;METAR CYQB 231500Z 27017KT 30SM FEW022 BKN036 BKN250 17/12 A3003 RMK CF1SC5CI1 CU ASOCTD SLP171 ASOCTD SLP171
CYQB;2002-09-23 16:00;METAR CYQB 231600Z 29011G19KT 30SM SCT039 BKN250 18/11 A3006 RMK CU3CI2 SLP179
CYQB;2002-09-23 17:00;METAR CYQB 231700Z 29012G17KT 30SM SCT040 BKN250 17/10 A3008 RMK CU3CI2 SLP187
CYQB;2002-09-23 18:00;METAR CYQB 231800Z 27014G19KT 30SM SCT044 BKN250 18/10 A3010 RMK CU3CI2 SLP193
CYQB;2002-09-23 19:00;METAR CYQB 231900Z 29011G16KT 30SM FEW045 BKN250 18/09 A3010 RMK CU2CI2 SLP194
CYQB;2002-09-23 20:00;METAR CYQB 232000Z 28011KT 30SM FEW045 BKN200 18/08 A3012 RMK CU1CI1 SLP200
CYQB;2002-09-23 21:00;METAR CYQB 232100Z 29010KT 30SM FEW045 SCT200 18/09 A3013 RMK CU1CI0 SLP204
CYQB;2002-09-23 22:00;METAR CYQB 232200Z 28007KT 30SM FEW045 FEW200 17/08 A3015 RMK SC1CI0 SLP211
CYQB;2002-09-23 23:00;METAR CYQB 232300Z 26004KT 30SM FEW045 FEW200 14/09 A3017 RMK SC1CI1 SLP216
CYQB;2002-09-24 00:00;METAR CYQB 240000Z 30002KT 15SM FEW200 12/09 A3019 RMK CI1 SLP226
CYQB;2002-09-24 01:00;METAR CYQB 240100Z 36003KT 15SM FEW200 12/09 A3021 RMK CI1 SLP231
CYQB;2002-09-24 02:00;METAR CYQB 240200Z 35002KT 15SM FEW200 11/09 A3022 RMK CI1 SLP235
CYQB;2002-09-24 03:00;METAR CYQB 240300Z 02005KT 15SM FEW180 10/09 A3023 RMK AC1 SLP238
CYQB;2002-09-24 04:00;METAR CYQB 240400Z 36006KT 15SM FEW180 09/08 A3024 RMK AC1 SLP241
CYQB;2002-09-24 05:00;METAR CYQB 240500Z 01006KT 15SM SCT053 09/08 A3025 RMK SC3 SLP245
CYQB;2002-09-24 06:00;METAR CYQB 240600Z 02005KT 15SM FEW055 09/07 A3026 RMK SC2 SLP250
CYQB;2002-09-24 07:00;METAR CYQB 240700Z 02006KT 15SM FEW055 08/07 A3026 RMK SC2 SLP248
CYQB;2002-09-24 08:00;METAR CYQB 240800Z 02004KT 15SM SKC 08/07 A3027 RMK SLP251
CYQB;2002-09-24 09:00;METAR CYQB 240900Z 02006KT 15SM SKC 07/06 A3028 RMK SLP255
CYQB;2002-09-24 10:00;METAR CYQB 241000Z 02005KT 15SM FEW057 07/06 A3029 RMK SC2 SLP258
CYQB;2002-09-24 11:00;METAR CYQB 241100Z 01004KT 30SM FEW057 07/06 A3031 RMK SC2 SLP266
CYQB;2002-09-24 12:00;METAR CYQB 241200Z 03004KT 30SM FEW010 FEW058 FEW250 08/07 A3031 RMK ST1SC2CI1 SLP267 SLP267
CYQB;2002-09-24 13:00;METAR CYQB 241300Z 06003KT 30SM FEW010 FEW060 SCT250 12/09 A3031 RMK SF2SC1CI0 SLP266 SLP266
CYQB;2002-09-24 14:00;METAR CYQB 241400Z 09007KT 50SM FEW040 FEW250 14/11 A3031 RMK CU2CI1
CYQB;2002-09-24 15:00;METAR CYQB 241500Z 08006KT 50SM FEW040 FEW080 FEW250 16/10 A3030 RMK CU1AC1CI1 SLP264 SLP264
CYQB;2002-09-24 16:00;METAR CYQB 241600Z 13005KT 50SM FEW040 FEW250 17/10 A3028 RMK CU2CI1 SLP256
CYQB;2002-09-24 17:00;METAR CYQB 241700Z 03004KT 50SM FEW040 FEW250 18/10 A3026 RMK CU2CI1 SLP250
CYQB;2002-09-24 18:00;METAR CYQB 241800Z 07003KT 50SM SCT050 18/09 A3025 RMK CU3 SLP243
CYQB;2002-09-24 19:00;METAR CYQB 241900Z 16003KT 50SM SCT052 19/08 A3023 RMK CU3 SLP238
CYQB;2002-09-24 20:00;METAR CYQB 242000Z 00000KT 50SM FEW050 19/07 A3022 RMK CU2 SLP236
CYQB;2002-09-24 21:00;METAR CYQB 242100Z 23003KT 50SM FEW050 FEW100 19/08 A3023 RMK SC1AC1 SLP238
CYQB;2002-09-24 22:00;METAR CYQB 242200Z 35002KT 50SM FEW050 18/07 A3024 RMK SC1 SLP240
CYQB;2002-09-24 23:00;METAR CYQB 242300Z 06005KT 25SM FEW050 16/09 A3024 RMK SC1 SLP240
CYQB;2002-09-25 00:00;METAR CYQB 250000Z 04003KT 15SM SKC 14/11 A3025 RMK SLP247
CYQB;2002-09-25 01:00;METAR CYQB 250100Z 35004KT 15SM SKC 12/10 A3028 RMK SLP254
CYQB;2002-09-25 02:00;METAR CYQB 250200Z 02003KT 15SM FEW210 11/09 A3029 RMK CI1 SLP260
CYQB;2002-09-25 03:00;METAR CYQB 250300Z 00000KT 15SM FEW210 10/09 A3030 RMK CI1 SLP263
CYQB;2002-09-25 04:00;METAR CYQB 250400Z 02004KT 15SM FEW060 10/08 A3031 RMK SC1 SLP265
CYQB;2002-09-25 05:00;METAR CYQB 250500Z 02004KT 15SM FEW070 09/08 A3032 RMK AC2 SLP268
CYQB;2002-09-25 06:00;METAR CYQB 250600Z 01004KT 15SM SKC 09/08 A3031 RMK SLP267
CYQB;2002-09-25 07:00;METAR CYQB 250700Z 01005KT 15SM SKC 09/08 A3032 RMK SLP268
CYQB;2002-09-25 08:00;METAR CYQB 250800Z 02005KT 15SM SKC 09/07 A3031 RMK SLP266
CYQB;2002-09-25 09:00;METAR CYQB 250900Z 02004KT 15SM SKC 08/07 A3033 RMK SLP271
CYQB;2002-09-25 10:00;METAR CYQB 251000Z 02003KT 15SM SKC 08/07 A3034 RMK SLP276
CYQB;2002-09-25 11:00;METAR CYQB 251100Z 36004KT 15SM FEW210 08/07 A3036 RMK CI0 SLP283
CYQB;2002-09-25 12:00;METAR CYQB 251200Z 03003KT 20SM BKN059 09/08 A3037 RMK SC6 SLP286
CYQB;2002-09-25 13:00;METAR CYQB 251300Z 12002KT 20SM SCT058 12/09 A3038 RMK SC4 SLP288
CYQB;2002-09-25 14:00;METAR CYQB 251400Z 13002KT 30SM FEW050 14/10 A3038 RMK SC1 SLP290
CYQB;2002-09-25 15:00;METAR CYQB 251500Z 00000KT 30SM FEW050 15/10 A3038 RMK SC1 SLP288
CYQB;2002-09-25 16:00;METAR CYQB 251600Z 20002KT 30SM FEW050 17/11 A3036 RMK SC1 SLP281
CYQB;2002-09-25 17:00;METAR CYQB 251700Z 22006KT 30SM FEW050 18/11 A3033 RMK CU1 SLP274
CYQB;2002-09-25 18:00;METAR CYQB 251800Z 23009KT 30SM FEW050 20/11 A3032 RMK CU1 SLP270
CYQB;2002-09-25 19:00;METAR CYQB 251900Z 23009KT 30SM FEW050 20/11 A3031 RMK CU1 SLP265
CYQB;2002-09-25 20:00;METAR CYQB 252000Z 25012G17KT 30SM FEW050 FEW240 20/07 A3030 RMK CU1CI1 SLP262
CYQB;2002-09-25 21:00;METAR CYQB 252100Z 26010KT 30SM FEW050 FEW240 19/09 A3030 RMK CU1CI1
CYQB;2002-09-25 22:00;METAR CYQB 252200Z 26006KT 30SM FEW050 FEW240 17/09 A3030 RMK CU1CI1 SLP261
CYQB;2002-09-25 23:00;METAR CYQB 252300Z 26003KT 30SM FEW050 FEW240 15/09 A3029 RMK CU1CI1 SLP259
CYQB;2002-09-26 00:00;METAR CYQB 260000Z 00000KT 15SM SKC 13/08 A3029 RMK SLP259
CYQB;2002-09-26 01:00;METAR CYQB 260100Z 35002KT 15SM SKC 13/09 A3029 RMK SLP258
CYQB;2002-09-26 02:00;METAR CYQB 260200Z 00000KT 15SM SKC 12/09 A3030 RMK SLP261
CYQB;2002-09-26 03:00;METAR CYQB 260300Z 36004KT 15SM SKC 12/09 A3030 RMK SLP264
CYQB;2002-09-26 04:00;METAR CYQB 260400Z 02007KT 15SM SKC 11/09 A3030 RMK SLP261
CYQB;2002-09-26 05:00;METAR CYQB 260500Z 02004KT 15SM SKC 10/08 A3028 RMK SLP257
CYQB;2002-09-26 06:00;METAR CYQB 260600Z 02003KT 15SM SKC 09/08 A3028 RMK SLP256
CYQB;2002-09-26 07:00;METAR CYQB 260700Z 02004KT 15SM SKC 08/08 A3027 RMK SLP250
CYQB;2002-09-26 08:00;METAR CYQB 260800Z 36005KT 15SM SKC 08/07 A3027 RMK SLP251
CYQB;2002-09-26 09:00;METAR CYQB 260900Z 01005KT 15SM SKC 08/07 A3027 RMK SLP253
CYQB;2002-09-26 10:00;METAR CYQB 261000Z 01005KT 15SM FEW040 07/07 A3027 RMK CF1 SLP253
CYQB;2002-09-26 11:00;METAR CYQB 261100Z 02003KT 15SM FEW080 07/07 A3027 RMK AC1 SLP253
CYQB;2002-09-26 12:00;METAR CYQB 261200Z 01004KT 30SM FEW250 09/08 A3027 RMK CI1 SLP251
CYQB;2002-09-26 13:00;METAR CYQB 261300Z 09002KT 30SM FEW250 12/09 A3026 RMK CI1 SLP248
CYQB;2002-09-26 14:00;METAR CYQB 261400Z 00000KT 30SM FEW040 FEW250 14/10 A3026 RMK SC2CI1 SLP248
CYQB;2002-09-26 15:00;METAR CYQB 261500Z 25004KT 12SM SKC 16/12 A3024 RMK SLP241
CYQB;2002-09-26 16:00;METAR CYQB 261600Z 23003KT 10SM FEW040 18/12 A3022 RMK CF1 SLP233
CYQB;2002-09-26 17:00;METAR CYQB 261700Z 24010KT 10SM FEW040 20/12 A3019 RMK CF1 SLP225
CYQB;2002-09-26 18:00;METAR CYQB 261800Z 26010G15KT 10SM FEW040 21/10 A3016 RMK CF1 SLP214
CYQB;2002-09-26 19:00;METAR CYQB 261900Z 28007KT 12SM FEW040 21/11 A3013 RMK CF1 SLP205
CYQB;2002-09-26 20:00;METAR CYQB 262000Z 27006KT 12SM FEW040 21/11 A3011 RMK CF1 SLP198
CYQB;2002-09-26 21:00;METAR CYQB 262100Z 26006KT 15SM FEW050 FEW230 21/11 A3009 RMK CU1CI1 SLP191
CYQB;2002-09-26 22:00;METAR CYQB 262200Z 29002KT 15SM FEW230 20/11 A3008 RMK CI1 SLP188
CYQB;2002-09-26 23:00;METAR CYQB 262300Z 33003KT 15SM FEW230 16/12 A3008 RMK CI2 SLP188
CYQB;2002-09-27 00:00;METAR CYQB 270000Z 00000KT 15SM FEW230 15/11 A3009 RMK CI2 SLP191
CYQB;2002-09-27 01:00;METAR CYQB 270100Z 36005KT 15SM FEW230 15/11 A3008 RMK CI2 SLP189
CYQB;2002-09-27 02:00;METAR CYQB 270200Z 03002KT 15SM BKN250 15/11 A3007 RMK CI2 SLP185
CYQB;2002-09-27 03:00;METAR CYQB 270300Z 35006KT 15SM BKN250 14/11 A3007 RMK CI3 SLP185
CYQB;2002-09-27 04:00;METAR CYQB 270400Z 00000KT 15SM BKN250 12/10 A3006 RMK CI3 SLP182
CYQB;2002-09-27 05:00;METAR CYQB 270500Z 00000KT 15SM BKN250 11/10 A3006 RMK CI2 SLP181
CYQB;2002-09-27 06:00;METAR CYQB 270600Z 00000KT 15SM FEW250 10/09 A3006 RMK CI1 SLP180
CYQB;2002-09-27 07:00;METAR CYQB 270700Z 01002KT 15SM FEW240 11/10 A3004 RMK CI1 SLP174
CYQB;2002-09-27 08:00;METAR CYQB 270800Z 02004KT 15SM SCT240 10/09 A3003 RMK CI2 SLP169
CYQB;2002-09-27 09:00;METAR CYQB 270900Z 01004KT 15SM FEW240 10/09 A3003 RMK CI1 SLP169
CYQB;2002-09-27 10:00;METAR CYQB 271000Z 01002KT 15SM SCT240 09/09 A3002 RMK CI3 SLP167
CYQB;2002-09-27 11:00;METAR CYQB 271100Z 02004KT 12SM BKN160 BKN240 09/08 A3002 RMK AC5CI2 SLP166
CYQB;2002-09-27 13:00;METAR CYQB 271300Z 03004KT 15SM FEW160 BKN250 12/10 A3000 RMK AC2CI2 SLP161
CYQB;2002-09-27 14:00;METAR CYQB 271400Z 05003KT 30SM BKN160 BKN250 15/11 A2998 RMK AC5CI2 SLP154
CYQB;2002-09-27 15:00;METAR CYQB 271500Z 15002KT 30SM FEW150 BKN250 16/10 A2996 RMK AC2CI2 SLP145
CYQB;2002-09-27 16:00;METAR CYQB 271600Z 24004KT 30SM FEW150 BKN220 17/10 A2992 RMK AC2CI5 SLP134
CYQB;2002-09-27 17:00;METAR CYQB 271700Z 00000KT 30SM FEW150 OVC230 17/10 A2990 RMK AC2CS6 SLP125
CYQB;2002-09-27 18:00;METAR CYQB 271800Z 01004KT 30SM OVC200 18/11 A2986 RMK CS8 SLP112
CYQB;2002-09-27 19:00;METAR CYQB 271900Z 04006KT 20SM OVC160 18/10 A2985 RMK AS8 SLP109
CYQB;2002-09-27 20:00;METAR CYQB 272000Z 05006KT 20SM OVC140 18/10 A2981 RMK AS8 SLP096
CYQB;2002-09-27 21:00;METAR CYQB 272100Z 07006KT 20SM OVC140 17/10 A2979 RMK AS8 SLP088
CYQB;2002-09-27 22:00;METAR CYQB 272200Z 07005KT 15SM -SHRA FEW060 OVC100 17/11 A2977 RMK SC2AS6 SLP081
CYQB;2002-09-27 23:00;METAR CYQB 272300Z 07004KT 12SM -RA FEW032 BKN045 OVC090 15/12 A2975 RMK CF2SC4AS2 SLP074
CYQB;2002-09-28 00:00;METAR CYQB 280000Z 02005KT 12SM -RA FEW032 SCT050 OVC081 15/14 A2974 RMK CF2SC2AS4 SLP071
CYQB;2002-09-28 01:00;METAR CYQB 280100Z 06005KT 8SM -RA BKN012 OVC032 14/14 A2972 RMK SF5SC3 SLP066
CYQB;2002-09-28 02:00;METAR CYQB 280200Z 05009KT 6SM -RA BR BKN011 OVC028 14/14 A2970 RMK SF6SC2 SLP057
CYQB;2002-09-28 03:00;METAR CYQB 280300Z 06008KT 6SM -RA BR SCT014 OVC045 13/13 A2969 RMK SF3SC5 SLP056
CYQB;2002-09-28 04:00;METAR CYQB 280400Z 04008KT 6SM -RA BR SCT012 OVC045 13/13 A2966 RMK SF3SC5 SLP046
CYQB;2002-09-28 05:00;METAR CYQB 280500Z 04005KT 10SM -RA FEW012 SCT021 BKN048 13/13 A2965 RMK SF2SF2SC4 VERY LGT R SLP042
CYQB;2002-09-28 06:00;METAR CYQB 280600Z 36002KT 15SM SCT023 BKN048 13/13 A2965 RMK SF3SC3 SLP042
CYQB;2002-09-28 07:00;METAR CYQB 280700Z 34004KT 15SM SCT023 BKN056 13/13 A2966 RMK SF3SC3 SLP044
CYQB;2002-09-28 08:00;METAR CYQB 280800Z 28003KT 15SM FEW020 BKN056 BKN094 13/12 A2968 RMK SF2SC3SC2 SLP051 SLP051
CYQB;2002-09-28 09:00;METAR CYQB 280900Z 32005KT 15SM SCT056 12/11 A2970 RMK SC3 SLP059
CYQB;2002-09-28 10:00;METAR CYQB 281000Z 33004KT 15SM SCT076 12/11 A2972 RMK AC4 SLP066
CYQB;2002-09-28 11:00;METAR CYQB 281100Z 29005KT 20SM FEW056 SCT080 13/10 A2976 RMK SC2AC2 SLP079
CYQB;2002-09-28 12:00;METAR CYQB 281200Z 32005KT 20SM BKN025 BKN050 14/11 A2979 RMK SC6SC1 SLP089
CYQB;2002-09-28 13:00;METAR CYQB 281300Z 32013G20KT 30SM FEW025 SCT050 13/10 A2983 RMK SC2SC2 SLP102
CYQB;2002-09-28 14:00;METAR CYQB 281400Z 33015G20KT 30SM SCT025 13/08 A2988 RMK SC3 SLP120
CYQB;2002-09-28 15:00;METAR CYQB 281500Z 34015G25KT 30SM FEW030 14/05 A2991 RMK SC2 SLP129
CYQB;2002-09-28 16:00;METAR CYQB 281600Z 33013G22KT 30SM SCT030 15/06 A2994 RMK SC3 SLP138
CYQB;2002-09-28 17:00;METAR CYQB 281700Z 31014G20KT 30SM SCT050 15/05 A2995 RMK SC3 SLP144
CYQB;2002-09-28 18:00;METAR CYQB 281800Z 34010G15KT 30SM FEW055 16/03 A2997 RMK SC2 SLP151
CYQB;2002-09-28 19:00;METAR CYQB 281900Z 34010G16KT 30SM FEW060 15/01 A2999 RMK SC2 SLP156
CYQB;2002-09-28 20:00;METAR CYQB 282000Z 32017KT 30SM FEW060 14/00 A3001 RMK SC2 SLP164
CYQB;2002-09-28 21:00;METAR CYQB 282100Z 31012KT 30SM FEW060 14/00 A3004 RMK SC1 SLP173
CYQB;2002-09-28 22:00;METAR CYQB 282200Z 31008KT 30SM FEW060 12/00 A3007 RMK SC1 SLP184
CYQB;2002-09-28 23:00;METAR CYQB 282300Z 31007KT 30SM SKC 09/M00 A3010 RMK SLP194
CYQB;2002-09-29 00:00;METAR CYQB 290000Z 30006KT 15SM SKC 08/M01 A3013 RMK SLP206
CYQB;2002-09-29 01:00;METAR CYQB 290100Z 31007KT 15SM SKC 07/M00 A3016 RMK SLP215
CYQB;2002-09-29 02:00;METAR CYQB 290200Z 32006KT 15SM SKC 06/M01 A3017 RMK SLP220
CYQB;2002-09-29 03:00;METAR CYQB 290300Z 34006KT 15SM SKC 06/M01 A3019 RMK SLP226
CYQB;2002-09-29 04:00;METAR CYQB 290400Z 01004KT 15SM SKC 04/M01 A3020 RMK SLP229
CYQB;2002-09-29 05:00;METAR CYQB 290500Z 03004KT 15SM BKN120 03/M00 A3020 RMK AC6 SLP230
CYQB;2002-09-29 06:00;METAR CYQB 290600Z 03004KT 15SM BKN130 04/M00 A3021 RMK AC5 SLP232
CYQB;2002-09-29 07:00;METAR CYQB 290700Z 00000KT 15SM SCT120 04/M00 A3022 RMK AC4 SLP235
CYQB;2002-09-29 08:00;METAR CYQB 290800Z 00000KT 15SM BKN090 04/02 A3022 RMK AC6 SLP236
CYQB;2002-09-29 09:00;METAR CYQB 290900Z 00000KT 15SM SCT110 03/01 A3024 RMK AC4 SLP243
CYQB;2002-09-29 10:00;METAR CYQB 291000Z 01002KT 15SM SCT110 02/00 A3026 RMK AC4 SLP250
CYQB;2002-09-29 11:00;METAR CYQB 291100Z 05004KT 15SM SCT090 02/01 A3027 RMK AC4 SLP252
CYQB;2002-09-29 12:00;METAR CYQB 291200Z 00000KT 20SM FEW090 BKN170 04/M00 A3028 RMK AC1AC4 SLP256
CYQB;2002-09-29 13:00;METAR CYQB 291300Z 18003KT 30SM SCT170 06/01 A3029 RMK AC2 SLP261
CYQB;2002-09-29 14:00;METAR CYQB 291400Z 29002KT 30SM BKN150 09/01 A3029 RMK AC4 SLP261
CYQB;2002-09-29 15:00;METAR CYQB 291500Z 34009KT 30SM BKN090 BKN150 11/M02 A3028 RMK AC5AC2 SLP255
CYQB;2002-09-29 16:00;METAR CYQB 291600Z 28007KT 30SM BKN090 11/M00 A3028 RMK AC7 SLP254
CYQB;2002-09-29 17:00;METAR CYQB 291700Z 24008KT 30SM FEW060 BKN080 11/01 A3026 RMK SC1AC6 ACSL SLP250
CYQB;2002-09-29 18:00;METAR CYQB 291800Z 33016G21KT 30SM FEW050 BKN080 12/01 A3025 RMK SC1AC5 SLP244
CYQB;2002-09-29 19:00;METAR CYQB 291900Z 26012KT 30SM BKN080 11/02 A3025 RMK AC7 SLP245
CYQB;2002-09-29 20:00;METAR CYQB 292000Z 27012KT 30SM BKN070 11/02 A3024 RMK AC6 SLP243
CYQB;2002-09-29 21:00;METAR CYQB 292100Z 26011KT 30SM BKN062 10/02 A3024 RMK SC7 SLP244
CYQB;2002-09-29 22:00;METAR CYQB 292200Z 26008KT 30SM BKN060 10/03 A3024 RMK SC7 SLP244
CYQB;2002-09-29 23:00;METAR CYQB 292300Z 27007KT 20SM BKN061 08/03 A3025 RMK SC6 SLP248
CYQB;2002-09-30 00:00;METAR CYQB 300000Z 26007KT 15SM BKN059 08/04 A3026 RMK SC7 SLP249
CYQB;2002-09-30 01:00;METAR CYQB 300100Z 30002KT 15SM BKN080 08/04 A3027 RMK AC7 SLP252
CYQB;2002-09-30 02:00;METAR CYQB 300200Z 00000KT 15SM BKN081 07/03 A3026 RMK AC7 SLP251
CYQB;2002-09-30 03:00;METAR CYQB 300300Z 36002KT 15SM SCT080 07/03 A3026 RMK AC3 SLP249
CYQB;2002-09-30 04:00;METAR CYQB 300400Z 03004KT 15SM BKN077 06/04 A3026 RMK AC6 SLP248
CYQB;2002-09-30 05:00;METAR CYQB 300500Z 01005KT 15SM SCT040 OVC075 05/04 A3026 RMK SC4AC4 SLP250
CYQB;2002-09-30 06:00;METAR CYQB 300600Z 02004KT 15SM BKN040 OVC080 06/04 A3025 RMK SC7AC1 SLP247
CYQB;2002-09-30 07:00;METAR CYQB 300700Z 36004KT 15SM BKN040 OVC080 06/04 A3024 RMK SC7AC1 SLP243
CYQB;2002-09-30 08:00;METAR CYQB 300800Z 02003KT 15SM OVC041 06/04 A3023 RMK SC8 SLP238
CYQB;2002-09-30 09:00;METAR CYQB 300900Z 02004KT 15SM OVC041 06/04 A3022 RMK SC8 SLP234
CYQB;2002-09-30 10:00;METAR CYQB 301000Z 03003KT 15SM FEW040 BKN055 OVC070 07/04 A3021 RMK SC1SC6AC0 SLP233 SLP233
CYQB;2002-09-30 11:00;METAR CYQB 301100Z 03003KT 15SM SCT045 BKN055 07/04 A3021 RMK SC4SC3 SLP232
CYQB;2002-09-30 12:00;METAR CYQB 301200Z 01003KT 15SM OVC045 08/05 A3021 RMK SC8 SLP231
CYQB;2002-09-30 13:00;METAR CYQB 301300Z 02003KT 15SM OVC045 09/05 A3021 RMK SC8 SLP231
CYQB;2002-09-30 14:00;METAR CYQB 301400Z 04002KT 15SM OVC044 10/05 A3019 RMK SC8 SLP225
CYQB;2002-09-30 15:00;METAR CYQB 301500Z 07004KT 15SM OVC040 11/06 A3016 RMK SC8 SLP214
CYQB;2002-09-30 16:00;METAR CYQB 301600Z 00000KT 15SM OVC044 12/06 A3014 RMK SC8 SLP207
CYQB;2002-09-30 17:00;METAR CYQB 301700Z 33002KT 15SM OVC035 12/07 A3012 RMK SC8 SLP201
CYQB;2002-09-30 18:00;METAR CYQB 301800Z 00000KT 10SM -SHRA OVC025 12/07 A3008 RMK SC8 SLP190
CYQB;2002-09-30 19:00;METAR CYQB 301900Z 00000KT 10SM -SHRA OVC018 12/08 A3006 RMK SC8 PCPN VERY LGT SLP182 SLP182
CYQB;2002-09-30 20:00;METAR CYQB 302000Z 36002KT 12SM OVC018 13/08 A3004 RMK SC8 SLP175
CYQB;2002-09-30 21:00;METAR CYQB 302100Z 36004KT 12SM OVC020 13/10 A3001 RMK SC8 SLP165
CYQB;2002-09-30 22:00;METAR CYQB 302200Z 36002KT 12SM -SHRA OVC025 12/10 A3000 RMK SC8 SLP159
CYQB;2002-09-30 23:00;METAR CYQB 302300Z 03002KT 10SM -SHRA OVC015 11/11 A2999 RMK SC8 SLP156
CYQB;2002-10-01 00:00;METAR CYQB 010000Z 04002KT 12SM -SHRA OVC021 12/12 A2998 RMK SC8 SLP153
CYQB;2002-10-01 01:00;METAR CYQB 010100Z 18003KT 2SM -SHRA BR OVC028 12/12 A2996 RMK FG2SC6 SLP146
CYQB;2002-10-01 02:00;METAR CYQB 010200Z 27003KT 4SM -SHRA BR SCT012 OVC026 12/12 A2994 RMK SC3SC5 SLP141 SLP141
CYQB;2002-10-01 03:00;METAR CYQB 010300Z 25006KT 4SM BR OVC014 14/14 A2994 RMK SC8 SLP140
CYQB;2002-10-01 04:00;METAR CYQB 010400Z 25008KT 3SM BR OVC013 15/15 A2994 RMK SC8 SLP139
CYQB;2002-10-01 05:00;METAR CYQB 010500Z 23006KT 3SM BR SCT013 OVC033 15/15 A2994 RMK SC3SC5
CYQB;2002-10-01 06:00;METAR CYQB 010600Z 24006KT 3SM BR SCT013 BKN036 15/15 A2993 RMK SC3SC4 SLP138
CYQB;2002-10-01 07:00;METAR CYQB 010700Z 26006KT 3SM BR FEW013 OVC034 15/15 A2992 RMK SC2SC6 SLP133
CYQB;2002-10-01 08:00;METAR CYQB 010800Z 00000KT 2 1/2SM BR OVC017 15/15 A2992 RMK SC8 SLP135
CYQB;2002-10-01 09:00;METAR CYQB 010900Z 25003KT 2 1/2SM BR OVC015 15/15 A2992 RMK SC8 SLP131
CYQB;2002-10-01 10:00;METAR CYQB 011000Z 00000KT 3SM BR OVC010 15/15 A2991 RMK SC8 SLP129
CYQB;2002-10-01 11:00;METAR CYQB 011100Z 16002KT 1SM BR VV005 15/15 A2991 RMK FG8 SLP128
CYQB;2002-10-01 12:00;METAR CYQB 011200Z 23005KT 2SM BR SCT006 OVC020 15/15 A2990 RMK SF3SC5 SLP126
CYQB;2002-10-01 13:00;METAR CYQB 011300Z 24008KT 4SM BR FEW008 OVC018 16/15 A2989 RMK SF2SC6 SLP124
CYQB;2002-10-01 14:00;METAR CYQB 011400Z 26007KT 6SM BR FEW006 OVC015 17/16 A2988 RMK SF1SC7 SLP118
CYQB;2002-10-01 15:00;METAR CYQB 011500Z 24008KT 6SM BR BKN019 OVC220 18/17 A2985 RMK SC7CI0 SLP108
CYQB;2002-10-01 16:00;METAR CYQB 011600Z 25018KT 8SM BKN024 BKN070 OVC220 21/18 A2981 RMK SC6AC1CI0 SLP096 SLP096
CYQB;2002-10-01 17:00;METAR CYQB 011700Z 26015G20KT 8SM BKN024 OVC070 21/18 A2979 RMK SC6AC2 SLP090
CYQB;2002-10-01 18:00;METAR CYQB 011800Z 25017G22KT 8SM BKN028 BKN070 BKN140 OVC220 21/18 A2978 RMK SC5AC1AC2CI1 SLP083 SC5AC1AC2CI1 SLP083
CYQB;2002-10-01 19:00;METAR CYQB 011900Z 25015G20KT 8SM BKN042 BKN070 BKN110 22/18 A2977 RMK SC5AC2AC1 SLP081 SLP081
CYQB;2002-10-01 20:00;METAR CYQB 012000Z 25015G26KT 10SM SCT040 BKN075 23/18 A2978 RMK CU3AC3 TCU ASOCTD S SLP083
CYQB;2002-10-01 21:00;METAR CYQB 012100Z 25012G21KT 12SM FEW040 22/19 A2978 RMK CU2 SLP085
CYQB;2002-10-01 22:00;METAR CYQB 012200Z 24007KT 12SM FEW065 SCT250 21/18 A2981 RMK SC2CI0 SLP094
CYQB;2002-10-01 23:00;METAR CYQB 012300Z 24006KT 12SM FEW055 20/18 A2983 RMK SC2 SLP100
CYQB;2002-10-02 00:00;METAR CYQB 020000Z 24009KT 12SM FEW055 19/18 A2983 RMK SC2 SLP104
CYQB;2002-10-02 01:00;METAR CYQB 020100Z 25010KT 12SM SKC 19/18 A2984 RMK HAZY SLP105
CYQB;2002-10-02 02:00;METAR CYQB 020200Z 24008KT 10SM SKC 19/18 A2983 RMK HAZY SLP103
CYQB;2002-10-02 03:00;METAR CYQB 020300Z 28006KT 10SM SKC 17/17 A2982 RMK SLP100
CYQB;2002-10-02 04:00;METAR CYQB 020400Z 27004KT 4SM BR SKC 16/16 A2982 RMK FG2 SLP099
CYQB;2002-10-02 05:00;METAR CYQB 020500Z 00000KT 3/4SM R06/2600V5500FT/U BR SKC 16/16 A2983 RMK FG4 SLP101 SLP101
CYQB;2002-10-02 06:00;METAR CYQB 020600Z 24006KT 3/4SM R06/2200VP6000FT/U BR SKC 16/16 A2982 RMK FG4 VSBY VRBL 1/2-11/4 SLP098 VSBY VRBL 1/2-11/4 SLP098
CYQB;2002-10-02 07:00;METAR CYQB 020700Z 24006KT 1SM R06/P6000FT/N BR SCT056 17/17 A2979 RMK FG3SC1 SLP089 SLP089
CYQB;2002-10-02 08:00;METAR CYQB 020800Z 25009KT 1SM R06/P6000FT/U BR SCT014 17/17 A2978 RMK FG2SC2 SLP084 SLP084
CYQB;2002-10-02 09:00;METAR CYQB 020900Z 24008KT 1 1/2SM BR OVC012 18/18 A2977 RMK FG2SC4 SLP081
CYQB;2002-10-02 10:00;METAR CYQB 021000Z 24005KT 1 1/2SM BR OVC011 18/18 A2978 RMK FG2SC6 SLP083
CYQB;2002-10-02 11:00;METAR CYQB 021100Z 26008KT 1 1/2SM BR OVC007 18/18 A2979 RMK SF8 SLP088
CYQB;2002-10-02 12:00;METAR CYQB 021200Z 24010KT 2SM BR OVC006 18/18 A2980 RMK SF8 SLP091
CYQB;2002-10-02 13:00;METAR CYQB 021300Z 24010KT 3SM BR OVC006 19/18 A2979 RMK SF8 SLP088
CYQB;2002-10-02 14:00;METAR CYQB 021400Z 25010KT 4SM BR BKN009 OVC028 19/19 A2980 RMK SF7SC1 SLP091
CYQB;2002-10-02 15:00;METAR CYQB 021500Z 25012KT 5SM BR BKN015 BKN038 20/19 A2978 RMK SC5SC2 SLP086
CYQB;2002-10-02 16:00;METAR CYQB 021600Z 25015KT 8SM FEW024 SCT041 22/18 A2977 RMK SC2SC2 SLP082
CYQB;2002-10-02 17:00;METAR CYQB 021700Z 25020KT 10SM SCT025 24/18 A2976 RMK CF3 SLP078
CYQB;2002-10-02 18:00;METAR CYQB 021800Z 25018G24KT 10SM SCT025 SCT070 BKN250 24/18 A2974 RMK CF3AC1CI0 SLP070 SLP070
CYQB;2002-10-02 19:00;METAR CYQB 021900Z 26009G15KT 15SM BKN024 23/18 A2974 RMK CU6 SLP072
CYQB;2002-10-02 20:00;METAR CYQB 022000Z 28015G21KT 15SM SCT025 BKN045 BKN080 23/17 A2974 RMK CU3CU2AC1 SLP070
CYQB;2002-10-02 21:00;METAR CYQB 022100Z 30014KT 15SM SCT045 BKN130 22/12 A2975 RMK CU3AC2 SLP074
CYQB;2002-10-02 22:00;METAR CYQB 022200Z 34013KT 15SM BKN130 20/12 A2976 RMK AC6 SLP079
CYQB;2002-10-02 23:00;METAR CYQB 022300Z 35012KT 15SM BKN160 19/11 A2979 RMK AC6 SLP087
CYQB;2002-10-03 00:00;METAR CYQB 030000Z 34008KT 15SM BKN150 17/08 A2982 RMK AC5 SLP100
CYQB;2002-10-03 01:00;METAR CYQB 030100Z 34007KT 15SM BKN110 16/07 A2985 RMK AC6 SLP108
CYQB;2002-10-03 02:00;METAR CYQB 030200Z 34005KT 15SM BKN130 15/08 A2986 RMK AC6 SLP114
CYQB;2002-10-03 03:00;METAR CYQB 030300Z 36007KT 15SM FEW060 BKN200 14/07 A2988 RMK SC2CI3 SLP118
CYQB;2002-10-03 04:00;METAR CYQB 030400Z 36011KT 15SM BKN057 BKN200 13/06 A2989 RMK SC5CI2 SLP121
CYQB;2002-10-03 05:00;METAR CYQB 030500Z 36010G15KT 15SM BKN062 BKN200 11/05 A2991 RMK SC5CI2 SLP129
CYQB;2002-10-03 06:00;METAR CYQB 030600Z 36011KT 15SM FEW060 BKN190 10/03 A2992 RMK SC2CI3 SLP133
CYQB;2002-10-03 07:00;METAR CYQB 030700Z 35011G16KT 15SM BKN039 BKN180 10/02 A2995 RMK SC5CI2 SLP142
CYQB;2002-10-03 08:00;METAR CYQB 030800Z 36011KT 15SM BKN046 BKN180 09/00 A2997 RMK SC5CI2 SLP151
CYQB;2002-10-03 09:00;METAR CYQB 030900Z 36009KT 15SM SCT055 BKN180 08/M01 A3000 RMK SC4CI2 SLP159
CYQB;2002-10-03 10:00;METAR CYQB 031000Z 36008KT 15SM FEW055 BKN240 08/M01 A3003 RMK SC2CI4 SLP170
CYQB;2002-10-03 11:00;METAR CYQB 031100Z 36008KT 30SM FEW055 SCT150 BKN240 07/M00 A3007 RMK SC2AC2CI1 SLP182 SLP182
CYQB;2002-10-03 12:00;METAR CYQB 031200Z 02008KT 30SM FEW055 BKN250 07/M00 A3010 RMK SC1CI2 SLP195
CYQB;2002-10-03 13:00;METAR CYQB 031300Z 36010G16KT 30SM FEW055 FEW250 08/M01 A3012 RMK SC1CI1 SLP201
CYQB;2002-10-03 14:00;METAR CYQB 031400Z 35012KT 30SM FEW050 FEW250 09/M01 A3014 RMK SC1CI1 SLP207
CYQB;2002-10-03 15:00;METAR CYQB 031500Z 34007KT 30SM FEW050 FEW250 10/M01 A3014 RMK SC1CI1 SLP209
CYQB;2002-10-03 16:00;METAR CYQB 031600Z 06006KT 30SM FEW050 FEW250 12/M02 A3016 RMK SC2CI1 SLP214
CYQB;2002-10-03 17:00;METAR CYQB 031700Z 05004KT 30SM SCT062 SCT250 12/02 A3017 RMK SC3CI1 SLP216
CYQB;2002-10-03 18:00;METAR CYQB 031800Z 24006KT 30SM SCT066 SCT250 12/M00 A3016 RMK SC3CI1
CYQB;2002-10-03 19:00;METAR CYQB 031900Z 07005KT 30SM FEW060 13/00 A3016 RMK SC2 SLP215
CYQB;2002-10-03 20:00;METAR CYQB 032000Z 19002KT 30SM FEW062 FEW250 13/M00 A3017 RMK SC1CI1 SLP217
CYQB;2002-10-03 21:00;METAR CYQB 032100Z 23003KT 30SM FEW062 FEW250 12/00 A3018 RMK SC1CI1 SLP222
CYQB;2002-10-03 22:00;METAR CYQB 032200Z 18002KT 30SM FEW060 FEW250 12/01 A3019 RMK SC1CI1 SLP226
CYQB;2002-10-03 23:00;METAR CYQB 032300Z 10006KT 30SM FEW250 09/01 A3022 RMK CI0 SLP236
CYQB;2002-10-04 00:00;METAR CYQB 040000Z 02006KT 15SM SKC 07/02 A3024 RMK SLP242
CYQB;2002-10-04 01:00;METAR CYQB 040100Z 36003KT 15SM SKC 06/02 A3026 RMK SLP251
CYQB;2002-10-04 02:00;METAR CYQB 040200Z 36004KT 15SM SKC 06/02 A3027 RMK SLP252
CYQB;2002-10-04 03:00;METAR CYQB 040300Z 01005KT 15SM SKC 05/02 A3028 RMK SLP257
CYQB;2002-10-04 04:00;METAR CYQB 040400Z 01004KT 15SM SKC 04/01 A3029 RMK SLP261
CYQB;2002-10-04 05:00;METAR CYQB 040500Z 01005KT 15SM SKC 03/01 A3030 RMK SLP263
CYQB;2002-10-04 06:00;METAR CYQB 040600Z 03005KT 15SM SKC 03/01 A3029 RMK SLP261
CYQB;2002-10-04 07:00;METAR CYQB 040700Z 34003KT 15SM SKC 03/01 A3028 RMK SLP255
CYQB;2002-10-04 08:00;METAR CYQB 040800Z 03004KT 15SM SKC 02/00 A3027 RMK SLP253
CYQB;2002-10-04 09:00;METAR CYQB 040900Z 01004KT 15SM SKC 02/00 A3028 RMK SLP257
CYQB;2002-10-04 10:00;METAR CYQB 041000Z 03005KT 15SM FEW100 02/00 A3027 RMK AC1 SLP252
CYQB;2002-10-04 11:00;METAR CYQB 041100Z 02004KT 30SM FEW070 FEW220 02/00 A3026 RMK AC1CI1 SLP250 BARO READ +30 SLP246
CYQB;2002-10-04 13:00;METAR CYQB 041300Z 07006KT 30SM FEW080 SCT250 07/03 A3024 RMK AC2CI1 SLP243
CYQB;2002-10-04 14:00;METAR CYQB 041400Z 09005KT 30SM FEW030 FEW080 FEW250 09/03 A3022 RMK SC1AC1CI0 SLP237 SLP237
CYQB;2002-10-04 15:00;METAR CYQB 041500Z 07005KT 30SM BKN038 11/04 A3018 RMK SC7 BARO READ +16 SLP221
CYQB;2002-10-04 16:00;METAR CYQB 041600Z 07006KT 30SM BKN039 12/05 A3015 RMK SC7 SLP212
CYQB;2002-10-04 17:00;METAR CYQB 041700Z 06006KT 30SM BKN041 13/06 A3012 RMK SC7 SLP203
CYQB;2002-10-04 18:00;METAR CYQB 041800Z 07006KT 30SM BKN039 13/07 A3007 RMK SC7 SLP186
CYQB;2002-10-04 19:00;METAR CYQB 041900Z 05005KT 30SM OVC036 14/07 A3004 RMK SC8 SLP174
CYQB;2002-10-04 20:00;METAR CYQB 042000Z 00000KT 15SM OVC034 13/10 A3003 RMK SC8 SLP170
CYQB;2002-10-04 21:00;METAR CYQB 042100Z 18002KT 10SM -SHRA OVC030 14/10 A3000 RMK SC8 SLP162
CYQB;2002-10-04 22:00;METAR CYQB 042200Z 16008KT 10SM OVC029 13/10 A2996 RMK SC8 OCNL RW- SLP149
CYQB;2002-10-04 23:00;METAR CYQB 042300Z 11004KT 10SM OVC027 12/10 A2995 RMK SC8 OCNL RW- SLP144
CYQB;2002-10-05 00:00;METAR CYQB 050000Z 10004KT 10SM OVC026 12/10 A2990 RMK SC8 OCNL RW- SLP127
CYQB;2002-10-05 01:00;METAR CYQB 050100Z 07004KT 10SM OVC028 12/10 A2986 RMK SC8 OCNL RW- SLP114
CYQB;2002-10-05 02:00;METAR CYQB 050200Z 05005KT 8SM -SHRA OVC025 12/10 A2982 RMK SC8 SLP099
CYQB;2002-10-05 03:00;METAR CYQB 050300Z 07007KT 8SM -SHRA OVC026 11/11 A2976 RMK SC8 SLP080
CYQB;2002-10-05 04:00;METAR CYQB 050400Z 07009KT 8SM OVC026 12/11 A2970 RMK SC8 SLP057
CYQB;2002-10-05 05:00;METAR CYQB 050500Z 07008KT 12SM BKN028 OVC090 12/12 A2963 RMK SC6AC2 SLP034
CYQB;2002-10-05 06:00;METAR CYQB 050600Z 09005KT 12SM BKN029 OVC090 13/12 A2957 RMK SC6AC2 SLP013
CYQB;2002-10-05 07:00;METAR CYQB 050700Z 14005KT 12SM BKN034 OVC090 15/13 A2947 RMK SC6AC2 SLP981
CYQB;2002-10-05 08:00;METAR CYQB 050800Z 19012G17KT 10SM -SHRA BKN018 OVC032 17/16 A2939 RMK SC6SC2 SLP953 SLP953
CYQB;2002-10-05 09:00;METAR CYQB 050900Z 21024G34KT 15SM FEW018 BKN040 OVC090 19/17 A2934 RMK SC2SC5AC2 SLP936 SLP936
CYQB;2002-10-05 10:00;METAR CYQB 051000Z 23029G40KT 15SM -SHRA BKN028 OVC036 19/18 A2937 RMK SC5SC3 SLP947 SLP947
CYQB;2002-10-05 11:00;METAR CYQB 051100Z 25025G34KT 15SM VCSH FEW018 BKN041 BKN090 19/17 A2944 RMK CF2SC4AC1 SHWRS AND LWR VSBY W SLP969 CF2SC4AC1 SHWRS AND LWR VSBY W SLP969
CYQB;2002-10-05 12:00;METAR CYQB 051200Z 24020G28KT 20SM FEW015 FEW040 BKN083 19/15 A2948 RMK CF1SC1AC6 SLP984 SLP984
CYQB;2002-10-05 13:00;METAR CYQB 051300Z 25022G33KT 12SM -SHRA FEW018 BKN025 BKN079 18/15 A2952 RMK SF2SC3AC2 SLP996 SF2SC3AC2 SLP996
CYQB;2002-10-05 14:00;METAR CYQB 051400Z 24022G28KT 15SM FEW028 SCT040 BKN082 19/15 A2953 RMK SF2SC2AC3 SLP002 SLP002
CYQB;2002-10-05 15:00;METAR CYQB 051500Z 25020G30KT 15SM FEW030 SCT060 BKN090 20/15 A2956 RMK SF2SC2AC3 SLP009 SLP009
CYQB;2002-10-05 16:00;METAR CYQB 051600Z 27022G30KT 8SM -SHRA SCT026 BKN050 BKN080 17/15 A2959 RMK SF3SC2AC2 VSBY LWR W FROPA PRESRR SLP021 SF3SC2AC2 VSBY LWR W FROPA PRESRR SLP021
CYQB;2002-10-05 17:00;METAR CYQB 051700Z 28018G25KT 15SM BKN035 BKN070 17/13 A2963 RMK SC5AC2
CYQB;2002-10-05 18:00;METAR CYQB 051800Z 27012G19KT 15SM BKN030 BKN052 15/10 A2970 RMK SC5SC2 SLP058
CYQB;2002-10-05 19:00;METAR CYQB 051900Z 27019G25KT 30SM SCT030 BKN065 16/09 A2973 RMK SC3AC2 SLP069
CYQB;2002-10-05 20:00;METAR CYQB 052000Z 29020G25KT 30SM BKN043 14/07 A2979 RMK SC5 SLP088
CYQB;2002-10-05 21:00;METAR CYQB 052100Z 29015G21KT 30SM SCT054 13/07 A2984 RMK SC4 SLP105
CYQB;2002-10-05 22:00;METAR CYQB 052200Z 28010G16KT 30SM FEW042 FEW063 12/06 A2989 RMK SC1SC2 FIRST LYR TR SLP123 TR SLP123
CYQB;2002-10-05 23:00;METAR CYQB 052300Z 27009KT 15SM FEW055 10/05 A2995 RMK SC1 SLP142
CYQB;2002-10-06 00:00;METAR CYQB 060000Z 26009KT 15SM FEW055 09/05 A2998 RMK SC2 SLP155
CYQB;2002-10-06 01:00;METAR CYQB 060100Z 27014G19KT 15SM SCT057 10/05 A3002 RMK SC3 SLP168
CYQB;2002-10-06 02:00;METAR CYQB 060200Z 26009KT 15SM FEW057 08/05 A3006 RMK SC1 SLP182
CYQB;2002-10-06 03:00;METAR CYQB 060300Z 25009KT 15SM FEW066 07/05 A3009 RMK AC1 SLP192
CYQB;2002-10-06 04:00;METAR CYQB 060400Z 24006KT 15SM SKC 06/04 A3013 RMK SLP204
CYQB;2002-10-06 05:00;METAR CYQB 060500Z 24006KT 15SM SKC 05/03 A3015 RMK SLP210
CYQB;2002-10-06 06:00;METAR CYQB 060600Z 27007KT 15SM SKC 05/02 A3017 RMK SLP218
CYQB;2002-10-06 07:00;METAR CYQB 060700Z 24008KT 15SM SKC 05/03 A3018 RMK SLP221
CYQB;2002-10-06 08:00;METAR CYQB 060800Z 27006KT 15SM SKC 03/02 A3021 RMK SLP231
CYQB;2002-10-06 09:00;METAR CYQB 060900Z 26009KT 15SM SKC 03/03 A3023 RMK SLP238
CYQB;2002-10-06 10:00;METAR CYQB 061000Z 26006KT 15SM FEW020 03/02 A3025 RMK CF1 SLP247
CYQB;2002-10-06 11:00;METAR CYQB 061100Z 28009KT 30SM FEW012 02/01 A3028 RMK CF1 SLP256
CYQB;2002-10-06 12:00;METAR CYQB 061200Z 27008KT 30SM FEW015 04/03 A3031 RMK CF1 SLP266
CYQB;2002-10-06 13:00;METAR CYQB 061300Z 27006KT 30SM FEW020 07/03 A3034 RMK CF1 SLP276
CYQB;2002-10-06 14:00;METAR CYQB 061400Z 31005KT 30SM FEW025 07/01 A3036 RMK CU1 SLP282
CYQB;2002-10-06 15:00;METAR CYQB 061500Z 28003KT 30SM FEW025 FEW200 08/01 A3035 RMK CU1CI1 SLP280
CYQB;2002-10-06 16:00;METAR CYQB 061600Z 33003KT 30SM FEW030 FEW200 10/02 A3035 RMK CU1CI1 SLP279
CYQB;2002-10-06 17:00;METAR CYQB 061700Z 18007KT 30SM FEW050 FEW100 FEW220 10/03 A3031 RMK CU1AC1CI1 SLP268 SLP268
CYQB;2002-10-06 18:00;METAR CYQB 061800Z 22010KT 30SM FEW050 FEW220 11/02 A3030 RMK CU1CI1 SLP265
CYQB;2002-10-06 19:00;METAR CYQB 061900Z 22009KT 30SM FEW040 FEW240 11/01 A3028 RMK CU1CI1 SLP257
CYQB;2002-10-06 20:00;METAR CYQB 062000Z 23005KT 30SM FEW240 11/01 A3026 RMK CI1 SLP250
CYQB;2002-10-06 21:00;METAR CYQB 062100Z 30004KT 30SM FEW140 SCT240 11/M00 A3026 RMK AC1CI1 CC ASOCTD SLP250 SLP250
CYQB;2002-10-06 22:00;METAR CYQB 062200Z 36002KT 30SM FEW080 SCT140 BKN240 10/M00 A3026 RMK AC1AC2CI1 SLP250
CYQB;2002-10-06 23:00;METAR CYQB 062300Z 04004KT 30SM FEW080 SCT140 BKN240 09/02 A3025 RMK AC1AC1CI2 SLP245 SLP245
CYQB;2002-10-07 00:00;METAR CYQB 070000Z 04005KT 15SM FEW080 SCT140 BKN240 07/03 A3023 RMK AC2AC1CI1 SLP239 SLP239
CYQB;2002-10-07 01:00;METAR CYQB 070100Z 06007KT 15SM FEW080 BKN240 07/02 A3021 RMK AC2CI2 SLP232
CYQB;2002-10-07 02:00;METAR CYQB 070200Z 07009KT 15SM BKN240 07/04 A3019 RMK CI2 SLP227
CYQB;2002-10-07 03:00;METAR CYQB 070300Z 07009KT 15SM BKN170 OVC240 08/03 A3016 RMK AC4CI1 SLP216
CYQB;2002-10-07 04:00;METAR CYQB 070400Z 08008KT 15SM BKN160 OVC240 08/05 A3013 RMK AC5CI3 SLP206
CYQB;2002-10-07 05:00;METAR CYQB 070500Z 09007KT 15SM BKN160 OVC220 09/04 A3009 RMK AC6CI2 SLP191
CYQB;2002-10-07 06:00;METAR CYQB 070600Z 08007KT 15SM BKN220 08/01 A3006 RMK CI5 SLP183
CYQB;2002-10-07 07:00;METAR CYQB 070700Z 09008KT 15SM BKN200 08/02 A3002 RMK CI5 SLP168
CYQB;2002-10-07 08:00;METAR CYQB 070800Z 09006KT 15SM SCT200 08/02 A2998 RMK CI4 SLP156
CYQB;2002-10-07 09:00;METAR CYQB 070900Z 09008KT 15SM SCT050 BKN190 09/03 A2994 RMK SC3CI4 SLP142
CYQB;2002-10-07 10:00;METAR CYQB 071000Z 10006KT 15SM OVC045 09/03 A2990 RMK SC8 SLP128
CYQB;2002-10-07 11:00;METAR CYQB 071100Z 10010KT 15SM OVC042 10/03 A2986 RMK SC8 SLP114
CYQB;2002-10-07 12:00;METAR CYQB 071200Z 09008KT 20SM -SHRA BKN041 BKN080 OVC160 10/03 A2981 RMK SC6AC1AC1 SLP095
CYQB;2002-10-07 13:00;METAR CYQB 071300Z 06007KT 10SM -SHRA BKN040 OVC080 08/06 A2975 RMK SC6AC2 VSBY LWR NW SLP076 LWR NW SLP076
CYQB;2002-10-07 14:00;METAR CYQB 071400Z 06006KT 5SM -SHRA SCT015 OVC031 08/07 A2972 RMK SF3SC5 VSBY LWR N SLP067 LWR N SLP067
CYQB;2002-10-07 15:00;METAR CYQB 071500Z 15004KT 12SM FEW015 SCT030 OVC051 09/08 A2970 RMK SF2SC2SC4 SLP060 SLP060
CYQB;2002-10-07 16:00;METAR CYQB 071600Z 25006KT 15SM BKN027 BKN035 12/10 A2970 RMK SC6CU1 SLP058
CYQB;2002-10-07 17:00;METAR CYQB 071700Z 22022G32KT 15SM BKN035 BKN220 17/10 A2966 RMK CU5CI1 SLP046
CYQB;2002-10-07 18:00;METAR CYQB 071800Z 24024G38KT 30SM BKN027 BKN220 17/08 A2967 RMK CU5CI1 SLP047
CYQB;2002-10-07 19:00;METAR CYQB 071900Z 24027G36KT 30SM BKN033 BKN220 17/06 A2967 RMK CU6CI1 SLP049
CYQB;2002-10-07 20:00;METAR CYQB 072000Z 24026G37KT 30SM SCT056 SCT220 16/06 A2969 RMK CU3CI1 SLP055
CYQB;2002-10-07 21:00;METAR CYQB 072100Z 27025G38KT 30SM FEW064 FEW220 14/04 A2977 RMK CU2CI1 PRESRR SLP081 SLP081
CYQB;2002-10-07 22:00;METAR CYQB 072200Z 29017G26KT 30SM FEW050 FEW220 11/01 A2982 RMK CU1CI0 SLP099
CYQB;2002-10-07 23:00;METAR CYQB 072300Z 27014KT 15SM FEW058 09/01 A2989 RMK CU1 SLP121
CYQB;2002-10-08 00:00;METAR CYQB 080000Z 28015KT 15SM SKC 08/01 A2993 RMK SLP136
CYQB;2002-10-08 01:00;METAR CYQB 080100Z 26011KT 15SM SKC 07/01 A2996 RMK SLP146
CYQB;2002-10-08 02:00;METAR CYQB 080200Z 24008KT 15SM FEW040 05/01 A2998 RMK SC2 SLP155
CYQB;2002-10-08 03:00;METAR CYQB 080300Z 25006KT 15SM SKC 05/01 A3000 RMK SLP160
CYQB;2002-10-08 04:00;METAR CYQB 080400Z 26006KT 15SM SKC 04/00 A3000 RMK SLP160
CYQB;2002-10-08 05:00;METAR CYQB 080500Z 23008KT 15SM SKC 04/00 A3001 RMK SLP164
CYQB;2002-10-08 06:00;METAR CYQB 080600Z 24009KT 15SM SKC 03/00 A3003 RMK SLP171
CYQB;2002-10-08 07:00;METAR CYQB 080700Z 24009KT 15SM SKC 03/00 A3005 RMK SLP178
CYQB;2002-10-08 08:00;METAR CYQB 080800Z 25012KT 15SM FEW040 02/M01 A3008 RMK SC1 SLP187
CYQB;2002-10-08 09:00;METAR CYQB 080900Z 25010KT 15SM FEW040 01/M03 A3011 RMK SC1 SLP197
CYQB;2002-10-08 10:00;METAR CYQB 081000Z 26012KT 15SM FEW040 FEW090 00/M03 A3014 RMK SC1AC1 SLP210
CYQB;2002-10-08 11:00;METAR CYQB 081100Z 26015KT 15SM SCT040 SCT230 00/M03 A3018 RMK SC3CI0 SLP221
CYQB;2002-10-08 12:00;METAR CYQB 081200Z 27012KT 50SM SCT040 01/M03 A3020 RMK SC3 SLP231
CYQB;2002-10-08 13:00;METAR CYQB 081300Z 26009KT 50SM SCT040 03/M02 A3023 RMK SC3 SLP241
CYQB;2002-10-08 14:00;METAR CYQB 081400Z 30006KT 50SM BKN044 05/M04 A3025 RMK SC5 SLP248
CYQB;2002-10-08 15:00;METAR CYQB 081500Z 31009G20KT 30SM BKN048 06/M03 A3028 RMK SC6 SLP255
CYQB;2002-10-08 16:00;METAR CYQB 081600Z 28006G20KT 50SM BKN050 07/M03 A3029 RMK SC6 SLP259
CYQB;2002-10-08 17:00;METAR CYQB 081700Z 29008G16KT 50SM BKN055 08/M02 A3028 RMK SC6 SLP258
CYQB;2002-10-08 18:00;METAR CYQB 081800Z 29009KT 50SM SCT055 09/M03 A3028 RMK SC4 SLP256
CYQB;2002-10-08 19:00;METAR CYQB 081900Z 30007G15KT 50SM FEW060 09/M04 A3027 RMK SC2 SLP254
CYQB;2002-10-08 20:00;METAR CYQB 082000Z 30007KT 50SM FEW060 10/M03 A3028 RMK SC2 SLP255
CYQB;2002-10-08 21:00;METAR CYQB 082100Z 30010KT 50SM FEW060 08/M04 A3029 RMK CU1 SLP260
CYQB;2002-10-08 22:00;METAR CYQB 082200Z 29005KT 50SM FEW060 FEW250 06/M03 A3030 RMK SC1CI1 SLP265
CYQB;2002-10-08 23:00;METAR CYQB 082300Z 29004KT 15SM FEW250 03/M03 A3031 RMK CI1 SLP268
CYQB;2002-10-09 00:00;METAR CYQB 090000Z 32005KT 15SM FEW250 03/M03 A3033 RMK CI1 SLP274
CYQB;2002-10-09 01:00;METAR CYQB 090100Z 36004KT 15SM FEW250 04/M03 A3034 RMK CI1 SLP278
CYQB;2002-10-09 02:00;METAR CYQB 090200Z 35005KT 15SM SKC 02/M03 A3036 RMK SLP285
CYQB;2002-10-09 03:00;METAR CYQB 090300Z 04006KT 15SM FEW250 01/M03 A3038 RMK CI2 SLP291
CYQB;2002-10-09 04:00;METAR CYQB 090400Z 36005KT 15SM FEW250 01/M03 A3039 RMK CI1 SLP295
CYQB;2002-10-09 05:00;METAR CYQB 090500Z 02004KT 15SM BKN021 01/M03 A3040 RMK CI6 SLP297
CYQB;2002-10-09 06:00;METAR CYQB 090600Z 03005KT 15SM BKN130 02/M03 A3041 RMK AC6 SLP300
CYQB;2002-10-09 07:00;METAR CYQB 090700Z 03006KT 15SM FEW120 BKN180 02/M03 A3041 RMK AC2CI6 SLP301
CYQB;2002-10-09 08:00;METAR CYQB 090800Z 04004KT 15SM BKN120 01/M02 A3040 RMK AC7 SLP296
CYQB;2002-10-09 09:00;METAR CYQB 090900Z 36003KT 15SM OVC120 02/M02 A3041 RMK AC8 SLP299
CYQB;2002-10-09 10:00;METAR CYQB 091000Z 05003KT 15SM BKN110 02/M02 A3041 RMK AC7 SLP301
CYQB;2002-10-09 11:00;METAR CYQB 091100Z 01002KT 30SM BKN100 02/M01 A3043 RMK AC7 SLP306
CYQB;2002-10-09 12:00;METAR CYQB 091200Z 03003KT 30SM BKN100 BKN240 02/M01 A3044 RMK AC7CI1 SLP313
CYQB;2002-10-09 13:00;METAR CYQB 091300Z 07003KT 30SM FEW025 BKN100 BKN240 04/00 A3044 RMK CF1AC7CI1 OBS TAKEN +13 SLP312 OBS TAKEN +13 SLP312
CYQB;2002-10-09 14:00;METAR CYQB 091400Z 09011KT 30SM FEW030 BKN090 BKN100 06/M02 A3044 RMK CU1AS6AC2 SLP313
CYQB;2002-10-09 15:00;METAR CYQB 091500Z 09009KT 30SM FEW035 BKN080 07/M03 A3044 RMK CU1AS7 SLP310
CYQB;2002-10-09 16:00;METAR CYQB 091600Z 09009KT 30SM OVC055 06/M02 A3042 RMK SC7 SLP306
CYQB;2002-10-09 17:00;METAR CYQB 091700Z 14008KT 20SM -RA OVC029 06/M02 A3041 RMK SC8 SLP303
CYQB;2002-10-09 18:00;METAR CYQB 091800Z 13006KT 30SM OVC042 06/M01 A3039 RMK SC8 SLP296
CYQB;2002-10-09 19:00;METAR CYQB 091900Z 09006KT 30SM OVC052 06/M02 A3038 RMK SC8 SLP291
CYQB;2002-10-09 20:00;METAR CYQB 092000Z 09010KT 30SM OVC050 06/M02 A3037 RMK SC8 SLP287
CYQB;2002-10-09 21:00;METAR CYQB 092100Z 14012KT 20SM OVC038 06/M01 A3036 RMK SC8 SLP285
CYQB;2002-10-09 22:00;METAR CYQB 092200Z 08007KT 20SM -RA OVC038 05/01 A3036 RMK SC8 SLP286
CYQB;2002-10-09 23:00;METAR CYQB 092300Z 10007KT 15SM -RA OVC031 05/02 A3036 RMK SC8 SLP285
CYQB;2002-10-10 00:00;METAR CYQB 100000Z 08005KT 10SM -RA OVC025 04/02 A3036 RMK SC8 SLP286
CYQB;2002-10-10 01:00;METAR CYQB 100100Z 07009KT 8SM -RA OVC030 04/03 A3035 RMK SC8 SLP281
CYQB;2002-10-10 02:00;METAR CYQB 100200Z 06010KT 8SM -RA OVC042 04/03 A3033 RMK SC8 SLP275
CYQB;2002-10-10 03:00;METAR CYQB 100300Z 06012KT 10SM FEW022 BKN048 04/03 A3032 RMK SF1SC6 SLP270
CYQB;2002-10-10 04:00;METAR CYQB 100400Z 07009KT 8SM -RA FEW020 OVC049 04/03 A3031 RMK SF1SC7 SLP267
CYQB;2002-10-10 05:00;METAR CYQB 100500Z 06011KT 10SM FEW020 BKN045 05/03 A3030 RMK SF1SC6 SLP265
CYQB;2002-10-10 06:00;METAR CYQB 100600Z 06009KT 10SM FEW020 OVC043 05/04 A3030 RMK SF1SC7
CYQB;2002-10-10 07:00;METAR CYQB 100700Z 06009KT 10SM FEW020 OVC043 05/04 A3030 RMK SF1SC7 SLP263
CYQB;2002-10-10 08:00;METAR CYQB 100800Z 06008KT 10SM FEW012 OVC032 05/04 A3029 RMK SF1SC7 SLP260
CYQB;2002-10-10 09:00;METAR CYQB 100900Z 06010KT 8SM FEW012 BKN026 05/04 A3030 RMK SF1SC6 INTMT R- SLP264 SLP264
CYQB;2002-10-10 10:00;METAR CYQB 101000Z 05008KT 8SM -RA FEW012 OVC025 05/04 A3030 RMK SF1SC7
CYQB;2002-10-10 11:00;METAR CYQB 101100Z 07005KT 6SM -RA BR FEW010 OVC022 05/05 A3031 RMK SF2SC6 SLP268
CYQB;2002-10-10 12:00;METAR CYQB 101200Z 05007KT 8SM -SHRA FEW006 BKN009 OVC020 05/05 A3033 RMK SF2SF4SC2 SLP273
CYQB;2002-10-10 13:00;METAR CYQB 101300Z 06008KT 8SM -SHRA FEW006 SCT009 OVC020 05/05 A3033 RMK SF2SF2SC5 SLP275
CYQB;2002-10-10 14:00;METAR CYQB 101400Z 06007KT 10SM BKN010 OVC018 06/05 A3034 RMK SF5SC3 SLP278
CYQB;2002-10-10 15:00;METAR CYQB 101500Z 07007KT 10SM BKN010 OVC020 06/06 A3035 RMK SF6SC2 SLP279
CYQB;2002-10-10 16:00;METAR CYQB 101600Z 05006KT 12SM BKN008 OVC011 07/06 A3036 RMK SF6SC2 SLP282
CYQB;2002-10-10 17:00;METAR CYQB 101700Z 05005KT 12SM BKN008 OVC012 07/06 A3035 RMK SF6SC2 7-9 SLP280
CYQB;2002-10-10 19:00;METAR CYQB 101900Z 08009KT 8SM BKN008 OVC010 07/07 A3035 RMK SF7SF1 CIG VRBL 7-9 SLP280
CYQB;2002-10-10 20:00;METAR CYQB 102000Z 06008KT 8SM OVC008 07/07 A3035 RMK SF8 CIG VRBL 7-9 SLP281
CYQB;2002-10-10 21:00;METAR CYQB 102100Z 07007KT 7SM BKN012 OVC032 08/07 A3035 RMK SF6SC1 SLP281
CYQB;2002-10-10 22:00;METAR CYQB 102200Z 07007KT 10SM OVC010 07/06 A3036 RMK SF8 SLP283
CYQB;2002-10-10 23:00;METAR CYQB 102300Z 06008KT 10SM BKN010 OVC040 07/06 A3037 RMK SF6SC2 SLP288
CYQB;2002-10-11 00:00;METAR CYQB 110000Z 07007KT 8SM OVC009 07/07 A3039 RMK SF8 SLP292
CYQB;2002-10-11 01:00;METAR CYQB 110100Z 05008KT 10SM OVC009 07/07 A3038 RMK SF8 SLP289
CYQB;2002-10-11 02:00;METAR CYQB 110200Z 07006KT 10SM OVC009 07/06 A3038 RMK ST8 SLP289
CYQB;2002-10-11 03:00;METAR CYQB 110300Z 06008KT 10SM OVC008 07/07 A3038 RMK ST8 SLP291
CYQB;2002-10-11 04:00;METAR CYQB 110400Z 05004KT 10SM OVC009 07/07 A3038 RMK ST8 SLP291
CYQB;2002-10-11 05:00;METAR CYQB 110500Z 05005KT 10SM OVC008 07/07 A3038 RMK ST8 SLP289
CYQB;2002-10-11 06:00;METAR CYQB 110600Z 06004KT 10SM OVC009 07/07 A3039 RMK ST8 SLP293
CYQB;2002-10-11 07:00;METAR CYQB 110700Z 05005KT 10SM OVC009 07/07 A3039 RMK ST8 SLP293
CYQB;2002-10-11 08:00;METAR CYQB 110800Z 05007KT 10SM OVC007 07/07 A3039 RMK ST8 SLP294
CYQB;2002-10-11 09:00;METAR CYQB 110900Z 06006KT 10SM OVC007 07/07 A3040 RMK ST8 SLP297
CYQB;2002-10-11 10:00;METAR CYQB 111000Z 08005KT 4SM BR OVC005 07/07 A3041 RMK SF8 SLP300
CYQB;2002-10-11 11:00;METAR CYQB 111100Z 06005KT 5SM BR OVC007 07/07 A3043 RMK SF8 CIG RGD SLP306
CYQB;2002-10-11 12:00;METAR CYQB 111200Z 07005KT 6SM BR BKN010 OVC025 08/07 A3045 RMK SF6SC2 SLP313
CYQB;2002-10-11 13:00;METAR CYQB 111300Z 06011KT 6SM BR OVC010 08/06 A3045 RMK ST8 SLP315
CYQB;2002-10-11 14:00;METAR CYQB 111400Z 06011KT 8SM OVC011 08/06 A3047 RMK ST8 SLP320
CYQB;2002-10-11 15:00;METAR CYQB 111500Z 07009KT 8SM BKN011 08/06 A3047 RMK SC7 SLP321
CYQB;2002-10-11 16:00;METAR CYQB 111600Z 07010KT 10SM BKN011 OVC030 09/07 A3047 RMK SC7SC1 SLP321
CYQB;2002-10-11 17:00;METAR CYQB 111700Z 09007KT 15SM BKN013 09/07 A3046 RMK SC7 SLP317
CYQB;2002-10-11 18:00;METAR CYQB 111800Z 06009KT 30SM SCT014 SCT220 10/07 A3045 RMK SC2CI1 SLP315
CYQB;2002-10-11 19:00;METAR CYQB 111900Z 07010KT 30SM FEW015 FEW033 SCT047 SCT220 10/07 A3045 RMK SC1SC2SC1CI1 SLP314
CYQB;2002-10-11 20:00;METAR CYQB 112000Z 08007KT 30SM FEW035 BKN044 BKN220 09/07 A3044 RMK SC2SC2CI1 SLP312 SLP312
CYQB;2002-10-11 21:00;METAR CYQB 112100Z 07008KT 30SM BKN042 BKN220 08/07 A3044 RMK SC5CI1
CYQB;2002-10-11 22:00;METAR CYQB 112200Z 07011KT 15SM BKN010 OVC036 08/07 A3046 RMK SF5SC3 SLP316
CYQB;2002-10-11 23:00;METAR CYQB 112300Z 08010KT 10SM SCT009 OVC038 08/07 A3046 RMK SF4SC4
CYQB;2002-10-12 00:00;METAR CYQB 120000Z 07009KT 10SM SCT010 OVC045 08/07 A3046 RMK SF4SC4 SLP318
CYQB;2002-10-12 01:00;METAR CYQB 120100Z 07011KT 8SM FEW011 OVC050 08/07 A3047 RMK SF2SC6 SLP319
CYQB;2002-10-12 02:00;METAR CYQB 120200Z 07007KT 8SM BKN010 OVC033 08/06 A3047 RMK SF6SC2 SLP321
CYQB;2002-10-12 03:00;METAR CYQB 120300Z 07006KT 10SM BKN012 OVC036 08/07 A3047 RMK SF7SC1 SLP320
CYQB;2002-10-12 04:00;METAR CYQB 120400Z 08006KT 15SM SCT012 BKN026 07/06 A3046 RMK SF3SC4
CYQB;2002-10-12 05:00;METAR CYQB 120500Z 07007KT 15SM FEW012 FEW025 07/06 A3046 RMK SF2SC1 SLP316
CYQB;2002-10-12 06:00;METAR CYQB 120600Z 06007KT 12SM BKN010 BKN017 07/06 A3045 RMK SF5SC2 SLP314
CYQB;2002-10-12 07:00;METAR CYQB 120700Z 07009KT 10SM OVC009 08/07 A3044 RMK SF8 SLP312
CYQB;2002-10-12 08:00;METAR CYQB 120800Z 07010KT 10SM OVC009 08/07 A3044 RMK SF8 SLP312
CYQB;2002-10-12 09:00;METAR CYQB 120900Z 06011KT 10SM OVC008 08/07 A3045 RMK SF8 SLP313
CYQB;2002-10-12 10:00;METAR CYQB 121000Z 06011G16KT 10SM OVC006 08/08 A3045 RMK ST8 SLP313
CYQB;2002-10-12 12:00;METAR CYQB 121200Z CCA 09010KT 5SM BR OVC005 08/08 A3046 RMK ST8 VSBY LWR NW WND ESTMD SLP316 ESTMD SLP316
CYQB;2002-10-12 13:00;METAR CYQB 121300Z 07009KT 5SM BR BKN006 OVC010 09/08 A3046 RMK ST7SC1 VSBY LWR NW-NE SLP317 NW-NE SLP317
CYQB;2002-10-12 14:00;METAR CYQB 121400Z 07010KT 6SM BR BKN007 OVC012 09/09 A3046 RMK ST6SC2 VSBY LWR NW-N SLP318 NW-N SLP318
CYQB;2002-10-12 15:00;METAR CYQB 121500Z 05012KT 6SM BR FEW007 BKN010 11/09 A3045 RMK ST2SC5 VSBY LWR N SLP314
CYQB;2002-10-12 16:00;METAR CYQB 121600Z 06011KT 15SM BKN011 12/09 A3044 RMK SC5 SLP309
CYQB;2002-10-12 17:00;METAR CYQB 121700Z 09011KT 10SM FEW012 13/10 A3041 RMK SC1 HAZY SLP300
CYQB;2002-10-12 18:00;METAR CYQB 121800Z 08008KT 20SM FEW220 13/10 A3037 RMK CI1 HAZY SLP286
CYQB;2002-10-12 19:00;METAR CYQB 121900Z 09010KT 20SM FEW220 14/10 A3036 RMK CI1 HAZY SLP281
CYQB;2002-10-12 20:00;METAR CYQB 122000Z 09012KT 20SM FEW220 13/10 A3035 RMK CI2 HAZY SLP278
CYQB;2002-10-12 21:00;METAR CYQB 122100Z 09012KT 20SM FEW220 12/10 A3034 RMK CI2 HAZY SLP276
CYQB;2002-10-12 22:00;METAR CYQB 122200Z 08012KT 20SM FEW022 FEW220 10/09 A3034 RMK CU1CI2 SLP275
CYQB;2002-10-12 23:00;METAR CYQB 122300Z 08011G18KT 20SM FEW022 FEW220 09/08 A3034 RMK CF1CI2
CYQB;2002-10-13 00:00;METAR CYQB 130000Z 08009KT 6SM BR SCT005 BKN220 09/08 A3034 RMK SF4CI2 CIG LWR SE SLP278 SLP278
CYQB;2002-10-13 01:00;METAR CYQB 130100Z 07012G17KT 6SM BR BKN005 BKN220 08/08 A3033 RMK SF5CI2 SLP275
CYQB;2002-10-13 02:00;METAR CYQB 130200Z 07010KT 6SM BR BKN004 BKN130 08/08 A3033 RMK SF5AC2 SLP272
CYQB;2002-10-13 04:00;METAR CYQB 130400Z 07007KT 6SM BR SCT004 08/08 A3030 RMK SF3 SLP263
CYQB;2002-10-13 05:00;METAR CYQB 130500Z 07007KT 6SM BR SKC 08/08 A3028 RMK SLP257
CYQB;2002-10-13 06:00;METAR CYQB 130600Z 07008KT 6SM BR SKC 08/08 A3026 RMK SLP250
CYQB;2002-10-13 07:00;METAR CYQB 130700Z 04005KT 10SM SKC 08/08 A3025 RMK SLP244
CYQB;2002-10-13 08:00;METAR CYQB 130800Z 06006KT 10SM SKC 08/07 A3023 RMK SLP238
CYQB;2002-10-13 09:00;METAR CYQB 130900Z 06007KT 10SM SKC 07/07 A3021 RMK SLP232
CYQB;2002-10-13 10:00;METAR CYQB 131000Z 06007KT 12SM SKC 07/07 A3020 RMK SLP228
CYQB;2002-10-13 11:00;METAR CYQB 131100Z 06007KT 15SM BKN110 08/07 A3018 RMK AC6 SLP223
CYQB;2002-10-13 12:00;METAR CYQB 131200Z 08005KT 15SM SCT050 BKN110 08/08 A3017 RMK SC4AC3 SLP217
CYQB;2002-10-13 13:00;METAR CYQB 131300Z 07007KT 12SM BKN027 OVC050 09/08 A3016 RMK SC5SC3 SLP215
CYQB;2002-10-13 14:00;METAR CYQB 131400Z 04004KT 3SM -SHRA BR SCT012 OVC030 09/08 A3014 RMK SF3SC5 SLP210 SLP210
CYQB;2002-10-13 15:00;METAR CYQB 131500Z 36006KT 1 1/2SM -SHRA BR SCT007 BKN011 OVC030 08/08 A3012 RMK SF3SF2SC3 SLP203 SF3SF2SC3 SLP203 L- INTMT SLP193 INTMT SLP193 SF3SC4SC1 SLP178
CYQB;2002-10-13 18:00;METAR CYQB 131800Z 07010KT 15SM SCT006 BKN014 OVC050 11/10 A3001 RMK SF4SC3SC1 SLP163 SLP163
CYQB;2002-10-13 19:00;METAR CYQB 131900Z 07013KT 15SM -RA BKN007 OVC042 11/10 A2997 RMK SF5SC3 SLP150
CYQB;2002-10-13 20:00;METAR CYQB 132000Z 07014KT 15SM -SHRA FEW007 OVC045 11/10 A2994 RMK SF1SC7 SLP142
CYQB;2002-10-13 21:00;METAR CYQB 132100Z 08008KT 15SM OVC040 11/10 A2992 RMK SC8 SLP134
CYQB;2002-10-13 22:00;METAR CYQB 132200Z 09006KT 15SM OVC033 12/11 A2990 RMK SC8 SLP128
CYQB;2002-10-13 23:00;METAR CYQB 132300Z 15003KT 6SM -SHRA BR OVC018 12/12 A2990 RMK SC8 SLP127
CYQB;2002-10-14 00:00;METAR CYQB 140000Z 20013KT 4SM -SHRA BR OVC014 14/13 A2991 RMK SC8 SLP129
CYQB;2002-10-14 01:00;METAR CYQB 140100Z 24017G22KT 3SM -SHRA BR OVC015 13/12 A2992 RMK SC8 SLP135
CYQB;2002-10-14 02:00;METAR CYQB 140200Z 26016KT 10SM SCT015 OVC080 11/10 A2996 RMK SC3AC5 SLP148
CYQB;2002-10-14 03:00;METAR CYQB 140300Z 26011KT 10SM SCT025 BKN060 10/10 A2998 RMK SC3SC4 SLP154
CYQB;2002-10-14 04:00;METAR CYQB 140400Z 28016KT 15SM FEW015 BKN045 09/04 A2999 RMK SC2SC5 SLP158
CYQB;2002-10-14 05:00;METAR CYQB 140500Z 26015G20KT 15SM FEW020 BKN100 07/05 A3001 RMK SC2AC3 SLP163
CYQB;2002-10-14 06:00;METAR CYQB 140600Z 26014G19KT 15SM FEW020 SCT080 07/03 A3001 RMK SC1AC2 SLP165
CYQB;2002-10-14 07:00;METAR CYQB 140700Z 28012KT 15SM FEW080 05/01 A3002 RMK AC2 SLP167
CYQB;2002-10-14 08:00;METAR CYQB 140800Z 26012KT 15SM FEW035 BKN060 05/01 A3003 RMK SC1SC6 SLP173
CYQB;2002-10-14 09:00;METAR CYQB 140900Z 25012KT 15SM FEW035 FEW060 03/01 A3005 RMK SC1SC2 SLP178
CYQB;2002-10-14 10:00;METAR CYQB 141000Z 26013KT 15SM FEW040 03/01 A3006 RMK SC2 SLP182
CYQB;2002-10-14 11:00;METAR CYQB 141100Z 26018KT 20SM FEW035 03/01 A3007 RMK SC2 SLP185
CYQB;2002-10-14 12:00;METAR CYQB 141200Z 26016KT 20SM BKN040 03/01 A3011 RMK SC4 SLP199
CYQB;2002-10-14 13:00;METAR CYQB 141300Z 26017KT 30SM FEW040 04/01 A3013 RMK SC2 SLP205
CYQB;2002-10-14 14:00;METAR CYQB 141400Z 28019G27KT 30SM FEW037 06/00 A3015 RMK SC2 SLP213
CYQB;2002-10-14 15:00;METAR CYQB 141500Z 28022G30KT 30SM SCT039 06/M01 A3017 RMK SC3 SLP218
CYQB;2002-10-14 16:00;METAR CYQB 141600Z 31014G22KT 30SM SCT041 07/M01 A3018 RMK SC4 SLP223
CYQB;2002-10-14 17:00;METAR CYQB 141700Z 32016G21KT 30SM BKN052 08/M01 A3019 RMK SC5 SLP226
CYQB;2002-10-14 18:00;METAR CYQB 141800Z 29017G30KT 30SM FEW052 08/M03 A3019 RMK SC2 SLP224
CYQB;2002-10-14 19:00;METAR CYQB 141900Z 32018KT 30SM SCT060 08/M03 A3020 RMK SC3 SLP228
CYQB;2002-10-14 20:00;METAR CYQB 142000Z 29013G22KT 30SM SCT055 07/M04 A3022 RMK SC4 SLP236
CYQB;2002-10-14 21:00;METAR CYQB 142100Z 32013G18KT 30SM FEW055 07/M05 A3024 RMK SC2 SLP242
CYQB;2002-10-14 22:00;METAR CYQB 142200Z 33007KT 30SM FEW055 05/M05 A3026 RMK SC2 SLP249
CYQB;2002-10-14 23:00;METAR CYQB 142300Z 28005KT 30SM FEW055 03/M04 A3028 RMK SC2 SLP256
CYQB;2002-10-15 00:00;METAR CYQB 150000Z 31005KT 30SM FEW055 03/M05 A3030 RMK SC1 SLP262
CYQB;2002-10-15 01:00;METAR CYQB 150100Z 31005KT 30SM SKC 02/M05 A3029 RMK SLP261
CYQB;2002-10-15 02:00;METAR CYQB 150200Z 23002KT 15SM SKC M01/M04 A3031 RMK SLP266
CYQB;2002-10-15 03:00;METAR CYQB 150300Z 28004KT 15SM SKC M02/M05 A3032 RMK SLP270
CYQB;2002-10-15 04:00;METAR CYQB 150400Z 00000KT 15SM SKC M02/M05 A3032 RMK SLP272
CYQB;2002-10-15 05:00;METAR CYQB 150500Z 31006KT 15SM SKC M04/M06 A3032 RMK SLP271
CYQB;2002-10-15 06:00;METAR CYQB 150600Z 30005KT 15SM SKC M04/M06 A3032 RMK SLP271
CYQB;2002-10-15 07:00;METAR CYQB 150700Z 00000KT 15SM SKC M04/M05 A3030 RMK SLP263
CYQB;2002-10-15 09:00;METAR CYQB 150900Z 01002KT 15SM SKC M02/M05 A3031 RMK SLP267
CYQB;2002-10-15 10:00;METAR CYQB 151000Z 01004KT 15SM SKC M03/M05 A3030 RMK SLP266
CYQB;2002-10-15 11:00;METAR CYQB 151100Z 02003KT 15SM SKC M02/M05 A3030 RMK SLP264
CYQB;2002-10-15 12:00;METAR CYQB 151200Z 01002KT 30SM SKC M02/M04 A3031 RMK SLP268
CYQB;2002-10-15 13:00;METAR CYQB 151300Z 00000KT 30SM SKC M00/M03 A3032 RMK SLP271
CYQB;2002-10-15 14:00;METAR CYQB 151400Z 00000KT 30SM SKC 02/M02 A3030 RMK SLP265
CYQB;2002-10-15 15:00;METAR CYQB 151500Z 00000KT 30SM SKC 03/M03 A3028 RMK SLP257
CYQB;2002-10-15 16:00;METAR CYQB 151600Z 31003KT 30SM FEW240 05/M04 A3027 RMK CI0 SLP253
CYQB;2002-10-15 17:00;METAR CYQB 151700Z 24002KT 30SM FEW240 06/M03 A3023 RMK CI1 SLP242
CYQB;2002-10-15 18:00;METAR CYQB 151800Z 13004KT 30SM FEW240 07/M05 A3019 RMK CI1 SLP227
CYQB;2002-10-15 19:00;METAR CYQB 151900Z 09003KT 30SM SCT240 07/M05 A3017 RMK CI2 SLP220
CYQB;2002-10-15 20:00;METAR CYQB 152000Z 07003KT 30SM BKN240 08/M05 A3016 RMK CI2 SLP216
CYQB;2002-10-15 21:00;METAR CYQB 152100Z 06004KT 30SM BKN240 08/M05 A3015 RMK CI2 SLP213
CYQB;2002-10-15 22:00;METAR CYQB 152200Z 05003KT 30SM FEW190 BKN240 06/M06 A3014 RMK AC1CI2 SLP211
CYQB;2002-10-15 23:00;METAR CYQB 152300Z 02004KT 30SM FEW190 BKN240 05/M04 A3014 RMK AC1CI2 SLP210
CYQB;2002-10-16 00:00;METAR CYQB 160000Z 01004KT 30SM BKN220 04/M04 A3014 RMK CI3 SLP208
CYQB;2002-10-16 01:00;METAR CYQB 160100Z 03003KT 15SM BKN220 03/M03 A3014 RMK CI3 SLP209
CYQB;2002-10-16 02:00;METAR CYQB 160200Z 06003KT 15SM SKC 02/M04 A3014 RMK SLP208
CYQB;2002-10-16 03:00;METAR CYQB 160300Z 02002KT 15SM FEW230 01/M04 A3013 RMK CI0 SLP206
CYQB;2002-10-16 04:00;METAR CYQB 160400Z 04005KT 15SM BKN210 03/M03 A3012 RMK CI1 SLP202
CYQB;2002-10-16 05:00;METAR CYQB 160500Z 06007KT 15SM BKN210 03/M03 A3011 RMK CI0 SLP200
CYQB;2002-10-16 06:00;METAR CYQB 160600Z 07006KT 15SM BKN230 03/M02 A3010 RMK CI1 SLP197
CYQB;2002-10-16 07:00;METAR CYQB 160700Z 07005KT 15SM SCT230 03/M02 A3011 RMK CI1 SLP198
CYQB;2002-10-16 08:00;METAR CYQB 160800Z 05007KT 15SM BKN220 03/M03 A3009 RMK CI2 SLP194
CYQB;2002-10-16 09:00;METAR CYQB 160900Z 06005KT 15SM SCT200 03/M03 A3010 RMK CI2 SLP196
CYQB;2002-10-16 10:00;METAR CYQB 161000Z 07008KT 15SM SCT140 BKN190 04/M02 A3009 RMK AC2CI1 SLP193
CYQB;2002-10-16 11:00;METAR CYQB 161100Z 07009KT 50SM SCT130 BKN200 04/M02 A3010 RMK AC4CI2 SLP194
CYQB;2002-10-16 12:00;METAR CYQB 161200Z 07010G15KT 30SM FEW110 OVC140 05/00 A3008 RMK AC2AC6 SLP191
CYQB;2002-10-16 13:00;METAR CYQB 161300Z 08014G25KT 30SM FEW050 BKN140 OVC240 06/01 A3008 RMK CF1AC5CS3 SLP188 SLP188
CYQB;2002-10-16 14:00;METAR CYQB 161400Z 08017G25KT 30SM BKN140 OVC240 06/01 A3008 RMK AC7CS1 SLP189
CYQB;2002-10-16 15:00;METAR CYQB 161500Z 07015G22KT 30SM BKN150 BKN240 07/02 A3008 RMK AC5CI2
CYQB;2002-10-16 16:00;METAR CYQB 161600Z 07013G19KT 20SM SCT120 OVC130 08/02 A3007 RMK AC3AS4 SLP185
CYQB;2002-10-16 17:00;METAR CYQB 161700Z 08013KT 20SM OVC130 08/02 A3004 RMK AS8 SLP175
CYQB;2002-10-16 18:00;METAR CYQB 161800Z 07014G21KT 20SM OVC120 08/02 A3001 RMK AC8 SLP165
CYQB;2002-10-16 19:00;METAR CYQB 161900Z 07012G20KT 20SM FEW030 OVC100 08/01 A2999 RMK SC1AC7 SLP158
CYQB;2002-10-16 20:43;SPECI CYQB 162043Z 08017G22KT 15SM -RA OVC058 RMK SC8
CYQB;2002-10-16 21:00;METAR CYQB 162100Z 08014G21KT 15SM -RA OVC053 07/01 A3000 RMK SC8 SLP161
CYQB;2002-10-16 22:00;METAR CYQB 162200Z 08019G25KT 6SM -RA BR OVC030 05/03 A3000 RMK NS8 SLP162
CYQB;2002-10-16 23:00;METAR CYQB 162300Z 07013G20KT 4SM -RA BR OVC018 04/03 A2997 RMK NS8 SLP153
CYQB;2002-10-17 00:00;METAR CYQB 170000Z 05014G28KT 7SM -RA OVC013 03/03 A2992 RMK NS8 PRESFR SLP135
CYQB;2002-10-17 01:00;METAR CYQB 170100Z 06019G29KT 7SM -RA OVC013 03/02 A2987 RMK NS8 SLP119
CYQB;2002-10-17 01:33;SPECI CYQB 170133Z 07019G29KT 6SM -RA BR BKN009 BKN020 OVC072 RMK SF6NS1AC1 LTNG
CYQB;2002-10-17 02:00;METAR CYQB 170200Z 07018G27KT 5SM RA BR BKN008 BKN023 OVC060 02/02 A2984 RMK SF5NS2SC1 SLP109 SF5NS2SC1 SLP109
CYQB;2002-10-17 02:45;SPECI CYQB 170245Z 06018G25KT 4SM -RAPL BR BKN009 OVC023 RMK SF5NS3
CYQB;2002-10-17 03:00;METAR CYQB 170300Z 06017G22KT 4SM -RAPL BR BKN009 OVC022 02/01 A2977 RMK SF6NS2 PRESFR SLP084 PRESFR SLP084
CYQB;2002-10-17 04:00;METAR CYQB 170400Z 06024G31KT 7SM -RA SCT010 OVC020 03/02 A2966 RMK SF3NS5 PRESFR SLP048 SLP048
CYQB;2002-10-17 05:00;METAR CYQB 170500Z 07027G39KT 7SM BKN012 OVC019 04/03 A2958 RMK SC5NS3 SLP020
CYQB;2002-10-17 05:24;SPECI CYQB 170524Z 08031G38KT 7SM -RA FEW012 OVC017 RMK SC2SC6 CIG RGD
CYQB;2002-10-17 06:00;METAR CYQB 170600Z 08031G40KT 6SM -RA BR OVC015 04/03 A2950 RMK SC8 CIG RGD PRESFR SLP993
CYQB;2002-10-17 07:00;METAR CYQB 170700Z 06016G22KT 4SM RA BR BKN011 OVC017 04/04 A2960 RMK SF5NS3 SLP025 SLP025
CYQB;2002-10-17 08:00;METAR CYQB 170800Z 05008KT 3SM RA BR OVC008 04/04 A2960 RMK NS8 CIG RGD SLP026
CYQB;2002-10-17 08:30;SPECI CYQB 170830Z 03007KT 3SM -RA BR FEW008 OVC016 RERA RMK SF2NS6
CYQB;2002-10-17 09:00;METAR CYQB 170900Z 07019KT 2 1/2SM -RA BR BKN016 OVC035 04/04 A2954 FG1NS5NS2 SLP007
CYQB;2002-10-17 09:46;SPECI CYQB 170946Z 05009G16KT 6SM -RA BR FEW012 OVC025 RMK SC1SC7
CYQB;2002-10-17 10:00;METAR CYQB 171000Z 07009KT 6SM -RA BR SCT008 SCT012 OVC026 04/04 A2956 RMK SC3SC1SC4 SLP012
CYQB;2002-10-17 11:00;METAR CYQB 171100Z 10002KT 15SM -RA BKN008 OVC030 05/05 A2957 RMK SF7SC1 SLP016
CYQB;2002-10-17 12:00;METAR CYQB 171200Z 19005KT 10SM -RA SCT010 OVC030 05/05 A2963 RMK SC3SC5 SLP035
CYQB;2002-10-17 12:05;SPECI CYQB 171205Z 22007KT 5SM -RA BR BKN007 OVC030 RMK SC6SC2
CYQB;2002-10-17 12:13;SPECI CYQB 171213Z 22009KT 2 1/2SM -RA BR OVC008 RMK SC8
CYQB;2002-10-17 12:36;SPECI CYQB 171236Z 23012KT 5SM -RA BR FEW009 OVC014 RMK SF2SC6
CYQB;2002-10-17 13:00;METAR CYQB 171300Z 24015KT 6SM BR SCT012 OVC031 04/04 A2967 RMK SC4SC4 SLP050
CYQB;2002-10-17 13:31;SPECI CYQB 171331Z 24017KT 8SM FEW005 OVC008 RMK SF2SC6
CYQB;2002-10-17 13:42;SPECI CYQB 171342Z 24016KT 8SM SCT008 OVC022 RMK SF3SC5
CYQB;2002-10-17 14:00;METAR CYQB 171400Z 24014KT 10SM FEW008 SCT020 BKN035 04/04 A2971 RMK SF2SC2SC3 SLP063 SLP063
CYQB;2002-10-17 15:00;METAR CYQB 171500Z 24018KT 15SM FEW009 BKN018 05/04 A2973 RMK SF1SC6 SLP070
CYQB;2002-10-17 15:27;SPECI CYQB 171527Z 25014G21KT 30SM FEW009 BKN012 OVC030 RMK SF2SC5SC1
CYQB;2002-10-17 16:00;METAR CYQB 171600Z 26015KT 30SM FEW008 BKN012 OVC030 05/04 A2978 RMK SF2SC6SC1 SLP086 SLP086
CYQB;2002-10-17 17:00;METAR CYQB 171700Z 25013KT 30SM OVC016 05/04 A2980 RMK SC8 SLP094
CYQB;2002-10-17 18:00;METAR CYQB 171800Z 25012KT 30SM FEW010 BKN022 OVC030 06/04 A2980 RMK SF1SC6SC2 SLP095 SLP095
CYQB;2002-10-17 19:00;METAR CYQB 171900Z 25010KT 30SM SCT020 BKN030 06/04 A2981 RMK SC3SC4 SLP097
CYQB;2002-10-17 20:00;METAR CYQB 172000Z 27011KT 50SM BKN028 06/04 A2983 RMK SC7 SLP105
CYQB;2002-10-17 21:00;METAR CYQB 172100Z 27006KT 50SM FEW015 BKN024 OVC035 06/03 A2985 RMK SC1SC6SC2 SLP112 SLP112
CYQB;2002-10-17 22:00;METAR CYQB 172200Z 26005KT 50SM BKN025 OVC035 05/04 A2987 RMK SC6SC2 SLP117
CYQB;2002-10-17 23:00;METAR CYQB 172300Z 26005KT 15SM FEW025 BKN036 05/03 A2989 RMK SC2SC6 SLP124
CYQB;2002-10-18 00:00;METAR CYQB 180000Z 27002KT 15SM BKN028 OVC036 05/03 A2990 RMK SC6SC2 SLP129
CYQB;2002-10-18 01:00;METAR CYQB 180100Z 00000KT 15SM OVC028 05/03 A2991 RMK SC8 SLP130
CYQB;2002-10-18 02:00;METAR CYQB 180200Z 25002KT 15SM OVC029 05/04 A2992 RMK SC8 SLP136
CYQB;2002-10-18 03:00;METAR CYQB 180300Z 00000KT 15SM OVC028 05/04 A2991 RMK SC8 SLP130
CYQB;2002-10-18 04:00;METAR CYQB 180400Z 11002KT 15SM OVC029 04/04 A2989 RMK SC8 SLP124
CYQB;2002-10-18 05:00;METAR CYQB 180500Z 29004KT 15SM OVC029 05/04 A2988 RMK SC8 SLP120
CYQB;2002-10-18 05:07;SPECI CYQB 180507Z 28003KT 8SM -SHRA BKN019 OVC030 RMK SC6SC2
CYQB;2002-10-18 06:00;METAR CYQB 180600Z 04002KT 10SM -SHRA FEW019 OVC027 04/04 A2988 RMK SC2SC6 SLP121
CYQB;2002-10-18 07:00;METAR CYQB 180700Z 33003KT 10SM -RA BKN016 OVC027 04/04 A2988 RMK SC6SC2 SLP120
CYQB;2002-10-18 08:00;METAR CYQB 180800Z 01002KT 10SM -RA BKN022 OVC044 04/04 A2987 RMK SC6SC2 SLP118
CYQB;2002-10-18 09:00;METAR CYQB 180900Z 00000KT 10SM -RA BKN018 OVC040 04/04 A2988 RMK SC5SC3
CYQB;2002-10-18 10:00;METAR CYQB 181000Z 00000KT 10SM -RA FEW011 BKN015 OVC040 04/04 A2988 RMK SF2SC6SC1 SLP120
CYQB;2002-10-18 10:32;SPECI CYQB 181032Z 00000KT 10SM -RA FEW009 OVC014 RMK SF2SC6
CYQB;2002-10-18 11:00;METAR CYQB 181100Z 00000KT 10SM -RA FEW005 SCT009 OVC014 04/03 A2988 RMK SF1SF2SC5 SLP121
CYQB;2002-10-18 11:49;SPECI CYQB 181149Z 01002KT 6SM -RA BR BKN008 OVC019 RMK SF6SC2
CYQB;2002-10-18 12:00;METAR CYQB 181200Z 00000KT 5SM -RA BR BKN007 OVC019 03/03 A2989 RMK SF5SC3 SLP123
CYQB;2002-10-18 12:47;SPECI CYQB 181247Z 00000KT 5SM BR BKN005 BKN015 RMK SF6SC2
CYQB;2002-10-18 13:00;METAR CYQB 181300Z 33002KT 6SM BR BKN007 BKN015 04/04 A2989 RMK SF6SC1
CYQB;2002-10-18 14:00;METAR CYQB 181400Z 25016KT 6SM BR BKN007 OVC022 05/05 A2989 RMK SF5SC3 VSBY HIR S SLP124 SLP124
CYQB;2002-10-18 14:37;SPECI CYQB 181437Z 27011KT 8SM FEW007 BKN012 RMK SF2SC5
CYQB;2002-10-18 15:00;METAR CYQB 181500Z 27013KT 15SM FEW007 BKN018 BKN055 05/04 A2991 RMK SF1SC5SC1 SLP131 SLP131
CYQB;2002-10-18 16:00;METAR CYQB 181600Z 26013KT 15SM FEW007 BKN024 BKN055 05/03 A2992 RMK SF1SC6SC1 SLP136 SLP136
CYQB;2002-10-18 17:00;METAR CYQB 181700Z 26018KT 15SM FEW007 BKN020 BKN040 06/03 A2992 RMK SF1SC4SC2 SLP136
CYQB;2002-10-18 17:30;SPECI CYQB 181730Z 25016G21KT 15SM -SHRA FEW007 BKN019 BKN032 RMK SF1SC4SC2
CYQB;2002-10-18 18:00;METAR CYQB 181800Z 27013KT 15SM -SHRA FEW010 SCT020 BKN036 05/04 A2994 RMK SF2SC2SC2 TCU EMBDD SLP140
CYQB;2002-10-18 18:23;SPECI CYQB 181823Z 26012G19KT 15SM FEW010 SCT020 BKN040 RMK SF1SC2SC3
CYQB;2002-10-18 19:00;METAR CYQB 181900Z 26014G22KT 15SM FEW010 SCT020 BKN050 06/03 A2995 RMK SF1SC2SC1 SLP145 SLP145
CYQB;2002-10-18 20:00;METAR CYQB 182000Z 27012G17KT 15SM BKN030 07/02 A2997 RMK SC5 SLP151
CYQB;2002-10-18 21:00;METAR CYQB 182100Z 28011KT 15SM BKN040 06/01 A2998 RMK SC5 SLP156
CYQB;2002-10-18 22:00;METAR CYQB 182200Z 29009KT 15SM BKN045 04/00 A3001 RMK SC5 SLP164
CYQB;2002-10-18 23:00;METAR CYQB 182300Z 29007KT 15SM BKN110 03/M01 A3003 RMK AC4 SLP173
CYQB;2002-10-19 00:00;METAR CYQB 190000Z 30007KT 15SM FEW040 FEW090 03/M02 A3005 RMK SC1AC2 SLP179
CYQB;2002-10-19 01:00;METAR CYQB 190100Z 24003KT 15SM BKN064 02/M01 A3007 RMK SC7 SLP187
CYQB;2002-10-19 02:00;METAR CYQB 190200Z 21003KT 15SM BKN068 03/M02 A3006 RMK SC6 SLP184
CYQB;2002-10-19 03:00;METAR CYQB 190300Z 32003KT 15SM BKN069 02/M02 A3006 RMK SC6 SLP182
CYQB;2002-10-19 04:00;METAR CYQB 190400Z 00000KT 15SM BKN060 02/M01 A3006 RMK SC5 SLP182
CYQB;2002-10-19 05:00;METAR CYQB 190500Z 27002KT 15SM SCT030 BKN069 01/M01 A3006 RMK SC3SC3 SLP182
CYQB;2002-10-19 05:25;SPECI CYQB 190525Z 23003KT 6SM -SN SCT020 OVC050 RMK SC3SC5
CYQB;2002-10-19 06:00;METAR CYQB 190600Z 21003KT 3SM -SN SCT017 OVC030 01/M00 A3006 RMK SC3SC5
CYQB;2002-10-19 07:00;METAR CYQB 190700Z 00000KT 10SM -SN FEW010 SCT017 BKN042 01/01 A3005 RMK SF1SC2SC4 SLP180
CYQB;2002-10-19 07:35;SPECI CYQB 190735Z 02003KT 10SM FEW010 BKN042 RMK SF2SC5
CYQB;2002-10-19 08:00;METAR CYQB 190800Z 04004KT 15SM FEW010 BKN044 01/01 A3003 RMK SF2SC6 SLP173
CYQB;2002-10-19 09:00;METAR CYQB 190900Z 07003KT 15SM FEW010 BKN045 BKN110 01/01 A3002 RMK SF1SC4SC2 SLP168 SLP168
CYQB;2002-10-19 10:00;METAR CYQB 191000Z 06004KT 15SM FEW010 BKN038 BKN100 01/01 A3000 RMK SF1SC4SC2 SLP162 SLP162
CYQB;2002-10-19 11:00;METAR CYQB 191100Z 06004KT 15SM FEW010 OVC033 02/01 A2997 RMK SF1SC7 SLP153
CYQB;2002-10-19 12:00;METAR CYQB 191200Z 07007KT 15SM FEW010 OVC027 02/01 A2994 RMK SF1SC8 SLP142
CYQB;2002-10-19 12:26;SPECI CYQB 191226Z 07007KT 5SM -RA BR OVC024 RMK SC8
CYQB;2002-10-19 12:35;SPECI CYQB 191235Z 07007KT 3SM -RASN BR OVC021 RMK SC8
CYQB;2002-10-19 13:00;METAR CYQB 191300Z 07008KT 3SM -RASN BR FEW015 OVC021 02/01 A2992 RMK SF2SC6 VSBY HIR S SLP134 HIR S SLP134
CYQB;2002-10-19 13:18;SPECI CYQB 191318Z 07009KT 1 1/2SM -SN BR FEW012 OVC017 RMK SF2NS6
CYQB;2002-10-19 14:00;METAR CYQB 191400Z 07008KT 1 1/2SM -SN BR BKN008 OVC015 01/01 A2988 RMK ST5NS3 SLP121 SLP121
CYQB;2002-10-19 15:00;METAR CYQB 191500Z 08011KT 1SM R06/5000FT/N -SN BR BKN005 OVC015 00/00 A2983 RMK SF5NS3 SLP105 SF5NS3 SLP105
CYQB;2002-10-19 15:32;SPECI CYQB 191532Z 07012KT 1SM R06/P6000FT/U -SN BR BKN003 OVC015 RMK SF6NS2
CYQB;2002-10-19 16:00;METAR CYQB 191600Z 07017KT 1 1/2SM -SN BR BKN003 OVC011 00/00 A2978 RMK SF6NS2 SLP086 SLP086
CYQB;2002-10-19 17:00;METAR CYQB 191700Z 08012G19KT 3/4SM R06/5500FT/N -SN BR BKN003 OVC010 00/00 A2972 RMK SF6NS2 SLP068 RMK SF6NS2 SLP068
CYQB;2002-10-19 18:00;METAR CYQB 191800Z 07017G25KT 3/4SM R06/4500VP6000FT/D -SN BR BKN004 OVC010 00/00 A2967 RMK SF5NS3 SLP052 A2967 RMK SF5NS3 SLP052
CYQB;2002-10-19 19:00;METAR CYQB 191900Z 07017KT 1 1/4SM -SN BR BKN004 BKN008 OVC012 00/00 A2962 RMK SF5SF1NS2 SLP033 SF5SF1NS2 SLP033
CYQB;2002-10-19 19:42;SPECI CYQB 191942Z 07010G22KT 2SM -SN BR BKN005 OVC018 RMK SF5NS3
CYQB;2002-10-19 20:00;METAR CYQB 192000Z 07011G16KT 2SM -RA BR BKN005 OVC015 01/01 A2961 RMK SF5NS3 SLP031 SLP031
CYQB;2002-10-19 21:00;METAR CYQB 192100Z 07013KT 1 1/2SM -RA BR BKN005 OVC023 01/01 A2959 RMK SF6NS2 SLP024 SLP024
CYQB;2002-10-19 22:00;METAR CYQB 192200Z 07009KT 2SM -SHRA BR BKN009 OVC015 01/01 A2959 RMK SF6SC2 SLP025 SLP025
CYQB;2002-10-19 22:20;SPECI CYQB 192220Z 05006KT 4SM -SHRA BR BKN006 OVC016 RMK SF6SC2
CYQB;2002-10-19 23:00;METAR CYQB 192300Z 07011KT 6SM -SHRA BR SCT006 OVC012 01/01 A2959 RMK SF4SC4 SLP025
CYQB;2002-10-20 00:00;METAR CYQB 200000Z 05009KT 5SM -SHRA BR BKN008 OVC013 02/01 A2960 RMK SF5SC3 SLP026 SLP026
CYQB;2002-10-20 01:00;METAR CYQB 200100Z 05005KT 6SM -SHRA BR SCT008 OVC014 02/02 A2961 RMK SF4SC4 SLP029 SLP029
CYQB;2002-10-20 02:00;METAR CYQB 200200Z 07011G17KT 10SM -SHRA BKN007 OVC015 02/01 A2961 RMK SF5SC3 SLP030 SLP030
CYQB;2002-10-20 03:00;METAR CYQB 200300Z 07009KT 12SM -SHRA OVC008 02/01 A2964 RMK SF8 SLP040
CYQB;2002-10-20 03:47;SPECI CYQB 200347Z 07004KT 12SM BKN009 OVC017 RMK SF7SC1
CYQB;2002-10-20 04:00;METAR CYQB 200400Z 35002KT 12SM OVC010 02/01 A2966 RMK SF8 SLP046 SLP054 SLP056 SLP060 FG2SF2SF5 SLP060
CYQB;2002-10-20 07:44;SPECI CYQB 200744Z 01003KT 1 1/2SM -SN OVC010 RMK SN2SF6
CYQB;2002-10-20 08:00;METAR CYQB 200800Z 35002KT 1 1/2SM -SN FEW002 OVC010 01/01 A2972 RMK SN2SF1SF6 SLP066 SLP066 FG2SF4SF2 SLP075 SLP075
CYQB;2002-10-20 10:00;METAR CYQB 201000Z 00000KT 3SM R06/4000VP6000FT/D -SHSN FEW007 OVC018 00/00 A2976 RMK SF2SC6 SLP081 RMK SF2SC6 SLP081
CYQB;2002-10-20 10:16;SPECI CYQB 201016Z 29003KT 10SM -SHRA FEW007 OVC030 RMK SF2SC6
CYQB;2002-10-20 11:00;METAR CYQB 201100Z 25002KT 15SM FEW007 OVC032 01/01 A2976 RMK SF2SC6 SLP082
CYQB;2002-10-20 12:00;METAR CYQB 201200Z 27003KT 15SM FEW013 BKN038 BKN140 BKN220 01/00 A2978 RMK SF2SC3AC1CI1 SLP089
CYQB;2002-10-20 14:00;METAR CYQB 201400Z CCA 32008KT 20SM FEW015 BKN038 BKN200 02/M01 A2983 RMK SF1SC6CI1 SLP105 SLP105
CYQB;2002-10-20 15:00;METAR CYQB 201500Z 32011KT 30SM FEW020 BKN036 BKN200 02/M02 A2985 RMK SC1SC5CI1 SLP111 SLP111
CYQB;2002-10-20 16:00;METAR CYQB 201600Z 30008KT 30SM FEW020 BKN035 BKN200 02/M02 A2987 RMK SC2SC4CI1 SLP117
CYQB;2002-10-20 17:00;METAR CYQB 201700Z 28013KT 30SM OVC030 01/M03 A2988 RMK SC8 SLP121
CYQB;2002-10-20 18:00;METAR CYQB 201800Z 27013KT 30SM OVC030 01/M03 A2989 RMK SC8 SLP125
CYQB;2002-10-20 19:00;METAR CYQB 201900Z 26015KT 30SM OVC030 01/M03 A2990 RMK SC8 SLP129
CYQB;2002-10-20 20:00;METAR CYQB 202000Z 26013KT 30SM FEW025 OVC036 01/M03 A2991 RMK SC2SC6 SLP132
CYQB;2002-10-20 21:00;METAR CYQB 202100Z 25011KT 15SM OVC035 01/M03 A2992 RMK SC8 SLP134
CYQB;2002-10-20 22:00;METAR CYQB 202200Z 26010KT 15SM OVC034 01/M03 A2993 RMK SC8 SLP139
CYQB;2002-10-20 23:00;METAR CYQB 202300Z 26010KT 15SM OVC033 00/M03 A2994 RMK SC8 SLP143
CYQB;2002-10-21 00:00;METAR CYQB 210000Z 26008KT 15SM OVC029 00/M03 A2996 RMK SC8 SLP149
CYQB;2002-10-21 22:00;METAR CYQB 202200Z 26010KT 15SM OVC034 01/M03 A2993 RMK SC8 SLP139
CYQB;2002-10-21 01:00;METAR CYQB 210100Z 27011KT 15SM OVC031 00/M04 A2996 RMK SC8 SLP148
CYQB;2002-10-21 23:00;METAR CYQB 202300Z 26010KT 15SM OVC033 00/M03 A2994 RMK SC8 SLP143
CYQB;2002-10-21 02:00;METAR CYQB 210200Z 26010KT 15SM OVC037 M00/M04 A2996 RMK SC8 SLP149
CYQB;2002-10-21 03:00;METAR CYQB 210300Z 25010KT 15SM BKN042 M01/M03 A2995 RMK SC7 SLP145
CYQB;2002-10-21 04:00;METAR CYQB 210400Z 26009KT 15SM BKN045 M01/M03 A2994 RMK SC7 SLP143
CYQB;2002-10-21 05:00;METAR CYQB 210500Z 27008KT 15SM OVC045 M00/M03 A2994 RMK SC8 SLP143
CYQB;2002-10-21 06:00;METAR CYQB 210600Z 26007KT 15SM BKN044 OVC140 M01/M03 A2994 RMK SC7AC1 SLP141
CYQB;2002-10-21 07:00;METAR CYQB 210700Z 26007KT 15SM SCT045 OVC140 M01/M03 A2993 RMK SC3AC5 SLP140
CYQB;2002-10-21 08:00;METAR CYQB 210800Z 24009KT 15SM SCT040 OVC140 M01/M03 A2994 RMK SC3AC5
CYQB;2002-10-21 09:00;METAR CYQB 210900Z 27010KT 15SM BKN047 OVC140 M01/M03 A2996 RMK SC6AC2 SLP148
CYQB;2002-10-21 10:00;METAR CYQB 211000Z 26008KT 15SM FEW042 SCT130 M01/M03 A2998 RMK SC1AC2 SLP155
CYQB;2002-10-21 11:00;METAR CYQB 211100Z 25011KT 15SM BKN047 BKN130 M01/M03 A2999 RMK SC6AC1 SLP160
CYQB;2002-10-21 12:00;METAR CYQB 211200Z 25013KT 30SM FEW020 BKN046 BKN130 BKN200 M01/M03 A3002 RMK SC1SC4AC1CI1 SHWRS N SLP168 SC1SC4AC1CI1 SHWRS N SLP168
CYQB;2002-10-21 13:00;METAR CYQB 211300Z 25012KT 30SM FEW016 BKN044 BKN130 00/M04 A3003 RMK CF1SC6AC1 SLP172 SLP172
CYQB;2002-10-21 14:00;METAR CYQB 211400Z 25013KT 30SM FEW020 FEW044 SCT130 01/M04 A3003 RMK CF1SC2AC2 SLP172
CYQB;2002-10-21 15:00;METAR CYQB 211500Z 27010G17KT 30SM FEW020 OVC037 01/M04 A3004 RMK CF1SC7 SLP176
CYQB;2002-10-21 16:00;METAR CYQB 211600Z 27012KT 20SM OVC032 01/M04 A3006 RMK SC8 SLP181
CYQB;2002-10-21 17:00;METAR CYQB 211700Z 27012KT 20SM OVC040 02/M05 A3006 RMK SC8 SLP182
CYQB;2002-10-21 18:00;METAR CYQB 211800Z 27014KT 20SM OVC041 03/M04 A3006 RMK SC8 SLP182
CYQB;2002-10-21 19:00;METAR CYQB 211900Z 27013G19KT 20SM -SHSN OVC040 02/M04 A3006 RMK SC8 SLP184
CYQB;2002-10-21 20:00;METAR CYQB 212000Z 27013G18KT 20SM OVC046 02/M03 A3008 RMK SC8 OCNL SW- SLP189
CYQB;2002-10-21 20:50;SPECI CYQB 212050Z 27015KT 20SM OVC047 RMK SC8
CYQB;2002-10-21 21:00;METAR CYQB 212100Z 27017KT 20SM OVC048 02/M03 A3008 RMK SC8 SLP190
CYQB;2002-10-21 22:00;METAR CYQB 212200Z 26014KT 15SM OVC053 02/M04 A3011 RMK SC8 SLP198
CYQB;2002-10-21 23:00;METAR CYQB 212300Z 25013KT 15SM OVC051 02/M03 A3012 RMK SC8 SLP203
CYQB;2002-10-22 00:00;METAR CYQB 220000Z 26013KT 15SM OVC050 01/M03 A3012 RMK SC8 SLP204
CYQB;2002-10-22 01:00;METAR CYQB 220100Z 26012KT 15SM BKN050 00/M03 A3013 RMK SC7 SLP206
CYQB;2002-10-22 02:00;METAR CYQB 220200Z 27012KT 15SM SCT047 00/M03 A3013 RMK SC4 SLP206
CYQB;2002-10-22 03:00;METAR CYQB 220300Z 27011KT 15SM SCT050 M00/M03 A3013 RMK SC3 SLP206
CYQB;2002-10-22 04:00;METAR CYQB 220400Z 27011KT 15SM SKC M01/M03 A3013 RMK SLP206
CYQB;2002-10-22 05:00;METAR CYQB 220500Z 26012KT 15SM SKC M01/M03 A3013 RMK SLP207
CYQB;2002-10-22 06:00;METAR CYQB 220600Z 25013KT 15SM SKC M02/M04 A3014 RMK SLP210
CYQB;2002-10-22 07:00;METAR CYQB 220700Z 25012KT 15SM SKC M02/M04 A3015 RMK SLP213
CYQB;2002-10-22 08:00;METAR CYQB 220800Z 24011KT 15SM SKC M03/M04 A3015 RMK SLP214
CYQB;2002-10-22 09:00;METAR CYQB 220900Z 22006KT 15SM SKC M03/M04 A3016 RMK SLP216
CYQB;2002-10-22 10:00;METAR CYQB 221000Z 23009KT 15SM FEW050 M03/M05 A3016 RMK SC1 SLP216
CYQB;2002-10-22 11:00;METAR CYQB 221100Z 23008KT 15SM FEW040 FEW220 M04/M05 A3016 RMK CF1CI1 SLP218
CYQB;2002-10-22 12:00;METAR CYQB 221200Z 24011KT 30SM FEW012 FEW040 FEW220 M04/M05 A3017 RMK CF1SC1CI1 SLP222 SLP222
CYQB;2002-10-22 13:00;METAR CYQB 221300Z 25009KT 30SM FEW040 FEW220 M02/M04 A3018 RMK SC1CI1 SLP225
CYQB;2002-10-22 14:00;METAR CYQB 221400Z 26012KT 30SM FEW012 SCT040 00/M04 A3018 RMK SF1SC3
CYQB;2002-10-22 15:00;METAR CYQB 221500Z 26011KT 30SM BKN038 BKN220 03/M03 A3018 RMK SC6CI1 SLP223
CYQB;2002-10-22 16:00;METAR CYQB 221600Z 27013KT 30SM BKN030 03/M03 A3017 RMK SC6 SLP222
CYQB;2002-10-22 17:00;METAR CYQB 221700Z 28012KT 30SM BKN030 03/M03 A3017 RMK SC7 SLP219
CYQB;2002-10-22 18:00;METAR CYQB 221800Z 28012G18KT 30SM BKN029 03/M03 A3016 RMK SC7 SLP217
CYQB;2002-10-22 19:00;METAR CYQB 221900Z 27009G19KT 30SM BKN031 02/M03 A3016 RMK SC7 SLP217
CYQB;2002-10-22 20:00;METAR CYQB 222000Z 27011G17KT 30SM BKN031 02/M03 A3017 RMK SC7 SLP221
CYQB;2002-10-22 21:00;METAR CYQB 222100Z 27012KT 30SM BKN032 02/M04 A3017 RMK SC7 SLP221
CYQB;2002-10-22 22:00;METAR CYQB 222200Z 25011KT 30SM BKN034 02/M03 A3017 RMK SC7 SLP222
CYQB;2002-10-22 23:00;METAR CYQB 222300Z 25010KT 15SM BKN034 01/M03 A3018 RMK SC7 SLP223
CYQB;2002-10-23 00:00;METAR CYQB 230000Z 22008KT 15SM BKN034 01/M03 A3019 RMK SC7 SLP226
CYQB;2002-10-23 01:00;METAR CYQB 230100Z 25010KT 15SM BKN034 01/M03 A3018 RMK SC5 SLP225
CYQB;2002-10-23 02:00;METAR CYQB 230200Z 24008KT 15SM BKN033 00/M03 A3019 RMK SC6 SLP228
CYQB;2002-10-23 03:00;METAR CYQB 230300Z 24008KT 15SM BKN033 00/M03 A3019 RMK SC7 SLP225
CYQB;2002-10-23 04:00;METAR CYQB 230400Z 24011KT 15SM BKN033 BKN090 M01/M03 A3018 RMK SC5AC2 SLP222
CYQB;2002-10-23 05:00;METAR CYQB 230500Z 24011KT 15SM FEW033 BKN097 M01/M03 A3019 RMK SC2AC3 SLP225
CYQB;2002-10-23 06:00;METAR CYQB 230600Z 24011KT 15SM FEW033 BKN097 M02/M03 A3019 RMK SC2AC2 SLP226
CYQB;2002-10-23 07:00;METAR CYQB 230700Z 24009KT 15SM SCT095 M02/M03 A3018 RMK AC3 SLP223
CYQB;2002-10-23 08:00;METAR CYQB 230800Z 24008KT 15SM FEW095 M02/M04 A3018 RMK AC2 SLP223
CYQB;2002-10-23 09:00;METAR CYQB 230900Z 24010KT 15SM FEW095 M03/M04 A3018 RMK AC2 SLP225
CYQB;2002-10-23 10:00;METAR CYQB 231000Z 23008KT 15SM FEW061 M03/M04 A3019 RMK SC2 SLP229
CYQB;2002-10-23 11:00;METAR CYQB 231100Z 24010KT 15SM FEW045 BKN071 M02/M04 A3021 RMK SC2AC3 SLP233
CYQB;2002-10-23 12:00;METAR CYQB 231200Z 26009KT 30SM FEW015 BKN059 BKN090 M01/M02 A3022 RMK CF1SC5AC1 SLP237 SLP237
CYQB;2002-10-23 13:00;METAR CYQB 231300Z 25008KT 30SM FEW015 SCT030 BKN062 01/M02 A3022 RMK CF1SC2SC3 VIRGA ENE-SW SLP238 VIRGA ENE-SW SLP238
CYQB;2002-10-23 14:00;METAR CYQB 231400Z 26010KT 30SM -SHSN FEW020 SCT040 BKN082 02/M02 A3022 RMK CF2SC2AC2 SLP237
CYQB;2002-10-23 14:33;SPECI CYQB 231433Z 26010KT 30SM FEW020 SCT040 BKN081 RMK CF2SC2AC3 SHWRS N-E
CYQB;2002-10-23 15:00;METAR CYQB 231500Z 26009KT 30SM FEW025 BKN084 04/M01 A3021 RMK CU2AC4 SHWRS N SLP234 SLP234
CYQB;2002-10-23 17:00;METAR CYQB 231700Z 26007KT 30SM BKN034 BKN080 05/M02 A3020 RMK SC5AC2 SLP229
CYQB;2002-10-23 18:00;METAR CYQB 231800Z 25010KT 30SM BKN040 BKN076 06/M01 A3019 RMK SC5AC2 SLP228
CYQB;2002-10-23 19:00;METAR CYQB 231900Z 25011KT 30SM SCT037 BKN076 06/M01 A3019 RMK SC4AC2 SLP227
CYQB;2002-10-23 20:00;METAR CYQB 232000Z 25013KT 30SM BKN037 BKN080 05/M01 A3021 RMK SC6AC2 SHWRS N-E SLP232 N-E SLP235
CYQB;2002-10-23 22:00;METAR CYQB 232200Z 25008KT 30SM SCT040 SCT060 BKN087 03/M01 A3023 RMK SC3SC1AC2 SLP240 SLP240
CYQB;2002-10-23 23:00;METAR CYQB 232300Z 26005KT 30SM FEW070 BKN089 03/M00 A3024 RMK AC2AC3 SLP245
CYQB;2002-10-24 00:00;METAR CYQB 240000Z 28010KT 30SM FEW070 BKN089 03/M00 A3025 RMK AC2AC3 SLP246
CYQB;2002-10-24 01:00;METAR CYQB 240100Z 29006KT 30SM BKN098 03/M00 A3025 RMK AC5 SLP249
CYQB;2002-10-24 02:00;METAR CYQB 240200Z 30005KT 15SM FEW090 SCT110 02/M01 A3026 RMK AC2AC2 SLP251
CYQB;2002-10-24 03:00;METAR CYQB 240300Z 31002KT 15SM FEW050 BKN110 02/M00 A3027 RMK SC2AC5 SLP252
CYQB;2002-10-24 04:00;METAR CYQB 240400Z 22004KT 15SM SCT051 BKN110 02/00 A3027 RMK SC3AC4
CYQB;2002-10-24 05:00;METAR CYQB 240500Z 24006KT 15SM FEW055 BKN110 01/00 A3027 RMK SC2AC5
CYQB;2002-10-24 06:00;METAR CYQB 240600Z 24004KT 15SM BKN060 01/00 A3028 RMK SC6 SLP256
CYQB;2002-10-24 07:00;METAR CYQB 240700Z 00000KT 15SM SCT060 M00/M01 A3028 RMK SC4 SLP258
CYQB;2002-10-24 08:00;METAR CYQB 240800Z 00000KT 15SM BKN042 BKN080 00/M00 A3029 RMK SC6AC1 SLP260
CYQB;2002-10-24 09:00;METAR CYQB 240900Z 00000KT 15SM BKN044 01/M00 A3030 RMK SC7 SLP265
CYQB;2002-10-24 10:00;METAR CYQB 241000Z 25004KT 15SM BKN044 01/00 A3032 RMK SC7 SLP270
CYQB;2002-10-24 11:00;METAR CYQB 241100Z 28004KT 15SM FEW020 BKN043 BKN100 00/M00 A3033 RMK SC1SC5AC2 SLP273 SLP273
CYQB;2002-10-24 12:00;METAR CYQB 241200Z 25002KT 30SM FEW015 FEW043 BKN110 00/M00 A3034 RMK SC1SC1AC6 SLP277 SLP277
CYQB;2002-10-24 13:00;METAR CYQB 241300Z 22002KT 30SM FEW015 FEW045 BKN110 01/01 A3036 RMK SC1SC1AC6 SLP284 SLP284
CYQB;2002-10-24 14:00;METAR CYQB 241400Z 26002KT 30SM FEW018 FEW050 BKN110 03/02 A3036 RMK SC1SC1AC6 SLP285 SLP285
CYQB;2002-10-24 15:00;METAR CYQB 241500Z 24002KT 30SM FEW018 FEW062 BKN110 04/02 A3036 RMK SC1SC2AC6 SLP285
CYQB;2002-10-24 16:00;METAR CYQB 241600Z 21006KT 30SM SCT017 BKN045 BKN068 BKN110 05/02 A3036 RMK SC3SC2AC2AC1 SLP283
CYQB;2002-10-24 17:00;METAR CYQB 241700Z 22011KT 30SM BKN020 BKN045 OVC070 05/02 A3034 RMK SC5SC2AC2 SLP279 SLP279
CYQB;2002-10-24 18:00;METAR CYQB 241800Z 23010KT 30SM -SHRA FEW020 SCT035 OVC060 05/02 A3034 RMK SC2SC2SC4 SLP277
CYQB;2002-10-24 19:00;METAR CYQB 241900Z 24008KT 30SM FEW020 BKN031 BKN060 OVC110 05/02 A3033 RMK SC1SC4SC2AC2 SLP275
CYQB;2002-10-24 20:00;METAR CYQB 242000Z 23008KT 30SM FEW020 BKN037 BKN100 06/01 A3033 RMK SC1SC4AC2 SLP274 SLP274
CYQB;2002-10-24 21:00;METAR CYQB 242100Z 25007KT 30SM FEW032 BKN060 BKN110 05/01 A3033 RMK SC2SC3AC2 SLP275 SLP275
CYQB;2002-10-24 22:00;METAR CYQB 242200Z 25006KT 30SM FEW035 SCT050 BKN071 OVC100 04/01 A3034 RMK SC2SC2AC3AC2 SLP278
CYQB;2002-10-24 23:00;METAR CYQB 242300Z 27007KT 30SM BKN050 BKN073 OVC100 04/01 A3035 RMK SC6AC2AC1 SLP281 SLP281
CYQB;2002-10-25 00:00;METAR CYQB 250000Z 25005KT 30SM BKN045 OVC055 04/01 A3035 RMK SC5SC3 SLP282
CYQB;2002-10-25 01:00;METAR CYQB 250100Z 26006KT 30SM BKN052 OVC100 04/01 A3036 RMK SC6AC2 SLP283
CYQB;2002-10-25 02:00;METAR CYQB 250200Z 25005KT 15SM BKN059 03/01 A3036 RMK SC7 SLP284
CYQB;2002-10-25 03:00;METAR CYQB 250300Z 23005KT 15SM BKN060 OVC100 03/01 A3036 RMK SC7AC1 SLP284
CYQB;2002-10-25 04:00;METAR CYQB 250400Z 26005KT 15SM BKN065 BKN100 02/00 A3036 RMK SC6AC1 SLP285
CYQB;2002-10-25 05:00;METAR CYQB 250500Z 24005KT 15SM BKN065 BKN110 01/00 A3036 RMK SC5AC2
CYQB;2002-10-25 06:00;METAR CYQB 250600Z 24007KT 15SM BKN073 01/M00 A3036 RMK AC6 SLP286
CYQB;2002-10-25 07:00;METAR CYQB 250700Z 26004KT 15SM BKN072 00/M01 A3036 RMK AC6 SLP286
CYQB;2002-10-25 08:00;METAR CYQB 250800Z 26004KT 15SM BKN073 M01/M02 A3037 RMK AC6 SLP288
CYQB;2002-10-25 09:00;METAR CYQB 250900Z 27004KT 15SM SCT075 M02/M03 A3037 RMK AC3 SLP289
CYQB;2002-10-25 10:00;METAR CYQB 251000Z 28002KT 15SM FEW075 M02/M03 A3039 RMK AC2 SLP295
CYQB;2002-10-25 11:00;METAR CYQB 251100Z 00000KT 15SM FEW020 SCT075 M01/M02 A3041 RMK CF1AC3 SLP300
CYQB;2002-10-25 12:00;METAR CYQB 251200Z 00000KT 15SM FEW015 FEW075 M02/M03 A3042 RMK CF1AC2 SLP306
CYQB;2002-10-25 13:00;METAR CYQB 251300Z 18002KT 15SM FEW015 FEW050 FEW075 M01/M01 A3045 RMK CF1SC1AC2 SLP314 SLP314
CYQB;2002-10-25 14:00;METAR CYQB 251400Z 24005KT 30SM FEW020 FEW055 FEW075 SCT230 03/01 A3045 RMK CF1SC1AC2CI0 SLP314
CYQB;2002-10-25 15:00;METAR CYQB 251500Z 20008KT 30SM FEW020 FEW040 FEW055 SCT230 05/00 A3044 RMK CF1CU1SC1CI0 SLP312
CYQB;2002-10-25 17:00;METAR CYQB 251700Z 23013KT 30SM SCT022 BKN058 BKN230 07/00 A3039 RMK CU4SC2CI1 SLP296 SLP296
CYQB;2002-10-25 18:00;METAR CYQB 251800Z 26008KT 30SM BKN060 06/M01 A3040 RMK SC7 CU EMBDD SLP297
CYQB;2002-10-25 19:00;METAR CYQB 251900Z 22009KT 30SM BKN058 06/M01 A3039 RMK SC7 SLP295
CYQB;2002-10-25 20:00;METAR CYQB 252000Z 23007KT 30SM BKN060 06/M00 A3039 RMK SC7 CU EMBDD SLP293
CYQB;2002-10-25 21:00;METAR CYQB 252100Z 21004KT 30SM FEW022 BKN059 06/M03 A3038 RMK CU1SC6 SLP291
CYQB;2002-10-25 22:00;METAR CYQB 252200Z 23002KT 30SM SCT059 SCT220 04/M04 A3037 RMK SC3CI0 SLP289
CYQB;2002-10-25 23:00;METAR CYQB 252300Z 00000KT 15SM FEW059 02/M04 A3037 RMK SC1 SLP287
CYQB;2002-10-26 00:00;METAR CYQB 260000Z 00000KT 15SM FEW200 M00/M03 A3036 RMK CI1 SLP287
CYQB;2002-10-26 01:00;METAR CYQB 260100Z 34002KT 15SM SCT054 M01/M03 A3034 RMK SC2 SLP280
CYQB;2002-10-26 02:00;METAR CYQB 260200Z 36002KT 15SM FEW054 M00/M03 A3034 RMK SC1 SLP279
CYQB;2002-10-26 03:00;METAR CYQB 260300Z 03003KT 15SM FEW220 M01/M03 A3033 RMK CI0 SLP274
CYQB;2002-10-26 04:00;METAR CYQB 260400Z 03004KT 15SM SCT220 M01/M03 A3032 RMK CI1 SLP271
CYQB;2002-10-26 05:00;METAR CYQB 260500Z 02002KT 15SM BKN220 M00/M03 A3030 RMK CI2 SLP264
CYQB;2002-10-26 06:00;METAR CYQB 260600Z 07006KT 15SM BKN220 00/M02 A3028 RMK CI2 SLP255
CYQB;2002-10-26 07:00;METAR CYQB 260700Z 07006KT 15SM SCT160 BKN220 01/M01 A3025 RMK AC2CI2 SLP247
CYQB;2002-10-26 08:00;METAR CYQB 260800Z 07007KT 15SM SCT130 OVC220 01/M01 A3022 RMK AC2CI2 SLP237
CYQB;2002-10-26 09:00;METAR CYQB 260900Z 08006KT 15SM BKN120 OVC200 02/M01 A3020 RMK AC3CI2 SLP229
CYQB;2002-10-26 10:00;METAR CYQB 261000Z 08006KT 15SM BKN100 OVC200 02/M01 A3018 RMK AC5CI2 SLP224
CYQB;2002-10-26 11:00;METAR CYQB 261100Z 07007KT 15SM OVC090 02/M02 A3016 RMK AC8 SLP216
CYQB;2002-10-26 12:00;METAR CYQB 261200Z 09008KT 15SM OVC080 03/M03 A3014 RMK AC8 SLP208
CYQB;2002-10-26 13:00;METAR CYQB 261300Z 10007KT 15SM OVC058 03/M02 A3013 RMK SC8 SLP205
CYQB;2002-10-26 14:00;METAR CYQB 261400Z 11007KT 6SM -RASN BR SCT013 OVC019 02/01 A3011 RMK SF3SC5 SLP201 SLP201
CYQB;2002-10-26 15:00;METAR CYQB 261500Z 06008KT 5SM -RASN BR BKN012 OVC020 02/02 A3008 RMK SF6SC2 SLP188 SLP188
CYQB;2002-10-26 15:34;SPECI CYQB 261534Z 08009KT 2 1/2SM -RASN BR BKN008 OVC015 RMK SF6SC2 VSBY 4 NE QUAD QUAD
CYQB;2002-10-26 16:00;METAR CYQB 261600Z 06010G16KT 2 1/2SM -RASN BR BKN008 OVC015 02/02 A3004 RMK SF6SC2 VSBY 5 SE QUAD SLP177 SF6SC2 VSBY 5 SE QUAD SLP177
CYQB;2002-10-26 16:36;SPECI CYQB 261636Z 07011KT 2SM -RASN BR BKN005 OVC013 RMK SF7SC1
CYQB;2002-10-26 17:00;METAR CYQB 261700Z 07010G16KT 2SM -RASN BR BKN005 OVC015 02/01 A3002 RMK SF6SC2 SLP170 SLP170
CYQB;2002-10-26 18:00;METAR CYQB 261800Z 08012KT 1 1/2SM -RASN BR BKN005 OVC012 01/01 A3000 RMK SF6SC2 SLP161 SLP161
CYQB;2002-10-26 19:00;METAR CYQB 261900Z 08007KT 1 1/2SM -RA BR OVC005 02/02 A2997 RMK SF8 SLP154
CYQB;2002-10-26 20:00;METAR CYQB 262000Z 07009KT 1 1/2SM -RA BR OVC005 02/02 A2996 RMK SF8 SLP150
CYQB;2002-10-26 21:00;METAR CYQB 262100Z 07010KT 1 1/2SM -RA BR BKN004 OVC011 02/02 A2995 RMK SF6NS2 VSBY 4 NE QUAD SLP145 VSBY 4 NE QUAD SLP145
CYQB;2002-10-26 21:51;SPECI CYQB 262151Z 08008KT 2SM -RA BR BKN005 OVC011 RMK SF6NS2
CYQB;2002-10-26 22:00;METAR CYQB 262200Z 08008KT 2SM -RA BR BKN004 OVC011 02/02 A2994 RMK SF6NS2 SLP143
CYQB;2002-10-26 23:00;METAR CYQB 262300Z 07008KT 2SM -RA BR OVC004 02/02 A2994 RMK SF8 SLP141
CYQB;2002-10-27 00:00;METAR CYQB 270000Z 06006KT 2SM -RA BR OVC004 02/02 A2992 RMK SF8 SLP136
CYQB;2002-10-27 00:27;SPECI CYQB 270027Z 06005KT 2SM -RA BR BKN003 OVC009 RMK SF6SC2
CYQB;2002-10-27 01:00;METAR CYQB 270100Z 08006KT 2SM -RA BR OVC003 02/02 A2991 RMK SF8 SLP131
CYQB;2002-10-27 02:00;METAR CYQB 270200Z 06006KT 2 1/2SM -RA BR OVC004 02/02 A2990 RMK SF8 SLP129
CYQB;2002-10-27 03:00;METAR CYQB 270300Z 05006KT 5SM -RA BR BKN003 OVC007 02/02 A2989 RMK SF6SC2 SLP126
CYQB;2002-10-27 04:00;METAR CYQB 270400Z 03004KT 10SM -RA BKN005 OVC009 02/02 A2989 RMK SF5SC3 SLP124
CYQB;2002-10-27 05:00;METAR CYQB 270500Z 03004KT 5SM -RA BR OVC004 02/02 A2988 RMK SF8 SLP121
CYQB;2002-10-27 06:00;METAR CYQB 270600Z 35003KT 12SM OVC007 02/02 A2988 RMK SF8 SLP122
CYQB;2002-10-27 08:00;METAR CYQB 270800Z 25006KT 8SM SCT008 OVC024 02/02 A2990 RMK SF4SC4 SLP128
CYQB;2002-10-27 09:00;METAR CYQB 270900Z 25009KT 15SM FEW008 SCT018 OVC029 02/02 A2991 RMK SF2SC2SC5 SLP131 SLP131
CYQB;2002-10-27 10:00;METAR CYQB 271000Z 25009KT 15SM FEW008 OVC035 02/02 A2992 RMK SF2SC6 SLP133
CYQB;2002-10-27 11:00;METAR CYQB 271100Z 26007KT 15SM FEW012 OVC035 02/02 A2992 RMK CF2SC6 SLP135
CYQB;2002-10-27 12:00;METAR CYQB 271200Z 26011KT 15SM FEW012 OVC035 02/02 A2992 RMK CF2SC6 F OVR RVR SLP137 SLP137
CYQB;2002-10-27 13:00;METAR CYQB 271300Z 27009KT 15SM FEW012 OVC032 03/02 A2992 RMK CF1SC7 BARO READ +11 SLP137 +11 SLP137
CYQB;2002-10-27 14:00;METAR CYQB 271400Z 27011KT 15SM FEW012 OVC034 03/02 A2992 RMK CF2SC6 SLP136
CYQB;2002-10-27 15:00;METAR CYQB 271500Z 26009KT 15SM FEW015 OVC036 04/03 A2990 RMK CU2SC6
CYQB;2002-10-27 16:00;METAR CYQB 271600Z 28009G15KT 15SM BKN013 OVC036 04/02 A2989 RMK SC5SC3 MNTN TOPS N OBSCD IN CLDS SLP126 N OBSCD IN CLDS SLP126
CYQB;2002-10-27 17:00;METAR CYQB 271700Z 27012G17KT 15SM BKN015 OVC035 04/M00 A2988 RMK SC5SC3 SLP120
CYQB;2002-10-27 18:00;METAR CYQB 271800Z 26012KT 15SM BKN025 OVC040 04/M00 A2987 RMK SC7SC1 SLP118
CYQB;2002-10-27 19:00;METAR CYQB 271900Z 26012KT 15SM VCSH BKN025 OVC040 03/M00 A2987 RMK SC6SC2 VBSY LWR N IN SHWRS SLP118 LWR N IN SHWRS SLP118
CYQB;2002-10-27 20:00;METAR CYQB 272000Z 27011KT 12SM -RA FEW015 BKN025 OVC044 03/01 A2988 RMK SF1SC6SC1 VSBY LWR N SLP120 SF1SC6SC1 VSBY LWR N SLP121
CYQB;2002-10-27 22:00;METAR CYQB 272200Z 26011KT 10SM FEW015 BKN030 BKN060 02/01 A2989 RMK SF2SC5SC1 SLP124
CYQB;2002-10-27 23:00;METAR CYQB 272300Z 27013KT 15SM FEW015 SCT030 01/00 A2992 RMK SF1SC3
CYQB;2002-10-28 00:00;METAR CYQB 280000Z 27012KT 15SM FEW008 SCT030 00/00 A2993 RMK SF2SC2 SLP140
CYQB;2002-10-28 01:00;METAR CYQB 280100Z 26011KT 15SM FEW008 FEW030 BKN056 01/00 A2992 RMK SF1SC2SC2 SLP135 SLP135
CYQB;2002-10-28 02:00;METAR CYQB 280200Z 26014KT 15SM FEW008 FEW030 SCT056 01/M00 A2993 RMK SF1SC2SC2 SLP138 SLP138
CYQB;2002-10-28 03:00;METAR CYQB 280300Z 26012KT 15SM FEW050 00/M01 A2994 RMK SC2 SLP142
CYQB;2002-10-28 04:00;METAR CYQB 280400Z 26011KT 15SM BKN039 01/M00 A2995 RMK SC6 SLP147
CYQB;2002-10-28 05:00;METAR CYQB 280500Z 25014KT 15SM BKN042 01/M00 A2997 RMK SC7 SLP151
CYQB;2002-10-28 06:00;METAR CYQB 280600Z 26013KT 15SM BKN035 00/M01 A2997 RMK SC6 SLP154
CYQB;2002-10-28 07:00;METAR CYQB 280700Z 25008KT 15SM BKN039 00/M01 A2998 RMK SC5 SLP157
CYQB;2002-10-28 08:00;METAR CYQB 280800Z 24010G15KT 15SM BKN035 00/M01 A2998 RMK SC6 SLP156
CYQB;2002-10-28 09:00;METAR CYQB 280900Z 26009KT 15SM BKN034 00/M01 A2999 RMK SC7 SLP158
CYQB;2002-10-28 10:00;METAR CYQB 281000Z 27006KT 15SM SCT035 M01/M02 A3000 RMK SC2 SLP162
CYQB;2002-10-28 11:00;METAR CYQB 281100Z 23009KT 15SM FEW035 M01/M02 A3002 RMK SC1 SLP169
CYQB;2002-10-28 12:00;METAR CYQB 281200Z 26007KT 15SM FEW035 FEW120 M02/M03 A3004 RMK SC1AC1 SLP175
CYQB;2002-10-28 13:00;METAR CYQB 281300Z 25005KT 30SM FEW035 01/M02 A3006 RMK SC2 SLP181
CYQB;2002-10-28 14:00;METAR CYQB 281400Z 25010KT 30SM FEW040 02/M01 A3006 RMK SC2 SLP181
CYQB;2002-10-28 15:00;METAR CYQB 281500Z 26012KT 30SM BKN041 03/M01 A3006 RMK SC7 SLP181
CYQB;2002-10-28 16:00;METAR CYQB 281600Z 26011KT 15SM BKN047 03/00 A3006 RMK SC7 SLP182
CYQB;2002-10-28 17:00;METAR CYQB 281700Z 27009KT 30SM FEW030 OVC042 04/M01 A3006 RMK SC2SC6 SLP181
CYQB;2002-10-28 18:00;METAR CYQB 281800Z 27008KT 30SM FEW030 OVC042 04/M02 A3005 RMK SC2SC6 SLP180
CYQB;2002-10-28 19:00;METAR CYQB 281900Z 28007KT 30SM FEW030 OVC038 04/M02 A3006 RMK SC2SC6 SLP182
CYQB;2002-10-28 21:00;METAR CYQB 282100Z 34009KT 30SM FEW030 BKN043 03/M05 A3007 RMK SC2SC5 SLP186
CYQB;2002-10-28 22:00;METAR CYQB 282200Z 31009KT 30SM BKN043 02/M05 A3008 RMK SC6 SLP188
CYQB;2002-10-28 23:00;METAR CYQB 282300Z 34006KT 30SM BKN039 02/M05 A3009 RMK SC5 SLP193
CYQB;2002-10-29 00:00;METAR CYQB 290000Z 33010G16KT 30SM SCT040 01/M07 A3011 RMK SC4 SLP200
CYQB;2002-10-29 01:00;METAR CYQB 290100Z 34012G19KT 30SM SCT042 00/M07 A3012 RMK SC3 SLP205
CYQB;2002-10-29 02:00;METAR CYQB 290200Z 33003KT 30SM SCT048 M00/M08 A3013 RMK SC3 SLP206
CYQB;2002-10-29 03:00;METAR CYQB 290300Z 29004KT 15SM SCT050 M02/M08 A3013 RMK SC3 SLP208
CYQB;2002-10-29 04:00;METAR CYQB 290400Z 26004KT 15SM SCT049 M02/M07 A3013 RMK SC4 SLP208
CYQB;2002-10-29 05:00;METAR CYQB 290500Z 23005KT 15SM BKN047 M02/M07 A3014 RMK SC5 SLP210
CYQB;2002-10-29 06:00;METAR CYQB 290600Z 26005KT 15SM BKN045 M03/M07 A3015 RMK SC5 SLP214
CYQB;2002-10-29 07:00;METAR CYQB 290700Z 26005KT 15SM FEW045 M04/M07 A3016 RMK SC2 SLP218
CYQB;2002-10-29 08:00;METAR CYQB 290800Z 26005KT 15SM SKC M05/M08 A3017 RMK SLP222
CYQB;2002-10-29 09:00;METAR CYQB 290900Z 27006KT 15SM SKC M04/M08 A3018 RMK SLP224
CYQB;2002-10-29 10:00;METAR CYQB 291000Z 27008KT 15SM SKC M04/M07 A3018 RMK SLP223
CYQB;2002-10-29 11:00;METAR CYQB 291100Z 26010KT 50SM FEW050 M04/M07 A3018 RMK SC1 SLP225
CYQB;2002-10-29 12:00;METAR CYQB 291200Z 26010KT 50SM FEW040 M04/M07 A3020 RMK CF1 SLP230
CYQB;2002-10-29 13:00;METAR CYQB 291300Z 27007KT 50SM FEW040 M02/M06 A3021 RMK CF1 SLP235
CYQB;2002-10-29 14:00;METAR CYQB 291400Z 29006KT 30SM FEW040 00/M06 A3021 RMK CU1 SLP235
CYQB;2002-10-29 15:00;METAR CYQB 291500Z 34013G20KT 30SM FEW045 02/M07 A3022 RMK CU2 SLP238
CYQB;2002-10-29 16:00;METAR CYQB 291600Z 31009G17KT 30SM SCT038 03/M07 A3020 RMK SC3 SLP231
CYQB;2002-10-29 17:00;METAR CYQB 291700Z 33014KT 30SM SCT045 02/M07 A3020 RMK SC4 SLP230
CYQB;2002-10-29 18:00;METAR CYQB 291800Z 34011G17KT 30SM FEW045 03/M07 A3018 RMK SC2 SLP225
CYQB;2002-10-29 19:00;METAR CYQB 291900Z 34009G19KT 30SM SCT045 02/M07 A3018 RMK SC3 SLP224
CYQB;2002-10-29 20:00;METAR CYQB 292000Z 36007KT 30SM SCT045 02/M07 A3019 RMK SC3 SLP227
CYQB;2002-10-29 21:00;METAR CYQB 292100Z 36010KT 30SM BKN042 01/M08 A3019 RMK SC5 SLP229
CYQB;2002-10-29 22:00;METAR CYQB 292200Z 31008KT 15SM BKN043 00/M07 A3019 RMK SC6 SLP228
CYQB;2002-10-29 23:00;METAR CYQB 292300Z 33008KT 15SM BKN044 00/M07 A3019 RMK SC7 SLP228
CYQB;2002-10-30 00:00;METAR CYQB 300000Z 01009KT 15SM BKN044 M00/M08 A3019 RMK SC7 SLP229
CYQB;2002-10-30 01:00;METAR CYQB 300100Z 32008KT 15SM SCT044 M01/M08 A3019 RMK SC3 SLP227
CYQB;2002-10-30 02:00;METAR CYQB 300200Z 31007KT 15SM FEW044 M02/M08 A3019 RMK SC2 SLP228
CYQB;2002-10-30 03:00;METAR CYQB 300300Z 28006KT 15SM FEW040 M03/M08 A3018 RMK SC2 SLP224
CYQB;2002-10-30 04:00;METAR CYQB 300400Z 27005KT 15SM FEW040 M05/M08 A3017 RMK SC2 SLP220
CYQB;2002-10-30 05:00;METAR CYQB 300500Z 28006KT 15SM SKC M06/M08 A3016 RMK SLP217
CYQB;2002-10-30 06:00;METAR CYQB 300600Z 30007KT 15SM SKC M05/M08 A3016 RMK SLP216
CYQB;2002-10-30 07:00;METAR CYQB 300700Z 33004KT 15SM SKC M04/M08 A3015 RMK SLP213
CYQB;2002-10-30 08:00;METAR CYQB 300800Z 34005KT 15SM SKC M04/M08 A3014 RMK SLP212
CYQB;2002-10-30 09:00;METAR CYQB 300900Z 35007KT 15SM FEW210 M04/M09 A3014 RMK CI2 SLP209
CYQB;2002-10-30 10:00;METAR CYQB 301000Z 34008KT 15SM BKN220 M05/M08 A3014 RMK CI5 SLP209
CYQB;2002-10-30 11:00;METAR CYQB 301100Z 35006KT 15SM FEW200 M06/M09 A3012 RMK CI2 SLP204
CYQB;2002-10-30 12:00;METAR CYQB 301200Z 32004KT 30SM FEW200 M07/M09 A3013 RMK CI1 SLP207
CYQB;2002-10-30 13:00;METAR CYQB 301300Z 31008KT 30SM FEW200 M02/M07 A3015 RMK CI1 SLP213
CYQB;2002-10-30 14:00;METAR CYQB 301400Z 31005KT 30SM FEW200 01/M08 A3014 RMK CI1 SLP210
CYQB;2002-10-30 15:00;METAR CYQB 301500Z 32007KT 30SM FEW200 00/M08 A3011 RMK CI1 SLP199
CYQB;2002-10-30 16:00;METAR CYQB 301600Z 36004KT 30SM FEW250 01/M08 A3008 RMK CI0 SLP192
CYQB;2002-10-30 17:00;METAR CYQB 301700Z 31005KT 30SM FEW250 03/M08 A3006 RMK CI1 SLP182
CYQB;2002-10-30 18:00;METAR CYQB 301800Z 30007KT 30SM FEW250 04/M07 A3003 RMK CI1 SLP173
CYQB;2002-10-30 19:00;METAR CYQB 301900Z 31006KT 30SM FEW250 04/M08 A3001 RMK CI1 SLP166
CYQB;2002-10-30 20:00;METAR CYQB 302000Z 33009KT 30SM FEW250 04/M08 A3001 RMK CI1 SLP166
CYQB;2002-10-30 21:00;METAR CYQB 302100Z 30009KT 30SM FEW250 02/M07 A3001 RMK CI1 SLP165
CYQB;2002-10-30 22:00;METAR CYQB 302200Z 32008KT 30SM FEW250 00/M07 A3001 RMK CI1 SLP167
CYQB;2002-10-30 23:00;METAR CYQB 302300Z 33010KT 15SM SKC M00/M07 A3002 RMK SLP168
CYQB;2002-10-31 00:00;METAR CYQB 310000Z 34004KT 15SM SKC M01/M07 A3002 RMK SLP170
CYQB;2002-10-31 01:00;METAR CYQB 310100Z 33008KT 15SM SKC M01/M08 A3002 RMK SLP170
CYQB;2002-10-31 02:00;METAR CYQB 310200Z 32004KT 15SM SKC M02/M08 A3003 RMK SLP173
CYQB;2002-10-31 03:00;METAR CYQB 310300Z 31007KT 15SM SKC M04/M08 A3002 RMK SLP169
CYQB;2002-10-31 04:00;METAR CYQB 310400Z 32008KT 15SM SKC M03/M08 A3000 RMK SLP165
CYQB;2002-10-31 05:00;METAR CYQB 310500Z 24003KT 15SM BKN110 M04/M07 A3000 RMK AC5 SLP165
CYQB;2002-10-31 06:00;METAR CYQB 310600Z 29004KT 15SM BKN110 M04/M07 A3000 RMK AC6 SLP162
CYQB;2002-10-31 07:00;METAR CYQB 310700Z 34007KT 15SM BKN110 M03/M07 A2999 RMK AC6 SLP160
CYQB;2002-10-31 08:00;METAR CYQB 310800Z 20002KT 15SM FEW110 M04/M07 A2999 RMK AC2 SLP158
CYQB;2002-10-31 09:00;METAR CYQB 310900Z 00000KT 15SM FEW110 M05/M08 A2998 RMK AC2 SLP157
CYQB;2002-10-31 10:00;METAR CYQB 311000Z 01003KT 15SM SCT120 M05/M08 A2999 RMK AC4 SLP158
CYQB;2002-10-31 11:00;METAR CYQB 311100Z 00000KT 15SM SCT120 M06/M08 A2999 RMK AC3 SLP159
CYQB;2002-10-31 12:00;METAR CYQB 311200Z 00000KT 30SM FEW070 BKN120 M05/M07 A2999 RMK AC1AC4 SLP161
CYQB;2002-10-31 13:00;METAR CYQB 311300Z 00000KT 30SM FEW035 BKN120 M03/M06 A3000 RMK SC2AC2 SLP162
CYQB;2002-10-31 14:00;METAR CYQB 311400Z 24010KT 30SM FEW020 FEW040 FEW120 M01/M04 A2999 RMK CF1SC1AC1 SLP161
CYQB;2002-10-31 15:00;METAR CYQB 311500Z 24010KT 20SM -SHSN OVC043 M00/M04 A2998 RMK SC7 SLP156
CYQB;2002-10-31 16:00;METAR CYQB 311600Z 25012KT 30SM OVC043 M00/M03 A2997 RMK SC8 SLP153
CYQB;2002-10-31 17:00;METAR CYQB 311700Z 25012KT 10SM -SHSN FEW018 SCT041 BKN062 01/M02 A2995 RMK SC1SC3SC3 SLP146
CYQB;2002-10-31 18:00;METAR CYQB 311800Z 26011KT 5SM -SHSN OVC025 01/M02 A2994 RMK SC8 SLP142
CYQB;2002-10-31 19:00;METAR CYQB 311900Z 26011KT 4SM -SHSN FEW012 BKN027 OVC050 00/M02 A2994 RMK SC1SC6SC2 VSBY LWR W QUAD SLP142
CYQB;2002-10-31 20:00;METAR CYQB 312000Z 25007KT 4SM -SHSN FEW015 OVC044 00/M02 A2993 RMK SC1SC7 SLP139
CYQB;2002-10-31 21:00;METAR CYQB 312100Z 25006KT 15SM FEW015 OVC044 00/M02 A2992 RMK CF2SC6 SLP137
CYQB;2002-10-31 22:00;METAR CYQB 312200Z 26005KT 15SM -SHSN FEW037 OVC047 M00/M02 A2992 RMK SC2SC6 SLP135 SLP135
CYQB;2002-10-31 23:00;METAR CYQB 312300Z 00000KT 15SM FEW041 OVC058 M00/M02 A2992 RMK SC2SC6 SLP134
CYQB;2002-11-01 00:00;METAR CYQB 010000Z 00000KT 15SM OVC041 00/M02 A2991 RMK SC8 SLP133
CYQB;2002-11-01 01:00;METAR CYQB 010100Z 00000KT 12SM -SHSN FEW055 OVC064 M00/M02 A2991 RMK SC2SC6 SLP131 SLP131
CYQB;2002-11-01 02:00;METAR CYQB 010200Z 27002KT 15SM -SHSN OVC069 M00/M02 A2991 RMK AC8 SLP131
CYQB;2002-11-01 03:00;METAR CYQB 010300Z 33002KT 15SM -SHSN OVC067 M01/M02 A2990 RMK AC8 SLP128
CYQB;2002-11-01 04:00;METAR CYQB 010400Z 18002KT 15SM -SHSN BKN026 OVC060 M01/M02 A2988 RMK SC5SC3 SLP122 SLP122
CYQB;2002-11-01 05:00;METAR CYQB 010500Z 22004KT 12SM -SHSN FEW014 BKN031 M01/M01 A2987 RMK SC2SC5 SLP119 SLP119
CYQB;2002-11-01 06:00;METAR CYQB 010600Z 23005KT 15SM -SHSN BKN033 BKN070 M01/M02 A2986 RMK SC5AC2 SLP115 SLP115
CYQB;2002-11-01 07:00;METAR CYQB 010700Z 26003KT 15SM -SHSN BKN026 BKN038 M02/M03 A2985 RMK SC5SC2 SLP111 SLP111
CYQB;2002-11-01 08:00;METAR CYQB 010800Z 23003KT 15SM -SHSN OVC039 M01/M02 A2983 RMK SC7 SLP107
CYQB;2002-11-01 09:00;METAR CYQB 010900Z 24005KT 15SM -SN SCT040 BKN067 M01/M02 A2983 RMK SC4AC3 SLP105
CYQB;2002-11-01 10:00;METAR CYQB 011000Z 25004KT 15SM -SN BKN045 BKN070 M02/M02 A2982 RMK SC6AC2 SLP103
CYQB;2002-11-01 11:00;METAR CYQB 011100Z 23006KT 15SM -SN BKN043 OVC064 M02/M03 A2982 RMK SC6SC2 SLP102
CYQB;2002-11-01 12:00;METAR CYQB 011200Z 26004KT 15SM FEW011 FEW045 SCT065 BKN200 M04/M06 A2983 RMK CF1SC2SC2CI2 SLP104 CF1SC2SC2CI2 SLP104
CYQB;2002-11-01 13:00;METAR CYQB 011300Z 25005KT 20SM FEW011 FEW045 BKN200 M02/M04 A2983 RMK CF1SC2CI1 SLP104 SLP104
CYQB;2002-11-01 14:00;METAR CYQB 011400Z 24006KT 30SM FEW012 SCT110 BKN220 M00/M05 A2981 RMK CF1AC2CI1 SLP099 SLP099
CYQB;2002-11-01 15:00;METAR CYQB 011500Z 21003KT 30SM FEW020 FEW110 OVC220 M00/M06 A2979 RMK SC1AC1CI1 SLP092 SLP092
CYQB;2002-11-01 16:00;METAR CYQB 011600Z 18007KT 30SM FEW020 FEW110 OVC220 00/M04 A2977 RMK SC1AC1CS1 SLP084 SLP084
CYQB;2002-11-01 17:00;METAR CYQB 011700Z 22006KT 30SM FEW020 SCT110 BKN220 02/M05 A2973 RMK CU2AC2CS1 SLP072 SLP072
CYQB;2002-11-01 18:00;METAR CYQB 011800Z 18006KT 30SM FEW020 BKN054 OVC100 01/M06 A2970 RMK CU2SC3AC3 SLP062 SLP062
CYQB;2002-11-01 19:00;METAR CYQB 011900Z 23003KT 15SM FEW020 OVC038 01/M06 A2970 RMK CU1SC7 SLP059
CYQB;2002-11-01 20:00;METAR CYQB 012000Z 22005KT 15SM FEW020 OVC035 01/M05 A2967 RMK CU1SC7 SLP051
CYQB;2002-11-01 21:00;METAR CYQB 012100Z 19004KT 5SM -SHSN OVC021 01/M03 A2965 RMK SC8 SLP045
CYQB;2002-11-01 22:00;METAR CYQB 012200Z 18006KT 10SM -SHSN BKN020 OVC059 01/M02 A2964 RMK SC5SC3 TCU N VSBY N 1 DUE HVYER SHWR SLP040 VSBY N 1 DUE HVYER SHWR SLP040
CYQB;2002-11-01 23:00;METAR CYQB 012300Z 20007KT 5SM -SHSN FEW010 OVC043 00/M01 A2962 RMK CF2SC6 SLP035
CYQB;2002-11-02 00:00;METAR CYQB 020000Z 33016G26KT 1/2SM R06/2200V6000FT/D SHSN DRSN VV005 M04/M05 A2964 RMK SN8 SLP041 A2964 RMK SN8 SLP041
CYQB;2002-11-02 01:00;METAR CYQB 020100Z 27011G16KT 8SM -SHSN BKN048 OVC060 M04/M07 A2968 RMK SC6SC2 SLP055 SLP055
CYQB;2002-11-02 02:00;METAR CYQB 020200Z 24013KT 15SM SCT025 OVC057 M04/M08 A2970 RMK SC4SC4 SLP062
CYQB;2002-11-02 03:00;METAR CYQB 020300Z 26013G20KT 10SM -SHSN SCT020 BKN069 OVC100 M05/M09 A2972 RMK SC3SC3AC2 SLP067 SC3SC3AC2 SLP067
CYQB;2002-11-02 04:00;METAR CYQB 020400Z 30016KT 15SM FEW045 SCT080 BKN200 M06/M12 A2972 RMK SC2AC2CI2 SLP070 SLP070
CYQB;2002-11-02 05:00;METAR CYQB 020500Z 24010KT 15SM FEW070 M08/M11 A2975 RMK AC2 SLP077
CYQB;2002-11-02 06:00;METAR CYQB 020600Z 24011KT 15SM FEW015 FEW070 SCT200 M09/M11 A2975 RMK SF1AC1CI2 SLP077 SLP077
CYQB;2002-11-02 07:00;METAR CYQB 020700Z 25013KT 15SM FEW015 SCT200 M09/M12 A2974 RMK SF1CI2 SLP076
CYQB;2002-11-02 08:00;METAR CYQB 020800Z 25010KT 15SM FEW015 FEW200 M09/M12 A2973 RMK SF1CI2 SLP073
CYQB;2002-11-02 09:00;METAR CYQB 020900Z 25011KT 15SM FEW200 M10/M12 A2972 RMK CI2 SLP070
CYQB;2002-11-02 10:00;METAR CYQB 021000Z 23012KT 15SM FEW200 M10/M12 A2972 RMK CI2 SLP068
CYQB;2002-11-02 11:00;METAR CYQB 021100Z 25015KT 15SM FEW020 FEW150 FEW220 M10/M12 A2972 RMK CF1AC1CI1 SLP069 SLP069
CYQB;2002-11-02 12:00;METAR CYQB 021200Z 23017KT 30SM FEW020 FEW150 SCT220 M10/M12 A2972 RMK CF1AC2CI1 SHWRS N SLP070 SHWRS N SLP070
CYQB;2002-11-02 13:00;METAR CYQB 021300Z 24015KT 30SM FEW020 FEW100 M09/M11 A2972 RMK CF1AC2
CYQB;2002-11-02 14:00;METAR CYQB 021400Z 25013G18KT 30SM FEW020 FEW036 SCT100 BKN230 M06/M10 A2973 RMK CF1SC2AC1CI0 SLP074 CF1SC2AC1CI0 SLP074
CYQB;2002-11-02 15:00;METAR CYQB 021500Z 26009KT 30SM FEW020 FEW040 BKN082 M05/M10 A2974 RMK CF1SC2AC4 SLP075 SLP075
CYQB;2002-11-02 16:00;METAR CYQB 021600Z 28014G20KT 30SM FEW020 FEW040 SCT083 SCT230 M04/M11 A2975 RMK CF1CU1AC2CI0 SLP077 CF1CU1AC2CI0 SLP077
CYQB;2002-11-02 17:00;METAR CYQB 021700Z 30017G24KT 30SM FEW040 SCT075 BKN230 M02/M09 A2975 RMK CF2AC2CI1 SLP077
CYQB;2002-11-02 18:00;METAR CYQB 021800Z 32015G24KT 30SM SCT040 SCT074 BKN230 M03/M10 A2976 RMK CF3AC1CI0 SLP083
CYQB;2002-11-02 19:00;METAR CYQB 021900Z 31013G20KT 30SM FEW040 FEW070 BKN230 M02/M10 A2978 RMK CF2AC1CI1 SLP089
CYQB;2002-11-02 20:00;METAR CYQB 022000Z 32013KT 30SM FEW040 FEW080 BKN230 M03/M11 A2980 RMK CF1AC1CI2 SLP097 SLP097
CYQB;2002-11-02 21:00;METAR CYQB 022100Z 31012G17KT 30SM FEW040 FEW090 BKN230 M03/M11 A2983 RMK CF1AC1CI1 SLP105
CYQB;2002-11-02 22:00;METAR CYQB 022200Z 30007KT 15SM FEW040 FEW100 SCT230 M04/M11 A2985 RMK CF1AC1CI0 SLP113 SLP113
CYQB;2002-11-02 23:00;METAR CYQB 022300Z 28006KT 15SM FEW040 FEW230 M07/M11 A2988 RMK CF1CI0 SLP123
CYQB;2002-11-03 00:00;METAR CYQB 030000Z 29005KT 15SM FEW040 FEW230 M08/M12 A2989 RMK CF1CI0 SLP129
CYQB;2002-11-03 01:00;METAR CYQB 030100Z 29004KT 15SM FEW230 M08/M12 A2991 RMK CI0 SLP133
CYQB;2002-11-03 02:00;METAR CYQB 030200Z 28007KT 15SM FEW230 M10/M13 A2992 RMK CI0 SLP138
CYQB;2002-11-03 03:00;METAR CYQB 030300Z 26004KT 30SM FEW230 M09/M12 A2992 RMK CI0 SLP138
CYQB;2002-11-03 04:00;METAR CYQB 030400Z 29004KT 30SM FEW240 M08/M12 A2993 RMK CI0 SLP141
CYQB;2002-11-03 06:00;METAR CYQB 030600Z 24004KT 30SM FEW210 M08/M11 A2995 RMK CI1 SLP147
CYQB;2002-11-03 07:00;METAR CYQB 030700Z 29004KT 30SM FEW210 M09/M12 A2997 RMK CI1 SLP153
CYQB;2002-11-03 08:00;METAR CYQB 030800Z 24006KT 30SM SKC M11/M13 A2997 RMK SLP155
CYQB;2002-11-03 09:00;METAR CYQB 030900Z 25005KT 30SM FEW210 M11/M13 A2999 RMK CI1 SLP161
CYQB;2002-11-03 10:00;METAR CYQB 031000Z 24008KT 30SM FEW020 M12/M14 A3002 RMK CF1 SLP170
CYQB;2002-11-03 11:00;METAR CYQB 031100Z 25006KT 30SM FEW010 FEW210 M11/M13 A3003 RMK CF1CI1 SLP176
CYQB;2002-11-03 12:00;METAR CYQB 031200Z 24007KT 30SM FEW010 FEW220 M11/M13 A3005 RMK CF1CI1 SLP181
CYQB;2002-11-03 13:00;METAR CYQB 031300Z 25008KT 30SM FEW015 FEW220 M08/M11 A3007 RMK CF1CI0 SLP188
CYQB;2002-11-03 14:00;METAR CYQB 031400Z 24010KT 30SM FEW015 FEW220 M06/M10 A3008 RMK CF1CI0 SLP192
CYQB;2002-11-03 15:00;METAR CYQB 031500Z 23013KT 30SM SKC M05/M10 A3009 RMK SLP194
CYQB;2002-11-03 16:00;METAR CYQB 031600Z 24014KT 30SM SKC M03/M08 A3008 RMK SLP192
CYQB;2002-11-03 17:00;METAR CYQB 031700Z 27014G19KT 30SM FEW025 M01/M08 A3007 RMK CF2 SLP187
CYQB;2002-11-03 18:00;METAR CYQB 031800Z 25016KT 30SM FEW030 M00/M08 A3006 RMK SC2 SLP184
CYQB;2002-11-03 19:00;METAR CYQB 031900Z 28015KT 30SM FEW040 M00/M09 A3007 RMK CF1 SLP188
CYQB;2002-11-03 20:00;METAR CYQB 032000Z 27015KT 30SM SCT046 M01/M08 A3009 RMK SC4 CU EMBDD VIRGA ALQDS SLP193 SLP193
CYQB;2002-11-03 21:00;METAR CYQB 032100Z 29008G15KT 30SM FEW045 FEW230 M02/M08 A3010 RMK SC1CI0 SLP198
CYQB;2002-11-03 22:00;METAR CYQB 032200Z 29003KT 15SM FEW040 FEW230 M04/M09 A3011 RMK SC1CI0 SLP202
CYQB;2002-11-03 23:00;METAR CYQB 032300Z 30007KT 15SM FEW045 FEW230 M03/M09 A3012 RMK SC1CI0 SLP206
CYQB;2002-11-04 00:00;METAR CYQB 040000Z 35009KT 15SM FEW230 M04/M09 A3013 RMK CI1 SLP207
CYQB;2002-11-04 01:00;METAR CYQB 040100Z 34003KT 15SM BKN210 M05/M10 A3014 RMK CI4 SLP210
CYQB;2002-11-04 02:00;METAR CYQB 040200Z 02002KT 15SM BKN210 M05/M10 A3015 RMK CI4 SLP215
CYQB;2002-11-04 03:00;METAR CYQB 040300Z 35004KT 15SM SKC M05/M11 A3014 RMK SLP213
CYQB;2002-11-04 04:00;METAR CYQB 040400Z 31004KT 15SM SKC M08/M11 A3014 RMK SLP213
CYQB;2002-11-04 05:00;METAR CYQB 040500Z 34002KT 15SM SKC M08/M11 A3016 RMK SLP217
CYQB;2002-11-04 06:00;METAR CYQB 040600Z 02004KT 15SM BKN140 M08/M11 A3014 RMK AC2 SLP212
CYQB;2002-11-04 07:00;METAR CYQB 040700Z 02004KT 15SM SCT140 M08/M11 A3014 RMK AC0 SLP212
CYQB;2002-11-04 08:00;METAR CYQB 040800Z 01005KT 15SM SCT150 M08/M11 A3013 RMK AC1 SLP206
CYQB;2002-11-04 10:00;METAR CYQB 041000Z 02004KT 15SM FEW025 BKN150 M08/M11 A3011 RMK SC1AC2 SLP202
CYQB;2002-11-04 11:00;METAR CYQB 041100Z 01004KT 30SM FEW020 BKN180 M08/M11 A3011 RMK SC1AC2
CYQB;2002-11-04 12:00;METAR CYQB 041200Z 02004KT 30SM SCT160 BKN210 M08/M11 A3011 RMK AC2CI0 SLP201
CYQB;2002-11-04 13:00;METAR CYQB 041300Z 03004KT 30SM SCT120 OVC210 M07/M10 A3011 RMK AC2CI2
CYQB;2002-11-04 14:00;METAR CYQB 041400Z 07005KT 30SM FEW025 BKN064 OVC120 M04/M08 A3010 RMK CF1SC6AC1 CF TR SLP197 CF TR SLP197
CYQB;2002-11-04 15:00;METAR CYQB 041500Z 07007KT 30SM BKN055 OVC110 M03/M07 A3008 RMK SC4AC4 SLP191
CYQB;2002-11-04 16:00;METAR CYQB 041600Z 07010KT 30SM BKN043 OVC055 M02/M07 A3006 RMK SC6SC2 SLP184
CYQB;2002-11-04 17:00;METAR CYQB 041700Z 09009KT 8SM -SHSN FEW020 OVC031 M02/M06 A3003 RMK SC2SC6 SUN DMLY VSBL SLP175 DMLY VSBL SLP175
CYQB;2002-11-04 18:00;METAR CYQB 041800Z 09008KT 6SM -SHSN FEW020 FEW038 OVC050 M02/M05 A3002 RMK SC1SC2SC4 SLP169
CYQB;2002-11-04 19:00;METAR CYQB 041900Z 09009KT 8SM -SN SCT020 OVC035 M02/M05 A3000 RMK SC3SC5 SLP163
CYQB;2002-11-04 20:00;METAR CYQB 042000Z 07010KT 3SM -SN SCT014 OVC025 M02/M04 A3000 RMK SF3SC5
CYQB;2002-11-04 21:00;METAR CYQB 042100Z 07009G15KT 6SM -SN BKN012 BKN044 BKN094 M02/M03 A3000 RMK SF3SC2AC2 SLP162 SF3SC2AC2 SLP162
CYQB;2002-11-04 22:00;METAR CYQB 042200Z 07007KT 8SM -SN BKN012 BKN020 OVC045 M02/M04 A2999 RMK SF4SC2SC2 SLP160
CYQB;2002-11-04 23:00;METAR CYQB 042300Z 08010G15KT 15SM FEW012 FEW027 OVC043 M02/M04 A2998 RMK SF1SC2SC6 SLP158
CYQB;2002-11-05 00:00;METAR CYQB 050000Z 07009G15KT 15SM FEW020 OVC038 M02/M03 A2998 RMK SC2SC6 SLP157
CYQB;2002-11-05 01:00;METAR CYQB 050100Z 07010KT 15SM BKN023 OVC040 M01/M04 A2998 RMK SC6SC2 SLP158
CYQB;2002-11-05 02:00;METAR CYQB 050200Z 07011KT 8SM -SN OVC025 M01/M03 A2999 RMK SC8 SLP159
CYQB;2002-11-05 03:00;METAR CYQB 050300Z 07012KT 10SM -SHSN BKN019 OVC035 M02/M03 A2998 RMK SC6SC2 SLP157
CYQB;2002-11-05 04:00;METAR CYQB 050400Z 06012KT 8SM -SHSN BKN024 OVC042 M02/M03 A2999 RMK SC5SC3 SLP160
CYQB;2002-11-05 05:00;METAR CYQB 050500Z 06006KT 2SM -SHSN OVC012 M02/M02 A3001 RMK SN2SC6 SLP167
CYQB;2002-11-05 06:00;METAR CYQB 050600Z 06008KT 4SM -SHSN FEW008 OVC015 M02/M03 A3003 RMK SF2SC6 SLP175
CYQB;2002-11-05 09:00;METAR CYQB 050900Z 05008KT 12SM -SHSN OVC047 M02/M05 A3011 RMK SC8 SLP201
CYQB;2002-11-05 10:00;METAR CYQB 051000Z 05006KT 15SM BKN023 M03/M06 A3014 RMK SC7 SLP210
CYQB;2002-11-05 11:00;METAR CYQB 051100Z 35003KT 15SM BKN018 OVC080 M02/M05 A3017 RMK SC6AC2 SLP219
CYQB;2002-11-05 12:00;METAR CYQB 051200Z 36006KT 15SM BKN020 OVC080 M03/M04 A3020 RMK SC7AC1 SLP231
CYQB;2002-11-05 13:00;METAR CYQB 051300Z 01004KT 15SM BKN025 BKN080 M03/M05 A3022 RMK SC6AC1 SLP239
CYQB;2002-11-05 14:00;METAR CYQB 051400Z 02007KT 15SM BKN034 M02/M05 A3024 RMK SC7 SLP243
CYQB;2002-11-05 15:00;METAR CYQB 051500Z 01002KT 15SM SCT022 BKN035 M01/M05 A3025 RMK SC3SC4 SLP247
CYQB;2002-11-05 16:00;METAR CYQB 051600Z 07005KT 15SM FEW024 BKN030 M00/M05 A3025 RMK CF2SC5 SLP248
CYQB;2002-11-05 18:00;METAR CYQB 051800Z 06006KT 15SM BKN024 OVC040 M00/M05 A3024 RMK SC6SC2 SLP244
CYQB;2002-11-05 19:00;METAR CYQB 051900Z 06006KT 15SM OVC023 M00/M04 A3022 RMK SC8 SLP237
CYQB;2002-11-05 20:00;METAR CYQB 052000Z 07007KT 15SM OVC026 M00/M04 A3023 RMK SC8 SLP240
CYQB;2002-11-05 21:00;METAR CYQB 052100Z 09004KT 15SM OVC029 M00/M06 A3022 RMK SC8 SLP239
CYQB;2002-11-05 22:00;METAR CYQB 052200Z 07005KT 15SM OVC028 M01/M05 A3021 RMK SC8 SLP233
CYQB;2002-11-05 23:00;METAR CYQB 052300Z 07008KT 15SM OVC027 01/M05 A3018 RMK SC8 SLP225
CYQB;2002-11-06 00:00;METAR CYQB 060000Z 09007KT 15SM OVC026 M00/M05 A3017 RMK SC8 SLP222
CYQB;2002-11-06 01:00;METAR CYQB 060100Z 10010KT 15SM OVC024 M01/M05 A3016 RMK SC8 SLP216
CYQB;2002-11-06 02:00;METAR CYQB 060200Z 09007KT 15SM OVC026 M01/M04 A3014 RMK SC8 SLP210
CYQB;2002-11-06 03:00;METAR CYQB 060300Z 07008KT 15SM OVC025 M00/M04 A3011 RMK SC8 SLP202
CYQB;2002-11-06 04:00;METAR CYQB 060400Z 09005KT 15SM OVC024 M00/M04 A3009 RMK SC8 SLP194
CYQB;2002-11-06 05:00;METAR CYQB 060500Z 09007KT 15SM OVC023 M00/M04 A3007 RMK SC8 SLP186
CYQB;2002-11-06 06:00;METAR CYQB 060600Z 09010G15KT 10SM OVC020 M00/M04 A3002 RMK SC8 SLP168
CYQB;2002-11-06 07:00;METAR CYQB 060700Z 08010KT 3SM -SN SCT025 OVC044 M00/M03 A2995 RMK SC4SC4 SLP146
CYQB;2002-11-06 08:00;METAR CYQB 060800Z 09010G15KT 15SM OVC018 M00/M01 A2990 RMK SC8 SLP129
CYQB;2002-11-06 09:00;METAR CYQB 060900Z 09010G15KT 15SM OVC015 00/M02 A2988 RMK SC8 SLP123
CYQB;2002-11-06 10:00;METAR CYQB 061000Z 08008KT 15SM OVC017 00/M02 A2986 RMK SC8 SLP117
CYQB;2002-11-06 11:00;METAR CYQB 061100Z 09008KT 1SM R06/P6000FT/N -SN VV009 M00/M01 A2982 RMK SN8 SLP103 SLP103
CYQB;2002-11-06 12:00;METAR CYQB 061200Z 07012KT 3/4SM R06/P6000FT/U -SN VV007 M00/M00 A2978 RMK SN8 SLP089 SLP089
CYQB;2002-11-06 12:13;SPECI CYQB 061213Z 07010KT 3/4SM R06/5500FT/D -SN VV004 RMK SN8 SLP073
CYQB;2002-11-06 14:00;METAR CYQB 061400Z 07011G16KT 3/4SM R06/5500FT/N -SN VV003 M00/M00 A2970 RMK SN8 SLP062 SLP062
CYQB;2002-11-06 15:00;METAR CYQB 061500Z 07011G18KT 3/4SM R06/4000FT/U -SN VV004 00/00 A2967 RMK SN8 SLP049 SLP049
CYQB;2002-11-06 16:00;METAR CYQB 061600Z 07010KT 3/4SM R06/5000FT/N -SN VV004 00/00 A2963 RMK SN8 SLP038
CYQB;2002-11-06 17:00;METAR CYQB 061700Z 07009KT 1SM R06/6000FT/N -SN VV004 00/00 A2960 RMK SN8 CIG VRBL 3-5 VSBY VRBL 3/4-11/4 SLP028 VRBL 3-5 VSBY VRBL 3/4-11/4 SLP028
CYQB;2002-11-06 18:00;METAR CYQB 061800Z 07009KT 1SM R06/4500FT/U -SN BKN005 OVC015 00/00 A2957 RMK SF5SC3 VSBY VRBL 3/4-11/4 SLP018 SF5SC3 VSBY VRBL 3/4-11/4 SLP018
CYQB;2002-11-06 19:00;METAR CYQB 061900Z 08007KT 3/4SM R06/P6000FT/U -SN VV002 00/00 A2956 RMK SN8 VSBY VRBL 3/4-11/4 SLP012 VRBL 3/4-11/4 SLP012
CYQB;2002-11-06 20:00;METAR CYQB 062000Z 07007KT 3/4SM R06/P6000FT/N -SN VV003 00/00 A2954 RMK SN8 CIG VRBL 2-4 VSBY VRBL 3/4-11/4 SLP006 VRBL 2-4 VSBY VRBL 3/4-11/4 SLP006
CYQB;2002-11-06 21:00;METAR CYQB 062100Z 08006KT 3/4SM R06/P6000FT/D -SN VV003 00/00 A2953 RMK SN8 CIG VRBL 2-4 VSBY VRBL 3/4-11/2 SLP003 VRBL 2-4 VSBY VRBL 3/4-11/2 SLP003
CYQB;2002-11-06 22:00;METAR CYQB 062200Z 08005KT 3/4SM R06/P6000FT/D BR OVC002 00/00 A2952 RMK ST8 VSBY VRBL 1/2-1 SLP999 VRBL 1/2-1 SLP999
CYQB;2002-11-06 23:00;METAR CYQB 062300Z 07005KT 3/4SM R06/P6000FT/U -SN BR OVC002 00/00 A2951 RMK ST8 SLP996 SLP996
CYQB;2002-11-07 00:00;METAR CYQB 070000Z 35002KT 1SM R06/P6000FT/D -SN BR BKN002 OVC006 00/00 A2951 RMK SF6ST2 SLP997 SF6ST2 SLP997
CYQB;2002-11-07 01:00;METAR CYQB 070100Z 00000KT 1 1/2SM -SN BR BKN008 OVC015 00/00 A2950 RMK SF5SC3 SLP993 SLP993
CYQB;2002-11-07 02:00;METAR CYQB 070200Z 24005KT 4SM -SN OVC011 01/01 A2950 RMK SC8 SLP993
CYQB;2002-11-07 03:00;METAR CYQB 070300Z 24010KT 10SM FEW010 BKN033 OVC045 01/01 A2949 RMK SF1SC6SC2 SLP990
CYQB;2002-11-07 04:00;METAR CYQB 070400Z 25011KT 15SM FEW010 OVC034 01/01 A2949 RMK SF1SC7 SLP989
CYQB;2002-11-07 05:00;METAR CYQB 070500Z 26014KT 15SM BKN030 01/00 A2950 RMK SC6 SLP992
CYQB;2002-11-07 06:00;METAR CYQB 070600Z 25012KT 15SM FEW010 OVC031 01/00 A2950 RMK SF1SC7 SLP994
CYQB;2002-11-07 07:00;METAR CYQB 070700Z 25012KT 15SM FEW012 SCT035 OVC080 00/M00 A2951 RMK SF1SC3AC4 SLP996 SLP996
CYQB;2002-11-07 08:00;METAR CYQB 070800Z 23012KT 15SM OVC033 01/M00 A2951 RMK SC8 SLP998
CYQB;2002-11-07 09:00;METAR CYQB 070900Z 22010KT 15SM FEW010 OVC033 00/M00 A2953 RMK SF1SC7 SLP002
CYQB;2002-11-07 10:00;METAR CYQB 071000Z 33015G24KT 15SM FEW020 SCT040 OVC070 M02/M06 A2957 RMK SC1SC2AC5 FROPA SLP017
CYQB;2002-11-07 11:00;METAR CYQB 071100Z 34021G28KT 15SM FEW030 BKN080 M04/M10 A2961 RMK SC2AC6 SLP029
CYQB;2002-11-07 12:00;METAR CYQB 071200Z 31018G25KT 15SM FEW030 FEW090 M06/M12 A2969 RMK SC1AC1 PRESRR SLP057 SLP057
CYQB;2002-11-07 13:00;METAR CYQB 071300Z 33010G15KT 25SM FEW020 M08/M13 A2975 RMK SF1 SLP078
CYQB;2002-11-07 14:00;METAR CYQB 071400Z 31011G17KT 25SM SKC M08/M14 A2980 RMK PRESRR SLP096
CYQB;2002-11-07 15:00;METAR CYQB 071500Z 30009G15KT 25SM SKC M08/M16 A2985 RMK SLP112
CYQB;2002-11-07 16:00;METAR CYQB 071600Z 29009KT 25SM FEW020 M07/M15 A2989 RMK SF1 SLP126
CYQB;2002-11-07 17:00;METAR CYQB 071700Z 31008KT 30SM FEW020 M06/M15 A2991 RMK CF1 SLP132
CYQB;2002-11-07 18:00;METAR CYQB 071800Z 30006KT 30SM SKC M06/M15 A2992 RMK SLP136
CYQB;2002-11-07 19:00;METAR CYQB 071900Z 27015KT 30SM FEW025 M06/M13 A2994 RMK CF1 SLP141
CYQB;2002-11-07 20:00;METAR CYQB 072000Z 26014KT 30SM FEW025 M06/M13 A2996 RMK CF1 SLP149
CYQB;2002-11-07 21:00;METAR CYQB 072100Z 26011KT 30SM SKC M07/M14 A2997 RMK SLP154
CYQB;2002-11-07 22:00;METAR CYQB 072200Z 27011KT 30SM SKC M08/M14 A3000 RMK SLP165
CYQB;2002-11-07 23:00;METAR CYQB 072300Z 22006KT 15SM SKC M10/M14 A3001 RMK SLP168
CYQB;2002-11-08 00:00;METAR CYQB 080000Z 23005KT 15SM SKC M11/M14 A3002 RMK SLP172
CYQB;2002-11-08 22:00;METAR CYQB 072200Z 27011KT 30SM SKC M08/M14 A3000 RMK SLP165
CYQB;2002-11-08 23:00;METAR CYQB 072300Z 22006KT 15SM SKC M10/M14 A3001 RMK SLP168
CYQB;2002-11-08 01:00;METAR CYQB 080100Z 23006KT 15SM SKC M10/M15 A3002 RMK SLP171
CYQB;2002-11-08 02:00;METAR CYQB 080200Z 26003KT 15SM FEW250 M13/M16 A3001 RMK CI0 SLP168
CYQB;2002-11-08 03:00;METAR CYQB 080300Z 30003KT 15SM FEW250 M15/M17 A3000 RMK CI0 SLP165
CYQB;2002-11-08 04:00;METAR CYQB 080400Z 27005KT 15SM BKN150 M12/M14 A2999 RMK AC6 SLP162
CYQB;2002-11-08 05:00;METAR CYQB 080500Z 29003KT 15SM OVC120 M10/M12 A2999 RMK AC8 SLP163
CYQB;2002-11-08 06:00;METAR CYQB 080600Z 00000KT 15SM OVC079 M11/M14 A2999 RMK AC8 SLP162
CYQB;2002-11-08 07:00;METAR CYQB 080700Z 00000KT 15SM OVC130 M10/M12 A2997 RMK AC8 SLP153
CYQB;2002-11-08 08:00;METAR CYQB 080800Z 03003KT 15SM -SN BKN056 OVC130 M10/M12 A2994 RMK SC6AC2 SLP146
CYQB;2002-11-08 09:00;METAR CYQB 080900Z 03005KT 15SM -SN BKN041 OVC052 M09/M11 A2991 RMK SC6SC2 SLP133
CYQB;2002-11-08 10:00;METAR CYQB 081000Z 04004KT 15SM -SN OVC036 M08/M10 A2989 RMK SC8 SLP126
CYQB;2002-11-08 11:00;METAR CYQB 081100Z 03005KT 15SM OVC026 M08/M23 A2986 RMK SC8 SLP118
CYQB;2002-11-08 12:00;METAR CYQB 081200Z 02006KT 15SM OVC023 M08/M11 A2985 RMK SC8 SLP113
CYQB;2002-11-08 13:00;METAR CYQB 081300Z 01006KT 6SM -SN FEW008 BKN013 OVC020 M08/M09 A2984 RMK SF2SC4SC2 SLP110
CYQB;2002-11-08 14:00;METAR CYQB 081400Z 01006KT 4SM -SN SCT008 OVC015 M07/M08 A2982 RMK SF4SC4 VSBY WSW 2 FROIN SLP104 WSW 2 FROIN SLP104
CYQB;2002-11-08 15:00;METAR CYQB 081500Z 01005KT 3SM -SN FEW004 BKN009 OVC016 M06/M08 A2980 RMK SF2SC4SC2 SLP098
CYQB;2002-11-08 16:00;METAR CYQB 081600Z 02005KT 1 1/2SM -SN BR FEW003 OVC009 M05/M07 A2977 RMK SF2SF6 CIG VRBL 6-13 VSBY VRBL 1-2 SLP088 CIG VRBL 6-13 VSBY VRBL 1-2 SLP088
CYQB;2002-11-08 17:00;METAR CYQB 081700Z 02002KT 8SM -SN FEW003 FEW010 OVC027 M05/M06 A2974 RMK SF1SF2SC6 SLP078
CYQB;2002-11-08 18:00;METAR CYQB 081800Z 00000KT 20SM FEW010 OVC027 M03/M05 A2972 RMK SF2SC6 SLP071
CYQB;2002-11-08 19:00;METAR CYQB 081900Z 00000KT 20SM OVC028 M02/M04 A2971 RMK SC8 SLP066
CYQB;2002-11-08 20:00;METAR CYQB 082000Z 00000KT 20SM OVC033 M02/M04 A2971 RMK SC8 SLP065
CYQB;2002-11-08 21:00;METAR CYQB 082100Z 36002KT 20SM OVC035 M01/M03 A2971 RMK SC8 SLP065
CYQB;2002-11-08 22:00;METAR CYQB 082200Z 31002KT 15SM OVC037 M01/M03 A2971 RMK SC8 SLP064
CYQB;2002-11-08 23:00;METAR CYQB 082300Z 20002KT 15SM OVC039 M01/M02 A2972 RMK SC8 SLP068
CYQB;2002-11-09 00:00;METAR CYQB 090000Z 26003KT 15SM OVC045 M01/M02 A2973 RMK SC8 SLP071
CYQB;2002-11-09 01:00;METAR CYQB 090100Z 28003KT 15SM OVC046 M00/M02 A2973 RMK SC8 SLP071
CYQB;2002-11-09 02:00;METAR CYQB 090200Z 26002KT 15SM OVC053 M00/M01 A2972 RMK SC8 SLP069
CYQB;2002-11-09 03:00;METAR CYQB 090300Z 00000KT 15SM OVC054 00/M01 A2973 RMK SC8 SLP072
CYQB;2002-11-09 04:00;METAR CYQB 090400Z 30002KT 15SM OVC051 00/M01 A2974 RMK SC8 SLP074
CYQB;2002-11-09 05:00;METAR CYQB 090500Z 14003KT 15SM BKN045 OVC080 00/M00 A2975 RMK SC6AC2 SLP078
CYQB;2002-11-09 06:00;METAR CYQB 090600Z 00000KT 15SM BKN044 01/00 A2976 RMK SC7 SLP083
CYQB;2002-11-09 07:00;METAR CYQB 090700Z 00000KT 12SM OVC038 01/00 A2978 RMK SC8 SLP090
CYQB;2002-11-09 08:00;METAR CYQB 090800Z 00000KT 12SM OVC034 02/M00 A2980 RMK SC8 SLP095
CYQB;2002-11-09 09:00;METAR CYQB 090900Z 00000KT 12SM OVC026 02/01 A2982 RMK SC8 SLP101
CYQB;2002-11-09 12:00;METAR CYQB 091200Z 05003KT 8SM OVC055 01/01 A2989 RMK SC8 SLP127
CYQB;2002-11-09 13:00;METAR CYQB 091300Z 09005KT 8SM OVC025 02/01 A2994 RMK SC8 SLP141
CYQB;2002-11-09 14:00;METAR CYQB 091400Z 08014KT 15SM FEW012 OVC021 03/01 A2996 RMK SF1SC7 SLP148
CYQB;2002-11-09 15:00;METAR CYQB 091500Z 06012G17KT 20SM FEW015 OVC025 03/M00 A2997 RMK SF1SC8 SLP151
CYQB;2002-11-09 16:00;METAR CYQB 091600Z 08012G17KT 25SM OVC021 03/M02 A2997 RMK SC8 SLP152
CYQB;2002-11-09 18:00;METAR CYQB 091800Z 07012G24KT 15SM BKN022 OVC035 02/M02 A2994 RMK SC5SC3 SLP144
CYQB;2002-11-09 19:00;METAR CYQB 091900Z 08007KT 15SM FEW020 BKN055 01/M01 A2994 RMK SC2SC5
CYQB;2002-11-09 20:00;METAR CYQB 092000Z 07012KT 25SM FEW035 BKN070 01/M01 A2994 RMK SC2AC4 VSBY LWR N SLP144
CYQB;2002-11-09 21:00;METAR CYQB 092100Z 08011KT 30SM FEW015 FEW070 SCT220 01/M01 A2994 RMK CF1AC2CI0 SLP141 SLP141
CYQB;2002-11-09 22:00;METAR CYQB 092200Z 08011KT 15SM FEW020 FEW100 SCT220 00/M01 A2994 RMK CF1AC2CI1 SLP143 SLP143
CYQB;2002-11-09 23:00;METAR CYQB 092300Z 07008KT 15SM BKN075 00/M01 A2995 RMK AC6 SLP146
CYQB;2002-11-10 00:00;METAR CYQB 100000Z 08007KT 15SM FEW015 BKN077 01/M01 A2994 RMK CF1AC6 SLP141
CYQB;2002-11-10 00:26;SPECI CYQB 100026Z 08007KT 15SM FEW009 BKN069 RMK CF2SC6
CYQB;2002-11-10 01:00;METAR CYQB 100100Z 08009KT 15SM FEW009 BKN079 01/M01 A2992 RMK CF2AC5 SLP137
CYQB;2002-11-10 02:00;METAR CYQB 100200Z 08007KT 15SM FEW009 BKN065 OVC084 01/M01 A2992 RMK CF2SC5AC2 SLP135 SLP135
CYQB;2002-11-10 03:00;METAR CYQB 100300Z 08007KT 15SM FEW010 BKN071 OVC100 01/M00 A2991 RMK ST2AC6AC1 MTNS OBCSD W SLP132 MTNS OBCSD W SLP132
CYQB;2002-11-10 04:00;METAR CYQB 100400Z 07008KT 15SM FEW009 OVC074 01/M00 A2991 RMK SF2AC6 SLP131
CYQB;2002-11-10 05:00;METAR CYQB 100500Z 09007KT 15SM FEW009 OVC082 01/M00 A2990 RMK SF2AC6 SLP128
CYQB;2002-11-10 05:43;SPECI CYQB 100543Z 06004KT 15SM BKN009 OVC060 RMK SF5AC3
CYQB;2002-11-10 06:00;METAR CYQB 100600Z 07008KT 15SM BKN008 OVC050 01/M00 A2990 RMK SF5SC3
CYQB;2002-11-10 07:00;METAR CYQB 100700Z 07009KT 15SM FEW008 OVC053 01/M00 A2989 RMK SF2SC6 SLP126
CYQB;2002-11-10 08:00;METAR CYQB 100800Z 07007KT 15SM FEW008 OVC052 01/M00 A2988 RMK SF2SC6 SLP123
CYQB;2002-11-10 09:00;METAR CYQB 100900Z 08010KT 15SM FEW008 OVC047 01/M00 A2989 RMK SF2SC6 SLP125
CYQB;2002-11-10 10:00;METAR CYQB 101000Z 07007KT 15SM FEW008 OVC061 01/M00 A2987 RMK SF2SC6 SLP118
CYQB;2002-11-10 11:00;METAR CYQB 101100Z 07006KT 15SM FEW008 OVC050 01/00 A2987 RMK SF2SC6
CYQB;2002-11-10 12:00;METAR CYQB 101200Z 07006KT 10SM FEW008 OVC042 01/00 A2986 RMK SF1SC7 SLP116
CYQB;2002-11-10 13:00;METAR CYQB 101300Z 05009G15KT 10SM FEW015 OVC035 01/00 A2985 RMK CF1SC8 SLP113
CYQB;2002-11-10 14:00;METAR CYQB 101400Z 08008KT 8SM FEW012 SCT023 OVC042 02/00 A2983 RMK SF1SC3SC4 FOGGY SLP105 FOGGY SLP105
CYQB;2002-11-10 15:00;METAR CYQB 101500Z 06007KT 10SM FEW016 SCT043 BKN076 BKN160 02/01 A2979 RMK SC1SC3AC2AC1 SLP092
CYQB;2002-11-10 16:00;METAR CYQB 101600Z 05006KT 10SM FEW020 SCT045 BKN090 BKN160 OVC200 03/01 A2977 RMK CF1SC2AC2AC1CI1 SLP083 RMK CF1SC2AC2AC1CI1 SLP083
CYQB;2002-11-10 17:00;METAR CYQB 101700Z 07008KT 25SM FEW040 SCT110 BKN230 04/02 A2972 RMK SC1AC2CI1 PRESFR SLP067 PRESFR SLP067
CYQB;2002-11-10 18:00;METAR CYQB 101800Z 07009KT 25SM FEW045 BKN060 BKN110 BKN230 04/02 A2968 RMK SC1SC6AC1CI1 SLP053
CYQB;2002-11-10 19:00;METAR CYQB 101900Z 07008KT 25SM FEW080 SCT150 BKN190 04/02 A2966 RMK AC2AC2CI0 SLP046 SLP046
CYQB;2002-11-10 20:00;METAR CYQB 102000Z 07007KT 25SM BKN065 BKN110 BKN220 04/02 A2965 RMK SC6AC1CI1 SLP043 SLP043
CYQB;2002-11-10 21:00;METAR CYQB 102100Z 07007KT 25SM FEW070 FEW110 BKN160 BKN220 04/02 A2963 RMK AC1AC1AC6CI1 PRESFR SLP037
CYQB;2002-11-10 22:00;METAR CYQB 102200Z 07009KT 15SM OVC064 03/02 A2962 RMK SC8 SLP034
CYQB;2002-11-10 23:00;METAR CYQB 102300Z 07011KT 15SM OVC051 03/02 A2961 RMK SC8 SLP032
CYQB;2002-11-11 00:00;METAR CYQB 110000Z 06008KT 6SM -RA BR OVC044 03/03 A2960 RMK SC8 SLP028
CYQB;2002-11-11 01:00;METAR CYQB 110100Z 06007KT 2 1/2SM -RA BR FEW004 OVC032 03/03 A2957 RMK SF2SC6 SLP018 SLP018
CYQB;2002-11-11 02:00;METAR CYQB 110200Z 07005KT 2SM -RA BR BKN003 OVC024 04/04 A2958 RMK SF5SC3 SLP020 SLP025 A2960 RMK SF5SF3 SLP025 SF5SF3 SLP025
CYQB;2002-11-11 05:00;METAR CYQB 110500Z 03004KT 2SM BR OVC004 04/04 A2963 RMK SF8 SLP036
CYQB;2002-11-11 06:00;METAR CYQB 110600Z 09003KT 3SM BR BKN004 BKN014 OVC053 05/05 A2961 RMK SF5SC2SC2 SLP031 SLP031
CYQB;2002-11-11 07:00;METAR CYQB 110700Z 06005KT 3SM BR BKN003 OVC046 05/05 A2961 RMK SF5SC3
CYQB;2002-11-11 08:00;METAR CYQB 110800Z 05006KT 2 1/2SM BR BKN002 OVC045 04/04 A2959 RMK SF6SC2 SLP021
CYQB;2002-11-11 09:00;METAR CYQB 110900Z 08004KT 1SM R06/P6000FT/D BR OVC002 04/04 A2956 RMK SF8 SLP013
CYQB;2002-11-11 10:00;METAR CYQB 111000Z 01005KT 3SM BR FEW002 BKN049 BKN200 05/05 A2955 RMK SF2SC3CI2 SLP008 SLP008
CYQB;2002-11-11 11:00;METAR CYQB 111100Z 04007KT 2SM BR SCT004 OVC046 06/06 A2953 RMK SF3SC5 SLP004
CYQB;2002-11-11 12:00;METAR CYQB 111200Z 08005KT 5SM BR BKN042 OVC064 06/06 A2952 RMK SC6SC2 SLP998
CYQB;2002-11-11 13:00;METAR CYQB 111300Z 05004KT 20SM BKN058 OVC140 07/07 A2950 RMK SC7AC1 FOGGY ESPECIALY IN THE VALLEYS SLP993
CYQB;2002-11-11 14:00;METAR CYQB 111400Z 04004KT 15SM FEW040 BKN060 OVC120 08/08 A2948 RMK SC2SC6AC1 SLP987 SLP987
CYQB;2002-11-11 15:00;METAR CYQB 111500Z 02005KT 15SM FEW010 FEW040 BKN065 BKN160 10/09 A2946 RMK SF1SC2SC4AC1 SLP978
CYQB;2002-11-11 16:00;METAR CYQB 111600Z 04003KT 10SM FEW015 SCT026 OVC058 12/11 A2943 RMK SC2SC2SC4 SLP967 SLP967
CYQB;2002-11-11 17:00;METAR CYQB 111700Z 17007KT 8SM FEW040 OVC059 15/13 A2939 RMK SC2SC6 VCSH SLP955
CYQB;2002-11-11 18:00;METAR CYQB 111800Z 24020G25KT 4SM -SHRA BR FEW018 BKN044 OVC055 15/15 A2947 RMK SF1SC6SC2 RERA SLP980 SF1SC6SC2 RERA SLP980
CYQB;2002-11-11 19:00;METAR CYQB 111900Z 28012G27KT 15SM -SHRA BKN047 OVC080 13/10 A2953 RMK SC6AC2 PRESRR SLP002 PRESRR SLP002
CYQB;2002-11-11 20:00;METAR CYQB 112000Z 21007KT 15SM -SHRA SCT050 OVC089 12/11 A2960 RMK SC3AC5 PRESRR SLP025
CYQB;2002-11-11 21:00;METAR CYQB 112100Z 23009KT 15SM -SHRA SCT100 OVC120 11/09 A2965 RMK AC4AC4 SLP044
CYQB;2002-11-11 22:00;METAR CYQB 112200Z 24008KT 15SM BKN130 10/09 A2971 RMK AC7 PRESRR SLP064
CYQB;2002-11-11 23:00;METAR CYQB 112300Z 24006KT 15SM BKN032 OVC140 10/09 A2978 RMK SC6AC2 PRESRR SLP085
CYQB;2002-11-12 00:00;METAR CYQB 120000Z 29012G17KT 15SM SCT030 09/07 A2981 RMK SC4 SLP096
CYQB;2002-11-12 01:00;METAR CYQB 120100Z 25005KT 15SM FEW120 07/04 A2985 RMK AC2 SLP111
CYQB;2002-11-12 02:00;METAR CYQB 120200Z 28009KT 15SM FEW120 06/03 A2989 RMK AC1 SLP125
CYQB;2002-11-12 04:00;METAR CYQB 120400Z 29008KT 15SM FEW050 04/01 A2997 RMK SC1 SLP151
CYQB;2002-11-12 05:00;METAR CYQB 120500Z 27008KT 15SM SCT034 02/01 A3001 RMK SC4 SLP164
CYQB;2002-11-12 06:00;METAR CYQB 120600Z 00000KT 15SM BKN035 03/01 A3004 RMK SC6 SLP174
CYQB;2002-11-12 07:00;METAR CYQB 120700Z 26007KT 15SM OVC034 04/00 A3007 RMK SC8 SLP186
CYQB;2002-11-12 08:00;METAR CYQB 120800Z 24006KT 15SM OVC033 03/01 A3009 RMK SC8 SLP193
CYQB;2002-11-12 09:00;METAR CYQB 120900Z 25007KT 15SM BKN034 03/01 A3012 RMK SC7 SLP202
CYQB;2002-11-12 10:00;METAR CYQB 121000Z 25006KT 15SM FEW034 02/00 A3013 RMK SC1 SLP205
CYQB;2002-11-12 11:00;METAR CYQB 121100Z 23006KT 15SM FEW034 01/M00 A3015 RMK SC1 SLP211
CYQB;2002-11-12 12:00;METAR CYQB 121200Z 24005KT 20SM BKN057 BKN210 00/M00 A3017 RMK SC6CI1 SLP221
CYQB;2002-11-12 13:00;METAR CYQB 121300Z 26005KT 30SM FEW058 FEW160 02/00 A3019 RMK SC2AC1 SLP227
CYQB;2002-11-12 14:00;METAR CYQB 121400Z 24004KT 30SM BKN048 BKN160 03/00 A3020 RMK SC5AC1 SLP229
CYQB;2002-11-12 15:00;METAR CYQB 121500Z 22005KT 30SM BKN045 BKN160 04/01 A3020 RMK SC6AC1 SLP230
CYQB;2002-11-12 16:00;METAR CYQB 121600Z 24005KT 30SM BKN045 04/01 A3020 RMK SC7 SLP230
CYQB;2002-11-12 17:00;METAR CYQB 121700Z 25004KT 30SM BKN045 BKN140 04/00 A3019 RMK SC6AC1 SLP228
CYQB;2002-11-12 18:00;METAR CYQB 121800Z 26002KT 30SM BKN045 BKN100 04/01 A3018 RMK SC6AC1 SLP224
CYQB;2002-11-12 19:00;METAR CYQB 121900Z 21002KT 30SM BKN048 BKN100 05/01 A3018 RMK SC6AC1 SLP223
CYQB;2002-11-12 20:00;METAR CYQB 122000Z 00000KT 30SM FEW030 OVC053 05/01 A3017 RMK SC1SC7 SLP220
CYQB;2002-11-12 21:00;METAR CYQB 122100Z 13004KT 20SM OVC039 04/02 A3016 RMK SC8 SLP217
CYQB;2002-11-12 22:00;METAR CYQB 122200Z 02004KT 15SM OVC036 05/01 A3017 RMK SC8 SLP219
CYQB;2002-11-12 23:00;METAR CYQB 122300Z 03004KT 15SM OVC041 05/01 A3016 RMK SC8 SLP215
CYQB;2002-11-13 00:00;METAR CYQB 130000Z 04003KT 15SM OVC050 04/01 A3013 RMK SC8 SLP206
CYQB;2002-11-13 01:00;METAR CYQB 130100Z 06003KT 15SM OVC051 04/01 A3012 RMK SC8 SLP202
CYQB;2002-11-13 02:00;METAR CYQB 130200Z 06007KT 15SM -SHRA OVC031 04/01 A3010 RMK SC8 SLP197
CYQB;2002-11-13 03:00;METAR CYQB 130300Z 06007KT 10SM -SHRA OVC027 03/02 A3010 RMK SC8 SLP196
CYQB;2002-11-13 04:00;METAR CYQB 130400Z 06006KT 10SM -SHRA OVC029 03/02 A3007 RMK SC8 SLP186
CYQB;2002-11-13 05:00;METAR CYQB 130500Z 07007KT 10SM -SHRA OVC023 03/02 A3006 RMK SC8 SLP181
CYQB;2002-11-13 06:00;METAR CYQB 130600Z 06007KT 10SM OVC018 03/02 A3004 RMK SC8 SLP175
CYQB;2002-11-13 07:00;METAR CYQB 130700Z 07005KT 10SM OVC017 03/02 A3002 RMK SC8 SLP170
CYQB;2002-11-13 08:00;METAR CYQB 130800Z 08005KT 15SM OVC015 03/02 A3002 RMK SC8 SLP168
CYQB;2002-11-13 09:00;METAR CYQB 130900Z 07004KT 8SM FEW006 OVC013 03/02 A2999 RMK SF2SC6 SLP160
CYQB;2002-11-13 10:00;METAR CYQB 131000Z 07004KT 2SM BR OVC004 03/02 A3002 RMK ST8 SLP170
CYQB;2002-11-13 11:00;METAR CYQB 131100Z 07007KT 2SM BR OVC004 03/03 A3002 RMK ST8 SLP168 SLP170
CYQB;2002-11-13 13:00;METAR CYQB 131300Z 05003KT 2SM BR OVC004 03/03 A3006 RMK ST8 VSBY VRBL 11/2-21/2 SLP181 SLP181
CYQB;2002-11-13 14:00;METAR CYQB 131400Z 08005KT 1 1/4SM BR OVC003 03/03 A3003 RMK FG3SF5 SLP173
CYQB;2002-11-13 15:00;METAR CYQB 131500Z 09004KT 2SM BR OVC004 03/03 A3003 RMK FG2SF6 VSBY VRBL 11/2-21/2 SLP173
CYQB;2002-11-13 16:00;METAR CYQB 131600Z 00000KT 2SM BR OVC003 03/03 A3001 RMK FG2ST6 SLP166 SLP159 RMK FG3ST5 SLP162 FG3ST5 SLP162
CYQB;2002-11-13 20:00;METAR CYQB 132000Z 19003KT 3/4SM R06/P6000FT/N BR OVC003 03/03 A2998 RMK FG3ST5 SLP157 SLP157
CYQB;2002-11-13 21:00;METAR CYQB 132100Z 23003KT 1 1/4SM BR OVC003 04/04 A2998 RMK FG2ST6 SLP157
CYQB;2002-11-13 22:00;METAR CYQB 132200Z 24005KT 6SM BR FEW007 OVC045 04/04 A2997 RMK ST2SC6 SLP151
CYQB;2002-11-13 23:00;METAR CYQB 132300Z 26006KT 8SM FEW010 OVC040 04/04 A3000 RMK ST2SC6 SLP162
CYQB;2002-11-14 01:00;METAR CYQB 140100Z 26006KT 15SM FEW040 OVC230 02/01 A2999 RMK SC2CI2 SLP158
CYQB;2002-11-14 02:00;METAR CYQB 140200Z 29004KT 15SM FEW040 BKN240 01/M00 A2996 RMK SC2CI2 SLP150
CYQB;2002-11-14 03:00;METAR CYQB 140300Z 29005KT 15SM BKN240 00/M01 A2997 RMK CI2 SLP151
CYQB;2002-11-14 04:00;METAR CYQB 140400Z 33003KT 15SM SCT240 01/M01 A2999 RMK CI1 SLP158
CYQB;2002-11-14 05:00;METAR CYQB 140500Z 04002KT 15SM SKC 01/M01 A2997 RMK SLP154
CYQB;2002-11-14 06:00;METAR CYQB 140600Z 34005KT 15SM SKC 01/M02 A2997 RMK SLP152
CYQB;2002-11-14 07:00;METAR CYQB 140700Z 18003KT 15SM SKC M01/M02 A2997 RMK SLP152
CYQB;2002-11-14 08:00;METAR CYQB 140800Z 26003KT 15SM SKC M02/M02 A2997 RMK FROIN SLP154
CYQB;2002-11-14 09:00;METAR CYQB 140900Z 00000KT 15SM SKC M02/M03 A2998 RMK SLP156
CYQB;2002-11-14 10:00;METAR CYQB 141000Z 00000KT 15SM SCT072 M03/M03 A2998 RMK AC2 FROIN SLP155
CYQB;2002-11-14 11:00;METAR CYQB 141100Z 08003KT 15SM FEW005 BKN070 M01/M02 A2999 RMK ST2AC6
CYQB;2002-11-14 12:00;METAR CYQB 141200Z 00000KT 8SM BKN003 OVC060 M01/M02 A2998 RMK ST6SC2 VSBY N 5 SLP157 SLP157
CYQB;2002-11-14 13:00;METAR CYQB 141300Z 34002KT 6SM BR BKN003 OVC060 M01/M01 A2999 RMK SF6SC2 VSBY N-NE 3 SLP159 N-NE 3 SLP159
CYQB;2002-11-14 14:00;METAR CYQB 141400Z 36003KT 1 1/2SM BR OVC003 M00/M00 A2998 RMK ST8 SLP155 ST2SC5AC2 VSBY N-NE 5 SLP151
CYQB;2002-11-14 16:00;METAR CYQB 141600Z 00000KT 8SM FEW013 SCT025 03/01 A2994 RMK SF1SC1 SLP142
CYQB;2002-11-14 17:00;METAR CYQB 141700Z 25005KT 8SM BKN012 03/02 A2992 RMK SC7 SLP135
CYQB;2002-11-14 18:00;METAR CYQB 141800Z 23007KT 6SM BR OVC014 04/02 A2989 RMK SC8 SLP126
CYQB;2002-11-14 19:00;METAR CYQB 141900Z 36002KT 8SM BKN013 04/02 A2987 RMK SC6 SLP119
CYQB;2002-11-14 20:00;METAR CYQB 142000Z 04003KT 8SM BKN013 OVC110 04/02 A2986 RMK SC6AC2 SLP115
CYQB;2002-11-14 21:00;METAR CYQB 142100Z 03005KT 8SM BKN013 BKN097 04/02 A2985 RMK SC5AC2 SLP112
CYQB;2002-11-14 22:00;METAR CYQB 142200Z 02004KT 8SM FEW015 OVC085 04/02 A2984 RMK SF2AC6 SLP109
CYQB;2002-11-14 23:00;METAR CYQB 142300Z 34003KT 6SM BR BKN059 OVC090 03/02 A2983 RMK SC6AC2 SLP107
CYQB;2002-11-15 00:00;METAR CYQB 150000Z 02004KT 4SM BR OVC052 03/02 A2981 RMK SC8 SLP099
CYQB;2002-11-15 01:00;METAR CYQB 150100Z 03003KT 4SM BR OVC047 04/02 A2980 RMK SC8 SLP093
CYQB;2002-11-15 02:00;METAR CYQB 150200Z 02003KT 3SM BR OVC044 04/02 A2978 RMK SC8 SLP087
CYQB;2002-11-15 03:00;METAR CYQB 150300Z 36003KT 5SM BR OVC039 03/02 A2977 RMK SC8 SLP083
CYQB;2002-11-15 04:00;METAR CYQB 150400Z 03004KT 5SM BR OVC037 03/03 A2975 RMK SC8 SLP078
CYQB;2002-11-15 05:00;METAR CYQB 150500Z 36002KT 6SM BR OVC036 03/03 A2974 RMK SC8 SLP074
CYQB;2002-11-15 06:00;METAR CYQB 150600Z 36002KT 6SM BR SCT028 OVC035 03/03 A2973 RMK SC4SC4 SLP072
CYQB;2002-11-15 07:00;METAR CYQB 150700Z 00000KT 5SM -RA BR BKN023 OVC037 03/03 A2974 RMK SC6SC2 SLP075
CYQB;2002-11-15 08:00;METAR CYQB 150800Z 00000KT 4SM -RA BR OVC010 03/03 A2974 RMK SC8 SLP074
CYQB;2002-11-15 09:00;METAR CYQB 150900Z 00000KT 3SM -RA BR OVC007 04/04 A2973 RMK SC8 SLP072
CYQB;2002-11-15 10:00;METAR CYQB 151000Z 27002KT 3SM -RA BR OVC005 04/04 A2974 RMK SC8 SLP074
CYQB;2002-11-15 11:00;METAR CYQB 151100Z 26006KT 3SM -RA BR OVC024 05/05 A2974 RMK SC8 SLP074
CYQB;2002-11-15 12:00;METAR CYQB 151200Z 26004KT 3SM -RA BR FEW005 BKN028 OVC044 05/05 A2976 RMK SF2SC3SC3 VSBY LWR W-N SLP082
CYQB;2002-11-15 13:00;METAR CYQB 151300Z 26004KT 5SM -RA BR SCT015 OVC036 05/04 A2979 RMK SF2SC6 SLP092
CYQB;2002-11-15 14:00;METAR CYQB 151400Z 25007KT 6SM -RA BR SCT018 OVC038 04/04 A2980 RMK SF2SC6 SLP095
CYQB;2002-11-15 15:00;METAR CYQB 151500Z 25010KT 6SM -RA BR SCT020 OVC045 04/03 A2982 RMK SC3SC5 SLP100
CYQB;2002-11-15 16:00;METAR CYQB 151600Z 25012KT 6SM -RA BR FEW008 BKN014 OVC040 03/03 A2983 RMK SF1SC7SC1 SUN DMLY VSB SLP104
CYQB;2002-11-15 17:00;METAR CYQB 151700Z 25013KT 15SM SCT018 OVC052 03/02 A2984 RMK SC2SC6 SLP108
CYQB;2002-11-15 18:00;METAR CYQB 151800Z 29013G18KT 30SM FEW020 SCT052 OVC085 03/M00 A2986 RMK SC2SC0AC5 SLP116
CYQB;2002-11-15 19:00;METAR CYQB 151900Z 31012KT 30SM FEW025 BKN052 BKN220 02/M02 A2991 RMK SC1SC6CI1 SLP130 SLP130
CYQB;2002-11-15 20:00;METAR CYQB 152000Z 32007KT 30SM FEW025 BKN057 BKN220 01/M04 A2996 RMK SC1SC6CI0 SLP148 SLP148
CYQB;2002-11-15 21:00;METAR CYQB 152100Z 31008KT 30SM FEW025 BKN045 BKN090 01/M05 A3000 RMK SC1SC5AC1 SLP163 SLP163
CYQB;2002-11-15 22:00;METAR CYQB 152200Z 32009KT 15SM BKN044 BKN090 00/M07 A3004 RMK SC5AC1 SLP176
CYQB;2002-11-15 23:00;METAR CYQB 152300Z 32009KT 15SM SCT045 SCT090 M01/M08 A3009 RMK SC3AC1 SLP193
CYQB;2002-11-16 00:00;METAR CYQB 160000Z 31009G15KT 15SM FEW045 M02/M09 A3014 RMK SC2 SLP211
CYQB;2002-11-16 01:00;METAR CYQB 160100Z 33012G19KT 15SM SKC M04/M11 A3019 RMK SLP225
CYQB;2002-11-16 02:00;METAR CYQB 160200Z 35014G20KT 15SM SKC M05/M13 A3022 RMK SLP237
CYQB;2002-11-16 03:00;METAR CYQB 160300Z 34012KT 15SM SKC M05/M13 A3026 RMK SLP251
CYQB;2002-11-16 04:00;METAR CYQB 160400Z 33008KT 15SM SKC M06/M13 A3029 RMK SLP261
CYQB;2002-11-16 05:00;METAR CYQB 160500Z 35004KT 15SM SKC M07/M13 A3033 RMK SLP273
CYQB;2002-11-16 06:00;METAR CYQB 160600Z 34007KT 15SM SKC M08/M13 A3034 RMK SLP280
CYQB;2002-11-16 07:00;METAR CYQB 160700Z 36009KT 15SM SKC M07/M14 A3037 RMK SLP288
CYQB;2002-11-16 08:00;METAR CYQB 160800Z 01010KT 15SM SKC M07/M14 A3039 RMK SLP295
CYQB;2002-11-16 09:00;METAR CYQB 160900Z 01004KT 15SM SKC M08/M15 A3042 RMK SLP305
CYQB;2002-11-16 10:00;METAR CYQB 161000Z 01006KT 15SM SKC M08/M14 A3043 RMK SLP309
CYQB;2002-11-16 11:00;METAR CYQB 161100Z 01005KT 15SM FEW240 M09/M14 A3045 RMK CI1 SLP316
CYQB;2002-11-16 12:00;METAR CYQB 161200Z 36006KT 20SM FEW240 M09/M14 A3047 RMK CI1 SLP323
CYQB;2002-11-16 13:00;METAR CYQB 161300Z 01005KT 30SM FEW240 M08/M14 A3050 RMK CI1 SLP334
CYQB;2002-11-16 14:00;METAR CYQB 161400Z 01006KT 30SM FEW030 FEW240 M06/M14 A3052 RMK CU1CI1 SLP339
CYQB;2002-11-16 15:00;METAR CYQB 161500Z 11003KT 30SM FEW030 FEW240 M05/M12 A3053 RMK CU1CI1 SLP343
CYQB;2002-11-16 16:00;METAR CYQB 161600Z 09007KT 30SM FEW030 FEW240 M04/M11 A3052 RMK CU1CI1 SLP342
CYQB;2002-11-16 17:00;METAR CYQB 161700Z 09009KT 50SM FEW025 FEW250 M03/M09 A3052 RMK CF1CI1 SLP340
CYQB;2002-11-16 18:00;METAR CYQB 161800Z 08011KT 50SM FEW250 M03/M10 A3050 RMK CI1 SLP335
CYQB;2002-11-16 19:00;METAR CYQB 161900Z 07007KT 50SM FEW140 FEW250 M02/M12 A3050 RMK AC1CI1 SLP333
CYQB;2002-11-16 20:00;METAR CYQB 162000Z 07011KT 50SM FEW140 FEW250 M02/M11 A3049 RMK AC1CI2 SLP329
CYQB;2002-11-16 21:00;METAR CYQB 162100Z 06009KT 50SM FEW140 SCT250 M02/M12 A3048 RMK AC1CI2 SLP328
CYQB;2002-11-16 22:00;METAR CYQB 162200Z 06009KT 15SM FEW140 FEW250 M03/M12 A3049 RMK AC1CI2 SLP331
CYQB;2002-11-16 23:00;METAR CYQB 162300Z 06009KT 15SM FEW140 SCT250 M03/M11 A3050 RMK AC1CI2
CYQB;2002-11-17 00:00;METAR CYQB 170000Z 07009KT 15SM FEW140 BKN250 M03/M10 A3049 RMK AC1CI2 SLP329
CYQB;2002-11-17 01:00;METAR CYQB 170100Z 07010KT 15SM FEW140 BKN250 M03/M10 A3048 RMK AC1CI4 SLP326
CYQB;2002-11-17 02:00;METAR CYQB 170200Z 07010G16KT 15SM FEW140 BKN230 M03/M09 A3048 RMK AC1CI5 SLP327
CYQB;2002-11-17 03:00;METAR CYQB 170300Z 08016G21KT 15SM OVC220 M03/M08 A3046 RMK CI8 SLP320
CYQB;2002-11-17 04:00;METAR CYQB 170400Z 07013G21KT 15SM OVC180 M03/M08 A3045 RMK CI8 SLP315
CYQB;2002-11-17 05:00;METAR CYQB 170500Z 07016G21KT 15SM OVC150 M02/M08 A3045 RMK AS8 SLP316
CYQB;2002-11-17 06:00;METAR CYQB 170600Z 07020G27KT 15SM OVC140 M02/M08 A3042 RMK AS8 SLP305
CYQB;2002-11-17 07:00;METAR CYQB 170700Z 07016G25KT 15SM OVC140 M02/M08 A3040 RMK AS8 SLP299
CYQB;2002-11-17 08:00;METAR CYQB 170800Z 07021G29KT 15SM OVC120 M02/M08 A3037 RMK AS8 SLP290
CYQB;2002-11-17 09:00;METAR CYQB 170900Z 07020G25KT 15SM OVC120 M02/M08 A3034 RMK AS8 SLP278
CYQB;2002-11-17 10:00;METAR CYQB 171000Z 07019G31KT 15SM OVC090 M02/M08 A3031 RMK AC8 SLP269
CYQB;2002-11-17 11:00;METAR CYQB 171100Z 07020G30KT 15SM OVC067 M02/M08 A3030 RMK AC8 SLP266
CYQB;2002-11-17 12:00;METAR CYQB 171200Z 07019G28KT 15SM OVC057 M02/M08 A3028 RMK SC8 SLP258
CYQB;2002-11-17 13:00;METAR CYQB 171300Z 08023G31KT 12SM -SN BKN030 OVC048 M02/M10 A3027 RMK SC6SC2 SLP255 SLP255
CYQB;2002-11-17 14:00;METAR CYQB 171400Z 07023G30KT 1SM R06/P6000FT/D -SN DRSN VV010 M03/M07 A3025 RMK SN8 SLP248 SN8 SLP248 RMK SN8 SLP236
CYQB;2002-11-17 16:00;METAR CYQB 171600Z 07022G32KT 1/2SM R06/6000FT/N -SN BLSN VV008 M04/M05 A3017 RMK SN8 SLP222 SN8 SLP222
CYQB;2002-11-17 17:00;METAR CYQB 171700Z 07022G33KT 3/4SM R06/P6000FT/U -SN BLSN VV008 M04/M05 A3012 RMK SN8 VSBY VRBL 1/2-1 SLP205 RMK SN8 VSBY VRBL 1/2-1 SLP205
CYQB;2002-11-17 18:00;METAR CYQB 171800Z 07021G32KT 1/2SM R06/5000FT/U -SN BLSN VV008 M03/M04 A3007 RMK SN8 VSBY VRBL 1/4-3/4 SLP187 SN8 VSBY VRBL 1/4-3/4 SLP187
CYQB;2002-11-17 19:00;METAR CYQB 171900Z 07022G30KT 1/2SM R06/P6000FT/N -SN BLSN VV008 M03/M04 A3005 RMK SN8 VSBY VRBL 1/4-3/4 SLP180 RMK SN8 VSBY VRBL 1/4-3/4 SLP180
CYQB;2002-11-17 20:00;METAR CYQB 172000Z 07025G38KT 1/2SM R06/4000VP6000FT/N -SN BLSN VV008 M03/M04 A2998 RMK SN8 VSBY VRBL 1/4-3/4 PRESFR SLP157 A2998 RMK SN8 VSBY VRBL 1/4-3/4 PRESFR SLP157
CYQB;2002-11-17 21:00;METAR CYQB 172100Z 07021G34KT 1SM R06/P6000FT/U -SN BLSN BKN014 OVC030 M02/M04 A2997 RMK SN3SF3SC2 VSBY VRBL 1/2-11/2 SLP155 A2997 RMK SN3SF3SC2 VSBY VRBL 1/2-11/2 SLP155
CYQB;2002-11-17 22:00;METAR CYQB 172200Z 07024G33KT 4SM -SN DRSN BKN018 OVC038 M02/M04 A2997 RMK SC5SC3 SLP153 SLP153
CYQB;2002-11-17 23:00;METAR CYQB 172300Z 08022G30KT 3SM -SN BLSN BKN010 OVC020 M02/M03 A2992 RMK BLSN2SF5SC2 SLP138
CYQB;2002-11-18 00:00;METAR CYQB 180000Z 07022G33KT 4SM -SN BLSN BKN014 OVC050 M02/M04 A2992 RMK BLSN1SC5SC2 SLP134
CYQB;2002-11-18 01:00;METAR CYQB 180100Z 07027G37KT 3SM -SN BLSN BKN011 OVC025 M02/M04 A2990 RMK BLSN1SC5SC2 SLP128
CYQB;2002-11-18 02:00;METAR CYQB 180200Z 07029G34KT 1 1/2SM -SN BLSN BKN009 OVC025 M02/M03 A2985 RMK BLSN2SF5SC2 VSBY VRBL 1-2 SLP112 BLSN2SF5SC2 VSBY VRBL 1-2 SLP112
CYQB;2002-11-18 03:00;METAR CYQB 180300Z 07023G36KT 1 1/2SM -SN BLSN BKN009 OVC021 M02/M03 A2983 RMK BLSN2SF5SC2 VSBY VRBL 1-2 SLP105 BLSN2SF5SC2 VSBY VRBL 1-2 SLP105
CYQB;2002-11-18 04:00;METAR CYQB 180400Z 07024G37KT 1 1/2SM -SN BLSN OVC011 M02/M03 A2977 RMK BLSN2SF6 VSBY VRBL 1-2 PRESFR SLP084 VSBY VRBL 1-2 PRESFR SLP084
CYQB;2002-11-18 05:00;METAR CYQB 180500Z 07026G36KT 1 1/2SM R06/4000VP6000FT/U -SN BLSN OVC014 M03/M04 A2971 RMK BLSN2SF6 VSBY VRBL 1-2 SLP065 A2971 RMK BLSN2SF6 VSBY VRBL 1-2 SLP065
CYQB;2002-11-18 06:00;METAR CYQB 180600Z 07020G34KT 4SM -SN BLSN OVC019 M02/M04 A2967 RMK BLSN2SC6 SLP050 SLP050
CYQB;2002-11-18 07:00;METAR CYQB 180700Z 07018G29KT 1 1/2SM -SN BLSN BKN010 OVC019 M02/M04 A2964 RMK BLSN2SF3SC2 VSBY VRBL 1-2 SLP042 BLSN2SF3SC2 VSBY VRBL 1-2 SLP042
CYQB;2002-11-18 08:00;METAR CYQB 180800Z 06015G29KT 1SM R06/4500FT/N -SN BLSN OVC017 M03/M03 A2957 RMK BLSN4SF4 VSBY VRBL 1/2-11/2 PRESFR SLP017 BLSN4SF4 VSBY VRBL 1/2-11/2 PRESFR SLP017
CYQB;2002-11-18 09:00;METAR CYQB 180900Z 06019G32KT 1SM R06/P6000FT/U -SN BLSN BKN010 OVC027 M03/M04 A2950 RMK BLSN3SF3SC2 VSBY VRBL 1/2-11/2 PRESFR SLP993 A2950 RMK BLSN3SF3SC2 VSBY VRBL 1/2-11/2 PRESFR SLP993
CYQB;2002-11-18 10:00;METAR CYQB 181000Z 06008G19KT 3SM -SN BLSN BKN023 OVC043 M02/M04 A2948 RMK BLSN2SC5SC2 SLP987
CYQB;2002-11-18 11:00;METAR CYQB 181100Z 03005KT 1 1/2SM R06/5500FT/D -SN SCT004 OVC013 M03/M03 A2947 RMK SC4SC4 VSBY VRBL 1-11/2 SLP984 RMK SC4SC4 VSBY VRBL 1-11/2 SLP984
CYQB;2002-11-18 12:00;METAR CYQB 181200Z 08002KT 1SM R06/5000FT/U -SN OVC015 M03/M03 A2945 RMK SN4SC4 VSBY VRBL 1/2-11/2 SLP975 VSBY VRBL 1/2-11/2 SLP975
CYQB;2002-11-18 13:00;METAR CYQB 181300Z 23002KT 1/4SM R06/4000FT/D +SN VV003 M03/M03 A2946 RMK SN8 SLP979 SLP979
CYQB;2002-11-18 14:00;METAR CYQB 181400Z 27009KT 1/4SM R06/2800FT/N +SN VV003 M03/M03 A2947 RMK SN8 SLP983 SLP983
CYQB;2002-11-18 15:00;METAR CYQB 181500Z 28004KT 1/4SM R06/P6000FT/N +SN VV006 M02/M02 A2950 RMK SN8 SLP994 SLP994
CYQB;2002-11-18 16:00;METAR CYQB 181600Z 30005KT 1 1/2SM -SN FEW009 OVC018 M02/M02 A2952 RMK SN1SF1SC6 BARO READ +18 SLP000
CYQB;2002-11-18 17:00;METAR CYQB 181700Z 34006KT 5SM -SN OVC041 M02/M02 A2953 RMK SC8 SUN DMLY VSBL SLP003 SLP003
CYQB;2002-11-18 18:00;METAR CYQB 181800Z 32004KT 1 1/4SM -SN VV025 M02/M03 A2955 RMK SN8 SLP010
CYQB;2002-11-18 19:00;METAR CYQB 181900Z 28007KT 2SM -SN FEW025 VV040 M02/M03 A2958 RMK SC2SN6 VSBY 1-3 SLP021 SLP021
CYQB;2002-11-18 20:00;METAR CYQB 182000Z 31011KT 20SM -SHSN FEW013 FEW030 BKN054 M02/M04 A2964 RMK SF1SC2SC5 SLP039 SF1SC2SC5 SLP039
CYQB;2002-11-18 21:00;METAR CYQB 182100Z 31011G16KT 25SM FEW030 SCT060 BKN200 M02/M06 A2971 RMK SC1SC2CI3 PRESRR SLP065
CYQB;2002-11-18 22:00;METAR CYQB 182200Z 26012KT 15SM FEW039 BKN220 M03/M06 A2978 RMK SC2CI2 PRESRR SLP088 SLP088
CYQB;2002-11-19 01:00;METAR CYQB 190100Z 27015KT 15SM BKN032 M03/M06 A2995 RMK SC7 SLP146
CYQB;2002-11-19 02:00;METAR CYQB 190200Z 25011KT 15SM BKN036 BKN200 M03/M06 A3002 RMK SC6CI1 PRESRR SLP169 SLP169
CYQB;2002-11-19 03:00;METAR CYQB 190300Z 25012KT 15SM BKN036 M03/M05 A3005 RMK SC6 SLP180
CYQB;2002-11-19 04:00;METAR CYQB 190400Z 25013KT 15SM FEW028 OVC030 M03/M05 A3010 RMK SC1SC7 SLP196
CYQB;2002-11-19 05:00;METAR CYQB 190500Z 26013KT 15SM BKN032 M03/M05 A3014 RMK SC7 MOON DMLY VSBL SLP210
CYQB;2002-11-19 06:00;METAR CYQB 190600Z 26014KT 15SM FEW028 M04/M06 A3017 RMK SC2 SLP221
CYQB;2002-11-19 08:00;METAR CYQB 190800Z 26012KT 15SM FEW050 M05/M07 A3022 RMK SC1 SLP239
CYQB;2002-11-19 09:00;METAR CYQB 190900Z 27010KT 15SM FEW050 M06/M08 A3025 RMK SC1 SLP249
CYQB;2002-11-19 10:00;METAR CYQB 191000Z 29008KT 15SM FEW050 M07/M09 A3026 RMK SC1 SLP251
CYQB;2002-11-19 11:00;METAR CYQB 191100Z 27008KT 15SM FEW040 M09/M10 A3029 RMK SC1 SLP261
CYQB;2002-11-19 12:00;METAR CYQB 191200Z 09002KT 15SM FEW040 SCT200 M08/M10 A3030 RMK SC1CI0 SLP266
CYQB;2002-11-19 13:00;METAR CYQB 191300Z 18002KT 25SM SCT016 BKN230 M08/M09 A3034 RMK SC3CI0 SLP280
CYQB;2002-11-19 14:00;METAR CYQB 191400Z 10003KT 30SM BKN020 M06/M08 A3036 RMK SC6 SLP286
CYQB;2002-11-19 15:00;METAR CYQB 191500Z 01005KT 30SM FEW020 BKN200 M04/M07 A3034 RMK SC2CS4 SLP279
CYQB;2002-11-19 16:00;METAR CYQB 191600Z 13002KT 20SM FEW020 OVC160 M04/M07 A3034 RMK SC2AC5 SLP278
CYQB;2002-11-19 17:00;METAR CYQB 191700Z 12003KT 20SM BKN019 OVC160 M03/M06 A3031 RMK SC6AS2 SLP269
CYQB;2002-11-19 18:00;METAR CYQB 191800Z 08003KT 20SM FEW020 SCT100 BKN160 M02/M06 A3028 RMK SC2AC2AS2 SLP259 SLP259
CYQB;2002-11-19 19:00;METAR CYQB 191900Z 07004KT 20SM BKN018 BKN120 OVC160 M02/M05 A3026 RMK SC5AC2AS1 SLP251 SLP251
CYQB;2002-11-19 20:00;METAR CYQB 192000Z 06006KT 20SM FEW017 SCT090 OVC140 M02/M05 A3024 RMK SC2AC2AS2 SLP244 SLP244
CYQB;2002-11-19 21:00;METAR CYQB 192100Z 07006KT 20SM FEW017 SCT100 OVC140 M02/M04 A3021 RMK SC1AC3AS2 SLP236 SLP236
CYQB;2002-11-19 22:00;METAR CYQB 192200Z 07008KT 15SM FEW017 BKN100 OVC140 M02/M04 A3020 RMK SC2AC5AS1 SLP233 SLP233
CYQB;2002-11-19 23:00;METAR CYQB 192300Z 06009KT 15SM FEW017 BKN100 OVC130 M02/M04 A3019 RMK SC1AC5AS2 SLP229 SLP229
CYQB;2002-11-20 00:00;METAR CYQB 200000Z 06011G16KT 15SM FEW017 FEW100 OVC140 M01/M04 A3018 RMK CF1AC2AS6 SLP226
CYQB;2002-11-20 01:00;METAR CYQB 200100Z 07010KT 15SM OVC110 M01/M04 A3017 RMK AS8 SLP220
CYQB;2002-11-20 02:00;METAR CYQB 200200Z 06008KT 15SM OVC070 M01/M03 A3017 RMK AS8 SLP220
CYQB;2002-11-20 03:00;METAR CYQB 200300Z 08006KT 15SM BKN034 OVC070 M01/M03 A3015 RMK SC6AS2 SLP213
CYQB;2002-11-20 04:00;METAR CYQB 200400Z 00000KT 1/2SM R06/P6000FT/D SN VV008 M01/M02 A3012 RMK SN8 SLP205 SLP205
CYQB;2002-11-20 05:00;METAR CYQB 200500Z 00000KT 2SM -SN BKN004 OVC009 M01/M01 A3011 RMK SN2SF3SC2 RESN SLP199 SLP199
CYQB;2002-11-20 06:00;METAR CYQB 200600Z 00000KT 2 1/2SM -SN BKN004 OVC009 M01/M01 A3008 RMK SN2SF3SC3 SLP192 SLP192
CYQB;2002-11-20 07:00;METAR CYQB 200700Z 00000KT 1SM R06/P6000FT/N -SN VV012 M01/M01 A3008 RMK SN8 SLP192
CYQB;2002-11-20 08:00;METAR CYQB 200800Z 00000KT 3/4SM R06/P6000FT/U -SN VV010 M01/M01 A3008 RMK SN8 SLP189 SLP189
CYQB;2002-11-20 09:00;METAR CYQB 200900Z 00000KT 4SM BR BKN004 OVC009 M01/M01 A3008 RMK SF6SC2
CYQB;2002-11-20 10:00;METAR CYQB 201000Z 00000KT 4SM -SN OVC008 M01/M01 A3007 RMK SC8 SLP186
CYQB;2002-11-20 11:00;METAR CYQB 201100Z 00000KT 3/4SM R06/P6000FT/D -FZDZ BR OVC002 M00/M00 A3007 RMK FG1SF7 SLP188 FG1SF7 SLP188
CYQB;2002-11-20 12:00;METAR CYQB 201200Z 00000KT 1SM R06/P6000FT/U -FZDZ BR BKN002 OVC006 M00/M00 A3008 RMK FG2SF6SF1 SLP190 RMK FG2SF6SF1 SLP190
CYQB;2002-11-20 13:00;METAR CYQB 201300Z 06003KT 1SM R06/P6000FT/N -FZDZ BR OVC002 M00/M00 A3008 RMK FG2ST6 SLP191 FG2ST6 SLP191 A3008 REFZDZ RMK FG2ST5ST2 SLP191 A3008 RMK FG2ST3ST3 SLP192 RMK FG2ST3ST3 SLP192 A3007 RMK FG2ST4ST2 SLP186 RMK FG2ST4ST2 SLP186
CYQB;2002-11-20 17:00;METAR CYQB 201700Z 00000KT 1SM R06/P6000FT/U BR SCT005 OVC019 01/01 A3007 RMK FG2ST2SC4 SLP186 FG2ST2SC4 SLP186
CYQB;2002-11-20 18:00;METAR CYQB 201800Z 00000KT 1 1/4SM BR OVC017 01/01 A3007 RMK FG3SC5 SLP187
CYQB;2002-11-20 19:00;METAR CYQB 201900Z 00000KT 2 1/2SM BR OVC021 02/02 A3007 RMK SC8 SLP187
CYQB;2002-11-20 20:00;METAR CYQB 202000Z 27006KT 3SM BR SCT017 OVC037 02/01 A3009 RMK SC4SC4
CYQB;2002-11-20 21:00;METAR CYQB 202100Z 27006KT 6SM BR SCT037 BKN210 01/01 A3010 RMK SC3CI2 SLP196
CYQB;2002-11-20 22:00;METAR CYQB 202200Z 26003KT 6SM BR FEW037 BKN056 BKN210 01/01 A3012 RMK SC2SC3CI2 SLP202 SLP202
CYQB;2002-11-20 23:00;METAR CYQB 202300Z 13002KT 6SM BR OVC064 01/01 A3012 RMK SC7 SLP204
CYQB;2002-11-21 00:00;METAR CYQB 210000Z 00000KT 3SM R06/3500VP6000FT/D BR BKN065 01/01 A3012 RMK AC6 SLP203 SLP203
CYQB;2002-11-21 01:00;METAR CYQB 210100Z 00000KT 4SM R06/2400VP6000FT/D BR BKN066 01/01 A3014 RMK AC7 SLP208 SLP208
CYQB;2002-11-21 02:00;METAR CYQB 210200Z 00000KT 1 1/2SM R06/4000VP6000FT/U BR BKN020 00/00 A3012 RMK FG2SC6 VSBY VRBL 1-2 SLP204 FG2SC6 VSBY VRBL 1-2 SLP204
CYQB;2002-11-21 03:00;METAR CYQB 210300Z 00000KT 2 1/2SM R06/5500FT/D BR BKN020 01/01 A3012 RMK SC7 VSBY N LWR MOON DMLY VSBL SLP203 VSBY N LWR MOON DMLY VSBL SLP203
CYQB;2002-11-21 04:00;METAR CYQB 210400Z 36002KT 2 1/2SM R06/0900V1400FT/N BR BKN020 00/00 A3011 RMK FG1SC4 VIS N LWR SLP201 FG1SC4 VIS N LWR SLP201
CYQB;2002-11-21 05:00;METAR CYQB 210500Z 00000KT 3/4SM R06/1800V6000FT/D BR BKN030 M00/M00 A3012 RMK FG1SC6 VSBY W-N LWR SLP202 FG1SC6 VSBY W-N LWR SLP202 A3011 RMK FG2SC4SC2 VSBY W-N LWR ROOF VSBY 2 SLP202
CYQB;2002-11-21 07:00;METAR CYQB 210700Z 00000KT 1/8SM R06/1600V5500FT/D FG VV001 01/01 A3011 RMK FG8 SLP201 SLP201
CYQB;2002-11-21 08:00;METAR CYQB 210800Z 04003KT 1/2SM R06/3000V5500FT/U FG OVC031 01/01 A3010 RMK FG2SC6 SLP196 FG2SC6 SLP196
CYQB;2002-11-21 09:00;METAR CYQB 210900Z 07006KT 1SM R06/P6000FT/N BR OVC031 01/01 A3008 RMK FG2SC6 SLP190 SLP190
CYQB;2002-11-21 10:00;METAR CYQB 211000Z 06005KT 1SM R06/P6000FT/D BR OVC085 01/01 A3007 RMK FG2AC6 SLP186 SLP186
CYQB;2002-11-21 11:00;METAR CYQB 211100Z 04005KT 3/4SM R06/P6000FT/N BR SCT008 OVC085 01/01 A3006 RMK FG2SF2AC4 SLP182 FG2SF2AC4 SLP182
CYQB;2002-11-21 12:00;METAR CYQB 211200Z 06005KT 1SM R06/4000VP6000FT/D BR SCT004 BKN085 BKN160 01/01 A3005 RMK FG2SF2AC2AC2 SLP180 A3005 RMK FG2SF2AC2AC2 SLP180
CYQB;2002-11-21 13:00;METAR CYQB 211300Z 06007KT 1 1/2SM BR FEW008 BKN160 02/02 A3004 RMK FG2SF1AC5 SLP176 SLP176
CYQB;2002-11-21 14:00;METAR CYQB 211400Z 05007KT 1 1/2SM BR BKN160 02/02 A3003 RMK FG3AC4 SLP173
CYQB;2002-11-21 15:00;METAR CYQB 211500Z 05004KT 2SM BR OVC160 03/03 A3003 RMK FG3AC5 VSBY HIER SE SLP171 SLP171
CYQB;2002-11-21 16:00;METAR CYQB 211600Z 06008KT 4SM BR FEW080 BKN180 03/03 A2998 RMK AC2ACC5 SLP157
CYQB;2002-11-21 17:00;METAR CYQB 211700Z 07009KT 7SM FEW190 BKN250 04/03 A2995 RMK CI2CI1 FOGGY SLP145
CYQB;2002-11-21 18:00;METAR CYQB 211800Z 07008KT 7SM FEW160 BKN250 05/03 A2992 RMK AS2CI0 FOGGY SLP137
CYQB;2002-11-21 19:00;METAR CYQB 211900Z 07009KT 10SM FEW150 SCT200 BKN250 05/03 A2991 RMK AS2CI1CS2 SLP132 SLP132
CYQB;2002-11-21 20:00;METAR CYQB 212000Z 07006KT 7SM FEW150 SCT200 OVC240 04/02 A2991 RMK AS2CI1CS5 SLP131 SLP131
CYQB;2002-11-21 22:00;METAR CYQB 212200Z CCA 06007KT 6SM BR OVC140 03/02 A2990 RMK AC8 BARO READ +10 SLP129 SLP129
CYQB;2002-11-21 23:00;METAR CYQB 212300Z 06006KT 4SM BR OVC140 03/02 A2990 RMK AC8 SLP127
CYQB;2002-11-22 00:00;METAR CYQB 220000Z 06007KT 4SM BR SCT060 OVC120 03/02 A2989 RMK SC3AC5 SLP125
CYQB;2002-11-22 01:00;METAR CYQB 220100Z 07007KT 5SM BR OVC100 03/02 A2988 RMK AC8 SLP120
CYQB;2002-11-22 02:00;METAR CYQB 220200Z 05007KT 5SM BR OVC100 03/02 A2987 RMK AC8 SLP119
CYQB;2002-11-22 03:00;METAR CYQB 220300Z 06008KT 8SM BKN090 03/02 A2986 RMK AC5 VSBY S LWR FOGGY SLP113
CYQB;2002-11-22 04:00;METAR CYQB 220400Z 07006KT 10SM BKN130 03/02 A2985 RMK AC5 FOGGY SLP111
CYQB;2002-11-22 05:00;METAR CYQB 220500Z 04004KT 10SM SCT056 OVC140 02/02 A2983 RMK SC4AC4 FOGGY SLP106
CYQB;2002-11-22 06:00;METAR CYQB 220600Z 05005KT 10SM FEW030 OVC049 03/02 A2982 RMK SC2SC6 FOGGY SLP101
CYQB;2002-11-22 07:00;METAR CYQB 220700Z 07006KT 10SM BKN027 OVC050 03/02 A2982 RMK SC6SC2 SLP100
CYQB;2002-11-22 08:00;METAR CYQB 220800Z 06004KT 10SM OVC025 03/02 A2981 RMK SC8 SLP096
CYQB;2002-11-22 09:00;METAR CYQB 220900Z 06005KT 8SM OVC023 02/02 A2980 RMK SC8 SLP093
CYQB;2002-11-22 10:00;METAR CYQB 221000Z 06003KT 6SM BR OVC023 02/02 A2978 RMK SC8 SLP087
CYQB;2002-11-22 11:00;METAR CYQB 221100Z 06005KT 4SM BR OVC023 03/02 A2977 RMK SC8 SLP083
CYQB;2002-11-22 12:00;METAR CYQB 221200Z 06006KT 4SM BR OVC023 03/02 A2977 RMK SC8 SLP083
CYQB;2002-11-22 13:00;METAR CYQB 221300Z 09005KT 4SM BR BKN031 OVC090 03/02 A2974 RMK SC7AS1 SLP075
CYQB;2002-11-22 14:00;METAR CYQB 221400Z 09005KT 4SM BR OVC030 03/02 A2974 RMK SC8 SLP074
CYQB;2002-11-22 15:00;METAR CYQB 221500Z 09006KT 4SM BR OVC039 04/03 A2973 RMK SC8 SLP070
CYQB;2002-11-22 16:00;METAR CYQB 221600Z 08005KT 6SM BR FEW020 OVC039 04/03 A2969 RMK SC1SC7 SLP058
CYQB;2002-11-22 17:00;METAR CYQB 221700Z 07008KT 6SM BR FEW020 OVC039 05/03 A2967 RMK SC2SC6 SLP049
CYQB;2002-11-22 18:00;METAR CYQB 221800Z 08010KT 6SM BR FEW020 OVC036 04/03 A2964 RMK SC1SC7 SLP039
CYQB;2002-11-22 19:00;METAR CYQB 221900Z 08009KT 3SM BR FEW007 OVC034 04/03 A2961 RMK ST2SC6 SLP029
CYQB;2002-11-22 20:00;METAR CYQB 222000Z 07007KT 3SM BR BKN007 OVC033 04/03 A2960 RMK ST6SC2 SLP027
CYQB;2002-11-22 21:00;METAR CYQB 222100Z 08011KT 2SM BR BKN006 OVC030 03/03 A2959 RMK ST6SC2 SLP024
CYQB;2002-11-22 22:00;METAR CYQB 222200Z 07008KT 6SM BR BKN005 OVC030 03/03 A2958 RMK ST5SC3 VSBY LWR N-NW SLP018 N-NW SLP018
CYQB;2002-11-22 23:00;METAR CYQB 222300Z 07010G15KT 8SM BKN007 OVC019 03/03 A2955 RMK ST5SC3 SLP010
CYQB;2002-11-23 00:00;METAR CYQB 230000Z 07008KT 8SM BKN006 OVC018 03/03 A2953 RMK ST5SC3 SLP004
CYQB;2002-11-23 01:00;METAR CYQB 230100Z 07012KT 8SM -RA BKN009 OVC020 03/02 A2949 RMK SF5SC3 SLP990
CYQB;2002-11-23 02:00;METAR CYQB 230200Z 07013G19KT 6SM -RA BR BKN008 OVC020 03/02 A2946 RMK SF6SC2 SLP979 SLP979
CYQB;2002-11-23 03:00;METAR CYQB 230300Z 06008G16KT 4SM -RA BR OVC008 02/02 A2944 RMK SF8 SLP972
CYQB;2002-11-23 04:00;METAR CYQB 230400Z 06012KT 8SM -RA OVC005 02/02 A2940 RMK SF8 SLP958
CYQB;2002-11-23 05:00;METAR CYQB 230500Z 07012KT 7SM -RA BKN005 OVC008 01/01 A2936 RMK SF7SC1 SLP944
CYQB;2002-11-23 06:00;METAR CYQB 230600Z 05009KT 3SM -SN BKN005 OVC008 01/01 A2931 RMK SF7SC1 SLP928
CYQB;2002-11-23 07:00;METAR CYQB 230700Z 08004KT 1SM R06/P6000FT/U -SN BKN003 OVC007 00/00 A2930 RMK SN2SF5SC2 SLP924 SN2SF5SC2 SLP924
CYQB;2002-11-23 08:00;METAR CYQB 230800Z 05004KT 1 1/4SM -SN BKN007 OVC018 00/00 A2927 RMK SN2SF5SC2 SLP914 SLP914
CYQB;2002-11-23 09:00;METAR CYQB 230900Z 02003KT 1SM -SN BKN006 OVC013 00/00 A2925 RMK SN2SF3SC2 SLP907
CYQB;2002-11-23 10:00;METAR CYQB 231000Z 00000KT 1 1/2SM -SN FEW006 BKN009 OVC018 00/00 A2923 RMK SN2SF1SF4SC2 SLP903
CYQB;2002-11-23 11:00;METAR CYQB 231100Z 00000KT 3/4SM -SN OVC007 00/00 A2924 RMK SN3SF5 SLP904
CYQB;2002-11-23 12:00;METAR CYQB 231200Z 36003KT 1 1/4SM -RASN SCT007 BKN009 OVC017 01/01 A2924 RMK SN2SF2SF2SC2 SLP905 SN2SF2SF2SC2 SLP905
CYQB;2002-11-23 13:00;METAR CYQB 231300Z 00000KT 5SM -RA BR FEW005 SCT015 OVC024 01/00 A2924 RMK SF2SC2SC4 SLP903
CYQB;2002-11-23 14:00;METAR CYQB 231400Z 25008KT 25SM FEW005 SCT020 BKN040 BKN080 01/01 A2923 RMK SF2SC2SC2AC2 FOG OVR RVR SLP902
CYQB;2002-11-23 15:00;METAR CYQB 231500Z 31010KT 30SM FEW007 SCT035 BKN090 03/00 A2924 RMK SF2SC2AC3 SLP903 SLP903
CYQB;2002-11-23 16:00;METAR CYQB 231600Z 30009KT 30SM FEW012 BKN038 BKN100 03/M00 A2925 RMK SC1SC4AC2 SLP907
CYQB;2002-11-23 17:00;METAR CYQB 231700Z 29008KT 30SM FEW035 BKN060 BKN120 03/M01 A2925 RMK SC2SC2AC2 SLP909 SLP909
CYQB;2002-11-23 18:00;METAR CYQB 231800Z 29008G17KT 30SM BKN035 BKN060 BKN160 03/M01 A2928 RMK SC5SC1AC1 SLP920
CYQB;2002-11-23 19:00;METAR CYQB 231900Z 28013KT 30SM BKN034 02/M02 A2931 RMK SC7 SLP930
CYQB;2002-11-23 20:00;METAR CYQB 232000Z 25015KT 30SM BKN031 01/M03 A2938 RMK SC7 PRESRR SLP951
CYQB;2002-11-23 21:00;METAR CYQB 232100Z 27018G25KT 30SM BKN034 BKN070 M00/M04 A2942 RMK SC6AC1 SLP964
CYQB;2002-11-23 22:00;METAR CYQB 232200Z 28014G27KT 30SM BKN029 M00/M04 A2944 RMK SC7 SLP971
CYQB;2002-11-23 23:00;METAR CYQB 232300Z 28014G23KT 30SM BKN030 M00/M05 A2947 RMK SC7 SLP982
CYQB;2002-11-24 00:00;METAR CYQB 240000Z 27017KT 30SM BKN033 M01/M05 A2950 RMK SC7 SLP992
CYQB;2002-11-24 01:00;METAR CYQB 240100Z 27011G17KT 30SM BKN034 M01/M06 A2952 RMK SC7 SLP001
CYQB;2002-11-24 02:00;METAR CYQB 240200Z 27018G24KT 30SM BKN036 M01/M06 A2953 RMK SC7 SLP003
CYQB;2002-11-24 03:00;METAR CYQB 240300Z 27019G27KT 15SM OVC033 M02/M06 A2953 RMK SC8 SLP005
CYQB;2002-11-24 04:00;METAR CYQB 240400Z 28018G26KT 15SM BKN034 M02/M07 A2955 RMK SC7 SLP011
CYQB;2002-11-24 05:00;METAR CYQB 240500Z 27015G22KT 15SM BKN032 M02/M07 A2955 RMK SC7 SLP011
CYQB;2002-11-24 06:00;METAR CYQB 240600Z 27020G25KT 15SM BKN034 BKN080 M02/M07 A2954 RMK SC6AC1 SLP008
CYQB;2002-11-24 07:00;METAR CYQB 240700Z 26017G22KT 15SM BKN030 BKN120 M03/M07 A2953 RMK SC5CI1 SLP005
CYQB;2002-11-24 08:00;METAR CYQB 240800Z 27017G24KT 15SM BKN032 M03/M07 A2953 RMK SC6 SLP004
CYQB;2002-11-24 09:00;METAR CYQB 240900Z 27018KT 15SM BKN032 M02/M06 A2954 RMK SC6 SLP008
CYQB;2002-11-24 10:00;METAR CYQB 241000Z 27013G22KT 15SM BKN031 M02/M07 A2955 RMK SC6 SLP010
CYQB;2002-11-24 11:00;METAR CYQB 241100Z 27018G24KT 15SM BKN034 M02/M07 A2956 RMK SC6 SLP014
CYQB;2002-11-24 12:00;METAR CYQB 241200Z 27016KT 30SM BKN036 BKN220 M02/M07 A2958 RMK SC5CI1 SLP021
CYQB;2002-11-24 13:00;METAR CYQB 241300Z 26014G20KT 30SM BKN038 M02/M07 A2960 RMK SC6 SLP027
CYQB;2002-11-24 14:00;METAR CYQB 241400Z 27015G20KT 30SM SCT035 M02/M07 A2961 RMK SC4 SLP031
CYQB;2002-11-24 15:00;METAR CYQB 241500Z 27017G25KT 30SM SCT036 M02/M07 A2963 RMK SC3 SLP036
CYQB;2002-11-24 16:00;METAR CYQB 241600Z 28016G25KT 30SM BKN036 M01/M07 A2964 RMK SC6 SLP039
CYQB;2002-11-24 17:00;METAR CYQB 241700Z 27023G28KT 30SM BKN042 M01/M07 A2965 RMK SC6 SLP044
CYQB;2002-11-24 18:00;METAR CYQB 241800Z 27024KT 30SM BKN042 M00/M07 A2967 RMK SC6 SLP051
CYQB;2002-11-24 19:00;METAR CYQB 241900Z 27020G27KT 30SM BKN052 00/M07 A2970 RMK SC6 SLP059
CYQB;2002-11-24 20:00;METAR CYQB 242000Z 27017G22KT 15SM BKN045 M00/M06 A2973 RMK SC6 SLP072
CYQB;2002-11-24 21:00;METAR CYQB 242100Z 27016KT 15SM BKN044 M00/M07 A2977 RMK SC6 SLP086
CYQB;2002-11-24 22:00;METAR CYQB 242200Z 26013G20KT 15SM BKN042 M01/M06 A2981 RMK SC7 SLP099
CYQB;2002-11-24 23:00;METAR CYQB 242300Z 26015G20KT 15SM BKN039 M01/M06 A2984 RMK SC7 SLP110
CYQB;2002-11-25 00:00;METAR CYQB 250000Z 26016KT 15SM OVC036 M01/M06 A2987 RMK SC8 SLP119
CYQB;2002-11-25 01:00;METAR CYQB 250100Z 26014KT 15SM OVC034 M01/M05 A2989 RMK SC8 SLP127
CYQB;2002-11-25 02:00;METAR CYQB 250200Z 28010KT 15SM OVC032 M01/M05 A2992 RMK SC8 SLP135
CYQB;2002-11-25 03:00;METAR CYQB 250300Z 29010KT 15SM BKN033 M01/M05 A2994 RMK SC7 SLP143
CYQB;2002-11-25 04:00;METAR CYQB 250400Z 28008KT 15SM BKN033 OVC038 M01/M05 A2995 RMK SC7SC1 SLP146
CYQB;2002-11-25 05:00;METAR CYQB 250500Z 26011KT 15SM OVC035 M01/M05 A2995 RMK SC8 SLP147
CYQB;2002-11-25 06:00;METAR CYQB 250600Z 26007KT 15SM OVC032 M01/M05 A2997 RMK SC8 SLP151
CYQB;2002-11-25 07:00;METAR CYQB 250700Z 26007KT 15SM OVC032 M01/M05 A2997 RMK SC8 SLP154
CYQB;2002-11-25 08:00;METAR CYQB 250800Z 27011G16KT 15SM OVC032 M01/M06 A2999 RMK SC8 SLP159
CYQB;2002-11-25 09:00;METAR CYQB 250900Z 26009KT 15SM OVC031 M01/M05 A3001 RMK SC8 SLP166
CYQB;2002-11-25 10:00;METAR CYQB 251000Z 25009KT 15SM OVC028 M01/M05 A3002 RMK SC8 SLP170
CYQB;2002-11-25 11:00;METAR CYQB 251100Z 26010KT 15SM OVC028 M01/M06 A3003 RMK SC8 SLP174
CYQB;2002-11-25 12:00;METAR CYQB 251200Z 26009KT 15SM OVC028 M02/M05 A3005 RMK SC8 SLP179
CYQB;2002-11-25 13:00;METAR CYQB 251300Z 26010KT 20SM OVC028 M02/M06 A3007 RMK SC8 SLP187
CYQB;2002-11-25 14:00;METAR CYQB 251400Z 25009KT 20SM OVC027 M02/M06 A3008 RMK SC8 SLP189
CYQB;2002-11-25 15:00;METAR CYQB 251500Z 26010KT 20SM OVC027 M02/M06 A3009 RMK SC8 SLP193
CYQB;2002-11-25 16:00;METAR CYQB 251600Z 25011KT 20SM OVC028 M02/M06 A3008 RMK SC8 SLP191
CYQB;2002-11-25 17:00;METAR CYQB 251700Z 25011KT 20SM OVC031 M01/M06 A3007 RMK SC8 SLP188
CYQB;2002-11-25 18:00;METAR CYQB 251800Z 25015KT 20SM OVC030 M01/M06 A3008 RMK SC8 SLP190
CYQB;2002-11-25 19:00;METAR CYQB 251900Z 27010KT 20SM OVC031 M02/M06 A3009 RMK SC8 SLP195
CYQB;2002-11-25 20:00;METAR CYQB 252000Z 25008KT 20SM BKN037 M01/M07 A3010 RMK SC7 SLP197
CYQB;2002-11-25 21:00;METAR CYQB 252100Z 24006KT 20SM BKN045 M01/M07 A3011 RMK SC6 SLP200
CYQB;2002-11-25 22:00;METAR CYQB 252200Z 25005KT 15SM BKN048 BKN120 M03/M06 A3013 RMK SC5AC2 SLP206
CYQB;2002-11-25 23:00;METAR CYQB 252300Z 25005KT 15SM SCT045 M03/M07 A3014 RMK SC3 SLP211
CYQB;2002-11-26 00:00;METAR CYQB 260000Z 25005KT 15SM FEW048 M04/M07 A3016 RMK SC2 SLP217
CYQB;2002-11-26 01:00;METAR CYQB 260100Z 25007KT 15SM FEW100 M04/M07 A3016 RMK AC1 SLP218
CYQB;2002-11-26 02:00;METAR CYQB 260200Z 24007KT 15SM BKN120 M04/M07 A3016 RMK AC6 SLP217
CYQB;2002-11-26 03:00;METAR CYQB 260300Z 25007KT 15SM BKN110 M05/M07 A3015 RMK AC5 SLP215
CYQB;2002-11-26 04:00;METAR CYQB 260400Z 25003KT 15SM BKN110 M05/M08 A3015 RMK AC6 SLP215
CYQB;2002-11-26 05:00;METAR CYQB 260500Z 00000KT 15SM BKN110 M06/M07 A3015 RMK AC7 SLP215
CYQB;2002-11-26 06:00;METAR CYQB 260600Z 00000KT 15SM OVC110 M06/M07 A3016 RMK AC7 SLP218
CYQB;2002-11-26 07:00;METAR CYQB 260700Z 25002KT 15SM OVC110 M06/M07 A3017 RMK AC8 SLP219
CYQB;2002-11-26 08:00;METAR CYQB 260800Z 00000KT 15SM FEW070 OVC110 M06/M08 A3017 RMK AC1AC7 SLP219
CYQB;2002-11-26 09:00;METAR CYQB 260900Z 25002KT 15SM FEW050 OVC110 M06/M07 A3016 RMK SC2AC6 SLP217
CYQB;2002-11-26 10:00;METAR CYQB 261000Z 25002KT 15SM FEW050 OVC110 M06/M07 A3017 RMK SC1AC6
CYQB;2002-11-26 11:00;METAR CYQB 261100Z 24012KT 15SM OVC100 M05/M07 A3018 RMK AC8 SLP223
CYQB;2002-11-26 12:00;METAR CYQB 261200Z 24010KT 20SM SCT100 M05/M07 A3019 RMK AC3 SLP227
CYQB;2002-11-26 13:00;METAR CYQB 261300Z 24008KT 30SM FEW010 FEW030 FEW080 M05/M07 A3019 RMK CF1SC1AC2 SLP230 SLP230
CYQB;2002-11-26 14:00;METAR CYQB 261400Z 24009KT 30SM FEW010 FEW090 M04/M07 A3022 RMK CF1AC1 SLP237
CYQB;2002-11-26 15:00;METAR CYQB 261500Z 26011KT 30SM FEW012 FEW090 M03/M07 A3023 RMK CF2AC1 SLP241
CYQB;2002-11-26 16:00;METAR CYQB 261600Z 25014KT 30SM FEW025 M02/M07 A3022 RMK CU2 SLP237
CYQB;2002-11-26 17:00;METAR CYQB 261700Z 27013KT 30SM FEW030 M02/M08 A3021 RMK CU2 SLP235
CYQB;2002-11-26 18:00;METAR CYQB 261800Z 27013KT 30SM FEW030 M02/M08 A3021 RMK SC2 SLP235
CYQB;2002-11-26 19:00;METAR CYQB 261900Z 27009G16KT 30SM SCT038 M02/M08 A3021 RMK SC4 SLP234
CYQB;2002-11-26 20:00;METAR CYQB 262000Z 30009KT 30SM BKN045 M02/M08 A3022 RMK SC5 SLP237
CYQB;2002-11-26 21:00;METAR CYQB 262100Z 30009KT 30SM BKN045 M02/M09 A3022 RMK SC6 SLP238
CYQB;2002-11-26 22:00;METAR CYQB 262200Z 28005KT 15SM BKN046 M03/M09 A3023 RMK SC6 SLP241
CYQB;2002-11-26 23:00;METAR CYQB 262300Z 25006KT 15SM BKN045 M04/M09 A3023 RMK SC5 SLP243
CYQB;2002-11-27 00:00;METAR CYQB 270000Z 27007KT 15SM BKN043 M04/M09 A3025 RMK SC6 SLP247
CYQB;2002-11-27 01:00;METAR CYQB 270100Z 31009KT 15SM FEW040 SCT080 M05/M11 A3025 RMK SC2AC1 SLP249
CYQB;2002-11-27 02:00;METAR CYQB 270200Z 30005KT 15SM BKN041 M05/M10 A3025 RMK SC5 SLP247
CYQB;2002-11-27 03:00;METAR CYQB 270300Z 25005KT 15SM FEW180 M06/M11 A3020 RMK AC1 SLP233
CYQB;2002-11-27 04:00;METAR CYQB 270400Z 27005KT 15SM FEW040 SCT170 M06/M10 A3021 RMK SC1AC2 SLP234
CYQB;2002-11-27 05:00;METAR CYQB 270500Z 34004KT 15SM BKN130 M05/M11 A3020 RMK AC7 SLP231
CYQB;2002-11-27 06:00;METAR CYQB 270600Z 34003KT 15SM BKN120 M05/M11 A3018 RMK AC7 SLP224
CYQB;2002-11-27 07:00;METAR CYQB 270700Z 34004KT 15SM OVC130 M06/M11 A3018 RMK AC8 SLP225
CYQB;2002-11-27 08:00;METAR CYQB 270800Z 34004KT 15SM OVC120 M06/M10 A3016 RMK AC8 MOON DMLY VSBL SLP218
CYQB;2002-11-27 09:00;METAR CYQB 270900Z 29005KT 15SM OVC110 M06/M11 A3016 RMK AC8 MOON DMLY VSBL SLP217
CYQB;2002-11-27 10:00;METAR CYQB 271000Z 29005KT 15SM OVC090 M06/M11 A3016 RMK AC8 MOON DMLY VSBL
CYQB;2002-11-27 11:00;METAR CYQB 271100Z 31005KT 15SM FEW100 M07/M12 A3016 RMK AC2 SLP218
CYQB;2002-11-27 12:00;METAR CYQB 271200Z 31006KT 15SM BKN110 M08/M12 A3016 RMK AC5 SLP217
CYQB;2002-11-27 13:00;METAR CYQB 271300Z 31006KT 20SM FEW030 FEW110 SCT230 M08/M12 A3016 RMK SC1AC2CI0 SLP217
CYQB;2002-11-27 14:00;METAR CYQB 271400Z 31002KT 20SM FEW030 FEW120 FEW230 M07/M12 A3015 RMK SC1AC1CI1 SLP216 SLP216
CYQB;2002-11-27 15:00;METAR CYQB 271500Z 31008KT 20SM FEW030 FEW170 SCT200 M06/M12 A3014 RMK SC1AC1CI1 SLP212 SLP212
CYQB;2002-11-27 16:00;METAR CYQB 271600Z 31009KT 20SM FEW030 BKN200 M05/M10 A3011 RMK SC1CI1 SLP202
CYQB;2002-11-27 17:00;METAR CYQB 271700Z 32007KT 20SM FEW030 BKN200 M04/M12 A3008 RMK SC1CI1 SLP191
CYQB;2002-11-27 18:00;METAR CYQB 271800Z 28009KT 20SM FEW030 BKN200 M04/M12 A3005 RMK SC1CI1 SLP179
CYQB;2002-11-27 19:00;METAR CYQB 271900Z 27007KT 20SM FEW030 SCT200 M04/M11 A3003 RMK SC1CI1 SLP175
CYQB;2002-11-27 20:00;METAR CYQB 272000Z 27009KT 20SM FEW032 FEW200 M05/M12 A3003 RMK SC1CI1 CU ASOCTD E QUAD SLP174 E QUAD SLP174
CYQB;2002-11-27 21:00;METAR CYQB 272100Z 32007KT 20SM FEW075 M05/M13 A3003 RMK AC2 SLP174
CYQB;2002-11-27 22:00;METAR CYQB 272200Z 28009KT 15SM BKN083 M06/M13 A3003 RMK AC4 SLP174
CYQB;2002-11-27 23:00;METAR CYQB 272300Z 28008KT 15SM BKN084 M07/M13 A3002 RMK AC5 SLP169
CYUL;2002-08-15 00:00;METAR CYUL 150000Z 20008KT 9SM FEW066TCU FEW100 BKN240 30/20 A2990 RMK TCU1AC1CI1 HAZY AC TR SLP124 HAZY AC TR SLP124
CYUL;2002-08-15 01:00;METAR CYUL 150100Z 16005KT 7SM TS FEW066CB SCT240 27/21 A2991 RMK CB1CI1 HAZY SLP128 SLP128
CYUL;2002-08-15 02:00;METAR CYUL 150200Z 13007KT 12SM FEW240 27/18 A2992 RMK CI0 HAZY RETS SLP133
CYUL;2002-08-15 03:00;METAR CYUL 150300Z 16005KT 12SM FEW030CB 25/18 A2992 RMK CB2 DSNT LTNG W QUAD SLP132 SLP132
CYUL;2002-08-15 04:00;METAR CYUL 150400Z 13004KT 12SM FEW030CB 25/18 A2993 RMK CB2 DSNT LTNG N QUAD SLP136 SLP136
CYUL;2002-08-15 05:00;METAR CYUL 150500Z 15003KT 12SM SKC 25/20 A2993 RMK SLP135
CYUL;2002-08-15 06:00;METAR CYUL 150600Z 19007KT 12SM FEW090 25/20 A2993 RMK AC2 SLP135
CYUL;2002-08-15 07:00;METAR CYUL 150700Z 22008KT 8SM FEW030CB SCT100 BKN220 26/20 A2994 RMK CB1AC2CI1 HAZY DSNT LTNG SW QUAD SLP137 HAZY DSNT LTNG SW QUAD SLP137
CYUL;2002-08-15 08:00;METAR CYUL 150800Z 20007KT 6SM HZ SCT090 BKN220 25/21 A2995 RMK AC3CI2 SLP143
CYUL;2002-08-15 09:00;METAR CYUL 150900Z 20007KT 6SM HZ BKN090 BKN220 24/20 A2997 RMK AC5CI0 SLP147
CYUL;2002-08-15 10:00;METAR CYUL 151000Z 22007KT 9SM BKN060 OVC230 25/20 A3000 RMK SC7CI1 HAZY SLP160
CYUL;2002-08-15 11:00;METAR CYUL 151100Z 26009KT 3SM HZ BKN070 OVC140 25/20 A3003 RMK AC5AC3 SLP168
CYUL;2002-08-15 12:00;METAR CYUL 151200Z 24009KT 5SM HZ BKN065 BKN140 OVC230 25/19 A3004 RMK SC5AC2CI1 SLP173 SLP173
CYUL;2002-08-15 13:00;METAR CYUL 151300Z 20007KT 3SM -RA HZ BKN045 OVC070 24/20 A3004 RMK SC6AC2 SLP174
CYUL;2002-08-15 14:00;METAR CYUL 151400Z 22011G16KT 3SM -RA HZ BKN028 BKN070 24/21 A3005 RMK SC6AC2 SLP176 SLP176
CYUL;2002-08-15 15:00;METAR CYUL 151500Z 20010G15KT 4SM HZ SCT030 BKN120 25/21 A3005 RMK SC4AC3
CYUL;2002-08-15 16:00;METAR CYUL 151600Z 20014KT 4SM HZ FEW030 BKN120 26/21 A3005 RMK SC2AC6 SLP175
CYUL;2002-08-15 17:00;METAR CYUL 151700Z 22013KT 6SM HZ FEW030 SCT120 BKN230 28/21 A3003 RMK SC2AC2CI0 SLP170 SLP170
CYUL;2002-08-15 18:00;METAR CYUL 151800Z 22009G16KT 9SM FEW030 BKN090 BKN230 28/21 A3002 RMK SC2AC4CI1 HAZY SLP167 HAZY SLP167
CYUL;2002-08-15 19:00;METAR CYUL 151900Z 23010G15KT 9SM FEW030 BKN070 29/20 A3001 RMK SC1AC7 HAZY SLP163
CYUL;2002-08-15 20:00;METAR CYUL 152000Z 23009KT 9SM BKN085 29/21 A3000 RMK AC6 HAZY SLP158
CYUL;2002-08-15 21:00;METAR CYUL 152100Z 22007KT 6SM -RA HZ SCT050 OVC078 28/22 A2999 RMK SC4AC4 SLP155
CYUL;2002-08-15 22:00;METAR CYUL 152200Z 31006KT 9SM BKN150 OVC210 27/23 A2999 RMK AC6CI0 HAZY SLP157
CYUL;2002-08-15 23:00;METAR CYUL 152300Z 00000KT 9SM SCT050 BKN210 27/21 A2999 RMK SC3CI1 HAZY
CYUL;2002-08-16 00:00;METAR CYUL 160000Z 15005KT 9SM FEW050 FEW210 26/21 A2998 RMK SC1CI1 HAZY SC TR SLP153 SLP153
CYUL;2002-08-16 01:00;METAR CYUL 160100Z 22007KT 12SM FEW210 27/21 A2999 RMK CI1 SLP155
CYUL;2002-08-16 02:00;METAR CYUL 160200Z 18006KT 12SM FEW210 25/21 A2999 RMK CI0 SLP155
CYUL;2002-08-16 03:00;METAR CYUL 160300Z 16004KT 12SM SKC 25/22 A2999 RMK SLP155
CYUL;2002-08-16 04:00;METAR CYUL 160400Z 18007KT 12SM FEW070 BKN140 24/21 A2998 RMK AC2AC3
CYUL;2002-08-16 05:00;METAR CYUL 160500Z 20008KT 12SM BKN060 OVC140 26/20 A2998 RMK SC6AC2 SLP151
CYUL;2002-08-16 06:00;METAR CYUL 160600Z 22011G16KT 12SM BKN035 OVC130 26/20 A2998 RMK SC6AC2 SLP150
CYUL;2002-08-16 07:00;METAR CYUL 160700Z 24012G18KT 12SM SCT050 BKN130 25/21 A2997 RMK SC3AC2 SLP148
CYUL;2002-08-16 08:00;METAR CYUL 160800Z 24010KT 12SM FEW050 BKN130 25/20 A2997 RMK SC1AC4
CYUL;2002-08-16 09:00;METAR CYUL 160900Z 22011G16KT 12SM FEW050 SCT130 25/20 A2997 RMK SC2AC2
CYUL;2002-08-16 10:00;METAR CYUL 161000Z 24009KT 12SM FEW130 SCT230 24/20 A2998 RMK AC1CI1
CYUL;2002-08-16 11:00;METAR CYUL 161100Z 25004KT 15SM FEW150 FEW240 24/20 A2998 RMK AC1CI1 CI TR
CYUL;2002-08-16 12:00;METAR CYUL 161200Z 23007KT 15SM FEW020 BKN050 BKN090 25/20 A2998 RMK SC1SC6AC1 SLP154 SLP154
CYUL;2002-08-16 13:00;METAR CYUL 161300Z 17004KT 15SM FEW045 BKN130 24/20 A2998 RMK SC2AC3 VSBY N-E 7 DSNT SHRA NE SLP152 DSNT SHRA NE SLP152
CYUL;2002-08-16 14:00;METAR CYUL 161400Z 24008KT 12SM FEW120 27/21 A2997 RMK AC1 SLP149
CYUL;2002-08-16 16:00;METAR CYUL 161600Z 22011KT 20SM FEW050 FEW120 30/22 A2992 RMK CU2AC1 SLP132
CYUL;2002-08-16 17:00;METAR CYUL 161700Z 23016G21KT 20SM BKN057 31/22 A2991 RMK CU5 SLP128
CYUL;2002-08-16 18:00;METAR CYUL 161800Z 23020G27KT 20SM FEW060 FEW230 31/22 A2989 RMK CU2CI1 TCU ALL QUADS+CB N ASOCTD SLP122 QUADS+CB N ASOCTD SLP122
CYUL;2002-08-16 19:00;METAR CYUL 161900Z 22021KT 20SM FEW060 SCT230 31/22 A2988 RMK CU2CI1 TCU ASOCTD SLP119 SLP119
CYUL;2002-08-16 20:00;METAR CYUL 162000Z 23021G29KT 12SM FEW060 SCT120 BKN230 31/21 A2987 RMK CU1AC2CI1 SLP113 SLP113
CYUL;2002-08-16 21:00;METAR CYUL 162100Z 23023KT 12SM FEW060 FEW120 BKN230 31/21 A2986 RMK CU1AC1CI2 AC TR SLP110 TR SLP110
CYUL;2002-08-16 22:00;METAR CYUL 162200Z 23018G24KT 20SM FEW060 FEW120 OVC150 30/20 A2985 RMK CU1AC2AS6 SLP108 SLP108
CYUL;2002-08-16 23:00;METAR CYUL 162300Z 23018G30KT 20SM SCT058 OVC150 29/20 A2988 RMK SC3AS5 SLP117
CYUL;2002-08-17 00:00;METAR CYUL 170000Z 23014KT 20SM FEW058 FEW120 SCT150 26/21 A2986 RMK SC1AC1AS2 TCU ASOCTD N SLP111 TCU ASOCTD N SLP111
CYUL;2002-08-17 01:00;METAR CYUL 170100Z 24012G18KT 12SM BKN090 28/21 A2987 RMK AC6 SLP116
CYUL;2002-08-17 02:00;METAR CYUL 170200Z 24019G26KT 12SM BKN090 27/21 A2990 RMK AC6 SLP124
CYUL;2002-08-17 03:00;METAR CYUL 170300Z 25014G27KT 15SM BKN090 25/19 A2991 RMK AC6 SLP128
CYUL;2002-08-17 04:00;METAR CYUL 170400Z 25015G20KT 15SM FEW090 24/19 A2992 RMK AC2 SLP133
CYUL;2002-08-17 05:00;METAR CYUL 170500Z 25012KT 15SM SCT021 22/19 A2993 RMK SC3 SLP136
CYUL;2002-08-17 06:00;METAR CYUL 170600Z 26011KT 15SM FEW020 22/19 A2993 RMK SC1 SLP135
CYUL;2002-08-17 07:00;METAR CYUL 170700Z 25012KT 15SM FEW020 21/19 A2993 RMK SC1 SLP136
CYUL;2002-08-17 08:00;METAR CYUL 170800Z 26012KT 15SM FEW020 21/18 A2993 RMK SC1 SLP136
CYUL;2002-08-17 09:00;METAR CYUL 170900Z 25008KT 15SM SKC 20/18 A2995 RMK SLP142
CYUL;2002-08-17 10:00;METAR CYUL 171000Z 24008KT 20SM FEW020 FEW240 20/17 A2997 RMK CF1CI1 SLP150
CYUL;2002-08-17 11:00;METAR CYUL 171100Z 23008KT 20SM FEW240 20/17 A2998 RMK CI1 SLP153
CYUL;2002-08-17 12:00;METAR CYUL 171200Z 24009KT 20SM FEW120 FEW240 20/16 A3000 RMK AC1CI1 AC TR SLP159
CYUL;2002-08-17 13:00;METAR CYUL 171300Z 24007KT 20SM FEW240 22/16 A2999 RMK CI1 SLP156
CYUL;2002-08-17 14:00;METAR CYUL 171400Z 22006KT 20SM FEW240 23/17 A2998 RMK CI1 SLP152
CYUL;2002-08-17 15:00;METAR CYUL 171500Z 22011KT 30SM FEW030 FEW240 24/17 A2997 RMK CU1CI1 SLP149
CYUL;2002-08-17 16:00;METAR CYUL 171600Z 22013KT 30SM FEW040 SCT240 26/16 A2998 RMK CU1CI0 SLP151
CYUL;2002-08-17 17:00;METAR CYUL 171700Z 24014KT 30SM FEW045 SCT240 27/16 A2997 RMK CU2CI0
CYUL;2002-08-17 18:00;METAR CYUL 171800Z 21013KT 30SM SCT051 SCT240 28/17 A2995 RMK CU3CI0 SLP143
CYUL;2002-08-17 19:00;METAR CYUL 171900Z 21011G17KT 30SM FEW054 SCT240 29/16 A2993 RMK CU2CI1 SLP135
CYUL;2002-08-17 20:00;METAR CYUL 172000Z 21010G16KT 30SM FEW060 BKN240 29/14 A2992 RMK CU2CI1 SLP131
CYUL;2002-08-17 21:00;METAR CYUL 172100Z 21010G15KT 30SM FEW060 BKN240 29/13 A2989 RMK SC1CI1 SLP122
CYUL;2002-08-17 22:00;METAR CYUL 172200Z 22009KT 30SM FEW060 BKN240 29/13 A2988 RMK SC1CI1 SLP119
CYUL;2002-08-17 23:00;METAR CYUL 172300Z 23007KT 30SM BKN240 28/13 A2987 RMK CI1 SLP115
CYUL;2002-08-18 00:00;METAR CYUL 180000Z 21003KT 30SM FEW120 SCT240 27/14 A2986 RMK AC1CI1 SLP112
CYUL;2002-08-18 01:00;METAR CYUL 180100Z 14007KT 15SM FEW120 SCT240 24/15 A2987 RMK AC2CI1 SLP115
CYUL;2002-08-18 02:00;METAR CYUL 180200Z 14004KT 15SM BKN071 BKN240 26/16 A2985 RMK AC7CI1 SLP108
CYUL;2002-08-18 03:00;METAR CYUL 180300Z 16008KT 15SM SCT070 25/16 A2984 RMK AC3 SLP105
CYUL;2002-08-18 04:00;METAR CYUL 180400Z 17011KT 15SM BKN070 25/15 A2983 RMK AC5 SLP101
CYUL;2002-08-18 05:00;METAR CYUL 180500Z 20008KT 15SM SCT070 BKN230 25/17 A2982 RMK AC4CI1 SLP098
CYUL;2002-08-18 06:00;METAR CYUL 180600Z 18007KT 15SM BKN060 24/18 A2980 RMK SC6 SLP090
CYUL;2002-08-18 07:00;METAR CYUL 180700Z 20009KT 15SM BKN060 25/18 A2977 RMK SC7 SLP082
CYUL;2002-08-18 08:00;METAR CYUL 180800Z 17008KT 15SM BKN060 24/18 A2976 RMK SC6 SLP077
CYUL;2002-08-18 09:00;METAR CYUL 180900Z 18007KT 15SM FEW060 24/18 A2975 RMK SC2 SLP074
CYUL;2002-08-18 10:00;METAR CYUL 181000Z 21008KT 20SM SCT120 BKN240 25/18 A2975 RMK AC3CI1 SLP075
CYUL;2002-08-18 11:00;METAR CYUL 181100Z 20012KT 20SM BKN120 BKN240 25/20 A2975 RMK AC5CI0 SLP073
CYUL;2002-08-18 12:00;METAR CYUL 181200Z 21013KT 20SM FEW120 BKN180 26/20 A2975 RMK AC1AC3 SLP074
CYUL;2002-08-18 13:00;METAR CYUL 181300Z 22013KT 15SM BKN080 26/20 A2975 RMK AC6 SLP073
CYUL;2002-08-18 14:00;METAR CYUL 181400Z 21014G19KT 12SM FEW030 FEW080 BKN240 28/21 A2973 RMK CU1AC2CI2 SLP066 SLP066
CYUL;2002-08-18 16:00;METAR CYUL 181600Z 23017G25KT 8SM BKN029 BKN080 28/21 A2972 RMK SC6AC2 SLP063
CYUL;2002-08-18 18:00;METAR CYUL 181800Z 22014G19KT 8SM SCT030 30/22 A2969 RMK CU4 HAZY SLP053
CYUL;2002-08-18 19:00;METAR CYUL 181900Z 23022KT 8SM BKN035 31/21 A2967 RMK CU5 HAZY SLP047
CYUL;2002-08-18 21:00;METAR CYUL 182100Z 24024G34KT 12SM FEW045 BKN230 31/18 A2968 RMK CU2CI4 TCU ASOCTD SLP052
CYUL;2002-08-18 22:00;METAR CYUL 182200Z 25019G24KT 20SM FEW045 BKN230 31/15 A2970 RMK SC2CI4 SLP057
CYUL;2002-08-18 23:00;METAR CYUL 182300Z 26015G21KT 30SM FEW045 FEW230 29/11 A2972 RMK SC1CI2 SLP064
CYUL;2002-08-19 00:00;METAR CYUL 190000Z 25011KT 30SM FEW045 FEW230 28/12 A2974 RMK CU1CI2 SLP070
CYUL;2002-08-19 01:00;METAR CYUL 190100Z 25010KT 30SM FEW045 FEW230 26/12 A2977 RMK CU1CI0 SLP081
CYUL;2002-08-19 02:00;METAR CYUL 190200Z 25010KT 15SM SKC 24/13 A2979 RMK SLP089
CYUL;2002-08-19 05:00;METAR CYUL 190500Z 26008KT 15SM FEW100 21/13 A2985 RMK AC1 SLP108
CYUL;2002-08-19 06:00;METAR CYUL 190600Z 28006KT 15SM SKC 19/13 A2986 RMK SLP110
CYUL;2002-08-19 07:00;METAR CYUL 190700Z 29005KT 15SM FEW100 17/13 A2987 RMK AC1 SLP115
CYUL;2002-08-19 08:00;METAR CYUL 190800Z 14002KT 15SM FEW100 18/13 A2988 RMK AC1 SLP118
CYUL;2002-08-19 09:00;METAR CYUL 190900Z 00000KT 15SM FEW061 17/13 A2989 RMK SC2 SLP122
CYUL;2002-08-19 10:00;METAR CYUL 191000Z 27002KT 20SM SCT065 18/14 A2990 RMK SC3 SLP127
CYUL;2002-08-19 11:00;METAR CYUL 191100Z 25003KT 30SM BKN065 18/15 A2991 RMK SC6 SLP129
CYUL;2002-08-19 12:00;METAR CYUL 191200Z 25003KT 30SM BKN065 BKN230 19/15 A2991 RMK SC5CI1 SLP130
CYUL;2002-08-19 13:00;METAR CYUL 191300Z 23002KT 30SM BKN064 20/15 A2992 RMK SC6 SLP132
CYUL;2002-08-19 14:00;METAR CYUL 191400Z 00000KT 30SM FEW030 FEW230 22/15 A2991 RMK CU1CI2 SLP128
CYUL;2002-08-19 15:00;METAR CYUL 191500Z 17007KT 30SM FEW040 BKN230 23/14 A2991 RMK CU2CI4 SLP129
CYUL;2002-08-19 16:00;METAR CYUL 191600Z 21008KT 30SM SCT040 BKN230 24/13 A2990 RMK CU3CI4 SLP127
CYUL;2002-08-19 17:00;METAR CYUL 191700Z 20007KT 30SM SCT050 OVC230 25/10 A2990 RMK SC3CI5 SLP124
CYUL;2002-08-19 18:00;METAR CYUL 191800Z 21014KT 30SM BKN063 BKN240 25/13 A2991 RMK SC5CI2
CYUL;2002-08-19 19:00;METAR CYUL 191900Z 25012KT 30SM FEW063 SCT120 OVC180 24/11 A2990 RMK SC2AC1AS5 SLP125 SLP125
CYUL;2002-08-19 20:00;METAR CYUL 192000Z 27008KT 30SM FEW063 OVC150 24/12 A2987 RMK SC1AS7 PRESS FR SLP114 SLP114
CYUL;2002-08-19 21:00;METAR CYUL 192100Z 25010KT 20SM FEW060 OVC110 23/12 A2987 RMK SC1AS8
CYUL;2002-08-19 22:00;METAR CYUL 192200Z 28015G20KT 20SM -RA SCT030 OVC100 21/15 A2989 RMK SC3AS5 SLP122
CYUL;2002-08-19 23:00;METAR CYUL 192300Z 29011KT 20SM FEW040 OVC090 19/16 A2989 RMK SC1AS7 SLP121
CYUL;2002-08-20 00:00;METAR CYUL 200000Z 29010KT 20SM FEW030 SCT085 OVC240 18/16 A2990 RMK SF1AC2CS2 SLP127 SLP127
CYUL;2002-08-20 01:00;METAR CYUL 200100Z 28007KT 15SM FEW090 SCT130 BKN220 18/15 A2992 RMK AC1AS3CS2 SLP131 SLP131
CYUL;2002-08-20 02:00;METAR CYUL 200200Z 27006KT 15SM FEW130 SCT220 17/14 A2992 RMK AS2CS2
CYUL;2002-08-20 03:00;METAR CYUL 200300Z 25004KT 15SM FEW150 SCT220 17/14 A2992 RMK AC1CS1 SLP133
CYUL;2002-08-20 04:00;METAR CYUL 200400Z 29005KT 15SM FEW150 15/14 A2992 RMK AC2 SLP133
CYUL;2002-08-20 05:00;METAR CYUL 200500Z 00000KT 15SM BKN130 16/15 A2993 RMK AC5 SLP135
CYUL;2002-08-20 06:00;METAR CYUL 200600Z 00000KT 15SM SCT120 16/15 A2993 RMK AC3 SLP135
CYUL;2002-08-20 07:00;METAR CYUL 200700Z 34002KT 15SM FEW120 15/14 A2993 RMK AC2 SLP136
CYUL;2002-08-20 08:00;METAR CYUL 200800Z 23003KT 15SM SCT090 16/14 A2994 RMK AC4 SLP139
CYUL;2002-08-20 09:00;METAR CYUL 200900Z 23005KT 15SM BKN080 17/15 A2996 RMK AC6 SLP146
CYUL;2002-08-20 10:00;METAR CYUL 201000Z 25004KT 15SM FEW030 BKN095 OVC210 16/15 A2998 RMK SC1AC7CI1 SC TR SLP153 TR SLP153
CYUL;2002-08-20 11:00;METAR CYUL 201100Z 29004KT 12SM FEW030 BKN090 BKN210 16/15 A3000 RMK SC1AC4CI1 SLP160 SLP160
CYUL;2002-08-20 12:00;METAR CYUL 201200Z 28006KT 12SM SCT020 BKN090 18/16 A3002 RMK SC4AC1 SLP167
CYUL;2002-08-20 13:00;METAR CYUL 201300Z 26003KT 15SM FEW020 19/15 A3003 RMK SC1 SLP171
CYUL;2002-08-20 14:00;METAR CYUL 201400Z 34004KT 30SM FEW020 21/15 A3005 RMK SC2 SLP175
CYUL;2002-08-20 15:00;METAR CYUL 201500Z 31006KT 30SM FEW025 22/13 A3005 RMK CU2 SLP177
CYUL;2002-08-20 16:00;METAR CYUL 201600Z 27006KT 30SM BKN035 22/13 A3006 RMK SC5 SLP181
CYUL;2002-08-20 17:00;METAR CYUL 201700Z 32004KT 20SM BKN045 23/12 A3006 RMK SC6 SLP180
CYUL;2002-08-20 18:00;METAR CYUL 201800Z 18003KT 20SM BKN052 24/13 A3006 RMK SC5 SLP181
CYUL;2002-08-20 19:00;METAR CYUL 201900Z 31006KT 30SM SCT055 24/10 A3007 RMK SC4 SLP183
CYUL;2002-08-20 20:00;METAR CYUL 202000Z 32010KT 30SM FEW057 26/10 A3008 RMK SC2 SLP185
CYUL;2002-08-20 21:00;METAR CYUL 202100Z 28014KT 30SM FEW060 26/10 A3008 RMK SC2 SLP188
CYUL;2002-08-21 00:00;METAR CYUL 210000Z 31008KT 30SM FEW080 SCT240 22/09 A3012 RMK AC1CI0 SLP200
CYUL;2002-08-21 04:00;METAR CYUL 210400Z 00000KT 15SM SKC 18/10 A3017 RMK SLP217
CYUL;2002-08-21 05:00;METAR CYUL 210500Z 34002KT 15SM SKC 14/10 A3018 RMK SLP221
CYUL;2002-08-21 06:00;METAR CYUL 210600Z 22002KT 15SM SKC 16/11 A3020 RMK SLP226
CYUL;2002-08-21 07:00;METAR CYUL 210700Z 00000KT 15SM SKC 14/10 A3021 RMK SLP230
CYUL;2002-08-21 08:00;METAR CYUL 210800Z 26005KT 15SM SKC 13/10 A3024 RMK SLP240
CYUL;2002-08-21 09:00;METAR CYUL 210900Z 00000KT 15SM SKC 15/12 A3025 RMK SLP243
CYUL;2002-08-21 10:00;METAR CYUL 211000Z 23004KT 20SM FEW230 16/13 A3026 RMK CI0 SLP248
CYUL;2002-08-21 11:00;METAR CYUL 211100Z 22005KT 20SM FEW230 17/14 A3027 RMK CI1 SLP252
CYUL;2002-08-21 12:00;METAR CYUL 211200Z 26005KT 20SM FEW230 18/15 A3029 RMK CI1 SLP256
CYUL;2002-08-21 13:00;METAR CYUL 211300Z 25006KT 20SM FEW230 20/13 A3029 RMK CI1 SLP257
CYUL;2002-08-21 14:00;METAR CYUL 211400Z 22005KT 30SM FEW230 22/14 A3029 RMK CI1 SLP257
CYUL;2002-08-21 15:00;METAR CYUL 211500Z 19008KT 30SM FEW020 FEW230 24/14 A3028 RMK CU1CI1 SLP255
CYUL;2002-08-21 16:00;METAR CYUL 211600Z 20007KT 30SM FEW020 SCT230 25/14 A3027 RMK CU1CI1 SLP252
CYUL;2002-08-21 17:00;METAR CYUL 211700Z 19008KT 30SM FEW020 BKN230 26/12 A3027 RMK CU1CI2 SLP249
CYUL;2002-08-21 18:00;METAR CYUL 211800Z 20009KT 30SM FEW020 BKN230 26/10 A3025 RMK CU1CI4 SLP244
CYUL;2002-08-21 19:00;METAR CYUL 211900Z 22004KT 30SM FEW070 BKN240 26/08 A3023 RMK AC1CI4 SLP237
CYUL;2002-08-21 20:00;METAR CYUL 212000Z 23005KT 30SM FEW070 BKN340 26/10 A3020 RMK AC1CI3 SLP228
CYUL;2002-08-21 21:00;METAR CYUL 212100Z 25008KT 30SM FEW080 OVC240 27/11 A3019 RMK AC1CI3 SLP224
CYUL;2002-08-21 22:00;METAR CYUL 212200Z 22005KT 30SM FEW090 OVC240 26/10 A3017 RMK AS2CS2 SLP218
CYUL;2002-08-21 23:00;METAR CYUL 212300Z 20004KT 30SM FEW100 OVC240 25/11 A3017 RMK AS2CS3 SLP217
CYUL;2002-08-22 00:00;METAR CYUL 220000Z 17007KT 30SM FEW100 OVC220 24/12 A3017 RMK AS2CS2 SLP217
CYUL;2002-08-22 01:00;METAR CYUL 220100Z 17006KT 30SM FEW100 OVC210 23/12 A3018 RMK AS2CS2 SLP221
CYUL;2002-08-22 02:00;METAR CYUL 220200Z 15006KT 15SM FEW100 OVC210 22/12 A3016 RMK AS2CS2 PRESS RR SLP213 SLP213
CYUL;2002-08-22 03:00;METAR CYUL 220300Z 15006KT 15SM OVC210 20/12 A3013 RMK CS2 SLP204
CYUL;2002-08-22 04:00;METAR CYUL 220400Z 15006KT 15SM SCT120 OVC210 20/12 A3011 RMK AC3CS2 SLP198
CYUL;2002-08-22 05:00;METAR CYUL 220500Z 18002KT 15SM SCT120 OVC210 20/12 A3011 RMK AC4CS2 SLP195
CYUL;2002-08-22 06:00;METAR CYUL 220600Z 17004KT 15SM BKN070 OVC210 20/12 A3010 RMK AC6CS2 SLP192
CYUL;2002-08-22 07:00;METAR CYUL 220700Z 20004KT 15SM BKN074 OVC210 20/14 A3010 RMK AC5CS2
CYUL;2002-08-22 08:00;METAR CYUL 220800Z 17004KT 15SM OVC150 19/14 A3006 RMK AS8 SLP181
CYUL;2002-08-22 09:00;METAR CYUL 220900Z 17004KT 15SM FEW070 BKN160 19/13 A3005 RMK AC1AS6 SLP176
CYUL;2002-08-22 10:00;METAR CYUL 221000Z 13004KT 15SM FEW070 OVC130 18/13 A3003 RMK AC2AS6 SLP170
CYUL;2002-08-22 11:00;METAR CYUL 221100Z 11002KT 20SM FEW070 OVC120 19/13 A3003 RMK AC2AS6 SLP169
CYUL;2002-08-22 12:00;METAR CYUL 221200Z 16005KT 20SM -RA BKN070 OVC100 19/14 A3002 RMK AC5AS3 SLP167
CYUL;2002-08-22 13:00;METAR CYUL 221300Z 34004KT 20SM -RA BKN080 OVC096 20/14 A3002 RMK AC5AS3 R- INTMT SLP165 SLP165
CYUL;2002-08-22 14:00;METAR CYUL 221400Z 05006KT 20SM -RA BKN063 OVC085 19/16 A3000 RMK SC5AS3 R- INTMT SLP158 SLP158 INTMT SLP157
CYUL;2002-08-22 16:00;METAR CYUL 221600Z 01003KT 8SM -RA FEW010 BKN035 OVC070 20/17 A2999 RMK SF1SC6AS2 R- INTMT SLP156 R- INTMT SLP156
CYUL;2002-08-22 17:00;METAR CYUL 221700Z 36005KT 8SM -RA BKN036 OVC068 19/17 A2999 RMK SC5AS3
CYUL;2002-08-22 18:00;METAR CYUL 221800Z 04007KT 4SM -RA BR FEW010 OVC023 19/17 A2998 RMK SF1SC7 SLP153
CYUL;2002-08-22 19:00;METAR CYUL 221900Z 04006KT 4SM -RA BR FEW009 OVC017 18/17 A2995 RMK SF2SC6 SLP142
CYUL;2002-08-22 20:00;METAR CYUL 222000Z 11004KT 2 1/2SM -RA BR FEW008 OVC012 19/17 A2994 RMK SF2SC6 R- INTMT SLP139 INTMT SLP139
CYUL;2002-08-22 21:00;METAR CYUL 222100Z 03007KT 1 1/2SM -RA BR FEW005 OVC010 18/17 A2995 RMK SF2SC6 SLP142
CYUL;2002-08-22 22:00;METAR CYUL 222200Z 03006KT 1 1/2SM -RA BR SCT005 BKN010 OVC030 18/17 A2995 RMK SF3SC4SC1 SLP143 SF3SC4SC1 SLP143
CYUL;2002-08-22 23:00;METAR CYUL 222300Z 02007KT 6SM -RA BR FEW006 OVC030 18/17 A2996 RMK SF2SC6 SLP146
CYUL;2002-08-23 00:00;METAR CYUL 230000Z 02005KT 9SM FEW010 BKN040 18/16 A2996 RMK SF1SC6 SLP145
CYUL;2002-08-23 01:00;METAR CYUL 230100Z 36004KT 9SM FEW015 BKN045 BKN080 18/16 A2999 RMK SF2SC2AS2 SLP155 SLP155
CYUL;2002-08-23 02:00;METAR CYUL 230200Z 33003KT 6SM BR FEW005 FEW045 SCT080 16/15 A3001 RMK SF1SC2AS2 SLP163 SLP163
CYUL;2002-08-23 03:00;METAR CYUL 230300Z 01010KT 15SM FEW030 FEW080 17/15 A3003 RMK SC2AC1 SLP170
CYUL;2002-08-23 04:00;METAR CYUL 230400Z 05006KT 15SM SKC 16/13 A3005 RMK SLP177
CYUL;2002-08-23 05:00;METAR CYUL 230500Z 36004KT 15SM SKC 14/12 A3007 RMK SLP183
CYUL;2002-08-23 06:00;METAR CYUL 230600Z 35005KT 15SM SKC 13/11 A3007 RMK SLP183
CYUL;2002-08-23 07:00;METAR CYUL 230700Z 35006KT 15SM SKC 13/12 A3008 RMK SLP185
CYUL;2002-08-23 08:00;METAR CYUL 230800Z 35007KT 15SM SKC 12/11 A3008 RMK SLP188
CYUL;2002-08-23 09:00;METAR CYUL 230900Z 36004KT 15SM SKC 12/10 A3009 RMK SLP189
CYUL;2002-08-23 10:00;METAR CYUL 231000Z 03009KT 15SM SKC 12/09 A3011 RMK SLP196
CYUL;2002-08-23 11:00;METAR CYUL 231100Z 03009KT 30SM SKC 12/09 A3012 RMK SLP200
CYUL;2002-08-23 12:00;METAR CYUL 231200Z 02012G17KT 30SM FEW030 FEW220 14/09 A3014 RMK CU1CI0 SLP206
CYUL;2002-08-23 13:00;METAR CYUL 231300Z 03013G18KT 30SM FEW030 SCT220 16/09 A3014 RMK CU1CI1 SLP207
CYUL;2002-08-23 14:00;METAR CYUL 231400Z 04010KT 30SM FEW030 SCT220 17/09 A3015 RMK CU1CI1 SLP209
CYUL;2002-08-23 15:00;METAR CYUL 231500Z 07009KT 30SM FEW030 SCT220 18/08 A3014 RMK CU1CI1
CYUL;2002-08-23 16:00;METAR CYUL 231600Z 08004KT 30SM FEW040 FEW230 19/08 A3012 RMK CU1CI1 SLP201
CYUL;2002-08-23 17:00;METAR CYUL 231700Z 03007KT 30SM FEW040 SCT230 20/08 A3011 RMK CU1CI1 SLP196
CYUL;2002-08-23 18:00;METAR CYUL 231800Z 04006KT 30SM FEW045 FEW230 21/08 A3008 RMK CU1CI0 SLP188
CYUL;2002-08-23 19:00;METAR CYUL 231900Z 04005KT 30SM FEW045 FEW120 FEW240 22/07 A3007 RMK CU1AC1CI1 SLP183 SLP183
CYUL;2002-08-23 20:00;METAR CYUL 232000Z 31003KT 30SM FEW150 SCT240 22/07 A3006 RMK AC1CI2 SLP181
CYUL;2002-08-23 21:00;METAR CYUL 232100Z 13002KT 30SM FEW220 BKN240 22/08 A3004 RMK CC1CI3 SLP172
CYUL;2002-08-23 22:00;METAR CYUL 232200Z 05004KT 30SM FEW200 BKN240 22/08 A3003 RMK CC1CI5
CYUL;2002-08-23 23:00;METAR CYUL 232300Z 08006KT 30SM FEW170 BKN240 21/06 A3001 RMK AC2CI3
CYUL;2002-08-24 00:00;METAR CYUL 240000Z 09005KT 30SM SCT180 BKN240 20/08 A3000 RMK CC2CI2 SLP160
CYUL;2002-08-24 01:00;METAR CYUL 240100Z 09006KT 15SM SCT180 BKN240 19/08 A3000 RMK AC4CI2
CYUL;2002-08-24 02:00;METAR CYUL 240200Z 09004KT 15SM BKN150 18/09 A2999 RMK AC6 SLP157
CYUL;2002-08-24 03:00;METAR CYUL 240300Z 00000KT 15SM FEW150 BKN230 16/10 A2999 RMK AC2CC2 SLP156
CYUL;2002-08-24 04:00;METAR CYUL 240400Z 13003KT 15SM BKN230 16/11 A2996 RMK CC3 SLP147
CYUL;2002-08-24 05:00;METAR CYUL 240500Z 11004KT 15SM BKN220 16/10 A2996 RMK CC6 SLP146
CYUL;2002-08-24 06:00;METAR CYUL 240600Z 10003KT 15SM BKN210 17/10 A2994 RMK CC6 SLP140
CYUL;2002-08-24 07:00;METAR CYUL 240700Z 04003KT 15SM BKN180 16/11 A2993 RMK AC6 SLP136
CYUL;2002-08-24 09:00;METAR CYUL 240900Z 01004KT 15SM BKN220 14/11 A2991 RMK CC6 SLP128
CYUL;2002-08-24 10:00;METAR CYUL 241000Z 04006KT 30SM FEW150 BKN220 14/11 A2990 RMK AC1CC5 SLP126
CYUL;2002-08-24 11:00;METAR CYUL 241100Z 04007KT 30SM FEW150 BKN220 13/11 A2990 RMK AC2CC3 SLP125
CYUL;2002-08-24 12:00;METAR CYUL 241200Z 05006KT 30SM FEW180 BKN220 16/11 A2990 RMK AC2CC6
CYUL;2002-08-24 13:00;METAR CYUL 241300Z 04008KT 20SM SCT200 BKN240 17/11 A2990 RMK CC4CI3 SLP124
CYUL;2002-08-24 14:00;METAR CYUL 241400Z 05007KT 20SM SCT200 BKN240 18/12 A2987 RMK CC4CI3 SLP117
CYUL;2002-08-24 15:00;METAR CYUL 241500Z 11006KT 20SM FEW190 BKN210 19/13 A2987 RMK CC1CC6 SLP114
CYUL;2002-08-24 16:00;METAR CYUL 241600Z 12005KT 30SM SCT180 BKN240 20/13 A2984 RMK AC3CI2 SLP104
CYUL;2002-08-24 17:00;METAR CYUL 241700Z 10002KT 30SM FEW040 FEW170 BKN240 22/16 A2982 RMK CF1AC2CI2 SLP097 SLP097
CYUL;2002-08-24 18:00;METAR CYUL 241800Z 12005KT 30SM FEW040 FEW150 SCT240 24/16 A2980 RMK CU1AC2CI1 SLP091 SLP091
CYUL;2002-08-24 19:00;METAR CYUL 241900Z 14003KT 30SM FEW045 FEW150 SCT240 25/15 A2977 RMK CU1AC2CI0 SLP083 SLP083
CYUL;2002-08-24 20:00;METAR CYUL 242000Z 18007KT 20SM FEW045 FEW180 25/15 A2976 RMK CU1CC1 SLP080
CYUL;2002-08-24 21:00;METAR CYUL 242100Z 16007KT 30SM FEW045 SCT180 24/15 A2976 RMK CU1AC2 SLP079
CYUL;2002-08-24 22:00;METAR CYUL 242200Z 16011KT 30SM FEW040 BKN210 23/15 A2976 RMK CU1CC7
CYUL;2002-08-24 23:00;METAR CYUL 242300Z 15011KT 30SM FEW040 BKN180 21/13 A2976 RMK CU1AC6
CYUL;2002-08-25 00:00;METAR CYUL 250000Z 15013KT 30SM BKN150 BKN240 20/12 A2975 RMK AC6CI1 SLP076
CYUL;2002-08-25 01:00;METAR CYUL 250100Z 16011KT 15SM FEW150 19/12 A2977 RMK AC2 SLP081
CYUL;2002-08-25 02:00;METAR CYUL 250200Z 17011G16KT 15SM FEW090 SCT160 18/12 A2976 RMK AC1AC4 SLP080
CYUL;2002-08-25 03:00;METAR CYUL 250300Z 17009KT 15SM BKN170 BKN200 18/11 A2976 RMK AC6CI2
CYUL;2002-08-25 04:00;METAR CYUL 250400Z 16006KT 15SM BKN150 BKN200 17/12 A2976 RMK AC7CI1 SLP079
CYUL;2002-08-25 05:00;METAR CYUL 250500Z 17004KT 15SM BKN150 BKN200 17/12 A2976 RMK AC7CI1 OCNL DSTNT LTNG SLP080 DSTNT LTNG SLP080
CYUL;2002-08-25 07:00;METAR CYUL 250700Z 25004KT 15SM FEW035 BKN065 BKN150 17/14 A2976 RMK SC1SC5AC2 SLP077 SLP077
CYUL;2002-08-25 08:00;METAR CYUL 250800Z 23010KT 15SM FEW013 BKN070 BKN150 18/16 A2975 RMK SF1AC4AC1 SLP075 SLP075
CYUL;2002-08-25 09:00;METAR CYUL 250900Z 25008KT 15SM BKN011 OVC060 18/16 A2976 RMK SC7SC1
CYUL;2002-08-25 10:00;METAR CYUL 251000Z 25008KT 15SM OVC007 18/16 A2977 RMK SC8 SLP081
CYUL;2002-08-25 11:00;METAR CYUL 251100Z 23006KT 15SM BKN008 BKN120 18/16 A2978 RMK SC5AC1 SLP086
CYUL;2002-08-25 12:00;METAR CYUL 251200Z 24008KT 15SM SCT006 SCT085 18/16 A2980 RMK SC3AC1 ACC ASOCTD SLP091 SLP091
CYUL;2002-08-25 13:00;METAR CYUL 251300Z 32006KT 20SM FEW013 FEW079 FEW180 20/15 A2980 RMK SF1AC1AC1 ACC ASOCTD SLP092 ACC ASOCTD SLP092
CYUL;2002-08-25 14:00;METAR CYUL 251400Z 34007KT 30SM FEW020 21/15 A2982 RMK SC1 SLP097
CYUL;2002-08-25 15:00;METAR CYUL 251500Z 32006KT 30SM FEW045 23/14 A2982 RMK CU2 SLP100
CYUL;2002-08-25 16:00;METAR CYUL 251600Z 32011KT 30SM BKN045 24/15 A2982 RMK CU6 SLP100
CYUL;2002-08-25 17:00;METAR CYUL 251700Z 31009KT 30SM BKN045 25/14 A2982 RMK CU5 SLP100
CYUL;2002-08-25 18:00;METAR CYUL 251800Z 29008G15KT 30SM BKN045 24/13 A2982 RMK CU6 SLP100
CYUL;2002-08-25 19:00;METAR CYUL 251900Z 31009G17KT 30SM FEW045 24/13 A2983 RMK CU2 SLP101
CYUL;2002-08-25 20:00;METAR CYUL 252000Z 25016KT 30SM FEW055 25/13 A2983 RMK CU2 SLP102
CYUL;2002-08-25 21:00;METAR CYUL 252100Z 26014G19KT 30SM FEW055 FEW200 24/12 A2984 RMK CU1CC1 COTRA SLP104 SLP104
CYUL;2002-08-25 22:00;METAR CYUL 252200Z 26015KT 30SM FEW055 FEW200 FEW240 23/12 A2984 RMK CU1CC1CI0 COTRA SLP106 COTRA SLP106
CYUL;2002-08-25 23:00;METAR CYUL 252300Z 27011G18KT 30SM FEW045 22/11 A2986 RMK SC1 SLP112
CYUL;2002-08-26 00:00;METAR CYUL 260000Z 30009KT 30SM FEW070 20/11 A2988 RMK AC1 SLP118
CYUL;2002-08-26 01:00;METAR CYUL 260100Z 29004KT 15SM SKC 16/10 A2990 RMK SLP126
CYUL;2002-08-26 02:00;METAR CYUL 260200Z 28003KT 15SM SKC 16/10 A2991 RMK SLP128
CYUL;2002-08-26 03:00;METAR CYUL 260300Z 25006KT 15SM FEW200 17/11 A2991 RMK CI1 SLP130
CYUL;2002-08-26 04:00;METAR CYUL 260400Z 26004KT 15SM SKC 15/11 A2991 RMK SLP130
CYUL;2002-08-26 05:00;METAR CYUL 260500Z 04002KT 15SM SKC 16/12 A2992 RMK SLP134
CYUL;2002-08-26 06:00;METAR CYUL 260600Z 00000KT 15SM SKC 15/12 A2992 RMK SLP134
CYUL;2002-08-26 07:00;METAR CYUL 260700Z 24007KT 15SM SKC 16/14 A2992 RMK SLP133
CYUL;2002-08-26 08:00;METAR CYUL 260800Z 24004KT 15SM SKC 14/12 A2992 RMK SLP134
CYUL;2002-08-26 09:00;METAR CYUL 260900Z 23004KT 15SM SKC 15/12 A2992 RMK SLP133
CYUL;2002-08-26 10:00;METAR CYUL 261000Z 24005KT 30SM FEW090 15/12 A2993 RMK AC1 SLP135
CYUL;2002-08-26 11:00;METAR CYUL 261100Z 23005KT 30SM FEW090 15/13 A2993 RMK AC1 SLP137
CYUL;2002-08-26 12:00;METAR CYUL 261200Z 22010KT 30SM FEW015 FEW090 17/15 A2994 RMK CF1AC1 SLP138
CYUL;2002-08-26 13:00;METAR CYUL 261300Z 24012KT 30SM FEW120 20/15 A2993 RMK AC1 SLP137
CYUL;2002-08-26 14:00;METAR CYUL 261400Z 23011KT 30SM FEW120 22/16 A2992 RMK AC1 SLP134
CYUL;2002-08-26 15:00;METAR CYUL 261500Z 22011G17KT 20SM FEW120 24/16 A2992 RMK AC1 SLP133
CYUL;2002-08-26 16:00;METAR CYUL 261600Z 22015KT 20SM FEW120 25/16 A2991 RMK AC1 SLP129
CYUL;2002-08-26 17:00;METAR CYUL 261700Z 23016G22KT 20SM FEW120 27/15 A2991 RMK AC1 SLP128
CYUL;2002-08-26 18:00;METAR CYUL 261800Z 22017G22KT 20SM FEW030 27/16 A2991 RMK CU1 SLP128
CYUL;2002-08-26 19:00;METAR CYUL 261900Z 22015G20KT 20SM FEW040 27/15 A2990 RMK CF1 SLP126
CYUL;2002-08-26 20:00;METAR CYUL 262000Z 27015G25KT 20SM FEW045 28/15 A2989 RMK CF2 SLP123
CYUL;2002-08-26 21:00;METAR CYUL 262100Z 27015G21KT 20SM FEW045 28/15 A2989 RMK SC2 SLP122
CYUL;2002-08-26 22:00;METAR CYUL 262200Z 29011KT 20SM FEW045 BKN230 28/16 A2990 RMK SC2CI1 SLP125
CYUL;2002-08-26 23:00;METAR CYUL 262300Z 27012KT 20SM FEW045 BKN230 27/16 A2990 RMK SC2CI1 SLP127
CYUL;2002-08-27 00:00;METAR CYUL 270000Z 25005KT 20SM FEW045 BKN230 25/16 A2992 RMK SC2CI1 SLP132
CYUL;2002-08-27 01:00;METAR CYUL 270100Z 30005KT 20SM SCT060 23/16 A2995 RMK SC4 SLP142
CYUL;2002-08-27 02:00;METAR CYUL 270200Z 34010KT 15SM FEW060 23/14 A2998 RMK SC2 SLP152
CYUL;2002-08-27 03:00;METAR CYUL 270300Z 36011KT 15SM SCT076 22/11 A3001 RMK AC3 SLP162
CYUL;2002-08-27 04:00;METAR CYUL 270400Z 01010G15KT 15SM FEW075 20/11 A3003 RMK AC2 SLP169
CYUL;2002-08-27 05:00;METAR CYUL 270500Z 01013G19KT 15SM FEW071 19/10 A3006 RMK AC1 SLP181
CYUL;2002-08-27 06:00;METAR CYUL 270600Z 02012G17KT 15SM FEW070 17/09 A3010 RMK AC2 SLP192
CYUL;2002-08-27 07:00;METAR CYUL 270700Z 01010G16KT 15SM FEW070 16/08 A3013 RMK AC1 SLP202
CYUL;2002-08-27 08:00;METAR CYUL 270800Z 02015KT 15SM SKC 15/06 A3014 RMK SLP208
CYUL;2002-08-27 09:00;METAR CYUL 270900Z 02008KT 15SM SKC 13/06 A3016 RMK SLP215
CYUL;2002-08-27 10:00;METAR CYUL 271000Z 36005KT 30SM FEW100 FEW210 13/07 A3019 RMK AC1CI0 SLP224
CYUL;2002-08-27 11:00;METAR CYUL 271100Z 36005KT 30SM FEW230 13/06 A3022 RMK CI0 SLP232
CYUL;2002-08-27 12:00;METAR CYUL 271200Z 02011KT 30SM FEW230 14/06 A3024 RMK CI0 SLP240
CYUL;2002-08-27 13:00;METAR CYUL 271300Z 03009KT 30SM FEW230 15/07 A3026 RMK CI1 SLP247
CYUL;2002-08-27 14:00;METAR CYUL 271400Z 04008KT 30SM FEW230 16/07 A3028 RMK CI1 SLP253
CYUL;2002-08-27 15:00;METAR CYUL 271500Z 36006KT 30SM FEW020 FEW230 16/07 A3028 RMK SC1CI1 SLP255
CYUL;2002-08-27 16:00;METAR CYUL 271600Z 04008KT 30SM FEW030 FEW230 18/07 A3027 RMK SC2CI1 SLP250
CYUL;2002-08-27 17:00;METAR CYUL 271700Z 04003KT 30SM SCT040 SCT230 19/08 A3027 RMK SC3CI1 SLP252
CYUL;2002-08-27 18:00;METAR CYUL 271800Z 34008KT 30SM SCT045 SCT230 20/08 A3027 RMK SC3CI0
CYUL;2002-08-27 19:00;METAR CYUL 271900Z 36010KT 30SM FEW045 SCT240 21/08 A3027 RMK SC2CI0 SLP249
CYUL;2002-08-27 20:00;METAR CYUL 272000Z 02005KT 30SM FEW050 FEW240 22/08 A3027 RMK CU1CI0 SLP251
CYUL;2002-08-27 21:00;METAR CYUL 272100Z 02005KT 30SM FEW050 FEW240 22/08 A3027 RMK SC1CI0
CYUL;2002-08-27 22:00;METAR CYUL 272200Z 05008KT 30SM FEW050 FEW240 22/08 A3027 RMK SC1CI0 SLP253
CYUL;2002-08-27 23:00;METAR CYUL 272300Z 04010KT 30SM FEW050 FEW240 21/08 A3029 RMK SC1CI0 SLP258
CYUL;2002-08-28 00:00;METAR CYUL 280000Z 02009G15KT 20SM FEW055 FEW240 19/08 A3032 RMK SC1CI0 SLP267
CYUL;2002-08-28 01:00;METAR CYUL 280100Z 04008KT 15SM FEW055 18/08 A3034 RMK SC1 SLP275
CYUL;2002-08-28 02:00;METAR CYUL 280200Z 03006KT 15SM FEW055 17/09 A3036 RMK SC1 SLP281
CYUL;2002-08-28 03:00;METAR CYUL 280300Z 04010KT 15SM FEW080 17/09 A3037 RMK AC1 SLP286
CYUL;2002-08-28 04:00;METAR CYUL 280400Z 04007KT 15SM SKC 17/08 A3038 RMK SLP290
CYUL;2002-08-28 05:00;METAR CYUL 280500Z 03008KT 15SM SKC 14/09 A3039 RMK SLP293
CYUL;2002-08-28 06:00;METAR CYUL 280600Z 03010KT 15SM SKC 13/09 A3039 RMK SLP292
CYUL;2002-08-28 07:00;METAR CYUL 280700Z 04008KT 15SM SKC 13/08 A3039 RMK SLP292
CYUL;2002-08-28 08:00;METAR CYUL 280800Z 03008KT 15SM SKC 12/08 A3039 RMK SLP292
CYUL;2002-08-28 09:00;METAR CYUL 280900Z 04007KT 15SM SKC 12/08 A3039 RMK SLP293
CYUL;2002-08-28 10:00;METAR CYUL 281000Z 03008KT 30SM FEW230 11/08 A3040 RMK CS1 SLP295
CYUL;2002-08-28 11:00;METAR CYUL 281100Z 03005KT 30SM FEW230 11/08 A3042 RMK CI1 SLP302
CYUL;2002-08-28 12:00;METAR CYUL 281200Z 04007KT 30SM FEW230 14/09 A3043 RMK CI1 SLP305
CYUL;2002-08-28 13:00;METAR CYUL 281300Z 05009KT 30SM FEW230 16/09 A3043 RMK CI1 SLP306
CYUL;2002-08-28 14:00;METAR CYUL 281400Z 04009KT 30SM FEW230 17/09 A3043 RMK CI1 SLP306
CYUL;2002-08-28 15:00;METAR CYUL 281500Z 07006KT 30SM FEW230 19/09 A3042 RMK CI1 SLP303
CYUL;2002-08-28 16:00;METAR CYUL 281600Z 06007KT 30SM FEW030 FEW230 20/09 A3041 RMK CU1CI2 SLP299
CYUL;2002-08-28 17:00;METAR CYUL 281700Z 06009KT 30SM FEW030 FEW230 21/09 A3040 RMK CU1CI1 SLP294
CYUL;2002-08-28 18:00;METAR CYUL 281800Z 04009KT 30SM FEW230 22/09 A3038 RMK CI2 SLP287
CYUL;2002-08-28 19:00;METAR CYUL 281900Z 04002KT 30SM BKN240 23/09 A3035 RMK CI2 COTRA SLP278
CYUL;2002-08-28 20:00;METAR CYUL 282000Z 04005KT 30SM SCT240 24/09 A3034 RMK CI2 SLP276
CYUL;2002-08-28 21:00;METAR CYUL 282100Z 09008KT 30SM BKN240 24/09 A3033 RMK CI2 SLP273
CYUL;2002-08-28 22:00;METAR CYUL 282200Z 10004KT 30SM BKN240 23/10 A3033 RMK CS3 SLP271
CYUL;2002-08-28 23:00;METAR CYUL 282300Z 15006KT 30SM BKN200 22/11 A3032 RMK CS4 SLP270
CYUL;2002-08-29 00:00;METAR CYUL 290000Z 15003KT 30SM BKN170 BKN240 20/11 A3031 RMK AS6CI0 SLP266
CYUL;2002-08-29 01:00;METAR CYUL 290100Z 05008KT 15SM BKN170 20/11 A3031 RMK AS6 SLP265
CYUL;2002-08-29 02:00;METAR CYUL 290200Z 06006KT 15SM BKN170 20/12 A3031 RMK AS6 SLP265
CYUL;2002-08-29 03:00;METAR CYUL 290300Z 07005KT 15SM BKN170 19/11 A3030 RMK AS5 SLP261
CYUL;2002-08-29 04:00;METAR CYUL 290400Z 05003KT 15SM OVC170 17/11 A3030 RMK AS6 SLP259
CYUL;2002-08-29 05:00;METAR CYUL 290500Z 09002KT 15SM BKN170 18/11 A3029 RMK AS6 SLP258
CYUL;2002-08-29 06:00;METAR CYUL 290600Z 00000KT 15SM OVC240 15/11 A3029 RMK CS3 SLP257
CYUL;2002-08-29 07:00;METAR CYUL 290700Z 05004KT 15SM OVC240 16/12 A3028 RMK CS4 SLP255
CYUL;2002-08-29 08:00;METAR CYUL 290800Z 02004KT 15SM OVC240 15/12 A3028 RMK CS4 SLP254
CYUL;2002-08-29 09:00;METAR CYUL 290900Z 13002KT 15SM OVC240 15/12 A3028 RMK CS3 SLP253
CYUL;2002-08-29 10:00;METAR CYUL 291000Z 13005KT 30SM OVC240 15/12 A3028 RMK CS3 CC ASOCTD SLP253
CYUL;2002-08-29 12:00;METAR CYUL 291200Z 35004KT 30SM FEW210 OVC240 15/12 A3030 RMK CC2CS2 SLP261
CYUL;2002-08-29 13:00;METAR CYUL 291300Z 36003KT 15SM BKN240 17/13 A3030 RMK CI2 SLP260
CYUL;2002-08-29 14:00;METAR CYUL 291400Z 00000KT 12SM BKN230 19/13 A3029 RMK CI3 SLP257
CYUL;2002-08-29 15:00;METAR CYUL 291500Z 19003KT 12SM FEW160 BKN240 20/14 A3028 RMK AC2CI2
CYUL;2002-08-29 16:00;METAR CYUL 291600Z 19004KT 12SM FEW020 FEW160 BKN240 22/12 A3026 RMK CU1AC1CI3 SLP247 SLP247
CYUL;2002-08-29 17:00;METAR CYUL 291700Z 22004KT 15SM FEW020 FEW160 BKN240 22/12 A3024 RMK CU1AC2CI4 SLP242 SLP242
CYUL;2002-08-29 18:00;METAR CYUL 291800Z 22005KT 15SM FEW020 SCT160 OVC220 22/13 A3023 RMK CU1AS4CI2 SLP238 SLP238
CYUL;2002-08-29 19:00;METAR CYUL 291900Z 15007KT 20SM FEW030 OVC160 22/13 A3022 RMK CU1AS7 SLP234
CYUL;2002-08-29 20:00;METAR CYUL 292000Z 17008KT 20SM FEW030 OVC150 23/12 A3021 RMK CU1AS7 SLP231
CYUL;2002-08-29 21:00;METAR CYUL 292100Z 15010KT 20SM FEW070 BKN150 OVC230 21/11 A3022 RMK AC1AS6CI1 SLP232 SLP232
CYUL;2002-08-29 22:00;METAR CYUL 292200Z 16011KT 20SM BKN150 OVC230 20/11 A3020 RMK AS6CI1 SLP228
CYUL;2002-08-29 23:00;METAR CYUL 292300Z 17013KT 20SM FEW120 BKN150 BKN230 19/09 A3019 RMK AC2AS3CI1 SLP225 SLP225
CYUL;2002-08-30 00:00;METAR CYUL 300000Z 17014KT 15SM FEW120 BKN150 BKN230 18/08 A3020 RMK AC1AC6CI0 SLP228 SLP228
CYUL;2002-08-30 01:00;METAR CYUL 300100Z 17011KT 15SM BKN150 BKN230 17/08 A3021 RMK AC6CI0 SLP232
CYUL;2002-08-30 02:00;METAR CYUL 300200Z 18009KT 15SM BKN150 19/09 A3021 RMK AC6 SLP231
CYUL;2002-08-30 03:00;METAR CYUL 300300Z 17008KT 15SM BKN190 BKN230 16/10 A3020 RMK AS5CS2 SLP227
CYUL;2002-08-30 04:00;METAR CYUL 300400Z 15003KT 15SM BKN190 BKN220 15/10 A3019 RMK AS5CS1 SLP225
CYUL;2002-08-30 05:00;METAR CYUL 300500Z 00000KT 15SM FEW190 BKN220 15/10 A3020 RMK AS2CS2 SLP226
CYUL;2002-08-30 06:00;METAR CYUL 300600Z 14004KT 15SM FEW190 BKN220 14/10 A3019 RMK AS1CS2
CYUL;2002-08-30 07:00;METAR CYUL 300700Z 13003KT 15SM OVC220 14/11 A3019 RMK CS4 SLP224
CYUL;2002-08-30 08:00;METAR CYUL 300800Z 17002KT 15SM OVC220 14/11 A3019 RMK CS4 SLP224
CYUL;2002-08-30 09:00;METAR CYUL 300900Z 24003KT 15SM SCT220 14/11 A3019 RMK CI1 SLP224
CYUL;2002-08-30 10:00;METAR CYUL 301000Z 23005KT 30SM FEW100 SCT220 14/11 A3020 RMK AC1CI2
CYUL;2002-08-30 11:00;METAR CYUL 301100Z 23007KT 30SM FEW100 BKN220 15/12 A3022 RMK AC2CI1 SLP233
CYUL;2002-08-30 12:00;METAR CYUL 301200Z 23010KT 30SM FEW020 FEW100 SCT220 16/13 A3022 RMK CU1AC2CI1 SLP235 SLP235
CYUL;2002-08-30 13:00;METAR CYUL 301300Z 24009KT 30SM FEW020 SCT130 BKN220 17/13 A3023 RMK CU1AC3CI2 SLP237 SLP237
CYUL;2002-08-30 14:00;METAR CYUL 301400Z 27007KT 30SM FEW130 SCT230 20/14 A3022 RMK AC2CI1
CYUL;2002-08-30 15:00;METAR CYUL 301500Z 24008KT 20SM SCT090 SCT230 22/14 A3022 RMK AC3CI1 SLP234
CYUL;2002-08-30 16:00;METAR CYUL 301600Z 25005KT 20SM BKN075 23/14 A3022 RMK AC6 SLP234
CYUL;2002-08-30 17:00;METAR CYUL 301700Z 28004KT 20SM BKN068 24/14 A3022 RMK AC5 SLP234
CYUL;2002-08-30 18:00;METAR CYUL 301800Z 01003KT 20SM SCT070 BKN230 26/15 A3022 RMK AC3CC2
CYUL;2002-08-30 19:00;METAR CYUL 301900Z 26002KT 20SM FEW050 SCT068 BKN240 27/14 A3022 RMK CU1AC3CI1 CU TR SLP232 TR SLP232
CYUL;2002-08-30 20:00;METAR CYUL 302000Z 35006KT 20SM BKN090 BKN240 26/15 A3022 RMK AC5CI1
CYUL;2002-08-30 21:00;METAR CYUL 302100Z 32002KT 20SM BKN100 BKN240 26/15 A3022 RMK AC5CI0
CYUL;2002-08-30 22:00;METAR CYUL 302200Z 31002KT 20SM SCT110 BKN240 27/15 A3023 RMK AC3CI1 SLP236
CYUL;2002-08-30 23:00;METAR CYUL 302300Z 01003KT 20SM SCT070 BKN240 26/15 A3024 RMK AC4CI1 SLP241
CYUL;2002-08-31 00:00;METAR CYUL 310000Z 35004KT 20SM FEW070 SCT240 24/15 A3027 RMK AC2CI1 SLP249
CYUL;2002-08-31 01:00;METAR CYUL 310100Z 09006KT 15SM BKN075 BKN240 25/15 A3029 RMK AC5CI1 SLP257
CYUL;2002-08-31 02:00;METAR CYUL 310200Z 07010KT 15SM FEW055 BKN085 24/15 A3031 RMK SC2AC4 SLP265
CYUL;2002-08-31 03:00;METAR CYUL 310300Z 06013G19KT 12SM -RA BKN050 BKN085 22/16 A3035 RMK SC5AC2 PRESS RR SLP277 RR SLP277
CYUL;2002-08-31 04:00;METAR CYUL 310400Z 04013G18KT 15SM BKN055 19/14 A3038 RMK SC6 SLP286
CYUL;2002-08-31 05:00;METAR CYUL 310500Z 04018KT 15SM SCT060 OVC080 18/14 A3040 RMK SC4AC4 SLP293
CYUL;2002-08-31 06:00;METAR CYUL 310600Z 04012G18KT 15SM FEW060 BKN080 17/13 A3042 RMK SC1AC4 SLP300
CYUL;2002-08-31 07:00;METAR CYUL 310700Z 04012G17KT 15SM FEW080 16/11 A3043 RMK AC2 SLP303
CYUL;2002-08-31 08:00;METAR CYUL 310800Z 03013KT 15SM FEW080 15/11 A3043 RMK AC1 SLP306
CYUL;2002-08-31 09:00;METAR CYUL 310900Z 03012KT 15SM SKC 14/11 A3046 RMK SLP314
CYUL;2002-08-31 10:00;METAR CYUL 311000Z 03012KT 20SM FEW080 FEW220 13/10 A3048 RMK AC1CI0 SLP323
CYUL;2002-08-31 11:00;METAR CYUL 311100Z 04010KT 30SM FEW070 14/10 A3050 RMK AC2 SLP330
CYUL;2002-08-31 12:00;METAR CYUL 311200Z 04013KT 30SM FEW070 15/09 A3051 RMK AC2 SLP333
CYUL;2002-08-31 13:00;METAR CYUL 311300Z 05012KT 30SM FEW070 16/08 A3053 RMK AC1 SLP338
CYUL;2002-08-31 14:00;METAR CYUL 311400Z 05011KT 30SM FEW070 18/09 A3053 RMK AC1 SLP338
CYUL;2002-08-31 15:00;METAR CYUL 311500Z 06012KT 30SM FEW050 FEW080 20/10 A3053 RMK CU1AC1 CU TR SLP339
CYUL;2002-08-31 16:00;METAR CYUL 311600Z 04013KT 30SM FEW080 22/10 A3052 RMK AC1 SLP337
CYUL;2002-08-31 17:00;METAR CYUL 311700Z 05012KT 30SM FEW050 FEW080 FEW240 23/10 A3051 RMK CU1AC1CI1 COTRA SLP334 COTRA SLP334
CYUL;2002-08-31 18:00;METAR CYUL 311800Z 06012KT 30SM FEW060 FEW100 FEW240 25/09 A3050 RMK CU1AC1CI0 COTRA SLP329 COTRA SLP329
CYUL;2002-08-31 19:00;METAR CYUL 311900Z 07009G15KT 30SM FEW100 FEW240 25/09 A3048 RMK AC1CI0
CYUL;2002-08-31 20:00;METAR CYUL 312000Z 09006KT 30SM FEW100 FEW240 26/09 A3047 RMK AC1CI0 SLP319
CYUL;2002-08-31 21:00;METAR CYUL 312100Z 08005KT 20SM FEW120 FEW240 26/09 A3046 RMK AC1CI0 SLP314
CYUL;2002-08-31 22:00;METAR CYUL 312200Z 08008KT 20SM FEW120 FEW240 25/09 A3045 RMK AC1CI0 SLP311
CYUL;2002-08-31 23:00;METAR CYUL 312300Z 05009KT 20SM FEW120 FEW240 24/09 A3044 RMK AC1CI0 SLP308
CYUL;2002-09-01 00:00;METAR CYUL 010000Z 05008KT 20SM FEW120 FEW240 23/09 A3044 RMK AC1CI0 SLP308
CYUL;2002-09-01 01:00;METAR CYUL 010100Z 05007KT 15SM SKC 22/09 A3044 RMK SLP310
CYUL;2002-09-01 02:00;METAR CYUL 010200Z 09007KT 15SM SKC 21/09 A3044 RMK SLP309
CYUL;2002-09-01 03:00;METAR CYUL 010300Z 12006KT 15SM FEW240 20/12 A3043 RMK CI1 SLP306
CYUL;2002-09-01 04:00;METAR CYUL 010400Z 14009KT 15SM SKC 19/13 A3042 RMK SLP301
CYUL;2002-09-01 05:00;METAR CYUL 010500Z 15008KT 15SM SKC 19/13 A3041 RMK SLP298
CYUL;2002-09-01 06:00;METAR CYUL 010600Z 16008KT 15SM FEW080 18/14 A3040 RMK AC1 SLP295
CYUL;2002-09-01 07:00;METAR CYUL 010700Z 14006KT 15SM FEW080 17/14 A3040 RMK AC1 SLP295
CYUL;2002-09-01 08:00;METAR CYUL 010800Z 14003KT 15SM FEW080 17/14 A3040 RMK AC1 SLP296
CYUL;2002-09-01 09:00;METAR CYUL 010900Z 14004KT 15SM FEW080 16/13 A3041 RMK AC1 SLP297
CYUL;2002-09-01 10:00;METAR CYUL 011000Z 14004KT 20SM BKN080 17/14 A3042 RMK AC6 SLP300
CYUL;2002-09-01 11:00;METAR CYUL 011100Z 14006KT 20SM BKN080 BKN240 16/14 A3042 RMK AC5CI0 SLP302
CYUL;2002-09-01 12:00;METAR CYUL 011200Z 15006KT 20SM SCT080 SCT240 17/14 A3042 RMK AC3CI1 SLP303
CYUL;2002-09-01 13:00;METAR CYUL 011300Z 17004KT 20SM FEW080 BKN240 18/14 A3041 RMK AC2CI2 SLP300
CYUL;2002-09-01 14:00;METAR CYUL 011400Z 15004KT 20SM FEW080 BKN240 19/15 A3040 RMK AC1CI5 ACC ASOCTD SLP295 SLP295
CYUL;2002-09-01 15:00;METAR CYUL 011500Z 17005KT 20SM FEW080 BKN230 20/15 A3039 RMK AC2CI4 SLP291
CYUL;2002-09-01 16:00;METAR CYUL 011600Z 19006KT 15SM FEW080 BKN200 22/14 A3037 RMK AC2CI3 SLP285
CYUL;2002-09-01 17:00;METAR CYUL 011700Z 13007KT 15SM SCT084 BKN230 23/15 A3035 RMK AC3CI2 SLP277
CYUL;2002-09-01 18:00;METAR CYUL 011800Z 17006KT 15SM FEW080 SCT200 26/15 A3032 RMK AC2CI2 SLP268
CYUL;2002-09-01 19:00;METAR CYUL 011900Z 14013G18KT 15SM FEW080 SCT200 27/15 A3030 RMK AC2CI2 SLP260
CYUL;2002-09-01 21:00;METAR CYUL 012100Z 14013KT 15SM FEW075 BKN200 26/14 A3026 RMK AC2CI2 SLP246
CYUL;2002-09-01 22:00;METAR CYUL 012200Z 16013G18KT 15SM SCT075 BKN200 25/12 A3025 RMK AC3CI2 SLP244
CYUL;2002-09-01 23:00;METAR CYUL 012300Z 15013KT 20SM SCT100 BKN210 22/08 A3023 RMK AC3CI2 SLP237
CYUL;2002-09-02 00:00;METAR CYUL 020000Z 16010G15KT 20SM SCT090 SCT210 21/07 A3023 RMK AC3CI1 SLP237
CYUL;2002-09-02 01:00;METAR CYUL 020100Z 16011G16KT 15SM SCT090 20/07 A3023 RMK AC3 SLP237
CYUL;2002-09-02 02:00;METAR CYUL 020200Z 16013KT 15SM FEW090 FEW210 19/09 A3023 RMK AC1CI1 SLP236
CYUL;2002-09-02 03:00;METAR CYUL 020300Z 17014KT 15SM BKN170 19/09 A3022 RMK AC5 SLP234
CYUL;2002-09-02 04:00;METAR CYUL 020400Z 16010KT 15SM FEW160 18/10 A3022 RMK AC1 SLP232
CYUL;2002-09-02 05:00;METAR CYUL 020500Z 18004KT 15SM FEW160 17/10 A3022 RMK AC2 SLP233
CYUL;2002-09-02 06:00;METAR CYUL 020600Z 15005KT 15SM FEW160 15/10 A3021 RMK AC1 SLP230
CYUL;2002-09-02 07:00;METAR CYUL 020700Z 16004KT 15SM FEW160 15/10 A3020 RMK AC2 SLP227
CYUL;2002-09-02 08:00;METAR CYUL 020800Z 13007KT 15SM SKC 13/10 A3019 RMK SLP225
CYUL;2002-09-02 09:00;METAR CYUL 020900Z 13002KT 15SM FEW160 14/10 A3019 RMK AC1 SLP224
CYUL;2002-09-02 10:00;METAR CYUL 021000Z 13003KT 20SM FEW160 14/09 A3020 RMK AC1 SLP226
CYUL;2002-09-02 11:00;METAR CYUL 021100Z 13004KT 30SM FEW160 14/10 A3020 RMK AC1 SLP226
CYUL;2002-09-02 12:00;METAR CYUL 021200Z 13004KT 30SM FEW160 16/09 A3020 RMK AC1 SLP226
CYUL;2002-09-02 13:00;METAR CYUL 021300Z 13004KT 30SM FEW160 18/08 A3019 RMK AC1 SLP224
CYUL;2002-09-02 14:00;METAR CYUL 021400Z 15003KT 30SM FEW160 20/09 A3019 RMK AC1 SLP224
CYUL;2002-09-02 15:00;METAR CYUL 021500Z 12003KT 30SM FEW160 22/11 A3018 RMK AC1 SLP219
CYUL;2002-09-02 16:00;METAR CYUL 021600Z 18005KT 20SM FEW160 22/12 A3015 RMK AC1 SLP211
CYUL;2002-09-02 17:00;METAR CYUL 021700Z 12005KT 20SM FEW160 25/11 A3013 RMK AC1 SLP202
CYUL;2002-09-02 18:00;METAR CYUL 021800Z 17004KT 20SM FEW160 FEW230 25/11 A3009 RMK AC1CI0 SLP189
CYUL;2002-09-02 19:00;METAR CYUL 021900Z 14009KT 20SM FEW160 FEW230 25/12 A3006 RMK AC1CI1 SLP181
CYUL;2002-09-02 20:00;METAR CYUL 022000Z 15004KT 20SM FEW020 FEW160 FEW230 26/10 A3004 RMK CU1AC1CI2 SLP173 SLP173
CYUL;2002-09-02 21:00;METAR CYUL 022100Z 33004KT 20SM SCT080 SCT230 26/10 A3003 RMK AC3CI1 SLP169
CYUL;2002-09-02 22:00;METAR CYUL 022200Z 36002KT 20SM FEW020 BKN080 BKN230 25/10 A3003 RMK CU1AC6CI1 SLP168 SLP168
CYUL;2002-09-02 23:00;METAR CYUL 022300Z 14006KT 30SM FEW020 BKN080 BKN230 25/11 A3001 RMK CU1AC6CI1 SLP164 SLP164
CYUL;2002-09-03 00:00;METAR CYUL 030000Z 13006KT 20SM BKN080 24/13 A3001 RMK AC6 SLP163
CYUL;2002-09-03 01:00;METAR CYUL 030100Z 15010KT 15SM BKN080 23/15 A3001 RMK AC6 SLP162
CYUL;2002-09-03 02:00;METAR CYUL 030200Z 15011KT 15SM FEW080 21/15 A3000 RMK AC2 SLP159
CYUL;2002-09-03 03:00;METAR CYUL 030300Z 15010G15KT 15SM FEW080 20/15 A3000 RMK AC1 SLP158
CYUL;2002-09-03 04:00;METAR CYUL 030400Z 15009KT 15SM FEW060 20/15 A3000 RMK SC1 SLP159
CYUL;2002-09-03 05:00;METAR CYUL 030500Z 16009KT 15SM FEW060 19/15 A3000 RMK SC1 SLP160
CYUL;2002-09-03 06:00;METAR CYUL 030600Z 17007KT 15SM SKC 19/15 A3000 RMK SLP158
CYUL;2002-09-03 07:00;METAR CYUL 030700Z 15007KT 15SM FEW240 18/15 A2999 RMK CI1 SLP155
CYUL;2002-09-03 08:00;METAR CYUL 030800Z 16009KT 15SM SKC 18/15 A2998 RMK SLP153
CYUL;2002-09-03 09:00;METAR CYUL 030900Z 16005KT 15SM SKC 17/15 A2998 RMK SLP151
CYUL;2002-09-03 10:00;METAR CYUL 031000Z 14008KT 15SM FEW070 SCT240 17/15 A2996 RMK AC2CI0 SLP146
CYUL;2002-09-03 11:00;METAR CYUL 031100Z 14008KT 30SM FEW180 BKN240 17/15 A2996 RMK AC1CI2 SLP147
CYUL;2002-09-03 12:00;METAR CYUL 031200Z 15008KT 30SM FEW180 BKN240 19/15 A2998 RMK AC1CI2 SLP151
CYUL;2002-09-03 13:00;METAR CYUL 031300Z 13009KT 30SM SCT180 BKN240 21/16 A2995 RMK AC3CI2 SLP143
CYUL;2002-09-03 14:00;METAR CYUL 031400Z 14009KT 30SM BKN150 BKN220 22/16 A2996 RMK AC4CI2 SLP145
CYUL;2002-09-03 15:00;METAR CYUL 031500Z 17009KT 30SM FEW040 SCT150 BKN220 25/17 A2994 RMK CU1AC2CI1 SLP138 SLP138 SLP130
CYUL;2002-09-03 17:00;METAR CYUL 031700Z 13013KT 30SM FEW050 BKN220 27/16 A2988 RMK CU1CI4 SLP120
CYUL;2002-09-03 18:00;METAR CYUL 031800Z 15017G22KT 30SM FEW160 BKN220 28/16 A2985 RMK AC2CI1 SLP109
CYUL;2002-09-03 19:00;METAR CYUL 031900Z 15015G21KT 30SM FEW160 OVC230 28/16 A2983 RMK AS2CI2 SLP102
CYUL;2002-09-03 20:00;METAR CYUL 032000Z 15016G21KT 30SM BKN130 OVC230 28/16 A2980 RMK AS5CI2 ACC CC ASOCTD SLP092 ASOCTD SLP092
CYUL;2002-09-03 21:00;METAR CYUL 032100Z 15018G24KT 30SM BKN100 OVC230 27/16 A2978 RMK AS5CI2 SLP083
CYUL;2002-09-03 22:00;METAR CYUL 032200Z 15016G24KT 30SM SCT040 BKN090 OVC180 27/16 A2976 RMK SC3AC2AS2 DSNT LTNG N QUAD SLP076 DSNT LTNG N QUAD SLP076
CYUL;2002-09-03 23:00;METAR CYUL 032300Z 16019G27KT 30SM SCT040 BKN080 BKN180 26/16 A2974 RMK
CYUL;2002-09-04 00:00;METAR CYUL 040000Z 34009G25KT 6SM -TSRA BKN040 OVC080 22/19 A2977 RMK SC6AC2 CB EMBDD PRESS RR SLP082 EMBDD PRESS RR SLP082
CYUL;2002-09-04 01:00;METAR CYUL 040100Z 09010KT 12SM -TSRA BKN050 OVC080 21/19 A2979 RMK SC6AC2 CB EMBDD SLP087 EMBDD SLP087
CYUL;2002-09-04 02:00;METAR CYUL 040200Z 14006KT 12SM -SHRA BKN040 OVC080 22/20 A2979 RMK SC6AC2 RETS SLP087 SLP087
CYUL;2002-09-04 03:00;METAR CYUL 040300Z 18006KT 12SM TS BKN040 OVC100 22/20 A2979 RMK SC5AC3 CB
CYUL;2002-09-04 04:00;METAR CYUL 040400Z 20010KT 12SM BKN040 OVC074 23/20 A2979 RMK SC5AC3 RETS SLP088
CYUL;2002-09-04 05:00;METAR CYUL 040500Z 25012KT 12SM FEW040 SCT080 22/19 A2981 RMK SC2AC1 SLP093
CYUL;2002-09-04 06:00;METAR CYUL 040600Z 25011KT 12SM FEW040 20/15 A2981 RMK SC1 SLP095
CYUL;2002-09-04 07:00;METAR CYUL 040700Z 26011KT 15SM FEW045 19/14 A2982 RMK SC1 SLP099
CYUL;2002-09-04 08:00;METAR CYUL 040800Z 25007KT 15SM SKC 18/12 A2983 RMK SLP101
CYUL;2002-09-04 09:00;METAR CYUL 040900Z 24007KT 15SM SKC 18/12 A2984 RMK SLP104
CYUL;2002-09-04 10:00;METAR CYUL 041000Z 27002KT 15SM FEW030 16/12 A2985 RMK SC1 SLP108
CYUL;2002-09-04 11:00;METAR CYUL 041100Z 23003KT 30SM SKC 17/14 A2986 RMK SLP112
CYUL;2002-09-04 12:00;METAR CYUL 041200Z 23005KT 30SM FEW150 19/14 A2987 RMK AC1 SLP116
CYUL;2002-09-04 13:00;METAR CYUL 041300Z 25008KT 30SM FEW150 20/14 A2988 RMK AC1 SLP118
CYUL;2002-09-04 14:00;METAR CYUL 041400Z 21011KT 30SM FEW040 FEW150 21/14 A2988 RMK CU1AC1 SLP120
CYUL;2002-09-04 15:00;METAR CYUL 041500Z 27011KT 30SM FEW040 FEW150 FEW240 23/15 A2989 RMK CU1AC1CI1 SLP121 SLP121
CYUL;2002-09-04 16:00;METAR CYUL 041600Z 27015KT 30SM FEW040 FEW150 FEW240 24/15 A2988 RMK CU2AC1CI1 SLP118 SLP118
CYUL;2002-09-04 17:00;METAR CYUL 041700Z 26011G19KT 30SM FEW050 FEW150 25/14 A2988 RMK CU2AC1
CYUL;2002-09-04 18:00;METAR CYUL 041800Z 25015G21KT 30SM SCT050 BKN150 24/13 A2988 RMK CU4AC2 SLP119
CYUL;2002-09-04 19:00;METAR CYUL 041900Z 25017G22KT 30SM FEW050 BKN150 BKN210 25/13 A2987 RMK CU2AC2CI0 SLP117 SLP117
CYUL;2002-09-04 20:00;METAR CYUL 042000Z 27010G18KT 30SM FEW050 BKN070 BKN210 24/13 A2988 RMK CU1AS6CI0 SLP120
CYUL;2002-09-04 21:00;METAR CYUL 042100Z 25012G17KT 30SM BKN063 24/13 A2988 RMK SC7 SLP120
CYUL;2002-09-04 22:00;METAR CYUL 042200Z 30011G16KT 30SM FEW050 OVC065 23/14 A2990 RMK CU2SC6 SLP126
CYUL;2002-09-04 23:00;METAR CYUL 042300Z 32010KT 30SM OVC050 22/14 A2992 RMK SC8 SLP133
CYUL;2002-09-05 00:00;METAR CYUL 050000Z 31011G17KT 20SM OVC050 21/14 A2994 RMK SC8 SLP140
CYUL;2002-09-05 01:00;METAR CYUL 050100Z 33011G16KT 15SM BKN053 19/13 A2997 RMK SC6 SLP149
CYUL;2002-09-05 02:00;METAR CYUL 050200Z 32006KT 15SM FEW055 18/13 A2998 RMK SC2 SLP151
CYUL;2002-09-05 03:00;METAR CYUL 050300Z 30006KT 15SM FEW043 17/13 A2998 RMK SC1 SLP153
CYUL;2002-09-05 04:00;METAR CYUL 050400Z 30009KT 15SM FEW043 17/13 A2998 RMK SC1 SLP154
CYUL;2002-09-05 05:00;METAR CYUL 050500Z 31008KT 15SM FEW040 16/12 A2999 RMK SC1 SLP157
CYUL;2002-09-05 06:00;METAR CYUL 050600Z 30004KT 15SM FEW040 14/11 A2999 RMK SC1 SLP155
CYUL;2002-09-05 07:00;METAR CYUL 050700Z 29004KT 15SM BKN030 15/11 A2998 RMK SC5 SLP153
CYUL;2002-09-05 08:00;METAR CYUL 050800Z 31009KT 15SM FEW030 15/11 A3000 RMK SC2 SLP158
CYUL;2002-09-05 09:00;METAR CYUL 050900Z 31006KT 15SM FEW030 14/10 A3002 RMK SC1 SLP166
CYUL;2002-09-05 10:00;METAR CYUL 051000Z 28006KT 15SM FEW030 FEW050 13/10 A3004 RMK SC2SC1 SLP173
CYUL;2002-09-05 11:00;METAR CYUL 051100Z 29007KT 30SM FEW040 FEW200 13/10 A3006 RMK SC1CC1 CC TR SLP180
CYUL;2002-09-05 12:00;METAR CYUL 051200Z 30012KT 30SM FEW035 FEW240 15/09 A3008 RMK SC1CI0 SLP186
CYUL;2002-09-05 13:00;METAR CYUL 051300Z 32011G18KT 30SM FEW035 FEW240 15/06 A3008 RMK SC1CI1 SC TR SLP188 SLP188
CYUL;2002-09-05 14:00;METAR CYUL 051400Z 35010G16KT 30SM FEW040 FEW240 16/06 A3010 RMK CU1CI1 SLP192
CYUL;2002-09-05 15:00;METAR CYUL 051500Z 36009G16KT 30SM FEW045 FEW240 17/06 A3009 RMK CU1CI1 SLP189
CYUL;2002-09-05 16:00;METAR CYUL 051600Z 30009KT 30SM FEW045 FEW240 18/07 A3008 RMK CU1CI1
CYUL;2002-09-05 17:00;METAR CYUL 051700Z 31012G17KT 30SM FEW050 FEW240 19/06 A3008 RMK CU1CI1
CYUL;2002-09-05 18:00;METAR CYUL 051800Z 26011G16KT 30SM FEW050 FEW240 20/07 A3007 RMK CF1CI1 SLP182
CYUL;2002-09-05 19:00;METAR CYUL 051900Z 25014KT 30SM FEW050 FEW240 21/08 A3004 RMK CF1CI0 SLP174
CYUL;2002-09-05 20:00;METAR CYUL 052000Z 31014G19KT 30SM FEW050 FEW240 22/08 A3004 RMK CF1CI0
CYUL;2002-09-05 21:00;METAR CYUL 052100Z 29015G21KT 30SM FEW240 22/06 A3004 RMK CI0 SLP173
CYUL;2002-09-05 22:00;METAR CYUL 052200Z 30014G20KT 30SM SKC 21/06 A3006 RMK SLP178
CYUL;2002-09-05 23:00;METAR CYUL 052300Z 31014G19KT 30SM SKC 20/05 A3006 RMK SLP180
CYUL;2002-09-06 00:00;METAR CYUL 060000Z 31008KT 30SM FEW240 18/06 A3008 RMK CI1 SLP188
CYUL;2002-09-06 01:00;METAR CYUL 060100Z 30007KT 15SM SKC 16/05 A3010 RMK SLP194
CYUL;2002-09-06 02:00;METAR CYUL 060200Z 30008KT 15SM SKC 16/06 A3010 RMK SLP194
CYUL;2002-09-06 03:00;METAR CYUL 060300Z 29005KT 15SM SKC 15/06 A3011 RMK SLP198
CYUL;2002-09-06 04:00;METAR CYUL 060400Z 28005KT 15SM SKC 13/06 A3012 RMK SLP201
CYUL;2002-09-06 05:00;METAR CYUL 060500Z 27003KT 15SM SKC 13/06 A3012 RMK SLP201
CYUL;2002-09-06 06:00;METAR CYUL 060600Z 27006KT 15SM SKC 11/06 A3013 RMK SLP202
CYUL;2002-09-06 07:00;METAR CYUL 060700Z 29006KT 15SM SKC 11/06 A3014 RMK SLP207
CYUL;2002-09-06 08:00;METAR CYUL 060800Z 30006KT 15SM SKC 12/07 A3015 RMK SLP211
CYUL;2002-09-06 09:00;METAR CYUL 060900Z 29005KT 15SM SKC 10/06 A3016 RMK SLP214
CYUL;2002-09-06 10:00;METAR CYUL 061000Z 00000KT 15SM FEW050 FEW240 11/07 A3018 RMK SC1CI0 SLP221
CYUL;2002-09-06 11:00;METAR CYUL 061100Z 00000KT 30SM SKC 11/07 A3019 RMK SLP223
CYUL;2002-09-06 12:00;METAR CYUL 061200Z 23003KT 30SM SKC 13/10 A3020 RMK SLP227
CYUL;2002-09-06 13:00;METAR CYUL 061300Z 20003KT 30SM FEW240 16/11 A3020 RMK CI1 SLP228
CYUL;2002-09-06 14:00;METAR CYUL 061400Z 19003KT 30SM FEW240 18/08 A3019 RMK CI1 SLP226
CYUL;2002-09-06 15:00;METAR CYUL 061500Z 19007KT 30SM FEW240 19/07 A3019 RMK CI1 SLP223
CYUL;2002-09-06 16:00;METAR CYUL 061600Z 19010KT 30SM FEW150 FEW240 20/08 A3018 RMK AC1CI1 SLP220
CYUL;2002-09-06 17:00;METAR CYUL 061700Z 18012KT 30SM FEW150 FEW240 21/09 A3016 RMK AC1CI1 SLP214
CYUL;2002-09-06 18:00;METAR CYUL 061800Z 20010G17KT 30SM BKN240 26/09 A3014 RMK CI3 SLP207
CYUL;2002-09-06 19:00;METAR CYUL 061900Z 23010KT 30SM SCT220 24/10 A3013 RMK CI2 SLP203
CYUL;2002-09-06 20:00;METAR CYUL 062000Z 23010G16KT 30SM FEW220 25/10 A3012 RMK CI1 SLP200
CYUL;2002-09-06 21:00;METAR CYUL 062100Z 22012G17KT 30SM SCT230 24/11 A3011 RMK CC3 SLP198
CYUL;2002-09-06 22:00;METAR CYUL 062200Z 23012G17KT 30SM SCT100 BKN230 24/10 A3012 RMK AC3CI1 ACC ASOCTD SLP200
CYUL;2002-09-06 23:00;METAR CYUL 062300Z 23014KT 30SM SCT100 BKN230 23/10 A3012 RMK AC3CI1 SLP199
CYUL;2002-09-07 00:00;METAR CYUL 070000Z 24009KT 30SM FEW100 FEW230 22/10 A3012 RMK AC2CI1 SLP201
CYUL;2002-09-07 01:00;METAR CYUL 070100Z 25009KT 15SM FEW100 FEW230 21/11 A3014 RMK AC1CI0 SLP207
CYUL;2002-09-07 02:00;METAR CYUL 070200Z 23006KT 15SM SKC 21/11 A3015 RMK SLP210
CYUL;2002-09-07 03:00;METAR CYUL 070300Z 25010KT 15SM SKC 20/11 A3016 RMK SLP213
CYUL;2002-09-07 04:00;METAR CYUL 070400Z 25006KT 15SM FEW070 19/11 A3016 RMK AC1 SLP215
CYUL;2002-09-07 05:00;METAR CYUL 070500Z 24004KT 15SM FEW070 19/12 A3018 RMK AC2 SLP219
CYUL;2002-09-07 06:00;METAR CYUL 070600Z 24007KT 15SM FEW070 18/12 A3017 RMK AC1 SLP218
CYUL;2002-09-07 07:00;METAR CYUL 070700Z 24010KT 15SM BKN070 18/12 A3018 RMK AC6 SLP219
CYUL;2002-09-07 08:00;METAR CYUL 070800Z 25006KT 15SM BKN070 18/12 A3019 RMK AC5 SLP224
CYUL;2002-09-07 09:00;METAR CYUL 070900Z 23004KT 15SM BKN060 BKN070 18/12 A3020 RMK SC6AC2 SLP228
CYUL;2002-09-07 10:00;METAR CYUL 071000Z 23007KT 15SM FEW070 17/11 A3022 RMK AC2 SLP233
CYUL;2002-09-07 11:00;METAR CYUL 071100Z 26009KT 30SM FEW070 FEW240 17/11 A3023 RMK AC1CI1 CI TR SLP237
CYUL;2002-09-07 13:00;METAR CYUL 071300Z 25010KT 20SM FEW080 FEW240 20/12 A3025 RMK AC1CI1 SLP245
CYUL;2002-09-07 14:00;METAR CYUL 071400Z 25008KT 20SM FEW080 FEW240 22/13 A3025 RMK AC1CI1
CYUL;2002-09-07 15:00;METAR CYUL 071500Z 20010KT 20SM FEW150 FEW240 23/14 A3025 RMK AC1CI1
CYUL;2002-09-07 16:00;METAR CYUL 071600Z 20011KT 20SM FEW240 25/14 A3025 RMK CI1 SLP243
CYUL;2002-09-07 17:00;METAR CYUL 071700Z 19011KT 30SM FEW240 26/14 A3023 RMK CI1 SLP238
CYUL;2002-09-07 18:00;METAR CYUL 071800Z 20012KT 30SM FEW150 FEW240 27/14 A3022 RMK AC1CI1 SLP232
CYUL;2002-09-07 19:00;METAR CYUL 071900Z 20012KT 30SM FEW150 FEW240 28/14 A3020 RMK AC1CI0 SLP227
CYUL;2002-09-07 20:00;METAR CYUL 072000Z 22010KT 30SM FEW150 FEW240 29/14 A3019 RMK AC1CI0 SLP222
CYUL;2002-09-07 21:00;METAR CYUL 072100Z 23011KT 30SM FEW160 FEW250 29/14 A3018 RMK AC1CI0 SLP221
CYUL;2002-09-07 22:00;METAR CYUL 072200Z 22008KT 30SM FEW250 29/13 A3019 RMK CI1 SLP223
CYUL;2002-09-07 23:00;METAR CYUL 072300Z 20007KT 30SM FEW250 28/14 A3019 RMK CI0 SLP224
CYUL;2002-09-08 00:00;METAR CYUL 080000Z 21006KT 30SM FEW250 26/15 A3020 RMK CI0 SLP228
CYUL;2002-09-08 01:00;METAR CYUL 080100Z 17004KT 15SM SKC 22/15 A3021 RMK SLP230
CYUL;2002-09-08 02:00;METAR CYUL 080200Z 19008KT 15SM SKC 23/14 A3018 RMK SLP221
CYUL;2002-09-08 03:00;METAR CYUL 080300Z 20007KT 15SM SKC 23/14 A3018 RMK SLP219
CYUL;2002-09-08 04:00;METAR CYUL 080400Z 23008KT 15SM FEW120 23/15 A3019 RMK AC1 SLP223
CYUL;2002-09-08 05:00;METAR CYUL 080500Z 21008KT 15SM SKC 22/16 A3018 RMK SLP220
CYUL;2002-09-08 06:00;METAR CYUL 080600Z 21008KT 15SM SKC 21/14 A3017 RMK SLP216
CYUL;2002-09-08 07:00;METAR CYUL 080700Z 22006KT 15SM SKC 21/13 A3017 RMK SLP216
CYUL;2002-09-08 08:00;METAR CYUL 080800Z 26005KT 15SM FEW090 17/13 A3017 RMK AC1 SLP218
CYUL;2002-09-08 09:00;METAR CYUL 080900Z 21002KT 15SM FEW090 19/13 A3018 RMK AC1 SLP219
CYUL;2002-09-08 10:00;METAR CYUL 081000Z 22004KT 15SM BKN160 19/14 A3020 RMK AC5 SLP226
CYUL;2002-09-08 11:00;METAR CYUL 081100Z 22006KT 15SM BKN190 20/15 A3019 RMK AC6 SLP224
CYUL;2002-09-08 12:00;METAR CYUL 081200Z 22008KT 15SM FEW200 21/15 A3020 RMK CC2 SLP226
CYUL;2002-09-08 13:00;METAR CYUL 081300Z 23011KT 15SM FEW190 22/14 A3019 RMK AC1 SLP223
CYUL;2002-09-08 14:00;METAR CYUL 081400Z 23011G18KT 15SM FEW190 23/15 A3018 RMK AC1 SLP219
CYUL;2002-09-08 15:00;METAR CYUL 081500Z 23012KT 15SM FEW210 26/15 A3016 RMK CI0 SLP215
CYUL;2002-09-08 16:00;METAR CYUL 081600Z 21012KT 12SM FEW210 27/15 A3015 RMK CI1 HAZY SLP209
CYUL;2002-09-08 17:00;METAR CYUL 081700Z 22012G17KT 12SM FEW210 29/16 A3012 RMK CI1 HAZY SLP200
CYUL;2002-09-08 18:00;METAR CYUL 081800Z 22013KT 10SM SCT210 31/16 A3011 RMK CI2 HAZY SLP198
CYUL;2002-09-08 19:00;METAR CYUL 081900Z 22015KT 12SM BKN210 32/17 A3010 RMK CI2 HAZY SLP194
CYUL;2002-09-08 20:00;METAR CYUL 082000Z 23014KT 12SM BKN210 32/17 A3008 RMK CI3 HAZY SLP186
CYUL;2002-09-08 21:00;METAR CYUL 082100Z 23016G21KT 12SM BKN210 32/17 A3006 RMK CI3 HAZY SLP180
CYUL;2002-09-08 22:00;METAR CYUL 082200Z 22012KT 12SM FEW140 BKN210 30/18 A3006 RMK AC2CI2 SLP180
CYUL;2002-09-08 23:00;METAR CYUL 082300Z 22012KT 12SM FEW140 BKN210 30/18 A3006 RMK AC2CI2 SLP178
CYUL;2002-09-09 00:00;METAR CYUL 090000Z 24014KT 15SM SCT230 29/17 A3006 RMK CI3 SLP181
CYUL;2002-09-09 01:00;METAR CYUL 090100Z 24012KT 15SM FEW230 28/16 A3008 RMK CI2 SLP186
CYUL;2002-09-09 02:00;METAR CYUL 090200Z 25017G24KT 15SM FEW230 28/15 A3008 RMK CI1 SLP186
CYUL;2002-09-09 03:00;METAR CYUL 090300Z 25011G16KT 15SM FEW240 27/15 A3008 RMK CI1 SLP186
CYUL;2002-09-09 04:00;METAR CYUL 090400Z 23006KT 15SM FEW240 25/15 A3008 RMK CI2 SLP187
CYUL;2002-09-09 05:00;METAR CYUL 090500Z 25009KT 15SM FEW240 25/14 A3008 RMK CI2 SLP187
CYUL;2002-09-09 06:00;METAR CYUL 090600Z 25011KT 15SM FEW240 24/14 A3009 RMK CI2 SLP191
CYUL;2002-09-09 07:00;METAR CYUL 090700Z 24008KT 15SM FEW240 23/14 A3008 RMK CI1 SLP188
CYUL;2002-09-09 08:00;METAR CYUL 090800Z 25008KT 15SM FEW240 23/15 A3008 RMK CI2 SLP185
CYUL;2002-09-09 09:00;METAR CYUL 090900Z 25007KT 15SM FEW240 22/14 A3008 RMK CI2 SLP186
CYUL;2002-09-09 10:00;METAR CYUL 091000Z 24009KT 15SM FEW240 21/14 A3008 RMK CI2 SLP186
CYUL;2002-09-09 11:00;METAR CYUL 091100Z 25009KT 15SM FEW240 21/14 A3009 RMK CI2 SLP189
CYUL;2002-09-09 12:00;METAR CYUL 091200Z 25009KT 7SM SCT210 22/14 A3008 RMK CI2 HAZY VSBY S-W-NW 15 SLP188 SLP188
CYUL;2002-09-09 13:00;METAR CYUL 091300Z 24010KT 9SM BKN240 23/15 A3008 RMK CI2 HAZY SLP185
CYUL;2002-09-09 14:00;METAR CYUL 091400Z 25008KT 12SM FEW240 25/16 A3007 RMK CI1 HAZY SLP182
CYUL;2002-09-09 15:00;METAR CYUL 091500Z 21008KT 10SM FEW240 27/16 A3006 RMK CI1 HAZY SLP180
CYUL;2002-09-09 16:00;METAR CYUL 091600Z 22010KT 10SM FEW240 28/17 A3004 RMK CI1 HAZY SLP174
CYUL;2002-09-09 17:00;METAR CYUL 091700Z 21011G16KT 10SM FEW240 29/17 A3003 RMK CI1 HAZY SLP168
CYUL;2002-09-09 18:00;METAR CYUL 091800Z 22012KT 10SM FEW240 31/17 A3000 RMK CI1 HAZY SLP159
CYUL;2002-09-09 19:00;METAR CYUL 091900Z 22012KT 10SM FEW240 33/18 A2998 RMK CI1 HAZY SLP153
CYUL;2002-09-09 20:00;METAR CYUL 092000Z 22014KT 10SM FEW240 33/17 A2996 RMK CI1 HAZY SLP145
CYUL;2002-09-09 21:00;METAR CYUL 092100Z 22014KT 10SM FEW240 33/16 A2994 RMK CI0 HAZY SLP137
CYUL;2002-09-09 22:00;METAR CYUL 092200Z 22012KT 10SM FEW240 32/16 A2993 RMK CI1 HAZY SLP134
CYUL;2002-09-09 23:00;METAR CYUL 092300Z 23008KT 12SM SKC 31/16 A2992 RMK HAZY SLP133
CYUL;2002-09-10 00:00;METAR CYUL 100000Z 24008KT 12SM SKC 30/17 A2992 RMK HAZY SLP131
CYUL;2002-09-10 01:00;METAR CYUL 100100Z 23008KT 15SM SKC 28/17 A2992 RMK SLP130
CYUL;2002-09-10 02:00;METAR CYUL 100200Z 23006KT 15SM SKC 27/17 A2991 RMK SLP129
CYUL;2002-09-10 03:00;METAR CYUL 100300Z 23009G17KT 15SM SKC 27/17 A2991 RMK SLP129
CYUL;2002-09-10 04:00;METAR CYUL 100400Z 24007KT 15SM SKC 26/16 A2990 RMK SLP126
CYUL;2002-09-10 05:00;METAR CYUL 100500Z 23010KT 15SM SKC 25/16 A2990 RMK SLP123
CYUL;2002-09-10 06:00;METAR CYUL 100600Z 23008KT 15SM SKC 24/16 A2989 RMK SLP120
CYUL;2002-09-10 07:00;METAR CYUL 100700Z 23008KT 15SM SKC 23/16 A2987 RMK SLP115
CYUL;2002-09-11 00:00;METAR CYUL 110000Z 24018KT 8SM BKN090 28/16 A2953 RMK AC6 HAZY SLP001
CYUL;2002-09-11 01:00;METAR CYUL 110100Z 26013G21KT 8SM -RA BKN120 25/19 A2952 RMK AC6 HAZY SLP996
CYUL;2002-09-11 02:00;METAR CYUL 110200Z 25008KT 7SM BKN093 23/19 A2951 RMK AC6 HAZY SLP994
CYUL;2002-09-11 03:00;METAR CYUL 110300Z 29017G29KT 4SM -RA OVC055 22/19 A2952 RMK SC8 SLP996
CYUL;2002-09-11 04:00;METAR CYUL 110400Z 21008KT 12SM SCT055 OVC140 22/19 A2948 RMK SC3AC5 SLP984
CYUL;2002-09-11 05:00;METAR CYUL 110500Z 24008KT 9SM FEW008 OVC120 21/19 A2945 RMK SF2AC6 SLP974
CYUL;2002-09-11 06:00;METAR CYUL 110600Z 23004KT 9SM FEW008 BKN140 21/19 A2943 RMK SF1AC5 SLP965
CYUL;2002-09-11 07:00;METAR CYUL 110700Z 26006KT 9SM FEW008 SCT060 BKN120 20/19 A2941 RMK SF2SC2AC2 SLP960 SLP960
CYUL;2002-09-11 08:00;METAR CYUL 110800Z 26003KT 9SM FEW008 OVC050 20/18 A2938 RMK SF1SC7 SLP950
CYUL;2002-09-11 09:00;METAR CYUL 110900Z 24003KT 9SM FEW008 BKN050 OVC120 21/18 A2934 RMK SF1SC5AC2 SLP937 SLP937
CYUL;2002-09-11 10:00;METAR CYUL 111000Z 26010KT 9SM -RA BKN014 OVC040 20/18 A2932 RMK SC6SC2 SLP929
CYUL;2002-09-11 11:00;METAR CYUL 111100Z 01021G32KT 2SM -RA BR FEW009 OVC035 13/12 A2937 RMK SF2SC6 SLP946 SLP946
CYUL;2002-09-11 12:00;METAR CYUL 111200Z 02023G29KT 2 1/2SM -RA BR SCT012 BKN049 13/12 A2938 RMK SF4SC3 SLP948 SLP948
CYUL;2002-09-11 13:00;METAR CYUL 111300Z 35014G22KT 12SM FEW014 BKN028 OVC050 13/12 A2941 RMK CF1SC6SC1 SLP960
CYUL;2002-09-11 14:00;METAR CYUL 111400Z 34019G24KT 20SM BKN025 OVC050 13/12 A2944 RMK SC7SC1 SLP969
CYUL;2002-09-11 15:00;METAR CYUL 111500Z 34015G20KT 2SM -RA BR OVC025 13/12 A2948 RMK SC8 SLP983
CYUL;2002-09-11 16:00;METAR CYUL 111600Z 33017G24KT 3SM -RA BR SCT010 OVC030 12/12 A2952 RMK CF3SC5 SLP995 SLP995
CYUL;2002-09-11 17:00;METAR CYUL 111700Z 32015G21KT 12SM -RA FEW010 SCT025 OVC059 13/12 A2956 RMK CF1SC3SC4 SLP009
CYUL;2002-09-11 18:00;METAR CYUL 111800Z 32016KT 3SM -RA BR BKN030 OVC051 12/12 A2958 RMK SC6SC2 SLP019
CYUL;2002-09-11 20:00;METAR CYUL 112000Z 32013KT 9SM -RA BKN057 OVC070 15/11 A2961 RMK SC6AC2 SLP029
CYUL;2002-09-11 21:00;METAR CYUL 112100Z 34012G24KT 20SM SCT054 BKN075 17/10 A2963 RMK SC3AC3 SLP035
CYUL;2002-09-11 22:00;METAR CYUL 112200Z 32014G19KT 20SM BKN040 BKN075 15/10 A2967 RMK SC6AC2 SLP047
CYUL;2002-09-11 23:00;METAR CYUL 112300Z 33014G22KT 20SM FEW058 BKN070 15/07 A2969 RMK SC2AC3 SLP055
CYUL;2002-09-12 00:00;METAR CYUL 120000Z 33015KT 15SM BKN072 14/06 A2973 RMK AC6 SLP067
CYUL;2002-09-12 01:00;METAR CYUL 120100Z 33012G19KT 15SM SCT070 13/05 A2976 RMK AC4 SLP079
CYUL;2002-09-12 02:00;METAR CYUL 120200Z 31009KT 15SM BKN060 12/05 A2978 RMK SC6 SLP084
CYUL;2002-09-12 03:00;METAR CYUL 120300Z 31009KT 15SM FEW060 11/05 A2979 RMK SC2 SLP089
CYUL;2002-09-12 04:00;METAR CYUL 120400Z 29009KT 15SM FEW060 11/05 A2980 RMK SC2 SLP093
CYUL;2002-09-12 05:00;METAR CYUL 120500Z 29010KT 15SM FEW060 11/05 A2982 RMK SC2 SLP097
CYUL;2002-09-12 06:00;METAR CYUL 120600Z 29009KT 15SM FEW060 10/05 A2983 RMK SC1 SLP102
CYUL;2002-09-12 07:00;METAR CYUL 120700Z 29008KT 15SM FEW060 09/05 A2984 RMK SC1 SLP107
CYUL;2002-09-12 08:00;METAR CYUL 120800Z 29010KT 15SM SKC 10/05 A2986 RMK SLP113
CYUL;2002-09-12 09:00;METAR CYUL 120900Z 29009KT 15SM SKC 09/05 A2987 RMK SLP116
CYUL;2002-09-12 10:00;METAR CYUL 121000Z 29006KT 20SM FEW220 07/04 A2989 RMK CI1 SLP122
CYUL;2002-09-12 11:00;METAR CYUL 121100Z 30006KT 20SM FEW030 08/05 A2992 RMK CU1 SLP133
CYUL;2002-09-12 12:00;METAR CYUL 121200Z 30009KT 20SM FEW030 10/05 A2995 RMK SC1 SLP142
CYUL;2002-09-12 13:00;METAR CYUL 121300Z 30006KT 30SM FEW025 11/04 A2996 RMK SC1 SLP146
CYUL;2002-09-12 14:00;METAR CYUL 121400Z 31008KT 30SM FEW025 12/04 A2997 RMK SC1 SLP149
CYUL;2002-09-12 15:00;METAR CYUL 121500Z 28008KT 30SM FEW035 13/05 A2996 RMK CU1 SLP148
CYUL;2002-09-12 16:00;METAR CYUL 121600Z 27012KT 30SM FEW035 14/05 A2995 RMK CU1 SLP143
CYUL;2002-09-12 17:00;METAR CYUL 121700Z 25013KT 30SM FEW040 FEW230 16/03 A2994 RMK CU1CI1 SLP139
CYUL;2002-09-12 18:00;METAR CYUL 121800Z 26018KT 30SM FEW040 FEW230 17/04 A2993 RMK CU1CI1 SLP136
CYUL;2002-09-12 19:00;METAR CYUL 121900Z 27014G22KT 30SM FEW040 FEW230 18/04 A2992 RMK CU1CI1 SLP132
CYUL;2002-09-12 20:00;METAR CYUL 122000Z 25016KT 30SM FEW080 FEW230 19/05 A2991 RMK AC1CI2 SLP130
CYUL;2002-09-12 21:00;METAR CYUL 122100Z 26014G21KT 30SM FEW100 SCT230 19/05 A2990 RMK AC1CI2 SLP126
CYUL;2002-09-12 22:00;METAR CYUL 122200Z 25009G15KT 30SM FEW160 SCT240 19/05 A2989 RMK AC1CI1 SLP123
CYUL;2002-09-12 23:00;METAR CYUL 122300Z 24008G15KT 30SM BKN130 BKN240 18/06 A2989 RMK AC5CI0
CYUL;2002-09-13 00:00;METAR CYUL 130000Z 25009KT 15SM SCT130 BKN240 17/05 A2990 RMK AC4CI0 SLP124
CYUL;2002-09-13 01:00;METAR CYUL 130100Z 23013KT 15SM FEW080 17/09 A2989 RMK AC2 SLP121
CYUL;2002-09-13 02:00;METAR CYUL 130200Z 24014G20KT 15SM FEW080 BKN230 17/10 A2988 RMK AC2CS4 SLP120
CYUL;2002-09-13 03:00;METAR CYUL 130300Z 23018KT 15SM FEW080 BKN210 16/10 A2986 RMK AC1CI2 SLP113
CYUL;2002-09-13 04:00;METAR CYUL 130400Z 23019KT 15SM BKN100 OVC210 17/10 A2985 RMK AC6CS2 SLP108
CYUL;2002-09-13 05:00;METAR CYUL 130500Z 24014G19KT 15SM FEW060 OVC110 17/11 A2983 RMK SC2AC6 SLP103
CYUL;2002-09-13 06:00;METAR CYUL 130600Z 23022G27KT 15SM OVC080 18/11 A2981 RMK AC8 SLP095
CYUL;2002-09-13 07:00;METAR CYUL 130700Z 24014G21KT 15SM FEW090 BKN150 18/13 A2979 RMK AC2AC4 SLP089
CYUL;2002-09-13 08:00;METAR CYUL 130800Z 24019G25KT 15SM FEW120 18/12 A2979 RMK AC2 SLP087
CYUL;2002-09-13 09:00;METAR CYUL 130900Z 24020G25KT 15SM BKN110 18/13 A2977 RMK AC5 SLP082
CYUL;2002-09-13 10:00;METAR CYUL 131000Z 25019G24KT 15SM BKN095 18/14 A2978 RMK AC7 SLP086
CYUL;2002-09-13 11:00;METAR CYUL 131100Z 25021G29KT 30SM BKN075 19/14 A2978 RMK AC7 SLP086
CYUL;2002-09-13 12:00;METAR CYUL 131200Z 25016G24KT 20SM -RA FEW028 BKN060 BKN120 18/14 A2980 RMK CF1SC5AC2 SLP091
CYUL;2002-09-13 13:00;METAR CYUL 131300Z 25019G26KT 30SM BKN068 BKN120 19/13 A2982 RMK AC6AC1 SLP099
CYUL;2002-09-13 14:00;METAR CYUL 131400Z 27016G28KT 30SM BKN075 19/13 A2983 RMK AC6 SLP103
CYUL;2002-09-13 15:00;METAR CYUL 131500Z 27017G22KT 30SM FEW035 SCT080 21/13 A2984 RMK CU1AC4 SLP105
CYUL;2002-09-13 16:00;METAR CYUL 131600Z 27015G22KT 30SM FEW035 FEW090 22/14 A2984 RMK CU1AC1 SLP107
CYUL;2002-09-13 17:00;METAR CYUL 131700Z 25015G20KT 30SM FEW045 24/15 A2985 RMK CU2 SLP110
CYUL;2002-09-13 18:00;METAR CYUL 131800Z 25014G21KT 30SM SCT045 SCT240 25/14 A2985 RMK CU4CI1 SLP109
CYUL;2002-09-13 19:00;METAR CYUL 131900Z 22014KT 30SM SCT070 BKN240 23/16 A2986 RMK AC4CI1
CYUL;2002-09-13 20:00;METAR CYUL 132000Z 31008G17KT 30SM SCT080 BKN240 26/10 A2988 RMK AC3CI1 SLP119
CYUL;2002-09-13 21:00;METAR CYUL 132100Z 33010G15KT 30SM FEW080 BKN240 25/10 A2990 RMK AC2CI2 SLP125
CYUL;2002-09-13 22:00;METAR CYUL 132200Z 35012KT 30SM FEW080 BKN240 23/09 A2993 RMK AC1CI2 SLP135
CYUL;2002-09-13 23:00;METAR CYUL 132300Z 34010KT 30SM FEW080 BKN240 21/09 A2995 RMK AC1CI4 CC ASOCTD SLP144 SLP144
CYUL;2002-09-14 00:00;METAR CYUL 140000Z 35009KT 15SM OVC240 19/08 A2998 RMK CS2 SLP153
CYUL;2002-09-14 01:00;METAR CYUL 140100Z 34005KT 15SM SCT240 17/07 A3001 RMK CS2 SLP162
CYUL;2002-09-14 02:00;METAR CYUL 140200Z 34006KT 15SM SCT240 16/06 A3003 RMK CS2 SLP169
CYUL;2002-09-14 03:00;METAR CYUL 140300Z 05003KT 15SM FEW240 16/07 A3006 RMK CI1 SLP178
CYUL;2002-09-14 04:00;METAR CYUL 140400Z 01002KT 15SM FEW120 14/07 A3008 RMK AC2 SLP187
CYUL;2002-09-14 05:00;METAR CYUL 140500Z 04004KT 15SM FEW120 15/07 A3009 RMK AC2 SLP191
CYUL;2002-09-14 06:00;METAR CYUL 140600Z 05002KT 15SM SCT080 15/07 A3010 RMK AC3 SLP193
CYUL;2002-09-14 07:00;METAR CYUL 140700Z 06006KT 15SM FEW080 15/07 A3011 RMK AC2 SLP198
CYUL;2002-09-14 08:00;METAR CYUL 140800Z 05006KT 15SM FEW080 15/07 A3012 RMK AC2 SLP199
CYUL;2002-09-14 09:00;METAR CYUL 140900Z 05009KT 15SM FEW080 14/07 A3011 RMK AC1 SLP197
CYUL;2002-09-14 10:00;METAR CYUL 141000Z 05010KT 15SM FEW080 BKN180 14/06 A3013 RMK AC1AC4 SLP202
CYUL;2002-09-14 11:00;METAR CYUL 141100Z 04009KT 30SM FEW080 SCT180 BKN240 13/06 A3013 RMK AC1AC2CI2 SLP204 SLP204
CYUL;2002-09-14 12:00;METAR CYUL 141200Z 05011KT 30SM FEW080 BKN240 14/06 A3012 RMK AC2CI3 SLP201
CYUL;2002-09-14 13:00;METAR CYUL 141300Z 05009KT 30SM FEW080 SCT180 BKN240 15/06 A3012 RMK AC2AC2CI2 ACC ASOCTD SLP201 ACC ASOCTD SLP201
CYUL;2002-09-14 14:00;METAR CYUL 141400Z 05007KT 30SM FEW080 SCT200 BKN240 16/08 A3011 RMK AC1CC2CI2 SLP198 SLP198
CYUL;2002-09-14 15:00;METAR CYUL 141500Z 09004KT 30SM FEW080 SCT200 OVC240 18/09 A3009 RMK AC2CC1CI5 SLP191 SLP191
CYUL;2002-09-14 16:00;METAR CYUL 141600Z 10006KT 30SM FEW080 OVC200 20/11 A3007 RMK AC1CS3 SLP182
CYUL;2002-09-14 17:00;METAR CYUL 141700Z 08004KT 30SM FEW180 BKN240 21/13 A3004 RMK AC2CI2 SLP172
CYUL;2002-09-14 18:00;METAR CYUL 141800Z 09008KT 30SM BKN180 BKN240 24/14 A3001 RMK AC4CI2 SLP162
CYUL;2002-09-14 19:00;METAR CYUL 141900Z 10004KT 20SM BKN180 OVC240 25/15 A2998 RMK AC5CI2 SLP153
CYUL;2002-09-14 20:00;METAR CYUL 142000Z 14010KT 20SM FEW180 OVC240 27/16 A2995 RMK AC1CI3 SLP143
CYUL;2002-09-14 21:00;METAR CYUL 142100Z 14006KT 20SM BKN100 OVC240 26/15 A2994 RMK AC6CI2 SLP139
CYUL;2002-09-14 22:00;METAR CYUL 142200Z 13003KT 20SM BKN100 OVC240 26/15 A2992 RMK AC6CI1 SLP134
CYUL;2002-09-14 23:00;METAR CYUL 142300Z 33007KT 20SM SCT100 OVC240 22/15 A2992 RMK AC4CS2 SLP131
CYUL;2002-09-15 00:00;METAR CYUL 150000Z 00000KT 15SM SCT100 BKN240 21/15 A2992 RMK AC4CS1 SLP133
CYUL;2002-09-15 01:00;METAR CYUL 150100Z 21008KT 15SM BKN080 23/16 A2992 RMK AC5 SLP132
CYUL;2002-09-15 02:00;METAR CYUL 150200Z 18011KT 15SM BKN090 OVC220 23/15 A2992 RMK AC6CS2 SLP134
CYUL;2002-09-15 03:00;METAR CYUL 150300Z 18012G17KT 15SM BKN080 24/16 A2991 RMK AC4 SLP129
CYUL;2002-09-15 04:00;METAR CYUL 150400Z 21014KT 15SM BKN068 24/16 A2990 RMK AC7 SLP127
CYUL;2002-09-15 05:00;METAR CYUL 150500Z 22012KT 15SM SCT050 23/17 A2989 RMK SC3 SLP122
CYUL;2002-09-15 06:00;METAR CYUL 150600Z 22020G30KT 3SM -TSRA BR OVC027 21/18 A2991 RMK SC8 CB EMBDD RERA SLP129 RERA SLP129
CYUL;2002-09-15 07:00;METAR CYUL 150700Z 23011KT 4SM -RA BR OVC058 20/19 A2990 RMK SC8 RETS SLP126
CYUL;2002-09-15 07:00;METAR CYUL 150700Z 23011KT 4SM -RA BR OVC058 20/19 A2990 RMK SC8 RETS DSNT LTNG SLP126
CYUL;2002-09-15 08:00;METAR CYUL 150800Z 22013KT 5SM -RA BR FEW017 FEW050 OVC090 20/18 A2989 RMK CF1SC1AC8 SLP122
CYUL;2002-09-15 09:00;METAR CYUL 150900Z 22013G18KT 5SM -RA BR FEW015 SCT050 OVC090 20/18 A2989 RMK CF1SC2AC6 SLP121 CF1SC2AC6 SLP121
CYUL;2002-09-15 10:00;METAR CYUL 151000Z 21008KT 5SM -RA BR FEW005 SCT025 OVC120 19/18 A2989 RMK SF2SC2AC4 SLP121
CYUL;2002-09-15 11:00;METAR CYUL 151100Z 23007KT 4SM BR FEW005 OVC035 20/18 A2992 RMK SF1SC8 SLP132
CYUL;2002-09-15 12:00;METAR CYUL 151200Z 24006KT 4SM -RA BR FEW009 OVC026 20/18 A2993 RMK SF1SC7 SLP137
CYUL;2002-09-15 13:00;METAR CYUL 151300Z 27008KT 4SM -RA BR BKN006 OVC012 20/18 A2995 RMK SF7SC1 SLP144
CYUL;2002-09-15 14:00;METAR CYUL 151400Z 32006KT 12SM FEW007 FEW025 OVC067 19/18 A2998 RMK SF1SC1AC8 SLP153 SLP153
CYUL;2002-09-15 15:00;METAR CYUL 151500Z 31005KT 12SM FEW025 OVC069 19/17 A3000 RMK SC2AC6 SLP159
CYUL;2002-09-15 16:00;METAR CYUL 151600Z 03008KT 15SM SCT020 OVC075 18/14 A3002 RMK SC3AC5 SLP167
CYUL;2002-09-15 17:00;METAR CYUL 151700Z 04008KT 20SM FEW020 SCT050 BKN075 18/14 A3003 RMK SC2SC2AC3 SLP171 SLP171
CYUL;2002-09-15 18:00;METAR CYUL 151800Z 04010KT 30SM FEW020 BKN044 BKN075 19/13 A3004 RMK CU1SC6AC2 SLP173 SLP173
CYUL;2002-09-15 19:00;METAR CYUL 151900Z 04008KT 30SM FEW020 BKN043 20/13 A3004 RMK CU1SC7
CYUL;2002-09-15 20:00;METAR CYUL 152000Z 04008KT 30SM BKN045 BKN230 20/13 A3004 RMK SC6CI2 SLP174
CYUL;2002-09-15 21:00;METAR CYUL 152100Z 04010KT 30SM BKN045 BKN230 20/11 A3006 RMK SC5CI2 SLP179
CYUL;2002-09-15 22:00;METAR CYUL 152200Z 05006KT 30SM SCT045 BKN230 19/11 A3007 RMK SC3CI2 SLP184
CYUL;2002-09-15 23:00;METAR CYUL 152300Z 07007KT 30SM FEW045 BKN230 19/11 A3007 RMK SC2CI2 SLP183
CYUL;2002-09-16 00:00;METAR CYUL 160000Z 06005KT 30SM FEW045 BKN230 18/11 A3008 RMK SC2CI2 SLP187
CYUL;2002-09-16 01:00;METAR CYUL 160100Z 07008KT 15SM BKN230 17/11 A3008 RMK CI4 SLP188
CYUL;2002-09-16 02:00;METAR CYUL 160200Z 07011KT 15SM BKN240 16/10 A3008 RMK CI5 SLP186
CYUL;2002-09-16 03:00;METAR CYUL 160300Z 06007KT 15SM FEW120 OVC240 16/08 A3007 RMK AC1CI7 SLP184
CYUL;2002-09-16 04:00;METAR CYUL 160400Z 06011KT 15SM FEW120 OVC220 15/08 A3007 RMK AC2CI6 SLP182
CYUL;2002-09-16 06:00;METAR CYUL 160600Z 02008KT 15SM BKN090 OVC220 14/09 A3004 RMK AC6CI2 SLP174
CYUL;2002-09-16 07:00;METAR CYUL 160700Z 03011KT 15SM BKN090 OVC220 13/08 A3003 RMK AC7CI1 SLP169
CYUL;2002-09-16 08:00;METAR CYUL 160800Z 04010KT 15SM BKN085 13/07 A3001 RMK AC7 SLP163
CYUL;2002-09-16 09:00;METAR CYUL 160900Z 02007KT 15SM BKN130 12/07 A3000 RMK AC7 SLP161
CYUL;2002-09-16 10:00;METAR CYUL 161000Z 02010KT 15SM BKN100 12/07 A3000 RMK AC7 SLP161
CYUL;2002-09-16 11:00;METAR CYUL 161100Z 02009KT 30SM BKN095 12/07 A3001 RMK AC7 SLP162
CYUL;2002-09-16 12:00;METAR CYUL 161200Z 02010G16KT 30SM FEW020 BKN100 12/07 A3002 RMK SC1AC6 SLP166
CYUL;2002-09-16 13:00;METAR CYUL 161300Z 01011KT 30SM FEW025 BKN100 BKN240 12/08 A3002 RMK SC1AC7CI1 SLP167 SLP167
CYUL;2002-09-16 14:00;METAR CYUL 161400Z 04008KT 30SM FEW030 BKN095 BKN240 13/08 A3002 RMK SC1AC7CI1 SLP165 SLP165
CYUL;2002-09-16 15:00;METAR CYUL 161500Z 02004KT 30SM FEW030 SCT095 15/10 A3002 RMK SC1AC4
CYUL;2002-09-16 16:00;METAR CYUL 161600Z 36003KT 30SM FEW025 BKN095 BKN230 17/10 A3001 RMK CU1AC5CI1 SLP163 SLP163
CYUL;2002-09-16 17:00;METAR CYUL 161700Z 12002KT 30SM FEW025 SCT095 SCT230 18/11 A2999 RMK SC1AC2CI1 SLP156 SLP156
CYUL;2002-09-16 18:00;METAR CYUL 161800Z 19006KT 30SM BKN030 BKN230 19/12 A2998 RMK CU5CI1 SLP153
CYUL;2002-09-16 19:00;METAR CYUL 161900Z 20007KT 30SM FEW030 20/12 A2997 RMK CU2 SLP148
CYUL;2002-09-16 20:00;METAR CYUL 162000Z 26004KT 30SM FEW030 21/11 A2995 RMK CU1 SLP143
CYUL;2002-09-16 21:00;METAR CYUL 162100Z 20009KT 30SM FEW030 FEW230 20/10 A2995 RMK CU1CI1 SLP141
CYUL;2002-09-16 22:00;METAR CYUL 162200Z 21007KT 30SM FEW030 FEW230 20/10 A2994 RMK CU1CI1 SLP139
CYUL;2002-09-16 23:00;METAR CYUL 162300Z 23008KT 30SM FEW030 FEW230 19/10 A2994 RMK CU1CI1 SLP140
CYUL;2002-09-17 00:00;METAR CYUL 170000Z 21005KT 20SM FEW230 18/10 A2995 RMK CI0 SLP141
CYUL;2002-09-17 01:00;METAR CYUL 170100Z 22007KT 15SM SKC 18/11 A2995 RMK SLP142
CYUL;2002-09-17 02:00;METAR CYUL 170200Z 23007KT 15SM SKC 18/11 A2995 RMK SLP143
CYUL;2002-09-17 03:00;METAR CYUL 170300Z 19009KT 15SM FEW070 16/12 A2996 RMK AC1 SLP145
CYUL;2002-09-17 04:00;METAR CYUL 170400Z 22009KT 15SM SKC 17/12 A2995 RMK SLP144
CYUL;2002-09-17 05:00;METAR CYUL 170500Z 22010KT 15SM SKC 16/12 A2995 RMK SLP144
CYUL;2002-09-17 06:00;METAR CYUL 170600Z 22006KT 15SM SKC 15/12 A2995 RMK SLP142
CYUL;2002-09-17 07:00;METAR CYUL 170700Z 26003KT 15SM FEW120 14/12 A2994 RMK AC1 SLP139
CYUL;2002-09-17 08:00;METAR CYUL 170800Z 25008KT 15SM FEW120 14/12 A2994 RMK AC1 SLP138
CYUL;2002-09-17 09:00;METAR CYUL 170900Z 24008KT 15SM FEW120 14/12 A2993 RMK AC2 SLP137
CYUL;2002-09-17 10:00;METAR CYUL 171000Z 24011KT 15SM FEW120 13/11 A2994 RMK AC2 SLP139
CYUL;2002-09-17 11:00;METAR CYUL 171100Z 24007KT 30SM FEW120 FEW240 12/10 A2995 RMK AC1CI0 SLP144
CYUL;2002-09-17 12:00;METAR CYUL 171200Z 23007KT 30SM FEW085 BKN200 13/10 A2997 RMK AC2CC3 SLP148
CYUL;2002-09-17 13:00;METAR CYUL 171300Z 24008KT 30SM FEW085 FEW200 15/09 A2998 RMK AC1CC1 SLP152
CYUL;2002-09-17 14:00;METAR CYUL 171400Z 23009KT 30SM FEW035 FEW100 17/10 A2998 RMK CU1AC1 SLP154
CYUL;2002-09-17 15:00;METAR CYUL 171500Z 27008KT 30SM FEW100 18/11 A2998 RMK AC1 SLP154
CYUL;2002-09-17 16:00;METAR CYUL 171600Z 23014KT 30SM FEW040 FEW100 20/12 A2997 RMK CU1AC1 CU TR SLP150
CYUL;2002-09-17 17:00;METAR CYUL 171700Z 30013KT 30SM FEW045 FEW090 21/13 A2997 RMK CU1AC1
CYUL;2002-09-17 18:00;METAR CYUL 171800Z 27014G19KT 30SM FEW045 FEW090 FEW200 22/13 A2997 RMK CU1AC1CC1 SLP149 SLP149
CYUL;2002-09-17 19:00;METAR CYUL 171900Z 30010G16KT 30SM FEW050 FEW100 FEW210 23/13 A2995 RMK CU1AC1CI0 SLP144
CYUL;2002-09-17 20:00;METAR CYUL 172000Z 26011G16KT 30SM FEW050 FEW240 23/13 A2995 RMK CU2CI0 SLP141
CYUL;2002-09-17 21:00;METAR CYUL 172100Z 31010G16KT 30SM FEW050 FEW240 23/11 A2994 RMK CU2CI0 SLP140
CYUL;2002-09-17 22:00;METAR CYUL 172200Z 25010KT 30SM FEW050 FEW100 FEW240 22/12 A2994 RMK SC1AC1CI0 AC TR SLP139 TR SLP139
CYUL;2002-09-17 23:00;METAR CYUL 172300Z 28007KT 30SM FEW060 FEW240 20/12 A2995 RMK SC2CI0
CYUL;2002-09-18 00:00;METAR CYUL 180000Z 33006KT 20SM FEW100 FEW240 18/12 A2998 RMK AC1CI0 SLP151
CYUL;2002-09-18 01:00;METAR CYUL 180100Z 35004KT 15SM FEW100 18/11 A2998 RMK AC1 SLP154
CYUL;2002-09-18 02:00;METAR CYUL 180200Z 34006KT 15SM FEW100 16/10 A3000 RMK AC1 SLP159
CYUL;2002-09-18 03:00;METAR CYUL 180300Z 34006KT 15SM SCT070 15/10 A3002 RMK AC3 SLP166
CYUL;2002-09-18 04:00;METAR CYUL 180400Z 35005KT 15SM FEW070 16/10 A3003 RMK AC1 SLP169
CYUL;2002-09-18 05:00;METAR CYUL 180500Z 03008KT 15SM SKC 14/10 A3005 RMK SLP176
CYUL;2002-09-18 06:00;METAR CYUL 180600Z 04006KT 15SM SKC 14/07 A3007 RMK SLP182
CYUL;2002-09-18 07:00;METAR CYUL 180700Z 03005KT 15SM SKC 13/07 A3008 RMK SLP185
CYUL;2002-09-18 08:00;METAR CYUL 180800Z 36006KT 15SM FEW070 12/06 A3009 RMK AC1 SLP189
CYUL;2002-09-18 09:00;METAR CYUL 180900Z 02007KT 15SM SKC 10/06 A3010 RMK SLP193
CYUL;2002-09-18 10:00;METAR CYUL 181000Z 02006KT 15SM FEW050 10/05 A3011 RMK SC1 SLP197
CYUL;2002-09-18 11:00;METAR CYUL 181100Z 03008KT 30SM FEW240 10/05 A3012 RMK CI1 SLP199
CYUL;2002-09-18 12:00;METAR CYUL 181200Z 03005KT 30SM FEW240 12/05 A3012 RMK CI1 SLP202
CYUL;2002-09-18 13:00;METAR CYUL 181300Z 05006KT 30SM FEW240 14/06 A3013 RMK CI0 SLP203
CYUL;2002-09-18 14:00;METAR CYUL 181400Z 05004KT 30SM FEW240 15/07 A3013 RMK CI1 SLP204
CYUL;2002-09-18 15:00;METAR CYUL 181500Z 03003KT 30SM FEW240 17/07 A3012 RMK CI1 SLP200
CYUL;2002-09-18 16:00;METAR CYUL 181600Z 00000KT 30SM FEW240 18/07 A3011 RMK CI1 SLP197
CYUL;2002-09-18 17:00;METAR CYUL 181700Z 00000KT 30SM FEW240 19/08 A3010 RMK CI1 SLP192
CYUL;2002-09-18 21:00;METAR CYUL 182100Z 24003KT 30SM BKN240 22/07 A3004 RMK CI2 SLP174
CYUL;2002-09-18 22:00;METAR CYUL 182200Z 27003KT 30SM BKN240 22/07 A3004 RMK CI2 SLP173
CYUL;2002-09-18 23:00;METAR CYUL 182300Z 14003KT 30SM FEW180 BKN240 19/09 A3003 RMK AS1CI2 SLP170
CYUL;2002-09-19 00:00;METAR CYUL 190000Z 15005KT 20SM FEW180 OVC240 17/10 A3003 RMK AS2CI2 SLP170
CYUL;2002-09-19 01:00;METAR CYUL 190100Z 15004KT 15SM FEW180 BKN240 17/10 A3002 RMK AS2CI2 SLP166
CYUL;2002-09-19 02:00;METAR CYUL 190200Z 16004KT 15SM SCT180 15/10 A3002 RMK AS3 SLP165
CYUL;2002-09-19 03:00;METAR CYUL 190300Z 18002KT 15SM BKN200 16/09 A3002 RMK CS2 SLP166
CYUL;2002-09-19 04:00;METAR CYUL 190400Z 14003KT 15SM BKN200 16/09 A3000 RMK CS2 SLP161
CYUL;2002-09-19 05:00;METAR CYUL 190500Z 13002KT 15SM BKN200 16/08 A2999 RMK CS2 SLP157
CYUL;2002-09-19 06:00;METAR CYUL 190600Z 00000KT 15SM SCT200 13/09 A3000 RMK CS2 SLP160
CYUL;2002-09-19 07:00;METAR CYUL 190700Z 00000KT 15SM FEW120 FEW200 13/09 A3000 RMK AC1CS1 SLP160
CYUL;2002-09-19 08:00;METAR CYUL 190800Z 02003KT 15SM FEW120 FEW200 13/09 A3000 RMK AC1CS1 SLP159
CYUL;2002-09-19 09:00;METAR CYUL 190900Z 04004KT 15SM SCT120 BKN240 13/10 A3000 RMK AC4CS2
CYUL;2002-09-19 10:00;METAR CYUL 191000Z 07003KT 15SM BKN120 BKN240 15/12 A3000 RMK AC5CS1 SLP158
CYUL;2002-09-19 11:00;METAR CYUL 191100Z 15002KT 30SM BKN150 BKN240 14/12 A3000 RMK AC7CI1 SLP161
CYUL;2002-09-19 12:00;METAR CYUL 191200Z 00000KT 30SM BKN150 BKN240 16/13 A3000 RMK AC6CI1
CYUL;2002-09-19 13:00;METAR CYUL 191300Z 13002KT 30SM FEW150 FEW240 18/14 A3000 RMK AC2CI1
CYUL;2002-09-19 14:00;METAR CYUL 191400Z 14004KT 30SM FEW160 FEW240 20/15 A2999 RMK AC1CI1 AC TR SLP156
CYUL;2002-09-19 15:00;METAR CYUL 191500Z 15004KT 30SM FEW180 FEW240 23/15 A2998 RMK AC1CI2 SLP152
CYUL;2002-09-19 16:00;METAR CYUL 191600Z 15004KT 30SM SCT200 BKN240 24/15 A2996 RMK CC2CI3 SLP147
CYUL;2002-09-19 17:00;METAR CYUL 191700Z 15007KT 30SM SCT180 BKN210 24/16 A2995 RMK AC4CS2 SLP144
CYUL;2002-09-19 18:00;METAR CYUL 191800Z 14007KT 20SM SCT180 BKN210 26/16 A2993 RMK AC1CS2 SLP136
CYUL;2002-09-19 19:00;METAR CYUL 191900Z 15009KT 20SM FEW090 OVC210 25/16 A2992 RMK AC2CS2 SLP134
CYUL;2002-09-19 20:00;METAR CYUL 192000Z 14008KT 20SM FEW090 OVC210 26/16 A2991 RMK AC2CS2 SLP128
CYUL;2002-09-19 21:00;METAR CYUL 192100Z 14007KT 20SM OVC210 26/16 A2989 RMK CS2 SLP123
CYUL;2002-09-19 22:00;METAR CYUL 192200Z 14007KT 20SM FEW090 OVC210 25/17 A2988 RMK AC1CS4 SLP119
CYUL;2002-09-19 23:00;METAR CYUL 192300Z 14006KT 20SM FEW060 FEW090 OVC210 24/16 A2987 RMK SC1AC2CS1 SLP117 SLP117
CYUL;2002-09-20 00:00;METAR CYUL 200000Z 16007KT 12SM FEW090 OVC210 22/16 A2987 RMK AC2CS2 SLP116
CYUL;2002-09-20 01:00;METAR CYUL 200100Z 17008KT 12SM OVC210 22/16 A2987 RMK CS3 SLP116
CYUL;2002-09-20 02:00;METAR CYUL 200200Z 18008KT 12SM OVC240 21/16 A2986 RMK CS2 SLP113
CYUL;2002-09-20 03:00;METAR CYUL 200300Z 20007KT 12SM SCT180 OVC240 21/17 A2986 RMK AC4CS2 SLP111
CYUL;2002-09-20 04:00;METAR CYUL 200400Z 17009KT 12SM SCT180 OVC240 20/16 A2985 RMK AC4CS2 SLP110
CYUL;2002-09-20 05:00;METAR CYUL 200500Z 19005KT 12SM BKN170 OVC240 20/16 A2987 RMK AC6CS2 SLP117
CYUL;2002-09-20 06:00;METAR CYUL 200600Z 17007KT 12SM OVC240 20/16 A2987 RMK CS4 SLP114
CYUL;2002-09-20 07:00;METAR CYUL 200700Z 16007KT 12SM SCT170 OVC240 20/16 A2986 RMK AC3CS2 SLP112
CYUL;2002-09-20 08:00;METAR CYUL 200800Z 16008KT 12SM FEW170 BKN240 19/16 A2985 RMK AC2CS3
CYUL;2002-09-20 09:00;METAR CYUL 200900Z 16010KT 12SM OVC240 19/16 A2984 RMK CS2 SLP104
CYUL;2002-09-20 10:00;METAR CYUL 201000Z 16009KT 12SM SCT240 19/16 A2984 RMK CS2 SLP104
CYUL;2002-09-20 11:00;METAR CYUL 201100Z 17007KT 8SM BKN055 OVC240 19/16 A2983 RMK SC6CI2 SLP102
CYUL;2002-09-20 13:00;METAR CYUL 201300Z 17011KT 7SM FEW035 BKN080 BKN220 22/17 A2983 RMK CU1AC2CS2 SLP102
CYUL;2002-09-20 14:00;METAR CYUL 201400Z 18008KT 5SM -SHRA BR FEW035 BKN075 OVC110 22/18 A2984 RMK SC1AC6AC1 SLP106 SC1AC6AC1 SLP106
CYUL;2002-09-20 15:00;METAR CYUL 201500Z 19008KT 5SM HZ BKN045 OVC078 23/20 A2984 RMK SC6AC2 SLP104
CYUL;2002-09-20 16:00;METAR CYUL 201600Z 20006KT 4SM HZ OVC042 23/20 A2983 RMK SC8 SLP102
CYUL;2002-09-20 17:00;METAR CYUL 201700Z 20005KT 6SM HZ BKN045 OVC090 25/21 A2982 RMK SC7AC1 SLP100
CYUL;2002-09-20 18:00;METAR CYUL 201800Z 23014KT 8SM BKN038 BKN120 26/20 A2982 RMK SC6AC1 SLP096
CYUL;2002-09-20 19:00;METAR CYUL 201900Z 23014G19KT 9SM FEW040 BKN150 27/20 A2980 RMK SC2AC5 SLP090
CYUL;2002-09-20 20:00;METAR CYUL 202000Z 23017G24KT 9SM FEW040 SCT150 OVC240 27/20 A2979 RMK SC2AC2CC4 SLP089 SLP089
CYUL;2002-09-20 21:00;METAR CYUL 202100Z 22009KT 9SM FEW040 BKN150 OVC240 26/20 A2979 RMK SC1AC5CS2 SLP086 SLP086
CYUL;2002-09-20 22:00;METAR CYUL 202200Z 20005KT 9SM FEW040 BKN150 OVC240 25/21 A2979 RMK SC1AC5CI1 SLP087 SLP087
CYUL;2002-09-20 23:00;METAR CYUL 202300Z 21008KT 9SM SCT150 BKN240 26/20 A2979 RMK AC3CI1 SLP088
CYUL;2002-09-21 00:00;METAR CYUL 210000Z 18007KT 8SM BKN100 BKN240 23/20 A2980 RMK AC5CI1 SLP092
CYUL;2002-09-21 01:00;METAR CYUL 210100Z 16006KT 9SM SCT070 BKN210 23/20 A2981 RMK AC4CS2 SLP095
CYUL;2002-09-21 02:00;METAR CYUL 210200Z 16006KT 9SM BKN210 22/19 A2981 RMK CS2 SLP096
CYUL;2002-09-21 03:00;METAR CYUL 210300Z 15007KT 9SM BKN210 22/19 A2981 RMK CS2 SLP095
CYUL;2002-09-21 04:00;METAR CYUL 210400Z 15006KT 9SM OVC210 21/19 A2980 RMK CS2 SLP093
CYUL;2002-09-21 05:00;METAR CYUL 210500Z 14006KT 7SM FEW070 OVC210 21/19 A2980 RMK AC2CS2 SLP091
CYUL;2002-09-21 06:00;METAR CYUL 210600Z 16007KT 7SM BKN210 21/19 A2979 RMK CS2 SLP089
CYUL;2002-09-21 07:00;METAR CYUL 210700Z 16008KT 7SM FEW120 BKN210 21/19 A2979 RMK AC2CS2 SLP086
CYUL;2002-09-21 08:00;METAR CYUL 210800Z 16009KT 6SM BR BKN210 21/19 A2979 RMK CS2 SLP086
CYUL;2002-09-21 09:00;METAR CYUL 210900Z 15007KT 6SM BR OVC210 20/18 A2979 RMK CS3 SLP088
CYUL;2002-09-21 10:00;METAR CYUL 211000Z 14008KT 6SM BR FEW110 SCT210 20/18 A2979 RMK AC2CS2 SLP088
CYUL;2002-09-21 11:00;METAR CYUL 211100Z 16011KT 5SM BR FEW120 BKN240 20/18 A2979 RMK AC1CI1 SLP089
CYUL;2002-09-21 12:00;METAR CYUL 211200Z 16011KT 6SM HZ BKN210 21/18 A2981 RMK CS2 SLP095
CYUL;2002-09-21 13:00;METAR CYUL 211300Z 16010KT 8SM FEW040 BKN100 OVC210 22/19 A2982 RMK SC2AC3CS1 SLP098 SLP098
CYUL;2002-09-21 14:00;METAR CYUL 211400Z 17008KT 8SM FEW040 BKN075 OVC210 24/19 A2983 RMK SC1AC5CS1 SLP101 SLP101
CYUL;2002-09-21 15:00;METAR CYUL 211500Z 21011KT 8SM FEW035 BKN090 OVC210 26/20 A2983 RMK CU1AC5CS1 SLP101
CYUL;2002-09-21 16:00;METAR CYUL 211600Z 23010KT 8SM FEW035 FEW045 OVC085 26/20 A2984 RMK CU1SC1AC6 SLP103 SLP103
CYUL;2002-09-21 17:00;METAR CYUL 211700Z 23013G18KT 8SM SCT035 OVC095 27/20 A2984 RMK CU3AC5 SLP104
CYUL;2002-09-21 18:00;METAR CYUL 211800Z 23014KT 12SM SCT035 BKN055 OVC100 26/19 A2984 RMK CU3SC4AC1 SLP104
CYUL;2002-09-21 19:00;METAR CYUL 211900Z 25015KT 12SM FEW030 BKN055 OVC100 25/19 A2986 RMK CU2SC4AC2 SLP110 SLP110
CYUL;2002-09-21 20:00;METAR CYUL 212000Z 23011G17KT 12SM FEW030 BKN060 BKN210 26/17 A2986 RMK CU1SC5CC2 SLP110
CYUL;2002-09-21 21:00;METAR CYUL 212100Z 22011G16KT 12SM FEW030 SCT060 OVC220 25/17 A2987 RMK CU1SC2CI3 CC ASOCTD SLP115 CC ASOCTD SLP115
CYUL;2002-09-21 22:00;METAR CYUL 212200Z 22011KT 12SM FEW060 BKN180 OVC220 25/17 A2988 RMK SC1AC4CI2 SLP119 SLP119
CYUL;2002-09-21 23:00;METAR CYUL 212300Z 22007KT 20SM SCT080 OVC220 24/18 A2989 RMK AC4CI2 SLP123
CYUL;2002-09-22 00:00;METAR CYUL 220000Z 23013KT 15SM BKN080 OVC220 23/18 A2991 RMK AC5CI1 SLP130
CYUL;2002-09-22 01:00;METAR CYUL 220100Z 23011KT 15SM BKN080 OVC220 23/17 A2993 RMK AC6CI1 SLP135
CYUL;2002-09-22 02:00;METAR CYUL 220200Z 22009KT 15SM FEW080 OVC220 22/17 A2994 RMK AC2CI5 CC ASOCTD SLP138 SLP138
CYUL;2002-09-22 03:00;METAR CYUL 220300Z 25007KT 15SM FEW080 BKN220 22/17 A2995 RMK AC1CI2 SLP143
CYUL;2002-09-22 04:00;METAR CYUL 220400Z 23008KT 15SM BKN046 BKN220 21/17 A2996 RMK SC6CI1 SLP145
CYUL;2002-09-22 05:00;METAR CYUL 220500Z 22007KT 15SM BKN047 BKN240 21/16 A2997 RMK SC5CI2 SLP149
CYUL;2002-09-22 06:00;METAR CYUL 220600Z 23008KT 15SM BKN045 BKN240 20/16 A2998 RMK SC5CI2 SLP153
CYUL;2002-09-22 07:00;METAR CYUL 220700Z 23006KT 15SM FEW041 BKN240 20/16 A2998 RMK SC2CI2
CYUL;2002-09-22 08:00;METAR CYUL 220800Z 24006KT 15SM BKN240 18/16 A2999 RMK CI4 SLP155
CYUL;2002-09-22 09:00;METAR CYUL 220900Z 26006KT 15SM FEW045 BKN240 17/16 A2999 RMK SC1CI4 SLP156
CYUL;2002-09-22 10:00;METAR CYUL 221000Z 23004KT 15SM BKN061 BKN240 18/16 A2999 RMK SC6CI2
CYUL;2002-09-22 11:00;METAR CYUL 221100Z 27006KT 12SM BKN062 BKN240 18/16 A3000 RMK SC7CI1 SLP158
CYUL;2002-09-22 12:00;METAR CYUL 221200Z 24006KT 12SM SCT064 BKN250 19/16 A3000 RMK SC3CI4 SLP159
CYUL;2002-09-22 13:00;METAR CYUL 221300Z 23005KT 12SM BKN067 BKN120 BKN240 19/16 A3000 RMK AC6AC1CI1 SLP161 SLP161
CYUL;2002-09-22 14:00;METAR CYUL 221400Z 24004KT 12SM FEW065 BKN230 21/17 A2999 RMK SC1CC5
CYUL;2002-09-22 16:00;METAR CYUL 221600Z 19005KT 10SM FEW065 BKN230 22/17 A2997 RMK SC2CI6 HAZY SLP150
CYUL;2002-09-22 17:00;METAR CYUL 221700Z 21002KT 10SM FEW020 FEW065 BKN230 23/18 A2995 RMK CU1SC2CC6 HAZY SLP143 HAZY SLP143
CYUL;2002-09-22 18:00;METAR CYUL 221800Z 15005KT 10SM FEW020 SCT120 BKN230 24/18 A2994 RMK CU1AC3CC2 HAZY SLP139 HAZY SLP139
CYUL;2002-09-22 19:00;METAR CYUL 221900Z 16007KT 12SM FEW020 SCT120 BKN230 25/17 A2992 RMK CU1AC2CI1 SLP131 SLP131
CYUL;2002-09-22 20:00;METAR CYUL 222000Z 14008KT 12SM FEW020 BKN076 BKN230 25/18 A2989 RMK CU1AC5CI1 SLP123 SLP123
CYUL;2002-09-22 21:00;METAR CYUL 222100Z 15011KT 15SM FEW020 SCT076 BKN230 24/18 A2988 RMK CU1AC2CI2 SLP118 SLP118
CYUL;2002-09-22 22:00;METAR CYUL 222200Z 14011KT 15SM FEW020 BKN075 BKN230 23/19 A2986 RMK SC2AC3CI1 SLP112 SLP112
CYUL;2002-09-22 23:00;METAR CYUL 222300Z 13008KT 10SM FEW020 BKN090 BKN200 22/19 A2985 RMK SC2AC3CI1 SLP108 SLP108
CYUL;2002-09-23 00:00;METAR CYUL 230000Z 13009KT 12SM -RA SCT020 BKN090 21/19 A2983 RMK SC3AC2 SLP102
CYUL;2002-09-23 01:00;METAR CYUL 230100Z 15010KT 12SM -RA FEW020 BKN078 21/19 A2982 RMK SC2AC6 SLP100
CYUL;2002-09-23 02:00;METAR CYUL 230200Z 27007KT 12SM -RA FEW015 BKN038 BKN110 21/19 A2982 RMK CU1SC6AC0 SLP099
CYUL;2002-09-23 03:00;METAR CYUL 230300Z 15011KT 12SM FEW015 BKN130 OVC240 20/19 A2979 RMK CF1AC6CI2 SLP087 SLP087
CYUL;2002-09-23 04:00;METAR CYUL 230400Z 23013KT 4SM TSRA SCT008 BKN018 OVC031 20/19 A2979 RMK CF4SC3SC1 CB EMBD RERA SLP088
CYUL;2002-09-23 05:00;METAR CYUL 230500Z 23013KT 4SM -SHRA BR FEW010 BKN034 OVC110 19/18 A2980 RMK CF2SC4AC2 CB ASOCTD RERA SLP091 CF2SC4AC2 CB ASOCTD RERA SLP091
CYUL;2002-09-23 06:00;METAR CYUL 230600Z 22012KT 4SM -SHRA FEW005 SCT034 OVC092 19/18 A2982 RMK CF2SC2AC4 SLP099
CYUL;2002-09-23 07:00;METAR CYUL 230700Z 22015KT 4SM -SHRA BR FEW006 BKN027 OVC092 19/18 A2984 RMK CF1SC6AC2 SLP104 CF1SC6AC2 SLP104
CYUL;2002-09-23 08:00;METAR CYUL 230800Z 26015KT 4SM -SHRA BR FEW012 BKN026 OVC090 17/16 A2987 RMK CF1SC6AC2 SLP115 CF1SC6AC2 SLP115
CYUL;2002-09-23 09:00;METAR CYUL 230900Z 25012G17KT 15SM FEW015 BKN071 16/14 A2991 RMK SC2AC6 SLP128
CYUL;2002-09-23 10:00;METAR CYUL 231000Z 27016G21KT 15SM SCT018 BKN090 BKN150 14/12 A2995 RMK SC3AC2AC2 SLP142 SLP142
CYUL;2002-09-23 11:00;METAR CYUL 231100Z 25009KT 30SM FEW012 BKN027 BKN100 14/12 A3000 RMK CF1SC7AC1 SLP160
CYUL;2002-09-23 12:00;METAR CYUL 231200Z 28013KT 30SM FEW013 BKN035 BKN240 14/10 A3005 RMK SC2SC3CI2 SLP175 SLP175
CYUL;2002-09-23 13:00;METAR CYUL 231300Z 26013KT 30SM FEW024 SCT120 BKN240 14/10 A3008 RMK SC2AC1CI2 SLP187 SLP187
CYUL;2002-09-24 00:00;METAR CYUL 240000Z 25004KT 15SM SKC 15/08 A3019 RMK SLP223
CYUL;2002-09-24 01:00;METAR CYUL 240100Z 00000KT 15SM SKC 15/08 A3020 RMK SLP227
CYUL;2002-09-24 02:00;METAR CYUL 240200Z 24003KT 15SM SKC 12/08 A3020 RMK SLP229
CYUL;2002-09-24 03:00;METAR CYUL 240300Z 00000KT 15SM SKC 14/08 A3021 RMK SLP232
CYUL;2002-09-24 04:00;METAR CYUL 240400Z 00000KT 15SM SKC 11/08 A3022 RMK SLP234
CYUL;2002-09-24 05:00;METAR CYUL 240500Z 00000KT 15SM SKC 12/09 A3022 RMK SLP235
CYUL;2002-09-24 06:00;METAR CYUL 240600Z 00000KT 15SM SKC 10/08 A3022 RMK SLP236
CYUL;2002-09-24 07:00;METAR CYUL 240700Z 05003KT 15SM SKC 12/09 A3022 RMK SLP236
CYUL;2002-09-24 08:00;METAR CYUL 240800Z 34002KT 15SM SKC 09/07 A3024 RMK SLP240
CYUL;2002-09-24 09:00;METAR CYUL 240900Z 01004KT 15SM SKC 10/09 A3024 RMK SLP242
CYUL;2002-09-24 10:00;METAR CYUL 241000Z 03006KT 15SM SKC 08/07 A3025 RMK SLP245
CYUL;2002-09-24 12:00;METAR CYUL 241200Z 03004KT 10SM FEW120 11/09 A3026 RMK AC1 SLP248
CYUL;2002-09-24 14:00;METAR CYUL 241400Z 11005KT 10SM FEW120 15/10 A3026 RMK AC1 HAZY SLP249
CYUL;2002-09-24 15:00;METAR CYUL 241500Z 13004KT 15SM FEW120 17/10 A3025 RMK AC1 SLP246
CYUL;2002-09-24 16:00;METAR CYUL 241600Z 14005KT 20SM FEW025 FEW150 18/11 A3024 RMK CU1AC1 SLP243
CYUL;2002-09-24 17:00;METAR CYUL 241700Z 16005KT 20SM SCT025 19/10 A3023 RMK CU3 SLP239
CYUL;2002-09-24 18:00;METAR CYUL 241800Z 21003KT 20SM SCT025 20/09 A3022 RMK SC4 SLP236
CYUL;2002-09-24 19:00;METAR CYUL 241900Z 21004KT 30SM FEW030 20/08 A3021 RMK SC2 SLP232
CYUL;2002-09-24 20:00;METAR CYUL 242000Z 20007KT 30SM FEW030 FEW240 21/08 A3020 RMK SC1CI0 SLP228
CYUL;2002-09-24 21:00;METAR CYUL 242100Z 23013KT 30SM FEW030 FEW240 21/08 A3020 RMK SC1CI0 SLP227
CYUL;2002-09-24 22:00;METAR CYUL 242200Z 22005KT 30SM FEW040 FEW240 20/08 A3020 RMK SC1CI0 SLP229
CYUL;2002-09-24 23:00;METAR CYUL 242300Z 18005KT 20SM FEW040 FEW240 19/09 A3020 RMK SC1CI1
CYUL;2002-09-25 00:00;METAR CYUL 250000Z 16007KT 15SM FEW040 17/10 A3022 RMK SC1 SLP234
CYUL;2002-09-25 01:00;METAR CYUL 250100Z 16008KT 15SM SKC 16/10 A3024 RMK SLP240
CYUL;2002-09-25 02:00;METAR CYUL 250200Z 16008KT 15SM SKC 15/10 A3025 RMK SLP245
CYUL;2002-09-25 03:00;METAR CYUL 250300Z 18006KT 15SM SKC 15/10 A3026 RMK SLP248
CYUL;2002-09-25 04:00;METAR CYUL 250400Z 22006KT 15SM SKC 15/10 A3027 RMK SLP251
CYUL;2002-09-25 05:00;METAR CYUL 250500Z 25006KT 15SM SKC 16/10 A3027 RMK SLP252
CYUL;2002-09-25 06:00;METAR CYUL 250600Z 25004KT 15SM SKC 14/09 A3028 RMK SLP255
CYUL;2002-09-25 07:00;METAR CYUL 250700Z 23002KT 15SM SKC 13/09 A3029 RMK SLP257
CYUL;2002-09-25 08:00;METAR CYUL 250800Z 27004KT 15SM SKC 11/09 A3030 RMK SLP261
CYUL;2002-09-25 09:00;METAR CYUL 250900Z 25003KT 15SM SKC 10/09 A3031 RMK SLP265
CYUL;2002-09-25 10:00;METAR CYUL 251000Z 27006KT 15SM SKC 10/08 A3033 RMK SLP272
CYUL;2002-09-25 11:00;METAR CYUL 251100Z 27005KT 30SM FEW230 09/08 A3035 RMK CI1 SLP280
CYUL;2002-09-25 12:00;METAR CYUL 251200Z 23002KT 15SM FEW230 11/09 A3036 RMK CI1 SLP283
CYUL;2002-09-25 13:00;METAR CYUL 251300Z 25002KT 12SM FEW230 14/11 A3038 RMK CI1 SLP290
CYUL;2002-09-25 14:00;METAR CYUL 251400Z 14002KT 12SM FEW230 16/11 A3038 RMK CI1 SLP290
CYUL;2002-09-25 15:00;METAR CYUL 251500Z 22003KT 15SM FEW050 17/11 A3038 RMK SC1 SLP290
CYUL;2002-09-25 16:00;METAR CYUL 251600Z 18006KT 15SM FEW030 18/11 A3036 RMK SC1 SLP283
CYUL;2002-09-25 17:00;METAR CYUL 251700Z 24004KT 20SM FEW030 20/09 A3035 RMK CU1 SLP277
CYUL;2002-09-25 18:00;METAR CYUL 251800Z 27006KT 20SM FEW030 FEW230 20/09 A3032 RMK CU1CI1 SLP269
CYUL;2002-09-25 19:00;METAR CYUL 251900Z 19006KT 30SM FEW040 FEW230 20/09 A3031 RMK CU1CI1 SLP265
CYUL;2002-09-25 20:00;METAR CYUL 252000Z 19008KT 30SM FEW040 FEW230 21/09 A3030 RMK CU1CI1 SLP262
CYUL;2002-09-25 21:00;METAR CYUL 252100Z 22005KT 30SM FEW040 FEW230 20/09 A3029 RMK CU1CI1 SLP258
CYUL;2002-09-25 22:00;METAR CYUL 252200Z 20004KT 30SM FEW055 FEW230 19/10 A3027 RMK SC1CI1 SLP253
CYUL;2002-09-25 23:00;METAR CYUL 252300Z 18003KT 20SM FEW180 FEW230 18/09 A3027 RMK AC1CI0 SLP251
CYUL;2002-09-26 00:00;METAR CYUL 260000Z 16003KT 15SM FEW230 19/10 A3027 RMK CI1 SLP251
CYUL;2002-09-26 01:00;METAR CYUL 260100Z 00000KT 15SM SKC 16/11 A3027 RMK SLP251
CYUL;2002-09-26 02:00;METAR CYUL 260200Z 00000KT 15SM SKC 13/10 A3027 RMK SLP253
CYUL;2002-09-26 03:00;METAR CYUL 260300Z 00000KT 15SM SKC 14/11 A3028 RMK SLP254
CYUL;2002-09-26 04:00;METAR CYUL 260400Z 14002KT 15SM SKC 14/11 A3027 RMK SLP252
CYUL;2002-09-26 05:00;METAR CYUL 260500Z 15002KT 15SM FEW100 14/11 A3026 RMK AC1 SLP248
CYUL;2002-09-26 06:00;METAR CYUL 260600Z 00000KT 15SM FEW100 11/10 A3025 RMK AC1 SLP245
CYUL;2002-09-26 07:00;METAR CYUL 260700Z 00000KT 15SM FEW100 10/09 A3024 RMK AC1 SLP240
CYUL;2002-09-26 08:00;METAR CYUL 260800Z 00000KT 15SM FEW100 11/10 A3024 RMK AC1 SLP243
CYUL;2002-09-26 09:00;METAR CYUL 260900Z 36004KT 15SM FEW100 10/10 A3024 RMK AC1 SLP243
CYUL;2002-09-26 10:00;METAR CYUL 261000Z 02003KT 15SM FEW100 09/08 A3024 RMK AC1 SLP243
CYUL;2002-09-26 11:00;METAR CYUL 261100Z 01003KT 12SM FEW100 FEW230 09/08 A3024 RMK AC1CI1 FOGGY SLP241
CYUL;2002-09-26 12:00;METAR CYUL 261200Z 00000KT 10SM FEW230 11/10 A3023 RMK CI1 FOGGY SLP239
CYUL;2002-09-26 13:00;METAR CYUL 261300Z 16004KT 7SM FEW230 14/12 A3023 RMK CI1 VSBY E 4 SLP238
CYUL;2002-09-26 14:00;METAR CYUL 261400Z 13002KT 10SM FEW230 17/11 A3021 RMK CI1 SLP232
CYUL;2002-09-26 15:00;METAR CYUL 261500Z 15003KT 12SM FEW230 20/11 A3019 RMK CI1 SLP226
CYUL;2002-09-26 16:00;METAR CYUL 261600Z 18006KT 15SM FEW230 21/11 A3017 RMK CI1 SLP217
CYUL;2002-09-26 17:00;METAR CYUL 261700Z 18006KT 20SM FEW030 FEW230 22/11 A3015 RMK CU1CI1 SLP210
CYUL;2002-09-26 18:00;METAR CYUL 261800Z 19003KT 30SM FEW045 FEW230 22/10 A3012 RMK CU1CI1 SLP199
CYUL;2002-09-26 19:00;METAR CYUL 261900Z 17004KT 30SM FEW045 FEW230 23/10 A3009 RMK CU1CI1 SLP191
CYUL;2002-09-26 20:00;METAR CYUL 262000Z 15007KT 20SM FEW045 FEW230 23/10 A3007 RMK CU1CI1 SLP184
CYUL;2002-09-26 21:00;METAR CYUL 262100Z 14009KT 20SM FEW045 BKN200 22/10 A3006 RMK CU1CS6 SLP178
CYUL;2002-09-26 22:00;METAR CYUL 262200Z 14009KT 20SM BKN200 OVC240 21/10 A3006 RMK CS7CI0
CYUL;2002-09-26 23:00;METAR CYUL 262300Z 16010KT 20SM BKN170 OVC240 19/10 A3006 RMK AS7CI1
CYUL;2002-09-27 00:00;METAR CYUL 270000Z 15011KT 15SM BKN200 18/11 A3005 RMK CS6 SLP176
CYUL;2002-09-27 01:00;METAR CYUL 270100Z 15012KT 15SM BKN200 17/11 A3004 RMK CS6 SLP174
CYUL;2002-09-27 02:00;METAR CYUL 270200Z 15012KT 15SM OVC170 17/11 A3003 RMK AS6 SLP171
CYUL;2002-09-27 03:00;METAR CYUL 270300Z 16009KT 15SM OVC170 16/10 A3003 RMK AS6 SLP168
CYUL;2002-09-27 04:00;METAR CYUL 270400Z 16007KT 15SM OVC170 15/10 A3003 RMK AS6 SLP168
CYUL;2002-09-27 05:00;METAR CYUL 270500Z 16006KT 15SM OVC170 14/10 A3002 RMK AS2 SLP166
CYUL;2002-09-27 06:00;METAR CYUL 270600Z 13005KT 15SM OVC170 13/10 A3000 RMK AS3 SLP161
CYUL;2002-09-27 07:00;METAR CYUL 270700Z 16008KT 15SM OVC170 14/10 A2999 RMK AS4 SLP156
CYUL;2002-09-27 08:00;METAR CYUL 270800Z 15007KT 15SM OVC170 14/10 A2998 RMK AS2 SLP151
CYUL;2002-09-27 09:00;METAR CYUL 270900Z 12005KT 15SM OVC170 13/10 A2997 RMK AS4 SLP149
CYUL;2002-09-27 10:00;METAR CYUL 271000Z 14006KT 15SM OVC170 13/10 A2997 RMK AS4 SLP149
CYUL;2002-09-27 11:00;METAR CYUL 271100Z 15005KT 20SM BKN150 BKN200 13/10 A2997 RMK AC2CC2 SLP148
CYUL;2002-09-27 12:00;METAR CYUL 271200Z 12003KT 30SM BKN150 OVC220 14/10 A2994 RMK AC4CI3 SLP140
CYUL;2002-09-27 13:00;METAR CYUL 271300Z 13008KT 30SM BKN120 OVC240 15/10 A2992 RMK AC5CI2 SLP134
CYUL;2002-09-27 14:00;METAR CYUL 271400Z 13008KT 30SM SCT120 OVC200 15/11 A2991 RMK AC2CC6 SLP130
CYUL;2002-09-27 15:00;METAR CYUL 271500Z 12008KT 30SM BKN150 OVC190 16/11 A2988 RMK AC5CC3 SLP119
CYUL;2002-09-27 16:00;METAR CYUL 271600Z 11011KT 20SM SCT100 OVC180 16/11 A2985 RMK AC4AS4 SLP110
CYUL;2002-09-27 17:00;METAR CYUL 271700Z 11008KT 12SM -RA FEW020 SCT080 OVC150 15/12 A2985 RMK SC2AC1AS5 SLP108
CYUL;2002-09-27 18:00;METAR CYUL 271800Z 09007KT 8SM -RA BKN020 OVC045 15/13 A2982 RMK SC7SC1 SLP100
CYUL;2002-09-27 19:00;METAR CYUL 271900Z 08010KT 6SM -RA SCT012 OVC020 15/13 A2976 RMK SC3SC5 SLP079
CYUL;2002-09-27 20:00;METAR CYUL 272000Z 07010KT 4SM -RA BR BKN010 OVC015 14/13 A2974 RMK SC6SC2 SLP072
CYUL;2002-09-27 21:00;METAR CYUL 272100Z 05012KT 2SM -RA BR BKN010 OVC024 14/13 A2971 RMK SC5SC3 SLP060
CYUL;2002-09-27 22:00;METAR CYUL 272200Z 05012KT 3SM -RA BR SCT015 OVC030 14/13 A2969 RMK SC3SC5 SLP055
CYUL;2002-09-27 23:00;METAR CYUL 272300Z 05012G18KT 4SM -RA BR SCT009 OVC025 13/12 A2966 RMK SC3SC5 SLP043 SLP043
CYUL;2002-09-28 00:00;METAR CYUL 280000Z 04012KT 4SM -RA BR BKN006 OVC020 13/13 A2964 RMK SF6SC2 SLP039
CYUL;2002-09-28 01:00;METAR CYUL 280100Z 03011KT 6SM -RA BKN006 OVC020 13/13 A2965 RMK SF7SC1 SLP042
CYUL;2002-09-28 02:00;METAR CYUL 280200Z 01011G16KT 7SM -RA BKN003 OVC020 13/12 A2964 RMK SF6NS2 SLP037
CYUL;2002-09-28 03:00;METAR CYUL 280300Z 02012KT 6SM -RA BR BKN005 OVC020 13/12 A2963 RMK SF6NS2 SLP036
CYUL;2002-09-28 04:00;METAR CYUL 280400Z 36013KT 3SM -RA BR BKN006 OVC020 13/12 A2965 RMK SF6NS2 SLP041
CYUL;2002-09-28 05:00;METAR CYUL 280500Z 33005KT 10SM SCT008 OVC015 13/12 A2968 RMK SF4NS4 SLP050
CYUL;2002-09-28 06:00;METAR CYUL 280600Z 31007KT 15SM FEW008 BKN015 OVC030 13/12 A2970 RMK SF1SC4NS3 SLP058 SLP058
CYUL;2002-09-28 07:00;METAR CYUL 280700Z 31007KT 15SM BKN025 13/12 A2972 RMK SC6 SLP066
CYUL;2002-09-28 08:00;METAR CYUL 280800Z 30007KT 15SM SCT025 13/11 A2976 RMK SC3 SLP077
CYUL;2002-09-28 09:00;METAR CYUL 280900Z 30007KT 15SM FEW060 12/11 A2979 RMK SC2 SLP088
CYUL;2002-09-28 10:00;METAR CYUL 281000Z 28004KT 15SM FEW070 11/10 A2983 RMK AC2 SLP101
CYUL;2002-09-28 11:00;METAR CYUL 281100Z 29008KT 20SM FEW050 SCT090 12/11 A2987 RMK SC2AC1 SLP114
CYUL;2002-09-28 12:00;METAR CYUL 281200Z 29005KT 20SM FEW075 13/12 A2990 RMK AC2 SLP126
CYUL;2002-09-28 13:00;METAR CYUL 281300Z 31008KT 30SM BKN022 14/12 A2995 RMK SC7 SLP143
CYUL;2002-09-28 14:00;METAR CYUL 281400Z 34010G17KT 30SM FEW023 14/10 A2999 RMK SC2 SLP156
CYUL;2002-09-28 15:00;METAR CYUL 281500Z 34011KT 30SM FEW025 15/09 A3002 RMK CU1 SLP166
CYUL;2002-09-28 16:00;METAR CYUL 281600Z 33007KT 30SM FEW035 15/07 A3004 RMK CU1 SLP174
CYUL;2002-09-28 17:00;METAR CYUL 281700Z 31011KT 30SM FEW040 16/07 A3005 RMK CU2 SLP177
CYUL;2002-09-28 18:00;METAR CYUL 281800Z 31013G18KT 30SM FEW045 16/06 A3006 RMK CU2 SLP180
CYUL;2002-09-28 19:00;METAR CYUL 281900Z 32010KT 30SM FEW055 16/06 A3007 RMK CU2 SLP182
CYUL;2002-09-28 20:00;METAR CYUL 282000Z 28012G18KT 30SM FEW060 16/04 A3009 RMK SC2 SLP189
CYUL;2002-09-28 21:00;METAR CYUL 282100Z 30014KT 30SM FEW060 15/02 A3011 RMK SC1 SLP199
CYUL;2002-09-28 22:00;METAR CYUL 282200Z 31008KT 30SM FEW060 FEW240 14/01 A3013 RMK SC1CI0 SLP204
CYUL;2002-09-28 23:00;METAR CYUL 282300Z 32005KT 30SM FEW060 FEW240 11/01 A3015 RMK SC1CI0 SLP211
CYUL;2002-09-30 00:00;METAR CYUL 300000Z 09006KT 15SM FEW055 BKN096 11/02 A3024 RMK SC2AC3 SLP240
CYUL;2002-09-30 01:00;METAR CYUL 300100Z 09005KT 15SM FEW090 10/02 A3023 RMK AC1 SLP237
CYUL;2002-09-30 02:00;METAR CYUL 300200Z 06004KT 15SM FEW090 10/03 A3023 RMK AC1 SLP237
CYUL;2002-09-30 03:00;METAR CYUL 300300Z 04003KT 15SM FEW085 09/03 A3022 RMK AC2 SLP236
CYUL;2002-09-30 04:00;METAR CYUL 300400Z 03005KT 15SM FEW085 08/03 A3021 RMK AC1 SLP232
CYUL;2002-09-30 05:00;METAR CYUL 300500Z 01004KT 15SM FEW090 07/04 A3021 RMK AC1 SLP231
CYUL;2002-09-30 06:00;METAR CYUL 300600Z 03004KT 15SM SCT090 08/05 A3020 RMK AC3 SLP227
CYUL;2002-09-30 07:00;METAR CYUL 300700Z 02005KT 15SM BKN095 07/05 A3018 RMK AC6 SLP222
CYUL;2002-09-30 08:00;METAR CYUL 300800Z 03004KT 15SM BKN080 08/06 A3017 RMK AC7 SLP218
CYUL;2002-09-30 09:00;METAR CYUL 300900Z 04006KT 15SM BKN075 08/06 A3017 RMK AC7 SLP219
CYUL;2002-09-30 10:00;METAR CYUL 301000Z 36004KT 15SM OVC043 09/06 A3018 RMK SC8 SLP220
CYUL;2002-09-30 11:00;METAR CYUL 301100Z 00000KT 20SM OVC042 09/07 A3017 RMK SC8 SLP219
CYUL;2002-09-30 12:00;METAR CYUL 301200Z 00000KT 12SM SCT030 BKN060 BKN240 11/08 A3016 RMK SC2SC2CI0 SLP215 SLP215
CYUL;2002-09-30 13:00;METAR CYUL 301300Z 01004KT 12SM OVC023 11/08 A3017 RMK SC8 SLP217
CYUL;2002-09-30 14:00;METAR CYUL 301400Z 04002KT 12SM OVC023 12/09 A3015 RMK SC8 SLP210
CYUL;2002-09-30 15:00;METAR CYUL 301500Z 00000KT 4SM HZ SCT023 OVC071 15/12 A3012 RMK SC4AC4 SLP202
CYUL;2002-09-30 16:00;METAR CYUL 301600Z 00000KT 8SM FEW025 BKN070 BKN230 18/14 A3011 RMK SC2AC4CI0 HAZY SLP197 HAZY SLP197
CYUL;2002-09-30 17:00;METAR CYUL 301700Z 20007KT 6SM HZ FEW025 OVC076 18/13 A3009 RMK SC2AC6 SLP192
CYUL;2002-09-30 18:00;METAR CYUL 301800Z 19005KT 9SM SCT075 BKN230 19/15 A3006 RMK AC4CI2 HAZY SLP182
CYUL;2002-09-30 19:00;METAR CYUL 301900Z 23016KT 6SM HZ SCT075 OVC230 20/15 A3007 RMK AC4CI3 SLP183
CYUL;2002-09-30 20:00;METAR CYUL 302000Z 24012G18KT 3SM -RA BR SCT030 BKN050 OVC075 18/15 A3006 RMK SC3SC4AC1 SLP180 SC3SC4AC1 SLP180
CYUL;2002-09-30 21:00;METAR CYUL 302100Z 22010G16KT 5SM HZ FEW030 BKN075 OVC130 18/15 A3001 RMK SC1AC6CI2 SLP164
CYUL;2002-09-30 22:00;METAR CYUL 302200Z 20010KT 4SM HZ SCT120 OVC230 18/16 A2999 RMK AC4CI4 SLP157
CYUL;2002-09-30 23:00;METAR CYUL 302300Z 18005KT 2 1/2SM BR BKN140 OVC250 17/15 A2998 RMK AC6CI2 SLP152
CYUL;2002-10-01 00:00;METAR CYUL 010000Z 00000KT 3SM BR SCT140 OVC250 16/15 A2999 RMK AC3CI5 SLP155
CYUL;2002-10-01 01:00;METAR CYUL 010100Z 00000KT 4SM BR BKN160 BKN250 16/15 A2999 RMK AC5CI2 SLP157
CYUL;2002-10-01 02:00;METAR CYUL 010200Z 25002KT 4SM BR BKN160 BKN250 16/14 A3000 RMK AC5CI2 SLP158
CYUL;2002-10-01 03:00;METAR CYUL 010300Z 24003KT 4SM BR SCT230 16/14 A3000 RMK CI2 SLP159
CYUL;2002-10-01 04:00;METAR CYUL 010400Z 20005KT 6SM BR SCT230 15/14 A3000 RMK CI2 SLP158
CYUL;2002-10-01 05:00;METAR CYUL 010500Z 18005KT 3SM BR FEW054 BKN150 BKN230 14/14 A2998 RMK SC2AC2CI2 SLP153 SLP153
CYUL;2002-10-01 06:00;METAR CYUL 010600Z 17004KT 6SM BR BKN230 14/14 A2998 RMK CI2 SLP152
CYUL;2002-10-01 07:00;METAR CYUL 010700Z 19003KT 12SM SCT180 BKN230 14/13 A2995 RMK AC4CI2 FOGGY SLP144
CYUL;2002-10-01 08:00;METAR CYUL 010800Z 00000KT 12SM BKN180 14/14 A2995 RMK AC6 FOGGY SLP144
CYUL;2002-10-01 09:00;METAR CYUL 010900Z 16005KT 12SM FEW150 13/12 A2995 RMK AC2 FOGGY SLP143
CYUL;2002-10-01 10:00;METAR CYUL 011000Z 17003KT 12SM SCT150 14/13 A2995 RMK AC3 FOGGY SLP141
CYUL;2002-10-01 11:00;METAR CYUL 011100Z 16005KT 6SM BR BKN130 BKN180 14/13 A2995 RMK AC5AC1 SLP141
CYUL;2002-10-01 12:00;METAR CYUL 011200Z 15003KT 6SM BR FEW160 16/15 A2994 RMK AC1 SLP139
CYUL;2002-10-01 13:00;METAR CYUL 011300Z 18003KT 6SM BR FEW160 18/16 A2993 RMK AC1 SLP137
CYUL;2002-10-01 14:00;METAR CYUL 011400Z 23010KT 7SM FEW070 SCT240 21/17 A2991 RMK AC2CI1 SLP130
CYUL;2002-10-01 15:00;METAR CYUL 011500Z 24019KT 8SM SCT240 23/18 A2989 RMK CI2 SLP122
CYUL;2002-10-01 16:00;METAR CYUL 011600Z 25015KT 10SM FEW180 SCT240 25/18 A2987 RMK AC2CI1 SLP114
CYUL;2002-10-01 17:00;METAR CYUL 011700Z 22019G25KT 12SM BKN040 25/18 A2986 RMK CU7 SLP112
CYUL;2002-10-01 18:00;METAR CYUL 011800Z 25020G27KT 12SM BKN045 26/18 A2984 RMK CU6 SLP107
CYUL;2002-10-01 19:00;METAR CYUL 011900Z 25016G21KT 10SM BKN043 26/18 A2984 RMK CU7 SLP107
CYUL;2002-10-01 20:00;METAR CYUL 012000Z 25013KT 12SM OVC043 25/18 A2985 RMK SC8 SLP108
CYUL;2002-10-01 21:00;METAR CYUL 012100Z 23011KT 10SM BKN043 OVC090 25/18 A2985 RMK SC6AC2 SLP109
CYUL;2002-10-01 22:00;METAR CYUL 012200Z 25008G16KT 10SM VCSH BKN035 OVC090 24/18 A2986 RMK SC7AC1 SLP111 SLP111
CYUL;2002-10-01 23:00;METAR CYUL 012300Z 24008KT 10SM FEW035 SCT090 23/18 A2987 RMK SC2AC1
CYUL;2002-10-02 00:00;METAR CYUL 020000Z 21006KT 10SM SCT030 22/18 RMK SC3 NO PRESS ON BARO ALTM MISG
CYUL;2002-10-02 01:00;METAR CYUL 020100Z 23009G15KT 10SM FEW030 22/18 A2987 RMK SC2
CYUL;2002-10-02 02:00;METAR CYUL 020200Z 22008KT 10SM FEW030 22/18 A2986 RMK SC1
CYUL;2002-10-02 03:00;METAR CYUL 020300Z 23011G17KT 12SM SKC 21/18 A2986 RMK SLP112
CYUL;2002-10-02 04:00;METAR CYUL 020400Z 24013G18KT 12SM SKC 22/18 A2986 RMK SLP113
CYUL;2002-10-02 05:00;METAR CYUL 020500Z 24012G17KT 12SM FEW120 21/17 A2986 RMK AC2 SLP111
CYUL;2002-10-02 06:00;METAR CYUL 020600Z 24011G16KT 12SM SCT120 21/18 A2985 RMK AC4 SLP109
CYUL;2002-10-02 07:00;METAR CYUL 020700Z 23010KT 12SM BKN120 21/18 A2984 RMK AC6 SLP104
CYUL;2002-10-02 08:00;METAR CYUL 020800Z 22009KT 12SM BKN150 21/18 A2982 RMK AS6 SLP099
CYUL;2002-10-02 09:00;METAR CYUL 020900Z 23011KT 12SM FEW150 BKN240 21/18 A2982 RMK AC2CI2 SLP100
CYUL;2002-10-02 10:00;METAR CYUL 021000Z 24011KT 7SM FEW150 21/18 A2983 RMK AC1 SLP103
CYUL;2002-10-02 11:00;METAR CYUL 021100Z 25010KT 4SM BR BKN200 BKN240 20/18 A2985 RMK CC4CI2 SLP109
CYUL;2002-10-02 12:00;METAR CYUL 021200Z 24012KT 4SM BR FEW020 SCT200 BKN240 20/18 A2985 RMK SC2CC2CI1 SLP110 SLP110
CYUL;2002-10-02 13:00;METAR CYUL 021300Z 24012KT 5SM BR OVC025 21/18 A2987 RMK SC8 SLP116
CYUL;2002-10-02 14:00;METAR CYUL 021400Z 25011KT 5SM BR OVC025 21/19 A2987 RMK SC8 SLP114
CYUL;2002-10-02 15:00;METAR CYUL 021500Z 24010KT 5SM BR BKN035 21/19 A2987 RMK SC7 SLP114
CYUL;2002-10-02 16:00;METAR CYUL 021600Z 27010G16KT 7SM SCT023 BKN040 23/19 A2985 RMK CU3SC2 SLP108
CYUL;2002-10-02 17:00;METAR CYUL 021700Z 26013KT 10SM BKN025 BKN160 23/18 A2985 RMK CU7AC1
CYUL;2002-10-02 18:00;METAR CYUL 021800Z 26013KT 10SM FEW027 OVC200 24/18 A2983 RMK CU2CS2 SLP101
CYUL;2002-10-02 19:00;METAR CYUL 021900Z 25014G20KT 12SM FEW030 OVC210 25/18 A2981 RMK CU2CS2 SLP096
CYUL;2002-10-02 20:00;METAR CYUL 022000Z 26016G21KT 12SM FEW030 BKN130 BKN220 25/18 A2981 RMK CU2ACC3CI0 TCU ASOCTD SLP096
CYUL;2002-10-02 21:00;METAR CYUL 022100Z 26010G15KT 15SM FEW030 BKN110 OVC220 24/17 A2982 RMK CU1AC6CI1 SLP097 SLP097
CYUL;2002-10-02 22:00;METAR CYUL 022200Z 27008KT 15SM FEW033 BKN110 OVC220 23/17 A2981 RMK CU1AC6CS1 SLP095 SLP095
CYUL;2002-10-02 23:00;METAR CYUL 022300Z 28007KT 12SM BKN090 OVC220 22/16 A2981 RMK AC7CS1
CYUL;2002-10-03 00:00;METAR CYUL 030000Z 30007KT 12SM OVC080 21/17 A2983 RMK AC8 SLP102
CYUL;2002-10-03 01:00;METAR CYUL 030100Z 30007KT 12SM OVC075 20/14 A2984 RMK AC8 SLP106
CYUL;2002-10-03 02:00;METAR CYUL 030200Z 31007KT 12SM OVC063 18/15 A2986 RMK SC8 SLP112
CYUL;2002-10-03 03:00;METAR CYUL 030300Z 02009KT 12SM -RA OVC090 17/13 A2987 RMK AC8 SLP117
CYUL;2002-10-03 04:00;METAR CYUL 030400Z 03007KT 12SM -RA BKN037 OVC100 16/13 A2989 RMK SC6AC2 SLP122
CYUL;2002-10-03 05:00;METAR CYUL 030500Z 03009KT 15SM BKN040 OVC120 15/11 A2990 RMK SC6AC2 SLP126
CYUL;2002-10-03 06:00;METAR CYUL 030600Z 03011KT 15SM BKN045 14/09 A2994 RMK SC6 SLP138
CYUL;2002-10-03 07:00;METAR CYUL 030700Z 04012KT 15SM SCT035 BKN052 13/06 A2997 RMK SC4SC2 SLP148
CYUL;2002-10-03 08:00;METAR CYUL 030800Z 03007G15KT 15SM -RA BKN035 OVC080 11/05 A2999 RMK SC5AC3 SLP156
CYUL;2002-10-03 10:00;METAR CYUL 031000Z 02013KT 15SM BKN040 BKN130 10/04 A3004 RMK SC5AC1 SLP173
CYUL;2002-10-03 11:00;METAR CYUL 031100Z 04010KT 30SM SCT150 BKN180 09/01 A3009 RMK AC4AC2 SLP189
CYUL;2002-10-03 12:00;METAR CYUL 031200Z 04016KT 30SM FEW150 BKN180 BKN240 09/M01 A3011 RMK AC1AC4CI2 SLP199 SLP199
CYUL;2002-10-03 13:00;METAR CYUL 031300Z 13014KT 30SM FEW150 SCT180 BKN240 10/01 A3015 RMK AC1AC3CI2 SLP212 SLP212
CYUL;2002-10-03 14:00;METAR CYUL 031400Z 04013KT 30SM FEW035 BKN180 BKN240 10/01 A3017 RMK CU1AC5CI1 SLP217 SLP217
CYUL;2002-10-03 15:00;METAR CYUL 031500Z 06012G18KT 30SM FEW040 FEW180 SCT240 10/00 A3019 RMK CU1AC1CI2 SLP224 SLP224
CYUL;2002-10-03 16:00;METAR CYUL 031600Z 02012KT 30SM FEW045 FEW180 SCT240 11/01 A3019 RMK CU1AC1CI2 SLP226 SLP226
CYUL;2002-10-03 17:00;METAR CYUL 031700Z 06009G15KT 30SM FEW045 FEW180 FEW240 12/01 A3018 RMK CU1AC1CI2 SLP222 SLP222
CYUL;2002-10-03 18:00;METAR CYUL 031800Z 01011KT 30SM FEW045 FEW240 12/02 A3018 RMK CU1CI1 SLP220
CYUL;2002-10-03 19:00;METAR CYUL 031900Z 05008KT 30SM FEW050 BKN240 13/02 A3018 RMK SC1CI1
CYUL;2002-10-03 20:00;METAR CYUL 032000Z 03006KT 30SM FEW050 BKN240 13/02 A3019 RMK SC1CI2 SLP225
CYUL;2002-10-03 21:00;METAR CYUL 032100Z 04006KT 30SM FEW050 BKN240 12/01 A3020 RMK SC1CI1 SLP227
CYUL;2002-10-03 22:00;METAR CYUL 032200Z 10003KT 30SM FEW055 SCT240 12/02 A3020 RMK SC1CI1 SLP229
CYUL;2002-10-03 23:00;METAR CYUL 032300Z 09005KT 30SM SCT230 11/01 A3021 RMK CI0 SLP232
CYUL;2002-10-04 00:00;METAR CYUL 040000Z 11006KT 15SM FEW230 10/01 A3022 RMK CI0 SLP235
CYUL;2002-10-04 01:00;METAR CYUL 040100Z 13004KT 15SM SKC 08/01 A3023 RMK SLP239
CYUL;2002-10-04 02:00;METAR CYUL 040200Z 09005KT 15SM SKC 10/01 A3023 RMK SLP239
CYUL;2002-10-04 03:00;METAR CYUL 040300Z 09004KT 15SM SKC 10/01 A3024 RMK SLP241
CYUL;2002-10-04 04:00;METAR CYUL 040400Z 09005KT 15SM SKC 09/01 A3024 RMK SLP240
CYUL;2002-10-04 05:00;METAR CYUL 040500Z 09008KT 15SM SKC 08/01 A3021 RMK SLP232
CYUL;2002-10-04 06:00;METAR CYUL 040600Z 08007KT 15SM SKC 08/01 A3021 RMK SLP231
CYUL;2002-10-04 07:00;METAR CYUL 040700Z 05015KT 15SM FEW240 07/00 A3020 RMK CI0 SLP229
CYUL;2002-10-04 08:00;METAR CYUL 040800Z 04006KT 15SM SKC 07/01 A3019 RMK SLP224
CYUL;2002-10-04 09:00;METAR CYUL 040900Z 03006KT 15SM FEW240 05/02 A3017 RMK CI1 SLP219
CYUL;2002-10-04 10:00;METAR CYUL 041000Z 03006KT 15SM FEW150 FEW240 04/02 A3018 RMK AC1CI1 SLP222
CYUL;2002-10-04 12:00;METAR CYUL 041200Z 03006KT 30SM FEW150 FEW220 05/03 A3015 RMK AC1CC1 SLP212
CYUL;2002-10-04 13:00;METAR CYUL 041300Z 09007KT 30SM FEW075 BKN090 09/05 A3014 RMK AC1AC5 SLP206
CYUL;2002-10-04 14:00;METAR CYUL 041400Z 13008KT 20SM BKN033 11/08 A3011 RMK SC7 SLP196
CYUL;2002-10-04 15:00;METAR CYUL 041500Z 16010G18KT 20SM FEW017 OVC032 13/10 A3007 RMK SC1SC7 SLP185
CYUL;2002-10-04 16:00;METAR CYUL 041600Z 15012KT 20SM FEW012 OVC025 13/11 A3005 RMK SF2SC6 VSBY NE 6F SLP176 SLP176
CYUL;2002-10-04 17:00;METAR CYUL 041700Z 16020G26KT 20SM FEW012 FEW021 OVC026 13/11 A3002 RMK SF1SC2SC6 SLP166 SLP166
CYUL;2002-10-04 18:00;METAR CYUL 041800Z 15014G22KT 30SM FEW015 OVC029 14/11 A2997 RMK SC1SC8 SLP149
CYUL;2002-10-04 19:00;METAR CYUL 041900Z 15018G28KT 30SM FEW015 OVC029 14/11 A2993 RMK SC1SC7 SLP137
CYUL;2002-10-04 20:00;METAR CYUL 042000Z 15022G28KT 30SM FEW015 OVC030 14/11 A2990 RMK SC1SC8 SLP126
CYUL;2002-10-04 21:00;METAR CYUL 042100Z 15021G29KT 30SM FEW015 OVC035 14/11 A2987 RMK SC1SC8 SLP118
CYUL;2002-10-04 22:00;METAR CYUL 042200Z 15020G29KT 30SM FEW015 BKN043 OVC180 14/11 A2984 RMK SC1SC5AC2 SLP107 SLP107
CYUL;2002-10-04 23:00;METAR CYUL 042300Z 16017G26KT 15SM FEW045 BKN075 OVC210 14/11 A2982 RMK SC2AC5CS2 SLP099 SLP099
CYUL;2002-10-05 00:00;METAR CYUL 050000Z 16016G27KT 15SM BKN070 OVC210 14/11 A2979 RMK AC7CS1 SLP091
CYUL;2002-10-05 01:00;METAR CYUL 050100Z 15021G29KT 15SM BKN090 OVC210 14/11 A2975 RMK AC7CS1 SLP075
CYUL;2002-10-05 02:00;METAR CYUL 050200Z 15023G31KT 15SM BKN100 OVC210 14/12 A2968 RMK AC6CS2 PRESS FR SLP051 SLP051
CYUL;2002-10-05 03:00;METAR CYUL 050300Z 15018G25KT 15SM FEW020 SCT100 OVC240 15/13 A2962 RMK SC1AC3CS2 PRESSFR SLP030 PRESSFR SLP030
CYUL;2002-10-05 04:00;METAR CYUL 050400Z 16018G28KT 15SM FEW020 BKN100 OVC200 15/13 A2954 RMK SC1AC5CS2 PRESSFR SLP005 PRESSFR SLP005
CYUL;2002-10-05 05:00;METAR CYUL 050500Z 16018G26KT 15SM -RA BKN120 OVC200 17/14 A2950 RMK AC6CS2 SLP989
CYUL;2002-10-05 06:00;METAR CYUL 050600Z 15021G26KT 4SM -RA BR BKN045 OVC120 17/15 A2944 RMK SC6AC2 PRESFR SLP969 PRESFR SLP969
CYUL;2002-10-05 07:00;METAR CYUL 050700Z 18015G25KT 12SM -RA OVC045 18/16 A2939 RMK SC8 SLP953
CYUL;2002-10-05 08:00;METAR CYUL 050800Z 22023G35KT 12SM -RA OVC030 22/18 A2942 RMK SC8 SLP963
CYUL;2002-10-05 09:00;METAR CYUL 050900Z 25029G35KT 15SM SCT030 21/16 A2950 RMK SC3 PRESRR SLP988
CYUL;2002-10-05 10:00;METAR CYUL 051000Z 24021G29KT 15SM FEW030 19/14 A2953 RMK SC2 SLP000
CYUL;2002-10-05 11:00;METAR CYUL 051100Z 23017G24KT 30SM FEW030 FEW075 19/14 A2956 RMK CF1AC1 SLP011
CYUL;2002-10-05 12:00;METAR CYUL 051200Z 24020G30KT 30SM FEW028 BKN082 19/15 A2958 RMK CF1AC4 SLP016
CYUL;2002-10-05 13:00;METAR CYUL 051300Z 25027G40KT 30SM FEW028 FEW075 20/14 A2961 RMK CF1AC1 CF TR SLP029 SLP029
CYUL;2002-10-05 14:00;METAR CYUL 051400Z 25027G37KT 30SM FEW035 FEW075 20/13 A2965 RMK CU1AC1 SLP042
CYUL;2002-10-05 15:00;METAR CYUL 051500Z 27026G33KT 30SM SCT040 BKN056 18/11 A2970 RMK CU3SC3 SLP059
CYUL;2002-10-05 16:00;METAR CYUL 051600Z 26026G31KT 30SM FEW040 FEW060 18/11 A2974 RMK CU1SC2 SLP070
CYUL;2002-10-05 18:00;METAR CYUL 051800Z 30018G25KT 30SM FEW035 BKN058 BKN240 15/09 A2984 RMK CU2SC4CI1 SLP104 SLP104
CYUL;2002-10-05 19:00;METAR CYUL 051900Z 29020G28KT 30SM FEW040 SCT065 16/08 A2987 RMK CU2SC2 SLP114
CYUL;2002-10-05 20:00;METAR CYUL 052000Z 28017G27KT 30SM FEW040 SCT060 16/08 A2990 RMK CU2SC2 SLP124
CYUL;2002-10-05 21:00;METAR CYUL 052100Z 28019G24KT 30SM FEW043 FEW060 15/07 A2995 RMK CU1SC2 SLP141
CYUL;2002-10-05 22:00;METAR CYUL 052200Z 31017G24KT 30SM FEW045 FEW063 13/05 A2999 RMK CU1SC1 SLP156
CYUL;2002-10-05 23:00;METAR CYUL 052300Z 30006KT 20SM SCT070 11/05 A3003 RMK AC3 SLP171
CYUL;2002-10-06 00:00;METAR CYUL 060000Z 34003KT 15SM SCT070 10/05 A3007 RMK AC3 SLP183
CYUL;2002-10-06 01:00;METAR CYUL 060100Z 27002KT 15SM FEW070 10/04 A3010 RMK AC2 SLP193
CYUL;2002-10-06 02:00;METAR CYUL 060200Z 00000KT 15SM FEW070 09/04 A3013 RMK AC2 SLP202
CYUL;2002-10-06 03:00;METAR CYUL 060300Z 35005KT 15SM FEW070 09/05 A3015 RMK AC1 SLP211
CYUL;2002-10-06 04:00;METAR CYUL 060400Z 32005KT 15SM FEW066 07/04 A3018 RMK AC1 SLP220
CYUL;2002-10-06 05:00;METAR CYUL 060500Z 32003KT 15SM SCT068 06/04 A3019 RMK AC4 SLP225
CYUL;2002-10-06 06:00;METAR CYUL 060600Z 34005KT 15SM FEW070 06/04 A3021 RMK AC1 SLP232
CYUL;2002-10-06 07:00;METAR CYUL 060700Z 18002KT 15SM FEW070 06/04 A3023 RMK AC1 SLP239
CYUL;2002-10-06 08:00;METAR CYUL 060800Z 00000KT 15SM FEW070 05/04 A3025 RMK AC1 SLP245
CYUL;2002-10-06 09:00;METAR CYUL 060900Z 00000KT 15SM SKC 05/04 A3027 RMK SLP251
CYUL;2002-10-06 10:00;METAR CYUL 061000Z 11003KT 15SM SKC 06/04 A3029 RMK SLP258
CYUL;2002-10-06 11:00;METAR CYUL 061100Z 36003KT 30SM FEW010 05/04 A3031 RMK SC1 SLP264
CYUL;2002-10-06 12:00;METAR CYUL 061200Z 01003KT 30SM SKC 05/04 A3033 RMK SLP271
CYUL;2002-10-06 13:00;METAR CYUL 061300Z 04003KT 30SM FEW010 FEW090 08/05 A3034 RMK SF1AC1 SLP276
CYUL;2002-10-06 14:00;METAR CYUL 061400Z 12005KT 30SM FEW240 11/04 A3034 RMK CI2 SLP276
CYUL;2002-10-06 15:00;METAR CYUL 061500Z 10006KT 30SM FEW015 SCT230 12/04 A3034 RMK CU1CI2
CYUL;2002-10-06 16:00;METAR CYUL 061600Z 13008KT 30SM FEW015 BKN230 12/04 A3032 RMK CU1CI2 SLP270
CYUL;2002-10-06 17:00;METAR CYUL 061700Z 10004KT 30SM FEW015 BKN230 14/04 A3030 RMK CU1CI2 SLP262
CYUL;2002-10-06 18:00;METAR CYUL 061800Z 08009KT 30SM FEW020 BKN230 14/04 A3027 RMK CU1CI2 SLP250
CYUL;2002-10-06 19:00;METAR CYUL 061900Z 13008G19KT 30SM FEW020 SCT230 15/03 A3022 RMK CU1CI2 SLP236
CYUL;2002-10-06 20:00;METAR CYUL 062000Z 15008KT 30SM FEW020 FEW230 15/04 A3019 RMK CU1CI2 SLP226
CYUL;2002-10-06 21:00;METAR CYUL 062100Z 13009KT 30SM SCT230 15/03 A3018 RMK CI2 SLP222
CYUL;2002-10-06 22:00;METAR CYUL 062200Z 09006KT 30SM BKN230 14/03 A3016 RMK CI2 SLP214
CYUL;2002-10-06 23:00;METAR CYUL 062300Z 08009KT 20SM BKN230 14/02 A3014 RMK CI3 SLP207
CYUL;2002-10-07 00:00;METAR CYUL 070000Z 09014KT 15SM FEW230 13/02 A3011 RMK CI2 SLP196
CYUL;2002-10-07 01:00;METAR CYUL 070100Z 08008KT 15SM FEW240 13/02 A3008 RMK CI1 SLP188
CYUL;2002-10-07 02:00;METAR CYUL 070200Z 09007KT 15SM FEW240 12/04 A3005 RMK CI2 SLP177
CYUL;2002-10-07 03:00;METAR CYUL 070300Z 11009KT 15SM FEW180 BKN250 11/05 A3001 RMK AC1CI2 SLP163
CYUL;2002-10-07 04:00;METAR CYUL 070400Z 13011KT 15SM FEW180 BKN250 12/06 A2998 RMK AC1CI4 SLP152
CYUL;2002-10-07 05:00;METAR CYUL 070500Z 14010KT 15SM FEW190 SCT250 12/07 A2993 RMK AC2CC2 SLP138
CYUL;2002-10-07 06:00;METAR CYUL 070600Z 16018G24KT 15SM SCT180 13/08 A2990 RMK AC2 SLP125
CYUL;2002-10-07 07:00;METAR CYUL 070700Z 16021G28KT 15SM FEW061 BKN180 13/08 A2984 RMK SC1AC4 SLP106
CYUL;2002-10-07 08:00;METAR CYUL 070800Z 16022G27KT 15SM BKN049 13/08 A2981 RMK SC6 SLP094
CYUL;2002-10-07 09:00;METAR CYUL 070900Z 16020G29KT 15SM BKN049 13/08 A2976 RMK SC6 SLP080
CYUL;2002-10-07 10:00;METAR CYUL 071000Z 16023G33KT 15SM BKN048 BKN150 13/08 A2974 RMK SC7AC1 SLP070
CYUL;2002-10-07 11:00;METAR CYUL 071100Z 16022G32KT 12SM -RA BKN044 OVC110 12/09 A2969 RMK SC6AC2 R- INTMT SLP054 INTMT SLP054
CYUL;2002-10-07 12:00;METAR CYUL 071200Z 17027G34KT 20SM BKN038 OVC090 13/09 A2967 RMK SC7AC1 INTMT R- SLP048 SLP048 R- INTMT VSBY E 9 SLP052
CYUL;2002-10-07 14:00;METAR CYUL 071400Z 24024G30KT 30SM FEW029 BKN092 BKN150 16/11 A2970 RMK SC2AC4AC1 INTMT R- SLP059 INTMT R- SLP059
CYUL;2002-10-07 16:00;METAR CYUL 071600Z 24030G37KT 30SM BKN040 18/07 A2974 RMK SC6 SLP072
CYUL;2002-10-07 17:00;METAR CYUL 071700Z 25027G38KT 30SM BKN055 17/06 A2978 RMK SC5 SLP084
CYUL;2002-10-07 18:00;METAR CYUL 071800Z 25032G38KT 30SM BKN060 BKN230 17/05 A2980 RMK SC6CI1 SLP091
CYUL;2002-10-07 19:00;METAR CYUL 071900Z 26027G36KT 30SM BKN065 BKN230 17/03 A2981 RMK SC6CI1 SLP096
CYUL;2002-10-07 20:00;METAR CYUL 072000Z 28022G33KT 30SM SCT065 16/03 A2986 RMK SC4 SLP111
CYUL;2002-10-07 21:00;METAR CYUL 072100Z 28022G33KT 30SM FEW065 FEW230 14/01 A2989 RMK SC2CI1 SLP123
CYUL;2002-10-07 22:00;METAR CYUL 072200Z 29015G25KT 30SM FEW065 FEW230 13/01 A2993 RMK CU2CI1 SLP137
CYUL;2002-10-07 23:00;METAR CYUL 072300Z 29011G16KT 15SM FEW065 FEW230 11/M00 A2998 RMK CU1CI0 SLP154
CYUL;2002-10-08 00:00;METAR CYUL 080000Z 31008KT 15SM FEW065 FEW230 09/00 A3001 RMK CU1CI1 SLP165
CYUL;2002-10-08 01:00;METAR CYUL 080100Z 32006KT 15SM SKC 08/01 A3003 RMK SLP170
CYUL;2002-10-08 02:00;METAR CYUL 080200Z 31007KT 15SM FEW080 07/M00 A3005 RMK AC1 SLP177
CYUL;2002-10-08 03:00;METAR CYUL 080300Z 31007KT 15SM FEW080 06/M00 A3006 RMK AC1 SLP181
CYUL;2002-10-08 04:00;METAR CYUL 080400Z 26004KT 15SM FEW080 06/M01 A3008 RMK AC2 SLP189
CYUL;2002-10-08 05:00;METAR CYUL 080500Z 27006KT 15SM FEW080 05/M00 A3011 RMK AC1 SLP197
CYUL;2002-10-08 06:00;METAR CYUL 080600Z 31006KT 15SM SKC 04/M00 A3013 RMK SLP203
CYUL;2002-10-08 07:00;METAR CYUL 080700Z 29006KT 15SM SKC 03/M01 A3015 RMK SLP210
CYUL;2002-10-08 08:00;METAR CYUL 080800Z 30004KT 15SM FEW020 02/M01 A3018 RMK CF1 SLP221
CYUL;2002-10-08 09:00;METAR CYUL 080900Z 26004KT 15SM FEW020 03/M01 A3021 RMK CF1 SLP231
CYUL;2002-10-08 10:00;METAR CYUL 081000Z 29003KT 15SM FEW020 FEW080 02/M03 A3025 RMK CF1AC1 SLP244
CYUL;2002-10-08 11:00;METAR CYUL 081100Z 28003KT 20SM FEW020 FEW100 00/M03 A3028 RMK CU1AC0 SLP255
CYUL;2002-10-08 12:00;METAR CYUL 081200Z 31004KT 30SM FEW020 FEW100 FEW230 02/M02 A3031 RMK CU1AC1CI0 SLP267 SLP267
CYUL;2002-10-08 13:00;METAR CYUL 081300Z 32006KT 30SM FEW030 FEW100 04/M03 A3035 RMK SC1AC1 SLP279
CYUL;2002-10-08 14:00;METAR CYUL 081400Z 31004KT 30SM FEW030 FEW100 05/M04 A3037 RMK CF1AC1 SLP286
CYUL;2002-10-08 15:00;METAR CYUL 081500Z 01003KT 30SM FEW030 FEW230 05/M03 A3037 RMK CU1CI1
CYUL;2002-10-08 16:00;METAR CYUL 081600Z 02003KT 30SM FEW030 FEW230 07/M03 A3037 RMK CU1CI1 SLP285
CYUL;2002-10-08 17:00;METAR CYUL 081700Z 27004KT 30SM FEW030 FEW230 07/M03 A3035 RMK CU1CI1
CYUL;2002-10-08 18:00;METAR CYUL 081800Z 21007KT 30SM FEW030 FEW230 08/M03 A3033 RMK CU1CI1 SLP274
CYUL;2002-10-08 19:00;METAR CYUL 081900Z 29006KT 30SM FEW030 FEW240 09/M04 A3032 RMK CU1CI1 SLP271
CYUL;2002-10-08 20:00;METAR CYUL 082000Z 28006KT 30SM FEW240 09/M04 A3032 RMK CI1 SLP271
CYUL;2002-10-08 21:00;METAR CYUL 082100Z 29002KT 30SM FEW240 08/M04 A3032 RMK CI0 SLP269
CYUL;2002-10-08 22:00;METAR CYUL 082200Z 00000KT 30SM FEW240 08/M05 A3031 RMK CI0 SLP267
CYUL;2002-10-08 23:00;METAR CYUL 082300Z 25003KT 20SM FEW150 FEW240 06/M04 A3033 RMK AC1CI1 SLP273
CYUL;2002-10-09 00:00;METAR CYUL 090000Z 25003KT 15SM SKC 05/M03 A3033 RMK SLP272
CYUL;2002-10-09 01:00;METAR CYUL 090100Z 15003KT 15SM FEW240 06/M02 A3035 RMK CI1 SLP279
CYUL;2002-10-09 02:00;METAR CYUL 090200Z 12004KT 15SM FEW240 06/M03 A3035 RMK CI0 SLP281
CYUL;2002-10-09 03:00;METAR CYUL 090300Z 13003KT 15SM SCT100 05/M02 A3036 RMK AC3 SLP283
CYUL;2002-10-09 04:00;METAR CYUL 090400Z 12005KT 15SM BKN090 05/M01 A3036 RMK AC5 SLP283
CYUL;2002-10-09 05:00;METAR CYUL 090500Z 13005KT 15SM SCT090 04/M01 A3038 RMK AC4 SLP289
CYUL;2002-10-09 06:00;METAR CYUL 090600Z 11003KT 15SM BKN090 06/M02 A3038 RMK AC7 SLP288
CYUL;2002-10-09 07:00;METAR CYUL 090700Z 09005KT 15SM BKN085 06/M01 A3036 RMK AC6 SLP283
CYUL;2002-10-09 08:00;METAR CYUL 090800Z 08006KT 15SM BKN085 06/M01 A3035 RMK AC6 SLP281
CYUL;2002-10-09 09:00;METAR CYUL 090900Z 08005KT 15SM BKN085 06/M02 A3035 RMK AC6 SLP279
CYUL;2002-10-09 10:00;METAR CYUL 091000Z 08004KT 15SM BKN070 07/M04 A3035 RMK AC6 SLP280
CYUL;2002-10-09 12:00;METAR CYUL 091200Z 09008KT 20SM OVC077 07/M03 A3036 RMK AC7 SLP283
CYUL;2002-10-09 13:00;METAR CYUL 091300Z 07008KT 20SM BKN075 OVC110 07/M01 A3035 RMK AC6AC2 SLP279
CYUL;2002-10-09 14:00;METAR CYUL 091400Z 09008KT 20SM BKN075 OVC120 07/M02 A3035 RMK AC5AC3
CYUL;2002-10-09 15:00;METAR CYUL 091500Z 09007KT 20SM BKN057 OVC120 07/M02 A3035 RMK SC6AC2 SLP278
CYUL;2002-10-09 16:00;METAR CYUL 091600Z 09006KT 20SM BKN056 OVC080 08/M01 A3033 RMK SC6AC2 SLP273
CYUL;2002-10-09 17:00;METAR CYUL 091700Z 05010KT 12SM SCT055 OVC095 08/M00 A3030 RMK SC4AC4 SLP264
CYUL;2002-10-09 18:00;METAR CYUL 091800Z 06012KT 15SM -RA SCT055 OVC088 08/M00 A3029 RMK SC3AC5 SLP257
CYUL;2002-10-09 19:00;METAR CYUL 091900Z 04011KT 15SM -RA SCT060 OVC070 07/02 A3028 RMK SC3AC5 SLP255
CYUL;2002-10-09 21:00;METAR CYUL 092100Z 06012G18KT 9SM -RA FEW060 OVC073 07/03 A3024 RMK SC2AC6 SLP242
CYUL;2002-10-09 22:00;METAR CYUL 092200Z 05012KT 12SM BKN080 07/04 A3022 RMK AC7 SLP236
CYUL;2002-10-09 23:00;METAR CYUL 092300Z 04009KT 15SM BKN080 07/04 A3024 RMK AC6 SLP240
CYUL;2002-10-10 00:00;METAR CYUL 100000Z 04011KT 15SM BKN058 07/05 A3023 RMK SC6 SLP238
CYUL;2002-10-10 01:00;METAR CYUL 100100Z 03007KT 15SM FEW060 BKN073 07/05 A3022 RMK SC2AC4 SLP235
CYUL;2002-10-10 02:00;METAR CYUL 100200Z 02006KT 15SM BKN047 BKN075 07/05 A3022 RMK SC5AC2 SLP234
CYUL;2002-10-10 03:00;METAR CYUL 100300Z 03006KT 15SM BKN045 BKN075 06/05 A3021 RMK SC6AC1 SLP232
CYUL;2002-10-10 04:00;METAR CYUL 100400Z 02006KT 12SM BKN045 BKN090 06/05 A3021 RMK SC5AC1
CYUL;2002-10-10 05:00;METAR CYUL 100500Z 01006KT 9SM FEW045 FEW100 05/04 A3022 RMK SC1AC2 FOGGY
CYUL;2002-10-10 06:00;METAR CYUL 100600Z 36004KT 9SM SKC 04/04 A3023 RMK FOGGY SLP239
CYUL;2002-10-10 07:00;METAR CYUL 100700Z 02003KT 1SM BR SKC 04/04 A3024 RMK FG4 VSBY NW-NE 3 SLP241
CYUL;2002-10-10 08:00;METAR CYUL 100800Z 02004KT 9SM FEW035 04/03 A3024 RMK SC2 FOGGY SLP241
CYUL;2002-10-10 09:00;METAR CYUL 100900Z 03006KT 9SM BKN025 OVC090 05/04 A3024 RMK SC6AC2 SLP244
CYUL;2002-10-10 10:00;METAR CYUL 101000Z 01006KT 9SM BKN025 OVC090 05/04 A3026 RMK SC7AC1 SLP250
CYUL;2002-10-10 11:00;METAR CYUL 101100Z 03005KT 10SM BKN027 OVC048 06/05 A3027 RMK SC6SC2 FOGGY SLP254
CYUL;2002-10-10 12:00;METAR CYUL 101200Z 02006KT 4SM BR FEW025 BKN048 BKN085 06/05 A3028 RMK SC2SC4AC1 SLP255 SLP255
CYUL;2002-10-10 14:00;METAR CYUL 101400Z 02004KT 4SM BR SCT020 OVC055 08/07 A3031 RMK SC3SC5 SLP266
CYUL;2002-10-10 15:00;METAR CYUL 101500Z 03004KT 4SM BR BKN018 OVC055 09/07 A3032 RMK SC6SC1 SLP268
CYUL;2002-10-10 17:00;METAR CYUL 101700Z 15002KT 5SM HZ SCT021 BKN069 13/09 A3030 RMK SC4AC2 SLP262
CYUL;2002-10-10 18:00;METAR CYUL 101800Z 17002KT 5SM HZ FEW021 BKN067 14/10 A3029 RMK SC2AC2 SLP259
CYUL;2002-10-10 19:00;METAR CYUL 101900Z 15002KT 9SM FEW021 FEW067 15/10 A3028 RMK SC1AC2 HAZZY SLP256
CYUL;2002-10-10 20:00;METAR CYUL 102000Z 00000KT 9SM SCT068 15/10 A3028 RMK AC3 HAZZY SLP256
CYUL;2002-10-10 21:00;METAR CYUL 102100Z 00000KT 9SM SCT070 16/10 A3028 RMK AC3 HAZZY SLP255
CYUL;2002-10-10 23:00;METAR CYUL 102300Z 03008KT 8SM FEW070 12/09 A3031 RMK AC2 HAZZY SLP264
CYUL;2002-10-11 00:00;METAR CYUL 110000Z 05008KT 6SM HZ SCT050 12/09 A3032 RMK SC3 SLP268
CYUL;2002-10-11 01:00;METAR CYUL 110100Z 06007KT 6SM HZ FEW040 11/08 A3032 RMK SC2 SLP268
CYUL;2002-10-11 02:00;METAR CYUL 110200Z 03008KT 7SM BKN025 10/08 A3032 RMK SC5 SLP270
CYUL;2002-10-11 03:00;METAR CYUL 110300Z 02010KT 6SM BR OVC025 10/08 A3033 RMK SC8 SLP272
CYUL;2002-10-11 04:00;METAR CYUL 110400Z 03010KT 6SM BR BKN025 OVC200 09/08 A3032 RMK SC6CS2 SLP267
CYUL;2002-10-11 05:00;METAR CYUL 110500Z 03007KT 5SM BR FEW025 FEW180 08/07 A3032 RMK SC1AS2 SLP268
CYUL;2002-10-11 06:00;METAR CYUL 110600Z 03011KT 2 1/2SM BR VV004 09/08 A3033 RMK FG8 SLP273
CYUL;2002-10-11 07:00;METAR CYUL 110700Z 04007KT 2 1/4SM BR VV004 09/08 A3033 RMK FG8 SLP272
CYUL;2002-10-11 08:00;METAR CYUL 110800Z 03007KT 3SM BR VV004 09/08 A3033 RMK FG8 SLP273
CYUL;2002-10-11 09:00;METAR CYUL 110900Z 03007KT 4SM BR SCT006 OVC010 09/08 A3035 RMK SF3SC5 SLP278
CYUL;2002-10-11 10:00;METAR CYUL 111000Z 02011KT 3SM BR BKN005 OVC010 09/08 A3035 RMK SF5SC3 SLP280
CYUL;2002-10-11 11:00;METAR CYUL 111100Z 03010KT 2 1/2SM BR OVC004 09/08 A3037 RMK ST8 SLP284
CYUL;2002-10-11 12:00;METAR CYUL 111200Z 03010KT 1 1/4SM R06L/6000FT/D BR OVC004 09/08 A3038 RMK ST8 SLP288 SLP288
CYUL;2002-10-11 13:00;METAR CYUL 111300Z 04009KT 1 1/2SM R06L/6000FT/N BR OVC003 09/08 A3040 RMK ST8 SLP294 SLP294
CYUL;2002-10-11 14:00;METAR CYUL 111400Z 03011KT 2 1/2SM BR OVC004 10/09 A3039 RMK ST8 SLP293
CYUL;2002-10-11 15:00;METAR CYUL 111500Z 04010G15KT 2 1/2SM BR SCT005 OVC014 10/09 A3040 RMK SF4SC4 SLP296 SLP296
CYUL;2002-10-11 16:00;METAR CYUL 111600Z 03010G15KT 4SM BR FEW007 OVC016 11/09 A3040 RMK SF2SC6 SLP295
CYUL;2002-10-11 17:00;METAR CYUL 111700Z 03012KT 5SM BR FEW022 SCT180 BKN240 13/10 A3038 RMK SC2AC1CI2 SLP289 SLP289
CYUL;2002-10-11 18:00;METAR CYUL 111800Z 04010G15KT 7SM FEW022 BKN220 14/10 A3037 RMK SC1CI2 SLP285
CYUL;2002-10-11 19:00;METAR CYUL 111900Z 03011KT 9SM FEW030 BKN220 15/10 A3036 RMK SC2CI2 SLP283
CYUL;2002-10-11 20:00;METAR CYUL 112000Z 03010KT 9SM FEW030 BKN070 15/11 A3035 RMK SC1AC6 SLP280
CYUL;2002-10-11 21:00;METAR CYUL 112100Z 04011KT 9SM SCT025 BKN070 14/10 A3035 RMK SC4AC2 SLP279
CYUL;2002-10-11 22:00;METAR CYUL 112200Z 04011G16KT 9SM BKN025 OVC067 14/10 A3036 RMK SC6AC2 SLP281
CYUL;2002-10-11 23:00;METAR CYUL 112300Z 05010KT 12SM BKN080 13/10 A3037 RMK AC5 SLP284
CYUL;2002-10-12 00:00;METAR CYUL 120000Z 05009G15KT 12SM BKN075 13/10 A3037 RMK AC6 SLP286
CYUL;2002-10-12 01:00;METAR CYUL 120100Z 05011KT 12SM SCT060 12/09 A3037 RMK SC3 SLP284
CYUL;2002-10-12 02:00;METAR CYUL 120200Z 05009KT 12SM BKN070 12/09 A3037 RMK AC5 SLP284
CYUL;2002-10-12 03:00;METAR CYUL 120300Z 04010KT 9SM BKN070 12/10 A3036 RMK AC6 SLP282
CYUL;2002-10-12 04:00;METAR CYUL 120400Z 04009KT 9SM BKN045 OVC070 11/09 A3036 RMK SC6AC2 SLP282
CYUL;2002-10-12 05:00;METAR CYUL 120500Z 04010KT 9SM OVC050 11/09 A3036 RMK SC8 SLP281
CYUL;2002-10-12 06:00;METAR CYUL 120600Z 04010KT 9SM BKN050 11/09 A3036 RMK SC7 SLP281
CYUL;2002-10-12 07:00;METAR CYUL 120700Z 05008KT 9SM BKN055 11/09 A3034 RMK SC7 SLP276
CYUL;2002-10-12 08:00;METAR CYUL 120800Z 04006KT 9SM FEW030 BKN060 12/09 A3034 RMK SF1SC6 SLP276
CYUL;2002-10-12 09:00;METAR CYUL 120900Z 05008KT 9SM BKN065 11/09 A3034 RMK SC7 SLP274
CYUL;2002-10-12 10:00;METAR CYUL 121000Z 04010KT 9SM OVC060 11/09 A3034 RMK SC8 SLP275
CYUL;2002-10-12 11:00;METAR CYUL 121100Z 04009KT 9SM FEW050 BKN070 10/09 A3034 RMK SC1AC7 SLP275
CYUL;2002-10-12 12:00;METAR CYUL 121200Z 05010KT 9SM FEW010 BKN092 10/08 A3034 RMK SF1AC6 SLP274
CYUL;2002-10-12 13:00;METAR CYUL 121300Z 05009KT 9SM SCT120 11/08 A3035 RMK AC3 SLP277
CYUL;2002-10-12 14:00;METAR CYUL 121400Z 05010KT 10SM FEW100 13/09 A3034 RMK AC2 SLP274
CYUL;2002-10-12 16:00;METAR CYUL 121600Z 07011KT 20SM BKN075 16/09 A3032 RMK AC7 SLP269
CYUL;2002-10-12 17:00;METAR CYUL 121700Z 13012KT 20SM BKN067 17/08 A3030 RMK AC7 SLP263
CYUL;2002-10-12 18:00;METAR CYUL 121800Z 15015G20KT 30SM FEW072 BKN081 17/09 A3028 RMK AC2AC5 SLP256
CYUL;2002-10-12 19:00;METAR CYUL 121900Z 12009G16KT 30SM BKN065 17/08 A3027 RMK SC7 SLP251
CYUL;2002-10-12 20:00;METAR CYUL 122000Z 13012G18KT 30SM BKN085 BKN220 18/09 A3025 RMK AC6CI1 SLP244
CYUL;2002-10-12 21:00;METAR CYUL 122100Z 14011KT 30SM BKN071 BKN220 17/09 A3024 RMK AC6CI1 SLP241
CYUL;2002-10-12 22:00;METAR CYUL 122200Z 13006KT 20SM SCT064 BKN070 BKN220 16/09 A3024 RMK SC4AC1CI1 SLP240 SLP240
CYUL;2002-10-12 23:00;METAR CYUL 122300Z 14008KT 15SM SCT064 BKN095 BKN220 15/09 A3023 RMK SC3AC2CI1 SLP239 SLP239
CYUL;2002-10-13 00:00;METAR CYUL 130000Z 14009KT 15SM SCT120 14/09 A3023 RMK AC4 SLP238
CYUL;2002-10-13 01:00;METAR CYUL 130100Z 13009KT 15SM BKN120 BKN220 14/08 A3022 RMK AC5CI0 SLP235
CYUL;2002-10-13 02:00;METAR CYUL 130200Z 13011KT 15SM BKN070 BKN220 14/08 A3020 RMK AC5CI2 SLP229
CYUL;2002-10-13 04:00;METAR CYUL 130400Z 13016KT 15SM BKN080 13/07 A3016 RMK AC7 SLP215
CYUL;2002-10-13 05:00;METAR CYUL 130500Z 14010KT 15SM BKN048 13/07 A3015 RMK SC7 SLP210
CYUL;2002-10-13 06:00;METAR CYUL 130600Z 15014G19KT 15SM -RA OVC041 13/08 A3014 RMK SC8 SLP208
CYUL;2002-10-13 07:00;METAR CYUL 130700Z 14015KT 12SM BKN052 12/09 A3012 RMK SC7 SLP202
CYUL;2002-10-13 08:00;METAR CYUL 130800Z 13014G19KT 15SM BKN051 12/09 A3010 RMK SC7 SLP195
CYUL;2002-10-13 09:00;METAR CYUL 130900Z 14016KT 15SM OVC046 12/09 A3009 RMK SC8 SLP191
CYUL;2002-10-13 10:00;METAR CYUL 131000Z 14014KT 15SM -RA OVC044 13/09 A3008 RMK SC8 SLP187
CYUL;2002-10-13 11:00;METAR CYUL 131100Z 14014G19KT 15SM -RA OVC040 13/10 A3007 RMK SC8 R- INTMT SLP185
CYUL;2002-10-13 12:00;METAR CYUL 131200Z 14009KT 8SM -RA OVC037 13/10 A3006 RMK SC8 SLP180
CYUL;2002-10-13 13:00;METAR CYUL 131300Z 15014KT 15SM -RA FEW015 OVC036 13/11 A3005 RMK CF1SC8 R- INTMT SLP176 SLP176
CYUL;2002-10-13 14:00;METAR CYUL 131400Z 15016G21KT 20SM FEW015 BKN043 BKN090 15/12 A3001 RMK CF1SC7AC1 SLP165 SLP165
CYUL;2002-10-13 15:00;METAR CYUL 131500Z 15012G17KT 20SM FEW015 BKN057 BKN090 16/12 A2998 RMK CF1SC5AC2 SLP151 SLP151
CYUL;2002-10-13 16:00;METAR CYUL 131600Z 16021KT 30SM FEW015 FEW060 SCT230 19/12 A2993 RMK CF1SC2CI0 SLP136 SLP136
CYUL;2002-10-13 17:00;METAR CYUL 131700Z 15021KT 20SM BKN052 BKN090 18/12 A2991 RMK SC6AC1 VCSH SLP130
CYUL;2002-10-13 19:00;METAR CYUL 131900Z 16013KT 20SM BKN061 BKN090 OVC230 18/13 A2987 RMK SC6AC1CI1 SLP114 SLP114
CYUL;2002-10-13 20:00;METAR CYUL 132000Z 23015G22KT 3SM -RA BR BKN032 OVC050 16/15 A2989 RMK SC5SC3 SLP122 SLP122
CYUL;2002-10-13 21:00;METAR CYUL 132100Z 27017G22KT 4SM -RA BR FEW012 OVC039 13/11 A2994 RMK CF2SC6 SLP140 SLP140
CYUL;2002-10-13 22:00;METAR CYUL 132200Z 26016G21KT 10SM -RA SCT038 BKN070 11/09 A3000 RMK SC3AC4 SLP159
CYUL;2002-10-13 23:00;METAR CYUL 132300Z 25014KT 15SM BKN075 10/08 A3002 RMK AC7 SLP166
CYUL;2002-10-14 00:00;METAR CYUL 140000Z 25010KT 15SM BKN067 10/07 A3004 RMK AC6 SLP174
CYUL;2002-10-14 01:00;METAR CYUL 140100Z 24013G21KT 15SM FEW035 BKN065 11/08 A3006 RMK SC2SC4 SLP181
CYUL;2002-10-14 02:00;METAR CYUL 140200Z 25016G22KT 15SM BKN072 10/06 A3008 RMK AC6 SLP186
CYUL;2002-10-14 03:00;METAR CYUL 140300Z 25013G22KT 15SM FEW015 FEW070 09/03 A3010 RMK CF1AC1 SLP194
CYUL;2002-10-14 04:00;METAR CYUL 140400Z 27013G20KT 15SM FEW018 FEW080 07/02 A3012 RMK CF1AC1 SLP200
CYUL;2002-10-14 05:00;METAR CYUL 140500Z 26004KT 15SM FEW018 FEW080 07/M01 A3014 RMK CF1AC1 SLP208
CYUL;2002-10-14 06:00;METAR CYUL 140600Z 26017G24KT 15SM FEW018 06/M00 A3016 RMK CF1 SLP214
CYUL;2002-10-14 07:00;METAR CYUL 140700Z 26015KT 15SM FEW020 FEW080 05/M01 A3017 RMK CF1AC1 SLP218
CYUL;2002-10-14 08:00;METAR CYUL 140800Z 25012G27KT 15SM FEW020 FEW070 04/M02 A3019 RMK CF1AC1 SLP223
CYUL;2002-10-14 09:00;METAR CYUL 140900Z 26014G21KT 15SM FEW020 FEW070 03/M02 A3020 RMK CF1AC1 SLP227
CYUL;2002-10-14 10:00;METAR CYUL 141000Z 28015KT 15SM FEW020 FEW070 03/M01 A3021 RMK CF1AC1 SLP231
CYUL;2002-10-14 11:00;METAR CYUL 141100Z 27014KT 30SM FEW025 03/M01 A3024 RMK CF1 SLP240
CYUL;2002-10-14 12:00;METAR CYUL 141200Z 26010G17KT 30SM FEW025 03/M01 A3026 RMK CF1 SLP249
CYUL;2002-10-14 13:00;METAR CYUL 141300Z 28014KT 30SM FEW025 FEW240 04/00 A3029 RMK CF1CI1 SLP257
CYUL;2002-10-14 14:00;METAR CYUL 141400Z 29014G20KT 30SM FEW025 FEW240 06/00 A3030 RMK CF1CI1 CI TR SLP261 SLP261
CYUL;2002-10-14 15:00;METAR CYUL 141500Z 30012G17KT 30SM FEW035 06/00 A3031 RMK CF2 SLP265
CYUL;2002-10-14 16:00;METAR CYUL 141600Z 30010G19KT 30SM FEW035 07/M02 A3032 RMK CU2 SLP267
CYUL;2002-10-14 17:00;METAR CYUL 141700Z 32012G20KT 30SM FEW040 08/M04 A3031 RMK CU2 SLP266
CYUL;2002-10-14 18:00;METAR CYUL 141800Z 30012G19KT 30SM FEW040 08/M05 A3033 RMK CU2 SLP273
CYUL;2002-10-14 19:00;METAR CYUL 141900Z 32005G16KT 30SM FEW050 09/M05 A3030 RMK CU2 SLP263
CYUL;2002-10-14 20:00;METAR CYUL 142000Z 32008KT 30SM FEW050 09/M04 A3030 RMK CU1 SLP262
CYUL;2002-10-14 21:00;METAR CYUL 142100Z 28009KT 30SM FEW050 08/M05 A3030 RMK CU1 SLP261
CYUL;2002-10-14 22:00;METAR CYUL 142200Z 32006KT 30SM FEW060 06/M05 A3030 RMK CF1 SLP264
CYUL;2002-10-14 23:00;METAR CYUL 142300Z 31004KT 15SM SKC 04/M05 A3031 RMK SLP267
CYUL;2002-10-15 00:00;METAR CYUL 150000Z 32003KT 15SM SKC 03/M04 A3032 RMK SLP268
CYUL;2002-10-15 01:00;METAR CYUL 150100Z 34003KT 15SM SKC 02/M04 A3032 RMK SLP270
CYUL;2002-10-15 02:00;METAR CYUL 150200Z 33002KT 15SM SKC 02/M04 A3033 RMK SLP273
CYUL;2002-10-15 03:00;METAR CYUL 150300Z 35003KT 15SM SKC 01/M03 A3033 RMK SLP272
CYUL;2002-10-15 04:00;METAR CYUL 150400Z 03004KT 15SM SKC 02/M03 A3032 RMK SLP271
CYUL;2002-10-15 05:00;METAR CYUL 150500Z 03007KT 15SM SKC 01/M04 A3033 RMK SLP272
CYUL;2002-10-15 06:00;METAR CYUL 150600Z 08006KT 15SM SKC 03/M04 A3032 RMK SLP269
CYUL;2002-10-15 07:00;METAR CYUL 150700Z 09005KT 15SM SKC 02/M04 A3031 RMK SLP265
CYUL;2002-10-15 08:00;METAR CYUL 150800Z 07004KT 15SM SKC 02/M05 A3031 RMK SLP265
CYUL;2002-10-15 09:00;METAR CYUL 150900Z 03004KT 15SM SKC 00/M04 A3030 RMK SLP263
CYUL;2002-10-15 10:00;METAR CYUL 151000Z 03006KT 15SM SKC M01/M03 A3029 RMK SLP260
CYUL;2002-10-15 11:00;METAR CYUL 151100Z 03006KT 30SM SKC M01/M03 A3029 RMK SLP258
CYUL;2002-10-15 12:00;METAR CYUL 151200Z 03006KT 30SM FEW240 M00/M03 A3028 RMK CI1 SLP257
CYUL;2002-10-15 13:00;METAR CYUL 151300Z 09005KT 30SM FEW240 04/M03 A3027 RMK CI1 SLP254
CYUL;2002-10-15 14:00;METAR CYUL 151400Z 12007KT 30SM FEW240 05/M01 A3026 RMK CI1 SLP250
CYUL;2002-10-15 15:00;METAR CYUL 151500Z 12007KT 30SM FEW240 07/M00 A3023 RMK CI1 SLP239
CYUL;2002-10-15 16:00;METAR CYUL 151600Z 11010KT 30SM SCT240 08/00 A3020 RMK CI1 SLP229
CYUL;2002-10-15 17:00;METAR CYUL 151700Z 12007KT 30SM FEW170 BKN240 09/M00 A3016 RMK AC1CI2 COTRA SLP216
CYUL;2002-10-15 18:00;METAR CYUL 151800Z 14008KT 30SM FEW180 BKN240 10/M02 A3013 RMK CC1CI2 SLP205
CYUL;2002-10-15 19:00;METAR CYUL 151900Z 11010G15KT 30SM FEW180 OVC240 11/M02 A3010 RMK AC1CI2 SLP194
CYUL;2002-10-15 20:00;METAR CYUL 152000Z 12011G17KT 30SM FEW180 BKN240 11/M03 A3008 RMK AC1CI3 SLP187
CYUL;2002-10-15 21:00;METAR CYUL 152100Z 11010KT 30SM FEW180 OVC220 11/M02 A3006 RMK AC1CS3 SLP181
CYUL;2002-10-15 22:00;METAR CYUL 152200Z 11009KT 30SM FEW180 BKN220 11/M03 A3006 RMK AC1CS4
CYUL;2002-10-15 23:00;METAR CYUL 152300Z 08008KT 15SM OVC210 10/M02 A3006 RMK CS4 SLP180
CYUL;2002-10-16 00:00;METAR CYUL 160000Z 09008KT 15SM OVC210 10/M01 A3005 RMK CS5 SLP176
CYUL;2002-10-16 01:00;METAR CYUL 160100Z 10010KT 15SM OVC210 10/M01 A3003 RMK CS5 SLP171
CYUL;2002-10-16 02:00;METAR CYUL 160200Z 09005KT 15SM OVC210 10/M01 A3003 RMK CS4 SLP172
CYUL;2002-10-16 03:00;METAR CYUL 160300Z 09003KT 15SM OVC210 09/00 A3003 RMK CS4 SLP172
CYUL;2002-10-16 04:00;METAR CYUL 160400Z 11005KT 15SM SCT100 OVC210 08/01 A3002 RMK AC3CS2 SLP168
CYUL;2002-10-16 05:00;METAR CYUL 160500Z 08003KT 15SM FEW090 OVC160 09/01 A3000 RMK AC2AS4 SLP160
CYUL;2002-10-16 06:00;METAR CYUL 160600Z 10004KT 15SM FEW090 OVC150 08/02 A3000 RMK AC2AS4
CYUL;2002-10-16 07:00;METAR CYUL 160700Z 07003KT 15SM FEW090 OVC150 08/02 A2999 RMK AC2AS4 SLP157
CYUL;2002-10-16 08:00;METAR CYUL 160800Z 03005KT 15SM BKN150 06/02 A3000 RMK AC6 SLP159
CYUL;2002-10-16 09:00;METAR CYUL 160900Z 04007KT 15SM FEW080 OVC120 06/02 A2999 RMK AC1AC7 SLP156
CYUL;2002-10-16 10:00;METAR CYUL 161000Z 03006KT 15SM OVC110 06/02 A2998 RMK AC8 SLP155
CYUL;2002-10-16 11:00;METAR CYUL 161100Z 02007KT 15SM OVC110 06/02 A2998 RMK AC8 SLP152
CYUL;2002-10-16 12:00;METAR CYUL 161200Z 03007KT 20SM FEW110 OVC150 06/03 A2996 RMK AC2AS6 SLP147
CYUL;2002-10-16 13:00;METAR CYUL 161300Z 08009KT 30SM BKN080 OVC110 08/03 A2998 RMK AC7AC1 SLP152
CYUL;2002-10-16 14:00;METAR CYUL 161400Z 05006KT 30SM FEW100 OVC150 10/04 A2998 RMK AC2AS6
CYUL;2002-10-16 15:00;METAR CYUL 161500Z 08009KT 30SM FEW100 OVC140 11/04 A2995 RMK AC1AS7 SLP143
CYUL;2002-10-16 16:00;METAR CYUL 161600Z 08009G15KT 30SM FEW030 FEW100 OVC150 11/05 A2992 RMK SC1AC1AS7 SLP135 SLP135
CYUL;2002-10-16 17:00;METAR CYUL 161700Z 08012KT 30SM FEW030 OVC110 11/04 A2990 RMK SC1AS8 SLP127
CYUL;2002-10-16 18:00;METAR CYUL 161800Z 07007KT 30SM OVC080 11/04 A2988 RMK AC8 SLP119
CYUL;2002-10-16 21:00;METAR CYUL 162100Z 05014KT 9SM -RA FEW016 OVC050 08/05 A2982 RMK CF1SC7 PRESS FR SLP099 SLP099
CYUL;2002-10-16 22:00;METAR CYUL 162200Z 07019G24KT 9SM RA FEW013 BKN035 OVC050 08/05 A2979 RMK SF2SC4NS2 SLP090
CYUL;2002-10-16 23:00;METAR CYUL 162300Z 06018G24KT 6SM RA FEW010 SCT035 OVC050 06/04 A2976 RMK SF2SC2NS4 SLP081
CYUL;2002-10-17 00:00;METAR CYUL 170000Z 06025G30KT 6SM RA BR SCT010 OVC035 06/04 A2972 RMK SF3SC5 SLP066 SLP066
CYUL;2002-10-17 00:33;SPECI CYUL 170033Z 05018G26KT 4SM RA BR FEW009 BKN015 OVC030 RMK SF2SC4NS2
CYUL;2002-10-17 01:00;METAR CYUL 170100Z 05020G25KT 4SM RA BR SCT008 OVC013 05/04 A2970 RMK SF3SC5 SLP059 SLP059
CYUL;2002-10-17 02:00;METAR CYUL 170200Z 05019G25KT 4SM RA BR SCT007 OVC011 05/03 A2966 RMK SF3SC5 SLP045 SLP045
CYUL;2002-10-17 03:00;METAR CYUL 170300Z 06027G40KT 4SM RA BR BKN007 OVC012 04/03 A2958 RMK SF6SC2 PRESFR SLP018 PRESFR SLP018
CYUL;2002-10-17 04:00;METAR CYUL 170400Z 05020G27KT 7SM RA BKN008 OVC040 04/02 A2957 RMK SF6SC2 FOGGY SLP015 SLP015
CYUL;2002-10-17 05:00;METAR CYUL 170500Z 03012G19KT 12SM -RA BKN009 OVC030 04/02 A2959 RMK SF6SC2 RERA SLP022 SLP022
CYUL;2002-10-17 06:00;METAR CYUL 170600Z 31006KT 4SM -RA BR FEW004 OVC020 01/00 A2961 RMK SF2SC6 SLP028
CYUL;2002-10-17 07:00;METAR CYUL 170700Z 30008KT 4SM -RA BR SCT005 OVC020 01/01 A2963 RMK SF3SC5 SLP034
CYUL;2002-10-17 08:00;METAR CYUL 170800Z 30008KT 6SM -RA FEW005 OVC030 02/01 A2963 RMK SF2SC6 SLP037
CYUL;2002-10-17 09:00;METAR CYUL 170900Z 28007KT 6SM -RA BR FEW010 OVC030 03/02 A2966 RMK SF1SC7 SLP046
CYUL;2002-10-17 09:37;SPECI CYUL 170937Z 27008KT 12SM BKN040 RMK SC6
CYUL;2002-10-17 10:00;METAR CYUL 171000Z 26007KT 15SM FEW005 BKN045 03/02 A2968 RMK SF1SC5 SLP051
CYUL;2002-10-17 11:00;METAR CYUL 171100Z 24011KT 20SM FEW006 OVC037 03/02 A2972 RMK SF1SC7 SLP067
CYUL;2002-10-17 11:44;SPECI CYUL 171144Z 25013KT 4SM BR BKN007 OVC017 RMK SF6SC2
CYUL;2002-10-17 12:00;METAR CYUL 171200Z 25011KT 12SM OVC008 04/03 A2976 RMK SF8 VSBY N 4F SLP081
CYUL;2002-10-17 12:30;SPECI CYUL 171230Z 26011G16KT 20SM FEW008 BKN017 RMK SF2SC6
CYUL;2002-10-17 13:00;METAR CYUL 171300Z 25014KT 20SM OVC011 04/03 A2979 RMK SC8 SLP088
CYUL;2002-10-17 14:00;METAR CYUL 171400Z 27013G18KT 20SM BKN013 BKN150 05/03 A2982 RMK SC6AC1 SLP101
CYUL;2002-10-17 14:32;SPECI CYUL 171432Z 25012KT 20SM FEW012 BKN040 RMK SC1SC6
CYUL;2002-10-17 15:00;METAR CYUL 171500Z 29007KT 30SM FEW012 BKN042 06/03 A2984 RMK SC1SC7 SLP105
CYUL;2002-10-17 16:00;METAR CYUL 171600Z 25008KT 20SM BKN018 OVC037 07/04 A2985 RMK SC7SC1 SLP111
CYUL;2002-10-17 17:00;METAR CYUL 171700Z 26007KT 20SM OVC014 07/04 A2985 RMK SC8 SLP111
CYUL;2002-10-17 18:00;METAR CYUL 171800Z 25004KT 20SM OVC012 07/05 A2985 RMK SC8 SLP111
CYUL;2002-10-17 19:00;METAR CYUL 171900Z 25006KT 20SM BKN012 OVC040 08/05 A2986 RMK SC7SC1 SLP113
CYUL;2002-10-17 20:00;METAR CYUL 172000Z 30007KT 20SM BKN014 OVC040 08/05 A2987 RMK SC5SC3 SLP115
CYUL;2002-10-17 20:29;SPECI CYUL 172029Z 29006KT 20SM BKN020 OVC040 RMK SC6SC2
CYUL;2002-10-17 21:00;METAR CYUL 172100Z 28006KT 20SM BKN018 OVC040 07/04 A2988 RMK SC7SC1 SLP119 SLP122
CYUL;2002-10-17 22:14;SPECI CYUL 172214Z 29005KT 12SM OVC012 RMK SC8
CYUL;2002-10-17 23:00;METAR CYUL 172300Z 31003KT 12SM FEW008 BKN014 OVC040 06/04 A2990 RMK SF1SC6SC1 SLP125 SLP125
CYUL;2002-10-17 23:25;SPECI CYUL 172325Z 23002KT 12SM FEW008 SCT014 OVC025 RMK SF1SC3SC4
CYUL;2002-10-18 00:00;METAR CYUL 180000Z 25004KT 12SM FEW008 SCT014 OVC025 07/04 A2991 RMK SF1SC2SC5 SLP131 SLP131
CYUL;2002-10-18 01:00;METAR CYUL 180100Z 27005KT 12SM FEW010 OVC025 06/04 A2992 RMK SF1SC7 SLP132
CYUL;2002-10-18 02:00;METAR CYUL 180200Z 28003KT 12SM -RA FEW010 OVC025 06/04 A2991 RMK SF1SC7 SLP129
CYUL;2002-10-18 03:00;METAR CYUL 180300Z 23004KT 12SM -RA FEW015 OVC035 05/04 A2991 RMK SF1SC7
CYUL;2002-10-18 04:00;METAR CYUL 180400Z 25006KT 12SM -RA FEW015 OVC025 05/04 A2991 RMK SF2SC6 SLP130
CYUL;2002-10-18 05:00;METAR CYUL 180500Z 24004KT 15SM BKN030 OVC050 05/03 A2990 RMK SC6SC2 SLP127
CYUL;2002-10-18 06:00;METAR CYUL 180600Z 24008KT 15SM FEW017 OVC030 05/03 A2991 RMK SF1SC7
CYUL;2002-10-18 07:00;METAR CYUL 180700Z 25008KT 15SM BKN010 OVC050 04/03 A2991 RMK SF6SC2
CYUL;2002-10-18 08:00;METAR CYUL 180800Z 25011KT 15SM BKN014 OVC050 05/03 A2991 RMK SF6SC2
CYUL;2002-10-18 09:00;METAR CYUL 180900Z 25010KT 15SM BKN010 OVC060 04/03 A2993 RMK SF6SC2 SLP137
CYUL;2002-10-18 10:00;METAR CYUL 181000Z 25010KT 15SM SCT014 OVC210 04/02 A2995 RMK SF3CS2 SLP143
CYUL;2002-10-18 11:00;METAR CYUL 181100Z 25007KT 20SM FEW015 OVC160 03/01 A2997 RMK CU1AS6 SLP149
CYUL;2002-10-18 12:00;METAR CYUL 181200Z 25008KT 30SM FEW015 BKN240 02/01 A2999 RMK CU1CI2 SLP157
CYUL;2002-10-18 13:00;METAR CYUL 181300Z 25010KT 30SM FEW015 SCT220 03/01 A3001 RMK SC1CI2 SLP164
CYUL;2002-10-18 14:00;METAR CYUL 181400Z 28013KT 30SM FEW019 FEW220 05/02 A3002 RMK CU2CI1 SLP166
CYUL;2002-10-18 15:00;METAR CYUL 181500Z 29011G18KT 30SM FEW022 06/00 A3003 RMK CU2 SLP172
CYUL;2002-10-18 17:00;METAR CYUL 181700Z 27013G20KT 30SM FEW045 07/M02 A3004 RMK CU1 SLP173
CYUL;2002-10-18 16:00;METAR CYUL 181600Z 28013G19KT 30SM FEW035 06/M01 A3004 RMK CU1 SLP174
CYUL;2002-10-18 18:00;METAR CYUL 181800Z 27014G19KT 30SM FEW045 FEW240 08/M02 A3003 RMK CU1CI1 SLP172
CYUL;2002-10-19 00:00;METAR CYUL 190000Z 17008KT 15SM FEW090 06/00 A3004 RMK AC2 SLP175
CYUL;2002-10-19 01:00;METAR CYUL 190100Z 17007KT 15SM FEW055 FEW090 06/00 A3004 RMK SC1AC2 SLP175
CYUL;2002-10-19 02:00;METAR CYUL 190200Z 16007KT 15SM BKN039 07/01 A3004 RMK SC6 SLP173
CYUL;2002-10-19 03:00;METAR CYUL 190300Z 21008KT 15SM BKN068 08/03 A3004 RMK AC6 SLP173
CYUL;2002-10-19 04:00;METAR CYUL 190400Z 30004KT 15SM BKN034 OVC080 07/04 A3003 RMK SC5AC3 SLP171
CYUL;2002-10-19 05:00;METAR CYUL 190500Z 05006KT 12SM -RA FEW030 OVC080 06/03 A3001 RMK SC1AC7 SLP165
CYUL;2002-10-19 06:00;METAR CYUL 190600Z 04006KT 12SM -RA FEW010 OVC035 06/03 A3000 RMK SF2SC6 SLP161
CYUL;2002-10-19 07:00;METAR CYUL 190700Z 05007KT 12SM -RA OVC043 05/04 A2997 RMK SC8 SLP151
CYUL;2002-10-19 08:00;METAR CYUL 190800Z 10004KT 7SM -RA FEW020 OVC040 06/05 A2994 RMK SC2SC6 FOGGY SLP140 SLP140
CYUL;2002-10-19 09:00;METAR CYUL 190900Z 10005KT 6SM -RA BR FEW010 OVC032 06/05 A2990 RMK SF2SC6 SLP128
CYUL;2002-10-19 10:00;METAR CYUL 191000Z 11009KT 6SM -RA BR FEW010 OVC032 06/05 A2986 RMK SF2SC6 SLP112
CYUL;2002-10-19 11:00;METAR CYUL 191100Z 13013KT 6SM -RA BR FEW010 OVC033 06/05 A2980 RMK SF1SC8 SLP094
CYUL;2002-10-19 12:00;METAR CYUL 191200Z 13010KT 3SM -RA BR FEW009 OVC024 06/05 A2978 RMK SF1SC7 SLP086
CYUL;2002-10-19 13:00;METAR CYUL 191300Z 14008KT 3SM -RA BR SCT007 OVC021 07/06 A2974 RMK SF4SC4 SLP074
CYUL;2002-10-19 14:00;METAR CYUL 191400Z 15014KT 4SM -RA BR SCT008 OVC019 07/06 A2969 RMK SF4SC4 SLP055
CYUL;2002-10-19 15:00;METAR CYUL 191500Z 16013KT 4SM -RA BR FEW008 OVC022 07/06 A2965 RMK SF2SC6 SLP040
CYUL;2002-10-19 16:00;METAR CYUL 191600Z 16012KT 5SM -RA BR FEW008 OVC020 07/06 A2961 RMK SF2SC6 SLP028
CYUL;2002-10-19 17:00;METAR CYUL 191700Z 16010KT 5SM -RA BR BKN011 OVC018 08/08 A2959 RMK SF6SC2 SLP021
CYUL;2002-10-20 00:00;METAR CYUL 200000Z 26005KT 15SM BKN060 08/07 A2962 RMK SC6 SLP030
CYUL;2002-10-20 01:00;METAR CYUL 200100Z 26011KT 12SM -RA FEW012 OVC040 09/07 A2965 RMK SF1SC8 SLP040
CYUL;2002-10-20 01:45;SPECI CYUL 200145Z 28008KT 15SM OVC050 RMK SC8
CYUL;2002-10-20 02:00;METAR CYUL 200200Z 27006KT 15SM BKN050 OVC075 08/07 A2967 RMK SC6AC2 SLP049
CYUL;2002-10-20 03:00;METAR CYUL 200300Z 28007KT 15SM FEW018 BKN043 OVC090 08/07 A2968 RMK SC1SC6AC2 SLP051 SLP051
CYUL;2002-10-20 04:00;METAR CYUL 200400Z 30008KT 12SM FEW017 BKN042 BKN056 08/06 A2970 RMK SC2SC4SC2 SLP057
CYUL;2002-10-20 04:00;METAR CYUL 200400Z CCB 30008KT 12SM -SHRA FEW017 BKN042 BKN056 08/06 A2970 RMK SC2SC4SC2 SLP057 SLP057
CYUL;2002-10-20 04:19;SPECI CYUL 200419Z 30008KT 15SM FEW017 BKN048 BKN074 RMK SC1SC6AC1
CYUL;2002-10-20 05:00;METAR CYUL 200500Z 30009KT 15SM FEW018 BKN055 BKN074 07/05 A2972 RMK SC1SC6AC2 SLP065 SLP065
CYUL;2002-10-20 06:00;METAR CYUL 200600Z 33006KT 15SM FEW024 BKN055 06/03 A2974 RMK SC2SC5 SLP072
CYUL;2002-10-20 07:00;METAR CYUL 200700Z 29003KT 15SM BKN024 BKN055 05/03 A2977 RMK SC6SC1 SLP083
CYUL;2002-10-20 08:00;METAR CYUL 200800Z 35006KT 15SM BKN020 BKN060 04/01 A2979 RMK SC7SC1 SLP091
CYUL;2002-10-20 09:00;METAR CYUL 200900Z 36008KT 15SM FEW013 BKN027 04/00 A2981 RMK SC1SC7 SLP097
CYUL;2002-10-20 10:00;METAR CYUL 201000Z 36006KT 15SM FEW015 BKN031 04/00 A2984 RMK SC1SC7 SLP105
CYUL;2002-10-20 11:00;METAR CYUL 201100Z 35004KT 20SM FEW020 OVC034 03/01 A2985 RMK SC1SC6 SLP109
CYUL;2002-10-20 12:00;METAR CYUL 201200Z 35008KT 30SM FEW018 BKN034 OVC090 03/M01 A2987 RMK SC2SC6AC1 SLP118 SLP118
CYUL;2002-10-20 13:00;METAR CYUL 201300Z 36004KT 30SM FEW019 BKN038 BKN090 03/M01 A2991 RMK SC2SC6AC1 SLP130 SLP130
CYUL;2002-10-20 14:00;METAR CYUL 201400Z 35005KT 30SM BKN037 04/M01 A2992 RMK SC7 SLP135
CYUL;2002-10-20 15:00;METAR CYUL 201500Z 29004KT 30SM BKN039 04/M00 A2994 RMK SC7 SLP140
CYUL;2002-10-20 16:00;METAR CYUL 201600Z 29010KT 30SM BKN039 05/00 A2995 RMK SC7 SLP143
CYUL;2002-10-20 17:00;METAR CYUL 201700Z 29010KT 30SM BKN033 05/M01 A2995 RMK SC7 SLP145
CYUL;2002-10-20 18:00;METAR CYUL 201800Z 30009KT 30SM BKN040 06/M01 A2995 RMK SC7 SLP144
CYUL;2002-10-20 19:00;METAR CYUL 201900Z 28007KT 30SM BKN044 06/M01 A2996 RMK SC7 SLP146
CYUL;2002-10-20 20:00;METAR CYUL 202000Z 27008KT 30SM BKN051 BKN230 06/M01 A2997 RMK SC6CI1 SLP149
CYUL;2002-10-20 21:00;METAR CYUL 202100Z 34003KT 30SM BKN044 BKN230 06/M02 A2997 RMK SC6CI1 SLP150
CYUL;2002-10-20 22:00;METAR CYUL 202200Z 08002KT 30SM BKN052 BKN230 06/M02 A2998 RMK SC6CI1 SLP154
CYUL;2002-10-20 23:00;METAR CYUL 202300Z 05005KT 15SM BKN040 BKN230 05/M02 A2998 RMK SC6CI1
CYUL;2002-10-21 00:00;METAR CYUL 210000Z 08005KT 15SM BKN041 04/M02 A2998 RMK SC6 SLP154
CYUL;2002-10-21 22:00;METAR CYUL 202200Z 08002KT 30SM BKN052 BKN230 06/M02 A2998 RMK SC6CI1 SLP154
CYUL;2002-10-21 01:00;METAR CYUL 210100Z 09006KT 15SM FEW050 BKN120 03/M03 A2997 RMK SC2AC3 SLP151
CYUL;2002-10-21 23:00;METAR CYUL 202300Z 05005KT 15SM BKN040 BKN230 05/M02 A2998 RMK SC6CI1
CYUL;2002-10-21 01:51;SPECI CYUL 210151Z 08010KT 15SM -SN BKN050 BKN120 RMK SC5AC1
CYUL;2002-10-21 02:00;METAR CYUL 210200Z 09009KT 15SM -SN BKN050 BKN120 03/M04 A2996 RMK SC5AC1 SLP148
CYUL;2002-10-21 03:24;SPECI CYUL 210324Z 08007KT 2SM -SN FEW012 OVC046 RMK SF1SC8
CYUL;2002-10-21 04:00;METAR CYUL 210400Z 09007KT 7SM -SN FEW020 OVC034 01/M01 A2996 RMK SC1SC7 SLP146
CYUL;2002-10-21 05:00;METAR CYUL 210500Z 09006KT 12SM -SN BKN019 OVC035 01/M01 A2995 RMK SC7SC1 SLP144
CYUL;2002-10-21 05:26;SPECI CYUL 210526Z 05008KT 12SM SCT009 OVC019 RMK SF3SC5
CYUL;2002-10-21 05:42;SPECI CYUL 210542Z 05008KT 12SM -SN FEW010 OVC015 RMK SF1SC7 S- INTMT
CYUL;2002-10-21 06:00;METAR CYUL 210600Z 04009KT 12SM -SN FEW010 BKN016 OVC090 01/M01 A2996 RMK SF2SC6AC1 S- INTMT SLP147
CYUL;2002-10-21 06:19;SPECI CYUL 210619Z 05009KT 9SM FEW008 BKN013 OVC070 RMK SF2SC5AC1 INTMT S-
CYUL;2002-10-21 07:25;SPECI CYUL 210725Z 04009KT 6SM -SN SCT008 OVC017 RMK SF3SC5
CYUL;2002-10-21 07:41;SPECI CYUL 210741Z 01007KT 2SM -SN BR SCT008 OVC017 RMK SF3SC5
CYUL;2002-10-21 08:00;METAR CYUL 210800Z 02006KT 2SM -SN BR SCT003 OVC018 00/M01 A3000 RMK SF3SC5 SLP160
CYUL;2002-10-21 08:18;SPECI CYUL 210818Z 01004KT 7SM FEW003 SCT018 OVC038 RMK SF2SC2SC4 INTMT S-
CYUL;2002-10-21 09:00;METAR CYUL 210900Z 01002KT 8SM FEW006 SCT020 BKN044 01/M00 A3003 RMK SF2SC2SC3 INTMT S- SLP169 INTMT S- SLP169
CYUL;2002-10-21 10:00;METAR CYUL 211000Z 29004KT 7SM FEW006 SCT040 BKN072 00/M00 A3006 RMK SF2SC2AC3 SLP182 SLP182
CYUL;2002-10-21 10:26;SPECI CYUL 211026Z 29005KT 7SM BKN006 BKN046 RMK SF6SC1
CYUL;2002-10-21 10:41;SPECI CYUL 211041Z 29006KT 7SM SCT004 BKN038 RMK SF3SC2
CYUL;2002-10-21 11:00;METAR CYUL 211100Z 28003KT 7SM FEW004 SCT038 SCT050 M00/M01 A3008 RMK SF1SC2SC1 SLP189 SLP189
CYUL;2002-10-21 11:12;SPECI CYUL 211112Z 27004KT 20SM FEW004 BKN042 RMK SF1SC4 VSBY NE-E-SE 7
CYUL;2002-10-21 12:00;METAR CYUL 211200Z 30006KT 30SM FEW005 SCT027 BKN042 01/M01 A3011 RMK SC1SC3SC2 VSBY NE-E-SE 12 SLP198 VSBY NE-E-SE 12 SLP198
CYUL;2002-10-21 13:00;METAR CYUL 211300Z 32006KT 30SM FEW010 FEW043 FEW090 01/M02 A3013 RMK SC1SC2AC1 SLP206 SLP206
CYUL;2002-10-21 14:00;METAR CYUL 211400Z 31008KT 30SM FEW015 FEW045 03/M04 A3016 RMK SC1SC1 SLP215
CYUL;2002-10-21 15:00;METAR CYUL 211500Z 31011KT 30SM BKN035 03/M04 A3017 RMK SC6 SLP218
CYUL;2002-10-21 16:00;METAR CYUL 211600Z 29012KT 30SM BKN039 04/M03 A3017 RMK SC7 SLP219
CYUL;2002-10-21 17:00;METAR CYUL 211700Z 27009G15KT 30SM BKN040 04/M04 A3017 RMK SC6 SLP218
CYUL;2002-10-21 18:00;METAR CYUL 211800Z 28009KT 30SM BKN050 04/M04 A3016 RMK SC7 SLP215
CYUL;2002-10-21 19:00;METAR CYUL 211900Z 30005KT 30SM BKN057 05/M05 A3016 RMK SC7 SLP214
CYUL;2002-10-21 20:00;METAR CYUL 212000Z 27010G15KT 30SM BKN057 06/M03 A3016 RMK SC6 SLP216
CYUL;2002-10-21 21:00;METAR CYUL 212100Z 29010G17KT 30SM BKN055 05/M05 A3016 RMK SC5 SLP216
CYUL;2002-10-21 22:00;METAR CYUL 212200Z 28005KT 30SM FEW055 FEW230 03/M05 A3018 RMK SC2CI1 SLP222
CYUL;2002-10-21 23:00;METAR CYUL 212300Z 31006KT 15SM FEW055 02/M05 A3020 RMK SC1 SLP229
CYUL;2002-10-22 00:00;METAR CYUL 220000Z 31006KT 15SM FEW060 01/M05 A3021 RMK SC1 SLP231
CYUL;2002-10-22 01:00;METAR CYUL 220100Z 31005KT 15SM FEW060 00/M05 A3021 RMK SC1 SLP232
CYUL;2002-10-22 02:00;METAR CYUL 220200Z 30006KT 15SM SKC M01/M05 A3022 RMK SLP235
CYUL;2002-10-22 03:00;METAR CYUL 220300Z 31007KT 15SM FEW180 M01/M06 A3022 RMK AC1 SLP237
CYUL;2002-10-22 04:00;METAR CYUL 220400Z 31006KT 15SM FEW200 M02/M05 A3023 RMK CI0 SLP239
CYUL;2002-10-22 05:00;METAR CYUL 220500Z 32006KT 15SM BKN120 M02/M05 A3023 RMK AS1 SLP240
CYUL;2002-10-22 06:00;METAR CYUL 220600Z 31005KT 15SM BKN120 M01/M04 A3024 RMK AC6 SLP242
CYUL;2002-10-22 07:00;METAR CYUL 220700Z 00000KT 15SM SCT120 M01/M04 A3024 RMK AC3 SLP242
CYUL;2002-10-22 08:00;METAR CYUL 220800Z 36002KT 15SM BKN100 00/M05 A3023 RMK AS1 SLP239
CYUL;2002-10-22 09:00;METAR CYUL 220900Z 31002KT 15SM BKN200 M00/M04 A3023 RMK CI2 SLP240
CYUL;2002-10-22 10:00;METAR CYUL 221000Z 33002KT 15SM BKN200 M01/M05 A3024 RMK CI2 SLP241
CYUL;2002-10-22 11:00;METAR CYUL 221100Z 04002KT 15SM FEW160 FEW230 M01/M05 A3024 RMK AC1CI0 SLP241
CYUL;2002-10-22 12:00;METAR CYUL 221200Z 00000KT 20SM FEW015 FEW160 SCT230 M01/M04 A3026 RMK CU1AC2CI1 SLP248 SLP248
CYUL;2002-10-22 13:00;METAR CYUL 221300Z 31004KT 30SM BKN220 00/M03 A3027 RMK CI3 SLP254
CYUL;2002-10-22 14:00;METAR CYUL 221400Z 34003KT 30SM FEW015 SCT220 02/M04 A3027 RMK CU1CI2 SLP254
CYUL;2002-10-22 15:00;METAR CYUL 221500Z 31004KT 30SM FEW180 BKN220 04/M05 A3027 RMK AC2CI2 SLP252
CYUL;2002-10-22 16:00;METAR CYUL 221600Z 28005KT 30SM FEW015 FEW170 SCT220 04/M04 A3026 RMK CU1AC1CI2 SLP249 SLP249
CYUL;2002-10-22 17:00;METAR CYUL 221700Z 27008KT 30SM FEW020 FEW200 06/M03 A3024 RMK CU1CI1 SLP243
CYUL;2002-10-22 18:00;METAR CYUL 221800Z 24007G17KT 30SM FEW035 FEW200 06/M04 A3022 RMK CU2CI1 SLP237
CYUL;2002-10-22 19:00;METAR CYUL 221900Z 28008G15KT 30SM FEW045 FEW210 06/M03 A3021 RMK SC2CI1 SLP233
CYUL;2002-10-22 20:00;METAR CYUL 222000Z 25007G15KT 30SM FEW045 FEW210 06/M04 A3021 RMK SC2CI1 SLP231
CYUL;2002-10-22 21:00;METAR CYUL 222100Z 29007KT 30SM FEW045 FEW210 05/M04 A3021 RMK SC1CI1
CYUL;2002-10-22 22:00;METAR CYUL 222200Z 30008KT 30SM FEW045 FEW240 04/M04 A3021 RMK SC1CI0
CYUL;2002-10-22 23:00;METAR CYUL 222300Z 31005KT 15SM FEW045 02/M04 A3022 RMK SC1 SLP237
CYUL;2002-10-23 00:00;METAR CYUL 230000Z 33003KT 15SM SKC 01/M04 A3024 RMK SLP242
CYUL;2002-10-23 01:00;METAR CYUL 230100Z 33004KT 15SM FEW030 M00/M05 A3025 RMK SC1 SLP245
CYUL;2002-10-23 02:00;METAR CYUL 230200Z 31003KT 15SM SCT095 M01/M05 A3026 RMK AC4 SLP248
CYUL;2002-10-23 03:00;METAR CYUL 230300Z 36006KT 15SM BKN095 00/M04 A3026 RMK AC6 SLP249
CYUL;2002-10-23 04:00;METAR CYUL 230400Z 04005KT 15SM SCT085 01/M05 A3026 RMK AC3 SLP248
CYUL;2002-10-23 05:00;METAR CYUL 230500Z 01002KT 15SM FEW085 M01/M05 A3027 RMK AC1 SLP252
CYUL;2002-10-23 06:00;METAR CYUL 230600Z 35002KT 15SM FEW200 M03/M06 A3027 RMK CI0 SLP251
CYUL;2002-10-23 07:00;METAR CYUL 230700Z 30002KT 15SM FEW200 M03/M05 A3027 RMK CI0 SLP252
CYUL;2002-10-23 08:00;METAR CYUL 230800Z 36003KT 15SM FEW200 M02/M05 A3027 RMK CI0 SLP252
CYUL;2002-10-23 09:00;METAR CYUL 230900Z 35005KT 15SM SKC M02/M05 A3027 RMK SLP253
CYUL;2002-10-23 10:00;METAR CYUL 231000Z 31002KT 15SM SKC M04/M06 A3029 RMK SLP258
CYUL;2002-10-23 11:00;METAR CYUL 231100Z 00000KT 15SM FEW200 M04/M06 A3030 RMK CI1 SLP262
CYUL;2002-10-23 12:00;METAR CYUL 231200Z 00000KT 30SM FEW010 FEW200 M04/M06 A3030 RMK CU1CI1 SLP263
CYUL;2002-10-23 13:00;METAR CYUL 231300Z 30003KT 30SM FEW010 FEW200 M01/M04 A3031 RMK CU1CI1 SLP267
CYUL;2002-10-23 14:00;METAR CYUL 231400Z 28005KT 30SM FEW015 FEW200 01/M04 A3032 RMK CU1CI1 SLP269
CYUL;2002-10-23 15:00;METAR CYUL 231500Z 29006KT 30SM FEW025 FEW200 02/M03 A3032 RMK CU1CI1 SLP268
CYUL;2002-10-23 16:00;METAR CYUL 231600Z 26007KT 30SM FEW030 FEW200 04/M03 A3031 RMK CU1CI1 SLP266
CYUL;2002-10-23 17:00;METAR CYUL 231700Z 24008KT 30SM FEW030 FEW200 05/M02 A3030 RMK CU1CI1 SLP262
CYUL;2002-10-23 18:00;METAR CYUL 231800Z 27011KT 30SM FEW030 FEW200 06/M02 A3029 RMK CU2CI1 SLP259
CYUL;2002-10-23 19:00;METAR CYUL 231900Z 26014KT 30SM FEW070 FEW240 07/M02 A3028 RMK AC2CI0 SLP255
CYUL;2002-10-23 20:00;METAR CYUL 232000Z 26013KT 30SM BKN060 BKN240 07/M02 A3027 RMK SC5CI0 SLP253
CYUL;2002-10-23 21:00;METAR CYUL 232100Z 30008KT 30SM BKN067 07/M03 A3028 RMK AC7 SLP255
CYUL;2002-10-23 22:00;METAR CYUL 232200Z 32006KT 30SM BKN060 06/M03 A3030 RMK SC7 SLP261
CYUL;2002-10-23 23:00;METAR CYUL 232300Z 31006KT 15SM BKN060 06/M03 A3031 RMK SC6 SLP267
CYUL;2002-10-24 00:00;METAR CYUL 240000Z 29011KT 15SM BKN058 05/M04 A3033 RMK SC6 SLP272
CYUL;2002-10-24 01:00;METAR CYUL 240100Z 30011KT 15SM BKN058 05/M05 A3034 RMK SC7 SLP277
CYUL;2002-10-24 02:00;METAR CYUL 240200Z 30011KT 15SM BKN058 04/M05 A3035 RMK SC6 SLP280
CYUL;2002-10-24 03:00;METAR CYUL 240300Z 31009KT 15SM OVC060 04/M04 A3035 RMK SC8 SLP280
CYUL;2002-10-24 04:00;METAR CYUL 240400Z 30007KT 15SM OVC060 03/M05 A3035 RMK SC8 SLP280
CYUL;2002-10-24 05:00;METAR CYUL 240500Z 30009KT 15SM OVC057 03/M05 A3036 RMK SC8 SLP282
CYUL;2002-10-24 06:00;METAR CYUL 240600Z 30005KT 15SM OVC060 02/M04 A3036 RMK SC8 SLP283
CYUL;2002-10-24 07:00;METAR CYUL 240700Z 29005KT 15SM OVC060 02/M04 A3037 RMK SC8 SLP285
CYUL;2002-10-24 08:00;METAR CYUL 240800Z 29005KT 15SM BKN056 01/M04 A3037 RMK SC7 SLP285
CYUL;2002-10-24 09:00;METAR CYUL 240900Z 24002KT 15SM BKN056 02/M04 A3038 RMK SC7 SLP291
CYUL;2002-10-24 10:00;METAR CYUL 241000Z 24004KT 15SM OVC056 02/M03 A3040 RMK SC8 SLP296
CYUL;2002-10-24 11:00;METAR CYUL 241100Z 25004KT 15SM BKN056 02/M03 A3040 RMK SC7 SLP297
CYUL;2002-10-24 12:00;METAR CYUL 241200Z 24003KT 30SM BKN056 02/M03 A3041 RMK SC7 SLP299
CYUL;2002-10-24 13:00;METAR CYUL 241300Z 23005KT 30SM BKN056 03/M02 A3042 RMK SC6 SLP304
CYUL;2002-10-24 14:00;METAR CYUL 241400Z 24004KT 30SM BKN051 04/M02 A3043 RMK SC7 SLP305
CYUL;2002-10-24 15:00;METAR CYUL 241500Z 20007KT 30SM BKN049 BKN056 BKN230 05/M01 A3042 RMK SC5SC2CI1 SLP303 SLP303
CYUL;2002-10-24 16:00;METAR CYUL 241600Z 20008KT 30SM FEW040 BKN050 BKN230 05/M01 A3041 RMK SC2SC4CI1 SLP301 SLP301
CYUL;2002-10-24 17:00;METAR CYUL 241700Z 26008KT 30SM BKN050 06/M04 A3040 RMK SC7 SLP295
CYUL;2002-10-24 18:00;METAR CYUL 241800Z 29010KT 30SM BKN048 07/M03 A3038 RMK SC7 SLP290
CYUL;2002-10-24 19:00;METAR CYUL 241900Z 24009KT 30SM BKN058 06/M04 A3038 RMK SC7 SLP289
CYUL;2002-10-24 20:00;METAR CYUL 242000Z 24008KT 30SM BKN058 07/M04 A3038 RMK SC7 SLP288
CYUL;2002-10-24 21:00;METAR CYUL 242100Z 27008KT 30SM BKN060 BKN240 06/M04 A3038 RMK SC6CI0 SLP288
CYUL;2002-10-24 22:00;METAR CYUL 242200Z 24008KT 30SM BKN060 BKN240 06/M05 A3038 RMK SC6CI0 SLP290
CYUL;2002-10-25 00:00;METAR CYUL 250000Z 28005KT 15SM BKN064 04/M03 A3040 RMK SC6 SLP295
CYUL;2002-10-25 01:00;METAR CYUL 250100Z 28011G16KT 15SM BKN062 04/M04 A3040 RMK SC6 SLP297
CYUL;2002-10-25 02:00;METAR CYUL 250200Z 29008KT 15SM BKN062 04/M03 A3040 RMK SC6 SLP298
CYUL;2002-10-25 03:00;METAR CYUL 250300Z 29006KT 15SM BKN064 02/M03 A3040 RMK SC6 SLP298
CYUL;2002-10-25 04:00;METAR CYUL 250400Z 29006KT 15SM BKN063 03/M03 A3040 RMK SC7 SLP297
CYUL;2002-10-25 05:00;METAR CYUL 250500Z 29005KT 15SM OVC064 03/M02 A3041 RMK SC8 SLP299
CYUL;2002-10-25 06:00;METAR CYUL 250600Z 16003KT 15SM OVC064 03/M02 A3041 RMK SC8 SLP299
CYUL;2002-10-25 07:00;METAR CYUL 250700Z 00000KT 15SM OVC064 03/M02 A3040 RMK SC8 SLP297
CYUL;2002-10-25 08:00;METAR CYUL 250800Z 27003KT 15SM BKN064 01/M02 A3041 RMK SC7 SLP300
CYUL;2002-10-25 09:00;METAR CYUL 250900Z 24004KT 15SM OVC064 02/M01 A3042 RMK SC8 SLP303
CYUL;2002-10-25 10:00;METAR CYUL 251000Z 24005KT 15SM BKN064 02/M02 A3044 RMK SC6 SLP309
CYUL;2002-10-25 11:00;METAR CYUL 251100Z 25004KT 20SM FEW060 01/M02 A3045 RMK SC2 SLP313
CYUL;2002-10-25 12:00;METAR CYUL 251200Z 27002KT 30SM FEW060 FEW240 M01/M03 A3046 RMK SC1CI1 CI TR SLP318 SLP318
CYUL;2002-10-25 13:00;METAR CYUL 251300Z 26003KT 30SM FEW060 FEW240 02/M01 A3048 RMK SC1CI1 CI TR SLP322
CYUL;2002-10-25 14:00;METAR CYUL 251400Z 00000KT 30SM FEW025 FEW060 FEW240 04/M01 A3048 RMK CF1SC1CI1 SLP322
CYUL;2002-10-25 15:00;METAR CYUL 251500Z 18002KT 30SM FEW025 FEW060 FEW240 05/M02 A3047 RMK CU1SC1CI1 SLP319 SLP319 CI TR SLP316
CYUL;2002-10-25 17:00;METAR CYUL 251700Z 18006KT 30SM FEW030 SCT055 BKN240 07/M03 A3043 RMK CU1SC3CI0 SLP306 SLP306
CYUL;2002-10-25 18:00;METAR CYUL 251800Z 17004KT 30SM FEW050 FEW200 SCT240 07/M03 A3039 RMK SC2CC1CI1 SLP293 SLP293
CYUL;2002-10-25 19:00;METAR CYUL 251900Z 07005KT 30SM FEW050 SCT240 07/M03 A3038 RMK SC2CI1 SLP290
CYUL;2002-10-25 20:00;METAR CYUL 252000Z 15006KT 30SM FEW050 SCT240 07/M03 A3036 RMK SC2CI1 SLP284
CYUL;2002-10-25 21:00;METAR CYUL 252100Z 09005KT 30SM FEW050 BKN240 07/M04 A3035 RMK SC1CI2 SLP278
CYUL;2002-10-25 22:00;METAR CYUL 252200Z 13006KT 20SM FEW050 OVC240 05/M04 A3034 RMK SC1CI2 SLP275
CYUL;2002-10-25 23:00;METAR CYUL 252300Z 09005KT 15SM SCT240 05/M04 A3032 RMK CI2 SLP269
CYUL;2002-10-26 00:00;METAR CYUL 260000Z 08007KT 15SM BKN240 05/M04 A3031 RMK CI2 SLP265
CYUL;2002-10-26 01:00;METAR CYUL 260100Z 08007KT 15SM BKN210 05/M03 A3027 RMK CI2 SLP252
CYUL;2002-10-26 02:00;METAR CYUL 260200Z 06008KT 15SM BKN210 05/M04 A3025 RMK CI2 SLP245
CYUL;2002-10-26 03:00;METAR CYUL 260300Z 09007KT 15SM OVC150 05/M04 A3023 RMK AC6 SLP239
CYUL;2002-10-26 04:00;METAR CYUL 260400Z 09006KT 15SM OVC090 04/M04 A3020 RMK AC6 SLP229
CYUL;2002-10-26 05:00;METAR CYUL 260500Z 09007KT 15SM OVC070 04/M03 A3018 RMK AC7 SLP222
CYUL;2002-10-26 06:00;METAR CYUL 260600Z 11007KT 15SM OVC065 05/M03 A3015 RMK SC8 SLP212
CYUL;2002-10-26 07:00;METAR CYUL 260700Z 11011G16KT 15SM OVC063 05/M03 A3012 RMK SC8 SLP201
CYUL;2002-10-26 08:00;METAR CYUL 260800Z 13014KT 12SM OVC031 05/M01 A3010 RMK SC8 SLP193
CYUL;2002-10-26 09:00;METAR CYUL 260900Z 14020G25KT 10SM -RA FEW013 OVC020 04/02 A3008 RMK SF2SC6 SLP186
CYUL;2002-10-26 10:00;METAR CYUL 261000Z 12019G24KT 12SM -RA SCT012 OVC017 03/01 A3004 RMK SF3SC5 SLP174
CYUL;2002-10-26 11:00;METAR CYUL 261100Z 12017G24KT 6SM -RA BR OVC012 02/01 A3000 RMK SC8 SLP161
CYUL;2002-10-26 12:00;METAR CYUL 261200Z 12015G21KT 6SM -RA BR OVC010 02/01 A2998 RMK SF8 SLP153
CYUL;2002-10-26 13:00;METAR CYUL 261300Z 12011KT 6SM -RA BR BKN008 OVC013 02/02 A2998 RMK SF6SC2 SLP152
CYUL;2002-10-26 14:00;METAR CYUL 261400Z 11008KT 5SM -RA BR BKN008 OVC015 03/02 A2998 RMK SF7SC1
CYUL;2002-10-26 15:00;METAR CYUL 261500Z 14012G18KT 6SM -RA BR OVC011 04/03 A2995 RMK SF8 SLP143
CYUL;2002-10-26 16:00;METAR CYUL 261600Z 15009G16KT 7SM -RA OVC010 04/03 A2993 RMK SF8 SLP138
CYUL;2002-10-26 17:00;METAR CYUL 261700Z 16013KT 7SM -RA BKN012 OVC027 05/04 A2991 RMK SC7SC1 SLP130
CYUL;2002-10-26 17:47;SPECI CYUL 261747Z 16013KT 5SM -RA BR SCT012 OVC021 RMK SF3SC5
CYUL;2002-10-26 18:00;METAR CYUL 261800Z 16012KT 7SM -RA SCT011 OVC020 06/05 A2988 RMK SF3SC5 SLP120
CYUL;2002-10-26 19:00;METAR CYUL 261900Z 17011KT 12SM -RA FEW011 OVC025 06/05 A2986 RMK SF2SC6 SLP114 SLP116 SLP117
CYUL;2002-10-26 23:00;METAR CYUL 262300Z 34009KT 2 1/4SM BR OVC003 04/04 A2989 RMK ST8 SLP123
CYUL;2002-10-26 23:18;SPECI CYUL 262318Z 33009KT 2 1/4SM BR OVC002 RMK ST8
CYUL;2002-10-27 00:00;METAR CYUL 270000Z 34007KT 2SM BR OVC002 03/03 A2991 RMK ST8 SLP129
CYUL;2002-10-27 01:00;METAR CYUL 270100Z 31006KT 1 1/2SM BR OVC002 03/03 A2992 RMK ST8 SLP134 SLP139
CYUL;2002-10-27 02:49;SPECI CYUL 270249Z 26003KT 4SM BR BKN007 OVC019 RMK SF6SC2
CYUL;2002-10-27 03:00;METAR CYUL 270300Z 27005KT 7SM BKN009 OVC020 04/04 A2994 RMK SF6SC2 SLP139
CYUL;2002-10-27 03:43;SPECI CYUL 270343Z 27006KT 12SM FEW007 OVC016 RMK SF2SC6
CYUL;2002-10-27 04:00;METAR CYUL 270400Z 27008KT 12SM OVC015 04/03 A2995 RMK SC8 SLP142
CYUL;2002-10-27 05:00;METAR CYUL 270500Z 27009KT 15SM OVC016 04/02 A2996 RMK SC8 SLP146
CYUL;2002-10-27 06:00;METAR CYUL 270600Z 25008KT 15SM BKN013 OVC028 04/02 A2997 RMK SC6SC2 SLP150
CYUL;2002-10-27 07:00;METAR CYUL 270700Z 24008KT 15SM BKN015 OVC025 04/02 A2998 RMK SC6SC2 SLP154
CYUL;2002-10-27 08:00;METAR CYUL 270800Z 27008KT 15SM SCT016 OVC021 04/02 A3000 RMK SC4SC4 SLP159
CYUL;2002-10-27 09:00;METAR CYUL 270900Z 27011KT 15SM OVC021 03/01 A3000 RMK SC8 SLP161
CYUL;2002-10-27 10:00;METAR CYUL 271000Z 27007KT 15SM OVC026 03/01 A3000 RMK SC8 SLP161
CYUL;2002-10-27 11:00;METAR CYUL 271100Z 26008KT 15SM OVC022 03/00 A3000 RMK SC8 SLP162
CYUL;2002-10-27 12:00;METAR CYUL 271200Z 26006KT 30SM OVC021 03/00 A3001 RMK SC8 SLP164
CYUL;2002-10-27 13:00;METAR CYUL 271300Z 24007KT 30SM BKN024 OVC093 03/00 A3000 RMK SC6AC2 SLP161
CYUL;2002-10-27 14:00;METAR CYUL 271400Z 29008KT 30SM BKN020 OVC060 04/01 A2999 RMK SC6SC2 SLP157
CYUL;2002-10-27 15:00;METAR CYUL 271500Z 27007KT 20SM BKN019 OVC032 04/01 A2997 RMK SC7SC1 SLP149
CYUL;2002-10-27 16:00;METAR CYUL 271600Z 24009KT 12SM -RA BKN016 OVC021 04/01 A2996 RMK SC7SC1 SLP147
CYUL;2002-10-27 17:00;METAR CYUL 271700Z 23006KT 10SM -RA OVC020 04/02 A2994 RMK SC8 SLP140
CYUL;2002-10-27 18:00;METAR CYUL 271800Z 22008KT 10SM -RA OVC017 05/02 A2993 RMK SC8 SLP136
CYUL;2002-10-27 19:00;METAR CYUL 271900Z 25010KT 15SM OVC017 05/03 A2993 RMK SC8 SLP138
CYUL;2002-10-27 20:00;METAR CYUL 272000Z 28015G22KT 20SM BKN017 BKN036 06/02 A2994 RMK SC5SC2 VCSH SLP141 SLP141
CYUL;2002-10-27 21:00;METAR CYUL 272100Z 29008KT 20SM FEW020 FEW050 06/02 A2995 RMK SC2SC1 SLP144
CYUL;2002-10-27 22:00;METAR CYUL 272200Z 29002KT 15SM FEW020 SCT060 04/01 A2996 RMK SC2SC2 SLP148
CYUL;2002-10-27 23:00;METAR CYUL 272300Z 27005KT 15SM BKN074 05/02 A2998 RMK AC6 SLP155
CYUL;2002-10-28 00:00;METAR CYUL 280000Z 28007KT 15SM FEW074 03/01 A2999 RMK AC2 SLP157
CYUL;2002-10-28 01:00;METAR CYUL 280100Z 28009KT 15SM FEW050 FEW080 04/01 A3000 RMK SC1AC2 SLP162
CYUL;2002-10-28 02:00;METAR CYUL 280200Z 28007KT 15SM BKN077 04/01 A3003 RMK AC6 SLP170
CYUL;2002-10-28 03:00;METAR CYUL 280300Z 28007KT 15SM BKN072 04/01 A3003 RMK AC5 SLP172
CYUL;2002-10-28 04:00;METAR CYUL 280400Z 30010KT 15SM BKN066 04/M00 A3004 RMK AC7 SLP174
CYUL;2002-10-28 05:00;METAR CYUL 280500Z 30005KT 15SM SCT066 03/M00 A3005 RMK AC2 SLP178
CYUL;2002-10-28 06:00;METAR CYUL 280600Z 28007KT 15SM FEW065 01/M01 A3006 RMK SC1 SLP180
CYUL;2002-10-28 07:00;METAR CYUL 280700Z 29005KT 15SM FEW070 M00/M02 A3008 RMK AC2 SLP186
CYUL;2002-10-28 08:00;METAR CYUL 280800Z 31006KT 15SM BKN057 02/M00 A3008 RMK SC7 SLP187
CYUL;2002-10-28 09:00;METAR CYUL 280900Z 32005KT 15SM BKN058 02/M00 A3009 RMK SC7 SLP191
CYUL;2002-10-28 10:00;METAR CYUL 281000Z 32005KT 15SM SCT057 00/M01 A3010 RMK SC3 SLP193
CYUL;2002-10-28 11:00;METAR CYUL 281100Z 30005KT 15SM FEW058 M00/M02 A3011 RMK SC2 SLP198
CYUL;2002-10-28 12:00;METAR CYUL 281200Z 32006KT 30SM BKN050 01/M01 A3012 RMK SC7 SLP201
CYUL;2002-10-28 13:00;METAR CYUL 281300Z 34005KT 30SM BKN052 02/M01 A3013 RMK SC7 SLP204
CYUL;2002-10-28 14:00;METAR CYUL 281400Z 34006KT 30SM FEW020 BKN050 03/M01 A3013 RMK CU1SC7 SLP206
CYUL;2002-10-28 15:00;METAR CYUL 281500Z 34007KT 30SM FEW020 OVC050 04/M01 A3014 RMK CU1SC8 SLP208
CYUL;2002-10-28 16:00;METAR CYUL 281600Z 34008KT 30SM FEW030 OVC053 05/M02 A3014 RMK CU1SC7
CYUL;2002-10-28 17:00;METAR CYUL 281700Z 34006KT 30SM FEW035 OVC057 05/M02 A3014 RMK CU1SC7 SLP207
CYUL;2002-10-28 18:00;METAR CYUL 281800Z 32008KT 30SM FEW035 OVC058 05/M02 A3013 RMK CU1SC7 SLP204
CYUL;2002-10-28 19:00;METAR CYUL 281900Z 33005KT 30SM BKN038 OVC060 05/M02 A3013 RMK SC5SC3
CYUL;2002-10-28 20:00;METAR CYUL 282000Z 36008KT 30SM FEW035 BKN051 05/M03 A3013 RMK SC2SC4
CYUL;2002-10-28 21:00;METAR CYUL 282100Z 35008KT 30SM BKN052 05/M03 A3013 RMK SC7 SLP204
CYUL;2002-10-28 22:00;METAR CYUL 282200Z 36007KT 30SM FEW035 BKN049 BKN120 04/M04 A3014 RMK CU1SC6AC1 SLP209 SLP209
CYUL;2002-10-28 23:00;METAR CYUL 282300Z 02009KT 15SM BKN056 04/M04 A3015 RMK SC6 SLP213
CYUL;2002-10-29 00:00;METAR CYUL 290000Z 36009KT 15SM BKN052 03/M04 A3017 RMK SC5 SLP219
CYUL;2002-10-29 01:00;METAR CYUL 290100Z 33004KT 15SM SCT060 00/M05 A3018 RMK SC3 SLP221
CYUL;2002-10-29 02:00;METAR CYUL 290200Z 32004KT 15SM BKN051 M01/M04 A3019 RMK SC6 SLP225
CYUL;2002-10-29 03:00;METAR CYUL 290300Z 34008KT 15SM BKN042 01/M04 A3020 RMK SC6 SLP230
CYUL;2002-10-29 04:00;METAR CYUL 290400Z 35007KT 15SM FEW040 M00/M05 A3021 RMK SC1 SLP231
CYUL;2002-10-29 05:00;METAR CYUL 290500Z 34006KT 15SM FEW040 M01/M06 A3022 RMK SC1 SLP236
CYUL;2002-10-29 06:00;METAR CYUL 290600Z 34005KT 15SM SKC M02/M07 A3024 RMK SLP242
CYUL;2002-10-29 07:00;METAR CYUL 290700Z 31002KT 15SM SKC M03/M06 A3025 RMK SLP245
CYUL;2002-10-29 08:00;METAR CYUL 290800Z 33004KT 15SM SKC M03/M06 A3024 RMK SLP244
CYUL;2002-10-29 09:00;METAR CYUL 290900Z 32003KT 15SM SKC M02/M06 A3026 RMK SLP248
CYUL;2002-10-29 10:00;METAR CYUL 291000Z 36003KT 15SM SKC M03/M06 A3027 RMK SLP251
CYUL;2002-10-29 11:00;METAR CYUL 291100Z 32002KT 15SM FEW030 M05/M07 A3027 RMK SC1 SLP253
CYUL;2002-10-29 12:00;METAR CYUL 291200Z 30002KT 30SM SKC M04/M06 A3029 RMK SLP258
CYUL;2002-10-29 13:00;METAR CYUL 291300Z 33003KT 30SM SKC M01/M04 A3030 RMK SLP264
CYUL;2002-10-29 14:00;METAR CYUL 291400Z 34006KT 30SM SKC 00/M05 A3030 RMK SLP262
CYUL;2002-10-29 15:00;METAR CYUL 291500Z 02004KT 30SM FEW030 02/M04 A3029 RMK SC1 SLP259
CYUL;2002-10-29 16:00;METAR CYUL 291600Z 35004KT 30SM FEW030 03/M05 A3028 RMK SC1 SLP255
CYUL;2002-10-29 17:00;METAR CYUL 291700Z 04005KT 30SM FEW035 FEW240 03/M05 A3026 RMK CU2CI1 SLP250
CYUL;2002-10-29 18:00;METAR CYUL 291800Z 00000KT 30SM BKN045 BKN240 04/M06 A3024 RMK CU6CI1 SLP244
CYUL;2002-10-29 19:00;METAR CYUL 291900Z 36005KT 30SM BKN052 BKN210 04/M06 A3022 RMK SC5CS1 SLP234
CYUL;2002-10-29 20:00;METAR CYUL 292000Z 28005KT 30SM BKN050 04/M06 A3022 RMK SC6 SLP235
CYUL;2002-10-29 21:00;METAR CYUL 292100Z 33007KT 30SM BKN050 OVC210 04/M06 A3022 RMK SC6CS1 SLP235
CYUL;2002-10-29 22:00;METAR CYUL 292200Z 01009KT 30SM FEW050 OVC250 02/M06 A3020 RMK SC2CS3 SLP229
CYUL;2002-10-29 23:00;METAR CYUL 292300Z 01008KT 15SM FEW050 OVC240 02/M07 A3021 RMK SC2CS3 SLP232
CYUL;2002-10-30 00:00;METAR CYUL 300000Z 03017KT 15SM FEW120 OVC220 01/M07 A3023 RMK AC2CS4 SLP239
CYUL;2002-10-30 01:00;METAR CYUL 300100Z 03014G21KT 15SM FEW120 OVC220 00/M08 A3025 RMK AC2CS5 SLP246
CYUL;2002-10-30 02:00;METAR CYUL 300200Z 03011KT 15SM FEW120 OVC210 M01/M08 A3025 RMK AC1CS5 SLP247
CYUL;2002-10-30 03:00;METAR CYUL 300300Z 03011KT 15SM FEW100 OVC200 M01/M08 A3024 RMK AC1CS6 SLP242
CYUL;2002-10-30 04:00;METAR CYUL 300400Z 02011KT 15SM OVC200 M01/M08 A3022 RMK CS5 SLP237
CYUL;2002-10-30 05:00;METAR CYUL 300500Z 01009G15KT 15SM OVC200 M01/M09 A3022 RMK CS4 SLP237
CYUL;2002-10-30 06:00;METAR CYUL 300600Z 02009KT 15SM FEW180 BKN200 M02/M08 A3021 RMK AC1CS2 SLP233
CYUL;2002-10-30 07:00;METAR CYUL 300700Z 02008KT 15SM FEW180 SCT230 M03/M08 A3020 RMK AC1CS1 SLP229
CYUL;2002-10-30 08:00;METAR CYUL 300800Z 01006KT 15SM BKN230 M03/M08 A3020 RMK CS2 SLP228
CYUL;2002-10-30 09:00;METAR CYUL 300900Z 02007KT 15SM OVC230 M03/M08 A3018 RMK CS4 SLP222
CYUL;2002-10-30 10:00;METAR CYUL 301000Z 01006KT 15SM BKN230 M04/M08 A3019 RMK CS2 SLP225
CYUL;2002-10-30 11:00;METAR CYUL 301100Z 01008KT 15SM FEW200 OVC240 M04/M08 A3018 RMK CC1CS3 SLP223
CYUL;2002-10-30 12:00;METAR CYUL 301200Z 01006KT 30SM FEW200 BKN240 M04/M08 A3020 RMK CC1CI2 SLP228
CYUL;2002-10-30 13:00;METAR CYUL 301300Z 04007KT 30SM FEW030 FEW200 BKN240 M03/M08 A3020 RMK SC1CC1CI2 COTRA SLP229 COTRA SLP229
CYUL;2002-10-30 14:00;METAR CYUL 301400Z 03009KT 30SM FEW030 FEW200 BKN240 M01/M08 A3018 RMK SC1CC1CI2 SLP222 SLP222
CYUL;2002-10-31 00:00;METAR CYUL 310000Z 25003KT 15SM SKC M02/M07 A3006 RMK SLP182
CYUL;2002-10-31 01:00;METAR CYUL 310100Z 27002KT 15SM SKC M02/M08 A3006 RMK SLP182
CYUL;2002-10-31 02:00;METAR CYUL 310200Z 29002KT 15SM SKC M02/M08 A3006 RMK SLP183
CYUL;2002-10-31 03:00;METAR CYUL 310300Z 25002KT 15SM SKC M02/M07 A3006 RMK SLP182
CYUL;2002-10-31 04:00;METAR CYUL 310400Z 28004KT 15SM FEW200 M03/M07 A3005 RMK CS1 SLP177
CYUL;2002-10-31 05:00;METAR CYUL 310500Z 26005KT 15SM FEW120 M03/M07 A3004 RMK AC1 SLP175
CYUL;2002-10-31 06:00;METAR CYUL 310600Z 24005KT 15SM BKN100 M01/M05 A3003 RMK AS6 SLP173
CYUL;2002-10-31 07:00;METAR CYUL 310700Z 26005KT 15SM BKN100 M02/M05 A3002 RMK AC7 SLP167
CYUL;2002-10-31 08:00;METAR CYUL 310800Z 28005KT 15SM BKN100 M02/M05 A3001 RMK AC6 SLP164
CYUL;2002-10-31 09:00;METAR CYUL 310900Z 25002KT 15SM BKN100 M02/M05 A3001 RMK AC6 SLP165
CYUL;2002-10-31 10:00;METAR CYUL 311000Z 00000KT 15SM SCT100 M02/M05 A3002 RMK AC4 SLP169
CYUL;2002-10-31 11:00;METAR CYUL 311100Z 26004KT 15SM FEW100 FEW220 M03/M07 A3002 RMK AC2CI1 SLP169
CYUL;2002-10-31 12:00;METAR CYUL 311200Z 23003KT 20SM BKN100 BKN220 M02/M07 A3003 RMK AC6CI1 SLP170
CYUL;2002-10-31 13:00;METAR CYUL 311300Z 24005KT 30SM BKN100 M01/M06 A3003 RMK AC7 SLP173
CYUL;2002-10-31 14:00;METAR CYUL 311400Z 23009KT 30SM FEW080 OVC100 01/M04 A3003 RMK AC1AC7 SLP172
CYUL;2002-10-31 15:00;METAR CYUL 311500Z 22008KT 30SM FEW080 OVC095 01/M03 A3002 RMK AC1AC8
CYUL;2002-10-31 16:00;METAR CYUL 311600Z 26012KT 30SM FEW080 BKN095 03/M05 A3000 RMK AC1AC7 SLP163
CYUL;2002-10-31 17:00;METAR CYUL 311700Z 26011KT 30SM FEW075 BKN093 04/M06 A2999 RMK AC1AC6 SLP157
CYUL;2002-10-31 18:00;METAR CYUL 311800Z 24012KT 30SM SCT060 BKN090 04/M05 A2997 RMK SC3AC4 SLP151
CYUL;2002-10-31 19:00;METAR CYUL 311900Z 25010KT 30SM FEW060 BKN070 04/M05 A2996 RMK SC1AC7 SLP148
CYUL;2002-10-31 20:00;METAR CYUL 312000Z 24011KT 30SM FEW055 OVC070 04/M04 A2995 RMK SC1AC7 SLP145
CYUL;2002-10-31 21:00;METAR CYUL 312100Z 23010G15KT 30SM BKN060 OVC080 04/M04 A2995 RMK SC6AC2 SLP143
CYUL;2002-10-31 22:00;METAR CYUL 312200Z 25012KT 15SM BKN055 OVC085 04/M05 A2995 RMK SC6AC2
CYUL;2002-11-01 00:00;METAR CYUL 010000Z 25010KT 15SM FEW025 OVC055 03/M03 A2995 RMK CF1SC8 SLP145
CYUL;2002-11-01 01:00;METAR CYUL 010100Z 27008KT 15SM OVC065 03/M03 A2995 RMK SC8 SLP143
CYUL;2002-11-01 02:00;METAR CYUL 010200Z 27008KT 15SM OVC050 03/M03 A2994 RMK SC8 SLP142
CYUL;2002-11-01 03:00;METAR CYUL 010300Z 26009KT 15SM FEW025 BKN055 02/M02 A2994 RMK CF1SC4 SLP139
CYUL;2002-11-01 04:00;METAR CYUL 010400Z 25011KT 15SM FEW050 BKN230 02/M02 A2992 RMK SC1CI2 SLP135
CYUL;2002-11-01 05:00;METAR CYUL 010500Z 25011KT 15SM FEW050 BKN230 00/M04 A2992 RMK SC1CI2 SLP134
CYUL;2002-11-01 06:00;METAR CYUL 010600Z 27005KT 15SM BKN074 M00/M04 A2992 RMK AC6 SLP133
CYUL;2002-11-01 07:00;METAR CYUL 010700Z 25006KT 15SM BKN090 00/M05 A2991 RMK AC6 SLP131
CYUL;2002-11-01 08:00;METAR CYUL 010800Z 26004KT 15SM BKN094 M01/M05 A2990 RMK AC7 SLP126
CYUL;2002-11-01 09:00;METAR CYUL 010900Z 00000KT 15SM FEW035 BKN095 M00/M05 A2988 RMK SC1AC6 SLP120
CYUL;2002-11-01 10:00;METAR CYUL 011000Z 00000KT 15SM FEW035 BKN100 M01/M04 A2987 RMK SC1AC7 SLP117
CYUL;2002-11-01 11:00;METAR CYUL 011100Z 11003KT 15SM FEW035 OVC090 00/M05 A2985 RMK SC2AC5 SLP111
CYUL;2002-11-01 13:00;METAR CYUL 011300Z 18004KT 20SM -SN OVC030 02/M04 A2983 RMK SC8 SLP103 10 SLP098 SLP098
CYUL;2002-11-01 15:00;METAR CYUL 011500Z 18008KT 10SM -SN FEW010 OVC025 02/M01 A2980 RMK CF2SC6 SLP092
CYUL;2002-11-01 16:00;METAR CYUL 011600Z 23008KT 5SM -SN FEW010 BKN020 OVC060 02/M01 A2977 RMK SF1SC6SC1 SLP084
CYUL;2002-11-01 17:00;METAR CYUL 011700Z 24008KT 15SM OVC020 03/M00 A2974 RMK SC8 SLP072
CYUL;2002-11-01 18:00;METAR CYUL 011800Z 21010KT 20SM BKN017 OVC035 03/M01 A2971 RMK SC6SC2 SLP062
CYUL;2002-11-01 19:00;METAR CYUL 011900Z 21008KT 10SM -SN OVC017 03/M00 A2969 RMK SC8 SLP056
CYUL;2002-11-01 20:00;METAR CYUL 012000Z 25010KT 2SM -SN SCT008 OVC027 02/M01 A2969 RMK SF2SC6 SLP057
CYUL;2002-11-01 21:00;METAR CYUL 012100Z 32016G24KT 12SM -SN FEW015 BKN031 00/M04 A2972 RMK CF1SC6 SLP066 SLP066
CYUL;2002-11-01 22:00;METAR CYUL 012200Z 29017KT 30SM FEW030 FEW070 FEW240 M01/M07 A2976 RMK SC2AC1CI1 SLP080 SLP080
CYUL;2002-11-01 23:00;METAR CYUL 012300Z 30010KT 15SM FEW030 FEW240 M02/M08 A2980 RMK CF1CI1 SLP094
CYUL;2002-11-02 00:00;METAR CYUL 020000Z 30015KT 15SM FEW030 M03/M08 A2983 RMK SC1 SLP104
CYUL;2002-11-02 01:00;METAR CYUL 020100Z 31011G19KT 15SM FEW030 M03/M09 A2987 RMK SC1 SLP117
CYUL;2002-11-02 02:00;METAR CYUL 020200Z 31011KT 15SM FEW030 M04/M12 A2990 RMK SC1 SLP126
CYUL;2002-11-02 03:00;METAR CYUL 020300Z 29008KT 15SM SKC M06/M12 A2990 RMK SLP127
CYUL;2002-11-02 04:00;METAR CYUL 020400Z 29007KT 15SM SKC M06/M12 A2990 RMK SLP126
CYUL;2002-11-02 05:00;METAR CYUL 020500Z 27006KT 15SM FEW030 M07/M12 A2989 RMK SC1 SLP125
CYUL;2002-11-02 06:00;METAR CYUL 020600Z 28008KT 15SM FEW030 M07/M12 A2989 RMK SC1 SLP124
CYUL;2002-11-02 07:00;METAR CYUL 020700Z 30009G15KT 15SM FEW030 M06/M11 A2990 RMK SC1 SLP126
CYUL;2002-11-02 08:00;METAR CYUL 020800Z 29008KT 15SM FEW030 M05/M11 A2989 RMK SC1 SLP125
CYUL;2002-11-02 09:00;METAR CYUL 020900Z 29009KT 15SM FEW050 M07/M11 A2989 RMK SC1 SLP124
CYUL;2002-11-02 10:00;METAR CYUL 021000Z 30009KT 15SM FEW050 M06/M11 A2990 RMK SC1 SLP126
CYUL;2002-11-02 11:00;METAR CYUL 021100Z 28008KT 15SM FEW050 M07/M11 A2990 RMK SC1 SLP128
CYUL;2002-11-02 12:00;METAR CYUL 021200Z 28008KT 30SM FEW025 FEW100 FEW200 M07/M10 A2992 RMK CF1AC1CI0 AC TR SLP133 AC TR SLP133
CYUL;2002-11-02 13:00;METAR CYUL 021300Z 29010KT 30SM FEW025 FEW100 FEW200 M05/M10 A2992 RMK CF1AC1CI0 AC TR SLP136 AC TR SLP136
CYUL;2002-11-02 14:00;METAR CYUL 021400Z 29011KT 30SM FEW030 FEW100 SCT200 M04/M10 A2992 RMK CU1AC1CI1 AC TR SLP136
CYUL;2002-11-02 15:00;METAR CYUL 021500Z 29011G16KT 30SM FEW030 BKN180 M03/M09 A2992 RMK CU2CI1 SLP135
CYUL;2002-11-02 16:00;METAR CYUL 021600Z 28010G15KT 30SM FEW035 BKN200 M03/M10 A2991 RMK SC1CI2 SLP131
CYUL;2002-11-02 17:00;METAR CYUL 021700Z 26008KT 30SM FEW035 OVC200 M02/M10 A2989 RMK SC1CS3 SLP125
CYUL;2002-11-03 00:00;METAR CYUL 030000Z 27003KT 15SM FEW040 FEW240 M04/M10 A2995 RMK CF1CI1 SLP144
CYUL;2002-11-03 01:00;METAR CYUL 030100Z 27002KT 15SM FEW240 M05/M11 A2996 RMK CI0 SLP149
CYUL;2002-11-03 02:00;METAR CYUL 030200Z 04008KT 15SM FEW100 FEW240 M03/M11 A2998 RMK AC1CI1 SLP154
CYUL;2002-11-03 03:00;METAR CYUL 030300Z 04006KT 15SM FEW240 M04/M12 A2999 RMK CI1 SLP159
CYUL;2002-11-03 04:00;METAR CYUL 030400Z 36003KT 15SM SKC M06/M11 A3000 RMK SLP161
CYUL;2002-11-03 05:00;METAR CYUL 030500Z 01005KT 15SM SKC M06/M12 A3002 RMK SLP167
CYUL;2002-11-03 06:00;METAR CYUL 030600Z 01003KT 15SM SKC M06/M12 A3003 RMK SLP171
CYUL;2002-11-03 07:00;METAR CYUL 030700Z 33004KT 15SM SKC M06/M12 A3004 RMK SLP176
CYUL;2002-11-03 08:00;METAR CYUL 030800Z 36002KT 15SM SKC M06/M11 A3006 RMK SLP183
CYUL;2002-11-03 09:00;METAR CYUL 030900Z 32003KT 15SM SKC M09/M12 A3008 RMK SLP188
CYUL;2002-11-03 10:00;METAR CYUL 031000Z 00000KT 15SM SKC M08/M11 A3010 RMK SLP196
CYUL;2002-11-03 11:00;METAR CYUL 031100Z 00000KT 15SM SKC M09/M12 A3012 RMK SLP201
CYUL;2002-11-03 12:00;METAR CYUL 031200Z 00000KT 30SM FEW020 M10/M13 A3013 RMK SC1 SLP207
CYUL;2002-11-03 13:00;METAR CYUL 031300Z 00000KT 30SM FEW015 M05/M09 A3016 RMK SC1 SLP217
CYUL;2002-11-03 14:00;METAR CYUL 031400Z 23008KT 30SM FEW070 M02/M09 A3018 RMK AC1 SLP222
CYUL;2002-11-03 15:00;METAR CYUL 031500Z 24005KT 30SM FEW015 FEW070 M01/M10 A3017 RMK SC1AC1 SLP218
CYUL;2002-11-03 16:00;METAR CYUL 031600Z 19004KT 30SM FEW020 FEW050 00/M11 A3016 RMK SC1SC1 SLP217
CYUL;2002-11-03 17:00;METAR CYUL 031700Z 20008KT 30SM FEW040 01/M10 A3016 RMK SC1 SLP215
CYUL;2002-11-03 18:00;METAR CYUL 031800Z 20010KT 30SM FEW049 FEW240 01/M10 A3015 RMK SC1CI1 SLP211
CYUL;2002-11-03 19:00;METAR CYUL 031900Z 20007KT 30SM FEW051 FEW240 02/M10 A3013 RMK SC1CI1 SLP206
CYUL;2002-11-03 20:00;METAR CYUL 032000Z 25007KT 30SM FEW052 SCT240 02/M09 A3014 RMK SC1CI1 COTRA SLP208
CYUL;2002-11-03 21:00;METAR CYUL 032100Z 22008KT 30SM FEW052 FEW100 BKN230 M01/M09 A3014 RMK SC2AC1CI1 SLP209 SLP209
CYUL;2002-11-03 22:00;METAR CYUL 032200Z 23006KT 20SM FEW052 FEW100 OVC200 00/M08 A3014 RMK SC1AC1CS5 SLP207 SLP207
CYUL;2002-11-03 23:00;METAR CYUL 032300Z 26005KT 15SM BKN200 M00/M09 A3014 RMK CS2 SLP210
CYUL;2002-11-04 00:00;METAR CYUL 040000Z 25003KT 15SM BKN200 M01/M09 A3015 RMK CS4 SLP211
CYUL;2002-11-04 01:00;METAR CYUL 040100Z 29003KT 15SM SCT150 M01/M09 A3014 RMK AS3 SLP208
CYUL;2002-11-04 02:00;METAR CYUL 040200Z 15004KT 15SM FEW120 M02/M08 A3013 RMK AS2 SLP206
CYUL;2002-11-04 03:00;METAR CYUL 040300Z 14004KT 15SM FEW130 M02/M08 A3013 RMK AC2 SLP204
CYUL;2002-11-04 04:00;METAR CYUL 040400Z 16010KT 15SM BKN140 M02/M08 A3014 RMK AC6 SLP208
CYUL;2002-11-04 05:00;METAR CYUL 040500Z 16010KT 15SM BKN140 M03/M08 A3013 RMK AC6 SLP204
CYUL;2002-11-04 06:00;METAR CYUL 040600Z 14004KT 15SM FEW050 BKN140 M02/M07 A3011 RMK SC2AC4 SLP199
CYUL;2002-11-04 07:00;METAR CYUL 040700Z 10004KT 15SM FEW050 OVC120 M01/M08 A3009 RMK SC2AC6 SLP192
CYUL;2002-11-04 08:00;METAR CYUL 040800Z 11005KT 15SM FEW050 BKN120 M02/M08 A3007 RMK SC1AC6 SLP185
CYUL;2002-11-04 09:00;METAR CYUL 040900Z 09004KT 15SM BKN050 M01/M07 A3006 RMK SC7 SLP181
CYUL;2002-11-04 10:00;METAR CYUL 041000Z 09004KT 15SM OVC050 M01/M07 A3005 RMK SC8 SLP178
CYUL;2002-11-04 11:00;METAR CYUL 041100Z 06005KT 15SM SCT050 OVC070 M01/M07 A3003 RMK SC3AC5 SLP172
CYUL;2002-11-04 12:00;METAR CYUL 041200Z 07006KT 20SM OVC035 M01/M07 A3003 RMK SC8 SLP170
CYUL;2002-11-04 13:00;METAR CYUL 041300Z 06006KT 7SM -SN FEW032 OVC055 M01/M06 A3001 RMK SC2SC6 SLP166
CYUL;2002-11-04 14:00;METAR CYUL 041400Z 09005KT 2 1/2SM -SN OVC014 M01/M05 A3001 RMK SC8 SLP164
CYUL;2002-11-04 15:00;METAR CYUL 041500Z 09006KT 1 3/4SM -SN SCT010 OVC019 M01/M03 A2999 RMK SF3SC5 SLP158 SLP158
CYUL;2002-11-04 16:00;METAR CYUL 041600Z 03009KT 1 1/2SM -SN BKN011 OVC020 M01/M02 A2997 RMK SF5SC3 SLP152 SLP152
CYUL;2002-11-04 17:00;METAR CYUL 041700Z 04010KT 1 3/4SM -SN OVC013 M01/M02 A2995 RMK SC8 SLP143
CYUL;2002-11-04 18:00;METAR CYUL 041800Z 05011KT 3SM -SN OVC011 M01/M02 A2992 RMK SC8 SLP136
CYUL;2002-11-04 19:00;METAR CYUL 041900Z 05010KT 1 1/2SM -SN OVC011 M01/M02 A2991 RMK SC8 SLP130
CYUL;2002-11-04 20:00;METAR CYUL 042000Z 05008KT 1 1/4SM R06L/P6000FT/U R06R/P6000FT/N -SN FEW005 OVC008 M00/M01 A2990 RMK SN1SF1SC7 VSBY VRBL 3/4- 1 3/4 SLP126
CYUL;2002-11-04 22:00;METAR CYUL 042200Z 04005KT 2 1/2SM -SN FEW003 OVC006 01/M00 A2988 RMK SF1SC7 SLP121 SLP121
CYUL;2002-11-04 23:00;METAR CYUL 042300Z 02003KT 2 1/2SM -SG BR OVC005 00/00 A2988 RMK SC8 SLP122
CYUL;2002-11-05 00:00;METAR CYUL 050000Z 35004KT 2SM -SG BR FEW002 OVC006 00/M00 A2989 RMK SF2SC6 SLP125
CYUL;2002-11-05 01:00;METAR CYUL 050100Z 33007KT 2 1/2SM -SN BR SCT003 OVC006 M00/M01 A2991 RMK SF3ST5 SLP130 SLP130
CYUL;2002-11-05 02:00;METAR CYUL 050200Z 33007KT 3SM -SN BR FEW003 BKN008 OVC014 M01/M02 A2994 RMK SF2ST5SC2 SLP140 SF2ST5SC2 SLP140
CYUL;2002-11-05 03:00;METAR CYUL 050300Z 30005KT 4SM BR SCT006 OVC016 M01/M02 A2996 RMK SF3SC5 SLP148
CYUL;2002-11-05 04:00;METAR CYUL 050400Z 32005KT 4SM BR FEW006 BKN020 OVC060 M01/M02 A2999 RMK SF1SC6SC2 SLP157
CYUL;2002-11-05 05:00;METAR CYUL 050500Z 27004KT 6SM BR OVC018 M01/M01 A3003 RMK SC8 SLP170
CYUL;2002-11-05 06:00;METAR CYUL 050600Z 27003KT 6SM -SN BR OVC017 M00/M01 A3006 RMK SC8 SLP180
CYUL;2002-11-05 07:00;METAR CYUL 050700Z 29003KT 4SM -SN BR OVC017 M00/M01 A3009 RMK SC8 SLP191
CYUL;2002-11-05 08:00;METAR CYUL 050800Z 31003KT 4SM BR BKN020 OVC060 M00/M01 A3011 RMK SC6SC2 SLP197
CYUL;2002-11-05 09:00;METAR CYUL 050900Z 30003KT 6SM BR BKN037 OVC065 M01/M02 A3013 RMK SC6SC2 SLP205
CYUL;2002-11-05 10:00;METAR CYUL 051000Z 01005KT 6SM BR BKN037 OVC050 M00/M01 A3015 RMK SC6SC2 SLP212
CYUL;2002-11-05 11:00;METAR CYUL 051100Z 35006KT 6SM BR BKN032 OVC050 M00/M01 A3018 RMK SC6SC2 SLP222
CYUL;2002-11-05 12:00;METAR CYUL 051200Z 03006KT 6SM BR BKN028 OVC050 M00/M02 A3021 RMK SC6SC2 SLP233
CYUL;2002-11-05 13:00;METAR CYUL 051300Z 03008KT 10SM BKN033 BKN050 M00/M02 A3022 RMK SC5SC2 SLP235
CYUL;2002-11-05 14:00;METAR CYUL 051400Z 05011KT 15SM FEW035 BKN050 00/M03 A3022 RMK SC2SC3 SLP236
CYUL;2002-11-05 15:00;METAR CYUL 051500Z 05008KT 15SM BKN033 BKN060 01/M03 A3024 RMK SC5SC2 SLP244
CYUL;2002-11-05 16:00;METAR CYUL 051600Z 04006KT 15SM BKN027 BKN230 01/M03 A3025 RMK SC6CI1 SLP246
CYUL;2002-11-05 18:00;METAR CYUL 051800Z 05007KT 12SM BKN020 OVC060 01/M02 A3020 RMK SC6SC2 SLP229
CYUL;2002-11-05 19:00;METAR CYUL 051900Z 09009KT 12SM BKN019 OVC035 02/M03 A3019 RMK SC6SC2 SLP226
CYUL;2002-11-05 20:00;METAR CYUL 052000Z 08008KT 15SM BKN020 OVC037 02/M03 A3019 RMK SC5SC1 SLP225
CYUL;2002-11-05 21:00;METAR CYUL 052100Z 08010KT 12SM BKN027 OVC200 01/M03 A3016 RMK SC7CI0 SLP216
CYUL;2002-11-05 22:00;METAR CYUL 052200Z 08011KT 12SM SCT027 OVC200 01/M03 A3012 RMK SC4CS2 PRESS FR SLP203 SLP203
CYUL;2002-11-05 23:00;METAR CYUL 052300Z 08011KT 12SM FEW025 OVC180 01/M03 A3012 RMK SC2AS6 SLP202
CYUL;2002-11-06 00:00;METAR CYUL 060000Z 08011KT 12SM OVC035 01/M03 A3009 RMK SC8 SLP193
CYUL;2002-11-06 01:00;METAR CYUL 060100Z 09011G16KT 12SM OVC035 01/M03 A3005 RMK SC8 SLP178
CYUL;2002-11-06 02:00;METAR CYUL 060200Z 08008KT 12SM FEW035 OVC100 01/M02 A3002 RMK SC1AC7 SLP167
CYUL;2002-11-06 03:00;METAR CYUL 060300Z 08010KT 12SM FEW035 OVC100 01/M03 A3001 RMK SC1AC7 SLP164
CYUL;2002-11-06 04:00;METAR CYUL 060400Z 07010KT 12SM OVC120 01/M02 A2995 RMK AC8 PRESFR SLP145
CYUL;2002-11-06 05:00;METAR CYUL 060500Z 07010KT 12SM OVC120 01/M02 A2990 RMK AC8 SLP129
CYUL;2002-11-06 06:00;METAR CYUL 060600Z 09009KT 12SM BKN040 OVC120 01/M02 A2984 RMK SC5AC3 PRESFR SLP107 SLP107
CYUL;2002-11-06 07:00;METAR CYUL 060700Z 12010G16KT 1 3/4SM -SN BKN009 OVC024 01/M00 A2981 RMK SN2SF4SC2 SLP097
CYUL;2002-11-06 08:00;METAR CYUL 060800Z 12006KT 1/2SM R06L/4500V6000FT/D R06R/4000FT/N SN VV003 00/M00 A2979 RMK SN8 SLP090 A2979 RMK SN8 SLP090
CYUL;2002-11-06 09:00;METAR CYUL 060900Z 11009KT 1SM -SN OVC005 00/M00 A2974 RMK SN6SF2 SLP073
CYUL;2002-11-06 10:00;METAR CYUL 061000Z 09009KT 1 3/4SM -SN OVC003 00/M00 A2970 RMK SN6SF2 SLP058
CYUL;2002-11-06 11:00;METAR CYUL 061100Z 09004KT 1 1/2SM -SN OVC003 01/00 A2967 RMK SN6SF2 SLP048
CYUL;2002-11-06 12:00;METAR CYUL 061200Z 10007KT 1 3/4SM -RASN OVC007 01/00 A2964 RMK ST8 SLP040
CYUL;2002-11-06 12:28;SPECI CYUL 061228Z 09006KT 1 1/4SM -DZSN OVC007 RMK ST8
CYUL;2002-11-06 14:00;METAR CYUL 061400Z 06006KT 1 3/4SM -RASN OVC008 01/00 A2961 RMK ST8 SLP029 ST6SC2 SLP016 SLP016
CYUL;2002-11-06 17:00;METAR CYUL 061700Z 34003KT 2SM BR BKN007 OVC021 02/01 A2955 RMK ST6SC2 SLP009
CYUL;2002-11-06 18:00;METAR CYUL 061800Z 34005KT 1SM BR OVC005 02/01 A2954 RMK ST8 SLP004
CYUL;2002-11-06 19:00;METAR CYUL 061900Z 34006KT 3/4SM BR OVC003 01/01 A2953 RMK ST8 SLP003
CYUL;2002-11-06 20:00;METAR CYUL 062000Z 32006KT 1/2SM R06L/5500FT/N R06R/3500FT/D FG OVC002 01/01 A2954 RMK FG4ST4 SLP006 A2954 RMK FG4ST4 SLP006
CYUL;2002-11-06 21:00;METAR CYUL 062100Z 31005KT 1SM BR OVC002 01/01 A2954 RMK ST8 SLP006
CYUL;2002-11-06 22:00;METAR CYUL 062200Z 28006KT 2SM BR OVC004 01/01 A2955 RMK ST8 SLP010
CYUL;2002-11-06 23:00;METAR CYUL 062300Z 27005KT 4SM BR SCT007 OVC017 01/01 A2958 RMK SF3SC5 SLP017
CYUL;2002-11-07 00:00;METAR CYUL 070000Z 27008KT 12SM FEW009 OVC020 02/01 A2959 RMK SF1SC7 SLP022
CYUL;2002-11-07 01:00;METAR CYUL 070100Z 28008KT 12SM BKN025 02/M00 A2960 RMK SC7 SLP024
CYUL;2002-11-07 02:00;METAR CYUL 070200Z 27011G16KT 15SM BKN028 02/M00 A2961 RMK SC7 SLP028
CYUL;2002-11-07 03:00;METAR CYUL 070300Z 29009KT 15SM OVC030 01/M01 A2960 RMK SC8 SLP027
CYUL;2002-11-07 04:00;METAR CYUL 070400Z 25010KT 12SM OVC030 01/M01 A2960 RMK SC8 SLP025
CYUL;2002-11-07 05:00;METAR CYUL 070500Z 25009KT 12SM OVC035 01/M01 A2960 RMK SC8 SLP027
CYUL;2002-11-07 06:00;METAR CYUL 070600Z 26013KT 12SM -SN SCT010 OVC030 01/M00 A2960 RMK SF3SC5 SLP024
CYUL;2002-11-07 07:00;METAR CYUL 070700Z 28012KT 7SM -SN FEW010 BKN045 OVC070 01/00 A2960 RMK SF2SC5AC1 SLP027 SLP027
CYUL;2002-11-07 08:00;METAR CYUL 070800Z 32013G22KT 7SM -SN BKN020 OVC070 01/M02 A2963 RMK SC6AC2 SLP036 PRESRR SLP058
CYUL;2002-11-07 10:00;METAR CYUL 071000Z 32020G25KT 15SM FEW110 M04/M12 A2978 RMK AC1 PRESRR SLP086
CYUL;2002-11-07 11:00;METAR CYUL 071100Z 31008G18KT 15SM FEW110 M07/M15 A2985 RMK AC1 PRESRR SLP110
CYUL;2002-11-07 12:00;METAR CYUL 071200Z 32014KT 30SM FEW110 M08/M15 A2992 RMK AC1 PRESRR SLP136
CYUL;2002-11-07 13:00;METAR CYUL 071300Z 30012G18KT 30SM FEW110 M08/M17 A2998 RMK AC1 SLP154
CYUL;2002-11-07 14:00;METAR CYUL 071400Z 29013KT 30SM SKC M08/M16 A3002 RMK SLP167
CYUL;2002-11-07 15:00;METAR CYUL 071500Z 28013KT 30SM SKC M08/M15 A3005 RMK SLP178
CYUL;2002-11-07 16:00;METAR CYUL 071600Z 28011KT 30SM SKC M07/M14 A3006 RMK SLP181
CYUL;2002-11-07 17:00;METAR CYUL 071700Z 26013KT 30SM SKC M07/M15 A3006 RMK SLP181
CYUL;2002-11-07 18:00;METAR CYUL 071800Z 27012G17KT 30SM FEW020 M06/M13 A3006 RMK CU1 SLP183
CYUL;2002-11-07 19:00;METAR CYUL 071900Z 26012G19KT 30SM FEW020 M06/M13 A3007 RMK CU1 SLP184
CYUL;2002-11-07 20:00;METAR CYUL 072000Z 27016KT 30SM FEW030 FEW200 M05/M13 A3007 RMK CF1CI1 SLP186
CYUL;2002-11-07 21:00;METAR CYUL 072100Z 27011G16KT 30SM FEW030 FEW200 M06/M13 A3008 RMK CF1CI0 SLP187
CYUL;2002-11-07 22:00;METAR CYUL 072200Z 25010KT 30SM FEW030 FEW200 M06/M13 A3008 RMK CF1CI0 SLP188
CYUL;2002-11-07 23:00;METAR CYUL 072300Z 25009KT 15SM FEW220 M06/M14 A3008 RMK CI0 SLP189
CYUL;2002-11-08 00:00;METAR CYUL 080000Z 25007KT 15SM FEW200 M07/M14 A3007 RMK CI0 SLP185
CYUL;2002-11-08 22:00;METAR CYUL 072200Z 25010KT 30SM FEW030 FEW200 M06/M13 A3008 RMK CF1CI0 SLP188
CYUL;2002-11-08 23:00;METAR CYUL 072300Z 25009KT 15SM FEW220 M06/M14 A3008 RMK CI0 SLP189
CYUL;2002-11-08 01:00;METAR CYUL 080100Z 26008KT 15SM BKN120 M06/M14 A3005 RMK AS6 . SLP179
CYUL;2002-11-08 02:00;METAR CYUL 080200Z 22009KT 15SM BKN090 M05/M11 A3002 RMK AS7 SLP169
CYUL;2002-11-08 03:00;METAR CYUL 080300Z 18006KT 15SM BKN080 M05/M10 A3000 RMK AC7 SLP163
CYUL;2002-11-08 04:00;METAR CYUL 080400Z 15008KT 15SM OVC060 M05/M10 A2998 RMK SC8 SLP156
CYUL;2002-11-08 05:00;METAR CYUL 080500Z 18008KT 3SM -SN OVC010 M04/M10 A3000 RMK SN3ST5 SLP162
CYUL;2002-11-08 06:00;METAR CYUL 080600Z 14007KT 1 3/4SM -SN OVC010 M05/M07 A2993 RMK SN4ST4 PRESFR SLP138 SLP138
CYUL;2002-11-08 07:00;METAR CYUL 080700Z 14009KT 3SM -SN OVC009 M05/M06 A2990 RMK SN3ST5 SLP128
CYUL;2002-11-08 08:00;METAR CYUL 080800Z 15015G20KT 1 1/2SM -SN OVC010 M04/M05 A2984 RMK SN6ST2 PRESFR SLP107 SLP107
CYUL;2002-11-08 09:00;METAR CYUL 080900Z 15016G24KT 5/8SM R24L/4000V5500FT/D -SN OVC015 M03/M04 A2981 RMK SN6ST2 SLP097 RMK SN6ST2 SLP097
CYUL;2002-11-08 10:00;METAR CYUL 081000Z 13009KT 8SM OVC030 M02/M04 A2979 RMK SC8 SLP092
CYUL;2002-11-08 11:00;METAR CYUL 081100Z 15005KT 15SM OVC030 M01/M04 A2978 RMK SC8 SLP086
CYUL;2002-11-08 12:00;METAR CYUL 081200Z 14005KT 10SM OVC031 M01/M03 A2977 RMK SC8 SLP084
CYUL;2002-11-08 13:00;METAR CYUL 081300Z 16008KT 8SM OVC032 00/M03 A2978 RMK SC8 SLP088
CYUL;2002-11-08 14:00;METAR CYUL 081400Z 15008KT 10SM BKN032 OVC160 02/M02 A2976 RMK SC5AC2 SLP082
CYUL;2002-11-08 15:00;METAR CYUL 081500Z 15008KT 10SM FEW030 OVC190 03/M01 A2975 RMK SC2CI5 SLP075
CYUL;2002-11-08 16:00;METAR CYUL 081600Z 16006KT 12SM FEW030 SCT160 BKN230 05/01 A2973 RMK SC1AC2CI3 SLP069 SLP069
CYUL;2002-11-08 17:00;METAR CYUL 081700Z 16006KT 15SM FEW160 BKN230 07/02 A2971 RMK AC2CI2 SLP061
CYUL;2002-11-08 18:00;METAR CYUL 081800Z 14008KT 15SM FEW160 SCT230 09/03 A2969 RMK AC2CI2 SLP055
CYUL;2002-11-08 19:00;METAR CYUL 081900Z 15006KT 20SM FEW160 SCT230 10/04 A2967 RMK AC1CI2 SLP048
CYUL;2002-11-08 20:00;METAR CYUL 082000Z 14007KT 20SM FEW160 FEW230 09/04 A2966 RMK AC1CI1 SLP047
CYUL;2002-11-08 21:00;METAR CYUL 082100Z 14006KT 20SM FEW240 07/03 A2967 RMK CI1 SLP050
CYUL;2002-11-08 22:00;METAR CYUL 082200Z 15008KT 20SM FEW150 FEW240 06/02 A2968 RMK AC1CI1 CI TR SLP054
CYUL;2002-11-08 23:00;METAR CYUL 082300Z 15007KT 15SM FEW060 FEW150 FEW240 04/02 A2970 RMK CF1AC1CI1 SLP059 SLP059
CYUL;2002-11-09 00:00;METAR CYUL 090000Z 17008KT 15SM BKN210 06/03 A2972 RMK CI2 SLP065
CYUL;2002-11-09 01:00;METAR CYUL 090100Z 18008KT 15SM BKN065 07/03 A2973 RMK SC6 SLP069
CYUL;2002-11-09 02:00;METAR CYUL 090200Z 18007KT 15SM BKN062 07/04 A2974 RMK SC6 SLP072
CYUL;2002-11-09 03:00;METAR CYUL 090300Z 21007KT 15SM BKN055 08/04 A2975 RMK SC7 SLP077
CYUL;2002-11-09 04:00;METAR CYUL 090400Z 21007KT 15SM BKN056 08/04 A2975 RMK SC6 SLP077
CYUL;2002-11-09 05:00;METAR CYUL 090500Z 22005KT 15SM BKN056 09/05 A2977 RMK SC7 SLP084
CYUL;2002-11-09 06:00;METAR CYUL 090600Z 23004KT 15SM BKN057 09/05 A2979 RMK SC6 SLP089
CYUL;2002-11-09 07:00;METAR CYUL 090700Z 16002KT 15SM BKN061 08/05 A2980 RMK SC6 SLP094
CYUL;2002-11-09 08:00;METAR CYUL 090800Z 17003KT 15SM BKN067 08/05 A2981 RMK AC6 SLP096
CYUL;2002-11-09 09:00;METAR CYUL 090900Z 00000KT 15SM BKN066 08/06 A2982 RMK AC6 SLP100
CYUL;2002-11-09 10:00;METAR CYUL 091000Z 00000KT 15SM BKN063 07/05 A2984 RMK SC6 SLP105
CYUL;2002-11-09 11:00;METAR CYUL 091100Z 19002KT 15SM BKN063 07/05 A2985 RMK SC7 SLP111
CYUL;2002-11-09 12:00;METAR CYUL 091200Z 13002KT 30SM FEW063 SCT240 08/04 A2986 RMK SC1CI2 SLP113
CYUL;2002-11-09 13:00;METAR CYUL 091300Z 16003KT 30SM FEW061 BKN240 09/05 A2989 RMK SC2CI1 SLP122
CYUL;2002-11-09 14:00;METAR CYUL 091400Z 13002KT 30SM FEW060 BKN240 10/06 A2989 RMK SC1CI3 SLP124
CYUL;2002-11-09 15:00;METAR CYUL 091500Z 03005KT 7SM FEW150 BKN220 09/05 A2990 RMK AC1CI4 HAZY SLP127
CYUL;2002-11-09 16:00;METAR CYUL 091600Z 03007KT 10SM FEW140 SCT210 BKN240 09/05 A2989 RMK AC1CS3CI1 SLP124
CYUL;2002-11-09 17:00;METAR CYUL 091700Z 02008KT 10SM FEW140 BKN210 09/05 A2986 RMK AC1CS3 SLP114
CYUL;2002-11-09 18:00;METAR CYUL 091800Z 03007KT 9SM FEW150 FEW240 11/06 A2985 RMK AC1CI1 SLP110
CYUL;2002-11-09 19:00;METAR CYUL 091900Z 02010KT 10SM FEW150 FEW240 11/06 A2983 RMK AC1CI1 SLP104
CYUL;2002-11-09 20:00;METAR CYUL 092000Z 02010KT 10SM FEW240 09/05 A2982 RMK CI1 SLP099
CYUL;2002-11-09 21:00;METAR CYUL 092100Z 02008KT 10SM FEW120 BKN240 08/04 A2983 RMK AC1CI1 SLP102
CYUL;2002-11-09 22:00;METAR CYUL 092200Z 03009KT 12SM OVC075 07/04 A2983 RMK AC8 SLP102
CYUL;2002-11-09 23:00;METAR CYUL 092300Z 03009KT 12SM OVC075 07/04 A2983 RMK AC8 SLP103
CYUL;2002-11-10 00:00;METAR CYUL 100000Z 36010KT 10SM OVC063 06/03 A2984 RMK SC8 SLP106
CYUL;2002-11-10 01:00;METAR CYUL 100100Z 02012KT 12SM OVC060 04/02 A2984 RMK SC8 SLP105
CYUL;2002-11-10 02:00;METAR CYUL 100200Z 03008KT 12SM OVC056 04/01 A2983 RMK SC8 SLP102
CYUL;2002-11-10 03:00;METAR CYUL 100300Z 03008KT 12SM OVC057 04/01 A2984 RMK SC8 SLP105
CYUL;2002-11-10 04:00;METAR CYUL 100400Z 03007KT 12SM BKN057 OVC090 04/01 A2982 RMK SC7AC1 SLP100
CYUL;2002-11-10 05:00;METAR CYUL 100500Z 02007KT 12SM SCT049 BKN089 04/01 A2983 RMK SC3AC4 SLP102
CYUL;2002-11-10 06:00;METAR CYUL 100600Z 02008KT 12SM BKN088 03/01 A2981 RMK AC2 SLP095
CYUL;2002-11-10 07:00;METAR CYUL 100700Z 02007KT 12SM FEW044 FEW072 BKN087 02/00 A2982 RMK SC1AC1AC6 SLP099 SLP099
CYUL;2002-11-10 08:00;METAR CYUL 100800Z 02009KT 12SM FEW038 BKN066 BKN092 02/01 A2981 RMK SC1AC4AC1 SLP096 SLP096
CYUL;2002-11-10 09:00;METAR CYUL 100900Z 03008KT 12SM BKN043 OVC063 03/01 A2980 RMK SC6SC1 SLP092
CYUL;2002-11-10 10:00;METAR CYUL 101000Z 03008KT 12SM BKN041 OVC090 04/01 A2978 RMK SC6AC2 SLP086
CYUL;2002-11-10 11:00;METAR CYUL 101100Z 03008KT 12SM BKN080 04/02 A2976 RMK AC6 SLP080
CYUL;2002-11-10 12:00;METAR CYUL 101200Z 03007KT 12SM BKN080 OVC240 04/02 A2976 RMK AC7CI1 SLP078
CYUL;2002-11-10 13:00;METAR CYUL 101300Z 03006KT 20SM FEW080 BKN130 BKN240 05/02 A2973 RMK AC2AC3CI2 SLP068 SLP068
CYUL;2002-11-10 14:00;METAR CYUL 101400Z 03005KT 15SM FEW140 BKN240 07/05 A2970 RMK AC2CI4 SLP059
CYUL;2002-11-10 15:00;METAR CYUL 101500Z 14007KT 20SM SCT070 SCT150 BKN200 14/08 A2966 RMK AC3AC1CS3 SLP046 SLP046
CYUL;2002-11-10 16:00;METAR CYUL 101600Z 16012KT 20SM FEW070 BKN180 BKN240 15/09 A2965 RMK AC2CS2CI1 SLP040 SLP040
CYUL;2002-11-10 17:00;METAR CYUL 101700Z 14012G18KT 30SM BKN150 BKN240 15/09 A2959 RMK AC6CI1 SLP020
CYUL;2002-11-10 18:00;METAR CYUL 101800Z 15014G19KT 20SM BKN160 OVC240 15/10 A2956 RMK AC6CI2 SLP012
CYUL;2002-11-10 19:00;METAR CYUL 101900Z 15013G19KT 20SM SCT075 BKN160 OVC240 15/10 A2953 RMK AC3AS3CI1 SLP000 SLP000
CYUL;2002-11-10 20:00;METAR CYUL 102000Z 15018G24KT 12SM -RA BKN090 OVC160 16/11 A2951 RMK AC6AS2 SLP995
CYUL;2002-11-10 21:00;METAR CYUL 102100Z 16018KT 6SM -RA BR BKN048 OVC120 14/12 A2950 RMK SC7AS1 SLP990
CYUL;2002-11-10 22:00;METAR CYUL 102200Z 15010G15KT 6SM -RA BR OVC040 13/12 A2950 RMK SC8 SLP991
CYUL;2002-11-10 23:00;METAR CYUL 102300Z 17008KT 6SM -RA BR OVC025 13/13 A2952 RMK SC8 SLP997
CYUL;2002-11-11 00:00;METAR CYUL 110000Z 20016G21KT 9SM OVC030 15/13 A2953 RMK SC8 SLP000
CYUL;2002-11-11 01:00;METAR CYUL 110100Z 22009G17KT 15SM BKN050 14/13 A2956 RMK SC7 SLP012
CYUL;2002-11-11 02:00;METAR CYUL 110200Z 20005KT 15SM SCT040 14/12 A2956 RMK SC4 SLP012
CYUL;2002-11-11 03:00;METAR CYUL 110300Z 14006KT 15SM FEW055 SCT100 13/12 A2956 RMK SC2AC2 SLP010
CYUL;2002-11-11 04:00;METAR CYUL 110400Z 16009KT 15SM BKN047 BKN090 14/12 A2955 RMK SC5AC1 SLP007
CYUL;2002-11-11 05:00;METAR CYUL 110500Z 16011KT 15SM BKN050 BKN090 15/12 A2953 RMK SC5AC2 SLP001
CYUL;2002-11-11 06:00;METAR CYUL 110600Z 14010KT 15SM FEW055 BKN100 OVC230 15/13 A2951 RMK SC2AC5CI1 SLP994 SLP994
CYUL;2002-11-11 07:00;METAR CYUL 110700Z 14011KT 15SM FEW100 14/12 A2948 RMK AC2 SLP983
CYUL;2002-11-11 08:00;METAR CYUL 110800Z 14011KT 15SM BKN120 BKN230 15/13 A2944 RMK AC5CI1 SLP970
CYUL;2002-11-11 09:00;METAR CYUL 110900Z 15012KT 15SM BKN120 OVC230 15/14 A2944 RMK AC5CS3 SLP971
CYUL;2002-11-11 10:00;METAR CYUL 111000Z 15013G18KT 12SM OVC120 17/14 A2942 RMK AC8 SLP964
CYUL;2002-11-11 11:00;METAR CYUL 111100Z 16016G21KT 12SM FEW047 SCT120 BKN210 17/14 A2942 RMK SC2AC2CI1 SLP965 SLP965
CYUL;2002-11-11 12:00;METAR CYUL 111200Z 16015KT 12SM BKN045 OVC060 18/15 A2943 RMK SC7SC1 SLP967
CYUL;2002-11-11 13:00;METAR CYUL 111300Z 16017KT 12SM BKN050 BKN090 18/16 A2943 RMK SC6AC1 SLP966
CYUL;2002-11-11 14:00;METAR CYUL 111400Z 17015KT 20SM -RA BKN050 OVC110 18/15 A2943 RMK SC7AS1
CYUL;2002-11-11 16:00;METAR CYUL 111600Z 22008KT 15SM -RA BKN037 OVC080 16/15 A2950 RMK SC7AS1 R- INTMT SLP990 SLP990
CYUL;2002-11-11 17:00;METAR CYUL 111700Z CCA 25022G29KT 15SM -RA BKN025 OVC070 16/14 A2957 RMK SC7AS1 SLP015
CYUL;2002-11-11 18:00;METAR CYUL 111800Z 26016G22KT 20SM -RA OVC014 OVC070 14/12 A2961 RMK SC7AS1 SLP028
CYUL;2002-11-11 19:00;METAR CYUL 111900Z 24022G28KT 15SM BKN016 OVC110 15/13 A2964 RMK SC7AC1 SLP037
CYUL;2002-11-11 20:00;METAR CYUL 112000Z 27015KT 30SM BKN039 OVC110 14/12 A2968 RMK SC6AS2 SLP052
CYUL;2002-11-11 21:00;METAR CYUL 112100Z 27010G15KT 30SM SCT030 BKN160 13/10 A2974 RMK SC4AS2 PRESRR SLP072 SLP072
CYUL;2002-11-11 22:00;METAR CYUL 112200Z 28011G16KT 15SM BKN040 OVC160 12/09 A2980 RMK SC7AS1 PRESRR SLP092 SLP092
CYUL;2002-11-11 23:00;METAR CYUL 112300Z 28010G15KT 15SM BKN050 11/08 A2987 RMK SC6 PRESRR SLP115
CYUL;2002-11-12 00:00;METAR CYUL 120000Z 31011KT 15SM BKN053 10/06 A2991 RMK SC6 SLP130
CYUL;2002-11-12 01:00;METAR CYUL 120100Z 29012G18KT 15SM BKN045 08/04 A2995 RMK SC6 SLP142
CYUL;2002-11-12 02:00;METAR CYUL 120200Z 29009KT 15SM BKN040 08/03 A2998 RMK SC7 SLP153
CYUL;2002-11-12 03:00;METAR CYUL 120300Z 27009KT 15SM OVC037 08/03 A3003 RMK SC8 SLP169
CYUL;2002-11-12 04:00;METAR CYUL 120400Z 29005KT 15SM OVC035 07/02 A3004 RMK SC8 SLP174
CYUL;2002-11-12 05:00;METAR CYUL 120500Z 00000KT 15SM OVC035 07/02 A3006 RMK SC8 SLP181
CYUL;2002-11-12 06:00;METAR CYUL 120600Z 25004KT 15SM OVC037 07/02 A3008 RMK SC8 SLP188
CYUL;2002-11-12 07:00;METAR CYUL 120700Z 29005KT 15SM OVC037 06/03 A3011 RMK SC8 SLP198
CYUL;2002-11-12 08:00;METAR CYUL 120800Z 35003KT 15SM OVC035 06/02 A3012 RMK SC8 SLP201
CYUL;2002-11-12 09:00;METAR CYUL 120900Z 34002KT 15SM OVC032 06/02 A3013 RMK SC8 SLP204
CYUL;2002-11-12 10:00;METAR CYUL 121000Z 35006KT 15SM OVC030 06/02 A3014 RMK SC8 SLP207
CYUL;2002-11-12 11:00;METAR CYUL 121100Z 34003KT 15SM OVC027 06/02 A3016 RMK SC8 SLP216
CYUL;2002-11-12 12:00;METAR CYUL 121200Z 36004KT 20SM BKN029 BKN038 06/02 A3017 RMK SC6SC2 SLP219
CYUL;2002-11-12 13:00;METAR CYUL 121300Z 01006KT 30SM BKN031 BKN060 06/02 A3019 RMK SC6SC2 SLP223
CYUL;2002-11-12 14:00;METAR CYUL 121400Z 05006KT 30SM BKN030 OVC051 06/02 A3018 RMK SC7SC1 SLP222
CYUL;2002-11-12 15:00;METAR CYUL 121500Z 07003KT 20SM BKN029 OVC051 07/02 A3019 RMK SC7SC1 SLP224
CYUL;2002-11-12 16:00;METAR CYUL 121600Z 05004KT 20SM BKN029 OVC041 07/03 A3018 RMK SC6SC2 SLP220
CYUL;2002-11-12 17:00;METAR CYUL 121700Z 09003KT 20SM BKN029 OVC045 07/03 A3017 RMK SC6SC2 SLP217
CYUL;2002-11-12 18:00;METAR CYUL 121800Z 01005KT 20SM BKN032 OVC050 07/03 A3015 RMK SC6SC2 SLP212
CYUL;2002-11-12 19:00;METAR CYUL 121900Z 03007KT 10SM -SHRA BKN034 OVC050 06/04 A3014 RMK SC6SC2 SLP208
CYUL;2002-11-12 20:00;METAR CYUL 122000Z 03005KT 12SM OVC025 06/03 A3012 RMK SC8 . SLP200
CYUL;2002-11-12 21:00;METAR CYUL 122100Z 04006KT 12SM OVC037 06/02 A3013 RMK SC8 SLP204
CYUL;2002-11-12 22:00;METAR CYUL 122200Z 04007KT 15SM BKN027 OVC047 06/03 A3012 RMK SC6SC2 SLP202
CYUL;2002-11-12 23:00;METAR CYUL 122300Z 36006KT 15SM OVC027 06/03 A3013 RMK SC8 SLP203
CYUL;2002-11-13 00:00;METAR CYUL 130000Z 02009KT 15SM OVC027 05/03 A3010 RMK SC8 SLP194
CYUL;2002-11-13 01:00;METAR CYUL 130100Z 03008KT 15SM OVC027 05/02 A3008 RMK SC8 SLP187
CYUL;2002-11-13 02:00;METAR CYUL 130200Z 04006KT 15SM BKN027 OVC045 05/02 A3008 RMK SC7SC1 SLP187
CYUL;2002-11-13 03:00;METAR CYUL 130300Z 04005KT 15SM OVC023 05/03 A3006 RMK SC8 SLP181
CYUL;2002-11-13 04:00;METAR CYUL 130400Z 36007KT 12SM OVC027 05/03 A3004 RMK SC8 SLP175
CYUL;2002-11-13 05:00;METAR CYUL 130500Z 36007KT 10SM OVC018 04/02 A3004 RMK SC8 SLP174 SLP172 SLP174
CYUL;2002-11-13 08:00;METAR CYUL 130800Z 36006KT 10SM OVC040 04/03 A3002 RMK SC8 SLP166
CYUL;2002-11-13 09:00;METAR CYUL 130900Z 24002KT 12SM FEW015 OVC045 04/02 A3003 RMK SF2SC6
CYUL;2002-11-13 10:00;METAR CYUL 131000Z 35003KT 15SM OVC045 04/02 A3003 RMK SC8 SLP169
CYUL;2002-11-13 11:00;METAR CYUL 131100Z 22003KT 12SM OVC043 04/02 A3004 RMK SC8 SLP175
CYUL;2002-11-13 12:00;METAR CYUL 131200Z 25005KT 12SM BKN032 OVC043 04/02 A3005 RMK SC6SC2 SLP178 SLP184
CYUL;2002-11-13 14:00;METAR CYUL 131400Z 23002KT 4SM BR OVC024 04/03 A3007 RMK SC8 SLP184
CYUL;2002-11-13 15:00;METAR CYUL 131500Z 23006KT 4SM HZ FEW024 OVC044 05/02 A3007 RMK SC2SC6
CYUL;2002-11-13 16:00;METAR CYUL 131600Z 27008KT 12SM FEW020 BKN040 05/01 A3005 RMK SC2SC6 SLP176
CYUL;2002-11-13 17:00;METAR CYUL 131700Z 26008KT 12SM FEW015 OVC040 05/00 A3003 RMK CU1SC7 SLP169
CYUL;2002-11-13 18:00;METAR CYUL 131800Z 26008KT 15SM FEW015 BKN042 OVC230 06/M01 A3002 RMK CU1SC7CI1 SLP166 SLP166 CU1SC6CI1 SLP161
CYUL;2002-11-13 20:00;METAR CYUL 132000Z 28010KT 20SM OVC044 05/M01 A3001 RMK SC8 SLP164
CYUL;2002-11-13 21:00;METAR CYUL 132100Z 28005KT 20SM OVC040 06/M00 A3001 RMK SC8 SLP164
CYUL;2002-11-13 22:00;METAR CYUL 132200Z 27006KT 15SM BKN045 OVC240 05/M01 A3003 RMK SC6CS2 SLP170
CYUL;2002-11-13 23:00;METAR CYUL 132300Z 29006KT 15SM OVC045 05/00 A3002 RMK SC8 SLP167
CYUL;2002-11-14 00:00;METAR CYUL 140000Z 27007KT 15SM OVC045 05/01 A3002 RMK SC8 SLP166
CYUL;2002-11-14 01:00;METAR CYUL 140100Z 25004KT 15SM SCT045 05/01 A3002 RMK SC4 SLP167
CYUL;2002-11-14 02:00;METAR CYUL 140200Z 27004KT 15SM BKN047 03/00 A3003 RMK SC6 SLP170
CYUL;2002-11-14 03:00;METAR CYUL 140300Z 00000KT 15SM FEW080 04/01 A3002 RMK AC1 SLP167
CYUL;2002-11-14 04:00;METAR CYUL 140400Z 25002KT 15SM FEW045 BKN078 03/01 A3002 RMK SC2AC5 SLP167
CYUL;2002-11-14 05:00;METAR CYUL 140500Z 00000KT 15SM FEW080 03/01 A3000 RMK AC1 SLP160
CYUL;2002-11-14 06:00;METAR CYUL 140600Z 00000KT 15SM SKC 00/M01 A3000 RMK SLP160
CYUL;2002-11-14 07:00;METAR CYUL 140700Z 23002KT 15SM FEW080 02/01 A3000 RMK AC2 SLP162
CYUL;2002-11-14 08:00;METAR CYUL 140800Z 27002KT 15SM SCT070 M00/M01 A2999 RMK AC3 SLP157
CYUL;2002-11-14 09:00;METAR CYUL 140900Z 24004KT 15SM BKN070 02/00 A2998 RMK AC5 SLP155
CYUL;2002-11-14 10:00;METAR CYUL 141000Z 26003KT 15SM FEW070 01/M01 A2998 RMK AC2 SLP155
CYUL;2002-11-14 11:00;METAR CYUL 141100Z 00000KT 15SM FEW070 00/M01 A2998 RMK AC1 SLP154
CYUL;2002-11-14 12:00;METAR CYUL 141200Z 00000KT 12SM FEW070 BKN180 01/M01 A2998 RMK AC1CC2 SLP154
CYUL;2002-11-14 13:00;METAR CYUL 141300Z 16004KT 10SM FEW180 SCT240 02/M00 A2998 RMK AC2CI2 SLP152
CYUL;2002-11-14 14:00;METAR CYUL 141400Z 17005KT 10SM FEW060 FEW240 04/01 A2997 RMK SC2CI0 SLP149
CYUL;2002-11-14 15:00;METAR CYUL 141500Z 16004KT 10SM FEW060 BKN240 05/01 A2995 RMK SC1CI2 SLP145
CYUL;2002-11-14 16:00;METAR CYUL 141600Z 16006KT 12SM FEW160 SCT240 08/02 A2991 RMK AC2CI0 SLP131
CYUL;2002-11-14 17:00;METAR CYUL 141700Z 16009KT 12SM FEW160 BKN240 09/02 A2988 RMK AC2CI2 SLP119
CYUL;2002-11-14 18:00;METAR CYUL 141800Z 16011KT 12SM BKN160 BKN240 10/02 A2983 RMK AC5CI1 SLP104
CYUL;2002-11-14 19:00;METAR CYUL 141900Z 15018KT 8SM BKN091 09/02 A2982 RMK AC7 SLP098
CYUL;2002-11-14 20:00;METAR CYUL 142000Z 16012KT 12SM -RA BKN083 OVC230 08/02 A2981 RMK AC7CI0 SLP095
CYUL;2002-11-14 21:00;METAR CYUL 142100Z 15011KT 12SM OVC050 08/02 A2979 RMK SC8 SLP091
CYUL;2002-11-14 22:00;METAR CYUL 142200Z 16012KT 12SM OVC045 06/03 A2979 RMK SC8 SLP088
CYUL;2002-11-14 23:00;METAR CYUL 142300Z 17011KT 12SM OVC045 06/03 A2978 RMK SC8 SLP087
CYUL;2002-11-15 00:00;METAR CYUL 150000Z 16008KT 12SM OVC045 08/04 A2977 RMK SC8 SLP083
CYUL;2002-11-15 01:00;METAR CYUL 150100Z 17008KT 15SM OVC055 08/04 A2976 RMK SC8 SLP079
CYUL;2002-11-15 02:00;METAR CYUL 150200Z 19010KT 15SM OVC050 09/04 A2976 RMK SC8 SLP078
CYUL;2002-11-15 03:00;METAR CYUL 150300Z 22007KT 15SM FEW025 OVC048 10/06 A2975 RMK SC2SC6 SLP077
CYUL;2002-11-15 05:00;METAR CYUL 150500Z 23010KT 10SM -RA OVC025 09/07 A2977 RMK SC8 SLP082
CYUL;2002-11-15 06:00;METAR CYUL 150600Z 24009KT 6SM -RA OVC023 09/08 A2977 RMK SC8 SLP083
CYUL;2002-11-15 07:00;METAR CYUL 150700Z 23009KT 6SM -RA FEW011 OVC030 08/08 A2978 RMK SF2SC6 SLP086
CYUL;2002-11-15 08:00;METAR CYUL 150800Z 23006KT 6SM -RA FEW011 OVC040 08/07 A2978 RMK SF1SC7 SLP087
CYUL;2002-11-15 09:00;METAR CYUL 150900Z 23007KT 5SM -RA BR FEW008 OVC040 08/07 A2978 RMK SF2SC6
CYUL;2002-11-15 10:00;METAR CYUL 151000Z 22007KT 5SM -RA BR SCT006 OVC020 07/07 A2979 RMK SF3SC5 SLP090
CYUL;2002-11-15 11:00;METAR CYUL 151100Z 26009G16KT 3SM -RA BR SCT008 OVC015 07/06 A2980 RMK SF4SC4 SLP094 SLP094
CYUL;2002-11-15 12:00;METAR CYUL 151200Z 30007KT 4SM -RA SCT012 OVC024 05/04 A2984 RMK SC4SC4 SLP108
CYUL;2002-11-15 13:00;METAR CYUL 151300Z 29005KT 6SM -RA BR FEW008 BKN012 OVC025 04/03 A2987 RMK SF2SC6SC1 SLP118
CYUL;2002-11-15 14:00;METAR CYUL 151400Z 30009KT 8SM -RA FEW008 SCT012 OVC024 03/01 A2990 RMK SF2SC2SC4 SLP127 SLP127
CYUL;2002-11-15 15:00;METAR CYUL 151500Z 27008KT 12SM SCT012 OVC031 03/01 A2992 RMK SC3SC4 SLP133
CYUL;2002-11-15 16:00;METAR CYUL 151600Z 28011KT 30SM BKN019 OVC031 04/01 A2993 RMK SC6SC1 SLP138
CYUL;2002-11-15 17:00;METAR CYUL 151700Z 28013KT 30SM FEW019 FEW031 BKN074 04/M00 A2995 RMK CF2SC1AC4 SLP143 SLP143
CYUL;2002-11-15 18:00;METAR CYUL 151800Z 30013KT 30SM BKN039 OVC075 04/M01 A2997 RMK SC6AC2 SLP150
CYUL;2002-11-15 19:00;METAR CYUL 151900Z 30013KT 30SM BKN036 BKN075 BKN230 03/M02 A3000 RMK SC5AC1CI1 SLP161 SLP161
CYUL;2002-11-15 20:00;METAR CYUL 152000Z 30012KT 30SM FEW040 FEW100 BKN140 02/M04 A3004 RMK SC1AC1AC6 SLP175 SLP175
CYUL;2002-11-15 21:00;METAR CYUL 152100Z 32010G16KT 30SM FEW040 FEW100 BKN140 01/M06 A3008 RMK SC1AC1AC6 SLP189
CYUL;2002-11-15 22:00;METAR CYUL 152200Z 31010KT 20SM FEW040 BKN130 M00/M07 A3013 RMK SC1AC6 SLP204
CYUL;2002-11-15 23:00;METAR CYUL 152300Z 33011KT 15SM SCT120 M01/M08 A3017 RMK AC3 SLP219
CYUL;2002-11-16 00:00;METAR CYUL 160000Z 36012G17KT 15SM FEW040 FEW120 M02/M10 A3022 RMK SC1AC1 SLP237
CYUL;2002-11-16 01:00;METAR CYUL 160100Z 36015KT 15SM FEW120 M03/M11 A3024 RMK AC1 SLP243
CYUL;2002-11-16 02:00;METAR CYUL 160200Z 36014KT 15SM FEW120 M04/M12 A3028 RMK AC1 SLP257
CYUL;2002-11-16 03:00;METAR CYUL 160300Z 01014KT 15SM FEW040 M04/M12 A3032 RMK SC1 SLP268
CYUL;2002-11-16 04:00;METAR CYUL 160400Z 02010KT 15SM FEW040 M05/M12 A3034 RMK SC1 SLP275
CYUL;2002-11-16 05:00;METAR CYUL 160500Z 02012G18KT 15SM FEW040 M06/M13 A3036 RMK SC1 SLP284
CYUL;2002-11-16 06:00;METAR CYUL 160600Z 03011G17KT 15SM FEW040 FEW230 M06/M13 A3038 RMK CU1CI0 SLP289
CYUL;2002-11-16 07:00;METAR CYUL 160700Z 03012KT 15SM FEW230 M06/M13 A3040 RMK CI0 SLP296
CYUL;2002-11-16 08:00;METAR CYUL 160800Z 04013KT 15SM FEW230 M06/M14 A3041 RMK CI0 SLP301
CYUL;2002-11-16 09:00;METAR CYUL 160900Z 04012G17KT 15SM SKC M07/M14 A3043 RMK SLP307
CYUL;2002-11-16 10:00;METAR CYUL 161000Z 04010KT 15SM FEW025 M07/M13 A3043 RMK CU1 SLP309
CYUL;2002-11-16 11:00;METAR CYUL 161100Z 04011KT 15SM SCT030 M07/M13 A3044 RMK SC3 SLP311
CYUL;2002-11-16 12:00;METAR CYUL 161200Z 03010KT 30SM FEW030 BKN240 M08/M13 A3046 RMK SC1CI2 SLP317
CYUL;2002-11-16 13:00;METAR CYUL 161300Z 04012G17KT 30SM FEW030 BKN240 M07/M13 A3048 RMK SC1CI6 SLP325
CYUL;2002-11-16 14:00;METAR CYUL 161400Z 04010KT 30SM FEW030 BKN240 M07/M12 A3049 RMK SC1CI4 SLP327
CYUL;2002-11-16 15:00;METAR CYUL 161500Z 05016KT 30SM SCT150 BKN240 M06/M12 A3049 RMK AC2CI2
CYUL;2002-11-16 16:00;METAR CYUL 161600Z 05014KT 30SM BKN150 BKN210 M05/M11 A3048 RMK AC4CS2 SLP324
CYUL;2002-11-16 17:00;METAR CYUL 161700Z 05015KT 30SM FEW150 BKN210 M04/M11 A3046 RMK AC2CS2 SLP319
CYUL;2002-11-16 18:00;METAR CYUL 161800Z 05015KT 30SM FEW150 SCT210 M03/M11 A3043 RMK AC2CS1 SLP307
CYUL;2002-11-16 19:00;METAR CYUL 161900Z 04018KT 30SM FEW150 BKN210 M02/M11 A3042 RMK AC1CS3 SLP303
CYUL;2002-11-16 20:00;METAR CYUL 162000Z 06014G19KT 30SM FEW150 BKN210 M03/M11 A3041 RMK AC1CS5 SLP302
CYUL;2002-11-16 21:00;METAR CYUL 162100Z 05012G18KT 30SM FEW150 BKN210 M02/M11 A3041 RMK AC1CS6 . SLP300
CYUL;2002-11-16 22:00;METAR CYUL 162200Z 06017KT 20SM FEW150 BKN220 M02/M11 A3040 RMK AC1CI6 SLP299
CYUL;2002-11-16 23:00;METAR CYUL 162300Z 05017KT 15SM FEW150 BKN210 M02/M10 A3039 RMK AC1CS6 SLP294
CYUL;2002-11-17 00:00;METAR CYUL 170000Z 05017KT 15SM FEW120 BKN180 M02/M10 A3037 RMK AC1AS7 SLP288
CYUL;2002-11-17 01:00;METAR CYUL 170100Z 05016KT 15SM BKN150 M02/M10 A3037 RMK AS7 SLP286
CYUL;2002-11-17 02:00;METAR CYUL 170200Z 05016KT 15SM FEW120 OVC160 M02/M10 A3034 RMK AC1AS7 SLP278
CYUL;2002-11-17 03:00;METAR CYUL 170300Z 05016KT 15SM FEW120 OVC150 M02/M10 A3033 RMK AC1AS7 SLP273
CYUL;2002-11-17 04:00;METAR CYUL 170400Z 05015KT 15SM FEW030 OVC090 M02/M09 A3032 RMK SC2AS6 SLP269
CYUL;2002-11-17 06:00;METAR CYUL 170600Z 05015KT 6SM -SN OVC025 M03/M07 A3026 RMK SC8 SLP250
CYUL;2002-11-17 07:00;METAR CYUL 170700Z 05011KT 2 1/2SM -SN OVC015 M03/M06 A3025 RMK SC8 SLP245
CYUL;2002-11-17 08:00;METAR CYUL 170800Z 05013KT 1 3/4SM -SN OVC010 M03/M05 A3022 RMK SC8 SLP235
CYUL;2002-11-17 09:00;METAR CYUL 170900Z 05015KT 1 1/2SM -SN VV008 M04/M05 A3018 RMK SN8 SLP223
CYUL;2002-11-17 10:00;METAR CYUL 171000Z 05016G22KT 1SM -SN VV008 M03/M05 A3016 RMK SN8 R06L/2800VP6000FT/D R06R/4500FT/D SLP217
CYUL;2002-11-17 11:00;METAR CYUL 171100Z 05019G25KT 1SM -SN DRSN VV005 M03/M05 A3014 RMK SN8 R06L/3500V6000FT/D R06R/2200V4500FT/N SLP207
CYUL;2002-11-17 12:00;METAR CYUL 171200Z 05020KT 1 1/4SM R06L/P6000FT/U R06R/3500V5000FT/D -SN DRSN OVC008 M03/M05 A3011 RMK SN3SF5 SLP200 OVC008 M03/M05 A3011 RMK SN3SF5 SLP200
CYUL;2002-11-17 13:00;METAR CYUL 171300Z 04023G31KT 1 1/4SM R06L/P6000FT/D R06R/6000FT/N -SN DRSN OVC009 M03/M05 A3007 RMK SN3SF5 SLP186
CYUL;2002-11-17 14:00;METAR CYUL 171400Z 04023G30KT 1 1/4SM R06L/P6000FT/D R06R/6000FT/N -SN DRSN OVC007 M03/M05 A3003 RMK SN4SF4 SLP170 SLP160
CYUL;2002-11-17 16:00;METAR CYUL 171600Z 05023G31KT 1 1/4SM R06L/6000FT/U R06R/4000VP6000FT/U -PLSN DRSN OVC008 M03/M05 A2996 RMK SN3SF5 SLP149 DRSN OVC008 M03/M05 A2996 RMK SN3SF5 SLP149
CYUL;2002-11-17 17:00;METAR CYUL 171700Z 05025G35KT 7SM -PL DRSN BKN009 OVC015 M03/M05 A2991 RMK SF7NS1 SLP131 SLP131
CYUL;2002-11-17 18:00;METAR CYUL 171800Z 05030G37KT 7SM -PL BKN009 OVC015 M03/M05 A2988 RMK SF6NS2 REFZRA SLP122 REFZRA SLP122
CYUL;2002-11-17 19:00;METAR CYUL 171900Z 05027G34KT 7SM -PL DRSN BKN011 OVC015 M02/M05 A2985 RMK SC7NS1 SLP111 SLP111
CYUL;2002-11-17 20:00;METAR CYUL 172000Z 04021G30KT 4SM -PL DRSN BKN007 OVC015 M02/M04 A2983 RMK SC6NS2 SLP104 SLP104
CYUL;2002-11-17 22:00;METAR CYUL 172200Z 05021G30KT 6SM -SN BKN011 OVC025 M02/M04 A2979 RMK SC6SC2 SLP091 SLP091
CYUL;2002-11-17 23:00;METAR CYUL 172300Z 05021G30KT 4SM -SN -FZRA BKN011 OVC025 M02/M04 A2978 RMK SF6NS2 SLP087
CYUL;2002-11-18 00:00;METAR CYUL 180000Z 05017G24KT 3SM -PLSN DRSN BKN011 OVC025 M02/M04 A2979 RMK SF6NS2 SLP092 SF6NS2 SLP092
CYUL;2002-11-18 01:00;METAR CYUL 180100Z 04018KT 3SM -SN DRSN BKN011 OVC020 M02/M03 A2975 RMK SF6NS2 SLP078 SLP078
CYUL;2002-11-18 02:00;METAR CYUL 180200Z 05017G22KT 2 1/2SM -PLSN DRSN BKN011 OVC020 M02/M03 A2972 RMK SF5NS3 SLP066 SF5NS3 SLP066
CYUL;2002-11-18 03:00;METAR CYUL 180300Z 04013G19KT 1 1/4SM -PLSN DRSN BKN002 OVC015 M02/M03 A2970 RMK SF6NS2 SLP059 SF6NS2 SLP059
CYUL;2002-11-18 04:00;METAR CYUL 180400Z 04017G22KT 3/4SM -SN DRSN SCT002 OVC013 M02/M03 A2963 RMK SF3NS5 SLP037 SF3NS5 SLP037
CYUL;2002-11-18 05:00;METAR CYUL 180500Z 04017KT 1SM -SN DRSN SCT002 OVC011 M02/M03 A2962 RMK SF4NS4 SLP033 SLP033
CYUL;2002-11-18 06:00;METAR CYUL 180600Z 04016G24KT 3/4SM -SN DRSN SCT002 OVC006 M02/M03 A2959 RMK SF4NS4 SLP021 SF4NS4 SLP021
CYUL;2002-11-18 07:00;METAR CYUL 180700Z 01011KT 1SM R06L/P6000FT/U R06R/5500FT/N -SN DRSN SCT002 OVC011 M02/M03 A2957 RMK SF4NS4 SLP015
CYUL;2002-11-18 08:00;METAR CYUL 180800Z 02011G16KT 3/4SM R06L/2200V5000FT/D R06R/3000FT/N -SN DRSN VV006 M02/M03 A2953 RMK SN8 SLP002 VV006 M02/M03 A2953 RMK SN8 SLP002
CYUL;2002-11-18 09:00;METAR CYUL 180900Z 36010KT 1/2SM R06L/5000FT/N R06R/3000FT/N SN DRSN VV005 M02/M03 A2953 RMK SN8 SLP002
CYUL;2002-11-18 10:00;METAR CYUL 181000Z 33008KT 5/8SM R06L/4500FT/U R06R/3500FT/N -SN DRSN VV005 M02/M03 A2954 RMK SN8 SLP004
CYUL;2002-11-18 11:00;METAR CYUL 181100Z 31007KT 1SM R06L/P6000FT/D R06R/6000FT/D -SN DRSN VV006 M02/M03 A2957 RMK SN8 SLP014
CYUL;2002-11-18 12:00;METAR CYUL 181200Z 30007KT 3/4SM R24L/P6000FT/D -SN VV006 M02/M03 A2959 RMK SN8 SLP023 SLP023
CYUL;2002-11-18 13:00;METAR CYUL 181300Z 28008KT 12SM -SN FEW006 OVC019 M02/M03 A2960 RMK SF1SC7 SLP027
CYUL;2002-11-18 14:00;METAR CYUL 181400Z 27010KT 12SM -SN FEW008 OVC022 M01/M03 A2962 RMK SF1SC7 SLP031
CYUL;2002-11-18 15:00;METAR CYUL 181500Z 27014G20KT 6SM -SN BKN007 OVC015 M01/M02 A2963 RMK ST6SC2 SLP034 SLP034
CYUL;2002-11-18 16:00;METAR CYUL 181600Z 28018G25KT 12SM -SN BKN012 OVC018 M01/M03 A2966 RMK SC7SC1 VSBY SE-W 4 SLP046 VSBY SE-W 4 SLP046
CYUL;2002-11-18 17:00;METAR CYUL 181700Z 28019G24KT 2 1/2SM -SN BKN009 OVC020 M01/M03 A2969 RMK SF6SC2 SLP057 SLP057
CYUL;2002-11-18 18:00;METAR CYUL 181800Z 27016KT 10SM -SN BKN012 OVC018 M01/M03 A2974 RMK SF5SC3 SLP074
CYUL;2002-11-18 19:00;METAR CYUL 181900Z 27019G25KT 12SM -SN BKN012 OVC018 M01/M04 A2979 RMK SC6SC2 SLP088 SLP088
CYUL;2002-11-18 20:00;METAR CYUL 182000Z 27018G24KT 12SM SCT013 BKN025 M01/M04 A2985 RMK SC3SC4 PRESRR SLP110 SLP110
CYUL;2002-11-18 21:00;METAR CYUL 182100Z 28014G19KT 20SM BKN012 BKN050 OVC230 M00/M04 A2992 RMK SC6SC1CI0 PRESRR SLP134
CYUL;2002-11-18 22:00;METAR CYUL 182200Z 29016G25KT 15SM -SN BKN012 OVC050 M01/M05 A2998 RMK SC7SC1 PRESRR SLP156 PRESRR SLP156
CYUL;2002-11-18 23:00;METAR CYUL 182300Z 29013KT 15SM BKN015 M01/M05 A3004 RMK SC7 PRESRR SLP176
CYUL;2002-11-19 00:00;METAR CYUL 190000Z 28013G18KT 15SM BKN025 M00/M05 A3009 RMK SC6 SLP191
CYUL;2002-11-19 01:00;METAR CYUL 190100Z 28010G15KT 15SM BKN025 M01/M05 A3014 RMK SC7 SLP209
CYUL;2002-11-19 02:00;METAR CYUL 190200Z 28013KT 15SM BKN025 M01/M05 A3018 RMK SC7 SLP221
CYUL;2002-11-19 03:00;METAR CYUL 190300Z 27011KT 15SM OVC025 M01/M05 A3019 RMK SC8 SLP227
CYUL;2002-11-19 04:00;METAR CYUL 190400Z 27011KT 15SM OVC025 M01/M05 A3022 RMK SC8 SLP235
CYUL;2002-11-19 05:00;METAR CYUL 190500Z 25010KT 15SM OVC025 M01/M04 A3024 RMK SC8 SLP242
CYUL;2002-11-19 06:00;METAR CYUL 190600Z 23007KT 15SM FEW030 M02/M05 A3025 RMK SC1 SLP247
CYUL;2002-11-19 08:00;METAR CYUL 190800Z 24004KT 15SM FEW030 SCT120 M04/M06 A3028 RMK SC1AS0 SLP257
CYUL;2002-11-19 09:00;METAR CYUL 190900Z 25006KT 15SM FEW010 SCT120 M05/M07 A3029 RMK SF1AS0 SLP260
CYUL;2002-11-19 10:00;METAR CYUL 191000Z 00000KT 15SM FEW010 SCT120 M05/M06 A3029 RMK SF1AS0 SLP259
CYUL;2002-11-19 11:00;METAR CYUL 191100Z 15003KT 15SM FEW010 SCT120 M05/M06 A3030 RMK SF1AS0 SLP263
CYUL;2002-11-19 12:00;METAR CYUL 191200Z 11005KT 20SM FEW050 BKN120 M04/M06 A3032 RMK SC1AC5 SLP268
CYUL;2002-11-19 13:00;METAR CYUL 191300Z 12006KT 30SM FEW050 BKN120 BKN230 M04/M06 A3032 RMK SC1AC5CI1 SLP271 SLP271
CYUL;2002-11-19 14:00;METAR CYUL 191400Z 10008KT 30SM FEW060 BKN120 OVC230 M02/M05 A3030 RMK SC1AS6CI1 SLP264 SLP264
CYUL;2002-11-19 15:00;METAR CYUL 191500Z 10007KT 30SM FEW070 OVC120 M01/M04 A3030 RMK AC1AS7 SLP261
CYUL;2002-11-19 16:00;METAR CYUL 191600Z 11009KT 30SM FEW070 BKN120 OVC200 M01/M04 A3026 RMK AC1AS5CI1 SLP248 SLP248
CYUL;2002-11-19 17:00;METAR CYUL 191700Z 11008KT 20SM BKN120 BKN200 M00/M03 A3022 RMK AC6CI1 SLP235
CYUL;2002-11-19 18:00;METAR CYUL 191800Z 09011KT 20SM FEW020 BKN140 BKN200 00/M04 A3018 RMK SC1AC5CI1 SLP223 SLP223
CYUL;2002-11-19 19:00;METAR CYUL 191900Z 09012KT 20SM FEW020 BKN100 OVC200 00/M04 A3015 RMK CF1AC6CI2 SLP211 SLP211
CYUL;2002-11-19 21:00;METAR CYUL 192100Z 07010KT 20SM FEW060 OVC120 01/M03 A3009 RMK SC1AS7 SLP193
CYUL;2002-11-19 22:00;METAR CYUL 192200Z 08009KT 15SM OVC021 01/M03 A3010 RMK SC8 SLP196
CYUL;2002-11-19 23:00;METAR CYUL 192300Z 08009KT 15SM FEW021 OVC042 02/M02 A3008 RMK SC1SC7 SLP189
CYUL;2002-11-20 00:00;METAR CYUL 200000Z 14007KT 4SM -RASN OVC031 01/M01 A3008 RMK SC8 SLP189
CYUL;2002-11-20 01:00;METAR CYUL 200100Z 15010KT 4SM -RA SCT006 OVC020 01/00 A3008 RMK SC4SC4 SLP188
CYUL;2002-11-20 02:00;METAR CYUL 200200Z 15012KT 6SM -RA BKN007 OVC025 01/01 A3006 RMK SF5SC3 SLP183
CYUL;2002-11-20 03:00;METAR CYUL 200300Z 15010KT 6SM -RA FEW007 OVC030 01/01 A3004 RMK SF2SC6 SLP175
CYUL;2002-11-20 04:00;METAR CYUL 200400Z 15011KT 9SM -SHRA FEW007 OVC022 02/01 A3003 RMK SF1SC7 SLP172
CYUL;2002-11-20 05:00;METAR CYUL 200500Z 16009KT 7SM -SHRA FEW007 OVC017 02/01 A3003 RMK SF1SC7 SLP173
CYUL;2002-11-20 06:00;METAR CYUL 200600Z 16008KT 10SM -SHRA OVC014 02/01 A3003 RMK SC8 SLP171 SLP176 SF2ST4SC2 SLP175
CYUL;2002-11-20 09:00;METAR CYUL 200900Z 20009KT 10SM FEW012 OVC025 04/03 A3004 RMK SF2SC6
CYUL;2002-11-20 10:00;METAR CYUL 201000Z 17009KT 12SM OVC020 02/02 A3004 RMK SC8 SLP175
CYUL;2002-11-20 11:00;METAR CYUL 201100Z 17011KT 12SM OVC025 02/01 A3004 RMK SC8 SLP176
CYUL;2002-11-20 12:00;METAR CYUL 201200Z 18011KT 10SM BKN025 OVC044 03/02 A3005 RMK SC6SC2 SLP179
CYUL;2002-11-20 13:00;METAR CYUL 201300Z 21010KT 12SM SCT025 OVC045 03/02 A3006 RMK SC4SC4
CYUL;2002-11-20 14:00;METAR CYUL 201400Z 20011G16KT 8SM SCT027 OVC039 05/02 A3008 RMK SC3SC5 SLP187
CYUL;2002-11-20 15:00;METAR CYUL 201500Z 21010KT 7SM SCT030 BKN048 05/03 A3009 RMK SC3SC2 SLP191
CYUL;2002-11-20 16:00;METAR CYUL 201600Z 22008KT 7SM BKN020 BKN048 06/03 A3009 RMK SC6SC2 SLP192
CYUL;2002-11-20 17:00;METAR CYUL 201700Z 22012KT 10SM FEW020 SCT230 07/03 A3008 RMK CU1CI2
CYUL;2002-11-20 18:00;METAR CYUL 201800Z 22009KT 10SM FEW020 FEW230 07/04 A3008 RMK CU1CI1
CYUL;2002-11-20 19:00;METAR CYUL 201900Z 21008KT 10SM BKN030 BKN230 07/03 A3008 RMK SC5CI1 SLP189
CYUL;2002-11-20 20:00;METAR CYUL 202000Z 23007KT 9SM FEW040 BKN220 07/04 A3009 RMK SC2CI2 SLP191
CYUL;2002-11-20 21:00;METAR CYUL 202100Z 21005KT 9SM FEW040 OVC200 05/03 A3010 RMK SC1CI3 SLP193
CYUL;2002-11-20 22:00;METAR CYUL 202200Z 20004KT 12SM FEW030 BKN150 05/02 A3010 RMK SC2AS2 SLP194
CYUL;2002-11-20 23:00;METAR CYUL 202300Z 15006KT 12SM BKN030 OVC170 04/02 A3011 RMK SC5AS2 SLP196
CYUL;2002-11-21 00:00;METAR CYUL 210000Z 14006KT 12SM FEW050 BKN170 04/02 A3010 RMK SC1AC5 SLP195
CYUL;2002-11-21 01:00;METAR CYUL 210100Z 13006KT 12SM FEW050 OVC170 03/01 A3009 RMK SC1AS2 SLP192
CYUL;2002-11-21 02:00;METAR CYUL 210200Z 14005KT 12SM BKN054 OVC220 04/02 A3008 RMK SC6CS1 SLP189
CYUL;2002-11-21 03:00;METAR CYUL 210300Z 15008KT 12SM BKN140 04/02 A3007 RMK AC6 SLP185
CYUL;2002-11-21 04:00;METAR CYUL 210400Z 15006KT 12SM BKN047 04/02 A3006 RMK SC6 SLP179
CYUL;2002-11-21 05:00;METAR CYUL 210500Z 13007KT 12SM FEW045 OVC110 04/02 A3005 RMK SC2AC6 SLP178
CYUL;2002-11-21 06:00;METAR CYUL 210600Z 15009KT 12SM BKN110 04/02 A3004 RMK AC7 SLP173
CYUL;2002-11-21 07:00;METAR CYUL 210700Z 13006KT 12SM OVC065 04/02 A3003 RMK SC8 SLP171
CYUL;2002-11-21 08:00;METAR CYUL 210800Z 13009KT 12SM BKN090 OVC200 04/02 A3001 RMK AC5CS3 SLP164
CYUL;2002-11-21 09:00;METAR CYUL 210900Z 12005KT 12SM OVC090 OVC200 03/02 A2999 RMK AC5CS2 SLP158
CYUL;2002-11-21 10:00;METAR CYUL 211000Z 13003KT 12SM BKN100 OVC200 03/01 A2998 RMK AC6CS2 SLP155
CYUL;2002-11-21 11:00;METAR CYUL 211100Z 11003KT 12SM BKN120 OVC210 03/02 A2997 RMK AC5CS2 SLP150
CYUL;2002-11-21 12:00;METAR CYUL 211200Z 10004KT 8SM SCT120 OVC210 03/01 A2995 RMK AC4CS3 SLP143
CYUL;2002-11-21 13:00;METAR CYUL 211300Z 00000KT 8SM FEW120 OVC210 04/02 A2995 RMK AC2CS5 SLP142
CYUL;2002-11-21 14:00;METAR CYUL 211400Z 09003KT 10SM FEW120 OVC200 05/02 A2993 RMK AC2CS6 SLP137
CYUL;2002-11-21 15:00;METAR CYUL 211500Z 16008KT 10SM FEW120 BKN210 05/01 A2992 RMK AC2CS6 SLP134
CYUL;2002-11-21 16:00;METAR CYUL 211600Z 15006KT 12SM SCT140 BKN210 06/02 A2988 RMK AC3CS4 SLP121
CYUL;2002-11-21 17:00;METAR CYUL 211700Z 16004KT 15SM SCT140 BKN220 07/02 A2985 RMK AC3CS4 SLP110
CYUL;2002-11-21 18:00;METAR CYUL 211800Z 17003KT 12SM BKN120 BKN220 07/02 A2985 RMK AC5CS2
CYUL;2002-11-21 19:00;METAR CYUL 211900Z 15006KT 12SM FEW120 BKN150 06/02 A2983 RMK AC2AC4 SLP102
CYUL;2002-11-21 20:00;METAR CYUL 212000Z 17008KT 12SM OVC120 07/02 A2982 RMK AC8 SLP101
CYUL;2002-11-22 00:00;METAR CYUL 220000Z 14008KT 15SM OVC080 05/01 A2980 RMK AC8 SLP093
CYUL;2002-11-22 01:00;METAR CYUL 220100Z 15008KT 15SM OVC050 05/01 A2981 RMK SC8 SLP095
CYUL;2002-11-22 02:00;METAR CYUL 220200Z 16006KT 12SM -RA OVC040 05/02 A2981 RMK SC8 SLP096
CYUL;2002-11-22 03:00;METAR CYUL 220300Z 15008KT 6SM -RA SCT030 OVC040 04/03 A2980 RMK SC3SC5 SLP093
CYUL;2002-11-22 04:00;METAR CYUL 220400Z 15010KT 4SM -RA BR OVC025 04/04 A2979 RMK SC8 SLP090
CYUL;2002-11-22 05:00;METAR CYUL 220500Z 16008KT 4SM -RA BR FEW025 OVC040 05/04 A2978 RMK SC2SC6 SLP087
CYUL;2002-11-22 06:00;METAR CYUL 220600Z 12004KT 6SM -RA BR FEW025 OVC047 04/04 A2976 RMK SC2SC6 SLP081 SLP078 SLP071 SLP063
CYUL;2002-11-22 11:00;METAR CYUL 221100Z 02007KT 2 1/2SM BR FEW030 BKN063 04/03 A2971 RMK SC2SC5 SLP061
CYUL;2002-11-22 13:00;METAR CYUL 221300Z 02008KT 3/4SM BR OVC038 03/03 A2968 RMK FG6SC2 SLP054
CYUL;2002-11-22 14:00;METAR CYUL 221400Z 05006KT 1 1/4SM BR OVC027 05/04 A2968 RMK FG2SC5 SLP051
CYUL;2002-11-22 15:00;METAR CYUL 221500Z 01006KT 3/4SM BR OVC029 04/04 A2966 RMK FG6SC2 SLP045
CYUL;2002-11-22 16:00;METAR CYUL 221600Z 03008KT 1SM BR OVC041 04/03 A2963 RMK FG3SC5 SLP036
CYUL;2002-11-22 17:00;METAR CYUL 221700Z 02009KT 1SM BR OVC043 04/03 A2960 RMK FG3SC5 SLP026
CYUL;2002-11-22 18:00;METAR CYUL 221800Z 02010G15KT 2SM BR BKN040 OVC070 05/03 A2957 RMK SC5AC2 SLP014
CYUL;2002-11-22 19:00;METAR CYUL 221900Z 03014KT 2SM BR FEW056 BKN080 05/04 A2955 RMK SC2AC4 SLP007
CYUL;2002-11-22 20:00;METAR CYUL 222000Z 03011KT 5SM BR BKN080 05/03 A2953 RMK AC7 SLP002
CYUL;2002-11-22 21:00;METAR CYUL 222100Z 03011KT 6SM BR FEW012 OVC065 05/03 A2951 RMK SC1SC8 SLP994
CYUL;2002-11-22 22:00;METAR CYUL 222200Z 03013KT 7SM FEW012 OVC053 05/03 A2949 RMK SC1SC8 FOGGY SLP986
CYUL;2002-11-22 23:00;METAR CYUL 222300Z 03014G19KT 10SM -RA SCT010 OVC053 04/03 A2947 RMK SC2SC6 SLP980
CYUL;2002-11-23 00:00;METAR CYUL 230000Z 04008G15KT 12SM -RA BKN010 OVC050 05/03 A2945 RMK SC6SC2 SLP974
CYUL;2002-11-23 01:00;METAR CYUL 230100Z 02010KT 8SM -RA OVC010 04/03 A2943 RMK ST8 SLP966
CYUL;2002-11-23 02:00;METAR CYUL 230200Z 36012KT 7SM -RA OVC007 04/03 A2941 RMK ST8 SLP960
CYUL;2002-11-23 03:00;METAR CYUL 230300Z 02015KT 7SM -RA OVC007 04/03 A2938 RMK ST8 SLP950
CYUL;2002-11-23 04:00;METAR CYUL 230400Z 01014G20KT 2SM -RA BR OVC007 04/03 A2936 RMK ST8 SLP942
CYUL;2002-11-23 05:00;METAR CYUL 230500Z 34008KT 2SM -RA BR OVC006 04/03 A2933 RMK ST8 SLP932
CYUL;2002-11-23 06:00;METAR CYUL 230600Z 33009KT 4SM -RA BKN007 OVC010 03/02 A2930 RMK ST6SC2 SLP924
CYUL;2002-11-23 07:00;METAR CYUL 230700Z 34008KT 4SM -RA OVC008 03/02 A2930 RMK ST8 SLP923
CYUL;2002-11-23 09:00;METAR CYUL 230900Z 32007KT 2SM -SN OVC006 01/M00 A2932 RMK ST8 SLP930
CYUL;2002-11-23 10:00;METAR CYUL 231000Z 32011G18KT 1 1/4SM -SN OVC007 00/M00 A2934 RMK ST8 SLP937
CYUL;2002-11-23 11:00;METAR CYUL 231100Z 31012KT 3/4SM -SN OVC007 00/M00 A2936 RMK ST8 SLP945
CYUL;2002-11-23 12:00;METAR CYUL 231200Z 29009KT 12SM -SN FEW010 OVC039 00/ A2940 RMK SF1SC8 SLP957
CYUL;2002-11-23 13:00;METAR CYUL 231300Z 27010KT 10SM -SN FEW029 OVC050 00/ A2943 RMK SC1SC7 SLP967
CYUL;2002-11-23 14:00;METAR CYUL 231400Z 27013KT 3SM -SN OVC022 M00/ A2945 RMK SC8 SLP976
CYUL;2002-11-23 15:00;METAR CYUL 231500Z 28017KT 20SM -SN FEW018 FEW050 OVC060 M00/ A2949 RMK CF1SC2SC6 SLP989 SLP989
CYUL;2002-11-23 16:00;METAR CYUL 231600Z 28021G26KT 20SM FEW015 BKN053 BKN080 M00/ A2952 RMK CF1SC6AC1 SLP998 SLP998
CYUL;2002-11-23 17:00;METAR CYUL 231700Z 28023G29KT 30SM SCT018 BKN055 M01/ A2955 RMK SC3SC4 SLP008
CYUL;2002-11-23 18:00;METAR CYUL 231800Z 29017G27KT 20SM BKN017 M01/ A2959 RMK SC7 SLP022
CYUL;2002-11-23 19:00;METAR CYUL 231900Z 28020G29KT 20SM BKN022 M02/ A2963 RMK SC7 SLP034
CYUL;2002-11-23 20:00;METAR CYUL 232000Z 28016G22KT 20SM OVC020 M02/ A2966 RMK SC8 SLP044
CYUL;2002-11-24 00:00;METAR CYUL 240000Z 26012KT 15SM OVC018 M02/ A2973 RMK SC8 SLP070
CYUL;2002-11-24 01:00;METAR CYUL 240100Z 25015KT 15SM FEW015 OVC022 M02/ A2974 RMK SC2SC6 SLP073
CYUL;2002-11-24 02:00;METAR CYUL 240200Z 27017KT 15SM FEW016 OVC023 M02/ A2974 RMK SC1SC7 SLP073
CYUL;2002-11-24 03:00;METAR CYUL 240300Z 27011KT 15SM FEW019 OVC090 M02/ A2973 RMK SC2AC6 SLP069
CYUL;2002-11-24 04:00;METAR CYUL 240400Z 26011KT 15SM FEW020 OVC100 M02/ A2973 RMK SC1AC7 SLP070
CYUL;2002-11-24 05:00;METAR CYUL 240500Z 26010KT 15SM -SN FEW019 BKN068 OVC100 M03/ A2972 RMK SC2AC4AC1 SLP067 SLP067
CYUL;2002-11-24 06:00;METAR CYUL 240600Z 27004KT 12SM -SN FEW014 BKN031 BKN110 M03/ A2969 RMK SF1SC6AC1 SLP056
CYUL;2002-11-24 07:00;METAR CYUL 240700Z 26007KT 15SM -SN BKN016 OVC030 M02/ A2968 RMK SC7SC1 SLP053
CYUL;2002-11-24 08:00;METAR CYUL 240800Z 24004KT 12SM -SN OVC011 M02/ A2967 RMK SC8 SLP050
CYUL;2002-11-24 09:00;METAR CYUL 240900Z 26005KT 6SM -SN OVC008 M02/ A2967 RMK SC8 SLP048
CYUL;2002-11-24 10:00;METAR CYUL 241000Z 25006KT 12SM BKN007 OVC026 M01/ A2967 RMK SC7SC1 SLP050
CYUL;2002-11-24 11:00;METAR CYUL 241100Z 26006KT 6SM -SN OVC006 M01/ A2968 RMK SC8 SLP054
CYUL;2002-11-24 12:00;METAR CYUL 241200Z 27018G24KT 12SM FEW017 FEW050 OVC110 M00/M01 A2972 RMK CF1SC2AC6 SLP065
CYUL;2002-11-24 13:00;METAR CYUL 241300Z 28015G20KT 12SM FEW018 BKN110 00/M01 A2974 RMK SC2AC5 SLP074
CYUL;2002-11-24 14:00;METAR CYUL 241400Z 29011KT 12SM FEW016 FEW027 BKN055 01/M01 A2978 RMK CF1SC2SC3 SLP086 SLP086
CYUL;2002-11-24 15:00;METAR CYUL 241500Z 29013G20KT 12SM SCT024 BKN055 01/M01 A2980 RMK SC3SC4 SLP094
CYUL;2002-11-24 16:00;METAR CYUL 241600Z 29012G21KT 20SM BKN019 OVC055 01/M01 A2983 RMK SC7SC1 SLP102
CYUL;2002-11-24 17:00;METAR CYUL 241700Z 29020G31KT 20SM FEW020 FEW055 02/M00 A2984 RMK SC2SC1 SLP105
CYUL;2002-11-24 18:00;METAR CYUL 241800Z 31015G26KT 20SM FEW020 FEW055 03/M01 A2985 RMK SC1SC1 SLP109
CYUL;2002-11-25 00:00;METAR CYUL 250000Z 29007KT 15SM FEW035 01/M04 A3001 RMK SC2 SLP166
CYUL;2002-11-25 01:00;METAR CYUL 250100Z 30007KT 15SM FEW100 M00/M04 A3003 RMK AC1 SLP171
CYUL;2002-11-25 02:00;METAR CYUL 250200Z 30005KT 15SM FEW100 M01/M05 A3004 RMK AC1 SLP176
CYUL;2002-11-25 03:00;METAR CYUL 250300Z 29004KT 15SM FEW100 M02/M05 A3005 RMK AC2 SLP179
CYUL;2002-11-25 04:00;METAR CYUL 250400Z 29006KT 15SM SCT045 M03/M05 A3007 RMK SC3 SLP184
CYUL;2002-11-25 05:00;METAR CYUL 250500Z 29004KT 15SM SCT045 M02/M05 A3006 RMK SC4 SLP182
CYUL;2002-11-25 06:00;METAR CYUL 250600Z 30004KT 15SM FEW045 M03/M06 A3006 RMK SC1 SLP182
CYUL;2002-11-25 07:00;METAR CYUL 250700Z 26007KT 15SM FEW045 M02/M06 A3009 RMK SC1 SLP191
CYUL;2002-11-25 08:00;METAR CYUL 250800Z 28004KT 15SM FEW210 M04/M07 A3011 RMK CI1 SLP197
CYUL;2002-11-25 09:00;METAR CYUL 250900Z 29003KT 15SM BKN120 M02/M05 A3009 RMK AC6 SLP193
CYUL;2002-11-25 10:00;METAR CYUL 251000Z 26003KT 15SM FEW120 M02/M06 A3011 RMK AC2 SLP199
CYUL;2002-11-25 11:00;METAR CYUL 251100Z 24004KT 15SM FEW120 M02/M05 A3011 RMK AC2 SLP197
CYUL;2002-11-25 12:00;METAR CYUL 251200Z 30003KT 30SM FEW120 M04/M06 A3012 RMK AC1 SLP203
CYUL;2002-11-25 13:00;METAR CYUL 251300Z 34002KT 30SM FEW060 BKN090 M03/M06 A3014 RMK SC1AC5 SLP209
CYUL;2002-11-25 14:00;METAR CYUL 251400Z 31004KT 30SM FEW050 FEW090 FEW240 M03/M06 A3015 RMK SC1AC1CI0 SLP211 SLP211
CYUL;2002-11-25 15:00;METAR CYUL 251500Z 34003KT 30SM FEW060 FEW140 FEW240 M01/M06 A3016 RMK SC1AC2CI1 SLP214 SLP214
CYUL;2002-11-25 16:00;METAR CYUL 251600Z 27004KT 30SM FEW010 BKN120 BKN240 M00/M06 A3015 RMK FU1AC6CI1 K TR SLP211 K TR SLP211
CYUL;2002-11-25 17:00;METAR CYUL 251700Z 26004KT 30SM FEW010 SCT130 00/M06 A3014 RMK FU1AC4
CYUL;2002-11-25 18:00;METAR CYUL 251800Z 31002KT 30SM FEW060 FEW130 M00/M06 A3014 RMK SC1AC2 SLP207
CYUL;2002-11-25 19:00;METAR CYUL 251900Z 00000KT 30SM FEW010 BKN100 01/M06 A3013 RMK SF1AC6 SLP204
CYUL;2002-11-25 20:00;METAR CYUL 252000Z 00000KT 30SM BKN100 01/M06 A3013 RMK AC6 SLP204
CYUL;2002-11-25 21:00;METAR CYUL 252100Z 23002KT 20SM BKN100 M00/M06 A3014 RMK AC6 SLP207
CYUL;2002-11-25 22:00;METAR CYUL 252200Z 25002KT 15SM BKN100 M01/M05 A3015 RMK AC6 SLP211
CYUL;2002-11-25 23:00;METAR CYUL 252300Z 24003KT 15SM OVC100 M00/M06 A3016 RMK AC8 SLP217
CYUL;2002-11-26 00:00;METAR CYUL 260000Z 00000KT 15SM FEW060 OVC100 M01/M05 A3016 RMK SC1AC7 SLP217
CYUL;2002-11-26 01:00;METAR CYUL 260100Z 29002KT 15SM FEW060 OVC080 M01/M05 A3018 RMK SC1AC7 SLP221
CYUL;2002-11-26 02:00;METAR CYUL 260200Z 28002KT 15SM FEW050 OVC080 M00/M05 A3017 RMK SC2AC6 SLP220
CYUL;2002-11-26 03:00;METAR CYUL 260300Z 27002KT 15SM OVC100 M01/M05 A3016 RMK AC8 SLP216
CYUL;2002-11-26 04:00;METAR CYUL 260400Z 27002KT 15SM OVC047 M01/M05 A3017 RMK SC8 SLP218
CYUL;2002-11-26 05:00;METAR CYUL 260500Z 28002KT 15SM OVC042 M00/M04 A3017 RMK SC8 SLP220
CYUL;2002-11-26 06:00;METAR CYUL 260600Z 26005KT 12SM -SN OVC021 M00/M03 A3018 RMK SC8 SLP221
CYUL;2002-11-26 07:00;METAR CYUL 260700Z 31006KT 1 1/2SM -SN SCT003 OVC011 M01/M03 A3019 RMK SN2SF2SC4 SLP227 SLP227
CYUL;2002-11-26 08:00;METAR CYUL 260800Z 28002KT 4SM -SN FEW010 OVC034 M02/M02 A3019 RMK SF1SC6 .
CYUL;2002-11-26 09:00;METAR CYUL 260900Z 20004KT 15SM BKN032 M02/M03 A3020 RMK SC7 SLP229
CYUL;2002-11-26 10:00;METAR CYUL 261000Z 29004KT 15SM BKN037 M03/M04 A3022 RMK SC6 SLP237
CYUL;2002-11-26 11:00;METAR CYUL 261100Z 29003KT 15SM BKN037 M02/M03 A3025 RMK SC6 SLP245
CYUL;2002-11-26 12:00;METAR CYUL 261200Z 27002KT 20SM BKN038 M03/M04 A3027 RMK SC6 SLP252
CYUL;2002-11-26 13:00;METAR CYUL 261300Z 25005KT 30SM FEW025 BKN040 M01/M03 A3029 RMK CU1SC6 SLP258
CYUL;2002-11-26 14:00;METAR CYUL 261400Z 31009KT 30SM FEW025 BKN041 BKN230 M00/M03 A3030 RMK CU1SC6CI1 SLP261 SLP261
CYUL;2002-11-26 15:00;METAR CYUL 261500Z 31007KT 30SM FEW025 FEW040 SCT230 M01/M05 A3031 RMK CU1SC2CI0 SLP267 SLP267
CYUL;2002-11-26 16:00;METAR CYUL 261600Z 28010KT 30SM FEW025 FEW040 01/M05 A3030 RMK CU1SC1 SLP262
CYUL;2002-11-26 17:00;METAR CYUL 261700Z 32010KT 30SM BKN028 01/M05 A3028 RMK SC6 SLP257
CYUL;2002-11-26 18:00;METAR CYUL 261800Z 29011KT 30SM BKN029 01/M04 A3027 RMK SC6 SLP253
CYUL;2002-11-26 19:00;METAR CYUL 261900Z 29008KT 30SM SCT030 BKN230 00/M06 A3027 RMK SC3CI2 SLP252
CYUL;2002-11-26 20:00;METAR CYUL 262000Z 32008KT 30SM FEW030 BKN210 M01/M07 A3026 RMK SC2CI2 SLP250
CYUL;2002-11-26 21:00;METAR CYUL 262100Z 30007KT 30SM FEW030 FEW100 BKN210 M01/M07 A3027 RMK SC1AC1CI2 SLP253 SLP253
CYUL;2002-11-26 22:00;METAR CYUL 262200Z 30010KT 15SM FEW100 BKN180 M02/M07 A3029 RMK AC1AS2 SLP259
CYUL;2002-11-27 23:00;METAR CYUL 262300Z 31006KT 15SM FEW100 BKN160 M03/M07 A3029 RMK AC1AS3 SLP259
CYUL;2002-11-27 00:00;METAR CYUL 270000Z 30006KT 15SM FEW030 BKN160 M04/M07 A3030 RMK SC2AS2 SLP261
CYUL;2002-11-27 01:00;METAR CYUL 270100Z 35006KT 15SM FEW030 BKN160 M03/M07 A3028 RMK SC2AS2 SLP256
CYUL;2002-11-27 02:00;METAR CYUL 270200Z 02010G16KT 15SM FEW040 OVC120 M03/M08 A3026 RMK SC1AS6 SLP249
CYUL;2002-11-27 03:00;METAR CYUL 270300Z 02008KT 15SM FEW040 OVC095 M03/M08 A3025 RMK SC2AS5 SLP247
CYUL;2002-11-27 04:00;METAR CYUL 270400Z 04009KT 15SM FEW040 OVC090 M03/M09 A3023 RMK SC1AS6 SLP239
CYUL;2002-11-27 05:00;METAR CYUL 270500Z 02006KT 15SM BKN038 BKN090 M03/M08 A3023 RMK SC6AS2 SLP240
CYUL;2002-11-27 06:00;METAR CYUL 270600Z 36006KT 15SM OVC047 M03/M08 A3022 RMK SC8 SLP236
CYUL;2002-11-27 07:00;METAR CYUL 270700Z 02005KT 15SM OVC025 M04/M08 A3021 RMK SC8 SLP233
CYUL;2002-11-27 08:00;METAR CYUL 270800Z 36003KT 15SM OVC025 M04/M08 A3021 RMK SC8 SLP231
CYUL;2002-11-27 09:00;METAR CYUL 270900Z 02004KT 15SM FEW050 OVC100 M04/M08 A3020 RMK SC2AS3 SLP228
CYUL;2002-11-27 10:00;METAR CYUL 271000Z 35006KT 15SM FEW045 OVC080 M05/M08 A3020 RMK SC2AS2
CYUL;2002-11-27 11:00;METAR CYUL 271100Z 02006KT 15SM SCT033 BKN080 M05/M08 A3020 RMK SC3AS2
CYUL;2002-11-27 12:00;METAR CYUL 271200Z 01007KT 30SM FEW033 BKN230 M05/M10 A3020 RMK CU2CI3 SLP230
CYUL;2002-11-27 13:00;METAR CYUL 271300Z 35007KT 30SM BKN051 M05/M08 A3021 RMK SC6 SLP232
CYUL;2002-11-27 14:00;METAR CYUL 271400Z 35010KT 30SM FEW020 BKN048 M04/M10 A3021 RMK CU1SC6 SLP231
CYUL;2002-11-27 16:00;METAR CYUL 271600Z 34007KT 30SM FEW020 FEW049 FEW230 M04/M12 A3017 RMK CU1SC1CI1 SLP219 SLP219
CYUL;2002-11-27 17:00;METAR CYUL 271700Z 30010KT 30SM FEW045 FEW230 M03/M12 A3015 RMK SC1CI0 SLP212
CYUL;2002-11-27 18:00;METAR CYUL 271800Z 31007KT 30SM FEW030 M02/M12 A3013 RMK CU2 SLP204
CYUL;2002-11-27 19:00;METAR CYUL 271900Z 31011G17KT 30SM BKN057 M02/M13 A3011 RMK SC5 SLP199
CYUL;2002-11-27 20:00;METAR CYUL 272000Z 30012G18KT 30SM FEW060 SCT240 M03/M12 A3011 RMK SC2CI0 VIRGA SE QUAD SLP200 SE QUAD SLP200
CYUL;2002-11-27 21:00;METAR CYUL 272100Z 29015KT 30SM FEW063 FEW240 M04/M12 A3012 RMK SC2CI0 VIRGA SLP202 SLP202
CYUL;2002-11-27 22:00;METAR CYUL 272200Z 32012KT 15SM FEW060 FEW120 M05/M12 A3013 RMK SC2AC1 VIRGA SLP205 SLP205
CYUL;2002-11-27 23:00;METAR CYUL 272300Z 30010G16KT 15SM FEW060 FEW120 M05/M12 A3015 RMK SC1AC1
