CYUL;2005-01-01 00:00;METAR CYUL 010000Z 15010KT 6SM BR OVC025 04/03 A2984 RMK SC8 INTMT -RA SLP108=
CYUL;2005-01-01 01:00;METAR CYUL 010100Z 18011KT 7SM VCFG BKN027 OVC036 04/03 A2983 RMK SC6SC2 SLP104=
CYUL;2005-01-01 02:00;METAR CYUL 010200Z 18006KT 8SM VCFG BKN027 OVC034 05/04 A2983 RMK SC7SC1 SLP104=
CYUL;2005-01-01 03:00;METAR CYUL 010300Z 23013G19KT 10SM FEW025 BKN050 09/06 A2981 RMK SC2SC5 SLP097=
CYUL;2005-01-01 04:00;METAR CYUL 010400Z 23017G22KT 15SM FEW030 BKN075 08/05 A2981 RMK SC2AC4 SLP095=
CYUL;2005-01-01 05:00;METAR CYUL 010500Z 24025G33KT 15SM FEW030 BKN055 09/05 A2979 RMK SC2SC6 SLP091=
CYUL;2005-01-01 05:15;SPECI CYUL 010515Z 23023G29KT 8SM -SHRA BKN035 OVC045 RMK SC6SC2=
CYUL;2005-01-01 05:26;SPECI CYUL 010526Z 28027G33KT 2SM R24L/P6000FT/D R24R/4000VP6000FT/D SHRA BKN018 OVC030 RMK SC5SC3=
CYUL;2005-01-01 05:35;SPECI CYUL 010535Z 26025G38KT 4SM R24L/P6000FT/D R24R/4000VP6000FT/U -SHRA BKN022 OVC040 RERA RMK SC5SC3=
CYUL;2005-01-01 06:00;METAR CYUL 010600Z 26016G24KT 10SM -SHRA BKN030 OVC060 06/05 A2983 RERA RMK SC5SC3 SLP102=
CYUL;2005-01-01 06:45;SPECI CYUL 010645Z 26017G22KT 15SM FEW030 BKN090 RMK SC2AC4=
CYUL;2005-01-01 07:00;METAR CYUL 010700Z 27019G25KT 15SM FEW030 BKN090 06/02 A2985 RMK SC2AC5 SLP110=
CYUL;2005-01-01 09:00;METAR CYUL 010900Z 27017G25KT 15SM BKN047 OVC090 05/M01 A2994 RMK SC6AC2 SLP139=
CYUL;2005-01-01 10:00;METAR CYUL 011000Z 26017KT 15SM BKN045 BKN080 04/M01 A2998 RMK SC5AC1 SLP154=
CYUL;2005-01-01 11:00;METAR CYUL 011100Z 26018KT 15SM FEW040 SCT060 03/M01 A3004 RMK SC2SC2 PRESRR SLP174=
CYUL;2005-01-01 12:00;METAR CYUL 011200Z 27015G21KT 15SM FEW027 SCT055 BKN100 03/M01 A3008 RMK SC2SC2AC2 SLP188=
CYUL;2005-01-01 13:00;METAR CYUL 011300Z 27013G19KT 15SM FEW030 SCT055 SCT100 03/M01 A3013 RMK SC2SC2AC1 SLP204=
CYUL;2005-01-01 15:00;METAR CYUL 011500Z 30015G21KT 15SM FEW030 FEW058 BKN120 BKN230 02/M04 A3025 RMK SC2SC1AC4CI0 PRESRR CF ASOCT SLP245=
CYUL;2005-01-01 16:00;METAR CYUL 011600Z 29014KT 15SM FEW030 FEW058 OVC120 01/M05 A3029 RMK SC1SC1AC6 SLP259=
CYUL;2005-01-01 17:00;METAR CYUL 011700Z 30013KT 15SM FEW030 BKN120 OVC150 M00/M06 A3033 RMK SC1AC6AC1 SLP272=
CYUL;2005-01-01 18:00;METAR CYUL 011800Z 29010G15KT 15SM FEW035 FEW120 FEW150 FEW230 M00/M06 A3035 RMK CF1AC1AC1CI0 SLP281=
CYUL;2005-01-01 19:00;METAR CYUL 011900Z 29013KT 15SM FEW035 FEW120 FEW230 M01/M08 A3039 RMK CF1AC1CI0 SLP294=
CYUL;2005-01-01 20:00;METAR CYUL 012000Z 29014KT 15SM FEW035 FEW100 FEW250 M01/M09 A3046 RMK SC1AC1CI1 PRESRR SLP316=
CYUL;2005-01-01 21:00;METAR CYUL 012100Z 30010KT 15SM FEW030 FEW090 FEW240 M02/M11 A3050 RMK SC1AC1CI1 SLP331=
CYUL;2005-01-01 22:00;METAR CYUL 012200Z 31007KT 15SM FEW030 FEW230 M03/M12 A3054 RMK SC1CI1 SLP344=
CYUL;2005-01-01 23:00;METAR CYUL 012300Z 30006KT 15SM SKC M04/M11 A3059 RMK PRESRR SLP362=
CYUL;2005-01-02 00:00;METAR CYUL 020000Z 36011KT 15SM SKC M04/M13 A3064 RMK SLP379=
CYUL;2005-01-02 01:00;METAR CYUL 020100Z 02008KT 15SM SKC M06/M14 A3068 RMK SLP392=
CYUL;2005-01-02 02:00;METAR CYUL 020200Z 36011KT 15SM SKC M07/M15 A3070 RMK SLP399=
CYUL;2005-01-02 03:00;METAR CYUL 020300Z 03015KT 15SM SKC M08/M16 A3071 RMK SLP402=
CYUL;2005-01-02 04:00;METAR CYUL 020400Z 04012G17KT 15SM SKC M09/M17 A3073 RMK SLP410=
CYUL;2005-01-02 05:00;METAR CYUL 020500Z 03012KT 15SM SKC M11/M17 A3075 RMK SLP416=
CYUL;2005-01-02 06:00;METAR CYUL 020600Z 04013KT 15SM SKC M12/M18 A3077 RMK SLP422=
CYUL;2005-01-02 07:00;METAR CYUL 020700Z 04012KT 15SM SKC M13/M19 A3079 RMK SLP429=
CYUL;2005-01-02 08:00;METAR CYUL 020800Z 04012KT 15SM SKC M14/M19 A3079 RMK SLP429=
CYUL;2005-01-02 09:00;METAR CYUL 020900Z 06010KT 15SM SKC M15/M19 A3079 RMK SLP429=
CYUL;2005-01-02 12:00;METAR CYUL 021200Z 05013KT 15SM FEW130 BKN210 M16/M20 A3075 RMK AC2CS3 SLP416=
CYUL;2005-01-02 13:00;METAR CYUL 021300Z 05011G16KT 30SM BKN100 BKN210 M16/M20 A3073 RMK AC7CS1 SLP410=
CYUL;2005-01-02 14:00;METAR CYUL 021400Z 06012KT 30SM OVC130 M15/M19 A3070 RMK AC7 SLP400=
CYUL;2005-01-02 16:00;METAR CYUL 021600Z 04013KT 30SM OVC100 M14/M18 A3059 RMK AC8 SLP363=
CYUL;2005-01-02 17:00;METAR CYUL 021700Z 04014KT 30SM OVC090 M14/M17 A3054 RMK AC8 SLP344=
CYUL;2005-01-02 18:00;METAR CYUL 021800Z 05013KT 15SM OVC060 M13/M17 A3045 RMK SC8 PRESFR SLP316=
CYUL;2005-01-02 18:27;SPECI CYUL 021827Z 05013KT 10SM -SN BKN014 OVC060 RMK SC6SC2=
CYUL;2005-01-02 18:30;SPECI CYUL 021830Z 03011KT 2 1/2SM -SN BKN009 OVC015 RMK SC6SC2=
CYUL;2005-01-02 18:41;SPECI CYUL 021841Z 04011KT 3/4SM R06L/2200V6000FT/D R06R/2800V6000FT/D -SN VV004 RMK SN8=
CYUL;2005-01-02 18:53;SPECI CYUL 021853Z 04011KT 3/4SM R06L/5000FT/U R06R/3500V6000FT/D -SN OVC015 RMK SN6SC2=
CYUL;2005-01-02 19:00;METAR CYUL 021900Z 05015KT 1SM R06L/6000FT/U R06R/4500V6000FT/U -SNPL OVC030 M13/M15 A3035 RMK SN6SC2 PRESFR SLP281=
CYUL;2005-01-02 19:08;SPECI CYUL 021908Z 04011KT 1 1/2SM -SNPL OVC035 RMK SN2SC6=
CYUL;2005-01-02 20:00;METAR CYUL 022000Z 04012KT 2SM -SNPL OVC035 M11/M13 A3030 RMK SC8 /S01/ SLP266=
CYUL;2005-01-02 20:26;SPECI CYUL 022026Z 04015KT 1 1/4SM -SNPL OVC030 RMK SC8=
CYUL;2005-01-02 21:00;METAR CYUL 022100Z 03014KT 1 1/4SM -SNPL SCT015 OVC025 M10/M12 A3028 RMK SC3SC5 FROST ON INDICATOR SLP257=
CYUL;2005-01-02 21:24;SPECI CYUL 022124Z 03013KT 1SM R06L/6000FT/U R06R/6000FT/D -SNPL SCT015 OVC022 RMK SC3SC5=
CYUL;2005-01-02 22:00;METAR CYUL 022200Z 02012KT 1 1/4SM -SNPL BKN013 OVC020 M10/M11 A3024 RMK SC6SC2 FROST ON INDICATOR /S02/ SLP242=
CYUL;2005-01-02 22:49;SPECI CYUL 022249Z 02011KT 1 3/4SM -SN BKN010 OVC022 RMK SC6SC2=
CYUL;2005-01-02 23:00;METAR CYUL 022300Z 02011KT 2 1/2SM -SN BKN010 OVC020 M09/M11 A3020 RMK SC6SC2 /S03/ SLP229=
CYUL;2005-01-02 23:26;SPECI CYUL 022326Z 01008KT 2SM -SNPL OVC010 RMK SC8=
CYUL;2005-01-02 23:36;SPECI CYUL 022336Z 01009KT 1 1/2SM -SNPL SCT004 OVC009 RMK SF3SC5=
CYUL;2005-01-03 00:00;METAR CYUL 030000Z 01010KT 1 1/2SM -SNPL SCT004 OVC009 M08/M09 A3020 RMK SF3SC5 FROST ON INDICATOR /S05/ SLP230=
CYUL;2005-01-03 00:38;SPECI CYUL 030038Z 02010KT 2SM -SNPL FEW008 OVC012 RMK SF2SC6=
CYUL;2005-01-03 01:00;METAR CYUL 030100Z 01008KT 1 3/4SM -SNPL SCT006 OVC011 M06/M07 A3019 RMK SF3SC5 FROST ON INDICATOR SLP226=
CYUL;2005-01-03 01:21;SPECI CYUL 030121Z 01005KT 1 3/4SM -SNPL BKN006 OVC012 RMK SF6SC2=
CYUL;2005-01-03 02:29;SPECI CYUL 030229Z 36004KT 1 3/4SM -FZDZ BKN004 OVC014 RMK SF6SC2=
CYUL;2005-01-03 03:00;METAR CYUL 030300Z 35007KT 1 3/4SM -FZDZ BKN004 OVC015 M06/M07 A3018 RMK SF6SC2 SLP222=
CYUL;2005-01-03 04:00;METAR CYUL 030400Z 01005KT 2 1/2SM -FZDZ BR OVC004 M07/M08 A3016 RMK ST8 SLP218=
CYUL;2005-01-03 05:00;METAR CYUL 030500Z 01004KT 3SM -FZDZ BR OVC004 M07/M08 A3017 RMK ST8 SLP221=
CYUL;2005-01-03 05:43;SPECI CYUL 030543Z 36003KT 3SM BR OVC004 RMK ST8=
CYUL;2005-01-03 06:00;METAR CYUL 030600Z 34002KT 2 1/2SM -FZDZ BR OVC004 M07/M08 A3016 RMK ST8 ZL- INTMT SLP217=
CYUL;2005-01-03 06:46;SPECI CYUL 030646Z 00000KT 1 1/2SM -FZDZ BR OVC003 RMK ST8=
CYUL;2005-01-03 07:00;METAR CYUL 030700Z 00000KT 1 1/4SM -FZDZ BR OVC002 M07/M07 A3016 RMK ST8 SLP218=
CYUL;2005-01-03 07:32;SPECI CYUL 030732Z 00000KT 1SM R24L/P6000FT/N R24R/P6000FT/U BR OVC002 RMK ST8=
CYUL;2005-01-03 08:00;METAR CYUL 030800Z 21003KT 1SM R24L/6000FT/U R24R/P6000FT/D BR OVC002 M06/M06 A3019 RMK ST8 SLP225=
CYUL;2005-01-03 08:22;SPECI CYUL 030822Z 22004KT 5/8SM R24L/3500V4500FT/D R24R/5000FT/D BR VV001 RMK FG8=
CYUL;2005-01-03 08:44;SPECI CYUL 030844Z 23006KT 1SM R24L/3500VP6000FT/U R24R/P6000FT/U BR OVC002 RMK ST8=
CYUL;2005-01-03 09:00;METAR CYUL 030900Z 22005KT 1 1/4SM BR OVC004 M05/M05 A3020 RMK ST8 SLP230=
CYUL;2005-01-03 09:19;SPECI CYUL 030919Z 23004KT 2SM BR SCT003 OVC030 RMK SF4SC4=
CYUL;2005-01-03 10:00;METAR CYUL 031000Z 20002KT 3SM BR OVC030 M04/M04 A3021 RMK SC8 SLP233=
CYUL;2005-01-03 11:00;METAR CYUL 031100Z 20006KT 6SM BR OVC033 M03/M03 A3022 RMK SC8 SLP237=
CYUL;2005-01-03 12:00;METAR CYUL 031200Z 20007KT 8SM BKN033 M02/M02 A3022 RMK SC6 SLP236=
CYUL;2005-01-03 13:00;METAR CYUL 031300Z 22007KT 10SM OVC033 M01/M02 A3025 RMK SC8 SLP245=
CYUL;2005-01-03 14:00;METAR CYUL 031400Z 23005KT 12SM OVC030 M01/M02 A3027 RMK SC8 SLP253=
CYUL;2005-01-03 15:00;METAR CYUL 031500Z 22005KT 12SM OVC030 M01/M02 A3029 RMK SC8 SLP258=
CYUL;2005-01-03 16:00;METAR CYUL 031600Z 20005KT 15SM OVC032 M00/M02 A3028 RMK SC8 SLP257=
CYUL;2005-01-03 17:00;METAR CYUL 031700Z 24005KT 15SM OVC033 00/M01 A3027 RMK SC8 SLP252=
CYUL;2005-01-03 18:00;METAR CYUL 031800Z 26005KT 15SM OVC032 01/M01 A3026 RMK SC8 SLP248=
CYUL;2005-01-03 19:00;METAR CYUL 031900Z 23007KT 15SM BKN034 OVC120 01/M01 A3024 RMK SC6AC1 SLP243=
CYUL;2005-01-03 20:00;METAR CYUL 032000Z 23004KT 15SM SCT035 OVC220 01/M01 A3024 RMK SC3CS2 SLP244=
CYUL;2005-01-03 21:00;METAR CYUL 032100Z 23007KT 15SM FEW040 OVC220 00/M02 A3026 RMK SC2CS2 SLP250=
CYUL;2005-01-03 22:00;METAR CYUL 032200Z 24006KT 15SM BKN033 BKN220 00/M03 A3027 RMK SC5CS1 SLP253=
CYUL;2005-01-03 23:00;METAR CYUL 032300Z 26004KT 15SM OVC033 M00/M02 A3027 RMK SC8 SLP254=
CYUL;2005-01-04 00:00;METAR CYUL 040000Z 27003KT 15SM OVC034 M00/M02 A3027 RMK SC8 SLP254=
CYUL;2005-01-04 01:00;METAR CYUL 040100Z 28004KT 15SM OVC034 M00/M02 A3027 RMK SC8 SLP252=
CYUL;2005-01-04 02:00;METAR CYUL 040200Z 35005KT 15SM BKN035 OVC220 M00/M03 A3025 RMK SC7CI0 SLP246=
CYUL;2005-01-04 03:00;METAR CYUL 040300Z 03006KT 15SM OVC034 M00/M03 A3024 RMK SC8 SLP242=
CYUL;2005-01-04 04:00;METAR CYUL 040400Z 02003KT 15SM OVC033 M01/M04 A3024 RMK SC8 SLP243=
CYUL;2005-01-04 05:00;METAR CYUL 040500Z 04007KT 15SM OVC033 M00/M05 A3022 RMK SC8 SLP237=
CYUL;2005-01-04 06:00;METAR CYUL 040600Z 04009KT 15SM OVC035 M02/M07 A3022 RMK SC8 SLP236=
CYUL;2005-01-04 07:00;METAR CYUL 040700Z 04007KT 15SM OVC032 M03/M08 A3023 RMK SC8 SLP238=
CYUL;2005-01-04 08:00;METAR CYUL 040800Z 04006KT 15SM OVC032 M03/M08 A3024 RMK SC8 SLP241=
CYUL;2005-01-04 09:00;METAR CYUL 040900Z 04006KT 15SM OVC032 M03/M07 A3024 RMK SC8 SLP241=
CYUL;2005-01-04 10:00;METAR CYUL 041000Z 03011KT 15SM OVC032 M04/M08 A3024 RMK SC8 SLP243=
CYUL;2005-01-04 11:00;METAR CYUL 041100Z 05010KT 15SM BKN032 OVC040 M05/M09 A3025 RMK SC6SC2 SLP245=
CYUL;2005-01-04 12:00;METAR CYUL 041200Z 03008KT 15SM OVC038 M06/M09 A3026 RMK SC8 SLP249=
CYUL;2005-01-04 13:00;METAR CYUL 041300Z 03006KT 15SM OVC035 M06/M09 A3028 RMK SC8 SLP256=
CYUL;2005-01-04 14:30;SPECI CYUL 041430Z 01003KT 10SM -SN BKN020 OVC027 RMK SC6SC2=
CYUL;2005-01-04 15:00;METAR CYUL 041500Z 35004KT 10SM -SN BKN023 OVC032 M07/M10 A3030 RMK SC5SC3 PCPN VRY LGT SLP264=
CYUL;2005-01-04 16:00;METAR CYUL 041600Z 35003KT 8SM -SN BKN023 OVC036 M07/M10 A3030 RMK SC5SC3 SLP262=
CYUL;2005-01-04 17:00;METAR CYUL 041700Z 26002KT 8SM -SN SCT026 OVC036 M06/M08 A3027 RMK SC3SC5 SLP254=
CYUL;2005-01-04 18:00;METAR CYUL 041800Z 22003KT 8SM -SN BKN027 OVC038 M05/M07 A3026 RMK SC5SC3 PCPN VRY LGT SLP248=
CYUL;2005-01-04 18:36;SPECI CYUL 041836Z 27006KT 15SM -SN FEW018 BKN028 OVC034 RMK SF1SC4SC3 -SN INTMT=
CYUL;2005-01-04 19:39;SPECI CYUL 041939Z 27011KT 15SM FEW013 SCT025 BKN035 BKN080 RMK SF2SC2SC2AC1=
CYUL;2005-01-04 20:00;METAR CYUL 042000Z 27011KT 15SM FEW013 FEW025 BKN035 BKN080 M04/M08 A3024 RMK SF1SC2SC3AC1 SLP241=
CYUL;2005-01-04 22:00;METAR CYUL 042200Z 25009KT 15SM SCT090 BKN130 M04/M08 A3025 RMK AC3AC3 VIRGA SLP246=
CYUL;2005-01-04 23:00;METAR CYUL 042300Z 24010KT 15SM FEW085 OVC120 M04/M08 A3025 RMK AC2AC6 SLP245=
CYUL;2005-01-05 00:00;METAR CYUL 050000Z 26008KT 15SM FEW022 SCT058 BKN085 OVC120 M04/M08 A3026 RMK CU1SC2AC4AC1 SLP250=
CYUL;2005-01-05 01:00;METAR CYUL 050100Z 29007KT 15SM FEW025 FEW060 BKN078 OVC110 M04/M08 A3025 RMK SC1SC2AC5AC1 SLP248=
CYUL;2005-01-05 02:00;METAR CYUL 050200Z 28007KT 15SM FEW018 OVC078 M05/M09 A3025 RMK SC1AC7 SLP248=
CYUL;2005-01-05 02:23;SPECI CYUL 050223Z 27008KT 15SM -SN FEW018 FEW065 OVC080 RMK SC1SC2AC6=
CYUL;2005-01-05 03:00;METAR CYUL 050300Z 27007KT 10SM -SN FEW020 BKN045 OVC075 M05/M10 A3026 RMK SC1SC4AC3 SLP249=
CYUL;2005-01-05 04:00;METAR CYUL 050400Z 28007KT 10SM -SN FEW040 OVC085 M05/M10 A3027 RMK SC2AC6 PCPN VRY LGT SLP253=
CYUL;2005-01-05 05:00;METAR CYUL 050500Z 27007KT 15SM -SN FEW060 OVC090 M05/M09 A3026 RMK SC2AC6 S- INTMT SLP251=
CYUL;2005-01-05 05:45;SPECI CYUL 050545Z 31008KT 15SM FEW078 OVC090 RMK AC2AC6=
CYUL;2005-01-05 06:00;METAR CYUL 050600Z 31006KT 15SM FEW065 OVC085 M05/M10 A3027 RMK SC2AC6 SLP252=
CYUL;2005-01-05 07:00;METAR CYUL 050700Z 33005KT 15SM FEW060 OVC085 M06/M10 A3026 RMK SC2AC6 SLP250=
CYUL;2005-01-05 08:00;METAR CYUL 050800Z 33004KT 15SM BKN058 OVC090 M06/M11 A3026 RMK SC6AC2 SLP251=
CYUL;2005-01-05 08:19;SPECI CYUL 050819Z 32006KT 15SM -SHSN BKN055 OVC080 RMK SC6AC2=
CYUL;2005-01-05 09:00;METAR CYUL 050900Z 34006KT 15SM OVC057 M06/M12 A3025 RMK SC8 SLP248=
CYUL;2005-01-05 10:00;METAR CYUL 051000Z 34005KT 15SM BKN055 M06/M12 A3026 RMK SC7 SLP250=
CYUL;2005-01-05 11:00;METAR CYUL 051100Z 36008KT 15SM FEW040 SCT180 SCT220 M07/M13 A3029 RMK SC2AC2CI1 SLP259=
CYUL;2005-01-05 12:00;METAR CYUL 051200Z 35008KT 15SM FEW040 FEW150 BKN210 M08/M13 A3031 RMK SC1AC1CI2 SLP266=
CYUL;2005-01-05 14:00;METAR CYUL 051400Z 03008KT 15SM FEW150 BKN180 BKN220 M10/M15 A3035 RMK AC2AC3CI2 SLP280=
CYUL;2005-01-05 15:00;METAR CYUL 051500Z 36007KT 15SM FEW018 FEW028 FEW130 FEW160 FEW230 M10/M15 A3036 RMK SF1CU1AC1AC1CI0 SLP285=
CYUL;2005-01-05 16:00;METAR CYUL 051600Z 01006KT 15SM FEW018 FEW032 FEW130 FEW230 M10/M16 A3035 RMK SF1CU1AC1CI0 SLP280=
CYUL;2005-01-05 17:00;METAR CYUL 051700Z 07003KT 15SM FEW032 FEW100 FEW240 M10/M16 A3033 RMK SC1AC1CI0 PRES UNSTDY SLP274=
CYUL;2005-01-05 18:00;METAR CYUL 051800Z 00000KT 15SM FEW028 FEW090 SCT200 BKN220 BKN250 M10/M16 A3031 RMK SC1AC1CS0CI0CC1 CF ASOCT SLP268=
CYUL;2005-01-05 19:00;METAR CYUL 051900Z 29003KT 15SM FEW028 FEW110 SCT200 BKN240 M09/M16 A3031 RMK SC1AC1CS0CI0 CC ASOCT SLP267=
CYUL;2005-01-05 20:00;METAR CYUL 052000Z 29007KT 15SM FEW030 SCT095 BKN210 BKN250 M10/M16 A3032 RMK SC1AS2CS0CI1 CC ASOCT SLP269=
CYUL;2005-01-05 21:00;METAR CYUL 052100Z 29006KT 30SM FEW025 SCT100 SCT150 BKN250 M11/M17 A3032 RMK SC1AS2AC1CI0 SLP271=
CYUL;2005-01-05 22:00;METAR CYUL 052200Z 28005KT 15SM FEW028 SCT210 BKN250 M12/M17 A3032 RMK SC1CI1CI1 SLP272=
CYUL;2005-01-05 23:00;METAR CYUL 052300Z 29005KT 15SM BKN250 M12/M18 A3032 RMK CI4 SLP272=
CYUL;2005-01-06 00:00;METAR CYUL 060000Z 32006KT 15SM BKN250 M12/M18 A3033 RMK CI5 SLP273=
CYUL;2005-01-06 01:00;METAR CYUL 060100Z 29004KT 15SM BKN250 M13/M19 A3032 RMK CI6 SLP271=
CYUL;2005-01-06 02:00;METAR CYUL 060200Z 31004KT 15SM SCT250 M13/M19 A3030 RMK CI2 SLP265=
CYUL;2005-01-06 03:00;METAR CYUL 060300Z 34004KT 15SM SCT240 M14/M19 A3030 RMK CI2 SLP263=
CYUL;2005-01-06 04:00;METAR CYUL 060400Z 35004KT 15SM SCT240 M14/M19 A3029 RMK CI2 SLP261=
CYUL;2005-01-06 05:00;METAR CYUL 060500Z 02006KT 15SM FEW050 BKN210 M14/M17 A3029 RMK SC1CI4 SLP260=
CYUL;2005-01-06 06:00;METAR CYUL 060600Z 02007KT 15SM BKN210 M14/M17 A3027 RMK CI5 SLP252=
CYUL;2005-01-06 07:00;METAR CYUL 060700Z 03006KT 15SM FEW100 BKN180 OVC210 M14/M18 A3026 RMK AC2AS6CI1 SLP249=
CYUL;2005-01-06 08:00;METAR CYUL 060800Z 02007KT 15SM BKN180 OVC210 M14/M17 A3023 RMK AS6CI2 SLP241=
CYUL;2005-01-06 09:00;METAR CYUL 060900Z 02005KT 15SM BKN170 OVC210 M14/M18 A3022 RMK AC6CI2 SLP235=
CYUL;2005-01-06 10:00;METAR CYUL 061000Z 02005KT 15SM FEW030 BKN180 OVC240 M14/M18 A3020 RMK CF1AS6CI2 SLP230=
CYUL;2005-01-06 11:00;METAR CYUL 061100Z 01008KT 15SM FEW180 BKN220 M15/M18 A3019 RMK AS2CS2 SLP226=
CYUL;2005-01-06 12:00;METAR CYUL 061200Z 03009KT 15SM FEW150 BKN240 M15/M18 A3018 RMK AC2CS3 SLP222=
CYUL;2005-01-06 14:00;METAR CYUL 061400Z 03008KT 15SM FEW090 BKN160 OVC220 M15/M18 A3013 RMK AC1AS4CS3 SLP207=
CYUL;2005-01-06 15:00;METAR CYUL 061500Z 04008KT 15SM FEW090 BKN150 OVC220 M14/M17 A3010 RMK AC1AS6CS2 SLP197=
CYUL;2005-01-06 16:00;METAR CYUL 061600Z 02010KT 12SM FEW090 BKN150 OVC210 M13/M17 A3005 RMK AC2AC2CI4 PRESFR SLP179=
CYUL;2005-01-06 17:00;METAR CYUL 061700Z 03011KT 12SM FEW060 FEW090 BKN120 OVC210 M13/M16 A2998 RMK SC1AC2AC4CI2 PRESFR SLP156=
CYUL;2005-01-06 17:50;SPECI CYUL 061750Z 03013KT 12SM -SHSN BKN034 BKN060 OVC210 RMK SC6SC2CI1=
CYUL;2005-01-06 18:00;METAR CYUL 061800Z 04012KT 12SM -SHSN FEW026 BKN032 BKN058 OVC210 M13/M16 A2993 RMK SF1SC6SC1CI1 SLP138=
CYUL;2005-01-06 18:03;SPECI CYUL 061803Z 03012KT 2 1/2SM -SHSN FEW015 BKN026 OVC045 RMK SF1SC6SC2=
CYUL;2005-01-06 18:16;SPECI CYUL 061816Z 03013KT 1 1/4SM -SN DRSN BKN011 OVC023 RMK SN5SF2SC1=
CYUL;2005-01-06 18:24;SPECI CYUL 061824Z 04013KT 1SM R06L/P6000FT/D R06R/P6000FT/D -SN DRSN BKN008 OVC019 RMK SN6SF1SC1=
CYUL;2005-01-06 18:35;SPECI CYUL 061835Z 04013KT 3/8SM R06L/5500FT/D R06R/5500FT/D SN DRSN VV005 RMK SN8=
CYUL;2005-01-06 18:44;SPECI CYUL 061844Z 04012KT 1/4SM R06L/4500FT/D R06R/4500FT/D SN DRSN VV005 RMK SN8=
CYUL;2005-01-06 19:00;METAR CYUL 061900Z 04011KT 1/4SM R06L/4500FT/N R06R/4000FT/N +SN DRSN VV005 M13/M15 A2987 RMK SN8 PRESFR SLP118=
CYUL;2005-01-06 19:12;SPECI CYUL 061912Z 04014KT 3/8SM R06L/5000FT/U R06R/5000FT/U SN DRSN VV007 RESN RMK SN8=
CYUL;2005-01-06 19:21;SPECI CYUL 061921Z 04014KT 1/2SM R06L/5500FT/N R06R/5500FT/N SN DRSN VV007 RESN RMK SN8=
CYUL;2005-01-06 20:00;METAR CYUL 062000Z 05018KT 5/8SM R06L/5500FT/U R06R/5500FT/U -SN BLSN VV008 M13/M14 A2982 RESN RMK SN8 /S03/ SLP101=
CYUL;2005-01-06 20:07;SPECI CYUL 062007Z 05016KT 1/2SM R06L/6000FT/D R06R/6000FT/D SN BLSN VV006 RMK SN8=
CYUL;2005-01-06 20:24;SPECI CYUL 062024Z 04015G20KT 3/8SM R06L/4500FT/D R06R/3500V5000FT/D SN BLSN VV006 RMK SN8=
CYUL;2005-01-06 20:28;SPECI CYUL 062028Z 04015KT 1/4SM R06L/4500FT/N R06R/3000V4500FT/D +SN +BLSN VV004 RMK SN8=
CYUL;2005-01-06 20:51;SPECI CYUL 062051Z 05017KT 1/8SM R06L/3000FT/D R06R/3500FT/D +SN +BLSN VV003 RMK SN8=
CYUL;2005-01-06 21:00;METAR CYUL 062100Z 04014G19KT 1/4SM R06L/2800V4500FT/U R06R/3500FT/N +SN +BLSN VV004 M12/M14 A2978 RMK SN8 /S06/ SLP088=
CYUL;2005-01-06 21:19;SPECI CYUL 062119Z 04016KT 1/8SM R06L/3000V5000FT/D R06R/3500FT/D +SN +BLSN VV004 RMK SN8=
CYUL;2005-01-06 21:48;SPECI CYUL 062148Z 04014KT 1/4SM R06L/5000FT/U R06R/3500V5000FT/U +SN +BLSN VV004 RMK SN8=
CYUL;2005-01-06 22:00;METAR CYUL 062200Z 04017KT 1/4SM R06L/4500V6000FT/U R06R/4500FT/D +SN +BLSN VV005 M12/M14 A2975 RMK SN8 /S09/ SLP078=
CYUL;2005-01-06 22:06;SPECI CYUL 062206Z 04017KT 3/8SM R06L/6000FT/N R06R/5000FT/U SN BLSN VV005 RESN RMK SN8=
CYUL;2005-01-06 22:13;SPECI CYUL 062213Z 04016KT 1/2SM R06L/6000FT/D R06R/6000FT/N SN BLSN VV004 RESN RMK SN8=
CYUL;2005-01-06 22:20;SPECI CYUL 062220Z 04019KT 5/8SM R06L/6000FT/D R06R/5500FT/D -SN BLSN VV004 RESN RMK SN8=
CYUL;2005-01-06 22:32;SPECI CYUL 062232Z 03013G20KT 1/2SM R06L/5000FT/N R06R/4500FT/N SN BLSN VV004 RESN RMK SN8=
CYUL;2005-01-06 22:37;SPECI CYUL 062237Z 03014KT 3/8SM R06L/5000FT/U R06R/4500FT/N SN BLSN VV004 RESN RMK SN8=
CYUL;2005-01-06 22:47;SPECI CYUL 062247Z 03015KT 1/4SM R06L/5000FT/N R06R/4500FT/N +SN +BLSN VV003 RMK SN8=
CYUL;2005-01-06 22:52;SPECI CYUL 062252Z 03015KT 1/8SM R06L/4500FT/D R06R/3500V5000FT/D +SN +BLSN VV003 RMK SN8=
CYUL;2005-01-06 23:00;METAR CYUL 062300Z 03016KT 1/8SM R06L/4000FT/N R06R/3500FT/N +SN +BLSN VV003 M12/M13 A2973 RMK SN8 /S12/ SLP072=
CYUL;2005-01-06 23:13;SPECI CYUL 062313Z 03017KT 1/4SM R06L/4000VP6000FT/U R06R/3500V5000FT/U +SN +BLSN VV005 RMK SN8=
CYUL;2005-01-06 23:26;SPECI CYUL 062326Z 03018KT 3/8SM R06L/4500VP6000FT/D R06R/4000V6000FT/N TSSN BLSN VV005 RESN RMK SN8 CB EMBDD=
CYUL;2005-01-06 23:32;SPECI CYUL 062332Z 03014KT 5/8SM R06L/6000FT/U R06R/4000V6000FT/U -SN BLSN VV007 RESNTS RMK SN8=
CYUL;2005-01-06 23:39;SPECI CYUL 062339Z 03013G19KT 5/8SM R06L/P6000FT/D R06R/6000FT/D -SN BLSN VV006 RESNTS RMK SN8=
CYUL;2005-01-06 23:50;SPECI CYUL 062350Z 03015KT 3/4SM R06L/P6000FT/U R06R/P6000FT/U -SN BLSN VV006 RESNTS RMK SN8=
CYUL;2005-01-07 00:00;METAR CYUL 070000Z 03014KT 3/4SM R06L/P6000FT/U R06R/P6000FT/N -SN BLSN VV009 M12/M13 A2971 RESNTS RMK SN8 /S15/ SLP065=
CYUL;2005-01-07 00:10;SPECI CYUL 070010Z 04015KT 1SM R06L/P6000FT/U R06R/P6000FT/U -SN BLSN OVC014 RMK SN7SF1=
CYUL;2005-01-07 00:29;SPECI CYUL 070029Z 04014KT 5/8SM R06L/P6000FT/D R06R/P6000FT/U -SN=
CYUL;2005-01-07 00:36;SPECI CYUL 070036Z 03012KT 3/4SM R06L/P6000FT/U R06R/P6000FT/U -SN=
CYUL;2005-01-07 00:50;SPECI CYUL 070050Z 03011KT 3/4SM R06L/P6000FT/D R06R/P6000FT/U -SN=
CYUL;2005-01-07 01:00;METAR CYUL 070100Z 03011KT 1 1/4SM -SN DRSN -FZDZ BKN011 OVC023 M11/M12 A2969 RMK SN4ST3SC1 /S02/ SLP058=
CYUL;2005-01-07 01:10;SPECI CYUL 070110Z 02010KT 1 1/2SM -SN DRSN -FZDZ BKN010 OVC023 RMK SN3ST4SC1=
CYUL;2005-01-07 01:26;SPECI CYUL 070126Z 02011KT 2 1/4SM -SN DRSN FEW006 BKN009 OVC015 REFZDZ RMK SF2ST5SC1=
CYUL;2005-01-07 01:38;SPECI CYUL 070138Z 02009KT 1 1/2SM -SN DRSN VV010 REFZDZ RMK SN8=
CYUL;2005-01-07 02:00;METAR CYUL 070200Z 02008KT 2SM -SN BKN009 OVC015 M11/M12 A2969 REFZDZ RMK SN5SF2SC1 SLP057=
CYUL;2005-01-07 02:07;SPECI CYUL 070207Z 01007KT 2SM -SN -FZDZ BKN009 OVC015 RMK SN5SF2SC1=
CYUL;2005-01-07 02:16;SPECI CYUL 070216Z 01005KT 2SM -SN -FZDZ FEW009 OVC015 RMK SF2ST6=
CYUL;2005-01-07 02:41;SPECI CYUL 070241Z 02007KT 3SM -SN -FZDZ FEW008 OVC013 RMK SF2ST6 -SN INTMT=
CYUL;2005-01-07 03:00;METAR CYUL 070300Z 32003KT 4SM -SN FEW008 OVC013 M10/M11 A2969 REFZDZ RMK SF2SC6 S- INTMT SLP056=
CYUL;2005-01-07 04:21;SPECI CYUL 070421Z 31003KT 5SM -SN FEW008 BKN013 OVC044 RMK SF2SC5SC1=
CYUL;2005-01-07 05:00;METAR CYUL 070500Z 25002KT 5SM -SN SCT012 OVC030 M09/M11 A2971 RMK SF3SC5 SLP065=
CYUL;2005-01-07 06:00;METAR CYUL 070600Z 22005KT 2 1/2SM -SN BKN015 OVC030 M08/M09 A2971 RMK SN2SF3SC3 SLP063=
CYUL;2005-01-07 06:25;SPECI CYUL 070625Z 21006KT 4SM -SN BKN018 OVC028 RMK SC6SC2=
CYUL;2005-01-07 07:00;METAR CYUL 070700Z 25006KT 2 1/2SM -SN BKN018 OVC030 M07/M09 A2974 RMK SN2SC5SC2 SLP074=
CYUL;2005-01-07 07:12;SPECI CYUL 070712Z 26007KT 1 1/2SM -SN VV012 RMK SN8=
CYUL;2005-01-07 07:18;SPECI CYUL 070718Z 26007KT 2SM -SN OVC028 RMK SN3SC5 VSBY VRBL 11/2-21/2=
CYUL;2005-01-07 07:27;SPECI CYUL 070727Z 27006KT 4SM -SN FEW012 OVC030 RMK SF2SC6=
CYUL;2005-01-07 08:00;METAR CYUL 070800Z 27004KT 6SM -SN SCT018 BKN035 OVC080 M07/M08 A2977 RMK SC3SC2AC2 SLP083=
CYUL;2005-01-07 09:00;METAR CYUL 070900Z 27018G26KT 8SM -SN DRSN SCT016 BKN065 OVC090 M06/M09 A2980 RMK SF3SC4AC1 SLP095=
CYUL;2005-01-07 10:00;METAR CYUL 071000Z 28019G26KT 8SM -SN DRSN FEW015 SCT060 OVC085 M08/M11 A2984 RMK CF1SC3AC5 SLP109=
CYUL;2005-01-07 11:00;METAR CYUL 071100Z 27018G24KT 10SM -SN DRSN FEW015 FEW060 OVC085 M09/M12 A2991 RMK CF1SC2AC6 PRESRR SLP132=
CYUL;2005-01-07 12:00;METAR CYUL 071200Z 26015G20KT 15SM -SN DRSN BKN050 BKN100 M09/M12 A2998 RMK SC6AC2 PRESRR SLP157=
CYUL;2005-01-07 12:22;SPECI CYUL 071222Z 27014G22KT 15SM DRSN SCT050 SCT100 RMK SC3AC1=
CYUL;2005-01-07 15:00;METAR CYUL 071500Z 27015G20KT 15SM FEW060 M09/M13 A3018 RMK SC1 SLP222=
CYUL;2005-01-07 16:00;METAR CYUL 071600Z 26022G29KT 30SM DRSN FEW075 M08/M13 A3022 RMK AC1 SLP235=
CYUL;2005-01-07 17:00;METAR CYUL 071700Z 26012KT 30SM DRSN FEW080 M07/M13 A3022 RMK AC1 SLP236=
CYUL;2005-01-07 18:00;METAR CYUL 071800Z 25011KT 30SM FEW080 FEW240 M06/M13 A3022 RMK AC1CI1 SLP236=
CYUL;2005-01-07 19:00;METAR CYUL 071900Z 23012KT 30SM FEW080 FEW240 M06/M12 A3024 RMK AC1CI1 SLP243=
CYUL;2005-01-07 20:00;METAR CYUL 072000Z 24012KT 30SM FEW100 FEW240 M05/M12 A3026 RMK AC1CI1 SLP251=
CYUL;2005-01-07 21:00;METAR CYUL 072100Z 23011KT 30SM SCT040 SCT240 M06/M12 A3028 RMK SC2CI1 SLP257=
CYUL;2005-01-07 22:00;METAR CYUL 072200Z 25008KT 15SM BKN040 BKN240 M06/M11 A3030 RMK SC5CI1 SLP264=
CYUL;2005-01-07 23:00;METAR CYUL 072300Z 23005KT 15SM BKN045 M05/M11 A3030 RMK SC6 SLP265=
CYUL;2005-01-08 00:00;METAR CYUL 080000Z 23002KT 15SM FEW030 OVC040 M05/M11 A3033 RMK SC1SC8 SLP273=
CYUL;2005-01-08 01:00;METAR CYUL 080100Z 19003KT 15SM OVC035 M05/M10 A3032 RMK SC8 SLP269=
CYUL;2005-01-08 02:00;METAR CYUL 080200Z 19005KT 15SM OVC035 M05/M09 A3032 RMK SC8 SLP270=
CYUL;2005-01-08 03:00;METAR CYUL 080300Z 20004KT 15SM OVC035 M04/M09 A3030 RMK SC8 SLP264=
CYUL;2005-01-08 04:00;METAR CYUL 080400Z 21005KT 15SM OVC036 M04/M09 A3030 RMK SC8 SLP265=
CYUL;2005-01-08 05:00;METAR CYUL 080500Z 16005KT 15SM OVC036 M04/M08 A3028 RMK SC8 SLP258=
CYUL;2005-01-08 06:00;METAR CYUL 080600Z 18004KT 15SM OVC033 M04/M07 A3028 RMK SC8 SLP258=
CYUL;2005-01-08 07:00;METAR CYUL 080700Z 17006KT 15SM FEW027 OVC032 M04/M06 A3027 RMK SC2SC6 SLP255=
CYUL;2005-01-08 08:00;METAR CYUL 080800Z 18004KT 15SM BKN030 BKN150 M03/M06 A3026 RMK SC5AC2 SLP251=
CYUL;2005-01-08 09:00;METAR CYUL 080900Z 19005KT 15SM FEW030 BKN040 OVC150 M04/M07 A3026 RMK SC2SC4AC2 SLP249=
CYUL;2005-01-08 10:00;METAR CYUL 081000Z 21002KT 15SM BKN033 OVC150 M03/M06 A3024 RMK SC7AC1 SLP244=
CYUL;2005-01-08 11:00;METAR CYUL 081100Z 18005KT 15SM OVC037 M03/M06 A3024 RMK SC8 SLP242=
CYUL;2005-01-08 12:00;METAR CYUL 081200Z 17004KT 15SM OVC036 M03/M06 A3024 RMK SC8 SLP242=
CYUL;2005-01-08 13:00;METAR CYUL 081300Z 14004KT 15SM OVC035 M03/M06 A3022 RMK SC8 SLP237=
CYUL;2005-01-08 14:00;METAR CYUL 081400Z 14002KT 15SM OVC037 M03/M07 A3022 RMK SC8 SLP237=
CYUL;2005-01-08 15:00;METAR CYUL 081500Z 00000KT 15SM OVC035 M03/M07 A3022 RMK SC8 SLP235=
CYUL;2005-01-08 16:00;METAR CYUL 081600Z 04003KT 15SM OVC035 M02/M06 A3022 RMK SC8 SLP234=
CYUL;2005-01-08 17:00;METAR CYUL 081700Z 02005KT 12SM OVC035 M02/M05 A3019 RMK SC8 SLP226=
CYUL;2005-01-08 18:00;METAR CYUL 081800Z 02004KT 12SM OVC035 M02/M05 A3018 RMK SC8 SLP222=
CYUL;2005-01-08 19:00;METAR CYUL 081900Z 02005KT 12SM OVC035 M02/M05 A3017 RMK SC8 SLP220=
CYUL;2005-01-09 01:00;METAR CYUL 090100Z 28002KT 12SM OVC038 M05/M06 A3031 RMK SC8 SLP266=
CYUL;2005-01-09 02:00;METAR CYUL 090200Z 30005KT 12SM OVC036 M04/M06 A3033 RMK SC8 SLP273=
CYUL;2005-01-09 03:00;METAR CYUL 090300Z 29004KT 15SM FEW040 SCT240 M04/M07 A3036 RMK SC2CI0 SLP284=
CYUL;2005-01-09 04:00;METAR CYUL 090400Z 32004KT 15SM FEW040 FEW240 M05/M07 A3038 RMK SC1CI1 SLP289=
CYUL;2005-01-09 07:00;METAR CYUL 090700Z 04002KT 15SM BKN040 M05/M07 A3039 RMK SC7 SLP293=
CYUL;2005-01-09 09:00;METAR CYUL 090900Z 04011KT 15SM BKN038 M05/M08 A3042 RMK SC7 SLP303=
CYUL;2005-01-09 10:00;METAR CYUL 091000Z 03007KT 15SM BKN041 M06/M09 A3043 RMK SC7 SLP307=
CYUL;2005-01-09 12:00;METAR CYUL 091200Z 06003KT 15SM OVC039 M07/M09 A3048 RMK SC8 SLP325=
CYUL;2005-01-09 13:00;METAR CYUL 091300Z 06006KT 15SM BKN039 M07/M10 A3048 RMK SC7 SLP324=
CYUL;2005-01-09 14:00;METAR CYUL 091400Z 08008KT 15SM BKN040 M08/M11 A3048 RMK SC7 SLP325=
CYUL;2005-01-09 15:00;METAR CYUL 091500Z 12005KT 15SM BKN040 BKN080 M08/M12 A3049 RMK SC5AC1 SLP327=
CYUL;2005-01-09 16:00;METAR CYUL 091600Z 09004KT 15SM FEW040 OVC090 M08/M13 A3046 RMK SC2AC6 SLP316=
CYUL;2005-01-09 17:00;METAR CYUL 091700Z 03007KT 15SM BKN040 BKN100 M08/M14 A3044 RMK SC7AC1 SLP311=
CYUL;2005-01-09 18:00;METAR CYUL 091800Z 03006KT 15SM OVC040 M08/M14 A3041 RMK SC8 SLP302=
CYUL;2005-01-09 21:00;METAR CYUL 092100Z 05006KT 15SM OVC035 M07/M12 A3035 RMK SC8 SLP279=
CYUL;2005-01-09 22:00;METAR CYUL 092200Z 04007KT 15SM OVC035 M07/M12 A3033 RMK SC8 SLP275=
CYUL;2005-01-09 23:00;METAR CYUL 092300Z 03006KT 15SM OVC035 M07/M11 A3033 RMK SC8 SLP275=
CYUL;2005-01-09 23:42;SPECI CYUL 092342Z 05008KT 15SM -SN OVC035 RMK SC8=
CYUL;2005-01-10 00:00;METAR CYUL 100000Z 05006KT 15SM -SN OVC035 M07/M12 A3031 RMK SC8 SLP266=
CYUL;2005-01-10 00:45;SPECI CYUL 100045Z 05007KT 15SM -SN BKN010 OVC030 RMK SC7SC1=
CYUL;2005-01-10 01:00;METAR CYUL 100100Z 05006KT 15SM -SN OVC009 M07/M12 A3027 RMK ST8 SLP255=
CYUL;2005-01-10 01:49;SPECI CYUL 100149Z 05006KT 15SM -SN FEW010 OVC030 RMK SC2SC6=
CYUL;2005-01-10 03:00;METAR CYUL 100300Z 09004KT 15SM -SN FEW010 OVC033 M07/M10 A3019 RMK SC2SC6 SLP227=
CYUL;2005-01-10 04:00;METAR CYUL 100400Z 03006KT 15SM -SN OVC036 M07/M10 A3016 RMK SC8 SLP217=
CYUL;2005-01-10 06:00;METAR CYUL 100600Z 02005KT 15SM OVC045 M07/M09 A3009 RMK SC8 SLP193=
CYUL;2005-01-10 10:00;METAR CYUL 101000Z 18009KT 15SM BKN040 OVC090 M02/M05 A2987 RMK SC6AC2 SLP119=
CYUL;2005-01-10 10:36;SPECI CYUL 101036Z 16010KT 2SM -SHSN BKN006 OVC040 RMK SF6SC2=
CYUL;2005-01-10 10:42;SPECI CYUL 101042Z 16011KT 3/4SM R24L/3000V5500FT/D R24R/3000V4500FT/D -SHSN VV004 RMK SN8=
CYUL;2005-01-10 10:50;SPECI CYUL 101050Z 16011KT 1/2SM R24L/1400V2000FT/N R24R/3500FT/D SHSN VV004 RMK SN8=
CYUL;2005-01-10 11:08;SPECI CYUL 101108Z 16012KT 3/4SM R24L/3000V5000FT/N R24R/4500V6000FT/U -SHSN VV007 RMK SN8 RESN=
CYUL;2005-01-10 11:29;SPECI CYUL 101129Z 16011KT 1 1/4SM -SHSN BKN007 OVC060 RMK SN2SF5SC2 RESN=
CYUL;2005-01-10 12:00;METAR CYUL 101200Z 17011KT 1 1/4SM -SHSN SCT007 BKN016 OVC030 M02/M03 A2979 RMK SF3SC3SC2 RESN SLP092=
CYUL;2005-01-10 13:00;METAR CYUL 101300Z 17011KT 1 1/2SM -SN -FZRA FEW016 OVC025 M01/M02 A2979 RMK SC2SC6 SLP090=
CYUL;2005-01-10 14:00;METAR CYUL 101400Z 20007KT 2SM -SN FEW011 OVC020 M01/M01 A2980 RMK SF2SC6 REFZRA SLP093=
CYUL;2005-01-10 14:38;SPECI CYUL 101438Z 22009KT 4SM BR BKN025 OVC060 RMK SC6SC2=
CYUL;2005-01-10 15:00;METAR CYUL 101500Z 23010KT 8SM FEW015 BKN055 00/M01 A2980 RMK SF1SC7 SLP093=
CYUL;2005-01-10 16:00;METAR CYUL 101600Z 22011KT 8SM BKN050 01/M00 A2979 RMK SC7 SLP089=
CYUL;2005-01-10 16:36;SPECI CYUL 101636Z 25018KT 12SM -SHRA FEW015 OVC040 RMK CF1SC7=
CYUL;2005-01-10 17:00;METAR CYUL 101700Z 26016KT 15SM -SHSN OVC030 03/M01 A2978 RMK SC8 SLP088=
CYUL;2005-01-10 17:38;SPECI CYUL 101738Z 29016G21KT 15SM OVC025 RMK SC8=
CYUL;2005-01-10 18:00;METAR CYUL 101800Z 27022G35KT 15SM OVC030 01/M03 A2979 RMK SC8 SLP092=
CYUL;2005-01-10 19:00;METAR CYUL 101900Z 26026G31KT 15SM SCT040 BKN150 01/M05 A2983 RMK SC4AC1 SLP104=
CYUL;2005-01-10 20:00;METAR CYUL 102000Z 26021G29KT 15SM BKN045 00/M06 A2985 RMK SC7 SLP111=
CYUL;2005-01-10 21:00;METAR CYUL 102100Z 26021G27KT 15SM BKN055 00/M06 A2988 RMK SC7 SLP120=
CYUL;2005-01-10 21:17;SPECI CYUL 102117Z 26019G26KT 15SM -SHSN BKN055 RMK SC7=
CYUL;2005-01-10 22:00;METAR CYUL 102200Z 26020G25KT 15SM BKN065 00/M06 A2990 RMK SC6 SLP126=
CYUL;2005-01-10 22:49;SPECI CYUL 102249Z 27018G25KT 15SM -SHSN OVC065 RMK SC8=
CYUL;2005-01-10 23:00;METAR CYUL 102300Z 27022KT 6SM -SHSN DRSN OVC022 00/M06 A2993 RMK SC8 SLP138=
CYUL;2005-01-10 23:27;SPECI CYUL 102327Z 27018G27KT 15SM FEW025 BKN075 RMK SC2AC2=
CYUL;2005-01-10 23:43;SPECI CYUL 102343Z 27020KT 10SM -SHSN OVC045 RMK SC8=
CYUL;2005-01-10 23:51;SPECI CYUL 102351Z 27021G28KT 1 1/4SM -SHSN OVC015 RMK SC8=
CYUL;2005-01-11 00:09;SPECI CYUL 110009Z 27019G26KT 5SM -SHSN FEW008 BKN045 RMK SF1SC6=
CYUL;2005-01-11 00:37;SPECI CYUL 110037Z 27015G24KT 12SM BKN032 BKN070 RMK SC6AC1=
CYUL;2005-01-11 00:49;SPECI CYUL 110049Z 27015G20KT 6SM -SHSN OVC028 RMK SC8=
CYUL;2005-01-11 01:00;METAR CYUL 110100Z 28017G24KT 8SM -SHSN DRSN BKN035 M03/M05 A3000 RMK SC6 SLP163=
CYUL;2005-01-11 01:30;SPECI CYUL 110130Z 28015G21KT 15SM SCT040 RMK SC3=
CYUL;2005-01-11 04:00;METAR CYUL 110400Z 30013G21KT 15SM FEW040 FEW240 M05/M13 A3011 RMK SC1CI1 SLP200=
CYUL;2005-01-11 05:00;METAR CYUL 110500Z 31012G17KT 15SM SKC M07/M13 A3015 RMK SLP213=
CYUL;2005-01-11 06:00;METAR CYUL 110600Z 32012KT 15SM SKC M08/M15 A3020 RMK SLP229=
CYUL;2005-01-11 09:00;METAR CYUL 110900Z 31010KT 15SM SKC M12/M18 A3030 RMK SLP262=
CYUL;2005-01-11 10:00;METAR CYUL 111000Z 30006KT 15SM SKC M13/M19 A3031 RMK SLP268=
CYUL;2005-01-11 12:00;METAR CYUL 111200Z 23005KT 15SM FEW150 M14/M19 A3035 RMK AC1 SLP282=
CYUL;2005-01-11 13:00;METAR CYUL 111300Z 23006KT 30SM FEW150 M14/M19 A3038 RMK AC1 SLP290=
CYUL;2005-01-11 14:00;METAR CYUL 111400Z 27006KT 30SM FEW150 M14/M18 A3041 RMK AC1 SLP300=
CYUL;2005-01-11 15:00;METAR CYUL 111500Z 32005KT 30SM FEW180 M13/M18 A3041 RMK AC1 SLP300=
CYUL;2005-01-11 16:00;METAR CYUL 111600Z 36003KT 30SM FEW240 M12/M18 A3039 RMK CI1 SLP294=
CYUL;2005-01-11 18:00;METAR CYUL 111800Z 00000KT 30SM FEW120 FEW240 M11/M18 A3035 RMK AC1CI1 SLP280=
CYUL;2005-01-11 21:00;METAR CYUL 112100Z 16006KT 30SM FEW120 FEW240 M10/M16 A3038 RMK AC1CI1 SLP290=
CYUL;2005-01-11 22:00;METAR CYUL 112200Z 09005KT 15SM FEW120 FEW240 M10/M17 A3039 RMK AC1CI1 SLP295=
CYUL;2005-01-12 00:00;METAR CYUL 120000Z 05004KT 15SM BKN120 M10/M16 A3039 RMK AC6 SLP293=
CYUL;2005-01-12 01:00;METAR CYUL 120100Z 03006KT 15SM BKN120 M10/M15 A3040 RMK AC7 SLP297=
CYUL;2005-01-12 04:00;METAR CYUL 120400Z 04009KT 15SM BKN120 M10/M17 A3040 RMK AC7 SLP296=
CYUL;2005-01-12 07:00;METAR CYUL 120700Z 03013KT 15SM FEW120 OVC240 M13/M17 A3034 RMK AC2CS6 SLP276=
CYUL;2005-01-12 11:00;METAR CYUL 121100Z 04011KT 15SM BKN050 OVC070 M13/M17 A3033 RMK SC6AC2 SLP274=
CYUL;2005-01-12 12:00;METAR CYUL 121200Z 03013KT 15SM BKN025 OVC040 M12/M16 A3030 RMK SC5SC3 SLP265=
CYUL;2005-01-12 13:00;METAR CYUL 121300Z 04013KT 15SM FEW025 SCT055 OVC070 M11/M16 A3029 RMK SC2SC2AC4 SLP260=
CYUL;2005-01-12 14:50;SPECI CYUL 121450Z 03014KT 15SM -SN SCT025 OVC030 RMK SC3SC5=
CYUL;2005-01-12 15:00;METAR CYUL 121500Z 03014KT 15SM -SN FEW025 OVC030 M11/M15 A3029 RMK SC1SC7 SLP260=
CYUL;2005-01-12 15:41;SPECI CYUL 121541Z 03014KT 15SM OVC038 RMK SC8=
CYUL;2005-01-12 16:00;METAR CYUL 121600Z 03016KT 15SM OVC035 M11/M15 A3027 RMK SC8 SLP253=
CYUL;2005-01-12 17:00;METAR CYUL 121700Z 03017KT 12SM FEW020 OVC035 M10/M14 A3024 RMK SC1SC8 SLP242=
CYUL;2005-01-12 18:00;METAR CYUL 121800Z 04015KT 10SM -SN OVC035 M09/M12 A3020 RMK SC8 SLP231=
CYUL;2005-01-12 19:00;METAR CYUL 121900Z 03015KT 10SM -SN OVC035 M08/M11 A3019 RMK SC8 SLP225=
CYUL;2005-01-12 20:00;METAR CYUL 122000Z 04016KT 3SM -SN OVC025 M07/M10 A3017 RMK SC8 SLP219=
CYUL;2005-01-12 21:00;METAR CYUL 122100Z 04014KT 5SM -SN OVC018 M07/M09 A3015 RMK SC8 SLP213=
CYUL;2005-01-12 21:19;SPECI CYUL 122119Z 04016KT 2 1/2SM -PL OVC016 RMK SC8=
CYUL;2005-01-12 21:24;SPECI CYUL 122124Z 04015KT 2 1/2SM -FZRA OVC016 RMK SC8=
CYUL;2005-01-12 21:51;SPECI CYUL 122151Z 04013KT 2 1/2SM -PL -FZRA OVC013 RMK SC8=
CYUL;2005-01-12 22:00;METAR CYUL 122200Z 04013KT 3SM -PL -FZRA OVC013 M06/M07 A3013 RMK SC8 SLP207=
CYUL;2005-01-12 22:10;SPECI CYUL 122210Z 04013KT 3SM -FZRA BKN009 OVC013 RMK ST5SC3=
CYUL;2005-01-12 23:00;METAR CYUL 122300Z 04013KT 3SM -FZRA FEW007 OVC012 M04/M05 A3012 RMK SF2SC6 SLP202=
CYUL;2005-01-12 23:51;SPECI CYUL 122351Z 04012KT 3SM -FZDZ OVC008 RMK ST8 REFZRA=
CYUL;2005-01-13 00:00;METAR CYUL 130000Z 04011KT 3SM -FZDZ BR OVC008 M03/M04 A3011 RMK ST8 REFZRA SLP200=
CYUL;2005-01-13 00:36;SPECI CYUL 130036Z 04009KT 1 3/4SM -FZRA BR OVC008 RMK ST8 REFZDZ=
CYUL;2005-01-13 01:00;METAR CYUL 130100Z 05010KT 1 3/4SM -FZDZ BR OVC008 M03/M03 A3009 RMK ST8 REFZRA SLP194=
CYUL;2005-01-13 03:30;SPECI CYUL 130330Z 09005KT 2 1/4SM -DZ BR SCT005 OVC009 REFZDZ RMK SF3ST5=
CYUL;2005-01-13 03:46;SPECI CYUL 130346Z 09005KT 5SM -DZ BR SCT005 OVC012 REFZDZ RMK SF4ST4 -DZ INTMT VIS W 3=
CYUL;2005-01-13 04:00;METAR CYUL 130400Z 11006KT 6SM BR SCT008 BKN010 OVC022 02/01 A3003 REFZDZ RMK SF3SC3SC2 SLP170=
CYUL;2005-01-13 04:09;SPECI CYUL 130409Z 11008KT 8SM VCFG FEW008 SCT010 OVC021 RMK SF2SC2SC4=
CYUL;2005-01-13 04:41;SPECI CYUL 130441Z 12006KT 8SM -RA VCFG FEW010 OVC021 RMK SF2SC6=
CYUL;2005-01-13 05:18;SPECI CYUL 130518Z 03003KT 2 1/4SM -RA BR BKN011 OVC020 RMK SF5SC3=
CYUL;2005-01-13 06:00;METAR CYUL 130600Z 11006KT 6SM -RA BR FEW007 OVC018 02/02 A2997 RMK SF2SC6 VIS W 4 F SLP151=
CYUL;2005-01-13 06:38;SPECI CYUL 130638Z 09003KT 6SM BR FEW007 OVC021 RMK SF1SC7=
CYUL;2005-01-13 07:00;METAR CYUL 130700Z 11004KT 8SM VCFG OVC021 02/02 A2996 RMK SC8 VIS W 4 F SLP147=
CYUL;2005-01-13 10:00;METAR CYUL 131000Z 14008KT 8SM -RA VCFG FEW035 BKN048 BKN062 OVC090 03/02 A2992 RMK SC2SC3SC2AC2 CIG RAG SLP135=
CYUL;2005-01-13 10:11;SPECI CYUL 131011Z 13006KT 6SM BR FEW035 BKN048 BKN062 OVC090 RMK SC2SC3SC2AC2 INTMT -RA CIG RAG=
CYUL;2005-01-13 11:00;METAR CYUL 131100Z 13007KT 6SM BR FEW060 FEW090 BKN240 03/02 A2990 RMK SC1AC2CI3 SLP128=
CYUL;2005-01-13 12:00;METAR CYUL 131200Z 15009KT 8SM VCFG FEW058 FEW072 BKN240 03/02 A2987 RMK CF1AC1CI2 SLP115=
CYUL;2005-01-13 13:00;METAR CYUL 131300Z 16011KT 10SM VCFG FEW090 SCT180 BKN240 03/02 A2987 RMK AC2AC1CI1 SLP118=
CYUL;2005-01-13 15:00;METAR CYUL 131500Z 15012KT 12SM FEW080 BKN180 BKN240 04/03 A2986 RMK AC2AC3CI1 SLP112=
CYUL;2005-01-13 16:00;METAR CYUL 131600Z 16008KT 12SM FEW090 BKN190 BKN240 05/03 A2984 RMK AC2AC5CI1 SLP108=
CYUL;2005-01-13 18:00;METAR CYUL 131800Z 15008KT 15SM FEW180 BKN210 OVC240 05/03 A2978 RMK AC2CS3CI1 SLP087=
CYUL;2005-01-13 19:00;METAR CYUL 131900Z 15009KT 15SM FEW090 FEW180 BKN240 06/04 A2976 RMK AC2AC1CI2 SLP078=
CYUL;2005-01-13 20:00;METAR CYUL 132000Z 14014KT 15SM FEW090 FEW180 BKN240 06/04 A2972 RMK AC2AC1CI2 SLP067=
CYUL;2005-01-13 21:00;METAR CYUL 132100Z 15016KT 15SM SCT085 OVC240 06/04 A2970 RMK AC3CI1 SLP060=
CYUL;2005-01-13 22:00;METAR CYUL 132200Z 15015KT 12SM FEW090 SCT240 06/04 A2969 RMK AC1CI2 SLP055=
CYUL;2005-01-14 00:00;METAR CYUL 140000Z 15013G18KT 12SM BKN075 07/05 A2964 RMK AC7 SLP040=
CYUL;2005-01-14 01:00;METAR CYUL 140100Z 16013KT 12SM FEW075 SCT240 07/06 A2960 RMK AC2CI1 SLP027=
CYUL;2005-01-14 02:00;METAR CYUL 140200Z 17014KT 12SM FEW080 SCT160 BKN240 08/06 A2957 RMK AC1AC2CI1 SLP014=
CYUL;2005-01-14 04:00;METAR CYUL 140400Z 15015KT 12SM BKN056 OVC082 08/06 A2955 RMK SC6AC2 SLP007=
CYUL;2005-01-14 04:02;SPECI CYUL 140402Z 15015KT 12SM -RA BKN056 OVC082 RMK SC6AC2=
CYUL;2005-01-14 05:00;METAR CYUL 140500Z 16013KT 6SM -RA BR OVC044 08/07 A2952 RMK SC8 -RA INTMT SLP998=
CYUL;2005-01-14 06:00;METAR CYUL 140600Z 17006KT 5SM -RA BR FEW017 OVC042 06/05 A2953 RMK SF2SC6 SLP001=
CYUL;2005-01-14 06:21;SPECI CYUL 140621Z 16006KT 2 1/2SM -RA BR FEW016 OVC048 RMK SF2SC6=
CYUL;2005-01-14 06:38;SPECI CYUL 140638Z 18007KT 1 1/4SM -RA BR SCT009 OVC015 RMK FG3SF1SC4 VIS N 2 F=
CYUL;2005-01-14 06:51;SPECI CYUL 140651Z 23010KT 1 1/4SM -RA BR BKN007 OVC012 RMK FG5SF2SF1=
CYUL;2005-01-14 06:55;SPECI CYUL 140655Z 23010KT 2 1/4SM -RA BR BKN006 OVC014 RMK FG1SF5SF2=
CYUL;2005-01-14 07:05;SPECI CYUL 140705Z 27011G18KT 5SM -RA BR FEW006 BKN018 BKN023 OVC058 RMK SF2SF3SC2SC1=
CYUL;2005-01-14 08:00;METAR CYUL 140800Z 27012KT 4SM -RA BR FEW005 OVC035 06/05 A2958 RMK SF2SC6 SLP018=
CYUL;2005-01-14 08:34;SPECI CYUL 140834Z 28017G24KT 5SM -RA BR FEW005 BKN013 OVC042 RMK SF2SF6SC1=
CYUL;2005-01-14 08:49;SPECI CYUL 140849Z 28015G21KT 6SM -RA BR FEW012 OVC050 RMK SF2SC6=
CYUL;2005-01-14 09:48;SPECI CYUL 140948Z 28015KT 4SM -RA BR BKN014 OVC030 RMK SF6SC2=
CYUL;2005-01-14 10:17;SPECI CYUL 141017Z 27010KT 1 1/2SM -RASN BR SCT004 BKN009 OVC016 RMK SN2SF2SF2SC2=
CYUL;2005-01-14 10:28;SPECI CYUL 141028Z 27011KT 1 1/4SM -SN BR VV005 RMK SN8=
CYUL;2005-01-14 10:51;SPECI CYUL 141051Z 26010G15KT 2SM -SN BR BKN006 OVC018 RMK SN6SF1SF1=
CYUL;2005-01-14 11:28;SPECI CYUL 141128Z 25010KT 3SM -SN BR BKN006 BKN014 OVC028 RMK SF6SF2SC1=
CYUL;2005-01-14 11:46;SPECI CYUL 141146Z 26011KT 5SM -SN BR SCT006 BKN014 OVC030 RMK SF4SF3SC1=
CYUL;2005-01-14 11:54;SPECI CYUL 141154Z 24011KT 6SM -RASN BR FEW006 FEW014 BKN030 OVC045 RMK SF2SF1SC4SC2=
CYUL;2005-01-14 12:00;METAR CYUL 141200Z 23011KT 6SM -RASN BR FEW006 BKN030 BKN045 OVC095 01/00 A2988 RMK SF1SC4SC1AC2 /S01/ SLP120=
CYUL;2005-01-14 12:18;SPECI CYUL 141218Z 24011KT 12SM VCFG SCT007 BKN040 OVC065 RMK SF4SC3SC1=
CYUL;2005-01-14 12:24;SPECI CYUL 141224Z 25010KT 15SM BKN007 OVC040 RMK SF7SC1=
CYUL;2005-01-14 13:00;METAR CYUL 141300Z 24011KT 15SM FEW006 SCT028 BKN040 OVC090 01/00 A2993 RMK SF2SC2SC2AC2 SLP137=
CYUL;2005-01-14 14:00;METAR CYUL 141400Z 24012KT 15SM SCT008 BKN018 BKN034 OVC100 01/00 A2998 RMK SF3SC2SC2AC1 SLP154=
CYUL;2005-01-14 15:00;METAR CYUL 141500Z 25013KT 15SM FEW010 BKN018 BKN040 OVC100 02/M00 A3000 RMK SF1SC5SC1AS1 SLP162=
CYUL;2005-01-14 16:00;METAR CYUL 141600Z 27016G26KT 15SM FEW015 SCT030 BKN100 OVC210 00/M06 A3005 RMK SC2SC2AC3CI1 SLP176=
CYUL;2005-01-14 17:00;METAR CYUL 141700Z 25021G26KT 15SM FEW020 FEW040 BKN100 BKN220 M01/M06 A3006 RMK SC1SC2AC2CI2 SLP180=
CYUL;2005-01-14 18:00;METAR CYUL 141800Z 25022G29KT 15SM FEW030 SCT080 BKN120 OVC240 M01/M07 A3009 RMK SC2AC1AS3CI1 SLP192=
CYUL;2005-01-14 20:00;METAR CYUL 142000Z 27021G28KT 15SM FEW030 FEW150 BKN240 M03/M11 A3016 RMK SC2AC1CI2 CF ASOCTD SLP217=
CYUL;2005-01-14 21:00;METAR CYUL 142100Z 26020G27KT 15SM FEW030 FEW150 BKN240 M04/M14 A3023 RMK SC1AC1CI2 PRESRR SLP240=
CYUL;2005-01-14 22:00;METAR CYUL 142200Z 27015G25KT 15SM FEW030 FEW120 FEW240 M05/M14 A3028 RMK SC1AC1CI1 SLP257=
CYUL;2005-01-15 00:00;METAR CYUL 150000Z 29011KT 15SM FEW030 FEW240 M07/M13 A3036 RMK SC1CI1 SLP285=
CYUL;2005-01-15 04:00;METAR CYUL 150400Z 30006KT 15SM FEW030 FEW240 M08/M14 A3049 RMK SC1CI0 SLP327=
CYUL;2005-01-15 05:00;METAR CYUL 150500Z 30015G20KT 15SM FEW030 FEW240 M09/M15 A3051 RMK SC1CI0 SLP334=
CYUL;2005-01-15 07:00;METAR CYUL 150700Z 30008KT 15SM BKN066 M10/M17 A3059 RMK AC7 SLP361=
CYUL;2005-01-15 11:00;METAR CYUL 151100Z 24002KT 15SM BKN067 M10/M17 A3063 RMK AC6 SLP374=
CYUL;2005-01-15 12:00;METAR CYUL 151200Z 26002KT 15SM BKN040 BKN056 BKN068 BKN220 M09/M16 A3063 RMK SC5SC1AC1CI1 SLP374=
CYUL;2005-01-15 13:00;METAR CYUL 151300Z 20004KT 15SM FEW038 BKN048 BKN070 BKN220 M09/M16 A3064 RMK SC1SC4AC2CI0 CIG RAG SLP378=
CYUL;2005-01-15 14:00;METAR CYUL 151400Z 20005KT 15SM FEW024 FEW036 FEW058 SCT085 M09/M14 A3064 RMK SC2SC1SC1AC1 SLP380=
CYUL;2005-01-15 14:17;SPECI CYUL 151417Z 19004KT 15SM -SN FEW024 FEW034 FEW055 BKN085 RMK SC1SC2SC1AC1=
CYUL;2005-01-15 14:39;SPECI CYUL 151439Z 21006KT 2 1/2SM -SHSN FEW013 BKN034 BKN085 RMK SF2SC2AC2 VIS N 15=
CYUL;2005-01-15 15:40;SPECI CYUL 151540Z 23012KT 15SM SCT020 RMK SC3 CU ASOCTD=
CYUL;2005-01-15 16:00;METAR CYUL 151600Z 22013KT 15SM FEW020 M07/M12 A3065 RMK SC2 CU ASOCTD SLP383=
CYUL;2005-01-15 17:00;METAR CYUL 151700Z 23012KT 15SM FEW020 M07/M13 A3064 RMK SC2 CU ASOCTD SLP377=
CYUL;2005-01-15 18:00;METAR CYUL 151800Z 23013KT 15SM FEW025 M06/M14 A3062 RMK CU2 SLP372=
CYUL;2005-01-15 19:00;METAR CYUL 151900Z 23015G22KT 15SM SCT030 M06/M14 A3061 RMK CU3 SLP368=
CYUL;2005-01-15 20:00;METAR CYUL 152000Z 22016G21KT 15SM FEW020 FEW030 M06/M15 A3061 RMK SC1CF1 SLP367=
CYUL;2005-01-15 22:00;METAR CYUL 152200Z 24009KT 30SM SCT040 M06/M15 A3061 RMK SC3 SLP367=
CYUL;2005-01-15 23:00;METAR CYUL 152300Z 24009KT 15SM FEW040 M07/M15 A3062 RMK SC1 SLP373=
CYUL;2005-01-16 00:00;METAR CYUL 160000Z 23008KT 15SM FEW040 M07/M14 A3064 RMK SC2 SLP377=
CYUL;2005-01-16 04:00;METAR CYUL 160400Z 25011G16KT 15SM SKC M08/M15 A3067 RMK SLP388=
CYUL;2005-01-16 05:00;METAR CYUL 160500Z 24010KT 15SM SKC M08/M15 A3067 RMK SLP387=
CYUL;2005-01-16 06:00;METAR CYUL 160600Z 24008KT 15SM FEW180 FEW210 M09/M15 A3066 RMK AC1CI0 SLP384=
CYUL;2005-01-16 07:00;METAR CYUL 160700Z 21007KT 15SM FEW180 SCT210 M09/M15 A3067 RMK AC1CI0 SLP387=
CYUL;2005-01-16 11:00;METAR CYUL 161100Z 27004KT 15SM FEW020 SCT160 BKN210 M09/M15 A3068 RMK CF1AC3CS2 SLP392=
CYUL;2005-01-16 12:00;METAR CYUL 161200Z 28004KT 15SM BKN180 OVC210 M10/M14 A3068 RMK AC5CS2 SLP394=
CYUL;2005-01-16 13:00;METAR CYUL 161300Z 31004KT 15SM FEW180 OVC210 M10/M14 A3068 RMK AC2CS2 SLP394=
CYUL;2005-01-16 14:00;METAR CYUL 161400Z 35005KT 15SM OVC240 M11/M15 A3069 RMK CS2 SLP396=
CYUL;2005-01-16 16:00;METAR CYUL 161600Z 04006KT 15SM BKN035 OVC200 M09/M14 A3067 RMK SC6CS1 SLP391=
CYUL;2005-01-16 17:00;METAR CYUL 161700Z 02005KT 15SM FEW035 OVC200 M09/M14 A3063 RMK SC1CS6 SLP377=
CYUL;2005-01-16 18:00;METAR CYUL 161800Z 05006KT 15SM FEW040 OVC200 M08/M15 A3061 RMK SC1CS3 SLP369=
CYUL;2005-01-16 19:00;METAR CYUL 161900Z 03006KT 15SM FEW035 FEW130 OVC220 M08/M14 A3059 RMK SC1AC1CS5 SLP360=
CYUL;2005-01-16 20:00;METAR CYUL 162000Z 04008KT 15SM FEW035 BKN200 M08/M14 A3057 RMK SC1CS2 SLP354=
CYUL;2005-01-16 21:00;METAR CYUL 162100Z 05008KT 15SM FEW035 BKN200 BKN240 M08/M14 A3054 RMK SC1CS3CI1 SLP344=
CYUL;2005-01-16 22:00;METAR CYUL 162200Z 05011KT 15SM FEW035 BKN240 M08/M15 A3053 RMK SC1CI2 CC ASOCTD SLP342=
CYUL;2005-01-17 00:00;METAR CYUL 170000Z 05012KT 15SM OVC180 M09/M16 A3051 RMK AS6 SLP334=
CYUL;2005-01-17 01:00;METAR CYUL 170100Z 05014KT 15SM FEW075 OVC100 M10/M16 A3051 RMK AC1AS8 SLP333=
CYUL;2005-01-17 03:00;METAR CYUL 170300Z 02013KT 15SM -SN OVC040 M11/M16 A3047 RMK SC8 SLP322=
CYUL;2005-01-17 04:00;METAR CYUL 170400Z 02013KT 8SM -SN OVC050 M12/M16 A3045 RMK SC8 SLP315=
CYUL;2005-01-17 05:00;METAR CYUL 170500Z 01013KT 12SM -SN OVC055 M12/M16 A3042 RMK SC8 SLP303=
CYUL;2005-01-17 09:00;METAR CYUL 170900Z 03013KT 15SM -SN BKN035 BKN090 M13/M16 A3036 RMK SC5AC2 SLP285=
CYUL;2005-01-17 10:00;METAR CYUL 171000Z 01009KT 15SM -SN BKN050 M13/M16 A3035 RMK SC6 SLP282=
CYUL;2005-01-17 12:00;METAR CYUL 171200Z 36008KT 15SM -SN SCT060 BKN210 M14/M17 A3033 RMK SC3CI1 SLP273=
CYUL;2005-01-17 14:00;METAR CYUL 171400Z 35007KT 4SM -SN FEW020 OVC040 M14/M17 A3033 RMK SC2SC6 SLP275=
CYUL;2005-01-17 14:41;SPECI CYUL 171441Z 35006KT 2 1/2SM -SN SCT015 OVC030 RMK SC3SC4=
CYUL;2005-01-17 15:15;SPECI CYUL 171515Z 36005KT 5SM -SN FEW030 OVC070 RMK SC2AC3=
CYUL;2005-01-17 16:00;METAR CYUL 171600Z 01005KT 8SM -SN FEW025 OVC200 M14/M17 A3031 RMK SC1CS5 SLP268=
CYUL;2005-01-17 17:00;METAR CYUL 171700Z 36004KT 5SM -SN FEW030 OVC200 M13/M16 A3028 RMK SC1CS5 SLP258=
CYUL;2005-01-17 18:00;METAR CYUL 171800Z 34005KT 3SM -SN SCT030 OVC200 M13/M16 A3026 RMK SC3CS3 VSBY VRBL 2-5 SLP251=
CYUL;2005-01-17 19:00;METAR CYUL 171900Z 33005KT 4SM -SN FEW020 BKN045 OVC200 M12/M16 A3025 RMK CF1SC4CS0 SLP247=
CYUL;2005-01-17 19:39;SPECI CYUL 171939Z 33007KT 1 3/4SM -SN FEW011 OVC022 RMK SF2SC6=
CYUL;2005-01-17 20:00;METAR CYUL 172000Z 32008KT 2 1/2SM -SN FEW015 OVC025 M12/M15 A3025 RMK SF2SC6 SLP248=
CYUL;2005-01-17 20:20;SPECI CYUL 172020Z 34009KT 4SM -SN FEW015 BKN025 OVC200 RMK SF1SC6CS0 VSBY VRBL 2-6=
CYUL;2005-01-17 21:00;METAR CYUL 172100Z 01008KT 12SM -SN BKN025 BKN220 M13/M17 A3027 RMK SC4CI2 SLP253=
CYUL;2005-01-17 21:44;SPECI CYUL 172144Z 33012KT 12SM FEW040 SCT100 OVC220 RMK SC2AC2CI2=
CYUL;2005-01-17 22:00;METAR CYUL 172200Z 34012KT 15SM FEW030 SCT075 OVC240 M13/M19 A3029 RMK SC1AC2CI2 SLP260=
CYUL;2005-01-17 22:24;SPECI CYUL 172224Z 34010KT 8SM -SN SCT040 BKN090 BKN240 RMK SC4AC1CI0 -SN INTMT=
CYUL;2005-01-17 23:00;METAR CYUL 172300Z 32008KT 15SM FEW040 BKN100 OVC240 M14/M19 A3031 RMK SC1AC5CI1 SLP267=
CYUL;2005-01-18 00:00;METAR CYUL 180000Z 32012KT 15SM FEW040 BKN070 OVC240 M14/M21 A3033 RMK SC1AC4CI2 SLP274=
CYUL;2005-01-18 04:00;METAR CYUL 180400Z 33010G15KT 15SM FEW090 FEW240 M18/M24 A3036 RMK AC1CI0 SLP284=
CYUL;2005-01-18 06:00;METAR CYUL 180600Z 31015KT 15SM FEW150 M20/M30 A3037 RMK AC1 SLP289=
CYUL;2005-01-18 07:00;METAR CYUL 180700Z 31014KT 15SM SKC M21/M31 A3040 RMK SLP300=
CYUL;2005-01-18 08:00;METAR CYUL 180800Z 29010G16KT 15SM SKC M22/M31 A3043 RMK SLP310=
CYUL;2005-01-18 11:23;SPECI CYUL 181123Z 29014KT 15SM -SN SCT060 RMK SC4=
CYUL;2005-01-18 12:00;METAR CYUL 181200Z 28011G16KT 15SM -SN SCT040 BKN075 M24/M31 A3056 RMK SC3AC1 SLP355=
CYUL;2005-01-18 12:31;SPECI CYUL 181231Z 29013KT 15SM SCT030 BKN240 RMK SC2CI0=
CYUL;2005-01-18 13:00;METAR CYUL 181300Z 28012KT 15SM SCT020 BKN240 M24/M32 A3060 RMK SF2CI0 SLP367=
CYUL;2005-01-18 15:00;METAR CYUL 181500Z 27012KT 15SM FEW020 M24/M32 A3066 RMK CF1 SLP386=
CYUL;2005-01-18 16:00;METAR CYUL 181600Z 27014KT 30SM FEW015 M23/M31 A3068 RMK SF1 SLP393=
CYUL;2005-01-18 17:00;METAR CYUL 181700Z 26014KT 30SM FEW015 M23/M32 A3067 RMK SF1 SLP389=
CYUL;2005-01-18 18:00;METAR CYUL 181800Z 27012KT 30SM FEW015 M22/M32 A3065 RMK SF1 SLP384=
CYUL;2005-01-18 19:00;METAR CYUL 181900Z 27014KT 15SM FEW015 M22/M31 A3065 RMK SF1 SLP384=
CYUL;2005-01-18 21:00;METAR CYUL 182100Z 26011G16KT 15SM FEW015 M21/M31 A3065 RMK SF1 SLP385=
CYUL;2005-01-18 22:00;METAR CYUL 182200Z 26012KT 30SM FEW240 M22/M31 A3067 RMK CI1 SLP389=
CYUL;2005-01-18 23:00;METAR CYUL 182300Z 25008G15KT 15SM FEW240 M22/M30 A3067 RMK CI1 SLP391=
CYUL;2005-01-19 00:00;METAR CYUL 190000Z 24010KT 15SM FEW240 M22/M30 A3067 RMK CI1 SLP389=
CYUL;2005-01-19 01:00;METAR CYUL 190100Z 26008KT 15SM FEW240 M22/M30 A3065 RMK CI1 SLP383=
CYUL;2005-01-19 02:00;METAR CYUL 190200Z 25008KT 15SM FEW012 FEW240 M21/M29 A3063 RMK SF1CI0 SLP376=
CYUL;2005-01-19 04:00;METAR CYUL 190400Z 26002KT 15SM FEW012 FEW160 FEW240 M22/M28 A3059 RMK SF1AS1CI0 SLP362=
CYUL;2005-01-19 05:00;METAR CYUL 190500Z 19007KT 15SM SCT120 M21/M26 A3056 RMK AS2 SLP355=
CYUL;2005-01-19 06:00;METAR CYUL 190600Z 16009KT 15SM OVC130 M21/M25 A3052 RMK AS8 SLP341=
CYUL;2005-01-19 10:00;METAR CYUL 191000Z 14010KT 15SM FEW012 FEW120 BKN160 OVC210 M19/M23 A3033 RMK SF1AC2AC3CI2 PRESFR SLP275=
CYUL;2005-01-19 10:31;SPECI CYUL 191031Z 14012G17KT 15SM FEW012 FEW120 BKN160 OVC220 RMK SF1AC1AC6CI1=
CYUL;2005-01-19 11:00;METAR CYUL 191100Z 13013KT 15SM FEW010 FEW110 BKN140 OVC220 M18/M21 A3029 RMK SF1AC2AC4CI1 SLP260=
CYUL;2005-01-19 12:00;METAR CYUL 191200Z 12010KT 15SM FEW010 FEW080 SCT120 SCT180 BKN200 M17/M21 A3024 RMK SF1AC2AC2AC1CI1 SLP246=
CYUL;2005-01-19 12:30;SPECI CYUL 191230Z 12007KT 20SM FEW012 SCT085 BKN180 OVC200 RMK SF1AS2AC1CI1=
CYUL;2005-01-19 13:00;METAR CYUL 191300Z 09006KT 20SM FEW012 FEW085 BKN180 BKN200 BKN240 M17/M21 A3020 RMK SF1AC1AC2CI2CI1 SLP232=
CYUL;2005-01-19 14:00;METAR CYUL 191400Z 10008KT 30SM FEW015 FEW085 OVC150 M16/M20 A3016 RMK SF1AC1AS7 VIS NW 10 HZ SLP216=
CYUL;2005-01-19 15:00;METAR CYUL 191500Z 09008KT 15SM BKN090 OVC150 M14/M19 A3011 RMK AC6AC2 SLP202=
CYUL;2005-01-19 16:00;METAR CYUL 191600Z 11008KT 15SM BKN088 OVC120 M12/M17 A3006 RMK AS6AC2 SLP183=
CYUL;2005-01-19 18:00;METAR CYUL 191800Z 34009KT 8SM -SN BKN020 OVC040 M12/M17 A2997 RMK SC6SC2 SLP153=
CYUL;2005-01-19 18:07;SPECI CYUL 191807Z 35007KT 2 1/2SM -SN BKN017 OVC027 RMK SC6SC2=
CYUL;2005-01-19 18:14;SPECI CYUL 191814Z 36007KT 1SM R06L/P6000FT/D R06R/P6000FT/D -SN VV009 RMK SN8=
CYUL;2005-01-19 18:32;SPECI CYUL 191832Z 01008KT 3/4SM R06L/4000VP6000FT/D R06R/6000FT/D -SN VV008 RMK SN8=
CYUL;2005-01-19 18:37;SPECI CYUL 191837Z 36007KT 1/2SM R06L/2800V6000FT/D R06R/3500V5500FT/D SN VV005 RMK SN8=
CYUL;2005-01-19 19:00;METAR CYUL 191900Z 03008KT 3/4SM R06L/3500V6000FT/U R06R/3500FT/N -SN VV006 M15/M18 A2994 RESN RMK SN8 VSBY VRBL 1/2-1 SLP142=
CYUL;2005-01-19 19:28;SPECI CYUL 191928Z 02006KT 1SM R06L/P6000FT/U R06R/4000VP6000FT/U -SN OVC011 RMK SN5SC3=
CYUL;2005-01-19 19:44;SPECI CYUL 191944Z 03007KT 3/4SM R06L/P6000FT/N R06R/6000FT/N -SN VV007 RMK SN8=
CYUL;2005-01-19 20:06;SPECI CYUL 192006Z 03006KT 1SM R06L/P6000FT/U R06R/4000VP6000FT/U -SN VV008 RMK SN8=
CYUL;2005-01-19 20:15;SPECI CYUL 192015Z 02006KT 3/4SM R06L/P6000FT/D R06R/4500VP6000FT/D -SN VV006 RMK SN8 VSBY VRBL 1/2-1=
CYUL;2005-01-19 21:35;SPECI CYUL 192135Z 02005KT 1 1/2SM -SN BKN014 OVC022 RMK SN4SC3SC1=
CYUL;2005-01-19 21:43;SPECI CYUL 192143Z 03005KT 2 1/4SM -SN BKN016 OVC028 RMK SN1SC6SC2=
CYUL;2005-01-19 22:00;METAR CYUL 192200Z 02005KT 2SM -SN BKN015 OVC028 M14/M17 A2990 RMK SC6SC2 SLP127=
CYUL;2005-01-19 22:18;SPECI CYUL 192218Z 02004KT 3SM -SN BKN017 OVC028 RMK SC6SC2=
CYUL;2005-01-20 00:00;METAR CYUL 200000Z 36003KT 2 1/2SM -SN BKN013 OVC030 M13/M15 A2987 RMK SC6SC1 /S02/ SLP119=
CYUL;2005-01-20 00:42;SPECI CYUL 200042Z 35006KT 1 1/4SM -SN BKN010 OVC020 RMK SN4SC2SC1=
CYUL;2005-01-20 02:22;SPECI CYUL 200222Z 01004KT 2SM -SN FEW009 BKN014 OVC027 RMK SF2SC6SC1=
CYUL;2005-01-20 02:52;SPECI CYUL 200252Z 36003KT 3/4SM R06L/P6000FT/D R06R/P6000FT/U -SN BR VV008 RMK SN8=
CYUL;2005-01-20 03:16;SPECI CYUL 200316Z 03005KT 1 1/4SM -SN BR BKN010 OVC022 RMK SN6SF1SC1 VIS SW 3/4 SN=
CYUL;2005-01-20 03:32;SPECI CYUL 200332Z 02004KT 2SM -SN BR BKN013 OVC024 RMK SN3SF3SC2 VIS SE 11/4 SN=
CYUL;2005-01-20 03:42;SPECI CYUL 200342Z 02005KT 1SM R06L/P6000FT/D R06R/P6000FT/D -SN BR VV009 RMK SN8=
CYUL;2005-01-20 04:00;METAR CYUL 200400Z 01005KT 1SM R06L/P6000FT/D R06R/P6000FT/U -SN BR VV008 M13/M15 A2983 RMK SN8 VIS SW 3/4 SN /S02/ SLP104=
CYUL;2005-01-20 04:34;SPECI CYUL 200434Z 36005KT 3/4SM R06L/P6000FT/D R06R/P6000FT/D -SN BR VV008 RMK SN8 VSBY VRBL 1/2-1=
CYUL;2005-01-20 05:00;METAR CYUL 200500Z 36005KT 3/4SM R06L/P6000FT/U R06R/P6000FT/D -SN BR VV009 M13/M14 A2982 RMK SN8 VSBY VRBL 1/2-1 SLP102=
CYUL;2005-01-20 05:14;SPECI CYUL 200514Z 01005KT 1 1/4SM -SN BR BKN011 OVC025 RMK SN3SF4SC1=
CYUL;2005-01-20 05:26;SPECI CYUL 200526Z 36006KT 1 1/2SM -SN BR BKN013 OVC027 RMK SN2SF5SC2=
CYUL;2005-01-20 05:51;SPECI CYUL 200551Z 36007KT 1 3/4SM -SN BR BKN015 OVC030 RMK SN1SF6SC2=
CYUL;2005-01-20 06:00;METAR CYUL 200600Z 36007KT 1 3/4SM -SN BR BKN015 OVC032 M14/M15 A2982 RMK SN1SF6SC2 /S04/ SLP102=
CYUL;2005-01-20 06:34;SPECI CYUL 200634Z 36006KT 2 1/2SM -SN BR BKN018 BKN033 OVC068 RMK SF5SC2AC1=
CYUL;2005-01-20 07:00;METAR CYUL 200700Z 01005KT 2 1/2SM -SN BR BKN020 OVC048 M14/M16 A2983 RMK SF5SC2 SLP105=
CYUL;2005-01-20 07:25;SPECI CYUL 200725Z 36005KT 3SM -SN BR FEW020 BKN038 BKN070 OVC100 RMK SF1SC4AS2AC1=
CYUL;2005-01-20 09:00;METAR CYUL 200900Z 34005KT 2 1/2SM -SN BKN022 OVC048 M14/M16 A2985 RMK SC7SC1 SLP113=
CYUL;2005-01-20 10:00;METAR CYUL 201000Z 31006KT 3SM -SN BR FEW020 BKN040 BKN062 OVC080 M14/M16 A2987 RMK SC2SC2SC2AS1 SLP118=
CYUL;2005-01-20 11:21;SPECI CYUL 201121Z 30006KT 6SM BR FEW040 BKN078 BKN085 RMK SC1AS2AC1=
CYUL;2005-01-20 12:00;METAR CYUL 201200Z 28004KT 8SM VCFG FEW075 FEW090 FEW220 M17/M18 A2992 RMK AS1AC1CI1 FROIN /S01/ SLP135=
CYUL;2005-01-20 13:00;METAR CYUL 201300Z 28005KT 15SM FEW046 FEW090 SCT100 SCT220 M19/M20 A2996 RMK SC1AC1AC1CI0 FROIN SLP148=
CYUL;2005-01-20 15:00;METAR CYUL 201500Z 28007KT 15SM FEW020 FEW090 FEW240 M16/M19 A3000 RMK SC1AC1CI1 SLP164=
CYUL;2005-01-20 16:00;METAR CYUL 201600Z 29009KT 15SM FEW030 FEW240 M15/M20 A3002 RMK SC1CI0 CF ASOCTD SLP169=
CYUL;2005-01-20 18:00;METAR CYUL 201800Z 26012KT 15SM FEW030 FEW240 M16/M21 A3000 RMK CF1CI1 SLP162=
CYUL;2005-01-20 19:00;METAR CYUL 201900Z 27011KT 15SM FEW030 FEW240 M15/M20 A3000 RMK CF1CI1 SLP162=
CYUL;2005-01-20 22:00;METAR CYUL 202200Z 26014KT 15SM DRSN FEW030 FEW210 M17/M22 A3005 RMK SC2CI1 SLP180=
CYUL;2005-01-21 00:00;METAR CYUL 210000Z 30010G15KT 15SM DRSN FEW040 M18/M23 A3009 RMK SC2 SLP195=
CYUL;2005-01-21 01:00;METAR CYUL 210100Z 30009KT 15SM FEW040 M19/M25 A3010 RMK SC2 SLP198=
CYUL;2005-01-21 04:00;METAR CYUL 210400Z 33005KT 15SM FEW015 FEW040 M22/M28 A3014 RMK SF1SC1 SLP211=
CYUL;2005-01-21 05:00;METAR CYUL 210500Z 33003KT 15SM FEW015 FEW030 M23/M29 A3015 RMK SF1SC1 SLP214=
CYUL;2005-01-21 08:00;METAR CYUL 210800Z 35004KT 15SM FEW025 M25/M32 A3019 RMK SC1 SLP229=
CYUL;2005-01-21 09:00;METAR CYUL 210900Z 33005KT 15SM FEW025 M25/M32 A3021 RMK SC1 SLP233=
CYUL;2005-01-21 12:00;METAR CYUL 211200Z 31006KT 15SM FEW010 FEW030 FEW100 FEW220 M26/M34 A3027 RMK SF1SC1AC1CI0 SLP255=
CYUL;2005-01-21 13:00;METAR CYUL 211300Z 31005KT 20SM FEW010 M27/M33 A3030 RMK SF1 SLP266=
CYUL;2005-01-21 14:00;METAR CYUL 211400Z 30009KT 20SM FEW012 M26/M32 A3032 RMK SF1 SLP271=
CYUL;2005-01-21 15:00;METAR CYUL 211500Z 29005KT 15SM FEW015 M25/M32 A3034 RMK SF1 SLP279=
CYUL;2005-01-21 16:00;METAR CYUL 211600Z 28006KT 15SM FEW015 FEW240 M24/M33 A3035 RMK CF1CI1 SLP281=
CYUL;2005-01-21 17:00;METAR CYUL 211700Z 30006KT 15SM FEW020 FEW240 M24/M33 A3034 RMK CF1CI1 SLP278=
CYUL;2005-01-21 19:00;METAR CYUL 211900Z 26010KT 30SM FEW020 M22/M31 A3032 RMK CF1 SLP274=
CYUL;2005-01-21 20:00;METAR CYUL 212000Z 24011KT 30SM FEW020 M22/M31 A3035 RMK CF1 SLP282=
CYUL;2005-01-21 21:00;METAR CYUL 212100Z 25010G15KT 30SM FEW020 M22/M31 A3036 RMK CF1 SLP286=
CYUL;2005-01-21 22:00;METAR CYUL 212200Z 25013KT 30SM FEW020 M22/M31 A3037 RMK CF1 SLP290=
CYUL;2005-01-22 00:00;METAR CYUL 220000Z 25009KT 15SM FEW020 M23/M31 A3040 RMK CF1 SLP299=
CYUL;2005-01-22 04:00;METAR CYUL 220400Z 27004KT 15SM SKC M25/M31 A3041 RMK F ABV STLAWR E QUAD SLP304=
CYUL;2005-01-22 05:00;METAR CYUL 220500Z 25004KT 15SM SKC M25/M31 A3042 RMK F ABV STLAWR E QUAD SLP307=
CYUL;2005-01-22 06:00;METAR CYUL 220600Z 00000KT 15SM SKC M26/M31 A3039 RMK F ABV STLAWR E QUAD SLP297=
CYUL;2005-01-22 08:00;METAR CYUL 220800Z 29004KT 15SM SKC M27/M32 A3040 RMK F ABV STLAWR E QUAD SLP298=
CYUL;2005-01-22 10:31;SPECI CYUL 221031Z 01002KT 15SM BKN120 OVC160 RMK AS5AC2 F ABV STLAWR E QUAD=
CYUL;2005-01-22 11:00;METAR CYUL 221100Z 02005KT 3SM FU BKN120 OVC160 M25/M28 A3035 RMK AS6AC2 F ABV STLAWR E QUAD SLP281=
CYUL;2005-01-22 11:32;SPECI CYUL 221132Z 04005KT 3SM IC FU BKN120 OVC160 RMK AS6AC2 F ABV STLAWR SBSDNC=
CYUL;2005-01-22 11:50;SPECI CYUL 221150Z 03007KT 3SM -SN FU BKN120 OVC160 RMK AS6AC2 F ABV STLAWR SBSDNC AURBO=
CYUL;2005-01-22 12:00;METAR CYUL 221200Z 03008KT 3SM -SN FU BKN120 OVC160 M23/M27 A3034 RMK AS6AC2 F ABV STLAWR SBSDNC FROIN SLP280=
CYUL;2005-01-22 12:28;SPECI CYUL 221228Z 02007KT 4SM FU FEW008 OVC120 RMK SF1AS5 F ABV STLAWR FROIN=
CYUL;2005-01-22 13:00;METAR CYUL 221300Z 04008KT 5SM FU FEW008 FEW090 OVC110 M23/M28 A3034 RMK SF1AC2AS6 SLP280=
CYUL;2005-01-22 14:00;METAR CYUL 221400Z 05011KT 8SM FEW009 OVC075 M22/M28 A3032 RMK SF1AS7 FU DSIPT SLP272=
CYUL;2005-01-22 15:00;METAR CYUL 221500Z 05009KT 15SM FEW010 BKN090 OVC200 M22/M29 A3032 RMK SF1AS7CS1 SLP273=
CYUL;2005-01-22 16:00;METAR CYUL 221600Z 05010KT 15SM FEW012 BKN090 OVC200 M22/M28 A3029 RMK CF1AS6CS2 SLP263=
CYUL;2005-01-22 17:00;METAR CYUL 221700Z 05012KT 15SM FEW015 BKN100 OVC200 M21/M28 A3025 RMK CF1AS6CS2 SLP250=
CYUL;2005-01-22 18:00;METAR CYUL 221800Z 03013KT 15SM FEW015 OVC090 M21/M28 A3023 RMK SC1AS7 SLP243=
CYUL;2005-01-22 21:00;METAR CYUL 222100Z 04010KT 15SM OVC050 M20/M26 A3018 RMK SC8 SLP225=
CYUL;2005-01-22 21:48;SPECI CYUL 222148Z 05011KT 10SM -SN BKN025 OVC040 RMK SC6SC2=
CYUL;2005-01-22 22:00;METAR CYUL 222200Z 05013KT 4SM -SN BKN025 OVC038 M19/M27 A3018 RMK SC6SC2 SLP224=
CYUL;2005-01-22 22:30;SPECI CYUL 222230Z 05015KT 3SM -SN BKN014 OVC025 RMK SC6SC2=
CYUL;2005-01-22 22:37;SPECI CYUL 222237Z 05015KT 2 1/2SM -SN DRSN BKN013 OVC025 RMK SC6SC2=
CYUL;2005-01-22 23:00;METAR CYUL 222300Z 05016KT 2SM -SN DRSN OVC016 M20/M25 A3017 RMK SC8 SLP220=
CYUL;2005-01-22 23:28;SPECI CYUL 222328Z 05011G16KT 2SM -SN DRSN OVC014 RMK SC8=
CYUL;2005-01-23 00:00;METAR CYUL 230000Z 05013G18KT 1 1/2SM -SN DRSN VV010 M19/M23 A3015 RMK SN8 SLP215=
CYUL;2005-01-23 00:10;SPECI CYUL 230010Z 05017KT 1 1/4SM -SN DRSN VV009 RMK SN8=
CYUL;2005-01-23 02:15;SPECI CYUL 230215Z 04019KT 3SM -SN DRSN BKN023 OVC040 RMK SC6SC1=
CYUL;2005-01-23 03:49;SPECI CYUL 230349Z 03019G24KT 2SM -SN DRSN OVC027 RMK SC8=
CYUL;2005-01-23 04:00;METAR CYUL 230400Z 03022G27KT 1 1/2SM -SN DRSN OVC027 M18/M22 A3010 RMK SC8 SLP198=
CYUL;2005-01-23 06:45;SPECI CYUL 230645Z 02017KT 3SM -SN DRSN OVC055 RMK SC8=
CYUL;2005-01-23 09:00;METAR CYUL 230900Z 03017G26KT 6SM -SN DRSN FEW015 BKN065 OVC150 M18/M22 A3010 RMK SF1SC5AS3 SLP198=
CYUL;2005-01-23 10:00;METAR CYUL 231000Z 02018G25KT 6SM -SN DRSN FEW017 OVC090 M18/M23 A3012 RMK SC1AS6 SLP205=
CYUL;2005-01-23 11:00;METAR CYUL 231100Z 02019KT 10SM DRSN FEW015 FEW090 BKN240 M19/M24 A3014 RMK SC1AC1CI3 SLP209=
CYUL;2005-01-23 12:00;METAR CYUL 231200Z 02014G21KT 15SM DRSN FEW015 FEW120 SCT240 M19/M25 A3014 RMK SC1AC1CI2 SLP212=
CYUL;2005-01-23 13:00;METAR CYUL 231300Z 02016KT 15SM DRSN FEW010 FEW120 SCT240 M19/M25 A3017 RMK SF1AC1CI2 SLP220=
CYUL;2005-01-23 15:00;METAR CYUL 231500Z 03014G21KT 15SM FEW010 SCT120 BKN220 M19/M27 A3022 RMK SF1AC1CI1 SLP236=
CYUL;2005-01-23 16:00;METAR CYUL 231600Z 02014G19KT 15SM FEW010 FEW120 BKN220 M19/M27 A3022 RMK SF1AC1CI1 SLP236=
CYUL;2005-01-23 17:00;METAR CYUL 231700Z 36011KT 15SM FEW020 FEW220 M18/M26 A3019 RMK SF1CI1 SLP228=
CYUL;2005-01-23 18:00;METAR CYUL 231800Z 02011KT 15SM FEW020 M17/M27 A3016 RMK SF1 SLP219=
CYUL;2005-01-23 22:00;METAR CYUL 232200Z 25004KT 30SM SKC M15/M26 A3016 RMK SLP218=
CYUL;2005-01-23 23:00;METAR CYUL 232300Z 29002KT 15SM SKC M17/M26 A3018 RMK SLP224=
CYUL;2005-01-24 00:00;METAR CYUL 240000Z 25002KT 15SM SKC M17/M23 A3020 RMK SLP230=
CYUL;2005-01-24 04:00;METAR CYUL 240400Z 24004KT 15SM SKC M18/M25 A3017 RMK SLP222=
CYUL;2005-01-24 07:00;METAR CYUL 240700Z 23010KT 15SM FEW010 FEW220 M20/M26 A3014 RMK SF1CI0 SLP210=
CYUL;2005-01-24 11:00;METAR CYUL 241100Z 25010KT 15SM FEW010 M21/M26 A3007 RMK SF1 SLP188=
CYUL;2005-01-24 12:00;METAR CYUL 241200Z 26007KT 30SM FEW150 M21/M27 A3005 RMK AC1 SLP180=
CYUL;2005-01-24 13:00;METAR CYUL 241300Z 23004KT 30SM FEW120 FEW240 M21/M26 A3003 RMK AC1CI0 SLP172=
CYUL;2005-01-24 13:50;SPECI CYUL 241350Z 23008KT 15SM -SN BKN030 BKN240 RMK SC7CI1=
CYUL;2005-01-24 14:00;METAR CYUL 241400Z 22009KT 15SM -SN BKN030 BKN240 M19/M25 A3001 RMK SC7CI1 SLP166=
CYUL;2005-01-24 14:38;SPECI CYUL 241438Z 22008KT 15SM FEW035 BKN150 BKN240 RMK SC2AC2CI1=
CYUL;2005-01-24 15:00;METAR CYUL 241500Z 20007KT 12SM -SN BKN040 BKN150 M18/M24 A2995 RMK SC5AC2 -SN INTMT PRESFR SLP146=
CYUL;2005-01-24 16:00;METAR CYUL 241600Z 23005KT 12SM -SN BKN045 BKN090 M16/M21 A2990 RMK SC5AC1 SLP128=
CYUL;2005-01-24 17:00;METAR CYUL 241700Z 23004KT 3SM -SN SCT020 OVC035 M14/M18 A2984 RMK SC3SC5 SLP109=
CYUL;2005-01-24 17:34;SPECI CYUL 241734Z 28004KT 2 1/2SM -SN OVC030 RMK SC8=
CYUL;2005-01-24 18:00;METAR CYUL 241800Z 27006KT 2SM -SN OVC020 M12/M15 A2978 RMK SC8 SLP089=
CYUL;2005-01-24 19:00;METAR CYUL 241900Z 26007KT 1 1/2SM -SN OVC020 M11/M13 A2975 RMK SN3SC5 SLP078=
CYUL;2005-01-24 20:21;SPECI CYUL 242021Z 34004KT 1 1/4SM -SN BKN015 OVC030 RMK SN2SC3SC2=
CYUL;2005-01-24 20:46;SPECI CYUL 242046Z 34002KT 3/4SM R24L/3000V6000FT/N R24R/5500FT/N -SN OVC020 RMK SN4SC4=
CYUL;2005-01-24 21:48;SPECI CYUL 242148Z 00000KT 1 1/2SM -SN OVC040 RMK SN4SC4=
CYUL;2005-01-24 23:00;METAR CYUL 242300Z 30002KT 3SM -SN BKN030 OVC100 M12/M13 A2970 RMK SC5AC3 /S02/ SLP060=
CYUL;2005-01-25 00:00;METAR CYUL 250000Z 28005KT 8SM -SN FEW040 BKN080 OVC150 M11/M13 A2969 RMK SC2AC4AC2 SLP059=
CYUL;2005-01-25 02:00;METAR CYUL 250200Z 27008KT 3SM -SN FEW015 OVC030 M09/M11 A2969 RMK SC2SC6 SLP057=
CYUL;2005-01-25 03:00;METAR CYUL 250300Z 28005KT 15SM -SN FEW015 OVC075 M10/M11 A2968 RMK SC1AS7 SLP056=
CYUL;2005-01-25 03:47;SPECI CYUL 250347Z 28005KT 10SM OVC065 RMK SC8=
CYUL;2005-01-25 04:00;METAR CYUL 250400Z 29008KT 10SM OVC070 M09/M11 A2969 RMK AC8 SLP057=
CYUL;2005-01-25 05:00;METAR CYUL 250500Z 30008KT 15SM OVC075 M09/M12 A2970 RMK AC8 SLP060=
CYUL;2005-01-25 06:00;METAR CYUL 250600Z 31008KT 15SM FEW075 M11/M14 A2971 RMK AC2 SLP063=
CYUL;2005-01-25 07:00;METAR CYUL 250700Z 32007KT 15SM FEW075 M13/M16 A2975 RMK AC1 SLP076=
CYUL;2005-01-25 09:00;METAR CYUL 250900Z 27005KT 15SM FEW075 M15/M18 A2979 RMK AC1 SLP093=
CYUL;2005-01-25 10:00;METAR CYUL 251000Z 27005KT 15SM SKC M15/M17 A2982 RMK SLP100=
CYUL;2005-01-25 11:00;METAR CYUL 251100Z 30009KT 15SM SKC M15/M18 A2985 RMK SLP112=
CYUL;2005-01-25 12:00;METAR CYUL 251200Z 29010KT 15SM FEW075 M16/M19 A2989 RMK AC1 SLP125=
CYUL;2005-01-25 13:00;METAR CYUL 251300Z 30010KT 15SM FEW070 M17/M20 A2992 RMK AC1 SLP135=
CYUL;2005-01-25 14:00;METAR CYUL 251400Z 30011KT 15SM FEW070 FEW240 M17/M20 A2994 RMK AC1CI1 SLP141=
CYUL;2005-01-25 15:00;METAR CYUL 251500Z 31007KT 15SM FEW240 M16/M21 A2995 RMK CI1 SLP146=
CYUL;2005-01-25 16:00;METAR CYUL 251600Z 31006KT 30SM SKC M16/M21 A2995 RMK SLP147=
CYUL;2005-01-25 17:00;METAR CYUL 251700Z 26005KT 30SM FEW120 M15/M21 A2994 RMK AC1 SLP143=
CYUL;2005-01-25 18:00;METAR CYUL 251800Z 22010KT 30SM SCT150 BKN240 M14/M20 A2993 RMK AC2CI1 CC ASOCTD SLP140=
CYUL;2005-01-25 19:00;METAR CYUL 251900Z 22012KT 30SM SCT180 BKN230 M15/M20 A2991 RMK AC2CI2 CC ASOCTD SLP131=
CYUL;2005-01-25 21:00;METAR CYUL 252100Z 23007KT 30SM SCT150 OVC240 M15/M21 A2992 RMK AC2CI2 SLP135=
CYUL;2005-01-25 22:00;METAR CYUL 252200Z 25005KT 15SM SCT150 OVC240 M15/M23 A2992 RMK AC2CI1 SLP134=
CYUL;2005-01-25 23:00;METAR CYUL 252300Z 26003KT 15SM SCT150 OVC240 M17/M25 A2992 RMK AC2CI1 SLP136=
CYUL;2005-01-26 00:00;METAR CYUL 260000Z 25003KT 15SM BKN240 M17/M24 A2992 RMK CI1 SLP134=
CYUL;2005-01-26 03:00;METAR CYUL 260300Z 00000KT 15SM OVC080 M15/M22 A2989 RMK AS8 SLP126=
CYUL;2005-01-26 04:00;METAR CYUL 260400Z 22005KT 15SM OVC070 M15/M21 A2989 RMK AS8 SLP124=
CYUL;2005-01-26 05:00;METAR CYUL 260500Z 33002KT 6SM -SN OVC040 M15/M21 A2988 RMK SC8 SLP122=
CYUL;2005-01-26 06:00;METAR CYUL 260600Z 02006KT 2 1/4SM -SN OVC028 M15/M18 A2987 RMK SC8 SLP118=
CYUL;2005-01-26 07:00;METAR CYUL 260700Z 03007KT 1 1/2SM -SN OVC018 M15/M18 A2987 RMK SC8 SLP117=
CYUL;2005-01-26 08:00;METAR CYUL 260800Z 04010KT 1 1/2SM -SN OVC020 M15/M18 A2987 RMK SC8 SLP118=
CYUL;2005-01-26 10:00;METAR CYUL 261000Z 06015G20KT 2 1/2SM -SN OVC025 M16/M19 A2987 RMK SC8 SLP118=
CYUL;2005-01-26 12:00;METAR CYUL 261200Z 04017G22KT 12SM -SN DRSN FEW025 OVC100 M17/M21 A2991 RMK SC1AC7 SLP132=
CYUL;2005-01-26 13:00;METAR CYUL 261300Z 04016G21KT 10SM -SN DRSN BKN035 OVC100 M17/M21 A2994 RMK SC6AC2 SLP143=
CYUL;2005-01-26 13:38;SPECI CYUL 261338Z 04015KT 15SM DRSN FEW035 BKN100 BKN240 RMK SC1AC3CI1=
CYUL;2005-01-26 14:00;METAR CYUL 261400Z 04016G22KT 15SM DRSN FEW035 FEW100 BKN240 M18/M22 A2996 RMK SC1AC2CI1 SLP149=
CYUL;2005-01-26 16:00;METAR CYUL 261600Z 03015KT 15SM FEW120 M17/M23 A3000 RMK AC1 SLP162=
CYUL;2005-01-26 17:00;METAR CYUL 261700Z 03015KT 15SM FEW120 M16/M23 A3000 RMK AC1 SLP164=
CYUL;2005-01-26 21:00;METAR CYUL 262100Z 03012KT 30SM FEW150 M14/M24 A3008 RMK AC1 SLP189=
CYUL;2005-01-26 22:00;METAR CYUL 262200Z 03008KT 30SM FEW150 M14/M23 A3011 RMK AC1 SLP198=
CYUL;2005-01-26 23:00;METAR CYUL 262300Z 02007KT 15SM SKC M15/M23 A3015 RMK SLP213=
CYUL;2005-01-27 00:00;METAR CYUL 270000Z 02006KT 15SM SKC M16/M23 A3018 RMK SLP225=
CYUL;2005-01-27 01:00;METAR CYUL 270100Z 01008KT 15SM SKC M16/M24 A3021 RMK SLP235=
CYUL;2005-01-27 03:00;METAR CYUL 270300Z 01011KT 15SM FEW015 M17/M25 A3027 RMK CF1 SLP253=
CYUL;2005-01-27 04:00;METAR CYUL 270400Z 02011KT 15SM SKC M18/M25 A3030 RMK SLP263=
CYUL;2005-01-27 05:00;METAR CYUL 270500Z 36006KT 15SM SKC M18/M26 A3031 RMK SLP268=
CYUL;2005-01-27 06:00;METAR CYUL 270600Z 36006KT 15SM SKC M20/M27 A3033 RMK SLP274=
CYUL;2005-01-27 09:00;METAR CYUL 270900Z 35006KT 15SM SKC M21/M28 A3040 RMK SLP300=
CYUL;2005-01-27 10:00;METAR CYUL 271000Z 33003KT 15SM SKC M24/M29 A3043 RMK SLP310=
CYUL;2005-01-27 11:00;METAR CYUL 271100Z 35003KT 15SM SKC M23/M28 A3046 RMK SLP320=
CYUL;2005-01-27 12:00;METAR CYUL 271200Z 34002KT 30SM FEW015 M24/M29 A3050 RMK CF1 SLP334=
CYUL;2005-01-27 13:00;METAR CYUL 271300Z 31003KT 30SM FEW015 M24/M29 A3054 RMK CF1 SLP347=
CYUL;2005-01-27 15:00;METAR CYUL 271500Z 00000KT 30SM FEW022 FEW035 FEW230 M20/M27 A3059 RMK CF1SC1CI1 SLP362=
CYUL;2005-01-27 16:00;METAR CYUL 271600Z 00000KT 20SM FEW020 FEW230 M19/M28 A3059 RMK CF1CI1 SLP365=
CYUL;2005-01-27 19:00;METAR CYUL 271900Z 22009KT 30SM FEW020 FEW230 M18/M26 A3059 RMK SF1CI1 SLP364=
CYUL;2005-01-27 20:00;METAR CYUL 272000Z 22010KT 30SM FEW230 M18/M26 A3060 RMK CI1 SLP368=
CYUL;2005-01-28 19:00;METAR CYUL 281900Z 22011KT 30SM FEW180 M14/M21 A3078 RMK AC1 SLP429=
CYUL;2005-01-28 21:00;METAR CYUL 282100Z 22008KT 30SM FEW180 FEW250 M13/M21 A3076 RMK AC1CI1 SLP422=
CYUL;2005-01-28 22:00;METAR CYUL 282200Z 23007KT 30SM FEW012 FEW150 FEW230 M13/M21 A3075 RMK SF1AC1CI1 SLP417=
CYUL;2005-01-28 23:00;METAR CYUL 282300Z 25005KT 15SM FEW150 M14/M21 A3075 RMK AC1 SLP416=
CYUL;2005-01-29 00:00;METAR CYUL 290000Z 23007KT 15SM FEW100 M13/M21 A3073 RMK AC1 SLP412=
CYUL;2005-01-29 04:00;METAR CYUL 290400Z 21006KT 15SM FEW150 M14/M20 A3067 RMK AC1 SLP388=
CYUL;2005-01-29 05:00;METAR CYUL 290500Z 21004KT 15SM SCT150 M14/M20 A3064 RMK AC3 SLP381=
CYUL;2005-01-29 06:00;METAR CYUL 290600Z 22004KT 15SM FEW015 BKN150 M15/M20 A3063 RMK SF1AC3 SLP375=
CYUL;2005-01-29 07:00;METAR CYUL 290700Z 21004KT 15SM FEW015 FEW150 M15/M20 A3061 RMK SC1AC2 SLP370=
CYUL;2005-01-29 08:00;METAR CYUL 290800Z 21005KT 15SM BKN016 M15/M20 A3059 RMK SC6 SLP363=
CYUL;2005-01-29 09:00;METAR CYUL 290900Z 20005KT 15SM BKN015 M14/M19 A3057 RMK SC4 SLP356=
CYUL;2005-01-29 10:00;METAR CYUL 291000Z 21005KT 15SM SCT015 M15/M20 A3055 RMK SC2 SLP350=
CYUL;2005-01-29 12:00;METAR CYUL 291200Z 20006KT 30SM FEW015 FEW120 FEW210 M15/M20 A3053 RMK SC1AC1CI1 SLP341=
CYUL;2005-01-29 13:00;METAR CYUL 291300Z 21006KT 30SM FEW015 FEW120 M14/M19 A3051 RMK SC1AC1 SLP335=
CYUL;2005-01-29 14:00;METAR CYUL 291400Z 20006KT 30SM FEW015 FEW210 M14/M20 A3049 RMK SC1CI0 SLP330=
CYUL;2005-01-29 16:00;METAR CYUL 291600Z 21005KT 30SM FEW020 SCT200 BKN240 M11/M19 A3044 RMK SC1CI1CI0 SLP311=
CYUL;2005-01-29 17:00;METAR CYUL 291700Z 21005KT 30SM FEW020 FEW120 SCT200 SCT240 M10/M17 A3040 RMK SC1AC1CI0CI0 SLP298=
CYUL;2005-01-29 20:00;METAR CYUL 292000Z 22005KT 30SM FEW100 SCT150 BKN200 OVC230 M07/M15 A3030 RMK AC1AS2CS0CI2 SLP263=
CYUL;2005-01-29 21:00;METAR CYUL 292100Z 21005KT 30SM SCT150 BKN230 M07/M15 A3028 RMK AS3CI2 CC ASOCT SLP257=
CYUL;2005-01-29 22:00;METAR CYUL 292200Z 23004KT 30SM BKN150 BKN180 BKN230 M07/M14 A3026 RMK AS2AC2CI0 SLP251=
CYUL;2005-01-29 23:00;METAR CYUL 292300Z 21004KT 15SM FEW110 OVC160 M07/M13 A3025 RMK AC1AC6 SLP246=
CYUL;2005-01-30 01:00;METAR CYUL 300100Z 23003KT 15SM SCT120 OVC150 M07/M13 A3020 RMK AC3AC5 SLP230=
CYUL;2005-01-30 03:00;METAR CYUL 300300Z 28005KT 15SM BKN120 M08/M14 A3017 RMK AC6 SLP220=
CYUL;2005-01-30 04:00;METAR CYUL 300400Z 24006KT 15SM OVC140 M07/M13 A3015 RMK AC7 SLP214=
CYUL;2005-01-30 05:00;METAR CYUL 300500Z 23004KT 15SM OVC140 M07/M13 A3014 RMK AC8 SLP210=
CYUL;2005-01-30 07:00;METAR CYUL 300700Z 27004KT 15SM FEW120 BKN220 M07/M13 A3013 RMK AC2CI3 SLP206=
CYUL;2005-01-30 10:00;METAR CYUL 301000Z 36003KT 15SM BKN045 OVC060 M08/M12 A3014 RMK SC6SC2 SLP208=
CYUL;2005-01-30 10:53;SPECI CYUL 301053Z 34003KT 15SM -SN OVC045 RMK SC8=
CYUL;2005-01-30 12:00;METAR CYUL 301200Z 32002KT 10SM -SN OVC040 M08/M10 A3017 RMK SC8 SLP219=
CYUL;2005-01-30 13:00;METAR CYUL 301300Z 00000KT 15SM -SN FEW040 OVC080 M08/M10 A3019 RMK SC2AC6 SLP226=
CYUL;2005-01-30 13:33;SPECI CYUL 301333Z 27002KT 15SM FEW040 OVC080 RMK SC1AC7=
CYUL;2005-01-30 14:00;METAR CYUL 301400Z 28003KT 15SM FEW040 OVC075 M07/M09 A3021 RMK SC1AC8 SLP232=
CYUL;2005-01-30 15:00;METAR CYUL 301500Z 23003KT 15SM FEW040 BKN070 M05/M08 A3022 RMK SC1AC6 SLP237=
CYUL;2005-01-30 16:00;METAR CYUL 301600Z 22002KT 15SM FEW070 M03/M08 A3023 RMK AC1 SLP240=
CYUL;2005-01-30 17:00;METAR CYUL 301700Z 00000KT 15SM FEW040 FEW090 M02/M07 A3022 RMK CF1AC1 SLP238=
CYUL;2005-01-30 18:00;METAR CYUL 301800Z 03006KT 15SM FEW030 BKN220 M02/M08 A3022 RMK CU2CI1 SLP237=
CYUL;2005-01-30 19:00;METAR CYUL 301900Z 34002KT 15SM FEW030 SCT220 M01/M09 A3022 RMK CU2CI1 SLP237=
CYUL;2005-01-30 22:00;METAR CYUL 302200Z 02004KT 15SM SKC M03/M13 A3028 RMK SLP258=
CYUL;2005-01-30 23:00;METAR CYUL 302300Z 04003KT 15SM SKC M04/M14 A3031 RMK SLP267=
CYUL;2005-01-31 00:00;METAR CYUL 310000Z 04004KT 15SM SKC M05/M15 A3033 RMK SLP274=
CYUL;2005-01-31 04:00;METAR CYUL 310400Z 03005KT 15SM SKC M09/M17 A3038 RMK SLP290=
CYUL;2005-01-31 07:00;METAR CYUL 310700Z 35003KT 15SM SKC M11/M18 A3042 RMK SLP304=
CYUL;2005-01-31 09:00;METAR CYUL 310900Z 01003KT 15SM SKC M13/M19 A3043 RMK SLP306=
CYUL;2005-01-31 10:00;METAR CYUL 311000Z 03007KT 15SM SKC M12/M19 A3044 RMK SLP310=
CYUL;2005-01-31 11:00;METAR CYUL 311100Z 01005KT 15SM SKC M13/M18 A3046 RMK SLP317=
CYUL;2005-01-31 12:00;METAR CYUL 311200Z 36004KT 30SM SKC M13/M19 A3048 RMK SLP323=
CYUL;2005-01-31 13:00;METAR CYUL 311300Z 35003KT 30SM SKC M15/M19 A3049 RMK SLP328=
CYUL;2005-01-31 14:00;METAR CYUL 311400Z 01004KT 30SM SKC M12/M17 A3050 RMK SLP331=
CYUL;2005-01-31 15:00;METAR CYUL 311500Z 36004KT 30SM SKC M11/M16 A3050 RMK SLP330=
CYUL;2005-01-31 16:00;METAR CYUL 311600Z 02003KT 15SM SKC M10/M16 A3049 RMK SLP329=
CYUL;2005-01-31 17:00;METAR CYUL 311700Z 36004KT 15SM SKC M09/M15 A3048 RMK SLP324=
CYUL;2005-01-31 18:00;METAR CYUL 311800Z 00000KT 15SM SKC M08/M15 A3047 RMK SLP320=
CYUL;2005-01-31 21:00;METAR CYUL 312100Z 00000KT 15SM SKC M05/M13 A3043 RMK SLP309=
CYUL;2005-01-31 22:00;METAR CYUL 312200Z 22005KT 15SM SKC M07/M13 A3043 RMK SLP308=
CYUL;2005-02-01 00:00;METAR CYUL 010000Z 24003KT 15SM SKC M10/M14 A3043 RMK SLP310=
CYUL;2005-02-01 02:00;METAR CYUL 010200Z 00000KT 15SM SKC M11/M14 A3042 RMK SLP306=
CYUL;2005-02-01 03:00;METAR CYUL 010300Z 23002KT 15SM SKC M12/M15 A3042 RMK SLP304=
CYUL;2005-02-01 04:00;METAR CYUL 010400Z 22002KT 15SM FEW240 M12/M15 A3042 RMK CI0 SLP303=
CYUL;2005-02-01 05:00;METAR CYUL 010500Z 00000KT 15SM FEW240 M12/M15 A3041 RMK CI0 SLP301=
CYUL;2005-02-01 06:00;METAR CYUL 010600Z 26002KT 15SM FEW240 M14/M16 A3040 RMK CI0 SLP299=
CYUL;2005-02-01 09:00;METAR CYUL 010900Z 00000KT 6SM BR BKN240 M15/M16 A3039 RMK CI1 SLP294=
CYUL;2005-02-01 10:00;METAR CYUL 011000Z 36002KT 6SM BR SCT240 M15/M17 A3041 RMK CI0 SLP301=
CYUL;2005-02-01 11:00;METAR CYUL 011100Z 00000KT 8SM FEW240 M15/M17 A3043 RMK CI0 SLP306=
CYUL;2005-02-01 12:00;METAR CYUL 011200Z 21006KT 3SM BR FEW002 M14/M15 A3045 RMK ST1 SLP314=
CYUL;2005-02-01 13:00;METAR CYUL 011300Z 22006KT 4SM BR FEW002 M14/M15 A3045 RMK ST1 SLP316=
CYUL;2005-02-01 14:00;METAR CYUL 011400Z 00000KT 6SM BR FEW240 M14/M16 A3047 RMK CI1 SLP322=
CYUL;2005-02-01 15:00;METAR CYUL 011500Z 20005KT 6SM BR SKC M10/M14 A3047 RMK SLP320=
CYUL;2005-02-01 16:00;METAR CYUL 011600Z 18003KT 6SM BR SKC M09/M14 A3047 RMK SLP321=
CYUL;2005-02-01 17:00;METAR CYUL 011700Z 19002KT 6SM BR SKC M06/M13 A3046 RMK SLP318=
CYUL;2005-02-01 18:00;METAR CYUL 011800Z 22002KT 8SM FEW150 M05/M13 A3046 RMK AC1 SLP316=
CYUL;2005-02-01 21:00;METAR CYUL 012100Z 22006KT 8SM BKN045 M04/M12 A3048 RMK SC6 SLP323=
CYUL;2005-02-01 22:00;METAR CYUL 012200Z 22003KT 12SM BKN042 M04/M11 A3049 RMK SC7 SLP328=
CYUL;2005-02-01 23:00;METAR CYUL 012300Z 21004KT 15SM BKN042 M04/M10 A3051 RMK SC7 SLP333=
CYUL;2005-02-02 00:00;METAR CYUL 020000Z 21003KT 15SM OVC042 M03/M10 A3052 RMK SC8 SLP338=
CYUL;2005-02-02 03:00;METAR CYUL 020300Z 22002KT 15SM OVC040 M05/M08 A3055 RMK SC8 SLP347=
CYUL;2005-02-02 04:00;METAR CYUL 020400Z 23002KT 15SM OVC040 M04/M09 A3055 RMK SC8 SLP349=
CYUL;2005-02-02 06:00;METAR CYUL 020600Z 22003KT 15SM OVC040 M04/M08 A3056 RMK SC8 SLP352=
CYUL;2005-02-02 07:00;METAR CYUL 020700Z 22003KT 10SM OVC040 M05/M08 A3056 RMK SC8 SLP351=
CYUL;2005-02-02 08:00;METAR CYUL 020800Z 22004KT 10SM OVC040 M05/M09 A3056 RMK SC8 SLP352=
CYUL;2005-02-02 10:00;METAR CYUL 021000Z 00000KT 10SM OVC040 M06/M08 A3056 RMK SC8 SLP353=
CYUL;2005-02-02 11:00;METAR CYUL 021100Z 00000KT 10SM OVC040 M06/M08 A3058 RMK SC8 SLP357=
CYUL;2005-02-02 12:00;METAR CYUL 021200Z 00000KT 10SM BKN040 M06/M08 A3059 RMK SC7 SLP362=
CYUL;2005-02-02 13:00;METAR CYUL 021300Z 00000KT 10SM OVC040 M05/M08 A3060 RMK SC7 SLP366=
CYUL;2005-02-02 16:00;METAR CYUL 021600Z 35002KT 3SM HZ OVC039 M03/M07 A3061 RMK SC8 SLP367=
CYUL;2005-02-02 17:00;METAR CYUL 021700Z 35003KT 3SM HZ BKN038 OVC055 M03/M07 A3059 RMK SC7SC1 SLP361=
CYUL;2005-02-02 18:00;METAR CYUL 021800Z 03004KT 4SM HZ SCT041 M02/M07 A3056 RMK SC2 SLP353=
CYUL;2005-02-02 19:00;METAR CYUL 021900Z 03004KT 4SM HZ FEW040 FEW210 M01/M07 A3054 RMK SC1CI0 SLP344=
CYUL;2005-02-02 20:00;METAR CYUL 022000Z 02006KT 4SM HZ FEW040 FEW210 M01/M07 A3053 RMK CF1CI1 SLP340=
CYUL;2005-02-02 21:00;METAR CYUL 022100Z 03006KT 5SM HZ FEW210 M01/M06 A3051 RMK CI0 SLP334=
CYUL;2005-02-02 22:00;METAR CYUL 022200Z 04006KT 5SM HZ FEW130 FEW210 M01/M08 A3050 RMK AC1CI0 SLP332=
CYUL;2005-02-02 23:00;METAR CYUL 022300Z 04006KT 6SM HZ FEW130 M02/M08 A3050 RMK AC1 SLP331=
CYUL;2005-02-03 00:00;METAR CYUL 030000Z 03004KT 6SM HZ FEW210 M03/M08 A3050 RMK CI0 SLP332=
CYUL;2005-02-03 02:00;METAR CYUL 030200Z 05006KT 5SM HZ SKC M03/M08 A3048 RMK SLP323=
CYUL;2005-02-03 04:00;METAR CYUL 030400Z 36004KT 6SM HZ SKC M07/M10 A3044 RMK SLP311=
CYUL;2005-02-03 07:00;METAR CYUL 030700Z 01004KT 6SM HZ FEW150 M09/M11 A3040 RMK AC1 SLP296=
CYUL;2005-02-03 09:00;METAR CYUL 030900Z 36002KT 5SM HZ SCT240 M10/M12 A3035 RMK CI2 SLP281=
CYUL;2005-02-03 10:00;METAR CYUL 031000Z 06002KT 5SM BR BKN240 M09/M11 A3035 RMK CI2 SLP279=
CYUL;2005-02-03 12:00;METAR CYUL 031200Z 03007KT 4SM BR BKN220 M10/M11 A3033 RMK CI5 FROIN SLP273=
CYUL;2005-02-03 13:00;METAR CYUL 031300Z 04007KT 4SM BR FEW030 OVC210 M10/M11 A3033 RMK SC1CI6 SLP273=
CYUL;2005-02-03 15:00;METAR CYUL 031500Z 03005KT 3SM HZ FEW150 BKN180 BKN220 M07/M09 A3032 RMK AC2AC4CI1 SLP271=
CYUL;2005-02-03 16:00;METAR CYUL 031600Z 03004KT 3SM HZ FEW150 BKN170 OVC220 M05/M09 A3031 RMK AC1AC6CI1 SLP266=
CYUL;2005-02-03 17:00;METAR CYUL 031700Z 36005KT 3SM HZ BKN160 OVC220 M04/M08 A3029 RMK AC6CI2 SLP260=
CYUL;2005-02-03 18:00;METAR CYUL 031800Z 36004KT 4SM HZ BKN160 BKN210 OVC250 M03/M08 A3027 RMK AC5CI0CC1 SLP254=
CYUL;2005-02-03 19:00;METAR CYUL 031900Z 02005KT 4SM HZ BKN130 BKN160 OVC210 M02/M08 A3025 RMK AS2AC4CI1 SLP246=
CYUL;2005-02-03 22:00;METAR CYUL 032200Z 36004KT 4SM HZ BKN130 OVC180 M02/M07 A3024 RMK AS6AC2 SLP244=
CYUL;2005-02-03 23:00;METAR CYUL 032300Z 03006KT 3SM HZ BKN130 OVC180 M03/M08 A3024 RMK AS6AC2 SLP242=
CYUL;2005-02-04 00:00;METAR CYUL 040000Z 02005KT 4SM HZ BKN120 BKN160 OVC220 M03/M08 A3026 RMK AS5AC2CI1 SLP251=
CYUL;2005-02-04 02:00;METAR CYUL 040200Z 36005KT 4SM HZ BKN120 OVC210 M04/M08 A3029 RMK AS6CI2 SLP260=
CYUL;2005-02-04 04:00;METAR CYUL 040400Z 02003KT 6SM HZ BKN150 OVC210 M05/M09 A3030 RMK AS5CI1 SLP265=
CYUL;2005-02-04 08:00;METAR CYUL 040800Z 00000KT 8SM FEW210 M08/M11 A3030 RMK CI1 SLP265=
CYUL;2005-02-04 10:00;METAR CYUL 041000Z 34004KT 8SM FEW210 M08/M10 A3032 RMK CI1 SLP271=
CYUL;2005-02-04 12:00;METAR CYUL 041200Z 00000KT 5SM HZ FEW100 FEW210 M10/M12 A3035 RMK AC1CI1 SLP281=
CYUL;2005-02-04 13:00;METAR CYUL 041300Z 31003KT 5SM HZ FEW080 FEW210 M08/M11 A3038 RMK AC1CI1 SLP291=
CYUL;2005-02-04 14:00;METAR CYUL 041400Z 34002KT 6SM HZ FEW210 M06/M09 A3038 RMK CI1 SLP292=
CYUL;2005-02-04 15:00;METAR CYUL 041500Z 33003KT 5SM HZ FEW210 M04/M08 A3038 RMK CI1 SLP291=
CYUL;2005-02-04 16:00;METAR CYUL 041600Z 35002KT 5SM HZ FEW210 M02/M09 A3038 RMK CI1 SLP290=
CYUL;2005-02-04 17:00;METAR CYUL 041700Z 23002KT 5SM HZ FEW210 00/M08 A3037 RMK CI1 SLP286=
CYUL;2005-02-04 18:00;METAR CYUL 041800Z 24002KT 5SM HZ SKC 02/M08 A3035 RMK SLP281=
CYUL;2005-02-04 21:00;METAR CYUL 042100Z 22005KT 6SM HZ FEW230 02/M08 A3034 RMK CI1 SLP276=
CYUL;2005-02-04 22:00;METAR CYUL 042200Z 24004KT 6SM HZ FEW075 FEW230 01/M09 A3036 RMK AC1CI1 CC ASOCT SLP282=
CYUL;2005-02-05 00:00;METAR CYUL 050000Z 23006KT 6SM HZ FEW075 M01/M09 A3036 RMK AC1 SLP284=
CYUL;2005-02-05 02:00;METAR CYUL 050200Z 00000KT 6SM HZ SKC M03/M09 A3037 RMK SLP287=
CYUL;2005-02-05 03:00;METAR CYUL 050300Z 27002KT 8SM SKC M03/M09 A3037 RMK SLP288=
CYUL;2005-02-05 04:00;METAR CYUL 050400Z 21004KT 8SM SKC M04/M09 A3037 RMK SLP286=
CYUL;2005-02-05 05:00;METAR CYUL 050500Z 00000KT 8SM SKC M06/M09 A3037 RMK SLP288=
CYUL;2005-02-05 06:00;METAR CYUL 050600Z 22003KT 8SM SKC M06/M09 A3039 RMK SLP292=
CYUL;2005-02-05 09:00;METAR CYUL 050900Z 21005KT 8SM SKC M06/M09 A3041 RMK SLP301=
CYUL;2005-02-05 10:00;METAR CYUL 051000Z 21004KT 7SM SKC M07/M10 A3043 RMK SLP307=
CYUL;2005-02-05 12:00;METAR CYUL 051200Z 27004KT 5SM HZ FEW210 M07/M08 A3046 RMK CI1 SLP318=
CYUL;2005-02-05 13:00;METAR CYUL 051300Z 28002KT 5SM HZ FEW210 M06/M07 A3047 RMK CI0 SLP322=
CYUL;2005-02-05 14:00;METAR CYUL 051400Z 31003KT 5SM HZ FEW210 M05/M06 A3049 RMK CI1 SLP329=
CYUL;2005-02-05 16:00;METAR CYUL 051600Z 19002KT 4SM HZ FEW210 M01/M05 A3051 RMK CI1 SLP335=
CYUL;2005-02-05 17:00;METAR CYUL 051700Z 20002KT 5SM HZ FEW230 M00/M05 A3051 RMK CI1 SLP334=
CYUL;2005-02-05 18:00;METAR CYUL 051800Z 22004KT 5SM HZ FEW230 01/M04 A3050 RMK CI1 SLP330=
CYUL;2005-02-05 19:00;METAR CYUL 051900Z 22006KT 5SM HZ FEW210 01/M05 A3050 RMK CI1 SLP330=
CYUL;2005-02-05 21:00;METAR CYUL 052100Z 22006KT 5SM HZ FEW210 00/M05 A3050 RMK CI1 SLP330=
CYUL;2005-02-05 22:00;METAR CYUL 052200Z 22005KT 5SM HZ FEW210 M00/M05 A3050 RMK CI1 SLP332=
CYUL;2005-02-06 00:00;METAR CYUL 060000Z 27002KT 5SM HZ SKC M03/M06 A3051 RMK SLP335=
CYUL;2005-02-06 01:00;METAR CYUL 060100Z 13002KT 3SM BR SKC M03/M05 A3052 RMK SLP338=
CYUL;2005-02-06 02:00;METAR CYUL 060200Z 00000KT 3SM BR SKC M04/M06 A3053 RMK FROIN SLP341=
CYUL;2005-02-06 04:00;METAR CYUL 060400Z 07003KT 4SM BR SKC M04/M06 A3054 RMK SLP344=
CYUL;2005-02-06 05:00;METAR CYUL 060500Z 30002KT 4SM BR SKC M05/M07 A3054 RMK SLP344=
CYUL;2005-02-06 06:00;METAR CYUL 060600Z 36002KT 3SM BR SKC M06/M07 A3054 RMK SLP344=
CYUL;2005-02-06 07:00;METAR CYUL 060700Z 36002KT 3SM BR SKC M06/M07 A3055 RMK SLP348=
CYUL;2005-02-06 12:00;METAR CYUL 061200Z 07007KT 2 1/2SM BR FEW120 M04/M06 A3059 RMK AC2 SLP360=
CYUL;2005-02-06 13:00;METAR CYUL 061300Z 35003KT 2 1/4SM BR FEW150 BKN220 M06/M07 A3061 RMK AC2CI0 FROIN SLP367=
CYUL;2005-02-06 15:00;METAR CYUL 061500Z 05003KT 2SM HZ BKN240 M02/M04 A3060 RMK CI3 SLP366=
CYUL;2005-02-06 16:00;METAR CYUL 061600Z 03005KT 2 1/2SM HZ FEW240 M01/M04 A3059 RMK CI1 SLP363=
CYUL;2005-02-06 17:00;METAR CYUL 061700Z 04004KT 2 1/2SM HZ BKN240 02/M03 A3058 RMK CI2 SLP357=
CYUL;2005-02-06 19:00;METAR CYUL 061900Z 06003KT 3SM HZ SCT240 03/M03 A3054 RMK CI2 SLP343=
CYUL;2005-02-06 21:00;METAR CYUL 062100Z 02005KT 3SM HZ FEW180 OVC240 02/M03 A3053 RMK AC2CS2 SLP341=
CYUL;2005-02-06 22:00;METAR CYUL 062200Z 04005KT 3SM HZ BKN240 02/M03 A3051 RMK CI2 SLP333=
CYUL;2005-02-07 00:00;METAR CYUL 070000Z 36005KT 3SM HZ SKC M00/M03 A3049 RMK SLP329=
CYUL;2005-02-07 03:00;METAR CYUL 070300Z 03006KT 3SM HZ OVC240 M01/M04 A3043 RMK CI7 SLP306=
CYUL;2005-02-07 04:00;METAR CYUL 070400Z 03006KT 3SM HZ OVC240 M01/M04 A3041 RMK CS7 SLP299=
CYUL;2005-02-07 06:00;METAR CYUL 070600Z 02004KT 3SM HZ OVC240 M02/M04 A3036 RMK CS8 SLP284=
CYUL;2005-02-07 07:00;METAR CYUL 070700Z 03005KT 3SM HZ OVC220 M02/M05 A3036 RMK CS8 SLP282=
CYUL;2005-02-07 09:00;METAR CYUL 070900Z 03006KT 6SM HZ OVC210 M02/M05 A3033 RMK CS7 SLP274=
CYUL;2005-02-07 10:00;METAR CYUL 071000Z 01003KT 6SM HZ OVC210 M02/M05 A3034 RMK CS7 SLP276=
CYUL;2005-02-07 11:00;METAR CYUL 071100Z 00000KT 6SM HZ OVC190 M02/M05 A3032 RMK CS8 SLP270=
CYUL;2005-02-07 13:30;SPECI CYUL 071330Z 02002KT 2 1/2SM HZ BKN160 BKN180 RMK AC6CS1=
CYUL;2005-02-07 15:00;METAR CYUL 071500Z 00000KT 2 1/2SM HZ BKN170 OVC210 02/M03 A3030 RMK AC6CS1 SLP261=
CYUL;2005-02-07 16:00;METAR CYUL 071600Z 00000KT 5SM HZ BKN160 OVC210 03/M03 A3028 RMK AS6CS1 SLP256=
CYUL;2005-02-07 17:00;METAR CYUL 071700Z 00000KT 6SM HZ BKN160 OVC200 04/M02 A3026 RMK AC6CS2 SLP248=
CYUL;2005-02-07 21:00;METAR CYUL 072100Z 00000KT 10SM BKN130 OVC200 06/M03 A3019 RMK AC6CC1 SLP227=
CYUL;2005-02-07 22:00;METAR CYUL 072200Z 22002KT 8SM BKN120 OVC200 05/M03 A3019 RMK AC7CI1 SLP227=
CYUL;2005-02-07 23:00;METAR CYUL 072300Z 00000KT 8SM OVC120 04/M03 A3017 RMK AC8 SLP220=
CYUL;2005-02-08 00:00;METAR CYUL 080000Z 17002KT 8SM OVC120 04/M03 A3016 RMK AC8 SLP214=
CYUL;2005-02-08 02:00;METAR CYUL 080200Z 00000KT 10SM OVC085 03/M02 A3014 RMK AC8 SLP210=
CYUL;2005-02-08 03:00;METAR CYUL 080300Z 00000KT 10SM OVC090 03/M03 A3014 RMK AC8 SLP209=
CYUL;2005-02-08 04:00;METAR CYUL 080400Z 11003KT 15SM SCT090 BKN150 03/M02 A3011 RMK AC2AC2 SLP197=
CYUL;2005-02-08 06:00;METAR CYUL 080600Z 11003KT 15SM SCT060 OVC090 03/M01 A3007 RMK SC4AC4 SLP183=
CYUL;2005-02-08 08:00;METAR CYUL 080800Z 00000KT 15SM OVC070 02/M01 A3005 RMK AC8 SLP177=
CYUL;2005-02-08 09:00;METAR CYUL 080900Z 03004KT 15SM BKN070 OVC110 04/M02 A3003 RMK AC6AC2 SLP169=
CYUL;2005-02-08 10:00;METAR CYUL 081000Z 00000KT 15SM BKN070 OVC120 02/M01 A3003 RMK AC6AC2 SLP169=
CYUL;2005-02-08 11:00;METAR CYUL 081100Z 35004KT 15SM BKN052 OVC090 02/M01 A3002 RMK SC6AC2 SLP167=
CYUL;2005-02-08 11:23;SPECI CYUL 081123Z 02003KT 15SM -RA OVC050 RMK SC8=
CYUL;2005-02-08 12:00;METAR CYUL 081200Z 36003KT 6SM -RA OVC050 02/M01 A3002 RMK SC8 SLP166=
CYUL;2005-02-08 13:31;SPECI CYUL 081331Z 16004KT 4SM BR OVC022 RMK SC8=
CYUL;2005-02-08 14:00;METAR CYUL 081400Z 13002KT 6SM BR OVC020 02/00 A3002 RMK SC8 SLP167=
CYUL;2005-02-08 15:35;SPECI CYUL 081535Z 13006KT 6SM BR FEW007 OVC023 RMK ST1SC7=
CYUL;2005-02-08 16:00;METAR CYUL 081600Z 16002KT 3SM -RA BR FEW020 OVC025 03/02 A2999 RMK SC1SC7 SLP157=
CYUL;2005-02-08 17:36;SPECI CYUL 081736Z 15005KT 2SM -DZ BR OVC018 RMK SC8=
CYUL;2005-02-08 18:12;SPECI CYUL 081812Z 15005KT 1 1/2SM -DZ BR OVC013 RMK ST8=
CYUL;2005-02-08 18:21;SPECI CYUL 081821Z 15005KT 1 1/2SM -DZ BR BKN008 OVC018 RMK ST6SC2=
CYUL;2005-02-08 19:34;SPECI CYUL 081934Z 18003KT 1 1/2SM -SHRA BR OVC009 RMK SC8=
CYUL;2005-02-08 20:00;METAR CYUL 082000Z 20006KT 1 1/2SM -DZ BR OVC009 03/03 A2992 RMK ST8 SLP135=
CYUL;2005-02-08 20:16;SPECI CYUL 082016Z 20006KT 1 1/2SM -RA BR OVC008 RMK ST8=
CYUL;2005-02-08 20:31;SPECI CYUL 082031Z 21006KT 1 1/4SM R24L/P6000FT/U R24R/4000V6000FT/D -RA BR FEW003 OVC008 RMK SF2ST6=
CYUL;2005-02-08 20:48;SPECI CYUL 082048Z 21005KT 1 1/4SM R24L/P6000FT/N R24R/4500FT/N -RA BR OVC003 RMK ST8=
CYUL;2005-02-08 21:00;METAR CYUL 082100Z 21005KT 1SM R24L/P6000FT/U R24R/4500FT/D -RA BR OVC003 03/03 A2993 RMK ST8 SLP137=
CYUL;2005-02-08 21:46;SPECI CYUL 082146Z 22005KT 1SM R24L/6000FT/D R24R/4500FT/D -RA BR OVC002 RMK ST8=
CYUL;2005-02-08 22:00;METAR CYUL 082200Z 20006KT 1SM R24L/P6000FT/U R24R/3000VP6000FT/U -RA BR OVC002 02/02 A2993 RMK ST8 SLP137=
CYUL;2005-02-08 22:39;SPECI CYUL 082239Z 23005KT 3/4SM R24L/3000V5500FT/D R24R/2800V4000FT/D -DZ BR BKN002 OVC008 RMK ST6ST2=
CYUL;2005-02-08 22:54;SPECI CYUL 082254Z 22005KT 1 1/2SM R24L/3000VP6000FT/N R24R/2200FT/N -DZ BR SCT006 OVC035 RMK SF3SC5=
CYUL;2005-02-08 23:25;SPECI CYUL 082325Z 22005KT 1 1/4SM R24L/2800V4500FT/U R24R/2000V5000FT/U BR BKN005 OVC035 RMK ST7SC1=
CYUL;2005-02-09 00:00;METAR CYUL 090000Z 28003KT 1 3/4SM BR OVC006 02/02 A2995 RMK ST8 SLP142=
CYUL;2005-02-09 01:33;SPECI CYUL 090133Z 26007KT 2 1/2SM -DZ BR BKN003 OVC035 RMK ST6SC2=
CYUL;2005-02-09 01:49;SPECI CYUL 090149Z 26006KT 2 1/4SM -DZ BR FEW003 OVC035 RMK SF2SC6=
CYUL;2005-02-09 02:46;SPECI CYUL 090246Z 24005KT 2 1/2SM -DZ BR BKN005 OVC022 RMK ST6SC2=
CYUL;2005-02-09 03:00;METAR CYUL 090300Z 23005KT 2 1/2SM -DZ BR BKN005 OVC022 02/02 A2995 RMK ST6SC2 SLP145=
CYUL;2005-02-09 03:12;SPECI CYUL 090312Z 23005KT 2 1/2SM -DZ BR BKN004 OVC022 RMK ST6SC2=
CYUL;2005-02-09 05:00;METAR CYUL 090500Z 27008KT 2 1/2SM BR BKN005 OVC010 02/02 A2996 RMK ST6ST2 SLP146=
CYUL;2005-02-09 06:00;METAR CYUL 090600Z 27007KT 3SM BR BKN004 OVC010 02/01 A2996 RMK ST6ST2 SLP146=
CYUL;2005-02-09 06:49;SPECI CYUL 090649Z 26009KT 3SM BR BKN006 OVC012 RMK ST5ST3=
CYUL;2005-02-09 07:00;METAR CYUL 090700Z 26009KT 3SM BR FEW006 BKN010 OVC030 02/01 A2997 RMK SF2ST3SC2 SLP149=
CYUL;2005-02-09 08:00;METAR CYUL 090800Z 26010KT 15SM FEW007 BKN010 OVC030 01/00 A2997 RMK SF2ST4SC2 SLP151=
CYUL;2005-02-09 08:20;SPECI CYUL 090820Z 27009KT 15SM FEW007 BKN013 OVC035 RMK SF1ST6SC2=
CYUL;2005-02-09 09:00;METAR CYUL 090900Z 27010KT 15SM FEW007 SCT030 OVC050 01/M01 A2998 RMK SF1ST4SC4 SLP153=
CYUL;2005-02-09 10:00;METAR CYUL 091000Z 26009KT 15SM FEW011 OVC055 00/M01 A2998 RMK SF1SC8 SLP155=
CYUL;2005-02-09 11:00;METAR CYUL 091100Z 26007KT 15SM FEW011 OVC055 00/M02 A2998 RMK SF1SC8 SLP155=
CYUL;2005-02-09 12:00;METAR CYUL 091200Z 27007KT 15SM OVC020 M00/M02 A3000 RMK SC8 SLP160=
CYUL;2005-02-09 13:00;METAR CYUL 091300Z 26007KT 15SM FEW011 OVC018 M00/M02 A3001 RMK SF1SC8 SLP164=
CYUL;2005-02-09 13:22;SPECI CYUL 091322Z 26007KT 15SM -SN FEW011 OVC018 RMK SF1SC8=
CYUL;2005-02-09 15:00;METAR CYUL 091500Z 29008KT 5SM -SN OVC019 M01/M03 A3002 RMK SC8 SLP167=
CYUL;2005-02-09 15:38;SPECI CYUL 091538Z 28004KT 4SM -SN BKN009 OVC015 RMK SC5SC3=
CYUL;2005-02-09 16:00;METAR CYUL 091600Z 26003KT 6SM -SN OVC008 M01/M03 A3002 RMK SC8 SLP169=
CYUL;2005-02-09 17:00;METAR CYUL 091700Z 31004KT 12SM -SN BKN010 OVC017 M01/M03 A3000 RMK SC6SC2 SLP162=
CYUL;2005-02-09 17:12;SPECI CYUL 091712Z 30003KT 15SM -SN SCT010 OVC018 RMK SC3SC5=
CYUL;2005-02-09 18:00;METAR CYUL 091800Z 29002KT 15SM -SN SCT015 OVC020 M01/M03 A2999 RMK SC3SC5 SLP159=
CYUL;2005-02-09 18:52;SPECI CYUL 091852Z 36005KT 15SM SCT013 OVC022 RMK SC3SC5=
CYUL;2005-02-09 21:00;METAR CYUL 092100Z 20005KT 15SM FEW015 OVC030 M01/M03 A2997 RMK SC1SC7 SLP150=
CYUL;2005-02-09 22:00;METAR CYUL 092200Z 00000KT 15SM FEW030 OVC045 M01/M04 A2996 RMK SC2SC6 SLP149=
CYUL;2005-02-09 23:00;METAR CYUL 092300Z 00000KT 15SM FEW030 OVC045 M01/M03 A2995 RMK SC1SC7 SLP146=
CYUL;2005-02-10 00:00;METAR CYUL 100000Z 07007KT 15SM OVC045 M00/M07 A2995 RMK SC8 SLP143=
CYUL;2005-02-10 01:00;METAR CYUL 100100Z 06009KT 15SM OVC045 M00/M07 A2992 RMK SC8 SLP133=
CYUL;2005-02-10 02:38;SPECI CYUL 100238Z 05013KT 15SM -SN FEW050 OVC060 RMK SC1SC7=
CYUL;2005-02-10 04:00;METAR CYUL 100400Z 04017KT 15SM -SN FEW048 BKN058 OVC080 M02/M08 A2989 RMK SC2SC3AC2 SLP124=
CYUL;2005-02-10 04:50;SPECI CYUL 100450Z 03016KT 2SM -SN DRSN VV012 RMK SN8=
CYUL;2005-02-10 05:00;METAR CYUL 100500Z 04014G19KT 1 1/4SM -SN DRSN BKN009 OVC018 M03/M07 A2987 RMK SN6SF1SC1 SLP118=
CYUL;2005-02-10 06:00;METAR CYUL 100600Z 04013G20KT 1SM -SN DRSN BKN010 OVC020 M04/M06 A2984 RMK SN5SF2SC2 /S01/ SLP108=
CYUL;2005-02-10 06:24;SPECI CYUL 100624Z 04017KT 2SM -SN DRSN BKN014 OVC024 RMK SN3SF3SC2=
CYUL;2005-02-10 06:47;SPECI CYUL 100647Z 04017KT 2SM -SN DRSN BKN008 OVC019 RMK SN5SF2SC1 VSBY VRBL 1-3=
CYUL;2005-02-10 07:00;METAR CYUL 100700Z 03016G21KT 2SM -SN DRSN BR BKN008 OVC019 M05/M06 A2982 RMK SN5SF2SC1 VSBY VRBL 1-3 SLP101=
CYUL;2005-02-10 08:00;METAR CYUL 100800Z 04018KT 1 3/4SM -SN DRSN BR BKN010 OVC022 M05/M07 A2979 RMK SN2SF6SC1 /S01/ SLP092=
CYUL;2005-02-10 09:00;METAR CYUL 100900Z 04017KT 2SM -SN DRSN BR BKN011 OVC022 M05/M07 A2976 RMK SN2SF5SC2 SLP082=
CYUL;2005-02-10 10:00;METAR CYUL 101000Z 03019G24KT 2SM -SN DRSN BR BKN012 OVC024 M05/M07 A2974 RMK SF5SC3 SLP075=
CYUL;2005-02-10 10:36;SPECI CYUL 101036Z 03018G26KT 2SM -SN BLSN BR SCT013 OVC025 RMK SF3SC5=
CYUL;2005-02-10 11:00;METAR CYUL 101100Z 03022G28KT 1 1/2SM -SN BLSN BR BKN013 OVC025 M06/M07 A2973 RMK SN2SF3SC3 /S02/ SLP070=
CYUL;2005-02-10 11:38;SPECI CYUL 101138Z 03021G28KT 1SM R06L/P6000FT/U R06R/4500V6000FT/D -SN BLSN BR SCT011 OVC025 RMK SN2SF2SC4=
CYUL;2005-02-10 11:49;SPECI CYUL 101149Z 03023G28KT 1 3/4SM -SN BLSN SCT012 OVC023 RMK SN2SF2SC4=
CYUL;2005-02-10 12:00;METAR CYUL 101200Z 03023G28KT 1 1/4SM -SN BLSN SCT010 OVC020 M06/M07 A2972 RMK SN2SF2SC4 SLP068=
CYUL;2005-02-10 12:47;SPECI CYUL 101247Z 03019G26KT 1SM R06L/P6000FT/D R06R/P6000FT/D -SN BLSN SCT010 OVC020 RMK SN2SF2SC4=
CYUL;2005-02-10 13:00;METAR CYUL 101300Z 04021G28KT 1SM R06L/P6000FT/D R06R/P6000FT/U -SN BLSN BR SCT011 OVC020 M06/M07 A2971 RMK SN2SF2SC4 SLP065=
CYUL;2005-02-10 13:05;SPECI CYUL 101305Z 03021G28KT 1 1/2SM -SN BLSN BR SCT011 OVC020 RMK SN1SF3SC4=
CYUL;2005-02-10 13:08;SPECI CYUL 101308Z 03026KT 2SM -SN BLSN BR SCT012 OVC021 RMK SN1SF3SC4=
CYUL;2005-02-10 13:17;SPECI CYUL 101317Z 04025G30KT 1 1/4SM -SN BLSN BR SCT010 OVC023 RMK SN2SF2SC4=
CYUL;2005-02-10 15:30;SPECI CYUL 101530Z 03022G29KT 3/4SM R06L/P6000FT/D R06R/6000FT/D -SN BLSN SCT010 OVC024 RMK SN2SF2SC4=
CYUL;2005-02-10 15:47;SPECI CYUL 101547Z 03018G27KT 1SM R06L/P6000FT/U R06R/P6000FT/U -SN BLSN SCT010 OVC024 RMK SN2SF2SC4 VSBY VRBL 3/4-11/4=
CYUL;2005-02-10 16:00;METAR CYUL 101600Z 03019G25KT 3/4SM R06L/P6000FT/D R06R/5000FT/D -SN BLSN BKN011 OVC022 M06/M07 A2970 RMK SN3SF3SC2 /S02/ SLP061=
CYUL;2005-02-10 17:40;SPECI CYUL 101740Z 02021G27KT 1SM R06L/P6000FT/D R06R/P6000FT/U -SN BLSN BKN012 OVC023 RMK SN2SF3SC3=
CYUL;2005-02-10 18:00;METAR CYUL 101800Z 03021G28KT 5/8SM R06L/4500VP6000FT/D R06R/5500FT/D -SN BLSN VV010 M06/M07 A2968 RMK SN8 SLP052=
CYUL;2005-02-10 18:43;SPECI CYUL 101843Z 03020G26KT 3/4SM R06L/4500FT/U R06R/3000V5000FT/N -SN BLSN VV009 RMK SN8=
CYUL;2005-02-10 19:35;SPECI CYUL 101935Z 03018G25KT 3/4SM R06L/6000FT/U R06R/3500V5500FT/D -SN BLSN VV010 RMK SN8=
CYUL;2005-02-10 20:00;METAR CYUL 102000Z 03018G24KT 3/4SM R06L/P6000FT/D R06R/5000FT/D -SN BLSN VV010 M05/M07 A2968 RMK SN8 SLP053=
CYUL;2005-02-10 20:45;SPECI CYUL 102045Z 02018G24KT 1SM R06L/P6000FT/U R06R/4500VP6000FT/U -SN BLSN VV012 RMK SN8=
CYUL;2005-02-10 21:15;SPECI CYUL 102115Z 02014KT 1 1/2SM -SN DRSN SCT012 OVC018 RMK SN1SF2SC5=
CYUL;2005-02-10 21:35;SPECI CYUL 102135Z 01016KT 1SM R06L/P6000FT/D R06R/P6000FT/D -SN DRSN BKN013 OVC022 RMK SN2SF5SC2=
CYUL;2005-02-10 21:50;SPECI CYUL 102150Z 02014KT 3/4SM R06L/P6000FT/N R06R/4500VP6000FT/D -SN DRSN VV010 RMK SN8=
CYUL;2005-02-10 22:00;METAR CYUL 102200Z 02014KT 3/4SM R06L/P6000FT/D R06R/5500FT/D -SN DRSN VV008 M05/M06 A2972 RMK SN8 SLP067=
CYUL;2005-02-10 22:30;SPECI CYUL 102230Z 02013G20KT 1SM R06L/P6000FT/U R06R/P6000FT/U -SN=
CYUL;2005-02-10 23:00;METAR CYUL 102300Z 02016G24KT 1SM R06L/P6000FT/U R06R/4500VP6000FT/D -SN=
CYUL;2005-02-10 23:20;SPECI CYUL 102320Z 02011G18KT 1 1/4SM -SN DRSN VV011 RMK SN8=
CYUL;2005-02-10 23:42;SPECI CYUL 102342Z 02012G17KT 1 1/2SM -SN DRSN FEW010 BKN014 OVC025 RMK SF1SC6SC2=
CYUL;2005-02-11 00:47;SPECI CYUL 110047Z 01006KT 3SM -SN DRSN FEW010 BKN020 OVC030 RMK SF1SC6SC2=
CYUL;2005-02-11 01:30;SPECI CYUL 110130Z 36005KT 15SM FEW025 BKN073 OVC100 RMK SC2AC4AC2=
CYUL;2005-02-11 02:00;METAR CYUL 110200Z 36015G21KT 15SM -SN FEW025 BKN075 BKN100 M04/M10 A2974 RMK SC1AC5AC2 SLP072=
CYUL;2005-02-11 02:20;SPECI CYUL 110220Z 36013G19KT 15SM FEW015 FEW075 BKN095 RMK SC1AC2AC5=
CYUL;2005-02-11 04:00;METAR CYUL 110400Z 35010KT 15SM FEW075 FEW095 SCT240 M06/M13 A2972 RMK AC1AC1CI2 SLP066=
CYUL;2005-02-11 05:00;METAR CYUL 110500Z 33007KT 15SM FEW075 FEW220 M08/M13 A2973 RMK AC1CI1 SLP070=
CYUL;2005-02-11 09:00;METAR CYUL 110900Z 31007KT 15SM FEW240 M10/M15 A2969 RMK CI0 SLP058=
CYUL;2005-02-11 10:00;METAR CYUL 111000Z 28006KT 15SM SCT240 M10/M16 A2970 RMK CI1 SLP059=
CYUL;2005-02-11 11:00;METAR CYUL 111100Z 27007KT 15SM FEW100 FEW240 M11/M16 A2969 RMK AC1CI0 SLP057=
CYUL;2005-02-11 12:00;METAR CYUL 111200Z 26008KT 30SM FEW090 FEW210 FEW240 M11/M16 A2968 RMK AC1CI0CI0 SLP052=
CYUL;2005-02-11 13:00;METAR CYUL 111300Z 26005KT 30SM FEW080 FEW200 FEW240 M11/M16 A2968 RMK AC1CI0CI0 SLP052=
CYUL;2005-02-11 14:00;METAR CYUL 111400Z 22009KT 30SM FEW080 FEW220 M09/M15 A2966 RMK AC1CI0 SLP048=
CYUL;2005-02-11 15:00;METAR CYUL 111500Z 24008KT 30SM FEW080 FEW220 M07/M13 A2965 RMK AC1CI0 SLP042=
CYUL;2005-02-11 16:00;METAR CYUL 111600Z 23007KT 30SM FEW090 FEW220 M05/M12 A2963 RMK AC1CI1 SLP037=
CYUL;2005-02-11 18:00;METAR CYUL 111800Z 27009KT 30SM FEW090 FEW220 M00/M12 A2956 RMK AC1CI2 SLP012=
CYUL;2005-02-11 19:00;METAR CYUL 111900Z 29015KT 30SM FEW220 M00/M11 A2953 RMK CI1 SLP003=
CYUL;2005-02-11 21:00;METAR CYUL 112100Z 30018G24KT 30SM DRSN FEW100 FEW240 M01/M12 A2953 RMK AC1CI1 SLP002=
CYUL;2005-02-11 22:00;METAR CYUL 112200Z 29015KT 30SM DRSN FEW100 FEW240 M01/M13 A2953 RMK AC1CI1 SLP001=
CYUL;2005-02-11 23:00;METAR CYUL 112300Z 27014KT 15SM DRSN FEW100 FEW240 M03/M12 A2955 RMK AC1CI1 SLP007=
CYUL;2005-02-12 00:00;METAR CYUL 120000Z 27015G21KT 15SM DRSN SKC M04/M12 A2957 RMK SLP016=
CYUL;2005-02-12 01:00;METAR CYUL 120100Z 27015KT 15SM DRSN FEW240 M05/M12 A2957 RMK CI1 SLP016=
CYUL;2005-02-12 03:00;METAR CYUL 120300Z 27009KT 15SM SKC M06/M13 A2955 RMK SLP008=
CYUL;2005-02-12 04:00;METAR CYUL 120400Z 26010KT 15SM FEW240 M06/M13 A2954 RMK CI1 SLP006=
CYUL;2005-02-12 05:00;METAR CYUL 120500Z 26012KT 15SM FEW240 M07/M13 A2953 RMK CI1 SLP004=
CYUL;2005-02-12 06:00;METAR CYUL 120600Z 27009KT 15SM FEW220 M07/M13 A2952 RMK CI1 SLP999=
CYUL;2005-02-12 07:00;METAR CYUL 120700Z 21006KT 15SM FEW030 FEW090 SCT120 BKN220 M07/M13 A2952 RMK SC1AC2AC2CI1 SLP999=
CYUL;2005-02-12 09:00;METAR CYUL 120900Z 25012KT 15SM FEW032 BKN086 OVC120 M06/M10 A2951 RMK SC2AC5AC1 SLP994=
CYUL;2005-02-12 10:25;SPECI CYUL 121025Z 25008KT 15SM -SN BKN043 BKN092 OVC120 RMK SC6AC2AC1=
CYUL;2005-02-12 11:00;METAR CYUL 121100Z 24009KT 6SM -SN BKN031 OVC046 M05/M08 A2952 RMK SC6SC2 SLP997=
CYUL;2005-02-12 12:00;METAR CYUL 121200Z 26010KT 5SM -SN BR FEW012 BKN028 OVC048 M05/M06 A2952 RMK SF1SC6SC1 SLP997=
CYUL;2005-02-12 12:28;SPECI CYUL 121228Z 24012KT 12SM -SN DRSN FEW016 SCT030 BKN050 OVC070 RMK SF2SC2SC4AC1 -SN INTMT=
CYUL;2005-02-12 13:00;METAR CYUL 121300Z 26010KT 15SM FEW015 BKN040 OVC052 M04/M06 A2951 RMK SF2SC6SC1 SLP994=
CYUL;2005-02-12 14:00;METAR CYUL 121400Z 25009KT 15SM FEW016 BKN036 OVC080 M04/M06 A2951 RMK SF1SC6AS2 SLP995=
CYUL;2005-02-12 14:42;SPECI CYUL 121442Z 24007KT 15SM BKN013 OVC050 RMK SC6SC2=
CYUL;2005-02-12 15:00;METAR CYUL 121500Z 25007KT 15SM BKN014 OVC030 M03/M05 A2951 RMK SC6SC2 SLP995=
CYUL;2005-02-12 15:24;SPECI CYUL 121524Z 27013KT 15SM -SHSN BKN017 BKN050 OVC090 RMK SC5SC1AS2 PCPN VRY LGT=
CYUL;2005-02-12 16:00;METAR CYUL 121600Z 27014KT 15SM -SHSN SCT017 BKN030 BKN070 BKN240 M02/M06 A2951 RMK SC3SC2AC1CI1 CF ASOCT SLP994=
CYUL;2005-02-12 16:25;SPECI CYUL 121625Z 27013G18KT 15SM FEW017 BKN045 BKN100 BKN240 RMK CF2SC2AS2CI1=
CYUL;2005-02-12 17:00;METAR CYUL 121700Z 27017KT 15SM SCT020 BKN045 BKN210 M01/M06 A2951 RMK SC4SC2CI1 CF ASOCT SLP994=
CYUL;2005-02-12 18:00;METAR CYUL 121800Z 27016KT 15SM BKN028 BKN090 BKN240 M00/M06 A2951 RMK SC6AC1CI0 SLP994=
CYUL;2005-02-12 21:00;METAR CYUL 122100Z 27012KT 15SM FEW030 OVC093 00/M06 A2956 RMK SC2AC5 CU ASOCT SLP012=
CYUL;2005-02-12 22:00;METAR CYUL 122200Z 26011KT 15SM FEW030 BKN095 BKN210 M00/M06 A2958 RMK SC1AC6CI0 CU ASOCT SLP017=
CYUL;2005-02-13 00:00;METAR CYUL 130000Z 30004KT 15SM -SHSN BKN028 BKN095 M01/M05 A2964 RMK SC6AC2 PCPN VRY LGT SLP040=
CYUL;2005-02-13 00:25;SPECI CYUL 130025Z 32006KT 2SM R24L/P6000FT/D R24R/4500VP6000FT/D -SN BKN013 BKN030 RMK SN3SC3SC1 VIS W 4=
CYUL;2005-02-13 00:30;SPECI CYUL 130030Z 29004KT 6SM R24L/P6000FT/U R24R/4500VP6000FT/U -SN FEW013 SCT030 BKN100 RMK SC2SC2AC2=
CYUL;2005-02-13 03:00;METAR CYUL 130300Z 30006KT 15SM BKN062 OVC100 M02/M06 A2972 RMK SC5AC2 SLP068=
CYUL;2005-02-13 04:00;METAR CYUL 130400Z 30005KT 15SM BKN060 OVC110 M03/M06 A2975 RMK SC5AC2 SLP078=
CYUL;2005-02-13 05:00;METAR CYUL 130500Z 32007KT 15SM OVC050 M03/M06 A2978 RMK SC8 SLP088=
CYUL;2005-02-13 05:34;SPECI CYUL 130534Z 31009KT 15SM -SN OVC050 RMK SC8=
CYUL;2005-02-13 07:00;METAR CYUL 130700Z 33009KT 4SM -SN OVC025 M05/M07 A2987 RMK SC8 SLP118=
CYUL;2005-02-13 08:00;METAR CYUL 130800Z 02009KT 2 1/2SM R06L/6000FT/U R06R/4000V6000FT/U -SN BKN010 OVC025 M07/M09 A2992 RMK ST6SC2 SLP134=
CYUL;2005-02-13 08:47;SPECI CYUL 130847Z 36009KT 6SM -SN BKN030 OVC060 RMK SC5SC3=
CYUL;2005-02-13 10:00;METAR CYUL 131000Z 33012KT 15SM OVC050 M09/M14 A3003 RMK SC6 PRESRR SLP172=
CYUL;2005-02-13 12:00;METAR CYUL 131200Z 33005KT 15SM SCT060 M12/M17 A3012 RMK SC3 SLP204=
CYUL;2005-02-13 13:00;METAR CYUL 131300Z 32005KT 15SM FEW050 M12/M17 A3017 RMK SC1 SLP220=
CYUL;2005-02-13 14:00;METAR CYUL 131400Z 33004KT 15SM FEW050 M11/M16 A3020 RMK SC1 SLP230=
CYUL;2005-02-13 15:00;METAR CYUL 131500Z 29004KT 30SM FEW120 M10/M16 A3024 RMK AC1 SLP245=
CYUL;2005-02-13 16:00;METAR CYUL 131600Z 31004KT 30SM FEW120 M10/M16 A3026 RMK AC1 SLP251=
CYUL;2005-02-13 17:00;METAR CYUL 131700Z 27005KT 30SM FEW040 M09/M17 A3027 RMK SC1 SLP253=
CYUL;2005-02-13 19:00;METAR CYUL 131900Z 24007KT 30SM FEW240 M08/M15 A3028 RMK CI1 SLP256=
CYUL;2005-02-13 21:00;METAR CYUL 132100Z 22011KT 30SM FEW240 M08/M15 A3033 RMK CI1 SLP274=
CYUL;2005-02-13 22:00;METAR CYUL 132200Z 22008KT 30SM FEW240 M08/M16 A3034 RMK CI1 SLP277=
CYUL;2005-02-13 23:00;METAR CYUL 132300Z 23007KT 15SM FEW240 M09/M15 A3037 RMK CI1 SLP287=
CYUL;2005-02-14 00:00;METAR CYUL 140000Z 25004KT 15SM SKC M09/M16 A3039 RMK SLP293=
CYUL;2005-02-14 01:00;METAR CYUL 140100Z 23006KT 15SM SKC M10/M16 A3040 RMK SLP298=
CYUL;2005-02-14 02:00;METAR CYUL 140200Z 23003KT 15SM FEW240 M10/M16 A3040 RMK CI1 SLP296=
CYUL;2005-02-14 03:00;METAR CYUL 140300Z 23005KT 15SM FEW240 M10/M16 A3042 RMK CI1 SLP304=
CYUL;2005-02-14 04:00;METAR CYUL 140400Z 20005KT 15SM FEW240 M12/M15 A3043 RMK CI0 SLP309=
CYUL;2005-02-14 05:00;METAR CYUL 140500Z 15004KT 15SM SCT240 M12/M15 A3043 RMK CI0 SLP308=
CYUL;2005-02-14 06:00;METAR CYUL 140600Z 12004KT 15SM FEW240 M12/M16 A3042 RMK CI0 SLP305=
CYUL;2005-02-14 22:18;SPECI CYUL 142218Z 15019G26KT 2 1/2SM -SN DRSN OVC032 RMK SC8=
CYUL;2005-02-14 22:33;SPECI CYUL 142233Z 14022G28KT 6SM -SN DRSN OVC035 RMK SC8=
CYUL;2005-02-15 00:32;SPECI CYUL 150032Z 15019G28KT 6SM -SN DRSN FEW018 OVC040 RMK CF2SC6=
CYUL;2005-02-15 01:49;SPECI CYUL 150149Z 16019G26KT 4SM -SNPL DRSN BKN015 OVC040 RMK SC6SC2=
CYUL;2005-02-15 02:18;SPECI CYUL 150218Z 15018G24KT 6SM -SNPL DRSN FEW015 OVC050 RMK SC2SC6=
CYUL;2005-02-15 03:48;SPECI CYUL 150348Z 15020G26KT 15SM -RASN FEW015 OVC045 RMK SC2SC6=
CYUL;2005-02-15 04:37;SPECI CYUL 150437Z 15014KT 15SM -RA FEW018 OVC042 RMK SC2SC6=
CYUL;2005-02-15 05:48;SPECI CYUL 150548Z 15012KT 15SM -RAPL FEW018 OVC040 RMK SC2SC6=
CYUL;2005-02-15 09:00;METAR CYUL 150900Z 16016KT 15SM FEW015 OVC030 02/01 A2976 RMK SF1SC8 SLP080=
CYUL;2005-02-15 10:00;METAR CYUL 151000Z 18009KT 15SM OVC022 03/01 A2979 RMK SC8 SLP089=
CYUL;2005-02-15 10:15;SPECI CYUL 151015Z 20012KT 15SM -RA OVC020 RMK SC8=
CYUL;2005-02-15 11:35;SPECI CYUL 151135Z 22017G25KT 15SM -RA OVC016 RMK SC8=
CYUL;2005-02-15 12:00;METAR CYUL 151200Z 23017G22KT 15SM -RA OVC017 03/01 A2984 RMK SC8 SLP108=
CYUL;2005-02-15 13:00;METAR CYUL 151300Z 23022G30KT 15SM BKN020 OVC040 03/00 A2987 RMK SC6SC2 SLP118=
CYUL;2005-02-15 15:00;METAR CYUL 151500Z 24016G24KT 15SM FEW020 OVC035 03/M00 A2989 RMK CF1SC7 SLP124=
CYUL;2005-02-15 16:00;METAR CYUL 151600Z 24017KT 15SM FEW020 OVC035 04/M00 A2991 RMK CF2SC6 SLP130=
CYUL;2005-02-15 17:00;METAR CYUL 151700Z 23021KT 15SM SCT022 OVC035 04/M00 A2992 RMK SC3SC5 SLP132=
CYUL;2005-02-15 18:00;METAR CYUL 151800Z 22012KT 15SM FEW022 OVC030 03/M00 A2990 RMK CF2SC6 SLP127=
CYUL;2005-02-15 19:00;METAR CYUL 151900Z 21011KT 15SM FEW020 OVC026 03/00 A2990 RMK CF1SC7 SLP127=
CYUL;2005-02-15 20:00;METAR CYUL 152000Z 20006KT 15SM OVC025 03/00 A2992 RMK SC8 SLP133=
CYUL;2005-02-15 21:00;METAR CYUL 152100Z 20006KT 15SM OVC030 03/00 A2992 RMK SC8 SLP132=
CYUL;2005-02-15 22:00;METAR CYUL 152200Z 25002KT 15SM OVC035 04/00 A2993 RMK SC8 SLP137=
CYUL;2005-02-15 23:00;METAR CYUL 152300Z 20006KT 15SM BKN040 BKN090 03/00 A2993 RMK SC6AC2 SLP136=
CYUL;2005-02-16 00:00;METAR CYUL 160000Z 22004KT 15SM BKN030 04/00 A2995 RMK SC7 SLP142=
CYUL;2005-02-16 01:00;METAR CYUL 160100Z 19007KT 15SM BKN040 03/00 A2994 RMK SC7 SLP139=
CYUL;2005-02-16 03:00;METAR CYUL 160300Z 21008KT 12SM VCFG FEW040 FEW060 BKN120 03/02 A2991 RMK SC2SC1AC3 SLP129=
CYUL;2005-02-16 04:00;METAR CYUL 160400Z 18007KT 10SM VCFG FEW012 FEW040 SCT060 BKN090 OVC120 03/02 A2991 RMK SF1SC1SC2AC3AC2 SLP129=
CYUL;2005-02-16 05:00;METAR CYUL 160500Z 19005KT 12SM VCFG FEW012 FEW035 BKN078 OVC110 03/02 A2989 RMK SF1SC2AC4AC2 SLP123=
CYUL;2005-02-16 06:00;METAR CYUL 160600Z 22003KT 6SM -RA BR FEW010 BKN015 BKN032 OVC072 03/02 A2990 RMK SF1SC5SC2AC1 SLP126=
CYUL;2005-02-16 06:34;SPECI CYUL 160634Z 23003KT 3SM -RA BR FEW009 BKN015 OVC022 RMK SF2SF6SC1=
CYUL;2005-02-16 07:45;SPECI CYUL 160745Z 11002KT 2 1/2SM -RA BR FEW009 BKN014 BKN022 OVC034 RMK SF1SF6SC1SC1=
CYUL;2005-02-16 08:00;METAR CYUL 160800Z 13003KT 2SM -RA BR FEW010 BKN014 BKN022 OVC036 02/02 A2982 RMK SF1SF6SC1SC1 SLP101=
CYUL;2005-02-16 08:34;SPECI CYUL 160834Z 00000KT 1/2SM R24L/2600VP6000FT/D R24R/P6000FT/N -RA FG OVC003 RMK FG7SF1=
CYUL;2005-02-16 08:43;SPECI CYUL 160843Z 00000KT 1/4SM R24L/1600V2800FT/D R24R/P6000FT/D -RA FG VV001 RMK FG8=
CYUL;2005-02-16 08:47;SPECI CYUL 160847Z 00000KT 1/8SM R24L/1600V2600FT/U R24R/3500V6000FT/D -RA FG VV001 RMK FG8=
CYUL;2005-02-16 09:00;METAR CYUL 160900Z 00000KT 1/8SM R24L/3000V6000FT/N R24R/2800V5500FT/U -RA FG VV001 02/02 A2980 RMK FG8 SLP093=
CYUL;2005-02-16 09:04;SPECI CYUL 160904Z 00000KT 1/8SM R06L/1600V2200FT/N R06R/3500FT/N -RA FG VV002 RMK FG8=
CYUL;2005-02-16 09:11;SPECI CYUL 160911Z 00000KT 1/4SM R06L/1800FT/N R06R/3000V5000FT/U -RA FG VV002 RMK FG8=
CYUL;2005-02-16 09:23;SPECI CYUL 160923Z 02004KT 3/8SM R06L/2200FT/U R06R/3000V6000FT/U -RA FG BKN003 OVC011 RMK FG6SF1SF1=
CYUL;2005-02-16 09:29;SPECI CYUL 160929Z 01005KT 1/2SM R06L/2600FT/N R06R/4500V6000FT/U -RA FG BKN003 OVC015 RMK FG6SF1SF1=
CYUL;2005-02-16 09:33;SPECI CYUL 160933Z 01005KT 5/8SM R06L/2600V5000FT/U R06R/4500V6000FT/U -RA BR BKN003 OVC015 RMK FG6SF1SF1=
CYUL;2005-02-16 09:36;SPECI CYUL 160936Z 01005KT 3/4SM R06L/2800V5000FT/U R06R/6000FT/U -RA BR BKN004 OVC015 RMK FG5SF2SF1=
CYUL;2005-02-16 09:40;SPECI CYUL 160940Z 36005KT 1SM R06L/3500V6000FT/U R06R/6000FT/U -RA BR BKN005 OVC015 RMK FG4SF2SF2=
CYUL;2005-02-16 09:43;SPECI CYUL 160943Z 34005KT 1 3/4SM R06L/6000FT/U R06R/6000FT/U -RA BR BKN005 OVC017 RMK FG2SF5SF2=
CYUL;2005-02-16 09:47;SPECI CYUL 160947Z 34004KT 2SM -RA BR SCT005 OVC014 RMK FG2SF2SF4=
CYUL;2005-02-16 10:00;METAR CYUL 161000Z 36005KT 2SM -RA BR BKN009 OVC016 02/02 A2977 RMK FG2SF4SF2 SLP083=
CYUL;2005-02-16 10:18;SPECI CYUL 161018Z 34004KT 2SM BR OVC012 RMK FG2SF6=
CYUL;2005-02-16 10:27;SPECI CYUL 161027Z 36005KT 2SM -RA BR OVC013 RMK FG1SF7 -RA INTMT=
CYUL;2005-02-16 10:50;SPECI CYUL 161050Z 36007KT 2SM -RA BR BKN015 OVC021 RMK FG1SF6SC1 -RA INTMT=
CYUL;2005-02-16 11:12;SPECI CYUL 161112Z 02006KT 2SM BR FEW006 BKN017 OVC024 RMK FG1SF2SF5SC1 INTMT -RA=
CYUL;2005-02-16 11:45;SPECI CYUL 161145Z 01008KT 1 3/4SM BR FEW004 BKN016 OVC022 RMK FG1SF2SF5SC1 INTMT -RA=
CYUL;2005-02-16 12:00;METAR CYUL 161200Z 35004KT 1 3/4SM BR FEW004 BKN016 OVC022 02/02 A2973 RMK FG1SF2SF5SC1 INTMT -RA SLP068=
CYUL;2005-02-16 12:21;SPECI CYUL 161221Z 02010KT 1SM R06L/P6000FT/D R06R/P6000FT/D -RA BR SCT002 OVC014 RMK FG2SF2SF4 -RA INTMT=
CYUL;2005-02-16 12:43;SPECI CYUL 161243Z 34006KT 1SM R06L/P6000FT/N R06R/P6000FT/N -RA BR BKN004 OVC014 RMK FG2SF5SC2=
CYUL;2005-02-16 13:00;METAR CYUL 161300Z 34007KT 1SM R06L/P6000FT/D R06R/P6000FT/D -RA BR VV004 01/01 A2971 RMK FG8 SLP063=
CYUL;2005-02-16 13:11;SPECI CYUL 161311Z 34007KT 1SM R06L/P6000FT/D R06R/P6000FT/U -RASN BR VV004 RMK FG8=
CYUL;2005-02-16 13:21;SPECI CYUL 161321Z 35009KT 1SM R06L/P6000FT/D R06R/P6000FT/D -PLRASN BR BKN004 OVC010 RMK FG6SF2SF1=
CYUL;2005-02-16 13:27;SPECI CYUL 161327Z 35007KT 3/4SM R06L/P6000FT/N R06R/P6000FT/N -PLSN BR BKN004 OVC010 RMK FG6SF2SF1=
CYUL;2005-02-16 13:40;SPECI CYUL 161340Z 35008KT 1 1/4SM R06L/P6000FT/U R06R/P6000FT/U -PLSN BR BKN004 OVC010 RMK FG6SF2SF1=
CYUL;2005-02-16 13:47;SPECI CYUL 161347Z 01006KT 3/4SM R06L/P6000FT/D R06R/P6000FT/N -SHSN BR VV004 RMK SN8=
CYUL;2005-02-16 13:53;SPECI CYUL 161353Z 36006KT 1SM R06L/P6000FT/U R06R/P6000FT/N -SHSN BR BKN004 OVC010 RMK FG4SF3SF1 VSBY VRBL 3/4-11/4=
CYUL;2005-02-16 14:00;METAR CYUL 161400Z 36006KT 1SM R06L/P6000FT/U R06R/P6000FT/N -SHSN BR BKN004 OVC010 01/00 A2968 RMK FG3SF4SF1 VSBY VRBL 3/4-11/4 SLP053=
CYUL;2005-02-16 14:19;SPECI CYUL 161419Z 34006KT 1/2SM R06L/P6000FT/D R06R/P6000FT/D -SHSN FG VV003 RMK SN8=
CYUL;2005-02-16 14:45;SPECI CYUL 161445Z 34006KT 3/4SM R06L/P6000FT/U R06R/P6000FT/U -SN BR VV003 RMK SN8 VSBY VRBL 1/2-1=
CYUL;2005-02-16 15:00;METAR CYUL 161500Z 34007KT 1/2SM R06L/P6000FT/D R06R/5500FT/D -SN FG VV004 00/00 A2966 RMK SN8 /S01/ SLP046=
CYUL;2005-02-16 15:50;SPECI CYUL 161550Z 36007KT 3/4SM R06L/6000FT/U R06R/5500FT/U -SN BR VV003 RESN RMK SN8=
CYUL;2005-02-16 16:00;METAR CYUL 161600Z 36006KT 1SM R06L/P6000FT/U R06R/P6000FT/U -SN BR VV004 00/00 A2963 RESN RMK SN8 /S03/ SLP035=
CYUL;2005-02-16 16:23;SPECI CYUL 161623Z 32004KT 3/4SM R06L/6000FT/D R06R/6000FT/D -SN BR VV004 RMK SN8=
CYUL;2005-02-16 16:40;SPECI CYUL 161640Z 32005KT 5/8SM R06L/5000FT/D R06R/5000FT/D -SN BR VV004 RMK SN8=
CYUL;2005-02-16 17:00;METAR CYUL 161700Z 30005KT 5/8SM R06L/4500FT/N R06R/4000FT/N -SN BR VV003 00/00 A2963 RMK SN8 /S05/ SLP036=
CYUL;2005-02-16 18:00;METAR CYUL 161800Z 28006KT 5/8SM R06L/6000FT/D R06R/3500V5500FT/D -SN BR VV004 00/00 A2962 RMK SN8 /S06/ SLP032=
CYUL;2005-02-16 18:42;SPECI CYUL 161842Z 29006KT 3/4SM R24L/5000FT/N R24R/5000FT/N -SN BR VV004 RMK SN8=
CYUL;2005-02-16 19:00;METAR CYUL 161900Z 29007KT 1SM R24L/P6000FT/U R24R/6000FT/N -SN BR VV004 00/00 A2961 RMK SN8 /S02/ SLP030=
CYUL;2005-02-16 19:25;SPECI CYUL 161925Z 28008KT 1 1/4SM R24L/4000VP6000FT/D R24R/P6000FT/U -SN BR VV005 RMK SN8=
CYUL;2005-02-16 19:30;SPECI CYUL 161930Z 28008KT 1 1/2SM R24L/4000VP6000FT/U R24R/P6000FT/U -SN BR VV005 RMK SN8=
CYUL;2005-02-16 19:42;SPECI CYUL 161942Z 28009KT 3SM -SN BR OVC008 RMK SN3SF5=
CYUL;2005-02-16 19:50;SPECI CYUL 161950Z 28008KT 4SM -SN BR SCT005 BKN010 OVC015 RMK SF4SC3SC1=
CYUL;2005-02-16 20:25;SPECI CYUL 162025Z 27007KT 5SM -SN BR SCT005 BKN015 OVC025 RMK SF3SC3SC2=
CYUL;2005-02-16 20:31;SPECI CYUL 162031Z 27009KT 4SM -RASN BR SCT005 BKN011 OVC025 RMK SF3SF4SC1=
CYUL;2005-02-16 21:00;METAR CYUL 162100Z 28008KT 4SM -RASN BR BKN007 OVC014 01/00 A2966 RMK SF5SF3 SLP045=
CYUL;2005-02-16 21:38;SPECI CYUL 162138Z 31009KT 1 1/4SM -SN BR BKN007 OVC015 RMK SN3SF3SC2=
CYUL;2005-02-16 22:00;METAR CYUL 162200Z 31008KT 1 1/4SM -SN BR OVC011 00/M00 A2969 RMK SN5SF3 SLP056=
CYUL;2005-02-16 22:12;SPECI CYUL 162212Z 31010KT 1SM R24L/P6000FT/D R24R/P6000FT/D -SN BR VV009 RMK SN8=
CYUL;2005-02-16 22:27;SPECI CYUL 162227Z 31008KT 1 3/4SM -SN BR SCT007 BKN012 OVC020 RMK SF3SF3SC2=
CYUL;2005-02-17 00:00;METAR CYUL 170000Z 32010G17KT 3SM -SN BR FEW007 BKN018 OVC030 M01/M03 A2977 RMK SF2SC5SC2 SLP082=
CYUL;2005-02-17 01:00;METAR CYUL 170100Z 34006KT 3SM -SN FEW010 BKN020 OVC035 M02/M03 A2978 RMK SF2SC5SC2 SLP085=
CYUL;2005-02-17 02:00;METAR CYUL 170200Z 34010KT 5SM -SN FEW018 BKN032 BKN058 M02/M06 A2980 RMK SF2SC3SC2 SLP094=
CYUL;2005-02-17 03:40;SPECI CYUL 170340Z 29009KT 15SM FEW018 FEW035 FEW065 SCT110 RMK SF1SC1SC2AC1=
CYUL;2005-02-17 04:00;METAR CYUL 170400Z 30007KT 15SM FEW065 FEW110 M05/M08 A2983 RMK SC1AC1 SLP103=
CYUL;2005-02-17 06:00;METAR CYUL 170600Z 30005KT 15SM SKC M07/M10 A2984 RMK SLP106=
CYUL;2005-02-17 10:00;METAR CYUL 171000Z 29004KT 15SM SKC M10/M12 A2984 RMK SLP108=
CYUL;2005-02-17 12:00;METAR CYUL 171200Z 36002KT 30SM FEW025 FEW100 FEW220 M11/M13 A2988 RMK CF1AC1CI0 FROIN SLP121=
CYUL;2005-02-17 13:00;METAR CYUL 171300Z 35004KT 30SM FEW050 FEW140 FEW240 M10/M13 A2990 RMK CF1AC1CI1 SLP126=
CYUL;2005-02-17 14:00;METAR CYUL 171400Z 00000KT 30SM FEW240 M08/M12 A2989 RMK CI1 SLP125=
CYUL;2005-02-17 15:00;METAR CYUL 171500Z 00000KT 30SM FEW240 M07/M13 A2989 RMK CI1 SLP123=
CYUL;2005-02-17 16:00;METAR CYUL 171600Z 02004KT 30SM FEW020 FEW240 M06/M14 A2987 RMK CU1CI0 SLP117=
CYUL;2005-02-17 18:00;METAR CYUL 171800Z 02002KT 15SM FEW025 FEW240 M05/M12 A2983 RMK CU1CI1 SLP103=
CYUL;2005-02-17 21:00;METAR CYUL 172100Z 24003KT 15SM FEW025 FEW150 SCT210 M04/M11 A2981 RMK CU1AC1CI1 SLP098=
CYUL;2005-02-17 23:00;METAR CYUL 172300Z 16005KT 15SM FEW140 SCT210 M06/M10 A2983 RMK AC1CI2 SLP104=
CYUL;2005-02-18 00:00;METAR CYUL 180000Z 15007KT 15SM FEW120 SCT210 M06/M12 A2983 RMK AC1CI2 SLP105=
CYUL;2005-02-18 03:34;SPECI CYUL 180334Z 16005KT 15SM FEW024 FEW048 BKN075 BKN110 RMK SC1SC2AC2AC1=
CYUL;2005-02-18 04:00;METAR CYUL 180400Z 14006KT 15SM FEW045 OVC078 M07/M11 A2981 RMK SC2AC6 SLP096=
CYUL;2005-02-18 04:37;SPECI CYUL 180437Z 13003KT 15SM -SN FEW032 OVC080 RMK SC1AC7 -SN INTMT=
CYUL;2005-02-18 05:00;METAR CYUL 180500Z 10002KT 12SM -SN FEW028 OVC080 M07/M11 A2980 RMK SC2AC6 -SN INTMT SLP095=
CYUL;2005-02-18 06:00;METAR CYUL 180600Z 00000KT 5SM -SN FEW025 SCT055 OVC080 M07/M10 A2979 RMK SC2SC2AC5 -SN INTMT SLP092=
CYUL;2005-02-18 07:00;METAR CYUL 180700Z 07002KT 6SM -SN BKN025 BKN045 OVC080 M06/M11 A2979 RMK SC5SC2AC2 SLP092=
CYUL;2005-02-18 08:06;SPECI CYUL 180806Z 00000KT 2 1/4SM -SN FEW013 BKN020 OVC032 RMK SF2SC5SC1=
CYUL;2005-02-18 08:48;SPECI CYUL 180848Z 02004KT 1 1/4SM -SN VV013 RMK SN8=
CYUL;2005-02-18 09:16;SPECI CYUL 180916Z 02003KT 2SM -SN BR BKN018 OVC045 RMK SN2SF3SC3=
CYUL;2005-02-18 09:32;SPECI CYUL 180932Z 03004KT 3SM -SN BR FEW018 BKN025 BKN040 RMK SF2SC2SC2=
CYUL;2005-02-18 10:00;METAR CYUL 181000Z 01004KT 3SM -SN BR FEW018 SCT028 OVC050 M09/M10 A2979 RMK SF1SC3SC4 /S01/ SLP092=
CYUL;2005-02-18 10:21;SPECI CYUL 181021Z 36004KT 2SM -SN BR BKN027 OVC048 RMK SN2SC5SC2=
CYUL;2005-02-18 10:43;SPECI CYUL 181043Z 02004KT 1 3/4SM -SN BR VV008 RMK SN8=
CYUL;2005-02-18 10:47;SPECI CYUL 181047Z 02003KT 1SM -SN BR VV007 RMK SN8=
CYUL;2005-02-18 11:00;METAR CYUL 181100Z 01002KT 3/4SM R24L/P6000FT/D R24R/P6000FT/D -SN BR VV009 M09/M10 A2981 RMK SN8 FROIN SLP097=
CYUL;2005-02-18 11:04;SPECI CYUL 181104Z 00000KT 5/8SM R24L/5500FT/D R24R/P6000FT/D -SN BR VV006 RMK SN8=
CYUL;2005-02-18 11:06;SPECI CYUL 181106Z 00000KT 1/2SM R24L/5000FT/D R24R/P6000FT/D SN VV006 RMK SN8=
CYUL;2005-02-18 11:11;SPECI CYUL 181111Z 00000KT 3/8SM R24L/4500FT/D R24R/P6000FT/D SN VV005 RMK SN8=
CYUL;2005-02-18 11:24;SPECI CYUL 181124Z 27002KT 1/2SM R24L/4000FT/N R24R/P6000FT/D SN VV006 RMK SN8=
CYUL;2005-02-18 11:35;SPECI CYUL 181135Z 29002KT 5/8SM R24L/3500V5000FT/U R24R/4500V6000FT/D -SN VV010 RESN RMK SN8=
CYUL;2005-02-18 11:38;SPECI CYUL 181138Z 30002KT 3/4SM R24L/4000V6000FT/U R24R/P6000FT/D -SN VV010 RESN RMK SN8=
CYUL;2005-02-18 11:42;SPECI CYUL 181142Z 28002KT 1SM R24L/4500V6000FT/U R24R/P6000FT/D -SN VV013 RESN RMK SN8=
CYUL;2005-02-18 11:53;SPECI CYUL 181153Z 27002KT 1 1/4SM R24L/P6000FT/D R24R/4500V6000FT/U -SN OVC022 RESN RMK SN6SC2=
CYUL;2005-02-18 12:00;METAR CYUL 181200Z 27003KT 1 1/4SM R24L/5500FT/D R24R/P6000FT/U -SN OVC020 M09/M10 A2983 RESN RMK SN6SC2 /S03/ SLP103=
CYUL;2005-02-18 12:19;SPECI CYUL 181219Z 26003KT 1 1/2SM -SN OVC015 RMK SN4SC4=
CYUL;2005-02-18 12:43;SPECI CYUL 181243Z 26009KT 1 3/4SM -SN BR SCT010 OVC020 RMK SN2SF2SC4=
CYUL;2005-02-18 13:00;METAR CYUL 181300Z 25010KT 1 3/4SM R24L/P6000FT/N R24R/P6000FT/U -SHSN FEW011 OVC028 M08/M10 A2984 RMK SN1SF2SC6 SLP109=
CYUL;2005-02-18 13:14;SPECI CYUL 181314Z 25011KT 2SM -SHSN DRSN FEW012 BKN025 BKN150 BKN220 RMK SF1SC5AC1CI1 VSBY VRBL 1-3=
CYUL;2005-02-18 13:48;SPECI CYUL 181348Z 23012KT 4SM -SN DRSN SCT013 BKN023 OVC038 RMK SF3SC3SC1 CIG RAG=
CYUL;2005-02-18 14:00;METAR CYUL 181400Z 25013KT 8SM -SN DRSN FEW011 BKN025 BKN042 BKN130 M09/M12 A2986 RMK SF2SC3SC1AC1 CIG RAG SLP114=
CYUL;2005-02-18 14:38;SPECI CYUL 181438Z 23010KT 10SM -SN DRSN FEW010 BKN017 OVC058 RMK SF1SC6SC1=
CYUL;2005-02-18 16:00;METAR CYUL 181600Z 25013KT 4SM -SN DRSN FEW009 OVC014 M09/M11 A2990 RMK SF2SC6 SLP126=
CYUL;2005-02-18 16:06;SPECI CYUL 181606Z 24015KT 2 1/4SM -SN DRSN FEW009 OVC014 RMK SF2SC6=
CYUL;2005-02-18 16:16;SPECI CYUL 181616Z 25017KT 1SM R24L/P6000FT/N R24R/P6000FT/D -SN DRSN OVC014 RMK SN5SC3=
CYUL;2005-02-18 16:22;SPECI CYUL 181622Z 25014G20KT 3/4SM R24L/P6000FT/D R24R/3500VP6000FT/D -SN DRSN VV009 RMK SN8 VSBY VRBL 1/2-1=
CYUL;2005-02-18 16:32;SPECI CYUL 181632Z 25016KT 1 1/2SM R24L/5000FT/U R24R/4000VP6000FT/U -SN DRSN BKN012 OVC020 RMK SN3SC2SC3=
CYUL;2005-02-18 16:45;SPECI CYUL 181645Z 25015G20KT 3SM -SN DRSN FEW011 BKN017 OVC030 RMK SF2SC4SC2=
CYUL;2005-02-18 17:00;METAR CYUL 181700Z 24016G22KT 4SM -SN DRSN FEW012 BKN025 OVC032 M11/M14 A2992 RMK SF2SC3SC3 SLP133=
CYUL;2005-02-18 17:11;SPECI CYUL 181711Z 26018KT 2SM -SN DRSN FEW011 BKN018 OVC027 RMK SF2SC5SC2=
CYUL;2005-02-18 17:17;SPECI CYUL 181717Z 24016G21KT 1SM R24L/P6000FT/N R24R/P6000FT/N -SN=
CYUL;2005-02-18 17:47;SPECI CYUL 181747Z 25018KT 1 1/2SM -SN DRSN FEW008 BKN012 OVC025 RMK SF2SC3SC2=
CYUL;2005-02-18 18:28;SPECI CYUL 181828Z 25017G22KT 3SM -SN DRSN FEW012 BKN018 OVC040 RMK SF2SC4SC2=
CYUL;2005-02-18 18:46;SPECI CYUL 181846Z 25016G22KT 2 1/2SM -SN DRSN FEW012 BKN017 OVC040 RMK SF2SC5SC2=
CYUL;2005-02-18 19:00;METAR CYUL 181900Z 25019G24KT 2SM -SN DRSN FEW011 BKN016 OVC030 M12/M15 A2994 RMK SF2SC5SC2 SLP141=
CYUL;2005-02-18 19:28;SPECI CYUL 181928Z 25017G22KT 3SM -SN DRSN FEW012 BKN020 OVC040 RMK CF1SC4SC2=
CYUL;2005-02-18 20:00;METAR CYUL 182000Z 25014G21KT 10SM -SN DRSN FEW012 BKN020 OVC035 M11/M15 A2997 RMK CF1SC4SC2 SLP152=
CYUL;2005-02-18 21:00;METAR CYUL 182100Z 26015G22KT 10SM -SN DRSN FEW015 BKN023 BKN050 BKN210 M12/M16 A3000 RMK CF1SC5SC1CI0 SLP163=
CYUL;2005-02-18 22:00;METAR CYUL 182200Z 25015G20KT 10SM -SN DRSN FEW020 BKN040 OVC070 M12/M16 A3003 RMK SC2SC5AC1 SLP173=
CYUL;2005-02-18 22:37;SPECI CYUL 182237Z 26020KT 1 1/2SM -SN DRSN BKN018 OVC024 RMK SN2SC3SC3=
CYUL;2005-02-18 22:50;SPECI CYUL 182250Z 26020KT 6SM R24L/4000VP6000FT/D R24R/P6000FT/U -SN=
CYUL;2005-02-19 00:00;METAR CYUL 190000Z 26014G21KT 15SM -SHSN DRSN FEW020 BKN035 BKN060 M13/M17 A3011 RMK SC2SC4SC2 SLP198=
CYUL;2005-02-19 00:38;SPECI CYUL 190038Z 27012KT 15SM DRSN BKN040 BKN090 RMK SC6AC2=
CYUL;2005-02-19 01:00;METAR CYUL 190100Z 28010G15KT 15SM DRSN BKN045 BKN080 M14/M18 A3014 RMK SC5AC2 SLP208=
CYUL;2005-02-19 03:00;METAR CYUL 190300Z 27008KT 15SM FEW045 FEW080 M15/M20 A3017 RMK SC1AC1 SLP221=
CYUL;2005-02-19 04:00;METAR CYUL 190400Z 26008KT 15SM SKC M15/M20 A3019 RMK SLP225=
CYUL;2005-02-19 10:00;METAR CYUL 191000Z 23007KT 15SM SKC M18/M23 A3022 RMK SLP237=
CYUL;2005-02-19 12:00;METAR CYUL 191200Z 27004KT 20SM FEW005 FEW220 M19/M23 A3023 RMK SF1CI1 SLP241=
CYUL;2005-02-19 14:00;METAR CYUL 191400Z 22010KT 30SM FEW055 FEW220 M16/M22 A3023 RMK SC1CI1 SLP242=
CYUL;2005-02-19 15:00;METAR CYUL 191500Z 23010KT 30SM FEW055 FEW220 M14/M21 A3023 RMK SC1CI1 SLP241=
CYUL;2005-02-19 16:00;METAR CYUL 191600Z 22012KT 30SM FEW050 FEW210 M12/M20 A3021 RMK SC2CI1 SLP233=
CYUL;2005-02-19 17:00;METAR CYUL 191700Z 22010KT 30SM BKN065 M11/M20 A3018 RMK SC7 SLP225=
CYUL;2005-02-19 18:00;METAR CYUL 191800Z 20011KT 30SM SCT070 M09/M17 A3014 RMK AC4 SLP211=
CYUL;2005-02-19 19:00;METAR CYUL 191900Z 21009KT 15SM FEW030 BKN040 OVC070 M08/M15 A3011 RMK CF1SC6AC2 SLP199=
CYUL;2005-02-19 20:00;METAR CYUL 192000Z 22007KT 15SM BKN025 OVC065 M07/M13 A3010 RMK SC6SC2 SLP196=
CYUL;2005-02-19 20:10;SPECI CYUL 192010Z 21008KT 15SM -SHSN BKN023 OVC050 RMK SC6SC2=
CYUL;2005-02-19 21:00;METAR CYUL 192100Z 24012KT 15SM -SHSN BKN025 OVC040 M06/M11 A3008 RMK SC7SC1 SLP191=
CYUL;2005-02-19 21:46;SPECI CYUL 192146Z 22013KT 15SM BKN030 OVC040 RMK SC5SC2=
CYUL;2005-02-19 22:00;METAR CYUL 192200Z 22014KT 12SM VCSH FEW020 BKN038 OVC070 M05/M11 A3007 RMK SC1SC6AC1 SLP187=
CYUL;2005-02-19 22:22;SPECI CYUL 192222Z 22012G18KT 4SM -SHSN BKN016 OVC037 RMK SC6SC2=
CYUL;2005-02-19 22:33;SPECI CYUL 192233Z 24014KT 1 1/4SM -SHSN BKN012 OVC028 RMK SN5SC2SC1=
CYUL;2005-02-19 22:37;SPECI CYUL 192237Z 23011KT 3SM -SHSN BKN018 BKN035 RMK SN2SC4SC1=
CYUL;2005-02-19 23:06;SPECI CYUL 192306Z 23011KT 3SM -SHSN BKN018 BKN045 RMK SN2SC3SC2=
CYUL;2005-02-19 23:42;SPECI CYUL 192342Z 24012KT 1 1/2SM -SHSN BKN011 OVC023 RMK SN3SC3SC2=
CYUL;2005-02-19 23:50;SPECI CYUL 192350Z 24014KT 1/2SM SHSN VV003 RMK SN8=
CYUL;2005-02-20 00:00;METAR CYUL 200000Z 24012KT 1SM R24L/P6000FT/D R24R/P6000FT/D -SHSN BKN010 OVC022 M06/M07 A3010 RESN RMK SN6SC2SC1 SLP195=
CYUL;2005-02-20 00:05;SPECI CYUL 200005Z 27008KT 2SM -SHSN BKN014 OVC022 RMK SN3SC3SC2=
CYUL;2005-02-20 00:17;SPECI CYUL 200017Z 27007KT 5SM -SHSN SCT011 BKN020 BKN035 RMK SC3SC2SC2=
CYUL;2005-02-20 01:17;SPECI CYUL 200117Z 30013KT 10SM DRSN FEW011 FEW015 RMK SF1SC2=
CYUL;2005-02-20 02:00;METAR CYUL 200200Z 32008KT 15SM DRSN FEW015 M07/M13 A3016 RMK SC1 SLP218=
CYUL;2005-02-20 03:00;METAR CYUL 200300Z 31007KT 15SM DRSN SKC M09/M15 A3021 RMK SLP233=
CYUL;2005-02-20 09:00;METAR CYUL 200900Z 34005KT 15SM SKC M16/M25 A3044 RMK SLP311=
CYUL;2005-02-20 10:00;METAR CYUL 201000Z 01008KT 15SM SKC M16/M25 A3046 RMK SLP318=
CYUL;2005-02-20 12:00;METAR CYUL 201200Z 34004KT 30SM SKC M19/M25 A3051 RMK SLP334=
CYUL;2005-02-20 13:00;METAR CYUL 201300Z 31002KT 30SM SKC M16/M25 A3053 RMK SLP342=
CYUL;2005-02-20 14:00;METAR CYUL 201400Z 27005KT 30SM SKC M16/M24 A3056 RMK SLP351=
CYUL;2005-02-20 15:00;METAR CYUL 201500Z 27005KT 30SM SKC M15/M25 A3055 RMK SLP348=
CYUL;2005-02-20 16:00;METAR CYUL 201600Z 26006KT 30SM SKC M14/M25 A3055 RMK SLP348=
CYUL;2005-02-20 17:00;METAR CYUL 201700Z 26007KT 30SM FEW220 M14/M25 A3054 RMK CI1 SLP347=
CYUL;2005-02-20 18:00;METAR CYUL 201800Z 25006KT 30SM FEW220 M13/M25 A3051 RMK CI1 SLP335=
CYUL;2005-02-20 19:00;METAR CYUL 201900Z 22009KT 30SM FEW220 M13/M24 A3050 RMK CI0 SLP332=
CYUL;2005-02-20 20:00;METAR CYUL 202000Z 22009KT 30SM SCT220 M13/M24 A3049 RMK CI0 SLP328=
CYUL;2005-02-20 21:00;METAR CYUL 202100Z 20008KT 30SM SCT220 M13/M24 A3047 RMK CI0 SLP321=
CYUL;2005-02-20 22:00;METAR CYUL 202200Z 22005KT 30SM FEW220 M13/M23 A3046 RMK CI0 SLP318=
CYUL;2005-02-20 23:00;METAR CYUL 202300Z 23005KT 15SM SCT220 M13/M24 A3046 RMK CI1 SLP317=
CYUL;2005-02-21 00:00;METAR CYUL 210000Z 11003KT 15SM BKN240 M13/M23 A3044 RMK CI2 SLP312=
CYUL;2005-02-21 01:00;METAR CYUL 210100Z 12005KT 15SM SCT240 M14/M23 A3043 RMK CI1 SLP309=
CYUL;2005-02-21 02:00;METAR CYUL 210200Z 12005KT 15SM BKN220 M14/M22 A3043 RMK CI2 SLP309=
CYUL;2005-02-21 03:00;METAR CYUL 210300Z 11007KT 15SM OVC200 M13/M22 A3040 RMK CS6 SLP299=
CYUL;2005-02-21 04:00;METAR CYUL 210400Z 09006KT 15SM OVC180 M13/M22 A3037 RMK CS7 SLP289=
CYUL;2005-02-21 05:00;METAR CYUL 210500Z 09008KT 15SM SCT150 OVC180 M13/M22 A3035 RMK AS3CS5 SLP281=
CYUL;2005-02-21 06:00;METAR CYUL 210600Z 05008KT 15SM OVC120 M12/M22 A3031 RMK AS8 SLP266=
CYUL;2005-02-21 09:28;SPECI CYUL 210928Z 05015KT 4SM -SN OVC040 RMK SC8=
CYUL;2005-02-21 10:00;METAR CYUL 211000Z 05016KT 2 1/2SM -SN DRSN OVC025 M14/M20 A3020 RMK SC8 SLP230=
CYUL;2005-02-21 11:00;METAR CYUL 211100Z 05016G21KT 1 1/4SM -SN DRSN OVC015 M14/M18 A3019 RMK SC8 SLP227=
CYUL;2005-02-21 11:37;SPECI CYUL 211137Z 04017KT 1SM R06L/P6000FT/N R06R/P6000FT/D -SN DRSN OVC018 RMK SN2SC6=
CYUL;2005-02-21 11:52;SPECI CYUL 211152Z 04015G20KT 5/8SM R06L/P6000FT/D R06R/P6000FT/N -SN BLSN OVC020 RMK SN3SC5=
CYUL;2005-02-21 12:00;METAR CYUL 211200Z 05014KT 3/4SM R06L/4000VP6000FT/D R06R/P6000FT/D -SN=
CYUL;2005-02-21 12:38;SPECI CYUL 211238Z 04015KT 1/2SM R06L/5000FT/D R06R/3500V6000FT/D SN=
CYUL;2005-02-21 13:00;METAR CYUL 211300Z 04016KT 1/2SM R06L/5000FT/U R06R/4000FT/U SN DRSN OVC015 M14/M17 A3016 RMK SN5SC3 /S01/ SLP215=
CYUL;2005-02-21 13:08;SPECI CYUL 211308Z 04014G19KT 1 1/4SM -SN DRSN OVC020 RMK SC8 RESN=
CYUL;2005-02-21 13:18;SPECI CYUL 211318Z 05015KT 5/8SM R06L/P6000FT/D R06R/P6000FT/D -SN=
CYUL;2005-02-21 14:00;METAR CYUL 211400Z 04016KT 5/8SM R06L/3500V5000FT/U R06R/2600V4000FT/U -SN DRSN OVC016 M13/M16 A3012 RMK SN5SC3 RESN /S02/ SLP203=
CYUL;2005-02-21 14:10;SPECI CYUL 211410Z 04015KT 1SM R06L/6000FT/U R06R/3500V5500FT/U -SN=
CYUL;2005-02-21 14:20;SPECI CYUL 211420Z 04014KT 5/8SM R06L/4000VP6000FT/D R06R/3000V5500FT/D -SN DRSN VV006 RMK SN8=
CYUL;2005-02-21 14:32;SPECI CYUL 211432Z 05017KT 3/4SM R06L/5000FT/U R06R/3000V5000FT/U -SN=
CYUL;2005-02-21 14:49;SPECI CYUL 211449Z 05015KT 1 1/4SM -SN DRSN OVC018 RMK SN1SC7=
CYUL;2005-02-21 16:00;METAR CYUL 211600Z 05012KT 1 1/4SM -SN DRSN OVC017 M10/M13 A3005 RMK SC8 SLP178=
CYUL;2005-02-21 18:00;METAR CYUL 211800Z 09009KT 1SM R06L/5000FT/U R06R/4500FT/D -SN OVC015 M06/M08 A3001 RMK SC8 /S04/ SLP165=
CYUL;2005-02-21 18:10;SPECI CYUL 211810Z 08012KT 3/4SM R06L/3500V5000FT/N R06R/4500FT/U -SN=
CYUL;2005-02-21 19:00;METAR CYUL 211900Z 08012KT 3/4SM R06L/4500V6000FT/N R06R/6000FT/D -SN=
CYUL;2005-02-23 00:00;METAR CYUL 230000Z 29002KT 15SM SCT150 OVC240 M06/M08 A3004 RMK AC2CS0 SLP174=
CYUL;2005-02-23 01:00;METAR CYUL 230100Z 26004KT 15SM BKN150 OVC240 M06/M08 A3003 RMK AC3CS2 SLP173=
CYUL;2005-02-23 02:00;METAR CYUL 230200Z 00000KT 15SM BKN090 OVC210 M06/M07 A3003 RMK AC2CS2 SLP173=
CYUL;2005-02-23 03:14;SPECI CYUL 230314Z 29002KT 6SM -SHSN OVC035 RMK SC8=
CYUL;2005-02-23 04:00;METAR CYUL 230400Z 30004KT 3SM -SHSN OVC040 M05/M07 A3003 RMK SC8 SLP173=
CYUL;2005-02-23 05:00;METAR CYUL 230500Z 31005KT 6SM -SHSN SCT050 OVC210 M05/M07 A3003 RMK SC3CS4 SLP172=
CYUL;2005-02-23 05:37;SPECI CYUL 230537Z 30005KT 10SM FEW080 OVC210 RMK AC2CS5=
CYUL;2005-02-23 06:00;METAR CYUL 230600Z 30007KT 10SM FEW080 OVC210 M06/M09 A3004 RMK AC1CS6 SLP176=
CYUL;2005-02-23 07:00;METAR CYUL 230700Z 31006KT 15SM FEW150 OVC210 M07/M11 A3005 RMK AC1CS2 SLP179=
CYUL;2005-02-23 08:00;METAR CYUL 230800Z 30007KT 15SM FEW080 BKN210 M08/M12 A3006 RMK AC2CS1 SLP181=
CYUL;2005-02-23 10:00;METAR CYUL 231000Z 29005KT 15SM FEW080 M12/M15 A3010 RMK AC1 SLP194=
CYUL;2005-02-23 11:00;METAR CYUL 231100Z 30005KT 15SM FEW080 M13/M15 A3012 RMK AC1 SLP202=
CYUL;2005-02-23 12:00;METAR CYUL 231200Z 31004KT 15SM FEW080 M13/M16 A3014 RMK AC1 SLP211=
CYUL;2005-02-23 13:00;METAR CYUL 231300Z 35004KT 15SM FEW010 FEW090 M12/M16 A3017 RMK SF1AC1 SLP220=
CYUL;2005-02-23 14:00;METAR CYUL 231400Z 34007KT 15SM FEW015 FEW100 M12/M17 A3019 RMK CF1AC1 SLP225=
CYUL;2005-02-23 15:00;METAR CYUL 231500Z 29006KT 15SM FEW015 FEW150 M11/M17 A3019 RMK CF1AC1 SLP227=
CYUL;2005-02-23 16:00;METAR CYUL 231600Z 27008KT 15SM FEW030 FEW150 M11/M17 A3020 RMK CU1AC1 SLP230=
CYUL;2005-02-23 17:00;METAR CYUL 231700Z 26007KT 15SM BKN030 M10/M16 A3020 RMK CU6 SLP230=
CYUL;2005-02-23 18:00;METAR CYUL 231800Z 25013KT 15SM BKN030 M10/M16 A3019 RMK SC6 SLP228=
CYUL;2005-02-23 19:00;METAR CYUL 231900Z 27012G18KT 15SM BKN030 M09/M15 A3019 RMK SC5 SLP225=
CYUL;2005-02-23 20:00;METAR CYUL 232000Z 26013G18KT 15SM FEW030 M08/M15 A3019 RMK SC2 SLP226=
CYUL;2005-02-23 22:00;METAR CYUL 232200Z 26012KT 15SM FEW030 M08/M15 A3020 RMK SC1 SLP230=
CYUL;2005-02-24 00:00;METAR CYUL 240000Z 26011KT 15SM SKC M10/M16 A3025 RMK SLP247=
CYUL;2005-02-24 01:00;METAR CYUL 240100Z 26007KT 15SM FEW150 M11/M16 A3027 RMK AC1 SLP254=
CYUL;2005-02-24 03:00;METAR CYUL 240300Z 28005KT 15SM FEW070 SCT100 M14/M18 A3029 RMK AC1AC2 SLP261=
CYUL;2005-02-24 04:00;METAR CYUL 240400Z 29005KT 15SM FEW055 BKN075 BKN210 M14/M18 A3030 RMK SC1AC3CI0 SLP263=
CYUL;2005-02-24 06:00;METAR CYUL 240600Z 00000KT 15SM FEW070 M13/M17 A3033 RMK AC1 SLP275=
CYUL;2005-02-24 10:00;METAR CYUL 241000Z 00000KT 15SM FEW210 M16/M18 A3038 RMK CI1 SLP291=
CYUL;2005-02-24 11:00;METAR CYUL 241100Z 00000KT 15SM FEW210 M18/M19 A3040 RMK CI1 SLP297=
CYUL;2005-02-24 12:00;METAR CYUL 241200Z 36003KT 15SM FEW210 M19/M21 A3041 RMK CI1 SLP303=
CYUL;2005-02-24 13:00;METAR CYUL 241300Z 36004KT 15SM FEW210 M17/M19 A3042 RMK CI1 SLP305=
CYUL;2005-02-24 14:00;METAR CYUL 241400Z 02004KT 15SM FEW015 SCT210 M13/M17 A3041 RMK CF1CI1 SLP303=
CYUL;2005-02-24 15:00;METAR CYUL 241500Z 04004KT 15SM FEW015 FEW210 M10/M16 A3042 RMK CF1CI1 SLP304=
CYUL;2005-02-24 16:00;METAR CYUL 241600Z 09004KT 20SM FEW015 FEW025 FEW180 FEW240 M10/M18 A3042 RMK SF1CF1AC1CI0 SLP304=
CYUL;2005-02-24 17:00;METAR CYUL 241700Z 04004KT 25SM FEW028 FEW180 FEW240 M10/M17 A3040 RMK CF1AC1CI0 SLP299=
CYUL;2005-02-24 18:00;METAR CYUL 241800Z 04003KT 30SM FEW070 FEW240 M09/M17 A3038 RMK AC1CI1 CC ASOCT SLP289=
CYUL;2005-02-24 22:00;METAR CYUL 242200Z 08007KT 30SM BKN170 OVC240 M09/M18 A3032 RMK AS6CI2 SLP272=
CYUL;2005-02-24 23:00;METAR CYUL 242300Z 04009KT 15SM BKN160 OVC220 M09/M19 A3031 RMK AS6CI1 SLP266=
CYUL;2005-02-25 00:00;METAR CYUL 250000Z 04005KT 15SM OVC160 M09/M19 A3030 RMK AS8 SLP263=
CYUL;2005-02-25 02:00;METAR CYUL 250200Z 06008KT 15SM OVC150 M10/M19 A3029 RMK AS8 SLP261=
CYUL;2005-02-25 03:00;METAR CYUL 250300Z 04006KT 15SM OVC140 M10/M19 A3028 RMK AS8 SLP258=
CYUL;2005-02-25 04:00;METAR CYUL 250400Z 02008KT 15SM OVC150 M12/M18 A3027 RMK AS8 SLP252=
CYUL;2005-02-25 05:00;METAR CYUL 250500Z 03007KT 15SM OVC140 M12/M18 A3024 RMK AS8 SLP243=
CYUL;2005-02-25 06:00;METAR CYUL 250600Z 03008KT 15SM BKN120 OVC200 M12/M18 A3022 RMK AS6CS2 SLP237=
CYUL;2005-02-25 09:00;METAR CYUL 250900Z 03007KT 15SM FEW140 SCT210 M15/M20 A3018 RMK AC2CI0 SLP222=
CYUL;2005-02-25 10:00;METAR CYUL 251000Z 02009KT 15SM SKC M15/M21 A3018 RMK SLP222=
CYUL;2005-02-25 11:00;METAR CYUL 251100Z 03007KT 15SM FEW120 FEW210 M15/M21 A3019 RMK AC1CI1 SLP227=
CYUL;2005-02-25 12:00;METAR CYUL 251200Z 02010KT 30SM FEW120 M15/M21 A3020 RMK AC1 SLP229=
CYUL;2005-02-25 13:00;METAR CYUL 251300Z 03009KT 15SM FEW120 FEW210 M14/M20 A3021 RMK AC1CI1 SLP234=
CYUL;2005-02-25 14:00;METAR CYUL 251400Z 03011KT 15SM FEW210 M13/M19 A3020 RMK CI0 CC ASOCT SLP231=
CYUL;2005-02-25 15:00;METAR CYUL 251500Z 04008KT 15SM FEW120 FEW220 M12/M18 A3020 RMK AC1CI0 CC ASOCT SLP229=
CYUL;2005-02-25 16:00;METAR CYUL 251600Z 03005KT 15SM FEW230 M11/M18 A3018 RMK CI0 SLP223=
CYUL;2005-02-25 17:00;METAR CYUL 251700Z 01004KT 15SM FEW025 FEW210 BKN240 M09/M17 A3016 RMK CF1CI0CI1 SLP218=
CYUL;2005-02-25 18:00;METAR CYUL 251800Z 07002KT 15SM FEW028 SCT240 M08/M17 A3014 RMK CF1CI0 SLP210=
CYUL;2005-02-25 19:00;METAR CYUL 251900Z 05005KT 15SM FEW030 FEW200 SCT240 M08/M17 A3013 RMK CU1CI0CI1 CC ASOCT SLP205=
CYUL;2005-02-25 22:00;METAR CYUL 252200Z 23005KT 15SM FEW130 BKN240 M07/M15 A3014 RMK AC1CI2 SLP209=
CYUL;2005-02-26 00:00;METAR CYUL 260000Z 23006KT 15SM BKN100 OVC220 M08/M15 A3017 RMK AS4CI1 SLP219=
CYUL;2005-02-26 01:00;METAR CYUL 260100Z 25003KT 15SM SCT100 BKN210 M09/M16 A3016 RMK AS1CI1 SLP216=
CYUL;2005-02-26 03:00;METAR CYUL 260300Z 24003KT 15SM FEW140 BKN240 M12/M16 A3017 RMK AS1CI1 SLP220=
CYUL;2005-02-26 04:00;METAR CYUL 260400Z 22002KT 15SM FEW240 M12/M16 A3016 RMK CI1 SLP217=
CYUL;2005-02-26 11:00;METAR CYUL 261100Z 26003KT 15SM FEW015 FEW240 M18/M21 A3015 RMK SF1CI1 SLP212=
CYUL;2005-02-26 12:00;METAR CYUL 261200Z 00000KT 15SM FEW010 FEW020 FEW210 M16/M19 A3015 RMK SF1SC1CI0 SLP213=
CYUL;2005-02-26 15:00;METAR CYUL 261500Z 02002KT 12SM FEW008 FEW210 M11/M17 A3016 RMK SF1CI0 HZ FROIN SLP218=
CYUL;2005-02-26 16:00;METAR CYUL 261600Z 08002KT 12SM FEW220 M09/M20 A3016 RMK CI1 SLP215=
CYUL;2005-02-26 18:00;METAR CYUL 261800Z 00000KT 6SM HZ SCT070 SCT240 M06/M16 A3013 RMK AS1CI0 SLP205=
CYUL;2005-02-26 19:00;METAR CYUL 261900Z 00000KT 12SM FEW035 FEW240 M05/M16 A3012 RMK SC1CI1 SLP202=
CYUL;2005-02-26 21:00;METAR CYUL 262100Z 23007KT 15SM FEW040 FEW220 M05/M16 A3012 RMK SC1CI1 SLP202=
CYUL;2005-02-26 22:00;METAR CYUL 262200Z 23008KT 15SM FEW032 FEW100 FEW220 M05/M16 A3012 RMK SC1AC1CI1 SLP204=
CYUL;2005-02-26 23:00;METAR CYUL 262300Z 23007KT 15SM FEW067 FEW220 M06/M16 A3014 RMK AC1CI1 SLP208=
CYUL;2005-02-27 00:00;METAR CYUL 270000Z 22004KT 15SM FEW240 M07/M16 A3015 RMK CI1 CC ASOCT SLP212=
CYUL;2005-02-27 01:00;METAR CYUL 270100Z 26008KT 15SM FEW090 FEW120 FEW220 M08/M17 A3015 RMK AC1AC1CI0 SLP214=
CYUL;2005-02-27 02:00;METAR CYUL 270200Z 28007KT 15SM FEW120 M10/M17 A3016 RMK AC1 SLP216=
CYUL;2005-02-27 04:00;METAR CYUL 270400Z 27006KT 15SM FEW220 M11/M16 A3017 RMK CI1 SLP221=
CYUL;2005-02-27 06:00;METAR CYUL 270600Z 28005KT 15SM SKC M11/M18 A3019 RMK SLP225=
CYUL;2005-02-27 10:00;METAR CYUL 271000Z 28008KT 15SM SKC M12/M19 A3023 RMK SLP240=
CYUL;2005-02-27 12:00;METAR CYUL 271200Z 29008KT 30SM SKC M12/M20 A3026 RMK SLP249=
CYUL;2005-02-27 13:00;METAR CYUL 271300Z 29013KT 30SM SKC M12/M19 A3027 RMK SLP253=
CYUL;2005-02-27 14:00;METAR CYUL 271400Z 27012G18KT 30SM SKC M11/M19 A3027 RMK SLP254=
CYUL;2005-02-27 15:00;METAR CYUL 271500Z 27012G19KT 30SM SKC M10/M18 A3026 RMK SLP250=
CYUL;2005-02-27 16:00;METAR CYUL 271600Z 25014KT 30SM SKC M09/M18 A3025 RMK SLP248=
CYUL;2005-02-27 19:00;METAR CYUL 271900Z 26014G24KT 30SM SKC M06/M17 A3020 RMK SLP230=
CYUL;2005-02-27 22:00;METAR CYUL 272200Z 26013KT 30SM SKC M06/M17 A3017 RMK SLP221=
CYUL;2005-02-27 23:00;METAR CYUL 272300Z 25013KT 15SM FEW150 M07/M16 A3019 RMK AC1 SLP225=
CYUL;2005-02-28 00:00;METAR CYUL 280000Z 25010KT 15SM FEW150 M08/M15 A3021 RMK AC1 SLP233=
CYUL;2005-02-28 01:00;METAR CYUL 280100Z 26010KT 15SM SKC M08/M17 A3022 RMK SLP237=
CYUL;2005-02-28 03:00;METAR CYUL 280300Z 12003KT 15SM SKC M10/M18 A3019 RMK SLP227=
CYUL;2005-02-28 04:00;METAR CYUL 280400Z 25002KT 15SM SKC M11/M19 A3016 RMK SLP217=
CYUL;2005-02-28 05:00;METAR CYUL 280500Z 24004KT 15SM FEW240 M11/M19 A3016 RMK CI0 SLP216=
CYUL;2005-02-28 06:00;METAR CYUL 280600Z 23006KT 15SM FEW240 M11/M19 A3016 RMK CI0 SLP218=
CYUL;2005-02-28 09:00;METAR CYUL 280900Z 00000KT 15SM BKN240 M14/M19 A3011 RMK CI2 SLP200=
CYUL;2005-02-28 10:00;METAR CYUL 281000Z 09004KT 15SM OVC240 M11/M16 A3012 RMK CI2 SLP203=
CYUL;2005-02-28 11:00;METAR CYUL 281100Z 12003KT 15SM OVC200 M10/M15 A3011 RMK CI5 SLP200=
CYUL;2005-02-28 12:00;METAR CYUL 281200Z 11004KT 30SM OVC130 M10/M15 A3011 RMK AS8 SLP200=
CYUL;2005-02-28 13:00;METAR CYUL 281300Z 09005KT 30SM OVC120 M09/M16 A3012 RMK AS8 SLP204=
CYUL;2005-02-28 14:00;METAR CYUL 281400Z 08007KT 30SM OVC110 M08/M16 A3011 RMK AS8 SLP200=
CYUL;2005-02-28 15:00;METAR CYUL 281500Z 05013KT 15SM OVC110 M07/M16 A3008 RMK AS6 SLP188=
CYUL;2005-02-28 16:00;METAR CYUL 281600Z 05013KT 15SM OVC090 M06/M16 A3006 RMK AS7 SLP182=
CYUL;2005-02-28 19:00;METAR CYUL 281900Z 05016KT 15SM OVC095 M06/M15 A2997 RMK AS7 SLP152=
CYUL;2005-02-28 20:00;METAR CYUL 282000Z 05014KT 15SM BKN090 OVC120 M06/M16 A2994 RMK AS6AC2 SLP142=
CYUL;2005-02-28 21:00;METAR CYUL 282100Z 05015KT 15SM OVC090 M06/M16 A2992 RMK AC8 SLP134=
CYUL;2005-02-28 22:00;METAR CYUL 282200Z 05016KT 15SM OVC100 M06/M16 A2989 RMK AC8 SLP126=
CYUL;2005-02-28 23:00;METAR CYUL 282300Z 05016G21KT 15SM OVC095 M06/M16 A2987 RMK AC8 SLP118=
CYUL;2005-03-01 00:00;METAR CYUL 010000Z 04017KT 15SM OVC100 M06/M16 A2986 RMK AC8 SLP114=
CYUL;2005-03-01 01:00;METAR CYUL 010100Z 04017KT 15SM SCT090 OVC160 M06/M16 A2982 RMK AC3AS3 SLP100=
CYUL;2005-03-01 03:00;METAR CYUL 010300Z 05015KT 15SM OVC120 M06/M16 A2977 RMK AS8 SLP085=
CYUL;2005-03-01 04:00;METAR CYUL 010400Z 05014G19KT 15SM OVC075 M06/M15 A2975 RMK AS8 SLP076=
CYUL;2005-03-01 06:00;METAR CYUL 010600Z 04013KT 15SM OVC060 M06/M14 A2970 RMK SC8 SLP059=
CYUL;2005-03-01 09:00;METAR CYUL 010900Z 05014KT 4SM -SN OVC035 M06/M11 A2963 RMK SC8 SLP035=
CYUL;2005-03-01 11:46;SPECI CYUL 011146Z 05015G20KT 1SM R06L/P6000FT/U R06R/P6000FT/U -SN=
CYUL;2005-03-01 11:52;SPECI CYUL 011152Z 05014KT 1 1/2SM -SN DRSN OVC025 RMK SC8=
CYUL;2005-03-01 12:00;METAR CYUL 011200Z 04012KT 2SM -SN DRSN OVC025 M05/M08 A2957 RMK SC8 /S02/ SLP015=
CYUL;2005-03-01 12:35;SPECI CYUL 011235Z 05016G21KT 3SM -SN DRSN OVC030 RMK SC8=
CYUL;2005-03-01 13:09;SPECI CYUL 011309Z 05018G27KT 1SM R06L/P6000FT/D R06R/P6000FT/D -SN=
CYUL;2005-03-01 13:19;SPECI CYUL 011319Z 05013G24KT 5/8SM R06L/6000FT/D R06R/6000FT/D -SN=
CYUL;2005-03-01 14:00;METAR CYUL 011400Z 05017KT 5/8SM R06L/2800FT/N R06R/3500FT/N -SN DRSN VV006 M06/M08 A2953 RMK SN8 /S01/ SLP003=
CYUL;2005-03-01 14:27;SPECI CYUL 011427Z 04019KT 3/4SM R06L/4500FT/N R06R/4500FT/D -SN DRSN OVC012 RMK SN4SC4=
CYUL;2005-03-01 15:32;SPECI CYUL 011532Z 04016KT 5/8SM R06L/3000FT/U R06R/3000FT/U -SN DRSN VV006 RMK SN8=
CYUL;2005-03-01 16:00;METAR CYUL 011600Z 03014KT 5/8SM R06L/4000FT/N R06R/4000FT/N -SN DRSN VV007 M06/M08 A2948 RMK SN8 /S04/ SLP985=
CYUL;2005-03-01 17:00;METAR CYUL 011700Z 04015KT 5/8SM R06L/3500FT/N R06R/3000FT/N -SN DRSN VV006 M06/M08 A2946 RMK SN8 /S05/ SLP979=
CYUL;2005-03-01 18:00;METAR CYUL 011800Z 04015G20KT 5/8SM R06L/5500FT/U R06R/5000FT/U -SN DRSN VV010 M05/M08 A2942 RMK SN8 /S06/ SLP963=
CYUL;2005-03-01 19:00;METAR CYUL 011900Z 05014G21KT 5/8SM R06L/6000FT/U R06R/5500FT/N -SN DRSN OVC015 M05/M08 A2939 RMK SN3SC5 /S01/ SLP956=
CYUL;2005-03-01 19:12;SPECI CYUL 011912Z 05013G19KT 3/4SM R06L/6000FT/U R06R/6000FT/U -SN=
CYUL;2005-03-01 21:20;SPECI CYUL 012120Z 01014KT 3SM -SN BKN016 OVC035 RMK SC6SC2=
CYUL;2005-03-02 00:00;METAR CYUL 020000Z 01014KT 3SM -SN BKN025 OVC040 M04/M09 A2938 RMK SC6SC2 SLP950=
CYUL;2005-03-02 00:43;SPECI CYUL 020043Z 01012KT 2 1/2SM -SN OVC022 RMK SC8=
CYUL;2005-03-02 03:00;METAR CYUL 020300Z 36011KT 3SM -SN DRSN FEW015 BKN025 OVC045 M06/M09 A2937 RMK SF1SC6SC1 SLP948=
CYUL;2005-03-02 03:08;SPECI CYUL 020308Z 36011KT 2SM -SN DRSN BKN012 OVC025 RMK SC5SC3=
CYUL;2005-03-02 03:40;SPECI CYUL 020340Z 35009KT 3SM -SN DRSN FEW010 BKN015 OVC030 RMK SF1SC5SC3=
CYUL;2005-03-02 04:00;METAR CYUL 020400Z 35008KT 2SM -SN DRSN FEW010 BKN014 OVC030 M06/M08 A2936 RMK SF1SC6SC2 VSBY VRBL 11/2-21/2 SLP945=
CYUL;2005-03-02 04:15;SPECI CYUL 020415Z 35010KT 3SM -SN DRSN FEW013 BKN018 OVC040 RMK SC2SC5SC2=
CYUL;2005-03-02 05:45;SPECI CYUL 020545Z 31005KT 10SM FEW020 BKN060 OVC090 RMK SC2SC3AC3=
CYUL;2005-03-02 06:00;METAR CYUL 020600Z 31006KT 15SM FEW040 BKN060 OVC090 M06/M10 A2937 RMK SC2SC2AC3 /S01/ SLP947=
CYUL;2005-03-02 06:37;SPECI CYUL 020637Z 31006KT 10SM -SN BKN038 OVC090 RMK SC6AC2=
CYUL;2005-03-02 07:00;METAR CYUL 020700Z 30005KT 8SM -SN BKN038 OVC070 M06/M10 A2937 RMK SC6AC2 SLP949=
CYUL;2005-03-02 09:00;METAR CYUL 020900Z 30008KT 15SM BKN045 OVC060 M06/M11 A2937 RMK SC6SC2 SLP949=
CYUL;2005-03-02 10:00;METAR CYUL 021000Z 28006KT 15SM BKN020 OVC045 M06/M11 A2939 RMK SC6SC2 SLP954=
CYUL;2005-03-02 10:12;SPECI CYUL 021012Z 29007KT 10SM -SN BKN025 OVC045 RMK SC6SC2=
CYUL;2005-03-02 10:40;SPECI CYUL 021040Z 28009KT 2 1/2SM -SN BKN014 OVC030 RMK SC6SC2=
CYUL;2005-03-02 11:00;METAR CYUL 021100Z 30009KT 5SM -SN BKN020 OVC040 M07/M09 A2939 RMK SC5SC2 SLP956=
CYUL;2005-03-02 12:00;METAR CYUL 021200Z 29010KT 4SM -SN BKN020 OVC040 M06/M10 A2941 RMK SC5SC2 SLP961=
CYUL;2005-03-02 12:18;SPECI CYUL 021218Z 29009KT 2SM -SN BKN014 OVC030 RMK SC6SC2=
CYUL;2005-03-02 12:25;SPECI CYUL 021225Z 30009KT 1 1/4SM -SN VV012 RMK SN8=
CYUL;2005-03-02 12:33;SPECI CYUL 021233Z 29008KT 3SM -SN OVC017 RMK SN2SC6=
CYUL;2005-03-02 13:00;METAR CYUL 021300Z 29010KT 15SM -SN BKN025 OVC045 M07/M10 A2942 RMK SC6SC2 SLP963=
CYUL;2005-03-02 14:00;METAR CYUL 021400Z 29016G21KT 15SM DRSN BKN027 OVC040 M07/M12 A2942 RMK SC6SC2 SLP963=
CYUL;2005-03-02 15:00;METAR CYUL 021500Z 29011G17KT 15SM DRSN FEW018 SCT027 OVC040 M06/M13 A2941 RMK SF1SC3SC5 SLP962=
CYUL;2005-03-02 16:00;METAR CYUL 021600Z 27016KT 15SM DRSN SCT040 OVC055 M06/M13 A2941 RMK SC3SC4 SLP962=
CYUL;2005-03-02 17:00;METAR CYUL 021700Z 27011G18KT 15SM DRSN FEW025 SCT037 BKN050 M05/M12 A2942 RMK SC1SC3SC2 SLP963=
CYUL;2005-03-02 19:00;METAR CYUL 021900Z 26016KT 15SM DRSN FEW011 BKN045 BKN075 BKN120 M04/M12 A2940 RMK SF1SC5AC1AC1 SLP957=
CYUL;2005-03-02 21:00;METAR CYUL 022100Z 27014KT 30SM DRSN FEW035 BKN055 BKN070 BKN230 M03/M12 A2941 RMK SC1SC6AC1CI1 SLP961=
CYUL;2005-03-02 22:00;METAR CYUL 022200Z 27014G20KT 30SM DRSN BKN057 OVC230 M03/M12 A2942 RMK SC6CI1 SLP965=
CYUL;2005-03-03 00:00;METAR CYUL 030000Z 27013KT 15SM DRSN BKN062 OVC210 M03/M13 A2947 RMK SC7CI1 SLP981=
CYUL;2005-03-03 03:00;METAR CYUL 030300Z 28010G18KT 15SM DRSN BKN050 OVC070 M06/M17 A2954 RMK SC6AC2 SLP006=
CYUL;2005-03-03 04:00;METAR CYUL 030400Z 29014KT 15SM DRSN FEW040 FEW070 SCT210 M07/M18 A2955 RMK SC1AC2CI1 SLP009=
CYUL;2005-03-03 08:00;METAR CYUL 030800Z 28009KT 15SM DRSN FEW090 M13/M22 A2963 RMK AC1 SLP035=
CYUL;2005-03-03 09:00;METAR CYUL 030900Z 28011G18KT 15SM DRSN FEW210 M14/M22 A2966 RMK CI1 SLP046=
CYUL;2005-03-03 10:00;METAR CYUL 031000Z 27013KT 15SM DRSN FEW210 M14/M22 A2970 RMK CI1 SLP059=
CYUL;2005-03-03 11:00;METAR CYUL 031100Z 27010G15KT 15SM DRSN FEW040 FEW210 M15/M22 A2971 RMK SC1CI1 SLP065=
CYUL;2005-03-03 12:00;METAR CYUL 031200Z 27009KT 15SM FEW030 FEW210 M15/M22 A2974 RMK SC1CI1 SLP073=
CYUL;2005-03-03 14:00;METAR CYUL 031400Z 28016G21KT 15SM DRSN FEW040 FEW210 M14/M22 A2977 RMK SC1CI0 SLP084=
CYUL;2005-03-03 15:00;METAR CYUL 031500Z 29016G24KT 15SM DRSN FEW015 FEW040 FEW210 M13/M21 A2977 RMK SF1SC1CI1 SLP084=
CYUL;2005-03-03 16:00;METAR CYUL 031600Z 28015G22KT 30SM DRSN FEW013 FEW032 FEW230 M12/M19 A2978 RMK SF1SC1CI1 SLP086=
CYUL;2005-03-03 17:00;METAR CYUL 031700Z 27018G26KT 30SM DRSN FEW028 FEW230 M11/M18 A2978 RMK CF2CI0 SLP086=
CYUL;2005-03-03 18:00;METAR CYUL 031800Z 26020G26KT 15SM DRSN FEW030 FEW230 M11/M18 A2975 RMK CF1CI0 SLP078=
CYUL;2005-03-03 19:00;METAR CYUL 031900Z 26022G27KT 15SM DRSN VCBLSN BKN030 M11/M18 A2974 RMK SC5 CF ASOCT SLP075=
CYUL;2005-03-03 20:00;METAR CYUL 032000Z 27018G25KT 30SM DRSN VCBLSN BKN032 BKN230 M09/M17 A2974 RMK SC5CI0 CF ASOCT SLP074=
CYUL;2005-03-03 22:00;METAR CYUL 032200Z 26015KT 30SM DRSN FEW030 FEW040 BKN160 BKN220 M08/M16 A2973 RMK CF1SC1AC6CI1 SLP070=
CYUL;2005-03-04 00:00;METAR CYUL 040000Z 26017KT 15SM DRSN BKN150 M08/M16 A2976 RMK AC6 SLP080=
CYUL;2005-03-04 01:00;METAR CYUL 040100Z 27013G18KT 15SM DRSN SCT150 BKN210 M09/M16 A2976 RMK AC3CI2 SLP082=
CYUL;2005-03-04 03:00;METAR CYUL 040300Z 28010G15KT 15SM DRSN SCT120 BKN210 M09/M17 A2976 RMK AC3CI1 SLP082=
CYUL;2005-03-04 04:00;METAR CYUL 040400Z 28009G15KT 15SM DRSN SCT100 BKN210 M09/M18 A2977 RMK AC3CI1 SLP083=
CYUL;2005-03-04 05:00;METAR CYUL 040500Z 25007KT 15SM DRSN SCT095 BKN210 M10/M18 A2977 RMK AC2CI1 SLP085=
CYUL;2005-03-04 06:00;METAR CYUL 040600Z 26008KT 15SM FEW100 M11/M18 A2979 RMK AC1 SLP089=
CYUL;2005-03-04 07:00;METAR CYUL 040700Z 25009KT 15SM SKC M12/M19 A2979 RMK SLP089=
CYUL;2005-03-04 10:00;METAR CYUL 041000Z 26008KT 15SM SCT210 M13/M20 A2978 RMK CI2 SLP088=
CYUL;2005-03-04 11:00;METAR CYUL 041100Z 26007KT 15SM FEW090 SCT210 M13/M20 A2979 RMK AC1CI2 SLP089=
CYUL;2005-03-04 12:00;METAR CYUL 041200Z 27010KT 30SM FEW030 FEW150 SCT210 M13/M20 A2980 RMK SC1AC2CI0 CC ASOCT SLP094=
CYUL;2005-03-04 13:00;METAR CYUL 041300Z 27008KT 30SM FEW150 SCT210 M12/M19 A2981 RMK AC1CI2 SLP096=
CYUL;2005-03-04 14:00;METAR CYUL 041400Z 26008KT 30SM FEW150 BKN210 M10/M18 A2981 RMK AC1CI2 SLP097=
CYUL;2005-03-04 15:00;METAR CYUL 041500Z 27011KT 30SM FEW028 FEW150 FEW240 M08/M17 A2981 RMK CU1AC1CI0 SLP096=
CYUL;2005-03-04 16:00;METAR CYUL 041600Z 27012KT 30SM FEW030 FEW240 M07/M15 A2980 RMK SC1CI1 SLP093=
CYUL;2005-03-04 17:00;METAR CYUL 041700Z 27012G17KT 30SM FEW035 SCT240 M06/M15 A2979 RMK SC1CI1 SLP090=
CYUL;2005-03-04 18:00;METAR CYUL 041800Z 26017KT 30SM FEW030 FEW120 SCT250 M05/M14 A2978 RMK SC1AC1CI0 CC ASOCT SLP086=
CYUL;2005-03-04 19:00;METAR CYUL 041900Z 26015G20KT 30SM FEW028 FEW040 FEW120 FEW250 M04/M14 A2976 RMK CF1SC1AC1CI0 SLP081=
CYUL;2005-03-04 20:00;METAR CYUL 042000Z 26016G22KT 30SM FEW038 SCT250 M03/M13 A2976 RMK CF2CI0 SLP079=
CYUL;2005-03-04 22:00;METAR CYUL 042200Z 26015KT 30SM FEW035 FEW120 FEW180 FEW220 M03/M14 A2975 RMK CF1AC1AC1CI0 SLP077=
CYUL;2005-03-04 23:00;METAR CYUL 042300Z 26009KT 30SM FEW025 FEW120 FEW180 FEW220 M04/M14 A2976 RMK SC1AC1AC1CI0 SLP082=
CYUL;2005-03-05 01:00;METAR CYUL 050100Z 26007KT 15SM FEW150 M06/M15 A2979 RMK AC1 SLP089=
CYUL;2005-03-05 04:00;METAR CYUL 050400Z 27007KT 15SM FEW210 M08/M16 A2980 RMK CI1 SLP095=
CYUL;2005-03-05 05:00;METAR CYUL 050500Z 27008KT 15SM FEW210 M08/M15 A2980 RMK CI1 SLP093=
CYUL;2005-03-05 06:00;METAR CYUL 050600Z 00000KT 15SM SKC M11/M16 A2981 RMK SLP097=
CYUL;2005-03-05 10:00;METAR CYUL 051000Z 23005KT 15SM BKN110 BKN210 M11/M15 A2982 RMK AC3CI1 SLP099=
CYUL;2005-03-05 11:00;METAR CYUL 051100Z 22005KT 30SM BKN100 BKN210 M10/M15 A2982 RMK AC6CI0 SLP100=
CYUL;2005-03-05 12:00;METAR CYUL 051200Z 20005KT 30SM BKN100 M10/M15 A2982 RMK AC7 SLP101=
CYUL;2005-03-05 13:00;METAR CYUL 051300Z 22006KT 30SM FEW080 BKN100 M10/M15 A2984 RMK AC1AC6 SLP106=
CYUL;2005-03-05 15:00;METAR CYUL 051500Z 23006KT 30SM FEW070 BKN088 BKN240 M06/M13 A2983 RMK AC1AC6CI0 SLP104=
CYUL;2005-03-05 16:00;METAR CYUL 051600Z 25008KT 30SM FEW055 BKN085 BKN240 M04/M13 A2981 RMK SC1AC3CI0 SLP098=
CYUL;2005-03-05 17:00;METAR CYUL 051700Z 26013KT 30SM FEW045 FEW080 FEW240 M02/M12 A2980 RMK SC1ACC1CI0 SLP093=
CYUL;2005-03-05 19:45;METAR CYUL 051945Z 26018KT 30SM FEW045 FEW090 FEW150 SCT240 00/M10 RMK SC1AC1AC1CC1 ALTM MISG=
CYUL;2005-03-05 21:00;METAR CYUL 052100Z 26017G22KT 30SM FEW040 FEW080 BKN110 BKN150 BKN240 00/M10 A2975 RMK SC1AC1AS4AC1CI1 SLP076=
CYUL;2005-03-05 22:00;METAR CYUL 052200Z 27013G18KT 30SM FEW035 FEW080 BKN093 OVC220 00/M10 A2974 RMK SC1AC2AS4CI2 SLP075=
CYUL;2005-03-05 23:00;METAR CYUL 052300Z 25012KT 30SM FEW100 BKN150 OVC220 M00/M09 A2975 RMK AS2AC3CI2 SLP078=
CYUL;2005-03-06 00:00;METAR CYUL 060000Z 25011KT 15SM FEW110 BKN150 OVC220 M01/M09 A2976 RMK AC2AS3CI1 SLP080=
CYUL;2005-03-06 04:00;METAR CYUL 060400Z 25007KT 15SM FEW160 SCT240 M02/M10 A2971 RMK AC1CI1 SLP065=
CYUL;2005-03-06 08:00;METAR CYUL 060800Z 23012KT 15SM FEW055 SCT120 BKN240 M03/M07 A2964 RMK SC2AC2CI0 SLP038=
CYUL;2005-03-06 11:00;METAR CYUL 061100Z 23017KT 15SM OVC060 M03/M08 A2959 RMK SC6 SLP021=
CYUL;2005-03-06 12:00;METAR CYUL 061200Z 23015G21KT 3SM HZ OVC025 M02/M06 A2956 RMK SC8 SLP011=
CYUL;2005-03-06 12:38;SPECI CYUL 061238Z 22014KT 2 1/2SM -SN OVC025 RMK SC8=
CYUL;2005-03-06 13:00;METAR CYUL 061300Z 22013G19KT 2 1/2SM -SN FEW012 BKN022 OVC040 M02/M04 A2951 RMK SF1SC5SC2 SLP996=
CYUL;2005-03-06 14:00;METAR CYUL 061400Z 22013G19KT 6SM -SN FEW012 OVC030 00/M04 A2948 RMK SF1SC8 SLP986=
CYUL;2005-03-06 15:00;METAR CYUL 061500Z 22012KT 6SM -SN BKN024 OVC045 01/M04 A2944 RMK SC6SC2 SLP972=
CYUL;2005-03-06 16:00;METAR CYUL 061600Z 23016KT 2 1/2SM -SN OVC023 00/M03 A2940 RMK SC8 SLP959=
CYUL;2005-03-06 16:34;SPECI CYUL 061634Z 23022G28KT 1 1/4SM -SN BLSN OVC018 RMK SC8=
CYUL;2005-03-06 19:00;METAR CYUL 061900Z 26017KT 4SM -SN OVC011 01/M02 A2934 RMK SC8 SLP937=
CYUL;2005-03-06 20:00;METAR CYUL 062000Z 26017KT 6SM -SN SCT012 OVC032 01/M02 A2935 RMK SC4SC4 SLP940=
CYUL;2005-03-06 22:00;METAR CYUL 062200Z 26011KT 10SM FEW015 BKN050 BKN080 02/M02 A2940 RMK CF1SC6AC1 SLP959=
CYUL;2005-03-06 23:24;SPECI CYUL 062324Z 26014KT 4SM -SHSN FEW025 OVC045 RMK SC2SC6=
CYUL;2005-03-07 00:00;METAR CYUL 070000Z 29016KT 8SM -SHSN FEW020 OVC035 02/M02 A2948 RMK SC2SC6 SLP984=
CYUL;2005-03-07 00:21;SPECI CYUL 070021Z 31013G19KT 10SM FEW020 BKN045 OVC060 RMK SC2SC6SC1=
CYUL;2005-03-07 01:00;METAR CYUL 070100Z 31017G22KT 10SM FEW020 SCT120 M00/M07 A2953 RMK SC1AC2 SLP001=
CYUL;2005-03-07 03:00;METAR CYUL 070300Z 33008KT 15SM SCT040 M04/M10 A2963 RMK SC3 SLP036=
CYUL;2005-03-07 05:00;METAR CYUL 070500Z 36011KT 15SM FEW040 M06/M14 A2970 RMK SC2 SLP060=
CYUL;2005-03-07 06:00;METAR CYUL 070600Z 36010G16KT 15SM FEW040 M08/M16 A2973 RMK SC1 SLP071=
CYUL;2005-03-07 08:00;METAR CYUL 070800Z 02009KT 15SM FEW090 M10/M17 A2977 RMK AC1 SLP085=
CYUL;2005-03-07 10:00;METAR CYUL 071000Z 07010KT 15SM FEW090 FEW220 M11/M19 A2980 RMK AC1CI0 SLP094=
CYUL;2005-03-07 11:00;METAR CYUL 071100Z 05008KT 15SM SCT090 BKN220 M12/M21 A2979 RMK AC1CI1 SLP091=
CYUL;2005-03-07 12:00;METAR CYUL 071200Z 06010KT 15SM FEW030 SCT120 BKN220 M12/M21 A2979 RMK SF1AC1CI0 SLP090=
CYUL;2005-03-07 13:00;METAR CYUL 071300Z 06011KT 15SM FEW030 BKN060 OVC150 M12/M21 A2978 RMK SF1SC6AC1 SLP088=
CYUL;2005-03-07 14:00;METAR CYUL 071400Z 07012KT 15SM OVC050 M12/M20 A2974 RMK SC8 SLP073=
CYUL;2005-03-07 14:42;SPECI CYUL 071442Z 06011KT 10SM -SN OVC025 RMK SC8=
CYUL;2005-03-07 14:53;SPECI CYUL 071453Z 06011KT 2 1/2SM -SN OVC015 RMK SC8=
CYUL;2005-03-07 15:00;METAR CYUL 071500Z 05012KT 3/4SM R06L/P6000FT/D R06R/P6000FT/D -SN DRSN OVC015 M12/M18 A2974 RMK SN2SC6 SLP072=
CYUL;2005-03-07 15:41;SPECI CYUL 071541Z 05014KT 3/4SM R06L/3000V5000FT/U R06R/3500FT/U -SN=
CYUL;2005-03-07 16:00;METAR CYUL 071600Z 05017KT 1 1/4SM -SN DRSN OVC018 M13/M17 A2965 RMK SN2SC6 PRESFR RESN /S01/ SLP044=
CYUL;2005-03-07 16:16;SPECI CYUL 071616Z 06017KT 1 1/2SM R06L/4000VP6000FT/U R06R/3500VP6000FT/U -SN DRSN OVC024 RMK SC8=
CYUL;2005-03-07 16:29;SPECI CYUL 071629Z 06019KT 3/4SM R06L/4500FT/N R06R/4500FT/N -SN DRSN OVC017 RMK SN3SC5=
CYUL;2005-03-07 16:43;SPECI CYUL 071643Z 05017KT 1/2SM R06L/3500FT/N R06R/3500FT/N SN DRSN VV007 RMK SN8=
CYUL;2005-03-07 17:00;METAR CYUL 071700Z 05015G21KT 5/8SM R06L/4000FT/D R06R/4500FT/D -SN DRSN VV008 M13/M16 A2959 RMK SN8 PRESFR RESN /S02/ SLP022=
CYUL;2005-03-07 17:11;SPECI CYUL 071711Z 05020G26KT 1 3/4SM -SN DRSN OVC035 RMK SC8=
CYUL;2005-03-07 17:32;SPECI CYUL 071732Z 05016KT 5/8SM R06L/3000V5500FT/D R06R/4000VP6000FT/D -SN DRSN VV008 RMK SN8=
CYUL;2005-03-07 17:42;SPECI CYUL 071742Z 05019KT 1 1/2SM -SN DRSN OVC030 RMK SN2SC6=
CYUL;2005-03-07 18:00;METAR CYUL 071800Z 05019G24KT 1 1/2SM -SN BLSN OVC025 M13/M16 A2949 RMK SC8 PRESFR /S03/ SLP988=
CYUL;2005-03-07 18:16;SPECI CYUL 071816Z 05019G24KT 1SM R06L/4000VP6000FT/D R06R/P6000FT/D -SN BLSN OVC018 RMK SN2SC6=
CYUL;2005-03-07 18:24;SPECI CYUL 071824Z 05015G24KT 5/8SM R06L/4000FT/N R06R/4000V5500FT/N -SN BLSN VV009 RMK SN8=
CYUL;2005-03-07 18:41;SPECI CYUL 071841Z 05016G21KT 1 1/2SM -SN BLSN OVC022 RMK SN3SC5=
CYUL;2005-03-07 20:05;SPECI CYUL 072005Z 04020KT 1 1/2SM -SN DRSN OVC020 RMK SC8=
CYUL;2005-03-07 20:12;SPECI CYUL 072012Z 04016G22KT 1 1/4SM -SN DRSN OVC020 RMK SN3SC5=
CYUL;2005-03-07 20:20;SPECI CYUL 072020Z 05018KT 2 1/2SM -SN DRSN FEW020 OVC035 RMK CF1SC7=
CYUL;2005-03-07 20:36;SPECI CYUL 072036Z 04018KT 4SM -SN DRSN FEW015 OVC045 RMK SF1SC7=
CYUL;2005-03-07 20:54;SPECI CYUL 072054Z 04018KT 1 1/2SM -SN DRSN OVC020 RMK SN3SC5=
CYUL;2005-03-07 21:08;SPECI CYUL 072108Z 04018KT 1 1/4SM -SN DRSN OVC035 RMK SN3SC5 RESN=
CYUL;2005-03-07 21:27;SPECI CYUL 072127Z 02017KT 1/2SM R06L/P6000FT/D R06R/P6000FT/D SN DRSN VV007 RMK SN8=
CYUL;2005-03-07 21:37;SPECI CYUL 072137Z 02016KT 1 1/2SM -SN DRSN OVC035 RMK SN2SC6 RESN=
CYUL;2005-03-07 22:17;SPECI CYUL 072217Z 02014KT 1SM R06L/P6000FT/U R06R/P6000FT/N -SN BLSN OVC025 RMK SN3SC5=
CYUL;2005-03-07 22:27;SPECI CYUL 072227Z 02015KT 5/8SM R06L/P6000FT/D R06R/P6000FT/D -SN BLSN VV010 RMK SN8=
CYUL;2005-03-07 22:52;SPECI CYUL 072252Z 03015KT 1 1/4SM -SN BLSN OVC023 RMK SN3SC5=
CYUL;2005-03-07 23:30;SPECI CYUL 072330Z 03013KT 2 1/2SM -PLSN DRSN OVC020 RMK SC8=
CYUL;2005-03-07 23:43;SPECI CYUL 072343Z 03013KT 3SM -PL -FZRA OVC017 RMK SC8=
CYUL;2005-03-08 00:00;METAR CYUL 080000Z 03014KT 4SM -PL SCT017 OVC030 M11/M13 A2924 RMK SC3SC5 REFZRA /S04/ SLP905=
CYUL;2005-03-08 00:42;SPECI CYUL 080042Z 03011G16KT 2SM -PL OVC015 RMK SC8=
CYUL;2005-03-08 01:38;SPECI CYUL 080138Z 01010KT 2 1/2SM -PL OVC013 RMK SC8=
CYUL;2005-03-08 02:51;SPECI CYUL 080251Z 03011KT 3SM -PL -FZDZ OVC011 RMK ST8=
CYUL;2005-03-08 03:00;METAR CYUL 080300Z 04012KT 8SM -FZDZ OVC010 M09/M12 A2922 RMK ST8 SLP898=
CYUL;2005-03-08 04:00;METAR CYUL 080400Z 02010KT 12SM -FZDZ OVC012 M09/M12 A2920 RMK ST8 SLP891=
CYUL;2005-03-08 04:44;SPECI CYUL 080444Z 01009KT 8SM -FZDZ OVC009 RMK ST8=
CYUL;2005-03-08 04:50;SPECI CYUL 080450Z 36008KT 8SM -PL -FZDZ OVC009 RMK ST8=
CYUL;2005-03-08 05:21;SPECI CYUL 080521Z 35007KT 2SM -PL OVC009 RMK ST8=
CYUL;2005-03-08 05:25;SPECI CYUL 080525Z 34008KT 2SM -FZDZ BKN010 OVC016 RMK ST6SC2=
CYUL;2005-03-08 06:44;SPECI CYUL 080644Z 29008KT 2 1/2SM -FZDZ OVC008 RMK ST8=
CYUL;2005-03-08 07:00;METAR CYUL 080700Z 29007KT 3SM -SN OVC007 M08/M10 A2923 RMK ST8 REFZDZ SLP899=
CYUL;2005-03-08 08:00;METAR CYUL 080800Z 25010KT 2 1/2SM -SN FEW008 BKN011 OVC018 M08/M10 A2925 RMK SF2ST5ST2 SLP908=
CYUL;2005-03-08 10:00;METAR CYUL 081000Z 27015KT 12SM -SN BKN014 OVC020 M10/M13 A2932 RMK ST6ST2 SLP931=
CYUL;2005-03-08 11:00;METAR CYUL 081100Z 26015KT 15SM -SN BKN023 M11/M14 A2935 RMK ST7 SLP943=
CYUL;2005-03-08 12:00;METAR CYUL 081200Z 27013KT 15SM -SN OVC030 M11/M15 A2937 RMK SC8 SLP949=
CYUL;2005-03-08 12:13;SPECI CYUL 081213Z 28012KT 2SM -SN OVC032 RMK SC8=
CYUL;2005-03-08 12:38;SPECI CYUL 081238Z 27014KT 1 1/4SM -SN OVC035 RMK SN2SC6=
CYUL;2005-03-08 13:00;METAR CYUL 081300Z 27012KT 15SM -SN OVC045 M11/M15 A2939 RMK SC8 SLP956=
CYUL;2005-03-08 14:00;METAR CYUL 081400Z 28012G17KT 15SM FEW020 OVC120 M12/M16 A2941 RMK SC1AC8 SLP961=
CYUL;2005-03-08 15:00;METAR CYUL 081500Z 28012KT 15SM FEW020 OVC120 M12/M16 A2942 RMK SC1AS7 SLP966=
CYUL;2005-03-08 16:00;METAR CYUL 081600Z 27012KT 15SM -SHSN FEW020 BKN038 OVC220 M11/M16 A2943 RMK SC1SC6CS2 SLP968=
CYUL;2005-03-08 17:00;METAR CYUL 081700Z 28010KT 15SM -SHSN FEW020 BKN025 OVC220 M11/M16 A2941 RMK SC1SC5CS2 SLP961=
CYUL;2005-03-08 17:31;SPECI CYUL 081731Z 27009KT 15SM FEW020 BKN150 OVC220 RMK SC1AS6CS2=
CYUL;2005-03-08 18:00;METAR CYUL 081800Z 27010KT 15SM FEW020 OVC150 M10/M16 A2940 RMK SC1AS7 SLP958=
CYUL;2005-03-08 20:00;METAR CYUL 082000Z 27010KT 15SM FEW030 BKN130 OVC220 M09/M15 A2938 RMK SC1AS6CS1 SLP951=
CYUL;2005-03-08 21:00;METAR CYUL 082100Z 28010G16KT 15SM BKN040 OVC120 M09/M15 A2937 RMK SC5AS3 SLP950=
CYUL;2005-03-08 22:00;METAR CYUL 082200Z 29011G17KT 15SM BKN040 BKN110 OVC220 M08/M15 A2940 RMK SC6AS2CI1 SLP959=
CYUL;2005-03-08 23:00;METAR CYUL 082300Z 30009KT 15SM FEW040 BKN100 M08/M15 A2939 RMK SC2AS5 SLP956=
CYUL;2005-03-09 00:00;METAR CYUL 090000Z 32014G19KT 15SM BKN042 BKN110 M08/M16 A2940 RMK SC6AS2 SLP960=
CYUL;2005-03-09 03:00;METAR CYUL 090300Z 32013G21KT 15SM FEW040 BKN130 M11/M19 A2941 RMK SC1AS7 SLP962=
CYUL;2005-03-09 04:00;METAR CYUL 090400Z 32014G20KT 15SM FEW040 BKN140 M12/M20 A2942 RMK SC1AS7 SLP966=
CYUL;2005-03-09 05:00;METAR CYUL 090500Z 31012G17KT 15SM BKN130 M13/M21 A2942 RMK AS7 SLP966=
CYUL;2005-03-09 07:00;METAR CYUL 090700Z 29013G18KT 15SM BKN120 M14/M22 A2941 RMK AS7 SLP963=
CYUL;2005-03-09 10:00;METAR CYUL 091000Z 28021G26KT 15SM OVC150 M16/M26 A2943 RMK AS8 SLP968=
CYUL;2005-03-09 11:00;METAR CYUL 091100Z 27020KT 15SM OVC150 M17/M26 A2943 RMK AC8 SLP970=
CYUL;2005-03-09 12:00;METAR CYUL 091200Z 27019G24KT 15SM OVC160 M17/M26 A2946 RMK AC8 SLP978=
CYUL;2005-03-09 13:00;METAR CYUL 091300Z 27021G30KT 15SM OVC170 M18/M27 A2947 RMK AS6 SLP983=
CYUL;2005-03-09 15:00;METAR CYUL 091500Z 27019G30KT 15SM FEW020 FEW150 BKN240 M16/M25 A2952 RMK SC1AC1CI2 SLP998=
CYUL;2005-03-09 16:00;METAR CYUL 091600Z 26023G32KT 15SM DRSN FEW025 SCT045 OVC240 M15/M24 A2953 RMK SC1SC3CI2 SLP002=
CYUL;2005-03-09 17:00;METAR CYUL 091700Z 26024G30KT 15SM DRSN FEW045 OVC220 M14/M22 A2953 RMK SC2CS4 SLP003=
CYUL;2005-03-09 18:00;METAR CYUL 091800Z 27024G35KT 15SM DRSN FEW040 OVC220 M13/M21 A2952 RMK SC2CS2 SLP998=
CYUL;2005-03-09 19:00;METAR CYUL 091900Z 27022G30KT 15SM DRSN FEW040 BKN220 M11/M21 A2951 RMK SC2CI1 SLP995=
CYUL;2005-03-09 21:00;METAR CYUL 092100Z 26018G29KT 15SM DRSN SCT045 BKN180 M10/M20 A2952 RMK SC2AC1 SLP999=
CYUL;2005-03-09 22:00;METAR CYUL 092200Z 26020G26KT 15SM FEW040 BKN050 BKN180 M10/M19 A2956 RMK SC1SC3AC1 SLP012=
CYUL;2005-03-10 00:00;METAR CYUL 100000Z 27016KT 15SM SCT045 SCT180 M10/M20 A2960 RMK SC2AC1 VIRGA SLP025=
CYUL;2005-03-10 01:39;SPECI CYUL 100139Z 28012KT 15SM FEW040 RMK SC2=
CYUL;2005-03-10 04:00;METAR CYUL 100400Z 27007KT 15SM FEW012 FEW030 FEW210 M13/M21 A2965 RMK SF1SC1CI1 SLP043=
CYUL;2005-03-10 06:00;METAR CYUL 100600Z 26007KT 15SM FEW035 M14/M23 A2966 RMK SC1 SLP047=
CYUL;2005-03-10 08:00;METAR CYUL 100800Z 25008KT 15SM SKC M16/M23 A2966 RMK SLP048=
CYUL;2005-03-10 09:00;METAR CYUL 100900Z 25009KT 15SM FEW032 FEW080 M16/M23 A2967 RMK SC1AC1 SLP050=
CYUL;2005-03-10 10:00;METAR CYUL 101000Z 26008KT 15SM FEW092 SCT120 OVC180 M16/M22 A2968 RMK AC1AC2AC1 SLP052=
CYUL;2005-03-10 11:00;METAR CYUL 101100Z 25008KT 30SM FEW010 FEW120 FEW180 M16/M21 A2967 RMK SF1AC2AC0 SLP051=
CYUL;2005-03-10 12:00;METAR CYUL 101200Z 24006KT 30SM FEW010 FEW070 FEW120 SCT180 M16/M22 A2968 RMK SF1AC1AC2AC1 SLP054=
CYUL;2005-03-10 15:00;METAR CYUL 101500Z 23013KT 30SM FEW015 FEW150 M13/M20 A2970 RMK CF1AC1 SLP059=
CYUL;2005-03-10 16:00;METAR CYUL 101600Z 22014KT 30SM FEW015 FEW210 M11/M19 A2969 RMK CF1CI1 SLP057=
CYUL;2005-03-10 18:00;METAR CYUL 101800Z 24019G25KT 30SM FEW040 SCT120 SCT210 M08/M19 A2965 RMK SC2AC1CI1 CF ASOCT SLP044=
CYUL;2005-03-10 19:00;METAR CYUL 101900Z 25020G27KT 30SM FEW040 FEW120 FEW210 M08/M21 A2964 RMK CF1AC1CI0 SLP041=
CYUL;2005-03-10 20:00;METAR CYUL 102000Z 25015G22KT 30SM FEW040 FEW120 SCT210 M08/M22 A2964 RMK CF1AC1CI2 SLP040=
CYUL;2005-03-10 21:00;METAR CYUL 102100Z 25015KT 30SM FEW040 FEW150 SCT210 M07/M21 A2964 RMK CF1AC1CI2 SLP039=
CYUL;2005-03-10 22:00;METAR CYUL 102200Z 25011KT 30SM FEW040 FEW150 SCT210 M06/M20 A2964 RMK SC1AC1CI2 SLP039=
CYUL;2005-03-11 00:00;METAR CYUL 110000Z 22007KT 15SM FEW080 FEW210 M08/M19 A2966 RMK AC1CI1 SLP045=
CYUL;2005-03-11 04:00;METAR CYUL 110400Z 20008KT 15SM FEW042 FEW070 SCT200 M09/M15 A2966 RMK SC2AC1CI0 SLP048=
CYUL;2005-03-11 06:00;METAR CYUL 110600Z 19002KT 15SM FEW055 FEW140 SCT210 M11/M15 A2967 RMK SC1AC1CI0 SLP050=
CYUL;2005-03-11 07:00;METAR CYUL 110700Z 21004KT 15SM -SN FEW030 FEW060 BKN082 BKN210 M10/M14 A2966 RMK SC1SC1AC5CI0 SLP046=
CYUL;2005-03-11 07:19;SPECI CYUL 110719Z 21005KT 15SM FEW030 BKN072 BKN210 RMK SC2AC5CI0=
CYUL;2005-03-11 07:56;SPECI CYUL 110756Z 21002KT 15SM -SN FEW030 BKN075 BKN210 RMK SC1AC4CI0 -SN INTMT=
CYUL;2005-03-11 09:00;METAR CYUL 110900Z 00000KT 15SM VCSH FEW034 FEW072 SCT210 M10/M13 A2964 RMK SC1AC2CI0 SLP040=
CYUL;2005-03-11 10:00;METAR CYUL 111000Z 15004KT 15SM FEW062 BKN090 OVC180 M10/M13 A2965 RMK SC2AC3CI1 SLP042=
CYUL;2005-03-11 11:00;METAR CYUL 111100Z 15005KT 15SM BKN088 OVC120 M10/M13 A2964 RMK AS6AC2 SLP041=
CYUL;2005-03-11 11:51;SPECI CYUL 111151Z 16006KT 12SM -SN BKN035 OVC085 RMK SC6AC2 VRY LGT PCPN=
CYUL;2005-03-11 12:00;METAR CYUL 111200Z 16006KT 12SM -SN FEW020 BKN031 OVC085 M08/M12 A2964 RMK SF1SC6AC2 VRY LGT PCPN SLP041=
CYUL;2005-03-11 12:47;SPECI CYUL 111247Z 17007KT 2 1/2SM -SN BKN015 OVC030 RMK SF5SC3=
CYUL;2005-03-11 12:53;SPECI CYUL 111253Z 17006KT 1 1/4SM -SN SCT015 OVC028 RMK SF3SC5=
CYUL;2005-03-11 13:00;METAR CYUL 111300Z 17008KT 1 1/4SM -SN FEW015 OVC024 M07/M10 A2964 RMK SN1SF2SC6 VSBY N 13/4 -SN SLP041=
CYUL;2005-03-11 13:04;SPECI CYUL 111304Z 16008KT 1SM R24L/P6000FT/D R24R/P6000FT/D -SN SCT008 OVC020 RMK SN2SF2SC5=
CYUL;2005-03-11 13:08;SPECI CYUL 111308Z 16007KT 3/4SM R24L/P6000FT/N R24R/P5500FT/D -SN BKN008 OVC017 RMK SN3SF2SC2=
CYUL;2005-03-11 13:11;SPECI CYUL 111311Z 17007KT 1/2SM R24L/P6000FT/D R24R/3000V5500FT/D SN BKN008 OVC017 RMK SN3SF2SC2=
CYUL;2005-03-11 13:17;SPECI CYUL 111317Z 17008KT 1/2SM R24L/4500V6000FT/D R24R/3000V4500FT/N SN OVC008 RMK SN7SF1=
CYUL;2005-03-11 13:20;SPECI CYUL 111320Z 17009KT 1/2SM R24L/4500V6000FT/D R24R/3500FT/N SN VV006 RMK SN8=
CYUL;2005-03-11 13:28;SPECI CYUL 111328Z 16010KT 3/4SM R24L/6000FT/U R24R/4000FT/D -SN DRSN BKN007 OVC017 RESN RMK SN6SF2SC1=
CYUL;2005-03-11 13:31;SPECI CYUL 111331Z 16010KT 1SM R24L/6000FT/U R24R/4000FT/U -SN DRSN BKN009 OVC020 RESN RMK SN5SF2SC1=
CYUL;2005-03-11 13:39;SPECI CYUL 111339Z 16009KT 1 1/2SM R24L/P6000FT/N R24R/4000V6000FT/U -SN DRSN SCT009 BKN015 OVC033 RESN RMK SN2SF2SC2SC2=
CYUL;2005-03-11 14:12;SPECI CYUL 111412Z 15008KT 3SM -SN FEW015 BKN022 OVC038 RMK SF2SC4SC2=
CYUL;2005-03-11 15:24;SPECI CYUL 111524Z 15011KT 30SM -SN FEW020 BKN060 OVC190 RMK SC2SC4CS2=
CYUL;2005-03-11 16:00;METAR CYUL 111600Z 14008KT 15SM FEW030 BKN050 BKN140 OVC200 M04/M11 A2960 RMK SC1SC4AC2CS1 INTMT SN- SLP025=
CYUL;2005-03-11 17:00;METAR CYUL 111700Z 13007KT 15SM FEW040 FEW090 SCT120 OVC210 M02/M10 A2956 RMK SC1AC2AC2CS3 SLP013=
CYUL;2005-03-11 18:00;METAR CYUL 111800Z 14011KT 15SM FEW050 SCT120 OVC210 M02/M10 A2953 RMK SC2AC2CS3 CC ASOCT SLP004=
CYUL;2005-03-11 19:00;METAR CYUL 111900Z 16012KT 15SM FEW050 BKN100 OVC210 M01/M10 A2950 RMK SC1AS5CS2 SLP994=
CYUL;2005-03-11 20:00;METAR CYUL 112000Z 13014G21KT 15SM FEW040 SCT060 OVC090 M01/M10 A2949 RMK SC2SC2AS5 SLP990=
CYUL;2005-03-11 21:00;METAR CYUL 112100Z 14013KT 15SM FEW030 BKN050 OVC090 M01/M09 A2949 RMK SC2SC5AS2 SLP989=
CYUL;2005-03-11 21:33;SPECI CYUL 112133Z 13013KT 15SM -SN FEW020 OVC050 RMK SC2SC6=
CYUL;2005-03-11 22:00;METAR CYUL 112200Z 12013KT 15SM -SN FEW010 FEW025 OVC047 M02/M07 A2950 RMK SF1SC2SC6 SLP991=
CYUL;2005-03-11 22:18;SPECI CYUL 112218Z 12012KT 3SM -SN BKN014 BKN027 OVC040 RMK SC5SC2SC2=
CYUL;2005-03-11 22:24;SPECI CYUL 112224Z 11009KT 1 1/2SM -SN BKN010 OVC020 RMK SN3SC3SC2=
CYUL;2005-03-11 22:32;SPECI CYUL 112232Z 11009KT 2 1/2SM -SN BKN015 OVC030 RMK SN2SC3SC3=
CYUL;2005-03-11 22:45;SPECI CYUL 112245Z 11009KT 2 1/4SM -SN BKN013 OVC027 RMK SN2SC5SC2=
CYUL;2005-03-11 23:00;METAR CYUL 112300Z 11007KT 1 1/4SM -SN BKN010 OVC020 M03/M06 A2950 RMK SN2SC3SC3 SLP992=
CYUL;2005-03-11 23:23;SPECI CYUL 112323Z 09006KT 1 1/2SM -SN BKN009 OVC020 RMK SN3SC3SC2=
CYUL;2005-03-11 23:43;SPECI CYUL 112343Z 09006KT 3SM -SN SCT009 BKN014 OVC035 RMK SF3SC3SC2=
CYUL;2005-03-12 00:00;METAR CYUL 120000Z 09006KT 4SM -SN BKN009 BKN015 OVC030 M03/M05 A2950 RMK SC6SC2SC1 SLP991=
CYUL;2005-03-12 00:20;SPECI CYUL 120020Z 10009KT 1 1/2SM -SN OVC008 RMK SN5SC3=
CYUL;2005-03-12 00:28;SPECI CYUL 120028Z 10009KT 1 1/4SM -SN VV008 RMK SN8=
CYUL;2005-03-12 00:44;SPECI CYUL 120044Z 09008KT 3SM -SN FEW007 BKN012 OVC020 RMK SF2SF4SC2=
CYUL;2005-03-12 01:00;METAR CYUL 120100Z 09008KT 1 1/4SM -SN VV007 M03/M05 A2950 RMK SN8 SLP991=
CYUL;2005-03-12 01:22;SPECI CYUL 120122Z 10007KT 1 3/4SM -SN FEW008 BKN014 OVC020 RMK SF2SC4SC2=
CYUL;2005-03-12 02:00;METAR CYUL 120200Z 11008KT 3SM -SN FEW007 BKN012 OVC020 M03/M06 A2950 RMK SF2SC5SC2 /S01/ SLP991=
CYUL;2005-03-12 02:33;SPECI CYUL 120233Z 10008KT 5SM -SN SCT009 BKN018 OVC030 RMK SF3SC2SC3=
CYUL;2005-03-12 02:47;SPECI CYUL 120247Z 11008KT 2 1/2SM -SN SCT009 BKN012 OVC025 RMK SF3SC2SC3=
CYUL;2005-03-12 04:00;METAR CYUL 120400Z 10007KT 2 1/2SM -SN FEW008 BKN012 OVC030 M03/M06 A2947 RMK SF2SC4SC2 /S02 SLP982=
CYUL;2005-03-12 04:43;SPECI CYUL 120443Z 11007KT 2 1/2SM -SN FEW011 BKN022 OVC040 RMK SF2SC4SC2=
CYUL;2005-03-12 05:00;METAR CYUL 120500Z 11006KT 2 1/2SM -SN SCT010 BKN020 OVC038 M03/M05 A2945 RMK SF3SC3SC2 SLP976=
CYUL;2005-03-12 05:27;SPECI CYUL 120527Z 12008KT 1 3/4SM -SN FEW008 BKN012 OVC023 RMK SF2SC5SC2=
CYUL;2005-03-12 06:00;METAR CYUL 120600Z 12007KT 2SM -SN DRSN FEW010 BKN015 OVC030 M03/M05 A2944 RMK SF1SC6SC2 SLP972=
CYUL;2005-03-12 07:00;METAR CYUL 120700Z 12005KT 2SM -SN FEW009 BKN014 BKN023 OVC044 M03/M05 A2943 RMK SF2SC3SC2SC1 SLP968=
CYUL;2005-03-12 08:13;SPECI CYUL 120813Z 11006KT 2SM -SN BR OVC007 RMK SF8=
CYUL;2005-03-12 10:49;SPECI CYUL 121049Z 02004KT 1 1/4SM -SN SCT004 OVC007 RMK SN3SF1SF4=
CYUL;2005-03-12 11:18;SPECI CYUL 121118Z 02006KT 1SM -SN BR VV008 RMK SN8=
CYUL;2005-03-12 11:35;SPECI CYUL 121135Z 02006KT 3/4SM -SN BR VV011 RMK SN8=
CYUL;2005-03-12 11:48;SPECI CYUL 121148Z 02006KT 1SM R06L/P6000FT/N R06R/P6000FT/N -SN BR BKN012 OVC020 RMK SN6SF2SC1 VSBY VRBL 3/4-11/4=
CYUL;2005-03-12 12:00;METAR CYUL 121200Z 36003KT 1SM R06L/P6000FT/N R06R/P6000FT/U -SN BR VV012 M04/M06 A2941 RMK SN8 VSBY VRBL 3/4-11/4 /S02/ SLP960=
CYUL;2005-03-12 13:00;METAR CYUL 121300Z 01005KT 1SM R06L/P6000FT/N R06R/P6000FT/U -SN BR SCT007 VV014 M03/M05 A2941 RMK SF3SN5 SLP961=
CYUL;2005-03-12 13:09;SPECI CYUL 121309Z 01005KT 1 1/4SM R06L/P6000FT/N R06R/P6000FT/N -SN BR SCT007 BKN017 OVC026 RMK SF3SF4SC1=
CYUL;2005-03-12 13:32;SPECI CYUL 121332Z 03006KT 1SM R06L/P6000FT/N R06R/P6000FT/D -SN BR FEW007 VV015 RMK SF2SN6=
CYUL;2005-03-12 13:48;SPECI CYUL 121348Z 02006KT 3/4SM R06L/P6000FT/D R06R/4000VP6000FT -SN BR FEW008 VV015 RMK SF1SN7=
CYUL;2005-03-12 14:00;METAR CYUL 121400Z 02007KT 1SM R06L/P6000FT/U R06R/4500VP6000FT/U -SN FEW009 BKN016 OVC020 M03/M05 A2941 RMK SF2SF6SC1 VSBY VRBL 3/4-11/4 /S01/ SLP962=
CYUL;2005-03-12 14:29;SPECI CYUL 121429Z 02006KT 2 1/2SM -SN FEW007 BKN015 OVC022 RMK SF2SF5SC1=
CYUL;2005-03-12 15:00;METAR CYUL 121500Z 36005KT 2SM -SN BKN013 OVC020 M02/M05 A2941 RMK SC6SC2 SLP960=
CYUL;2005-03-12 15:12;SPECI CYUL 121512Z 36006KT 3SM -SN BKN013 OVC020 RMK SC7SC1=
CYUL;2005-03-12 15:50;SPECI CYUL 121550Z 36006KT 2SM -SN FEW009 OVC014 RMK SF2SC6=
CYUL;2005-03-12 16:00;METAR CYUL 121600Z 36005KT 3SM -SN FEW009 OVC015 M02/M05 A2941 RMK SF2SC6 SLP961=
CYUL;2005-03-12 16:05;SPECI CYUL 121605Z 01006KT 2SM -SN OVC015 RMK SN2SC6=
CYUL;2005-03-12 16:20;SPECI CYUL 121620Z 36005KT 2 1/2SM -SN BKN009 OVC015 RMK SN1SC6SC2=
CYUL;2005-03-12 17:10;SPECI CYUL 121710Z 36005KT 1 1/4SM -SN OVC009 RMK SN3SC5=
CYUL;2005-03-12 17:48;SPECI CYUL 121748Z 35005KT 1 3/4SM -SN FEW009 BKN013 OVC020 RMK SF2SC5SC2=
CYUL;2005-03-12 18:00;METAR CYUL 121800Z 35005KT 2SM -SN BKN009 OVC014 M02/M04 A2940 RMK SC6SC2 SLP959=
CYUL;2005-03-12 18:13;SPECI CYUL 121813Z 36005KT 1SM R06L/P6000FT/D R06R/P6000FT/D -SN VV009 RMK SN8=
CYUL;2005-03-12 18:37;SPECI CYUL 121837Z 01006KT 3/4SM R06L/6000FT/D R06R/4500FT/N -SN VV008 RMK SN8=
CYUL;2005-03-12 19:00;METAR CYUL 121900Z 36005KT 1SM R06L/P6000FT/U R06R/6000FT/N -SN VV008 M02/M04 A2942 RMK SN8 SLP965=
CYUL;2005-03-12 19:14;SPECI CYUL 121914Z 36006KT 3/4SM R06L/4000V5500FT/N R06R/3000V5500FT/D -SN VV008 RMK SN8=
CYUL;2005-03-12 20:48;SPECI CYUL 122048Z 32006KT 1 1/2SM R06L/P6000FT/N R06R/4500VP6000FT/U -SN BKN008 OVC018 RMK SN2SC5SC2=
CYUL;2005-03-12 21:23;SPECI CYUL 122123Z 34007KT 1 1/2SM -SN VV012 RMK SN8=
CYUL;2005-03-12 22:00;METAR CYUL 122200Z 35006KT 1 1/2SM -SN VV008 M02/M04 A2949 RMK SN8 SLP987=
CYUL;2005-03-12 22:17;SPECI CYUL 122217Z 35005KT 2 1/2SM -SN SCT008 BKN014 OVC025 RMK SF4SC2SC2=
CYUL;2005-03-12 23:32;SPECI CYUL 122332Z 32003KT 1 1/4SM -SN VV009 RMK SN8=
CYUL;2005-03-13 00:00;METAR CYUL 130000Z 34005KT 2 1/2SM -SN BKN007 OVC017 M02/M04 A2955 RMK SF5SC3 /S02/ SLP009=
CYUL;2005-03-13 00:23;SPECI CYUL 130023Z 32004KT 2 1/2SM -SN SCT008 OVC014 RMK SF3SC5=
CYUL;2005-03-13 01:00;METAR CYUL 130100Z 29003KT 3SM -SN FEW008 OVC018 M02/M05 A2957 RMK SF2SC6 SLP014=
CYUL;2005-03-13 03:00;METAR CYUL 130300Z 26005KT 5SM -SN FEW008 OVC060 M03/M06 A2961 RMK SF2SC6 SLP029=
CYUL;2005-03-13 04:00;METAR CYUL 130400Z 27004KT 8SM SCT014 OVC025 M04/M06 A2962 RMK SF3SC5 SLP033=
CYUL;2005-03-13 06:00;METAR CYUL 130600Z 28004KT 15SM BKN025 OVC150 M03/M05 A2963 RMK SC6AC2 SLP037=
CYUL;2005-03-13 09:09;SPECI CYUL 130909Z 20005KT 3/8SM R24L/6000FT/N R24R/1800V6000FT/D FZFG OVC020 RMK FG6SC2=
CYUL;2005-03-13 09:24;SPECI CYUL 130924Z 22004KT 1/8SM R24L/3500FT/N R24R/1000V2200FT/D FZFG OVC020 RMK FG6SC2=
CYUL;2005-03-13 10:00;METAR CYUL 131000Z 22004KT 1/8SM R06L/1000FT/N R06R/0800FT/N FZFG OVC005 M06/M09 A2967 RMK FG6SF2 SLP049=
CYUL;2005-03-13 12:00;METAR CYUL 131200Z 22002KT 1/8SM R06L/0900V1400FT/N R06R/1000FT/N FZFG OVC003 M06/M08 A2972 RMK FG6SF2 SLP066=
CYUL;2005-03-13 12:19;SPECI CYUL 131219Z 25002KT 1/4SM R06L/1200V4500FT/U R06R/1400FT/N FZFG BKN006 OVC016 RMK FG3SF2SF3=
CYUL;2005-03-13 13:16;SPECI CYUL 131316Z 00000KT 1SM R06L/4500V6000FT/U R06R/6000FT/N BR OVC018 RMK SF8=
CYUL;2005-03-13 14:50;SPECI CYUL 131450Z 00000KT 2SM BR FEW018 BKN035 RMK SC1SC1=
CYUL;2005-03-13 15:00;METAR CYUL 131500Z 00000KT 4SM BR FEW018 FEW035 SCT240 M03/M04 A2977 RMK SC1SC2CI0 SLP085=
CYUL;2005-03-13 16:00;METAR CYUL 131600Z 22002KT 12SM FEW018 BKN060 BKN200 M03/M06 A2978 RMK SC2SC2CC1 SLP088=
CYUL;2005-03-13 17:00;METAR CYUL 131700Z 22006KT 12SM BKN016 M02/M06 A2978 RMK SC7 SLP087=
CYUL;2005-03-13 18:00;METAR CYUL 131800Z 20007KT 15SM FEW020 FEW220 M02/M06 A2977 RMK SC2CI1 SLP084=
CYUL;2005-03-13 20:00;METAR CYUL 132000Z 23006KT 15SM FEW030 FEW070 M00/M06 A2976 RMK SC1AC1 SLP082=
CYUL;2005-03-13 21:00;METAR CYUL 132100Z 26011KT 15SM FEW040 FEW080 01/M08 A2976 RMK SC2AC1 SLP081=
CYUL;2005-03-13 23:00;METAR CYUL 132300Z 25013KT 15SM SCT055 BKN070 M00/M07 A2980 RMK SC3AC1 SLP093=
CYUL;2005-03-14 00:00;METAR CYUL 140000Z 26011KT 15SM FEW050 BKN240 M01/M08 A2982 RMK SC2CI2 SLP099=
CYUL;2005-03-14 01:00;METAR CYUL 140100Z 26007KT 15SM OVC045 M02/M09 A2984 RMK SC8 SLP106=
CYUL;2005-03-14 03:00;METAR CYUL 140300Z 25010KT 15SM BKN060 BKN080 M02/M11 A2986 RMK SC6AC1 SLP113=
CYUL;2005-03-14 04:00;METAR CYUL 140400Z 27008KT 15SM SCT060 M03/M11 A2986 RMK SC2 SLP113=
CYUL;2005-03-14 05:00;METAR CYUL 140500Z 24007KT 15SM FEW060 FEW240 M04/M11 A2986 RMK SC1CI0 SLP115=
CYUL;2005-03-14 07:00;METAR CYUL 140700Z 25005KT 15SM BKN060 M05/M12 A2986 RMK SC5 SLP114=
CYUL;2005-03-14 08:00;METAR CYUL 140800Z 20005KT 15SM FEW060 BKN070 M07/M13 A2986 RMK SF2AC2 SLP113=
CYUL;2005-03-14 09:00;METAR CYUL 140900Z 22007KT 15SM FEW050 SCT070 M07/M14 A2986 RMK SF0AC1 SLP114=
CYUL;2005-03-14 10:00;METAR CYUL 141000Z 22006KT 15SM FEW070 FEW240 M08/M14 A2987 RMK AC0CI0 SLP116=
CYUL;2005-03-14 12:00;METAR CYUL 141200Z 23006KT 15SM FEW045 SCT240 M08/M14 A2989 RMK SC1CI0 SLP125=
CYUL;2005-03-14 13:00;METAR CYUL 141300Z 25008KT 15SM FEW240 M07/M13 A2989 RMK CI0 SLP124=
CYUL;2005-03-14 14:00;METAR CYUL 141400Z 25009KT 15SM SCT120 BKN240 M05/M11 A2989 RMK AC2CI0 SLP125=
CYUL;2005-03-14 15:00;METAR CYUL 141500Z 22007KT 15SM FEW120 FEW240 M03/M10 A2989 RMK AC1CI1 SLP123=
CYUL;2005-03-14 16:00;METAR CYUL 141600Z 25010KT 15SM FEW240 M02/M09 A2988 RMK CI1 SLP122=
CYUL;2005-03-14 17:00;METAR CYUL 141700Z 25012KT 15SM FEW240 M00/M08 A2987 RMK CI2 SLP117=
CYUL;2005-03-14 18:00;METAR CYUL 141800Z 25010KT 15SM FEW240 01/M08 A2985 RMK CI2 SLP112=
CYUL;2005-03-14 19:00;METAR CYUL 141900Z 26015KT 15SM FEW040 FEW240 02/M07 A2984 RMK SC1CI2 SLP108=
CYUL;2005-03-14 21:00;METAR CYUL 142100Z 25013G18KT 15SM FEW070 BKN110 02/M07 A2984 RMK AC1AS6 AC ASOCT SLP109=
CYUL;2005-03-14 22:00;METAR CYUL 142200Z 27009KT 15SM FEW070 BKN090 02/M07 A2986 RMK AC2AS6 SLP113=
CYUL;2005-03-14 23:00;METAR CYUL 142300Z 34006KT 15SM BKN070 BKN240 02/M07 A2987 RMK AC6CI1 SLP119=
CYUL;2005-03-15 00:00;METAR CYUL 150000Z 29006KT 15SM OVC070 02/M08 A2988 RMK AC8 VIRGA SLP121=
CYUL;2005-03-15 01:00;METAR CYUL 150100Z 32007KT 15SM OVC070 02/M09 A2989 RMK AC8 VIRGA SLP124=
CYUL;2005-03-15 04:00;METAR CYUL 150400Z 36009G16KT 15SM OVC065 01/M09 A2992 RMK SC7 SLP133=
CYUL;2005-03-15 07:00;METAR CYUL 150700Z 33009KT 15SM SCT130 M02/M09 A2992 RMK AC4 SLP136=
CYUL;2005-03-15 10:00;METAR CYUL 151000Z 30006KT 15SM OVC043 M02/M08 A2995 RMK SC8 SLP144=
CYUL;2005-03-15 11:00;METAR CYUL 151100Z 29006KT 15SM OVC040 M02/M08 A2995 RMK SC8 SLP146=
CYUL;2005-03-15 12:00;METAR CYUL 151200Z 28006KT 15SM OVC043 M02/M07 A2996 RMK SC8 SLP149=
CYUL;2005-03-15 14:00;METAR CYUL 151400Z 27007KT 15SM OVC043 M01/M07 A2998 RMK SC8 SLP154=
CYUL;2005-03-15 15:00;METAR CYUL 151500Z 29007KT 15SM BKN041 BKN240 M01/M07 A2998 RMK SC6CI0 SLP154=
CYUL;2005-03-15 16:00;METAR CYUL 151600Z 30007KT 15SM FEW030 BKN040 00/M07 A2998 RMK CF1SC6 SLP154=
CYUL;2005-03-15 17:00;METAR CYUL 151700Z 25012KT 15SM FEW030 BKN040 01/M07 A2998 RMK CF1SC6 SLP153=
CYUL;2005-03-15 18:00;METAR CYUL 151800Z 25013KT 15SM FEW030 BKN040 BKN070 01/M06 A2997 RMK CF1SC7AC1 SLP150=
CYUL;2005-03-15 22:00;METAR CYUL 152200Z 25015G21KT 15SM FEW045 BKN070 02/M07 A2994 RMK SC1AC6 SLP142=
CYUL;2005-03-16 00:00;METAR CYUL 160000Z 25008KT 15SM FEW070 OVC110 01/M07 A2995 RMK AC2AC6 SLP144=
CYUL;2005-03-16 01:00;METAR CYUL 160100Z 26010KT 15SM OVC070 01/M06 A2994 RMK AC8 SLP140=
CYUL;2005-03-16 02:00;METAR CYUL 160200Z 28009KT 15SM OVC060 02/M06 A2994 RMK SC8 SLP141=
CYUL;2005-03-16 02:29;SPECI CYUL 160229Z 27011KT 10SM -SHSN OVC045 RMK SC8=
CYUL;2005-03-16 04:00;METAR CYUL 160400Z 27011KT 1 3/4SM -SN DRSN SCT011 OVC022 M01/M04 A2993 RMK SF3SC5 SLP138=
CYUL;2005-03-16 04:44;SPECI CYUL 160444Z 27012KT 2 1/2SM -SN DRSN FEW011 BKN022 OVC050 RMK SF2SC5SC1=
CYUL;2005-03-16 05:38;SPECI CYUL 160538Z 27016KT 1 1/4SM -SN DRSN FEW008 BKN011 OVC022 RMK SN2SF1SF5SC1=
CYUL;2005-03-16 06:51;SPECI CYUL 160651Z 27015KT 1 1/2SM -SN DRSN SCT009 OVC020 RMK SN3SF1SC4=
CYUL;2005-03-16 07:00;METAR CYUL 160700Z 27014G19KT 1 1/2SM -SN DRSN SCT009 OVC020 M03/M05 A2993 RMK SN3SF1SC4 SLP139=
CYUL;2005-03-16 07:42;SPECI CYUL 160742Z 27014KT 4SM -SN DRSN FEW007 BKN032 OVC055 RMK SF1SC5SC2=
CYUL;2005-03-16 10:00;METAR CYUL 161000Z 29012KT 2SM -SN DRSN FEW009 BKN014 OVC032 M03/M06 A2994 RMK SN2SF1SC4SC2 SLP140=
CYUL;2005-03-16 10:27;SPECI CYUL 161027Z 28007KT 2 1/2SM -SN FEW010 BKN017 OVC033 RMK SN1SF2SC3SC2=
CYUL;2005-03-16 11:00;METAR CYUL 161100Z 29012KT 2 1/4SM -SN DRSN FEW010 BKN017 OVC033 M04/M07 A2995 RMK SN1SF2SC4SC2 SLP145=
CYUL;2005-03-16 11:30;SPECI CYUL 161130Z 29010KT 4SM -SN DRSN FEW006 BKN016 BKN033 BKN140 RMK SF1SC4SC1AC2=
CYUL;2005-03-16 12:41;SPECI CYUL 161241Z 29011G17KT 15SM DRSN VCSH FEW010 SCT029 BKN043 BKN220 RMK SF2SC2SC2CI1=
CYUL;2005-03-16 13:00;METAR CYUL 161300Z 28011G18KT 15SM DRSN FEW011 FEW027 SCT045 BKN100 BKN150 M04/M08 A2996 RMK SF1SC2SC1AS1AC2 SLP149=
CYUL;2005-03-16 14:00;METAR CYUL 161400Z 29013G19KT 15SM DRSN FEW012 FEW030 BKN150 BKN200 OVC240 M04/M10 A2996 RMK SF1SC2AC2CS0CI0 SLP148=
CYUL;2005-03-16 15:00;METAR CYUL 161500Z 29014KT 15SM DRSN FEW030 BKN150 OVC210 M04/M10 A2997 RMK SC2AC2CS2 SLP152=
CYUL;2005-03-16 16:00;METAR CYUL 161600Z 27011G18KT 15SM DRSN OVC028 OVC040 M03/M09 A2998 RMK SC7SC1 SLP156=
CYUL;2005-03-16 16:20;SPECI CYUL 161620Z 27013KT 15SM -SN DRSN FEW025 OVC030 RMK SC1SC7=
CYUL;2005-03-16 17:00;METAR CYUL 161700Z 27013KT 15SM -SN DRSN FEW020 BKN030 OVC100 M03/M10 A2999 RMK SC2SC5AS2 SLP157=
CYUL;2005-03-16 18:00;METAR CYUL 161800Z 28017KT 10SM -SN DRSN FEW015 BKN035 OVC090 M03/M08 A2999 RMK SF2SC3AS3 SLP158=
CYUL;2005-03-16 19:00;METAR CYUL 161900Z 27011G17KT 15SM VCSH FEW025 BKN040 BKN210 M02/M09 A2998 RMK CF2SC3CI0 SLP154=
CYUL;2005-03-16 20:00;METAR CYUL 162000Z 28012KT 30SM FEW025 BKN035 BKN210 M02/M09 A2998 RMK CF1SC5CI0 SLP155=
CYUL;2005-03-16 20:37;SPECI CYUL 162037Z 30010G16KT 30SM -SHSN BKN030 BKN090 BKN210 RMK SC6AC1CI1=
CYUL;2005-03-16 21:00;METAR CYUL 162100Z 30012KT 30SM VCSH FEW025 BKN040 BKN090 M02/M09 A2998 RMK CF1SC6AC1 SLP153=
CYUL;2005-03-16 22:00;METAR CYUL 162200Z 31011KT 15SM FEW025 BKN035 BKN090 M02/M09 A2999 RMK CF1SC5AC2 SLP157=
CYUL;2005-03-16 23:00;METAR CYUL 162300Z 29008KT 15SM FEW030 BKN065 BKN120 OVC210 M02/M10 A3001 RMK SC1SC4AC2CI0 SLP166=
CYUL;2005-03-17 00:00;METAR CYUL 170000Z 30008KT 15SM SCT060 BKN130 M02/M10 A3002 RMK SC3AC3 SLP169=
CYUL;2005-03-17 00:42;SPECI CYUL 170042Z 32008KT 15SM -SHSN SCT060 OVC120 RMK SC3AC4=
CYUL;2005-03-17 02:00;METAR CYUL 170200Z 31009KT 15SM -SHSN FEW060 BKN090 OVC120 M03/M10 A3003 RMK SC2AC5AC1 SLP170=
CYUL;2005-03-17 04:00;METAR CYUL 170400Z 29006KT 15SM BKN062 BKN090 BKN120 M04/M11 A3001 RMK SC6AC1AC1 SLP164=
CYUL;2005-03-17 05:00;METAR CYUL 170500Z 27006KT 15SM BKN058 BKN070 M05/M11 A3002 RMK SC5AC1 SLP167=
CYUL;2005-03-17 06:00;METAR CYUL 170600Z 27008KT 15SM FEW058 SCT078 BKN130 M05/M11 A3002 RMK SC2AC2AC1 SLP167=
CYUL;2005-03-17 09:00;METAR CYUL 170900Z 26007KT 15SM FEW055 FEW100 M07/M12 A3000 RMK SC1AS0 SLP163=
CYUL;2005-03-17 10:00;METAR CYUL 171000Z 27008KT 15SM SKC M08/M12 A3000 RMK SLP162=
CYUL;2005-03-17 11:00;METAR CYUL 171100Z 27008KT 30SM FEW050 FEW090 FEW120 FEW220 M09/M13 A3001 RMK SC1AC1AC1CI0 SLP164=
CYUL;2005-03-17 12:00;METAR CYUL 171200Z 27009KT 30SM FEW015 FEW120 FEW220 M08/M12 A3002 RMK SF1AC1CI1 SLP168=
CYUL;2005-03-17 13:00;METAR CYUL 171300Z 28008KT 30SM FEW050 FEW100 M07/M12 A3002 RMK SC1AC1 SLP168=
CYUL;2005-03-17 15:00;METAR CYUL 171500Z 26010KT 30SM FEW080 FEW210 M05/M12 A3001 RMK AC1CI1 SLP166=
CYUL;2005-03-17 16:00;METAR CYUL 171600Z 26008KT 30SM FEW020 FEW090 FEW210 M04/M11 A3000 RMK CF1AC1CI1 SLP163=
CYUL;2005-03-17 17:00;METAR CYUL 171700Z 28008KT 30SM FEW240 M03/M11 A2999 RMK CI0 SLP157=
CYUL;2005-03-17 18:00;METAR CYUL 171800Z 24009KT 30SM FEW210 M02/M11 A2997 RMK CI0 SLP152=
CYUL;2005-03-17 19:00;METAR CYUL 171900Z 21011KT 30SM FEW040 FEW240 M01/M10 A2995 RMK SC1CI0 SLP146=
CYUL;2005-03-17 20:00;METAR CYUL 172000Z 25008KT 30SM FEW040 FEW120 FEW240 M00/M11 A2995 RMK SC1AC1CI0 SLP144=
CYUL;2005-03-17 21:00;METAR CYUL 172100Z 23011KT 30SM FEW120 SCT240 M00/M11 A2993 RMK AC2CI1 SLP139=
CYUL;2005-03-17 22:00;METAR CYUL 172200Z 23007KT 15SM FEW060 FEW110 SCT210 M01/M11 A2994 RMK SC1AC1CI1 SLP140=
CYUL;2005-03-18 00:00;METAR CYUL 180000Z 25005KT 15SM BKN100 BKN210 M01/M11 A2997 RMK AC4CI0 SLP152=
CYUL;2005-03-18 02:00;METAR CYUL 180200Z 30004KT 15SM FEW090 FEW210 M04/M11 A2998 RMK AC1CI1 SLP156=
CYUL;2005-03-18 04:00;METAR CYUL 180400Z 28004KT 15SM FEW180 M06/M12 A2999 RMK AC1 SLP157=
CYUL;2005-03-18 07:00;METAR CYUL 180700Z 31006KT 15SM SKC M08/M13 A2998 RMK SLP155=
CYUL;2005-03-18 09:00;METAR CYUL 180900Z 20006KT 15SM FEW018 M08/M13 A2999 RMK SC1 SLP158=
CYUL;2005-03-18 10:00;METAR CYUL 181000Z 21003KT 15SM SKC M09/M13 A3000 RMK SLP161=
CYUL;2005-03-18 11:00;METAR CYUL 181100Z 00000KT 30SM FEW045 FEW200 M11/M14 A3001 RMK SC1CI1 SLP165=
CYUL;2005-03-18 12:00;METAR CYUL 181200Z 22003KT 30SM FEW040 FEW200 M09/M13 A3002 RMK SC1CI1 FROIN SLP167=
CYUL;2005-03-18 15:00;METAR CYUL 181500Z 27015KT 30SM FEW220 M04/M10 A3003 RMK CI1 SLP172=
CYUL;2005-03-18 16:00;METAR CYUL 181600Z 28012KT 30SM FEW040 FEW220 M03/M10 A3001 RMK SC1CI1 SLP166=
CYUL;2005-03-18 17:00;METAR CYUL 181700Z 25011KT 30SM FEW040 FEW100 FEW220 M02/M10 A3001 RMK SC1AC1CI1 SLP164=
CYUL;2005-03-18 18:00;METAR CYUL 181800Z 26012KT 30SM FEW060 FEW100 FEW220 M01/M10 A3000 RMK SC1AC1CI1 SLP161=
CYUL;2005-03-18 23:00;METAR CYUL 182300Z 27010KT 30SM FEW050 BKN063 01/M08 A3004 RMK SC2SC4 SLP174=
CYUL;2005-03-19 03:00;METAR CYUL 190300Z 28005KT 15SM FEW060 FEW090 M03/M09 A3009 RMK SC1AC1 SLP192=
CYUL;2005-03-19 04:00;METAR CYUL 190400Z 29006KT 15SM FEW050 FEW085 FEW240 M04/M10 A3010 RMK SC1AC1CI1 SLP195=
CYUL;2005-03-19 07:00;METAR CYUL 190700Z 28005KT 15SM SKC M06/M11 A3013 RMK SLP205=
CYUL;2005-03-19 09:00;METAR CYUL 190900Z 30004KT 15SM SKC M07/M11 A3015 RMK SLP212=
CYUL;2005-03-19 10:00;METAR CYUL 191000Z 19002KT 15SM SKC M08/M12 A3018 RMK SLP221=
CYUL;2005-03-19 11:00;METAR CYUL 191100Z 00000KT 30SM FEW090 M09/M12 A3019 RMK AC1 FROIN SLP224=
CYUL;2005-03-19 12:00;METAR CYUL 191200Z 00000KT 30SM SKC M07/M11 A3020 RMK SLP229=
CYUL;2005-03-19 13:00;METAR CYUL 191300Z 00000KT 30SM SKC M05/M11 A3021 RMK SLP232=
CYUL;2005-03-19 14:00;METAR CYUL 191400Z 22006KT 15SM SKC M04/M10 A3021 RMK SLP231=
CYUL;2005-03-19 16:00;METAR CYUL 191600Z 24007KT 30SM FEW210 00/M08 A3019 RMK CI1 SLP226=
CYUL;2005-03-19 20:00;METAR CYUL 192000Z 25012KT 30SM FEW040 FEW210 03/M08 A3014 RMK SC1CI1 SLP209=
CYUL;2005-03-19 22:00;METAR CYUL 192200Z 24011KT 30SM FEW040 FEW210 03/M08 A3013 RMK SC1CI1 SLP206=
CYUL;2005-03-20 00:00;METAR CYUL 200000Z 22005KT 15SM FEW240 01/M08 A3014 RMK CI1 SLP209=
CYUL;2005-03-20 02:00;METAR CYUL 200200Z 26005KT 15SM SKC M01/M09 A3015 RMK SLP212=
CYUL;2005-03-20 03:00;METAR CYUL 200300Z 20002KT 15SM SKC M02/M09 A3015 RMK SLP211=
CYUL;2005-03-20 04:00;METAR CYUL 200400Z 20003KT 15SM FEW240 M04/M09 A3015 RMK CI1 SLP211=
CYUL;2005-03-20 05:00;METAR CYUL 200500Z 20003KT 15SM SKC M05/M10 A3014 RMK SLP207=
CYUL;2005-03-20 07:00;METAR CYUL 200700Z 21002KT 15SM SKC M06/M10 A3012 RMK SLP203=
CYUL;2005-03-20 09:00;METAR CYUL 200900Z 23002KT 15SM SKC M07/M11 A3011 RMK SLP197=
CYUL;2005-03-20 10:00;METAR CYUL 201000Z 00000KT 15SM SKC M08/M11 A3011 RMK SLP198=
CYUL;2005-03-20 13:00;METAR CYUL 201300Z 26002KT 30SM FEW240 M04/M09 A3012 RMK CI1 SLP203=
CYUL;2005-03-20 14:00;METAR CYUL 201400Z 00000KT 30SM BKN240 01/M08 A3011 RMK CI2 SLP200=
CYUL;2005-03-20 15:00;METAR CYUL 201500Z 00000KT 30SM SCT240 01/M08 A3011 RMK CI1 SLP197=
CYUL;2005-03-20 16:00;METAR CYUL 201600Z 00000KT 30SM BKN240 04/M08 A3008 RMK CI2 SLP189=
CYUL;2005-03-20 17:00;METAR CYUL 201700Z 18003KT 30SM BKN240 03/M08 A3006 RMK CI2 SLP183=
CYUL;2005-03-20 22:00;METAR CYUL 202200Z 21007KT 30SM BKN240 03/M08 A2999 RMK CI1 SLP157=
CYUL;2005-03-20 23:00;METAR CYUL 202300Z 22007KT 30SM BKN240 03/M08 A2999 RMK CI2 SLP158=
CYUL;2005-03-21 00:00;METAR CYUL 210000Z 20006KT 15SM BKN240 02/M07 A3000 RMK CI1 SLP161=
CYUL;2005-03-21 03:00;METAR CYUL 210300Z 16004KT 15SM FEW240 M02/M08 A2999 RMK CI1 SLP157=
CYUL;2005-03-21 04:00;METAR CYUL 210400Z 17003KT 15SM FEW240 M02/M07 A2998 RMK CI0 SLP154=
CYUL;2005-03-21 05:00;METAR CYUL 210500Z 00000KT 15SM FEW240 M02/M07 A2998 RMK CI1 SLP154=
CYUL;2005-03-21 07:00;METAR CYUL 210700Z 00000KT 15SM FEW240 M05/M09 A2998 RMK CI1 SLP153=
CYUL;2005-03-21 09:00;METAR CYUL 210900Z 03003KT 15SM FEW240 M05/M08 A2997 RMK CI1 SLP152=
CYUL;2005-03-21 10:00;METAR CYUL 211000Z 03002KT 15SM FEW240 M05/M08 A2998 RMK CI1 SLP154=
CYUL;2005-03-21 12:00;METAR CYUL 211200Z 32002KT 12SM FEW240 M05/M08 A3000 RMK CI1 SLP163=
CYUL;2005-03-21 16:00;METAR CYUL 211600Z 04002KT 15SM FEW240 02/M07 A3001 RMK CI1 SLP165=
CYUL;2005-03-21 17:00;METAR CYUL 211700Z 21003KT 15SM BKN240 03/M08 A3000 RMK CI1 SLP162=
CYUL;2005-03-21 18:00;METAR CYUL 211800Z 24005KT 15SM BKN240 04/M07 A2999 RMK CI2 SLP158=
CYUL;2005-03-21 19:00;METAR CYUL 211900Z 22006KT 15SM BKN240 04/M07 A2998 RMK CI1 SLP154=
CYUL;2005-03-21 21:00;METAR CYUL 212100Z 21007KT 15SM SCT240 04/M07 A2998 RMK CI1 SLP155=
CYUL;2005-03-21 22:00;METAR CYUL 212200Z 22008KT 15SM SCT240 05/M07 A2999 RMK CI1 SLP158=
CYUL;2005-03-22 01:00;METAR CYUL 220100Z 22005KT 15SM FEW240 02/M07 A3003 RMK CI1 SLP170=
CYUL;2005-03-22 04:00;METAR CYUL 220400Z 17002KT 15SM FEW240 M02/M07 A3003 RMK CI1 SLP172=
CYUL;2005-03-22 05:00;METAR CYUL 220500Z 23002KT 15SM SKC M03/M08 A3003 RMK SLP173=
CYUL;2005-03-22 06:00;METAR CYUL 220600Z 00000KT 15SM FEW240 M04/M08 A3004 RMK CI1 SLP175=
CYUL;2005-03-22 08:00;METAR CYUL 220800Z 21004KT 15SM SKC M04/M09 A3003 RMK SLP173=
CYUL;2005-03-22 09:00;METAR CYUL 220900Z 20006KT 15SM SKC M04/M09 A3005 RMK SLP179=
CYUL;2005-03-22 10:00;METAR CYUL 221000Z 21007KT 15SM SKC M04/M09 A3007 RMK SLP184=
CYUL;2005-03-22 11:00;METAR CYUL 221100Z 22005KT 15SM SKC M04/M09 A3008 RMK SLP190=
CYUL;2005-03-22 12:00;METAR CYUL 221200Z 22003KT 15SM SKC M03/M08 A3010 RMK SLP195=
CYUL;2005-03-22 13:00;METAR CYUL 221300Z 26005KT 15SM FEW240 M01/M08 A3011 RMK CI1 CONTRAILS SLP199=
CYUL;2005-03-22 15:00;METAR CYUL 221500Z 25007KT 15SM FEW240 02/M06 A3011 RMK CI1 SLP200=
CYUL;2005-03-22 16:00;METAR CYUL 221600Z 22012KT 15SM FEW240 02/M06 A3011 RMK CI1 SLP198=
CYUL;2005-03-22 17:00;METAR CYUL 221700Z 22011KT 30SM FEW240 03/M06 A3011 RMK CI1 SLP198=
CYUL;2005-03-22 21:00;METAR CYUL 222100Z 24016KT 30SM FEW240 05/M07 A3004 RMK CI0 SLP176=
CYUL;2005-03-22 22:00;METAR CYUL 222200Z 25010G17KT 30SM BKN090 BKN240 05/M08 A3004 RMK AC6CI0 SLP175=
CYUL;2005-03-22 23:00;METAR CYUL 222300Z 24012KT 30SM FEW090 SCT240 05/M08 A3003 RMK AC2CI0 SLP173=
CYUL;2005-03-23 00:00;METAR CYUL 230000Z 24011KT 15SM BKN065 BKN240 04/M08 A3004 RMK SC4CI0 SLP175=
CYUL;2005-03-23 01:00;METAR CYUL 230100Z 25013G20KT 15SM FEW035 BKN090 OVC240 05/M06 A3005 RMK SC2AC4CI0 SLP177=
CYUL;2005-03-23 02:00;METAR CYUL 230200Z 27008KT 15SM SCT060 BKN240 03/M05 A3005 RMK SC3CI0 SLP177=
CYUL;2005-03-23 04:00;METAR CYUL 230400Z 30015KT 15SM BKN095 BKN240 01/M09 A3008 RMK AC4CI2 SLP189=
CYUL;2005-03-23 08:00;METAR CYUL 230800Z 31008KT 15SM SKC M04/M11 A3014 RMK SLP210=
CYUL;2005-03-23 09:00;METAR CYUL 230900Z 31004KT 15SM SKC M05/M11 A3016 RMK SLP216=
CYUL;2005-03-23 10:00;METAR CYUL 231000Z 27005KT 15SM SKC M05/M11 A3019 RMK SLP225=
CYUL;2005-03-23 11:00;METAR CYUL 231100Z 34002KT 30SM FEW240 M06/M11 A3020 RMK CI1 SLP228=
CYUL;2005-03-23 12:00;METAR CYUL 231200Z 00000KT 30SM FEW240 M05/M11 A3021 RMK CI1 SLP232=
CYUL;2005-03-23 13:00;METAR CYUL 231300Z 00000KT 30SM FEW040 SCT240 M03/M11 A3022 RMK SC1CI1 SLP237=
CYUL;2005-03-23 14:00;METAR CYUL 231400Z 33002KT 30SM BKN240 M02/M11 A3023 RMK CI2 SLP240=
CYUL;2005-03-23 15:00;METAR CYUL 231500Z 23002KT 30SM BKN180 BKN240 M01/M11 A3022 RMK AC2CI2 SLP237=
CYUL;2005-03-23 16:00;METAR CYUL 231600Z 28002KT 30SM BKN150 BKN240 M01/M10 A3020 RMK AC5CI1 SLP229=
CYUL;2005-03-23 17:00;METAR CYUL 231700Z 18002KT 30SM BKN150 OVC240 M00/M09 A3020 RMK AS5CI1 SLP228=
CYUL;2005-03-23 18:00;METAR CYUL 231800Z 19002KT 30SM BKN150 OVC240 M00/M09 A3018 RMK AS5CI0 SLP221=
CYUL;2005-03-23 19:00;METAR CYUL 231900Z 17004KT 30SM SCT120 OVC180 00/M09 A3017 RMK AC2AS3 SLP218=
CYUL;2005-03-23 20:00;METAR CYUL 232000Z 17007KT 30SM OVC180 01/M08 A3013 RMK AS5 SLP206=
CYUL;2005-03-23 21:00;METAR CYUL 232100Z 10005KT 30SM OVC180 01/M09 A3011 RMK AS5 SLP198=
CYUL;2005-03-23 22:00;METAR CYUL 232200Z 06008KT 15SM BKN180 OVC240 01/M09 A3008 RMK AS5CS0 SLP189=
CYUL;2005-03-23 23:00;METAR CYUL 232300Z 05010KT 15SM SCT180 OVC240 01/M09 A3007 RMK AC3CS5 SLP186=
CYUL;2005-03-24 00:00;METAR CYUL 240000Z 05008KT 15SM OVC220 00/M09 A3007 RMK CS8 SLP185=
CYUL;2005-03-24 02:00;METAR CYUL 240200Z 05010KT 15SM OVC200 M01/M09 A3004 RMK CS7 SLP176=
CYUL;2005-03-24 04:00;METAR CYUL 240400Z 04007KT 15SM OVC200 M01/M09 A3002 RMK CS7 SLP167=
CYUL;2005-03-24 06:00;METAR CYUL 240600Z 02006KT 15SM OVC200 M02/M08 A3000 RMK CS8 SLP161=
CYUL;2005-03-24 10:00;METAR CYUL 241000Z 02006KT 15SM OVC170 M03/M08 A2998 RMK AS8 SLP153=
CYUL;2005-03-24 12:00;METAR CYUL 241200Z 02005KT 15SM BKN170 OVC210 M03/M08 A2999 RMK AS6CS2 SLP157=
CYUL;2005-03-24 13:00;METAR CYUL 241300Z 35005KT 15SM BKN200 BKN240 M02/M08 A2999 RMK CS5CI1 COTRA SLP159=
CYUL;2005-03-24 14:00;METAR CYUL 241400Z 04004KT 15SM BKN200 BKN240 M01/M07 A3000 RMK CS3CI1 SLP160=
CYUL;2005-03-24 15:00;METAR CYUL 241500Z 00000KT 15SM FEW160 SCT200 BKN240 02/M06 A3000 RMK AC1CS0CI2 HZ SLP161=
CYUL;2005-03-24 16:00;METAR CYUL 241600Z 24004KT 15SM FEW170 SCT240 03/M05 A2999 RMK AC1CI1 CC ASOCT COTRA SLP158=
CYUL;2005-03-24 17:00;METAR CYUL 241700Z 19009KT 15SM FEW170 FEW210 FEW240 03/M06 A2999 RMK AC1CI1CI1 SLP157=
CYUL;2005-03-24 18:00;METAR CYUL 241800Z 22009KT 20SM FEW210 FEW240 04/M06 A2996 RMK CI1CC1 SLP149=
CYUL;2005-03-24 19:00;METAR CYUL 241900Z 25011KT 25SM FEW230 05/M07 A2994 RMK CI1 SLP141=
CYUL;2005-03-24 20:00;METAR CYUL 242000Z 25009KT 30SM FEW210 FEW240 06/M06 A2992 RMK CI1CI1 SLP133=
CYUL;2005-03-24 21:00;METAR CYUL 242100Z 24008KT 30SM FEW140 FEW210 FEW240 06/M07 A2990 RMK AC1CI0CI1 CC ASOCT SLP126=
CYUL;2005-03-24 22:00;METAR CYUL 242200Z 24010KT 30SM FEW120 FEW210 FEW240 06/M07 A2990 RMK AC1CI1CI0 SLP125=
CYUL;2005-03-25 00:00;METAR CYUL 250000Z 23007KT 15SM BKN070 BKN110 BKN240 05/M06 A2989 RMK AC6AC1CI1 SLP122=
CYUL;2005-03-25 03:00;METAR CYUL 250300Z 22009KT 15SM FEW040 OVC065 03/M03 A2987 RMK SC2SC6 SLP116=
CYUL;2005-03-25 04:00;METAR CYUL 250400Z 22015KT 15SM BKN045 BKN070 OVC120 03/M03 A2985 RMK SC6AC2AC1 SLP111=
CYUL;2005-03-25 04:30;SPECI CYUL 250430Z 23017G22KT 15SM -RA BKN047 OVC065 RMK SC6SC2=
CYUL;2005-03-25 04:38;SPECI CYUL 250438Z 23019G24KT 10SM -RASN BKN030 OVC045 RMK SC6SC2=
CYUL;2005-03-25 05:00;METAR CYUL 250500Z 24018G24KT 7SM -RASN BKN025 OVC050 03/M02 A2986 RMK SC6SC2 SLP114=
CYUL;2005-03-25 05:22;SPECI CYUL 250522Z 22015G20KT 15SM FEW020 SCT060 BKN080 BKN120 RMK SC2SC2AC2AS1=
CYUL;2005-03-25 08:00;METAR CYUL 250800Z 25011G16KT 10SM -SHSN FEW040 BKN070 OVC100 02/M02 A2984 RMK SC2AC2AS2 SLP108=
CYUL;2005-03-25 08:45;SPECI CYUL 250845Z 25016KT 15SM FEW040 BKN060 OVC080 RMK SC1SC6AC2=
CYUL;2005-03-25 09:00;METAR CYUL 250900Z 25016KT 15SM BKN055 OVC080 02/M03 A2985 RMK SC6AC2 SLP109=
CYUL;2005-03-25 10:00;METAR CYUL 251000Z 25015KT 15SM FEW060 BKN120 02/M03 A2986 RMK SC2AC4 SLP114=
CYUL;2005-03-25 11:00;METAR CYUL 251100Z 26008KT 15SM BKN045 02/M04 A2989 RMK SC7 SLP123=
CYUL;2005-03-25 12:00;METAR CYUL 251200Z 27012KT 15SM BKN045 02/M04 A2991 RMK SC6 SLP130=
CYUL;2005-03-25 16:00;METAR CYUL 251600Z 31007KT 30SM FEW022 FEW043 FEW240 02/M07 A3002 RMK SC1CF2CI1 SLP168=
CYUL;2005-03-25 17:00;METAR CYUL 251700Z 27013KT 30SM FEW025 FEW045 FEW240 02/M09 A3003 RMK SC1CF1CI1 SLP169=
CYUL;2005-03-25 18:00;METAR CYUL 251800Z 28012KT 30SM FEW045 FEW240 02/M10 A3003 RMK CF1CI1 SLP171=
CYUL;2005-03-25 19:00;METAR CYUL 251900Z 27011G16KT 30SM FEW025 FEW045 FEW240 02/M11 A3003 RMK SC1SC1CI0 SLP170=
CYUL;2005-03-25 21:00;METAR CYUL 252100Z 28010G15KT 30SM FEW240 02/M12 A3002 RMK CI1 SLP169=
CYUL;2005-03-25 22:00;METAR CYUL 252200Z 28009KT 30SM FEW045 02/M12 A3003 RMK CU1 SLP172=
CYUL;2005-03-25 23:00;METAR CYUL 252300Z 29010KT 30SM SKC 00/M13 A3005 RMK SLP178=
CYUL;2005-03-26 00:00;METAR CYUL 260000Z 29007KT 15SM FEW240 M01/M12 A3007 RMK CI1 SLP185=
CYUL;2005-03-26 01:00;METAR CYUL 260100Z 31007KT 15SM SKC M01/M14 A3009 RMK SLP193=
CYUL;2005-03-26 03:00;METAR CYUL 260300Z 32004KT 15SM SKC M05/M11 A3013 RMK SLP205=
CYUL;2005-03-26 05:00;METAR CYUL 260500Z 36003KT 15SM SKC M04/M13 A3015 RMK SLP212=
CYUL;2005-03-26 10:00;METAR CYUL 261000Z 01003KT 15SM SKC M04/M15 A3020 RMK SLP230=
CYUL;2005-03-26 12:00;METAR CYUL 261200Z 00000KT 30SM SKC M05/M12 A3023 RMK SLP240=
CYUL;2005-03-26 14:00;METAR CYUL 261400Z 13005KT 30SM SKC M02/M14 A3024 RMK SLP244=
CYUL;2005-03-26 15:00;METAR CYUL 261500Z 07002KT 30SM SKC M01/M14 A3025 RMK SLP245=
CYUL;2005-03-26 16:00;METAR CYUL 261600Z 13002KT 30SM SKC 01/M13 A3025 RMK SLP246=
CYUL;2005-03-26 19:00;METAR CYUL 261900Z 23003KT 30SM SKC 02/M14 A3019 RMK SLP225=
CYUL;2005-03-26 20:00;METAR CYUL 262000Z 25006KT 30SM FEW240 03/M12 A3018 RMK CI1 SLP223=
CYUL;2005-03-26 21:00;METAR CYUL 262100Z 21004KT 30SM FEW240 03/M12 A3017 RMK CI1 SLP218=
CYUL;2005-03-26 22:00;METAR CYUL 262200Z 24005KT 30SM FEW200 FEW240 02/M11 A3016 RMK CI1CI0 SLP216=
CYUL;2005-03-26 23:00;METAR CYUL 262300Z 22005KT 30SM FEW200 FEW240 02/M12 A3016 RMK CI1CI0 SLP214=
CYUL;2005-03-27 00:00;METAR CYUL 270000Z 20005KT 15SM FEW055 FEW180 FEW230 00/M11 A3015 RMK SC1AC1CI0 SLP213=
CYUL;2005-03-27 04:00;METAR CYUL 270400Z 17004KT 15SM FEW240 M02/M09 A3014 RMK CI0 SLP209=
CYUL;2005-03-27 06:00;METAR CYUL 270600Z 15003KT 15SM FEW240 M03/M09 A3014 RMK CI1 SLP208=
CYUL;2005-03-27 08:00;METAR CYUL 270800Z 00000KT 15SM FEW240 M04/M08 A3012 RMK CI1 SLP202=
CYUL;2005-03-27 10:00;METAR CYUL 271000Z 18002KT 15SM FEW240 M05/M09 A3012 RMK CI1 SLP201=
CYUL;2005-03-27 12:00;METAR CYUL 271200Z 20004KT 30SM FEW240 M02/M05 A3016 RMK CI1 SLP217=
CYUL;2005-03-27 13:00;METAR CYUL 271300Z 22004KT 30SM FEW240 00/M08 A3017 RMK CI1 SLP219=
CYUL;2005-03-27 14:00;METAR CYUL 271400Z 24005KT 15SM FEW240 01/M09 A3018 RMK CI1 SLP222=
CYUL;2005-03-27 15:00;METAR CYUL 271500Z 20005KT 15SM FEW240 04/M07 A3017 RMK CI1 SLP219=
CYUL;2005-03-27 16:00;METAR CYUL 271600Z 21007KT 15SM FEW240 05/M06 A3015 RMK CI1 SLP213=
CYUL;2005-03-27 22:00;METAR CYUL 272200Z 00000KT 15SM FEW240 08/M02 A3006 RMK CI0 SLP181=
CYUL;2005-03-28 00:00;METAR CYUL 280000Z 34004KT 15SM SCT240 05/M03 A3005 RMK CI1 SLP179=
CYUL;2005-03-28 02:00;METAR CYUL 280200Z 04004KT 15SM FEW240 06/M03 A3003 RMK CI1 SLP172=
CYUL;2005-03-28 04:00;METAR CYUL 280400Z 00000KT 15SM FEW240 03/M04 A3000 RMK CI0 SLP162=
CYUL;2005-03-28 08:00;METAR CYUL 280800Z 12004KT 15SM OVC050 03/M02 A2996 RMK SC8 SLP148=
CYUL;2005-03-28 09:00;METAR CYUL 280900Z 12005KT 15SM OVC055 04/M02 A2993 RMK SC8 SLP138=
CYUL;2005-03-28 12:00;METAR CYUL 281200Z 06006KT 15SM OVC040 04/M01 A2991 RMK SC8 SLP131=
CYUL;2005-03-28 13:35;SPECI CYUL 281335Z 11006KT 10SM -SHRA BKN040 OVC070 RMK SC7AC1=
CYUL;2005-03-28 16:00;METAR CYUL 281600Z 08007KT 3SM -RA BKN022 OVC050 04/01 A2987 RMK SC6SC2 SLP117=
CYUL;2005-03-28 16:52;SPECI CYUL 281652Z 09009KT 2 1/2SM -RA SCT010 OVC020 RMK SC3SC5=
CYUL;2005-03-28 17:00;METAR CYUL 281700Z 08009KT 2 1/2SM -RA BKN009 OVC020 04/02 A2985 RMK SC5SC3 SLP109=
CYUL;2005-03-28 18:00;METAR CYUL 281800Z 06008KT 2 1/4SM -RA BKN008 OVC029 04/02 A2983 RMK SC5SC3 SLP103=
CYUL;2005-03-28 19:00;METAR CYUL 281900Z 05007KT 2SM -RA BKN009 OVC017 04/02 A2980 RMK SC6SC2 SLP093=
CYUL;2005-03-28 19:38;SPECI CYUL 281938Z 08012KT 2 1/2SM -RA SCT009 BKN014 OVC040 RMK SF3SC2SC2=
CYUL;2005-03-28 20:25;SPECI CYUL 282025Z 03007KT 6SM BR BKN009 OVC040 RMK SF5SC3=
CYUL;2005-03-28 21:00;METAR CYUL 282100Z 05010KT 4SM BR BKN010 OVC040 04/02 A2976 RMK SF6SC2 SLP079=
CYUL;2005-03-28 23:00;METAR CYUL 282300Z 04011KT 3SM BR BKN007 OVC030 04/02 A2975 RMK SF6SC2 SLP076=
CYUL;2005-03-29 00:00;METAR CYUL 290000Z 03010KT 4SM BR BKN007 OVC030 04/01 A2976 RMK SF5SC3 SLP079=
CYUL;2005-03-29 01:00;METAR CYUL 290100Z 03012KT 3SM BR BKN006 OVC025 04/02 A2976 RMK SF6SC2 SLP078=
CYUL;2005-03-29 03:00;METAR CYUL 290300Z 03012KT 3SM BR OVC004 03/01 A2974 RMK ST8 SLP071=
CYUL;2005-03-29 04:00;METAR CYUL 290400Z 03011KT 4SM BR OVC005 03/00 A2973 RMK ST8 SLP070=
CYUL;2005-03-29 05:00;METAR CYUL 290500Z 02014KT 6SM BR OVC006 02/M00 A2971 RMK ST8 SLP062=
CYUL;2005-03-29 06:00;METAR CYUL 290600Z 04011G16KT 8SM OVC009 03/M00 A2973 RMK ST8 SLP068=
CYUL;2005-03-29 07:00;METAR CYUL 290700Z 02013KT 8SM BKN009 OVC025 02/M01 A2972 RMK ST7SC1 SLP067=
CYUL;2005-03-29 08:00;METAR CYUL 290800Z 03015KT 8SM OVC008 02/M01 A2971 RMK ST8 SLP063=
CYUL;2005-03-29 09:00;METAR CYUL 290900Z 03015KT 8SM OVC008 02/M01 A2973 RMK ST8 SLP069=
CYUL;2005-03-29 10:00;METAR CYUL 291000Z 03015KT 10SM BKN011 03/M01 A2974 RMK SC7 SLP071=
CYUL;2005-03-29 11:34;SPECI CYUL 291134Z 04015KT 15SM FEW012 SCT016 SCT240 RMK SF1SC4CI1=
CYUL;2005-03-29 12:00;METAR CYUL 291200Z 03014KT 15SM FEW015 BKN025 BKN240 03/M01 A2979 RMK SF1SC6CI1 SLP088=
CYUL;2005-03-29 15:00;METAR CYUL 291500Z 03015G20KT 15SM FEW020 FEW240 06/M00 A2985 RMK CF1CI1 SLP109=
CYUL;2005-03-29 16:00;METAR CYUL 291600Z 05011G18KT 15SM FEW020 FEW240 07/00 A2986 RMK CF1CI1 SLP114=
CYUL;2005-03-29 17:00;METAR CYUL 291700Z 06012KT 15SM FEW240 08/M01 A2987 RMK CI1 SLP115=
CYUL;2005-03-29 18:00;METAR CYUL 291800Z 06013KT 15SM FEW240 08/M01 A2987 RMK CI1 SLP117=
CYUL;2005-03-29 21:00;METAR CYUL 292100Z 06008KT 15SM FEW240 10/M01 A2989 RMK CI1 SLP124=
CYUL;2005-03-29 22:00;METAR CYUL 292200Z 07008KT 15SM FEW220 11/M02 A2990 RMK CI1 SLP126=
CYUL;2005-03-29 23:00;METAR CYUL 292300Z 06004KT 15SM SCT180 BKN220 10/M02 A2993 RMK AC2CI1 SLP136=
CYUL;2005-03-30 00:00;METAR CYUL 300000Z 03005KT 15SM SCT220 09/M02 A2996 RMK CI2 SLP147=
CYUL;2005-03-30 01:00;METAR CYUL 300100Z 11003KT 15SM FEW220 07/M01 A3000 RMK CI1 SLP162=
CYUL;2005-03-30 04:00;METAR CYUL 300400Z 04007KT 15SM SKC 05/M04 A3005 RMK SLP178=
CYUL;2005-03-30 05:00;METAR CYUL 300500Z 01005KT 15SM SKC 03/M03 A3006 RMK SLP180=
CYUL;2005-03-30 08:00;METAR CYUL 300800Z 04004KT 15SM SKC 03/M03 A3008 RMK SLP187=
CYUL;2005-03-30 10:00;METAR CYUL 301000Z 03007KT 15SM SKC 02/M03 A3012 RMK SLP202=
CYUL;2005-03-30 12:00;METAR CYUL 301200Z 02008KT 15SM FEW240 01/M03 A3017 RMK CI0 SLP219=
CYUL;2005-03-30 13:00;METAR CYUL 301300Z 03009KT 15SM FEW240 04/M02 A3019 RMK CI0 SLP224=
CYUL;2005-03-30 14:00;METAR CYUL 301400Z 07012KT 15SM FEW240 05/M03 A3020 RMK CI0 SLP229=
CYUL;2005-03-30 15:00;METAR CYUL 301500Z 07009KT 15SM FEW240 07/M02 A3021 RMK CI0 HZ SLP232=
CYUL;2005-03-30 16:00;METAR CYUL 301600Z 07012KT 15SM FEW240 07/M03 A3021 RMK CI0 SLP230=
CYUL;2005-03-30 17:00;METAR CYUL 301700Z 05014KT 20SM FEW240 08/M02 A3019 RMK CI1 SLP225=
CYUL;2005-03-30 18:00;METAR CYUL 301800Z 06014KT 20SM FEW240 08/M03 A3017 RMK CI1 SLP220=
CYUL;2005-03-30 19:00;METAR CYUL 301900Z 06012G18KT 20SM FEW240 09/M03 A3016 RMK CI1 SLP216=
CYUL;2005-03-30 22:00;METAR CYUL 302200Z 06013KT 15SM FEW140 SCT180 BKN200 BKN250 09/M03 A3014 RMK AC1AS1CS0CI2 SLP207=
CYUL;2005-03-30 23:00;METAR CYUL 302300Z 06009KT 15SM FEW140 SCT180 BKN250 08/M03 A3014 RMK AC1AS2CI2 SLP207=
CYUL;2005-03-31 00:00;METAR CYUL 310000Z 06011KT 15SM BKN210 OVC240 07/M03 A3012 RMK CI3CI2 SLP202=
CYUL;2005-03-31 01:00;METAR CYUL 310100Z 06010KT 15SM SCT170 OVC220 07/M04 A3011 RMK AS4CI2 SLP199=
CYUL;2005-03-31 03:00;METAR CYUL 310300Z 05011KT 15SM BKN160 OVC210 05/M04 A3015 RMK AC6CI1 SLP210=
CYUL;2005-03-31 04:00;METAR CYUL 310400Z 02009KT 15SM FEW150 OVC200 04/M03 A3015 RMK AC2CS2 SLP210=
CYUL;2005-03-31 05:00;METAR CYUL 310500Z 04014KT 15SM FEW150 BKN200 04/M03 A3013 RMK AC2CI2 SLP204=
CYUL;2005-03-31 06:00;METAR CYUL 310600Z 05011KT 15SM FEW150 BKN180 03/M04 A3012 RMK AC2AS5 SLP202=
CYUL;2005-03-31 08:00;METAR CYUL 310800Z 05012KT 15SM FEW140 BKN170 03/M04 A3013 RMK AC2AS3 SLP203=
CYUL;2005-03-31 10:00;METAR CYUL 311000Z 04011KT 15SM FEW160 SCT200 02/M04 A3014 RMK AC2CI1 SLP206=
CYUL;2005-03-31 11:00;METAR CYUL 311100Z 05008KT 30SM FEW160 FEW210 02/M04 A3013 RMK AC1CI2 SLP205=
CYUL;2005-03-31 12:00;METAR CYUL 311200Z 04011KT 30SM FEW150 SCT210 03/M03 A3014 RMK AC1CI0 SLP206=
CYUL;2005-03-31 13:00;METAR CYUL 311300Z 10009G16KT 30SM FEW210 08/M01 A3011 RMK CI2 SLP198=
CYUL;2005-03-31 14:00;METAR CYUL 311400Z 11014KT 30SM FEW210 09/M00 A3012 RMK CI2 SLP201=
CYUL;2005-03-31 16:00;METAR CYUL 311600Z 13019G28KT 30SM PO FEW180 SCT210 BKN250 13/00 A3007 RMK ACC1CI0CI2 SLP183=
CYUL;2005-03-31 17:00;METAR CYUL 311700Z 10015G21KT 30SM PO FEW110 SCT210 BKN250 14/01 A3003 RMK AC1CI0CI2 SLP169=
CYUL;2005-03-31 18:00;METAR CYUL 311800Z 13014G20KT 30SM VCPO FEW160 SCT210 BKN230 15/02 A3000 RMK AC1CI0CC2 SLP161=
CYUL;2005-03-31 22:00;METAR CYUL 312200Z 12014KT 30SM FEW070 BKN120 BKN180 OVC240 13/02 A2988 RMK AC1AC5AS1CI2 SLP121=
CYUL;2005-03-31 23:48;SPECI CYUL 312348Z 13009KT 15SM -RA BKN090 OVC120 RMK AC6AC2=
CYUL;2005-04-01 00:00;METAR CYUL 010000Z 13011KT 15SM -RA BKN080 OVC110 11/00 A2991 RMK AC6AC2 SLP130=
CYUL;2005-04-01 00:23;SPECI CYUL 010023Z 12012KT 15SM SCT080 BKN110 OVC150 RMK AC3AC3AC2=
CYUL;2005-04-01 00:36;SPECI CYUL 010036Z 13012G17KT 15SM -RA BKN058 OVC100 RMK SC6AC2 -RA INTMT=
CYUL;2005-04-01 01:00;METAR CYUL 010100Z 14011G18KT 10SM -RA VCFG BKN051 OVC086 09/03 A2992 RMK SC6AC2 SLP134=
CYUL;2005-04-01 01:12;SPECI CYUL 010112Z 16012KT 2 1/2SM -TSRA BR OVC049 RMK SC8 CB EMBD=
CYUL;2005-04-01 03:00;METAR CYUL 010300Z 12015KT 6SM -RA FEW025 OVC045 07/04 A2993 RMK SC2SC6 SLP138=
CYUL;2005-04-01 05:00;METAR CYUL 010500Z 14014G19KT 7SM -RA OVC030 06/04 A2993 RMK SC8 SLP136=
CYUL;2005-04-01 10:00;METAR CYUL 011000Z 16012KT 10SM OVC032 05/03 A2991 RMK SC8 SLP130=
CYUL;2005-04-01 10:23;SPECI CYUL 011023Z 16012KT 10SM -RA OVC030 RMK SC8=
CYUL;2005-04-01 11:00;METAR CYUL 011100Z 16011KT 12SM -RA OVC028 06/02 A2992 RMK SC8 SLP133=
CYUL;2005-04-01 12:00;METAR CYUL 011200Z 16014KT 15SM -RA OVC027 05/02 A2993 RMK SC8 R- INTMT SLP138=
CYUL;2005-04-01 12:22;SPECI CYUL 011222Z 17012KT 15SM OVC026 RMK SC8=
CYUL;2005-04-01 13:00;METAR CYUL 011300Z 17011KT 12SM VCSH OVC025 06/02 A2994 RMK SC8 SLP141=
CYUL;2005-04-01 13:18;SPECI CYUL 011318Z 18006KT 15SM -SHRA OVC020 RMK SC8=
CYUL;2005-04-01 16:00;METAR CYUL 011600Z 22013G19KT 30SM FEW016 FEW035 BKN052 OVC100 08/02 A2996 RMK SF1SC2SC5AC1 SLP146=
CYUL;2005-04-01 17:00;METAR CYUL 011700Z 22011KT 30SM FEW020 BKN049 OVC200 08/01 A2995 RMK SC2SC5CI1 SLP145=
CYUL;2005-04-01 18:00;METAR CYUL 011800Z 23015G20KT 30SM FEW032 OVC042 08/00 A2997 RMK SC2SC6 SLP149=
CYUL;2005-04-01 21:00;METAR CYUL 012100Z 23009KT 30SM BKN037 OVC048 07/00 A2999 RMK SC6SC2 SLP157=
CYUL;2005-04-01 22:00;METAR CYUL 012200Z 22007KT 30SM BKN038 OVC055 07/00 A3000 RMK SC7SC1 SLP159=
CYUL;2005-04-01 23:00;METAR CYUL 012300Z 23008KT 30SM BKN039 OVC055 07/00 A3004 RMK SC7SC1 SLP173=
CYUL;2005-04-02 00:00;METAR CYUL 020000Z 25010KT 15SM OVC039 07/00 A3005 RMK SC8 SLP177=
CYUL;2005-04-02 04:00;METAR CYUL 020400Z 29006KT 15SM FEW050 BKN130 BKN150 05/00 A3006 RMK SC1AC6AC1 SLP181=
CYUL;2005-04-02 06:00;METAR CYUL 020600Z 00000KT 15SM FEW090 OVC140 04/M00 A3004 RMK AC2AC6 SLP173=
CYUL;2005-04-02 10:00;METAR CYUL 021000Z 05014KT 15SM SCT045 BKN140 05/M00 A3002 RMK SC4AC3 SLP166=
CYUL;2005-04-02 11:00;METAR CYUL 021100Z 04012KT 15SM FEW045 OVC130 05/00 A2999 RMK SC1AC6 SLP158=
CYUL;2005-04-02 12:00;METAR CYUL 021200Z 05019KT 15SM FEW090 OVC120 05/M00 A2995 RMK AC2AC6 SLP144=
CYUL;2005-04-02 13:00;METAR CYUL 021300Z 04014G22KT 15SM SCT035 BKN060 OVC100 05/00 A2996 RMK SC3SC3AS2 SLP148=
CYUL;2005-04-02 14:00;METAR CYUL 021400Z 04019KT 15SM -RA OVC044 04/M01 A2995 RMK SC8 PCPN VRY LGT SLP145=
CYUL;2005-04-02 15:00;METAR CYUL 021500Z 05015G20KT 6SM -RA VCFG OVC026 04/00 A2993 RMK SC8 CIG RAG SLP136=
CYUL;2005-04-02 16:00;METAR CYUL 021600Z 04017G25KT 6SM -RA VCFG SCT025 OVC038 04/01 A2989 RMK SC3SC5 SLP124=
CYUL;2005-04-02 16:14;SPECI CYUL 021614Z 05017G24KT 6SM -RA VCFG FEW009 BKN027 OVC036 RMK SF2SC5SC2=
CYUL;2005-04-02 16:34;SPECI CYUL 021634Z 05016G21KT 6SM -RA VCFG FEW007 BKN017 OVC026 RMK SF2SC5SC1=
CYUL;2005-04-02 18:00;METAR CYUL 021800Z 05017G22KT 4SM -RA BR FEW006 BKN022 OVC034 04/02 A2982 RMK SF2SC4SC2 PRESFR CIG RAG SLP098=
CYUL;2005-04-02 18:35;SPECI CYUL 021835Z 05017KT 2 1/2SM -RA BR FEW006 BKN014 OVC035 RMK FG1SF2SC4SC2=
CYUL;2005-04-02 18:51;SPECI CYUL 021851Z 05018KT 2 1/2SM -RASN BR SCT006 BKN014 OVC040 RMK FG2SF2SC2SC2=
CYUL;2005-04-02 19:17;SPECI CYUL 021917Z 05016G22KT 4SM -RA BR FEW008 BKN015 BKN038 OVC050 RMK SF2SC4SC1SC1 CIG RAG=
CYUL;2005-04-02 19:37;SPECI CYUL 021937Z 05014G19KT 2 1/2SM -RA BR BKN008 BKN015 OVC030 RMK SF6SC2SC1=
CYUL;2005-04-02 20:11;SPECI CYUL 022011Z 07016G22KT 2 1/2SM RA BR SCT008 BKN015 OVC032 RMK SF3SC4SC1 CIG RAG=
CYUL;2005-04-02 20:42;SPECI CYUL 022042Z 07014G22KT 3SM RA BR SCT007 BKN014 OVC028 RMK SF3SC3SC2=
CYUL;2005-04-02 21:00;METAR CYUL 022100Z 05017KT 3SM RA BR BKN007 BKN014 OVC026 04/02 A2974 RMK SF5SC2SC1 /R10/ SLP072=
CYUL;2005-04-02 22:00;METAR CYUL 022200Z 05016G22KT 6SM RA BR BKN009 BKN013 OVC033 04/02 A2972 RMK SF5SC2SC2 SLP066=
CYUL;2005-04-02 23:00;METAR CYUL 022300Z 05017G25KT 6SM -RA BR BKN008 OVC026 04/02 A2970 RMK SF7SC1 SLP058=
CYUL;2005-04-02 23:37;SPECI CYUL 022337Z 05021KT 2 1/2SM RA BR BKN007 OVC012 RMK SF7SC1=
CYUL;2005-04-03 00:00;METAR CYUL 030000Z 05018KT 3SM RA BR BKN007 OVC012 03/01 A2968 RMK SF7SC1 /R20/ SLP051=
CYUL;2005-04-03 00:34;SPECI CYUL 030034Z 05017G24KT 7SM -RA VCFG OVC006 RMK SF8=
CYUL;2005-04-03 01:20;SPECI CYUL 030120Z 04021G27KT 10SM BKN007 OVC023 RMK SF7SC1=
CYUL;2005-04-03 02:29;SPECI CYUL 030229Z 04021G27KT 6SM RA VCFG BKN006 BKN013 OVC020 RMK SF6SF2SC1=
CYUL;2005-04-03 03:35;SPECI CYUL 030335Z 04022G27KT 15SM BKN007 OVC022 RMK SF6SC2=
CYUL;2005-04-03 04:00;METAR CYUL 030400Z 04020G25KT 15SM SCT008 OVC023 03/01 A2958 RMK SF3SC5 SLP018=
CYUL;2005-04-03 05:00;METAR CYUL 030500Z 04022KT 15SM SCT009 OVC025 04/01 A2955 RMK SF3SC5 SLP010=
CYUL;2005-04-03 08:00;METAR CYUL 030800Z 04022G31KT 15SM FEW009 OVC030 04/02 A2944 RMK SF2SC6 SLP972=
CYUL;2005-04-03 10:00;METAR CYUL 031000Z 05023G32KT 15SM FEW010 OVC045 05/02 A2938 RMK SF2SC6 SLP950=
CYUL;2005-04-03 12:00;METAR CYUL 031200Z 05024KT 12SM -RA SCT010 OVC030 05/02 A2939 RMK SF4SC4 SLP955=
CYUL;2005-04-03 12:31;SPECI CYUL 031231Z 05024KT 15SM SCT008 BKN035 RMK SF3SC2=
CYUL;2005-04-03 13:00;METAR CYUL 031300Z 05022G31KT 15SM FEW008 BKN035 OVC110 05/03 A2935 RMK SF2SC2AC2 SLP941=
CYUL;2005-04-03 14:00;METAR CYUL 031400Z 05022G28KT 15SM SCT008 BKN140 07/04 A2935 RMK SF3AC3 SLP941=
CYUL;2005-04-03 15:00;METAR CYUL 031500Z 05016G24KT 15SM SCT010 OVC045 08/05 A2934 RMK SF3SC5 SLP938=
CYUL;2005-04-03 16:00;METAR CYUL 031600Z 05017KT 30SM FEW012 SCT050 BKN150 09/05 A2932 RMK SF1SC3AC3 SLP931=
CYUL;2005-04-03 18:00;METAR CYUL 031800Z 04014G19KT 15SM BKN030 BKN075 11/06 A2930 RMK CU5AC2 SLP924=
CYUL;2005-04-03 19:00;METAR CYUL 031900Z 03015KT 15SM -SHRA BKN030 BKN070 10/06 A2929 RMK CU6AC2 SLP920=
CYUL;2005-04-03 21:00;METAR CYUL 032100Z 05006KT 30SM -SHRA BKN035 OVC050 09/05 A2934 RMK SC6SC2 SLP936=
CYUL;2005-04-03 21:37;SPECI CYUL 032137Z 04008KT 15SM FEW030 BKN045 BKN090 RMK CF1SC6AC2=
CYUL;2005-04-03 22:14;SPECI CYUL 032214Z 11009KT 15SM -SHRA FEW055 BKN085 RMK SC1AC6 CU ASOCT=
CYUL;2005-04-03 22:39;SPECI CYUL 032239Z 11008KT 15SM FEW055 OVC085 RMK SC1AC6=
CYUL;2005-04-03 23:00;METAR CYUL 032300Z 10006KT 15SM FEW055 OVC075 09/03 A2939 RMK SC1AC6 SLP953=
CYUL;2005-04-03 23:38;SPECI CYUL 032338Z 05007KT 15SM -SHRA BKN042 OVC070 RMK SC6AC2=
CYUL;2005-04-04 00:00;METAR CYUL 040000Z 05006KT 15SM -SHRA BKN040 OVC075 09/04 A2941 RMK SC6AC2 SLP961=
CYUL;2005-04-04 03:39;SPECI CYUL 040339Z 03011KT 12SM FEW003 OVC028 RMK SF2SC6=
CYUL;2005-04-04 04:00;METAR CYUL 040400Z 03008KT 12SM FEW004 OVC030 04/03 A2944 RMK SF2SC6 SLP972=
CYUL;2005-04-04 06:00;METAR CYUL 040600Z 01006KT 6SM -RA FEW003 OVC040 04/02 A2944 RMK SF2SC6 SLP972=
CYUL;2005-04-04 07:00;METAR CYUL 040700Z 36006KT 8SM BKN003 OVC011 04/02 A2944 RMK SF5SF3 SLP969=
CYUL;2005-04-04 08:00;METAR CYUL 040800Z 03007KT 4SM BR BKN003 OVC008 03/02 A2944 RMK SF6SF2 SLP970=
CYUL;2005-04-04 10:00;METAR CYUL 041000Z 35004KT 4SM BR BKN004 OVC013 03/01 A2947 RMK SF6SF2 SLP979=
CYUL;2005-04-04 10:52;SPECI CYUL 041052Z 35005KT 2 1/2SM BR OVC003 RMK SF8=
CYUL;2005-04-04 12:00;METAR CYUL 041200Z 33004KT 2SM BR BKN004 OVC023 03/02 A2950 RMK ST6SC2 SLP991=
CYUL;2005-04-04 13:00;METAR CYUL 041300Z 01003KT 2 1/4SM BR BKN005 OVC023 04/02 A2951 RMK ST6SC2 SLP995=
CYUL;2005-04-04 13:18;SPECI CYUL 041318Z 03002KT 2 1/2SM BR BKN006 OVC011 RMK ST7ST1=
CYUL;2005-04-04 14:00;METAR CYUL 041400Z 27004KT 4SM BR OVC006 04/02 A2953 RMK ST8 SLP002=
CYUL;2005-04-04 14:35;SPECI CYUL 041435Z 27007KT 4SM -DZ BR SCT004 OVC007 RMK ST3ST5=
CYUL;2005-04-04 15:00;METAR CYUL 041500Z 27005KT 5SM BR BKN005 OVC014 05/03 A2955 RMK ST6SC2 SLP007=
CYUL;2005-04-04 16:00;METAR CYUL 041600Z 21008KT 6SM BR FEW002 OVC007 05/03 A2955 RMK SF2ST6 SLP007=
CYUL;2005-04-04 18:00;METAR CYUL 041800Z 22013G18KT 8SM OVC007 05/03 A2957 RMK ST8 SLP016=
CYUL;2005-04-04 19:00;METAR CYUL 041900Z 25014KT 15SM SCT010 OVC018 06/03 A2958 RMK SF3SC5 SLP020=
CYUL;2005-04-04 20:40;SPECI CYUL 042040Z 23014G22KT 15SM -SHRA BKN025 OVC050 RMK SC7SC1=
CYUL;2005-04-04 21:00;METAR CYUL 042100Z 23012KT 15SM FEW015 BKN025 OVC050 06/02 A2964 RMK SF1SC7SC1 SLP038=
CYUL;2005-04-04 22:00;METAR CYUL 042200Z 26018KT 15SM OVC025 06/02 A2967 RMK SC8 SLP048=
CYUL;2005-04-05 00:00;METAR CYUL 050000Z 26015G21KT 15SM BKN025 BKN050 05/01 A2973 RMK SC6SC1 SLP070=
CYUL;2005-04-05 03:00;METAR CYUL 050300Z 25012KT 15SM BKN025 04/00 A2980 RMK SC7 SLP092=
CYUL;2005-04-05 04:00;METAR CYUL 050400Z 26015G21KT 15SM FEW030 BKN065 BKN110 04/M01 A2981 RMK SC2SC3AC2 SLP095=
CYUL;2005-04-05 05:00;METAR CYUL 050500Z 26015KT 15SM FEW030 BKN060 BKN100 03/M01 A2982 RMK SC2SC3AC2 SLP100=
CYUL;2005-04-05 08:00;METAR CYUL 050800Z 25007KT 15SM FEW030 SCT120 02/M03 A2987 RMK SC1AC1 SLP116=
CYUL;2005-04-05 10:00;METAR CYUL 051000Z 25009KT 15SM FEW065 01/M04 A2994 RMK SC1 SLP139=
CYUL;2005-04-05 12:00;METAR CYUL 051200Z 27009KT 30SM FEW120 02/M06 A3001 RMK AC1 SLP163=
CYUL;2005-04-05 16:00;METAR CYUL 051600Z 27013KT 30SM SCT150 BKN220 07/M04 A3006 RMK AC3CI1 SLP182=
CYUL;2005-04-05 17:00;METAR CYUL 051700Z 28011KT 30SM BKN130 BKN220 10/M03 A3007 RMK AC4CI2 SLP183=
CYUL;2005-04-05 18:00;METAR CYUL 051800Z 29009G15KT 30SM FEW130 BKN210 12/M05 A3007 RMK AC1CS2 SLP183=
CYUL;2005-04-05 21:00;METAR CYUL 052100Z 26012KT 30SM FEW180 BKN240 12/M06 A3007 RMK AC1CI1 SLP185=
CYUL;2005-04-05 22:00;METAR CYUL 052200Z 23013KT 30SM FEW160 OVC240 11/M02 A3009 RMK AC2CI2 CS ASOCT SLP190=
CYUL;2005-04-05 23:00;METAR CYUL 052300Z 22009KT 30SM SCT110 OVC240 08/M02 A3009 RMK AS2CI2 SLP192=
CYUL;2005-04-06 00:00;METAR CYUL 060000Z 22009KT 15SM OVC100 08/M02 A3011 RMK AS8 SLP199=
CYUL;2005-04-06 02:00;METAR CYUL 060200Z 24012KT 15SM BKN065 OVC090 08/M01 A3014 RMK SC6AS2 SLP206=
CYUL;2005-04-06 04:00;METAR CYUL 060400Z 25008KT 15SM -RA BKN055 OVC090 08/M01 A3014 RMK SC6AC2 SLP208=
CYUL;2005-04-06 05:00;METAR CYUL 060500Z 23005KT 15SM FEW055 OVC100 08/M01 A3012 RMK SC2AC3 SLP202=
CYUL;2005-04-06 08:00;METAR CYUL 060800Z 27003KT 15SM FEW070 SCT100 BKN220 05/M02 A3013 RMK AC1AC2CI1 SLP204=
CYUL;2005-04-06 10:00;METAR CYUL 061000Z 00000KT 15SM FEW090 FEW220 02/M02 A3014 RMK AC2CI0 SLP207=
CYUL;2005-04-06 11:00;METAR CYUL 061100Z 24002KT 30SM FEW090 BKN220 01/M03 A3016 RMK AC2CI0 SLP213=
CYUL;2005-04-06 12:00;METAR CYUL 061200Z 33002KT 30SM FEW150 SCT220 04/00 A3016 RMK AC1CI0 SLP216=
CYUL;2005-04-06 13:00;METAR CYUL 061300Z 35002KT 30SM FEW150 FEW220 07/01 A3017 RMK AC1CI0 SLP218=
CYUL;2005-04-06 14:00;METAR CYUL 061400Z 24002KT 30SM FEW220 10/01 A3017 RMK CI1 SLP217=
CYUL;2005-04-06 15:00;METAR CYUL 061500Z 23006KT 30SM FEW240 11/00 A3016 RMK CI1 SLP216=
CYUL;2005-04-06 16:00;METAR CYUL 061600Z 27007KT 30SM BKN240 13/00 A3016 RMK CI1 SLP213=
CYUL;2005-04-06 18:00;METAR CYUL 061800Z 27006KT 30SM BKN240 15/M01 A3012 RMK CI2 CS ASOCT SLP202=
CYUL;2005-04-06 19:00;METAR CYUL 061900Z 27010KT 30SM SCT240 15/M02 A3011 RMK CI1 SLP196=
CYUL;2005-04-06 21:00;METAR CYUL 062100Z 20009KT 30SM BKN240 15/00 A3008 RMK CI2 CC ASOCT SLP187=
CYUL;2005-04-06 22:00;METAR CYUL 062200Z 24004KT 30SM FEW180 BKN240 15/M00 A3008 RMK AC1CI2 SLP188=
CYUL;2005-04-06 23:00;METAR CYUL 062300Z 24003KT 30SM SCT180 BKN220 13/M00 A3008 RMK AC2CI2 SLP189=
CYUL;2005-04-07 03:25;SPECI CYUL 070325Z 34003KT 15SM -RA BKN070 OVC080 RMK AC6AC2=
CYUL;2005-04-07 09:43;SPECI CYUL 070943Z 05017KT 15SM TS OVC065 RMK SC8 CB EMBD=
CYUL;2005-04-07 10:41;SPECI CYUL 071041Z 03019G24KT 12SM -SHRA FEW014 FEW032 BKN065 OVC078 RETS RMK SF1SC1SC5AC2=
CYUL;2005-04-07 11:09;SPECI CYUL 071109Z 04015G26KT 15SM -SHRA FEW014 BKN065 BKN080 OVC120 RMK SF1SC6AC2AC1=
CYUL;2005-04-07 11:28;SPECI CYUL 071128Z 03013G21KT 30SM BKN060 BKN080 OVC120 RMK SC6AC2AC1=
CYUL;2005-04-07 13:07;SPECI CYUL 071307Z 04016G21KT 15SM -SHRA BKN058 BKN085 OVC140 RMK SC6AC2AC1 CIG RAG=
CYUL;2005-04-07 15:16;SPECI CYUL 071516Z 03015G20KT 12SM -RA BKN008 BKN060 OVC090 RMK SF5SC2AC2=
CYUL;2005-04-07 23:30;SPECI CYUL 072330Z 01007KT 6SM -DZ BR SCT007 BKN013 OVC020 RMK SF4SC2SC2=
CYUL;2005-04-08 01:45;SPECI CYUL 080145Z 27005KT 2 1/2SM BR FEW003 BKN006 OVC038 RMK SF2ST5SC1 INTMT -DZ=
CYUL;2005-04-08 02:16;SPECI CYUL 080216Z 27005KT 2 1/2SM BR BKN004 OVC010 RMK SF6SF2=
CYUL;2005-04-08 02:50;SPECI CYUL 080250Z 28007KT 1 1/2SM BR BKN002 OVC022 RMK FG2SF6SC1=
CYUL;2005-04-08 09:00;METAR CYUL 080900Z 23006KT 15SM FEW042 01/M01 A2990 RMK SC2 FROIN SLP126=
CYUL;2005-04-08 10:00;METAR CYUL 081000Z 22007KT 15SM FEW036 01/M01 A2992 RMK SC1 SLP132=
CYUL;2005-04-08 10:48;SPECI CYUL 081048Z 23009KT 12SM VCFG FEW002 FEW035 FEW220 RMK SF1SC1CI1=
CYUL;2005-04-08 12:00;METAR CYUL 081200Z 25010KT 12SM VCFG FEW002 FEW036 02/00 A2995 RMK SF1SC1 VIS S 30 SLP144=
CYUL;2005-04-08 12:15;SPECI CYUL 081215Z 23011KT 30SM FEW006 FEW040 RMK SF2SC1 VIS W 12=
CYUL;2005-04-08 13:00;METAR CYUL 081300Z 25014KT 30SM FEW004 SCT008 SCT100 SCT220 04/02 A2996 RMK SF1SF2AC1CI1 VIS W 10 SLP147=
CYUL;2005-04-08 13:36;SPECI CYUL 081336Z 26013KT 30SM FEW006 BKN010 OVC100 RMK SF2SF5AC1=
CYUL;2005-04-08 14:00;METAR CYUL 081400Z 27013G18KT 15SM OVC009 04/02 A2999 RMK SF7 SLP156=
CYUL;2005-04-08 15:00;METAR CYUL 081500Z 29012KT 15SM BKN010 BKN065 OVC090 06/02 A2999 RMK SF5SC2AS1 SLP158=
CYUL;2005-04-08 15:07;SPECI CYUL 081507Z 30010KT 15SM FEW010 SCT060 BKN075 OVC100 RMK SF2SC1AC2AS2=
CYUL;2005-04-08 16:00;METAR CYUL 081600Z 27006KT 15SM FEW020 SCT060 SCT090 08/03 A2999 RMK CU1SC2AC1 SLP158=
CYUL;2005-04-08 17:00;METAR CYUL 081700Z 27009KT 15SM FEW025 FEW070 SCT210 09/02 A2999 RMK CU2AC1CI1 SLP156=
CYUL;2005-04-08 19:00;METAR CYUL 081900Z 28020KT 30SM BKN050 11/M01 A2998 RMK CU5 SLP155=
CYUL;2005-04-08 20:00;METAR CYUL 082000Z 32014G19KT 30SM SCT050 11/M01 A2999 RMK SC4 CU ASOCT SLP158=
CYUL;2005-04-08 21:00;METAR CYUL 082100Z 31013KT 30SM SCT050 10/M02 A3001 RMK SC3 CU ASOCT SLP163=
CYUL;2005-04-08 22:00;METAR CYUL 082200Z 28014KT 30SM FEW050 10/M03 A3002 RMK SC2 CU ASOCT SLP167=
CYUL;2005-04-08 23:00;METAR CYUL 082300Z 31007KT 30SM FEW050 09/M03 A3004 RMK SC1 SLP174=
CYUL;2005-04-09 00:00;METAR CYUL 090000Z 33007KT 15SM FEW050 05/M04 A3006 RMK SC1 SLP181=
CYUL;2005-04-09 03:00;METAR CYUL 090300Z 20005KT 15SM SKC 02/M04 A3011 RMK SLP197=
CYUL;2005-04-09 06:00;METAR CYUL 090600Z 06004KT 15SM SKC 03/M05 A3014 RMK SLP207=
CYUL;2005-04-09 08:00;METAR CYUL 090800Z 00000KT 15SM FEW015 00/M06 A3016 RMK SF1 SLP214=
CYUL;2005-04-09 09:00;METAR CYUL 090900Z 36002KT 15SM FEW015 M01/M06 A3018 RMK SF1 SLP220=
CYUL;2005-04-09 10:00;METAR CYUL 091000Z 00000KT 30SM FEW030 FEW220 M02/M06 A3020 RMK SC1CI1 FROIN SLP229=
CYUL;2005-04-09 11:00;METAR CYUL 091100Z 21003KT 30SM FEW220 M02/M06 A3023 RMK CI1 FROIN CC ASOCT SLP238=
CYUL;2005-04-09 12:00;METAR CYUL 091200Z 16005KT 30SM FEW240 03/M03 A3025 RMK CI1 COTRA SLP245=
CYUL;2005-04-09 13:00;METAR CYUL 091300Z 12005KT 30SM FEW070 FEW240 05/M04 A3024 RMK AC1CI1 COTRA SLP243=
CYUL;2005-04-09 14:00;METAR CYUL 091400Z 15004KT 30SM FEW240 06/M04 A3025 RMK CI0 COTRA SLP247=
CYUL;2005-04-09 16:00;METAR CYUL 091600Z 22007KT 30SM FEW240 08/M02 A3024 RMK CI0 COTRA SLP243=
CYUL;2005-04-09 18:00;METAR CYUL 091800Z 22002KT 30SM FEW240 09/M07 A3019 RMK CI0 SLP224=
CYUL;2005-04-09 21:00;METAR CYUL 092100Z 21006KT 30SM FEW240 12/M05 A3011 RMK CI1 SLP199=
CYUL;2005-04-09 22:00;METAR CYUL 092200Z 20003KT 30SM FEW240 12/M06 A3010 RMK CI1 SLP194=
CYUL;2005-04-09 23:00;METAR CYUL 092300Z 21004KT 30SM FEW150 FEW240 11/M05 A3009 RMK AC1CI1 SLP190=
CYUL;2005-04-10 00:00;METAR CYUL 100000Z 20006KT 30SM FEW090 SCT150 10/M05 A3008 RMK AC1AC2 SLP188=
CYUL;2005-04-10 06:00;METAR CYUL 100600Z 19008KT 15SM FEW150 SCT180 04/M03 A3004 RMK AC1CI1 SLP174=
CYUL;2005-04-10 10:00;METAR CYUL 101000Z 24007KT 15SM FEW170 FEW240 04/M05 A3002 RMK AC1CI1 SLP167=
CYUL;2005-04-10 12:00;METAR CYUL 101200Z 27004KT 30SM SCT095 BKN240 05/M03 A3007 RMK AC2CI0 SLP184=
CYUL;2005-04-10 13:00;METAR CYUL 101300Z 34004KT 30SM SCT240 07/M02 A3009 RMK CI1 SLP192=
CYUL;2005-04-10 14:00;METAR CYUL 101400Z 03011KT 30SM FEW240 10/M02 A3012 RMK CI0 SLP200=
CYUL;2005-04-10 15:00;METAR CYUL 101500Z 36008KT 30SM FEW050 FEW240 10/M02 A3013 RMK SC1CI1 SLP205=
CYUL;2005-04-10 17:00;METAR CYUL 101700Z 03009G16KT 30SM FEW050 FEW240 11/M04 A3014 RMK CU1CI1 SLP206=
CYUL;2005-04-10 18:00;METAR CYUL 101800Z 02009G18KT 30SM FEW050 FEW240 12/M04 A3013 RMK CF1CI1 SLP205=
CYUL;2005-04-10 21:00;METAR CYUL 102100Z 05007KT 30SM FEW150 FEW240 12/M08 A3011 RMK AC1CI1 SLP199=
CYUL;2005-04-10 22:00;METAR CYUL 102200Z 03009KT 30SM FEW240 11/M08 A3012 RMK CI1 SLP200=
CYUL;2005-04-11 00:00;METAR CYUL 110000Z 04010KT 30SM FEW240 09/M09 A3015 RMK CI1 SLP212=
CYUL;2005-04-11 03:00;METAR CYUL 110300Z 01015KT 15SM SKC 05/M10 A3024 RMK SLP241=
CYUL;2005-04-11 04:00;METAR CYUL 110400Z 02013KT 15SM SKC 04/M09 A3025 RMK SLP246=
CYUL;2005-04-11 05:00;METAR CYUL 110500Z 02009KT 15SM SKC 02/M08 A3028 RMK SLP255=
CYUL;2005-04-11 10:00;METAR CYUL 111000Z 01009KT 30SM SKC M01/M09 A3032 RMK SLP270=
CYUL;2005-04-11 12:00;METAR CYUL 111200Z 03014KT 30SM FEW240 00/M09 A3035 RMK CI1 SLP279=
CYUL;2005-04-11 13:00;METAR CYUL 111300Z 01013KT 30SM FEW240 01/M09 A3035 RMK CI1 SLP281=
CYUL;2005-04-11 14:00;METAR CYUL 111400Z 03011KT 30SM FEW040 02/M09 A3036 RMK CU1 SLP282=
CYUL;2005-04-11 15:00;METAR CYUL 111500Z 36009KT 30SM FEW040 04/M08 A3035 RMK CU1 SLP279=
CYUL;2005-04-11 16:00;METAR CYUL 111600Z 36008KT 30SM FEW040 04/M09 A3033 RMK CU1 SLP274=
CYUL;2005-04-11 17:00;METAR CYUL 111700Z 04010G18KT 30SM FEW050 05/M09 A3031 RMK CU1 SLP267=
CYUL;2005-04-11 18:00;METAR CYUL 111800Z 35011G18KT 30SM FEW050 FEW240 06/M08 A3029 RMK CU1CI1 SLP260=
CYUL;2005-04-11 20:00;METAR CYUL 112000Z 01014KT 30SM FEW060 FEW240 08/M08 A3025 RMK CU1CI1 SLP246=
CYUL;2005-04-11 21:00;METAR CYUL 112100Z 01009G18KT 30SM FEW070 FEW240 08/M09 A3025 RMK CU1CI1 SLP246=
CYUL;2005-04-11 22:00;METAR CYUL 112200Z 04016G21KT 30SM FEW065 FEW240 07/M10 A3026 RMK SC1CI1 SLP248=
CYUL;2005-04-12 00:00;METAR CYUL 120000Z 06011KT 30SM FEW240 06/M10 A3027 RMK CI1 SLP252=
CYUL;2005-04-12 04:00;METAR CYUL 120400Z 04010KT 15SM SKC 02/M10 A3032 RMK SLP268=
CYUL;2005-04-12 06:00;METAR CYUL 120600Z 01006KT 15SM SKC M01/M09 A3032 RMK SLP268=
CYUL;2005-04-12 08:00;METAR CYUL 120800Z 35005KT 15SM SKC M02/M09 A3030 RMK SLP262=
CYUL;2005-04-12 10:00;METAR CYUL 121000Z 34004KT 30SM FEW150 M04/M09 A3028 RMK AC1 SLP256=
CYUL;2005-04-12 11:00;METAR CYUL 121100Z 33005KT 30SM FEW150 M02/M08 A3025 RMK AC1 SLP246=
CYUL;2005-04-12 12:00;METAR CYUL 121200Z 36007KT 30SM FEW150 01/M09 A3024 RMK AC1 SLP243=
CYUL;2005-04-12 14:00;METAR CYUL 121400Z 02011KT 30SM FEW240 05/M08 A3021 RMK CI1 SLP233=
CYUL;2005-04-12 15:00;METAR CYUL 121500Z 36013KT 30SM SCT240 06/M09 A3016 RMK CI1 SLP216=
CYUL;2005-04-12 16:00;METAR CYUL 121600Z 35009KT 30SM BKN200 07/M07 A3011 RMK CS2 SLP200=
CYUL;2005-04-12 18:00;METAR CYUL 121800Z 35008KT 30SM FEW180 BKN240 10/M07 A3001 RMK AC1CI2 CS ASOCT SLP164=
CYUL;2005-04-12 19:00;METAR CYUL 121900Z 34009G19KT 30SM FEW090 FEW150 BKN240 11/M08 A2998 RMK AC1AC1CI2 SLP152=
CYUL;2005-04-12 20:00;METAR CYUL 122000Z 34008KT 30SM FEW050 SCT150 BKN240 11/M08 A2995 RMK CU1AS2CI2 SLP142=
CYUL;2005-04-12 21:00;METAR CYUL 122100Z 02015G21KT 30SM FEW050 BKN100 BKN150 BKN240 10/M10 A2994 RMK CU1AS6AC1CI2 SLP141=
CYUL;2005-04-12 22:00;METAR CYUL 122200Z 01017G22KT 30SM FEW050 BKN090 BKN240 09/M11 A2996 RMK CU1AC7CI1 SLP147=
CYUL;2005-04-12 23:00;METAR CYUL 122300Z 06015G24KT 30SM BKN110 06/M08 A2998 RMK AC7 SLP153=
CYUL;2005-04-13 00:00;METAR CYUL 130000Z 04013G22KT 15SM OVC080 05/M08 A3000 RMK AC8 SLP162=
CYUL;2005-04-13 01:00;METAR CYUL 130100Z 03012KT 15SM FEW075 BKN240 04/M08 A3001 RMK AC1CI2 SLP164=
CYUL;2005-04-13 02:00;METAR CYUL 130200Z 03006KT 15SM FEW075 FEW240 03/M07 A3002 RMK AC2CI0 SLP166=
CYUL;2005-04-13 04:00;METAR CYUL 130400Z 04005KT 15SM BKN056 BKN090 03/M07 A3001 RMK SC5AC1 SLP163=
CYUL;2005-04-13 07:00;METAR CYUL 130700Z 35005KT 15SM OVC047 02/M05 A2999 RMK SC8 SLP158=
CYUL;2005-04-13 10:00;METAR CYUL 131000Z 01006KT 15SM SCT042 BKN064 BKN240 02/M05 A3001 RMK SC4SC2CI0 SLP165=
CYUL;2005-04-13 12:00;METAR CYUL 131200Z 02007KT 30SM FEW035 FEW042 FEW090 SCT240 04/M04 A3004 RMK CU1SC1AC2CI0 SLP174=
CYUL;2005-04-13 13:00;METAR CYUL 131300Z 04004KT 30SM FEW035 FEW050 SCT160 BKN240 05/M04 A3004 RMK SC1CU1AC2CI2 SLP175=
CYUL;2005-04-13 14:00;METAR CYUL 131400Z 35006KT 30SM FEW035 SCT050 BKN150 BKN210 06/M04 A3006 RMK CU1SC3AC1CI1 SLP179=
CYUL;2005-04-13 15:00;METAR CYUL 131500Z 34004KT 30SM BKN048 OVC090 06/M05 A3005 RMK SC6AC1 CU ASOCT SLP176=
CYUL;2005-04-13 16:00;METAR CYUL 131600Z 31007KT 30SM SCT048 OVC210 07/M04 A3002 RMK SC3CS2 CU ASOCT SLP168=
CYUL;2005-04-13 19:00;METAR CYUL 131900Z 27012KT 30SM FEW040 SCT110 BKN210 10/M03 A2999 RMK SC1AC2CI2 CU ASOCT SLP158=
CYUL;2005-04-13 20:00;METAR CYUL 132000Z 31010G19KT 30SM FEW030 BKN055 BKN100 OVC210 11/M02 A2998 RMK CU1SC4AC2CI1 SLP152=
CYUL;2005-04-13 20:48;SPECI CYUL 132048Z 33013G19KT 30SM -SHRA FEW030 BKN060 BKN100 OVC210 RMK CU1SC5AC1CS2=
CYUL;2005-04-13 21:00;METAR CYUL 132100Z 30009G19KT 30SM -SHRA FEW030 BKN055 BKN100 OVC200 11/M01 A2998 RMK SC1SC5AS1CS1 PCPN VRY LGT SLP153=
CYUL;2005-04-13 22:00;METAR CYUL 132200Z 36009KT 30SM -SHRA BKN048 OVC090 08/02 A3002 RMK SC7AC1 SLP166=
CYUL;2005-04-13 22:45;SPECI CYUL 132245Z 07002KT 30SM BKN050 BKN090 RMK SC5AC2=
CYUL;2005-04-14 00:00;METAR CYUL 140000Z 18007KT 15SM BKN068 BKN120 08/01 A3001 RMK AC5AC1 SLP164=
CYUL;2005-04-14 02:00;METAR CYUL 140200Z 25006KT 15SM FEW065 BKN090 07/01 A3001 RMK SC2AC3 SLP165=
CYUL;2005-04-14 04:00;METAR CYUL 140400Z 30004KT 15SM FEW220 04/M01 A3002 RMK CI1 SLP167=
CYUL;2005-04-14 05:00;METAR CYUL 140500Z 34008KT 15SM SKC 04/M04 A3004 RMK SLP174=
CYUL;2005-04-14 06:00;METAR CYUL 140600Z 35006KT 15SM SKC 04/M05 A3005 RMK SLP177=
CYUL;2005-04-14 07:00;METAR CYUL 140700Z 35005KT 15SM SKC 04/M06 A3007 RMK SLP183=
CYUL;2005-04-14 09:00;METAR CYUL 140900Z 36007KT 15SM SKC 03/M05 A3012 RMK SLP200=
CYUL;2005-04-14 10:00;METAR CYUL 141000Z 01008KT 30SM FEW230 03/M04 A3015 RMK CI1 SLP210=
CYUL;2005-04-14 12:00;METAR CYUL 141200Z 01012KT 30SM FEW200 BKN250 05/M04 A3020 RMK CI1CI1 COTRA SLP228=
CYUL;2005-04-14 13:00;METAR CYUL 141300Z 04020G25KT 30SM FEW180 SCT250 06/M04 A3022 RMK AS1CI1 CC ASOCT SLP235=
CYUL;2005-04-14 14:00;METAR CYUL 141400Z 02015G20KT 30SM FEW030 BKN240 07/M04 A3024 RMK CU1CI2 COTRA SLP243=
CYUL;2005-04-14 16:00;METAR CYUL 141600Z 02016G21KT 30SM FEW030 FEW240 08/M05 A3027 RMK CU1CI2 SLP253=
CYUL;2005-04-14 17:00;METAR CYUL 141700Z 01017G24KT 30SM FEW030 FEW240 09/M05 A3029 RMK CU1CI2 SLP259=
CYUL;2005-04-14 19:00;METAR CYUL 141900Z 05015G20KT 30SM FEW030 FEW240 10/M12 A3031 RMK CU1CI1 SLP265=
CYUL;2005-04-14 20:00;METAR CYUL 142000Z 03017G22KT 30SM FEW240 10/M13 A3032 RMK CI0 SLP267=
CYUL;2005-04-14 22:00;METAR CYUL 142200Z 06012G17KT 30SM FEW240 10/M10 A3033 RMK CI0 SLP273=
CYUL;2005-04-14 23:00;METAR CYUL 142300Z 06012KT 30SM FEW060 FEW240 09/M11 A3034 RMK SC1CI0 SLP277=
CYUL;2005-04-15 00:00;METAR CYUL 150000Z 07008KT 30SM FEW240 09/M12 A3036 RMK CI0 SLP283=
CYUL;2005-04-15 02:00;METAR CYUL 150200Z 06007KT 15SM SKC 07/M12 A3040 RMK SLP297=
CYUL;2005-04-15 04:00;METAR CYUL 150400Z 06009KT 15SM SKC 06/M13 A3044 RMK SLP311=
CYUL;2005-04-15 05:00;METAR CYUL 150500Z 05009KT 15SM SKC 05/M13 A3045 RMK SLP313=
CYUL;2005-04-15 06:00;METAR CYUL 150600Z 05010KT 15SM SKC 04/M12 A3046 RMK SLP318=
CYUL;2005-04-15 09:00;METAR CYUL 150900Z 02008KT 15SM SKC 01/M12 A3050 RMK SLP330=
CYUL;2005-04-15 10:00;METAR CYUL 151000Z 03008KT 30SM SKC 00/M12 A3052 RMK SLP336=
CYUL;2005-04-15 12:00;METAR CYUL 151200Z 04014KT 30SM SKC 03/M12 A3058 RMK SLP356=
CYUL;2005-04-15 13:00;METAR CYUL 151300Z 03010KT 30SM SKC 04/M10 A3059 RMK SLP361=
CYUL;2005-04-15 14:00;METAR CYUL 151400Z 05007KT 30SM SKC 06/M10 A3061 RMK SLP366=
CYUL;2005-04-15 15:00;METAR CYUL 151500Z 09006KT 30SM SKC 08/M09 A3062 RMK SLP369=
CYUL;2005-04-15 16:00;METAR CYUL 151600Z 07003KT 30SM FEW240 08/M10 A3060 RMK CI1 SLP365=
CYUL;2005-04-15 17:00;METAR CYUL 151700Z 36006KT 30SM FEW240 10/M09 A3059 RMK CI1 SLP361=
CYUL;2005-04-15 21:00;METAR CYUL 152100Z 21003KT 30SM FEW240 13/M12 A3053 RMK CI1 SLP339=
CYUL;2005-04-15 22:00;METAR CYUL 152200Z 18003KT 30SM FEW240 12/M11 A3052 RMK CI1 SLP338=
CYUL;2005-04-16 00:00;METAR CYUL 160000Z 00000KT 30SM FEW240 10/M11 A3054 RMK CI0 SLP342=
CYUL;2005-04-16 03:00;METAR CYUL 160300Z 13003KT 15SM SKC 08/M08 A3053 RMK SLP341=
CYUL;2005-04-16 04:00;METAR CYUL 160400Z 00000KT 15SM SKC 06/M08 A3053 RMK FU SLP341=
CYUL;2005-04-16 06:00;METAR CYUL 160600Z 00000KT 15SM FEW220 02/M06 A3054 RMK CI1 FU SLP342=
CYUL;2005-04-16 07:00;METAR CYUL 160700Z 02003KT 15SM FEW220 04/M07 A3053 RMK CI0 SLP340=
CYUL;2005-04-16 09:00;METAR CYUL 160900Z 01004KT 15SM SKC 02/M08 A3053 RMK SLP340=
CYUL;2005-04-16 10:00;METAR CYUL 161000Z 04004KT 15SM FEW220 01/M08 A3054 RMK CI1 SLP342=
CYUL;2005-04-16 11:00;METAR CYUL 161100Z 00000KT 30SM FEW240 01/M08 A3055 RMK CI1 HZ SLP347=
CYUL;2005-04-16 12:00;METAR CYUL 161200Z 32002KT 30SM FEW240 04/M05 A3055 RMK CI1 CC ASOCT SLP347=
CYUL;2005-04-16 14:00;METAR CYUL 161400Z 18003KT 30SM FEW240 09/M03 A3056 RMK CI1 SLP350=
CYUL;2005-04-16 16:00;METAR CYUL 161600Z 20005KT 30SM FEW240 13/M04 A3053 RMK CI0 COTRA SLP339=
CYUL;2005-04-16 17:00;METAR CYUL 161700Z 20008KT 30SM FEW220 FEW240 15/M04 A3050 RMK CC1CI0 SLP330=
CYUL;2005-04-16 18:00;METAR CYUL 161800Z 22009KT 30SM FEW240 17/M04 A3047 RMK CI0 SLP320=
CYUL;2005-04-16 22:00;METAR CYUL 162200Z 25010KT 30SM FEW220 SCT240 20/M05 A3034 RMK CC1CI0 SLP276=
CYUL;2005-04-17 01:00;METAR CYUL 170100Z 20005KT 15SM FEW240 12/M02 A3031 RMK CI0 SLP265=
CYUL;2005-04-17 04:00;METAR CYUL 170400Z 22005KT 15SM SKC 08/M04 A3030 RMK SLP262=
CYUL;2005-04-17 05:00;METAR CYUL 170500Z 20004KT 15SM SKC 07/M03 A3028 RMK SLP256=
CYUL;2005-04-17 06:00;METAR CYUL 170600Z 21003KT 15SM FEW240 08/M04 A3027 RMK CI1 SLP251=
CYUL;2005-04-17 07:00;METAR CYUL 170700Z 22005KT 15SM FEW240 08/M04 A3025 RMK CI1 SLP245=
CYUL;2005-04-17 09:00;METAR CYUL 170900Z 21005KT 15SM SKC 04/M02 A3022 RMK SLP236=
CYUL;2005-04-17 12:00;METAR CYUL 171200Z 25009KT 30SM FEW240 09/M03 A3022 RMK CI1 SLP234=
CYUL;2005-04-17 13:00;METAR CYUL 171300Z 22007KT 30SM SCT240 11/M02 A3020 RMK CI1 SLP229=
CYUL;2005-04-17 14:00;METAR CYUL 171400Z 22009KT 30SM BKN240 12/M01 A3019 RMK CI1 SLP224=
CYUL;2005-04-17 15:00;METAR CYUL 171500Z 21010KT 30SM BKN220 15/01 A3016 RMK CI1 SLP213=
CYUL;2005-04-17 16:00;METAR CYUL 171600Z 21009KT 15SM SCT180 BKN220 16/01 A3013 RMK AC2CI1 SLP204=
CYUL;2005-04-17 17:00;METAR CYUL 171700Z 20008KT 15SM BKN150 BKN220 18/02 A3011 RMK AC3CI2 SLP197=
CYUL;2005-04-17 18:00;METAR CYUL 171800Z 22011G18KT 15SM SCT150 BKN220 20/01 A3008 RMK AC2CI1 SLP188=
CYUL;2005-04-17 19:00;METAR CYUL 171900Z 28015G20KT 15SM FEW160 SCT220 22/M00 A3005 RMK AC1CI0 SLP177=
CYUL;2005-04-17 20:00;METAR CYUL 172000Z 27015G21KT 15SM FEW160 SCT220 22/M00 A3003 RMK AC1CI0 SLP169=
CYUL;2005-04-17 21:00;METAR CYUL 172100Z 26015G21KT 15SM SCT180 BKN220 22/M01 A3000 RMK AC2CI1 SLP162=
CYUL;2005-04-17 22:00;METAR CYUL 172200Z 26016KT 15SM SCT100 BKN220 22/M01 A3000 RMK AC4CI0 SLP160=
CYUL;2005-04-17 23:00;METAR CYUL 172300Z 34011KT 15SM SCT100 BKN220 20/02 A3000 RMK AC3CI0 SLP162=
CYUL;2005-04-18 00:00;METAR CYUL 180000Z 33005KT 15SM SCT090 BKN220 16/02 A3002 RMK AC3CI0 SLP167=
CYUL;2005-04-18 03:00;METAR CYUL 180300Z 01013G18KT 15SM SKC 15/M02 A3007 RMK SLP184=
CYUL;2005-04-18 04:00;METAR CYUL 180400Z 01011KT 15SM SKC 13/M02 A3009 RMK SLP190=
CYUL;2005-04-18 06:00;METAR CYUL 180600Z 02011KT 15SM FEW240 10/M03 A3012 RMK CI1 SLP200=
CYUL;2005-04-18 07:00;METAR CYUL 180700Z 05005KT 15SM SKC 09/M05 A3013 RMK SLP204=
CYUL;2005-04-18 10:00;METAR CYUL 181000Z 36002KT 30SM FEW240 04/M06 A3019 RMK CI1 SLP224=
CYUL;2005-04-18 12:00;METAR CYUL 181200Z 01007KT 30SM FEW240 09/M06 A3022 RMK CI1 SLP236=
CYUL;2005-04-18 13:00;METAR CYUL 181300Z 02004KT 30SM FEW240 10/M07 A3022 RMK CI1 SLP236=
CYUL;2005-04-18 14:00;METAR CYUL 181400Z 10003KT 30SM BKN240 11/M08 A3022 RMK CI1 SLP236=
CYUL;2005-04-18 15:00;METAR CYUL 181500Z 07002KT 30SM BKN240 12/M08 A3022 RMK CI1 SLP235=
CYUL;2005-04-18 16:00;METAR CYUL 181600Z 22007KT 30SM BKN240 13/M07 A3020 RMK CI2 SLP228=
CYUL;2005-04-18 17:00;METAR CYUL 181700Z 19007KT 30SM SCT240 13/M07 A3018 RMK CI1 SLP221=
CYUL;2005-04-18 22:00;METAR CYUL 182200Z 23008KT 30SM FEW210 18/M04 A3006 RMK CI1 SLP179=
CYUL;2005-04-19 02:00;METAR CYUL 190200Z 23004KT 15SM SKC 14/M06 A3006 RMK SLP179=
CYUL;2005-04-19 04:00;METAR CYUL 190400Z 00000KT 15SM SKC 11/M06 A3004 RMK SLP174=
CYUL;2005-04-19 06:00;METAR CYUL 190600Z 00000KT 15SM SKC 07/M03 A3003 RMK SLP171=
CYUL;2005-04-19 07:00;METAR CYUL 190700Z 20003KT 15SM FEW240 07/M03 A3003 RMK CI1 SLP169=
CYUL;2005-04-19 08:00;METAR CYUL 190800Z 21003KT 15SM FEW240 07/M03 A3001 RMK CI0 SLP165=
CYUL;2005-04-19 09:00;METAR CYUL 190900Z 23003KT 15SM FEW240 07/M04 A3001 RMK CI0 SLP163=
CYUL;2005-04-19 11:00;METAR CYUL 191100Z 17002KT 30SM FEW240 07/M02 A3003 RMK CI0 SLP170=
CYUL;2005-04-19 12:00;METAR CYUL 191200Z 20007KT 30SM FEW080 FEW240 10/M04 A3002 RMK FU1CI1 SLP168=
CYUL;2005-04-19 15:00;METAR CYUL 191500Z 23011KT 30SM FEW150 BKN210 17/01 A2996 RMK AC1CI2 SLP146=
CYUL;2005-04-19 16:00;METAR CYUL 191600Z 22013G18KT 30SM SCT080 BKN210 19/01 A2994 RMK AC3CI1 CC ASOCTD SLP138=
CYUL;2005-04-19 18:00;METAR CYUL 191800Z 23016G22KT 30SM SCT080 BKN160 OVC210 20/02 A2986 RMK AC3AC3CI1 SLP113=
CYUL;2005-04-19 19:00;METAR CYUL 191900Z 23018G26KT 15SM SCT120 BKN200 22/04 A2982 RMK AC2CI1 SLP100=
CYUL;2005-04-19 22:00;METAR CYUL 192200Z 23017KT 15SM FEW180 FEW220 23/05 A2975 RMK AC1CI1 SLP074=
CYUL;2005-04-19 23:00;METAR CYUL 192300Z 23015KT 15SM SCT240 22/06 A2973 RMK CI1 SLP068=
CYUL;2005-04-20 00:00;METAR CYUL 200000Z 24018G24KT 15SM SCT240 21/06 A2973 RMK CI1 SLP068=
CYUL;2005-04-20 01:00;METAR CYUL 200100Z 24015G20KT 15SM FEW240 20/06 A2973 RMK CI0 SLP068=
CYUL;2005-04-20 05:00;METAR CYUL 200500Z 23008KT 15SM BKN160 BKN240 18/07 A2972 RMK AC6CI1 SLP065=
CYUL;2005-04-20 09:00;METAR CYUL 200900Z 27004KT 15SM BKN120 OVC150 12/07 A2974 RMK AC7AC1 SLP071=
CYUL;2005-04-20 10:00;METAR CYUL 201000Z 28004KT 10SM FEW070 BKN090 OVC150 13/07 A2976 RMK AC2AC6AC1 SLP080=
CYUL;2005-04-20 10:15;SPECI CYUL 201015Z 28005KT 12SM -SHRA BKN027 OVC080 RMK SC7AC1=
CYUL;2005-04-20 11:25;SPECI CYUL 201125Z 01009KT 12SM -SHRA BKN025 OVC070 RMK SC7AC1=
CYUL;2005-04-20 12:00;METAR CYUL 201200Z 02012KT 15SM -SHRA BKN022 OVC075 12/07 A2981 RMK SC7AC1 SLP096=
CYUL;2005-04-20 12:37;SPECI CYUL 201237Z 03012G17KT 15SM FEW018 OVC023 RMK CF1SC8=
CYUL;2005-04-20 13:00;METAR CYUL 201300Z 03012KT 15SM OVC022 11/05 A2982 RMK SC8 SLP100=
CYUL;2005-04-20 14:00;METAR CYUL 201400Z 02010G15KT 15SM -SHRA OVC030 10/05 A2984 RMK SC8 SLP106=
CYUL;2005-04-20 14:45;SPECI CYUL 201445Z 03010KT 12SM -SHRA SCT013 BKN030 OVC050 RMK SF3SC3SC2 VIS NV 3=
CYUL;2005-04-20 15:00;METAR CYUL 201500Z 03008KT 8SM -SHRA SCT013 BKN035 OVC050 08/06 A2986 RMK SF3SC3SC2 VIS NV 3 SLP111=
CYUL;2005-04-20 15:37;SPECI CYUL 201537Z 36009KT 12SM FEW015 BKN035 OVC050 RMK SF2SC4SC2=
CYUL;2005-04-20 15:41;SPECI CYUL 201541Z 01011KT 12SM -SHRA FEW015 BKN035 OVC050 RMK SF2SC4SC2=
CYUL;2005-04-20 16:00;METAR CYUL 201600Z 04010G15KT 15SM -SHRA FEW020 BKN040 OVC055 08/03 A2986 RMK SF2SC4SC2 SLP113=
CYUL;2005-04-20 16:21;SPECI CYUL 201621Z 04013KT 15SM FEW020 BKN040 OVC055 RMK SF1SC5SC2=
CYUL;2005-04-20 17:00;METAR CYUL 201700Z 02013KT 12SM FEW020 OVC040 07/02 A2987 RMK SF1SC8 SLP116=
CYUL;2005-04-20 17:06;SPECI CYUL 201706Z 02012G17KT 12SM -SHRA FEW020 OVC040 RMK SF1SC8=
CYUL;2005-04-20 17:19;SPECI CYUL 201719Z 04010KT 2 1/2SM -SHRA FEW020 OVC040 RMK SF1SC8=
CYUL;2005-04-20 19:00;METAR CYUL 201900Z 02006KT 4SM -RA SCT020 OVC045 06/02 A2990 RMK SF3SC5 SLP126=
CYUL;2005-04-20 21:00;METAR CYUL 202100Z 05003KT 3SM -RA FEW015 OVC050 05/02 A2985 RMK SF2SC6 SLP110=
CYUL;2005-04-20 22:00;METAR CYUL 202200Z 04007KT 3SM -RA BKN010 OVC050 05/02 A2983 RMK SF5SC3 SLP102=
CYUL;2005-04-20 23:14;SPECI CYUL 202314Z 36009KT 4SM -RA BKN014 OVC030 RMK SF5SC3=
CYUL;2005-04-20 23:36;SPECI CYUL 202336Z 36009KT 8SM -RA BKN020 OVC040 RMK SC6SC2=
CYUL;2005-04-21 00:00;METAR CYUL 210000Z 01009KT 15SM -RA BKN035 OVC050 04/01 A2986 RMK SC6SC2 SLP112=
CYUL;2005-04-21 00:24;SPECI CYUL 210024Z 35004KT 15SM SCT035 OVC050 RMK SC3SC5=
CYUL;2005-04-21 01:00;METAR CYUL 210100Z 32005KT 15SM FEW035 SCT060 OVC110 04/02 A2986 RMK SC1SC4AC4 SLP113=
CYUL;2005-04-21 04:00;METAR CYUL 210400Z 31007KT 15SM FEW130 FEW210 03/00 A2989 RMK AC2CI1 SLP123=
CYUL;2005-04-21 06:00;METAR CYUL 210600Z 36009KT 15SM SKC 03/M04 A2993 RMK SLP136=
CYUL;2005-04-21 07:00;METAR CYUL 210700Z 36010G15KT 15SM SKC 02/M06 A2995 RMK SLP144=
CYUL;2005-04-21 08:00;METAR CYUL 210800Z 36008KT 15SM SKC 02/M08 A2998 RMK SLP152=
CYUL;2005-04-21 10:00;METAR CYUL 211000Z 33005KT 30SM SKC M01/M07 A3002 RMK SLP166=
CYUL;2005-04-21 11:00;METAR CYUL 211100Z 36008KT 30SM SKC 01/M09 A3005 RMK SLP176=
CYUL;2005-04-21 12:00;METAR CYUL 211200Z 36009G15KT 30SM FEW210 02/M10 A3007 RMK CI1 SLP185=
CYUL;2005-04-21 13:00;METAR CYUL 211300Z 31006KT 30SM FEW210 03/M08 A3008 RMK CI1 SLP186=
CYUL;2005-04-21 14:00;METAR CYUL 211400Z 36007KT 30SM SKC 04/M07 A3007 RMK SLP184=
CYUL;2005-04-21 16:00;METAR CYUL 211600Z 04003KT 30SM FEW028 06/M08 A3006 RMK CU1 SLP182=
CYUL;2005-04-21 17:00;METAR CYUL 211700Z 32004KT 30SM FEW030 07/M10 A3005 RMK CU1 SLP178=
CYUL;2005-04-21 18:00;METAR CYUL 211800Z 19009G16KT 30SM FEW035 09/M07 A3004 RMK CU1 SLP175=
CYUL;2005-04-21 20:00;METAR CYUL 212000Z 24008G15KT 30SM FEW030 FEW240 10/M09 A3002 RMK CU1CI1 SLP167=
CYUL;2005-04-21 21:00;METAR CYUL 212100Z 27007G15KT 30SM FEW240 10/M10 A3002 RMK CI1 SLP166=
CYUL;2005-04-21 22:00;METAR CYUL 212200Z 24012KT 30SM FEW240 10/M10 A3001 RMK CI1 SLP165=
CYUL;2005-04-22 00:00;METAR CYUL 220000Z 28008KT 30SM FEW240 07/M11 A3001 RMK CI1 SLP164=
CYUL;2005-04-22 02:00;METAR CYUL 220200Z 27004KT 15SM SKC 04/M08 A3003 RMK SLP172=
CYUL;2005-04-22 03:00;METAR CYUL 220300Z 30004KT 15SM SKC 02/M07 A3004 RMK SLP173=
CYUL;2005-04-22 04:00;METAR CYUL 220400Z 30004KT 15SM SKC 02/M06 A3004 RMK SLP174=
CYUL;2005-04-22 05:00;METAR CYUL 220500Z 00000KT 15SM FEW210 04/M07 A3003 RMK CI0 SLP171=
CYUL;2005-04-22 06:00;METAR CYUL 220600Z 14002KT 15SM BKN200 03/M07 A3002 RMK CS2 SLP168=
CYUL;2005-04-22 09:00;METAR CYUL 220900Z 00000KT 15SM FEW010 FEW210 00/M06 A3002 RMK SC1CI1 SLP167=
CYUL;2005-04-22 10:00;METAR CYUL 221000Z 00000KT 30SM FEW210 M00/M06 A3001 RMK CI1 SLP165=
CYUL;2005-04-22 12:00;METAR CYUL 221200Z 22004KT 30SM FEW210 04/M03 A3002 RMK CI1 SLP166=
CYUL;2005-04-22 13:00;METAR CYUL 221300Z 21006KT 30SM FEW210 06/M02 A3001 RMK CI1 SLP164=
CYUL;2005-04-22 14:00;METAR CYUL 221400Z 20005KT 30SM FEW170 SCT230 07/M03 A3001 RMK AC1CI1 CC ASOCT SLP165=
CYUL;2005-04-22 16:00;METAR CYUL 221600Z 21006KT 30SM FEW100 FEW120 BKN250 10/M07 A2997 RMK AC1AC2CI1 SLP151=
CYUL;2005-04-22 17:00;METAR CYUL 221700Z 26005KT 30SM FEW110 FEW190 BKN250 11/M07 A2994 RMK AC1AC1CI1 CC ASSCTD VIA YQB FIC SLP141=
CYUL;2005-04-22 18:00;METAR CYUL 221800Z 19005KT 30SM FEW140 BKN250 11/M07 A2992 RMK AC1CI2 CC ASOCT SLP132=
CYUL;2005-04-22 19:00;METAR CYUL 221900Z 14007KT 30SM FEW140 SCT200 BKN250 14/M07 A2988 RMK AC1CI1CI1 VIA YQB FIC SLP121=
CYUL;2005-04-22 20:00;METAR CYUL 222000Z 07008KT 30SM FEW120 SCT210 BKN250 13/M06 A2986 RMK AC1CI0CI1 SLP114=
CYUL;2005-04-22 21:00;METAR CYUL 222100Z 13005KT 30SM FEW120 FEW210 BKN250 14/M06 A2984 RMK AC1CI0CI1 SLP106=
CYUL;2005-04-22 22:00;METAR CYUL 222200Z 10006KT 30SM FEW120 SCT180 BKN210 BKN250 14/M08 A2982 RMK AC1AS1CI1CI1 SLP101=
CYUL;2005-04-23 00:00;METAR CYUL 230000Z 06010KT 25SM BKN140 BKN210 13/M08 A2980 RMK AS6CI1 SLP093=
CYUL;2005-04-23 01:00;METAR CYUL 230100Z 07009KT 15SM OVC140 12/M05 A2982 RMK AS7 SLP098=
CYUL;2005-04-23 05:00;METAR CYUL 230500Z 06009KT 15SM OVC080 11/M04 A2975 RMK AC8 SLP076=
CYUL;2005-04-23 05:45;SPECI CYUL 230545Z 08006KT 15SM -RA OVC070 RMK AC8=
CYUL;2005-04-23 06:00;METAR CYUL 230600Z 10007KT 10SM -RA OVC045 10/M02 A2975 RMK SC8 SLP075=
CYUL;2005-04-23 07:00;METAR CYUL 230700Z 11009KT 5SM -RA OVC040 08/04 A2976 RMK SC8 SLP077=
CYUL;2005-04-23 08:00;METAR CYUL 230800Z 10007KT 5SM -RA OVC038 08/04 A2976 RMK SC8 SLP078=
CYUL;2005-04-23 09:00;METAR CYUL 230900Z 08008KT 5SM -RA BKN035 OVC050 08/05 A2974 RMK SC6SC2 SLP072=
CYUL;2005-04-23 10:00;METAR CYUL 231000Z 07011KT 6SM -RA OVC033 08/05 A2974 RMK SC8 SLP072=
CYUL;2005-04-23 10:46;SPECI CYUL 231046Z 07008KT 4SM -RA SCT009 OVC025 RMK SF3SC5=
CYUL;2005-04-23 11:40;SPECI CYUL 231140Z 08014G20KT 5SM -RA SCT010 OVC025 RMK SF3SC5=
CYUL;2005-04-23 12:00;METAR CYUL 231200Z 08016G22KT 6SM -RA FEW009 BKN028 OVC035 07/04 A2973 RMK SF2SC4SC2 SLP067=
CYUL;2005-04-23 12:40;SPECI CYUL 231240Z 07014KT 6SM -RA FEW009 BKN013 OVC030 RMK SF2SF5SC2=
CYUL;2005-04-23 13:00;METAR CYUL 231300Z 07017G22KT 6SM -RA FEW008 BKN012 OVC030 07/04 A2969 RMK SF1SC6SC2 SLP055=
CYUL;2005-04-23 14:00;METAR CYUL 231400Z 08017G26KT 6SM -RA FEW008 BKN012 OVC033 07/04 A2968 RMK SF1SF6SC1 SLP050=
CYUL;2005-04-23 14:29;SPECI CYUL 231429Z 07016G25KT 4SM -RA BR FEW007 BKN014 OVC030 RMK SF1SF6SC2=
CYUL;2005-04-23 15:00;METAR CYUL 231500Z 07015G20KT 4SM -RA BR FEW006 BKN012 OVC030 07/04 A2968 RMK SF1SF6SC2 SLP052=
CYUL;2005-04-23 16:00;METAR CYUL 231600Z 07015G24KT 4SM -RA BR FEW008 BKN012 BKN023 OVC036 06/04 A2966 RMK SF1SF6SC1SC1 SLP043=
CYUL;2005-04-23 16:12;SPECI CYUL 231612Z 06018KT 2 1/2SM -RA BR FEW008 BKN012 BKN023 OVC036 RMK SF1SF6SC1SC1=
CYUL;2005-04-23 16:25;SPECI CYUL 231625Z 06018G24KT 3SM -RA BR FEW008 BKN012 OVC021 RMK SF1SF6SC1=
CYUL;2005-04-23 18:12;SPECI CYUL 231812Z 06019KT 2 1/4SM -RA BR FEW006 BKN011 OVC020 RMK SF2SF6SC1=
CYUL;2005-04-23 18:49;SPECI CYUL 231849Z 05017G24KT 3SM -RA BR SCT007 OVC010 RMK SF4SF4=
CYUL;2005-04-23 19:30;SPECI CYUL 231930Z 05015G27KT 6SM -RA BR FEW005 BKN009 OVC020 RMK SF2SF5SC1=
CYUL;2005-04-23 20:30;SPECI CYUL 232030Z 05020KT 2SM -RA BR FEW005 BKN008 OVC016 RMK SF1SF6SC1=
CYUL;2005-04-23 21:29;SPECI CYUL 232129Z 05015G24KT 6SM -RA BR FEW006 BKN012 OVC022 RMK SF1SF6SC2=
CYUL;2005-04-23 22:00;METAR CYUL 232200Z 05018KT 7SM -RA VCFG FEW004 BKN008 OVC018 06/03 A2959 RMK SF1SF6SC1 SLP022=
CYUL;2005-04-23 23:00;METAR CYUL 232300Z 04019KT 5SM -RA BR FEW004 BKN008 OVC018 06/04 A2959 RMK SF2SF5SC1 SLP020=
CYUL;2005-04-24 00:00;METAR CYUL 240000Z 04019G24KT 5SM -RA BR FEW006 BKN009 OVC018 06/03 A2958 RMK SF1SF6SC1 SLP019=
CYUL;2005-04-24 00:38;SPECI CYUL 240038Z 04019G24KT 2SM -RA BR FEW006 BKN009 OVC020 RMK SF2SF6SC1=
CYUL;2005-04-24 01:10;SPECI CYUL 240110Z 04020G26KT 4SM -RA BR FEW004 BKN008 OVC021 RMK SF1SF6SC1 CIG RAG=
CYUL;2005-04-24 02:48;SPECI CYUL 240248Z 04017G24KT 8SM OVC007 RMK ST8=
CYUL;2005-04-24 03:34;SPECI CYUL 240334Z 05020KT 6SM -RA BR BKN007 OVC025 RMK ST7SC1=
CYUL;2005-04-24 04:00;METAR CYUL 240400Z 05020G26KT 4SM -RA BR BKN007 OVC025 05/03 A2954 RMK ST7SC1 SLP004=
CYUL;2005-04-24 07:00;METAR CYUL 240700Z 04015G20KT 8SM -RA OVC004 06/04 A2947 RMK ST8 SLP982=
CYUL;2005-04-24 07:25;SPECI CYUL 240725Z 04017KT 8SM OVC004 RMK ST8=
CYUL;2005-04-24 08:24;SPECI CYUL 240824Z 04018KT 8SM SCT004 OVC022 RMK SF4SC4=
CYUL;2005-04-24 10:00;METAR CYUL 241000Z 05021G27KT 8SM -RA FEW005 BKN050 OVC075 08/06 A2937 RMK SF1SC6AC2 SLP946=
CYUL;2005-04-24 10:42;SPECI CYUL 241042Z 05021G28KT 10SM FEW005 BKN070 OVC140 RMK SF1AC5AC2=
CYUL;2005-04-24 11:00;METAR CYUL 241100Z 04017G25KT 10SM FEW005 BKN070 OVC140 09/06 A2934 RMK SF1AC6AC1 SLP936=
CYUL;2005-04-24 11:25;SPECI CYUL 241125Z 04018G25KT 8SM -RA FEW006 OVC040 RMK SF2SC6 INTMT -RA=
CYUL;2005-04-24 12:00;METAR CYUL 241200Z 05015KT 8SM FEW007 OVC035 09/07 A2934 RMK SF1SC8 SLP936=
CYUL;2005-04-24 14:00;METAR CYUL 241400Z 05016KT 10SM FEW008 BKN035 OVC065 11/09 A2929 RMK SF1SC6SC2 SLP920=
CYUL;2005-04-24 15:00;METAR CYUL 241500Z 05014KT 12SM OVC040 13/10 A2928 RMK SC8 SLP917=
CYUL;2005-04-24 16:00;METAR CYUL 241600Z 08013KT 12SM OVC030 15/11 A2928 RMK SC8 SLP915=
CYUL;2005-04-24 17:00;METAR CYUL 241700Z 09010G17KT 12SM OVC040 16/11 A2927 RMK SC8 SLP913=
CYUL;2005-04-24 18:00;METAR CYUL 241800Z 13015G24KT 10SM -SHRA BKN030 OVC065 16/11 A2928 RMK SC6SC2 VIS SSE 30 SLP917=
CYUL;2005-04-24 18:40;SPECI CYUL 241840Z 12009KT 15SM SCT030 BKN065 RMK SC4SC3=
CYUL;2005-04-24 19:00;METAR CYUL 241900Z 12012G17KT 30SM FEW035 BKN065 BKN100 15/10 A2926 RMK SC2SC2AC1 SLP910=
CYUL;2005-04-24 20:00;METAR CYUL 242000Z 10012G17KT 30SM FEW035 FEW065 BKN100 BKN220 17/12 A2924 RMK SC1SC2AC3CI0 SLP904=
CYUL;2005-04-24 21:00;METAR CYUL 242100Z 11016KT 30SM FEW035TCU BKN080 BKN220 17/10 A2924 RMK TCU1AC5CI1 SLP904=
CYUL;2005-04-24 22:00;METAR CYUL 242200Z 11017KT 30SM FEW050TCU SCT090 BKN200 18/10 A2925 RMK TCU2AC2CI1 SLP907=
CYUL;2005-04-25 00:00;METAR CYUL 250000Z 25015G21KT 15SM BKN050 BKN200 11/07 A2934 RMK SC5CI0 PRESRR SLP937=
CYUL;2005-04-25 01:00;METAR CYUL 250100Z 27010G15KT 15SM SCT020 BKN200 10/05 A2939 RMK SC3CI1 SLP953=
CYUL;2005-04-25 03:00;METAR CYUL 250300Z 27005KT 15SM BKN045 08/03 A2943 RMK SC5 SLP967=
CYUL;2005-04-25 05:00;METAR CYUL 250500Z 33004KT 15SM BKN035 OVC055 08/03 A2944 RMK SC5SC3 SLP969=
CYUL;2005-04-25 07:00;METAR CYUL 250700Z 03002KT 15SM BKN070 BKN170 07/02 A2940 RMK AC6AC1 SLP956=
CYUL;2005-04-25 09:31;SPECI CYUL 250931Z 00000KT 10SM -SHRA SCT035 OVC045 RMK SC3SC5=
CYUL;2005-04-25 10:00;METAR CYUL 251000Z 36004KT 12SM -RA FEW035 OVC050 07/02 A2935 RMK SC1SC7 SLP941=
CYUL;2005-04-25 11:00;METAR CYUL 251100Z 36004KT 12SM -RA OVC035 06/03 A2936 RMK SC8 SLP943=
CYUL;2005-04-25 12:00;METAR CYUL 251200Z 32005KT 8SM -RA BKN018 OVC030 05/02 A2936 RMK SC6SC2 SLP943=
CYUL;2005-04-25 14:00;METAR CYUL 251400Z 28010G15KT 15SM -RA BKN018 OVC035 06/03 A2933 RMK SC6SC2 SLP932=
CYUL;2005-04-25 14:42;SPECI CYUL 251442Z 26012G17KT 15SM BKN020 OVC040 RMK SC6SC2=
CYUL;2005-04-25 15:00;METAR CYUL 251500Z 25012KT 15SM BKN020 OVC040 06/03 A2933 RMK SC6SC2 SLP934=
CYUL;2005-04-25 16:00;METAR CYUL 251600Z 25006KT 15SM BKN032 OVC060 07/02 A2933 RMK SC6SC2 SLP934=
CYUL;2005-04-25 17:00;METAR CYUL 251700Z 21011KT 15SM SCT030 OVC065 08/02 A2934 RMK SC3SC5 SLP936=
CYUL;2005-04-25 18:00;METAR CYUL 251800Z 22010G15KT 15SM BKN045 OVC060 09/01 A2935 RMK SC5SC3 SLP940=
CYUL;2005-04-25 20:00;METAR CYUL 252000Z 23012G17KT 15SM SCT040 OVC050 10/M01 A2938 RMK SC3SC5 SLP951=
CYUL;2005-04-25 21:00;METAR CYUL 252100Z 23015KT 15SM FEW040 BKN065 OVC150 10/M01 A2942 RMK SC2SC4AS1 SLP963=
CYUL;2005-04-25 23:00;METAR CYUL 252300Z 23012KT 15SM FEW080 BKN150 BKN240 09/M02 A2947 RMK AC2AC1CS1 SLP982=
CYUL;2005-04-26 00:00;METAR CYUL 260000Z 25015KT 15SM BKN065 OVC240 08/01 A2951 RMK SC6CS1 SLP995=
CYUL;2005-04-26 02:00;METAR CYUL 260200Z 22011KT 12SM -RA BKN018 OVC030 06/02 A2958 RMK SC6SC2 SLP017=
CYUL;2005-04-26 02:52;SPECI CYUL 260252Z 22012KT 15SM BKN020 OVC030 RMK SC6SC2=
CYUL;2005-04-26 03:00;METAR CYUL 260300Z 22011KT 15SM BKN020 OVC030 06/02 A2960 RMK SC7SC1 SLP027=
CYUL;2005-04-26 04:00;METAR CYUL 260400Z 22013KT 15SM OVC017 06/02 A2963 RMK SC8 SLP034=
CYUL;2005-04-26 06:00;METAR CYUL 260600Z 22010KT 15SM FEW019 BKN065 OVC085 06/02 A2966 RMK SC2SC5AC2 SLP046=
CYUL;2005-04-26 06:22;SPECI CYUL 260622Z 22013KT 12SM -SHRA SCT020 OVC050 RMK SC3SC5=
CYUL;2005-04-26 07:32;SPECI CYUL 260732Z 22013KT 12SM -DZ OVC016 RMK SC8=
CYUL;2005-04-26 07:51;SPECI CYUL 260751Z 22013KT 12SM -SHRA BKN015 OVC035 RMK SC7SC1=
CYUL;2005-04-26 08:26;SPECI CYUL 260826Z 23010KT 12SM FEW016 OVC055 RMK CF2SC6=
CYUL;2005-04-26 09:00;METAR CYUL 260900Z 21009KT 12SM FEW016 SCT035 OVC055 06/02 A2975 RMK CF1SC3SC5 SLP076=
CYUL;2005-04-26 10:00;METAR CYUL 261000Z 19007KT 15SM BKN030 BKN045 OVC095 06/02 A2977 RMK SC6SC2AC1 SLP084=
CYUL;2005-04-26 12:00;METAR CYUL 261200Z 14008KT 30SM FEW100 FEW240 08/02 A2982 RMK AC1CI0 SLP100=
CYUL;2005-04-26 13:00;METAR CYUL 261300Z 17008KT 30SM FEW030 FEW100 BKN240 10/02 A2983 RMK CU1AC1CI2 SLP102=
CYUL;2005-04-26 14:00;METAR CYUL 261400Z 14005KT 30SM FEW030 FEW150 BKN240 11/02 A2983 RMK CU1AC2CI2 SLP103=
CYUL;2005-04-26 15:00;METAR CYUL 261500Z 13007KT 30SM SCT150 BKN220 12/03 A2983 RMK AC2CI1 SLP104=
CYUL;2005-04-26 16:00;METAR CYUL 261600Z 14009G15KT 30SM FEW030 SCT150 BKN220 14/05 A2984 RMK CU1AC2CI1 SLP106=
CYUL;2005-04-26 17:00;METAR CYUL 261700Z 15008KT 30SM FEW030 BKN180 BKN240 15/04 A2983 RMK CU1AC2CI2 SLP103=
CYUL;2005-04-26 18:00;METAR CYUL 261800Z 15012KT 30SM FEW090 BKN130 OVC210 17/07 A2983 RMK AC2AC3CI1 SLP101=
CYUL;2005-04-26 19:00;METAR CYUL 261900Z 14015KT 30SM SCT065 OVC090 16/05 A2983 RMK SC3AC5 SLP102=
CYUL;2005-04-26 20:00;METAR CYUL 262000Z 13010KT 30SM BKN100 OVC240 17/06 A2982 RMK AC6CI1 SLP097=
CYUL;2005-04-26 21:00;METAR CYUL 262100Z 14011KT 30SM OVC090 17/04 A2981 RMK AC8 SLP094=
CYUL;2005-04-26 22:00;METAR CYUL 262200Z 13010KT 30SM OVC110 17/05 A2980 RMK AC8 SLP093=
CYUL;2005-04-27 00:00;METAR CYUL 270000Z 14010KT 30SM BKN100 16/04 A2979 RMK AC6 SLP089=
CYUL;2005-04-27 01:00;METAR CYUL 270100Z 12010KT 15SM SCT110 BKN180 15/04 A2980 RMK AC3CI0 SLP091=
CYUL;2005-04-27 04:00;METAR CYUL 270400Z 12008KT 15SM SCT240 13/03 A2980 RMK CI1 SLP092=
CYUL;2005-04-27 06:00;METAR CYUL 270600Z 13011KT 15SM BKN120 BKN240 13/02 A2979 RMK AC6CI1 SLP088=
CYUL;2005-04-27 07:00;METAR CYUL 270700Z 13013KT 15SM BKN120 OVC240 13/02 A2978 RMK AC6CI1 SLP084=
CYUL;2005-04-27 08:00;METAR CYUL 270800Z 11008KT 15SM BKN100 OVC130 12/02 A2977 RMK AC6AC2 SLP083=
CYUL;2005-04-27 10:00;METAR CYUL 271000Z 11003KT 15SM FEW040 OVC095 12/04 A2976 RMK SC1AC7 SLP079=
CYUL;2005-04-27 10:10;SPECI CYUL 271010Z 10004KT 12SM -RA FEW040 BKN085 OVC100 RMK SC1AC6AC1=
CYUL;2005-04-27 10:30;SPECI CYUL 271030Z 10008KT 12SM VCSH FEW050 BKN095 OVC120 RMK SC1AC6AC2=
CYUL;2005-04-27 10:46;SPECI CYUL 271046Z 10009KT 12SM -RA FEW050 BKN070 OVC100 RMK SC1AC6AC2=
CYUL;2005-04-27 11:00;METAR CYUL 271100Z 10011KT 15SM FEW050 BKN070 OVC100 12/06 A2975 RMK SC1AC6AC2 INTMT R- SLP075=
CYUL;2005-04-27 12:00;METAR CYUL 271200Z 14013KT 8SM -RA FEW050 BKN070 OVC090 12/06 A2975 RMK SC2AC5AC2 SLP076=
CYUL;2005-04-27 13:00;METAR CYUL 271300Z 13010KT 6SM -RA FEW040 OVC050 11/08 A2977 RMK SC2SC6 SLP081=
CYUL;2005-04-27 14:00;METAR CYUL 271400Z 15014G22KT 6SM -RA FEW040 BKN050 OVC063 11/08 A2977 RMK SC1SC6SC2 SLP083=
CYUL;2005-04-27 15:00;METAR CYUL 271500Z 12012KT 15SM -RA FEW047 BKN058 OVC090 11/08 A2977 RMK SC1SC6AC1 -RA INTMT SLP083=
CYUL;2005-04-27 16:00;METAR CYUL 271600Z 13010KT 7SM -RA VCFG FEW035 BKN050 OVC090 11/08 A2978 RMK SC1SC6AC1 SLP085=
CYUL;2005-04-27 17:00;METAR CYUL 271700Z 12010KT 6SM -RA BR FEW026 OVC052 11/09 A2976 RMK SC2SC6 SLP080=
CYUL;2005-04-27 17:21;SPECI CYUL 271721Z 13007KT 2SM RA BR FEW022 BKN037 OVC055 RMK SF1SC6SC2 VSBY VRBL 1-3=
CYUL;2005-04-27 18:00;METAR CYUL 271800Z 13005KT 2SM RA BR FEW012 BKN026 OVC035 11/09 A2977 RMK SF2SC4SC2 VIS VRBL 1-3 /R13/=
CYUL;2005-04-27 19:00;METAR CYUL 271900Z 00000KT 2SM RA BR FEW007 BKN014 OVC022 11/09 A2975 RMK SF2SC5SC1 SLP074=
CYUL;2005-04-27 19:10;SPECI CYUL 271910Z 00000KT 2SM RA BR FEW004 BKN011 OVC020 RMK SF2SC5SC1 VIA YQB=
CYUL;2005-04-27 19:42;SPECI CYUL 271942Z 31002KT 1 1/4SM RA BR FEW004 BKN013 OVC026 RMK SF2SC5SC1 VIA YQB FIC=
CYUL;2005-04-27 20:00;METAR CYUL 272000Z 32003KT 1SM RA BR SCT004 BKN014 OVC025 11/09 A2974 RMK FG2SF2SC3SC2 /R10/ VIA YQB FSS SLP072=
CYUL;2005-04-27 20:26;SPECI CYUL 272026Z 02004KT 1SM RA BR FEW006 BKN018 OVC027 RMK FG1SF2SC4SC2 R06L/P6000FT/D R06R/P6000FT/D ///VIA YQB FIC=
CYUL;2005-04-27 21:00;METAR CYUL 272100Z 01003KT 1SM RA BR SCT003 BKN018 OVC024 11/09 A2973 RMK FG1SF2SC4SC1 R06L/P6000FT/U R06R/P6000FT/N ///VIA YQB FIC SLP068=
CYUL;2005-04-27 22:00;METAR CYUL 272200Z 35004KT 1 1/4SM RA BR FEW003 OVC013 11/10 A2973 RMK FG1SF3NS4 VIA YQB FIC SLP068=
CYUL;2005-04-27 22:17;SPECI CYUL 272217Z 35004KT 1 1/4SM RA BR BKN004 OVC015 RMK FG1SF6NS2 VIA YQB FIC=
CYUL;2005-04-27 22:36;SPECI CYUL 272236Z 34003KT 2 1/2SM -RA BR BKN005 OVC018 RMK FG1SF5NS2=
CYUL;2005-04-27 23:25;SPECI CYUL 272325Z 23004KT 2 1/4SM -RA BR BKN004 BKN010 OVC019 RERA RMK SF6SF2NS1 VIA YQB FIC=
CYUL;2005-04-28 00:00;METAR CYUL 280000Z 18004KT 2 1/2SM RARA BKN004 OVC010 11/09 A2974 RMK SF7SF1 RERA /R26/ /// VIA YQB FIC SLP071=
CYUL;2005-04-28 01:00;METAR CYUL 280100Z 15008KT 2 1/2SM -RA BR BKN004 OVC010 10/09 A2975 RMK SF6SF2 VIA YQB FIC SLP076=
CYUL;2005-04-28 01:15;SPECI CYUL 280115Z 17005KT 2 1/2SM -RA BR FEW001 BKN004 OVC010 RMK SF2SF6SF1 VIA YQB FIC=
CYUL;2005-04-28 02:40;SPECI CYUL 280240Z 08010KT 4SM -DZ BKN005 OVC012 RMK SF6SF2 VIA YQB FIC=
CYUL;2005-04-28 03:00;METAR CYUL 280300Z 09007KT 5SM -DZ BR BKN006 OVC012 09/07 A2975 RMK SF6SF1 VIA YQB FIC SLP032=
CYUL;2005-04-28 04:00;METAR CYUL 280400Z 00000KT 4SM BR OVC004 09/07 A2976 RMK ST8 SLP080=
CYUL;2005-04-28 04:12;SPECI CYUL 280412Z 09002KT 4SM BR OVC003 RMK ST8=
CYUL;2005-04-28 06:00;METAR CYUL 280600Z 34005KT 3SM -DZ BR OVC004 09/07 A2976 RMK SF8 SLP078=
CYUL;2005-04-28 07:00;METAR CYUL 280700Z 33004KT 3SM -DZ BR OVC004 08/07 A2976 RMK SF8 SLP077=
CYUL;2005-04-28 07:46;SPECI CYUL 280746Z 31003KT 2SM BR OVC003 RMK ST8=
CYUL;2005-04-28 08:00;METAR CYUL 280800Z 29004KT 1 1/2SM BR OVC002 08/07 A2976 RMK ST8 VSBY=
CYUL;2005-04-28 08:05;SPECI CYUL 280805Z 31003KT 3/4SM R24L/P6000FT/D R24R/P6000FT/D BR VV002 RMK FG8 VIS NE 11/2=
CYUL;2005-04-28 08:15;SPECI CYUL 280815Z 32002KT 1 1/4SM R24L/P6000FT/U R24R/P6000FT/U BR OVC003 RMK ST8 VSBY VRBL 1-11/2=
CYUL;2005-04-28 08:30;SPECI CYUL 280830Z 33003KT 1 1/2SM BR BKN003 OVC010 RMK SF7SC1=
CYUL;2005-04-28 09:00;METAR CYUL 280900Z 29002KT 1SM R24L/P6000FT/U R24R/P6000FT/D BR OVC003 08/07 A2977 RMK SF8 SLP082=
CYUL;2005-04-28 09:16;SPECI CYUL 280916Z 27003KT 1 1/2SM BR OVC003 RMK ST8 VIS LWR NE=
CYUL;2005-04-28 09:50;SPECI CYUL 280950Z 22003KT 3SM -DZ BR FEW003 BKN005 OVC009 RMK SF2SF5SF1 VIS LWR NE=
CYUL;2005-04-28 10:00;METAR CYUL 281000Z 23007KT 4SM -DZ BR FEW004 BKN008 OVC012 08/07 A2976 RMK SF2SF5SC1 SLP077=
CYUL;2005-04-28 10:20;SPECI CYUL 281020Z 25009KT 6SM BR FEW006 BKN010 OVC015 RMK SF2SC6SC1=
CYUL;2005-04-28 12:00;METAR CYUL 281200Z 24011KT 7SM BKN018 OVC025 07/04 A2977 RMK SC6SC2 SLP082=
CYUL;2005-04-28 13:00;METAR CYUL 281300Z 23010KT 8SM SCT020 OVC070 07/04 A2978 RMK SC3AC5 SLP085=
CYUL;2005-04-28 13:24;SPECI CYUL 281324Z 24008KT 8SM BKN012 BKN030 OVC090 RMK SF5SC2AC2=
CYUL;2005-04-28 14:00;METAR CYUL 281400Z 25006KT 8SM VCFG BKN012 BKN022 OVC120 08/05 A2976 RMK SF6SC2AC1 SLP079=
CYUL;2005-04-28 14:31;SPECI CYUL 281431Z 25008KT 8SM SCT012 BKN025 OVC120 RMK SF4SC2AC2=
CYUL;2005-04-28 14:44;SPECI CYUL 281444Z 24007KT 8SM VCFG BKN014 BKN024 OVC120 RMK SF6SC2AC1=
CYUL;2005-04-28 15:00;METAR CYUL 281500Z 22009KT 8SM VCFG BKN014 OVC022 08/05 A2974 RMK SF6SC2 SLP072=
CYUL;2005-04-28 15:35;SPECI CYUL 281535Z 27008KT 10SM BKN016 OVC022 RMK SF6SC2=
CYUL;2005-04-28 16:00;METAR CYUL 281600Z 28008KT 10SM BKN015 OVC022 09/05 A2972 RMK SF6SC2 SLP066=
CYUL;2005-04-28 17:00;METAR CYUL 281700Z 26007KT 12SM SCT018 BKN024 BKN050 OVC150 11/06 A2972 RMK SF3SC2SC2AC1 SLP064=
CYUL;2005-04-28 17:53;SPECI CYUL 281753Z 33006KT 12SM -SHRA FEW015 FEW023 BKN055 OVC090 RMK SF1SC2SC5AC1=
CYUL;2005-04-28 20:00;METAR CYUL 282000Z 30005KT 10SM -RA VCFG FEW015 BKN023 OVC050 08/06 A2971 RMK SF2SC5SC2 VIS NW 2 F SLP061=
CYUL;2005-04-28 20:40;SPECI CYUL 282040Z 33003KT 15SM FEW012 BKN021 OVC047 RMK SF1SC6SC1=
CYUL;2005-04-28 20:49;SPECI CYUL 282049Z 32004KT 15SM -RA FEW012 BKN021 OVC047 RMK SF1SC6SC1 -RA INTMT=
CYUL;2005-04-28 22:00;METAR CYUL 282200Z 26012KT 12SM -RA FEW010 SCT025 OVC045 08/05 A2973 RMK SF2SC2SC5 -RA INTMT SLP069=
CYUL;2005-04-28 22:12;SPECI CYUL 282212Z 25012KT 15SM -RA BKN014 OVC025 RMK SF6SC2=
CYUL;2005-04-28 22:34;SPECI CYUL 282234Z 25013KT 15SM -RA FEW014 BKN030 OVC048 RMK SF2SC4SC2=
CYUL;2005-04-28 23:00;METAR CYUL 282300Z 25013KT 15SM -RA SCT014 BKN032 OVC050 07/05 A2973 RMK SF4SC3SC1 SLP070=
CYUL;2005-04-29 00:00;METAR CYUL 290000Z 26014KT 15SM -RA SCT016 BKN036 OVC050 07/04 A2974 RMK SF3SC4SC1 SLP071=
CYUL;2005-04-29 01:00;METAR CYUL 290100Z 25012G17KT 10SM -RA VCFG FEW008 OVC032 07/05 A2974 RMK SF1SC7 SLP071=
CYUL;2005-04-29 02:00;METAR CYUL 290200Z 25013KT 7SM -RA BKN012 BKN020 OVC030 06/04 A2974 RMK SF5SC2SC2 SLP072=
CYUL;2005-04-29 04:00;METAR CYUL 290400Z 25013KT 6SM -RA BKN009 OVC015 06/04 A2973 RMK SF6SC2 SLP069=
CYUL;2005-04-29 05:00;METAR CYUL 290500Z 26011KT 6SM -RA BR BKN009 OVC015 06/04 A2973 RMK SF7SC1 SLP069=
CYUL;2005-04-29 07:00;METAR CYUL 290700Z 26015KT 6SM -RA BR BKN010 OVC018 06/04 A2972 RMK SF6SC2 SLP067=
CYUL;2005-04-29 10:00;METAR CYUL 291000Z 25015KT 8SM -RA BKN012 OVC018 05/03 A2975 RMK SF6SC2 SLP076=
CYUL;2005-04-29 11:00;METAR CYUL 291100Z 25017KT 15SM -RA FEW012 OVC018 05/03 A2976 RMK SF2SC6 SLP079=
CYUL;2005-04-29 12:00;METAR CYUL 291200Z 25016KT 15SM FEW012 OVC018 06/03 A2976 RMK SF2SC6 SLP081=
CYUL;2005-04-29 19:00;METAR CYUL 291900Z 25022G28KT 30SM FEW025 FEW038 SCT055 BKN072 BKN220 12/03 A2982 RMK CF1SC2SC1AC3CI1 TCU ASOCT SLP101=
CYUL;2005-04-29 20:00;METAR CYUL 292000Z 24016G26KT 30SM FEW030 SCT045 BKN074 BKN220 11/02 A2984 RMK CF1SC2AC2CI0 SLP107=
CYUL;2005-04-29 21:00;METAR CYUL 292100Z 23017G22KT 30SM FEW035 SCT060 BKN083 12/02 A2985 RMK CF1SC2AC2 SLP110=
CYUL;2005-04-29 22:00;METAR CYUL 292200Z 24018G23KT 30SM FEW038 FEW060 BKN082 BKN240 12/01 A2986 RMK CF1SC1AC4CI1 SLP114=
CYUL;2005-04-29 23:00;METAR CYUL 292300Z 25012G19KT 30SM FEW042 FEW058 FEW090 SCT240 12/01 A2988 RMK CF1SC1AC2CI0 SLP121=
CYUL;2005-04-30 00:00;METAR CYUL 300000Z 23011KT 30SM FEW040 FEW085 11/01 A2990 RMK SC1AC1 SLP127=
CYUL;2005-04-30 03:00;METAR CYUL 300300Z 23004KT 15SM SKC 09/00 A2994 RMK SLP141=
CYUL;2005-04-30 04:00;METAR CYUL 300400Z 19006KT 15SM FEW050 FEW100 06/00 A2996 RMK SC1AC1 SLP146=
CYUL;2005-04-30 05:00;METAR CYUL 300500Z 20003KT 15SM FEW050 FEW080 06/M01 A2998 RMK SC1AC1 SLP152=
CYUL;2005-04-30 09:00;METAR CYUL 300900Z 13003KT 15SM BKN060 06/M01 A2998 RMK SC6 SLP153=
CYUL;2005-04-30 10:00;METAR CYUL 301000Z 00000KT 15SM OVC060 07/M00 A2998 RMK SC7 SLP155=
CYUL;2005-04-30 11:00;METAR CYUL 301100Z 09002KT 15SM FEW060 OVC075 07/00 A3000 RMK SC2AC6 SLP161=
CYUL;2005-04-30 12:00;METAR CYUL 301200Z 09004KT 15SM FEW060 OVC080 08/01 A2999 RMK SC2AC6 SLP156=
CYUL;2005-04-30 13:00;METAR CYUL 301300Z 08005KT 15SM BKN068 OVC080 09/01 A2998 RMK AC6AC2 SLP153=
CYUL;2005-04-30 14:38;SPECI CYUL 301438Z 08006KT 15SM -RA BKN062 OVC082 RMK SC6AC2 HZ=
CYUL;2005-04-30 15:00;METAR CYUL 301500Z 07007KT 12SM BKN060 OVC080 11/01 A2994 RMK SC5AC3 INTMT -RA HZ SLP139=
CYUL;2005-04-30 16:00;METAR CYUL 301600Z 06006KT 12SM FEW055 BKN070 OVC120 12/02 A2991 RMK SC2AC5AC1 SLP130=
CYUL;2005-04-30 17:00;METAR CYUL 301700Z 04007KT 12SM BKN062 BKN080 OVC110 12/03 A2989 RMK SC6AC2AC1 SLP122=
CYUL;2005-04-30 17:17;SPECI CYUL 301717Z 04008KT 12SM -RA BKN062 BKN080 OVC110 RMK SC6AC2AC1=
CYUL;2005-04-30 18:00;METAR CYUL 301800Z 09004KT 10SM -RA FEW045 OVC058 13/05 A2987 RMK CF2SC6 -RA INTMT SLP117=
CYUL;2005-04-30 19:00;METAR CYUL 301900Z 15006KT 4SM -RA FEW034 OVC046 11/08 A2986 RMK CF2SC6 SLP114=
CYUL;2005-04-30 21:00;METAR CYUL 302100Z 08009KT 4SM RA BR FEW011 BKN020 OVC028 10/08 A2977 RMK SF2SC4SC2 SLP084=
CYUL;2005-04-30 22:00;METAR CYUL 302200Z 08009KT 3SM RA BR FEW008 SCT010 OVC020 10/08 A2976 RMK SF1SF2SC5 SLP078=
CYUL;2005-04-30 22:05;SPECI CYUL 302205Z 09011KT 2SM RA BR FEW008 SCT010 OVC020 RMK SF1SF2SC5 VSBY VRBL 1-3=
CYUL;2005-04-30 22:14;SPECI CYUL 302214Z 08009KT 2SM RA BR FEW007 BKN010 OVC020 RMK SF1SF5SC2 VSBY VRBL 1-3=
CYUL;2005-04-30 23:45;SPECI CYUL 302345Z 07007KT 2 1/2SM -RA BR FEW006 BKN012 OVC022 RERA RMK SF2SF4SC2=
CYUL;2005-05-01 00:00;METAR CYUL 010000Z 07007KT 2SM -RA BR FEW006 BKN012 OVC022 10/08 A2970 RERA RMK SF2SF6SC1 SLP058=
CYUL;2005-05-01 00:29;SPECI CYUL 010029Z 07005KT 2SM -DZ BR FEW004 BKN007 OVC012 RMK SF2SF5ST2=
CYUL;2005-05-01 02:00;METAR CYUL 010200Z 14002KT 2 1/2SM -DZ BR BKN007 OVC025 09/08 A2969 RMK SF6ST2 SLP054=
CYUL;2005-05-01 03:00;METAR CYUL 010300Z 18004KT 2 1/2SM BR BKN008 OVC025 09/08 A2968 RMK SF5SC3 SLP051=
CYUL;2005-05-01 04:00;METAR CYUL 010400Z 24004KT 3SM BR BKN005 OVC020 09/08 A2968 RMK SF6ST2 SLP052=
CYUL;2005-05-01 04:45;SPECI CYUL 010445Z 24010KT 3SM BR BKN004 OVC020 RMK SF6ST2=
CYUL;2005-05-01 05:00;METAR CYUL 010500Z 25009KT 2 1/2SM BR OVC004 09/08 A2969 RMK SF8 SLP055=
CYUL;2005-05-01 06:00;METAR CYUL 010600Z 27010KT 2 1/2SM BR OVC003 09/08 A2970 RMK SF8 SLP057=
CYUL;2005-05-01 10:00;METAR CYUL 011000Z 24009KT 4SM BR OVC007 07/06 A2971 RMK SF8 SLP062=
CYUL;2005-05-01 11:00;METAR CYUL 011100Z 24012KT 4SM BR OVC008 07/05 A2972 RMK SF8 SLP065=
CYUL;2005-05-01 12:00;METAR CYUL 011200Z 24012KT 4SM BR OVC011 07/05 A2974 RMK SF8 SLP073=
CYUL;2005-05-01 13:00;METAR CYUL 011300Z 24010KT 12SM OVC012 07/05 A2974 RMK SF8 SLP071=
CYUL;2005-05-01 14:00;METAR CYUL 011400Z 23011KT 15SM OVC015 08/04 A2974 RMK SC8 SLP072=
CYUL;2005-05-01 15:00;METAR CYUL 011500Z 25011G19KT 15SM OVC018 08/04 A2974 RMK SC8 SLP072=
CYUL;2005-05-01 16:00;METAR CYUL 011600Z 26012KT 15SM BKN022 BKN240 09/04 A2974 RMK CU6CI1 SLP072=
CYUL;2005-05-01 17:20;SPECI CYUL 011720Z 26009KT 15SM SCT035 BKN075 RMK CU3AC4 VCSH=
CYUL;2005-05-01 18:24;SPECI CYUL 011824Z 22010G15KT 15SM SCT030TCU BKN095 RMK TCU3AC2=
CYUL;2005-05-01 18:39;SPECI CYUL 011839Z 22012G17KT 15SM -SHRA BKN035TCU BKN090 RMK TCU6AC2=
CYUL;2005-05-01 19:00;METAR CYUL 011900Z 20006KT 15SM SCT035TCU BKN090 11/04 A2970 RMK TCU3AC2 CB ASOCT SLP058=
CYUL;2005-05-01 20:33;SPECI CYUL 012033Z 27016KT 15SM FEW050 SCT100 RMK CU1AC2 CB ASOCT=
CYUL;2005-05-01 21:34;SPECI CYUL 012134Z 22023G33KT 15SM -SHRA BKN050 BKN090 RMK CU6AC1 TCU EMBD=
CYUL;2005-05-02 00:00;METAR CYUL 020000Z 24011KT 15SM FEW030CB SCT065 BKN080 BKN220 10/01 A2975 RMK CB1SC2AC2CI1 SLP076=
CYUL;2005-05-02 01:00;METAR CYUL 020100Z 25013KT 15SM BKN050 BKN075 BKN220 08/01 A2979 RMK CU5AC2CI1 SLP090=
CYUL;2005-05-02 01:20;SPECI CYUL 020120Z 26011KT 15SM -SHRA SCT050 BKN080 RMK CU3AC4=
CYUL;2005-05-02 02:40;SPECI CYUL 020240Z 29007KT 15SM BKN040 OVC065 RMK SC5SC3=
CYUL;2005-05-02 03:00;METAR CYUL 020300Z 27007KT 15SM SCT065 BKN090 06/02 A2981 RMK SC3AC2 SLP095=
CYUL;2005-05-02 04:00;METAR CYUL 020400Z 25005KT 15SM SCT040 BKN085 06/03 A2982 RMK SC3AC3 SLP098=
CYUL;2005-05-02 05:00;METAR CYUL 020500Z 25009KT 15SM SCT060 BKN085 06/02 A2982 RMK SC3AC4 SLP100=
CYUL;2005-05-02 08:00;METAR CYUL 020800Z 24007KT 15SM FEW090 05/01 A2982 RMK AC2 SLP101=
CYUL;2005-05-02 10:00;METAR CYUL 021000Z 22009KT 12SM SKC 05/02 A2983 RMK SLP104=
CYUL;2005-05-02 12:00;METAR CYUL 021200Z 22011KT 15SM BKN075 BKN240 06/01 A2986 RMK AC5CI1 SLP112=
CYUL;2005-05-02 13:28;SPECI CYUL 021328Z 22013KT 15SM -RA BKN050 OVC150 RMK SC6AC2=
CYUL;2005-05-02 15:44;SPECI CYUL 021544Z 20006KT 10SM FEW020 FEW050 BKN120 BKN240 RMK CU1SC2AC4CI2=
CYUL;2005-05-02 16:00;METAR CYUL 021600Z 19007KT 12SM FEW020TCU SCT120 BKN240 08/05 A2982 RMK TCU1AC3CI2 SLP098=
CYUL;2005-05-02 17:00;METAR CYUL 021700Z 23015G20KT 15SM FEW030 SCT075 OVC210 10/03 A2980 RMK CU2AC2CS4 CB ASOCT SLP093=
CYUL;2005-05-02 17:12;SPECI CYUL 021712Z 23017G22KT 15SM -SHRA BKN030TCU BKN075 OVC210 RMK TCU6AC1CS2=
CYUL;2005-05-02 18:00;METAR CYUL 021800Z 22014KT 12SM -SHRA FEW030CB FEW070 OVC210 09/05 A2980 RMK CB2AC1CS2 SLP092=
CYUL;2005-05-02 18:29;SPECI CYUL 021829Z 26011G17KT 6SM SHRAPL OVC028 RMK CU8 CB EMBD=
CYUL;2005-05-02 19:00;METAR CYUL 021900Z 24011KT 15SM SCT030TCU BKN070 BKN220 07/03 A2981 RMK TCU4AC2CI1 CB ASOCT RERA SLP096=
CYUL;2005-05-02 19:32;SPECI CYUL 021932Z 21014KT 15SM -SHRA BKN030TCU BKN100 OVC240 RMK TCU6AC1CI1=
CYUL;2005-05-02 19:52;SPECI CYUL 021952Z 21011G17KT 15SM FEW030CB FEW090 BKN130 BKN240 RMK CB2AC1AC2CI1=
CYUL;2005-05-02 20:00;METAR CYUL 022000Z 22012G17KT 15SM FEW030CB FEW080 SCT110 SCT240 09/04 A2980 RMK CB2AC1AC2CI1 SLP094=
CYUL;2005-05-02 21:00;METAR CYUL 022100Z 27020G27KT 15SM BKN040 BKN070 BKN240 09/03 A2981 RMK CU6AC1CI1 SLP096=
CYUL;2005-05-02 22:00;METAR CYUL 022200Z 25018KT 15SM FEW040 FEW070 BKN240 09/01 A2981 RMK CU1AC2CI3 SLP096=
CYUL;2005-05-02 23:50;SPECI CYUL 022350Z 25023G28KT 15SM -SHRA BKN035TCU OVC240 RMK TCU6CI1=
CYUL;2005-05-03 00:00;METAR CYUL 030000Z 24016G25KT 15SM FEW035TCU BKN055 OVC240 08/M02 A2983 RMK TCU2SC4CI1 SLP102=
CYUL;2005-05-03 03:00;METAR CYUL 030300Z 26012KT 15SM FEW180 06/01 A2986 RMK AC1 SLP113=
CYUL;2005-05-03 04:00;METAR CYUL 030400Z 25011KT 15SM BKN180 05/01 A2987 RMK AC5 SLP115=
CYUL;2005-05-03 05:00;METAR CYUL 030500Z 24009KT 15SM FEW030 BKN160 05/01 A2987 RMK SC2AC4 SLP118=
CYUL;2005-05-03 07:00;METAR CYUL 030700Z 24013KT 15SM FEW025 OVC110 04/01 A2987 RMK SC2AC6 SLP116=
CYUL;2005-05-03 09:00;METAR CYUL 030900Z 24012KT 15SM SCT060 OVC130 04/01 A2989 RMK SC3AC3 SLP123=
CYUL;2005-05-03 09:16;SPECI CYUL 030916Z 24011KT 15SM BKN014 OVC060 RMK SF5SC3=
CYUL;2005-05-03 10:00;METAR CYUL 031000Z 24009KT 12SM BKN014 OVC070 04/01 A2990 RMK SF7AC1 SLP128=
CYUL;2005-05-03 10:26;SPECI CYUL 031026Z 25010KT 12SM SCT014 BKN070 RMK SF3AC1=
CYUL;2005-05-03 11:00;METAR CYUL 031100Z 25009KT 12SM FEW014 FEW070 04/01 A2992 RMK SF2AC0 SLP135=
CYUL;2005-05-03 12:00;METAR CYUL 031200Z 25012KT 15SM SCT013 SCT100 05/01 A2994 RMK CU3AC0 SLP139=
CYUL;2005-05-03 13:00;METAR CYUL 031300Z 25009KT 15SM FEW020 SCT100 06/01 A2995 RMK CU2AC1 SLP142=
CYUL;2005-05-03 14:00;METAR CYUL 031400Z 23009KT 30SM FEW020 FEW120 08/02 A2996 RMK CU2AC1 SLP146=
CYUL;2005-05-03 15:00;METAR CYUL 031500Z 20013KT 30SM SCT030 BKN120 09/02 A2997 RMK CU4AC1 SLP150=
CYUL;2005-05-03 16:00;METAR CYUL 031600Z 23014KT 30SM BKN030 BKN080 10/01 A2996 RMK CU5AC1 SLP148=
CYUL;2005-05-03 17:29;SPECI CYUL 031729Z 26021G28KT 30SM -SHRA BKN040TCU BKN075 RMK TCU6AC1=
CYUL;2005-05-03 19:00;METAR CYUL 031900Z 26016G25KT 30SM FEW040 BKN080 09/M01 A2998 RMK CU2AC6 SLP154=
CYUL;2005-05-05 01:00;METAR CYUL 050100Z 22008KT 15SM FEW050 BKN095 09/M01 A3039 RMK SC1AC5 SLP292=
CYUL;2005-05-05 03:00;METAR CYUL 050300Z 24009KT 15SM FEW090 07/M00 A3041 RMK AC1 SLP300=
CYUL;2005-05-05 04:00;METAR CYUL 050400Z 25006KT 15SM SKC 06/M00 A3042 RMK SLP303=
CYUL;2005-05-05 07:00;METAR CYUL 050700Z 23005KT 15SM SKC 05/M01 A3045 RMK SLP314=
CYUL;2005-05-05 10:00;METAR CYUL 051000Z 24004KT 30SM FEW050 FEW240 03/M01 A3050 RMK SC1CI1 SLP330=
CYUL;2005-05-05 11:00;METAR CYUL 051100Z 25005KT 25SM FEW060 FEW240 04/M01 A3052 RMK SC1CI0 SLP338=
CYUL;2005-05-05 12:00;METAR CYUL 051200Z 25006KT 20SM FEW072 FEW210 SCT250 06/M00 A3054 RMK AC1CI0CI1 SLP342=
CYUL;2005-05-05 13:00;METAR CYUL 051300Z 23008KT 20SM FEW030 FEW210 FEW250 08/01 A3054 RMK CU1CI0CI1 SLP343=
CYUL;2005-05-05 14:00;METAR CYUL 051400Z 21007KT 30SM FEW030 FEW240 09/01 A3054 RMK CU1CI0 SLP342=
CYUL;2005-05-05 15:00;METAR CYUL 051500Z 21008KT 30SM FEW030 FEW040 FEW240 11/02 A3054 RMK CU1SC1CI0 SLP343=
CYUL;2005-05-05 16:00;METAR CYUL 051600Z 21010KT 30SM FEW035 SCT045 SCT240 12/M01 A3053 RMK CU2SC2CI0 SLP339=
CYUL;2005-05-05 17:00;METAR CYUL 051700Z 19009KT 30SM FEW040 SCT240 13/M02 A3051 RMK CU2CI0 SLP332=
CYUL;2005-05-05 18:00;METAR CYUL 051800Z 21009KT 30SM FEW045 SCT240 13/M03 A3049 RMK CU2CI0 SLP327=
CYUL;2005-05-05 19:00;METAR CYUL 051900Z 22008KT 30SM FEW050 SCT240 14/M03 A3047 RMK CU2CI0 SLP321=
CYUL;2005-05-05 20:00;METAR CYUL 052000Z 16006KT 30SM FEW050 SCT240 15/M02 A3046 RMK CU1CI2 SLP315=
CYUL;2005-05-05 21:00;METAR CYUL 052100Z 22006KT 30SM FEW050 SCT240 14/M03 A3044 RMK CU1CI2 SLP310=
CYUL;2005-05-05 22:00;METAR CYUL 052200Z 21005KT 30SM FEW050 BKN240 15/M03 A3043 RMK SC1CI2 SLP308=
CYUL;2005-05-06 00:00;METAR CYUL 060000Z 16005KT 30SM SCT240 12/M02 A3043 RMK CI2 SLP305=
CYUL;2005-05-06 03:00;METAR CYUL 060300Z 13002KT 15SM FEW240 10/M00 A3043 RMK CI0 K SLP306=
CYUL;2005-05-06 05:00;METAR CYUL 060500Z 19002KT 15SM SCT240 09/M00 A3043 RMK CI1 K SLP304=
CYUL;2005-05-06 07:00;METAR CYUL 060700Z 15004KT 15SM SCT200 BKN240 06/01 A3040 RMK CI1CI2 K SLP294=
CYUL;2005-05-06 10:00;METAR CYUL 061000Z 02002KT 30SM FEW180 SCT200 BKN240 07/M00 A3037 RMK AS1CI2CI2 SLP286=
CYUL;2005-05-06 11:00;METAR CYUL 061100Z 04004KT 30SM BKN210 BKN240 08/00 A3038 RMK CI3CI2 SLP289=
CYUL;2005-05-06 12:00;METAR CYUL 061200Z 10004KT 30SM SCT200 BKN240 09/00 A3038 RMK CI2CI1 HZ SLP288=
CYUL;2005-05-06 13:00;METAR CYUL 061300Z 11006KT 30SM FEW200 12/02 A3038 RMK CI1 SLP287=
CYUL;2005-05-06 14:00;METAR CYUL 061400Z 13007KT 30SM FEW210 14/01 A3036 RMK CI1 SLP282=
CYUL;2005-05-06 15:00;METAR CYUL 061500Z 13005KT 30SM FEW210 15/01 A3035 RMK CI1 SLP279=
CYUL;2005-05-06 16:00;METAR CYUL 061600Z 23004KT 30SM FEW210 17/02 A3034 RMK CI1 SLP276=
CYUL;2005-05-06 18:00;METAR CYUL 061800Z 12004KT 30SM FEW050 FEW190 SCT210 19/M00 A3029 RMK SC1CI1CI1 SLP257=
CYUL;2005-05-06 19:00;METAR CYUL 061900Z 13007KT 30SM FEW060 SCT190 BKN210 19/M01 A3026 RMK CU1CI2CI2 SLP247=
CYUL;2005-05-06 21:00;METAR CYUL 062100Z 18008KT 30SM FEW060 BKN210 19/M01 A3021 RMK SC1CI2 SLP230=
CYUL;2005-05-06 22:00;METAR CYUL 062200Z 15011KT 30SM FEW060 SCT210 19/00 A3018 RMK SC1CI2 SLP221=
CYUL;2005-05-07 00:00;METAR CYUL 070000Z 14005KT 30SM FEW150 SCT240 15/01 A3017 RMK AC1CI1 SLP218=
CYUL;2005-05-07 03:00;METAR CYUL 070300Z 10005KT 15SM SKC 15/00 A3015 RMK SLP210=
CYUL;2005-05-07 04:00;METAR CYUL 070400Z 14009KT 15SM FEW200 13/01 A3015 RMK CI1 SLP211=
CYUL;2005-05-07 05:00;METAR CYUL 070500Z 14010KT 15SM SKC 11/01 A3015 RMK SLP211=
CYUL;2005-05-07 07:00;METAR CYUL 070700Z 13008KT 15SM FEW230 09/01 A3011 RMK CI1 SLP199=
CYUL;2005-05-07 10:00;METAR CYUL 071000Z 10005KT 15SM FEW180 BKN250 08/01 A3013 RMK AC1CI2 SLP203=
CYUL;2005-05-07 11:00;METAR CYUL 071100Z 09007KT 25SM SCT250 09/00 A3014 RMK CI1 HZ SLP207=
CYUL;2005-05-07 12:00;METAR CYUL 071200Z 10010KT 30SM FEW250 11/M01 A3014 RMK CI1 SLP208=
CYUL;2005-05-07 13:00;METAR CYUL 071300Z 10008KT 30SM SCT250 12/M02 A3014 RMK CI0 SLP207=
CYUL;2005-05-07 14:00;METAR CYUL 071400Z 12007KT 30SM FEW040 SCT240 13/M02 A3013 RMK CU1CI0 SLP203=
CYUL;2005-05-07 16:00;METAR CYUL 071600Z 03010G17KT 30SM FEW040 BKN240 15/02 A3009 RMK CU1CI2 SLP192=
CYUL;2005-05-07 17:00;METAR CYUL 071700Z 10009G16KT 30SM FEW040 SCT240 15/M01 A3006 RMK CU1CI2 SLP182=
CYUL;2005-05-07 19:00;METAR CYUL 071900Z 04014G21KT 30SM FEW060 BKN190 BKN240 17/M01 A3004 RMK CU1CS3CI0 SLP173=
CYUL;2005-05-07 21:00;METAR CYUL 072100Z 07014KT 30SM FEW065 BKN190 BKN240 17/M01 A3003 RMK SC2CS2CI1 CU ASOCT SLP169=
CYUL;2005-05-08 00:00;METAR CYUL 080000Z 07016KT 30SM FEW060 FEW085 BKN240 13/M00 A3007 RMK SC1AC1CI2 CC ASOCT SLP183=
CYUL;2005-05-08 03:00;METAR CYUL 080300Z 05007KT 15SM FEW240 11/01 A3006 RMK CI0 SLP181=
CYUL;2005-05-08 04:00;METAR CYUL 080400Z 03006KT 15SM SKC 09/01 A3005 RMK SLP177=
CYUL;2005-05-08 05:00;METAR CYUL 080500Z 36008KT 15SM SKC 09/01 A3003 RMK SLP172=
CYUL;2005-05-08 07:00;METAR CYUL 080700Z 36006KT 15SM FEW180 08/01 A3002 RMK AC1 SLP166=
CYUL;2005-05-08 08:00;METAR CYUL 080800Z 03011KT 15SM FEW240 08/01 A3001 RMK CI0 SLP164=
CYUL;2005-05-08 10:00;METAR CYUL 081000Z 01009KT 15SM FEW180 SCT240 07/01 A3002 RMK AC2CI0 SLP168=
CYUL;2005-05-08 11:00;METAR CYUL 081100Z 01009KT 15SM BKN045 09/01 A3004 RMK SC5 SLP174=
CYUL;2005-05-08 12:00;METAR CYUL 081200Z 03015G20KT 15SM BKN045 10/01 A3005 RMK SC4 SLP177=
CYUL;2005-05-08 13:00;METAR CYUL 081300Z 03022G27KT 15SM SCT050 BKN240 12/01 A3003 RMK CU2CI1 SLP172=
CYUL;2005-05-08 15:00;METAR CYUL 081500Z 04021G27KT 15SM FEW040 BKN052 BKN240 13/02 A3005 RMK CU1SC4CI0 SLP177=
CYUL;2005-05-08 16:00;METAR CYUL 081600Z 05020G26KT 15SM FEW040 OVC052 14/02 A3006 RMK CU1SC7 SLP180=
CYUL;2005-05-08 18:00;METAR CYUL 081800Z 05016KT 15SM BKN055 BKN063 15/03 A3007 RMK SC6SC2 SLP184=
CYUL;2005-05-08 19:00;METAR CYUL 081900Z 07011G17KT 15SM FEW030 SCT060 BKN085 15/04 A3006 RMK CF1SC3AC3 SLP182=
CYUL;2005-05-08 20:00;METAR CYUL 082000Z 07013KT 15SM FEW030 FEW060 SCT085 BKN100 15/04 A3006 RMK CF1SC2AC2AS2 SLP180=
CYUL;2005-05-08 21:00;METAR CYUL 082100Z 07016KT 15SM FEW060 BKN095 15/04 A3006 RMK SC2AC4 SLP181=
CYUL;2005-05-08 22:00;METAR CYUL 082200Z 08014G19KT 30SM FEW060 FEW090 SCT210 15/04 A3006 RMK SC1AC2CI0 SLP182=
CYUL;2005-05-09 00:00;METAR CYUL 090000Z 07011KT 30SM BKN065 13/03 A3008 RMK SC7 SLP189=
CYUL;2005-05-09 04:00;METAR CYUL 090400Z 05011KT 15SM SKC 11/03 A3010 RMK SLP193=
CYUL;2005-05-09 05:00;METAR CYUL 090500Z 02006KT 15SM BKN050 09/03 A3010 RMK SC5 SLP195=
CYUL;2005-05-09 06:00;METAR CYUL 090600Z 04008KT 15SM BKN043 11/03 A3009 RMK SC7 SLP190=
CYUL;2005-05-09 09:00;METAR CYUL 090900Z 05010KT 15SM FEW040 SCT240 10/03 A3009 RMK SC2CI0 SLP191=
CYUL;2005-05-09 10:00;METAR CYUL 091000Z 06009KT 15SM BKN020 09/04 A3011 RMK SC6 SLP196=
CYUL;2005-05-09 12:00;METAR CYUL 091200Z 07009KT 15SM BKN025 10/04 A3012 RMK SC7 SLP200=
CYUL;2005-05-09 13:00;METAR CYUL 091300Z 04008G15KT 15SM BKN022 11/05 A3013 RMK SC7 SLP203=
CYUL;2005-05-09 15:00;METAR CYUL 091500Z 36005KT 15SM BKN025 BKN240 12/06 A3011 RMK SC5CI0 SLP199=
CYUL;2005-05-09 16:00;METAR CYUL 091600Z 02004KT 15SM FEW030 FEW240 14/06 A3009 RMK SC1CI1 SLP191=
CYUL;2005-05-09 17:00;METAR CYUL 091700Z 05003KT 15SM FEW240 15/07 A3008 RMK CI1 SLP187=
CYUL;2005-05-09 21:00;METAR CYUL 092100Z 18007KT 15SM BKN240 19/08 A3002 RMK CI1 SLP165=
CYUL;2005-05-09 22:00;METAR CYUL 092200Z 12006KT 15SM BKN240 19/09 A3000 RMK CI1 SLP159=
CYUL;2005-05-09 23:00;METAR CYUL 092300Z 12007KT 15SM BKN240 19/09 A2999 RMK CI2 SLP157=
CYUL;2005-05-10 00:00;METAR CYUL 100000Z 08004KT 15SM FEW150 BKN240 18/08 A3000 RMK AC1CI2 SLP158=
CYUL;2005-05-10 02:00;METAR CYUL 100200Z 22002KT 15SM FEW240 15/08 A3000 RMK CI0 SLP160=
CYUL;2005-05-10 04:00;METAR CYUL 100400Z 14002KT 15SM FEW240 14/08 A2999 RMK CI0 SLP156=
CYUL;2005-05-10 05:00;METAR CYUL 100500Z 00000KT 15SM FEW240 12/08 A2999 RMK CI0 SLP156=
CYUL;2005-05-10 07:00;METAR CYUL 100700Z 00000KT 15SM FEW240 14/08 A2998 RMK CI0 SLP152=
CYUL;2005-05-10 09:00;METAR CYUL 100900Z 09004KT 15SM SCT240 14/08 A2998 RMK CI0 SLP151=
CYUL;2005-05-10 10:00;METAR CYUL 101000Z 09007KT 30SM SCT240 13/08 A2998 RMK CI0 SLP152=
CYUL;2005-05-10 11:00;METAR CYUL 101100Z 14008KT 30SM FEW240 13/08 A2998 RMK CI0 SLP154=
CYUL;2005-05-10 12:00;METAR CYUL 101200Z 13007KT 30SM BKN240 14/08 A2999 RMK CI1 SLP155=
CYUL;2005-05-10 13:00;METAR CYUL 101300Z 14005KT 30SM FEW240 17/10 A2999 RMK CI1 SLP155=
CYUL;2005-05-10 16:00;METAR CYUL 101600Z 15004KT 30SM BKN240 23/10 A2994 RMK CI1 SLP140=
CYUL;2005-05-10 17:00;METAR CYUL 101700Z 14008KT 30SM FEW050 BKN240 24/11 A2992 RMK CU1CI1 SLP133=
CYUL;2005-05-10 21:00;METAR CYUL 102100Z 16012G17KT 30SM FEW065 FEW120 BKN240 26/10 A2984 RMK CU1AC1CI1 SLP107=
CYUL;2005-05-10 22:00;METAR CYUL 102200Z 16012KT 30SM FEW065 FEW120 BKN240 26/10 A2983 RMK CU1AC1CI1 SLP102=
CYUL;2005-05-11 04:00;METAR CYUL 110400Z 15003KT 15SM FEW120 SCT250 17/10 A2980 RMK AC2CI0 SLP093=
CYUL;2005-05-11 05:00;METAR CYUL 110500Z 16004KT 15SM FEW020 FEW120 SCT210 16/10 A2981 RMK SC1AC2CI1 SLP094=
CYUL;2005-05-11 06:00;METAR CYUL 110600Z 17006KT 15SM BKN140 BKN250 17/10 A2980 RMK AC5CI1 SLP092=
CYUL;2005-05-11 07:00;METAR CYUL 110700Z 17005KT 15SM BKN120 BKN160 OVC250 17/10 A2979 RMK AC5AC2CI1 SLP090=
CYUL;2005-05-11 10:00;METAR CYUL 111000Z 21004KT 15SM FEW100 BKN150 OVC250 18/10 A2982 RMK AC2AC5CI1 VIRGA SLP098=
CYUL;2005-05-11 10:10;SPECI CYUL 111010Z 21007KT 15SM -RA FEW100 BKN150 OVC250 RMK AC2AC5CI1=
CYUL;2005-05-11 10:47;SPECI CYUL 111047Z 20009KT 12SM FEW060 BKN100 BKN150 OVC250 RMK SC2AC2AC2CI2 INTMT -RA=
CYUL;2005-05-11 12:00;METAR CYUL 111200Z 23005KT 12SM FEW060 BKN100 BKN150 BKN250 16/12 A2982 RMK SC1AC6AC1CI1 SLP100=
CYUL;2005-05-11 14:00;METAR CYUL 111400Z 18007KT 10SM FEW110 FEW150 19/14 A2983 RMK AC1AC1 SLP103=
CYUL;2005-05-11 15:00;METAR CYUL 111500Z 21005KT 10SM FEW035 22/15 A2982 RMK CU1 SLP099=
CYUL;2005-05-11 16:00;METAR CYUL 111600Z 27006KT 10SM FEW040 FEW100 24/15 A2981 RMK CU1AC2 ACC ASOCT SLP096=
CYUL;2005-05-11 17:00;METAR CYUL 111700Z 26010G16KT 12SM FEW045 SCT100 SCT240 25/14 A2980 RMK CU2AC2CI1 SLP092=
CYUL;2005-05-11 18:00;METAR CYUL 111800Z 28010G15KT 15SM BKN050TCU BKN100 25/13 A2979 RMK TCU5AC2 SLP090=
CYUL;2005-05-11 18:19;SPECI CYUL 111819Z 27013G18KT 15SM -SHRA SCT050TCU BKN070 BKN240 RMK TCU4AC3CI1=
CYUL;2005-05-11 18:44;SPECI CYUL 111844Z 25014KT 15SM FEW050TCU SCT100 BKN240 RMK TCU2AC2CI1=
CYUL;2005-05-11 21:00;METAR CYUL 112100Z 31014G19KT 15SM FEW050TCU SCT100 BKN220 23/14 A2982 RMK TCU1AC2CI3 CS ASOCT SLP097=
CYUL;2005-05-11 22:00;METAR CYUL 112200Z 31012G17KT 15SM FEW045 SCT080 OVC220 22/12 A2983 RMK CU1AC4CS3 SLP101=
CYUL;2005-05-11 23:00;METAR CYUL 112300Z 31014G19KT 15SM FEW040 FEW080 BKN240 19/10 A2986 RMK CU1AC1CI2 SLP113=
CYUL;2005-05-12 02:00;METAR CYUL 120200Z 34014KT 15SM FEW018 FEW035 OVC052 12/04 A3002 RMK SF1SC1SC6 SLP167=
CYUL;2005-05-12 03:00;METAR CYUL 120300Z 35014KT 15SM FEW035 FEW050 BKN062 OVC085 11/03 A3005 RMK SC1SC2SC4AC2 SLP177=
CYUL;2005-05-12 04:00;METAR CYUL 120400Z 34014KT 15SM SCT032 OVC060 09/02 A3009 RMK SC3SC5 SLP189=
CYUL;2005-05-12 05:00;METAR CYUL 120500Z 36014KT 15SM FEW030 BKN063 OVC085 08/M01 A3012 RMK SC1SC7AC1 SLP200=
CYUL;2005-05-12 06:00;METAR CYUL 120600Z 36013G19KT 15SM FEW032 OVC068 07/M02 A3016 RMK SC1AC7 SLP216=
CYUL;2005-05-12 08:00;METAR CYUL 120800Z 36013G19KT 15SM BKN030 OVC075 04/M04 A3024 RMK SC6AC2 SLP240=
CYUL;2005-05-12 09:00;METAR CYUL 120900Z 34014KT 15SM BKN032 03/M06 A3027 RMK SC6 SLP253=
CYUL;2005-05-12 10:00;METAR CYUL 121000Z 34012G17KT 15SM FEW032 FEW065 01/M08 A3033 RMK SC1SC1 PRESRR SLP273=
CYUL;2005-05-12 11:00;METAR CYUL 121100Z 35012G17KT 30SM FEW032 FEW065 FEW250 01/M08 A3037 RMK SC1SC1CI1 SLP285=
CYUL;2005-05-12 12:00;METAR CYUL 121200Z 33013KT 30SM FEW025 FEW060 FEW250 02/M09 A3040 RMK SC1SC1CI1 SLP296=
CYUL;2005-05-12 13:00;METAR CYUL 121300Z 34011KT 30SM FEW025 FEW060 FEW250 03/M08 A3042 RMK SC1SC1CI1 SLP301=
CYUL;2005-05-12 14:00;METAR CYUL 121400Z 32012G17KT 30SM FEW025 FEW240 04/M08 A3043 RMK CF1CI1 SLP304=
CYUL;2005-05-12 15:00;METAR CYUL 121500Z 36006G16KT 30SM FEW030 FEW240 05/M10 A3042 RMK CF1CI1 SLP303=
CYUL;2005-05-12 16:00;METAR CYUL 121600Z 32009G16KT 30SM FEW035 06/M08 A3041 RMK CF1 SLP300=
CYUL;2005-05-12 17:00;METAR CYUL 121700Z 33009G18KT 30SM SKC 07/M08 A3040 RMK SLP296=
CYUL;2005-05-12 18:00;METAR CYUL 121800Z 35008KT 30SM SKC 09/M08 A3039 RMK SLP292=
CYUL;2005-05-12 19:00;METAR CYUL 121900Z 30005G17KT 30SM SKC 10/M09 A3038 RMK SLP291=
CYUL;2005-05-12 20:00;METAR CYUL 122000Z 31007G15KT 30SM FEW050 10/M09 A3038 RMK SC1 SLP288=
CYUL;2005-05-12 21:00;METAR CYUL 122100Z 01008G18KT 30SM FEW070 10/M09 A3038 RMK AC1 SLP288=
CYUL;2005-05-12 22:00;METAR CYUL 122200Z 31006G16KT 30SM FEW080 10/M09 A3038 RMK AC1 SLP289=
CYUL;2005-05-13 00:00;METAR CYUL 130000Z 36011KT 30SM SKC 09/M10 A3040 RMK SLP296=
CYUL;2005-05-13 03:00;METAR CYUL 130300Z 34008KT 15SM SKC 06/M09 A3043 RMK SLP307=
CYUL;2005-05-13 04:00;METAR CYUL 130400Z 36010KT 15SM SKC 06/M09 A3043 RMK SLP307=
CYUL;2005-05-13 08:00;METAR CYUL 130800Z 36002KT 15SM SKC 02/M08 A3045 RMK SLP313=
CYUL;2005-05-13 09:00;METAR CYUL 130900Z 27003KT 15SM SKC 00/M07 A3046 RMK SLP317=
CYUL;2005-05-13 10:00;METAR CYUL 131000Z 27003KT 30SM FEW230 M00/M06 A3047 RMK CI1 SLP320=
CYUL;2005-05-13 12:00;METAR CYUL 131200Z 31005KT 30SM SKC 06/M07 A3046 RMK SLP315=
CYUL;2005-05-13 13:00;METAR CYUL 131300Z 27004KT 30SM FEW020 07/M07 A3047 RMK CF1 SLP319=
CYUL;2005-05-13 14:00;METAR CYUL 131400Z 28008KT 30SM FEW240 07/M06 A3044 RMK CI1 SLP311=
CYUL;2005-05-13 15:00;METAR CYUL 131500Z 23005KT 30SM FEW240 08/M06 A3041 RMK CI1 SLP299=
CYUL;2005-05-13 16:00;METAR CYUL 131600Z 27007KT 30SM FEW240 09/M04 A3037 RMK CI1 SLP286=
CYUL;2005-05-13 17:00;METAR CYUL 131700Z 27010KT 30SM BKN240 11/M05 A3033 RMK CI1 SLP273=
CYUL;2005-05-13 18:00;METAR CYUL 131800Z 21012KT 30SM BKN240 12/M04 A3029 RMK CI1 CS ASOCT SLP257=
CYUL;2005-05-13 21:00;METAR CYUL 132100Z 23010KT 30SM BKN220 14/M04 A3020 RMK CS2 CC ASOCT SLP228=
CYUL;2005-05-13 22:00;METAR CYUL 132200Z 21011KT 30SM BKN220 14/M04 A3018 RMK CI3 CS ASOCT SLP220=
CYUL;2005-05-14 00:00;METAR CYUL 140000Z 23009KT 30SM BKN180 OVC220 13/M04 A3014 RMK AC3CI3 SLP208=
CYUL;2005-05-14 03:00;METAR CYUL 140300Z 25002KT 15SM BKN150 OVC210 12/M05 A3008 RMK AC3CI2 SLP189=
CYUL;2005-05-14 04:00;METAR CYUL 140400Z 07002KT 15SM BKN140 OVC210 12/M05 A3006 RMK AC6CI2 SLP180=
CYUL;2005-05-14 06:00;METAR CYUL 140600Z 15004KT 15SM FEW085 OVC100 10/M01 A3005 RMK AC2AC6 SLP176=
CYUL;2005-05-14 10:35;SPECI CYUL 141035Z 08008KT 30SM -RA OVC075 RMK AC8=
CYUL;2005-05-14 12:00;METAR CYUL 141200Z 06005KT 12SM -RA BKN063 OVC075 09/00 A2997 RMK SC5AC3 SLP151=
CYUL;2005-05-14 13:20;SPECI CYUL 141320Z 06008KT 25SM SCT058 OVC075 RMK SC3AC5=
CYUL;2005-05-14 13:25;SPECI CYUL 141325Z 05010KT 25SM -RA SCT058 OVC075 RMK SC3AC5 -RA INTMT=
CYUL;2005-05-14 14:13;SPECI CYUL 141413Z 05010KT 30SM -RA BKN057 OVC080 RMK SC6AC2=
CYUL;2005-05-14 15:00;METAR CYUL 141500Z 05009KT 15SM -RA BKN056 OVC080 09/03 A2991 RMK SC7AC1 SLP131=
CYUL;2005-05-14 16:00;METAR CYUL 141600Z 05011KT 15SM -RA BKN050 OVC060 10/03 A2989 RMK SC6SC2 SLP122=
CYUL;2005-05-14 17:00;METAR CYUL 141700Z 06008KT 15SM -RA BKN048 OVC055 10/04 A2987 RMK SC6SC2 SLP116=
CYUL;2005-05-14 18:00;METAR CYUL 141800Z 06009KT 12SM -RA BKN055 OVC065 10/04 A2987 RMK SC6SC2 SLP115=
CYUL;2005-05-14 21:00;METAR CYUL 142100Z 05009KT 10SM BKN028 OVC035 09/06 A2983 RMK SC6SC2 INTMT R- SLP103=
CYUL;2005-05-14 22:00;METAR CYUL 142200Z 05009KT 10SM OVC023 10/06 A2982 RMK SC8 SLP098=
CYUL;2005-05-15 00:00;METAR CYUL 150000Z 05009KT 10SM OVC024 10/06 A2980 RMK SC8 SLP092=
CYUL;2005-05-15 02:00;METAR CYUL 150200Z 04011KT 10SM OVC026 10/06 A2977 RMK SC8 SLP083=
CYUL;2005-05-15 04:20;SPECI CYUL 150420Z 03011KT 8SM -SHRA OVC024 RMK SC8=
CYUL;2005-05-15 04:43;SPECI CYUL 150443Z 03009KT 8SM BKN024 OVC036 RMK SC6SC2=
CYUL;2005-05-15 06:00;METAR CYUL 150600Z 02011KT 5SM -RA HZ FEW022 BKN040 OVC100 09/06 A2970 RMK SC2SC5AC1 SLP058=
CYUL;2005-05-15 09:33;SPECI CYUL 150933Z 02010KT 6SM BR FEW015 BKN018 OVC035 RMK SF1SC6SC1=
CYUL;2005-05-15 10:00;METAR CYUL 151000Z 02011KT 6SM BR FEW015 BKN018 OVC032 07/05 A2966 RMK SF1SC6SC2 SLP046=
CYUL;2005-05-15 10:50;SPECI CYUL 151050Z 36008KT 8SM VCFG FEW012 BKN014 OVC022 RMK SF1SC6SC1=
CYUL;2005-05-15 12:00;METAR CYUL 151200Z 01005KT 12SM OVC013 08/06 A2972 RMK SC8 SLP064=
CYUL;2005-05-15 13:00;METAR CYUL 151300Z 36004KT 12SM FEW006 OVC013 09/07 A2973 RMK SF1SC7 SLP069=
CYUL;2005-05-15 15:00;METAR CYUL 151500Z 23003KT 10SM OVC011 10/07 A2977 RMK SC8 SLP081=
CYUL;2005-05-15 16:00;METAR CYUL 151600Z 21004KT 10SM OVC011 11/07 A2977 RMK SC8 SLP082=
CYUL;2005-05-15 16:25;SPECI CYUL 151625Z 20004KT 8SM -RA OVC012 RMK SC8=
CYUL;2005-05-15 17:00;METAR CYUL 151700Z 23006KT 10SM OVC012 11/08 A2978 RMK SC8 SLP086=
CYUL;2005-05-15 18:00;METAR CYUL 151800Z 29006KT 10SM BKN013 OVC040 12/09 A2978 RMK SC7SC1 SLP084=
CYUL;2005-05-15 18:30;SPECI CYUL 151830Z 27005KT 8SM FEW011 BKN015 OVC030 RMK SF1SC6SC1=
CYUL;2005-05-15 22:00;METAR CYUL 152200Z 12007KT 10SM FEW020 FEW040 FEW090 SCT210 17/10 A2976 RMK CF1SC2AC1CI0 SLP079=
CYUL;2005-05-16 03:32;SPECI CYUL 160332Z 00000KT 4SM -SHRA HZ FEW010 BKN040 OVC070 RMK SF2SC6AC1=
CYUL;2005-05-16 04:00;METAR CYUL 160400Z 05004KT 4SM -SHRA HZ FEW011 BKN040 OVC072 12/10 A2982 RMK SF2SC5AC2 SLP100=
CYUL;2005-05-16 04:42;SPECI CYUL 160442Z 04005KT 3SM BR FEW012 BKN040 BKN060 OVC078 RMK SF1SC4SC2AC1=
CYUL;2005-05-16 05:00;METAR CYUL 160500Z 03005KT 3SM BR SCT040 BKN065 OVC078 11/09 A2982 RMK SC3SC3AC1 SLP097=
CYUL;2005-05-16 05:54;SPECI CYUL 160554Z 00000KT 3SM -SHRA BR FEW012 FEW040 OVC075 RMK SF1SC2AC6=
CYUL;2005-05-16 07:00;METAR CYUL 160700Z 22007KT 7SM -SHRA VCFG FEW035 BKN065 OVC080 11/07 A2982 RMK SC2SC5AC2 SLP098=
CYUL;2005-05-16 10:00;METAR CYUL 161000Z 19006KT 12SM BKN046 BKN080 BKN120 BKN240 10/08 A2984 RMK SC5AC1AC1CI1 SLP105=
CYUL;2005-05-16 12:00;METAR CYUL 161200Z 25008KT 20SM FEW045 FEW060 FEW072 SCT250 11/07 A2987 RMK SC1SC1AC2CI1 SLP114=
CYUL;2005-05-16 12:42;SPECI CYUL 161242Z 25005KT 20SM FEW010 FEW015 BKN100 BKN250 RMK SF1CU1AC6CI1=
CYUL;2005-05-16 13:00;METAR CYUL 161300Z 28010KT 20SM FEW010 FEW018 BKN100 BKN250 13/07 A2987 RMK SF1CU1AC6CI1 SLP115=
CYUL;2005-05-16 14:00;METAR CYUL 161400Z 20006KT 15SM FEW020TCU FEW075 BKN095 BKN240 13/06 A2988 RMK TCU1AC2AC3CI1 SLP118=
CYUL;2005-05-16 15:00;METAR CYUL 161500Z 22012G19KT 15SM FEW020TCU FEW035 SCT100 BKN240 15/06 A2988 RMK TCU1SC1AC2CI0 SLP119=
CYUL;2005-05-16 16:00;METAR CYUL 161600Z 20012KT 15SM FEW035TCU BKN050 BKN080 15/07 A2987 RMK TCU2SC3AC2 SLP117=
CYUL;2005-05-16 18:00;METAR CYUL 161800Z 23011G18KT 30SM FEW040TCU BKN055 BKN090 16/05 A2986 RMK TCU2SC3AC2 SLP111=
CYUL;2005-05-16 19:00;METAR CYUL 161900Z 24018KT 30SM FEW040TCU FEW060 BKN085 BKN240 16/04 A2986 RMK TCU2SC1AC5CI1 SLP112=
CYUL;2005-05-16 20:00;METAR CYUL 162000Z 23015KT 30SM FEW040TCU SCT060 BKN085 15/05 A2987 RMK TCU2SC2AC4 SLP115=
CYUL;2005-05-16 21:00;METAR CYUL 162100Z 27013KT 30SM FEW040TCU SCT055 BKN085 14/05 A2988 RMK TCU1SC2AC4 SLP118=
CYUL;2005-05-16 22:00;METAR CYUL 162200Z 27015G21KT 30SM FEW040 FEW055 OVC080 14/03 A2989 RMK CF1SC2AC6 SLP123=
CYUL;2005-05-17 00:00;METAR CYUL 170000Z 24015G20KT 30SM BKN055 OVC080 12/02 A2993 RMK SC6AC2 SLP138=
CYUL;2005-05-17 01:18;SPECI CYUL 170118Z 28009G15KT 15SM -SHRA BKN045 OVC070 RMK SC6AC2=
CYUL;2005-05-17 01:45;SPECI CYUL 170145Z 25011G16KT 15SM OVC060 RMK SC8=
CYUL;2005-05-17 02:00;METAR CYUL 170200Z 25009KT 15SM OVC065 11/03 A2998 RMK SC8 SLP152=
CYUL;2005-05-17 03:00;METAR CYUL 170300Z 25008KT 15SM OVC075 10/04 A2998 RMK AC8 SLP153=
CYUL;2005-05-17 05:00;METAR CYUL 170500Z 27006KT 15SM OVC075 10/03 A3000 RMK AC8 SLP160=
CYUL;2005-05-17 07:00;METAR CYUL 170700Z 24006KT 15SM FEW065 OVC075 09/03 A3002 RMK SC1AC7 SLP166=
CYUL;2005-05-17 10:00;METAR CYUL 171000Z 24005KT 30SM FEW075 07/03 A3006 RMK AC2 SLP182=
CYUL;2005-05-17 11:00;METAR CYUL 171100Z 25005KT 30SM FEW075 08/03 A3008 RMK AC1 SLP188=
CYUL;2005-05-17 12:00;METAR CYUL 171200Z 31006KT 30SM FEW020 FEW070 FEW100 07/03 A3010 RMK CF1AC2AC1 SLP193=
CYUL;2005-05-17 15:00;METAR CYUL 171500Z 26011G17KT 30SM BKN040 12/01 A3009 RMK CU5 SLP192=
CYUL;2005-05-17 16:00;METAR CYUL 171600Z 27009G16KT 30SM BKN045 13/01 A3008 RMK SC5 SLP188=
CYUL;2005-05-17 17:00;METAR CYUL 171700Z 27011G17KT 30SM FEW035 BKN060 BKN080 14/01 A3007 RMK CU1SC5AC2 SLP185=
CYUL;2005-05-17 18:00;METAR CYUL 171800Z 28008KT 30SM FEW040 BKN060 OVC080 13/00 A3007 RMK CU1SC5AC2 SLP183=
CYUL;2005-05-17 19:00;METAR CYUL 171900Z 24012KT 30SM FEW040 BKN060 OVC080 13/01 A3006 RMK CU1SC6AC2 SLP182=
CYUL;2005-05-17 21:00;METAR CYUL 172100Z 27012KT 30SM FEW050 OVC090 14/01 A3007 RMK CU2AC6 SLP184=
CYUL;2005-05-17 22:00;METAR CYUL 172200Z 27009KT 30SM FEW040 FEW060 OVC090 13/02 A3008 RMK CU1SC2AC6 SLP186=
CYUL;2005-05-18 00:00;METAR CYUL 180000Z 26005KT 30SM FEW060 BKN090 13/02 A3009 RMK SC2AC5 SLP191=
CYUL;2005-05-18 03:00;METAR CYUL 180300Z 24007KT 15SM FEW070 OVC100 11/03 A3009 RMK AC1AC8 SLP192=
CYUL;2005-05-18 04:00;METAR CYUL 180400Z 26006KT 15SM BKN100 11/03 A3010 RMK AC7 SLP194=
CYUL;2005-05-18 05:00;METAR CYUL 180500Z 27005KT 15SM BKN100 09/03 A3010 RMK AC6 SLP194=
CYUL;2005-05-18 06:00;METAR CYUL 180600Z 26004KT 15SM BKN100 10/03 A3010 RMK AC7 SLP194=
CYUL;2005-05-18 07:00;METAR CYUL 180700Z 27003KT 15SM OVC100 09/04 A3010 RMK AC8 SLP195=
CYUL;2005-05-18 10:00;METAR CYUL 181000Z 34003KT 15SM FEW060 SCT080 BKN100 08/03 A3013 RMK SC1AC3AC3 SLP203=
CYUL;2005-05-18 11:00;METAR CYUL 181100Z 34003KT 15SM FEW060 BKN080 10/02 A3014 RMK SC1AC6 SLP209=
CYUL;2005-05-18 12:00;METAR CYUL 181200Z 32002KT 15SM FEW075 BKN090 BKN240 11/02 A3015 RMK AC1AC6CI1 SLP212=
CYUL;2005-05-18 13:00;METAR CYUL 181300Z 35005KT 30SM FEW070 BKN110 BKN240 12/02 A3016 RMK AC1AC6CI1 SLP216=
CYUL;2005-05-18 14:00;METAR CYUL 181400Z 34002KT 30SM FEW040 FEW070 BKN110 12/01 A3016 RMK CU1AC1AC6 SLP214=
CYUL;2005-05-18 15:00;METAR CYUL 181500Z 28006KT 30SM FEW040 SCT055 OVC110 13/01 A3015 RMK CU1SC4AC4 SLP211=
CYUL;2005-05-18 16:00;METAR CYUL 181600Z 31008KT 30SM FEW040 SCT055 OVC110 14/02 A3014 RMK CU1SC3AC4 SLP207=
CYUL;2005-05-18 16:38;SPECI CYUL 181638Z 27012G20KT 30SM -SHRA FEW040 BKN055 OVC110 RMK CU1SC6AC2=
CYUL;2005-05-18 17:00;METAR CYUL 181700Z 30011G18KT 30SM -SHRA FEW035 BKN055 OVC080 12/03 A3014 RMK CU2SC6AC1 SLP208=
CYUL;2005-05-18 17:22;SPECI CYUL 181722Z 27009KT 30SM FEW040 SCT050 BKN090 BKN210 RMK CU1SC2AC2CI2=
CYUL;2005-05-18 19:00;METAR CYUL 181900Z 27008KT 30SM VCSH FEW040 SCT050 BKN080 BKN210 13/02 A3011 RMK CU2SC2AC2CI1 TCU ASOCT SLP197=
CYUL;2005-05-18 19:46;SPECI CYUL 181946Z 28013KT 15SM -SHRA BKN045 BKN080 RMK SC6AC2 TCU EMBD=
CYUL;2005-05-18 20:36;SPECI CYUL 182036Z 23005KT 30SM FEW040TCU BKN055 BKN080 RMK TCU1SC4AC2=
CYUL;2005-05-18 21:45;SPECI CYUL 182145Z 34011KT 30SM -SHRA FEW040TCU BKN060 BKN085 RMK TCU2SC2AC2=
CYUL;2005-05-18 22:00;METAR CYUL 182200Z 34010KT 30SM -SHRA FEW040TCU BKN065 BKN080 13/02 A3010 RMK TCU2SC4AC2 SLP195=
CYUL;2005-05-19 00:00;METAR CYUL 190000Z 27005KT 30SM FEW040 SCT090 BKN210 11/04 A3010 RMK SC2AC2CI0 SLP195=
CYUL;2005-05-19 01:00;METAR CYUL 190100Z 00000KT 15SM BKN060 BKN110 11/03 A3011 RMK SC5AC2 SLP199=
CYUL;2005-05-19 04:00;METAR CYUL 190400Z 33003KT 15SM SCT075 SCT100 09/04 A3012 RMK AC3AC1 SLP202=
CYUL;2005-05-19 07:00;METAR CYUL 190700Z 35003KT 15SM SKC 05/03 A3013 RMK SLP203=
CYUL;2005-05-19 08:00;METAR CYUL 190800Z 32002KT 15SM FEW150 05/03 A3012 RMK AC1 SLP202=
CYUL;2005-05-19 10:00;METAR CYUL 191000Z 00000KT 30SM FEW090 FEW240 05/03 A3015 RMK AC1CI1 SLP211=
CYUL;2005-05-19 11:00;METAR CYUL 191100Z 35004KT 30SM FEW240 07/04 A3016 RMK CI1 SLP214=
CYUL;2005-05-19 12:00;METAR CYUL 191200Z 02005KT 30SM SKC 09/05 A3017 RMK SLP217=
CYUL;2005-05-19 13:00;METAR CYUL 191300Z 07002KT 30SM FEW030 11/05 A3017 RMK CU1 SLP218=
CYUL;2005-05-19 14:00;METAR CYUL 191400Z 03004KT 30SM FEW030 12/05 A3016 RMK CU1 SLP215=
CYUL;2005-05-19 15:00;METAR CYUL 191500Z 01003KT 30SM FEW030 14/06 A3015 RMK CU2 SLP212=
CYUL;2005-05-19 16:00;METAR CYUL 191600Z 02003KT 30SM SCT035 15/05 A3014 RMK CU3 SLP207=
CYUL;2005-05-19 17:00;METAR CYUL 191700Z 19007KT 30SM SCT040 16/06 A3012 RMK SC4 CU ASOCT SLP201=
CYUL;2005-05-19 18:00;METAR CYUL 191800Z 20005KT 30SM FEW040 BKN060 16/04 A3011 RMK CU2SC5 SLP196=
CYUL;2005-05-19 19:00;METAR CYUL 191900Z 17006KT 30SM FEW045TCU BKN060 16/04 A3010 RMK TCU2SC6 SLP193=
CYUL;2005-05-19 21:00;METAR CYUL 192100Z 20004KT 30SM FEW050 SCT065 SCT090 16/04 A3007 RMK CU2SC2AC1 SLP184=
CYUL;2005-05-19 22:00;METAR CYUL 192200Z 17006KT 30SM FEW050TCU SCT060 17/03 A3007 RMK TCU2SC2 SLP183=
CYUL;2005-05-19 23:00;METAR CYUL 192300Z 17005KT 30SM FEW050 FEW065 17/03 A3007 RMK CU1SC2 SLP183=
CYUL;2005-05-20 00:00;METAR CYUL 200000Z 16004KT 30SM FEW065 FEW210 16/02 A3007 RMK SC2CI1 SLP183=
CYUL;2005-05-20 01:00;METAR CYUL 200100Z 08004KT 15SM FEW065 FEW080 16/02 A3007 RMK SC2AC1 SLP184=
CYUL;2005-05-20 05:00;METAR CYUL 200500Z 13002KT 15SM FEW090 12/03 A3008 RMK AC2 SLP186=
CYUL;2005-05-20 07:00;METAR CYUL 200700Z 34004KT 15SM SCT085 08/04 A3007 RMK AC3 SLP183=
CYUL;2005-05-20 20:38;SPECI CYUL 202038Z 03013G20KT 30SM -SHRA BKN060 BKN080 BKN120 BKN240 RMK SC5AC2AC1CI0 TCU ASOCT=
CYUL;2005-05-21 13:30;SPECI CYUL 211330Z 04013KT 30SM FEW025 FEW040 BKN100 BKN240 RMK CU2SC1AC2CI2=
CYUL;2005-05-21 16:00;METAR CYUL 211600Z 04010G16KT 15SM -SHRA FEW020 BKN026 OVC039 11/05 A3003 RMK CF1SC6SC1 SLP170=
CYUL;2005-05-21 16:23;SPECI CYUL 211623Z 03013KT 30SM VCSH FEW022 BKN028 BKN043 OVC080 RMK CF1SC6SC2AC1 CIG RAG=
CYUL;2005-05-21 17:00;METAR CYUL 211700Z 02012G18KT 15SM BKN028 OVC040 12/05 A3002 RMK SC7SC1 SLP168=
CYUL;2005-05-21 17:32;SPECI CYUL 211732Z 05012G19KT 15SM -SHRA FEW020 BKN028 OVC038 RMK CF1SC6SC1=
CYUL;2005-05-21 17:51;SPECI CYUL 211751Z 05015KT 15SM FEW020 BKN028 OVC045 RMK CF2SC6SC1=
CYUL;2005-05-21 18:00;METAR CYUL 211800Z 04012G17KT 15SM FEW020 BKN028 BKN045 OVC080 12/05 A3003 RMK CF2SC5SC1AC1 SLP169=
CYUL;2005-05-21 21:00;METAR CYUL 212100Z 05015KT 20SM FEW025 BKN038 OVC048 12/04 A3000 RMK CF1SC6SC1 SLP161=
CYUL;2005-05-21 22:00;METAR CYUL 212200Z 06016KT 20SM FEW028 BKN036 OVC050 12/05 A3000 RMK CF1SC6SC2 SLP160=
CYUL;2005-05-21 23:00;METAR CYUL 212300Z 05012G19KT 20SM SCT030 OVC056 12/05 A3000 RMK CF3SC5 SLP159=
CYUL;2005-05-22 00:00;METAR CYUL 220000Z 04012G18KT 20SM FEW028 OVC053 11/05 A3000 RMK CF2SC6 SLP160=
CYUL;2005-05-22 01:00;METAR CYUL 220100Z 05015G22KT 15SM FEW024 OVC053 11/04 A3001 RMK CF1SC7 SLP163=
CYUL;2005-05-22 02:00;METAR CYUL 220200Z 04012G17KT 15SM FEW024 BKN058 OVC150 11/05 A3000 RMK CF1SC6AC1 SLP162=
CYUL;2005-05-22 03:00;METAR CYUL 220300Z 03020KT 15SM FEW022 BKN060 OVC150 10/05 A3000 RMK SC1SC6AC1 SLP160=
CYUL;2005-05-22 04:00;METAR CYUL 220400Z 04013G21KT 15SM FEW020 FEW032 OVC055 10/06 A2999 RMK SC2SC1SC6 SLP157=
CYUL;2005-05-22 04:45;SPECI CYUL 220445Z 04015KT 15SM -SHRA BKN014 OVC035 RMK SC6SC2=
CYUL;2005-05-22 05:00;METAR CYUL 220500Z 04014KT 15SM -SHRA BKN012 OVC035 10/07 A2998 RMK SC6SC2 SLP155=
CYUL;2005-05-22 06:00;METAR CYUL 220600Z 04014G20KT 15SM -RA BKN011 OVC032 09/07 A2997 RMK SC7SC1 SLP150=
CYUL;2005-05-22 08:00;METAR CYUL 220800Z 04016G21KT 12SM -RA SCT013 OVC050 09/06 A2994 RMK SC3SC5 -RA INTMT SLP139=
CYUL;2005-05-22 10:00;METAR CYUL 221000Z 05020KT 10SM -RA BKN016 OVC050 08/05 A2993 RMK SC7SC1 SLP138=
CYUL;2005-05-22 11:00;METAR CYUL 221100Z 04013G21KT 12SM -RA BKN016 OVC045 08/05 A2992 RMK SC7SC1 SLP135=
CYUL;2005-05-22 12:00;METAR CYUL 221200Z 04018KT 15SM -RA BKN015 OVC045 09/06 A2991 RMK SC7SC1 SLP130=
CYUL;2005-05-22 13:00;METAR CYUL 221300Z 04016G22KT 8SM -RA BKN016 OVC045 08/06 A2990 RMK SC6SC2 SLP126=
CYUL;2005-05-22 13:51;SPECI CYUL 221351Z 03017G25KT 3SM -RA BR FEW008 BKN013 OVC035 RMK SF2SC5SC1=
CYUL;2005-05-22 14:00;METAR CYUL 221400Z 05021G28KT 4SM -RA BR FEW008 BKN014 OVC035 09/07 A2989 RMK SF2SC5SC1 SLP123=
CYUL;2005-05-22 14:35;SPECI CYUL 221435Z 05017G22KT 4SM -DZ BR FEW008 BKN015 OVC028 RMK SF2SC5ST2 CIG RAG=
CYUL;2005-05-22 15:12;SPECI CYUL 221512Z 04019G27KT 3SM -RA BR FEW010 OVC016 RMK SF2SC6=
CYUL;2005-05-22 15:53;SPECI CYUL 221553Z 04018G27KT 12SM FEW013 BKN019 OVC036 RMK SF2SC6ST1=
CYUL;2005-05-22 16:00;METAR CYUL 221600Z 04020G26KT 15SM FEW013 OVC020 09/07 A2985 RMK SF2SC6 SLP110=
CYUL;2005-05-22 17:00;METAR CYUL 221700Z 05018KT 15SM SCT015 OVC022 10/06 A2984 RMK SF3SC5 SLP106=
CYUL;2005-05-22 18:00;METAR CYUL 221800Z 06018G27KT 15SM FEW017 OVC026 10/06 A2983 RMK SF2SC6 SLP104=
CYUL;2005-05-22 19:00;METAR CYUL 221900Z 05019G27KT 15SM FEW014 OVC024 10/06 A2981 RMK SF2SC6 SLP097=
CYUL;2005-05-22 21:00;METAR CYUL 222100Z 05015G20KT 15SM SCT018 OVC027 11/06 A2980 RMK SF3SC5 SLP092=
CYUL;2005-05-22 21:09;SPECI CYUL 222109Z 05014KT 12SM -SHRA SCT018 OVC027 RMK SF3SC5=
CYUL;2005-05-22 21:44;SPECI CYUL 222144Z 04015G22KT 15SM FEW010 SCT018 BKN026 OVC035 RMK SF1SF2SC3SC2=
CYUL;2005-05-22 22:00;METAR CYUL 222200Z 04015G20KT 15SM FEW010 SCT020 BKN026 OVC035 11/06 A2979 RMK SF1SF3SC4SC1 SLP088=
CYUL;2005-05-22 23:00;METAR CYUL 222300Z 04013G24KT 15SM BKN020 BKN030 OVC045 11/06 A2980 RMK SF5SC2SC2 SLP092=
CYUL;2005-05-22 23:23;SPECI CYUL 222323Z 05019G26KT 10SM -SHRA FEW017 BKN020 BKN035 OVC045 RMK SF2SF4SC2SC1=
CYUL;2005-05-22 23:49;SPECI CYUL 222349Z 04018KT 12SM FEW017 BKN020 BKN035 OVC045 RMK SF2SF4SC2SC1=
CYUL;2005-05-23 00:00;METAR CYUL 230000Z 05015G22KT 12SM FEW016 BKN020 BKN038 OVC058 10/06 A2979 RMK SF1SF4SC2SC2 SLP091=
CYUL;2005-05-23 00:12;SPECI CYUL 230012Z 05014G26KT 12SM -RA BKN018 BKN035 OVC060 RMK SF5SC2SC2=
CYUL;2005-05-23 01:00;METAR CYUL 230100Z 05016G21KT 8SM -RA FEW015 BKN020 OVC048 10/06 A2981 RMK SF2SF4SC2 VIS W 2 SLP095=
CYUL;2005-05-23 01:18;SPECI CYUL 230118Z 04014G28KT 12SM FEW015 BKN022 BKN030 OVC050 RMK SF1SF6SC2SC1 CIG RAG=
CYUL;2005-05-23 02:00;METAR CYUL 230200Z 04015G21KT 15SM FEW015 BKN028 OVC035 10/05 A2980 RMK SF2SC3SC3 SLP094=
CYUL;2005-05-23 02:17;SPECI CYUL 230217Z 05013G22KT 12SM -DZ SCT016 BKN025 OVC040 RMK SF3SC2SC2=
CYUL;2005-05-23 03:42;SPECI CYUL 230342Z 05018KT 15SM FEW016 BKN024 OVC040 RMK SF2SC5SC2=
CYUL;2005-05-23 04:00;METAR CYUL 230400Z 05015G20KT 15SM FEW016 SCT022 OVC038 09/05 A2979 RMK SF1SC2SC5 SLP088=
CYUL;2005-05-23 06:00;METAR CYUL 230600Z 05013G19KT 15SM FEW016 BKN030 OVC040 09/05 A2976 RMK SF2SC4SC2 SLP080=
CYUL;2005-05-23 07:16;SPECI CYUL 230716Z 05015G20KT 15SM -DZ BKN014 OVC035 RMK SF5SC3=
CYUL;2005-05-23 09:00;METAR CYUL 230900Z 05011KT 10SM -DZ BKN012 OVC028 08/06 A2974 RMK SF6SC2 SLP073=
CYUL;2005-05-23 10:00;METAR CYUL 231000Z 05010G15KT 10SM -DZ BKN013 OVC028 09/06 A2974 RMK SC6SC2 SLP073=
CYUL;2005-05-23 10:38;SPECI CYUL 231038Z 05011G17KT 10SM BKN014 OVC030 RMK SC5SC3=
CYUL;2005-05-23 12:00;METAR CYUL 231200Z 05014KT 15SM BKN014 OVC032 10/06 A2975 RMK SF5SC3 SLP076=
CYUL;2005-05-23 13:00;METAR CYUL 231300Z 07013G18KT 15SM SCT014 BKN025 OVC040 11/06 A2975 RMK SF4SC2SC2 SLP076=
CYUL;2005-05-23 14:00;METAR CYUL 231400Z 06013G18KT 15SM FEW014 SCT025 BKN048 OVC085 12/07 A2975 RMK SF2SC2SC3AC1 SLP075=
CYUL;2005-05-23 15:00;METAR CYUL 231500Z 05015G20KT 15SM FEW020 OVC025 12/07 A2976 RMK SF2SC6 SLP080=
CYUL;2005-05-23 15:08;SPECI CYUL 231508Z 05017KT 15SM -SHRA FEW020 BKN025 OVC048 RMK SF2SC6SC1=
CYUL;2005-05-23 16:00;METAR CYUL 231600Z 06011KT 10SM -RA FEW012 BKN023 OVC044 11/08 A2977 RMK SF1SC6SC1 SLP083=
CYUL;2005-05-23 16:33;SPECI CYUL 231633Z 06015KT 10SM -RA FEW010 BKN013 OVC032 RMK SF1SF6SC1=
CYUL;2005-05-23 17:00;METAR CYUL 231700Z 05018KT 10SM -RA VCFG FEW008 BKN013 BKN036 OVC050 11/09 A2979 RMK SF1SF6SC1SC1 SLP087=
CYUL;2005-05-23 18:00;METAR CYUL 231800Z 05013KT 10SM -RA VCFG FEW008 BKN012 BKN034 OVC052 11/09 A2980 RMK SF2SF5SC1SC1 SLP093=
CYUL;2005-05-23 19:00;METAR CYUL 231900Z 04011KT 4SM -RA BR FEW007 BKN012 OVC021 11/09 A2978 RMK SF2SF6SC1 SLP087=
CYUL;2005-05-23 19:44;SPECI CYUL 231944Z 03012KT 3SM -RA BR FEW005 BKN009 OVC017 RMK SF2SF6SC1 CIG RAG=
CYUL;2005-05-23 20:00;METAR CYUL 232000Z 04015KT 4SM -RA BR FEW005 BKN009 OVC016 11/09 A2979 RMK SF2SF6SC1 SLP088=
CYUL;2005-05-23 21:00;METAR CYUL 232100Z 04017KT 6SM -RA BR SCT009 BKN012 OVC022 11/09 A2979 RMK SF3SF3SC2 SLP088=
CYUL;2005-05-23 22:00;METAR CYUL 232200Z 03016KT 6SM -RA BR FEW009 BKN011 OVC020 11/09 A2978 RMK SF1SF6SC1 CIG RAG SLP086=
CYUL;2005-05-23 22:51;SPECI CYUL 232251Z 05016G25KT 5SM -RA BR FEW009 SCT012 BKN026 OVC052 RMK SF1SF3SC3SC1=
CYUL;2005-05-23 23:00;METAR CYUL 232300Z 05016G25KT 4SM -RA BR FEW009 SCT012 BKN026 OVC052 11/09 A2980 RMK SF1SF3SC3SC1 SLP093=
CYUL;2005-05-24 00:00;METAR CYUL 240000Z 05016G21KT 4SM -RA BR FEW012 FEW039 BKN051 OVC078 11/09 A2980 RMK SF1SC2SC4AC2 SLP093=
CYUL;2005-05-24 01:00;METAR CYUL 240100Z 05014KT 8SM -RA VCFG BKN038 BKN067 OVC084 11/09 A2981 RMK SC5AC2AC1 SLP094=
CYUL;2005-05-24 02:00;METAR CYUL 240200Z 05018G24KT 10SM -RA BKN040 BKN060 OVC080 12/08 A2981 RMK SC5SC2AC1 SLP095=
CYUL;2005-05-24 02:44;SPECI CYUL 240244Z 05016G22KT 10SM FEW040 SCT060 OVC110 RMK SC2SC2AC4=
CYUL;2005-05-24 04:00;METAR CYUL 240400Z 04014G19KT 15SM BKN055 BKN120 12/07 A2982 RMK SC5AC2 SLP100=
CYUL;2005-05-24 05:00;METAR CYUL 240500Z 04018KT 15SM FEW062 BKN110 BKN160 11/05 A2983 RMK SC2AC2AC1 SLP102=
CYUL;2005-05-24 07:00;METAR CYUL 240700Z 05021G28KT 15SM FEW060 FEW120 11/04 A2982 RMK SC2AC1 SLP099=
CYUL;2005-05-24 10:00;METAR CYUL 241000Z 04019G24KT 15SM FEW035 SCT060 SCT090 09/04 A2986 RMK SC2SC1AC1 SLP114=
CYUL;2005-05-24 11:00;METAR CYUL 241100Z 06020G28KT 15SM FEW040 BKN100 BKN150 10/04 A2989 RMK SC2AC2AC1 SLP123=
CYUL;2005-05-24 12:00;METAR CYUL 241200Z 05017G22KT 15SM FEW030 BKN070 BKN120 10/04 A2992 RMK SC2AC3AC1 SLP133=
CYUL;2005-05-24 13:00;METAR CYUL 241300Z 05018G28KT 15SM BKN025 BKN075 BKN100 12/05 A2994 RMK SC5AC2AC1 SLP139=
CYUL;2005-05-24 14:00;METAR CYUL 241400Z 05016G25KT 30SM BKN025 BKN080 BKN100 12/05 A2995 RMK SC5AC1AC1 SLP144=
CYUL;2005-05-24 15:00;METAR CYUL 241500Z 05020G26KT 30SM BKN028 BKN090 BKN160 13/06 A2995 RMK SC6AC1AC1 CF ASOCT SLP141=
CYUL;2005-05-24 16:00;METAR CYUL 241600Z 07015G21KT 30SM OVC030 13/06 A2997 RMK SC7 SLP150=
CYUL;2005-05-24 17:00;METAR CYUL 241700Z 05017G22KT 30SM BKN034 BKN090 BKN240 15/06 A2998 RMK SC5AC1CI0 SLP153=
CYUL;2005-05-24 20:00;METAR CYUL 242000Z 07017G24KT 30SM BKN041 BKN150 BKN240 18/08 A2998 RMK CU5AC1CI1 SLP151=
CYUL;2005-05-24 21:00;METAR CYUL 242100Z 09017G26KT 30SM SCT041 BKN090 BKN150 BKN240 18/08 A2997 RMK CU3AC2AC1CI0 SLP150=
CYUL;2005-05-24 22:00;METAR CYUL 242200Z 09020KT 30SM FEW038 BKN060 BKN078 BKN100 BKN240 17/07 A2998 RMK CF1SC5AC1AC1CI0 SLP153=
CYUL;2005-05-24 23:00;METAR CYUL 242300Z 07015G20KT 30SM FEW038 BKN058 BKN072 OVC100 17/07 A2999 RMK CF1SC6AC1AC1 SLP156=
CYUL;2005-05-25 00:00;METAR CYUL 250000Z 06011KT 30SM BKN060 BKN080 BKN130 BKN240 17/07 A2999 RMK SC5AC2AC1CI1 SLP156=
CYUL;2005-05-25 02:00;METAR CYUL 250200Z 06007KT 15SM FEW060 SCT080 SCT120 16/04 A3000 RMK SC2AC2AC1 SLP161=
CYUL;2005-05-25 04:00;METAR CYUL 250400Z 02007KT 15SM FEW060 12/06 A2999 RMK SC1 SLP157=
CYUL;2005-05-25 05:00;METAR CYUL 250500Z 04009KT 15SM FEW090 13/05 A2999 RMK AC1 SLP156=
CYUL;2005-05-25 07:00;METAR CYUL 250700Z 02011KT 15SM FEW090 FEW210 10/05 A2998 RMK AC1CI1 SLP153=
CYUL;2005-05-25 10:00;METAR CYUL 251000Z 03010KT 30SM FEW090 FEW210 09/04 A3000 RMK AC1CI1 SLP161=
CYUL;2005-05-25 12:00;METAR CYUL 251200Z 05018G24KT 30SM FEW090 FEW210 12/03 A3001 RMK AC1CI1 SLP164=
CYUL;2005-05-25 13:00;METAR CYUL 251300Z 06019G26KT 30SM FEW060 FEW210 12/02 A3002 RMK SC1CI1 SLP165=
CYUL;2005-05-25 15:00;METAR CYUL 251500Z 05018G26KT 30SM FEW075 FEW240 15/03 A3000 RMK AC1CI1 SLP161=
CYUL;2005-05-25 16:00;METAR CYUL 251600Z 04019G24KT 30SM FEW075 FEW240 17/04 A3001 RMK AC1CI1 SLP162=
CYUL;2005-05-25 17:00;METAR CYUL 251700Z 04015G20KT 30SM FEW080 FEW240 18/04 A3000 RMK AC1CI1 SLP161=
CYUL;2005-05-25 18:00;METAR CYUL 251800Z 02014G19KT 30SM FEW100 FEW140 FEW250 19/04 A3000 RMK AC1AC1CI1 SLP160=
CYUL;2005-05-25 19:00;METAR CYUL 251900Z 06016G22KT 30SM FEW095 FEW150 20/04 A2999 RMK AC1AC1 SLP156=
CYUL;2005-05-25 20:00;METAR CYUL 252000Z 05014G19KT 30SM FEW090 FEW120 FEW150 20/05 A2998 RMK AC1AC1AC1 SLP154=
CYUL;2005-05-25 21:00;METAR CYUL 252100Z 05013G19KT 30SM FEW090 FEW120 FEW250 21/05 A2997 RMK AC1AC2CI1 SLP148=
CYUL;2005-05-25 22:00;METAR CYUL 252200Z 03011G16KT 30SM FEW090 FEW120 FEW250 21/04 A2995 RMK AC1AC2CI0 SLP144=
CYUL;2005-05-25 23:00;METAR CYUL 252300Z 03013KT 30SM SCT065 SCT120 BKN250 21/05 A2995 RMK SC3AC1CI0 SLP144=
CYUL;2005-05-26 00:00;METAR CYUL 260000Z 03012KT 30SM FEW065 SCT120 20/04 A2995 RMK SC2AC1 SLP144=
CYUL;2005-05-26 01:00;METAR CYUL 260100Z 04011KT 15SM FEW062 FEW110 19/03 A2995 RMK SC1AC1 SLP143=
CYUL;2005-05-26 02:00;METAR CYUL 260200Z 05012KT 15SM FEW090 18/04 A2996 RMK AC1 SLP146=
CYUL;2005-05-26 03:00;METAR CYUL 260300Z 06012KT 15SM SKC 17/03 A2995 RMK SLP141=
CYUL;2005-05-26 04:00;METAR CYUL 260400Z 02008KT 15SM FEW240 15/02 A2994 RMK CI1 SLP139=
CYUL;2005-05-26 05:00;METAR CYUL 260500Z 04012KT 15SM FEW240 14/02 A2992 RMK CI1 SLP134=
CYUL;2005-05-26 06:00;METAR CYUL 260600Z 04011KT 15SM FEW090 FEW240 12/02 A2992 RMK AC1CI1 SLP132=
CYUL;2005-05-26 07:00;METAR CYUL 260700Z 02011KT 15SM FEW120 11/02 A2990 RMK AC1 SLP126=
CYUL;2005-05-26 08:00;METAR CYUL 260800Z 02012G18KT 15SM FEW090 FEW210 09/02 A2990 RMK AC1CI1 SLP124=
CYUL;2005-05-26 09:00;METAR CYUL 260900Z 02013KT 15SM FEW050 FEW210 10/02 A2988 RMK SC1CI2 SLP119=
CYUL;2005-05-26 10:00;METAR CYUL 261000Z 03014KT 30SM FEW040 FEW080 SCT240 10/02 A2989 RMK SC1AC2CI2 SLP121=
CYUL;2005-05-26 11:00;METAR CYUL 261100Z 03015G20KT 30SM BKN058 BKN085 BKN240 10/02 A2989 RMK SC5AC2CI0 SLP122=
CYUL;2005-05-26 12:00;METAR CYUL 261200Z 03015KT 15SM SCT060 BKN080 BKN110 BKN240 11/04 A2989 RMK SC3AC2AS2CI0 SLP123=
CYUL;2005-05-26 13:00;METAR CYUL 261300Z 04014G25KT 15SM -RA BKN045 BKN080 BKN120 BKN240 12/04 A2989 RMK SC5AC1AS2CI0 SLP123=
CYUL;2005-05-26 14:00;METAR CYUL 261400Z 03020KT 15SM -RA BKN027 OVC050 12/05 A2989 RMK SC6SC2 SLP123=
CYUL;2005-05-26 15:00;METAR CYUL 261500Z 03020G25KT 15SM BKN020 OVC050 12/07 A2989 RMK SC6SC2 SLP121=
CYUL;2005-05-26 15:23;SPECI CYUL 261523Z 05016G25KT 15SM -SHRA BKN021 BKN100 RMK SC6AC1=
CYUL;2005-05-26 16:00;METAR CYUL 261600Z 05019G24KT 15SM BKN020 OVC045 11/06 A2990 RMK SC6SC2 SLP124=
CYUL;2005-05-26 16:50;SPECI CYUL 261650Z 05020KT 15SM -SHRA BKN020 OVC045 RMK SC6SC2=
CYUL;2005-05-26 17:00;METAR CYUL 261700Z 05020KT 15SM -SHRA BKN020 OVC045 11/07 A2989 RMK SC6SC2 SLP121=
CYUL;2005-05-26 17:33;SPECI CYUL 261733Z 05017G24KT 15SM BKN020 OVC040 RMK SC5SC3=
CYUL;2005-05-26 18:00;METAR CYUL 261800Z 03017G24KT 15SM SCT020 BKN050 BKN140 13/07 A2987 RMK SC4SC3AC1 SLP115=
CYUL;2005-05-26 19:00;METAR CYUL 261900Z 04020KT 15SM BKN023 BKN045 OVC080 14/07 A2985 RMK SC5SC1AC2 SLP110=
CYUL;2005-05-26 20:00;METAR CYUL 262000Z 05017G24KT 15SM BKN022 BKN040 OVC090 13/06 A2985 RMK SC5SC1AC2 SLP110=
CYUL;2005-05-26 21:00;METAR CYUL 262100Z 03016G21KT 15SM FEW025 BKN045 OVC090 12/06 A2985 RMK SC2SC2AC3 SLP108=
CYUL;2005-05-26 22:00;METAR CYUL 262200Z 05018G24KT 15SM BKN028 BKN050 OVC080 12/06 A2985 RMK SC6SC1AC1 SLP110=
CYUL;2005-05-26 22:31;SPECI CYUL 262231Z 04015G20KT 15SM -SHRA FEW028 OVC045 RMK SC2SC6=
CYUL;2005-05-26 23:00;METAR CYUL 262300Z 04014KT 15SM -SHRA FEW040 OVC050 12/07 A2985 RMK SC2SC6 SLP109=
CYUL;2005-05-27 00:00;METAR CYUL 270000Z 04013G19KT 8SM -RA FEW015 BKN040 OVC070 11/08 A2985 RMK CF1SC6AC1 SLP109=
CYUL;2005-05-27 01:00;METAR CYUL 270100Z 03010G16KT 10SM -RA BKN050 OVC070 11/07 A2984 RMK SC7AC1 SLP107=
CYUL;2005-05-27 03:00;METAR CYUL 270300Z 03015G21KT 10SM -RA FEW040 OVC050 11/07 A2982 RMK SC2SC6 SLP098=
CYUL;2005-05-27 03:50;SPECI CYUL 270350Z 03006KT 10SM OVC040 RMK SC8 OCNL LTGCC NW=
CYUL;2005-05-27 04:00;METAR CYUL 270400Z 04005KT 10SM OVC042 12/08 A2981 RMK SC8 SLP094=
CYUL;2005-05-27 05:00;METAR CYUL 270500Z 02007KT 10SM OVC037 12/08 A2979 RMK SC8 SLP089=
CYUL;2005-05-27 06:00;METAR CYUL 270600Z 03014G24KT 15SM FEW032 OVC040 11/06 A2978 RMK SC2SC6 SLP086=
CYUL;2005-05-27 07:00;METAR CYUL 270700Z 04013G19KT 15SM BKN040 OVC050 12/06 A2976 RMK SC6SC2 SLP079=
CYUL;2005-05-27 09:00;METAR CYUL 270900Z 04009KT 15SM BKN032 OVC080 12/06 A2975 RMK SC6AC2 SLP076=
CYUL;2005-05-27 10:00;METAR CYUL 271000Z 03010KT 15SM FEW020 BKN027 OVC090 11/07 A2976 RMK SC1SC6AC1 SLP079=
CYUL;2005-05-27 11:00;METAR CYUL 271100Z 04009KT 15SM FEW015 BKN022 OVC040 12/07 A2977 RMK SC1SC6SC2 SLP083=
CYUL;2005-05-27 11:28;SPECI CYUL 271128Z 03011KT 15SM -RA FEW016 OVC022 RMK SC2SC6=
CYUL;2005-05-27 12:00;METAR CYUL 271200Z 02011KT 12SM BKN016 OVC023 12/07 A2978 RMK SC6SC2 SLP084=
CYUL;2005-05-27 13:00;METAR CYUL 271300Z 02009KT 12SM BKN017 OVC025 12/08 A2977 RMK SC6SC2 SLP083=
CYUL;2005-05-27 14:00;METAR CYUL 271400Z 04010KT 15SM OVC014 12/08 A2977 RMK SC8 SLP081=
CYUL;2005-05-27 15:00;METAR CYUL 271500Z 03006KT 15SM OVC014 12/09 A2977 RMK SC8 SLP083=
CYUL;2005-05-27 16:00;METAR CYUL 271600Z 02005KT 15SM OVC015 12/09 A2977 RMK SC8 SLP082=
CYUL;2005-05-27 17:00;METAR CYUL 271700Z 36006KT 15SM OVC018 13/08 A2977 RMK SC8 SLP082=
CYUL;2005-05-27 18:00;METAR CYUL 271800Z 04006KT 15SM OVC020 13/08 A2977 RMK SC8 SLP082=
CYUL;2005-05-27 19:00;METAR CYUL 271900Z 01003KT 12SM OVC019 13/08 A2977 RMK SC8 SLP082=
CYUL;2005-05-27 19:52;SPECI CYUL 271952Z 34002KT 10SM -RA OVC022 RMK SC8=
CYUL;2005-05-27 20:00;METAR CYUL 272000Z 35003KT 10SM -RA OVC022 13/08 A2977 RMK SC8 SLP082=
CYUL;2005-05-27 21:00;METAR CYUL 272100Z 25004KT 5SM -RA BR BKN015 OVC030 12/10 A2977 RMK SC7SC1 SLP083=
CYUL;2005-05-27 22:00;METAR CYUL 272200Z 32004KT 3SM -RA BR FEW014 OVC050 12/10 A2977 RMK CF2SC6 SLP083=
CYUL;2005-05-27 22:19;SPECI CYUL 272219Z 31003KT 4SM -RA BR FEW006 OVC050 RMK SF2SC6=
CYUL;2005-05-27 23:00;METAR CYUL 272300Z 00000KT 6SM -RA BR SCT006 OVC040 12/10 A2977 RMK SF3SC5 SLP082=
CYUL;2005-05-28 00:00;METAR CYUL 280000Z 26003KT 5SM -RA BR FEW006 SCT015 OVC085 11/10 A2978 RMK SF1SC3AC5 SLP085=
CYUL;2005-05-28 01:00;METAR CYUL 280100Z 31002KT 5SM -RA BR FEW006 OVC018 11/10 A2978 RMK SF2SC6 SLP085=
CYUL;2005-05-28 02:00;METAR CYUL 280200Z 22002KT 4SM -RA BR FEW006 BKN025 OVC060 12/10 A2979 RMK SF2SC5SC2 SLP087=
CYUL;2005-05-28 03:00;METAR CYUL 280300Z 21004KT 6SM -RA BR FEW005 BKN020 OVC035 11/10 A2978 RMK SF2SC5SC2 SLP086=
CYUL;2005-05-28 04:00;METAR CYUL 280400Z 16003KT 6SM -RA BR FEW005 FEW016 OVC030 11/10 A2977 RMK SF1SC2SC6 SLP082=
CYUL;2005-05-28 05:00;METAR CYUL 280500Z 17002KT 6SM BR OVC025 11/10 A2976 RMK SC8 SLP079=
CYUL;2005-05-28 06:00;METAR CYUL 280600Z 12002KT 6SM BR FEW025 OVC040 11/10 A2975 RMK SC2SC6 SLP076=
CYUL;2005-05-28 07:00;METAR CYUL 280700Z 18005KT 5SM BR BKN020 OVC035 11/10 A2975 RMK SC6SC2 SLP075=
CYUL;2005-05-28 07:50;SPECI CYUL 280750Z 14005KT 6SM -DZ BR BKN022 OVC065 RMK SC6SC2=
CYUL;2005-05-28 08:00;METAR CYUL 280800Z 13005KT 5SM -RA BR SCT022 OVC070 11/10 A2973 RMK SC3AC5 SLP068=
CYUL;2005-05-28 09:00;METAR CYUL 280900Z 15003KT 5SM BR BKN020 OVC070 11/09 A2975 RMK SC5AC3 SLP074=
CYUL;2005-05-28 11:00;METAR CYUL 281100Z 16003KT 6SM BR SCT030 BKN060 OVC140 12/10 A2976 RMK SC3SC2AC2 SLP079=
CYUL;2005-05-28 12:00;METAR CYUL 281200Z 18005KT 6SM BR FEW030 BKN078 OVC140 12/10 A2976 RMK SC2AC5AC1 SLP078=
CYUL;2005-05-28 13:00;METAR CYUL 281300Z 22002KT 8SM FEW010 SCT075 BKN210 14/11 A2976 RMK CF1AC2CI2 SLP080=
CYUL;2005-05-28 14:00;METAR CYUL 281400Z 20006KT 12SM FEW012 FEW075 SCT240 15/12 A2976 RMK CU1AC1CI2 SLP079=
CYUL;2005-05-28 15:00;METAR CYUL 281500Z 22002KT 15SM SCT020 SCT070 BKN240 18/13 A2976 RMK CU3AC1CI1 SLP080=
CYUL;2005-05-28 16:00;METAR CYUL 281600Z 24003KT 15SM SCT030 BKN090 BKN240 17/12 A2977 RMK CU3AC2CI1 SLP081=
CYUL;2005-05-28 17:00;METAR CYUL 281700Z 16002KT 15SM FEW035 BKN240 19/13 A2976 RMK CU2CI1 SLP077=
CYUL;2005-05-28 18:00;METAR CYUL 281800Z 27002KT 15SM FEW035 SCT240 20/12 A2974 RMK CU1CI1 SLP073=
CYUL;2005-05-28 19:00;METAR CYUL 281900Z 23004KT 15SM FEW040TCU SCT240 21/11 A2974 RMK TCU1CI1 CB ASOCT SE SLP070=
CYUL;2005-05-28 20:00;METAR CYUL 282000Z 28005KT 15SM FEW050 FEW240 22/08 A2972 RMK CU1CI1 CB EMBD N-SE QUAD SLP066=
CYUL;2005-05-28 21:00;METAR CYUL 282100Z 30004KT 15SM FEW055TCU FEW240 22/10 A2972 RMK TCU2CI1 CB EMBD SLP066=
CYUL;2005-05-28 22:00;METAR CYUL 282200Z 09010KT 15SM FEW045 SCT075 BKN240 21/11 A2972 RMK CU2AC1CI1 CB ASOCT SLP066=
CYUL;2005-05-28 23:00;METAR CYUL 282300Z 18010KT 15SM BKN045TCU BKN090 BKN240 19/10 A2974 RMK TCU5AC1CI1 CB EMBD E-S QUAD SLP071=
CYUL;2005-05-29 00:00;METAR CYUL 290000Z 09002KT 15SM FEW040CB FEW100 BKN240 18/10 A2974 RMK CB2AC1CI2 SLP072=
CYUL;2005-05-29 01:00;METAR CYUL 290100Z 27004KT 15SM VCSH FEW040 FEW100 BKN240 16/10 A2976 RMK CF2AC1CI2 CB ASOCT NW SLP077=
CYUL;2005-05-29 02:00;METAR CYUL 290200Z 05007KT 15SM FEW040 BKN120 BKN240 16/12 A2977 RMK SC1AC5CI0 SLP081=
CYUL;2005-05-29 02:30;SPECI CYUL 290230Z 03006KT 15SM TS FEW038 BKN120 BKN170 BKN240 RMK SC1AC5AC1CI0 CB EMBD DIST LTNG=
CYUL;2005-05-29 03:00;METAR CYUL 290300Z 05005KT 15SM FEW035 SCT090 BKN120 BKN160 16/12 A2977 RMK SC2AC2AC2AC1 SLP081=
CYUL;2005-05-29 04:00;METAR CYUL 290400Z 36007KT 12SM FEW035 FEW090 BKN120 BKN160 14/11 A2977 RMK SC1AC2AC2AC1 SLP082=
CYUL;2005-05-29 05:00;METAR CYUL 290500Z 04006KT 10SM FEW035 FEW090 BKN110 BKN160 14/11 A2977 RMK SC1AC1AC5AC1 HZ SLP083=
CYUL;2005-05-29 06:00;METAR CYUL 290600Z 00000KT 12SM FEW060 BKN120 14/10 A2977 RMK CF1AC3 SLP083=
CYUL;2005-05-29 07:00;METAR CYUL 290700Z 00000KT 10SM VCFG FEW060 SCT120 12/10 A2977 RMK CF1AC2 SLP081=
CYUL;2005-05-29 08:00;METAR CYUL 290800Z 00000KT 8SM VCFG FEW030 FEW120 11/09 A2977 RMK SC1AC2 SLP082=
CYUL;2005-05-29 08:44;SPECI CYUL 290844Z 24002KT 4SM R06L/4500VP6000FT/U R06R/6000FT/N BR FEW120 FEW210 RMK AC2CI0 PRFG=
CYUL;2005-05-29 09:00;METAR CYUL 290900Z 26002KT 4SM BR FEW120 FEW210 10/09 A2978 RMK AC1CI1 PRFG SLP084=
CYUL;2005-05-29 10:00;METAR CYUL 291000Z 34002KT 6SM BR FEW120 FEW180 FEW210 11/10 A2978 RMK AC1AC1CI1 SLP086=
CYUL;2005-05-29 11:00;METAR CYUL 291100Z 04003KT 4SM BR FEW040 FEW110 FEW180 SCT230 13/11 A2979 RMK SC1AC1AC1CI0 SLP090=
CYUL;2005-05-29 12:00;METAR CYUL 291200Z 18004KT 5SM BR FEW012 FEW120 SCT230 14/12 A2980 RMK CU2AC1CI0 SLP093=
CYUL;2005-05-29 13:00;METAR CYUL 291300Z 20002KT 7SM VCFG FEW013 FEW230 15/11 A2981 RMK CF1CI1 SLP095=
CYUL;2005-05-29 14:00;METAR CYUL 291400Z 17002KT 10SM FEW016 FEW120 BKN240 17/12 A2981 RMK CU1AC1CI2 SLP094=
CYUL;2005-05-29 15:00;METAR CYUL 291500Z 20004KT 10SM FEW025 FEW120 BKN240 17/11 A2980 RMK CU1AC1CI2 TCU ASOCT S SLP093=
CYUL;2005-05-29 16:00;METAR CYUL 291600Z 22005KT 15SM FEW030CB FEW150 BKN240 18/11 A2979 RMK CB1AC1CI3 SLP089=
CYUL;2005-05-29 17:00;METAR CYUL 291700Z 22009KT 15SM FEW035TCU BKN240 20/12 A2978 RMK TCU1CI3 CB ASOCT SLP085=
CYUL;2005-05-29 18:00;METAR CYUL 291800Z 18006KT 15SM FEW045CB FEW100 BKN240 21/12 A2977 RMK CB1AC1CI2 SLP081=
CYUL;2005-05-29 19:00;METAR CYUL 291900Z 21006KT 12SM SCT045TCU SCT095 BKN240 21/10 A2974 RMK TCU3AC1CI0 CB ASOCT SLP073=
CYUL;2005-05-29 21:00;METAR CYUL 292100Z 29010G16KT 15SM FEW040CB FEW085 BKN240 19/10 A2976 RMK CB1AC2CI2 SLP077=
CYUL;2005-05-29 22:00;METAR CYUL 292200Z 28008KT 15SM FEW040TCU BKN075 BKN100 BKN240 18/11 A2978 RMK TCU1AC6AC1CI1 SLP085=
CYUL;2005-05-29 23:00;METAR CYUL 292300Z 26006KT 15SM FEW035TCU BKN075 BKN110 OVC240 17/10 A2979 RMK TCU1AC5AC1CI1 SLP088=
CYUL;2005-05-30 00:00;METAR CYUL 300000Z 28002KT 15SM FEW075 BKN100 BKN240 16/10 A2979 RMK AC2AC4CI1 SLP089=
CYUL;2005-05-30 01:00;METAR CYUL 300100Z 25005KT 15SM BKN075 BKN100 BKN240 16/11 A2981 RMK AC6AC1CI1 SLP094=
CYUL;2005-05-30 03:00;METAR CYUL 300300Z 23005KT 15SM FEW072 OVC090 16/10 A2980 RMK AC2AC6 SLP093=
CYUL;2005-05-30 04:00;METAR CYUL 300400Z 23006KT 15SM BKN075 OVC090 15/11 A2979 RMK AC5AC3 SLP090=
CYUL;2005-05-30 05:00;METAR CYUL 300500Z 27003KT 15SM BKN075 OVC088 15/10 A2979 RMK AC6AC2 SLP089=
CYUL;2005-05-30 06:00;METAR CYUL 300600Z 24004KT 15SM FEW065 BKN075 OVC110 15/10 A2979 RMK SC2AC5AC2 SLP089=
CYUL;2005-05-30 07:00;METAR CYUL 300700Z 24006KT 15SM FEW065 BKN075 BKN110 OVC150 14/10 A2979 RMK SC2AC4AC1AC2 SLP089=
CYUL;2005-05-30 08:00;METAR CYUL 300800Z 24006KT 15SM FEW065 BKN078 BKN110 OVC140 14/10 A2980 RMK SC1AC4AC2AC2 SLP092=
CYUL;2005-05-30 10:00;METAR CYUL 301000Z 25007KT 12SM -RA FEW060 BKN072 OVC100 13/10 A2983 RMK SC2AC3AC2 SLP101=
CYUL;2005-05-30 11:00;METAR CYUL 301100Z 25006KT 12SM -RA FEW045 BKN072 BKN100 OVC140 13/10 A2984 RMK SC2AC5AC1AC1 SLP106=
CYUL;2005-05-30 11:44;SPECI CYUL 301144Z 25006KT 15SM FEW045 SCT072 BKN090 BKN140 RMK SC1AC3AC2AC1=
CYUL;2005-05-30 13:00;METAR CYUL 301300Z 27008KT 15SM FEW018 FEW070 SCT090 BKN120 15/11 A2986 RMK CF1AC2AC2AC2 SLP112=
CYUL;2005-05-30 14:00;METAR CYUL 301400Z 22008KT 15SM FEW018 BKN080 BKN100 BKN240 15/11 A2987 RMK CU1AC6AC1CI1 TCU ASOCT N SLP114=
CYUL;2005-05-30 15:00;METAR CYUL 301500Z 22007KT 15SM FEW020 BKN075 OVC090 15/11 A2987 RMK CU1AC7AC1 TCU ASOCT NE SLP115=
CYUL;2005-05-30 16:00;METAR CYUL 301600Z 22010KT 15SM FEW020TCU OVC080 15/11 A2987 RMK TCU1AC8 SLP115=
CYUL;2005-05-30 17:00;METAR CYUL 301700Z 21008KT 15SM FEW020CB FEW085 BKN120 BKN240 17/12 A2986 RMK CB1AC1AC6CI0 SLP112=
CYUL;2005-05-30 18:00;METAR CYUL 301800Z 20009KT 15SM FEW025CB FEW090 SCT150 BKN240 19/12 A2984 RMK CB1AC2AC1CI1 SLP107=
CYUL;2005-05-30 19:15;SPECI CYUL 301915Z 34009KT 15SM TS VCSH BKN035CB BKN075 BKN150 BKN240 RMK CB5AC2AC1CI0 SHWR NW-NE=
CYUL;2005-05-30 19:16;SPECI CYUL 301916Z 34009KT 15SM -TSRA BKN035CB BKN075 BKN150 BKN240 RMK CB5AC2AC1CI0=
CYUL;2005-05-30 20:00;METAR CYUL 302000Z 32011KT 2 1/2SM +TSRA BR FEW016 BKN040CB OVC075 15/12 A2987 RMK SF1CB7AC1 SLP115=
CYUL;2005-05-30 20:16;SPECI CYUL 302016Z 31004KT 6SM -TSRA BR FEW020 SCT040CB OVC075 RMK SF1CB3AC4 RERA=
CYUL;2005-05-30 21:00;METAR CYUL 302100Z 28004KT 10SM -RA FEW035TCU BKN070 OVC240 15/13 A2987 RMK TCU1AC6CI1 RETS RERA SLP114=
CYUL;2005-05-30 21:29;SPECI CYUL 302129Z 26005KT 15SM FEW030CB SCT080 BKN240 RMK CB1AC3CI1=
CYUL;2005-05-30 22:00;METAR CYUL 302200Z 29003KT 15SM FEW030TCU FEW080 BKN240 18/13 A2986 RMK TCU1AC2CI2 CB ASOCT SLP111=
CYUL;2005-05-30 23:00;METAR CYUL 302300Z 22003KT 15SM FEW030TCU SCT090 BKN240 17/13 A2987 RMK TCU1AC4CI1 CB ASOCT SLP114=
CYUL;2005-05-31 00:00;METAR CYUL 310000Z 28003KT 15SM FEW030 SCT080 BKN240 16/12 A2988 RMK CU1AC4CI1 SLP118=
CYUL;2005-05-31 01:00;METAR CYUL 310100Z 22003KT 15SM FEW030 SCT090 BKN110 OVC240 16/12 A2989 RMK CU1AC3AC3CI1 SLP122=
CYUL;2005-05-31 02:00;METAR CYUL 310200Z 22003KT 15SM FEW090 BKN110 BKN240 16/12 A2990 RMK AC2AC3CI1 SLP125=
CYUL;2005-05-31 03:00;METAR CYUL 310300Z 20003KT 15SM FEW092 SCT110 15/11 A2991 RMK AC2AC1 SLP128=
CYUL;2005-05-31 04:00;METAR CYUL 310400Z 21003KT 15SM FEW040 BKN064 BKN090 15/12 A2991 RMK SC1SC4AC1 SLP130=
CYUL;2005-05-31 06:00;METAR CYUL 310600Z 22005KT 15SM BKN092 14/12 A2992 RMK AC5 SLP131=
CYUL;2005-05-31 08:00;METAR CYUL 310800Z 24004KT 12SM FEW054 BKN090 13/11 A2994 RMK SC2AC3 SLP139=
CYUL;2005-05-31 09:00;METAR CYUL 310900Z 21003KT 6SM BR BKN054 BKN090 BKN240 13/11 A2995 RMK SC6AC1CI1 SLP144=
CYUL;2005-05-31 10:00;METAR CYUL 311000Z 28002KT 8SM VCFG SCT058 SCT090 BKN240 13/11 A2998 RMK SC3AC1CI0 SLP153=
CYUL;2005-05-31 11:00;METAR CYUL 311100Z 29002KT 8SM VCFG FEW038 SCT054 BKN064 BKN095 OVC240 14/11 A3000 RMK SC1SC2SC3AC1CI0 SLP159=
CYUL;2005-05-31 11:25;SPECI CYUL 311125Z 32002KT 6SM BR FEW007 BKN065 OVC095 RMK SF2SC4AC1 VIS 2 N=
CYUL;2005-05-31 11:34;SPECI CYUL 311134Z 00000KT 6SM BR BKN007 BKN012 OVC065 RMK SF6SF1SC2 VIS 2 N=
CYUL;2005-05-31 12:00;METAR CYUL 311200Z 35003KT 4SM BR BKN006 BKN012 OVC065 14/12 A3002 RMK SF6SF1SC1 VIS E-S 6 SLP166=
CYUL;2005-05-31 13:00;METAR CYUL 311300Z 00000KT 5SM BR BKN008 BKN014 OVC065 16/14 A3003 RMK SF6SF2SC1 SLP168=
CYUL;2005-05-31 13:28;SPECI CYUL 311328Z 00000KT 7SM VCFG SCT007 BKN010 OVC065 RMK SF3SF3SC1=
CYUL;2005-05-31 13:39;SPECI CYUL 311339Z 35003KT 7SM VCFG FEW007 SCT010 BKN065 BKN120 RMK SF2SF2SC1AC2=
CYUL;2005-05-31 14:00;METAR CYUL 311400Z 28002KT 5SM HZ FEW010 FEW065 BKN120 16/13 A3004 RMK CU2SC1AC4 SLP173=
CYUL;2005-05-31 15:00;METAR CYUL 311500Z 00000KT 6SM HZ FEW014 SCT120 SCT240 18/14 A3005 RMK CU2AC2CI1 SLP175=
CYUL;2005-05-31 16:00;METAR CYUL 311600Z 34002KT 8SM FEW020TCU FEW100 SCT240 19/14 A3005 RMK TCU1AC2CI0 SLP176=
CYUL;2005-05-31 17:00;METAR CYUL 311700Z 15003KT 10SM FEW030TCU FEW100 SCT240 20/13 A3004 RMK TCU2AC1CI1 SLP174=
CYUL;2005-05-31 18:00;METAR CYUL 311800Z 18002KT 12SM SCT035TCU SCT100 SCT240 23/14 A3003 RMK TCU3AC1CI0 SLP171=
CYUL;2005-05-31 19:00;METAR CYUL 311900Z 36003KT 12SM BKN042TCU BKN110 BKN240 22/13 A3003 RMK TCU6AC1CI1 CB ASOCT SLP169=
CYUL;2005-05-31 20:00;METAR CYUL 312000Z 16004KT 15SM SCT045TCU BKN110 BKN240 22/13 A3003 RMK TCU3AC2CI1 SLP169=
CYUL;2005-05-31 21:00;METAR CYUL 312100Z 12004KT 15SM FEW045TCU BKN110 22/13 A3003 RMK TCU2AC2 SLP168=
CYUL;2005-05-31 22:00;METAR CYUL 312200Z 00000KT 15SM SCT045TCU BKN110 23/12 A3003 RMK TCU3AC3 CB ASOCT SLP169=
CYUL;2005-05-31 23:00;METAR CYUL 312300Z 11008KT 15SM FEW045TCU SCT110 21/13 A3004 RMK TCU2AC2 SLP174=
CYUL;2005-06-01 00:00;METAR CYUL 010000Z 14006KT 15SM FEW040TCU FEW110 FEW240 20/12 A3005 RMK TCU1AC1CI1 SLP177=
CYUL;2005-06-01 01:00;METAR CYUL 010100Z 14004KT 15SM FEW040 FEW110 FEW240 18/12 A3007 RMK CF1AC1CI1 SLP183=
CYUL;2005-06-01 02:00;METAR CYUL 010200Z 11002KT 15SM FEW240 19/12 A3009 RMK CI1 SLP189=
CYUL;2005-06-01 03:00;METAR CYUL 010300Z 00000KT 15SM SKC 16/11 A3009 RMK FU NE RWY 24R SLP191=
CYUL;2005-06-01 04:00;METAR CYUL 010400Z 00000KT 15SM FEW240 16/12 A3010 RMK CI0 FU W-N-E SLP193=
CYUL;2005-06-01 05:00;METAR CYUL 010500Z 00000KT 12SM VCFG FEW210 15/11 A3009 RMK CI1 FU SLP191=
CYUL;2005-06-01 06:00;METAR CYUL 010600Z 16003KT 12SM VCFG FEW180 14/11 A3010 RMK AS0 FU DMSH SLP194=
CYUL;2005-06-01 09:00;METAR CYUL 010900Z 05004KT 4SM BR FEW120 FEW240 14/12 A3013 RMK AC1CI0 SLP203=
CYUL;2005-06-01 10:00;METAR CYUL 011000Z 00000KT 6SM BR FEW120 FEW240 12/10 A3015 RMK AC1CI1 SLP209=
CYUL;2005-06-01 11:00;METAR CYUL 011100Z 00000KT 6SM HZ FEW090 FEW240 16/13 A3016 RMK AC1CI1 SLP214=
CYUL;2005-06-01 12:00;METAR CYUL 011200Z 04004KT 6SM HZ FEW240 17/13 A3017 RMK CI1 SLP217=
CYUL;2005-06-01 13:00;METAR CYUL 011300Z 03003KT 6SM HZ FEW240 19/14 A3018 RMK CI0 SLP220=
CYUL;2005-06-01 14:00;METAR CYUL 011400Z 15005KT 8SM FEW025 FEW240 21/14 A3018 RMK CU1CI1 SLP219=
CYUL;2005-06-01 15:00;METAR CYUL 011500Z 14007KT 10SM FEW030 22/14 A3017 RMK CU1 SLP218=
CYUL;2005-06-01 16:00;METAR CYUL 011600Z 17007KT 12SM FEW035 23/14 A3017 RMK CU2 SLP217=
CYUL;2005-06-01 17:00;METAR CYUL 011700Z 19005KT 15SM FEW040 24/11 A3016 RMK CU2 SLP214=
CYUL;2005-06-01 18:00;METAR CYUL 011800Z 09006KT 15SM FEW050 24/09 A3014 RMK CU2 CB NW SLP208=
CYUL;2005-06-01 19:00;METAR CYUL 011900Z 11004KT 30SM FEW050 FEW210 26/09 A3013 RMK CU2CI1 SLP204=
CYUL;2005-06-01 20:00;METAR CYUL 012000Z 20005KT 30SM FEW050 FEW210 26/09 A3012 RMK CU1CI1 TCU ASOCT SLP200=
CYUL;2005-06-01 21:00;METAR CYUL 012100Z 17004KT 30SM FEW050 FEW210 26/07 A3012 RMK CU1CI1 SLP199=
CYUL;2005-06-01 22:00;METAR CYUL 012200Z 20004KT 30SM FEW050 FEW210 25/07 A3011 RMK CU1CI0 TCU ASOCT SLP198=
CYUL;2005-06-01 23:00;METAR CYUL 012300Z 17003KT 30SM FEW050 FEW210 25/07 A3011 RMK CU1CI0 SLP198=
CYUL;2005-06-02 00:00;METAR CYUL 020000Z 16002KT 30SM FEW050 FEW210 24/08 A3012 RMK CU1CI1 SLP200=
CYUL;2005-06-02 01:00;METAR CYUL 020100Z 00000KT 15SM FEW210 21/08 A3013 RMK CI1 SLP203=
CYUL;2005-06-02 02:00;METAR CYUL 020200Z 00000KT 15SM FEW210 21/07 A3015 RMK CI0 SLP210=
CYUL;2005-06-02 03:00;METAR CYUL 020300Z 21004KT 15SM SKC 19/08 A3014 RMK SLP208=
CYUL;2005-06-02 04:00;METAR CYUL 020400Z 00000KT 15SM SKC 18/08 A3015 RMK SLP209=
CYUL;2005-06-02 05:00;METAR CYUL 020500Z 15002KT 15SM SKC 18/07 A3015 RMK FU NE-NW SLP209=
CYUL;2005-06-02 06:00;METAR CYUL 020600Z 00000KT 15SM SKC 14/09 A3014 RMK FU SLP208=
CYUL;2005-06-02 09:00;METAR CYUL 020900Z 12004KT 15SM FEW240 13/08 A3015 RMK CI0 SLP211=
CYUL;2005-06-02 10:00;METAR CYUL 021000Z 15002KT 30SM FEW240 15/10 A3017 RMK CI0 SLP218=
CYUL;2005-06-02 11:00;METAR CYUL 021100Z 16005KT 25SM FEW018 16/12 A3018 RMK SC1 SLP221=
CYUL;2005-06-02 12:00;METAR CYUL 021200Z 21002KT 25SM FEW240 17/11 A3019 RMK CI1 SLP224=
CYUL;2005-06-02 13:00;METAR CYUL 021300Z 00000KT 20SM FEW240 20/12 A3019 RMK CI0 HZ SLP223=
CYUL;2005-06-02 14:00;METAR CYUL 021400Z 00000KT 30SM FEW040 23/12 A3018 RMK CU1 SLP220=
CYUL;2005-06-02 15:00;METAR CYUL 021500Z 00000KT 30SM FEW040 24/13 A3017 RMK CU1 SLP216=
CYUL;2005-06-02 16:00;METAR CYUL 021600Z 14004KT 30SM FEW040 FEW240 25/11 A3015 RMK CU1CI0 SLP210=
CYUL;2005-06-02 17:00;METAR CYUL 021700Z 16005KT 30SM FEW050 27/10 A3014 RMK CU1 SLP206=
CYUL;2005-06-02 18:00;METAR CYUL 021800Z 15004KT 30SM FEW050 27/11 A3011 RMK CU1 SLP198=
CYUL;2005-06-02 19:00;METAR CYUL 021900Z 24006KT 30SM FEW050 27/11 A3009 RMK CU1 SLP191=
CYUL;2005-06-02 20:00;METAR CYUL 022000Z 24005KT 30SM FEW050 FEW240 27/11 A3007 RMK CU1CI1 SLP183=
CYUL;2005-06-02 22:00;METAR CYUL 022200Z 21003KT 30SM FEW050 SCT240 28/08 A3005 RMK CU1CI1 SLP177=
CYUL;2005-06-02 23:00;METAR CYUL 022300Z 27003KT 30SM FEW050 BKN240 26/09 A3005 RMK CU1CI2 SLP175=
CYUL;2005-06-03 00:00;METAR CYUL 030000Z 22003KT 30SM FEW050 BKN240 25/09 A3004 RMK CU1CI3 SLP174=
CYUL;2005-06-03 01:00;METAR CYUL 030100Z 23003KT 15SM SCT240 24/08 A3004 RMK CI2 SLP173=
CYUL;2005-06-03 02:00;METAR CYUL 030200Z 22002KT 15SM BKN240 22/08 A3004 RMK CI2 SLP174=
CYUL;2005-06-03 03:00;METAR CYUL 030300Z 23004KT 15SM FEW240 19/10 A3005 RMK CI0 SLP175=
CYUL;2005-06-03 04:00;METAR CYUL 030400Z 22003KT 15SM SCT240 19/10 A3005 RMK CI0 SLP175=
CYUL;2005-06-03 05:00;METAR CYUL 030500Z 21002KT 15SM SCT240 18/10 A3004 RMK CI0 SLP173=
CYUL;2005-06-03 06:00;METAR CYUL 030600Z 00000KT 15SM FEW240 18/10 A3003 RMK CI0 SLP171=
CYUL;2005-06-03 07:00;METAR CYUL 030700Z 25002KT 15SM SCT240 15/11 A3005 RMK CI0 SLP176=
CYUL;2005-06-03 08:00;METAR CYUL 030800Z 19003KT 15SM BKN240 17/11 A3004 RMK CI0 SLP174=
CYUL;2005-06-03 09:00;METAR CYUL 030900Z 15003KT 15SM BKN240 16/11 A3005 RMK CS3 SLP175=
CYUL;2005-06-03 10:00;METAR CYUL 031000Z 20006KT 15SM OVC240 16/11 A3006 RMK CS5 SLP179=
CYUL;2005-06-03 11:00;METAR CYUL 031100Z 22006KT 15SM SCT190 OVC240 18/12 A3007 RMK AC2CS2 SLP182=
CYUL;2005-06-03 12:00;METAR CYUL 031200Z 21005KT 15SM SCT180 OVC210 19/12 A3006 RMK AC2CI2 SLP181=
CYUL;2005-06-03 13:00;METAR CYUL 031300Z 22005KT 15SM FEW150 BKN180 OVC240 22/13 A3006 RMK AC1AC1CI1 SLP179=
CYUL;2005-06-03 14:00;METAR CYUL 031400Z 21009KT 15SM FEW150 BKN220 BKN240 22/13 A3005 RMK AC1CC2CI2 SLP175=
CYUL;2005-06-03 15:00;METAR CYUL 031500Z 21010KT 15SM FEW040 FEW220 BKN240 24/14 A3003 RMK CU1CC1CI1 SLP170=
CYUL;2005-06-03 16:00;METAR CYUL 031600Z 22010KT 15SM FEW040TCU FEW210 SCT240 25/15 A3001 RMK TCU1CC1CI0 SLP164=
CYUL;2005-06-03 17:00;METAR CYUL 031700Z 22013KT 15SM FEW040TCU SCT120 BKN240 26/14 A3000 RMK TCU1AC2CI1 SLP158=
CYUL;2005-06-03 18:00;METAR CYUL 031800Z 22012KT 15SM FEW040TCU FEW120 SCT240 27/14 A2998 RMK TCU1AC2CI0 SLP151=
CYUL;2005-06-03 19:00;METAR CYUL 031900Z 22011KT 15SM FEW040TCU BKN240 27/13 A2995 RMK TCU1CI1 SLP144=
CYUL;2005-06-03 20:00;METAR CYUL 032000Z 22014KT 15SM FEW040TCU SCT240 27/12 A2994 RMK TCU1CI1 SLP138=
CYUL;2005-06-03 21:00;METAR CYUL 032100Z 22011KT 15SM FEW150 SCT240 28/13 A2992 RMK AC1CI0 SLP132=
CYUL;2005-06-03 22:00;METAR CYUL 032200Z 22011KT 15SM FEW040 SCT240 27/13 A2990 RMK CU1CI1 SLP126=
CYUL;2005-06-03 23:00;METAR CYUL 032300Z 22009KT 15SM FEW050 SCT240 27/12 A2990 RMK CU1CI1 SLP124=
CYUL;2005-06-04 00:00;METAR CYUL 040000Z 23009KT 15SM FEW050 FEW150 BKN240 25/12 A2990 RMK CU1AC1CI1 SLP125=
CYUL;2005-06-04 01:00;METAR CYUL 040100Z 22008KT 15SM FEW050 FEW120 SCT240 24/11 A2991 RMK SC1AC2CI0 SLP128=
CYUL;2005-06-04 02:00;METAR CYUL 040200Z 22008KT 15SM FEW150 SCT240 23/12 A2992 RMK AC1CI0 SLP132=
CYUL;2005-06-04 03:00;METAR CYUL 040300Z 23008KT 15SM FEW240 22/13 A2992 RMK CI0 SLP132=
CYUL;2005-06-04 04:00;METAR CYUL 040400Z 22005KT 15SM FEW240 21/13 A2991 RMK CI0 SLP128=
CYUL;2005-06-04 05:00;METAR CYUL 040500Z 22006KT 15SM FEW240 20/13 A2991 RMK CI0 SLP128=
CYUL;2005-06-04 06:00;METAR CYUL 040600Z 23005KT 15SM FEW240 20/12 A2990 RMK CI0 SLP126=
CYUL;2005-06-04 07:00;METAR CYUL 040700Z 23006KT 15SM FEW180 FEW240 19/12 A2990 RMK AC0CI0 SLP126=
CYUL;2005-06-04 08:00;METAR CYUL 040800Z 24007KT 15SM SCT090 BKN240 18/11 A2991 RMK AC3CI0 SLP130=
CYUL;2005-06-04 09:00;METAR CYUL 040900Z 23009KT 15SM SCT090 BKN240 17/12 A2991 RMK AC2CI1 SLP130=
CYUL;2005-06-04 10:00;METAR CYUL 041000Z 24007KT 15SM FEW090 BKN240 17/11 A2992 RMK AC1CI2 SLP132=
CYUL;2005-06-04 11:00;METAR CYUL 041100Z 24009KT 15SM SCT200 18/12 A2992 RMK CI1 SLP132=
CYUL;2005-06-04 12:00;METAR CYUL 041200Z 23008KT 15SM BKN240 19/12 A2992 RMK CI1 SLP131=
CYUL;2005-06-04 13:00;METAR CYUL 041300Z 22010KT 15SM BKN220 20/13 A2991 RMK CI2 SLP128=
CYUL;2005-06-04 14:00;METAR CYUL 041400Z 23009KT 15SM BKN220 22/14 A2990 RMK CI2 SLP127=
CYUL;2005-06-04 15:00;METAR CYUL 041500Z 21008KT 15SM BKN220 23/14 A2990 RMK CI2 SLP124=
CYUL;2005-06-04 16:00;METAR CYUL 041600Z 22009KT 15SM FEW040 SCT220 25/15 A2989 RMK CU1CI1 SLP122=
CYUL;2005-06-04 17:00;METAR CYUL 041700Z 25008G16KT 15SM FEW040 FEW210 SCT240 27/15 A2988 RMK SC1CC1CI0 SLP119=
CYUL;2005-06-04 18:00;METAR CYUL 041800Z 27012KT 15SM FEW050 SCT240 29/13 A2987 RMK SC1CI0 CU ASOCT SLP114=
CYUL;2005-06-04 19:00;METAR CYUL 041900Z 27011KT 15SM FEW040 SCT120 BKN240 29/13 A2985 RMK CU1AC2CI0 SLP107=
CYUL;2005-06-04 20:00;METAR CYUL 042000Z 27008KT 15SM FEW040 SCT100 BKN240 30/14 A2984 RMK CU1AC3CI1 SLP105=
CYUL;2005-06-04 21:00;METAR CYUL 042100Z 26008KT 15SM FEW040 SCT100 BKN200 BKN240 29/12 A2983 RMK CU1AC4CS0CI0 SLP101=
CYUL;2005-06-04 22:00;METAR CYUL 042200Z 27011G17KT 15SM FEW050 SCT095 OVC240 29/13 A2983 RMK SC1AC3CI0 SLP102=
CYUL;2005-06-04 23:00;METAR CYUL 042300Z 27009KT 15SM FEW060 FEW110 BKN240 28/13 A2983 RMK SC1AC2CI1 SLP102=
CYUL;2005-06-05 00:00;METAR CYUL 050000Z 26007KT 15SM FEW120 BKN240 27/13 A2982 RMK AC1CI2 SLP100=
CYUL;2005-06-05 01:00;METAR CYUL 050100Z 24007KT 15SM SCT240 26/13 A2983 RMK CI1 SLP103=
CYUL;2005-06-05 02:00;METAR CYUL 050200Z 24006KT 15SM SCT240 24/13 A2985 RMK CI0 SLP109=
CYUL;2005-06-05 03:00;METAR CYUL 050300Z 24006KT 15SM FEW240 23/14 A2984 RMK CI0 SLP106=
CYUL;2005-06-05 04:00;METAR CYUL 050400Z 23006KT 15SM FEW240 22/15 A2985 RMK CI0 SLP108=
CYUL;2005-06-05 05:00;METAR CYUL 050500Z 24009KT 15SM FEW240 21/15 A2986 RMK CI0 SLP111=
CYUL;2005-06-05 06:00;METAR CYUL 050600Z 25009KT 15SM FEW240 20/14 A2987 RMK CI0 SLP113=
CYUL;2005-06-05 07:00;METAR CYUL 050700Z 25007KT 15SM FEW240 19/14 A2987 RMK CI0 SLP113=
CYUL;2005-06-05 08:00;METAR CYUL 050800Z 24008KT 15SM FEW240 18/14 A2987 RMK CI0 SLP113=
CYUL;2005-06-05 09:00;METAR CYUL 050900Z 24009KT 15SM FEW180 BKN220 18/14 A2988 RMK AC1CI0 SLP120=
CYUL;2005-06-05 10:00;METAR CYUL 051000Z 25008KT 15SM SCT180 BKN220 18/14 A2989 RMK AC1CI2 CC ASOCTD SLP122=
CYUL;2005-06-05 11:00;METAR CYUL 051100Z 25009KT 30SM BKN220 18/15 A2991 RMK CI2 SLP128=
CYUL;2005-06-05 12:00;METAR CYUL 051200Z 26007KT 15SM FEW100 SCT120 BKN220 20/15 A2993 RMK AC1AC2CI1 SLP135=
CYUL;2005-06-05 13:00;METAR CYUL 051300Z 21008KT 15SM FEW100 SCT120 BKN220 21/16 A2994 RMK AC1AC1CI1 SLP138=
CYUL;2005-06-05 14:00;METAR CYUL 051400Z 21006KT 15SM FEW025 BKN070 BKN120 22/16 A2994 RMK CU1ACC6AC1 SLP140=
CYUL;2005-06-05 15:00;METAR CYUL 051500Z 22008KT 15SM FEW030 SCT080 SCT120 BKN220 23/16 A2994 RMK CU1ACC3AC1CC1 TCU ASOCT SLP140=
CYUL;2005-06-05 16:00;METAR CYUL 051600Z 23008KT 30SM FEW030 FEW080 BKN220 25/17 A2993 RMK CU1AC1CI3 CC ASOCT SLP137=
CYUL;2005-06-05 17:00;METAR CYUL 051700Z 19009KT 30SM FEW040 FEW150 SCT220 26/16 A2992 RMK CU1AC1CI2 TCU ASOCT SLP132=
CYUL;2005-06-05 18:00;METAR CYUL 051800Z 20009KT 30SM FEW045 FEW150 BKN220 27/15 A2992 RMK CU1AC1CI2 SLP132=
CYUL;2005-06-05 19:00;METAR CYUL 051900Z 21008KT 30SM FEW045 FEW180 SCT240 27/15 A2992 RMK CU1AC2CI1 TCU ASOCT SLP131=
CYUL;2005-06-05 20:00;METAR CYUL 052000Z 21005KT 30SM FEW050 FEW075 SCT150 BKN240 27/14 A2990 RMK CU1AC1AC3CI1 TCU ASOCT SLP126=
CYUL;2005-06-05 21:00;METAR CYUL 052100Z 23005KT 30SM FEW050 FEW080 BKN150 BKN240 27/13 A2990 RMK CU1AC1AC6CI0 TCU ASOCT SLP127=
CYUL;2005-06-05 22:00;METAR CYUL 052200Z 13003KT 30SM FEW045 SCT150 BKN240 27/14 A2989 RMK CU1AC2CI1 SLP123=
CYUL;2005-06-05 23:00;METAR CYUL 052300Z 16005KT 30SM FEW045 FEW150 BKN220 27/14 A2988 RMK CU1AC2CI1 SLP120=
CYUL;2005-06-06 00:00;METAR CYUL 060000Z 01007KT 30SM FEW150 OVC240 25/15 A2990 RMK AC1CI2 SLP126=
CYUL;2005-06-06 01:00;METAR CYUL 060100Z 03008KT 8SM FEW150 OVC240 22/14 A2992 RMK AC1CI3 SLP131=
CYUL;2005-06-06 02:00;METAR CYUL 060200Z 05010KT 8SM BKN240 23/12 A2992 RMK CI4 SLP131=
CYUL;2005-06-06 03:00;METAR CYUL 060300Z 02011KT 10SM SCT180 BKN240 19/10 A2993 RMK AC2CI2 SLP135=
CYUL;2005-06-06 04:00;METAR CYUL 060400Z 02014KT 10SM FEW055 BKN110 OVC240 18/07 A2993 RMK SC1AC5CI1 SLP137=
CYUL;2005-06-06 05:00;METAR CYUL 060500Z 03007KT 10SM OVC130 18/07 A2993 RMK AC8 SLP137=
CYUL;2005-06-06 06:00;METAR CYUL 060600Z 02009KT 12SM BKN110 OVC230 17/07 A2992 RMK AC5CI1 SLP133=
CYUL;2005-06-06 07:00;METAR CYUL 060700Z 03009KT 12SM FEW110 BKN190 BKN230 17/05 A2992 RMK AC2AC3CI0 SLP131=
CYUL;2005-06-06 08:00;METAR CYUL 060800Z 03007KT 15SM BKN120 OVC190 17/06 A2990 RMK AC6AC2 SLP127=
CYUL;2005-06-06 08:10;SPECI CYUL 060810Z 04007KT 15SM -RA BKN080 OVC120 RMK AC6AC2=
CYUL;2005-06-06 09:27;SPECI CYUL 060927Z 02006KT 8SM -SHRA SCT030 OVC090 RMK SC3AC5 RETS CB EMBD=
CYUL;2005-06-06 09:45;SPECI CYUL 060945Z 03006KT 10SM FEW030 OVC070 RMK SC2AC6 RETS CB EMBD=
CYUL;2005-06-06 10:00;METAR CYUL 061000Z 05004KT 12SM BKN065 OVC150 14/10 A2987 RMK SC5AC3 RETS SLP117=
CYUL;2005-06-06 11:00;METAR CYUL 061100Z 03008KT 10SM BKN060 OVC150 15/11 A2987 RMK SC6AC2 SLP114=
CYUL;2005-06-06 12:00;METAR CYUL 061200Z 04005KT 12SM SCT060 OVC240 17/11 A2984 RMK SC3CS2 SLP105=
CYUL;2005-06-06 13:00;METAR CYUL 061300Z 10006KT 12SM SCT065 OVC220 21/15 A2981 RMK SC3CS2 SLP095=
CYUL;2005-06-06 14:00;METAR CYUL 061400Z 19004KT 8SM -TSRA FEW030 BKN045 OVC060 21/17 A2980 RMK CF1SC6SC2 CB EMBD RERA SLP093=
CYUL;2005-06-06 14:22;SPECI CYUL 061422Z 16006KT 10SM OVC060 RMK SC8 RETS=
CYUL;2005-06-06 15:00;METAR CYUL 061500Z 18008KT 10SM BKN080 BKN240 24/18 A2979 RMK AC7CI1 RETS ACC ASOCT SLP088=
CYUL;2005-06-06 16:00;METAR CYUL 061600Z 23007KT 10SM FEW030 SCT150 BKN240 26/18 A2978 RMK CU1AC3CI1 SLP084=
CYUL;2005-06-06 17:00;METAR CYUL 061700Z 23005KT 10SM FEW035 FEW075 OVC240 28/19 A2974 RMK CU1AC1CI2 SLP073=
CYUL;2005-06-06 18:00;METAR CYUL 061800Z 23014KT 10SM FEW045TCU FEW100 OVC240 30/18 A2970 RMK TCU1AC1CI2 SLP058=
CYUL;2005-06-06 19:00;METAR CYUL 061900Z 23014KT 12SM FEW050TCU OVC240 31/18 A2968 RMK TCU1CI3 SLP050=
CYUL;2005-06-06 20:00;METAR CYUL 062000Z 22015KT 12SM FEW050TCU FEW090 OVC240 30/17 A2965 RMK TCU1AC1CI6 CS ASOCT SLP039=
CYUL;2005-06-06 21:00;METAR CYUL 062100Z 21010KT 12SM FEW050TCU FEW090 OVC240 29/18 A2962 RMK TCU1AC1CI7 SLP031=
CYUL;2005-06-06 22:00;METAR CYUL 062200Z 23017G24KT 12SM FEW050CB FEW090 OVC240 29/17 A2961 RMK CB1AC1CI5 SLP026=
CYUL;2005-06-06 23:00;METAR CYUL 062300Z 22012G18KT 12SM FEW045CB FEW100 OVC240 28/17 A2961 RMK CB1AC1CI4 SLP026=
CYUL;2005-06-07 00:00;METAR CYUL 070000Z 22014G20KT 15SM FEW040CB SCT100 OVC240 27/17 A2961 RMK CB1AC2CI1 SLP027=
CYUL;2005-06-07 01:00;METAR CYUL 070100Z 21010G16KT 12SM FEW040CB FEW100 BKN240 26/16 A2962 RMK CB1AC1CI1 SLP029=
CYUL;2005-06-07 02:00;METAR CYUL 070200Z 23015G22KT 12SM FEW040CB FEW100 BKN240 26/16 A2962 RMK CB1AC1CI1 SLP031=
CYUL;2005-06-07 04:00;METAR CYUL 070400Z 24014G20KT 15SM FEW055 SCT150 25/16 A2964 RMK SC2AC2 SLP037=
CYUL;2005-06-07 05:00;METAR CYUL 070500Z 24013KT 15SM FEW080 24/15 A2965 RMK AC2 SLP040=
CYUL;2005-06-07 06:00;METAR CYUL 070600Z 22011KT 15SM FEW080 22/15 A2965 RMK AC2 SLP039=
CYUL;2005-06-07 07:00;METAR CYUL 070700Z 21010KT 15SM FEW060 SCT090 22/15 A2964 RMK SC2AC2 SLP037=
CYUL;2005-06-07 08:00;METAR CYUL 070800Z 23015G20KT 15SM FEW090 21/15 A2965 RMK AC2 SLP039=
CYUL;2005-06-07 09:00;METAR CYUL 070900Z 23011KT 15SM FEW090 SCT240 21/15 A2965 RMK AC2CI0 SLP041=
CYUL;2005-06-07 10:00;METAR CYUL 071000Z 22015KT 15SM FEW120 FEW240 20/15 A2966 RMK AC2CI0 SLP043=
CYUL;2005-06-07 11:00;METAR CYUL 071100Z 23014KT 15SM SCT080 BKN130 21/15 A2966 RMK AC3AC0 SLP043=
CYUL;2005-06-07 12:00;METAR CYUL 071200Z 23011G18KT 15SM FEW130 22/15 A2966 RMK AC2 SLP043=
CYUL;2005-06-07 13:00;METAR CYUL 071300Z 23012G18KT 15SM FEW050 FEW130 23/15 A2966 RMK CF1AC1 SLP045=
CYUL;2005-06-07 14:00;METAR CYUL 071400Z 22017G24KT 15SM FEW040 FEW130 FEW240 24/15 A2965 RMK CU1AC1CI1 SLP041=
CYUL;2005-06-07 15:00;METAR CYUL 071500Z 23016G24KT 15SM SCT045 SCT240 25/15 A2964 RMK CU4CI1 SLP038=
CYUL;2005-06-07 16:00;METAR CYUL 071600Z 26021G28KT 30SM SCT050 SCT240 26/14 A2963 RMK CU4CC1 SLP035=
CYUL;2005-06-07 17:00;METAR CYUL 071700Z 28017G24KT 30SM SCT060 SCT240 27/15 A2964 RMK CU3CC1 SLP038=
CYUL;2005-06-07 18:00;METAR CYUL 071800Z 28017KT 30SM FEW060 FEW080 FEW240 27/14 A2964 RMK CU1AC1CC1 SLP037=
CYUL;2005-06-07 19:00;METAR CYUL 071900Z 26016G27KT 30SM FEW055 BKN110 27/14 A2966 RMK CU1AC4 SLP044=
CYUL;2005-06-07 20:00;METAR CYUL 072000Z 27017G25KT 30SM FEW050 SCT110 25/14 A2968 RMK CU1AC2 SLP052=
CYUL;2005-06-07 21:00;METAR CYUL 072100Z 29018KT 30SM FEW045 FEW120 FEW240 25/14 A2969 RMK CU1AC1CI1 SLP053=
CYUL;2005-06-07 22:00;METAR CYUL 072200Z 29015KT 30SM FEW045 FEW120 FEW240 25/14 A2969 RMK CU1AC1CI1 SLP054=
CYUL;2005-06-07 23:00;METAR CYUL 072300Z 30009G16KT 30SM FEW040 FEW120 FEW240 24/13 A2971 RMK CU1AC1CI1 SLP061=
CYUL;2005-06-08 00:00;METAR CYUL 080000Z 32007KT 30SM FEW050 FEW120 FEW240 22/14 A2973 RMK SC1AC1CI1 SLP068=
CYUL;2005-06-08 01:00;METAR CYUL 080100Z 32009KT 30SM FEW050 FEW120 SCT240 22/13 A2976 RMK SC2AC1CI0 CU ASOCT SLP077=
CYUL;2005-06-08 02:00;METAR CYUL 080200Z 33009KT 15SM FEW055 SCT075 20/13 A2979 RMK SC1AC3 SLP087=
CYUL;2005-06-08 03:00;METAR CYUL 080300Z 30006KT 15SM FEW055 BKN085 BKN120 BKN240 19/13 A2981 RMK SC1AC4AC2CI1 SLP094=
CYUL;2005-06-08 04:00;METAR CYUL 080400Z 31005KT 15SM FEW033 FEW085 FEW240 18/13 A2982 RMK CF1AC1CI0 SLP097=
CYUL;2005-06-08 05:00;METAR CYUL 080500Z 31005KT 15SM FEW035 FEW080 FEW240 17/12 A2982 RMK CF1AC2CI0 SLP099=
CYUL;2005-06-08 06:00;METAR CYUL 080600Z 32009KT 15SM FEW035 FEW060 FEW240 17/12 A2984 RMK CF1SC1CI0 SLP107=
CYUL;2005-06-08 07:00;METAR CYUL 080700Z 30006KT 10SM FEW025 FEW040 15/11 A2988 RMK CF1SC1 HZ SLP120=
CYUL;2005-06-08 08:00;METAR CYUL 080800Z 27003KT 12SM SKC 15/11 A2990 RMK SLP124=
CYUL;2005-06-08 09:00;METAR CYUL 080900Z 29004KT 6SM BR FEW090 SCT210 14/12 A2990 RMK AC2CI1 SLP125=
CYUL;2005-06-08 10:00;METAR CYUL 081000Z 32003KT 6SM BR FEW090 FEW120 14/12 A2990 RMK AC1AC1 SLP126=
CYUL;2005-06-08 11:00;METAR CYUL 081100Z 34003KT 8SM FEW030 FEW090 SCT120 16/12 A2992 RMK SC1AC2AC1 HZ SLP132=
CYUL;2005-06-08 12:00;METAR CYUL 081200Z 35004KT 6SM HZ SCT030 SCT060 SCT090 BKN240 17/11 A2993 RMK SC3SC1AC1CI0 SLP137=
CYUL;2005-06-08 12:52;SPECI CYUL 081252Z 02006KT 4SM -SHRA HZ BKN033 BKN058 OVC090 RMK SC5SC2AC2=
CYUL;2005-06-08 13:00;METAR CYUL 081300Z 05005KT 4SM -SHRA HZ SCT033 BKN058 BKN090 OVC120 17/10 A2992 RMK SC4SC2AC2AC1 SLP133=
CYUL;2005-06-08 13:16;SPECI CYUL 081316Z 06002KT 4SM HZ FEW030 FEW058 BKN090 BKN130 BKN240 RMK SC2SC1AC2AC2CI1=
CYUL;2005-06-08 14:00;METAR CYUL 081400Z 10003KT 4SM -SHRA HZ BKN030 OVC090 17/10 A2993 RMK SC6AC2 SLP135=
CYUL;2005-06-08 14:43;SPECI CYUL 081443Z 35004KT 6SM HZ SCT030 BKN090 BKN240 RMK CU3AC3CI1 TCU ASOCT=
CYUL;2005-06-08 15:00;METAR CYUL 081500Z 35002KT 6SM HZ FEW030 OVC075 18/11 A2996 RMK CF1AC7 SLP147=
CYUL;2005-06-08 16:00;METAR CYUL 081600Z 04008KT 6SM HZ FEW025 OVC067 17/11 A2996 RMK CF1AC7 SLP146=
CYUL;2005-06-08 18:00;METAR CYUL 081800Z 04004KT 5SM HZ OVC068 17/11 A2999 RMK AC8 SLP155=
CYUL;2005-06-08 18:09;SPECI CYUL 081809Z 01005KT 5SM -SHRA HZ OVC068 RMK AC8=
CYUL;2005-06-08 19:00;METAR CYUL 081900Z 05006KT 5SM HZ FEW070 OVC100 19/12 A2997 RMK AC1AC7 SLP148=
CYUL;2005-06-08 20:00;METAR CYUL 082000Z 07007KT 8SM FEW055 BKN120 BKN180 18/12 A2997 RMK CF1AC5AC1 SLP150=
CYUL;2005-06-08 21:00;METAR CYUL 082100Z 04009KT 7SM SCT025 BKN055 OVC120 18/12 A2998 RMK CF3SC4AC1 SLP154=
CYUL;2005-06-08 22:00;METAR CYUL 082200Z 04005KT 7SM FEW025 OVC060 17/12 A2999 RMK CF1SC7 SLP155=
CYUL;2005-06-08 23:00;METAR CYUL 082300Z 04006KT 6SM HZ FEW025 BKN060 17/11 A2999 RMK CF1SC6 SLP155=
CYUL;2005-06-09 00:00;METAR CYUL 090000Z 05007KT 6SM HZ FEW023 BKN070 BKN240 17/11 A3000 RMK CF1AC2CI0 SLP158=
CYUL;2005-06-09 01:00;METAR CYUL 090100Z 03008KT 5SM HZ FEW023 BKN067 BKN240 16/11 A3000 RMK CF1AC5CI1 SLP161=
CYUL;2005-06-09 02:00;METAR CYUL 090200Z 36004KT 5SM HZ FEW067 15/11 A3001 RMK AC2 SLP164=
CYUL;2005-06-09 03:00;METAR CYUL 090300Z 06005KT 5SM HZ FEW240 16/11 A3002 RMK CI0 SLP166=
CYUL;2005-06-09 04:00;METAR CYUL 090400Z 08004KT 5SM HZ SKC 16/11 A3004 RMK SLP172=
CYUL;2005-06-09 05:00;METAR CYUL 090500Z 10002KT 4SM HZ SKC 15/11 A3003 RMK SLP171=
CYUL;2005-06-09 06:00;METAR CYUL 090600Z 04006KT 5SM HZ FEW055 15/11 A3004 RMK SC1 SLP173=
CYUL;2005-06-09 07:00;METAR CYUL 090700Z 05005KT 5SM HZ FEW055 15/11 A3005 RMK SC2 SLP176=
CYUL;2005-06-09 08:00;METAR CYUL 090800Z 06004KT 4SM HZ FEW050 FEW240 15/11 A3005 RMK SC2CI1 SLP176=
CYUL;2005-06-09 09:00;METAR CYUL 090900Z 05004KT 3SM HZ BKN051 BKN092 BKN240 15/11 A3004 RMK SC5AC2CI1 SLP172=
CYUL;2005-06-09 10:00;METAR CYUL 091000Z 04007KT 3SM HZ FEW050 FEW092 SCT240 15/11 A3005 RMK SC2AC1CI0 SLP177=
CYUL;2005-06-09 11:00;METAR CYUL 091100Z 04004KT 6SM HZ FEW054 FEW095 SCT240 16/12 A3006 RMK SC2AC1CI0 SLP181=
CYUL;2005-06-09 12:00;METAR CYUL 091200Z 04007KT 5SM HZ FEW055 FEW095 SCT240 17/11 A3008 RMK SC2AC1CI0 SLP188=
CYUL;2005-06-09 13:00;METAR CYUL 091300Z 06008KT 5SM HZ FEW060 SCT150 BKN240 18/12 A3007 RMK SC1AC1CI0 SLP184=
CYUL;2005-06-09 14:00;METAR CYUL 091400Z 06007KT 5SM HZ FEW150 SCT240 21/13 A3007 RMK AC1CI1 SLP182=
CYUL;2005-06-09 15:00;METAR CYUL 091500Z 08007KT 6SM HZ SCT055 SCT150 BKN240 22/14 A3007 RMK SC2AC2CI1 SLP182=
CYUL;2005-06-09 16:00;METAR CYUL 091600Z 12008KT 5SM HZ FEW150 BKN240 23/15 A3006 RMK AC2CI1 SLP180=
CYUL;2005-06-09 17:00;METAR CYUL 091700Z 11005KT 5SM HZ FEW150 SCT240 25/16 A3005 RMK AC1CI1 SLP177=
CYUL;2005-06-09 18:00;METAR CYUL 091800Z 11007KT 6SM HZ FEW060 SCT150 BKN240 26/17 A3003 RMK SC2AC1CI0 SLP171=
CYUL;2005-06-09 19:00;METAR CYUL 091900Z 08004KT 6SM HZ FEW240 27/17 A3002 RMK CI0 SLP165=
CYUL;2005-06-09 20:00;METAR CYUL 092000Z 14007KT 6SM HZ FEW240 29/18 A2999 RMK CI1 SLP157=
CYUL;2005-06-09 21:00;METAR CYUL 092100Z 12010KT 7SM FEW150 SCT240 29/18 A2998 RMK AC1CI1 SLP152=
CYUL;2005-06-09 22:00;METAR CYUL 092200Z 16010KT 7SM FEW070 SCT150 BKN240 29/18 A2999 RMK AC1AC2CI1 CC ASOCT SLP155=
CYUL;2005-06-09 23:00;METAR CYUL 092300Z 19006KT 8SM FEW130 SCT160 BKN240 28/16 A2998 RMK AC2AC2CI0 SLP153=
CYUL;2005-06-10 00:00;METAR CYUL 100000Z 15005KT 8SM FEW130 SCT160 BKN240 26/16 A2998 RMK AC2AC2CI2 SLP152=
CYUL;2005-06-10 01:00;METAR CYUL 100100Z 14008KT 8SM FEW140 BKN240 25/16 A2998 RMK AC2CI2 SLP153=
CYUL;2005-06-10 02:00;METAR CYUL 100200Z 14002KT 8SM FEW140 OVC250 24/17 A2999 RMK AC2CI2 SLP157=
CYUL;2005-06-10 03:00;METAR CYUL 100300Z 12003KT 8SM SCT130 BKN250 23/16 A3000 RMK AC3CI2 SLP159=
CYUL;2005-06-10 04:00;METAR CYUL 100400Z 00000KT 6SM HZ SCT072 BKN100 OVC130 22/16 A3001 RMK AC3AC3AC2 SLP163=
CYUL;2005-06-10 05:00;METAR CYUL 100500Z 01003KT 6SM HZ FEW070 SCT100 OVC130 21/16 A3000 RMK AC1AC2AC4 SLP160=
CYUL;2005-06-10 06:00;METAR CYUL 100600Z 03005KT 6SM HZ SCT100 OVC130 21/16 A3000 RMK AC3AC5 SLP158=
CYUL;2005-06-10 07:00;METAR CYUL 100700Z 00000KT 6SM HZ FEW045 BKN130 BKN180 20/16 A2999 RMK CF1AC5AC1 DIST LTNG S QUAD SLP156=
CYUL;2005-06-10 08:00;METAR CYUL 100800Z 23002KT 6SM TS HZ FEW025 FEW045CB BKN130 OVC240 20/16 A2999 RMK SC1CB2AC4CI1 CB ASOCT S-W QUAD SLP157=
CYUL;2005-06-10 08:24;SPECI CYUL 100824Z 25002KT 6SM -TSRA HZ FEW025 FEW045CB BKN130 OVC250 RMK SC1CB1AC5CI1=
CYUL;2005-06-10 09:00;METAR CYUL 100900Z 17002KT 5SM -SHRA HZ FEW040CB FEW070 BKN130 OVC250 20/17 A2998 RETS RMK CB1AC2AC5CI0 SLP154=
CYUL;2005-06-10 09:52;SPECI CYUL 100952Z 31002KT 4SM BR VCSH FEW040TCU FEW070 BKN120 BKN250 RMK TCU1AC1AC4CI1=
CYUL;2005-06-10 10:00;METAR CYUL 101000Z 36003KT 4SM BR VCSH FEW040TCU FEW070 BKN120 BKN250 20/18 A2999 RMK TCU1AC1AC4CI1 SLP155=
CYUL;2005-06-10 11:00;METAR CYUL 101100Z 21003KT 6SM HZ FEW028TCU SCT130 BKN180 BKN250 21/18 A2999 RMK TCU1AC2AC1CI0 CC ASOCT SLP156=
CYUL;2005-06-10 12:00;METAR CYUL 101200Z 22003KT 6SM HZ FEW012 FEW090 FEW130 SCT190 23/18 A3000 RMK SF1AC1AC2AC1 SLP158=
CYUL;2005-06-10 13:00;METAR CYUL 101300Z 20003KT 6SM HZ FEW035 FEW130 BKN210 OVC250 24/19 A2999 RMK SC1AC2CS0CI1 SLP157=
CYUL;2005-06-10 14:00;METAR CYUL 101400Z 24006KT 7SM FEW040 FEW150 BKN240 26/20 A2998 RMK CU1AC1CI0 SLP152=
CYUL;2005-06-10 15:00;METAR CYUL 101500Z 23008KT 7SM FEW040 FEW160 BKN240 27/21 A2998 RMK CU1AC1CI2 SLP152=
CYUL;2005-06-10 16:00;METAR CYUL 101600Z 23011KT 6SM HZ FEW040 FEW120 OVC240 27/21 A2998 RMK CU1AC1CI2 SLP153=
CYUL;2005-06-10 17:00;METAR CYUL 101700Z 22011KT 6SM HZ FEW040 FEW140 BKN240 28/21 A2997 RMK SC1AC1CI2 SLP149=
CYUL;2005-06-10 18:00;METAR CYUL 101800Z 22010G16KT 7SM FEW040 BKN220 BKN240 29/21 A2995 RMK SC1CS2CI1 SLP143=
CYUL;2005-06-10 19:00;METAR CYUL 101900Z 22013KT 7SM FEW040 BKN240 29/21 A2992 RMK CU1CI0 SLP134=
CYUL;2005-06-10 20:00;METAR CYUL 102000Z 23013KT 7SM FEW040 SCT240 29/21 A2992 RMK CU1CI1 TCU ASOCT SLP133=
CYUL;2005-06-10 21:00;METAR CYUL 102100Z 22010KT 6SM HZ FEW040 FEW150 OVC210 29/21 A2991 RMK CU1AC2CS2 SLP130=
CYUL;2005-06-10 22:00;METAR CYUL 102200Z 23008KT 6SM HZ FEW140 BKN180 OVC220 28/21 A2992 RMK AC1AS2CS2 SLP133=
CYUL;2005-06-10 23:00;METAR CYUL 102300Z 23007KT 6SM HZ FEW120 BKN180 OVC210 28/21 A2993 RMK AC2AS5CS2 SLP135=
CYUL;2005-06-11 00:00;METAR CYUL 110000Z 22007KT 7SM FEW080 BKN160 OVC210 28/21 A2992 RMK AC2AC3CI1 SLP130=
CYUL;2005-06-11 01:00;METAR CYUL 110100Z 23004KT 7SM FEW090 SCT150 BKN240 27/21 A2994 RMK AC1AC3CI1 SLP138=
CYUL;2005-06-11 02:00;METAR CYUL 110200Z 22002KT 8SM FEW060 SCT150 BKN240 26/21 A2995 RMK CF2AC2CI2 SLP140=
CYUL;2005-06-11 03:00;METAR CYUL 110300Z 25006KT 8SM SCT045 BKN075 BKN240 25/21 A2996 RMK CF3AC2CI1 SLP144=
CYUL;2005-06-11 03:40;SPECI CYUL 110340Z 11002KT 8SM -SHRA SCT040 BKN110 BKN240 RMK CF3AC2CI1=
CYUL;2005-06-11 04:00;METAR CYUL 110400Z 21003KT 7SM FEW042 FEW110 BKN240 25/21 A2995 RMK CF1AC2CI2 SLP143=
CYUL;2005-06-11 06:00;METAR CYUL 110600Z 23005KT 6SM HZ FEW240 23/20 A2995 RMK CI1 SLP143=
CYUL;2005-06-11 07:00;METAR CYUL 110700Z 24005KT 6SM HZ SKC 23/20 A2996 RMK SLP144=
CYUL;2005-06-11 08:00;METAR CYUL 110800Z 23005KT 6SM HZ SCT240 23/20 A2997 RMK CI2 SLP148=
CYUL;2005-06-11 09:00;METAR CYUL 110900Z 23005KT 4SM HZ BKN240 23/19 A2998 RMK CI2 SLP151=
CYUL;2005-06-11 10:00;METAR CYUL 111000Z 23003KT 4SM HZ BKN240 22/19 A2998 RMK CI2 CC ASOCT SLP154=
CYUL;2005-06-11 11:00;METAR CYUL 111100Z 23005KT 3SM HZ BKN240 23/20 A3000 RMK CI2 SLP159=
CYUL;2005-06-11 12:00;METAR CYUL 111200Z 23008KT 4SM HZ OVC240 23/20 A3000 RMK CI2 CC ASOCT SLP161=
CYUL;2005-06-11 13:00;METAR CYUL 111300Z 21006KT 6SM HZ BKN240 25/21 A3000 RMK CI2 SLP160=
CYUL;2005-06-11 14:00;METAR CYUL 111400Z 19007KT 5SM HZ FEW180 SCT210 BKN240 26/21 A2999 RMK AC2CC2CI0 SLP157=
CYUL;2005-06-11 15:00;METAR CYUL 111500Z 19007KT 5SM HZ FEW040 BKN240 27/21 A3000 RMK CU1CI1 SLP158=
CYUL;2005-06-11 16:00;METAR CYUL 111600Z 20006KT 6SM HZ FEW040TCU BKN240 29/22 A3000 RMK TCU1CI1 SLP158=
CYUL;2005-06-11 17:00;METAR CYUL 111700Z 20008KT 7SM FEW040TCU FEW120 BKN240 30/19 A2998 RMK TCU1AC1CI2 SLP154=
CYUL;2005-06-11 18:00;METAR CYUL 111800Z 22007KT 7SM FEW040TCU FEW150 BKN240 31/20 A2996 RMK TCU1AC1CI2 SLP146=
CYUL;2005-06-11 19:00;METAR CYUL 111900Z 22005KT 8SM FEW040TCU BKN240 31/20 A2995 RMK TCU1CI1 SLP143=
CYUL;2005-06-11 20:00;METAR CYUL 112000Z 23010KT 8SM FEW040TCU SCT240 33/20 A2993 RMK TCU1CI1 SLP136=
CYUL;2005-06-11 21:00;METAR CYUL 112100Z 21008KT 8SM FEW040TCU SCT240 32/20 A2991 RMK TCU1CI1 SLP129=
CYUL;2005-06-11 22:00;METAR CYUL 112200Z 20007KT 8SM FEW040CB FEW150 BKN240 32/19 A2991 RMK CB1AC1CI1 SLP127=
CYUL;2005-06-11 23:00;METAR CYUL 112300Z 22004KT 8SM FEW040CB SCT160 BKN240 31/19 A2992 RMK CB1AC3CI0 SLP130=
CYUL;2005-06-12 00:00;METAR CYUL 120000Z 20005KT 8SM FEW040CB BKN160 BKN240 30/19 A2992 RMK CB1AC4CI0 SLP132=
CYUL;2005-06-12 01:00;METAR CYUL 120100Z 20009KT 8SM FEW040 BKN170 OVC240 29/20 A2993 RMK SC1AC5CI0 CB ASOCT SLP135=
CYUL;2005-06-12 02:00;METAR CYUL 120200Z 20009KT 8SM SCT180 OVC240 28/20 A2993 RMK AC4CI3 DIST=
CYUL;2005-06-12 03:00;METAR CYUL 120300Z 21005KT 10SM BKN240 27/18 A2993 RMK CI3 SLP134=
CYUL;2005-06-12 04:00;METAR CYUL 120400Z 24004KT 10SM OVC240 26/18 A2993 RMK CI6 SLP136=
CYUL;2005-06-12 05:00;METAR CYUL 120500Z 22004KT 10SM BKN150 OVC200 25/18 A2993 RMK AC5CI2 SLP134=
CYUL;2005-06-12 06:00;METAR CYUL 120600Z 20007KT 10SM SCT150 BKN200 24/18 A2992 RMK AC2CI2 SLP130=
CYUL;2005-06-12 07:00;METAR CYUL 120700Z 20005KT 10SM BKN200 23/18 A2991 RMK CI3 SLP129=
CYUL;2005-06-12 08:00;METAR CYUL 120800Z 21004KT 10SM BKN170 OVC240 24/18 A2991 RMK AC4CI3 SLP127=
CYUL;2005-06-12 09:00;METAR CYUL 120900Z 21002KT 8SM BKN160 OVC240 23/18 A2991 RMK AC5CI2 SLP128=
CYUL;2005-06-12 10:00;METAR CYUL 121000Z 20003KT 8SM BKN160 OVC240 23/19 A2992 RMK AC7CI1 SLP131=
CYUL;2005-06-12 11:00;METAR CYUL 121100Z 21005KT 10SM BKN150 OVC240 24/19 A2992 RMK AC7CI1 SLP131=
CYUL;2005-06-12 12:00;METAR CYUL 121200Z 21004KT 10SM BKN150 OVC240 25/20 A2992 RMK AC5CI2 SLP130=
CYUL;2005-06-12 13:00;METAR CYUL 121300Z 22008KT 10SM FEW070 BKN150 OVC240 26/20 A2992 RMK AC1AC5CI3 SLP130=
CYUL;2005-06-12 14:00;METAR CYUL 121400Z 22006KT 10SM FEW070 BKN150 OVC240 26/21 A2991 RMK AC1AC6CI2 SLP127=
CYUL;2005-06-12 15:00;METAR CYUL 121500Z 22008KT 10SM FEW100 BKN120 OVC240 26/21 A2990 RMK AC2AC4CI2 SLP124=
CYUL;2005-06-12 16:00;METAR CYUL 121600Z 21009KT 8SM BKN030 OVC240 28/22 A2989 RMK SC5CI3 SLP122=
CYUL;2005-06-12 17:00;METAR CYUL 121700Z 20009KT 8SM FEW030 BKN150 OVC240 29/22 A2988 RMK SC2AC2CI1 SLP118=
CYUL;2005-06-12 17:50;SPECI CYUL 121750Z 22012KT 8SM -SHRA FEW030 BKN150 OVC240 RMK SC2AC2CI1=
CYUL;2005-06-12 18:00;METAR CYUL 121800Z 22008KT 10SM FEW035TCU BKN150 OVC240 29/22 A2987 RMK TCU2AC3CI0 SLP114=
CYUL;2005-06-12 19:00;METAR CYUL 121900Z 22013KT 10SM FEW040TCU BKN140 OVC220 30/22 A2986 RMK TCU2AC2CI1 SLP110=
CYUL;2005-06-12 21:00;METAR CYUL 122100Z 26015G20KT 12SM FEW040TCU BKN150 BKN220 32/19 A2983 RMK TCU1AC2CI0 SLP100=
CYUL;2005-06-12 22:00;METAR CYUL 122200Z 22010KT 15SM FEW050TCU BKN170 BKN240 30/22 A2982 RMK TCU1AC2CI0 SLP098=
CYUL;2005-06-12 23:00;METAR CYUL 122300Z 23008KT 12SM FEW050TCU BKN150 BKN210 29/21 A2982 RMK TCU2AC3CI0 SLP099=
CYUL;2005-06-13 00:00;METAR CYUL 130000Z 22010KT 12SM FEW050TCU BKN140 OVC230 28/21 A2982 RMK TCU1AC5CI1 SLP099=
CYUL;2005-06-13 01:00;METAR CYUL 130100Z 25007KT 12SM BKN140 OVC240 28/21 A2982 RMK AC6CI1 SLP099=
CYUL;2005-06-13 02:00;METAR CYUL 130200Z 24010KT 12SM BKN160 OVC240 27/21 A2983 RMK AC5CI2 SLP100=
CYUL;2005-06-13 03:00;METAR CYUL 130300Z 23005KT 12SM SCT150 BKN240 27/21 A2982 RMK AC4CI2 SLP099=
CYUL;2005-06-13 04:00;METAR CYUL 130400Z 25009KT 12SM OVC110 27/21 A2982 RMK AC8 SLP096=
CYUL;2005-06-13 05:00;METAR CYUL 130500Z 25008KT 12SM BKN150 OVC240 26/21 A2980 RMK AC6CI2 SLP091=
CYUL;2005-06-13 06:00;METAR CYUL 130600Z 25008KT 10SM FEW150 BKN240 25/21 A2979 RMK AC2CI1 SLP089=
CYUL;2005-06-13 07:00;METAR CYUL 130700Z 25008KT 10SM OVC230 24/20 A2979 RMK CI6 SLP086=
CYUL;2005-06-13 09:00;METAR CYUL 130900Z 24007KT 8SM SCT120 OVC220 24/20 A2979 RMK AC4CI3 SLP087=
CYUL;2005-06-13 10:00;METAR CYUL 131000Z 24006KT 10SM BKN070 OVC200 24/20 A2979 RMK AC5CI2 SLP087=
CYUL;2005-06-13 11:00;METAR CYUL 131100Z 25007KT 10SM SCT120 BKN160 OVC200 24/20 A2979 RMK AC4AC2CI1 SLP087=
CYUL;2005-06-13 12:00;METAR CYUL 131200Z 25009KT 10SM FEW160 OVC200 25/21 A2979 RMK AC2CI3 CC ASOCT SLP086=
CYUL;2005-06-13 13:00;METAR CYUL 131300Z 25009KT 10SM FEW160 OVC200 26/21 A2978 RMK AC1CS6 SLP084=
CYUL;2005-06-13 14:00;METAR CYUL 131400Z 25011KT 10SM FEW025 FEW160 OVC220 27/21 A2976 RMK CF1AC2CS5 SLP079=
CYUL;2005-06-13 15:00;METAR CYUL 131500Z 26010KT 10SM FEW025 FEW160 OVC240 28/21 A2975 RMK CF1AC1CS5 SLP073=
CYUL;2005-06-13 16:00;METAR CYUL 131600Z 27011G16KT 10SM SCT035 BKN160 OVC240 29/20 A2974 RMK CU3AC2CS2 SLP071=
CYUL;2005-06-13 17:00;METAR CYUL 131700Z 25011KT 10SM FEW035 BKN160 OVC240 29/20 A2972 RMK CU2AC4CS2 SLP065=
CYUL;2005-06-13 18:00;METAR CYUL 131800Z 25014KT 10SM FEW035 BKN160 OVC220 30/19 A2971 RMK CF1AC5CS2 SLP061=
CYUL;2005-06-13 19:00;METAR CYUL 131900Z 26011G17KT 10SM FEW040 BKN130 OVC200 31/19 A2969 RMK CU1AC5CS2 TCU ASOCT SLP055=
CYUL;2005-06-13 20:00;METAR CYUL 132000Z 27012KT 10SM -SHRA FEW040 OVC080 29/20 A2969 RMK CU1AC8 SLP054=
CYUL;2005-06-13 20:40;SPECI CYUL 132040Z 25008KT 10SM FEW040 OVC060 RMK CU1SC8=
CYUL;2005-06-13 21:00;METAR CYUL 132100Z 25007KT 12SM FEW040 SCT060 OVC090 27/19 A2967 RMK CU1SC3AC5 SLP047=
CYUL;2005-06-13 22:00;METAR CYUL 132200Z 24010KT 12SM FEW060 BKN150 OVC240 28/20 A2965 RMK SC2AC4CI1 SLP041=
CYUL;2005-06-13 23:00;METAR CYUL 132300Z 26007KT 12SM SCT150 BKN240 28/20 A2965 RMK AC3CS2 SLP041=
CYUL;2005-06-14 00:00;METAR CYUL 140000Z 28005KT 15SM SCT160 OVC240 27/20 A2964 RMK AC3CS2 SLP036=
CYUL;2005-06-14 01:00;METAR CYUL 140100Z 26004KT 12SM SCT160 OVC210 26/20 A2963 RMK AC3CS4 SLP035=
CYUL;2005-06-14 02:00;METAR CYUL 140200Z 21005KT 12SM FEW100 OVC230 26/20 A2963 RMK AC1CI6 SLP034=
CYUL;2005-06-14 03:00;METAR CYUL 140300Z 17002KT 12SM FEW160 BKN240 25/20 A2962 RMK AC2CI2 SLP029=
CYUL;2005-06-14 04:00;METAR CYUL 140400Z 24003KT 12SM BKN150 BKN240 26/21 A2962 RMK AC5CI1 SLP030=
CYUL;2005-06-14 05:00;METAR CYUL 140500Z 24002KT 12SM OVC090 25/21 A2960 RMK AC8 SLP025=
CYUL;2005-06-14 07:00;METAR CYUL 140700Z 17004KT 12SM BKN035 OVC075 24/21 A2958 RMK SC6AC2 SLP017=
CYUL;2005-06-14 07:46;SPECI CYUL 140746Z 26003KT 8SM -TSRA OVC032 RMK SC8 CB EMBD=
CYUL;2005-06-14 08:00;METAR CYUL 140800Z 26003KT 6SM -TSRA BR OVC030 24/21 A2957 RMK SC8 CB EMBD SLP014=
CYUL;2005-06-14 08:27;SPECI CYUL 140827Z 23003KT 6SM -SHRA BR OVC027 RMK SC8 RETS=
CYUL;2005-06-14 08:38;SPECI CYUL 140838Z 00000KT 5SM BR BKN007 OVC025 RMK ST6SC2 RETS=
CYUL;2005-06-14 09:00;METAR CYUL 140900Z 32005KT 2SM SHRA BR BKN007 OVC025 23/21 A2958 RMK ST7SC1 RETS SLP015=
CYUL;2005-06-14 09:03;SPECI CYUL 140903Z 01003KT 2 1/2SM -TSRA BR FEW007 OVC025 RMK SF2SC6 CB EMBD RERA=
CYUL;2005-06-14 09:11;SPECI CYUL 140911Z 04004KT 5SM -TSRA BR FEW007 BKN020 OVC035 RMK SF2SC4SC2 CB EMBD RERA=
CYUL;2005-06-14 09:41;SPECI CYUL 140941Z 06003KT 6SM BR BKN030 OVC060 RMK SC6SC2 RETS RERA=
CYUL;2005-06-14 10:00;METAR CYUL 141000Z 06003KT 6SM BR FEW015 BKN030 OVC060 23/20 A2957 RMK SF1SC7SC1 RETS RERA SLP014=
CYUL;2005-06-14 11:00;METAR CYUL 141100Z 02010KT 4SM BR FEW004 OVC017 21/19 A2958 RMK SF2SC6 SLP015=
CYUL;2005-06-14 11:05;SPECI CYUL 141105Z 02007KT 3SM -SHRA BR SCT003 OVC017 RMK ST3SC5=
CYUL;2005-06-14 11:16;SPECI CYUL 141116Z 02011KT 4SM -SHRA BR BKN004 OVC017 RMK ST6SC2=
CYUL;2005-06-14 11:36;SPECI CYUL 141136Z 03011KT 5SM BR SCT006 OVC018 RMK ST4SC4=
CYUL;2005-06-14 11:54;SPECI CYUL 141154Z 04010KT 5SM -SHRA BR BKN006 OVC018 RMK ST6SC2=
CYUL;2005-06-14 12:00;METAR CYUL 141200Z 03010KT 4SM -SHRA BR OVC006 19/17 A2957 RMK ST8 SLP014=
CYUL;2005-06-14 13:00;METAR CYUL 141300Z 03009KT 4SM -RA BR OVC006 18/16 A2956 RMK ST8 SLP010=
CYUL;2005-06-14 13:43;SPECI CYUL 141343Z 02009KT 3SM -RA BR OVC004 RMK ST8=
CYUL;2005-06-14 14:00;METAR CYUL 141400Z 03010KT 3SM -RA BR OVC005 17/15 A2956 RMK ST8 SLP009=
CYUL;2005-06-14 15:00;METAR CYUL 141500Z 02012KT 2SM -RA BR BKN006 OVC030 16/15 A2955 RMK ST6SC2 SLP007=
CYUL;2005-06-14 16:00;METAR CYUL 141600Z 03015KT 2 1/2SM -RA BR BKN006 OVC030 16/15 A2955 RMK ST6SC2 /R10/ SLP007=
CYUL;2005-06-14 16:11;SPECI CYUL 141611Z 03016KT 2 1/2SM -RA BR SCT009 OVC030 RMK ST4SC4=
CYUL;2005-06-14 16:33;SPECI CYUL 141633Z 01012KT 2SM -RA BR BKN007 OVC020 RMK ST6SC2=
CYUL;2005-06-14 17:00;METAR CYUL 141700Z 03012KT 2 1/4SM -RA BR BKN011 OVC025 16/15 A2955 RMK ST6SC2 SLP007=
CYUL;2005-06-14 17:22;SPECI CYUL 141722Z 03012KT 2 1/2SM -RA BR BKN009 OVC025 RMK ST6SC2=
CYUL;2005-06-14 18:00;METAR CYUL 141800Z 02012G17KT 2 1/2SM -RA BR BKN009 OVC025 17/15 A2956 RMK ST6SC2 /R20/ SLP011=
CYUL;2005-06-14 19:00;METAR CYUL 141900Z 02012KT 3SM BR BKN007 OVC030 17/15 A2956 RMK ST6SC2 SLP011=
CYUL;2005-06-14 20:00;METAR CYUL 142000Z 02011KT 8SM OVC008 18/16 A2957 RMK ST8 SLP012=
CYUL;2005-06-14 21:00;METAR CYUL 142100Z 02007G15KT 15SM OVC009 18/16 A2958 RMK ST8 SLP018=
CYUL;2005-06-14 21:48;SPECI CYUL 142148Z 03007KT 15SM BKN011 OVC030 RMK ST6SC2=
CYUL;2005-06-14 22:00;METAR CYUL 142200Z 03011KT 15SM BKN014 OVC030 19/16 A2960 RMK ST6SC2 SLP024=
CYUL;2005-06-14 23:00;METAR CYUL 142300Z 04010KT 15SM BKN012 BKN040 19/16 A2960 RMK ST6SC2 SLP023=
CYUL;2005-06-15 00:00;METAR CYUL 150000Z 03009KT 15SM OVC011 18/16 A2961 RMK ST8 SLP027=
CYUL;2005-06-15 01:17;SPECI CYUL 150117Z 02009KT 15SM OVC008 RMK ST8=
CYUL;2005-06-15 02:00;METAR CYUL 150200Z 03008KT 15SM OVC007 17/15 A2964 RMK ST8 SLP037=
CYUL;2005-06-15 03:00;METAR CYUL 150300Z 03005KT 2 1/4SM BR OVC005 17/15 A2963 RMK ST8 SLP034=
CYUL;2005-06-15 03:24;SPECI CYUL 150324Z 03007KT 2 1/2SM BR OVC003 RMK ST8=
CYUL;2005-06-15 04:00;METAR CYUL 150400Z 02006KT 2 1/2SM BR OVC004 16/15 A2962 RMK ST8 SLP032=
CYUL;2005-06-15 04:24;SPECI CYUL 150424Z 02006KT 2SM BR OVC002 RMK ST8=
CYUL;2005-06-15 05:00;METAR CYUL 150500Z 03008KT 2 1/4SM BR OVC003 16/15 A2960 RMK ST8 SLP026=
CYUL;2005-06-15 05:23;SPECI CYUL 150523Z 03007KT 2SM BR OVC002 RMK ST8=
CYUL;2005-06-15 06:00;METAR CYUL 150600Z 04005KT 2SM BR OVC002 16/15 A2959 RMK ST8 SLP021=
CYUL;2005-06-15 07:00;METAR CYUL 150700Z 02003KT 2 1/2SM BR OVC002 16/15 A2960 RMK ST8 SLP024=
CYUL;2005-06-15 07:26;SPECI CYUL 150726Z 02006KT 3SM BR OVC004 RMK ST8=
CYUL;2005-06-15 08:00;METAR CYUL 150800Z 34003KT 3SM BR OVC004 17/15 A2960 RMK ST8 SLP025=
CYUL;2005-06-15 08:12;SPECI CYUL 150812Z 35005KT 2 1/2SM BR OVC002 RMK ST8=
CYUL;2005-06-15 08:40;SPECI CYUL 150840Z 01007KT 1 3/4SM -DZ BR OVC002 RMK ST8=
CYUL;2005-06-15 09:00;METAR CYUL 150900Z 04008KT 1 3/4SM BR BKN002 OVC006 16/15 A2958 RMK SF6ST2 SLP016=
CYUL;2005-06-15 09:32;SPECI CYUL 150932Z 06010KT 1 3/4SM -RA BR OVC003 RMK ST8=
CYUL;2005-06-15 09:53;SPECI CYUL 150953Z 04007KT 3SM -RA BR OVC003 RMK ST8=
CYUL;2005-06-15 10:00;METAR CYUL 151000Z 02006KT 4SM -RA BR OVC003 16/15 A2956 RMK ST8 SLP011=
CYUL;2005-06-15 11:00;METAR CYUL 151100Z 09005KT 4SM -RA BR OVC005 16/15 A2956 RMK ST8 SLP010=
CYUL;2005-06-15 11:26;SPECI CYUL 151126Z 09005KT 4SM BR OVC004 RMK ST8=
CYUL;2005-06-15 11:48;SPECI CYUL 151148Z 07008KT 2SM BR OVC003 RMK ST8=
CYUL;2005-06-15 12:00;METAR CYUL 151200Z 06006KT 3SM BR OVC003 17/16 A2954 RMK ST8 SLP003=
CYUL;2005-06-15 12:24;SPECI CYUL 151224Z 07008KT 5SM BR OVC004 RMK ST8=
CYUL;2005-06-15 12:54;SPECI CYUL 151254Z 07007KT 2 1/2SM BR OVC003 RMK ST8=
CYUL;2005-06-15 13:00;METAR CYUL 151300Z 09007KT 2SM BR OVC003 17/16 A2953 RMK ST8 SLP999=
CYUL;2005-06-15 13:22;SPECI CYUL 151322Z 09005KT 3SM BR SCT003 OVC006 RMK SF4ST4=
CYUL;2005-06-15 14:00;METAR CYUL 151400Z 08005KT 8SM FEW004 OVC008 18/16 A2951 RMK SF2ST6 SLP994=
CYUL;2005-06-15 14:16;SPECI CYUL 151416Z 08005KT 8SM -SHRA FEW004 OVC008 RMK SF2ST6=
CYUL;2005-06-15 14:42;SPECI CYUL 151442Z 08006KT 8SM SCT004 OVC009 RMK SF3ST5=
CYUL;2005-06-15 15:00;METAR CYUL 151500Z 07006KT 8SM OVC009 19/16 A2950 RMK ST8 SLP988=
CYUL;2005-06-15 15:25;SPECI CYUL 151525Z 09008KT 8SM -SHRA OVC010 RMK ST8=
CYUL;2005-06-15 15:37;SPECI CYUL 151537Z 08010KT 2 1/2SM -TSRA OVC011 RMK ST8 CB EMBD=
CYUL;2005-06-15 16:00;METAR CYUL 151600Z 07006KT 3SM -TSRA OVC011 18/16 A2949 RMK ST8 CB EMBD SLP987=
CYUL;2005-06-15 16:30;SPECI CYUL 151630Z 09008KT 8SM OVC006 RMK ST8 CB EMBD RETS=
CYUL;2005-06-15 16:38;SPECI CYUL 151638Z 08007KT 6SM -SHRA OVC006 RMK ST8 CB EMBD RETS=
CYUL;2005-06-15 16:40;SPECI CYUL 151640Z 08007KT 2SM -SHRA OVC006 RMK ST8 CB EMBD RETS=
CYUL;2005-06-15 17:00;METAR CYUL 151700Z 10006KT 6SM R06R/4000V6000FT/U R06L/6000FT/U -SHRA BKN008 OVC020 19/17 A2947 RMK SF5ST3 RETS SLP978=
CYUL;2005-06-15 17:23;SPECI CYUL 151723Z 12008KT 8SM SCT009 OVC025 RMK SF3ST5=
CYUL;2005-06-15 18:00;METAR CYUL 151800Z 16007KT 3SM -TSRA SCT010 OVC020 19/17 A2947 RMK SF3ST5 CB EMBD SLP979=
CYUL;2005-06-15 18:10;SPECI CYUL 151810Z 33003KT 2SM R24L/4500V6000FT/D R24R/6000FT/U -TSRA BKN010 OVC020 RMK SF6ST2 CB EMBD=
CYUL;2005-06-15 19:00;METAR CYUL 151900Z 11007KT 3SM -SHRA SCT008 OVC018 19/17 A2947 RMK SF3ST5 RETS RERA SLP979=
CYUL;2005-06-15 19:37;SPECI CYUL 151937Z 34007KT 8SM BKN004 OVC020 RMK SF6ST2=
CYUL;2005-06-15 20:25;SPECI CYUL 152025Z 10009KT 8SM SCT008 BKN015 OVC030 RMK SF3ST3SC2=
CYUL;2005-06-15 21:00;METAR CYUL 152100Z 11012KT 8SM BKN011 OVC030 19/16 A2947 RMK ST6SC2 SLP978=
CYUL;2005-06-15 21:45;SPECI CYUL 152145Z 13010KT 6SM -SHRA BKN012 OVC030 RMK ST6SC2=
CYUL;2005-06-15 21:47;SPECI CYUL 152147Z 13010KT 2 1/2SM -SHRA BKN012 OVC030 RMK ST6SC2=
CYUL;2005-06-15 22:00;METAR CYUL 152200Z 13010KT 4SM BR OVC010 19/17 A2946 RMK ST8 SLP975=
CYUL;2005-06-16 00:00;METAR CYUL 160000Z 10003KT 8SM FEW010 BKN040 OVC240 18/16 A2947 RMK SF2SC3CI1 RETS CB EMBD /R20/ SLP981=
CYUL;2005-06-16 01:00;METAR CYUL 160100Z 12010G16KT 8SM FEW010 BKN040 OVC060 17/15 A2947 RMK SF2SC5SC2 SLP980=
CYUL;2005-06-16 01:14;SPECI CYUL 160114Z 14013KT 6SM -SHRA FEW010 OVC040 RMK SF2SC6=
CYUL;2005-06-16 01:32;SPECI CYUL 160132Z 12010KT 8SM SCT009 BKN040 RMK SF3SC2=
CYUL;2005-06-16 02:00;METAR CYUL 160200Z 12008KT 8SM FEW008 SCT014 BKN040 16/14 A2947 RMK SF2SF2SC3 SLP980=
CYUL;2005-06-16 02:32;SPECI CYUL 160232Z 14015KT 6SM -SHRA FEW009 BKN032 OVC040 RMK SF2SC5SC2=
CYUL;2005-06-16 03:00;METAR CYUL 160300Z 15009KT 5SM -SHRA BR FEW012 BKN030 OVC040 16/14 A2947 RMK SF2SC3SC3 RERA SLP980=
CYUL;2005-06-16 03:32;SPECI CYUL 160332Z 14010KT 8SM FEW020 BKN040 BKN080 RMK SC2SC3AC2=
CYUL;2005-06-16 04:00;METAR CYUL 160400Z 15011KT 8SM FEW012 BKN028 OVC050 16/14 A2946 RMK SF1SC6SC2 SLP976=
CYUL;2005-06-16 04:24;SPECI CYUL 160424Z 14009KT 6SM -SHRA BR FEW010 OVC028 RMK SF2SC6=
CYUL;2005-06-16 05:00;METAR CYUL 160500Z 15012KT 6SM -SHRA BR BKN030 OVC050 16/14 A2945 RMK SC6SC2 SLP973=
CYUL;2005-06-16 06:00;METAR CYUL 160600Z 16012KT 6SM -SHRA BR OVC022 16/15 A2944 RMK SC8 SLP971=
CYUL;2005-06-16 07:00;METAR CYUL 160700Z 17005KT 6SM -SHRA BR FEW009 OVC018 16/14 A2945 RMK SF1SC8 SLP973=
CYUL;2005-06-16 07:28;SPECI CYUL 160728Z 16005KT 8SM BKN019 OVC030 RMK SC6SC2=
CYUL;2005-06-16 08:00;METAR CYUL 160800Z 15008KT 6SM -DZ BR FEW009 OVC020 16/15 A2944 RMK SF1SC8 SLP970=
CYUL;2005-06-16 08:25;SPECI CYUL 160825Z 16012KT 7SM BKN022 OVC040 RMK SC7SC1=
CYUL;2005-06-16 09:00;METAR CYUL 160900Z 16010KT 8SM BKN022 OVC040 16/14 A2945 RMK SC7SC1 SLP973=
CYUL;2005-06-16 10:00;METAR CYUL 161000Z 15010KT 8SM BKN022 OVC030 16/14 A2946 RMK SC6SC1 SLP975=
CYUL;2005-06-16 11:00;METAR CYUL 161100Z 15010KT 7SM FEW010 BKN022 OVC040 16/15 A2946 RMK SF1SC4SC2 SLP977=
CYUL;2005-06-16 12:00;METAR CYUL 161200Z 16010KT 8SM FEW012 BKN018 OVC025 17/15 A2947 RMK SC2SC5SC2 SLP980=
CYUL;2005-06-16 13:00;METAR CYUL 161300Z 17009KT 10SM SCT012 BKN020 OVC035 18/15 A2949 RMK SF4SC3SC1 SLP985=
CYUL;2005-06-16 13:32;SPECI CYUL 161332Z 17009KT 6SM -SHRA BR SCT012 BKN022 OVC030 RMK SF4SC2SC2=
CYUL;2005-06-16 14:00;METAR CYUL 161400Z 18008KT 6SM -SHRA BR FEW007 SCT012 BKN022 OVC042 18/16 A2949 RMK SF1SF2SC3SC2 SLP987=
CYUL;2005-06-16 15:00;METAR CYUL 161500Z 24010KT 8SM VCFG FEW007 SCT014 SCT020 OVC042 19/16 A2951 RMK SF1SF2SC1SC4 INTMT -RA TCU ASOCT SLP993=
CYUL;2005-06-16 15:29;SPECI CYUL 161529Z 27009KT 12SM -RA VCFG FEW008 BKN012 OVC040 RMK SF2SF3SC3 -RA INTMT=
CYUL;2005-06-16 16:00;METAR CYUL 161600Z 25009KT 15SM -RA FEW008 BKN014 OVC040 19/15 A2952 RMK SF1SF6SC1 -RA INTMT SLP996=
CYUL;2005-06-16 16:18;SPECI CYUL 161618Z 27006KT 15SM FEW008 SCT014 BKN023 OVC044 RMK SF1SF3SC3SC1=
CYUL;2005-06-16 17:00;METAR CYUL 161700Z 29008KT 25SM FEW008 FEW013 BKN020 BKN050 BKN100 19/15 A2952 RMK SF1SF2SC4SC1AC1 TCU ASOCT NW SLP997=
CYUL;2005-06-16 18:00;METAR CYUL 161800Z 28010KT 25SM FEW012 BKN024 OVC036 19/15 A2952 RMK SF1SC6SC2 SLP998=
CYUL;2005-06-16 19:00;METAR CYUL 161900Z 27006KT 25SM FEW015 FEW025 BKN036 OVC042 20/13 A2953 RMK SF1SC2SC4SC2 SLP000=
CYUL;2005-06-16 20:00;METAR CYUL 162000Z 28005KT 25SM FEW015 FEW028 OVC040 20/14 A2953 RMK SF1SC2SC6 SLP000=
CYUL;2005-06-16 21:00;METAR CYUL 162100Z 28004KT 25SM FEW018 FEW028 OVC043 19/14 A2954 RMK CF1SC2SC6 SLP002=
CYUL;2005-06-16 22:00;METAR CYUL 162200Z 27006KT 25SM FEW015 SCT025 OVC045 20/13 A2954 RMK SF1SC2SC5 SLP003=
CYUL;2005-06-16 23:00;METAR CYUL 162300Z 35003KT 25SM FEW017 SCT028 OVC044 19/15 A2955 RMK SF1SC2SC5 SLP005=
CYUL;2005-06-17 00:00;METAR CYUL 170000Z 04007KT 20SM FEW018 FEW023 OVC047 18/14 A2956 RMK SF1SC2SC6 SLP011=
CYUL;2005-06-17 01:00;METAR CYUL 170100Z 02008KT 6SM HZ FEW023 BKN046 OVC084 17/14 A2956 RMK SC2SC5AC1 SLP012=
CYUL;2005-06-17 01:25;SPECI CYUL 170125Z 04009KT 6SM -RA HZ FEW023 BKN046 OVC086 RMK SC2SC5AC2=
CYUL;2005-06-17 01:34;SPECI CYUL 170134Z 03007KT 6SM -RA HZ FEW008 FEW023 BKN046 OVC086 RMK SF1SC2SC4AC2=
CYUL;2005-06-17 02:00;METAR CYUL 170200Z 03008KT 6SM -RA BR SCT008 BKN025 OVC050 16/14 A2957 RMK SF4SC2SC2 SLP015=
CYUL;2005-06-17 02:10;SPECI CYUL 170210Z 02007KT 5SM -RA BR BKN008 OVC025 RMK SF6SC2=
CYUL;2005-06-17 03:00;METAR CYUL 170300Z 02008KT 5SM -RA BR OVC005 15/14 A2956 RMK SF8 SLP011=
CYUL;2005-06-17 04:00;METAR CYUL 170400Z 02007KT 4SM -RA BR OVC005 15/14 A2955 RMK SF8 SLP008=
CYUL;2005-06-17 05:00;METAR CYUL 170500Z 01006KT 3SM -RA BR OVC005 15/13 A2954 RMK SF8 SLP005=
CYUL;2005-06-17 06:00;METAR CYUL 170600Z 36008KT 3SM -RA BR BKN005 OVC010 14/13 A2952 RMK SF6SF2 SLP999=
CYUL;2005-06-17 06:36;SPECI CYUL 170636Z 34006KT 2 1/2SM -RA BR BKN005 OVC010 RMK SF6SF2=
CYUL;2005-06-17 07:30;SPECI CYUL 170730Z 05008KT 3SM -RA BR BKN005 OVC012 RMK SF6SF2=
CYUL;2005-06-17 09:00;METAR CYUL 170900Z 04006KT 4SM -RA BR BKN006 OVC015 14/13 A2951 RMK SF6SC2 SLP993=
CYUL;2005-06-17 10:00;METAR CYUL 171000Z 05004KT 2 1/2SM RA BR BKN006 OVC012 14/13 A2951 RMK SF7SC1 /R24/ SLP995=
CYUL;2005-06-17 10:16;SPECI CYUL 171016Z 03007KT 3SM RA BR BKN006 OVC014 RMK SF6SC2=
CYUL;2005-06-17 11:00;METAR CYUL 171100Z 03006KT 3SM RA BR BKN007 OVC014 14/12 A2952 RMK SF5SC3 SLP997=
CYUL;2005-06-17 12:00;METAR CYUL 171200Z 03006KT 5SM -RA BR BKN007 OVC014 14/12 A2952 RMK SF6SC2 RERA SLP999=
CYUL;2005-06-17 13:00;METAR CYUL 171300Z 02007KT 4SM -RA BR BKN009 OVC014 14/12 A2953 RMK SF6SC2 SLP002=
CYUL;2005-06-17 13:40;SPECI CYUL 171340Z 03008KT 2SM -RA BR BKN006 OVC011 RMK SF6SC2=
CYUL;2005-06-17 14:00;METAR CYUL 171400Z 02008KT 2SM RA BR FEW003 BKN006 OVC012 14/12 A2954 RMK SF1SF6NS2 VIS W 1 BR SLP005=
CYUL;2005-06-17 15:17;SPECI CYUL 171517Z 35007KT 3SM RA BR FEW004 BKN007 OVC012 RMK SF2SF4NS2=
CYUL;2005-06-17 16:00;METAR CYUL 171600Z 01007KT 4SM -RA BR BKN006 OVC011 14/12 A2956 RERA RMK SF6NS2 SLP010=
CYUL;2005-06-17 16:14;SPECI CYUL 171614Z 02007KT 2SM RA BR FEW004 BKN006 OVC011 RMK SF1SF6NS2=
CYUL;2005-06-17 16:19;SPECI CYUL 171619Z 01006KT 1 1/4SM RA BR FEW004 BKN006 OVC011 RMK SF1SF6NS2=
CYUL;2005-06-17 16:51;SPECI CYUL 171651Z 02006KT 1 1/4SM -RA BR FEW003 BKN005 OVC010 RERA RMK FG1SF1SF5NS2=
CYUL;2005-06-17 17:00;METAR CYUL 171700Z 03004KT 1 3/4SM -RA BR FEW003 BKN005 OVC010 15/14 A2956 RERA RMK FG1SF1SF5NS2 SLP011=
CYUL;2005-06-17 17:17;SPECI CYUL 171717Z 13005KT 3SM -RA BR FEW004 BKN008 OVC018 RMK SF1SF5NS2 VIS W 1 BR=
CYUL;2005-06-17 17:42;SPECI CYUL 171742Z 11005KT 6SM -DZ BR SCT005 BKN010 OVC019 RMK SF3SF3ST2=
CYUL;2005-06-17 18:00;METAR CYUL 171800Z 12005KT 6SM -DZ BR FEW005 BKN012 OVC021 15/13 A2958 RMK SF2SF6ST1 VIS N 11/2 /R10/ SLP017=
CYUL;2005-06-17 18:10;SPECI CYUL 171810Z 10005KT 1 1/2SM -RA BR FEW005 BKN009 OVC015 RMK SF2SF6SC1=
CYUL;2005-06-17 18:29;SPECI CYUL 171829Z 10004KT 3SM -RA BR FEW005 BKN012 OVC020 RMK SF1SF6SC2 VIS ES 6=
CYUL;2005-06-17 18:46;SPECI CYUL 171846Z 10003KT 6SM BR FEW007 BKN018 OVC026 RMK SF1SF6SC2 CIG RAG=
CYUL;2005-06-17 19:00;METAR CYUL 171900Z 12004KT 6SM BR FEW007 BKN018 OVC024 15/13 A2960 RMK SF1SF6SC1 CIG RAG SLP023=
CYUL;2005-06-17 19:02;SPECI CYUL 171902Z 14004KT 6SM -RA BR FEW007 BKN018 OVC024 RMK SF1SF6SC1 -RA INTMT=
CYUL;2005-06-17 19:39;SPECI CYUL 171939Z 04009KT 10SM VCFG FEW008 BKN012 OVC024 RMK SF2SF5SC1 INTMT -RA=
CYUL;2005-06-17 20:00;METAR CYUL 172000Z 03012KT 10SM FEW007 BKN015 OVC028 15/13 A2961 RMK SF2SF4SC2 SLP029=
CYUL;2005-06-17 20:15;SPECI CYUL 172015Z 03012G20KT 10SM FEW006 BKN014 OVC028 RMK SF1SF6SC1=
CYUL;2005-06-17 20:25;SPECI CYUL 172025Z 04009G18KT 10SM -SHRA FEW005 BKN009 OVC022 RMK SF2SF5SC1=
CYUL;2005-06-17 20:35;SPECI CYUL 172035Z 04012KT 6SM -SHRA BR BKN006 BKN010 OVC022 RMK SF5SF2SC1 VIS ESE 10=
CYUL;2005-06-17 21:00;METAR CYUL 172100Z 04012G19KT 6SM -SHRA BR BKN006 OVC010 14/12 A2963 RMK SF6SF2 SLP036=
CYUL;2005-06-17 21:44;SPECI CYUL 172144Z 03013KT 6SM -SHRA BR FEW006 BKN010 OVC016 RMK SF2SF6SC1 -SHRA OCNL=
CYUL;2005-06-17 22:00;METAR CYUL 172200Z 03014G21KT 6SM -RA BR FEW006 BKN010 OVC018 14/12 A2965 RMK SF2SF6SC1 -RA INTMT SLP042=
CYUL;2005-06-17 23:00;METAR CYUL 172300Z 04017KT 6SM -DZ BR FEW006 BKN010 OVC018 13/11 A2967 RMK SF2SF6ST1 SLP048=
CYUL;2005-06-17 23:35;SPECI CYUL 172335Z 04018G24KT 8SM VCFG FEW007 OVC010 RMK SF2SC6=
CYUL;2005-06-17 23:46;SPECI CYUL 172346Z 04017G25KT 6SM -DZ BR FEW007 BKN010 OVC015 RMK SF2SC5ST1=
CYUL;2005-06-18 00:00;METAR CYUL 180000Z 04020G25KT 4SM -DZ BR FEW006 BKN010 OVC015 13/11 A2970 RMK SF2SC5ST1 VIS N 2 SLP057=
CYUL;2005-06-18 01:00;METAR CYUL 180100Z 04019G24KT 5SM -DZ BR FEW006 BKN010 OVC015 12/10 A2973 RMK SF2SC5ST1 CIG RAG SLP067=
CYUL;2005-06-18 01:18;SPECI CYUL 180118Z 04016G21KT 5SM -RA BR FEW006 OVC010 RMK SF2SC6=
CYUL;2005-06-18 02:00;METAR CYUL 180200Z 04016G22KT 6SM -RA BR SCT006 OVC010 12/10 A2974 RMK SF3SC5 CIG RAG SLP072=
CYUL;2005-06-18 03:00;METAR CYUL 180300Z 04017G24KT 5SM -DZ BR BKN008 OVC012 12/10 A2976 RMK SF6SC2 SLP078=
CYUL;2005-06-18 03:45;SPECI CYUL 180345Z 04017G22KT 7SM OVC009 RMK SF8=
CYUL;2005-06-18 04:00;METAR CYUL 180400Z 04016KT 8SM OVC009 12/10 A2977 RMK SF8 SLP082=
CYUL;2005-06-18 04:13;SPECI CYUL 180413Z 04012KT 6SM -DZ BR OVC009 RMK SF8=
CYUL;2005-06-18 05:00;METAR CYUL 180500Z 04014KT 5SM -DZ BR OVC009 11/10 A2979 RMK SF8 SLP087=
CYUL;2005-06-18 06:00;METAR CYUL 180600Z 02014KT 4SM -DZ BR OVC008 11/10 A2979 RMK SF8 SLP089=
CYUL;2005-06-18 07:00;METAR CYUL 180700Z 03014G20KT 4SM -DZ BR OVC009 11/09 A2980 RMK SF8 SLP091=
CYUL;2005-06-18 08:00;METAR CYUL 180800Z 03011KT 6SM -DZ BR OVC009 11/09 A2981 RMK SF8 SLP096=
CYUL;2005-06-18 08:35;SPECI CYUL 180835Z 03013KT 8SM OVC011 RMK SF8=
CYUL;2005-06-18 09:00;METAR CYUL 180900Z 02010G17KT 15SM OVC014 11/09 A2984 RMK SC8 SLP104=
CYUL;2005-06-18 09:50;SPECI CYUL 180950Z 03010G17KT 15SM BKN016 BKN022 OVC060 RMK SC6SC1SC1=
CYUL;2005-06-18 10:00;METAR CYUL 181000Z 03013KT 15SM BKN016 OVC060 11/09 A2987 RMK SC6SC1 SLP114=
CYUL;2005-06-18 10:40;SPECI CYUL 181040Z 03011KT 15SM FEW009 BKN014 OVC022 RMK SF1SC6SC1=
CYUL;2005-06-18 11:00;METAR CYUL 181100Z 03009KT 15SM FEW010 OVC015 12/09 A2989 RMK SF1SC7 SLP121=
CYUL;2005-06-18 12:00;METAR CYUL 181200Z 04011KT 15SM OVC014 12/09 A2991 RMK SC8 SLP128=
CYUL;2005-06-18 13:00;METAR CYUL 181300Z 03013KT 15SM OVC015 12/09 A2992 RMK SC8 SLP134=
CYUL;2005-06-18 14:00;METAR CYUL 181400Z 02011G17KT 15SM FEW013 OVC015 13/09 A2994 RMK SF2SC6 SLP139=
CYUL;2005-06-18 15:00;METAR CYUL 181500Z 02013KT 15SM FEW013 BKN017 OVC025 13/09 A2996 RMK SF1SC6SC1 SLP148=
CYUL;2005-06-18 16:00;METAR CYUL 181600Z 01013G18KT 15SM FEW014 BKN019 OVC030 14/09 A2998 RMK SF1SC6SC1 SLP153=
CYUL;2005-06-18 18:00;METAR CYUL 181800Z 02007G15KT 15SM FEW020 BKN032 OVC048 15/09 A3000 RMK CF2SC6SC1 SLP161=
CYUL;2005-06-18 20:00;METAR CYUL 182000Z 04011G16KT 15SM FEW027 SCT031 OVC048 16/09 A3002 RMK CF2SC2SC4 SLP168=
CYUL;2005-06-18 21:00;METAR CYUL 182100Z 02011KT 15SM BKN030 OVC048 15/10 A3004 RMK SC6SC2 CF ASOCT SLP175=
CYUL;2005-06-18 22:00;METAR CYUL 182200Z 02009KT 15SM BKN028 OVC045 16/10 A3005 RMK SC6SC2 SLP177=
CYUL;2005-06-18 23:00;METAR CYUL 182300Z 03005KT 15SM FEW022 BKN042 OVC058 15/10 A3008 RMK CF2SC4SC2 SLP186=
CYUL;2005-06-19 00:00;METAR CYUL 190000Z 04005KT 15SM FEW022 SCT034 OVC058 16/10 A3009 RMK CF1SC2SC5 SLP191=
CYUL;2005-06-19 01:00;METAR CYUL 190100Z 04005KT 15SM FEW015 FEW028 BKN046 BKN058 15/10 A3011 RMK SF1SC2SC3SC1 SLP196=
CYUL;2005-06-19 02:00;METAR CYUL 190200Z 06006KT 15SM FEW025 SCT035 OVC045 15/10 A3013 RMK CF1SC2SC5 SLP204=
CYUL;2005-06-19 04:00;METAR CYUL 190400Z 04005KT 15SM FEW025 BKN045 14/10 A3015 RMK CF1SC7 SLP212=
CYUL;2005-06-19 05:00;METAR CYUL 190500Z 02004KT 15SM FEW020 BKN045 14/11 A3016 RMK CF1SC6 SLP215=
CYUL;2005-06-19 06:00;METAR CYUL 190600Z 05007KT 15SM FEW020 BKN042 14/09 A3016 RMK SC1SC7 SLP214=
CYUL;2005-06-19 07:00;METAR CYUL 190700Z 04007KT 15SM BKN045 13/08 A3017 RMK SC6 SLP217=
CYUL;2005-06-19 08:00;METAR CYUL 190800Z 04007KT 15SM FEW042 12/08 A3017 RMK SC2 SLP217=
CYUL;2005-06-19 09:00;METAR CYUL 190900Z 03006KT 15SM BKN042 12/09 A3019 RMK SC7 SLP224=
CYUL;2005-06-19 10:00;METAR CYUL 191000Z 03006KT 15SM BKN038 12/09 A3021 RMK SC4 SLP232=
CYUL;2005-06-19 11:00;METAR CYUL 191100Z 07005KT 15SM BKN038 14/09 A3023 RMK SC7 SLP239=
CYUL;2005-06-19 12:00;METAR CYUL 191200Z 07007KT 15SM BKN037 14/08 A3025 RMK SC5 SLP245=
CYUL;2005-06-19 13:00;METAR CYUL 191300Z 03007KT 30SM FEW025 BKN037 16/08 A3027 RMK CU1SC6 SLP253=
CYUL;2005-06-19 14:00;METAR CYUL 191400Z 04010KT 30SM SCT030 17/09 A3028 RMK CU4 SLP254=
CYUL;2005-06-19 15:00;METAR CYUL 191500Z 02004KT 30SM BKN035 17/09 A3027 RMK CU5 SLP252=
CYUL;2005-06-19 16:00;METAR CYUL 191600Z 04002KT 30SM BKN040 19/10 A3027 RMK CU5 SLP250=
CYUL;2005-06-19 17:00;METAR CYUL 191700Z 16003KT 30SM FEW040 19/10 A3025 RMK CU2 SLP246=
CYUL;2005-06-19 18:00;METAR CYUL 191800Z 14002KT 30SM FEW040 20/09 A3024 RMK CU2 SLP240=
CYUL;2005-06-19 19:00;METAR CYUL 191900Z 25006KT 30SM FEW050 21/10 A3023 RMK CU2 SLP239=
CYUL;2005-06-19 21:00;METAR CYUL 192100Z 21007KT 30SM FEW050 21/10 A3021 RMK CU1 SLP231=
CYUL;2005-06-19 22:00;METAR CYUL 192200Z 23010KT 30SM FEW045 21/11 A3021 RMK CU1 SLP231=
CYUL;2005-06-19 23:00;METAR CYUL 192300Z 22007KT 30SM FEW045 21/11 A3021 RMK CU1 SLP232=
CYUL;2005-06-20 00:00;METAR CYUL 200000Z 22006KT 30SM FEW240 20/11 A3022 RMK CI0 SLP232=
CYUL;2005-06-20 04:00;METAR CYUL 200400Z 29002KT 15SM SKC 15/12 A3023 RMK SLP237=
CYUL;2005-06-20 05:00;METAR CYUL 200500Z 24002KT 15SM SKC 16/12 A3022 RMK SLP236=
CYUL;2005-06-20 06:00;METAR CYUL 200600Z 23002KT 15SM SKC 14/11 A3022 RMK SLP236=
CYUL;2005-06-20 07:00;METAR CYUL 200700Z 22003KT 15SM SKC 15/12 A3023 RMK SLP239=
CYUL;2005-06-20 09:00;METAR CYUL 200900Z 21005KT 15SM FEW240 14/12 A3023 RMK CI1 SLP236=
CYUL;2005-06-20 10:00;METAR CYUL 201000Z 23004KT 15SM FEW010 BKN240 14/11 A3024 RMK SF1CI1 SLP240=
CYUL;2005-06-20 11:00;METAR CYUL 201100Z 23007KT 15SM FEW010 BKN240 15/13 A3023 RMK SF1CI1 SLP238=
CYUL;2005-06-20 12:00;METAR CYUL 201200Z 22006KT 30SM FEW010 BKN240 16/13 A3024 RMK SF1CI1 SLP239=
CYUL;2005-06-20 13:00;METAR CYUL 201300Z 20007KT 30SM FEW015 FEW240 17/13 A3023 RMK CF1CI0 SLP237=
CYUL;2005-06-20 14:00;METAR CYUL 201400Z 26011KT 30SM FEW025 FEW240 18/12 A3023 RMK CF1CI0 SLP236=
CYUL;2005-06-20 15:00;METAR CYUL 201500Z 22010G15KT 30SM FEW030 SCT240 20/13 A3020 RMK CU2CI0 SLP227=
CYUL;2005-06-20 16:00;METAR CYUL 201600Z 21012G17KT 30SM FEW030 BKN240 21/14 A3019 RMK CU2CI0 SLP225=
CYUL;2005-06-20 17:00;METAR CYUL 201700Z 21014KT 30SM FEW030 BKN240 22/13 A3018 RMK CU2CI0 SLP219=
CYUL;2005-06-20 18:00;METAR CYUL 201800Z 22014KT 30SM FEW035 BKN240 23/14 A3016 RMK CU2CI0 SLP212=
CYUL;2005-06-20 19:00;METAR CYUL 201900Z 22013KT 30SM FEW035 SCT240 23/14 A3013 RMK CU1CI1 SLP202=
CYUL;2005-06-20 20:00;METAR CYUL 202000Z 23015KT 30SM FEW035 FEW240 25/14 A3010 RMK CU1CI0 SLP194=
CYUL;2005-06-20 21:00;METAR CYUL 202100Z 23015KT 30SM FEW040 FEW240 25/15 A3008 RMK CF1CI1 SLP187=
CYUL;2005-06-20 22:00;METAR CYUL 202200Z 23018G24KT 30SM FEW040 FEW240 25/14 A3006 RMK CF1CI1 SLP181=
CYUL;2005-06-20 23:00;METAR CYUL 202300Z 24017KT 30SM FEW240 24/14 A3005 RMK CI1 SLP176=
CYUL;2005-06-21 00:00;METAR CYUL 210000Z 23011G16KT 30SM FEW240 23/14 A3004 RMK CI1 SLP174=
CYUL;2005-06-21 01:00;METAR CYUL 210100Z 23012KT 15SM FEW240 22/13 A3003 RMK CI0 SLP171=
CYUL;2005-06-21 02:00;METAR CYUL 210200Z 24013KT 15SM FEW240 21/12 A3004 RMK CI1 SLP172=
CYUL;2005-06-21 03:00;METAR CYUL 210300Z 25012G21KT 15SM FEW240 21/13 A3003 RMK CI0 SLP170=
CYUL;2005-06-21 04:00;METAR CYUL 210400Z 23008KT 15SM FEW240 20/14 A3002 RMK CI0 SLP166=
CYUL;2005-06-21 05:00;METAR CYUL 210500Z 23009KT 15SM FEW240 19/14 A3001 RMK CI0 SLP162=
CYUL;2005-06-21 06:00;METAR CYUL 210600Z 23012KT 15SM FEW240 19/14 A3000 RMK CI1 SLP159=
CYUL;2005-06-21 07:00;METAR CYUL 210700Z 25008KT 15SM FEW240 18/14 A2999 RMK CI1 SLP156=
CYUL;2005-06-21 08:00;METAR CYUL 210800Z 25008KT 15SM SKC 18/14 A2998 RMK SLP154=
CYUL;2005-06-21 09:00;METAR CYUL 210900Z 24010KT 15SM SKC 17/13 A2998 RMK SLP151=
CYUL;2005-06-21 10:00;METAR CYUL 211000Z 27005KT 12SM SKC 17/14 A2996 RMK SLP147=
CYUL;2005-06-21 12:00;METAR CYUL 211200Z 23011KT 12SM SKC 19/15 A2995 RMK SLP143=
CYUL;2005-06-21 13:00;METAR CYUL 211300Z 22015KT 12SM SKC 21/15 A2994 RMK SLP139=
CYUL;2005-06-21 14:00;METAR CYUL 211400Z 22012G17KT 15SM SKC 22/16 A2992 RMK SLP132=
CYUL;2005-06-21 15:00;METAR CYUL 211500Z 23014G19KT 15SM SKC 23/16 A2990 RMK SLP127=
CYUL;2005-06-21 16:00;METAR CYUL 211600Z 22011G19KT 15SM SKC 25/17 A2988 RMK SLP119=
CYUL;2005-06-21 17:00;METAR CYUL 211700Z 22014KT 15SM FEW035 FEW240 26/17 A2986 RMK CF1CI1 SLP112=
CYUL;2005-06-21 18:00;METAR CYUL 211800Z 23015KT 15SM FEW040 SCT240 26/17 A2984 RMK CU2CI1 SLP105=
CYUL;2005-06-21 19:00;METAR CYUL 211900Z 23016KT 15SM SCT040 BKN090 BKN220 27/17 A2982 RMK CU3AC2CI0 SLP099=
CYUL;2005-06-21 21:00;METAR CYUL 212100Z 23016G21KT 15SM SCT045 BKN100 OVC220 27/17 A2978 RMK CU3AC3CI0 SLP086=
CYUL;2005-06-21 22:00;METAR CYUL 212200Z 24017G22KT 15SM BKN040 BKN110 OVC220 27/17 A2977 RMK CU5AC2CI0 SLP083=
CYUL;2005-06-21 23:00;METAR CYUL 212300Z 25019KT 12SM BKN045 OVC150 25/17 A2978 RMK CU5AC3 SLP085=
CYUL;2005-06-22 00:00;METAR CYUL 220000Z 25014G22KT 12SM FEW050 OVC140 24/18 A2978 RMK CU2AC6 TCU ASOCT SLP086=
CYUL;2005-06-22 00:30;SPECI CYUL 220030Z 25015KT 12SM -SHRA FEW050 OVC110 RMK CU2AC6 TCU ASOCT=
CYUL;2005-06-22 01:00;METAR CYUL 220100Z 26011KT 12SM FEW050 OVC120 21/18 A2978 RMK CU2AC6 SLP084=
CYUL;2005-06-22 01:15;SPECI CYUL 220115Z 27013KT 12SM -SHRA FEW050 OVC110 RMK CU2AC6=
CYUL;2005-06-22 02:00;METAR CYUL 220200Z 27008KT 10SM -SHRA SCT044 OVC100 21/18 A2980 RMK SC3AC5 SLP093=
CYUL;2005-06-22 02:20;SPECI CYUL 220220Z 28011G17KT 5SM -TSRA BKN032CB OVC080 RMK CB6AC2 LTGCG=
CYUL;2005-06-22 03:00;METAR CYUL 220300Z 25009KT 8SM -SHRA FEW010 BKN035CB OVC090 21/18 A2982 RETS RMK SF2CB3AC3 SLP098=
CYUL;2005-06-22 03:46;SPECI CYUL 220346Z 25009KT 10SM FEW010 FEW035CB OVC095 RMK SF1CB2AC6=
CYUL;2005-06-22 04:00;METAR CYUL 220400Z 27006KT 10SM FEW010 FEW035 OVC100 20/18 A2984 RMK SF1SC2AC6 SLP105=
CYUL;2005-06-22 04:32;SPECI CYUL 220432Z 25007KT 8SM -SHRA FEW010 FEW035 OVC100 RMK SF1SC1AC6=
CYUL;2005-06-22 05:00;METAR CYUL 220500Z 26005KT 8SM -SHRA FEW010 FEW035 OVC095 20/18 A2985 RMK SF1SC1AC6 SLP108=
CYUL;2005-06-22 05:25;SPECI CYUL 220525Z 27006KT 10SM FEW035 BKN095 OVC130 RMK SC1AC5AC2=
CYUL;2005-06-22 06:00;METAR CYUL 220600Z 31004KT 15SM FEW040 BKN100 BKN130 19/18 A2987 RMK SC2AC4AC2 SLP114=
CYUL;2005-06-22 09:00;METAR CYUL 220900Z 02012KT 15SM FEW060 FEW120 SCT240 16/09 A2992 RMK SC1AC1CI1 SLP132=
CYUL;2005-06-22 10:00;METAR CYUL 221000Z 02014KT 15SM FEW060 FEW120 FEW240 15/08 A2994 RMK SC1AC1CI1 SLP139=
CYUL;2005-06-22 12:00;METAR CYUL 221200Z 01011G18KT 30SM FEW030 FEW120 FEW240 15/06 A2998 RMK CU1AC1CI1 SLP154=
CYUL;2005-06-22 13:00;METAR CYUL 221300Z 02005KT 30SM FEW040 FEW120 FEW240 16/06 A3000 RMK CU1AC1CI1 SLP161=
CYUL;2005-06-22 14:00;METAR CYUL 221400Z 34009KT 30SM FEW040 FEW120 FEW240 16/06 A3001 RMK CU1AC1CI1 SLP163=
CYUL;2005-06-22 15:00;METAR CYUL 221500Z 01005KT 30SM FEW028 FEW045 FEW110 17/06 A3001 RMK CF1CU1AC1 SLP163=
CYUL;2005-06-22 16:00;METAR CYUL 221600Z 36008KT 30SM FEW052 18/06 A3002 RMK CU1 CF ASOCT SLP165=
CYUL;2005-06-22 17:00;METAR CYUL 221700Z 32009KT 30SM FEW054 20/07 A3000 RMK CF1 SLP161=
CYUL;2005-06-22 18:00;METAR CYUL 221800Z 36006KT 30SM FEW062 21/07 A3000 RMK CF2 SLP158=
CYUL;2005-06-22 19:00;METAR CYUL 221900Z 31008G18KT 30SM FEW065 22/07 A2999 RMK CF2 SLP156=
CYUL;2005-06-22 20:00;METAR CYUL 222000Z 36009KT 30SM FEW065 FEW072 22/05 A2999 RMK CF2AC1 SLP157=
CYUL;2005-06-22 21:00;METAR CYUL 222100Z 34007KT 30SM FEW065 FEW078 22/05 A2999 RMK CF1ACC1 SLP156=
CYUL;2005-06-22 22:00;METAR CYUL 222200Z 01010G16KT 30SM FEW065 FEW082 22/05 A3000 RMK CF1AC1 ACC ASOCT SLP159=
CYUL;2005-06-22 23:00;METAR CYUL 222300Z 36009KT 30SM FEW082 FEW230 21/05 A3001 RMK AC1CI1 SLP164=
CYUL;2005-06-23 00:00;METAR CYUL 230000Z 01006KT 30SM FEW082 FEW230 20/05 A3003 RMK AC1CI1 SLP170=
CYUL;2005-06-23 02:00;METAR CYUL 230200Z 01004KT 15SM FEW100 18/05 A3007 RMK AC1 SLP182=
CYUL;2005-06-23 03:00;METAR CYUL 230300Z 33003KT 15SM SKC 15/06 A3007 RMK SLP183=
CYUL;2005-06-23 04:00;METAR CYUL 230400Z 31005KT 15SM FEW120 14/07 A3009 RMK AC1 SLP190=
CYUL;2005-06-23 05:00;METAR CYUL 230500Z 35002KT 15SM SKC 14/07 A3010 RMK SLP193=
CYUL;2005-06-23 06:00;METAR CYUL 230600Z 36003KT 15SM SKC 13/07 A3010 RMK SLP194=
CYUL;2005-06-23 07:00;METAR CYUL 230700Z 33002KT 15SM SKC 11/07 A3010 RMK SLP192=
CYUL;2005-06-23 08:00;METAR CYUL 230800Z 33003KT 15SM FEW240 10/07 A3010 RMK CI1 SLP192=
CYUL;2005-06-23 09:00;METAR CYUL 230900Z 34002KT 30SM FEW240 10/07 A3011 RMK CI1 SLP196=
CYUL;2005-06-23 10:00;METAR CYUL 231000Z 00000KT 30SM FEW240 10/07 A3012 RMK CI1 SLP200=
CYUL;2005-06-23 11:00;METAR CYUL 231100Z 26004KT 30SM FEW240 13/08 A3013 RMK CI0 SLP204=
CYUL;2005-06-23 12:00;METAR CYUL 231200Z 24003KT 30SM FEW240 15/07 A3014 RMK CI1 SLP206=
CYUL;2005-06-23 13:00;METAR CYUL 231300Z 21007KT 30SM SCT240 17/10 A3014 RMK CI1 SLP205=
CYUL;2005-06-23 14:00;METAR CYUL 231400Z 22008KT 30SM BKN250 18/12 A3013 RMK CI1 SLP204=
CYUL;2005-06-23 15:00;METAR CYUL 231500Z 20009KT 30SM FEW130 SCT180 BKN250 20/11 A3012 RMK AC1AS0CI2 SLP199=
CYUL;2005-06-23 16:00;METAR CYUL 231600Z 25012KT 30SM FEW058 FEW120 SCT180 OVC240 21/10 A3011 RMK CF1AC1AC2CI2 SLP196=
CYUL;2005-06-23 17:00;METAR CYUL 231700Z 21012KT 30SM FEW052 FEW120 SCT180 OVC240 21/09 A3010 RMK CU1AC2AC2CI1 SLP193=
CYUL;2005-06-23 18:00;METAR CYUL 231800Z 21011KT 30SM FEW054 FEW120 FEW180 OVC240 22/09 A3008 RMK CF1AC1AC2CI3 SLP188=
CYUL;2005-06-23 19:00;METAR CYUL 231900Z 27011G16KT 30SM FEW054 FEW150 BKN180 OVC210 21/08 A3008 RMK CF1AC2AC5CI1 SLP187=
CYUL;2005-06-23 20:00;METAR CYUL 232000Z 27010G15KT 30SM FEW088 BKN110 OVC150 21/09 A3007 RMK AC1AS6AC1 SLP183=
CYUL;2005-06-23 20:20;SPECI CYUL 232020Z 25008KT 30SM -RA FEW085 BKN100 OVC150 RMK AC1AS6AC1=
CYUL;2005-06-23 21:00;METAR CYUL 232100Z 25006KT 30SM -RA FEW058 BKN084 BKN100 OVC150 20/10 A3006 RMK SC1AS5AC2AC1 SLP180=
CYUL;2005-06-23 22:29;SPECI CYUL 232229Z 24007KT 15SM FEW050 SCT085 BKN110 OVC180 RMK SC1AS2AC3AC2=
CYUL;2005-06-23 22:53;SPECI CYUL 232253Z 21006KT 15SM -RA SCT085 BKN110 OVC180 RMK AS3AC4AC1=
CYUL;2005-06-23 23:00;METAR CYUL 232300Z 21006KT 15SM -RA SCT085 BKN110 OVC180 20/12 A3004 RMK AS3AC4AC1 -RA INTMT SLP173=
CYUL;2005-06-24 00:00;METAR CYUL 240000Z 21008KT 30SM -RA FEW090 BKN100 OVC150 19/12 A3003 RMK AC1AC5AC2 -RA INTMT SLP169=
CYUL;2005-06-24 01:00;METAR CYUL 240100Z 22007KT 30SM -RA BKN100 BKN150 OVC240 20/13 A3003 RMK AC6AC1CI1 -RA INTMT SLP169=
CYUL;2005-06-24 01:18;SPECI CYUL 240118Z 20009KT 15SM BKN100 BKN150 BKN240 RMK AC6AC1CI0=
CYUL;2005-06-24 04:00;METAR CYUL 240400Z 22008KT 15SM BKN100 19/11 A3001 RMK AC6 SLP164=
CYUL;2005-06-24 05:00;METAR CYUL 240500Z 22007KT 15SM BKN100 19/11 A3000 RMK AC5 SLP161=
CYUL;2005-06-24 06:00;METAR CYUL 240600Z 23008KT 15SM FEW080 FEW140 19/10 A3000 RMK AC2AC1 SLP160=
CYUL;2005-06-24 09:00;METAR CYUL 240900Z 26003KT 30SM FEW150 BKN240 16/10 A3002 RMK AC1CI2 SLP165=
CYUL;2005-06-24 10:00;METAR CYUL 241000Z 21007KT 30SM FEW120 OVC250 18/11 A3000 RMK AC1CI2 SLP160=
CYUL;2005-06-24 11:00;METAR CYUL 241100Z 17007KT 30SM FEW120 BKN250 18/11 A2998 RMK AC1CI2 SLP152=
CYUL;2005-06-24 12:00;METAR CYUL 241200Z 23010KT 30SM FEW080 SCT120 OVC220 20/12 A3001 RMK AC2AC1CI2 SLP162=
CYUL;2005-06-24 13:00;METAR CYUL 241300Z 20010G15KT 30SM SCT080 BKN160 OVC210 21/12 A2997 RMK AC3AS3CS1 SLP150=
CYUL;2005-06-24 14:00;METAR CYUL 241400Z 20010KT 30SM FEW080 FEW120 OVC210 22/14 A2996 RMK AC1AC2CI6 SLP145=
CYUL;2005-06-24 15:00;METAR CYUL 241500Z 20009KT 30SM FEW080 BKN140 BKN190 OVC220 23/14 A2994 RMK AC1AC5AS2CI1 SLP140=
CYUL;2005-06-24 16:00;METAR CYUL 241600Z 22008KT 30SM BKN073 BKN140 OVC190 24/14 A2994 RMK AC5AC1AS2 SLP140=
CYUL;2005-06-24 17:00;METAR CYUL 241700Z 22012G17KT 20SM FEW070 FEW150 BKN210 OVC250 26/15 A2992 RMK AC1AC2CS1CI2 SLP133=
CYUL;2005-06-24 18:00;METAR CYUL 241800Z 22012G17KT 15SM FEW062 FEW110 SCT210 BKN250 27/16 A2991 RMK CF1AC1CS0CI2 SLP128=
CYUL;2005-06-24 19:00;METAR CYUL 241900Z 23017G23KT 15SM FEW063 SCT180 BKN240 28/15 A2989 RMK SC2AC1CI0 CF ASOCT SLP121=
CYUL;2005-06-24 20:00;METAR CYUL 242000Z 23018G28KT 12SM FEW180 BKN210 OVC260 29/16 A2987 RMK AC1CS0CI2 HZ SLP116=
CYUL;2005-06-24 21:00;METAR CYUL 242100Z 23021G30KT 10SM FEW060 FEW100 BKN260 29/16 A2986 RMK CF1AC1CI1 HZ SLP111=
CYUL;2005-06-24 22:00;METAR CYUL 242200Z 23021G31KT 15SM FEW065 FEW150 SCT280 29/16 A2984 RMK CU1AC1CI1 SLP106=
CYUL;2005-06-24 23:00;METAR CYUL 242300Z 24019KT 15SM SCT280 29/16 A2985 RMK CI1 SLP109=
CYUL;2005-06-25 00:00;METAR CYUL 250000Z 24017G24KT 15SM FEW240 SCT300 28/16 A2985 RMK CI1CI1 SLP108=
CYUL;2005-06-25 01:00;METAR CYUL 250100Z 24014G19KT 12SM FEW090 BKN260 27/16 A2985 RMK AC1CI2 SLP108=
CYUL;2005-06-25 02:00;METAR CYUL 250200Z 24020G28KT 15SM SCT250 27/16 A2986 RMK CI1 SLP111=
CYUL;2005-06-25 03:00;METAR CYUL 250300Z 24014KT 15SM BKN180 BKN250 27/15 A2987 RMK AC3CI1 SLP116=
CYUL;2005-06-25 04:00;METAR CYUL 250400Z 25014KT 15SM SCT180 SCT250 27/16 A2988 RMK AC2CI1 SLP119=
CYUL;2005-06-25 05:00;METAR CYUL 250500Z 23012G21KT 15SM FEW180 SCT250 26/16 A2988 RMK AC1CI1 SLP119=
CYUL;2005-06-25 06:00;METAR CYUL 250600Z 25012G20KT 15SM FEW250 25/16 A2988 RMK CI0 SLP119=
CYUL;2005-06-25 07:00;METAR CYUL 250700Z 25013KT 15SM FEW250 24/16 A2989 RMK CI0 SLP121=
CYUL;2005-06-25 08:00;METAR CYUL 250800Z 25010G15KT 15SM FEW250 24/16 A2988 RMK CI0 SLP117=
CYUL;2005-06-25 10:00;METAR CYUL 251000Z 26008KT 15SM FEW090 SCT240 24/17 A2988 RMK AC1CI0 SLP119=
CYUL;2005-06-25 11:00;METAR CYUL 251100Z 26007KT 12SM FEW080 SCT240 25/18 A2990 RMK AC1CI0 SLP125=
CYUL;2005-06-25 12:00;METAR CYUL 251200Z 26013KT 12SM FEW080 SCT240 25/18 A2991 RMK AC2CI0 SLP128=
CYUL;2005-06-25 13:00;METAR CYUL 251300Z 25013G18KT 10SM FEW080 SCT240 26/18 A2991 RMK AC1CI0 SLP129=
CYUL;2005-06-25 14:00;METAR CYUL 251400Z 25008KT 8SM FEW180 FEW240 27/19 A2991 RMK AC1CI0 HZ SLP127=
CYUL;2005-06-25 16:00;METAR CYUL 251600Z 23014KT 6SM HZ FEW160 SCT220 28/20 A2990 RMK AS0CI0 SLP123=
CYUL;2005-06-25 17:00;METAR CYUL 251700Z 22012KT 6SM HZ FEW160 SCT220 30/20 A2989 RMK AS0CI0 SLP121=
CYUL;2005-06-25 18:00;METAR CYUL 251800Z 24012KT 6SM HZ FEW038 FEW220 31/21 A2989 RMK CU1CI0 TCU ASOCT NW SLP120=
CYUL;2005-06-25 19:00;METAR CYUL 251900Z 22013KT 6SM HZ FEW038 FEW062 SCT150 31/21 A2987 RMK CU1SC2AS0 SLP113=
CYUL;2005-06-25 19:12;SPECI CYUL 251912Z 22014G19KT 6SM TS HZ FEW038 SCT060 BKN150 RMK CU1SC3AS0 CB ASOCT LTNG NW=
CYUL;2005-06-25 19:29;SPECI CYUL 251929Z 23016G24KT 5SM HZ FEW038 FEW060 BKN160 RETS RMK CU1SC2AC2 CB EMBD N QUAD=
CYUL;2005-06-25 19:54;SPECI CYUL 251954Z 25017G24KT 5SM -SHRA HZ BKN060 BKN120 RETS RMK SC5AC1=
CYUL;2005-06-25 20:00;METAR CYUL 252000Z 26018G24KT 5SM -SHRA HZ BKN060 BKN120 31/21 A2988 RETS RMK SC5AC1 SLP118=
CYUL;2005-06-25 20:39;SPECI CYUL 252039Z 28008KT 6SM HZ BKN060 OVC140 RMK SC5AC3=
CYUL;2005-06-25 21:00;METAR CYUL 252100Z 30006KT 8SM -SHRA SCT058 SCT090 OVC140 28/20 A2990 RMK SC3AC1AC4 HZ SLP123=
CYUL;2005-06-25 21:18;SPECI CYUL 252118Z 32007G16KT 8SM FEW058 SCT090 BKN140 OVC180 RMK SC2ACC2AC3AS1=
CYUL;2005-06-25 22:00;METAR CYUL 252200Z 27010KT 10SM FEW055 FEW090 SCT140 BKN180 OVC220 27/21 A2990 RMK CU1ACC1AC2AS2CC1 SLP124=
CYUL;2005-06-26 00:00;METAR CYUL 260000Z 28009KT 6SM HZ FEW100 FEW150 OVC250 27/20 A2992 RMK AC1AC1CI3 SLP131=
CYUL;2005-06-26 01:00;METAR CYUL 260100Z 28005KT 6SM HZ FEW042 FEW110 BKN150 OVC250 26/21 A2994 RMK CF1AC2AC4CI1 SLP138=
CYUL;2005-06-26 02:00;METAR CYUL 260200Z 29004KT 8SM FEW040 FEW110 BKN160 OVC240 25/21 A2995 RMK CF1AC2AC3CI0 SLP143=
CYUL;2005-06-26 03:00;METAR CYUL 260300Z 29005KT 8SM FEW045 FEW110 BKN160 OVC240 24/21 A2997 RMK CF1AC2AC3CI0 SLP150=
CYUL;2005-06-26 04:00;METAR CYUL 260400Z 26004KT 12SM FEW110 BKN240 24/21 A2998 RMK AC2CI0 SLP154=
CYUL;2005-06-26 05:00;METAR CYUL 260500Z 00000KT 12SM FEW110 SCT240 22/20 A2999 RMK AC1CI0 SLP156=
CYUL;2005-06-26 06:00;METAR CYUL 260600Z 22002KT 12SM FEW240 22/20 A3000 RMK CI0 SLP158=
CYUL;2005-06-26 08:00;METAR CYUL 260800Z 33004KT 2SM HZ SCT240 20/19 A3002 RMK CI0 SLP166=
CYUL;2005-06-26 10:00;METAR CYUL 261000Z 02004KT 15SM FEW150 BKN240 20/16 A3008 RMK AC2CI0 SLP185=
CYUL;2005-06-26 11:00;METAR CYUL 261100Z 03005KT 15SM FEW150 BKN240 22/16 A3009 RMK AC2CI0 SLP190=
CYUL;2005-06-26 12:00;METAR CYUL 261200Z 04007KT 15SM FEW150 BKN240 23/14 A3011 RMK AC2CI0 SLP196=
CYUL;2005-06-26 13:00;METAR CYUL 261300Z 06007KT 15SM FEW150 BKN240 25/14 A3012 RMK AC2CI0 SLP199=
CYUL;2005-06-26 14:00;METAR CYUL 261400Z 03005KT 15SM FEW150 BKN240 26/16 A3011 RMK AC1CI2 SLP198=
CYUL;2005-06-26 15:00;METAR CYUL 261500Z 00000KT 15SM BKN150 BKN220 27/17 A3012 RMK AC4CI1 CC ASOCT SLP199=
CYUL;2005-06-26 16:00;METAR CYUL 261600Z 02004KT 15SM SCT160 BKN180 BKN220 28/17 A3013 RMK AC4AC1CI1 SLP202=
CYUL;2005-06-26 17:00;METAR CYUL 261700Z 00000KT 15SM FEW060 BKN150 BKN220 29/16 A3012 RMK CU1AC5CI2 SLP201=
CYUL;2005-06-26 18:00;METAR CYUL 261800Z 07005KT 15SM FEW060 SCT150 BKN220 29/13 A3012 RMK CU1AC4CI2 CB ASOCT SSE SLP201=
CYUL;2005-06-26 19:00;METAR CYUL 261900Z 08007G15KT 15SM FEW060 SCT150 BKN220 30/16 A3013 RMK CF1AC3CI2 SLP202=
CYUL;2005-06-26 20:00;METAR CYUL 262000Z 05007KT 15SM FEW060 FEW150 BKN200 29/14 A3013 RMK CU1AC1CI7 SLP203=
CYUL;2005-06-26 21:00;METAR CYUL 262100Z 07005KT 15SM FEW055 FEW180 BKN220 29/16 A3012 RMK CU1AC1CI6 SLP201=
CYUL;2005-06-26 22:00;METAR CYUL 262200Z 07006KT 15SM FEW055 SCT180 BKN220 29/16 A3013 RMK CU1AC4CI2 SLP202=
CYUL;2005-06-26 23:00;METAR CYUL 262300Z 07005KT 15SM FEW180 BKN220 28/17 A3013 RMK AC1CI6 SLP204=
CYUL;2005-06-27 00:00;METAR CYUL 270000Z 07006KT 15SM FEW180 BKN240 28/17 A3014 RMK AC1CI2 CC ASOCT SLP206=
CYUL;2005-06-27 01:00;METAR CYUL 270100Z 05007KT 12SM FEW180 SCT240 27/19 A3015 RMK AC1CI1 SLP210=
CYUL;2005-06-27 02:00;METAR CYUL 270200Z 05006KT 15SM FEW180 FEW240 26/18 A3016 RMK AC1CI0 SLP213=
CYUL;2005-06-27 03:00;METAR CYUL 270300Z 04004KT 15SM FEW180 FEW240 26/18 A3016 RMK AC1CI0 SLP213=
CYUL;2005-06-27 04:00;METAR CYUL 270400Z 04005KT 15SM FEW180 FEW240 24/18 A3017 RMK AC1CI0 SLP216=
CYUL;2005-06-27 05:00;METAR CYUL 270500Z 36007KT 15SM SKC 23/18 A3017 RMK SLP217=
CYUL;2005-06-27 06:00;METAR CYUL 270600Z 03006KT 15SM SKC 21/17 A3016 RMK SLP214=
CYUL;2005-06-27 07:00;METAR CYUL 270700Z 02004KT 15SM SKC 21/17 A3015 RMK SLP211=
CYUL;2005-06-27 08:00;METAR CYUL 270800Z 02006KT 15SM SKC 19/16 A3015 RMK SLP209=
CYUL;2005-06-27 10:00;METAR CYUL 271000Z 02007KT 15SM FEW180 19/15 A3018 RMK AC1 SLP220=
CYUL;2005-06-27 11:00;METAR CYUL 271100Z 02008KT 15SM FEW180 20/15 A3019 RMK AC0 SLP222=
CYUL;2005-06-27 12:00;METAR CYUL 271200Z 02008KT 15SM SKC 20/15 A3020 RMK SLP226=
CYUL;2005-06-27 13:00;METAR CYUL 271300Z 01006KT 15SM FEW180 22/16 A3020 RMK AC1 SLP228=
CYUL;2005-06-27 14:00;METAR CYUL 271400Z 02005KT 15SM FEW150 24/17 A3020 RMK AC1 SLP226=
CYUL;2005-06-27 15:00;METAR CYUL 271500Z 07004KT 15SM SKC 26/17 A3019 RMK SLP223=
CYUL;2005-06-27 16:00;METAR CYUL 271600Z 19004KT 12SM SKC 28/19 A3018 RMK SLP221=
CYUL;2005-06-27 17:00;METAR CYUL 271700Z 21004KT 12SM SKC 29/19 A3017 RMK SLP217=
CYUL;2005-06-27 18:00;METAR CYUL 271800Z 19006KT 12SM SKC 30/19 A3015 RMK SLP210=
CYUL;2005-06-27 19:00;METAR CYUL 271900Z 23004KT 12SM FEW120 31/18 A3013 RMK AC1 SLP203=
CYUL;2005-06-27 20:00;METAR CYUL 272000Z 25005KT 12SM FEW050TCU 31/18 A3011 RMK TCU1 SLP196=
CYUL;2005-06-27 21:00;METAR CYUL 272100Z 24006KT 12SM FEW120 32/15 A3010 RMK AC1 SLP192=
CYUL;2005-06-27 22:00;METAR CYUL 272200Z 22006KT 12SM FEW120 32/16 A3008 RMK AC1 SLP188=
CYUL;2005-06-27 23:00;METAR CYUL 272300Z 24005KT 12SM FEW120 32/16 A3008 RMK AC1 SLP186=
CYUL;2005-06-28 00:00;METAR CYUL 280000Z 25004KT 12SM FEW050CB 31/17 A3007 RMK CB1 CB S SLP184=
CYUL;2005-06-28 01:00;METAR CYUL 280100Z 24003KT 15SM FEW200 30/17 A3006 RMK CI1 SLP179=
CYUL;2005-06-28 02:00;METAR CYUL 280200Z 23004KT 15SM SKC 27/18 A3005 RMK SLP177=
CYUL;2005-06-28 03:00;METAR CYUL 280300Z 17002KT 15SM SKC 27/18 A3004 RMK SLP174=
CYUL;2005-06-28 04:00;METAR CYUL 280400Z 26002KT 15SM SKC 25/18 A3004 RMK SLP174=
CYUL;2005-06-28 05:00;METAR CYUL 280500Z 22004KT 15SM SKC 25/19 A3004 RMK SLP174=
CYUL;2005-06-28 06:00;METAR CYUL 280600Z 21005KT 15SM SKC 25/19 A3004 RMK SLP172=
CYUL;2005-06-28 07:00;METAR CYUL 280700Z 00000KT 15SM SKC 24/20 A3004 RMK SLP173=
CYUL;2005-06-28 08:00;METAR CYUL 280800Z 00000KT 15SM SKC 24/20 A3005 RMK SLP175=
CYUL;2005-06-28 09:00;METAR CYUL 280900Z 21002KT 15SM FEW180 23/19 A3006 RMK AC0 SLP181=
CYUL;2005-06-28 10:00;METAR CYUL 281000Z 14004KT 12SM FEW180 FEW240 23/20 A3006 RMK AC1CI0 SLP180=
CYUL;2005-06-28 11:00;METAR CYUL 281100Z 16005KT 12SM FEW180 FEW240 24/20 A3006 RMK AC1CI0 SLP180=
CYUL;2005-06-28 12:00;METAR CYUL 281200Z 20005KT 12SM FEW180 FEW240 25/20 A3006 RMK AC1CI0 SLP180=
CYUL;2005-06-28 13:00;METAR CYUL 281300Z 20006KT 12SM FEW180 26/20 A3005 RMK AC0 SLP177=
CYUL;2005-06-28 14:00;METAR CYUL 281400Z 21006KT 10SM FEW180 27/20 A3003 RMK AC1 SLP169=
CYUL;2005-06-28 15:00;METAR CYUL 281500Z 21009KT 10SM FEW240 28/21 A3002 RMK CI1 SLP164=
CYUL;2005-06-28 16:00;METAR CYUL 281600Z 20009KT 10SM FEW220 29/21 A2999 RMK CI1 SLP156=
CYUL;2005-06-28 17:00;METAR CYUL 281700Z 23009KT 10SM SCT220 31/22 A2998 RMK CI2 SLP150=
CYUL;2005-06-28 18:00;METAR CYUL 281800Z 25008KT 10SM FEW040 BKN240 31/22 A2996 RMK CU1CI3 SLP144=
CYUL;2005-06-28 19:00;METAR CYUL 281900Z 24008KT 10SM FEW040TCU SCT240 32/22 A2993 RMK TCU1CI2 SLP135=
CYUL;2005-06-28 20:00;METAR CYUL 282000Z 20008KT 8SM FEW040TCU BKN240 32/23 A2990 RMK TCU1CI2 SLP126=
CYUL;2005-06-28 21:00;METAR CYUL 282100Z 19008KT 10SM FEW040TCU BKN240 32/22 A2988 RMK TCU1CI2 SLP117=
CYUL;2005-06-28 22:00;METAR CYUL 282200Z 18010KT 10SM FEW040TCU BKN240 32/21 A2985 RMK TCU1CI2 SLP109=
CYUL;2005-06-28 23:00;METAR CYUL 282300Z 18008KT 10SM FEW040CB FEW180 BKN240 31/22 A2985 RMK CB1AC1CI1 SLP108=
CYUL;2005-06-29 00:00;METAR CYUL 290000Z 21006KT 10SM FEW040CB FEW180 BKN240 30/21 A2986 RMK CB1AC1CI2 SLP111=
CYUL;2005-06-29 01:00;METAR CYUL 290100Z 20007KT 10SM FEW040TCU FEW180 BKN240 29/21 A2987 RMK TCU1AC1CI2 SLP113=
CYUL;2005-06-29 02:00;METAR CYUL 290200Z 21010G15KT 10SM FEW040TCU SCT180 BKN240 26/19 A2988 RMK TCU1AC2CI2 SLP119=
CYUL;2005-06-29 03:00;METAR CYUL 290300Z 22007KT 12SM SCT180 BKN240 26/20 A2987 RMK AC2CI1 SLP115=
CYUL;2005-06-29 04:00;METAR CYUL 290400Z 24005KT 12SM FEW050 SCT180 BKN240 26/20 A2987 RMK CU1AC2CI1 SLP113=
CYUL;2005-06-29 05:00;METAR CYUL 290500Z 21003KT 10SM FEW050 SCT180 BKN240 25/20 A2985 RMK CU1AC2CI1 SLP109=
CYUL;2005-06-29 06:00;METAR CYUL 290600Z 21004KT 10SM BKN050 BKN240 25/20 A2984 RMK CU5CI0 SLP106=
CYUL;2005-06-29 07:00;METAR CYUL 290700Z 21003KT 10SM SCT050 BKN180 BKN240 24/20 A2984 RMK CU3AC2CI0 SLP103=
CYUL;2005-06-29 10:00;METAR CYUL 291000Z 24004KT 3SM HZ SCT030TCU BKN070 OVC120 24/21 A2989 RMK TCU3AC3AC2 CB EMBD SLP121=
CYUL;2005-06-29 10:50;SPECI CYUL 291050Z 25005KT 3SM HZ BKN040TCU OVC120 RMK TCU5AC3 RETS CB EMBD=
CYUL;2005-06-29 11:00;METAR CYUL 291100Z 27005KT 3SM HZ BKN043TCU OVC120 24/20 A2990 RMK TCU5AC3 RETS CB EMBD SLP123=
CYUL;2005-06-29 12:00;METAR CYUL 291200Z 35005KT 3SM HZ OVC017 24/19 A2992 RMK SC8 SLP131=
CYUL;2005-06-29 13:00;METAR CYUL 291300Z 04008KT 4SM HZ OVC025 24/18 A2993 RMK SC8 SLP134=
CYUL;2005-06-29 14:00;METAR CYUL 291400Z 07008KT 4SM HZ OVC028 24/18 A2993 RMK SC8 SLP135=
CYUL;2005-06-29 15:24;SPECI CYUL 291524Z 03006KT 10SM SCT035 BKN070 RMK CF4AC2=
CYUL;2005-06-29 16:00;METAR CYUL 291600Z 13004KT 10SM BKN040 BKN090 26/18 A2993 RMK CF5AC2 SLP134=
CYUL;2005-06-29 17:00;METAR CYUL 291700Z 16008KT 8SM FEW035 SCT090 BKN180 25/19 A2992 RMK CF2AC2AC1 SLP131=
CYUL;2005-06-29 18:00;METAR CYUL 291800Z 18006KT 8SM FEW035 BKN240 26/19 A2991 RMK CF1CI2 SLP127=
CYUL;2005-06-29 19:00;METAR CYUL 291900Z 21005KT 8SM FEW030 BKN240 26/19 A2990 RMK CU2CI2 SLP125=
CYUL;2005-07-01 01:00;METAR CYUL 010100Z 17005KT 15SM FEW120 BKN240 26/18 A2979 RMK AC1CI1 SLP086=
CYUL;2005-07-01 02:00;METAR CYUL 010200Z 22005KT 15SM FEW120 FEW240 26/18 A2979 RMK AC1CI1 SLP087=
CYUL;2005-07-01 03:00;METAR CYUL 010300Z 17004KT 12SM FEW240 24/19 A2977 RMK CI1 HZ SLP080=
CYUL;2005-07-01 04:00;METAR CYUL 010400Z 17004KT 12SM FEW240 24/19 A2976 RMK CI1 SLP077=
CYUL;2005-07-01 05:00;METAR CYUL 010500Z 18003KT 10SM FEW048 FEW240 23/19 A2974 RMK SC1CI1 SLP071=
CYUL;2005-07-01 06:00;METAR CYUL 010600Z 14005KT 7SM FEW060 23/19 A2973 RMK SC2 SLP067=
CYUL;2005-07-01 08:00;METAR CYUL 010800Z 16011KT 6SM HZ FEW200 22/19 A2970 RMK CI0 SLP058=
CYUL;2005-07-01 09:00;METAR CYUL 010900Z 16008KT 5SM HZ FEW042 FEW120 BKN240 22/19 A2969 RMK CU1AC1CI3 SLP055=
CYUL;2005-07-01 10:00;METAR CYUL 011000Z 16009KT 5SM HZ FEW055 BKN210 22/19 A2968 RMK SC1CI3 SLP051=
CYUL;2005-07-01 11:00;METAR CYUL 011100Z 15010KT 6SM HZ BKN065 BKN210 23/19 A2968 RMK SC6CI2 SLP049=
CYUL;2005-07-01 12:00;METAR CYUL 011200Z 17011KT 6SM HZ FEW065 FEW180 BKN240 24/20 A2967 RMK SC1AC1CI1 SLP046=
CYUL;2005-07-01 13:00;METAR CYUL 011300Z 17013KT 6SM HZ BKN062 BKN240 25/20 A2966 RMK SC6CI1 SLP043=
CYUL;2005-07-01 14:00;METAR CYUL 011400Z 16008KT 8SM FEW060 BKN220 26/20 A2964 RMK SC1CI2 SLP037=
CYUL;2005-07-01 15:00;METAR CYUL 011500Z 21008KT 7SM FEW040 BKN050 OVC210 28/20 A2962 RMK SC2SC3CI1 SLP031=
CYUL;2005-07-01 16:00;METAR CYUL 011600Z 23011KT 7SM BKN045 OVC210 29/21 A2961 RMK SC6CI0 CU ASOCT SLP026=
CYUL;2005-07-01 17:00;METAR CYUL 011700Z 22010KT 7SM FEW030CB SCT050 BKN070 OVC210 30/21 A2958 RMK CB1SC3AC2CI0 CB E SLP018=
CYUL;2005-07-01 18:00;METAR CYUL 011800Z 16014KT 8SM FEW030CB BKN045 BKN210 29/21 A2956 RMK CB2SC4CI1 SLP010=
CYUL;2005-07-01 18:10;SPECI CYUL 011810Z 15012KT 7SM TS FEW035CB BKN045 BKN210 RMK CB2SC2CI1=
CYUL;2005-07-01 18:42;SPECI CYUL 011842Z 14013KT 7SM SCT030CB BKN100 BKN210 RETS RMK CB3AC2CI0 CC ASOCT=
CYUL;2005-07-01 19:00;METAR CYUL 011900Z 14012G17KT 7SM FEW030CB BKN050 BKN100 BKN210 29/22 A2952 RETS RMK CB2SC4AC1CI0 SLP997=
CYUL;2005-07-01 20:00;METAR CYUL 012000Z 14014KT 7SM FEW030CB BKN050 BKN210 28/21 A2950 RMK CB1SC4CI1 SLP989=
CYUL;2005-07-01 20:38;SPECI CYUL 012038Z 15011KT 7SM -SHRA FEW030CB BKN060 BKN210 RMK CB2SC5CI0=
CYUL;2005-07-01 21:21;SPECI CYUL 012121Z 22019G33KT 1SM R24L/4500VP6000FT/U R24R/P6000FT/N +TSRA BKN040CB OVC060 RMK CB6SC2 LTGCG=
CYUL;2005-07-01 21:29;SPECI CYUL 012129Z 20016G39KT 6SM R24L/3500VP6000FT/D R24R/3500VP6000FT/D -TSRA SCT040CB BKN060 OVC210 RERA RMK CB3SC3CI0 LTGCG VIS NE 2=
CYUL;2005-07-01 22:00;METAR CYUL 012200Z 23014G19KT 7SM FEW040CB SCT090 OVC210 26/21 A2948 RETSRA RMK CB2AC2CI2 SLP983=
CYUL;2005-07-01 23:00;METAR CYUL 012300Z 24018G24KT 8SM FEW040TCU FEW080 OVC210 27/20 A2949 RMK TCU2AC1CI2 CB E SLP985=
CYUL;2005-07-02 00:00;METAR CYUL 020000Z 25020G28KT 10SM VCSH FEW035TCU BKN045 OVC210 26/18 A2950 RMK TCU2SC2CI1 CB EMBD SLP990=
CYUL;2005-07-02 00:06;SPECI CYUL 020006Z 27022G27KT 8SM -SHRA FEW040TCU SCT060 BKN120 OVC210 RMK TCU2SC2AC2CI0 CB EMBD=
CYUL;2005-07-02 00:23;SPECI CYUL 020023Z 26021G26KT 6SM -TSRA FEW030TCU BKN040 BKN130 OVC210 RMK TCU2SC3AC2CI0 CB EMBD LTGCC=
CYUL;2005-07-02 01:00;METAR CYUL 020100Z 24008G15KT 10SM -TSRA FEW030TCU SCT050 BKN100 22/19 A2954 RMK TCU1SC3AC2 CB EMBD LTGCC SLP002=
CYUL;2005-07-02 01:26;SPECI CYUL 020126Z 22010KT 10SM TS FEW030 BKN060 BKN090 RMK SC2SC3AC1 CB EMBD DIST LTNG=
CYUL;2005-07-02 02:00;METAR CYUL 020200Z 23008KT 15SM TS FEW030CB BKN060 BKN090 22/19 A2955 RMK CB2CF3AC1 DIST LTG E QUAD SLP008=
CYUL;2005-07-02 02:17;SPECI CYUL 020217Z 24011KT 15SM FEW030CB FEW042 FEW090 RETS RMK CB2CF1AC1=
CYUL;2005-07-02 03:00;METAR CYUL 020300Z 25014KT 15SM FEW035 FEW040 FEW160 22/18 A2957 RETS RMK SC1CF1AS0 SLP014=
CYUL;2005-07-02 04:00;METAR CYUL 020400Z 26013G18KT 15SM FEW040 21/15 A2959 RMK SC1 SLP020=
CYUL;2005-07-02 05:00;METAR CYUL 020500Z 26012G17KT 15SM FEW024 FEW043 FEW065 20/15 A2961 RMK CF1SC2SC1 SLP026=
CYUL;2005-07-02 06:00;METAR CYUL 020600Z 26017G22KT 15SM FEW038 BKN050 BKN085 20/14 A2963 RMK CF1SC6AC1 SLP033=
CYUL;2005-07-02 07:00;METAR CYUL 020700Z 30015KT 15SM FEW030 BKN057 OVC070 18/12 A2966 RMK SC2SC5AC1 SLP043=
CYUL;2005-07-02 08:00;METAR CYUL 020800Z 30011G17KT 15SM FEW036 FEW058 BKN072 17/10 A2969 RMK SC1SC2AC6 SLP053=
CYUL;2005-07-02 09:00;METAR CYUL 020900Z 30009KT 15SM FEW028 SCT035 16/09 A2973 RMK SC1SC2 CF ASOCT SLP067=
CYUL;2005-07-02 10:00;METAR CYUL 021000Z 32010KT 15SM BKN040 15/07 A2978 RMK SC7 SLP084=
CYUL;2005-07-02 11:00;METAR CYUL 021100Z 33010KT 15SM FEW025 BKN038 15/08 A2982 RMK CF1SC5 SLP098=
CYUL;2005-07-02 12:00;METAR CYUL 021200Z 30012G17KT 30SM FEW033 16/08 A2985 RMK CF2 SLP110=
CYUL;2005-07-02 13:00;METAR CYUL 021300Z 29008KT 30SM FEW035 17/08 A2988 RMK CF2 SLP120=
CYUL;2005-07-02 14:00;METAR CYUL 021400Z 27011KT 30SM FEW035 17/09 A2989 RMK CF1 SLP122=
CYUL;2005-07-02 15:00;METAR CYUL 021500Z 26009KT 30SM FEW035 18/10 A2990 RMK CF2 SLP127=
CYUL;2005-07-02 16:00;METAR CYUL 021600Z 27009G16KT 30SM FEW035 19/09 A2991 RMK CU2 SLP129=
CYUL;2005-07-02 17:00;METAR CYUL 021700Z 27015KT 30SM FEW035 20/10 A2991 RMK CU2 SLP130=
CYUL;2005-07-02 18:00;METAR CYUL 021800Z 26016KT 30SM FEW040 21/11 A2991 RMK CU2 SLP129=
CYUL;2005-07-02 19:00;METAR CYUL 021900Z 27017KT 30SM FEW040 SCT050 22/10 A2990 RMK CU2SC2 SLP127=
CYUL;2005-07-02 20:00;METAR CYUL 022000Z 25013G20KT 30SM BKN050 BKN075 22/11 A2991 RMK SC5AC1 CU ASOCT SLP129=
CYUL;2005-07-02 21:00;METAR CYUL 022100Z 28011G17KT 30SM SCT050 SCT070 22/11 A2991 RMK SC3AC1 CU ASOCT SLP129=
CYUL;2005-07-02 22:00;METAR CYUL 022200Z 27013KT 30SM FEW050 FEW060 23/11 A2991 RMK CU2SC1 SLP128=
CYUL;2005-07-02 23:00;METAR CYUL 022300Z 27007KT 30SM FEW050 FEW060 23/11 A2991 RMK CU1SC1 SLP130=
CYUL;2005-07-03 00:00;METAR CYUL 030000Z 27010KT 30SM FEW060 FEW240 22/12 A2992 RMK SC1CI0 SLP132=
CYUL;2005-07-03 01:00;METAR CYUL 030100Z 23005KT 30SM FEW240 22/12 A2993 RMK CI0 SLP136=
CYUL;2005-07-03 02:00;METAR CYUL 030200Z 24005KT 15SM FEW240 21/13 A2996 RMK CI1 SLP146=
CYUL;2005-07-03 04:00;METAR CYUL 030400Z 25007KT 15SM SKC 19/12 A3000 RMK SLP158=
CYUL;2005-07-03 05:00;METAR CYUL 030500Z 24008KT 15SM SKC 18/12 A3001 RMK SLP164=
CYUL;2005-07-03 06:00;METAR CYUL 030600Z 25006KT 15SM SKC 17/12 A3004 RMK SLP173=
CYUL;2005-07-03 07:00;METAR CYUL 030700Z 23006KT 15SM SKC 17/12 A3005 RMK SLP175=
CYUL;2005-07-03 09:00;METAR CYUL 030900Z 26003KT 15SM FEW240 15/12 A3007 RMK CI0 SLP183=
CYUL;2005-07-03 10:00;METAR CYUL 031000Z 26004KT 30SM SCT240 16/12 A3008 RMK CI1 SLP188=
CYUL;2005-07-03 11:00;METAR CYUL 031100Z 25006KT 30SM FEW240 17/12 A3011 RMK CI1 SLP195=
CYUL;2005-07-03 12:00;METAR CYUL 031200Z 25009KT 30SM FEW240 19/12 A3012 RMK CI0 SLP200=
CYUL;2005-07-03 13:00;METAR CYUL 031300Z 22008KT 30SM FEW240 20/14 A3013 RMK CI1 SLP202=
CYUL;2005-07-03 14:00;METAR CYUL 031400Z 20007KT 30SM FEW030 FEW240 21/14 A3013 RMK CU1CI0 SLP203=
CYUL;2005-07-03 15:00;METAR CYUL 031500Z 20006KT 30SM FEW030 FEW240 23/14 A3013 RMK CU1CI0 SLP202=
CYUL;2005-07-03 16:00;METAR CYUL 031600Z 18006KT 30SM FEW035 FEW240 24/15 A3011 RMK CU1CI0 SLP197=
CYUL;2005-07-03 17:00;METAR CYUL 031700Z 22008KT 30SM FEW040 FEW240 25/14 A3010 RMK CU1CI0 SLP194=
CYUL;2005-07-03 18:00;METAR CYUL 031800Z 21006KT 30SM FEW045 FEW240 26/13 A3010 RMK CU2CI0 SLP193=
CYUL;2005-07-03 19:00;METAR CYUL 031900Z 23004KT 30SM FEW050 FEW240 26/14 A3008 RMK CU1CI1 SLP188=
CYUL;2005-07-03 20:00;METAR CYUL 032000Z 18005KT 30SM FEW050 FEW240 27/14 A3008 RMK CU1CI1 SLP186=
CYUL;2005-07-03 21:00;METAR CYUL 032100Z 19004KT 30SM FEW055 FEW240 27/13 A3006 RMK CU1CI1 SLP180=
CYUL;2005-07-03 22:00;METAR CYUL 032200Z 15009KT 30SM FEW060 FEW240 26/13 A3006 RMK CF1CI0 SLP179=
CYUL;2005-07-03 23:00;METAR CYUL 032300Z 14007KT 30SM SCT240 26/13 A3005 RMK CI1 SLP177=
CYUL;2005-07-04 00:00;METAR CYUL 040000Z 14007KT 30SM SCT240 25/12 A3004 RMK CI0 SLP173=
CYUL;2005-07-04 01:00;METAR CYUL 040100Z 14006KT 30SM FEW240 24/12 A3004 RMK CI0 SLP172=
CYUL;2005-07-04 03:00;METAR CYUL 040300Z 15003KT 15SM FEW240 21/12 A3005 RMK CI1 SLP177=
CYUL;2005-07-04 04:00;METAR CYUL 040400Z 16005KT 15SM SKC 20/13 A3004 RMK SLP174=
CYUL;2005-07-04 05:00;METAR CYUL 040500Z 20006KT 15SM SKC 20/14 A3006 RMK SLP179=
CYUL;2005-07-04 06:00;METAR CYUL 040600Z 20008KT 15SM SKC 21/15 A3006 RMK SLP179=
CYUL;2005-07-04 07:00;METAR CYUL 040700Z 20007KT 15SM SKC 20/14 A3006 RMK SLP178=
CYUL;2005-07-04 08:00;METAR CYUL 040800Z 15005KT 15SM SKC 18/14 A3006 RMK SLP178=
CYUL;2005-07-04 09:00;METAR CYUL 040900Z 13003KT 15SM FEW240 17/13 A3006 RMK CI1 SLP178=
CYUL;2005-07-04 10:00;METAR CYUL 041000Z 15006KT 15SM FEW180 SCT240 18/13 A3007 RMK AC1CI1 SLP184=
CYUL;2005-07-04 11:00;METAR CYUL 041100Z 13005KT 15SM FEW180 FEW240 19/14 A3008 RMK AC1CI1 SLP188=
CYUL;2005-07-04 12:00;METAR CYUL 041200Z 15005KT 15SM FEW030 FEW180 FEW240 21/15 A3009 RMK CF1AC1CI0 SLP191=
CYUL;2005-07-04 13:00;METAR CYUL 041300Z 17005KT 15SM SCT065 SCT240 23/16 A3009 RMK CU4CI1 SLP190=
CYUL;2005-07-04 14:00;METAR CYUL 041400Z 16006KT 15SM FEW070 FEW240 24/16 A3006 RMK AC1CI0 SLP181=
CYUL;2005-07-04 15:00;METAR CYUL 041500Z 15006KT 15SM BKN240 26/17 A3006 RMK CI1 SLP181=
CYUL;2005-07-04 16:00;METAR CYUL 041600Z 15004KT 15SM FEW040 BKN240 26/18 A3006 RMK CU1CI1 SLP178=
CYUL;2005-07-04 17:00;METAR CYUL 041700Z 16007KT 12SM FEW040 OVC240 28/19 A3003 RMK CU1CI2 SLP169=
CYUL;2005-07-04 18:00;METAR CYUL 041800Z 15009G17KT 12SM FEW040 BKN240 28/19 A3001 RMK CU1CI1 SLP164=
CYUL;2005-07-04 19:00;METAR CYUL 041900Z 13008KT 12SM FEW040 BKN240 29/18 A3000 RMK CU1CI1 SLP158=
CYUL;2005-07-04 20:00;METAR CYUL 042000Z 18008KT 12SM FEW045 BKN240 29/19 A2998 RMK CU1CI1 SLP152=
CYUL;2005-07-04 21:00;METAR CYUL 042100Z 19006KT 12SM FEW045 SCT240 29/19 A2997 RMK CU2CI0 TCU ASOCT SLP148=
CYUL;2005-07-04 23:00;METAR CYUL 042300Z 18006KT 12SM FEW060 SCT240 29/19 A2995 RMK CU1CI1 SLP141=
CYUL;2005-07-05 00:00;METAR CYUL 050000Z 19008KT 12SM FEW150 BKN240 27/19 A2994 RMK AC1CI2 SLP139=
CYUL;2005-07-05 01:00;METAR CYUL 050100Z 16009KT 12SM FEW070 BKN240 26/19 A2993 RMK AC1CI2 SLP137=
CYUL;2005-07-05 02:00;METAR CYUL 050200Z 16008KT 12SM SCT065 BKN240 25/18 A2993 RMK CU4CI1 SLP136=
CYUL;2005-07-05 03:00;METAR CYUL 050300Z 16008KT 15SM SCT070 BKN240 24/18 A2993 RMK AC3CI0 SLP136=
CYUL;2005-07-05 04:00;METAR CYUL 050400Z 18007KT 15SM FEW070 BKN240 24/18 A2992 RMK AC2CI0 SLP133=
CYUL;2005-07-05 05:00;METAR CYUL 050500Z 16007KT 15SM SCT180 BKN210 23/18 A2990 RMK AC4CI2 SLP127=
CYUL;2005-07-05 06:00;METAR CYUL 050600Z 14002G15KT 15SM SCT070 BKN170 OVC210 23/17 A2990 RMK AC3AC3CI0 SLP125=
CYUL;2005-07-05 06:27;SPECI CYUL 050627Z 17004KT 15SM -SHRA BKN070 BKN100 OVC210 RMK AC5AC2CI1=
CYUL;2005-07-05 07:00;METAR CYUL 050700Z 21006KT 8SM -TSRA BKN060 OVC090 23/19 A2990 RMK SC6AC2 CB EMBD SLP125=
CYUL;2005-07-05 07:38;SPECI CYUL 050738Z 14007KT 6SM -SHRA BKN040 OVC090 RMK SC6AC2 RETS CB EMBD=
CYUL;2005-07-05 08:00;METAR CYUL 050800Z 13006KT 8SM SCT060 BKN120 21/19 A2987 RMK SC3AC2 RETS SLP115=
CYUL;2005-07-05 09:00;METAR CYUL 050900Z 11005KT 4SM HZ OVC050 21/19 A2988 RMK SC8 SLP117=
CYUL;2005-07-05 09:13;SPECI CYUL 050913Z 00000KT 4SM -TSRA OVC050 RMK SC8 CB EMBD=
CYUL;2005-07-05 09:29;SPECI CYUL 050929Z 10003KT 4SM -SHRA OVC045 RMK SC8 CB EMBD=
CYUL;2005-07-05 09:46;SPECI CYUL 050946Z 08004KT 4SM HZ OVC045 RMK SC8 CB EMBD=
CYUL;2005-07-05 10:00;METAR CYUL 051000Z 10004KT 4SM HZ OVC040 21/19 A2988 RMK SC8 CB EMBD SLP118=
CYUL;2005-07-05 11:00;METAR CYUL 051100Z 16007KT 6SM HZ OVC030 21/19 A2987 RMK SC8 SLP114=
CYUL;2005-07-05 12:00;METAR CYUL 051200Z 21006KT 6SM HZ SCT030 OVC150 23/19 A2987 RMK SC3AC5 /R10/ SLP113=
CYUL;2005-07-05 13:00;METAR CYUL 051300Z 21006KT 6SM HZ FEW060 SCT120 OVC220 24/20 A2987 RMK SC2AC2CS2 SLP114=
CYUL;2005-07-05 14:00;METAR CYUL 051400Z 22006KT 6SM HZ BKN018 OVC050 25/20 A2987 RMK CU6SC2 SLP113=
CYUL;2005-07-05 15:00;METAR CYUL 051500Z 24004KT 6SM HZ BKN017 OVC050 25/21 A2986 RMK CU6SC2 SLP110=
CYUL;2005-07-05 16:00;METAR CYUL 051600Z 21008KT 6SM HZ SCT025 BKN150 OVC220 26/21 A2985 RMK CU3AC3CI1 SLP109=
CYUL;2005-07-05 17:00;METAR CYUL 051700Z 20007KT 6SM HZ SCT030 OVC200 26/21 A2985 RMK CU4CI4 SLP107=
CYUL;2005-07-05 18:00;METAR CYUL 051800Z 20004KT 6SM HZ FEW025 SCT080 OVC150 26/21 A2983 RMK CU1AC2AS5 SLP100=
CYUL;2005-07-05 18:38;SPECI CYUL 051838Z 28004KT 6SM -SHRA HZ FEW025 BKN040 OVC150 RMK CF1SC6AS2=
CYUL;2005-07-05 19:00;METAR CYUL 051900Z 29004KT 8SM FEW025 BKN080 BKN150 BKN240 26/21 A2982 RMK CF1AC5AC2CI1 SLP098=
CYUL;2005-07-05 20:00;METAR CYUL 052000Z 21005KT 6SM HZ FEW030 OVC120 26/20 A2982 RMK CF2AC6 SLP099=
CYUL;2005-07-05 20:50;SPECI CYUL 052050Z 15007KT 6SM -SHRA HZ BKN030 OVC070 RMK CU6AC2=
CYUL;2005-07-05 21:00;METAR CYUL 052100Z 17007KT 5SM -TSRA HZ BKN028 OVC070 24/21 A2980 RMK CU6AC2 CB EMBD SLP090=
CYUL;2005-07-05 21:18;SPECI CYUL 052118Z 17006KT 1 3/4SM -TSRA BR SCT023 OVC040 RMK CU3SC5 CB EMBD=
CYUL;2005-07-05 21:25;SPECI CYUL 052125Z 22007KT 1SM R24L/4000VP6000FT/D R24R/3000VP6000FT/D +TSRA BR OVC007 RMK SC8 CB EMBD=
CYUL;2005-07-05 21:49;SPECI CYUL 052149Z 20008KT 3SM -TSRA BR FEW005 OVC030 RMK SF2SC6 CB EMBD RERA=
CYUL;2005-07-05 22:00;METAR CYUL 052200Z 19008G15KT 5SM -TSRA BR FEW005 SCT035 OVC050 21/20 A2983 RMK SF1CF3SC5 CB EMBD RERA /R20/ SLP102=
CYUL;2005-07-05 22:25;SPECI CYUL 052225Z 27005KT 1 3/4SM +TSRA BR OVC006 RMK SF8 CB EMBD=
CYUL;2005-07-05 22:33;SPECI CYUL 052233Z 29005KT 1/2SM R24L/3500VP6000FT/D R24R/2600FT/N +TSRA FG OVC007 RMK SF8 CB EMBD=
CYUL;2005-07-05 22:41;SPECI CYUL 052241Z 31004KT 1 3/4SM TSRA BR SCT006 OVC011 RMK SF3SC5 CB EMBD RERA=
CYUL;2005-07-05 22:53;SPECI CYUL 052253Z 07003KT 5SM -TSRA BR FEW006 BKN040 OVC065 RMK SF1CF5SC2 CB EMBD RERA=
CYUL;2005-07-05 23:26;SPECI CYUL 052326Z 01008KT 10SM FEW006 OVC013 RMK SF1SC7 RETS=
CYUL;2005-07-06 00:00;METAR CYUL 060000Z 04010KT 12SM FEW006 OVC016 21/18 A2987 RMK SF1SC8 RETS SLP114=
CYUL;2005-07-06 00:45;SPECI CYUL 060045Z 36010KT 6SM -SHRA BR FEW008 OVC035 RMK SF1SC7=
CYUL;2005-07-06 01:00;METAR CYUL 060100Z 01007KT 5SM -SHRA BR FEW010 OVC040 20/18 A2989 RMK SF1SC7 SLP122=
CYUL;2005-07-06 01:37;SPECI CYUL 060137Z 04010KT 8SM FEW012 OVC045 RMK SF1SC7=
CYUL;2005-07-06 02:00;METAR CYUL 060200Z 05011KT 10SM -SHRA FEW010 OVC045 21/17 A2991 RMK SF1SC7 SLP130=
CYUL;2005-07-06 02:42;SPECI CYUL 060242Z 04008KT 10SM FEW014 FEW028 BKN046 OVC055 RMK SF1SC2SC5SC1=
CYUL;2005-07-06 03:00;METAR CYUL 060300Z 03010KT 10SM -SHRA FEW012 BKN020 BKN047 OVC057 20/17 A2992 RMK SF1SC4SC2SC1 -SHRA OCNL SLP133=
CYUL;2005-07-06 04:24;SPECI CYUL 060424Z 01006KT 8SM FEW008 FEW024 BKN052 OVC072 RMK SF1SC2SC3AC2=
CYUL;2005-07-06 05:00;METAR CYUL 060500Z 02009KT 12SM FEW054 OVC076 19/16 A2993 RMK SC2AC5 SLP135=
CYUL;2005-07-06 06:00;METAR CYUL 060600Z 01008KT 15SM FEW046 OVC087 19/15 A2994 RMK SC2AC5 SLP139=
CYUL;2005-07-06 08:00;METAR CYUL 060800Z 03013G18KT 15SM FEW050 FEW075 BKN110 18/12 A2995 RMK SC1AC1AC6 SLP144=
CYUL;2005-07-06 09:00;METAR CYUL 060900Z 01009KT 15SM FEW080 BKN110 BKN230 17/11 A2997 RMK AC1AC5CI1 SLP150=
CYUL;2005-07-06 10:00;METAR CYUL 061000Z 02010KT 15SM SCT030 SCT080 BKN110 OVC240 17/10 A2999 RMK SC3AC1AC2CI1 SLP155=
CYUL;2005-07-06 11:00;METAR CYUL 061100Z 03011KT 15SM FEW021 BKN037 OVC110 17/11 A3000 RMK SC2SC4AC2 SLP161=
CYUL;2005-07-06 12:00;METAR CYUL 061200Z 03009G17KT 15SM FEW022 BKN038 18/12 A3003 RMK SC2SC6 SLP168=
CYUL;2005-07-06 13:00;METAR CYUL 061300Z 05015G21KT 20SM FEW034 BKN065 BKN085 BKN240 19/11 A3004 RMK SC2SC3AC2CI0 CF ASOCT SLP174=
CYUL;2005-07-06 14:00;METAR CYUL 061400Z 04013G21KT 20SM FEW022 BKN042 BKN210 19/11 A3006 RMK CF1SC6CS1 SLP179=
CYUL;2005-07-06 15:00;METAR CYUL 061500Z 05018KT 15SM FEW035 BKN055 BKN220 19/11 A3008 RMK CU1SC6CI1 SLP185=
CYUL;2005-07-06 16:00;METAR CYUL 061600Z 04012KT 15SM FEW035 BKN050 BKN220 20/12 A3008 RMK CU1SC6CI1 SLP187=
CYUL;2005-07-06 17:00;METAR CYUL 061700Z 05014KT 15SM FEW035 FEW050 BKN240 22/13 A3008 RMK CU1SC1CI1 SLP186=
CYUL;2005-07-06 18:00;METAR CYUL 061800Z 04016KT 15SM FEW040 FEW055 SCT240 22/13 A3008 RMK CU1SC1CI1 SLP186=
CYUL;2005-07-06 19:00;METAR CYUL 061900Z 05016KT 30SM FEW045 FEW060 FEW240 23/11 A3008 RMK CU1SC1CI1 SLP188=
CYUL;2005-07-06 20:00;METAR CYUL 062000Z 07013G21KT 30SM FEW050 FEW070 FEW240 23/09 A3009 RMK CU1AC1CI1 SLP189=
CYUL;2005-07-06 21:00;METAR CYUL 062100Z 06012G18KT 30SM FEW050 FEW080 FEW240 23/08 A3009 RMK CU1AC1CI1 SLP189=
CYUL;2005-07-06 22:00;METAR CYUL 062200Z 04012G17KT 30SM FEW080 FEW240 23/09 A3008 RMK AC1CI1 SLP185=
CYUL;2005-07-06 23:00;METAR CYUL 062300Z 07014KT 30SM FEW080 FEW240 23/08 A3007 RMK AC1CI1 SLP182=
CYUL;2005-07-07 00:00;METAR CYUL 070000Z 06011KT 30SM FEW080 FEW240 22/08 A3008 RMK AC1CI1 SLP187=
CYUL;2005-07-07 01:00;METAR CYUL 070100Z 05009KT 30SM FEW080 FEW240 21/08 A3009 RMK AC1CI1 SLP190=
CYUL;2005-07-07 02:00;METAR CYUL 070200Z 05008KT 15SM FEW240 21/06 A3010 RMK CI1 SLP193=
CYUL;2005-07-07 03:00;METAR CYUL 070300Z 06012KT 15SM FEW240 20/08 A3011 RMK CI1 SLP197=
CYUL;2005-07-07 04:00;METAR CYUL 070400Z 05010KT 15SM SKC 18/09 A3011 RMK SLP198=
CYUL;2005-07-07 05:00;METAR CYUL 070500Z 04010KT 15SM SKC 17/09 A3012 RMK SLP199=
CYUL;2005-07-07 06:00;METAR CYUL 070600Z 03010KT 15SM FEW240 17/08 A3011 RMK CI1 SLP198=
CYUL;2005-07-07 07:00;METAR CYUL 070700Z 03010KT 15SM FEW240 15/09 A3011 RMK CI1 SLP197=
CYUL;2005-07-07 08:00;METAR CYUL 070800Z 03010KT 15SM FEW240 15/09 A3011 RMK CI1 SLP197=
CYUL;2005-07-07 09:00;METAR CYUL 070900Z 01008KT 15SM FEW020 FEW060 FEW240 14/09 A3012 RMK SC1SC1CI0 SLP201=
CYUL;2005-07-07 10:00;METAR CYUL 071000Z 04011KT 25SM FEW020 FEW060 SCT240 14/10 A3013 RMK SC1SC1CI0 SLP204=
CYUL;2005-07-07 11:00;METAR CYUL 071100Z 03011KT 30SM FEW040 FEW090 SCT250 15/10 A3015 RMK SC1AC1CI0 SLP210=
CYUL;2005-07-07 12:00;METAR CYUL 071200Z 03009KT 30SM FEW040 FEW090 FEW250 18/11 A3016 RMK SC1AC1CI1 SLP212=
CYUL;2005-07-07 13:00;METAR CYUL 071300Z 04011KT 30SM FEW035 FEW072 FEW250 19/12 A3016 RMK SC1AC1CI0 SLP214=
CYUL;2005-07-07 14:00;METAR CYUL 071400Z 04013KT 30SM FEW035TCU FEW080 FEW240 20/13 A3016 RMK TCU1AC1CI1 SLP213=
CYUL;2005-07-07 15:00;METAR CYUL 071500Z 03011KT 30SM FEW035 FEW080 21/13 A3016 RMK CU1AC1 SLP212=
CYUL;2005-07-07 16:00;METAR CYUL 071600Z 05011KT 30SM FEW035 FEW090 22/13 A3016 RMK CU1AC1 SLP212=
CYUL;2005-07-07 17:00;METAR CYUL 071700Z 08009G15KT 30SM FEW040 FEW090 23/13 A3015 RMK CU2AC1 SLP211=
CYUL;2005-07-07 18:00;METAR CYUL 071800Z 05006KT 30SM FEW045 FEW100 24/13 A3014 RMK CU2AC1 SLP207=
CYUL;2005-07-07 19:00;METAR CYUL 071900Z 05006KT 30SM FEW050 FEW100 24/12 A3014 RMK CU1AC1 SLP205=
CYUL;2005-07-07 21:00;METAR CYUL 072100Z 08010KT 30SM FEW050 FEW120 FEW240 25/11 A3011 RMK CU1AC1CI1 SLP197=
CYUL;2005-07-07 22:00;METAR CYUL 072200Z 08008KT 30SM FEW060 FEW120 FEW240 25/11 A3011 RMK CU1AC1CI1 SLP195=
CYUL;2005-07-07 23:00;METAR CYUL 072300Z 04008KT 15SM FEW055 FEW120 SCT240 25/11 A3011 RMK CU1AC1CI1 SLP195=
CYUL;2005-07-08 00:00;METAR CYUL 080000Z 05008KT 15SM FEW050 SCT240 24/11 A3011 RMK CU1CI1 CB ASOCT SLP196=
CYUL;2005-07-08 01:00;METAR CYUL 080100Z 05007KT 15SM FEW150 BKN240 23/11 A3012 RMK AC1CI1 SLP199=
CYUL;2005-07-08 03:00;METAR CYUL 080300Z 04006KT 15SM BKN250 21/13 A3013 RMK CI2 SLP204=
CYUL;2005-07-08 04:00;METAR CYUL 080400Z 01004KT 15SM FEW120 SCT250 20/13 A3013 RMK AC1CI1 SLP204=
CYUL;2005-07-08 05:00;METAR CYUL 080500Z 02007KT 15SM FEW045 FEW250 19/13 A3012 RMK SC1CI0 SLP201=
CYUL;2005-07-08 06:00;METAR CYUL 080600Z 03005KT 15SM FEW047 FEW250 18/13 A3011 RMK SC2CI1 SLP198=
CYUL;2005-07-08 07:00;METAR CYUL 080700Z 02008KT 15SM FEW046 17/13 A3011 RMK SC2 CF ASOCT SLP195=
CYUL;2005-07-08 08:00;METAR CYUL 080800Z 02006KT 15SM BKN046 BKN067 17/12 A3012 RMK SC5AC2 SLP200=
CYUL;2005-07-08 09:00;METAR CYUL 080900Z 02006KT 15SM FEW044 SCT070 BKN250 17/12 A3013 RMK SC2AC2CI0 TCU ASOCT SLP202=
CYUL;2005-07-08 10:00;METAR CYUL 081000Z 03006KT 25SM FEW042 SCT064 BKN250 17/13 A3013 RMK SC2SC2CI1 SLP204=
CYUL;2005-07-08 11:00;METAR CYUL 081100Z 04007KT 30SM FEW046 SCT067 BKN250 18/13 A3013 RMK SC2AC2CI0 SLP204=
CYUL;2005-07-08 12:00;METAR CYUL 081200Z 03007KT 25SM FEW042 SCT062 SCT250 20/14 A3013 RMK CF2SC2CI0 SLP204=
CYUL;2005-07-08 13:00;METAR CYUL 081300Z 03006KT 25SM FEW042 SCT064 BKN210 OVC260 21/16 A3014 RMK CF2SC2CI0CC1 TCU ASOCT SLP205=
CYUL;2005-07-08 14:00;METAR CYUL 081400Z 13004KT 30SM FEW050 BKN180 OVC240 23/17 A3014 RMK CF2AC2CC2 TCU ASOCT SLP206=
CYUL;2005-07-08 15:00;METAR CYUL 081500Z 10007KT 30SM FEW050 BKN060 OVC180 23/17 A3013 RMK CF1SC5AC3 TCU ASOCT SLP203=
CYUL;2005-07-08 16:00;METAR CYUL 081600Z 14004KT 15SM SCT030 OVC180 24/17 A3012 RMK SC3AC5 SLP201=
CYUL;2005-07-08 17:00;METAR CYUL 081700Z 07004KT 15SM SCT030 OVC090 24/16 A3011 RMK SC3AC5 SLP196=
CYUL;2005-07-08 18:00;METAR CYUL 081800Z 13006KT 15SM SCT030 OVC080 24/16 A3010 RMK SC3AC5 TCU ASOCT SLP193=
CYUL;2005-07-08 19:00;METAR CYUL 081900Z 14004KT 15SM SCT040 OVC080 25/16 A3008 RMK SC4AC4 TCU ASOCT SLP185=
CYUL;2005-07-08 20:00;METAR CYUL 082000Z 06006KT 15SM BKN045 OVC120 25/16 A3007 RMK SC5AC3 TCU ASOCT SLP182=
CYUL;2005-07-08 21:00;METAR CYUL 082100Z 13007KT 15SM BKN045 OVC120 25/16 A3005 RMK SC6AC2 TCU ASOCT SLP175=
CYUL;2005-07-08 22:00;METAR CYUL 082200Z 14007KT 15SM FEW050 OVC085 25/16 A3003 RMK SC2AC6 TCU ASOCT SLP171=
CYUL;2005-07-08 23:00;METAR CYUL 082300Z 10003KT 15SM FEW050 BKN090 OVC120 24/16 A3003 RMK SC2AC4AC2 TCU ASOCT SLP169=
CYUL;2005-07-09 01:00;METAR CYUL 090100Z 22009KT 15SM BKN045 OVC120 22/18 A3002 RMK SC6AC2 SLP167=
CYUL;2005-07-09 01:23;SPECI CYUL 090123Z 20005KT 15SM -SHRA BKN045 OVC120 RMK SC6AC2=
CYUL;2005-07-09 01:40;SPECI CYUL 090140Z 20006KT 15SM BKN050 OVC120 RMK SC5AC3=
CYUL;2005-07-09 02:00;METAR CYUL 090200Z 19006KT 15SM SCT045 BKN090 OVC150 21/17 A3003 RMK SC3AC2AC2 SLP168=
CYUL;2005-07-09 03:00;METAR CYUL 090300Z 20005KT 15SM FEW045 FEW060 BKN110 OVC160 22/16 A3001 RMK CF1SC2AC4AC2 SLP164=
CYUL;2005-07-09 04:00;METAR CYUL 090400Z 25002KT 15SM FEW060 OVC110 21/16 A3000 RMK SC2AC6 SLP161=
CYUL;2005-07-09 04:12;SPECI CYUL 090412Z 00000KT 15SM -RA FEW060 OVC110 RMK SC2AC6=
CYUL;2005-07-09 04:34;SPECI CYUL 090434Z 00000KT 15SM SCT065 OVC110 RMK SC4AC4=
CYUL;2005-07-09 06:00;METAR CYUL 090600Z 00000KT 12SM BKN048 BKN062 OVC100 20/17 A2998 RMK SC5SC2AC2 SLP154=
CYUL;2005-07-09 06:14;SPECI CYUL 090614Z 27002KT 12SM -SHRA BKN048 BKN065 OVC110 RMK SC5SC2AC2=
CYUL;2005-07-09 06:38;SPECI CYUL 090638Z 31002KT 12SM SCT048 BKN060 OVC110 RMK SC3SC3AC2=
CYUL;2005-07-09 07:00;METAR CYUL 090700Z 35002KT 12SM -SHRA BKN048 OVC110 20/17 A2998 RMK SC6AC2 -SHRA OCNL SLP151=
CYUL;2005-07-09 08:00;METAR CYUL 090800Z 02004KT 12SM FEW045 BKN069 OVC083 20/16 A2996 RMK SC2AC5AC1 SLP146=
CYUL;2005-07-09 09:00;METAR CYUL 090900Z 03006KT 15SM FEW045 SCT058 OVC076 20/15 A2995 RMK SC1SC3AC4 SLP144=
CYUL;2005-07-09 10:00;METAR CYUL 091000Z 02007KT 15SM BKN058 BKN070 OVC120 20/15 A2995 RMK SC5AC2AC1 SLP141=
CYUL;2005-07-09 11:00;METAR CYUL 091100Z 02005KT 15SM FEW055 OVC070 20/14 A2994 RMK CF1AC7 SLP140=
CYUL;2005-07-09 12:00;METAR CYUL 091200Z 04007KT 20SM FEW056 BKN075 BKN120 OVC240 20/14 A2993 RMK CF1AC5AC2CI1 SLP137=
CYUL;2005-07-09 13:00;METAR CYUL 091300Z 05003KT 20SM -RA BKN075 BKN120 OVC180 20/16 A2993 RMK AC5AC2AC1 SLP137=
CYUL;2005-07-09 13:20;SPECI CYUL 091320Z 10003KT 20SM FEW008 SCT075 OVC110 RMK SF1AC2AC5=
CYUL;2005-07-09 13:35;SPECI CYUL 091335Z 13005KT 15SM -RA FEW008 SCT070 OVC110 RMK SF1AC2AC5 -RA INTMT=
CYUL;2005-07-09 14:00;METAR CYUL 091400Z 14007KT 15SM FEW008 SCT015 OVC070 19/17 A2995 RMK SF1SC3AC5 SLP142=
CYUL;2005-07-09 15:00;METAR CYUL 091500Z 09002KT 15SM -RA FEW010 OVC110 19/16 A2993 RMK SF2AC6 SLP137=
CYUL;2005-07-09 16:00;METAR CYUL 091600Z 00000KT 12SM -RA FEW011 SCT030 OVC060 19/17 A2993 RMK SF2SC2SC4 SLP137=
CYUL;2005-07-09 17:00;METAR CYUL 091700Z 04007KT 10SM -RA FEW011 BKN050 OVC080 19/16 A2993 RMK SF1SC5AC3 SLP135=
CYUL;2005-07-09 18:00;METAR CYUL 091800Z 33007KT 3SM -RA SCT035 OVC060 18/16 A2991 RMK SC3SC5 SLP128=
CYUL;2005-07-09 19:32;SPECI CYUL 091932Z 31010KT 3SM -RA BKN014 OVC050 RMK SF5SC3=
CYUL;2005-07-09 19:50;SPECI CYUL 091950Z 35006KT 2SM -RA BKN014 OVC050 RMK SF5SC3=
CYUL;2005-07-09 20:00;METAR CYUL 092000Z 36004KT 2SM -RA BKN013 OVC040 18/16 A2991 RMK SF6SC2 SLP128=
CYUL;2005-07-09 21:00;METAR CYUL 092100Z 02007KT 2 1/2SM -RA BKN012 OVC030 17/15 A2991 RMK SF6SC2 /R10/ SLP128=
CYUL;2005-07-09 21:22;SPECI CYUL 092122Z 35010KT 3SM -RA BKN016 OVC050 RMK SF6SC2=
CYUL;2005-07-09 22:00;METAR CYUL 092200Z 02016G28KT 8SM -RA FEW016 BKN045 OVC085 16/14 A2990 RMK SF2SC3AC2 SLP127=
CYUL;2005-07-09 22:52;SPECI CYUL 092252Z 01007KT 15SM FEW016 SCT045 OVC090 RMK SF1SC3AC5=
CYUL;2005-07-09 23:00;METAR CYUL 092300Z 01006KT 15SM FEW016 SCT045 OVC090 17/15 A2991 RMK SF1SC3AC5 SLP128=
CYUL;2005-07-09 23:13;SPECI CYUL 092313Z 36004KT 15SM -RA FEW016 SCT045 OVC085 RMK SF1SC3AC5=
CYUL;2005-07-10 00:00;METAR CYUL 100000Z 00000KT 15SM SCT040 OVC065 17/15 A2990 RMK SC3SC5 SLP125=
CYUL;2005-07-10 02:00;METAR CYUL 100200Z 25004KT 15SM FEW065 BKN120 OVC200 17/15 A2991 RMK SC1AC6CI1 SLP129=
CYUL;2005-07-10 03:00;METAR CYUL 100300Z 27007KT 15SM BKN120 17/15 A2991 RMK AC7 SLP129=
CYUL;2005-07-10 04:00;METAR CYUL 100400Z 28004KT 15SM FEW130 OVC170 17/15 A2989 RMK AC1AC7 SLP123=
CYUL;2005-07-10 05:00;METAR CYUL 100500Z 29005KT 15SM BKN130 OVC170 17/15 A2990 RMK AC6AC2 SLP124=
CYUL;2005-07-10 07:00;METAR CYUL 100700Z 25004KT 15SM FEW130 BKN150 18/16 A2990 RMK AC1AC6 SLP126=
CYUL;2005-07-10 08:00;METAR CYUL 100800Z 21004KT 15SM SCT130 BKN210 18/16 A2990 RMK AC3CI2 CC ASOCT SLP125=
CYUL;2005-07-10 09:00;METAR CYUL 100900Z 23006KT 15SM FEW130 SCT240 18/15 A2989 RMK AC2CI1 SLP122=
CYUL;2005-07-10 10:00;METAR CYUL 101000Z 26007KT 15SM FEW150 FEW240 18/15 A2989 RMK AC1CI1 SLP122=
CYUL;2005-07-10 11:00;METAR CYUL 101100Z 26005KT 15SM FEW150 FEW240 18/16 A2990 RMK AC1CI1 SLP126=
CYUL;2005-07-10 12:00;METAR CYUL 101200Z 26004KT 15SM FEW150 FEW240 20/17 A2992 RMK AC1CI1 SLP132=
CYUL;2005-07-10 13:00;METAR CYUL 101300Z 19007KT 15SM FEW240 22/18 A2994 RMK CI1 SLP139=
CYUL;2005-07-10 14:00;METAR CYUL 101400Z 20008KT 15SM FEW240 23/18 A2994 RMK CI1 SLP138=
CYUL;2005-07-10 15:00;METAR CYUL 101500Z 20009KT 15SM FEW240 26/20 A2994 RMK CI1 SLP139=
CYUL;2005-07-10 16:00;METAR CYUL 101600Z 22010KT 15SM FEW180 FEW240 27/20 A2993 RMK AC1CI1 SLP136=
CYUL;2005-07-10 17:00;METAR CYUL 101700Z 22009KT 15SM FEW180 SCT240 29/19 A2992 RMK AC1CI1 SLP131=
CYUL;2005-07-10 18:00;METAR CYUL 101800Z 27013KT 15SM SCT150 BKN220 31/15 A2991 RMK AC2CI1 SLP129=
CYUL;2005-07-10 19:00;METAR CYUL 101900Z 26014KT 15SM BKN150 BKN220 31/17 A2990 RMK AC3CI1 SLP124=
CYUL;2005-07-10 20:00;METAR CYUL 102000Z 26019G24KT 15SM SCT150 BKN220 31/19 A2987 RMK AC2CI1 SLP115=
CYUL;2005-07-10 21:00;METAR CYUL 102100Z 27014G20KT 15SM SCT120 BKN220 31/20 A2987 RMK AC2CI1 SLP115=
CYUL;2005-07-10 22:00;METAR CYUL 102200Z 25015KT 15SM FEW045TCU BKN130 BKN220 30/21 A2986 RMK TCU1AC4CI0 SLP112=
CYUL;2005-07-10 23:00;METAR CYUL 102300Z 26009G16KT 15SM BKN140 BKN240 29/20 A2985 RMK AC5CI1 SLP107=
CYUL;2005-07-11 00:00;METAR CYUL 110000Z 27013KT 15SM SCT120 OVC240 28/20 A2987 RMK AC4CS2 SLP113=
CYUL;2005-07-11 01:00;METAR CYUL 110100Z 27012KT 15SM SCT120 BKN150 OVC240 27/19 A2988 RMK AC3AC2CS2 SLP117=
CYUL;2005-07-11 03:00;METAR CYUL 110300Z 29011KT 15SM SCT240 25/19 A2989 RMK CI2 SLP120=
CYUL;2005-07-11 04:00;METAR CYUL 110400Z 28006KT 15SM FEW240 24/19 A2989 RMK CI1 SLP120=
CYUL;2005-07-11 05:00;METAR CYUL 110500Z 28004KT 15SM FEW240 23/19 A2989 RMK CI1 SLP122=
CYUL;2005-07-11 06:00;METAR CYUL 110600Z 00000KT 15SM SKC 23/19 A2990 RMK SLP125=
CYUL;2005-07-11 07:00;METAR CYUL 110700Z 19002KT 15SM SKC 22/19 A2991 RMK SLP127=
CYUL;2005-07-11 08:00;METAR CYUL 110800Z 00000KT 15SM SKC 22/19 A2991 RMK SLP129=
CYUL;2005-07-11 09:00;METAR CYUL 110900Z 24003KT 15SM FEW180 22/19 A2992 RMK AC1 SLP130=
CYUL;2005-07-11 10:00;METAR CYUL 111000Z 23003KT 12SM FEW240 22/19 A2993 RMK CI0 SLP134=
CYUL;2005-07-11 11:00;METAR CYUL 111100Z 24004KT 12SM FEW240 22/19 A2995 RMK CI1 CC ASOCT SLP141=
CYUL;2005-07-11 12:00;METAR CYUL 111200Z 23006KT 12SM SCT240 23/20 A2996 RMK CI2 SLP145=
CYUL;2005-07-11 13:00;METAR CYUL 111300Z 26003KT 12SM SCT240 25/20 A2997 RMK CI1 SLP150=
CYUL;2005-07-11 14:00;METAR CYUL 111400Z 26005KT 12SM SCT240 27/21 A2997 RMK CI1 SLP150=
CYUL;2005-07-11 15:00;METAR CYUL 111500Z 31008KT 12SM SCT220 29/20 A2997 RMK CI1 SLP149=
CYUL;2005-07-11 16:00;METAR CYUL 111600Z 31010KT 12SM BKN210 31/18 A2996 RMK CI2 SLP144=
CYUL;2005-07-11 17:00;METAR CYUL 111700Z 33012KT 12SM FEW050 BKN220 32/18 A2994 RMK CU2CI1 SLP138=
CYUL;2005-07-11 18:00;METAR CYUL 111800Z 31008KT 12SM SCT065 BKN220 32/17 A2993 RMK CU4CI0 SLP134=
CYUL;2005-07-11 19:00;METAR CYUL 111900Z 01009KT 12SM SCT065 BKN220 32/16 A2992 RMK CU4CI0 TCU ASOCT SLP133=
CYUL;2005-07-11 20:00;METAR CYUL 112000Z 04007KT 12SM SCT090 BKN210 32/17 A2992 RMK ACC4CI0 SLP133=
CYUL;2005-07-11 21:00;METAR CYUL 112100Z 01004KT 12SM SCT090 BKN210 32/16 A2992 RMK ACC4CI0 SLP133=
CYUL;2005-07-11 22:00;METAR CYUL 112200Z 33003KT 12SM SCT090 BKN210 32/17 A2993 RMK ACC3CI0 SLP134=
CYUL;2005-07-11 23:00;METAR CYUL 112300Z 14008KT 12SM FEW090 BKN210 30/19 A2994 RMK ACC2CI0 SLP137=
CYUL;2005-07-12 00:00;METAR CYUL 120000Z 13006KT 12SM SCT085 BKN210 28/19 A2995 RMK ACC3CI0 SLP140=
CYUL;2005-07-12 01:00;METAR CYUL 120100Z 15005KT 12SM FEW095 BKN210 27/19 A2996 RMK AC2CI0 SLP145=
CYUL;2005-07-12 02:00;METAR CYUL 120200Z 14007KT 15SM FEW090 27/16 A2997 RMK AC2 SLP149=
CYUL;2005-07-12 03:00;METAR CYUL 120300Z 12003KT 15SM BKN100 26/17 A2999 RMK AC5 SLP154=
CYUL;2005-07-12 04:00;METAR CYUL 120400Z 12004KT 15SM FEW100 24/17 A2999 RMK AC2 SLP154=
CYUL;2005-07-12 05:00;METAR CYUL 120500Z 10002KT 15SM FEW100 25/16 A2998 RMK AC1 SLP152=
CYUL;2005-07-12 06:00;METAR CYUL 120600Z 00000KT 15SM FEW100 21/17 A2999 RMK AC1 SLP155=
CYUL;2005-07-12 07:00;METAR CYUL 120700Z 03008KT 15SM FEW100 21/17 A3000 RMK AC1 SLP159=
CYUL;2005-07-12 08:00;METAR CYUL 120800Z 03007KT 15SM FEW100 21/17 A3001 RMK AC1 SLP162=
CYUL;2005-07-12 09:00;METAR CYUL 120900Z 02006KT 12SM FEW090 20/16 A3002 RMK AC1 SLP166=
CYUL;2005-07-12 10:00;METAR CYUL 121000Z 03008KT 12SM FEW090 19/16 A3002 RMK AC1 SLP167=
CYUL;2005-07-12 12:00;METAR CYUL 121200Z 04006KT 12SM SKC 22/16 A3005 RMK SLP175=
CYUL;2005-07-12 13:00;METAR CYUL 121300Z 04005KT 12SM FEW240 24/17 A3005 RMK CI1 SLP176=
CYUL;2005-07-12 14:00;METAR CYUL 121400Z 36003KT 12SM FEW032 FEW240 25/17 A3005 RMK CU1CI1 SLP175=
CYUL;2005-07-12 15:00;METAR CYUL 121500Z 00000KT 12SM FEW040 FEW240 27/17 A3004 RMK CF1CI1 SLP172=
CYUL;2005-07-12 16:00;METAR CYUL 121600Z 18003KT 12SM FEW040 FEW240 28/18 A3003 RMK CF1CI1 SLP168=
CYUL;2005-07-12 17:00;METAR CYUL 121700Z 15005KT 12SM FEW210 30/16 A3002 RMK CI1 SLP165=
CYUL;2005-07-12 18:00;METAR CYUL 121800Z 07006KT 12SM FEW210 30/17 A3000 RMK CI1 SLP161=
CYUL;2005-07-12 20:00;METAR CYUL 122000Z 18007KT 12SM FEW050 30/16 A2998 RMK CU1 SLP153=
CYUL;2005-07-12 21:00;METAR CYUL 122100Z 13003KT 12SM FEW065 31/17 A2998 RMK CU2 SLP152=
CYUL;2005-07-12 22:00;METAR CYUL 122200Z 12005KT 12SM FEW060 30/16 A2997 RMK CU1 SLP148=
CYUL;2005-07-13 00:00;METAR CYUL 130000Z 08006KT 12SM FEW060 29/17 A2998 RMK CU1 SLP151=
CYUL;2005-07-13 01:00;METAR CYUL 130100Z 08007KT 12SM FEW180 28/16 A2998 RMK AC1 SLP151=
CYUL;2005-07-13 02:00;METAR CYUL 130200Z 12003KT 12SM FEW240 26/16 A2998 RMK CI1 SLP152=
CYUL;2005-07-13 03:00;METAR CYUL 130300Z 13004KT 12SM SKC 25/17 A2997 RMK SLP149=
CYUL;2005-07-13 04:00;METAR CYUL 130400Z 14003KT 12SM SKC 24/17 A2997 RMK SLP147=
CYUL;2005-07-13 06:00;METAR CYUL 130600Z 31004KT 12SM SKC 19/16 A2995 RMK SLP143=
CYUL;2005-07-13 07:00;METAR CYUL 130700Z 00000KT 12SM SKC 22/17 A2995 RMK SLP142=
CYUL;2005-07-13 09:00;METAR CYUL 130900Z 10002KT 12SM BKN110 22/16 A2995 RMK AC5 SLP140=
CYUL;2005-07-13 10:00;METAR CYUL 131000Z 33002KT 12SM FEW020CB FEW100 21/17 A2994 RMK CB1AC1 CB W-NW SLP139=
CYUL;2005-07-13 11:00;METAR CYUL 131100Z 02006KT 10SM FEW100 BKN150 BKN240 22/18 A2995 RMK AC2AC3CI1 SLP142=
CYUL;2005-07-13 12:00;METAR CYUL 131200Z 03005KT 10SM FEW100 BKN140 BKN240 22/18 A2995 RMK AC2AC4CI1 SLP141=
CYUL;2005-07-13 12:20;SPECI CYUL 131220Z 05005KT 10SM -SHRA SCT070 BKN140 BKN240 RMK AC3AC2CI2=
CYUL;2005-07-13 13:38;SPECI CYUL 131338Z 15010G15KT 10SM -SHRA FEW100 BKN170 BKN240 RMK ACC2AC3CI2=
CYUL;2005-07-13 14:00;METAR CYUL 131400Z 11010KT 10SM FEW040CB FEW090 BKN150 OVC240 23/18 A2993 RMK CB1AC2AC5CI1 PRESFR SLP135=
CYUL;2005-07-13 15:00;METAR CYUL 131500Z 35005KT 6SM HZ FEW025TCU FEW040CB BKN120 BKN150 BKN240 24/19 A2998 RMK TCU1CB2AC3AS0CI1 CB W QUAD WND UNSTDY SLP151=
CYUL;2005-07-13 16:00;METAR CYUL 131600Z 27010G15KT 6SM HZ FEW015 FEW035CB BKN100 BKN210 BKN260 26/17 A2998 RMK CU1CB1AC4CI1CI2 WSHFT 1540 UTC SLP152=
CYUL;2005-07-13 17:00;METAR CYUL 131700Z 23008KT 12SM FEW012 FEW035TCU BKN150 BKN180 BKN260 24/17 A2995 RMK CU1TCU2AC2AS1CC1 CB ASOCT SW SLP144=
CYUL;2005-07-13 18:00;METAR CYUL 131800Z 22003KT 12SM FEW030TCU FEW120 BKN190 BKN260 25/18 A2995 RMK TCU1AC1AS5CI1 CB ASOCT SW SLP144=
CYUL;2005-07-13 19:00;METAR CYUL 131900Z 21007KT 12SM FEW030TCU FEW070 SCT190 BKN200 OVC250 25/18 A2993 RMK TCU1AC1AS2CS0CI2 SLP137=
CYUL;2005-07-13 20:00;METAR CYUL 132000Z 19006KT 10SM FEW030TCU FEW070 FEW210 SCT250 25/19 A2993 RMK TCU1AC1CI0CI2 HZ SLP136=
CYUL;2005-07-13 21:00;METAR CYUL 132100Z 20008KT 10SM FEW025 FEW160 BKN210 BKN250 27/19 A2991 RMK SC1AC1CI1CI2 CC ASOCT SLP130=
CYUL;2005-07-13 22:00;METAR CYUL 132200Z 21005KT 12SM FEW022 FEW070 FEW180 SCT210 BKN250 26/18 A2988 RMK CU1AC1AS1CS0CI2 SLP119=
CYUL;2005-07-13 23:00;METAR CYUL 132300Z 21005KT 15SM FEW038TCU FEW160 SCT210 OVC250 26/18 A2991 RMK TCU1AC1CI1CI2 CB ASOCT W SLP128=
CYUL;2005-07-14 00:00;METAR CYUL 140000Z 21004KT 12SM FEW035TCU FEW160 BKN210 OVC250 25/18 A2990 RMK TCU1AC2CI2CI3 SLP126=
CYUL;2005-07-14 01:24;SPECI CYUL 140124Z 24003KT 12SM TS FEW038TCU FEW095 BKN150 OVC210 RMK TCU1AC1AC4CI3 CB EMBD LTNG SW=
CYUL;2005-07-14 03:00;METAR CYUL 140300Z 26002KT 10SM TS BKN065 BKN100 BKN170 24/19 A2992 RMK SC5AC1AC2 CB EMBD LTGCC SLP133=
CYUL;2005-07-14 03:20;SPECI CYUL 140320Z 24005KT 10SM -TSRA BKN060 BKN100 OVC150 RMK SC5AC2AC1 CB EMBD LTGCC=
CYUL;2005-07-14 04:00;METAR CYUL 140400Z 24008KT 12SM FEW055 SCT110 BKN150 BKN210 23/19 A2992 RETS RMK SC2AC2AC1CI1 DIST LTNG W SLP134=
CYUL;2005-07-14 05:00;METAR CYUL 140500Z 26012G18KT 15SM FEW050 BKN070 OVC150 23/18 A2993 RMK SC1AC4AC2 SLP135=
CYUL;2005-07-14 05:04;SPECI CYUL 140504Z 25010G18KT 15SM -SHRA BKN070 BKN100 OVC150 RMK AC5AC2AC1=
CYUL;2005-07-14 05:32;SPECI CYUL 140532Z 25010KT 15SM SCT070 BKN110 BKN150 RMK AC3AC2AC1=
CYUL;2005-07-14 06:00;METAR CYUL 140600Z 24008KT 15SM FEW080 BKN120 BKN160 23/18 A2991 RMK AC2AC3AC1 SLP129=
CYUL;2005-07-14 06:18;SPECI CYUL 140618Z 25006KT 15SM -SHRA FEW080 BKN100 OVC150 RMK AC2AC6AC1=
CYUL;2005-07-14 08:21;SPECI CYUL 140821Z 25007KT 15SM FEW040 BKN080 OVC150 RMK SC2AC4AC2=
CYUL;2005-07-14 09:00;METAR CYUL 140900Z 26006KT 15SM FEW015 SCT020 BKN090 BKN150 22/19 A2991 RMK CF1SC2AC2AC1 SLP130=
CYUL;2005-07-14 10:00;METAR CYUL 141000Z 33005KT 15SM FEW015 FEW060 BKN090 BKN150 21/18 A2992 RMK CF1SC2AC3AC1 TCU ASOCT SLP131=
CYUL;2005-07-14 11:00;METAR CYUL 141100Z 33006KT 15SM FEW040 SCT085 BKN150 BKN210 21/18 A2993 RMK SC1AC3AC1CI0 TCU EMBD SLP135=
CYUL;2005-07-14 11:50;SPECI CYUL 141150Z 29002KT 15SM -SHRA FEW060 BKN090 BKN140 BKN210 RMK SC2AC2AC2CI0 TCU ASOCT=
CYUL;2005-07-14 12:00;METAR CYUL 141200Z 29003KT 15SM -SHRA FEW020 FEW065 BKN110 OVC210 22/19 A2992 RMK CF1SC2AC4CI1 TCU ASOCT SLP134=
CYUL;2005-07-14 12:23;SPECI CYUL 141223Z 28004KT 15SM FEW020 FEW065 BKN110 BKN160 RMK CF1SC2AC4AC1=
CYUL;2005-07-14 13:00;METAR CYUL 141300Z 27003KT 15SM FEW020 BKN110 BKN150 23/19 A2993 RMK CF1AC4AC2 SLP136=
CYUL;2005-07-14 14:00;METAR CYUL 141400Z 23005KT 15SM FEW013 SCT100 SCT140 BKN210 24/19 A2992 RMK CF1AC2AC1CI2 SLP134=
CYUL;2005-07-14 16:00;METAR CYUL 141600Z 20009KT 15SM FEW026 FEW062 FEW180 SCT250 26/20 A2991 RMK CF2SC1AC1CI0 SLP130=
CYUL;2005-07-14 17:00;METAR CYUL 141700Z 24014KT 15SM BKN027 BKN180 BKN240 26/21 A2992 RMK SC6AC1CI1 CF ASOCT SLP131=
CYUL;2005-07-14 18:00;METAR CYUL 141800Z 25017KT 15SM FEW024 SCT032TCU SCT090 BKN180 28/21 A2990 RMK CF2TCU2AC1AC0 CB ASOCT NE SLP124=
CYUL;2005-07-14 19:00;METAR CYUL 141900Z 27013KT 15SM SCT032 SCT078 29/21 A2989 RMK CF3AC1 TCU ASOCT SLP121=
CYUL;2005-07-14 20:00;METAR CYUL 142000Z 26012KT 15SM FEW032 FEW150 FEW250 29/21 A2988 RMK CU2AC1CC1 TCU ASOCT SLP117=
CYUL;2005-07-14 21:00;METAR CYUL 142100Z 27010KT 12SM FEW032 FEW150 FEW250 29/21 A2987 RMK CU2AC1CI1 CB ASOCT NE SLP114=
CYUL;2005-07-14 22:00;METAR CYUL 142200Z 27010G16KT 15SM -SHRA BKN033TCU BKN055 BKN090 BKN150 28/21 A2988 RMK TCU5CF1AC1AC1 SLP119=
CYUL;2005-07-14 22:15;SPECI CYUL 142215Z 29011G16KT 15SM VCSH SCT035TCU BKN055 BKN092 BKN160 RMK TCU3CF2AC1AC1 CB ASOCT NE=
CYUL;2005-07-14 23:00;METAR CYUL 142300Z 31012KT 15SM FEW035TCU SCT058 SCT092 SCT250 27/19 A2991 RMK TCU2CF1AC1CI0 SLP128=
CYUL;2005-07-15 00:00;METAR CYUL 150000Z 33009KT 15SM BKN046 BKN100 BKN250 26/18 A2993 RMK SC5AC1CI0 TCU ASOCT SLP135=
CYUL;2005-07-15 01:00;METAR CYUL 150100Z 30003KT 15SM FEW052 FEW085 FEW250 23/16 A2994 RMK SC1AC1CI1 CF ASOCT SLP139=
CYUL;2005-07-15 02:00;METAR CYUL 150200Z 31005KT 15SM FEW055 FEW250 22/17 A2997 RMK SC1CI0 SLP149=
CYUL;2005-07-15 03:00;METAR CYUL 150300Z 30006KT 15SM FEW250 21/17 A2998 RMK CI0 SLP151=
CYUL;2005-07-15 04:00;METAR CYUL 150400Z 00000KT 15SM SKC 22/17 A2998 RMK SLP153=
CYUL;2005-07-15 05:00;METAR CYUL 150500Z 00000KT 15SM SKC 20/16 A2998 RMK SLP152=
CYUL;2005-07-15 06:00;METAR CYUL 150600Z 35006KT 15SM SKC 19/16 A2999 RMK SLP157=
CYUL;2005-07-15 07:00;METAR CYUL 150700Z 04005KT 15SM FEW120 21/15 A3000 RMK AC1 SLP161=
CYUL;2005-07-15 08:00;METAR CYUL 150800Z 04006KT 15SM FEW240 20/14 A3002 RMK CI0 SLP165=
CYUL;2005-07-15 09:00;METAR CYUL 150900Z 02005KT 15SM FEW240 19/14 A3003 RMK CI0 SLP171=
CYUL;2005-07-15 10:00;METAR CYUL 151000Z 03006KT 30SM FEW120 FEW240 19/14 A3007 RMK AC1CI0 SLP183=
CYUL;2005-07-15 11:00;METAR CYUL 151100Z 03006KT 30SM FEW120 21/14 A3008 RMK AC1 SLP187=
CYUL;2005-07-15 12:00;METAR CYUL 151200Z 05008KT 30SM SKC 23/14 A3010 RMK SLP193=
CYUL;2005-07-15 13:00;METAR CYUL 151300Z 07007KT 30SM SKC 24/14 A3011 RMK SLP197=
CYUL;2005-07-15 14:00;METAR CYUL 151400Z 06006KT 30SM SKC 25/15 A3011 RMK SLP198=
CYUL;2005-07-15 15:00;METAR CYUL 151500Z 11004KT 25SM FEW036 26/14 A3011 RMK CU1 SLP198=
CYUL;2005-07-15 16:00;METAR CYUL 151600Z 09008KT 30SM FEW018 FEW040 27/15 A3011 RMK CF1CU1 SLP195=
CYUL;2005-07-15 17:00;METAR CYUL 151700Z 19005KT 30SM FEW045 27/15 A3011 RMK CF1 SLP195=
CYUL;2005-07-15 18:00;METAR CYUL 151800Z 16008KT 30SM FEW055 FEW100 29/14 A3009 RMK CF1AC1 WND UNSTDY SLP189=
CYUL;2005-07-15 19:00;METAR CYUL 151900Z 10005KT 30SM FEW060 FEW210 FEW280 29/14 A3008 RMK CF1CI1CI1 WND UNSTDY SLP186=
CYUL;2005-07-15 20:00;METAR CYUL 152000Z 17004KT 30SM FEW062 FEW280 28/14 A3007 RMK CU1CI0 WND UNSTDY SLP184=
CYUL;2005-07-15 21:00;METAR CYUL 152100Z 07003KT 30SM FEW065 FEW250 29/12 A3007 RMK CU1CI1 WND 050 V 170 SLP183=
CYUL;2005-07-15 22:00;METAR CYUL 152200Z 28004KT 240V340 30SM FEW065 FEW250 29/13 A3006 RMK CU1CI1 SLP181=
CYUL;2005-07-15 23:00;METAR CYUL 152300Z 07007KT 030V100 30SM FEW250 28/11 A3007 RMK CI0 SLP182=
CYUL;2005-07-16 00:00;METAR CYUL 160000Z 12006KT 090V150 30SM SKC 27/11 A3007 RMK SLP183=
CYUL;2005-07-16 01:00;METAR CYUL 160100Z 15005KT 25SM FEW210 FEW250 24/14 A3008 RMK CI1CI1 SLP186=
CYUL;2005-07-16 02:00;METAR CYUL 160200Z 15004KT 15SM FEW210 23/15 A3009 RMK CI1 SLP190=
CYUL;2005-07-16 03:00;METAR CYUL 160300Z 12003KT 15SM SKC 22/15 A3009 RMK SLP191=
CYUL;2005-07-16 04:00;METAR CYUL 160400Z 00000KT 15SM SKC 22/14 A3010 RMK SLP192=
CYUL;2005-07-16 05:00;METAR CYUL 160500Z 10003KT 15SM FEW240 22/14 A3010 RMK CI0 SLP192=
CYUL;2005-07-16 06:00;METAR CYUL 160600Z 05002KT 15SM SKC 22/14 A3009 RMK SLP190=
CYUL;2005-07-16 09:00;METAR CYUL 160900Z 04003KT 15SM FEW240 21/13 A3010 RMK CI1 SLP192=
CYUL;2005-07-16 10:00;METAR CYUL 161000Z 03003KT 15SM FEW120 SCT240 19/14 A3011 RMK AC1CI1 SLP195=
CYUL;2005-07-16 11:00;METAR CYUL 161100Z 03005KT 15SM FEW060 FEW120 BKN240 21/15 A3011 RMK SC1AC1CI2 SLP196=
CYUL;2005-07-16 12:00;METAR CYUL 161200Z 06005KT 15SM FEW060 FEW090 BKN240 23/16 A3012 RMK SC2AC1CI1 SLP200=
CYUL;2005-07-16 13:00;METAR CYUL 161300Z 05006KT 15SM FEW060 BKN240 25/16 A3012 RMK SC1CI2 SLP200=
CYUL;2005-07-16 14:00;METAR CYUL 161400Z 11007KT 15SM FEW220 SCT260 26/15 A3011 RMK CI0CC2 SLP195=
CYUL;2005-07-16 15:00;METAR CYUL 161500Z 10005KT 15SM FEW220 SCT260 27/16 A3010 RMK CI1CC0 SLP193=
CYUL;2005-07-16 16:00;METAR CYUL 161600Z 07008KT 15SM SCT220 28/16 A3008 RMK CI1 CC ASOCT SLP188=
CYUL;2005-07-16 17:00;METAR CYUL 161700Z 13007KT 090V160 15SM FEW180 SCT250 29/18 A3008 RMK AS0CI1 SLP185=
CYUL;2005-07-16 18:00;METAR CYUL 161800Z 11007KT 15SM FEW180 SCT220 OVC260 30/17 A3006 RMK AC1CI1CI1 CC ASOCT SLP181=
CYUL;2005-07-16 19:00;METAR CYUL 161900Z 11004KT 15SM FEW075 FEW180 SCT220 OVC270 30/17 A3005 RMK AC1AC1CI1CI0 SLP176=
CYUL;2005-07-16 20:00;METAR CYUL 162000Z 11007KT 15SM FEW075 FEW180 FEW240 31/19 A3003 RMK AC1AC1CI1 SLP168=
CYUL;2005-07-16 21:00;METAR CYUL 162100Z 17008KT 140V200 15SM FEW056 FEW210 SCT240 31/20 A3002 RMK CF1CI1CI0 SLP165=
CYUL;2005-07-16 22:00;METAR CYUL 162200Z 16007KT 15SM FEW052 FEW210 SCT250 30/19 A3002 RMK CU1CI2CI0 SLP167=
CYUL;2005-07-16 23:00;METAR CYUL 162300Z 14007KT 12SM FEW030CB FEW042 FEW090 BKN220 30/22 A3002 RMK CB1CU1AC1CI1 CB S QUAD SLP165=
CYUL;2005-07-17 00:00;METAR CYUL 170000Z 22003KT 180V270 12SM FEW028 FEW040 SCT090 OVC250 27/21 A3002 RMK SC2CU1AC2CI0 SLP165=
CYUL;2005-07-17 03:00;METAR CYUL 170300Z 25003KT 12SM FEW085 BKN240 26/20 A3002 RMK AC1CI3 SLP166=
CYUL;2005-07-17 04:00;METAR CYUL 170400Z 00000KT 12SM FEW085 BKN240 25/20 A3003 RMK AC2CI2 SLP168=
CYUL;2005-07-17 05:00;METAR CYUL 170500Z 00000KT 12SM FEW045 BKN110 BKN240 24/20 A3002 RMK CF2AC2CI2 SLP167=
CYUL;2005-07-17 06:00;METAR CYUL 170600Z 16003KT 12SM FEW045 BKN100 25/21 A3002 RMK CF2AC5 SLP166=
CYUL;2005-07-17 07:00;METAR CYUL 170700Z 17004KT 12SM FEW050 OVC100 25/21 A3002 RMK SC1AC8 SLP165=
CYUL;2005-07-17 08:00;METAR CYUL 170800Z 16002KT 10SM -SHRA BKN035 OVC055 24/21 A3002 RMK SC6SC2 SLP165=
CYUL;2005-07-17 08:22;SPECI CYUL 170822Z 15004KT 10SM BKN035 OVC055 24/ RMK SC6SC2=
CYUL;2005-07-17 09:00;METAR CYUL 170900Z 00000KT 10SM BKN080 OVC110 24/21 A3002 RMK AC6AC2 SLP165=
CYUL;2005-07-17 09:17;SPECI CYUL 170917Z 00000KT 5SM -SHRA BR SCT055 OVC100 24/ RMK SC4AC4=
CYUL;2005-07-17 10:00;METAR CYUL 171000Z 14004KT 5SM BR OVC035 24/22 A3002 RMK SC8 SLP166=
CYUL;2005-07-17 11:00;METAR CYUL 171100Z 16004KT 5SM BR OVC030 24/22 A3003 RMK SC8 SLP170=
CYUL;2005-07-17 11:43;SPECI CYUL 171143Z 23005KT 6SM -SHRA BR OVC023 24/ RMK SC8=
CYUL;2005-07-17 12:00;METAR CYUL 171200Z 22005KT 5SM -SHRA BR OVC025 24/22 A3005 RMK SC8 SLP175=
CYUL;2005-07-17 13:00;METAR CYUL 171300Z 19005KT 4SM -RA BR FEW012 OVC021 24/22 A3005 RERA RMK SF1SC7 SLP176=
CYUL;2005-07-17 13:50;SPECI CYUL 171350Z 15008KT 4SM -RA BR FEW006 SCT045 OVC100 24/ RMK SF1CF2AC5=
CYUL;2005-07-17 14:00;METAR CYUL 171400Z 16003KT 3SM -RA BR FEW006 SCT045 OVC100 24/22 A3003 RMK SF1CF2AC5 SLP171=
CYUL;2005-07-17 14:43;SPECI CYUL 171443Z 20003KT 3SM BR SCT007 OVC030 24/ RMK SF3SC5=
CYUL;2005-07-17 15:00;METAR CYUL 171500Z 20005KT 4SM BR BKN009 OVC050 24/22 A3004 RMK SF5SC3 SLP173=
CYUL;2005-07-17 15:24;SPECI CYUL 171524Z 16005KT 4SM -RA BR BKN009 OVC030 24/ RMK SF6SC2 -RA INTMT=
CYUL;2005-07-17 16:00;METAR CYUL 171600Z 16006KT 3SM -RA BR BKN010 OVC040 24/22 A3004 RMK SF6SC2 SLP173=
CYUL;2005-07-17 17:00;METAR CYUL 171700Z 15005KT 4SM BR SCT009 OVC050 24/23 A3003 RMK SF4SC4 SLP170=
CYUL;2005-07-17 18:00;METAR CYUL 171800Z 15005KT 6SM BR FEW009 OVC028 26/23 A3002 RMK SF2SC6 SLP166=
CYUL;2005-07-17 19:00;METAR CYUL 171900Z 16004KT 6SM BR FEW011 BKN030 OVC065 26/23 A3000 RMK SF2SC5SC2 SLP160=
CYUL;2005-07-17 20:00;METAR CYUL 172000Z 15005KT 6SM HZ FEW011 SCT030 OVC130 27/23 A2998 RMK SF2SC2AC4 SLP153=
CYUL;2005-07-17 21:00;METAR CYUL 172100Z 14006KT 6SM HZ FEW040 FEW065 SCT150 OVC240 27/23 A2996 RMK SC1SC2AC2CS2 SLP147=
CYUL;2005-07-17 22:00;METAR CYUL 172200Z 14005KT 8SM FEW065 BKN160 OVC240 27/23 A2996 RMK SC1AC5CS2 SLP145=
CYUL;2005-07-17 23:00;METAR CYUL 172300Z 11006KT 8SM FEW060 OVC160 27/23 A2995 RMK SC2AC6 SLP142=
CYUL;2005-07-18 00:00;METAR CYUL 180000Z 10005KT 8SM SCT060 BKN120 OVC170 27/23 A2995 RMK SC3AC2AC2 SLP142=
CYUL;2005-07-18 03:00;METAR CYUL 180300Z 15004KT 8SM FEW070 OVC160 25/22 A2993 RMK AC2AC6 SLP137=
CYUL;2005-07-18 04:00;METAR CYUL 180400Z 15005KT 8SM SCT055 BKN100 OVC200 25/22 A2992 RMK SC4AC2CI2 SLP132=
CYUL;2005-07-18 05:00;METAR CYUL 180500Z 16007KT 10SM FEW110 OVC170 25/22 A2991 RMK AC1AC7 SLP129=
CYUL;2005-07-18 06:00;METAR CYUL 180600Z 15007KT 10SM FEW045 BKN120 BKN170 25/22 A2989 RMK SC2AC2AC2 SLP121=
CYUL;2005-07-18 07:00;METAR CYUL 180700Z 16009KT 10SM FEW050 BKN070 25/22 A2987 RMK SC1AC4 SLP116=
CYUL;2005-07-18 08:00;METAR CYUL 180800Z 16005KT 10SM BKN055 OVC075 24/22 A2987 RMK SC5AC2 SLP116=
CYUL;2005-07-18 08:54;SPECI CYUL 180854Z 15007KT 8SM -SHRA BKN040 OVC065 24/ RMK SC7SC1=
CYUL;2005-07-18 09:23;SPECI CYUL 180923Z 18008KT 3SM -SHRA BR FEW030 BKN055 BKN075 24/ RMK CF1SC7AC1=
CYUL;2005-07-18 09:48;SPECI CYUL 180948Z 16006KT 8SM FEW030 SCT080 BKN200 24/ RMK CF1AC3CI1 CB EMBD=
CYUL;2005-07-18 10:00;METAR CYUL 181000Z 15007KT 8SM FEW025 FEW080 BKN200 24/22 A2988 RMK CF1AC2CC2 CB EMBD SLP119=
CYUL;2005-07-18 11:00;METAR CYUL 181100Z 16007KT 8SM OVC022 25/22 A2989 RMK SC8 SLP121=
CYUL;2005-07-18 12:00;METAR CYUL 181200Z 18006KT 8SM FEW040 OVC055 26/22 A2990 RMK SC1CU7 SLP123=
CYUL;2005-07-18 13:00;METAR CYUL 181300Z 20006KT 10SM BKN022 OVC045 27/22 A2990 RMK SC7SC1 SLP123=
CYUL;2005-07-18 14:00;METAR CYUL 181400Z 20009KT 10SM BKN030 OVC050 27/22 A2989 RMK SC6SC2 SLP120=
CYUL;2005-07-18 15:00;METAR CYUL 181500Z 21010KT 10SM SCT045TCU OVC240 28/23 A2987 RMK TCU4CS1 SLP114=
CYUL;2005-07-18 16:00;METAR CYUL 181600Z 22014KT 10SM SCT045 BKN220 29/23 A2986 RMK CU3CI2 TCU ASOCT SLP112=
CYUL;2005-07-18 17:00;METAR CYUL 181700Z 23016KT 10SM SCT050 BKN220 30/23 A2986 RMK CU4CI1 TCU ASOCT SLP111=
CYUL;2005-07-18 18:00;METAR CYUL 181800Z 22016KT 12SM SCT050 BKN220 30/22 A2984 RMK CU3CI1 TCU ASOCT SLP105=
CYUL;2005-07-18 19:00;METAR CYUL 181900Z 22015KT 12SM SCT060 BKN220 30/23 A2983 RMK CU3CI2 TCU ASOCT SLP102=
CYUL;2005-07-18 20:00;METAR CYUL 182000Z 22013KT 12SM FEW060TCU BKN150 BKN220 31/23 A2982 RMK TCU2AC1CI2 SLP097=
CYUL;2005-07-18 21:00;METAR CYUL 182100Z 23012G17KT 12SM FEW060 BKN180 BKN240 31/22 A2980 RMK CU2AC1CI0 SLP092=
CYUL;2005-07-18 22:00;METAR CYUL 182200Z 23011KT 12SM FEW050 FEW180 30/23 A2981 RMK CU2AC0 SLP093=
CYUL;2005-07-18 23:00;METAR CYUL 182300Z 21010KT 12SM FEW050 FEW180 30/23 A2981 RMK CU1AC1 SLP095=
CYUL;2005-07-19 00:00;METAR CYUL 190000Z 21008KT 12SM FEW180 SCT240 30/23 A2982 RMK AC2CI0 SLP098=
CYUL;2005-07-19 01:00;METAR CYUL 190100Z 21007KT 12SM SCT180 BKN240 28/23 A2981 RMK AC2CI1 SLP095=
CYUL;2005-07-19 02:00;METAR CYUL 190200Z 21006KT 12SM OVC240 28/23 A2982 RMK CI5 SLP096=
CYUL;2005-07-19 04:00;METAR CYUL 190400Z 22007KT 10SM FEW240 26/22 A2981 RMK CI1 SLP094=
CYUL;2005-07-19 05:00;METAR CYUL 190500Z 21006KT 10SM BKN240 26/22 A2981 RMK CI2 SLP093=
CYUL;2005-07-19 06:00;METAR CYUL 190600Z 18008KT 10SM FEW240 25/21 A2979 RMK CI1 SLP088=
CYUL;2005-07-19 07:00;METAR CYUL 190700Z 18007KT 10SM FEW240 25/21 A2979 RMK CI1 SLP086=
CYUL;2005-07-19 08:00;METAR CYUL 190800Z 18005KT 10SM SCT240 24/21 A2978 RMK CI1 SLP084=
CYUL;2005-07-19 09:00;METAR CYUL 190900Z 17006KT 8SM SCT050 BKN240 24/21 A2978 RMK CU3CI2 SLP085=
CYUL;2005-07-19 10:00;METAR CYUL 191000Z 18008KT 8SM FEW180 OVC240 25/21 A2979 RMK AC1CI3 SLP088=
CYUL;2005-07-19 11:00;METAR CYUL 191100Z 20008KT 10SM SCT045TCU OVC240 26/21 A2979 RMK TCU3CI2 SLP089=
CYUL;2005-07-19 12:00;METAR CYUL 191200Z 21010KT 10SM SCT160 OVC240 26/21 A2981 RMK AC4CI1 SLP093=
CYUL;2005-07-19 13:00;METAR CYUL 191300Z 24013KT 10SM FEW040 BKN150 BKN240 27/22 A2980 RMK CF1AC7CI1 SLP092=
CYUL;2005-07-19 14:00;METAR CYUL 191400Z 24013G18KT 10SM FEW040 BKN180 OVC240 27/22 A2981 RMK CF1AC6CI2 SLP094=
CYUL;2005-07-19 14:52;SPECI CYUL 191452Z 23011KT 6SM -RA BKN033 OVC090 RMK SC6AC2=
CYUL;2005-07-19 15:00;METAR CYUL 191500Z 24010KT 6SM -RA BKN033 OVC090 27/23 A2982 RMK SC6AC2 SLP097=
CYUL;2005-07-19 15:31;SPECI CYUL 191531Z 23012KT 8SM SCT030 BKN065 OVC090 RMK SC3SC2AC2=
CYUL;2005-07-19 16:00;METAR CYUL 191600Z 23013KT 8SM FEW030TCU BKN060 BKN210 28/23 A2981 RMK TCU2SC2CI0 SLP094=
CYUL;2005-07-19 17:00;METAR CYUL 191700Z 23014KT 10SM SCT030 BKN180 29/23 A2980 RMK CU4AC0 TCU ASOCT SLP091=
CYUL;2005-07-19 18:00;METAR CYUL 191800Z 25014G27KT 10SM SCT035 BKN200 30/22 A2979 RMK CU4CI0 SLP088=
CYUL;2005-07-19 19:00;METAR CYUL 191900Z 24016KT 12SM BKN040 BKN200 30/22 A2978 RMK CU5CI1 SLP085=
CYUL;2005-07-19 20:00;METAR CYUL 192000Z 26014G19KT 12SM SCT045 BKN200 31/19 A2979 RMK CU4CI1 SLP086=
CYUL;2005-07-19 21:00;METAR CYUL 192100Z 25013G18KT 15SM SCT050 31/19 A2979 RMK CU3 SLP086=
CYUL;2005-07-19 22:00;METAR CYUL 192200Z 26016KT 15SM FEW050 FEW120 31/18 A2979 RMK CU2AC1 SLP087=
CYUL;2005-07-20 00:00;METAR CYUL 200000Z 22011KT 15SM FEW050 FEW100 28/19 A2982 RMK CU1AC2 SLP097=
CYUL;2005-07-20 01:00;METAR CYUL 200100Z 24007KT 15SM FEW100 SCT240 27/18 A2984 RMK AC2CI0 SLP104=
CYUL;2005-07-20 02:00;METAR CYUL 200200Z 25005KT 15SM FEW060TCU FEW090 SCT240 27/19 A2987 RMK TCU1AC2CI0 SLP113=
CYUL;2005-07-20 03:00;METAR CYUL 200300Z 25004KT 15SM FEW060TCU SCT100 24/19 A2987 RMK TCU1AC2 SLP116=
CYUL;2005-07-20 04:00;METAR CYUL 200400Z 30007KT 15SM FEW070 BKN100 24/19 A2989 RMK AC1AC4 SLP121=
CYUL;2005-07-20 05:00;METAR CYUL 200500Z 33008KT 15SM FEW070 BKN090 23/18 A2990 RMK AC2AC3 SLP126=
CYUL;2005-07-20 06:00;METAR CYUL 200600Z 35005KT 15SM SCT080 23/17 A2991 RMK AC4 SLP129=
CYUL;2005-07-20 07:00;METAR CYUL 200700Z 34004KT 15SM SCT080 22/16 A2991 RMK AC3 SLP129=
CYUL;2005-07-20 08:00;METAR CYUL 200800Z 33002KT 15SM SCT080 20/16 A2993 RMK AC4 SLP134=
CYUL;2005-07-20 09:00;METAR CYUL 200900Z 31004KT 15SM SCT075 19/16 A2995 RMK AC4 SLP141=
CYUL;2005-07-20 10:00;METAR CYUL 201000Z 31006KT 30SM FEW080 19/16 A2996 RMK AC2 SLP147=
CYUL;2005-07-20 11:00;METAR CYUL 201100Z 31004KT 30SM FEW050 FEW075 21/16 A2998 RMK SC1AC2 SLP152=
CYUL;2005-07-20 12:00;METAR CYUL 201200Z 34006KT 30SM FEW050 FEW075 22/16 A3000 RMK SC1AC1 SLP158=
CYUL;2005-07-20 13:00;METAR CYUL 201300Z 33007KT 30SM FEW040 FEW080 FEW240 22/16 A3000 RMK CU1AC1CI1 SLP159=
CYUL;2005-07-20 14:00;METAR CYUL 201400Z 28005KT 30SM FEW040 FEW080 23/15 A2999 RMK CU1AC1 SLP157=
CYUL;2005-07-20 15:00;METAR CYUL 201500Z 29007KT 30SM FEW030 FEW120 24/16 A3000 RMK CF1AC1 SLP158=
CYUL;2005-07-20 17:00;METAR CYUL 201700Z 27011KT 30SM FEW040 25/16 A2999 RMK CU2 SLP155=
CYUL;2005-07-20 18:00;METAR CYUL 201800Z 26009G15KT 30SM FEW040 26/15 A2998 RMK CU2 SLP153=
CYUL;2005-07-20 19:00;METAR CYUL 201900Z 26011KT 30SM FEW040 26/15 A2998 RMK CU2 SLP151=
CYUL;2005-07-20 20:00;METAR CYUL 202000Z 27010G17KT 30SM FEW040 SCT240 26/16 A2997 RMK CU2CI0 SLP149=
CYUL;2005-07-20 21:00;METAR CYUL 202100Z 27008KT 30SM FEW040 FEW240 26/15 A2996 RMK CU1CI0 SLP145=
CYUL;2005-07-20 22:00;METAR CYUL 202200Z 27011KT 30SM FEW040 FEW240 27/15 A2994 RMK CU1CI0 SLP140=
CYUL;2005-07-20 23:00;METAR CYUL 202300Z 25010KT 30SM FEW240 26/16 A2993 RMK CI0 SLP137=
CYUL;2005-07-21 00:00;METAR CYUL 210000Z 25007KT 30SM BKN240 25/15 A2994 RMK CI1 SLP138=
CYUL;2005-07-21 01:00;METAR CYUL 210100Z 25006KT 15SM BKN240 24/15 A2995 RMK CI2 SLP142=
CYUL;2005-07-21 02:00;METAR CYUL 210200Z 26006KT 15SM FEW120 BKN240 23/16 A2995 RMK AC1CI2 SLP144=
CYUL;2005-07-21 04:00;METAR CYUL 210400Z 26003KT 15SM BKN240 21/16 A2996 RMK CI1 SLP146=
CYUL;2005-07-21 05:00;METAR CYUL 210500Z 27005KT 15SM FEW090 BKN240 20/16 A2996 RMK AC1CI0 SLP145=
CYUL;2005-07-21 06:00;METAR CYUL 210600Z 24005KT 15SM FEW150 SCT210 BKN240 22/16 A2994 RMK AC2CC2CI0 SLP140=
CYUL;2005-07-21 07:00;METAR CYUL 210700Z 22006KT 15SM FEW150 BKN240 21/17 A2994 RMK AC2CI1 SLP138=
CYUL;2005-07-21 09:00;METAR CYUL 210900Z 25004KT 15SM FEW150 BKN240 20/17 A2993 RMK AC2CI2 SLP135=
CYUL;2005-07-21 10:00;METAR CYUL 211000Z 25006KT 15SM FEW150 BKN240 20/17 A2993 RMK AC2CI2 CC ASOCT SLP137=
CYUL;2005-07-21 11:00;METAR CYUL 211100Z 24008KT 30SM FEW090 SCT160 BKN230 20/17 A2994 RMK AC1AC2CI2 SLP140=
CYUL;2005-07-21 12:00;METAR CYUL 211200Z 24007KT 30SM FEW100 SCT150 BKN210 BKN240 21/17 A2994 RMK AC2AC2CC2CI0 SLP139=
CYUL;2005-07-21 13:00;METAR CYUL 211300Z 24009KT 30SM FEW090 SCT160 BKN210 22/17 A2992 RMK AC1AC3CC2 SLP134=
CYUL;2005-07-21 14:00;METAR CYUL 211400Z 23007KT 30SM FEW090 BKN180 BKN210 BKN260 24/17 A2991 RMK AC1AC4CC1CI1 SLP130=
CYUL;2005-07-21 15:00;METAR CYUL 211500Z 21008KT 30SM SCT180 BKN210 BKN260 25/19 A2991 RMK AC3CC2CI0 SLP128=
CYUL;2005-07-21 16:00;METAR CYUL 211600Z 20009KT 25SM FEW020 FEW120 FEW160 SCT210 BKN260 26/19 A2990 RMK CU1AC1AC2CI2CI0 SLP124=
CYUL;2005-07-21 17:00;METAR CYUL 211700Z 22011KT 25SM FEW015 FEW038 FEW160 FEW240 28/18 A2988 RMK CU1CU1AC1CC1 SLP119=
CYUL;2005-07-21 18:00;METAR CYUL 211800Z 21010G15KT 20SM FEW018 FEW032 FEW160 FEW240 28/20 A2988 RMK CU1CF1AC1CC1 SLP117=
CYUL;2005-07-21 19:00;METAR CYUL 211900Z 22012KT 20SM FEW041 SCT210 29/19 A2987 RMK CF2CI0 CU ASOCT SLP114=
CYUL;2005-07-21 20:00;METAR CYUL 212000Z 23013KT 20SM SCT040 SCT220 29/20 A2985 RMK CF3CI0 SLP107=
CYUL;2005-07-21 21:00;METAR CYUL 212100Z 26014KT 20SM FEW048 FEW240 30/18 A2984 RMK CU2CI0 CF ASOCT SLP105=
CYUL;2005-07-21 23:00;METAR CYUL 212300Z 22012KT 20SM FEW055 FEW240 29/19 A2983 RMK CU1CI1 CF ASOCT SLP101=
CYUL;2005-07-22 00:00;METAR CYUL 220000Z 23009KT 20SM FEW055 FEW085 SCT250 28/19 A2982 RMK CU1AC2CC2 SLP099=
CYUL;2005-07-22 01:00;METAR CYUL 220100Z 24007KT 15SM FEW022 FEW040 FEW088 SCT250 28/17 A2984 RMK SC1SC2AC1CI0 SLP103=
CYUL;2005-07-22 01:18;SPECI CYUL 220118Z 26008KT 15SM TS FEW020CB FEW040 SCT150 BKN250 RMK CB1SC1AC2CI2 LTNG N QUAD=
CYUL;2005-07-22 01:34;SPECI CYUL 220134Z 25009KT 15SM FEW020CB FEW040 SCT150 BKN250 RMK CB1SC1AC2CI2=
CYUL;2005-07-22 02:00;METAR CYUL 220200Z 26009G15KT 15SM FEW090 SCT130 BKN250 27/18 A2985 RETS RMK AC1AC3CI0 SLP107=
CYUL;2005-07-22 03:00;METAR CYUL 220300Z 26006KT 15SM FEW130 25/19 A2985 RMK AC2 SLP109=
CYUL;2005-07-22 04:00;METAR CYUL 220400Z 28005KT 15SM FEW120 FEW250 24/19 A2987 RMK AC1CI1 SLP113=
CYUL;2005-07-22 05:00;METAR CYUL 220500Z 23006KT 15SM FEW120 FEW250 24/19 A2985 RMK AC1CI1 SLP109=
CYUL;2005-07-22 06:00;METAR CYUL 220600Z 26004KT 15SM FEW110 22/18 A2985 RMK AC2 SLP108=
CYUL;2005-07-22 07:00;METAR CYUL 220700Z 23003KT 15SM FEW110 22/18 A2986 RMK AC2 SLP110=
CYUL;2005-07-22 08:00;METAR CYUL 220800Z 29002KT 15SM FEW110 FEW250 20/18 A2987 RMK AC1CI0 SLP114=
CYUL;2005-07-22 09:00;METAR CYUL 220900Z 00000KT 10SM PRFG FEW100 FEW240 20/18 A2986 RMK AC1CI0 SLP112=
CYUL;2005-07-22 10:00;METAR CYUL 221000Z 24004KT 12SM PRFG FEW030TCU FEW100 SCT240 20/18 A2988 RMK TCU1AC1CI1 SLP118=
CYUL;2005-07-22 11:00;METAR CYUL 221100Z 28002KT 10SM FEW030TCU FEW120 FEW240 22/19 A2989 RMK TCU1AC1CI1 SLP121=
CYUL;2005-07-22 12:00;METAR CYUL 221200Z 00000KT 12SM FEW040 FEW090 FEW210 23/20 A2990 RMK SC1AC1CI1 TCU ASOCT SLP123=
CYUL;2005-07-22 13:00;METAR CYUL 221300Z 34002KT 12SM FEW020 FEW060 BKN080 24/19 A2990 RMK CF1SC2AC6 TCU ASOCT SLP123=
CYUL;2005-07-22 14:00;METAR CYUL 221400Z 04002KT 12SM SCT026CB SCT060 BKN085 25/18 A2988 RMK CB3SC1AC1 SLP119=
CYUL;2005-07-22 15:00;METAR CYUL 221500Z 02016KT 15SM FEW020 BKN030 OVC085 23/17 A2991 RMK CF1SC6AC1 CB ASOCT NE SLP129=
CYUL;2005-07-22 16:00;METAR CYUL 221600Z 04010G20KT 15SM FEW020 BKN030 OVC090 24/17 A2990 RMK CF1SC6AC1 SLP126=
CYUL;2005-07-22 17:00;METAR CYUL 221700Z 03011KT 15SM BKN040 BKN090 26/15 A2990 RMK SC6AC1 CB ASOCT SLP124=
CYUL;2005-07-22 18:00;METAR CYUL 221800Z 06007KT 15SM FEW020 FEW045TCU FEW090 SCT240 27/17 A2989 RMK SC1TCU2AC1CI0 CB ASOCT SLP120=
CYUL;2005-07-22 19:00;METAR CYUL 221900Z 03007KT 15SM FEW024TCU FEW045CB BKN058 BKN095 BKN250 27/17 A2987 RMK TCU1CB2SC2AC1CI0 SLP116=
CYUL;2005-07-22 19:40;SPECI CYUL 221940Z 05003KT 15SM TS VCSH FEW024TCU SCT045CB BKN060 BKN095 OVC250 RMK TCU1CB2SC2AC2CI0 LTNG NE QUAD=
CYUL;2005-07-22 20:00;METAR CYUL 222000Z 02010G16KT 15SM VCSH FEW025 SCT045CB BKN060 BKN095 OVC250 25/17 A2987 RETS RMK CU1CB2SC3AC1CI0 SLP115=
CYUL;2005-07-22 21:00;METAR CYUL 222100Z 05003KT 15SM FEW040CB BKN062 BKN075 OVC120 26/16 A2987 RMK CB2SC2AC2AC1 SLP114=
CYUL;2005-07-22 21:14;SPECI CYUL 222114Z 05002KT 15SM TS VCSH FEW040CB BKN065 BKN075 OVC130 RMK CB1SC5AC2AC1 LTNG NW=
CYUL;2005-07-22 21:38;SPECI CYUL 222138Z 07003KT 15SM -TSRA BKN040 BKN065 BKN075 OVC130 RMK SC5SC2AC1AC1 CB EMBD=
CYUL;2005-07-22 21:53;SPECI CYUL 222153Z 22006G15KT 1/2SM R06R/2600FT/N R24R/P6000FT/N TSRA FG FEW012 FEW023 BKN035 OVC048 RMK SF1SC2SC5SC1 CB EMBD=
CYUL;2005-07-22 22:00;METAR CYUL 222200Z 21011G18KT 2 1/2SM R06R/2800VP6000FT/N R24R/P6000FT/U -TSRA FEW012 BKN035 BKN048 OVC075 20/19 A2990 RERA RMK SF1SC5SC2AC1 CB EMBD VIS NW 6 SLP124=
CYUL;2005-07-22 22:08;SPECI CYUL 222208Z 21004KT 6SM -TSRA FEW005 FEW012 BKN040 OVC075 RMK SF2SF1SC5AC1 CB EMBD=
CYUL;2005-07-22 22:21;SPECI CYUL 222221Z 18006KT 2 1/2SM R24L/4500VP6000FT/D R24R/3500VP6000FT/D TSRA BR FEW005 BKN015 OVC028 RMK FG1SF1SC5SC2 CB EMBD=
CYUL;2005-07-22 22:25;SPECI CYUL 222225Z 16008KT 1SM R24L/2800FT/N R24R/3500VP6000FT/D +TSRA BR FEW005 BKN015 OVC028 RMK FG1SF1SC5SC2 CB EMBD=
CYUL;2005-07-22 22:35;SPECI CYUL 222235Z 18004KT 4SM R24L/3000VP6000FT/U R24R/4500VP6000FT/U -TSRA FEW005 FEW015 BKN045 OVC075 RERA RMK SF1SF2SC5AC1 CB EMBD=
CYUL;2005-07-22 22:51;SPECI CYUL 222251Z 00000KT 7SM -SHRA FEW004 FEW015 BKN047 OVC075 RETS RMK SF1SF1SC6AC1 CIG RAG=
CYUL;2005-07-22 23:26;SPECI CYUL 222326Z 20006KT 15SM FEW010 FEW045CB BKN062 BKN150 RMK SF1CB2SC4AC1=
CYUL;2005-07-23 00:00;METAR CYUL 230000Z 20006KT 15SM FEW007 FEW046CB SCT065 SCT150 SCT250 21/19 A2991 RMK SF1CB2SC1AC1CC1 /R16/ SLP129=
CYUL;2005-07-23 01:00;METAR CYUL 230100Z 25006KT 15SM FEW045 BKN062 BKN180 22/18 A2992 RMK SC1CF4AC1 SLP134=
CYUL;2005-07-23 02:00;METAR CYUL 230200Z 31003KT 15SM FEW040 FEW080 20/18 A2994 RMK SC1AC2 SLP139=
CYUL;2005-07-23 03:00;METAR CYUL 230300Z 34006KT 15SM FEW060 FEW090 20/17 A2995 RMK SC1AC1 SLP142=
CYUL;2005-07-23 04:00;METAR CYUL 230400Z 34005KT 15SM FEW060 18/14 A2996 RMK SC1 SLP145=
CYUL;2005-07-23 05:00;METAR CYUL 230500Z 32006KT 15SM FEW040 17/13 A2997 RMK SC1 SLP148=
CYUL;2005-07-23 07:00;METAR CYUL 230700Z 32005KT 15SM FEW240 17/12 A2998 RMK CI1 SLP151=
CYUL;2005-07-23 08:00;METAR CYUL 230800Z 32003KT 15SM SKC 16/11 A2999 RMK SLP156=
CYUL;2005-07-23 09:00;METAR CYUL 230900Z 36002KT 15SM FEW030 FEW210 16/11 A3000 RMK SC1CI1 SLP159=
CYUL;2005-07-23 10:00;METAR CYUL 231000Z 35004KT 30SM FEW210 16/11 A3001 RMK CI1 SLP162=
CYUL;2005-07-23 11:00;METAR CYUL 231100Z 29003KT 30SM FEW210 17/12 A3002 RMK CI1 SLP166=
CYUL;2005-07-23 12:00;METAR CYUL 231200Z 30002KT 30SM FEW240 18/12 A3003 RMK CI1 SLP169=
CYUL;2005-07-23 13:00;METAR CYUL 231300Z 32005KT 30SM SKC 20/13 A3004 RMK SLP173=
CYUL;2005-07-23 14:00;METAR CYUL 231400Z 33008KT 30SM FEW010 FEW220 22/19 A3004 RMK SF1CI0 SLP174=
CYUL;2005-07-23 15:00;METAR CYUL 231500Z 32008KT 30SM FEW040 23/13 A3005 RMK CU1 CF ASOCT SLP176=
CYUL;2005-07-23 16:00;METAR CYUL 231600Z 01007KT 30SM SCT048 24/12 A3004 RMK CU4 SLP172=
CYUL;2005-07-23 18:00;METAR CYUL 231800Z 32007G16KT 30SM BKN063 BKN260 25/12 A3003 RMK SC6CI0 CF ASOCT SLP168=
CYUL;2005-07-23 19:00;METAR CYUL 231900Z 32011G19KT 30SM BKN065 BKN260 24/10 A3003 RMK CU6CI0 SLP168=
CYUL;2005-07-23 20:00;METAR CYUL 232000Z 33015KT 30SM SCT065 BKN260 25/10 A3003 RMK CU4CI0 SLP170=
CYUL;2005-07-23 21:00;METAR CYUL 232100Z 31007KT 30SM FEW042 FEW065 BKN092 26/10 A3001 RMK CU1CF2AC2 SLP164=
CYUL;2005-07-23 22:00;METAR CYUL 232200Z 30009KT 30SM FEW042 FEW065 BKN098 24/10 A3000 RMK CU1CU2AC4 SLP160=
CYUL;2005-07-23 23:00;METAR CYUL 232300Z 30011KT 30SM FEW065 BKN090 BKN250 25/11 A3000 RMK CU1AC6CI0 SLP160=
CYUL;2005-07-24 00:00;METAR CYUL 240000Z 33007KT 30SM FEW060 SCT078 BKN100 BKN250 23/11 A3001 RMK SC2AC2AC2CI0 SLP163=
CYUL;2005-07-24 01:00;METAR CYUL 240100Z 32009KT 15SM FEW058 BKN075 BKN100 22/10 A3003 RMK SC2AC3AC2 SLP169=
CYUL;2005-07-24 02:00;METAR CYUL 240200Z 35007KT 15SM BKN080 BKN100 21/11 A3004 RMK AC5AC2 SLP173=
CYUL;2005-07-24 03:00;METAR CYUL 240300Z 35010KT 15SM BKN080 BKN110 21/10 A3005 RMK AC5AC1 SLP176=
CYUL;2005-07-24 04:00;METAR CYUL 240400Z 35006KT 15SM SCT085 20/09 A3007 RMK AC3 SLP182=
CYUL;2005-07-24 06:00;METAR CYUL 240600Z 35005KT 15SM FEW090 16/10 A3008 RMK AC1 SLP185=
CYUL;2005-07-24 09:00;METAR CYUL 240900Z 29003KT 15SM FEW240 12/09 A3009 RMK CI1 SLP189=
CYUL;2005-07-24 10:00;METAR CYUL 241000Z 00000KT 30SM FEW240 14/09 A3009 RMK CI1 SLP189=
CYUL;2005-07-24 11:00;METAR CYUL 241100Z 04002KT 30SM FEW240 16/11 A3009 RMK CI1 SLP190=
CYUL;2005-07-24 12:00;METAR CYUL 241200Z 33003KT 30SM SKC 18/10 A3011 RMK SLP195=
CYUL;2005-07-24 13:00;METAR CYUL 241300Z 34002KT 30SM FEW240 20/11 A3010 RMK CI1 SLP192=
CYUL;2005-07-24 14:00;METAR CYUL 241400Z 21003KT 30SM FEW040 FEW240 22/09 A3009 RMK CF1CI1 SLP190=
CYUL;2005-07-24 15:00;METAR CYUL 241500Z 00000KT 30SM FEW040 FEW240 22/11 A3008 RMK CF1CI1 CC ASOCT SLP185=
CYUL;2005-07-24 16:00;METAR CYUL 241600Z 20009KT 30SM FEW040 FEW240 23/10 A3007 RMK CF1CI1 SLP184=
CYUL;2005-07-24 17:00;METAR CYUL 241700Z 20005KT 30SM FEW050 FEW240 23/10 A3004 RMK CU1CI1 SLP174=
CYUL;2005-07-24 18:00;METAR CYUL 241800Z 22008KT 30SM FEW050 FEW240 23/09 A3002 RMK CU1CI1 SLP167=
CYUL;2005-07-24 19:00;METAR CYUL 241900Z 19008KT 30SM FEW055 FEW240 24/10 A3000 RMK CU1CI1 SLP159=
CYUL;2005-07-24 20:00;METAR CYUL 242000Z 23006KT 30SM FEW060 FEW180 FEW220 24/10 A2998 RMK CU1AC1CC1 SLP151=
CYUL;2005-07-24 21:00;METAR CYUL 242100Z 20004KT 30SM FEW240 24/10 A2995 RMK CI1 CC ASOCT SLP142=
CYUL;2005-07-24 22:00;METAR CYUL 242200Z 19006KT 30SM FEW240 24/10 A2992 RMK CI1 SLP132=
CYUL;2005-07-24 23:00;METAR CYUL 242300Z 22005KT 30SM BKN240 24/11 A2991 RMK CI2 SLP129=
CYUL;2005-07-25 00:00;METAR CYUL 250000Z 16004KT 30SM FEW180 BKN240 23/12 A2988 RMK AC1CI2 SLP120=
CYUL;2005-07-25 01:00;METAR CYUL 250100Z 15008KT 15SM BKN140 BKN240 22/14 A2988 RMK AC5CI1 SLP120=
CYUL;2005-07-25 03:00;METAR CYUL 250300Z 14011KT 15SM OVC100 22/13 A2983 RMK AC8 SLP103=
CYUL;2005-07-25 04:00;METAR CYUL 250400Z 15010KT 15SM OVC075 21/14 A2980 RMK AC8 SLP092=
CYUL;2005-07-25 05:00;METAR CYUL 250500Z 17012G18KT 15SM OVC070 22/15 A2977 RMK AC8 SLP082=
CYUL;2005-07-25 06:00;METAR CYUL 250600Z 17009KT 15SM OVC060 22/15 A2973 RMK SC8 SLP068=
CYUL;2005-07-25 07:00;METAR CYUL 250700Z 19009KT 15SM OVC060 23/15 A2970 RMK SC8 SLP056=
CYUL;2005-07-25 08:00;METAR CYUL 250800Z 20006KT 15SM OVC052 23/15 A2968 RMK SC8 SLP049=
CYUL;2005-07-25 09:00;METAR CYUL 250900Z 19009KT 15SM OVC045 23/15 A2965 RMK SC8 SLP041=
CYUL;2005-07-25 09:37;SPECI CYUL 250937Z 21008KT 12SM -RA OVC040 RMK SC8=
CYUL;2005-07-25 10:00;METAR CYUL 251000Z 20007KT 15SM -RA OVC040 22/17 A2966 RMK SC8 SLP042=
CYUL;2005-07-25 10:42;SPECI CYUL 251042Z 20007KT 15SM TS OVC030 RMK SC8 CB EMBD=
CYUL;2005-07-25 11:00;METAR CYUL 251100Z 34008KT 10SM -SHRA BKN020 OVC030 21/18 A2966 RMK SC6SC2 RETS CB EMBD SLP043=
CYUL;2005-07-25 11:37;SPECI CYUL 251137Z 25007KT 15SM OVC030 RMK SC8=
CYUL;2005-07-25 12:00;METAR CYUL 251200Z 25010KT 15SM OVC028 22/18 A2965 RMK SC8 SLP041=
CYUL;2005-07-25 13:00;METAR CYUL 251300Z 24009KT 15SM OVC033 23/18 A2965 RMK SC8 SLP041=
CYUL;2005-07-25 14:00;METAR CYUL 251400Z 26013KT 15SM FEW030 FEW075 25/20 A2965 RMK CU1AC2 SLP041=
CYUL;2005-07-25 15:00;METAR CYUL 251500Z 28011KT 15SM BKN028 26/20 A2967 RMK CU7 SLP047=
CYUL;2005-07-25 16:00;METAR CYUL 251600Z 27009KT 15SM FEW030 27/20 A2966 RMK CU2 SLP044=
CYUL;2005-07-25 17:00;METAR CYUL 251700Z 29013G19KT 15SM SCT045 28/19 A2967 RMK CU3 SLP046=
CYUL;2005-07-25 18:00;METAR CYUL 251800Z 27013KT 15SM BKN045 29/19 A2968 RMK CU6 SLP049=
CYUL;2005-07-25 19:00;METAR CYUL 251900Z 26013KT 15SM BKN045 30/20 A2968 RMK CU5 SLP051=
CYUL;2005-07-25 21:00;METAR CYUL 252100Z 25014KT 15SM FEW050 31/20 A2968 RMK CU2 VIA CYQB FIC SLP050=
CYUL;2005-07-25 22:00;METAR CYUL 252200Z 26012G18KT 15SM FEW050 31/18 A2967 RMK CU1 TCU ASOCTD S VIA YQB SLP047=
CYUL;2005-07-25 23:00;METAR CYUL 252300Z 27010KT 15SM FEW050 30/18 A2968 RMK CU1 TCU ASOCTD S VIA YQB SLP048=
CYUL;2005-07-26 01:00;METAR CYUL 260100Z 28005KT 15SM FEW050 FEW240 28/18 A2971 RMK CF1CI1 VIA YQB SLP061=
CYUL;2005-07-26 03:00;METAR CYUL 260300Z 22007KT 15SM FEW240 26/18 A2974 RMK CI1 VIA YQB FIC SLP069=
CYUL;2005-07-26 04:00;METAR CYUL 260400Z 23006KT 15SM FEW240 25/20 A2974 RMK CI1 VIA YQB FIC SLP071=
CYUL;2005-07-26 05:00;METAR CYUL 260500Z 24005KT 15SM FEW240 24/19 A2975 RMK CI1 SLP075=
CYUL;2005-07-26 06:00;METAR CYUL 260600Z 26006KT 15SM FEW240 23/18 A2974 RMK CI1 SLP070=
CYUL;2005-07-26 07:00;METAR CYUL 260700Z 22002KT 15SM FEW240 22/18 A2974 RMK CI0 VIA YQB FIC SLP070=
CYUL;2005-07-26 08:00;METAR CYUL 260800Z 25003KT 15SM BKN270 22/17 A2974 RMK CI3 VIA YQB FIC SLP072=
CYUL;2005-07-26 09:00;METAR CYUL 260900Z 26004KT 15SM BKN240 19/16 A2976 RMK CI2 CC ASOCT SLP079=
CYUL;2005-07-26 10:00;METAR CYUL 261000Z 24004KT 30SM SCT180 BKN240 21/17 A2978 RMK AC3CI1 SLP083=
CYUL;2005-07-26 11:00;METAR CYUL 261100Z 25006KT 30SM SCT180 BKN230 22/16 A2979 RMK AC1CI1 SLP086=
CYUL;2005-07-26 12:00;METAR CYUL 261200Z 24010KT 30SM SCT180 BKN230 23/15 A2978 RMK AC2CI2 SLP083=
CYUL;2005-07-26 13:00;METAR CYUL 261300Z 23007KT 30SM SCT180 BKN240 24/16 A2978 RMK AC2CS2 SLP083=
CYUL;2005-07-26 14:00;METAR CYUL 261400Z 23012KT 30SM FEW180 OVC240 24/16 A2977 RMK AC1CS5 SLP080=
CYUL;2005-07-26 15:00;METAR CYUL 261500Z 23009KT 30SM FEW150 OVC220 25/16 A2976 RMK AC1CS7 SLP078=
CYUL;2005-07-26 16:00;METAR CYUL 261600Z 22008KT 30SM BKN150 OVC220 25/17 A2975 RMK AC6CS2 SLP075=
CYUL;2005-07-26 17:00;METAR CYUL 261700Z 22007KT 30SM BKN130 OVC200 26/18 A2974 RMK AC5CS2 SLP069=
CYUL;2005-07-26 18:00;METAR CYUL 261800Z 20007KT 30SM BKN120 OVC160 26/17 A2971 RMK AC6AS2 SLP060=
CYUL;2005-07-26 18:19;SPECI CYUL 261819Z 25008KT 30SM -SHRA FEW035 BKN090 OVC140 26/ RMK CF1AC5AS3=
CYUL;2005-07-26 19:00;METAR CYUL 261900Z 26006KT 30SM -RA FEW070 OVC090 26/17 A2972 RMK AC1AC7 SLP064=
CYUL;2005-07-26 20:00;METAR CYUL 262000Z 27006G15KT 30SM -RA FEW070 OVC080 25/14 A2969 RMK AC1AC8 -RA INTMT SLP054=
CYUL;2005-07-26 20:24;SPECI CYUL 262024Z 36003KT 30SM OVC075 24/ RMK AC8=
CYUL;2005-07-26 21:00;METAR CYUL 262100Z 01003KT 15SM FEW060 BKN070 OVC090 24/17 A2967 RMK SC1AC6AS1 SLP047=
CYUL;2005-07-26 21:54;SPECI CYUL 262154Z 04004KT 15SM FEW040 BKN060 OVC075 23/ RMK CU1SC5AC3=
CYUL;2005-07-26 22:00;METAR CYUL 262200Z 05005KT 15SM FEW045 BKN070 OVC080 23/17 A2965 RMK CU1AC6AC2 SLP039=
CYUL;2005-07-26 23:00;METAR CYUL 262300Z 14005KT 15SM SCT050 OVC085 25/18 A2963 RMK SC3AC5 SLP032=
CYUL;2005-07-26 23:39;SPECI CYUL 262339Z 32005KT 10SM -RA BKN040 OVC055 25/ RMK SC6SC2=
CYUL;2005-07-26 23:52;SPECI CYUL 262352Z 00000KT 2 1/2SM -RA BR SCT020 OVC040 23/ RMK CF3SC5=
CYUL;2005-07-27 00:00;METAR CYUL 270000Z 32004KT 4SM -RA BR FEW015 OVC020 22/19 A2963 RMK CF2SC6 SLP034=
CYUL;2005-07-27 00:42;SPECI CYUL 270042Z 17002KT 2 1/2SM -RA BR BKN012 OVC022 22/ RMK CF5SC3=
CYUL;2005-07-27 00:54;SPECI CYUL 270054Z 16003KT 5SM -RA BR BKN015 OVC055 22/ RMK CF6SC2=
CYUL;2005-07-27 01:00;METAR CYUL 270100Z 14003KT 6SM -RA BR BKN015 OVC050 22/20 A2962 RMK CF6SC2 SLP029=
CYUL;2005-07-27 01:47;SPECI CYUL 270147Z 15006KT 6SM BR FEW015 OVC028 22/ RMK CF1SC7=
CYUL;2005-07-27 02:00;METAR CYUL 270200Z 15006KT 6SM BR FEW015 OVC030 22/21 A2959 RMK CF1SC6 SLP020=
CYUL;2005-07-27 03:00;METAR CYUL 270300Z 18009KT 8SM BKN020 OVC060 23/21 A2958 RMK CF5SC3 SLP018=
CYUL;2005-07-27 04:00;METAR CYUL 270400Z 25003KT 8SM BKN020 OVC040 24/22 A2959 RMK CF6SC2 SLP019=
CYUL;2005-07-27 06:00;METAR CYUL 270600Z 32004KT 8SM SCT012 BKN040 20/19 A2963 RMK CF3SC4 SLP032=
CYUL;2005-07-27 07:00;METAR CYUL 270700Z 33002KT 6SM BR BKN007 OVC050 19/18 A2965 RMK SF5SC3 SLP040=
CYUL;2005-07-27 08:00;METAR CYUL 270800Z 36002KT 6SM BR FEW007 SCT020 OVC050 20/18 A2966 RMK SF2SC2SC4 SLP042=
CYUL;2005-07-27 09:00;METAR CYUL 270900Z 29006KT 6SM BR FEW007 SCT040 OVC060 20/18 A2968 RMK SF1SC2SC5 SLP052=
CYUL;2005-07-27 10:00;METAR CYUL 271000Z 29003KT 15SM OVC040 20/17 A2970 RMK SC8 SLP058=
CYUL;2005-07-27 11:00;METAR CYUL 271100Z 27005KT 15SM BKN045 OVC065 20/17 A2973 RMK SC6SC2 SLP067=
CYUL;2005-07-27 12:00;METAR CYUL 271200Z 31004KT 15SM SCT050 OVC070 20/17 A2974 RMK SC3AC5 SLP072=
CYUL;2005-07-27 13:00;METAR CYUL 271300Z 32003KT 15SM FEW030 OVC070 20/17 A2975 RMK CF1AC8 SLP074=
CYUL;2005-07-27 13:46;SPECI CYUL 271346Z 31004KT 12SM -SHRA FEW018 FEW050 OVC070 21/ RMK CF1SC1AS6=
CYUL;2005-07-27 14:00;METAR CYUL 271400Z 34004KT 12SM -SHRA FEW018 FEW035 OVC075 21/16 A2975 RMK CF1SC1AS6 SLP074=
CYUL;2005-07-27 14:39;SPECI CYUL 271439Z 34006KT 15SM FEW020 BKN090 OVC110 21/ RMK CF1AC6AS1=
CYUL;2005-07-27 15:00;METAR CYUL 271500Z 36006KT 15SM FEW020 OVC090 21/16 A2975 RMK CF1AC7 SLP074=
CYUL;2005-07-27 15:34;SPECI CYUL 271534Z 36006KT 15SM -SHRA FEW020 OVC085 21/ RMK CF1AC7=
CYUL;2005-07-27 16:00;METAR CYUL 271600Z 35007KT 15SM FEW025 FEW050 OVC085 21/15 A2976 RMK CU1SC1AS7 AC ASOCT SLP077=
CYUL;2005-07-27 16:49;SPECI CYUL 271649Z 34008KT 15SM -SHRA FEW025 FEW055 OVC070 20/ RMK CU1SC1AS6=
CYUL;2005-07-27 17:00;METAR CYUL 271700Z 34007KT 12SM -SHRA FEW025 BKN055 OVC070 20/16 A2977 RMK CU1SC6AS1 SLP080=
CYUL;2005-07-27 18:00;METAR CYUL 271800Z 34007KT 15SM -RA FEW022 FEW045 OVC080 20/16 A2979 RMK CU1SC2AS6 SLP087=
CYUL;2005-07-27 19:00;METAR CYUL 271900Z 34004KT 15SM -RA FEW015 OVC100 20/16 A2979 RMK CF1AS7 AC ASOCT SLP090=
CYUL;2005-07-27 20:00;METAR CYUL 272000Z 27003KT 15SM -RA FEW020 BKN035 OVC100 20/17 A2981 RMK CU2SC3AS3 SLP096=
CYUL;2005-07-27 21:00;METAR CYUL 272100Z 31004KT 15SM -RA BKN017 OVC100 20/16 A2982 RMK CU5AS3 SLP100=
CYUL;2005-07-27 22:00;METAR CYUL 272200Z 30008KT 15SM FEW020 BKN035 BKN120 19/15 A2984 RMK CU1SC7AC1 SLP107=
CYUL;2005-07-27 23:00;METAR CYUL 272300Z 31007KT 15SM FEW020 FEW075 BKN120 BKN240 19/14 A2987 RMK SC1AC1AC6CI1 SLP114=
CYUL;2005-07-28 00:00;METAR CYUL 280000Z 31006KT 30SM BKN045 BKN120 BKN240 18/13 A2990 RMK SC6AC1CI1 CU ASOCT SLP125=
CYUL;2005-07-28 01:00;METAR CYUL 280100Z 32005KT 15SM FEW050 SCT120 BKN240 16/12 A2992 RMK SC2AC2CI1 SLP134=
CYUL;2005-07-28 02:00;METAR CYUL 280200Z 31005KT 15SM SCT050 BKN120 15/12 A2995 RMK SC4AC1 SLP144=
CYUL;2005-07-28 03:00;METAR CYUL 280300Z 30004KT 15SM FEW054 15/11 A2998 RMK SC2 SLP151=
CYUL;2005-07-28 04:00;METAR CYUL 280400Z 31005KT 15SM FEW052 13/11 A3000 RMK SC1 SLP158=
CYUL;2005-07-28 05:00;METAR CYUL 280500Z 31006KT 15SM FEW040 FEW090 13/10 A3000 RMK SC1AC1 SLP161=
CYUL;2005-07-28 06:00;METAR CYUL 280600Z 31006KT 15SM FEW200 13/10 A3001 RMK CI1 SLP163=
CYUL;2005-07-28 07:00;METAR CYUL 280700Z 06002KT 15SM FEW200 14/11 A3003 RMK CI1 SLP168=
CYUL;2005-07-28 08:00;METAR CYUL 280800Z 02003KT 15SM FEW200 13/10 A3003 RMK CI1 SLP169=
CYUL;2005-07-28 09:00;METAR CYUL 280900Z 36004KT 15SM FEW035 FEW200 12/10 A3005 RMK SC1CI1 SLP175=
CYUL;2005-07-28 10:00;METAR CYUL 281000Z 34003KT 30SM FEW012 FEW090 FEW200 10/09 A3006 RMK SC1AC1CI1 SLP181=
CYUL;2005-07-28 11:00;METAR CYUL 281100Z 00000KT 30SM FEW012 FEW180 14/11 A3009 RMK SC1AC1 SLP190=
CYUL;2005-07-28 12:00;METAR CYUL 281200Z 02004KT 30SM FEW150 FEW220 15/10 A3011 RMK AC1CI1 SLP196=
CYUL;2005-07-28 13:00;METAR CYUL 281300Z 08003KT 30SM FEW012 FEW220 19/11 A3012 RMK CU1CI1 SLP199=
CYUL;2005-07-28 14:00;METAR CYUL 281400Z 11005KT 30SM FEW030 FEW220 20/10 A3012 RMK CU1CI1 SLP201=
CYUL;2005-07-28 15:00;METAR CYUL 281500Z 12005KT 30SM FEW030 FEW220 20/10 A3012 RMK CU1CI1 SLP200=
CYUL;2005-07-28 16:00;METAR CYUL 281600Z 15003KT 30SM FEW035 21/10 A3011 RMK CU1 SLP197=
CYUL;2005-07-28 17:00;METAR CYUL 281700Z 22005KT 30SM FEW035 FEW210 21/10 A3010 RMK CU1CI1 SLP193=
CYUL;2005-07-28 18:00;METAR CYUL 281800Z 12005KT 30SM FEW035 FEW210 22/12 A3008 RMK CU1CI1 SLP186=
CYUL;2005-07-28 19:00;METAR CYUL 281900Z 22005KT 30SM FEW040 FEW210 22/11 A3007 RMK CU1CI1 SLP184=
CYUL;2005-07-28 20:00;METAR CYUL 282000Z 22008KT 30SM FEW040 FEW210 23/11 A3006 RMK CU1CI1 SLP179=
CYUL;2005-07-28 21:00;METAR CYUL 282100Z 23005KT 30SM FEW040 FEW220 23/09 A3004 RMK CU1CI1 SLP174=
CYUL;2005-07-28 22:00;METAR CYUL 282200Z 22007KT 30SM FEW040 FEW210 23/09 A3003 RMK CU1CI1 SLP170=
CYUL;2005-07-28 23:00;METAR CYUL 282300Z 23005KT 30SM FEW040 FEW210 FEW240 23/10 A3003 RMK CF1CI0CC1 SLP169=
CYUL;2005-07-29 00:00;METAR CYUL 290000Z 20005KT 30SM FEW150 SCT220 21/11 A3003 RMK AC1CI2 CC ASOCT SLP170=
CYUL;2005-07-29 01:00;METAR CYUL 290100Z 18006KT 15SM FEW150 BKN240 21/11 A3003 RMK AC1CI2 SLP171=
CYUL;2005-07-29 02:00;METAR CYUL 290200Z 18005KT 15SM FEW220 21/12 A3004 RMK CI1 SLP172=
CYUL;2005-07-29 03:00;METAR CYUL 290300Z 17006KT 15SM FEW220 19/13 A3004 RMK CI0 SLP172=
CYUL;2005-07-29 04:00;METAR CYUL 290400Z 19004KT 15SM SKC 18/12 A3004 RMK SLP172=
CYUL;2005-07-29 05:00;METAR CYUL 290500Z 24003KT 15SM SKC 18/12 A3004 RMK SLP172=
CYUL;2005-07-29 06:00;METAR CYUL 290600Z 21006KT 15SM FEW040 19/13 A3003 RMK SC1 SLP169=
CYUL;2005-07-29 09:00;METAR CYUL 290900Z 24004KT 15SM FEW085 17/14 A3003 RMK AC1 SLP170=
CYUL;2005-07-29 10:00;METAR CYUL 291000Z 27004KT 30SM FEW085 14/12 A3004 RMK AC1 SLP173=
CYUL;2005-07-29 12:00;METAR CYUL 291200Z 23010KT 30SM FEW035 FEW100 18/14 A3005 RMK SC1AC1 SLP176=
CYUL;2005-07-29 13:00;METAR CYUL 291300Z 22010KT 30SM FEW040 FEW095 19/14 A3006 RMK SC1AC1 SLP181=
CYUL;2005-07-29 14:00;METAR CYUL 291400Z 22011KT 30SM FEW030 FEW100 21/15 A3006 RMK CF1AC1 SLP181=
CYUL;2005-07-29 15:00;METAR CYUL 291500Z 23010KT 30SM FEW030TCU FEW220 23/15 A3007 RMK TCU1CI1 SLP182=
CYUL;2005-07-29 16:00;METAR CYUL 291600Z 19010KT 30SM VCSH FEW030TCU BKN035 BKN080 23/16 A3006 RMK TCU2SC4AC1 SLP179=
CYUL;2005-07-29 17:00;METAR CYUL 291700Z 29012G18KT 15SM FEW030TCU BKN050 BKN100 24/14 A3007 RMK TCU2SC3AC2 SLP182=
CYUL;2005-07-29 18:00;METAR CYUL 291800Z 30011KT 30SM FEW030TCU FEW050 BKN090 22/14 A3008 RMK TCU1SC2AC5 SLP187=
CYUL;2005-07-29 19:00;METAR CYUL 291900Z 27008KT 30SM FEW030TCU BKN085 BKN210 23/15 A3008 RMK TCU2AC3CI1 SLP187=
CYUL;2005-07-29 20:00;METAR CYUL 292000Z 26011G16KT 30SM FEW030TCU SCT050 24/14 A3008 RMK TCU2SC2 CB E SLP188=
CYUL;2005-07-29 21:00;METAR CYUL 292100Z 26012KT 30SM SCT040TCU SCT060 24/14 A3009 RMK TCU3SC1 SLP189=
CYUL;2005-07-29 22:00;METAR CYUL 292200Z 29009KT 30SM FEW040TCU SCT060 24/14 A3009 RMK TCU2SC1 SLP189=
CYUL;2005-07-29 23:00;METAR CYUL 292300Z 28007KT 30SM FEW030 FEW040 23/13 A3010 RMK CF1SC2 TCU ASOCT SLP192=
CYUL;2005-07-30 00:00;METAR CYUL 300000Z 32008KT 15SM FEW030TCU FEW055 21/12 A3012 RMK TCU1SC2 SLP200=
CYUL;2005-07-30 01:00;METAR CYUL 300100Z 33006KT 15SM FEW040 FEW060 19/12 A3014 RMK SC1SC2 SLP205=
CYUL;2005-07-30 02:00;METAR CYUL 300200Z 33004KT 15SM FEW060 17/11 A3016 RMK SC1 SLP213=
CYUL;2005-07-30 04:00;METAR CYUL 300400Z 33003KT 15SM FEW030 FEW050 16/10 A3018 RMK SC1SC1 SLP221=
CYUL;2005-07-30 05:00;METAR CYUL 300500Z 00000KT 15SM SKC 17/10 A3019 RMK SLP224=
CYUL;2005-07-30 07:00;METAR CYUL 300700Z 35003KT 15SM FEW088 14/10 A3021 RMK AC2 SLP231=
CYUL;2005-07-30 08:00;METAR CYUL 300800Z 07003KT 15SM FEW090 15/10 A3022 RMK AC1 SLP234=
CYUL;2005-07-30 09:00;METAR CYUL 300900Z 01005KT 15SM FEW040 FEW090 14/09 A3023 RMK SC1AC1 SLP238=
CYUL;2005-07-30 10:00;METAR CYUL 301000Z 36003KT 30SM FEW040 FEW090 13/09 A3026 RMK CF1AC1 SLP246=
CYUL;2005-07-30 11:00;METAR CYUL 301100Z 02002KT 30SM FEW090 15/11 A3027 RMK AC1 SLP250=
CYUL;2005-07-30 12:00;METAR CYUL 301200Z 03005KT 30SM FEW027 FEW090 17/11 A3029 RMK SC1AC1 SLP256=
CYUL;2005-07-30 13:00;METAR CYUL 301300Z 04008KT 30SM FEW028 19/10 A3030 RMK SC1 SLP261=
CYUL;2005-07-30 14:00;METAR CYUL 301400Z 04007KT 30SM FEW040 FEW210 20/11 A3031 RMK CF1CI1 SLP264=
CYUL;2005-07-30 15:00;METAR CYUL 301500Z 02003KT 30SM FEW040 21/11 A3031 RMK SC1 TCU ASOCT SLP265=
CYUL;2005-07-30 16:00;METAR CYUL 301600Z 18002KT 30SM FEW030 SCT040 22/11 A3030 RMK CF1SC2 TCU ASOCT SLP260=
CYUL;2005-07-30 17:00;METAR CYUL 301700Z 25005KT 30SM BKN060 BKN080 22/10 A3029 RMK SC5AC1 TCU ASOCT SLP257=
CYUL;2005-07-30 18:00;METAR CYUL 301800Z 18005KT 30SM BKN065 BKN085 23/11 A3029 RMK SC5AC1 TCU ASOCT SLP256=
CYUL;2005-07-30 19:00;METAR CYUL 301900Z 23006KT 30SM BKN070 BKN085 BKN250 24/11 A3027 RMK AC5AC1CI0 TCU ASOCT SLP249=
CYUL;2005-07-30 20:00;METAR CYUL 302000Z 28003KT 30SM SCT075 BKN250 23/10 A3026 RMK AC4CI0 TCU ASOCT SLP247=
CYUL;2005-07-30 21:00;METAR CYUL 302100Z 29006KT 30SM BKN080 BKN090 BKN250 23/10 A3026 RMK AC5AC1CI1 TCU ASOCT SLP247=
CYUL;2005-07-30 22:00;METAR CYUL 302200Z 29005KT 30SM FEW060 SCT080 SCT250 24/11 A3025 RMK CU1AC3CI1 SLP244=
CYUL;2005-07-30 23:00;METAR CYUL 302300Z 32004KT 30SM FEW060 FEW080 SCT250 23/10 A3025 RMK CU1AC2CI0 SLP245=
CYUL;2005-07-31 00:00;METAR CYUL 310000Z 07005KT 30SM SCT070 BKN250 23/10 A3027 RMK AC2CI1 SLP249=
CYUL;2005-07-31 01:00;METAR CYUL 310100Z 07005KT 15SM FEW075 SCT250 22/10 A3028 RMK AC1CI2 SLP254=
CYUL;2005-07-31 02:00;METAR CYUL 310200Z 08004KT 15SM FEW240 21/10 A3029 RMK CI1 SLP257=
CYUL;2005-07-31 03:00;METAR CYUL 310300Z 09004KT 15SM BKN210 20/11 A3029 RMK CI2 SLP257=
CYUL;2005-07-31 04:00;METAR CYUL 310400Z 09003KT 15SM BKN190 20/11 A3029 RMK AC4 SLP256=
CYUL;2005-07-31 05:00;METAR CYUL 310500Z 10003KT 15SM BKN190 19/12 A3030 RMK AC4 SLP259=
CYUL;2005-07-31 06:00;METAR CYUL 310600Z 03005KT 15SM BKN190 17/12 A3030 RMK AC2 SLP262=
CYUL;2005-07-31 07:00;METAR CYUL 310700Z 02002KT 15SM SCT180 17/11 A3030 RMK AC2 SLP261=
CYUL;2005-07-31 09:00;METAR CYUL 310900Z 01004KT 15SM BKN160 15/12 A3031 RMK AC2 SLP265=
CYUL;2005-07-31 10:00;METAR CYUL 311000Z 03005KT 30SM BKN160 15/12 A3031 RMK AC5 SLP264=
CYUL;2005-07-31 11:00;METAR CYUL 311100Z 02005KT 30SM FEW160 FEW240 16/12 A3031 RMK AC0CI0 SLP265=
CYUL;2005-07-31 12:00;METAR CYUL 311200Z 02004KT 30SM FEW160 FEW240 18/12 A3031 RMK AC1CI0 SLP264=
CYUL;2005-07-31 13:00;METAR CYUL 311300Z 10004KT 30SM FEW150 SCT240 21/12 A3030 RMK AC2CI0 SLP260=
CYUL;2005-07-31 14:00;METAR CYUL 311400Z 14007KT 30SM FEW240 22/12 A3027 RMK CI2 SLP252=
CYUL;2005-07-31 15:00;METAR CYUL 311500Z 09004KT 30SM FEW045 BKN240 23/11 A3027 RMK CU1CS2 SLP249=
CYUL;2005-07-31 16:00;METAR CYUL 311600Z 14004KT 30SM FEW050 BKN240 23/11 A3026 RMK CU1CI4 CS ASOCT SLP247=
CYUL;2005-07-31 17:00;METAR CYUL 311700Z 14005KT 30SM FEW050 FEW150 BKN240 24/11 A3024 RMK CU1AC1CI6 SLP240=
CYUL;2005-07-31 18:00;METAR CYUL 311800Z 18005KT 30SM FEW055 BKN240 24/11 A3023 RMK CU1CI5 SLP236=
CYUL;2005-07-31 19:00;METAR CYUL 311900Z 19007KT 30SM FEW055 FEW150 BKN240 25/11 A3020 RMK CU1AC1CI6 SLP227=
CYUL;2005-07-31 20:00;METAR CYUL 312000Z 22007KT 30SM FEW060 FEW150 BKN240 24/09 A3018 RMK CU1AC1CI7 SLP219=
CYUL;2005-07-31 21:00;METAR CYUL 312100Z 16006KT 30SM FEW055 FEW130 BKN240 24/10 A3015 RMK CU1AC2CI2 SLP210=
CYUL;2005-07-31 22:00;METAR CYUL 312200Z 15005KT 30SM FEW055 FEW130 SCT180 BKN240 24/10 A3014 RMK CU1AC1AC2CI0 SLP207=
CYUL;2005-07-31 23:00;METAR CYUL 312300Z 15006KT 30SM FEW050CB BKN120 BKN170 BKN240 23/11 A3013 RMK CB1AC5AC2CI1 CB S SLP204=
CYUL;2005-08-01 00:00;METAR CYUL 010000Z 09007KT 30SM FEW045TCU BKN110 BKN240 23/12 A3013 RMK TCU1AC7CI1 SLP203=
CYUL;2005-08-01 01:00;METAR CYUL 010100Z 10006KT 15SM BKN110 OVC240 23/12 A3013 RMK AC7CI1 SLP203=
CYUL;2005-08-01 03:00;METAR CYUL 010300Z 11007KT 15SM SCT150 BKN240 21/13 A3009 RMK AC2CI1 SLP190=
CYUL;2005-08-01 04:00;METAR CYUL 010400Z 09003KT 15SM SCT160 BKN240 21/13 A3008 RMK AC2CI0 SLP185=
CYUL;2005-08-01 05:00;METAR CYUL 010500Z 10004KT 15SM BKN160 21/14 A3007 RMK AC7 SLP182=
CYUL;2005-08-01 06:00;METAR CYUL 010600Z 10003KT 15SM BKN100 20/15 A3004 RMK AC6 SLP174=
CYUL;2005-08-01 07:00;METAR CYUL 010700Z 16004KT 15SM BKN090 OVC160 20/17 A3003 RMK AC6AC2 SLP168=
CYUL;2005-08-01 08:00;METAR CYUL 010800Z 35004KT 15SM BKN090 OVC150 19/15 A3002 RMK AC5AC3 SLP167=
CYUL;2005-08-01 09:00;METAR CYUL 010900Z 00000KT 15SM BKN090 OVC120 18/14 A3002 RMK AC6AC2 SLP167=
CYUL;2005-08-01 09:45;SPECI CYUL 010945Z 25004KT 15SM -SHRA OVC090 19/ RMK AC8=
CYUL;2005-08-01 10:00;METAR CYUL 011000Z 23004KT 15SM OVC090 19/16 A3003 RMK AC8 SLP169=
CYUL;2005-08-01 10:08;SPECI CYUL 011008Z 27003KT 15SM -SHRA OVC090 20/ RMK AC8=
CYUL;2005-08-01 10:27;SPECI CYUL 011027Z 24005KT 15SM BKN090 20/ RMK AC7=
CYUL;2005-08-01 11:00;METAR CYUL 011100Z 24006KT 15SM BKN090 BKN150 BKN240 20/16 A3003 RMK AC6AC1CI0 SLP169=
CYUL;2005-08-01 12:00;METAR CYUL 011200Z 25006KT 15SM BKN100 BKN160 20/16 A3004 RMK AC6AC2 SLP172=
CYUL;2005-08-01 12:41;SPECI CYUL 011241Z 25008KT 15SM -SHRA BKN100 BKN160 20/ RMK AC6AC2=
CYUL;2005-08-01 13:00;METAR CYUL 011300Z 26007KT 15SM BKN090 BKN120 20/16 A3004 RMK AC6AC2 SLP173=
CYUL;2005-08-01 14:00;METAR CYUL 011400Z 27008KT 15SM FEW025 BKN130 BKN240 23/17 A3003 RMK CU1AC5CI1 SLP171=
CYUL;2005-08-01 15:00;METAR CYUL 011500Z 25005KT 15SM FEW030 FEW130 BKN240 24/16 A3003 RMK CU1AC2CI1 SLP169=
CYUL;2005-08-01 16:00;METAR CYUL 011600Z 20012KT 15SM FEW030 SCT130 BKN240 24/17 A3002 RMK CU1AC3CI1 TCU ASOCT SLP166=
CYUL;2005-08-01 17:00;METAR CYUL 011700Z 20010KT 15SM FEW035 FEW120 BKN240 25/17 A3000 RMK CU1AC2CI1 TCU ASOCT SLP159=
CYUL;2005-08-01 18:00;METAR CYUL 011800Z 21011KT 15SM BKN040 BKN110 BKN240 26/18 A2998 RMK CU5AC2CI0 SLP154=
CYUL;2005-08-01 19:00;METAR CYUL 011900Z 25007KT 15SM SCT037 BKN050 BKN240 26/18 A2997 RMK CU3SC3CI1 SLP150=
CYUL;2005-08-01 20:00;METAR CYUL 012000Z 27010KT 15SM FEW035 BKN050 BKN075 26/18 A2995 RMK CU2SC4AC1 SLP143=
CYUL;2005-08-01 21:00;METAR CYUL 012100Z 26013KT 15SM FEW045 BKN075 BKN240 26/18 A2994 RMK CU1AC6CI1 SLP140=
CYUL;2005-08-01 22:00;METAR CYUL 012200Z 27011G17KT 15SM FEW040 FEW080 BKN240 26/18 A2994 RMK CU1AC1CI1 SLP138=
CYUL;2005-08-01 23:00;METAR CYUL 012300Z 27008KT 15SM FEW035TCU FEW080 FEW240 25/18 A2994 RMK TCU1AC1CI1 CB ASOCT SE SLP138=
CYUL;2005-08-02 00:00;METAR CYUL 020000Z 28009KT 15SM FEW030TCU FEW100 SCT240 24/18 A2994 RMK TCU1AC1CI1 CB ASOCT SE SLP139=
CYUL;2005-08-02 01:00;METAR CYUL 020100Z 25002KT 15SM FEW030TCU FEW240 24/18 A2995 RMK TCU1CI1 SLP143=
CYUL;2005-08-02 03:00;METAR CYUL 020300Z 27004KT 15SM FEW240 21/18 A2995 RMK CI1 SLP143=
CYUL;2005-08-02 04:00;METAR CYUL 020400Z 26004KT 15SM FEW240 22/19 A2994 RMK CI1 SLP140=
CYUL;2005-08-02 05:00;METAR CYUL 020500Z 24004KT 15SM FEW240 21/18 A2995 RMK CI1 SLP142=
CYUL;2005-08-02 06:00;METAR CYUL 020600Z 23004KT 15SM FEW240 21/18 A2994 RMK CI1 SLP140=
CYUL;2005-08-02 09:00;METAR CYUL 020900Z 23006KT 15SM FEW240 20/19 A2994 RMK CI1 SLP140=
CYUL;2005-08-02 10:00;METAR CYUL 021000Z 23007KT 8SM FEW030 FEW150 SCT240 20/18 A2995 RMK CF1AC2CI0 SLP142=
CYUL;2005-08-02 11:00;METAR CYUL 021100Z 23007KT 8SM FEW015 FEW230 21/19 A2995 RMK SF1CI0 SLP142=
CYUL;2005-08-02 12:00;METAR CYUL 021200Z 23008KT 10SM FEW015 FEW150 22/19 A2995 RMK SF1AC1 SLP143=
CYUL;2005-08-02 13:00;METAR CYUL 021300Z 23009KT 10SM FEW015 FEW130 24/20 A2995 RMK SF1AC1 SLP142=
CYUL;2005-08-02 14:00;METAR CYUL 021400Z 24012KT 10SM FEW130 FEW240 26/20 A2994 RMK AC1CI1 SLP138=
CYUL;2005-08-02 15:00;METAR CYUL 021500Z 27010G18KT 10SM FEW070 SCT120 SCT240 27/20 A2993 RMK ACC2AC2CI1 SLP137=
CYUL;2005-08-02 15:32;SPECI CYUL 021532Z 28011KT 10SM -SHRA FEW040 BKN060 OVC100 26/ RMK CF2SC4AC2=
CYUL;2005-08-02 16:00;METAR CYUL 021600Z 26010KT 12SM FEW035TCU BKN085 BKN110 26/19 A2992 RMK TCU1AC5AC2 SLP133=
CYUL;2005-08-02 17:00;METAR CYUL 021700Z 27011KT 12SM FEW035TCU BKN080 27/19 A2990 RMK TCU1ACC6 SLP124=
CYUL;2005-08-02 18:00;METAR CYUL 021800Z 23011KT 15SM FEW040TCU FEW110 29/20 A2987 RMK TCU1AC1 SLP114=
CYUL;2005-08-02 19:00;METAR CYUL 021900Z 23015KT 15SM BKN040TCU BKN070 29/20 A2985 RMK TCU6AC1 SLP108=
CYUL;2005-08-02 19:37;SPECI CYUL 021937Z 27010G20KT 10SM TS SCT045CB BKN065 BKN240 29/ RMK CB4SC2CI1=
CYUL;2005-08-02 19:50;SPECI CYUL 021950Z 27009G15KT 12SM -TSRA BKN045CB BKN110 BKN240 29/ RMK CB6AC1CI1=
CYUL;2005-08-02 20:00;METAR CYUL 022000Z 01006KT 10SM -TSRA FEW012 BKN020CB BKN110 27/20 A2985 RERA RMK SF1CB6AC1 VIS E 3 RA SLP107=
CYUL;2005-08-02 21:00;METAR CYUL 022100Z 31007KT 10SM -TSRA BKN020CB BKN100 BKN240 24/20 A2985 RERA RMK CB5AC1CI1 SLP109=
CYUL;2005-08-02 21:20;SPECI CYUL 022120Z 26007KT 15SM FEW020CB FEW070 FEW240 26/ RETS RMK CB2AC1CI1=
CYUL;2005-08-02 22:00;METAR CYUL 022200Z 26003KT 12SM FEW020CB FEW070 FEW240 27/21 A2983 RETS RMK CB2AC1CI0 SLP101=
CYUL;2005-08-02 23:00;METAR CYUL 022300Z 20009KT 15SM FEW025CB FEW050 BKN110 BKN240 26/20 A2984 RMK CB1CF1AC5CI1 SLP107=
CYUL;2005-08-03 00:00;METAR CYUL 030000Z 23005KT 15SM FEW030CB FEW080 SCT110 BKN240 26/21 A2985 RMK CB1AC2AC1CI1 SLP109=
CYUL;2005-08-03 01:00;METAR CYUL 030100Z 26004KT 15SM FEW025CB FEW080 SCT130 BKN240 26/19 A2987 RMK CB1AC1AC3CI0 SLP113=
CYUL;2005-08-03 02:00;METAR CYUL 030200Z 27003KT 15SM FEW025CB FEW120 BKN240 23/19 A2988 RMK CB1AC2CI0 DIST LTNG E SLP117=
CYUL;2005-08-03 03:00;METAR CYUL 030300Z 33003KT 15SM FEW150 FEW240 24/19 A2989 RMK AC1CI0 SLP120=
CYUL;2005-08-03 04:00;METAR CYUL 030400Z 01003KT 15SM FEW180 FEW240 23/18 A2990 RMK AC1CI0 SLP123=
CYUL;2005-08-03 05:00;METAR CYUL 030500Z 36004KT 15SM FEW240 22/18 A2991 RMK CI1 SLP128=
CYUL;2005-08-03 06:00;METAR CYUL 030600Z 03005KT 15SM FEW240 22/17 A2991 RMK CI1 SLP128=
CYUL;2005-08-03 09:00;METAR CYUL 030900Z 33002KT 15SM BKN090 BKN120 19/15 A2995 RMK AC5AC2 SLP141=
CYUL;2005-08-03 10:00;METAR CYUL 031000Z 00000KT 15SM FEW040TCU FEW080 SCT240 19/15 A2995 RMK TCU1AC2CI0 SLP141=
CYUL;2005-08-03 12:00;METAR CYUL 031200Z 04004KT 15SM FEW040CB FEW120 SCT240 22/15 A2998 RMK CB1ACC2CI0 SLP151=
CYUL;2005-08-03 13:00;METAR CYUL 031300Z 36002KT 15SM FEW035TCU FEW150 SCT240 23/15 A2999 RMK TCU1AC1CI0 SLP155=
CYUL;2005-08-03 14:00;METAR CYUL 031400Z 06005KT 15SM FEW035TCU FEW120 SCT240 25/14 A2998 RMK TCU1AC1CI1 SLP153=
CYUL;2005-08-03 15:00;METAR CYUL 031500Z 18004KT 15SM FEW035 FEW120 SCT240 25/16 A2998 RMK CU1AC1CI1 SLP154=
CYUL;2005-08-03 16:00;METAR CYUL 031600Z 19006KT 15SM FEW030 FEW040 SCT240 26/15 A2998 RMK CU1SC1CI1 COTRA SLP153=
CYUL;2005-08-03 17:00;METAR CYUL 031700Z 23004KT 15SM FEW050 BKN240 27/15 A2997 RMK CU1CI1 SLP148=
CYUL;2005-08-03 18:00;METAR CYUL 031800Z 19006KT 15SM FEW060 BKN240 27/15 A2996 RMK CU1CI2 SLP147=
CYUL;2005-08-03 19:00;METAR CYUL 031900Z 18006KT 15SM FEW050 FEW080 BKN250 28/16 A2996 RMK CU1AC1CI1 SLP145=
CYUL;2005-08-03 20:00;METAR CYUL 032000Z 19005KT 15SM FEW060 BKN240 BKN250 28/15 A2995 RMK SC1CS2CI0 CU ASOCT SLP142=
CYUL;2005-08-03 21:00;METAR CYUL 032100Z 22005KT 15SM FEW060 BKN240 BKN250 28/15 A2994 RMK SC1CS2CI0 CU ASOCT SLP140=
CYUL;2005-08-03 22:00;METAR CYUL 032200Z 18006KT 15SM FEW060 BKN240 27/16 A2995 RMK SC1CI2 SLP141=
CYUL;2005-08-03 23:00;METAR CYUL 032300Z 15008KT 15SM FEW060 FEW100 BKN240 26/16 A2996 RMK SC1AC1CI2 SLP145=
CYUL;2005-08-04 00:00;METAR CYUL 040000Z 14009KT 15SM FEW060 SCT240 25/16 A2996 RMK SC1CI2 SLP147=
CYUL;2005-08-04 01:00;METAR CYUL 040100Z 16007KT 15SM FEW060 SCT240 24/16 A2998 RMK SC1CI1 SLP154=
CYUL;2005-08-04 02:00;METAR CYUL 040200Z 14007KT 15SM FEW240 23/16 A2999 RMK CI1 SLP156=
CYUL;2005-08-04 03:00;METAR CYUL 040300Z 14007KT 15SM FEW240 23/15 A2999 RMK CI1 SLP156=
CYUL;2005-08-04 04:00;METAR CYUL 040400Z 14004KT 15SM FEW240 23/15 A3000 RMK CI0 SLP159=
CYUL;2005-08-04 05:00;METAR CYUL 040500Z 12004KT 15SM FEW240 21/16 A3000 RMK CI0 SLP158=
CYUL;2005-08-04 06:00;METAR CYUL 040600Z 12003KT 15SM FEW065 FEW240 21/16 A2999 RMK CF1CI0 SLP157=
CYUL;2005-08-04 07:00;METAR CYUL 040700Z 09003KT 15SM FEW065 FEW240 21/16 A3000 RMK CF1CI0 SLP159=
CYUL;2005-08-04 08:00;METAR CYUL 040800Z 11005KT 15SM FEW060 SCT240 21/16 A2999 RMK CF1CI0 SLP157=
CYUL;2005-08-04 09:24;SPECI CYUL 040924Z 07005KT 15SM FEW015TCU BKN045 OVC240 20/ RMK TCU1SC7CI0=
CYUL;2005-08-04 10:00;METAR CYUL 041000Z 09003KT 15SM SCT045 OVC240 21/16 A3000 RMK SC3CI1 SLP161=
CYUL;2005-08-04 11:00;METAR CYUL 041100Z 11006KT 15SM FEW150 SCT240 22/16 A3000 RMK AC2CI0 SLP159=
CYUL;2005-08-04 12:00;METAR CYUL 041200Z 13006KT 12SM FEW050TCU FEW090 BKN150 BKN240 22/17 A3000 RMK TCU1AC2AC2CI0 SLP159=
CYUL;2005-08-04 13:00;METAR CYUL 041300Z 12003KT 12SM BKN065 BKN150 BKN240 23/17 A3000 RMK SC5AC1CI0 TCU ASOCT SLP158=
CYUL;2005-08-04 15:00;METAR CYUL 041500Z 20006KT 12SM FEW018 SCT240 26/20 A2998 RMK SC1CI1 SLP154=
CYUL;2005-08-04 16:00;METAR CYUL 041600Z 21007KT 10SM SCT240 27/21 A2998 RMK CI1 SLP151=
CYUL;2005-08-04 17:00;METAR CYUL 041700Z 18006KT 8SM FEW030 SCT240 28/21 A2997 RMK CF1CI0 SLP148=
CYUL;2005-08-04 18:00;METAR CYUL 041800Z 21006KT 8SM FEW030 BKN240 29/21 A2995 RMK CF1CI1 SLP141=
CYUL;2005-08-04 19:00;METAR CYUL 041900Z 19006KT 7SM FEW030TCU BKN240 31/22 A2992 RMK TCU1CI1 SLP134=
CYUL;2005-08-04 20:00;METAR CYUL 042000Z 19009KT 7SM FEW030TCU BKN240 31/22 A2991 RMK TCU2CI1 SLP128=
CYUL;2005-08-04 21:00;METAR CYUL 042100Z 21010KT 7SM FEW030TCU BKN240 32/21 A2989 RMK TCU2CI1 CB N SLP121=
CYUL;2005-08-04 22:00;METAR CYUL 042200Z 22010KT 7SM FEW030 OVC240 31/22 A2987 RMK SC1CI2 TCU ASOCT SLP115=
CYUL;2005-08-04 23:00;METAR CYUL 042300Z 21010KT 7SM FEW090 OVC240 31/21 A2986 RMK AC1CI1 SLP110=
CYUL;2005-08-05 00:00;METAR CYUL 050000Z 21011KT 7SM FEW030 FEW090 OVC240 30/21 A2987 RMK SC1AC2CI1 SLP113=
CYUL;2005-08-05 01:00;METAR CYUL 050100Z 20009KT 8SM FEW030 BKN090 BKN160 29/21 A2986 RMK SC1AC5AC1 SLP110=
CYUL;2005-08-05 02:00;METAR CYUL 050200Z 20013KT 8SM FEW120 OVC240 29/20 A2985 RMK AC2CI5 SLP107=
CYUL;2005-08-05 03:00;METAR CYUL 050300Z 22012G17KT 8SM FEW120 BKN240 28/20 A2984 RMK AC1CI3 SLP106=
CYUL;2005-08-05 03:54;SPECI CYUL 050354Z 24022KT 8SM -SHRA OVC070 28/ RMK AC8=
CYUL;2005-08-05 04:00;METAR CYUL 050400Z 25024KT 8SM -SHRA OVC045 27/20 A2986 RMK SC8 SLP110=
CYUL;2005-08-05 05:00;METAR CYUL 050500Z 27011KT 2SM SHRA BR OVC018 22/21 A2986 RMK SC8 SLP112=
CYUL;2005-08-05 05:04;SPECI CYUL 050504Z 25011G16KT 6SM -SHRA BR OVC021 22/ RERA RMK SC8=
CYUL;2005-08-05 07:14;SPECI CYUL 050714Z 22018G24KT 2 1/2SM TSRA BR OVC019 23/ RMK SC8 CB EMBD=
CYUL;2005-08-05 07:23;SPECI CYUL 050723Z 23013G20KT 4SM -TSRA BR BKN015 OVC045 24/ RERA RMK CF6SC2 CB EMBD=
CYUL;2005-08-05 07:34;SPECI CYUL 050734Z 23018G24KT 2 1/4SM TSRA BR OVC019 23/ RMK SC8 CB EMBD=
CYUL;2005-08-05 08:38;SPECI CYUL 050838Z 21006KT 3SM -TSRA BR BKN022 OVC035 24/ RMK SC7SC1 CB EMBD=
CYUL;2005-08-05 09:00;METAR CYUL 050900Z 24011KT 6SM -RA BR BKN026 OVC040 24/21 A2981 RETS RMK SC6SC2 SLP095=
CYUL;2005-08-05 09:32;SPECI CYUL 050932Z 24011KT 6SM BR FEW025 SCT150 OVC240 24/ RMK CF2AC2CI2=
CYUL;2005-08-05 10:00;METAR CYUL 051000Z 24012KT 6SM BR FEW025 FEW045 BKN130 OVC240 24/22 A2982 RMK CF1SC1AC6CI1 SLP099=
CYUL;2005-08-05 11:00;METAR CYUL 051100Z 24011KT 8SM FEW030 BKN055 OVC240 24/22 A2984 RMK CF1SC6CI1 SLP104=
CYUL;2005-08-05 12:00;METAR CYUL 051200Z 24011G16KT 10SM FEW010 BKN070 BKN240 24/22 A2985 RMK SF1AC6CI1 SLP108=
CYUL;2005-08-05 13:00;METAR CYUL 051300Z 25014KT 10SM BKN017 BKN240 25/22 A2987 RMK CU6CI1 CC ASOCT SLP113=
CYUL;2005-08-05 14:00;METAR CYUL 051400Z 27015G21KT 15SM SCT020TCU BKN030 BKN240 25/20 A2987 RMK TCU3SC2CI0 CC ASOCT SLP114=
CYUL;2005-08-05 15:00;METAR CYUL 051500Z 27015KT 15SM FEW030 SCT150 BKN220 26/19 A2989 RMK CU2AC2CC2 TCU ASOCT SLP120=
CYUL;2005-08-05 16:00;METAR CYUL 051600Z 30013G20KT 15SM FEW030 SCT220 BKN240 26/18 A2991 RMK CU2CC1CI0 SLP128=
CYUL;2005-08-05 17:00;METAR CYUL 051700Z 26014G19KT 30SM FEW040 BKN240 27/16 A2992 RMK CU2CI1 CC ASOCT SLP130=
CYUL;2005-08-05 18:00;METAR CYUL 051800Z 28012G19KT 30SM SCT040 BKN240 27/15 A2992 RMK CU3CI1 SLP133=
CYUL;2005-08-05 19:00;METAR CYUL 051900Z 26015G21KT 30SM SCT050 SCT240 28/17 A2992 RMK CU3CI0 SLP131=
CYUL;2005-08-05 20:00;METAR CYUL 052000Z 26016G21KT 30SM FEW040 FEW060 SCT240 28/16 A2992 RMK CU1SC2CI0 SLP132=
CYUL;2005-08-05 21:00;METAR CYUL 052100Z 28016G21KT 30SM SCT060 SCT240 28/16 A2991 RMK SC3CI1 CU ASOCT SLP129=
CYUL;2005-08-05 22:00;METAR CYUL 052200Z 26019KT 30SM FEW060 SCT240 28/16 A2992 RMK CU2CI0 SLP132=
CYUL;2005-08-05 23:00;METAR CYUL 052300Z 27012G18KT 30SM FEW060 FEW070 SCT240 27/13 A2995 RMK CU1AC1CI0 SLP140=
CYUL;2005-08-06 00:00;METAR CYUL 060000Z 28008KT 30SM FEW060 FEW080 FEW240 25/13 A2997 RMK CU1AC1CI1 SLP149=
CYUL;2005-08-06 04:00;METAR CYUL 060400Z 34004KT 15SM SKC 19/12 A3008 RMK SLP185=
CYUL;2005-08-06 05:00;METAR CYUL 060500Z 02007KT 15SM SKC 21/11 A3009 RMK SLP190=
CYUL;2005-08-06 06:00;METAR CYUL 060600Z 36007KT 15SM SKC 19/11 A3011 RMK SLP195=
CYUL;2005-08-06 09:00;METAR CYUL 060900Z 36003KT 15SM SKC 15/10 A3015 RMK SLP211=
CYUL;2005-08-06 10:00;METAR CYUL 061000Z 36004KT 30SM FEW240 15/11 A3017 RMK CI1 SLP216=
CYUL;2005-08-06 11:00;METAR CYUL 061100Z 35002KT 30SM FEW240 18/11 A3019 RMK CI1 SLP222=
CYUL;2005-08-06 12:00;METAR CYUL 061200Z 34002KT 30SM FEW240 19/12 A3021 RMK CI1 SLP229=
CYUL;2005-08-06 13:00;METAR CYUL 061300Z 10005KT 30SM FEW240 22/12 A3021 RMK CI1 SLP230=
CYUL;2005-08-06 14:00;METAR CYUL 061400Z 15007KT 30SM FEW240 22/13 A3021 RMK CI1 SLP230=
CYUL;2005-08-06 15:00;METAR CYUL 061500Z 19007KT 30SM FEW040 FEW240 23/12 A3021 RMK CU1CI1 SLP230=
CYUL;2005-08-06 16:00;METAR CYUL 061600Z 18005KT 30SM FEW045 FEW240 23/12 A3020 RMK CU1CI1 SLP226=
CYUL;2005-08-06 17:00;METAR CYUL 061700Z 22005KT 30SM FEW050 FEW240 24/11 A3018 RMK CU1CI1 SLP221=
CYUL;2005-08-06 18:00;METAR CYUL 061800Z 21005KT 30SM FEW050 FEW240 24/11 A3016 RMK CU1CI1 SLP215=
CYUL;2005-08-06 19:00;METAR CYUL 061900Z 22007KT 30SM FEW050 FEW240 25/11 A3015 RMK CU1CI1 SLP209=
CYUL;2005-08-06 20:00;METAR CYUL 062000Z 20007KT 30SM FEW050 FEW240 25/11 A3013 RMK CU1CI1 SLP204=
CYUL;2005-08-06 21:00;METAR CYUL 062100Z 20007KT 30SM FEW240 25/11 A3012 RMK CI1 SLP200=
CYUL;2005-08-06 22:00;METAR CYUL 062200Z 20007KT 30SM FEW240 25/11 A3011 RMK CI0 SLP195=
CYUL;2005-08-06 23:00;METAR CYUL 062300Z 22007KT 30SM FEW240 25/11 A3010 RMK CI0 SLP193=
CYUL;2005-08-07 00:00;METAR CYUL 070000Z 20005KT 30SM FEW240 24/12 A3010 RMK CI0 SLP192=
CYUL;2005-08-07 01:00;METAR CYUL 070100Z 16006KT 15SM FEW240 22/13 A3009 RMK CI1 SLP191=
CYUL;2005-08-07 02:00;METAR CYUL 070200Z 16005KT 15SM SKC 21/13 A3010 RMK SLP192=
CYUL;2005-08-07 03:00;METAR CYUL 070300Z 16009KT 15SM SKC 21/13 A3010 RMK SLP193=
CYUL;2005-08-07 04:00;METAR CYUL 070400Z 17006KT 15SM SKC 20/14 A3009 RMK SLP191=
CYUL;2005-08-07 05:00;METAR CYUL 070500Z 00000KT 15SM SKC 19/14 A3009 RMK SLP191=
CYUL;2005-08-07 06:00;METAR CYUL 070600Z 18006KT 15SM SKC 19/14 A3009 RMK SLP190=
CYUL;2005-08-07 07:00;METAR CYUL 070700Z 22004KT 15SM FEW080 FEW240 20/15 A3009 RMK AC1CI0 SLP191=
CYUL;2005-08-07 08:00;METAR CYUL 070800Z 26003KT 15SM FEW070 SCT240 18/14 A3009 RMK AC1CI1 SLP191=
CYUL;2005-08-07 09:00;METAR CYUL 070900Z 23003KT 15SM FEW055 FEW240 20/15 A3010 RMK SC1CI0 SLP194=
CYUL;2005-08-07 11:00;METAR CYUL 071100Z 22009KT 30SM FEW055 FEW240 20/15 A3011 RMK SC1CI1 SLP195=
CYUL;2005-08-07 12:00;METAR CYUL 071200Z 22010KT 30SM FEW240 21/16 A3011 RMK CI1 SLP196=
CYUL;2005-08-07 13:00;METAR CYUL 071300Z 25010KT 30SM FEW240 22/16 A3011 RMK CI1 SLP196=
CYUL;2005-08-07 14:00;METAR CYUL 071400Z 24007KT 30SM FEW240 23/16 A3011 RMK CI1 SLP197=
CYUL;2005-08-07 15:00;METAR CYUL 071500Z 26008KT 30SM FEW035 FEW240 25/14 A3010 RMK CF1CI1 SLP194=
CYUL;2005-08-07 16:00;METAR CYUL 071600Z 24014KT 30SM FEW035 FEW240 26/14 A3009 RMK CF1CI1 SLP191=
CYUL;2005-08-07 17:00;METAR CYUL 071700Z 23010G16KT 30SM FEW035 26/15 A3008 RMK CF1 SLP186=
CYUL;2005-08-07 18:00;METAR CYUL 071800Z 24010G18KT 30SM FEW150 27/14 A3007 RMK AC1 SLP183=
CYUL;2005-08-07 19:00;METAR CYUL 071900Z 21015KT 30SM FEW150 28/16 A3006 RMK AC1 SLP178=
CYUL;2005-08-07 20:00;METAR CYUL 072000Z 23014G19KT 30SM FEW150 FEW240 28/15 A3003 RMK AC1CI1 SLP170=
CYUL;2005-08-07 21:00;METAR CYUL 072100Z 24014G21KT 30SM FEW150 FEW240 29/14 A3003 RMK AC1CI0 SLP169=
CYUL;2005-08-07 22:00;METAR CYUL 072200Z 23011G17KT 30SM FEW150 SCT240 28/14 A3002 RMK AC1CI0 SLP166=
CYUL;2005-08-07 23:00;METAR CYUL 072300Z 25012KT 30SM FEW150 SCT240 28/14 A3002 RMK AC1CI0 SLP165=
CYUL;2005-08-08 00:00;METAR CYUL 080000Z 23008KT 30SM FEW240 27/16 A3001 RMK CI0 SLP163=
CYUL;2005-08-08 01:00;METAR CYUL 080100Z 23007KT 15SM SCT240 26/17 A3003 RMK CI1 SLP168=
CYUL;2005-08-08 03:00;METAR CYUL 080300Z 24009KT 15SM FEW240 25/14 A3004 RMK CI1 SLP173=
CYUL;2005-08-08 04:00;METAR CYUL 080400Z 26004KT 15SM FEW240 22/14 A3005 RMK CI0 SLP175=
CYUL;2005-08-08 05:00;METAR CYUL 080500Z 27003KT 15SM SKC 22/14 A3005 RMK SLP177=
CYUL;2005-08-08 06:00;METAR CYUL 080600Z 25005KT 15SM SKC 21/14 A3005 RMK SLP177=
CYUL;2005-08-08 07:00;METAR CYUL 080700Z 23005KT 15SM SKC 21/15 A3006 RMK SLP178=
CYUL;2005-08-08 09:00;METAR CYUL 080900Z 25008KT 15SM SKC 21/15 A3007 RMK SLP183=
CYUL;2005-08-08 10:00;METAR CYUL 081000Z 25006KT 15SM FEW240 20/15 A3008 RMK CI1 SLP186=
CYUL;2005-08-08 11:00;METAR CYUL 081100Z 25007KT 15SM SKC 20/16 A3009 RMK SLP190=
CYUL;2005-08-08 12:00;METAR CYUL 081200Z 24007KT 15SM SKC 22/17 A3010 RMK SLP194=
CYUL;2005-08-08 13:00;METAR CYUL 081300Z 23008KT 15SM SKC 23/18 A3011 RMK SLP195=
CYUL;2005-08-08 14:00;METAR CYUL 081400Z 22009KT 15SM SKC 25/18 A3011 RMK SLP196=
CYUL;2005-08-08 15:00;METAR CYUL 081500Z 22008KT 15SM SKC 26/18 A3011 RMK SLP196=
CYUL;2005-08-08 16:00;METAR CYUL 081600Z 21012KT 15SM FEW240 27/17 A3010 RMK CI1 SLP194=
CYUL;2005-08-08 17:00;METAR CYUL 081700Z 23011KT 15SM FEW240 29/17 A3009 RMK CI1 SLP191=
CYUL;2005-08-08 18:00;METAR CYUL 081800Z 21011KT 15SM FEW240 29/17 A3008 RMK CI1 SLP187=
CYUL;2005-08-08 19:00;METAR CYUL 081900Z 22012KT 15SM FEW040 FEW180 30/16 A3007 RMK CF1AC1 SLP182=
CYUL;2005-08-08 20:00;METAR CYUL 082000Z 22010G15KT 15SM FEW040 FEW180 30/16 A3005 RMK CF1AC1 SLP177=
CYUL;2005-08-08 21:00;METAR CYUL 082100Z 22012KT 15SM FEW180 FEW240 30/17 A3004 RMK AC1CI1 SLP174=
CYUL;2005-08-08 22:00;METAR CYUL 082200Z 22010G15KT 15SM FEW180 FEW240 30/18 A3003 RMK AC1CI0 SLP170=
CYUL;2005-08-08 23:00;METAR CYUL 082300Z 23006KT 15SM FEW180 FEW240 29/18 A3002 RMK AC1CI0 SLP166=
CYUL;2005-08-09 00:00;METAR CYUL 090000Z 21005KT 15SM FEW180 FEW240 28/18 A3002 RMK AC2CI0 SLP165=
CYUL;2005-08-09 01:00;METAR CYUL 090100Z 20006KT 15SM FEW180 SCT240 26/19 A3002 RMK AC2CI1 SLP167=
CYUL;2005-08-09 03:00;METAR CYUL 090300Z 22006KT 15SM SKC 26/18 A3002 RMK SLP167=
CYUL;2005-08-09 04:00;METAR CYUL 090400Z 21007KT 15SM SKC 25/19 A3003 RMK SLP168=
CYUL;2005-08-09 06:00;METAR CYUL 090600Z 22005KT 15SM SKC 24/18 A3002 RMK SLP167=
CYUL;2005-08-09 07:00;METAR CYUL 090700Z 27002KT 15SM SKC 21/18 A3003 RMK SLP168=
CYUL;2005-08-09 08:00;METAR CYUL 090800Z 23008KT 15SM SKC 23/19 A3002 RMK SLP166=
CYUL;2005-08-09 09:00;METAR CYUL 090900Z 25005KT 15SM SKC 22/19 A3002 RMK SLP165=
CYUL;2005-08-09 10:00;METAR CYUL 091000Z 26005KT 10SM FEW240 21/18 A3003 RMK CI1 SLP169=
CYUL;2005-08-09 11:00;METAR CYUL 091100Z 24005KT 10SM SKC 22/19 A3003 RMK SLP170=
CYUL;2005-08-09 12:00;METAR CYUL 091200Z 26005KT 10SM SKC 23/19 A3005 RMK SLP175=
CYUL;2005-08-09 13:00;METAR CYUL 091300Z 26011KT 10SM FEW080 FEW240 24/19 A3005 RMK AC1CI0 SLP176=
CYUL;2005-08-09 14:00;METAR CYUL 091400Z 20008KT 10SM FEW240 25/19 A3004 RMK CI1 SLP172=
CYUL;2005-08-09 15:00;METAR CYUL 091500Z 22008KT 10SM FEW240 26/20 A3002 RMK CI1 SLP166=
CYUL;2005-08-09 16:00;METAR CYUL 091600Z 23009KT 10SM FEW040 FEW240 27/20 A3000 RMK CF1CI1 SLP160=
CYUL;2005-08-09 17:00;METAR CYUL 091700Z 22010KT 10SM FEW035 FEW240 28/20 A2998 RMK CU1CI1 SLP154=
CYUL;2005-08-09 18:00;METAR CYUL 091800Z 22015KT 10SM FEW040 30/20 A2996 RMK CU2 SLP146=
CYUL;2005-08-09 19:00;METAR CYUL 091900Z 22015KT 10SM FEW040 30/18 A2995 RMK CU2 SLP142=
CYUL;2005-08-09 20:00;METAR CYUL 092000Z 22014KT 10SM FEW040 BKN240 30/18 A2993 RMK CU1CI0 SLP134=
CYUL;2005-08-09 22:00;METAR CYUL 092200Z 23013G19KT 12SM BKN240 30/19 A2990 RMK CI0 SLP126=
CYUL;2005-08-09 23:00;METAR CYUL 092300Z 22012KT 12SM BKN240 29/19 A2989 RMK CI1 CC ASOCT SLP121=
CYUL;2005-08-10 00:00;METAR CYUL 100000Z 22010KT 10SM BKN240 28/19 A2990 RMK CI2 CC ASOCT SLP124=
CYUL;2005-08-10 01:00;METAR CYUL 100100Z 22008KT 10SM FEW090 OVC240 27/19 A2991 RMK AC2CI2 SLP129=
CYUL;2005-08-10 02:00;METAR CYUL 100200Z 23008KT 10SM FEW090 BKN240 27/19 A2991 RMK AC2CI1 SLP128=
CYUL;2005-08-10 03:00;METAR CYUL 100300Z 21010KT 10SM FEW060 BKN240 26/19 A2990 RMK SC2CI0 SLP126=
CYUL;2005-08-10 04:00;METAR CYUL 100400Z 22011KT 10SM FEW060 SCT240 26/18 A2990 RMK SC1CI0 SLP123=
CYUL;2005-08-10 05:00;METAR CYUL 100500Z 23012KT 10SM SCT065 BKN240 26/18 A2988 RMK SC4CI0 SLP118=
CYUL;2005-08-10 06:00;METAR CYUL 100600Z 21007KT 10SM FEW065 SCT240 25/19 A2986 RMK SC1CI1 SLP112=
CYUL;2005-08-10 07:00;METAR CYUL 100700Z 23011KT 10SM SCT090 BKN240 25/18 A2987 RMK AC2CI0 SLP113=
CYUL;2005-08-10 09:00;METAR CYUL 100900Z 25008KT 10SM FEW090 BKN240 24/17 A2988 RMK AC2CI1 SLP117=
CYUL;2005-08-10 10:00;METAR CYUL 101000Z 27008KT 10SM FEW090 FEW150 BKN240 24/17 A2989 RMK AC1AC1CI2 SLP122=
CYUL;2005-08-10 11:00;METAR CYUL 101100Z 25006KT 8SM FEW150 SCT240 24/18 A2990 RMK AC1CI1 SLP126=
CYUL;2005-08-10 12:00;METAR CYUL 101200Z 25009KT 8SM SCT240 24/18 A2991 RMK CI1 CC ASOCT SLP128=
CYUL;2005-08-10 13:00;METAR CYUL 101300Z 22011KT 8SM FEW065 SCT120 BKN240 25/19 A2990 RMK SC1AC2CI1 SLP125=
CYUL;2005-08-10 14:00;METAR CYUL 101400Z 24007KT 8SM FEW065 BKN120 BKN240 26/19 A2989 RMK SC1AC5CI1 SLP122=
CYUL;2005-08-10 15:00;METAR CYUL 101500Z 22011KT 10SM SCT120 BKN180 OVC240 26/20 A2989 RMK AC3AC2CI1 SLP121=
CYUL;2005-08-10 16:00;METAR CYUL 101600Z 22009KT 10SM SCT065 BKN120 OVC180 27/19 A2990 RMK SC3AC3AC2 SLP124=
CYUL;2005-08-10 17:00;METAR CYUL 101700Z 23005KT 10SM FEW065 SCT150 OVC240 28/20 A2988 RMK SC1AC3CI2 SLP118=
CYUL;2005-08-10 18:00;METAR CYUL 101800Z 25007KT 10SM FEW060 SCT150 BKN240 30/21 A2984 RMK CU2AC2CI0 SLP106=
CYUL;2005-08-10 20:00;METAR CYUL 102000Z 14015KT 8SM BKN050 OVC240 27/20 A2980 RMK CU5CS1 TCU ASOCT SLP092=
CYUL;2005-08-10 21:00;METAR CYUL 102100Z 28008G16KT 8SM TS BKN030TCU OVC090 26/20 A2982 RMK TCU6AC2 CB EMBD SLP097=
CYUL;2005-08-10 22:00;METAR CYUL 102200Z 01010KT 8SM BKN040TCU OVC090 24/19 A2984 RMK TCU5AC3 RETS CB EMBD SLP105=
CYUL;2005-08-10 22:15;SPECI CYUL 102215Z 33014KT 8SM -TSRA BKN040TCU OVC090 23/ RMK TCU6AC2 CB EMBD=
CYUL;2005-08-10 22:27;SPECI CYUL 102227Z 34010KT 2 1/2SM TSRA BKN040TCU OVC090 21/ RMK TCU6AC2 CB EMBD=
CYUL;2005-08-10 22:34;SPECI CYUL 102234Z 36011KT 2 1/2SM -SHRA SCT009 OVC020TCU 20/ RMK SF3TCU5 RETS RERA CB EMBD=
CYUL;2005-08-10 23:00;METAR CYUL 102300Z 35007KT 8SM FEW010 BKN020 OVC090 20/19 A2985 RMK SF2SC4AC2 RETS RERA TCU ASOCT SLP109=
CYUL;2005-08-10 23:15;SPECI CYUL 102315Z 28005KT 6SM -SHRA FEW010 BKN025 OVC070 20/ RMK SF2SC4AC2=
CYUL;2005-08-10 23:35;SPECI CYUL 102335Z 25002KT 8SM FEW025 BKN070 OVC120 21/ RMK SC2AC4AC2=
CYUL;2005-08-11 00:00;METAR CYUL 110000Z 23010G15KT 8SM SCT060 BKN090 OVC120 21/19 A2984 RMK SC3AC3AC2 SLP107=
CYUL;2005-08-11 01:00;METAR CYUL 110100Z 23006KT 8SM FEW060 SCT090 OVC120 22/19 A2983 RMK SC2AC2AC4 SLP102=
CYUL;2005-08-11 03:00;METAR CYUL 110300Z 21008KT 8SM FEW090 BKN120 23/19 A2982 RMK AC1AC5 SLP098=
CYUL;2005-08-11 04:00;METAR CYUL 110400Z 21008KT 8SM SCT120 BKN240 23/19 A2981 RMK AC2CI1 SLP095=
CYUL;2005-08-11 05:00;METAR CYUL 110500Z 24007KT 8SM FEW120 SCT240 23/19 A2982 RMK AC2CI0 SLP098=
CYUL;2005-08-11 06:00;METAR CYUL 110600Z 25008KT 8SM BKN053 OVC090 22/19 A2982 RMK SC6AC2 SLP097=
CYUL;2005-08-11 09:00;METAR CYUL 110900Z 25004KT 6SM BR SCT060 BKN090 21/19 A2984 RMK SC2AC2 SLP104=
CYUL;2005-08-11 09:50;SPECI CYUL 110950Z 27005KT 4SM BR FEW009 BKN013 BKN060 BKN120 RMK SF2SF3SC1AC1=
CYUL;2005-08-11 10:00;METAR CYUL 111000Z 28006KT 4SM BR SCT010 SCT070 BKN240 20/19 A2988 RMK SF3AC1CI1 SLP117=
CYUL;2005-08-11 11:00;METAR CYUL 111100Z 30004KT 5SM BR FEW013 FEW060 SCT240 20/19 A2990 RMK SF1SC1CI1 SLP124=
CYUL;2005-08-11 11:36;SPECI CYUL 111136Z 30007KT 6SM BR FEW008 SCT090 BKN150 RMK SF2AC2AC2=
CYUL;2005-08-11 12:00;METAR CYUL 111200Z 29004KT 7SM FEW008 BKN100 BKN170 21/19 A2992 RMK SF1AC5AC2 SLP133=
CYUL;2005-08-11 13:00;METAR CYUL 111300Z 29004KT 10SM FEW010 BKN090 OVC240 22/18 A2993 RMK SF1AC6CI1 SLP136=
CYUL;2005-08-11 14:00;METAR CYUL 111400Z 35005KT 15SM FEW010 BKN085 BKN240 23/18 A2995 RMK SF1AC5CI0 SLP144=
CYUL;2005-08-11 15:00;METAR CYUL 111500Z 35003KT 15SM FEW012 FEW032 BKN082 BKN160 BKN240 24/17 A2996 RMK SF1CU1AC5AC1CI0 SLP145=
CYUL;2005-08-11 16:00;METAR CYUL 111600Z 34005KT 15SM FEW015 FEW032 FEW084 SCT110 SCT250 26/15 A2995 RMK SF1CU1AC2AC1CI0 TCU ASOCT SLP144=
CYUL;2005-08-11 17:00;METAR CYUL 111700Z 35005KT 15SM FEW022 FEW047 FEW095 FEW160 FEW250 26/16 A2995 RMK CF1CU2AC1AC1CI0 SLP143=
CYUL;2005-08-11 18:00;METAR CYUL 111800Z 28003KT 15SM BKN052TCU BKN170 BKN250 27/16 A2995 RMK TCU5AC1CI0 SLP143=
CYUL;2005-08-11 19:00;METAR CYUL 111900Z 32010KT 290V350 15SM FEW055 FEW062TCU FEW095 SCT250 28/14 A2994 RMK CF1TCU2AC1CI0 SLP138=
CYUL;2005-08-11 20:00;METAR CYUL 112000Z 30006G20KT 25SM FEW055 FEW065 FEW088 FEW250 28/13 A2994 RMK CF1CU2AC1CI0 TCU ASOCT SLP139=
CYUL;2005-08-11 21:00;METAR CYUL 112100Z 30009G15KT 30SM FEW065 FEW074 BKN250 28/13 A2994 RMK CU1AC2CI0 SLP138=
CYUL;2005-08-11 22:00;METAR CYUL 112200Z 30006KT 30SM FEW060 FEW075 FEW110 BKN260 27/13 A2995 RMK CF1AC1AC1CI1 SLP141=
CYUL;2005-08-11 23:00;METAR CYUL 112300Z 29007KT 30SM FEW072 SCT200 BKN260 25/13 A2996 RMK AC1CI1CI2 SLP145=
CYUL;2005-08-12 00:00;METAR CYUL 120000Z 32005KT 25SM FEW068 SCT200 BKN250 23/13 A2997 RMK AC1CI2CI2 SLP148=
CYUL;2005-08-12 01:00;METAR CYUL 120100Z 33003KT 15SM SCT200 BKN250 21/13 A2999 RMK CI2CI3 SLP156=
CYUL;2005-08-12 02:00;METAR CYUL 120200Z 36003KT 15SM BKN240 23/12 A3000 RMK CI3 SLP160=
CYUL;2005-08-12 03:00;METAR CYUL 120300Z 02006KT 15SM SCT088 BKN240 22/10 A3001 RMK AC4CI0 SLP163=
CYUL;2005-08-12 04:00;METAR CYUL 120400Z 02002KT 15SM SCT082 BKN240 22/10 A3001 RMK AC3CI0 SLP164=
CYUL;2005-08-12 05:00;METAR CYUL 120500Z 02004KT 15SM FEW085 BKN240 21/11 A3001 RMK AC2CI2 SLP164=
CYUL;2005-08-12 06:00;METAR CYUL 120600Z 03006KT 15SM BKN085 BKN240 20/10 A3002 RMK AC5CI1 SLP167=
CYUL;2005-08-12 08:00;METAR CYUL 120800Z 03005KT 15SM BKN080 OVC240 20/11 A3003 RMK AC6CI1 SLP169=
CYUL;2005-08-12 09:00;METAR CYUL 120900Z 03003KT 15SM BKN070 BKN220 19/11 A3003 RMK AC5CI2 SLP170=
CYUL;2005-08-12 10:00;METAR CYUL 121000Z 03007KT 15SM SCT065 BKN180 OVC240 20/11 A3003 RMK SC3AC2CI2 SLP169=
CYUL;2005-08-12 11:00;METAR CYUL 121100Z 03007KT 15SM SCT065 BKN170 18/12 A3003 RMK SC3AC4 SLP171=
CYUL;2005-08-12 12:00;METAR CYUL 121200Z 03005KT 15SM FEW065 BKN150 BKN240 19/13 A3003 RMK SC2AC3CI1 SLP168=
CYUL;2005-08-12 13:00;METAR CYUL 121300Z 02006KT 15SM FEW060 BKN130 BKN180 21/14 A3002 RMK SC2AC4AC1 SLP165=
CYUL;2005-08-12 14:00;METAR CYUL 121400Z 07004KT 25SM FEW020 FEW048 BKN120 BKN180 23/13 A3000 RMK CU1SC2AC3AC1 SLP161=
CYUL;2005-08-12 15:00;METAR CYUL 121500Z 11005KT 080V140 20SM FEW020 FEW056 SCT120 BKN180 24/13 A2998 RMK CU1SC2AC2AC1 SLP153=
CYUL;2005-08-12 16:00;METAR CYUL 121600Z 17008KT 130V200 20SM FEW040 FEW065 FEW120 FEW180 BKN250 26/15 A2995 RMK CU1SC1AC2AC1CI2 SLP143=
CYUL;2005-08-12 17:00;METAR CYUL 121700Z 19005KT 15SM FEW015 FEW065 BKN180 BKN260 26/17 A2995 RMK CU1SC1AC3CI2 SLP141=
CYUL;2005-08-12 18:00;METAR CYUL 121800Z 23006KT 15SM FEW020 SCT065 SCT100 OVC180 26/16 A2994 RMK CU1SC2AC1AS4 SLP138=
CYUL;2005-08-12 18:14;SPECI CYUL 121814Z 26009KT 230V290 15SM -SHRA FEW015 BKN062 BKN120 OVC180 RMK CU1SC4AC1AS2=
CYUL;2005-08-12 19:00;METAR CYUL 121900Z 22009KT 10SM -SHRA FEW018 SCT034 BKN062 OVC180 25/18 A2992 RMK SC1SC3SC2AS2 SLP131=
CYUL;2005-08-12 20:00;METAR CYUL 122000Z 27003KT 15SM -RA FEW028 FEW056 BKN084 OVC160 22/16 A2992 RMK SC1SC2AC3AS2 SLP132=
CYUL;2005-08-12 20:37;SPECI CYUL 122037Z 25002KT 15SM FEW032 SCT060 BKN079 OVC110 RMK SC2SC2AC4AC1=
CYUL;2005-08-12 21:00;METAR CYUL 122100Z 18003KT 15SM -SHRA FEW032 SCT060 BKN076 OVC110 23/16 A2989 RMK SC1SC2AC3AC2 SLP122=
CYUL;2005-08-12 22:00;METAR CYUL 122200Z 18006KT 15SM -RA FEW032 SCT055 BKN076 OVC110 22/18 A2988 RMK SC1SC2AC3AC2 SLP119=
CYUL;2005-08-12 23:00;METAR CYUL 122300Z 17009KT 8SM -RA VCFG FEW012 BKN048 OVC072 21/17 A2986 RMK SF1SC6AC1 -RA INTMT SLP112=
CYUL;2005-08-13 00:00;METAR CYUL 130000Z 11003KT 080V150 8SM -RA VCFG OVC040 21/18 A2984 RMK SC8 -RA INTMT SLP107=
CYUL;2005-08-13 00:39;SPECI CYUL 130039Z 14004KT 6SM -RA BR FEW008 OVC036 RMK SF2SC6 -RA INTMT=
CYUL;2005-08-13 01:00;METAR CYUL 130100Z 11005KT 6SM -RA BR FEW008 FEW018 SCT026 OVC033 20/18 A2984 RMK SF2SC1SC1SC5 SLP104=
CYUL;2005-08-13 01:34;SPECI CYUL 130134Z 13006KT 6SM -RA BR FEW010 BKN026 OVC034 RMK SF1SC6SC2=
CYUL;2005-08-13 02:00;METAR CYUL 130200Z 15006KT 5SM -RA BR FEW008 BKN018 OVC035 20/18 A2981 RMK SF2SC4SC2 SLP095=
CYUL;2005-08-13 03:00;METAR CYUL 130300Z 16007KT 5SM -RA BR FEW008 OVC025 20/19 A2979 RMK SF2SC6 SLP087=
CYUL;2005-08-13 03:40;SPECI CYUL 130340Z 16008KT 6SM BR FEW010 OVC040 RMK SF1SC8=
CYUL;2005-08-13 04:00;METAR CYUL 130400Z 16008KT 6SM -RA BR FEW010 OVC035 21/20 A2977 RMK SF1SC7 -RA INTMT SLP081=
CYUL;2005-08-13 06:00;METAR CYUL 130600Z 21007KT 7SM OVC040 22/20 A2974 RMK SC8 SLP070=
CYUL;2005-08-13 07:00;METAR CYUL 130700Z 23007KT 7SM FEW025 BKN040 OVC080 22/21 A2973 RMK SC2SC5AC0 SLP066=
CYUL;2005-08-13 08:12;SPECI CYUL 130812Z 26012KT 5SM BR BKN012 OVC040 RMK SF5SC3=
CYUL;2005-08-13 08:40;SPECI CYUL 130840Z 25008KT 4SM BR BKN009 OVC030 RMK SF6SC2=
CYUL;2005-08-13 09:00;METAR CYUL 130900Z 26008KT 4SM BR OVC009 23/21 A2974 RMK SF8 SLP069=
CYUL;2005-08-13 09:42;SPECI CYUL 130942Z 25013KT 5SM BR SCT010 BKN020 BKN040 RMK SF3SC2SC2=
CYUL;2005-08-13 10:00;METAR CYUL 131000Z 25011KT 5SM BR SCT009 SCT040 BKN090 BKN240 22/21 A2975 RMK SF3SC1AC2CI1 SLP075=
CYUL;2005-08-13 10:16;SPECI CYUL 131016Z 25011KT 6SM BR BKN011 BKN018 BKN240 RMK SF5SF2CI1=
CYUL;2005-08-13 10:40;SPECI CYUL 131040Z 24011G16KT 7SM SCT012 SCT150 BKN240 RMK SF3AC1CI0 CC ASOCT=
CYUL;2005-08-13 11:00;METAR CYUL 131100Z 26011G16KT 7SM SCT011 BKN016 BKN150 BKN240 22/21 A2978 RMK SF3SC2AC1CI1 SLP083=
CYUL;2005-08-13 12:00;METAR CYUL 131200Z 27014G19KT 10SM BKN014 BKN030 BKN240 23/20 A2980 RMK SC6SC1CI1 SLP092=
CYUL;2005-08-13 13:00;METAR CYUL 131300Z 26011G16KT 12SM SCT016 SCT030 BKN240 23/19 A2982 RMK SC3SC1CI0 CF ASOCT SLP100=
CYUL;2005-08-13 14:00;METAR CYUL 131400Z 26013KT 15SM FEW015 BKN022 BKN038 BKN250 24/19 A2984 RMK CF1CU5CU1CC1 SLP106=
CYUL;2005-08-13 15:00;METAR CYUL 131500Z 26014G19KT 15SM FEW028 FEW040 SCT210 SCT260 24/18 A2985 RMK CF2CU1CI0CC1 SLP109=
CYUL;2005-08-13 16:00;METAR CYUL 131600Z 25014G19KT 15SM FEW036 SCT210 BKN260 26/17 A2985 RMK CF2CI0CC1 SLP109=
CYUL;2005-08-13 17:00;METAR CYUL 131700Z 27012G19KT 15SM FEW038 BKN210 BKN260 26/17 A2984 RMK CF2CI1CI1 SLP107=
CYUL;2005-08-13 18:00;METAR CYUL 131800Z 28014G21KT 15SM FEW041 SCT180 BKN250 26/16 A2984 RMK CF2AC1CI2 CC ASOCT SLP103=
CYUL;2005-08-13 19:00;METAR CYUL 131900Z 28012G18KT 15SM FEW046 FEW100 SCT200 BKN250 27/16 A2983 RMK CF1AC1CI2CC2 SLP101=
CYUL;2005-08-13 22:00;METAR CYUL 132200Z 26012KT 20SM FEW058 FEW160 BKN200 BKN250 27/15 A2984 RMK CF1AC1CI3CC2 SLP104=
CYUL;2005-08-13 23:00;METAR CYUL 132300Z 27010G15KT 20SM FEW052 FEW140 FEW200 SCT250 26/14 A2984 RMK CU1AC1CI1CC1 SLP104=
CYUL;2005-08-14 00:00;METAR CYUL 140000Z 27005KT 20SM FEW018 BKN095 BKN250 25/14 A2985 RMK SC1AC5CC1 SLP107=
CYUL;2005-08-14 01:00;METAR CYUL 140100Z 28002KT 15SM BKN100 BKN250 24/13 A2987 RMK AC5CI2 SLP113=
CYUL;2005-08-14 03:00;METAR CYUL 140300Z 33003KT 15SM FEW120 BKN240 23/14 A2988 RMK AC2CI5 SLP119=
CYUL;2005-08-14 04:00;METAR CYUL 140400Z 27002KT 15SM FEW060 SCT120 BKN240 23/14 A2989 RMK SC2AC2CI2 SLP121=
CYUL;2005-08-14 05:00;METAR CYUL 140500Z 00000KT 15SM FEW060 SCT150 BKN240 23/14 A2988 RMK SC2AC2CI2 SLP118=
CYUL;2005-08-14 06:00;METAR CYUL 140600Z 00000KT 15SM FEW060 SCT120 BKN240 21/15 A2988 RMK SC2AC2CI2 SLP120=
CYUL;2005-08-14 07:00;METAR CYUL 140700Z 00000KT 15SM SCT060 BKN120 BKN240 21/16 A2988 RMK SC4AC2CI1 SLP120=
CYUL;2005-08-14 08:00;METAR CYUL 140800Z 00000KT 15SM FEW070 BKN150 21/17 A2989 RMK AC2AC5 SLP123=
CYUL;2005-08-14 09:00;METAR CYUL 140900Z 34003KT 15SM FEW080 BKN240 21/17 A2990 RMK AC2CI5 SLP126=
CYUL;2005-08-14 10:00;METAR CYUL 141000Z 36002KT 15SM FEW070 OVC120 21/15 A2991 RMK AC1AS7 SLP130=
CYUL;2005-08-14 10:30;SPECI CYUL 141030Z 34003KT 15SM -RA FEW070 OVC120 RMK AC2AS6=
CYUL;2005-08-14 11:00;METAR CYUL 141100Z 00000KT 15SM -RA FEW070 OVC120 20/16 A2992 RMK AC2AC6 SLP134=
CYUL;2005-08-14 12:00;METAR CYUL 141200Z 01002KT 12SM -RA FEW070 OVC120 20/17 A2995 RMK AC2AC6 SLP143=
CYUL;2005-08-14 13:00;METAR CYUL 141300Z 02004KT 12SM -RA FEW040 OVC080 21/17 A2995 RMK SC2AC6 SLP143=
CYUL;2005-08-14 14:00;METAR CYUL 141400Z 04003KT 10SM -RA FEW040 BKN080 OVC150 21/17 A2996 RMK SC2AC4AC2 SLP146=
CYUL;2005-08-14 14:25;SPECI CYUL 141425Z 07003KT 12SM FEW040 BKN080 OVC150 22/ RMK SC2AC4AC2=
CYUL;2005-08-14 14:33;SPECI CYUL 141433Z 09002KT 12SM -RA FEW040 BKN080 OVC150 22/ RMK SC2AC4AC2 -RA INTMT=
CYUL;2005-08-14 15:00;METAR CYUL 141500Z 00000KT 12SM -RA FEW040 BKN080 OVC150 22/17 A2997 RMK SC1AC5AC2 -RA INTMT SLP150=
CYUL;2005-08-14 16:00;METAR CYUL 141600Z 04002KT 12SM -RA SCT015 BKN040 OVC080 22/17 A2997 RMK SF3SC3AC2 SLP149=
CYUL;2005-08-14 17:00;METAR CYUL 141700Z 01002KT 12SM -RA SCT014 BKN040 OVC080 23/17 A2996 RMK SF3SC3AC2 SLP147=
CYUL;2005-08-14 18:00;METAR CYUL 141800Z 02003KT 12SM FEW014 BKN030 OVC080 23/18 A2996 RMK SF2SC4AC2 SLP147=
CYUL;2005-08-14 19:23;SPECI CYUL 141923Z 36003KT 12SM FEW015 OVC070 23/ RMK SC2AC6=
CYUL;2005-08-14 20:00;METAR CYUL 142000Z 33004KT 15SM SCT015 OVC080 23/16 A2996 RMK SC3AC5 SLP147=
CYUL;2005-08-14 21:00;METAR CYUL 142100Z 00000KT 15SM FEW025 OVC090 23/16 A2996 RMK SC2AC6 SLP147=
CYUL;2005-08-14 22:00;METAR CYUL 142200Z 00000KT 15SM FEW030 BKN100 OVC150 23/17 A2997 RMK SC2AC5AC2 SLP148=
CYUL;2005-08-14 23:00;METAR CYUL 142300Z 21006KT 15SM FEW030 BKN080 OVC150 22/17 A2999 RMK SC2AC4AC2 SLP157=
CYUL;2005-08-15 00:00;METAR CYUL 150000Z 08007KT 15SM FEW030 OVC080 21/17 A3001 RMK SC2AC6 SLP162=
CYUL;2005-08-15 01:00;METAR CYUL 150100Z 18004KT 15SM FEW030 BKN100 20/18 A3002 RMK SC2AC5 SLP165=
CYUL;2005-08-15 03:00;METAR CYUL 150300Z 00000KT 12SM SCT080 OVC240 20/19 A3003 RMK AC3CI4 SLP168=
CYUL;2005-08-15 04:00;METAR CYUL 150400Z 26003KT 12SM FEW120 BKN240 19/18 A3003 RMK AC2CI4 SLP169=
CYUL;2005-08-15 05:00;METAR CYUL 150500Z 27002KT 8SM FEW120 BKN240 18/18 A3003 RMK AC2CI3 SLP170=
CYUL;2005-08-15 06:00;METAR CYUL 150600Z 00000KT 8SM OVC240 18/18 A3004 RMK CI6 SLP173=
CYUL;2005-08-15 07:00;METAR CYUL 150700Z 32002KT 8SM OVC240 18/17 A3004 RMK CI6 SLP174=
CYUL;2005-08-15 08:00;METAR CYUL 150800Z 34002KT 7SM BKN240 17/17 A3005 RMK CI6 SLP175=
CYUL;2005-08-15 09:00;METAR CYUL 150900Z 00000KT 7SM FEW120 BKN240 17/16 A3007 RMK AC2CI2 SLP182=
CYUL;2005-08-15 10:00;METAR CYUL 151000Z 34003KT 5SM BR FEW120 FEW240 16/15 A3009 RMK AC1CI1 SLP189=
CYUL;2005-08-15 12:00;METAR CYUL 151200Z 36003KT 8SM FEW020 FEW240 19/17 A3011 RMK CF1CI1 SLP196=
CYUL;2005-08-15 13:00;METAR CYUL 151300Z 01004KT 10SM FEW015 21/18 A3012 RMK CF1 SLP199=
CYUL;2005-08-15 14:00;METAR CYUL 151400Z 04004KT 10SM BKN025 BKN240 22/18 A3013 RMK CU6CI0 SLP202=
CYUL;2005-08-15 15:00;METAR CYUL 151500Z 18003KT 10SM BKN030 BKN240 24/18 A3012 RMK CU6CI0 TCU ASOCT SLP201=
CYUL;2005-08-15 16:00;METAR CYUL 151600Z 14006KT 10SM BKN030 BKN240 24/18 A3012 RMK CU6CI0 TCU ASOCT SLP200=
CYUL;2005-08-15 17:00;METAR CYUL 151700Z 16005KT 10SM BKN030 BKN240 25/17 A3011 RMK CU5CI0 TCU ASOCT SLP196=
CYUL;2005-08-15 18:00;METAR CYUL 151800Z 17007KT 12SM SCT040 BKN240 26/17 A3010 RMK CU3CI0 TCU ASOCT SLP193=
CYUL;2005-08-15 20:00;METAR CYUL 152000Z 15004KT 15SM FEW040 SCT240 26/17 A3008 RMK CU2CI0 SLP186=
CYUL;2005-08-15 23:00;METAR CYUL 152300Z 23004KT 15SM FEW040 FEW120 BKN240 26/15 A3008 RMK CU1AC2CI0 SLP186=
CYUL;2005-08-16 00:00;METAR CYUL 160000Z 26002KT 15SM FEW120 SCT240 25/14 A3008 RMK AC2CI0 SLP185=
CYUL;2005-08-16 03:00;METAR CYUL 160300Z 15004KT 15SM SKC 21/15 A3009 RMK SLP189=
CYUL;2005-08-16 04:00;METAR CYUL 160400Z 16005KT 15SM FEW120 21/15 A3008 RMK AC2 SLP188=
CYUL;2005-08-16 05:00;METAR CYUL 160500Z 18002KT 15SM FEW120 21/14 A3008 RMK AC1 VIA YQB SLP186=
CYUL;2005-08-16 06:00;METAR CYUL 160600Z 00000KT 15SM FEW120 FEW240 20/16 A3007 RMK AC1CI1 SLP183=
CYUL;2005-08-16 07:00;METAR CYUL 160700Z 21004KT 15SM BKN100 21/16 A3006 RMK AC6 SLP181=
CYUL;2005-08-16 08:00;METAR CYUL 160800Z 27006KT 15SM BKN100 20/17 A3007 RMK AC7 VIA YQB SLP182=
CYUL;2005-08-16 10:00;METAR CYUL 161000Z 20004KT 12SM FEW110 FEW240 19/17 A3006 RMK AC1CI1 SLP181=
CYUL;2005-08-16 11:00;METAR CYUL 161100Z 26002KT 15SM FEW110 FEW240 19/17 A3006 RMK AC1CI1 VIA YQB FIC SLP180=
CYUL;2005-08-16 12:00;METAR CYUL 161200Z 22003KT 15SM BKN240 21/17 A3006 RMK CI2 VIA YQB FIC SLP181=
CYUL;2005-08-16 13:00;METAR CYUL 161300Z 20006KT 15SM FEW030 BKN240 22/17 A3006 RMK CU1CI2 VIA=
CYUL;2005-08-16 14:00;METAR CYUL 161400Z 21007KT 15SM FEW030 BKN240 23/16 A3004 RMK CU1CI3 SLP173=
CYUL;2005-08-16 15:00;METAR CYUL 161500Z 21009KT 15SM FEW040 BKN240 24/17 A3003 RMK CU1CI2 SLP171=
CYUL;2005-08-16 16:00;METAR CYUL 161600Z 19009KT 15SM FEW040 BKN240 25/18 A3001 RMK CU1CI1 SLP163=
CYUL;2005-08-16 18:00;METAR CYUL 161800Z 21013KT 15SM BKN040 27/18 A2996 RMK CU5 TCU ASOCT SLP147=
CYUL;2005-08-16 18:22;SPECI CYUL 161822Z 22007KT 15SM -SHRA BKN040 26/ RMK CU6 TCU ASOCT=
CYUL;2005-08-16 18:44;SPECI CYUL 161844Z 25015KT 15SM BKN050 26/ RMK CU5 TCU ASOCT=
CYUL;2005-08-16 19:00;METAR CYUL 161900Z 25013G18KT 15SM SCT050 26/14 A2994 RMK CU4 SLP140=
CYUL;2005-08-16 20:00;METAR CYUL 162000Z 25016G21KT 15SM SCT060 28/13 A2993 RMK CU3 SLP135=
CYUL;2005-08-16 21:00;METAR CYUL 162100Z 27015G22KT 30SM SCT060 BKN240 27/12 A2992 RMK CU3CI0 SLP132=
CYUL;2005-08-16 22:00;METAR CYUL 162200Z 26016KT 30SM FEW060 SCT240 27/11 A2991 RMK CU2CI0 SLP128=
CYUL;2005-08-16 23:00;METAR CYUL 162300Z 25009KT 30SM FEW060 FEW240 26/11 A2990 RMK CU1CI0 SLP126=
CYUL;2005-08-17 00:00;METAR CYUL 170000Z 24007KT 30SM FEW060 FEW240 25/11 A2990 RMK CU1CI0 SLP126=
CYUL;2005-08-17 01:00;METAR CYUL 170100Z 24007KT 15SM FEW120 FEW240 24/13 A2990 RMK AC1CI0 SLP127=
CYUL;2005-08-17 02:00;METAR CYUL 170200Z 22006KT 15SM SKC 24/15 A2990 RMK SLP125=
CYUL;2005-08-17 03:00;METAR CYUL 170300Z 24006KT 15SM FEW240 22/15 A2990 RMK CI1 SLP124=
CYUL;2005-08-17 04:00;METAR CYUL 170400Z 27012KT 15SM FEW075 SCT120 22/14 A2991 RMK AC2AC2 SLP128=
CYUL;2005-08-17 05:00;METAR CYUL 170500Z 31005KT 15SM OVC070 21/14 A2990 RMK AC8 SLP127=
CYUL;2005-08-17 06:00;METAR CYUL 170600Z 25004KT 15SM BKN075 21/14 A2990 RMK AC7 SLP126=
CYUL;2005-08-17 07:00;METAR CYUL 170700Z 27005KT 15SM BKN060 20/16 A2992 RMK SC7 SLP131=
CYUL;2005-08-17 08:00;METAR CYUL 170800Z 31004KT 15SM BKN070 19/15 A2992 RMK AC7 SLP134=
CYUL;2005-08-17 09:00;METAR CYUL 170900Z 34002KT 15SM BKN080 18/15 A2993 RMK AC6 SLP136=
CYUL;2005-08-17 10:00;METAR CYUL 171000Z 33003KT 15SM BKN075 BKN090 17/15 A2994 RMK AC6AC1 SLP140=
CYUL;2005-08-17 11:00;METAR CYUL 171100Z 01008KT 15SM BKN100 18/14 A2996 RMK AC6 ACC ASOCT SLP145=
CYUL;2005-08-17 12:00;METAR CYUL 171200Z 36009KT 15SM FEW020 BKN100 19/13 A2997 RMK CU1AC6 SLP149=
CYUL;2005-08-17 13:00;METAR CYUL 171300Z 35007KT 15SM FEW025 FEW120 20/12 A2998 RMK CU1AC2 SLP151=
CYUL;2005-08-17 14:00;METAR CYUL 171400Z 34005KT 15SM FEW032 FEW120 SCT250 21/13 A2998 RMK CF2AC1CI1 TCU ASOCT SLP152=
CYUL;2005-08-17 15:00;METAR CYUL 171500Z 32010KT 30SM FEW034 FEW085 SCT120 BKN250 22/12 A2997 RMK CU2AC1AC1CI0 SLP150=
CYUL;2005-08-17 16:00;METAR CYUL 171600Z 33011KT 30SM FEW051 FEW095 22/09 A2997 RMK CF2AC1 SLP150=
CYUL;2005-08-17 17:00;METAR CYUL 171700Z 33013KT 30SM FEW054 23/09 A2998 RMK CU2 CF ASOCT SLP152=
CYUL;2005-08-17 18:00;METAR CYUL 171800Z 30012G17KT 30SM BKN062 23/08 A2998 RMK CU5 CF ASOCT SLP152=
CYUL;2005-08-17 19:00;METAR CYUL 171900Z 31010G21KT 30SM BKN065 23/09 A2997 RMK CU6 SLP150=
CYUL;2005-08-17 20:00;METAR CYUL 172000Z 34011G16KT 30SM BKN068 BKN250 23/08 A2998 RMK AC5CI1 SLP154=
CYUL;2005-08-17 21:00;METAR CYUL 172100Z 33012G17KT 30SM FEW066 SCT250 22/07 A2998 RMK CU2CI0 CF ASOCT SLP154=
CYUL;2005-08-17 22:00;METAR CYUL 172200Z 34011G16KT 30SM FEW065 FEW250 21/08 A3000 RMK CF2CI1 SLP158=
CYUL;2005-08-17 23:00;METAR CYUL 172300Z 33015KT 30SM FEW054 FEW210 20/08 A3001 RMK SC1CI1 SLP164=
CYUL;2005-08-18 00:00;METAR CYUL 180000Z 34008KT 30SM FEW050 FEW200 FEW250 18/07 A3004 RMK SC1CI1CI0 SLP174=
CYUL;2005-08-18 04:00;METAR CYUL 180400Z 31005KT 15SM FEW240 11/07 A3008 RMK CI1 SLP186=
CYUL;2005-08-18 05:00;METAR CYUL 180500Z 30005KT 15SM FEW120 FEW240 11/07 A3010 RMK AC1CI1 SLP192=
CYUL;2005-08-18 06:00;METAR CYUL 180600Z 33002KT 15SM FEW240 12/08 A3009 RMK CI1 SLP191=
CYUL;2005-08-18 07:00;METAR CYUL 180700Z 35005KT 15SM FEW240 11/07 A3010 RMK CI0 SLP194=
CYUL;2005-08-18 08:00;METAR CYUL 180800Z 34003KT 15SM SCT240 10/07 A3011 RMK CI2 SLP196=
CYUL;2005-08-18 09:00;METAR CYUL 180900Z 33005KT 15SM BKN240 09/07 A3013 RMK CI2 SLP204=
CYUL;2005-08-18 10:00;METAR CYUL 181000Z 34002KT 30SM BKN230 10/07 A3014 RMK CI2 SLP206=
CYUL;2005-08-18 11:00;METAR CYUL 181100Z 01002KT 30SM FEW180 OVC230 11/08 A3016 RMK AC1CI6 SLP212=
CYUL;2005-08-18 12:00;METAR CYUL 181200Z 02008KT 30SM FEW180 BKN240 13/07 A3016 RMK AC1CI2 SLP214=
CYUL;2005-08-18 13:00;METAR CYUL 181300Z 05005KT 30SM FEW180 BKN240 15/07 A3016 RMK AC1CI3 CC ASOCT SLP214=
CYUL;2005-08-18 14:00;METAR CYUL 181400Z 00000KT 30SM FEW180 BKN200 OVC250 16/07 A3016 RMK AC1CS1CI5 SLP214=
CYUL;2005-08-18 15:00;METAR CYUL 181500Z 00000KT 30SM FEW012 FEW032 FEW095 OVC210 17/08 A3016 RMK SF1CF1AC1CI5 SLP215=
CYUL;2005-08-18 16:00;METAR CYUL 181600Z 24008KT 30SM FEW012 FEW036 FEW140 OVC210 18/07 A3016 RMK SF1CF1AC1CI5 SLP213=
CYUL;2005-08-18 17:00;METAR CYUL 181700Z 29007KT 30SM FEW018 FEW036 FEW095 BKN150 OVC210 18/08 A3014 RMK CF1CF1AC1AC6CI2 SLP207=
CYUL;2005-08-18 18:00;METAR CYUL 181800Z 26009KT 30SM FEW036 FEW085 BKN120 OVC250 19/07 A3014 RMK CU1AC2AS5CI1 SLP207=
CYUL;2005-08-18 19:00;METAR CYUL 181900Z 27007KT 30SM FEW040 FEW085 OVC110 19/08 A3013 RMK CU1AC2AS6 SLP205=
CYUL;2005-08-18 20:00;METAR CYUL 182000Z 25006KT 30SM FEW045 FEW090 SCT120 BKN230 19/08 A3012 RMK CU1AC1AS2CC2 SLP202=
CYUL;2005-08-18 21:00;METAR CYUL 182100Z 26005KT 30SM FEW090 FEW120 BKN150 BKN230 20/06 A3012 RMK AC1AS1AC4CI1 CC ASOCT SLP201=
CYUL;2005-08-18 22:00;METAR CYUL 182200Z 26006KT 30SM SCT150 SCT180 BKN240 19/07 A3012 RMK AC3AC1CI1 SLP201=
CYUL;2005-08-18 23:00;METAR CYUL 182300Z 26004KT 30SM FEW088 FEW150 SCT180 BKN240 19/07 A3011 RMK AC2AC1AC1CC1 SLP198=
CYUL;2005-08-19 00:00;METAR CYUL 190000Z 31002KT 30SM BKN170 BKN240 17/08 A3010 RMK AC6CI1 VIRGA SLP194=
CYUL;2005-08-19 01:00;METAR CYUL 190100Z 26004KT 15SM FEW140 FEW180 17/07 A3011 RMK AC1AC2 SLP198=
CYUL;2005-08-19 02:00;METAR CYUL 190200Z 32002KT 15SM FEW090 BKN150 15/08 A3012 RMK AC2AC4 SLP200=
CYUL;2005-08-19 03:00;METAR CYUL 190300Z 28003KT 15SM FEW090 BKN150 15/09 A3012 RMK AC2AC6 SLP200=
CYUL;2005-08-19 04:00;METAR CYUL 190400Z 00000KT 15SM SCT090 OVC160 17/09 A3013 RMK AC4AC4 SLP202=
CYUL;2005-08-19 05:00;METAR CYUL 190500Z 14003KT 15SM BKN100 OVC160 16/10 A3014 RMK AC6AC2 SLP205=
CYUL;2005-08-19 06:00;METAR CYUL 190600Z 10004KT 15SM OVC110 17/10 A3013 RMK AC8 SLP204=
CYUL;2005-08-19 08:00;METAR CYUL 190800Z 10004KT 15SM BKN110 17/10 A3013 RMK AC6 SLP202=
CYUL;2005-08-19 10:00;METAR CYUL 191000Z 07006KT 30SM SCT110 BKN240 15/11 A3012 RMK AC2CI0 SLP201=
CYUL;2005-08-19 11:00;METAR CYUL 191100Z 07005KT 30SM FEW110 SCT240 16/09 A3013 RMK AC1CI0 SLP202=
CYUL;2005-08-19 12:00;METAR CYUL 191200Z 07006KT 30SM FEW150 BKN210 18/09 A3013 RMK AC1CI1 SLP204=
CYUL;2005-08-19 13:00;METAR CYUL 191300Z 08009KT 30SM FEW150 BKN210 19/09 A3012 RMK AC1CI2 CS ASOCT SLP201=
CYUL;2005-08-19 14:00;METAR CYUL 191400Z 08010KT 15SM FEW150 OVC240 20/09 A3012 RMK AC1CI2 SLP199=
CYUL;2005-08-19 15:00;METAR CYUL 191500Z 08009KT 15SM FEW160 SCT200 OVC250 22/10 A3011 RMK AC1CI0CI2 SLP195=
CYUL;2005-08-19 16:00;METAR CYUL 191600Z 09010KT 15SM FEW050 SCT090 BKN140 OVC250 22/12 A3009 RMK SC1AC2AC2CI1 SLP189=
CYUL;2005-08-19 17:00;METAR CYUL 191700Z 09011KT 15SM FEW044 FEW085 OVC120 22/13 A3006 RMK SC1AC2AC6 TCU ASOCT S QUAD SLP181=
CYUL;2005-08-19 18:00;METAR CYUL 191800Z 14009KT 100V170 15SM FEW040 OVC120 22/14 A3006 RMK SC1AC7 SLP178=
CYUL;2005-08-19 19:00;METAR CYUL 191900Z 11007KT 12SM SCT048 BKN095 OVC120 22/15 A3004 RMK SC3AC2AC2 SLP172=
CYUL;2005-08-19 19:15;SPECI CYUL 191915Z 09005KT 050V130 12SM -SHRA BKN046 BKN095 OVC120 23/ RMK SC5AC2AC2=
CYUL;2005-08-19 20:00;METAR CYUL 192000Z 14005KT 100V170 10SM -SHRA VCFG BKN041 OVC110 21/17 A3003 RMK SC6AC2 SLP170=
CYUL;2005-08-19 21:00;METAR CYUL 192100Z 11005KT 6SM -RA BR BKN042 BKN060 OVC095 20/18 A3002 RMK SC5SC2AC1 SLP166=
CYUL;2005-08-19 22:00;METAR CYUL 192200Z 07004KT 5SM -RA BR FEW018 BKN033 OVC060 20/18 A3001 RMK SC2SC6SC1 SLP164=
CYUL;2005-08-19 23:00;METAR CYUL 192300Z 06006KT 030V090 6SM -RA BR FEW024 BKN046 OVC095 20/18 A2999 RMK SC2SC4AC2 -RA INTMT SLP157=
CYUL;2005-08-19 23:39;SPECI CYUL 192339Z 10007KT 8SM VCFG FEW048 BKN062 BKN100 OVC180 21/ RMK SC2SC3AC2AC1=
CYUL;2005-08-20 00:00;METAR CYUL 200000Z 09007KT 8SM FEW045 BKN062 OVC100 21/17 A2999 RMK SC1SC5AC2 SLP155=
CYUL;2005-08-20 01:00;METAR CYUL 200100Z 09009KT 7SM VCFG FEW040 BKN061 OVC084 21/18 A2999 RMK SC1SC6AC2 SLP155=
CYUL;2005-08-20 02:00;METAR CYUL 200200Z 11007KT 10SM OVC050 21/18 A2998 RMK SC8 SLP153=
CYUL;2005-08-20 03:00;METAR CYUL 200300Z 12009KT 12SM OVC047 21/17 A2997 RMK SC8 SLP149=
CYUL;2005-08-20 03:44;SPECI CYUL 200344Z 12005KT 10SM -RA OVC045 21/ RMK SC8=
CYUL;2005-08-20 04:00;METAR CYUL 200400Z 14008KT 4SM -SHRA OVC045 20/17 A2998 RMK SC8 SLP152=
CYUL;2005-08-20 05:00;METAR CYUL 200500Z 11009KT 10SM OVC040 19/17 A2995 RMK SC8 SLP144=
CYUL;2005-08-20 05:46;SPECI CYUL 200546Z 13009KT 8SM -RA OVC040 19/ RMK SC8=
CYUL;2005-08-20 06:00;METAR CYUL 200600Z 13009KT 8SM -RA OVC035 20/17 A2994 RMK SC8 SLP140=
CYUL;2005-08-20 07:00;METAR CYUL 200700Z 14011KT 10SM OVC045 19/17 A2993 RMK SC8 SLP136=
CYUL;2005-08-20 08:00;METAR CYUL 200800Z 13011KT 10SM BKN050 OVC150 19/17 A2992 RMK SC6AC2 SLP131=
CYUL;2005-08-20 10:00;METAR CYUL 201000Z 16013G19KT 3SM -SHRA OVC030 19/17 A2991 RMK SC8 SLP128=
CYUL;2005-08-20 10:41;SPECI CYUL 201041Z 14013KT 3SM -SHRA SCT009 OVC028 18/ RMK SF3SC5=
CYUL;2005-08-20 10:46;SPECI CYUL 201046Z 16016KT 3SM -SHRA BKN009 OVC028 18/ RMK SF5SC3=
CYUL;2005-08-20 11:00;METAR CYUL 201100Z 14014KT 3SM -RA SCT010 OVC027 18/17 A2990 RMK SF4SC4 SLP126=
CYUL;2005-08-20 12:00;METAR CYUL 201200Z 14013KT 4SM BR SCT009 OVC035 18/17 A2990 RMK SF3SC5 SLP125=
CYUL;2005-08-20 13:00;METAR CYUL 201300Z 15012KT 6SM BR SCT010 OVC030 19/18 A2989 RMK SF3SC5 SLP123=
CYUL;2005-08-20 13:53;SPECI CYUL 201353Z 14010KT 6SM -RA BR FEW005 OVC030 19/ RMK SF2SC6=
CYUL;2005-08-20 14:00;METAR CYUL 201400Z 15010KT 6SM BR FEW005 OVC030 19/18 A2989 RMK SF2SC6 INTMT -RA SLP122=
CYUL;2005-08-20 14:17;SPECI CYUL 201417Z 18008KT 8SM VCFG FEW005 OVC029 19/ RMK SF1SC7=
CYUL;2005-08-20 15:00;METAR CYUL 201500Z 15009KT 8SM -SHRA VCFG FEW005 FEW018 OVC030 20/18 A2989 RMK SF1SC2SC6 SLP121=
CYUL;2005-08-20 15:50;SPECI CYUL 201550Z 16012KT 10SM VCSH FEW007 FEW014 OVC030 21/ RMK SF1SF2SC6=
CYUL;2005-08-20 16:00;METAR CYUL 201600Z 15012KT 10SM VCSH FEW007 FEW015 BKN032 OVC048 21/19 A2987 RMK SF1SF2SC5SC1 CIG RAG SLP114=
CYUL;2005-08-20 16:15;SPECI CYUL 201615Z 17013G20KT 4SM -SHRA BR FEW007 FEW015 BKN026 OVC048 20/ RMK SF1SF2SC5SC1 CIG RAG=
CYUL;2005-08-20 16:39;SPECI CYUL 201639Z 17013KT 6SM BR VCSH FEW005 BKN014 BKN025 OVC046 21/ RMK SF1SF5SC2SC1 CIG RAG=
CYUL;2005-08-20 16:47;SPECI CYUL 201647Z 16011G17KT 6SM -SHRA BR FEW005 SCT015 BKN025 OVC046 22/ RMK SF1SF3SC4SC1 CIG RAG=
CYUL;2005-08-20 17:00;METAR CYUL 201700Z 17014KT 4SM -SHRA BR FEW006 FEW013 BKN028 OVC042 21/20 A2987 RMK SF1SF2SC5SC1 SLP115=
CYUL;2005-08-20 17:41;SPECI CYUL 201741Z 17009KT 2 1/2SM -SHRA BR FEW006 SCT013 BKN024 OVC032 21/ RMK SF2SF2SC3SC1 CIG RAG=
CYUL;2005-08-20 17:51;SPECI CYUL 201751Z 17010KT 2SM -SHRA BR FEW006 BKN013 BKN024 OVC032 21/ RMK SF2SF4SC2SC1 CIG RAG=
CYUL;2005-08-20 18:00;METAR CYUL 201800Z 17008KT 3SM -SHRA BR FEW004 BKN013 BKN024 OVC030 22/21 A2986 RMK SF1SF5SC2SC1 CIG RAG SLP113=
CYUL;2005-08-20 18:24;SPECI CYUL 201824Z 18011KT 6SM BR FEW004 SCT014 BKN021 OVC032 22/ RMK SF1SF3SC4SC1 CIG RAG=
CYUL;2005-08-20 18:26;SPECI CYUL 201826Z 18010KT 3SM -SHRA BR FEW004 SCT014 BKN021 OVC032 22/ RMK SF1SF3SC4SC1 CIG RAG=
CYUL;2005-08-20 19:46;SPECI CYUL 201946Z 22008KT 10SM VCFG FEW009 BKN021 OVC036 22/ RMK SF1SC6SC1=
CYUL;2005-08-20 20:00;METAR CYUL 202000Z 22009KT 10SM -RA FEW009 BKN021 OVC036 22/20 A2984 RMK SF1SC6SC1 -RA INTMT SLP106=
CYUL;2005-08-20 21:00;METAR CYUL 202100Z 22009G17KT 180V250 15SM FEW012 FEW024 BKN034 OVC048 22/19 A2982 RMK SF1SC2SC5SC1 INTMT -RA SLP100=
CYUL;2005-08-20 22:00;METAR CYUL 202200Z 23009KT 200V260 15SM FEW015 BKN023 OVC032 22/19 A2983 RMK SF1SC7SC1 SLP103=
CYUL;2005-08-20 23:00;METAR CYUL 202300Z 23011G18KT 180V260 12SM BKN021 OVC032 22/19 A2983 RMK SC6SC2 SLP103=
CYUL;2005-08-21 00:00;METAR CYUL 210000Z 22011G16KT 190V250 10SM FEW012 BKN018 OVC030 22/19 A2983 RMK SF1SC7SC1 SLP103=
CYUL;2005-08-21 01:00;METAR CYUL 210100Z 22010KT 12SM BKN028 OVC150 21/19 A2984 RMK SC7AC1 SLP105=
CYUL;2005-08-21 02:00;METAR CYUL 210200Z 22009KT 15SM BKN035 OVC150 22/18 A2983 RMK SC7AC1 SLP102=
CYUL;2005-08-21 03:00;METAR CYUL 210300Z 22010KT 15SM BKN038 OVC100 22/18 A2983 RMK SC6AC2 SLP101=
CYUL;2005-08-21 04:00;METAR CYUL 210400Z 22009G15KT 15SM SCT040 OVC090 22/18 A2982 RMK SC4AC4 SLP097=
CYUL;2005-08-21 05:00;METAR CYUL 210500Z 23006KT 15SM FEW040 OVC070 22/19 A2980 RMK SC2AC6 SLP093=
CYUL;2005-08-21 06:00;METAR CYUL 210600Z 20006KT 15SM OVC068 21/19 A2979 RMK AC8 SLP089=
CYUL;2005-08-21 08:00;METAR CYUL 210800Z 22004KT 10SM OVC060 21/19 A2977 RMK SC8 SLP083=
CYUL;2005-08-21 09:00;METAR CYUL 210900Z 24006KT 10SM OVC038 21/18 A2976 RMK SC8 SLP078=
CYUL;2005-08-21 10:00;METAR CYUL 211000Z 25005KT 8SM OVC040 21/18 A2975 RMK SC8 SLP075=
CYUL;2005-08-21 11:00;METAR CYUL 211100Z 22004KT 10SM FEW040 BKN090 BKN240 21/18 A2975 RMK SC2AC5CI0 SLP076=
CYUL;2005-08-21 12:00;METAR CYUL 211200Z 26005KT 12SM SCT060 BKN090 BKN240 22/19 A2974 RMK SC3AC2CI0 SLP072=
CYUL;2005-08-21 12:53;SPECI CYUL 211253Z 23008KT 12SM BKN014 BKN040 OVC100 22/ RMK SF5SC2AC2=
CYUL;2005-08-21 13:00;METAR CYUL 211300Z 22009KT 12SM BKN013 OVC040 22/20 A2974 RMK SF6SC2 SLP072=
CYUL;2005-08-21 13:43;SPECI CYUL 211343Z 22011KT 12SM SCT013 BKN040 BKN240 23/ RMK SF3SC3CI0=
CYUL;2005-08-21 14:00;METAR CYUL 211400Z 22013KT 12SM FEW016 BKN050 BKN120 23/20 A2974 RMK SF2SC6AC1 SLP071=
CYUL;2005-08-21 14:48;SPECI CYUL 211448Z 26014G20KT 10SM -SHRA BKN015 BKN060 23/ RMK CU6SC2=
CYUL;2005-08-21 15:00;METAR CYUL 211500Z 26013KT 10SM -SHRA BKN016 BKN085 24/20 A2974 RMK CU5AC2 TCU ASOCT SLP072=
CYUL;2005-08-21 15:29;SPECI CYUL 211529Z 26014G20KT 15SM SCT015TCU SCT110 22/ RMK TCU3AC1=
CYUL;2005-08-21 16:00;METAR CYUL 211600Z 27013G19KT 15SM FEW015 FEW120 24/20 A2974 RMK CU2AC1 TCU ASOCT SLP072=
CYUL;2005-08-21 17:00;METAR CYUL 211700Z 26013KT 15SM FEW025 26/18 A2974 RMK CU1 TCU ASOCT SLP071=
CYUL;2005-08-21 18:00;METAR CYUL 211800Z 26016G21KT 15SM FEW035 26/15 A2974 RMK CU2 TCU ASOCT SLP070=
CYUL;2005-08-21 19:00;METAR CYUL 211900Z 27012G21KT 30SM FEW045 27/15 A2974 RMK CU2 SLP069=
CYUL;2005-08-21 20:00;METAR CYUL 212000Z 27015KT 30SM FEW050 FEW090 27/14 A2973 RMK CU1AC1 SLP067=
CYUL;2005-08-21 21:00;METAR CYUL 212100Z 26014KT 30SM FEW055 FEW100 27/13 A2972 RMK CU1AC1 SLP063=
CYUL;2005-08-21 22:00;METAR CYUL 212200Z 28010KT 30SM FEW060 FEW150 FEW240 26/14 A2972 RMK SC1AC1CI1 CU EMBD SLP063=
CYUL;2005-08-21 23:00;METAR CYUL 212300Z 29007KT 15SM FEW045TCU FEW150 FEW240 25/13 A2971 RMK TCU1AC1CI1 SLP061=
CYUL;2005-08-22 00:00;METAR CYUL 220000Z 24004KT 15SM VCSH BKN070 BKN200 25/13 A2972 RMK AC6CC1 CB EMBD SLP065=
CYUL;2005-08-22 00:33;SPECI CYUL 220033Z 22009KT 8SM -SHRA BKN065 24/ RMK SC7 CB EMBD=
CYUL;2005-08-22 01:34;SPECI CYUL 220134Z 25002KT 8SM -SHRA BKN050 OVC070 20/ RMK SC6AC2 VIS SW-NW 3=
CYUL;2005-08-22 02:00;METAR CYUL 220200Z 00000KT 8SM SCT060 BKN110 19/17 A2974 RMK SC4AC2 RERA SLP069=
CYUL;2005-08-22 03:00;METAR CYUL 220300Z 20004KT 12SM FEW065 SCT120 19/18 A2973 RMK SC2AC2 SLP067=
CYUL;2005-08-22 04:00;METAR CYUL 220400Z 23004KT 12SM FEW080 20/18 A2973 RMK AC2 SLP066=
CYUL;2005-08-22 05:00;METAR CYUL 220500Z 25005KT 15SM FEW080 20/17 A2973 RMK AC2 SLP066=
CYUL;2005-08-22 06:00;METAR CYUL 220600Z 27004KT 15SM BKN065 18/16 A2973 RMK CF6 SLP067=
CYUL;2005-08-22 07:00;METAR CYUL 220700Z 21005KT 15SM FEW065 18/16 A2974 RMK CF2 SLP069=
CYUL;2005-08-22 08:00;METAR CYUL 220800Z 23008KT 15SM BKN065 17/15 A2974 RMK CF6 SLP071=
CYUL;2005-08-22 09:00;METAR CYUL 220900Z 24008KT 15SM SCT065 BKN120 17/14 A2974 RMK CF3AC4 SLP072=
CYUL;2005-08-22 10:00;METAR CYUL 221000Z 23007KT 15SM BKN090 BKN120 17/13 A2976 RMK AC5AC2 SLP076=
CYUL;2005-08-22 11:00;METAR CYUL 221100Z 23009KT 30SM SCT080 BKN110 17/12 A2977 RMK AC3AC3 SLP080=
CYUL;2005-08-22 12:00;METAR CYUL 221200Z 26009KT 30SM FEW070 BKN110 17/13 A2977 RMK AC2AC5 SLP081=
CYUL;2005-08-22 13:00;METAR CYUL 221300Z 26012KT 30SM BKN120 18/13 A2976 RMK AC7 SLP078=
CYUL;2005-08-22 14:00;METAR CYUL 221400Z 27011KT 30SM FEW025 BKN110 BKN240 18/14 A2978 RMK CU1AC6CI1 SLP084=
CYUL;2005-08-22 16:00;METAR CYUL 221600Z 27012G18KT 30SM FEW035TCU FEW130 SCT200 21/15 A2979 RMK TCU2AC1CC2 SLP088=
CYUL;2005-08-22 17:00;METAR CYUL 221700Z 26012G18KT 30SM BKN035TCU BKN110 21/13 A2979 RMK TCU6AC1 DIST SHWR S SLP088=
CYUL;2005-08-22 18:00;METAR CYUL 221800Z 27013KT 30SM FEW035TCU BKN100 21/13 A2979 RMK TCU2AC4 SLP088=
CYUL;2005-08-22 19:00;METAR CYUL 221900Z 28013G18KT 30SM SCT040TCU BKN100 BKN240 23/13 A2979 RMK TCU4AC1CI1 SLP089=
CYUL;2005-08-22 20:00;METAR CYUL 222000Z 30010G18KT 30SM FEW045 BKN095 23/13 A2980 RMK CU2AC3 SLP092=
CYUL;2005-08-22 21:00;METAR CYUL 222100Z 27011KT 30SM FEW050 FEW095 SCT240 23/12 A2981 RMK CU2AC1CI1 SLP096=
CYUL;2005-08-22 23:00;METAR CYUL 222300Z 28012KT 30SM FEW040 FEW150 FEW240 21/11 A2983 RMK CU1AC1CI1 CB ASOCT N SLP102=
CYUL;2005-08-23 00:00;METAR CYUL 230000Z 28007KT 30SM FEW035CB FEW100 FEW240 19/11 A2984 RMK CB1AC1CI1 CB NNE SLP105=
CYUL;2005-08-23 02:00;METAR CYUL 230200Z 28004KT 15SM FEW240 16/11 A2986 RMK CI1 SLP111=
CYUL;2005-08-23 03:00;METAR CYUL 230300Z 28005KT 15SM FEW240 16/11 A2986 RMK CI1 SLP113=
CYUL;2005-08-23 04:00;METAR CYUL 230400Z 29006KT 15SM FEW240 15/11 A2987 RMK CI0 SLP116=
CYUL;2005-08-23 05:00;METAR CYUL 230500Z 31007KT 15SM FEW240 16/12 A2988 RMK CI0 SLP120=
CYUL;2005-08-23 06:00;METAR CYUL 230600Z 29005KT 15SM FEW240 14/12 A2989 RMK CI0 SLP121=
CYUL;2005-08-23 07:00;METAR CYUL 230700Z 30007KT 15SM FEW150 FEW240 15/12 A2989 RMK AC1CI1 SLP123=
CYUL;2005-08-23 09:00;METAR CYUL 230900Z 25004KT 15SM FEW020 FEW150 15/13 A2990 RMK CF1AC1 SLP127=
CYUL;2005-08-23 10:00;METAR CYUL 231000Z 23007KT 15SM FEW020 SCT070 BKN240 14/12 A2992 RMK CF1AC3CI1 SLP134=
CYUL;2005-08-23 11:00;METAR CYUL 231100Z 24005KT 15SM FEW020 SCT075 BKN240 14/13 A2994 RMK CF1AC3CI1 SLP139=
CYUL;2005-08-23 12:00;METAR CYUL 231200Z 23005KT 15SM FEW020 BKN070 BKN240 15/13 A2995 RMK SF1AC5CI0 SLP144=
CYUL;2005-08-23 13:00;METAR CYUL 231300Z 26007KT 15SM FEW009 BKN070 16/13 A2995 RMK SF2AC2 SLP144=
CYUL;2005-08-23 14:00;METAR CYUL 231400Z 27011KT 15SM BKN020 BKN100 18/14 A2996 RMK CU5AC1 SLP146=
CYUL;2005-08-23 15:00;METAR CYUL 231500Z 26007KT 15SM BKN028 BKN100 19/13 A2997 RMK CU7AC1 TCU ASOCT SLP148=
CYUL;2005-08-23 16:00;METAR CYUL 231600Z 31010KT 30SM BKN040 BKN050 19/11 A2997 RMK CU6SC1 SLP148=
CYUL;2005-08-23 17:00;METAR CYUL 231700Z 27010KT 15SM FEW030 SCT045 BKN060 20/11 A2997 RMK CF1CU3SC2 SLP149=
CYUL;2005-08-23 18:00;METAR CYUL 231800Z 26011KT 15SM FEW045 BKN060 BKN100 20/11 A2998 RMK CU2SC2AC1 SLP153=
CYUL;2005-08-23 19:00;METAR CYUL 231900Z 30009KT 15SM VCSH FEW045 FEW060 BKN100 20/11 A2998 RMK CU2SC1AC3 SLP154=
CYUL;2005-08-23 21:00;METAR CYUL 232100Z 34013KT 30SM VCSH FEW045 BKN060 BKN150 18/13 A3001 RMK CU2SC5AC1 SLP164=
CYUL;2005-08-23 23:00;METAR CYUL 232300Z 33010KT 30SM -SHRA FEW022 SCT050 OVC075 17/14 A3003 RMK CU2SC2AC3 SLP171=
CYUL;2005-08-24 00:00;METAR CYUL 240000Z 36006KT 15SM -SHRA FEW015 BKN055 16/14 A3005 RMK CU1SC7 SLP177=
CYUL;2005-08-24 00:38;SPECI CYUL 240038Z 33003KT 15SM FEW015 BKN060 BKN095 15/ RMK CF1SC6AC1=
CYUL;2005-08-24 01:26;SPECI CYUL 240126Z 32003KT 15SM VCSH BKN060 OVC080 15/ RMK SC7AC1=
CYUL;2005-08-24 01:52;SPECI CYUL 240152Z 35003KT 15SM -SHRA FEW042 BKN060 OVC080 16/ RMK SC1SC6AC2=
CYUL;2005-08-24 02:00;METAR CYUL 240200Z 33004KT 15SM -SHRA FEW040 BKN060 OVC080 15/14 A3007 RMK SC1SC6AC2 SLP183=
CYUL;2005-08-24 03:00;METAR CYUL 240300Z 30005KT 15SM FEW043 BKN062 BKN083 15/14 A3007 RMK SC2SC2AC2 SLP184=
CYUL;2005-08-24 04:00;METAR CYUL 240400Z 31006KT 15SM FEW032 BKN053 BKN088 15/13 A3008 RMK SC2SC3AC2 SLP188=
CYUL;2005-08-24 05:00;METAR CYUL 240500Z 34005KT 15SM FEW035 FEW058 SCT086 14/12 A3009 RMK SC1SC2AC2 SLP191=
CYUL;2005-08-24 07:00;METAR CYUL 240700Z 34005KT 15SM FEW055 FEW090 FEW230 13/11 A3010 RMK SC1AC1CI1 SLP194=
CYUL;2005-08-24 09:00;METAR CYUL 240900Z 35003KT 15SM FEW090 FEW250 12/11 A3012 RMK AC1CI2 SLP200=
CYUL;2005-08-24 10:00;METAR CYUL 241000Z 35003KT 15SM BKN024 13/11 A3014 RMK SC7 SLP206=
CYUL;2005-08-24 11:00;METAR CYUL 241100Z 32004KT 15SM BKN020 14/12 A3014 RMK SC7 SLP209=
CYUL;2005-08-24 12:00;METAR CYUL 241200Z 33006KT 25SM FEW012 BKN020 14/12 A3016 RMK SF1SC6 SLP215=
CYUL;2005-08-24 13:00;METAR CYUL 241300Z 36004KT 25SM FEW008 FEW016 BKN030 OVC092 17/13 A3017 RMK SF1SF1SC4AC2 SLP219=
CYUL;2005-08-24 14:00;METAR CYUL 241400Z 02006KT 25SM FEW017 SCT025 OVC038 17/13 A3019 RMK SF1CU2SC5 SLP223=
CYUL;2005-08-24 15:00;METAR CYUL 241500Z 35004KT 15SM FEW020 BKN035 18/14 A3019 RMK CU2SC6 SLP222=
CYUL;2005-08-24 16:00;METAR CYUL 241600Z 36004KT 15SM FEW020 OVC035 18/13 A3019 RMK CU2SC6 SLP224=
CYUL;2005-08-24 17:50;SPECI CYUL 241750Z 35005KT 15SM -SHRA FEW030 BKN042 BKN060 RMK CU2SC5SC1=
CYUL;2005-08-24 18:00;METAR CYUL 241800Z 32005KT 15SM -SHRA FEW025 BKN035 BKN060 19/14 A3020 RMK CU1SC6SC1 SLP228=
CYUL;2005-08-24 18:28;SPECI CYUL 241828Z 30003KT 15SM VCSH FEW030 SCT040 BKN060 RMK CU2SC2SC4=
CYUL;2005-08-24 19:00;METAR CYUL 241900Z 28004KT 15SM FEW030 BKN060 BKN080 21/15 A3019 RMK CU2SC3AC1 SLP223=
CYUL;2005-08-24 20:00;METAR CYUL 242000Z 36007KT 15SM FEW030 BKN055 BKN080 22/14 A3019 RMK CU2SC4AC2 SLP224=
CYUL;2005-08-24 21:00;METAR CYUL 242100Z 29002KT 15SM FEW030TCU FEW060 BKN090 21/14 A3019 RMK TCU1SC2AC5 SLP222=
CYUL;2005-08-24 22:00;METAR CYUL 242200Z 30003KT 15SM FEW060 BKN090 21/14 A3019 RMK SC2AC6 TCU ASOCT SLP224=
CYUL;2005-08-24 23:00;METAR CYUL 242300Z 32002KT 15SM FEW060 SCT090 20/14 A3019 RMK SC1AC3 SLP224=
CYUL;2005-08-25 00:00;METAR CYUL 250000Z 28002KT 15SM FEW060 BKN090 19/14 A3020 RMK SC1AC4 SLP228=
CYUL;2005-08-25 01:00;METAR CYUL 250100Z 25002KT 15SM FEW090 18/13 A3021 RMK AC2 SLP231=
CYUL;2005-08-25 03:00;METAR CYUL 250300Z 27003KT 15SM FEW026 FEW090 18/14 A3021 RMK SC1AC1 SLP230=
CYUL;2005-08-25 04:00;METAR CYUL 250400Z 25004KT 15SM SKC 18/14 A3021 RMK SLP231=
CYUL;2005-08-25 05:00;METAR CYUL 250500Z 25003KT 15SM SKC 17/14 A3022 RMK SLP234=
CYUL;2005-08-25 06:00;METAR CYUL 250600Z 27002KT 15SM SKC 15/13 A3023 RMK SLP237=
CYUL;2005-08-25 09:00;METAR CYUL 250900Z 23002KT 15SM PRFG SKC 12/12 A3024 RMK SLP240=
CYUL;2005-08-25 10:00;METAR CYUL 251000Z 23003KT 30SM R24R/2600V6000FT/U PRFG SKC 13/12 A3025 RMK SLP246=
CYUL;2005-08-25 11:00;METAR CYUL 251100Z 25004KT 30SM FEW012 FEW250 15/14 A3026 RMK SF1CI1 SLP248=
CYUL;2005-08-25 12:00;METAR CYUL 251200Z 24003KT 30SM FEW250 16/15 A3027 RMK CI1 SLP251=
CYUL;2005-08-25 13:00;METAR CYUL 251300Z 26002KT 30SM FEW250 19/14 A3026 RMK CI1 SLP248=
CYUL;2005-08-25 14:00;METAR CYUL 251400Z 24003KT 30SM SKC 21/14 A3025 RMK SLP246=
CYUL;2005-08-25 15:00;METAR CYUL 251500Z 21004KT 30SM FEW025 22/16 A3024 RMK CU1 SLP241=
CYUL;2005-08-25 16:00;METAR CYUL 251600Z 20005KT 30SM FEW030 24/15 A3023 RMK CU1 SLP237=
CYUL;2005-08-25 17:00;METAR CYUL 251700Z 21008KT 30SM FEW040 25/15 A3022 RMK CU1 SLP234=
CYUL;2005-08-25 18:00;METAR CYUL 251800Z 21004KT 30SM FEW040 FEW240 26/14 A3020 RMK CU1CI0 SLP227=
CYUL;2005-08-25 19:00;METAR CYUL 251900Z 20008KT 30SM FEW060 FEW240 27/14 A3017 RMK CU1CI0 SLP218=
CYUL;2005-08-25 20:00;METAR CYUL 252000Z 25007KT 30SM FEW060 FEW240 27/11 A3015 RMK CU1CI1 SLP211=
CYUL;2005-08-25 21:00;METAR CYUL 252100Z 23008KT 30SM FEW060 FEW240 28/10 A3014 RMK CU1CI0 SLP208=
CYUL;2005-08-25 22:00;METAR CYUL 252200Z 27009KT 30SM FEW240 27/11 A3014 RMK CI1 SLP205=
CYUL;2005-08-25 23:00;METAR CYUL 252300Z 26007KT 30SM FEW240 26/10 A3013 RMK CI1 SLP203=
CYUL;2005-08-26 00:00;METAR CYUL 260000Z 26006KT 30SM FEW240 23/11 A3013 RMK CI1 SLP202=
CYUL;2005-08-26 01:00;METAR CYUL 260100Z 26006KT 15SM FEW240 22/12 A3013 RMK CI1 SLP204=
CYUL;2005-08-26 02:00;METAR CYUL 260200Z 27005KT 15SM SKC 20/12 A3013 RMK SLP203=
CYUL;2005-08-26 03:00;METAR CYUL 260300Z 27003KT 15SM SKC 20/13 A3013 RMK SLP203=
CYUL;2005-08-26 05:00;METAR CYUL 260500Z 23004KT 15SM SKC 19/14 A3014 RMK SLP205=
CYUL;2005-08-26 06:00;METAR CYUL 260600Z 23003KT 15SM SKC 18/12 A3013 RMK SLP203=
CYUL;2005-08-26 07:00;METAR CYUL 260700Z 22004KT 15SM FEW230 18/12 A3013 RMK CI0 SLP203=
CYUL;2005-08-26 09:00;METAR CYUL 260900Z 24006KT 15SM FEW230 17/13 A3013 RMK CI0 SLP202=
CYUL;2005-08-26 10:00;METAR CYUL 261000Z 23007KT 30SM BKN250 17/13 A3013 RMK CI1 SLP203=
CYUL;2005-08-26 11:00;METAR CYUL 261100Z 24006KT 30SM BKN250 17/14 A3013 RMK CI1 SLP204=
CYUL;2005-08-26 12:00;METAR CYUL 261200Z 25005KT 30SM SCT250 18/14 A3013 RMK CI1 SLP203=
CYUL;2005-08-26 13:00;METAR CYUL 261300Z 21003KT 30SM SCT260 20/15 A3012 RMK CI1 SLP201=
CYUL;2005-08-26 16:00;METAR CYUL 261600Z 21007KT 30SM FEW035 FEW260 25/17 A3008 RMK CU1CI1 SLP188=
CYUL;2005-08-26 17:00;METAR CYUL 261700Z 20007KT 30SM FEW045 FEW260 26/16 A3007 RMK CF1CI1 SLP182=
CYUL;2005-08-26 18:00;METAR CYUL 261800Z 20008KT 30SM FEW050 FEW260 27/11 A3005 RMK CU1CI1 SLP175=
CYUL;2005-08-26 20:00;METAR CYUL 262000Z 21006KT 30SM FEW065 FEW260 28/10 A3002 RMK SC1CI1 SLP166=
CYUL;2005-08-26 21:00;METAR CYUL 262100Z 24006KT 30SM FEW070 FEW260 28/10 A3001 RMK AC1CI1 SLP162=
CYUL;2005-08-26 22:00;METAR CYUL 262200Z 25006KT 30SM FEW080 FEW260 27/11 A3000 RMK AC1CI1 SLP158=
CYUL;2005-08-26 23:00;METAR CYUL 262300Z 21004KT 30SM FEW260 27/12 A3000 RMK CI1 SLP158=
CYUL;2005-08-27 00:00;METAR CYUL 270000Z 17008KT 30SM FEW260 24/14 A3000 RMK CI1 SLP160=
CYUL;2005-08-27 01:00;METAR CYUL 270100Z 15006KT 15SM SKC 23/13 A3002 RMK SLP166=
CYUL;2005-08-27 02:00;METAR CYUL 270200Z 15004KT 15SM SKC 21/12 A3001 RMK SLP162=
CYUL;2005-08-27 03:00;METAR CYUL 270300Z 14003KT 15SM SKC 20/12 A3000 RMK SLP161=
CYUL;2005-08-27 04:00;METAR CYUL 270400Z 17005KT 15SM SKC 19/13 A3000 RMK SLP159=
CYUL;2005-08-27 05:00;METAR CYUL 270500Z 16006KT 15SM SKC 19/13 A2998 RMK SLP154=
CYUL;2005-08-27 06:00;METAR CYUL 270600Z 16005KT 15SM SKC 18/14 A2998 RMK SLP151=
CYUL;2005-08-27 07:00;METAR CYUL 270700Z 13005KT 15SM SKC 17/13 A2998 RMK SLP152=
CYUL;2005-08-27 08:00;METAR CYUL 270800Z 12003KT 15SM SKC 18/14 A2998 RMK SLP153=
CYUL;2005-08-27 10:00;METAR CYUL 271000Z 00000KT 15SM FEW240 15/13 A3000 RMK CI1 SLP159=
CYUL;2005-08-27 11:00;METAR CYUL 271100Z 13003KT 20SM FEW090 FEW240 17/15 A3002 RMK AC1CI1 SLP165=
CYUL;2005-08-27 12:00;METAR CYUL 271200Z 13004KT 15SM FEW100 FEW240 19/16 A3002 RMK AC1CI1 SLP166=
CYUL;2005-08-27 13:00;METAR CYUL 271300Z 14003KT 15SM FEW240 21/16 A3000 RMK CI0 SLP160=
CYUL;2005-08-27 14:00;METAR CYUL 271400Z 16006KT 15SM FEW240 23/15 A3002 RMK CI1 SLP166=
CYUL;2005-08-27 15:00;METAR CYUL 271500Z 11004KT 15SM FEW240 25/16 A3001 RMK CI1 SLP162=
CYUL;2005-08-27 16:00;METAR CYUL 271600Z 16004KT 15SM FEW100 FEW240 26/16 A2999 RMK AC1CI1 SLP156=
CYUL;2005-08-27 17:00;METAR CYUL 271700Z 11007KT 15SM FEW045 FEW100 FEW240 27/17 A2998 RMK CU1AC1CI0 SLP151=
CYUL;2005-08-27 18:00;METAR CYUL 271800Z 11011KT 15SM FEW050 FEW080 SCT240 28/16 A2995 RMK CU1AC1CI0 SLP144=
CYUL;2005-08-27 19:00;METAR CYUL 271900Z 15011G16KT 15SM SCT065 BKN240 29/15 A2993 RMK CU4CI0 SLP135=
CYUL;2005-08-27 20:00;METAR CYUL 272000Z 15013KT 15SM FEW060 FEW240 29/16 A2990 RMK CU1CI0 SLP127=
CYUL;2005-08-27 21:00;METAR CYUL 272100Z 15016KT 15SM FEW060 FEW240 28/16 A2990 RMK CU1CI0 SLP127=
CYUL;2005-08-27 22:00;METAR CYUL 272200Z 15013G18KT 15SM FEW060 FEW240 27/15 A2989 RMK CU1CI1 SLP121=
CYUL;2005-08-27 23:00;METAR CYUL 272300Z 16013G18KT 30SM FEW120 FEW240 27/14 A2988 RMK AC1CI1 ACC ASOCT SLP119=
CYUL;2005-08-28 00:00;METAR CYUL 280000Z 17012KT 15SM SCT130 26/14 A2988 RMK AC3 SLP119=
CYUL;2005-08-28 01:00;METAR CYUL 280100Z 17012KT 15SM BKN140 25/13 A2989 RMK AC5 SLP121=
CYUL;2005-08-28 02:17;SPECI CYUL 280217Z 17011KT 15SM SCT075 BKN110 BKN150 25/ RMK AC3AC2AC2=
CYUL;2005-08-28 03:00;METAR CYUL 280300Z 16011G16KT 15SM BKN075 BKN150 24/14 A2987 RMK AC5AC2 SLP115=
CYUL;2005-08-28 04:00;METAR CYUL 280400Z 16014KT 15SM SCT090 BKN150 23/16 A2986 RMK AC3AC2 SLP111=
CYUL;2005-08-28 05:00;METAR CYUL 280500Z 16012G18KT 15SM BKN090 BKN120 23/16 A2986 RMK AC6AC1 SLP110=
CYUL;2005-08-28 06:00;METAR CYUL 280600Z 16015KT 15SM BKN100 23/16 A2985 RMK AC6 SLP108=
CYUL;2005-08-28 08:00;METAR CYUL 280800Z 21007G15KT 15SM -SHRA OVC040 21/17 A2986 RMK SC8 SLP110=
CYUL;2005-08-28 09:00;METAR CYUL 280900Z 16010KT 6SM -RA OVC040 19/18 A2986 RMK SC8 SLP112=
CYUL;2005-08-28 10:00;METAR CYUL 281000Z 14005KT 8SM -RA OVC040 19/18 A2986 RMK SC8 /R10/ SLP113=
CYUL;2005-08-28 11:00;METAR CYUL 281100Z 16008KT 6SM -RA OVC039 19/18 A2987 RMK SC8 SLP117=
CYUL;2005-08-28 11:25;SPECI CYUL 281125Z 15010KT 8SM OVC044 19/ RMK SC8=
CYUL;2005-08-28 12:00;METAR CYUL 281200Z 16010KT 8SM OVC035 20/18 A2988 RMK SC8 SLP120=
CYUL;2005-08-28 13:00;METAR CYUL 281300Z 19009KT 2 1/2SM -DZ BR OVC017 20/18 A2990 RMK ST8 SLP126=
CYUL;2005-08-28 13:17;SPECI CYUL 281317Z 18009KT 4SM BR SCT009 OVC028 20/ RMK SF3ST5=
CYUL;2005-08-28 13:28;SPECI CYUL 281328Z 18008KT 6SM BR OVC025 20/ RMK SF8=
CYUL;2005-08-28 14:00;METAR CYUL 281400Z 17006KT 8SM BKN025 OVC035 20/19 A2991 RMK SF6SC2 SLP129=
CYUL;2005-08-28 15:00;METAR CYUL 281500Z 18009KT 15SM FEW022 BKN035 BKN240 23/19 A2992 RMK CU2SC4CI1 SLP131=
CYUL;2005-08-28 16:00;METAR CYUL 281600Z 19007KT 15SM BKN035TCU BKN150 24/20 A2991 RMK TCU5AC1 SLP129=
CYUL;2005-08-28 17:00;METAR CYUL 281700Z 22009KT 15SM FEW035TCU BKN068 25/19 A2991 RMK TCU2AC6 ACC ASOCT SLP128=
CYUL;2005-08-28 18:00;METAR CYUL 281800Z 21007KT 15SM FEW035TCU BKN070 26/20 A2990 RMK TCU2AC2 SLP126=
CYUL;2005-08-28 19:00;METAR CYUL 281900Z 22006KT 15SM FEW035TCU FEW160 27/20 A2989 RMK TCU2AC1 SLP122=
CYUL;2005-08-28 20:00;METAR CYUL 282000Z 24007KT 15SM FEW035TCU SCT080 27/19 A2989 RMK TCU2AC2 ACC ASOCT SLP121=
CYUL;2005-08-28 21:00;METAR CYUL 282100Z 18007KT 15SM FEW035CB FEW075 27/20 A2989 RMK CB2AC1 SLP122=
CYUL;2005-08-28 22:00;METAR CYUL 282200Z 14010KT 15SM FEW030 SCT045TCU BKN060 26/21 A2989 RMK CF1TCU3SC1 SLP121=
CYUL;2005-08-28 23:00;METAR CYUL 282300Z 15009KT 15SM BKN045TCU BKN240 25/21 A2990 RMK TCU6CI0 SLP125=
CYUL;2005-08-29 00:00;METAR CYUL 290000Z 16008KT 15SM FEW045TCU FEW080 FEW240 23/20 A2991 RMK TCU1AC1CI1 SLP129=
CYUL;2005-08-29 01:00;METAR CYUL 290100Z 16008KT 15SM FEW050 FEW240 23/20 A2993 RMK SC1CI0 SLP135=
CYUL;2005-08-29 02:00;METAR CYUL 290200Z 16008KT 15SM FEW240 22/20 A2993 RMK CI0 SLP137=
CYUL;2005-08-29 03:00;METAR CYUL 290300Z 13004KT 15SM FEW240 21/19 A2993 RMK CI0 SLP137=
CYUL;2005-08-29 04:00;METAR CYUL 290400Z 00000KT 15SM FEW240 20/19 A2994 RMK CI1 SLP139=
CYUL;2005-08-29 05:00;METAR CYUL 290500Z 15003KT 15SM FEW240 19/18 A2995 RMK CI1 SLP142=
CYUL;2005-08-29 07:00;METAR CYUL 290700Z 09003KT 15SM FEW240 20/18 A2995 RMK CI1 SLP144=
CYUL;2005-08-29 08:00;METAR CYUL 290800Z 11002KT 15SM FEW240 19/18 A2995 RMK CI0 SLP144=
CYUL;2005-08-29 10:00;METAR CYUL 291000Z 10003KT 12SM BKN240 19/18 A2998 RMK CI1 SLP152=
CYUL;2005-08-29 11:00;METAR CYUL 291100Z 12005KT 8SM FEW030TCU OVC240 19/18 A2998 RMK TCU1CI5 CS ASOCT SLP152=
CYUL;2005-08-29 12:00;METAR CYUL 291200Z 14004KT 8SM FEW030TCU SCT190 OVC220 20/19 A2998 RMK TCU1AC3CS2 SLP153=
CYUL;2005-08-29 13:00;METAR CYUL 291300Z 14004KT 10SM FEW190 OVC240 22/19 A2998 RMK AC2CI2 SLP152=
CYUL;2005-08-29 14:00;METAR CYUL 291400Z 00000KT 10SM FEW160 OVC240 24/20 A2999 RMK AC1CI4 SLP155=
CYUL;2005-08-29 15:00;METAR CYUL 291500Z 14002KT 12SM FEW025 FEW160 OVC240 26/20 A2998 RMK CU1AC1CS6 SLP154=
CYUL;2005-08-29 16:00;METAR CYUL 291600Z 00000KT 12SM OVC220 26/20 A2998 RMK CS6 SLP153=
CYUL;2005-08-29 17:00;METAR CYUL 291700Z 17005KT 12SM FEW030 OVC220 27/20 A2997 RMK CF1CS7 SLP148=
CYUL;2005-08-29 18:00;METAR CYUL 291800Z 15005KT 12SM FEW030 FEW160 OVC240 28/21 A2996 RMK CF1AC1CS6 SLP146=
CYUL;2005-08-29 19:00;METAR CYUL 291900Z 17008KT 12SM FEW030 FEW160 OVC240 28/21 A2995 RMK CU1AC1CI4 CS ASOCT SLP142=
CYUL;2005-08-29 20:00;METAR CYUL 292000Z 15007KT 12SM FEW030 FEW180 OVC230 26/21 A2994 RMK CU1AC2CI4 SLP138=
CYUL;2005-08-29 21:00;METAR CYUL 292100Z 15008KT 15SM SCT180 OVC230 26/20 A2993 RMK AC2CI6 SLP135=
CYUL;2005-08-29 22:00;METAR CYUL 292200Z 15007KT 15SM FEW180 OVC210 26/20 A2992 RMK AC1CS7 SLP132=
CYUL;2005-08-29 23:00;METAR CYUL 292300Z 14007KT 15SM FEW180 OVC210 25/20 A2992 RMK AC2CS5 SLP131=
CYUL;2005-08-30 00:00;METAR CYUL 300000Z 14005KT 15SM FEW030 OVC170 25/20 A2993 RMK CF1AS7 AC ASOCT SLP137=
CYUL;2005-08-30 03:00;METAR CYUL 300300Z 33004KT 15SM OVC130 23/20 A2994 RMK AC8 SLP140=
CYUL;2005-08-30 04:00;METAR CYUL 300400Z 36002KT 15SM OVC120 22/20 A2993 RMK AC8 SLP136=
CYUL;2005-08-30 05:00;METAR CYUL 300500Z 00000KT 15SM OVC160 23/20 A2992 RMK AC8 SLP131=
CYUL;2005-08-30 06:00;METAR CYUL 300600Z 11003KT 15SM OVC130 23/20 A2990 RMK AC8 SLP125=
CYUL;2005-08-30 07:00;METAR CYUL 300700Z 14002KT 15SM BKN130 21/19 A2990 RMK AC6 SLP125=
CYUL;2005-08-30 08:00;METAR CYUL 300800Z 35003KT 15SM BKN150 19/18 A2990 RMK AC5 SLP123=
CYUL;2005-08-30 09:00;METAR CYUL 300900Z 00000KT 15SM BKN130 20/19 A2990 RMK AC3 SLP127=
CYUL;2005-08-30 10:00;METAR CYUL 301000Z 00000KT 15SM BKN090 20/19 A2991 RMK AC6 ACC ASOCT SLP130=
CYUL;2005-08-30 11:00;METAR CYUL 301100Z 32002KT 8SM BKN090 20/19 A2991 RMK AC7 VIS W 3 SLP130=
CYUL;2005-08-30 12:00;METAR CYUL 301200Z 14002KT 8SM BKN090 BKN120 22/19 A2991 RMK AC6AC2 SLP129=
CYUL;2005-08-30 13:00;METAR CYUL 301300Z 11003KT 8SM BKN090 BKN120 24/19 A2991 RMK AC5AC1 SLP129=
CYUL;2005-08-30 14:00;METAR CYUL 301400Z 14003KT 10SM FEW020 FEW065 SCT210 26/18 A2990 RMK CF1SC2CI1 SLP127=
CYUL;2005-08-30 16:00;METAR CYUL 301600Z 15006KT 10SM FEW040TCU SCT080 BKN140 BKN210 27/17 A2987 RMK TCU1AC3AC1CI0 SLP116=
CYUL;2005-08-30 17:00;METAR CYUL 301700Z 15004KT 10SM FEW040 BKN100 BKN210 27/20 A2985 RMK SC2AC3CI0 TCU ASOCT SLP109=
CYUL;2005-08-30 18:00;METAR CYUL 301800Z 15005KT 12SM FEW050 OVC080 27/19 A2984 RMK SC2AC5 TCU ASOCT SLP105=
CYUL;2005-08-30 18:38;SPECI CYUL 301838Z 15014KT 10SM -SHRA SCT035 BKN050 OVC080 RMK SC4SC2AC2 TCU ASOCT=
CYUL;2005-08-30 19:00;METAR CYUL 301900Z 17010KT 10SM VCSH SCT040 BKN080 OVC120 25/20 A2983 RMK SC3AC3AC1 TCU ASOCT SLP101=
CYUL;2005-08-30 20:00;METAR CYUL 302000Z 19006KT 8SM FEW040 BKN070 OVC100 26/20 A2982 RMK SC2AC5AC1 SLP097=
CYUL;2005-08-30 21:00;METAR CYUL 302100Z 22008KT 10SM FEW040 BKN060 OVC090 26/19 A2981 RMK SC2SC5AC2 SLP096=
CYUL;2005-08-30 22:00;METAR CYUL 302200Z 15006KT 10SM FEW060 OVC080 25/20 A2981 RMK SC2AC6 SLP095=
CYUL;2005-08-30 23:00;METAR CYUL 302300Z 17003KT 10SM BKN080 OVC210 25/20 A2981 RMK AC5CS3 SLP095=
CYUL;2005-08-31 00:00;METAR CYUL 310000Z 13007KT 10SM SCT080 OVC240 24/20 A2980 RMK AC4CI4 SLP091=
CYUL;2005-08-31 01:00;METAR CYUL 310100Z 13004KT 10SM FEW040 FEW080 OVC240 23/20 A2981 RMK SC1AC1CI6 SLP093=
CYUL;2005-08-31 02:00;METAR CYUL 310200Z 13005KT 12SM FEW040 OVC240 22/20 A2980 RMK SC1CI8 SLP091=
CYUL;2005-08-31 03:00;METAR CYUL 310300Z 13006KT 12SM FEW040 OVC230 22/20 A2979 RMK SC1CI8 SLP087=
CYUL;2005-08-31 04:00;METAR CYUL 310400Z 13004KT 8SM OVC210 22/20 A2978 RMK CS8 SLP085=
CYUL;2005-08-31 05:00;METAR CYUL 310500Z 13005KT 8SM OVC170 22/20 A2976 RMK AC8 SLP079=
CYUL;2005-08-31 06:27;SPECI CYUL 310627Z 15005KT 4SM -SHRA BR SCT060 OVC120 22/ RMK SC3AC5=
CYUL;2005-08-31 07:00;METAR CYUL 310700Z 16007KT 3SM -SHRA BR SCT045 OVC090 22/21 A2974 RMK SC4AC4 SLP072=
CYUL;2005-08-31 10:00;METAR CYUL 311000Z 13005KT 2SM -RA BR BKN008 OVC030 22/21 A2970 RMK SF6SC2 SLP056=
CYUL;2005-08-31 10:50;SPECI CYUL 311050Z 11005KT 2SM -RA BR BKN011 OVC032 22/ RMK SF6SC2=
CYUL;2005-08-31 11:00;METAR CYUL 311100Z 11006KT 2SM -RA BR BKN009 OVC035 22/21 A2967 RMK SF6SC2 SLP046=
CYUL;2005-08-31 12:00;METAR CYUL 311200Z 07007KT 2 1/2SM -RA BR BKN006 OVC040 22/20 A2963 RMK SF6SC2 SLP032=
CYUL;2005-08-31 13:00;METAR CYUL 311300Z 05013KT 1 1/2SM -RA BR BKN010 OVC025 21/19 A2958 RMK SF6SC2 SLP017=
CYUL;2005-08-31 14:00;METAR CYUL 311400Z 05023G29KT 1 3/4SM RA BR BKN012 OVC020 20/18 A2955 RMK SF6SC2 /R18/ SLP005=
CYUL;2005-08-31 14:22;SPECI CYUL 311422Z 05025G32KT 1 3/4SM RA BR SCT008 BKN013 OVC025 20/ RMK SF4SC3SC1=
CYUL;2005-08-31 14:40;SPECI CYUL 311440Z 06022G27KT 2 1/2SM RA BR BKN009 BKN014 OVC020 20/ RMK SF6SC2SC1=
CYUL;2005-08-31 15:00;METAR CYUL 311500Z 05020G27KT 3SM -RA BR BKN008 BKN014 OVC020 20/18 A2947 RERA RMK SF6SC1SC1 PRESFR /R28/ SLP978=
CYUL;2005-08-31 15:07;SPECI CYUL 311507Z 05022G30KT 2SM -RA BR BKN008 OVC014 20/ RMK SF6SC2=
CYUL;2005-08-31 15:35;SPECI CYUL 311535Z 05025G32KT 1 1/4SM RA BR BKN007 OVC013 19/ RMK SF6SC2=
CYUL;2005-08-31 15:42;SPECI CYUL 311542Z 06028G33KT 1 3/4SM RA BR BKN007 BKN014 OVC020 19/ RMK SF6SC2SC1=
CYUL;2005-08-31 16:00;METAR CYUL 311600Z 05026G36KT 2 1/2SM RA BR BKN008 BKN014 OVC020 19/18 A2939 RERA RMK SF6SC1SC1 PRESFR /R41/ SLP953=
CYUL;2005-08-31 16:36;SPECI CYUL 311636Z 32006G21KT 1 1/4SM R06L/2800VP6000FT/D R06R/3000VP6000FT/D +RA BR BKN007 OVC013 RMK SF6SC2=
CYUL;2005-08-31 17:00;METAR CYUL 311700Z 02017KT 1 1/2SM RA BR BKN007 OVC014 19/18 A2939 RERA RMK SF6SC2 /R53/ SLP952=
CYUL;2005-08-31 17:43;SPECI CYUL 311743Z 02021G26KT 3SM RA BR BKN007 OVC015 19/ RMK SF6SC2=
CYUL;2005-08-31 18:00;METAR CYUL 311800Z 02019G25KT 3SM -RA BR BKN008 OVC014 19/17 A2935 RERA RMK SF6SC2 SLP939=
CYUL;2005-08-31 19:00;METAR CYUL 311900Z 33013G21KT 4SM -RA BR BKN008 OVC014 19/18 A2936 RMK SF7SC1 SLP944=
CYUL;2005-08-31 21:00;METAR CYUL 312100Z 31007KT 12SM -RA FEW010 OVC018 20/18 A2938 RMK SF1SC7 SLP948=
CYUL;2005-08-31 22:00;METAR CYUL 312200Z 31006KT 15SM FEW012 BKN035 21/18 A2941 RMK SF1SC6 SLP959=
CYUL;2005-08-31 23:00;METAR CYUL 312300Z 28008KT 15SM FEW015 SCT035 BKN065 BKN200 21/19 A2944 RMK CF1SC2SC2CI2 SLP970=
CYUL;2005-09-01 00:00;METAR CYUL 010000Z 28008KT 15SM SCT035 BKN065 BKN220 21/18 A2947 RMK SC3SC2CI2 SLP979=
CYUL;2005-09-01 01:00;METAR CYUL 010100Z 27009KT 15SM BKN044 21/17 A2950 RMK SC6 SLP988=
CYUL;2005-09-01 03:00;METAR CYUL 010300Z 27009KT 15SM FEW030 FEW100 BKN240 20/17 A2952 RMK CF1AC1CI5 SLP998=
CYUL;2005-09-01 04:00;METAR CYUL 010400Z 26009KT 15SM FEW030 SCT240 19/17 A2954 RMK CF1CI2 SLP004=
CYUL;2005-09-01 05:00;METAR CYUL 010500Z 26008KT 15SM FEW030 FEW240 19/17 A2955 RMK CF1CI1 SLP008=
CYUL;2005-09-01 06:00;METAR CYUL 010600Z 26008KT 15SM FEW240 18/17 A2957 RMK CI1 SLP012=
CYUL;2005-09-01 07:00;METAR CYUL 010700Z 25008KT 15SM FEW025 FEW100 FEW240 18/16 A2958 RMK SC1AC1CI1 SLP016=
CYUL;2005-09-01 10:00;METAR CYUL 011000Z 25007KT 10SM FEW020 FEW080 FEW240 17/16 A2963 RMK SC1AC1CI1 SLP035=
CYUL;2005-09-01 12:00;METAR CYUL 011200Z 25008KT 10SM FEW010 19/17 A2967 RMK SC2 SLP048=
CYUL;2005-09-01 13:00;METAR CYUL 011300Z 26015KT 12SM SCT015 20/17 A2969 RMK SC4 SLP054=
CYUL;2005-09-01 14:00;METAR CYUL 011400Z 27012G17KT 15SM BKN015 20/17 A2970 RMK CU5 SLP059=
CYUL;2005-09-01 15:00;METAR CYUL 011500Z 26013KT 15SM BKN020 22/17 A2971 RMK SC6 CU ASOCT SLP059=
CYUL;2005-09-01 16:00;METAR CYUL 011600Z 26015KT 15SM BKN025 23/16 A2971 RMK SC5 TCU ASOCT SLP061=
CYUL;2005-09-01 17:00;METAR CYUL 011700Z 25016KT 15SM BKN035 23/16 A2972 RMK SC6 CU ASOCT SLP063=
CYUL;2005-09-01 18:00;METAR CYUL 011800Z 27015G24KT 30SM BKN045 24/16 A2973 RMK SC6 CU ASOCT SLP067=
CYUL;2005-09-01 20:00;METAR CYUL 012000Z 27015KT 30SM FEW040 BKN055 24/16 A2975 RMK CU2SC3 SLP075=
CYUL;2005-09-01 21:00;METAR CYUL 012100Z 26013KT 30SM FEW040 FEW060 25/16 A2975 RMK CU1SC1 SLP075=
CYUL;2005-09-01 22:00;METAR CYUL 012200Z 26012KT 30SM FEW040TCU FEW070 25/16 A2976 RMK TCU1AC1 SLP077=
CYUL;2005-09-01 23:00;METAR CYUL 012300Z 24010KT 30SM FEW060 24/16 A2976 RMK SC1 TCU ASOCT SLP078=
CYUL;2005-09-02 00:00;METAR CYUL 020000Z 24010KT 15SM FEW070 FEW240 23/17 A2977 RMK AC1CI0 SLP081=
CYUL;2005-09-02 01:00;METAR CYUL 020100Z 24012KT 15SM FEW240 23/17 A2978 RMK CI1 SLP085=
CYUL;2005-09-02 02:00;METAR CYUL 020200Z 24012G21KT 15SM SKC 22/18 A2979 RMK SLP087=
CYUL;2005-09-02 03:00;METAR CYUL 020300Z 23009G15KT 15SM SKC 21/17 A2979 RMK SLP090=
CYUL;2005-09-02 04:00;METAR CYUL 020400Z 23008KT 15SM FEW150 21/17 A2980 RMK AC1 SLP091=
CYUL;2005-09-02 05:00;METAR CYUL 020500Z 25010KT 15SM FEW070 20/17 A2980 RMK AC1 SLP093=
CYUL;2005-09-02 06:00;METAR CYUL 020600Z 25009KT 15SM FEW070 20/16 A2980 RMK AC1 SLP092=
CYUL;2005-09-02 07:00;METAR CYUL 020700Z 23008KT 15SM SKC 20/17 A2980 RMK SLP092=
CYUL;2005-09-02 08:00;METAR CYUL 020800Z 22011KT 15SM FEW110 19/17 A2980 RMK AC2 SLP092=
CYUL;2005-09-02 09:00;METAR CYUL 020900Z 23010KT 15SM BKN075 BKN110 20/16 A2980 RMK AC7AC1 SLP093=
CYUL;2005-09-02 10:00;METAR CYUL 021000Z 23007KT 15SM SCT110 19/16 A2980 RMK AC4 SLP093=
CYUL;2005-09-02 11:00;METAR CYUL 021100Z 23011KT 12SM FEW020 FEW075 FEW090 20/18 A2982 RMK CF1AC1AC1 SLP098=
CYUL;2005-09-02 12:00;METAR CYUL 021200Z 22013KT 12SM FEW045 SCT090 21/18 A2981 RMK CF1ACC4 SLP096=
CYUL;2005-09-02 13:00;METAR CYUL 021300Z 22012KT 12SM FEW015 FEW080 SCT240 21/18 A2980 RMK CF1AC2CI0 SLP093=
CYUL;2005-09-02 16:00;METAR CYUL 021600Z 22014KT 15SM FEW025TCU FEW040 24/18 A2977 RMK TCU2SC1 SLP081=
CYUL;2005-09-02 17:00;METAR CYUL 021700Z 23014KT 15SM FEW030TCU 25/16 A2974 RMK TCU2 SLP071=
CYUL;2005-09-02 18:00;METAR CYUL 021800Z 23018KT 30SM FEW030TCU BKN065 27/15 A2971 RMK TCU2SC4 SLP062=
CYUL;2005-09-02 20:00;METAR CYUL 022000Z 23022G30KT 30SM FEW040CB BKN080 26/14 A2968 RMK CB2AC3 SLP052=
CYUL;2005-09-02 20:22;SPECI CYUL 022022Z 29023G28KT 30SM -SHRA FEW030 BKN050CB BKN090 23/ RMK CF1CB5AC2=
CYUL;2005-09-02 20:32;SPECI CYUL 022032Z 30014G28KT 30SM -TSRA FEW030 SCT050CB BKN090 23/ RMK CF1CB4AC3=
CYUL;2005-09-02 20:50;SPECI CYUL 022050Z 30012G25KT 15SM VCSH SCT050CB BKN080 BKN110 22/ RETS RMK CB3AC2AC1=
CYUL;2005-09-02 21:00;METAR CYUL 022100Z 29015G22KT 15SM VCSH FEW040TCU BKN070 BKN100 21/14 A2973 RETS RMK TCU2AC5AC1 CB EMBD SLP067=
CYUL;2005-09-02 21:08;SPECI CYUL 022108Z 27012G24KT 15SM -SHRA FEW040TCU BKN080 BKN110 20/ RMK TCU1AC6AC1 CB EMBD=
CYUL;2005-09-02 21:32;SPECI CYUL 022132Z 27011KT 15SM FEW040TCU BKN080 BKN110 21/ RMK TCU1AC4AC1 CB EMBD=
CYUL;2005-09-02 22:00;METAR CYUL 022200Z 28013G19KT 15SM FEW040TCU SCT090 SCT120 22/13 A2974 RMK TCU1AC3AC1 SLP071=
CYUL;2005-09-02 23:00;METAR CYUL 022300Z 27008KT 15SM FEW040TCU SCT090 BKN120 21/14 A2976 RMK TCU1AC3AC1 SLP078=
CYUL;2005-09-03 00:00;METAR CYUL 030000Z 27009KT 15SM FEW040TCU FEW090 SCT120 20/13 A2977 RMK TCU1AC2AC1 SLP083=
CYUL;2005-09-03 01:00;METAR CYUL 030100Z 23007KT 15SM FEW100 20/16 A2980 RMK AC2 SLP091=
CYUL;2005-09-03 02:00;METAR CYUL 030200Z 28009KT 15SM FEW100 19/13 A2981 RMK AC1 SLP096=
CYUL;2005-09-03 03:00;METAR CYUL 030300Z 28009KT 15SM FEW100 18/13 A2982 RMK AC1 SLP097=
CYUL;2005-09-03 04:00;METAR CYUL 030400Z 28006KT 15SM SKC 17/13 A2983 RMK SLP102=
CYUL;2005-09-03 05:00;METAR CYUL 030500Z 28009KT 15SM SKC 17/13 A2984 RMK SLP106=
CYUL;2005-09-03 06:00;METAR CYUL 030600Z 27009KT 15SM SKC 17/13 A2985 RMK SLP109=
CYUL;2005-09-03 07:00;METAR CYUL 030700Z 27008KT 15SM FEW080 16/13 A2986 RMK AC1 SLP112=
CYUL;2005-09-03 08:00;METAR CYUL 030800Z 27009KT 15SM FEW080 16/13 A2986 RMK AC1 SLP113=
CYUL;2005-09-03 09:00;METAR CYUL 030900Z 29007KT 15SM SKC 15/13 A2988 RMK SLP118=
CYUL;2005-09-03 10:00;METAR CYUL 031000Z 27005KT 15SM FEW010 FEW080 16/13 A2990 RMK SF1AC1 SLP124=
CYUL;2005-09-03 11:00;METAR CYUL 031100Z 28005KT 15SM FEW010 FEW100 16/14 A2992 RMK SF1AC1 SLP132=
CYUL;2005-09-03 12:00;METAR CYUL 031200Z 26007KT 15SM FEW010 FEW070 16/14 A2993 RMK SF1AC2 SLP137=
CYUL;2005-09-03 13:00;METAR CYUL 031300Z 29009KT 15SM FEW015 FEW080 18/14 A2994 RMK CF1AC1 SLP139=
CYUL;2005-09-03 15:00;METAR CYUL 031500Z 28012KT 15SM BKN028 BKN240 20/15 A2996 RMK CU6CI0 SLP146=
CYUL;2005-09-03 16:00;METAR CYUL 031600Z 31007KT 15SM BKN030 BKN240 22/16 A2996 RMK CU6CI0 TCU ASOCT SLP146=
CYUL;2005-09-03 18:00;METAR CYUL 031800Z 27011KT 15SM SCT040TCU BKN050 23/15 A2995 RMK TCU4SC2 SLP143=
CYUL;2005-09-03 19:00;METAR CYUL 031900Z 29009KT 15SM SCT040 23/14 A2994 RMK CU3 TCU ASOCT SLP139=
CYUL;2005-09-03 21:00;METAR CYUL 032100Z 26010KT 15SM FEW040TCU FEW090 FEW240 24/15 A2994 RMK TCU1AC1CI1 SLP139=
CYUL;2005-09-03 22:00;METAR CYUL 032200Z 28010KT 15SM FEW040TCU SCT160 BKN200 BKN240 23/14 A2994 RMK TCU1AC3CC1CI0 CB N SLP140=
CYUL;2005-09-03 23:00;METAR CYUL 032300Z 28011KT 15SM FEW040TCU BKN150 BKN220 21/15 A2995 RMK TCU1AC6CI1 SLP144=
CYUL;2005-09-04 00:00;METAR CYUL 040000Z 29012KT 15SM SCT110 BKN150 20/15 A2997 RMK AC3AC4 SLP148=
CYUL;2005-09-04 01:00;METAR CYUL 040100Z 29007KT 15SM BKN090 BKN150 19/14 A2999 RMK AC5AC1 SLP155=
CYUL;2005-09-04 03:00;METAR CYUL 040300Z 27005KT 15SM SCT075 OVC090 18/14 A3002 RMK AC3AC5 SLP165=
CYUL;2005-09-04 04:00;METAR CYUL 040400Z 28003KT 15SM FEW060 BKN090 18/14 A3003 RMK SC2AC5 SLP170=
CYUL;2005-09-04 05:00;METAR CYUL 040500Z 28002KT 15SM FEW075 BKN090 17/14 A3004 RMK AC2AC5 SLP174=
CYUL;2005-09-04 06:00;METAR CYUL 040600Z 33002KT 15SM FEW070 SCT090 16/14 A3007 RMK AC1AC3 SLP182=
CYUL;2005-09-04 08:00;METAR CYUL 040800Z 32003KT 15SM FEW030 BKN040 16/14 A3011 RMK SC1SC6 SLP196=
CYUL;2005-09-04 09:00;METAR CYUL 040900Z 02011KT 15SM FEW045 BKN090 17/11 A3013 RMK SC1AC6 SLP202=
CYUL;2005-09-04 10:00;METAR CYUL 041000Z 02007KT 15SM FEW040 BKN050 BKN100 16/11 A3015 RMK SC1SC6AC1 SLP210=
CYUL;2005-09-04 11:00;METAR CYUL 041100Z 01008KT 15SM FEW040 BKN055 15/10 A3017 RMK SC1SC4 SLP217=
CYUL;2005-09-04 12:00;METAR CYUL 041200Z 36008KT 15SM BKN040 16/10 A3019 RMK SC6 SLP223=
CYUL;2005-09-04 13:00;METAR CYUL 041300Z 03011KT 15SM FEW025 BKN040 16/10 A3021 RMK CF1SC7 SLP231=
CYUL;2005-09-04 14:00;METAR CYUL 041400Z 03008KT 15SM FEW035 BKN055 16/10 A3024 RMK CF1SC7 SLP240=
CYUL;2005-09-04 15:00;METAR CYUL 041500Z 34005KT 15SM FEW030 BKN055 17/10 A3025 RMK CF1SC7 SLP244=
CYUL;2005-09-04 16:00;METAR CYUL 041600Z 34007KT 15SM BKN042 18/10 A3025 RMK CU6 SLP244=
CYUL;2005-09-04 17:00;METAR CYUL 041700Z 26006KT 15SM BKN040 19/11 A3026 RMK CU6 SLP248=
CYUL;2005-09-04 18:00;METAR CYUL 041800Z 28007KT 15SM BKN040 20/12 A3025 RMK CU6 SLP244=
CYUL;2005-09-04 19:00;METAR CYUL 041900Z 26008KT 15SM BKN040 20/12 A3025 RMK CU6 SLP243=
CYUL;2005-09-04 20:00;METAR CYUL 042000Z 23007KT 30SM SCT050 21/11 A3024 RMK CU4 SLP242=
CYUL;2005-09-04 21:00;METAR CYUL 042100Z 30007KT 30SM FEW050 21/11 A3025 RMK CU2 SLP243=
CYUL;2005-09-04 22:00;METAR CYUL 042200Z 25007KT 30SM FEW050 21/11 A3025 RMK CF1 SLP244=
CYUL;2005-09-05 00:00;METAR CYUL 050000Z 27005KT 15SM FEW050 17/10 A3027 RMK CF1 SLP253=
CYUL;2005-09-05 01:00;METAR CYUL 050100Z 29006KT 15SM SKC 16/10 A3030 RMK SLP262=
CYUL;2005-09-05 03:00;METAR CYUL 050300Z 29005KT 15SM SKC 14/10 A3034 RMK SLP274=
CYUL;2005-09-05 04:00;METAR CYUL 050400Z 00000KT 15SM SKC 15/10 A3034 RMK SLP275=
CYUL;2005-09-05 06:00;METAR CYUL 050600Z 34004KT 15SM SKC 12/09 A3035 RMK SLP280=
CYUL;2005-09-05 07:00;METAR CYUL 050700Z 35004KT 15SM SKC 12/09 A3036 RMK SLP282=
CYUL;2005-09-05 08:00;METAR CYUL 050800Z 36002KT 15SM SKC 12/09 A3037 RMK SLP286=
CYUL;2005-09-05 09:00;METAR CYUL 050900Z 00000KT 15SM FEW240 10/08 A3039 RMK CI0 SLP291=
CYUL;2005-09-05 10:00;METAR CYUL 051000Z 36003KT 15SM FEW240 10/08 A3041 RMK CI1 SLP298=
CYUL;2005-09-05 11:00;METAR CYUL 051100Z 02002KT 30SM FEW240 11/08 A3044 RMK CI1 SLP308=
CYUL;2005-09-05 12:00;METAR CYUL 051200Z 03003KT 30SM FEW240 14/10 A3044 RMK CI1 SLP309=
CYUL;2005-09-05 13:00;METAR CYUL 051300Z 35003KT 30SM FEW240 15/10 A3046 RMK CI1 SLP314=
CYUL;2005-09-05 14:00;METAR CYUL 051400Z 36002KT 30SM FEW240 17/11 A3046 RMK CI1 SLP315=
CYUL;2005-09-05 15:00;METAR CYUL 051500Z 35003KT 30SM FEW040 19/11 A3046 RMK CF1 SLP314=
CYUL;2005-09-05 16:00;METAR CYUL 051600Z 36003KT 30SM FEW040 20/10 A3046 RMK CF1 SLP314=
CYUL;2005-09-05 17:00;METAR CYUL 051700Z 31003KT 30SM FEW040 21/12 A3043 RMK CF1 SLP306=
CYUL;2005-09-05 18:00;METAR CYUL 051800Z 21004KT 30SM FEW045 21/11 A3042 RMK CF1 SLP302=
CYUL;2005-09-05 19:00;METAR CYUL 051900Z 21006KT 30SM FEW045 22/11 A3042 RMK CF1 SLP302=
CYUL;2005-09-05 20:00;METAR CYUL 052000Z 27007KT 30SM FEW045 22/10 A3042 RMK CF1 SLP302=
CYUL;2005-09-05 21:00;METAR CYUL 052100Z 22007KT 30SM FEW240 22/11 A3042 RMK CI1 SLP302=
CYUL;2005-09-05 22:00;METAR CYUL 052200Z 24002KT 30SM FEW240 22/10 A3042 RMK CI0 SLP303=
CYUL;2005-09-06 00:00;METAR CYUL 060000Z 18005KT 15SM SCT240 19/11 A3041 RMK CI0 SLP299=
CYUL;2005-09-06 02:00;METAR CYUL 060200Z 17005KT 15SM FEW240 18/12 A3044 RMK CI0 SLP308=
CYUL;2005-09-06 03:00;METAR CYUL 060300Z 17006KT 15SM FEW240 16/12 A3043 RMK CI1 SLP304=
CYUL;2005-09-06 04:00;METAR CYUL 060400Z 18002KT 15SM SKC 17/12 A3044 RMK SLP308=
CYUL;2005-09-06 05:00;METAR CYUL 060500Z 20003KT 15SM SKC 16/12 A3043 RMK SLP306=
CYUL;2005-09-06 06:00;METAR CYUL 060600Z 14002KT 15SM SKC 16/12 A3043 RMK SLP305=
CYUL;2005-09-06 07:00;METAR CYUL 060700Z 21003KT 15SM FEW030 15/12 A3042 RMK SC1 SLP303=
CYUL;2005-09-06 08:00;METAR CYUL 060800Z 31002KT 15SM FEW030 12/11 A3043 RMK SC1 SLP305=
CYUL;2005-09-06 09:00;METAR CYUL 060900Z 00000KT 15SM SKC 14/11 A3043 RMK SLP306=
CYUL;2005-09-06 11:00;METAR CYUL 061100Z 00000KT 30SM FEW240 12/11 A3043 RMK CI0 SLP306=
CYUL;2005-09-06 12:00;METAR CYUL 061200Z 00000KT 30SM SCT240 17/14 A3043 RMK CI0 SLP307=
CYUL;2005-09-06 13:00;METAR CYUL 061300Z 22002KT 30SM BKN240 18/14 A3044 RMK CI0 SLP308=
CYUL;2005-09-06 14:00;METAR CYUL 061400Z 23003KT 30SM BKN240 20/15 A3044 RMK CI0 SLP309=
CYUL;2005-09-06 15:00;METAR CYUL 061500Z 24002KT 30SM BKN240 21/15 A3044 RMK CI0 SLP310=
CYUL;2005-09-06 16:00;METAR CYUL 061600Z 20005KT 30SM BKN240 22/16 A3043 RMK CI1 SLP305=
CYUL;2005-09-06 17:00;METAR CYUL 061700Z 19007KT 30SM BKN240 23/14 A3041 RMK CI1 SLP300=
CYUL;2005-09-06 18:00;METAR CYUL 061800Z 23009KT 30SM FEW040 BKN240 24/13 A3039 RMK CF1CI1 SLP293=
CYUL;2005-09-06 19:00;METAR CYUL 061900Z 20007KT 30SM FEW040 BKN240 25/14 A3037 RMK CF1CI1 SLP286=
CYUL;2005-09-06 21:00;METAR CYUL 062100Z 19006KT 30SM FEW045 BKN240 25/14 A3034 RMK CF1CI1 SLP274=
CYUL;2005-09-06 22:00;METAR CYUL 062200Z 21007KT 30SM BKN240 25/15 A3032 RMK CI1 SLP269=
CYUL;2005-09-07 00:00;METAR CYUL 070000Z 18005KT 15SM BKN240 22/15 A3032 RMK CI0 SLP266=
CYUL;2005-09-07 02:00;METAR CYUL 070200Z 21006KT 15SM FEW240 22/16 A3032 RMK CI1 SLP266=
CYUL;2005-09-07 03:00;METAR CYUL 070300Z 19006KT 15SM FEW025 FEW240 19/16 A3031 RMK SC1CI1 SLP264=
CYUL;2005-09-07 04:00;METAR CYUL 070400Z 19008KT 15SM FEW240 20/16 A3030 RMK CI1 SLP261=
CYUL;2005-09-07 05:00;METAR CYUL 070500Z 21007KT 15SM FEW240 19/16 A3030 RMK CI1 SLP261=
CYUL;2005-09-07 06:00;METAR CYUL 070600Z 21006KT 15SM SKC 19/15 A3030 RMK SLP259=
CYUL;2005-09-07 07:00;METAR CYUL 070700Z 23003KT 15SM SKC 18/15 A3029 RMK SLP257=
CYUL;2005-09-07 10:00;METAR CYUL 071000Z 23005KT 15SM FEW120 18/14 A3028 RMK AC1 SLP254=
CYUL;2005-09-07 11:00;METAR CYUL 071100Z 22007KT 15SM FEW120 18/13 A3028 RMK AC1 SLP255=
CYUL;2005-09-07 12:00;METAR CYUL 071200Z 25003KT 15SM SCT055 SCT240 18/14 A3029 RMK SC3CI0 SLP256=
CYUL;2005-09-07 13:00;METAR CYUL 071300Z 22008KT 15SM BKN055 20/15 A3028 RMK SC6 SLP255=
CYUL;2005-09-07 14:00;METAR CYUL 071400Z 22007KT 15SM BKN240 21/15 A3028 RMK CI2 SLP254=
CYUL;2005-09-07 15:00;METAR CYUL 071500Z 23008KT 15SM BKN240 22/16 A3027 RMK CI1 SLP249=
CYUL;2005-09-07 16:00;METAR CYUL 071600Z 22009KT 15SM SCT240 24/16 A3024 RMK CI0 SLP242=
CYUL;2005-09-07 17:00;METAR CYUL 071700Z 20008KT 15SM FEW040 SCT240 25/16 A3022 RMK CU1CI0 SLP235=
CYUL;2005-09-07 18:00;METAR CYUL 071800Z 22013KT 15SM FEW040 SCT240 26/15 A3020 RMK CU1CI0 SLP226=
CYUL;2005-09-07 19:00;METAR CYUL 071900Z 22014KT 15SM FEW040 FEW240 27/15 A3018 RMK CU1CI0 SLP221=
CYUL;2005-09-07 20:00;METAR CYUL 072000Z 23012G17KT 15SM FEW240 27/15 A3016 RMK CI0 SLP212=
CYUL;2005-09-07 21:00;METAR CYUL 072100Z 23012KT 15SM FEW240 27/15 A3014 RMK CI0 SLP206=
CYUL;2005-09-07 22:00;METAR CYUL 072200Z 23011G16KT 15SM FEW240 26/16 A3011 RMK CI0 SLP197=
CYUL;2005-09-07 23:00;METAR CYUL 072300Z 24007KT 15SM FEW240 25/15 A3011 RMK CI0 SLP195=
CYUL;2005-09-08 00:00;METAR CYUL 080000Z 25009KT 15SM FEW180 FEW240 23/15 A3010 RMK AC1CI0 SLP193=
CYUL;2005-09-08 01:00;METAR CYUL 080100Z 24008KT 15SM FEW180 FEW240 23/14 A3011 RMK AC1CI0 SLP195=
CYUL;2005-09-08 03:00;METAR CYUL 080300Z 22008KT 15SM BKN240 21/16 A3009 RMK CI1 SLP189=
CYUL;2005-09-08 04:00;METAR CYUL 080400Z 22007KT 15SM FEW240 21/15 A3008 RMK CI0 SLP185=
CYUL;2005-09-08 05:00;METAR CYUL 080500Z 22006KT 15SM FEW240 20/15 A3007 RMK CI0 SLP182=
CYUL;2005-09-08 06:00;METAR CYUL 080600Z 23007KT 15SM BKN065 20/15 A3006 RMK SC6 SLP181=
CYUL;2005-09-08 07:00;METAR CYUL 080700Z 25006KT 15SM BKN065 OVC090 20/14 A3006 RMK SC7AC1 SLP178=
CYUL;2005-09-08 10:00;METAR CYUL 081000Z 25006KT 12SM FEW065 BKN240 19/13 A3003 RMK SC1CI3 SLP170=
CYUL;2005-09-08 11:00;METAR CYUL 081100Z 26007KT 10SM BKN180 OVC220 19/13 A3003 RMK AC4CI2 SLP171=
CYUL;2005-09-08 12:00;METAR CYUL 081200Z 25007KT 10SM FEW075 FEW130 BKN180 OVC220 20/14 A3003 RMK AC1AC1AC6CS1 ACC ASOCT SLP170=
CYUL;2005-09-08 13:00;METAR CYUL 081300Z 26008KT 10SM SCT130 BKN180 OVC220 20/15 A3003 RMK AC3AC3CS1 SLP171=
CYUL;2005-09-08 14:00;METAR CYUL 081400Z 28007KT 10SM BKN058 BKN120 OVC180 20/15 A3003 RMK SC5AC2AC2 SLP168=
CYUL;2005-09-08 14:12;SPECI CYUL 081412Z 28006KT 8SM -TSRA BKN052 OVC120 20/ RMK SC6AC2 CB EMBD LTGCG=
CYUL;2005-09-08 14:45;SPECI CYUL 081445Z 33005KT 3SM -TSRA FEW023 BKN045 OVC090 18/ RERA RMK SC2SC6AC1 CB EMBD=
CYUL;2005-09-08 15:00;METAR CYUL 081500Z 36008KT 4SM -TSRA BKN022 OVC050 18/16 A3003 RERA RMK SC5SC3 CB EMBD SLP170=
CYUL;2005-09-08 15:30;SPECI CYUL 081530Z 02002KT 4SM -RA BR BKN027 OVC050 18/ RETS RMK SC6SC2 CB EMBD=
CYUL;2005-09-08 16:15;SPECI CYUL 081615Z 31002KT 1SM R06L/3000VP6000FT/D R06R/P6000FT/U -TSRA BR BKN010 OVC030 18/ RMK SF6SC2 CB EMBD=
CYUL;2005-09-08 16:22;SPECI CYUL 081622Z 31002KT 1 1/2SM R06L/3000VP6000FT/U R06R/P6000FT/D -TSRA BR BKN011 OVC030 18/ RERA RMK SF6SC2 CB EMBD=
CYUL;2005-09-08 16:40;SPECI CYUL 081640Z 29005KT 1 1/2SM -RA BR BKN009 OVC025 18/ RETSRA RMK SF6SC2 VIS VRB 1-2=
CYUL;2005-09-08 16:52;SPECI CYUL 081652Z 21004KT 1 1/2SM -TSRA BR BKN012 OVC025 18/ RERA RMK SF6SC2 CB EMBD VIS VRB 1-2=
CYUL;2005-09-08 17:00;METAR CYUL 081700Z 21003KT 1 1/2SM -TSRA BR BKN012 OVC018 18/17 A3003 RERA RMK SF6SC2 CB EMBD SLP169=
CYUL;2005-09-08 17:17;SPECI CYUL 081717Z 35004KT 1 1/4SM -RA BR BKN007 OVC015 18/ RETS RMK SF6SC2=
CYUL;2005-09-08 17:40;SPECI CYUL 081740Z 03003KT 1 1/2SM -RA BR BKN008 OVC014 18/ RETS RMK SF6SC2=
CYUL;2005-09-08 18:00;METAR CYUL 081800Z 04002KT 1 1/2SM -RA BR BKN008 OVC014 18/17 A3002 RETS RMK SF6SC2 /R14/ SLP167=
CYUL;2005-09-08 18:42;SPECI CYUL 081842Z 01008KT 3SM -RA BR OVC007 17/ RMK SF8=
CYUL;2005-09-08 19:00;METAR CYUL 081900Z 02012KT 3SM -RA BR OVC007 17/16 A3001 RMK SF8 SLP163=
CYUL;2005-09-08 19:15;SPECI CYUL 081915Z 04012G18KT 3SM -RA BR FEW008 OVC014 15/ RMK SF2SC6=
CYUL;2005-09-08 19:36;SPECI CYUL 081936Z 02011G16KT 4SM -RA BR FEW010 OVC018 15/ RMK SF2SC6=
CYUL;2005-09-08 20:00;METAR CYUL 082000Z 36010KT 3SM -RA BR FEW012 BKN025 OVC040 15/14 A3003 RMK SF1SC6SC2 /R11/ SLP169=
CYUL;2005-09-08 21:00;METAR CYUL 082100Z 05006KT 5SM -RA BR BKN028 BKN050 OVC065 15/14 A3001 RMK SC5SC2SC1 SLP164=
CYUL;2005-09-08 22:00;METAR CYUL 082200Z 04005KT 10SM -RA FEW030 OVC050 16/13 A3000 RMK SC2SC6 SLP160=
CYUL;2005-09-08 23:35;SPECI CYUL 082335Z 02002KT 10SM FEW012 BKN050 BKN080 15/ RMK SF1SC4AC2=
CYUL;2005-09-09 00:00;METAR CYUL 090000Z 00000KT 10SM FEW012 SCT050 BKN075 15/14 A3004 RMK SF1SC3AC3 SLP172=
CYUL;2005-09-09 01:00;METAR CYUL 090100Z 31002KT 10SM BCFG FEW014 FEW020 14/13 A3004 RMK SF2SC1 SLP172=
CYUL;2005-09-09 01:30;SPECI CYUL 090130Z 31002KT 8SM PRFG SCT009 13/ RMK SF4=
CYUL;2005-09-09 03:50;SPECI CYUL 090350Z 29003KT 4SM BR FEW007 12/ RMK ST2=
CYUL;2005-09-09 04:16;SPECI CYUL 090416Z 25003KT 6SM BR BKN006 13/ RMK ST6=
CYUL;2005-09-09 05:00;METAR CYUL 090500Z 27004KT 6SM BR BKN006 BKN011 13/13 A3005 RMK ST5SC1 SLP176=
CYUL;2005-09-09 06:00;METAR CYUL 090600Z 25003KT 8SM OVC006 14/14 A3006 RMK ST8 SLP178=
CYUL;2005-09-09 07:00;METAR CYUL 090700Z 26005KT 8SM FEW010 SCT080 14/13 A3006 RMK ST2AC2 SLP179=
CYUL;2005-09-09 07:23;SPECI CYUL 090723Z 32002KT 6SM BR BKN004 BKN080 13/ RMK ST4AC1=
CYUL;2005-09-09 09:00;METAR CYUL 090900Z 26002KT 6SM BR FEW005 FEW090 13/12 A3006 RMK ST1AC1 SLP180=
CYUL;2005-09-09 09:27;SPECI CYUL 090927Z 00000KT 6SM BR BKN008 13/ RMK ST5=
CYUL;2005-09-09 10:00;METAR CYUL 091000Z 00000KT 6SM BR SCT004 BKN018 BKN090 13/12 A3007 RMK SF2SC2AC1 SLP185=
CYUL;2005-09-09 11:00;METAR CYUL 091100Z 22003KT 12SM FEW004 BKN020 BKN035 14/13 A3008 RMK SF1SC5SC1 CU ASOCT SLP188=
CYUL;2005-09-09 12:22;SPECI CYUL 091222Z 25005KT 10SM BKN005 BKN018 15/ RMK ST7SC1 CU ASOCT=
CYUL;2005-09-09 13:00;METAR CYUL 091300Z 26005KT 12SM BKN009 BKN080 15/14 A3011 RMK SC7AC1 SLP197=
CYUL;2005-09-09 14:00;METAR CYUL 091400Z 29005KT 15SM FEW010 BKN014 BKN080 16/14 A3011 RMK SC2SC5AC1 SLP199=
CYUL;2005-09-09 16:00;METAR CYUL 091600Z 00000KT 15SM BKN028 19/13 A3011 RMK SC6 SLP198=
CYUL;2005-09-09 17:00;METAR CYUL 091700Z 23007KT 15SM BKN040 19/14 A3011 RMK SC6 CU ASOCT SLP197=
CYUL;2005-09-09 18:00;METAR CYUL 091800Z 28008KT 15SM BKN040 19/12 A3010 RMK CU6 SLP194=
CYUL;2005-09-09 19:00;METAR CYUL 091900Z 32009G17KT 30SM SCT060 20/09 A3009 RMK CU4 SLP191=
CYUL;2005-09-09 20:00;METAR CYUL 092000Z 30012KT 30SM SCT060 20/09 A3010 RMK CU3 SLP192=
CYUL;2005-09-09 21:00;METAR CYUL 092100Z 34009KT 30SM SCT060 20/08 A3011 RMK CU4 SLP196=
CYUL;2005-09-09 22:00;METAR CYUL 092200Z 33008KT 30SM FEW060 19/08 A3012 RMK SC2 CU ASOCT SLP199=
CYUL;2005-09-09 23:00;METAR CYUL 092300Z 32010KT 30SM FEW065 17/07 A3013 RMK SC1 SLP204=
CYUL;2005-09-10 00:00;METAR CYUL 100000Z 33006KT 15SM FEW065 13/07 A3015 RMK SC1 SLP210=
CYUL;2005-09-10 01:00;METAR CYUL 100100Z 32007KT 15SM FEW080 13/07 A3016 RMK AC1 SLP216=
CYUL;2005-09-10 02:00;METAR CYUL 100200Z 34004KT 15SM SKC 12/07 A3018 RMK SLP221=
CYUL;2005-09-10 03:00;METAR CYUL 100300Z 34005KT 15SM SKC 12/07 A3019 RMK SLP226=
CYUL;2005-09-10 04:00;METAR CYUL 100400Z 03010KT 15SM FEW240 12/06 A3022 RMK CI0 SLP234=
CYUL;2005-09-10 05:00;METAR CYUL 100500Z 01008KT 15SM FEW240 11/06 A3023 RMK CI0 SLP239=
CYUL;2005-09-10 06:00;METAR CYUL 100600Z 36006KT 15SM FEW240 10/05 A3024 RMK CI1 SLP241=
CYUL;2005-09-10 09:00;METAR CYUL 100900Z 31005KT 15SM SKC 06/05 A3027 RMK SLP251=
CYUL;2005-09-10 10:00;METAR CYUL 101000Z 34003KT 15SM FEW240 07/05 A3027 RMK CI1 SLP252=
CYUL;2005-09-10 11:00;METAR CYUL 101100Z 00000KT 30SM FEW240 07/05 A3029 RMK CI1 SLP258=
CYUL;2005-09-10 12:00;METAR CYUL 101200Z 36003KT 30SM SKC 09/06 A3030 RMK SLP263=
CYUL;2005-09-10 13:00;METAR CYUL 101300Z 02004KT 30SM SKC 11/06 A3031 RMK SLP266=
CYUL;2005-09-10 14:00;METAR CYUL 101400Z 02007KT 30SM FEW030 13/06 A3031 RMK CU1 SLP265=
CYUL;2005-09-10 15:00;METAR CYUL 101500Z 29002KT 30SM FEW030 15/06 A3031 RMK CU1 SLP264=
CYUL;2005-09-10 16:00;METAR CYUL 101600Z 00000KT 30SM FEW035 15/06 A3030 RMK CU1 SLP260=
CYUL;2005-09-10 17:00;METAR CYUL 101700Z 25005KT 30SM FEW040 16/07 A3029 RMK CU1 SLP259=
CYUL;2005-09-10 18:00;METAR CYUL 101800Z 23009KT 30SM FEW040 FEW240 17/08 A3030 RMK CU1CI1 SLP261=
CYUL;2005-09-10 19:00;METAR CYUL 101900Z 29008KT 30SM FEW040 FEW240 17/07 A3029 RMK CU1CI1 SLP257=
CYUL;2005-09-10 20:00;METAR CYUL 102000Z 28008KT 30SM FEW040 FEW240 18/07 A3029 RMK CU1CI1 SLP257=
CYUL;2005-09-10 22:00;METAR CYUL 102200Z 24005KT 30SM FEW240 18/07 A3026 RMK CI0 SLP248=
CYUL;2005-09-10 23:00;METAR CYUL 102300Z 23005KT 30SM FEW240 18/07 A3026 RMK CI0 SLP249=
CYUL;2005-09-11 00:00;METAR CYUL 110000Z 25004KT 15SM FEW240 16/07 A3027 RMK CI0 SLP253=
CYUL;2005-09-11 01:00;METAR CYUL 110100Z 23005KT 15SM SKC 15/07 A3027 RMK SLP251=
CYUL;2005-09-11 02:00;METAR CYUL 110200Z 23004KT 15SM SKC 14/07 A3028 RMK SLP255=
CYUL;2005-09-11 03:00;METAR CYUL 110300Z 22005KT 15SM SKC 14/08 A3028 RMK SLP255=
CYUL;2005-09-11 04:00;METAR CYUL 110400Z 23005KT 15SM SKC 14/08 A3029 RMK SLP258=
CYUL;2005-09-11 05:00;METAR CYUL 110500Z 28004KT 15SM FEW180 11/07 A3030 RMK AC1 AURBO SLP263=
CYUL;2005-09-11 06:00;METAR CYUL 110600Z 27004KT 15SM SKC 10/07 A3031 RMK AURBO SLP266=
CYUL;2005-09-11 07:00;METAR CYUL 110700Z 27003KT 15SM SKC 09/06 A3031 RMK AURBO SLP266=
CYUL;2005-09-11 09:00;METAR CYUL 110900Z 15003KT 15SM SKC 09/07 A3032 RMK SLP270=
CYUL;2005-09-11 10:00;METAR CYUL 111000Z 23002KT 15SM FEW240 11/08 A3033 RMK CI1 SLP272=
CYUL;2005-09-11 11:00;METAR CYUL 111100Z 23004KT 30SM BKN240 12/08 A3035 RMK CI1 SLP277=
CYUL;2005-09-11 12:00;METAR CYUL 111200Z 23007KT 30SM BKN240 14/09 A3035 RMK CI1 SLP277=
CYUL;2005-09-11 13:00;METAR CYUL 111300Z 22005KT 30SM FEW015 BKN240 14/11 A3033 RMK CF1CI2 CC ASOCT SLP273=
CYUL;2005-09-11 14:00;METAR CYUL 111400Z 24007KT 30SM BKN240 15/10 A3034 RMK CI2 SLP275=
CYUL;2005-09-11 15:00;METAR CYUL 111500Z 21009KT 30SM SCT240 17/10 A3032 RMK CI1 SLP270=
CYUL;2005-09-11 16:00;METAR CYUL 111600Z 19007KT 30SM FEW160 BKN240 18/11 A3030 RMK AC2CI1 SLP260=
CYUL;2005-09-11 17:00;METAR CYUL 111700Z 20010KT 30SM FEW160 BKN240 19/09 A3027 RMK AC1CI2 CC ASOCT SLP251=
CYUL;2005-09-11 18:00;METAR CYUL 111800Z 21010KT 30SM FEW160 BKN240 BKN250 20/10 A3023 RMK AC1CI2CC1 SLP238=
CYUL;2005-09-11 19:00;METAR CYUL 111900Z 22011KT 30SM BKN240 21/10 A3019 RMK CI3 CC ASOCT SLP225=
CYUL;2005-09-11 20:00;METAR CYUL 112000Z 23013KT 30SM BKN240 22/12 A3015 RMK CI2 CC ASOCT SLP211=
CYUL;2005-09-11 21:00;METAR CYUL 112100Z 23013KT 30SM BKN240 23/13 A3012 RMK CI2 SLP199=
CYUL;2005-09-11 22:00;METAR CYUL 112200Z 23015KT 30SM SCT240 23/13 A3009 RMK CI1 SLP191=
CYUL;2005-09-11 23:00;METAR CYUL 112300Z 23012G18KT 30SM FEW240 22/13 A3006 RMK CI1 SLP180=
CYUL;2005-09-12 00:00;METAR CYUL 120000Z 24011KT 15SM FEW240 21/13 A3004 RMK CI1 SLP174=
CYUL;2005-09-12 01:00;METAR CYUL 120100Z 25015G21KT 15SM FEW240 20/12 A3003 RMK CI1 SLP171=
CYUL;2005-09-12 03:00;METAR CYUL 120300Z 24011G19KT 15SM SCT100 20/10 A3000 RMK AC3 SLP158=
CYUL;2005-09-12 04:00;METAR CYUL 120400Z 25015G20KT 15SM BKN120 20/11 A2999 RMK AC7 SLP155=
CYUL;2005-09-12 05:00;METAR CYUL 120500Z 25018G25KT 15SM BKN090 20/10 A2999 RMK AC6 SLP156=
CYUL;2005-09-12 07:00;METAR CYUL 120700Z 24016G21KT 15SM FEW240 20/12 A2996 RMK CI1 SLP146=
CYUL;2005-09-12 08:00;METAR CYUL 120800Z 25016G22KT 15SM FEW240 20/13 A2996 RMK CI1 SLP145=
CYUL;2005-09-12 09:00;METAR CYUL 120900Z 26015KT 15SM FEW240 19/13 A2996 RMK CI1 SLP145=
CYUL;2005-09-12 10:00;METAR CYUL 121000Z 26015G20KT 15SM FEW240 19/14 A2996 RMK CI1 SLP146=
CYUL;2005-09-12 11:00;METAR CYUL 121100Z 26012G17KT 15SM FEW240 19/14 A2997 RMK CI1 SLP150=
CYUL;2005-09-12 12:00;METAR CYUL 121200Z 26011G16KT 15SM FEW240 19/14 A2998 RMK CI1 SLP151=
CYUL;2005-09-12 13:00;METAR CYUL 121300Z 26012KT 15SM FEW240 21/15 A2998 RMK CI1 SLP151=
CYUL;2005-09-12 14:00;METAR CYUL 121400Z 25011KT 12SM FEW240 23/16 A2997 RMK CI0 SLP150=
CYUL;2005-09-12 15:00;METAR CYUL 121500Z 27011KT 12SM FEW240 24/18 A2997 RMK CI0 SLP148=
CYUL;2005-09-12 16:00;METAR CYUL 121600Z 27012KT 12SM FEW240 25/18 A2996 RMK CI0 SLP145=
CYUL;2005-09-12 17:00;METAR CYUL 121700Z 27012KT 10SM SCT240 27/19 A2995 RMK CI2 SLP141=
CYUL;2005-09-12 18:00;METAR CYUL 121800Z 25012KT 10SM SCT240 28/20 A2994 RMK CI1 SLP139=
CYUL;2005-09-12 20:00;METAR CYUL 122000Z 27011KT 10SM FEW240 29/21 A2990 RMK CI1 SLP127=
CYUL;2005-09-12 21:00;METAR CYUL 122100Z 27009KT 10SM FEW240 29/20 A2990 RMK CI1 SLP126=
CYUL;2005-09-12 22:00;METAR CYUL 122200Z 22009KT 8SM SCT240 27/20 A2991 RMK CI1 SLP128=
CYUL;2005-09-12 23:00;METAR CYUL 122300Z 23006KT 8SM SCT240 26/20 A2991 RMK CI2 SLP129=
CYUL;2005-09-13 00:00;METAR CYUL 130000Z 24003KT 8SM SCT240 25/20 A2992 RMK CI2 SLP134=
CYUL;2005-09-13 01:00;METAR CYUL 130100Z 22005KT 7SM FEW240 24/20 A2993 RMK CI1 SLP137=
CYUL;2005-09-13 03:00;METAR CYUL 130300Z 23004KT 7SM SKC 23/20 A2994 RMK SLP138=
CYUL;2005-09-13 04:00;METAR CYUL 130400Z 21003KT 6SM HZ SKC 22/19 A2993 RMK SLP136=
CYUL;2005-09-13 05:00;METAR CYUL 130500Z 23002KT 6SM HZ SCT120 SCT240 22/19 A2993 RMK AC3CI0 SLP137=
CYUL;2005-09-13 06:00;METAR CYUL 130600Z 00000KT 6SM HZ SCT060 BKN085 22/19 A2993 RMK SC4AC1 SLP137=
CYUL;2005-09-13 07:00;METAR CYUL 130700Z 20003KT 6SM HZ FEW060 22/19 A2994 RMK SC2 SLP138=
CYUL;2005-09-13 08:00;METAR CYUL 130800Z 23003KT 5SM HZ FEW240 21/19 A2993 RMK CI1 SLP137=
CYUL;2005-09-13 09:00;METAR CYUL 130900Z 24006KT 4SM HZ SCT070 21/18 A2994 RMK AC3 SLP139=
CYUL;2005-09-13 10:00;METAR CYUL 131000Z 26005KT 4SM HZ FEW070 20/18 A2994 RMK AC2 SLP140=
CYUL;2005-09-13 11:00;METAR CYUL 131100Z 26003KT 2 1/2SM HZ FEW065 FEW240 20/18 A2996 RMK SC1CI0 SLP147=
CYUL;2005-09-13 12:00;METAR CYUL 131200Z 24008KT 3SM HZ FEW075 FEW240 21/18 A2998 RMK AC1CI0 CONTRAILS SLP153=
CYUL;2005-09-13 13:00;METAR CYUL 131300Z 24009KT 5SM HZ FEW080 22/18 A2999 RMK AC2 SLP156=
CYUL;2005-09-13 14:00;METAR CYUL 131400Z 22006KT 4SM HZ FEW080 BKN240 23/18 A2999 RMK AC2CI1 SLP155=
CYUL;2005-09-13 15:00;METAR CYUL 131500Z 22009KT 6SM HZ FEW080 SCT240 24/18 A2998 RMK AC1CI1 SLP151=
CYUL;2005-09-13 16:00;METAR CYUL 131600Z 23009KT 6SM HZ FEW240 25/18 A2996 RMK CI1 SLP146=
CYUL;2005-09-13 17:00;METAR CYUL 131700Z 22010KT 6SM HZ FEW240 27/19 A2995 RMK CI0 SLP141=
CYUL;2005-09-13 18:00;METAR CYUL 131800Z 19008KT 6SM HZ SKC 28/20 A2992 RMK SLP134=
CYUL;2005-09-13 19:00;METAR CYUL 131900Z 20008KT 6SM HZ FEW040 FEW240 29/20 A2990 RMK CU1CI1 SLP127=
CYUL;2005-09-13 21:00;METAR CYUL 132100Z 23009KT 6SM HZ FEW050 29/20 A2988 RMK CU1 SLP118=
CYUL;2005-09-13 22:00;METAR CYUL 132200Z 21006KT 6SM HZ SKC 28/19 A2987 RMK SLP115=
CYUL;2005-09-13 23:00;METAR CYUL 132300Z 20006KT 6SM HZ FEW240 26/19 A2989 RMK CI1 SLP121=
CYUL;2005-09-14 00:00;METAR CYUL 140000Z 20006KT 7SM FEW240 26/18 A2990 RMK CI1 SLP127=
CYUL;2005-09-14 01:00;METAR CYUL 140100Z 21006KT 7SM FEW240 25/17 A2991 RMK CI1 SLP128=
CYUL;2005-09-14 02:00;METAR CYUL 140200Z 21005KT 8SM FEW240 24/18 A2990 RMK CI1 SLP127=
CYUL;2005-09-14 04:00;METAR CYUL 140400Z 22005KT 8SM SKC 21/18 A2991 RMK SLP129=
CYUL;2005-09-14 05:00;METAR CYUL 140500Z 16003KT 8SM SKC 19/18 A2992 RMK SLP132=
CYUL;2005-09-14 06:00;METAR CYUL 140600Z 15002KT 8SM SKC 20/17 A2993 RMK SLP135=
CYUL;2005-09-14 07:00;METAR CYUL 140700Z 15003KT 8SM SKC 19/16 A2991 RMK SLP128=
CYUL;2005-09-14 08:00;METAR CYUL NIL=
CYUL;2005-09-14 09:00;METAR CYUL 140900Z 16005KT 8SM SKC 18/16 A2988 RMK SLP118=
CYUL;2005-09-14 10:00;METAR CYUL 141000Z 15005KT 8SM SKC 18/15 A2988 RMK SLP118=
CYUL;2005-09-14 11:00;METAR CYUL 141100Z 17004KT 8SM SKC 19/16 A2990 RMK SLP125=
CYUL;2005-09-14 12:00;METAR CYUL 141200Z 16006KT 8SM SKC 20/17 A2990 RMK SLP127=
CYUL;2005-09-14 13:00;METAR CYUL 141300Z 20003KT 8SM SKC 22/17 A2990 RMK SLP127=
CYUL;2005-09-14 14:00;METAR CYUL 141400Z 16004KT 8SM SKC 24/18 A2989 RMK SLP123=
CYUL;2005-09-14 15:00;METAR CYUL 141500Z 19006KT 8SM SKC 26/18 A2989 RMK SLP121=
CYUL;2005-09-14 16:00;METAR CYUL 141600Z 23007KT 8SM SKC 27/19 A2987 RMK SLP117=
CYUL;2005-09-14 17:00;METAR CYUL 141700Z 22012KT 8SM FEW190 SCT240 28/18 A2987 RMK AC0CI0 SLP114=
CYUL;2005-09-14 18:00;METAR CYUL 141800Z 22010KT 8SM FEW240 29/18 A2985 RMK CI0 SLP109=
CYUL;2005-09-14 19:00;METAR CYUL 141900Z 23011KT 8SM FEW220 29/19 A2984 RMK CI0 SLP106=
CYUL;2005-09-14 20:00;METAR CYUL 142000Z 25011KT 8SM SCT220 29/17 A2983 RMK CI0 SLP101=
CYUL;2005-09-14 21:00;METAR CYUL 142100Z 23012KT 6SM HZ FEW240 29/17 A2982 RMK CI0 SLP099=
CYUL;2005-09-14 23:00;METAR CYUL 142300Z 24009KT 6SM HZ FEW150 BKN240 27/17 A2985 RMK AC1CI1 SLP107=
CYUL;2005-09-15 00:00;METAR CYUL 150000Z 22007KT 8SM SCT120 BKN240 26/17 A2987 RMK AC2CI1 SLP116=
CYUL;2005-09-15 01:00;METAR CYUL 150100Z 25005KT 6SM HZ BKN090 BKN240 25/17 A2990 RMK AC5CI1 SLP124=
CYUL;2005-09-15 02:00;METAR CYUL 150200Z 33011G16KT 8SM FEW095 BKN130 OVC240 24/16 A2992 RMK AC2AC4CI2 SLP132=
CYUL;2005-09-15 03:00;METAR CYUL 150300Z 31005KT 10SM OVC080 22/15 A2995 RMK AC8 SLP141=
CYUL;2005-09-15 03:05;SPECI CYUL 150305Z 30005KT 10SM -SHRA OVC080 22/ RMK AC8=
CYUL;2005-09-15 04:00;METAR CYUL 150400Z 00000KT 10SM OVC065 21/16 A2995 RMK SC8 SLP143=
CYUL;2005-09-15 06:00;METAR CYUL 150600Z 22005KT 10SM -SHRA FEW100 OVC140 21/18 A2996 RMK AC1AC7 SLP146=
CYUL;2005-09-15 06:35;SPECI CYUL 150635Z 27004KT 10SM FEW070 BKN085 OVC130 20/ RMK AC1AC6AC2=
CYUL;2005-09-15 09:00;METAR CYUL 150900Z 23002KT 10SM SCT065 OVC100 20/17 A3000 RMK SC4AC4 SLP158=
CYUL;2005-09-15 10:00;METAR CYUL 151000Z 26002KT 10SM FEW090 OVC160 20/17 A3000 RMK AC2AC6 SLP161=
CYUL;2005-09-15 11:00;METAR CYUL 151100Z 31004KT 12SM BKN045 OVC080 19/17 A3004 RMK SC6AC2 SLP173=
CYUL;2005-09-15 11:35;SPECI CYUL 151135Z 30004KT 12SM -SHRA BKN075 BKN110 19/ RMK AC6AC1=
CYUL;2005-09-15 12:00;METAR CYUL 151200Z 31004KT 12SM BKN067 OVC100 20/17 A3005 RMK AC7AC1 SLP175=
CYUL;2005-09-15 13:00;METAR CYUL 151300Z 31002KT 12SM OVC050 20/18 A3006 RMK SC8 SLP180=
CYUL;2005-09-15 13:50;SPECI CYUL 151350Z 34004KT 10SM -RA BKN047 OVC065 21/ RMK SC6SC2=
CYUL;2005-09-15 14:00;METAR CYUL 151400Z 32002KT 10SM -RA FEW037 BKN047 BKN090 21/17 A3008 RMK SC2SC4AC2 SLP185=
CYUL;2005-09-15 14:19;SPECI CYUL 151419Z 00000KT 12SM BKN046 OVC090 21/ RMK SC6AC2=
CYUL;2005-09-15 15:00;METAR CYUL 151500Z 04003KT 12SM FEW040 SCT060 BKN100 OVC230 21/17 A3008 RMK SC2SC2AC3CI0 SLP186=
CYUL;2005-09-15 16:00;METAR CYUL 151600Z 03004KT 12SM SCT060 BKN100 BKN210 22/17 A3008 RMK SC3AC2CI0 SLP188=
CYUL;2005-09-15 17:00;METAR CYUL 151700Z 10002KT 12SM BKN060 BKN100 BKN210 23/17 A3009 RMK SC5AC2CI0 SLP189=
CYUL;2005-09-15 18:00;METAR CYUL 151800Z 14003KT 15SM FEW040 BKN060 BKN100 24/18 A3008 RMK SC2SC4AC2 SLP186=
CYUL;2005-09-15 19:00;METAR CYUL 151900Z 11004KT 15SM BKN030 BKN090 23/18 A3007 RMK SC6AC1 SLP184=
CYUL;2005-09-15 20:00;METAR CYUL 152000Z 09004KT 15SM SCT040 BKN090 23/17 A3007 RMK SC3AC3 TCU ASOCT SLP184=
CYUL;2005-09-15 21:00;METAR CYUL 152100Z 08008KT 15SM BKN040 BKN090 24/18 A3008 RMK SC5AC1 TCU ASOCT SLP186=
CYUL;2005-09-15 22:00;METAR CYUL 152200Z 04007KT 15SM FEW040 BKN065 BKN090 23/16 A3010 RMK SC1SC5AC2 SLP192=
CYUL;2005-09-15 23:00;METAR CYUL 152300Z 04006KT 15SM BKN055 BKN240 23/16 A3011 RMK SC5CI0 SLP196=
CYUL;2005-09-16 00:00;METAR CYUL 160000Z 07006KT 15SM BKN090 22/15 A3013 RMK AC5 SLP204=
CYUL;2005-09-16 01:00;METAR CYUL 160100Z 06006KT 15SM SCT060 BKN090 22/15 A3015 RMK SC3AC2 SLP210=
CYUL;2005-09-16 04:00;METAR CYUL 160400Z 02006KT 15SM BKN058 20/12 A3018 RMK SC6 SLP219=
CYUL;2005-09-16 05:00;METAR CYUL 160500Z 03009KT 15SM FEW070 BKN220 18/12 A3018 RMK AC2CI3 SLP220=
CYUL;2005-09-16 06:00;METAR CYUL 160600Z 04009KT 15SM BKN060 BKN090 BKN220 18/11 A3019 RMK SC5AC2CI1 SLP222=
CYUL;2005-09-16 07:00;METAR CYUL 160700Z 04008KT 15SM BKN062 BKN090 OVC220 17/11 A3018 RMK SC5AC2CI2 SLP220=
CYUL;2005-09-16 08:00;METAR CYUL 160800Z 03009KT 15SM FEW060 SCT090 BKN220 17/11 A3018 RMK SC2AC2CI2 SLP221=
CYUL;2005-09-16 09:00;METAR CYUL 160900Z 03008G15KT 15SM BKN065 BKN090 BKN220 17/11 A3018 RMK SC6AC1CI1 SLP220=
CYUL;2005-09-16 10:00;METAR CYUL 161000Z 05012G18KT 15SM FEW060 BKN220 17/11 A3017 RMK SC2CI3 SLP218=
CYUL;2005-09-16 12:00;METAR CYUL 161200Z 02012KT 15SM FEW060 SCT160 BKN220 17/11 A3018 RMK SC2AC2CI2 CC ASOCT SLP220=
CYUL;2005-09-16 13:00;METAR CYUL 161300Z 02013KT 15SM FEW060 BKN180 OVC220 17/11 A3019 RMK SC1AC6CI1 SLP225=
CYUL;2005-09-16 14:00;METAR CYUL 161400Z 03012KT 15SM BKN050 OVC065 17/11 A3020 RMK SC6SC2 SLP227=
CYUL;2005-09-16 15:00;METAR CYUL 161500Z 06012KT 15SM BKN055 OVC170 19/11 A3019 RMK SC6AC2 SLP225=
CYUL;2005-09-16 17:00;METAR CYUL 161700Z 03011KT 15SM SCT045 OVC160 20/12 A3014 RMK SC3AC5 SLP208=
CYUL;2005-09-16 18:00;METAR CYUL 161800Z 04011KT 15SM FEW060 OVC140 20/13 A3013 RMK SC2AC6 SLP203=
CYUL;2005-09-16 19:00;METAR CYUL 161900Z 04014KT 15SM FEW035 OVC150 20/13 A3011 RMK SC2AC6 SLP197=
CYUL;2005-09-16 20:00;METAR CYUL 162000Z 04014KT 15SM OVC100 20/13 A3008 RMK AC8 SLP188=
CYUL;2005-09-16 20:47;SPECI CYUL 162047Z 04009KT 15SM -RA OVC050 19/ RMK SC8=
CYUL;2005-09-16 21:00;METAR CYUL 162100Z 04008KT 10SM -RA BKN030 OVC050 19/14 A3008 RMK SC5SC3 SLP188=
CYUL;2005-09-16 21:43;SPECI CYUL 162143Z 03011KT 10SM BKN030 OVC050 18/ RMK SC6SC2=
CYUL;2005-09-16 22:00;METAR CYUL 162200Z 03011G16KT 12SM BKN030 OVC040 18/15 A3008 RMK SC6SC2 SLP186=
CYUL;2005-09-16 22:29;SPECI CYUL 162229Z 04008G15KT 10SM -RA BKN030 OVC040 18/ RMK SC6SC2=
CYUL;2005-09-16 23:00;METAR CYUL 162300Z 02005KT 6SM -RA OVC032 17/15 A3008 RMK SC8 SLP187=
CYUL;2005-09-17 00:00;METAR CYUL 170000Z 02013KT 8SM -RA FEW035 OVC100 17/15 A3006 RMK SC2AC6 SLP181=
CYUL;2005-09-17 00:30;SPECI CYUL 170030Z 03014KT 8SM -RA FEW007 SCT040 OVC100 16/ RMK SF2SC2AC5=
CYUL;2005-09-17 01:00;METAR CYUL 170100Z 05014KT 6SM -RA BKN006 OVC040 16/15 A3005 RMK SF5SC3 SLP175=
CYUL;2005-09-17 02:00;METAR CYUL 170200Z 01006KT 4SM -RA BR BKN005 OVC020 16/16 A3003 RMK SF7SC1 SLP169=
CYUL;2005-09-17 03:00;METAR CYUL 170300Z 04012KT 5SM -RA BR BKN006 OVC020 17/16 A3000 RMK SF6SC2 SLP159=
CYUL;2005-09-17 03:16;SPECI CYUL 170316Z 03009KT 2 1/2SM -RA BR BKN007 OVC020 RMK SF7SC1=
CYUL;2005-09-17 04:00;METAR CYUL 170400Z 04009KT 3SM -RA BR BKN008 OVC020 17/16 A2999 RERA RMK SF6SC2 /R17/ SLP156=
CYUL;2005-09-17 06:00;METAR CYUL 170600Z 02012KT 4SM RA BR BKN005 OVC015 16/16 A2993 RMK SF6SC2 SLP136=
CYUL;2005-09-17 07:00;METAR CYUL 170700Z 04012KT 6SM -RA BR BKN005 OVC014 16/15 A2991 RERA RMK SF6SC2 SLP128=
CYUL;2005-09-17 09:00;METAR CYUL 170900Z 02009KT 5SM -DZ BR BKN005 OVC009 17/16 A2989 RMK SF6SF2 SLP123=
CYUL;2005-09-17 10:00;METAR CYUL 171000Z 03011KT 4SM -DZ BR OVC003 16/16 A2989 RMK SF8 SLP123=
CYUL;2005-09-17 10:16;SPECI CYUL 171016Z 02011KT 4SM -RA BR OVC003 16/ RMK SF8=
CYUL;2005-09-17 10:28;SPECI CYUL 171028Z 03010KT 4SM -RADZ BR OVC002 16/ RMK SF8=
CYUL;2005-09-17 11:40;SPECI CYUL 171140Z 03011KT 4SM -DZ BR OVC003 16/ RMK SF8=
CYUL;2005-09-17 12:00;METAR CYUL 171200Z 03013KT 4SM BR OVC003 16/15 A2989 RMK SF8 SLP121=
CYUL;2005-09-17 13:00;METAR CYUL 171300Z 03011G16KT 4SM BR OVC004 16/15 A2989 RMK SF8 SLP121=
CYUL;2005-09-17 14:00;METAR CYUL 171400Z 02012KT 4SM BR OVC004 17/16 A2990 RMK SF8 SLP124=
CYUL;2005-09-17 15:00;METAR CYUL 171500Z 02013KT 4SM BR OVC004 17/16 A2990 RMK SF8 SLP124=
CYUL;2005-09-17 16:00;METAR CYUL 171600Z 03013KT 6SM BR OVC005 17/16 A2989 RMK SF8 SLP123=
CYUL;2005-09-17 16:48;SPECI CYUL 171648Z 02015KT 2 1/2SM BR OVC004 16/ RMK SF8=
CYUL;2005-09-17 17:00;METAR CYUL 171700Z 02014KT 2 1/2SM -DZ BR OVC005 16/15 A2990 RMK SF8 SLP124=
CYUL;2005-09-17 18:00;METAR CYUL 171800Z 02011G16KT 3SM -DZ BR OVC005 16/15 A2989 RMK SF8 SLP122=
CYUL;2005-09-17 18:21;SPECI CYUL 171821Z 01010KT 2 1/2SM -RA BR OVC006 16/ RMK SF8=
CYUL;2005-09-17 19:00;METAR CYUL 171900Z 01010KT 2SM -RA BR OVC005 16/15 A2989 RMK SF8 SLP121=
CYUL;2005-09-17 20:00;METAR CYUL 172000Z 01009KT 2 1/4SM -DZ BR OVC007 16/15 A2989 RMK SF8 SLP121=
CYUL;2005-09-17 21:00;METAR CYUL 172100Z 36010KT 1 3/4SM -RA BR OVC008 16/15 A2989 RMK SF8 SLP121=
CYUL;2005-09-17 22:00;METAR CYUL 172200Z 36012KT 1 1/2SM -RA BR BKN007 OVC011 16/15 A2990 RMK SF6SF2 SLP124=
CYUL;2005-09-17 23:00;METAR CYUL 172300Z 01009G17KT 2 1/2SM -RA BR OVC008 15/15 A2990 RMK SF8 SLP127=
CYUL;2005-09-18 00:00;METAR CYUL 180000Z 02013G18KT 3SM -RA BR OVC008 15/14 A2991 RMK SF8 SLP130=
CYUL;2005-09-18 00:23;SPECI CYUL 180023Z 01013KT 4SM -DZ BR OVC008 15/ RMK SF8=
CYUL;2005-09-18 01:00;METAR CYUL 180100Z 03011KT 4SM -DZ BR OVC009 15/14 A2992 RMK SF8 SLP133=
CYUL;2005-09-18 02:00;METAR CYUL 180200Z 04010G15KT 5SM -DZ BR OVC008 15/14 A2993 RMK SF8 SLP135=
CYUL;2005-09-18 02:15;SPECI CYUL 180215Z 04008KT 5SM -RADZ BR OVC009 15/ RMK SF8=
CYUL;2005-09-18 03:00;METAR CYUL 180300Z 03007KT 5SM -RADZ BR OVC009 15/14 A2994 RMK SF8 SLP138=
CYUL;2005-09-18 04:00;METAR CYUL 180400Z 02007KT 5SM -DZ BR OVC009 15/14 A2994 RMK SF8 SLP138=
CYUL;2005-09-18 04:32;SPECI CYUL 180432Z 02009KT 10SM OVC009 15/ RMK SF8=
CYUL;2005-09-18 06:00;METAR CYUL 180600Z 36010KT 7SM -DZ OVC009 15/14 A2995 RMK SF8 SLP141=
CYUL;2005-09-18 06:25;SPECI CYUL 180625Z 36007KT 4SM -RADZ BR OVC009 15/ RMK SF8=
CYUL;2005-09-18 08:00;METAR CYUL 180800Z 36008KT 7SM -DZ OVC009 14/13 A2995 RMK SF8 SLP143=
CYUL;2005-09-18 08:30;SPECI CYUL 180830Z 01008KT 10SM OVC010 14/ RMK SF8=
CYUL;2005-09-18 09:00;METAR CYUL 180900Z 36008KT 10SM OVC009 14/13 A2996 RMK SF8 SLP145=
CYUL;2005-09-18 10:00;METAR CYUL 181000Z 01005KT 10SM OVC009 14/13 A2997 RMK SF8 SLP149=
CYUL;2005-09-18 11:00;METAR CYUL 181100Z 01007KT 15SM BKN009 OVC020 14/13 A2999 RMK SF6SC2 SLP157=
CYUL;2005-09-18 11:33;SPECI CYUL 181133Z 02005KT 15SM FEW008 BKN014 OVC020 15/ RMK SF2SC4SC2=
CYUL;2005-09-18 12:00;METAR CYUL 181200Z 01006KT 15SM SCT011 OVC020 15/13 A3001 RMK SF4SC4 SLP162=
CYUL;2005-09-18 12:18;SPECI CYUL 181218Z 33005KT 15SM BKN011 OVC020 15/ RMK SF6SC2=
CYUL;2005-09-18 13:00;METAR CYUL 181300Z 01004KT 15SM BKN010 OVC020 15/13 A3001 RMK SF6SC2 SLP164=
CYUL;2005-09-18 13:50;SPECI CYUL 181350Z 01006KT 15SM SCT012 BKN020 OVC040 16/ RMK SF3SC3SC2=
CYUL;2005-09-18 14:00;METAR CYUL 181400Z 02005KT 15SM BKN020 OVC035 16/14 A3003 RMK SC6SC2 SLP169=
CYUL;2005-09-18 15:00;METAR CYUL 181500Z 02004KT 15SM BKN020 OVC035 17/13 A3003 RMK SC5SC3 SLP170=
CYUL;2005-09-18 16:00;METAR CYUL 181600Z 07003KT 15SM SCT020 OVC037 17/14 A3003 RMK SC3SC5 SLP169=
CYUL;2005-09-18 17:00;METAR CYUL 181700Z 28004KT 15SM SCT020 OVC035 18/14 A3003 RMK SC4SC4 SLP168=
CYUL;2005-09-18 18:00;METAR CYUL 181800Z 33003KT 15SM BKN038 19/14 A3002 RMK SC7 SLP165=
CYUL;2005-09-18 19:00;METAR CYUL 181900Z 26007KT 15SM BKN040 20/14 A3003 RMK SC7 SLP168=
CYUL;2005-09-18 20:00;METAR CYUL 182000Z 20008KT 15SM FEW025 SCT050 SCT240 20/15 A3002 RMK SC1SC3CI1 SLP167=
CYUL;2005-09-18 21:00;METAR CYUL 182100Z 21008KT 15SM FEW050 SCT240 20/15 A3002 RMK CU2CI0 SLP167=
CYUL;2005-09-18 22:00;METAR CYUL 182200Z 20007KT 15SM FEW050 FEW240 20/15 A3002 RMK CU1CI0 SLP166=
CYUL;2005-09-19 00:00;METAR CYUL 190000Z 19006KT 15SM FEW150 FEW240 18/15 A3002 RMK AC1CI0 SLP167=
CYUL;2005-09-19 01:00;METAR CYUL 190100Z 19005KT 15SM FEW240 17/15 A3003 RMK CI0 SLP171=
CYUL;2005-09-19 03:00;METAR CYUL 190300Z 17004KT 15SM FEW090 FEW240 15/14 A3004 RMK AC1CI1 SLP174=
CYUL;2005-09-19 04:00;METAR CYUL 190400Z 18006KT 15SM FEW060 FEW240 15/14 A3004 RMK SC1CI1 SLP174=
CYUL;2005-09-19 05:00;METAR CYUL 190500Z 18005KT 15SM FEW060 FEW090 SCT240 15/14 A3005 RMK SC2AC1CI0 SLP175=
CYUL;2005-09-19 07:00;METAR CYUL 190700Z 21007KT 15SM BKN085 OVC110 17/15 A3004 RMK AC6AC2 SLP174=
CYUL;2005-09-19 08:00;METAR CYUL 190800Z 23006KT 15SM FEW090 FEW120 17/15 A3005 RMK AC2AC1 SLP175=
CYUL;2005-09-19 09:00;METAR CYUL 190900Z 24007KT 15SM FEW040 16/15 A3006 RMK SC1 SLP180=
CYUL;2005-09-19 10:00;METAR CYUL 191000Z 25009KT 15SM FEW030 FEW240 16/14 A3008 RMK CF1CI1 SLP186=
CYUL;2005-09-19 11:00;METAR CYUL 191100Z 24008KT 15SM FEW010 FEW080 FEW240 16/14 A3009 RMK SF1AC1CI1 SLP191=
CYUL;2005-09-19 12:00;METAR CYUL 191200Z 26008KT 15SM FEW030 SCT100 SCT150 16/14 A3012 RMK SC1AC2AC1 SLP199=
CYUL;2005-09-19 13:00;METAR CYUL 191300Z 27009KT 15SM FEW100 FEW240 17/14 A3014 RMK AC2CI1 SLP205=
CYUL;2005-09-19 14:00;METAR CYUL 191400Z 28004KT 15SM FEW150 FEW240 19/15 A3014 RMK AC2CI1 SLP207=
CYUL;2005-09-19 15:00;METAR CYUL 191500Z 25005KT 15SM SCT110 20/15 A3015 RMK AC2 SLP209=
CYUL;2005-09-19 16:00;METAR CYUL 191600Z 23008KT 15SM FEW050 FEW100 21/15 A3017 RMK CF1AC2 SLP216=
CYUL;2005-09-19 17:00;METAR CYUL 191700Z 25010KT 15SM FEW030 22/15 A3015 RMK CU2 SLP211=
CYUL;2005-09-19 18:00;METAR CYUL 191800Z 26012KT 15SM SCT035 BKN240 23/15 A3015 RMK CU4CI0 SLP209=
CYUL;2005-09-19 20:00;METAR CYUL 192000Z 26013KT 15SM FEW040 SCT220 23/15 A3013 RMK CU2CI0 SLP203=
CYUL;2005-09-19 21:00;METAR CYUL 192100Z 30008KT 15SM FEW040 SCT220 22/15 A3012 RMK CU1CI0 SLP199=
CYUL;2005-09-19 22:00;METAR CYUL 192200Z 27003KT 15SM FEW060 BKN240 21/15 A3011 RMK CU1CI2 CS ASOCT SLP198=
CYUL;2005-09-19 23:00;METAR CYUL 192300Z 29004KT 15SM BKN090 OVC240 19/15 A3011 RMK AC6CI1 SLP198=
CYUL;2005-09-20 00:00;METAR CYUL 200000Z 00000KT 15SM SCT090 OVC240 20/15 A3011 RMK AC3CI2 SLP197=
CYUL;2005-09-20 01:00;METAR CYUL 200100Z 00000KT 15SM SCT090 OVC240 20/14 A3009 RMK AC3CI4 SLP191=
CYUL;2005-09-20 02:00;METAR CYUL 200200Z 12004KT 15SM FEW150 OVC210 19/15 A3007 RMK AC2CS2 SLP184=
CYUL;2005-09-20 03:00;METAR CYUL 200300Z 13007KT 15SM FEW150 BKN210 19/15 A3005 RMK AC2CI2 SLP176=
CYUL;2005-09-20 04:00;METAR CYUL 200400Z 15004KT 15SM BKN170 19/15 A3005 RMK AC6 SLP177=
CYUL;2005-09-20 05:00;METAR CYUL 200500Z 13005KT 15SM BKN170 19/15 A3003 RMK AC5 SLP168=
CYUL;2005-09-20 06:00;METAR CYUL 200600Z 13008KT 15SM BKN160 19/15 A2999 RMK AC6 SLP156=
CYUL;2005-09-20 07:00;METAR CYUL 200700Z 13013KT 15SM BKN120 BKN160 18/16 A2995 RMK AC5AC2 SLP141=
CYUL;2005-09-20 08:00;METAR CYUL 200800Z 13008KT 15SM BKN110 BKN150 18/16 A2990 RMK AC6AC2 SLP125=
CYUL;2005-09-20 09:00;METAR CYUL 200900Z 13006KT 15SM FEW065 BKN090 OVC120 18/16 A2987 RMK SC2AC5AC1 SLP115=
CYUL;2005-09-20 10:00;METAR CYUL 201000Z 16010KT 15SM BKN075 OVC120 19/15 A2983 RMK AC6AC1 SLP103=
CYUL;2005-09-20 11:00;METAR CYUL 201100Z 15010KT 15SM BKN062 OVC090 19/15 A2980 RMK SC6AC2 SLP092=
CYUL;2005-09-20 12:00;METAR CYUL 201200Z 16014KT 15SM FEW060 BKN090 BKN120 OVC210 19/15 A2979 RMK SC2AC2AC2CI0 TCU EMBD SLP088=
CYUL;2005-09-20 13:00;METAR CYUL 201300Z 18010KT 12SM BKN044 OVC090 20/15 A2978 RMK SC6AC2 CB EMBD SLP085=
CYUL;2005-09-20 13:37;SPECI CYUL 201337Z 22014KT 12SM -SHRA BKN030 OVC090 22/ RMK SC6AC2 CB EMBD=
CYUL;2005-09-20 14:00;METAR CYUL 201400Z 22017G29KT 6SM -SHRA BKN032 OVC090 22/17 A2976 RMK SC7AC1 SLP079=
CYUL;2005-09-20 14:32;SPECI CYUL 201432Z 22018G26KT 190V250 12SM SCT029 BKN052 22/ RMK SC3CF2 TCU ASOCT=
CYUL;2005-09-20 15:00;METAR CYUL 201500Z 21014G22KT 180V240 12SM BKN028 BKN050 23/18 A2974 RMK SC6CF2 SLP072=
CYUL;2005-09-20 16:00;METAR CYUL 201600Z 22020G28KT 180V260 12SM FEW030 BKN056 BKN084 24/18 A2972 RMK SC2CF2ACC2 SLP066=
CYUL;2005-09-20 17:00;METAR CYUL 201700Z 25020G27KT 210V280 12SM VCSH BKN027 BKN051 BKN072 23/17 A2971 RMK SC6SC1ACC1 TCU SAOCT SLP063=
CYUL;2005-09-20 18:00;METAR CYUL 201800Z 25024G31KT 220V280 15SM FEW030TCU BKN046 BKN075 BKN095 25/14 A2971 RMK TCU1SC4AC1AC1 SLP061=
CYUL;2005-09-20 19:00;METAR CYUL 201900Z 25025G32KT 220V290 30SM FEW030 BKN047 OVC074 24/14 A2973 RMK CF1SC6AC1 TCU ASOCT SLP066=
CYUL;2005-09-20 20:00;METAR CYUL 202000Z 26025G32KT 30SM FEW028 BKN054 BKN070 23/14 A2975 RMK CF2SC5ACC1 SLP075=
CYUL;2005-09-20 21:00;METAR CYUL 202100Z 27019G31KT 30SM FEW026 FEW044 BKN068 22/13 A2976 RMK CF1SC2ACC3 SLP080=
CYUL;2005-09-20 22:00;METAR CYUL 202200Z 27015G25KT 30SM FEW030TCU FEW050 BKN068 22/13 A2979 RMK TCU1SC2ACC2 SLP087=
CYUL;2005-09-20 23:00;METAR CYUL 202300Z 27016G26KT 240V300 30SM FEW048 SCT066 20/12 A2982 RMK SC2ACC2 SLP097=
CYUL;2005-09-21 00:00;METAR CYUL 210000Z 27013G19KT 15SM FEW030 FEW040 FEW058 FEW085 19/12 A2985 RMK CF1SC1SC1AC1 SLP109=
CYUL;2005-09-21 03:00;METAR CYUL 210300Z 30006KT 15SM FEW070 16/12 A2990 RMK AC2 SLP125=
CYUL;2005-09-21 04:00;METAR CYUL 210400Z 27004KT 15SM FEW070 14/12 A2991 RMK AC2 SLP130=
CYUL;2005-09-21 05:00;METAR CYUL 210500Z 25006KT 15SM SCT035 16/13 A2992 RMK SC3 SLP133=
CYUL;2005-09-21 06:00;METAR CYUL 210600Z 26007KT 15SM FEW020 FEW035 15/12 A2994 RMK CF1SC1 SLP139=
CYUL;2005-09-21 07:00;METAR CYUL 210700Z 27007KT 15SM FEW030 14/11 A2994 RMK SC1 SLP140=
CYUL;2005-09-21 09:00;METAR CYUL 210900Z 24008KT 15SM FEW030 14/11 A2996 RMK CF1 SLP145=
CYUL;2005-09-21 10:00;METAR CYUL 211000Z 25011KT 15SM FEW240 13/10 A2998 RMK CI1 SLP151=
CYUL;2005-09-21 11:00;METAR CYUL 211100Z 25006KT 30SM FEW060 FEW120 13/10 A2998 RMK SC1AC1 SLP152=
CYUL;2005-09-21 12:00;METAR CYUL 211200Z 23009KT 30SM FEW050 SCT090 15/11 A2997 RMK SC2AC2 SLP149=
CYUL;2005-09-21 13:00;METAR CYUL 211300Z 23013KT 30SM FEW012 BKN050 BKN100 16/13 A2996 RMK CF1SC5AC1 SLP145=
CYUL;2005-09-21 14:00;METAR CYUL 211400Z 23012KT 30SM FEW014 FEW050 FEW100 18/14 A2995 RMK SF1CF1AC1 SLP141=
CYUL;2005-09-21 15:00;METAR CYUL 211500Z 26020G25KT 30SM FEW016 BKN027 BKN066 19/13 A2993 RMK CF1SC4AC1 SLP137=
CYUL;2005-09-21 16:00;METAR CYUL 211600Z 26015G24KT 30SM BKN027 20/14 A2993 RMK SC7 SLP137=
CYUL;2005-09-21 17:00;METAR CYUL 211700Z 28015KT 30SM BKN027 22/16 A2993 RMK CF5 SLP136=
CYUL;2005-09-21 18:00;METAR CYUL 211800Z 26015G20KT 30SM FEW032 22/15 A2992 RMK CF2 TCU ASOCT N SLP133=
CYUL;2005-09-21 19:00;METAR CYUL 211900Z 26016G22KT 30SM FEW039 24/15 A2992 RMK CF2 SLP134=
CYUL;2005-09-21 20:00;METAR CYUL 212000Z 27015G21KT 30SM FEW046 FEW068 24/14 A2994 RMK CF2ACC1 SLP138=
CYUL;2005-09-21 21:00;METAR CYUL 212100Z 27012G17KT 30SM FEW047 24/13 A2993 RMK CF1 SLP137=
CYUL;2005-09-21 22:00;METAR CYUL 212200Z 28009KT 30SM FEW051 FEW250 22/12 A2994 RMK CF1CI1 SLP140=
CYUL;2005-09-21 23:00;METAR CYUL 212300Z 31004KT 30SM FEW090 FEW140 FEW220 FEW260 19/11 A2995 RMK AC1AC1CI1CC1 SLP142=
CYUL;2005-09-22 00:00;METAR CYUL 220000Z 00000KT 15SM FEW220 18/12 A2997 RMK CI1 SLP149=
CYUL;2005-09-22 01:00;METAR CYUL 220100Z 26002KT 15SM SKC 17/11 A2998 RMK SLP153=
CYUL;2005-09-22 02:00;METAR CYUL 220200Z 18004KT 15SM SKC 16/14 A2998 RMK SLP154=
CYUL;2005-09-22 03:00;METAR CYUL 220300Z 18002KT 15SM SKC 15/12 A2998 RMK SLP153=
CYUL;2005-09-22 04:00;METAR CYUL 220400Z 20004KT 15SM SKC 16/13 A2998 RMK SLP151=
CYUL;2005-09-22 05:00;METAR CYUL 220500Z 23002KT 15SM BKN230 18/16 A2998 RMK CS6 SLP152=
CYUL;2005-09-22 06:00;METAR CYUL 220600Z 26005KT 15SM SCT180 OVC240 18/16 A2998 RMK AC3CS4 SLP152=
CYUL;2005-09-22 07:00;METAR CYUL 220700Z 22002KT 15SM SCT160 BKN240 17/15 A2996 RMK AC3CS3 SLP147=
CYUL;2005-09-22 08:00;METAR CYUL 220800Z 21006KT 15SM FEW090 BKN120 19/16 A2994 RMK AC2AC5 SLP139=
CYUL;2005-09-22 09:00;METAR CYUL 220900Z 16004KT 15SM BKN080 OVC120 17/15 A2993 RMK AC6AC2 SLP137=
CYUL;2005-09-22 10:00;METAR CYUL 221000Z 01004KT 15SM OVC100 17/15 A2995 RMK AC8 SLP142=
CYUL;2005-09-22 11:00;METAR CYUL 221100Z 05004KT 15SM SCT090 BKN130 15/14 A2994 RMK AC3AC4 SLP138=
CYUL;2005-09-22 12:00;METAR CYUL 221200Z 00000KT 12SM BKN120 OVC210 17/15 A2992 RMK AC6CI2 SLP134=
CYUL;2005-09-22 13:00;METAR CYUL 221300Z 20008KT 30SM BKN120 OVC210 20/16 A2991 RMK AC5CI2 SLP130=
CYUL;2005-09-22 14:00;METAR CYUL 221400Z 20009KT 30SM FEW060 SCT080 BKN095 OVC210 22/16 A2990 RMK SC1AS2AC3CI1 SLP127=
CYUL;2005-09-22 15:00;METAR CYUL 221500Z 22013G19KT 30SM FEW095 SCT150 OVC210 24/15 A2988 RMK AC2AC2CI1 SLP119=
CYUL;2005-09-22 16:00;METAR CYUL 221600Z 23014G19KT 200V260 30SM FEW095 FEW120 OVC180 24/15 A2987 RMK AC1AC2AS5 SLP115=
CYUL;2005-09-22 17:00;METAR CYUL 221700Z 23014G19KT 190V270 30SM FEW090 SCT120 BKN180 OVC220 24/15 A2985 RMK AC1AC2AS2CI2 SLP110=
CYUL;2005-09-22 18:00;METAR CYUL 221800Z 22015G21KT 190V250 30SM FEW090 BKN130 OVC240 26/15 A2984 RMK AC1AC4CI1 SLP105=
CYUL;2005-09-22 19:00;METAR CYUL 221900Z 23013KT 200V260 30SM FEW085 FEW130 OVC180 25/15 A2983 RMK AC1AC2AS6 SLP102=
CYUL;2005-09-22 20:00;METAR CYUL 222000Z 22011KT 190V250 30SM FEW046 OVC150 24/15 A2981 RMK CF1AC8 SLP095=
CYUL;2005-09-22 21:00;METAR CYUL 222100Z 23011KT 25SM BKN160 OVC240 24/14 A2979 RMK AC6CI1 SLP089=
CYUL;2005-09-22 22:00;METAR CYUL 222200Z 23012KT 15SM FEW120 OVC160 24/14 A2979 RMK AC2AC5 SLP087=
CYUL;2005-09-22 23:00;METAR CYUL 222300Z 22012KT 12SM OVC150 23/15 A2979 RMK AC8 SLP088=
CYUL;2005-09-23 00:00;METAR CYUL 230000Z 23008KT 12SM OVC120 23/15 A2978 RMK AC8 SLP086=
CYUL;2005-09-23 01:00;METAR CYUL 230100Z 22009KT 12SM OVC120 22/16 A2976 RMK AC8 SLP080=
CYUL;2005-09-23 02:00;METAR CYUL 230200Z 22009KT 12SM OVC110 22/16 A2975 RMK AC8 SLP076=
CYUL;2005-09-23 03:00;METAR CYUL 230300Z 21008KT 12SM OVC120 21/16 A2974 RMK AC8 SLP070=
CYUL;2005-09-23 04:00;METAR CYUL 230400Z 21015KT 12SM OVC085 22/16 A2973 RMK AC8 SLP068=
CYUL;2005-09-23 04:07;SPECI CYUL 230407Z 21016KT 12SM -SHRA OVC080 21/ RMK AC8=
CYUL;2005-09-23 05:00;METAR CYUL 230500Z 22012KT 6SM -SHRA SCT030 OVC065 19/17 A2973 RMK SC3SC5 SLP068=
CYUL;2005-09-23 07:00;METAR CYUL 230700Z 24007KT 3SM -RA SCT006 OVC040 19/18 A2973 RMK SF3SC5 SLP067=
CYUL;2005-09-23 07:16;SPECI CYUL 230716Z 24006KT 3SM -RA BKN006 OVC030 19/ RMK SF5SC3=
CYUL;2005-09-23 07:22;SPECI CYUL 230722Z 23006KT 3SM BR SCT006 BKN030 OVC140 19/ RMK SF3SC3AC2=
CYUL;2005-09-23 07:46;SPECI CYUL 230746Z 25006KT 3SM BR BKN006 BKN035 OVC140 19/ RMK SF5SC2AC2=
CYUL;2005-09-23 08:00;METAR CYUL 230800Z 25007KT 3SM BR BKN007 OVC033 19/18 A2976 RMK SF5SC3 SLP077=
CYUL;2005-09-23 08:40;SPECI CYUL 230840Z 26010KT 4SM BR SCT009 OVC025 19/ RMK SF3SC5=
CYUL;2005-09-23 09:00;METAR CYUL 230900Z 27009KT 4SM BR FEW009 OVC035 19/17 A2979 RMK SF2SC6 SLP089=
CYUL;2005-09-23 10:00;METAR CYUL 231000Z 30012KT 8SM BKN025 OVC080 18/16 A2984 RMK SC6AC2 SLP105=
CYUL;2005-09-23 11:00;METAR CYUL 231100Z 36011KT 15SM BKN030 16/13 A2991 RMK SC7 PRESRR SLP128=
CYUL;2005-09-23 12:00;METAR CYUL 231200Z 35012KT 15SM FEW035 SCT240 15/10 A2995 RMK SC2CI0 SLP143=
CYUL;2005-09-23 13:00;METAR CYUL 231300Z 34011G18KT 15SM FEW040 FEW240 16/10 A3000 RMK CF1CI1 SLP158=
CYUL;2005-09-23 14:00;METAR CYUL 231400Z 34008KT 20SM FEW029 FEW240 16/10 A3003 RMK CF1CI1 SLP168=
CYUL;2005-09-23 16:00;METAR CYUL 231600Z 30005KT 30SM SCT040 19/10 A3005 RMK CF3 SLP176=
CYUL;2005-09-23 17:00;METAR CYUL 231700Z 30011KT 30SM FEW054 19/08 A3006 RMK CF2 SLP180=
CYUL;2005-09-23 18:00;METAR CYUL 231800Z 29009KT 30SM BKN058 18/08 A3007 RMK CF5 SLP184=
CYUL;2005-09-23 19:00;METAR CYUL 231900Z 30012G18KT 30SM FEW062 20/07 A3008 RMK CF2 SLP186=
CYUL;2005-09-23 21:00;METAR CYUL 232100Z 32011G17KT 30SM FEW056 18/06 A3014 RMK SC1 SLP205=
CYUL;2005-09-23 22:00;METAR CYUL 232200Z 30011KT 30SM FEW050 FEW075 16/06 A3017 RMK SC1AC1 SLP216=
CYUL;2005-09-23 23:00;METAR CYUL 232300Z 29006KT 30SM FEW038 FEW200 15/05 A3020 RMK CU1CI1 SLP226=
CYUL;2005-09-24 00:00;METAR CYUL 240000Z 31008KT 15SM FEW033 14/05 A3023 RMK CU1 SLP238=
CYUL;2005-09-24 01:00;METAR CYUL 240100Z 31006KT 15SM SKC 12/05 A3025 RMK SLP246=
CYUL;2005-09-24 02:00;METAR CYUL 240200Z 31006KT 15SM SKC 11/06 A3028 RMK SLP255=
CYUL;2005-09-24 03:00;METAR CYUL 240300Z 31005KT 15SM SKC 10/06 A3030 RMK SLP261=
CYUL;2005-09-24 04:00;METAR CYUL 240400Z 34005KT 15SM SKC 09/06 A3031 RMK SLP266=
CYUL;2005-09-24 05:00;METAR CYUL 240500Z 35006KT 15SM SKC 09/06 A3033 RMK SLP272=
CYUL;2005-09-24 06:00;METAR CYUL 240600Z 02006KT 15SM SKC 10/05 A3036 RMK SLP282=
CYUL;2005-09-24 08:00;METAR CYUL 240800Z 02005KT 15SM SKC 08/05 A3038 RMK SLP287=
CYUL;2005-09-24 09:00;METAR CYUL 240900Z 36004KT 15SM SKC 07/04 A3040 RMK SLP294=
CYUL;2005-09-24 10:00;METAR CYUL 241000Z 00000KT 15SM SKC 06/04 A3043 RMK SLP304=
CYUL;2005-09-24 11:00;METAR CYUL 241100Z 35004KT 15SM SKC 06/04 A3044 RMK SLP308=
CYUL;2005-09-24 12:00;METAR CYUL 241200Z 35003KT 15SM SKC 09/05 A3045 RMK SLP311=
CYUL;2005-09-24 13:00;METAR CYUL 241300Z 03007KT 30SM FEW240 10/04 A3046 RMK CI1 SLP315=
CYUL;2005-09-24 14:00;METAR CYUL 241400Z 07007KT 30SM FEW240 12/04 A3047 RMK CI1 SLP318=
CYUL;2005-09-24 15:00;METAR CYUL 241500Z 04006KT 30SM FEW030 FEW240 13/03 A3045 RMK CU1CI1 SLP312=
CYUL;2005-09-24 16:00;METAR CYUL 241600Z 08004KT 30SM FEW240 14/04 A3043 RMK CI0 SLP307=
CYUL;2005-09-24 17:00;METAR CYUL 241700Z 31002KT 30SM FEW240 14/04 A3042 RMK CI0 COTRA SLP301=
CYUL;2005-09-24 18:00;METAR CYUL 241800Z 15002KT 30SM FEW240 15/04 A3039 RMK CI1 SLP292=
CYUL;2005-09-24 19:00;METAR CYUL 241900Z 07005KT 30SM SKC 15/04 A3036 RMK SLP281=
CYUL;2005-09-24 21:00;METAR CYUL 242100Z 13004KT 30SM FEW240 16/03 A3032 RMK CI0 SLP268=
CYUL;2005-09-24 22:00;METAR CYUL 242200Z 10003KT 30SM FEW240 16/04 A3032 RMK CI0 FU NE SLP268=
CYUL;2005-09-24 23:00;METAR CYUL 242300Z 09004KT 30SM SCT240 15/04 A3031 RMK CI1 SLP265=
CYUL;2005-09-25 00:00;METAR CYUL 250000Z 09004KT 15SM FEW240 14/04 A3031 RMK CI1 SLP265=
CYUL;2005-09-25 01:00;METAR CYUL 250100Z 08006KT 15SM FEW240 14/04 A3030 RMK CI1 SLP262=
CYUL;2005-09-25 03:00;METAR CYUL 250300Z 09005KT 15SM SKC 13/05 A3025 RMK SLP245=
CYUL;2005-09-25 04:00;METAR CYUL 250400Z 09004KT 15SM FEW240 12/06 A3024 RMK CI0 SLP243=
CYUL;2005-09-25 05:00;METAR CYUL 250500Z 09005KT 15SM BKN170 12/07 A3023 RMK AC5 SLP238=
CYUL;2005-09-25 06:00;METAR CYUL 250600Z 08004KT 15SM BKN170 11/08 A3022 RMK AC7 SLP235=
CYUL;2005-09-25 08:00;METAR CYUL 250800Z 14005KT 15SM SCT060 BKN180 11/08 A3018 RMK CU3AC4 SLP221=
CYUL;2005-09-25 09:00;METAR CYUL 250900Z 10002KT 15SM BKN070 BKN180 11/09 A3017 RMK AC5AC2 SLP217=
CYUL;2005-09-25 10:00;METAR CYUL 251000Z 12002KT 15SM BKN045 BKN080 12/08 A3015 RMK SC6AC2 SLP212=
CYUL;2005-09-25 11:00;METAR CYUL 251100Z 16004KT 15SM OVC120 13/08 A3015 RMK AC8 SLP210=
CYUL;2005-09-25 12:00;METAR CYUL 251200Z 00000KT 15SM OVC042 14/11 A3014 RMK SC8 SLP209=
CYUL;2005-09-25 13:00;METAR CYUL 251300Z 16004KT 15SM BKN038 OVC045 14/09 A3014 RMK SC6SC2 SLP207=
CYUL;2005-09-25 14:00;METAR CYUL 251400Z 16007KT 15SM FEW035 BKN060 BKN100 OVC210 16/10 A3012 RMK SC2SC3AC2CI0 SLP201=
CYUL;2005-09-25 15:00;METAR CYUL 251500Z 15008KT 15SM BKN055 OVC070 17/11 A3009 RMK SC6AC2 SLP191=
CYUL;2005-09-25 15:50;SPECI CYUL 251550Z 16010KT 15SM -SHRA BKN050 OVC070 17/ RMK SC6AC2=
CYUL;2005-09-25 16:00;METAR CYUL 251600Z 15010KT 15SM -SHRA BKN050 OVC070 17/12 A3008 RMK SC6AC2 SLP187=
CYUL;2005-09-25 17:00;METAR CYUL 251700Z 18008KT 8SM -RA OVC032 18/14 A3007 RMK SC8 SLP183=
CYUL;2005-09-25 18:00;METAR CYUL 251800Z 13003KT 10SM OVC030 17/14 A3004 RMK SC8 INTMT -RA SLP173=
CYUL;2005-09-25 19:00;METAR CYUL 251900Z 17008KT 8SM -RA FEW018 OVC024 17/15 A3002 RMK SC2SC6 SLP167=
CYUL;2005-09-25 19:50;SPECI CYUL 251950Z 16009KT 10SM OVC020 16/ RMK SC8=
CYUL;2005-09-25 20:00;METAR CYUL 252000Z 16009KT 10SM OVC020 16/15 A3000 RMK SC8 SLP158=
CYUL;2005-09-25 21:00;METAR CYUL 252100Z 16010KT 10SM OVC020 16/14 A2998 RMK SC8 SLP151=
CYUL;2005-09-25 22:00;METAR CYUL 252200Z 16009KT 10SM -RA OVC020 17/15 A2997 RMK SC8 SLP149=
CYUL;2005-09-25 23:00;METAR CYUL 252300Z 16008KT 8SM OVC020 17/15 A2996 RMK SC8 INTMT -RA SLP146=
CYUL;2005-09-26 00:00;METAR CYUL 260000Z 17010KT 10SM OVC035 17/15 A2994 RMK SC8 SLP140=
CYUL;2005-09-26 01:00;METAR CYUL 260100Z 15007KT 10SM OVC030 17/15 A2993 RMK SC8 SLP137=
CYUL;2005-09-26 01:52;SPECI CYUL 260152Z 15005KT 6SM -SHRA BKN035 OVC060 17/ RMK SC6SC2=
CYUL;2005-09-26 02:00;METAR CYUL 260200Z 15007KT 6SM -SHRA BKN025 OVC060 17/15 A2992 RMK SC6SC2 SLP132=
CYUL;2005-09-26 02:32;SPECI CYUL 260232Z 15006KT 10SM OVC030 17/ RMK SC8=
CYUL;2005-09-26 03:00;METAR CYUL 260300Z 15007KT 10SM -RA OVC032 17/16 A2990 RMK SC8 SLP125=
CYUL;2005-09-26 03:45;SPECI CYUL 260345Z 12002KT 10SM OVC032 17/ RMK SC8=
CYUL;2005-09-26 04:00;METAR CYUL 260400Z 14006KT 10SM OVC035 17/16 A2987 RMK SC8 SLP116=
CYUL;2005-09-26 05:00;METAR CYUL 260500Z 15009KT 10SM BKN040 OVC080 17/15 A2984 RMK SC6AC2 SLP106=
CYUL;2005-09-26 06:00;METAR CYUL 260600Z 16010KT 10SM BKN045 OVC080 17/16 A2982 RMK SC6AC2 SLP099=
CYUL;2005-09-26 06:29;SPECI CYUL 260629Z 17010KT 10SM -SHRA OVC040 17/ RMK SC8=
CYUL;2005-09-26 07:50;SPECI CYUL 260750Z 17005KT 8SM -RA SCT009 OVC030 18/ RMK SF3SC5=
CYUL;2005-09-26 09:00;METAR CYUL 260900Z 18008KT 8SM -RA SCT014 OVC025 18/17 A2977 RMK SF4SC4 SLP082=
CYUL;2005-09-26 10:00;METAR CYUL 261000Z 17006KT 6SM -RA OVC020 18/17 A2974 RMK SC8 SLP071=
CYUL;2005-09-26 11:24;SPECI CYUL 261124Z 16012KT 2SM -RA OVC020 18/ RMK SC8=
CYUL;2005-09-26 12:00;METAR CYUL 261200Z 17006KT 2SM -RA BKN006 OVC020 18/17 A2968 RMK SF6SC2 /R10/ SLP051=
CYUL;2005-09-26 12:24;SPECI CYUL 261224Z 18011KT 2SM -RA SCT008 OVC017 18/ RMK SF3SC5=
CYUL;2005-09-26 13:00;METAR CYUL 261300Z 19011KT 3SM -RA FEW009 OVC022 18/17 A2966 RMK SF2SC6 SLP044=
CYUL;2005-09-26 13:20;SPECI CYUL 261320Z 18011KT 3SM -RA OVC020 19/ RMK SC8=
CYUL;2005-09-26 14:00;METAR CYUL 261400Z 21016KT 2SM -RA BKN020 OVC050 19/18 A2963 RMK SC6SC2 SLP036=
CYUL;2005-09-26 14:07;SPECI CYUL 261407Z 21010G18KT 4SM -RA BR FEW012 BKN025 OVC035 19/ RMK SF2SC5SC2=
CYUL;2005-09-26 14:48;SPECI CYUL 261448Z 18008KT 2SM -RA BR FEW012 BKN020 OVC035 19/ RMK SF2SC6SC1=
CYUL;2005-09-26 14:53;SPECI CYUL 261453Z 17008KT 1 1/4SM -RA BR FEW012 OVC018 19/ RMK SF2SC6=
CYUL;2005-09-26 15:00;METAR CYUL 261500Z 16012KT 1 1/2SM R24R/P6000FT/D R24L/3500VP6000FT/D -RA BR FEW010 OVC018 19/18 A2961 RMK SF2SC6 SLP027=
CYUL;2005-09-26 15:10;SPECI CYUL 261510Z 17011KT 3SM -RA BR FEW010 BKN020 OVC028 18/ RMK SF2SC6SC1=
CYUL;2005-09-26 16:00;METAR CYUL 261600Z 20016KT 4SM -RA BR FEW012 BKN020 OVC030 20/18 A2957 RMK SF2SC4SC2 SLP013=
CYUL;2005-09-26 17:00;METAR CYUL 261700Z 22023G28KT 5SM -RA BR BKN018 OVC030 20/18 A2954 RMK SC5SC3 SLP004=
CYUL;2005-09-26 18:00;METAR CYUL 261800Z 23016G24KT 4SM -RA BR OVC020 20/18 A2952 RMK SC8 SLP997=
CYUL;2005-09-26 19:00;METAR CYUL 261900Z 22014G21KT 6SM -RA BR BKN020 OVC040 20/18 A2951 RMK SC7SC1 SLP993=
CYUL;2005-09-26 20:00;METAR CYUL 262000Z 22013KT 7SM -RA FEW012 BKN030 OVC050 20/18 A2950 RMK SF1SC5SC3 SLP989=
CYUL;2005-09-26 21:00;METAR CYUL 262100Z 22011KT 7SM -RA BKN018 OVC040 20/18 A2949 RMK SC6SC2 SLP986=
CYUL;2005-09-26 21:30;SPECI CYUL 262130Z 22011KT 7SM -RA BKN014 OVC040 20/ RMK SF6SC2=
CYUL;2005-09-26 21:45;SPECI CYUL 262145Z 22010KT 7SM -RA SCT014 BKN022 OVC050 20/ RMK SF3SC2SC2=
CYUL;2005-09-26 22:00;METAR CYUL 262200Z 23009KT 8SM -RA BKN014 OVC030 20/18 A2949 RMK SC6SC2 SLP985=
CYUL;2005-09-26 22:22;SPECI CYUL 262222Z 04012G17KT 5SM -RA BR BKN008 OVC020 16/ RMK SF6SC2=
CYUL;2005-09-26 22:40;SPECI CYUL 262240Z 03014KT 2SM -RA BR SCT007 OVC012 14/ RMK SF3SC5=
CYUL;2005-09-26 22:48;SPECI CYUL 262248Z 03015KT 6SM -RA BR SCT007 OVC014 14/ RMK SF4SC4=
CYUL;2005-09-26 23:00;METAR CYUL 262300Z 02009G17KT 6SM -RA BR SCT007 OVC014 14/13 A2952 RMK SF4SC4 SLP995=
CYUL;2005-09-26 23:08;SPECI CYUL 262308Z 01013G18KT 6SM -RA BR BKN008 OVC014 14/ RMK SF6SC2=
CYUL;2005-09-27 00:00;METAR CYUL 270000Z 02017KT 10SM BKN009 OVC018 14/12 A2954 RMK SF6SC2 SLP004=
CYUL;2005-09-27 00:18;SPECI CYUL 270018Z 01012KT 6SM -RA BR OVC008 14/ RMK SF8=
CYUL;2005-09-27 01:00;METAR CYUL 270100Z 36009KT 3SM -RA BR BKN007 OVC014 13/12 A2958 RMK SF6SC2 SLP019=
CYUL;2005-09-27 01:30;SPECI CYUL 270130Z 34007KT 6SM -RA BR FEW010 OVC018 13/ RMK SF2SC6=
CYUL;2005-09-27 02:00;METAR CYUL 270200Z 34011KT 6SM BR FEW008 BKN018 OVC029 13/12 A2962 RMK SF2SC6SC1 INTMT -RA SLP030=
CYUL;2005-09-27 02:28;SPECI CYUL 270228Z 34008KT 8SM VCFG FEW008 BKN021 BKN032 OVC050 13/ RMK SF1SC5SC2SC1=
CYUL;2005-09-27 03:00;METAR CYUL 270300Z 35007KT 10SM FEW008 BKN023 OVC034 13/12 A2965 RMK SF1SC6SC1 SLP042=
CYUL;2005-09-27 03:50;SPECI CYUL 270350Z 31006KT 8SM -SHRA FEW008 FEW016 OVC021 13/ RMK SF1SC2SC6=
CYUL;2005-09-27 04:00;METAR CYUL 270400Z 31006KT 10SM FEW008 FEW016 OVC021 14/12 A2968 RMK SF1SC2SC6 OCNL -SHRA SLP053=
CYUL;2005-09-27 05:44;SPECI CYUL 270544Z 34005KT 6SM -DZ BR FEW009 OVC020 13/ RMK SF2ST6=
CYUL;2005-09-27 06:00;METAR CYUL 270600Z 34006KT 6SM -DZ BR FEW009 OVC018 13/11 A2973 RMK SF2ST6 SLP068=
CYUL;2005-09-27 06:14;SPECI CYUL 270614Z 35007KT 2 1/2SM -DZ BR FEW009 OVC018 13/ RMK SF2ST6=
CYUL;2005-09-27 06:23;SPECI CYUL 270623Z 34008KT 3SM -DZ BR SCT009 OVC018 12/ RMK SF3ST5=
CYUL;2005-09-27 06:30;SPECI CYUL 270630Z 34008KT 2 1/2SM -DZ BR SCT007 OVC014 12/ RMK SF3ST5=
CYUL;2005-09-27 07:29;SPECI CYUL 270729Z 35006KT 10SM FEW006 SCT019 OVC034 12/ RMK SF1ST3SC5=
CYUL;2005-09-27 08:00;METAR CYUL 270800Z 32005KT 12SM FEW006 FEW018 OVC038 12/10 A2979 RMK SF1ST1SC6 SLP087=
CYUL;2005-09-27 09:00;METAR CYUL 270900Z 30004KT 12SM FEW009 BKN040 OVC061 12/10 A2982 RMK SF1SC6SC2 SLP099=
CYUL;2005-09-27 10:00;METAR CYUL 271000Z 31007KT 15SM BKN045 BKN071 12/09 A2986 RMK SC5AC2 SLP111=
CYUL;2005-09-27 11:00;METAR CYUL 271100Z 30007KT 25SM FEW005 FEW075 11/10 A2990 RMK SF1AC1 SLP124=
CYUL;2005-09-27 12:00;METAR CYUL 271200Z 30006KT 30SM FEW005 FEW080 11/09 A2993 RMK SF1AC1 SLP136=
CYUL;2005-09-27 13:00;METAR CYUL 271300Z 30005KT 30SM FEW003 FEW095 12/08 A2996 RMK SF1AC1 SLP145=
CYUL;2005-09-27 14:00;METAR CYUL 271400Z 28003KT 30SM FEW015 13/08 A2997 RMK CF1 SLP149=
CYUL;2005-09-27 15:00;METAR CYUL 271500Z 24005KT 30SM FEW015 15/07 A2998 RMK CF1 SLP151=
CYUL;2005-09-27 16:00;METAR CYUL 271600Z 22011KT 30SM FEW015 16/10 A2998 RMK CF1 SLP152=
CYUL;2005-09-27 17:00;METAR CYUL 271700Z 22014KT 30SM FEW030 17/11 A2998 RMK CF1 SLP152=
CYUL;2005-09-27 18:00;METAR CYUL 271800Z 26013KT 30SM FEW030 18/09 A2997 RMK CF1 SLP149=
CYUL;2005-09-27 20:00;METAR CYUL 272000Z 27016KT 30SM FEW040 19/06 A2997 RMK CF1 SLP148=
CYUL;2005-09-27 21:00;METAR CYUL 272100Z 26013G18KT 30SM FEW040 19/07 A2997 RMK SC1 CF ASOCT SLP149=
CYUL;2005-09-27 23:00;METAR CYUL 272300Z 25007KT 30SM FEW050 FEW240 17/08 A3000 RMK SC1CI1 SLP158=
CYUL;2005-09-28 00:00;METAR CYUL 280000Z 26007KT 15SM FEW060 15/08 A3002 RMK SC1 SLP166=
CYUL;2005-09-28 01:00;METAR CYUL 280100Z 25007KT 15SM FEW060 15/08 A3003 RMK SC1 SLP171=
CYUL;2005-09-28 02:00;METAR CYUL 280200Z 24007KT 15SM SKC 14/08 A3005 RMK SLP176=
CYUL;2005-09-28 03:00;METAR CYUL 280300Z 24004KT 15SM FEW038 14/09 A3006 RMK SC1 SLP179=
CYUL;2005-09-28 04:00;METAR CYUL 280400Z 24004KT 15SM FEW036 14/10 A3006 RMK SC1 SLP181=
CYUL;2005-09-28 05:00;METAR CYUL 280500Z 23003KT 15SM FEW074 13/10 A3006 RMK AC1 SLP180=
CYUL;2005-09-28 06:00;METAR CYUL 280600Z 24004KT 15SM FEW070 13/10 A3006 RMK AC1 SLP181=
CYUL;2005-09-28 07:00;METAR CYUL 280700Z 24003KT 15SM FEW057 FEW085 14/11 A3006 RMK SC2AC1 SLP180=
CYUL;2005-09-28 08:00;METAR CYUL 280800Z 23007KT 15SM FEW055 FEW085 13/11 A3007 RMK SC1AC1 SLP183=
CYUL;2005-09-28 09:00;METAR CYUL 280900Z 28004KT 15SM FEW046 11/10 A3008 RMK SC1 SLP189=
CYUL;2005-09-28 10:00;METAR CYUL 281000Z 00000KT 15SM FEW010 FEW045 FEW085 11/11 A3010 RMK SF1SC1AC1 SLP193=
CYUL;2005-09-28 11:00;METAR CYUL 281100Z 23002KT 30SM MIFG FEW020 FEW040 FEW085 FEW240 12/11 A3012 RMK SF1SC1AC1CI1 SLP200=
CYUL;2005-09-28 12:00;METAR CYUL 281200Z 24003KT 30SM FEW040 FEW210 FEW250 13/11 A3013 RMK SC1CI0CC1 SLP204=
CYUL;2005-09-28 13:00;METAR CYUL 281300Z 23006KT 30SM FEW062 FEW100 FEW240 15/12 A3014 RMK SC1AC2CI0 SLP208=
CYUL;2005-09-28 14:00;METAR CYUL 281400Z 22008KT 30SM FEW120 FEW240 17/12 A3014 RMK AC1CI1 SLP209=
CYUL;2005-09-28 15:00;METAR CYUL 281500Z 20009KT 30SM FEW020 FEW120 FEW240 18/13 A3013 RMK CF1AC1CI1 SLP203=
CYUL;2005-09-28 16:00;METAR CYUL 281600Z 22010KT 30SM FEW020 FEW240 19/14 A3011 RMK CU1CI1 SLP195=
CYUL;2005-09-28 17:00;METAR CYUL 281700Z 21008KT 30SM FEW020 FEW100 FEW240 20/14 A3008 RMK CF1AC1CI0 SLP186=
CYUL;2005-09-28 18:00;METAR CYUL 281800Z 24007KT 30SM FEW030 FEW240 21/13 A3006 RMK SC2CI0 CF ASOCT SLP178=
CYUL;2005-09-28 19:00;METAR CYUL 281900Z 17005KT 30SM FEW030 SCT040 BKN240 21/13 A3002 RMK CF1SC2CI1 SLP165=
CYUL;2005-09-28 20:00;METAR CYUL 282000Z 14009KT 30SM FEW040 BKN240 21/13 A3000 RMK SC2CI1 TCU ASOCT SLP159=
CYUL;2005-09-28 21:00;METAR CYUL 282100Z 17013KT 30SM FEW060 FEW090 BKN210 21/13 A2997 RMK SC2AC1CI2 SLP148=
CYUL;2005-09-28 22:00;METAR CYUL 282200Z 16015KT 30SM FEW060 BKN210 20/12 A2995 RMK SC1CI3 SLP144=
CYUL;2005-09-28 23:00;METAR CYUL 282300Z 16013G18KT 30SM FEW060 BKN210 BKN240 19/11 A2994 RMK SC1CI2CC1 SLP138=
CYUL;2005-09-29 00:00;METAR CYUL 290000Z 17015G22KT 15SM BKN240 18/10 A2993 RMK CI3 SLP135=
CYUL;2005-09-29 01:00;METAR CYUL 290100Z 17015KT 15SM BKN240 18/09 A2991 RMK CI6 SLP129=
CYUL;2005-09-29 02:00;METAR CYUL 290200Z 16011KT 15SM FEW180 OVC240 17/08 A2990 RMK AC2CI6 SLP126=
CYUL;2005-09-29 03:00;METAR CYUL 290300Z 15011KT 15SM FEW180 OVC240 16/09 A2987 RMK AC1CI6 SLP117=
CYUL;2005-09-29 04:00;METAR CYUL 290400Z 16014KT 15SM OVC210 16/10 A2984 RMK CI8 SLP106=
CYUL;2005-09-29 05:00;METAR CYUL 290500Z 15015KT 15SM BKN220 16/10 A2980 RMK CI6 SLP091=
CYUL;2005-09-29 06:00;METAR CYUL 290600Z 16016G21KT 15SM OVC220 16/10 A2977 RMK CI8 SLP082=
CYUL;2005-09-29 08:00;METAR CYUL 290800Z 16016KT 15SM BKN071 OVC240 16/11 A2966 RMK AC6CI2 SLP046=
CYUL;2005-09-29 09:00;METAR CYUL 290900Z 16017KT 15SM BKN071 OVC240 16/12 A2960 RMK AC6CI2 PRESFR SLP026=
CYUL;2005-09-29 10:00;METAR CYUL 291000Z 18015G21KT 15SM SCT077 BKN092 OVC240 17/12 A2954 RMK AC4AC2CI2 PRESFR SLP004=
CYUL;2005-09-29 11:00;METAR CYUL 291100Z 17016KT 12SM BKN074 BKN140 OVC240 17/13 A2950 RMK AC6AC1CI1 SLP992=
CYUL;2005-09-29 11:40;SPECI CYUL 291140Z 19014G20KT 12SM -SHRA FEW022 BKN075 OVC240 18/ RMK SC1AC6CI1=
CYUL;2005-09-29 12:00;METAR CYUL 291200Z 17016G21KT 12SM FEW012 FEW022 BKN071 OVC240 18/13 A2946 RMK SF1SC1AC6CI1 SLP975=
CYUL;2005-09-29 12:53;SPECI CYUL 291253Z 18021G29KT 12SM TS VCSH FEW012 FEW025 BKN068 OVC240 19/ RMK SF1SC2AC6CI1 CB EMBD=
CYUL;2005-09-29 13:00;METAR CYUL 291300Z 18016G26KT 12SM -TSRA FEW012 FEW025 BKN066 OVC240 19/13 A2942 RMK SF1SC2AC6CI1 CB EMBD VIS W 6 LTNG W SLP961=
CYUL;2005-09-29 13:08;SPECI CYUL 291308Z 19019G25KT 1 1/2SM TSRA BR SCT012 BKN025 OVC040 18/ RMK FG2SF2SC4SC1 CB EMBD=
CYUL;2005-09-29 14:00;METAR CYUL 291400Z 17021G26KT 2SM SHRA BR FEW008 BKN015 OVC044 16/15 A2940 RETSRA RMK SF2SC5SC1 VIS VRB 1-3 SLP957=
CYUL;2005-09-29 14:15;SPECI CYUL 291415Z 16019G25KT 3SM -SHRA BR FEW008 BKN020 OVC045 16/ RMK SF2SC6SC1 RERA=
CYUL;2005-09-29 16:00;METAR CYUL 291600Z 22027G33KT 2SM -SHRA BR FEW008 OVC025 16/13 A2942 RMK SF2SC6 RERA VIS VRB 1-3 SLP961=
CYUL;2005-09-29 16:40;SPECI CYUL 291640Z 23027G38KT 15SM OVC020 15/ RMK SC8=
CYUL;2005-09-29 16:53;SPECI CYUL 291653Z 23037G45KT 15SM -SHRA OVC020 15/ RMK SC8=
CYUL;2005-09-29 17:00;METAR CYUL 291700Z 24035G45KT 8SM -SHRA OVC025 14/10 A2945 RMK SC8 SLP973=
CYUL;2005-09-29 17:11;SPECI CYUL 291711Z 26025G37KT 2SM -SHRA SCT015 OVC025 12/ RMK SC4SC4 VIS VRB 1-3=
CYUL;2005-09-29 17:17;SPECI CYUL 291717Z 27022G34KT 2SM -SHRA BKN014 OVC025 11/ RMK SC6SC2 VIS VRB 1-3=
CYUL;2005-09-29 17:27;SPECI CYUL 291727Z 26023G31KT 8SM -SHRA BKN015 OVC025 11/ RMK SC6SC2=
CYUL;2005-09-29 18:00;METAR CYUL 291800Z 25034G44KT 15SM BKN035 BKN080 11/06 A2956 RMK SC6AC2 PRESRR SLP010=
CYUL;2005-09-29 18:20;SPECI CYUL 291820Z 25032G39KT 15SM -SHRA BKN035 11/ RMK SC7=
CYUL;2005-09-29 18:50;SPECI CYUL 291850Z 26030G39KT 15SM OVC035 10/ RMK SC8=
CYUL;2005-09-29 19:00;METAR CYUL 291900Z 25025G39KT 15SM OVC040 10/04 A2962 RMK SC8 PRESRR SLP032=
CYUL;2005-09-29 20:25;SPECI CYUL 292025Z 27028G34KT 15SM OVC040 11/ RMK SC8=
CYUL;2005-09-29 21:00;METAR CYUL 292100Z 27024G34KT 15SM BKN050 BKN180 10/04 A2973 RMK SC6AC2 SLP068=
CYUL;2005-09-29 22:00;METAR CYUL 292200Z 27017G28KT 15SM BKN050 BKN180 10/04 A2979 RMK SC5AC2 PRESRR SLP088=
CYUL;2005-09-29 23:00;METAR CYUL 292300Z 26014G19KT 15SM BKN050 BKN180 10/05 A2983 RMK SC5AC2 SLP101=
CYUL;2005-09-30 00:00;METAR CYUL 300000Z 27011G20KT 15SM FEW050 10/04 A2987 RMK SC2 SLP115=
CYUL;2005-09-30 01:00;METAR CYUL 300100Z 27016G21KT 15SM FEW030 09/05 A2990 RMK SC2 SLP126=
CYUL;2005-09-30 02:00;METAR CYUL 300200Z 27011G20KT 15SM FEW030 08/04 A2992 RMK SC2 SLP132=
CYUL;2005-09-30 03:00;METAR CYUL 300300Z 27014G19KT 15SM FEW030 08/04 A2994 RMK SC2 SLP138=
CYUL;2005-09-30 04:00;METAR CYUL 300400Z 27009KT 15SM FEW030 08/04 A2995 RMK SC1 SLP143=
CYUL;2005-09-30 05:00;METAR CYUL 300500Z 25009KT 15SM FEW022 07/04 A2997 RMK SC2 SLP148=
CYUL;2005-09-30 06:00;METAR CYUL 300600Z 25010KT 15SM FEW022 SCT240 06/03 A2999 RMK SC1CI2 SLP158=
CYUL;2005-09-30 07:00;METAR CYUL 300700Z 24008KT 15SM FEW022 BKN240 06/03 A3001 RMK SC1CI3 SLP163=
CYUL;2005-09-30 09:00;METAR CYUL 300900Z 26008KT 15SM FEW020 BKN240 06/02 A3006 RMK SC1CI2 SLP181=
CYUL;2005-09-30 10:00;METAR CYUL 301000Z 26009KT 15SM FEW025 BKN220 06/02 A3009 RMK SC1CI3 SLP192=
CYUL;2005-09-30 11:00;METAR CYUL 301100Z 25009KT 30SM FEW030 FEW160 BKN210 06/02 A3012 RMK SC1AC1CI5 SLP200=
CYUL;2005-09-30 12:00;METAR CYUL 301200Z 26006KT 30SM FEW040 BKN150 BKN220 07/02 A3014 RMK SC1AC4CI1 SLP207=
CYUL;2005-09-30 13:00;METAR CYUL 301300Z 25007KT 30SM FEW100 BKN160 BKN240 08/03 A3017 RMK AC1AC4CI1 SLP218=
CYUL;2005-09-30 14:00;METAR CYUL 301400Z 25007KT 30SM BKN160 BKN240 09/02 A3018 RMK AC6CI1 SLP222=
CYUL;2005-09-30 15:00;METAR CYUL 301500Z 23007KT 30SM FEW040 BKN140 BKN240 10/02 A3016 RMK CF1AC5CI0 SLP216=
CYUL;2005-09-30 16:00;METAR CYUL 301600Z 24010KT 30SM FEW040 BKN130 BKN240 11/03 A3016 RMK CF1AC3CI0 SLP214=
CYUL;2005-09-30 17:00;METAR CYUL 301700Z 22010G15KT 30SM FEW040 BKN240 12/03 A3014 RMK CF1CI3 SLP208=
CYUL;2005-09-30 18:00;METAR CYUL 301800Z 22012KT 30SM FEW050 BKN210 13/04 A3012 RMK CF1CI2 SLP202=
CYUL;2005-09-30 19:00;METAR CYUL 301900Z 21009KT 30SM FEW050 SCT100 BKN210 13/03 A3012 RMK CF1AC2CI1 SLP200=
CYUL;2005-09-30 20:00;METAR CYUL 302000Z 22010KT 30SM BKN180 BKN210 13/03 A3011 RMK AC3CI1 SLP197=
CYUL;2005-09-30 21:00;METAR CYUL 302100Z 24011KT 30SM BKN180 BKN210 14/04 A3011 RMK AC2CI1 SLP198=
CYUL;2005-09-30 22:00;METAR CYUL 302200Z 22009KT 30SM SCT160 BKN240 14/04 A3011 RMK AC2CI1 SLP199=
CYUL;2005-10-01 00:00;METAR CYUL 010000Z 16008KT 15SM BKN230 12/05 A3014 RMK CI2 CC ASOCT SLP206=
CYUL;2005-10-01 01:00;METAR CYUL 010100Z 16007KT 15SM SCT220 10/06 A3014 RMK CI1 SLP206=
CYUL;2005-10-01 02:00;METAR CYUL 010200Z 16006KT 15SM FEW240 10/06 A3015 RMK CI1 SLP211=
CYUL;2005-10-01 03:00;METAR CYUL 010300Z 20003KT 15SM FEW240 10/06 A3014 RMK CI1 SLP209=
CYUL;2005-10-01 04:00;METAR CYUL 010400Z 21007KT 15SM FEW240 10/07 A3014 RMK CI1 SLP207=
CYUL;2005-10-01 06:00;METAR CYUL 010600Z 10002KT 15SM SKC 10/06 A3014 RMK SLP208=
CYUL;2005-10-01 07:00;METAR CYUL 010700Z 13004KT 15SM FEW160 FEW240 08/05 A3014 RMK AC1CI1 SLP208=
CYUL;2005-10-01 09:00;METAR CYUL 010900Z 10002KT 15SM BKN170 09/06 A3015 RMK AC6 SLP211=
CYUL;2005-10-01 10:00;METAR CYUL 011000Z 16004KT 15SM SCT170 08/06 A3016 RMK AC2 SLP216=
CYUL;2005-10-01 11:00;METAR CYUL 011100Z 14004KT 30SM FEW170 FEW240 07/05 A3017 RMK AC2CI0 SLP218=
CYUL;2005-10-01 12:00;METAR CYUL 011200Z 16006KT 30SM FEW160 FEW240 10/07 A3016 RMK AC1CI1 SLP215=
CYUL;2005-10-01 13:00;METAR CYUL 011300Z 19005KT 30SM FEW240 12/08 A3017 RMK CI1 SLP218=
CYUL;2005-10-01 14:00;METAR CYUL 011400Z 21006KT 30SM FEW240 15/09 A3018 RMK CI0 SLP222=
CYUL;2005-10-01 15:00;METAR CYUL 011500Z 20008KT 30SM FEW240 17/10 A3017 RMK CI0 SLP219=
CYUL;2005-10-01 16:00;METAR CYUL 011600Z 22010KT 30SM FEW240 19/10 A3016 RMK CI1 SLP215=
CYUL;2005-10-01 17:00;METAR CYUL 011700Z 23014KT 30SM FEW240 21/10 A3015 RMK CI1 SLP212=
CYUL;2005-10-01 18:00;METAR CYUL 011800Z 23016KT 30SM FEW240 22/09 A3014 RMK CI0 SLP209=
CYUL;2005-10-01 19:00;METAR CYUL 011900Z 23013G19KT 30SM SCT240 22/09 A3013 RMK CI0 SLP205=
CYUL;2005-10-01 20:00;METAR CYUL 012000Z 23015KT 30SM SCT240 22/09 A3013 RMK CI0 SLP203=
CYUL;2005-10-01 21:00;METAR CYUL 012100Z 24014KT 30SM FEW240 22/09 A3014 RMK CI0 SLP206=
CYUL;2005-10-01 22:00;METAR CYUL 012200Z 23010KT 30SM SCT220 21/07 A3015 RMK CI0 SLP211=
CYUL;2005-10-01 23:00;METAR CYUL 012300Z 23007KT 15SM BKN220 20/08 A3017 RMK CI0 SLP217=
CYUL;2005-10-02 00:00;METAR CYUL 020000Z 24010KT 15SM SCT220 19/08 A3020 RMK CI0 SLP229=
CYUL;2005-10-02 01:00;METAR CYUL 020100Z 25011KT 15SM SCT240 18/07 A3022 RMK CI0 SLP235=
CYUL;2005-10-02 03:00;METAR CYUL 020300Z 23006KT 15SM SKC 16/07 A3026 RMK SLP247=
CYUL;2005-10-02 04:00;METAR CYUL 020400Z 21007KT 15SM SKC 16/10 A3026 RMK SLP248=
CYUL;2005-10-02 05:00;METAR CYUL 020500Z 22003KT 15SM SKC 15/10 A3027 RMK SLP252=
CYUL;2005-10-02 06:00;METAR CYUL 020600Z 23006KT 15SM SKC 14/10 A3029 RMK SLP257=
CYUL;2005-10-02 07:00;METAR CYUL 020700Z 25004KT 15SM SKC 13/10 A3029 RMK SLP258=
CYUL;2005-10-02 09:00;METAR CYUL 020900Z 00000KT 15SM SKC 12/09 A3031 RMK SLP264=
CYUL;2005-10-02 10:00;METAR CYUL 021000Z 26002KT 15SM FEW240 12/08 A3032 RMK CI1 SLP268=
CYUL;2005-10-02 11:00;METAR CYUL 021100Z 22004KT 30SM SCT240 13/09 A3034 RMK CI1 CC ASOCT SLP275=
CYUL;2005-10-02 12:00;METAR CYUL 021200Z 21004KT 15SM BKN240 14/10 A3036 RMK CI2 CC ASOCT SLP282=
CYUL;2005-10-02 13:00;METAR CYUL 021300Z 23005KT 15SM SCT240 15/10 A3036 RMK CI1 SLP283=
CYUL;2005-10-02 15:00;METAR CYUL 021500Z 21004KT 15SM SCT240 19/13 A3038 RMK CI0 SLP288=
CYUL;2005-10-02 16:00;METAR CYUL 021600Z 19003KT 15SM FEW240 20/13 A3038 RMK CI0 SLP288=
CYUL;2005-10-02 17:00;METAR CYUL 021700Z 21005KT 15SM FEW240 21/13 A3037 RMK CI0 SLP286=
CYUL;2005-10-02 18:00;METAR CYUL 021800Z 23005KT 15SM FEW240 22/13 A3036 RMK CI0 SLP282=
CYUL;2005-10-02 19:00;METAR CYUL 021900Z 21003KT 15SM FEW240 23/13 A3035 RMK CI0 SLP279=
CYUL;2005-10-02 20:00;METAR CYUL 022000Z 23003KT 15SM FEW240 24/13 A3034 RMK CI0 SLP276=
CYUL;2005-10-02 21:00;METAR CYUL 022100Z 28002KT 15SM FEW240 24/14 A3034 RMK CI0 SLP274=
CYUL;2005-10-02 22:00;METAR CYUL 022200Z 00000KT 15SM FEW240 23/13 A3034 RMK CI0 SLP274=
CYUL;2005-10-02 23:00;METAR CYUL 022300Z 00000KT 15SM FEW240 21/13 A3033 RMK CI0 SLP273=
CYUL;2005-10-03 00:00;METAR CYUL 030000Z 12003KT 15SM FEW240 19/13 A3033 RMK CI0 SLP273=
CYUL;2005-10-03 01:00;METAR CYUL 030100Z 13003KT 15SM FEW240 18/12 A3034 RMK CI0 SLP275=
CYUL;2005-10-03 02:00;METAR CYUL 030200Z 15002KT 15SM FEW240 17/12 A3035 RMK CI0 SLP277=
CYUL;2005-10-03 03:00;METAR CYUL 030300Z 00000KT 15SM SKC 16/12 A3035 RMK SLP277=
CYUL;2005-10-03 04:00;METAR CYUL 030400Z 10003KT 15SM SKC 17/13 A3033 RMK SLP273=
CYUL;2005-10-03 05:00;METAR CYUL 030500Z 11002KT 15SM SKC 17/12 A3034 RMK SLP274=
CYUL;2005-10-03 06:00;METAR CYUL 030600Z 09002KT 15SM SKC 16/12 A3033 RMK SLP273=
CYUL;2005-10-03 07:00;METAR CYUL 030700Z 00000KT 15SM SKC 13/11 A3034 RMK SLP274=
CYUL;2005-10-03 08:00;METAR CYUL 030800Z 17003KT 10SM SKC 13/12 A3034 RMK SLP275=
CYUL;2005-10-03 09:00;METAR CYUL 030900Z 09002KT 10SM SKC 12/11 A3034 RMK VIS LWR W SLP275=
CYUL;2005-10-03 10:00;METAR CYUL 031000Z 00000KT 10SM FEW240 12/11 A3035 RMK CI1 VIS W 4 FG SLP277=
CYUL;2005-10-03 11:00;METAR CYUL 031100Z 00000KT 6SM BR FEW240 11/10 A3035 RMK CI1 VIS W-N 3 FG SLP280=
CYUL;2005-10-03 12:00;METAR CYUL 031200Z 00000KT 7SM MIFG FEW240 14/13 A3036 RMK CI1 SLP281=
CYUL;2005-10-03 13:00;METAR CYUL 031300Z 06002KT 7SM VCFG FEW240 16/13 A3035 RMK CI1 SLP279=
CYUL;2005-10-03 14:00;METAR CYUL 031400Z 35002KT 7SM VCFG FEW240 18/14 A3036 RMK CI1 SLP281=
CYUL;2005-10-03 15:00;METAR CYUL 031500Z 00000KT 6SM HZ SCT240 20/15 A3035 RMK CI1 SLP280=
CYUL;2005-10-03 16:00;METAR CYUL 031600Z 20003KT 6SM HZ BKN240 22/14 A3034 RMK CI1 SLP275=
CYUL;2005-10-03 17:00;METAR CYUL 031700Z 24005KT 10SM BKN240 23/13 A3033 RMK CI2 SLP273=
CYUL;2005-10-03 18:00;METAR CYUL 031800Z 19004KT 10SM BKN240 24/14 A3031 RMK CI2 SLP264=
CYUL;2005-10-03 19:00;METAR CYUL 031900Z 23003KT 10SM BKN240 25/15 A3030 RMK CI2 SLP260=
CYUL;2005-10-03 20:00;METAR CYUL 032000Z 14005KT 12SM BKN240 26/16 A3028 RMK CI2 SLP253=
CYUL;2005-10-03 21:00;METAR CYUL 032100Z 14007KT 12SM BKN240 25/15 A3028 RMK CI2 SLP253=
CYUL;2005-10-03 22:00;METAR CYUL 032200Z 15007KT 12SM BKN240 23/15 A3027 RMK CI2 SLP250=
CYUL;2005-10-03 23:00;METAR CYUL 032300Z 16006KT 15SM BKN240 21/15 A3027 RMK CI2 SLP250=
CYUL;2005-10-04 00:00;METAR CYUL 040000Z 16008KT 15SM BKN240 20/15 A3027 RMK CI1 SLP250=
CYUL;2005-10-04 01:00;METAR CYUL 040100Z 20002KT 15SM OVC240 19/15 A3027 RMK CI2 SLP252=
CYUL;2005-10-04 02:00;METAR CYUL 040200Z 22003KT 15SM BKN180 BKN240 19/15 A3028 RMK AC5CI1 SLP254=
CYUL;2005-10-04 03:00;METAR CYUL 040300Z 00000KT 15SM SCT180 OVC240 19/16 A3029 RMK AC3CI4 SLP256=
CYUL;2005-10-04 04:00;METAR CYUL 040400Z 19003KT 15SM FEW180 BKN240 18/15 A3028 RMK AC2CI1 SLP255=
CYUL;2005-10-04 05:00;METAR CYUL 040500Z 23002KT 12SM BKN180 BKN240 17/16 A3028 RMK AC4CI2 SLP255=
CYUL;2005-10-04 06:00;METAR CYUL 040600Z 20004KT 12SM SCT180 BKN220 18/16 A3027 RMK AC4CI2 SLP250=
CYUL;2005-10-04 08:00;METAR CYUL 040800Z 14004KT 12SM OVC160 17/15 A3027 RMK AC8 SLP249=
CYUL;2005-10-04 09:00;METAR CYUL 040900Z 16007KT 12SM FEW045 FEW160 BKN240 16/14 A3027 RMK SC1AC1CI1 SLP251=
CYUL;2005-10-04 10:00;METAR CYUL 041000Z 17004KT 12SM SCT240 16/14 A3027 RMK CI2 SLP252=
CYUL;2005-10-04 11:00;METAR CYUL 041100Z 16005KT 10SM FEW160 FEW240 16/14 A3028 RMK AC1CI1 SLP255=
CYUL;2005-10-04 12:00;METAR CYUL 041200Z 16005KT 10SM FEW240 17/14 A3029 RMK CI1 SLP256=
CYUL;2005-10-04 13:00;METAR CYUL 041300Z 19004KT 10SM SKC 19/15 A3029 RMK SLP257=
CYUL;2005-10-04 14:00;METAR CYUL 041400Z 21007KT 10SM SKC 20/15 A3029 RMK SLP257=
CYUL;2005-10-04 15:00;METAR CYUL 041500Z 20005KT 8SM SKC 21/16 A3029 RMK SLP256=
CYUL;2005-10-04 16:00;METAR CYUL 041600Z 23011KT 8SM SKC 23/16 A3029 RMK SLP256=
CYUL;2005-10-04 17:00;METAR CYUL 041700Z 21011KT 10SM SKC 25/17 A3026 RMK SLP247=
CYUL;2005-10-04 18:00;METAR CYUL 041800Z 22010KT 10SM SKC 25/17 A3024 RMK SLP239=
CYUL;2005-10-04 19:00;METAR CYUL 041900Z 23010KT 8SM SKC 26/18 A3023 RMK SLP236=
CYUL;2005-10-04 20:00;METAR CYUL 042000Z 22010KT 8SM SKC 27/18 A3021 RMK SLP230=
CYUL;2005-10-04 21:00;METAR CYUL 042100Z 22009KT 8SM SKC 26/18 A3021 RMK SLP231=
CYUL;2005-10-04 22:00;METAR CYUL 042200Z 20008KT 6SM HZ SKC 25/18 A3021 RMK SLP230=
CYUL;2005-10-04 23:00;METAR CYUL 042300Z 18007KT 6SM HZ SKC 23/17 A3021 RMK SLP231=
CYUL;2005-10-05 00:00;METAR CYUL 050000Z 17006KT 6SM HZ SKC 21/17 A3022 RMK SLP233=
CYUL;2005-10-05 01:00;METAR CYUL 050100Z 21004KT 6SM HZ SKC 21/17 A3022 RMK SLP233=
CYUL;2005-10-05 03:00;METAR CYUL 050300Z 20003KT 6SM HZ SKC 19/17 A3024 RMK SLP241=
CYUL;2005-10-05 04:00;METAR CYUL 050400Z 15005KT 5SM HZ SKC 18/17 A3025 RMK SLP244=
CYUL;2005-10-05 05:00;METAR CYUL 050500Z 15004KT 4SM BR SKC 18/17 A3025 RMK SLP243=
CYUL;2005-10-05 06:00;METAR CYUL 050600Z 15004KT 4SM BR SKC 17/16 A3025 RMK SLP243=
CYUL;2005-10-05 07:00;METAR CYUL 050700Z 12002KT 5SM BR SKC 18/16 A3024 RMK SLP241=
CYUL;2005-10-05 08:00;METAR CYUL 050800Z 00000KT 4SM BR SKC 17/16 A3024 RMK SLP242=
CYUL;2005-10-05 09:00;METAR CYUL 050900Z 13003KT 4SM BR SKC 16/15 A3024 RMK SLP242=
CYUL;2005-10-05 10:00;METAR CYUL 051000Z 00000KT 4SM BR SKC 17/16 A3025 RMK SLP244=
CYUL;2005-10-05 11:00;METAR CYUL 051100Z 15002KT 2 1/2SM BR FEW240 17/15 A3026 RMK CI0 SLP246=
CYUL;2005-10-05 12:00;METAR CYUL 051200Z 14003KT 3SM BR FEW240 17/16 A3027 RMK CI1 SLP249=
CYUL;2005-10-05 13:00;METAR CYUL 051300Z 15003KT 5SM HZ SKC 19/17 A3026 RMK SLP248=
CYUL;2005-10-05 14:00;METAR CYUL 051400Z 00000KT 6SM HZ SKC 21/17 A3025 RMK SLP244=
CYUL;2005-10-05 15:00;METAR CYUL 051500Z 22005KT 6SM HZ SKC 22/16 A3024 RMK SLP240=
CYUL;2005-10-05 16:00;METAR CYUL 051600Z 21005KT 8SM SKC 23/16 A3022 RMK SLP233=
CYUL;2005-10-05 17:00;METAR CYUL 051700Z 24008KT 8SM SKC 23/15 A3021 RMK SLP229=
CYUL;2005-10-05 18:00;METAR CYUL 051800Z 22005KT 10SM SKC 25/16 A3018 RMK SLP220=
CYUL;2005-10-05 21:00;METAR CYUL 052100Z 21005KT 10SM SKC 26/16 A3015 RMK SLP209=
CYUL;2005-10-05 23:00;METAR CYUL 052300Z 19005KT 10SM FEW240 22/16 A3015 RMK CI1 SLP210=
CYUL;2005-10-06 00:00;METAR CYUL 060000Z 19006KT 10SM FEW240 21/16 A3015 RMK CI1 SLP211=
CYUL;2005-10-06 01:00;METAR CYUL 060100Z 22003KT 10SM FEW240 21/17 A3016 RMK CI1 SLP212=
CYUL;2005-10-06 02:00;METAR CYUL 060200Z 24004KT 10SM SKC 19/16 A3016 RMK SLP214=
CYUL;2005-10-06 04:00;METAR CYUL 060400Z 20005KT 8SM SKC 17/16 A3016 RMK SLP214=
CYUL;2005-10-06 05:00;METAR CYUL 060500Z 00000KT 8SM SKC 17/16 A3016 RMK SLP213=
CYUL;2005-10-06 06:00;METAR CYUL 060600Z 20003KT 8SM FEW240 16/15 A3016 RMK CI0 SLP213=
CYUL;2005-10-06 09:00;METAR CYUL 060900Z 13004KT 8SM SKC 16/15 A3013 RMK SLP202=
CYUL;2005-10-06 10:00;METAR CYUL 061000Z 00000KT 8SM SKC 16/14 A3013 RMK SLP203=
CYUL;2005-10-06 11:00;METAR CYUL 061100Z 15003KT 8SM SKC 15/13 A3014 RMK SLP205=
CYUL;2005-10-06 12:00;METAR CYUL 061200Z 14003KT 10SM SKC 16/15 A3014 RMK SLP206=
CYUL;2005-10-06 13:00;METAR CYUL 061300Z 14003KT 10SM SKC 18/16 A3014 RMK SLP205=
CYUL;2005-10-06 14:00;METAR CYUL 061400Z 15004KT 8SM SKC 20/16 A3011 RMK SLP198=
CYUL;2005-10-06 15:00;METAR CYUL 061500Z 22003KT 8SM FEW045 SCT210 23/17 A3011 RMK SC1CI1 SLP196=
CYUL;2005-10-06 16:00;METAR CYUL 061600Z 20006KT 10SM FEW045 FEW210 23/17 A3008 RMK SC1CI1 SLP186=
CYUL;2005-10-06 17:00;METAR CYUL 061700Z 15004KT 10SM FEW025 25/18 A3005 RMK CU2 SLP175=
CYUL;2005-10-06 18:00;METAR CYUL 061800Z 15005KT 10SM FEW035 26/18 A3002 RMK SC2 CU ASOCT SLP166=
CYUL;2005-10-06 19:00;METAR CYUL 061900Z 14006KT 10SM FEW035 26/18 A3000 RMK SC1 CU ASOCT SLP160=
CYUL;2005-10-06 21:00;METAR CYUL 062100Z 15008KT 10SM FEW040 25/18 A2996 RMK CU1 SLP147=
CYUL;2005-10-06 22:00;METAR CYUL 062200Z 15007KT 10SM FEW050 FEW210 24/18 A2996 RMK SC1CI1 SLP145=
CYUL;2005-10-06 23:00;METAR CYUL 062300Z 16007KT 10SM FEW060 23/17 A2995 RMK SC2 SLP141=
CYUL;2005-10-07 00:00;METAR CYUL 070000Z 16009KT 10SM FEW060 BKN070 22/17 A2995 RMK SC2AC3 SLP141=
CYUL;2005-10-07 01:00;METAR CYUL 070100Z 20006KT 10SM FEW060 21/17 A2994 RMK SC2 SLP140=
CYUL;2005-10-07 02:00;METAR CYUL 070200Z 22008KT 10SM FEW080 21/17 A2995 RMK AC2 SLP142=
CYUL;2005-10-07 03:00;METAR CYUL 070300Z 20005KT 10SM FEW080 20/16 A2995 RMK AC1 SLP143=
CYUL;2005-10-07 04:00;METAR CYUL 070400Z 17006KT 10SM FEW080 19/16 A2994 RMK AC1 SLP139=
CYUL;2005-10-07 05:00;METAR CYUL 070500Z 17005KT 10SM FEW080 18/16 A2994 RMK AC1 SLP138=
CYUL;2005-10-07 06:00;METAR CYUL NIL=
CYUL;2005-10-07 08:16;SPECI CYUL 070816Z 00000KT 10SM -SHRA OVC035 18/ RMK SC8=
CYUL;2005-10-07 09:00;METAR CYUL 070900Z 16004KT 10SM -SHRA OVC032 18/17 A2993 RMK SC8 SLP136=
CYUL;2005-10-07 10:00;METAR CYUL 071000Z 24002KT 4SM -SHRA BR OVC030 18/17 A2994 RMK SC8 SLP138=
CYUL;2005-10-07 10:36;SPECI CYUL 071036Z 19004KT 6SM BR BKN035 OVC050 18/ RMK SC6SC1=
CYUL;2005-10-07 11:00;METAR CYUL 071100Z 18003KT 6SM BR OVC027 18/17 A2993 RMK SC8 SLP137=
CYUL;2005-10-07 12:00;METAR CYUL 071200Z 21006KT 7SM OVC020 19/17 A2994 RMK SC8 SLP138=
CYUL;2005-10-07 12:15;SPECI CYUL 071215Z 22004KT 2 1/2SM -DZ BR OVC013 19/ RMK SC8=
CYUL;2005-10-07 12:28;SPECI CYUL 071228Z 19004KT 5SM -DZ BR SCT013 OVC018 19/ RMK SF3SC5=
CYUL;2005-10-07 12:34;SPECI CYUL 071234Z 21006KT 4SM -SHRA BR OVC012 19/ RMK SC8=
CYUL;2005-10-07 12:49;SPECI CYUL 071249Z 21005KT 5SM -SHRA BR FEW012 OVC025 19/ RMK SF1SC7=
CYUL;2005-10-07 13:00;METAR CYUL 071300Z 22003KT 3SM -RA BR OVC020 19/18 A2994 RMK SC8 SLP138=
CYUL;2005-10-07 13:18;SPECI CYUL 071318Z 26005KT 1 1/2SM -SHRA BR OVC009 19/ RMK SC8=
CYUL;2005-10-07 13:36;SPECI CYUL 071336Z 26002KT 3SM -RA BR BKN006 OVC015 19/ RERA RMK SF6SC2=
CYUL;2005-10-07 14:00;METAR CYUL 071400Z 31006G16KT 3SM -RA BR FEW007 OVC014 17/16 A2995 RERA RMK SF2SC6 SLP143=
CYUL;2005-10-07 14:32;SPECI CYUL 071432Z 34007KT 3SM -RA BR FEW008 SCT015 OVC022 17/ RMK SF2SC2SC4=
CYUL;2005-10-07 14:40;SPECI CYUL 071440Z 33005KT 1 1/2SM RA BR FEW008 SCT014 OVC020 17/ RMK SF2SC2SC4=
CYUL;2005-10-07 15:00;METAR CYUL 071500Z 35003KT 3SM -RA BR FEW008 SCT014 OVC020 17/16 A2995 RERA RMK SF1SC2SC5 /R15/ SLP141=
CYUL;2005-10-07 15:14;SPECI CYUL 071514Z 32006KT 4SM -RA BR SCT008 BKN014 OVC020 17/ RMK SF4SC2SC2=
CYUL;2005-10-07 15:30;SPECI CYUL 071530Z 32004KT 2 1/2SM -RA BR BKN008 OVC014 17/ RMK SF6SC2=
CYUL;2005-10-07 15:50;SPECI CYUL 071550Z 31008KT 3SM -RA BR SCT008 OVC014 16/ RMK SF4SC4=
CYUL;2005-10-07 16:00;METAR CYUL 071600Z 30007KT 2SM R24R/3500VP6000FT/D R24L/P6000FT/D -RA BR FEW007 BKN012 OVC020 15/14 A2998 RMK SF2SC3SC2 SLP152=
CYUL;2005-10-07 16:23;SPECI CYUL 071623Z 29003KT 4SM -RA BR FEW010 BKN018 OVC030 15/ RERA RMK SF2SC5SC2=
CYUL;2005-10-07 16:46;SPECI CYUL 071646Z 30007KT 1 1/2SM RA BR BKN010 OVC018 15/ RMK SF6SC2=
CYUL;2005-10-07 16:51;SPECI CYUL 071651Z 27006KT 3SM -RA BR FEW010 BKN020 OVC030 14/ RERA RMK SF2SC4SC2=
CYUL;2005-10-07 17:00;METAR CYUL 071700Z 26007KT 4SM -RA BR FEW010 BKN025 OVC040 15/13 A2999 RERA RMK SF2SC5SC2 SLP157=
CYUL;2005-10-07 17:06;SPECI CYUL 071706Z 27004KT 1 1/2SM R24R/P6000FT/N R24L/4000VP6000FT/D RA BR BKN013 OVC025 15/ RMK SF5SC3=
CYUL;2005-10-07 17:15;SPECI CYUL 071715Z 26007KT 2 1/2SM R24R/4000VP6000FT/D R24L/P6000FT/D RA BR FEW012 BKN018 OVC030 15/ RMK SF2SC4SC2=
CYUL;2005-10-07 17:34;SPECI CYUL 071734Z 32011G16KT 2 1/2SM RA BR FEW008 OVC014 14/ RMK SF2SC6=
CYUL;2005-10-07 18:00;METAR CYUL 071800Z 32005KT 4SM -RA BR FEW008 BKN015 OVC025 13/12 A2997 RERA RMK SF1SC6SC2 /R31/ SLP149=
CYUL;2005-10-07 18:20;SPECI CYUL 071820Z 32005KT 3SM -RA BR FEW008 BKN013 OVC020 13/ RMK SF1SC7SC1=
CYUL;2005-10-07 18:33;SPECI CYUL 071833Z 31007KT 4SM -RA BR BKN009 BKN018 OVC030 13/ RMK SF6SC2SC1=
CYUL;2005-10-07 18:42;SPECI CYUL 071842Z 30009KT 4SM -RA BR SCT008 OVC023 13/ RMK SF3SC5=
CYUL;2005-10-07 19:45;SPECI CYUL 071945Z 31006KT 8SM BKN008 OVC027 13/ RMK SF6SC2=
CYUL;2005-10-07 20:00;METAR CYUL 072000Z 31005KT 8SM BKN009 OVC022 13/12 A2999 RMK SF6SC2 SLP157=
CYUL;2005-10-07 20:18;SPECI CYUL 072018Z 31005KT 6SM -RA BR BKN009 BKN015 OVC020 13/ RMK SF6SC1SC1=
CYUL;2005-10-07 21:00;METAR CYUL 072100Z 31003KT 8SM -RA BKN008 OVC018 13/12 A3002 RMK SF6SC2 SLP166=
CYUL;2005-10-07 22:00;METAR CYUL 072200Z 04007KT 7SM -RA FEW010 OVC018 12/10 A3001 RMK SF2SC6 SLP164=
CYUL;2005-10-07 22:05;SPECI CYUL 072205Z 04006KT 2SM -RA BR FEW010 OVC018 12/ RMK SF2SC6=
CYUL;2005-10-07 22:24;SPECI CYUL 072224Z 06008KT 3SM -RA BR FEW010 OVC022 12/ RMK SF2SC6=
CYUL;2005-10-07 23:00;METAR CYUL 072300Z 02008KT 3SM -RA BR FEW010 OVC025 12/10 A3003 RMK SF1SC7 SLP168=
CYUL;2005-10-07 23:48;SPECI CYUL 072348Z 01010KT 3SM -RA BR BKN009 OVC022 11/ RMK SF6SC2=
CYUL;2005-10-08 00:00;METAR CYUL 080000Z 02012KT 4SM -RA BR SCT009 OVC018 11/10 A3003 RMK SF3SC5 SLP170=
CYUL;2005-10-08 00:30;SPECI CYUL 080030Z 02016KT 3SM -RA BR BKN008 OVC018 10/ RMK SF6SC2=
CYUL;2005-10-08 01:00;METAR CYUL 080100Z 02011G18KT 4SM -RA BKN010 OVC025 09/08 A3005 RMK SF5SC3 SLP176=
CYUL;2005-10-08 01:42;SPECI CYUL 080142Z 02016KT 3SM -RA BR BKN008 OVC018 09/ RMK SF6SC2=
CYUL;2005-10-08 02:00;METAR CYUL 080200Z 03014KT 4SM -RA BR BKN008 OVC015 09/08 A3006 RMK SF6SC2 SLP179=
CYUL;2005-10-08 02:17;SPECI CYUL 080217Z 03011G20KT 4SM -RA BR FEW008 OVC032 09/ RMK SF2SC6=
CYUL;2005-10-08 04:00;METAR CYUL 080400Z 02014KT 4SM -RA BR FEW011 OVC032 07/06 A3005 RMK SF2SC6 SLP176=
CYUL;2005-10-08 05:00;METAR CYUL 080500Z 04018KT 6SM -RA BR FEW012 OVC035 07/05 A3004 RMK SF1SC7 SLP173=
CYUL;2005-10-08 07:00;METAR CYUL 080700Z 03012G26KT 6SM -RA BR FEW012 OVC040 06/04 A3002 RMK SF1SC8 SLP167=
CYUL;2005-10-08 08:00;METAR CYUL 080800Z 04016KT 8SM -RA FEW012 OVC040 06/04 A3001 RMK SF1SC7 SLP164=
CYUL;2005-10-08 09:00;METAR CYUL 080900Z 03011KT 10SM -RA FEW028 OVC040 06/03 A3001 RMK SC2SC6 SLP165=
CYUL;2005-10-08 10:00;METAR CYUL 081000Z 01011G16KT 10SM -RA SCT025 OVC040 06/03 A3002 RMK SC3SC5 SLP167=
CYUL;2005-10-08 11:00;METAR CYUL 081100Z 02014KT 15SM FEW026 OVC045 06/03 A3003 RMK SC1SC7 SLP170=
CYUL;2005-10-08 12:00;METAR CYUL 081200Z 02011G17KT 15SM FEW030 BKN050 07/02 A3005 RMK SC2SC6 SLP176=
CYUL;2005-10-08 13:00;METAR CYUL 081300Z 03015KT 15SM BKN032 BKN046 07/02 A3006 RMK SC5SC2 SLP181=
CYUL;2005-10-08 14:00;METAR CYUL 081400Z 03014KT 15SM BKN030 BKN045 07/02 A3007 RMK SC5SC2 SLP184=
CYUL;2005-10-08 15:00;METAR CYUL 081500Z 03012G17KT 15SM FEW030 BKN048 09/03 A3007 RMK SC2SC5 SLP184=
CYUL;2005-10-08 16:00;METAR CYUL 081600Z 03017KT 15SM FEW030 BKN045 09/03 A3008 RMK SC2SC6 SLP187=
CYUL;2005-10-08 17:00;METAR CYUL 081700Z 04014KT 15SM FEW030 BKN048 10/04 A3006 RMK SC2SC6 SLP182=
CYUL;2005-10-08 18:00;METAR CYUL 081800Z 04014G20KT 15SM FEW030 BKN050 10/03 A3006 RMK SC2SC6 SLP179=
CYUL;2005-10-08 19:00;METAR CYUL 081900Z 05012G18KT 15SM FEW030 BKN053 OVC210 10/03 A3007 RMK SC1SC6CI0 SLP183=
CYUL;2005-10-08 20:00;METAR CYUL 082000Z 03014G19KT 15SM FEW030 BKN050 10/03 A3007 RMK SC1SC6 SLP184=
CYUL;2005-10-08 22:00;METAR CYUL 082200Z 03015KT 15SM FEW030 BKN055 BKN100 10/02 A3009 RMK CF1SC6AC2 SLP190=
CYUL;2005-10-08 23:00;METAR CYUL 082300Z 04011G19KT 15SM BKN055 BKN100 10/02 A3010 RMK SC6AC1 SLP194=
CYUL;2005-10-09 00:00;METAR CYUL 090000Z 04013G18KT 15SM BKN058 BKN100 BKN240 09/02 A3011 RMK SC6AC1CI1 SLP196=
CYUL;2005-10-09 01:00;METAR CYUL 090100Z 02014G19KT 15SM BKN045 BKN100 BKN240 09/03 A3011 RMK SC5AC1CI2 SLP197=
CYUL;2005-10-09 02:00;METAR CYUL 090200Z 04015KT 15SM FEW100 OVC240 09/02 A3011 RMK AC1CI7 SLP198=
CYUL;2005-10-09 03:00;METAR CYUL 090300Z 05017G22KT 15SM BKN035 OVC240 09/02 A3010 RMK SC6CI2 SLP195=
CYUL;2005-10-09 04:00;METAR CYUL 090400Z 05018KT 15SM FEW035 OVC240 08/02 A3008 RMK SC1CI8 SLP187=
CYUL;2005-10-09 05:00;METAR CYUL 090500Z 04015G21KT 15SM FEW035 OVC240 08/02 A3008 RMK SC1CI8 SLP187=
CYUL;2005-10-09 06:00;METAR CYUL 090600Z 04018G24KT 15SM FEW035 OVC240 08/02 A3007 RMK SC1CI8 SLP183=
CYUL;2005-10-09 08:00;METAR CYUL 090800Z 04017KT 15SM FEW075 BKN240 08/03 A3004 RMK AC1CI6 SLP175=
CYUL;2005-10-09 09:00;METAR CYUL 090900Z 05014G21KT 15SM FEW075 BKN180 08/03 A3006 RMK AC1AC6 SLP180=
CYUL;2005-10-09 10:00;METAR CYUL 091000Z 04020KT 15SM FEW030 OVC040 08/03 A3006 RMK SC1SC7 SLP180=
CYUL;2005-10-09 11:00;METAR CYUL 091100Z 04017G24KT 15SM OVC035 08/03 A3007 RMK SC8 SLP185=
CYUL;2005-10-09 12:00;METAR CYUL 091200Z 04016G21KT 15SM FEW040 FEW075 FEW200 08/04 A3008 RMK SC2AC1CC1 SLP189=
CYUL;2005-10-09 13:00;METAR CYUL 091300Z 04017G25KT 15SM FEW020 BKN032 09/04 A3009 RMK SC1SC6 SLP192=
CYUL;2005-10-09 14:00;METAR CYUL 091400Z 05021G26KT 15SM BKN020 OVC035 09/05 A3011 RMK SC6SC2 SLP196=
CYUL;2005-10-09 15:00;METAR CYUL 091500Z 04018KT 15SM OVC020 10/05 A3012 RMK SC8 SLP201=
CYUL;2005-10-09 16:00;METAR CYUL 091600Z 04017G25KT 15SM OVC020 10/06 A3013 RMK SC8 SLP205=
CYUL;2005-10-09 17:00;METAR CYUL 091700Z 04017G24KT 15SM OVC022 10/06 A3013 RMK SC8 SLP203=
CYUL;2005-10-09 18:00;METAR CYUL 091800Z 05016G21KT 15SM OVC021 11/07 A3013 RMK SC8 SLP203=
CYUL;2005-10-09 19:00;METAR CYUL 091900Z 05019G24KT 15SM OVC018 11/07 A3013 RMK SC8 SLP205=
CYUL;2005-10-09 20:00;METAR CYUL 092000Z 04016KT 15SM OVC014 10/08 A3014 RMK SC8 SLP208=
CYUL;2005-10-09 21:00;METAR CYUL 092100Z 05014G25KT 15SM BKN012 OVC030 10/08 A3016 RMK SC6SC2 SLP214=
CYUL;2005-10-09 22:00;METAR CYUL 092200Z 04011G22KT 8SM BKN013 OVC030 10/08 A3018 RMK SF6SC2 SLP220=
CYUL;2005-10-09 22:39;SPECI CYUL 092239Z 04018KT 8SM -RA BKN013 OVC030 09/ RMK SF6SC2=
CYUL;2005-10-09 23:00;METAR CYUL 092300Z 04017G24KT 10SM BKN012 OVC035 09/08 A3019 RMK SF6SC2 SLP223=
CYUL;2005-10-09 23:17;SPECI CYUL 092317Z 04016G24KT 10SM -DZ BKN012 OVC035 09/ RMK SF6SC2=
CYUL;2005-10-09 23:53;SPECI CYUL 092353Z 04016G21KT 15SM BKN012 09/ RMK SF7=
CYUL;2005-10-10 00:00;METAR CYUL 100000Z 05017KT 15SM BKN013 09/07 A3018 RMK SF7 SLP222=
CYUL;2005-10-10 00:36;SPECI CYUL 100036Z 05017G26KT 15SM SCT013 BKN030 BKN040 10/ RMK SF3SC2SC2=
CYUL;2005-10-10 01:00;METAR CYUL 100100Z 05018G24KT 15SM FEW013 OVC030 10/07 A3019 RMK SF2SC6 SLP226=
CYUL;2005-10-10 02:00;METAR CYUL 100200Z 04016G24KT 15SM FEW013 BKN035 OVC045 10/06 A3019 RMK SF1SC6SC2 SLP224=
CYUL;2005-10-10 03:00;METAR CYUL 100300Z 04016KT 15SM FEW015 FEW030 OVC040 10/06 A3019 RMK SC1SC2SC6 SLP224=
CYUL;2005-10-10 04:00;METAR CYUL 100400Z 05019G24KT 15SM FEW015 OVC035 10/06 A3018 RMK SC1SC7 SLP222=
CYUL;2005-10-10 05:00;METAR CYUL 100500Z 04015G20KT 15SM BKN016 OVC030 10/06 A3019 RMK SC6SC2 SLP223=
CYUL;2005-10-10 06:00;METAR CYUL 100600Z 05016KT 15SM SCT015 OVC028 09/06 A3018 RMK SC4SC4 SLP222=
CYUL;2005-10-10 07:00;METAR CYUL 100700Z 04013G18KT 15SM BKN015 OVC028 09/06 A3018 RMK SC6SC2 SLP221=
CYUL;2005-10-10 09:00;METAR CYUL 100900Z 05013KT 15SM BKN015 OVC025 09/06 A3018 RMK SC6SC2 SLP220=
CYUL;2005-10-10 10:00;METAR CYUL 101000Z 04014KT 15SM BKN013 OVC026 09/06 A3018 RMK SC7SC1 SLP221=
CYUL;2005-10-10 11:00;METAR CYUL 101100Z 05013KT 12SM OVC011 09/07 A3019 RMK SC8 SLP225=
CYUL;2005-10-10 12:00;METAR CYUL 101200Z 05014KT 12SM BKN010 OVC022 09/07 A3020 RMK SF7SC1 SLP227=
CYUL;2005-10-10 13:00;METAR CYUL 101300Z 04010G15KT 10SM OVC009 09/07 A3020 RMK SF8 SLP227=
CYUL;2005-10-10 14:00;METAR CYUL 101400Z 04011KT 8SM OVC009 09/07 A3019 RMK SF8 SLP225=
CYUL;2005-10-10 14:39;SPECI CYUL 101439Z 04010G15KT 8SM OVC011 10/ RMK SF8=
CYUL;2005-10-10 15:00;METAR CYUL 101500Z 04012KT 8SM OVC011 10/08 A3019 RMK SF8 SLP224=
CYUL;2005-10-10 16:00;METAR CYUL 101600Z 04012KT 15SM OVC012 10/08 A3018 RMK SF8 SLP220=
CYUL;2005-10-10 17:00;METAR CYUL 101700Z 04011KT 12SM OVC013 11/08 A3017 RMK SF8 SLP218=
CYUL;2005-10-10 18:00;METAR CYUL 101800Z 03009KT 12SM OVC014 11/08 A3016 RMK SF8 SLP213=
CYUL;2005-10-10 19:00;METAR CYUL 101900Z 03008KT 12SM OVC012 12/09 A3014 RMK SF8 SLP209=
CYUL;2005-10-10 21:07;SPECI CYUL 102107Z 02009KT 5SM -DZ BR SCT006 OVC012 11/ RMK SF3SF5=
CYUL;2005-10-10 23:00;METAR CYUL 102300Z 03006KT 3SM -DZ BR OVC011 10/09 A3014 RMK SF8 SLP208=
CYUL;2005-10-10 23:15;SPECI CYUL 102315Z 02006KT 3SM -DZ BR BKN008 OVC012 10/ RMK SF6SF2=
CYUL;2005-10-11 00:00;METAR CYUL 110000Z 03007KT 3SM -DZ BR OVC005 10/10 A3015 RMK SF8 SLP210=
CYUL;2005-10-11 01:00;METAR CYUL 110100Z 02006KT 4SM -DZ BR OVC005 10/09 A3015 RMK SF8 SLP211=
CYUL;2005-10-11 02:00;METAR CYUL 110200Z 01006KT 2 1/2SM -DZ BR OVC005 10/09 A3016 RMK ST8 SLP213=
CYUL;2005-10-11 02:41;SPECI CYUL 110241Z 02008KT 3SM -DZ BR OVC004 10/ RMK ST8=
CYUL;2005-10-11 03:00;METAR CYUL 110300Z 02008KT 3SM -DZ BR OVC005 10/09 A3015 RMK ST8 SLP212=
CYUL;2005-10-11 03:47;SPECI CYUL 110347Z 03007KT 5SM BR OVC004 10/ RMK ST8=
CYUL;2005-10-11 04:00;METAR CYUL 110400Z 02006KT 5SM BR OVC004 10/09 A3015 RMK ST8 SLP212=
CYUL;2005-10-11 04:50;SPECI CYUL 110450Z 03009KT 3SM -DZ BR OVC004 10/ RMK ST8=
CYUL;2005-10-11 05:00;METAR CYUL 110500Z 03007KT 3SM -DZ BR OVC004 10/09 A3014 RMK ST8 SLP206=
CYUL;2005-10-11 07:00;METAR CYUL 110700Z 01007KT 3SM -DZ BR OVC003 09/09 A3014 RMK ST8 SLP207=
CYUL;2005-10-11 09:00;METAR CYUL 110900Z 02009KT 4SM BR OVC003 09/09 A3016 RMK ST8 SLP213=
CYUL;2005-10-11 09:45;SPECI CYUL 110945Z 02008KT 5SM BR OVC004 10/ RMK ST8=
CYUL;2005-10-11 10:00;METAR CYUL 111000Z 04007KT 4SM -DZ BR OVC005 09/09 A3017 RMK ST8 -DZ INTMT SLP218=
CYUL;2005-10-11 12:00;METAR CYUL 111200Z 03005KT 6SM BR BKN007 OVC025 10/09 A3020 RMK SF7SC1 SLP227=
CYUL;2005-10-11 12:26;SPECI CYUL 111226Z 02006KT 6SM BR SCT007 OVC025 10/ RMK SF4SC4=
CYUL;2005-10-11 13:00;METAR CYUL 111300Z 05009KT 10SM FEW008 FEW025 BKN045 11/09 A3021 RMK SF1SC1SC6 SLP230=
CYUL;2005-10-11 14:00;METAR CYUL 111400Z 03013KT 15SM FEW008 BKN014 OVC030 12/10 A3022 RMK SF1SF6SC2 SLP233=
CYUL;2005-10-11 15:00;METAR CYUL 111500Z 04013KT 15SM OVC013 12/09 A3023 RMK SF8 SLP238=
CYUL;2005-10-11 16:00;METAR CYUL 111600Z 04015KT 15SM OVC014 12/09 A3024 RMK SF8 SLP241=
CYUL;2005-10-11 17:28;SPECI CYUL 111728Z 05014G19KT 15SM BKN016 OVC030 13/ RMK SF7SC1=
CYUL;2005-10-11 18:00;METAR CYUL 111800Z 04016KT 15SM BKN020 OVC030 13/09 A3024 RMK SC7SC1 SLP243=
CYUL;2005-10-11 19:00;METAR CYUL 111900Z 04016KT 15SM OVC021 13/09 A3025 RMK SC8 SLP246=
CYUL;2005-10-11 21:00;METAR CYUL 112100Z 07010KT 15SM SCT025 BKN240 13/08 A3026 RMK SC3CI0 SLP249=
CYUL;2005-10-11 22:00;METAR CYUL 112200Z 06008KT 15SM SCT030 BKN240 12/07 A3027 RMK SC3CI0 SLP251=
CYUL;2005-10-11 23:00;METAR CYUL 112300Z 05009KT 15SM FEW030 SCT150 BKN240 12/07 A3028 RMK SC1AC2CI0 SLP256=
CYUL;2005-10-12 00:00;METAR CYUL 120000Z 05010G15KT 15SM SCT150 BKN240 12/07 A3030 RMK AC1CI1 SLP261=
CYUL;2005-10-12 01:00;METAR CYUL 120100Z 05015KT 15SM SCT240 11/04 A3030 RMK CI0 SLP263=
CYUL;2005-10-12 02:00;METAR CYUL 120200Z 06013G19KT 15SM SCT240 10/04 A3031 RMK CI1 SLP266=
CYUL;2005-10-12 04:00;METAR CYUL 120400Z 05012G18KT 15SM BKN240 09/04 A3031 RMK CI2 SLP266=
CYUL;2005-10-12 05:00;METAR CYUL 120500Z 05013KT 15SM BKN240 09/04 A3032 RMK CI2 SLP267=
CYUL;2005-10-12 06:00;METAR CYUL 120600Z 05015KT 15SM SCT240 08/04 A3032 RMK CI1 SLP270=
CYUL;2005-10-12 07:00;METAR CYUL 120700Z 05014KT 15SM FEW240 08/04 A3032 RMK CI0 SLP270=
CYUL;2005-10-12 08:00;METAR CYUL 120800Z 05014KT 15SM FEW240 07/04 A3033 RMK CI0 SLP273=
CYUL;2005-10-12 10:00;METAR CYUL 121000Z 05012G18KT 15SM SCT240 07/04 A3035 RMK CI1 SLP278=
CYUL;2005-10-12 11:00;METAR CYUL 121100Z 05013KT 15SM FEW040 FEW100 BKN240 07/04 A3035 RMK SC1AC1CI2 SLP279=
CYUL;2005-10-12 12:00;METAR CYUL 121200Z 05010KT 15SM FEW040 FEW120 BKN240 08/04 A3037 RMK SC1AC1CI4 SLP284=
CYUL;2005-10-12 13:00;METAR CYUL 121300Z 06012KT 15SM FEW050 SCT170 BKN240 08/04 A3038 RMK SC1AS2CI3 SLP287=
CYUL;2005-10-12 14:00;METAR CYUL 121400Z 05010KT 15SM BKN160 OVC230 10/04 A3039 RMK AS5CI2 SLP291=
CYUL;2005-10-12 15:00;METAR CYUL 121500Z 06012KT 15SM SCT160 OVC220 11/05 A3038 RMK AS3CS4 SLP290=
CYUL;2005-10-12 16:00;METAR CYUL 121600Z 07010KT 30SM SCT120 OVC220 12/05 A3039 RMK AC3CS5 SLP291=
CYUL;2005-10-12 17:00;METAR CYUL 121700Z 05011KT 30SM BKN180 OVC240 12/05 A3038 RMK AC6CS2 SLP290=
CYUL;2005-10-12 18:00;METAR CYUL 121800Z 07012KT 30SM OVC180 13/05 A3037 RMK AC8 SLP285=
CYUL;2005-10-12 19:00;METAR CYUL 121900Z 05012KT 30SM OVC190 13/05 A3036 RMK AC8 SLP282=
CYUL;2005-10-13 09:32;SPECI CYUL 130932Z 05009KT 10SM FEW060 OVC100 10/ RMK SC2AC6=
CYUL;2005-10-13 16:14;SPECI CYUL 131614Z 03008KT 2 1/2SM -RA OVC030 10/ RMK SC8=
CYUL;2005-10-13 16:48;SPECI CYUL 131648Z 04007KT 2 1/2SM -RA SCT008 OVC028 09/ RMK SF3SC5=
CYUL;2005-10-13 18:46;SPECI CYUL 131846Z 04010KT 2 1/2SM -RA SCT006 BKN030 OVC055 10/ RMK SF3SC3SC2=
CYUL;2005-10-14 01:00;METAR CYUL 140100Z 05007KT 4SM -RA FEW008 OVC030 11/10 A3025 RMK SF2SC6 SLP244=
CYUL;2005-10-14 02:00;METAR CYUL 140200Z 03007KT 4SM -RA BR FEW008 BKN030 OVC050 11/10 A3024 RMK SF1SC6SC2 SLP241=
CYUL;2005-10-14 03:00;METAR CYUL 140300Z 03006KT 4SM -RA BR FEW010 BKN035 OVC050 11/10 A3023 RMK SF1SC6SC2 SLP237=
CYUL;2005-10-14 04:00;METAR CYUL 140400Z 04004KT 4SM -RA BR FEW030 BKN050 OVC080 11/10 A3021 RMK SC1SC5AC2 SLP232=
CYUL;2005-10-14 05:00;METAR CYUL 140500Z 03005KT 4SM -RA BR FEW010 BKN050 OVC080 11/10 A3020 RMK SF1SC6AC2 SLP227=
CYUL;2005-10-14 06:00;METAR CYUL 140600Z 05004KT 4SM -RA BR FEW012 OVC040 11/10 A3019 RMK SF2SC6 SLP225=
CYUL;2005-10-14 09:00;METAR CYUL 140900Z 09006KT 3SM RA BR BKN009 OVC025 11/11 A3016 RMK SF6SC2 /R17/ SLP214=
CYUL;2005-10-14 10:00;METAR CYUL 141000Z 08006KT 3SM -RA BR BKN005 OVC015 11/11 A3015 RERA RMK SF7SC1 SLP211=
CYUL;2005-10-14 11:00;METAR CYUL 141100Z 09003KT 2 1/2SM -RA BR OVC005 11/11 A3014 RMK SF8 SLP209=
CYUL;2005-10-14 12:00;METAR CYUL 141200Z 09005KT 2SM -RA BR OVC005 11/11 A3014 RMK SF8 SLP207=
CYUL;2005-10-14 12:17;SPECI CYUL 141217Z 09006KT 3SM -RA BR BKN005 OVC020 11/ RMK SF7SC1=
CYUL;2005-10-14 12:50;SPECI CYUL 141250Z 09006KT 2 1/2SM -RA BR SCT005 OVC020 12/ RMK SF3SC5=
CYUL;2005-10-14 13:00;METAR CYUL 141300Z 11006KT 2 1/2SM -RA BR BKN006 OVC020 12/11 A3014 RMK SF5SC3 SLP206=
CYUL;2005-10-14 14:00;METAR CYUL 141400Z 10007KT 2 1/2SM -RA BR FEW006 OVC027 12/11 A3012 RMK SF2SC6 SLP202=
CYUL;2005-10-14 14:23;SPECI CYUL 141423Z 10006KT 3SM -DZ BR SCT006 OVC025 12/ RMK SF2SC6=
CYUL;2005-10-14 14:39;SPECI CYUL 141439Z 11008KT 2SM -DZ BR BKN005 OVC030 12/ RMK SF5SC3=
CYUL;2005-10-14 15:00;METAR CYUL 141500Z 10008KT 2SM -DZ BR SCT004 BKN011 OVC035 12/11 A3011 RMK SF3SC2SC2 SLP197=
CYUL;2005-10-14 16:00;METAR CYUL 141600Z 13007KT 2 1/2SM -DZ BR FEW006 BKN010 OVC035 13/13 A3009 RMK SF1SF4SC3 SLP190=
CYUL;2005-10-14 16:18;SPECI CYUL 141618Z 12008KT 3SM -RA BR FEW004 SCT009 OVC021 13/ RMK SF2SF2SC4=
CYUL;2005-10-14 16:33;SPECI CYUL 141633Z 13006KT 3SM -RA BR BKN005 OVC015 13/ RMK SF6SC2=
CYUL;2005-10-14 17:00;METAR CYUL 141700Z 13006KT 2 1/2SM -DZ BR BKN004 OVC015 13/12 A3007 RMK SF6SC2 SLP184=
CYUL;2005-10-14 18:00;METAR CYUL 141800Z 14007KT 3SM -DZ BR OVC005 14/13 A3004 RMK SF8 SLP175=
CYUL;2005-10-14 18:15;SPECI CYUL 141815Z 16006KT 3SM -RA BR BKN004 OVC009 14/ RMK SF6SC2=
CYUL;2005-10-14 18:42;SPECI CYUL 141842Z 14005KT 6SM -RA BR OVC006 14/ RMK SF8=
CYUL;2005-10-14 19:05;SPECI CYUL 141905Z 16003KT 1 3/4SM -DZ BR OVC006 14/ RMK ST8=
CYUL;2005-10-14 20:00;METAR CYUL 142000Z 15003KT 1 3/4SM -DZ BR OVC004 14/14 A3001 RMK ST8 SLP165=
CYUL;2005-10-14 20:45;SPECI CYUL 142045Z 14004KT 4SM -DZ BR OVC006 14/ RMK ST8=
CYUL;2005-10-14 21:00;METAR CYUL 142100Z 13004KT 6SM -DZ BR BKN005 BKN015 OVC032 14/14 A2999 RMK SF6SC1SC2 SLP156=
CYUL;2005-10-14 22:00;METAR CYUL 142200Z 15003KT 8SM -DZ OVC004 14/13 A2999 RMK ST8 SLP156=
CYUL;2005-10-14 22:41;SPECI CYUL 142241Z 17002KT 2SM -DZ BR OVC006 14/ RMK ST8=
CYUL;2005-10-14 23:00;METAR CYUL 142300Z 00000KT 2SM -DZ BR OVC007 14/13 A2999 RMK ST8 SLP156=
CYUL;2005-10-15 00:00;METAR CYUL 150000Z 00000KT 2SM -DZ BR FEW002 OVC007 14/14 A2998 RMK SF2ST6 SLP153=
CYUL;2005-10-15 01:12;SPECI CYUL 150112Z 09002KT 2SM -DZ BR BKN003 OVC017 14/ RMK ST7SC1=
CYUL;2005-10-15 01:32;SPECI CYUL 150132Z 00000KT 2 1/2SM -DZ BR SCT003 OVC012 14/ RMK SF4SC4=
CYUL;2005-10-15 01:46;SPECI CYUL 150146Z 08002KT 2SM -DZ BR BKN004 OVC012 14/ RMK SF5SC3=
CYUL;2005-10-15 02:00;METAR CYUL 150200Z 00000KT 2SM -DZ BR BKN004 OVC012 14/14 A2993 RMK SF6SC2 SLP138=
CYUL;2005-10-15 02:26;SPECI CYUL 150226Z 09003KT 1 1/2SM -DZ BR BKN003 OVC010 14/ RMK SF6SC2=
CYUL;2005-10-15 03:00;METAR CYUL 150300Z 07002KT 1 1/4SM -DZ BR OVC003 14/14 A2990 RMK SF8 SLP126=
CYUL;2005-10-15 03:38;SPECI CYUL 150338Z 00000KT 1SM R24R/P6000FT/D R24L/5500FT/U -DZ BR OVC003 14/ RMK SF8=
CYUL;2005-10-15 04:00;METAR CYUL 150400Z 00000KT 1SM R24R/P6000FT/D R24L/5000FT/N -DZ BR OVC003 14/14 A2988 RMK SF8 SLP118=
CYUL;2005-10-15 04:13;SPECI CYUL 150413Z 00000KT 1SM R24R/5500FT/U R24L/4000V5500FT/D -DZ BR BKN004 OVC008 14/ RMK SF6SF2=
CYUL;2005-10-15 05:00;METAR CYUL 150500Z 34002KT 3/4SM R24R/P6000FT/N R24L/P6000FT/D -DZ BR OVC002 13/13 A2985 RMK SF8 SLP110=
CYUL;2005-10-15 05:50;SPECI CYUL 150550Z 34003KT 1SM R24R/6000FT/N R24L/6000FT/U -DZ BR OVC003 13/ RMK SF8=
CYUL;2005-10-15 06:00;METAR CYUL 150600Z 36003KT 1SM R24R/P6000FT/U R24L/P6000FT/U -DZ BR OVC002 13/13 A2982 RMK SF8 SLP097=
CYUL;2005-10-15 06:45;SPECI CYUL 150645Z 36002KT 1 1/4SM -DZ BR OVC002 13/ RMK SF8=
CYUL;2005-10-15 07:00;METAR CYUL 150700Z 01002KT 1 1/2SM -DZ BR BKN003 OVC006 13/13 A2979 RMK SF6SF2 SLP088=
CYUL;2005-10-15 07:32;SPECI CYUL 150732Z 03002KT 2 1/2SM -DZ BR BKN004 OVC012 13/ RMK SF6SC2=
CYUL;2005-10-15 08:10;SPECI CYUL 150810Z 32002KT 1 1/4SM -RADZ BR OVC003 13/ RMK SF8=
CYUL;2005-10-15 09:00;METAR CYUL 150900Z 32002KT 1 1/4SM -DZ BR OVC002 13/13 A2973 RMK SF8 SLP068=
CYUL;2005-10-15 09:15;SPECI CYUL 150915Z 00000KT 1 1/2SM -DZ BR OVC002 13/ RMK SF8=
CYUL;2005-10-15 09:33;SPECI CYUL 150933Z 31004KT 1 1/4SM -DZ BR OVC002 13/ RMK SF8=
CYUL;2005-10-15 10:00;METAR CYUL 151000Z 00000KT 1 1/4SM -DZ BR OVC002 12/12 A2971 RMK SF8 SLP062=
CYUL;2005-10-15 10:30;SPECI CYUL 151030Z 29002KT 1 1/2SM -DZ BR OVC002 12/ RMK SF8=
CYUL;2005-10-15 10:38;SPECI CYUL 151038Z 29002KT 2SM -DZ BR BKN003 OVC007 12/ RMK SF6SF2=
CYUL;2005-10-15 11:00;METAR CYUL 151100Z 27002KT 1 3/4SM -DZ BR BKN002 OVC008 12/12 A2969 RMK SF7SF1 SLP055=
CYUL;2005-10-15 11:20;SPECI CYUL 151120Z 27003KT 1 1/4SM -DZ BR OVC002 13/ RMK SF8=
CYUL;2005-10-15 12:00;METAR CYUL 151200Z 29003KT 1 1/2SM -DZ BR BKN003 OVC012 13/12 A2968 RMK SF6SC2 SLP053=
CYUL;2005-10-15 12:25;SPECI CYUL 151225Z 30002KT 3SM -DZ BR BKN004 BKN009 OVC020 13/ RMK SF5SF2SC2=
CYUL;2005-10-15 13:00;METAR CYUL 151300Z 30003KT 3SM -DZ BR SCT004 BKN007 OVC015 13/12 A2966 RMK SF4SF3SC1 SLP044=
CYUL;2005-10-15 13:40;SPECI CYUL 151340Z 27004KT 8SM BKN006 OVC020 13/ RMK SF6SC2=
CYUL;2005-10-15 14:00;METAR CYUL 151400Z 25005KT 15SM BKN007 OVC020 13/13 A2963 RMK SF6SC2 SLP035=
CYUL;2005-10-15 14:39;SPECI CYUL 151439Z 22003KT 15SM FEW007 BKN016 BKN150 15/ RMK SF2SC3AC1=
CYUL;2005-10-15 15:00;METAR CYUL 151500Z 22003KT 12SM -SHRA BKN007 BKN017 BKN150 15/13 A2959 RMK SF6SC1AC1 SLP021=
CYUL;2005-10-15 15:32;SPECI CYUL 151532Z 21009KT 12SM OVC015 14/ RMK SC8=
CYUL;2005-10-15 16:00;METAR CYUL 151600Z 22006KT 10SM FEW015 BKN023 OVC060 14/12 A2956 RMK SF2SC6SC1 SLP012=
CYUL;2005-10-15 16:36;SPECI CYUL 151636Z 24007KT 5SM -SHRA BR FEW013 OVC022 14/ RMK SF2SC6=
CYUL;2005-10-15 16:46;SPECI CYUL 151646Z 26011KT 4SM -SHRA BR BKN011 OVC022 14/ RMK SF6SC2=
CYUL;2005-10-15 17:00;METAR CYUL 151700Z 23008G15KT 4SM -SHRA BR SCT010 OVC025 13/12 A2954 RMK SF3SC5 SLP005=
CYUL;2005-10-15 17:22;SPECI CYUL 151722Z 23010KT 5SM -SHRA BR BKN007 OVC020 13/ RMK SF6SC2=
CYUL;2005-10-15 18:00;METAR CYUL 151800Z 25010KT 6SM -SHRA BR FEW006 OVC035 13/12 A2952 RMK SF2SC6 SLP996=
CYUL;2005-10-15 19:00;METAR CYUL 151900Z 26008KT 8SM BKN008 OVC070 14/13 A2949 RMK SF6AC2 SLP986=
CYUL;2005-10-15 19:36;SPECI CYUL 151936Z 24008KT 6SM -SHRA BR FEW007 BKN012 OVC070 14/ RMK SF2SC4AC2=
CYUL;2005-10-15 20:40;SPECI CYUL 152040Z 25007KT 10SM FEW012 SCT060 BKN130 14/ RMK CU1SC3AC3=
CYUL;2005-10-15 21:00;METAR CYUL 152100Z 27008KT 10SM FEW012 FEW060 BKN140 BKN220 14/12 A2944 RMK CU1SC1AC4CI2 TCU ASOCT SLP972=
CYUL;2005-10-15 22:00;METAR CYUL 152200Z 28010KT 15SM SCT025 BKN130 BKN220 14/12 A2945 RMK CU4AC2CI1 VIRGA SLP975=
CYUL;2005-10-15 22:29;SPECI CYUL 152229Z 28009KT 15SM -SHRA FEW025 SCT040 BKN080 BKN220 13/ RMK CF1SC3AC3CI1=
CYUL;2005-10-15 23:00;METAR CYUL 152300Z 27009KT 15SM FEW025 FEW045 BKN085 12/09 A2945 RMK CU1SC1AC6 SLP975=
CYUL;2005-10-16 00:00;METAR CYUL 160000Z 26010KT 15SM BKN065 OVC080 12/10 A2944 RMK SC6AC2 SLP972=
CYUL;2005-10-16 01:00;METAR CYUL 160100Z 27010G15KT 15SM FEW070 BKN150 BKN210 11/08 A2944 RMK AC2AC3CI1 SLP969=
CYUL;2005-10-16 02:00;METAR CYUL 160200Z 27013G18KT 15SM FEW080 BKN150 BKN210 11/09 A2941 RMK AC2AC4CI1 SLP961=
CYUL;2005-10-16 03:00;METAR CYUL 160300Z 29013G18KT 15SM BKN085 BKN150 11/08 A2939 RMK AC5AC1 SLP954=
CYUL;2005-10-16 04:00;METAR CYUL 160400Z 27015KT 15SM BKN110 11/08 A2936 RMK AC7 SLP945=
CYUL;2005-10-16 05:00;METAR CYUL 160500Z 27012G19KT 15SM BKN030 BKN120 11/08 A2936 RMK SC6AC2 SLP942=
CYUL;2005-10-16 06:00;METAR CYUL 160600Z 27013G18KT 15SM BKN030 BKN120 11/08 A2934 RMK SC6AC2 SLP937=
CYUL;2005-10-16 07:00;METAR CYUL 160700Z 27015KT 15SM BKN030 11/08 A2933 RMK SC7 SLP932=
CYUL;2005-10-16 08:00;METAR CYUL 160800Z 27015KT 15SM OVC033 11/07 A2932 RMK SC8 SLP929=
CYUL;2005-10-16 09:00;METAR CYUL 160900Z 27015G20KT 15SM OVC028 10/07 A2931 RMK SC8 SLP927=
CYUL;2005-10-16 11:00;METAR CYUL 161100Z 27015G22KT 6SM -RA BKN030 OVC060 10/08 A2928 RMK SC6SC2 SLP917=
CYUL;2005-10-16 11:29;SPECI CYUL 161129Z 27017G24KT 2 1/2SM -RA BR BKN025 OVC060 10/ RMK SC6SC2=
CYUL;2005-10-16 12:00;METAR CYUL 161200Z 27016G22KT 2 1/2SM -RA BR BKN014 OVC050 10/09 A2928 RMK SF6SC2 SLP918=
CYUL;2005-10-16 12:27;SPECI CYUL 161227Z 27016G24KT 2 1/2SM -RA BR BKN017 OVC050 10/ RMK SF6SC2=
CYUL;2005-10-16 13:00;METAR CYUL 161300Z 28016G26KT 6SM -RA BR BKN020 OVC050 10/08 A2929 RMK SF6SC2 SLP920=
CYUL;2005-10-16 14:00;METAR CYUL 161400Z 29017G24KT 15SM -RA FEW022 OVC070 10/08 A2930 RMK SC2AS6 SLP924=
CYUL;2005-10-16 15:00;METAR CYUL 161500Z 28017G22KT 15SM -RA FEW025 OVC070 10/08 A2930 RMK SC1AS7 SLP923=
CYUL;2005-10-16 15:36;SPECI CYUL 161536Z 29019G26KT 15SM FEW025 BKN080 BKN220 11/ RMK SC1AS6CI1=
CYUL;2005-10-16 16:00;METAR CYUL 161600Z 28022G30KT 15SM FEW025 BKN085 BKN220 11/08 A2928 RMK SC1AS6CI1 SLP918=
CYUL;2005-10-16 17:00;METAR CYUL 161700Z 29020G27KT 15SM SCT025 BKN100 11/08 A2930 RMK SC3AS4 SLP923=
CYUL;2005-10-16 19:53;SPECI CYUL 161953Z 29016G25KT 15SM -SHRA BKN035 OVC110 12/ RMK SC6AS2=
CYUL;2005-10-16 21:00;METAR CYUL 162100Z 29014KT 15SM -SHRA BKN030 OVC110 11/08 A2936 RMK SC7AS1 SLP942=
CYUL;2005-10-16 22:00;METAR CYUL 162200Z 29019G26KT 15SM -SHRA FEW030 OVC090 11/08 A2937 RMK CF2AS6 SLP947=
CYUL;2005-10-16 22:33;SPECI CYUL 162233Z 29016G27KT 15SM FEW030 OVC100 11/ RMK SC2AC6=
CYUL;2005-10-16 23:00;METAR CYUL 162300Z 29023KT 15SM FEW030 OVC090 11/07 A2939 RMK SC2AC6 SLP954=
CYUL;2005-10-17 00:00;METAR CYUL 170000Z 28015G27KT 15SM FEW030 OVC100 10/07 A2942 RMK SC1AS7 SLP964=
CYUL;2005-10-17 01:00;METAR CYUL 170100Z 29017G26KT 15SM FEW030 FEW060 OVC110 10/07 A2944 RMK SC1SC1AS6 SLP969=
CYUL;2005-10-17 02:00;METAR CYUL 170200Z 29016G21KT 15SM -SHRA FEW030 OVC060 10/07 A2945 RMK SC2SC6 SLP974=
CYUL;2005-10-17 03:00;METAR CYUL 170300Z 28013G20KT 12SM -SHRA OVC035 10/07 A2947 RMK SC8 SLP980=
CYUL;2005-10-17 04:00;METAR CYUL 170400Z 28014G19KT 12SM -RA OVC040 09/07 A2947 RMK SC8 SLP979=
CYUL;2005-10-17 05:00;METAR CYUL 170500Z 28015G21KT 15SM OVC060 10/07 A2948 RMK SC8 SLP984=
CYUL;2005-10-17 06:00;METAR CYUL 170600Z 28014G22KT 15SM OVC065 09/06 A2949 RMK SC8 SLP986=
CYUL;2005-10-17 08:00;METAR CYUL 170800Z 29015G24KT 15SM -RA FEW030 OVC080 09/05 A2950 RMK SC1AC8 SLP989=
CYUL;2005-10-17 09:00;METAR CYUL 170900Z 29018KT 15SM -RA FEW030 OVC090 09/05 A2952 RMK SC1AC8 SLP996=
CYUL;2005-10-17 10:00;METAR CYUL 171000Z 29016G21KT 15SM -RA FEW030 OVC070 09/05 A2954 RMK SC1AC8 SLP004=
CYUL;2005-10-17 10:51;SPECI CYUL 171051Z 29015G20KT 15SM FEW030 OVC080 08/ RMK SC2AC6=
CYUL;2005-10-17 11:00;METAR CYUL 171100Z 29014G19KT 15SM SCT030 OVC100 09/04 A2956 RMK SC3AC5 SLP010=
CYUL;2005-10-17 12:00;METAR CYUL 171200Z 30012G17KT 15SM SCT030 BKN110 09/04 A2959 RMK SC3AC4 SLP022=
CYUL;2005-10-17 13:00;METAR CYUL 171300Z 29011G16KT 15SM SCT030 OVC130 09/04 A2960 RMK SC4AC4 SLP026=
CYUL;2005-10-17 14:00;METAR CYUL 171400Z 27013KT 15SM FEW020 BKN028 OVC120 09/05 A2961 RMK SC2SC5AC1 SLP029=
CYUL;2005-10-17 15:00;METAR CYUL 171500Z 27014KT 15SM SCT022 BKN030 OVC100 10/05 A2961 RMK SC3SC4AC1 SLP027=
CYUL;2005-10-17 16:00;METAR CYUL 171600Z 27016KT 20SM FEW021 BKN026 OVC110 10/05 A2961 RMK SC2SC6AC1 SLP029=
CYUL;2005-10-17 17:00;METAR CYUL 171700Z 27015KT 25SM FEW020 BKN026 OVC110 10/05 A2961 RMK SC2SC5AC1 SLP027=
CYUL;2005-10-17 18:00;METAR CYUL 171800Z 26019KT 25SM FEW022 OVC028 10/06 A2960 RMK SC2SC6 SLP025=
CYUL;2005-10-17 19:00;METAR CYUL 171900Z 27017KT 25SM FEW024 BKN032 OVC120 10/05 A2960 RMK SC2SC5AC1 SLP025=
CYUL;2005-10-17 20:00;METAR CYUL 172000Z 28018G24KT 25SM OVC032 10/05 A2960 RMK SC7 SLP026=
CYUL;2005-10-17 21:00;METAR CYUL 172100Z 27016G21KT 25SM OVC032 10/05 A2960 RMK SC7 SLP026=
CYUL;2005-10-17 23:00;METAR CYUL 172300Z 23013G18KT 15SM FEW022 OVC034 10/05 A2962 RMK CF2SC6 SLP031=
CYUL;2005-10-18 00:00;METAR CYUL 180000Z 26013G19KT 15SM BKN021 OVC034 10/05 A2962 RMK SC5SC3 SLP031=
CYUL;2005-10-18 02:00;METAR CYUL 180200Z 23008KT 15SM FEW035 FEW090 08/05 A2961 RMK SC1AC2 SLP029=
CYUL;2005-10-18 04:00;METAR CYUL 180400Z 26005KT 15SM FEW030 07/04 A2960 RMK SC2 SLP026=
CYUL;2005-10-18 05:00;METAR CYUL 180500Z 25008KT 15SM FEW240 07/04 A2960 RMK CI0 SLP023=
CYUL;2005-10-18 06:00;METAR CYUL 180600Z 26006KT 15SM FEW240 06/04 A2958 RMK CI1 SLP017=
CYUL;2005-10-18 07:00;METAR CYUL 180700Z 24007KT 15SM BKN190 06/04 A2956 RMK AC6 SLP012=
CYUL;2005-10-18 08:00;METAR CYUL 180800Z 24003KT 15SM FEW015 OVC150 06/05 A2955 RMK SF1AC6 SLP009=
CYUL;2005-10-18 09:00;METAR CYUL 180900Z 22002KT 15SM FEW015 OVC130 07/05 A2955 RMK SF1AC7 SLP006=
CYUL;2005-10-18 10:00;METAR CYUL 181000Z 23003KT 15SM FEW015 FEW055 OVC100 07/05 A2953 RMK SF1SC2AC6 SLP002=
CYUL;2005-10-18 11:20;SPECI CYUL 181120Z 24004KT 15SM -RA FEW015 BKN040 OVC060 07/ RMK SF1SC6SC2=
CYUL;2005-10-18 13:00;METAR CYUL 181300Z 00000KT 6SM -RA OVC045 07/06 A2952 RMK SC8 SLP996=
CYUL;2005-10-18 14:00;METAR CYUL 181400Z 00000KT 4SM -RA VCFG FEW028 OVC038 08/06 A2951 RMK SC2SC6 SLP995=
CYUL;2005-10-18 14:32;SPECI CYUL 181432Z 00000KT 4SM -RA VCFG FEW010 OVC031 08/ RMK SF2SC6=
CYUL;2005-10-18 15:00;METAR CYUL 181500Z 00000KT 4SM -RA VCFG SCT010 BKN020 OVC030 08/07 A2950 RMK SF3SC4SC1 SLP990=
CYUL;2005-10-18 15:21;SPECI CYUL 181521Z 00000KT 4SM -RA VCFG SCT006 BKN018 OVC026 08/ RMK SF3SC4SC1=
CYUL;2005-10-18 15:54;SPECI CYUL 181554Z 00000KT 5SM -RA BR SCT005 BKN009 OVC013 08/ RMK SF3SC4SC1=
CYUL;2005-10-18 16:00;METAR CYUL 181600Z 00000KT 5SM -RA BR SCT005 BKN009 OVC013 08/07 A2949 RMK SF3SC4SC1 SLP986=
CYUL;2005-10-18 16:27;SPECI CYUL 181627Z 10002KT 5SM -RA BR FEW004 BKN007 OVC012 08/ RMK SF2SC5SC1=
CYUL;2005-10-18 17:00;METAR CYUL 181700Z 12002KT 3SM -RA BR FEW004 BKN007 OVC012 09/07 A2949 RMK SF2SC5SC1 SLP986=
CYUL;2005-10-18 17:04;SPECI CYUL 181704Z 11002KT 1 1/2SM -RA BR FEW003 BKN006 OVC011 09/ RMK FG1SF2SC5SC1=
CYUL;2005-10-18 17:25;SPECI CYUL 181725Z 00000KT 2SM -DZ BR FEW004 BKN007 OVC011 08/ RMK FG1SF2SC5SC1=
CYUL;2005-10-18 17:41;SPECI CYUL 181741Z 00000KT 2SM -RA BR SCT004 BKN007 OVC011 09/ RMK FG2SF2SC3SC1=
CYUL;2005-10-18 18:00;METAR CYUL 181800Z 01002KT 1SM R24R/P6000FT/D R24L/P6000FT/D -DZ BR BKN004 OVC007 08/08 A2949 RMK FG2SF2ST3 SLP987=
CYUL;2005-10-18 18:32;SPECI CYUL 181832Z 34004KT 1SM R24R/P6000FT/U R24L/P6000FT/N -DZ BR SCT001 BKN004 OVC008 09/ RMK FG2SF2SF4ST1=
CYUL;2005-10-18 18:42;SPECI CYUL 181842Z 35003KT 2SM -DZ BR FEW001 BKN005 OVC010 09/ RMK FG1SF2SF5ST1=
CYUL;2005-10-18 19:00;METAR CYUL 181900Z 34004KT 1 1/4SM -DZ BR FEW001 BKN005 OVC010 09/08 A2950 RMK FG2SF1SF5ST1 SLP989=
CYUL;2005-10-18 19:09;SPECI CYUL 181909Z 34003KT 1SM R24R/P6000FT/D R24L/P6000FT/D -DZ BR SCT001 OVC005 09/ RMK FG2SF2ST5=
CYUL;2005-10-18 20:00;METAR CYUL 182000Z 34002KT 2 1/2SM -DZ BR FEW001 OVC006 09/08 A2951 RMK FG1SF2SF6 SLP993=
CYUL;2005-10-18 20:11;SPECI CYUL 182011Z 33002KT 3SM -DZ BR FEW002 BKN006 OVC012 09/ RMK SF2SF6ST1=
CYUL;2005-10-18 21:00;METAR CYUL 182100Z 30002KT 2 1/2SM -DZ BR FEW003 BKN006 OVC011 09/08 A2954 RMK SF2SF4ST2 SLP003=
CYUL;2005-10-18 21:32;SPECI CYUL 182132Z 29007KT 3SM -DZ BR FEW002 BKN007 OVC012 09/ RMK SF2SF5ST1=
CYUL;2005-10-18 21:48;SPECI CYUL 182148Z 29002KT 4SM BR SCT004 BKN010 BKN017 OVC024 09/ RMK SF3SF3SC1SC1=
CYUL;2005-10-18 22:00;METAR CYUL 182200Z 00000KT 4SM BR SCT004 BKN009 OVC021 09/08 A2956 RMK SF3SF4SC1 SLP010=
CYUL;2005-10-18 22:37;SPECI CYUL 182237Z 31002KT 6SM BR FEW004 BKN015 BKN063 OVC095 08/ RMK SF1SC5SC1AC1=
CYUL;2005-10-18 23:00;METAR CYUL 182300Z 31002KT 6SM BR FEW004 FEW015 BKN028 BKN065 08/07 A2958 RMK SF1SF2SC2SC2 SLP017=
CYUL;2005-10-19 00:00;METAR CYUL 190000Z 30002KT 6SM BR FEW028 SCT065 OVC083 08/07 A2960 RMK SC1SC2AC5 SLP023=
CYUL;2005-10-19 01:00;METAR CYUL 190100Z 27002KT 6SM BR FEW028 BKN065 OVC078 09/08 A2963 RMK SC1SC6AC2 SLP035=
CYUL;2005-10-19 01:45;SPECI CYUL 190145Z 30002KT 6SM -RA BR FEW038 BKN065 OVC085 09/ RMK SC2SC4AC2=
CYUL;2005-10-19 02:00;METAR CYUL 190200Z 27002KT 6SM -RA BR FEW020 BKN065 OVC085 09/08 A2966 RMK SC2SC4AC2 SLP044=
CYUL;2005-10-19 03:00;METAR CYUL 190300Z 32006KT 8SM SCT030 BKN075 10/09 A2968 RMK SC3AC3 SLP050=
CYUL;2005-10-19 04:00;METAR CYUL 190400Z 26006KT 8SM BKN055 OVC080 09/07 A2971 RMK SC6AC2 SLP060=
CYUL;2005-10-19 05:00;METAR CYUL 190500Z 26005KT 15SM FEW055 FEW090 08/07 A2972 RMK SC1AC2 SLP066=
CYUL;2005-10-19 06:00;METAR CYUL 190600Z 27003KT 15SM SCT090 07/06 A2973 RMK AC3 SLP070=
CYUL;2005-10-19 07:00;METAR CYUL 190700Z 25008KT 15SM FEW015 SCT035 OVC055 08/08 A2975 RMK SF1SC3SC3 SLP077=
CYUL;2005-10-19 09:00;METAR CYUL 190900Z 25007KT 15SM SCT015 OVC045 09/07 A2976 RMK SF3SC5 SLP080=
CYUL;2005-10-19 10:00;METAR CYUL 191000Z 25010KT 15SM BKN016 OVC040 09/07 A2976 RMK SF6SC2 SLP081=
CYUL;2005-10-19 11:00;METAR CYUL 191100Z 24013KT 15SM OVC020 08/06 A2978 RMK SC8 SLP085=
CYUL;2005-10-19 12:00;METAR CYUL 191200Z 23010G16KT 15SM OVC022 08/06 A2979 RMK SC8 SLP088=
CYUL;2005-10-19 12:25;SPECI CYUL 191225Z 23010KT 15SM -SHRA OVC022 08/ RMK SC8=
CYUL;2005-10-19 12:43;SPECI CYUL 191243Z 24010KT 15SM FEW030 BKN080 OVC240 08/ RMK SC2AC2CI0=
CYUL;2005-10-19 12:47;SPECI CYUL 191247Z 24009KT 15SM -SHRA FEW030 BKN080 OVC240 09/ RMK SC2AC2CI0=
CYUL;2005-10-19 13:00;METAR CYUL 191300Z 24009KT 15SM -SHRA SCT030 BKN075 OVC240 08/06 A2976 RMK SC3AC4CI0 SLP079=
CYUL;2005-10-19 14:00;METAR CYUL 191400Z 22007KT 12SM -SHRA FEW015 BKN022 OVC075 08/06 A2976 RMK CF1SC6AC2 SLP078=
CYUL;2005-10-19 14:28;SPECI CYUL 191428Z 25006KT 15SM -SHRA FEW009 BKN014 OVC020 08/ RMK SF1SC6SC2=
CYUL;2005-10-19 15:00;METAR CYUL 191500Z 25004KT 15SM -SHRA FEW009 BKN016 BKN030 OVC070 08/07 A2972 RMK SF2SC2SC2AC2 SLP065=
CYUL;2005-10-19 16:00;METAR CYUL 191600Z 20007KT 15SM -SHRA BKN012 BKN020 OVC050 09/08 A2970 RMK SC6SC2SC1 SLP058=
CYUL;2005-10-19 16:38;SPECI CYUL 191638Z 24004KT 12SM -SHRA SCT011 BKN030 OVC050 09/ RMK SF4SC2SC2=
CYUL;2005-10-19 17:00;METAR CYUL 191700Z 23003KT 12SM -RA FEW011 BKN040 OVC070 09/07 A2967 RMK SF2SC4AC2 SLP048=
CYUL;2005-10-19 18:00;METAR CYUL 191800Z 13006KT 6SM -RA BR FEW010 BKN040 OVC070 09/08 A2960 RMK SF2SC5AC1 PRESFR SLP025=
CYUL;2005-10-19 19:00;METAR CYUL 191900Z 13007KT 7SM -RA FEW010 BKN050 OVC070 09/08 A2955 RMK SF2SC5AC2 SLP006=
CYUL;2005-10-19 20:00;METAR CYUL 192000Z 15010KT 15SM FEW010 OVC035 10/08 A2951 RMK SF1SC7 INTMT R- SLP994=
CYUL;2005-10-19 21:00;METAR CYUL 192100Z 17009KT 10SM -RA FEW009 SCT016 OVC024 10/09 A2948 RMK SF1SC2SC5 SLP983=
CYUL;2005-10-19 22:00;METAR CYUL 192200Z 22007KT 5SM -RA BR FEW009 BKN014 OVC020 11/10 A2947 RMK SF1SC6SC2 SLP981=
CYUL;2005-10-19 22:19;SPECI CYUL 192219Z 28008KT 10SM -RA FEW010 BKN025 OVC040 11/ RMK SF2SC4SC2=
CYUL;2005-10-19 22:40;SPECI CYUL 192240Z 27014KT 10SM -RA BKN012 BKN022 OVC040 11/ RMK SF6SC2SC1=
CYUL;2005-10-19 23:30;SPECI CYUL 192330Z 31013KT 15SM FEW009 BKN030 BKN040 09/ RMK SF2SC2SC2=
CYUL;2005-10-20 00:00;METAR CYUL 200000Z 30014G19KT 15SM BKN018 BKN040 09/06 A2963 RMK SC5SC2 PRESRR SLP035=
CYUL;2005-10-20 01:00;METAR CYUL 200100Z 29011G18KT 15SM BKN022 06/03 A2973 RMK SC5 PRESRR SLP067=
CYUL;2005-10-20 02:00;METAR CYUL 200200Z 28013G19KT 15SM SCT030 06/02 A2978 RMK SC3 SLP084=
CYUL;2005-10-20 03:00;METAR CYUL 200300Z 27013G19KT 15SM FEW025 BKN035 06/02 A2980 RMK SC1SC6 SLP094=
CYUL;2005-10-20 04:00;METAR CYUL 200400Z 27014KT 15SM FEW025 06/03 A2982 RMK SC1 SLP099=
CYUL;2005-10-20 06:00;METAR CYUL 200600Z 27012G17KT 15SM FEW022 05/02 A2984 RMK SC2 SLP108=
CYUL;2005-10-20 08:00;METAR CYUL 200800Z 27010KT 15SM FEW022 04/01 A2987 RMK SC1 SLP116=
CYUL;2005-10-20 09:00;METAR CYUL 200900Z 25010KT 15SM FEW020 FEW100 03/01 A2989 RMK SC1AC1 SLP124=
CYUL;2005-10-20 10:00;METAR CYUL 201000Z 25009KT 15SM FEW020 FEW100 03/01 A2991 RMK SC2AC1 SLP130=
CYUL;2005-10-20 11:00;METAR CYUL 201100Z 25007KT 15SM FEW025 03/01 A2992 RMK SC2 SLP132=
CYUL;2005-10-20 12:00;METAR CYUL 201200Z 26010KT 15SM FEW015 BKN025 03/01 A2994 RMK SC1SC7 SLP140=
CYUL;2005-10-20 13:00;METAR CYUL 201300Z 26011KT 15SM FEW025 FEW100 04/01 A2995 RMK SC2AC1 SLP142=
CYUL;2005-10-20 14:00;METAR CYUL 201400Z 27009KT 15SM FEW012 BKN018 05/02 A2996 RMK CF2SC5 SLP146=
CYUL;2005-10-20 15:00;METAR CYUL 201500Z 26012KT 15SM BKN018 07/03 A2996 RMK SC6 SLP147=
CYUL;2005-10-20 16:00;METAR CYUL 201600Z 26013G19KT 15SM SCT025 08/02 A2996 RMK SC4 CU ASOCT SLP147=
CYUL;2005-10-20 17:00;METAR CYUL 201700Z 25015KT 15SM BKN030 09/02 A2995 RMK SC5 CU ASOCT SLP142=
CYUL;2005-10-20 18:00;METAR CYUL 201800Z 26014KT 30SM SCT035 10/00 A2995 RMK SC4 CU ASOCT SLP142=
CYUL;2005-10-20 19:00;METAR CYUL 201900Z 28012G20KT 30SM SCT040 10/01 A2995 RMK SC3 CU ASOCT SLP144=
CYUL;2005-10-20 20:00;METAR CYUL 202000Z 26014G19KT 30SM FEW040 10/M01 A2995 RMK SC2 CU ASOCT SLP143=
CYUL;2005-10-20 21:00;METAR CYUL 202100Z 26013G18KT 30SM FEW040 09/M00 A2996 RMK SC2 SLP148=
CYUL;2005-10-20 22:00;METAR CYUL 202200Z 26012KT 30SM FEW040 FEW240 08/M01 A2998 RMK SC1CI1 SLP153=
CYUL;2005-10-20 23:00;METAR CYUL 202300Z 27008KT 15SM FEW040 07/M01 A2999 RMK SC1 SLP158=
CYUL;2005-10-21 00:00;METAR CYUL 210000Z 29005KT 15SM FEW040 05/M01 A3000 RMK SC1 SLP162=
CYUL;2005-10-21 01:00;METAR CYUL 210100Z 32005KT 15SM SKC 03/M01 A3003 RMK SLP170=
CYUL;2005-10-21 02:22;SPECI CYUL 210222Z 30004KT 15SM SKC 01/=
CYUL;2005-10-21 03:00;METAR CYUL 210300Z 00000KT 15SM SKC 03/M01 A3003 RMK SLP171=
CYUL;2005-10-21 04:00;METAR CYUL 210400Z 29004KT 15SM SKC 01/M02 A3004 RMK SLP173=
CYUL;2005-10-21 05:00;METAR CYUL 210500Z 25004KT 15SM SKC 02/M02 A3006 RMK SLP179=
CYUL;2005-10-21 06:00;METAR CYUL 210600Z 26004KT 15SM SKC 03/M01 A3006 RMK SLP181=
CYUL;2005-10-21 06:23;SPECI CYUL 210623Z 26002KT 15SM SKC 01/=
CYUL;2005-10-21 07:00;METAR CYUL 210700Z 00000KT 15SM SKC 02/M01 A3006 RMK SLP180=
CYUL;2005-10-21 09:00;METAR CYUL 210900Z 26005KT 15SM FEW015 FEW090 01/M01 A3006 RMK SC1AC2 SLP181=
CYUL;2005-10-21 10:00;METAR CYUL 211000Z 28005KT 15SM SKC M00/M02 A3007 RMK SLP183=
CYUL;2005-10-21 11:00;METAR CYUL 211100Z 27005KT 30SM FEW012 FEW150 M00/M01 A3007 RMK SF1AC1 SLP184=
CYUL;2005-10-21 12:00;METAR CYUL 211200Z 28006KT 30SM FEW012 FEW150 01/M01 A3009 RMK SF1AC1 SLP192=
CYUL;2005-10-21 13:00;METAR CYUL 211300Z 28010KT 30SM FEW015 FEW050 FEW150 03/01 A3010 RMK CF1SC1AC1 SLP196=
CYUL;2005-10-21 14:00;METAR CYUL 211400Z 30008KT 30SM FEW015 FEW025 FEW240 04/00 A3011 RMK CF1SC1CI1 SLP198=
CYUL;2005-10-21 15:00;METAR CYUL 211500Z 29009KT 30SM BKN022 05/00 A3011 RMK SC5 SLP196=
CYUL;2005-10-21 16:00;METAR CYUL 211600Z 27009KT 30SM BKN025 06/00 A3010 RMK SC5 SLP194=
CYUL;2005-10-21 17:00;METAR CYUL 211700Z 27008KT 30SM FEW025 07/01 A3008 RMK SC2 SLP188=
CYUL;2005-10-21 18:00;METAR CYUL 211800Z 25009KT 30SM FEW025 08/01 A3006 RMK CU2 SLP182=
CYUL;2005-10-21 21:00;METAR CYUL 212100Z 27003KT 30SM FEW030 FEW240 09/01 A3005 RMK SC1CI1 SLP176=
CYUL;2005-10-21 22:00;METAR CYUL 212200Z 27006KT 30SM FEW040 FEW240 07/01 A3006 RMK SC1CI0 SLP179=
CYUL;2005-10-21 23:00;METAR CYUL 212300Z 26004KT 15SM FEW240 06/01 A3006 RMK CI0 SLP180=
CYUL;2005-10-22 00:00;METAR CYUL 220000Z 25002KT 15SM FEW240 05/01 A3006 RMK CI1 SLP180=
CYUL;2005-10-22 01:00;METAR CYUL 220100Z 00000KT 15SM SKC 05/01 A3006 RMK SLP180=
CYUL;2005-10-22 02:00;METAR CYUL 220200Z 00000KT 15SM SKC 04/01 A3006 RMK SLP179=
CYUL;2005-10-22 03:00;METAR CYUL 220300Z 30002KT 15SM SKC 03/00 A3005 RMK SLP178=
CYUL;2005-10-22 03:32;SPECI CYUL 220332Z 27003KT 15SM SKC 02/=
CYUL;2005-10-22 04:00;METAR CYUL 220400Z 27003KT 15SM SKC 02/M00 A3005 RMK SLP178=
CYUL;2005-10-22 05:00;METAR CYUL 220500Z 35004KT 15SM SKC 02/M00 A3004 RMK SLP175=
CYUL;2005-10-22 06:00;METAR CYUL 220600Z 03003KT 15SM FEW240 02/00 A3003 RMK CI1 SLP171=
CYUL;2005-10-22 07:00;METAR CYUL 220700Z 03005KT 15SM FEW240 01/M01 A3002 RMK CI1 SLP168=
CYUL;2005-10-22 08:00;METAR CYUL 220800Z 03006KT 15SM SCT240 01/M01 A3001 RMK CI0 SLP164=
CYUL;2005-10-22 09:00;METAR CYUL 220900Z 03006KT 15SM BKN240 01/M01 A3001 RMK CI1 SLP165=
CYUL;2005-10-22 10:00;METAR CYUL 221000Z 03006KT 15SM BKN240 01/M01 A3001 RMK CI0 SLP164=
CYUL;2005-10-22 11:00;METAR CYUL 221100Z 03005KT 15SM FEW015 BKN240 01/M01 A3000 RMK SC1CI1 SLP162=
CYUL;2005-10-22 12:00;METAR CYUL 221200Z 03006KT 15SM FEW015 BKN240 02/00 A3001 RMK SC1CI2 SLP163=
CYUL;2005-10-22 13:00;METAR CYUL 221300Z 05008KT 15SM FEW015 BKN240 04/01 A3000 RMK SC1CI2 SLP161=
CYUL;2005-10-22 14:00;METAR CYUL 221400Z 05008KT 15SM FEW015 BKN240 05/02 A3000 RMK SF1CI2 CC ASOCT SLP162=
CYUL;2005-10-22 15:00;METAR CYUL 221500Z 04008KT 15SM FEW010 FEW150 BKN240 06/02 A2999 RMK SF1AC1CI1 SLP157=
CYUL;2005-10-22 16:00;METAR CYUL 221600Z 04006KT 15SM FEW012 FEW150 BKN240 07/03 A2998 RMK SF1AC2CI1 SLP152=
CYUL;2005-10-22 17:00;METAR CYUL 221700Z 05010KT 15SM FEW015 BKN180 BKN220 08/02 A2994 RMK CF1AC4CI1 SLP139=
CYUL;2005-10-22 18:00;METAR CYUL 221800Z 04010KT 15SM FEW020 BKN180 BKN220 09/02 A2991 RMK CF1AC6CI1 SLP131=
CYUL;2005-10-22 20:00;METAR CYUL 222000Z 05011KT 15SM FEW020 BKN160 BKN240 08/03 A2989 RMK SC1AC6CI1 SLP122=
CYUL;2005-10-22 21:00;METAR CYUL 222100Z 05012KT 15SM FEW040 BKN140 BKN180 08/02 A2987 RMK SC1AC6AC1 SLP117=
CYUL;2005-10-22 22:00;METAR CYUL 222200Z 04011KT 15SM FEW040 BKN140 BKN210 08/02 A2986 RMK SC1AC4CI1 SLP114=
CYUL;2005-10-22 23:00;METAR CYUL 222300Z 05010KT 15SM BKN130 BKN220 08/02 A2985 RMK AC5CI0 SLP110=
CYUL;2005-10-23 00:00;METAR CYUL 230000Z 05009G15KT 15SM BKN140 BKN220 08/02 A2984 RMK AC5CI1 SLP105=
CYUL;2005-10-23 01:00;METAR CYUL 230100Z 05011KT 15SM SCT130 OVC160 08/02 A2982 RMK AC3AC4 SLP100=
CYUL;2005-10-23 03:00;METAR CYUL 230300Z 05009G15KT 15SM BKN090 OVC130 07/03 A2977 RMK AC6AC2 SLP082=
CYUL;2005-10-23 04:00;METAR CYUL 230400Z 05010KT 15SM BKN080 OVC120 07/03 A2976 RMK AC6AC2 SLP078=
CYUL;2005-10-23 05:00;METAR CYUL 230500Z 05009KT 15SM -RA OVC045 07/03 A2974 RMK SC8 SLP072=
CYUL;2005-10-23 06:00;METAR CYUL 230600Z 04013KT 8SM -RA OVC035 06/04 A2973 RMK SC8 SLP069=
CYUL;2005-10-23 07:00;METAR CYUL 230700Z 04012KT 8SM -RA OVC030 06/04 A2972 RMK SC8 SLP067=
CYUL;2005-10-23 08:00;METAR CYUL 230800Z 03012KT 6SM -RA BKN030 OVC050 06/04 A2971 RMK SC6SC2 SLP063=
CYUL;2005-10-23 08:37;SPECI CYUL 230837Z 04012G18KT 6SM -RA SCT011 OVC045 06/ RMK SF3SC5=
CYUL;2005-10-23 09:00;METAR CYUL 230900Z 04013KT 6SM -RA FEW011 OVC035 06/04 A2971 RMK SF2SC6 SLP064=
CYUL;2005-10-23 10:00;METAR CYUL 231000Z 04012KT 6SM -RA SCT013 OVC030 05/04 A2972 RMK SF4SC4 SLP066=
CYUL;2005-10-23 11:00;METAR CYUL 231100Z 04012KT 6SM -RA BKN011 OVC030 06/04 A2973 RMK SF5SC3 SLP070=
CYUL;2005-10-23 12:00;METAR CYUL 231200Z 04013G18KT 4SM -RA BR BKN012 OVC040 06/04 A2974 RMK SF6SC2 SLP074=
CYUL;2005-10-23 13:00;METAR CYUL 231300Z 04010G17KT 4SM -RA BR BKN013 OVC035 07/05 A2975 RMK SF6SC2 SLP075=
CYUL;2005-10-23 14:00;METAR CYUL 231400Z 05016G21KT 10SM -RA BKN013 OVC035 07/05 A2976 RMK SF6SC2 SLP078=
CYUL;2005-10-23 15:00;METAR CYUL 231500Z 05014G20KT 8SM -RA BKN014 OVC035 08/06 A2976 RMK SF6SC2 SLP080=
CYUL;2005-10-23 16:00;METAR CYUL 231600Z 05016KT 15SM -RA BKN014 BKN028 OVC050 08/06 A2977 RMK SC6SC2SC1 SLP083=
CYUL;2005-10-23 16:40;SPECI CYUL 231640Z 05013G20KT 15SM -RA SCT012 BKN018 OVC030 08/ RMK SF3SC4SC1 -RA INTMT=
CYUL;2005-10-23 17:00;METAR CYUL 231700Z 04014G21KT 15SM BKN015 OVC026 08/05 A2978 RMK SC6SC2 INTMT -RA SLP085=
CYUL;2005-10-23 18:00;METAR CYUL 231800Z 05015KT 12SM -RA BKN018 OVC030 09/05 A2979 RMK SC6SC2 -RA INTMT SLP088=
CYUL;2005-10-23 18:20;SPECI CYUL 231820Z 03014KT 8SM -RA BKN013 OVC025 08/ RMK SC6SC2=
CYUL;2005-10-23 19:00;METAR CYUL 231900Z 05016KT 15SM -RA BKN018 BKN025 OVC050 08/06 A2980 RMK SC6SC2SC1 SLP093=
CYUL;2005-10-23 19:45;SPECI CYUL 231945Z 05016G21KT 15SM BKN020 OVC040 09/ RMK SC6SC2=
CYUL;2005-10-23 20:00;METAR CYUL 232000Z 05013G20KT 12SM BKN022 OVC035 09/05 A2982 RMK SC6SC2 SLP099=
CYUL;2005-10-23 20:38;SPECI CYUL 232038Z 05013G18KT 15SM -SHRA BKN024 OVC035 09/ RMK SC6SC2=
CYUL;2005-10-23 21:00;METAR CYUL 232100Z 05012G19KT 15SM -SHRA SCT022 BKN040 OVC065 08/04 A2984 RMK SC3SC3SC2 SLP108=
CYUL;2005-10-23 22:00;METAR CYUL 232200Z 05010KT 10SM -SHRA SCT025 OVC045 08/04 A2988 RMK SC3SC5 SLP119=
CYUL;2005-10-23 23:00;METAR CYUL 232300Z 05009G15KT 10SM -RA FEW025 OVC042 08/04 A2991 RMK SC2SC6 SLP129=
CYUL;2005-10-24 00:00;METAR CYUL 240000Z 05008KT 10SM -RA FEW025 OVC045 07/04 A2992 RMK SC1SC7 SLP134=
CYUL;2005-10-24 01:00;METAR CYUL 240100Z 06010KT 10SM -RA FEW030 OVC055 07/03 A2994 RMK SC1SC7 SLP139=
CYUL;2005-10-24 03:00;METAR CYUL 240300Z 06010KT 12SM FEW030 OVC090 06/02 A2996 RMK SC2AC6 SLP146=
CYUL;2005-10-24 03:24;SPECI CYUL 240324Z 07009G15KT 12SM -RA BKN035 OVC090 06/ RMK SC5AC3 -RA INTMT=
CYUL;2005-10-24 05:00;METAR CYUL 240500Z 05011KT 8SM -RA BKN035 OVC085 06/03 A2997 RMK SC6AC2 SLP151=
CYUL;2005-10-24 06:00;METAR CYUL 240600Z 05010KT 8SM -RA BKN038 OVC060 06/03 A2998 RMK SC6SC2 SLP154=
CYUL;2005-10-24 07:00;METAR CYUL 240700Z 05009KT 6SM -RA BKN037 OVC063 06/03 A2999 RMK SC6SC2 SLP158=
CYUL;2005-10-24 08:00;METAR CYUL 240800Z 05010KT 6SM -RA BKN033 OVC065 05/03 A3000 RMK SC6SC2 SLP161=
CYUL;2005-10-24 09:00;METAR CYUL 240900Z 05011KT 6SM -RA OVC030 05/03 A3002 RMK SC8 SLP166=
CYUL;2005-10-24 10:00;METAR CYUL 241000Z 05008KT 6SM -RA OVC025 05/03 A3003 RMK SC8 SLP171=
CYUL;2005-10-24 11:00;METAR CYUL 241100Z 05009KT 8SM -RA SCT030 OVC110 05/03 A3005 RMK SC3AC5 SLP177=
CYUL;2005-10-24 11:45;SPECI CYUL 241145Z 05009KT 15SM OVC026 05/ RMK SC8=
CYUL;2005-10-24 12:00;METAR CYUL 241200Z 05008KT 15SM OVC026 05/03 A3007 RMK SC8 SLP183=
CYUL;2005-10-24 12:05;SPECI CYUL 241205Z 04010KT 15SM -RA OVC026 05/ RMK SC8 -RA INTMT=
CYUL;2005-10-24 13:00;METAR CYUL 241300Z 06009KT 15SM -RA FEW012 BKN027 OVC120 06/03 A3008 RMK SF2SC4AS2 -RA INTMT SLP187=
CYUL;2005-10-24 14:00;METAR CYUL 241400Z 05010KT 15SM -RA FEW011 BKN026 OVC034 06/04 A3009 RMK SF2SC4SC2 -RA INTMT SLP190=
CYUL;2005-10-24 14:21;SPECI CYUL 241421Z 06008KT 15SM BKN012 BKN026 OVC032 06/ RMK SF5SC2SC1 INTMT -RA=
CYUL;2005-10-24 15:00;METAR CYUL 241500Z 06011KT 15SM BKN015 OVC024 07/04 A3009 RMK SC6SC2 SLP190=
CYUL;2005-10-24 16:00;METAR CYUL 241600Z 07009KT 15SM SCT015 BKN022 OVC032 07/03 A3009 RMK SC3SC4SC1 SLP190=
CYUL;2005-10-24 17:00;METAR CYUL 241700Z 07012KT 15SM FEW015 BKN022 OVC038 08/03 A3008 RMK SF1SC7SC1 SLP187=
CYUL;2005-10-24 18:00;METAR CYUL 241800Z 05010KT 20SM BKN023 OVC042 08/03 A3007 RMK SC7SC1 SLP183=
CYUL;2005-10-24 21:00;METAR CYUL 242100Z 06010KT 25SM FEW014 SCT026 OVC033 08/03 A3006 RMK SF1SC2SC5 SLP182=
CYUL;2005-10-24 22:00;METAR CYUL 242200Z 05009KT 20SM FEW014 BKN025 OVC035 08/04 A3008 RMK SF1SC5SC2 SLP188=
CYUL;2005-10-25 00:00;METAR CYUL 250000Z 05011KT 15SM FEW022 BKN036 OVC070 08/04 A3008 RMK SC1SC6AC1 SLP189=
CYUL;2005-10-25 01:00;METAR CYUL 250100Z 05014KT 15SM FEW020 BKN038 OVC068 07/04 A3009 RMK SC1SC6AC2 SLP190=
CYUL;2005-10-25 02:00;METAR CYUL 250200Z 04010KT 15SM FEW020 SCT045 OVC075 07/05 A3007 RMK SC1SC3AC4 SLP184=
CYUL;2005-10-25 03:00;METAR CYUL 250300Z 05013KT 15SM FEW020 BKN045 OVC075 07/05 A3005 RMK SC1SC5AC2 SLP176=
CYUL;2005-10-25 04:00;METAR CYUL 250400Z 05009KT 15SM SCT040 OVC070 07/05 A3004 RMK SC3AC5 SLP173=
CYUL;2005-10-25 07:00;METAR CYUL 250700Z 05011KT 12SM -RA OVC055 07/05 A2998 RMK SC8 SLP154=
CYUL;2005-10-25 08:00;METAR CYUL 250800Z 05013G18KT 12SM -RA FEW020 OVC065 07/05 A2996 RMK SC2SC6 SLP148=
CYUL;2005-10-25 09:00;METAR CYUL 250900Z 05014KT 12SM SCT011 OVC035 07/05 A2995 RMK SF3SC5 SLP143=
CYUL;2005-10-25 10:00;METAR CYUL 251000Z 05015KT 12SM SCT014 OVC040 06/05 A2994 RMK SF3SC5 SLP140=
CYUL;2005-10-25 11:00;METAR CYUL 251100Z 05015G20KT 10SM -RA SCT014 OVC045 06/05 A2993 RMK SF4SC4 SLP138=
CYUL;2005-10-25 12:00;METAR CYUL 251200Z 05017G22KT 10SM -RA SCT015 OVC050 06/05 A2993 RMK SF4SC4 SLP136=
CYUL;2005-10-25 13:00;METAR CYUL 251300Z 05017G24KT 10SM -RA SCT016 OVC045 06/04 A2992 RMK SF4SC4 SLP133=
CYUL;2005-10-25 14:00;METAR CYUL 251400Z 05020KT 12SM -RA BKN015 OVC025 06/04 A2991 RMK SC6SC2 SLP129=
CYUL;2005-10-25 15:00;METAR CYUL 251500Z 05018G24KT 10SM -RA BKN015 OVC030 06/03 A2989 RMK SC6SC2 SLP124=
CYUL;2005-10-25 16:00;METAR CYUL 251600Z 05020G28KT 8SM -RA BKN015 OVC023 06/03 A2989 RMK SC6SC2 SLP124=
CYUL;2005-10-25 16:12;SPECI CYUL 251612Z 05015G25KT 8SM -RA BKN014 OVC022 06/ RMK SC6SC2=
CYUL;2005-10-25 17:00;METAR CYUL 251700Z 04021KT 8SM -RA BKN014 OVC022 05/03 A2985 RMK SC6SC2 SLP111=
CYUL;2005-10-25 18:00;METAR CYUL 251800Z 04018G29KT 7SM -RA BKN014 OVC022 05/03 A2983 RMK SC6SC2 SLP104=
CYUL;2005-10-25 19:00;METAR CYUL 251900Z 04022G31KT 8SM -RA BKN014 OVC025 05/03 A2980 RMK SC6SC2 SLP094=
CYUL;2005-10-25 20:00;METAR CYUL 252000Z 05024G31KT 7SM -RA BKN014 OVC022 04/02 A2979 RMK SC6SC2 SLP089=
CYUL;2005-10-25 21:00;METAR CYUL 252100Z 03019G24KT 7SM -RA BKN011 OVC020 04/02 A2978 RMK SC6SC2 SLP085=
CYUL;2005-10-25 22:00;METAR CYUL 252200Z 03015G26KT 8SM -RA BKN013 OVC020 04/02 A2979 RMK SC6SC2 SLP088=
CYUL;2005-10-25 23:00;METAR CYUL 252300Z 02017KT 6SM -RA BR BKN010 OVC018 03/02 A2979 RMK SF6SC2 SLP088=
CYUL;2005-10-26 00:00;METAR CYUL 260000Z 01019KT 6SM -RA BR BKN009 OVC016 03/01 A2976 RMK SF6SC2 SLP080=
CYUL;2005-10-26 01:00;METAR CYUL 260100Z 02020KT 6SM -RA BR OVC009 02/01 A2974 RMK SF8 SLP074=
CYUL;2005-10-26 02:00;METAR CYUL 260200Z 02017G22KT 6SM -RA BR OVC009 02/01 A2972 RMK ST8 SLP065=
CYUL;2005-10-26 03:00;METAR CYUL 260300Z 02017KT 6SM -RA BR OVC009 02/01 A2969 RMK ST8 SLP057=
CYUL;2005-10-26 05:00;METAR CYUL 260500Z 01014G19KT 6SM -RA BR OVC008 02/01 A2964 RMK ST8 SLP040=
CYUL;2005-10-26 06:00;METAR CYUL 260600Z 36014KT 5SM -RA BR OVC006 02/01 A2963 RMK ST8 SLP037=
CYUL;2005-10-26 08:00;METAR CYUL 260800Z 35012G20KT 6SM -RA BR BKN006 OVC014 02/01 A2960 RMK SF7SC1 SLP024=
CYUL;2005-10-26 10:00;METAR CYUL 261000Z 36013KT 6SM -RA BR OVC011 03/01 A2960 RMK SF8 SLP024=
CYUL;2005-10-26 11:00;METAR CYUL 261100Z 36011KT 7SM -RA BKN012 OVC030 03/02 A2960 RMK SF6SC2 SLP027=
CYUL;2005-10-26 12:00;METAR CYUL 261200Z 35012KT 12SM -RA FEW016 OVC022 03/02 A2963 RMK SF2SC6 SLP035=
CYUL;2005-10-26 13:00;METAR CYUL 261300Z 35014KT 10SM -RA BKN012 OVC018 03/02 A2965 RMK SF6SC2 SLP043=
CYUL;2005-10-26 14:00;METAR CYUL 261400Z 35014KT 8SM -RA BKN013 OVC020 03/02 A2968 RMK SC6SC2 SLP051=
CYUL;2005-10-26 15:00;METAR CYUL 261500Z 35014G19KT 12SM -RA BKN012 BKN020 OVC040 04/02 A2969 RMK SF6SC2SC1 -RA INTMT SLP057=
CYUL;2005-10-26 15:35;SPECI CYUL 261535Z 35016G21KT 15SM -RA SCT012 BKN016 OVC040 05/ RMK SF3SC3SC1 -RA INTMT=
CYUL;2005-10-26 16:00;METAR CYUL 261600Z 36013G18KT 15SM -RA FEW012 BKN018 OVC030 05/02 A2971 RMK SF2SC6SC1 -RA INTMT SLP063=
CYUL;2005-10-26 17:00;METAR CYUL 261700Z 35013KT 15SM -RA BKN017 OVC025 05/03 A2972 RMK SC6SC2 -RA INTMT SLP066=
CYUL;2005-10-26 18:00;METAR CYUL 261800Z 34013KT 15SM -RA BKN020 OVC050 06/02 A2974 RMK SC6SC2 SLP071=
CYUL;2005-10-26 18:40;SPECI CYUL 261840Z 32010G16KT 15SM BKN022 OVC050 06/ RMK SC5SC2=
CYUL;2005-10-26 19:00;METAR CYUL 261900Z 33009G15KT 15SM FEW020 BKN030 OVC050 06/02 A2976 RMK CF1SC6SC1 SLP078=
CYUL;2005-10-26 21:00;METAR CYUL 262100Z 32009KT 15SM FEW020 BKN035 06/01 A2980 RMK SC1SC6 SLP094=
CYUL;2005-10-26 22:00;METAR CYUL 262200Z 32009KT 15SM BKN035 BKN055 05/01 A2983 RMK SC5SC2 SLP104=
CYUL;2005-10-26 22:51;SPECI CYUL 262251Z 32006KT 15SM -SHRA FEW030 BKN055 05/ RMK SC2SC5=
CYUL;2005-10-26 23:00;METAR CYUL 262300Z 32005KT 15SM -SHRA FEW030 BKN055 05/01 A2987 RMK SC2SC6 SLP115=
CYUL;2005-10-26 23:30;SPECI CYUL 262330Z 32003KT 15SM FEW030 BKN055 05/ RMK SC2SC6=
CYUL;2005-10-27 00:00;METAR CYUL 270000Z 30004KT 15SM FEW050 BKN065 05/02 A2988 RMK SC2SC6 SLP120=
CYUL;2005-10-27 01:00;METAR CYUL 270100Z 31006KT 15SM FEW035 BKN055 05/01 A2990 RMK SC2SC6 SLP127=
CYUL;2005-10-27 02:00;METAR CYUL 270200Z 31006KT 15SM OVC060 05/01 A2992 RMK SC8 SLP132=
CYUL;2005-10-27 03:00;METAR CYUL 270300Z 29005KT 15SM OVC060 05/00 A2993 RMK SC8 SLP137=
CYUL;2005-10-27 04:00;METAR CYUL 270400Z 29006KT 15SM OVC060 04/00 A2994 RMK SC8 SLP141=
CYUL;2005-10-27 05:30;SPECI CYUL 270530Z 28006KT 15SM OVC050 04/ RMK SC8=
CYUL;2005-10-27 06:00;METAR CYUL 270600Z 29008KT 15SM OVC045 04/M00 A2997 RMK SC8 SLP151=
CYUL;2005-10-27 07:00;METAR CYUL 270700Z 30008KT 15SM OVC045 04/M01 A2998 RMK SC8 SLP155=
CYUL;2005-10-27 08:00;METAR CYUL 270800Z 30006KT 15SM OVC060 04/M02 A2999 RMK SC8 SLP156=
CYUL;2005-10-27 09:00;METAR CYUL 270900Z 30007KT 15SM OVC050 03/M02 A3001 RMK SC8 SLP163=
CYUL;2005-10-27 11:00;METAR CYUL 271100Z 29006KT 15SM OVC055 03/M01 A3005 RMK SC8 SLP178=
CYUL;2005-10-27 12:00;METAR CYUL 271200Z 30011KT 15SM -SHPL BKN032 OVC045 03/M01 A3008 RMK SC5SC3 SLP186=
CYUL;2005-10-27 12:36;SPECI CYUL 271236Z 30006KT 15SM FEW032 OVC050 03/ RMK SC2SC6=
CYUL;2005-10-27 13:00;METAR CYUL 271300Z 30006KT 15SM FEW035 OVC050 03/M01 A3010 RMK CF1SC7 VIRGA SLP193=
CYUL;2005-10-27 14:00;METAR CYUL 271400Z 30006KT 15SM FEW035 OVC054 04/M02 A3011 RMK SC2SC6 SLP198=
CYUL;2005-10-27 15:00;METAR CYUL 271500Z 29009KT 15SM FEW030 OVC053 05/M02 A3012 RMK SC2SC6 SLP201=
CYUL;2005-10-27 16:00;METAR CYUL 271600Z 30008KT 15SM FEW030 OVC050 05/M03 A3013 RMK SC1SC7 SLP205=
CYUL;2005-10-27 18:00;METAR CYUL 271800Z 27007KT 15SM FEW040 OVC050 05/M04 A3014 RMK SC2SC6 SLP206=
CYUL;2005-10-27 19:00;METAR CYUL NIL=
CYUL;2005-10-27 20:00;METAR CYUL 272000Z 32006KT 15SM OVC047 04/M03 A3015 RMK SC8 SLP211=
CYUL;2005-10-27 21:00;METAR CYUL 272100Z 27003KT 15SM OVC050 04/M02 A3017 RMK SC8 SLP219=
CYUL;2005-10-27 22:00;METAR CYUL 272200Z 27002KT 15SM OVC047 04/M02 A3019 RMK SC8 SLP224=
CYUL;2005-10-28 00:00;METAR CYUL 280000Z 24005KT 15SM FEW030 OVC048 04/M02 A3022 RMK SC2SC6 SLP237=
CYUL;2005-10-28 01:00;METAR CYUL 280100Z 26004KT 15SM BKN050 04/M01 A3023 RMK SC7 SLP239=
CYUL;2005-10-28 02:00;METAR CYUL 280200Z 26005KT 15SM OVC050 04/M01 A3024 RMK SC8 SLP243=
CYUL;2005-10-28 03:00;METAR CYUL 280300Z 27004KT 15SM OVC050 03/00 A3025 RMK SC8 SLP246=
CYUL;2005-10-28 04:00;METAR CYUL 280400Z 26005KT 15SM OVC050 04/M01 A3026 RMK SC8 SLP248=
CYUL;2005-10-28 05:00;METAR CYUL 280500Z 31004KT 15SM OVC050 03/M01 A3027 RMK SC8 SLP251=
CYUL;2005-10-28 06:00;METAR CYUL 280600Z 32004KT 15SM OVC055 03/M01 A3027 RMK SC8 SLP253=
CYUL;2005-10-28 08:00;METAR CYUL 280800Z 33002KT 15SM FEW025 OVC050 03/M00 A3028 RMK CF1SC8 SLP257=
CYUL;2005-10-28 09:00;METAR CYUL 280900Z 00000KT 15SM FEW025 OVC055 03/M00 A3029 RMK CF1SC8 SLP260=
CYUL;2005-10-28 10:00;METAR CYUL 281000Z 01002KT 15SM FEW025 OVC050 03/M00 A3030 RMK CF1SC8 SLP264=
CYUL;2005-10-28 11:00;METAR CYUL 281100Z 03004KT 15SM OVC050 03/M01 A3032 RMK SC8 SLP268=
CYUL;2005-10-28 12:00;METAR CYUL 281200Z 02003KT 15SM FEW025 OVC055 04/M00 A3033 RMK CF1SC8 SLP273=
CYUL;2005-10-28 13:00;METAR CYUL 281300Z 01002KT 30SM FEW025 FEW045 OVC055 04/00 A3035 RMK CF1SC1SC7 VIRGA SLP278=
CYUL;2005-10-28 14:00;METAR CYUL 281400Z 04002KT 15SM FEW030 OVC054 04/00 A3035 RMK SC2SC6 SLP281=
CYUL;2005-10-28 15:00;METAR CYUL 281500Z 00000KT 15SM FEW027 OVC055 05/M00 A3036 RMK SC2SC6 SLP282=
CYUL;2005-10-28 16:00;METAR CYUL 281600Z 00000KT 15SM FEW030 OVC050 05/M01 A3035 RMK SC2SC6 SLP279=
CYUL;2005-10-28 17:00;METAR CYUL 281700Z 00000KT 15SM SCT028 OVC050 05/00 A3034 RMK SC3SC5 SLP275=
CYUL;2005-10-28 18:00;METAR CYUL 281800Z 04003KT 15SM SCT030 OVC054 06/M00 A3033 RMK SC4SC4 SLP273=
CYUL;2005-10-28 19:00;METAR CYUL 281900Z 17004KT 15SM FEW030 OVC050 05/00 A3033 RMK SC2SC6 SLP273=
CYUL;2005-10-28 20:00;METAR CYUL 282000Z 07002KT 15SM FEW030 OVC055 05/M01 A3033 RMK SC2SC6 SLP272=
CYUL;2005-10-28 21:00;METAR CYUL 282100Z 00000KT 15SM FEW030 OVC050 05/M01 A3032 RMK SC1SC7 SLP271=
CYUL;2005-10-28 22:00;METAR CYUL 282200Z 00000KT 15SM FEW030 OVC054 05/M01 A3033 RMK SC1SC7 SLP272=
CYUL;2005-10-28 23:00;METAR CYUL 282300Z 00000KT 15SM FEW030 OVC055 05/M00 A3033 RMK SC1SC7 SLP274=
CYUL;2005-10-29 00:00;METAR CYUL 290000Z 29002KT 15SM BKN055 04/M01 A3032 RMK SC7 SLP271=
CYUL;2005-10-29 01:00;METAR CYUL 290100Z 32002KT 15SM SCT055 03/M01 A3031 RMK SC4 SLP267=
CYUL;2005-10-29 01:10;SPECI CYUL 290110Z 31002KT 15SM SCT052 02/ RMK SC4=
CYUL;2005-10-29 02:00;METAR CYUL 290200Z 00000KT 15SM BKN050 02/M01 A3032 RMK SC4 SLP268=
CYUL;2005-10-29 03:00;METAR CYUL 290300Z 00000KT 15SM BKN050 03/M01 A3032 RMK SC7 SLP270=
CYUL;2005-10-29 04:00;METAR CYUL 290400Z 30002KT 15SM FEW040 OVC050 02/00 A3032 RMK CF1SC7 SLP269=
CYUL;2005-10-29 05:00;METAR CYUL 290500Z 34002KT 15SM BKN050 03/M01 A3032 RMK SC7 SLP269=
CYUL;2005-10-29 06:00;METAR CYUL 290600Z 35003KT 15SM FEW050 01/M02 A3031 RMK SC1 SLP267=
CYUL;2005-10-29 08:00;METAR CYUL 290800Z 32005KT 15SM SKC M01/M03 A3030 RMK SLP263=
CYUL;2005-10-29 09:00;METAR CYUL 290900Z 31002KT 15SM FEW050 M01/M03 A3030 RMK SC1 SLP261=
CYUL;2005-10-29 10:00;METAR CYUL 291000Z 36002KT 15SM SKC M01/M03 A3029 RMK SLP259=
CYUL;2005-10-29 12:00;METAR CYUL 291200Z 00000KT 30SM FEW020 FEW240 M02/M04 A3028 RMK CF1CI1 SLP257=
CYUL;2005-10-29 13:00;METAR CYUL 291300Z 00000KT 30SM FEW015 FEW240 00/M02 A3028 RMK SC1CI1 SLP257=
CYUL;2005-10-29 14:00;METAR CYUL 291400Z 25003KT 30SM FEW015 SCT240 04/M01 A3027 RMK SC1CI1 SLP252=
CYUL;2005-10-29 15:00;METAR CYUL 291500Z 27006KT 30SM FEW150 BKN240 05/M02 A3025 RMK AC1CI0 SLP246=
CYUL;2005-10-29 16:00;METAR CYUL 291600Z 21007KT 30SM FEW150 SCT240 06/M01 A3024 RMK AC2CI0 SLP241=
CYUL;2005-10-29 17:00;METAR CYUL 291700Z 20006KT 30SM FEW150 SCT240 07/M01 A3020 RMK AC1CI1 SLP230=
CYUL;2005-10-29 18:00;METAR CYUL 291800Z 26007KT 30SM BKN240 08/M01 A3018 RMK CS3 SLP221=
CYUL;2005-10-29 19:00;METAR CYUL 291900Z 26011KT 30SM BKN220 08/M00 A3016 RMK CS3 SLP214=
CYUL;2005-10-29 20:00;METAR CYUL 292000Z 27010KT 30SM BKN220 09/01 A3013 RMK CS2 SLP205=
CYUL;2005-10-29 21:00;METAR CYUL 292100Z 26007KT 30SM BKN240 08/00 A3012 RMK CI2 SLP203=
CYUL;2005-10-29 22:00;METAR CYUL 292200Z 26007KT 30SM BKN240 07/00 A3011 RMK CI1 SLP198=
CYUL;2005-10-29 23:00;METAR CYUL 292300Z 24006KT 15SM BKN240 06/01 A3010 RMK CI0 SLP195=
CYUL;2005-10-30 00:00;METAR CYUL 300000Z 25007KT 15SM FEW240 06/01 A3009 RMK CI0 SLP193=
CYUL;2005-10-30 02:00;METAR CYUL 300200Z 24008KT 15SM FEW240 05/01 A3007 RMK CI1 SLP186=
CYUL;2005-10-30 04:00;METAR CYUL 300400Z 24010KT 15SM SKC 05/02 A3005 RMK SLP178=
CYUL;2005-10-30 05:00;METAR CYUL 300500Z 24009KT 15SM SKC 04/02 A3006 RMK SLP179=
CYUL;2005-10-30 06:00;METAR CYUL 300600Z 24008KT 15SM SKC 04/02 A3005 RMK SLP177=
CYUL;2005-10-30 07:00;METAR CYUL 300700Z 24009KT 15SM SKC 04/02 A3006 RMK SLP179=
CYUL;2005-10-30 08:00;METAR CYUL 300800Z 25009KT 15SM SKC 03/02 A3006 RMK SLP179=
CYUL;2005-10-30 09:00;METAR CYUL 300900Z 25008KT 15SM SKC 03/02 A3006 RMK SLP182=
CYUL;2005-10-30 10:00;METAR CYUL 301000Z 26009KT 15SM SKC 03/02 A3007 RMK SLP183=
CYUL;2005-10-30 12:00;METAR CYUL 301200Z 24010KT 10SM FEW020 FEW240 04/02 A3009 RMK CF1CI0 SLP192=
CYUL;2005-10-30 12:17;SPECI CYUL 301217Z 23008KT 10SM SCT007 SCT240 04/ RMK SF1CI1=
CYUL;2005-10-30 13:00;METAR CYUL 301300Z 25008KT 10SM FEW008 FEW240 05/03 A3011 RMK SF1CI1 SLP197=
CYUL;2005-10-30 14:00;METAR CYUL 301400Z 26013KT 10SM FEW010 FEW240 07/04 A3010 RMK SF1CI1 SLP194=
CYUL;2005-10-30 15:00;METAR CYUL 301500Z 25011KT 10SM BKN240 08/05 A3010 RMK CI1 SLP193=
CYUL;2005-10-30 16:00;METAR CYUL 301600Z 23012KT 10SM FEW180 FEW240 10/06 A3008 RMK AC1CI0 SLP189=
CYUL;2005-10-30 17:00;METAR CYUL 301700Z 26010KT 12SM FEW180 FEW240 12/07 A3006 RMK AC1CI0 SLP179=
CYUL;2005-10-30 18:00;METAR CYUL 301800Z 23015KT 15SM FEW150 BKN240 13/07 A3003 RMK AC1CI0 SLP172=
CYUL;2005-10-30 19:00;METAR CYUL 301900Z 24015G20KT 15SM SCT150 BKN240 14/08 A3004 RMK AC2CS1 SLP173=
CYUL;2005-10-30 20:00;METAR CYUL 302000Z 24015KT 15SM FEW120 SCT240 14/08 A3003 RMK AC1CI0 SLP172=
CYUL;2005-10-30 21:00;METAR CYUL 302100Z 25015KT 15SM FEW120 SCT240 14/08 A3004 RMK AC1CI0 SLP173=
CYUL;2005-10-30 22:00;METAR CYUL 302200Z 25016KT 15SM FEW120 BKN240 13/07 A3004 RMK AC1CI0 SLP174=
CYUL;2005-10-31 00:00;METAR CYUL 310000Z 23014KT 15SM BKN240 12/08 A3005 RMK CI2 SLP176=
CYUL;2005-10-31 01:00;METAR CYUL 310100Z 23016KT 15SM SCT100 BKN240 11/06 A3005 RMK AC2CI1 SLP176=
CYUL;2005-10-31 02:00;METAR CYUL 310200Z 23013KT 15SM BKN110 BKN240 11/06 A3005 RMK AC5CI0 SLP178=
CYUL;2005-10-31 03:00;METAR CYUL 310300Z 24016KT 15SM BKN110 BKN240 11/06 A3005 RMK AC6CI0 SLP178=
CYUL;2005-10-31 04:00;METAR CYUL 310400Z 25017KT 15SM OVC140 11/05 A3005 RMK AC8 SLP177=
CYUL;2005-10-31 06:00;METAR CYUL 310600Z 25015KT 15SM BKN090 BKN120 11/07 A3006 RMK AC5AC1 SLP180=
CYUL;2005-10-31 06:46;SPECI CYUL 310646Z 24014G20KT 15SM -SHRA BKN090 11/ RMK AC7=
CYUL;2005-10-31 07:00;METAR CYUL 310700Z 24015KT 15SM FEW100 BKN130 11/06 A3006 RMK AC2AC4 SLP180=
CYUL;2005-10-31 08:00;METAR CYUL 310800Z 24014G19KT 15SM SCT130 SCT240 11/06 A3006 RMK AC4CI1 SLP179=
CYUL;2005-10-31 09:00;METAR CYUL 310900Z 24020KT 15SM BKN140 10/05 A3006 RMK AC6 SLP181=
CYUL;2005-10-31 10:00;METAR CYUL 311000Z 24013G20KT 15SM OVC130 10/05 A3006 RMK AC8 SLP180=
CYUL;2005-10-31 12:00;METAR CYUL 311200Z 24011KT 15SM FEW120 BKN140 BKN240 10/06 A3006 RMK AC1AC6CI1 SLP181=
CYUL;2005-10-31 13:00;METAR CYUL 311300Z 23012KT 12SM BKN150 BKN240 10/05 A3006 RMK AC5CI1 SLP181=
CYUL;2005-10-31 14:00;METAR CYUL 311400Z 23012KT 15SM BKN140 BKN240 10/04 A3005 RMK AC7CI1 SLP176=
CYUL;2005-10-31 15:00;METAR CYUL 311500Z 24011KT 15SM SCT150 OVC240 11/04 A3003 RMK AC3CI1 SLP170=
CYUL;2005-10-31 16:00;METAR CYUL 311600Z 25011KT 15SM BKN160 OVC220 13/05 A3001 RMK AC3CI2 SLP163=
CYUL;2005-10-31 17:00;METAR CYUL 311700Z 22011KT 15SM BKN170 BKN220 14/06 A2998 RMK AC3CI1 SLP154=
CYUL;2005-10-31 18:00;METAR CYUL 311800Z 23014KT 15SM SCT120 BKN220 15/05 A2995 RMK AC2CI1 SLP144=
CYUL;2005-10-31 19:00;METAR CYUL 311900Z 23012G18KT 30SM -SHRA BKN080 OVC120 15/05 A2995 RMK AC6AC2 SLP143=
CYUL;2005-10-31 19:17;SPECI CYUL 311917Z 24013KT 30SM BKN070 OVC120 15/ RMK AC6AC2=
CYUL;2005-10-31 20:00;METAR CYUL 312000Z 25010G16KT 30SM OVC060 15/05 A2995 RMK SC8 SLP142=
CYUL;2005-10-31 21:00;METAR CYUL 312100Z 23018KT 15SM OVC047 14/05 A2996 RMK SC8 SLP146=
CYUL;2005-10-31 22:00;METAR CYUL 312200Z 23011KT 15SM OVC037 14/06 A2997 RMK SC8 SLP151=
CYUL;2005-10-31 23:00;METAR CYUL 312300Z 24015G20KT 15SM OVC038 13/07 A2998 RMK SC8 SLP154=
CYUL;2005-11-01 00:00;METAR CYUL 010000Z 23012G17KT 15SM BKN041 OVC060 13/08 A2998 RMK SC6SC2 SLP154=
CYUL;2005-11-01 01:00;METAR CYUL 010100Z 24010KT 10SM OVC055 12/08 A2998 RMK SC8 SLP155=
CYUL;2005-11-01 02:00;METAR CYUL 010200Z 25015KT 10SM OVC048 13/09 A3000 RMK SC8 SLP161=
CYUL;2005-11-01 03:00;METAR CYUL 010300Z 25013G18KT 10SM FEW025 OVC035 12/09 A3001 RMK CF1SC8 SLP165=
CYUL;2005-11-01 04:00;METAR CYUL 010400Z 24008KT 10SM SCT032 OVC045 12/09 A3000 RMK SC3SC5 SLP161=
CYUL;2005-11-01 06:00;METAR CYUL 010600Z 23010KT 10SM OVC055 12/09 A2998 RMK SC8 SLP153=
CYUL;2005-11-01 08:00;METAR CYUL 010800Z 21006KT 10SM OVC030 12/09 A2996 RMK SC8 SLP146=
CYUL;2005-11-01 09:00;METAR CYUL 010900Z 21003KT 10SM FEW035 BKN070 11/09 A2995 RMK SC1AC7 SLP141=
CYUL;2005-11-01 10:00;METAR CYUL 011000Z 20006KT 10SM BKN030 OVC070 12/09 A2994 RMK SC7AC1 SLP138=
CYUL;2005-11-01 11:00;METAR CYUL 011100Z 18003KT 10SM -SHRA OVC060 11/09 A2992 RMK SC8 SLP134=
CYUL;2005-11-01 12:00;METAR CYUL 011200Z 16007KT 8SM BKN070 OVC085 11/10 A2990 RMK AC7AC1 SLP126=
CYUL;2005-11-01 13:00;METAR CYUL 011300Z 13008KT 6SM BR BKN065 BKN090 11/10 A2986 RMK SC7AC1 SLP113=
CYUL;2005-11-01 14:00;METAR CYUL 011400Z 14010KT 8SM FEW060 BKN130 OVC220 12/10 A2983 RMK SC1AC6CI1 SLP102=
CYUL;2005-11-01 15:00;METAR CYUL 011500Z 16010KT 8SM FEW060 BKN150 OVC220 14/10 A2979 RMK SC1AC5CI1 SLP087=
CYUL;2005-11-01 19:00;METAR CYUL 011900Z 25024G29KT 12SM BKN075 OVC140 18/06 A2967 RMK AC6AC2 SLP047=
CYUL;2005-11-01 19:06;SPECI CYUL 011906Z 25020G30KT 12SM -SHRA BKN070 OVC140 18/ RMK AC6AC2=
CYUL;2005-11-01 20:00;METAR CYUL 012000Z 25021G27KT 8SM -SHRA OVC065 14/09 A2972 RMK SC8 SLP065=
CYUL;2005-11-01 21:00;METAR CYUL 012100Z 24016G24KT 4SM -RA BR BKN040 OVC060 12/10 A2973 RMK SC6SC2 SLP068=
CYUL;2005-11-01 22:00;METAR CYUL 012200Z 25015KT 4SM -RA BR OVC040 11/09 A2974 RMK SC8 SLP073=
CYUL;2005-11-01 23:00;METAR CYUL 012300Z 23012G17KT 10SM BKN065 OVC090 11/09 A2976 RMK SC6AC2 SLP077=
CYUL;2005-11-01 23:42;SPECI CYUL 012342Z 23015KT 8SM SCT013 OVC060 11/ RMK SF4SC4=
CYUL;2005-11-02 00:00;METAR CYUL 020000Z 23016KT 10SM BKN014 OVC060 11/09 A2976 RMK SF6SC2 SLP077=
CYUL;2005-11-02 01:00;METAR CYUL 020100Z 24012KT 12SM BKN015 BKN045 OVC100 10/09 A2976 RMK SF5SC2AC1 SLP079=
CYUL;2005-11-02 02:00;METAR CYUL 020200Z 24014KT 12SM SCT015 BKN060 OVC180 10/08 A2976 RMK SF3SC3AC2 SLP079=
CYUL;2005-11-02 03:00;METAR CYUL 020300Z 23013KT 12SM FEW015 BKN055 OVC180 10/07 A2976 RMK SF1SC6AC1 SLP080=
CYUL;2005-11-02 04:00;METAR CYUL 020400Z 25012KT 15SM FEW015 FEW055 BKN180 09/07 A2975 RMK SF1SC1AC6 SLP076=
CYUL;2005-11-02 06:00;METAR CYUL 020600Z 25013KT 15SM FEW180 OVC220 08/05 A2975 RMK AC1CI5 SLP076=
CYUL;2005-11-02 08:00;METAR CYUL 020800Z 25011KT 15SM FEW020 SCT050 SCT060 07/04 A2977 RMK CF1SC4SC1 SLP082=
CYUL;2005-11-02 10:00;METAR CYUL 021000Z 27013KT 15SM FEW030 FEW045 BKN055 07/04 A2981 RMK CF1SC1SC6 SLP096=
CYUL;2005-11-02 11:00;METAR CYUL 021100Z 28014KT 15SM FEW025 FEW045 BKN075 05/02 A2984 RMK SC1SC2AC2 SLP106=
CYUL;2005-11-02 12:00;METAR CYUL 021200Z 29013KT 15SM FEW025 FEW075 04/01 A2988 RMK SC1AC1 SLP120=
CYUL;2005-11-02 13:00;METAR CYUL 021300Z 30014KT 15SM FEW025 FEW075 04/M00 A2993 RMK SC1AC1 SLP136=
CYUL;2005-11-02 14:00;METAR CYUL 021400Z 29009KT 15SM FEW030 FEW080 05/M01 A2996 RMK SC2AC1 SLP146=
CYUL;2005-11-02 15:00;METAR CYUL 021500Z 29007KT 15SM BKN034 05/M01 A2998 RMK SC7 SLP154=
CYUL;2005-11-02 16:00;METAR CYUL 021600Z 27011G17KT 30SM BKN040 06/M01 A2999 RMK SC6 SLP157=
CYUL;2005-11-02 17:00;METAR CYUL 021700Z 28013KT 30SM SCT040 BKN170 07/M01 A2998 RMK CU3AC1 SLP154=
CYUL;2005-11-02 18:00;METAR CYUL 021800Z 26015G20KT 30SM SCT040 BKN180 08/M01 A2998 RMK CU3AC0 SLP154=
CYUL;2005-11-02 21:00;METAR CYUL 022100Z 27015KT 30SM OVC045 07/M01 A3001 RMK SC8 SLP163=
CYUL;2005-11-02 22:00;METAR CYUL 022200Z 29011G16KT 15SM OVC046 06/M01 A3004 RMK SC8 SLP173=
CYUL;2005-11-02 23:00;METAR CYUL 022300Z 29009G16KT 15SM SCT045 05/M02 A3006 RMK SC3 SLP180=
CYUL;2005-11-03 00:00;METAR CYUL 030000Z 29009KT 15SM BKN040 03/M02 A3007 RMK CF3 SLP183=
CYUL;2005-11-03 01:00;METAR CYUL 030100Z 28011KT 15SM BKN040 04/M02 A3008 RMK SC5 SLP188=
CYUL;2005-11-03 02:00;METAR CYUL 030200Z 25004KT 15SM SCT040 BKN240 03/M03 A3009 RMK SC2CI0 SLP191=
CYUL;2005-11-03 03:00;METAR CYUL 030300Z 24008KT 15SM BKN160 03/M02 A3008 RMK AC1 SLP189=
CYUL;2005-11-03 04:00;METAR CYUL 030400Z 25006KT 15SM SCT160 BKN210 02/M02 A3008 RMK AC1CI1 SLP186=
CYUL;2005-11-03 06:00;METAR CYUL 030600Z 21008KT 15SM BKN110 BKN160 04/01 A3006 RMK AC6AC2 SLP181=
CYUL;2005-11-03 08:00;METAR CYUL 030800Z 22008KT 15SM OVC100 05/M01 A3003 RMK AC8 SLP172=
CYUL;2005-11-03 08:42;SPECI CYUL 030842Z 20009KT 15SM -SHRA BKN045 OVC090 05/ RMK SC6AC2=
CYUL;2005-11-03 09:00;METAR CYUL 030900Z 20008KT 15SM -SHRA OVC045 05/M00 A3002 RMK SC8 SLP166=
CYUL;2005-11-03 09:20;SPECI CYUL 030920Z 20006KT 15SM OVC040 05/ RMK SC8=
CYUL;2005-11-03 09:38;SPECI CYUL 030938Z 18007KT 15SM -SHRA OVC035 04/ RMK SC8=
CYUL;2005-11-03 10:00;METAR CYUL 031000Z 18007KT 10SM -SHRA OVC020 04/00 A2999 RMK SC8 SLP156=
CYUL;2005-11-03 11:20;SPECI CYUL 031120Z 14013G18KT 15SM FEW050 OVC100 04/ RMK SC2AC6=
CYUL;2005-11-03 11:45;SPECI CYUL 031145Z 15016KT 15SM -SHRA BKN050 OVC090 04/ RMK SC6AC2=
CYUL;2005-11-03 12:00;METAR CYUL 031200Z 14016KT 15SM -SHRA BKN048 OVC090 05/02 A2983 RMK SC6AC2 PRESFR SLP103=
CYUL;2005-11-03 12:30;SPECI CYUL 031230Z 14015KT 15SM BKN053 OVC090 05/ RMK SC6AC2=
CYUL;2005-11-03 13:00;METAR CYUL 031300Z 15013G20KT 15SM BKN065 OVC090 05/03 A2978 RMK SC6AC2 SLP087=
CYUL;2005-11-03 14:00;METAR CYUL 031400Z 16013KT 15SM BKN044 OVC080 06/02 A2974 RMK SC6AC2 SLP071=
CYUL;2005-11-03 14:25;SPECI CYUL 031425Z 17011KT 15SM -SHRA BKN040 OVC080 07/ RMK SC6AC2=
CYUL;2005-11-03 15:00;METAR CYUL 031500Z 16010KT 30SM -SHRA FEW045 BKN120 BKN240 08/03 A2968 RMK CF2AC6CI1 SLP053=
CYUL;2005-11-03 15:40;SPECI CYUL 031540Z 17006KT 30SM BKN130 OVC170 09/ RMK AC7AS1=
CYUL;2005-11-03 16:00;METAR CYUL 031600Z 18004KT 30SM BKN120 BKN170 09/05 A2966 RMK AC6AS1 SLP046=
CYUL;2005-11-03 19:00;METAR CYUL 031900Z 25020G27KT 30SM FEW050 BKN150 BKN240 15/08 A2963 RMK SC2AC4CI0 SLP035=
CYUL;2005-11-03 20:00;METAR CYUL 032000Z 26011G17KT 30SM BKN060 BKN240 16/08 A2966 RMK SC5CI1 SLP043=
CYUL;2005-11-03 21:00;METAR CYUL 032100Z 25011KT 30SM FEW050 BKN080 OVC240 16/08 A2967 RMK CU1AC6CI1 SLP048=
CYUL;2005-11-04 00:00;METAR CYUL 040000Z 31008KT 15SM SCT065 BKN095 14/05 A2980 RMK SC3AC4 SLP094=
CYUL;2005-11-04 01:00;METAR CYUL 040100Z 32007KT 15SM SCT090 BKN240 12/05 A2985 RMK AC4CI0 SLP109=
CYUL;2005-11-04 03:00;METAR CYUL 040300Z 32007KT 15SM FEW040 BKN220 09/04 A2994 RMK SC2CI1 SLP139=
CYUL;2005-11-04 05:00;METAR CYUL 040500Z 01006KT 15SM FEW030 FEW060 BKN200 07/01 A3000 RMK SC1SC1CI2 SLP162=
CYUL;2005-11-04 06:00;METAR CYUL 040600Z 01007KT 15SM FEW050 BKN210 05/01 A3003 RMK SC1CI2 SLP172=
CYUL;2005-11-04 07:00;METAR CYUL 040700Z 02006KT 15SM BKN130 BKN210 04/00 A3006 RMK AC4CI0 SLP181=
CYUL;2005-11-04 08:00;METAR CYUL 040800Z 04005KT 15SM FEW040 FEW130 BKN220 04/00 A3007 RMK SC1AC1CI2 SLP183=
CYUL;2005-11-04 10:00;METAR CYUL 041000Z 07010KT 15SM FEW025 FEW060 BKN180 05/M00 A3008 RMK CF1SC1AC5 SLP186=
CYUL;2005-11-04 12:00;METAR CYUL 041200Z 07015KT 15SM FEW025 OVC090 04/M01 A3008 RMK SC1AC7 SLP188=
CYUL;2005-11-04 13:00;METAR CYUL 041300Z 06015KT 15SM FEW020 OVC085 03/M02 A3008 RMK CF1AC7 SLP189=
CYUL;2005-11-04 14:00;METAR CYUL 041400Z 06014KT 15SM FEW020 OVC077 03/M02 A3007 RMK CF1AC7 SLP185=
CYUL;2005-11-04 15:00;METAR CYUL 041500Z 05015G20KT 15SM FEW045 OVC065 03/M02 A3004 RMK SC1SC8 SLP174=
CYUL;2005-11-04 16:00;METAR CYUL 041600Z 05015G21KT 15SM FEW040 OVC060 03/M02 A2999 RMK SC1SC8 SLP158=
CYUL;2005-11-04 17:00;METAR CYUL 041700Z 05016G22KT 15SM FEW040 OVC065 03/M02 A2995 RMK SC1SC8 SLP144=
CYUL;2005-11-04 18:00;METAR CYUL 041800Z 05017KT 30SM FEW040 FEW075 OVC210 03/M01 A2991 RMK CF1AC2CS6 SLP130=
CYUL;2005-11-04 19:00;METAR CYUL 041900Z 04015G24KT 30SM FEW075 BKN150 OVC210 04/M01 A2990 RMK AC1AC7CS0 SLP126=
CYUL;2005-11-04 21:00;METAR CYUL 042100Z 04012G18KT 30SM FEW070 SCT110 BKN160 04/00 A2987 RMK AC1AC4AC3 SLP118=
CYUL;2005-11-04 22:00;METAR CYUL 042200Z 04016KT 15SM BKN110 BKN170 04/01 A2988 RMK AC7AC1 SLP119=
CYUL;2005-11-04 23:00;METAR CYUL 042300Z 03010G15KT 15SM BKN100 04/00 A2987 RMK AC6 SLP115=
CYUL;2005-11-05 00:00;METAR CYUL 050000Z 03009KT 15SM BKN095 03/00 A2986 RMK AC7 SLP114=
CYUL;2005-11-05 01:00;METAR CYUL 050100Z 01008KT 15SM BKN090 03/00 A2987 RMK AC7 SLP115=
CYUL;2005-11-05 02:00;METAR CYUL 050200Z 04006KT 15SM BKN090 02/00 A2987 RMK AC7 SLP115=
CYUL;2005-11-05 03:00;METAR CYUL 050300Z 02005KT 15SM BKN075 02/00 A2987 RMK AC7 SLP116=
CYUL;2005-11-05 04:00;METAR CYUL 050400Z 03005KT 15SM FEW075 SCT240 02/M00 A2986 RMK AC2CI1 SLP113=
CYUL;2005-11-05 05:00;METAR CYUL 050500Z 03005KT 15SM FEW070 SCT240 01/M00 A2987 RMK AC1CI0 SLP116=
CYUL;2005-11-05 06:00;METAR CYUL 050600Z 03005KT 15SM FEW070 FEW240 01/M01 A2987 RMK AC1CI1 SLP117=
CYUL;2005-11-05 08:00;METAR CYUL 050800Z 03004KT 15SM FEW240 01/M00 A2988 RMK CI0 SLP121=
CYUL;2005-11-05 09:00;METAR CYUL 050900Z 03005KT 15SM FEW240 01/M00 A2989 RMK CI1 SLP122=
CYUL;2005-11-05 10:00;METAR CYUL 051000Z 01004KT 15SM FEW100 01/M01 A2990 RMK AC1 SLP125=
CYUL;2005-11-05 11:00;METAR CYUL 051100Z 02006KT 8SM MIFG SCT003 SCT210 00/M01 A2990 RMK SF3CI1 VIS LWR W SLP128=
CYUL;2005-11-05 11:10;SPECI CYUL 051110Z 01004KT 6SM BR BKN003 01/ RMK SF5=
CYUL;2005-11-05 11:22;SPECI CYUL 051122Z 02006KT 2 1/2SM BR BKN003 01/ RMK SF6 VIS SE 5=
CYUL;2005-11-05 11:32;SPECI CYUL 051132Z 02006KT 1 1/4SM BR OVC002 01/ RMK SF7 VIS VRB 3/4-13/4=
CYUL;2005-11-05 11:38;SPECI CYUL 051138Z 03007KT 3/4SM R06L/P6000FT/D R06R/P6000FT/N BR OVC002 01/ RMK SF7=
CYUL;2005-11-05 11:53;SPECI CYUL 051153Z 04006KT 1/2SM R06L/P6000FT/D R06R/P6000FT/D FG OVC002 01/ RMK SF7=
CYUL;2005-11-05 12:00;METAR CYUL 051200Z 04005KT 1/2SM R06L/2800VP6000FT/D R06R/4500VP6000FT/D FG OVC002 01/00 A2992 RMK SF8 SLP135=
CYUL;2005-11-05 12:18;SPECI CYUL 051218Z 02005KT 3/8SM R06L/2000FT/N R06R/4500FT/N FG VV002 01/ RMK FG8=
CYUL;2005-11-05 12:26;SPECI CYUL 051226Z 04006KT 1/4SM R06L/2000FT/N R06R/2800FT/N FG VV002 01/ RMK FG8=
CYUL;2005-11-05 13:00;METAR CYUL 051300Z 35005KT 1/8SM R06L/1600FT/N R06R/1200FT/N FG VV001 01/01 A2996 RMK FG8 SLP147=
CYUL;2005-11-05 14:00;METAR CYUL 051400Z 01006KT 1/4SM R06L/1400FT/N R06R/1200FT/N FG VV001 02/02 A2996 RMK FG8 SLP148=
CYUL;2005-11-05 14:38;SPECI CYUL 051438Z 03005KT 1/2SM R06L/2600V3500FT/N R06R/2600FT/N FG VV001 02/ RMK FG8=
CYUL;2005-11-05 14:51;SPECI CYUL 051451Z 06004KT 1 3/4SM BR OVC002 02/ RMK ST8=
CYUL;2005-11-05 15:00;METAR CYUL 051500Z 00000KT 2SM BR OVC003 03/02 A2999 RMK ST8 SLP157=
CYUL;2005-11-05 15:14;SPECI CYUL 051514Z 00000KT 2SM BR SCT003 OVC014 03/ RMK ST4SC4=
CYUL;2005-11-05 15:40;SPECI CYUL 051540Z 00000KT 3SM BR SCT005 OVC016 04/ RMK ST4SC4=
CYUL;2005-11-05 16:00;METAR CYUL 051600Z 00000KT 4SM BR FEW018 BKN150 OVC240 04/03 A2999 RMK SC2AC2CI1 SLP158=
CYUL;2005-11-05 17:00;METAR CYUL 051700Z 36003KT 8SM FEW130 BKN170 OVC240 06/04 A2998 RMK AC1AC4CI0 SLP155=
CYUL;2005-11-05 18:00;METAR CYUL 051800Z 35005KT 8SM FEW110 BKN130 OVC240 07/04 A3000 RMK AC1AC7CI0 SLP159=
CYUL;2005-11-05 19:00;METAR CYUL 051900Z 06003KT 8SM SCT035 BKN130 08/04 A3000 RMK SC4AC3 SLP162=
CYUL;2005-11-05 20:00;METAR CYUL 052000Z 05003KT 8SM FEW035 FEW120 BKN240 08/04 A3003 RMK SC1AC2CI2 SLP169=
CYUL;2005-11-05 21:00;METAR CYUL 052100Z 05005KT 8SM FEW120 OVC240 08/04 A3004 RMK AC2CI2 SLP173=
CYUL;2005-11-05 22:00;METAR CYUL 052200Z 05004KT 6SM HZ OVC110 07/04 A3006 RMK AC8 SLP180=
CYUL;2005-11-05 23:00;METAR CYUL 052300Z 07007KT 6SM HZ FEW080 OVC110 07/04 A3008 RMK AC1AC8 SLP186=
CYUL;2005-11-06 00:00;METAR CYUL 060000Z 06007KT 7SM FEW080 OVC100 05/03 A3009 RMK AC1AC8 SLP190=
CYUL;2005-11-06 01:46;SPECI CYUL 060146Z 04007KT 7SM -SHRA FEW010 OVC035 05/ RMK SF2SC6=
CYUL;2005-11-06 02:20;SPECI CYUL 060220Z 03008KT 6SM -RA BR BKN010 OVC035 05/ RMK SF5SC3=
CYUL;2005-11-06 03:00;METAR CYUL 060300Z 04008KT 6SM -RA BR BKN009 OVC032 05/03 A3010 RMK SF6SC2 SLP193=
CYUL;2005-11-06 04:00;METAR CYUL 060400Z 04009KT 4SM -RA BR BKN009 OVC030 05/03 A3011 RMK SF6SC2 SLP196=
CYUL;2005-11-06 05:00;METAR CYUL 060500Z 03011KT 4SM -RA BR BKN007 OVC030 04/03 A3011 RMK SF6SC2 SLP196=
CYUL;2005-11-06 06:00;METAR CYUL 060600Z 04011G16KT 5SM -RA BR BKN008 OVC030 04/03 A3010 RMK SF6SC2 SLP195=
CYUL;2005-11-06 07:46;SPECI CYUL 060746Z 04013KT 6SM BR OVC009 04/ RMK SF8=
CYUL;2005-11-06 09:00;METAR CYUL 060900Z 04014KT 8SM BKN010 OVC025 04/02 A3008 RMK SF7SC1 SLP186=
CYUL;2005-11-06 10:00;METAR CYUL 061000Z 04011G16KT 8SM BKN009 OVC025 04/02 A3007 RMK SF7SC1 SLP183=
CYUL;2005-11-06 11:00;METAR CYUL 061100Z 05015KT 8SM BKN010 OVC025 04/02 A3005 RMK SF7SC1 SLP178=
CYUL;2005-11-06 12:00;METAR CYUL 061200Z 05013KT 8SM BKN012 OVC030 04/01 A3005 RMK SC6SC2 SLP177=
CYUL;2005-11-06 13:00;METAR CYUL 061300Z 04013KT 10SM BKN014 OVC035 04/02 A3003 RMK SC6SC2 SLP172=
CYUL;2005-11-06 14:00;METAR CYUL 061400Z 06013KT 15SM OVC014 04/02 A3001 RMK SC8 SLP164=
CYUL;2005-11-06 15:00;METAR CYUL 061500Z 07014KT 15SM OVC012 05/02 A2997 RMK SC8 SLP151=
CYUL;2005-11-06 16:00;METAR CYUL 061600Z 05011KT 15SM OVC012 05/03 A2994 RMK SC8 SLP139=
CYUL;2005-11-06 17:00;METAR CYUL 061700Z 06010KT 15SM OVC013 07/04 A2987 RMK SC8 PRESFR SLP118=
CYUL;2005-11-06 18:00;METAR CYUL 061800Z 08010KT 12SM SCT013 OVC090 08/05 A2981 RMK SC3AC5 PRESFR SLP096=
CYUL;2005-11-06 20:00;METAR CYUL 062000Z 04010KT 12SM SCT090 OVC180 10/06 A2971 RMK AC3AC5 SLP064=
CYUL;2005-11-06 21:00;METAR CYUL 062100Z 05010KT 12SM SCT090 OVC180 10/07 A2966 RMK AC3AC5 SLP046=
CYUL;2005-11-06 22:00;METAR CYUL 062200Z 06007KT 10SM BKN075 OVC150 11/08 A2963 RMK AC5AC3 SLP034=
CYUL;2005-11-06 23:42;SPECI CYUL 062342Z 26027G34KT 12SM -SHRA BKN040 OVC120 14/ RMK SC6AC2=
CYUL;2005-11-07 00:00;METAR CYUL 070000Z 26013G25KT 6SM -TSRA BKN026 OVC060 13/11 A2969 RMK SC6SC2 PRESRR CB EMBD SLP054=
CYUL;2005-11-07 00:47;SPECI CYUL 070047Z 17005KT 6SM -SHRA SCT040 OVC060 11/ RMK SC3SC5 RETS=
CYUL;2005-11-07 01:00;METAR CYUL 070100Z 14007KT 6SM -SHRA FEW040 OVC065 11/10 A2965 RMK SC2SC6 RETS SLP042=
CYUL;2005-11-07 01:25;SPECI CYUL 070125Z 14007KT 8SM FEW040 OVC070 11/ RMK SC2AC6=
CYUL;2005-11-07 03:00;METAR CYUL 070300Z 22023G29KT 15SM BKN035 BKN060 OVC210 13/09 A2964 RMK SC5SC2CI2 SLP037=
CYUL;2005-11-07 04:00;METAR CYUL 070400Z 24029G35KT 15SM BKN050 OVC240 12/05 A2966 RMK SC6CI2 SLP045=
CYUL;2005-11-07 05:00;METAR CYUL 070500Z 23026G33KT 15SM SCT050 10/03 A2966 RMK SC4 SLP044=
CYUL;2005-11-07 06:00;METAR CYUL 070600Z 23025G32KT 15SM FEW055 BKN240 10/03 A2965 RMK SC1CI6 CC ASOCT SLP041=
CYUL;2005-11-07 06:09;SPECI CYUL 070609Z 23030KT 15SM -SHRA SCT050 BKN240 10/ RMK SC4CI2=
CYUL;2005-11-07 06:32;SPECI CYUL 070632Z 23025KT 15SM SCT045 SCT055 BKN240 10/ RMK SC3SC1CI1=
CYUL;2005-11-07 07:00;METAR CYUL 070700Z 23027G34KT 15SM -SHRA BKN040 OVC050 10/04 A2966 RMK SC6SC2 SLP044=
CYUL;2005-11-07 07:22;SPECI CYUL 070722Z 23028G36KT 15SM BKN040 BKN055 10/ RMK SC6SC1=
CYUL;2005-11-07 07:52;SPECI CYUL 070752Z 23026G38KT 15SM -SHRA BKN040 10/ RMK SC7=
CYUL;2005-11-07 08:50;SPECI CYUL 070850Z 25029G35KT 15SM -SHRA OVC035 10/ RMK SC8=
CYUL;2005-11-07 09:00;METAR CYUL 070900Z 24027G35KT 15SM -SHRA OVC035 10/03 A2970 RMK SC8 SLP058=
CYUL;2005-11-07 10:00;METAR CYUL 071000Z 27019G29KT 15SM -SHRA OVC035 08/04 A2973 RMK SC8 SLP069=
CYUL;2005-11-07 11:00;METAR CYUL 071100Z 25019G31KT 15SM -RA OVC035 08/03 A2975 RMK SC8 SLP075=
CYUL;2005-11-07 12:00;METAR CYUL 071200Z 25026G34KT 15SM OVC045 08/02 A2978 RMK SC8 SLP085=
CYUL;2005-11-07 12:16;SPECI CYUL 071216Z 25019G33KT 15SM -SHRA BKN045 08/ RMK SC7=
CYUL;2005-11-07 13:00;METAR CYUL 071300Z 25026G35KT 30SM -SHRA FEW030 OVC045 08/02 A2981 RMK CU1SC7 SLP094=
CYUL;2005-11-07 14:00;METAR CYUL 071400Z 28015G20KT 30SM -SHRA BKN030 07/03 A2984 RMK SC7 SLP104=
CYUL;2005-11-07 14:24;SPECI CYUL 071424Z 28016G26KT 30SM BKN045 07/ RMK SC6=
CYUL;2005-11-07 16:00;METAR CYUL 071600Z 28023G31KT 30SM BKN050 07/00 A2988 RMK SC7 SLP121=
CYUL;2005-11-07 18:00;METAR CYUL 071800Z 28024G29KT 30SM BKN048 08/M01 A2990 RMK SC6 SLP125=
CYUL;2005-11-07 20:00;METAR CYUL 072000Z 27017G25KT 30SM FEW050 08/M01 A2992 RMK CU1 SLP133=
CYUL;2005-11-07 21:00;METAR CYUL 072100Z 27018G25KT 30SM FEW050 FEW220 08/M03 A2992 RMK CU1CI0 SLP135=
CYUL;2005-11-07 23:00;METAR CYUL 072300Z 26012KT 15SM FEW190 SCT240 07/M03 A2994 RMK AC1CI0 SLP139=
CYUL;2005-11-08 00:00;METAR CYUL 080000Z 27009G15KT 15SM BKN210 07/M02 A2994 RMK CI2 SLP141=
CYUL;2005-11-08 01:00;METAR CYUL 080100Z 28012G18KT 15SM BKN220 07/M03 A2994 RMK CS6 SLP140=
CYUL;2005-11-08 03:00;METAR CYUL 080300Z 26010KT 15SM FEW060 BKN150 OVC210 07/M02 A2995 RMK SC1AC5CI0 SLP142=
CYUL;2005-11-08 04:00;METAR CYUL 080400Z 26010G15KT 15SM FEW070 SCT150 BKN210 06/M02 A2994 RMK AC1AC2CI1 SLP141=
CYUL;2005-11-08 05:00;METAR CYUL 080500Z 26008KT 15SM FEW070 BKN160 06/M02 A2993 RMK AC1AC5 SLP137=
CYUL;2005-11-08 06:00;METAR CYUL 080600Z 27010KT 15SM SCT130 BKN180 06/M00 A2992 RMK AC2AC2 SLP135=
CYUL;2005-11-08 07:00;METAR CYUL 080700Z 26008KT 15SM FEW090 06/01 A2992 RMK AC2 SLP135=
CYUL;2005-11-08 08:00;METAR CYUL 080800Z 25012KT 15SM FEW090 05/02 A2993 RMK AC1 SLP136=
CYUL;2005-11-08 10:00;METAR CYUL 081000Z 23006KT 15SM FEW025 04/02 A2995 RMK SC2 SLP145=
CYUL;2005-11-08 11:00;METAR CYUL 081100Z 24008KT 15SM FEW015 04/02 A2997 RMK SC2 SLP150=
CYUL;2005-11-08 12:00;METAR CYUL 081200Z 26005KT 15SM SCT012 SCT025 04/02 A2999 RMK SF3SC1 SLP156=
CYUL;2005-11-08 13:00;METAR CYUL 081300Z 28008KT 15SM FEW012 FEW020 04/M00 A3001 RMK CF1SC1 SLP164=
CYUL;2005-11-08 15:00;METAR CYUL 081500Z 29014KT 15SM FEW015 FEW210 05/M03 A3003 RMK CF1CI1 SLP170=
CYUL;2005-11-08 16:00;METAR CYUL 081600Z 28011G16KT 15SM FEW020 FEW210 06/M03 A3003 RMK CF1CI1 SLP171=
CYUL;2005-11-08 17:00;METAR CYUL 081700Z 26014G19KT 15SM FEW030 FEW210 06/M03 A3003 RMK CF1CI1 SLP169=
CYUL;2005-11-08 18:00;METAR CYUL 081800Z 29015KT 15SM FEW040 FEW210 07/M03 A3002 RMK CF1CI1 SLP168=
CYUL;2005-11-08 19:00;METAR CYUL 081900Z 29014G19KT 15SM FEW040 FEW210 07/M03 A3003 RMK CF1CI1 SLP171=
CYUL;2005-11-08 20:00;METAR CYUL 082000Z 30011G18KT 15SM FEW040 FEW210 06/M04 A3006 RMK CF1CI0 SLP181=
CYUL;2005-11-08 21:00;METAR CYUL 082100Z 30012G17KT 15SM FEW040 FEW210 05/M06 A3009 RMK CF1CI0 SLP191=
CYUL;2005-11-08 22:00;METAR CYUL 082200Z 31010G16KT 15SM FEW040 FEW210 04/M06 A3013 RMK CF1CI0 SLP204=
CYUL;2005-11-08 23:00;METAR CYUL 082300Z 32006KT 15SM FEW210 02/M06 A3017 RMK CI0 SLP218=
CYUL;2005-11-09 00:00;METAR CYUL 090000Z 32006KT 15SM FEW210 02/M06 A3020 RMK CI0 SLP229=
CYUL;2005-11-09 01:00;METAR CYUL 090100Z 32006KT 15SM FEW210 01/M06 A3022 RMK CI1 SLP236=
CYUL;2005-11-09 02:00;METAR CYUL 090200Z 34005KT 15SM FEW210 M00/M06 A3023 RMK CI1 SLP240=
CYUL;2005-11-09 03:00;METAR CYUL 090300Z 30004KT 15SM FEW210 M02/M06 A3023 RMK CI0 SLP240=
CYUL;2005-11-09 04:00;METAR CYUL 090400Z 30004KT 15SM FEW210 M03/M06 A3024 RMK CI0 SLP242=
CYUL;2005-11-09 05:00;METAR CYUL 090500Z 33005KT 15SM FEW240 M01/M06 A3024 RMK CI0 SLP241=
CYUL;2005-11-09 07:00;METAR CYUL 090700Z 00000KT 15SM FEW240 M02/M06 A3024 RMK CI1 SLP244=
CYUL;2005-11-09 08:00;METAR CYUL 090800Z 00000KT 15SM FEW240 M02/M06 A3024 RMK CI1 SLP242=
CYUL;2005-11-09 10:00;METAR CYUL 091000Z 05006KT 15SM FEW015 FEW240 M01/M05 A3021 RMK CF1CI1 SLP233=
CYUL;2005-11-09 11:00;METAR CYUL 091100Z 06006KT 15SM FEW240 M00/M06 A3023 RMK CI1 SLP238=
CYUL;2005-11-09 12:00;METAR CYUL 091200Z 07008KT 30SM FEW020 BKN240 M00/M06 A3022 RMK CF1CI1 SLP234=
CYUL;2005-11-09 13:00;METAR CYUL 091300Z 10007KT 30SM FEW150 OVC240 00/M05 A3020 RMK AC2CI4 SLP230=
CYUL;2005-11-09 14:00;METAR CYUL 091400Z 10009KT 30SM SCT150 OVC210 01/M04 A3018 RMK AC3CI2 SLP222=
CYUL;2005-11-09 16:00;METAR CYUL 091600Z 08015KT 30SM FEW090 BKN150 OVC220 02/M05 A3004 RMK AC2AC5CI2 PRESFR SLP176=
CYUL;2005-11-09 17:00;METAR CYUL 091700Z 10010KT 30SM FEW090 OVC120 03/M04 A2998 RMK AC2AC6 PRESFR SLP155=
CYUL;2005-11-09 18:00;METAR CYUL 091800Z 08016KT 30SM OVC054 03/M04 A2991 RMK SC8 PRESFR SLP132=
CYUL;2005-11-09 18:27;SPECI CYUL 091827Z 09012G18KT 15SM -RA OVC050 03/ RMK SC8=
CYUL;2005-11-09 20:00;METAR CYUL 092000Z 08010G16KT 3SM -RA BR OVC025 02/M01 A2979 RMK SC8 PRESFR SLP090=
CYUL;2005-11-09 21:00;METAR CYUL 092100Z 09008G16KT 4SM -RA BR OVC036 02/M00 A2973 RMK SC8 PRESFR SLP069=
CYUL;2005-11-09 22:00;METAR CYUL 092200Z 11012KT 3SM -RA BR OVC018 03/01 A2968 RMK SC8 SLP052=
CYUL;2005-11-09 23:00;METAR CYUL 092300Z 14020G25KT 3SM -RA BR SCT015 OVC037 04/03 A2960 RMK SC4SC4 PRESFR SLP024=
CYUL;2005-11-10 00:00;METAR CYUL 100000Z 14016G25KT 3SM -RA BR SCT018 OVC030 05/04 A2955 RMK SC3SC5 /R10/ SLP010=
CYUL;2005-11-10 00:46;SPECI CYUL 100046Z 15016G22KT 4SM -RA BR BKN013 OVC030 05/ RMK SC6SC2=
CYUL;2005-11-10 01:00;METAR CYUL 100100Z 15018G27KT 4SM -RA BR BKN012 OVC030 05/04 A2947 RMK SC6SC2 PRESFR SLP980=
CYUL;2005-11-10 01:44;SPECI CYUL 100144Z 17019G33KT 2 1/2SM RA BR BKN012 OVC040 05/ RMK SC6SC2=
CYUL;2005-11-10 02:00;METAR CYUL 100200Z 17019G24KT 3SM -TSRA BR SCT014 BKN025 OVC050 06/04 A2946 RMK SC3SC2SC2 RERA CB EMBD /R10/ SLP977=
CYUL;2005-11-10 02:27;SPECI CYUL 100227Z 15014G21KT 4SM -RA BR BKN025 OVC050 06/ RMK SC6SC2=
CYUL;2005-11-10 02:45;SPECI CYUL 100245Z 16018KT 8SM BKN020 OVC050 06/ RMK SC6SC2=
CYUL;2005-11-10 04:00;METAR CYUL 100400Z 17013G18KT 10SM -SHRA FEW012 OVC025 07/05 A2938 RMK SF1SC7 SLP949=
CYUL;2005-11-10 04:45;SPECI CYUL 100445Z 23012KT 10SM BKN011 BKN030 08/ RMK SF6SC2=
CYUL;2005-11-10 05:00;METAR CYUL 100500Z 25012G17KT 10SM BKN010 OVC030 08/07 A2941 RMK SF6SC2 SLP959=
CYUL;2005-11-10 05:35;SPECI CYUL 100535Z 25010KT 10SM FEW012 OVC065 07/ RMK SF2SC6=
CYUL;2005-11-10 06:00;METAR CYUL 100600Z 23011KT 15SM FEW012 OVC065 07/05 A2943 RMK SF2SC6 SLP968=
CYUL;2005-11-10 09:00;METAR CYUL 100900Z 25012G18KT 10SM -SHRA FEW040 BKN060 OVC075 07/03 A2946 RMK SC1SC5AC2 SLP977=
CYUL;2005-11-10 10:00;METAR CYUL 101000Z 24014KT 10SM SCT055 OVC080 07/03 A2946 RMK SC3AC5 SLP978=
CYUL;2005-11-10 11:00;METAR CYUL 101100Z 24010G17KT 15SM FEW030 BKN065 OVC090 07/03 A2947 RMK SC2SC5AC2 SLP982=
CYUL;2005-11-10 12:00;METAR CYUL 101200Z 25015KT 15SM BKN030 BKN070 OVC090 07/02 A2947 RMK SC5AC2AC2 SLP981=
CYUL;2005-11-10 12:45;SPECI CYUL 101245Z 24017G22KT 15SM -SHRA BKN030 OVC050 06/ RMK SC6SC2=
CYUL;2005-11-10 13:00;METAR CYUL 101300Z 25017G22KT 15SM -SHRA BKN028 BKN045 OVC080 06/02 A2949 RMK SC6SC2AC1 SLP987=
CYUL;2005-11-10 14:00;METAR CYUL 101400Z 25015G25KT 15SM -SHRA BKN028 OVC050 06/02 A2950 RMK SC6SC2 SLP989=
CYUL;2005-11-10 15:00;METAR CYUL 101500Z 27020G26KT 15SM BKN027 OVC050 06/01 A2951 RMK SC7SC1 SLP993=
CYUL;2005-11-10 15:07;SPECI CYUL 101507Z 26016G22KT 15SM -SHRA BKN025 OVC050 06/ RMK SC7SC1=
CYUL;2005-11-10 15:49;SPECI CYUL 101549Z 27025KT 15SM FEW015 BKN025 OVC100 05/ RMK CF1SC6AC2=
CYUL;2005-11-10 16:00;METAR CYUL 101600Z 28022G29KT 15SM FEW015 SCT025 OVC110 05/00 A2953 RMK CF1SC4AC4 SLP000=
CYUL;2005-11-10 16:09;SPECI CYUL 101609Z 27020G25KT 15SM -SHRA BKN022 OVC100 05/ RMK SC6AC2=
CYUL;2005-11-10 16:36;SPECI CYUL 101636Z 27014G20KT 15SM FEW025 FEW045 BKN110 04/ RMK SC2SC1AC5=
CYUL;2005-11-10 17:32;SPECI CYUL 101732Z 28015G21KT 15SM BKN030 BKN110 04/ RMK SC6AC2=
CYUL;2005-11-10 18:00;METAR CYUL 101800Z 29018G25KT 15SM BKN032 BKN110 04/M02 A2959 RMK SC5AC2 SLP023=
CYUL;2005-11-10 18:55;SPECI CYUL 101855Z 29014G19KT 15SM -SHSN BKN035 BKN070 BKN110 04/ RMK SC6AC1AC1=
CYUL;2005-11-10 19:00;METAR CYUL 101900Z 27017G25KT 15SM -SHGS BKN035 BKN070 04/M03 A2963 RMK SC6AC1 CU ASOCT SLP034=
CYUL;2005-11-10 19:24;SPECI CYUL 101924Z 27014KT 15SM -SHSN BKN035 BKN075 04/ RMK SC5AC2=
CYUL;2005-11-10 19:47;SPECI CYUL 101947Z 30014G26KT 15SM SCT040 BKN075 04/ RMK CU4AC1=
CYUL;2005-11-10 20:00;METAR CYUL 102000Z 30015KT 15SM VCSH BKN040 BKN070 04/M04 A2966 RMK CU5AC2 SLP045=
CYUL;2005-11-10 21:00;METAR CYUL 102100Z 28018KT 15SM FEW040 SCT070 03/M05 A2971 RMK SC2AC1 VIRGA SLP061=
CYUL;2005-11-10 22:00;METAR CYUL 102200Z 29015G21KT 15SM -SHSN FEW035 BKN060 02/M04 A2975 RMK CF2SC5 SLP075=
CYUL;2005-11-10 22:24;SPECI CYUL 102224Z 28015G21KT 15SM FEW035 SCT050 BKN075 02/ RMK CF2SC2AC2=
CYUL;2005-11-10 22:40;SPECI CYUL 102240Z 29009G15KT 15SM -SHGS SCT035 BKN055 02/ RMK SC4SC2=
CYUL;2005-11-10 23:00;METAR CYUL 102300Z 27010G15KT 15SM FEW035 FEW110 01/M04 A2979 RMK SC1AC1 SLP088=
CYUL;2005-11-11 00:00;METAR CYUL 110000Z 28010KT 15SM FEW045 FEW150 01/M05 A2980 RMK CF1AC1 SLP093=
CYUL;2005-11-11 02:00;METAR CYUL 110200Z 27014KT 15SM FEW045 FEW180 FEW240 00/M05 A2982 RMK CF1AC1CI1 SLP099=
CYUL;2005-11-11 03:00;METAR CYUL 110300Z 29010KT 15SM FEW040 FEW090 SCT180 M00/M06 A2983 RMK SC1AC1AC2 SLP103=
CYUL;2005-11-11 04:00;METAR CYUL 110400Z 27014G19KT 15SM FEW040 FEW090 M00/M06 A2981 RMK SC1AC1 SLP097=
CYUL;2005-11-11 05:00;METAR CYUL 110500Z 27011KT 15SM FEW040 M01/M06 A2983 RMK SC1 SLP104=
CYUL;2005-11-11 07:00;METAR CYUL 110700Z 27013KT 15SM FEW050 M01/M06 A2986 RMK SC2 SLP114=
CYUL;2005-11-11 08:40;SPECI CYUL 110840Z 28007KT 15SM -SHSN BKN030 M02/ RMK SC5=
CYUL;2005-11-11 09:00;METAR CYUL 110900Z 29010KT 15SM VCSH SCT030 M01/M07 A2989 RMK SC4 CF ASOCT SLP123=
CYUL;2005-11-11 09:30;SPECI CYUL 110930Z 29010KT 15SM -SHSN BKN035 M02/ RMK SC4=
CYUL;2005-11-11 09:50;SPECI CYUL 110950Z 28010KT 15SM SCT035 M02/ RMK SC2=
CYUL;2005-11-11 10:00;METAR CYUL 111000Z 28009KT 15SM FEW035 M02/M08 A2991 RMK SC2 SLP131=
CYUL;2005-11-11 11:00;METAR CYUL 111100Z 26012KT 15SM FEW040 M02/M08 A2992 RMK SC2 CF ASOCT SLP135=
CYUL;2005-11-11 12:00;METAR CYUL 111200Z 26010KT 30SM FEW015 FEW040 M02/M07 A2995 RMK CF1SC1 SLP143=
CYUL;2005-11-11 13:00;METAR CYUL 111300Z 27014G19KT 30SM FEW040 FEW090 FEW240 M01/M07 A2996 RMK SC1AC1CI1 CF ASOCT SLP148=
CYUL;2005-11-11 15:00;METAR CYUL 111500Z 29015G22KT 15SM FEW040 FEW090 01/M06 A2998 RMK CF1AC1 SLP153=
CYUL;2005-11-11 16:00;METAR CYUL 111600Z 28016KT 15SM BKN040 BKN090 02/M06 A2997 RMK SC6AC1 CU ASOCT DIST SHWR S SLP152=
CYUL;2005-11-11 17:00;METAR CYUL 111700Z 28016G22KT 30SM BKN040 BKN090 01/M06 A2997 RMK SC7AC1 CU ASOCT SLP151=
CYUL;2005-11-11 18:00;METAR CYUL 111800Z 30013G20KT 30SM BKN040 02/M07 A2998 RMK SC7 SLP153=
CYUL;2005-11-11 19:00;METAR CYUL 111900Z 28016KT 30SM BKN045 02/M07 A2998 RMK SC7 SLP154=
CYUL;2005-11-11 21:00;METAR CYUL 112100Z 30012KT 30SM SCT045 02/M07 A3000 RMK SC3 SLP162=
CYUL;2005-11-11 22:00;METAR CYUL 112200Z 30005KT 30SM BKN050 01/M06 A3003 RMK SC6 SLP170=
CYUL;2005-11-11 23:00;METAR CYUL 112300Z 31005KT 15SM FEW050 M01/M06 A3005 RMK SC2 SLP178=
CYUL;2005-11-12 00:00;METAR CYUL 120000Z 27004KT 15SM FEW050 M02/M06 A3006 RMK SC1 SLP183=
CYUL;2005-11-12 01:00;METAR CYUL 120100Z 28005KT 15SM FEW050 M02/M06 A3008 RMK SC1 SLP190=
CYUL;2005-11-12 02:00;METAR CYUL 120200Z 31003KT 15SM FEW070 M02/M06 A3011 RMK AC1 SLP198=
CYUL;2005-11-12 03:00;METAR CYUL 120300Z 27002KT 15SM FEW070 M03/M07 A3011 RMK AC1 SLP198=
CYUL;2005-11-12 04:00;METAR CYUL 120400Z 25005KT 15SM SKC M03/M07 A3012 RMK SLP201=
CYUL;2005-11-12 05:00;METAR CYUL 120500Z 24004KT 15SM SKC M04/M07 A3012 RMK SLP201=
CYUL;2005-11-12 06:00;METAR CYUL 120600Z 26004KT 15SM SKC M03/M07 A3012 RMK SLP203=
CYUL;2005-11-12 08:00;METAR CYUL 120800Z 26004KT 15SM SKC M04/M07 A3016 RMK SLP214=
CYUL;2005-11-12 09:00;METAR CYUL 120900Z 00000KT 15SM SKC M03/M06 A3016 RMK SLP216=
CYUL;2005-11-12 10:00;METAR CYUL 121000Z 00000KT 15SM FEW015 M04/M06 A3017 RMK SC1 SLP218=
CYUL;2005-11-12 11:00;METAR CYUL 121100Z 10002KT 15SM FEW210 M03/M06 A3018 RMK CI1 FROIN SLP222=
CYUL;2005-11-12 12:00;METAR CYUL 121200Z 00000KT 30SM FEW120 FEW210 M03/M05 A3021 RMK AC2CI1 FROIN SLP231=
CYUL;2005-11-12 13:00;METAR CYUL 121300Z 18003KT 30SM FEW130 FEW210 M00/M03 A3022 RMK AC1CI1 FROIN SLP234=
CYUL;2005-11-12 14:00;METAR CYUL 121400Z 17004KT 30SM FEW130 FEW210 02/M03 A3021 RMK AC1CI1 SLP233=
CYUL;2005-11-12 15:00;METAR CYUL 121500Z 16004KT 30SM FEW130 FEW220 03/M04 A3022 RMK AC1CI1 SLP236=
CYUL;2005-11-12 16:00;METAR CYUL 121600Z 18003KT 30SM FEW140 FEW240 04/M05 A3021 RMK AC2CI1 SLP232=
CYUL;2005-11-12 17:00;METAR CYUL 121700Z 18005KT 30SM FEW140 FEW240 05/M04 A3019 RMK AC1CI1 SLP226=
CYUL;2005-11-12 20:00;METAR CYUL 122000Z 14008KT 30SM FEW170 BKN240 07/M01 A3016 RMK AC1CI1 SLP217=
CYUL;2005-11-12 21:00;METAR CYUL 122100Z 13008KT 30SM FEW170 FEW240 05/M02 A3017 RMK AC1CI1 SLP218=
CYUL;2005-11-12 22:00;METAR CYUL 122200Z 11005KT 30SM FEW170 BKN240 06/M01 A3017 RMK AC1CI1 SLP219=
CYUL;2005-11-12 23:00;METAR CYUL 122300Z 11006KT 15SM BKN200 05/M01 A3017 RMK CC5 SLP219=
CYUL;2005-11-13 00:00;METAR CYUL 130000Z 14008KT 15SM BKN240 05/M00 A3015 RMK CC6 SLP213=
CYUL;2005-11-13 01:00;METAR CYUL 130100Z 13009KT 15SM BKN230 05/00 A3015 RMK CC5 SLP212=
CYUL;2005-11-13 02:00;METAR CYUL 130200Z 14005KT 15SM BKN200 05/01 A3015 RMK CS5 CC ASOCT SLP213=
CYUL;2005-11-13 03:00;METAR CYUL 130300Z 14003KT 15SM BKN060 OVC190 05/01 A3015 RMK SC5AC2 SLP213=
CYUL;2005-11-13 04:00;METAR CYUL 130400Z 00000KT 15SM SCT060 OVC190 05/01 A3014 RMK SC3AC5 SLP209=
CYUL;2005-11-13 05:00;METAR CYUL 130500Z 06003KT 15SM SCT190 BKN240 06/02 A3014 RMK AC3CS1 SLP209=
CYUL;2005-11-13 06:00;METAR CYUL 130600Z 02004KT 15SM SCT190 BKN240 02/M01 A3013 RMK AC2CI1 SLP203=
CYUL;2005-11-13 06:05;SPECI CYUL 130605Z 02003KT 15SM SCT190 BKN240 02/ RMK AC2CI1=
CYUL;2005-11-13 07:00;METAR CYUL 130700Z 03006KT 15SM BKN060 OVC240 02/M00 A3013 RMK SC5CI1 SLP203=
CYUL;2005-11-13 08:00;METAR CYUL 130800Z 02005KT 15SM BKN060 OVC240 02/M00 A3013 RMK SC3CI1 SLP203=
CYUL;2005-11-13 10:00;METAR CYUL 131000Z 02006KT 15SM FEW060 OVC240 01/M01 A3010 RMK SC2CI4 SLP195=
CYUL;2005-11-13 11:00;METAR CYUL 131100Z 03006KT 15SM OVC240 01/M01 A3009 RMK CS7 SLP193=
CYUL;2005-11-13 12:00;METAR CYUL 131200Z 03006KT 30SM OVC240 01/M01 A3008 RMK CS5 SLP189=
CYUL;2005-11-13 13:00;METAR CYUL 131300Z 03004KT 30SM OVC240 03/01 A3006 RMK CS5 SLP182=
CYUL;2005-11-13 14:00;METAR CYUL 131400Z 14007KT 30SM BKN240 10/04 A3004 RMK CI2 SLP175=
CYUL;2005-11-13 15:00;METAR CYUL 131500Z 15007KT 30SM BKN180 BKN250 11/04 A3002 RMK AC3CI2 SLP167=
CYUL;2005-11-13 16:00;METAR CYUL 131600Z 14009KT 30SM FEW180 BKN250 12/05 A2996 RMK AC1CI3 SLP148=
CYUL;2005-11-13 17:00;METAR CYUL 131700Z 16007KT 30SM BKN170 OVC250 13/05 A2995 RMK AC5CI1 SLP143=
CYUL;2005-11-13 18:00;METAR CYUL 131800Z 14009G15KT 30SM BKN170 OVC230 13/05 A2992 RMK AC5CI2 SLP133=
CYUL;2005-11-13 19:00;METAR CYUL 131900Z 16008KT 30SM BKN150 OVC230 14/05 A2991 RMK AC6CI1 SLP129=
CYUL;2005-11-13 21:00;METAR CYUL 132100Z 16010KT 30SM BKN055 OVC090 12/04 A2990 RMK SC7AC1 SLP128=
CYUL;2005-11-13 22:00;METAR CYUL 132200Z 15008KT 15SM SCT050 BKN070 OVC220 12/04 A2989 RMK SC4AC3CI0 SLP124=
CYUL;2005-11-13 23:00;METAR CYUL 132300Z 14008KT 15SM FEW045 BKN200 11/04 A2989 RMK SC1CC6 SLP122=
CYUL;2005-11-14 00:00;METAR CYUL 140000Z 16006KT 15SM SCT200 10/04 A2989 RMK CC2 SLP122=
CYUL;2005-11-14 01:00;METAR CYUL 140100Z 16008KT 15SM FEW180 BKN240 10/04 A2987 RMK AC1CI3 SLP117=
CYUL;2005-11-14 02:00;METAR CYUL 140200Z 16008KT 15SM FEW180 FEW240 11/04 A2987 RMK AC2CI1 SLP115=
CYUL;2005-11-14 03:00;METAR CYUL 140300Z 18010KT 15SM SCT180 BKN240 11/05 A2986 RMK AC2CI1 SLP112=
CYUL;2005-11-14 04:00;METAR CYUL 140400Z 18011KT 15SM BKN075 BKN240 13/06 A2985 RMK AC5CI1 SLP109=
CYUL;2005-11-14 05:00;METAR CYUL 140500Z 16013KT 15SM BKN060 BKN240 13/06 A2984 RMK CF4CI0 SLP105=
CYUL;2005-11-14 06:00;METAR CYUL 140600Z 16013KT 15SM BKN060 12/06 A2982 RMK SC7 SLP100=
CYUL;2005-11-14 07:00;METAR CYUL 140700Z 16010KT 15SM BKN060 OVC080 11/06 A2984 RMK SC6AC2 SLP105=
CYUL;2005-11-14 08:00;METAR CYUL 140800Z 23031G36KT 15SM BKN070 15/04 A2986 RMK AC7 SLP112=
CYUL;2005-11-14 09:00;METAR CYUL 140900Z 27011KT 15SM BKN049 11/05 A2991 RMK SC7 SLP130=
CYUL;2005-11-14 10:00;METAR CYUL 141000Z 25019G26KT 15SM SCT060 BKN240 10/M00 A2996 RMK SC3CI0 SLP147=
CYUL;2005-11-14 11:00;METAR CYUL 141100Z 23020G29KT 15SM FEW060 09/M00 A2998 RMK SC2 SLP153=
CYUL;2005-11-14 12:00;METAR CYUL 141200Z 23021G30KT 30SM BKN075 09/01 A3000 RMK AC7 SLP160=
CYUL;2005-11-14 13:00;METAR CYUL 141300Z 23020G28KT 30SM BKN070 09/M00 A3004 RMK AC6 SLP175=
CYUL;2005-11-14 14:00;METAR CYUL 141400Z 25029G37KT 30SM BKN060 BKN240 08/M02 A3010 RMK SC5CI0 SLP194=
CYUL;2005-11-14 16:00;METAR CYUL 141600Z 27020G33KT 30SM BKN042 08/M01 A3019 RMK SC6 PRESRR SLP224=
CYUL;2005-11-14 19:00;METAR CYUL 141900Z 29014G19KT 30SM FEW046 FEW230 09/M02 A3027 RMK CF1CI0 SLP252=
CYUL;2005-11-14 21:00;METAR CYUL 142100Z 27011G16KT 30SM FEW020 FEW042 FEW200 07/M02 A3033 RMK CU1SC1CI1 SLP272=
CYUL;2005-11-14 22:00;METAR CYUL 142200Z 25008KT 30SM FEW100 FEW160 FEW200 06/M03 A3035 RMK AC1AS1CI1 SLP280=
CYUL;2005-11-14 23:00;METAR CYUL 142300Z 24007KT 15SM BKN220 05/M02 A3038 RMK CI2 SLP290=
CYUL;2005-11-15 00:00;METAR CYUL 150000Z 26009KT 15SM FEW085 FEW220 05/M02 A3040 RMK AC1CI1 SLP296=
CYUL;2005-11-15 01:00;METAR CYUL 150100Z 33005KT 15SM SCT200 BKN230 02/M02 A3041 RMK CI2CC1 SLP301=
CYUL;2005-11-15 03:00;METAR CYUL 150300Z 36003KT 15SM BKN170 02/M03 A3043 RMK AC6 SLP306=
CYUL;2005-11-15 04:00;METAR CYUL 150400Z 03004KT 15SM SCT170 BKN240 02/M04 A3043 RMK AC1CI0 SLP305=
CYUL;2005-11-15 06:00;METAR CYUL 150600Z 00000KT 15SM OVC220 01/M04 A3046 RMK CI2 SLP318=
CYUL;2005-11-15 07:00;METAR CYUL 150700Z 05006KT 15SM OVC220 03/M03 A3046 RMK CI2 SLP318=
CYUL;2005-11-15 09:00;METAR CYUL 150900Z 05009KT 15SM OVC110 03/M04 A3046 RMK AC7 SLP316=
CYUL;2005-11-15 10:00;METAR CYUL 151000Z 06012KT 15SM OVC100 02/M04 A3043 RMK AC8 SLP307=
CYUL;2005-11-15 11:00;METAR CYUL 151100Z 05012KT 15SM OVC090 02/M04 A3045 RMK AC8 SLP313=
CYUL;2005-11-15 12:00;METAR CYUL 151200Z 05012KT 15SM OVC065 02/M04 A3045 RMK SC8 SLP314=
CYUL;2005-11-15 13:00;METAR CYUL 151300Z 06013G18KT 15SM -SN OVC040 01/M05 A3045 RMK SC8 SLP312=
CYUL;2005-11-15 14:00;METAR CYUL 151400Z 06012G19KT 10SM -SN OVC043 00/M03 A3042 RMK SC8 SLP304=
CYUL;2005-11-15 14:15;SPECI CYUL 151415Z 07013KT 2 1/2SM -SN OVC022 00/ RMK SC8=
CYUL;2005-11-15 14:46;SPECI CYUL 151446Z 07011KT 1SM -SN VCFG SCT010 OVC015 M00/ RMK SN2SF2SC4=
CYUL;2005-11-15 15:00;METAR CYUL 151500Z 05012KT 1 3/4SM -SN BR SCT008 OVC015 M00/M02 A3041 RMK SN1SF2SC5 /S01/ SLP301=
CYUL;2005-11-15 15:40;SPECI CYUL 151540Z 05013KT 1 3/4SM -SN -FZDZ BR SCT007 OVC015 M00/ RMK SN1SF2ST5=
CYUL;2005-11-15 16:00;METAR CYUL 151600Z 05014KT 1SM R06L/P6000FT/N R06R/P6000FT/D -SHSN BR VV009 M01/M02 A3038 RMK SN8 SLP291=
CYUL;2005-11-15 16:11;SPECI CYUL 151611Z 05013KT 1SM R06L/P6000FT/U R06R/P6000FT/U -SN -FZDZ BR SCT007 OVC014 M01/ RMK FG2SF2ST4=
CYUL;2005-11-15 16:29;SPECI CYUL 151629Z 05013KT 1SM R06L/P6000FT/U R06R/P6000FT/U -SNSG -FZDZ BR SCT007 OVC014 M01/ RMK FG2SF2ST4 VIS VRB 3/4-11/4=
CYUL;2005-11-15 16:40;SPECI CYUL 151640Z 04015G20KT 1SM R06L/P6000FT/N R06R/P6000FT/N -PLSN BR SCT007 OVC013 M00/ RMK FG2SF2NS4 VIS VRB 3/4-11/4=
CYUL;2005-11-15 17:00;METAR CYUL 151700Z 05013G19KT 1SM R06L/P6000FT/D R06R/P6000FT/D -PLSN BR SCT006 OVC012 M00/M02 A3035 RMK FG2SF2NS4 VIS VRB 3/4-11/4 SLP280=
CYUL;2005-11-15 17:07;SPECI CYUL 151707Z 04016KT 1SM R06L/P6000FT/D R06R/P6000FT/D -SN BR BKN006 OVC010 M00/ RMK SN5SF2NS2 VIS VRB 3/4-11/4=
CYUL;2005-11-15 17:21;SPECI CYUL 151721Z 04015KT 1 1/2SM R06L/P6000FT/U R06R/P6000FT/U -SHPLSN BR SCT006 OVC014 M00/ RMK SN2SF2NS4 VIS VRB 1-21/2=
CYUL;2005-11-15 17:46;SPECI CYUL 151746Z 05017KT 1SM R06L/P6000FT/D R06R/P6000FT/D -SHSN BR VV006 M00/ RMK SN8 VIS VRB 3/4-11/4=
CYUL;2005-11-15 18:00;METAR CYUL 151800Z 04014KT 1SM R06L/P6000FT/N R06R/P6000FT/D -SHSN BR VV008 M00/M01 A3032 RMK SN8 VIS VRB 3/4-11/4 /S02/ SLP269=
CYUL;2005-11-15 18:32;SPECI CYUL 151832Z 05015KT 1 1/2SM -SHPLSN BR SCT005 OVC014 M00/ RMK FG1SF3NS4 VIS VRB 1-2=
CYUL;2005-11-15 19:00;METAR CYUL 151900Z 05012G17KT 1 1/2SM -SHPLSN BR BKN006 BKN014 OVC024 00/M01 A3029 RMK FG1SF5NS2SC1 VIS VRB 1-2 SLP259=
CYUL;2005-11-15 19:14;SPECI CYUL 151914Z 05014KT 2SM -SHPLSN BR BKN006 OVC013 00/ RMK FG1SF6NS1 VIS VRB 1-3=
CYUL;2005-11-15 19:36;SPECI CYUL 151936Z 05015KT 3SM -SHPL BR BKN006 OVC015 00/ RMK SF6NS2=
CYUL;2005-11-15 19:48;SPECI CYUL 151948Z 05016KT 4SM -RA BR BKN006 OVC015 00/ RMK SF6NS2=
CYUL;2005-11-15 20:00;METAR CYUL 152000Z 05016KT 5SM -RA BR BKN008 OVC015 00/M01 A3027 RMK SF6NS2 SLP251=
CYUL;2005-11-15 20:17;SPECI CYUL 152017Z 05016KT 2 1/2SM -RA BR FEW004 BKN008 BKN015 OVC022 00/ RMK SF1SF5NS2SC1=
CYUL;2005-11-15 20:48;SPECI CYUL 152048Z 05013KT 2 1/2SM -RA BR FEW004 BKN006 OVC022 01/ RMK SF1SF6SC1=
CYUL;2005-11-15 21:00;METAR CYUL 152100Z 05013KT 2 1/2SM -RA BR FEW004 BKN006 OVC016 01/M00 A3024 RMK SF2SF5SC1 SLP241=
CYUL;2005-11-15 21:41;SPECI CYUL 152141Z 04014KT 2 1/2SM -RA BR FEW005 BKN010 OVC018 01/ RMK SF2SF6SC1=
CYUL;2005-11-15 22:00;METAR CYUL 152200Z 04013KT 2 1/2SM -RA BR FEW004 BKN010 OVC016 01/00 A3023 RMK SF2SF6SC1 SLP239=
CYUL;2005-11-15 23:00;METAR CYUL 152300Z 05013KT 2 1/2SM -RA BR FEW003 BKN009 OVC015 01/00 A3022 RMK SF2SF5NS1 SLP234=
CYUL;2005-11-15 23:49;SPECI CYUL 152349Z 05015KT 2 1/2SM -RA BR FEW003 BKN006 OVC015 02/ RMK SF2SF5NS1=
CYUL;2005-11-16 00:00;METAR CYUL 160000Z 05015KT 2 1/2SM -RA BR FEW003 BKN006 OVC015 02/01 A3019 RMK SF2SF5NS1 SLP224=
CYUL;2005-11-16 01:00;METAR CYUL 160100Z 05017KT 2 1/2SM -RA BR FEW003 BKN005 OVC012 02/00 A3015 RMK SF2SF6NS1 SLP211=
CYUL;2005-11-16 01:29;SPECI CYUL 160129Z 05012G18KT 3SM -RA BR FEW003 BKN005 OVC012 02/ RMK SF1SF6NS1=
CYUL;2005-11-16 02:00;METAR CYUL 160200Z 06012KT 3SM -RA BR FEW003 OVC005 02/01 A3015 RMK SF1SF7 SLP212=
CYUL;2005-11-16 03:00;METAR CYUL 160300Z 05013KT 3SM -RA BR BKN005 OVC010 02/01 A3011 RMK SF6SF2 SLP197=
CYUL;2005-11-16 04:00;METAR CYUL 160400Z 05014KT 3SM -RA BR BKN005 OVC013 02/01 A3006 RMK SF5SF3 SLP182=
CYUL;2005-11-16 05:00;METAR CYUL 160500Z 04013KT 3SM -RA BR SCT005 OVC015 02/02 A3004 RMK SF3SF5 SLP175=
CYUL;2005-11-16 05:11;SPECI CYUL 160511Z 05014KT 3SM -RA BR SCT007 OVC016 02/ RMK SF3SF5=
CYUL;2005-11-16 06:00;METAR CYUL 160600Z 05012KT 3SM -RA BR SCT006 OVC011 03/02 A2998 RMK SF3SF5 PRESFR /R10/ SLP153=
CYUL;2005-11-16 07:00;METAR CYUL 160700Z 04013KT 6SM BR SCT006 OVC010 03/02 A2995 RMK SF3SF5 SLP143=
CYUL;2005-11-16 07:16;SPECI CYUL 160716Z 04015KT 4SM BR SCT003 OVC010 03/ RMK SF3SF5=
CYUL;2005-11-16 08:00;METAR CYUL 160800Z 04011KT 6SM BR SCT003 OVC009 03/03 A2991 RMK SF3SF5 SLP130=
CYUL;2005-11-16 10:00;METAR CYUL 161000Z 03009KT 6SM BR FEW003 OVC008 04/03 A2984 RMK SF2SF6 SLP105=
CYUL;2005-11-16 11:00;METAR CYUL 161100Z 03012KT 6SM BR FEW005 OVC009 05/04 A2980 RMK SF2SF6 SLP094=
CYUL;2005-11-16 12:00;METAR CYUL 161200Z 03009KT 4SM BR BKN011 OVC120 05/05 A2977 RMK SF6AC2 SLP083=
CYUL;2005-11-16 12:24;SPECI CYUL 161224Z 06005KT 4SM BR SCT011 BKN090 OVC240 10/ RMK SF3AC3CI0=
CYUL;2005-11-16 13:00;METAR CYUL 161300Z 12008KT 4SM BR FEW011 BKN120 OVC240 12/12 A2973 RMK SF2AC5CI0 SLP068=
CYUL;2005-11-16 14:22;SPECI CYUL 161422Z 15008KT 10SM BKN100 OVC240 15/ RMK AC6CI0=
CYUL;2005-11-16 15:38;SPECI CYUL 161538Z 16019G27KT 10SM -SHRA BKN055 BKN090 OVC210 17/ RMK SC6AC2CI1=
CYUL;2005-11-16 16:00;METAR CYUL 161600Z 16019G24KT 6SM -SHRA FEW030 BKN050 OVC080 16/15 A2963 RMK SC1SC6AC1 SLP033=
CYUL;2005-11-16 17:00;METAR CYUL 161700Z 16018KT 10SM -SHRA BKN050 OVC080 17/15 A2956 RMK SC7AC1 PRESFR SLP011=
CYUL;2005-11-16 17:05;SPECI CYUL 161705Z 19025G30KT 2 1/2SM SHRA BKN022 OVC040 17/ RMK SC6SC2=
CYUL;2005-11-16 17:10;SPECI CYUL 161710Z 23030G38KT 3SM -SHRA BKN020 OVC040 15/ RERA RMK SC6SC2=
CYUL;2005-11-16 17:50;SPECI CYUL 161750Z 23018G28KT 8SM -SHRA BKN012 OVC020 11/ RERA RMK SC6SC2=
CYUL;2005-11-16 18:00;METAR CYUL 161800Z 23020G26KT 10SM -SHRA BKN015 OVC022 10/09 A2971 RERA RMK SC6SC2 PRESRR SLP064=
CYUL;2005-11-16 19:00;METAR CYUL 161900Z 23017KT 8SM -SHRA FEW012 OVC054 09/07 A2975 RMK SF1SC7 SLP076=
CYUL;2005-11-16 20:32;SPECI CYUL 162032Z 23019G25KT 15SM FEW013 OVC070 08/ RMK SF2AC6=
CYUL;2005-11-16 21:00;METAR CYUL 162100Z 23018G24KT 15SM SCT014 OVC075 08/06 A2978 RMK SF3AC5 SLP086=
CYUL;2005-11-16 21:33;SPECI CYUL 162133Z 24015G25KT 15SM -SHRA FEW014 OVC080 08/ RMK SF2AC6=
CYUL;2005-11-16 22:00;METAR CYUL 162200Z 24020G27KT 15SM FEW014 OVC085 08/05 A2980 RMK SF2AC6 SLP094=
CYUL;2005-11-16 23:00;METAR CYUL 162300Z 24016G21KT 15SM FEW020 OVC090 08/04 A2983 RMK SC1AC7 SLP103=
CYUL;2005-11-17 00:00;METAR CYUL 170000Z 23014KT 15SM FEW070 OVC100 08/03 A2985 RMK AC2AC6 SLP109=
CYUL;2005-11-17 01:00;METAR CYUL 170100Z 22014KT 15SM SCT090 BKN180 08/04 A2984 RMK AC3AC2 SLP107=
CYUL;2005-11-17 02:00;METAR CYUL 170200Z 22013G18KT 15SM SCT090 BKN160 07/03 A2985 RMK AC3AC3 SLP110=
CYUL;2005-11-17 03:00;METAR CYUL 170300Z 22011KT 15SM SCT055 SCT160 06/02 A2987 RMK SC2AC1 SLP116=
CYUL;2005-11-17 04:00;METAR CYUL 170400Z 23010G15KT 15SM BKN060 06/02 A2987 RMK SC5 SLP115=
CYUL;2005-11-17 05:00;METAR CYUL 170500Z 23011G17KT 15SM BKN060 06/02 A2985 RMK SC7 SLP110=
CYUL;2005-11-17 06:00;METAR CYUL 170600Z 23013KT 15SM BKN065 06/02 A2987 RMK SC7 SLP118=
CYUL;2005-11-17 07:00;METAR CYUL 170700Z 23014KT 15SM OVC065 06/00 A2987 RMK SC8 SLP118=
CYUL;2005-11-17 08:26;SPECI CYUL 170826Z 24016G25KT 15SM -SHRA OVC060 05/ RMK SC8=
CYUL;2005-11-17 09:00;METAR CYUL 170900Z 24013G18KT 15SM -SHRA OVC050 05/M00 A2990 RMK SC8 SLP126=
CYUL;2005-11-17 10:00;METAR CYUL 171000Z 24015KT 15SM -SHRA FEW030 OVC060 04/00 A2992 RMK CF1SC7 SLP132=
CYUL;2005-11-17 10:33;SPECI CYUL 171033Z 24021KT 15SM FEW030 BKN065 04/ RMK SC1SC6=
CYUL;2005-11-17 11:00;METAR CYUL 171100Z 26018KT 15SM FEW030 BKN070 04/M01 A2992 RMK CF1AC6 SLP133=
CYUL;2005-11-17 12:00;METAR CYUL 171200Z 26014G20KT 15SM FEW030 BKN040 OVC075 04/M02 A2994 RMK CF1SC6AC1 SLP141=
CYUL;2005-11-17 13:00;METAR CYUL 171300Z 26020G25KT 15SM FEW025 BKN040 03/M02 A2997 RMK CF2SC6 SLP151=
CYUL;2005-11-17 14:00;METAR CYUL 171400Z 25015G21KT 15SM SCT025 SCT045 BKN070 03/M02 A2999 RMK SC3SC1AC3 SLP156=
CYUL;2005-11-17 14:40;SPECI CYUL 171440Z 24018KT 15SM -SHSN FEW025 SCT065 03/ RMK CF1SC3=
CYUL;2005-11-17 15:00;METAR CYUL 171500Z 25018KT 15SM -SHSN FEW025 SCT050 03/M02 A2998 RMK CF1SC3 SLP155=
CYUL;2005-11-17 15:27;SPECI CYUL 171527Z 25017G25KT 15SM VCSH FEW025 BKN030 BKN070 03/ RMK CF1SC4AC1=
CYUL;2005-11-17 15:43;SPECI CYUL 171543Z 26017G24KT 15SM -SHSN FEW020 BKN026 BKN070 03/ RMK CF1SC4AC1=
CYUL;2005-11-17 16:00;METAR CYUL 171600Z 26019G26KT 12SM -SHSN BKN025 BKN050 03/M03 A2999 RMK SC6SC1 VIS LWR W SLP156=
CYUL;2005-11-17 17:00;METAR CYUL 171700Z 24016KT 15SM BKN025 OVC050 03/M02 A2999 RMK SC6SC2 SLP157=
CYUL;2005-11-17 17:50;SPECI CYUL 171750Z 24017KT 15SM -SHSN BKN028 OVC050 03/ RMK SC7SC1=
CYUL;2005-11-17 18:00;METAR CYUL 171800Z 24016KT 15SM -SHSN BKN026 OVC040 03/M02 A2999 RMK SC7SC1 SLP156=
CYUL;2005-11-17 19:00;METAR CYUL 171900Z 25016KT 15SM -SHSN OVC028 03/M02 A2999 RMK SC8 SLP157=
CYUL;2005-11-17 20:00;METAR CYUL 172000Z 25016KT 10SM -SHSN FEW020 OVC028 03/M03 A3000 RMK CF1SC7 SLP159=
CYUL;2005-11-17 21:00;METAR CYUL 172100Z 25015G22KT 4SM -SHSN BKN022 OVC040 03/M03 A3000 RMK SN2SC6SC1 SLP162=
CYUL;2005-11-17 21:08;SPECI CYUL 172108Z 25016G21KT 3SM -SHSN BKN014 OVC025 02/ RMK SN3SC3SC2=
CYUL;2005-11-17 21:15;SPECI CYUL 172115Z 25016G21KT 2SM -SHSN BKN014 OVC025 02/ RMK SN4SC2SC2=
CYUL;2005-11-17 21:44;SPECI CYUL 172144Z 26014G19KT 2 1/2SM -SHSN BKN016 OVC025 01/ RMK SN3SC3SC2=
CYUL;2005-11-17 22:00;METAR CYUL 172200Z 26011KT 3SM -SHSN BKN017 OVC030 01/M01 A3003 RMK SN2SC3SC2 SLP169=
CYUL;2005-11-17 22:10;SPECI CYUL 172210Z 25012KT 2 1/2SM -SHSN BKN014 OVC025 01/ RMK SN3SC4SC1=
CYUL;2005-11-17 22:35;SPECI CYUL 172235Z 25011KT 3SM -SHSN BKN014 OVC025 01/ RMK SN2SC4SC2=
CYUL;2005-11-17 22:39;SPECI CYUL 172239Z 25012KT 3SM -SHSN BKN009 BKN014 OVC025 01/ RMK SF6SC2SC1=
CYUL;2005-11-17 23:00;METAR CYUL 172300Z 24013KT 3SM -SHSN BKN009 OVC018 01/M01 A3004 RMK SF6SC2 SLP173=
CYUL;2005-11-17 23:30;SPECI CYUL 172330Z 25013G18KT 4SM -SHSN FEW009 BKN013 OVC025 01/ RMK SF2SF3SC3=
CYUL;2005-11-18 00:00;METAR CYUL 180000Z 25012KT 6SM -SHSN BKN014 OVC030 01/M01 A3004 RMK SC6SC2 SLP175=
CYUL;2005-11-18 00:25;SPECI CYUL 180025Z 26013KT 1 1/2SM -SN VV007 01/ RMK SN8=
CYUL;2005-11-18 00:35;SPECI CYUL 180035Z 26012KT 3SM -SN BKN008 OVC015 00/ RMK SF6SC2=
CYUL;2005-11-18 01:00;METAR CYUL 180100Z 27010G15KT 4SM -SN FEW010 BKN020 OVC030 00/M01 A3005 RMK SF2SC5SC1 SLP178=
CYUL;2005-11-18 01:12;SPECI CYUL 180112Z 28010KT 3SM -SN FEW009 BKN012 OVC020 00/ RMK SF2SF5SC2=
CYUL;2005-11-18 01:35;SPECI CYUL 180135Z 27008KT 10SM -SN SCT012 BKN050 OVC090 00/ RMK SF4SC2AC2=
CYUL;2005-11-18 02:00;METAR CYUL 180200Z 27009KT 8SM -SN FEW012 BKN020 OVC060 00/M01 A3006 RMK SF2SC3SC2 SLP183=
CYUL;2005-11-18 02:30;SPECI CYUL 180230Z 28009KT 5SM -SN BKN013 OVC020 00/ RMK SC6SC2=
CYUL;2005-11-18 03:00;METAR CYUL 180300Z 27009KT 10SM FEW012 BKN090 M00/M02 A3008 RMK CF2AC6 SLP188=
CYUL;2005-11-18 03:17;SPECI CYUL 180317Z 27008KT 6SM -SHSN BKN025 OVC075 M00/ RMK SC6AC2=
CYUL;2005-11-18 04:00;METAR CYUL 180400Z 27007G16KT 15SM SCT015 BKN035 OVC120 M00/M03 A3009 RMK CF3SC2AC2 SLP191=
CYUL;2005-11-18 04:31;SPECI CYUL 180431Z 28011KT 3SM -SHSN OVC035 M00/ RMK SC8=
CYUL;2005-11-18 05:00;METAR CYUL 180500Z 27011KT 15SM FEW015 BKN065 BKN100 M01/M03 A3009 RMK SF1SC6AC1 SLP191=
CYUL;2005-11-18 05:54;SPECI CYUL 180554Z 27015KT 10SM -SHSN SCT020 BKN050 BKN090 M01/ RMK CF4SC2AC1=
CYUL;2005-11-18 06:00;METAR CYUL 180600Z 27014KT 4SM -SHSN BKN020 OVC035 M01/M04 A3011 RMK CF6SC2 SLP198=
CYUL;2005-11-18 06:12;SPECI CYUL 180612Z 28013KT 1 1/2SM -SHSN OVC007 M02/ RMK ST8=
CYUL;2005-11-18 06:19;SPECI CYUL 180619Z 28014KT 3SM -SHSN FEW010 OVC045 M02/ RMK SF2SC6=
CYUL;2005-11-18 07:00;METAR CYUL 180700Z 29013KT 10SM -SHSN SCT015 OVC060 M02/M05 A3015 RMK CF4SC3 SLP211=
CYUL;2005-11-18 07:32;SPECI CYUL 180732Z 29012G18KT 15SM FEW035 M03/ RMK SC2=
CYUL;2005-11-18 09:00;METAR CYUL 180900Z 28008KT 15SM FEW020 FEW065 M04/M09 A3019 RMK CF1SC1 SLP226=
CYUL;2005-11-18 10:00;METAR CYUL 181000Z 27013KT 15SM BKN028 M04/M09 A3022 RMK SC6 SLP235=
CYUL;2005-11-18 11:00;METAR CYUL 181100Z 29012G17KT 15SM FEW030 FEW100 M06/M11 A3024 RMK CF1AC1 SLP244=
CYUL;2005-11-18 12:00;METAR CYUL 181200Z 24008KT 15SM -SHSN FEW022 FEW090 M06/M09 A3027 RMK CF2AC1 SLP254=
CYUL;2005-11-18 12:36;SPECI CYUL 181236Z 26010KT 15SM FEW022 FEW060 M06/ RMK CF1SC1=
CYUL;2005-11-18 13:00;METAR CYUL 181300Z 27011KT 15SM FEW022 FEW065 M06/M10 A3028 RMK CU1SC1 SLP256=
CYUL;2005-11-18 14:00;METAR CYUL 181400Z 28010KT 15SM FEW025 FEW070 M06/M10 A3030 RMK CU2AC1 SLP262=
CYUL;2005-11-18 15:00;METAR CYUL 181500Z 27013KT 15SM -SHSN BKN022 BKN040 M06/M11 A3030 RMK SC5SC1 CU ASOCT SLP262=
CYUL;2005-11-18 16:00;METAR CYUL 181600Z 27010KT 15SM -SHSN BKN023 BKN040 M06/M11 A3030 RMK SC5SC1 SLP261=
CYUL;2005-11-18 16:40;SPECI CYUL 181640Z 25015KT 30SM VCSH BKN030 M05/ RMK SC5=
CYUL;2005-11-18 17:00;METAR CYUL 181700Z 27012G17KT 30SM VCSH BKN030 BKN240 M05/M12 A3028 RMK SC5CI1 SLP257=
CYUL;2005-11-18 18:00;METAR CYUL 181800Z 25014KT 30SM SCT030 BKN210 M05/M13 A3027 RMK SC3CI0 CU ASOCT SLP251=
CYUL;2005-11-18 19:00;METAR CYUL 181900Z 26009KT 30SM FEW030 BKN210 M05/M12 A3025 RMK CU2CI1 SLP246=
CYUL;2005-11-18 20:00;METAR CYUL 182000Z 24009KT 30SM FEW030 FEW090 BKN210 M05/M12 A3024 RMK CF1AC1CI1 SLP243=
CYUL;2005-11-18 21:00;METAR CYUL 182100Z 26007KT 30SM FEW030 FEW120 BKN210 M05/M12 A3024 RMK CF1AC1CI3 SLP241=
CYUL;2005-11-18 22:00;METAR CYUL 182200Z 25007KT 15SM FEW120 BKN210 M05/M12 A3024 RMK AC1CI2 SLP244=
CYUL;2005-11-18 23:00;METAR CYUL 182300Z 26006KT 15SM FEW050 BKN210 M05/M12 A3026 RMK SC2CI2 SLP248=
CYUL;2005-11-19 00:00;METAR CYUL 190000Z 27002KT 15SM FEW210 M06/M12 A3025 RMK CI1 SLP248=
CYUL;2005-11-19 01:00;METAR CYUL 190100Z 00000KT 15SM SKC M05/M12 A3026 RMK SLP250=
CYUL;2005-11-19 02:00;METAR CYUL 190200Z 00000KT 15SM SKC M06/M12 A3026 RMK SLP250=
CYUL;2005-11-19 03:00;METAR CYUL 190300Z 13003KT 15SM FEW090 FEW210 M06/M11 A3025 RMK AC1CI1 SLP247=
CYUL;2005-11-19 04:00;METAR CYUL 190400Z 17005KT 15SM BKN060 M05/M09 A3025 RMK SC6 SLP247=
CYUL;2005-11-19 06:00;METAR CYUL 190600Z 16005KT 15SM FEW032 OVC050 M03/M07 A3024 RMK SC1SC7 SLP242=
CYUL;2005-11-19 07:46;SPECI CYUL 190746Z 16005KT 4SM -SHSN OVC060 M03/ RMK SC8=
CYUL;2005-11-19 08:41;SPECI CYUL 190841Z 18004KT 15SM FEW020 OVC050 M03/ RMK CF1SC7=
CYUL;2005-11-19 09:00;METAR CYUL 190900Z 19005KT 10SM -SHSN BKN010 OVC050 M02/M04 A3023 RMK SF6SC2 SLP238=
CYUL;2005-11-19 09:52;SPECI CYUL 190952Z 19006KT 10SM FEW010 BKN032 M02/ RMK SF2SC5=
CYUL;2005-11-19 11:00;METAR CYUL 191100Z 17005KT 12SM FEW010 OVC020 M02/M04 A3024 RMK SF1SC7 SLP241=
CYUL;2005-11-19 11:24;SPECI CYUL 191124Z 16007KT 8SM -SHSN BKN017 OVC030 M01/ RMK SC6SC2=
CYUL;2005-11-19 12:00;METAR CYUL 191200Z 17005KT 4SM -SHSN FEW015 OVC040 M01/M03 A3025 RMK SF2SC6 SLP245=
CYUL;2005-11-19 13:00;METAR CYUL 191300Z 16006KT 3SM -SN OVC033 M01/M03 A3025 RMK SC8 SLP247=
CYUL;2005-11-19 13:33;SPECI CYUL 191333Z 16005KT 1 3/4SM -SN OVC030 M01/ RMK SC8=
CYUL;2005-11-19 13:53;SPECI CYUL 191353Z 16007KT 1 1/4SM R24R/4500VP6000FT/D R24L/P6000FT/D -SN VV010 M01/ RMK SN8=
CYUL;2005-11-19 14:00;METAR CYUL 191400Z 16006KT 1 1/2SM -SN OVC025 M01/M02 A3025 RMK SN3SC5 /S01/ SLP245=
CYUL;2005-11-19 14:38;SPECI CYUL 191438Z 16007KT 3SM -SN FEW006 BKN030 OVC220 M01/ RMK SF2SC4CI0=
CYUL;2005-11-19 15:00;METAR CYUL 191500Z 17010KT 3SM -SN FEW008 BKN016 OVC040 M00/M01 A3024 RMK SF2SC4SC2 SLP243=
CYUL;2005-11-19 16:00;METAR CYUL 191600Z 20008KT 7SM -SN SCT010 BKN016 OVC035 00/M01 A3023 RMK SF3SC3SC2 SLP238=
CYUL;2005-11-19 16:40;SPECI CYUL 191640Z 20007KT 4SM -SN BKN014 BKN018 OVC030 01/ RMK SF5SC2SC1=
CYUL;2005-11-19 17:00;METAR CYUL 191700Z 20008KT 7SM BKN014 OVC030 01/M01 A3021 RMK SF5SC3 INTMT -SN SLP231=
CYUL;2005-11-19 18:00;METAR CYUL 191800Z 21009KT 10SM -SN SCT014 OVC032 02/M00 A3019 RMK SF3SC5 SLP225=
CYUL;2005-11-19 19:00;METAR CYUL 191900Z 23010KT 15SM FEW012 OVC032 02/M01 A3018 RMK SF1SC7 INTMT -SN SLP221=
CYUL;2005-11-19 21:00;METAR CYUL 192100Z 22007KT 15SM FEW030 BKN050 03/M01 A3016 RMK SC2SC5 SLP217=
CYUL;2005-11-19 22:00;METAR CYUL 192200Z 15005KT 10SM FEW040 BKN055 OVC100 01/M01 A3016 RMK SC2SC6AC1 SLP217=
CYUL;2005-11-20 00:00;METAR CYUL 200000Z 18008KT 10SM OVC040 03/M02 A3015 RMK SC8 SLP212=
CYUL;2005-11-20 01:00;METAR CYUL 200100Z 19010KT 15SM OVC040 03/M02 A3014 RMK SC8 SLP208=
CYUL;2005-11-20 02:00;METAR CYUL 200200Z 18008KT 15SM OVC045 03/M01 A3012 RMK SC8 SLP202=
CYUL;2005-11-20 03:00;METAR CYUL 200300Z 18007KT 15SM OVC048 03/M02 A3011 RMK SC8 SLP200=
CYUL;2005-11-20 03:23;SPECI CYUL 200323Z 18009KT 15SM BKN050 01/ RMK SC5=
CYUL;2005-11-20 04:00;METAR CYUL 200400Z 16008KT 15SM FEW050 BKN180 01/M02 A3011 RMK SC2AC1 SLP199=
CYUL;2005-11-20 06:00;METAR CYUL 200600Z 17011KT 15SM FEW055 SCT130 01/M02 A3008 RMK SC1AC1 SLP190=
CYUL;2005-11-20 07:00;METAR CYUL 200700Z 16008KT 15SM SCT130 BKN240 01/M03 A3007 RMK AC2CI0 SLP184=
CYUL;2005-11-20 08:00;METAR CYUL 200800Z 17007KT 15SM SCT150 BKN190 00/M03 A3006 RMK AC2AC0 SLP180=
CYUL;2005-11-20 10:00;METAR CYUL 201000Z 15003KT 15SM BKN120 OVC150 01/M02 A3004 RMK AC6AC2 SLP174=
CYUL;2005-11-20 11:00;METAR CYUL 201100Z 00000KT 15SM BKN090 OVC150 02/M01 A3003 RMK AC6AC2 SLP172=
CYUL;2005-11-20 12:00;METAR CYUL 201200Z 00000KT 15SM BKN110 OVC150 03/M01 A3003 RMK AC6AC2 SLP171=
CYUL;2005-11-20 13:00;METAR CYUL 201300Z 25003KT 15SM -RA BKN030 OVC060 03/M01 A3004 RMK SC6SC2 SLP175=
CYUL;2005-11-20 14:00;METAR CYUL 201400Z 24004KT 30SM -RA OVC030 04/00 A3004 RMK SC8 SLP173=
CYUL;2005-11-20 15:00;METAR CYUL 201500Z 25005KT 30SM OVC030 04/01 A3004 RMK SC8 SLP173=
CYUL;2005-11-20 16:00;METAR CYUL 201600Z 24008KT 30SM OVC030 05/01 A3002 RMK SC8 SLP166=
CYUL;2005-11-20 17:00;METAR CYUL 201700Z 24011G16KT 15SM BKN060 BKN075 06/02 A3000 RMK SC5AC2 SLP159=
CYUL;2005-11-20 18:00;METAR CYUL 201800Z 24011KT 15SM OVC040 06/02 A2999 RMK SC8 SLP157=
CYUL;2005-11-20 21:00;METAR CYUL 202100Z 22004KT 12SM OVC040 06/03 A2997 RMK SC8 SLP151=
CYUL;2005-11-20 22:00;METAR CYUL 202200Z 22005KT 10SM OVC035 07/03 A2998 RMK SC8 SLP152=
CYUL;2005-11-20 23:00;METAR CYUL 202300Z 24007KT 10SM OVC045 07/03 A2998 RMK SC8 SLP153=
CYUL;2005-11-21 00:00;METAR CYUL 210000Z 23008KT 10SM OVC045 07/03 A2997 RMK SC8 SLP150=
CYUL;2005-11-21 01:00;METAR CYUL 210100Z 23006KT 10SM -RA FEW040 OVC055 07/04 A2995 RMK SC2SC6 SLP144=
CYUL;2005-11-21 02:00;METAR CYUL 210200Z 22007KT 10SM OVC055 07/04 A2995 RMK SC8 VIRGA SLP142=
CYUL;2005-11-21 02:28;SPECI CYUL 210228Z 23007KT 10SM -RA OVC040 07/ RMK SC8 -RA INTMT=
CYUL;2005-11-21 03:00;METAR CYUL 210300Z 23008KT 10SM BKN040 OVC060 07/03 A2993 RMK SC5SC3 SLP137=
CYUL;2005-11-21 03:14;SPECI CYUL 210314Z 23009KT 10SM -RA BKN040 OVC060 07/ RMK SC6SC2 -RA INTMT=
CYUL;2005-11-21 04:00;METAR CYUL 210400Z 25008KT 12SM BKN043 OVC060 07/03 A2992 RMK SC6SC2 SLP132=
CYUL;2005-11-21 04:37;SPECI CYUL 210437Z 23007KT 10SM -DZ BKN040 OVC060 07/ RMK SC6SC2=
CYUL;2005-11-21 05:00;METAR CYUL 210500Z 23007KT 10SM BKN042 OVC065 07/03 A2990 RMK SC6SC2 SLP128=
CYUL;2005-11-21 06:00;METAR CYUL 210600Z 22007KT 12SM BKN042 OVC065 07/04 A2988 RMK SC5SC3 SLP121=
CYUL;2005-11-21 08:00;METAR CYUL 210800Z 22007KT 12SM OVC052 07/04 A2985 RMK SC8 SLP109=
CYUL;2005-11-21 09:00;METAR CYUL 210900Z 23010KT 12SM OVC055 07/04 A2983 RMK SC8 SLP103=
CYUL;2005-11-21 10:00;METAR CYUL 211000Z 22011KT 12SM OVC051 07/04 A2982 RMK SC8 SLP098=
CYUL;2005-11-21 11:00;METAR CYUL 211100Z 22011KT 12SM OVC060 07/04 A2979 RMK SC8 SLP091=
CYUL;2005-11-21 12:00;METAR CYUL 211200Z 21010KT 10SM OVC060 07/04 A2978 RMK SC8 SLP087=
CYUL;2005-11-21 13:00;METAR CYUL 211300Z 20010KT 12SM OVC057 08/04 A2978 RMK SC8 SLP085=
CYUL;2005-11-21 14:00;METAR CYUL 211400Z 22011KT 15SM OVC050 08/03 A2976 RMK SC8 SLP080=
CYUL;2005-11-21 15:00;METAR CYUL 211500Z 22013KT 15SM BKN043 OVC060 08/03 A2975 RMK SC6SC2 SLP077=
CYUL;2005-11-21 16:00;METAR CYUL 211600Z 23017G22KT 200V260 12SM FEW032 BKN041 OVC056 08/03 A2974 RMK CF1SC7SC1 SLP074=
CYUL;2005-11-21 17:00;METAR CYUL 211700Z 23014G19KT 190V270 12SM FEW028 OVC042 08/03 A2972 RMK CF1SC8 SLP067=
CYUL;2005-11-21 18:00;METAR CYUL 211800Z 22012KT 190V250 12SM SCT022 BKN036 OVC046 08/03 A2972 RMK SC3SC4SC1 SLP065=
CYUL;2005-11-21 19:00;METAR CYUL 211900Z 24008KT 210V270 12SM FEW020 BKN028 OVC040 08/03 A2968 RMK SC2SC6SC1 SLP054=
CYUL;2005-11-21 21:00;METAR CYUL 212100Z 23007KT 10SM FEW036 OVC050 08/03 A2969 RMK SC2SC6 SLP056=
CYUL;2005-11-21 22:00;METAR CYUL 212200Z 26006KT 8SM OVC050 08/03 A2968 RMK SC8 SLP052=
CYUL;2005-11-21 23:00;METAR CYUL 212300Z 27002KT 7SM FEW040 BKN052 06/03 A2967 RMK SC2SC5 HZ SLP050=
CYUL;2005-11-22 00:00;METAR CYUL 220000Z 22002KT 7SM OVC054 06/02 A2967 RMK SC8 HZ SLP049=
CYUL;2005-11-22 01:00;METAR CYUL 220100Z 14004KT 6SM HZ OVC060 05/03 A2966 RMK SC7 SLP044=
CYUL;2005-11-22 02:00;METAR CYUL 220200Z 19005KT 6SM BR FEW038 SCT060 BKN085 OVC120 05/03 A2964 RMK SC1SC2AC2AS2 SLP040=
CYUL;2005-11-22 03:00;METAR CYUL 220300Z 20003KT 6SM BR SCT050 OVC120 05/03 A2960 RMK SC4AC3 SLP026=
CYUL;2005-11-22 04:00;METAR CYUL 220400Z 27003KT 6SM BR SCT080 BKN130 04/03 A2958 RMK AC3AC3 SLP019=
CYUL;2005-11-22 05:00;METAR CYUL 220500Z 32002KT 6SM BR BKN045 05/03 A2955 RMK SC7 SLP009=
CYUL;2005-11-22 06:00;METAR CYUL 220600Z 09002KT 6SM BR BKN044 05/04 A2954 RMK SC7 SLP003=
CYUL;2005-11-22 07:00;METAR CYUL 220700Z 00000KT 6SM BR BKN044 OVC070 05/04 A2952 RMK SC5AC2 SLP996=
CYUL;2005-11-22 08:00;METAR CYUL 220800Z 36004KT 6SM BR BKN070 OVC190 04/03 A2948 RMK AC6AC2 SLP985=
CYUL;2005-11-22 09:00;METAR CYUL 220900Z 03005KT 6SM BR FEW040 OVC070 04/02 A2945 RMK SC2AC6 SLP973=
CYUL;2005-11-22 10:00;METAR CYUL 221000Z 01008KT 2SM -RA BR OVC037 04/02 A2933 RMK SC8 SLP933=
CYUL;2005-11-22 11:00;METAR CYUL 221100Z 01006KT 6SM BR OVC040 04/02 A2942 RMK SC8 SLP963=
CYUL;2005-11-22 12:00;METAR CYUL 221200Z 01007KT 4SM -RA BR OVC043 04/02 A2939 RMK SC8 SLP955=
CYUL;2005-11-22 13:00;METAR CYUL 221300Z 03008KT 3SM BR OVC037 04/02 A2936 RMK SC8 SLP945=
CYUL;2005-11-22 13:16;SPECI CYUL 221316Z 02008KT 2 1/2SM BR OVC037 04/ RMK SC8=
CYUL;2005-11-22 13:53;SPECI CYUL 221353Z 01008KT 2 1/2SM -RA BR OVC037 04/ RMK SC8=
CYUL;2005-11-22 14:00;METAR CYUL 221400Z 01008KT 2SM -RA BR OVC037 04/02 A2933 RMK SC8 SLP933=
CYUL;2005-11-22 14:47;SPECI CYUL 221447Z 36009KT 2 1/2SM -RA BR SCT008 OVC030 04/ RMK SF4SC4=
CYUL;2005-11-22 14:52;SPECI CYUL 221452Z 36009KT 2 1/2SM -RA BR BKN008 OVC030 04/ RMK SF6SC2=
CYUL;2005-11-22 15:00;METAR CYUL 221500Z 36008KT 2 1/2SM -RA BR BKN008 OVC025 04/03 A2929 RMK SF6SC2 SLP920=
CYUL;2005-11-22 16:00;METAR CYUL 221600Z 36011KT 2 1/2SM -RA BR OVC008 04/03 A2925 RMK SF8 SLP906=
CYUL;2005-11-22 16:13;SPECI CYUL 221613Z 35012KT 3SM -RA BR OVC008 04/ RMK SF8=
CYUL;2005-11-22 16:45;SPECI CYUL 221645Z 35016KT 8SM -RA SCT008 OVC013 03/ RMK SF4SC4=
CYUL;2005-11-22 17:00;METAR CYUL 221700Z 36014KT 8SM -RA SCT008 OVC013 03/01 A2922 RMK SF3SC5 SLP896=
CYUL;2005-11-22 17:48;SPECI CYUL 221748Z 36017G22KT 7SM -RASN BKN014 OVC020 02/ RMK SC6SC2=
CYUL;2005-11-22 18:00;METAR CYUL 221800Z 36014G22KT 6SM -RASN SCT010 BKN018 OVC025 02/M01 A2920 RMK SF3SC3SC2 SLP889=
CYUL;2005-11-22 18:10;SPECI CYUL 221810Z 36016KT 3SM -SN BKN013 OVC020 01/ RMK SC5SC3=
CYUL;2005-11-22 18:23;SPECI CYUL 221823Z 36017G22KT 1 1/4SM -SN BKN012 OVC020 01/ RMK SN3SC4SC1=
CYUL;2005-11-22 19:27;SPECI CYUL 221927Z 34014G19KT 1 3/4SM -SN SCT009 BKN014 OVC020 00/ RMK SF3SC3SC2=
CYUL;2005-11-22 20:08;SPECI CYUL 222008Z 33013G18KT 1SM R06L/P6000FT/D R06R/P6000FT/D -SN BKN009 OVC013 M00/ RMK SN3SF3SC2=
CYUL;2005-11-22 20:20;SPECI CYUL 222020Z 33010G15KT 3/4SM R06L/P6000FT/D R06R/P6000FT/D -SN BKN008 OVC013 M00/ RMK SN4SF3SC1=
CYUL;2005-11-22 20:44;SPECI CYUL 222044Z 33011KT 1SM R06L/P6000FT/U R06R/P6000FT/U -SN BKN009 OVC013 M01/ RMK SN3SF3SC2=
CYUL;2005-11-22 21:10;SPECI CYUL 222110Z 32010G15KT 1 3/4SM -SN SCT008 BKN013 OVC025 M01/ RMK SN2SF2SC3SC1=
CYUL;2005-11-22 21:46;SPECI CYUL 222146Z 31010KT 1 1/4SM -SN BKN008 OVC014 M01/ RMK SN3SF3SC2=
CYUL;2005-11-22 22:15;SPECI CYUL 222215Z 32013KT 1 1/2SM -SN BKN009 OVC015 M01/ RMK SN3SF3SC2=
CYUL;2005-11-22 22:28;SPECI CYUL 222228Z 32011KT 2 1/2SM -SN SCT010 BKN015 OVC025 M01/ RMK SF3SC3SC2=
CYUL;2005-11-22 22:38;SPECI CYUL 222238Z 32013KT 3SM -SN FEW012 BKN020 OVC030 M01/ RMK SF2SC5SC2=
CYUL;2005-11-23 02:30;SPECI CYUL 230230Z 28015KT 10SM -SN BKN030 OVC060 M02/ RMK SC5SC3=
CYUL;2005-11-24 07:00;METAR CYUL 240700Z 12010KT 15SM FEW012 FEW240 M08/M11 A2946 RMK SF1CI1 SLP978=
CYUL;2005-11-24 09:00;METAR CYUL 240900Z 09008KT 15SM BKN018 OVC240 M07/M11 A2939 RMK SC7CI1 SLP955=
CYUL;2005-11-24 11:00;METAR CYUL 241100Z 09011KT 15SM FEW080 OVC140 M07/M12 A2935 RMK AC1AC7 SLP940=
CYUL;2005-11-24 11:55;SPECI CYUL 241155Z 09008G15KT 5SM -SN OVC030 M06/ RMK SC8=
CYUL;2005-11-24 12:00;METAR CYUL 241200Z 09011KT 1 3/4SM -SN OVC022 M06/M11 A2933 RMK SC8 SLP935=
CYUL;2005-11-24 12:41;SPECI CYUL 241241Z 08014KT 1 1/4SM -SN OVC022 M06/ RMK SC8=
CYUL;2005-11-24 13:00;METAR CYUL 241300Z 08014KT 1 1/4SM -SN OVC020 M07/M09 A2931 RMK SN2SC6 SLP927=
CYUL;2005-11-24 13:14;SPECI CYUL 241314Z 09013KT 1SM R06L/P6000FT/D R06R/P6000FT/D -SN OVC018 M07/ RMK SN2SC6=
CYUL;2005-11-24 14:00;METAR CYUL 241400Z 07011G17KT 3/4SM R06L/5000FT/N R06R/5500FT/D -SN OVC015 M06/M08 A2929 RMK SN4SC4 /S01/ SLP921=
CYUL;2005-11-24 15:00;METAR CYUL 241500Z 08010G15KT 1SM R06L/P6000FT/U R06R/P6000FT/N -SN OVC015 M05/M07 A2927 RMK SN2SC6 /S02/ SLP914=
CYUL;2005-11-24 15:05;SPECI CYUL 241505Z 08012G17KT 1 1/2SM -SN OVC015 M05/ RMK SC8=
CYUL;2005-11-24 15:13;SPECI CYUL 241513Z 07012G18KT 1SM R06L/P6000FT/D R06R/P6000FT/D -SN OVC015 M05/ RMK SN2SC6=
CYUL;2005-11-24 15:24;SPECI CYUL 241524Z 08010G18KT 3/4SM R06L/5500FT/N R06R/P6000FT/D -SN VV009 M05/ RMK SN8=
CYUL;2005-11-24 15:35;SPECI CYUL 241535Z 09010KT 1SM R06L/P6000FT/U R06R/P6000FT/U -SN VV009 M05/ RMK SN8=
CYUL;2005-11-24 16:00;METAR CYUL 241600Z 07014KT 1SM R06L/P6000FT/U R06R/P6000FT/N -SN DRSN VV010 M05/M07 A2925 RMK SN8 SLP906=
CYUL;2005-11-24 16:06;SPECI CYUL 241606Z 08011G18KT 1 3/4SM -SN DRSN BKN012 OVC020 M05/ RMK SN3SF3SC2=
CYUL;2005-11-24 16:13;SPECI CYUL 241613Z 07014KT 3SM -SN DRSN BKN012 OVC025 M05/ RMK SF6SC2=
CYUL;2005-11-24 16:25;SPECI CYUL 241625Z 07013KT 2SM -SN DRSN OVC013 M05/ RMK SN2SC6=
CYUL;2005-11-24 17:00;METAR CYUL 241700Z 08012G17KT 2SM -SN DRSN BKN012 OVC020 M04/M06 A2922 RMK SN3SC4SC1 SLP898=
CYUL;2005-11-24 17:48;SPECI CYUL 241748Z 07011KT 3/4SM -SN DRSN VV009 M04/ RMK SN8=
CYUL;2005-11-24 18:00;METAR CYUL 241800Z 08011G17KT 1SM R06L/P6000FT/U R06R/P6000FT/U -SN DRSN VV009 M04/M06 A2921 RMK SN8 SLP894=
CYUL;2005-11-24 18:09;SPECI CYUL 241809Z 07011KT 3/4SM R06L/4500VP6000FT/D R06R/P6000FT/D -SN DRSN VV007 M04/ RMK SN8=
CYUL;2005-11-24 18:20;SPECI CYUL 241820Z 07011KT 1/2SM R06L/4000FT/D R06R/3500V5000FT/D SN=
CYUL;2005-11-24 19:00;METAR CYUL 241900Z 07011KT 5/8SM R06L/2800V4000FT/U R06R/3000FT/U -SN VV005 M04/M05 A2920 RESN RMK SN8 /S02/ SLP890=
CYUL;2005-11-24 19:22;SPECI CYUL 241922Z 07008G15KT 3/4SM R06L/5000FT/N R06R/5000FT/U -SN=
CYUL;2005-11-24 19:36;SPECI CYUL 241936Z 08009KT 5/8SM R06L/3500V5000FT/D R06R/5000FT/D -SN=
CYUL;2005-11-24 20:00;METAR CYUL 242000Z 06007KT 3/4SM R06L/5500FT/U R06R/5000FT/U -SN VV008 M04/M05 A2920 RMK SN8 SLP889=
CYUL;2005-11-24 20:22;SPECI CYUL 242022Z 06009KT 1SM R06L/P6000FT/U R06R/P6000FT/U -SN VV010 M03/ RMK SN8=
CYUL;2005-11-24 20:35;SPECI CYUL 242035Z 05008KT 2SM -SN BKN014 OVC018 M03/ RMK SN2SC4SC2=
CYUL;2005-11-24 20:45;SPECI CYUL 242045Z 05008KT 3SM -SN SCT011 OVC016 M03/ RMK SF3SC5=
CYUL;2005-11-24 21:00;METAR CYUL 242100Z 05006KT 4SM -SN SCT010 OVC015 M03/M05 A2921 RMK SF3SC5 /S03/ SLP893=
CYUL;2005-11-24 21:26;SPECI CYUL 242126Z 04007KT 4SM -SN FEW010 OVC013 M03/ RMK SF2SC6=
CYUL;2005-11-24 21:45;SPECI CYUL 242145Z 05008KT 2 1/2SM -SN OVC012 M03/ RMK SN3SC5=
CYUL;2005-11-24 22:00;METAR CYUL 242200Z 05009KT 2SM -SN OVC014 M03/M05 A2923 RMK SN3SC5 SLP900=
CYUL;2005-11-24 22:07;SPECI CYUL 242207Z 05008KT 3SM -SN OVC012 M03/ RMK SN3SC5=
CYUL;2005-11-24 22:35;SPECI CYUL 242235Z 33004KT 1 3/4SM -SN VV009 M04/ RMK SN8=
CYUL;2005-11-24 22:42;SPECI CYUL 242242Z 36005KT 1SM R06L/P6000FT/D R06R/P6000FT/D -SN VV009 M04/ RMK SN8=
CYUL;2005-11-24 22:50;SPECI CYUL 242250Z 33004KT 1 1/2SM -SN BKN012 OVC017 M04/ RMK SN3SF4SC1=
CYUL;2005-11-24 23:00;METAR CYUL 242300Z 35005KT 3SM -SN BKN012 OVC020 M04/M06 A2927 RMK SN2SF6SC1 SLP914=
CYUL;2005-11-24 23:28;SPECI CYUL 242328Z 31005KT 2SM -SN BKN011 OVC018 M05/ RMK SN3SF4SC1=
CYUL;2005-11-25 00:00;METAR CYUL 250000Z 28007KT 1SM R24R/P6000FT/U R24L/P6000FT/D -SN VV009 M05/M06 A2933 RMK SN8 SLP933=
CYUL;2005-11-25 00:05;SPECI CYUL 250005Z 27009KT 2SM -SN BKN012 OVC018 M05/ RMK SN2SF5SC2=
CYUL;2005-11-25 00:18;SPECI CYUL 250018Z 26017G22KT 3SM -SN DRSN BKN010 OVC015 M04/ RMK SF6SC2=
CYUL;2005-11-25 00:48;SPECI CYUL 250048Z 26025G36KT 4SM -SN BLSN SCT012 BKN016 OVC020 M05/ RMK SF3SC3SC2 VIS VRBL 2-6=
CYUL;2005-11-25 01:32;SPECI CYUL 250132Z 26022G30KT 8SM DRSN FEW012 FEW020 OVC090 M06/ RMK SF1SC2AC6=
CYUL;2005-11-25 03:00;METAR CYUL 250300Z 25021KT 10SM DRSN FEW012 OVC150 M07/M12 A2945 RMK SF1AC7 SLP974=
CYUL;2005-11-25 04:00;METAR CYUL 250400Z 25022G28KT 12SM DRSN FEW015 OVC130 M08/M13 A2948 RMK SC1AC6 SLP985=
CYUL;2005-11-25 05:00;METAR CYUL 250500Z 25016G21KT 15SM DRSN FEW130 M09/M16 A2949 RMK AC2 SLP987=
CYUL;2005-11-25 06:00;METAR CYUL 250600Z 24017G24KT 15SM FEW015 M09/M15 A2952 RMK SC1 SLP000=
CYUL;2005-11-25 08:00;METAR CYUL 250800Z 25009KT 15SM FEW020 M09/M14 A2955 RMK SC2 SLP008=
CYUL;2005-11-25 09:00;METAR CYUL 250900Z 27006KT 15SM SCT035 M10/M15 A2958 RMK SC4 SLP018=
CYUL;2005-11-25 11:00;METAR CYUL 251100Z 26014KT 10SM BKN040 M09/M14 A2965 RMK SC6 SLP042=
CYUL;2005-11-25 13:06;SPECI CYUL 251306Z 25022KT 10SM -SHSN DRSN FEW035 OVC220 M11/ RMK SC1CI3=
CYUL;2005-11-25 14:00;METAR CYUL 251400Z 25021G29KT 6SM -SHSN BLSN FEW015 OVC220 M10/M14 A2981 RMK SC2CI3 SLP096=
CYUL;2005-11-25 14:47;SPECI CYUL 251447Z 25020G26KT 15SM DRSN FEW018 OVC220 M10/ RMK SC2CS2=
CYUL;2005-11-25 15:00;METAR CYUL 251500Z 24021G26KT 15SM DRSN FEW018 OVC210 M09/M14 A2985 RMK SC2CS2 CF ASOCT SLP111=
CYUL;2005-11-25 16:00;METAR CYUL 251600Z 25024G30KT 15SM DRSN FEW022 BKN210 BKN220 M08/M13 A2989 RMK SC2CI2CC1 CF ASOCT SLP125=
CYUL;2005-11-25 18:00;METAR CYUL 251800Z 25021G28KT 30SM DRSN FEW022 FEW240 M06/M12 A2995 RMK CF2CI1 SLP144=
CYUL;2005-11-25 19:00;METAR CYUL 251900Z 24021G26KT 30SM DRSN FEW020 FEW030 FEW240 M06/M12 A2998 RMK CF1SC1CI1 SLP154=
CYUL;2005-11-25 20:00;METAR CYUL 252000Z 26016G22KT 30SM DRSN FEW020 FEW220 M05/M12 A3002 RMK CF1CI1 SLP169=
CYUL;2005-11-25 21:00;METAR CYUL 252100Z 26012G19KT 30SM FEW025 FEW040 FEW240 M05/M12 A3006 RMK CF1SC1CI1 SLP181=
CYUL;2005-11-25 23:00;METAR CYUL 252300Z 27003KT 15SM FEW030 M07/M12 A3013 RMK SC1 SLP205=
CYUL;2005-11-26 00:00;METAR CYUL 260000Z 00000KT 15SM SKC M07/M12 A3015 RMK SLP212=
CYUL;2005-11-26 01:00;METAR CYUL 260100Z 18002KT 15SM SKC M07/M13 A3018 RMK SLP223=
CYUL;2005-11-26 03:00;METAR CYUL 260300Z 03002KT 15SM FEW030 M08/M12 A3022 RMK SC1 SLP236=
CYUL;2005-11-26 04:00;METAR CYUL 260400Z 02002KT 15SM FEW060 M11/M12 A3024 RMK SC1 SLP243=
CYUL;2005-11-26 05:00;METAR CYUL 260500Z 01002KT 15SM BKN200 M11/M13 A3025 RMK CI1 CC ASOCT SLP246=
CYUL;2005-11-26 06:00;METAR CYUL 260600Z 00000KT 15SM SKC M10/M11 A3027 RMK SLP252=
CYUL;2005-11-26 07:00;METAR CYUL 260700Z 03002KT 15SM FEW200 M11/M14 A3029 RMK CI1 SLP260=
CYUL;2005-11-26 08:00;METAR CYUL 260800Z 36002KT 15SM SCT160 M11/M13 A3030 RMK AC3 SLP262=
CYUL;2005-11-26 11:00;METAR CYUL 261100Z 36004KT 10SM BKN180 M11/M13 A3031 RMK AC6 FROIN SLP266=
CYUL;2005-11-26 12:00;METAR CYUL 261200Z 04003KT 6SM BR BKN170 OVC240 M08/M10 A3030 RMK AC7CI1 FROIN SLP264=
CYUL;2005-11-26 13:00;METAR CYUL 261300Z 35002KT 8SM FEW080 FEW140 OVC170 M09/M10 A3030 RMK AC1AC2AC5 SLP265=
CYUL;2005-11-26 14:00;METAR CYUL 261400Z 02005KT 7SM BKN055 OVC120 M08/M09 A3031 RMK SC5AS3 SLP266=
CYUL;2005-11-26 14:38;SPECI CYUL 261438Z 01007KT 7SM -SHSN BKN050 OVC090 M09/ RMK SC6AS2=
CYUL;2005-11-26 15:00;METAR CYUL 261500Z 01007KT 6SM -SHSN OVC046 M08/M10 A3031 RMK SC8 SLP268=
CYUL;2005-11-26 16:00;METAR CYUL 261600Z 01007KT 3SM -SN OVC028 M08/M09 A3030 RMK SC8 SLP265=
CYUL;2005-11-26 16:37;SPECI CYUL 261637Z 01006KT 2SM -SN OVC022 M07/ RMK SC8=
CYUL;2005-11-26 17:00;METAR CYUL 261700Z 02007KT 1 1/2SM -SN BR OVC017 M07/M09 A3029 RMK SC8 SLP261=
CYUL;2005-11-26 17:13;SPECI CYUL 261713Z 03006KT 1 1/2SM -SN BR OVC013 M07/ RMK SN3SC5=
CYUL;2005-11-26 18:00;METAR CYUL 261800Z 03005KT 1 1/2SM -SN BR OVC014 M06/M08 A3027 RMK SN2SC6 SLP255=
CYUL;2005-11-26 19:00;METAR CYUL 261900Z 03007KT 1 1/2SM -SN BR OVC015 M06/M07 A3026 RMK SN5SC3 SLP251=
CYUL;2005-11-26 20:00;METAR CYUL 262000Z 03008KT 1 3/4SM -SN BR BKN015 OVC030 M05/M07 A3027 RMK SN2SC5SC2 SLP252=
CYUL;2005-11-26 20:50;SPECI CYUL 262050Z 02007KT 1 1/4SM -SN BR BKN012 OVC030 M05/ RMK SN3SC4SC1=
CYUL;2005-11-26 21:00;METAR CYUL 262100Z 03008KT 1 1/2SM -SN BR BKN014 OVC020 M05/M07 A3026 RMK SN2SC6SC1 SLP250=
CYUL;2005-11-26 21:43;SPECI CYUL 262143Z 01008KT 3SM -SN BR BKN013 OVC030 M06/ RMK SN2SC6SC1=
CYUL;2005-11-26 22:00;METAR CYUL 262200Z 02008KT 4SM -SN BKN013 BKN020 OVC035 M06/M07 A3028 RMK SF5SC2SC1 SLP257=
CYUL;2005-11-26 22:26;SPECI CYUL 262226Z 03008KT 4SM -SN BKN017 OVC030 M06/ RMK SC6SC2=
CYUL;2005-11-26 23:00;METAR CYUL 262300Z 02009KT 4SM -SN BKN015 OVC025 M06/M08 A3028 RMK SC6SC2 SLP257=
CYUL;2005-11-27 00:00;METAR CYUL 270000Z 01008KT 4SM -SN BKN016 OVC030 M06/M08 A3029 RMK SC6SC2 SLP261=
CYUL;2005-11-27 01:00;METAR CYUL 270100Z 01007KT 4SM -SN SCT016 BKN030 OVC040 M06/M08 A3031 RMK SC3SC3SC2 SLP266=
CYUL;2005-11-27 01:49;SPECI CYUL 270149Z 01007KT 4SM -SN FEW004 SCT030 OVC055 M06/ RMK ST2SC2SC4=
CYUL;2005-11-27 04:00;METAR CYUL 270400Z 02006KT 4SM -SN BR BKN009 OVC030 M07/M08 A3033 RMK ST6SC2 SLP275=
CYUL;2005-11-27 05:00;METAR CYUL 270500Z 01005KT 4SM BR OVC009 M06/M07 A3034 RMK ST8 SLP278=
CYUL;2005-11-27 06:00;METAR CYUL 270600Z 03005KT 4SM BR OVC012 M06/M07 A3035 RMK ST8 SLP282=
CYUL;2005-11-27 07:00;METAR CYUL 270700Z 03005KT 4SM BR FEW008 OVC015 M05/M07 A3036 RMK ST2SC6 SLP285=
CYUL;2005-11-27 08:35;SPECI CYUL 270835Z 04007KT 4SM BR OVC005 M05/ RMK ST8=
CYUL;2005-11-27 09:00;METAR CYUL 270900Z 05005KT 4SM BR OVC005 M05/M07 A3039 RMK ST8 SLP295=
CYUL;2005-11-27 10:00;METAR CYUL 271000Z 04006KT 4SM BR OVC005 M05/M06 A3039 RMK ST8 SLP294=
CYUL;2005-11-27 11:00;METAR CYUL 271100Z 07009KT 4SM BR OVC005 M06/M07 A3040 RMK ST8 SLP299=
CYUL;2005-11-27 12:00;METAR CYUL 271200Z 05009KT 3SM BR OVC004 M06/M07 A3042 RMK ST8 SLP303=
CYUL;2005-11-27 12:16;SPECI CYUL 271216Z 04010KT 2 1/4SM BR OVC004 M06/ RMK ST8=
CYUL;2005-11-27 13:00;METAR CYUL 271300Z 06009KT 3SM BR OVC004 M06/M07 A3042 RMK ST8 SLP304=
CYUL;2005-11-27 14:28;SPECI CYUL 271428Z 06008KT 5SM BR OVC005 M05/ RMK ST8=
CYUL;2005-11-27 15:00;METAR CYUL 271500Z 05009KT 4SM BR OVC006 M05/M06 A3043 RMK ST8 SLP307=
CYUL;2005-11-27 16:00;METAR CYUL 271600Z 04009KT 6SM BR BKN009 M05/M06 A3042 RMK ST6 SLP303=
CYUL;2005-11-27 16:14;SPECI CYUL 271614Z 04010KT 6SM BR SCT006 BKN011 M04/ RMK SF3SF1=
CYUL;2005-11-27 17:00;METAR CYUL 271700Z 04011KT 8SM FEW008 BKN240 M04/M06 A3040 RMK SF2CI1 SLP296=
CYUL;2005-11-27 18:00;METAR CYUL 271800Z 04012KT 8SM FEW009 SCT240 M03/M05 A3037 RMK SF1CI0 SLP288=
CYUL;2005-11-27 19:00;METAR CYUL 271900Z 04010KT 8SM SCT240 M03/M05 A3036 RMK CI1 SLP284=
CYUL;2005-11-27 20:00;METAR CYUL 272000Z 05011KT 8SM FEW060 SCT240 M02/M05 A3034 RMK SC2CI0 SLP278=
CYUL;2005-11-27 21:00;METAR CYUL 272100Z 04009KT 8SM SCT060 OVC075 M02/M05 A3034 RMK SC3AC5 SLP278=
CYUL;2005-11-27 22:00;METAR CYUL 272200Z 04011KT 6SM HZ OVC052 M02/M05 A3034 RMK SC8 SLP277=
CYUL;2005-11-27 23:00;METAR CYUL 272300Z 04013KT 6SM HZ OVC049 M02/M05 A3032 RMK SC8 SLP272=
CYUL;2005-11-28 00:00;METAR CYUL 280000Z 03010KT 6SM HZ OVC040 M02/M05 A3032 RMK SC8 SLP271=
CYUL;2005-11-28 01:00;METAR CYUL 280100Z 03010KT 6SM HZ OVC053 M02/M05 A3031 RMK SC8 SLP266=
CYUL;2005-11-28 02:00;METAR CYUL 280200Z 02010G15KT 6SM HZ OVC050 M03/M05 A3030 RMK SC8 SLP265=
CYUL;2005-11-28 03:00;METAR CYUL 280300Z 03009KT 4SM -FZRA BR OVC050 M03/M05 A3031 RMK SC8 SLP265=
CYUL;2005-11-28 04:00;METAR CYUL 280400Z 03009KT 3SM -FZRA BR OVC035 M02/M03 A3032 RMK SC8 SLP269=
CYUL;2005-11-28 05:00;METAR CYUL 280500Z 03008KT 3SM -FZRA BR OVC040 M02/M03 A3030 RMK SC8 SLP264=
CYUL;2005-11-28 05:34;SPECI CYUL 280534Z 03008KT 3SM -FZRA BR BKN010 OVC040 M01/ RMK ST6SC2=
CYUL;2005-11-28 06:00;METAR CYUL 280600Z 04009KT 3SM -FZRA BR OVC008 M02/M02 A3029 RMK ST8 SLP258=
CYUL;2005-11-28 07:00;METAR CYUL 280700Z 04010KT 3SM -FZRA BR OVC006 M02/M02 A3027 RMK ST8 SLP252=
CYUL;2005-11-28 07:46;SPECI CYUL 280746Z 02007KT 4SM BR SCT006 OVC110 M02/ REFZRA RMK ST3AC5=
CYUL;2005-11-28 08:00;METAR CYUL 280800Z 03007KT 4SM BR FEW006 OVC110 M02/M02 A3028 REFZRA RMK SF2AC6 SLP256=
CYUL;2005-11-28 09:00;METAR CYUL 280900Z 03007KT 4SM BR FEW006 OVC120 M01/M02 A3027 RMK SF1AS6 SLP253=
CYUL;2005-11-28 09:41;SPECI CYUL 280941Z 03006KT 4SM -FZRA BR BKN070 OVC090 M01/ RMK AC7AS1=
CYUL;2005-11-28 10:00;METAR CYUL 281000Z 03007KT 4SM -FZRA BR OVC075 M01/M01 A3026 RMK AC8 SLP248=
CYUL;2005-11-28 11:00;METAR CYUL 281100Z 03008KT 3SM -FZRA BR OVC070 M01/M01 A3025 RMK AC8 SLP247=
CYUL;2005-11-28 12:51;SPECI CYUL 281251Z 03006KT 1 1/4SM -DZ BR BKN008 OVC028 00/ REFZDZ RMK ST6SC2=
CYUL;2005-11-28 13:00;METAR CYUL 281300Z 03006KT 1 1/4SM -RA BR BKN008 OVC028 00/M00 A3027 REFZDZ RMK ST6SC2 SLP251=
CYUL;2005-11-28 13:19;SPECI CYUL 281319Z 03005KT 1 1/2SM -DZ BR SCT007 OVC025 01/ RMK ST3SC5=
CYUL;2005-11-28 13:35;SPECI CYUL 281335Z 36005KT 1 1/2SM -DZ BR BKN005 OVC020 01/ RMK ST6SC2=
CYUL;2005-11-28 13:52;SPECI CYUL 281352Z 01005KT 1 1/4SM -DZ BR BKN004 OVC018 01/ RMK ST6SC2=
CYUL;2005-11-28 14:27;SPECI CYUL 281427Z 04005KT 1 1/4SM BR SCT003 OVC020 01/ RMK ST4SC4=
CYUL;2005-11-28 15:00;METAR CYUL 281500Z 04005KT 1 1/4SM BR FEW005 OVC026 02/01 A3025 RMK ST2SC6 SLP245=
CYUL;2005-11-28 16:00;METAR CYUL 281600Z 02005KT 1 1/4SM BR SCT005 OVC027 01/00 A3024 RMK ST4SC4 SLP241=
CYUL;2005-11-28 17:00;METAR CYUL 281700Z 04008KT 1SM R06L/6000FT/N R06R/6000FT/N BR SCT007 OVC032 01/01 A3022 RMK ST4SC4 SLP235=
CYUL;2005-11-28 18:00;METAR CYUL 281800Z 02007KT 1 1/4SM BR SCT030 OVC055 01/00 A3020 RMK SC4SC4 SLP229=
CYUL;2005-11-28 19:00;METAR CYUL 281900Z 04009KT 1 1/4SM BR FEW030 BKN070 OVC150 02/02 A3017 RMK SC2AC5AC1 SLP219=
CYUL;2005-11-28 20:00;METAR CYUL 282000Z 03008KT 1 1/4SM BR OVC050 02/02 A3017 RMK SC8 SLP219=
CYUL;2005-11-28 21:00;METAR CYUL 282100Z 03009KT 1 1/4SM BR OVC050 02/01 A3016 RMK SC8 SLP215=
CYUL;2005-11-28 21:47;SPECI CYUL 282147Z 03008KT 1 3/4SM BR BKN065 02/ RMK SC4=
CYUL;2005-11-28 22:00;METAR CYUL 282200Z 02006KT 2 1/2SM BR SCT055 BKN070 02/01 A3016 RMK SC3AC2 SLP216=
CYUL;2005-11-28 22:43;SPECI CYUL 282243Z 04006KT 4SM BR BKN080 02/ RMK AC6=
CYUL;2005-11-28 23:00;METAR CYUL 282300Z 04007KT 6SM BR BKN090 02/02 A3015 RMK AC6 SLP211=
CYUL;2005-11-29 00:00;METAR CYUL 290000Z 03004KT 6SM BR SCT070 BKN090 05/04 A3014 RMK AC3AC4 SLP210=
CYUL;2005-11-29 01:00;METAR CYUL 290100Z 12004KT 8SM SCT090 BKN130 08/08 A3012 RMK AC3AC4 SLP203=
CYUL;2005-11-29 04:00;METAR CYUL 290400Z 13012KT 8SM OVC100 10/09 A3008 RMK AC8 SLP186=
CYUL;2005-11-29 05:00;METAR CYUL 290500Z 14014KT 10SM SCT100 OVC150 11/09 A3006 RMK AC4AC4 SLP180=
CYUL;2005-11-29 05:21;SPECI CYUL 290521Z 13014G19KT 10SM -SHRA FEW100 BKN150 11/ RMK AC2AC4=
CYUL;2005-11-29 05:50;SPECI CYUL 290550Z 12014G19KT 10SM FEW100 BKN150 11/ RMK AC2AC3=
CYUL;2005-11-29 06:00;METAR CYUL 290600Z 13015KT 10SM SCT110 BKN150 11/09 A3002 RMK AC3AC2 SLP168=
CYUL;2005-11-29 07:00;METAR CYUL 290700Z 13014G20KT 10SM FEW110 FEW150 BKN210 11/10 A3002 RMK AC1AC1CI2 SLP167=
CYUL;2005-11-29 08:00;METAR CYUL 290800Z 13013G18KT 10SM BKN095 12/10 A2999 RMK AC7 SLP156=
CYUL;2005-11-29 09:00;METAR CYUL 290900Z 13015G21KT 12SM BKN110 12/10 A2998 RMK AC7 SLP153=
CYUL;2005-11-29 10:00;METAR CYUL 291000Z 14015KT 12SM BKN110 13/10 A2998 RMK AC7 SLP153=
CYUL;2005-11-29 11:00;METAR CYUL 291100Z 14019G24KT 12SM BKN110 13/10 A2998 RMK AC6 SLP152=
CYUL;2005-11-29 12:00;METAR CYUL 291200Z 14017KT 12SM OVC090 13/10 A2998 RMK AC8 SLP154=
CYUL;2005-11-29 12:08;SPECI CYUL 291208Z 14017KT 10SM -SHRA OVC100 13/ RMK AC8=
CYUL;2005-11-29 13:00;METAR CYUL 291300Z 14016KT 30SM -RA FEW075 OVC100 13/10 A2995 RMK AC2AC6 SLP145=
CYUL;2005-11-29 14:00;METAR CYUL 291400Z 14015KT 30SM -RA FEW065 OVC100 13/11 A2993 RMK SC2AC6 SLP138=
CYUL;2005-11-29 15:00;METAR CYUL 291500Z 14013KT 8SM -RA SCT050 OVC090 14/11 A2990 RMK SC4AC4 SLP128=
CYUL;2005-11-29 16:00;METAR CYUL 291600Z 15009KT 12SM -RA SCT060 OVC110 14/12 A2989 RMK SC3AC5 SLP124=
CYUL;2005-11-29 16:35;SPECI CYUL 291635Z 15018KT 15SM FEW060 OVC120 15/ RMK SC2AC6=
CYUL;2005-11-29 17:00;METAR CYUL 291700Z 14019G24KT 30SM FEW090 OVC130 15/12 A2986 RMK AC2AC6 SLP113=
CYUL;2005-11-29 17:19;SPECI CYUL 291719Z 14018G24KT 30SM -SHRA FEW090 BKN140 16/ RMK AC2AC5=
CYUL;2005-11-29 17:49;SPECI CYUL 291749Z 13017KT 30SM BKN150 BKN180 17/ RMK AC5AC2=
CYUL;2005-11-29 18:00;METAR CYUL 291800Z 14018G25KT 30SM BKN120 BKN180 17/13 A2984 RMK AC5AC2 SLP104=
CYUL;2005-11-29 19:00;METAR CYUL 291900Z 15018KT 30SM BKN060 OVC130 17/13 A2983 RMK SC5AC3 SLP102=
CYUL;2005-11-29 20:00;METAR CYUL 292000Z 14018G24KT 15SM OVC060 17/12 A2982 RMK SC8 SLP098=
CYUL;2005-11-29 20:45;SPECI CYUL 292045Z 15017KT 12SM -SHRA OVC055 17/ RMK SC8=
CYUL;2005-11-29 21:00;METAR CYUL 292100Z 15018G26KT 12SM -SHRA OVC055 16/12 A2983 RMK SC8 SLP101=
CYUL;2005-11-29 22:00;METAR CYUL 292200Z 15017G22KT 10SM -RA BKN065 OVC110 16/13 A2982 RMK SC6AC2 SLP097=
CYUL;2005-11-29 23:00;METAR CYUL 292300Z 16016G21KT 10SM -RA SCT060 OVC090 15/12 A2979 RMK SC4AC4 SLP090=
CYUL;2005-11-30 00:00;METAR CYUL 300000Z 16018G25KT 8SM -RA BKN060 OVC090 15/12 A2979 RMK SC6AC2 SLP088=
CYUL;2005-11-30 00:49;SPECI CYUL 300049Z 16017G25KT 12SM SCT060 OVC090 15/ RMK SC4AC4=
CYUL;2005-11-30 01:00;METAR CYUL 300100Z 16019G25KT 10SM -SHRA BKN060 OVC090 16/12 A2975 RMK SC6AC2 SLP076=
CYUL;2005-11-30 02:00;METAR CYUL 300200Z 16019KT 12SM BKN055 OVC090 15/12 A2973 RMK SC6AC2 SLP068=
CYUL;2005-11-30 02:14;SPECI CYUL 300214Z 16019G24KT 12SM -SHRA OVC050 16/ RMK SC8=
CYUL;2005-11-30 02:43;SPECI CYUL 300243Z 25018G24KT 6SM -RA BR BKN009 OVC020 13/ RMK SF5SC3=
CYUL;2005-11-30 03:00;METAR CYUL 300300Z 26017KT 6SM -RA BR SCT008 OVC025 13/12 A2979 RMK SF4SC4 PRESRR SLP088=
CYUL;2005-11-30 03:23;SPECI CYUL 300323Z 23010G15KT 5SM -RA BR FEW007 BKN011 OVC020 12/ RMK SF2SF4SC2=
CYUL;2005-11-30 03:36;SPECI CYUL 300336Z 20009KT 4SM -RA BR BKN005 OVC015 11/ RMK SF6SC2=
CYUL;2005-11-30 04:00;METAR CYUL 300400Z 21011KT 4SM -RA BR FEW007 BKN025 OVC050 10/09 A2982 RMK SF2SC3SC2 SLP099=
CYUL;2005-11-30 05:00;METAR CYUL 300500Z 20008KT 6SM -RA BR FEW010 OVC055 09/09 A2981 RMK SF1SC7 SLP096=
CYUL;2005-11-30 06:00;METAR CYUL 300600Z 17005KT 5SM -RA BR FEW010 OVC040 10/09 A2983 RMK SF1SC7 /R10/ SLP101=
CYUL;2005-11-30 07:00;METAR CYUL 300700Z 16005KT 8SM -RA SCT010 OVC028 10/10 A2982 RMK SF3SC5 SLP099=
CYUL;2005-11-30 07:35;SPECI CYUL 300735Z 14008KT 10SM FEW012 OVC028 10/ RMK SF2SC6=
CYUL;2005-11-30 07:45;SPECI CYUL 300745Z 18006KT 10SM -RA FEW012 OVC030 10/ RMK SF2SC6=
CYUL;2005-11-30 09:40;SPECI CYUL 300940Z 22007KT 10SM FEW008 BKN014 OVC020 09/ RMK SF2SC6SC1=
CYUL;2005-11-30 10:00;METAR CYUL 301000Z 23005KT 10SM FEW010 BKN040 OVC060 09/08 A2987 RMK SF2SC4SC2 SLP116=
CYUL;2005-11-30 10:11;SPECI CYUL 301011Z 25007KT 10SM BKN009 BKN020 OVC040 09/ RMK SF5SC2SC1=
CYUL;2005-11-30 11:18;SPECI CYUL 301118Z 24011KT 10SM FEW010 BKN018 OVC030 08/ RMK SF2SC6SC1=
CYUL;2005-11-30 12:00;METAR CYUL 301200Z 25011G16KT 10SM FEW015 BKN024 BKN065 08/07 A2989 RMK SC1SC4SC2 SLP123=
CYUL;2005-11-30 13:00;METAR CYUL 301300Z 25010KT 10SM FEW015 FEW030 BKN065 08/05 A2992 RMK SC1SC2SC4 SLP132=
CYUL;2005-11-30 14:00;METAR CYUL 301400Z 25013G18KT 15SM FEW030 SCT065 SCT090 07/03 A2994 RMK SC1SC2AC1 SLP138=
CYUL;2005-11-30 15:00;METAR CYUL 301500Z 26013G19KT 15SM FEW030 BKN060 BKN090 07/02 A2995 RMK SC1SC5AC0 SLP142=
CYUL;2005-11-30 16:00;METAR CYUL 301600Z 26012KT 15SM FEW030 BKN065 BKN150 07/02 A2993 RMK SC1SC6AC1 SLP137=
CYUL;2005-11-30 17:00;METAR CYUL 301700Z 25013G18KT 15SM OVC070 08/01 A2993 RMK AC8 SLP136=
CYUL;2005-11-30 18:00;METAR CYUL 301800Z 25015KT 15SM OVC070 07/01 A2992 RMK AC8 SLP135=
CYUL;2005-11-30 19:00;METAR CYUL 301900Z 25012KT 15SM OVC065 07/01 A2993 RMK SC8 SLP138=
CYUL;2005-11-30 20:00;METAR CYUL 302000Z 25010G15KT 15SM BKN065 OVC080 06/01 A2995 RMK SC6AC2 SLP143=
CYUL;2005-11-30 21:00;METAR CYUL 302100Z 22010KT 15SM FEW025 OVC070 06/02 A2996 RMK SC2AC6 SLP146=
CYUL;2005-11-30 22:00;METAR CYUL 302200Z 22008KT 10SM OVC065 06/01 A2998 RMK SC8 SLP153=
CYUL;2005-11-30 23:00;METAR CYUL 302300Z 24014KT 15SM OVC065 05/00 A3000 RMK SC8 SLP160=
CYUL;2005-12-01 00:00;METAR CYUL 010000Z 24011G17KT 15SM OVC065 05/00 A3001 RMK SC8 SLP164=
CYUL;2005-12-01 01:00;METAR CYUL 010100Z 25013KT 15SM OVC065 05/00 A3002 RMK SC8 SLP167=
CYUL;2005-12-01 02:00;METAR CYUL 010200Z 25011KT 15SM SCT040 OVC065 04/00 A3003 RMK SC3SC5 SLP170=
CYUL;2005-12-01 03:00;METAR CYUL 010300Z 25012KT 15SM OVC030 04/M00 A3003 RMK SC8 SLP172=
CYUL;2005-12-01 04:00;METAR CYUL 010400Z 25012KT 15SM OVC025 04/M00 A3004 RMK SC8 SLP174=
CYUL;2005-12-01 05:00;METAR CYUL 010500Z 25011KT 15SM BKN025 OVC050 04/M00 A3003 RMK SC6SC2 SLP172=
CYUL;2005-12-01 06:00;METAR CYUL 010600Z 25009KT 15SM BKN024 BKN050 03/00 A3005 RMK SC6SC2 SLP176=
CYUL;2005-12-01 07:00;METAR CYUL 010700Z 25007KT 15SM OVC024 03/M00 A3006 RMK SC8 SLP181=
CYUL;2005-12-01 08:00;METAR CYUL 010800Z 25008KT 15SM OVC025 03/M00 A3007 RMK SC8 SLP185=
CYUL;2005-12-01 09:00;METAR CYUL 010900Z 26007KT 15SM BKN027 03/M00 A3006 RMK SC7 SLP181=
CYUL;2005-12-01 11:00;METAR CYUL 011100Z 25006KT 15SM BKN026 02/M00 A3007 RMK SC5 SLP185=
CYUL;2005-12-01 12:00;METAR CYUL 011200Z 24004KT 15SM FEW025 FEW210 01/M01 A3007 RMK SC2CI1 SLP185=
CYUL;2005-12-01 13:00;METAR CYUL 011300Z 25002KT 12SM FEW020 FEW210 00/M01 A3006 RMK SC2CI1 SLP180=
CYUL;2005-12-01 14:00;METAR CYUL 011400Z 00000KT 12SM FEW020 FEW210 02/00 A3005 RMK SC2CI1 SLP177=
CYUL;2005-12-01 15:00;METAR CYUL 011500Z 00000KT 15SM OVC035 03/M01 A3004 RMK SC8 SLP173=
CYUL;2005-12-01 16:00;METAR CYUL 011600Z 00000KT 15SM FEW025 OVC030 04/M00 A3000 RMK CF2SC6 SLP160=
CYUL;2005-12-01 17:00;METAR CYUL 011700Z 02006KT 15SM BKN025 OVC030 04/M01 A2996 RMK SC6SC2 SLP148=
CYUL;2005-12-01 18:00;METAR CYUL 011800Z 02006KT 15SM OVC030 04/M01 A2993 RMK SC8 SLP136=
CYUL;2005-12-01 19:00;METAR CYUL 011900Z 04006KT 15SM OVC028 04/M02 A2989 RMK SC8 SLP122=
CYUL;2005-12-01 20:00;METAR CYUL 012000Z 05010KT 15SM OVC028 04/M02 A2986 RMK SC8 SLP114=
CYUL;2005-12-01 21:00;METAR CYUL 012100Z 05010KT 15SM OVC027 04/M02 A2984 RMK SC8 SLP106=
CYUL;2005-12-01 22:00;METAR CYUL 012200Z 05009KT 15SM OVC030 04/M02 A2982 RMK SC8 SLP099=
CYUL;2005-12-01 23:00;METAR CYUL 012300Z 05007KT 15SM OVC032 04/M01 A2979 RMK SC8 SLP088=
CYUL;2005-12-02 00:00;METAR CYUL 020000Z 02005KT 15SM FEW022 OVC032 03/M01 A2976 RMK SC1SC7 SLP078=
CYUL;2005-12-02 01:00;METAR CYUL 020100Z 02007KT 15SM OVC030 03/M00 A2972 RMK SC8 SLP066=
CYUL;2005-12-02 03:00;METAR CYUL 020300Z 03008KT 15SM OVC035 03/M00 A2963 RMK SC8 SLP034=
CYUL;2005-12-02 04:00;METAR CYUL 020400Z 05011KT 15SM OVC020 03/00 A2959 RMK SC8 SLP022=
CYUL;2005-12-02 04:50;SPECI CYUL 020450Z 05008KT 15SM -SHSN BKN018 OVC025 03/ RMK SC6SC2=
CYUL;2005-12-02 05:00;METAR CYUL 020500Z 05007KT 15SM -SHSN BKN020 OVC030 03/00 A2956 RMK SC7SC1 SLP011=
CYUL;2005-12-02 06:00;METAR CYUL 020600Z 05008KT 5SM -SHSN OVC014 03/01 A2952 RMK SC8 SLP000=
CYUL;2005-12-02 08:40;SPECI CYUL 020840Z 02006KT 5SM -SN OVC009 02/ RMK SC8=
CYUL;2005-12-02 09:00;METAR CYUL 020900Z 04007KT 5SM -RASN OVC008 02/00 A2943 RMK SF8 SLP969=
CYUL;2005-12-02 09:45;SPECI CYUL 020945Z 04008KT 5SM -SN OVC010 02/ RMK SC8=
CYUL;2005-12-02 10:00;METAR CYUL 021000Z 03007KT 5SM -SN OVC009 02/00 A2941 RMK SC8 SLP960=
CYUL;2005-12-02 11:00;METAR CYUL 021100Z 01005KT 5SM -RASN OVC009 01/00 A2938 RMK SF8 SLP952=
CYUL;2005-12-02 12:00;METAR CYUL 021200Z 33004KT 3SM -DZSN BR OVC005 01/00 A2936 RMK SF8 SLP945=
CYUL;2005-12-02 12:10;SPECI CYUL 021210Z 34005KT 2 1/2SM -DZSN BR OVC005 01/ RMK SF8=
CYUL;2005-12-02 12:25;SPECI CYUL 021225Z 31003KT 1 1/4SM -DZSN BR OVC005 00/ RMK SF8=
CYUL;2005-12-02 12:40;SPECI CYUL 021240Z 25003KT 1SM R06L/P6000FT/D R24L/P6000FT/D -SN BR OVC005 00/ RMK SF8=
CYUL;2005-12-02 13:00;METAR CYUL 021300Z 26004KT 1 1/4SM -SN BR OVC004 00/M00 A2936 RMK SF8 SLP943=
CYUL;2005-12-02 13:11;SPECI CYUL 021311Z 28004KT 1 1/2SM -SN BR BKN006 OVC012 00/ RMK SF6SC2=
CYUL;2005-12-02 13:40;SPECI CYUL 021340Z 28005KT 1 1/2SM -SN BR BKN004 OVC010 00/ RMK SN2SF5SC2=
CYUL;2005-12-02 14:00;METAR CYUL 021400Z 27006KT 3SM -SN BR BKN005 OVC010 01/M00 A2934 RMK SN2SF5SC2 SLP936=
CYUL;2005-12-02 14:13;SPECI CYUL 021413Z 27007KT 1 1/4SM -SN BR VV004 01/ RMK SN8=
CYUL;2005-12-02 14:35;SPECI CYUL 021435Z 27007KT 3SM -SN BR OVC004 01/ RMK SN2SF6=
CYUL;2005-12-02 15:00;METAR CYUL 021500Z 26007KT 5SM -SN BR BKN004 OVC020 01/00 A2932 RMK SF6SC2 SLP929=
CYUL;2005-12-02 15:40;SPECI CYUL 021540Z 27009KT 8SM -RA BKN006 OVC015 01/ RMK SF6SC2=
CYUL;2005-12-02 16:00;METAR CYUL 021600Z 24008KT 6SM -SN OVC005 01/01 A2930 RMK ST8 -SN INTMT SLP922=
CYUL;2005-12-02 17:00;METAR CYUL 021700Z 26009KT 3SM -SN BR OVC005 01/01 A2927 RMK ST8 SLP914=
CYUL;2005-12-02 18:00;METAR CYUL 021800Z 27014KT 7SM -SN BKN006 OVC025 02/00 A2927 RMK SF6SC2 SLP912=
CYUL;2005-12-02 18:31;SPECI CYUL 021831Z 26020G25KT 15SM -SN SCT010 OVC045 01/ RMK SF3SC5=
CYUL;2005-12-02 19:00;METAR CYUL 021900Z 26016KT 15SM -SHSN SCT020 OVC230 02/M02 A2928 RMK SC3CS5 SLP915=
CYUL;2005-12-02 20:00;METAR CYUL 022000Z 27016G25KT 3SM -SHSN SCT016 OVC030 M00/M02 A2930 RMK SF4SC4 SLP922=
CYUL;2005-12-02 20:06;SPECI CYUL 022006Z 26018KT 2 1/2SM -SHSN BKN013 OVC030 M00/ RMK SF5SC3=
CYUL;2005-12-02 20:34;SPECI CYUL 022034Z 26016G24KT 4SM -SHSN SCT015 OVC035 M00/ RMK SF4SC4=
CYUL;2005-12-02 20:42;SPECI CYUL 022042Z 27019G24KT 2 1/4SM -SHSN BKN013 OVC035 M01/ RMK SF7SC1=
CYUL;2005-12-02 20:47;SPECI CYUL 022047Z 26018G24KT 1 1/4SM -SHSN OVC012 M01/ RMK SF8=
CYUL;2005-12-02 20:53;SPECI CYUL 022053Z 26016G22KT 3SM -SN BKN010 OVC022 M01/ RMK SF5SC3=
CYUL;2005-12-02 21:00;METAR CYUL 022100Z 26016G22KT 2 1/2SM -SN BKN012 OVC030 M01/M02 A2931 RMK SF6SC2 SLP927=
CYUL;2005-12-02 21:27;SPECI CYUL 022127Z 27016G22KT 3SM -SN BKN012 OVC030 M01/ RMK SF6SC2=
CYUL;2005-12-02 22:00;METAR CYUL 022200Z 26019G29KT 4SM -SN BKN017 OVC060 M01/M04 A2933 RMK SC6SC2 SLP934=
CYUL;2005-12-02 23:00;METAR CYUL 022300Z 27021G30KT 3SM -SN BKN015 OVC025 M02/M04 A2935 RMK SF6SC2 SLP941=
CYUL;2005-12-02 23:18;SPECI CYUL 022318Z 27020G30KT 3SM -SN BKN013 OVC025 M02/ RMK SF7SC1=
CYUL;2005-12-03 00:00;METAR CYUL 030000Z 26025G33KT 6SM -SN BKN016 OVC040 M02/M05 A2938 RMK SF5SC3 SLP952=
CYUL;2005-12-03 01:00;METAR CYUL 030100Z 27024G34KT 7SM -SN BKN015 OVC045 M03/M06 A2942 RMK SF7SC1 SLP965=
CYUL;2005-12-03 02:00;METAR CYUL 030200Z 26021G29KT 8SM -SN BKN015 OVC030 M04/M07 A2946 RMK SC6SC2 SLP977=
CYUL;2005-12-03 03:00;METAR CYUL 030300Z 26020G31KT 12SM SCT020 OVC060 M04/M09 A2950 RMK SC4SC4 SLP990=
CYUL;2005-12-03 03:22;SPECI CYUL 030322Z 27025G34KT 10SM -SHSN BKN020 OVC050 M04/ RMK SC5SC3=
CYUL;2005-12-03 04:00;METAR CYUL 030400Z 26018G32KT 10SM -SHSN BKN021 OVC040 M05/M09 A2953 RMK SC6SC2 SLP001=
CYUL;2005-12-03 05:00;METAR CYUL 030500Z 26021G27KT 8SM -SHSN BKN020 OVC060 M05/M09 A2955 RMK SC6SC2 SLP010=
CYUL;2005-12-03 06:00;METAR CYUL 030600Z 25023G29KT 6SM -SHSN BKN020 OVC050 M06/M09 A2958 RMK SC6SC2 SLP020=
CYUL;2005-12-03 09:00;METAR CYUL 030900Z 26026KT 8SM -SHSN BKN024 BKN060 M06/M11 A2966 RMK SC5SC1 SLP048=
CYUL;2005-12-03 10:00;METAR CYUL 031000Z 25023G34KT 10SM -SHSN BKN028 BKN060 BKN120 M07/M12 A2968 RMK SC5SC1AC1 SLP054=
CYUL;2005-12-03 11:00;METAR CYUL 031100Z 26017G26KT 10SM -SHSN BKN028 M07/M12 A2970 RMK SC7 SLP061=
CYUL;2005-12-03 12:00;METAR CYUL 031200Z 25019G27KT 10SM -SHSN OVC022 M07/M12 A2972 RMK SC8 SLP067=
CYUL;2005-12-03 12:45;SPECI CYUL 031245Z 25017G24KT 15SM BKN024 BKN090 BKN210 M07/ RMK SC5AC1CI1 CF ASOCT=
CYUL;2005-12-03 13:00;METAR CYUL 031300Z 25016KT 15SM BKN025 BKN090 BKN210 M07/M12 A2973 RMK SC5AC1CI1 CF ASOCT SLP071=
CYUL;2005-12-03 14:00;METAR CYUL 031400Z 26022KT 15SM BKN028 BKN110 M06/M11 A2975 RMK SC6AC2 SLP077=
CYUL;2005-12-03 14:10;SPECI CYUL 031410Z 26019G28KT 15SM -SHSN BKN027 BKN110 M06/ RMK SC6AC2=
CYUL;2005-12-03 15:00;METAR CYUL 031500Z 25019G27KT 15SM -SHSN BKN027 M06/M11 A2977 RMK SC7 SLP085=
CYUL;2005-12-03 15:42;SPECI CYUL 031542Z 26019G25KT 30SM BKN030 BKN085 M05/ RMK SC5AC2=
CYUL;2005-12-03 16:00;METAR CYUL 031600Z 25020KT 30SM SCT028 BKN100 M05/M11 A2977 RMK SC4AC2 SLP083=
CYUL;2005-12-03 17:00;METAR CYUL 031700Z 26020G26KT 30SM BKN028 BKN110 M05/M11 A2977 RMK SC6AC1 SLP084=
CYUL;2005-12-03 18:00;METAR CYUL 031800Z 25024KT 30SM SCT030 BKN110 M04/M11 A2977 RMK SC4AC1 SLP083=
CYUL;2005-12-03 19:00;METAR CYUL 031900Z 27020G30KT 30SM BKN035 M03/M11 A2977 RMK SC5 SLP085=
CYUL;2005-12-03 20:00;METAR CYUL 032000Z 26016G25KT 30SM SCT035 SCT110 M03/M11 A2980 RMK SC4AC1 SLP094=
CYUL;2005-12-03 20:33;SPECI CYUL 032033Z 26022G29KT 15SM -SHSN BKN040 BKN055 M03/ RMK SC5SC1=
CYUL;2005-12-03 21:00;METAR CYUL 032100Z 27018G27KT 15SM -SHSN BKN040 BKN060 M03/M11 A2982 RMK SC2SC1 SLP102=
CYUL;2005-12-03 21:18;SPECI CYUL 032118Z 27020G30KT 30SM FEW040 FEW110 M03/ RMK SC1AC1=
CYUL;2005-12-03 22:00;METAR CYUL 032200Z 26016G21KT 30SM FEW050 FEW110 M03/M12 A2984 RMK SC1AC1 SLP106=
CYUL;2005-12-04 00:00;METAR CYUL 040000Z 24012G17KT 15SM FEW040 M04/M12 A2986 RMK SC1 SLP113=
CYUL;2005-12-04 01:00;METAR CYUL 040100Z 25014KT 15SM SKC M04/M12 A2986 RMK SLP115=
CYUL;2005-12-04 02:00;METAR CYUL 040200Z 27018G24KT 15SM FEW040 M04/M12 A2986 RMK SC1 SLP114=
CYUL;2005-12-04 03:00;METAR CYUL 040300Z 27012KT 15SM SKC M04/M12 A2987 RMK SLP116=
CYUL;2005-12-04 04:00;METAR CYUL 040400Z 24008KT 15SM SKC M05/M12 A2988 RMK SLP121=
CYUL;2005-12-04 06:00;METAR CYUL 040600Z 26013KT 15SM SKC M05/M12 A2987 RMK SLP117=
CYUL;2005-12-04 08:00;METAR CYUL 040800Z 23007KT 15SM FEW020 SCT210 M06/M12 A2987 RMK CF1CI1 SLP119=
CYUL;2005-12-04 09:00;METAR CYUL 040900Z 24008KT 15SM BKN210 M05/M12 A2987 RMK CI2 SLP119=
CYUL;2005-12-04 10:00;METAR CYUL 041000Z 23006KT 15SM BKN160 BKN210 M05/M12 A2986 RMK AS2CI1 SLP114=
CYUL;2005-12-04 11:00;METAR CYUL 041100Z 23005KT 15SM BKN110 OVC160 M05/M12 A2985 RMK AC5AS2 SLP110=
CYUL;2005-12-04 12:00;METAR CYUL 041200Z 23004KT 15SM FEW080 OVC100 M05/M12 A2984 RMK AC2AS6 SLP107=
CYUL;2005-12-04 13:00;METAR CYUL 041300Z 26004KT 15SM FEW080 BKN090 OVC210 M05/M11 A2984 RMK AC2AS4CI1 SLP107=
CYUL;2005-12-04 14:00;METAR CYUL 041400Z 23008KT 15SM FEW030 OVC065 M03/M08 A2983 RMK SC1SC7 SLP105=
CYUL;2005-12-04 14:42;SPECI CYUL 041442Z 22010KT 15SM -SHSN FEW025 BKN040 OVC060 M03/ RMK SC2SC4SC2=
CYUL;2005-12-04 15:00;METAR CYUL 041500Z 24009KT 15SM -SHSN FEW025 BKN035 OVC120 M03/M08 A2984 RMK SC2SC4AC1 SLP106=
CYUL;2005-12-04 16:00;METAR CYUL 041600Z 21007KT 12SM -SHSN BKN025 BKN060 OVC120 M02/M06 A2981 RMK SC5SC2AC1 SLP097=
CYUL;2005-12-04 17:00;METAR CYUL 041700Z 23006KT 12SM -SHSN OVC020 M02/M05 A2979 RMK SC8 SLP091=
CYUL;2005-12-04 18:00;METAR CYUL 041800Z 22007KT 15SM -SHSN OVC020 M02/M05 A2977 RMK SC8 SLP085=
CYUL;2005-12-04 18:11;SPECI CYUL 041811Z 22007KT 2 1/2SM -SHSN OVC022 M02/ RMK SC8=
CYUL;2005-12-04 18:35;SPECI CYUL 041835Z 23006KT 1 1/4SM -SHSN BKN022 OVC030 M02/ RMK SC6SC2=
CYUL;2005-12-04 18:42;SPECI CYUL 041842Z 22006KT 2SM -SHSN BKN022 OVC030 M02/ RMK SC6SC2=
CYUL;2005-12-04 19:00;METAR CYUL 041900Z 23005KT 3SM -SHSN OVC027 M02/M04 A2977 RMK SC8 SLP083=
CYUL;2005-12-04 19:23;SPECI CYUL 041923Z 23005KT 1 1/2SM -SHSN OVC020 M02/ RMK SN3SC5=
CYUL;2005-12-04 19:38;SPECI CYUL 041938Z 23006KT 1 1/4SM -SHSN OVC016 M02/ RMK SN4SC4=
CYUL;2005-12-04 20:00;METAR CYUL 042000Z 23007KT 1SM R24R/6000FT/D R24L/6000FT/D -SHSN BR VV008 M02/M04 A2978 RMK SN8 SLP086=
CYUL;2005-12-04 20:18;SPECI CYUL 042018Z 23008KT 1SM R24R/6000FT/U R24L/6000FT/N -SHSN BR VV016 M02/ RMK SN8=
CYUL;2005-12-04 21:00;METAR CYUL 042100Z 23008KT 1 1/4SM -SHSN BR OVC012 M02/M04 A2979 RMK SN2SC6 SLP089=
CYUL;2005-12-04 22:00;METAR CYUL 042200Z 26011KT 2 1/2SM -SHSN BR SCT010 OVC014 M02/M04 A2981 RMK SF3SC5 SLP096=
CYUL;2005-12-04 22:45;SPECI CYUL 042245Z 25010KT 6SM BR FEW010 OVC040 M02/ RMK SF2SC6=
CYUL;2005-12-04 23:00;METAR CYUL 042300Z 25010KT 8SM FEW010 BKN045 BKN120 M02/M05 A2982 RMK SF1SC4AC1 /S01/ SLP102=
CYUL;2005-12-05 00:00;METAR CYUL 050000Z 26008KT 8SM -SHSN BKN025 OVC120 M03/M05 A2984 RMK SC6AC2 SLP108=
CYUL;2005-12-05 01:00;METAR CYUL 050100Z 22007KT 6SM -SHSN FEW010 OVC065 M02/M04 A2982 RMK SF1SC8 SLP102=
CYUL;2005-12-05 03:00;METAR CYUL 050300Z 24013G18KT 8SM SCT012 OVC080 M02/M04 A2984 RMK SF3AC5 SLP108=
CYUL;2005-12-05 03:19;SPECI CYUL 050319Z 26015G20KT 8SM BKN013 OVC080 M02/ RMK SF7AC1=
CYUL;2005-12-05 03:36;SPECI CYUL 050336Z 25011G18KT 10SM FEW013 BKN075 M02/ RMK SF2AC6=
CYUL;2005-12-05 04:00;METAR CYUL 050400Z 25012KT 12SM FEW013 BKN075 M02/M05 A2986 RMK SF1AC7 SLP113=
CYUL;2005-12-05 05:45;SPECI CYUL 050545Z 26009KT 10SM -SHSN FEW013 BKN030 OVC075 M02/ RMK SF1SC6AC2=
CYUL;2005-12-05 06:00;METAR CYUL 050600Z 26008KT 10SM -SHSN FEW020 OVC070 M02/M05 A2987 RMK SC2AC6 SLP119=
CYUL;2005-12-05 08:00;METAR CYUL 050800Z 25013KT 12SM SCT015 BKN075 M02/M05 A2992 RMK SF3AC4 SLP134=
CYUL;2005-12-05 09:00;METAR CYUL 050900Z 27012G18KT 12SM BKN017 OVC080 M02/M06 A2994 RMK SC7AC1 SLP140=
CYUL;2005-12-05 10:00;METAR CYUL 051000Z 25012KT 12SM FEW017 OVC070 M03/M06 A2995 RMK SF1AC7 SLP145=
CYUL;2005-12-05 11:00;METAR CYUL 051100Z 24014KT 12SM FEW017 OVC070 M02/M06 A2998 RMK SF1AC7 SLP153=
CYUL;2005-12-05 12:00;METAR CYUL 051200Z 25012G17KT 15SM FEW018 OVC070 M02/M06 A3000 RMK SF1AC8 SLP160=
CYUL;2005-12-05 13:00;METAR CYUL 051300Z 25014KT 15SM FEW020 BKN070 M02/M06 A3002 RMK CF1AC7 SLP167=
CYUL;2005-12-05 14:00;METAR CYUL 051400Z 24014G19KT 30SM FEW020 BKN070 M02/M06 A3003 RMK CF1AC7 SLP173=
CYUL;2005-12-05 15:00;METAR CYUL 051500Z 25018KT 30SM FEW030 BKN070 M02/M06 A3005 RMK CF1AC6 SLP179=
CYUL;2005-12-05 16:00;METAR CYUL 051600Z 26013G18KT 30SM FEW025 BKN070 M01/M06 A3006 RMK CU2AC5 SLP180=
CYUL;2005-12-05 17:00;METAR CYUL 051700Z 28011G17KT 30SM SCT030 BKN060 M01/M06 A3003 RMK CU4SC2 SLP173=
CYUL;2005-12-05 18:00;METAR CYUL 051800Z 26011KT 30SM BKN035 00/M06 A3003 RMK CU6 SLP171=
CYUL;2005-12-05 19:00;METAR CYUL 051900Z 23013G19KT 30SM BKN040 00/M08 A3002 RMK CU5 SLP169=
CYUL;2005-12-05 20:00;METAR CYUL 052000Z 24011G16KT 30SM BKN050 BKN150 M00/M09 A3003 RMK CU5AC1 SLP171=
CYUL;2005-12-05 21:00;METAR CYUL 052100Z 25006KT 15SM BKN055 BKN150 M01/M08 A3003 RMK CU6AC1 SLP170=
CYUL;2005-12-05 22:00;METAR CYUL 052200Z 26006KT 15SM BKN055 M01/M09 A3003 RMK SC7 SLP173=
CYUL;2005-12-05 23:00;METAR CYUL 052300Z 24005KT 15SM SCT055 M01/M09 A3004 RMK SC3 SLP175=
CYUL;2005-12-06 00:00;METAR CYUL 060000Z 23006KT 15SM BKN053 M01/M09 A3004 RMK SC6 SLP175=
CYUL;2005-12-06 01:00;METAR CYUL 060100Z 23006KT 15SM BKN055 M01/M09 A3004 RMK SC6 SLP176=
CYUL;2005-12-06 02:00;METAR CYUL 060200Z 25007KT 15SM FEW055 M02/M09 A3004 RMK SC2 SLP176=
CYUL;2005-12-06 03:00;METAR CYUL 060300Z 24006KT 15SM FEW055 M04/M09 A3004 RMK SC2 SLP175=
CYUL;2005-12-06 04:00;METAR CYUL 060400Z 25007KT 15SM FEW060 FEW090 M04/M09 A3003 RMK SC1AC1 SLP172=
CYUL;2005-12-06 05:00;METAR CYUL 060500Z 25005KT 15SM FEW060 M05/M10 A3002 RMK SC1 SLP169=
CYUL;2005-12-06 06:00;METAR CYUL 060600Z 23004KT 15SM FEW065 M05/M10 A3001 RMK SC1 SLP166=
CYUL;2005-12-06 07:00;METAR CYUL 060700Z 23003KT 15SM FEW070 M05/M10 A3000 RMK AC2 SLP162=
CYUL;2005-12-06 08:00;METAR CYUL 060800Z 23003KT 15SM BKN050 M05/M09 A3000 RMK SC7 SLP161=
CYUL;2005-12-06 10:00;METAR CYUL 061000Z 19002KT 15SM FEW050 BKN150 M05/M09 A2997 RMK SC2AC2 SLP152=
CYUL;2005-12-06 11:00;METAR CYUL 061100Z 25005KT 15SM FEW055 FEW100 BKN150 BKN210 M06/M08 A2998 RMK SC1AC1AS1CI0 SLP155=
CYUL;2005-12-06 12:00;METAR CYUL 061200Z 25004KT 10SM FEW060 FEW100 SCT210 M07/M09 A2998 RMK SC2AC1CI1 SLP155=
CYUL;2005-12-06 13:00;METAR CYUL 061300Z 25005KT 15SM BKN058 BKN120 M07/M09 A2998 RMK SC6AC1 SLP156=
CYUL;2005-12-06 14:00;METAR CYUL 061400Z 26005KT 15SM FEW060 FEW120 BKN210 M06/M09 A2998 RMK SC1AC2CI0 CC ASOCT SLP156=
CYUL;2005-12-06 15:00;METAR CYUL 061500Z 26008KT 15SM FEW060 FEW120 FEW210 M04/M08 A2999 RMK SC1AC1CI0 SLP158=
CYUL;2005-12-06 16:00;METAR CYUL 061600Z 25009KT 15SM FEW060 FEW120 FEW210 M03/M09 A2998 RMK SC1AC1CI0 SLP154=
CYUL;2005-12-06 18:00;METAR CYUL 061800Z 25011KT 15SM FEW030 FEW210 M02/M08 A2994 RMK CU2CI0 SLP142=
CYUL;2005-12-06 19:00;METAR CYUL 061900Z 26008KT 15SM FEW030 SCT210 M02/M09 A2993 RMK CU2CI0 SLP138=
CYUL;2005-12-06 20:00;METAR CYUL 062000Z 25011KT 15SM FEW035 BKN210 M02/M10 A2994 RMK CU2CI0 SLP141=
CYUL;2005-12-06 21:00;METAR CYUL 062100Z 26008KT 15SM FEW040 BKN090 OVC210 M03/M10 A2995 RMK SC1AC4CI0 SLP144=
CYUL;2005-12-06 22:00;METAR CYUL 062200Z 26012KT 15SM BKN075 OVC210 M02/M10 A2996 RMK AC6CI0 SLP147=
CYUL;2005-12-06 23:00;METAR CYUL 062300Z 26012KT 15SM FEW040 OVC080 M03/M09 A2995 RMK SC1AC7 SLP145=
CYUL;2005-12-07 00:00;METAR CYUL 070000Z 26010G15KT 15SM -SHSN SCT025 OVC080 M04/M07 A2996 RMK SC3AC5 SLP148=
CYUL;2005-12-07 01:00;METAR CYUL 070100Z 25011KT 15SM -SN BKN040 OVC085 M04/M07 A2996 RMK SC5AC3 SLP149=
CYUL;2005-12-07 03:00;METAR CYUL 070300Z 27016G22KT 15SM SCT020 BKN100 M04/M08 A2996 RMK SC4AC2 SLP148=
CYUL;2005-12-07 04:00;METAR CYUL 070400Z 26015KT 15SM BKN020 BKN110 M05/M09 A2997 RMK SC5AC2 SLP152=
CYUL;2005-12-07 05:00;METAR CYUL 070500Z 26011KT 15SM FEW020 M06/M09 A2998 RMK SC2 SLP156=
CYUL;2005-12-07 07:00;METAR CYUL 070700Z 27012G17KT 15SM -SHSN FEW020 SCT060 M06/M09 A3002 RMK SC2SC2 SLP167=
CYUL;2005-12-07 07:32;SPECI CYUL 070732Z 27013KT 15SM FEW020 BKN065 M06/ RMK SC2SC4 CF ASOCT=
CYUL;2005-12-07 08:00;METAR CYUL 070800Z 27013KT 15SM FEW025 SCT060 SCT210 M06/M09 A3003 RMK SC2SC2CI0 SLP171=
CYUL;2005-12-07 10:00;METAR CYUL 071000Z 25009KT 15SM FEW015 BKN130 M08/M10 A3004 RMK SC2AC3 SLP176=
CYUL;2005-12-07 11:00;METAR CYUL 071100Z 25011KT 15SM FEW015 OVC090 M08/M11 A3006 RMK CF1AC7 SLP180=
CYUL;2005-12-07 11:26;SPECI CYUL 071126Z 25012G17KT 15SM -SHSN FEW015 OVC070 M08/ RMK CF1AC7=
CYUL;2005-12-07 12:00;METAR CYUL 071200Z 26012KT 15SM -SHSN FEW018 OVC065 M07/M11 A3006 RMK SC2SC6 SLP183=
CYUL;2005-12-07 12:22;SPECI CYUL 071222Z 27014G21KT 15SM SCT020 BKN075 M07/ RMK SC3AC4=
CYUL;2005-12-07 12:45;SPECI CYUL 071245Z 27013G21KT 12SM -SHSN SCT020 BKN075 M07/ RMK SC3AC4=
CYUL;2005-12-07 13:00;METAR CYUL 071300Z 27014KT 10SM -SHSN BKN022 BKN075 M08/M12 A3008 RMK SC5AC2 SLP189=
CYUL;2005-12-07 14:00;METAR CYUL 071400Z 30012G18KT 15SM -SHSN BKN022 BKN050 M08/M13 A3011 RMK SC5SC1 CF ASOCT SLP197=
CYUL;2005-12-07 15:00;METAR CYUL 071500Z 31018KT 1 1/2SM -SHSN SCT010 BKN020 M08/M12 A3014 RMK SF4SC3 SLP207=
CYUL;2005-12-07 15:11;SPECI CYUL 071511Z 28016G22KT 2SM -SHSN SCT007 BKN030 M09/ RMK SF4SC2 VIS WNW 15=
CYUL;2005-12-07 15:24;SPECI CYUL 071524Z 29015KT 15SM FEW007 SCT030 M08/ RMK SF2SC2 VIS E 3=
CYUL;2005-12-07 16:00;METAR CYUL 071600Z 28017KT 15SM FEW011 BKN035 M08/M16 A3015 RMK SF2SC3 SLP211=
CYUL;2005-12-07 16:28;SPECI CYUL 071628Z 31015G20KT 15SM -SHSN FEW011 BKN030 M09/ RMK SF2SC5=
CYUL;2005-12-07 17:00;METAR CYUL 071700Z 29016G21KT 15SM BKN040 M09/M17 A3017 RMK CU5 SLP219=
CYUL;2005-12-07 18:00;METAR CYUL 071800Z 31016G22KT 30SM SCT045 M08/M18 A3020 RMK CU3 SLP229=
CYUL;2005-12-07 19:00;METAR CYUL 071900Z 32014G20KT 15SM BKN045 M09/M18 A3023 RMK SC6 SLP239=
CYUL;2005-12-07 21:00;METAR CYUL 072100Z 29015G20KT 15SM SCT050 M10/M17 A3032 RMK SC3 SLP271=
CYUL;2005-12-07 22:00;METAR CYUL 072200Z 30011G17KT 15SM FEW050 M10/M17 A3037 RMK SC2 SLP287=
CYUL;2005-12-07 23:00;METAR CYUL 072300Z 28009G15KT 15SM FEW060 M10/M17 A3039 RMK SC1 SLP295=
CYUL;2005-12-08 00:00;METAR CYUL 080000Z 28009KT 15SM FEW100 M10/M17 A3042 RMK AC2 SLP305=
CYUL;2005-12-08 01:00;METAR CYUL 080100Z 29009KT 15SM BKN070 M10/M16 A3045 RMK AC6 SLP313=
CYUL;2005-12-08 02:00;METAR CYUL 080200Z 28008KT 15SM FEW070 M10/M16 A3047 RMK AC2 SLP321=
CYUL;2005-12-08 03:00;METAR CYUL 080300Z 27008KT 15SM FEW070 M10/M16 A3050 RMK AC1 SLP331=
CYUL;2005-12-08 04:00;METAR CYUL 080400Z 25008KT 15SM SKC M10/M16 A3053 RMK SLP340=
CYUL;2005-12-08 05:00;METAR CYUL 080500Z 25007KT 15SM SKC M11/M15 A3055 RMK SLP348=
CYUL;2005-12-08 06:00;METAR CYUL 080600Z 24006KT 15SM SKC M11/M15 A3056 RMK SLP353=
CYUL;2005-12-08 09:00;METAR CYUL 080900Z 24008KT 15SM SKC M11/M15 A3062 RMK SLP372=
CYUL;2005-12-08 10:00;METAR CYUL 081000Z 25007KT 15SM SKC M11/M16 A3063 RMK SLP376=
CYUL;2005-12-08 11:00;METAR CYUL 081100Z 23006KT 15SM FEW020 M11/M15 A3064 RMK CF1 SLP378=
CYUL;2005-12-08 12:00;METAR CYUL 081200Z 24007KT 30SM FEW015 M12/M15 A3064 RMK CF1 SLP381=
CYUL;2005-12-08 13:00;METAR CYUL 081300Z 26007KT 30SM FEW015 FEW020 M11/M15 A3065 RMK CF1SC1 SLP384=
CYUL;2005-12-08 14:00;METAR CYUL 081400Z 27008KT 15SM FEW020 FEW210 M10/M14 A3065 RMK SC1CI1 SLP384=
CYUL;2005-12-08 15:00;METAR CYUL 081500Z 27012KT 15SM FEW020 FEW120 FEW240 M09/M14 A3066 RMK CF1AC1CI1 SLP386=
CYUL;2005-12-08 16:00;METAR CYUL 081600Z 26013KT 15SM FEW025 FEW120 FEW240 M08/M13 A3064 RMK CF1AC1CI1 SLP379=
CYUL;2005-12-08 17:00;METAR CYUL 081700Z 25011G16KT 15SM FEW025 M07/M13 A3062 RMK SC1 SLP371=
CYUL;2005-12-08 18:00;METAR CYUL 081800Z 24011KT 15SM FEW025 M06/M12 A3059 RMK SC1 SLP363=
CYUL;2005-12-08 19:00;METAR CYUL 081900Z 26009G16KT 15SM FEW030 M05/M12 A3057 RMK SC1 SLP356=
CYUL;2005-12-08 20:00;METAR CYUL 082000Z 25011KT 15SM FEW030 M05/M12 A3055 RMK SC1 SLP349=
CYUL;2005-12-08 21:00;METAR CYUL 082100Z 25010KT 30SM FEW035 M03/M13 A3054 RMK SC1 SLP343=
CYUL;2005-12-08 22:00;METAR CYUL 082200Z 25007KT 30SM FEW030 M06/M13 A3052 RMK SC1 SLP339=
CYUL;2005-12-08 23:00;METAR CYUL 082300Z 24006KT 15SM SKC M06/M13 A3050 RMK SLP331=
CYUL;2005-12-09 00:00;METAR CYUL 090000Z 25007KT 15SM FEW040 M07/M12 A3049 RMK CF1 SLP327=
CYUL;2005-12-09 01:00;METAR CYUL 090100Z 23005KT 15SM SKC M06/M10 A3048 RMK SLP325=
CYUL;2005-12-09 02:00;METAR CYUL 090200Z 20007KT 15SM SKC M07/M11 A3045 RMK SLP315=
CYUL;2005-12-09 03:00;METAR CYUL 090300Z 18005KT 15SM SKC M09/M12 A3041 RMK SLP302=
CYUL;2005-12-09 04:00;METAR CYUL 090400Z 18006KT 15SM SKC M08/M12 A3040 RMK SLP296=
CYUL;2005-12-09 05:00;METAR CYUL 090500Z 14003KT 15SM FEW210 M08/M12 A3036 RMK CI1 SLP285=
CYUL;2005-12-09 06:00;METAR CYUL 090600Z 13003KT 15SM BKN150 BKN210 M08/M12 A3033 RMK AC5CI1 SLP274=
CYUL;2005-12-09 09:00;METAR CYUL 090900Z 10006KT 15SM BKN100 OVC150 M06/M12 A3019 RMK AC5AC3 SLP226=
CYUL;2005-12-09 10:00;METAR CYUL 091000Z 10006KT 15SM OVC120 M06/M09 A3013 RMK AC8 PRESFR SLP205=
CYUL;2005-12-09 10:40;SPECI CYUL 091040Z 08006KT 15SM -SHSN BKN080 OVC100 M06/ RMK AC6AC2=
CYUL;2005-12-09 11:00;METAR CYUL 091100Z 08007KT 15SM -SHSN SCT040 OVC080 M06/M09 A3007 RMK SC3AC5 PRESFR SLP185=
CYUL;2005-12-09 12:00;METAR CYUL 091200Z 10006KT 15SM -SN BKN045 OVC080 M06/M11 A3005 RMK SC6AC2 SLP177=
CYUL;2005-12-09 12:20;SPECI CYUL 091220Z 10010KT 2SM -SN BKN012 OVC028 M06/ RMK SN2SF4SC2=
CYUL;2005-12-09 12:27;SPECI CYUL 091227Z 10008KT 1 1/4SM -SN VV010 RMK SN8=
CYUL;2005-12-09 12:36;SPECI CYUL 091236Z 10007KT 1SM R06L/P6000FT/D R06R/P6000FT/D -SN VV008 M06/ RMK SN8=
CYUL;2005-12-09 12:42;SPECI CYUL 091242Z 10009KT 3/4SM R06L/P6000FT/D R06R/P6000FT/D -SN VV007 M06/ RMK SN8=
CYUL;2005-12-09 13:00;METAR CYUL 091300Z 08009KT 3/4SM R06L/P6000FT/U R06R/P6000FT/U -SN VV007 M06/M08 A2999 RMK SN8 PRESFR /S01/ SLP157=
CYUL;2005-12-09 14:00;METAR CYUL 091400Z 05008KT 3/4SM R06L/P6000FT/U R06R/P6000FT/U -SN VV007 M06/M08 A2995 RMK SN8 /S02/ SLP145=
CYUL;2005-12-09 14:15;SPECI CYUL 091415Z 07007KT 5/8SM R06L/5000FT/D R06R/5000FT/D -SN VV004 M06/ RMK SN8=
CYUL;2005-12-09 14:26;SPECI CYUL 091426Z 07007KT 1/2SM R06L/4000FT/D R06R/4500FT/D SN VV004 M06/ RMK SN8=
CYUL;2005-12-09 14:46;SPECI CYUL 091446Z 05006KT 3/4SM R06L/5500FT/U R06R/6000FT/U -SN VV007 M06/ RESN RMK SN8=
CYUL;2005-12-09 15:00;METAR CYUL 091500Z 07008KT 1/2SM R06L/4500FT/N R06R/4000FT/N SN VV006 M06/M07 A2992 RMK SN8 /S05/ SLP135=
CYUL;2005-12-09 15:52;SPECI CYUL 091552Z 08005KT 1/2SM R06L/3000V4500FT/D R06R/3500FT/D SN VV004 M05/ RMK SN8=
CYUL;2005-12-09 16:00;METAR CYUL 091600Z 08004KT 3/4SM R06L/3000V4500FT/N R06R/3000V5000FT/U -SN VV007 M05/M07 A2989 RESN RMK SN8 /S06/ SLP123=
CYUL;2005-12-09 16:12;SPECI CYUL 091612Z 06004KT 1 1/2SM -SN OVC014 M05/ RMK SN2SC6=
CYUL;2005-12-09 16:28;SPECI CYUL 091628Z 06004KT 4SM -SN OVC011 M05/ RMK ST8=
CYUL;2005-12-09 17:00;METAR CYUL 091700Z 01004KT 4SM -SN OVC011 M05/M07 A2985 RMK ST8 SLP110=
CYUL;2005-12-09 17:21;SPECI CYUL 091721Z 35007KT 1 3/4SM -SN OVC012 M06/ RMK ST8=
CYUL;2005-12-09 17:48;SPECI CYUL 091748Z 36007KT 3SM -SN FEW014 OVC030 M06/ RMK SF2SC6=
CYUL;2005-12-09 18:00;METAR CYUL 091800Z 02008KT 5SM -SN FEW011 OVC030 M06/M08 A2984 RMK SF2SC6 /S07/ SLP106=
CYUL;2005-12-09 20:00;METAR CYUL 092000Z 34005KT 8SM -SN SCT015 BKN090 BKN240 M07/M09 A2985 RMK ST2AC1CI1 SLP110=
CYUL;2005-12-09 21:00;METAR CYUL 092100Z 29003KT 4SM -SN FEW015 BKN060 OVC240 M07/M09 A2987 RMK SF1SC5CI1 SLP119=
CYUL;2005-12-09 21:18;SPECI CYUL 092118Z 27005KT 12SM -SN BKN014 BKN080 BKN240 M07/ RMK SC6AC1CI1=
CYUL;2005-12-09 21:37;SPECI CYUL 092137Z 27005KT 12SM FEW014 FEW090 FEW240 M07/ RMK SC1AC1CI0=
CYUL;2005-12-09 22:00;METAR CYUL 092200Z 24006KT 12SM FEW014 FEW090 FEW240 M07/M09 A2991 RMK SC1AC1CI0 SLP130=
CYUL;2005-12-09 23:00;METAR CYUL 092300Z 23010KT 12SM FEW030 FEW090 OVC150 M06/M08 A2993 RMK SC1AC1AC6 VIRGA SLP137=
CYUL;2005-12-10 00:00;METAR CYUL 100000Z 24010KT 12SM FEW030 OVC120 M06/M08 A2994 RMK SC1AC7 SLP141=
CYUL;2005-12-10 01:00;METAR CYUL 100100Z 24014KT 10SM FEW090 OVC130 M05/M08 A2993 RMK AC1AS7 SLP137=
CYUL;2005-12-10 02:00;METAR CYUL 100200Z 26009G15KT 15SM FEW012 OVC045 M05/M08 A2992 RMK SF1SC8 SLP136=
CYUL;2005-12-10 03:00;METAR CYUL 100300Z 24007KT 15SM FEW012 BKN045 OVC090 M04/M07 A2992 RMK SF1SC6AC2 SLP134=
CYUL;2005-12-10 03:18;SPECI CYUL 100318Z 25010KT 10SM -SN FEW012 BKN045 OVC090 M04/ RMK SF1SC6AC1=
CYUL;2005-12-10 04:00;METAR CYUL 100400Z 25010KT 10SM FEW025 BKN060 OVC140 M04/M07 A2990 RMK SC2SC4AC2 INTMT -SN SLP129=
CYUL;2005-12-10 05:12;SPECI CYUL 100512Z 26012KT 10SM -SHSN SCT060 BKN160 BKN210 M03/ RMK SC3AC2CI0=
CYUL;2005-12-10 06:00;METAR CYUL 100600Z 26010KT 10SM -SHSN BKN022 OVC060 M03/M05 A2988 RMK SC7SC1 SLP120=
CYUL;2005-12-10 09:00;METAR CYUL 100900Z 24012G17KT 10SM FEW015 OVC028 M01/M04 A2985 RMK CF1SC7 INTMT -SN SLP112=
CYUL;2005-12-10 10:00;METAR CYUL 101000Z 24013KT 10SM -SN BKN030 OVC060 M00/M04 A2985 RMK SC7SC1 -SN INTMT SLP112=
CYUL;2005-12-10 12:00;METAR CYUL 101200Z 23013KT 10SM FEW025 BKN035 OVC060 M00/M04 A2985 RMK SC1SC6SC2 SLP111=
CYUL;2005-12-10 13:00;METAR CYUL 101300Z 24013KT 15SM OVC040 00/M05 A2985 RMK SC8 SLP110=
CYUL;2005-12-10 14:00;METAR CYUL 101400Z 24015G24KT 15SM FEW025 SCT060 OVC210 M00/M05 A2983 RMK SC2SC2CI1 SLP105=
CYUL;2005-12-10 14:30;SPECI CYUL 101430Z 23019G26KT 15SM -SHSN DRSN BKN032 BKN060 BKN210 M00/ RMK SC5SC1CI0=
CYUL;2005-12-10 15:00;METAR CYUL 101500Z 22014KT 12SM -SHSN BKN030 M01/M03 A2982 RMK SC7 SLP102=
CYUL;2005-12-10 15:35;SPECI CYUL 101535Z 22014KT 12SM BKN030 M00/ RMK SC7=
CYUL;2005-12-10 16:00;METAR CYUL 101600Z 22013KT 12SM -SHSN BKN035 00/M03 A2978 RMK SC7 SLP088=
CYUL;2005-12-10 16:47;SPECI CYUL 101647Z 23012G17KT 12SM FEW020 BKN040 01/ RMK CF1SC7=
CYUL;2005-12-10 17:00;METAR CYUL 101700Z 23016KT 15SM FEW020 BKN040 01/M03 A2976 RMK CF1SC7 SLP079=
CYUL;2005-12-10 17:09;SPECI CYUL 101709Z 22014KT 15SM -SHSN FEW020 BKN035 00/ RMK CF1SC7=
CYUL;2005-12-10 18:00;METAR CYUL 101800Z 22018KT 1 3/4SM -SHSN OVC016 M00/M02 A2974 RMK SC8 SLP074=
CYUL;2005-12-10 18:41;SPECI CYUL 101841Z 23018KT 2 1/2SM -SHSN BKN012 OVC020 M00/ RMK SF6SC2=
CYUL;2005-12-10 19:00;METAR CYUL 101900Z 23019G24KT 4SM -SHSN BKN015 OVC025 M00/M03 A2973 RMK SF6SC2 SLP070=
CYUL;2005-12-10 20:00;METAR CYUL 102000Z 23015G26KT 5SM -SHSN FEW018 OVC030 M00/M04 A2973 RMK CF2SC6 SLP069=
CYUL;2005-12-10 21:00;METAR CYUL 102100Z 22016G22KT 10SM OVC030 M00/M05 A2971 RMK SC8 SLP062=
CYUL;2005-12-10 22:00;METAR CYUL 102200Z 22018G24KT 15SM OVC028 M00/M05 A2969 RMK SC8 SLP055=
CYUL;2005-12-10 23:25;SPECI CYUL 102325Z 21012G17KT 15SM -SHSN OVC032 M00/ RMK SC8=
CYUL;2005-12-11 00:00;METAR CYUL 110000Z 21011KT 15SM OVC032 M00/M06 A2966 RMK SC8 SLP046=
CYUL;2005-12-11 01:00;METAR CYUL 110100Z 20011KT 15SM OVC032 00/M06 A2966 RMK SC8 SLP045=
CYUL;2005-12-11 02:00;METAR CYUL 110200Z 22009KT 15SM FEW030 SCT090 OVC220 M00/M06 A2964 RMK SC1AC3CI3 SLP040=
CYUL;2005-12-11 03:00;METAR CYUL 110300Z 20009KT 15SM FEW030 SCT090 OVC130 M01/M07 A2960 RMK SC2AC2AC2 SLP027=
CYUL;2005-12-11 04:00;METAR CYUL 110400Z 17007KT 15SM FEW090 BKN180 M02/M07 A2958 RMK AC2AC2 SLP019=
CYUL;2005-12-11 05:00;METAR CYUL 110500Z 18007KT 15SM FEW180 SCT210 M04/M07 A2956 RMK AC2CI0 SLP013=
CYUL;2005-12-11 06:00;METAR CYUL 110600Z 19005KT 15SM FEW180 BKN210 M04/M08 A2956 RMK AC2CI0 SLP011=
CYUL;2005-12-11 08:00;METAR CYUL 110800Z 16004KT 15SM BKN035 OVC110 M03/M07 A2953 RMK SC6AC2 SLP002=
CYUL;2005-12-11 09:00;METAR CYUL 110900Z 16006KT 15SM SCT040 OVC120 M03/M07 A2950 RMK SC3AC5 SLP991=
CYUL;2005-12-11 10:00;METAR CYUL 111000Z 17009KT 15SM BKN050 OVC120 M03/M07 A2949 RMK SC6AC2 SLP989=
CYUL;2005-12-11 11:00;METAR CYUL 111100Z 17008KT 15SM BKN035 OVC090 M02/M06 A2949 RMK SC6AC2 SLP987=
CYUL;2005-12-11 12:00;METAR CYUL 111200Z 19007KT 15SM SCT030 BKN060 OVC100 M02/M06 A2949 RMK SC3SC3AC2 SLP989=
CYUL;2005-12-11 13:00;METAR CYUL 111300Z 20006KT 15SM FEW060 SCT120 BKN210 M03/M07 A2949 RMK SC1AC2CI1 SLP987=
CYUL;2005-12-11 14:00;METAR CYUL 111400Z 22008KT 15SM SCT030 BKN120 BKN210 M01/M05 A2948 RMK SC3AC1CI0 SLP985=
CYUL;2005-12-11 15:00;METAR CYUL 111500Z 23010G16KT 15SM BKN050 BKN180 M01/M05 A2949 RMK SC3AC2 SLP987=
CYUL;2005-12-11 16:00;METAR CYUL 111600Z 23011G16KT 10SM BKN045 OVC075 M00/M05 A2947 RMK SC6AC2 SLP982=
CYUL;2005-12-11 17:00;METAR CYUL 111700Z 22009KT 6SM -SHSN FEW018 OVC040 M00/M04 A2946 RMK SC2SC6 SLP978=
CYUL;2005-12-11 19:50;SPECI CYUL 111950Z 22006KT 2 1/4SM -SN OVC030 M01/ RMK SC8=
CYUL;2005-12-11 20:00;METAR CYUL 112000Z 21005KT 2SM -SN SCT012 OVC030 M01/M02 A2944 RMK SC4SC4 SLP970=
CYUL;2005-12-11 20:54;SPECI CYUL 112054Z 16005KT 1 1/4SM -SN OVC020 M01/ RMK SN4SC4=
CYUL;2005-12-11 21:00;METAR CYUL 112100Z 15006KT 1 1/4SM -SN OVC025 M01/M02 A2944 RMK SN3SC5 SLP972=
CYUL;2005-12-11 21:36;SPECI CYUL 112136Z 15005KT 1SM R24R/P6000FT/D R24L/P6000FT/D -SN OVC017 M01/ RMK SN5SC3=
CYUL;2005-12-11 22:00;METAR CYUL 112200Z 17006KT 1SM R24R/P6000FT/D R24L/P6000FT/N -SN OVC015 M01/M02 A2945 RMK SN6SC2 /S02/ SLP975=
CYUL;2005-12-11 22:19;SPECI CYUL 112219Z 18006KT 1 1/4SM -SN OVC010 M01/ RMK SN4SC4=
CYUL;2005-12-11 22:31;SPECI CYUL 112231Z 18006KT 1 1/4SM -SN OVC009 M01/ RMK SN2ST6=
CYUL;2005-12-11 23:26;SPECI CYUL 112326Z 25009KT 1 3/4SM -SN OVC013 M01/ RMK ST8=
CYUL;2005-12-11 23:49;SPECI CYUL 112349Z 27006KT 2SM -SN FEW007 OVC025 M02/ RMK SF2SC6=
CYUL;2005-12-12 00:00;METAR CYUL 120000Z 27006KT 1 3/4SM -SN FEW007 OVC025 M02/M03 A2949 RMK SF2SC6 /S05/ SLP987=
CYUL;2005-12-12 01:31;SPECI CYUL 120131Z 25003KT 3SM -SN BKN007 OVC045 M02/ RMK SF6SC2=
CYUL;2005-12-12 02:00;METAR CYUL 120200Z 27004KT 3SM -SN FEW007 BKN020 OVC060 M03/M03 A2950 RMK SF1SC6SC1 SLP990=
CYUL;2005-12-12 02:28;SPECI CYUL 120228Z 26004KT 6SM BR BKN010 M02/ RMK SF7=
CYUL;2005-12-12 03:00;METAR CYUL 120300Z 27004KT 6SM BR SCT009 OVC150 M03/M04 A2950 RMK SF3AC2 SLP993=
CYUL;2005-12-12 04:00;METAR CYUL 120400Z 25005KT 6SM -SN BR SCT010 OVC140 M03/M04 A2951 RMK SF4AC4 SLP995=
CYUL;2005-12-12 05:00;METAR CYUL 120500Z 26005KT 6SM BR FEW010 OVC140 M04/M05 A2951 RMK SF2AC6 SLP996=
CYUL;2005-12-12 06:00;METAR CYUL 120600Z 26005KT 6SM -SN BR OVC043 M04/M05 A2953 RMK SC8 SLP001=
CYUL;2005-12-12 07:00;METAR CYUL 120700Z 28006KT 6SM -SN BR OVC041 M04/M05 A2955 RMK SC8 SLP009=
CYUL;2005-12-12 09:37;SPECI CYUL 120937Z 30006KT 1 1/2SM -SN BR OVC014 M05/ RMK SC8=
CYUL;2005-12-12 10:00;METAR CYUL 121000Z 31006KT 1 1/4SM -SN BR OVC012 M06/M07 A2960 RMK SC8 SLP027=
CYUL;2005-12-12 10:17;SPECI CYUL 121017Z 32006KT 1 1/4SM -SN BR OVC009 M06/ RMK SC8=
CYUL;2005-12-12 10:39;SPECI CYUL 121039Z 04010KT 1 1/2SM -SN BR OVC013 M06/ RMK SF8=
CYUL;2005-12-12 11:00;METAR CYUL 121100Z 03009KT 1 1/2SM -SN BR BKN014 OVC025 M07/M09 A2964 RMK SF6SC2 /S01/ SLP039=
CYUL;2005-12-12 11:21;SPECI CYUL 121121Z 03008KT 1 1/2SM -SN BR OVC023 M08/ RMK SC8=
CYUL;2005-12-12 12:00;METAR CYUL 121200Z 04010KT 2SM -SN HZ OVC026 M08/M11 A2968 RMK SC8 SLP052=
CYUL;2005-12-12 12:38;SPECI CYUL 121238Z 03009KT 1 1/4SM -SN HZ OVC028 M09/ RMK SC8=
CYUL;2005-12-12 13:00;METAR CYUL 121300Z 03008KT 1 1/4SM -SN OVC030 M09/M12 A2971 RMK SN3SC5 SLP063=
CYUL;2005-12-12 13:42;SPECI CYUL 121342Z 02011KT 1 3/4SM -SN OVC030 M10/ RMK SN2SC6=
CYUL;2005-12-12 15:00;METAR CYUL 121500Z 01009KT 6SM -SN FEW015 OVC035 M10/M13 A2977 RMK SC2SC4 SLP085=
CYUL;2005-12-12 16:00;METAR CYUL 121600Z 02010KT 15SM FEW015 FEW035 BKN130 M11/M15 A2978 RMK SC1SC2AC2 SLP088=
CYUL;2005-12-12 17:00;METAR CYUL 121700Z 35004KT 15SM -SHSN FEW015 BKN035 M10/M15 A2979 RMK SC1SC4 SLP091=
CYUL;2005-12-12 18:00;METAR CYUL 121800Z 34004KT 10SM -SHSN FEW015 BKN040 BKN150 M09/M15 A2980 RMK SC2SC5AC1 SLP095=
CYUL;2005-12-12 19:00;METAR CYUL 121900Z 30002KT 6SM -SN FEW015 BKN022 BKN040 M09/M14 A2982 RMK SC1SC5SC2 SLP102=
CYUL;2005-12-12 20:10;SPECI CYUL 122010Z 27004KT 15SM -SN FEW015 BKN040 BKN150 M09/ RMK SC1SC6AC1 -SN INTMT=
CYUL;2005-12-12 20:54;SPECI CYUL 122054Z 26008KT 15SM FEW015 FEW030 FEW150 M10/ RMK SC1SC2AC1=
CYUL;2005-12-12 21:00;METAR CYUL 122100Z 26007KT 15SM FEW015 FEW030 FEW150 M10/M15 A2989 RMK SC1SC2AC1 SLP123=
CYUL;2005-12-12 22:00;METAR CYUL 122200Z 26006KT 15SM FEW040 M11/M16 A2992 RMK SC1 SLP134=
CYUL;2005-12-12 23:00;METAR CYUL 122300Z 26007KT 15SM BKN040 M11/M16 A2995 RMK SC7 SLP145=
CYUL;2005-12-13 00:00;METAR CYUL 130000Z 34005KT 15SM FEW015 BKN040 M11/M15 A2999 RMK SF1SC6 VIRGA SLP158=
CYUL;2005-12-13 01:00;METAR CYUL 130100Z 36009KT 15SM BKN040 M10/M17 A3001 RMK SC7 SLP167=
CYUL;2005-12-13 02:00;METAR CYUL 130200Z 36006KT 15SM BKN045 M11/M18 A3004 RMK SC7 SLP176=
CYUL;2005-12-13 03:00;METAR CYUL 130300Z 34006KT 15SM BKN045 M12/M17 A3006 RMK SC6 SLP182=
CYUL;2005-12-13 04:00;METAR CYUL 130400Z 34006KT 15SM SCT045 M14/M19 A3008 RMK SC2 SLP189=
CYUL;2005-12-13 05:00;METAR CYUL 130500Z 33005KT 15SM FEW045 M16/M19 A3009 RMK SC2 SLP193=
CYUL;2005-12-13 06:00;METAR CYUL 130600Z 00000KT 15SM FEW045 M15/M19 A3011 RMK SC2 SLP200=
CYUL;2005-12-13 09:00;METAR CYUL 130900Z 31002KT 15SM SKC M16/M19 A3019 RMK SLP225=
CYUL;2005-12-13 10:00;METAR CYUL 131000Z 34002KT 15SM SKC M17/M20 A3022 RMK SLP235=
CYUL;2005-12-13 11:00;METAR CYUL 131100Z 31002KT 15SM SKC M20/M22 A3024 RMK SLP244=
CYUL;2005-12-13 12:00;METAR CYUL 131200Z 29002KT 30SM FEW240 M18/M20 A3026 RMK CI1 SLP252=
CYUL;2005-12-13 13:00;METAR CYUL 131300Z 28002KT 30SM FEW240 M18/M20 A3029 RMK CI1 SLP260=
CYUL;2005-12-13 13:44;SPECI CYUL 131344Z 00000KT 30SM FEW009 FEW240 M16/ RMK SF1CI1=
CYUL;2005-12-13 14:00;METAR CYUL 131400Z 00000KT 30SM FEW009 FEW240 M16/M18 A3032 RMK SF1CI1 SLP270=
CYUL;2005-12-13 14:27;SPECI CYUL 131427Z 23003KT 15SM FEW012 FEW240 M14/ RMK SF1CI1=
CYUL;2005-12-13 15:00;METAR CYUL 131500Z 00000KT 15SM FEW012 FEW240 M14/M18 A3035 RMK SF1CI1 SLP281=
CYUL;2005-12-13 16:00;METAR CYUL 131600Z 27002KT 15SM FEW012 M13/M18 A3035 RMK SF1 SLP283=
CYUL;2005-12-13 17:00;METAR CYUL 131700Z 00000KT 15SM FEW015 FEW040 M12/M18 A3036 RMK SF1SC1 SLP284=
CYUL;2005-12-13 19:00;METAR CYUL 131900Z 00000KT 15SM FEW015 FEW040 M10/M17 A3037 RMK SF1SC1 SLP287=
CYUL;2005-12-13 21:00;METAR CYUL 132100Z 23005KT 30SM FEW030 M11/M18 A3041 RMK SC1 SLP302=
CYUL;2005-12-13 22:00;METAR CYUL 132200Z 26004KT 15SM SKC M13/M18 A3043 RMK SLP308=
CYUL;2005-12-13 23:00;METAR CYUL 132300Z 25003KT 15SM SKC M15/M18 A3045 RMK SLP314=
CYUL;2005-12-14 00:00;METAR CYUL 140000Z 28002KT 15SM SKC M16/M19 A3046 RMK SLP320=
CYUL;2005-12-14 01:00;METAR CYUL 140100Z 25003KT 15SM SKC M15/M18 A3047 RMK SLP322=
CYUL;2005-12-14 02:00;METAR CYUL 140200Z 00000KT 15SM SKC M15/M18 A3048 RMK SLP324=
CYUL;2005-12-14 03:00;METAR CYUL 140300Z 00000KT 15SM SKC M15/M18 A3049 RMK SLP330=
CYUL;2005-12-14 04:00;METAR CYUL 140400Z 32002KT 15SM SKC M15/M18 A3051 RMK SLP336=
CYUL;2005-12-14 05:00;METAR CYUL 140500Z 00000KT 15SM SKC M17/M20 A3051 RMK SLP337=
CYUL;2005-12-14 06:00;METAR CYUL 140600Z 00000KT 15SM SKC M19/M21 A3053 RMK SLP342=
CYUL;2005-12-14 07:00;METAR CYUL 140700Z 00000KT 15SM SKC M18/M20 A3054 RMK SLP347=
CYUL;2005-12-14 09:00;METAR CYUL 140900Z 30002KT 15SM FEW240 M17/M19 A3057 RMK CI1 SLP356=
CYUL;2005-12-14 11:00;METAR CYUL 141100Z 34003KT 15SM FEW240 M18/M19 A3059 RMK CI1 SLP364=
CYUL;2005-12-14 12:00;METAR CYUL 141200Z 35003KT 12SM FEW240 M18/M19 A3061 RMK CI1 SLP368=
CYUL;2005-12-14 12:37;SPECI CYUL 141237Z 35005KT 15SM FEW009 FEW240 M18/ RMK SF1CI0=
CYUL;2005-12-14 13:00;METAR CYUL 141300Z 36005KT 15SM FEW009 FEW240 M17/M19 A3062 RMK SF1CI0 SLP373=
CYUL;2005-12-14 14:00;METAR CYUL 141400Z 04005KT 15SM FEW009 FEW240 M16/M18 A3062 RMK SF1CI0 SLP372=
CYUL;2005-12-14 15:00;METAR CYUL 141500Z 36004KT 12SM FEW009 FEW210 M15/M17 A3063 RMK SF1CI1 SLP375=
CYUL;2005-12-14 16:00;METAR CYUL 141600Z 00000KT 15SM FEW010 FEW015 M13/M17 A3061 RMK SF1CF1 SLP369=
CYUL;2005-12-14 17:00;METAR CYUL 141700Z 25003KT 12SM FEW010 FEW020 M12/M17 A3060 RMK SF1CF1 SLP366=
CYUL;2005-12-14 17:22;SPECI CYUL 141722Z 00000KT 12SM VCFG FEW009 FEW020 M11/ RMK SF2CF1 VIS SE 2=
CYUL;2005-12-14 18:00;METAR CYUL 141800Z 23003KT 12SM FEW015 M12/M17 A3059 RMK CF2 SLP361=
CYUL;2005-12-14 19:00;METAR CYUL 141900Z 23003KT 12SM FEW015 M10/M16 A3056 RMK CF1 SLP353=
CYUL;2005-12-14 21:00;METAR CYUL 142100Z 25002KT 12SM FEW020 FEW210 M12/M16 A3056 RMK CF1CI1 SLP352=
CYUL;2005-12-14 22:00;METAR CYUL 142200Z 21002KT 15SM FEW020 FEW210 M13/M17 A3056 RMK CF1CI1 SLP352=
CYUL;2005-12-14 23:00;METAR CYUL 142300Z 14002KT 15SM FEW210 M15/M18 A3056 RMK CI1 SLP354=
CYUL;2005-12-15 00:00;METAR CYUL 150000Z 11003KT 15SM FEW210 M13/M16 A3056 RMK CI1 SLP353=
CYUL;2005-12-15 01:00;METAR CYUL 150100Z 11005KT 10SM FEW210 M14/M17 A3055 RMK CI1 SLP349=
CYUL;2005-12-15 02:00;METAR CYUL 150200Z 14003KT 10SM FEW210 M15/M18 A3054 RMK CI1 SLP345=
CYUL;2005-12-15 05:00;METAR CYUL 150500Z 00000KT 8SM FEW210 M18/M21 A3051 RMK CI1 SLP334=
CYUL;2005-12-15 06:00;METAR CYUL 150600Z 36003KT 7SM FEW210 M16/M17 A3048 RMK CI1 SLP324=
CYUL;2005-12-15 07:00;METAR CYUL 150700Z 32002KT 5SM BR FEW210 M20/M22 A3051 RMK CI1 FROIN SLP335=
CYUL;2005-12-15 08:00;METAR CYUL 150800Z 36002KT 3SM BR FEW012 M16/M17 A3050 RMK ST1 SLP332=
CYUL;2005-12-15 09:00;METAR CYUL 150900Z 04005KT 4SM BR FEW015 M17/M18 A3047 RMK ST1 FROIN SLP322=
CYUL;2005-12-15 10:00;METAR CYUL 151000Z 03005KT 7SM FEW210 M15/M16 A3046 RMK CI1 FROIN SLP318=
CYUL;2005-12-15 13:00;METAR CYUL 151300Z 05008KT 12SM BKN240 M15/M17 A3044 RMK CI1 FG OVR STLAWR SLP312=
CYUL;2005-12-15 14:00;METAR CYUL 151400Z 05012KT 12SM FEW006 BKN240 M14/M17 A3043 RMK SF1CI1 SLP309=
CYUL;2005-12-15 15:00;METAR CYUL 151500Z 06010KT 12SM FEW009 BKN240 M14/M17 A3043 RMK SF1CI1 SLP310=
CYUL;2005-12-15 16:00;METAR CYUL 151600Z 05007KT 15SM FEW009 BKN240 M13/M17 A3040 RMK SF1CI1 SLP300=
CYUL;2005-12-15 17:00;METAR CYUL 151700Z 04008KT 15SM FEW150 BKN240 M12/M17 A3038 RMK AC2CI1 SLP290=
CYUL;2005-12-15 22:45;SPECI CYUL 152245Z 05012KT 10SM -SN FEW140 OVC170 M10/ RMK AC2AS5=
CYUL;2005-12-16 01:31;SPECI CYUL 160131Z 04011KT 10SM -SN OVC090 M09/ RMK AC8=
CYUL;2005-12-16 07:48;SPECI CYUL 160748Z 05011KT 5SM -SN OVC035 M09/ RMK SC8=
CYUL;2005-12-16 08:28;SPECI CYUL 160828Z 05011KT 1SM R06L/P6000FT/D R06R/P6000FT/D -SN DRSN OVC018 M09/ RMK SN3SC5=
CYUL;2005-12-16 08:50;SPECI CYUL 160850Z 05013KT 1/2SM R06L/5500FT/D R06R/3500V5000FT/U SN=
CYUL;2005-12-16 10:20;SPECI CYUL 161020Z 04016KT 3/4SM R06L/3500V5000FT/U R06R/3500V6000FT/U -SN DRSN VV006 M09/ RMK SN8=
CYUL;2005-12-16 10:41;SPECI CYUL 161041Z 04016KT 1/2SM R06L/3500FT/D R06R/3000V5500FT/D -SN BLSN VV003 M09/ RMK SN8=
CYUL;2005-12-16 10:54;SPECI CYUL 161054Z 04019KT 3/8SM R06L/2800FT/N R06R/2400FT/N SN BLSN VV002 M08/ RMK SN8=
CYUL;2005-12-16 11:18;SPECI CYUL 161118Z 05016KT 5/8SM R06L/2600V4500FT/U R06R/3500V5000FT/N -SN BLSN VV004 M08/ RMK SN8 RESN=
CYUL;2005-12-16 11:23;SPECI CYUL 161123Z 05017KT 3/8SM R06L/3000V5000FT/U R06R/3000V4500FT/D SN BLSN VV002 M08/ RMK SN8=
CYUL;2005-12-16 11:37;SPECI CYUL 161137Z 05017KT 1/2SM R06L/3000FT/U R06R/3000FT/U SN BLSN VV003 M08/ RMK SN8=
CYUL;2005-12-16 12:14;SPECI CYUL 161214Z 05016KT 1/2SM R06L/3500FT/U R06R/3000FT/U SN BLSN VV003 M07/ RMK SN8=
CYUL;2005-12-16 12:37;SPECI CYUL 161237Z 05015KT 3/8SM R06L/2600FT/N R06R/2600FT/N SN BLSN VV002 M07/ RMK SN8=
CYUL;2005-12-16 12:51;SPECI CYUL 161251Z 04015KT 5/8SM R06L/3000V5000FT/U R06R/2800V4500FT/U -SN BLSN VV004 M07/ RMK SN8 RESN=
CYUL;2005-12-16 13:16;SPECI CYUL 161316Z 05013G19KT 1/2SM R06L/3000V4500FT/N R06R/2600V4000FT/D SN BLSN VV003 M06/ RMK SN8=
CYUL;2005-12-16 13:19;SPECI CYUL 161319Z 04013G18KT 1/8SM R06L/2200FT/N R06R/1800FT/N +SN +BLSN VV002 M06/ RMK SN8=
CYUL;2005-12-16 13:31;SPECI CYUL 161331Z 04016KT 1/4SM R06L/2600V4000FT/N R06R/2600FT/N +SN VV004 M06/ RMK SN8=
CYUL;2005-12-16 14:55;SPECI CYUL 161455Z 04016KT 3/4SM R06L/3500V6000FT/U R06R/3000V4500FT/U -SN VV007 M06/ RMK SN8 RESN=
CYUL;2005-12-16 15:10;SPECI CYUL 161510Z 05016KT 3/8SM R06L/2600V4500FT/D R06R/2600V4000FT/D SN VV004 M06/ RMK SN8=
CYUL;2005-12-16 16:22;SPECI CYUL 161622Z 06018KT 1/4SM R06L/2200FT/N R06R/2200FT/N +SN +BLSN VV003 M06/ RMK SN8=
CYUL;2005-12-16 16:28;SPECI CYUL 161628Z 06018G25KT 3/4SM R06L/2600V4500FT/N R06R/2800V4500FT/N -SN BLSN OVC020 M06/ RMK SN4SC4 RESN=
CYUL;2005-12-16 16:41;SPECI CYUL 161641Z 06017KT 4SM -SN BLSN FEW007 FEW020 OVC040 M06/ RMK SF1SC2SC6 RESN=
CYUL;2005-12-16 17:45;SPECI CYUL 161745Z 08013KT 3/4SM R06L/4500VP6000FT/D R06R/P6000FT/D -SN DRSN VV007 M03/ RESN RMK SN8=
CYUL;2005-12-16 18:40;SPECI CYUL 161840Z 03006KT 1 1/2SM -SN VV009 M04/ RMK SN8=
CYUL;2005-12-16 19:40;SPECI CYUL 161940Z 04006KT 3SM -SN OVC012 M03/ RMK SN2SC6=
CYUL;2005-12-17 00:22;SPECI CYUL 170022Z 33004KT 3SM -SN BR OVC009 M04/ RMK ST8=
CYUL;2005-12-17 00:45;SPECI CYUL 170045Z 36006KT 5SM -SN BR BKN010 OVC020 M04/ RMK SF7SC1=
CYUL;2005-12-17 01:00;METAR CYUL 170100Z 32005KT 5SM -SN BR OVC010 M04/M04 A2990 RMK SF8 SLP126=
CYUL;2005-12-17 02:16;SPECI CYUL 170216Z 33004KT 5SM -SN BR SCT010 OVC045 M04/ RMK SF3SC5=
CYUL;2005-12-17 04:00;METAR CYUL 170400Z 00000KT 6SM BR FEW008 OVC120 M05/M06 A2995 RMK SF1AC7 SLP143=
CYUL;2005-12-17 05:00;METAR CYUL 170500Z 24009KT 8SM FEW008 BKN120 OVC240 M03/M04 A2996 RMK SF1AC6CI1 SLP148=
CYUL;2005-12-17 06:00;METAR CYUL 170600Z 24016KT 8SM FEW010 BKN045 OVC110 M02/M05 A2999 RMK SF1SC7AC1 SLP158=
CYUL;2005-12-17 07:00;METAR CYUL 170700Z 25013KT 12SM BKN045 OVC055 M02/M05 A3003 RMK SC7SC1 SLP170=
CYUL;2005-12-17 07:15;SPECI CYUL 170715Z 25015KT 12SM -SHSN BKN045 OVC060 M02/ RMK SC6SC2=
CYUL;2005-12-17 08:00;METAR CYUL 170800Z 25015KT 12SM FEW050 M03/M06 A3005 RMK SC2 SLP178=
CYUL;2005-12-17 09:00;METAR CYUL 170900Z 24015KT 12SM FEW060 M04/M07 A3007 RMK SC1 SLP184=
CYUL;2005-12-17 10:00;METAR CYUL 171000Z 24012G18KT 15SM FEW060 M04/M07 A3009 RMK SC1 SLP192=
CYUL;2005-12-17 11:00;METAR CYUL 171100Z 25010KT 15SM FEW055 M05/M07 A3013 RMK SC2 SLP204=
CYUL;2005-12-17 12:00;METAR CYUL 171200Z 24007KT 12SM BKN060 M04/M07 A3015 RMK SC7 SLP213=
CYUL;2005-12-17 13:00;METAR CYUL 171300Z 24012KT 15SM OVC065 M03/M06 A3018 RMK SC8 SLP223=
CYUL;2005-12-17 14:00;METAR CYUL 171400Z 25011KT 10SM BKN070 BKN210 M02/M06 A3021 RMK AC5CI1 SLP232=
CYUL;2005-12-17 14:20;SPECI CYUL 171420Z 25015KT 8SM -SHSN FEW025 BKN070 BKN210 M02/ RMK SC2AC4CI0=
CYUL;2005-12-17 14:32;SPECI CYUL 171432Z 26015KT 2SM -SHSN BKN012 BKN070 M02/ RMK SN3SC2AC2=
CYUL;2005-12-17 15:00;METAR CYUL 171500Z 25015KT 4SM -SHSN FEW012 SCT022 BKN070 M03/M04 A3024 RMK SF2SC2AC1 SLP242=
CYUL;2005-12-17 15:40;SPECI CYUL 171540Z 25014KT 15SM DRSN FEW025 SCT070 BKN210 M02/ RMK SC2AC2CI0=
CYUL;2005-12-17 16:00;METAR CYUL 171600Z 25014KT 15SM DRSN FEW040 FEW090 SCT210 M02/M04 A3024 RMK SC2AC1CI0 SLP243=
CYUL;2005-12-17 17:00;METAR CYUL 171700Z 25017KT 15SM DRSN FEW020 FEW040 SCT070 M01/M05 A3024 RMK CF1SC1AC2 SLP244=
CYUL;2005-12-17 18:00;METAR CYUL 171800Z 25018KT 15SM DRSN FEW028 SCT070 M01/M05 A3025 RMK SC2AC2 SLP247=
CYUL;2005-12-17 19:00;METAR CYUL 171900Z 24014G20KT 15SM DRSN FEW045 SCT070 BKN210 M00/M05 A3027 RMK SC2AC2CI0 SLP252=
CYUL;2005-12-17 19:25;SPECI CYUL 171925Z 24012G18KT 15SM -SHSN DRSN FEW040 SCT070 SCT210 M00/ RMK SC2AC2CI1 CF ASOCT=
CYUL;2005-12-17 20:00;METAR CYUL 172000Z 25015G20KT 8SM -SHSN DRSN BKN030 BKN060 M00/M04 A3028 RMK SC5SC2 SLP257=
CYUL;2005-12-17 21:00;METAR CYUL 172100Z 25011KT 10SM -SHSN DRSN BKN045 BKN070 M00/M03 A3030 RMK SC5AC1 SLP263=
CYUL;2005-12-17 22:00;METAR CYUL 172200Z 24011KT 10SM -SHSN DRSN BKN035 M00/M04 A3032 RMK SC7 SLP270=
CYUL;2005-12-17 23:00;METAR CYUL 172300Z 23012KT 15SM DRSN FEW030 BKN040 M00/M04 A3034 RMK SC2SC4 SLP277=
CYUL;2005-12-18 00:00;METAR CYUL 180000Z 23014KT 15SM DRSN BKN040 M00/M03 A3037 RMK SC7 SLP285=
CYUL;2005-12-18 01:00;METAR CYUL 180100Z 24010G16KT 15SM DRSN OVC045 M00/M03 A3038 RMK SC8 SLP290=
CYUL;2005-12-18 02:00;METAR CYUL 180200Z 24015KT 15SM DRSN OVC050 M00/M04 A3037 RMK SC8 SLP285=
CYUL;2005-12-18 03:00;METAR CYUL 180300Z 25011KT 15SM OVC040 M01/M04 A3038 RMK SC7 SLP289=
CYUL;2005-12-18 04:00;METAR CYUL 180400Z 24010KT 15SM OVC044 M01/M05 A3038 RMK SC8 SLP289=
CYUL;2005-12-18 04:11;SPECI CYUL 180411Z 24010KT 15SM -SN OVC044 M01/ RMK SC8=
CYUL;2005-12-18 05:00;METAR CYUL 180500Z 23011KT 15SM -SN OVC046 M01/M05 A3039 RMK SC8 SLP293=
CYUL;2005-12-18 06:00;METAR CYUL 180600Z 24012KT 15SM FEW040 SCT060 M02/M05 A3038 RMK SC2SC2 SLP290=
CYUL;2005-12-18 07:00;METAR CYUL 180700Z 23009KT 15SM BKN042 BKN150 M03/M06 A3038 RMK SC5AC0 SLP289=
CYUL;2005-12-18 09:00;METAR CYUL 180900Z 25010KT 15SM -SN BKN045 OVC060 M02/M06 A3039 RMK SC6SC2 SLP294=
CYUL;2005-12-18 10:00;METAR CYUL 181000Z 25007KT 15SM -SN OVC060 M03/M06 A3040 RMK SC8 SLP296=
CYUL;2005-12-18 11:00;METAR CYUL 181100Z 23011G16KT 15SM BKN044 OVC060 M03/M06 A3041 RMK SC6SC2 SLP299=
CYUL;2005-12-18 12:00;METAR CYUL 181200Z 24006KT 15SM BKN060 M04/M06 A3040 RMK SC6 SLP298=
CYUL;2005-12-18 13:00;METAR CYUL 181300Z 24009KT 12SM BKN060 M05/M07 A3040 RMK SC6 SLP298=
CYUL;2005-12-18 13:44;SPECI CYUL 181344Z 25012KT 12SM -SHSN BKN060 BKN150 M04/ RMK SC5AC0=
CYUL;2005-12-18 14:00;METAR CYUL 181400Z 25012KT 12SM -SHSN FEW030 SCT060 BKN150 M04/M07 A3040 RMK SC2SC2AC0 SLP295=
CYUL;2005-12-18 14:28;SPECI CYUL 181428Z 25013KT 12SM SCT060 BKN150 M04/ RMK SC2AC0=
CYUL;2005-12-18 15:00;METAR CYUL 181500Z 24012KT 10SM FEW010 SCT055 BKN150 M04/M07 A3040 RMK SF1SC3AC1 CU EMBD SLP299=
CYUL;2005-12-18 15:32;SPECI CYUL 181532Z 24014KT 10SM -SHSN FEW010 SCT035 M04/ RMK SF1SC2=
CYUL;2005-12-18 16:00;METAR CYUL 181600Z 23009KT 10SM -SHSN FEW010 SCT035 SCT240 M04/M07 A3037 RMK SF1SC3CI1 SLP288=
CYUL;2005-12-18 16:46;SPECI CYUL 181646Z 23008KT 15SM FEW010 BKN030 M03/ RMK SF1SC6=
CYUL;2005-12-18 17:00;METAR CYUL 181700Z 24011KT 12SM FEW010 BKN030 M03/M07 A3033 RMK SF1SC6 SLP273=
CYUL;2005-12-18 18:00;METAR CYUL 181800Z 25012KT 12SM -SHSN FEW015 BKN040 M02/M06 A3030 RMK SF1SC6 SLP264=
CYUL;2005-12-18 18:26;SPECI CYUL 181826Z 25012KT 12SM FEW015 BKN040 M02/ RMK SF1SC6=
CYUL;2005-12-18 18:41;SPECI CYUL 181841Z 26009KT 10SM -SHSN FEW020 FEW040 BKN055 M02/ RMK SF1SC2SC6=
CYUL;2005-12-18 19:00;METAR CYUL 181900Z 24007KT 10SM -SHSN FEW040 BKN055 M02/M06 A3029 RMK SC2SC6 SLP260=
CYUL;2005-12-18 20:00;METAR CYUL 182000Z 25007KT 10SM -SN OVC032 M02/M06 A3029 RMK SC8 SLP260=
CYUL;2005-12-18 22:00;METAR CYUL 182200Z 23008KT 10SM -SN SCT030 BKN055 M02/M05 A3028 RMK SC4SC3 SLP256=
CYUL;2005-12-18 23:00;METAR CYUL 182300Z 23010KT 10SM -SN OVC035 M02/M06 A3028 RMK SC8 SLP256=
CYUL;2005-12-19 00:00;METAR CYUL 190000Z 24009KT 10SM FEW015 OVC050 M02/M06 A3026 RMK SF1SC8 SLP249=
CYUL;2005-12-19 02:00;METAR CYUL 190200Z 23009KT 12SM FEW015 BKN040 BKN055 M03/M06 A3022 RMK SF1SC5SC2 SLP235=
CYUL;2005-12-19 03:00;METAR CYUL 190300Z 24007KT 12SM FEW015 SCT040 BKN055 M03/M06 A3019 RMK SF1SC3SC4 SLP227=
CYUL;2005-12-19 04:00;METAR CYUL 190400Z 25013KT 15SM FEW040 OVC060 M03/M05 A3018 RMK SC2SC5 SLP221=
CYUL;2005-12-19 05:21;SPECI CYUL 190521Z 25009G15KT 12SM -SN SCT030 OVC060 M03/ RMK SC3SC5=
CYUL;2005-12-19 06:00;METAR CYUL 190600Z 25011KT 12SM -SN OVC045 M04/M07 A3014 RMK SC7 SLP207=
CYUL;2005-12-19 07:00;METAR CYUL 190700Z 24010KT 12SM -SN FEW030 OVC075 M05/M07 A3013 RMK SC2AC5 SLP206=
CYUL;2005-12-19 08:00;METAR CYUL 190800Z 23008KT 4SM -SN SCT030 OVC052 M05/M07 A3011 RMK SC4SC4 SLP200=
CYUL;2005-12-19 09:00;METAR CYUL 190900Z 23010KT 4SM -SN SCT030 OVC060 M05/M07 A3009 RMK SC3SC5 SLP193=
CYUL;2005-12-19 10:00;METAR CYUL 191000Z 23009KT 2 1/2SM -SN BKN012 OVC025 M06/M07 A3008 RMK SF6SC2 SLP187=
CYUL;2005-12-19 10:07;SPECI CYUL 191007Z 24011KT 1 1/2SM -SN OVC016 M06/ RMK SN3SC5=
CYUL;2005-12-19 11:00;METAR CYUL 191100Z 24009KT 2 1/2SM -SN FEW011 OVC020 M06/M08 A3007 RMK SF1SC8 SLP186=
CYUL;2005-12-19 12:00;METAR CYUL 191200Z 24011KT 4SM -SN FEW011 OVC018 M06/M08 A3007 RMK SF1SC8 SLP185=
CYUL;2005-12-19 12:50;SPECI CYUL 191250Z 24011G16KT 8SM FEW011 OVC017 M06/ RMK SF1SC8=
CYUL;2005-12-19 13:00;METAR CYUL 191300Z 25014KT 10SM FEW011 OVC019 M07/M09 A3008 RMK SF1SC8 SLP187=
CYUL;2005-12-19 14:00;METAR CYUL 191400Z 25012KT 10SM FEW011 M07/M10 A3007 RMK SF2 SLP186=
CYUL;2005-12-19 15:00;METAR CYUL 191500Z 25013KT 15SM FEW012 FEW020 FEW180 M07/M10 A3007 RMK CF1SC2AC1 SLP186=
CYUL;2005-12-19 16:00;METAR CYUL 191600Z 25013KT 15SM FEW015 SCT075 M07/M10 A3005 RMK CF1AC3 SLP178=
CYUL;2005-12-19 17:00;METAR CYUL 191700Z 23012KT 15SM FEW025 FEW180 M06/M10 A3001 RMK SC1AC1 SLP165=
CYUL;2005-12-19 18:00;METAR CYUL 191800Z 23015KT 15SM FEW015 FEW020 FEW180 M06/M10 A2998 RMK SF1SC1AC1 SLP154=
CYUL;2005-12-19 19:00;METAR CYUL 191900Z 25020KT 15SM FEW015 FEW028 M05/M10 A2995 RMK CF1SC1 CU EMBD SLP146=
CYUL;2005-12-19 20:00;METAR CYUL 192000Z 25017KT 15SM FEW025 FEW180 M05/M11 A2994 RMK SC1AC1 SLP142=
CYUL;2005-12-19 21:00;METAR CYUL 192100Z 25014G20KT 15SM FEW025 SCT140 M05/M11 A2993 RMK SC1AC3 SLP138=
CYUL;2005-12-19 22:00;METAR CYUL 192200Z 23015KT 15SM FEW025 BKN130 M05/M10 A2992 RMK SC1AC5 SLP133=
CYUL;2005-12-19 23:00;METAR CYUL 192300Z 24021G26KT 15SM SCT140 M04/M08 A2988 RMK AC4 SLP122=
CYUL;2005-12-20 00:00;METAR CYUL 200000Z 24021G26KT 15SM SCT035 M03/M08 A2986 RMK SC3 SLP115=
CYUL;2005-12-20 01:00;METAR CYUL 200100Z 24018G30KT 15SM SCT036 M03/M07 A2984 RMK SC3 SLP109=
CYUL;2005-12-20 02:00;METAR CYUL 200200Z 24024G30KT 15SM FEW035 FEW160 M04/M08 A2983 RMK SC2AC1 SLP104=
CYUL;2005-12-20 03:00;METAR CYUL 200300Z 24018G28KT 15SM FEW035 BKN120 M04/M08 A2983 RMK SF1AC6 SLP104=
CYUL;2005-12-20 04:00;METAR CYUL 200400Z 25017G22KT 15SM FEW020 BKN040 BKN150 M04/M09 A2983 RMK SF1SC5AC1 SLP105=
CYUL;2005-12-20 05:00;METAR CYUL 200500Z 24016G22KT 15SM BKN040 OVC120 M04/M09 A2983 RMK SC6AC1 SLP105=
CYUL;2005-12-20 06:00;METAR CYUL 200600Z 24021G32KT 15SM OVC050 M04/M09 A2982 RMK SC8 SLP100=
CYUL;2005-12-20 07:00;METAR CYUL 200700Z 24019G26KT 15SM DRSN SCT030 BKN053 M04/M08 A2982 RMK SC3SC4 SLP101=
CYUL;2005-12-20 08:00;METAR CYUL 200800Z 24018G27KT 15SM DRSN BKN033 M04/M08 A2982 RMK SC7 SLP101=
CYUL;2005-12-20 09:00;METAR CYUL 200900Z 25020G26KT 15SM -SN DRSN BKN032 OVC053 M04/M08 A2980 RMK SC6SC2 SLP094=
CYUL;2005-12-20 09:21;SPECI CYUL 200921Z 25018G25KT 2 1/2SM -SN DRSN BKN020 OVC033 M04/ RMK SC6SC2=
CYUL;2005-12-20 10:00;METAR CYUL 201000Z 25017G24KT 1 1/2SM -SN DRSN BKN011 OVC025 M04/M06 A2980 RMK SF6SC2 SLP094=
CYUL;2005-12-20 10:30;SPECI CYUL 201030Z 25017G24KT 1 1/4SM -SN DRSN BKN009 OVC025 M04/ RMK SF6SC2=
CYUL;2005-12-20 11:00;METAR CYUL 201100Z 25015G21KT 1 1/4SM -SN DRSN OVC017 M05/M06 A2981 RMK SN3SC5 SLP096=
CYUL;2005-12-20 12:00;METAR CYUL 201200Z 25016KT 1 1/2SM -SN DRSN SCT013 OVC030 M04/M06 A2981 RMK SF3SC5 SLP098=
CYUL;2005-12-20 12:16;SPECI CYUL 201216Z 25014G21KT 4SM -SN DRSN FEW015 BKN030 OVC070 M04/ RMK SF2SC4AC2=
CYUL;2005-12-20 12:33;SPECI CYUL 201233Z 25012G18KT 8SM DRSN FEW018 BKN030 OVC070 M04/ RMK SF1SC5AC2=
CYUL;2005-12-20 13:00;METAR CYUL 201300Z 25012KT 15SM FEW020 BKN028 OVC090 M04/M07 A2982 RMK SC1SC5AC3 SLP100=
CYUL;2005-12-20 14:00;METAR CYUL 201400Z 24015KT 15SM OVC025 M04/M07 A2983 RMK SC8 SLP103=
CYUL;2005-12-20 14:38;SPECI CYUL 201438Z 25016KT 15SM -SN OVC025 M04/ RMK SC8=
CYUL;2005-12-20 15:00;METAR CYUL 201500Z 25014KT 15SM -SN OVC024 M04/M07 A2984 RMK SC8 SLP106=
CYUL;2005-12-20 16:00;METAR CYUL 201600Z 27010G17KT 2SM -SN OVC022 M04/M07 A2984 RMK SN2SC6 SLP106=
CYUL;2005-12-20 16:14;SPECI CYUL 201614Z 27011KT 1SM -SN OVC022 M04/ RMK SN2SC6=
CYUL;2005-12-20 16:30;SPECI CYUL 201630Z 27011KT 1 3/4SM -SN OVC028 M04/ RMK SN2SC6=
CYUL;2005-12-20 18:00;METAR CYUL 201800Z 25011KT 15SM -SN FEW018 FEW045 BKN058 M04/M07 A2983 RMK SF1SC1SC6 SLP103=
CYUL;2005-12-20 18:42;SPECI CYUL 201842Z 27012KT 1 1/2SM -SN SCT022 OVC032 M04/ RMK SN2SC2SC4=
CYUL;2005-12-20 19:00;METAR CYUL 201900Z 30009KT 15SM -SN FEW017 OVC025 M04/M07 A2984 RMK SF2SC6 SLP109=
CYUL;2005-12-20 19:41;SPECI CYUL 201941Z 29013KT 15SM FEW015 SCT062 BKN086 M04/ RMK SF1SC3AS2=
CYUL;2005-12-20 20:00;METAR CYUL 202000Z 29012KT 15SM FEW015 BKN060 BKN088 M04/M10 A2987 RMK SF1SC6AS1 SLP118=
CYUL;2005-12-20 21:00;METAR CYUL 202100Z 31011KT 15SM FEW015 FEW030 SCT094 M05/M11 A2990 RMK SF1SC2AC2 SLP129=
CYUL;2005-12-20 22:00;METAR CYUL 202200Z 28007KT 15SM FEW018 FEW030 FEW090 M08/M13 A2994 RMK SF1SC1AC1 VIRGA SLP141=
CYUL;2005-12-20 23:00;METAR CYUL 202300Z 30007KT 15SM FEW030 M08/M13 A2998 RMK SC1 SLP153=
CYUL;2005-12-21 00:00;METAR CYUL 210000Z 31006KT 15SM FEW025 M10/M15 A3001 RMK SF1 SLP166=
CYUL;2005-12-21 01:00;METAR CYUL 210100Z 30007KT 15SM SKC M11/M16 A3005 RMK SLP177=
CYUL;2005-12-21 02:00;METAR CYUL 210200Z 30007KT 15SM SKC M12/M17 A3007 RMK SLP185=
CYUL;2005-12-21 03:00;METAR CYUL 210300Z 31007KT 15SM FEW150 M14/M19 A3009 RMK AC1 SLP194=
CYUL;2005-12-21 04:00;METAR CYUL 210400Z 32005KT 15SM FEW150 M16/M20 A3011 RMK AC1 SLP199=
CYUL;2005-12-21 05:00;METAR CYUL 210500Z 29004KT 15SM FEW150 M16/M20 A3012 RMK AC1 SLP202=
CYUL;2005-12-21 06:00;METAR CYUL 210600Z 00000KT 15SM FEW150 M15/M19 A3013 RMK AC1 SLP205=
CYUL;2005-12-21 07:00;METAR CYUL 210700Z 00000KT 15SM FEW120 M16/M20 A3015 RMK AC1 SLP213=
CYUL;2005-12-21 08:00;METAR CYUL 210800Z 00000KT 15SM FEW020 M17/M20 A3015 RMK CF1 SLP214=
CYUL;2005-12-21 09:00;METAR CYUL 210900Z 00000KT 15SM FEW020 M19/M21 A3015 RMK CF1 SLP212=
CYUL;2005-12-21 10:00;METAR CYUL 211000Z 27002KT 15SM FEW015 SCT240 M19/M22 A3015 RMK CF1CI1 SLP213=
CYUL;2005-12-21 11:00;METAR CYUL 211100Z 00000KT 15SM FEW240 M17/M19 A3016 RMK CI1 SLP215=
CYUL;2005-12-21 12:00;METAR CYUL 211200Z 23002KT 15SM FEW240 M18/M20 A3016 RMK CI0 FG OVR STLAWR SLP215=
CYUL;2005-12-21 13:00;METAR CYUL 211300Z 27002KT 30SM BKN240 M19/M20 A3015 RMK CI2 FG OVR STLAWR SLP213=
CYUL;2005-12-21 13:40;SPECI CYUL 211340Z 23003KT 15SM FEW002 BKN240 M17/ RMK SF1CI2=
CYUL;2005-12-21 14:00;METAR CYUL 211400Z 25002KT 15SM FEW003 FEW170 BKN240 M16/M19 A3014 RMK SF1AC1CI2 SLP210=
CYUL;2005-12-21 14:48;SPECI CYUL 211448Z 25002KT 15SM -SHSN FEW005 FEW140 BKN240 M15/ RMK SF1AC1CI2=
CYUL;2005-12-21 15:00;METAR CYUL 211500Z 18002KT 10SM -SHSN SCT006 BKN012 BKN240 M14/M17 A3012 RMK SF4SC1CI1 SLP204=
CYUL;2005-12-21 15:24;SPECI CYUL 211524Z 16009KT 10SM -SHSN FEW008 SCT140 BKN210 M14/ RMK SF2AC2CI1=
CYUL;2005-12-21 15:46;SPECI CYUL 211546Z 18006KT 10SM VCSH FEW008 SCT120 BKN210 M14/ RMK SF1AC2CI2=
CYUL;2005-12-21 16:00;METAR CYUL 211600Z 18007KT 10SM FEW010 BKN120 BKN210 M14/M16 A3010 RMK SC1AC4CI2 SLP197=
CYUL;2005-12-21 18:00;METAR CYUL 211800Z 12006KT 15SM BKN065 OVC130 M12/M16 A3000 RMK SC6AC2 SLP164=
CYUL;2005-12-21 18:40;SPECI CYUL 211840Z 14006KT 10SM -SN BKN035 OVC080 M11/ RMK SC6AC2=
CYUL;2005-12-21 19:00;METAR CYUL 211900Z 14007KT 10SM -SN BKN035 OVC070 M11/M14 A2997 RMK SC6AC2 SLP152=
CYUL;2005-12-21 20:00;METAR CYUL 212000Z 13006KT 10SM -SN BKN032 OVC070 M09/M13 A2994 RMK SC7AC1 SLP143=
CYUL;2005-12-21 20:45;SPECI CYUL 212045Z 15007KT 15SM BKN027 OVC050 M08/ RMK SC7SC1=
CYUL;2005-12-21 21:00;METAR CYUL 212100Z 15008KT 15SM OVC026 M08/M12 A2993 RMK SC8 SLP138=
CYUL;2005-12-21 21:10;SPECI CYUL 212110Z 16012KT 10SM -SN OVC027 M07/ RMK SC8=
CYUL;2005-12-21 22:00;METAR CYUL 212200Z 17008KT 2SM -SN BKN014 OVC027 M07/M10 A2991 RMK SC6SC2 SLP133=
CYUL;2005-12-21 22:40;SPECI CYUL 212240Z 17009KT 1 1/4SM -SN VV011 M07/ RMK SN8=
CYUL;2005-12-21 23:00;METAR CYUL 212300Z 18009KT 1SM R24R/P6000FT/D R24L/P6000FT/D -SN VV009 M07/M08 A2990 RMK SN8 SLP130=
CYUL;2005-12-21 23:26;SPECI CYUL 212326Z 20007KT 1 1/2SM -SN BKN010 OVC018 M06/ RMK SN3SF4SC1=
CYUL;2005-12-22 00:00;METAR CYUL 220000Z 25006KT 1 1/2SM -SN OVC011 M06/M07 A2991 RMK SC8 /S01/ SLP131=
CYUL;2005-12-22 00:20;SPECI CYUL 220020Z 34009KT 1SM R24R/P6000FT/D R24L/P6000FT/D -SN VV011 M08/ RMK SN8=
CYUL;2005-12-22 00:38;SPECI CYUL 220038Z 35013KT 3/4SM R06L/P6000FT/D R06R/3000V4500FT/N -SN VV006 M10/ RMK SN8=
CYUL;2005-12-22 01:00;METAR CYUL 220100Z 35007KT 1SM R06L/P6000FT/U R06R/3500VP6000FT/U -SN VV009 M11/M13 A2993 RMK SN8 /S01/ SLP140=
CYUL;2005-12-22 01:06;SPECI CYUL 220106Z 36008KT 3SM -SN SCT012 BKN025 OVC057 M11/ RMK SF3SC2SC2=
CYUL;2005-12-22 01:43;SPECI CYUL 220143Z 31003KT 10SM SCT035 BKN060 BKN120 M13/ RMK SC3SC2AC1=
CYUL;2005-12-22 03:00;METAR CYUL 220300Z 30005KT 15SM BKN065 M14/M16 A2998 RMK SC5 SLP154=
CYUL;2005-12-22 04:00;METAR CYUL 220400Z 28008KT 15SM FEW060 M13/M15 A3001 RMK SC1 SLP165=
CYUL;2005-12-22 05:00;METAR CYUL 220500Z 27008KT 15SM FEW070 M13/M15 A3004 RMK AC1 SLP176=
CYUL;2005-12-22 06:00;METAR CYUL 220600Z 26009KT 15SM BKN150 M13/M15 A3008 RMK AC6 SLP188=
CYUL;2005-12-22 08:00;METAR CYUL 220800Z 26009KT 15SM FEW170 M14/M17 A3012 RMK AC2 SLP203=
CYUL;2005-12-22 09:00;METAR CYUL 220900Z 25007KT 15SM FEW240 M15/M18 A3012 RMK CI1 SLP204=
CYUL;2005-12-22 10:00;METAR CYUL 221000Z 25007KT 15SM FEW008 FEW220 M15/M18 A3013 RMK SF1CI1 SLP205=
CYUL;2005-12-22 11:00;METAR CYUL 221100Z 26003KT 15SM FEW008 FEW220 M17/M19 A3013 RMK SF1CI1 SLP205=
CYUL;2005-12-22 12:00;METAR CYUL 221200Z 24005KT 30SM FEW005 FEW220 M15/M18 A3013 RMK SF1CI0 SLP206=
CYUL;2005-12-22 13:00;METAR CYUL 221300Z 20006KT 30SM FEW005 SCT220 M15/M17 A3014 RMK SF1CI1 SLP208=
CYUL;2005-12-22 14:00;METAR CYUL 221400Z 24004KT 15SM FEW005 SCT035 BKN220 M13/M16 A3013 RMK SF1SC2CI2 SLP205=
CYUL;2005-12-22 14:14;SPECI CYUL 221414Z 23003KT 15SM -SHSN FEW005 SCT040 BKN220 M12/ RMK SF1SC3CI2=
CYUL;2005-12-22 15:00;METAR CYUL 221500Z 24005KT 12SM -SHSN FEW007 SCT040 OVC210 M12/M14 A3011 RMK SF1SC4CI2 SLP201=
CYUL;2005-12-22 16:00;METAR CYUL 221600Z 23005KT 8SM -SHSN FEW030 OVC050 M10/M12 A3007 RMK SC2SC6 SLP187=
CYUL;2005-12-22 17:00;METAR CYUL 221700Z 13005KT 8SM -SHSN BKN027 OVC050 M10/M13 A3003 RMK SC6SC2 SLP172=
CYUL;2005-12-22 18:00;METAR CYUL 221800Z 13007KT 2SM -SN OVC015 M09/M12 A2998 RMK SN2SC6 SLP157=
CYUL;2005-12-22 18:10;SPECI CYUL 221810Z 15007KT 1 1/4SM -SN OVC018 M09/ RMK SN3SC5=
CYUL;2005-12-22 18:16;SPECI CYUL 221816Z 14007KT 3SM -SN OVC020 M09/ RMK SN2SC6=
CYUL;2005-12-22 18:50;SPECI CYUL 221850Z 16005KT 2 1/2SM -SN OVC020 M08/ RMK SN3SC5=
CYUL;2005-12-22 19:00;METAR CYUL 221900Z 16005KT 2 1/2SM -SN BKN018 OVC035 M08/M10 A2996 RMK SN2SC5SC1 SLP148=
CYUL;2005-12-22 19:25;SPECI CYUL 221925Z 16006KT 4SM -SN FEW018 OVC030 M07/ RMK SC2SC6=
CYUL;2005-12-22 20:00;METAR CYUL 222000Z 16010KT 8SM -SN OVC027 M06/M08 A2992 RMK SC8 SLP136=
CYUL;2005-12-22 21:00;METAR CYUL 222100Z 16008KT 10SM -SN OVC018 M05/M07 A2990 RMK SC8 SLP130=
CYUL;2005-12-22 22:00;METAR CYUL 222200Z 17010KT 10SM -SN OVC020 M04/M06 A2989 RMK SC8 SLP124=
CYUL;2005-12-22 23:00;METAR CYUL 222300Z 22017G22KT 10SM DRSN OVC020 M01/M04 A2986 RMK SC8 SLP114=
CYUL;2005-12-23 00:00;METAR CYUL 230000Z 22017G24KT 10SM DRSN OVC027 M01/M04 A2984 RMK SC8 SLP108=
CYUL;2005-12-23 01:00;METAR CYUL 230100Z 22016G21KT 10SM DRSN BKN030 OVC075 M01/M04 A2982 RMK SC6AC2 SLP099=
CYUL;2005-12-23 02:00;METAR CYUL 230200Z 22013KT 10SM DRSN BKN035 OVC070 M01/M04 A2979 RMK SC7AC1 SLP092=
CYUL;2005-12-23 02:10;SPECI CYUL 230210Z 21012KT 8SM -SN DRSN OVC034 M00/ RMK SC8=
CYUL;2005-12-23 03:00;METAR CYUL 230300Z 23010KT 7SM -SN OVC032 M00/M04 A2979 RMK SC8 SLP090=
CYUL;2005-12-23 04:00;METAR CYUL 230400Z 23012G17KT 8SM -SN OVC033 M00/M03 A2978 RMK SC8 SLP088=
CYUL;2005-12-23 04:41;SPECI CYUL 230441Z 22012KT 10SM OVC032 M00/ RMK SC8=
CYUL;2005-12-23 05:00;METAR CYUL 230500Z 22012KT 10SM -SN OVC032 M00/M03 A2976 RMK SC8 -SN INTMT SLP079=
CYUL;2005-12-23 05:48;SPECI CYUL 230548Z 23017KT 10SM OVC030 00/ RMK SC8=
CYUL;2005-12-23 06:00;METAR CYUL 230600Z 23014G19KT 10SM -SN OVC030 00/M03 A2974 RMK SC8 -SN INTMT SLP075=
CYUL;2005-12-23 06:17;SPECI CYUL 230617Z 23021G30KT 1 3/4SM -SN OVC018 00/ RMK SC8 -SN INTMT=
CYUL;2005-12-23 06:30;SPECI CYUL 230630Z 23014KT 6SM -SN OVC030 00/ RMK SC8 -SN INTMT=
CYUL;2005-12-23 07:00;METAR CYUL 230700Z 23012KT 10SM OVC027 00/M03 A2975 RMK SC8 SLP077=
CYUL;2005-12-23 08:26;SPECI CYUL 230826Z 23017KT 4SM -SHSN OVC025 01/ RMK SC8=
CYUL;2005-12-23 10:00;METAR CYUL 231000Z 24016KT 4SM -SN BR FEW018 OVC028 01/M01 A2975 RMK SC2SC6 SLP075=
CYUL;2005-12-23 10:34;SPECI CYUL 231034Z 23016G24KT 8SM OVC022 01/ RMK SC8=
CYUL;2005-12-23 11:00;METAR CYUL 231100Z 23017KT 6SM -SHSN BR FEW015 OVC022 01/M00 A2975 RMK ST2SC6 SLP076=
CYUL;2005-12-23 11:25;SPECI CYUL 231125Z 23016G21KT 7SM FEW015 OVC028 02/ RMK ST2SC6=
CYUL;2005-12-23 12:00;METAR CYUL 231200Z 24012G20KT 8SM OVC025 02/M00 A2976 RMK SC8 SLP080=
CYUL;2005-12-23 13:00;METAR CYUL 231300Z 24013KT 8SM OVC023 02/M00 A2978 RMK SC8 SLP085=
CYUL;2005-12-23 14:00;METAR CYUL 231400Z 24012KT 8SM OVC020 02/00 A2980 RMK SC8 SLP094=
CYUL;2005-12-23 15:00;METAR CYUL 231500Z 25008KT 6SM BR OVC017 02/01 A2982 RMK SC8 SLP098=
CYUL;2005-12-23 15:40;SPECI CYUL 231540Z 23007KT 3SM -DZ BR OVC019 02/ RMK ST8=
CYUL;2005-12-23 16:00;METAR CYUL 231600Z 23007KT 3SM -DZ BR OVC017 02/01 A2981 RMK ST8 SLP097=
CYUL;2005-12-23 16:22;SPECI CYUL 231622Z 23008KT 2 1/2SM -DZ BR OVC014 02/ RMK ST8=
CYUL;2005-12-23 17:00;METAR CYUL 231700Z 23007KT 3SM -DZ BR OVC014 02/01 A2979 RMK ST8 SLP089=
CYUL;2005-12-23 17:24;SPECI CYUL 231724Z 22007KT 3SM -DZ BR BKN009 OVC014 02/ RMK SF6ST2=
CYUL;2005-12-23 18:00;METAR CYUL 231800Z 23007KT 2 1/2SM -DZ BR BKN010 OVC016 02/02 A2978 RMK SF5ST3 SLP085=
CYUL;2005-12-23 18:38;SPECI CYUL 231838Z 23004KT 3SM -DZ BR FEW010 OVC015 02/ RMK SF2ST6=
CYUL;2005-12-23 19:00;METAR CYUL 231900Z 21005KT 3SM -DZ BR BKN014 OVC019 02/01 A2977 RMK SF6ST2 SLP082=
CYUL;2005-12-23 19:20;SPECI CYUL 231920Z 21005KT 4SM -DZ BR FEW014 OVC018 02/ RMK SF2ST6=
CYUL;2005-12-23 20:00;METAR CYUL 232000Z 21004KT 5SM -DZ BR OVC018 02/01 A2978 RMK ST8 SLP085=
CYUL;2005-12-23 20:20;SPECI CYUL 232020Z 20005KT 5SM BR OVC022 02/ RMK SC8=
CYUL;2005-12-23 21:00;METAR CYUL 232100Z 19005KT 5SM BR OVC028 02/01 A2978 RMK SC8 SLP087=
CYUL;2005-12-23 22:00;METAR CYUL 232200Z 18004KT 5SM -DZ BR OVC028 02/01 A2978 RMK SC8 SLP087=
CYUL;2005-12-23 22:10;SPECI CYUL 232210Z 18005KT 4SM -RADZ BR BKN018 OVC028 02/ RMK SC6SC2=
CYUL;2005-12-23 22:35;SPECI CYUL 232235Z 19007KT 4SM -RA BR BKN013 OVC022 02/ RMK SC5SC3=
CYUL;2005-12-23 22:50;SPECI CYUL 232250Z 21008KT 4SM -RA BR BKN009 OVC022 02/ RMK SF6SC2=
CYUL;2005-12-23 23:00;METAR CYUL 232300Z 21008KT 4SM -RA BR BKN008 OVC015 02/01 A2978 RMK SF6SC2 SLP085=
CYUL;2005-12-23 23:07;SPECI CYUL 232307Z 19008KT 3SM -RASN BR OVC009 01/ RMK SF8=
CYUL;2005-12-23 23:32;SPECI CYUL 232332Z 19008KT 2SM -RASN BR OVC009 01/ RMK SF8=
CYUL;2005-12-23 23:45;SPECI CYUL 232345Z 18005KT 1 1/4SM -RASN BR OVC008 01/ RMK SF8=
CYUL;2005-12-24 00:00;METAR CYUL 240000Z 18005KT 1 1/4SM -RASN BR OVC006 01/01 A2978 RMK SF8 SLP085=
CYUL;2005-12-24 00:28;SPECI CYUL 240028Z 18005KT 1 1/2SM -DZSN BR OVC006 01/ RMK SF8=
CYUL;2005-12-24 00:48;SPECI CYUL 240048Z 16005KT 1 1/4SM -SN BR OVC005 01/ RMK SF8=
CYUL;2005-12-24 01:26;SPECI CYUL 240126Z 17004KT 3/4SM R24R/P6000FT/D R24L/P6000FT/D -SN BR VV003 00/ RMK SN8=
CYUL;2005-12-24 01:34;SPECI CYUL 240134Z 17007KT 1SM R24R/P6000FT/U R24L/P6000FT/U -SN BR VV003 01/ RMK SN8=
CYUL;2005-12-24 01:45;SPECI CYUL 240145Z 18008KT 1 1/2SM -SN BR VV004 01/ RMK SN8=
CYUL;2005-12-24 02:00;METAR CYUL 240200Z 17007KT 3/4SM R24R/P6000FT/D R24L/P6000FT/D -SN BR VV003 01/01 A2977 RMK SN8 SLP084=
CYUL;2005-12-24 02:15;SPECI CYUL 240215Z 17006KT 1SM R24R/P6000FT/U R24L/P6000FT/U -SN BR VV003 01/ RMK SN8=
CYUL;2005-12-24 02:25;SPECI CYUL 240225Z 18006KT 1 3/4SM -SN BR BKN004 OVC010 01/ RMK SN3SF3SC2=
CYUL;2005-12-24 02:35;SPECI CYUL 240235Z 17007KT 2SM -SN BR SCT004 OVC008 01/ RMK SN2SF2SF5=
CYUL;2005-12-24 03:00;METAR CYUL 240300Z 16007KT 2 1/2SM -SN BR FEW004 OVC010 01/01 A2975 RMK SF2ST6 SLP077=
CYUL;2005-12-24 03:09;SPECI CYUL 240309Z 16007KT 2 1/4SM -SN BR FEW003 OVC008 01/ RMK SF2ST6=
CYUL;2005-12-24 04:00;METAR CYUL 240400Z 17006KT 1 1/4SM -SN BR BKN002 OVC009 00/00 A2974 RMK ST6ST2 SLP074=
CYUL;2005-12-24 04:24;SPECI CYUL 240424Z 17006KT 1 1/2SM -SN BR SCT002 OVC009 00/ RMK ST3ST5=
CYUL;2005-12-24 04:41;SPECI CYUL 240441Z 16007KT 1 1/4SM -SN BR BKN003 OVC008 00/ RMK ST5ST3=
CYUL;2005-12-24 05:00;METAR CYUL 240500Z 16007KT 1 3/4SM -SN BR FEW003 OVC007 00/00 A2972 RMK SF2ST6 SLP067=
CYUL;2005-12-24 07:00;METAR CYUL 240700Z 16005KT 2 1/2SM -SN BR OVC005 01/01 A2972 RMK ST8 SLP066=
CYUL;2005-12-24 07:28;SPECI CYUL 240728Z 22008KT 2 1/2SM -SN BR OVC004 01/ RMK ST8=
CYUL;2005-12-24 08:00;METAR CYUL 240800Z 23009KT 3SM BR OVC005 01/01 A2974 RMK ST8 SLP073=
CYUL;2005-12-24 08:45;SPECI CYUL 240845Z 26009KT 3SM BR SCT005 OVC013 01/ RMK SF4ST4=
CYUL;2005-12-24 10:00;METAR CYUL 241000Z 27008KT 4SM BR FEW006 OVC013 01/01 A2978 RMK SF2ST6 SLP087=
CYUL;2005-12-24 11:00;METAR CYUL 241100Z 26006KT 4SM BR FEW006 OVC011 01/01 A2981 RMK SF2ST6 SLP096=
CYUL;2005-12-24 12:00;METAR CYUL 241200Z 27006KT 5SM BR FEW008 OVC013 01/00 A2983 RMK SF2ST6 SLP104=
CYUL;2005-12-24 12:42;SPECI CYUL 241242Z 24007KT 10SM OVC015 01/ RMK SC8=
CYUL;2005-12-24 13:00;METAR CYUL 241300Z 24006KT 10SM OVC016 01/00 A2985 RMK SC8 SLP109=
CYUL;2005-12-24 14:00;METAR CYUL 241400Z 23006KT 15SM OVC017 01/00 A2988 RMK SC8 SLP120=
CYUL;2005-12-24 15:00;METAR CYUL 241500Z 23007KT 15SM OVC020 02/00 A2989 RMK SC8 SLP123=
CYUL;2005-12-24 16:00;METAR CYUL 241600Z 23011KT 15SM OVC026 02/00 A2989 RMK SC8 SLP123=
CYUL;2005-12-24 17:00;METAR CYUL 241700Z 27005KT 15SM OVC026 02/00 A2988 RMK SC8 SLP120=
CYUL;2005-12-24 18:00;METAR CYUL 241800Z 26006KT 15SM OVC022 02/00 A2987 RMK SC8 SLP117=
CYUL;2005-12-24 19:00;METAR CYUL 241900Z 21004KT 15SM BKN027 OVC050 02/00 A2988 RMK SC6SC2 SLP120=
CYUL;2005-12-24 20:00;METAR CYUL 242000Z 21004KT 15SM BKN025 OVC040 02/01 A2989 RMK SC7SC1 SLP124=
CYUL;2005-12-24 21:00;METAR CYUL 242100Z 24003KT 12SM OVC020 02/01 A2991 RMK SC8 SLP130=
CYUL;2005-12-24 22:00;METAR CYUL 242200Z 17003KT 12SM OVC028 01/00 A2991 RMK SC8 SLP131=
CYUL;2005-12-24 23:00;METAR CYUL 242300Z 16002KT 12SM BKN021 OVC045 01/00 A2992 RMK SC6SC2 SLP133=
CYUL;2005-12-25 00:00;METAR CYUL 250000Z 13003KT 10SM BKN021 OVC040 01/01 A2992 RMK SC6SC2 SLP134=
CYUL;2005-12-25 01:00;METAR CYUL 250100Z 13003KT 6SM BR FEW020 BKN075 OVC130 02/01 A2992 RMK SC2AC4AC2 SLP134=
CYUL;2005-12-25 02:00;METAR CYUL 250200Z 11002KT 3SM BR BKN016 BKN030 OVC070 02/01 A2992 RMK SC5SC2AC2 SLP134=
CYUL;2005-12-25 02:25;SPECI CYUL 250225Z 08002KT 2 1/2SM BR BKN016 OVC030 02/ RMK SC5SC3=
CYUL;2005-12-25 03:50;SPECI CYUL 250350Z 07002KT 2 1/2SM -RA BR OVC016 01/ RMK SC8=
CYUL;2005-12-25 04:00;METAR CYUL 250400Z 08003KT 2 1/2SM -RA BR OVC017 02/01 A2991 RMK SC8 SLP130=
CYUL;2005-12-25 05:00;METAR CYUL 250500Z 08003KT 2 1/2SM -RA BR OVC017 02/01 A2990 RMK SC8 SLP125=
CYUL;2005-12-25 06:00;METAR CYUL 250600Z 07003KT 2 1/2SM -RA BR OVC098 02/01 A2988 RMK AS8 SLP120=
CYUL;2005-12-25 07:00;METAR CYUL 250700Z 05006KT 2 1/2SM -RA BR OVC091 02/01 A2988 RMK AS8 SLP120=
CYUL;2005-12-25 09:00;METAR CYUL 250900Z 05009KT 2 1/2SM -RA BR FEW015 OVC034 01/00 A2987 RMK SF1SC8 SLP115=
CYUL;2005-12-25 10:00;METAR CYUL 251000Z 05010KT 2 1/2SM -RA BR BKN034 OVC055 01/00 A2984 RMK SC7SC1 SLP107=
CYUL;2005-12-25 11:00;METAR CYUL 251100Z 05010KT 2 1/2SM -RA BR OVC030 01/00 A2983 RMK SC8 SLP104=
CYUL;2005-12-25 12:00;METAR CYUL 251200Z 04009KT 2 1/2SM -RA BR FEW004 OVC013 01/00 A2983 RMK SF2ST6 SLP104=
CYUL;2005-12-25 12:35;SPECI CYUL 251235Z 04011KT 1 1/4SM -RA BR FEW004 OVC024 01/ RMK SF2ST6=
CYUL;2005-12-25 12:49;SPECI CYUL 251249Z 03011KT 1 1/4SM -RA BR OVC004 01/ RMK ST8=
CYUL;2005-12-25 13:00;METAR CYUL 251300Z 03010KT 1 1/4SM -RA BR OVC004 01/00 A2983 RMK ST8 SLP102=
CYUL;2005-12-25 14:00;METAR CYUL 251400Z 03010KT 1 1/4SM -RA BR OVC004 01/00 A2983 RMK ST8 /R02/ SLP103=
CYUL;2005-12-25 14:33;SPECI CYUL 251433Z 03010KT 1 1/4SM -RA BR OVC003 01/ RMK ST8=
CYUL;2005-12-25 14:45;SPECI CYUL 251445Z 04011KT 1 1/4SM BR OVC003 01/ RMK ST8=
CYUL;2005-12-25 15:00;METAR CYUL 251500Z 03009KT 1 1/2SM BR OVC004 01/00 A2984 RMK ST8 SLP105=
CYUL;2005-12-25 15:49;SPECI CYUL 251549Z 03011KT 1 1/4SM BR OVC003 01/ RMK ST8=
CYUL;2005-12-25 16:00;METAR CYUL 251600Z 03012KT 1 1/4SM BR OVC004 01/00 A2982 RMK ST8 SLP098=
CYUL;2005-12-25 17:00;METAR CYUL 251700Z 03013KT 1 1/4SM BR OVC003 01/00 A2978 RMK ST8 SLP087=
CYUL;2005-12-25 18:00;METAR CYUL 251800Z 04012KT 1 1/4SM BR OVC003 01/00 A2977 RMK ST8 SLP083=
CYUL;2005-12-25 18:12;SPECI CYUL 251812Z 03013KT 1 1/4SM BR OVC004 01/ RMK ST8=
CYUL;2005-12-25 19:00;METAR CYUL 251900Z 04014KT 1 1/4SM -RA BR OVC004 00/M00 A2976 RMK ST8 SLP078=
CYUL;2005-12-25 20:00;METAR CYUL 252000Z 03016KT 1 1/4SM -RA BR OVC004 00/M00 A2974 RMK ST8 SLP072=
CYUL;2005-12-25 20:37;SPECI CYUL 252037Z 04016KT 1 1/2SM -RA BR OVC005 00/ RMK ST8=
CYUL;2005-12-25 21:00;METAR CYUL 252100Z 04015G20KT 1 3/4SM BR OVC005 00/M01 A2975 RMK ST8 SLP075=
CYUL;2005-12-25 22:00;METAR CYUL 252200Z 04014KT 1 3/4SM BR OVC006 00/M01 A2974 RMK ST8 SLP072=
CYUL;2005-12-25 22:40;SPECI CYUL 252240Z 03017KT 1 1/2SM -RA BR BKN006 OVC030 M00/ RMK ST6SC2=
CYUL;2005-12-25 23:19;SPECI CYUL 252319Z 04018KT 1 1/2SM -RA BR SCT006 OVC025 M00/ RMK SF3SC5=
CYUL;2005-12-25 23:41;SPECI CYUL 252341Z 04017KT 1 1/2SM -FZRA BR FEW006 OVC032 M00/ RMK SF2SC6=
CYUL;2005-12-26 00:00;METAR CYUL 260000Z 04016KT 2SM -FZRA BR FEW006 OVC035 M00/M01 A2971 RMK SF2SC6 SLP062=
CYUL;2005-12-26 00:49;SPECI CYUL 260049Z 04015KT 2SM -FZRA BR FEW004 OVC032 M00/ RMK SF2SC6=
CYUL;2005-12-26 01:00;METAR CYUL 260100Z 04014KT 2SM -FZRA BR SCT004 OVC028 M00/M01 A2968 RMK SF3SC5 SLP053=
CYUL;2005-12-26 02:00;METAR CYUL 260200Z 04013KT 1 1/2SM -FZRA BR SCT005 OVC018 00/M01 A2966 RMK SF3SC5 SLP047=
CYUL;2005-12-26 02:26;SPECI CYUL 260226Z 04011KT 1 1/2SM -SN -FZRA BR SCT005 OVC018 00/ RMK SF3SC5=
CYUL;2005-12-26 02:35;SPECI CYUL 260235Z 04012KT 1 1/2SM -SN -FZRA BR BKN005 OVC028 00/ RMK SF5SC3=
CYUL;2005-12-26 02:45;SPECI CYUL 260245Z 04012KT 1 1/4SM -SN BR BKN005 OVC028 00/ RMK SF5SC3=
CYUL;2005-12-26 03:20;SPECI CYUL 260320Z 03011KT 3/4SM -SN BR VV006 M00/ RMK SN8=
CYUL;2005-12-26 04:00;METAR CYUL 260400Z 04012KT 3/4SM R06R/6000FT/N R06L/6000FT/U -SN BR VV004 M01/M01 A2961 RMK SN8 /S01/ SLP030=
CYUL;2005-12-26 04:42;SPECI CYUL 260442Z 02009KT 1SM R06R/6000FT/N R06L/6000FT/N -SN BR VV006 M01/ RMK SN8=
CYUL;2005-12-26 05:33;SPECI CYUL 260533Z 04015KT 1SM R06R/6000FT/D R06L/6000FT/D -SNPL BR VV006 M01/ RMK SN8=
CYUL;2005-12-26 06:00;METAR CYUL 260600Z 03012KT 1 1/4SM -SNPL BR OVC006 M01/M02 A2954 RMK NS8 SLP006=
CYUL;2005-12-26 06:45;SPECI CYUL 260645Z 04015KT 4SM -PL BR OVC006 M01/ RMK NS8=
CYUL;2005-12-26 07:50;SPECI CYUL 260750Z 03014G19KT 8SM OVC006 M02/ RMK NS8=
CYUL;2005-12-26 08:00;METAR CYUL 260800Z 03018KT 8SM OVC007 M02/M03 A2948 RMK NS8 SLP984=
CYUL;2005-12-26 09:00;METAR CYUL 260900Z 04016KT 10SM OVC007 M02/M03 A2946 RMK NS8 SLP979=
CYUL;2005-12-26 09:52;SPECI CYUL 260952Z 03015KT 10SM -FZRA OVC006 M02/ RMK NS8=
CYUL;2005-12-26 10:10;SPECI CYUL 261010Z 03015KT 2SM -PL -FZRA OVC008 M02/ RMK NS8=
CYUL;2005-12-26 11:00;METAR CYUL 261100Z 03015KT 2SM -PL -FZRA OVC008 M02/M03 A2944 RMK NS8 SLP970=
CYUL;2005-12-26 11:18;SPECI CYUL 261118Z 03012KT 3SM -PL -FZRA OVC007 M02/ RMK NS8=
CYUL;2005-12-26 12:00;METAR CYUL 261200Z 03015KT 3SM -PL -FZRA SCT006 OVC008 M02/M03 A2943 RMK SF3NS5 SLP967=
CYUL;2005-12-26 13:00;METAR CYUL 261300Z 03015G22KT 8SM SCT006 OVC009 M02/M03 A2943 RMK SC3NS5 SLP969=
CYUL;2005-12-26 14:00;METAR CYUL 261400Z 03014KT 3SM -FZRA FEW006 OVC009 M02/M03 A2943 RMK SC2NS6 SLP969=
CYUL;2005-12-26 14:29;SPECI CYUL 261429Z 03017KT 1 1/2SM -FZRA FEW006 OVC009 M02/ RMK SC2NS6=
CYUL;2005-12-26 15:12;SPECI CYUL 261512Z 03017KT 3SM BR OVC010 M02/ RMK SF8=
CYUL;2005-12-26 16:00;METAR CYUL 261600Z 03015G21KT 8SM OVC012 M01/M03 A2941 RMK SF8 SLP960=
CYUL;2005-12-26 17:00;METAR CYUL 261700Z 03017KT 15SM OVC011 M02/M03 A2940 RMK SF8 SLP957=
CYUL;2005-12-26 18:00;METAR CYUL 261800Z 03018KT 3SM DRSN BR OVC008 M02/M03 A2939 RMK SF8 SLP954=
CYUL;2005-12-26 18:26;SPECI CYUL 261826Z 02016G21KT 2SM DRSN BR OVC008 M02/ RMK SF8=
CYUL;2005-12-26 18:38;SPECI CYUL 261838Z 03018KT 1 1/2SM DRSN -FZRA BR OVC010 M02/ RMK SF8=
CYUL;2005-12-26 19:00;METAR CYUL 261900Z 02017KT 1 1/4SM DRSN -FZRA BR OVC011 M02/M04 A2940 RMK SF8 SLP958=
CYUL;2005-12-26 19:28;SPECI CYUL 261928Z 02014G20KT 1 1/4SM -SN -FZRA BR BKN015 OVC030 M02/ RMK SF6SC2=
CYUL;2005-12-26 20:00;METAR CYUL 262000Z 03018KT 1 1/4SM -SN -FZRA BR BKN016 OVC030 M02/M04 A2942 RMK SF6SC2 SLP963=
CYUL;2005-12-26 20:32;SPECI CYUL 262032Z 01016KT 1SM R06L/6000FT/D R06R/6000FT/D -SN BR OVC013 M02/ RMK SN4SF4=
CYUL;2005-12-26 21:41;SPECI CYUL 262141Z 04016G21KT 1 1/2SM -SN DRSN OVC020 M02/ RMK SC8=
CYUL;2005-12-26 22:00;METAR CYUL 262200Z 03014KT 3SM -SN BKN024 OVC040 M02/M05 A2948 RMK SC5SC3 SLP984=
CYUL;2005-12-26 22:37;SPECI CYUL 262237Z 03012KT 2SM -SN BKN014 OVC040 M03/ RMK SC6SC2=
CYUL;2005-12-26 23:00;METAR CYUL 262300Z 01009KT 2SM -SN BKN014 OVC030 M03/M05 A2950 RMK SC6SC2 SLP993=
CYUL;2005-12-27 00:00;METAR CYUL 270000Z 36011KT 2 1/2SM -SN BKN015 OVC025 M03/M05 A2954 RMK SC5SC3 SLP006=
CYUL;2005-12-27 01:23;SPECI CYUL 270123Z 36011KT 1 1/2SM -SN OVC030 M04/ RMK SN4SC4=
CYUL;2005-12-27 01:49;SPECI CYUL 270149Z 36008KT 3SM -SN OVC040 M04/ RMK SC8=
CYUL;2005-12-27 03:00;METAR CYUL 270300Z 34005KT 2 1/2SM -SN OVC042 M04/M06 A2959 RMK SC8 SLP023=
CYUL;2005-12-27 04:00;METAR CYUL 270400Z 34006KT 3SM -SN OVC044 M04/M08 A2961 RMK SC8 SLP030=
CYUL;2005-12-27 05:00;METAR CYUL 270500Z 34008KT 6SM -SN FEW015 OVC045 M04/M08 A2962 RMK SF1SC8 SLP032=
CYUL;2005-12-27 05:40;SPECI CYUL 270540Z 35008KT 10SM FEW015 OVC045 M05/ RMK SF1SC8=
CYUL;2005-12-27 08:00;METAR CYUL 270800Z 30005KT 15SM OVC058 M05/M09 A2969 RMK SC8 SLP055=
CYUL;2005-12-27 10:00;METAR CYUL 271000Z 30005KT 15SM SKC M08/M10 A2973 RMK SLP069=
CYUL;2005-12-27 12:00;METAR CYUL 271200Z 27003KT 15SM FEW040 M09/M11 A2978 RMK SC1 SLP087=
CYUL;2005-12-27 13:00;METAR CYUL 271300Z 25006KT 15SM FEW040 M09/M11 A2980 RMK SC1 SLP094=
CYUL;2005-12-27 14:00;METAR CYUL 271400Z 26007KT 15SM FEW040 M08/M11 A2983 RMK SC1 SLP104=
CYUL;2005-12-27 15:00;METAR CYUL 271500Z 26005KT 15SM FEW040 M08/M11 A2985 RMK CF1 SLP110=
CYUL;2005-12-27 16:00;METAR CYUL 271600Z 24005KT 15SM FEW040 M07/M10 A2984 RMK CF1 SLP106=
CYUL;2005-12-27 17:00;METAR CYUL 271700Z 25008KT 15SM FEW040 M06/M10 A2982 RMK CF1 SLP101=
CYUL;2005-12-27 18:00;METAR CYUL 271800Z 26008KT 15SM FEW040 M05/M09 A2981 RMK CF1 SLP098=
CYUL;2005-12-27 19:00;METAR CYUL 271900Z 27008KT 15SM FEW040 FEW150 M05/M09 A2982 RMK CF1AC1 SLP101=
CYUL;2005-12-27 20:00;METAR CYUL 272000Z 25007KT 15SM FEW040 FEW210 M05/M08 A2983 RMK CF1CI1 SLP105=
CYUL;2005-12-27 21:00;METAR CYUL 272100Z 25007KT 30SM FEW210 M05/M08 A2985 RMK CI0 SLP110=
CYUL;2005-12-27 22:00;METAR CYUL 272200Z 24007KT 15SM FEW210 M05/M09 A2986 RMK CI0 SLP113=
CYUL;2005-12-27 23:00;METAR CYUL 272300Z 26010KT 15SM FEW210 M05/M08 A2987 RMK CI1 SLP117=
CYUL;2005-12-28 00:00;METAR CYUL 280000Z 27006KT 15SM SKC M06/M08 A2989 RMK SLP124=
CYUL;2005-12-28 01:00;METAR CYUL 280100Z 27011KT 15SM SCT008 M06/M08 A2990 RMK SF3 SLP127=
CYUL;2005-12-28 01:24;SPECI CYUL 280124Z 27009KT 15SM BKN008 M06/ RMK SF6=
CYUL;2005-12-28 02:00;METAR CYUL 280200Z 26006KT 15SM OVC009 M05/M07 A2991 RMK SF8 SLP130=
CYUL;2005-12-28 02:24;SPECI CYUL 280224Z 25006KT 15SM OVC010 M05/ RMK SF8=
CYUL;2005-12-28 04:00;METAR CYUL 280400Z 26008KT 15SM OVC009 M04/M06 A2990 RMK ST8 SLP129=
CYUL;2005-12-28 05:00;METAR CYUL 280500Z 26009KT 15SM OVC008 M04/M06 A2990 RMK ST8 SLP128=
CYUL;2005-12-28 06:00;METAR CYUL 280600Z 25008KT 15SM OVC008 M04/M06 A2989 RMK ST8 SLP125=
CYUL;2005-12-28 08:00;METAR CYUL 280800Z 27004KT 15SM OVC010 M04/M05 A2990 RMK ST8 SLP126=
CYUL;2005-12-28 09:00;METAR CYUL 280900Z 28003KT 15SM OVC013 M03/M05 A2989 RMK ST8 SLP125=
CYUL;2005-12-28 10:40;SPECI CYUL 281040Z 21002KT 15SM -SN FEW012 OVC018 M03/ RMK SF1ST8=
CYUL;2005-12-28 11:00;METAR CYUL 281100Z 00000KT 10SM -SN FEW012 OVC017 M04/M05 A2989 RMK SF1ST8 SLP125=
CYUL;2005-12-28 12:00;METAR CYUL 281200Z 14002KT 10SM -SN FEW008 OVC020 M03/M04 A2989 RMK SF1ST8 SLP123=
CYUL;2005-12-28 12:30;SPECI CYUL 281230Z 15003KT 6SM BR FEW008 OVC020 M03/ RMK SF1SC8=
CYUL;2005-12-28 13:00;METAR CYUL 281300Z 14003KT 6SM BR OVC022 M04/M05 A2989 RMK SC8 SLP123=
CYUL;2005-12-28 15:00;METAR CYUL 281500Z 11004KT 6SM BR SCT021 OVC180 M03/M05 A2988 RMK SC3AC2 SLP120=
CYUL;2005-12-28 16:00;METAR CYUL 281600Z 11005KT 4SM BR OVC021 M02/M05 A2984 RMK SC6 SLP109=
CYUL;2005-12-28 17:00;METAR CYUL 281700Z 10004KT 4SM BR OVC020 M02/M04 A2981 RMK SC7 SLP098=
CYUL;2005-12-28 18:00;METAR CYUL 281800Z 08005KT 8SM FEW020 OVC065 M02/M04 A2978 RMK SC2SC6 SLP088=
CYUL;2005-12-28 19:00;METAR CYUL 281900Z 09006KT 8SM FEW014 OVC060 M02/M05 A2977 RMK SC2SC6 SLP084=
CYUL;2005-12-28 20:00;METAR CYUL 282000Z 09005KT 8SM FEW014 OVC040 M02/M05 A2976 RMK SC2SC6 SLP081=
CYUL;2005-12-28 21:00;METAR CYUL 282100Z 09004KT 8SM BKN018 OVC035 M01/M04 A2976 RMK SC6SC2 SLP082=
CYUL;2005-12-28 22:00;METAR CYUL 282200Z 05008KT 8SM BKN018 OVC035 M02/M04 A2975 RMK SC6SC2 SLP078=
CYUL;2005-12-28 23:00;METAR CYUL 282300Z 03007KT 6SM BR BKN019 OVC030 M02/M04 A2974 RMK SC6SC2 SLP073=
CYUL;2005-12-29 00:00;METAR CYUL 290000Z 04008KT 6SM BR BKN016 OVC030 M02/M04 A2971 RMK SC6SC2 SLP061=
CYUL;2005-12-29 01:00;METAR CYUL 290100Z 05011KT 6SM BR SCT018 OVC028 M02/M04 A2970 RMK SC3SC5 SLP059=
CYUL;2005-12-29 04:00;METAR CYUL 290400Z 04011KT 3SM -FZRA BR FEW015 OVC053 M02/M04 A2962 RMK SF1SC7 SLP032=
CYUL;2005-12-29 05:00;METAR CYUL 290500Z 04010KT 3SM -FZRA BR FEW040 OVC062 M02/M03 A2960 RMK SF1NS7 CLR ICE ON INDCR SLP026=
CYUL;2005-12-29 06:00;METAR CYUL 290600Z 03010KT 3SM -FZRA BR FEW035 OVC047 M02/M03 A2958 RMK SF1NS7 CLR ICE ON INDCR SLP018=
CYUL;2005-12-29 07:00;METAR CYUL 290700Z 03008KT 3SM -FZRA BR FEW040 OVC052 M02/M03 A2957 RMK SF1NS7 CLR ICE ON INDCR SLP016=
CYUL;2005-12-29 09:00;METAR CYUL 290900Z 02006KT 3SM -FZRA BR FEW028 OVC035 M01/M02 A2955 RMK SF1NS7 CLR ICE ON INDCR SLP008=
CYUL;2005-12-29 10:00;METAR CYUL 291000Z 03006KT 3SM -FZRA BR FEW022 OVC030 M00/M01 A2954 RMK ST1NS7 CLR ICE ON INDCR SLP005=
CYUL;2005-12-29 10:42;SPECI CYUL 291042Z 02007KT 3SM -FZRA BR FEW004 OVC026 M00/ RMK ST1NS7=
CYUL;2005-12-29 11:00;METAR CYUL 291100Z 02008KT 3SM -FZRA BR FEW004 OVC034 M00/M01 A2953 RMK SF2NS6 SLP002=
CYUL;2005-12-29 11:38;SPECI CYUL 291138Z 02006KT 3SM BR SCT004 OVC034 M00/ RMK SF4NS4=
CYUL;2005-12-29 12:00;METAR CYUL 291200Z 02006KT 3SM BR SCT003 OVC036 M00/M01 A2954 RMK SF4NS4 SLP004=
CYUL;2005-12-29 12:30;SPECI CYUL 291230Z 02006KT 2SM BR OVC036 M00/ RMK FG4NS4=
CYUL;2005-12-29 12:39;SPECI CYUL 291239Z 02006KT 1SM BR VV004 M00/ RMK FG8=
CYUL;2005-12-29 13:00;METAR CYUL 291300Z 02008KT 1SM BR VV004 M00/M01 A2954 RMK FG8 SLP005=
CYUL;2005-12-29 14:00;METAR CYUL 291400Z 03008KT 1SM BR OVC028 M01/M02 A2956 RMK FG5SC3 SLP011=
CYUL;2005-12-29 15:44;SPECI CYUL 291544Z 02007KT 1 3/4SM BR BKN004 OVC027 M00/ RMK ST6SC2=
CYUL;2005-12-29 16:00;METAR CYUL 291600Z 02008KT 2SM BR BKN004 OVC027 M00/M01 A2955 RMK ST6SC2 SLP009=
CYUL;2005-12-29 17:00;METAR CYUL 291700Z 05007KT 2SM BR OVC004 M00/M01 A2954 RMK ST8 SLP006=
CYUL;2005-12-29 18:00;METAR CYUL 291800Z 02006KT 1 1/2SM BR OVC004 M00/M01 A2953 RMK ST8 SLP002=
CYUL;2005-12-29 19:00;METAR CYUL 291900Z 02007KT 1 3/4SM BR OVC004 M00/M01 A2952 RMK ST8 SLP000=
CYUL;2005-12-29 20:00;METAR CYUL 292000Z 03009KT 2SM BR OVC005 M00/M01 A2952 RMK ST8 SLP000=
CYUL;2005-12-29 21:00;METAR CYUL 292100Z 02009KT 2 1/2SM BR OVC005 M00/M01 A2954 RMK ST8 SLP006=
CYUL;2005-12-29 21:18;SPECI CYUL 292118Z 03009KT 4SM BR BKN006 OVC017 00/ RMK ST6SC2=
CYUL;2005-12-29 22:00;METAR CYUL 292200Z 02012KT 4SM BR BKN007 OVC017 M00/M01 A2954 RMK ST7SC1 SLP006=
CYUL;2005-12-29 23:00;METAR CYUL 292300Z 03011KT 7SM FEW007 BKN011 OVC020 00/M01 A2955 RMK SF1SC6SC1 SLP010=
CYUL;2005-12-30 00:00;METAR CYUL 300000Z 02013KT 8SM FEW011 OVC024 00/M02 A2956 RMK SF2SC6 SLP013=
CYUL;2005-12-30 00:47;SPECI CYUL 300047Z 02011KT 5SM -DZ BR FEW015 OVC030 00/ RMK SF2SC6=
CYUL;2005-12-30 01:00;METAR CYUL 300100Z 01011KT 5SM -DZ BR FEW015 OVC030 00/M02 A2956 RMK SF2SC6 SLP012=
CYUL;2005-12-30 01:12;SPECI CYUL 300112Z 36012KT 5SM -DZPL BR FEW018 OVC030 00/ RMK SF2SC6=
CYUL;2005-12-30 01:31;SPECI CYUL 300131Z 01010KT 6SM -PL BR OVC020 00/ RMK SC8=
CYUL;2005-12-30 02:00;METAR CYUL 300200Z 36012KT 5SM -PL OVC021 M00/M03 A2956 RMK SC8 SLP013=
CYUL;2005-12-30 02:31;SPECI CYUL 300231Z 35007KT 3SM -SNPL FEW022 OVC032 M00/ RMK SC2SC6=
CYUL;2005-12-30 03:00;METAR CYUL 300300Z 36007KT 1 1/2SM -SN OVC025 M01/M02 A2958 RMK SC8 SLP018=
CYUL;2005-12-30 04:00;METAR CYUL 300400Z 36006KT 1 1/2SM -SN OVC026 M01/M03 A2957 RMK SC8 SLP016=
CYUL;2005-12-30 05:00;METAR CYUL 300500Z 36004KT 1 1/2SM -SN FEW015 OVC026 M01/M03 A2959 RMK SF1SC8 SLP021=
CYUL;2005-12-30 05:46;SPECI CYUL 300546Z 36007KT 10SM OVC026 M01/ RMK SC8=
CYUL;2005-12-30 06:00;METAR CYUL 300600Z 34005KT 10SM FEW016 OVC028 M01/M04 A2961 RMK SF1SC8 SLP028=
CYUL;2005-12-30 07:06;SPECI CYUL 300706Z 34006KT 10SM -SN FEW018 OVC030 M02/ RMK SF1SC8=
CYUL;2005-12-30 09:00;METAR CYUL 300900Z 35006KT 10SM -SN FEW020 OVC033 M03/M07 A2968 RMK SF1SC8 SLP054=
CYUL;2005-12-30 10:00;METAR CYUL 301000Z 35007KT 10SM -SN FEW020 OVC034 M03/M08 A2971 RMK SF1SC8 SLP064=
CYUL;2005-12-30 10:29;SPECI CYUL 301029Z 35007KT 10SM FEW020 OVC036 M04/ RMK SF1SC8=
CYUL;2005-12-30 11:00;METAR CYUL 301100Z 35009KT 10SM FEW020 OVC036 M04/M08 A2975 RMK SF1SC8 SLP077=
CYUL;2005-12-30 12:00;METAR CYUL 301200Z 34007KT 12SM FEW020 OVC032 M04/M09 A2978 RMK SF1SC8 SLP086=
CYUL;2005-12-30 13:00;METAR CYUL 301300Z 34007KT 15SM FEW020 OVC035 M05/M09 A2981 RMK SF1SC8 SLP096=
CYUL;2005-12-30 14:00;METAR CYUL 301400Z 35007KT 15SM FEW020 BKN036 M06/M10 A2984 RMK SF1SC7 SLP107=
CYUL;2005-12-30 15:00;METAR CYUL 301500Z 34006KT 15SM FEW020 BKN040 M06/M11 A2986 RMK CF1SC7 SLP113=
CYUL;2005-12-30 16:00;METAR CYUL 301600Z 34008KT 15SM FEW020 FEW040 M06/M12 A2986 RMK SC1SC2 SLP114=
CYUL;2005-12-30 17:00;METAR CYUL 301700Z 30004KT 15SM FEW025 FEW045 M06/M11 A2986 RMK SC1SC2 SLP114=
CYUL;2005-12-30 18:00;METAR CYUL 301800Z 29006KT 15SM FEW032 FEW045 FEW220 M05/M10 A2986 RMK CF1SC1CI1 SLP113=
CYUL;2005-12-30 19:00;METAR CYUL 301900Z 26006KT 15SM FEW035 FEW220 M05/M09 A2987 RMK SC1CI1 SLP119=
CYUL;2005-12-30 20:00;METAR CYUL 302000Z 26007KT 15SM FEW035 FEW220 M05/M10 A2990 RMK SC1CI1 SLP129=
CYUL;2005-12-30 21:00;METAR CYUL 302100Z 26008KT 15SM FEW035 FEW220 M06/M11 A2993 RMK SC1CI1 SLP137=
CYUL;2005-12-30 22:00;METAR CYUL 302200Z 26007KT 15SM FEW030 FEW220 M07/M12 A2995 RMK SC1CI1 SLP143=
CYUL;2005-12-30 23:00;METAR CYUL 302300Z 27005KT 15SM SKC M09/M12 A2997 RMK SLP152=
CYUL;2005-12-31 00:00;METAR CYUL 310000Z 00000KT 15SM SKC M10/M13 A2999 RMK SLP157=
CYUL;2005-12-31 01:00;METAR CYUL 310100Z 00000KT 15SM SKC M09/M13 A2999 RMK SLP158=
CYUL;2005-12-31 02:00;METAR CYUL 310200Z 04007KT 15SM FEW220 M09/M15 A3000 RMK CI1 SLP160=
CYUL;2005-12-31 03:00;METAR CYUL 310300Z 04008KT 15SM FEW220 M10/M16 A3001 RMK CI0 SLP166=
CYUL;2005-12-31 04:00;METAR CYUL 310400Z 04008KT 15SM FEW220 M11/M16 A3001 RMK CI0 SLP166=
CYUL;2005-12-31 05:00;METAR CYUL 310500Z 03006KT 15SM FEW220 M12/M17 A3002 RMK CI0 SLP170=
CYUL;2005-12-31 06:00;METAR CYUL 310600Z 02006KT 15SM FEW220 M13/M18 A3002 RMK CI0 SLP169=
CYUL;2005-12-31 07:00;METAR CYUL 310700Z 04006KT 15SM FEW220 M13/M18 A3004 RMK CI0 SLP176=
CYUL;2005-12-31 10:00;METAR CYUL 311000Z 06005KT 15SM FEW015 FEW025 FEW220 M13/M18 A3000 RMK SF1SC2CI0 SLP164=
CYUL;2005-12-31 11:00;METAR CYUL 311100Z 06008KT 15SM FEW025 FEW220 M14/M19 A3000 RMK SC1CI0 SLP162=
CYUL;2005-12-31 12:00;METAR CYUL 311200Z 07007KT 15SM FEW015 SCT220 M14/M19 A3001 RMK SF1CS2 CONTRAILS SLP167=
CYUL;2005-12-31 15:00;METAR CYUL 311500Z 05010KT 30SM FEW020 BKN220 M15/M19 A3002 RMK SC1CI4 CC ASOCT SLP170=
CYUL;2005-12-31 16:00;METAR CYUL 311600Z 05010KT 30SM FEW020 FEW200 BKN240 M15/M19 A2999 RMK SC1CC1CI5 SLP160=
CYUL;2005-12-31 17:00;METAR CYUL 311700Z 05013KT 30SM FEW020 SCT150 OVC220 M14/M19 A2996 RMK SC1AC3CI4 SLP149=
CYUL;2005-12-31 18:00;METAR CYUL 311800Z 05013KT 30SM FEW020 BKN120 OVC220 M14/M18 A2992 RMK SC1AS6CI1 AC ASOCT SLP137=
CYUL;2005-12-31 19:00;METAR CYUL 311900Z 02010KT 30SM BKN120 OVC220 M13/M18 A2992 RMK AS7CI0 SLP134=
CYUL;2005-12-31 21:00;METAR CYUL 312100Z 05016KT 30SM FEW020 OVC110 M12/M18 A2992 RMK SC1AS8 AC ASOCT SLP134=
CYUL;2005-12-31 22:00;METAR CYUL 312200Z 06013KT 15SM OVC120 M12/M17 A2993 RMK AS8 AC ASOCT SLP139=
