CYUL;2010-01-01 01:00;CYUL 010100Z 03007KT 10SM FEW011 OVC055 M04/M07 A3004 RMK SF1SC6 SLP177

CYUL;2010-01-01 01:10;CYUL 010110Z 04007KT 10SM -SN FEW011 BKN034 OVC060 M05/ RMK SF2SC3SC2

CYUL;2010-01-01 02:00;CYUL 010200Z 03006KT 2 1/2SM -SN BKN015 BKN035 M04/M05 A3003 RMK SN1SC4SC2 SLP172

CYUL;2010-01-01 02:18;CYUL 010218Z 03007KT 3SM -SN BKN015 BKN028 M03/ RMK SN1SC4SC2

CYUL;2010-01-01 02:54;CYUL 010254Z 03006KT 3SM -SN BKN014 OVC028 M04/ RMK SN1SF6SC2

CYUL;2010-01-01 03:00;CYUL 010300Z 03006KT 3SM -SN BKN013 OVC025 M04/M05 A3002 RMK SF6SC2 SLP168

CYUL;2010-01-01 04:00;CYUL 010400Z 05007KT 3SM -SN BKN014 OVC025 M03/M05 A3000 RMK SF6ST2 SLP161

CYUL;2010-01-01 05:00;CYUL 010500Z 04006KT 3SM -SN OVC016 M04/M05 A2999 RMK ST8 SLP157

CYUL;2010-01-01 05:12;CYUL 010512Z 03006KT 2 1/4SM -SN BR OVC016 M04/ RMK ST8

CYUL;2010-01-01 05:42;CYUL 010542Z 03008KT 3SM -SN BR BKN016 OVC032 M04/ RMK SF4SC4

CYUL;2010-01-01 05:52;CYUL 010552Z 03008KT 2 1/4SM -SN BR BKN012 OVC025 M05/ RMK SF6SC2

CYUL;2010-01-01 06:00;CYUL 010600Z CCA 03008KT 1 1/4SM -SN BR BKN012 OVC023 M05/M05 A2997 RMK SF6SC2 /S01/ SLP151

CYUL;2010-01-01 06:16;CYUL 010616Z 03008KT 2 1/4SM -SN BR BKN014 OVC027 M05/ RMK SF4SC4

CYUL;2010-01-01 06:42;CYUL 010642Z 03008KT 1 1/4SM -SN BR BKN011 OVC024 M04/ RMK SF6SC2

CYUL;2010-01-01 06:49;CYUL 010649Z 03008KT 1SM R06L/P6000FT/D -SN BR BKN008 OVC020 M04/ RMK SF6SC2

CYUL;2010-01-01 07:00;CYUL 010700Z 03008KT 1SM R06L/P6000FT/U -SN BR BKN012 OVC025 M05/M05 A2997 RMK SF6SC2 SLP151

CYUL;2010-01-01 07:46;CYUL 010746Z 03009KT 3SM -SN BR BKN015 OVC025 M05/ RMK SF6SC2

CYUL;2010-01-01 08:00;CYUL 010800Z 03008KT 3SM -SN BR BKN013 OVC025 M05/M05 A2996 RMK SF6SC2 SLP148

CYUL;2010-01-01 09:00;CYUL 010900Z 03008KT 3SM -SN BR BKN014 OVC028 M05/M06 A2995 RMK SF6SC2 SLP144

CYUL;2010-01-01 10:00;CYUL 011000Z 03008KT 3SM -SN BR BKN015 OVC029 M05/M06 A2994 RMK SF6SC2 SLP140

CYUL;2010-01-01 10:46;CYUL 011046Z 03008KT 3SM -SN BR BKN011 OVC026 M05/ RMK SF6SC2

CYUL;2010-01-01 11:00;CYUL 011100Z 02008KT 3SM -SN BR BKN019 BKN030 OVC050 M05/M06 A2994 RMK SF5SC2SC1 SLP140

CYUL;2010-01-01 11:23;CYUL 011123Z 02008KT 2 1/2SM -SN BR BKN012 OVC025 M05/ RMK SF6SC2

CYUL;2010-01-01 12:00;CYUL 011200Z 02008KT 2SM -SN BR BKN014 OVC027 M05/M06 A2993 RMK SF6SC2 /S02/ SLP138

CYUL;2010-01-01 12:18;CYUL 011218Z 02007KT 1 1/4SM -SN BR BKN010 OVC024 M05/ RMK SF6SC2

CYUL;2010-01-01 13:00;CYUL 011300Z 03007KT 2 1/2SM -SN BR BKN012 OVC025 M05/M06 A2993 RMK SF6SC2 SLP138

CYUL;2010-01-01 14:00;CYUL 011400Z 03007KT 1 1/4SM -SN BR BKN013 OVC028 M05/M06 A2993 RMK SF6SC2 SLP137

CYUL;2010-01-01 14:26;CYUL 011426Z 03008KT 2 1/4SM -SN BR BKN014 OVC028 M05/ RMK SF6SC2

CYUL;2010-01-01 14:50;CYUL 011450Z 04007KT 2SM -SN BR BKN016 OVC028 M04/ RMK SF6SC2

CYUL;2010-01-01 15:00;CYUL 011500Z 04009KT 2SM -SN BR OVC015 M04/M05 A2992 RMK SN2SC6 SLP135

CYUL;2010-01-01 15:28;CYUL 011528Z 04007KT 2SM -SN BR FEW008 OVC014 M04/ RMK SN2SF1SC6

CYUL;2010-01-01 16:00;CYUL 011600Z 03007KT 2 1/2SM -SN BR FEW008 BKN014 OVC028 M04/M05 A2990 RMK SF1SC5SC2 /S01/ SLP127

CYUL;2010-01-01 16:19;CYUL 011619Z 03007KT 3SM -SN BR FEW008 BKN015 OVC035 M04/ RMK SF2SC4SC1

CYUL;2010-01-01 17:00;CYUL 011700Z 04006KT 4SM -SN BR BKN009 BKN015 OVC030 M03/M05 A2988 RMK SF5SC2SC1 SLP121

CYUL;2010-01-01 17:48;CYUL 011748Z 04008KT 2 1/2SM -SN BR BKN009 BKN015 OVC035 M03/ RMK SF4SC2SC2

CYUL;2010-01-01 18:00;CYUL 011800Z 04007KT 4SM -SN BR SCT009 BKN016 OVC045 M03/M05 A2987 RMK SF4SC2SC2 SLP116

CYUL;2010-01-01 18:40;CYUL 011840Z 03008KT 3SM -SN BR BKN009 BKN015 OVC029 M03/ RMK SF5SC2SC2

CYUL;2010-01-01 19:00;CYUL 011900Z 04009KT 4SM -SN BR BKN009 OVC030 M03/M04 A2985 RMK SF6SC2 SLP112

CYUL;2010-01-01 19:26;CYUL 011926Z 03010KT 2SM -SN BR BKN009 OVC018 M03/ RMK SF6SC2

CYUL;2010-01-01 20:00;CYUL 012000Z 02007KT 1 1/2SM -SN BR BKN009 OVC020 M03/M04 A2985 RMK SN1SF6SC1 SLP111

CYUL;2010-01-01 20:50;CYUL 012050Z 03009KT 1 1/4SM -SN BR OVC009 M03/ RMK SN2SF6

CYUL;2010-01-01 21:00;CYUL 012100Z 04007KT 1 1/4SM -SN BR OVC008 M03/M04 A2985 RMK SN2SF6 /S01/ SLP110

CYUL;2010-01-01 21:18;CYUL 012118Z 04007KT 1 1/2SM -SN BR BKN008 OVC015 M03/ RMK SN2SF6SC1

CYUL;2010-01-01 22:00;CYUL 012200Z 04006KT 1 1/2SM -SN BR BKN008 OVC014 M03/M04 A2985 RMK SN2SF6SC1 SLP109

CYUL;2010-01-01 22:50;CYUL 012250Z 05005KT 2 1/2SM -SN BR SCT007 BKN012 OVC028 M03/ RMK SF3SC2SC2

CYUL;2010-01-01 23:00;CYUL 012300Z 04005KT 2 1/2SM -SN BR SCT007 BKN014 OVC030 M03/M04 A2984 RMK SF3SC2SC3 SLP106

CYUL;2010-01-01 23:12;CYUL 012312Z 03005KT 3SM -SN BR FEW007 SCT014 OVC028 M03/ RMK SF2SC2SC4

CYUL;2010-01-01 23:33;CYUL 012333Z 03005KT 3SM -SN BR BKN008 BKN014 OVC024 M03/ RMK SF5SC1SC2

CYUL;2010-01-02 00:00;CYUL 020000Z 02004KT 2 1/2SM -SN BR BKN008 OVC018 M03/M04 A2983 RMK SF5SC3 /S02/ SLP103

CYUL;2010-01-02 00:30;CYUL 020030Z 03006KT 3SM -SN BR BKN007 OVC014 M04/ RMK SF6SC2

CYUL;2010-01-02 01:00;CYUL 020100Z 03006KT 2 1/2SM -SN BR BKN008 OVC014 M04/M04 A2982 RMK SF7SC1 SLP099

CYUL;2010-01-02 01:50;CYUL 020150Z 01006KT 3SM -SN BR SCT008 OVC014 M04/ RMK SF4SC4

CYUL;2010-01-02 02:00;CYUL 020200Z 02006KT 3SM -SN BR SCT008 OVC014 M04/M04 A2980 RMK SF4SC4 /S01/ SLP094

CYUL;2010-01-02 02:22;CYUL 020222Z 01005KT 3SM -SN FEW008 OVC016 M04/ RMK SF2SC6

CYUL;2010-01-02 03:00;CYUL 020300Z 01005KT 2 1/2SM -SN BR FEW010 OVC017 M04/M05 A2978 RMK SF2SC6 SLP088

CYUL;2010-01-02 03:23;CYUL 020323Z 36004KT 3SM -SN BR FEW006 OVC016 M04/ RMK SF2SC6

CYUL;2010-01-02 04:00;CYUL 020400Z 01006KT 3SM -SN BR FEW008 OVC017 M04/M05 A2977 RMK SF1SC7 SLP085

CYUL;2010-01-02 05:00;CYUL 020500Z 36005KT 3SM -SN BR SCT007 OVC020 M04/M05 A2976 RMK SF2SC6 SLP081

CYUL;2010-01-02 05:28;CYUL 020528Z 36005KT 4SM -SN BR SCT007 OVC023 M04/ RMK SF2SC6

CYUL;2010-01-02 06:00;CYUL 020600Z 34004KT 8SM -SN FEW008 OVC024 M04/M05 A2975 RMK SF2SC6 SLP075

CYUL;2010-01-02 06:28;CYUL 020628Z 34004KT 8SM -SN BKN011 OVC025 M04/ RMK SF5SC3

CYUL;2010-01-02 07:00;CYUL 020700Z 34004KT 6SM -SN BKN009 OVC014 M04/M05 A2975 RMK SF6SC2 SLP076

CYUL;2010-01-02 07:38;CYUL 020738Z 35005KT 6SM -SN SCT009 OVC018 M04/ RMK SF2SC6

CYUL;2010-01-02 08:00;CYUL 020800Z 35004KT 6SM -SN BKN009 OVC016 M04/M05 A2975 RMK SF5SC3 SLP076

CYUL;2010-01-02 09:00;CYUL 020900Z 34006KT 8SM -SN SCT009 BKN014 OVC024 M04/M05 A2974 RMK SF2SC2SC5 SLP074

CYUL;2010-01-02 10:00;CYUL 021000Z 35006KT 8SM -SN FEW009 BKN017 OVC025 M04/M05 A2974 RMK SF2SC6SC1 SLP073

CYUL;2010-01-02 11:00;CYUL 021100Z 35006KT 8SM -SN BKN009 OVC020 M05/M06 A2974 RMK SF3SC5 SLP074

CYUL;2010-01-02 11:12;CYUL 021112Z 36006KT 3SM -SN BR BKN009 OVC018 M05/ RMK SF4SC4

CYUL;2010-01-02 12:00;CYUL 021200Z 34007KT 3SM -SN BR BKN012 OVC017 M05/M06 A2975 RMK SF4SC4 /S01/ SLP075

CYUL;2010-01-02 13:00;CYUL 021300Z 33006KT 3SM -SN BR SCT011 OVC018 M05/M06 A2975 RMK SF3SC5 SLP076

CYUL;2010-01-02 14:00;CYUL 021400Z 33005KT 2 1/4SM -SN BR SCT011 BKN016 OVC028 M05/M06 A2976 RMK SF2SC5SC1 SLP080

CYUL;2010-01-02 14:38;CYUL 021438Z 34005KT 3SM -SN BR SCT011 BKN016 OVC022 M05/ RMK SF2SC5SC2

CYUL;2010-01-02 14:45;CYUL 021445Z 35006KT 4SM -SN BR SCT011 BKN017 OVC022 M05/ RMK SF2SC5SC2

CYUL;2010-01-02 15:00;CYUL 021500Z 35004KT 4SM -SN BR BKN013 OVC019 M05/M06 A2976 RMK SF6SC2 SLP081

CYUL;2010-01-02 16:00;CYUL 021600Z 34004KT 5SM -SN BR BKN014 OVC018 M05/M06 A2975 RMK SC5SC3 /S01/ SLP076

CYUL;2010-01-02 17:00;CYUL 021700Z 26009KT 4SM -SN BR BKN014 OVC018 M08/M09 A2975 RMK SC6SC2 SLP075

CYUL;2010-01-02 17:08;CYUL 021708Z 26008KT 2 1/2SM -SN BR BKN014 OVC018 M08/ RMK SC6SC2

CYUL;2010-01-02 17:30;CYUL 021730Z 26011KT 1 1/2SM -SN BR FEW009 OVC014 M08/ RMK SF2SC6

CYUL;2010-01-02 18:00;CYUL 021800Z 25009KT 1 1/2SM -SN BR OVC014 M09/M10 A2975 RMK SN2SC6 SLP075

CYUL;2010-01-02 18:45;CYUL 021845Z 22005KT 3SM -SN BR OVC014 M09/ RMK SN1SC7

CYUL;2010-01-02 19:00;CYUL 021900Z 23010KT 2SM -SN BR OVC014 M09/M11 A2975 RMK SN2SC6 SLP078

CYUL;2010-01-02 19:23;CYUL 021923Z 24013KT 3SM -SN BR OVC015 M10/ RMK SN1SC7

CYUL;2010-01-02 19:46;CYUL 021946Z 24013KT 2SM -SN BR OVC015 M10/ RMK SN3SC5

CYUL;2010-01-02 20:00;CYUL 022000Z 25012KT 1 1/4SM -SN BR VV010 M10/M12 A2975 RMK SN8 /S01/ SLP077

CYUL;2010-01-02 20:12;CYUL 022012Z 24012KT 1 1/2SM -SN BR VV013 M10/ RMK SN8

CYUL;2010-01-02 20:22;CYUL 022022Z 24012KT 2 1/2SM -SN BR OVC017 M10/ RMK SN3SC5

CYUL;2010-01-02 20:35;CYUL 022035Z 24014KT 3SM -SN BR OVC018 M10/ RMK SN1SC7

CYUL;2010-01-02 21:00;CYUL 022100Z 24016KT 3SM -SN BR OVC020 M10/M12 A2975 RMK SN2SC6 SLP077

CYUL;2010-01-02 22:00;CYUL 022200Z 25012KT 3SM -SN BR OVC018 M11/M13 A2974 RMK SN2SC6 SLP074

CYUL;2010-01-02 23:00;CYUL 022300Z 25013KT 4SM -SN DRSN BKN020 OVC030 M11/M13 A2973 RMK SC6SC2 SLP069

CYUL;2010-01-03 00:00;CYUL 030000Z 26012KT 6SM -SN DRSN FEW020 OVC034 M11/M13 A2972 RMK SC2SC6 SLP067

CYUL;2010-01-03 01:00;CYUL 030100Z 27016KT 8SM -SN DRSN BKN030 OVC050 M10/M12 A2968 RMK SC6SC2 SLP053

CYUL;2010-01-03 02:00;CYUL 030200Z 27014KT 7SM -SN DRSN BKN030 OVC050 M10/M12 A2965 RMK SC6SC2 SLP044

CYUL;2010-01-03 02:46;CYUL 030246Z 27014KT 2 1/2SM -SN DRSN BKN014 OVC028 M10/ RMK SC6SC2

CYUL;2010-01-03 03:00;CYUL 030300Z 27014KT 1 1/4SM -SN BR BKN009 OVC024 M10/M12 A2963 RMK SF6SC2 SLP037

CYUL;2010-01-03 03:12;CYUL 030312Z 26014G19KT 3/4SM R24R/P6000FT/D -SN BR BKN007 OVC018 M10/ RMK SF6SC2

CYUL;2010-01-03 03:29;CYUL 030329Z 27017KT 1SM R24R/P6000FT/U -SN DRSN BKN008 OVC021 M11/ RMK SF6SC2

CYUL;2010-01-03 03:54;CYUL 030354Z 27016KT 3/4SM R24R/P6000FT/N -SN DRSN BKN007 OVC021 M11/ RMK SF6SC2

CYUL;2010-01-03 04:00;CYUL 030400Z 27016KT 3/4SM R24R/P6000FT/N -SN DRSN BKN007 OVC019 M11/M12 A2961 RMK SF6SC2 SLP030

CYUL;2010-01-03 04:21;CYUL 030421Z 27016KT 5/8SM R24R/P6000FT/D -SN DRSN BKN006 OVC016 M11/ RMK SF6SC2

CYUL;2010-01-03 04:27;CYUL 030427Z 27015G20KT 3/4SM R24R/P6000FT/U -SN DRSN BKN007 OVC021 M11/ RMK SF6SC2

CYUL;2010-01-03 04:36;CYUL 030436Z 27015G20KT 1 1/4SM -SN DRSN BKN009 OVC022 M11/ RMK SF6SC2

CYUL;2010-01-03 04:41;CYUL 030441Z 27016KT 2SM -SN DRSN BKN012 BKN022 OVC040 M11/ RMK SF5SC2SC1

CYUL;2010-01-03 04:48;CYUL 030448Z 27016KT 3SM -SN DRSN BKN012 BKN020 OVC034 M11/ RMK SF3SC4SC1

CYUL;2010-01-03 05:00;CYUL 030500Z 27015KT 4SM -SN DRSN SCT012 BKN022 OVC042 M11/M12 A2955 RMK SF2SC5SC2 PRESFR SLP010

CYUL;2010-01-03 05:42;CYUL 030542Z 27018KT 2 1/2SM -SN DRSN BKN012 OVC027 M11/ RMK SF6SC2

CYUL;2010-01-03 06:00;CYUL 030600Z 26018G24KT 1 1/4SM -SN DRSN BKN008 OVC022 M11/M13 A2951 RMK SF6SC2 /S02/ SLP996

CYUL;2010-01-03 06:26;CYUL 030626Z 27019G25KT 3/4SM R24R/P6000FT/D -SN DRSN BKN009 OVC022 M11/ RMK SF6SC2

CYUL;2010-01-03 06:55;CYUL 030655Z 26016G21KT 5/8SM R24R/P6000FT/D -SN DRSN BKN005 OVC015 M12/ RMK SF6SC2

CYUL;2010-01-03 07:00;CYUL 030700Z 27016KT 5/8SM -SN DRSN BKN005 OVC015 M11/M13 A2949 RMK SF5SC3 SLP990

CYUL;2010-01-03 08:00;CYUL 030800Z 27015KT 5/8SM -SN DRSN BKN003 OVC012 M12/M13 A2948 RMK SF5SC3 /S01/ SLP987

CYUL;2010-01-03 08:09;CYUL 030809Z 27016KT 5/8SM R24R/6000FT/U -SN DRSN BKN004 OVC013 M12/ RMK SF5SC3

CYUL;2010-01-03 09:00;CYUL 030900Z CCA 27016G21KT 3/4SM R24R/P6000FT/D -SN DRSN BKN007 OVC020 M12/M13 A2946 RMK SF6SC2 SLP979

CYUL;2010-01-03 10:00;CYUL 031000Z 27015KT 2SM -SN DRSN SCT012 OVC028 M12/M13 A2945 RMK SF2SC6 SLP977

CYUL;2010-01-03 11:00;CYUL 031100Z 26017KT 3SM -SN DRSN SCT012 OVC025 M11/M13 A2945 RMK SF2SC6 SLP975

CYUL;2010-01-03 12:00;CYUL 031200Z 26013G19KT 6SM -SN DRSN OVC025 M11/M13 A2945 RMK SC8 /S04/ SLP974

CYUL;2010-01-03 13:00;CYUL 031300Z 25013KT 4SM -SN DRSN SCT017 OVC027 M11/M12 A2946 RMK SC2SC6 SLP978

CYUL;2010-01-03 13:12;CYUL 031312Z 25014KT 3SM -SN DRSN SCT017 OVC035 M11/ RMK SC2SC6

CYUL;2010-01-03 13:51;CYUL 031351Z 25014KT 3SM -SN DRSN BKN012 OVC025 M10/ RMK SC5SC3

CYUL;2010-01-03 14:00;CYUL 031400Z 25013KT 3SM -SN DRSN BKN011 OVC026 M10/M12 A2947 RMK SF5SC3 SLP981

CYUL;2010-01-03 14:15;CYUL 031415Z 25013KT 1 1/2SM -SN DRSN BKN011 OVC023 M10/ RMK SF6SC2

CYUL;2010-01-03 14:37;CYUL 031437Z 25014KT 1SM R24R/5500FT/D -SN DRSN BKN009 OVC021 M10/ RMK SF6SC2

CYUL;2010-01-03 15:00;CYUL 031500Z 25014KT 1SM R24R/6000FT/N -SN DRSN VV009 M09/M11 A2948 RMK SN8 /S01/ SLP985

CYUL;2010-01-03 16:00;CYUL 031600Z 23014KT 1SM R24R/P6000FT/D -SN DRSN VV010 M09/M10 A2948 RMK SN8 SLP986

CYUL;2010-01-03 16:25;CYUL 031625Z 25014KT 3/4SM R24R/4500V5500FT/D -SN DRSN VV008 M09/ RMK SN8

CYUL;2010-01-03 16:39;CYUL 031639Z 24013KT 1SM R24R/5500FT/N -SN DRSN VV009 M09/ RMK SN8

CYUL;2010-01-03 16:49;CYUL 031649Z 24015KT 3/4SM R24R/5000FT/D -SN DRSN VV008 M08/ RMK SN8

CYUL;2010-01-03 17:00;CYUL 031700Z 24013KT 3/4SM R24R/4500FT/U -SN DRSN VV009 M09/M10 A2948 RMK SN8 SLP987

CYUL;2010-01-03 17:15;CYUL 031715Z 24011KT 1SM R24R/6000FT/U -SN DRSN VV009 M08/ RMK SN8

CYUL;2010-01-03 17:36;CYUL 031736Z 23011KT 3/4SM R24R/5500FT/D -SN DRSN VV008 M08/ RMK SN8

CYUL;2010-01-03 17:46;CYUL 031746Z 23012KT 5/8SM R24R/4500FT/D -SN DRSN VV006 M08/ RMK SN8

CYUL;2010-01-03 18:00;CYUL 031800Z 22012KT 5/8SM R24R/3500V5500FT/D -SN DRSN VV006 M08/M09 A2948 RMK SN8 /S02/ SLP987

CYUL;2010-01-03 18:23;CYUL 031823Z 23010KT 3/4SM R24R/5500FT/D -SN DRSN VV008 M07/ RMK SN8

CYUL;2010-01-03 18:34;CYUL 031834Z 22011KT 1SM R24R/5500FT/N -SN DRSN VV010 M07/ RMK SN8

CYUL;2010-01-03 19:00;CYUL 031900Z 23013KT 1SM R24R/6000FT/D -SN DRSN VV010 M07/M08 A2950 RMK SN8 SLP993

CYUL;2010-01-03 19:08;CYUL 031908Z 23012KT 3/4SM R24R/5000FT/N -SN DRSN VV010 M07/ RMK SN8

CYUL;2010-01-03 20:00;CYUL 032000Z 23014KT 3/4SM R24R/5500FT/N -SN DRSN VV011 M07/M08 A2953 RMK SN8 /S01/ SLP001

CYUL;2010-01-03 20:35;CYUL 032035Z 23012KT 5/8SM R24R/4500FT/D -SN DRSN VV008 M06/ RMK SN8

CYUL;2010-01-03 21:00;CYUL 032100Z 23010KT 1SM R24R/6000FT/U -SN DRSN VV009 M06/M07 A2955 RMK SN8 SLP009

CYUL;2010-01-03 21:36;CYUL 032136Z 24011KT 3/4SM R24R/P6000FT/N -SN DRSN VV009 M06/ RMK SN8

CYUL;2010-01-03 21:48;CYUL 032148Z 24011KT 1SM R24R/P6000FT/U -SN DRSN VV009 M06/ RMK SN8

CYUL;2010-01-03 22:00;CYUL 032200Z 23010KT 1SM R24R/P6000FT/D -SN DRSN VV009 M06/M07 A2957 RMK SN8 /S02/ SLP015

CYUL;2010-01-03 22:06;CYUL 032206Z 23011KT 1 1/4SM -SN DRSN OVC010 M06/ RMK SN3SC5

CYUL;2010-01-03 22:26;CYUL 032226Z 23010KT 1SM R24R/P6000FT/D -SN DRSN VV009 M06/ RMK SN8

CYUL;2010-01-03 23:00;CYUL 032300Z 23007KT 2 1/2SM -SN DRSN BKN009 OVC030 M06/M06 A2959 RMK SN1SC6SC1 SLP022

CYUL;2010-01-03 23:07;CYUL 032307Z 23008KT 4SM -SN DRSN BKN009 OVC030 M05/ RMK SF6SC2

CYUL;2010-01-03 23:30;CYUL 032330Z 23010KT 10SM -SN DRSN SCT009 BKN020 OVC035 M05/ RMK SF4SC2SC2

CYUL;2010-01-04 00:00;CYUL 040000Z 23010KT 10SM -SN DRSN FEW008 BKN025 OVC040 M05/M06 A2960 RMK SF2SC4SC2 /S04/ SLP027

CYUL;2010-01-04 00:40;CYUL 040040Z 25011KT 15SM DRSN FEW009 BKN026 OVC044 M05/ RMK SF1SC6SC2

CYUL;2010-01-04 01:00;CYUL 040100Z 23010KT 15SM DRSN FEW010 BKN028 OVC045 M05/M07 A2961 RMK SF1SC6SC2 SLP030

CYUL;2010-01-04 02:00;CYUL 040200Z 23011KT 15SM DRSN FEW020 BKN035 OVC046 M05/M07 A2961 RMK SC2SC4SC2 SLP029

CYUL;2010-01-04 03:00;CYUL 040300Z 25011KT 15SM DRSN FEW020 BKN025 BKN055 M05/M07 A2962 RMK SF1SC6SC1 SLP032

CYUL;2010-01-04 04:00;CYUL 040400Z 24012KT 15SM BKN028 BKN049 M05/M07 A2962 RMK SC5SC2 SLP034

CYUL;2010-01-04 05:00;CYUL 040500Z 24008KT 15SM BKN025 BKN050 M05/M07 A2963 RMK SC6SC2 SLP036

CYUL;2010-01-04 06:00;CYUL 040600Z 26013KT 15SM SCT025 BKN055 M05/M07 A2962 RMK SC2SC2 SLP034

CYUL;2010-01-04 07:00;CYUL 040700Z 27012KT 15SM BKN023 BKN060 M06/M08 A2964 RMK SC6SC1 SLP040

CYUL;2010-01-04 08:00;CYUL 040800Z 27012KT 15SM BKN021 M07/M09 A2964 RMK SC7 SLP041

CYUL;2010-01-04 09:00;CYUL 040900Z 27014KT 15SM FEW025 BKN055 M08/M10 A2965 RMK SC1SC2 SLP042

CYUL;2010-01-04 10:00;CYUL 041000Z 27013KT 15SM FEW025 BKN050 M08/M10 A2965 RMK SC2SC5 SLP044

CYUL;2010-01-04 11:00;CYUL 041100Z 27012KT 15SM FEW025 OVC055 M08/M11 A2966 RMK SC2SC6 SLP047

CYUL;2010-01-04 12:00;CYUL 041200Z 26012KT 15SM SCT030 M08/M11 A2968 RMK SC3 SLP054

CYUL;2010-01-04 13:00;CYUL 041300Z 26012KT 15SM FEW015 BKN030 M09/M11 A2970 RMK SF1SC6 SLP060

CYUL;2010-01-04 14:00;CYUL 041400Z 26016KT 15SM -SN OVC023 M08/M11 A2971 RMK SC8 SLP062

CYUL;2010-01-04 15:00;CYUL 041500Z 26016KT 15SM -SHSN FEW017 OVC025 M08/M10 A2971 RMK SC1SC7 SLP062

CYUL;2010-01-04 15:47;CYUL 041547Z 25015KT 15SM FEW016 BKN025 OVC035 M08/ RMK SC1SC6SC2

CYUL;2010-01-04 16:00;CYUL 041600Z 26014KT 15SM FEW016 OVC027 M08/M10 A2971 RMK SC2SC6 SLP062

CYUL;2010-01-04 17:00;CYUL 041700Z 27013G18KT 15SM BKN025 OVC046 M08/M11 A2969 RMK SC6SC2 SLP058

CYUL;2010-01-04 18:00;CYUL 041800Z 26014G19KT 15SM FEW018 BKN027 OVC047 M07/M10 A2969 RMK SC2SC2SC2 SLP056

CYUL;2010-01-04 19:00;CYUL 041900Z 24014KT 15SM FEW018 BKN029 BKN050 M07/M10 A2969 RMK SC2SC4SC2 SLP057

CYUL;2010-01-04 20:00;CYUL 042000Z 25013KT 15SM BKN024 BKN050 OVC090 M07/M10 A2970 RMK SC5SC2AS2 SLP060

CYUL;2010-01-04 20:15;CYUL 042015Z 25013KT 15SM -SHSN BKN024 OVC050 M07/ RMK SC6SC2

CYUL;2010-01-04 21:00;CYUL 042100Z 24013KT 6SM -SN FEW013 BKN020 OVC035 M07/M09 A2972 RMK SC2SC4SC2 SLP066

CYUL;2010-01-04 22:00;CYUL 042200Z 24015KT 15SM -SN FEW013 BKN024 OVC055 M07/M09 A2972 RMK SC2SC4SC2 -SN INTMT SLP067

CYUL;2010-01-04 22:32;CYUL 042232Z 25016KT 15SM FEW009 BKN020 OVC050 M08/ RMK SF2SC4SC2

CYUL;2010-01-04 23:00;CYUL 042300Z 25015KT 15SM SCT009 OVC020 M08/M10 A2974 RMK SF3SC5 SLP074

CYUL;2010-01-05 00:00;CYUL 050000Z 25016KT 15SM FEW009 BKN020 OVC035 M08/M10 A2975 RMK SF2SC4SC2 SLP076

CYUL;2010-01-05 01:00;CYUL 050100Z 25013KT 15SM FEW010 BKN024 OVC050 M08/M10 A2974 RMK SF1SC6SC2 SLP075

CYUL;2010-01-05 01:32;CYUL 050132Z 25011KT 15SM -SN FEW010 BKN024 OVC050 M08/ RMK SF1SC6SC1

CYUL;2010-01-05 02:00;CYUL 050200Z 25011KT 15SM -SN FEW015 OVC025 M08/M10 A2975 RMK SC1SC7 SLP076

CYUL;2010-01-05 03:00;CYUL 050300Z 24013KT 15SM -SN FEW015 OVC021 M08/M09 A2974 RMK SF2SC6 SLP073

CYUL;2010-01-05 03:29;CYUL 050329Z 24014KT 15SM -SN FEW008 OVC020 M08/ RMK SF2SC6

CYUL;2010-01-05 04:00;CYUL 050400Z 24014KT 15SM -SN FEW007 OVC022 M08/M09 A2973 RMK SF2SC6 SLP071

CYUL;2010-01-05 04:13;CYUL 050413Z 25013KT 15SM -SN FEW007 BKN014 OVC025 M08/ RMK SF2SC4SC2

CYUL;2010-01-05 04:31;CYUL 050431Z 25013KT 10SM -SN -FZDZ FEW007 OVC010 M08/ RMK SF2SC6

CYUL;2010-01-05 04:40;CYUL 050440Z 24011G16KT 4SM -SN -FZDZ BKN009 OVC025 M08/ RMK SF6SC2

CYUL;2010-01-05 04:52;CYUL 050452Z 25011KT 6SM -SN -FZDZ BKN012 OVC023 M08/ RMK SF6SC2

CYUL;2010-01-05 05:00;CYUL 050500Z 25010KT 6SM -SN -FZDZ SCT012 BKN023 OVC090 M08/M09 A2972 RMK SF3SC2AS2 SLP067

CYUL;2010-01-05 05:24;CYUL 050524Z 24012KT 6SM -SN FEW012 BKN040 OVC090 M08/ RMK SF2SC4AS2 REFZDZ

CYUL;2010-01-05 06:00;CYUL 050600Z 25013KT 15SM -SN FEW010 BKN045 OVC100 M08/M09 A2972 RMK SF1SC6AS1 REFZDZ SLP066

CYUL;2010-01-05 07:00;CYUL 050700Z 24014KT 12SM -SN FEW010 BKN030 OVC090 M08/M09 A2972 RMK SF1SC5AS1 SLP066

CYUL;2010-01-05 08:00;CYUL 050800Z 25012G17KT 12SM -SN FEW010 BKN022 OVC052 M08/M09 A2972 RMK SF1SC6SC2 SLP067

CYUL;2010-01-05 09:00;CYUL 050900Z 25013KT 12SM -SN BKN030 OVC060 M08/M10 A2971 RMK SC6SC2 SLP063

CYUL;2010-01-05 09:31;CYUL 050931Z 25011KT 6SM -SN BKN013 OVC028 M08/ RMK SC6SC2

CYUL;2010-01-05 10:00;CYUL 051000Z 25011KT 3SM -SN BKN009 OVC026 M08/M10 A2970 RMK SF6SC2 SLP061

CYUL;2010-01-05 10:27;CYUL 051027Z 24010G15KT 2 1/2SM -SN BKN011 OVC025 M08/ RMK SF6SC2

CYUL;2010-01-05 11:00;CYUL 051100Z 25011KT 2SM -SN BKN009 OVC025 M08/M10 A2971 RMK SF6SC2 SLP064

CYUL;2010-01-05 11:33;CYUL 051133Z 24013KT 2 1/2SM -SN BKN013 OVC028 M08/ RMK SF6SC2

CYUL;2010-01-05 12:00;CYUL 051200Z 25013KT 4SM -SN SCT012 OVC038 M08/M10 A2971 RMK SF3SC5 /S01/ SLP064

CYUL;2010-01-05 12:35;CYUL 051235Z 24013KT 2 1/2SM -SN BKN015 OVC035 M09/ RMK SF5SC3

CYUL;2010-01-05 13:00;CYUL 051300Z 24014KT 3SM -SN SCT015 OVC030 M09/M10 A2972 RMK SF3SC5 SLP065

CYUL;2010-01-05 13:53;CYUL 051353Z 25016KT 8SM FEW015 OVC026 M09/ RMK SF2SC6

CYUL;2010-01-05 14:00;CYUL 051400Z 25014KT 10SM FEW015 BKN027 OVC040 M09/M11 A2972 RMK SF1SC6SC2 SLP067

CYUL;2010-01-05 14:26;CYUL 051426Z 25013KT 15SM -SN FEW015 OVC023 M08/ RMK SF1SC8 -SN INTMT

CYUL;2010-01-05 15:00;CYUL 051500Z CCA 24014KT 15SM -SN FEW013 OVC020 M08/M10 A2972 RMK SF1SC7 SLP065

CYUL;2010-01-05 16:00;CYUL 051600Z 24012KT 6SM -SN BR BKN012 OVC018 M08/M10 A2971 RMK SC6SC2 SLP062

CYUL;2010-01-05 16:13;CYUL 051613Z 23014KT 7SM -SN -FZDZ BKN011 OVC017 M08/ RMK SC6SC2

CYUL;2010-01-05 17:00;CYUL 051700Z 24016KT 8SM -FZDZ BKN010 OVC016 M08/M09 A2968 RMK SF6SC2 SLP053

CYUL;2010-01-05 17:36;CYUL 051736Z 25012G18KT 15SM FEW010 OVC014 M07/ REFZDZ RMK SF2SC6

CYUL;2010-01-05 18:00;CYUL 051800Z 25015KT 15SM FEW010 OVC014 M07/M09 A2967 REFZDZ RMK SF1SC7 SLP050

CYUL;2010-01-05 18:05;CYUL 051805Z 25012G19KT 15SM -SN FEW010 OVC014 M07/ RMK SF1SC7 VRY LGT SN

CYUL;2010-01-05 19:00;CYUL 051900Z 24015KT 10SM -SN OVC014 OVC020 M07/M09 A2967 RMK SC6SC2 SLP049

CYUL;2010-01-05 20:00;CYUL 052000Z 25013KT 8SM -SN OVC013 M07/M09 A2967 RMK SC8 SLP050

CYUL;2010-01-05 20:06;CYUL 052006Z 25014KT 8SM -FZDZ OVC013 M07/ RMK SC8

CYUL;2010-01-05 20:32;CYUL 052032Z 24012KT 3SM -FZDZ FEW008 OVC011 M07/ RMK SF2SC6

CYUL;2010-01-05 21:00;CYUL 052100Z 24012KT 3SM -FZDZ OVC009 M07/M08 A2968 RMK SF8 SLP053

CYUL;2010-01-05 21:32;CYUL 052132Z 24011KT 2 1/2SM -FZDZ OVC008 M07/ RMK SF8

CYUL;2010-01-05 22:00;CYUL 052200Z 25012KT 3SM -FZDZ OVC007 M07/M07 A2968 RMK ST8 SLP054

CYUL;2010-01-05 23:00;CYUL 052300Z 24011KT 3SM -FZDZ OVC007 M06/M07 A2969 RMK ST8 SLP056

CYUL;2010-01-06 00:00;CYUL 060000Z 24011KT 8SM -SN -FZDZ OVC007 M06/M07 A2968 RMK ST8 SLP053

CYUL;2010-01-06 00:24;CYUL 060024Z 25011KT 8SM -SN OVC007 M06/ REFZDZ RMK ST8 VRY LTG SN

CYUL;2010-01-06 00:46;CYUL 060046Z 26014KT 10SM BKN007 OVC020 M06/ REFZDZ RMK SF5SC3

CYUL;2010-01-06 01:00;CYUL 060100Z 26013KT 15SM SCT007 OVC022 M06/M07 A2967 REFZDZ RMK SF4SC4 SLP050

CYUL;2010-01-06 02:00;CYUL 060200Z 27010KT 15SM -SN SCT008 OVC022 M06/M07 A2967 RMK SF3SC5 SLP051

CYUL;2010-01-06 03:00;CYUL 060300Z 25010KT 15SM -SN FEW008 OVC024 M06/M07 A2967 RMK SF2SC6 SLP049

CYUL;2010-01-06 03:22;CYUL 060322Z 26012KT 15SM FEW008 OVC023 M05/ RMK SF1SC7

CYUL;2010-01-06 04:00;CYUL 060400Z 26011KT 15SM FEW010 OVC025 M05/M06 A2966 RMK SF1SC8 SLP047

CYUL;2010-01-06 05:00;CYUL 060500Z 27011KT 15SM FEW010 OVC022 M05/M07 A2965 RMK SF1SC8 SLP044

CYUL;2010-01-06 06:00;CYUL 060600Z 27011KT 15SM FEW010 OVC022 M05/M07 A2965 RMK SF1SC8 SLP042

CYUL;2010-01-06 07:00;CYUL 060700Z 27010KT 15SM FEW010 OVC025 M05/M07 A2966 RMK SF1SC8 SLP047

CYUL;2010-01-06 07:45;CYUL 060745Z 26011KT 15SM -SHSN FEW010 OVC025 M05/ RMK SF1SC8

CYUL;2010-01-06 08:00;CYUL 060800Z 27012KT 15SM OVC026 M05/M07 A2966 RMK SC8 SLP046

CYUL;2010-01-06 09:00;CYUL 060900Z 27009KT 15SM OVC023 M05/M07 A2966 RMK SC8 SLP046

CYUL;2010-01-06 10:00;CYUL 061000Z 27008KT 15SM OVC024 M05/M07 A2966 RMK SC8 SLP046

CYUL;2010-01-06 11:00;CYUL 061100Z 28009KT 15SM OVC030 M05/M08 A2966 RMK SC7 SLP047

CYUL;2010-01-06 12:00;CYUL 061200Z 28010KT 15SM FEW030 BKN040 M06/M09 A2967 RMK SC2SC3 SLP051

CYUL;2010-01-06 13:00;CYUL 061300Z 27010G15KT 15SM -SN FEW010 OVC030 M05/M08 A2968 RMK SF1SC8 SLP054

CYUL;2010-01-06 14:00;CYUL 061400Z 27015KT 15SM -SN FEW015 OVC040 M06/M08 A2969 RMK SF1SC8 SLP058

CYUL;2010-01-06 15:00;CYUL 061500Z 27014KT 15SM -SN FEW014 BKN040 OVC065 M06/M09 A2970 RMK SC1SC6SC2 SLP059

CYUL;2010-01-06 16:00;CYUL 061600Z 27013KT 15SM FEW015 BKN040 OVC060 M05/M09 A2969 RMK CF1SC6SC1 INTMT -SN SLP055

CYUL;2010-01-06 17:00;CYUL 061700Z 27015KT 15SM -SHSN SCT016 BKN040 BKN058 M05/M08 A2966 RMK SC3SC2SC2 SLP047

CYUL;2010-01-06 18:00;CYUL 061800Z 27016G26KT 10SM -SHSN BKN016 OVC028 M05/M08 A2965 RMK SC6SC2 SLP044

CYUL;2010-01-06 19:00;CYUL 061900Z 26016G24KT 8SM -SN FEW015 BKN020 OVC030 M05/M07 A2964 RMK SC2SC5SC2 SLP041

CYUL;2010-01-06 20:00;CYUL 062000Z 26016G24KT 8SM -SN FEW016 OVC023 M05/M07 A2965 RMK SC2SC6 SLP044

CYUL;2010-01-06 20:09;CYUL 062009Z 26016KT 2 1/2SM -SN FEW015 OVC022 M05/ RMK SC2SC6

CYUL;2010-01-06 21:00;CYUL 062100Z 26015G20KT 3SM -SN BKN015 OVC030 M05/M07 A2966 RMK SC5SC2 SLP047

CYUL;2010-01-06 21:24;CYUL 062124Z 26016KT 2SM -SN BKN015 OVC030 M06/ RMK SC5SC3

CYUL;2010-01-06 22:00;CYUL 062200Z 26015G20KT 3SM -SN SCT015 OVC025 M06/M07 A2968 RMK SC3SC5 SLP053

CYUL;2010-01-06 23:00;CYUL 062300Z 26014KT 15SM -SN FEW015 OVC030 M05/M08 A2969 RMK SC1SC7 SLP057

CYUL;2010-01-07 00:00;CYUL 070000Z 26012G20KT 15SM -SN FEW015 OVC027 M06/M08 A2970 RMK SC1SC7 /S01/ SLP061

CYUL;2010-01-07 01:00;CYUL 070100Z 25012KT 15SM BKN024 BKN040 M06/M08 A2971 RMK SC6SC2 INTMT -SN SLP062

CYUL;2010-01-07 02:00;CYUL 070200Z 25015KT 15SM OVC026 M06/M09 A2972 RMK SC8 SLP067

CYUL;2010-01-07 03:00;CYUL 070300Z 25013KT 15SM FEW015 BKN024 OVC045 M06/M09 A2973 RMK SF1SC6SC2 SLP069

CYUL;2010-01-07 04:00;CYUL 070400Z 25015KT 15SM FEW015 OVC030 M06/M08 A2973 RMK SF1SC8 SLP071

CYUL;2010-01-07 04:12;CYUL 070412Z 25012KT 15SM -SN FEW015 OVC030 M06/ RMK SF1SC8

CYUL;2010-01-07 05:00;CYUL 070500Z 25012G17KT 6SM -SN OVC030 M06/M08 A2974 RMK SC8 SLP072

CYUL;2010-01-07 06:00;CYUL 070600Z 27013KT 4SM -SN BKN020 OVC030 M06/M08 A2974 RMK SC6SC2 SLP074

CYUL;2010-01-07 07:00;CYUL 070700Z 26015G20KT 15SM -SN FEW030 BKN055 M05/M08 A2975 RMK SC1SC6 SLP078

CYUL;2010-01-07 07:25;CYUL 070725Z 26016KT 15SM FEW030 BKN060 BKN090 M05/ RMK SC1SC6AC1

CYUL;2010-01-07 08:00;CYUL 070800Z 25013KT 15SM FEW030 SCT065 BKN090 M06/M09 A2978 RMK SC1SC2AS2 SLP086

CYUL;2010-01-07 09:00;CYUL 070900Z 25015KT 15SM FEW030 BKN065 M07/M09 A2979 RMK SC1SC6 SLP089

CYUL;2010-01-07 10:00;CYUL 071000Z 25016KT 12SM FEW020 BKN060 M07/M10 A2980 RMK SC1SC7 SLP092

CYUL;2010-01-07 11:00;CYUL 071100Z 25016KT 15SM FEW020 BKN055 M07/M10 A2980 RMK SC1SC7 SLP094

CYUL;2010-01-07 12:00;CYUL 071200Z 25017KT 15SM FEW020 BKN055 M07/M10 A2981 RMK SC1SC7 SLP097

CYUL;2010-01-07 13:00;CYUL 071300Z 25014G21KT 15SM FEW015 BKN050 M07/M10 A2983 RMK SF1SC7 SLP103

CYUL;2010-01-07 14:00;CYUL 071400Z 26014KT 15SM FEW015 BKN047 M07/M10 A2983 RMK SF1SC6 SLP104

CYUL;2010-01-07 15:00;CYUL 071500Z 26012KT 15SM FEW015 SCT020 OVC045 M07/M10 A2985 RMK SF1SC3SC5 SLP110

CYUL;2010-01-07 16:00;CYUL 071600Z 27011G16KT 15SM BKN023 OVC053 M06/M09 A2984 RMK SC5SC3 SLP108

CYUL;2010-01-07 16:30;CYUL 071630Z 25009G17KT 15SM -SN BKN023 OVC047 M06/ RMK SC6SC2

CYUL;2010-01-07 17:00;CYUL 071700Z 26015KT 15SM -SN FEW015 OVC024 M06/M09 A2983 RMK CF1SC7 SLP103

CYUL;2010-01-07 18:00;CYUL 071800Z 25014KT 15SM -SN FEW015 OVC025 M06/M09 A2982 RMK SC1SC7 SLP101

CYUL;2010-01-07 19:00;CYUL 071900Z 26013KT 15SM -SN SCT020 BKN045 OVC080 M05/M09 A2982 RMK SC3SC3AC1 SLP099

CYUL;2010-01-07 19:47;CYUL 071947Z 27012KT 15SM SCT025 BKN080 M05/ RMK SC4AC3

CYUL;2010-01-07 20:00;CYUL 072000Z 27012KT 15SM BKN026 BKN080 M05/M09 A2982 RMK SC5AC2 SLP100

CYUL;2010-01-07 21:00;CYUL 072100Z 27009KT 15SM FEW015 OVC029 M05/M09 A2983 RMK SC1SC7 SLP105

CYUL;2010-01-07 22:00;CYUL 072200Z 28008KT 15SM BKN030 BKN045 M05/M10 A2985 RMK SC6SC1 SLP109

CYUL;2010-01-07 23:00;CYUL 072300Z 30008KT 15SM BKN030 M06/M11 A2985 RMK SC7 SLP112

CYUL;2010-01-08 00:00;CYUL 080000Z 28007KT 15SM BKN035 BKN060 M07/M11 A2987 RMK SC5SC1 SLP117

CYUL;2010-01-08 01:00;CYUL 080100Z 27007KT 15SM BKN033 M07/M11 A2987 RMK SC6 SLP117

CYUL;2010-01-08 02:00;CYUL 080200Z 27007KT 15SM VCSH BKN028 M07/M10 A2987 RMK SC7 SLP118

CYUL;2010-01-08 03:00;CYUL 080300Z 28007KT 15SM OVC028 M07/M10 A2986 RMK SC8 SLP115

CYUL;2010-01-08 04:00;CYUL 080400Z 29005KT 15SM OVC028 M07/M10 A2986 RMK SC8 SLP115

CYUL;2010-01-08 05:00;CYUL 080500Z 27004KT 15SM -SN FEW015 OVC027 M07/M10 A2986 RMK SF1SC8 SLP114

CYUL;2010-01-08 06:00;CYUL 080600Z CCA 30005KT 15SM -SN OVC025 M07/M10 A2985 RMK SC8 SLP110

CYUL;2010-01-08 07:00;CYUL 080700Z 32004KT 15SM -SN OVC026 M08/M11 A2984 RMK SC8 SLP108

CYUL;2010-01-08 08:00;CYUL 080800Z 30003KT 15SM -SN OVC027 M08/M11 A2985 RMK SC8 SLP109

CYUL;2010-01-08 09:00;CYUL 080900Z 00000KT 15SM OVC030 M08/M11 A2984 RMK SC8 SLP106

CYUL;2010-01-08 10:00;CYUL 081000Z 31003KT 15SM OVC030 M08/M11 A2982 RMK SC8 SLP100

CYUL;2010-01-08 11:00;CYUL 081100Z 32003KT 15SM OVC030 M08/M11 A2982 RMK SC8 SLP101

CYUL;2010-01-08 12:00;CYUL 081200Z 33003KT 15SM -SN OVC025 M08/M11 A2983 RMK SC8 SLP106

CYUL;2010-01-08 13:00;CYUL 081300Z 34003KT 15SM -SN OVC025 M08/M11 A2983 RMK SC8 SLP104

CYUL;2010-01-08 14:00;CYUL 081400Z 36006KT 15SM OVC025 M08/M11 A2982 RMK SC8 DIST SHWR S SLP102

CYUL;2010-01-08 14:18;CYUL 081418Z 34005KT 15SM -SN OVC022 M08/ RMK SC8 -SN INTMT

CYUL;2010-01-08 15:00;CYUL 081500Z 34004KT 15SM OVC021 M08/M12 A2983 RMK SC8 SLP102

CYUL;2010-01-08 16:00;CYUL 081600Z 36005KT 15SM BKN023 OVC031 M07/M12 A2981 RMK SC6SC2 SLP098

CYUL;2010-01-08 17:00;CYUL 081700Z 04009KT 15SM -SN OVC023 M07/M11 A2979 RMK SC8 SLP091

CYUL;2010-01-08 17:48;CYUL 081748Z 36005KT 15SM SCT023 OVC029 M07/ RMK SC3SC5

CYUL;2010-01-08 18:00;CYUL 081800Z 33004KT 15SM BKN021 OVC027 M07/M11 A2979 RMK SC6SC2 SLP089

CYUL;2010-01-08 19:00;CYUL 081900Z 33005KT 15SM FEW023 BKN034 OVC043 M06/M11 A2978 RMK SC2SC5SC2 SLP088

CYUL;2010-01-08 20:00;CYUL 082000Z 28007KT 15SM -SN OVC023 M07/M10 A2980 RMK SC8 SLP093

CYUL;2010-01-08 21:00;CYUL 082100Z 29008KT 15SM -SN FEW023 OVC028 M07/M10 A2981 RMK SC2SC6 SLP098

CYUL;2010-01-08 21:39;CYUL 082139Z 28007KT 15SM OVC028 M07/ RMK SC8

CYUL;2010-01-08 22:00;CYUL 082200Z 29007KT 15SM OVC030 M07/M11 A2983 RMK SC8 SLP105

CYUL;2010-01-08 23:00;CYUL 082300Z 29010KT 15SM OVC033 M07/M11 A2985 RMK SC8 SLP112

CYUL;2010-01-09 00:00;CYUL 090000Z 29008KT 15SM OVC032 M07/M11 A2988 RMK SC8 SLP120

CYUL;2010-01-09 01:00;CYUL 090100Z 29007KT 15SM OVC030 M07/M11 A2989 RMK SC8 SLP124

CYUL;2010-01-09 02:00;CYUL 090200Z 29008KT 15SM BKN029 M08/M11 A2990 RMK SC6 SLP129

CYUL;2010-01-09 03:00;CYUL 090300Z 30008KT 15SM OVC030 M08/M12 A2993 RMK SC8 SLP137

CYUL;2010-01-09 04:00;CYUL 090400Z 31007KT 15SM BKN033 M09/M13 A2995 RMK SC7 SLP146

CYUL;2010-01-09 05:00;CYUL 090500Z 32005KT 15SM FEW035 M11/M15 A2997 RMK SC1 SLP151

CYUL;2010-01-09 06:00;CYUL 090600Z 28006KT 15SM FEW035 M13/M16 A2998 RMK SC1 SLP155

CYUL;2010-01-09 07:00;CYUL 090700Z 29008KT 15SM SKC M13/M16 A3001 RMK SLP165

CYUL;2010-01-09 08:00;CYUL 090800Z 29008KT 15SM SKC M14/M17 A3002 RMK SLP170

CYUL;2010-01-09 09:00;CYUL 090900Z 29009KT 15SM SKC M14/M19 A3004 RMK SLP176

CYUL;2010-01-09 10:00;CYUL 091000Z 29008KT 15SM SKC M15/M21 A3007 RMK SLP186

CYUL;2010-01-09 11:00;CYUL 091100Z 30008KT 15SM SKC M15/M21 A3010 RMK SLP196

CYUL;2010-01-09 12:00;CYUL 091200Z 29009KT 30SM FEW035 M16/M21 A3012 RMK SC1 SLP204

CYUL;2010-01-09 13:00;CYUL 091300Z 29007KT 30SM SKC M16/M22 A3016 RMK SLP216

CYUL;2010-01-09 14:00;CYUL 091400Z 29009KT 30SM SKC M16/M22 A3018 RMK SLP222

CYUL;2010-01-09 15:00;CYUL 091500Z 29007KT 30SM SKC M14/M22 A3020 RMK SLP232

CYUL;2010-01-09 16:00;CYUL 091600Z 27007KT 30SM SKC M14/M22 A3020 RMK SLP231

CYUL;2010-01-09 17:00;CYUL 091700Z 25009KT 30SM SKC M13/M22 A3020 RMK SLP230

CYUL;2010-01-09 18:00;CYUL 091800Z 25010KT 30SM FEW240 M13/M22 A3020 RMK CI1 SLP230

CYUL;2010-01-09 19:00;CYUL 091900Z 25012KT 30SM FEW240 M12/M22 A3020 RMK CI1 SLP229

CYUL;2010-01-09 20:00;CYUL 092000Z 25012KT 30SM SKC M12/M21 A3021 RMK SLP233

CYUL;2010-01-09 21:00;CYUL 092100Z 27014KT 30SM FEW240 M12/M22 A3022 RMK CI1 SLP237

CYUL;2010-01-09 22:00;CYUL 092200Z 26011KT 15SM FEW240 M12/M22 A3024 RMK CI1 SLP244

CYUL;2010-01-09 23:00;CYUL 092300Z 26012KT 15SM SKC M13/M21 A3025 RMK SLP247

CYUL;2010-01-10 00:00;CYUL 100000Z 27012KT 15SM SKC M14/M21 A3026 RMK SLP250

CYUL;2010-01-10 01:00;CYUL 100100Z 26006KT 15SM SKC M14/M21 A3026 RMK SLP252

CYUL;2010-01-10 02:00;CYUL 100200Z 27005KT 15SM FEW240 M15/M22 A3027 RMK CI1 SLP253

CYUL;2010-01-10 03:00;CYUL 100300Z 28005KT 15SM FEW240 M16/M22 A3027 RMK CI1 SLP254

CYUL;2010-01-10 04:00;CYUL 100400Z 23005KT 15SM FEW240 M15/M22 A3028 RMK CI0 SLP257

CYUL;2010-01-10 05:00;CYUL 100500Z 21006KT 15SM FEW240 M16/M22 A3027 RMK CI1 SLP255

CYUL;2010-01-10 06:00;CYUL 100600Z 23007KT 15SM FEW240 M17/M22 A3027 RMK CI1 SLP255

CYUL;2010-01-10 07:00;CYUL 100700Z 23005KT 15SM FEW170 M17/M22 A3028 RMK AC1 SLP256

CYUL;2010-01-10 08:00;CYUL 100800Z 24007KT 15SM FEW140 M17/M22 A3027 RMK AC1 SLP255

CYUL;2010-01-10 09:00;CYUL 100900Z 25007KT 15SM BKN160 M17/M21 A3026 RMK AC7 SLP252

CYUL;2010-01-10 10:00;CYUL 101000Z 23007KT 15SM FEW004 OVC160 M17/M21 A3025 RMK SF1AC8 SLP246

CYUL;2010-01-10 11:00;CYUL 101100Z 23006KT 15SM FEW004 OVC150 M17/M21 A3025 RMK SF1AC8 SLP246

CYUL;2010-01-10 12:00;CYUL 101200Z 24010KT 15SM FEW003 BKN140 M16/M21 A3025 RMK SF1AC7 SLP248

CYUL;2010-01-10 13:00;CYUL 101300Z 25008KT 15SM FEW004 BKN140 M16/M20 A3025 RMK SF1AC7 SLP248

CYUL;2010-01-10 14:00;CYUL 101400Z 25007KT 30SM FEW005 OVC140 M15/M20 A3026 RMK SF1AC8 SLP250

CYUL;2010-01-10 15:00;CYUL 101500Z 23011KT 30SM BKN130 M14/M18 A3025 RMK AC7 SLP246

CYUL;2010-01-10 16:00;CYUL 101600Z 24013KT 30SM BKN140 M13/M18 A3023 RMK AC7 SLP239

CYUL;2010-01-10 17:00;CYUL 101700Z 23012KT 15SM BKN021 OVC120 M12/M19 A3019 RMK SC7AC1 SLP226

CYUL;2010-01-10 18:00;CYUL 101800Z 25012KT 30SM BKN040 OVC120 M11/M19 A3015 RMK SC6AC2 SLP214

CYUL;2010-01-10 19:00;CYUL 101900Z 24011KT 15SM BKN035 OVC090 M10/M17 A3012 RMK SC6AC2 SLP205

CYUL;2010-01-10 20:00;CYUL 102000Z 24008KT 15SM OVC033 M10/M15 A3010 RMK SC8 SLP197

CYUL;2010-01-10 21:00;CYUL 102100Z 27005KT 15SM BKN032 OVC100 M09/M13 A3008 RMK SC6AC2 SLP191

CYUL;2010-01-10 22:00;CYUL 102200Z 24004KT 15SM BKN027 OVC075 M09/M12 A3007 RMK SC6AC2 SLP188

CYUL;2010-01-10 23:00;CYUL 102300Z 22002KT 15SM OVC028 M08/M12 A3007 RMK SC8 SLP186

CYUL;2010-01-11 00:00;CYUL 110000Z 23006KT 15SM OVC027 M07/M11 A3006 RMK SC8 SLP182

CYUL;2010-01-11 01:00;CYUL 110100Z 21007KT 15SM -SN OVC028 M06/M10 A3006 RMK SC8 SLP181

CYUL;2010-01-11 02:00;CYUL 110200Z 21007KT 15SM -SN OVC029 M05/M09 A3005 RMK SC8 SLP178

CYUL;2010-01-11 03:00;CYUL 110300Z 23013G18KT 15SM -SN OVC033 M05/M08 A3003 RMK SC8 SLP173

CYUL;2010-01-11 04:00;CYUL 110400Z 23012KT 15SM -SN OVC035 M05/M08 A3003 RMK SC8 -SN INTMT SLP171

CYUL;2010-01-11 05:00;CYUL 110500Z 25013KT 15SM OVC035 M05/M09 A3002 RMK SC8 SLP170

CYUL;2010-01-11 06:00;CYUL 110600Z 24015G21KT 15SM -SN OVC038 M05/M09 A3001 RMK SC8 SLP164

CYUL;2010-01-11 07:00;CYUL 110700Z 25015KT 15SM -SN OVC040 M05/M09 A3001 RMK SC8 SLP167

CYUL;2010-01-11 08:00;CYUL 110800Z 25014KT 15SM -SN OVC033 M05/M09 A3001 RMK SC8 SLP166

CYUL;2010-01-11 09:00;CYUL 110900Z 25011KT 15SM -SN OVC045 M05/M09 A3000 RMK SC8 SLP162

CYUL;2010-01-11 10:00;CYUL 111000Z 26011KT 15SM -SN OVC040 M05/M09 A3001 RMK SC8 SLP164

CYUL;2010-01-11 11:00;CYUL 111100Z 25011KT 15SM -SN OVC035 M06/M09 A3001 RMK SC8 SLP164

CYUL;2010-01-11 12:00;CYUL 111200Z 23006KT 15SM -SN BKN035 OVC160 M06/M09 A3001 RMK SC7AC1 -SN INTMT SLP165

CYUL;2010-01-11 12:50;CYUL 111250Z 24009KT 15SM SCT030 SCT065 OVC140 M06/ RMK SC3SC1AC3

CYUL;2010-01-11 13:00;CYUL 111300Z 24007KT 15SM BKN030 OVC150 M06/M10 A3002 RMK SC7AC1 SLP168

CYUL;2010-01-11 14:00;CYUL 111400Z 27009KT 15SM BKN060 OVC150 M06/M10 A3002 RMK SC7AS1 SLP168

CYUL;2010-01-11 15:00;CYUL 111500Z 27011KT 15SM -SN BKN032 OVC055 M06/M10 A3002 RMK SC6SC2 SLP169

CYUL;2010-01-11 16:00;CYUL 111600Z 27009KT 15SM -SN SCT032 OVC055 M06/M09 A3001 RMK SC3SC5 SLP166

CYUL;2010-01-11 17:00;CYUL 111700Z 27009KT 15SM -SN BKN030 OVC060 M05/M08 A3000 RMK SC6SC2 SLP161

CYUL;2010-01-11 18:00;CYUL 111800Z 24007KT 15SM FEW032 BKN058 BKN130 M05/M08 A2999 RMK SC1SC4AC2 SLP156

CYUL;2010-01-11 19:00;CYUL 111900Z 24011KT 15SM FEW030 BKN045 BKN120 M04/M08 A2999 RMK SC1SC4AC2 SLP156

CYUL;2010-01-11 19:49;CYUL 111949Z 24012KT 15SM -SN BKN050 BKN070 M04/ RMK SC5AC2

CYUL;2010-01-11 20:00;CYUL 112000Z 25008KT 15SM -SN BKN050 BKN075 M04/M07 A2999 RMK SC5AC2 SLP158

CYUL;2010-01-11 21:00;CYUL 112100Z 25009KT 15SM -SN OVC080 M04/M07 A3000 RMK AC7 SLP163

CYUL;2010-01-11 22:00;CYUL 112200Z 26007KT 15SM -SN BKN033 OVC070 M04/M07 A3001 RMK SC6AC2 SLP166

CYUL;2010-01-11 23:00;CYUL 112300Z 27007KT 15SM -SN OVC029 M04/M07 A3003 RMK SC8 SLP172

CYUL;2010-01-12 00:00;CYUL 120000Z 28007KT 15SM -SN BKN033 OVC058 M04/M07 A3005 RMK SC6SC2 SLP178

CYUL;2010-01-12 01:00;CYUL 120100Z 28007KT 15SM -SN BKN041 OVC058 M04/M07 A3007 RMK SC6SC2 SLP184

CYUL;2010-01-12 02:00;CYUL 120200Z 32005KT 15SM -SN BKN029 OVC055 M04/M06 A3007 RMK SC6SC2 SLP185

CYUL;2010-01-12 03:00;CYUL 120300Z 36010KT 15SM BKN030 OVC040 M05/M09 A3007 RMK SC6SC2 SLP187

CYUL;2010-01-12 03:50;CYUL 120350Z 36008KT 15SM -SN BKN032 OVC090 M05/ RMK SC6AC2

CYUL;2010-01-12 04:00;CYUL 120400Z 35008KT 15SM -SN BKN033 OVC090 M05/M11 A3008 RMK SC6AC2 SLP189

CYUL;2010-01-12 04:24;CYUL 120424Z 35006KT 15SM BKN034 OVC090 M06/ RMK SC6AC2

CYUL;2010-01-12 05:00;CYUL 120500Z 35006KT 15SM BKN033 BKN090 M06/M11 A3008 RMK SC5AC2 SLP189

CYUL;2010-01-12 06:00;CYUL 120600Z 35008KT 15SM SCT035 BKN090 M06/M12 A3009 RMK SC3AC4 SLP191

CYUL;2010-01-12 07:00;CYUL 120700Z 35005KT 15SM FEW065 BKN090 M06/M12 A3009 RMK SC2AC4 SLP192

CYUL;2010-01-12 08:00;CYUL 120800Z 35007KT 15SM BKN035 BKN085 M07/M13 A3010 RMK SC3AC1 SLP197

CYUL;2010-01-12 09:00;CYUL 120900Z 35005KT 15SM BKN040 M08/M13 A3012 RMK SC6 SLP203

CYUL;2010-01-12 10:00;CYUL 121000Z 35006KT 15SM SCT060 M10/M14 A3012 RMK SC2 SLP203

CYUL;2010-01-12 11:00;CYUL 121100Z 31004KT 15SM BKN075 M11/M15 A3011 RMK AC3 SLP200

CYUL;2010-01-12 12:00;CYUL 121200Z 28005KT 15SM FEW075 M12/M15 A3013 RMK AC2 SLP205

CYUL;2010-01-12 13:00;CYUL 121300Z 28006KT 15SM BKN033 OVC075 M10/M13 A3013 RMK SC6AC2 SLP206

CYUL;2010-01-12 14:00;CYUL 121400Z 31006KT 15SM OVC033 M09/M13 A3014 RMK SC8 SLP208

CYUL;2010-01-12 15:00;CYUL 121500Z 31007KT 15SM OVC033 M09/M14 A3015 RMK SC8 SLP213

CYUL;2010-01-12 15:08;CYUL 121508Z 31010KT 15SM -SN OVC033 M09/ RMK SC8 VRY LGT SN

CYUL;2010-01-12 16:00;CYUL 121600Z 34008KT 15SM VCSH OVC033 M09/M15 A3015 RMK SC8 SLP211

CYUL;2010-01-12 17:00;CYUL 121700Z 35008KT 15SM BKN034 M10/M16 A3013 RMK SC6 SLP206

CYUL;2010-01-12 18:00;CYUL 121800Z 33008KT 15SM SCT034 M09/M17 A3010 RMK SC3 SLP197

CYUL;2010-01-12 19:00;CYUL 121900Z 28010KT 15SM FEW035 M09/M16 A3009 RMK SC2 CU ASOCTD SLP194

CYUL;2010-01-12 20:00;CYUL 122000Z 28011G16KT 15SM FEW035 M09/M16 A3010 RMK SC1 SLP195

CYUL;2010-01-12 21:00;CYUL 122100Z 27010G15KT 15SM FEW040 M09/M16 A3010 RMK SC1 SLP196

CYUL;2010-01-12 22:00;CYUL 122200Z 28010KT 15SM FEW050 FEW240 M10/M17 A3011 RMK SC1CI1 SLP198

CYUL;2010-01-12 23:00;CYUL 122300Z 28009KT 15SM FEW240 M11/M18 A3013 RMK CI1 SLP205

CYUL;2010-01-13 00:00;CYUL 130000Z 28010KT 15SM BKN240 M12/M18 A3014 RMK CI2 SLP209

CYUL;2010-01-13 01:00;CYUL 130100Z 27007KT 15SM BKN220 M12/M18 A3015 RMK CI3 SLP213

CYUL;2010-01-13 02:00;CYUL 130200Z 28009KT 15SM BKN220 M12/M18 A3016 RMK CI3 SLP217

CYUL;2010-01-13 03:00;CYUL 130300Z 26007KT 15SM SCT210 M13/M18 A3017 RMK CI2 SLP221

CYUL;2010-01-13 04:00;CYUL 130400Z 27008KT 15SM BKN240 M13/M18 A3017 RMK CI2 SLP219

CYUL;2010-01-13 05:00;CYUL 130500Z 25007KT 15SM SCT230 M14/M18 A3016 RMK CI2 SLP217

CYUL;2010-01-13 06:00;CYUL 130600Z 27007KT 15SM FEW130 BKN240 M14/M18 A3016 RMK AC2CI1 SLP216

CYUL;2010-01-13 07:00;CYUL 130700Z 25007KT 15SM SCT210 M15/M21 A3016 RMK CI2 SLP217

CYUL;2010-01-13 08:00;CYUL 130800Z 25005KT 15SM SCT210 M15/M21 A3017 RMK CI2 SLP221

CYUL;2010-01-13 09:00;CYUL 130900Z 25006KT 15SM SCT110 BKN240 M15/M20 A3017 RMK AC3CI2 SLP220

CYUL;2010-01-13 10:00;CYUL 131000Z 24005KT 15SM OVC100 M14/M19 A3016 RMK AC7 SLP216

CYUL;2010-01-13 11:00;CYUL 131100Z 25006KT 15SM OVC100 M13/M18 A3017 RMK AC8 SLP220

CYUL;2010-01-13 12:00;CYUL 131200Z 25007KT 15SM BKN075 OVC100 M13/M18 A3017 RMK AC6AC2 SLP222

CYUL;2010-01-13 13:00;CYUL 131300Z 24009KT 15SM BKN090 OVC150 M13/M18 A3018 RMK AC6AC2 SLP223

CYUL;2010-01-13 14:00;CYUL 131400Z 25009KT 15SM BKN130 BKN230 M12/M18 A3018 RMK AC4CI0 SLP225

CYUL;2010-01-13 15:00;CYUL 131500Z 25011KT 15SM FEW070 BKN120 M11/M18 A3019 RMK AC2AC5 SLP226

CYUL;2010-01-13 15:08;CYUL 131508Z 26008KT 10SM -SN SCT070 OVC120 M11/ RMK AC3AC4

CYUL;2010-01-13 16:00;CYUL 131600Z 26005KT 2SM -SN BKN014 OVC030 M11/M15 A3018 RMK SN5SF2SC1 SLP223

CYUL;2010-01-13 16:16;CYUL 131616Z 26003KT 1 1/4SM -SN VV013 M11/ RMK SN8

CYUL;2010-01-13 16:26;CYUL 131626Z 23007KT 1SM R24R/P6000FT/D -SN VV010 M11/ RMK SN8

CYUL;2010-01-13 16:47;CYUL 131647Z 20004KT 1 1/2SM -SN VV014 M11/ RMK SN8

CYUL;2010-01-13 17:00;CYUL 131700Z 22004KT 1SM R24R/P6000FT/D -SN VV010 M11/M13 A3015 RMK SN8 /S01/ SLP213

CYUL;2010-01-13 17:18;CYUL 131718Z 24004KT 1 1/2SM -SN VV014 M11/ RMK SN8

CYUL;2010-01-13 17:24;CYUL 131724Z 23004KT 3SM -SN OVC020 M11/ RMK SN3SC5

CYUL;2010-01-13 18:00;CYUL 131800Z 23002KT 3SM -SN BKN022 OVC060 M10/M12 A3013 RMK SN1SC6SC1 SLP207

CYUL;2010-01-13 19:00;CYUL 131900Z 17002KT 2 1/2SM -SN OVC017 M10/M12 A3012 RMK SN6SC2 SLP202

CYUL;2010-01-13 19:07;CYUL 131907Z 09002KT 3SM -SN BKN020 OVC050 M09/ RMK SN2SC6SC1

CYUL;2010-01-13 20:00;CYUL 132000Z 14004KT 8SM -SN FEW014 SCT025 OVC045 M09/M11 A3011 RMK SF1SC2SC5 SLP200

CYUL;2010-01-13 21:00;CYUL 132100Z 13006KT 12SM -SN FEW010 OVC023 M09/M11 A3012 RMK SF2SC6 SLP202

CYUL;2010-01-13 22:00;CYUL 132200Z 12004KT 6SM -SN FEW010 OVC020 M09/M11 A3012 RMK SF1SC7 SLP204

CYUL;2010-01-13 23:00;CYUL 132300Z 11006KT 5SM -SN FEW012 OVC018 M09/M11 A3013 RMK SF2SC6 SLP206

CYUL;2010-01-14 00:00;CYUL 140000Z 10004KT 8SM -SN FEW010 OVC016 M09/M10 A3014 RMK SF2SC6 SLP209

CYUL;2010-01-14 01:00;CYUL 140100Z 10002KT 7SM -SN FEW009 OVC015 M08/M10 A3015 RMK SF1SC7 SLP213

CYUL;2010-01-14 01:48;CYUL 140148Z 08003KT 6SM -SN BR BKN010 OVC016 M08/ RMK SF6SC2

CYUL;2010-01-14 02:00;CYUL 140200Z 08005KT 8SM -SN BKN010 OVC016 M08/M10 A3015 RMK ST7SC1 SLP214

CYUL;2010-01-14 03:00;CYUL 140300Z 06004KT 8SM -SN BKN010 OVC035 M08/M10 A3015 RMK SF6SC2 SLP213

CYUL;2010-01-14 04:00;CYUL 140400Z 09003KT 8SM -SN BKN010 OVC035 M08/M10 A3016 RMK SF7SC1 SLP215

CYUL;2010-01-14 04:31;CYUL 140431Z 09004KT 8SM BKN010 OVC035 M08/ RMK SF7SC1

CYUL;2010-01-14 05:00;CYUL 140500Z 10003KT 8SM OVC010 M08/M10 A3016 RMK SF8 SLP217

CYUL;2010-01-14 06:00;CYUL 140600Z 06003KT 10SM OVC010 M08/M10 A3017 RMK SF8 SLP220

CYUL;2010-01-14 07:00;CYUL 140700Z 04005KT 15SM OVC010 M08/M10 A3018 RMK SF8 SLP223

CYUL;2010-01-14 08:00;CYUL 140800Z 36004KT 15SM OVC011 M08/M10 A3019 RMK SF8 SLP226

CYUL;2010-01-14 09:00;CYUL 140900Z 02006KT 15SM BKN009 OVC045 M08/M10 A3018 RMK SF6SC2 SLP223

CYUL;2010-01-14 10:00;CYUL 141000Z 03006KT 15SM BKN010 OVC015 M08/M10 A3019 RMK SF6SC2 SLP226

CYUL;2010-01-14 11:00;CYUL 141100Z 02005KT 15SM BKN010 BKN015 OVC035 M08/M10 A3019 RMK SF6SC2SC1 SLP227

CYUL;2010-01-14 12:00;CYUL 141200Z 03005KT 15SM BKN013 OVC035 M07/M10 A3019 RMK SF6SC2 SLP227

CYUL;2010-01-14 13:00;CYUL 141300Z 08005KT 12SM OVC012 M07/M09 A3020 RMK SF8 SLP228

CYUL;2010-01-14 14:00;CYUL 141400Z 08004KT 12SM OVC013 M06/M09 A3020 RMK SC8 SLP228

CYUL;2010-01-14 14:31;CYUL 141431Z 08003KT 10SM -SN OVC015 M06/ RMK SC8

CYUL;2010-01-14 15:00;CYUL 141500Z 04004KT 10SM -SN BKN017 OVC029 M06/M09 A3020 RMK SC6SC2 SLP228

CYUL;2010-01-14 16:00;CYUL 141600Z 03004KT 6SM -SN BKN015 OVC030 M06/M09 A3018 RMK SC6SC2 SLP222

CYUL;2010-01-14 17:00;CYUL 141700Z 01004KT 6SM -SN BR FEW016 OVC030 M06/M08 A3015 RMK SC2SC6 SLP212

CYUL;2010-01-14 18:00;CYUL 141800Z 36004KT 6SM -SN BR OVC028 M06/M08 A3012 RMK SC8 SLP204

CYUL;2010-01-14 18:33;CYUL 141833Z 03004KT 6SM BR OVC033 M06/ RMK SC8

CYUL;2010-01-14 19:00;CYUL 141900Z 04004KT 6SM HZ OVC032 M06/M08 A3011 RMK SC8 SLP198

CYUL;2010-01-14 20:00;CYUL 142000Z 03004KT 6SM HZ OVC030 M05/M07 A3008 RMK SC8 SLP189

CYUL;2010-01-14 21:00;CYUL 142100Z 03003KT 7SM OVC030 M04/M07 A3007 RMK SC8 SLP185

CYUL;2010-01-14 22:00;CYUL 142200Z 35002KT 7SM OVC028 M05/M07 A3005 RMK SC8 SLP180

CYUL;2010-01-14 23:00;CYUL 142300Z 03003KT 7SM OVC030 M05/M07 A3004 RMK SC8 SLP176

CYUL;2010-01-15 00:00;CYUL 150000Z 00000KT 7SM OVC030 M04/M06 A3003 RMK SC8 SLP172

CYUL;2010-01-15 01:00;CYUL 150100Z 17010KT 8SM OVC027 M01/M04 A3001 RMK SC8 SLP164

CYUL;2010-01-15 02:00;CYUL 150200Z 16010KT 8SM OVC028 M01/M04 A2999 RMK SC8 SLP158

CYUL;2010-01-15 03:00;CYUL 150300Z 15007KT 10SM OVC025 M01/M03 A2996 RMK SC8 SLP147

CYUL;2010-01-15 03:12;CYUL 150312Z 15007KT 10SM -SN OVC025 M01/ RMK SC8

CYUL;2010-01-15 04:00;CYUL 150400Z 16003KT 8SM -SN OVC032 M00/M03 A2994 RMK SC8 SLP141

CYUL;2010-01-15 05:00;CYUL 150500Z 00000KT 8SM -SN OVC033 M00/M03 A2993 RMK SC8 SLP139

CYUL;2010-01-15 06:00;CYUL 150600Z 00000KT 8SM -SN OVC033 M01/M03 A2992 RMK SC8 SLP133

CYUL;2010-01-15 07:00;CYUL 150700Z 23002KT 8SM -SN OVC032 00/M02 A2992 RMK SC8 SLP133

CYUL;2010-01-15 08:00;CYUL 150800Z 20004KT 8SM -SN OVC027 00/M02 A2992 RMK SC8 SLP133

CYUL;2010-01-15 09:00;CYUL 150900Z 25003KT 6SM -SN OVC025 01/M01 A2991 RMK SC8 SLP132

CYUL;2010-01-15 10:00;CYUL 151000Z 24004KT 3SM -SN OVC017 00/M01 A2992 RMK SC8 SLP133

CYUL;2010-01-15 10:39;CYUL 151039Z 26004KT 3SM -SN OVC006 01/ RMK ST8

CYUL;2010-01-15 11:00;CYUL 151100Z 00000KT 2 1/2SM -SN OVC006 M00/M02 A2993 RMK ST8 SLP137

CYUL;2010-01-15 12:00;CYUL 151200Z 00000KT 2 1/4SM BR FEW005 OVC020 M00/M01 A2994 RMK ST2SC6 FROIN SLP141

CYUL;2010-01-15 13:00;CYUL 151300Z 00000KT 1 1/2SM BR OVC020 01/M00 A2996 RMK SC8 SLP146

CYUL;2010-01-15 13:11;CYUL 151311Z 00000KT 1 1/2SM -DZ BR OVC018 00/ RMK ST8

CYUL;2010-01-15 14:00;CYUL 151400Z 31002KT 1 1/2SM -DZ BR OVC016 01/M00 A2998 RMK ST8 -DZ INTMT SLP153

CYUL;2010-01-15 14:41;CYUL 151441Z 25002KT 1 1/2SM BR BKN013 OVC033 01/ RMK ST6SC2

CYUL;2010-01-15 15:00;CYUL 151500Z 23002KT 1 1/2SM -DZ BR SCT011 OVC035 01/00 A2999 RMK SF2SC6 SLP158

CYUL;2010-01-15 15:21;CYUL 151521Z 25005KT 1 1/2SM -DZ BR BKN011 OVC028 01/ RMK SF6SC2

CYUL;2010-01-15 15:41;CYUL 151541Z 25005KT 1 3/4SM -DZ BR SCT012 BKN022 OVC045 01/ RMK SF2SC5SC2

CYUL;2010-01-15 15:55;CYUL 151555Z 25007KT 3SM -DZ BR FEW012 BKN028 OVC045 02/ RMK SF2SC5SC2

CYUL;2010-01-15 16:00;CYUL 151600Z 25008KT 3SM -DZ BR FEW012 BKN028 OVC040 02/01 A2999 RMK SF1SC2SC5 SLP158

CYUL;2010-01-15 16:46;CYUL 151646Z 27007KT 3SM -DZ BR BKN012 BKN023 OVC035 02/ RMK SF5SC2SC1

CYUL;2010-01-15 17:00;CYUL 151700Z 27007KT 3SM -DZ BR SCT011 BKN028 OVC045 02/01 A2998 RMK SF2SC4SC2 SLP154

CYUL;2010-01-15 17:25;CYUL 151725Z 27009KT 5SM BR SCT025 OVC038 02/ RMK SC2SC6

CYUL;2010-01-15 18:00;CYUL 151800Z 27008KT 8SM FEW035 OVC045 02/01 A2996 RMK SC2SC6 SLP149

CYUL;2010-01-15 19:00;CYUL 151900Z 27010KT 15SM BKN050 BKN085 03/00 A2999 RMK SC5AC2 SLP156

CYUL;2010-01-15 20:00;CYUL 152000Z 27011G18KT 15SM BKN030 BKN080 03/M00 A3001 RMK SC6AC2 SLP166

CYUL;2010-01-15 21:00;CYUL 152100Z 27009KT 15SM OVC028 03/M00 A3004 RMK SC8 SLP174

CYUL;2010-01-15 22:00;CYUL 152200Z 27010KT 15SM SCT022 OVC031 02/M01 A3006 RMK SC2SC6 SLP182

CYUL;2010-01-15 23:00;CYUL 152300Z 27010KT 15SM OVC029 02/M01 A3007 RMK SC8 SLP184

CYUL;2010-01-16 00:00;CYUL 160000Z 26010KT 15SM OVC029 02/M01 A3008 RMK SC8 SLP187

CYUL;2010-01-16 01:00;CYUL 160100Z 26012KT 15SM BKN031 02/M01 A3009 RMK SC7 SLP192

CYUL;2010-01-16 02:00;CYUL 160200Z 25012KT 15SM OVC027 02/M02 A3009 RMK SC8 SLP192

CYUL;2010-01-16 03:00;CYUL 160300Z 27017KT 15SM OVC025 02/M03 A3009 RMK SC8 SLP190

CYUL;2010-01-16 04:00;CYUL 160400Z 26012KT 15SM OVC025 01/M03 A3009 RMK SC8 SLP190

CYUL;2010-01-16 05:00;CYUL 160500Z 25010KT 15SM OVC025 01/M02 A3006 RMK SC8 SLP182

CYUL;2010-01-16 06:00;CYUL 160600Z 23012KT 15SM OVC027 01/M02 A3005 RMK SC8 SLP179

CYUL;2010-01-16 07:00;CYUL 160700Z 24016KT 15SM OVC023 02/M02 A3004 RMK SC8 SLP175

CYUL;2010-01-16 08:00;CYUL 160800Z 23011G17KT 15SM OVC023 01/M02 A3003 RMK SC8 SLP170

CYUL;2010-01-16 09:00;CYUL 160900Z 25013G19KT 15SM OVC020 01/M02 A3004 RMK SC8 SLP175

CYUL;2010-01-16 10:00;CYUL 161000Z 25013KT 15SM OVC019 01/M02 A3004 RMK SC8 SLP176

CYUL;2010-01-16 11:00;CYUL 161100Z 24012KT 15SM OVC018 01/M02 A3003 RMK SC8 SLP172

CYUL;2010-01-16 12:00;CYUL 161200Z 25015KT 15SM OVC018 02/M02 A3003 RMK SC8 SLP172

CYUL;2010-01-16 13:00;CYUL 161300Z 24015G21KT 15SM OVC022 02/M02 A3002 RMK SC8 SLP168

CYUL;2010-01-16 14:00;CYUL 161400Z 24015G25KT 15SM SCT017 OVC023 02/M02 A3004 RMK SF3SC5 SLP176

CYUL;2010-01-16 15:00;CYUL 161500Z 25018G24KT 15SM OVC024 02/M02 A3007 RMK SC8 SLP183

CYUL;2010-01-16 16:00;CYUL 161600Z 24018KT 15SM OVC028 02/M02 A3007 RMK SC8 SLP183

CYUL;2010-01-16 17:00;CYUL 161700Z 24019G28KT 15SM OVC030 02/M02 A3006 RMK SC8 SLP180

CYUL;2010-01-16 18:00;CYUL 161800Z 25017KT 15SM OVC033 02/M02 A3003 RMK SC8 SLP170

CYUL;2010-01-16 19:00;CYUL 161900Z 24016G22KT 15SM OVC025 02/M02 A3004 RMK SC8 SLP175

CYUL;2010-01-16 20:00;CYUL 162000Z 25016KT 15SM BKN025 OVC045 02/M02 A3004 RMK SC6SC2 SLP175

CYUL;2010-01-16 21:00;CYUL 162100Z 25014KT 15SM OVC031 02/M02 A3006 RMK SC8 SLP181

CYUL;2010-01-16 22:00;CYUL 162200Z 24012KT 15SM OVC032 02/M02 A3008 RMK SC8 SLP189

CYUL;2010-01-16 23:00;CYUL 162300Z 25012KT 15SM BKN032 OVC042 02/M02 A3009 RMK SC6SC2 SLP190

CYUL;2010-01-17 00:00;CYUL 170000Z 25011KT 15SM OVC038 02/M02 A3012 RMK SC8 SLP200

CYUL;2010-01-17 01:00;CYUL 170100Z 26010KT 15SM OVC040 02/M02 A3011 RMK SC8 SLP198

CYUL;2010-01-17 02:00;CYUL 170200Z 25009KT 15SM OVC042 02/M02 A3012 RMK SC8 SLP200

CYUL;2010-01-17 03:00;CYUL 170300Z 25008KT 15SM BKN045 01/M02 A3012 RMK SC7 SLP202

CYUL;2010-01-17 04:00;CYUL 170400Z 25004KT 15SM OVC042 01/M02 A3011 RMK SC8 SLP199

CYUL;2010-01-17 05:00;CYUL 170500Z 21004KT 15SM BKN035 OVC045 01/M02 A3012 RMK SC5SC3 SLP200

CYUL;2010-01-17 06:00;CYUL 170600Z 25002KT 15SM OVC030 01/M02 A3012 RMK SC8 SLP200

CYUL;2010-01-17 07:00;CYUL 170700Z 06011KT 15SM OVC017 M02/M07 A3015 RMK ST8 SLP213

CYUL;2010-01-17 08:00;CYUL 170800Z 05013KT 15SM OVC019 M04/M09 A3016 RMK ST8 SLP216

CYUL;2010-01-17 09:00;CYUL 170900Z 05013KT 15SM OVC020 M05/M12 A3017 RMK SC8 SLP219

CYUL;2010-01-17 10:00;CYUL 171000Z 05014KT 15SM OVC020 M05/M12 A3016 RMK SC8 SLP214

CYUL;2010-01-17 11:00;CYUL 171100Z 05013KT 15SM OVC016 M06/M11 A3016 RMK ST8 SLP214

CYUL;2010-01-17 12:00;CYUL 171200Z 06011G17KT 15SM OVC015 M07/M13 A3016 RMK ST8 SLP216

CYUL;2010-01-17 13:00;CYUL 171300Z 05011G16KT 15SM OVC015 M07/M14 A3015 RMK ST8 SLP214

CYUL;2010-01-17 13:39;CYUL 171339Z 04011KT 15SM OVC013 M07/ RMK ST8

CYUL;2010-01-17 14:00;CYUL 171400Z 05013KT 15SM OVC012 M08/M13 A3015 RMK ST8 SLP211

CYUL;2010-01-17 15:00;CYUL 171500Z 04014KT 15SM BKN012 OVC016 M08/M13 A3013 RMK SF6ST2 SLP205

CYUL;2010-01-17 16:00;CYUL 171600Z 05015KT 15SM BKN014 OVC023 M07/M12 A3008 RMK SF4SC4 SLP189

CYUL;2010-01-17 17:00;CYUL 171700Z 05014KT 15SM OVC014 M07/M12 A3004 RMK ST8 SLP174

CYUL;2010-01-17 17:16;CYUL 171716Z 04015KT 15SM SCT013 OVC020 M06/ RMK SF3SC5

CYUL;2010-01-17 18:00;CYUL 171800Z 04014KT 15SM FEW013 OVC019 M06/M11 A3000 RMK SF1SC7 SLP160

CYUL;2010-01-17 19:00;CYUL 171900Z 04014KT 15SM FEW030 BKN180 M06/M11 A2998 RMK SC1AC3 SLP155

CYUL;2010-01-17 20:00;CYUL 172000Z 04016KT 15SM BKN180 BKN240 M06/M12 A2998 RMK AC3CS2 SLP153

CYUL;2010-01-17 21:00;CYUL 172100Z 04011G16KT 15SM SCT180 OVC220 M06/M12 A2998 RMK AC2CS5 SLP154

CYUL;2010-01-17 22:00;CYUL 172200Z 05009G15KT 15SM BKN240 M07/M12 A2996 RMK CS3 SLP150

CYUL;2010-01-17 23:00;CYUL 172300Z 05012KT 15SM FEW240 M07/M12 A2995 RMK CS1 SLP144

CYUL;2010-01-18 00:00;CYUL 180000Z 04010G15KT 15SM BKN220 M07/M12 A2992 RMK CI3 SLP135

CYUL;2010-01-18 01:00;CYUL 180100Z 03009KT 15SM BKN210 M07/M11 A2991 RMK CI4 SLP131

CYUL;2010-01-18 02:00;CYUL 180200Z 02012KT 15SM BKN200 M08/M11 A2989 RMK CI5 SLP126

CYUL;2010-01-18 03:00;CYUL 180300Z 03013KT 15SM OVC180 M08/M12 A2988 RMK AS6 SLP123

CYUL;2010-01-18 04:00;CYUL 180400Z 03013KT 15SM OVC170 M08/M11 A2987 RMK AS6 SLP119

CYUL;2010-01-18 05:00;CYUL 180500Z 03012KT 15SM FEW050 OVC170 M08/M11 A2985 RMK SC2AS6 SLP110

CYUL;2010-01-18 06:00;CYUL 180600Z 02010KT 15SM BKN048 OVC160 M07/M10 A2983 RMK SC6AS2 SLP105

CYUL;2010-01-18 07:00;CYUL 180700Z 03011KT 15SM OVC030 M07/M10 A2983 RMK SC8 SLP102

CYUL;2010-01-18 08:00;CYUL 180800Z 02010KT 15SM -SN OVC028 M06/M09 A2982 RMK SC8 VRY LGT SN SLP100

CYUL;2010-01-18 08:42;CYUL 180842Z 02009KT 10SM -FZDZ OVC026 M06/ RMK SC8

CYUL;2010-01-18 09:00;CYUL 180900Z 02011KT 8SM -FZDZ BKN022 OVC030 M06/M08 A2981 RMK SC6SC2 SLP096

CYUL;2010-01-18 09:26;CYUL 180926Z 01010KT 6SM -SN -FZDZ BKN014 OVC020 M06/ RMK SC5SC3

CYUL;2010-01-18 10:00;CYUL 181000Z 02011KT 8SM -SN FEW012 OVC016 M06/M08 A2981 REFZDZ RMK SF2SC6 SLP096

CYUL;2010-01-18 10:30;CYUL 181030Z 03011KT 6SM -SN -FZDZ SCT012 OVC017 M06/ RMK SF3SC5

CYUL;2010-01-18 10:42;CYUL 181042Z 03011KT 5SM -FZDZ FEW007 SCT012 OVC017 M06/ RMK SF1SF2SC5

CYUL;2010-01-18 11:00;CYUL 181100Z 04009KT 4SM -FZDZ FEW006 SCT012 OVC017 M06/M07 A2981 RMK SF2SF2SC5 SLP097

CYUL;2010-01-18 11:12;CYUL 181112Z 05009KT 4SM -FZDZ FEW006 BKN012 OVC020 M05/ RMK SF2SF4SC2

CYUL;2010-01-18 11:33;CYUL 181133Z 02007KT 4SM -FZDZ BKN006 OVC012 M05/ RMK SF5SF3

CYUL;2010-01-18 13:00;CYUL 181300Z 03008KT 3SM -FZDZ BR BKN005 OVC009 M05/M06 A2983 RMK SF6SF2 SLP103

CYUL;2010-01-18 14:00;CYUL 181400Z 03007KT 5SM -FZDZ BR BKN005 OVC010 M05/M06 A2984 RMK SF6SF2 SLP107

CYUL;2010-01-18 14:40;CYUL 181440Z 04005KT 6SM BR BKN006 OVC009 M05/ REFZDZ RMK SF6SF2

CYUL;2010-01-18 15:00;CYUL 181500Z 02006KT 6SM BR OVC008 M05/M06 A2985 RMK SF8 REFZDZ SLP109

CYUL;2010-01-18 16:00;CYUL 181600Z 02006KT 6SM BR OVC010 M05/M06 A2985 RMK SF8 SLP109

CYUL;2010-01-18 16:35;CYUL 181635Z 02006KT 6SM BR FEW005 OVC009 M04/ RMK SF2SF6

CYUL;2010-01-18 17:00;CYUL 181700Z 04007KT 4SM BR FEW005 OVC009 M04/M06 A2982 RMK SF2SF6 SLP099

CYUL;2010-01-18 18:00;CYUL 181800Z 01004KT 3SM BR OVC006 M04/M06 A2981 RMK SF8 SLP096

CYUL;2010-01-18 18:47;CYUL 181847Z 02005KT 2 1/2SM BR OVC007 M04/ RMK SF8

CYUL;2010-01-18 19:00;CYUL 181900Z 36004KT 2SM -FZDZ BR OVC006 M04/M05 A2980 RMK SF8 SLP095

CYUL;2010-01-18 20:00;CYUL 182000Z 34003KT 2SM BR OVC006 M04/M05 A2982 RMK SF8 REFZDZ SLP100

CYUL;2010-01-18 21:00;CYUL 182100Z 36002KT 1 1/2SM -SN BR OVC005 M04/M05 A2983 RMK SF8 SLP104

CYUL;2010-01-18 21:27;CYUL 182127Z 00000KT 1 1/4SM -FZDZ BR OVC004 M04/ RMK SF8

CYUL;2010-01-18 22:00;CYUL 182200Z 00000KT 1 1/4SM -FZDZ BR OVC004 M04/M05 A2984 RMK SF8 SLP107

CYUL;2010-01-18 22:48;CYUL 182248Z 26003KT 1 1/4SM -SN -FZDZ BR OVC005 M04/ RMK SF8

CYUL;2010-01-18 23:00;CYUL 182300Z 25005KT 1 1/2SM -SN -FZDZ BR OVC006 M04/M04 A2987 RMK SF8 SLP117

CYUL;2010-01-19 00:00;CYUL 190000Z 25003KT 1 1/2SM -SN -FZDZ BR BKN005 OVC010 M03/M04 A2989 RMK SF6SF2 SLP124

CYUL;2010-01-19 00:54;CYUL 190054Z 26004KT 1 1/2SM -SN BR BKN004 OVC010 M03/ RMK SF7SF1 REFZDZ

CYUL;2010-01-19 01:00;CYUL 190100Z 25004KT 2SM -SN BR OVC005 M03/M04 A2990 RMK SF8 REFZDZ SLP126

CYUL;2010-01-19 02:00;CYUL 190200Z 24003KT 2 1/2SM -SN BR BKN005 OVC030 M03/M03 A2990 RMK SF6SC2 SLP127

CYUL;2010-01-19 02:45;CYUL 190245Z 24003KT 3SM -SN BR BKN007 OVC030 M02/ RMK SF5SC3

CYUL;2010-01-19 03:00;CYUL 190300Z 23003KT 5SM -SN BR SCT007 OVC030 M02/M03 A2991 RMK SF3SC5 SLP130

CYUL;2010-01-19 03:36;CYUL 190336Z 26004KT 5SM BR SCT007 OVC030 M02/ RMK SF3SC5

CYUL;2010-01-19 04:00;CYUL 190400Z 24003KT 5SM BR SCT008 OVC030 M02/M03 A2992 RMK SF3SC5 SLP133

CYUL;2010-01-19 04:51;CYUL 190451Z 00000KT 5SM BR BKN008 OVC025 M02/ RMK SF6SC2

CYUL;2010-01-19 05:00;CYUL 190500Z 00000KT 5SM BR BKN009 OVC020 M02/M03 A2991 RMK SF6SC2 SLP132

CYUL;2010-01-19 05:29;CYUL 190529Z 00000KT 4SM -SN BR OVC008 M02/ RMK ST8

CYUL;2010-01-19 06:00;CYUL 190600Z 00000KT 5SM -SN BR OVC007 M02/M03 A2991 RMK ST8 SLP131

CYUL;2010-01-19 07:00;CYUL 190700Z 00000KT 4SM -SN BR BKN005 OVC025 M02/M03 A2991 RMK SF6SC2 SLP130

CYUL;2010-01-19 07:25;CYUL 190725Z 17002KT 4SM -SN BR SCT005 OVC025 M02/ RMK SF3SC5

CYUL;2010-01-19 08:00;CYUL 190800Z 18002KT 4SM -SN BR FEW005 OVC030 M02/M03 A2991 RMK SF2SC6 SLP129

CYUL;2010-01-19 09:00;CYUL 190900Z 14002KT 3SM -SN BR FEW008 OVC030 M02/M03 A2990 RMK SF2SC6 SLP127

CYUL;2010-01-19 10:00;CYUL 191000Z 16006KT 4SM -SN BR FEW008 OVC035 M02/M02 A2990 RMK SF1SC7 SLP128

CYUL;2010-01-19 11:00;CYUL 191100Z 16004KT 5SM -SN BR BKN015 OVC030 M01/M02 A2990 RMK SC5SC3 SLP128

CYUL;2010-01-19 11:26;CYUL 191126Z 16005KT 5SM -SN BR BKN013 OVC030 M01/ RMK SC6SC2

CYUL;2010-01-19 12:00;CYUL 191200Z 17006KT 4SM -SN BR BKN013 OVC026 M01/M02 A2990 RMK SC6SC2 SLP127

CYUL;2010-01-19 13:00;CYUL 191300Z 18004KT 4SM -SN BR OVC014 M01/M02 A2991 RMK SC8 SLP129

CYUL;2010-01-19 14:00;CYUL 191400Z 16003KT 3SM -SN BR OVC013 M01/M02 A2991 RMK SC8 SLP130

CYUL;2010-01-19 15:00;CYUL 191500Z 18004KT 1 3/4SM -SN BR OVC012 M00/M02 A2991 RMK SF8 SLP131

CYUL;2010-01-19 15:24;CYUL 191524Z 19004KT 2SM -SN BR OVC015 M00/ RMK SF8

CYUL;2010-01-19 16:00;CYUL 191600Z 19005KT 2 1/2SM -SN BR OVC016 00/M01 A2991 RMK SF8 SLP130

CYUL;2010-01-19 17:00;CYUL 191700Z 20006KT 2 1/2SM -SN HZ OVC016 01/M01 A2990 RMK SF8 SLP126

CYUL;2010-01-19 17:53;CYUL 191753Z 20005KT 2 1/2SM -SN HZ OVC013 01/ RMK SF8

CYUL;2010-01-19 18:00;CYUL 191800Z 21005KT 2 1/2SM -SN HZ FEW009 BKN014 OVC020 01/M01 A2989 RMK SF2SF6SC1 SLP123

CYUL;2010-01-19 19:00;CYUL 191900Z 20005KT 2SM -SN HZ FEW009 OVC016 01/M01 A2988 RMK SF2SF6 SLP120

CYUL;2010-01-19 20:00;CYUL 192000Z 21003KT 1 1/2SM -SN HZ FEW008 OVC014 01/M00 A2988 RMK SF2SF6 SLP120

CYUL;2010-01-19 20:44;CYUL 192044Z 21003KT 1 1/4SM -SN BR FEW008 OVC013 01/ RMK SF2SF6

CYUL;2010-01-19 21:00;CYUL 192100Z 00000KT 1 1/4SM -SN BR FEW007 OVC014 01/M00 A2988 RMK SF2SF6 SLP121

CYUL;2010-01-19 21:25;CYUL 192125Z 00000KT 2SM -SN BR FEW007 SCT015 BKN050 OVC080 01/ RMK SF2SF2SC4AC1

CYUL;2010-01-19 22:00;CYUL 192200Z 00000KT 2SM BR FEW007 SCT018 BKN045 OVC080 01/M01 A2989 RMK SF1SF2SC4AC1 SLP123

CYUL;2010-01-19 23:00;CYUL 192300Z 19002KT 3SM BR FEW007 OVC020 01/M01 A2988 RMK SF2SC6 SLP122

CYUL;2010-01-19 23:40;CYUL 192340Z 36003KT 2 1/2SM BR BKN007 OVC020 01/ RMK SF5SC3

CYUL;2010-01-20 00:00;CYUL 200000Z 03003KT 2 1/2SM -SN BR BKN007 OVC020 00/M01 A2989 RMK SF5SC3 SLP123

CYUL;2010-01-20 00:19;CYUL 200019Z 02003KT 2 1/2SM -SN BR SCT008 OVC021 00/ RMK SF4SC4

CYUL;2010-01-20 01:00;CYUL 200100Z 02003KT 2 1/2SM -SN BR SCT006 BKN025 OVC090 00/M01 A2989 RMK SF3SC4AC1 SLP125

CYUL;2010-01-20 01:26;CYUL 200126Z 36004KT 2SM -SN BR BKN007 OVC030 M00/ RMK SF5SC3

CYUL;2010-01-20 01:52;CYUL 200152Z 36004KT 1 3/4SM -SN BR BKN004 OVC009 M00/ RMK SF6SF2

CYUL;2010-01-20 02:00;CYUL 200200Z 03004KT 1 3/4SM -SN BR BKN004 OVC010 M00/M01 A2990 RMK SF6SF2 SLP127

CYUL;2010-01-20 02:18;CYUL 200218Z 04005KT 1 3/4SM -SN BR SCT004 OVC011 M01/ RMK SF4SF4

CYUL;2010-01-20 03:00;CYUL 200300Z 03005KT 1 1/2SM -SN BR BKN006 OVC010 M01/M02 A2990 RMK SF6SF2 SLP127

CYUL;2010-01-20 04:00;CYUL 200400Z 04005KT 1 3/4SM -SN BR OVC006 M01/M02 A2990 RMK ST8 SLP128

CYUL;2010-01-20 05:00;CYUL 200500Z 35005KT 1 1/2SM -SN BR OVC005 M01/M02 A2990 RMK ST8 SLP126

CYUL;2010-01-20 06:00;CYUL 200600Z 01006KT 1 1/2SM -SN BR OVC004 M01/M02 A2989 RMK ST8 SLP125

CYUL;2010-01-20 07:00;CYUL 200700Z 02005KT 2 1/2SM -SN BR OVC004 M01/M02 A2990 RMK ST8 SLP128

CYUL;2010-01-20 07:37;CYUL 200737Z 01005KT 3SM -SN BR OVC005 M02/ RMK ST8

CYUL;2010-01-20 08:00;CYUL 200800Z 02006KT 3SM -SN BR OVC006 M02/M03 A2991 RMK ST8 SLP129

CYUL;2010-01-20 09:00;CYUL 200900Z 02006KT 3SM -SN BR OVC006 M01/M03 A2991 RMK ST8 SLP130

CYUL;2010-01-20 10:00;CYUL 201000Z 03005KT 4SM -SN BR OVC008 M02/M03 A2991 RMK ST8 SLP132

CYUL;2010-01-20 10:24;CYUL 201024Z 03007KT 4SM BR OVC009 M02/ RMK ST8

CYUL;2010-01-20 11:00;CYUL 201100Z 36006KT 4SM BR BKN006 OVC012 M02/M03 A2993 RMK ST6ST2 SLP136

CYUL;2010-01-20 11:43;CYUL 201143Z 01007KT 4SM -SN BKN006 OVC010 M02/ RMK SF6SF2

CYUL;2010-01-20 12:00;CYUL 201200Z 02006KT 4SM -SN BR BKN007 OVC010 M02/M03 A2994 RMK SF6SF2 SLP140

CYUL;2010-01-20 13:00;CYUL 201300Z 01006KT 4SM -SN BR OVC007 M02/M03 A2996 RMK SF8 SLP147

CYUL;2010-01-20 14:00;CYUL 201400Z 01006KT 5SM -SN BR BKN008 OVC012 M02/M03 A2997 RMK SF6SC2 SLP152

CYUL;2010-01-20 15:00;CYUL 201500Z 01007KT 6SM -SN BR BKN008 OVC014 M02/M03 A2999 RMK SF6SC2 SLP156

CYUL;2010-01-20 15:20;CYUL 201520Z 01009KT 8SM BKN010 OVC015 M02/ RMK SF6SC2

CYUL;2010-01-20 16:00;CYUL 201600Z 02007KT 10SM BKN011 OVC020 M01/M03 A2999 RMK SF6SC2 SLP157

CYUL;2010-01-20 16:23;CYUL 201623Z 02007KT 10SM SCT011 OVC016 M01/ RMK SF3SC5

CYUL;2010-01-20 17:00;CYUL 201700Z 01010KT 10SM OVC014 M01/M04 A2998 RMK SF8 SLP153

CYUL;2010-01-20 17:46;CYUL 201746Z 03009KT 10SM OVC016 M01/ RMK SF8

CYUL;2010-01-20 18:00;CYUL 201800Z 36008KT 12SM OVC017 M00/M04 A2998 RMK SC8 SLP154

CYUL;2010-01-20 18:32;CYUL 201832Z 36007KT 12SM FEW010 FEW020 SCT150 BKN240 M00/ RMK SF1SC2AC1CI0

CYUL;2010-01-20 19:00;CYUL 201900Z 02006KT 12SM FEW010 FEW045 BKN150 M00/M04 A2998 RMK SF1SC2AC2 SLP154

CYUL;2010-01-20 20:00;CYUL 202000Z 36005KT 12SM FEW025 BKN035 00/M04 A3000 RMK SC1SC6 SLP160

CYUL;2010-01-20 21:00;CYUL 202100Z 29006KT 15SM SCT025 OVC045 00/M03 A3002 RMK SC4SC4 SLP167

CYUL;2010-01-20 22:00;CYUL 202200Z 27005KT 15SM FEW025 OVC040 M00/M03 A3003 RMK SC2SC5 SLP171

CYUL;2010-01-20 23:00;CYUL 202300Z 28003KT 10SM OVC040 M00/M03 A3004 RMK SC7 SLP176

CYUL;2010-01-21 00:00;CYUL 210000Z 27005KT 10SM OVC037 M00/M03 A3006 RMK SC8 SLP180

CYUL;2010-01-21 01:00;CYUL 210100Z 27005KT 15SM BKN036 M00/M03 A3007 RMK SC6 SLP183

CYUL;2010-01-21 02:00;CYUL 210200Z 27006KT 15SM BKN035 M02/M05 A3008 RMK SC4 SLP189

CYUL;2010-01-21 03:00;CYUL 210300Z 29008KT 15SM BKN038 M02/M05 A3010 RMK SC5 SLP194

CYUL;2010-01-21 04:00;CYUL 210400Z 29004KT 15SM FEW038 BKN090 M03/M06 A3012 RMK SC2AC4 SLP201

CYUL;2010-01-21 05:00;CYUL 210500Z 22005KT 15SM SCT030 BKN087 M04/M07 A3013 RMK SC3AC2 SLP204

CYUL;2010-01-21 06:00;CYUL 210600Z 26006KT 15SM SCT025 SCT090 M06/M08 A3013 RMK SC3AC1 SLP205

CYUL;2010-01-21 07:00;CYUL 210700Z 25008KT 15SM BKN026 M06/M08 A3015 RMK SC6 SLP213

CYUL;2010-01-21 08:00;CYUL 210800Z 26010KT 15SM BKN022 M05/M08 A3016 RMK SC7 SLP216

CYUL;2010-01-21 09:00;CYUL 210900Z 26010KT 15SM OVC022 M05/M07 A3017 RMK SC8 SLP219

CYUL;2010-01-21 10:00;CYUL 211000Z 24007KT 15SM OVC017 M05/M07 A3019 RMK SC8 SLP226

CYUL;2010-01-21 11:00;CYUL 211100Z 25008KT 15SM OVC018 M05/M07 A3020 RMK SC8 SLP229

CYUL;2010-01-21 12:00;CYUL 211200Z 24006KT 15SM OVC018 M05/M07 A3020 RMK SC8 SLP231

CYUL;2010-01-21 13:00;CYUL 211300Z 26009KT 15SM OVC018 M05/M08 A3021 RMK SC8 SLP234

CYUL;2010-01-21 14:00;CYUL 211400Z 25007KT 15SM OVC017 M05/M07 A3023 RMK SC8 SLP238

CYUL;2010-01-21 15:00;CYUL 211500Z 24009KT 15SM OVC017 M05/M07 A3022 RMK SC8 SLP236

CYUL;2010-01-21 16:00;CYUL 211600Z 26010KT 15SM FEW010 OVC015 M04/M07 A3024 RMK SF1SC8 SLP242

CYUL;2010-01-21 17:00;CYUL 211700Z 25014KT 15SM OVC015 M04/M07 A3023 RMK SC8 SLP238

CYUL;2010-01-21 18:00;CYUL 211800Z 26016KT 15SM OVC016 M04/M07 A3022 RMK SC8 SLP237

CYUL;2010-01-21 19:00;CYUL 211900Z 27014KT 15SM OVC016 M04/M08 A3022 RMK SC8 SLP237

CYUL;2010-01-21 20:00;CYUL 212000Z 25013KT 15SM OVC015 M04/M08 A3023 RMK SC7 SLP239

CYUL;2010-01-21 20:34;CYUL 212034Z 27011KT 15SM BKN013 M05/ RMK SC6

CYUL;2010-01-21 20:41;CYUL 212041Z 25011KT 15SM BKN013 M05/ RMK SC4

CYUL;2010-01-21 21:00;CYUL 212100Z 24010KT 15SM SCT014 M05/M08 A3022 RMK SC2 SLP237

CYUL;2010-01-21 22:00;CYUL 212200Z 23007KT 15SM FEW015 M05/M08 A3021 RMK SC1 SLP234

CYUL;2010-01-21 23:00;CYUL 212300Z 24007KT 15SM FEW015 M06/M08 A3020 RMK SC1 SLP231

CYUL;2010-01-22 00:00;CYUL 220000Z 23006KT 15SM SKC M06/M09 A3020 RMK SLP228

CYUL;2010-01-22 01:00;CYUL 220100Z 23005KT 15SM FEW015 M07/M09 A3018 RMK SF1 SLP222

CYUL;2010-01-22 02:00;CYUL 220200Z 24004KT 15SM FEW015 M07/M09 A3015 RMK SF1 SLP214

CYUL;2010-01-22 03:00;CYUL 220300Z 24006KT 15SM SKC M08/M09 A3014 RMK FROIN SLP209

CYUL;2010-01-22 04:00;CYUL 220400Z 25003KT 15SM SKC M08/M10 A3012 RMK FROIN SLP204

CYUL;2010-01-22 05:00;CYUL 220500Z 24007KT 15SM SKC M08/M10 A3012 RMK SLP201

CYUL;2010-01-22 06:00;CYUL 220600Z 23008KT 15SM SKC M08/M10 A3013 RMK FROIN SLP206

CYUL;2010-01-22 07:00;CYUL 220700Z 25006KT 15SM SKC M08/M10 A3014 RMK SLP210

CYUL;2010-01-22 08:00;CYUL 220800Z 20003KT 15SM SKC M09/M11 A3015 RMK SLP211

CYUL;2010-01-22 09:00;CYUL 220900Z 22007KT 15SM SKC M10/M11 A3013 RMK SLP205

CYUL;2010-01-22 10:00;CYUL 221000Z 00000KT 15SM SKC M10/M12 A3012 RMK SLP204

CYUL;2010-01-22 11:00;CYUL 221100Z 00000KT 15SM SKC M11/M13 A3012 RMK SLP202

CYUL;2010-01-22 12:00;CYUL 221200Z 35003KT 15SM FEW240 M10/M12 A3011 RMK CI1 SLP198

CYUL;2010-01-22 13:00;CYUL 221300Z 01003KT 15SM FEW240 M11/M13 A3013 RMK CI1 SLP206

CYUL;2010-01-22 14:00;CYUL 221400Z 03002KT 15SM BKN050 M07/M09 A3015 RMK SC5 SLP211

CYUL;2010-01-22 15:00;CYUL 221500Z 00000KT 12SM FEW050 M07/M10 A3016 RMK SC2 SLP216

CYUL;2010-01-22 16:00;CYUL 221600Z 25003KT 12SM FEW020 FEW050 M04/M07 A3017 RMK CF1SC1 SLP219

CYUL;2010-01-22 17:00;CYUL 221700Z 07006KT 15SM FEW020 FEW050 FEW240 M03/M08 A3015 RMK CF1SC1CI0 SLP212

CYUL;2010-01-22 18:00;CYUL 221800Z 02011KT 15SM FEW050 FEW240 M03/M08 A3013 RMK SC1CI1 SLP207

CYUL;2010-01-22 19:00;CYUL 221900Z 04009KT 15SM FEW240 M03/M08 A3013 RMK CI0 SLP206

CYUL;2010-01-22 20:00;CYUL 222000Z 03007KT 15SM FEW240 M02/M08 A3014 RMK CI0 SLP210

CYUL;2010-01-22 21:00;CYUL 222100Z 04007KT 15SM FEW240 M02/M09 A3015 RMK CI1 SLP214

CYUL;2010-01-22 22:00;CYUL 222200Z 07008KT 30SM FEW240 M03/M10 A3017 RMK CI0 SLP219

CYUL;2010-01-22 23:00;CYUL 222300Z 06005KT 15SM FEW240 M03/M11 A3019 RMK CI1 SLP226

CYUL;2010-01-23 00:00;CYUL 230000Z 05005KT 15SM SKC M04/M12 A3021 RMK SLP233

CYUL;2010-01-23 01:00;CYUL 230100Z 05006KT 15SM SKC M04/M12 A3023 RMK SLP238

CYUL;2010-01-23 02:00;CYUL 230200Z 06006KT 15SM SKC M05/M14 A3025 RMK SLP245

CYUL;2010-01-23 03:00;CYUL 230300Z 01003KT 15SM SKC M07/M12 A3027 RMK SLP253

CYUL;2010-01-23 04:00;CYUL 230400Z 03004KT 15SM SKC M08/M14 A3028 RMK SLP255

CYUL;2010-01-23 05:00;CYUL 230500Z 01004KT 15SM SKC M09/M15 A3028 RMK SLP257

CYUL;2010-01-23 06:00;CYUL 230600Z 03006KT 15SM SKC M09/M15 A3028 RMK SLP255

CYUL;2010-01-23 07:00;CYUL 230700Z 02002KT 15SM SKC M09/M15 A3028 RMK SLP258

CYUL;2010-01-23 08:00;CYUL 230800Z 34002KT 15SM SKC M11/M15 A3030 RMK SLP262

CYUL;2010-01-23 09:00;CYUL 230900Z 34002KT 15SM SKC M12/M16 A3031 RMK SLP268

CYUL;2010-01-23 10:00;CYUL 231000Z 30003KT 15SM SKC M15/M17 A3034 RMK SLP276

CYUL;2010-01-23 11:00;CYUL 231100Z 29002KT 15SM SKC M13/M16 A3034 RMK SLP278

CYUL;2010-01-23 12:00;CYUL 231200Z 04005KT 15SM SKC M13/M16 A3034 RMK SLP278

CYUL;2010-01-23 13:00;CYUL 231300Z 00000KT 15SM SKC M14/M16 A3036 RMK SLP282

CYUL;2010-01-23 14:00;CYUL 231400Z 08002KT 15SM SKC M09/M13 A3036 RMK SLP285

CYUL;2010-01-23 15:00;CYUL 231500Z 00000KT 30SM SKC M07/M13 A3036 RMK SLP283

CYUL;2010-01-23 16:00;CYUL 231600Z 00000KT 30SM SKC M08/M12 A3035 RMK SLP281

CYUL;2010-01-23 17:00;CYUL 231700Z 27004KT 30SM FEW240 M06/M13 A3033 RMK CI1 SLP273

CYUL;2010-01-23 18:00;CYUL 231800Z 00000KT 30SM FEW240 M05/M13 A3031 RMK CI0 SLP267

CYUL;2010-01-23 19:00;CYUL 231900Z 00000KT 30SM FEW240 M04/M17 A3029 RMK CI0 CONTRAILS SLP259

CYUL;2010-01-23 20:00;CYUL 232000Z 24003KT 30SM FEW240 M04/M13 A3030 RMK CI0 SLP262

CYUL;2010-01-23 21:00;CYUL 232100Z 16003KT 30SM FEW240 M05/M13 A3030 RMK CI0 SLP264

CYUL;2010-01-23 22:00;CYUL 232200Z 18004KT 30SM FEW180 FEW240 M07/M13 A3031 RMK AC1CI0 SLP266

CYUL;2010-01-23 23:00;CYUL 232300Z 13004KT 15SM FEW180 FEW240 M08/M14 A3031 RMK AC1CI0 SLP265

CYUL;2010-01-24 00:00;CYUL 240000Z 11003KT 15SM FEW180 BKN220 M08/M14 A3031 RMK AC1CI2 SLP267

CYUL;2010-01-24 01:00;CYUL 240100Z 09003KT 15SM BKN200 M08/M14 A3029 RMK CI2 SLP260

CYUL;2010-01-24 02:00;CYUL 240200Z 11003KT 15SM BKN240 M08/M14 A3028 RMK CI2 SLP257

CYUL;2010-01-24 03:00;CYUL 240300Z 09003KT 15SM SCT220 M08/M14 A3026 RMK CI2 SLP250

CYUL;2010-01-24 04:00;CYUL 240400Z 09004KT 15SM BKN220 M07/M15 A3024 RMK CI4 SLP244

CYUL;2010-01-24 05:00;CYUL 240500Z 09007KT 15SM BKN220 M07/M15 A3023 RMK CI5 SLP240

CYUL;2010-01-24 06:00;CYUL 240600Z 08009KT 15SM BKN220 M07/M14 A3020 RMK CI7 SLP230

CYUL;2010-01-24 07:00;CYUL 240700Z 05007KT 15SM BKN170 BKN220 M07/M15 A3020 RMK AC5CI2 SLP231

CYUL;2010-01-24 08:00;CYUL 240800Z 05005KT 15SM BKN170 OVC220 M07/M14 A3020 RMK AC6CI2 SLP228

CYUL;2010-01-24 09:00;CYUL 240900Z 03008KT 15SM SCT170 OVC220 M04/M14 A3019 RMK AC3CI4 SLP225

CYUL;2010-01-24 10:00;CYUL 241000Z 03010KT 15SM BKN220 M08/M14 A3017 RMK CI7 SLP219

CYUL;2010-01-24 11:00;CYUL 241100Z 05006KT 15SM BKN210 M07/M13 A3015 RMK CI6 SLP213

CYUL;2010-01-24 12:00;CYUL 241200Z 05010KT 15SM BKN200 M07/M15 A3012 RMK CI6 SLP204

CYUL;2010-01-24 13:00;CYUL 241300Z 04010KT 15SM BKN180 BKN240 M07/M14 A3012 RMK AC3CI2 SLP204

CYUL;2010-01-24 14:00;CYUL 241400Z 04008KT 15SM BKN190 BKN240 M07/M13 A3011 RMK AC6CI1 SLP198

CYUL;2010-01-24 15:00;CYUL 241500Z 05007KT 15SM FEW160 BKN180 BKN220 M05/M12 A3008 RMK AC1AC5CI0 SLP190

CYUL;2010-01-24 16:00;CYUL 241600Z 08006KT 30SM FEW180 BKN240 M03/M10 A3005 RMK AC2CI2 SLP180

CYUL;2010-01-24 17:00;CYUL 241700Z 02008KT 30SM BKN060 BKN240 M04/M09 A3004 RMK SC6CI1 SLP175

CYUL;2010-01-24 18:00;CYUL 241800Z 03013KT 30SM SCT060 BKN220 M03/M09 A2999 RMK SC2CI4 SLP160

CYUL;2010-01-24 19:00;CYUL 241900Z 04010KT 15SM FEW060 FEW180 OVC240 M01/M09 A2998 RMK SC1AC1CI3 SLP155

CYUL;2010-01-24 20:00;CYUL 242000Z 04009KT 15SM FEW060 OVC220 M01/M09 A2998 RMK SC1CI6 SLP155

CYUL;2010-01-24 21:00;CYUL 242100Z 03011KT 15SM OVC220 M02/M09 A2997 RMK CI6 SLP150

CYUL;2010-01-24 22:00;CYUL 242200Z 05010KT 15SM FEW120 FEW180 OVC220 M02/M09 A2994 RMK AC1AC2CI4 SLP142

CYUL;2010-01-24 23:00;CYUL 242300Z 03009KT 15SM OVC035 M02/M07 A2993 RMK SC8 SLP139

CYUL;2010-01-25 00:00;CYUL 250000Z 04007KT 15SM OVC035 M01/M07 A2992 RMK SC8 SLP135

CYUL;2010-01-25 01:00;CYUL 250100Z 05007KT 15SM OVC033 00/M04 A2990 RMK SC8 SLP126

CYUL;2010-01-25 02:00;CYUL 250200Z 12009KT 15SM OVC032 02/00 A2986 RMK SC8 SLP114

CYUL;2010-01-25 02:47;CYUL 250247Z 12008KT 15SM -DZ OVC031 02/ RMK SC8

CYUL;2010-01-25 03:00;CYUL 250300Z 12011KT 15SM -DZ OVC030 02/00 A2983 RMK SC8 SLP103

CYUL;2010-01-25 04:00;CYUL 250400Z 13013KT 15SM -DZ FEW015 OVC033 02/01 A2979 RMK SF1SC7 SLP089

CYUL;2010-01-25 04:09;CYUL 250409Z 13012G19KT 15SM -RA FEW015 OVC032 02/ RMK SF1SC7

CYUL;2010-01-25 05:00;CYUL 250500Z 13018KT 12SM -RA OVC035 03/01 A2975 RMK SC8 SLP075

CYUL;2010-01-25 06:00;CYUL 250600Z 12014KT 15SM -RA FEW035 OVC052 03/02 A2972 RMK SC2SC6 SLP065

CYUL;2010-01-25 07:00;CYUL 250700Z 11009KT 15SM -RA FEW015 SCT035 OVC052 03/02 A2969 RMK SF1SC2SC5 SLP056

CYUL;2010-01-25 07:20;CYUL 250720Z 10009KT 15SM -RA BKN011 OVC032 03/ RMK SF6SC2

CYUL;2010-01-25 08:00;CYUL 250800Z 09009KT 12SM -RA BKN010 OVC050 03/03 A2966 RMK SF6SC2 SLP046

CYUL;2010-01-25 09:00;CYUL 250900Z 10010KT 12SM -RA BKN012 BKN038 OVC070 04/03 A2963 RMK SF3SC4AC1 SLP034

CYUL;2010-01-25 10:00;CYUL 251000Z 11013KT 15SM -RA FEW021 BKN042 OVC075 04/03 A2959 RMK SC2SC3AC3 SLP020

CYUL;2010-01-25 11:00;CYUL 251100Z 09011KT 15SM -RA SCT035 BKN052 OVC075 04/03 A2956 RMK SC3SC3AC2 SLP010

CYUL;2010-01-25 12:00;CYUL 251200Z 10009KT 15SM -RA BKN036 BKN055 OVC080 04/03 A2952 RMK SC5SC2AC1 /R14/ SLP997

CYUL;2010-01-25 13:00;CYUL 251300Z 10009G15KT 15SM -RA FEW024 SCT055 OVC085 05/04 A2946 RMK SC2SC2AC4 PRESFR SLP977

CYUL;2010-01-25 14:00;CYUL 251400Z 10012G19KT 15SM -RA FEW055 OVC090 06/04 A2940 RMK SC2AC6 PRESFR SLP957

CYUL;2010-01-25 15:00;CYUL 251500Z 10010G15KT 15SM -RA FEW035 OVC100 07/04 A2935 RMK SC2AC6 SLP939

CYUL;2010-01-25 16:00;CYUL 251600Z CCA 09009KT 15SM -RA FEW025 BKN095 07/05 A2928 RMK SC2AS6 PRESFR SLP916

CYUL;2010-01-25 16:30;CYUL 251630Z 10013G19KT 15SM FEW025 BKN090 BKN220 07/ RMK SC2AS6CI1

CYUL;2010-01-25 17:00;CYUL 251700Z 10010KT 15SM BKN033 OVC090 08/05 A2918 RMK SC6AC2 PRESFR SLP882

CYUL;2010-01-25 17:31;CYUL 251731Z 13009KT 6SM -RA BR OVC030 08/ RMK SC8

CYUL;2010-01-25 18:00;CYUL 251800Z 16006KT 6SM -RA BR OVC028 08/05 A2914 RMK SC8 SLP870

CYUL;2010-01-25 19:00;CYUL 251900Z 14007KT 2 1/2SM -RA BR OVC027 06/05 A2912 RMK SC8 SLP861

CYUL;2010-01-25 19:24;CYUL 251924Z 15005KT 6SM -RA BR FEW020 OVC050 07/ RMK SC2SC6

CYUL;2010-01-25 20:00;CYUL 252000Z 16011KT 8SM -RA OVC060 07/07 A2909 RMK SC8 SLP851

CYUL;2010-01-25 21:00;CYUL 252100Z 17010KT 8SM -RA BKN028 OVC070 07/06 A2909 RMK SC6AS2 SLP852

CYUL;2010-01-25 22:00;CYUL 252200Z 18008KT 15SM -RA FEW020 OVC055 07/06 A2911 RMK SC1SC7 SLP859

CYUL;2010-01-25 23:00;CYUL 252300Z CCA 21011KT 15SM BKN014 OVC080 07/06 A2913 RMK SC7AC1 /R10/ SLP867

CYUL;2010-01-26 00:00;CYUL 260000Z 23019KT 15SM SCT015 OVC020 07/05 A2918 RMK SC4SC4 SLP883

CYUL;2010-01-26 00:38;CYUL 260038Z 23020G30KT 15SM -DZ BKN013 OVC020 05/ RMK SF6SC2

CYUL;2010-01-26 01:00;CYUL 260100Z 23021G26KT 15SM BKN013 OVC028 05/03 A2922 RMK SF6SC2 SLP897

CYUL;2010-01-26 02:00;CYUL 260200Z 24024G30KT 15SM FEW015 OVC030 04/01 A2927 RMK SF2SC6 SLP911

CYUL;2010-01-26 02:20;CYUL 260220Z 23024G30KT 15SM -DZ BKN015 OVC022 04/ RMK SF6SC2

CYUL;2010-01-26 03:00;CYUL 260300Z 23034KT 15SM -DZ BKN014 OVC020 03/01 A2928 RMK SF6SC2 SLP918

CYUL;2010-01-26 03:28;CYUL 260328Z 23020G29KT 15SM BKN014 OVC020 03/ RMK SC6SC2

CYUL;2010-01-26 04:00;CYUL 260400Z 23025KT 15SM BKN015 OVC040 02/M00 A2932 RMK SC6SC2 SLP932

CYUL;2010-01-26 05:00;CYUL 260500Z 24017G22KT 15SM BKN018 OVC040 02/M01 A2934 RMK SC5SC3 SLP938

CYUL;2010-01-26 06:00;CYUL 260600Z 24014KT 15SM BKN020 OVC040 02/M01 A2933 RMK SC6SC2 SLP935

CYUL;2010-01-26 07:00;CYUL 260700Z 22015G21KT 15SM OVC022 02/M02 A2933 RMK SC8 SLP935

CYUL;2010-01-26 08:00;CYUL 260800Z 23013G18KT 15SM OVC030 02/M03 A2934 RMK SC8 SLP937

CYUL;2010-01-26 09:00;CYUL 260900Z 23014KT 15SM OVC025 01/M03 A2934 RMK SC8 SLP938

CYUL;2010-01-26 10:00;CYUL 261000Z 23013KT 15SM -SN OVC024 01/M03 A2934 RMK SC8 SLP937

CYUL;2010-01-26 11:00;CYUL 261100Z 23015KT 15SM -SN BKN024 OVC040 01/M03 A2935 RMK SC6SC2 SLP942

CYUL;2010-01-26 12:00;CYUL 261200Z 23016G21KT 15SM -SN SCT020 OVC045 01/M03 A2937 RMK SC3SC5 SLP947

CYUL;2010-01-26 12:36;CYUL 261236Z 24013KT 2SM -SN BKN015 OVC024 00/ RMK SN1SC4SC3

CYUL;2010-01-26 13:00;CYUL 261300Z 24013KT 3SM -SN BKN015 OVC030 01/M02 A2938 RMK SN1SC5SC2 SLP951

CYUL;2010-01-26 14:00;CYUL 261400Z 24012KT 10SM -SN SCT015 OVC080 01/M02 A2939 RMK SC3AC5 SLP954

CYUL;2010-01-26 15:00;CYUL 261500Z 24016KT 10SM -SN FEW015 BKN040 OVC085 01/M02 A2940 RMK SF2SC6AC1 /S01/ SLP958

CYUL;2010-01-26 16:00;CYUL 261600Z 24014KT 4SM -SN BKN018 OVC040 01/M02 A2940 RMK SC6SC2 SLP959

CYUL;2010-01-26 16:55;CYUL 261655Z 24015KT 2 1/2SM -SN BKN017 OVC030 01/ RMK SC6SC2

CYUL;2010-01-26 17:00;CYUL 261700Z 23014G19KT 2 1/2SM -SN BKN015 OVC027 01/M02 A2940 RMK SC6SC2 SLP957

CYUL;2010-01-26 17:18;CYUL 261718Z 24015G20KT 2SM -SN BKN011 OVC027 01/ RMK SC6SC2

CYUL;2010-01-26 17:52;CYUL 261752Z 23015KT 2SM -RASN FEW008 OVC013 01/ RMK SF2SC6

CYUL;2010-01-26 18:00;CYUL 261800Z 23013KT 2SM -RASN FEW009 OVC012 01/M01 A2940 RMK SF2SF6 SLP956

CYUL;2010-01-26 19:00;CYUL 261900Z 23015G21KT 1 3/4SM -RASN FEW009 OVC015 01/M01 A2941 RMK SF2SF6 SLP961

CYUL;2010-01-26 19:10;CYUL 261910Z 24015KT 1 1/2SM -RASN SCT007 OVC011 01/ RMK SF3SF5

CYUL;2010-01-26 20:00;CYUL 262000Z 24019G24KT 1 3/4SM -RASN FEW009 OVC014 01/M01 A2944 RMK SF2SF6 SLP971

CYUL;2010-01-26 21:00;CYUL 262100Z 24016KT 1 3/4SM -RASN FEW008 OVC014 01/M01 A2947 RMK SF2SF6 SLP980

CYUL;2010-01-26 22:00;CYUL 262200Z 24016G22KT 1 1/2SM -RASN BR FEW008 OVC010 01/M01 A2949 RMK SF1SF8 SLP989

CYUL;2010-01-26 23:00;CYUL 262300Z 25019KT 2 1/2SM -RASN BR SCT008 OVC012 01/M01 A2953 RMK SF3SF5 SLP001

CYUL;2010-01-27 00:00;CYUL 270000Z 25016G24KT 3SM -RASN BR FEW009 OVC013 01/M01 A2956 RMK SF1SF8 SLP011

CYUL;2010-01-27 01:00;CYUL 270100Z 25020G26KT 6SM -RASN BR BKN014 OVC030 01/M01 A2958 RMK SF6SC2 SLP019

CYUL;2010-01-27 01:53;CYUL 270153Z 24019KT 8SM -SN BKN017 OVC035 01/ RMK SF6SC2

CYUL;2010-01-27 02:00;CYUL 270200Z 24018G24KT 8SM -SN BKN014 OVC030 01/M01 A2960 RMK SF6SC2 SLP026

CYUL;2010-01-27 02:23;CYUL 270223Z 25017G24KT 10SM -SN BKN015 OVC030 01/ RMK SF5SC3

CYUL;2010-01-27 03:00;CYUL 270300Z 23020G27KT 10SM -SN FEW015 OVC027 01/M02 A2962 RMK SF2SC6 SLP032

CYUL;2010-01-27 04:00;CYUL 270400Z 23021G26KT 10SM -SN FEW016 OVC027 01/M02 A2964 RMK SC2SC6 SLP038

CYUL;2010-01-27 05:00;CYUL 270500Z 23018G24KT 10SM -SN FEW018 OVC030 01/M02 A2965 RMK SC2SC6 SLP041

CYUL;2010-01-27 06:00;CYUL 270600Z 23018KT 15SM FEW020 OVC037 01/M03 A2966 RMK SC2SC6 SLP046

CYUL;2010-01-27 06:42;CYUL 270642Z 23013G20KT 15SM -SN BKN026 OVC035 01/ RMK SC6SC2 -SN INTMT

CYUL;2010-01-27 07:00;CYUL 270700Z 23013G18KT 15SM -SN FEW020 BKN034 OVC050 01/M03 A2969 RMK SC1SC6SC2 -SN INTMT SLP055

CYUL;2010-01-27 08:00;CYUL 270800Z 23015G21KT 15SM -SN FEW018 SCT030 OVC080 00/M03 A2970 RMK SC2SC2AC5 SLP060

CYUL;2010-01-27 09:00;CYUL 270900Z 23015G20KT 6SM -SN BKN015 OVC025 00/M02 A2972 RMK SC5SC3 SLP068

CYUL;2010-01-27 09:35;CYUL 270935Z 24015KT 5SM -SN BKN014 BKN024 OVC030 M00/ RMK SF5SC2SC2

CYUL;2010-01-27 10:00;CYUL 271000Z 24016KT 8SM -SN BKN014 BKN030 OVC050 M00/M02 A2975 RMK SC5SC2SC1 SLP075

CYUL;2010-01-27 11:00;CYUL 271100Z 27013KT 8SM -SN SCT014 OVC020 M01/M03 A2978 RMK SC3SC5 SLP086

CYUL;2010-01-27 12:00;CYUL 271200Z 28011G17KT 10SM -SN SCT020 OVC040 M02/M04 A2981 RMK SC4SC4 /S01/ SLP098

CYUL;2010-01-27 13:00;CYUL 271300Z 27016G24KT 15SM FEW015 SCT030 BKN052 M02/M07 A2985 RMK SC2SC2SC3 INTMT -SN SLP111

CYUL;2010-01-27 14:00;CYUL 271400Z 27013G19KT 15SM FEW030 SCT055 BKN210 M03/M09 A2988 RMK SC2SC2CI0 SLP122

CYUL;2010-01-27 15:00;CYUL 271500Z 27014G22KT 15SM FEW025 FEW090 FEW150 M03/M09 A2991 RMK SC1AC1AC0 SLP130

CYUL;2010-01-27 16:00;CYUL 271600Z 26012KT 15SM FEW025 FEW120 M02/M09 A2994 RMK SC1AC2 SLP140

CYUL;2010-01-27 17:00;CYUL 271700Z 27011G17KT 15SM FEW030 FEW120 M02/M09 A2993 RMK SC1AC1 SLP138

CYUL;2010-01-27 18:00;CYUL 271800Z 27011G16KT 15SM FEW030 FEW060 FEW120 M02/M09 A2992 RMK SC1SC2AC1 SLP135

CYUL;2010-01-27 19:00;CYUL 271900Z 27006KT 15SM FEW030 BKN070 M02/M09 A2994 RMK SC1AC6 SLP140

CYUL;2010-01-27 20:00;CYUL 272000Z 24003KT 15SM FEW030 OVC070 M01/M09 A2994 RMK SC1AC8 SLP142

CYUL;2010-01-27 21:00;CYUL 272100Z 18004KT 12SM OVC030 M01/M09 A2995 RMK SC8 SLP144

CYUL;2010-01-27 21:10;CYUL 272110Z 23005KT 10SM -SN OVC030 M01/ RMK SC8

CYUL;2010-01-27 22:00;CYUL 272200Z 21005KT 4SM -SN OVC025 M02/M06 A2996 RMK SC8 SLP147

CYUL;2010-01-27 22:23;CYUL 272223Z 19008KT 2 1/2SM -SN SCT009 OVC025 M02/ RMK SF3SC5

CYUL;2010-01-27 22:39;CYUL 272239Z 18008KT 3SM -SN FEW009 BKN025 OVC070 M02/ RMK SF2SC5AC2

CYUL;2010-01-27 23:00;CYUL 272300Z 21010KT 15SM -SN FEW015 BKN028 OVC070 M01/M04 A2997 RMK SF1SC5AC2 SLP151

CYUL;2010-01-27 23:53;CYUL 272353Z 23014KT 15SM FEW015 OVC065 M01/ RMK SF1SC7

CYUL;2010-01-28 00:00;CYUL 280000Z 23014KT 15SM FEW015 OVC065 M01/M06 A2998 RMK SF1SC7 SLP155

CYUL;2010-01-28 00:53;CYUL 280053Z 23014G22KT 15SM -SN BKN030 OVC065 M02/ RMK SC5SC3

CYUL;2010-01-28 01:00;CYUL 280100Z 23015KT 8SM -SN BKN030 OVC060 M02/M06 A2998 RMK SC5SC3 SLP155

CYUL;2010-01-28 01:06;CYUL 280106Z 23014KT 2 1/2SM -SN FEW008 BKN020 OVC060 M02/ RMK SF2SC4SC2

CYUL;2010-01-28 01:15;CYUL 280115Z 23016KT 1 3/4SM -SN SCT005 OVC014 M03/ RMK SF4SC4

CYUL;2010-01-28 01:28;CYUL 280128Z 23013G20KT 2SM -SN SCT005 OVC018 M03/ RMK SF3SC5

CYUL;2010-01-28 01:46;CYUL 280146Z 24017KT 2 1/2SM -SN SCT010 OVC030 M03/ RMK SF3SC5

CYUL;2010-01-28 02:00;CYUL 280200Z 23017G26KT 2SM -SN FEW010 OVC020 M03/M06 A2998 RMK SF2SF6 /S01/ SLP155

CYUL;2010-01-28 02:17;CYUL 280217Z 23019G24KT 4SM -SN FEW010 BKN030 OVC060 M03/ RMK SF2SC4SC2

CYUL;2010-01-28 02:34;CYUL 280234Z 23017KT 15SM FEW015 BKN060 M03/ RMK SF1SC3

CYUL;2010-01-28 03:00;CYUL 280300Z 23015G21KT 15SM FEW020 BKN055 M03/M08 A2999 RMK SC1SC6 SLP156

CYUL;2010-01-28 04:00;CYUL 280400Z 24014KT 15SM FEW055 FEW090 M04/M09 A2999 RMK SC1AC1 SLP157

CYUL;2010-01-28 05:00;CYUL 280500Z 23008KT 15SM BKN040 M04/M09 A2999 RMK SC7 SLP156

CYUL;2010-01-28 05:14;CYUL 280514Z 23005KT 15SM -SN FEW029 OVC040 M04/ RMK SC2SC6

CYUL;2010-01-28 06:00;CYUL 280600Z 23004KT 6SM -SN BKN018 OVC026 M04/M07 A2998 RMK SC6SC2 SLP153

CYUL;2010-01-28 07:00;CYUL 280700Z 22009KT 5SM -SN BKN015 BKN030 OVC050 M03/M06 A2997 RMK SC5SC2SC2 SLP151

CYUL;2010-01-28 07:30;CYUL 280730Z 22008KT 4SM -SN FEW008 BKN013 OVC020 M03/ RMK SF1SC5SC2

CYUL;2010-01-28 08:00;CYUL 280800Z 20011KT 5SM -SN FEW009 BKN014 OVC020 M03/M05 A2996 RMK SF1SC6SC2 SLP146

CYUL;2010-01-28 08:23;CYUL 280823Z 20010KT 2SM -SN BKN011 OVC020 M03/ RMK SN1SC5SC2

CYUL;2010-01-28 09:00;CYUL 280900Z 22006KT 1SM R24R/P6000FT/N -SN OVC009 M04/M05 A2995 RMK SN3SC5 /S01/ SLP144

CYUL;2010-01-28 09:11;CYUL 280911Z 22009KT 3/4SM R24R/P6000FT/D -SN VV007 M03/ RMK SN8

CYUL;2010-01-28 09:25;CYUL 280925Z 25004KT 1 1/2SM -SN BKN012 OVC022 M04/ RMK SN1SC5SC2

CYUL;2010-01-28 09:32;CYUL 280932Z 21004KT 6SM -SN SCT012 BKN030 OVC080 M04/ RMK SF4SC2AC2

CYUL;2010-01-28 10:00;CYUL 281000Z 22007KT 6SM -SN FEW013 BKN026 OVC040 M04/M06 A2993 RMK SF2SC5SC1 SLP137

CYUL;2010-01-28 11:00;CYUL 281100Z 21010KT 2 1/2SM -SN SCT010 BKN015 OVC025 M03/M06 A2991 RMK SF3SC3SC2 /S02/ SLP129

CYUL;2010-01-28 11:07;CYUL 281107Z 20010KT 2SM -SN SCT007 BKN012 OVC020 M04/ RMK SF3SC4SC1

CYUL;2010-01-28 11:15;CYUL 281115Z 20011KT 3SM -SN SCT007 BKN016 OVC025 M03/ RMK SF3SC3SC2

CYUL;2010-01-28 12:00;CYUL 281200Z 20009KT 3SM -SN SCT008 OVC017 M04/M06 A2988 RMK SF3SC5 SLP122

CYUL;2010-01-28 12:13;CYUL 281213Z 21008KT 2 1/2SM -SN BKN008 OVC015 M04/ RMK SN1SF5SC2

CYUL;2010-01-28 13:00;CYUL 281300Z 21006KT 2 1/2SM -SN SCT007 OVC014 M04/M06 A2987 RMK SF3SC5 SLP117

CYUL;2010-01-28 14:00;CYUL 281400Z 22006KT 3SM -SN SCT012 BKN025 M04/M06 A2985 RMK SF4SC1 SLP109

CYUL;2010-01-28 15:00;CYUL 281500Z 22006KT 4SM -SN FEW012 FEW025 BKN040 M04/M06 A2984 RMK SF1SC2SC3 SLP108

CYUL;2010-01-28 16:00;CYUL 281600Z 21005KT 3SM -SN FEW012 BKN020 OVC030 M04/M06 A2981 RMK SF1SC6SC1 /S01/ SLP097

CYUL;2010-01-28 17:00;CYUL 281700Z 22002KT 3SM -SN OVC025 M04/M06 A2977 RMK SC8 SLP082

CYUL;2010-01-28 17:25;CYUL 281725Z 26003KT 2SM -SN OVC025 M04/ RMK SC8

CYUL;2010-01-28 17:42;CYUL 281742Z 26002KT 1 1/2SM -SN BKN011 OVC025 M04/ RMK SF6SC2

CYUL;2010-01-28 18:00;CYUL 281800Z 28005KT 1 1/4SM -SN BKN009 OVC020 M04/M06 A2972 RMK SF6SC2 SLP066

CYUL;2010-01-28 18:19;CYUL 281819Z 29003KT 1SM R24R/5500FT/N -SN BKN008 OVC018 M04/ RMK SF6SC2

CYUL;2010-01-28 18:34;CYUL 281834Z 29002KT 3/4SM R24R/4000V6000FT/D -SN OVC007 M04/ RMK SN3SF5

CYUL;2010-01-28 18:43;CYUL 281843Z 00000KT 5/8SM R24R/3500V5000FT/D -SN OVC006 M04/ RMK SN4SF4

CYUL;2010-01-28 19:00;CYUL 281900Z 24003KT 1SM R24R/6000FT/U -SN OVC009 M04/M05 A2972 RMK SN2SF6 /S03/ SLP065

CYUL;2010-01-28 19:09;CYUL 281909Z 24004KT 1 1/2SM -SN OVC010 M04/ RMK SN2SF6

CYUL;2010-01-28 19:44;CYUL 281944Z 22007KT 1 3/4SM -SN FEW009 OVC014 M04/ RMK SF2SF6

CYUL;2010-01-28 20:00;CYUL 282000Z 21006KT 3SM -SN FEW015 BKN025 OVC070 M04/M06 A2971 RMK SF2SC3AC3 SLP062

CYUL;2010-01-28 20:34;CYUL 282034Z 20009KT 2SM -SN BKN012 OVC025 M04/ RMK SF6SC2

CYUL;2010-01-28 20:48;CYUL 282048Z 23011KT 1SM R24R/5500FT/N -SN OVC005 M04/ RMK SN3SF5

CYUL;2010-01-28 20:54;CYUL 282054Z CCA 27025G33KT 1/4SM R24R/2800V4500FT/N SN DRSN OVC002 M04/ RMK SN3SF5

CYUL;2010-01-28 21:00;CYUL 282100Z 27017G33KT 4SM R24R/2800V6000FT/N -SN DRSN FEW010 BKN040 BKN090 M05/M07 A2973 RMK SF2SC2AC0 RESN SLP071

CYUL;2010-01-28 21:22;CYUL 282122Z 25014G22KT 15SM FEW015 BKN060 BKN120 M06/ RMK SF2SC2AC1

CYUL;2010-01-28 21:45;CYUL 282145Z CCA 25016G21KT 12SM -SN SCT015 BKN120 M06/ RMK SF3AC2 -SN INTMT

CYUL;2010-01-28 22:00;CYUL 282200Z CCA 24017KT 1 1/4SM -SN BKN010 OVC030 M06/M08 A2974 RMK SF7SC1 -SN INTMT SLP073

CYUL;2010-01-28 22:03;CYUL 282203Z 24024G30KT 3/4SM R24R/4500V6000FT/D -SN DRSN SCT003 OVC011 M06/ RMK SF3SF5

CYUL;2010-01-28 22:15;CYUL 282215Z 26025G34KT 5/8SM R24R/3500V6000FT/U -SN DRSN SCT004 BKN009 OVC025 M07/ RMK SF3SF2SC2

CYUL;2010-01-28 22:23;CYUL 282223Z 26023G33KT 1SM R24R/6000FT/D -SN DRSN BKN006 OVC020 M07/ RMK SF6SF2

CYUL;2010-01-28 22:36;CYUL 282236Z 27028G34KT 3/4SM R24R/3500V6000FT/D -SN DRSN OVC008 M08/ RMK SN2SF6

CYUL;2010-01-28 22:46;CYUL 282246Z 27026G40KT 3/4SM R24R/4000V6000FT/U -SN DRSN OVC010 M08/ RMK SN2SF6

CYUL;2010-01-28 23:00;CYUL 282300Z CCA 26023G28KT 1 1/4SM -SN DRSN BKN015 OVC025 M08/M10 A2981 RMK SF6SF2 PRESRR /S04/ SLP097

CYUL;2010-01-28 23:20;CYUL 282320Z 27024G33KT 3SM -SN DRSN BKN025 OVC050 M08/ RMK SF6SF2

CYUL;2010-01-28 23:42;CYUL 282342Z 26021G28KT 15SM DRSN SCT040 BKN065 M08/ RMK SC3SC3

CYUL;2010-01-29 00:00;CYUL 290000Z 26024G33KT 15SM DRSN FEW015 SCT050 OVC090 M08/M13 A2983 RMK SC1SC3AC4 SLP105

CYUL;2010-01-29 01:00;CYUL 290100Z 26022G31KT 12SM DRSN FEW015 OVC080 M10/M15 A2985 RMK SC1AS6 SLP111

CYUL;2010-01-29 01:19;CYUL 290119Z 26025G33KT 8SM -SN DRSN FEW015 OVC070 M10/ RMK SC1AS7

CYUL;2010-01-29 02:00;CYUL 290200Z 26026G33KT 4SM -SN DRSN SCT035 OVC070 M11/M16 A2987 RMK SC3AC3 SLP118

CYUL;2010-01-29 03:00;CYUL 290300Z 26029G39KT 2SM -SN DRSN FEW017 BKN033 OVC050 M12/M15 A2988 RMK SF2SC3SC2 SLP121

CYUL;2010-01-29 03:20;CYUL 290320Z 25028G37KT 1SM R24R/P6000FT/U -SN DRSN SCT018 OVC032 M12/ RMK SF3SC5

CYUL;2010-01-29 03:32;CYUL 290332Z 26025G35KT 3/4SM R24R/P6000FT/D -SN DRSN BKN012 OVC025 M12/ RMK SF5SC3

CYUL;2010-01-29 03:43;CYUL 290343Z 26023G30KT 5/8SM R24R/P6000FT/D -SN DRSN BKN008 OVC019 M12/ RMK SF6SC2

CYUL;2010-01-29 03:48;CYUL 290348Z 26020G28KT 1/2SM R24R/P6000FT/D -SN BLSN BKN006 OVC016 M12/ RMK SF6SC2

CYUL;2010-01-29 03:53;CYUL 290353Z 26020G28KT 1/4SM R24R/P6000FT/N -SN +BLSN BKN004 OVC012 M12/ RMK SF6SC2

CYUL;2010-01-29 04:00;CYUL 290400Z 27018G28KT 3/8SM R24R/P6000FT/U -SN BLSN BKN005 OVC016 M12/M14 A2990 RMK SF5SC3 SLP129

CYUL;2010-01-29 04:08;CYUL 290408Z 27015G25KT 1SM R24R/P6000FT/U -SN BLSN SCT008 BKN018 OVC027 M12/ RMK SF2SC4SC2

CYUL;2010-01-29 04:18;CYUL 290418Z 29026G32KT 1/4SM R24R/P6000FT/D -SN +BLSN BKN009 OVC018 M12/ RMK SF6SC2

CYUL;2010-01-29 04:54;CYUL 290454Z 28027G32KT 1/8SM R24R/2600V4500FT/N -SN +BLSN BKN004 OVC012 M12/ RMK SF6SC2

CYUL;2010-01-29 05:00;CYUL 290500Z CCA 29024G32KT 1/8SM R24R/1600V2200FT/N -SN +BLSN BKN004 OVC014 M13/M15 A2994 RMK SF6SC2 SLP143

CYUL;2010-01-29 05:14;CYUL 290514Z 28020G32KT 1/4SM R24R/4000V6000FT/U -SN +BLSN BKN006 OVC014 M13/ RMK SF6SC2

CYUL;2010-01-29 06:00;CYUL 290600Z CCA 28019G27KT 5/8SM -SN BLSN FEW008 BKN013 OVC024 M14/M16 A2998 RMK SF2SF4SC2 /S02/ SLP156

CYUL;2010-01-29 06:25;CYUL 290625Z 28016G26KT 1SM R24R/P6000FT/U -SN BLSN FEW009 BKN016 OVC026 M14/ RMK SF2SF4SC2

CYUL;2010-01-29 06:47;CYUL 290647Z 28016G25KT 1 1/2SM R24R/P6000FT/D -SN BLSN FEW012 BKN021 OVC036 M14/ RMK SF2SF4SC2

CYUL;2010-01-29 07:00;CYUL 290700Z 29023G28KT 1 1/2SM -SN BLSN FEW013 BKN023 OVC035 M15/M18 A3002 RMK SF2SC5SC2 SLP168

CYUL;2010-01-29 07:09;CYUL 290709Z 28024G31KT 3/4SM R24R/P6000FT/U -SN BLSN FEW013 BKN025 OVC037 M15/ RMK SF2SC5SC2

CYUL;2010-01-29 07:14;CYUL 290714Z 28018G31KT 2SM -SN BLSN FEW016 BKN030 OVC045 M15/ RMK SF2SC5SC2

CYUL;2010-01-29 07:45;CYUL 290745Z 28022G31KT 4SM -SN BLSN FEW025 BKN045 OVC070 M15/ RMK SF2SC5AC2

CYUL;2010-01-29 08:00;CYUL 290800Z 28019G29KT 4SM -SN BLSN FEW029 BKN050 OVC075 M15/M20 A3005 RMK SC1SC6AC2 SLP179

CYUL;2010-01-29 09:00;CYUL 290900Z 23019G31KT 4SM -SN BLSN BKN080 OVC095 M16/M23 A3008 RMK AC5AC2 SLP188

CYUL;2010-01-29 10:00;CYUL 291000Z 28020G25KT 10SM DRSN FEW090 M17/M24 A3010 RMK AC2 SLP196

CYUL;2010-01-29 11:00;CYUL 291100Z 27019G25KT 15SM DRSN FEW090 M17/M25 A3012 RMK AC1 SLP203

CYUL;2010-01-29 12:00;CYUL 291200Z 28015G25KT 15SM DRSN FEW090 FEW240 M18/M25 A3014 RMK AC1CI0 SLP210

CYUL;2010-01-29 13:00;CYUL 291300Z 28015G22KT 15SM DRSN FEW240 M18/M26 A3017 RMK CI1 SLP220

CYUL;2010-01-29 14:00;CYUL 291400Z 27021G26KT 15SM DRSN FEW240 M19/M26 A3018 RMK CI1 SLP224

CYUL;2010-01-29 15:00;CYUL 291500Z CCA 27018G27KT 15SM DRSN FEW030 FEW240 M18/M26 A3020 RMK CF1CI1 SLP232

CYUL;2010-01-29 16:00;CYUL 291600Z CCA 27018G27KT 15SM DRSN FEW030 FEW240 M18/M26 A3020 RMK CF1CI1 SLP230

CYUL;2010-01-29 17:00;CYUL 291700Z CCA 26024KT 30SM DRSN FEW030 FEW100 M18/M26 A3017 RMK CF1AC1 SLP222

CYUL;2010-01-29 18:00;CYUL 291800Z 26025G31KT 30SM DRSN FEW030 FEW100 M18/M26 A3016 RMK CF1AC1 SLP216

CYUL;2010-01-29 19:00;CYUL 291900Z 27020G31KT 30SM DRSN FEW030 FEW220 M17/M26 A3017 RMK CF1CI0 SLP219

CYUL;2010-01-29 20:00;CYUL 292000Z 27026G31KT 30SM DRSN FEW030 SCT220 M17/M25 A3018 RMK CF1CI1 SLP225

CYUL;2010-01-29 21:00;CYUL 292100Z 27022G29KT 30SM DRSN FEW035 FEW240 M17/M26 A3020 RMK CF1CI1 SLP230

CYUL;2010-01-29 22:00;CYUL 292200Z 27020G26KT 30SM DRSN FEW035 FEW240 M17/M26 A3021 RMK CF1CI0 SLP235

CYUL;2010-01-29 23:00;CYUL 292300Z 27017G26KT 15SM DRSN FEW035 FEW240 M17/M26 A3023 RMK CF1CI0 SLP242

CYUL;2010-01-30 00:00;CYUL 300000Z 27018G26KT 15SM DRSN FEW035 SCT240 M18/M26 A3027 RMK CF1CI1 SLP254

CYUL;2010-01-30 01:00;CYUL 300100Z 28018G26KT 15SM DRSN FEW055 SCT110 BKN240 M18/M27 A3027 RMK SC2AC1CI0 SLP253

CYUL;2010-01-30 02:00;CYUL 300200Z 27018KT 15SM -SN DRSN FEW025 BKN065 BKN097 M19/M27 A3026 RMK SC1SC2AC1 SLP251

CYUL;2010-01-30 03:00;CYUL 300300Z 28012G21KT 15SM -SN DRSN FEW032 FEW065 BKN100 M19/M27 A3028 RMK SC1SC1AC2 SLP258

CYUL;2010-01-30 04:00;CYUL 300400Z 27013G18KT 12SM -SN DRSN FEW027 SCT039 BKN067 M20/M26 A3030 RMK SC1SC2AC2 SLP263

CYUL;2010-01-30 05:00;CYUL 300500Z 27013G18KT 10SM -SN DRSN SCT022 BKN039 BKN055 M20/M26 A3029 RMK SC2SC2SC1 SLP262

CYUL;2010-01-30 06:00;CYUL 300600Z 28015KT 10SM -SN DRSN FEW025 BKN031 OVC055 M20/M26 A3030 RMK SC2SC3SC2 SLP264

CYUL;2010-01-30 07:00;CYUL 300700Z 28013KT 10SM -SN DRSN SCT026 OVC048 M20/M26 A3031 RMK SC3SC4 SLP267

CYUL;2010-01-30 08:00;CYUL 300800Z 27013KT 15SM DRSN SCT045 M20/M26 A3032 RMK SC2 SLP271

CYUL;2010-01-30 09:00;CYUL 300900Z 25015KT 15SM DRSN FEW025 FEW045 M21/M27 A3032 RMK SC1SC1 SLP272

CYUL;2010-01-30 10:00;CYUL 301000Z 26012KT 15SM DRSN FEW025 M21/M27 A3031 RMK SC1 SLP269

CYUL;2010-01-30 11:00;CYUL 301100Z 25012KT 15SM DRSN FEW025 FEW240 M21/M27 A3031 RMK SC1CI1 SLP270

CYUL;2010-01-30 12:00;CYUL 301200Z 26010KT 15SM FEW020 M21/M27 A3032 RMK SC1 SLP271

CYUL;2010-01-30 13:00;CYUL 301300Z 26010KT 15SM FEW017 M21/M27 A3033 RMK SF1 SLP276

CYUL;2010-01-30 14:00;CYUL 301400Z 25011KT 15SM FEW018 FEW190 M20/M27 A3035 RMK SF1AC1 SLP282

CYUL;2010-01-30 15:00;CYUL 301500Z 26010KT 30SM FEW025 FEW180 M20/M26 A3035 RMK CF1AC1 SLP281

CYUL;2010-01-30 16:00;CYUL 301600Z 24006KT 30SM FEW030 FEW220 M19/M25 A3032 RMK CF1CI1 SLP271

CYUL;2010-01-30 17:00;CYUL 301700Z 25009KT 30SM FEW030 FEW220 M18/M25 A3029 RMK CF1CI0 SLP263

CYUL;2010-01-30 18:00;CYUL 301800Z 23009KT 30SM FEW240 M16/M24 A3027 RMK CI0 SLP255

CYUL;2010-01-30 19:00;CYUL 301900Z 25010KT 30SM FEW240 M16/M24 A3025 RMK CI0 SLP248

CYUL;2010-01-30 20:00;CYUL 302000Z 26009KT 30SM SCT240 M15/M24 A3023 RMK CI1 SLP242

CYUL;2010-01-30 21:00;CYUL 302100Z 24010KT 30SM FEW240 M15/M23 A3021 RMK CI1 SLP235

CYUL;2010-01-30 22:00;CYUL 302200Z 25011KT 30SM FEW240 M15/M23 A3020 RMK CI1 SLP231

CYUL;2010-01-30 23:00;CYUL 302300Z 23009KT 15SM FEW240 M15/M23 A3020 RMK CI1 SLP230

CYUL;2010-01-31 00:00;CYUL 310000Z 25008KT 15SM FEW240 M16/M23 A3019 RMK CI1 SLP226

CYUL;2010-01-31 01:00;CYUL 310100Z 25009KT 15SM SKC M16/M24 A3016 RMK SLP218

CYUL;2010-01-31 02:00;CYUL 310200Z 24007KT 15SM FEW240 M16/M23 A3015 RMK CI1 SLP213

CYUL;2010-01-31 03:00;CYUL 310300Z 25006KT 15SM FEW240 M16/M23 A3014 RMK CI1 SLP210

CYUL;2010-01-31 04:00;CYUL 310400Z 25006KT 15SM BKN059 M16/M23 A3012 RMK SC5 SLP205

CYUL;2010-01-31 05:00;CYUL 310500Z 24008KT 15SM BKN055 M16/M22 A3009 RMK SC4 SLP194

CYUL;2010-01-31 06:00;CYUL 310600Z 26002KT 15SM SCT062 M16/M22 A3007 RMK SC2 SLP188

CYUL;2010-01-31 07:00;CYUL 310700Z 23004KT 15SM BKN046 M16/M21 A3006 RMK SC4 SLP182

CYUL;2010-01-31 08:00;CYUL 310800Z 25007KT 15SM BKN048 M15/M21 A3005 RMK SC5 SLP180

CYUL;2010-01-31 09:00;CYUL 310900Z 24007KT 15SM FEW032 BKN043 M15/M21 A3003 RMK SC2SC3 SLP173

CYUL;2010-01-31 10:00;CYUL 311000Z 23004KT 15SM BKN051 M15/M20 A3003 RMK SC4 SLP172

CYUL;2010-01-31 11:00;CYUL 311100Z 25007KT 15SM FEW018 SCT040 OVC060 M14/M18 A3002 RMK SF1SC2SC4 SLP170

CYUL;2010-01-31 12:00;CYUL 311200Z 23006KT 15SM OVC064 M13/M18 A3003 RMK SC7 SLP173

CYUL;2010-01-31 13:00;CYUL 311300Z 24008KT 15SM OVC065 M13/M18 A3004 RMK SC7 SLP175

CYUL;2010-01-31 14:00;CYUL 311400Z 25011KT 15SM OVC068 M12/M17 A3003 RMK AC7 SLP173

CYUL;2010-01-31 14:48;CYUL 311448Z 24012KT 15SM -SN OVC070 M12/ RMK AC8

CYUL;2010-01-31 15:00;CYUL 311500Z 25010KT 15SM -SN FEW015 OVC070 M12/M16 A3002 RMK SF1AC8 SLP170

CYUL;2010-01-31 16:00;CYUL 311600Z 25012KT 15SM FEW020 OVC070 M11/M15 A3001 RMK CF1AC7 SLP166

CYUL;2010-01-31 17:00;CYUL 311700Z 27006KT 15SM FEW020 BKN070 M10/M14 A2998 RMK CF1AC3 SLP155

CYUL;2010-01-31 18:00;CYUL 311800Z 23009KT 15SM BKN020 BKN075 M08/M12 A2995 RMK SC6AC1 SLP145

CYUL;2010-01-31 18:29;CYUL 311829Z 26007KT 15SM -SN FEW018 BKN070 M08/ RMK SC1AC5

CYUL;2010-01-31 19:00;CYUL 311900Z 29006KT 15SM FEW018 SCT075 SCT240 M08/M12 A2992 RMK CF2AC1CC1 SLP136

CYUL;2010-01-31 20:00;CYUL 312000Z 27011KT 15SM FEW020 SCT050 BKN080 BKN240 M07/M11 A2992 RMK CF1SC2AC1CI1 SLP136

CYUL;2010-01-31 21:00;CYUL 312100Z 25008KT 15SM FEW020 FEW080 BKN240 M07/M12 A2991 RMK CF1AC1CI2 SLP133

CYUL;2010-01-31 22:00;CYUL 312200Z 24005KT 15SM FEW020 FEW080 BKN240 M07/M12 A2991 RMK CF1AC1CI1 SLP132

CYUL;2010-01-31 23:00;CYUL 312300Z 24006KT 15SM FEW030 BKN085 OVC220 M07/M12 A2991 RMK SC1AS4CI2 SLP132

CYUL;2010-02-01 01:00;CYUL 010100Z 21007KT 15SM FEW015 OVC075 M06/M09 A2989 RMK SF1AC8 SLP125

CYUL;2010-02-01 01:36;CYUL 010136Z 21008KT 15SM -SN OVC045 M06/ RMK SC8

CYUL;2010-02-01 01:49;CYUL 010149Z 22009KT 2SM -SN OVC022 M06/ RMK SC8

CYUL;2010-02-01 02:00;CYUL 010200Z 21009KT 1 1/2SM -SN OVC020 M06/M08 A2988 RMK SC8 SLP120

CYUL;2010-02-01 02:28;CYUL 010228Z 21008KT 4SM -SN FEW030 OVC095 M06/ RMK CF1AC7

CYUL;2010-02-01 03:00;CYUL 010300Z 21009KT 8SM -SN FEW035 OVC060 M05/M07 A2985 RMK SC2SC5 SLP112

CYUL;2010-02-01 03:47;CYUL 010347Z 23012KT 15SM FEW035 BKN110 M06/ RMK SC2AS3

CYUL;2010-02-01 04:00;CYUL 010400Z 24012KT 15SM FEW035 BKN060 OVC080 M05/M09 A2985 RMK SC2SC3AS2 SLP110

CYUL;2010-02-01 04:50;CYUL 010450Z 25015KT 15SM -SN BKN035 OVC070 M05/ RMK SC5AS2

CYUL;2010-02-01 05:00;CYUL 010500Z 25015KT 10SM -SN BKN025 OVC045 M06/M09 A2984 RMK SC5SC2 SLP108

CYUL;2010-02-01 06:00;CYUL 010600Z 25013G18KT 15SM -SN BKN028 OVC070 M05/M09 A2985 RMK SC6AS2 SLP109

CYUL;2010-02-01 07:00;CYUL 010700Z 29006G21KT 4SM -SN SCT015 OVC060 M06/M09 A2989 RMK SC3SC5 SLP124

CYUL;2010-02-01 07:55;CYUL 010755Z 29018G25KT 15SM FEW030 SCT060 M08/ RMK SC2SC1

CYUL;2010-02-01 08:00;CYUL 010800Z 29018G25KT 15SM FEW030 SCT060 M08/M14 A2995 RMK SC2SC1 SLP143

CYUL;2010-02-01 09:00;CYUL 010900Z 32011KT 15SM FEW028 M11/M16 A3000 RMK SC2 SLP163

CYUL;2010-02-01 10:00;CYUL 011000Z 29013KT 15SM FEW030 M12/M18 A3005 RMK SC2 SLP180

CYUL;2010-02-01 11:00;CYUL 011100Z 22014KT 15SM FEW015 FEW028 SCT240 M13/M18 A3010 RMK SF1SC1CI0 SLP197

CYUL;2010-02-01 12:00;CYUL 011200Z 29014KT 30SM FEW030 M14/M21 A3014 RMK SC1 SLP208

CYUL;2010-02-01 13:00;CYUL 011300Z 26014KT 30SM FEW025 M14/M20 A3015 RMK CF1 SLP213

CYUL;2010-02-01 14:00;CYUL 011400Z 26014G19KT 30SM FEW025 M14/M21 A3017 RMK CF1 SLP218

CYUL;2010-02-01 15:00;CYUL 011500Z 26017G25KT 30SM SKC M14/M21 A3018 RMK SLP224

CYUL;2010-02-01 16:00;CYUL 011600Z 26014KT 30SM SKC M13/M21 A3017 RMK SLP221

CYUL;2010-02-01 17:00;CYUL 011700Z 25016G21KT 30SM FEW030 FEW050 M12/M20 A3014 RMK SC1SC1 SLP209

CYUL;2010-02-01 18:00;CYUL 011800Z 24016KT 15SM FEW040 FEW080 M10/M20 A3009 RMK SC1AC1 SLP193

CYUL;2010-02-01 18:38;CYUL 011838Z 26017KT 12SM -SHSN FEW040 BKN075 M09/ RMK SC2AC3

CYUL;2010-02-01 19:00;CYUL 011900Z 25021KT 8SM -SHSN FEW030 BKN080 BKN150 M09/M15 A3008 RMK SC2AC2AC1 SLP188

CYUL;2010-02-01 20:00;CYUL 012000Z 24019G27KT 8SM -SHSN DRSN FEW017 SCT025 SCT055 M08/M13 A3005 RMK SC1SC2SC1 SLP180

CYUL;2010-02-01 21:00;CYUL 012100Z 24021G27KT 15SM DRSN VCSH SCT027 M07/M13 A3006 RMK SC4 SLP182

CYUL;2010-02-01 22:00;CYUL 012200Z 24019G25KT 15SM FEW025 FEW040 SCT075 M07/M13 A3006 RMK SC1SC1AC2 SLP183

CYUL;2010-02-01 22:43;CYUL 012243Z 25016KT 15SM -SHSN FEW030 BKN060 BKN075 M07/ RMK SC2SC3AC1

CYUL;2010-02-01 23:00;CYUL 012300Z 26014G21KT 15SM -SHSN FEW030 BKN052 BKN075 M07/M12 A3008 RMK SC2SC3AC1 SLP189

CYUL;2010-02-01 23:42;CYUL 012342Z 28010G16KT 4SM -SN BKN014 OVC025 M07/ RMK SC5SC3

CYUL;2010-02-02 00:00;CYUL 020000Z 29012G17KT 3SM -SN DRSN BKN012 OVC027 M07/M10 A3010 RMK SC5SC3 SLP197

CYUL;2010-02-02 00:10;CYUL 020010Z 29010KT 2SM -SN DRSN BKN010 OVC025 M08/ RMK SC6SC2

CYUL;2010-02-02 00:18;CYUL 020018Z 29014KT 1SM R24R/P6000FT/D -SN DRSN VV009 M08/ RMK SN8

CYUL;2010-02-02 00:29;CYUL 020029Z 29013G22KT 1 1/2SM -SN DRSN BKN012 OVC020 M08/ RMK SN1SC6SC2

CYUL;2010-02-02 00:37;CYUL 020037Z 30008G16KT 3SM -SN DRSN SCT012 BKN022 OVC035 M08/ RMK SF3SC2SC2

CYUL;2010-02-02 01:00;CYUL 020100Z 29011KT 15SM DRSN VCSH FEW020 BKN044 BKN080 M08/M11 A3013 RMK SC2SC3AC1 SLP207

CYUL;2010-02-02 02:00;CYUL 020200Z 30012G18KT 15SM FEW040 FEW070 FEW210 M09/M14 A3016 RMK SC1AC1CI1 SLP216

CYUL;2010-02-02 03:00;CYUL 020300Z 30007KT 15SM FEW060 FEW120 M10/M16 A3018 RMK SC1AC1 SLP225

CYUL;2010-02-02 04:00;CYUL 020400Z 33005KT 15SM FEW050 BKN120 M12/M18 A3021 RMK SC2AC1 SLP233

CYUL;2010-02-02 05:00;CYUL 020500Z 34007KT 15SM FEW060 SCT120 M13/M20 A3022 RMK SC1AC0 SLP236

CYUL;2010-02-02 06:00;CYUL 020600Z 34004KT 15SM FEW035 FEW060 BKN210 M13/M19 A3024 RMK SC1SC2CI0 SLP243

CYUL;2010-02-02 07:00;CYUL 020700Z 01003KT 15SM SCT045 BKN060 M13/M20 A3025 RMK SC3SC3 SLP249

CYUL;2010-02-02 08:00;CYUL 020800Z 03006KT 15SM BKN045 OVC055 M13/M22 A3027 RMK SC6SC2 SLP255

CYUL;2010-02-02 09:00;CYUL 020900Z 04005KT 15SM OVC046 M14/M24 A3028 RMK SC8 SLP259

CYUL;2010-02-02 10:00;CYUL 021000Z 04005KT 15SM OVC045 M14/M22 A3029 RMK SC8 SLP260

CYUL;2010-02-02 11:00;CYUL 021100Z 04007KT 15SM OVC038 M14/M23 A3027 RMK SC8 SLP254

CYUL;2010-02-02 12:00;CYUL 021200Z 10006KT 15SM OVC038 M14/M23 A3027 RMK SC7 SLP254

CYUL;2010-02-02 12:25;CYUL 021225Z 10007KT 15SM SCT040 M15/ RMK SC2

CYUL;2010-02-02 13:00;CYUL 021300Z 08006KT 15SM SCT040 M15/M23 A3029 RMK SC2 SLP260

CYUL;2010-02-02 14:00;CYUL 021400Z 11007KT 15SM OVC040 M14/M22 A3029 RMK SC8 SLP262

CYUL;2010-02-02 15:00;CYUL 021500Z 07006KT 15SM OVC038 M14/M22 A3029 RMK SC8 SLP260

CYUL;2010-02-02 16:00;CYUL 021600Z 09004KT 15SM OVC040 M13/M22 A3028 RMK SC7 SLP256

CYUL;2010-02-02 17:00;CYUL 021700Z 10006KT 15SM FEW025 SCT040 M12/M21 A3025 RMK SC2SC2 SLP247

CYUL;2010-02-02 18:00;CYUL 021800Z 15002KT 15SM FEW025 BKN034 M11/M20 A3023 RMK SC2SC4 SLP239

CYUL;2010-02-02 19:00;CYUL 021900Z 08003KT 15SM -SHSN BKN027 M10/M19 A3019 RMK SC7 VRY LGT SN SLP228

CYUL;2010-02-02 19:33;CYUL 021933Z 09002KT 15SM OVC027 M10/ RMK SC7

CYUL;2010-02-02 20:00;CYUL 022000Z 09002KT 15SM -SN BKN027 M10/M18 A3019 RMK SC7 SLP227

CYUL;2010-02-02 20:42;CYUL 022042Z 10002KT 15SM BKN025 BKN200 M10/ RMK SC6CI2

CYUL;2010-02-02 21:00;CYUL 022100Z 07002KT 15SM BKN023 BKN210 M09/M17 A3019 RMK SC6CI2 SLP226

CYUL;2010-02-02 22:00;CYUL 022200Z 12002KT 15SM FEW023 SCT130 BKN210 M10/M16 A3018 RMK SC1AS2CI1 SLP224

CYUL;2010-02-02 23:00;CYUL 022300Z 03004KT 15SM FEW050 FEW140 SCT210 M09/M16 A3017 RMK SC1AS2CI1 SLP222

CYUL;2010-02-03 00:00;CYUL 030000Z 36004KT 15SM FEW150 SCT210 M12/M17 A3017 RMK AS1CI1 SLP222

CYUL;2010-02-03 01:00;CYUL 030100Z 36005KT 15SM FEW040 SCT160 BKN210 M12/M17 A3017 RMK SC1AS2CI2 SLP221

CYUL;2010-02-03 02:00;CYUL 030200Z 01004KT 15SM SCT150 BKN210 M12/M18 A3016 RMK AS1CI2 SLP218

CYUL;2010-02-03 03:00;CYUL 030300Z 04004KT 15SM SCT130 BKN220 M13/M18 A3015 RMK AC2CI1 SLP215

CYUL;2010-02-03 04:00;CYUL 030400Z 02004KT 15SM FEW130 BKN220 M13/M18 A3014 RMK AC2CI0 SLP209

CYUL;2010-02-03 05:00;CYUL 030500Z 02007KT 15SM BKN130 M13/M17 A3013 RMK AS2 SLP206

CYUL;2010-02-03 06:00;CYUL 030600Z 01004KT 15SM FEW100 BKN210 M13/M17 A3012 RMK AC2CI0 SLP203

CYUL;2010-02-03 07:00;CYUL 030700Z 02005KT 15SM SCT100 M13/M18 A3012 RMK AC2 SLP203

CYUL;2010-02-03 08:00;CYUL 030800Z 03007KT 15SM SCT025 BKN040 M13/M18 A3012 RMK SC3SC2 SLP202

CYUL;2010-02-03 09:00;CYUL 030900Z 02006KT 15SM OVC040 M13/M18 A3011 RMK SC7 SLP200

CYUL;2010-02-03 10:00;CYUL 031000Z 02007KT 15SM SCT045 OVC090 M13/M18 A3011 RMK SC3AC2 SLP199

CYUL;2010-02-03 11:00;CYUL 031100Z 02007KT 15SM FEW045 OVC090 M13/M18 A3011 RMK SC2AC5 SLP198

CYUL;2010-02-03 12:00;CYUL 031200Z 02006KT 10SM FEW045 OVC090 M14/M19 A3011 RMK SC2AS5 SLP199

CYUL;2010-02-03 13:00;CYUL 031300Z 01008KT 12SM SCT110 OVC210 M15/M20 A3011 RMK AS3CI0 SLP200

CYUL;2010-02-03 14:00;CYUL 031400Z 02006KT 15SM SCT130 BKN210 M14/M18 A3012 RMK AS2CI0 SLP203

CYUL;2010-02-03 15:00;CYUL 031500Z 02005KT 10SM FEW080 BKN210 M12/M18 A3011 RMK AS1CI1 SLP198

CYUL;2010-02-03 16:00;CYUL 031600Z 03003KT 12SM FEW080 BKN210 M11/M16 A3010 RMK AS1CI2 SLP196

CYUL;2010-02-03 17:00;CYUL 031700Z 35002KT 10SM FEW050 FEW090 BKN210 M09/M15 A3008 RMK SC1AS1CS2 SLP188

CYUL;2010-02-03 17:23;CYUL 031723Z 36004KT 10SM -SN FEW040 SCT120 OVC210 M09/ RMK SC2AS1CS2 VRY LGT SN

CYUL;2010-02-03 18:00;CYUL 031800Z 30002KT 10SM -SN FEW040 SCT080 OVC200 M08/M14 A3006 RMK SC2AS2CS2 SLP182

CYUL;2010-02-03 19:00;CYUL 031900Z 00000KT 12SM FEW050 SCT100 OVC210 M07/M12 A3004 RMK SC2AS1CS2 SLP176

CYUL;2010-02-03 19:15;CYUL 031915Z 00000KT 6SM -SN FEW020 SCT100 OVC210 M07/ RMK SC2AS2CS1 -SN INTMT

CYUL;2010-02-03 20:00;CYUL 032000Z 21004KT 10SM -SN FEW040 FEW100 OVC210 M06/M11 A3004 RMK SC1AS1CS2 -SN INTMT SLP174

CYUL;2010-02-03 21:00;CYUL 032100Z 21006KT 10SM -SN SCT025 BKN050 OVC100 M07/M10 A3004 RMK SC3SC2AS2 SLP175

CYUL;2010-02-03 22:00;CYUL 032200Z 22005KT 8SM -SN SCT025 BKN080 OVC210 M07/M09 A3004 RMK SC3AS2CS2 SLP176

CYUL;2010-02-03 22:30;CYUL 032230Z 22006KT 10SM FEW040 SCT110 OVC210 M07/ RMK SC2AS2CS2

CYUL;2010-02-03 23:00;CYUL 032300Z 23006KT 10SM FEW040 SCT090 SCT120 OVC210 M07/M09 A3004 RMK SC1AC1AS1CS1 SLP177

CYUL;2010-02-04 00:00;CYUL 040000Z 23003KT 10SM FEW060 BKN130 OVC210 M07/M10 A3005 RMK SC2AC5CI1 SLP180

CYUL;2010-02-04 01:00;CYUL 040100Z 24003KT 10SM FEW060 BKN130 OVC210 M07/M10 A3005 RMK SC2AC5CI1 SLP179

CYUL;2010-02-04 02:00;CYUL 040200Z 24004KT 8SM -SHSN SCT035 BKN080 OVC150 M07/M10 A3004 RMK SC4AC2AC1 SLP177

CYUL;2010-02-04 02:51;CYUL 040251Z 27004KT 2 1/2SM -SHSN FEW009 OVC022 M07/ RMK SF2SC6

CYUL;2010-02-04 03:00;CYUL 040300Z 27005KT 1 1/2SM -SHSN OVC009 M06/M08 A3004 RMK SN2SF6 SLP177

CYUL;2010-02-04 03:09;CYUL 040309Z 28004KT 3SM -SHSN FEW009 BKN025 OVC090 M06/ RMK SF2SC4AC2

CYUL;2010-02-04 03:34;CYUL 040334Z 29004KT 8SM SCT025 OVC090 M07/ RMK SC3AC5

CYUL;2010-02-04 03:45;CYUL 040345Z 29005KT 8SM -SHSN BKN017 OVC090 M06/ RMK SC6AC2

CYUL;2010-02-04 04:00;CYUL 040400Z 29013KT 6SM -SHSN FEW015 BKN030 OVC090 M06/M07 A3005 RMK SC1SC6AC2 /S01/ SLP178

CYUL;2010-02-04 04:31;CYUL 040431Z 29010KT 8SM SCT035 OVC085 M06/ RMK SC3AC5

CYUL;2010-02-04 05:00;CYUL 040500Z 30011KT 15SM BKN060 BKN090 M07/M10 A3007 RMK SC5AC1 SLP187

CYUL;2010-02-04 06:00;CYUL 040600Z 29014KT 15SM FEW090 M08/M13 A3012 RMK AC2 SLP202

CYUL;2010-02-04 07:00;CYUL 040700Z 28011KT 15SM FEW065 M09/M14 A3017 RMK SC1 SLP219

CYUL;2010-02-04 08:00;CYUL 040800Z 30014KT 15SM SKC M10/M16 A3021 RMK SLP234

CYUL;2010-02-04 09:00;CYUL 040900Z 28007KT 15SM SKC M12/M17 A3025 RMK SLP247

CYUL;2010-02-04 10:00;CYUL 041000Z 27009KT 15SM SKC M12/M17 A3028 RMK SLP258

CYUL;2010-02-04 11:00;CYUL 041100Z 26008KT 15SM SKC M13/M17 A3031 RMK SLP267

CYUL;2010-02-04 12:00;CYUL 041200Z 27008KT 30SM SKC M14/M18 A3033 RMK SLP273

CYUL;2010-02-04 13:00;CYUL 041300Z 27009KT 30SM SKC M13/M18 A3034 RMK SLP278

CYUL;2010-02-04 14:00;CYUL 041400Z 26009KT 30SM SKC M12/M18 A3035 RMK SLP281

CYUL;2010-02-04 15:00;CYUL 041500Z 26011KT 30SM FEW210 M11/M17 A3035 RMK CI1 SLP280

CYUL;2010-02-04 16:00;CYUL 041600Z 26014KT 30SM FEW130 SCT210 M10/M17 A3035 RMK AC2CI1 SLP281

CYUL;2010-02-04 17:00;CYUL 041700Z 26014KT 30SM BKN130 M09/M16 A3033 RMK AC7 SLP275

CYUL;2010-02-04 18:00;CYUL 041800Z 27013G19KT 30SM BKN100 BKN150 M09/M16 A3031 RMK AC6AC2 SLP265

CYUL;2010-02-04 19:00;CYUL 041900Z 29013KT 30SM FEW120 SCT210 M08/M16 A3027 RMK AC2CI1 SLP254

CYUL;2010-02-04 20:00;CYUL 042000Z 27014KT 30SM FEW130 FEW210 M08/M16 A3027 RMK AC1CI1 SLP252

CYUL;2010-02-04 21:00;CYUL 042100Z 26016KT 30SM FEW130 FEW210 M07/M17 A3025 RMK AC1CI0 SLP248

CYUL;2010-02-04 22:00;CYUL 042200Z 26011G16KT 30SM FEW120 FEW210 M08/M18 A3026 RMK AC1CI1 SLP250

CYUL;2010-02-04 23:00;CYUL 042300Z 26013KT 15SM FEW100 M08/M18 A3028 RMK AC1 SLP257

CYUL;2010-02-05 00:00;CYUL 050000Z 27012KT 15SM BKN120 M08/M18 A3029 RMK AC5 SLP262

CYUL;2010-02-05 01:00;CYUL 050100Z 27011KT 15SM BKN100 M08/M17 A3028 RMK AC7 SLP259

CYUL;2010-02-05 02:00;CYUL 050200Z 27009KT 15SM FEW100 FEW210 M09/M18 A3028 RMK AC1CI1 SLP258

CYUL;2010-02-05 03:00;CYUL 050300Z 27005KT 15SM FEW055 BKN070 OVC090 M09/M17 A3029 RMK SC1AC6AC1 SLP259

CYUL;2010-02-05 04:00;CYUL 050400Z 23006KT 15SM FEW055 BKN065 BKN090 M09/M17 A3028 RMK SC1SC4AC1 SLP257

CYUL;2010-02-05 05:00;CYUL 050500Z 22004KT 15SM FEW055 SCT070 M09/M17 A3026 RMK SC2AC1 SLP250

CYUL;2010-02-05 06:00;CYUL 050600Z 24005KT 15SM FEW040 BKN050 M10/M16 A3025 RMK SC1SC3 SLP246

CYUL;2010-02-05 07:00;CYUL 050700Z 24004KT 15SM BKN075 M10/M16 A3025 RMK AC6 SLP246

CYUL;2010-02-05 08:00;CYUL 050800Z 31003KT 15SM BKN075 M10/M16 A3025 RMK AC7 SLP246

CYUL;2010-02-05 09:00;CYUL 050900Z 30003KT 15SM BKN070 M10/M14 A3025 RMK AC7 SLP248

CYUL;2010-02-05 10:00;CYUL 051000Z 31004KT 15SM BKN060 M10/M13 A3027 RMK SC7 SLP253

CYUL;2010-02-05 11:00;CYUL 051100Z 28004KT 15SM OVC060 M10/M13 A3028 RMK SC8 SLP255

CYUL;2010-02-05 12:00;CYUL 051200Z 29004KT 15SM SCT065 M11/M14 A3028 RMK SC2 SLP255

CYUL;2010-02-05 13:00;CYUL 051300Z 27005KT 15SM FEW065 M11/M14 A3028 RMK SC1 SLP258

CYUL;2010-02-05 14:00;CYUL 051400Z 28005KT 15SM FEW065 M09/M14 A3028 RMK SC1 SLP256

CYUL;2010-02-05 15:00;CYUL 051500Z 29008KT 15SM SKC M08/M15 A3028 RMK SLP257

CYUL;2010-02-05 16:00;CYUL 051600Z 27009KT 30SM SKC M08/M15 A3028 RMK SLP255

CYUL;2010-02-05 17:00;CYUL 051700Z 29011KT 30SM FEW240 M06/M15 A3025 RMK CI0 SLP247

CYUL;2010-02-05 18:00;CYUL 051800Z 28012G17KT 30SM FEW240 M06/M15 A3023 RMK CI1 SLP241

CYUL;2010-02-05 19:00;CYUL 051900Z 26013KT 30SM FEW240 M06/M15 A3022 RMK CI1 SLP237

CYUL;2010-02-05 20:00;CYUL 052000Z 29008KT 30SM FEW240 M05/M14 A3022 RMK CI1 SLP235

CYUL;2010-02-05 21:00;CYUL 052100Z 30008KT 30SM FEW170 FEW240 M05/M16 A3023 RMK AC0CI1 SLP238

CYUL;2010-02-05 22:00;CYUL 052200Z 31007KT 15SM FEW240 M07/M17 A3023 RMK CI1 SLP240

CYUL;2010-02-05 23:00;CYUL 052300Z 32007KT 15SM FEW240 M08/M18 A3023 RMK CI1 SLP240

CYUL;2010-02-06 00:00;CYUL 060000Z 02008KT 15SM FEW240 M09/M17 A3023 RMK CI1 SLP239

CYUL;2010-02-06 01:00;CYUL 060100Z 01011G16KT 15SM SKC M10/M19 A3023 RMK SLP241

CYUL;2010-02-06 02:00;CYUL 060200Z 01008KT 15SM SKC M11/M18 A3022 RMK SLP236

CYUL;2010-02-06 03:00;CYUL 060300Z 03005KT 15SM SKC M11/M19 A3021 RMK SLP233

CYUL;2010-02-06 04:00;CYUL 060400Z 02002KT 15SM SKC M12/M18 A3021 RMK SLP232

CYUL;2010-02-06 05:00;CYUL 060500Z 33002KT 15SM SKC M14/M19 A3019 RMK SLP225

CYUL;2010-02-06 06:00;CYUL 060600Z 00000KT 15SM SKC M14/M19 A3017 RMK SLP221

CYUL;2010-02-06 07:00;CYUL 060700Z 34004KT 15SM FEW030 M14/M20 A3017 RMK SC1 SLP219

CYUL;2010-02-06 08:00;CYUL 060800Z 02002KT 15SM FEW025 M14/M20 A3016 RMK SC2 SLP215

CYUL;2010-02-06 10:00;CYUL 061000Z 03007KT 15SM BKN025 M13/M19 A3012 RMK SC7 SLP204

CYUL;2010-02-06 11:00;CYUL 061100Z 36005KT 15SM -SHSN FEW018 BKN025 M13/M19 A3009 RMK SF1SC2 SLP194

CYUL;2010-02-06 11:25;CYUL 061125Z 01003KT 15SM FEW008 M13/ RMK SF2

CYUL;2010-02-06 12:00;CYUL 061200Z 00000KT 15SM FEW007 FEW025 M13/M19 A3011 RMK SF1SC1 SLP198

CYUL;2010-02-06 13:00;CYUL 061300Z 00000KT 15SM BKN025 BKN090 M14/M19 A3014 RMK SC4AC1 SLP208

CYUL;2010-02-06 13:33;CYUL 061333Z 26004KT 15SM -SHSN FEW005 BKN030 M13/ RMK SF1SC2

CYUL;2010-02-06 14:00;CYUL 061400Z 31002KT 15SM -SHSN FEW008 FEW016 M12/M17 A3013 RMK SF1SC2 SLP207

CYUL;2010-02-06 14:26;CYUL 061426Z 33004KT 15SM FEW015 SCT025 M12/ RMK CF1SC3

CYUL;2010-02-06 15:00;CYUL 061500Z 01006KT 15SM SCT026 BKN040 M12/M17 A3012 RMK SC2SC1 SLP202

CYUL;2010-02-06 16:00;CYUL 061600Z 36005KT 30SM SCT026 SCT120 M11/M17 A3010 RMK SC2AC1 SLP196

CYUL;2010-02-06 17:00;CYUL 061700Z 35003KT 30SM SCT026 M11/M17 A3007 RMK SC2 SLP184

CYUL;2010-02-06 18:00;CYUL 061800Z 03003KT 30SM FEW036 FEW240 M10/M18 A3003 RMK SC1CI0 SLP171

CYUL;2010-02-06 19:00;CYUL 061900Z 34003KT 30SM FEW045 FEW240 M09/M17 A3000 RMK SC0CI0 SLP163

CYUL;2010-02-06 20:00;CYUL 062000Z 22002KT 30SM FEW240 M08/M17 A2999 RMK CI1 SLP157

CYUL;2010-02-06 21:00;CYUL 062100Z 22008KT 30SM SKC M09/M17 A2999 RMK SLP157

CYUL;2010-02-06 22:00;CYUL 062200Z 22008KT 15SM FEW240 M09/M16 A2998 RMK CI1 SLP156

CYUL;2010-02-06 23:00;CYUL 062300Z 25005KT 15SM SKC M10/M17 A2999 RMK SLP158

CYUL;2010-02-07 00:00;CYUL 070000Z 23004KT 15SM FEW240 M11/M17 A2998 RMK CI1 SLP155

CYUL;2010-02-07 01:00;CYUL 070100Z 00000KT 15SM FEW050 FEW240 M12/M17 A2997 RMK SC0CI1 SLP153

CYUL;2010-02-07 02:00;CYUL 070200Z 30003KT 15SM FEW032 M13/M17 A2997 RMK SC1 SLP151

CYUL;2010-02-07 03:00;CYUL 070300Z 30005KT 15SM FEW033 M12/M17 A2996 RMK SC2 SLP150

CYUL;2010-02-07 04:00;CYUL 070400Z 30005KT 15SM BKN030 M12/M16 A2997 RMK SC7 SLP151

CYUL;2010-02-07 05:00;CYUL 070500Z 30006KT 15SM BKN030 M11/M15 A2996 RMK SC7 SLP149

CYUL;2010-02-07 06:00;CYUL 070600Z 30006KT 15SM BKN030 M11/M15 A2996 RMK SC7 SLP147

CYUL;2010-02-07 07:00;CYUL 070700Z 28007KT 15SM BKN030 M11/M16 A2995 RMK SC6 SLP146

CYUL;2010-02-07 08:00;CYUL 070800Z 28005KT 15SM BKN030 M12/M16 A2995 RMK SC6 SLP145

CYUL;2010-02-07 09:00;CYUL 070900Z 29007KT 15SM FEW030 M13/M16 A2994 RMK SC1 SLP142

CYUL;2010-02-07 10:00;CYUL 071000Z 27006KT 15SM FEW030 M13/M17 A2994 RMK SC1 SLP142

CYUL;2010-02-07 11:00;CYUL 071100Z 27009KT 15SM BKN030 M13/M17 A2994 RMK SC3 SLP142

CYUL;2010-02-07 12:00;CYUL 071200Z 27010KT 15SM FEW030 M12/M16 A2994 RMK SC1 SLP143

CYUL;2010-02-07 13:00;CYUL 071300Z 26010KT 15SM FEW030 M12/M16 A2993 RMK SC1 SLP139

CYUL;2010-02-07 14:00;CYUL 071400Z 27012KT 15SM FEW030 M10/M15 A2993 RMK SC1 SLP138

CYUL;2010-02-07 15:00;CYUL 071500Z 27011KT 30SM FEW240 M09/M14 A2992 RMK CI1 SLP134

CYUL;2010-02-07 16:00;CYUL 071600Z 27014G19KT 30SM FEW050 FEW240 M08/M13 A2990 RMK SC0CI1 SLP128

CYUL;2010-02-07 17:00;CYUL 071700Z 25017KT 30SM FEW060 FEW240 M07/M13 A2988 RMK SC1CI1 SLP120

CYUL;2010-02-07 18:00;CYUL 071800Z 26016G21KT 15SM SCT050 BKN074 M06/M13 A2983 RMK SC2AC2 SLP106

CYUL;2010-02-07 19:00;CYUL 071900Z 25016KT 15SM BKN080 M05/M12 A2981 RMK AC3 SLP099

CYUL;2010-02-07 20:00;CYUL 072000Z 29015G20KT 30SM FEW090 SCT240 M03/M11 A2981 RMK AC1CI1 SLP097

CYUL;2010-02-07 21:00;CYUL 072100Z 28011G16KT 15SM SCT047 BKN075 M03/M11 A2980 RMK SC3AC1 SLP095

CYUL;2010-02-07 22:00;CYUL 072200Z 29011G16KT 15SM FEW035 SCT055 BKN085 BKN240 M03/M11 A2982 RMK SC2SC2AC1CI1 SLP101

CYUL;2010-02-07 23:00;CYUL 072300Z 29012KT 15SM BKN048 BKN085 M04/M11 A2984 RMK SC4AC2 SLP107

CYUL;2010-02-08 00:00;CYUL 080000Z 28013KT 15SM -SN OVC032 M04/M10 A2985 RMK SC8 SLP111

CYUL;2010-02-08 01:00;CYUL 080100Z 29008KT 15SM -SN BKN031 OVC050 M05/M09 A2985 RMK SC6SC2 SLP112

CYUL;2010-02-08 02:00;CYUL 080200Z 29009KT 10SM -SN SCT012 BKN024 OVC033 M06/M09 A2986 RMK SF2SC4SC2 SLP116

CYUL;2010-02-08 03:00;CYUL 080300Z 31008KT 8SM -SN OVC060 M07/M11 A2986 RMK SC6 SLP115

CYUL;2010-02-08 04:00;CYUL 080400Z 30013KT 12SM -SN FEW030 OVC055 M08/M12 A2986 RMK SC2SC4 SLP115

CYUL;2010-02-08 05:00;CYUL 080500Z 28010KT 15SM -SN OVC065 M08/M12 A2986 RMK SC6 SLP116

CYUL;2010-02-08 06:00;CYUL 080600Z 27011KT 15SM FEW020 FEW070 OVC150 M09/M13 A2986 RMK SC1AC1AC5 SLP114

CYUL;2010-02-08 07:00;CYUL 080700Z 27010KT 15SM FEW015 BKN180 M09/M14 A2987 RMK SF1AC6 SLP118

CYUL;2010-02-08 08:00;CYUL 080800Z 28012KT 15SM OVC210 M09/M14 A2987 RMK CI7 SLP118

CYUL;2010-02-08 09:00;CYUL 080900Z 28008KT 15SM FEW018 OVC200 M09/M15 A2988 RMK SF1CS6 SLP120

CYUL;2010-02-08 10:00;CYUL 081000Z 28011KT 15SM FEW120 OVC180 M10/M15 A2988 RMK AC1AS7 SLP121

CYUL;2010-02-08 10:34;CYUL 081034Z 28011KT 15SM -SN OVC130 M10/ RMK AS8

CYUL;2010-02-08 11:00;CYUL 081100Z 28011KT 15SM -SN OVC050 M10/M15 A2989 RMK SC8 SLP125

CYUL;2010-02-08 12:00;CYUL 081200Z 28011KT 7SM -SN SCT035 OVC060 M10/M14 A2990 RMK SC3SC4 SLP129

CYUL;2010-02-08 13:00;CYUL 081300Z 27011KT 15SM -SN FEW015 BKN045 OVC055 M10/M14 A2991 RMK SF1SC7SC1 SLP131

CYUL;2010-02-08 14:00;CYUL 081400Z 27012G17KT 8SM -SN FEW018 SCT027 BKN055 OVC210 M09/M13 A2991 RMK SF1SC2SC1CI1 SLP133

CYUL;2010-02-08 15:00;CYUL 081500Z 27015KT 15SM -SN FEW022 BKN043 BKN120 BKN210 M09/M13 A2991 RMK SC1SC4AC1CI1 SLP133

CYUL;2010-02-08 15:50;CYUL 081550Z 27013G18KT 15SM BKN047 BKN180 M09/ RMK SC5AC2

CYUL;2010-02-08 16:00;CYUL 081600Z 27015KT 15SM BKN048 BKN180 M09/M13 A2992 RMK SC5AC2 SLP135

CYUL;2010-02-08 17:00;CYUL 081700Z 26018KT 15SM FEW028 BKN048 BKN180 M08/M14 A2991 RMK SC1SC5AC1 SLP132

CYUL;2010-02-08 18:00;CYUL 081800Z 25018KT 15SM SCT055 BKN130 OVC220 M08/M14 A2990 RMK SC2AC4CI1 SLP129

CYUL;2010-02-08 19:00;CYUL 081900Z 27017G22KT 15SM FEW058 BKN150 BKN240 M07/M14 A2991 RMK SC2AC3CI1 SLP131

CYUL;2010-02-08 20:00;CYUL 082000Z 27016KT 15SM FEW058 BKN150 BKN240 M06/M14 A2991 RMK SC1AC4CI1 SLP133

CYUL;2010-02-08 21:00;CYUL 082100Z 26015G21KT 15SM FEW060 SCT100 BKN140 BKN240 M06/M14 A2992 RMK SC1AC2AC2CI1 SLP136

CYUL;2010-02-08 22:00;CYUL 082200Z 27012KT 15SM FEW045 BKN090 BKN240 M06/M14 A2995 RMK SC1AC4CI1 SLP144

CYUL;2010-02-08 23:00;CYUL 082300Z 26010KT 15SM BKN093 BKN140 BKN240 M06/M13 A2997 RMK AC3AC2CI1 SLP151

CYUL;2010-02-09 00:00;CYUL 090000Z 28010G16KT 15SM SCT058 BKN120 BKN240 M06/M13 A2998 RMK SC2AC2CI1 SLP155

CYUL;2010-02-09 01:00;CYUL 090100Z 28016KT 15SM SCT050 BKN068 OVC120 M06/M13 A2998 RMK SC3AC2AC1 SLP155

CYUL;2010-02-09 02:00;CYUL 090200Z 28012KT 15SM BKN050 OVC100 M06/M13 A2998 RMK SC6AC1 SLP156

CYUL;2010-02-09 03:00;CYUL 090300Z 27010KT 15SM BKN055 OVC100 M07/M13 A2999 RMK SC6AC1 SLP157

CYUL;2010-02-09 04:00;CYUL 090400Z 27009G15KT 15SM OVC055 M07/M12 A2999 RMK SC7 SLP159

CYUL;2010-02-09 05:00;CYUL 090500Z 27012KT 15SM OVC060 M07/M12 A3000 RMK SC7 SLP163

CYUL;2010-02-09 06:00;CYUL 090600Z 26013KT 15SM BKN047 OVC060 M07/M12 A3002 RMK SC6SC2 SLP168

CYUL;2010-02-09 07:00;CYUL 090700Z 26012KT 15SM OVC043 M08/M12 A3004 RMK SC8 SLP176

CYUL;2010-02-09 08:00;CYUL 090800Z 25009KT 15SM BKN045 OVC075 M08/M12 A3004 RMK SC5AC2 SLP177

CYUL;2010-02-09 09:00;CYUL 090900Z 26009KT 15SM BKN040 BKN075 M08/M12 A3004 RMK SC3AC2 SLP177

CYUL;2010-02-09 10:00;CYUL 091000Z 26008KT 15SM SCT075 M08/M12 A3004 RMK AC2 SLP176

CYUL;2010-02-09 11:00;CYUL 091100Z 24007KT 15SM FEW030 SCT075 M09/M12 A3005 RMK SC1AC1 SLP180

CYUL;2010-02-09 12:00;CYUL 091200Z 24007KT 15SM FEW075 BKN240 M09/M12 A3007 RMK AC1CI0 SLP186

CYUL;2010-02-09 13:00;CYUL 091300Z 26009KT 15SM FEW120 SCT240 M09/M12 A3009 RMK AC0CI0 SLP191

CYUL;2010-02-09 14:00;CYUL 091400Z 26008KT 15SM FEW120 FEW240 M08/M12 A3009 RMK AC0CI0 SLP192

CYUL;2010-02-09 15:00;CYUL 091500Z 24006KT 15SM FEW025 FEW120 FEW240 M07/M11 A3009 RMK SC1AC1CI1 SLP191

CYUL;2010-02-09 16:00;CYUL 091600Z 22007KT 15SM FEW025 SCT120 SCT210 M06/M11 A3009 RMK SC2AC1CI0 SLP191

CYUL;2010-02-09 17:00;CYUL 091700Z 21008KT 15SM FEW025 SCT210 M05/M10 A3006 RMK SC2CI1 SLP182

CYUL;2010-02-09 18:00;CYUL 091800Z 25007KT 30SM SCT025 M04/M10 A3006 RMK SC4 SLP181

CYUL;2010-02-09 19:00;CYUL 091900Z 24009KT 30SM FEW025 FEW210 M04/M09 A3003 RMK SC2CI0 SLP173

CYUL;2010-02-09 20:00;CYUL 092000Z 21011KT 30SM FEW025 FEW210 M04/M09 A3002 RMK SC1CI1 SLP170

CYUL;2010-02-09 21:00;CYUL 092100Z 21012KT 30SM FEW025 FEW210 M04/M10 A3001 RMK SC1CI1 SLP167

CYUL;2010-02-09 22:00;CYUL 092200Z 22006KT 15SM FEW030 FEW200 SCT240 M05/M10 A2998 RMK SC1CS1CI1 SLP155

CYUL;2010-02-09 23:00;CYUL 092300Z 24004KT 15SM FEW210 M05/M10 A2996 RMK CI1 SLP150

CYUL;2010-02-10 00:00;CYUL 100000Z 24002KT 15SM FEW025 BKN230 M05/M10 A2994 RMK SC1CI1 SLP143

CYUL;2010-02-10 01:00;CYUL 100100Z 27002KT 15SM SCT030 BKN210 M06/M10 A2993 RMK SC4CI0 SLP137

CYUL;2010-02-10 02:00;CYUL 100200Z 23003KT 15SM FEW030 BKN210 M06/M10 A2992 RMK SC1CI2 SLP134

CYUL;2010-02-10 03:00;CYUL 100300Z 21002KT 15SM BKN190 M06/M10 A2988 RMK AS7 SLP122

CYUL;2010-02-10 04:00;CYUL 100400Z 00000KT 15SM OVC180 M06/M10 A2985 RMK AS8 SLP112

CYUL;2010-02-10 05:00;CYUL 100500Z 00000KT 15SM OVC160 M06/M10 A2984 RMK AC8 SLP107

CYUL;2010-02-10 06:00;CYUL 100600Z 26002KT 15SM OVC150 M06/M10 A2983 RMK AC8 SLP103

CYUL;2010-02-10 07:00;CYUL 100700Z 36002KT 15SM OVC160 M06/M10 A2980 RMK AC8 SLP092

CYUL;2010-02-10 08:00;CYUL 100800Z 03005KT 15SM OVC140 M06/M10 A2975 RMK AC8 SLP077

CYUL;2010-02-10 09:00;CYUL 100900Z 36003KT 15SM BKN060 OVC140 M06/M10 A2974 RMK SC6AC2 SLP073

CYUL;2010-02-10 10:00;CYUL 101000Z 03005KT 15SM BKN065 OVC140 M06/M09 A2971 RMK SC6AC2 SLP063

CYUL;2010-02-10 11:00;CYUL 101100Z 04007KT 15SM BKN060 OVC120 M05/M09 A2969 RMK SC6AC2 SLP055

CYUL;2010-02-10 12:00;CYUL 101200Z 05013G18KT 12SM BKN060 OVC190 M06/M09 A2967 RMK SC5AS2 SLP049

CYUL;2010-02-10 13:00;CYUL 101300Z 05018KT 15SM FEW060 BKN160 M06/M10 A2966 RMK SC2AC2 SLP045

CYUL;2010-02-10 14:00;CYUL 101400Z 05012G18KT 15SM BKN160 M06/M10 A2963 RMK AC2 SLP035

CYUL;2010-02-10 15:00;CYUL 101500Z 06017KT 15SM FEW120 SCT160 BKN210 M05/M10 A2962 RMK AC2AC1CI2 SLP033

CYUL;2010-02-10 16:00;CYUL 101600Z 04013KT 15SM FEW120 SCT150 BKN230 M04/M08 A2961 RMK AC2AC1CI1 SLP029

CYUL;2010-02-10 17:00;CYUL 101700Z 04013G18KT 15SM SCT120 BKN210 M02/M09 A2957 RMK AC2CI1 SLP015

CYUL;2010-02-10 18:00;CYUL 101800Z 04011G16KT 15SM FEW120 BKN210 M01/M09 A2954 RMK AC2CI1 SLP006

CYUL;2010-02-10 19:00;CYUL 101900Z 02014KT 15SM FEW120 SCT210 M00/M08 A2951 RMK AC1CI2 SLP994

CYUL;2010-02-10 20:00;CYUL 102000Z 04015G20KT 15SM FEW120 BKN240 M00/M09 A2950 RMK AC1CI2 SLP993

CYUL;2010-02-10 21:00;CYUL 102100Z 04012KT 15SM SCT240 M00/M09 A2949 RMK CI2 SLP989

CYUL;2010-02-10 22:00;CYUL 102200Z 03008KT 15SM SCT240 M01/M08 A2950 RMK CI1 SLP992

CYUL;2010-02-10 23:00;CYUL 102300Z 05005KT 15SM SCT240 M01/M09 A2951 RMK CI1 SLP995

CYUL;2010-02-11 00:00;CYUL 110000Z 35006KT 15SM FEW240 M03/M09 A2951 RMK CI0 SLP996

CYUL;2010-02-11 01:00;CYUL 110100Z 02004KT 15SM FEW240 M04/M09 A2952 RMK CI0 SLP998

CYUL;2010-02-11 02:00;CYUL 110200Z 00000KT 15SM SKC M06/M09 A2953 RMK SLP004

CYUL;2010-02-11 03:00;CYUL 110300Z 29003KT 15SM SKC M07/M10 A2955 RMK SLP009

CYUL;2010-02-11 03:29;CYUL 110329Z 31003KT 15SM BKN041 M07/ RMK SC6

CYUL;2010-02-11 04:00;CYUL 110400Z 30003KT 15SM BKN040 M06/M09 A2956 RMK SC3 SLP012

CYUL;2010-02-11 05:00;CYUL 110500Z 32004KT 15SM FEW040 M07/M10 A2956 RMK SC1 SLP014

CYUL;2010-02-11 06:00;CYUL 110600Z 32003KT 15SM FEW040 M07/M10 A2957 RMK SC1 SLP017

CYUL;2010-02-11 07:00;CYUL 110700Z 31006KT 15SM BKN033 M07/M10 A2959 RMK SC6 SLP021

CYUL;2010-02-11 08:00;CYUL 110800Z 31006KT 15SM BKN035 M06/M09 A2959 RMK SC5 SLP024

CYUL;2010-02-11 09:00;CYUL 110900Z 00000KT 15SM BKN035 M07/M10 A2960 RMK SC2 SLP026

CYUL;2010-02-11 10:00;CYUL 111000Z 31006KT 15SM FEW045 M08/M12 A2961 RMK SC1 SLP029

CYUL;2010-02-11 11:00;CYUL 111100Z 31006KT 15SM SKC M09/M12 A2962 RMK SLP032

CYUL;2010-02-11 12:00;CYUL 111200Z 27002KT 30SM FEW120 M09/M12 A2963 RMK AC1 SLP036

CYUL;2010-02-11 13:00;CYUL 111300Z 28002KT 30SM SKC M08/M11 A2965 RMK SLP043

CYUL;2010-02-11 14:00;CYUL 111400Z 23003KT 30SM SKC M06/M11 A2966 RMK SLP046

CYUL;2010-02-11 15:00;CYUL 111500Z 00000KT 30SM FEW210 M05/M11 A2966 RMK CI1 SLP047

CYUL;2010-02-11 16:00;CYUL 111600Z 25006KT 30SM FEW040 FEW210 M04/M11 A2966 RMK SC1CI1 SLP047

CYUL;2010-02-11 17:00;CYUL 111700Z 27005KT 30SM FEW040 FEW240 M03/M11 A2965 RMK SC1CI1 SLP044

CYUL;2010-02-11 18:00;CYUL 111800Z 24010G15KT 30SM SCT032 M03/M10 A2964 RMK SC3 SLP041

CYUL;2010-02-11 19:00;CYUL 111900Z 24013KT 30SM SCT032 M03/M11 A2965 RMK SC3 SLP043

CYUL;2010-02-11 20:00;CYUL 112000Z 24013KT 30SM FEW035 FEW240 M03/M11 A2966 RMK SC1CI0 SLP046

CYUL;2010-02-11 21:00;CYUL 112100Z 23015KT 30SM FEW040 FEW240 M04/M12 A2967 RMK SC1CI1 SLP049

CYUL;2010-02-11 22:00;CYUL 112200Z 25013G18KT 30SM FEW040 FEW120 FEW240 M05/M12 A2968 RMK SC1AC1CI0 SLP053

CYUL;2010-02-11 23:00;CYUL 112300Z 24013KT 15SM FEW040 FEW120 FEW240 M06/M13 A2970 RMK SC1AC1CI0 SLP060

CYUL;2010-02-12 00:00;CYUL 120000Z 25012G20KT 15SM FEW120 M07/M13 A2971 RMK AC1 SLP064

CYUL;2010-02-12 01:00;CYUL 120100Z 25010KT 15SM FEW120 FEW240 M07/M14 A2972 RMK AC1CI1 SLP066

CYUL;2010-02-12 02:00;CYUL 120200Z 26009KT 15SM FEW040 FEW100 M08/M14 A2972 RMK SC1AC1 SLP068

CYUL;2010-02-12 03:00;CYUL 120300Z 25008KT 15SM FEW100 M08/M15 A2972 RMK AC1 SLP068

CYUL;2010-02-12 04:00;CYUL 120400Z 26008KT 15SM FEW100 M09/M15 A2972 RMK AC1 SLP068

CYUL;2010-02-12 05:00;CYUL 120500Z 25008KT 15SM SCT100 M09/M15 A2974 RMK AC3 SLP072

CYUL;2010-02-12 06:00;CYUL 120600Z 25008KT 15SM FEW100 M10/M16 A2974 RMK AC1 SLP074

CYUL;2010-02-12 07:00;CYUL 120700Z 25006KT 15SM FEW100 M10/M16 A2976 RMK AC2 SLP079

CYUL;2010-02-12 08:00;CYUL 120800Z 23006KT 15SM FEW100 M11/M17 A2976 RMK AC2 SLP081

CYUL;2010-02-12 09:00;CYUL 120900Z 24007KT 15SM FEW100 M12/M17 A2977 RMK AC1 SLP084

CYUL;2010-02-12 10:00;CYUL 121000Z 23008KT 15SM FEW100 M12/M17 A2979 RMK AC1 SLP091

CYUL;2010-02-12 11:00;CYUL 121100Z 23010KT 15SM FEW100 M13/M17 A2980 RMK AC1 SLP092

CYUL;2010-02-12 12:00;CYUL 121200Z 24012KT 30SM FEW100 M13/M17 A2981 RMK AC1 SLP098

CYUL;2010-02-12 13:00;CYUL 121300Z 24012KT 30SM FEW012 FEW100 FEW220 M13/M17 A2983 RMK SF1AC2CI1 SLP103

CYUL;2010-02-12 14:00;CYUL 121400Z 24017KT 30SM FEW015 FEW100 FEW220 M12/M16 A2984 RMK SC1AC2CI1 SLP108

CYUL;2010-02-12 15:00;CYUL 121500Z 24015KT 30SM FEW050 SCT110 BKN240 M11/M16 A2984 RMK SC1AC2CI1 SLP107

CYUL;2010-02-12 16:00;CYUL 121600Z 25013KT 30SM FEW028 SCT110 SCT240 M10/M15 A2983 RMK SC1AC2CI1 SLP106

CYUL;2010-02-12 17:00;CYUL 121700Z 24015KT 30SM FEW025 SCT110 BKN240 M10/M15 A2983 RMK SC1AC2CI1 SLP103

CYUL;2010-02-12 18:00;CYUL 121800Z 24014KT 30SM FEW026 FEW110 SCT240 M08/M14 A2982 RMK SC1AC1CI1 SLP100

CYUL;2010-02-12 19:00;CYUL 121900Z 23014KT 30SM SCT025 SCT110 BKN220 M08/M14 A2981 RMK SC2AC1CI2 SLP097

CYUL;2010-02-12 20:00;CYUL 122000Z 25014G19KT 15SM BKN027 BKN220 M07/M14 A2982 RMK SC4CI1 SLP100

CYUL;2010-02-12 21:00;CYUL 122100Z 26013KT 15SM SCT025 BKN036 BKN240 M07/M14 A2982 RMK SC3SC1CI1 SLP100

CYUL;2010-02-12 22:00;CYUL 122200Z 25011G17KT 15SM BKN025 BKN200 M08/M15 A2982 RMK SC6CI1 SLP102

CYUL;2010-02-12 23:00;CYUL 122300Z 27011G16KT 15SM BKN026 BKN041 M08/M15 A2982 RMK SC3SC2 SLP101

CYUL;2010-02-13 00:00;CYUL 130000Z 26013KT 15SM BKN027 M08/M15 A2983 RMK SC6 SLP103

CYUL;2010-02-13 01:00;CYUL 130100Z 27013KT 15SM BKN025 OVC035 M08/M15 A2983 RMK SC5SC2 SLP105

CYUL;2010-02-13 02:00;CYUL 130200Z 27011KT 15SM SCT025 BKN045 BKN100 M08/M14 A2983 RMK SC2SC2AC1 SLP103

CYUL;2010-02-13 03:00;CYUL 130300Z 26010KT 15SM BKN025 OVC100 M08/M14 A2981 RMK SC6AC2 SLP099

CYUL;2010-02-13 04:00;CYUL 130400Z 25008KT 15SM OVC021 M08/M13 A2980 RMK SC8 SLP093

CYUL;2010-02-13 05:00;CYUL 130500Z 25007KT 15SM OVC028 M08/M14 A2977 RMK SC8 SLP086

CYUL;2010-02-13 06:00;CYUL 130600Z 23008KT 15SM OVC029 M08/M14 A2975 RMK SC8 SLP077

CYUL;2010-02-13 07:00;CYUL 130700Z 23011KT 15SM OVC025 M09/M14 A2975 RMK SC8 SLP079

CYUL;2010-02-13 08:00;CYUL 130800Z 26009KT 15SM OVC025 M09/M14 A2975 RMK SC8 SLP078

CYUL;2010-02-13 09:00;CYUL 130900Z 23008KT 15SM BKN022 OVC100 M09/M13 A2972 RMK SC5AC2 SLP067

CYUL;2010-02-13 10:00;CYUL 131000Z 23009KT 15SM OVC020 M09/M13 A2971 RMK SC8 SLP062

CYUL;2010-02-13 11:00;CYUL 131100Z 24011KT 15SM OVC023 M09/M13 A2969 RMK SC8 SLP058

CYUL;2010-02-13 12:00;CYUL 131200Z 24010KT 15SM FEW015 FEW025 BKN040 M09/M13 A2968 RMK SF1SC1SC6 SLP052

CYUL;2010-02-13 13:00;CYUL 131300Z 24009KT 15SM FEW015 SCT040 BKN075 M09/M12 A2966 RMK SC1SC3AC2 SLP046

CYUL;2010-02-13 14:00;CYUL 131400Z 23011KT 15SM FEW015 SCT040 OVC050 M09/M12 A2965 RMK SC1SC2SC5 SLP043

CYUL;2010-02-13 15:00;CYUL 131500Z 22011KT 15SM SCT025 BKN034 OVC050 M08/M12 A2964 RMK SC3SC3SC2 SLP039

CYUL;2010-02-13 16:00;CYUL 131600Z 25011KT 15SM OVC029 M07/M11 A2960 RMK SC8 SLP027

CYUL;2010-02-13 17:00;CYUL 131700Z 24013G18KT 15SM BKN028 BKN050 M06/M11 A2955 RMK SC4SC2 SLP009

CYUL;2010-02-13 18:00;CYUL 131800Z 24014KT 15SM SCT029 BKN240 M06/M10 A2952 RMK SC2CI1 SLP998

CYUL;2010-02-13 19:00;CYUL 131900Z 24013G19KT 30SM FEW036 SCT090 BKN240 M05/M10 A2949 RMK SC1AC1CI2 SLP990

CYUL;2010-02-13 20:00;CYUL 132000Z 24017KT 15SM FEW018 FEW040 SCT090 BKN240 M05/M10 A2949 RMK SC1SC1AC2CI1 SLP989

CYUL;2010-02-13 21:00;CYUL 132100Z 24018KT 15SM FEW020 SCT180 BKN240 M05/M10 A2947 RMK SC1AC2CI2 SLP983

CYUL;2010-02-13 22:00;CYUL 132200Z 25015G20KT 15SM FEW170 BKN240 M06/M10 A2946 RMK AC2CI3 SLP979

CYUL;2010-02-13 23:00;CYUL 132300Z 25015KT 15SM SCT240 M06/M10 A2947 RMK CI2 SLP981

CYUL;2010-02-14 00:00;CYUL 140000Z 25015KT 15SM SCT240 M06/M10 A2946 RMK CI2 SLP978

CYUL;2010-02-14 01:00;CYUL 140100Z 25016KT 15SM FEW240 M06/M09 A2944 RMK CI1 SLP973

CYUL;2010-02-14 02:00;CYUL 140200Z 25013KT 15SM FEW240 M06/M09 A2944 RMK CI1 SLP971

CYUL;2010-02-14 03:00;CYUL 140300Z 25014KT 15SM FEW020 FEW150 BKN220 M06/M09 A2941 RMK SC1AC1CI2 SLP963

CYUL;2010-02-14 04:00;CYUL 140400Z 25014G19KT 15SM FEW020 FEW060 BKN220 M06/M08 A2939 RMK SC1SC1CI2 SLP956

CYUL;2010-02-14 05:00;CYUL 140500Z 26012KT 15SM FEW020 FEW045 OVC067 M06/M08 A2938 RMK SC1SC2AC6 SLP953

CYUL;2010-02-14 06:00;CYUL 140600Z 26013KT 15SM BKN030 OVC050 M05/M08 A2937 RMK SC6SC2 SLP950

CYUL;2010-02-14 07:00;CYUL 140700Z 27010G15KT 15SM BKN028 OVC065 M05/M09 A2938 RMK SC7SC1 SLP953

CYUL;2010-02-14 08:00;CYUL 140800Z 26013KT 15SM FEW020 SCT030 OVC050 M05/M09 A2937 RMK SC2SC2SC4 SLP950

CYUL;2010-02-14 09:00;CYUL 140900Z 25012G17KT 15SM OVC040 M05/M09 A2938 RMK SC8 SLP951

CYUL;2010-02-14 10:00;CYUL 141000Z 27012G18KT 15SM SCT025 OVC053 M05/M09 A2937 RMK SC3SC5 SLP949

CYUL;2010-02-14 11:00;CYUL 141100Z 27013G18KT 15SM BKN025 OVC045 M05/M09 A2938 RMK SC7SC1 SLP953

CYUL;2010-02-14 12:00;CYUL 141200Z 27013G18KT 15SM OVC025 M05/M09 A2939 RMK SC8 SLP956

CYUL;2010-02-14 13:00;CYUL 141300Z 26013KT 15SM OVC025 M04/M09 A2940 RMK SC8 SLP959

CYUL;2010-02-14 14:00;CYUL 141400Z 27016KT 15SM OVC023 M04/M09 A2940 RMK SC8 SLP958

CYUL;2010-02-14 14:49;CYUL 141449Z 29014G20KT 15SM -SHSN OVC025 M04/ RMK SC8

CYUL;2010-02-14 15:00;CYUL 141500Z 28014G19KT 15SM -SHSN OVC026 M04/M09 A2941 RMK SC8 SLP962

CYUL;2010-02-14 16:00;CYUL 141600Z 28016G21KT 15SM -SN OVC026 M04/M10 A2942 RMK SC8 SLP965

CYUL;2010-02-14 17:00;CYUL 141700Z 27016G25KT 15SM -SN OVC026 M04/M10 A2941 RMK SC8 SLP963

CYUL;2010-02-14 17:30;CYUL 141730Z 27016G22KT 15SM BKN031 M04/ RMK SC7

CYUL;2010-02-14 18:00;CYUL 141800Z 27019G24KT 15SM SCT030 BKN062 M04/M11 A2941 RMK SC2SC2 SLP963

CYUL;2010-02-14 19:00;CYUL 141900Z 26022KT 15SM FEW029 BKN061 M03/M10 A2941 RMK SC2SC5 SLP963

CYUL;2010-02-14 20:00;CYUL 142000Z 27015G21KT 15SM FEW032 OVC064 M03/M11 A2942 RMK SC2SC6 SLP966

CYUL;2010-02-14 20:39;CYUL 142039Z 25018KT 15SM -SN FEW032 BKN055 OVC070 M03/ RMK SC2SC5AC2

CYUL;2010-02-14 21:00;CYUL 142100Z 26018KT 15SM -SN BKN040 OVC058 M03/M10 A2943 RMK SC6SC2 SLP969

CYUL;2010-02-14 22:00;CYUL 142200Z 25014G19KT 15SM -SN BKN040 OVC060 M03/M10 A2945 RMK SC6SC2 SLP976

CYUL;2010-02-14 23:00;CYUL 142300Z 26015G20KT 15SM -SN OVC030 M04/M10 A2947 RMK SC8 SLP982

CYUL;2010-02-15 00:00;CYUL 150000Z 26013KT 15SM -SN BKN027 OVC037 M04/M10 A2948 RMK SC6SC2 SLP987

CYUL;2010-02-15 01:00;CYUL 150100Z 27011G16KT 15SM -SN BKN025 OVC045 M04/M10 A2949 RMK SC6SC2 SLP989

CYUL;2010-02-15 02:00;CYUL 150200Z 27011KT 15SM -SN FEW028 OVC130 M04/M09 A2950 RMK SC1AC7 SLP993

CYUL;2010-02-15 03:00;CYUL 150300Z 28013KT 15SM -SN FEW015 BKN060 OVC120 M04/M10 A2951 RMK SC1SC6AC2 SLP994

CYUL;2010-02-15 04:00;CYUL 150400Z 28011KT 15SM -SHSN FEW020 SCT058 OVC120 M05/M09 A2952 RMK SC1SC2AC5 SLP999

CYUL;2010-02-15 04:37;CYUL 150437Z 28013KT 15SM FEW050 OVC130 M05/ RMK SC2AC6

CYUL;2010-02-15 05:00;CYUL 150500Z 27013KT 15SM FEW020 OVC150 M05/M11 A2953 RMK SC1AC6 SLP002

CYUL;2010-02-15 06:00;CYUL 150600Z 27013G20KT 15SM -SN FEW030 OVC150 M05/M11 A2953 RMK SC1AC7 SLP002

CYUL;2010-02-15 07:00;CYUL 150700Z 27013G19KT 15SM -SN FEW070 OVC150 M05/M11 A2954 RMK AC2AC6 SLP007

CYUL;2010-02-15 08:00;CYUL 150800Z 26015KT 15SM -SN FEW020 BKN120 OVC160 M05/M11 A2954 RMK SC2AC4AC2 SLP007

CYUL;2010-02-15 09:00;CYUL 150900Z 26014KT 15SM -SN FEW020 BKN040 OVC120 M06/M10 A2955 RMK SC1SC5AC2 SLP010

CYUL;2010-02-15 10:00;CYUL 151000Z 26018KT 6SM -SN BKN020 BKN050 OVC090 M06/M10 A2956 RMK SC5SC2AC2 SLP013

CYUL;2010-02-15 11:00;CYUL 151100Z 26015KT 15SM -SN FEW030 BKN090 BKN150 M06/M11 A2957 RMK SC2AC4AC2 SLP016

CYUL;2010-02-15 12:00;CYUL 151200Z 26017KT 15SM FEW030 BKN085 M06/M11 A2959 RMK SC1AC6 SLP023

CYUL;2010-02-15 13:00;CYUL 151300Z 26013G19KT 15SM SCT040 BKN068 BKN100 M06/M11 A2960 RMK SC3AC2AC2 SLP027

CYUL;2010-02-15 14:00;CYUL 151400Z 26013KT 15SM FEW025 BKN058 BKN090 OVC150 M05/M11 A2962 RMK SC1SC4AC2AS1 SLP032

CYUL;2010-02-15 15:00;CYUL 151500Z CCA 25018KT 15SM FEW025 SCT055 BKN150 M05/M10 A2962 RMK SC1SC2AS2 SLP033

CYUL;2010-02-15 16:00;CYUL 151600Z 26014G19KT 15SM FEW025 SCT047 OVC150 M03/M10 A2963 RMK SC1SC2AS3 SLP035

CYUL;2010-02-15 17:00;CYUL 151700Z 24015G21KT 15SM FEW040 SCT055 OVC180 M03/M10 A2962 RMK SC1SC2AS3 SLP032

CYUL;2010-02-15 18:00;CYUL 151800Z 26017KT 30SM FEW055 SCT150 BKN240 M02/M09 A2962 RMK SC1AS2CI0 SLP033

CYUL;2010-02-15 19:00;CYUL 151900Z 25015G21KT 30SM FEW060 SCT170 BKN240 M01/M09 A2962 RMK SC1AS2CI1 SLP032

CYUL;2010-02-15 20:00;CYUL 152000Z 24014KT 30SM SCT150 BKN220 M02/M09 A2963 RMK AC2CI2 CS ASOCT SLP037

CYUL;2010-02-15 21:00;CYUL 152100Z 25011G18KT 30SM FEW050 SCT150 BKN220 M02/M09 A2964 RMK SC1AS2CI0 SLP040

CYUL;2010-02-15 22:00;CYUL 152200Z 26008KT 15SM SCT150 BKN210 M02/M09 A2964 RMK AC2CI0 SLP040

CYUL;2010-02-15 23:00;CYUL 152300Z 27004KT 15SM SCT170 M03/M09 A2967 RMK AC1 SLP048

CYUL;2010-02-16 00:00;CYUL 160000Z 00000KT 15SM FEW045 SCT180 M04/M09 A2968 RMK SC1AC0 SLP053

CYUL;2010-02-16 01:00;CYUL 160100Z 23004KT 15SM FEW040 OVC050 M03/M09 A2969 RMK SC2SC6 SLP055

CYUL;2010-02-16 02:00;CYUL 160200Z 23002KT 15SM FEW045 BKN080 M02/M08 A2968 RMK SC1AC2 SLP054

CYUL;2010-02-16 03:00;CYUL 160300Z 25002KT 15SM SCT076 M03/M08 A2967 RMK AC4 SLP049

CYUL;2010-02-16 04:00;CYUL 160400Z 22003KT 15SM FEW090 BKN240 M03/M08 A2967 RMK AC2CI2 SLP048

CYUL;2010-02-16 05:00;CYUL 160500Z 21002KT 15SM FEW035 BKN180 M03/M08 A2967 RMK SC1AS3 SLP048

CYUL;2010-02-16 06:00;CYUL 160600Z 00000KT 15SM FEW040 FEW100 BKN180 M05/M08 A2965 RMK SC1AC2AS1 SLP044

CYUL;2010-02-16 07:00;CYUL 160700Z 17003KT 15SM BKN042 M05/M08 A2965 RMK SC6 SLP043

CYUL;2010-02-16 08:00;CYUL 160800Z 00000KT 15SM OVC040 M05/M08 A2963 RMK SC8 SLP036

CYUL;2010-02-16 09:00;CYUL 160900Z 04002KT 15SM OVC040 M04/M07 A2962 RMK SC8 SLP033

CYUL;2010-02-16 10:00;CYUL 161000Z 36003KT 15SM OVC037 M04/M07 A2962 RMK SC8 SLP032

CYUL;2010-02-16 11:00;CYUL 161100Z 00000KT 15SM OVC037 M04/M07 A2962 RMK SC8 SLP032

CYUL;2010-02-16 12:00;CYUL 161200Z 01002KT 15SM -SN OVC037 M04/M07 A2963 RMK SC8 SLP035

CYUL;2010-02-16 12:36;CYUL 161236Z 00000KT 15SM OVC033 M03/ RMK SC8

CYUL;2010-02-16 12:48;CYUL 161248Z 00000KT 15SM -SN OVC033 M03/ RMK SC8 -SN INTMT

CYUL;2010-02-16 13:00;CYUL 161300Z 00000KT 15SM -SN OVC033 M03/M06 A2963 RMK SC8 -SN INTMT SLP037

CYUL;2010-02-16 14:00;CYUL 161400Z 35002KT 15SM -SN OVC035 M03/M06 A2962 RMK SC8 SLP032

CYUL;2010-02-16 15:00;CYUL 161500Z 27002KT 15SM OVC039 M02/M06 A2961 RMK SC8 SLP028

CYUL;2010-02-16 16:00;CYUL 161600Z 00000KT 15SM FEW025 OVC040 M01/M06 A2959 RMK SC2SC6 SLP024

CYUL;2010-02-16 17:00;CYUL 161700Z 36003KT 15SM SCT025 OVC035 M01/M07 A2957 RMK SC3SC5 SLP016

CYUL;2010-02-16 18:00;CYUL 161800Z 35004KT 15SM FEW025 OVC035 M00/M07 A2954 RMK SC2SC6 SLP007

CYUL;2010-02-16 19:00;CYUL 161900Z 34004KT 15SM OVC035 M01/M07 A2952 RMK SC8 SLP000

CYUL;2010-02-16 20:00;CYUL 162000Z CCA 35004KT 15SM OVC035 M01/M08 A2951 RMK SC8 SLP995

CYUL;2010-02-16 21:00;CYUL 162100Z 36003KT 15SM OVC036 M01/M08 A2951 RMK SC8 SLP994

CYUL;2010-02-16 22:00;CYUL 162200Z 28004KT 15SM OVC039 M01/M08 A2951 RMK SC8 SLP996

CYUL;2010-02-16 23:00;CYUL 162300Z 26005KT 15SM OVC040 M01/M07 A2951 RMK SC8 SLP997

CYUL;2010-02-17 00:00;CYUL 170000Z 26006KT 15SM OVC040 M01/M07 A2951 RMK SC8 SLP997

CYUL;2010-02-17 01:00;CYUL 170100Z 27008KT 15SM OVC040 M01/M07 A2951 RMK SC8 SLP994

CYUL;2010-02-17 02:00;CYUL 170200Z 27011KT 15SM OVC040 M01/M07 A2950 RMK SC8 SLP992

CYUL;2010-02-17 03:00;CYUL 170300Z 27011KT 15SM OVC038 M01/M07 A2949 RMK SC8 SLP987

CYUL;2010-02-17 04:00;CYUL 170400Z 29008KT 15SM OVC036 M02/M06 A2948 RMK SC8 SLP985

CYUL;2010-02-17 04:08;CYUL 170408Z 30008KT 15SM -SN OVC037 M02/ RMK SC8

CYUL;2010-02-17 05:00;CYUL 170500Z 28007KT 10SM -SN BKN038 BKN060 M03/M05 A2948 RMK SC5SC2 SLP983

CYUL;2010-02-17 06:00;CYUL 170600Z 27009KT 10SM -SN SCT035 BKN060 M03/M05 A2946 RMK SC3SC2 SLP979

CYUL;2010-02-17 07:00;CYUL 170700Z 27010KT 10SM -SN FEW015 BKN040 BKN210 M03/M05 A2945 RMK SF2SC3CI2 SLP976

CYUL;2010-02-17 08:00;CYUL 170800Z 27010KT 15SM -SN FEW009 FEW020 BKN110 M03/M05 A2945 RMK SF1SC1AC3 SLP973

CYUL;2010-02-17 09:00;CYUL 170900Z 26011KT 15SM -SN BKN032 OVC100 M03/M05 A2945 RMK SC6AC2 SLP974

CYUL;2010-02-17 10:00;CYUL 171000Z 26008KT 15SM -SN FEW008 OVC033 M03/M05 A2946 RMK SF1SC7 SLP977

CYUL;2010-02-17 11:00;CYUL 171100Z 26010KT 10SM -SN FEW009 BKN035 OVC100 M03/M06 A2945 RMK SF1SC5AC2 SLP974

CYUL;2010-02-17 12:00;CYUL 171200Z 25011KT 10SM -SN BKN012 OVC030 M03/M06 A2946 RMK SC5SC3 SLP979

CYUL;2010-02-17 13:00;CYUL 171300Z 24010KT 8SM -SN BKN010 BKN030 OVC090 M03/M05 A2945 RMK SC5SC2AC1 SLP976

CYUL;2010-02-17 14:00;CYUL 171400Z 25012KT 8SM -SN BKN011 OVC050 M03/M05 A2945 RMK SC6SC2 SLP974

CYUL;2010-02-17 15:00;CYUL 171500Z 25009KT 7SM -SN BKN013 OVC045 M03/M05 A2945 RMK SC6SC2 SLP973

CYUL;2010-02-17 15:21;CYUL 171521Z 25010KT 10SM -SN BKN015 OVC045 M02/ RMK SC6SC2

CYUL;2010-02-17 16:00;CYUL 171600Z 24010KT 15SM OVC014 M02/M05 A2944 RMK SC8 SLP971

CYUL;2010-02-17 16:35;CYUL 171635Z 26010KT 15SM BKN015 OVC048 M02/ RMK SC6SC2

CYUL;2010-02-17 17:00;CYUL 171700Z 24009KT 15SM BKN017 OVC045 M02/M05 A2943 RMK SC6SC2 SLP968

CYUL;2010-02-17 18:00;CYUL 171800Z 23009KT 15SM OVC018 M01/M05 A2942 RMK SC8 SLP965

CYUL;2010-02-17 19:00;CYUL 171900Z 23008KT 15SM OVC018 M01/M05 A2941 RMK SC8 SLP962

CYUL;2010-02-17 19:15;CYUL 171915Z 22007KT 15SM -SN OVC017 M01/ RMK SC8

CYUL;2010-02-17 20:00;CYUL 172000Z 24009KT 15SM BKN018 OVC030 M00/M05 A2941 RMK SC6SC2 SLP961

CYUL;2010-02-17 20:37;CYUL 172037Z CCA 25009KT 15SM -SN BKN019 OVC100 M00/ RMK SC6AC2 -SN INTMT

CYUL;2010-02-17 21:00;CYUL 172100Z 25008KT 15SM BKN020 OVC100 M00/M05 A2940 RMK SC5AC2 SLP959

CYUL;2010-02-17 22:00;CYUL 172200Z 25006KT 15SM -SN BKN038 OVC100 M00/M04 A2941 RMK SC6AC2 SLP962

CYUL;2010-02-17 22:53;CYUL 172253Z 24005KT 15SM BKN032 OVC100 M00/ RMK SC6AC2

CYUL;2010-02-17 23:00;CYUL 172300Z 24006KT 15SM OVC032 M00/M04 A2942 RMK SC8 SLP965

CYUL;2010-02-17 23:10;CYUL 172310Z 24006KT 15SM -SN OVC035 M00/ RMK SC8 -SN INTMT

CYUL;2010-02-18 00:00;CYUL 180000Z 25005KT 15SM -SN OVC034 M00/M04 A2943 RMK SC8 SLP966

CYUL;2010-02-18 01:00;CYUL 180100Z 24007KT 15SM -SN FEW030 BKN041 OVC065 M01/M03 A2942 RMK SC1SC6SC2 SLP964

CYUL;2010-02-18 01:44;CYUL 180144Z 24005KT 15SM -SN SCT009 OVC041 M01/ RMK SF3SC5

CYUL;2010-02-18 02:00;CYUL 180200Z 25006KT 15SM -SN FEW010 OVC040 M01/M03 A2941 RMK SF2SC6 SLP961

CYUL;2010-02-18 02:46;CYUL 180246Z 24005KT 15SM -SN BKN008 OVC063 M01/ RMK SF5SC3

CYUL;2010-02-18 03:00;CYUL 180300Z 24005KT 10SM -SN BKN008 OVC060 M01/M03 A2940 RMK SF6SC2 SLP959

CYUL;2010-02-18 04:00;CYUL 180400Z 25005KT 8SM -SN BKN006 OVC030 M01/M02 A2940 RMK SF6SC2 SLP956

CYUL;2010-02-18 05:00;CYUL 180500Z 26007KT 8SM -SN SCT006 OVC050 M00/M02 A2940 RMK SF3SC5 SLP956

CYUL;2010-02-18 06:00;CYUL 180600Z 26006KT 8SM -SN FEW007 OVC028 M00/M02 A2939 RMK SF2SC6 SLP955

CYUL;2010-02-18 06:17;CYUL 180617Z 26005KT 2SM -SN BKN010 OVC020 M00/ RMK SN2SF2SC3

CYUL;2010-02-18 06:24;CYUL 180624Z 25007KT 3SM -SN SCT010 OVC023 M00/ RMK SN1SF2SC5

CYUL;2010-02-18 07:00;CYUL 180700Z 24006KT 8SM -SN FEW009 SCT022 OVC055 M00/M02 A2940 RMK SF1SC2SC5 SLP957

CYUL;2010-02-18 08:00;CYUL 180800Z 24007KT 15SM FEW009 OVC060 M00/M02 A2938 RMK SF1SC7 SLP952

CYUL;2010-02-18 08:10;CYUL 180810Z 25008KT 15SM -SN FEW009 OVC060 M00/ RMK SF1SC7 -SN INTMT

CYUL;2010-02-18 09:00;CYUL 180900Z 26007KT 15SM -SN FEW010 OVC060 00/M02 A2939 RMK SF1SC8 -SN INTMT SLP953

CYUL;2010-02-18 10:00;CYUL 181000Z 23006KT 15SM FEW020 OVC060 00/M02 A2939 RMK SC1SC7 SLP954

CYUL;2010-02-18 11:00;CYUL 181100Z 27007KT 15SM OVC060 01/M01 A2939 RMK SC8 SLP955

CYUL;2010-02-18 12:00;CYUL 181200Z 29012KT 15SM FEW030 OVC060 01/M02 A2941 RMK SC1SC7 SLP960

CYUL;2010-02-18 13:00;CYUL 181300Z 28007KT 15SM BKN065 OVC077 01/M03 A2943 RMK SC6AC2 SLP967

CYUL;2010-02-18 13:14;CYUL 181314Z 28009KT 15SM -SN FEW040 OVC065 01/ RMK SC2SC6

CYUL;2010-02-18 14:00;CYUL 181400Z 28011KT 15SM FEW025 OVC060 01/M04 A2945 RMK SC2SC6 SLP973

CYUL;2010-02-18 15:00;CYUL 181500Z 27016KT 15SM BKN075 01/M04 A2945 RMK AC5 SLP976

CYUL;2010-02-18 16:00;CYUL 181600Z 26019KT 15SM BKN080 M00/M05 A2947 RMK AC4 SLP980

CYUL;2010-02-18 17:00;CYUL 181700Z 26018G25KT 15SM FEW030 OVC065 M01/M06 A2946 RMK SC1SC7 SLP979

CYUL;2010-02-18 18:00;CYUL 181800Z 27017G24KT 15SM FEW030 BKN070 M00/M06 A2946 RMK SC1AC3 SLP977

CYUL;2010-02-18 19:00;CYUL 181900Z 26022G29KT 15SM FEW025 BKN070 00/M07 A2945 RMK SC2AC2 SLP976

CYUL;2010-02-18 20:00;CYUL 182000Z 26018G24KT 15SM FEW030 SCT060 BKN070 M00/M07 A2946 RMK SC1SC2AC2 SLP978

CYUL;2010-02-18 21:00;CYUL 182100Z 27016G22KT 15SM FEW030 BKN063 OVC090 00/M07 A2948 RMK SC1SC6AC1 SLP984

CYUL;2010-02-18 21:30;CYUL 182130Z 27019G24KT 15SM -SN FEW030 BKN060 OVC070 M00/ RMK SC1SC6AC1

CYUL;2010-02-18 22:00;CYUL 182200Z 27019G26KT 8SM -SN OVC025 M00/M05 A2949 RMK SC8 SLP987

CYUL;2010-02-18 22:23;CYUL 182223Z 28017G24KT 12SM OVC030 00/ RMK SC8

CYUL;2010-02-18 22:47;CYUL 182247Z 28017G25KT 12SM -SN BKN030 OVC053 M00/ RMK SC6SC2 -SN INTMT

CYUL;2010-02-18 23:00;CYUL 182300Z 29017G27KT 15SM -SN BKN035 BKN090 00/M06 A2949 RMK SC5AC2 -SN INTMT SLP988

CYUL;2010-02-19 00:00;CYUL 190000Z 28013KT 10SM -SN OVC021 M02/M04 A2951 RMK SC8 SLP995

CYUL;2010-02-19 01:00;CYUL 190100Z 27014KT 3SM -SN FEW009 OVC028 M02/M04 A2951 RMK SF2SC6 SLP993

CYUL;2010-02-19 01:53;CYUL 190153Z 28013KT 6SM -SN FEW010 BKN040 OVC120 M03/ RMK SF2SC5AC1

CYUL;2010-02-19 02:00;CYUL 190200Z 29014G20KT 4SM -SN FEW010 BKN032 OVC120 M03/M05 A2951 RMK SF2SC5AC1 SLP993

CYUL;2010-02-19 02:29;CYUL 190229Z 29012KT 3SM -SN BKN014 OVC025 M03/ RMK SF6SC2

CYUL;2010-02-19 02:35;CYUL 190235Z 28011G16KT 2 1/2SM -SN FEW009 BKN014 OVC025 M03/ RMK SF2SF5SC2

CYUL;2010-02-19 03:00;CYUL 190300Z 28013KT 2 1/2SM -SN BKN007 OVC020 M03/M05 A2951 RMK SF4SC4 SLP993

CYUL;2010-02-19 04:00;CYUL 190400Z 27012KT 1 1/2SM -SN BKN007 OVC018 M03/M05 A2950 RMK SF4SC4 /S01/ SLP991

CYUL;2010-02-19 04:23;CYUL 190423Z 27016KT 1 1/4SM -SN BKN006 OVC018 M03/ RMK SF6SC2

CYUL;2010-02-19 04:33;CYUL 190433Z 27014G20KT 3/4SM R24R/P6000FT/D -SN BKN004 OVC015 M03/ RMK SF6SC2

CYUL;2010-02-19 05:00;CYUL 190500Z CCA 27015KT 1SM R24R/P6000FT/D -SN BKN005 OVC016 M03/M05 A2950 RMK SF5SC3 /S02/ SLP991

CYUL;2010-02-19 05:39;CYUL 190539Z 27012G17KT 1 1/2SM -SN BKN008 OVC021 M03/ RMK SF5SC3

CYUL;2010-02-19 05:55;CYUL 190555Z 27014KT 2 1/2SM -SN SCT008 OVC025 M03/ RMK SF2SC6

CYUL;2010-02-19 06:00;CYUL 190600Z 26016KT 3SM -SN SCT008 OVC025 M03/M05 A2950 RMK SF2SC6 /S04/ SLP990

CYUL;2010-02-19 06:16;CYUL 190616Z 27016KT 1SM R24R/P6000FT/D -SN BKN006 OVC017 M03/ RMK SF5SC3

CYUL;2010-02-19 06:22;CYUL 190622Z 26015KT 2SM -SN SCT008 BKN025 OVC044 M03/ RMK SF2SC5SC2

CYUL;2010-02-19 06:35;CYUL 190635Z 27013KT 5SM -SN FEW008 BKN025 OVC040 M03/ RMK SF2SC2SC4

CYUL;2010-02-19 07:00;CYUL 190700Z 27016KT 6SM -SN FEW010 BKN024 OVC040 M03/M05 A2950 RMK SF2SC5SC2 SLP992

CYUL;2010-02-19 08:00;CYUL 190800Z 27011G17KT 15SM -SN FEW011 BKN025 OVC044 M04/M06 A2950 RMK SC1SC5SC2 SLP992

CYUL;2010-02-19 09:00;CYUL 190900Z CCA 28013KT 1 1/2SM -SN SCT006 OVC017 M04/M07 A2952 RMK SF3SC5 SLP998

CYUL;2010-02-19 10:00;CYUL 191000Z 27011G16KT 1 1/2SM -SN SCT007 OVC019 M05/M07 A2953 RMK SF2SC6 /S01/ SLP001

CYUL;2010-02-19 10:28;CYUL 191028Z 28011KT 1SM R24R/P6000FT/D -SN BKN006 OVC017 M05/ RMK SF4SC4

CYUL;2010-02-19 11:00;CYUL 191100Z 28013KT 1SM R24R/P6000FT/U -SN BKN007 OVC018 M05/M07 A2955 RMK SF5SC3 SLP009

CYUL;2010-02-19 12:00;CYUL 191200Z 27012KT 1SM R24R/P6000FT/D -SN BKN009 OVC025 M05/M07 A2958 RMK SF5SC3 /S03/ SLP018

CYUL;2010-02-19 12:40;CYUL 191240Z 27014KT 4SM -SN FEW012 BKN036 OVC055 M06/ RMK SF1SC6SC2

CYUL;2010-02-19 13:00;CYUL 191300Z 28014G19KT 4SM -SN FEW016 SCT030 OVC045 M06/M09 A2959 RMK SF1SC3SC4 SLP024

CYUL;2010-02-19 14:00;CYUL 191400Z 28013G18KT 15SM -SN SCT040 OVC065 M05/M09 A2961 RMK SC3SC5 SLP031

CYUL;2010-02-19 15:00;CYUL 191500Z 28015G21KT 12SM -SN DRSN FEW025 BKN035 OVC050 M05/M10 A2964 RMK CF1SC6SC1 SLP038

CYUL;2010-02-19 16:00;CYUL 191600Z 27015KT 10SM -SN DRSN FEW025 OVC045 M04/M09 A2965 RMK SF1SC8 SLP042

CYUL;2010-02-19 17:00;CYUL 191700Z 27016KT 15SM -SN DRSN FEW025 OVC035 M04/M08 A2965 RMK CF1SC8 SLP043

CYUL;2010-02-19 18:00;CYUL 191800Z 26018KT 15SM DRSN FEW025 BKN040 M03/M08 A2965 RMK CF1SC6 SLP044

CYUL;2010-02-19 19:00;CYUL 191900Z 26019G28KT 15SM DRSN FEW030 BKN060 BKN080 M02/M08 A2966 RMK SC1SC6AC1 SLP047

CYUL;2010-02-19 20:00;CYUL 192000Z 26021G27KT 15SM DRSN FEW030 BKN070 BKN240 M02/M08 A2968 RMK SC1AC6CI1 SLP054

CYUL;2010-02-19 21:00;CYUL 192100Z CCA 27013G19KT 15SM DRSN BKN060 M01/M07 A2970 RMK SC5 SLP061

CYUL;2010-02-19 22:00;CYUL 192200Z 27015KT 15SM BKN033 M01/M07 A2973 RMK SC7 SLP070

CYUL;2010-02-19 23:00;CYUL 192300Z 28014G20KT 15SM BKN030 M01/M06 A2976 RMK SC7 SLP080

CYUL;2010-02-20 00:00;CYUL 200000Z 27009KT 15SM BKN030 M01/M06 A2980 RMK SC7 SLP093

CYUL;2010-02-20 01:00;CYUL 200100Z 27011KT 15SM OVC030 M01/M06 A2981 RMK SC8 SLP096

CYUL;2010-02-20 02:00;CYUL 200200Z 28011KT 15SM BKN033 OVC050 M01/M06 A2982 RMK SC6SC2 SLP100

CYUL;2010-02-20 03:00;CYUL 200300Z 28011KT 15SM BKN027 BKN070 M01/M06 A2983 RMK SC3AC2 SLP104

CYUL;2010-02-20 04:00;CYUL 200400Z 28008KT 15SM BKN026 BKN065 M01/M06 A2984 RMK SC6SC1 SLP107

CYUL;2010-02-20 05:00;CYUL 200500Z 28010KT 15SM BKN026 M01/M06 A2985 RMK SC4 SLP110

CYUL;2010-02-20 06:00;CYUL 200600Z 26004KT 15SM FEW026 M02/M07 A2985 RMK SC1 SLP112

CYUL;2010-02-20 07:00;CYUL 200700Z 27006KT 15SM FEW027 M03/M07 A2987 RMK SC1 SLP117

CYUL;2010-02-20 08:00;CYUL 200800Z 27007KT 15SM FEW032 SCT150 M03/M07 A2987 RMK SC1AC2 SLP117

CYUL;2010-02-20 09:00;CYUL 200900Z 27007KT 15SM BKN150 M03/M06 A2987 RMK AC3 SLP117

CYUL;2010-02-20 10:00;CYUL 201000Z 27010KT 15SM BKN150 M02/M05 A2987 RMK AC5 SLP117

CYUL;2010-02-20 11:00;CYUL 201100Z 27011KT 15SM -SN BKN045 BKN065 M01/M05 A2988 RMK SC6SC2 SLP120

CYUL;2010-02-20 12:00;CYUL 201200Z 27012G17KT 10SM -SN BKN029 OVC049 M02/M05 A2988 RMK SC6SC2 SLP122

CYUL;2010-02-20 13:00;CYUL 201300Z 26013KT 3SM -SN SCT015 OVC030 M02/M04 A2989 RMK SF3SC5 SLP124

CYUL;2010-02-20 13:40;CYUL 201340Z 26012G18KT 1 1/4SM -SN BKN011 OVC029 M02/ RMK SF4SC4

CYUL;2010-02-20 13:45;CYUL 201345Z 27012KT 3/4SM R24R/4500V6000FT/D -SN BKN008 OVC022 M02/ RMK SF5SC3

CYUL;2010-02-20 14:00;CYUL 201400Z CCA 26012KT 3/4SM R24R/4500FT/N -SN BKN008 OVC021 M02/M04 A2989 RMK SF5SC3 SLP123

CYUL;2010-02-20 14:31;CYUL 201431Z 26013KT 5/8SM R24R/3000FT/D -SN BKN004 OVC012 M02/ RMK SF6SC2

CYUL;2010-02-20 14:41;CYUL 201441Z 26012KT 5/8SM R24R/2800FT/U -SN BKN006 OVC015 M02/ RMK SF6SC2

CYUL;2010-02-20 15:00;CYUL 201500Z 26014KT 5/8SM R24R/3500FT/D -SN OVC011 M02/M04 A2988 RMK SN5SC3 /S02/ SLP121

CYUL;2010-02-20 15:10;CYUL 201510Z 27014KT 1SM R24R/4000VP6000FT/U -SN BKN010 OVC020 M02/ RMK SF6SC2

CYUL;2010-02-20 15:17;CYUL 201517Z 26015KT 8SM -SN FEW010 OVC025 M02/ RMK SF2SC6

CYUL;2010-02-20 15:38;CYUL 201538Z 25015KT 3/4SM R24R/P6000FT/D -SN OVC018 M02/ RMK SN6SC2

CYUL;2010-02-20 16:00;CYUL 201600Z 25011G16KT 1 1/4SM -SN SCT009 OVC017 M02/M04 A2987 RMK SN2SF2SC4 SLP116

CYUL;2010-02-20 16:26;CYUL 201626Z 26011KT 2 1/2SM -SN BKN009 OVC030 M02/ RMK SF6SC2

CYUL;2010-02-20 17:00;CYUL 201700Z 26014G20KT 15SM -SN OVC011 M02/M04 A2985 RMK SF8 /S03/ SLP111

CYUL;2010-02-20 17:43;CYUL 201743Z 26014G20KT 15SM BKN016 M02/ RMK SC7

CYUL;2010-02-20 18:00;CYUL 201800Z 27015KT 15SM BKN017 M01/M04 A2985 RMK SC7 SLP109

CYUL;2010-02-20 19:00;CYUL 201900Z 26016G22KT 15SM BKN022 OVC030 M00/M05 A2984 RMK SC5SC2 SLP106

CYUL;2010-02-20 20:00;CYUL 202000Z 27016KT 15SM FEW022 OVC030 00/M04 A2985 RMK CF1SC7 SLP109

CYUL;2010-02-20 21:00;CYUL 202100Z 26014KT 15SM OVC030 01/M04 A2984 RMK SC8 SLP108

CYUL;2010-02-20 22:00;CYUL 202200Z 27014G20KT 15SM OVC030 00/M04 A2985 RMK SC8 SLP110

CYUL;2010-02-20 23:00;CYUL 202300Z 29008KT 15SM BKN030 00/M05 A2985 RMK SC7 SLP112

CYUL;2010-02-21 00:00;CYUL 210000Z 27007KT 15SM BKN030 M00/M05 A2986 RMK SC7 SLP114

CYUL;2010-02-21 01:00;CYUL 210100Z 31008KT 15SM SCT030 BKN040 00/M05 A2987 RMK SC4SC3 SLP118

CYUL;2010-02-21 02:00;CYUL 210200Z 30010KT 15SM -SHSN OVC050 M01/M07 A2987 RMK SC8 SLP117

CYUL;2010-02-21 03:00;CYUL 210300Z 29012KT 15SM -SN SCT027 OVC055 M02/M06 A2987 RMK SC3SC5 SLP117

CYUL;2010-02-21 04:00;CYUL 210400Z 27011KT 15SM -SN SCT027 OVC044 M03/M06 A2987 RMK SC3SC5 SLP116

CYUL;2010-02-21 05:00;CYUL 210500Z 28012KT 15SM -SN FEW034 OVC060 M04/M07 A2986 RMK SC2SC6 SLP113

CYUL;2010-02-21 06:00;CYUL 210600Z 29014KT 10SM -SN SCT017 OVC038 M05/M07 A2986 RMK SC3SC5 /S01/ SLP114

CYUL;2010-02-21 07:00;CYUL 210700Z 28012KT 10SM -SN SCT018 OVC034 M05/M08 A2986 RMK SF3SC5 SLP114

CYUL;2010-02-21 08:00;CYUL 210800Z 28010KT 5SM -SN SCT011 OVC030 M06/M08 A2986 RMK SF3SC5 SLP115

CYUL;2010-02-21 08:34;CYUL 210834Z 28010KT 2SM -SN BKN010 OVC026 M06/ RMK SF4SC4

CYUL;2010-02-21 09:00;CYUL 210900Z 28010KT 5SM -SN SCT021 OVC050 M06/M08 A2988 RMK SC3SC5 SLP119

CYUL;2010-02-21 10:00;CYUL 211000Z 27009KT 15SM SCT057 M06/M09 A2988 RMK SC2 SLP119

CYUL;2010-02-21 11:00;CYUL 211100Z 27008KT 15SM FEW058 BKN150 M06/M09 A2990 RMK SC2AC2 SLP126

CYUL;2010-02-21 12:00;CYUL 211200Z 27010KT 15SM BKN150 BKN180 M06/M10 A2990 RMK AC3AC2 SLP128

CYUL;2010-02-21 13:00;CYUL 211300Z 27009KT 15SM SCT031 OVC038 M05/M09 A2991 RMK SC3SC5 SLP131

CYUL;2010-02-21 13:51;CYUL 211351Z 27011KT 15SM -SN BKN027 OVC050 M05/ RMK SC6SC2

CYUL;2010-02-21 14:00;CYUL 211400Z 27010KT 15SM -SN BKN029 OVC042 M05/M09 A2992 RMK SC5SC3 SLP134

CYUL;2010-02-21 14:30;CYUL 211430Z 27010KT 15SM SCT040 M05/ RMK SC2

CYUL;2010-02-21 15:00;CYUL 211500Z 27012KT 15SM FEW025 SCT100 SCT220 M04/M09 A2992 RMK CF1AC4CI1 SLP135

CYUL;2010-02-21 16:00;CYUL 211600Z 27011KT 15SM FEW025 BKN090 BKN220 M04/M08 A2993 RMK CF1AC6CI1 SLP138

CYUL;2010-02-21 17:00;CYUL 211700Z 26010KT 15SM FEW025 FEW085 FEW240 M03/M08 A2993 RMK SC2AC1CI1 SLP136

CYUL;2010-02-21 18:00;CYUL 211800Z 27013KT 15SM FEW025 FEW085 M02/M08 A2991 RMK SC1AC1 SLP132

CYUL;2010-02-21 19:00;CYUL 211900Z 27012KT 15SM FEW025 BKN045 M01/M08 A2991 RMK SC1SC4 SLP132

CYUL;2010-02-21 20:00;CYUL 212000Z 26015KT 15SM FEW040 BKN060 M01/M08 A2993 RMK SC1SC6 SLP137

CYUL;2010-02-21 21:00;CYUL 212100Z 25013G18KT 15SM BKN040 BKN050 M01/M08 A2993 RMK SC6SC1 SLP139

CYUL;2010-02-21 22:00;CYUL 212200Z 25012KT 15SM FEW040 FEW050 FEW240 M02/M08 A2995 RMK SC2SC1CI1 SLP145

CYUL;2010-02-21 23:00;CYUL 212300Z 25013KT 15SM BKN038 M02/M08 A2996 RMK SC2 SLP149

CYUL;2010-02-22 00:00;CYUL 220000Z 26010KT 15SM FEW040 M03/M08 A2998 RMK SC1 SLP154

CYUL;2010-02-22 01:00;CYUL 220100Z 26009KT 15SM FEW040 SCT075 M03/M08 A2999 RMK SC1AC2 SLP157

CYUL;2010-02-22 02:00;CYUL 220200Z 28009KT 15SM BKN034 M03/M08 A2999 RMK SC3 SLP156

CYUL;2010-02-22 03:00;CYUL 220300Z 27007KT 15SM FEW075 M04/M08 A2998 RMK AC1 SLP154

CYUL;2010-02-22 04:00;CYUL 220400Z 25007KT 15SM SCT075 M04/M09 A2997 RMK AC2 SLP151

CYUL;2010-02-22 05:00;CYUL 220500Z 26007KT 15SM FEW075 M05/M09 A2998 RMK AC1 SLP154

CYUL;2010-02-22 06:00;CYUL 220600Z 25008KT 15SM FEW075 M05/M09 A2999 RMK AC1 SLP157

CYUL;2010-02-22 07:00;CYUL 220700Z 25008KT 15SM FEW075 M06/M09 A2999 RMK AC0 SLP157

CYUL;2010-02-22 08:00;CYUL 220800Z 27006KT 15SM FEW240 M06/M09 A2999 RMK CI1 SLP157

CYUL;2010-02-22 09:00;CYUL 220900Z 21006KT 15SM FEW028 M06/M09 A2999 RMK SC2 SLP158

CYUL;2010-02-22 10:00;CYUL 221000Z 22008KT 15SM BKN028 M07/M10 A3001 RMK SC5 SLP166

CYUL;2010-02-22 11:00;CYUL 221100Z 23006KT 15SM BKN025 M07/M08 A3002 RMK SC3 SLP168

CYUL;2010-02-22 12:00;CYUL 221200Z 21006KT 15SM FEW008 OVC023 M07/M10 A3002 RMK SF1SC7 SLP169

CYUL;2010-02-22 13:00;CYUL 221300Z 23007KT 15SM BKN008 OVC018 M07/M09 A3004 RMK SF4SC4 SLP174

CYUL;2010-02-22 14:00;CYUL 221400Z 22007KT 15SM BKN008 OVC018 M06/M08 A3004 RMK SF4SC4 SLP176

CYUL;2010-02-22 14:46;CYUL 221446Z 22005KT 15SM SCT008 BKN014 M05/ RMK SF3SC4

CYUL;2010-02-22 15:00;CYUL 221500Z 24002KT 15SM BKN009 BKN013 M04/M07 A3004 RMK ST7SC1 SLP173

CYUL;2010-02-22 16:00;CYUL 221600Z 21006KT 15SM BKN010 M04/M07 A3004 RMK ST7 SLP176

CYUL;2010-02-22 17:00;CYUL 221700Z 19003KT 30SM BKN012 BKN240 M03/M07 A3003 RMK ST5CI0 SLP170

CYUL;2010-02-22 17:10;CYUL 221710Z 19002KT 30SM BKN010 BKN240 M03/ RMK SF2CI0

CYUL;2010-02-22 18:00;CYUL 221800Z 20002KT 30SM FEW012 SCT240 M02/M08 A3001 RMK SF1CI0 SLP163

CYUL;2010-02-22 19:00;CYUL 221900Z 10004KT 30SM FEW012 FEW240 M01/M07 A2999 RMK ST1CI1 SLP156

CYUL;2010-02-22 20:00;CYUL 222000Z 11007KT 30SM FEW020 BKN240 M00/M07 A2996 RMK SC1CI2 CS ASOCTD SLP147

CYUL;2010-02-22 21:00;CYUL 222100Z 10006KT 30SM BKN240 M00/M06 A2995 RMK CS2 SLP143

CYUL;2010-02-22 22:00;CYUL 222200Z 10004KT 30SM FEW220 OVC250 00/M06 A2996 RMK CI1CI2 SLP147

CYUL;2010-02-22 23:00;CYUL 222300Z 05008KT 15SM FEW220 OVC250 M00/M05 A2996 RMK CI1CI2 SLP148

CYUL;2010-02-23 00:00;CYUL 230000Z 05008KT 15SM FEW070 BKN240 M01/M06 A2996 RMK AC1CI2 SLP149

CYUL;2010-02-23 01:00;CYUL 230100Z 04009KT 15SM OVC220 M01/M06 A2995 RMK CI2 SLP144

CYUL;2010-02-23 02:00;CYUL 230200Z 02012KT 15SM SCT200 M01/M06 A2994 RMK CI1 SLP142

CYUL;2010-02-23 03:00;CYUL 230300Z 05010KT 15SM OVC220 M02/M06 A2993 RMK CI2 SLP139

CYUL;2010-02-23 04:00;CYUL 230400Z 05011KT 15SM OVC200 M01/M05 A2991 RMK CI2 SLP132

CYUL;2010-02-23 05:00;CYUL 230500Z 05010KT 15SM OVC200 M01/M05 A2990 RMK CI2 SLP127

CYUL;2010-02-23 06:00;CYUL 230600Z 04008KT 15SM BKN160 OVC200 M01/M05 A2989 RMK AS2CI2 SLP124

CYUL;2010-02-23 07:00;CYUL 230700Z 04009KT 15SM OVC120 M01/M05 A2988 RMK AS6 SLP121

CYUL;2010-02-23 08:00;CYUL 230800Z 08009KT 15SM OVC100 01/M05 A2987 RMK AS8 SLP117

CYUL;2010-02-23 09:00;CYUL 230900Z 10009KT 15SM SCT035 BKN090 OVC140 01/M05 A2987 RMK SC3AC4AC1 SLP118

CYUL;2010-02-23 09:50;CYUL 230950Z 10008KT 15SM -SN BKN044 OVC078 01/ RMK SC5AC3

CYUL;2010-02-23 10:00;CYUL 231000Z 10010KT 10SM -SN BKN040 OVC080 01/M05 A2987 RMK SC5AC3 SLP117

CYUL;2010-02-23 10:25;CYUL 231025Z 12008KT 2 1/2SM -SN VV010 00/ RMK SN8

CYUL;2010-02-23 10:40;CYUL 231040Z 12008KT 1 1/4SM -SN VV008 M00/ RMK SN8

CYUL;2010-02-23 11:00;CYUL 231100Z 12008KT 1 1/2SM -SN VV008 M00/M03 A2988 RMK SN8 SLP120

CYUL;2010-02-23 11:18;CYUL 231118Z 11009KT 2 1/2SM -SN VV012 M00/ RMK SN8

CYUL;2010-02-23 11:42;CYUL 231142Z 11009KT 1 1/4SM -SN VV009 00/ RMK SN8

CYUL;2010-02-23 12:00;CYUL 231200Z 11008KT 2SM -SN VV013 00/M02 A2988 RMK SN8 /S01/ SLP121

CYUL;2010-02-23 12:40;CYUL 231240Z 12009KT 3SM -SN BKN009 OVC014 00/ RMK SN2SF5SF2

CYUL;2010-02-23 13:00;CYUL 231300Z 12010KT 2 1/2SM -SN OVC008 00/M01 A2989 RMK SN2SF6 SLP124

CYUL;2010-02-23 13:45;CYUL 231345Z 10009KT 1SM R06L/4500VP6000FT/D -SN OVC006 00/ RMK SN2SF6

CYUL;2010-02-23 14:00;CYUL 231400Z 11009KT 1SM R06L/4000VP6000FT/N -SN BKN005 OVC010 00/M01 A2989 RMK SF6SF2 /S01/ SLP124

CYUL;2010-02-23 14:14;CYUL 231414Z 11010KT 1 1/2SM -SN SCT004 OVC008 01/ RMK SF3SF5

CYUL;2010-02-23 14:28;CYUL 231428Z 11009KT 3SM -SN SCT004 OVC007 01/ RMK SF3SF5

CYUL;2010-02-23 15:00;CYUL 231500Z 12012KT 2 1/2SM -SN SCT005 OVC009 01/M01 A2989 RMK SF3SF5 SLP123

CYUL;2010-02-23 15:21;CYUL 231521Z 12011KT 2 1/2SM -SN SCT006 OVC010 01/ RMK SF3SF5

CYUL;2010-02-23 15:37;CYUL 231537Z 12009KT 3SM -SN SCT007 OVC012 01/ RMK SF3SF5

CYUL;2010-02-23 16:00;CYUL 231600Z 13009KT 6SM -SN FEW009 BKN014 OVC050 01/M01 A2989 RMK SF2SF6SC1 /S01/ SLP123

CYUL;2010-02-23 16:26;CYUL 231626Z 12011KT 12SM FEW009 BKN013 OVC050 01/ RMK SF2SF5SC2

CYUL;2010-02-23 16:52;CYUL 231652Z 13009KT 12SM -RA FEW009 FEW013 OVC035 01/ RMK SF2SF1SC6

CYUL;2010-02-23 17:00;CYUL 231700Z 12008KT 15SM -RA FEW009 OVC035 01/M01 A2989 RMK SF2SC6 SLP125

CYUL;2010-02-23 18:00;CYUL 231800Z 12008KT 12SM -RA FEW010 BKN030 OVC055 02/M00 A2989 RMK SF2SC4SC1 SLP123

CYUL;2010-02-23 18:56;CYUL 231856Z 12009KT 12SM FEW010 OVC045 02/ RMK SF2SC6

CYUL;2010-02-23 19:00;CYUL 231900Z CCA 11010KT 12SM FEW010 OVC045 02/M00 A2989 RMK SF2SC6 SLP124

CYUL;2010-02-23 19:18;CYUL 231918Z 11010KT 12SM -RA FEW012 OVC030 02/ RMK SF2SC6 -RA INTMT

CYUL;2010-02-23 20:00;CYUL 232000Z 11008KT 12SM -RA FEW012 BKN035 OVC050 02/M00 A2990 RMK SF2SC5SC2 SLP126

CYUL;2010-02-23 20:26;CYUL 232026Z 12008KT 10SM -RA BKN013 OVC040 02/ RMK SF5SC3

CYUL;2010-02-23 21:00;CYUL 232100Z 13007KT 10SM -RA SCT013 OVC020 02/M00 A2991 RMK SF3SC5 SLP131

CYUL;2010-02-23 21:53;CYUL 232153Z 13010KT 10SM -RA SCT006 OVC020 01/ RMK SF3SC5

CYUL;2010-02-23 22:00;CYUL 232200Z 13010KT 10SM -RA BKN009 OVC035 01/M01 A2992 RMK SF6SC2 SLP134

CYUL;2010-02-23 22:25;CYUL 232225Z 13010KT 12SM -RA SCT009 OVC055 01/ RMK SF3SC5

CYUL;2010-02-23 23:00;CYUL 232300Z 12009KT 12SM -RASN BKN006 OVC040 01/M01 A2993 RMK SF5SC3 SLP136

CYUL;2010-02-24 00:00;CYUL 240000Z 12010KT 10SM -RASN BKN008 OVC028 01/M01 A2993 RMK SF6SC2 SLP138

CYUL;2010-02-24 00:25;CYUL 240025Z 12010KT 12SM -RA SCT008 OVC030 01/ RMK SF4SC4

CYUL;2010-02-24 00:51;CYUL 240051Z 12011KT 12SM SCT008 OVC030 01/ RMK SF3SC5

CYUL;2010-02-24 01:00;CYUL 240100Z 12009KT 15SM SCT009 OVC032 01/M01 A2993 RMK SF3SC5 SLP138

CYUL;2010-02-24 01:56;CYUL 240156Z 13010KT 15SM -SN SCT008 OVC035 01/ RMK SF3SC5

CYUL;2010-02-24 02:00;CYUL 240200Z 12010KT 15SM -SN SCT009 OVC030 01/M01 A2993 RMK SF3SC5 SLP139

CYUL;2010-02-24 02:29;CYUL 240229Z 13010KT 3SM -SN SCT006 OVC014 01/ RMK SF3SC5

CYUL;2010-02-24 02:37;CYUL 240237Z 13009KT 3SM -SN BKN007 OVC014 01/ RMK SF5SC3

CYUL;2010-02-24 03:00;CYUL 240300Z 12010KT 8SM -SN BKN008 OVC030 01/M01 A2994 RMK SF5SC3 SLP140

CYUL;2010-02-24 04:00;CYUL 240400Z 12009KT 6SM -SN BKN006 OVC012 01/M01 A2994 RMK SF6SF2 SLP141

CYUL;2010-02-24 05:00;CYUL 240500Z 12009KT 5SM -SN BKN006 OVC010 01/M01 A2994 RMK SF7SF1 SLP140

CYUL;2010-02-24 06:00;CYUL 240600Z 12009KT 4SM -SN SCT004 BKN008 OVC020 00/M01 A2995 RMK SF3SF3SC2 /S01/ SLP143

CYUL;2010-02-24 06:27;CYUL 240627Z 12008KT 5SM -SN FEW005 SCT010 OVC030 01/ RMK SF2SF2SC4

CYUL;2010-02-24 06:43;CYUL 240643Z 12008KT 3SM -SN FEW004 BKN009 OVC020 01/ RMK SF2SF4SC2

CYUL;2010-02-24 07:00;CYUL 240700Z 11007KT 3SM -SN OVC007 00/M01 A2995 RMK SF8 SLP145

CYUL;2010-02-24 07:07;CYUL 240707Z 11007KT 1 3/4SM -SN OVC006 00/ RMK SF8

CYUL;2010-02-24 07:17;CYUL 240717Z 10005KT 1 1/4SM -SN OVC005 00/ RMK SN3SF5

CYUL;2010-02-24 07:39;CYUL 240739Z 09005KT 2SM -SN FEW003 OVC006 01/ RMK SF2SF6

CYUL;2010-02-24 08:00;CYUL 240800Z 09007KT 2 1/2SM -SN OVC005 01/M01 A2995 RMK SN2SF6 SLP144

CYUL;2010-02-24 08:29;CYUL 240829Z 09006KT 3SM -SN OVC005 01/ RMK SF8

CYUL;2010-02-24 09:00;CYUL 240900Z 09007KT 3SM -SN BKN005 OVC008 01/M01 A2996 RMK SF6SF2 SLP146

CYUL;2010-02-24 10:00;CYUL 241000Z 09008KT 2SM -SN BKN005 OVC009 01/M01 A2996 RMK SF6SF2 SLP147

CYUL;2010-02-24 11:00;CYUL 241100Z 08008KT 3SM -SN BKN005 OVC009 00/M01 A2996 RMK SF6SF2 /S01/ SLP147

CYUL;2010-02-24 11:38;CYUL 241138Z 09008KT 2SM -SN OVC005 01/ RMK SF8

CYUL;2010-02-24 12:00;CYUL 241200Z 08008KT 3SM -SN OVC006 01/M01 A2996 RMK SF8 /S02/ SLP147

CYUL;2010-02-24 13:00;CYUL 241300Z 08009KT 4SM -SN BKN006 OVC010 01/M01 A2996 RMK SF6SF2 SLP149

CYUL;2010-02-24 14:00;CYUL 241400Z 08010KT 4SM -SN BKN008 OVC010 01/M01 A2997 RMK SF6SF2 SLP150

CYUL;2010-02-24 15:00;CYUL 241500Z 08009KT 4SM -SN BKN009 OVC015 01/M01 A2998 RMK SF6SC2 SLP153

CYUL;2010-02-24 15:25;CYUL 241525Z 09010KT 2 1/2SM -SN BKN007 OVC012 01/ RMK SF6SC2

CYUL;2010-02-24 16:00;CYUL 241600Z 08008KT 1 1/4SM -SN OVC006 01/M01 A2998 RMK SN2SF6 /S01/ SLP154

CYUL;2010-02-24 16:05;CYUL 241605Z 09006KT 1SM R06L/4000FT/U -SN OVC005 01/ RMK SN3SF5

CYUL;2010-02-24 16:22;CYUL 241622Z 07007KT 3/4SM R06L/3500FT/D -SN OVC004 00/ RMK SN3SF5

CYUL;2010-02-24 17:00;CYUL 241700Z 07008KT 3/4SM R06L/5000FT/N -SN OVC006 01/M01 A2996 RMK SN2SF6 /S03/ SLP149

CYUL;2010-02-24 17:40;CYUL 241740Z 06006KT 5/8SM R06L/3500FT/D -SN OVC005 01/ RMK SN2SF6

CYUL;2010-02-24 18:00;CYUL 241800Z 04007KT 3/4SM R06L/3500FT/U -SN BKN004 OVC011 01/M01 A2994 RMK SF6SF2 /S04/ SLP142

CYUL;2010-02-24 18:28;CYUL 241828Z 04006KT 3/4SM R06L/3500FT/U -SN BKN006 OVC013 01/ RMK SF6SF2

CYUL;2010-02-24 18:40;CYUL 241840Z 04007KT 1SM R06L/4000V6000FT/U -SN BKN007 OVC013 01/ RMK SF6SF2

CYUL;2010-02-24 19:00;CYUL 241900Z 04005KT 1SM R06L/6000FT/N -SN OVC008 01/M01 A2993 RMK SF8 SLP136

CYUL;2010-02-24 19:17;CYUL 241917Z 03006KT 1 1/4SM -SN OVC010 01/ RMK SF8

CYUL;2010-02-24 19:27;CYUL 241927Z 04006KT 1 1/4SM -SN OVC008 01/ RMK SF8

CYUL;2010-02-24 20:00;CYUL 242000Z CCA 05006KT 1 1/4SM R06L/5500FT/U -SN OVC006 01/M01 A2992 RMK SN2SF6 /S01/ SLP134

CYUL;2010-02-24 20:15;CYUL 242015Z 05007KT 1SM R06L/5500FT/D -SN FEW002 OVC008 01/ RMK SF2SF6

CYUL;2010-02-24 21:00;CYUL 242100Z 04008KT 3/4SM R06L/4000FT/N -SN OVC005 00/M01 A2992 RMK SN2SF6 /S02/ SLP133

CYUL;2010-02-24 21:44;CYUL 242144Z 04008KT 1SM R06L/5000FT/U -SN OVC009 00/ RMK SF8

CYUL;2010-02-24 21:47;CYUL 242147Z 04007KT 1 1/4SM R06L/4500V6000FT/U -SN OVC009 00/ RMK SF8

CYUL;2010-02-24 22:00;CYUL 242200Z 05009KT 2SM -SN FEW005 OVC009 01/M01 A2991 RMK SF2SF6 /S03/ SLP131

CYUL;2010-02-24 23:00;CYUL 242300Z 05010KT 2 1/4SM -SN BKN008 OVC019 01/M01 A2991 RMK SF6SF2 /S04/ SLP129

CYUL;2010-02-24 23:34;CYUL 242334Z 05010KT 3SM -SN SCT005 OVC010 01/ RMK SF4SF4

CYUL;2010-02-25 00:00;CYUL 250000Z 05010KT 3SM -SN SCT007 OVC011 01/M01 A2990 RMK SF3SF5 /S05/ SLP126

CYUL;2010-02-25 01:00;CYUL 250100Z 05011KT 4SM -SN FEW005 OVC011 01/M01 A2988 RMK SF2SF6 SLP121

CYUL;2010-02-25 01:20;CYUL 250120Z 05011KT 4SM -SN BKN007 OVC011 01/ RMK SF5SF3

CYUL;2010-02-25 02:00;CYUL 250200Z CCA 06011KT 4SM -SN BKN006 OVC012 01/M01 A2987 RMK SF6SF2 SLP118

CYUL;2010-02-25 03:00;CYUL 250300Z 05012KT 4SM -SN BKN007 OVC014 01/M01 A2986 RMK SF6SF2 /S01/ SLP113

CYUL;2010-02-25 04:00;CYUL 250400Z 06013KT 3SM -SN BKN007 OVC015 01/M01 A2984 RMK SN2SF6SF1 SLP107

CYUL;2010-02-25 05:00;CYUL 250500Z 05013KT 3SM -SN OVC007 01/M01 A2982 RMK SN2SF6 /S02/ SLP101

CYUL;2010-02-25 05:45;CYUL 250545Z 04015G20KT 6SM -SN SCT007 OVC020 01/ RMK SF4SC4

CYUL;2010-02-25 06:00;CYUL 250600Z 05017KT 8SM -SN BKN008 OVC020 01/M01 A2980 RMK SF5SC3 SLP095

CYUL;2010-02-25 06:35;CYUL 250635Z 05016KT 8SM -SN SCT007 OVC025 01/ RMK SF3SC5

CYUL;2010-02-25 07:00;CYUL 250700Z 04016KT 8SM -SN SCT007 OVC025 01/M01 A2978 RMK SF3SC5 SLP088

CYUL;2010-02-25 08:00;CYUL 250800Z 05017G22KT 8SM -SN SCT007 OVC025 01/M01 A2977 RMK SF3SC5 SLP082

CYUL;2010-02-25 08:29;CYUL 250829Z 05017KT 6SM -SN BKN008 OVC020 01/ RMK SF6SC2

CYUL;2010-02-25 09:00;CYUL 250900Z 05017KT 6SM -SN BKN008 OVC012 01/M01 A2975 RMK SF6SF2 SLP078

CYUL;2010-02-25 10:00;CYUL 251000Z 05016G21KT 6SM -SN BKN007 OVC025 01/M01 A2974 RMK SF6SC2 SLP073

CYUL;2010-02-25 10:51;CYUL 251051Z 05016KT 2SM -SN OVC008 01/ RMK SN2SF6

CYUL;2010-02-25 11:00;CYUL 251100Z 05016KT 2 1/2SM -SN OVC008 01/M01 A2974 RMK SN2SF6 SLP074

CYUL;2010-02-25 11:08;CYUL 251108Z 05015KT 4SM -SN BKN007 OVC020 01/ RMK SF5SC3

CYUL;2010-02-25 12:00;CYUL 251200Z 05015G21KT 8SM -SN BKN006 OVC025 01/M01 A2972 RMK SF6SC2 /S01/ SLP068

CYUL;2010-02-25 13:00;CYUL 251300Z 04017KT 10SM -SN BKN007 OVC025 02/M00 A2972 RMK SF6SC2 VRY LGT SN SLP068

CYUL;2010-02-25 14:00;CYUL 251400Z 05017KT 12SM -SN FEW004 BKN008 OVC030 02/M00 A2972 RMK SF1SF4SC3 SLP065

CYUL;2010-02-25 14:15;CYUL 251415Z 05017KT 12SM SCT007 OVC030 02/ RMK SF3SC5

CYUL;2010-02-25 15:00;CYUL 251500Z 05020KT 15SM FEW007 BKN040 OVC085 02/M01 A2970 RMK SF2SC6AC1 SLP060

CYUL;2010-02-25 16:00;CYUL 251600Z 05016G21KT 15SM FEW008 SCT040 OVC070 02/M01 A2969 RMK SF1SC2AC5 SLP056

CYUL;2010-02-25 17:00;CYUL 251700Z 05020G25KT 15SM FEW009 OVC045 02/M01 A2967 RMK SF1SC7 SLP050

CYUL;2010-02-25 17:22;CYUL 251722Z 05018G25KT 15SM -SN BKN008 OVC035 02/ RMK SF5SC3

CYUL;2010-02-25 18:00;CYUL 251800Z 05019KT 4SM -SN BKN007 OVC025 02/M01 A2965 RMK SF6SC2 SLP042

CYUL;2010-02-25 19:00;CYUL 251900Z 05021G28KT 6SM -SN BKN008 OVC020 01/M01 A2962 RMK SF6SC2 SLP031

CYUL;2010-02-25 19:49;CYUL 251949Z 04024G31KT 10SM BKN010 OVC055 01/ RMK SF5SC3

CYUL;2010-02-25 20:00;CYUL 252000Z 04022G30KT 15SM SCT010 BKN040 OVC055 01/M01 A2961 RMK SF3SC3SC2 SLP030

CYUL;2010-02-25 20:21;CYUL 252021Z 04025KT 10SM -SN BKN010 OVC020 01/ RMK SF5SC3 -SN INTMT

CYUL;2010-02-25 20:42;CYUL 252042Z 04023G32KT 2 1/2SM -SN BKN008 OVC020 01/ RMK SF6SC2

CYUL;2010-02-25 21:00;CYUL 252100Z 05021G33KT 1 1/2SM -SN OVC008 01/M01 A2961 RMK SF8 SLP028

CYUL;2010-02-25 21:29;CYUL 252129Z 04021G29KT 1 1/4SM -SN OVC008 01/ RMK SN2SF6

CYUL;2010-02-25 21:46;CYUL 252146Z 04023G28KT 1 3/4SM -SN OVC008 01/ RMK SN2SF6

CYUL;2010-02-25 22:00;CYUL 252200Z 04020G26KT 1 1/2SM -SN BKN005 OVC012 01/M01 A2959 RMK SF6SF2 /S01/ SLP020

CYUL;2010-02-25 23:00;CYUL 252300Z 04022G27KT 1 1/4SM -SN OVC007 00/M01 A2957 RMK SF8 /S02/ SLP016

CYUL;2010-02-25 23:25;CYUL 252325Z 04021G28KT 1 3/4SM -SN BKN008 OVC015 01/ RMK SF6SF2

CYUL;2010-02-26 00:15;CYUL 260015Z 04023G29KT 3SM -SN SCT008 BKN015 OVC030 01/ RMK SF3SF3SC2

CYUL;2010-02-26 00:35;CYUL 260035Z CCA 04021G29KT 8SM -SN BKN014 OVC030 01/ RMK SF6SC2

CYUL;2010-02-26 01:00;CYUL 260100Z CCA 04025G30KT 10SM -SN BKN011 OVC030 01/M01 A2953 RMK SF6SC2 SLP000

CYUL;2010-02-26 01:43;CYUL 260143Z 04023G31KT 15SM BKN012 OVC030 01/ RMK SF5SC3

CYUL;2010-02-26 02:00;CYUL 260200Z 04022G34KT 15SM BKN014 OVC030 01/M01 A2951 RMK SF6SC2 SLP993

CYUL;2010-02-26 02:03;CYUL 260203Z 04025G36KT 15SM -SN BKN014 OVC030 01/ RMK SF6SC2 -SN INTMT

CYUL;2010-02-26 02:21;CYUL 260221Z 04025G33KT 15SM SCT013 BKN030 OVC090 01/ RMK SF3SC3AC2

CYUL;2010-02-26 03:00;CYUL 260300Z 04023G33KT 15SM BKN012 OVC110 02/M04 A2948 RMK SF7AC1 SLP985

CYUL;2010-02-26 03:23;CYUL 260323Z 04032KT 15SM SCT012 OVC120 02/ RMK SF4AS4

CYUL;2010-02-26 03:33;CYUL 260333Z 04019G35KT 15SM BKN012 OVC120 02/ RMK SF7AS1

CYUL;2010-02-26 04:00;CYUL 260400Z 04027G33KT 15SM BKN012 OVC110 02/00 A2944 RMK SF6AS2 SLP971

CYUL;2010-02-26 04:45;CYUL 260445Z 04027G34KT 15SM SCT014 BKN045 OVC150 02/ RMK SF3SC4AS1

CYUL;2010-02-26 05:00;CYUL 260500Z 04028G37KT 15SM FEW014 OVC040 02/M01 A2940 RMK SF2SC6 SLP959

CYUL;2010-02-26 06:00;CYUL 260600Z 03034G42KT 15SM SCT015 OVC040 02/M02 A2935 RMK SF3SC5 SLP942

CYUL;2010-02-26 07:00;CYUL 260700Z 05036KT 15SM FEW017 SCT035 OVC100 01/M03 A2930 RMK SF2SC1AC5 SLP924

CYUL;2010-02-26 08:00;CYUL 260800Z 04032G45KT 15SM FEW020 SCT040 OVC120 01/M03 A2931 RMK SF2SC2AC4 SLP926

CYUL;2010-02-26 08:43;CYUL 260843Z 04031G38KT 5SM -SHSN BKN020 OVC080 01/ RMK SC5AC3

CYUL;2010-02-26 09:00;CYUL 260900Z 04028G37KT 12SM -SN FEW020 BKN033 OVC060 01/M03 A2931 RMK SF2SC6SC1 SLP928

CYUL;2010-02-26 10:00;CYUL 261000Z 04031G37KT 12SM -SN OVC020 01/M04 A2933 RMK SC8 SLP935

CYUL;2010-02-26 11:00;CYUL 261100Z 04031G40KT 15SM -SN FEW020 OVC050 01/M03 A2933 RMK SF2SC6 SLP935

CYUL;2010-02-26 12:00;CYUL 261200Z 05033G40KT 15SM -SN FEW017 FEW030 OVC050 01/M03 A2937 RMK SF2SC1SC6 SLP949

CYUL;2010-02-26 13:00;CYUL 261300Z 04032G38KT 12SM -SN FEW017 OVC045 01/M03 A2940 RMK SF1SC7 SLP958

CYUL;2010-02-26 13:45;CYUL 261345Z 04027G33KT 15SM FEW017 BKN050 01/ RMK SF2SC6

CYUL;2010-02-26 14:00;CYUL 261400Z 04030G35KT 15SM FEW017 OVC045 01/M03 A2943 RMK SF1SC7 SLP969

CYUL;2010-02-26 15:00;CYUL 261500Z 04026G31KT 15SM FEW018 BKN047 01/M03 A2946 RMK SF1SC6 SLP977

CYUL;2010-02-26 15:48;CYUL 261548Z 04026G33KT 15SM -SN FEW017 SCT036 BKN053 02/ RMK SF1SC2SC4

CYUL;2010-02-26 16:00;CYUL 261600Z 04028G36KT 15SM FEW018 SCT040 BKN065 02/M02 A2948 RMK SF1SC3SC3 SLP985

CYUL;2010-02-26 17:00;CYUL 261700Z 05026G34KT 15SM FEW025 SCT062 03/M02 A2951 RMK SC1SC1 SLP993

CYUL;2010-02-26 18:00;CYUL 261800Z 05028G33KT 15SM FEW040 BKN065 03/M02 A2952 RMK SC1SC2 SLP997

CYUL;2010-02-26 19:00;CYUL 261900Z 05020G32KT 15SM SCT047 BKN068 03/M02 A2954 RMK SC2AC2 SLP004

CYUL;2010-02-26 20:00;CYUL 262000Z 05023G32KT 30SM FEW070 SCT240 04/M02 A2955 RMK AC1CI1 SLP009

CYUL;2010-02-26 21:00;CYUL 262100Z 05023G31KT 30SM FEW080 FEW240 04/M02 A2956 RMK AC1CI1 SLP010

CYUL;2010-02-26 22:00;CYUL 262200Z 04024G30KT 15SM BKN140 BKN240 03/M02 A2957 RMK AC5CI0 SLP014

CYUL;2010-02-26 23:00;CYUL 262300Z 04020G25KT 15SM FEW024 SCT130 BKN160 02/M02 A2958 RMK SC1AC2AC2 SLP017

CYUL;2010-02-27 00:00;CYUL 270000Z 05018G24KT 15SM FEW040 BKN140 02/M02 A2958 RMK SC1AC5 SLP017

CYUL;2010-02-27 01:00;CYUL 270100Z 04017G25KT 15SM FEW016 BKN100 02/M02 A2957 RMK SF1AC5 SLP014

CYUL;2010-02-27 01:54;CYUL 270154Z 04018G27KT 8SM -SN BKN012 OVC048 01/ RMK SF4SC4

CYUL;2010-02-27 02:00;CYUL 270200Z 04017G22KT 5SM -SN BKN010 OVC027 01/M02 A2957 RMK SF4SC4 SLP014

CYUL;2010-02-27 02:43;CYUL 270243Z 04016KT 4SM -SN FEW008 BKN014 OVC023 01/ RMK SF2SC4SC2

CYUL;2010-02-27 03:00;CYUL 270300Z 03014KT 2 1/2SM -SN OVC007 01/M01 A2956 RMK SF8 SLP010

CYUL;2010-02-27 04:00;CYUL 270400Z 04017KT 7SM -SN BKN010 OVC018 01/M01 A2952 RMK SF6SC2 SLP997

CYUL;2010-02-27 05:00;CYUL 270500Z 04018KT 5SM -SN OVC010 01/M02 A2951 RMK SF8 SLP994

CYUL;2010-02-27 06:00;CYUL 270600Z 05020G25KT 10SM -SN BKN013 OVC030 01/M02 A2949 RMK SF6SC2 SLP988

CYUL;2010-02-27 07:00;CYUL 270700Z 04016KT 6SM -SN BKN010 OVC035 01/M02 A2946 RMK SF6SC2 SLP979

CYUL;2010-02-27 08:00;CYUL 270800Z 05019G24KT 4SM -SN OVC009 01/M02 A2944 RMK SF8 SLP972

CYUL;2010-02-27 09:00;CYUL 270900Z 04017G24KT 2SM -SN OVC008 01/M01 A2944 RMK SF8 SLP970

CYUL;2010-02-27 10:00;CYUL 271000Z 04019KT 8SM -SN OVC010 01/M01 A2943 RMK SF8 SLP968

CYUL;2010-02-27 11:00;CYUL 271100Z 04019G25KT 12SM -SN BKN011 OVC017 01/M01 A2945 RMK SF6SF2 SLP974

CYUL;2010-02-27 11:35;CYUL 271135Z 05015G21KT 15SM SCT013 OVC065 01/ RMK SF4SC4

CYUL;2010-02-27 12:00;CYUL 271200Z 05016KT 15SM BKN015 BKN045 BKN065 02/M01 A2946 RMK SF6SC2SC1 SLP979

CYUL;2010-02-27 13:00;CYUL 271300Z 05017KT 15SM FEW012 FEW070 BKN160 02/M02 A2948 RMK SF1AC1AC6 SLP985

CYUL;2010-02-27 14:00;CYUL 271400Z 04014KT 15SM FEW015 BKN085 BKN150 02/M01 A2949 RMK SF1AC6AC1 SLP987

CYUL;2010-02-27 15:00;CYUL 271500Z 05016KT 15SM FEW032 SCT048 BKN075 OVC140 02/M01 A2951 RMK SC2SC2AC3AC1 SLP993

CYUL;2010-02-27 16:00;CYUL 271600Z 05012KT 15SM FEW036 FEW058 BKN100 03/M01 A2952 RMK SC1SC2AC5 SLP998

CYUL;2010-02-27 17:00;CYUL 271700Z 05012G18KT 15SM -RA FEW028 BKN047 OVC110 05/M00 A2953 RMK SC2SC5AC2 SLP000

CYUL;2010-02-27 17:43;CYUL 271743Z 06020KT 10SM -RA SCT013 OVC023 03/ RMK SF3SC5

CYUL;2010-02-27 17:53;CYUL 271753Z 05014G21KT 7SM -RA BKN010 OVC022 03/ RMK SF6SC2

CYUL;2010-02-27 18:00;CYUL 271800Z 06013G20KT 4SM -RA BR BKN010 OVC018 03/M00 A2954 RMK SF6SC2 SLP005

CYUL;2010-02-27 18:08;CYUL 271808Z 08010G16KT 8SM -RA OVC017 03/ RMK SF8

CYUL;2010-02-27 18:16;CYUL 271816Z 07007KT 8SM -RA SCT013 OVC018 03/ RMK SF3ST5

CYUL;2010-02-27 18:46;CYUL 271846Z 05016KT 15SM SCT030 BKN075 OVC100 04/ RMK SC2AC4AC2

CYUL;2010-02-27 19:00;CYUL 271900Z 04014KT 15SM FEW015 SCT075 OVC100 03/M00 A2954 RMK SF1AC3AC3 SLP005

CYUL;2010-02-27 20:00;CYUL 272000Z 05016KT 15SM SCT062 OVC090 04/00 A2955 RMK SC3AC4 SLP009

CYUL;2010-02-27 20:19;CYUL 272019Z 05008KT 15SM -RA SCT030 BKN057 OVC090 03/ RMK SC3SC3AC2

CYUL;2010-02-27 20:29;CYUL 272029Z 05008KT 15SM -RA SCT014 BKN035 OVC058 03/ RMK SF3SC3SC2

CYUL;2010-02-27 21:00;CYUL 272100Z 04010KT 15SM FEW017 SCT036 OVC057 03/M01 A2957 RMK SF1SC2SC5 SLP014

CYUL;2010-02-27 21:38;CYUL 272138Z 05016KT 15SM -RA SCT022 OVC039 03/ RMK SC3SC5

CYUL;2010-02-27 22:00;CYUL 272200Z 05015KT 12SM -RA BKN020 OVC040 03/M00 A2958 RMK SC6SC2 SLP019

CYUL;2010-02-27 23:00;CYUL 272300Z 06011KT 15SM -RA BKN034 OVC051 02/M01 A2961 RMK SC6SC2 SLP027

CYUL;2010-02-28 00:00;CYUL 280000Z 06009KT 15SM -RA FEW019 BKN028 OVC038 02/M01 A2963 RMK SF1SC6SC2 SLP036

CYUL;2010-02-28 01:00;CYUL 280100Z 05010KT 15SM -RA SCT018 OVC040 01/M01 A2965 RMK SF3SC5 SLP041

CYUL;2010-02-28 02:00;CYUL 280200Z 05011KT 15SM -RA SCT032 OVC072 01/M01 A2965 RMK SC3AC5 SLP043

CYUL;2010-02-28 02:39;CYUL 280239Z 06010KT 15SM SCT037 BKN120 01/ RMK SC2AC2

CYUL;2010-02-28 03:00;CYUL 280300Z 06011KT 15SM FEW015 FEW045 OVC130 01/M01 A2966 RMK SF1SC2AC3 SLP044

CYUL;2010-02-28 04:00;CYUL 280400Z 05010KT 15SM FEW015 OVC180 01/M01 A2965 RMK SF1AC6 SLP043

CYUL;2010-02-28 05:00;CYUL 280500Z 05010KT 15SM SCT007 BKN170 01/M01 A2965 RMK SF2AC2 SLP043

CYUL;2010-02-28 05:18;CYUL 280518Z 05011KT 15SM BKN007 BKN170 01/ RMK SF5AC1

CYUL;2010-02-28 05:41;CYUL 280541Z 05010KT 15SM SCT007 OVC170 01/ RMK SF2AC5

CYUL;2010-02-28 06:00;CYUL 280600Z 05009KT 15SM SCT005 BKN170 01/M01 A2966 RMK SF2AC4 SLP046

CYUL;2010-02-28 07:00;CYUL 280700Z 05007KT 15SM FEW006 FEW020 BKN160 01/M02 A2967 RMK SF1SC1AC3 SLP047

CYUL;2010-02-28 08:00;CYUL 280800Z 03009KT 12SM SCT005 BKN200 00/M02 A2966 RMK SF2CI1 CC ASOCTD SLP045

CYUL;2010-02-28 08:16;CYUL 280816Z 04010KT 12SM BKN006 BKN020 01/ RMK SF5SC1

CYUL;2010-02-28 09:00;CYUL 280900Z 05008KT 12SM OVC006 01/M02 A2966 RMK ST8 SLP045

CYUL;2010-02-28 10:00;CYUL 281000Z 02007KT 12SM BKN004 OVC018 00/M01 A2966 RMK ST7SC1 SLP046

CYUL;2010-02-28 11:00;CYUL 281100Z 02006KT 12SM OVC004 00/M01 A2967 RMK ST8 SLP048

CYUL;2010-02-28 12:00;CYUL 281200Z 03007KT 10SM OVC005 01/M01 A2968 RMK ST8 SLP052

CYUL;2010-02-28 13:00;CYUL 281300Z 02007KT 10SM OVC007 01/M01 A2969 RMK ST8 SLP054

CYUL;2010-02-28 14:00;CYUL 281400Z 02008KT 10SM OVC007 01/M01 A2969 RMK ST8 SLP057

CYUL;2010-02-28 14:34;CYUL 281434Z 03008KT 10SM -DZ OVC008 01/ RMK ST8

CYUL;2010-02-28 15:00;CYUL 281500Z 02009KT 10SM -DZ SCT008 OVC013 01/M01 A2971 RMK SF2ST6 SLP061

CYUL;2010-02-28 16:00;CYUL 281600Z 02008KT 8SM -SN FEW009 OVC016 01/M01 A2971 RMK SF2ST6 SLP063

CYUL;2010-02-28 16:37;CYUL 281637Z 02009KT 7SM -SN BKN008 OVC014 01/ RMK SF6ST2

CYUL;2010-02-28 16:50;CYUL 281650Z 02008KT 7SM -SN SCT007 OVC014 01/ RMK SF3ST5

CYUL;2010-02-28 17:00;CYUL 281700Z 02008KT 8SM -SN SCT008 OVC019 01/M01 A2971 RMK SF2ST6 SLP063

CYUL;2010-02-28 18:00;CYUL 281800Z 02009KT 12SM -SN SCT011 BKN022 OVC043 02/M01 A2970 RMK SF3SC2SC2 SLP058

CYUL;2010-02-28 18:38;CYUL 281838Z 02008KT 12SM -SN BKN012 OVC022 02/ RMK SF6SC2

CYUL;2010-02-28 19:00;CYUL 281900Z 02009KT 12SM -DZ BKN009 OVC014 02/M01 A2969 RMK SF6SC2 SLP056

CYUL;2010-02-28 19:36;CYUL 281936Z 03007KT 15SM SCT011 OVC015 02/ RMK SF4ST4

CYUL;2010-02-28 20:00;CYUL 282000Z 02007KT 15SM SCT013 BKN019 OVC062 02/M01 A2969 RMK SF2ST5SC1 SLP055

CYUL;2010-02-28 21:00;CYUL 282100Z 01010KT 15SM SCT015 OVC055 02/M01 A2969 RMK SF4SC3 SLP056

CYUL;2010-02-28 21:25;CYUL 282125Z 02008KT 15SM FEW018 BKN055 02/ RMK SF2SC4

CYUL;2010-02-28 22:00;CYUL 282200Z 02008KT 15SM FEW020 SCT057 02/M01 A2970 RMK SC1SC2 SLP058

CYUL;2010-02-28 23:00;CYUL 282300Z 01007KT 15SM OVC060 02/M02 A2971 RMK SC7 SLP063

CYUL;2010-03-01 01:00;CYUL 010100Z 01007KT 15SM FEW058 OVC074 02/M02 A2973 RMK SC2AC6 SLP070

CYUL;2010-03-01 02:00;CYUL 010200Z 33007KT 15SM SCT025 BKN050 BKN070 01/M02 A2973 RMK SC3SC2AC2 SLP071

CYUL;2010-03-01 03:00;CYUL 010300Z 34007KT 15SM BKN030 OVC070 02/M01 A2973 RMK SC6AC2 SLP070

CYUL;2010-03-01 04:00;CYUL 010400Z 31006KT 15SM FEW040 BKN070 01/M02 A2972 RMK SC1AC6 SLP068

CYUL;2010-03-01 05:00;CYUL 010500Z 32005KT 15SM BKN020 OVC070 01/M01 A2972 RMK SC6AC2 SLP068

CYUL;2010-03-01 06:00;CYUL 010600Z 33006KT 15SM BKN030 01/M01 A2973 RMK SC7 SLP070

CYUL;2010-03-01 07:00;CYUL 010700Z 34007KT 15SM BKN035 OVC065 01/M01 A2973 RMK SC6SC2 SLP069

CYUL;2010-03-01 08:00;CYUL 010800Z 34007KT 15SM FEW040 BKN055 02/M02 A2972 RMK SC1SC6 SLP067

CYUL;2010-03-01 09:00;CYUL 010900Z 34008KT 15SM BKN060 OVC095 02/M02 A2972 RMK SC6AC2 SLP067

CYUL;2010-03-01 10:00;CYUL 011000Z 34005KT 15SM OVC045 02/M02 A2974 RMK SC8 SLP071

CYUL;2010-03-01 11:00;CYUL 011100Z 32006KT 15SM -SN OVC037 02/M02 A2975 RMK SC8 SLP074

CYUL;2010-03-01 12:00;CYUL 011200Z 34005KT 15SM -RASN OVC035 02/M02 A2977 RMK SC8 SLP082

CYUL;2010-03-01 13:00;CYUL 011300Z 34006KT 15SM -SN FEW050 OVC065 02/M02 A2978 RMK SC1SC7 SLP086

CYUL;2010-03-01 13:38;CYUL 011338Z 33005KT 15SM FEW018 FEW040 FEW070 OVC095 03/ RMK SF1SC1AC1AC6

CYUL;2010-03-01 14:00;CYUL 011400Z 35005KT 15SM FEW020 FEW075 OVC090 03/M01 A2979 RMK SF1AC1AC6 SLP089

CYUL;2010-03-01 15:00;CYUL 011500Z 36012KT 15SM BKN028 OVC090 04/M02 A2980 RMK SC5AC2 SLP095

CYUL;2010-03-01 16:00;CYUL 011600Z 03013KT 15SM BKN029 OVC080 04/M02 A2982 RMK SC7AC1 SLP100

CYUL;2010-03-01 17:00;CYUL 011700Z 02009KT 15SM OVC030 04/M02 A2982 RMK SC7 SLP101

CYUL;2010-03-01 18:00;CYUL 011800Z 04007KT 15SM BKN035 05/M02 A2982 RMK SC7 SLP101

CYUL;2010-03-01 19:00;CYUL 011900Z 36007KT 15SM BKN035 OVC210 06/M02 A2981 RMK SC7CI1 SLP098

CYUL;2010-03-01 20:00;CYUL 012000Z 36008KT 15SM OVC035 06/M01 A2983 RMK SC7 SLP104

CYUL;2010-03-01 21:00;CYUL 012100Z 01008KT 15SM OVC040 06/M02 A2985 RMK SC8 SLP109

CYUL;2010-03-01 22:00;CYUL 012200Z 29002KT 15SM OVC040 05/M02 A2987 RMK SC8 SLP115

CYUL;2010-03-01 23:00;CYUL 012300Z 32004KT 15SM OVC042 04/M01 A2989 RMK SC8 SLP122

CYUL;2010-03-02 00:00;CYUL 020000Z 36009KT 15SM BKN045 05/M03 A2991 RMK SC7 SLP129

CYUL;2010-03-02 01:00;CYUL 020100Z 34006KT 15SM BKN050 04/M02 A2991 RMK SC6 SLP131

CYUL;2010-03-02 02:00;CYUL 020200Z 33007KT 15SM BKN052 03/M02 A2991 RMK SC7 SLP131

CYUL;2010-03-02 03:00;CYUL 020300Z 31006KT 15SM BKN060 BKN170 03/M02 A2991 RMK SC5AC1 SLP130

CYUL;2010-03-02 04:00;CYUL 020400Z 30006KT 15SM BKN060 02/M02 A2991 RMK SC5 SLP132

CYUL;2010-03-02 05:00;CYUL 020500Z 32005KT 15SM FEW060 OVC220 02/M03 A2992 RMK SC1CS4 SLP133

CYUL;2010-03-02 06:00;CYUL 020600Z 32005KT 15SM OVC220 01/M03 A2992 RMK CS5 SLP134

CYUL;2010-03-02 07:00;CYUL 020700Z 36002KT 15SM OVC220 01/M04 A2993 RMK CS6 SLP137

CYUL;2010-03-02 08:00;CYUL 020800Z 01002KT 15SM BKN200 00/M04 A2993 RMK CS2 SLP137

CYUL;2010-03-02 09:00;CYUL 020900Z 01008KT 15SM BKN240 00/M05 A2993 RMK CS2 SLP138

CYUL;2010-03-02 10:00;CYUL 021000Z 02007KT 15SM OVC210 M00/M05 A2995 RMK CS3 SLP143

CYUL;2010-03-02 11:00;CYUL 021100Z 02006KT 15SM BKN220 M01/M06 A2995 RMK CI2 SLP145

CYUL;2010-03-02 12:00;CYUL 021200Z 03006KT 15SM BKN220 M01/M05 A2997 RMK CI4 SLP150

CYUL;2010-03-02 13:00;CYUL 021300Z CCA 04006KT 30SM BKN200 00/M06 A2998 RMK CS4 SLP155

CYUL;2010-03-02 14:00;CYUL 021400Z 03008G22KT 30SM FEW050 OVC220 01/M06 A2999 RMK SC1CS4 SLP157

CYUL;2010-03-02 15:00;CYUL 021500Z 03006KT 30SM FEW050 BKN220 OVC250 02/M06 A3000 RMK SC1CS3CI1 SLP162

CYUL;2010-03-02 16:00;CYUL 021600Z 02005KT 30SM BKN200 BKN250 02/M06 A3000 RMK CS2CI2 SLP161

CYUL;2010-03-02 17:00;CYUL 021700Z 05002KT 30SM BKN200 BKN240 03/M04 A2998 RMK CS2CI1 SLP154

CYUL;2010-03-02 18:00;CYUL 021800Z 01002KT 15SM FEW030 SCT200 BKN240 04/M05 A2996 RMK CU1CS1CI2 SLP148

CYUL;2010-03-02 19:00;CYUL 021900Z 01003KT 15SM FEW030 BKN240 05/M04 A2995 RMK CU1CI3 SLP143

CYUL;2010-03-02 20:00;CYUL 022000Z 05004KT 15SM FEW030 BKN220 05/M06 A2994 RMK CU1CI3 SLP142

CYUL;2010-03-02 21:00;CYUL 022100Z 00000KT 15SM BKN240 05/M05 A2993 RMK CI3 SLP139

CYUL;2010-03-02 22:00;CYUL 022200Z 21004KT 15SM BKN240 04/M05 A2994 RMK CI2 SLP141

CYUL;2010-03-02 23:00;CYUL 022300Z 20002KT 15SM FEW200 BKN240 03/M05 A2994 RMK CI1CI2 SLP141

CYUL;2010-03-03 00:00;CYUL 030000Z 00000KT 15SM BKN240 02/M05 A2994 RMK CI2 SLP141

CYUL;2010-03-03 01:00;CYUL 030100Z 01003KT 15SM BKN210 01/M05 A2994 RMK CI2 SLP140

CYUL;2010-03-03 02:00;CYUL 030200Z 01004KT 15SM SCT210 01/M05 A2994 RMK CI1 SLP140

CYUL;2010-03-03 03:00;CYUL 030300Z 01002KT 15SM FEW170 M01/M06 A2992 RMK AC1 SLP135

CYUL;2010-03-03 04:00;CYUL 030400Z 03005KT 15SM FEW160 M01/M06 A2991 RMK AC1 SLP130

CYUL;2010-03-03 05:00;CYUL 030500Z 03008KT 15SM FEW240 M01/M06 A2989 RMK CI0 SLP125

CYUL;2010-03-03 06:00;CYUL 030600Z 02008KT 15SM SCT240 M02/M06 A2990 RMK CI2 SLP127

CYUL;2010-03-03 07:00;CYUL 030700Z 02011KT 15SM SCT240 M03/M06 A2991 RMK CI2 SLP129

CYUL;2010-03-03 08:00;CYUL 030800Z 02011KT 15SM BKN240 M03/M06 A2989 RMK CI2 SLP123

CYUL;2010-03-03 09:00;CYUL 030900Z 03011KT 15SM BKN240 M02/M07 A2988 RMK CI2 SLP122

CYUL;2010-03-03 10:00;CYUL 031000Z 03009KT 15SM SCT170 OVC240 M02/M09 A2989 RMK AC3CI1 SLP123

CYUL;2010-03-03 11:00;CYUL 031100Z 03011KT 15SM SCT170 OVC220 M03/M10 A2988 RMK AC2CI1 SLP119

CYUL;2010-03-03 12:00;CYUL 031200Z 03012KT 15SM FEW170 BKN220 M03/M09 A2989 RMK AC1CI2 SLP124

CYUL;2010-03-03 13:00;CYUL 031300Z 03013KT 15SM FEW170 BKN220 M03/M09 A2988 RMK AC1CI2 SLP120

CYUL;2010-03-03 14:00;CYUL 031400Z 03014KT 15SM FEW170 BKN220 M02/M08 A2986 RMK AC1CI3 SLP115

CYUL;2010-03-03 15:00;CYUL 031500Z 05016KT 15SM FEW150 BKN220 M01/M07 A2985 RMK AC1CI2 SLP112

CYUL;2010-03-03 16:00;CYUL 031600Z 02016KT 15SM FEW160 BKN220 00/M06 A2985 RMK AC1CI2 SLP109

CYUL;2010-03-03 17:00;CYUL 031700Z 02014KT 15SM FEW150 BKN240 01/M06 A2983 RMK AC1CI2 SLP103

CYUL;2010-03-03 18:00;CYUL 031800Z 04016KT 15SM FEW150 BKN240 01/M06 A2981 RMK AC1CI3 VIA CYQB FIC SLP097

CYUL;2010-03-03 19:00;CYUL 031900Z 02013G18KT 15SM FEW160 BKN240 02/M06 A2980 RMK AC1CI2 SLP095

CYUL;2010-03-03 20:00;CYUL 032000Z 02013KT 15SM FEW035 FEW150 BKN240 02/M06 A2980 RMK CU1AC1CI2 SLP092

CYUL;2010-03-03 21:00;CYUL 032100Z 02014KT 15SM FEW035 FEW150 BKN240 03/M06 A2979 RMK CU1AC2CI1 SLP091

CYUL;2010-03-03 22:00;CYUL 032200Z 02012KT 15SM FEW040 SCT160 BKN240 02/M07 A2979 RMK SC1AC3CI1 SLP091

CYUL;2010-03-03 23:00;CYUL 032300Z 01008KT 15SM BKN170 BKN240 02/M06 A2980 RMK AC3CI1 SLP094

CYUL;2010-03-04 00:00;CYUL 040000Z 01007KT 15SM BKN170 BKN240 01/M06 A2980 RMK AC3CI1 SLP094

CYUL;2010-03-04 01:00;CYUL 040100Z 36006KT 15SM SCT170 BKN220 01/M06 A2981 RMK AC2CI1 SLP096

CYUL;2010-03-04 02:00;CYUL 040200Z 02005KT 15SM FEW170 BKN210 M00/M06 A2981 RMK AC2CI1 SLP096

CYUL;2010-03-04 03:00;CYUL 040300Z 03008KT 15SM BKN200 M01/M06 A2981 RMK CC4 SLP097

CYUL;2010-03-04 04:00;CYUL 040400Z 03008KT 15SM FEW170 SCT200 M01/M06 A2981 RMK AC1CI2 SLP097

CYUL;2010-03-04 05:00;CYUL 040500Z 03006KT 15SM FEW170 M02/M07 A2980 RMK AC1 SLP095

CYUL;2010-03-04 06:00;CYUL 040600Z 36005KT 15SM FEW150 FEW200 M02/M07 A2980 RMK AC1CI1 SLP092

CYUL;2010-03-04 07:00;CYUL 040700Z 02008KT 15SM FEW150 FEW220 M02/M08 A2980 RMK AC1CI0 SLP092

CYUL;2010-03-04 08:00;CYUL 040800Z 01004KT 15SM FEW200 M03/M09 A2979 RMK CC1 SLP091

CYUL;2010-03-04 09:00;CYUL 040900Z 01005KT 15SM FEW180 FEW210 M03/M09 A2980 RMK AC1CI0 SLP094

CYUL;2010-03-04 10:00;CYUL 041000Z 01005KT 15SM FEW210 M03/M10 A2982 RMK CI0 SLP099

CYUL;2010-03-04 11:00;CYUL 041100Z 36006KT 15SM FEW220 M03/M10 A2983 RMK CI1 SLP105

CYUL;2010-03-04 12:00;CYUL 041200Z 01006KT 30SM FEW220 M03/M10 A2986 RMK CI1 SLP113

CYUL;2010-03-04 13:00;CYUL 041300Z 03010KT 30SM FEW220 M01/M10 A2987 RMK CI0 SLP118

CYUL;2010-03-04 14:00;CYUL 041400Z 04013KT 30SM FEW220 M00/M10 A2988 RMK CI1 SLP121

CYUL;2010-03-04 15:00;CYUL 041500Z 04017G24KT 30SM FEW030 SCT220 01/M10 A2989 RMK CU1CI1 SLP124

CYUL;2010-03-04 16:00;CYUL 041600Z 03016KT 30SM FEW040 FEW220 01/M08 A2989 RMK CU1CI0 SLP125

CYUL;2010-03-04 17:00;CYUL 041700Z 02016KT 30SM FEW040 SCT220 02/M09 A2989 RMK CU1CI1 SLP125

CYUL;2010-03-04 18:00;CYUL 041800Z 03016KT 30SM FEW040 SCT220 03/M09 A2989 RMK CU1CI1 SLP124

CYUL;2010-03-04 19:00;CYUL 041900Z 03011G21KT 30SM FEW040 SCT220 04/M09 A2989 RMK CU1CI1 SLP124

CYUL;2010-03-04 20:00;CYUL 042000Z 05010G15KT 30SM FEW220 04/M09 A2989 RMK CI1 SLP124

CYUL;2010-03-04 21:00;CYUL 042100Z 03010KT 30SM FEW200 FEW240 05/M09 A2990 RMK CI1CI0 SLP127

CYUL;2010-03-04 22:00;CYUL 042200Z 03007KT 30SM FEW180 SCT220 05/M08 A2992 RMK AC1CI1 SLP134

CYUL;2010-03-04 23:00;CYUL 042300Z 01004KT 30SM FEW180 SCT220 03/M08 A2994 RMK AC1CI1 SLP141

CYUL;2010-03-05 00:00;CYUL 050000Z 01007KT 15SM SCT220 02/M08 A2996 RMK CI1 SLP148

CYUL;2010-03-05 01:00;CYUL 050100Z 02010KT 15SM FEW240 02/M08 A2998 RMK CI1 SLP155

CYUL;2010-03-05 02:00;CYUL 050200Z 03014KT 15SM SKC 02/M09 A3000 RMK SLP162

CYUL;2010-03-05 03:00;CYUL 050300Z 03012KT 15SM SKC 01/M09 A3002 RMK SLP169

CYUL;2010-03-05 04:00;CYUL 050400Z 03008KT 15SM SKC M00/M09 A3003 RMK SLP172

CYUL;2010-03-05 05:00;CYUL 050500Z 04007KT 15SM FEW240 M00/M09 A3004 RMK CI0 SLP176

CYUL;2010-03-05 06:00;CYUL 050600Z 02006KT 15SM FEW240 M02/M09 A3007 RMK CI0 SLP183

CYUL;2010-03-05 07:00;CYUL 050700Z 02005KT 15SM FEW240 M03/M09 A3008 RMK CI0 SLP187

CYUL;2010-03-05 08:00;CYUL 050800Z 04007KT 15SM FEW240 M03/M09 A3009 RMK CI0 SLP190

CYUL;2010-03-05 09:00;CYUL 050900Z 36005KT 15SM SKC M03/M08 A3009 RMK SLP193

CYUL;2010-03-05 10:00;CYUL 051000Z 36006KT 15SM FEW240 M04/M08 A3011 RMK CI0 SLP199

CYUL;2010-03-05 11:00;CYUL 051100Z 01007KT 15SM FEW015 FEW240 M04/M08 A3014 RMK SF1CI0 SLP207

CYUL;2010-03-05 12:00;CYUL 051200Z 02008KT 30SM FEW240 M04/M09 A3016 RMK CI0 SLP215

CYUL;2010-03-05 13:00;CYUL 051300Z 02010KT 30SM FEW240 M03/M11 A3018 RMK CI0 SLP221

CYUL;2010-03-05 14:00;CYUL 051400Z 03012KT 30SM FEW240 M03/M12 A3019 RMK CI0 SLP225

CYUL;2010-03-05 15:00;CYUL 051500Z 04007KT 30SM FEW240 M02/M12 A3020 RMK CI1 SLP230

CYUL;2010-03-05 16:00;CYUL 051600Z 02008KT 30SM FEW240 M01/M11 A3021 RMK CI1 SLP232

CYUL;2010-03-05 17:00;CYUL 051700Z 01009KT 30SM FEW240 00/M10 A3021 RMK CI1 SLP231

CYUL;2010-03-05 18:00;CYUL 051800Z 35009KT 30SM FEW240 01/M12 A3020 RMK CI1 SLP227

CYUL;2010-03-05 19:00;CYUL 051900Z 04005KT 30SM FEW240 02/M13 A3019 RMK CI1 CONTRAILS SLP225

CYUL;2010-03-05 20:00;CYUL 052000Z 04008KT 30SM FEW240 03/M15 A3019 RMK CI1 SLP224

CYUL;2010-03-05 21:00;CYUL 052100Z 04004KT 30SM FEW240 04/M17 A3018 RMK CI1 SLP221

CYUL;2010-03-05 22:00;CYUL 052200Z 22004KT 30SM FEW240 03/M13 A3019 RMK CI1 SLP225

CYUL;2010-03-05 23:00;CYUL 052300Z 24006KT 15SM FEW240 02/M12 A3020 RMK CI1 SLP227

CYUL;2010-03-06 00:00;CYUL 060000Z 27004KT 15SM FEW240 M00/M10 A3020 RMK CI1 SLP230

CYUL;2010-03-06 01:00;CYUL 060100Z 28003KT 15SM SKC M01/M10 A3020 RMK SLP231

CYUL;2010-03-06 02:00;CYUL 060200Z 25003KT 15SM SKC M01/M10 A3020 RMK SLP231

CYUL;2010-03-06 03:00;CYUL 060300Z 23003KT 15SM SKC M01/M11 A3020 RMK SLP229

CYUL;2010-03-06 04:00;CYUL 060400Z 23002KT 15SM SKC M02/M09 A3020 RMK SLP229

CYUL;2010-03-06 05:00;CYUL 060500Z 00000KT 15SM SKC M02/M08 A3020 RMK SLP229

CYUL;2010-03-06 06:00;CYUL 060600Z 00000KT 15SM SKC M03/M10 A3021 RMK SLP231

CYUL;2010-03-06 07:00;CYUL 060700Z 25002KT 15SM SKC M04/M10 A3020 RMK SLP230

CYUL;2010-03-06 08:00;CYUL 060800Z 22003KT 15SM SKC M05/M09 A3020 RMK SLP227

CYUL;2010-03-06 09:00;CYUL 060900Z 21004KT 15SM FEW220 M04/M09 A3019 RMK CI1 SLP225

CYUL;2010-03-06 10:00;CYUL 061000Z 22004KT 15SM SKC M04/M09 A3019 RMK SLP226

CYUL;2010-03-06 11:00;CYUL 061100Z 24006KT 15SM SKC M04/M10 A3019 RMK SLP226

CYUL;2010-03-06 12:00;CYUL 061200Z 24006KT 30SM FEW220 M04/M10 A3019 RMK CI1 SLP227

CYUL;2010-03-06 13:00;CYUL 061300Z 24006KT 30SM FEW240 M02/M09 A3019 RMK CI1 SLP227

CYUL;2010-03-06 14:00;CYUL 061400Z 21005KT 30SM FEW240 M00/M08 A3019 RMK CI1 SLP227

CYUL;2010-03-06 15:00;CYUL 061500Z 22009KT 30SM FEW240 01/M08 A3018 RMK CI1 SLP221

CYUL;2010-03-06 16:00;CYUL 061600Z 21010KT 30SM FEW240 02/M07 A3015 RMK CI1 SLP213

CYUL;2010-03-06 17:00;CYUL 061700Z 21013KT 30SM FEW240 03/M07 A3013 RMK CI1 SLP205

CYUL;2010-03-06 18:00;CYUL 061800Z 22011KT 30SM FEW240 05/M07 A3009 RMK CI1 SLP193

CYUL;2010-03-06 19:00;CYUL 061900Z 24015KT 30SM FEW240 07/M07 A3007 RMK CI1 SLP185

CYUL;2010-03-06 20:00;CYUL 062000Z 25015KT 30SM FEW240 07/M08 A3004 RMK CI1 SLP176

CYUL;2010-03-06 21:00;CYUL 062100Z 25015KT 30SM FEW240 07/M08 A3004 RMK CI1 SLP174

CYUL;2010-03-06 22:00;CYUL 062200Z 25015KT 30SM BKN240 06/M09 A3003 RMK CI2 SLP171

CYUL;2010-03-06 23:00;CYUL 062300Z 25008KT 15SM FEW240 05/M08 A3003 RMK CI1 SLP171

CYUL;2010-03-07 00:00;CYUL 070000Z 27005KT 15SM FEW240 04/M08 A3003 RMK CI1 SLP172

CYUL;2010-03-07 01:00;CYUL 070100Z 26010KT 15SM SKC 04/M09 A3002 RMK SLP169

CYUL;2010-03-07 02:00;CYUL 070200Z 25013KT 15SM SKC 03/M08 A3001 RMK SLP165

CYUL;2010-03-07 03:00;CYUL 070300Z 25010KT 15SM SKC 02/M07 A3001 RMK SLP163

CYUL;2010-03-07 04:00;CYUL 070400Z 24010G15KT 15SM SKC 01/M06 A3000 RMK SLP160

CYUL;2010-03-07 05:00;CYUL 070500Z 25008KT 15SM SKC 00/M05 A3000 RMK SLP160

CYUL;2010-03-07 06:00;CYUL 070600Z 24008KT 15SM SKC 00/M05 A2999 RMK SLP159

CYUL;2010-03-07 07:00;CYUL 070700Z 24007KT 15SM FEW220 00/M05 A2998 RMK CI1 SLP155

CYUL;2010-03-07 08:00;CYUL 070800Z 25008KT 15SM SKC M00/M05 A2997 RMK SLP152

CYUL;2010-03-07 09:00;CYUL 070900Z 24004KT 15SM SKC M01/M06 A2997 RMK SLP150

CYUL;2010-03-07 10:00;CYUL 071000Z 25008KT 15SM SKC M01/M06 A2997 RMK SLP151

CYUL;2010-03-07 11:00;CYUL 071100Z 23008KT 15SM FEW220 M01/M06 A2996 RMK CI1 SLP149

CYUL;2010-03-07 12:00;CYUL 071200Z 25011KT 30SM FEW120 FEW220 M00/M05 A2997 RMK AC1CI1 SLP150

CYUL;2010-03-07 13:00;CYUL 071300Z 24014KT 30SM SCT048 SCT220 01/M04 A2997 RMK SC2CI0 SLP151

CYUL;2010-03-07 14:00;CYUL 071400Z 26015KT 30SM SKC 02/M04 A2995 RMK SLP145

CYUL;2010-03-07 15:00;CYUL 071500Z 25015KT 30SM SKC 03/M03 A2993 RMK SLP138

CYUL;2010-03-07 16:00;CYUL 071600Z 24016KT 30SM FEW190 04/M03 A2991 RMK AC1 SLP132

CYUL;2010-03-07 17:00;CYUL 071700Z 23017G22KT 30SM FEW090 FEW150 05/M03 A2988 RMK AC0AC1 SLP122

CYUL;2010-03-07 18:00;CYUL 071800Z 25018KT 30SM SKC 07/M02 A2985 RMK SLP110

CYUL;2010-03-07 19:00;CYUL 071900Z 23016G22KT 30SM SKC 07/M02 A2983 RMK SLP103

CYUL;2010-03-07 20:00;CYUL 072000Z 26015KT 30SM FEW240 08/M01 A2982 RMK CI1 SLP100

CYUL;2010-03-07 21:00;CYUL 072100Z 25016KT 30SM SKC 08/M01 A2981 RMK SLP095

CYUL;2010-03-07 22:00;CYUL 072200Z 24014KT 15SM FEW180 SCT240 08/M02 A2980 RMK AC1CI1 SLP093

CYUL;2010-03-07 23:00;CYUL 072300Z 25016KT 15SM SCT240 07/M02 A2980 RMK CI1 SLP091

CYUL;2010-03-08 00:00;CYUL 080000Z 24013G18KT 15SM FEW240 06/M02 A2980 RMK CI1 SLP093

CYUL;2010-03-08 01:00;CYUL 080100Z 25014KT 15SM SKC 05/M02 A2980 RMK SLP092

CYUL;2010-03-08 02:00;CYUL 080200Z 25010G17KT 15SM SCT240 04/M02 A2980 RMK CI1 SLP094

CYUL;2010-03-08 03:00;CYUL 080300Z 25011KT 15SM SKC 04/M03 A2981 RMK SLP095

CYUL;2010-03-08 04:00;CYUL 080400Z 26013G18KT 15SM FEW240 03/M03 A2980 RMK CI1 SLP092

CYUL;2010-03-08 05:00;CYUL 080500Z 26014KT 15SM FEW150 03/M03 A2980 RMK AC2 SLP091

CYUL;2010-03-08 06:00;CYUL 080600Z 25016KT 15SM SCT065 BKN140 OVC220 03/M03 A2980 RMK SC3AC2CI2 SLP091

CYUL;2010-03-08 07:00;CYUL 080700Z 25013KT 15SM FEW065 OVC200 02/M04 A2979 RMK SC1CS3 SLP089

CYUL;2010-03-08 08:00;CYUL 080800Z 25010KT 15SM FEW200 02/M04 A2978 RMK CI1 SLP087

CYUL;2010-03-08 09:00;CYUL 080900Z 25011KT 15SM SCT130 02/M04 A2979 RMK AC2 SLP088

CYUL;2010-03-08 10:00;CYUL 081000Z 26010KT 15SM BKN130 02/M03 A2979 RMK AC6 SLP090

CYUL;2010-03-08 11:00;CYUL 081100Z 25014KT 15SM SCT130 BKN240 02/M03 A2980 RMK AC2CI2 SLP092

CYUL;2010-03-08 12:00;CYUL 081200Z 26013KT 15SM SCT060 SCT130 SCT240 02/M03 A2981 RMK SC3AC1CI1 SLP095

CYUL;2010-03-08 13:00;CYUL 081300Z 25015KT 15SM FEW060 BKN130 03/M03 A2980 RMK SC1AC3 SLP094

CYUL;2010-03-08 14:00;CYUL 081400Z 26013KT 15SM FEW025 FEW140 04/M03 A2981 RMK SC1AC1 SLP096

CYUL;2010-03-08 15:00;CYUL 081500Z 25013KT 15SM FEW035 SCT120 SCT240 05/M02 A2979 RMK SC1AC2CI1 SLP090

CYUL;2010-03-08 16:00;CYUL 081600Z 25012KT 30SM FEW130 06/M02 A2977 RMK AC1 SLP084

CYUL;2010-03-08 17:00;CYUL 081700Z 27013G18KT 30SM FEW040 FEW240 08/M02 A2976 RMK SC1CI1 SLP078

CYUL;2010-03-08 18:00;CYUL 081800Z 28017G24KT 30SM FEW050 09/M04 A2972 RMK SC1 SLP067

CYUL;2010-03-08 19:00;CYUL 081900Z 28015G21KT 30SM FEW050 10/M06 A2972 RMK CF1 SLP064

CYUL;2010-03-08 20:00;CYUL 082000Z 29016KT 30SM FEW050 10/M06 A2971 RMK SC1 SLP061

CYUL;2010-03-08 21:00;CYUL 082100Z 32012KT 30SM FEW055 10/M06 A2971 RMK SC1 SLP062

CYUL;2010-03-08 22:00;CYUL 082200Z 31007KT 30SM FEW050 09/M06 A2972 RMK SC1 SLP067

CYUL;2010-03-08 23:00;CYUL 082300Z 32007KT 15SM FEW050 06/M08 A2975 RMK SC1 SLP075

CYUL;2010-03-09 00:00;CYUL 090000Z 33009KT 15SM SKC 05/M08 A2977 RMK SLP084

CYUL;2010-03-09 01:00;CYUL 090100Z 32008KT 15SM SKC 05/M10 A2979 RMK SLP089

CYUL;2010-03-09 02:00;CYUL 090200Z 31009KT 15SM SKC 05/M10 A2980 RMK SLP094

CYUL;2010-03-09 03:00;CYUL 090300Z 31009KT 15SM SKC 04/M09 A2981 RMK SLP097

CYUL;2010-03-09 04:00;CYUL 090400Z 31006KT 15SM SKC 02/M10 A2983 RMK SLP102

CYUL;2010-03-09 05:00;CYUL 090500Z 32014KT 15SM SKC 02/M10 A2983 RMK SLP102

CYUL;2010-03-09 06:00;CYUL 090600Z 32007KT 15SM SKC 01/M11 A2985 RMK SLP108

CYUL;2010-03-09 07:00;CYUL 090700Z 34007KT 15SM SKC 00/M11 A2985 RMK SLP111

CYUL;2010-03-09 08:00;CYUL 090800Z 32003KT 15SM SKC M03/M10 A2986 RMK SLP114

CYUL;2010-03-09 09:00;CYUL 090900Z 33004KT 15SM SKC M02/M10 A2988 RMK SLP120

CYUL;2010-03-09 10:00;CYUL 091000Z 31006KT 15SM FEW180 SCT230 M02/M10 A2991 RMK AC0CI0 SLP131

CYUL;2010-03-09 11:00;CYUL 091100Z 34005KT 15SM BKN200 M01/M10 A2993 RMK CI2 CS ASOCT SLP138

CYUL;2010-03-09 12:00;CYUL 091200Z 32003KT 30SM BKN220 M01/M09 A2996 RMK CS3 SLP148

CYUL;2010-03-09 13:00;CYUL 091300Z 32004KT 30SM BKN180 M00/M10 A2998 RMK AS3 SLP155

CYUL;2010-03-09 14:00;CYUL 091400Z 01005KT 30SM BKN180 BKN210 M00/M09 A2999 RMK AS3CI0 SLP157

CYUL;2010-03-09 15:00;CYUL 091500Z 04004KT 30SM FEW030 BKN220 M00/M09 A3000 RMK CU1CI3 SLP161

CYUL;2010-03-09 16:00;CYUL 091600Z 36002KT 30SM FEW035 SCT220 01/M08 A3000 RMK CU1CI1 SLP161

CYUL;2010-03-09 17:00;CYUL 091700Z 35004KT 30SM FEW040 FEW240 02/M09 A3000 RMK CU1CI0 SLP160

CYUL;2010-03-09 18:00;CYUL 091800Z 27004KT 30SM FEW035 FEW240 03/M09 A2999 RMK CU1CI0 SLP156

CYUL;2010-03-09 19:00;CYUL 091900Z 20009KT 30SM FEW040 FEW240 03/M08 A2998 RMK CU1CI0 SLP153

CYUL;2010-03-09 20:00;CYUL 092000Z 21008KT 30SM FEW040 04/M09 A2997 RMK CU1 SLP151

CYUL;2010-03-09 21:00;CYUL 092100Z 20007KT 30SM FEW240 04/M08 A2997 RMK CI0 SLP151

CYUL;2010-03-09 22:00;CYUL 092200Z 20006KT 30SM FEW210 04/M09 A2998 RMK CI1 SLP153

CYUL;2010-03-09 23:00;CYUL 092300Z 23002KT 30SM FEW120 FEW240 04/M10 A2999 RMK AC1CI0 SLP156

CYUL;2010-03-10 00:00;CYUL 100000Z 26004KT 15SM SKC 00/M08 A2999 RMK SLP159

CYUL;2010-03-10 01:00;CYUL 100100Z 30002KT 15SM SKC M00/M09 A3000 RMK SLP160

CYUL;2010-03-10 02:00;CYUL 100200Z 34004KT 15SM SKC 01/M11 A3000 RMK SLP162

CYUL;2010-03-10 03:00;CYUL 100300Z 35004KT 15SM SKC M01/M10 A3001 RMK SLP163

CYUL;2010-03-10 04:00;CYUL 100400Z 36005KT 15SM SKC M01/M08 A3002 RMK SLP168

CYUL;2010-03-10 05:00;CYUL 100500Z 35004KT 15SM SKC M03/M08 A3002 RMK SLP168

CYUL;2010-03-10 06:00;CYUL 100600Z 02002KT 15SM SKC M02/M07 A3002 RMK SLP169

CYUL;2010-03-10 07:00;CYUL 100700Z 33003KT 15SM SKC M06/M09 A3004 RMK SLP174

CYUL;2010-03-10 08:00;CYUL 100800Z 36002KT 15SM SKC M03/M08 A3004 RMK SLP174

CYUL;2010-03-10 09:00;CYUL 100900Z 36002KT 15SM SKC M04/M08 A3005 RMK SLP177

CYUL;2010-03-10 10:00;CYUL 101000Z 03006KT 15SM SKC M04/M08 A3005 RMK SLP177

CYUL;2010-03-10 11:00;CYUL 101100Z 02006KT 15SM SKC M04/M09 A3006 RMK SLP181

CYUL;2010-03-10 12:00;CYUL 101200Z 03005KT 30SM SKC M04/M09 A3007 RMK FROIN SLP186

CYUL;2010-03-10 13:00;CYUL 101300Z 04005KT 30SM SKC M02/M08 A3008 RMK SLP189

CYUL;2010-03-10 14:00;CYUL 101400Z 04004KT 30SM SKC 01/M08 A3009 RMK SLP192

CYUL;2010-03-10 15:00;CYUL 101500Z 07004KT 30SM SKC 02/M09 A3009 RMK SLP193

CYUL;2010-03-10 16:00;CYUL 101600Z 17003KT 30SM SKC 03/M08 A3009 RMK SLP190

CYUL;2010-03-10 17:00;CYUL 101700Z 18004KT 30SM SKC 04/M08 A3008 RMK SLP188

CYUL;2010-03-10 18:00;CYUL 101800Z 21006KT 30SM SKC 05/M08 A3007 RMK SLP185

CYUL;2010-03-10 19:00;CYUL 101900Z 21003KT 30SM FEW240 05/M09 A3006 RMK CI1 SLP181

CYUL;2010-03-10 20:00;CYUL 102000Z 16003KT 30SM FEW240 07/M10 A3004 RMK CI0 SLP176

CYUL;2010-03-10 21:00;CYUL 102100Z 22003KT 30SM SCT240 07/M10 A3004 RMK CI1 SLP175

CYUL;2010-03-10 22:00;CYUL 102200Z 20005KT 30SM SCT240 05/M11 A3005 RMK CI0 SLP177

CYUL;2010-03-10 23:00;CYUL 102300Z 00000KT 30SM SCT240 04/M10 A3005 RMK CI1 SLP177

CYUL;2010-03-11 00:00;CYUL 110000Z 25002KT 15SM SCT240 02/M10 A3007 RMK CI0 SLP184

CYUL;2010-03-11 01:00;CYUL 110100Z 14003KT 15SM SCT240 02/M10 A3007 RMK CI1 SLP186

CYUL;2010-03-11 02:00;CYUL 110200Z 14003KT 15SM SCT240 02/M09 A3009 RMK CI1 SLP192

CYUL;2010-03-11 03:00;CYUL 110300Z 11003KT 15SM BKN240 03/M07 A3009 RMK CI1 SLP191

CYUL;2010-03-11 04:00;CYUL 110400Z 08002KT 15SM BKN240 01/M07 A3009 RMK CI1 SLP190

CYUL;2010-03-11 05:00;CYUL 110500Z 07004KT 15SM BKN240 03/M08 A3009 RMK CI1 SLP191

CYUL;2010-03-11 06:00;CYUL 110600Z 03005KT 15SM BKN240 02/M08 A3010 RMK CI0 SLP194

CYUL;2010-03-11 07:00;CYUL 110700Z 03004KT 15SM BKN230 M01/M07 A3010 RMK CI2 SLP196

CYUL;2010-03-11 08:00;CYUL 110800Z 36002KT 15SM BKN220 M01/M07 A3011 RMK CS5 SLP198

CYUL;2010-03-11 09:00;CYUL 110900Z 03007KT 15SM BKN210 M01/M06 A3010 RMK CS5 SLP196

CYUL;2010-03-11 10:00;CYUL 111000Z 03009KT 15SM OVC200 M02/M07 A3011 RMK CS6 SLP199

CYUL;2010-03-11 11:00;CYUL 111100Z 04010KT 15SM BKN200 M02/M07 A3012 RMK CI2 SLP200

CYUL;2010-03-11 12:00;CYUL 111200Z 03010KT 30SM SCT210 M01/M07 A3012 RMK CI0 SLP202

CYUL;2010-03-11 13:00;CYUL 111300Z 03011KT 30SM SCT210 00/M07 A3012 RMK CI0 SLP203

CYUL;2010-03-11 14:00;CYUL 111400Z 03010KT 30SM FEW210 03/M06 A3013 RMK CI0 SLP204

CYUL;2010-03-11 15:00;CYUL 111500Z 03010KT 30SM SCT240 05/M06 A3014 RMK CI1 SLP207

CYUL;2010-03-11 16:00;CYUL 111600Z 04011KT 15SM FEW170 SCT240 06/M07 A3014 RMK AC1CI0 SLP208

CYUL;2010-03-11 17:00;CYUL 111700Z 06015KT 15SM FEW160 SCT240 07/M09 A3013 RMK AC1CI1 SLP205

CYUL;2010-03-11 18:00;CYUL 111800Z 05015KT 15SM FEW160 FEW240 08/M08 A3012 RMK AC1CI0 SLP202

CYUL;2010-03-11 19:00;CYUL 111900Z 04013KT 15SM FEW150 FEW210 07/M07 A3012 RMK AC1CI0 SLP202

CYUL;2010-03-11 20:00;CYUL 112000Z 05013KT 15SM FEW150 SCT210 07/M07 A3011 RMK AC1CI1 SLP198

CYUL;2010-03-11 21:00;CYUL 112100Z 05011KT 15SM FEW150 SCT210 08/M07 A3012 RMK AC1CI1 SLP200

CYUL;2010-03-11 22:00;CYUL 112200Z 04013KT 15SM FEW120 SCT210 07/M08 A3011 RMK AC1CI1 SLP199

CYUL;2010-03-11 23:00;CYUL 112300Z 04011KT 15SM FEW090 FEW210 06/M08 A3012 RMK AC1CI0 SLP202

CYUL;2010-03-12 00:00;CYUL 120000Z 05010KT 15SM FEW090 FEW210 06/M09 A3013 RMK AC1CI0 SLP204

CYUL;2010-03-12 01:00;CYUL 120100Z 06008KT 15SM FEW100 FEW240 06/M09 A3014 RMK AC1CI0 SLP208

CYUL;2010-03-12 02:00;CYUL 120200Z 05011KT 15SM SKC 05/M08 A3014 RMK SLP209

CYUL;2010-03-12 03:00;CYUL 120300Z 05012KT 15SM SKC 05/M09 A3013 RMK SLP206

CYUL;2010-03-12 04:00;CYUL 120400Z 05011KT 15SM SKC 04/M09 A3014 RMK SLP209

CYUL;2010-03-12 05:00;CYUL 120500Z 03013KT 15SM SKC 02/M07 A3015 RMK SLP211

CYUL;2010-03-12 06:00;CYUL 120600Z 03014KT 15SM SKC 01/M07 A3016 RMK SLP215

CYUL;2010-03-12 07:00;CYUL 120700Z 04009KT 15SM SKC 00/M07 A3018 RMK SLP223

CYUL;2010-03-12 08:00;CYUL 120800Z 03011KT 15SM FEW240 M01/M07 A3018 RMK CI0 SLP221

CYUL;2010-03-12 09:00;CYUL 120900Z 03008KT 15SM FEW240 M01/M07 A3019 RMK CI0 SLP224

CYUL;2010-03-12 10:00;CYUL 121000Z 03010KT 15SM FEW240 M01/M07 A3018 RMK CI1 SLP222

CYUL;2010-03-12 11:00;CYUL 121100Z 03010KT 15SM FEW150 FEW240 M01/M07 A3020 RMK AC1CI0 SLP229

CYUL;2010-03-12 12:00;CYUL 121200Z 03015KT 15SM FEW120 BKN240 M01/M07 A3020 RMK AC1CI1 SLP228

CYUL;2010-03-12 13:00;CYUL 121300Z 04011KT 15SM FEW045 BKN240 01/M08 A3022 RMK SC2CI0 SLP234

CYUL;2010-03-12 14:00;CYUL 121400Z 05015KT 15SM FEW045 BKN240 03/M08 A3022 RMK SC1CI1 SLP235

CYUL;2010-03-12 15:00;CYUL 121500Z 05012KT 15SM FEW045 BKN065 BKN240 04/M07 A3023 RMK SC1SC2CI2 SLP239

CYUL;2010-03-12 16:00;CYUL 121600Z 05013KT 15SM SCT065 SCT240 05/M06 A3022 RMK SC2CI1 SLP236

CYUL;2010-03-12 17:00;CYUL 121700Z 05013KT 15SM SCT045 BKN150 BKN240 06/M06 A3021 RMK SC3AC1CI1 SLP233

CYUL;2010-03-12 18:00;CYUL 121800Z 04013KT 15SM BKN042 BKN050 OVC150 07/M05 A3020 RMK SC5SC2AC1 SLP228

CYUL;2010-03-12 19:00;CYUL 121900Z 04014KT 15SM BKN039 OVC050 08/M04 A3020 RMK SC6SC2 SLP228

CYUL;2010-03-12 20:00;CYUL 122000Z 05012KT 15SM OVC035 08/M05 A3020 RMK SC8 SLP230

CYUL;2010-03-12 21:00;CYUL 122100Z 05014KT 15SM BKN039 BKN070 08/M05 A3020 RMK SC4AC2 SLP228

CYUL;2010-03-12 22:00;CYUL 122200Z 05012KT 15SM SCT040 SCT065 BKN240 08/M06 A3020 RMK SC2SC1CI2 SLP229

CYUL;2010-03-12 23:00;CYUL 122300Z 05009KT 15SM FEW040 SCT240 08/M05 A3022 RMK SC1CI2 SLP234

CYUL;2010-03-13 00:00;CYUL 130000Z 05010KT 15SM SCT040 SCT240 07/M05 A3022 RMK SC2CI1 SLP234

CYUL;2010-03-13 01:00;CYUL 130100Z 05008KT 15SM FEW040 FEW240 06/M04 A3022 RMK SC1CI1 SLP234

CYUL;2010-03-13 02:00;CYUL 130200Z 05009KT 15SM FEW040 FEW240 06/M04 A3022 RMK SC1CI1 SLP234

CYUL;2010-03-13 03:00;CYUL 130300Z 04008KT 15SM FEW240 05/M04 A3021 RMK CI1 SLP232

CYUL;2010-03-13 04:00;CYUL 130400Z 03009KT 15SM SKC 03/M04 A3021 RMK SLP231

CYUL;2010-03-13 05:00;CYUL 130500Z 04011KT 15SM SKC 03/M05 A3021 RMK SLP232

CYUL;2010-03-13 06:00;CYUL 130600Z 04010KT 15SM SKC 02/M05 A3021 RMK SLP232

CYUL;2010-03-13 07:00;CYUL 130700Z 03010KT 15SM SKC 01/M05 A3020 RMK SLP230

CYUL;2010-03-13 08:00;CYUL 130800Z 03011KT 15SM SKC 01/M05 A3020 RMK SLP227

CYUL;2010-03-13 09:00;CYUL 130900Z 03011KT 15SM FEW095 00/M06 A3020 RMK AC1 SLP228

CYUL;2010-03-13 10:00;CYUL 131000Z 03011KT 15SM FEW090 M00/M06 A3019 RMK AC1 SLP226

CYUL;2010-03-13 11:00;CYUL 131100Z 03010KT 15SM FEW100 SCT240 00/M06 A3020 RMK AC2CI1 SLP227

CYUL;2010-03-13 12:00;CYUL 131200Z 04010KT 30SM FEW100 OVC240 01/M06 A3020 RMK AC1CI2 SLP228

CYUL;2010-03-13 13:00;CYUL 131300Z 04013KT 30SM FEW100 OVC240 02/M06 A3021 RMK AC1CI2 SLP231

CYUL;2010-03-13 14:00;CYUL 131400Z 05011KT 30SM FEW100 OVC240 04/M06 A3021 RMK AC1CI2 SLP231

CYUL;2010-03-13 15:00;CYUL 131500Z 04010KT 30SM FEW100 BKN240 06/M05 A3021 RMK AC1CI2 SLP231

CYUL;2010-03-13 16:00;CYUL 131600Z 05011KT 30SM FEW100 BKN240 07/M05 A3019 RMK AC1CI2 SLP225

CYUL;2010-03-13 17:00;CYUL 131700Z 06013KT 30SM SCT100 BKN180 BKN240 09/M04 A3016 RMK AC2AC1CI1 SLP215

CYUL;2010-03-13 18:00;CYUL 131800Z 04012KT 30SM SCT100 SCT180 BKN240 10/M04 A3014 RMK AC2AC1CI2 SLP208

CYUL;2010-03-13 19:00;CYUL 131900Z 04014KT 30SM BKN100 BKN220 11/M04 A3010 RMK AC3CS2 SLP196

CYUL;2010-03-13 20:00;CYUL 132000Z 05015KT 15SM SCT100 BKN220 11/M04 A3010 RMK AC2CS4 SLP196

CYUL;2010-03-13 21:00;CYUL 132100Z 03012KT 15SM FEW100 BKN180 OVC220 10/M04 A3010 RMK AC2AC4CS2 SLP196

CYUL;2010-03-13 22:00;CYUL 132200Z 07017KT 15SM FEW120 BKN170 OVC220 11/M08 A3010 RMK AC2AC5CS2 SLP195

CYUL;2010-03-13 23:00;CYUL 132300Z 05012KT 15SM FEW110 BKN190 OVC240 08/M05 A3009 RMK AC2AC4CS2 SLP192

CYUL;2010-03-14 00:00;CYUL 140000Z 05013KT 15SM FEW110 BKN240 07/M05 A3009 RMK AC2CS2 SLP192

CYUL;2010-03-14 01:00;CYUL 140100Z 08017G25KT 15SM FEW110 BKN240 09/M07 A3009 RMK AC1CI3 SLP191

CYUL;2010-03-14 02:00;CYUL 140200Z 05012G19KT 15SM BKN160 BKN240 08/M07 A3009 RMK AC5CI1 SLP193

CYUL;2010-03-14 03:00;CYUL 140300Z 06013G18KT 15SM OVC170 07/M07 A3008 RMK AC8 SLP189

CYUL;2010-03-14 04:00;CYUL 140400Z 07017G22KT 15SM SCT130 OVC200 07/M08 A3007 RMK AC3CI5 SLP184

CYUL;2010-03-14 05:00;CYUL 140500Z 06016G21KT 15SM BKN110 OVC200 06/M08 A3006 RMK AC6CI2 SLP180

CYUL;2010-03-14 05:39;CYUL 140539Z 05014G20KT 15SM -RA OVC090 05/ RMK AS8

CYUL;2010-03-14 06:00;CYUL 140600Z 05016KT 15SM -RA OVC095 05/M05 A3006 RMK AS8 SLP180

CYUL;2010-03-14 07:00;CYUL 140700Z 05020KT 15SM -RASN OVC110 04/M06 A3004 RMK AC8 SLP175

CYUL;2010-03-14 07:32;CYUL 140732Z 05023KT 15SM -SN OVC100 03/ RMK AS8

CYUL;2010-03-14 08:00;CYUL 140800Z 05020G26KT 15SM -SN OVC095 03/M06 A3002 RMK AS8 SLP167

CYUL;2010-03-14 09:00;CYUL 140900Z 05017G27KT 15SM -SN OVC100 03/M07 A3001 RMK AS8 SLP162

CYUL;2010-03-14 10:00;CYUL 141000Z 04020G25KT 15SM -SN OVC095 03/M07 A2999 RMK AS8 SLP157

CYUL;2010-03-14 10:39;CYUL 141039Z 05019G26KT 15SM -RASN OVC090 03/ RMK AS8

CYUL;2010-03-14 11:00;CYUL 141100Z 05019G25KT 15SM -RASN OVC080 03/M06 A2999 RMK AS8 SLP156

CYUL;2010-03-14 12:00;CYUL 141200Z 05022G27KT 15SM -RA OVC080 02/M06 A3000 RMK AS8 SLP162

CYUL;2010-03-14 13:00;CYUL 141300Z 05017G24KT 15SM -RA OVC070 02/M05 A3002 RMK AS8 AC EMBD SLP167

CYUL;2010-03-14 14:00;CYUL 141400Z 04021G26KT 15SM -RA OVC067 02/M05 A3001 RMK AS8 SLP166

CYUL;2010-03-14 15:00;CYUL 141500Z 04020G26KT 15SM -RA OVC060 02/M05 A3002 RMK SC8 SLP169

CYUL;2010-03-14 16:00;CYUL 141600Z 04019G25KT 15SM -RA OVC058 02/M04 A3003 RMK SC8 SLP170

CYUL;2010-03-14 17:00;CYUL 141700Z 04020G29KT 15SM -RA OVC055 03/M04 A3002 RMK SC8 SLP169

CYUL;2010-03-14 18:00;CYUL 141800Z 04023G28KT 15SM -RA FEW048 OVC060 03/M03 A3001 RMK SC2SC6 SLP165

CYUL;2010-03-14 19:00;CYUL 141900Z 04022G27KT 15SM -RA FEW050 OVC060 04/M03 A3001 RMK SC2SC6 SLP163

CYUL;2010-03-14 20:00;CYUL 142000Z 04019G24KT 15SM -RA FEW044 OVC055 04/M03 A3001 RMK SC2SC6 SLP163

CYUL;2010-03-14 21:00;CYUL 142100Z 03017G24KT 15SM -RA FEW042 OVC055 04/M02 A3000 RMK SC2SC6 SLP161

CYUL;2010-03-14 22:00;CYUL 142200Z 04015KT 15SM -RA FEW038 OVC053 04/M03 A3001 RMK SC2SC6 SLP164

CYUL;2010-03-14 23:00;CYUL 142300Z 04016KT 15SM -RA SCT044 OVC065 05/M03 A3000 RMK SC3SC5 SLP162

CYUL;2010-03-15 00:00;CYUL 150000Z 04018KT 15SM -RA SCT040 OVC062 05/M04 A3000 RMK SC3SC5 SLP162

CYUL;2010-03-15 01:00;CYUL 150100Z 04015KT 15SM -RA OVC060 05/M04 A3000 RMK SC8 SLP160

CYUL;2010-03-15 02:00;CYUL 150200Z 04013KT 15SM -RA OVC060 05/M04 A2999 RMK SC8 SLP159

CYUL;2010-03-15 03:00;CYUL 150300Z 04014KT 15SM -RA BKN048 OVC065 05/M05 A2999 RMK SC6SC2 SLP156

CYUL;2010-03-15 03:50;CYUL 150350Z 04014G19KT 15SM FEW060 BKN085 OVC100 05/ RMK SC1AC6AC2

CYUL;2010-03-15 04:00;CYUL 150400Z 04016KT 15SM FEW060 BKN085 OVC100 05/M06 A2998 RMK SC1AC6AC2 SLP153

CYUL;2010-03-15 05:00;CYUL 150500Z 05016KT 15SM SCT090 SCT110 04/M06 A2996 RMK AC3AC1 SLP149

CYUL;2010-03-15 06:00;CYUL 150600Z 04014G19KT 15SM FEW130 04/M06 A2996 RMK AS1 SLP149

CYUL;2010-03-15 07:00;CYUL 150700Z 04018KT 15SM FEW150 03/M07 A2996 RMK AC1 SLP147

CYUL;2010-03-15 08:00;CYUL 150800Z 04016KT 15SM FEW150 03/M07 A2996 RMK AC1 SLP147

CYUL;2010-03-15 09:00;CYUL 150900Z 04019G27KT 15SM FEW150 03/M08 A2996 RMK AC1 SLP146

CYUL;2010-03-15 10:00;CYUL 151000Z 05019G27KT 15SM FEW150 03/M08 A2996 RMK AC1 SLP148

CYUL;2010-03-15 11:00;CYUL 151100Z 04018KT 15SM FEW120 FEW210 03/M08 A2998 RMK AC1CI0 SLP154

CYUL;2010-03-15 12:00;CYUL 151200Z 04021KT 15SM FEW120 BKN220 03/M08 A2998 RMK AC1CI1 SLP154

CYUL;2010-03-15 13:00;CYUL 151300Z 04021G29KT 15SM FEW120 BKN240 04/M08 A2999 RMK AC2CI1 SLP159

CYUL;2010-03-15 14:00;CYUL 151400Z 04020G28KT 15SM SCT130 BKN240 05/M08 A3000 RMK AC2CI1 SLP161

CYUL;2010-03-15 15:00;CYUL 151500Z 04017G25KT 15SM SCT150 BKN240 06/M08 A3001 RMK AC3CI1 SLP165

CYUL;2010-03-15 16:00;CYUL 151600Z 04020G27KT 15SM BKN150 OVC210 07/M07 A3001 RMK AC2CI1 SLP165

CYUL;2010-03-15 17:00;CYUL 151700Z 05019G25KT 15SM SCT170 BKN240 08/M08 A3001 RMK AC2CI0 SLP166

CYUL;2010-03-15 18:00;CYUL 151800Z 04021KT 15SM SCT180 BKN240 09/M08 A3000 RMK AC2CI1 SLP161

CYUL;2010-03-15 19:00;CYUL 151900Z 04017G22KT 15SM FEW160 BKN240 10/M08 A3000 RMK AC2CI1 SLP159

CYUL;2010-03-15 20:00;CYUL 152000Z 04022KT 30SM FEW160 BKN230 11/M09 A2999 RMK AC2CI1 SLP158

CYUL;2010-03-15 21:00;CYUL 152100Z 04016G21KT 30SM FEW160 BKN240 11/M09 A3001 RMK AC2CI1 SLP162

CYUL;2010-03-15 22:00;CYUL 152200Z 05015G24KT 30SM SCT180 OVC230 11/M11 A3001 RMK AC2CI1 SLP165

CYUL;2010-03-15 23:00;CYUL 152300Z 04010KT 15SM SCT170 BKN240 09/M08 A3003 RMK AC2CI1 SLP170

CYUL;2010-03-16 00:00;CYUL 160000Z 03010KT 15SM FEW170 BKN240 07/M07 A3004 RMK AC2CI1 SLP173

CYUL;2010-03-16 01:00;CYUL 160100Z 04007KT 15SM SCT240 08/M08 A3005 RMK CI0 SLP177

CYUL;2010-03-16 02:00;CYUL 160200Z 03007KT 15SM FEW240 06/M07 A3005 RMK CI0 SLP179

CYUL;2010-03-16 03:00;CYUL 160300Z 01008KT 15SM SKC 04/M06 A3006 RMK SLP180

CYUL;2010-03-16 04:00;CYUL 160400Z 03009KT 15SM SKC 04/M06 A3006 RMK SLP180

CYUL;2010-03-16 05:00;CYUL 160500Z 04009KT 15SM SKC 04/M06 A3006 RMK SLP182

CYUL;2010-03-16 06:00;CYUL 160600Z 03010KT 15SM SKC 03/M06 A3007 RMK SLP183

CYUL;2010-03-16 07:00;CYUL 160700Z 02008KT 15SM SKC 02/M06 A3006 RMK SLP182

CYUL;2010-03-16 08:00;CYUL 160800Z 01005KT 15SM SKC 01/M06 A3006 RMK SLP181

CYUL;2010-03-16 09:00;CYUL 160900Z 02006KT 15SM SKC 01/M06 A3006 RMK SLP181

CYUL;2010-03-16 10:00;CYUL 161000Z 01004KT 15SM SKC 01/M07 A3007 RMK SLP184

CYUL;2010-03-16 11:00;CYUL 161100Z 03004KT 30SM FEW240 M00/M07 A3008 RMK CI0 SLP187

CYUL;2010-03-16 12:00;CYUL 161200Z 03003KT 30SM FEW240 01/M06 A3009 RMK CI0 SLP190

CYUL;2010-03-16 13:00;CYUL 161300Z 02003KT 30SM FEW240 04/M05 A3009 RMK CI0 SLP193

CYUL;2010-03-16 14:00;CYUL 161400Z 03005KT 30SM FEW240 06/M05 A3010 RMK CI0 SLP194

CYUL;2010-03-16 15:00;CYUL 161500Z 18002KT 30SM FEW240 08/M04 A3009 RMK CI0 SLP192

CYUL;2010-03-16 16:00;CYUL 161600Z 20004KT 30SM SCT240 09/M04 A3008 RMK CI0 SLP187

CYUL;2010-03-16 17:00;CYUL 161700Z 18003KT 30SM FEW240 11/M05 A3007 RMK CI0 SLP183

CYUL;2010-03-16 18:00;CYUL 161800Z 20006KT 15SM FEW240 12/M04 A3005 RMK CI0 SLP176

CYUL;2010-03-16 19:00;CYUL 161900Z 22008KT 15SM FEW240 12/M04 A3003 RMK CI0 SLP169

CYUL;2010-03-16 20:00;CYUL 162000Z 21007KT 15SM FEW240 13/M02 A3002 RMK CI0 SLP166

CYUL;2010-03-16 21:00;CYUL 162100Z 21007KT 30SM FEW240 13/M02 A3001 RMK CI1 SLP164

CYUL;2010-03-16 22:00;CYUL 162200Z 22007KT 30SM FEW240 12/M01 A3001 RMK CI0 SLP163

CYUL;2010-03-16 23:00;CYUL 162300Z 22007KT 30SM FEW240 11/M02 A3001 RMK CI0 SLP162

CYUL;2010-03-17 00:00;CYUL 170000Z 21004KT 15SM FEW240 08/M04 A3001 RMK CI0 SLP164

CYUL;2010-03-17 01:00;CYUL 170100Z 20002KT 15SM SKC 08/M04 A3001 RMK SLP164

CYUL;2010-03-17 02:00;CYUL 170200Z 20004KT 15SM SKC 05/M04 A3001 RMK SLP163

CYUL;2010-03-17 03:00;CYUL 170300Z 25002KT 15SM SKC 06/M04 A3001 RMK SLP162

CYUL;2010-03-17 04:00;CYUL 170400Z 00000KT 15SM FEW240 03/M04 A3001 RMK CI0 SLP162

CYUL;2010-03-17 05:00;CYUL 170500Z 36003KT 15SM SKC 04/M04 A3000 RMK SLP161

CYUL;2010-03-17 06:00;CYUL 170600Z 02002KT 15SM SKC 05/M04 A3000 RMK SLP161

CYUL;2010-03-17 07:00;CYUL 170700Z 00000KT 15SM SKC 04/M04 A3000 RMK SLP160

CYUL;2010-03-17 08:00;CYUL 170800Z 23005KT 15SM SKC 02/M04 A2999 RMK SLP157

CYUL;2010-03-17 09:00;CYUL 170900Z 27003KT 15SM SKC 01/M05 A2999 RMK SLP155

CYUL;2010-03-17 10:00;CYUL 171000Z 21003KT 15SM SKC 01/M04 A2998 RMK SLP153

CYUL;2010-03-17 11:00;CYUL 171100Z 23004KT 30SM SKC 02/M04 A2999 RMK SLP155

CYUL;2010-03-17 12:00;CYUL 171200Z 21005KT 30SM SKC 02/M04 A2999 RMK SLP156

CYUL;2010-03-17 13:00;CYUL 171300Z 22009KT 30SM SCT240 03/M04 A2999 RMK CI1 SLP157

CYUL;2010-03-17 14:00;CYUL 171400Z 21008KT 30SM SCT240 05/M03 A2999 RMK CI1 SLP156

CYUL;2010-03-17 15:00;CYUL 171500Z 21008KT 30SM SCT240 07/M02 A2997 RMK CI0 SLP151

CYUL;2010-03-17 16:00;CYUL 171600Z 22010KT 30SM FEW180 BKN240 09/M01 A2995 RMK AC1CI1 SLP143

CYUL;2010-03-17 17:00;CYUL 171700Z 22009KT 30SM FEW180 BKN210 11/M00 A2992 RMK AC2CI1 SLP133

CYUL;2010-03-17 18:00;CYUL 171800Z 22014KT 30SM FEW180 BKN220 12/M01 A2988 RMK AC1CI1 SLP121

CYUL;2010-03-17 19:00;CYUL 171900Z 24012G17KT 30SM SCT180 BKN210 13/M02 A2985 RMK AC2CI1 SLP111

CYUL;2010-03-17 20:00;CYUL 172000Z 22013KT 30SM FEW180 BKN210 13/M01 A2982 RMK AC1CI1 SLP100

CYUL;2010-03-17 21:00;CYUL 172100Z 23012KT 30SM FEW050 SCT180 BKN220 13/M01 A2979 RMK CF1AC1CI1 SLP090

CYUL;2010-03-17 22:00;CYUL 172200Z CCA 27014G19KT 30SM FEW150 BKN240 14/00 A2977 RMK AC1CI0 SLP083

CYUL;2010-03-17 23:00;CYUL 172300Z 26011KT 30SM FEW240 13/M01 A2976 RMK CI0 SLP080

CYUL;2010-03-18 00:00;CYUL 180000Z 24012KT 15SM FEW240 11/00 A2976 RMK CI0 SLP078

CYUL;2010-03-18 01:00;CYUL 180100Z 23012G19KT 15SM FEW240 10/00 A2975 RMK CI0 SLP077

CYUL;2010-03-18 02:00;CYUL 180200Z 24013KT 15SM FEW240 09/M01 A2975 RMK CI0 SLP075

CYUL;2010-03-18 03:00;CYUL 180300Z 24014KT 15SM SKC 08/M01 A2974 RMK SLP071

CYUL;2010-03-18 04:00;CYUL 180400Z 25010KT 15SM FEW150 SCT210 08/M01 A2972 RMK AC1CI1 SLP066

CYUL;2010-03-18 05:00;CYUL 180500Z 24012KT 15SM FEW075 SCT180 BKN220 07/M02 A2970 RMK AC1AC1CI1 SLP060

CYUL;2010-03-18 06:00;CYUL 180600Z 24010KT 15SM FEW075 BKN220 07/M03 A2969 RMK AC2CI1 SLP054

CYUL;2010-03-18 07:00;CYUL 180700Z 23012KT 15SM FEW075 FEW150 BKN220 06/M03 A2967 RMK AC1AC1CI1 SLP050

CYUL;2010-03-18 08:00;CYUL 180800Z 25012KT 15SM BKN070 OVC210 07/M04 A2966 RMK AC6CI1 SLP045

CYUL;2010-03-18 09:00;CYUL 180900Z 25011KT 15SM BKN075 BKN150 OVC210 06/M04 A2967 RMK AC5AC1CI1 SLP047

CYUL;2010-03-18 10:00;CYUL 181000Z 25010KT 15SM BKN080 BKN150 06/M03 A2967 RMK AC6AC1 SLP047

CYUL;2010-03-18 11:00;CYUL 181100Z 25009KT 30SM BKN075 BKN150 OVC240 06/M03 A2968 RMK AC5AC1CI1 SLP051

CYUL;2010-03-18 12:00;CYUL 181200Z 25010KT 30SM BKN075 BKN140 OVC220 06/M03 A2969 RMK AC5AC2CI1 SLP056

CYUL;2010-03-18 13:00;CYUL 181300Z 26012G18KT 30SM SCT076 BKN130 OVC220 07/M02 A2969 RMK AC4AC2CI1 SLP056

CYUL;2010-03-18 14:00;CYUL 181400Z 26008KT 30SM FEW030 BKN070 OVC120 07/M02 A2970 RMK CF1AC6AC1 SLP060

CYUL;2010-03-18 15:00;CYUL 181500Z 22010KT 30SM FEW030 FEW070 OVC120 08/M01 A2971 RMK CF1AC2AS3 SLP061

CYUL;2010-03-18 16:00;CYUL 181600Z 22011KT 30SM BKN070 OVC120 09/M00 A2971 RMK AC6AC1 SLP062

CYUL;2010-03-18 17:00;CYUL 181700Z 21011G16KT 30SM SCT070 BKN090 BKN240 11/01 A2970 RMK AC3AS1CI0 SLP060

CYUL;2010-03-18 18:00;CYUL 181800Z 22011KT 30SM BKN075 BKN240 12/02 A2969 RMK AC5CI0 SLP055

CYUL;2010-03-18 19:00;CYUL 181900Z 22013KT 30SM FEW045 SCT075 BKN090 BKN240 13/02 A2967 RMK SC2AC1AS1CI0 SLP050

CYUL;2010-03-18 20:00;CYUL 182000Z 27012KT 30SM FEW050 BKN110 BKN240 14/01 A2967 RMK SC2AC3CI0 SLP048

CYUL;2010-03-18 21:00;CYUL 182100Z 27010G15KT 30SM FEW050 OVC080 14/01 A2967 RMK SC2AS4 SLP047

CYUL;2010-03-18 22:00;CYUL 182200Z 28009KT 30SM FEW035 BKN055 OVC120 13/01 A2968 RMK SC1SC6AS1 SLP051

CYUL;2010-03-18 23:00;CYUL 182300Z 27004KT 15SM SCT055 BKN100 OVC150 12/02 A2968 RMK SC3AC2AS1 SLP053

CYUL;2010-03-19 00:00;CYUL 190000Z 36004KT 15SM FEW055 SCT120 BKN140 10/01 A2969 RMK SC1AC2AC1 SLP056

CYUL;2010-03-19 01:00;CYUL 190100Z 02005KT 15SM SCT120 BKN170 10/01 A2970 RMK AC2AC1 SLP060

CYUL;2010-03-19 02:00;CYUL 190200Z 07006KT 15SM FEW085 BKN110 11/M00 A2972 RMK AC1AC6 SLP065

CYUL;2010-03-19 03:00;CYUL 190300Z 04006KT 15SM BKN075 BKN110 BKN150 09/M01 A2973 RMK AC5AC1AC1 SLP070

CYUL;2010-03-19 04:00;CYUL 190400Z 07004KT 15SM BKN090 OVC130 10/M01 A2973 RMK AC5AC3 SLP069

CYUL;2010-03-19 05:00;CYUL 190500Z 09003KT 15SM BKN080 OVC090 09/M01 A2973 RMK AC6AC2 SLP069

CYUL;2010-03-19 06:00;CYUL 190600Z 07006KT 15SM SCT067 OVC130 09/M01 A2974 RMK AC3AC4 SLP071

CYUL;2010-03-19 07:00;CYUL 190700Z 05008KT 15SM SCT075 08/M02 A2974 RMK AC4 SLP072

CYUL;2010-03-19 08:00;CYUL 190800Z 04009KT 15SM BKN110 06/M04 A2973 RMK AC6 SLP070

CYUL;2010-03-19 09:00;CYUL 190900Z 04008KT 15SM BKN120 05/M05 A2973 RMK AC5 SLP069

CYUL;2010-03-19 10:00;CYUL 191000Z 03008KT 15SM FEW120 04/M04 A2974 RMK AC1 SLP072

CYUL;2010-03-19 11:00;CYUL 191100Z 01003KT 15SM FEW120 03/M04 A2975 RMK AC1 SLP076

CYUL;2010-03-19 12:00;CYUL 191200Z 06007KT 30SM FEW120 BKN240 04/M04 A2975 RMK AC1CI1 SLP074

CYUL;2010-03-19 13:00;CYUL 191300Z 05004KT 30SM FEW240 05/M03 A2975 RMK CI0 SLP074

CYUL;2010-03-19 14:00;CYUL 191400Z 05002KT 30SM FEW180 SCT240 07/M02 A2975 RMK AC1CI1 SLP075

CYUL;2010-03-19 15:00;CYUL 191500Z 03003KT 30SM BKN240 09/M01 A2974 RMK CI2 SLP072

CYUL;2010-03-19 16:00;CYUL 191600Z 23007KT 30SM FEW180 BKN240 12/M01 A2973 RMK AC1CI3 SLP068

CYUL;2010-03-19 17:00;CYUL 191700Z 23008KT 30SM FEW120 SCT180 BKN240 12/M00 A2972 RMK AC2AC1CI2 SLP067

CYUL;2010-03-19 18:00;CYUL 191800Z 23011G16KT 30SM BKN150 BKN240 13/01 A2971 RMK AC4CI1 SLP063

CYUL;2010-03-19 19:00;CYUL 191900Z 27016KT 30SM BKN120 BKN240 15/03 A2971 RMK AC4CI2 SLP061

CYUL;2010-03-19 20:00;CYUL 192000Z 27013G18KT 30SM SCT150 BKN240 15/01 A2972 RMK AC2CI2 SLP065

CYUL;2010-03-19 21:00;CYUL 192100Z 22013KT 15SM BKN130 BKN240 14/02 A2971 RMK AC5CI1 SLP062

CYUL;2010-03-19 22:00;CYUL 192200Z 23012KT 15SM BKN130 BKN240 14/01 A2971 RMK AC5CI1 SLP061

CYUL;2010-03-19 23:00;CYUL 192300Z 25016KT 15SM BKN110 BKN240 14/02 A2975 RMK AC3CI1 SLP074

CYUL;2010-03-20 00:00;CYUL 200000Z 23012KT 15SM BKN110 BKN240 13/02 A2976 RMK AC2CI1 SLP078

CYUL;2010-03-20 01:00;CYUL 200100Z 22008KT 15SM FEW110 SCT240 11/02 A2976 RMK AC1CI1 SLP079

CYUL;2010-03-20 02:00;CYUL 200200Z 19006KT 15SM SCT110 10/01 A2976 RMK AC3 SLP079

CYUL;2010-03-20 03:00;CYUL 200300Z 20006KT 15SM OVC075 10/02 A2977 RMK AC8 SLP081

CYUL;2010-03-20 04:00;CYUL 200400Z CCA 23012KT 15SM OVC085 11/02 A2976 RMK AC8 SLP078

CYUL;2010-03-20 05:00;CYUL 200500Z 25005KT 15SM BKN075 BKN100 10/02 A2977 RMK AC6AC2 SLP081

CYUL;2010-03-20 06:00;CYUL 200600Z 25007KT 15SM FEW075 BKN100 10/03 A2979 RMK AC2AC6 SLP088

CYUL;2010-03-20 07:00;CYUL 200700Z 28006KT 15SM FEW100 07/02 A2981 RMK AC2 SLP095

CYUL;2010-03-20 08:00;CYUL 200800Z 29005KT 15SM FEW060 SCT070 OVC100 07/02 A2981 RMK SC1AC3AC4 SLP097

CYUL;2010-03-20 09:00;CYUL 200900Z 28004KT 15SM -RA OVC060 07/03 A2983 RMK SC8 SLP102

CYUL;2010-03-20 09:41;CYUL 200941Z 26005KT 15SM BKN065 OVC080 08/ RMK SC7AC1

CYUL;2010-03-20 10:00;CYUL 201000Z 27004KT 15SM BKN060 OVC075 08/03 A2984 RMK SC7AC1 SLP106

CYUL;2010-03-20 11:00;CYUL 201100Z 27005KT 15SM FEW055 OVC065 07/02 A2986 RMK SC2SC6 SLP114

CYUL;2010-03-20 12:00;CYUL 201200Z 29005KT 15SM SCT045 OVC065 07/03 A2988 RMK SC4SC4 SLP119

CYUL;2010-03-20 13:00;CYUL 201300Z 30004KT 15SM OVC037 08/02 A2990 RMK SC8 SLP125

CYUL;2010-03-20 13:19;CYUL 201319Z 29007KT 15SM -SHRA BKN035 OVC060 08/ RMK SC6SC2

CYUL;2010-03-20 14:00;CYUL 201400Z 31006KT 15SM -SHRA FEW028 BKN040 OVC060 07/02 A2992 RMK SC2SC5SC2 SLP132

CYUL;2010-03-20 15:00;CYUL 201500Z 30007KT 15SM -RA SCT024 OVC032 06/02 A2995 RMK SC3SC5 SLP144

CYUL;2010-03-20 15:46;CYUL 201546Z 30009KT 15SM -DZ BKN024 OVC030 06/ RMK SC6SC2

CYUL;2010-03-20 16:00;CYUL 201600Z 30008KT 15SM -RA BKN027 OVC035 06/01 A2997 RMK SC6SC2 VRY LGT RA SLP150

CYUL;2010-03-20 16:46;CYUL 201646Z 27009KT 15SM OVC042 06/ RMK SC8

CYUL;2010-03-20 17:00;CYUL 201700Z 28010KT 15SM BKN043 OVC060 05/M01 A2999 RMK SC6SC2 SLP156

CYUL;2010-03-20 18:00;CYUL 201800Z 27009KT 15SM BKN048 BKN065 06/M02 A3000 RMK SC6SC2 SLP159

CYUL;2010-03-20 19:00;CYUL 201900Z 29011KT 30SM SCT053 BKN090 BKN240 08/M02 A3000 RMK SC2AC2CI1 SLP161

CYUL;2010-03-20 20:00;CYUL 202000Z 28011G16KT 30SM BKN050 BKN240 08/M03 A3003 RMK SC5CI1 SLP169

CYUL;2010-03-20 21:00;CYUL 202100Z 27015KT 30SM FEW055 SCT150 BKN240 08/M05 A3004 RMK SC1AC2CI1 SLP175

CYUL;2010-03-20 22:00;CYUL 202200Z 27013KT 15SM FEW050 BKN120 BKN180 BKN240 07/M05 A3007 RMK SC1AC2AC2CI1 SLP184

CYUL;2010-03-20 23:00;CYUL 202300Z 31011KT 15SM BKN110 BKN240 06/M06 A3010 RMK AC5CI1 SLP193

CYUL;2010-03-21 00:00;CYUL 210000Z 32007KT 15SM BKN095 05/M07 A3012 RMK AC6 SLP203

CYUL;2010-03-21 01:00;CYUL 210100Z 33007KT 15SM BKN110 04/M08 A3015 RMK AC6 SLP211

CYUL;2010-03-21 02:00;CYUL 210200Z 34006KT 15SM BKN150 OVC220 03/M07 A3017 RMK AS6CI2 SLP219

CYUL;2010-03-21 03:00;CYUL 210300Z 34007KT 15SM OVC130 02/M08 A3018 RMK AS8 SLP222

CYUL;2010-03-21 04:00;CYUL 210400Z 32003KT 15SM OVC130 01/M08 A3019 RMK AS6 SLP226

CYUL;2010-03-21 05:00;CYUL 210500Z 36005KT 15SM FEW110 BKN150 OVC210 02/M08 A3020 RMK AC2AS3CI1 SLP227

CYUL;2010-03-21 06:00;CYUL 210600Z 03007KT 15SM OVC100 02/M08 A3020 RMK AS8 SLP227

CYUL;2010-03-21 07:00;CYUL 210700Z 05007KT 15SM OVC100 02/M10 A3020 RMK AS8 SLP229

CYUL;2010-03-21 08:00;CYUL 210800Z 06007KT 15SM OVC100 01/M10 A3021 RMK AS8 SLP233

CYUL;2010-03-21 09:00;CYUL 210900Z 07007KT 15SM OVC100 01/M09 A3022 RMK AS8 SLP235

CYUL;2010-03-21 10:00;CYUL 211000Z 08005KT 15SM OVC100 01/M11 A3023 RMK AS8 SLP238

CYUL;2010-03-21 11:00;CYUL 211100Z 05008KT 30SM OVC110 00/M11 A3023 RMK AS8 AC ASOCTD SLP238

CYUL;2010-03-21 12:00;CYUL 211200Z 05007KT 30SM BKN110 OVC240 00/M11 A3024 RMK AC6CI1 SLP242

CYUL;2010-03-21 13:00;CYUL 211300Z 04008KT 30SM BKN110 BKN130 OVC240 00/M11 A3025 RMK AC6AS2CI0 SLP244

CYUL;2010-03-21 14:00;CYUL 211400Z 05007KT 30SM BKN140 BKN240 00/M11 A3025 RMK AC5CI1 SLP244

CYUL;2010-03-21 15:00;CYUL 211500Z 06009KT 30SM BKN090 01/M11 A3025 RMK AC6 SLP244

CYUL;2010-03-21 16:00;CYUL 211600Z 07006KT 15SM BKN055 02/M10 A3024 RMK SC6 SLP241

CYUL;2010-03-21 17:00;CYUL 211700Z 11004KT 15SM BKN032 02/M10 A3023 RMK SC7 SLP239

CYUL;2010-03-21 17:10;CYUL 211710Z 16007KT 12SM -SHRA FEW017 OVC030 02/ RMK SF2SC6

CYUL;2010-03-21 18:00;CYUL 211800Z 17005KT 6SM -SHRA SCT016 OVC032 01/M05 A3020 RMK SF3SC5 SLP230

CYUL;2010-03-21 19:00;CYUL 211900Z 13004KT 6SM -SHRA SCT012 OVC028 01/M02 A3017 RMK SF3SC5 SLP218

CYUL;2010-03-21 19:50;CYUL 211950Z 13004KT 6SM -SHRA BKN013 OVC025 01/ RMK SF5SC3

CYUL;2010-03-21 20:00;CYUL 212000Z 09002KT 6SM -SN BKN011 OVC020 01/M02 A3015 RMK SF6SC2 SLP212

CYUL;2010-03-21 20:33;CYUL 212033Z 12003KT 4SM -SN BKN008 OVC024 01/ RMK SF6SC2

CYUL;2010-03-21 21:00;CYUL 212100Z 14004KT 3SM -SN SCT006 BKN013 OVC020 01/M01 A3014 RMK SF2SF4SC2 SLP207

CYUL;2010-03-21 21:39;CYUL 212139Z 15003KT 2SM -SN BKN007 OVC020 01/ RMK SF6SC2

CYUL;2010-03-21 21:49;CYUL 212149Z 15003KT 2SM -SN FEW004 BKN009 OVC024 01/ RMK SF2SF5SC2

CYUL;2010-03-21 21:55;CYUL 212155Z 18005KT 4SM -SN FEW004 BKN009 OVC024 01/ RMK SF2SF5SC2

CYUL;2010-03-21 22:00;CYUL 212200Z 17005KT 4SM -SN FEW005 SCT012 BKN019 OVC032 01/M01 A3013 RMK SF2SF2SC3SC1 SLP204

CYUL;2010-03-21 22:15;CYUL 212215Z 17004KT 3SM -SN SCT004 BKN012 OVC028 01/ RMK SF3SF2SC2

CYUL;2010-03-21 22:41;CYUL 212241Z 17003KT 2SM -SN FEW004 BKN009 OVC023 01/ RMK SF2SF4SC2

CYUL;2010-03-21 23:00;CYUL 212300Z 14002KT 1 1/4SM -SN FEW004 BKN009 OVC025 00/M02 A3012 RMK SF2SC5SC2 SLP203

CYUL;2010-03-21 23:32;CYUL 212332Z 17002KT 2SM -SN FEW004 BKN013 OVC027 00/ RMK SF2SF5SC2

CYUL;2010-03-22 00:00;CYUL 220000Z 00000KT 2SM -SN FEW004 BKN009 OVC024 00/M02 A3012 RMK SF2SF4SC2 SLP200

CYUL;2010-03-22 01:00;CYUL 220100Z 18002KT 4SM -SN FEW005 BKN018 OVC027 00/M02 A3012 RMK SF2SC2SC4 SLP202

CYUL;2010-03-22 01:29;CYUL 220129Z 34003KT 6SM -SN BKN006 OVC018 00/ RMK SF6SC2

CYUL;2010-03-22 02:00;CYUL 220200Z 36002KT 4SM BR OVC005 01/M01 A3012 RMK ST8 SLP202

CYUL;2010-03-22 03:00;CYUL 220300Z 00000KT 5SM BR OVC007 01/M01 A3011 RMK ST8 SLP198

CYUL;2010-03-22 04:00;CYUL 220400Z 00000KT 4SM BR OVC007 01/M01 A3011 RMK ST8 SLP198

CYUL;2010-03-22 05:00;CYUL 220500Z 28003KT 6SM BR OVC005 01/M01 A3012 RMK ST8 SLP200

CYUL;2010-03-22 06:00;CYUL 220600Z 00000KT 6SM BR OVC004 01/M01 A3011 RMK ST8 SLP199

CYUL;2010-03-22 07:00;CYUL 220700Z 00000KT 5SM BR OVC003 01/M01 A3010 RMK ST8 SLP196

CYUL;2010-03-22 08:00;CYUL 220800Z 00000KT 5SM BR OVC004 01/M01 A3009 RMK ST8 SLP193

CYUL;2010-03-22 09:00;CYUL 220900Z 33002KT 4SM BR OVC003 00/M01 A3010 RMK ST8 SLP195

CYUL;2010-03-22 10:00;CYUL 221000Z 03004KT 4SM BR OVC004 00/M02 A3011 RMK ST8 SLP199

CYUL;2010-03-22 11:00;CYUL 221100Z 35003KT 4SM BR OVC008 01/M02 A3013 RMK ST8 SLP205

CYUL;2010-03-22 12:00;CYUL 221200Z 01003KT 4SM BR OVC008 01/M02 A3014 RMK ST8 SLP207

CYUL;2010-03-22 12:39;CYUL 221239Z 01003KT 4SM BR OVC011 01/ RMK ST8

CYUL;2010-03-22 13:00;CYUL 221300Z 02004KT 4SM BR OVC009 01/M01 A3014 RMK ST8 SLP208

CYUL;2010-03-22 14:00;CYUL 221400Z 04004KT 7SM BKN012 OVC028 02/M01 A3015 RMK SF6SC2 SLP213

CYUL;2010-03-22 14:45;CYUL 221445Z 03006KT 8SM SCT012 BKN120 BKN200 03/ RMK SF2AC3CI2

CYUL;2010-03-22 15:00;CYUL 221500Z 03006KT 8SM SCT013 BKN100 OVC200 03/M01 A3015 RMK SF2AC3CI2 SUN DIMLY VISBL SLP213

CYUL;2010-03-22 16:00;CYUL 221600Z 05005KT 10SM FEW018 BKN100 OVC180 04/M01 A3014 RMK SF1AC6AC2 SLP209

CYUL;2010-03-22 17:00;CYUL 221700Z 03007KT 10SM BKN085 OVC210 05/M01 A3013 RMK AC6CI2 SLP204

CYUL;2010-03-22 18:00;CYUL 221800Z 04006KT 10SM BKN085 BKN180 OVC220 06/M01 A3011 RMK AC6AC1CI1 SLP199

CYUL;2010-03-22 19:00;CYUL 221900Z 05006KT 15SM BKN085 BKN150 OVC240 07/M01 A3009 RMK AC5AC2CI1 SLP192

CYUL;2010-03-22 20:00;CYUL 222000Z 07008KT 15SM SCT058 BKN080 OVC220 06/M03 A3009 RMK SC2AC4CI1 SLP191

CYUL;2010-03-22 21:00;CYUL 222100Z 10008KT 15SM FEW055 BKN080 BKN220 07/M02 A3008 RMK SC2AC5CI1 SLP188

CYUL;2010-03-22 22:00;CYUL 222200Z 09009KT 15SM BKN075 OVC180 07/M02 A3009 RMK AC6AC2 SLP192

CYUL;2010-03-22 23:00;CYUL 222300Z 06007KT 15SM BKN070 OVC110 07/M02 A3008 RMK AC6AC2 SLP187

CYUL;2010-03-23 00:00;CYUL 230000Z 06008KT 15SM FEW065 BKN090 OVC120 06/M02 A3007 RMK SC2AC5AC2 SLP183

CYUL;2010-03-23 01:00;CYUL 230100Z 08010KT 15SM BKN058 OVC100 06/M01 A3007 RMK SC5AC3 SLP185

CYUL;2010-03-23 02:00;CYUL 230200Z 06009KT 15SM BKN058 OVC090 06/01 A3007 RMK SC6AC2 SLP183

CYUL;2010-03-23 02:46;CYUL 230246Z 07009KT 15SM -RA BKN056 OVC075 06/ RMK SC6AC2 VRY LGT -RA

CYUL;2010-03-23 03:00;CYUL 230300Z 06011KT 15SM BKN055 OVC085 06/00 A3006 RMK SC6AC2 SLP180

CYUL;2010-03-23 03:13;CYUL 230313Z 06011KT 15SM -RA BKN055 OVC080 06/ RMK SC6AC2 -RA INTMT

CYUL;2010-03-23 04:00;CYUL 230400Z 06015KT 15SM -RA BKN055 OVC085 05/M00 A3003 RMK SC6AC2 SLP170

CYUL;2010-03-23 05:00;CYUL 230500Z 06014G19KT 10SM -RA FEW045 OVC065 05/M01 A3001 RMK SC2SC6 SLP164

CYUL;2010-03-23 06:00;CYUL 230600Z 06014KT 10SM -RA OVC055 04/M02 A3000 RMK SC8 SLP162

CYUL;2010-03-23 07:00;CYUL 230700Z 05016G21KT 10SM -RA OVC055 04/M03 A2997 RMK SC8 SLP151

CYUL;2010-03-23 08:00;CYUL 230800Z 05018G26KT 15SM -RA OVC055 03/M03 A2993 RMK SC8 SLP136

CYUL;2010-03-23 09:00;CYUL 230900Z 05019G27KT 15SM -RA FEW035 BKN050 OVC080 03/M02 A2990 RMK SC2SC5AC2 SLP125

CYUL;2010-03-23 10:00;CYUL 231000Z 05021G28KT 10SM -RA FEW035 OVC060 03/M02 A2988 RMK SC2SC6 SLP120

CYUL;2010-03-23 10:23;CYUL 231023Z 05019G29KT 10SM -RA FEW020 OVC050 02/ RMK SC2SC6

CYUL;2010-03-23 11:00;CYUL 231100Z 05020G28KT 7SM -RA FEW020 OVC040 02/M03 A2986 RMK SC2SC6 SLP113

CYUL;2010-03-23 12:00;CYUL 231200Z 05025G34KT 8SM RA FEW020 OVC038 01/M03 A2985 RMK SC2SC6 /R11/ SLP108

CYUL;2010-03-23 12:32;CYUL 231232Z 05021G30KT 8SM -RAPL BKN016 OVC030 01/ RERA RMK SC5SC3

CYUL;2010-03-23 13:00;CYUL 231300Z 05025G32KT 10SM -RA BKN013 OVC020 01/M03 A2983 RERA RMK SC6SC2 SLP101

CYUL;2010-03-23 14:00;CYUL 231400Z 05023G30KT 12SM -RA BKN012 OVC020 00/M03 A2981 RMK SF6SC2 SLP096

CYUL;2010-03-23 14:26;CYUL 231426Z 05026G31KT 12SM -RA FEW009 OVC012 00/ RMK SF2SF6

CYUL;2010-03-23 15:00;CYUL 231500Z 05021G31KT 12SM -RA FEW009 BKN011 OVC023 00/M03 A2979 RMK SF1SF6SC2 SLP088

CYUL;2010-03-23 15:44;CYUL 231544Z 04019G24KT 10SM -RASN FEW009 BKN011 OVC023 00/ RMK SF1SF6SC2

CYUL;2010-03-23 16:00;CYUL 231600Z 04020KT 10SM -SN BKN012 OVC020 00/M03 A2977 RMK SF6SC2 SLP084

CYUL;2010-03-23 16:35;CYUL 231635Z 04019G26KT 10SM -DZ BKN013 OVC020 00/ RMK SF6SC2

CYUL;2010-03-23 17:00;CYUL 231700Z 04021G26KT 10SM -DZ OVC012 00/M03 A2973 RMK SF8 SLP070

CYUL;2010-03-23 18:00;CYUL 231800Z 04019G24KT 6SM -RA BR FEW008 OVC013 00/M03 A2970 RMK SF2SF6 SLP059

CYUL;2010-03-23 19:00;CYUL 231900Z 04017KT 8SM -RA FEW009 OVC014 00/M02 A2968 RMK SF2SF6 SLP053

CYUL;2010-03-23 19:29;CYUL 231929Z 04016G21KT 2 1/2SM -RA BR SCT009 OVC012 00/ RMK SF3SF5

CYUL;2010-03-23 19:42;CYUL 231942Z 04017KT 2SM -RA BR BKN008 OVC012 00/ RMK SF5SF3

CYUL;2010-03-23 20:00;CYUL 232000Z 04018KT 2 1/4SM -RA BR BKN008 OVC012 00/M02 A2967 RMK SF6SF2 SLP050

CYUL;2010-03-23 20:23;CYUL 232023Z 04017KT 3SM -RA BR SCT008 OVC013 00/ RMK SF4SF4

CYUL;2010-03-23 21:00;CYUL 232100Z 04013G20KT 6SM -DZ BR FEW009 OVC012 01/M02 A2965 RMK SF2SF6 SLP043

CYUL;2010-03-23 22:00;CYUL 232200Z 04013G20KT 4SM -DZ BR FEW008 OVC012 00/M02 A2966 RMK SF2SF6 SLP046

CYUL;2010-03-23 22:15;CYUL 232215Z 04015G20KT 4SM -DZSN BR FEW009 OVC012 00/ RMK SF2SF6

CYUL;2010-03-23 22:34;CYUL 232234Z 04012KT 4SM -SN BR SCT009 OVC012 00/ RMK SF4SF4

CYUL;2010-03-23 23:00;CYUL 232300Z 03012KT 6SM -SN SCT008 OVC011 00/M02 A2966 RMK SF3SF5 SLP045

CYUL;2010-03-23 23:25;CYUL 232325Z 03014KT 4SM -DZ BKN007 OVC011 00/ RMK SF5SF3

CYUL;2010-03-23 23:56;CYUL 232356Z 03013KT 4SM -FZDZ BKN007 OVC011 00/ RMK SF5SF3

CYUL;2010-03-24 00:00;CYUL 240000Z 03013KT 4SM -FZDZ OVC009 00/M02 A2965 RMK SF8 SLP043

CYUL;2010-03-24 01:00;CYUL 240100Z 03010KT 4SM -FZDZ OVC006 00/M02 A2966 RMK SF8 SLP044

CYUL;2010-03-24 01:22;CYUL 240122Z 03012KT 4SM -DZ BKN006 OVC011 00/ RMK SF6SF2 REFZDZ

CYUL;2010-03-24 02:00;CYUL 240200Z 02011KT 4SM -DZ BR OVC007 00/M02 A2966 REFZDZ RMK SF8 SLP044

CYUL;2010-03-24 03:00;CYUL 240300Z 02011G16KT 4SM -DZ BR BKN007 OVC012 00/M02 A2965 RMK SF6SF2 SLP041

CYUL;2010-03-24 03:11;CYUL 240311Z 02013KT 4SM -DZSN BKN007 OVC012 00/ RMK SF6SF2

CYUL;2010-03-24 04:00;CYUL 240400Z 02010KT 5SM -DZSN BKN008 OVC012 00/M02 A2965 RMK SF5SF3 SLP042

CYUL;2010-03-24 04:15;CYUL 240415Z 35009KT 2 1/2SM -SN BKN007 OVC012 00/ RMK SF6SF2

CYUL;2010-03-24 05:00;CYUL 240500Z 35007KT 3SM -SN BKN007 BKN013 OVC020 M00/M02 A2964 RMK SF6SF2SC1 SLP040

CYUL;2010-03-24 05:50;CYUL 240550Z 33006KT 2SM -SN BKN008 OVC012 M00/ RMK SF6SF2

CYUL;2010-03-24 06:00;CYUL 240600Z 33007KT 2SM -SN BKN007 OVC013 M00/M02 A2965 RMK SF6SF2 SLP043

CYUL;2010-03-24 06:15;CYUL 240615Z 33006KT 3SM -SN BKN007 BKN013 OVC018 M00/ RMK SF5SF2SC1

CYUL;2010-03-24 06:46;CYUL 240646Z 32005KT 4SM -SN FEW007 BKN014 OVC025 M00/ RMK SF2SC4SC2

CYUL;2010-03-24 07:00;CYUL 240700Z 32006KT 6SM -SN FEW007 SCT014 BKN025 OVC060 M00/M02 A2965 RMK SF1SF2SC3SC2 SLP044

CYUL;2010-03-24 08:00;CYUL 240800Z 31004KT 10SM BKN038 BKN060 OVC075 M00/M03 A2965 RMK SC6SC2AC1 SLP044

CYUL;2010-03-24 09:00;CYUL 240900Z 31004KT 15SM FEW035 OVC048 M00/M03 A2967 RMK SC2SC6 SLP049

CYUL;2010-03-24 10:00;CYUL 241000Z 29006KT 15SM BKN038 OVC050 M00/M03 A2969 RMK SC6SC2 SLP056

CYUL;2010-03-24 11:00;CYUL 241100Z 31005KT 15SM FEW030 OVC050 M00/M03 A2970 RMK SC1SC7 SLP060

CYUL;2010-03-24 12:00;CYUL 241200Z 30005KT 15SM BKN050 M00/M03 A2972 RMK SC7 SLP066

CYUL;2010-03-24 13:00;CYUL 241300Z 29006KT 15SM FEW030 BKN060 BKN150 00/M04 A2974 RMK SC1SC5AC2 SLP072

CYUL;2010-03-24 14:00;CYUL 241400Z 29009KT 15SM FEW030 FEW060 BKN150 01/M03 A2974 RMK SC1SC1AC2 SLP074

CYUL;2010-03-24 15:00;CYUL 241500Z 31010G15KT 15SM SCT030 SCT150 03/M02 A2975 RMK CU3AC0 SLP078

CYUL;2010-03-24 16:00;CYUL 241600Z 32011KT 15SM SCT035 05/M03 A2975 RMK CU4 SLP078

CYUL;2010-03-24 17:00;CYUL 241700Z CCB 29014KT 15SM SCT040 SCT180 06/M02 A2976 RMK CU3AC0 SLP079

CYUL;2010-03-24 18:00;CYUL 241800Z CCA 28014KT 15SM FEW045 SCT180 08/M01 A2977 RMK CU2AC0 SLP081

CYUL;2010-03-24 19:00;CYUL 241900Z 30012G20KT 15SM FEW045 FEW180 09/M02 A2977 RMK CU1AC1 SLP081

CYUL;2010-03-24 20:00;CYUL 242000Z 29014G22KT 30SM FEW045 FEW150 10/M03 A2976 RMK CU1AC1 SLP080

CYUL;2010-03-24 21:00;CYUL 242100Z 29015KT 30SM FEW050 FEW150 10/M04 A2977 RMK CU1AC1 SLP084

CYUL;2010-03-24 22:00;CYUL 242200Z 31014G22KT 30SM FEW150 10/M06 A2979 RMK AC1 SLP088

CYUL;2010-03-24 23:00;CYUL 242300Z 29008KT 30SM FEW240 08/M06 A2981 RMK CI1 SLP096

CYUL;2010-03-25 00:00;CYUL 250000Z 27006KT 15SM SKC 07/M06 A2983 RMK SLP101

CYUL;2010-03-25 01:00;CYUL 250100Z 26004KT 15SM SKC 05/M06 A2984 RMK SLP106

CYUL;2010-03-25 02:00;CYUL 250200Z 28005KT 15SM SKC 03/M05 A2985 RMK SLP111

CYUL;2010-03-25 03:00;CYUL 250300Z 27005KT 15SM SKC 04/M06 A2986 RMK SLP115

CYUL;2010-03-25 04:00;CYUL 250400Z 25009KT 15SM SKC 04/M05 A2987 RMK SLP117

CYUL;2010-03-25 05:00;CYUL 250500Z 28005KT 15SM SKC 02/M04 A2988 RMK SLP122

CYUL;2010-03-25 06:00;CYUL 250600Z 23003KT 15SM SKC 03/M04 A2989 RMK SLP123

CYUL;2010-03-25 07:00;CYUL 250700Z 24006KT 15SM SKC 02/M03 A2988 RMK SLP120

CYUL;2010-03-25 08:00;CYUL 250800Z 20003KT 15SM SKC 02/M04 A2987 RMK SLP117

CYUL;2010-03-25 09:00;CYUL 250900Z 22006KT 15SM SKC 02/M03 A2987 RMK SLP117

CYUL;2010-03-25 10:00;CYUL 251000Z 22005KT 15SM SKC 02/M03 A2987 RMK SLP116

CYUL;2010-03-25 11:00;CYUL 251100Z 23006KT 30SM FEW240 03/M04 A2987 RMK CI1 SLP117

CYUL;2010-03-25 12:00;CYUL 251200Z 23009KT 30SM FEW240 04/M04 A2986 RMK CI0 SLP112

CYUL;2010-03-25 13:00;CYUL 251300Z 22012KT 30SM FEW240 05/M03 A2984 RMK CI0 SLP106

CYUL;2010-03-25 14:00;CYUL 251400Z 23011KT 30SM BKN240 06/M02 A2982 RMK CI0 SLP099

CYUL;2010-03-25 15:00;CYUL 251500Z 22013G18KT 30SM FEW150 BKN230 08/M02 A2979 RMK AC0CI0 SLP088

CYUL;2010-03-25 16:00;CYUL 251600Z 23012G17KT 30SM FEW150 BKN230 11/M01 A2976 RMK AC0CI0 SLP079

CYUL;2010-03-25 17:00;CYUL 251700Z CCB 24024G29KT 30SM FEW180 BKN200 13/M02 A2972 RMK AS2CI0 SLP066

CYUL;2010-03-25 18:00;CYUL 251800Z 23022G27KT 30SM FEW060 SCT180 BKN240 13/M02 A2969 RMK CF1AS2CI0 SLP056

CYUL;2010-03-25 19:00;CYUL 251900Z 23021G28KT 30SM FEW060 BKN170 OVC240 12/M02 A2968 RMK CU1AS5CI0 SLP053

CYUL;2010-03-25 20:00;CYUL 252000Z 23019G29KT 30SM FEW060 SCT160 OVC210 13/M03 A2966 RMK CF1AS3CI1 SLP044

CYUL;2010-03-25 21:00;CYUL 252100Z 24023G29KT 30SM FEW150 BKN180 OVC210 12/M04 A2965 RMK AC2AS4CI0 SLP041

CYUL;2010-03-25 22:00;CYUL 252200Z 24017G22KT 15SM SCT080 OVC180 12/M02 A2965 RMK AC3AS2 SLP042

CYUL;2010-03-25 23:00;CYUL 252300Z 33014G19KT 30SM BKN070 OVC180 07/M03 A2967 RMK AC6AS2 SLP050

CYUL;2010-03-26 00:00;CYUL 260000Z 33010G19KT 15SM BKN055 OVC150 06/M06 A2970 RMK SC5AS2 SLP060

CYUL;2010-03-26 01:00;CYUL 260100Z 33015KT 15SM OVC059 03/M09 A2976 RMK SC8 SLP078

CYUL;2010-03-26 02:00;CYUL 260200Z 32016KT 15SM OVC060 02/M14 A2980 RMK SC8 SLP094

CYUL;2010-03-26 03:00;CYUL 260300Z 35014KT 15SM OVC066 00/M16 A2985 RMK AC8 SLP110

CYUL;2010-03-26 04:00;CYUL 260400Z 01018KT 15SM OVC070 M02/M15 A2989 RMK AC8 SLP122

CYUL;2010-03-26 05:00;CYUL 260500Z 02014G19KT 15SM BKN072 M03/M17 A2992 RMK AC6 SLP132

CYUL;2010-03-26 06:00;CYUL 260600Z 36012KT 15SM BKN080 M04/M17 A2995 RMK AC6 SLP143

CYUL;2010-03-26 07:00;CYUL 260700Z 01013G18KT 15SM FEW080 BKN240 M05/M18 A2996 RMK AC1CI3 SLP146

CYUL;2010-03-26 08:00;CYUL 260800Z 36012KT 15SM FEW240 M07/M18 A2999 RMK CI1 SLP156

CYUL;2010-03-26 09:00;CYUL 260900Z 01012G18KT 15SM FEW240 M08/M19 A3002 RMK CI1 SLP169

CYUL;2010-03-26 10:00;CYUL 261000Z 02014KT 15SM FEW240 M09/M20 A3005 RMK CI1 SLP179

CYUL;2010-03-26 11:00;CYUL 261100Z 36014KT 15SM FEW240 M10/M20 A3007 RMK CI1 SLP185

CYUL;2010-03-26 12:00;CYUL 261200Z 02011KT 15SM SCT240 M10/M21 A3012 RMK CI1 SLP203

CYUL;2010-03-26 13:00;CYUL 261300Z 36009KT 30SM FEW240 M10/M20 A3015 RMK CI1 SLP210

CYUL;2010-03-26 14:00;CYUL 261400Z 02010KT 30SM FEW240 M09/M20 A3016 RMK CI1 SLP215

CYUL;2010-03-26 15:00;CYUL 261500Z 36009KT 30SM FEW240 M08/M21 A3017 RMK CI1 SLP221

CYUL;2010-03-26 16:00;CYUL 261600Z 36007KT 30SM FEW240 M08/M20 A3017 RMK CI1 SLP220

CYUL;2010-03-26 17:00;CYUL 261700Z 36008KT 30SM FEW240 M06/M21 A3016 RMK CI0 SLP217

CYUL;2010-03-26 18:00;CYUL 261800Z 35004KT 30SM FEW240 M05/M22 A3014 RMK CI0 SLP210

CYUL;2010-03-26 19:00;CYUL 261900Z 31003KT 30SM FEW240 M04/M22 A3013 RMK CI1 SLP207

CYUL;2010-03-26 20:00;CYUL 262000Z 21010KT 30SM FEW240 M04/M20 A3013 RMK CI1 SLP206

CYUL;2010-03-26 21:00;CYUL 262100Z 16004KT 30SM FEW240 M03/M20 A3013 RMK CI1 SLP206

CYUL;2010-03-26 22:00;CYUL 262200Z 21008KT 30SM FEW240 M03/M20 A3015 RMK CI0 SLP211

CYUL;2010-03-26 23:00;CYUL 262300Z 20003KT 30SM FEW240 M03/M20 A3016 RMK CI1 SLP217

CYUL;2010-03-27 00:00;CYUL 270000Z 31010KT 15SM SKC M04/M21 A3019 RMK SLP226

CYUL;2010-03-27 01:00;CYUL 270100Z 32010KT 15SM SKC M04/M21 A3023 RMK SLP239

CYUL;2010-03-27 02:00;CYUL 270200Z 33007KT 15SM SKC M05/M20 A3025 RMK SLP246

CYUL;2010-03-27 03:00;CYUL 270300Z 34010KT 15SM SKC M05/M20 A3026 RMK SLP251

CYUL;2010-03-27 04:00;CYUL 270400Z 35006KT 15SM SKC M06/M20 A3027 RMK SLP253

CYUL;2010-03-27 05:00;CYUL 270500Z 01007KT 15SM SKC M06/M20 A3029 RMK SLP259

CYUL;2010-03-27 06:00;CYUL 270600Z 03009KT 15SM SKC M06/M19 A3031 RMK SLP265

CYUL;2010-03-27 07:00;CYUL 270700Z 04009KT 15SM SKC M07/M19 A3033 RMK SLP273

CYUL;2010-03-27 08:00;CYUL 270800Z 04007KT 15SM SKC M07/M18 A3036 RMK SLP282

CYUL;2010-03-27 09:00;CYUL 270900Z 06009KT 15SM SKC M08/M19 A3038 RMK SLP289

CYUL;2010-03-27 10:00;CYUL 271000Z 06008KT 15SM SKC M08/M20 A3040 RMK SLP296

CYUL;2010-03-27 11:00;CYUL 271100Z 09008KT 15SM SKC M09/M21 A3042 RMK SLP304

CYUL;2010-03-27 12:00;CYUL 271200Z 08009KT 15SM FEW100 M08/M22 A3045 RMK AC1 SLP315

CYUL;2010-03-27 13:00;CYUL 271300Z 11003KT 30SM FEW075 FEW240 M07/M21 A3047 RMK AC0CI0 SLP322

CYUL;2010-03-27 14:00;CYUL 271400Z 02003KT 30SM FEW150 FEW240 M05/M20 A3048 RMK AC1CI1 SLP325

CYUL;2010-03-27 15:00;CYUL 271500Z 11003KT 30SM FEW150 FEW240 M05/M19 A3047 RMK AC1CI1 SLP322

CYUL;2010-03-27 16:00;CYUL 271600Z 18005KT 30SM FEW150 FEW240 M03/M18 A3044 RMK AC1CI1 SLP312

CYUL;2010-03-27 17:00;CYUL 271700Z 15006KT 30SM FEW180 FEW240 M03/M17 A3043 RMK AC1CI0 SLP307

CYUL;2010-03-27 18:00;CYUL 271800Z 12008KT 30SM BKN070 BKN240 M01/M16 A3041 RMK AS3CI0 SLP301

CYUL;2010-03-27 19:00;CYUL 271900Z CCA 16003KT 30SM FEW070 SCT150 BKN220 M00/M06 A3039 RMK AC2AC1CI0 SLP292

CYUL;2010-03-27 20:00;CYUL 272000Z 13004KT 30SM FEW070 BKN210 00/M16 A3037 RMK AC2CI1 SLP286

CYUL;2010-03-27 21:00;CYUL 272100Z 15007KT 30SM BKN065 OVC150 00/M15 A3035 RMK SC5AS2 SLP281

CYUL;2010-03-27 22:00;CYUL 272200Z 16010KT 30SM FEW065 BKN230 00/M14 A3034 RMK SC2CI2 SLP276

CYUL;2010-03-27 23:00;CYUL 272300Z 15007KT 30SM FEW065 FEW150 BKN230 M00/M13 A3033 RMK SC1AC2CI0 SLP274

CYUL;2010-03-28 00:00;CYUL 280000Z 12007KT 15SM FEW120 SCT240 M01/M13 A3033 RMK AC1CI0 SLP272

CYUL;2010-03-28 01:00;CYUL 280100Z 11004KT 15SM FEW150 M00/M13 A3031 RMK AC1 SLP267

CYUL;2010-03-28 02:00;CYUL 280200Z 10005KT 15SM FEW150 M00/M13 A3029 RMK AC2 SLP261

CYUL;2010-03-28 03:00;CYUL 280300Z 10004KT 15SM FEW150 M01/M13 A3028 RMK AC1 SLP256

CYUL;2010-03-28 04:00;CYUL 280400Z 09005KT 15SM SCT100 M01/M13 A3028 RMK AC2 SLP255

CYUL;2010-03-28 05:00;CYUL 280500Z 09004KT 15SM SCT100 M00/M12 A3027 RMK AC2 SLP252

CYUL;2010-03-28 06:00;CYUL 280600Z 08005KT 15SM SCT240 M00/M11 A3024 RMK CI2 SLP242

CYUL;2010-03-28 07:00;CYUL 280700Z 05004KT 15SM FEW240 M00/M10 A3022 RMK CI1 SLP236

CYUL;2010-03-28 08:00;CYUL 280800Z 04004KT 15SM FEW240 M01/M10 A3021 RMK CI1 SLP233

CYUL;2010-03-28 09:00;CYUL 280900Z 04005KT 15SM SCT150 SCT240 M02/M09 A3020 RMK AC2CI1 SLP227

CYUL;2010-03-28 10:00;CYUL 281000Z 12004KT 15SM BKN180 M01/M09 A3017 RMK AC3 SLP220

CYUL;2010-03-28 11:00;CYUL 281100Z 13006KT 15SM BKN150 M00/M08 A3016 RMK AC5 SLP215

CYUL;2010-03-28 12:00;CYUL 281200Z 15010KT 15SM BKN110 01/M08 A3015 RMK AC6 SLP210

CYUL;2010-03-28 13:00;CYUL 281300Z 16010KT 15SM FEW055 BKN120 BKN240 02/M08 A3014 RMK SC1AC5CI2 SLP207

CYUL;2010-03-28 14:00;CYUL 281400Z 16005KT 30SM BKN170 OVC200 03/M08 A3013 RMK AS6CS2 SLP206

CYUL;2010-03-28 15:00;CYUL 281500Z 18006KT 30SM BKN170 OVC200 04/M07 A3012 RMK AS6CS2 SLP203

CYUL;2010-03-28 16:00;CYUL 281600Z 16013KT 30SM FEW170 OVC200 05/M06 A3011 RMK AC2CS6 SLP197

CYUL;2010-03-28 17:00;CYUL 281700Z 17014KT 30SM FEW170 OVC200 07/M05 A3008 RMK AC1CS6 SLP187

CYUL;2010-03-28 18:00;CYUL 281800Z 17016KT 30SM FEW120 BKN180 OVC220 07/M04 A3007 RMK AC1AC5CS2 SLP185

CYUL;2010-03-28 19:00;CYUL 281900Z 15015KT 30SM FEW120 FEW160 OVC210 08/M03 A3003 RMK AC1AC2CS5 SLP171

CYUL;2010-03-28 20:00;CYUL 282000Z 19014KT 30SM FEW120 FEW180 OVC240 09/M06 A3001 RMK AC1AC2CS6 SLP166

CYUL;2010-03-28 21:00;CYUL 282100Z 16015KT 30SM FEW120 BKN150 OVC240 07/M03 A3000 RMK AC1AS7CS1 SLP161

CYUL;2010-03-28 22:00;CYUL 282200Z 17014G19KT 30SM FEW090 OVC110 06/M03 A3001 RMK AC2AS6 SLP165

CYUL;2010-03-28 23:00;CYUL 282300Z 15012KT 15SM FEW040 BKN050 OVC090 06/M03 A3001 RMK SC1SC6AS1 SLP166

CYUL;2010-03-29 00:00;CYUL 290000Z 15007KT 15SM BKN045 OVC090 05/M02 A3001 RMK SC6AS2 SLP164

CYUL;2010-03-29 01:00;CYUL 290100Z 15010KT 15SM OVC042 05/M02 A3001 RMK SC8 SLP165

CYUL;2010-03-29 01:21;CYUL 290121Z 16010KT 15SM -RA OVC038 05/ RMK SC8

CYUL;2010-03-29 02:00;CYUL 290200Z 17011KT 12SM -RA OVC033 05/M00 A3002 RMK SC8 SLP167

CYUL;2010-03-29 03:00;CYUL 290300Z 15008KT 15SM -RA OVC033 04/01 A3001 RMK SC8 SLP165

CYUL;2010-03-29 03:40;CYUL 290340Z 14009KT 15SM -RA FEW009 OVC030 04/ RMK SF2SC6

CYUL;2010-03-29 04:00;CYUL 290400Z 15012KT 15SM -RA SCT009 OVC029 04/01 A2999 RMK SF3SC5 SLP159

CYUL;2010-03-29 05:00;CYUL 290500Z 14010KT 15SM -RA FEW009 OVC033 03/01 A2996 RMK SF2SC6 SLP148

CYUL;2010-03-29 06:00;CYUL 290600Z 14012KT 15SM -RA FEW009 OVC035 03/02 A2992 RMK SF2SC6 /R10/ SLP132

CYUL;2010-03-29 07:00;CYUL 290700Z 13011G17KT 15SM -RA SCT009 OVC035 04/02 A2986 RMK SF3SC5 SLP113

CYUL;2010-03-29 08:00;CYUL 290800Z 12008KT 15SM -RA SCT008 OVC035 04/02 A2983 RMK SF3SC5 SLP104

CYUL;2010-03-29 09:00;CYUL 290900Z 10006KT 15SM -RA FEW009 OVC029 04/02 A2981 RMK SF2SC6 SLP097

CYUL;2010-03-29 10:00;CYUL 291000Z 10005KT 15SM -RA FEW009 BKN020 OVC035 04/02 A2979 RMK SF2SC4SC2 SLP089

CYUL;2010-03-29 10:53;CYUL 291053Z 06002KT 6SM -RA BKN008 OVC016 05/ RMK SF5SC3

CYUL;2010-03-29 11:00;CYUL 291100Z 06004KT 6SM -RA BKN008 OVC016 05/03 A2978 RMK SF5SC3 SLP087

CYUL;2010-03-29 12:00;CYUL 291200Z 03005KT 8SM -RA OVC006 05/03 A2977 RMK SF8 SLP081

CYUL;2010-03-29 12:43;CYUL 291243Z 03005KT 6SM -RA OVC004 05/ RMK SF8 VIS 21/2 W NW

CYUL;2010-03-29 13:00;CYUL 291300Z 01005KT 4SM -RA OVC005 05/03 A2977 RMK SF8 SLP081

CYUL;2010-03-29 13:33;CYUL 291333Z 03005KT 3SM -RA FEW003 OVC006 05/ RMK SF2SF6

CYUL;2010-03-29 13:48;CYUL 291348Z 02005KT 6SM -RA BKN003 OVC006 05/ RMK SF5SF3 VIS 2 W NW

CYUL;2010-03-29 14:00;CYUL 291400Z 01004KT 4SM -RA BR OVC004 05/03 A2977 RMK SF8 SLP082

CYUL;2010-03-29 15:00;CYUL 291500Z 35008KT 4SM -RA BR OVC004 04/03 A2977 RMK SF8 SLP083

CYUL;2010-03-29 16:00;CYUL 291600Z 34008KT 8SM -RA OVC005 04/02 A2977 RMK SF8 SLP081

CYUL;2010-03-29 17:00;CYUL 291700Z 01008KT 10SM -DZ OVC005 05/03 A2978 RMK SF8 SLP085

CYUL;2010-03-29 17:38;CYUL 291738Z 35006KT 10SM -RA OVC006 05/ RMK SF8

CYUL;2010-03-29 18:00;CYUL 291800Z 35007KT 8SM -RA BKN007 OVC010 05/03 A2980 RMK SF6SC2 SLP091

CYUL;2010-03-29 18:47;CYUL 291847Z 34005KT 12SM -RA SCT008 BKN013 OVC020 05/ RMK SF4SC2SC2

CYUL;2010-03-29 19:00;CYUL 291900Z 36005KT 12SM -RA SCT008 BKN012 OVC020 05/03 A2980 RMK SF4SC3SC1 SLP094

CYUL;2010-03-29 20:00;CYUL 292000Z 32006KT 10SM -RA SCT009 OVC014 05/02 A2982 RMK SF4SC4 SLP098

CYUL;2010-03-29 21:00;CYUL 292100Z 32009KT 12SM -RA SCT009 BKN014 OVC020 05/02 A2985 RMK SF3SC4SC1 SLP109

CYUL;2010-03-29 21:22;CYUL 292122Z 34009KT 15SM -RA FEW010 BKN015 OVC025 05/ RMK SF1SC4SC3

CYUL;2010-03-29 22:00;CYUL 292200Z 04003KT 15SM -SHRA FEW015 OVC029 05/02 A2988 RMK SC2SC6 SLP119

CYUL;2010-03-29 22:42;CYUL 292242Z 00000KT 15SM FEW016 BKN030 05/ RMK SC1SC6

CYUL;2010-03-29 23:00;CYUL 292300Z 00000KT 15SM FEW016 SCT035 05/02 A2990 RMK SC1SC3 SLP126

CYUL;2010-03-30 00:00;CYUL 300000Z 23004KT 15SM FEW020 BKN040 05/02 A2993 RMK SC1SC6 SLP135

CYUL;2010-03-30 01:00;CYUL 300100Z 00000KT 15SM BKN038 04/02 A2995 RMK SC6 SLP142

CYUL;2010-03-30 02:00;CYUL 300200Z 01005KT 15SM BKN030 BKN050 05/02 A2997 RMK SC5SC2 SLP149

CYUL;2010-03-30 03:00;CYUL 300300Z 01006KT 15SM FEW120 03/M00 A2998 RMK AC1 SLP154

CYUL;2010-03-30 04:00;CYUL 300400Z 35003KT 15SM FEW120 02/M01 A2999 RMK AC1 SLP159

CYUL;2010-03-30 05:00;CYUL 300500Z 35003KT 15SM SKC 02/M01 A3001 RMK SLP163

CYUL;2010-03-30 06:00;CYUL 300600Z 01003KT 15SM SKC 01/M02 A3002 RMK SLP168

CYUL;2010-03-30 07:00;CYUL 300700Z 03002KT 15SM SKC 01/M02 A3002 RMK SLP169

CYUL;2010-03-30 08:00;CYUL 300800Z 36006KT 15SM SKC 00/M02 A3001 RMK SLP165

CYUL;2010-03-30 09:00;CYUL 300900Z 04006KT 15SM FEW240 02/M02 A3002 RMK CI0 SLP168

CYUL;2010-03-30 10:00;CYUL 301000Z 01008KT 15SM FEW180 BKN240 01/M03 A3003 RMK AC2CI0 SLP171

CYUL;2010-03-30 11:00;CYUL 301100Z 03012KT 15SM FEW120 BKN180 01/M03 A3003 RMK AC1AS2 SLP171

CYUL;2010-03-30 12:00;CYUL 301200Z 04013KT 15SM SCT060 BKN150 01/M03 A3006 RMK SC3AS3 SLP180

CYUL;2010-03-30 13:00;CYUL 301300Z 03013KT 15SM FEW060 OVC130 01/M03 A3004 RMK SC2AS5 SLP175

CYUL;2010-03-30 14:00;CYUL 301400Z 04014KT 15SM FEW120 OVC180 02/M02 A3004 RMK AC2AS6 SLP174

CYUL;2010-03-30 15:00;CYUL 301500Z 03014G21KT 15SM FEW120 FEW180 OVC240 03/M01 A3003 RMK AC1AC2CS6 SLP170

CYUL;2010-03-30 16:00;CYUL 301600Z 04018G24KT 15SM FEW020 FEW120 OVC220 05/M01 A3002 RMK SC1AC1CS6 SLP169

CYUL;2010-03-30 17:00;CYUL 301700Z 05019G25KT 15SM FEW020 BKN100 OVC180 05/M00 A2999 RMK SC2AC4AS2 SLP159

CYUL;2010-03-30 18:00;CYUL 301800Z 04021G28KT 15SM SCT020 BKN100 OVC200 06/M00 A2998 RMK SC3AC2CS3 SLP153

CYUL;2010-03-30 19:00;CYUL 301900Z 04020G26KT 15SM FEW022 SCT070 OVC090 06/M00 A2994 RMK SC2AC2AS4 SLP140

CYUL;2010-03-30 19:38;CYUL 301938Z 04020G25KT 15SM -SHRA FEW022 BKN060 OVC090 06/ RMK SC2SC5AS1

CYUL;2010-03-30 20:00;CYUL 302000Z 03022KT 15SM -SHRA FEW022 BKN055 OVC090 06/01 A2992 RMK SC2SC6AS1 SLP134

CYUL;2010-03-30 21:00;CYUL 302100Z 04020G26KT 30SM FEW022 BKN055 OVC070 06/M00 A2990 RMK SC1SC6AS2 SLP128

CYUL;2010-03-30 22:00;CYUL 302200Z 05020G27KT 15SM BKN045 OVC070 06/M01 A2989 RMK SC7AS1 SLP124

CYUL;2010-03-30 23:00;CYUL 302300Z 04023G31KT 15SM BKN045 OVC070 06/M02 A2988 RMK SC7AS1 SLP121

CYUL;2010-03-31 00:00;CYUL 310000Z 04017G26KT 15SM -SHRA FEW035 OVC055 05/M01 A2988 RMK SC2SC6 SLP121

CYUL;2010-03-31 01:00;CYUL 310100Z 04019G24KT 15SM -RA FEW015 SCT025 OVC045 04/00 A2989 RMK SF1SC2SC5 SLP124

CYUL;2010-03-31 02:00;CYUL 310200Z 03020KT 15SM -RA SCT012 OVC050 04/01 A2989 RMK SF3SC5 SLP123

CYUL;2010-03-31 03:00;CYUL 310300Z 04018KT 15SM SCT013 OVC075 04/00 A2988 RMK SF3AC5 SLP121

CYUL;2010-03-31 04:00;CYUL 310400Z 03017G24KT 15SM -RA FEW012 SCT055 OVC075 03/00 A2988 RMK SF2SC2AC4 SLP119

CYUL;2010-03-31 05:00;CYUL 310500Z 04015G20KT 15SM FEW012 BKN060 OVC090 04/M00 A2987 RMK SF1SC6AC2 SLP116

CYUL;2010-03-31 06:00;CYUL 310600Z 03014G21KT 15SM FEW015 OVC070 04/M00 A2986 RMK SF2AC6 SLP114

CYUL;2010-03-31 07:00;CYUL 310700Z 04017KT 15SM FEW015 OVC070 04/00 A2986 RMK SF1AC7 SLP112

CYUL;2010-03-31 08:00;CYUL 310800Z 03016G22KT 15SM BKN013 OVC070 04/01 A2986 RMK SF5AC3 SLP112

CYUL;2010-03-31 09:00;CYUL 310900Z 04015G24KT 15SM -RA BKN013 OVC065 04/01 A2986 RMK SF7SC1 SLP113

CYUL;2010-03-31 09:35;CYUL 310935Z 03017G24KT 15SM BKN012 OVC065 04/ RMK SF7SC1

CYUL;2010-03-31 10:00;CYUL 311000Z 04014G20KT 15SM BKN012 OVC150 04/01 A2987 RMK SF6AC2 SLP115

CYUL;2010-03-31 11:00;CYUL 311100Z 03014KT 15SM OVC012 04/01 A2989 RMK SF8 SLP122

CYUL;2010-03-31 12:00;CYUL 311200Z 04012G17KT 15SM OVC011 04/01 A2991 RMK SC8 SLP130

CYUL;2010-03-31 13:00;CYUL 311300Z 04012G20KT 15SM OVC012 05/01 A2993 RMK SC8 SLP135

CYUL;2010-03-31 14:00;CYUL 311400Z 03016KT 15SM OVC013 05/02 A2994 RMK SC8 SLP140

CYUL;2010-03-31 15:00;CYUL 311500Z 04016G21KT 15SM OVC015 06/02 A2995 RMK SC8 SLP144

CYUL;2010-03-31 16:00;CYUL 311600Z 03016G22KT 15SM SCT017 OVC035 08/03 A2995 RMK SC4SC3 SLP144

CYUL;2010-03-31 17:00;CYUL 311700Z 03013G19KT 15SM SCT020 BKN033 OVC240 10/04 A2996 RMK SC3SC3CI1 SLP146

CYUL;2010-03-31 18:00;CYUL 311800Z 05013G19KT 15SM BKN025 BKN035 OVC240 11/04 A2995 RMK SC6SC2CI0 SLP143

CYUL;2010-03-31 19:00;CYUL 311900Z 04015KT 15SM BKN025 BKN035 BKN240 11/04 A2994 RMK SC5SC2CI1 SLP140

CYUL;2010-03-31 20:00;CYUL 312000Z 06013KT 15SM BKN028 11/04 A2994 RMK SC7 SLP140

CYUL;2010-03-31 21:00;CYUL 312100Z 05012KT 15SM BKN026 BKN240 12/05 A2994 RMK SC7CI1 SLP141

CYUL;2010-03-31 22:00;CYUL 312200Z 06008KT 15SM BKN029 OVC240 12/05 A2998 RMK SC7CI0 SLP152

CYUL;2010-03-31 23:00;CYUL 312300Z 06006KT 15SM FEW028 SCT220 BKN250 11/05 A2999 RMK SC2CI1CI1 SLP156

CYUL;2010-04-01 01:00;CYUL 010100Z 04009KT 15SM FEW025 BKN240 09/03 A3002 RMK SC1CI4 SLP168

CYUL;2010-04-01 02:00;CYUL 010200Z 06007KT 15SM BKN240 08/03 A3003 RMK CI3 SLP170

CYUL;2010-04-01 03:00;CYUL 010300Z 05007KT 15SM BKN240 07/02 A3004 RMK CI2 SLP174

CYUL;2010-04-01 04:00;CYUL 010400Z 03007KT 15SM SCT230 05/02 A3007 RMK CI2 SLP185

CYUL;2010-04-01 05:00;CYUL 010500Z 02006KT 15SM FEW230 04/01 A3007 RMK CI0 SLP185

CYUL;2010-04-01 06:00;CYUL 010600Z 04009KT 15SM FEW230 04/01 A3007 RMK CI0 SLP184

CYUL;2010-04-01 07:00;CYUL 010700Z 01006KT 15SM FEW230 03/00 A3009 RMK CI0 SLP189

CYUL;2010-04-01 08:00;CYUL 010800Z 03009KT 15SM FEW230 03/00 A3010 RMK CI0 SLP193

CYUL;2010-04-01 09:00;CYUL 010900Z 02006KT 15SM FEW240 02/M00 A3012 RMK CI0 SLP200

CYUL;2010-04-01 10:00;CYUL 011000Z 04006KT 15SM FEW055 BKN240 03/M00 A3013 RMK CU1CI3 SLP205

CYUL;2010-04-01 10:22;CYUL 011022Z 04006KT 15SM SCT006 OVC240 03/ RMK SF4CI2

CYUL;2010-04-01 10:24;CYUL 011024Z 04006KT 15SM BKN006 OVC240 03/ RMK SF6CI2

CYUL;2010-04-01 11:00;CYUL 011100Z 08006KT 6SM HZ OVC005 02/M00 A3014 RMK SF8 SLP209

CYUL;2010-04-01 11:21;CYUL 011121Z 06005KT 6SM HZ OVC004 02/ RMK SF8

CYUL;2010-04-01 12:00;CYUL 011200Z 06005KT 4SM HZ OVC004 03/01 A3014 RMK SF8 SLP209

CYUL;2010-04-01 12:38;CYUL 011238Z 01004KT 4SM HZ OVC005 03/ RMK SF8

CYUL;2010-04-01 13:00;CYUL 011300Z 02003KT 3SM HZ OVC005 03/01 A3015 RMK SF8 SLP212

CYUL;2010-04-01 14:00;CYUL 011400Z 05006KT 4SM HZ OVC006 05/02 A3014 RMK SF8 SLP209

CYUL;2010-04-01 15:00;CYUL 011500Z 03006KT 4SM HZ OVC007 05/03 A3015 RMK SF8 SLP210

CYUL;2010-04-01 16:00;CYUL 011600Z 02007KT 8SM BKN009 OVC013 06/03 A3014 RMK SF6ST2 SLP207

CYUL;2010-04-01 17:00;CYUL 011700Z 02006KT 10SM OVC013 07/03 A3013 RMK ST7 SLP205

CYUL;2010-04-01 17:16;CYUL 011716Z 03004KT 15SM BKN014 BKN022 07/ RMK SF4SC2

CYUL;2010-04-01 17:38;CYUL 011738Z 03006KT 15SM FEW020 BKN180 08/ RMK SC2AC2

CYUL;2010-04-01 18:00;CYUL 011800Z 02006KT 15SM FEW020 SCT180 09/04 A3012 RMK SC1AC2 SLP201

CYUL;2010-04-01 19:00;CYUL 011900Z 05007KT 15SM FEW040 FEW240 11/05 A3009 RMK SC0CI1 SLP190

CYUL;2010-04-01 20:00;CYUL 012000Z 06006KT 30SM SCT240 12/05 A3007 RMK CI1 CONTRAIL SLP185

CYUL;2010-04-01 21:00;CYUL 012100Z 05005KT 30SM SCT240 12/05 A3006 RMK CI1 SLP179

CYUL;2010-04-01 22:00;CYUL 012200Z 05007KT 30SM FEW240 13/06 A3004 RMK CI1 SLP173

CYUL;2010-04-01 23:00;CYUL 012300Z 06007KT 15SM FEW240 13/05 A3004 RMK CI1 SLP172

CYUL;2010-04-02 00:00;CYUL 020000Z 06005KT 15SM FEW240 12/05 A3004 RMK CI1 SLP173

CYUL;2010-04-02 01:00;CYUL 020100Z 05005KT 15SM SKC 11/05 A3005 RMK SLP177

CYUL;2010-04-02 02:00;CYUL 020200Z 05006KT 15SM SKC 10/06 A3004 RMK SLP174

CYUL;2010-04-02 03:00;CYUL 020300Z 02005KT 15SM SKC 08/04 A3004 RMK SLP172

CYUL;2010-04-02 04:00;CYUL 020400Z 03008KT 15SM SKC 07/04 A3003 RMK SLP169

CYUL;2010-04-02 05:00;CYUL 020500Z 02008KT 15SM SKC 07/03 A3003 RMK SLP171

CYUL;2010-04-02 06:00;CYUL 020600Z 03009KT 15SM SKC 06/03 A3002 RMK SLP167

CYUL;2010-04-02 07:00;CYUL 020700Z 03008KT 15SM SKC 06/03 A3002 RMK SLP166

CYUL;2010-04-02 08:00;CYUL 020800Z 03008KT 15SM FEW180 05/03 A3002 RMK AC1 SLP167

CYUL;2010-04-02 09:00;CYUL 020900Z 03008KT 15SM FEW090 05/03 A3003 RMK AC2 SLP169

CYUL;2010-04-02 10:00;CYUL 021000Z 03007KT 15SM FEW120 05/02 A3004 RMK AC0 SLP174

CYUL;2010-04-02 11:00;CYUL 021100Z 03007KT 10SM FEW120 SCT240 05/02 A3005 RMK AC0CI0 SLP177

CYUL;2010-04-02 12:00;CYUL 021200Z 03009KT 12SM FEW120 FEW240 06/03 A3006 RMK AC0CI0 SLP180

CYUL;2010-04-02 13:00;CYUL 021300Z 03008KT 15SM FEW240 07/04 A3007 RMK CI1 SLP182

CYUL;2010-04-02 14:00;CYUL 021400Z 03006KT 15SM SCT240 10/05 A3006 RMK CI1 SLP180

CYUL;2010-04-02 15:00;CYUL 021500Z 02004KT 30SM FEW240 13/06 A3006 RMK CI1 SLP180

CYUL;2010-04-02 16:00;CYUL 021600Z 05003KT 30SM FEW240 18/08 A3004 RMK CI1 SLP172

CYUL;2010-04-02 17:00;CYUL 021700Z 00000KT 30SM FEW240 21/09 A3002 RMK CI1 SLP168

CYUL;2010-04-02 18:00;CYUL 021800Z 09004KT 30SM SCT240 23/09 A3000 RMK CI1 SLP160

CYUL;2010-04-02 19:00;CYUL 021900Z 12005KT 30SM BKN240 25/09 A2999 RMK CI2 SLP155

CYUL;2010-04-02 20:00;CYUL 022000Z 10003KT 30SM SCT240 25/08 A2997 RMK CI1 SLP151

CYUL;2010-04-02 21:00;CYUL 022100Z 13006KT 30SM SCT240 25/10 A2996 RMK CI1 SLP146

CYUL;2010-04-02 22:00;CYUL 022200Z 15006KT 30SM SCT240 25/10 A2996 RMK CI1 SLP145

CYUL;2010-04-02 23:00;CYUL 022300Z 14004KT 15SM BKN240 21/11 A2996 RMK CI2 SLP148

CYUL;2010-04-03 00:00;CYUL 030000Z 15007KT 15SM FEW240 20/09 A2996 RMK CI1 SLP146

CYUL;2010-04-03 01:00;CYUL 030100Z 00000KT 15SM FEW240 18/09 A2997 RMK CI0 SLP149

CYUL;2010-04-03 02:00;CYUL 030200Z 15004KT 15SM SKC 18/08 A2997 RMK SLP150

CYUL;2010-04-03 03:00;CYUL 030300Z 15003KT 15SM SKC 17/08 A2997 RMK SLP149

CYUL;2010-04-03 04:00;CYUL 030400Z 15005KT 15SM SKC 15/07 A2996 RMK SLP148

CYUL;2010-04-03 05:00;CYUL 030500Z 15004KT 15SM FEW240 15/07 A2997 RMK CI1 SLP149

CYUL;2010-04-03 06:00;CYUL 030600Z 13002KT 15SM SKC 14/07 A2997 RMK SLP150

CYUL;2010-04-03 07:00;CYUL 030700Z 14005KT 15SM SKC 14/07 A2998 RMK SLP151

CYUL;2010-04-03 08:00;CYUL 030800Z 14004KT 15SM SKC 14/07 A2997 RMK SLP150

CYUL;2010-04-03 09:00;CYUL 030900Z 14004KT 15SM FEW240 13/06 A2998 RMK CI0 SLP152

CYUL;2010-04-03 10:00;CYUL 031000Z 13003KT 15SM FEW240 12/06 A2999 RMK CI0 SLP156

CYUL;2010-04-03 11:00;CYUL 031100Z 13003KT 30SM FEW240 12/06 A3000 RMK CI0 SLP158

CYUL;2010-04-03 12:00;CYUL 031200Z 14003KT 30SM FEW240 14/08 A3000 RMK CI0 SLP160

CYUL;2010-04-03 13:00;CYUL 031300Z 14005KT 30SM FEW240 17/09 A2999 RMK CI1 SLP158

CYUL;2010-04-03 14:00;CYUL 031400Z 13004KT 30SM FEW240 19/09 A2998 RMK CI1 SLP152

CYUL;2010-04-03 15:00;CYUL 031500Z 09006KT 30SM BKN240 21/09 A2996 RMK CI2 SLP147

CYUL;2010-04-03 16:00;CYUL 031600Z 10006KT 30SM FEW160 BKN240 23/10 A2993 RMK AC1CI2 SLP137

CYUL;2010-04-03 17:00;CYUL 031700Z 10007KT 30SM BKN240 24/10 A2991 RMK CI3 SLP129

CYUL;2010-04-03 18:00;CYUL 031800Z 10009KT 30SM SCT180 BKN240 25/10 A2989 RMK AC2CI3 SLP122

CYUL;2010-04-03 19:00;CYUL 031900Z 09009KT 30SM FEW140 SCT190 OVC240 25/10 A2986 RMK AC2AC2CI3 SLP111

CYUL;2010-04-03 20:00;CYUL 032000Z 13009KT 30SM FEW160 SCT190 OVC240 25/10 A2983 RMK AC2AC2CI4 SLP102

CYUL;2010-04-03 21:00;CYUL 032100Z 14010KT 15SM BKN180 OVC240 25/10 A2981 RMK AC3CS5 SLP094

CYUL;2010-04-03 22:00;CYUL 032200Z 14010KT 30SM FEW160 SCT190 OVC240 24/10 A2979 RMK AC1AC2CS4 SLP089

CYUL;2010-04-03 23:00;CYUL 032300Z 15012KT 15SM FEW160 OVC240 23/08 A2978 RMK AC2CS6 SLP085

CYUL;2010-04-04 00:00;CYUL 040000Z 14015KT 15SM BKN240 22/08 A2975 RMK CI4 SLP075

CYUL;2010-04-04 01:00;CYUL 040100Z 16013KT 15SM BKN240 21/07 A2976 RMK CI3 SLP078

CYUL;2010-04-04 02:00;CYUL 040200Z 15012KT 15SM OVC240 21/07 A2974 RMK CI7 SLP072

CYUL;2010-04-04 03:00;CYUL 040300Z 15009KT 15SM OVC240 19/07 A2977 RMK CI6 SLP082

CYUL;2010-04-04 04:00;CYUL 040400Z 15008KT 15SM OVC240 17/07 A2978 RMK CI7 SLP086

CYUL;2010-04-04 05:00;CYUL 040500Z 22017G24KT 15SM BKN240 20/07 A2982 RMK CI3 SLP098

CYUL;2010-04-04 06:00;CYUL 040600Z 24019G28KT 15SM OVC250 18/07 A2983 RMK CI4 SLP103

CYUL;2010-04-04 07:00;CYUL 040700Z 23024G30KT 15SM FEW180 OVC220 17/05 A2985 RMK AC2CI6 SLP109

CYUL;2010-04-04 08:00;CYUL 040800Z 24019G26KT 15SM OVC240 16/06 A2990 RMK CI7 SLP124

CYUL;2010-04-04 09:00;CYUL 040900Z 25024G31KT 15SM FEW160 SCT240 15/06 A2994 RMK AC1CI0 SLP140

CYUL;2010-04-04 10:00;CYUL 041000Z 26009G15KT 15SM FEW050 SCT240 13/05 A3000 RMK SC1CI1 SLP159

CYUL;2010-04-04 11:00;CYUL 041100Z 26009KT 30SM FEW035 FEW050 SCT240 12/03 A3004 RMK CF1SC1CI1 SLP173

CYUL;2010-04-04 12:00;CYUL 041200Z 27012G17KT 30SM FEW050 SCT240 13/03 A3007 RMK SC2CI1 SLP185

CYUL;2010-04-04 13:00;CYUL 041300Z 25015KT 30SM FEW050 FEW240 13/04 A3009 RMK SC1CI1 SLP190

CYUL;2010-04-04 14:00;CYUL 041400Z 26017KT 30SM FEW045 FEW240 14/04 A3009 RMK SC1CI1 SLP190

CYUL;2010-04-04 15:00;CYUL 041500Z 29013KT 30SM FEW045 SCT240 15/03 A3009 RMK CU1CI1 SLP189

CYUL;2010-04-04 16:00;CYUL 041600Z 27014G19KT 30SM SCT055 BKN180 BKN240 16/03 A3009 RMK SC2AC2CI1 SLP189

CYUL;2010-04-04 17:00;CYUL 041700Z 27014KT 30SM FEW055 SCT180 BKN240 17/03 A3008 RMK SC1AC2CI1 SLP188

CYUL;2010-04-04 18:00;CYUL 041800Z CCA 25016G21KT 30SM FEW048 FEW065 SCT240 17/01 A3007 RMK CU1SC1CI1 SLP185

CYUL;2010-04-04 19:00;CYUL 041900Z 27016KT 30SM FEW047 FEW065 FEW240 18/00 A3007 RMK CU1SC1CI0 SLP182

CYUL;2010-04-04 20:00;CYUL 042000Z 26015KT 30SM FEW060 18/M00 A3007 RMK SC1 SLP182

CYUL;2010-04-04 21:00;CYUL 042100Z 27013G20KT 30SM FEW060 18/M01 A3006 RMK SC1 SLP180

CYUL;2010-04-04 22:00;CYUL 042200Z 27011KT 30SM FEW065 FEW240 18/M02 A3006 RMK SC1CI0 SLP179

CYUL;2010-04-04 23:00;CYUL 042300Z 25012KT 30SM FEW065 FEW240 17/M03 A3007 RMK SC1CI1 SLP182

CYUL;2010-04-05 00:00;CYUL 050000Z 23009KT 15SM FEW240 16/M02 A3008 RMK CI1 SLP186

CYUL;2010-04-05 01:00;CYUL 050100Z 22008KT 15SM SKC 14/M01 A3008 RMK SLP186

CYUL;2010-04-05 02:00;CYUL 050200Z 22007KT 15SM SKC 12/M00 A3006 RMK SLP180

CYUL;2010-04-05 03:00;CYUL 050300Z 23008KT 15SM SKC 12/00 A3007 RMK SLP184

CYUL;2010-04-05 04:00;CYUL 050400Z 24007KT 15SM SKC 12/01 A3008 RMK SLP186

CYUL;2010-04-05 05:00;CYUL 050500Z 20005KT 15SM SKC 10/01 A3008 RMK SLP186

CYUL;2010-04-05 06:00;CYUL 050600Z 24005KT 15SM SKC 10/M00 A3008 RMK SLP186

CYUL;2010-04-05 07:00;CYUL 050700Z 21005KT 15SM FEW240 07/M00 A3005 RMK CI1 SLP176

CYUL;2010-04-05 08:00;CYUL 050800Z 15003KT 15SM FEW200 SCT240 07/M00 A3005 RMK CC1CI1 SLP177

CYUL;2010-04-05 09:00;CYUL 050900Z 11004KT 15SM FEW220 BKN250 07/M00 A3004 RMK CC2CI2 SLP175

CYUL;2010-04-05 10:00;CYUL 051000Z 15007KT 15SM FEW150 OVC220 07/M00 A3001 RMK AC1CI4 SLP163

CYUL;2010-04-05 11:00;CYUL 051100Z 14003KT 30SM SCT095 OVC200 07/00 A3000 RMK AC3CS5 SLP159

CYUL;2010-04-05 12:00;CYUL 051200Z 13004KT 30SM BKN095 OVC150 10/M00 A2997 RMK AC5AS3 SLP150

CYUL;2010-04-05 13:00;CYUL 051300Z 16005KT 30SM BKN090 OVC130 11/M00 A2996 RMK AC6AS2 SLP145

CYUL;2010-04-05 13:17;CYUL 051317Z 16005KT 30SM -RA OVC070 11/ RMK AS8

CYUL;2010-04-05 14:00;CYUL 051400Z 21004KT 30SM BKN075 OVC110 11/01 A2995 RMK AC5AS3 SLP142

CYUL;2010-04-05 15:00;CYUL 051500Z 12003KT 30SM FEW038 BKN080 OVC140 13/00 A2992 RMK SC2AC5AS2 SLP132

CYUL;2010-04-05 16:00;CYUL 051600Z 13015KT 30SM SCT080 BKN100 OVC150 15/01 A2984 RMK AC3AC3AS2 PRESFR SLP106

CYUL;2010-04-05 17:00;CYUL 051700Z 00000KT 30SM FEW040 BKN080 OVC140 15/01 A2983 RMK SC1AC6AC2 SLP103

CYUL;2010-04-05 17:41;CYUL 051741Z 18006KT 30SM -RA FEW065 BKN095 OVC130 16/ RMK SC2AC4AS2

CYUL;2010-04-05 18:00;CYUL 051800Z 20004KT 30SM FEW065 BKN100 OVC140 17/02 A2980 RMK SC1AC5AC2 SLP094

CYUL;2010-04-05 19:00;CYUL 051900Z 27004KT 15SM BKN075 OVC120 17/03 A2979 RMK AC6AS2 SLP090

CYUL;2010-04-05 19:30;CYUL 051930Z 29008KT 15SM -RA BKN065 OVC110 17/ RMK SC6AC2 VRY LGT RA

CYUL;2010-04-05 20:00;CYUL 052000Z 25008KT 15SM BKN055 BKN090 17/03 A2979 RMK SC6AC1 SLP089

CYUL;2010-04-05 21:00;CYUL 052100Z 23015KT 30SM FEW065 18/06 A2977 RMK SC1 SLP084

CYUL;2010-04-05 22:00;CYUL 052200Z 24018KT 30SM FEW055 FEW240 19/07 A2978 RMK SC1CI1 SLP085

CYUL;2010-04-05 23:00;CYUL 052300Z 23009KT 15SM FEW042 FEW090 SCT240 18/07 A2977 RMK CU1AC1CI1 SLP081

CYUL;2010-04-06 00:00;CYUL 060000Z 23012KT 15SM SCT062 17/06 A2976 RMK SC2 SLP077

CYUL;2010-04-06 01:00;CYUL 060100Z 24014KT 15SM FEW065 17/07 A2979 RMK SC1 SLP087

CYUL;2010-04-06 02:00;CYUL 060200Z 26016KT 15SM FEW040 FEW070 17/06 A2981 RMK CF1AC1 SLP095

CYUL;2010-04-06 03:00;CYUL 060300Z 30010KT 15SM FEW070 14/05 A2985 RMK AC1 SLP109

CYUL;2010-04-06 04:00;CYUL 060400Z 29007KT 15SM SKC 12/03 A2987 RMK SLP115

CYUL;2010-04-06 05:00;CYUL 060500Z 29007KT 15SM FEW070 OVC220 12/03 A2988 RMK AC1CI6 SLP121

CYUL;2010-04-06 06:00;CYUL 060600Z 29006KT 15SM OVC200 11/03 A2991 RMK CS7 SLP129

CYUL;2010-04-06 07:00;CYUL 060700Z 29005KT 15SM OVC160 11/04 A2992 RMK AS8 SLP134

CYUL;2010-04-06 08:00;CYUL 060800Z 32005KT 15SM OVC160 11/04 A2992 RMK AS8 SLP132

CYUL;2010-04-06 09:00;CYUL 060900Z 32003KT 15SM OVC120 10/04 A2993 RMK AS8 SLP136

CYUL;2010-04-06 10:00;CYUL 061000Z 18004KT 15SM OVC110 10/04 A2993 RMK AC8 SLP136

CYUL;2010-04-06 11:00;CYUL 061100Z 23002KT 30SM BKN110 OVC180 09/04 A2993 RMK AC6AS2 SLP135

CYUL;2010-04-06 12:00;CYUL 061200Z 00000KT 30SM SCT100 OVC140 10/04 A2991 RMK AC4AS4 SLP129

CYUL;2010-04-06 13:00;CYUL 061300Z 17005KT 15SM BKN090 OVC120 12/04 A2990 RMK AC6AS2 SLP126

CYUL;2010-04-06 14:00;CYUL 061400Z 07002KT 15SM SCT070 OVC090 13/04 A2991 RMK AC3AS5 SLP128

CYUL;2010-04-06 15:00;CYUL 061500Z 19003KT 15SM FEW070 OVC100 14/04 A2988 RMK AC2AC6 SLP118

CYUL;2010-04-06 16:00;CYUL 061600Z 16003KT 15SM OVC080 14/04 A2986 RMK AC8 SLP114

CYUL;2010-04-06 17:00;CYUL 061700Z 22005KT 30SM FEW030 BKN065 OVC080 14/04 A2986 RMK CU1SC6AC2 SLP113

CYUL;2010-04-06 18:00;CYUL 061800Z 21007KT 30SM FEW030 OVC065 14/06 A2985 RMK CU1SC8 SLP110

CYUL;2010-04-06 19:00;CYUL 061900Z 21006KT 30SM FEW030 OVC065 14/06 A2981 RMK CU1SC7 VIA CYQB FIC SLP096

CYUL;2010-04-06 20:00;CYUL 062000Z 18005KT 30SM FEW030 BKN070 OVC240 14/06 A2980 RMK CU1AC6CI0 VIA CYQB SLP091

CYUL;2010-04-06 21:00;CYUL 062100Z 16003KT 30SM FEW030 SCT070 OVC150 15/05 A2976 RMK CU1AC3AS5 VIA CYQB FIC SLP078

CYUL;2010-04-06 22:00;CYUL 062200Z 15002KT 15SM OVC060 15/05 A2975 RMK SC8 VIA CYQB FIC SLP076

CYUL;2010-04-06 23:00;CYUL 062300Z 14006KT 15SM BKN065 OVC090 15/04 A2976 RMK SC6AC2 VIA CYQB FIC SLP073

CYUL;2010-04-07 00:00;CYUL 070000Z 13005KT 15SM SCT065 OVC080 14/05 A2974 RMK SC3AC5 VIA CYQB FIC SLP071

CYUL;2010-04-07 01:00;CYUL 070100Z 12006KT 15SM BKN075 OVC095 13/05 A2973 RMK AC6AC2 VIA CYQB FIC SLP069

CYUL;2010-04-07 02:00;CYUL 070200Z 13006KT 15SM FEW070 OVC110 13/06 A2971 RMK AC1AC7 SLP063

CYUL;2010-04-07 02:27;CYUL 070227Z 14008KT 15SM -SHRA SCT110 BKN140 12/ RMK AC3AC3

CYUL;2010-04-07 03:00;CYUL 070300Z 11007KT 15SM FEW095 BKN120 12/06 A2967 RMK AC1AC6 SLP047

CYUL;2010-04-07 03:46;CYUL 070346Z 12006KT 15SM -RA OVC100 12/ RMK AC8

CYUL;2010-04-07 04:00;CYUL 070400Z 14007KT 15SM -RA FEW060 OVC085 11/07 A2964 RMK SC2AC6 DIST LTNG SE SLP037

CYUL;2010-04-07 04:05;CYUL 070405Z 11005KT 12SM -TSRA SCT060 OVC085 11/ RMK SC3AC5 CB EMBD E-S

CYUL;2010-04-07 04:25;CYUL 070425Z 14005KT 5SM -RA BR OVC040 11/ RETS RMK SC8

CYUL;2010-04-07 05:00;CYUL 070500Z 17002KT 5SM -RA BR FEW025 OVC035 11/08 A2964 RETS RMK SC1SC7 SLP039

CYUL;2010-04-07 05:07;CYUL 070507Z 09002KT 5SM -TSRA BR FEW015 OVC035 11/ RMK SF1SC7 CB EMBD W

CYUL;2010-04-07 05:52;CYUL 070552Z 10005KT 4SM -RA BR FEW003 FEW030 BKN060 OVC110 10/ RETS RMK SF1SC2SC4AC2

CYUL;2010-04-07 06:00;CYUL 070600Z 09005KT 4SM -RA BR FEW003 SCT060 OVC100 10/08 A2957 RETS RMK SF1SC2AS5 PRESFR SLP015

CYUL;2010-04-07 06:22;CYUL 070622Z 05004KT 3SM -RA BR BKN005 OVC022 11/ RMK ST6SC2

CYUL;2010-04-07 07:00;CYUL 070700Z 05004KT 3SM -RA OVC005 11/09 A2959 RMK ST8 SLP019

CYUL;2010-04-07 07:19;CYUL 070719Z 02004KT 3SM -DZ BR SCT003 OVC009 11/ RMK ST4ST4

CYUL;2010-04-07 08:00;CYUL 070800Z 02006KT 4SM BR SCT004 OVC010 11/09 A2958 RMK ST3ST5 SLP018

CYUL;2010-04-07 08:22;CYUL 070822Z 03007KT 4SM BR OVC004 10/ RMK ST8

CYUL;2010-04-07 09:00;CYUL 070900Z 03005KT 4SM BR OVC004 10/08 A2956 RMK ST8 SLP010

CYUL;2010-04-07 10:00;CYUL 071000Z 18002KT 3SM BR FEW003 OVC006 11/09 A2956 RMK ST2ST6 SLP011

CYUL;2010-04-07 10:32;CYUL 071032Z 00000KT 2SM BR OVC005 11/ RMK ST8

CYUL;2010-04-07 11:00;CYUL 071100Z 33002KT 1 3/4SM BR OVC005 10/08 A2956 RMK ST8 SLP009

CYUL;2010-04-07 11:21;CYUL 071121Z 00000KT 1 3/4SM BR OVC003 11/ RMK ST8

CYUL;2010-04-07 12:00;CYUL 071200Z 02006KT 1 1/2SM BR OVC003 11/09 A2951 RMK ST8 SLP995

CYUL;2010-04-07 12:06;CYUL 071206Z 02006KT 1 1/2SM -RA BR OVC002 10/ RMK ST8

CYUL;2010-04-07 12:49;CYUL 071249Z 32021G26KT 2SM +SHRA BR OVC004 10/ RMK ST8

CYUL;2010-04-07 13:00;CYUL 071300Z 01007G16KT 5SM -RA BR FEW004 BKN070 OVC240 10/08 A2955 RERA RMK SF1AC6CI1 SLP006

CYUL;2010-04-07 13:27;CYUL 071327Z 08004KT 15SM FEW004 SCT070 BKN240 11/ RMK SF1AC2CI1

CYUL;2010-04-07 14:00;CYUL 071400Z 00000KT 10SM FEW005 BKN012 OVC070 12/09 A2952 RMK SF1SC6AC1 SLP996

CYUL;2010-04-07 14:52;CYUL 071452Z 29003KT 10SM OVC009 12/ RMK SF8

CYUL;2010-04-07 15:00;CYUL 071500Z 32006KT 10SM OVC009 12/10 A2955 RMK SF8 SLP008

CYUL;2010-04-07 16:00;CYUL 071600Z 36006KT 8SM OVC008 12/09 A2959 RMK SF8 SLP020

CYUL;2010-04-07 16:54;CYUL 071654Z 34006KT 8SM SCT008 OVC015 12/ RMK SF3SC5

CYUL;2010-04-07 17:00;CYUL 071700Z 33005KT 6SM HZ SCT008 OVC014 12/09 A2963 RMK SF3SC5 SLP033

CYUL;2010-04-07 17:39;CYUL 071739Z 03005KT 6SM HZ SCT009 OVC019 13/ RMK SF3SC5

CYUL;2010-04-07 18:00;CYUL 071800Z 36005KT 6SM HZ SCT009 BKN015 OVC043 13/10 A2959 RMK SF3SC4SC1 SLP022

CYUL;2010-04-07 18:28;CYUL 071828Z 36003KT 10SM BKN009 OVC020 13/ RMK SF5SC3

CYUL;2010-04-07 18:44;CYUL 071844Z 28004KT 10SM FEW009 BKN015 OVC050 13/ RMK SF2SC3SC2

CYUL;2010-04-07 19:00;CYUL 071900Z 25005KT 15SM FEW010 SCT020 OVC055 13/09 A2965 RMK SF2SC2SC5 SLP040

CYUL;2010-04-07 20:00;CYUL 072000Z 21005KT 15SM FEW014 BKN035 OVC070 12/09 A2966 RMK SF2SC4AC2 SLP043

CYUL;2010-04-07 21:00;CYUL 072100Z 22004KT 15SM -SHRA BKN030 OVC070 13/09 A2966 RMK SC6AC2 SLP046

CYUL;2010-04-07 21:20;CYUL 072120Z 22006KT 15SM BKN037 OVC070 13/ RMK SC6AC2

CYUL;2010-04-07 21:34;CYUL 072134Z 22007KT 15SM -SHRA BKN039 OVC070 13/ RMK SC6AC2

CYUL;2010-04-07 22:00;CYUL 072200Z 22008KT 15SM -SHRA OVC037 13/09 A2968 RMK SC8 SLP052

CYUL;2010-04-07 22:19;CYUL 072219Z 23007KT 15SM BKN036 OVC075 12/ RMK SC6AC2

CYUL;2010-04-07 23:00;CYUL 072300Z 22007KT 15SM FEW015 BKN035 OVC045 12/09 A2971 RMK SF1SC7SC1 SLP063

CYUL;2010-04-08 00:00;CYUL 080000Z 29005KT 15SM BKN045 OVC070 12/09 A2973 RMK SC6AC2 SLP069

CYUL;2010-04-08 01:00;CYUL 080100Z 01003KT 15SM BKN052 OVC120 13/10 A2975 RMK SC6AC2 SLP077

CYUL;2010-04-08 02:00;CYUL 080200Z 00000KT 15SM FEW030 OVC050 12/09 A2977 RMK CF1SC7 SLP082

CYUL;2010-04-08 03:00;CYUL 080300Z 04010G15KT 15SM SCT025 OVC040 12/08 A2977 RMK SC3SC5 SLP084

CYUL;2010-04-08 04:00;CYUL 080400Z 03008KT 15SM FEW025 OVC040 11/05 A2980 RMK SC2SC6 SLP092

CYUL;2010-04-08 05:00;CYUL 080500Z 03011KT 15SM OVC040 10/03 A2980 RMK SC8 SLP093

CYUL;2010-04-08 06:00;CYUL 080600Z 05015KT 15SM OVC038 10/02 A2980 RMK SC8 SLP094

CYUL;2010-04-08 07:00;CYUL 080700Z 04013G20KT 15SM SCT035 OVC048 08/00 A2980 RMK SC4SC4 SLP092

CYUL;2010-04-08 08:00;CYUL 080800Z 05015G22KT 15SM OVC035 07/M03 A2984 RMK SC8 SLP106

CYUL;2010-04-08 09:00;CYUL 080900Z 04020G25KT 15SM OVC035 06/M01 A2985 RMK SC8 SLP109

CYUL;2010-04-08 10:00;CYUL 081000Z 06017KT 15SM OVC035 04/M04 A2988 RMK SC8 SLP118

CYUL;2010-04-08 11:00;CYUL 081100Z 04014G19KT 15SM OVC033 04/M06 A2991 RMK SC8 SLP129

CYUL;2010-04-08 11:22;CYUL 081122Z 04018KT 15SM -RA OVC030 03/ RMK SC8

CYUL;2010-04-08 12:00;CYUL 081200Z 05015G21KT 15SM -RA OVC030 03/M04 A2990 RMK SC8 SLP125

CYUL;2010-04-08 12:37;CYUL 081237Z 04016KT 15SM OVC029 03/ RMK SC8

CYUL;2010-04-08 13:00;CYUL 081300Z 04018KT 15SM OVC025 03/M04 A2988 RMK SC8 SLP120

CYUL;2010-04-08 14:00;CYUL 081400Z 05017G24KT 15SM OVC025 04/M04 A2988 RMK SC8 SLP118

CYUL;2010-04-08 15:00;CYUL 081500Z 05016KT 15SM OVC027 04/M04 A2984 RMK SC8 SLP106

CYUL;2010-04-08 16:00;CYUL 081600Z 06018G24KT 15SM OVC028 05/M03 A2982 RMK SC8 SLP098

CYUL;2010-04-08 17:00;CYUL 081700Z 05017G22KT 15SM OVC024 06/M02 A2978 RMK SC8 SLP087

CYUL;2010-04-08 18:00;CYUL 081800Z 05017G25KT 15SM OVC020 06/M01 A2974 RMK SC8 SLP073

CYUL;2010-04-08 19:00;CYUL 081900Z 05020G25KT 15SM OVC028 07/M00 A2970 RMK SC8 SLP058

CYUL;2010-04-08 20:00;CYUL 082000Z 05016G21KT 15SM OVC030 08/01 A2966 RMK SC8 SLP046

CYUL;2010-04-08 21:00;CYUL 082100Z 04018KT 15SM BKN028 OVC150 09/02 A2961 RMK SC6AS1 SLP029

CYUL;2010-04-08 22:00;CYUL 082200Z 03018KT 15SM FEW030 BKN180 OVC210 08/02 A2959 RMK SC2AS2CI0 SLP023

CYUL;2010-04-08 23:00;CYUL 082300Z 04017G22KT 15SM FEW035 BKN180 BKN210 08/02 A2959 RMK SC2AS2CI0 SLP020

CYUL;2010-04-09 00:00;CYUL 090000Z 04015KT 15SM SCT065 OVC180 08/02 A2954 RMK SC3AS3 SLP006

CYUL;2010-04-09 01:00;CYUL 090100Z 33016KT 15SM -SHRA BKN065 OVC100 08/02 A2960 RMK SC5AC3 SLP025

CYUL;2010-04-09 01:15;CYUL 090115Z 35015KT 15SM BKN065 OVC140 07/ RMK SC5AC3 DIST LTNG

CYUL;2010-04-09 01:29;CYUL 090129Z 35015KT 15SM -SHRA BKN065 OVC150 07/ RMK SC5AC3 DIST LTNG

CYUL;2010-04-09 01:32;CYUL 090132Z 36012G19KT 15SM -TSRA BKN065 OVC150 07/ RMK SC5AC3 CB ASOCT

CYUL;2010-04-09 02:00;CYUL 090200Z CCA 03021G26KT 15SM -TSRA FEW030 OVC120 06/01 A2959 RMK CF1AS7 CB ASOCT SLP021

CYUL;2010-04-09 02:23;CYUL 090223Z 04013G20KT 15SM -RA OVC025 06/ RETS RMK SC8

CYUL;2010-04-09 02:37;CYUL 090237Z 05015KT 15SM -TSRA FEW020 OVC040 07/ RMK CF1SC7 CB ASOCT SE

CYUL;2010-04-09 03:00;CYUL 090300Z 05013KT 15SM -RA FEW040 SCT060 BKN130 OVC160 07/03 A2959 RETS RMK CF1SC3AC4AC1 -RA INTMT SLP023

CYUL;2010-04-09 03:44;CYUL 090344Z 07014G20KT 15SM OVC040 07/ RMK SC8

CYUL;2010-04-09 04:00;CYUL 090400Z 07014KT 15SM FEW035 OVC045 08/04 A2957 RMK CF1SC7 SLP015

CYUL;2010-04-09 04:35;CYUL 090435Z 07010KT 15SM -RA OVC030 07/ RMK SC8

CYUL;2010-04-09 05:00;CYUL 090500Z 26004KT 4SM -RA BR OVC020 07/04 A2960 RMK SC8 SLP025

CYUL;2010-04-09 06:00;CYUL 090600Z 28003KT 8SM -DZ FEW009 OVC015 07/04 A2959 RMK SF2ST6 SLP021

CYUL;2010-04-09 06:35;CYUL 090635Z 29002KT 6SM -DZ BR FEW009 OVC014 06/ RMK SF1ST7

CYUL;2010-04-09 07:00;CYUL 090700Z 24002KT 5SM -DZ BR FEW006 OVC013 06/04 A2959 RMK SF1ST8 SLP022

CYUL;2010-04-09 08:00;CYUL 090800Z 25006KT 5SM -RA BR FEW005 OVC011 07/04 A2961 RMK SF1ST7 SLP028

CYUL;2010-04-09 08:09;CYUL 090809Z 26007KT 5SM -RA BR FEW005 SCT010 OVC045 07/ RMK SF1SF2SC5

CYUL;2010-04-09 09:00;CYUL 090900Z 25017KT 6SM -RA BR FEW011 OVC018 08/05 A2963 RMK SF2SC6 SLP034

CYUL;2010-04-09 10:00;CYUL 091000Z 24016KT 6SM -RA BR FEW012 OVC050 07/04 A2964 RMK SF2SC6 SLP038

CYUL;2010-04-09 11:00;CYUL 091100Z 24015KT 12SM -RA OVC055 07/03 A2965 RMK SC8 SLP043

CYUL;2010-04-09 12:00;CYUL 091200Z 24013G18KT 15SM -RA FEW020 OVC060 07/03 A2967 RMK SF2SC6 SLP050

CYUL;2010-04-09 12:33;CYUL 091233Z 24013G18KT 15SM FEW020 BKN060 BKN075 07/ RMK SF1SC6AC1

CYUL;2010-04-09 13:00;CYUL 091300Z 25012KT 15SM FEW020 BKN065 07/03 A2969 RMK SF1SC6 SLP057

CYUL;2010-04-09 14:00;CYUL 091400Z 25013G19KT 15SM FEW025 SCT040 BKN065 07/02 A2972 RMK SF1SC2SC4 SLP064

CYUL;2010-04-09 15:00;CYUL 091500Z 26018KT 15SM FEW025 BKN039 BKN080 07/00 A2971 RMK SC1SC5AC2 SLP062

CYUL;2010-04-09 16:00;CYUL 091600Z 25016KT 30SM BKN043 BKN075 08/00 A2972 RMK SC6AC2 SLP064

CYUL;2010-04-09 17:00;CYUL 091700Z 23021KT 30SM FEW032 BKN042 OVC075 08/M00 A2971 RMK SC2SC6AC1 SLP063

CYUL;2010-04-09 18:00;CYUL 091800Z 23015G21KT 15SM FEW034 BKN043 OVC075 08/M01 A2971 RMK SC2SC6AC1 SLP063

CYUL;2010-04-09 19:00;CYUL 091900Z 27018KT 15SM OVC042 07/M01 A2970 RMK SC7 SLP059

CYUL;2010-04-09 20:00;CYUL 092000Z 26019G25KT 15SM OVC045 08/M02 A2970 RMK SC7 SLP059

CYUL;2010-04-09 21:00;CYUL 092100Z 24015KT 15SM BKN040 BKN070 07/M02 A2972 RMK SC6AC1 SLP067

CYUL;2010-04-09 22:00;CYUL 092200Z 24019G25KT 15SM BKN036 OVC060 06/M01 A2973 RMK SC6SC2 SLP070

CYUL;2010-04-09 22:48;CYUL 092248Z 24016KT 15SM -RA BKN032 OVC048 05/ RMK SC5SC2 VRY LGT RA

CYUL;2010-04-09 23:00;CYUL 092300Z 24014G19KT 15SM BKN034 OVC048 05/M01 A2977 RMK SC5SC2 SLP083

CYUL;2010-04-10 00:00;CYUL 100000Z 25013KT 15SM SCT039 BKN050 05/M02 A2977 RMK SC3SC4 SLP082

CYUL;2010-04-10 01:00;CYUL 100100Z 27010G18KT 15SM BKN032 OVC055 04/M02 A2977 RMK SC6SC2 SLP083

CYUL;2010-04-10 02:00;CYUL 100200Z 26012KT 15SM SCT040 BKN065 04/M03 A2977 RMK SC3SC4 SLP084

CYUL;2010-04-10 03:00;CYUL 100300Z 26012KT 15SM FEW025 SCT065 OVC075 04/M03 A2975 RMK CF1SC3AC5 SLP077

CYUL;2010-04-10 04:00;CYUL 100400Z 26012G17KT 15SM FEW070 OVC080 04/M03 A2975 RMK AC2AC6 SLP077

CYUL;2010-04-10 05:00;CYUL 100500Z 27012G18KT 15SM FEW070 OVC080 04/M03 A2976 RMK AC1AC7 SLP079

CYUL;2010-04-10 06:00;CYUL 100600Z 27016KT 15SM FEW025 FEW060 OVC085 04/M03 A2977 RMK CF1SC2AC6 SLP082

CYUL;2010-04-10 07:00;CYUL 100700Z 27013G18KT 15SM FEW025 OVC085 03/M02 A2977 RMK SC2AC6 SLP084

CYUL;2010-04-10 07:25;CYUL 100725Z 27015G20KT 15SM -SHRA FEW020 SCT045 OVC085 03/ RMK CF2SC2AC5

CYUL;2010-04-10 08:00;CYUL 100800Z 27015G21KT 15SM FEW020 BKN038 OVC085 03/M02 A2978 RMK SC2SC6AC1 SLP086

CYUL;2010-04-10 08:49;CYUL 100849Z 26014KT 15SM -SHRA SCT015 OVC080 02/ RMK SF3AC5

CYUL;2010-04-10 09:00;CYUL 100900Z 26011G17KT 15SM -SHRA SCT015 OVC085 02/M01 A2980 RMK SF3AC5 SLP093

CYUL;2010-04-10 09:26;CYUL 100926Z 27014G20KT 15SM SCT018 OVC085 03/ RMK SF3AC5

CYUL;2010-04-10 10:00;CYUL 101000Z 27015KT 15SM FEW018 BKN090 03/M01 A2983 RMK SF2AC6 SLP102

CYUL;2010-04-10 11:00;CYUL 101100Z 27014KT 15SM FEW018 BKN080 BKN110 03/M02 A2987 RMK SF1AC4AC1 SLP116

CYUL;2010-04-10 12:00;CYUL 101200Z 27013G22KT 15SM SCT025 SCT090 03/M02 A2991 RMK CF3AC1 SLP131

CYUL;2010-04-10 13:00;CYUL 101300Z 28017G28KT 15SM BKN035 04/M04 A2993 RMK CU7 SLP138

CYUL;2010-04-10 14:00;CYUL 101400Z 28017G29KT 15SM FEW032 BKN042 04/M04 A2997 RMK SC2SC3 SLP151

CYUL;2010-04-10 15:00;CYUL 101500Z 27021KT 30SM FEW036 FEW045 06/M04 A2999 RMK CF1SC1 SLP156

CYUL;2010-04-10 16:00;CYUL 101600Z 27019G30KT 30SM FEW042 07/M03 A3001 RMK CF1 SLP163

CYUL;2010-04-10 17:00;CYUL 101700Z 28020G27KT 30SM FEW042 08/M03 A2999 RMK CF1 SLP159

CYUL;2010-04-10 18:00;CYUL 101800Z 27018G30KT 30SM FEW050 09/M03 A2999 RMK SC1 SLP156

CYUL;2010-04-10 19:00;CYUL 101900Z 27018G27KT 30SM FEW050 10/M03 A3000 RMK SC1 SLP159

CYUL;2010-04-10 20:00;CYUL 102000Z 26026G31KT 30SM FEW050 FEW240 11/M04 A2999 RMK SC1CI1 SLP156

CYUL;2010-04-10 21:00;CYUL 102100Z 27023G31KT 30SM FEW055 SCT180 BKN240 11/M05 A3000 RMK SC1AC2CI2 SLP160

CYUL;2010-04-10 22:00;CYUL 102200Z 27015G26KT 15SM FEW043 BKN075 OVC180 11/M05 A3001 RMK SC1AC4AC2 SLP162

CYUL;2010-04-10 22:19;CYUL 102219Z 28018G26KT 15SM -SHRA FEW032 BKN044 OVC090 10/ RMK SC2SC5AC2

CYUL;2010-04-10 23:00;CYUL 102300Z CCA 29014KT 15SM -RA SCT036 BKN048 OVC150 10/M04 A3001 RMK SC2SC5AC1 SLP165

CYUL;2010-04-10 23:33;CYUL 102333Z 32011KT 15SM FEW036 BKN055 OVC090 09/ RMK SC2SC6AC1

CYUL;2010-04-11 00:00;CYUL 110000Z 29009G19KT 15SM FEW036 BKN062 OVC080 08/M03 A3004 RMK SC2SC5AC1 SLP176

CYUL;2010-04-11 01:00;CYUL 110100Z 32005KT 15SM -RA OVC045 07/M01 A3007 RMK SC8 SLP186

CYUL;2010-04-11 02:00;CYUL 110200Z 30007KT 12SM -RA OVC030 06/01 A3010 RMK SC8 SLP194

CYUL;2010-04-11 03:00;CYUL 110300Z 30006KT 15SM -RA FEW030 OVC090 05/01 A3008 RMK SC1AC6 SLP189

CYUL;2010-04-11 04:00;CYUL 110400Z 25005KT 15SM BKN030 OVC085 05/02 A3007 RMK SC7AC1 SLP185

CYUL;2010-04-11 05:00;CYUL 110500Z 22003KT 15SM FEW030 FEW065 FEW150 05/02 A3006 RMK CF2SC1AC1 SLP180

CYUL;2010-04-11 06:00;CYUL 110600Z 27003KT 15SM -RA SCT055 OVC080 05/02 A3005 RMK SC4AC4 SLP178

CYUL;2010-04-11 07:00;CYUL 110700Z 27002KT 15SM FEW015 OVC032 05/02 A3004 RMK SF1SC8 SLP175

CYUL;2010-04-11 08:00;CYUL 110800Z 27004KT 15SM OVC035 05/02 A3005 RMK SC8 SLP176

CYUL;2010-04-11 09:00;CYUL 110900Z 26002KT 15SM SCT029 OVC038 05/02 A3006 RMK SC3SC5 SLP179

CYUL;2010-04-11 10:00;CYUL 111000Z 25002KT 15SM OVC035 05/02 A3007 RMK SC8 SLP184

CYUL;2010-04-11 11:00;CYUL 111100Z 28005KT 15SM OVC033 05/02 A3009 RMK SC8 SLP189

CYUL;2010-04-11 12:00;CYUL 111200Z 27004KT 15SM FEW015 OVC038 05/02 A3010 RMK SF1SC8 SLP196

CYUL;2010-04-11 13:00;CYUL 111300Z 30008KT 15SM FEW016 OVC040 06/02 A3013 RMK SF2SC6 SLP204

CYUL;2010-04-11 14:00;CYUL 111400Z 29010KT 15SM SCT022 BKN052 BKN090 BKN240 07/02 A3014 RMK SF3SC2AC1CI0 SLP209

CYUL;2010-04-11 15:00;CYUL 111500Z 27016KT 30SM FEW028 FEW045 08/02 A3014 RMK CU1SC1 SLP209

CYUL;2010-04-11 16:00;CYUL 111600Z 27017G22KT 30SM SCT034 09/01 A3015 RMK CF2 SLP211

CYUL;2010-04-11 17:00;CYUL 111700Z 27016G22KT 30SM FEW035 SCT240 10/00 A3014 RMK CU2CI1 SLP207

CYUL;2010-04-11 18:00;CYUL 111800Z 27019G25KT 30SM FEW040 11/M01 A3013 RMK CF2 SLP204

CYUL;2010-04-11 19:00;CYUL 111900Z 28021G26KT 30SM FEW045 FEW055 FEW240 12/M00 A3012 RMK CF1SC1CI1 SLP201

CYUL;2010-04-11 20:00;CYUL 112000Z 27023G28KT 30SM FEW050 FEW180 FEW240 12/00 A3011 RMK CF1AC1CI1 SLP198

CYUL;2010-04-11 21:00;CYUL 112100Z 27022G27KT 30SM FEW065 FEW240 12/M01 A3007 RMK SC1CI1 SLP185

CYUL;2010-04-11 22:00;CYUL 112200Z 28018G26KT 30SM FEW065 FEW140 SCT240 12/M01 A3011 RMK SC1AC1CI1 SLP197

CYUL;2010-04-11 23:00;CYUL 112300Z 27014G21KT 30SM FEW058 FEW140 SCT240 11/M02 A3012 RMK SC1AC2CI1 SLP201

CYUL;2010-04-12 00:00;CYUL 120000Z 29009KT 15SM FEW065 FEW120 FEW240 09/M02 A3014 RMK SC1AC1CI1 SLP209

CYUL;2010-04-12 01:00;CYUL 120100Z 27007KT 15SM FEW120 08/00 A3017 RMK AC1 SLP219

CYUL;2010-04-12 02:00;CYUL 120200Z 31011G16KT 15SM FEW120 08/M03 A3019 RMK AC1 SLP224

CYUL;2010-04-12 03:00;CYUL 120300Z 32009G16KT 15SM FEW060 07/M02 A3020 RMK SC2 SLP230

CYUL;2010-04-12 04:00;CYUL 120400Z 29005KT 15SM FEW060 05/M02 A3021 RMK SC1 SLP231

CYUL;2010-04-12 05:00;CYUL 120500Z 28005KT 15SM FEW080 04/M02 A3021 RMK AC1 SLP233

CYUL;2010-04-12 06:00;CYUL 120600Z 30009KT 15SM FEW080 05/M01 A3023 RMK AC1 SLP237

CYUL;2010-04-12 07:00;CYUL 120700Z 31006KT 15SM SKC 04/M02 A3023 RMK SLP240

CYUL;2010-04-12 08:00;CYUL 120800Z 32007KT 15SM FEW060 03/M02 A3025 RMK SC1 SLP246

CYUL;2010-04-12 09:00;CYUL 120900Z 31006KT 15SM FEW060 02/M03 A3027 RMK SC1 SLP253

CYUL;2010-04-12 10:00;CYUL 121000Z 32005KT 30SM FEW060 01/M03 A3029 RMK SC1 SLP260

CYUL;2010-04-12 11:00;CYUL 121100Z 33005KT 30SM FEW040 FEW240 02/M03 A3033 RMK SC2CI1 SLP273

CYUL;2010-04-12 12:00;CYUL 121200Z 35008KT 30SM FEW045 FEW240 04/M03 A3036 RMK SC1CI1 SLP281

CYUL;2010-04-12 13:00;CYUL 121300Z 35006KT 30SM FEW035 FEW070 FEW240 05/M04 A3037 RMK CU1AC1CI1 SLP285

CYUL;2010-04-12 14:00;CYUL 121400Z 31006KT 30SM FEW040 FEW240 07/M04 A3038 RMK SC1CI1 SLP288

CYUL;2010-04-12 15:00;CYUL 121500Z 30007KT 30SM FEW045 SCT240 08/M04 A3039 RMK SC1CI1 SLP292

CYUL;2010-04-12 16:00;CYUL 121600Z 33004KT 30SM FEW055 FEW240 08/M04 A3038 RMK SC1CI1 SLP290

CYUL;2010-04-12 17:00;CYUL 121700Z 28005KT 30SM FEW055 FEW240 09/M03 A3037 RMK SC1CI1 SLP286

CYUL;2010-04-12 18:00;CYUL 121800Z 27006KT 30SM FEW060 SCT180 BKN240 11/M04 A3036 RMK SC1AC2CI2 SLP281

CYUL;2010-04-12 19:00;CYUL 121900Z 26008KT 30SM FEW060 BKN170 BKN240 11/M04 A3035 RMK SC1AC5CI1 SLP279

CYUL;2010-04-12 20:00;CYUL 122000Z 27010KT 30SM FEW060 BKN170 BKN240 12/M05 A3034 RMK SC1AC5CI1 SLP275

CYUL;2010-04-12 21:00;CYUL 122100Z 25009KT 30SM FEW080 BKN190 BKN240 12/M05 A3033 RMK AC1AC3CI2 SLP273

CYUL;2010-04-12 22:00;CYUL 122200Z 33009KT 30SM FEW090 SCT180 BKN240 13/M05 A3033 RMK AC1AC2CI2 SLP273

CYUL;2010-04-12 23:00;CYUL 122300Z 30009G17KT 15SM FEW065 SCT090 BKN240 12/M05 A3035 RMK SC1AC2CI1 SLP278

CYUL;2010-04-13 00:00;CYUL 130000Z 31007KT 15SM FEW060 SCT090 BKN240 11/M05 A3036 RMK SC1AC2CI1 SLP284

CYUL;2010-04-13 01:00;CYUL 130100Z 32004KT 15SM FEW090 BKN240 10/M04 A3038 RMK AC1CI2 SLP289

CYUL;2010-04-13 02:00;CYUL 130200Z 36004KT 15SM FEW080 BKN200 10/M04 A3039 RMK AC1CS3 SLP291

CYUL;2010-04-13 03:00;CYUL 130300Z 02007KT 15SM SCT200 09/M07 A3039 RMK CI2 SLP294

CYUL;2010-04-13 04:00;CYUL 130400Z 04008KT 15SM FEW200 08/M08 A3041 RMK CI0 SLP298

CYUL;2010-04-13 05:00;CYUL 130500Z 03010KT 15SM FEW200 07/M08 A3043 RMK CI0 SLP305

CYUL;2010-04-13 06:00;CYUL 130600Z 04010KT 15SM FEW200 06/M08 A3044 RMK CI0 SLP310

CYUL;2010-04-13 07:00;CYUL 130700Z 04007KT 15SM FEW150 06/M07 A3046 RMK AC1 SLP316

CYUL;2010-04-13 08:00;CYUL 130800Z 02005KT 15SM BKN240 03/M06 A3047 RMK CI2 SLP321

CYUL;2010-04-13 09:00;CYUL 130900Z 02004KT 15SM OVC220 02/M06 A3049 RMK CI4 SLP325

CYUL;2010-04-13 10:00;CYUL 131000Z 36003KT 15SM BKN200 02/M07 A3050 RMK CI1 SLP329

CYUL;2010-04-13 11:00;CYUL 131100Z 03004KT 30SM FEW240 03/M07 A3052 RMK CI0 SLP336

CYUL;2010-04-13 12:00;CYUL 131200Z 03006KT 30SM FEW240 04/M06 A3052 RMK CI1 SLP338

CYUL;2010-04-13 13:00;CYUL 131300Z 05006KT 30SM SKC 06/M07 A3053 RMK SLP339

CYUL;2010-04-13 14:00;CYUL 131400Z 03002KT 30SM SKC 07/M06 A3054 RMK SLP344

CYUL;2010-04-13 15:00;CYUL 131500Z 36005KT 30SM FEW060 09/M06 A3055 RMK CU1 SLP345

CYUL;2010-04-13 16:00;CYUL 131600Z 02004KT 30SM FEW060 09/M07 A3054 RMK CU1 SLP342

CYUL;2010-04-13 17:00;CYUL 131700Z 00000KT 30SM FEW060 10/M06 A3052 RMK CU1 SLP338

CYUL;2010-04-13 18:00;CYUL 131800Z 20002KT 30SM FEW060 12/M07 A3051 RMK CU1 SLP334

CYUL;2010-04-13 19:00;CYUL 131900Z 25008KT 30SM FEW060 12/M07 A3049 RMK CU1 SLP327

CYUL;2010-04-13 20:00;CYUL 132000Z 21007KT 30SM SKC 12/M07 A3048 RMK SLP324

CYUL;2010-04-13 21:00;CYUL 132100Z 21006KT 30SM SKC 13/M07 A3047 RMK SLP321

CYUL;2010-04-13 22:00;CYUL 132200Z 20005KT 30SM FEW240 13/M08 A3047 RMK CI0 SLP318

CYUL;2010-04-13 23:00;CYUL 132300Z 21008KT 30SM SCT240 12/M07 A3046 RMK CI0 SLP317

CYUL;2010-04-14 00:00;CYUL 140000Z 22007KT 30SM FEW240 12/M06 A3047 RMK CI0 SLP318

CYUL;2010-04-14 01:00;CYUL 140100Z 23005KT 15SM FEW240 10/M05 A3048 RMK CI0 SLP323

CYUL;2010-04-14 02:00;CYUL 140200Z 29003KT 15SM SKC 07/M06 A3049 RMK SLP325

CYUL;2010-04-14 03:00;CYUL 140300Z 33004KT 15SM SKC 08/08 A3048 RMK SLP324

CYUL;2010-04-14 04:00;CYUL 140400Z 29002KT 15SM SKC 06/M07 A3048 RMK SLP323

CYUL;2010-04-14 05:00;CYUL 140500Z 28003KT 15SM SKC 06/M07 A3048 RMK SLP322

CYUL;2010-04-14 06:00;CYUL 140600Z 30003KT 15SM SKC 06/M07 A3047 RMK SLP319

CYUL;2010-04-14 07:00;CYUL 140700Z 00000KT 15SM SKC 05/M04 A3047 RMK SLP319

CYUL;2010-04-14 08:00;CYUL 140800Z 00000KT 15SM SKC 05/M02 A3048 RMK SLP322

CYUL;2010-04-14 09:00;CYUL 140900Z 02002KT 15SM FEW210 03/M04 A3049 RMK CI0 SLP326

CYUL;2010-04-14 10:00;CYUL 141000Z 00000KT 30SM SCT210 04/M04 A3051 RMK CI1 SLP332

CYUL;2010-04-14 11:00;CYUL 141100Z 00000KT 30SM FEW180 BKN210 04/M04 A3051 RMK AC1CI2 SLP334

CYUL;2010-04-14 12:00;CYUL 141200Z 00000KT 30SM BKN200 OVC240 06/M03 A3053 RMK CI4CI1 SLP341

CYUL;2010-04-14 13:00;CYUL 141300Z 28002KT 30SM BKN200 07/M06 A3054 RMK CS7 SLP343

CYUL;2010-04-14 14:00;CYUL 141400Z 30003KT 30SM BKN200 09/M06 A3054 RMK CS6 SLP343

CYUL;2010-04-14 15:00;CYUL 141500Z 22005KT 30SM BKN200 10/M02 A3052 RMK CS7 SLP338

CYUL;2010-04-14 16:00;CYUL 141600Z 22006KT 30SM BKN200 10/M03 A3049 RMK CS6 SLP326

CYUL;2010-04-14 17:00;CYUL 141700Z 20009KT 30SM SCT180 BKN200 13/M03 A3044 RMK AC1CS2 SLP311

CYUL;2010-04-14 18:00;CYUL 141800Z 26019KT 30SM FEW180 SCT220 15/M05 A3039 RMK AC1CI0 SLP292

CYUL;2010-04-14 19:00;CYUL 141900Z 28017KT 30SM FEW180 FEW240 17/M06 A3035 RMK AC0CI0 SLP278

CYUL;2010-04-14 20:00;CYUL 142000Z 29019G26KT 30SM FEW180 18/M07 A3032 RMK AC1 SLP268

CYUL;2010-04-14 21:00;CYUL 142100Z 30013G25KT 30SM FEW180 18/M07 A3029 RMK AC1 SLP260

CYUL;2010-04-14 22:00;CYUL 142200Z 27016G26KT 30SM FEW240 17/M06 A3027 RMK CI1 SLP252

CYUL;2010-04-14 23:00;CYUL 142300Z 27013KT 30SM FEW180 17/M05 A3025 RMK AC1 SLP245

CYUL;2010-04-15 00:00;CYUL 150000Z 30005KT 30SM SKC 12/M06 A3025 RMK SLP244

CYUL;2010-04-15 01:00;CYUL 150100Z 28005KT 15SM SKC 10/M05 A3026 RMK SLP248

CYUL;2010-04-15 02:00;CYUL 150200Z 27005KT 15SM SKC 09/M04 A3026 RMK SLP248

CYUL;2010-04-15 03:00;CYUL 150300Z 27006KT 15SM SKC 10/M04 A3026 RMK SLP249

CYUL;2010-04-15 04:00;CYUL 150400Z 33003KT 15SM SKC 10/M04 A3028 RMK SLP256

CYUL;2010-04-15 05:00;CYUL 150500Z 06007KT 15SM SKC 12/M08 A3029 RMK SLP258

CYUL;2010-04-15 06:00;CYUL 150600Z 03008KT 15SM SKC 09/M07 A3029 RMK SLP259

CYUL;2010-04-15 07:00;CYUL 150700Z 06011G17KT 15SM SKC 08/M07 A3031 RMK SLP264

CYUL;2010-04-15 08:00;CYUL 150800Z 06010KT 15SM SKC 07/M06 A3031 RMK SLP266

CYUL;2010-04-15 09:00;CYUL 150900Z 01004KT 15SM SKC 05/M06 A3032 RMK SLP270

CYUL;2010-04-15 10:00;CYUL 151000Z 04007KT 30SM FEW240 04/M07 A3033 RMK CI1 SLP273

CYUL;2010-04-15 11:00;CYUL 151100Z 04006KT 30SM FEW240 04/M07 A3035 RMK CI0 SLP278

CYUL;2010-04-15 12:00;CYUL 151200Z 04011KT 30SM SCT240 06/M08 A3035 RMK CI1 SLP279

CYUL;2010-04-15 13:00;CYUL 151300Z 05010KT 30SM BKN240 07/M07 A3035 RMK CI2 SLP280

CYUL;2010-04-15 14:00;CYUL 151400Z 07007KT 30SM BKN240 08/M07 A3035 RMK CI0 SLP280

CYUL;2010-04-15 15:00;CYUL 151500Z 05009KT 30SM BKN240 08/M07 A3035 RMK CI1 SLP279

CYUL;2010-04-15 16:00;CYUL 151600Z 06006KT 30SM SCT160 BKN210 10/M07 A3034 RMK AS2CI1 SLP275

CYUL;2010-04-15 17:00;CYUL 151700Z 04005KT 30SM SCT180 BKN240 11/M06 A3033 RMK AS2CI1 SLP273

CYUL;2010-04-15 18:00;CYUL 151800Z 03004KT 30SM SCT180 OVC240 11/M08 A3031 RMK AS3CS3 SLP267

CYUL;2010-04-15 19:00;CYUL 151900Z 11003KT 30SM SCT120 OVC230 11/M08 A3029 RMK AC2CS5 SLP259

CYUL;2010-04-15 20:00;CYUL 152000Z 09005KT 30SM SCT150 OVC220 11/M07 A3026 RMK AC2CS3 SLP250

CYUL;2010-04-15 21:00;CYUL 152100Z CCB 09008KT 30SM FEW150 OVC190 11/M07 A3025 RMK AC2AC5 SLP246

CYUL;2010-04-15 22:00;CYUL 152200Z 13005KT 30SM SCT120 OVC180 11/M06 A3024 RMK AC3AC5 SLP243

CYUL;2010-04-15 23:00;CYUL 152300Z 08009KT 30SM SCT120 OVC170 11/M08 A3022 RMK AC3AC5 SLP236

CYUL;2010-04-16 00:00;CYUL 160000Z 09009KT 15SM BKN110 OVC150 10/M08 A3021 RMK AC6AC2 SLP233

CYUL;2010-04-16 01:00;CYUL 160100Z 08008KT 15SM BKN090 OVC130 10/M08 A3022 RMK AC6AC2 SLP234

CYUL;2010-04-16 02:00;CYUL 160200Z 05007KT 15SM OVC075 10/M07 A3021 RMK AS8 SLP233

CYUL;2010-04-16 03:00;CYUL 160300Z 06006KT 15SM -RA OVC067 10/M04 A3019 RMK AS8 SLP224

CYUL;2010-04-16 04:00;CYUL 160400Z 14009G16KT 7SM -RA SCT045 OVC070 07/M01 A3016 RMK SC3AS5 SLP215

CYUL;2010-04-16 05:00;CYUL 160500Z 17004KT 7SM -RA OVC040 06/01 A3017 RMK SC8 SLP217

CYUL;2010-04-16 06:00;CYUL 160600Z 00000KT 6SM -RA BR OVC050 05/01 A3015 RMK SC8 SLP213

CYUL;2010-04-16 07:00;CYUL 160700Z 09007KT 5SM -RA BR OVC065 04/01 A3011 RMK SC8 SLP197

CYUL;2010-04-16 08:00;CYUL 160800Z 07011KT 10SM -RA BKN012 OVC060 04/01 A3006 RMK SF6SC2 SLP181

CYUL;2010-04-16 09:00;CYUL 160900Z 08012KT 4SM -RA BR BKN007 OVC012 04/02 A3003 RMK SF6SF2 SLP170

CYUL;2010-04-16 10:00;CYUL 161000Z 09013KT 5SM -RA BR SCT007 OVC055 04/02 A3000 RMK SF3SC5 SLP161

CYUL;2010-04-16 11:00;CYUL 161100Z 11012KT 6SM -RA BR FEW008 BKN018 OVC050 05/02 A2996 RMK SF2SF6SC1 SLP147

CYUL;2010-04-16 11:51;CYUL 161151Z 12015KT 6SM -RA BR OVC011 05/ RMK SF8

CYUL;2010-04-16 12:00;CYUL 161200Z 12011G19KT 12SM -RA SCT009 OVC013 05/02 A2993 RMK SF3SF5 /R11/ SLP138

CYUL;2010-04-16 13:00;CYUL 161300Z 11008KT 15SM OVC013 05/03 A2992 RMK SF8 SLP134

CYUL;2010-04-16 14:00;CYUL 161400Z 12012G17KT 15SM BKN015 OVC045 06/03 A2989 RMK SF6SC2 SLP123

CYUL;2010-04-16 15:00;CYUL 161500Z 12017KT 15SM BKN018 OVC045 07/03 A2985 RMK SF5SC3 SLP110

CYUL;2010-04-16 15:26;CYUL 161526Z 12015G21KT 15SM -RA BKN018 OVC045 07/ RMK SF6SC2

CYUL;2010-04-16 15:55;CYUL 161555Z 13016G21KT 15SM BKN022 OVC045 07/ RMK SF6SC2

CYUL;2010-04-16 16:00;CYUL 161600Z 13015G21KT 15SM BKN021 OVC045 07/03 A2984 RMK SF6SC2 SLP107

CYUL;2010-04-16 16:43;CYUL 161643Z 14017G22KT 10SM -SHRA BKN023 OVC040 07/ RMK SC6SC2

CYUL;2010-04-16 17:00;CYUL 161700Z 12013G20KT 12SM -SHRA BKN020 OVC040 07/03 A2981 RMK SC6SC2 SLP097

CYUL;2010-04-16 17:31;CYUL 161731Z 13016G21KT 15SM SCT020 OVC037 07/ RMK SC3SC5

CYUL;2010-04-16 17:37;CYUL 161737Z CCA 14019G25KT 15SM -SHRA SCT020 OVC037 06/ RMK SC3SC5

CYUL;2010-04-16 18:00;CYUL 161800Z 14019G25KT 15SM -SHRA SCT020 OVC037 06/03 A2978 RMK SC3SC5 SLP085

CYUL;2010-04-16 19:00;CYUL 161900Z 14020G25KT 10SM -RA BKN015 OVC035 06/03 A2976 RMK SC6SC2 SLP080

CYUL;2010-04-16 19:11;CYUL 161911Z 14017G25KT 10SM -RA BKN013 OVC035 06/ RMK SC6SC2

CYUL;2010-04-16 20:00;CYUL 162000Z 14014G19KT 12SM -RA OVC014 06/03 A2974 RMK SC8 SLP072

CYUL;2010-04-16 21:00;CYUL 162100Z 13016KT 15SM -RA OVC009 06/03 A2970 RMK SF8 SLP060

CYUL;2010-04-16 22:00;CYUL 162200Z 13013G20KT 12SM -RA FEW008 OVC012 06/03 A2969 RMK SF2SF6 SLP055

CYUL;2010-04-16 23:00;CYUL 162300Z 13011G16KT 12SM -RA FEW008 OVC012 06/03 A2967 RMK SF2SF6 SLP047

CYUL;2010-04-16 23:22;CYUL 162322Z 12011KT 12SM -DZ FEW008 OVC013 06/ RMK SF2SF6

CYUL;2010-04-17 00:00;CYUL 170000Z 09008KT 8SM -DZ OVC009 06/03 A2965 RMK SF8 SLP042

CYUL;2010-04-17 01:00;CYUL 170100Z 08008KT 6SM -DZ OVC008 06/03 A2964 RMK SF8 SLP039

CYUL;2010-04-17 02:00;CYUL 170200Z 08008KT 6SM -DZ BR FEW007 OVC011 06/03 A2963 RMK SF2SF6 SLP034

CYUL;2010-04-17 03:00;CYUL 170300Z 07007KT 4SM -RA BR FEW008 OVC012 06/03 A2961 RMK SF2SF6 SLP028

CYUL;2010-04-17 04:00;CYUL 170400Z 06007KT 6SM -DZ BR OVC009 06/04 A2959 RMK SF8 SLP022

CYUL;2010-04-17 05:00;CYUL 170500Z 08008KT 7SM OVC008 06/04 A2957 RMK ST8 SLP015

CYUL;2010-04-17 06:00;CYUL 170600Z 00000KT 8SM OVC007 06/04 A2957 RMK ST8 SLP015

CYUL;2010-04-17 06:43;CYUL 170643Z 09002KT 6SM -DZ BR OVC006 06/ RMK ST8

CYUL;2010-04-17 07:00;CYUL 170700Z 00000KT 6SM -DZ BR OVC006 06/04 A2956 RMK ST8 SLP011

CYUL;2010-04-17 07:41;CYUL 170741Z 30003KT 6SM BR OVC006 06/ RMK ST8

CYUL;2010-04-17 08:00;CYUL 170800Z 33004KT 4SM BR OVC003 06/04 A2956 RMK ST8 SLP010

CYUL;2010-04-17 08:39;CYUL 170839Z 29004KT 2 1/4SM BR OVC002 05/ RMK ST8

CYUL;2010-04-17 09:00;CYUL 170900Z 26004KT 1 3/4SM BR OVC002 05/03 A2957 RMK ST8 SLP014

CYUL;2010-04-17 10:00;CYUL 171000Z 26004KT 1 3/4SM BR SCT002 BKN005 OVC025 05/03 A2958 RMK SF3SC4SC1 SLP018

CYUL;2010-04-17 10:50;CYUL 171050Z 26006KT 2SM BR OVC003 05/ RMK ST8

CYUL;2010-04-17 11:00;CYUL 171100Z 25006KT 2SM BR OVC004 05/03 A2961 RMK ST8 SLP027

CYUL;2010-04-17 11:03;CYUL 171103Z 25006KT 2SM -RA BR OVC004 05/ RMK ST8

CYUL;2010-04-17 11:25;CYUL 171125Z 26005KT 2SM -RA BR OVC003 05/ RMK ST8

CYUL;2010-04-17 11:41;CYUL 171141Z 24007KT 3SM -RA BR FEW003 OVC025 06/ RMK SF2SC6

CYUL;2010-04-17 12:00;CYUL 171200Z 25014KT 7SM -RA FEW004 OVC030 06/04 A2963 RMK SF2SC6 SLP035

CYUL;2010-04-17 12:20;CYUL 171220Z 25011KT 15SM FEW004 FEW030 OVC045 06/ RMK SF1SC2SC6

CYUL;2010-04-17 13:00;CYUL 171300Z 25011KT 30SM FEW006 OVC045 07/02 A2964 RMK SF1SC7 SLP040

CYUL;2010-04-17 14:00;CYUL 171400Z 25011KT 15SM FEW030 BKN049 OVC090 07/01 A2966 RMK SC1SC6AC1 SLP046

CYUL;2010-04-17 15:00;CYUL 171500Z 27007KT 15SM -RA FEW026 BKN040 OVC060 07/01 A2968 RMK SC2SC5SC2 VRY LGT RA SLP052

CYUL;2010-04-17 16:00;CYUL 171600Z 27006KT 30SM FEW026 BKN036 OVC062 08/01 A2968 RMK SC2SC5SC2 SLP053

CYUL;2010-04-17 17:00;CYUL 171700Z 30004KT 30SM FEW035 BKN046 OVC095 08/01 A2969 RMK SC2SC5AC2 SLP055

CYUL;2010-04-17 18:00;CYUL 171800Z 31006KT 30SM FEW040 BKN055 OVC090 09/02 A2970 RMK SC2SC5AC2 SLP059

CYUL;2010-04-17 19:00;CYUL 171900Z 05013KT 15SM SCT027 BKN040 OVC062 07/03 A2971 RMK SC3SC3SC1 SLP063

CYUL;2010-04-17 20:00;CYUL 172000Z 02009KT 15SM SCT025 BKN055 OVC090 07/03 A2972 RMK SC3SC3AC1 SLP067

CYUL;2010-04-17 21:00;CYUL 172100Z 04012KT 15SM FEW027 BKN048 OVC062 06/02 A2975 RMK SC2SC5SC2 SLP076

CYUL;2010-04-17 21:50;CYUL 172150Z 04012KT 15SM BKN011 OVC032 05/ RMK SF6SC2

CYUL;2010-04-17 22:00;CYUL 172200Z 04012KT 15SM BKN011 OVC030 05/02 A2977 RMK SF6SC2 SLP084

CYUL;2010-04-17 22:52;CYUL 172252Z 02010KT 15SM BKN009 OVC020 05/ RMK SF6SC2

CYUL;2010-04-17 23:00;CYUL 172300Z 03010KT 15SM BKN011 OVC020 04/01 A2979 RMK SF6SC2 SLP090

CYUL;2010-04-17 23:21;CYUL 172321Z 03011KT 15SM BKN008 OVC020 04/ RMK SF6SC2

CYUL;2010-04-18 00:00;CYUL 180000Z 02010G15KT 15SM BKN006 OVC012 04/01 A2981 RMK SF6SC2 SLP096

CYUL;2010-04-18 00:41;CYUL 180041Z 03010KT 15SM -SHRA OVC007 03/ RMK ST8

CYUL;2010-04-18 01:00;CYUL 180100Z 02011KT 15SM -SHRA OVC008 03/01 A2983 RMK ST8 SLP103

CYUL;2010-04-18 02:00;CYUL 180200Z 03009KT 15SM -RA OVC007 03/01 A2985 RMK ST8 SLP108

CYUL;2010-04-18 03:00;CYUL 180300Z 02008KT 12SM -RA OVC007 03/00 A2984 RMK ST8 SLP107

CYUL;2010-04-18 04:00;CYUL 180400Z 03007KT 12SM -RA OVC006 03/00 A2984 RMK ST8 SLP107

CYUL;2010-04-18 05:00;CYUL 180500Z 02007KT 10SM -DZ OVC006 02/00 A2985 RMK ST8 SLP109

CYUL;2010-04-18 06:00;CYUL 180600Z CCA 03008KT 10SM -DZ OVC005 02/00 A2984 RMK ST8 SLP106

CYUL;2010-04-18 07:00;CYUL 180700Z 02007KT 15SM FEW007 BKN014 OVC050 03/00 A2983 RMK SF2SC5SC2 SLP104

CYUL;2010-04-18 08:00;CYUL 180800Z 36005KT 15SM FEW016 BKN050 03/00 A2983 RMK SF1SC7 SLP103

CYUL;2010-04-18 09:00;CYUL 180900Z 34004KT 15SM BKN060 02/M00 A2983 RMK SC7 SLP103

CYUL;2010-04-18 10:00;CYUL 181000Z 31005KT 15SM BKN060 OVC240 02/M01 A2983 RMK SC4CS2 SLP103

CYUL;2010-04-18 11:00;CYUL 181100Z 29006KT 15SM FEW065 OVC220 03/M00 A2983 RMK SC2CS4 SLP104

CYUL;2010-04-18 12:00;CYUL 181200Z 27006KT 15SM BKN075 OVC220 05/00 A2984 RMK AC6CI1 SLP107

CYUL;2010-04-18 13:00;CYUL 181300Z 29007KT 15SM FEW050 SCT075 OVC220 05/M00 A2985 RMK SC2AS2CS4 SLP109

CYUL;2010-04-18 14:00;CYUL 181400Z 29007KT 15SM FEW025 BKN054 OVC220 06/M00 A2986 RMK SF1SC6CI1 SLP112

CYUL;2010-04-18 14:48;CYUL 181448Z 29004KT 15SM -SHRA BKN019 OVC032 05/ RMK SF6SC2

CYUL;2010-04-18 15:00;CYUL 181500Z 26005KT 15SM -SHRA BKN023 OVC036 05/00 A2986 RMK SC6SC2 SLP114

CYUL;2010-04-18 16:00;CYUL 181600Z 27010KT 15SM -SHRA FEW012 BKN032 OVC044 06/02 A2984 RMK SF1SC5SC2 SLP107

CYUL;2010-04-18 17:00;CYUL 181700Z 28012KT 15SM -RA FEW017 SCT028 OVC041 07/03 A2983 RMK SF1SC3SC4 SLP101

CYUL;2010-04-18 17:48;CYUL 181748Z 27013KT 15SM FEW032 BKN048 OVC110 07/ RMK SC2SC5AC2

CYUL;2010-04-18 18:00;CYUL 181800Z 29013G18KT 15SM FEW025 BKN038 OVC090 08/03 A2982 RMK SC2SC5AC2 SLP099

CYUL;2010-04-18 18:33;CYUL 181833Z 31014G21KT 15SM -SHRA FEW028 BKN042 OVC065 09/ RMK SC2SC5SC2 -RA INTMT

CYUL;2010-04-18 19:00;CYUL 181900Z 02012KT 15SM -SHRA SCT028 OVC042 07/03 A2983 RMK SC2SC6 SLP103

CYUL;2010-04-18 20:00;CYUL 182000Z 35007KT 15SM -SHRA FEW025 BKN033 BKN065 07/04 A2984 RMK SC2SC4SC1 VRY LGT RA SLP105

CYUL;2010-04-18 20:20;CYUL 182020Z 34005KT 15SM FEW035 SCT058 BKN090 08/ RMK SC2SC2AC2

CYUL;2010-04-18 21:00;CYUL 182100Z 02011KT 30SM FEW032 BKN065 BKN090 09/04 A2984 RMK SC1SC3AC1 SLP107

CYUL;2010-04-18 21:19;CYUL 182119Z 36008KT 15SM -RA BKN034 BKN055 BKN090 09/ RMK SC5SC1AC1

CYUL;2010-04-18 22:00;CYUL 182200Z 03009KT 10SM -RA FEW018 BKN033 BKN090 08/04 A2986 RMK SF2SC5AC1 SLP113

CYUL;2010-04-18 23:00;CYUL 182300Z 00000KT 15SM -RA FEW038 SCT060 OVC075 08/05 A2987 RMK SC1SC2AC5 SLP115

CYUL;2010-04-19 00:00;CYUL 190000Z 04010KT 15SM -RA SCT013 OVC032 07/04 A2990 RMK SF3SC5 SLP127

CYUL;2010-04-19 01:00;CYUL 190100Z 36005KT 15SM -RA FEW032 SCT062 OVC090 06/03 A2992 RMK SC2SC2AC4 SLP133

CYUL;2010-04-19 02:00;CYUL 190200Z 36006KT 15SM -RA FEW012 OVC035 06/03 A2993 RMK SF1SC8 SLP136

CYUL;2010-04-19 02:24;CYUL 190224Z 02005KT 15SM FEW035 BKN080 06/ RMK SC2AC6

CYUL;2010-04-19 03:00;CYUL 190300Z 35006KT 15SM FEW055 OVC080 06/03 A2993 RMK SC1AC7 SLP137

CYUL;2010-04-19 04:00;CYUL 190400Z 36007KT 15SM -DZ FEW030 BKN045 OVC070 06/03 A2994 RMK SC2SC5AC2 SLP139

CYUL;2010-04-19 04:32;CYUL 190432Z 36004KT 15SM FEW045 BKN070 05/ RMK SC2AC6

CYUL;2010-04-19 05:00;CYUL 190500Z 34004KT 15SM BKN035 OVC070 05/03 A2993 RMK SC6AC2 SLP137

CYUL;2010-04-19 06:00;CYUL 190600Z 33003KT 15SM FEW030 SCT070 SCT240 04/02 A2992 RMK SC1AC2CI0 SLP134

CYUL;2010-04-19 07:00;CYUL 190700Z 31004KT 15SM FEW035 FEW070 BKN200 03/01 A2993 RMK SC1AC1CI1 SLP136

CYUL;2010-04-19 08:00;CYUL 190800Z 31006KT 15SM SCT100 BKN240 03/00 A2994 RMK AC3CI1 SLP139

CYUL;2010-04-19 09:00;CYUL 190900Z 31004KT 15SM FEW060 FEW085 BKN240 02/00 A2994 RMK SC1AC2CI1 SLP141

CYUL;2010-04-19 10:00;CYUL 191000Z 31005KT 15SM FEW090 BKN240 03/00 A2996 RMK AC2CI2 SLP146

CYUL;2010-04-19 11:00;CYUL 191100Z 32007KT 15SM FEW030 FEW090 OVC240 04/01 A2997 RMK SC1AC1CI2 CS ASOCTD SLP151

CYUL;2010-04-19 12:00;CYUL 191200Z 35008KT 30SM FEW030 FEW090 BKN240 07/01 A2998 RMK SC1AC1CI2 SLP153

CYUL;2010-04-19 13:00;CYUL 191300Z 03010KT 30SM FEW030 FEW100 BKN240 08/01 A2999 RMK CU1AC1CI1 SLP158

CYUL;2010-04-19 14:00;CYUL 191400Z 05008KT 30SM FEW032 BKN240 09/01 A3000 RMK SC1CI2 SLP160

CYUL;2010-04-19 15:00;CYUL 191500Z 34007KT 30SM FEW032 SCT180 BKN240 10/03 A3001 RMK SC1AC1CI2 SLP162

CYUL;2010-04-19 16:00;CYUL 191600Z 33005KT 30SM FEW032 FEW170 BKN240 10/02 A3000 RMK CU1AC1CI1 SLP161

CYUL;2010-04-19 17:00;CYUL 191700Z 34007KT 30SM FEW033 FEW240 12/03 A2999 RMK CU1CI1 SLP157

CYUL;2010-04-19 18:00;CYUL 191800Z 35005KT 30SM FEW040 FEW240 13/04 A2999 RMK CF1CI1 SLP158

CYUL;2010-04-19 19:00;CYUL 191900Z 20008KT 30SM FEW047 FEW240 14/04 A2998 RMK CF1CI1 SLP154

CYUL;2010-04-19 20:00;CYUL 192000Z 22007KT 30SM FEW050 FEW240 15/04 A2996 RMK CF1CI1 SLP148

CYUL;2010-04-19 21:00;CYUL 192100Z 20009KT 30SM -SHRA SCT065 BKN120 BKN240 15/04 A2996 RMK SC3AC1CI1 VRY LGT RA SLP147

CYUL;2010-04-19 21:18;CYUL 192118Z 18008KT 30SM SCT055 SCT120 BKN240 15/ RMK SC2AC1CI1

CYUL;2010-04-19 22:00;CYUL 192200Z 21005KT 15SM SCT062 BKN110 BKN240 15/04 A2995 RMK SC3AC1CI1 SLP144

CYUL;2010-04-19 23:00;CYUL 192300Z 32005KT 15SM SCT058 SCT110 15/05 A2995 RMK SC2AC1 SLP143

CYUL;2010-04-20 00:00;CYUL 200000Z 32005KT 15SM FEW055 SCT110 12/05 A2996 RMK SC2AC1 SLP147

CYUL;2010-04-20 01:00;CYUL 200100Z 30005KT 15SM FEW110 11/05 A2997 RMK AC1 SLP150

CYUL;2010-04-20 02:00;CYUL 200200Z 31006KT 15SM BKN100 12/05 A2997 RMK AC7 SLP150

CYUL;2010-04-20 03:00;CYUL 200300Z 32004KT 15SM BKN100 11/04 A2996 RMK AC7 SLP147

CYUL;2010-04-20 04:00;CYUL 200400Z 30005KT 15SM BKN075 OVC100 11/04 A2996 RMK AC6AC2 SLP145

CYUL;2010-04-20 05:00;CYUL 200500Z 29005KT 15SM SCT085 OVC095 11/04 A2995 RMK AC3AC5 SLP142

CYUL;2010-04-20 06:00;CYUL 200600Z 29006KT 15SM BKN080 OVC100 11/04 A2993 RMK AC6AC2 SLP138

CYUL;2010-04-20 07:00;CYUL 200700Z 31005KT 15SM BKN080 BKN100 11/04 A2993 RMK AC6AC1 SLP137

CYUL;2010-04-20 08:00;CYUL 200800Z 34003KT 15SM BKN095 10/03 A2994 RMK AC5 SLP139

CYUL;2010-04-20 09:00;CYUL 200900Z 00000KT 15SM FEW100 09/02 A2994 RMK AC2 SLP139

CYUL;2010-04-20 10:00;CYUL 201000Z 27002KT 30SM FEW100 06/01 A2994 RMK AC2 SLP140

CYUL;2010-04-20 11:00;CYUL 201100Z 26002KT 30SM FEW100 FEW240 09/02 A2995 RMK AC2CI1 SLP142

CYUL;2010-04-20 12:00;CYUL 201200Z 25003KT 30SM FEW090 10/04 A2995 RMK AC1 SLP144

CYUL;2010-04-20 13:00;CYUL 201300Z 29006KT 30SM FEW090 SCT220 13/03 A2995 RMK ACC1CI0 SLP143

CYUL;2010-04-20 14:00;CYUL 201400Z 29005KT 30SM FEW060 FEW210 14/03 A2995 RMK CU1CI0 SLP142

CYUL;2010-04-20 15:00;CYUL 201500Z 30009KT 30SM FEW060 FEW210 16/03 A2994 RMK CU1CI0 SLP139

CYUL;2010-04-20 16:00;CYUL 201600Z 31009KT 30SM SCT065 BKN210 18/03 A2991 RMK CU4CI0 SLP130

CYUL;2010-04-20 17:00;CYUL 201700Z 34007KT 30SM FEW065 BKN100 BKN210 18/02 A2988 RMK CU2ACC3CI0 SLP121

CYUL;2010-04-20 17:20;CYUL 201720Z 34024G30KT 30SM -SHRA FEW065 BKN080 BKN210 18/ RMK CU2ACC4CI0

CYUL;2010-04-20 17:50;CYUL 201750Z CCA 08002KT 30SM FEW065 BKN090 BKN210 17/ RMK CU2ACC5CI0

CYUL;2010-04-20 18:00;CYUL 201800Z 14003KT 30SM FEW065 BKN080 BKN230 18/02 A2987 RMK CU2ACC4CI0 SLP117

CYUL;2010-04-20 19:00;CYUL 201900Z 34010KT 30SM FEW065 BKN085 18/02 A2985 RMK CU2ACC5 SLP108

CYUL;2010-04-20 20:00;CYUL 202000Z 35008KT 30SM FEW065 BKN095 BKN210 19/02 A2983 RMK CU2ACC2CI0 SLP103

CYUL;2010-04-20 21:00;CYUL 202100Z 27007KT 30SM FEW065 BKN095 BKN210 19/01 A2982 RMK CU1ACC4CI0 SLP100

CYUL;2010-04-20 22:00;CYUL 202200Z 28012KT 30SM FEW060 BKN085 BKN210 18/02 A2983 RMK CU1ACC5CI0 SLP101

CYUL;2010-04-20 23:00;CYUL 202300Z 36009KT 30SM SCT060TCU BKN100 16/03 A2984 RMK TCU3ACC3 SLP107

CYUL;2010-04-20 23:10;CYUL 202310Z 34010KT 30SM -SHRA SCT060TCU BKN100 16/ RMK TCU4ACC3

CYUL;2010-04-20 23:30;CYUL 202330Z 34003KT 30SM SCT060TCU BKN090 16/ RMK TCU4ACC3

CYUL;2010-04-21 00:00;CYUL 210000Z 33003KT 30SM FEW060TCU BKN085 15/03 A2984 RMK TCU2ACC4 SLP107

CYUL;2010-04-21 01:00;CYUL 210100Z 26004KT 15SM BKN080 15/03 A2985 RMK AC5 SLP110

CYUL;2010-04-21 02:00;CYUL 210200Z 36002KT 15SM SCT085 BKN140 14/04 A2985 RMK AC3AC3 SLP109

CYUL;2010-04-21 03:00;CYUL 210300Z 36005KT 15SM FEW080 OVC110 14/03 A2983 RMK AC1AC6 SLP103

CYUL;2010-04-21 04:00;CYUL 210400Z 16002KT 15SM SCT080 BKN100 13/04 A2982 RMK AC3AC2 SLP100

CYUL;2010-04-21 05:00;CYUL 210500Z 00000KT 15SM FEW080 11/04 A2982 RMK AC2 SLP099

CYUL;2010-04-21 06:00;CYUL 210600Z 18002KT 15SM FEW080 12/04 A2981 RMK AC2 SLP095

CYUL;2010-04-21 07:00;CYUL 210700Z 00000KT 15SM BKN100 10/03 A2980 RMK AC6 SLP092

CYUL;2010-04-21 08:00;CYUL 210800Z 08002KT 15SM SCT110 10/03 A2980 RMK AC3 SLP090

CYUL;2010-04-21 09:00;CYUL 210900Z 00000KT 15SM BKN100 09/02 A2980 RMK AC5 VIRGA SLP091

CYUL;2010-04-21 10:00;CYUL 211000Z 02004KT 30SM FEW100 SCT240 10/03 A2980 RMK AC2CI0 ACC EMBD SLP092

CYUL;2010-04-21 11:00;CYUL 211100Z 05008KT 30SM FEW100 FEW240 09/00 A2981 RMK AC1CI0 SLP095

CYUL;2010-04-21 12:00;CYUL 211200Z 05010KT 30SM FEW100 FEW240 09/M01 A2981 RMK AC1CI1 SLP097

CYUL;2010-04-21 13:00;CYUL 211300Z 06007KT 30SM FEW100 FEW240 10/M00 A2980 RMK AC1CI0 CONTRAILS SLP094

CYUL;2010-04-21 14:00;CYUL 211400Z 04003KT 30SM FEW100 SCT240 11/01 A2980 RMK AC1CI0 SLP092

CYUL;2010-04-21 15:00;CYUL 211500Z 06003KT 30SM FEW060 FEW110 SCT240 12/02 A2979 RMK SC0AC0CI1 SLP088

CYUL;2010-04-21 16:00;CYUL 211600Z 18002KT 30SM SCT160 BKN240 14/02 A2976 RMK AC2CI2 SLP079

CYUL;2010-04-21 17:00;CYUL 211700Z 00000KT 30SM FEW060 FEW110 SCT180 OVC240 16/02 A2974 RMK SC0AC1AC2CI2 SLP071

CYUL;2010-04-21 18:00;CYUL 211800Z 25002KT 30SM FEW050 SCT120 OVC240 17/03 A2972 RMK SC1AC2CI4 SLP064

CYUL;2010-04-21 19:00;CYUL 211900Z 03002KT 30SM FEW050 BKN180 OVC240 17/03 A2969 RMK SC1AS3CI3 SLP055

CYUL;2010-04-21 20:00;CYUL 212000Z 35004KT 30SM FEW050 BKN170 OVC220 17/03 A2968 RMK CU1AS4CS3 SLP051

CYUL;2010-04-21 21:00;CYUL 212100Z 27004KT 30SM FEW055 BKN180 OVC240 17/03 A2968 RMK SC1AS4CS2 SLP050

CYUL;2010-04-21 22:00;CYUL 212200Z 28003KT 30SM SCT180 BKN240 18/03 A2967 RMK AS2CS2 SLP046

CYUL;2010-04-21 23:00;CYUL 212300Z 32005KT 15SM SCT150 BKN240 16/02 A2966 RMK AS2CI2 SLP043

CYUL;2010-04-22 00:00;CYUL 220000Z 33002KT 15SM FEW180 BKN240 15/00 A2966 RMK AC1CI2 SLP044

CYUL;2010-04-22 01:00;CYUL 220100Z 00000KT 15SM FEW180 SCT240 15/M01 A2967 RMK AC0CI1 SLP046

CYUL;2010-04-22 02:00;CYUL 220200Z 10003KT 15SM FEW100 FEW180 FEW240 14/03 A2967 RMK AC1AC0CI0 SLP046

CYUL;2010-04-22 03:00;CYUL 220300Z 05012KT 15SM FEW085 BKN110 13/01 A2967 RMK AC2AC4 SLP047

CYUL;2010-04-22 04:00;CYUL 220400Z 04013G18KT 15SM FEW080 FEW130 11/01 A2967 RMK AC1AC1 SLP049

CYUL;2010-04-22 05:00;CYUL 220500Z 01014KT 15SM SCT110 09/02 A2970 RMK AC3 SLP057

CYUL;2010-04-22 06:00;CYUL 220600Z 05009G16KT 15SM FEW100 09/01 A2967 RMK AC2 SLP047

CYUL;2010-04-22 07:00;CYUL 220700Z 02004KT 15SM FEW090 08/01 A2967 RMK AC2 SLP049

CYUL;2010-04-22 08:00;CYUL 220800Z 04006KT 15SM FEW100 08/01 A2968 RMK AC1 SLP051

CYUL;2010-04-22 09:00;CYUL 220900Z 03006KT 15SM SCT100 06/01 A2969 RMK AC4 SLP054

CYUL;2010-04-22 10:00;CYUL 221000Z 36006KT 15SM BKN085 BKN100 06/02 A2971 RMK AC6AC1 VIRGA SLP062

CYUL;2010-04-22 11:00;CYUL 221100Z 03007KT 15SM FEW085 SCT110 06/02 A2972 RMK AC1AC2 ACC EMBD SLP064

CYUL;2010-04-22 12:00;CYUL 221200Z 03007KT 30SM FEW020 FEW070 FEW110 07/02 A2973 RMK SC1ACC2AC1 SLP069

CYUL;2010-04-22 13:00;CYUL 221300Z 04006KT 30SM FEW025 FEW070 FEW110 08/02 A2973 RMK CF1ACC2AC1 SLP070

CYUL;2010-04-22 14:00;CYUL 221400Z 03008KT 30SM FEW025 FEW090 SCT210 09/03 A2973 RMK CU1AC1CI0 SLP070

CYUL;2010-04-22 15:00;CYUL 221500Z 06007KT 15SM FEW030 BKN090 11/03 A2973 RMK CU1AC2 SLP069

CYUL;2010-04-22 16:00;CYUL 221600Z 34002KT 15SM FEW030 BKN090 11/02 A2973 RMK CU1AC2 SLP068

CYUL;2010-04-22 17:00;CYUL 221700Z 08005KT 15SM BKN044 BKN090 BKN150 12/02 A2972 RMK SC5AC2AC0 SLP066

CYUL;2010-04-22 18:00;CYUL 221800Z 23007KT 15SM BKN042 OVC090 12/02 A2972 RMK SC6AC2 SLP067

CYUL;2010-04-22 19:00;CYUL 221900Z CCA 00000KT 15SM OVC037 11/03 A2973 RMK SC8 SLP068

CYUL;2010-04-22 20:00;CYUL 222000Z 02007KT 15SM OVC039 11/02 A2973 RMK SC8 SLP069

CYUL;2010-04-22 21:00;CYUL 222100Z 01005KT 15SM OVC041 11/02 A2974 RMK SC7 SLP072

CYUL;2010-04-22 22:00;CYUL 222200Z 26010KT 15SM OVC041 10/03 A2975 RMK SC8 SLP076

CYUL;2010-04-22 23:00;CYUL 222300Z 27010KT 15SM BKN045 BKN070 10/02 A2976 RMK SC6AC1 SLP080

CYUL;2010-04-23 00:00;CYUL 230000Z 32010KT 15SM SCT045 BKN080 09/01 A2979 RMK SC3AC4 SLP088

CYUL;2010-04-23 01:00;CYUL 230100Z 29008KT 15SM FEW045 BKN085 07/01 A2981 RMK SC2AC2 SLP097

CYUL;2010-04-23 02:00;CYUL 230200Z 27006KT 15SM FEW060 BKN085 07/01 A2982 RMK SC1AC6 SLP098

CYUL;2010-04-23 03:00;CYUL 230300Z 27007KT 15SM BKN048 BKN090 08/02 A2981 RMK SC7AC1 SLP097

CYUL;2010-04-23 04:00;CYUL 230400Z 27010G16KT 15SM BKN055 BKN090 07/02 A2981 RMK SC7AC1 SLP095

CYUL;2010-04-23 05:00;CYUL 230500Z 25008KT 15SM FEW055 BKN095 07/01 A2981 RMK SC1AC7 SLP097

CYUL;2010-04-23 06:00;CYUL 230600Z 29008KT 15SM BKN095 06/M01 A2981 RMK AC5 SLP096

CYUL;2010-04-23 07:00;CYUL 230700Z 29004KT 15SM FEW095 BKN220 05/M02 A2981 RMK AC2CI1 SLP096

CYUL;2010-04-23 08:00;CYUL 230800Z 31005KT 15SM BKN085 BKN220 04/M02 A2982 RMK AC5CI0 SLP099

CYUL;2010-04-23 09:00;CYUL 230900Z 30005KT 15SM BKN085 04/M03 A2983 RMK AC5 SLP104

CYUL;2010-04-23 10:00;CYUL 231000Z 29004KT 30SM FEW085 FEW220 01/M04 A2985 RMK AC2CI0 SLP109

CYUL;2010-04-23 11:00;CYUL 231100Z 30003KT 30SM FEW085 FEW220 04/M02 A2987 RMK AC1CI0 SLP117

CYUL;2010-04-23 12:00;CYUL 231200Z 31006KT 30SM FEW090 FEW220 06/M04 A2989 RMK AC1CI0 SLP122

CYUL;2010-04-23 13:00;CYUL 231300Z 31003KT 30SM FEW090 FEW220 07/M03 A2989 RMK AC1CI1 SLP124

CYUL;2010-04-23 14:00;CYUL 231400Z 25007KT 30SM FEW220 08/M03 A2990 RMK CI1 SLP125

CYUL;2010-04-23 15:00;CYUL 231500Z 25005KT 30SM FEW220 10/M02 A2990 RMK CI1 SLP125

CYUL;2010-04-23 16:00;CYUL 231600Z 27006KT 30SM FEW050 FEW240 10/M02 A2989 RMK CU1CI1 SLP123

CYUL;2010-04-23 17:00;CYUL 231700Z 25007KT 30SM FEW050 FEW240 12/M01 A2988 RMK CU1CI1 SLP120

CYUL;2010-04-23 18:00;CYUL 231800Z 26004KT 30SM SCT070 13/M01 A2988 RMK ACC3 SLP119

CYUL;2010-04-23 19:00;CYUL 231900Z CCA 20010KT 30SM BKN070 13/M02 A2988 RMK ACC5 SLP120

CYUL;2010-04-23 20:00;CYUL 232000Z 27010KT 30SM BKN080 14/M02 A2988 RMK ACC5 SLP120

CYUL;2010-04-23 21:00;CYUL 232100Z 26012KT 30SM SCT090 15/M03 A2989 RMK ACC4 SLP123

CYUL;2010-04-23 22:00;CYUL 232200Z 26007G15KT 30SM SCT095 15/M04 A2991 RMK ACC4 SLP129

CYUL;2010-04-23 23:00;CYUL 232300Z 23002KT 30SM FEW090 15/M04 A2991 RMK AC2 SLP131

CYUL;2010-04-24 00:00;CYUL 240000Z 05003KT 30SM FEW090 14/M03 A2993 RMK AC2 SLP137

CYUL;2010-04-24 01:00;CYUL 240100Z 31006KT 15SM FEW090 10/M03 A2995 RMK AC1 SLP144

CYUL;2010-04-24 02:00;CYUL 240200Z 30005KT 15SM SKC 08/M03 A2998 RMK SLP152

CYUL;2010-04-24 03:00;CYUL 240300Z 30007KT 15SM SKC 08/M04 A2999 RMK SLP157

CYUL;2010-04-24 04:00;CYUL 240400Z 32004KT 15SM SKC 07/M05 A3001 RMK SLP163

CYUL;2010-04-24 05:00;CYUL 240500Z 31004KT 15SM SKC 06/M05 A3002 RMK SLP167

CYUL;2010-04-24 06:00;CYUL 240600Z 36002KT 15SM SKC 07/M06 A3002 RMK SLP166

CYUL;2010-04-24 07:00;CYUL 240700Z 20003KT 15SM SKC 07/M05 A3003 RMK SLP171

CYUL;2010-04-24 08:00;CYUL 240800Z 24006KT 15SM SKC 06/M03 A3005 RMK SLP176

CYUL;2010-04-24 09:00;CYUL 240900Z 25005KT 15SM SKC 05/M03 A3007 RMK SLP182

CYUL;2010-04-24 10:00;CYUL 241000Z 24005KT 30SM FEW180 04/M02 A3008 RMK AC1 SLP187

CYUL;2010-04-24 11:00;CYUL 241100Z 25004KT 30SM FEW180 05/M02 A3010 RMK AC1 SLP193

CYUL;2010-04-24 12:00;CYUL 241200Z 23005KT 30SM FEW220 07/M01 A3011 RMK CI1 SLP197

CYUL;2010-04-24 13:00;CYUL 241300Z 19002KT 30SM FEW220 09/00 A3009 RMK CI1 SLP189

CYUL;2010-04-24 14:00;CYUL 241400Z 20006KT 30SM FEW240 11/01 A3007 RMK CI0 SLP184

CYUL;2010-04-24 15:00;CYUL 241500Z 22007KT 30SM FEW240 13/02 A3005 RMK CI1 SLP177

CYUL;2010-04-24 16:00;CYUL 241600Z 22008KT 30SM FEW240 15/00 A3003 RMK CI1 SLP170

CYUL;2010-04-24 17:00;CYUL 241700Z 22014KT 30SM FEW090 FEW240 16/M01 A3001 RMK AC1CI1 SLP165

CYUL;2010-04-24 18:00;CYUL 241800Z 20009KT 30SM FEW240 17/M02 A2996 RMK CI1 SLP148

CYUL;2010-04-24 19:00;CYUL 241900Z 20011KT 30SM SCT240 18/M00 A2992 RMK CI1 SLP134

CYUL;2010-04-24 20:00;CYUL 242000Z 22013KT 30SM FEW180 BKN240 19/M00 A2988 RMK AC1CI1 SLP120

CYUL;2010-04-24 21:00;CYUL 242100Z 22014KT 30SM SCT170 BKN240 19/00 A2985 RMK AC2CI2 SLP111

CYUL;2010-04-24 22:00;CYUL 242200Z 22011KT 30SM SCT170 BKN240 18/00 A2983 RMK AC2CI2 SLP102

CYUL;2010-04-24 23:00;CYUL 242300Z 23011KT 15SM FEW180 BKN240 18/01 A2983 RMK AC1CI3 SLP101

CYUL;2010-04-25 00:00;CYUL 250000Z 23011KT 15SM FEW180 BKN240 16/01 A2982 RMK AC1CI2 SLP099

CYUL;2010-04-25 01:00;CYUL 250100Z 25011KT 15SM SCT240 16/M00 A2983 RMK CI1 SLP101

CYUL;2010-04-25 02:00;CYUL 250200Z 27010KT 15SM BKN140 15/M00 A2982 RMK AC7 SLP099

CYUL;2010-04-25 03:00;CYUL 250300Z 03015KT 15SM FEW090 BKN130 12/05 A2985 RMK AC2AC3 SLP108

CYUL;2010-04-25 04:00;CYUL 250400Z 02008KT 15SM BKN130 11/04 A2984 RMK AC5 SLP106

CYUL;2010-04-25 05:00;CYUL 250500Z 04006KT 15SM BKN120 11/03 A2982 RMK AC6 SLP100

CYUL;2010-04-25 06:00;CYUL 250600Z 04014KT 15SM BKN100 BKN120 10/02 A2982 RMK AC6AC2 SLP099

CYUL;2010-04-25 07:00;CYUL 250700Z 03011KT 15SM FEW095 FEW120 09/01 A2982 RMK AC1AC1 SLP100

CYUL;2010-04-25 08:00;CYUL 250800Z 04009KT 15SM FEW095 08/01 A2981 RMK AC1 SLP097

CYUL;2010-04-25 09:00;CYUL 250900Z 04012KT 15SM FEW025 07/01 A2981 RMK SC2 SLP096

CYUL;2010-04-25 10:00;CYUL 251000Z 03005KT 30SM FEW025 FEW240 06/01 A2980 RMK SC1CI1 SLP094

CYUL;2010-04-25 11:00;CYUL 251100Z 04008KT 30SM FEW240 07/01 A2980 RMK CI0 SLP093

CYUL;2010-04-25 12:00;CYUL 251200Z 06010G15KT 30SM FEW025 FEW240 08/01 A2980 RMK CU1CI1 SLP092

CYUL;2010-04-25 13:00;CYUL 251300Z 06010KT 30SM FEW030 FEW240 09/02 A2979 RMK CU1CI1 SLP088

CYUL;2010-04-25 14:00;CYUL 251400Z 04010KT 30SM FEW032 SCT240 10/02 A2977 RMK CF1CI1 SLP082

CYUL;2010-04-25 15:00;CYUL 251500Z 05010KT 30SM FEW036 SCT240 12/03 A2975 RMK CF1CI1 SLP077

CYUL;2010-04-25 16:00;CYUL 251600Z 06011KT 30SM FEW035 FEW180 SCT240 12/02 A2974 RMK CF1AC0CI1 SLP071

CYUL;2010-04-25 17:00;CYUL 251700Z 07015KT 30SM FEW040 SCT240 14/02 A2969 RMK SC1CI1 SLP057

CYUL;2010-04-25 18:00;CYUL 251800Z 08012G17KT 30SM FEW050 FEW180 SCT240 15/02 A2966 RMK SC1AC1CI1 SLP045

CYUL;2010-04-25 19:00;CYUL 251900Z 06011KT 30SM FEW180 BKN240 16/02 A2964 RMK AC1CI2 SLP037

CYUL;2010-04-25 20:00;CYUL 252000Z 04009KT 30SM FEW180 BKN240 16/02 A2961 RMK AC1CI2 SLP029

CYUL;2010-04-25 21:00;CYUL 252100Z 09008KT 30SM SCT180 BKN240 16/01 A2960 RMK AC2CI2 SLP024

CYUL;2010-04-25 22:00;CYUL 252200Z 09007KT 15SM FEW140 SCT180 BKN240 16/M01 A2958 RMK AC1AC1CI2 SLP017

CYUL;2010-04-25 23:00;CYUL 252300Z 09009KT 15SM SCT180 BKN240 16/M01 A2956 RMK AC2CI2 SLP009

CYUL;2010-04-26 00:00;CYUL 260000Z 09004KT 15SM SCT240 15/M01 A2956 RMK CI2 SLP009

CYUL;2010-04-26 01:00;CYUL 260100Z 09003KT 15SM SCT240 15/M01 A2956 RMK CI1 SLP010

CYUL;2010-04-26 02:00;CYUL 260200Z 03004KT 15SM BKN240 12/01 A2955 RMK CI2 CONTRAILS SLP008

CYUL;2010-04-26 03:00;CYUL 260300Z 36004KT 15SM BKN240 12/00 A2953 RMK CS2 SLP001

CYUL;2010-04-26 04:00;CYUL 260400Z 02002KT 15SM BKN240 11/01 A2951 RMK CS1 SLP994

CYUL;2010-04-26 05:00;CYUL 260500Z 02002KT 15SM FEW240 09/00 A2950 RMK CI1 SLP990

CYUL;2010-04-26 06:00;CYUL 260600Z 35003KT 15SM FEW240 07/01 A2949 RMK CI1 SLP986

CYUL;2010-04-26 07:00;CYUL 260700Z 01003KT 15SM FEW240 08/01 A2946 RMK CI1 SLP978

CYUL;2010-04-26 08:00;CYUL 260800Z 00000KT 15SM FEW240 05/M00 A2946 RMK CI0 SLP976

CYUL;2010-04-26 09:00;CYUL 260900Z 00000KT 15SM FEW240 05/01 A2945 RMK CI1 SLP973

CYUL;2010-04-26 10:00;CYUL 261000Z 35002KT 30SM SCT240 05/00 A2944 RMK CI1 SLP971

CYUL;2010-04-26 11:00;CYUL 261100Z 01005KT 30SM SCT240 07/01 A2944 RMK CI1 SLP969

CYUL;2010-04-26 12:00;CYUL 261200Z 04008KT 30SM SCT240 11/01 A2943 RMK CI1 SLP966

CYUL;2010-04-26 13:00;CYUL 261300Z 04008KT 30SM FEW240 12/00 A2942 RMK CI1 SLP962

CYUL;2010-04-26 14:00;CYUL 261400Z 05008KT 30SM FEW240 13/02 A2941 RMK CI1 SLP960

CYUL;2010-04-26 15:00;CYUL 261500Z 03008KT 30SM FEW042 FEW240 14/02 A2940 RMK CU0CI1 SLP957

CYUL;2010-04-26 16:00;CYUL 261600Z 03008KT 30SM FEW042 FEW240 15/02 A2939 RMK CU1CI1 SLP953

CYUL;2010-04-26 17:00;CYUL 261700Z 07009KT 30SM FEW055 FEW240 16/01 A2937 RMK CU1CI1 SLP947

CYUL;2010-04-26 18:00;CYUL 261800Z 06005KT 30SM FEW050 FEW240 17/01 A2935 RMK CU1CI1 SLP939

CYUL;2010-04-26 19:00;CYUL 261900Z 14003KT 30SM FEW050 FEW075 FEW240 17/02 A2933 RMK CU1AC1CI1 SLP934

CYUL;2010-04-26 20:00;CYUL 262000Z 06011KT 30SM FEW050 FEW075 FEW240 17/00 A2932 RMK CU1AC1CI1 SLP929

CYUL;2010-04-26 21:00;CYUL 262100Z 02005KT 30SM FEW050 FEW080 SCT240 17/01 A2931 RMK CU1AC1CI1 SLP925

CYUL;2010-04-26 22:00;CYUL 262200Z 06009G15KT 30SM FEW090 SCT240 16/M01 A2932 RMK AC1CI2 SLP928

CYUL;2010-04-26 23:00;CYUL 262300Z 05011KT 15SM FEW060 SCT080 BKN240 16/M02 A2932 RMK SC1AC2CI2 SLP928

CYUL;2010-04-27 00:00;CYUL 270000Z 04016KT 15SM FEW060 BKN075 BKN240 15/M02 A2934 RMK SC1AC2CI2 SLP935

CYUL;2010-04-27 01:00;CYUL 270100Z 05023G31KT 15SM SCT095 SCT240 13/M02 A2937 RMK AC2CI1 SLP946

CYUL;2010-04-27 02:00;CYUL 270200Z 05024G30KT 15SM BKN075 11/M02 A2940 RMK AC6 SLP957

CYUL;2010-04-27 03:00;CYUL 270300Z 05018G26KT 15SM BKN080 09/M04 A2941 RMK AC5 SLP959

CYUL;2010-04-27 04:00;CYUL 270400Z 05018G31KT 15SM SCT120 08/M06 A2940 RMK AC2 SLP958

CYUL;2010-04-27 05:00;CYUL 270500Z 04017G24KT 15SM BKN075 08/M05 A2941 RMK AC6 SLP961

CYUL;2010-04-27 06:00;CYUL 270600Z 03016G26KT 15SM BKN070 07/M04 A2940 RMK AC7 SLP958

CYUL;2010-04-27 07:00;CYUL 270700Z 02017G22KT 15SM BKN045 OVC090 06/M04 A2940 RMK SC6AC2 SLP956

CYUL;2010-04-27 08:00;CYUL 270800Z 02021G28KT 15SM OVC036 05/M02 A2940 RMK SC8 SLP957

CYUL;2010-04-27 08:08;CYUL 270808Z 03022G28KT 15SM -RA OVC033 04/ RMK SC8

CYUL;2010-04-27 08:49;CYUL 270849Z 02018G24KT 15SM -RA BKN012 OVC030 03/ RMK SF6SC2

CYUL;2010-04-27 09:00;CYUL 270900Z 03018G26KT 15SM -RA BKN011 OVC030 03/M01 A2941 RMK SF6SC2 SLP959

CYUL;2010-04-27 09:09;CYUL 270909Z 02015G24KT 15SM -RA FEW009 BKN013 OVC025 03/ RMK SF2SF5SC2

CYUL;2010-04-27 09:30;CYUL 270930Z 03016KT 15SM -RASN FEW006 BKN014 OVC025 02/ RMK SF2SF5SC2

CYUL;2010-04-27 10:00;CYUL 271000Z 02014G21KT 10SM -RA SCT006 OVC012 02/M01 A2940 RMK SF3SF5 SLP958

CYUL;2010-04-27 10:21;CYUL 271021Z 02019G25KT 6SM -RASN SCT008 OVC012 02/ RMK SF3SF5 -SN INTMT

CYUL;2010-04-27 10:35;CYUL 271035Z 02014G21KT 2 1/2SM -RASN SCT008 OVC014 01/ RMK SF3SF5 -SN INTMT

CYUL;2010-04-27 11:00;CYUL 271100Z 02015KT 2 1/2SM -RASN FEW007 OVC010 01/M01 A2940 RMK SF2SF6 SLP958

CYUL;2010-04-27 11:12;CYUL 271112Z 02016KT 3SM -RASN FEW007 OVC013 01/ RMK SF2SF6

CYUL;2010-04-27 11:43;CYUL 271143Z 02015G21KT 2 1/2SM -RASN SCT006 OVC012 01/ RMK SF3SF5

CYUL;2010-04-27 12:00;CYUL 271200Z 02017G25KT 2SM -SN BKN008 OVC013 01/M01 A2940 RMK SF6SF2 /S01/ SLP957

CYUL;2010-04-27 12:46;CYUL 271246Z 03016KT 2SM -RASN SCT008 OVC013 01/ RMK SF4SF4

CYUL;2010-04-27 13:00;CYUL 271300Z 02017KT 2 1/2SM -RASN SCT008 OVC012 01/M01 A2940 RMK SF3SF5 SLP956

CYUL;2010-04-27 13:36;CYUL 271336Z 03014KT 2 1/2SM -RASN BKN008 OVC012 02/ RMK SF5SF3

CYUL;2010-04-27 14:00;CYUL 271400Z 03015KT 2SM -RASN OVC009 01/M01 A2942 RMK SF8 SLP964

CYUL;2010-04-27 14:30;CYUL 271430Z 02015G27KT 1 1/2SM -SN OVC008 01/ RMK SF8

CYUL;2010-04-27 14:50;CYUL 271450Z 02015G20KT 1SM R06L/5500FT/D -SN OVC008 01/ RMK SF8

CYUL;2010-04-27 15:00;CYUL 271500Z 02018G24KT 1SM R06L/5500FT/D -SN OVC007 01/M01 A2942 RMK SF8 SLP965

CYUL;2010-04-27 15:13;CYUL 271513Z 02014G22KT 3/4SM R06L/4500FT/N -SN OVC006 01/ RMK SN2SF6

CYUL;2010-04-27 16:00;CYUL 271600Z 01012G17KT 3/4SM R06L/4000FT/N -SN OVC006 00/M01 A2944 RMK SN3SF5 /S01/ SLP972

CYUL;2010-04-27 17:00;CYUL 271700Z 36009G15KT 3/4SM R06L/4500FT/U -SN OVC006 00/M01 A2945 RMK SN3SF5 SLP973

CYUL;2010-04-27 17:28;CYUL 271728Z 36013G22KT 1SM R06L/5500FT/N -SN OVC008 01/ RMK SN2SF6

CYUL;2010-04-27 18:00;CYUL 271800Z 34009KT 1 1/4SM -SN BKN007 OVC013 01/M01 A2945 RMK SF6SF2 /S04/ SLP976

CYUL;2010-04-27 18:14;CYUL 271814Z 33006KT 1SM R06L/5500FT/N -SN OVC007 01/ RMK SN2SF6

CYUL;2010-04-27 19:00;CYUL 271900Z 32008KT 3/4SM R06L/4500FT/D -SN OVC005 00/M01 A2946 RMK SN3SF5 SLP979

CYUL;2010-04-27 20:00;CYUL 272000Z 31006KT 3/4SM R06L/4500FT/N -SN OVC005 00/M02 A2947 RMK SN3SF5 /S02/ SLP981

CYUL;2010-04-27 21:00;CYUL 272100Z 31009KT 3/4SM R06L/4000FT/U -SN OVC005 00/M02 A2947 RMK SN3SF5 /S03/ SLP980

CYUL;2010-04-27 22:00;CYUL 272200Z 32008KT 3/4SM R06L/5000FT/N -SN OVC005 00/M01 A2948 RMK SN3SF5 /S05/ SLP984

CYUL;2010-04-27 22:22;CYUL 272222Z 33010KT 1SM R06L/P6000FT/U -SN OVC006 00/ RMK SN2SF6

CYUL;2010-04-27 23:00;CYUL 272300Z 33011KT 1SM R06L/P6000FT/U -SN BKN005 OVC010 00/M01 A2948 RMK SN2SF6SF1 SLP983

CYUL;2010-04-28 00:00;CYUL 280000Z 32010KT 1 1/4SM -SN BKN005 OVC012 00/M01 A2949 RMK SF6SF2 SLP987

CYUL;2010-04-28 01:00;CYUL 280100Z 32010KT 1SM R06L/P6000FT/N -SN BKN005 OVC008 00/M01 A2949 RMK SN2SF6SF1 SLP988

CYUL;2010-04-28 02:00;CYUL 280200Z 32010KT 1 1/4SM -SN OVC003 00/M01 A2948 RMK SN2SF6 /S01/ SLP984

CYUL;2010-04-28 02:31;CYUL 280231Z 32009KT 1 1/2SM -SN BKN004 OVC008 00/ RMK SN2SF5SF2

CYUL;2010-04-28 02:39;CYUL 280239Z 32008KT 1 1/2SM -SN BKN005 OVC010 00/ RMK SN2SF5SF2

CYUL;2010-04-28 03:00;CYUL 280300Z 33009KT 1 1/2SM -SN BKN005 OVC010 00/M01 A2946 RMK SN2SF6SF1 SLP979

CYUL;2010-04-28 04:00;CYUL 280400Z 34009KT 1 1/2SM -SN BKN004 OVC010 00/M01 A2945 RMK SN2SF5SF2 /S04/ SLP975

CYUL;2010-04-28 04:27;CYUL 280427Z 35010G16KT 1 3/4SM -SN BKN005 OVC013 01/ RMK SF6SF2

CYUL;2010-04-28 05:00;CYUL 280500Z 35009KT 1 3/4SM -SN BKN007 OVC012 01/M01 A2945 RMK SF6SF2 /S05/ SLP974

CYUL;2010-04-28 05:55;CYUL 280555Z 36015KT 2SM -RASN BKN007 OVC012 01/ RMK SF6SF2

CYUL;2010-04-28 06:00;CYUL 280600Z 36012G18KT 2 1/2SM -RASN BKN007 OVC012 01/M01 A2943 RMK SF6SF2 /S06/ SLP969

CYUL;2010-04-28 06:48;CYUL 280648Z 02020G25KT 3SM -RASN BKN009 OVC012 01/ RMK SF6SF2

CYUL;2010-04-28 07:00;CYUL 280700Z 02017G22KT 4SM -RASN SCT009 OVC014 02/M01 A2942 RMK SF4SF4 SLP965

CYUL;2010-04-28 07:49;CYUL 280749Z 01016KT 6SM -RA FEW009 BKN015 OVC038 02/ RMK SF2SF4SC2

CYUL;2010-04-28 08:00;CYUL 280800Z 01014G21KT 8SM -RA FEW009 BKN020 OVC040 02/M00 A2943 RMK SF1SF5SC2 SLP966

CYUL;2010-04-28 09:00;CYUL 280900Z 36011KT 15SM -RA FEW009 BKN018 OVC035 02/M00 A2944 RMK SF1SF5SC3 SLP970

CYUL;2010-04-28 09:50;CYUL 280950Z 32006KT 15SM OVC053 02/ RMK SC8

CYUL;2010-04-28 10:00;CYUL 281000Z 34005KT 15SM BKN030 OVC050 02/M00 A2945 RMK SC5SC3 SLP976

CYUL;2010-04-28 10:10;CYUL 281010Z 34005KT 15SM -RA BKN025 OVC048 02/ RMK SC5SC3 -RA INTMT

CYUL;2010-04-28 10:38;CYUL 281038Z 31007KT 15SM BKN033 OVC055 02/ RMK SC6SC2

CYUL;2010-04-28 11:00;CYUL 281100Z 32007KT 15SM BKN035 OVC053 02/M00 A2947 RMK SC6SC2 SLP981

CYUL;2010-04-28 11:09;CYUL 281109Z 32006KT 15SM -RA BKN035 OVC053 03/ RMK SC6SC2 -RA INTMT

CYUL;2010-04-28 12:00;CYUL 281200Z 35005KT 15SM -RA OVC036 03/M01 A2949 RMK SC8 SLP987

CYUL;2010-04-28 12:11;CYUL 281211Z 35010KT 15SM -DZ OVC033 03/ RMK SC8

CYUL;2010-04-28 12:37;CYUL 281237Z 35014G25KT 15SM BKN050 OVC060 05/ RMK SC6SC2

CYUL;2010-04-28 13:00;CYUL 281300Z 35016G21KT 15SM OVC040 05/M02 A2950 RMK SC8 SLP992

CYUL;2010-04-28 14:00;CYUL 281400Z 29008KT 15SM OVC044 04/M00 A2952 RMK SC7 SLP997

CYUL;2010-04-28 15:00;CYUL 281500Z 32006KT 15SM FEW045 BKN070 06/M01 A2952 RMK SC2AS5 SLP999

CYUL;2010-04-28 16:00;CYUL 281600Z 33007KT 15SM FEW030 FEW075 SCT140 BKN210 09/M01 A2952 RMK CU1AC2AS1CS3 SLP997

CYUL;2010-04-28 17:00;CYUL 281700Z 33008KT 30SM FEW035 FEW120 BKN210 11/00 A2951 RMK CU2AC1CS2 SLP993

CYUL;2010-04-28 18:00;CYUL 281800Z 01010KT 30SM FEW050 BKN210 12/M01 A2950 RMK CU2CI2 SLP991

CYUL;2010-04-28 19:00;CYUL 281900Z 28005KT 30SM BKN065 BKN090 BKN210 12/M02 A2949 RMK SC5AC2CI1 SLP988

CYUL;2010-04-28 20:00;CYUL 282000Z 34004KT 30SM BKN075 13/M01 A2948 RMK AC7 SLP986

CYUL;2010-04-28 21:00;CYUL 282100Z 32007KT 30SM BKN080 BKN100 13/M01 A2948 RMK AC6AC1 SLP984

CYUL;2010-04-28 22:00;CYUL 282200Z 31010G16KT 30SM BKN080 13/M01 A2948 RMK AC7 SLP986

CYUL;2010-04-28 23:00;CYUL 282300Z 32008G15KT 30SM BKN080 13/M02 A2951 RMK AC6 SLP993

CYUL;2010-04-29 00:00;CYUL 290000Z 33010KT 30SM BKN090 12/M02 A2954 RMK AC6 SLP004

CYUL;2010-04-29 01:00;CYUL 290100Z 32006KT 15SM FEW090 10/M03 A2957 RMK AC2 SLP016

CYUL;2010-04-29 02:00;CYUL 290200Z 31006KT 15SM FEW090 08/M04 A2960 RMK AC1 SLP025

CYUL;2010-04-29 03:00;CYUL 290300Z 32008KT 15SM FEW120 07/M04 A2961 RMK AC1 SLP028

CYUL;2010-04-29 04:00;CYUL 290400Z 30008KT 15SM SCT200 07/M05 A2962 RMK CI2 SLP031

CYUL;2010-04-29 05:00;CYUL 290500Z 30008KT 15SM OVC190 07/M05 A2962 RMK AS5 SLP031

CYUL;2010-04-29 06:00;CYUL 290600Z 28007KT 15SM OVC160 07/M05 A2961 RMK AS6 SLP029

CYUL;2010-04-29 07:00;CYUL 290700Z 29007KT 15SM OVC140 06/M05 A2961 RMK AC8 SLP027

CYUL;2010-04-29 08:00;CYUL 290800Z 28008KT 15SM OVC130 06/M05 A2961 RMK AC8 SLP027

CYUL;2010-04-29 09:00;CYUL 290900Z 27009KT 15SM OVC100 06/M06 A2960 RMK AC7 SLP024

CYUL;2010-04-29 10:00;CYUL 291000Z 29015KT 30SM BKN100 BKN150 06/M06 A2961 RMK AC5AC0 SLP027

CYUL;2010-04-29 11:00;CYUL 291100Z 30015G20KT 30SM FEW140 05/M07 A2964 RMK AC2 SLP037

CYUL;2010-04-29 12:00;CYUL 291200Z 31013G18KT 30SM FEW150 SCT210 06/M06 A2965 RMK AC1CI0 SLP043

CYUL;2010-04-29 13:00;CYUL 291300Z 32015G20KT 30SM FEW060 FEW150 FEW240 06/M05 A2968 RMK CF1AC1CI0 SLP053

CYUL;2010-04-29 14:00;CYUL 291400Z 32016G21KT 30SM FEW060 FEW240 07/M04 A2969 RMK CF1CI0 SLP054

CYUL;2010-04-29 15:00;CYUL 291500Z 32008G20KT 30SM FEW050 FEW240 08/M04 A2969 RMK CU1CI0 SLP055

CYUL;2010-04-29 16:00;CYUL 291600Z 32013G22KT 30SM FEW060 09/M05 A2970 RMK CU2 SLP058

CYUL;2010-04-29 17:00;CYUL 291700Z 29016G21KT 30SM FEW060 11/M04 A2969 RMK CU2 SLP055

CYUL;2010-04-29 18:00;CYUL 291800Z 31012G25KT 30SM FEW065 11/M04 A2971 RMK CU2 SLP061

CYUL;2010-04-29 19:00;CYUL 291900Z 32018G25KT 30SM FEW070 12/M04 A2970 RMK CU2 SLP059

CYUL;2010-04-29 20:00;CYUL 292000Z 30013G18KT 30SM FEW070 13/M04 A2969 RMK CU2 SLP056

CYUL;2010-04-29 21:00;CYUL 292100Z 29014G24KT 30SM FEW070 FEW240 13/M04 A2969 RMK CU1CI1 SLP056

CYUL;2010-04-29 22:00;CYUL 292200Z 29014KT 30SM FEW070 FEW150 FEW210 13/M04 A2970 RMK CU1AC1CI1 SLP059

CYUL;2010-04-29 23:00;CYUL 292300Z 30016KT 30SM FEW070 FEW210 13/M04 A2969 RMK CU1CI1 SLP055

CYUL;2010-04-30 00:00;CYUL 300000Z 30009KT 30SM FEW070 FEW240 12/M04 A2969 RMK CU1CI1 SLP057

CYUL;2010-04-30 01:00;CYUL 300100Z 29006KT 15SM FEW240 10/M04 A2972 RMK CI1 SLP065

CYUL;2010-04-30 02:00;CYUL 300200Z 28005KT 15SM SKC 08/M03 A2974 RMK SLP071

CYUL;2010-04-30 03:00;CYUL 300300Z 27005KT 15SM SKC 07/M03 A2974 RMK SLP073

CYUL;2010-04-30 04:00;CYUL 300400Z 27006KT 15SM SKC 07/M03 A2975 RMK SLP074

CYUL;2010-04-30 05:00;CYUL 300500Z 27005KT 15SM SKC 07/M03 A2975 RMK SLP075

CYUL;2010-04-30 06:00;CYUL 300600Z 27006KT 15SM FEW240 06/M03 A2975 RMK CI1 SLP076

CYUL;2010-04-30 07:00;CYUL 300700Z 29004KT 15SM FEW240 06/M03 A2975 RMK CI0 SLP076

CYUL;2010-04-30 08:00;CYUL 300800Z 27005KT 15SM FEW240 06/M03 A2976 RMK CI1 SLP079

CYUL;2010-04-30 09:00;CYUL 300900Z 27006KT 15SM FEW240 05/M03 A2976 RMK CI1 SLP080

CYUL;2010-04-30 10:00;CYUL 301000Z 27006KT 15SM BKN240 05/M03 A2978 RMK CI3 SLP087

CYUL;2010-04-30 11:00;CYUL 301100Z 27007KT 15SM SCT240 08/M02 A2980 RMK CI2 SLP093

CYUL;2010-04-30 12:00;CYUL 301200Z 29011KT 30SM FEW240 10/M02 A2981 RMK CI1 SLP097

CYUL;2010-04-30 13:00;CYUL 301300Z 30009KT 30SM BKN240 12/M02 A2980 RMK CI2 SLP091

CYUL;2010-04-30 14:00;CYUL 301400Z 30009G15KT 30SM FEW180 OVC240 13/M03 A2979 RMK AC1CI2 SLP089

CYUL;2010-04-30 15:00;CYUL 301500Z 29008KT 30SM FEW180 OVC240 15/M01 A2978 RMK AC1CI3 SLP087

CYUL;2010-04-30 16:00;CYUL 301600Z 29010G16KT 30SM FEW180 SCT240 17/M03 A2977 RMK AC1CI1 SLP082

CYUL;2010-04-30 18:00;CYUL 301800Z CCA 27013KT 30SM BKN180 OVC240 18/M03 A2975 RMK AC5CI0 SLP076

CYUL;2010-04-30 19:00;CYUL 301900Z 27017KT 30SM SCT140 BKN240 18/M03 A2974 RMK AC2CI2 SLP073

CYUL;2010-04-30 20:00;CYUL 302000Z 25017KT 30SM FEW140 FEW180 BKN240 19/M01 A2973 RMK AC1AC1CI1 SLP068

CYUL;2010-04-30 21:00;CYUL 302100Z 28016KT 30SM FEW180 BKN240 20/M01 A2972 RMK AC2CI1 SLP067

CYUL;2010-04-30 22:00;CYUL 302200Z 26017KT 30SM BKN180 BKN240 18/M02 A2973 RMK AC5CI0 SLP068

CYUL;2010-04-30 23:00;CYUL 302300Z 26014KT 30SM BKN180 BKN240 17/M02 A2973 RMK AC6CI0 SLP069

CYUL;2010-05-01 01:00;CYUL 010100Z 27009KT 30SM BKN130 BKN240 15/00 A2976 RMK AC5CI0 SLP077

CYUL;2010-05-01 02:00;CYUL 010200Z 28008KT 15SM FEW100 BKN130 BKN240 14/M00 A2977 RMK AC1AC3CI0 SLP081

CYUL;2010-05-01 03:00;CYUL 010300Z 29005KT 15SM BKN090 BKN130 14/01 A2979 RMK AC5AC1 SLP089

CYUL;2010-05-01 04:00;CYUL 010400Z 29004KT 15SM SCT090 BKN130 14/01 A2980 RMK AC2AC3 SLP091

CYUL;2010-05-01 05:00;CYUL 010500Z 15005KT 15SM FEW090 FEW130 FEW240 11/02 A2978 RMK AC1AC1CI1 SLP084

CYUL;2010-05-01 06:00;CYUL 010600Z 00000KT 15SM SCT085 10/03 A2979 RMK AC3 SLP088

CYUL;2010-05-01 07:00;CYUL 010700Z 24004KT 15SM BKN082 11/04 A2981 RMK AC7 SLP095

CYUL;2010-05-01 08:00;CYUL 010800Z 00000KT 15SM BKN088 11/03 A2981 RMK AC6 SLP097

CYUL;2010-05-01 09:00;CYUL 010900Z 00000KT 15SM BKN085 11/03 A2982 RMK AC4 SLP097

CYUL;2010-05-01 10:00;CYUL 011000Z 00000KT 15SM BKN094 11/04 A2983 RMK AC4 SLP103

CYUL;2010-05-01 11:00;CYUL 011100Z 08007KT 15SM BKN095 13/M00 A2982 RMK AC7 SLP099

CYUL;2010-05-01 12:00;CYUL 011200Z 11003KT 15SM BKN100 13/01 A2985 RMK AC7 SLP109

CYUL;2010-05-01 13:00;CYUL 011300Z 08005KT 15SM OVC090 14/M01 A2984 RMK AC8 SLP107

CYUL;2010-05-01 14:00;CYUL 011400Z 09004KT 30SM OVC100 15/01 A2986 RMK AC8 SLP112

CYUL;2010-05-01 15:00;CYUL 011500Z 10009KT 30SM BKN070 OVC100 16/01 A2983 RMK AC6AC2 SLP103

CYUL;2010-05-01 16:00;CYUL 011600Z 11010KT 30SM BKN067 OVC220 17/02 A2980 RMK AC6CS2 SLP093

CYUL;2010-05-01 17:00;CYUL 011700Z 12008KT 30SM BKN070 OVC220 18/02 A2980 RMK AC6CS2 SLP091

CYUL;2010-05-01 18:00;CYUL 011800Z 09008KT 30SM BKN100 OVC130 18/02 A2977 RMK AC6AS2 SLP083

CYUL;2010-05-01 19:00;CYUL 011900Z 12008KT 30SM BKN055 OVC075 19/03 A2976 RMK SC6AC2 SLP078

CYUL;2010-05-01 19:19;CYUL 011919Z 14006KT 30SM -SHRA OVC035 19/ RMK SC8 VIS W-NW 6

CYUL;2010-05-01 19:46;CYUL 011946Z 07010KT 30SM FEW050 OVC065 18/ RMK SC2SC6

CYUL;2010-05-01 20:00;CYUL 012000Z 06006KT 30SM OVC060 18/05 A2975 RMK SC8 SLP075

CYUL;2010-05-01 21:00;CYUL 012100Z 05007KT 30SM OVC065 18/06 A2976 RMK SC8 DIST SHWR SLP078

CYUL;2010-05-01 21:14;CYUL 012114Z 36007KT 30SM -SHRA OVC055 17/ RMK SC8

CYUL;2010-05-01 22:00;CYUL 012200Z 01003KT 12SM -RA FEW055 OVC067 15/09 A2979 RMK SC2AS6 SLP087

CYUL;2010-05-01 23:00;CYUL 012300Z 10005KT 15SM SCT090 OVC120 15/09 A2972 RMK AC4AS4 PRESFR SLP065

CYUL;2010-05-02 00:00;CYUL 020000Z 00000KT 15SM BKN110 BKN160 OVC220 14/08 A2975 RMK AC7AS1CI0 SLP073

CYUL;2010-05-02 00:09;CYUL 020009Z 00000KT 15SM -SHRA FEW040 BKN140 OVC220 14/ RMK SC1AC5CI1

CYUL;2010-05-02 00:47;CYUL 020047Z 34004KT 15SM FEW160 OVC240 14/ RMK AC2CI2

CYUL;2010-05-02 01:00;CYUL 020100Z 35004KT 15SM FEW160 OVC240 13/09 A2976 RMK AC1CI3 SLP077

CYUL;2010-05-02 02:00;CYUL 020200Z 03005KT 15SM FEW160 BKN240 12/09 A2976 RMK AC1CI3 SLP078

CYUL;2010-05-02 03:00;CYUL 020300Z 01004KT 15SM FEW090 OVC240 12/09 A2974 RMK AC1CI3 SLP072

CYUL;2010-05-02 04:00;CYUL 020400Z 03003KT 15SM FEW090 SCT160 BKN240 12/09 A2974 RMK AC1AC1CI2 SLP071

CYUL;2010-05-02 05:00;CYUL 020500Z 35003KT 15SM FEW066 SCT085 BKN240 11/08 A2974 RMK AC1AC2CI1 SLP072

CYUL;2010-05-02 06:00;CYUL 020600Z 36004KT 15SM FEW090 BKN240 11/08 A2974 RMK AC1CI1 SLP072

CYUL;2010-05-02 07:00;CYUL 020700Z 02003KT 15SM SCT095 BKN240 11/08 A2973 RMK AC3CI1 SLP069

CYUL;2010-05-02 08:00;CYUL 020800Z 00000KT 15SM SCT100 OVC240 11/08 A2974 RMK AC3CI2 SLP072

CYUL;2010-05-02 09:00;CYUL 020900Z 00000KT 15SM BKN100 BKN240 11/09 A2974 RMK AC3CI1 SLP072

CYUL;2010-05-02 10:00;CYUL 021000Z 00000KT 15SM BKN110 BKN240 11/09 A2975 RMK AC6CI1 SLP076

CYUL;2010-05-02 11:00;CYUL 021100Z 36002KT 15SM FEW090 BKN120 12/09 A2976 RMK AC2AC5 SLP079

CYUL;2010-05-02 12:00;CYUL 021200Z 00000KT 15SM BKN100 BKN240 15/10 A2975 RMK AC6CI1 SLP076

CYUL;2010-05-02 13:00;CYUL 021300Z 00000KT 15SM BKN100 BKN240 15/11 A2976 RMK AC6CI1 SLP079

CYUL;2010-05-02 14:00;CYUL 021400Z 00000KT 15SM FEW100 OVC200 17/12 A2974 RMK AC2CS5 SLP071

CYUL;2010-05-02 15:00;CYUL 021500Z 14002KT 30SM FEW075 FEW150 OVC220 20/13 A2973 RMK AC1AC2CS5 SLP068

CYUL;2010-05-02 16:00;CYUL 021600Z 00000KT 30SM FEW030 FEW120 BKN180 OVC220 22/14 A2972 RMK CF1AC1AC4CI2 SLP066

CYUL;2010-05-02 17:00;CYUL 021700Z 21004KT 30SM FEW040 SCT180 BKN240 24/15 A2970 RMK CU1AC3CI1 SLP058

CYUL;2010-05-02 18:00;CYUL 021800Z 22008KT 30SM FEW040 FEW120 BKN180 BKN240 25/15 A2967 RMK CU1AC1AC6CI1 SLP048

CYUL;2010-05-02 19:00;CYUL 021900Z 19004KT 30SM FEW040 BKN085 BKN120 26/16 A2965 RMK CU1AC6AC1 SLP040

CYUL;2010-05-02 20:00;CYUL 022000Z 22006KT 30SM FEW080 BKN150 26/16 A2964 RMK AC2AC5 SLP038

CYUL;2010-05-02 21:00;CYUL 022100Z 21006KT 30SM FEW040 BKN090 BKN110 OVC220 25/15 A2962 RMK CU1AC6AC2CI0 SLP030

CYUL;2010-05-02 22:00;CYUL 022200Z 22009KT 30SM FEW040 BKN070 OVC220 25/15 A2962 RMK CF1AC5CS2 SLP032

CYUL;2010-05-02 23:00;CYUL 022300Z 23007KT 30SM FEW040 FEW080 SCT180 OVC240 24/15 A2962 RMK SC1AC1AC2CS4 SLP032

CYUL;2010-05-03 00:00;CYUL 030000Z 24005KT 15SM FEW036 SCT080 BKN240 24/15 A2962 RMK SC1AC2CS3 SLP031

CYUL;2010-05-03 01:00;CYUL 030100Z 24005KT 15SM FEW055 SCT074 BKN240 23/15 A2962 RMK SC1AC2CI2 SLP032

CYUL;2010-05-03 02:00;CYUL 030200Z 22006KT 15SM FEW055 SCT078 BKN240 20/14 A2961 RMK SC1AC2CI2 SLP028

CYUL;2010-05-03 03:00;CYUL 030300Z 21007KT 15SM FEW058 BKN090 21/15 A2961 RMK SC1AC2 SLP027

CYUL;2010-05-03 04:00;CYUL 030400Z 21009KT 15SM BKN055 BKN090 21/15 A2960 RMK SC5AC2 SLP023

CYUL;2010-05-03 05:00;CYUL 030500Z 21005KT 15SM FEW058 BKN070 21/14 A2958 RMK SC2AC4 SLP018

CYUL;2010-05-03 06:00;CYUL 030600Z 22007KT 15SM SCT070 OVC240 20/15 A2957 RMK AC2CI4 SLP014

CYUL;2010-05-03 07:00;CYUL 030700Z 20007KT 15SM SCT110 BKN240 19/15 A2955 RMK AC2CI2 SLP008

CYUL;2010-05-03 08:00;CYUL 030800Z 20005KT 15SM BKN062 BKN092 19/15 A2953 RMK SC6AC2 SLP999

CYUL;2010-05-03 09:00;CYUL 030900Z 00000KT 15SM FEW065 BKN140 20/15 A2950 RMK SC2AC5 SLP989

CYUL;2010-05-03 10:00;CYUL 031000Z 18005KT 15SM BKN061 OVC120 18/15 A2949 RMK SC6AC2 SLP985

CYUL;2010-05-03 11:00;CYUL 031100Z 20007KT 15SM BKN052 OVC085 19/15 A2947 RMK SC6AC2 SLP978

CYUL;2010-05-03 11:38;CYUL 031138Z 22008KT 15SM -SHRA OVC044 20/ RMK SC8

CYUL;2010-05-03 12:00;CYUL 031200Z 22009KT 30SM VCSH BKN035 OVC045 20/16 A2945 RMK SC6SC2 VIS W-N 10 SLP971

CYUL;2010-05-03 12:12;CYUL 031212Z 22006KT 3SM -SHRA BR FEW020 OVC030 19/ RMK SF1SC7 VIS E 15

CYUL;2010-05-03 13:00;CYUL 031300Z 25014KT 15SM -SHRA FEW015 OVC030 20/17 A2944 RMK SF1SC8 SLP969

CYUL;2010-05-03 13:40;CYUL 031340Z 22011G16KT 12SM -SHRA OVC011 19/ RERA RMK SF8

CYUL;2010-05-03 14:00;CYUL 031400Z 23013G19KT 4SM -DZ BR OVC012 18/16 A2943 RERA RMK SF8 SLP966

CYUL;2010-05-03 14:26;CYUL 031426Z 23012G19KT 10SM -SHRA FEW010 OVC016 19/ RMK SF2SF6

CYUL;2010-05-03 15:00;CYUL 031500Z 21009KT 15SM -RA BKN011 BKN016 OVC050 19/16 A2942 RMK SF6SF2SC1 SLP962

CYUL;2010-05-03 15:11;CYUL 031511Z 22008KT 15SM FEW012 OVC070 19/ RMK SF2AC6

CYUL;2010-05-03 15:18;CYUL 031518Z 24011KT 15SM -RA FEW012 OVC070 18/ RMK SF2AC6 -RA INTMT

CYUL;2010-05-03 15:53;CYUL 031553Z 25007KT 15SM FEW013 FEW080 BKN100 20/ RMK SF1AC1AC5 ACC ASOCT

CYUL;2010-05-03 16:00;CYUL 031600Z 27014KT 15SM FEW018 BKN100 21/17 A2942 RMK SF2AC4 SLP963

CYUL;2010-05-03 17:00;CYUL 031700Z 27019G29KT 15SM SCT025 BKN150 21/15 A2945 RMK CU3AC2 SLP973

CYUL;2010-05-03 18:00;CYUL 031800Z CCA 29020G26KT 30SM SCT030 SCT080 22/15 A2948 RMK CU3AC1 TCU ASOCT SLP983

CYUL;2010-05-03 19:00;CYUL 031900Z 29021G29KT 30SM FEW040TCU FEW080 22/12 A2949 RMK TCU2AC1 SLP988

CYUL;2010-05-03 20:00;CYUL 032000Z 29016G26KT 30SM FEW050TCU 23/11 A2951 RMK TCU2 CB ASOCT W SLP992

CYUL;2010-05-03 20:32;CYUL 032032Z 28018G26KT 30SM -SHRA FEW045CB SCT080 21/ RMK CB2AC2

CYUL;2010-05-03 20:50;CYUL 032050Z 27013G18KT 30SM FEW045CB 22/ RMK CB2

CYUL;2010-05-03 21:00;CYUL 032100Z 27015KT 30SM FEW045CB FEW080 22/11 A2954 RMK CB1AC1 SLP003

CYUL;2010-05-03 22:00;CYUL 032200Z 27016KT 30SM FEW050 FEW120 23/10 A2956 RMK CU1AC1 SLP009

CYUL;2010-05-03 23:00;CYUL 032300Z 27014KT 30SM FEW050 FEW100 22/11 A2957 RMK CU1AC1 SLP015

CYUL;2010-05-04 00:00;CYUL 040000Z 27010KT 30SM FEW080 21/09 A2960 RMK AC1 SLP024

CYUL;2010-05-04 01:00;CYUL 040100Z 25010KT 15SM FEW080 20/08 A2962 RMK AC1 SLP032

CYUL;2010-05-04 02:00;CYUL 040200Z 26009KT 15SM FEW080 20/07 A2964 RMK AC1 SLP037

CYUL;2010-05-04 03:00;CYUL 040300Z 24013KT 15SM FEW120 18/10 A2965 RMK AC1 SLP040

CYUL;2010-05-04 04:00;CYUL 040400Z 25009KT 15SM SKC 17/10 A2966 RMK SLP043

CYUL;2010-05-04 05:00;CYUL 040500Z 26011KT 15SM FEW120 17/10 A2966 RMK AC1 SLP045

CYUL;2010-05-04 06:00;CYUL 040600Z 24007KT 15SM FEW120 15/10 A2967 RMK AC1 SLP047

CYUL;2010-05-04 07:00;CYUL 040700Z 25010KT 15SM SKC 14/10 A2967 RMK SLP048

CYUL;2010-05-04 08:00;CYUL 040800Z 24006KT 15SM FEW120 14/10 A2968 RMK AC1 SLP051

CYUL;2010-05-04 09:00;CYUL 040900Z 22007KT 15SM BKN080 BKN240 13/10 A2969 RMK AC5CI0 SLP053

CYUL;2010-05-04 10:00;CYUL 041000Z 22005KT 15SM FEW060TCU BKN075 BKN240 13/11 A2968 RMK TCU1AC3CI0 SLP050

CYUL;2010-05-04 11:00;CYUL 041100Z 25008KT 15SM FEW065TCU SCT090 OVC240 14/11 A2969 RMK TCU1AC3CI0 SLP053

CYUL;2010-05-04 12:00;CYUL 041200Z 30010KT 15SM -SHRA FEW065TCU BKN100 OVC150 14/10 A2972 RMK TCU1AC6AS2 SLP065

CYUL;2010-05-04 13:00;CYUL 041300Z 09003KT 15SM -SHRA SCT040 OVC075 13/11 A2969 RMK SC3AC5 SLP056

CYUL;2010-05-04 13:20;CYUL 041320Z 14002KT 15SM FEW040 BKN095 14/ RMK SC2AC3

CYUL;2010-05-04 14:00;CYUL 041400Z 21007KT 15SM FEW040 SCT095 BKN220 15/12 A2969 RMK SC1AC3CI2 SLP054

CYUL;2010-05-04 15:00;CYUL 041500Z 22012KT 15SM FEW030 SCT100 BKN160 BKN220 16/12 A2969 RMK CU2AC2AC2CI2 SLP053

CYUL;2010-05-04 16:00;CYUL 041600Z 25016G21KT 15SM FEW030 SCT100 BKN220 18/11 A2967 RMK CU2AC2CI3 SLP048

CYUL;2010-05-04 17:00;CYUL 041700Z 22014G20KT 15SM FEW030 BKN240 19/12 A2966 RMK CU1CI3 TCU ASOCTD SLP044

CYUL;2010-05-04 18:00;CYUL 041800Z 22017KT 15SM FEW030TCU BKN240 19/11 A2963 RMK TCU1CI2 SLP034

CYUL;2010-05-04 19:00;CYUL 041900Z 22015KT 15SM FEW040TCU BKN240 20/10 A2961 RMK TCU2CI2 CB ASOCTD N-NE SLP029

CYUL;2010-05-04 20:00;CYUL 042000Z 23014G19KT 15SM FEW040 FEW070TCU BKN120 OVC240 19/09 A2961 RMK SC2TCU1AS2CI2 DIST SH W SLP029

CYUL;2010-05-04 21:00;CYUL 042100Z 25018KT 15SM VCSH FEW040TCU BKN120 OVC210 19/08 A2961 RMK TCU2AS3CI2 CB EMBD SLP029

CYUL;2010-05-04 22:00;CYUL 042200Z 23024G31KT 15SM VCSH FEW040TCU BKN100 OVC210 15/08 A2965 RMK TCU2AC5CI1 CB EMBD SLP042

CYUL;2010-05-04 22:28;CYUL 042228Z 20013G21KT 15SM -SHRA FEW040TCU BKN090 BKN160 15/ RMK TCU2AC4AS1 CB EMBD

CYUL;2010-05-04 23:00;CYUL 042300Z 25012KT 15SM -SHRA FEW040TCU BKN090 BKN160 BKN240 14/09 A2968 RMK TCU2AC3AS1CI2 CB EMBD SLP052

CYUL;2010-05-05 00:00;CYUL 050000Z 26025G31KT 15SM -SHRA FEW045 BKN070 BKN130 14/09 A2966 RMK SC2AC4AC2 SLP043

CYUL;2010-05-05 01:00;CYUL 050100Z 25013KT 15SM VCSH FEW045 BKN080 BKN140 13/10 A2971 RMK SC2AC5AC1 SLP060

CYUL;2010-05-05 02:00;CYUL 050200Z 28006KT 15SM FEW060 SCT090 13/10 A2974 RMK SC2AC2 SLP072

CYUL;2010-05-05 03:00;CYUL 050300Z 29004KT 15SM FEW100 11/09 A2976 RMK AC1 SLP078

CYUL;2010-05-05 04:00;CYUL 050400Z 27005KT 15SM FEW120 11/09 A2977 RMK AC1 SLP082

CYUL;2010-05-05 05:00;CYUL 050500Z 27005KT 15SM FEW070 10/08 A2977 RMK AC1 SLP081

CYUL;2010-05-05 06:00;CYUL 050600Z 27006KT 15SM SKC 11/08 A2979 RMK SLP087

CYUL;2010-05-05 07:00;CYUL 050700Z 23006KT 15SM SKC 11/07 A2979 RMK SLP089

CYUL;2010-05-05 08:00;CYUL 050800Z 23007KT 15SM SKC 10/07 A2982 RMK SLP097

CYUL;2010-05-05 09:00;CYUL 050900Z 23004KT 15SM SKC 09/06 A2983 RMK SLP102

CYUL;2010-05-05 10:00;CYUL 051000Z 21006KT 30SM FEW120 FEW240 09/07 A2984 RMK AC1CI0 SLP107

CYUL;2010-05-05 11:00;CYUL 051100Z 23009KT 30SM FEW120 BKN240 10/07 A2987 RMK AC1CI0 SLP115

CYUL;2010-05-05 12:00;CYUL 051200Z 23003KT 30SM BKN240 11/07 A2987 RMK CS6 SLP117

CYUL;2010-05-05 13:00;CYUL 051300Z 22011KT 30SM SCT120 BKN230 12/08 A2988 RMK AS2CI1 SLP120

CYUL;2010-05-05 14:00;CYUL 051400Z 23006KT 30SM BKN110 OVC220 13/08 A2988 RMK AC6CI2 SLP119

CYUL;2010-05-05 15:00;CYUL 051500Z 22007KT 30SM FEW030 BKN095 14/07 A2986 RMK CU1AC7 SLP114

CYUL;2010-05-05 16:00;CYUL 051600Z 23008KT 30SM FEW030 OVC085 15/08 A2986 RMK CU1AC7 SLP114

CYUL;2010-05-05 17:00;CYUL 051700Z 20005KT 30SM FEW035 OVC070 16/07 A2985 RMK CF1AC7 SLP108

CYUL;2010-05-05 18:00;CYUL 051800Z 20004KT 30SM SCT070 BKN090 BKN150 18/08 A2982 RMK AC3AC2AC1 SLP099

CYUL;2010-05-05 19:00;CYUL 051900Z 15006KT 30SM FEW040 FEW090 SCT240 20/08 A2978 RMK CU1AC2CI1 SLP086

CYUL;2010-05-05 20:00;CYUL 052000Z 16010KT 30SM FEW040 FEW120 BKN240 20/09 A2974 RMK CU1AC1CI1 SLP073

CYUL;2010-05-05 21:00;CYUL 052100Z 14012KT 30SM FEW040 FEW140 BKN240 21/09 A2970 RMK CU1AC1CI2 SLP059

CYUL;2010-05-05 22:00;CYUL 052200Z 15008KT 30SM FEW040 SCT210 BKN240 21/09 A2969 RMK CU1CI2CI2 SLP053

CYUL;2010-05-05 23:00;CYUL 052300Z 15007KT 30SM FEW040 FEW210 BKN240 21/10 A2967 RMK CU1CI2CI2 SLP048

CYUL;2010-05-06 00:00;CYUL 060000Z 15007KT 30SM FEW050 FEW090 SCT160 BKN240 19/10 A2966 RMK SC1AC2AC1CI1 SLP045

CYUL;2010-05-06 01:00;CYUL 060100Z 14008KT 15SM FEW070 SCT110 BKN240 19/10 A2964 RMK AC2AC2CI1 SLP037

CYUL;2010-05-06 02:00;CYUL 060200Z 17006KT 15SM FEW070 BKN090 OVC130 19/11 A2961 RMK AC2AC5AC1 DIST LNTG SLP029

CYUL;2010-05-06 02:05;CYUL 060205Z 16005KT 15SM -SHRA FEW070 BKN090 OVC130 19/ RMK AC2AC5AC1 DIST LNTG

CYUL;2010-05-06 02:55;CYUL 060255Z 30006KT 15SM BKN100 OVC150 17/ RMK AC5AC3

CYUL;2010-05-06 03:00;CYUL 060300Z 29009KT 15SM BKN100 OVC150 17/13 A2963 RMK AC5AC3 SLP034

CYUL;2010-05-06 03:47;CYUL 060347Z CCA 29010KT 15SM -SHRA OVC090 18/ RMK AC8

CYUL;2010-05-06 04:00;CYUL 060400Z 30010G15KT 12SM -SHRA OVC090 18/11 A2964 RMK AC8 SLP038

CYUL;2010-05-06 05:00;CYUL 060500Z 30007KT 12SM BKN065 OVC085 16/13 A2965 RMK SC6AC2 SLP041

CYUL;2010-05-06 06:00;CYUL 060600Z 18008KT 12SM -SHRA OVC090 15/13 A2961 RMK AC8 SLP028

CYUL;2010-05-06 06:51;CYUL 060651Z 20009KT 15SM BKN090 OVC120 15/ RMK AC6AC2

CYUL;2010-05-06 07:00;CYUL 060700Z 19008KT 15SM BKN090 OVC100 15/13 A2959 RMK AC6AC2 SLP021

CYUL;2010-05-06 08:00;CYUL 060800Z 20010KT 15SM BKN032 OVC090 15/13 A2958 RMK SC6AC2 SLP016

CYUL;2010-05-06 09:00;CYUL 060900Z 24009KT 15SM BKN021 OVC090 15/13 A2956 RMK SC6AC2 SLP012

CYUL;2010-05-06 10:00;CYUL 061000Z 23008KT 12SM BKN015 OVC060 14/13 A2956 RMK SF6SC2 SLP009

CYUL;2010-05-06 10:23;CYUL 061023Z 22008KT 12SM BKN013 OVC055 14/ RMK SF6SC2

CYUL;2010-05-06 11:00;CYUL 061100Z 25010KT 15SM FEW008 OVC013 14/13 A2955 RMK SF2SF6 SLP008

CYUL;2010-05-06 11:41;CYUL 061141Z 26015KT 15SM BKN010 15/ RMK SC7

CYUL;2010-05-06 12:00;CYUL 061200Z 25013KT 15SM BKN015 15/12 A2955 RMK SC6 SLP006

CYUL;2010-05-06 13:00;CYUL 061300Z 25016G21KT 15SM BKN030 16/11 A2954 RMK SC5 SLP004

CYUL;2010-05-06 14:00;CYUL 061400Z 23018KT 15SM SCT033 17/11 A2952 RMK SC4 CU ASOCTD SLP996

CYUL;2010-05-06 14:37;CYUL 061437Z 23019G24KT 15SM -SHRA BKN027TCU BKN080 BKN160 16/ RMK TCU5AC2AS1 CB EMBD

CYUL;2010-05-06 14:42;CYUL 061442Z 23022KT 10SM -TSRA BKN030CB BKN067 BKN160 16/ RMK CB5AC2AS1 LTGCG

CYUL;2010-05-06 14:49;CYUL 061449Z 26031G43KT 1 1/2SM +TSRA FEW010 BKN024CB 15/ RMK SF2CB6 LTGCG

CYUL;2010-05-06 15:00;CYUL 061500Z 29023G43KT 4SM -TSRA FEW015 BKN027CB OVC050 11/08 A2956 RETSRA RMK SF1CB6SC1 LTGCG SLP011

CYUL;2010-05-06 15:50;CYUL 061550Z 24010KT 12SM -SHRA FEW015 BKN033 OVC060 11/ RETS RMK SF1SC6SC2 CB EMBD

CYUL;2010-05-06 15:53;CYUL 061553Z 25020G30KT 6SM -TSRA FEW014 BKN030 OVC060 11/ RMK SF2SC6SC1 CB EMBD

CYUL;2010-05-06 16:00;CYUL 061600Z 24021G30KT 10SM -TSRA FEW014 BKN030 OVC055 12/10 A2958 RMK SF1SC4SC2 CB EMBD LTGCG SLP018

CYUL;2010-05-06 16:25;CYUL 061625Z 25010KT 15SM VCSH FEW025TCU BKN040 BKN120 12/ RETS RMK TCU1SC4AC2 CB EMBD

CYUL;2010-05-06 17:00;CYUL 061700Z 24016G24KT 15SM FEW025 FEW050 SCT210 14/10 A2956 RETS RMK CU2SC1CI2 CB ASOCTD SLP009

CYUL;2010-05-06 18:00;CYUL 061800Z 26020G28KT 15SM BKN035TCU BKN080 BKN240 16/06 A2955 RMK TCU5AC1CI1 CB ASOCTD DIST SH N SLP007

CYUL;2010-05-06 18:10;CYUL 061810Z 27026G34KT 15SM VCSH SCT035CB SCT060 BKN240 17/ RMK CB3SC1CI1

CYUL;2010-05-06 19:00;CYUL 061900Z 27025KT 15SM FEW045TCU FEW080 SCT240 17/06 A2957 RMK TCU2AC1CI0 SLP015

CYUL;2010-05-06 20:00;CYUL 062000Z 28025G33KT 15SM FEW045TCU FEW090 FEW240 16/04 A2960 RMK TCU2AC1CI1 SLP025

CYUL;2010-05-06 21:00;CYUL 062100Z 28023G30KT 15SM FEW050TCU SCT090 17/04 A2962 RMK TCU2AC1 SLP030

CYUL;2010-05-06 21:46;CYUL 062146Z 29018G33KT 15SM -SHRA BKN060 BKN080 15/ RMK SC5AC2 TCU ASOCTD

CYUL;2010-05-06 22:00;CYUL 062200Z 29020G26KT 30SM -SHRA BKN055 BKN080 15/05 A2966 RMK SC6AC2 TCU ASOCTD SLP044

CYUL;2010-05-06 22:18;CYUL 062218Z 28017G26KT 30SM VCSH BKN055 BKN090 15/ RMK SC6AC2 TCU ASOCTD

CYUL;2010-05-06 23:00;CYUL 062300Z CCA 31018G27KT 15SM VCSH BKN060 BKN080 15/03 A2970 RMK SC5AC1 TCU ASOCTD SLP057

CYUL;2010-05-07 00:00;CYUL 070000Z 31018G25KT 15SM VCSH BKN060 BKN080 14/03 A2975 RMK SC5AC2 SLP074

CYUL;2010-05-07 01:00;CYUL 070100Z 31013G19KT 15SM FEW060 12/03 A2979 RMK SC2 SLP087

CYUL;2010-05-07 02:00;CYUL 070200Z 30017G24KT 15SM FEW060 11/04 A2983 RMK SC1 SLP101

CYUL;2010-05-07 03:00;CYUL 070300Z 29017G25KT 15SM SCT043 10/03 A2986 RMK SC2 SLP112

CYUL;2010-05-07 04:00;CYUL 070400Z 31010G17KT 15SM SCT040 09/03 A2988 RMK SC2 SLP121

CYUL;2010-05-07 05:00;CYUL 070500Z 29007KT 15SM BKN045 09/02 A2990 RMK SC5 SLP126

CYUL;2010-05-07 06:00;CYUL 070600Z 29012KT 15SM FEW045 08/02 A2991 RMK SC2 SLP131

CYUL;2010-05-07 07:00;CYUL 070700Z 29011KT 15SM SKC 07/01 A2992 RMK SLP132

CYUL;2010-05-07 08:00;CYUL 070800Z 29008KT 15SM SKC 06/02 A2993 RMK SLP135

CYUL;2010-05-07 09:00;CYUL 070900Z 28008KT 15SM FEW060 06/02 A2994 RMK SC1 SLP140

CYUL;2010-05-07 10:00;CYUL 071000Z 28008KT 15SM FEW060 05/01 A2995 RMK SC1 SLP144

CYUL;2010-05-07 11:00;CYUL 071100Z 29008KT 15SM FEW060 FEW120 06/01 A2997 RMK SC1AC1 SLP150

CYUL;2010-05-07 12:00;CYUL 071200Z 31009G17KT 30SM SCT032 07/01 A2998 RMK CU3 SLP154

CYUL;2010-05-07 13:00;CYUL 071300Z 32009KT 30SM BKN035 BKN120 07/00 A2999 RMK CU6AC1 SLP157

CYUL;2010-05-07 14:00;CYUL 071400Z 27013KT 30SM SCT040 BKN150 08/01 A2999 RMK CU4AC0 SLP155

CYUL;2010-05-07 15:00;CYUL 071500Z 28012G17KT 30SM SCT040 SCT240 10/00 A2998 RMK SC3CI0 CU ASOCTD SLP154

CYUL;2010-05-07 16:00;CYUL 071600Z 29014KT 30SM FEW045 BKN240 11/00 A2997 RMK CU2CI2 SLP149

CYUL;2010-05-07 17:00;CYUL 071700Z 29011G17KT 30SM FEW045 BKN240 11/02 A2996 RMK CU2CI2 SLP147

CYUL;2010-05-07 18:00;CYUL 071800Z 27014G19KT 30SM FEW045 BKN240 12/00 A2996 RMK CU1CI3 SLP147

CYUL;2010-05-07 19:00;CYUL 071900Z 27011G21KT 30SM FEW048 OVC220 13/M00 A2994 RMK CU1CS3 SLP139

CYUL;2010-05-07 20:00;CYUL 072000Z 29008G15KT 30SM FEW050 OVC220 13/02 A2992 RMK CU1CS5 SLP132

CYUL;2010-05-07 21:00;CYUL 072100Z 25011KT 30SM FEW050 SCT160 OVC210 13/00 A2991 RMK CU1AS2CS2 SLP128

CYUL;2010-05-07 22:00;CYUL 072200Z 28007KT 30SM FEW050 SCT160 OVC210 12/01 A2988 RMK CU1AS2CS4 SLP119

CYUL;2010-05-07 23:00;CYUL 072300Z 31007KT 30SM BKN160 OVC220 12/01 A2989 RMK AS5CS2 SLP122

CYUL;2010-05-08 00:00;CYUL 080000Z 30005KT 30SM OVC150 11/01 A2989 RMK AS8 SLP122

CYUL;2010-05-08 01:00;CYUL 080100Z 27003KT 15SM OVC140 11/01 A2988 RMK AS8 SLP118

CYUL;2010-05-08 02:00;CYUL 080200Z 28003KT 15SM BKN130 10/02 A2986 RMK AC7 SLP113

CYUL;2010-05-08 03:00;CYUL 080300Z 33002KT 15SM OVC120 10/03 A2985 RMK AC8 SLP111

CYUL;2010-05-08 04:00;CYUL 080400Z 00000KT 15SM SCT110 BKN220 11/00 A2982 RMK AC3CI2 SLP099

CYUL;2010-05-08 05:00;CYUL 080500Z 07013KT 15SM OVC073 10/01 A2981 RMK AC8 SLP096

CYUL;2010-05-08 06:00;CYUL 080600Z 07011KT 15SM FEW055 OVC095 09/00 A2978 RMK SC2AC6 SLP087

CYUL;2010-05-08 07:00;CYUL 080700Z CCA 08015KT 15SM BKN055 OVC090 08/M00 A2973 RMK SC6AC2 SLP070

CYUL;2010-05-08 08:00;CYUL 080800Z 07014G19KT 15SM OVC058 08/M01 A2969 RMK SC8 SLP057

CYUL;2010-05-08 09:00;CYUL 080900Z 06013KT 15SM OVC050 07/M01 A2967 RMK SC8 SLP050

CYUL;2010-05-08 10:00;CYUL 081000Z 06012G20KT 15SM OVC045 07/M01 A2963 RMK SC8 SLP035

CYUL;2010-05-08 11:00;CYUL 081100Z 05016G21KT 15SM OVC039 06/M00 A2960 RMK SC8 SLP025

CYUL;2010-05-08 12:00;CYUL 081200Z 06019G24KT 15SM OVC036 06/M01 A2954 RMK SC8 PRESFR SLP004

CYUL;2010-05-08 12:50;CYUL 081250Z 05017KT 15SM -SHRA OVC035 05/ RMK SC8

CYUL;2010-05-08 13:00;CYUL 081300Z 05015G20KT 15SM -SHRA OVC034 05/01 A2951 RMK SC8 SLP996

CYUL;2010-05-08 14:00;CYUL 081400Z CCA 05020G25KT 10SM -RA FEW006 FEW050 BKN060 04/02 A2945 RERA RMK SF1SC1SC6 PRESFR SLP976

CYUL;2010-05-08 15:00;CYUL 081500Z 06015KT 2 1/4SM -RA BR FEW007 BKN020 OVC026 05/03 A2941 RMK SF1SC6SC2 SLP960

CYUL;2010-05-08 15:17;CYUL 081517Z 06013KT 3SM -RA BR SCT010 OVC015 05/ RMK SF3SC5

CYUL;2010-05-08 15:44;CYUL 081544Z 06009G15KT 4SM -DZ BR BKN007 OVC012 06/ RMK SF6SC2

CYUL;2010-05-08 16:00;CYUL 081600Z 06009KT 4SM -DZ BR OVC007 06/05 A2938 RMK SF8 SLP949

CYUL;2010-05-08 16:17;CYUL 081617Z 07004KT 1 1/2SM -DZ BR BKN008 OVC015 06/ RMK SF6ST2

CYUL;2010-05-08 16:46;CYUL 081646Z 08008KT 4SM -DZ BR FEW004 BKN009 OVC020 07/ RMK SF2SF5SC2

CYUL;2010-05-08 17:00;CYUL 081700Z 10004KT 2SM -DZ BR FEW004 OVC007 07/06 A2937 RMK ST2ST6 SLP945

CYUL;2010-05-08 17:25;CYUL 081725Z 00000KT 1 3/4SM -DZ BR OVC004 07/ RMK ST8

CYUL;2010-05-08 18:00;CYUL 081800Z 24009KT 4SM -DZ BR FEW004 BKN008 OVC020 08/08 A2935 RMK SF1SF5SC2 -DZ INTMT SLP940

CYUL;2010-05-08 18:20;CYUL 081820Z 25011KT 6SM -DZ BR FEW005 SCT018 OVC030 09/ RMK SF1SC3SC4

CYUL;2010-05-08 18:45;CYUL 081845Z 25009G15KT 30SM SCT010 BKN055 09/ RMK SF3SC4 CU ASOCT

CYUL;2010-05-08 19:00;CYUL 081900Z 25012KT 15SM SCT008 BKN060 10/09 A2935 RMK SF4SC3 CU ASOCT SLP939

CYUL;2010-05-08 19:30;CYUL 081930Z CCA 26006KT 15SM BKN013 BKN060 11/ RMK CF6SC2

CYUL;2010-05-08 19:48;CYUL 081948Z 27012KT 30SM SCT014TCU BKN100 11/ RMK TCU4AC2

CYUL;2010-05-08 20:00;CYUL 082000Z 27013KT 30SM VCSH SCT015 BKN028 BKN100 12/09 A2934 RMK CU4SC3AC1 TCU EMBD SLP936

CYUL;2010-05-08 20:33;CYUL 082033Z 27015KT 15SM -SHRA BKN020 OVC050 11/ RMK CF6SC2

CYUL;2010-05-08 21:00;CYUL 082100Z 28014G20KT 30SM FEW020 FEW100 SCT220 11/07 A2935 RMK CF2AC1CI2 SLP938

CYUL;2010-05-08 21:29;CYUL 082129Z 27016KT 12SM -SHRA FEW020 BKN040 10/ RMK CF2SC6 TCU EMBD

CYUL;2010-05-08 22:00;CYUL 082200Z 28010KT 15SM FEW020 FEW045 SCT075 BKN220 09/06 A2934 RMK CF1SC1AC3CI2 SLP937

CYUL;2010-05-08 23:00;CYUL 082300Z 27008KT 15SM BKN023 OVC035 10/06 A2934 RMK SC6SC2 SLP936

CYUL;2010-05-08 23:10;CYUL 082310Z 28009KT 12SM -DZ BKN018 OVC035 10/ RMK SC6SC2

CYUL;2010-05-08 23:15;CYUL 082315Z 28010KT 12SM -RA OVC018 09/ RMK SC8

CYUL;2010-05-09 00:00;CYUL 090000Z 25011KT 4SM -RA BR SCT017 OVC040 08/07 A2935 RMK CF4SC4 SLP941

CYUL;2010-05-09 00:47;CYUL 090047Z 28011KT 6SM -RA BR FEW008 SCT012 OVC022 07/ RMK SF1CF2SC5

CYUL;2010-05-09 01:00;CYUL 090100Z 28010KT 6SM -RA BR FEW014 OVC030 07/06 A2937 RMK SF2SC6 SLP945

CYUL;2010-05-09 01:43;CYUL 090143Z 29012G18KT 15SM SCT013 OVC050 06/ RMK SF3SC5

CYUL;2010-05-09 02:00;CYUL 090200Z 29012G18KT 15SM FEW013 BKN033 OVC056 06/04 A2939 RMK SF2SC2SC4 SLP954

CYUL;2010-05-09 02:53;CYUL 090253Z 28015G20KT 15SM -RA FEW013 BKN031 OVC060 05/ RMK SF2SC4SC2

CYUL;2010-05-09 03:00;CYUL 090300Z 27016KT 15SM -RA SCT016 BKN033 OVC055 05/03 A2941 RMK SF2SC4SC2 SLP962

CYUL;2010-05-09 03:32;CYUL 090332Z 28017KT 15SM FEW017 SCT033 OVC052 05/ RMK SF2SC2SC4

CYUL;2010-05-09 04:00;CYUL 090400Z 27013G20KT 15SM SCT017 OVC036 05/02 A2944 RMK SF3SC5 SLP971

CYUL;2010-05-09 04:13;CYUL 090413Z 27013G20KT 12SM -RA BKN016 BKN021 OVC030 04/ RMK SF4SC3SC1

CYUL;2010-05-09 05:00;CYUL 090500Z 27018KT 15SM SCT017 OVC038 04/02 A2946 RMK SF3SC5 SLP978

CYUL;2010-05-09 05:14;CYUL 090514Z 28018G25KT 15SM -RA SCT017 OVC030 04/ RMK SF3SC5 -RA INTMT

CYUL;2010-05-09 06:00;CYUL 090600Z CCA 28017G26KT 15SM -RA FEW018 BKN026 OVC040 03/01 A2948 RMK SF1SC4SC3 SLP985

CYUL;2010-05-09 07:00;CYUL 090700Z 28020G30KT 15SM -RA FEW017 BKN025 OVC036 03/01 A2951 RMK SF2SC5SC2 SLP995

CYUL;2010-05-09 08:00;CYUL 090800Z 29014G24KT 15SM -RA SCT016 OVC034 02/01 A2955 RMK SF3SC5 SLP008

CYUL;2010-05-09 09:00;CYUL 090900Z 29015G25KT 15SM -RA SCT016 OVC040 02/00 A2958 RMK SF3SC5 SLP017

CYUL;2010-05-09 10:00;CYUL 091000Z 28015G20KT 15SM -RA OVC021 02/M00 A2961 RMK SC8 SLP027

CYUL;2010-05-09 11:00;CYUL 091100Z 27013G20KT 7SM -RASN BKN014 OVC032 01/00 A2964 RMK SF3SC5 SLP040

CYUL;2010-05-09 11:09;CYUL 091109Z 28014G19KT 4SM -RASN BKN009 OVC021 01/ RMK SF5SC3

CYUL;2010-05-09 11:22;CYUL 091122Z 28015KT 7SM -RASN BKN016 OVC029 02/ RMK SF5SC3

CYUL;2010-05-09 11:40;CYUL 091140Z 28012G19KT 7SM -RASN BKN014 OVC028 02/ RMK SF6SC2

CYUL;2010-05-09 12:00;CYUL 091200Z 27013G19KT 6SM -RASN BKN014 OVC028 02/M00 A2968 RMK SF6SC2 SLP053

CYUL;2010-05-09 12:45;CYUL 091245Z 27013G18KT 7SM -RASN BKN019 OVC035 02/ RMK SF6SC2

CYUL;2010-05-09 13:00;CYUL 091300Z 28016G22KT 3SM -RASN BKN013 OVC024 02/M00 A2972 RMK SF6SC2 SLP065

CYUL;2010-05-09 13:05;CYUL 091305Z 28015G20KT 2 1/4SM -RASN BKN008 OVC024 02/ RMK SF6SC2

CYUL;2010-05-09 13:25;CYUL 091325Z 28013G20KT 3SM -RASN BKN011 OVC024 02/ RMK SF6SC2

CYUL;2010-05-09 13:35;CYUL 091335Z 28014G21KT 7SM -RASN BKN018 OVC030 02/ RMK SF6SC2

CYUL;2010-05-09 14:00;CYUL 091400Z 28015G25KT 15SM -SN BKN025 OVC040 03/M00 A2975 RMK SC6SC2 SLP074

CYUL;2010-05-09 15:00;CYUL 091500Z 29017G24KT 15SM BKN028 OVC055 04/M01 A2977 RMK SC7SC1 SLP082

CYUL;2010-05-09 16:00;CYUL 091600Z 29015G24KT 15SM OVC030 04/M01 A2980 RMK SC8 SLP091

CYUL;2010-05-09 16:23;CYUL 091623Z 28018KT 15SM -SHSN OVC030 04/ RMK SC8

CYUL;2010-05-09 16:41;CYUL 091641Z 29015G22KT 15SM -SHRASN OVC025 04/ RMK SC8

CYUL;2010-05-09 17:00;CYUL 091700Z 27016G25KT 15SM -SHRASN OVC028 04/M00 A2981 RMK SC8 SLP097

CYUL;2010-05-09 17:43;CYUL 091743Z 26018G25KT 15SM -RA OVC028 04/ RMK SC8

CYUL;2010-05-09 18:00;CYUL 091800Z 27016KT 15SM -RA OVC030 05/00 A2983 RMK SC8 SLP103

CYUL;2010-05-09 18:24;CYUL 091824Z 29020G26KT 15SM OVC030 05/ RMK SC8

CYUL;2010-05-09 19:00;CYUL 091900Z 28018G26KT 15SM OVC033 05/M01 A2985 RMK SC8 SLP110

CYUL;2010-05-09 19:44;CYUL 091944Z 29018G27KT 15SM -SHRA OVC035 05/ RMK SC8

CYUL;2010-05-09 20:00;CYUL 092000Z 30021G26KT 15SM -SHSN OVC033 04/M02 A2988 RMK SC8 SLP121

CYUL;2010-05-09 20:33;CYUL 092033Z 30018G26KT 15SM OVC030 04/ RMK SC8

CYUL;2010-05-09 21:00;CYUL 092100Z 28017G24KT 15SM OVC030 04/M02 A2991 RMK SC8 SLP132

CYUL;2010-05-09 22:00;CYUL 092200Z 28017G22KT 15SM OVC030 04/M02 A2995 RMK SC8 SLP143

CYUL;2010-05-09 23:00;CYUL 092300Z 30009G17KT 15SM OVC030 03/M03 A2998 RMK SC8 SLP154

CYUL;2010-05-10 00:00;CYUL 100000Z 31012KT 15SM OVC030 03/M03 A3001 RMK SC8 SLP165

CYUL;2010-05-10 01:00;CYUL 100100Z 30013KT 15SM BKN035 03/M03 A3004 RMK SC7 SLP174

CYUL;2010-05-10 02:00;CYUL 100200Z 32011KT 15SM BKN039 03/M04 A3005 RMK SC7 SLP179

CYUL;2010-05-10 03:00;CYUL 100300Z 31009KT 15SM SCT040 BKN100 02/M04 A3005 RMK SC3AC4 SLP178

CYUL;2010-05-10 04:00;CYUL 100400Z 30009KT 15SM FEW050 BKN100 02/M04 A3006 RMK SC2AC6 SLP180

CYUL;2010-05-10 05:00;CYUL 100500Z 29008KT 15SM BKN061 BKN100 02/M04 A3006 RMK SC6AC2 SLP181

CYUL;2010-05-10 06:00;CYUL 100600Z 29009KT 15SM BKN064 BKN100 03/M04 A3007 RMK SC6AC2 SLP183

CYUL;2010-05-10 07:00;CYUL 100700Z 31009KT 15SM BKN070 02/M04 A3007 RMK AC3 SLP185

CYUL;2010-05-10 08:00;CYUL 100800Z 31008KT 15SM FEW065 01/M04 A3009 RMK SC1 SLP190

CYUL;2010-05-10 09:00;CYUL 100900Z 30007KT 15SM FEW120 FEW240 M00/M05 A3010 RMK AC1CI1 SLP195

CYUL;2010-05-10 10:00;CYUL 101000Z 29010KT 15SM FEW120 BKN240 M00/M06 A3012 RMK AC1CI2 SLP200

CYUL;2010-05-10 11:00;CYUL 101100Z 30010KT 15SM SCT240 01/M07 A3014 RMK CI2 SLP208

CYUL;2010-05-10 12:00;CYUL 101200Z 31011KT 30SM SCT240 01/M08 A3016 RMK CI1 SLP216

CYUL;2010-05-10 13:00;CYUL 101300Z 30010KT 30SM FEW240 03/M07 A3018 RMK CI1 SLP221

CYUL;2010-05-10 14:00;CYUL 101400Z 30011KT 30SM FEW040 FEW240 04/M06 A3018 RMK CU1CI1 SLP223

CYUL;2010-05-10 15:00;CYUL 101500Z 32012G17KT 30SM FEW040 FEW240 06/M06 A3020 RMK CU1CI1 SLP227

CYUL;2010-05-10 16:00;CYUL 101600Z 32010KT 30SM FEW040 FEW240 07/M06 A3020 RMK CU1CI2 CONTRAILS SLP227

CYUL;2010-05-10 17:00;CYUL 101700Z 31013KT 30SM FEW045 BKN240 09/M06 A3019 RMK CU1CS3 SLP225

CYUL;2010-05-10 18:00;CYUL 101800Z 31010G17KT 30SM FEW050 OVC240 10/M04 A3019 RMK CU1CS3 SLP225

CYUL;2010-05-10 19:00;CYUL 101900Z 32010G17KT 30SM FEW050 BKN240 10/M06 A3020 RMK CU1CI2 SLP230

CYUL;2010-05-10 20:00;CYUL 102000Z 32011KT 30SM FEW050 BKN240 11/M06 A3021 RMK CU1CI1 SLP233

CYUL;2010-05-10 21:00;CYUL 102100Z 31012G18KT 30SM FEW075 SCT240 11/M06 A3023 RMK CF1CI0 SLP239

CYUL;2010-05-10 22:00;CYUL 102200Z 31010G16KT 30SM FEW075 BKN240 10/M06 A3026 RMK AC1CI0 SLP249

CYUL;2010-05-10 23:00;CYUL 102300Z 33011G18KT 30SM FEW075 FEW240 09/M05 A3028 RMK AC1CI0 SLP257

CYUL;2010-05-11 00:00;CYUL 110000Z 35013G20KT 30SM FEW075 FEW240 07/M06 A3032 RMK AC1CI1 SLP270

CYUL;2010-05-11 01:00;CYUL 110100Z 36009KT 15SM SKC 06/M05 A3036 RMK SLP284

CYUL;2010-05-11 02:00;CYUL 110200Z 33003KT 15SM SKC 03/M04 A3039 RMK SLP292

CYUL;2010-05-11 03:00;CYUL 110300Z 00000KT 15SM SKC 04/M05 A3038 RMK SLP290

CYUL;2010-05-11 04:00;CYUL 110400Z 27002KT 15SM SKC 02/M03 A3039 RMK SLP294

CYUL;2010-05-11 05:00;CYUL 110500Z 27002KT 15SM FEW210 02/M03 A3039 RMK CI1 SLP292

CYUL;2010-05-11 06:00;CYUL 110600Z 23002KT 15SM FEW075 02/M03 A3039 RMK AC2 SLP292

CYUL;2010-05-11 07:00;CYUL 110700Z 24003KT 15SM BKN080 03/M01 A3039 RMK AC6 SLP293

CYUL;2010-05-11 08:00;CYUL 110800Z 29003KT 15SM BKN080 03/M01 A3039 RMK AC6 SLP293

CYUL;2010-05-11 09:00;CYUL 110900Z 25005KT 15SM FEW070 FEW240 03/M02 A3041 RMK AC1CI1 SLP298

CYUL;2010-05-11 10:00;CYUL 111000Z 00000KT 30SM FEW070 FEW210 03/M01 A3041 RMK AC1CI1 SLP298

CYUL;2010-05-11 11:00;CYUL 111100Z 25005KT 30SM FEW070 04/M01 A3043 RMK AC1 SLP306

CYUL;2010-05-11 12:00;CYUL 111200Z 26006KT 30SM FEW070 06/M01 A3042 RMK AC1 SLP304

CYUL;2010-05-11 13:00;CYUL 111300Z 23008KT 30SM FEW080 08/M01 A3041 RMK AC1 SLP300

CYUL;2010-05-11 14:00;CYUL 111400Z 24010KT 30SM FEW210 09/M02 A3039 RMK CI0 SLP292

CYUL;2010-05-11 15:00;CYUL 111500Z 22010KT 30SM FEW060 SCT240 10/M01 A3038 RMK CU1CI0 SLP288

CYUL;2010-05-11 16:00;CYUL 111600Z 22010KT 30SM FEW065 BKN240 12/00 A3036 RMK CU1CI0 SLP282

CYUL;2010-05-11 17:00;CYUL 111700Z 21012G18KT 30SM FEW065 FEW150 BKN210 13/01 A3033 RMK CU1AC0CI0 SLP274

CYUL;2010-05-11 18:00;CYUL 111800Z 21013G18KT 30SM SCT080 BKN150 BKN240 14/00 A3031 RMK ACC4AC0CI0 SLP264

CYUL;2010-05-11 19:00;CYUL 111900Z 28007G15KT 30SM SCT090 BKN210 16/01 A3028 RMK ACC3CI0 SLP256

CYUL;2010-05-11 20:00;CYUL 112000Z 25005KT 30SM SCT090 BKN210 15/M01 A3027 RMK ACC3CI1 SLP251

CYUL;2010-05-11 21:00;CYUL 112100Z 28010G18KT 30SM FEW085 BKN210 16/M02 A3025 RMK ACC2CI1 SLP246

CYUL;2010-05-11 22:00;CYUL 112200Z 27009KT 30SM FEW095 OVC220 16/M02 A3025 RMK AC2CS1 SLP244

CYUL;2010-05-11 23:00;CYUL 112300Z 23008KT 15SM FEW090 OVC210 15/M01 A3024 RMK AC2CS2 SLP241

CYUL;2010-05-12 00:00;CYUL 120000Z 24005KT 15SM FEW090 OVC240 14/00 A3023 RMK AC2CS3 SLP238

CYUL;2010-05-12 01:00;CYUL 120100Z 26003KT 15SM SCT095 OVC240 12/02 A3024 RMK AC3CS3 SLP242

CYUL;2010-05-12 02:00;CYUL 120200Z 02004KT 15SM SCT090 BKN240 12/01 A3025 RMK AC4CI0 SLP244

CYUL;2010-05-12 03:00;CYUL 120300Z 05011KT 15SM SCT090 BKN230 12/M05 A3026 RMK AC3CI2 SLP247

CYUL;2010-05-12 04:00;CYUL 120400Z 05012KT 15SM FEW090 BKN230 11/M05 A3026 RMK AC2CI1 SLP248

CYUL;2010-05-12 05:00;CYUL 120500Z 05010KT 15SM FEW090 BKN240 10/M05 A3025 RMK AC1CI4 SLP245

CYUL;2010-05-12 06:00;CYUL 120600Z 03008KT 15SM FEW090 BKN240 08/M03 A3025 RMK AC1CI5 SLP244

CYUL;2010-05-12 07:00;CYUL 120700Z 04010KT 15SM BKN240 07/M03 A3024 RMK CI2 SLP240

CYUL;2010-05-12 08:00;CYUL 120800Z 04009KT 15SM BKN240 07/M03 A3025 RMK CI1 SLP243

CYUL;2010-05-12 09:00;CYUL 120900Z 03009KT 15SM SCT240 05/M02 A3024 RMK CI1 SLP242

CYUL;2010-05-12 10:00;CYUL 121000Z 04009KT 30SM FEW070 BKN240 06/M02 A3025 RMK AC1CI2 SLP244

CYUL;2010-05-12 11:00;CYUL 121100Z 04009KT 30SM FEW070 BKN240 07/M03 A3026 RMK AC1CI3 SLP247

CYUL;2010-05-12 12:00;CYUL 121200Z 04009KT 30SM SCT240 09/M03 A3025 RMK CI2 SLP246

CYUL;2010-05-12 13:00;CYUL 121300Z 06013KT 30SM SCT240 10/M03 A3025 RMK CI2 SLP244

CYUL;2010-05-12 14:00;CYUL 121400Z 05013KT 30SM BKN240 11/M03 A3024 RMK CI1 SLP240

CYUL;2010-05-12 15:00;CYUL 121500Z 04011G16KT 30SM BKN240 12/M02 A3025 RMK CI1 SLP243

CYUL;2010-05-12 16:00;CYUL 121600Z 03010KT 30SM FEW065 OVC220 12/M02 A3025 RMK CU1CS3 SLP244

CYUL;2010-05-12 17:00;CYUL 121700Z 04012KT 30SM FEW065 OVC210 13/M00 A3023 RMK CU1CS4 SLP239

CYUL;2010-05-12 18:00;CYUL 121800Z 04008G15KT 15SM OVC210 13/M02 A3021 RMK CS6 SLP231

CYUL;2010-05-12 19:00;CYUL 121900Z 05009KT 15SM OVC200 14/M01 A3019 RMK CS6 SLP225

CYUL;2010-05-12 20:00;CYUL 122000Z 01007KT 15SM OVC200 14/M03 A3018 RMK CS5 SLP222

CYUL;2010-05-12 21:00;CYUL 122100Z 05006KT 15SM BKN240 14/M04 A3020 RMK CS3 SLP229

CYUL;2010-05-12 22:00;CYUL 122200Z 04011KT 30SM BKN210 14/M06 A3021 RMK CI1 SLP231

CYUL;2010-05-12 23:00;CYUL 122300Z 04011KT 30SM SCT200 14/M06 A3022 RMK CI0 SLP233

CYUL;2010-05-13 00:00;CYUL 130000Z 04010KT 30SM FEW210 14/M06 A3023 RMK CI0 SLP237

CYUL;2010-05-13 01:00;CYUL 130100Z 03006KT 15SM FEW210 11/M04 A3025 RMK CI0 SLP245

CYUL;2010-05-13 02:00;CYUL 130200Z 04005KT 15SM FEW240 11/M04 A3026 RMK CI0 SLP248

CYUL;2010-05-13 03:00;CYUL 130300Z 02002KT 15SM FEW240 09/M03 A3027 RMK CI0 SLP252

CYUL;2010-05-13 04:00;CYUL 130400Z 02004KT 15SM SKC 08/M03 A3028 RMK SLP255

CYUL;2010-05-13 05:00;CYUL 130500Z 35004KT 15SM SKC 07/M03 A3028 RMK SLP257

CYUL;2010-05-13 06:00;CYUL 130600Z 33002KT 15SM FEW240 05/M02 A3029 RMK CI0 SLP260

CYUL;2010-05-13 07:00;CYUL 130700Z 02002KT 15SM FEW240 05/M03 A3029 RMK CI0 SLP260

CYUL;2010-05-13 08:00;CYUL 130800Z 31004KT 15SM FEW240 02/M01 A3032 RMK CI0 SLP268

CYUL;2010-05-13 09:00;CYUL 130900Z 01003KT 15SM FEW240 03/M02 A3033 RMK CI0 SLP272

CYUL;2010-05-13 10:00;CYUL 131000Z 29002KT 30SM SKC 02/M02 A3033 RMK SLP273

CYUL;2010-05-13 11:00;CYUL 131100Z 34003KT 30SM FEW240 05/M01 A3034 RMK CI0 SLP277

CYUL;2010-05-13 12:00;CYUL 131200Z 35006KT 30SM FEW240 08/M01 A3034 RMK CI0 SLP277

CYUL;2010-05-13 13:00;CYUL 131300Z 36004KT 30SM FEW240 10/M02 A3035 RMK CI1 SLP279

CYUL;2010-05-13 14:00;CYUL 131400Z 00000KT 30SM FEW240 12/M03 A3033 RMK CI0 SLP272

CYUL;2010-05-13 15:00;CYUL 131500Z 06003KT 30SM FEW240 14/M02 A3032 RMK CI0 SLP268

CYUL;2010-05-13 16:00;CYUL 131600Z 02002KT 30SM FEW240 14/M00 A3030 RMK CI0 SLP263

CYUL;2010-05-13 17:00;CYUL 131700Z 23010KT 30SM FEW240 15/M03 A3029 RMK CI0 SLP260

CYUL;2010-05-13 18:00;CYUL 131800Z 20011KT 30SM SCT240 15/M02 A3027 RMK CI0 SLP252

CYUL;2010-05-13 19:00;CYUL 131900Z 19010KT 30SM SCT240 16/M02 A3024 RMK CI0 SLP243

CYUL;2010-05-13 20:00;CYUL 132000Z 20013KT 30SM BKN240 17/M01 A3023 RMK CI0 SLP237

CYUL;2010-05-13 21:00;CYUL 132100Z 21010G15KT 30SM BKN210 17/M02 A3020 RMK CI2 SLP227

CYUL;2010-05-13 22:00;CYUL 132200Z 22013KT 30SM FEW180 BKN210 17/M02 A3020 RMK AC1CI2 SLP226

CYUL;2010-05-13 23:00;CYUL 132300Z 23010KT 30SM FEW180 BKN240 16/M01 A3018 RMK AC1CI2 SLP221

CYUL;2010-05-14 00:00;CYUL 140000Z 22007KT 30SM BKN230 16/M02 A3015 RMK CC3 SLP210

CYUL;2010-05-14 01:00;CYUL 140100Z 21004KT 15SM BKN210 OVC240 15/M01 A3013 RMK CC6CI2 SLP205

CYUL;2010-05-14 02:00;CYUL 140200Z 17005KT 15SM SCT150 OVC200 14/M01 A3012 RMK AC4CI3 SLP202

CYUL;2010-05-14 03:00;CYUL 140300Z 25002KT 15SM OVC140 13/02 A3012 RMK AS8 SLP199

CYUL;2010-05-14 04:00;CYUL 140400Z 17002KT 15SM OVC130 12/03 A3011 RMK AS8 SLP197

CYUL;2010-05-14 05:00;CYUL 140500Z 00000KT 15SM OVC110 13/03 A3010 RMK AS8 SLP195

CYUL;2010-05-14 06:00;CYUL 140600Z 21003KT 15SM OVC100 13/03 A3009 RMK AS8 SLP192

CYUL;2010-05-14 07:00;CYUL 140700Z 27002KT 15SM OVC095 12/02 A3009 RMK AS8 SLP189

CYUL;2010-05-14 08:00;CYUL 140800Z 20004KT 15SM OVC080 12/02 A3009 RMK AS8 SLP191

CYUL;2010-05-14 09:00;CYUL 140900Z 15005KT 15SM OVC075 11/04 A3006 RMK AC8 SLP181

CYUL;2010-05-14 10:00;CYUL 141000Z 13008KT 15SM SCT067 BKN075 BKN095 11/06 A3004 RMK AC4AC3AC1 SLP174

CYUL;2010-05-14 11:00;CYUL 141100Z 16008KT 15SM BKN085 BKN220 11/06 A3003 RMK AC6CI1 SLP170

CYUL;2010-05-14 12:00;CYUL 141200Z 13014KT 15SM BKN075 OVC240 12/06 A3002 RMK AC7CI0 SLP167

CYUL;2010-05-14 13:00;CYUL 141300Z 16014KT 15SM BKN035 BKN075 12/07 A3002 RMK SC6AC1 SLP166

CYUL;2010-05-14 14:00;CYUL 141400Z 15013KT 15SM FEW032 BKN038 OVC070 12/07 A3000 RMK SC2SC6AC1 SLP159

CYUL;2010-05-14 14:17;CYUL 141417Z 17010KT 10SM -SHRA FEW015 OVC024 11/ RMK SF2SC6

CYUL;2010-05-14 14:30;CYUL 141430Z 15009KT 10SM -SHRA BKN012 OVC024 11/ RMK SF3SC5 VRY LGT RA

CYUL;2010-05-14 15:00;CYUL 141500Z 17007KT 12SM -SHRA FEW006 BKN013 OVC020 10/09 A3000 RMK SF2SC2SC5 SLP161

CYUL;2010-05-14 15:21;CYUL 141521Z 16008KT 10SM -DZ FEW007 BKN015 OVC020 10/ RMK SF2SC2SC4

CYUL;2010-05-14 16:00;CYUL 141600Z 17008KT 15SM FEW011 BKN017 OVC024 11/09 A2999 RMK SF1SC6SC2 SLP155

CYUL;2010-05-14 16:37;CYUL 141637Z 18007KT 15SM BKN008 BKN016 OVC022 11/ RMK SF3SC4SC1

CYUL;2010-05-14 17:00;CYUL 141700Z 16004KT 15SM BKN009 BKN018 OVC032 12/10 A2996 RMK SF3SC4SC1 SLP146

CYUL;2010-05-14 18:00;CYUL 141800Z 22004KT 15SM BKN011 OVC020 12/10 A2995 RMK SF6SC2 SLP144

CYUL;2010-05-14 19:00;CYUL 141900Z 19003KT 15SM SCT013 OVC030 13/10 A2993 RMK SF2SC6 SLP137

CYUL;2010-05-14 20:00;CYUL 142000Z 17003KT 15SM BKN016 OVC028 14/10 A2991 RMK SC4SC4 SLP131

CYUL;2010-05-14 20:53;CYUL 142053Z 17002KT 15SM -SHRA SCT013 BKN019 OVC029 14/ RMK SF2SC4SC2

CYUL;2010-05-14 21:00;CYUL 142100Z 20003KT 15SM -SHRA FEW014 BKN019 OVC028 14/11 A2991 RMK SF2SC2SC4 VRY LGT RA SLP128

CYUL;2010-05-14 21:37;CYUL 142137Z 25004KT 15SM VCSH FEW018 BKN033 BKN046 OVC070 15/ RMK SF2SC3SC2AC1

CYUL;2010-05-14 22:00;CYUL 142200Z 23004KT 15SM FEW015 BKN033 BKN055 15/11 A2990 RMK SF1SC4SC2 SLP127

CYUL;2010-05-14 23:00;CYUL 142300Z 25004KT 15SM FEW016 SCT022 BKN033 BKN050 15/11 A2989 RMK SF1SC2SC2SC1 SLP123

CYUL;2010-05-15 00:00;CYUL 150000Z 29004KT 15SM FEW016 FEW033 FEW070 13/11 A2989 RMK SC1SC0AC0 SLP122

CYUL;2010-05-15 01:00;CYUL 150100Z 00000KT 15SM FEW032 FEW080 13/11 A2988 RMK SC1AC1 SLP120

CYUL;2010-05-15 02:00;CYUL 150200Z 14002KT 15SM SCT090 11/10 A2988 RMK AC3 SLP120

CYUL;2010-05-15 03:00;CYUL 150300Z 13002KT 15SM BKN095 12/10 A2986 RMK AC6 SLP112

CYUL;2010-05-15 03:42;CYUL 150342Z 18004KT 15SM TS OVC090 12/ RMK AC8 CB EMBD S

CYUL;2010-05-15 03:48;CYUL 150348Z 18006KT 15SM -TSRA OVC080 12/ RMK AC8 CB EMBD

CYUL;2010-05-15 04:00;CYUL 150400Z 26012KT 1 1/2SM R24R/4500VP6000FT/D +TSRA OVC014CB 12/11 A2988 RMK CB8 SLP121

CYUL;2010-05-15 04:08;CYUL 150408Z 26004G18KT 7SM -TSRA FEW007 FEW018CB OVC060 13/ RERA RMK SF1CB2SC6

CYUL;2010-05-15 04:36;CYUL 150436Z 18002KT 15SM FEW075 BKN095 12/ RETSRA RMK AC1AC6

CYUL;2010-05-15 05:00;CYUL 150500Z 22006KT 15SM FEW080 FEW100 12/11 A2984 RETSRA RMK AC1AC2 SLP107

CYUL;2010-05-15 06:00;CYUL 150600Z 27009KT 15SM FEW075 BKN120 11/09 A2984 RMK AC1AC6 SLP106

CYUL;2010-05-15 07:00;CYUL 150700Z 28006KT 15SM OVC090 11/08 A2983 RMK AC8 SLP102

CYUL;2010-05-15 08:00;CYUL 150800Z 27005KT 15SM -SHRA SCT045 OVC065 11/08 A2985 RMK SC3SC5 SLP109

CYUL;2010-05-15 09:00;CYUL 150900Z 27009KT 15SM BKN050 OVC100 12/08 A2987 RMK SC7AC1 SLP115

CYUL;2010-05-15 10:00;CYUL 151000Z 27008KT 15SM FEW035 BKN050 BKN095 11/08 A2989 RMK SC1SC6AC1 SLP123

CYUL;2010-05-15 11:00;CYUL 151100Z 29011KT 15SM FEW050 BKN080 11/08 A2992 RMK SC1AC5 SLP132

CYUL;2010-05-15 12:00;CYUL 151200Z 27014KT 15SM FEW025 BKN080 12/08 A2994 RMK SC2AC5 SLP139

CYUL;2010-05-15 13:00;CYUL 151300Z 28012KT 30SM SCT022 SCT075 13/09 A2996 RMK SC3AC1 SLP145

CYUL;2010-05-15 14:00;CYUL 151400Z 27012KT 30SM SCT026 BKN036 BKN070 14/09 A2997 RMK SC3SC2AC1 SLP151

CYUL;2010-05-15 15:00;CYUL 151500Z 28014KT 30SM FEW028 FEW045 SCT075 15/09 A2997 RMK SC1SC1AC1 SLP150

CYUL;2010-05-15 16:00;CYUL 151600Z 29013G19KT 30SM SCT026 BKN044 BKN066 16/09 A2999 RMK SC2SC2AC1 CU EMBD SLP155

CYUL;2010-05-15 17:00;CYUL 151700Z 31016KT 30SM FEW037 FEW048 SCT070 17/10 A2999 RMK SC1SC1AC1 CU EMBD SLP157

CYUL;2010-05-15 18:00;CYUL 151800Z 29016KT 30SM SCT037 BKN052 BKN075 17/09 A3000 RMK SC3SC1AC2 SLP159

CYUL;2010-05-15 19:00;CYUL 151900Z 04009G16KT 30SM FEW025 BKN042 BKN066 14/10 A3002 RMK SC2SC4AC1 SLP168

CYUL;2010-05-15 19:29;CYUL 151929Z 05006KT 15SM -SHRA SCT037 BKN047 OVC062 14/ RMK SC3SC3SC1

CYUL;2010-05-15 20:00;CYUL 152000Z 36002KT 15SM -RA SCT038 BKN048 OVC062 14/10 A3003 RMK SC3SC4SC1 SLP171

CYUL;2010-05-15 21:00;CYUL 152100Z 06003KT 15SM -RA FEW042 OVC060 14/11 A3004 RMK SC2SC6 SLP174

CYUL;2010-05-15 21:26;CYUL 152126Z 08002KT 15SM BKN044 OVC068 14/ RMK SC5AC2

CYUL;2010-05-15 22:00;CYUL 152200Z 04006KT 15SM -RA SCT021 BKN040 OVC060 14/11 A3006 RMK SC3SC3SC2 SLP181

CYUL;2010-05-15 23:00;CYUL 152300Z 18006KT 15SM -RA FEW028 BKN058 BKN075 13/11 A3007 RMK SC2SC4AC1 SLP182

CYUL;2010-05-15 23:40;CYUL 152340Z 21011KT 15SM SCT058 BKN075 13/ RMK SC3AC3

CYUL;2010-05-16 00:00;CYUL 160000Z 22008KT 15SM FEW052 BKN080 13/11 A3007 RMK SC2AC5 SLP182

CYUL;2010-05-16 01:00;CYUL 160100Z 23007KT 15SM BKN095 13/10 A3008 RMK AC6 SLP187

CYUL;2010-05-16 02:00;CYUL 160200Z 24006KT 15SM FEW100 12/10 A3008 RMK AC1 SLP188

CYUL;2010-05-16 03:00;CYUL 160300Z 25008KT 15SM BKN100 12/09 A3008 RMK AC6 SLP186

CYUL;2010-05-16 04:00;CYUL 160400Z 24007KT 15SM SCT080 BKN095 12/09 A3009 RMK AC3AC4 SLP189

CYUL;2010-05-16 05:00;CYUL 160500Z 25005KT 15SM BKN095 11/09 A3008 RMK AC6 SLP188

CYUL;2010-05-16 06:00;CYUL 160600Z 25005KT 15SM FEW095 10/08 A3009 RMK AC2 SLP189

CYUL;2010-05-16 07:00;CYUL 160700Z 24005KT 15SM SKC 09/08 A3010 RMK SLP194

CYUL;2010-05-16 08:00;CYUL 160800Z 26004KT 15SM SKC 09/08 A3011 RMK SLP198

CYUL;2010-05-16 09:00;CYUL 160900Z 25003KT 15SM MIFG FEW090 08/07 A3013 RMK AC1 SLP204

CYUL;2010-05-16 10:00;CYUL 161000Z 35004KT 30SM FEW090 07/06 A3015 RMK AC1 SLP209

CYUL;2010-05-16 11:00;CYUL 161100Z 00000KT 30SM FEW025 09/07 A3017 RMK SC1 SLP216

CYUL;2010-05-16 12:00;CYUL 161200Z 00000KT 30SM FEW025 11/04 A3018 RMK CF1 SLP220

CYUL;2010-05-16 13:00;CYUL 161300Z 03007KT 30SM FEW040 14/03 A3018 RMK SC0 SLP222

CYUL;2010-05-16 14:00;CYUL 161400Z 04004KT 30SM FEW042 16/M00 A3017 RMK CU1 SLP219

CYUL;2010-05-16 15:00;CYUL 161500Z 35009KT 30SM FEW058 17/00 A3017 RMK SC1 SLP218

CYUL;2010-05-16 16:00;CYUL 161600Z 02004KT 30SM SKC 18/M01 A3016 RMK SLP215

CYUL;2010-05-16 17:00;CYUL 161700Z 33007KT 30SM FEW240 19/M03 A3014 RMK CI1 SLP207

CYUL;2010-05-16 18:00;CYUL 161800Z 32013G19KT 30SM FEW240 20/M01 A3012 RMK CI1 SLP202

CYUL;2010-05-16 19:00;CYUL 161900Z 35014KT 30SM FEW240 22/M03 A3010 RMK CI1 SLP195

CYUL;2010-05-16 20:00;CYUL 162000Z 36004G15KT 30SM FEW240 22/M02 A3009 RMK CI1 SLP192

CYUL;2010-05-16 21:00;CYUL 162100Z 36012G19KT 30SM SKC 22/M03 A3008 RMK SLP187

CYUL;2010-05-16 22:00;CYUL 162200Z 33009G16KT 30SM FEW240 22/M04 A3008 RMK CI0 SLP186

CYUL;2010-05-16 23:00;CYUL 162300Z 35011G17KT 30SM SKC 22/M03 A3007 RMK SLP185

CYUL;2010-05-17 00:00;CYUL 170000Z 36008KT 30SM SKC 20/M04 A3009 RMK SLP190

CYUL;2010-05-17 01:00;CYUL 170100Z 32004KT 15SM SKC 16/00 A3011 RMK SLP196

CYUL;2010-05-17 02:00;CYUL 170200Z 33004KT 15SM SKC 13/03 A3012 RMK SLP201

CYUL;2010-05-17 03:00;CYUL 170300Z 32005KT 15SM SKC 12/02 A3013 RMK SLP203

CYUL;2010-05-17 04:00;CYUL 170400Z 31006KT 15SM SKC 12/01 A3013 RMK SLP204

CYUL;2010-05-17 05:00;CYUL 170500Z 32007KT 15SM SKC 13/00 A3013 RMK SLP205

CYUL;2010-05-17 06:00;CYUL 170600Z 32003KT 15SM SKC 11/M00 A3015 RMK SLP210

CYUL;2010-05-17 07:00;CYUL 170700Z 00000KT 15SM SKC 11/M00 A3016 RMK SLP215

CYUL;2010-05-17 08:00;CYUL 170800Z 00000KT 15SM SKC 10/M01 A3017 RMK SLP218

CYUL;2010-05-17 09:00;CYUL 170900Z 00000KT 15SM SKC 10/00 A3017 RMK SLP219

CYUL;2010-05-17 10:00;CYUL 171000Z 25003KT 30SM SKC 06/02 A3020 RMK SLP228

CYUL;2010-05-17 11:00;CYUL 171100Z 24002KT 30SM SKC 11/05 A3021 RMK SLP232

CYUL;2010-05-17 12:00;CYUL 171200Z 00000KT 30SM FEW240 13/05 A3023 RMK CI0 FU TR W-N SLP236

CYUL;2010-05-17 13:00;CYUL 171300Z 00000KT 30SM FEW240 16/05 A3023 RMK CI0 SLP237

CYUL;2010-05-17 14:00;CYUL 171400Z 04005KT 30SM FEW240 19/02 A3022 RMK CI0 SLP235

CYUL;2010-05-17 15:00;CYUL 171500Z 21007KT 30SM FEW240 19/04 A3022 RMK CI0 SLP234

CYUL;2010-05-17 16:00;CYUL 171600Z 26003KT 30SM FEW240 20/02 A3020 RMK CI0 SLP229

CYUL;2010-05-17 17:00;CYUL 171700Z 25004KT 30SM FEW240 22/04 A3018 RMK CI0 SLP221

CYUL;2010-05-17 18:00;CYUL 171800Z 22009KT 30SM FEW240 22/01 A3017 RMK CI0 SLP216

CYUL;2010-05-17 19:00;CYUL 171900Z 21005KT 30SM SCT240 23/01 A3015 RMK CI0 SLP209

CYUL;2010-05-17 20:00;CYUL 172000Z 20004KT 30SM SCT240 23/01 A3012 RMK CI0 SLP202

CYUL;2010-05-17 21:00;CYUL 172100Z 20004KT 30SM BKN240 23/M00 A3012 RMK CI0 SLP199

CYUL;2010-05-17 22:00;CYUL 172200Z 00000KT 30SM BKN240 24/01 A3010 RMK CI1 SLP195

CYUL;2010-05-17 23:00;CYUL 172300Z 19005KT 30SM BKN210 23/01 A3010 RMK CI1 SLP193

CYUL;2010-05-18 00:00;CYUL 180000Z 22003KT 30SM BKN210 21/03 A3010 RMK CI2 SLP193

CYUL;2010-05-18 01:00;CYUL 180100Z 22002KT 15SM SCT240 19/02 A3010 RMK CI0 SLP194

CYUL;2010-05-18 02:00;CYUL 180200Z 19005KT 15SM SCT240 18/03 A3011 RMK CI0 SLP198

CYUL;2010-05-18 03:00;CYUL 180300Z 00000KT 15SM SCT240 17/04 A3011 RMK CI0 SLP197

CYUL;2010-05-18 04:00;CYUL 180400Z 00000KT 15SM SCT240 16/04 A3011 RMK CI0 SLP197

CYUL;2010-05-18 05:00;CYUL 180500Z 00000KT 15SM FEW240 15/05 A3010 RMK CI0 SLP194

CYUL;2010-05-18 06:00;CYUL 180600Z 00000KT 15SM BKN240 12/06 A3010 RMK CI0 SLP194

CYUL;2010-05-18 07:00;CYUL 180700Z 00000KT 15SM BKN240 12/06 A3009 RMK CI0 SLP192

CYUL;2010-05-18 08:00;CYUL 180800Z 00000KT 15SM BKN240 11/06 A3009 RMK CI1 SLP191

CYUL;2010-05-18 09:00;CYUL 180900Z 00000KT 15SM BKN240 10/06 A3009 RMK CI2 SLP189

CYUL;2010-05-18 10:00;CYUL 181000Z 17002KT 30SM OVC240 11/06 A3009 RMK CI4 SLP191

CYUL;2010-05-18 11:00;CYUL 181100Z 00000KT 30SM OVC240 13/08 A3009 RMK CI4 SLP191

CYUL;2010-05-18 12:00;CYUL 181200Z 00000KT 30SM BKN240 16/07 A3009 RMK CI5 SLP189

CYUL;2010-05-18 13:00;CYUL 181300Z 09002KT 30SM BKN240 19/06 A3008 RMK CI3 SLP188

CYUL;2010-05-18 14:00;CYUL 181400Z 17003KT 30SM BKN240 20/04 A3007 RMK CI2 SLP185

CYUL;2010-05-18 15:00;CYUL 181500Z 14003KT 30SM OVC230 22/04 A3007 RMK CI3 CS ASOCT SLP182

CYUL;2010-05-18 16:00;CYUL 181600Z 12002KT 30SM OVC230 23/05 A3005 RMK CS6 SLP177

CYUL;2010-05-18 17:00;CYUL 181700Z 09003KT 30SM OVC220 24/04 A3003 RMK CS6 SLP170

CYUL;2010-05-18 18:00;CYUL 181800Z 10003KT 30SM BKN240 25/05 A3001 RMK CS5 SLP163

CYUL;2010-05-18 19:00;CYUL 181900Z 18008KT 30SM BKN220 25/04 A3000 RMK CS3 SLP158

CYUL;2010-05-18 20:00;CYUL 182000Z 15006KT 30SM BKN230 25/01 A2998 RMK CS3 SLP152

CYUL;2010-05-18 21:00;CYUL 182100Z 10004KT 30SM OVC220 25/M01 A2997 RMK CS6 SLP149

CYUL;2010-05-18 22:00;CYUL 182200Z 16007KT 30SM OVC220 24/03 A2996 RMK CS5 SLP147

CYUL;2010-05-18 23:00;CYUL 182300Z 14005KT 15SM OVC240 23/03 A2996 RMK CS6 SLP144

CYUL;2010-05-19 00:00;CYUL 190000Z 18009KT 15SM OVC210 22/02 A2995 RMK CS6 SLP141

CYUL;2010-05-19 01:00;CYUL 190100Z 17005KT 15SM BKN240 20/03 A2994 RMK CI5 SLP140

CYUL;2010-05-19 02:00;CYUL 190200Z 16005KT 15SM BKN240 18/06 A2995 RMK CI5 SLP142

CYUL;2010-05-19 03:00;CYUL 190300Z 16006KT 15SM BKN240 18/06 A2995 RMK CI4 SLP142

CYUL;2010-05-19 04:00;CYUL 190400Z 16008KT 15SM BKN240 17/07 A2995 RMK CI4 SLP142

CYUL;2010-05-19 05:00;CYUL 190500Z 26003KT 15SM OVC240 17/07 A2996 RMK CI6 SLP145

CYUL;2010-05-19 06:00;CYUL 190600Z 15003KT 15SM OVC200 15/08 A2997 RMK CS8 SLP148

CYUL;2010-05-19 07:00;CYUL 190700Z 18003KT 15SM OVC200 15/09 A2996 RMK CS6 SLP147

CYUL;2010-05-19 08:00;CYUL 190800Z 23002KT 15SM OVC180 15/08 A2996 RMK AS6 SLP145

CYUL;2010-05-19 09:00;CYUL 190900Z 23002KT 15SM BKN160 OVC220 14/08 A2995 RMK AS5CS2 SLP142

CYUL;2010-05-19 10:00;CYUL 191000Z 15004KT 15SM FEW120 BKN170 OVC210 14/09 A2996 RMK AC1AS5CS2 SLP145

CYUL;2010-05-19 11:00;CYUL 191100Z 11002KT 15SM FEW120 OVC160 15/09 A2997 RMK AC1AS6 SLP149

CYUL;2010-05-19 12:00;CYUL 191200Z 13003KT 15SM OVC160 15/09 A2998 RMK AS8 SLP151

CYUL;2010-05-19 13:00;CYUL 191300Z 15007KT 15SM OVC150 16/09 A2997 RMK AS8 SLP149

CYUL;2010-05-19 14:00;CYUL 191400Z 14003KT 30SM FEW060 OVC140 17/08 A2996 RMK CU1AC8 SLP145

CYUL;2010-05-19 15:00;CYUL 191500Z 00000KT 30SM OVC130 18/08 A2995 RMK AC8 SLP142

CYUL;2010-05-19 16:00;CYUL 191600Z 09009KT 30SM OVC140 20/06 A2993 RMK AC8 SLP135

CYUL;2010-05-19 17:00;CYUL 191700Z 09014KT 15SM FEW065 OVC130 20/07 A2992 RMK CU1AC7 SLP131

CYUL;2010-05-19 18:00;CYUL 191800Z 08014G19KT 15SM FEW055 OVC130 21/09 A2991 RMK CU2AS5 SLP128

CYUL;2010-05-19 19:00;CYUL 191900Z 09009G17KT 15SM FEW055 BKN140 20/10 A2990 RMK CU2AS3 SLP126

CYUL;2010-05-19 20:00;CYUL 192000Z 10008KT 15SM FEW055 BKN140 BKN240 20/10 A2989 RMK CU1AC3CI0 SLP121

CYUL;2010-05-19 21:00;CYUL 192100Z 11007KT 30SM FEW055 BKN130 BKN240 20/09 A2988 RMK CU2AC1CI0 SLP118

CYUL;2010-05-19 22:00;CYUL 192200Z 10005KT 30SM FEW060 BKN140 BKN240 19/09 A2987 RMK CU2AC2CI0 SLP115

CYUL;2010-05-19 23:00;CYUL 192300Z 23006KT 30SM FEW060 BKN140 BKN240 20/09 A2985 RMK CU1AC2CI0 SLP107

CYUL;2010-05-20 00:00;CYUL 200000Z 23004KT 30SM SCT140 BKN240 19/09 A2986 RMK AC2CI0 SLP111

CYUL;2010-05-20 01:00;CYUL 200100Z 22003KT 15SM FEW150 FEW240 18/09 A2985 RMK AC0CI0 SLP108

CYUL;2010-05-20 02:00;CYUL 200200Z 24002KT 15SM FEW240 15/09 A2986 RMK CI0 SLP111

CYUL;2010-05-20 03:00;CYUL 200300Z 23003KT 15SM FEW120 FEW240 15/09 A2984 RMK AC1CI0 SLP106

CYUL;2010-05-20 04:00;CYUL 200400Z 23003KT 15SM FEW120 14/10 A2984 RMK AC1 SLP106

CYUL;2010-05-20 05:00;CYUL 200500Z 22005KT 15SM FEW120 14/11 A2984 RMK AC1 SLP104

CYUL;2010-05-20 06:00;CYUL 200600Z 23005KT 15SM FEW120 14/10 A2983 RMK AC1 SLP102

CYUL;2010-05-20 07:00;CYUL 200700Z 24004KT 15SM SCT110 14/10 A2983 RMK AC2 SLP100

CYUL;2010-05-20 08:00;CYUL 200800Z 23005KT 15SM FEW110 13/10 A2982 RMK AC2 SLP097

CYUL;2010-05-20 09:00;CYUL 200900Z 24005KT 15SM BKN100 BKN150 13/10 A2982 RMK AC5AC1 SLP098

CYUL;2010-05-20 10:00;CYUL 201000Z 23008KT 30SM BKN100 13/10 A2983 RMK AC6 SLP102

CYUL;2010-05-20 11:00;CYUL 201100Z 24008KT 30SM BKN100 BKN150 14/10 A2985 RMK AC6AC1 SLP109

CYUL;2010-05-20 12:00;CYUL 201200Z 24011KT 30SM FEW100 SCT150 15/10 A2985 RMK AC2AC2 SLP107

CYUL;2010-05-20 13:00;CYUL 201300Z 24007KT 15SM SCT110 BKN160 16/10 A2985 RMK AC3AC2 SLP110

CYUL;2010-05-20 14:00;CYUL 201400Z 17008KT 15SM BKN140 18/11 A2985 RMK AC5 SLP110

CYUL;2010-05-20 15:00;CYUL 201500Z 22008KT 15SM BKN140 OVC160 19/11 A2987 RMK AC6AC2 SLP114

CYUL;2010-05-20 16:00;CYUL 201600Z 23010KT 15SM OVC130 19/12 A2987 RMK AC7 SLP116

CYUL;2010-05-20 17:00;CYUL 201700Z 27013G18KT 15SM FEW060 BKN150 24/12 A2985 RMK CU1AC2 SLP109

CYUL;2010-05-20 18:00;CYUL 201800Z 31018G24KT 15SM FEW065TCU BKN095 26/12 A2986 RMK TCU2AC1 SLP111

CYUL;2010-05-20 19:00;CYUL 201900Z 30019G26KT 15SM FEW065TCU SCT095 BKN240 25/12 A2986 RMK TCU1AC2CI0 SLP113

CYUL;2010-05-20 20:00;CYUL 202000Z 31013G19KT 15SM FEW065TCU BKN075 BKN240 24/12 A2988 RMK TCU1ACC5CI0 SLP118

CYUL;2010-05-20 21:00;CYUL 202100Z 32015KT 15SM FEW060TCU BKN100 BKN240 25/11 A2989 RMK TCU2ACC2CI0 SLP121

CYUL;2010-05-20 22:00;CYUL 202200Z 34013KT 15SM FEW065TCU SCT150 BKN220 24/10 A2990 RMK TCU1AC2CI0 SLP125

CYUL;2010-05-20 23:00;CYUL 202300Z 30011G17KT 15SM FEW065 FEW150 BKN240 24/09 A2991 RMK CU1AC2CI0 SLP130

CYUL;2010-05-21 00:00;CYUL 210000Z 29010KT 15SM FEW060 FEW150 SCT240 22/09 A2993 RMK CU1AC1CI0 SLP137

CYUL;2010-05-21 01:00;CYUL 210100Z 29008KT 15SM FEW150 FEW240 20/09 A2996 RMK AC0CI0 SLP147

CYUL;2010-05-21 02:00;CYUL 210200Z 31007KT 15SM FEW150 FEW240 19/09 A2999 RMK AC1CI0 SLP155

CYUL;2010-05-21 03:00;CYUL 210300Z 34005KT 15SM FEW150 FEW240 16/09 A3001 RMK AC1CI0 SLP162

CYUL;2010-05-21 04:00;CYUL 210400Z 03006KT 15SM FEW150 17/05 A3003 RMK AC1 SLP171

CYUL;2010-05-21 05:00;CYUL 210500Z 04008KT 15SM SKC 16/M00 A3006 RMK SLP181

CYUL;2010-05-21 06:00;CYUL 210600Z 04009KT 15SM FEW150 15/M02 A3009 RMK AC1 SLP191

CYUL;2010-05-21 07:00;CYUL 210700Z 05006KT 15SM SKC 14/M03 A3012 RMK SLP198

CYUL;2010-05-21 08:00;CYUL 210800Z 04008KT 15SM SKC 13/M03 A3015 RMK SLP209

CYUL;2010-05-21 09:00;CYUL 210900Z 03008KT 30SM FEW240 11/M02 A3017 RMK CI0 SLP216

CYUL;2010-05-21 10:00;CYUL 211000Z 03007KT 30SM FEW240 11/M01 A3019 RMK CI0 SLP225

CYUL;2010-05-21 11:00;CYUL 211100Z 06009KT 30SM FEW240 12/M02 A3021 RMK CI0 SLP231

CYUL;2010-05-21 12:00;CYUL 211200Z 05010KT 30SM FEW240 14/M01 A3023 RMK CI1 SLP237

CYUL;2010-05-21 13:00;CYUL 211300Z 04010KT 30SM FEW240 14/M01 A3023 RMK CI1 SLP238

CYUL;2010-05-21 14:00;CYUL 211400Z 08006KT 30SM FEW240 16/01 A3024 RMK CI1 SLP242

CYUL;2010-05-21 15:00;CYUL 211500Z 02003KT 30SM FEW240 16/00 A3024 RMK CI1 SLP241

CYUL;2010-05-21 16:00;CYUL 211600Z 05006KT 30SM SKC 18/01 A3023 RMK SLP238

CYUL;2010-05-21 17:00;CYUL 211700Z 25007KT 30SM FEW240 18/01 A3022 RMK CI1 SLP233

CYUL;2010-05-21 18:00;CYUL 211800Z 00000KT 30SM SKC 19/M00 A3020 RMK SLP228

CYUL;2010-05-21 19:00;CYUL 211900Z 17004KT 30SM FEW240 21/01 A3018 RMK CI1 SLP222

CYUL;2010-05-21 20:00;CYUL 212000Z 00000KT 30SM FEW240 22/01 A3016 RMK CI1 SLP215

CYUL;2010-05-21 21:00;CYUL 212100Z 01002KT 30SM FEW240 22/01 A3014 RMK CI1 SLP208

CYUL;2010-05-21 22:00;CYUL 212200Z 13007KT 30SM SCT240 22/M01 A3014 RMK CI1 SLP207

CYUL;2010-05-21 23:00;CYUL 212300Z 14005KT 30SM SCT240 21/01 A3015 RMK CI2 SLP209

CYUL;2010-05-22 00:00;CYUL 220000Z 14004KT 30SM BKN240 19/M01 A3015 RMK CI2 SLP212

CYUL;2010-05-22 01:00;CYUL 220100Z 11004KT 15SM SCT240 19/M01 A3016 RMK CI1 SLP215

CYUL;2010-05-22 02:00;CYUL 220200Z 10005KT 15SM BKN240 19/M01 A3016 RMK CI2 SLP215

CYUL;2010-05-22 03:00;CYUL 220300Z 09005KT 15SM BKN240 19/M01 A3016 RMK CI2 SLP213

CYUL;2010-05-22 04:00;CYUL 220400Z 05005KT 15SM FEW240 19/M02 A3015 RMK CI0 SLP210

CYUL;2010-05-22 05:00;CYUL 220500Z 00000KT 15SM FEW240 16/M01 A3015 RMK CI0 SLP211

CYUL;2010-05-22 06:00;CYUL 220600Z 34003KT 15SM FEW240 13/02 A3015 RMK CI1 SLP212

CYUL;2010-05-22 07:00;CYUL 220700Z 01003KT 15SM FEW150 13/04 A3015 RMK AC1 SLP212

CYUL;2010-05-22 08:00;CYUL 220800Z 02004KT 15SM FEW130 FEW240 12/05 A3015 RMK AC2CI0 SLP212

CYUL;2010-05-22 09:00;CYUL 220900Z 02004KT 15SM BKN150 BKN240 11/04 A3017 RMK AC5CI0 SLP217

CYUL;2010-05-22 10:00;CYUL 221000Z 04006KT 15SM BKN130 OVC240 12/04 A3017 RMK AC7CI0 SLP219

CYUL;2010-05-22 11:00;CYUL 221100Z 03007KT 30SM BKN150 BKN240 14/04 A3018 RMK AC6CI1 SLP222

CYUL;2010-05-22 12:00;CYUL 221200Z 04006KT 30SM BKN120 OVC240 15/04 A3019 RMK AC6CI2 SLP225

CYUL;2010-05-22 13:00;CYUL 221300Z 00000KT 30SM OVC100 16/05 A3022 RMK AC8 SLP233

CYUL;2010-05-22 14:00;CYUL 221400Z 10005KT 15SM -RA FEW035 FEW065 BKN100 OVC180 17/06 A3020 RMK SC1SC2AC5AC1 VRY LGT RA SLP228

CYUL;2010-05-22 14:33;CYUL 221433Z 14004KT 15SM FEW050 BKN095 OVC120 16/ RMK SC2AC5AC2

CYUL;2010-05-22 15:00;CYUL 221500Z 04006KT 30SM FEW060 BKN100 OVC140 17/07 A3020 RMK SC2AC4AC2 SLP228

CYUL;2010-05-22 16:00;CYUL 221600Z 09006KT 30SM FEW100 BKN150 BKN240 18/08 A3019 RMK AC2AC3CI1 SLP224

CYUL;2010-05-22 17:00;CYUL 221700Z 13006KT 30SM FEW130 BKN240 21/11 A3017 RMK AC1CI2 SLP219

CYUL;2010-05-22 18:00;CYUL 221800Z CCA 14008KT 30SM FEW150 FEW180 BKN240 25/13 A3015 RMK AC1AC1CI2 ACC NW SLP211

CYUL;2010-05-22 19:00;CYUL 221900Z 14012KT 30SM FEW180 BKN240 27/12 A3012 RMK AC1CI2 SLP201

CYUL;2010-05-22 20:00;CYUL 222000Z 14010G16KT 30SM SCT150 BKN190 BKN240 27/14 A3010 RMK AC2AC2CI1 SLP195

CYUL;2010-05-22 20:46;CYUL 222046Z 25014G20KT 15SM -SHRA FEW065 BKN095 BKN180 OVC240 25/ RMK SC2AC3AC2CI1

CYUL;2010-05-22 21:00;CYUL 222100Z 32004KT 15SM -SHRA SCT057 BKN090 OVC240 23/14 A3010 RMK SC2AC4CI1 SLP193

CYUL;2010-05-22 21:21;CYUL 222121Z 08003KT 15SM FEW065 SCT095 BKN150 BKN240 25/ RMK SC2AC2AC2CI2

CYUL;2010-05-22 22:00;CYUL 222200Z 10005KT 15SM FEW065 SCT100 BKN150 OVC240 25/13 A3010 RMK SC1AC2AC3CI2 SLP193

CYUL;2010-05-22 23:00;CYUL 222300Z 09007KT 15SM FEW036 SCT090 BKN160 OVC240 25/14 A3009 RMK SC1AC2AC2CI2 SLP189

CYUL;2010-05-23 00:00;CYUL 230000Z 05005KT 15SM FEW090 SCT140 BKN170 BKN240 26/13 A3009 RMK AC2AC2AC2CI1 SLP190

CYUL;2010-05-23 01:00;CYUL 230100Z 16007KT 15SM FEW100 SCT180 SCT240 23/12 A3010 RMK AC1AC1CI1 SLP192

CYUL;2010-05-23 02:00;CYUL 230200Z 18008KT 15SM FEW180 BKN240 22/11 A3012 RMK AC1CI1 SLP199

CYUL;2010-05-23 03:00;CYUL 230300Z 18007KT 15SM BKN240 22/10 A3013 RMK CI1 SLP205

CYUL;2010-05-23 04:00;CYUL 230400Z 22006KT 15SM SCT240 21/10 A3015 RMK CI1 SLP211

CYUL;2010-05-23 05:00;CYUL 230500Z 18009KT 15SM SCT240 20/10 A3015 RMK CI0 SLP209

CYUL;2010-05-23 06:00;CYUL 230600Z 16005KT 15SM SCT240 17/10 A3014 RMK CI0 SLP207

CYUL;2010-05-23 07:00;CYUL 230700Z 16004KT 15SM BKN240 15/10 A3015 RMK CI1 CC ASOCT SLP209

CYUL;2010-05-23 08:00;CYUL 230800Z 17005KT 15SM BKN240 16/10 A3016 RMK CI5 SLP214

CYUL;2010-05-23 09:00;CYUL 230900Z 14003KT 30SM BKN240 15/10 A3018 RMK CI1 SLP221

CYUL;2010-05-23 10:00;CYUL 231000Z 00000KT 30SM FEW240 17/10 A3020 RMK CI0 SLP227

CYUL;2010-05-23 11:00;CYUL 231100Z 15003KT 30SM BKN060 18/11 A3022 RMK SC7 SLP235

CYUL;2010-05-23 12:00;CYUL 231200Z 18004KT 30SM BKN070 20/11 A3023 RMK ACC5 SLP235

CYUL;2010-05-23 13:00;CYUL 231300Z 16004KT 30SM SCT055 BKN095 21/12 A3023 RMK SC3AC2 TCU EMBD SLP238

CYUL;2010-05-23 14:00;CYUL 231400Z 16004KT 30SM FEW044 SCT062 BKN095 BKN240 23/12 A3023 RMK SC2SC2AC1CI1 SLP237

CYUL;2010-05-23 15:00;CYUL 231500Z 24005KT 30SM FEW055 FEW150 SCT240 24/14 A3022 RMK SC1AC1CI1 SLP232

CYUL;2010-05-23 16:00;CYUL 231600Z 23007KT 30SM FEW045 FEW240 25/14 A3021 RMK CF1CI0 SLP230

CYUL;2010-05-23 17:00;CYUL 231700Z 21006KT 30SM FEW052 FEW240 25/14 A3018 RMK CF1CI1 SLP221

CYUL;2010-05-23 18:00;CYUL 231800Z 21004KT 30SM FEW065 FEW240 26/14 A3018 RMK CF1CI1 SLP221

CYUL;2010-05-23 19:00;CYUL 231900Z 20004KT 30SM FEW065 FEW240 27/14 A3016 RMK CF1CI1 SLP213

CYUL;2010-05-23 20:00;CYUL 232000Z 20004KT 30SM FEW065 FEW240 27/13 A3014 RMK SC1CI1 SLP205

CYUL;2010-05-23 21:00;CYUL 232100Z 23007KT 30SM FEW060 FEW240 27/14 A3013 RMK CU1CI1 SLP203

CYUL;2010-05-23 22:00;CYUL 232200Z 23006KT 30SM FEW060 FEW240 27/14 A3012 RMK CU1CI1 SLP201

CYUL;2010-05-23 23:00;CYUL 232300Z 21005KT 30SM FEW062 SCT240 27/14 A3013 RMK CU1CI1 SLP203

CYUL;2010-05-24 00:00;CYUL 240000Z 21006KT 30SM FEW060 SCT240 26/14 A3014 RMK SC1CI1 SLP207

CYUL;2010-05-24 01:00;CYUL 240100Z 25004KT 15SM FEW065 FEW240 25/14 A3015 RMK SC1CI1 SLP211

CYUL;2010-05-24 02:00;CYUL 240200Z 25002KT 15SM FEW085 22/14 A3017 RMK AC1 SLP217

CYUL;2010-05-24 03:00;CYUL 240300Z 22004KT 15SM SCT090 22/15 A3017 RMK AC1 SLP217

CYUL;2010-05-24 04:00;CYUL 240400Z 21003KT 15SM SCT090 20/15 A3018 RMK AC1 SLP220

CYUL;2010-05-24 05:00;CYUL 240500Z 22004KT 15SM SKC 20/15 A3018 RMK SLP219

CYUL;2010-05-24 06:00;CYUL 240600Z 22004KT 15SM SKC 20/15 A3018 RMK SLP220

CYUL;2010-05-24 07:00;CYUL 240700Z 23004KT 15SM SCT060 20/16 A3018 RMK SC3 SLP220

CYUL;2010-05-24 08:00;CYUL 240800Z 24003KT 15SM FEW060 19/15 A3019 RMK SC2 SLP223

CYUL;2010-05-24 09:00;CYUL 240900Z 24002KT 15SM BKN050 BKN065 19/16 A3020 RMK SC5SC2 SLP227

CYUL;2010-05-24 10:00;CYUL 241000Z 23003KT 30SM BKN050 OVC070 20/16 A3023 RMK SC6AC2 SLP235

CYUL;2010-05-24 11:00;CYUL 241100Z 23004KT 30SM FEW050 BKN070 20/16 A3025 RMK SC2AC2 SLP242

CYUL;2010-05-24 12:00;CYUL 241200Z 23005KT 30SM FEW055 SCT150 BKN240 20/16 A3025 RMK CU1AC2CI0 SLP245

CYUL;2010-05-24 13:00;CYUL 241300Z 22005KT 15SM FEW070 BKN210 22/16 A3026 RMK AC1CI0 SLP246

CYUL;2010-05-24 14:00;CYUL 241400Z 19009KT 15SM FEW070 BKN240 23/17 A3026 RMK AC1CI0 SLP246

CYUL;2010-05-24 15:00;CYUL 241500Z 20009KT 15SM FEW045 FEW070 SCT240 24/16 A3026 RMK CU2AC1CI0 SLP246

CYUL;2010-05-24 16:00;CYUL 241600Z 22009KT 15SM FEW045 SCT240 26/17 A3024 RMK CU2CI0 SLP241

CYUL;2010-05-24 17:00;CYUL 241700Z 22012KT 15SM FEW045 SCT240 27/17 A3023 RMK CU2CI0 SLP236

CYUL;2010-05-24 18:00;CYUL 241800Z 22010KT 15SM FEW045 SCT240 27/17 A3021 RMK CU2CI0 SLP230

CYUL;2010-05-24 19:00;CYUL 241900Z 22011G16KT 15SM SCT050 28/16 A3020 RMK CU3 SLP226

CYUL;2010-05-24 20:00;CYUL 242000Z 22011KT 15SM SCT050 29/15 A3019 RMK CU3 SLP223

CYUL;2010-05-24 21:00;CYUL 242100Z 22010KT 15SM FEW055 28/16 A3019 RMK CU2 SLP223

CYUL;2010-05-24 22:00;CYUL 242200Z 23011KT 15SM FEW055 FEW240 29/16 A3018 RMK CU2CI0 SLP220

CYUL;2010-05-24 23:00;CYUL 242300Z 27011KT 15SM FEW060 FEW240 28/16 A3017 RMK SC1CI0 SLP218

CYUL;2010-05-25 00:00;CYUL 250000Z 22006KT 15SM FEW240 27/16 A3018 RMK CI0 SLP219

CYUL;2010-05-25 01:00;CYUL 250100Z 24004KT 15SM FEW240 26/16 A3018 RMK CI0 SLP220

CYUL;2010-05-25 02:00;CYUL 250200Z 25005KT 15SM FEW240 25/16 A3017 RMK CI1 SLP218

CYUL;2010-05-25 03:00;CYUL 250300Z 19003KT 15SM SKC 22/16 A3016 RMK SLP212

CYUL;2010-05-25 04:00;CYUL 250400Z 23005KT 15SM SKC 23/16 A3016 RMK SLP212

CYUL;2010-05-25 05:00;CYUL 250500Z 23005KT 15SM SKC 22/16 A3016 RMK SLP212

CYUL;2010-05-25 06:00;CYUL 250600Z 22005KT 15SM SKC 21/15 A3016 RMK SLP214

CYUL;2010-05-25 07:00;CYUL 250700Z 25004KT 15SM SKC 20/16 A3019 RMK SLP223

CYUL;2010-05-25 08:00;CYUL 250800Z 22009KT 15SM SKC 20/15 A3018 RMK SLP221

CYUL;2010-05-25 09:00;CYUL 250900Z 23003KT 15SM FEW120 20/15 A3018 RMK AC1 SLP221

CYUL;2010-05-25 10:00;CYUL 251000Z 22008KT 30SM OVC240 20/14 A3017 RMK CI2 SLP217

CYUL;2010-05-25 11:00;CYUL 251100Z 25005KT 30SM BKN230 20/15 A3020 RMK CI2 SLP225

CYUL;2010-05-25 12:00;CYUL 251200Z 23010KT 30SM BKN210 22/15 A3019 RMK CI2 SLP224

CYUL;2010-05-25 13:00;CYUL 251300Z 24006KT 30SM BKN210 23/16 A3020 RMK CI1 SLP226

CYUL;2010-05-25 14:00;CYUL 251400Z 23010KT 30SM BKN240 25/16 A3018 RMK CI1 SLP220

CYUL;2010-05-25 15:00;CYUL 251500Z 22010KT 30SM BKN240 26/17 A3016 RMK CI1 SLP212

CYUL;2010-05-25 16:00;CYUL 251600Z 23011KT 15SM FEW035 SCT240 27/17 A3014 RMK CU1CI1 SLP206

CYUL;2010-05-25 17:00;CYUL 251700Z 22011KT 15SM FEW040 SCT240 29/18 A3012 RMK CU1CI0 SLP199

CYUL;2010-05-25 18:00;CYUL 251800Z 25008KT 15SM FEW040 FEW240 30/18 A3010 RMK CU1CI0 SLP193

CYUL;2010-05-25 19:00;CYUL 251900Z 27012KT 15SM FEW040 FEW240 31/18 A3007 RMK CU1CI0 SLP182

CYUL;2010-05-25 20:00;CYUL 252000Z 23010G15KT 15SM FEW045 31/18 A3005 RMK CU1 SLP175

CYUL;2010-05-25 21:00;CYUL 252100Z 22012KT 15SM FEW045 31/18 A3002 RMK CU1 SLP165

CYUL;2010-05-25 22:00;CYUL 252200Z 23011KT 15SM SKC 31/18 A3000 RMK SLP160

CYUL;2010-05-25 23:00;CYUL 252300Z 23010KT 15SM SKC 31/18 A2999 RMK SLP156

CYUL;2010-05-26 00:00;CYUL 260000Z 24011KT 15SM FEW240 29/18 A2998 RMK CI1 SLP152

CYUL;2010-05-26 01:00;CYUL 260100Z 23007KT 15SM FEW120 FEW240 28/18 A2998 RMK AC1CI0 SLP153

CYUL;2010-05-26 02:00;CYUL 260200Z 22007KT 15SM FEW240 27/17 A2997 RMK CI1 SLP150

CYUL;2010-05-26 03:00;CYUL 260300Z 24008KT 15SM FEW240 26/18 A2996 RMK CI0 SLP146

CYUL;2010-05-26 04:00;CYUL 260400Z 25012G17KT 15SM FEW240 25/17 A2995 RMK CI0 SLP141

CYUL;2010-05-26 05:00;CYUL 260500Z 25010KT 15SM FEW240 24/07 A2994 RMK CI0 SLP140

CYUL;2010-05-26 06:00;CYUL 260600Z 25008KT 15SM FEW240 23/16 A2993 RMK CI0 SLP136

CYUL;2010-05-26 07:00;CYUL 260700Z 25010KT 15SM SKC 22/16 A2992 RMK SLP131

CYUL;2010-05-26 08:00;CYUL 260800Z 25008KT 15SM SKC 21/16 A2991 RMK SLP130

CYUL;2010-05-26 09:00;CYUL 260900Z 25007KT 15SM FEW150 21/16 A2991 RMK AC1 SLP130

CYUL;2010-05-26 10:00;CYUL 261000Z 23005KT 15SM SKC 21/16 A2991 RMK SLP128

CYUL;2010-05-26 11:00;CYUL 261100Z 26006KT 15SM SKC 22/17 A2991 RMK SLP129

CYUL;2010-05-26 12:00;CYUL 261200Z 27004KT 15SM SKC 23/17 A2991 RMK SLP130

CYUL;2010-05-26 13:00;CYUL 261300Z 22007KT 15SM SKC 24/18 A2991 RMK SLP127

CYUL;2010-05-26 14:00;CYUL 261400Z 22007KT 15SM SKC 26/18 A2989 RMK SLP122

CYUL;2010-05-26 15:00;CYUL 261500Z 20008KT 15SM FEW040 28/19 A2987 RMK CU1 SLP116

CYUL;2010-05-26 16:00;CYUL 261600Z 26006KT 15SM FEW040 30/20 A2985 RMK CU1 SLP109

CYUL;2010-05-26 17:00;CYUL 261700Z 27005KT 15SM FEW050 31/20 A2983 RMK CU1 SLP102

CYUL;2010-05-26 18:00;CYUL 261800Z 27006KT 15SM FEW050 32/20 A2981 RMK CU1 SLP095

CYUL;2010-05-26 19:00;CYUL 261900Z 23008KT 15SM FEW055 33/19 A2978 RMK CU1 SLP085

CYUL;2010-05-26 20:00;CYUL 262000Z 23008KT 15SM FEW060 33/18 A2975 RMK CU2 SLP074

CYUL;2010-05-26 21:00;CYUL 262100Z 28007KT 15SM FEW065 34/17 A2973 RMK CU2 SLP067

CYUL;2010-05-26 22:00;CYUL 262200Z 29005KT 15SM FEW070 SCT240 32/17 A2972 RMK CU2CI1 SLP064

CYUL;2010-05-26 23:00;CYUL 262300Z 31014KT 15SM SCT080 BKN210 33/17 A2970 RMK AC4CI0 CB EMBD SLP058

CYUL;2010-05-26 23:10;CYUL 262310Z 31010G15KT 15SM TS VCSH SCT080 BKN210 33/ RMK AC4CI0 CB EMBD

CYUL;2010-05-26 23:19;CYUL 262319Z 05017G26KT 10SM -TSRA FEW040CB SCT080 BKN210 33/ RMK CB2AC2CI0

CYUL;2010-05-26 23:38;CYUL 262338Z 07011G16KT 15SM TS VCSH FEW040CB BKN080 BKN210 29/ RMK CB1AC4CI1 CB SE

CYUL;2010-05-27 00:00;CYUL 270000Z 15005KT 15SM FEW040CB SCT080 BKN210 26/17 A2974 RETS RMK CB1AC3CI1 DIST LTNG SE SLP070

CYUL;2010-05-27 01:00;CYUL 270100Z 05010KT 15SM FEW040CB FEW090 SCT210 30/14 A2977 RMK CB1AC2CI1 DIST LTNG S SLP080

CYUL;2010-05-27 02:00;CYUL 270200Z 06010G17KT 15SM FEW040 BKN210 28/10 A2980 RMK CU1CI2 DIST LTNG S SLP091

CYUL;2010-05-27 03:00;CYUL 270300Z 05011G20KT 15SM BKN110 BKN240 26/11 A2982 RMK AS5CI0 SLP097

CYUL;2010-05-27 04:00;CYUL 270400Z 04013KT 15SM SCT100 BKN240 23/12 A2984 RMK AS2CI0 SLP105

CYUL;2010-05-27 05:00;CYUL 270500Z 01007KT 15SM SCT120 BKN240 20/11 A2987 RMK AS3CI0 SLP116

CYUL;2010-05-27 06:00;CYUL 270600Z 03008KT 15SM SCT240 19/10 A2987 RMK CI1 SLP115

CYUL;2010-05-27 07:00;CYUL 270700Z 03009KT 15SM OVC090 18/09 A2986 RMK AC6 SLP112

CYUL;2010-05-27 08:00;CYUL 270800Z 03008KT 15SM SCT080 BKN240 17/09 A2986 RMK AS3CI0 SLP112

CYUL;2010-05-27 09:00;CYUL 270900Z 03010KT 15SM FEW080 BKN240 16/09 A2987 RMK AC1CI0 SLP114

CYUL;2010-05-27 10:00;CYUL 271000Z 04011KT 30SM FEW090 BKN240 16/09 A2988 RMK AC1CI0 SLP118

CYUL;2010-05-27 11:00;CYUL 271100Z 04012KT 30SM FEW120 BKN240 16/09 A2990 RMK AC1CI0 SLP124

CYUL;2010-05-27 12:00;CYUL 271200Z 05011KT 30SM FEW150 BKN240 19/10 A2991 RMK AC1CI0 SLP128

CYUL;2010-05-27 13:00;CYUL 271300Z 06013KT 30SM SCT150 BKN210 20/08 A2993 RMK AC1CI0 SLP134

CYUL;2010-05-27 14:00;CYUL 271400Z 05015KT 30SM FEW130 SCT210 20/08 A2993 RMK AC2CI0 SLP137

CYUL;2010-05-27 15:00;CYUL 271500Z 04012KT 30SM FEW130 BKN210 22/09 A2993 RMK AC1CI2 SLP136

CYUL;2010-05-27 16:00;CYUL 271600Z 05009KT 30SM FEW160 BKN220 23/09 A2992 RMK AC2CI2 SLP133

CYUL;2010-05-27 17:00;CYUL 271700Z 02008KT 30SM FEW180 OVC220 24/09 A2991 RMK AC1CI2 SLP130

CYUL;2010-05-27 18:00;CYUL 271800Z 03007KT 30SM BKN220 24/08 A2991 RMK CI2 SLP127

CYUL;2010-05-27 19:00;CYUL 271900Z 08008KT 30SM BKN220 24/06 A2988 RMK CI2 SLP120

CYUL;2010-05-27 20:00;CYUL 272000Z 06010KT 30SM BKN220 26/01 A2986 RMK CI2 SLP112

CYUL;2010-05-27 21:00;CYUL 272100Z 08006KT 30SM FEW070 BKN240 26/03 A2985 RMK CF1CI2 SLP110

CYUL;2010-05-27 22:00;CYUL 272200Z 13007KT 30SM OVC240 26/06 A2985 RMK CI2 SLP107

CYUL;2010-05-27 23:00;CYUL 272300Z 14009KT 30SM BKN240 24/07 A2985 RMK CI2 SLP108

CYUL;2010-05-28 00:00;CYUL 280000Z 14007KT 30SM BKN240 23/07 A2986 RMK CI3 CC ASOCT SLP111

CYUL;2010-05-28 01:00;CYUL 280100Z 13005KT 15SM FEW200 BKN240 21/07 A2989 RMK CC2CI1 SLP121

CYUL;2010-05-28 02:00;CYUL 280200Z 13005KT 15SM SCT240 20/07 A2991 RMK CI1 SLP127

CYUL;2010-05-28 03:00;CYUL 280300Z 12003KT 15SM SCT240 19/06 A2991 RMK CI1 SLP129

CYUL;2010-05-28 04:00;CYUL 280400Z 00000KT 15SM SCT130 BKN240 19/06 A2992 RMK AC1CI2 SLP132

CYUL;2010-05-28 05:00;CYUL 280500Z 04007KT 15SM FEW130 BKN240 19/09 A2993 RMK AC1CI2 SLP136

CYUL;2010-05-28 06:00;CYUL 280600Z 04007KT 15SM FEW130 BKN240 18/09 A2994 RMK AC0CI2 SLP138

CYUL;2010-05-28 07:00;CYUL 280700Z 03008KT 15SM BKN240 15/09 A2994 RMK CI2 SLP140

CYUL;2010-05-28 08:00;CYUL 280800Z 03008KT 15SM BKN240 14/09 A2996 RMK CI2 SLP144

CYUL;2010-05-28 09:00;CYUL 280900Z 03006KT 15SM BKN240 14/08 A2996 RMK CI2 SLP147

CYUL;2010-05-28 10:00;CYUL 281000Z 03006KT 15SM BKN240 13/08 A2998 RMK CI2 SLP153

CYUL;2010-05-28 11:00;CYUL 281100Z 07004KT 15SM BKN240 14/08 A3000 RMK CI4 SLP160

CYUL;2010-05-28 12:00;CYUL 281200Z 13006KT 15SM FEW180 BKN220 15/09 A3000 RMK AC1CI4 SLP160

CYUL;2010-05-28 13:00;CYUL 281300Z 05003KT 30SM FEW160 BKN240 19/07 A3001 RMK AC2CI3 SLP161

CYUL;2010-05-28 14:00;CYUL 281400Z 08002KT 30SM SCT180 BKN240 21/07 A3001 RMK AC3CI1 SLP162

CYUL;2010-05-28 15:00;CYUL 281500Z 09007KT 30SM FEW180 FEW240 22/05 A3000 RMK AC2CI1 SLP159

CYUL;2010-05-28 16:00;CYUL 281600Z 10002KT 30SM FEW180 FEW240 23/07 A2999 RMK AC1CI1 SLP154

CYUL;2010-05-28 17:00;CYUL 281700Z 20005KT 30SM FEW180 FEW240 24/07 A2998 RMK AC1CI1 SLP152

CYUL;2010-05-28 18:00;CYUL 281800Z 17007KT 30SM FEW200 FEW240 25/07 A2996 RMK CC1CI1 SLP146

CYUL;2010-05-28 19:00;CYUL 281900Z 20005KT 30SM FEW200 FEW240 25/06 A2994 RMK CC1CI1 SLP139

CYUL;2010-05-28 20:00;CYUL 282000Z 22007KT 30SM FEW240 26/07 A2993 RMK CI1 SLP136

CYUL;2010-05-28 21:00;CYUL 282100Z 22004KT 30SM FEW180 BKN250 25/06 A2992 RMK AC1CI2 SLP131

CYUL;2010-05-28 22:00;CYUL 282200Z 22005KT 30SM FEW180 BKN240 25/06 A2991 RMK AC1CI5 SLP129

CYUL;2010-05-28 23:00;CYUL 282300Z 20004KT 30SM FEW180 OVC240 24/05 A2991 RMK AC1CI6 SLP128

CYUL;2010-05-29 00:00;CYUL 290000Z 17003KT 30SM FEW180 OVC220 23/07 A2991 RMK AC2CI4 SLP129

CYUL;2010-05-29 01:00;CYUL 290100Z 17003KT 15SM FEW150 SCT180 OVC220 22/06 A2992 RMK AC2AC1CI4 SLP131

CYUL;2010-05-29 02:00;CYUL 290200Z 14006KT 15SM FEW130 SCT170 BKN210 21/07 A2992 RMK AC1AC2CI2 SLP132

CYUL;2010-05-29 03:00;CYUL 290300Z 13005KT 15SM BKN120 BKN180 BKN220 21/07 A2991 RMK AC5AC1CI1 SLP130

CYUL;2010-05-29 04:00;CYUL 290400Z 14004KT 15SM BKN130 BKN180 BKN220 20/07 A2991 RMK AC3AC2CI1 SLP127

CYUL;2010-05-29 05:00;CYUL 290500Z 16004KT 15SM SCT130 BKN180 BKN220 18/08 A2989 RMK AC3AC2CI0 SLP123

CYUL;2010-05-29 06:00;CYUL 290600Z 24002KT 15SM BKN150 BKN210 19/08 A2988 RMK AC4CI2 SLP119

CYUL;2010-05-29 07:00;CYUL 290700Z 22002KT 15SM BKN130 BKN210 18/09 A2987 RMK AC5CI1 SLP115

CYUL;2010-05-29 08:00;CYUL 290800Z 00000KT 15SM FEW092 SCT130 BKN190 18/10 A2987 RMK AC1AC2AC2 SLP114

CYUL;2010-05-29 09:00;CYUL 290900Z 00000KT 15SM FEW064 BKN090 BKN140 18/12 A2986 RMK SC1AC4AC2 SLP111

CYUL;2010-05-29 10:00;CYUL 291000Z 24003KT 15SM FEW062 BKN090 BKN120 18/12 A2986 RMK SC1AC4AC2 SLP113

CYUL;2010-05-29 11:00;CYUL 291100Z 00000KT 15SM -SHRA FEW060 BKN080 BKN120 BKN240 18/12 A2987 RMK SC1AC4AC2CI1 VRY LGT RA SLP114

CYUL;2010-05-29 12:00;CYUL 291200Z 00000KT 15SM SCT075 BKN096 BKN140 BKN240 20/13 A2986 RMK AC3AC2AC2CI1 SLP112

CYUL;2010-05-29 13:00;CYUL 291300Z 22006KT 15SM BKN075 BKN120 19/13 A2986 RMK AC3AC2 SLP112

CYUL;2010-05-29 14:00;CYUL 291400Z 23006KT 15SM BKN075 21/14 A2984 RMK ACC7 SLP106

CYUL;2010-05-29 15:00;CYUL 291500Z 23007KT 15SM FEW035 BKN070 23/14 A2983 RMK CU1ACC6 SLP102

CYUL;2010-05-29 16:00;CYUL 291600Z 27008KT 15SM VCSH FEW045 BKN055 23/13 A2983 RMK CU1SC7 TCU EMBD SLP101

CYUL;2010-05-29 17:00;CYUL 291700Z 22010KT 15SM FEW040 SCT055 BKN120 24/14 A2982 RMK CU1SC2AC2 SLP097

CYUL;2010-05-29 18:00;CYUL 291800Z 24009KT 15SM FEW045 FEW070 FEW130 BKN210 25/14 A2980 RMK CU2ACC1AC1CI0 SLP090

CYUL;2010-05-29 19:00;CYUL 291900Z 26012G18KT 15SM FEW045 BKN085 BKN220 25/16 A2978 RMK CU2AC2CI0 SLP085

CYUL;2010-05-29 20:00;CYUL 292000Z 27014KT 15SM FEW045TCU SCT085 OVC220 26/15 A2976 RMK TCU2AC1CI0 SLP079

CYUL;2010-05-29 21:00;CYUL 292100Z 31012KT 15SM FEW050TCU FEW150 BKN220 26/12 A2975 RMK TCU1AC1CI2 SLP076

CYUL;2010-05-29 22:00;CYUL 292200Z 30011G16KT 15SM FEW060 OVC240 25/10 A2977 RMK CU1CI2 SLP081

CYUL;2010-05-29 23:00;CYUL 292300Z 29011G16KT 15SM FEW070 OVC240 25/09 A2979 RMK AC1CI2 SLP088

CYUL;2010-05-30 00:00;CYUL 300000Z 31008KT 30SM FEW070 FEW200 OVC240 23/09 A2981 RMK AC1CI1CI2 SLP094

CYUL;2010-05-30 01:00;CYUL 300100Z 35007KT 15SM FEW070 FEW200 OVC240 22/06 A2981 RMK AC1CC1CI2 SLP096

CYUL;2010-05-30 02:00;CYUL 300200Z 34003KT 15SM FEW170 BKN240 19/07 A2982 RMK AC1CI2 SLP099

CYUL;2010-05-30 03:00;CYUL 300300Z 29003KT 15SM BKN190 BKN240 18/08 A2981 RMK AC2CI1 SLP096

CYUL;2010-05-30 04:00;CYUL 300400Z 28003KT 15SM SCT150 BKN180 BKN240 18/08 A2982 RMK AC1AC2CI1 SLP098

CYUL;2010-05-30 05:00;CYUL 300500Z 30005KT 15SM SCT180 BKN220 16/09 A2983 RMK AC2CI2 SLP100

CYUL;2010-05-30 06:00;CYUL 300600Z 34004KT 15SM SCT110 BKN210 17/08 A2981 RMK AC3CI2 SLP096

CYUL;2010-05-30 07:00;CYUL 300700Z 34004KT 15SM BKN110 OVC180 17/07 A2982 RMK AC5AC1 SLP098

CYUL;2010-05-30 08:00;CYUL 300800Z 32002KT 15SM BKN095 OVC150 17/05 A2982 RMK AC6AC2 SLP098

CYUL;2010-05-30 09:00;CYUL 300900Z CCA 32004KT 15SM BKN089 OVC120 17/04 A2983 RMK AC6AC2 SLP103

CYUL;2010-05-30 10:00;CYUL 301000Z 32004KT 15SM BKN069 BKN110 16/08 A2987 RMK AC6AC1 SLP114

CYUL;2010-05-30 11:00;CYUL 301100Z 36002KT 15SM -SHRA BKN066 OVC100 15/10 A2988 RMK AC6AC2 SLP117

CYUL;2010-05-30 11:48;CYUL 301148Z 31003KT 15SM BKN067 OVC110 16/ RMK AC6AC2

CYUL;2010-05-30 12:00;CYUL 301200Z 32004KT 15SM BKN067 OVC110 16/10 A2989 RMK AC6AC2 SLP122

CYUL;2010-05-30 13:00;CYUL 301300Z 33005KT 15SM BKN067 17/08 A2989 RMK AC7 SLP122

CYUL;2010-05-30 14:00;CYUL 301400Z 29011KT 30SM FEW035 FEW065 BKN080 18/08 A2988 RMK CU1SC2AC6 SLP120

CYUL;2010-05-30 15:00;CYUL 301500Z 27011G16KT 30SM FEW035 SCT090 BKN130 19/08 A2988 RMK CU1AC4AC3 SLP117

CYUL;2010-05-30 16:00;CYUL 301600Z 27012KT 30SM FEW040 FEW110 BKN160 19/08 A2986 RMK CU1AC2AC4 SLP113

CYUL;2010-05-30 17:00;CYUL 301700Z 27013G21KT 30SM FEW045 FEW160 BKN190 20/09 A2985 RMK CU1AC2AC4 SLP108

CYUL;2010-05-30 18:00;CYUL 301800Z 28015G25KT 30SM FEW055 BKN180 22/09 A2984 RMK CU2AC5 SLP106

CYUL;2010-05-30 19:00;CYUL 301900Z 27014G19KT 30SM FEW055 FEW110 BKN150 21/10 A2984 RMK CU2AC1AC5 SLP104

CYUL;2010-05-30 20:00;CYUL 302000Z 27016KT 30SM FEW055 BKN140 21/09 A2983 RMK CU1AC6 SLP103

CYUL;2010-05-30 21:00;CYUL 302100Z 28016KT 30SM FEW045 BKN130 OVC170 20/09 A2985 RMK CU1AC7AC1 SLP109

CYUL;2010-05-30 22:00;CYUL 302200Z 29012G18KT 30SM FEW045 BKN130 BKN150 19/07 A2986 RMK CU1AC6AC1 SLP113

CYUL;2010-05-30 23:00;CYUL 302300Z 31012KT 30SM FEW050 BKN140 OVC220 19/05 A2988 RMK CU1AC7CI0 SLP119

CYUL;2010-05-31 00:00;CYUL 310000Z 30011KT 30SM FEW050 BKN130 OVC220 18/05 A2990 RMK SC1AC7CI0 SLP124

CYUL;2010-05-31 01:00;CYUL 310100Z 31012KT 30SM OVC120 18/04 A2991 RMK AC8 SLP129

CYUL;2010-05-31 02:00;CYUL 310200Z 31008KT 15SM OVC130 17/04 A2993 RMK AC8 SLP137

CYUL;2010-05-31 03:00;CYUL 310300Z 31008KT 15SM BKN130 17/04 A2994 RMK AC7 SLP139

CYUL;2010-05-31 04:00;CYUL 310400Z 31008KT 15SM BKN140 16/04 A2996 RMK AC6 SLP145

CYUL;2010-05-31 05:00;CYUL 310500Z 34005KT 15SM FEW160 14/05 A2997 RMK AC1 SLP150

CYUL;2010-05-31 05:34;CYUL 310534Z 04010KT 15SM FEW014 FEW032 BKN130 15/ RMK SF1SC1AC2 HZ APPR

CYUL;2010-05-31 06:00;CYUL 310600Z 04010KT 15SM FEW018 FEW032 BKN130 15/00 A2999 RMK SF1SC1AC2 HZ APPR SLP156

CYUL;2010-05-31 07:00;CYUL 310700Z 04009KT 15SM FEW032 BKN130 15/00 A3001 RMK SC1AC5 HZ APPR SLP164

CYUL;2010-05-31 08:00;CYUL 310800Z 04009KT 15SM FEW021 SCT045 BKN130 14/00 A3003 RMK SF1SC1AC2 HZ APPR SLP169

CYUL;2010-05-31 09:00;CYUL 310900Z 04005KT 15SM FEW019 FEW045 SCT120 13/00 A3004 RMK SF1SC1AC1 HZ APPR SLP173

CYUL;2010-05-31 10:00;CYUL 311000Z 07007KT 15SM FEW130 13/01 A3007 RMK AC1 SLP182

CYUL;2010-05-31 11:00;CYUL 311100Z 06008KT 15SM FEW240 13/01 A3007 RMK CI1 SLP185

CYUL;2010-05-31 12:00;CYUL 311200Z 09009KT 30SM SCT240 14/02 A3008 RMK CI1 SLP188

CYUL;2010-05-31 13:00;CYUL 311300Z 11008KT 30SM FEW160 SCT240 15/02 A3008 RMK AC1CI1 SLP188

CYUL;2010-05-31 14:00;CYUL 311400Z 10004KT 30SM FEW150 SCT240 16/02 A3008 RMK AC1CI1 SLP187

CYUL;2010-05-31 15:00;CYUL 311500Z 11008KT 15SM BKN080 BKN210 16/01 A3007 RMK AC6CI1 SLP182

CYUL;2010-05-31 16:00;CYUL 311600Z 13002KT 15SM SCT080 BKN210 18/03 A3004 RMK AC3CI0 SLP174

CYUL;2010-05-31 17:00;CYUL 311700Z 11006G18KT 15SM FEW080 FEW120 SCT240 19/03 A3000 RMK AC1AC2CI0 SLP159

CYUL;2010-05-31 18:00;CYUL 311800Z 11006G15KT 12SM FEW070 FEW110 SCT240 21/02 A2996 RMK AC1AC1CI1 SLP145

CYUL;2010-05-31 19:00;CYUL 311900Z 11009KT 15SM FEW080 FEW120 SCT210 23/03 A2992 RMK AC1AC1CI1 SLP133

CYUL;2010-05-31 20:00;CYUL 312000Z 18007KT 12SM FEW070 FEW120 SCT240 24/03 A2990 RMK AC1AC1CI1 SLP124

CYUL;2010-05-31 21:00;CYUL 312100Z 14008KT 8SM FEW070 SCT120 BKN210 24/05 A2987 RMK AC2AC1CI0 SLP114

CYUL;2010-05-31 22:00;CYUL 312200Z 13008KT 8SM BKN075 BKN120 OVC210 24/06 A2985 RMK AC5AC1CI1 SLP107

CYUL;2010-05-31 23:00;CYUL 312300Z 13006KT 8SM FEW070 SCT120 BKN210 24/08 A2982 RMK AC2AC2CI1 SLP099

CYUL;2010-06-01 01:00;CYUL 010100Z 13002KT 6SM HZ FEW070 FEW110 SCT210 22/10 A2980 RMK AC1AC1CI1 SLP093

CYUL;2010-06-01 02:00;CYUL 010200Z 12003KT 6SM HZ FEW110 20/10 A2979 RMK AC1 SLP088

CYUL;2010-06-01 03:00;CYUL 010300Z 09002KT 6SM HZ SCT150 22/11 A2978 RMK AC1 SLP085

CYUL;2010-06-01 04:00;CYUL 010400Z 15002KT 6SM HZ SCT120 OVC160 20/11 A2976 RMK AC3AC2 SLP077

CYUL;2010-06-01 05:00;CYUL 010500Z 36002KT 6SM HZ BKN100 OVC120 19/09 A2975 RMK AC6AC2 SLP074

CYUL;2010-06-01 06:00;CYUL 010600Z 04009KT 6SM HZ BKN090 OVC120 18/08 A2975 RMK AC5AC3 SLP074

CYUL;2010-06-01 07:00;CYUL 010700Z 04009KT 10SM SCT090 OVC150 17/08 A2973 RMK AC3AC5 SLP068

CYUL;2010-06-01 08:00;CYUL 010800Z 04007KT 10SM BKN040 BKN060 OVC090 17/09 A2974 RMK SC5SC2AC2 SLP070

CYUL;2010-06-01 09:00;CYUL 010900Z 04009KT 12SM SCT050 OVC170 16/08 A2973 RMK SC3AC5 SLP068

CYUL;2010-06-01 10:00;CYUL 011000Z 03005KT 12SM BKN050 OVC150 16/08 A2973 RMK SC6AC2 SLP069

CYUL;2010-06-01 11:00;CYUL 011100Z 33005KT 12SM -SHRA BKN035 OVC055 15/09 A2975 RMK SC5SC3 CB EMBD SLP073

CYUL;2010-06-01 11:21;CYUL 011121Z 03006KT 12SM OVC045 15/ RMK SC8 CB EMBD

CYUL;2010-06-01 11:30;CYUL 011130Z 01004KT 10SM -SHRA OVC043 14/ RMK SC8 CB EMBD

CYUL;2010-06-01 12:00;CYUL 011200Z 33002KT 8SM -SHRA BKN040 OVC065 14/12 A2974 RMK SC6SC2 SLP070

CYUL;2010-06-01 13:00;CYUL 011300Z 02006KT 6SM -RA BKN035 OVC055 13/12 A2972 RMK SC6SC2 SLP065

CYUL;2010-06-01 13:37;CYUL 011337Z 04007KT 6SM -RA SCT004 OVC030 14/ RMK SF3SC5

CYUL;2010-06-01 14:00;CYUL 011400Z 03006KT 4SM -RA SCT004 OVC018 14/13 A2972 RMK SF4SC4 SLP064

CYUL;2010-06-01 14:06;CYUL 011406Z 03005KT 4SM -RA BKN005 OVC018 14/ RMK SF6SC2

CYUL;2010-06-01 15:00;CYUL 011500Z 03009KT 6SM -RA BKN005 OVC014 14/13 A2972 RMK SF6SC2 SLP064

CYUL;2010-06-01 15:33;CYUL 011533Z 36004KT 2SM RA BR BKN005 BKN012 OVC025 14/ RMK SF6SF2SC1

CYUL;2010-06-01 15:47;CYUL 011547Z 06003KT 4SM -RA BR SCT005 BKN012 OVC030 14/ RERA RMK SF4SF2SC2

CYUL;2010-06-01 16:00;CYUL 011600Z 02003KT 6SM -RA SCT005 BKN015 OVC035 14/14 A2972 RERA RMK SF3SF2SC3 /R13/ SLP066

CYUL;2010-06-01 16:09;CYUL 011609Z 28003KT 6SM -RA BKN005 BKN015 OVC035 15/ RMK SF6SF2SC1

CYUL;2010-06-01 16:24;CYUL 011624Z 17002KT 7SM -RA SCT005 BKN020 OVC040 15/ RMK SF3SC2SC3

CYUL;2010-06-01 16:50;CYUL 011650Z 19002KT 8SM -RA BKN005 BKN020 OVC040 16/ RMK SF5SC2SC2

CYUL;2010-06-01 17:00;CYUL 011700Z 26006KT 8SM BKN005 OVC020 16/14 A2972 RMK SF6SC2 SLP065

CYUL;2010-06-01 18:00;CYUL 011800Z 32003KT 10SM BKN007 OVC012 17/15 A2973 RMK SF6SF2 SLP068

CYUL;2010-06-01 19:00;CYUL 011900Z 29003KT 10SM FEW008 BKN012 BKN040 18/16 A2972 RMK SF2CF4SC1 SLP063

CYUL;2010-06-01 19:18;CYUL 011918Z 07002KT 10SM SCT012 BKN025 19/ RMK CF3CU2

CYUL;2010-06-01 20:00;CYUL 012000Z 23002KT 12SM FEW015 SCT240 21/17 A2972 RMK CU2CI1 SLP063

CYUL;2010-06-01 21:00;CYUL 012100Z 20008KT 12SM FEW015 FEW040 SCT240 20/16 A2972 RMK CU2SC1CI0 TCU ASOCTD SLP063

CYUL;2010-06-01 22:00;CYUL 012200Z 21007KT 15SM FEW020 FEW040 FEW240 21/17 A2972 RMK CU1SC1CI1 SLP063

CYUL;2010-06-01 23:00;CYUL 012300Z 20009KT 15SM FEW020 FEW240 21/17 A2972 RMK CU1CI1 SLP064

CYUL;2010-06-02 00:00;CYUL 020000Z 21009KT 15SM FEW040 FEW240 21/17 A2973 RMK SC1CI1 SLP067

CYUL;2010-06-02 01:00;CYUL 020100Z 21008KT 15SM FEW040 20/17 A2975 RMK SC1 SLP073

CYUL;2010-06-02 02:00;CYUL 020200Z 22008KT 15SM FEW060 19/16 A2975 RMK SC1 SLP074

CYUL;2010-06-02 03:00;CYUL 020300Z 21007KT 15SM FEW060 19/16 A2975 RMK SC1 SLP074

CYUL;2010-06-02 04:00;CYUL 020400Z 23006KT 15SM SKC 18/16 A2975 RMK SLP074

CYUL;2010-06-02 05:00;CYUL 020500Z 24004KT 15SM SKC 18/16 A2974 RMK SLP071

CYUL;2010-06-02 06:00;CYUL 020600Z 25006KT 15SM SKC 18/15 A2974 RMK SLP070

CYUL;2010-06-02 07:00;CYUL 020700Z 26006KT 15SM SKC 17/15 A2975 RMK SLP074

CYUL;2010-06-02 08:00;CYUL 020800Z 26005KT 15SM SKC 17/15 A2975 RMK SLP074

CYUL;2010-06-02 09:00;CYUL 020900Z 21005KT 15SM FEW240 17/15 A2976 RMK CI0 SLP078

CYUL;2010-06-02 10:00;CYUL 021000Z 21004KT 12SM FEW240 17/15 A2977 RMK CI0 SLP081

CYUL;2010-06-02 11:00;CYUL 021100Z 23008KT 12SM FEW240 18/15 A2978 RMK CI0 SLP084

CYUL;2010-06-02 12:00;CYUL 021200Z 21009KT 12SM FEW240 19/15 A2978 RMK CI0 SLP086

CYUL;2010-06-02 13:00;CYUL 021300Z 22011KT 15SM FEW180 BKN240 20/15 A2978 RMK AC0CI0 SLP086

CYUL;2010-06-02 14:00;CYUL 021400Z 22009KT 15SM FEW150 SCT240 21/16 A2976 RMK AC1CI1 SLP079

CYUL;2010-06-02 15:00;CYUL 021500Z 22009KT 15SM FEW025 FEW150 SCT240 23/16 A2975 RMK CU1AC1CI1 SLP075

CYUL;2010-06-02 16:00;CYUL 021600Z 23013KT 15SM FEW030 SCT150 BKN240 25/15 A2973 RMK CU1AC2CI1 SLP068

CYUL;2010-06-02 17:00;CYUL 021700Z 24011G17KT 30SM FEW030 SCT160 BKN220 26/13 A2972 RMK CU1AC3CI1 SLP066

CYUL;2010-06-02 18:00;CYUL 021800Z 23013KT 30SM FEW035 BKN160 BKN220 26/11 A2972 RMK CU1AC5CI1 SLP064

CYUL;2010-06-02 19:00;CYUL 021900Z 24012KT 30SM FEW040TCU FEW130 BKN160 OVC220 27/12 A2971 RMK TCU1AC2AC3CI2 SLP062

CYUL;2010-06-02 20:00;CYUL 022000Z 26010KT 30SM FEW040TCU FEW120 BKN160 OVC220 27/13 A2971 RMK TCU1AC2AS4CI1 SLP060

CYUL;2010-06-02 21:00;CYUL 022100Z 25012KT 30SM FEW040TCU SCT130 BKN160 BKN220 27/13 A2970 RMK TCU1AC2AS2CI1 SLP057

CYUL;2010-06-02 22:00;CYUL 022200Z 27010KT 30SM FEW040TCU BKN150 OVC200 26/14 A2969 RMK TCU1AS5CI2 SLP055

CYUL;2010-06-02 23:00;CYUL 022300Z 28005KT 30SM FEW040TCU FEW100 OVC160 25/15 A2969 RMK TCU1AC2AS5 DIST SH W SLP055

CYUL;2010-06-03 00:00;CYUL 030000Z 33005KT 30SM FEW040 BKN140 OVC200 24/15 A2969 RMK SC1AC6CI2 SLP055

CYUL;2010-06-03 01:00;CYUL 030100Z 36010KT 15SM -SHRA FEW050 BKN095 OVC150 23/14 A2969 RMK SC2AC4AC2 SLP055

CYUL;2010-06-03 02:00;CYUL 030200Z 27005KT 15SM -SHRA FEW050 OVC100 22/14 A2971 RMK SC1AC8 SLP061

CYUL;2010-06-03 02:30;CYUL 030230Z 35003KT 15SM BKN100 OVC140 20/ RMK AC6AC2

CYUL;2010-06-03 03:00;CYUL 030300Z 00000KT 15SM BKN120 OVC140 21/13 A2967 RMK AC6AC2 SLP049

CYUL;2010-06-03 04:00;CYUL 030400Z 00000KT 15SM OVC100 21/13 A2965 RMK AC8 SLP042

CYUL;2010-06-03 04:55;CYUL 030455Z 31003KT 15SM -RA OVC090 19/ RMK AC8

CYUL;2010-06-03 05:00;CYUL 030500Z 29003KT 15SM -RA BKN065 OVC090 19/15 A2971 RMK SC5AC3 SLP060

CYUL;2010-06-03 06:00;CYUL 030600Z 05007KT 15SM -RA BKN070 OVC100 19/15 A2968 RMK AC6AC2 SLP051

CYUL;2010-06-03 07:00;CYUL 030700Z 06006KT 8SM -RA BKN042 OVC065 18/16 A2967 RMK SC6SC2 SLP046

CYUL;2010-06-03 08:00;CYUL 030800Z 05011G16KT 8SM -RA FEW035 BKN045 OVC085 17/16 A2962 RMK SC1SC6AC2 SLP031

CYUL;2010-06-03 08:28;CYUL 030828Z 05008KT 8SM -RA BKN006 OVC030 17/ RMK SF5SC3

CYUL;2010-06-03 09:00;CYUL 030900Z 05008KT 6SM -RA BR OVC005 17/16 A2963 RMK SF8 SLP033

CYUL;2010-06-03 10:00;CYUL 031000Z CCA 04010KT 4SM -RA BR OVC006 17/16 A2963 RMK SF8 /R14/ SLP033

CYUL;2010-06-03 11:00;CYUL 031100Z 03013G18KT 6SM -RA BR OVC006 16/15 A2964 RMK SF8 SLP036

CYUL;2010-06-03 11:21;CYUL 031121Z 03013G19KT 8SM OVC008 16/ RMK SF8

CYUL;2010-06-03 12:00;CYUL 031200Z 04010KT 10SM OVC007 16/14 A2965 RMK SF8 SLP042

CYUL;2010-06-03 13:00;CYUL 031300Z 05012KT 15SM OVC008 16/14 A2967 RMK SF8 SLP048

CYUL;2010-06-03 13:47;CYUL 031347Z 05011G18KT 15SM OVC010 16/ RMK SF8

CYUL;2010-06-03 14:00;CYUL 031400Z 04012KT 15SM OVC010 16/14 A2968 RMK ST8 SLP050

CYUL;2010-06-03 15:00;CYUL 031500Z 04010KT 15SM OVC013 16/13 A2970 RMK SC8 SLP057

CYUL;2010-06-03 16:00;CYUL 031600Z 03006KT 15SM OVC013 17/14 A2971 RMK SC8 SLP062

CYUL;2010-06-03 17:00;CYUL 031700Z 01005KT 15SM OVC015 17/14 A2972 RMK SC8 SLP065

CYUL;2010-06-03 18:00;CYUL 031800Z 36006KT 15SM OVC015 18/15 A2972 RMK SC8 SLP065

CYUL;2010-06-03 19:00;CYUL 031900Z 02005KT 15SM OVC015 18/14 A2973 RMK SC8 SLP068

CYUL;2010-06-03 20:00;CYUL 032000Z 01002KT 15SM OVC016 18/14 A2974 RMK SC8 SLP072

CYUL;2010-06-03 21:00;CYUL 032100Z 06005KT 15SM BKN017 OVC040 18/14 A2972 RMK SC7SC1 SLP066

CYUL;2010-06-03 22:00;CYUL 032200Z 07003KT 15SM BKN020 OVC040 18/14 A2972 RMK SC6SC2 SLP065

CYUL;2010-06-03 22:30;CYUL 032230Z 01003KT 12SM -SHRA OVC020 18/ RMK SC8

CYUL;2010-06-03 23:00;CYUL 032300Z 06002KT 15SM -SHRA OVC019 18/15 A2973 RMK SC8 SLP068

CYUL;2010-06-04 00:00;CYUL 040000Z 09003KT 15SM -RA BKN015 BKN040 OVC100 18/15 A2972 RMK SC5SC1AC2 SLP064

CYUL;2010-06-04 01:00;CYUL 040100Z 09002KT 10SM -RA BKN015 OVC040 17/15 A2973 RMK SC7SC1 SLP067

CYUL;2010-06-04 02:00;CYUL 040200Z 04004KT 10SM -RA BKN018 BKN032 OVC080 17/15 A2974 RMK SF4SC3AC1 SLP071

CYUL;2010-06-04 02:16;CYUL 040216Z 05004KT 12SM -RA FEW018 BKN028 BKN047 OVC095 17/ RMK SF2SC2SC3AC2

CYUL;2010-06-04 03:00;CYUL 040300Z 09002KT 10SM -RA BKN020 BKN038 OVC065 17/15 A2975 RMK SF4SC3SC1 SLP074

CYUL;2010-06-04 04:00;CYUL 040400Z 11002KT 10SM -RA BKN007 BKN017 OVC025 16/15 A2975 RMK SF4SC3SC1 SLP073

CYUL;2010-06-04 04:31;CYUL 040431Z 16003KT 10SM -RA BKN007 OVC013 16/ RMK SF6SC2

CYUL;2010-06-04 04:42;CYUL 040442Z 16004KT 10SM -RA SCT006 OVC013 16/ RMK SF3SC5

CYUL;2010-06-04 04:46;CYUL 040446Z 17002KT 10SM -RA FEW008 BKN018 OVC029 16/ RMK SF2SC5SC2

CYUL;2010-06-04 05:00;CYUL 040500Z 15002KT 15SM -RA BKN013 BKN027 OVC045 16/15 A2975 RMK SF6SC2SC1 VRY LGT RA SLP075

CYUL;2010-06-04 05:45;CYUL 040545Z 00000KT 15SM -DZ BKN012 BKN022 OVC032 16/ RMK SF6SC2SC1

CYUL;2010-06-04 06:00;CYUL 040600Z 00000KT 15SM BKN009 BKN022 OVC050 16/15 A2975 RMK SF5SC2SC1 SLP074

CYUL;2010-06-04 07:00;CYUL 040700Z 00000KT 15SM FEW009 BKN013 OVC042 16/15 A2976 RMK SC2SC4SC2 SLP078

CYUL;2010-06-04 08:00;CYUL 040800Z 29002KT 15SM BKN009 16/15 A2977 RMK SF4 SLP080

CYUL;2010-06-04 09:00;CYUL 040900Z CCA 31004KT 12SM BKN009 OVC015 16/15 A2977 RMK SF6SC2 SLP083

CYUL;2010-06-04 10:00;CYUL 041000Z 24008KT 15SM BKN009 BKN020 16/15 A2979 RMK SF6SC1 SLP088

CYUL;2010-06-04 11:00;CYUL 041100Z 23007KT 15SM BKN007 BKN015 16/15 A2980 RMK SF5SC2 SLP093

CYUL;2010-06-04 12:00;CYUL 041200Z 24005KT 15SM SCT009 BKN022 17/15 A2982 RMK SF3SC2 SLP099

CYUL;2010-06-04 13:00;CYUL 041300Z 23008KT 15SM SCT012 BKN025 18/15 A2984 RMK SF3SC1 SLP105

CYUL;2010-06-04 14:00;CYUL 041400Z 23007KT 15SM BKN015 18/15 A2983 RMK CU6 SLP102

CYUL;2010-06-04 15:00;CYUL 041500Z 26009KT 15SM SCT015 BKN220 19/15 A2984 RMK CU4CI0 SLP104

CYUL;2010-06-04 16:00;CYUL 041600Z 20010KT 15SM FEW015 SCT220 20/15 A2983 RMK CU2CI0 SLP102

CYUL;2010-06-04 17:00;CYUL 041700Z 23008KT 30SM FEW035 FEW220 22/15 A2983 RMK CU2CI1 SLP100

CYUL;2010-06-04 18:00;CYUL 041800Z 22006KT 30SM FEW045 BKN240 22/11 A2982 RMK CU1CI0 SLP097

CYUL;2010-06-04 19:00;CYUL 041900Z 20013KT 30SM FEW045 OVC240 23/13 A2981 RMK CU1CI1 SLP094

CYUL;2010-06-04 20:00;CYUL 042000Z 20013KT 30SM FEW050 BKN240 23/12 A2980 RMK CU1CI2 SLP091

CYUL;2010-06-04 21:00;CYUL 042100Z 20011KT 30SM FEW050 BKN240 24/11 A2978 RMK CU1CI2 SLP086

CYUL;2010-06-04 22:00;CYUL 042200Z 22007KT 30SM FEW050 OVC230 23/10 A2977 RMK CU1CS4 SLP082

CYUL;2010-06-04 23:00;CYUL 042300Z 23006KT 30SM FEW060 OVC200 23/10 A2977 RMK SC1CS7 SLP082

CYUL;2010-06-05 00:00;CYUL 050000Z 23007KT 30SM FEW060 OVC170 23/11 A2978 RMK SC1AS7 AC ASOCTD SLP086

CYUL;2010-06-05 01:00;CYUL 050100Z 26003KT 30SM FEW060 OVC160 21/11 A2977 RMK SC1AS7 SLP083

CYUL;2010-06-05 02:00;CYUL 050200Z 20004KT 15SM FEW070 OVC150 21/11 A2977 RMK AC1AS7 SLP081

CYUL;2010-06-05 03:00;CYUL 050300Z 22002KT 15SM FEW070 BKN130 OVC200 20/11 A2976 RMK AC1AS6CS1 SLP077

CYUL;2010-06-05 04:00;CYUL 050400Z 13002KT 15SM FEW065 OVC140 19/12 A2973 RMK SC1AS7 SLP069

CYUL;2010-06-05 05:00;CYUL 050500Z 15004KT 15SM SCT062 OVC130 19/11 A2972 RMK SC3AS5 SLP063

CYUL;2010-06-05 06:00;CYUL 050600Z 00000KT 15SM FEW062 OVC110 19/11 A2969 RMK SC1AS7 SLP056

CYUL;2010-06-05 07:00;CYUL 050700Z 17002KT 15SM FEW064 OVC100 18/12 A2968 RMK SC2AS6 SLP050

CYUL;2010-06-05 08:00;CYUL 050800Z 18006KT 15SM FEW065 OVC100 18/13 A2967 RMK SC2AS6 SLP048

CYUL;2010-06-05 10:00;CYUL 051000Z 11003KT 15SM -SHRA FEW065 BKN100 OVC150 18/13 A2964 RMK SC2AC5AC2 VRY LGT RA SLP036

CYUL;2010-06-05 10:48;CYUL 051048Z 05004KT 15SM FEW065 BKN100 BKN150 18/ RMK SC2AC4AC2

CYUL;2010-06-05 11:00;CYUL 051100Z 05002KT 15SM -SHRA FEW065 BKN100 BKN140 19/13 A2962 RMK SC2AC4AC2 -RA INTMT SLP032

CYUL;2010-06-05 12:00;CYUL 051200Z 00000KT 15SM BKN078 OVC120 19/14 A2962 RMK AC6AC2 SLP031

CYUL;2010-06-05 13:00;CYUL 051300Z 00000KT 15SM SCT053 BKN065 OVC095 19/14 A2961 RMK SC3SC3AC2 SLP028

CYUL;2010-06-05 14:00;CYUL 051400Z 15002KT 15SM FEW020 BKN042 OVC095 19/15 A2959 RMK CF1SC7AC1 SLP021

CYUL;2010-06-05 15:00;CYUL 051500Z 14002KT 15SM OVC028 19/15 A2958 RMK SC8 SLP016

CYUL;2010-06-05 15:28;CYUL 051528Z 19004KT 15SM -SHRA OVC026 20/ RMK SC8

CYUL;2010-06-05 16:00;CYUL 051600Z 18003KT 15SM -SHRA FEW015 OVC027 19/16 A2956 RMK CF1SC8 SLP012

CYUL;2010-06-05 17:00;CYUL 051700Z 19002KT 15SM FEW015 SCT025 OVC050 19/17 A2955 RMK CF1SC3SC5 SLP008

CYUL;2010-06-05 17:12;CYUL 051712Z 21004KT 5SM -SHRA FEW015 BKN025 OVC050 19/ RMK CF1SC6SC2

CYUL;2010-06-05 18:00;CYUL 051800Z 21004KT 10SM -RA FEW008 BKN022 OVC035 18/17 A2955 RMK SF1SC6SC1 RERA SLP008

CYUL;2010-06-05 18:33;CYUL 051833Z 23005KT 12SM FEW006 OVC025 19/ RMK SF1SC8

CYUL;2010-06-05 19:00;CYUL 051900Z 19003KT 15SM FEW008 FEW020CB FEW045 OVC220 20/18 A2955 RMK CF1CB1SC1CI1 SLP007

CYUL;2010-06-05 20:00;CYUL 052000Z 22004KT 15SM BKN018 BKN040 BKN220 21/18 A2954 RMK CU5SC1CI1 TCU ASOCTD SLP004

CYUL;2010-06-05 21:00;CYUL 052100Z 29003KT 15SM FEW025 BKN045 OVC120 21/17 A2952 RMK CF1SC6AC1 TCU EMBD SLP998

CYUL;2010-06-05 21:20;CYUL 052120Z 34002KT 8SM -SHRA FEW022 BKN040 OVC110 21/ RMK CF1SC6AC1 TCU EMBD

CYUL;2010-06-05 22:00;CYUL 052200Z 30004KT 10SM -SHRA BKN030 20/18 A2953 RERA RMK CF7 TCU EMBD SLP999

CYUL;2010-06-05 22:26;CYUL 052226Z 31003KT 12SM FEW020TCU BKN055 BKN090 BKN240 21/ RMK TCU2SC3AC2CI0

CYUL;2010-06-05 23:00;CYUL 052300Z 31008KT 15SM FEW022 SCT100 BKN240 21/18 A2955 RMK SC2AC2CI0 CB ASOCTD SLP006

CYUL;2010-06-06 00:00;CYUL 060000Z 36010KT 15SM FEW018 BKN100 BKN240 16/14 A2959 RMK CF2AC5CI1 TCU ASOCTD SLP022

CYUL;2010-06-06 01:00;CYUL 060100Z 03008KT 15SM BKN022 OVC080 15/12 A2961 RMK SC7AC1 SLP029

CYUL;2010-06-06 02:00;CYUL 060200Z 03009KT 15SM OVC016 15/12 A2964 RMK SC8 SLP038

CYUL;2010-06-06 02:26;CYUL 060226Z 02007KT 15SM OVC014 15/ RMK ST8

CYUL;2010-06-06 02:49;CYUL 060249Z 36011KT 15SM FEW015 OVC023 14/ RMK SF2SC6

CYUL;2010-06-06 03:00;CYUL 060300Z 36007KT 15SM OVC019 14/11 A2966 RMK SC8 SLP044

CYUL;2010-06-06 04:00;CYUL 060400Z 36009KT 15SM -DZ BKN013 OVC019 13/10 A2966 RMK SF6SC2 SLP044

CYUL;2010-06-06 04:15;CYUL 060415Z 02010KT 15SM -DZ FEW013 BKN019 OVC026 12/ RMK SF2SC5SC2

CYUL;2010-06-06 04:48;CYUL 060448Z 35007KT 15SM SCT018 OVC028 12/ RMK SF3SC5

CYUL;2010-06-06 05:00;CYUL 060500Z 35006KT 15SM SCT019 OVC027 12/08 A2966 RMK SF2SC6 SLP043

CYUL;2010-06-06 06:00;CYUL 060600Z 36007KT 15SM FEW025 OVC040 12/08 A2966 RMK SC2SC6 SLP044

CYUL;2010-06-06 07:00;CYUL 060700Z 35005KT 15SM FEW022 OVC040 12/08 A2966 RMK SC2SC6 SLP044

CYUL;2010-06-06 08:00;CYUL 060800Z 36004KT 15SM BKN025 OVC040 12/08 A2964 RMK SC6SC2 SLP038

CYUL;2010-06-06 09:00;CYUL 060900Z 36003KT 15SM BKN022 OVC036 12/08 A2964 RMK SC6SC2 SLP038

CYUL;2010-06-06 10:00;CYUL 061000Z 01008KT 15SM OVC020 12/08 A2963 RMK SC8 SLP034

CYUL;2010-06-06 11:00;CYUL 061100Z 04008KT 15SM OVC018 12/08 A2962 RMK ST8 SLP030

CYUL;2010-06-06 12:00;CYUL 061200Z 07004KT 15SM -SHRA OVC016 12/09 A2962 RMK ST8 SLP030

CYUL;2010-06-06 12:43;CYUL 061243Z 06007KT 15SM -SHRA BKN013 OVC020 11/ RMK SF6SC2

CYUL;2010-06-06 13:00;CYUL 061300Z 05008KT 15SM -RA FEW013 BKN020 OVC030 11/09 A2955 RMK SF2SC3SC2 PRESFR SLP008

CYUL;2010-06-06 13:28;CYUL 061328Z 05009KT 15SM -RA FEW008 BKN014 OVC020 11/ RMK SF2SC5SC2

CYUL;2010-06-06 14:00;CYUL 061400Z 06009KT 6SM -RA BR SCT008 OVC012 11/10 A2952 RMK SF3SC5 SLP998

CYUL;2010-06-06 14:48;CYUL 061448Z 04009G15KT 7SM -RA BKN007 OVC025 11/ RMK SF7SC1

CYUL;2010-06-06 15:00;CYUL 061500Z 02009KT 8SM -RA OVC008 11/10 A2953 RMK SF8 SLP001

CYUL;2010-06-06 16:00;CYUL 061600Z 02012KT 7SM -RA OVC006 11/10 A2949 RMK SF8 SLP988

CYUL;2010-06-06 17:00;CYUL 061700Z 02012KT 6SM -RA BR OVC006 11/10 A2948 RMK SF8 SLP984

CYUL;2010-06-06 18:00;CYUL 061800Z 02016KT 4SM -RA BR BKN008 OVC015 11/10 A2947 RMK SF7NS1 SLP981

CYUL;2010-06-06 19:00;CYUL 061900Z 36013G18KT 7SM -RA BKN008 OVC030 12/10 A2948 RMK SF7NS1 SLP985

CYUL;2010-06-06 19:46;CYUL 061946Z 01015G25KT 6SM -RA BR BKN010 OVC030 12/ RMK SF7NS1

CYUL;2010-06-06 20:00;CYUL 062000Z 01014G20KT 7SM -RA BKN010 OVC030 12/11 A2949 RMK SF7NS1 SLP987

CYUL;2010-06-06 21:00;CYUL 062100Z 01013G19KT 15SM -RA SCT011 OVC060 12/11 A2952 RMK SF4NS4 SLP997

CYUL;2010-06-06 21:22;CYUL 062122Z 36012G18KT 12SM -RA BKN012 OVC022 12/ RMK SF7SC1

CYUL;2010-06-06 21:40;CYUL 062140Z 35011KT 15SM -RA SCT012 OVC028 12/ RMK SF3SC5

CYUL;2010-06-06 22:00;CYUL 062200Z 33007KT 15SM -RA FEW011 OVC028 12/11 A2956 RMK SF2SC6 SLP010

CYUL;2010-06-06 23:00;CYUL 062300Z 30007KT 15SM -RA FEW012 SCT030 OVC060 12/11 A2959 RMK SF1SC3NS5 SLP020

CYUL;2010-06-07 00:00;CYUL 070000Z 34005KT 15SM -RA FEW012 FEW060 OVC085 12/11 A2962 RMK SF1SC2AS6 SLP031

CYUL;2010-06-07 01:00;CYUL 070100Z 29007KT 15SM -RA FEW070 OVC090 12/11 A2964 RMK AC2AS6 SLP038

CYUL;2010-06-07 02:00;CYUL 070200Z 31006KT 15SM SCT080 OVC130 12/10 A2966 RMK AC2AC5 SLP044

CYUL;2010-06-07 03:00;CYUL 070300Z 29004KT 15SM FEW080 SCT120 11/10 A2966 RMK AC1AC1 SLP045

CYUL;2010-06-07 04:00;CYUL 070400Z 30004KT 15SM FEW064 FEW120 10/09 A2966 RMK SC1AC1 SLP045

CYUL;2010-06-07 05:00;CYUL 070500Z 00000KT 15SM FEW080 10/09 A2965 RMK AC1 SLP042

CYUL;2010-06-07 06:00;CYUL 070600Z 21005KT 15SM FEW080 11/10 A2964 RMK AC1 SLP038

CYUL;2010-06-07 07:00;CYUL 070700Z 24009KT 15SM FEW085 11/10 A2965 RMK AC1 SLP042

CYUL;2010-06-07 08:00;CYUL 070800Z 26005KT 15SM FEW092 10/08 A2966 RMK AC1 SLP046

CYUL;2010-06-07 09:00;CYUL 070900Z 27005KT 15SM FEW100 FEW240 10/09 A2968 RMK AC1CI1 SLP052

CYUL;2010-06-07 10:00;CYUL 071000Z 28003KT 15SM FEW080 SCT110 SCT240 10/09 A2970 RMK AC1AC2CI0 ACC NW SLP060

CYUL;2010-06-07 11:00;CYUL 071100Z 24006KT 15SM FEW080 SCT100 BKN240 12/09 A2972 RMK AC2AC2CI1 ACC ASOCTD SLP066

CYUL;2010-06-07 12:00;CYUL 071200Z 23008KT 30SM FEW100 FEW240 13/10 A2974 RMK AC1CI1 SLP072

CYUL;2010-06-07 13:00;CYUL 071300Z 29006KT 30SM FEW100 FEW240 15/09 A2975 RMK AC1CI1 SLP075

CYUL;2010-06-07 14:00;CYUL 071400Z 29008KT 30SM FEW025 FEW080 17/10 A2976 RMK CU1AC1 SLP079

CYUL;2010-06-07 15:00;CYUL 071500Z 32012G19KT 30SM SCT040 18/05 A2976 RMK CU3 SLP077

CYUL;2010-06-07 16:00;CYUL 071600Z 31013G18KT 30SM BKN060 17/06 A2977 RMK CU6 SLP081

CYUL;2010-06-07 17:00;CYUL 071700Z 31012G19KT 30SM FEW060 BKN080 17/05 A2977 RMK CU2AC3 SLP081

CYUL;2010-06-07 18:00;CYUL 071800Z 28014G19KT 30SM FEW060 BKN080 19/06 A2976 RMK CU2AC3 SLP079

CYUL;2010-06-07 19:00;CYUL 071900Z 26016KT 30SM VCSH SCT060 BKN080 19/07 A2977 RMK CU3AC2 SLP082

CYUL;2010-06-07 20:00;CYUL 072000Z 27015KT 30SM VCSH FEW060 SCT080 19/07 A2978 RMK CU2AC2 SLP084

CYUL;2010-06-07 20:38;CYUL 072038Z 30014G22KT 30SM -SHRA SCT055 BKN080 18/ RMK CU3AC2

CYUL;2010-06-07 21:00;CYUL 072100Z 27014G21KT 30SM -SHRA SCT055 BKN080 18/07 A2979 RMK CU3AC2 SLP090

CYUL;2010-06-07 21:28;CYUL 072128Z 30015KT 30SM VCSH FEW050 BKN070 BKN090 19/ RMK CU2AC3AC1

CYUL;2010-06-07 22:00;CYUL 072200Z 28011KT 30SM VCSH SCT050 BKN080 BKN210 18/08 A2981 RMK CU3AC2CI1 SLP095

CYUL;2010-06-07 23:00;CYUL 072300Z 31016G21KT 30SM FEW050 FEW090 SCT240 18/04 A2983 RMK CU1AC2CI0 SLP102

CYUL;2010-06-08 00:00;CYUL 080000Z 32013KT 30SM FEW050 FEW090 FEW240 17/05 A2984 RMK CU1AC1CI0 SLP105

CYUL;2010-06-08 01:00;CYUL 080100Z 31012KT 30SM SCT090 15/05 A2987 RMK AC4 SLP114

CYUL;2010-06-08 02:00;CYUL 080200Z 30008KT 15SM BKN100 15/06 A2989 RMK AC4 SLP121

CYUL;2010-06-08 03:00;CYUL 080300Z 30009KT 15SM FEW100 14/06 A2989 RMK AC1 SLP123

CYUL;2010-06-08 04:00;CYUL 080400Z 31007KT 15SM FEW240 13/06 A2990 RMK CI1 SLP124

CYUL;2010-06-08 05:00;CYUL 080500Z 31006KT 15SM FEW240 12/06 A2991 RMK CI1 SLP127

CYUL;2010-06-08 06:00;CYUL 080600Z 30006KT 15SM SKC 11/06 A2991 RMK SLP130

CYUL;2010-06-08 07:00;CYUL 080700Z 30005KT 15SM FEW090 10/06 A2993 RMK AC1 SLP135

CYUL;2010-06-08 08:00;CYUL 080800Z 31006KT 15SM SCT095 10/06 A2994 RMK AC2 SLP139

CYUL;2010-06-08 09:00;CYUL 080900Z 30005KT 15SM SCT095 10/06 A2994 RMK AC3 SLP141

CYUL;2010-06-08 10:00;CYUL 081000Z 29005KT 15SM FEW100 10/06 A2997 RMK AC2 SLP150

CYUL;2010-06-08 11:00;CYUL 081100Z 31009KT 30SM FEW100 12/06 A2998 RMK AC2 SLP154

CYUL;2010-06-08 12:00;CYUL 081200Z 32009KT 30SM FEW100 FEW240 13/07 A2999 RMK AC1CI1 SLP158

CYUL;2010-06-08 13:00;CYUL 081300Z 28010KT 30SM FEW032 FEW110 FEW240 15/08 A3001 RMK CU1AC1CI1 SLP163

CYUL;2010-06-08 14:00;CYUL 081400Z 27011KT 30SM FEW030 FEW110 FEW240 16/07 A3001 RMK CU1AC1CI0 SLP165

CYUL;2010-06-08 15:00;CYUL 081500Z 30006KT 30SM SCT040 16/07 A3001 RMK CU4 SLP165

CYUL;2010-06-08 16:00;CYUL 081600Z 31010G17KT 30SM BKN045 18/08 A3001 RMK CU5 SLP162

CYUL;2010-06-08 16:33;CYUL 081633Z 32012G18KT 30SM -SHRA BKN050 17/ RMK SC6 CU ASOCTD

CYUL;2010-06-08 17:00;CYUL 081700Z 31014G20KT 15SM -SHRA BKN050 BKN080 14/08 A3003 RMK SC6AC1 CU ASOCTD SLP170

CYUL;2010-06-08 17:50;CYUL 081750Z 30010KT 15SM VCSH SCT050 BKN080 BKN210 18/ RMK SC3AC2CI1 CU ASOCTD

CYUL;2010-06-08 18:00;CYUL 081800Z 28010KT 15SM VCSH FEW050 BKN080 BKN210 17/08 A3002 RMK SC2AC2CI1 SLP167

CYUL;2010-06-08 19:00;CYUL 081900Z 31012G18KT 30SM FEW050 SCT090 SCT210 19/06 A3001 RMK SC2AC2CI1 CU ASOCTD SLP163

CYUL;2010-06-08 19:32;CYUL 081932Z 27012G17KT 30SM -SHRA FEW050 SCT072 BKN100 18/ RMK CU1AC3AC2

CYUL;2010-06-08 20:00;CYUL 082000Z 27015KT 30SM VCSH FEW050 SCT065 BKN090 20/08 A3002 RMK CU1SC3AC2 SLP166

CYUL;2010-06-08 21:00;CYUL 082100Z 33009G16KT 30SM FEW050 SCT070 BKN100 19/05 A3004 RMK CU1AC2AC3 SLP173

CYUL;2010-06-08 22:00;CYUL 082200Z 34011G16KT 30SM VCSH FEW050 FEW070 SCT100 19/06 A3004 RMK CU1ACC2AC2 SLP175

CYUL;2010-06-08 23:00;CYUL 082300Z 35007KT 30SM FEW050 SCT070 BKN100 18/05 A3005 RMK CU1AC2AC2 SLP176

CYUL;2010-06-09 00:00;CYUL 090000Z 34006KT 30SM FEW050 SCT095 SCT120 17/06 A3005 RMK SC1AC2AC1 SLP178

CYUL;2010-06-09 01:00;CYUL 090100Z 30004KT 30SM FEW060 FEW100 FEW210 14/06 A3007 RMK SC1AC1CI1 SLP184

CYUL;2010-06-09 02:00;CYUL 090200Z 28003KT 15SM FEW240 14/06 A3009 RMK CI1 SLP190

CYUL;2010-06-09 03:00;CYUL 090300Z 28005KT 15SM FEW240 12/06 A3009 RMK CI1 SLP192

CYUL;2010-06-09 04:00;CYUL 090400Z 28005KT 15SM SKC 12/07 A3009 RMK SLP191

CYUL;2010-06-09 05:00;CYUL 090500Z 30005KT 15SM SKC 12/07 A3008 RMK SLP188

CYUL;2010-06-09 06:00;CYUL 090600Z 17002KT 15SM SKC 12/07 A3009 RMK SLP191

CYUL;2010-06-09 07:00;CYUL 090700Z 24006KT 15SM SKC 12/08 A3009 RMK SLP192

CYUL;2010-06-09 08:00;CYUL 090800Z 25006KT 15SM FEW042 FEW240 12/09 A3010 RMK SC1CI1 SLP193

CYUL;2010-06-09 09:00;CYUL 090900Z 25006KT 15SM SCT240 12/09 A3010 RMK CI1 SLP193

CYUL;2010-06-09 10:00;CYUL 091000Z 25007KT 15SM BKN240 12/09 A3011 RMK CI2 SLP196

CYUL;2010-06-09 11:00;CYUL 091100Z 25006KT 30SM BKN240 13/10 A3011 RMK CI2 SLP197

CYUL;2010-06-09 12:00;CYUL 091200Z 21003KT 30SM BKN240 15/10 A3010 RMK CI3 SLP194

CYUL;2010-06-09 13:00;CYUL 091300Z 21006KT 30SM FEW062 SCT180 BKN240 16/11 A3009 RMK SC1AC2CI2 SLP191

CYUL;2010-06-09 14:00;CYUL 091400Z 19005KT 30SM FEW130 SCT180 BKN240 17/11 A3009 RMK AC1AC2CI2 SLP190

CYUL;2010-06-09 15:00;CYUL 091500Z 18004KT 30SM FEW035 FEW160 BKN210 18/10 A3006 RMK CU1AC1CI3 SLP180

CYUL;2010-06-09 16:00;CYUL 091600Z 20005KT 30SM FEW040 BKN220 20/07 A3004 RMK CU1CI3 SLP172

CYUL;2010-06-09 17:00;CYUL 091700Z 00000KT 30SM FEW045 FEW120 SCT160 BKN220 21/07 A3000 RMK CU1AC1AC2CI1 SLP160

CYUL;2010-06-09 18:00;CYUL 091800Z 16009KT 30SM FEW055 SCT160 BKN220 21/08 A2998 RMK CU1AC2CI1 SLP154

CYUL;2010-06-09 19:00;CYUL 091900Z 14013KT 30SM FEW060 SCT180 BKN240 21/06 A2996 RMK CU1AC2CI1 SLP148

CYUL;2010-06-09 20:00;CYUL 092000Z 15010G15KT 30SM FEW060 BKN180 BKN210 21/05 A2994 RMK SC1AC5CI1 SLP139

CYUL;2010-06-09 21:00;CYUL 092100Z 13012KT 30SM FEW060 BKN180 BKN210 20/06 A2991 RMK SC1AC4CI1 SLP128

CYUL;2010-06-09 22:00;CYUL 092200Z 16013G18KT 30SM FEW070 BKN180 BKN210 21/07 A2989 RMK AC1AC4CI1 SLP122

CYUL;2010-06-09 23:00;CYUL 092300Z 15010G16KT 30SM FEW070 BKN180 19/07 A2988 RMK AC1AC6 SLP117

CYUL;2010-06-10 00:00;CYUL 100000Z 15013KT 30SM FEW080 BKN140 BKN180 18/07 A2987 RMK AC2AC4AC2 SLP115

CYUL;2010-06-10 01:00;CYUL 100100Z 16013G18KT 15SM FEW070 BKN120 OVC170 17/08 A2986 RMK AC1AC5AC2 SLP111

CYUL;2010-06-10 02:00;CYUL 100200Z 17011G18KT 15SM FEW090 OVC110 16/08 A2988 RMK AC1AC8 SLP119

CYUL;2010-06-10 03:00;CYUL 100300Z 17011KT 15SM -RA BKN090 OVC120 15/09 A2989 RMK AC6AC2 SLP121

CYUL;2010-06-10 03:32;CYUL 100332Z 16010KT 15SM BKN090 OVC120 14/ RMK AC6AC2

CYUL;2010-06-10 04:00;CYUL 100400Z 15012KT 15SM OVC090 14/10 A2987 RMK AC8 SLP114

CYUL;2010-06-10 04:55;CYUL 100455Z 14010KT 15SM -RA BKN060 OVC090 13/ RMK SC6AC2

CYUL;2010-06-10 05:00;CYUL 100500Z 14011KT 15SM -RA BKN060 OVC090 13/10 A2984 RMK SC6AC2 SLP106

CYUL;2010-06-10 06:00;CYUL 100600Z 14011G16KT 15SM -RA FEW030 BKN045 OVC090 13/11 A2982 RMK SC1SC6AC2 SLP097

CYUL;2010-06-10 07:00;CYUL 100700Z 14011KT 15SM FEW030 OVC040 13/11 A2980 RMK SC1SC7 SLP091

CYUL;2010-06-10 07:53;CYUL 100753Z 13010KT 15SM -RA FEW025 BKN030 OVC045 13/ RMK SC1SC6SC2

CYUL;2010-06-10 08:00;CYUL 100800Z 13010KT 15SM -RA FEW015 BKN025 OVC045 13/10 A2979 RMK SC1SC6SC2 SLP087

CYUL;2010-06-10 08:39;CYUL 100839Z 12008KT 10SM -RA BKN013 OVC030 13/ RMK SF6SC2

CYUL;2010-06-10 09:00;CYUL 100900Z 13011KT 10SM OVC012 12/11 A2979 RMK SF8 SLP087

CYUL;2010-06-10 09:22;CYUL 100922Z 12009KT 10SM -RA OVC010 12/ RMK SF8 -RA INTMT

CYUL;2010-06-10 10:00;CYUL 101000Z 12008KT 6SM -RA OVC012 12/11 A2979 RMK SF8 SLP088

CYUL;2010-06-10 10:37;CYUL 101037Z 12009KT 8SM OVC010 13/ RMK SF8

CYUL;2010-06-10 11:00;CYUL 101100Z 11007KT 10SM OVC010 13/11 A2979 RMK SF8 SLP089

CYUL;2010-06-10 11:21;CYUL 101121Z 13010KT 3SM -DZ BR OVC010 13/ RMK SF8

CYUL;2010-06-10 11:30;CYUL 101130Z 13009KT 3SM -RA BR SCT009 OVC013 13/ RMK SF3SF5

CYUL;2010-06-10 11:35;CYUL 101135Z 12009KT 2 1/2SM -RA BR BKN009 OVC013 13/ RMK SF5SF3

CYUL;2010-06-10 12:00;CYUL 101200Z 12009KT 3SM -RA BR BKN008 OVC014 13/11 A2978 RMK SF6SF2 SLP086

CYUL;2010-06-10 13:00;CYUL 101300Z 12006KT 2 1/2SM -DZ BR OVC008 13/12 A2979 RMK SF8 SLP087

CYUL;2010-06-10 13:26;CYUL 101326Z 14008KT 3SM -DZ BR OVC008 13/ RMK SF8

CYUL;2010-06-10 14:00;CYUL 101400Z CCA 14007KT 8SM -DZ OVC009 14/13 A2979 RMK SF8 SLP087

CYUL;2010-06-10 14:34;CYUL 101434Z 12006KT 10SM OVC008 14/ RMK SF8

CYUL;2010-06-10 15:00;CYUL 101500Z 11004KT 10SM OVC008 14/12 A2979 RMK SF8 SLP089

CYUL;2010-06-10 15:12;CYUL 101512Z 13003KT 5SM -DZ BR OVC008 14/ RMK SF8

CYUL;2010-06-10 15:27;CYUL 101527Z 13004KT 2 1/2SM -DZ BR OVC008 14/ RMK SF8

CYUL;2010-06-10 16:00;CYUL 101600Z 13003KT 5SM -DZ BR BKN005 BKN009 OVC013 14/13 A2980 RMK SF5SF2SC2 SLP090

CYUL;2010-06-10 17:00;CYUL 101700Z 03002KT 5SM -DZ BR BKN007 OVC011 14/13 A2980 RMK SF6SF2 VIS 11/2 N SLP092

CYUL;2010-06-10 18:00;CYUL 101800Z 04003KT 4SM -DZ BR BKN007 OVC011 14/13 A2981 RMK SF6SF2 SLP096

CYUL;2010-06-10 18:08;CYUL 101808Z 05005KT 3SM -RADZ BR BKN006 OVC010 14/ RMK SF7SF1

CYUL;2010-06-10 19:00;CYUL 101900Z 04006KT 3SM -RADZ BR BKN005 OVC009 14/13 A2983 RMK SF7SF1 SLP102

CYUL;2010-06-10 19:33;CYUL 101933Z 06008KT 2 1/2SM -DZ BR BKN005 OVC009 14/ RMK SF6SF2

CYUL;2010-06-10 20:00;CYUL 102000Z 05004KT 2SM -DZ BR BKN005 OVC010 14/13 A2986 RMK SF6SF2 SLP112

CYUL;2010-06-10 20:35;CYUL 102035Z 03008KT 3SM -DZ BR BKN005 OVC010 14/ RMK SF6SF2

CYUL;2010-06-10 21:00;CYUL 102100Z 05006KT 8SM BKN006 OVC014 15/13 A2988 RMK SF6SC2 SLP118

CYUL;2010-06-10 21:40;CYUL 102140Z 05005KT 15SM FEW007 BKN010 OVC020 15/ RMK SF2SF4SC2

CYUL;2010-06-10 22:00;CYUL 102200Z 07004KT 15SM FEW007 BKN010 OVC018 15/14 A2988 RMK SF1SF5SC2 SLP121

CYUL;2010-06-10 23:00;CYUL 102300Z 04003KT 15SM FEW012 BKN018 OVC030 15/13 A2991 RMK SC2SC3SC2 SLP130

CYUL;2010-06-10 23:26;CYUL 102326Z 04003KT 15SM -DZ FEW008 BKN018 OVC030 15/ RMK SF1SC4SC3

CYUL;2010-06-11 00:00;CYUL 110000Z 36002KT 15SM FEW012 SCT020 BKN030 15/13 A2992 RMK SF1SC2SC4 INTMT -DZ SLP134

CYUL;2010-06-11 01:00;CYUL 110100Z 36003KT 15SM FEW015 OVC035 15/13 A2995 RMK SC1SC6 SLP142

CYUL;2010-06-11 02:00;CYUL 110200Z 00000KT 15SM FEW015 OVC041 15/13 A2997 RMK SC1SC7 SLP151

CYUL;2010-06-11 03:00;CYUL 110300Z 33002KT 15SM OVC040 15/13 A2999 RMK SC8 SLP156

CYUL;2010-06-11 04:00;CYUL 110400Z 30005KT 15SM FEW020 OVC040 15/14 A3001 RMK SC1SC7 SLP163

CYUL;2010-06-11 05:00;CYUL 110500Z 31005KT 15SM FEW020 OVC045 15/13 A3003 RMK SC1SC7 SLP170

CYUL;2010-06-11 06:00;CYUL 110600Z 03006KT 15SM BKN045 14/13 A3002 RMK SC6 SLP166

CYUL;2010-06-11 07:00;CYUL 110700Z 35003KT 15SM BKN045 13/12 A3003 RMK SC5 SLP169

CYUL;2010-06-11 08:00;CYUL 110800Z 35002KT 15SM FEW045 12/11 A3003 RMK SC1 SLP171

CYUL;2010-06-11 08:52;CYUL 110852Z 33002KT 6SM BR FEW045 FEW150 12/ RMK SC1AC1 VIS W NW 21/2

CYUL;2010-06-11 09:00;CYUL 110900Z 00000KT 6SM BR FEW045 FEW150 FEW240 12/11 A3005 RMK SC1AC1CI0 VIS W NW 21/2 SLP176

CYUL;2010-06-11 10:00;CYUL 111000Z 01003KT 8SM FEW025 OVC045 13/12 A3008 RMK SC1SC7 SLP186

CYUL;2010-06-11 11:00;CYUL 111100Z 30002KT 10SM OVC042 13/12 A3009 RMK SC7 SLP189

CYUL;2010-06-11 12:00;CYUL 111200Z 23002KT 8SM OVC045 14/12 A3011 RMK SC8 SLP196

CYUL;2010-06-11 13:00;CYUL 111300Z 33002KT 8SM FEW025 BKN050 16/13 A3013 RMK CU1SC6 SLP203

CYUL;2010-06-11 14:00;CYUL 111400Z 21003KT 12SM SCT014 BKN024 BKN050 17/14 A3012 RMK SC3SC2SC2 SLP199

CYUL;2010-06-11 15:00;CYUL 111500Z 21006KT 15SM FEW015 BKN035 OVC055 17/13 A3013 RMK SC2SC4SC2 SLP203

CYUL;2010-06-11 16:00;CYUL 111600Z 22008KT 15SM FEW020 OVC045 17/14 A3012 RMK SC2SC6 SLP202

CYUL;2010-06-11 17:00;CYUL 111700Z 20007KT 15SM FEW020 BKN045 OVC060 17/14 A3012 RMK SC1SC5SC2 SLP200

CYUL;2010-06-11 18:00;CYUL 111800Z 20009KT 15SM FEW030 BKN045 OVC060 19/14 A3010 RMK CU1SC4SC2 SLP195

CYUL;2010-06-11 19:00;CYUL 111900Z 22006KT 15SM FEW030 BKN055 19/13 A3011 RMK CU1SC6 SLP197

CYUL;2010-06-11 20:00;CYUL 112000Z 22009KT 15SM FEW030 SCT060 BKN240 21/14 A3009 RMK CU2SC2CI1 SLP192

CYUL;2010-06-11 21:00;CYUL 112100Z 24008KT 30SM FEW030 BKN240 21/13 A3009 RMK CU1CI2 SLP192

CYUL;2010-06-11 22:00;CYUL 112200Z 20008KT 30SM FEW035 SCT240 21/13 A3009 RMK CU1CI1 SLP189

CYUL;2010-06-11 23:00;CYUL 112300Z 21008KT 30SM FEW035 BKN240 20/13 A3009 RMK CU1CS3 SLP192

CYUL;2010-06-12 00:00;CYUL 120000Z 24007KT 30SM SCT210 BKN240 20/14 A3009 RMK CI1CS2 SLP192

CYUL;2010-06-12 01:00;CYUL 120100Z 23005KT 30SM BKN240 19/13 A3009 RMK CS5 SLP189

CYUL;2010-06-12 02:00;CYUL 120200Z 22004KT 15SM OVC240 19/14 A3009 RMK CS6 SLP189

CYUL;2010-06-12 03:00;CYUL 120300Z 00000KT 15SM BKN090 OVC240 17/13 A3009 RMK AC5CS3 SLP189

CYUL;2010-06-12 04:00;CYUL 120400Z 20003KT 15SM BKN130 OVC210 17/14 A3009 RMK AC6CS2 SLP192

CYUL;2010-06-12 05:00;CYUL 120500Z 22004KT 15SM OVC140 17/14 A3011 RMK AC8 SLP196

CYUL;2010-06-12 06:00;CYUL 120600Z 16003KT 15SM OVC130 17/14 A3008 RMK AC8 SLP187

CYUL;2010-06-12 07:00;CYUL 120700Z 23003KT 15SM OVC130 17/14 A3008 RMK AC8 SLP188

CYUL;2010-06-12 08:00;CYUL 120800Z 00000KT 15SM OVC130 16/14 A3008 RMK AC8 SLP187

CYUL;2010-06-12 09:00;CYUL 120900Z 00000KT 15SM OVC120 17/15 A3007 RMK AC8 SLP185

CYUL;2010-06-12 09:36;CYUL 120936Z 15002KT 12SM -SHRA OVC110 16/ RMK AC8

CYUL;2010-06-12 10:00;CYUL 121000Z 22004KT 10SM -SHRA OVC110 17/15 A3008 RMK AC8 SLP187

CYUL;2010-06-12 11:00;CYUL 121100Z 20004KT 10SM -RA OVC090 16/15 A3008 RMK AC8 SLP188

CYUL;2010-06-12 11:45;CYUL 121145Z 20003KT 12SM OVC090 16/ RMK AC8

CYUL;2010-06-12 12:00;CYUL 121200Z 11004KT 12SM FEW045TCU OVC090 16/15 A3009 RMK TCU1AC7 SLP189

CYUL;2010-06-12 13:00;CYUL 121300Z 20005KT 12SM FEW045TCU OVC095 17/15 A3009 RMK TCU1AC7 SLP189

CYUL;2010-06-12 14:00;CYUL 121400Z 00000KT 15SM FEW028 BKN085 OVC110 18/15 A3009 RMK SC2AC5AS2 ACC ASOCTD SLP191

CYUL;2010-06-12 15:00;CYUL 121500Z 17004KT 15SM FEW032 FEW055 BKN072 OVC240 19/15 A3008 RMK CU1SC2AC4CS2 ACC ASOCTD SLP186

CYUL;2010-06-12 16:00;CYUL 121600Z 15006KT 30SM FEW045 BKN070 BKN150 BKN240 20/14 A3008 RMK SC1AC4AC2CS1 ACC ASOCTD SLP186

CYUL;2010-06-12 17:00;CYUL 121700Z 14007KT 30SM FEW045 FEW070 BKN140 BKN240 20/12 A3007 RMK SC1AC2AC4CS1 ACC ASOCTD SLP182

CYUL;2010-06-12 18:00;CYUL 121800Z 14006KT 30SM FEW050 FEW070 BKN150 BKN240 20/12 A3004 RMK SC1AC2AC3CS2 ACC NE SLP172

CYUL;2010-06-12 19:00;CYUL 121900Z 17009KT 30SM FEW060 BKN160 BKN240 21/13 A3001 RMK SC1AC4CI1 TCU EMBD SLP164

CYUL;2010-06-12 20:00;CYUL 122000Z 16008KT 30SM FEW062 SCT140 BKN240 21/12 A3001 RMK SC1AC2CI2 TCU EMBD NE SLP163

CYUL;2010-06-12 21:00;CYUL 122100Z 17008KT 30SM FEW062 FEW140 SCT240 21/11 A3001 RMK SC1AC1CI1 TCU EMBD NE SLP161

CYUL;2010-06-12 22:00;CYUL 122200Z 18007KT 30SM FEW065 FEW240 21/13 A2999 RMK SC1CI1 CU ASOCTD SLP157

CYUL;2010-06-12 23:00;CYUL 122300Z 14005KT 30SM FEW040 FEW240 21/13 A2999 RMK CU1CI1 SLP156

CYUL;2010-06-13 00:00;CYUL 130000Z 16005KT 30SM FEW036 SCT240 21/14 A2999 RMK SC1CI1 CU PRSNT SLP157

CYUL;2010-06-13 01:00;CYUL 130100Z 17005KT 15SM SCT240 19/14 A2999 RMK CI1 SLP154

CYUL;2010-06-13 02:00;CYUL 130200Z 17005KT 15SM FEW180 18/13 A2999 RMK AC1 SLP157

CYUL;2010-06-13 03:00;CYUL 130300Z 24002KT 15SM FEW180 17/13 A2999 RMK AC1 SLP155

CYUL;2010-06-13 04:00;CYUL 130400Z CCA 35002KT 15SM FEW240 16/13 A2999 RMK CI0 SLP156

CYUL;2010-06-13 05:00;CYUL 130500Z 00000KT 15SM FEW240 15/13 A2997 RMK CI0 SLP149

CYUL;2010-06-13 06:00;CYUL 130600Z 00000KT 15SM SKC 15/13 A2996 RMK SLP147

CYUL;2010-06-13 07:00;CYUL 130700Z 36002KT 15SM SKC 14/13 A2997 RMK SLP148

CYUL;2010-06-13 08:00;CYUL 130800Z 00000KT 15SM SKC 15/13 A2996 RMK SLP145

CYUL;2010-06-13 09:00;CYUL 130900Z 29002KT 15SM OVC240 14/13 A2996 RMK CS7 SLP145

CYUL;2010-06-13 10:00;CYUL 131000Z 36003KT 15SM OVC240 15/13 A2995 RMK CS8 SLP143

CYUL;2010-06-13 11:00;CYUL 131100Z 04005KT 15SM OVC240 16/14 A2995 RMK CS5 SLP142

CYUL;2010-06-13 12:00;CYUL 131200Z 03005KT 12SM FEW180 OVC220 18/15 A2996 RMK AC2CI2 SLP146

CYUL;2010-06-13 13:00;CYUL 131300Z 05005KT 12SM OVC230 20/14 A2996 RMK CS6 SLP145

CYUL;2010-06-13 14:00;CYUL 131400Z 07009KT 15SM FEW065 FEW150 BKN190 OVC230 21/14 A2995 RMK SC1AC1AC2CS4 SLP143

CYUL;2010-06-13 15:00;CYUL 131500Z 07005KT 30SM FEW092 FEW150 SCT190 BKN240 23/15 A2994 RMK AC1AC1AC2CI2 SLP138

CYUL;2010-06-13 16:00;CYUL 131600Z 06009KT 30SM FEW036 FEW240 23/15 A2994 RMK CU1CI1 SLP138

CYUL;2010-06-13 17:00;CYUL 131700Z 06005KT 30SM FEW045 SCT240 25/14 A2993 RMK CU1CI1 TCU EMBD SLP135

CYUL;2010-06-13 18:00;CYUL 131800Z 06006KT 30SM FEW048 SCT240 25/14 A2990 RMK CU1CI1 TCU EMBD SLP126

CYUL;2010-06-13 19:00;CYUL 131900Z 04005KT 30SM FEW044 FEW058 SCT075 SCT240 25/14 A2989 RMK CU1SC1AC1CI1 TCU EMBD SLP122

CYUL;2010-06-13 20:00;CYUL 132000Z 04002KT 30SM FEW058 FEW075 SCT240 25/14 A2988 RMK SC1AC1CI1 CU ASOCTD SLP118

CYUL;2010-06-13 21:00;CYUL 132100Z 09002KT 30SM FEW060 SCT085 BKN240 26/14 A2986 RMK SC1AC1CI1 CU ASOCTD SLP113

CYUL;2010-06-13 22:00;CYUL 132200Z 04002KT 30SM FEW055 FEW075 SCT180 BKN240 25/14 A2986 RMK SC1AC1AC2CI2 SLP111

CYUL;2010-06-13 23:00;CYUL 132300Z 00000KT 30SM FEW062 FEW150 SCT190 BKN240 25/14 A2985 RMK SC1AC1AC1CI2 SLP110

CYUL;2010-06-14 00:00;CYUL 140000Z 03008KT 15SM FEW062 SCT170 BKN240 24/13 A2986 RMK SC1AC2CI2 SLP112

CYUL;2010-06-14 01:00;CYUL 140100Z 06004KT 15SM SCT085 OVC240 24/12 A2987 RMK AC2CS4 SLP116

CYUL;2010-06-14 02:00;CYUL 140200Z 08002KT 15SM BKN075 23/11 A2988 RMK AC2 SLP117

CYUL;2010-06-14 03:00;CYUL 140300Z 10002KT 15SM BKN070 22/11 A2987 RMK AC2 SLP114

CYUL;2010-06-14 04:00;CYUL 140400Z 00000KT 15SM SCT065 BKN100 18/12 A2987 RMK SC2AC2 SLP115

CYUL;2010-06-14 05:00;CYUL 140500Z 00000KT 15SM BKN070 19/13 A2986 RMK AC4 SLP112

CYUL;2010-06-14 06:00;CYUL 140600Z 23002KT 15SM OVC085 20/14 A2985 RMK AC5 SLP110

CYUL;2010-06-14 07:00;CYUL 140700Z 25003KT 15SM SCT070 OVC230 19/15 A2984 RMK AC2CS6 SLP106

CYUL;2010-06-14 08:00;CYUL 140800Z 34002KT 15SM BKN065 BKN090 OVC220 18/16 A2983 RMK SC5AC2CS2 SLP100

CYUL;2010-06-14 09:00;CYUL 140900Z 34002KT 15SM SCT065 OVC090 18/15 A2982 RMK SC3AC5 SLP097

CYUL;2010-06-14 10:00;CYUL 141000Z 00000KT 15SM BKN055 OVC085 19/15 A2983 RMK SC5AC3 SLP100

CYUL;2010-06-14 11:00;CYUL 141100Z 23003KT 15SM FEW055 SCT090 OVC120 19/16 A2982 RMK SC2AC2AC4 SLP098

CYUL;2010-06-14 11:22;CYUL 141122Z 23007KT 15SM -SHRA SCT055 BKN090 OVC120 19/ RMK SC4AC2AC2

CYUL;2010-06-14 12:00;CYUL 141200Z 25004KT 12SM -RA SCT060 OVC110 19/17 A2982 RMK SC3AC5 SLP098

CYUL;2010-06-14 13:00;CYUL 141300Z 32002KT 12SM -RA OVC048 19/16 A2983 RMK SC8 SLP103

CYUL;2010-06-14 14:00;CYUL 141400Z 03011G18KT 12SM -RA FEW030 OVC048 16/13 A2987 RMK SC2SC6 SLP115

CYUL;2010-06-14 15:00;CYUL 141500Z 03011KT 15SM -RA FEW032 OVC050 16/12 A2988 RMK SC2SC6 VRY LGT RA SLP120

CYUL;2010-06-14 16:00;CYUL 141600Z 04014G20KT 15SM -RA FEW030 OVC046 15/11 A2991 RMK SC1SC7 SLP128

CYUL;2010-06-14 16:32;CYUL 141632Z 02013KT 10SM -RA BKN014 OVC042 14/ RMK SF3SC5

CYUL;2010-06-14 16:41;CYUL 141641Z 03014KT 12SM -RA SCT014 OVC042 13/ RMK SF2SC6

CYUL;2010-06-14 16:53;CYUL 141653Z 03011KT 10SM -RA SCT007 BKN013 OVC036 13/ RMK SF2SF3SC2

CYUL;2010-06-14 17:00;CYUL 141700Z 03010KT 6SM -RA BR BKN006 BKN012 OVC022 13/12 A2992 RMK SF3SF4SC1 SLP132

CYUL;2010-06-14 17:23;CYUL 141723Z 01008KT 6SM -RA BR FEW007 SCT012 BKN019 OVC028 13/ RMK SF1SF2SC4SC2

CYUL;2010-06-14 18:00;CYUL 141800Z 02002KT 15SM -RA FEW018 SCT029 BKN048 OVC072 13/12 A2992 RMK SF1SC2SC2AC4 SLP132

CYUL;2010-06-14 19:00;CYUL 141900Z 25002KT 15SM -RA FEW021 BKN040 BKN090 15/13 A2992 RMK SC2SC2AC2 SLP132

CYUL;2010-06-14 19:39;CYUL 141939Z 23006KT 15SM BKN012 BKN040 BKN100 15/ RMK SF3SC2AC1

CYUL;2010-06-14 20:00;CYUL 142000Z 23005KT 15SM FEW014 SCT019 BKN032 BKN100 15/12 A2992 RMK SF1SC2SC2AC1 SLP131

CYUL;2010-06-14 21:00;CYUL 142100Z 25006KT 15SM FEW019 SCT028 BKN100 BKN240 17/12 A2992 RMK SF1SC2AC2CI1 SLP131

CYUL;2010-06-14 22:00;CYUL 142200Z 24008KT 30SM FEW024 FEW100 FEW240 17/12 A2990 RMK SF1AC1CI1 SLP124

CYUL;2010-06-14 23:00;CYUL 142300Z 24010KT 30SM FEW032 FEW240 18/13 A2989 RMK CU1CI1 SLP122

CYUL;2010-06-15 00:00;CYUL 150000Z 22010KT 15SM FEW065 FEW240 17/13 A2990 RMK SC1CI1 SLP125

CYUL;2010-06-15 01:00;CYUL 150100Z 23010KT 15SM FEW060 FEW240 16/13 A2991 RMK SC1CI1 SLP127

CYUL;2010-06-15 02:00;CYUL 150200Z 24008KT 15SM FEW060 FEW240 16/13 A2991 RMK SC1CI1 SLP130

CYUL;2010-06-15 03:00;CYUL 150300Z 25007KT 15SM SKC 15/12 A2993 RMK SLP135

CYUL;2010-06-15 04:00;CYUL 150400Z 26011KT 15SM FEW060 15/13 A2993 RMK SC1 SLP137

CYUL;2010-06-15 05:00;CYUL 150500Z 26005KT 15SM FEW060 14/12 A2995 RMK SC1 SLP143

CYUL;2010-06-15 06:00;CYUL 150600Z 25002KT 15SM SKC 13/12 A2997 RMK SLP149

CYUL;2010-06-15 07:00;CYUL 150700Z 36004KT 15SM SKC 13/11 A3000 RMK SLP161

CYUL;2010-06-15 08:00;CYUL 150800Z 03010KT 15SM SKC 13/08 A3003 RMK SLP170

CYUL;2010-06-15 09:00;CYUL 150900Z 05011KT 15SM SKC 12/04 A3005 RMK SLP178

CYUL;2010-06-15 10:00;CYUL 151000Z 02009KT 15SM SKC 11/04 A3007 RMK SLP184

CYUL;2010-06-15 11:00;CYUL 151100Z 02008KT 15SM SKC 14/04 A3010 RMK SLP195

CYUL;2010-06-15 12:00;CYUL 151200Z 03013KT 15SM FEW240 15/02 A3014 RMK CI1 SLP206

CYUL;2010-06-15 13:00;CYUL 151300Z 04007KT 15SM FEW240 16/03 A3015 RMK CI1 SLP209

CYUL;2010-06-15 14:00;CYUL 151400Z 03011KT 30SM FEW240 17/M00 A3015 RMK CI1 SLP212

CYUL;2010-06-15 15:00;CYUL 151500Z 03007KT 30SM FEW240 17/02 A3016 RMK CI1 SLP213

CYUL;2010-06-15 16:00;CYUL 151600Z 04006KT 30SM FEW180 FEW240 18/04 A3017 RMK AC1CI1 SLP217

CYUL;2010-06-15 17:00;CYUL 151700Z 07004KT 30SM BKN240 19/02 A3017 RMK CI1 SLP216

CYUL;2010-06-15 18:00;CYUL 151800Z 16004KT 30SM FEW180 BKN240 20/02 A3016 RMK AC1CI1 SLP214

CYUL;2010-06-15 19:00;CYUL 151900Z 22010KT 30SM FEW150 BKN240 20/04 A3015 RMK AC1CI2 SLP210

CYUL;2010-06-15 20:00;CYUL 152000Z 23010KT 30SM BKN240 21/03 A3015 RMK CI2 SLP209

CYUL;2010-06-15 21:00;CYUL 152100Z 20006KT 30SM BKN240 21/04 A3014 RMK CI1 SLP206

CYUL;2010-06-15 22:00;CYUL 152200Z 21007KT 30SM BKN240 21/05 A3013 RMK CI1 SLP205

CYUL;2010-06-15 23:00;CYUL 152300Z 19005KT 30SM FEW180 SCT240 21/05 A3014 RMK AC1CI1 SLP206

CYUL;2010-06-16 00:00;CYUL 160000Z 22006KT 30SM SCT240 20/05 A3013 RMK CI1 SLP203

CYUL;2010-06-16 01:00;CYUL 160100Z 19004KT 15SM SCT240 19/05 A3012 RMK CI1 SLP200

CYUL;2010-06-16 02:00;CYUL 160200Z 19005KT 15SM BKN240 17/07 A3013 RMK CI2 SLP204

CYUL;2010-06-16 03:00;CYUL 160300Z 21004KT 15SM BKN240 17/06 A3014 RMK CI2 SLP206

CYUL;2010-06-16 04:00;CYUL 160400Z 19003KT 15SM BKN240 15/06 A3014 RMK CI2 SLP206

CYUL;2010-06-16 05:00;CYUL 160500Z 18002KT 15SM BKN240 15/06 A3015 RMK CI2 SLP210

CYUL;2010-06-16 06:00;CYUL 160600Z 17003KT 15SM BKN240 15/05 A3014 RMK CI4 SLP208

CYUL;2010-06-16 07:00;CYUL 160700Z 13002KT 15SM BKN240 14/05 A3014 RMK CI5 SLP206

CYUL;2010-06-16 08:00;CYUL 160800Z 10002KT 15SM BKN240 15/05 A3013 RMK CI5 SLP205

CYUL;2010-06-16 09:00;CYUL 160900Z 14002KT 15SM BKN240 14/05 A3014 RMK CI5 SLP206

CYUL;2010-06-16 10:00;CYUL 161000Z 11003KT 15SM OVC240 14/06 A3012 RMK CI5 SLP200

CYUL;2010-06-16 11:00;CYUL 161100Z 14006KT 15SM BKN210 OVC240 14/08 A3012 RMK CI5CI2 SLP201

CYUL;2010-06-16 12:00;CYUL 161200Z 12004KT 15SM SCT210 BKN240 16/08 A3011 RMK CI2CI3 SLP196

CYUL;2010-06-16 13:00;CYUL 161300Z 13009KT 15SM BKN210 OVC240 17/09 A3009 RMK CS6CI2 SLP189

CYUL;2010-06-16 14:00;CYUL 161400Z 09008KT 15SM BKN160 OVC240 17/07 A3006 RMK AS6CS2 SLP180

CYUL;2010-06-16 15:00;CYUL 161500Z 09007KT 15SM BKN160 OVC240 18/08 A3003 RMK AS6CS2 SLP171

CYUL;2010-06-16 16:00;CYUL 161600Z 13011G16KT 15SM BKN140 OVC220 19/07 A3000 RMK AC6CS2 SLP161

CYUL;2010-06-16 17:00;CYUL 161700Z 13010G15KT 15SM -SHRA FEW042 SCT090 BKN120 OVC160 19/08 A2997 RMK SC1AC2AC5AC1 VRY LGT RA SLP151

CYUL;2010-06-16 17:34;CYUL 161734Z 13012KT 15SM SCT055 BKN120 OVC210 19/ RMK SC3AC3CS2

CYUL;2010-06-16 17:51;CYUL 161751Z 13012KT 15SM -RA SCT055 BKN100 OVC200 19/ RMK SC3AC3CS2 -RA INTMT

CYUL;2010-06-16 18:00;CYUL 161800Z 13012KT 15SM -RA FEW055 BKN100 OVC200 19/09 A2994 RMK SC2AC5CS2 SLP138

CYUL;2010-06-16 18:52;CYUL 161852Z 14015KT 15SM FEW062 BKN095 BKN210 20/ RMK SC1AC6CS1

CYUL;2010-06-16 19:00;CYUL 161900Z 14016KT 15SM FEW065 BKN090 OVC210 20/11 A2990 RMK SC1AC6CS1 SLP124

CYUL;2010-06-16 20:00;CYUL 162000Z 15011G18KT 15SM BKN075 OVC120 18/12 A2987 RMK AC6AC2 SLP116

CYUL;2010-06-16 20:21;CYUL 162021Z 14009KT 15SM -RA BKN072 OVC120 18/ RMK AC6AC2

CYUL;2010-06-16 21:00;CYUL 162100Z 11008KT 15SM -RA BKN068 BKN100 OVC130 17/13 A2983 RMK AC3AC4AC1 SLP103

CYUL;2010-06-16 22:00;CYUL 162200Z 14011G16KT 8SM -RA SCT020 BKN036 OVC056 16/14 A2981 RMK SC3SC3SC2 SLP096

CYUL;2010-06-16 22:22;CYUL 162222Z CCA 13010KT 3SM -RA BR BKN005 OVC029 15/ RMK SF6SC2 PIREP

CYUL;2010-06-16 22:39;CYUL 162239Z 13011KT 4SM -RA BR SCT007 BKN018 OVC036 15/ RMK SF3SC3SC2

CYUL;2010-06-16 23:00;CYUL 162300Z 13011G16KT 4SM -RA BR SCT008 BKN017 OVC028 15/14 A2978 RERA RMK SF2SC4SC2 /R10/ SLP086

CYUL;2010-06-17 00:00;CYUL 170000Z 12010KT 5SM -RA BR FEW012 BKN020 OVC028 15/14 A2977 RMK SF2SC5SC2 SLP080

CYUL;2010-06-17 00:19;CYUL 170019Z 11009G15KT 3SM -RA BR SCT008 BKN016 OVC025 15/ RMK SF2SC4SC2

CYUL;2010-06-17 00:28;CYUL 170028Z 10010KT 2SM -RA BR SCT008 BKN016 OVC023 15/ RMK SF2SC4SC2

CYUL;2010-06-17 00:35;CYUL 170035Z 11010KT 4SM -RA BR FEW009 BKN019 OVC027 15/ RMK SF2SC5SC2

CYUL;2010-06-17 00:48;CYUL 170048Z 10010KT 8SM -DZ FEW012 BKN020 OVC029 15/ RMK SF2SC5SC2

CYUL;2010-06-17 01:00;CYUL 170100Z 11010KT 6SM -DZ BR FEW008 OVC019 16/15 A2974 RMK SF2SC6 SLP071

CYUL;2010-06-17 01:22;CYUL 170122Z 11011KT 4SM -RA BR SCT010 OVC019 16/ RMK SF2SC6

CYUL;2010-06-17 02:00;CYUL 170200Z 09006KT 5SM -RA BR FEW007 OVC018 15/15 A2973 RMK SF2SC6 SLP067

CYUL;2010-06-17 02:11;CYUL 170211Z 08007KT 4SM -RA BR FEW005 BKN011 OVC018 16/ RMK SF2SF4SC2

CYUL;2010-06-17 02:18;CYUL 170218Z 07006KT 2 1/2SM -RA BR FEW005 BKN008 OVC016 16/ RMK SF2SF5SC2

CYUL;2010-06-17 03:00;CYUL 170300Z 02006KT 2 1/2SM R06L/4500VP6000FT/U RA BR BKN005 OVC012 15/15 A2972 RMK SF6SC2 /R15/ SLP064

CYUL;2010-06-17 03:05;CYUL 170305Z 01005KT 3SM -RA BR FEW002 OVC006 15/ RERA RMK SF2SF6

CYUL;2010-06-17 03:38;CYUL 170338Z 05008KT 5SM -RA BR FEW004 SCT010 OVC025 16/ RERA RMK SF1SF2SC5

CYUL;2010-06-17 04:00;CYUL 170400Z 04005KT 5SM BR FEW004 BKN011 OVC027 16/15 A2970 RERA RMK SF1SF4SC3 SLP058

CYUL;2010-06-17 04:15;CYUL 170415Z 02008KT 5SM BR FEW004 BKN008 OVC018 16/ RMK SF2SF6SC1

CYUL;2010-06-17 04:32;CYUL 170432Z 03010KT 5SM -DZ BR FEW003 OVC006 15/ RMK SF2SF6

CYUL;2010-06-17 05:00;CYUL 170500Z 03008KT 5SM -RA BR OVC005 15/15 A2969 RMK SF8 SLP053

CYUL;2010-06-17 06:00;CYUL 170600Z 04006KT 5SM -RA BR BKN005 OVC010 15/14 A2967 RMK SF6SF2 SLP047

CYUL;2010-06-17 07:00;CYUL 170700Z 04007KT 4SM -RA BR OVC005 15/15 A2968 RMK SF8 SLP051

CYUL;2010-06-17 08:00;CYUL 170800Z 01009KT 4SM -DZ BR BKN005 OVC010 15/14 A2969 RMK SF6SF2 SLP054

CYUL;2010-06-17 09:00;CYUL 170900Z 02010KT 4SM -RADZ BR BKN005 OVC009 15/14 A2970 RMK SF6SF2 SLP059

CYUL;2010-06-17 09:43;CYUL 170943Z 02011KT 2SM -RA BR OVC005 15/ RMK SF8

CYUL;2010-06-17 10:00;CYUL 171000Z 02017KT 1 1/2SM -RA BR BKN005 OVC009 14/14 A2973 RMK SF6SF2 SLP069

CYUL;2010-06-17 10:26;CYUL 171026Z 02013KT 3SM -RA BR BKN005 OVC011 14/ RMK SF6SF2

CYUL;2010-06-17 10:45;CYUL 171045Z 02014KT 6SM BR SCT005 BKN011 OVC025 15/ RMK SF3SF3SC2

CYUL;2010-06-17 11:00;CYUL 171100Z 02011KT 10SM FEW007 BKN015 OVC025 15/13 A2977 RMK SF2SC2SC3 SLP082

CYUL;2010-06-17 12:00;CYUL 171200Z 01015KT 10SM -SHRA FEW008 OVC035 15/12 A2981 RMK SF1SC7 SLP094

CYUL;2010-06-17 13:00;CYUL 171300Z 36011KT 15SM FEW020 OVC050 15/13 A2984 RMK SC2SC6 OCNL -SHRA SLP104

CYUL;2010-06-17 14:00;CYUL 171400Z 36009KT 15SM FEW040 OVC065 17/13 A2985 RMK SC2SC6 SLP109

CYUL;2010-06-17 15:00;CYUL 171500Z 01011KT 15SM FEW055 BKN120 19/14 A2986 RMK CU1AC1 SLP113

CYUL;2010-06-17 16:00;CYUL 171600Z 36014KT 15SM FEW040 FEW150 21/14 A2989 RMK CU1AC1 SLP121

CYUL;2010-06-17 17:00;CYUL 171700Z 04008KT 12SM FEW045 23/14 A2989 RMK CU2 SLP121

CYUL;2010-06-17 18:00;CYUL 171800Z 01003KT 12SM FEW050 24/14 A2989 RMK CU2 SLP121

CYUL;2010-06-17 19:00;CYUL 171900Z 03004KT 12SM SCT060 25/14 A2988 RMK CU3 SLP118

CYUL;2010-06-17 20:00;CYUL 172000Z 23007KT 12SM FEW060 25/15 A2988 RMK CU2 SLP120

CYUL;2010-06-17 21:00;CYUL 172100Z 21009KT 15SM FEW065 26/13 A2989 RMK CU1 SLP123

CYUL;2010-06-17 22:00;CYUL 172200Z 23010KT 15SM FEW065 25/15 A2989 RMK CU1 SLP122

CYUL;2010-06-17 23:00;CYUL 172300Z 23011KT 15SM SKC 25/15 A2990 RMK SLP126

CYUL;2010-06-18 00:00;CYUL 180000Z 23008KT 15SM SKC 24/16 A2991 RMK SLP130

CYUL;2010-06-18 01:00;CYUL 180100Z 24008KT 15SM SKC 23/15 A2992 RMK SLP132

CYUL;2010-06-18 02:00;CYUL 180200Z 24005KT 15SM FEW240 22/15 A2993 RMK CI1 SLP137

CYUL;2010-06-18 03:00;CYUL 180300Z 24006KT 15SM SKC 21/15 A2994 RMK SLP140

CYUL;2010-06-18 04:00;CYUL 180400Z 25007KT 15SM SKC 20/14 A2995 RMK SLP142

CYUL;2010-06-18 05:00;CYUL 180500Z 22007KT 15SM SKC 19/15 A2996 RMK SLP144

CYUL;2010-06-18 06:00;CYUL 180600Z 25006KT 15SM SKC 18/14 A2996 RMK SLP145

CYUL;2010-06-18 07:00;CYUL 180700Z 23008KT 15SM SKC 18/14 A2996 RMK SLP147

CYUL;2010-06-18 08:00;CYUL 180800Z 24008KT 15SM FEW240 17/14 A2998 RMK CI1 SLP151

CYUL;2010-06-18 09:00;CYUL 180900Z 23008KT 15SM SCT240 16/14 A2999 RMK CI2 SLP156

CYUL;2010-06-18 10:00;CYUL 181000Z 23010KT 15SM BKN240 16/13 A3000 RMK CI2 SLP160

CYUL;2010-06-18 11:00;CYUL 181100Z 23010KT 15SM BKN240 17/13 A3002 RMK CI2 SLP165

CYUL;2010-06-18 12:00;CYUL 181200Z 23011KT 15SM BKN240 18/14 A3004 RMK CI2 SLP172

CYUL;2010-06-18 13:00;CYUL 181300Z 22012KT 15SM SCT240 19/14 A3003 RMK CI1 SLP170

CYUL;2010-06-18 14:00;CYUL 181400Z 22014KT 15SM FEW180 FEW240 20/15 A3003 RMK AC1CI0 SLP168

CYUL;2010-06-18 15:00;CYUL 181500Z 22015KT 15SM FEW180 FEW240 22/15 A3001 RMK AC1CI0 SLP164

CYUL;2010-06-18 16:00;CYUL 181600Z 22012KT 15SM FEW180 SCT240 24/15 A3001 RMK AC1CI0 SLP163

CYUL;2010-06-18 17:00;CYUL 181700Z 23009KT 15SM FEW180 FEW240 26/16 A3000 RMK AC1CI0 SLP160

CYUL;2010-06-18 18:00;CYUL 181800Z 26013KT 15SM FEW240 27/16 A2999 RMK CI0 SLP157

CYUL;2010-06-18 19:00;CYUL 181900Z 26015KT 15SM BKN230 28/13 A2998 RMK CI2 SLP153

CYUL;2010-06-18 20:00;CYUL 182000Z 24012G18KT 15SM BKN210 27/13 A2998 RMK CI2 SLP152

CYUL;2010-06-18 21:00;CYUL 182100Z 22015KT 15SM BKN210 27/15 A2998 RMK CI2 SLP151

CYUL;2010-06-18 22:00;CYUL 182200Z 25014G19KT 15SM SCT210 27/14 A2997 RMK CI1 SLP150

CYUL;2010-06-18 23:00;CYUL 182300Z 23011KT 15SM FEW210 26/14 A2997 RMK CI0 SLP148

CYUL;2010-06-19 00:00;CYUL 190000Z 25009KT 15SM SCT210 25/13 A2997 RMK CI0 SLP149

CYUL;2010-06-19 01:00;CYUL 190100Z 25006KT 15SM FEW210 24/13 A2996 RMK CI0 SLP147

CYUL;2010-06-19 02:00;CYUL 190200Z 22007KT 15SM FEW210 22/14 A2997 RMK CI0 SLP150

CYUL;2010-06-19 03:00;CYUL 190300Z 21009KT 15SM FEW240 22/14 A2996 RMK CI0 SLP144

CYUL;2010-06-19 04:00;CYUL 190400Z 21008KT 15SM FEW240 21/14 A2996 RMK CI0 SLP144

CYUL;2010-06-19 05:00;CYUL 190500Z 21010KT 15SM FEW240 20/13 A2996 RMK CI0 SLP144

CYUL;2010-06-19 06:00;CYUL 190600Z 22006KT 15SM FEW240 20/13 A2996 RMK CI1 SLP144

CYUL;2010-06-19 07:00;CYUL 190700Z 21003KT 15SM SCT180 19/13 A2996 RMK AC4 SLP144

CYUL;2010-06-19 08:00;CYUL 190800Z 00000KT 15SM SCT180 19/13 A2994 RMK AC3 SLP138

CYUL;2010-06-19 09:00;CYUL 190900Z 13002KT 15SM SCT160 18/14 A2994 RMK AC2 SLP140

CYUL;2010-06-19 10:00;CYUL 191000Z 14004KT 15SM FEW160 SCT210 18/14 A2994 RMK AC2CI0 SLP139

CYUL;2010-06-19 11:00;CYUL 191100Z 15003KT 15SM FEW150 FEW210 20/15 A2994 RMK AC1CI1 SLP140

CYUL;2010-06-19 12:00;CYUL 191200Z 19004KT 15SM FEW050 FEW150 SCT240 21/15 A2994 RMK SC1AC1CI0 SLP139

CYUL;2010-06-19 13:00;CYUL 191300Z 19004KT 15SM SCT240 23/16 A2993 RMK CI1 SLP136

CYUL;2010-06-19 14:00;CYUL 191400Z 17004KT 15SM BKN210 25/17 A2991 RMK CI2 SLP129

CYUL;2010-06-19 15:00;CYUL 191500Z 14007KT 15SM FEW180 BKN230 26/18 A2990 RMK AC1CI0 SLP125

CYUL;2010-06-19 16:00;CYUL 191600Z 16005KT 15SM SCT060 BKN180 BKN230 27/18 A2989 RMK SC3AC1CI0 SLP121

CYUL;2010-06-19 17:00;CYUL 191700Z 18008KT 15SM FEW065 SCT150 BKN220 29/18 A2986 RMK SC2AC2CI0 SLP111

CYUL;2010-06-19 18:00;CYUL 191800Z 18005KT 15SM OVC065 28/18 A2984 RMK SC8 SLP104

CYUL;2010-06-19 19:00;CYUL 191900Z 16009KT 15SM -SHRA BKN070 OVC120 27/19 A2982 RMK AC6AC2 SLP099

CYUL;2010-06-19 19:16;CYUL 191916Z 22009KT 6SM -SHRA BKN025 OVC040 26/ RMK SC6SC2 VIS SW W 2

CYUL;2010-06-19 19:20;CYUL 191920Z 25014KT 2SM -SHRA BKN025 OVC035 25/ RMK SC6SC2

CYUL;2010-06-19 19:34;CYUL 191934Z 29011KT 4SM -SHRA BKN035 OVC060 22/ RMK SC6SC2 RERA

CYUL;2010-06-19 19:40;CYUL 191940Z 31006G15KT 2SM SHRA BKN014 OVC060 22/ RMK SF6SC2

CYUL;2010-06-19 19:43;CYUL 191943Z 30009KT 3SM -SHRA BKN015 OVC040 22/ RMK SF6SC2 RERA

CYUL;2010-06-19 20:00;CYUL 192000Z CCA 28005KT 2 1/2SM -SHRA BKN022 OVC045 21/19 A2987 RMK SC6SC2 RERA /R10/ SLP114

CYUL;2010-06-19 20:11;CYUL 192011Z 27003KT 3SM -SHRA BKN021 OVC044 21/ RMK SC6SC2

CYUL;2010-06-19 20:48;CYUL 192048Z 05002KT 8SM SCT045 OVC055 22/ RMK SC3SC5

CYUL;2010-06-19 21:00;CYUL 192100Z 08002KT 12SM BKN055 OVC120 22/20 A2983 RMK SC5AC3 SLP102

CYUL;2010-06-19 22:00;CYUL 192200Z 18007KT 15SM FEW055 BKN100 23/20 A2981 RMK SC2AC2 SLP095

CYUL;2010-06-19 23:00;CYUL 192300Z 18006KT 15SM FEW055 SCT110 23/21 A2979 RMK CU1AC2 SLP087

CYUL;2010-06-20 00:00;CYUL 200000Z 19009KT 12SM BKN140 23/21 A2979 RMK AC5 SLP088

CYUL;2010-06-20 01:00;CYUL 200100Z 22007KT 12SM BKN150 OVC180 23/20 A2978 RMK AC6AC2 SLP085

CYUL;2010-06-20 01:12;CYUL 200112Z 23006KT 12SM -SHRA BKN140 OVC180 23/ RMK AC6AC2

CYUL;2010-06-20 01:43;CYUL 200143Z 23006KT 12SM BKN140 OVC180 24/ RMK AC6AC2

CYUL;2010-06-20 01:50;CYUL 200150Z 23008KT 15SM -SHRA BKN130 OVC180 24/ RMK AC6AC2

CYUL;2010-06-20 02:00;CYUL 200200Z 22009KT 15SM -SHRA BKN130 BKN180 24/18 A2979 RMK AC6AC1 VRY LGT RA SLP088

CYUL;2010-06-20 02:22;CYUL 200222Z 23009KT 15SM BKN130 BKN180 24/ RMK AC5AC2

CYUL;2010-06-20 03:00;CYUL 200300Z 23005KT 15SM SCT130 BKN180 23/18 A2977 RMK AC2AC2 SLP083

CYUL;2010-06-20 04:00;CYUL 200400Z 25006KT 15SM FEW130 SCT180 23/18 A2978 RMK AC1AC1 SLP085

CYUL;2010-06-20 05:00;CYUL 200500Z 24009KT 15SM SCT110 SCT170 22/18 A2978 RMK AC2AC1 SLP084

CYUL;2010-06-20 06:00;CYUL 200600Z 24007KT 15SM SCT110 22/18 A2978 RMK AC2 SLP084

CYUL;2010-06-20 07:00;CYUL 200700Z 24005KT 15SM BKN140 BKN210 22/18 A2977 RMK AC3CI1 SLP082

CYUL;2010-06-20 08:00;CYUL 200800Z 25004KT 15SM SCT120 BKN170 21/18 A2976 RMK AC2AC1 SLP079

CYUL;2010-06-20 09:00;CYUL 200900Z 23008KT 15SM BKN090 BKN140 21/18 A2977 RMK AC5AC2 SLP082

CYUL;2010-06-20 10:00;CYUL 201000Z CCA 23009KT 15SM -RA FEW055 BKN080 BKN130 21/19 A2978 RMK SC1AC3AC3 VRY LGT RA SLP084

CYUL;2010-06-20 11:00;CYUL 201100Z 26008KT 15SM -RA FEW036 BKN120 21/19 A2979 RMK SC1AC4 ACC NW SLP087

CYUL;2010-06-20 11:20;CYUL 201120Z 25009KT 15SM FEW036 SCT120 SCT240 21/ RMK SC1AC1CI1 ACC ASOCTD

CYUL;2010-06-20 12:00;CYUL 201200Z CCA 28010G15KT 15SM FEW013 FEW120 SCT180 22/20 A2979 RMK SF1AC1AC1 SLP089

CYUL;2010-06-20 13:00;CYUL 201300Z 29009KT 15SM SCT012 BKN070 22/19 A2980 RMK SF2AC2 SLP092

CYUL;2010-06-20 14:00;CYUL 201400Z 27007KT 15SM FEW025TCU BKN090 24/20 A2980 RMK TCU2ACC2 SLP091

CYUL;2010-06-20 15:00;CYUL 201500Z 28007KT 15SM FEW033 BKN120 25/19 A2980 RMK CU2ACC2 TCU ASOCT SLP090

CYUL;2010-06-20 16:00;CYUL 201600Z 30011KT 15SM SCT035 BKN120 26/18 A2980 RMK CU4AC1 TCU ASOCT SLP092

CYUL;2010-06-20 17:00;CYUL 201700Z 34012KT 15SM BKN038TCU BKN090 25/18 A2981 RMK TCU6ACC1 SLP094

CYUL;2010-06-20 18:00;CYUL 201800Z 32007KT 15SM BKN045TCU BKN090 26/18 A2981 RMK TCU5ACC1 SLP094

CYUL;2010-06-20 19:00;CYUL 201900Z 29011G16KT 15SM SCT050 SCT090 27/17 A2980 RMK CU4AC1 TCU ASOCT SLP093

CYUL;2010-06-20 20:00;CYUL 202000Z 29010G17KT 15SM SCT050 SCT120 27/17 A2981 RMK CU4AC1 TCU ASOCT SLP095

CYUL;2010-06-20 21:00;CYUL 202100Z 28010G15KT 15SM SCT055 27/16 A2981 RMK CU3 SLP095

CYUL;2010-06-20 22:00;CYUL 202200Z 27013KT 15SM FEW060 SCT120 27/15 A2982 RMK CU2AC1 SLP097

CYUL;2010-06-20 23:00;CYUL 202300Z 29010KT 15SM FEW060 FEW120 26/16 A2983 RMK CU2AC1 SLP102

CYUL;2010-06-21 00:00;CYUL 210000Z 31012KT 15SM FEW060 SCT120 25/15 A2985 RMK CU2AC1 SLP109

CYUL;2010-06-21 01:00;CYUL 210100Z 33007KT 15SM FEW060TCU FEW120 23/14 A2987 RMK TCU1AC1 SLP114

CYUL;2010-06-21 02:00;CYUL 210200Z 32008KT 15SM FEW090 22/14 A2989 RMK AC1 SLP122

CYUL;2010-06-21 03:00;CYUL 210300Z 33007KT 15SM FEW095 21/15 A2990 RMK AC1 SLP124

CYUL;2010-06-21 04:00;CYUL 210400Z 34006KT 15SM FEW095 20/14 A2991 RMK AC1 SLP127

CYUL;2010-06-21 05:00;CYUL 210500Z 31006KT 15SM BKN095 20/13 A2991 RMK AC4 SLP130

CYUL;2010-06-21 06:00;CYUL 210600Z 32007KT 15SM BKN095 19/13 A2992 RMK AC5 SLP131

CYUL;2010-06-21 07:00;CYUL 210700Z 31007KT 15SM FEW095 19/14 A2992 RMK AC1 SLP132

CYUL;2010-06-21 08:00;CYUL 210800Z 30004KT 15SM SKC 17/13 A2992 RMK SLP133

CYUL;2010-06-21 09:00;CYUL 210900Z 29005KT 15SM FEW100 FEW240 15/13 A2993 RMK AC1CI1 SLP137

CYUL;2010-06-21 10:00;CYUL 211000Z 24003KT 15SM FEW170 FEW240 17/13 A2996 RMK AC1CI1 SLP146

CYUL;2010-06-21 11:00;CYUL 211100Z 28003KT 30SM FEW240 18/13 A2999 RMK CI1 SLP155

CYUL;2010-06-21 12:00;CYUL 211200Z 29005KT 30SM FEW240 19/12 A3000 RMK CI1 SLP158

CYUL;2010-06-21 13:00;CYUL 211300Z 31004KT 30SM FEW240 20/12 A3001 RMK CI1 SLP163

CYUL;2010-06-21 14:00;CYUL 211400Z 27004KT 30SM SKC 21/12 A3000 RMK SLP160

CYUL;2010-06-21 15:00;CYUL 211500Z 27010KT 30SM FEW045 23/12 A3001 RMK CU1 SLP163

CYUL;2010-06-21 16:00;CYUL 211600Z 28006KT 30SM FEW060 23/10 A3001 RMK CU1 SLP161

CYUL;2010-06-21 17:00;CYUL 211700Z 29013KT 30SM FEW060 24/10 A3002 RMK CU1 SLP165

CYUL;2010-06-21 18:00;CYUL 211800Z 27010G18KT 30SM FEW060 24/09 A3001 RMK CF1 SLP162

CYUL;2010-06-21 19:00;CYUL 211900Z 25016KT 30SM FEW060 FEW240 25/09 A3003 RMK CF1CI0 SLP168

CYUL;2010-06-21 20:00;CYUL 212000Z 27015KT 30SM FEW240 25/08 A3002 RMK CI0 SLP167

CYUL;2010-06-21 21:00;CYUL 212100Z 28012KT 30SM FEW240 25/08 A3003 RMK CI0 SLP168

CYUL;2010-06-21 22:00;CYUL 212200Z 30009KT 30SM FEW230 25/08 A3004 RMK CI0 SLP172

CYUL;2010-06-21 23:00;CYUL 212300Z 33006KT 30SM BKN230 24/07 A3005 RMK CI0 SLP175

CYUL;2010-06-22 00:00;CYUL 220000Z 33004KT 30SM BKN220 23/08 A3004 RMK CI1 SLP174

CYUL;2010-06-22 01:00;CYUL 220100Z 30005KT 30SM FEW220 19/08 A3006 RMK CI0 SLP179

CYUL;2010-06-22 02:00;CYUL 220200Z 27004KT 15SM FEW240 19/08 A3008 RMK CI1 SLP185

CYUL;2010-06-22 03:00;CYUL 220300Z 29004KT 15SM SKC 18/09 A3009 RMK SLP188

CYUL;2010-06-22 04:00;CYUL 220400Z 24003KT 15SM FEW240 18/09 A3010 RMK CI0 SLP192

CYUL;2010-06-22 05:00;CYUL 220500Z 00000KT 15SM FEW240 18/11 A3010 RMK CI0 SLP192

CYUL;2010-06-22 06:00;CYUL 220600Z 29002KT 15SM SKC 15/11 A3009 RMK SLP191

CYUL;2010-06-22 07:00;CYUL 220700Z 30002KT 15SM SKC 15/10 A3010 RMK SLP193

CYUL;2010-06-22 08:00;CYUL 220800Z 24002KT 15SM FEW240 15/12 A3011 RMK CI1 SLP197

CYUL;2010-06-22 09:00;CYUL 220900Z 27004KT 15SM BKN240 15/11 A3012 RMK CI1 SLP201

CYUL;2010-06-22 10:00;CYUL 221000Z 25003KT 15SM SCT170 BKN240 16/13 A3012 RMK AC1CI2 SLP199

CYUL;2010-06-22 11:00;CYUL 221100Z 27002KT 30SM BKN240 18/14 A3013 RMK CI2 SLP204

CYUL;2010-06-22 12:00;CYUL 221200Z 00000KT 30SM FEW160 BKN240 20/15 A3012 RMK AC1CI2 SLP201

CYUL;2010-06-22 13:00;CYUL 221300Z 20002KT 30SM FEW180 BKN240 21/15 A3012 RMK AC0CI3 SLP200

CYUL;2010-06-22 14:00;CYUL 221400Z 19005KT 30SM FEW210 BKN240 21/15 A3013 RMK CI2CI2 SLP203

CYUL;2010-06-22 15:00;CYUL 221500Z 18004KT 30SM FEW210 BKN240 23/15 A3012 RMK CI1CI2 SLP200

CYUL;2010-06-22 16:00;CYUL 221600Z 20004KT 30SM FEW180 BKN240 25/13 A3009 RMK AC1CI2 SLP191

CYUL;2010-06-22 17:00;CYUL 221700Z 17005KT 30SM FEW180 BKN240 25/12 A3008 RMK AC1CI2 SLP185

CYUL;2010-06-22 18:00;CYUL 221800Z 15010KT 30SM FEW180 BKN220 26/09 A3005 RMK AC1CI2 SLP176

CYUL;2010-06-22 19:00;CYUL 221900Z 15009KT 30SM SCT180 BKN240 26/10 A3002 RMK AC4CI2 SLP167

CYUL;2010-06-22 20:00;CYUL 222000Z 16007KT 30SM FEW110 BKN180 OVC240 25/11 A3000 RMK AC1AC4CI2 SLP159

CYUL;2010-06-22 21:00;CYUL 222100Z 14010KT 30SM FEW120 BKN180 OVC220 25/11 A2998 RMK AC2AC4CI2 SLP151

CYUL;2010-06-22 22:00;CYUL 222200Z 15009KT 15SM BKN120 BKN180 OVC220 25/13 A2997 RMK AC5AC2CI2 SLP149

CYUL;2010-06-22 23:00;CYUL 222300Z 14011KT 15SM SCT065 BKN130 BKN180 OVC220 25/13 A2995 RMK SC3AC2AC2CI2 SLP143

CYUL;2010-06-22 23:48;CYUL 222348Z 14008KT 15SM -SHRA FEW065 BKN110 OVC210 24/ RMK SC2AC5CI2

CYUL;2010-06-23 00:00;CYUL 230000Z 14008KT 15SM -SHRA FEW065 BKN110 OVC180 24/14 A2995 RMK SC1AC5AC2 SLP141

CYUL;2010-06-23 01:00;CYUL 230100Z 15005KT 15SM -RA FEW060 OVC100 22/16 A2995 RMK SC2AC6 SLP141

CYUL;2010-06-23 02:00;CYUL 230200Z 13006KT 15SM -RA SCT062 OVC100 21/17 A2994 RMK SC2AC6 SLP138

CYUL;2010-06-23 03:00;CYUL 230300Z 12003KT 15SM -RA SCT062 OVC110 21/16 A2992 RMK SC3AC5 SLP132

CYUL;2010-06-23 03:38;CYUL 230338Z 13008KT 15SM BKN052 OVC100 20/ RMK SC5AC3

CYUL;2010-06-23 04:00;CYUL 230400Z 15008KT 15SM BKN050 OVC100 20/17 A2990 RMK SC6AC2 SLP126

CYUL;2010-06-23 05:00;CYUL 230500Z 13012KT 15SM FEW020 BKN040 OVC085 20/17 A2988 RMK SF1SC6AC2 SLP119

CYUL;2010-06-23 06:00;CYUL 230600Z 12011KT 15SM SCT013 BKN036 OVC058 20/17 A2987 RMK SF2SC5SC1 SLP114

CYUL;2010-06-23 06:15;CYUL 230615Z 12009KT 15SM -SHRA BKN014 BKN029 OVC048 20/ RMK SF3SC4SC1

CYUL;2010-06-23 06:38;CYUL 230638Z 12009KT 15SM -SHRA FEW013 BKN019 OVC032 19/ RMK SF2SC4SC2

CYUL;2010-06-23 07:00;CYUL 230700Z 12010KT 15SM -SHRA FEW019 BKN032 BKN062 OVC080 19/18 A2984 RMK SF2SC3SC2AC1 SLP105

CYUL;2010-06-23 08:00;CYUL 230800Z 09005KT 15SM SCT016 BKN028 OVC058 19/17 A2983 RMK SF2SC4SC2 SLP103

CYUL;2010-06-23 09:00;CYUL 230900Z 08005KT 15SM BKN016 OVC028 19/17 A2985 RMK SC6SC2 SLP108

CYUL;2010-06-23 09:32;CYUL 230932Z 06003KT 15SM BKN014 OVC028 20/ RMK SF6SC2

CYUL;2010-06-23 10:00;CYUL 231000Z 07003KT 15SM OVC013 20/17 A2985 RMK ST8 SLP108

CYUL;2010-06-23 11:00;CYUL 231100Z 00000KT 15SM OVC013 20/17 A2985 RMK ST8 SLP108

CYUL;2010-06-23 12:00;CYUL 231200Z 30002KT 15SM OVC014 20/17 A2989 RMK ST8 SLP122

CYUL;2010-06-23 13:00;CYUL 231300Z 29004KT 15SM OVC012 20/18 A2988 RMK ST8 SLP118

CYUL;2010-06-23 14:00;CYUL 231400Z 28005KT 15SM BKN010 OVC017 21/18 A2986 RMK ST6SC2 SLP113

CYUL;2010-06-23 14:42;CYUL 231442Z 28005KT 15SM SCT011 BKN016 OVC030 22/ RMK SF3SC3SC2

CYUL;2010-06-23 15:00;CYUL 231500Z 29009KT 15SM FEW011 BKN015 OVC025 22/18 A2987 RMK SF2SC5SC2 SLP116

CYUL;2010-06-23 16:00;CYUL 231600Z 27006KT 15SM BKN017 OVC030 23/18 A2986 RMK SC6SC2 SLP111

CYUL;2010-06-23 17:00;CYUL 231700Z 24013KT 15SM FEW012 BKN017 OVC028 21/18 A2988 RMK SC1SC6SC2 SLP118

CYUL;2010-06-23 18:00;CYUL 231800Z 25012KT 15SM BKN020 BKN035 BKN210 23/18 A2987 RMK SC5SC1CI1 CU ASOCTD SLP115

CYUL;2010-06-23 19:00;CYUL 231900Z 26010G15KT 15SM SCT025 BKN210 25/18 A2985 RMK CU3CI1 SLP107

CYUL;2010-06-23 20:00;CYUL 232000Z 27013G19KT 30SM FEW030 BKN220 26/18 A2983 RMK CU2CI2 SLP103

CYUL;2010-06-23 21:00;CYUL 232100Z 25014G19KT 30SM SCT035 BKN220 26/18 A2982 RMK CU3CI2 SLP099

CYUL;2010-06-23 22:00;CYUL 232200Z 26013KT 30SM FEW030 SCT037 BKN220 26/18 A2980 RMK CU1SC3CI2 SLP092

CYUL;2010-06-23 23:00;CYUL 232300Z 22010KT 15SM SCT035 BKN180 BKN240 25/19 A2979 RMK SC3AC2CI2 SLP089

CYUL;2010-06-24 00:00;CYUL 240000Z 23011KT 15SM BKN037 OVC210 25/19 A2979 RMK SC6CI1 SLP089

CYUL;2010-06-24 01:00;CYUL 240100Z 21008KT 15SM FEW035 BKN150 OVC210 24/19 A2977 RMK SC2AC4CI2 SLP081

CYUL;2010-06-24 02:00;CYUL 240200Z 21010KT 15SM FEW032 BKN140 OVC210 24/19 A2976 RMK SC2AC4CI2 SLP077

CYUL;2010-06-24 03:00;CYUL 240300Z 17005KT 15SM -SHRA SCT036 BKN120 OVC200 23/19 A2975 RMK SC2AC4CI1 SLP074

CYUL;2010-06-24 03:40;CYUL 240340Z 17007KT 15SM BKN058 OVC100 23/ RMK SC5AC3

CYUL;2010-06-24 03:47;CYUL 240347Z CCA 18006KT 15SM -RA BKN050 OVC085 23/ RMK SC5AC3 -RA INTMT

CYUL;2010-06-24 04:00;CYUL 240400Z 18007KT 15SM -RA BKN062 OVC095 23/19 A2972 RMK SC5AC3 SLP065

CYUL;2010-06-24 05:00;CYUL 240500Z 18006KT 15SM -RA FEW032 SCT062 OVC084 22/19 A2968 RMK SC1SC2AC5 SLP052

CYUL;2010-06-24 06:00;CYUL 240600Z 12003KT 6SM -RA SCT013 BKN030 OVC040 21/19 A2964 RERA RMK SF3SC4SC1 SLP036

CYUL;2010-06-24 07:00;CYUL 240700Z 22011G19KT 8SM -RA FEW015 OVC024 21/19 A2955 RERA RMK SF2SC6 PRESFR SLP007

CYUL;2010-06-24 07:10;CYUL 240710Z 19003G16KT 12SM -RA SCT007 OVC022 21/ RERA RMK SF2SC6 VRY LGT RA

CYUL;2010-06-24 08:00;CYUL 240800Z 22013KT 15SM FEW012 OVC019 22/20 A2955 RMK SF2SC6 SLP008

CYUL;2010-06-24 09:00;CYUL 240900Z 23017G22KT 12SM SCT016 OVC024 22/20 A2953 RMK SF3SC5 SLP998

CYUL;2010-06-24 10:00;CYUL 241000Z 26021G28KT 8SM -SHRA BKN016 OVC028 22/20 A2954 RMK SF5SC3 SLP004

CYUL;2010-06-24 11:00;CYUL 241100Z 29011G16KT 15SM -SHRA SCT019 OVC038 21/18 A2958 RMK SF3SC5 SLP017

CYUL;2010-06-24 12:00;CYUL 241200Z 27008KT 15SM FEW032 BKN044 OVC064 21/18 A2961 RMK SC2SC2SC4 SLP029

CYUL;2010-06-24 13:00;CYUL 241300Z 28008KT 15SM FEW025 SCT062 BKN085 OVC100 21/18 A2961 RMK SF1SC2AC3AC2 SLP028

CYUL;2010-06-24 14:00;CYUL 241400Z 27006KT 15SM -SHRA FEW020 BKN065 OVC150 22/18 A2962 RMK SC1SC5AC2 SLP031

CYUL;2010-06-24 15:00;CYUL 241500Z 28007KT 15SM -SHRA BKN016 BKN070 OVC130 22/18 A2962 RMK SC5AC2AC2 SLP031

CYUL;2010-06-24 16:00;CYUL 241600Z 27010KT 15SM BKN016 BKN030 OVC090 22/18 A2963 RMK SC6SC1AC2 SLP033

CYUL;2010-06-24 17:00;CYUL 241700Z 29005KT 15SM SCT018 BKN060 BKN090 23/18 A2963 RMK SC3SC2AC2 TCU EMBD SLP034

CYUL;2010-06-24 18:00;CYUL 241800Z 27008KT 15SM BKN022 BKN080 OVC120 24/18 A2962 RMK SC5AC2AC2 TCU EMBD SLP031

CYUL;2010-06-24 18:11;CYUL 241811Z 26011KT 10SM -SHRA BKN023 OVC090 23/ RMK SC6AC2 TCU EMBD

CYUL;2010-06-24 19:00;CYUL 241900Z 28008KT 8SM -SHRA BKN026 OVC060 22/18 A2964 RMK SC6SC2 SLP036

CYUL;2010-06-24 19:08;CYUL 241908Z 29014KT 3SM SHRA SCT010 BKN026 OVC040 21/ RMK SF3SC3SC2

CYUL;2010-06-24 19:17;CYUL 241917Z 27016KT 4SM SHRA BKN009 BKN022 OVC040 20/ RMK SF5SC2SC1

CYUL;2010-06-24 19:25;CYUL 241925Z 27013G19KT 6SM -SHRA SCT009 BKN025 OVC040 20/ RERA RMK SF3SC3SC2

CYUL;2010-06-24 20:00;CYUL 242000Z 29007KT 8SM -SHRA SCT009 OVC035 20/19 A2965 RERA RMK SF3SC5 SLP042

CYUL;2010-06-24 20:45;CYUL 242045Z 29008KT 15SM FEW009 FEW050 BKN100 20/ RMK SF1SC2AC4

CYUL;2010-06-24 21:00;CYUL 242100Z 30006KT 15SM FEW009 FEW050 BKN100 21/17 A2966 RMK SF1SC1AC4 SLP043

CYUL;2010-06-24 22:00;CYUL 242200Z 31009KT 15SM SCT025 SCT100 SCT210 22/17 A2970 RMK CU3AC1CI1 SLP057

CYUL;2010-06-24 23:00;CYUL 242300Z 27010KT 15SM FEW030 SCT240 22/16 A2972 RMK CF1CI0 SLP066

CYUL;2010-06-25 00:00;CYUL 250000Z 29011KT 15SM FEW030 FEW240 21/15 A2974 RMK SC1CI0 SLP071

CYUL;2010-06-25 01:00;CYUL 250100Z 28008KT 15SM FEW030 FEW240 19/14 A2977 RMK SC1CI0 SLP083

CYUL;2010-06-25 02:00;CYUL 250200Z 29006KT 15SM FEW240 17/14 A2982 RMK CI0 SLP099

CYUL;2010-06-25 03:00;CYUL 250300Z 28005KT 15SM SKC 16/13 A2983 RMK SLP103

CYUL;2010-06-25 04:00;CYUL 250400Z 26004KT 15SM SKC 17/14 A2986 RMK SLP112

CYUL;2010-06-25 05:00;CYUL 250500Z 22008KT 15SM SKC 17/14 A2988 RMK SLP120

CYUL;2010-06-25 06:00;CYUL 250600Z 24007KT 15SM SKC 16/13 A2990 RMK SLP124

CYUL;2010-06-25 07:00;CYUL 250700Z 24006KT 15SM SKC 15/13 A2990 RMK SLP124

CYUL;2010-06-25 08:00;CYUL 250800Z 24004KT 15SM SKC 15/12 A2991 RMK SLP127

CYUL;2010-06-25 09:00;CYUL 250900Z 19004KT 30SM FEW100 15/12 A2992 RMK AC1 SLP132

CYUL;2010-06-25 10:00;CYUL 251000Z 19003KT 30SM BKN100 14/12 A2996 RMK AC5 SLP147

CYUL;2010-06-25 11:00;CYUL 251100Z 25003KT 30SM BKN090 15/13 A2998 RMK AC6 SLP151

CYUL;2010-06-25 12:00;CYUL 251200Z 00000KT 30SM OVC085 17/14 A2998 RMK AC7 SLP151

CYUL;2010-06-25 13:00;CYUL 251300Z 04003KT 30SM BKN100 18/12 A2999 RMK AC7 SLP154

CYUL;2010-06-25 14:00;CYUL 251400Z 02004KT 30SM BKN080 BKN210 19/10 A2999 RMK AC6CI1 SLP154

CYUL;2010-06-25 14:50;CYUL 251450Z 04003KT 15SM -SHRA FEW035 BKN080 OVC120 19/ RMK CU1AC6AC1

CYUL;2010-06-25 15:00;CYUL 251500Z 05003KT 15SM -SHRA FEW035 OVC085 19/10 A3000 RMK CU1AC7 SLP159

CYUL;2010-06-25 15:35;CYUL 251535Z 05003KT 30SM FEW035 OVC080 19/ RMK CU1AC7

CYUL;2010-06-25 16:00;CYUL 251600Z 04002KT 30SM FEW035 OVC077 20/10 A3000 RMK CU1AC7 SLP161

CYUL;2010-06-25 17:00;CYUL 251700Z 25002KT 30SM FEW035 BKN075 20/11 A3001 RMK CU1AC7 SLP162

CYUL;2010-06-25 18:00;CYUL 251800Z 22004KT 30SM FEW035 OVC066 20/10 A2999 RMK CU1AC7 SLP156

CYUL;2010-06-25 18:20;CYUL 251820Z 22004KT 15SM -SHRA FEW035 BKN066 20/ RMK CU1AC7

CYUL;2010-06-25 19:00;CYUL 251900Z 24002KT 30SM FEW035 BKN062 21/11 A2997 RMK CU1SC6 SLP150

CYUL;2010-06-25 20:00;CYUL 252000Z 29005KT 15SM FEW040 BKN065 BKN090 21/13 A2997 RMK CU1SC5AC1 SLP148

CYUL;2010-06-25 21:00;CYUL 252100Z 30004KT 15SM FEW040 FEW065 BKN240 22/13 A2994 RMK CU1SC2CI2 SLP140

CYUL;2010-06-25 22:00;CYUL 252200Z 28007KT 15SM FEW040 FEW080 SCT150 BKN240 21/12 A2993 RMK CU1AC2AC2CI1 SLP137

CYUL;2010-06-25 23:00;CYUL 252300Z 27004KT 15SM FEW040 FEW080 FEW150 BKN240 21/13 A2993 RMK CU1AC1AC2CI2 SLP134

CYUL;2010-06-26 00:00;CYUL 260000Z 25006KT 15SM FEW040 FEW120 BKN240 21/12 A2993 RMK CU1AC1CI2 SLP134

CYUL;2010-06-26 01:00;CYUL 260100Z 26006KT 15SM FEW150 SCT240 20/12 A2993 RMK AC1CI1 SLP134

CYUL;2010-06-26 02:00;CYUL 260200Z 25003KT 15SM FEW180 FEW240 19/12 A2993 RMK AC1CI0 SLP137

CYUL;2010-06-26 03:00;CYUL 260300Z 25003KT 15SM BKN210 19/12 A2992 RMK CS5 SLP133

CYUL;2010-06-26 04:00;CYUL 260400Z 22005KT 15SM BKN180 BKN240 19/12 A2991 RMK AC5CI0 SLP128

CYUL;2010-06-26 05:00;CYUL 260500Z 24002KT 15SM BKN110 OVC170 19/14 A2990 RMK AC6AC2 SLP124

CYUL;2010-06-26 06:00;CYUL 260600Z 23010KT 15SM OVC110 19/14 A2989 RMK AC8 SLP122

CYUL;2010-06-26 07:00;CYUL 260700Z 25005KT 15SM BKN090 OVC100 18/15 A2990 RMK AC6AC2 SLP126

CYUL;2010-06-26 08:00;CYUL 260800Z 26007KT 15SM BKN090 OVC140 18/15 A2988 RMK AC6AC2 SLP119

CYUL;2010-06-26 09:00;CYUL 260900Z 26006KT 12SM BKN063 OVC090 18/15 A2988 RMK SC6AC2 SLP118

CYUL;2010-06-26 10:00;CYUL 261000Z 24005KT 10SM BKN060 OVC100 17/15 A2988 RMK SC6AC2 SLP117

CYUL;2010-06-26 11:00;CYUL 261100Z 24006KT 10SM FEW010 BKN050 OVC120 18/16 A2988 RMK SF2SC2AC3 SLP118

CYUL;2010-06-26 11:48;CYUL 261148Z 25008KT 10SM -SHRA FEW011 BKN055 OVC100 18/ RMK SF2SC3AC2

CYUL;2010-06-26 12:00;CYUL 261200Z 19008KT 10SM FEW011 SCT055 OVC100 18/15 A2989 RMK SF2SC2AC5 SLP122

CYUL;2010-06-26 13:00;CYUL 261300Z 20008KT 12SM FEW055 OVC110 18/15 A2988 RMK SC2AC6 SLP120

CYUL;2010-06-26 14:00;CYUL 261400Z 25010KT 15SM SCT045 OVC100 18/14 A2988 RMK SC3AC5 SLP117

CYUL;2010-06-26 15:00;CYUL 261500Z 25009KT 15SM FEW045 BKN100 OVC140 18/14 A2987 RMK SC2AC6AC1 SLP116

CYUL;2010-06-26 16:00;CYUL 261600Z 23010KT 15SM FEW016 SCT050 BKN120 19/14 A2988 RMK CU2SC2AC2 SLP117

CYUL;2010-06-26 16:53;CYUL 261653Z 22010KT 15SM -SHRA FEW016 BKN055 BKN120 19/ RMK CU2SC4AC1

CYUL;2010-06-26 17:00;CYUL 261700Z 23010KT 15SM -SHRA FEW016 BKN055 BKN100 19/15 A2986 RMK CU2SC4AC2 SLP111

CYUL;2010-06-26 17:38;CYUL 261738Z 22012KT 15SM FEW020 BKN055 OVC100 19/ RMK CU2SC5AC2

CYUL;2010-06-26 18:00;CYUL 261800Z 22014KT 15SM FEW020 BKN055 OVC085 19/15 A2985 RMK CU1SC6AC2 SLP109

CYUL;2010-06-26 19:00;CYUL 261900Z 23011G17KT 15SM FEW012 SCT020 OVC075 19/15 A2983 RMK CF1SC3AC4 SLP102

CYUL;2010-06-26 20:00;CYUL 262000Z 23012KT 15SM FEW020 BKN080 20/15 A2982 RMK CU2AC6 SLP097

CYUL;2010-06-26 21:00;CYUL 262100Z 23012KT 15SM FEW018 BKN080 19/15 A2980 RMK CU2AC4 SLP092

CYUL;2010-06-26 22:00;CYUL 262200Z 25011KT 15SM FEW020 BKN080 20/16 A2979 RMK CU1AC5 SLP089

CYUL;2010-06-26 23:00;CYUL 262300Z 24013KT 15SM FEW020 SCT090 20/16 A2978 RMK CU2AC2 SLP086

CYUL;2010-06-27 00:00;CYUL 270000Z 24012KT 15SM SCT018 BKN240 20/16 A2979 RMK SC3CI0 SLP088

CYUL;2010-06-27 01:00;CYUL 270100Z 24009KT 15SM BKN018 BKN240 19/16 A2979 RMK SC5CI0 SLP089

CYUL;2010-06-27 02:00;CYUL 270200Z 24012KT 15SM BKN020 18/16 A2980 RMK SC5 SLP091

CYUL;2010-06-27 03:00;CYUL 270300Z 25009KT 15SM FEW025 FEW240 18/16 A2980 RMK SC1CI0 SLP091

CYUL;2010-06-27 04:00;CYUL 270400Z 25008KT 15SM FEW025 17/15 A2980 RMK SC2 SLP090

CYUL;2010-06-27 05:00;CYUL 270500Z 25005KT 15SM OVC010 17/15 A2979 RMK SC8 SLP087

CYUL;2010-06-27 06:00;CYUL 270600Z 26007KT 15SM OVC014 17/16 A2978 RMK SF8 SLP086

CYUL;2010-06-27 06:05;CYUL 270605Z 25007KT 15SM FEW009 OVC014 17/ RMK SF2SF6

CYUL;2010-06-27 07:00;CYUL 270700Z 25007KT 15SM FEW008 OVC011 17/16 A2978 RMK SF2SF6 SLP086

CYUL;2010-06-27 08:00;CYUL 270800Z 26005KT 15SM FEW008 OVC011 17/15 A2979 RMK SF1SF7 SLP089

CYUL;2010-06-27 09:00;CYUL 270900Z 20005KT 10SM OVC007 17/16 A2978 RMK SF8 SLP084

CYUL;2010-06-27 10:00;CYUL 271000Z 23006KT 6SM BR OVC008 17/16 A2978 RMK SF8 SLP084

CYUL;2010-06-27 10:12;CYUL 271012Z 25006KT 6SM -DZ BR OVC008 17/ RMK SF8

CYUL;2010-06-27 11:00;CYUL 271100Z 25007KT 6SM -DZ BR OVC009 18/16 A2977 RMK SF8 SLP083

CYUL;2010-06-27 11:20;CYUL 271120Z 21006KT 6SM BR OVC010 17/ RMK SF8

CYUL;2010-06-27 11:45;CYUL 271145Z 20009KT 6SM BR FEW008 OVC013 17/ RMK SF2SF6

CYUL;2010-06-27 12:00;CYUL 271200Z 21007KT 6SM BR FEW007 OVC012 17/15 A2977 RMK SF2SF6 SLP083

CYUL;2010-06-27 12:32;CYUL 271232Z 20007KT 6SM BR FEW007 OVC015 18/ RMK SF1SF7

CYUL;2010-06-27 13:00;CYUL 271300Z 20004KT 8SM FEW009 OVC019 18/16 A2977 RMK SF1SC8 SLP083

CYUL;2010-06-27 13:32;CYUL 271332Z 23005KT 12SM FEW012 SCT025 BKN150 19/ RMK SF1SC3AC1

CYUL;2010-06-27 14:00;CYUL 271400Z 27004KT 15SM FEW012 FEW025 SCT160 BKN240 20/16 A2977 RMK SF1SC2AC1CI1 SLP081

CYUL;2010-06-27 15:00;CYUL 271500Z 25004KT 15SM FEW028 FEW120 SCT180 BKN240 21/16 A2977 RMK SC1AC1AC1CI2 SLP082

CYUL;2010-06-27 16:00;CYUL 271600Z 21003KT 30SM FEW030 SCT180 BKN240 22/16 A2975 RMK CU1AC2CI2 SLP073

CYUL;2010-06-27 17:00;CYUL 271700Z 24007KT 15SM FEW055 SCT150 BKN180 OVC220 22/16 A2972 RMK SC1AC2AC2CS2 ACC ASOCTD SLP066

CYUL;2010-06-27 18:00;CYUL 271800Z 22007KT 15SM FEW040 SCT150 BKN180 OVC240 23/15 A2971 RMK CU1AC2AC2CS2 ACC NE SLP061

CYUL;2010-06-27 19:00;CYUL 271900Z 23006KT 15SM FEW042 BKN180 OVC220 24/13 A2969 RMK CU1AC3CS2 ACC ASOCTD SLP056

CYUL;2010-06-27 20:00;CYUL 272000Z 24005KT 15SM FEW060 FEW150 SCT180 OVC220 24/13 A2967 RMK SC1AC1AC2CS3 SLP048

CYUL;2010-06-27 21:00;CYUL 272100Z 22006KT 15SM FEW060 BKN180 OVC220 25/14 A2966 RMK SC1AC2CS3 SLP045

CYUL;2010-06-27 22:00;CYUL 272200Z 22004KT 15SM FEW150 SCT180 OVC230 24/13 A2965 RMK AC1AC2CS2 SLP040

CYUL;2010-06-27 23:00;CYUL 272300Z 19006KT 15SM FEW065 BKN150 BKN240 23/15 A2965 RMK SC1AC2CS2 ACC ASOCTD SLP042

CYUL;2010-06-28 00:00;CYUL 280000Z 16006KT 15SM FEW062 SCT140 BKN180 BKN220 22/15 A2963 RMK SC1AC2AC3CS1 SLP034

CYUL;2010-06-28 01:00;CYUL 280100Z 14004KT 15SM FEW065 BKN140 BKN180 OVC220 22/15 A2961 RMK SC1AC4AC2CS1 SLP029

CYUL;2010-06-28 02:00;CYUL 280200Z 15005KT 15SM FEW065 OVC120 22/15 A2962 RMK SC1AC8 SLP031

CYUL;2010-06-28 03:00;CYUL 280300Z 16006KT 15SM -RA OVC100 21/16 A2961 RMK AC8 SLP027

CYUL;2010-06-28 03:38;CYUL 280338Z 16006KT 15SM OVC080 20/ RMK AC8

CYUL;2010-06-28 04:00;CYUL 280400Z 17005KT 15SM -RA OVC078 21/17 A2959 RMK AC8 -RA INTMT SLP019

CYUL;2010-06-28 04:47;CYUL 280447Z 16007KT 15SM SCT065 BKN120 OVC180 20/ RMK SC3AC2AC2

CYUL;2010-06-28 05:00;CYUL 280500Z 15011KT 15SM FEW060 SCT120 OVC180 20/17 A2953 RMK SC2AC2AC4 SLP001

CYUL;2010-06-28 05:29;CYUL 280529Z 16007KT 15SM -SHRA BKN052 OVC090 20/ RMK SC6AC2

CYUL;2010-06-28 06:00;CYUL 280600Z 15006KT 15SM -SHRA BKN035 OVC120 19/16 A2951 RMK SC6AC2 SLP993

CYUL;2010-06-28 07:00;CYUL 280700Z 12005KT 15SM -RA SCT035 OVC110 19/17 A2949 RMK SC3AC5 SLP986

CYUL;2010-06-28 08:00;CYUL 280800Z 11006KT 12SM -RA BKN018 OVC035 19/18 A2945 RMK SC5SC3 SLP975

CYUL;2010-06-28 09:00;CYUL 280900Z 12007KT 4SM -RA BR FEW005 BKN017 OVC065 19/18 A2942 RMK SF2SC4SC2 SLP962

CYUL;2010-06-28 09:55;CYUL 280955Z 09006KT 3SM -RA BR FEW003 BKN035 OVC060 20/ RMK SF2SC4SC2

CYUL;2010-06-28 10:00;CYUL 281000Z 10005KT 2 1/2SM -RA BR FEW003 BKN040 OVC060 20/18 A2940 RMK SF2SC4SC2 SLP954

CYUL;2010-06-28 10:17;CYUL 281017Z 08007KT 2SM -RA BR BKN004 OVC030 20/ RMK SF5SC3

CYUL;2010-06-28 10:51;CYUL 281051Z 04006KT 2 1/2SM -RA BR BKN005 OVC025 20/ RMK SF6SC2

CYUL;2010-06-28 11:00;CYUL 281100Z 01006KT 2 1/4SM -RA BR BKN004 OVC025 20/19 A2940 RMK SF6SC2 /R12/ SLP955

CYUL;2010-06-28 11:48;CYUL 281148Z 04009KT 2 1/2SM -RA BR SCT004 OVC013 19/ RMK SF3SF5

CYUL;2010-06-28 12:00;CYUL 281200Z 04008KT 3SM -RA BR SCT005 OVC012 19/18 A2941 RMK SF3SF5 SLP958

CYUL;2010-06-28 12:06;CYUL 281206Z 02009KT 3SM -DZ BR BKN004 OVC012 19/ RMK SF6SF2

CYUL;2010-06-28 12:21;CYUL 281221Z 36008KT 3SM -DZ BR BKN006 OVC015 18/ RMK SF6SF2

CYUL;2010-06-28 12:50;CYUL 281250Z 02006KT 2 1/2SM -DZ BR BKN004 OVC020 18/ RMK SF6SF2

CYUL;2010-06-28 13:00;CYUL 281300Z 36008KT 2 1/2SM -DZ BR BKN004 OVC022 18/17 A2944 RMK SF6SF2 SLP969

CYUL;2010-06-28 13:18;CYUL 281318Z 02006KT 2 1/2SM -DZ BR BKN006 OVC022 18/ RMK SF6SF2

CYUL;2010-06-28 13:44;CYUL 281344Z 33004KT 4SM BR BKN005 OVC022 18/ RMK SF6SF2

CYUL;2010-06-28 14:00;CYUL 281400Z 36004KT 8SM BKN005 OVC018 18/17 A2945 RMK SF6SC2 SLP974

CYUL;2010-06-28 14:45;CYUL 281445Z 00000KT 8SM -DZ BKN007 OVC013 19/ RMK SF6ST2

CYUL;2010-06-28 15:00;CYUL 281500Z 00000KT 8SM BKN006 OVC012 20/18 A2946 RMK SF6ST2 SLP978

CYUL;2010-06-28 16:00;CYUL 281600Z 23004KT 6SM -DZ BR BKN007 OVC012 20/19 A2947 RMK SF6ST2 SLP980

CYUL;2010-06-28 16:21;CYUL 281621Z 23005KT 6SM BR BKN006 OVC011 21/ RMK SF6ST2

CYUL;2010-06-28 16:46;CYUL 281646Z 25005KT 8SM BKN011 BKN022 OVC070 22/ RMK SF5SC2AC1

CYUL;2010-06-28 16:50;CYUL 281650Z 25004KT 8SM FEW009 BKN018 OVC070 22/ RMK SF2SC4AC2

CYUL;2010-06-28 17:00;CYUL 281700Z 25004KT 15SM FEW010 SCT022 BKN070 23/21 A2947 RMK SF1SC2AC2 SLP979

CYUL;2010-06-28 18:00;CYUL 281800Z 27008KT 15SM FEW016 SCT022 BKN070 24/22 A2947 RMK SF1SC2AC1 CU ASOCTD OBS TAKEN +12 SLP979

CYUL;2010-06-28 18:35;CYUL 281835Z 19008KT 8SM -SHRA SCT018 BKN065 BKN078 25/ RMK SF2SC2AC1

CYUL;2010-06-28 19:00;CYUL 281900Z 20006KT 15SM VCSH FEW020 SCT036 BKN070 BKN120 24/21 A2946 RMK SF2SC2AC2AC1 CU ASOCTD SLP976

CYUL;2010-06-28 19:35;CYUL 281935Z 22004KT 15SM -SHRA FEW022 SCT032 BKN065 BKN090 25/ RMK SF2SC2SC2AC1 ACC ASOCTD CIG LWR SW

CYUL;2010-06-28 19:52;CYUL 281952Z 27005KT 15SM VCSH FEW022 SCT034 BKN060 BKN090 24/ RMK SF2SC2SC2AC1 TCU EMBD

CYUL;2010-06-28 20:00;CYUL 282000Z 27004KT 15SM FEW024 SCT032 BKN065 BKN120 25/22 A2946 RMK SF1SC2SC2AC1 TCU EMBD SLP976

CYUL;2010-06-28 21:00;CYUL 282100Z 23013G19KT 30SM FEW032 FEW120 27/20 A2945 RMK SC1AC1 TCU EMBD NE SLP972

CYUL;2010-06-28 22:00;CYUL 282200Z 23015G22KT 30SM FEW035 FEW120 FEW240 27/20 A2945 RMK SC1AC1CI1 TCU EMBD SLP971

CYUL;2010-06-28 23:00;CYUL 282300Z 24015G21KT 15SM FEW036 FEW065 SCT120 BKN240 27/20 A2946 RMK SC1SC1AC1CI1 TCU EMBD NE VCSH NW SLP975

CYUL;2010-06-28 23:44;CYUL 282344Z 25009G15KT 15SM FEW045 FEW120 SCT240 26/ RMK SC1AC1CI1 CB NE ACC ASOCTD VCSH NE

CYUL;2010-06-29 00:00;CYUL 290000Z 24013KT 15SM FEW048 FEW090 SCT170 SCT240 26/20 A2947 RMK SC1AC1AC1CI1 TCU EMBD SLP980

CYUL;2010-06-29 00:48;CYUL 290048Z 26015KT 15SM FEW030 FEW090 SCT170 SCT240 25/ RMK SC1AC1AC1CI1 CB MOVG RPDLY FM NW TO SE

CYUL;2010-06-29 00:56;CYUL 290056Z CCA 32019G28KT 2SM -SHRA SCT006 BKN012 BKN120 20/ RMK SF3SC3AC1 CB ASOCTD

CYUL;2010-06-29 01:00;CYUL 290100Z 32010G26KT 4SM -SHRA FEW006 BKN018 BKN038 BKN120 19/18 A2952 RERA RMK SF2SC3SC1AC1 CB ASOCTD SLP996

CYUL;2010-06-29 01:15;CYUL 290115Z 30005KT 10SM -SHRA SCT027 BKN080 BKN150 20/ RERA RMK SC3AC2AC1 CB ASOCTD CIG LWR SE

CYUL;2010-06-29 01:34;CYUL 290134Z 29002KT 12SM SCT027 BKN068 BKN150 19/ RERA RMK SC3AC2AC1 CIG LWR SE

CYUL;2010-06-29 02:00;CYUL 290200Z 24002KT 15SM FEW025 SCT060 BKN110 20/18 A2954 RERA RMK SC2SC2AC2 SLP004

CYUL;2010-06-29 03:00;CYUL 290300Z 26005KT 15SM SCT070 BKN100 19/18 A2956 RMK AC2AC1 SLP012

CYUL;2010-06-29 04:00;CYUL 290400Z 25004KT 15SM FEW060 SCT080 BKN120 19/18 A2959 RMK SC2AC2AC2 SLP020

CYUL;2010-06-29 05:00;CYUL 290500Z 27005KT 15SM FEW080 BKN100 19/17 A2960 RMK AC2AC5 SLP023

CYUL;2010-06-29 06:00;CYUL 290600Z 25006KT 15SM BKN065 OVC120 18/17 A2961 RMK SC5AC2 SLP029

CYUL;2010-06-29 07:00;CYUL 290700Z 27006KT 15SM SCT070 18/17 A2961 RMK AC2 SLP029

CYUL;2010-06-29 08:00;CYUL 290800Z 30006KT 15SM FEW080 17/16 A2964 RMK AC1 SLP036

CYUL;2010-06-29 09:00;CYUL 290900Z 31009KT 15SM FEW080 16/15 A2966 RMK AC2 SLP044

CYUL;2010-06-29 10:00;CYUL 291000Z 31008KT 15SM FEW060 SCT100 17/15 A2968 RMK SC2AC1 SLP050

CYUL;2010-06-29 11:00;CYUL 291100Z 34003KT 15SM FEW060 SCT090 18/15 A2969 RMK SC2AC1 SLP054

CYUL;2010-06-29 12:00;CYUL 291200Z 34003KT 15SM FEW060 BKN100 18/15 A2970 RMK SC2ACC3 SLP059

CYUL;2010-06-29 12:47;CYUL 291247Z 31002KT 15SM -SHRA SCT035 BKN065 OVC100 19/ RMK SC3SC2ACC2

CYUL;2010-06-29 13:00;CYUL 291300Z 33005KT 15SM FEW030 BKN045 OVC100 19/15 A2972 RMK SC2SC5ACC2 SLP063

CYUL;2010-06-29 14:00;CYUL 291400Z 32002KT 15SM FEW022 BKN038 BKN080 OVC110 19/15 A2972 RMK SF1SC5AC1AC1 ACC ASOCTD SLP065

CYUL;2010-06-29 15:00;CYUL 291500Z 01002KT 15SM BKN035 OVC090 19/15 A2972 RMK SC6AC2 ACC ASOCTD SLP066

CYUL;2010-06-29 15:23;CYUL 291523Z 30006KT 15SM -SHRA FEW027 BKN037 OVC070 19/ RMK SC2SC5AC2 ACC ASOCTD

CYUL;2010-06-29 16:00;CYUL 291600Z 34011G16KT 15SM -SHRA FEW022 BKN032 OVC066 16/14 A2976 RMK SC2SC6AC1 ACC ASOCTD SLP077

CYUL;2010-06-29 17:00;CYUL 291700Z 34007KT 15SM -SHRA FEW019 BKN033 OVC058 15/14 A2978 RMK SF2SC6SC1 CU ASOCTD SLP084

CYUL;2010-06-29 17:27;CYUL 291727Z 33004KT 15SM FEW034 BKN052 OVC070 15/ RMK SC2SC5AC1

CYUL;2010-06-29 18:00;CYUL 291800Z 28005KT 15SM FEW016 SCT027 BKN060 OVC075 16/14 A2980 RMK SF2SC2SC4AC1 SLP092

CYUL;2010-06-29 19:00;CYUL 291900Z 26012KT 30SM FEW028 SCT040 BKN090 BKN130 19/14 A2980 RMK CU1SC2AC1AC1 SLP092

CYUL;2010-06-29 20:00;CYUL 292000Z 25011KT 30SM FEW036 SCT065 SCT150 21/13 A2981 RMK CU1SC1AC1 SLP095

CYUL;2010-06-29 20:48;CYUL 292048Z 27012G17KT 15SM -SHRA FEW036 BKN058 BKN071 18/ RMK SC2SC3AC2 CU ASOCTD CIG LWR S

CYUL;2010-06-29 21:00;CYUL 292100Z CCA 25013KT 15SM FEW032 BKN058 BKN070 19/11 A2983 RMK SC2SC2AC2 CU ASOCTD SLP102

CYUL;2010-06-29 21:06;CYUL 292106Z 25012KT 15SM -SHRA FEW032 BKN058 BKN075 18/ RMK SC2SC2AC2

CYUL;2010-06-29 21:26;CYUL 292126Z 25008KT 15SM SCT058 BKN075 18/ RMK SC3AC3 CU EMBD NE

CYUL;2010-06-29 22:00;CYUL 292200Z 25011KT 15SM -SHRA FEW058 BKN072 18/11 A2985 RMK SC2AC5 SLP108

CYUL;2010-06-29 22:54;CYUL 292254Z 25009KT 15SM FEW060 SCT072 BKN100 18/ RMK SC2AC2AC3

CYUL;2010-06-29 23:00;CYUL 292300Z 25008KT 15SM FEW060 SCT072 BKN100 18/11 A2987 RMK SC2AC2AC3 SLP115

CYUL;2010-06-30 00:00;CYUL 300000Z 24007KT 15SM FEW090 FEW240 17/14 A2988 RMK AC1CI0 SLP117

CYUL;2010-06-30 01:00;CYUL 300100Z 23009G16KT 15SM FEW013 FEW100 FEW240 16/14 A2988 RMK SF1AC1CI1 SLP119

CYUL;2010-06-30 02:00;CYUL 300200Z 23010KT 15SM FEW015 FEW150 16/13 A2989 RMK SF1AC1 SLP121

CYUL;2010-06-30 03:00;CYUL 300300Z 25011KT 15SM BKN080 16/13 A2990 RMK AC6 SLP125

CYUL;2010-06-30 04:00;CYUL 300400Z 25007KT 15SM BKN085 15/12 A2990 RMK AC6 SLP125

CYUL;2010-06-30 05:00;CYUL 300500Z 26005KT 15SM BKN090 15/11 A2991 RMK AC5 SLP127

CYUL;2010-06-30 06:00;CYUL 300600Z 24005KT 15SM BKN080 14/11 A2991 RMK AC6 SLP129

CYUL;2010-06-30 07:00;CYUL 300700Z 25007KT 15SM BKN085 14/09 A2992 RMK AC6 SLP133

CYUL;2010-06-30 08:00;CYUL 300800Z 25009KT 15SM BKN080 14/08 A2993 RMK AC6 SLP135

CYUL;2010-06-30 09:00;CYUL 300900Z 24007KT 15SM OVC080 13/09 A2993 RMK AC7 SLP137

CYUL;2010-06-30 10:00;CYUL 301000Z 26008KT 15SM BKN080 13/09 A2994 RMK AC4 SLP140

CYUL;2010-06-30 11:00;CYUL 301100Z 23012KT 15SM FEW020 SCT090 13/09 A2995 RMK CF1AC2 SLP142

CYUL;2010-06-30 12:00;CYUL 301200Z 23013KT 15SM SCT025 14/09 A2995 RMK CU3 SLP143

CYUL;2010-06-30 13:00;CYUL 301300Z 25012G18KT 15SM BKN030 BKN065 15/09 A2996 RMK SC6CU2 SLP145

CYUL;2010-06-30 14:00;CYUL 301400Z 26015G21KT 30SM BKN045 16/09 A2995 RMK SC6 TCU ASOCT SLP142

CYUL;2010-06-30 15:00;CYUL 301500Z 26015G20KT 30SM BKN040 16/09 A2994 RMK SC7 TCU ASOCT SLP141

CYUL;2010-06-30 16:00;CYUL 301600Z 26016G24KT 30SM FEW042 BKN072 17/09 A2993 RMK CU2AC2 SLP138

CYUL;2010-06-30 17:00;CYUL 301700Z 26018G25KT 30SM SCT040 BKN066 17/08 A2994 RMK SC3AC3 CU ASOCTD SLP139

CYUL;2010-06-30 18:00;CYUL 301800Z 25019G25KT 30SM FEW042 FEW065 SCT110 18/09 A2994 RMK CU1SC1AC1 SLP139

CYUL;2010-06-30 19:00;CYUL 301900Z 24020G26KT 30SM FEW044 BKN063 BKN072 18/08 A2993 RMK CU2SC2AC1 SLP138

CYUL;2010-06-30 20:00;CYUL 302000Z 25020G27KT 15SM FEW040 BKN058 BKN075 18/08 A2994 RMK CU2SC3AC1 SLP139

CYUL;2010-06-30 20:04;CYUL 302004Z 25020G26KT 15SM -SHRA FEW040 BKN047 BKN060 18/ RMK CU2SC3SC1

CYUL;2010-06-30 20:44;CYUL 302044Z 26022KT 15SM FEW042 BKN054 BKN075 19/ RMK CU1SC4AC1

CYUL;2010-06-30 21:00;CYUL 302100Z 29019G25KT 15SM FEW042 BKN057 BKN080 18/08 A2995 RMK CU1SC3AC2 SLP143

CYUL;2010-06-30 21:15;CYUL 302115Z 31013G22KT 15SM -SHRA SCT045 BKN062 BKN075 15/ RMK SC3SC2AC2 CIG LRW W CU ASOCTD

CYUL;2010-06-30 22:00;CYUL 302200Z 30009KT 15SM VCSH FEW040 SCT060 BKN075 16/13 A2996 RMK CU1SC2AC2 CIG LWR W SLP148

CYUL;2010-06-30 22:31;CYUL 302231Z 27011KT 15SM -SHRA FEW040 SCT060 BKN075 15/ RMK SC1SC2AC2 CIG LWR S CU EMBD

CYUL;2010-06-30 22:44;CYUL 302244Z 27011KT 15SM VCSH FEW040 SCT060 BKN075 16/ RMK SC1SC2AC2 CU EMBD

CYUL;2010-06-30 23:00;CYUL 302300Z 28014KT 15SM FEW047 FEW062 SCT079 16/12 A2998 RMK SC1SC1AC1 SLP154

CYUL;2010-07-01 01:00;CYUL 010100Z 27008KT 15SM FEW052 SCT080 BKN190 BKN240 15/11 A3000 RMK SC2AC1AC2CI0 SLP160

CYUL;2010-07-01 02:00;CYUL 010200Z 26006KT 15SM SCT055 BKN090 BKN180 15/11 A3001 RMK SC3AC2AC1 SLP164

CYUL;2010-07-01 03:00;CYUL 010300Z 25008KT 15SM FEW015 BKN065 15/12 A3001 RMK CF1SC6 SLP165

CYUL;2010-07-01 03:24;CYUL 010324Z 26009KT 15SM -SHRA FEW015 BKN064 15/ RMK CF1SC7

CYUL;2010-07-01 04:00;CYUL 010400Z 25007KT 15SM -SHRA FEW015 OVC065 14/12 A3002 RMK SC1SC7 SLP166

CYUL;2010-07-01 04:25;CYUL 010425Z 25005KT 15SM FEW015 OVC066 14/ RMK SC1AC7

CYUL;2010-07-01 05:00;CYUL 010500Z 25007KT 15SM FEW015 OVC070 14/12 A3002 RMK SC1AC7 SLP167

CYUL;2010-07-01 06:00;CYUL 010600Z 27004KT 15SM -SHRA FEW013 BKN067 OVC090 14/12 A3001 RMK SC1AC6AC1 SLP165

CYUL;2010-07-01 06:30;CYUL 010630Z 28007KT 15SM FEW015 BKN073 14/ RMK SC1AC6

CYUL;2010-07-01 07:00;CYUL 010700Z 27007KT 15SM FEW013 BKN070 14/12 A3001 RMK SC1AC7 SLP164

CYUL;2010-07-01 08:00;CYUL 010800Z 28008KT 15SM FEW012 BKN068 BKN090 14/12 A3002 RMK SC1AC6AC1 SLP166

CYUL;2010-07-01 09:00;CYUL 010900Z 25006KT 15SM FEW012 BKN060 BKN080 14/12 A3003 RMK SC2SC5AC1 SLP171

CYUL;2010-07-01 10:00;CYUL 011000Z 28009KT 15SM FEW012 BKN060 BKN075 13/11 A3005 RMK SC1SC5AC2 SLP176

CYUL;2010-07-01 11:00;CYUL 011100Z 27012KT 15SM FEW015 FEW055 SCT070 13/11 A3004 RMK SC1SC2AC1 SLP175

CYUL;2010-07-01 12:00;CYUL 011200Z 31009KT 30SM FEW015 FEW090 SCT220 14/10 A3007 RMK CF1AC1CI1 SLP182

CYUL;2010-07-01 13:00;CYUL 011300Z 29010G15KT 30SM SCT017 BKN080 BKN210 16/11 A3007 RMK CU3AC2CI1 SLP185

CYUL;2010-07-01 14:00;CYUL 011400Z CCA 27011G16KT 15SM SCT026 BKN047 BKN100 16/10 A3008 RMK CU2SC3AC1 ACC ASOCTD SLP186

CYUL;2010-07-01 15:00;CYUL 011500Z 27012KT 15SM FEW032 BKN050 BKN100 16/10 A3007 RMK CU2SC5AC1 SLP185

CYUL;2010-07-01 16:00;CYUL 011600Z 28008KT 30SM FEW032 SCT054 SCT100 18/11 A3007 RMK CU1SC1AC1 SLP183

CYUL;2010-07-01 16:37;CYUL 011637Z 28016KT 15SM -SHRA FEW032 BKN038 BKN052 BKN070 17/ RMK CU1SC4SC1AC1 CIG LWR NE

CYUL;2010-07-01 16:52;CYUL 011652Z 31008KT 30SM FEW032 SCT065 SCT110 18/ RMK CU1SC2AC1

CYUL;2010-07-01 17:00;CYUL 011700Z 29009KT 30SM FEW035 BKN062 BKN110 17/10 A3005 RMK CU2SC2AC1 SLP178

CYUL;2010-07-01 18:00;CYUL 011800Z 28016KT 30SM FEW040 SCT065 BKN090 18/11 A3005 RMK CU1SC2AC2 SLP178

CYUL;2010-07-01 19:00;CYUL 011900Z 29012G20KT 30SM FEW040 SCT064 BKN090 19/11 A3006 RMK CU1SC2AC1 SLP179

CYUL;2010-07-01 19:32;CYUL 011932Z 31020KT 15SM -SHRA FEW030 BKN055 BKN090 17/ RMK SC2SC3AC1

CYUL;2010-07-01 20:00;CYUL 012000Z 29012G20KT 30SM FEW044 SCT065 SCT090 20/12 A3007 RMK SC1SC1AC1 SLP182

CYUL;2010-07-01 21:00;CYUL 012100Z 34010KT 30SM FEW045 FEW065 SCT110 19/10 A3007 RMK SC1SC1AC1 CU EMBD SLP184

CYUL;2010-07-01 22:00;CYUL 012200Z 32011G16KT 30SM FEW040 FEW075 FEW240 20/09 A3007 RMK CU1AC1CI0 SLP184

CYUL;2010-07-01 23:00;CYUL 012300Z 29011G17KT 30SM FEW048 FEW065 FEW120 20/09 A3008 RMK CU0SC1AC1 SLP186

CYUL;2010-07-02 00:00;CYUL 020000Z 30008KT 15SM FEW042 FEW056 SCT075 BKN120 19/09 A3009 RMK SC1SC1AC1AC1 SLP191

CYUL;2010-07-02 01:00;CYUL 020100Z 28007KT 15SM FEW052 SCT080 SCT120 17/09 A3010 RMK SC2AC1AC1 SLP194

CYUL;2010-07-02 02:00;CYUL 020200Z 29007KT 15SM FEW060 FEW090 16/09 A3012 RMK SC1AC2 SLP201

CYUL;2010-07-02 03:00;CYUL 020300Z 31004KT 15SM SCT080 16/10 A3013 RMK AC4 SLP203

CYUL;2010-07-02 04:00;CYUL 020400Z 31006KT 15SM FEW080 SCT110 15/09 A3014 RMK AC1AC2 SLP207

CYUL;2010-07-02 05:00;CYUL 020500Z 29005KT 15SM BKN100 14/10 A3014 RMK AC4 SLP208

CYUL;2010-07-02 06:00;CYUL 020600Z 29006KT 15SM SCT080 15/10 A3014 RMK AC3 SLP208

CYUL;2010-07-02 07:00;CYUL 020700Z 30005KT 15SM FEW080 13/10 A3014 RMK AC2 SLP207

CYUL;2010-07-02 08:00;CYUL 020800Z 30003KT 15SM FEW085 13/09 A3015 RMK AC2 SLP211

CYUL;2010-07-02 09:00;CYUL 020900Z 00000KT 30SM FEW080 14/09 A3016 RMK AC1 SLP215

CYUL;2010-07-02 10:00;CYUL 021000Z 00000KT 30SM FEW080 13/09 A3019 RMK AC1 SLP223

CYUL;2010-07-02 11:00;CYUL 021100Z 23003KT 30SM FEW070 15/10 A3021 RMK AC1 SLP230

CYUL;2010-07-02 12:00;CYUL 021200Z 29003KT 30SM SKC 17/10 A3021 RMK SLP231

CYUL;2010-07-02 13:00;CYUL 021300Z 00000KT 30SM FEW240 19/11 A3022 RMK CI0 SLP233

CYUL;2010-07-02 14:00;CYUL 021400Z 21007KT 30SM FEW240 19/12 A3022 RMK CI0 SLP234

CYUL;2010-07-02 15:00;CYUL 021500Z 20011KT 30SM FEW030 FEW240 21/13 A3021 RMK CU1CI1 SLP232

CYUL;2010-07-02 16:00;CYUL 021600Z 22012KT 30SM FEW042 FEW240 21/14 A3021 RMK SC1CI1 CU ASOCTD SLP232

CYUL;2010-07-02 17:00;CYUL 021700Z 22013KT 30SM FEW040 FEW240 23/15 A3019 RMK CU1CI1 SLP224

CYUL;2010-07-02 18:00;CYUL 021800Z 24010G17KT 30SM FEW060 FEW240 24/12 A3016 RMK SC1CI1 CU ASOCTD SLP215

CYUL;2010-07-02 19:00;CYUL 021900Z 26016KT 30SM FEW054 FEW180 BKN240 25/10 A3015 RMK CU1AC1CI1 SLP210

CYUL;2010-07-02 20:00;CYUL 022000Z 25013KT 30SM FEW062 SCT180 BKN240 24/10 A3013 RMK SC0AC1CI2 SLP204

CYUL;2010-07-02 21:00;CYUL 022100Z 25012G17KT 30SM SCT180 BKN240 25/10 A3012 RMK AC2CI2 SLP199

CYUL;2010-07-02 22:00;CYUL 022200Z 24012KT 15SM SCT150 BKN180 BKN240 24/10 A3009 RMK AC2AC2CS3 SLP192

CYUL;2010-07-02 23:00;CYUL 022300Z 22009KT 15SM FEW150 BKN180 OVC240 23/12 A3007 RMK AC2AC2CS3 SLP184

CYUL;2010-07-03 00:00;CYUL 030000Z 24007KT 15SM FEW120 BKN180 OVC240 23/10 A3007 RMK AC2AC2CS4 SLP184

CYUL;2010-07-03 01:00;CYUL 030100Z 23007KT 15SM FEW120 BKN160 BKN240 22/12 A3007 RMK AC1AC2CS2 SLP182

CYUL;2010-07-03 02:00;CYUL 030200Z 23010KT 15SM BKN120 BKN150 21/13 A3008 RMK AC5AC2 SLP185

CYUL;2010-07-03 03:00;CYUL 030300Z 23015KT 15SM FEW100 BKN150 21/12 A3007 RMK AC2AC5 SLP184

CYUL;2010-07-03 04:00;CYUL 030400Z 23014KT 15SM FEW150 SCT180 20/11 A3007 RMK AC2AC2 SLP184

CYUL;2010-07-03 05:00;CYUL 030500Z 25009KT 15SM FEW150 SCT180 19/10 A3007 RMK AC2AC2 SLP183

CYUL;2010-07-03 06:00;CYUL 030600Z 23006KT 15SM FEW150 19/10 A3006 RMK AC2 SLP178

CYUL;2010-07-03 07:00;CYUL 030700Z 27005KT 15SM BKN160 18/11 A3006 RMK AC5 SLP179

CYUL;2010-07-03 08:00;CYUL 030800Z 25009KT 15SM FEW160 17/10 A3004 RMK AC1 SLP173

CYUL;2010-07-03 09:00;CYUL 030900Z 23012KT 15SM FEW140 17/10 A3004 RMK AC1 SLP172

CYUL;2010-07-03 10:00;CYUL 031000Z 25006KT 30SM FEW240 16/11 A3005 RMK CI1 SLP175

CYUL;2010-07-03 11:00;CYUL 031100Z 25007KT 30SM FEW240 17/11 A3006 RMK CI1 SLP178

CYUL;2010-07-03 12:00;CYUL 031200Z 24011G16KT 30SM SCT240 18/12 A3005 RMK CI1 SLP176

CYUL;2010-07-03 13:00;CYUL 031300Z 25013KT 30SM SCT240 20/12 A3005 RMK CI1 SLP175

CYUL;2010-07-03 14:00;CYUL 031400Z 23012G17KT 30SM SCT240 22/14 A3003 RMK CI0 SLP168

CYUL;2010-07-03 15:00;CYUL 031500Z 23015KT 30SM BKN240 23/14 A3001 RMK CI0 SLP161

CYUL;2010-07-03 16:00;CYUL 031600Z 24014G19KT 30SM SCT240 25/16 A2999 RMK CI0 SLP155

CYUL;2010-07-03 17:00;CYUL 031700Z 23017KT 30SM FEW240 26/16 A2996 RMK CI0 SLP146

CYUL;2010-07-03 18:00;CYUL 031800Z 24013G20KT 30SM FEW240 27/16 A2994 RMK CI0 SLP139

CYUL;2010-07-03 19:00;CYUL 031900Z 23020G26KT 30SM FEW240 28/16 A2993 RMK CI0 SLP135

CYUL;2010-07-03 20:00;CYUL 032000Z 26019G24KT 30SM FEW180 FEW240 28/16 A2991 RMK AC0CI0 SLP130

CYUL;2010-07-03 21:00;CYUL 032100Z 25020G25KT 30SM FEW180 FEW240 28/16 A2990 RMK AC0CI0 SLP124

CYUL;2010-07-03 22:00;CYUL 032200Z 25019G24KT 30SM FEW180 SCT240 28/17 A2989 RMK AC2CI0 SLP122

CYUL;2010-07-03 23:00;CYUL 032300Z 25012G20KT 30SM SCT170 BKN240 27/16 A2989 RMK AC1CI0 SLP121

CYUL;2010-07-04 00:00;CYUL 040000Z 24015G20KT 30SM FEW130 SCT170 BKN240 26/15 A2988 RMK ACC2AC1CI0 SLP119

CYUL;2010-07-04 01:00;CYUL 040100Z 24017G22KT 30SM FEW130 SCT180 BKN240 25/14 A2988 RMK ACC2AC1CI0 SLP120

CYUL;2010-07-04 02:00;CYUL 040200Z 25013G21KT 15SM FEW110 SCT210 25/13 A2989 RMK AC2CI0 SLP122

CYUL;2010-07-04 03:00;CYUL 040300Z 25017G22KT 15SM FEW110 SCT180 24/14 A2988 RMK AC2AC2 SLP119

CYUL;2010-07-04 04:00;CYUL 040400Z 25014G19KT 15SM FEW180 23/14 A2989 RMK AC1 SLP122

CYUL;2010-07-04 05:00;CYUL 040500Z 25014KT 15SM FEW180 22/14 A2989 RMK AC1 SLP122

CYUL;2010-07-04 06:00;CYUL 040600Z 25012KT 15SM FEW140 22/15 A2989 RMK AC1 SLP122

CYUL;2010-07-04 07:00;CYUL 040700Z 26011KT 15SM FEW140 21/15 A2990 RMK AC1 SLP124

CYUL;2010-07-04 08:00;CYUL 040800Z 25012KT 15SM SCT150 20/15 A2989 RMK AC3 SLP122

CYUL;2010-07-04 09:00;CYUL 040900Z 26011KT 15SM BKN070 BKN130 21/15 A2990 RMK AC6AC2 SLP124

CYUL;2010-07-04 10:00;CYUL 041000Z 26011G16KT 15SM FEW070 SCT180 SCT210 20/14 A2991 RMK AC2AC1CI1 SLP127

CYUL;2010-07-04 11:00;CYUL 041100Z 25013KT 15SM FEW080 SCT130 BKN210 21/14 A2992 RMK AC1AC2CI1 SLP132

CYUL;2010-07-04 12:00;CYUL 041200Z 20009KT 15SM FEW060 SCT130 BKN170 BKN240 20/14 A2993 RMK SC1AC3AC2CI1 SLP135

CYUL;2010-07-04 12:45;CYUL 041245Z 25009KT 15SM -SHRA FEW070 BKN130 BKN180 20/ RMK AC1AC5AC2

CYUL;2010-07-04 13:00;CYUL 041300Z 19008KT 15SM -SHRA FEW080 BKN130 BKN160 20/15 A2993 RMK AC1AC5AC2 SLP135

CYUL;2010-07-04 13:40;CYUL 041340Z 23006KT 15SM FEW080 BKN130 BKN160 20/ RMK AC1AC6AC1

CYUL;2010-07-04 14:00;CYUL 041400Z 24004KT 15SM FEW090 BKN140 OVC240 20/15 A2992 RMK AC2AC6CI0 SLP133

CYUL;2010-07-04 15:00;CYUL 041500Z 22006KT 15SM OVC160 22/16 A2991 RMK AC6 SLP129

CYUL;2010-07-04 16:00;CYUL 041600Z 22011KT 15SM BKN180 OVC200 24/17 A2991 RMK AC6CI0 SLP129

CYUL;2010-07-04 17:00;CYUL 041700Z 22012KT 15SM BKN120 BKN200 26/18 A2989 RMK AC5CI0 SLP122

CYUL;2010-07-04 18:00;CYUL 041800Z 23015KT 15SM FEW120 BKN180 27/16 A2987 RMK AC2AC2 SLP116

CYUL;2010-07-04 19:00;CYUL 041900Z 25012G17KT 15SM FEW180 BKN230 28/17 A2985 RMK AC1CI2 CC ASOCT SLP109

CYUL;2010-07-04 20:00;CYUL 042000Z 23015KT 15SM BKN180 BKN230 28/16 A2984 RMK AC5CI0 SLP104

CYUL;2010-07-04 21:00;CYUL 042100Z 23016KT 15SM SCT150 BKN230 29/16 A2982 RMK AC2CI0 SLP098

CYUL;2010-07-04 22:00;CYUL 042200Z 23015KT 15SM FEW150 BKN240 29/16 A2982 RMK AC1CI1 SLP097

CYUL;2010-07-04 23:00;CYUL 042300Z 22013KT 15SM FEW180 BKN240 28/16 A2982 RMK AC2CI0 SLP099

CYUL;2010-07-05 00:00;CYUL 050000Z 24014KT 15SM FEW170 BKN240 28/15 A2984 RMK AC2CI0 SLP104

CYUL;2010-07-05 01:00;CYUL 050100Z 24012KT 15SM SCT170 BKN240 27/14 A2985 RMK AC2CI0 SLP108

CYUL;2010-07-05 02:00;CYUL 050200Z 24009KT 15SM BKN170 26/14 A2986 RMK AC4 SLP112

CYUL;2010-07-05 03:00;CYUL 050300Z 25006KT 15SM FEW170 25/14 A2986 RMK AC2 SLP112

CYUL;2010-07-05 04:00;CYUL 050400Z 25011KT 15SM SKC 24/15 A2986 RMK SLP112

CYUL;2010-07-05 05:00;CYUL 050500Z 25006KT 15SM SKC 23/16 A2986 RMK SLP112

CYUL;2010-07-05 06:00;CYUL 050600Z 25011KT 15SM SKC 22/16 A2986 RMK SLP111

CYUL;2010-07-05 07:00;CYUL 050700Z 25010KT 15SM SKC 22/16 A2986 RMK SLP113

CYUL;2010-07-05 08:00;CYUL 050800Z 25008KT 15SM FEW210 21/17 A2986 RMK CI1 SLP113

CYUL;2010-07-05 09:00;CYUL 050900Z 25007KT 15SM FEW210 21/17 A2988 RMK CI1 SLP120

CYUL;2010-07-05 10:00;CYUL 051000Z 22005KT 15SM FEW210 21/18 A2989 RMK CI1 SLP122

CYUL;2010-07-05 11:00;CYUL 051100Z 23007KT 15SM FEW210 22/17 A2990 RMK CI1 SLP125

CYUL;2010-07-05 12:00;CYUL 051200Z 23007KT 15SM FEW210 23/18 A2990 RMK CI1 SLP124

CYUL;2010-07-05 13:00;CYUL 051300Z 23008KT 15SM SCT210 24/18 A2990 RMK CI1 SLP124

CYUL;2010-07-05 14:00;CYUL 051400Z 22010KT 15SM FEW070 SCT210 26/19 A2989 RMK ACC2CI0 SLP123

CYUL;2010-07-05 15:00;CYUL 051500Z 21010KT 12SM FEW150 SCT240 27/20 A2989 RMK AC0CI0 SLP121

CYUL;2010-07-05 16:00;CYUL 051600Z 21009KT 12SM FEW140 FEW240 28/20 A2987 RMK AC0CI0 SLP116

CYUL;2010-07-05 17:00;CYUL 051700Z 23011KT 12SM FEW120 29/21 A2986 RMK AC1 SLP112

CYUL;2010-07-05 18:00;CYUL 051800Z 23013KT 12SM FEW030 FEW150 31/22 A2986 RMK CU1AC0 SLP111

CYUL;2010-07-05 19:00;CYUL 051900Z 23015KT 12SM FEW040 FEW150 32/22 A2985 RMK CU2AC0 SLP107

CYUL;2010-07-05 20:00;CYUL 052000Z 22016KT 12SM FEW045 SCT150 32/21 A2984 RMK CU2AC1 SLP105

CYUL;2010-07-05 21:00;CYUL 052100Z 22012KT 12SM FEW050 SCT130 32/21 A2984 RMK CU2AC0 SLP104

CYUL;2010-07-05 22:00;CYUL 052200Z 24016G24KT 12SM FEW050 BKN110 32/21 A2984 RMK CU2AC2 SLP104

CYUL;2010-07-05 23:00;CYUL 052300Z 23012KT 12SM SCT100 BKN160 31/22 A2984 RMK ACC2AC1 SLP105

CYUL;2010-07-06 00:00;CYUL 060000Z 24013KT 12SM BKN120 BKN240 31/22 A2985 RMK AC5CI0 SLP107

CYUL;2010-07-06 01:00;CYUL 060100Z 23009KT 12SM SCT130 30/22 A2986 RMK AC2 SLP113

CYUL;2010-07-06 02:00;CYUL 060200Z 23010KT 12SM BKN088 BKN120 29/22 A2988 RMK AC6AC1 SLP118

CYUL;2010-07-06 03:00;CYUL 060300Z 24014KT 15SM SCT080 BKN220 29/22 A2988 RMK AC3CI2 SLP120

CYUL;2010-07-06 04:00;CYUL 060400Z 27010G15KT 15SM FEW065 BKN085 BKN220 28/23 A2990 RMK SC1AC4CI1 SLP125

CYUL;2010-07-06 05:00;CYUL 060500Z 27007KT 12SM FEW055 BKN080 28/23 A2991 RMK SC1AC4 SLP129

CYUL;2010-07-06 06:00;CYUL 060600Z 28006KT 12SM SCT050 SCT090 27/22 A2992 RMK SC3AC1 SLP133

CYUL;2010-07-06 07:00;CYUL 060700Z 27004KT 12SM FEW055 FEW080 26/22 A2993 RMK SC2AC1 SLP136

CYUL;2010-07-06 08:00;CYUL 060800Z 26005KT 15SM FEW210 25/22 A2994 RMK CI1 SLP139

CYUL;2010-07-06 09:00;CYUL 060900Z 26006KT 15SM FEW120 FEW210 25/22 A2996 RMK AC1CI1 SLP145

CYUL;2010-07-06 10:00;CYUL 061000Z 27005KT 15SM FEW120 SCT240 25/21 A2997 RMK AC1CI1 SLP150

CYUL;2010-07-06 11:00;CYUL 061100Z 28006KT 15SM SCT240 26/22 A2999 RMK CI2 SLP154

CYUL;2010-07-06 12:00;CYUL 061200Z 29005KT 15SM BKN240 27/22 A3000 RMK CI2 SLP159

CYUL;2010-07-06 13:00;CYUL 061300Z 25005KT 15SM FEW180 SCT240 28/22 A3000 RMK AC1CI1 SLP159

CYUL;2010-07-06 14:00;CYUL 061400Z 21006KT 15SM FEW060 BKN240 29/23 A3000 RMK CU1CI1 SLP159

CYUL;2010-07-06 15:00;CYUL 061500Z CCA 20009KT 15SM SCT038 BKN240 29/22 A3000 RMK CU3CI1 SLP158

CYUL;2010-07-06 16:00;CYUL 061600Z 20009KT 15SM SCT040 BKN240 30/22 A2999 RMK CU3CI0 SLP157

CYUL;2010-07-06 17:00;CYUL 061700Z 21010KT 15SM SCT040 BKN210 30/23 A2999 RMK CU3CI0 SLP155

CYUL;2010-07-06 18:00;CYUL 061800Z 21009KT 15SM FEW045 SCT210 31/23 A2998 RMK CU2CI0 TCU ASOCT SLP151

CYUL;2010-07-06 19:00;CYUL 061900Z 20010KT 15SM SCT045 SCT210 32/23 A2997 RMK CU3CI0 SLP148

CYUL;2010-07-06 20:00;CYUL 062000Z 27007KT 15SM FEW050 33/21 A2996 RMK CU2 SLP147

CYUL;2010-07-06 21:00;CYUL 062100Z 28007KT 15SM FEW050 33/20 A2996 RMK CU1 SLP144

CYUL;2010-07-06 22:00;CYUL 062200Z 22006KT 15SM SKC 33/21 A2995 RMK SLP141

CYUL;2010-07-06 23:00;CYUL 062300Z 23006KT 15SM SKC 32/21 A2995 RMK SLP143

CYUL;2010-07-07 00:00;CYUL 070000Z 23009KT 15SM SKC 31/21 A2995 RMK SLP143

CYUL;2010-07-07 01:00;CYUL 070100Z 23006KT 15SM SKC 30/22 A2995 RMK SLP143

CYUL;2010-07-07 02:00;CYUL 070200Z 24009KT 15SM FEW240 30/21 A2998 RMK CI1 SLP151

CYUL;2010-07-07 03:00;CYUL 070300Z 25008KT 15SM FEW100 29/21 A2997 RMK AC2 SLP150

CYUL;2010-07-07 04:00;CYUL 070400Z 24007KT 15SM FEW100 29/21 A2998 RMK AC1 SLP151

CYUL;2010-07-07 05:00;CYUL 070500Z 23007KT 15SM SKC 27/21 A2997 RMK SLP149

CYUL;2010-07-07 06:00;CYUL 070600Z 23008KT 15SM SKC 27/20 A2997 RMK SLP150

CYUL;2010-07-07 07:00;CYUL 070700Z 23008KT 15SM SKC 26/20 A2997 RMK SLP149

CYUL;2010-07-07 08:00;CYUL 070800Z 24005KT 15SM SKC 25/20 A2997 RMK SLP150

CYUL;2010-07-07 09:00;CYUL 070900Z 19007KT 12SM FEW120 25/20 A2999 RMK AC1 SLP157

CYUL;2010-07-07 10:00;CYUL 071000Z 18006KT 12SM SKC 24/20 A3000 RMK SLP160

CYUL;2010-07-07 11:00;CYUL 071100Z 23006KT 12SM SKC 24/20 A3002 RMK SLP165

CYUL;2010-07-07 12:00;CYUL 071200Z 25006KT 12SM SKC 26/21 A3002 RMK SLP167

CYUL;2010-07-07 13:00;CYUL 071300Z 22007KT 12SM SKC 26/21 A3002 RMK SLP165

CYUL;2010-07-07 14:00;CYUL 071400Z 21009KT 12SM SKC 28/21 A3001 RMK SLP162

CYUL;2010-07-07 15:00;CYUL 071500Z 21010KT 15SM FEW240 29/21 A3001 RMK CI0 SLP161

CYUL;2010-07-07 18:00;CYUL 071800Z 23012G17KT 15SM FEW040 FEW160 33/19 A2998 RMK CU1AC0 SLP153

CYUL;2010-07-07 19:00;CYUL 071900Z CCA 23013KT 15SM FEW048 34/20 A2997 RMK CU0 SLP149

CYUL;2010-07-07 20:00;CYUL 072000Z 23013KT 15SM FEW050 33/21 A2997 RMK CU1 ACC ASOCTD NW SLP148

CYUL;2010-07-07 21:00;CYUL 072100Z 22011G16KT 15SM FEW050 33/22 A2996 RMK CU1 SLP146

CYUL;2010-07-07 22:00;CYUL 072200Z 23012KT 15SM FEW060 FEW240 33/22 A2996 RMK SC1CI0 CU EMBDD SLP146

CYUL;2010-07-07 23:00;CYUL 072300Z 24012KT 12SM FEW060 SCT090 SCT150 32/22 A2996 RMK SC1AC2AC1 HAZY SLP146

CYUL;2010-07-08 00:00;CYUL 080000Z 22008KT 15SM FEW060 FEW092 SCT160 31/21 A2996 RMK SC1AC1AC2 CU EMBD SENT VIA QUEBEC FLIGHT INFORMATION CENTER SLP147

CYUL;2010-07-08 01:00;CYUL 080100Z 23006KT 15SM FEW092 FEW150 SCT240 30/23 A2996 RMK AC1AC1CI1 SENT VIA QUEBEC FLIGHT INFORMATION CENTER SLP146

CYUL;2010-07-08 02:00;CYUL 080200Z 25008KT 15SM SKC 29/22 A2997 RMK VIA YQB FIC SLP150

CYUL;2010-07-08 03:00;CYUL 080300Z 24007KT 15SM SKC 29/22 A2998 RMK VIA YQB FIC SLP152

CYUL;2010-07-08 04:00;CYUL 080400Z 25007KT 15SM FEW120 28/21 A2998 RMK AC1 VIA YQB FIC SLP151

CYUL;2010-07-08 05:00;CYUL 080500Z 20005KT 15SM SKC 26/22 A2998 RMK VIA YQB FIC SLP153

CYUL;2010-07-08 06:00;CYUL 080600Z 22004KT 15SM SKC 26/22 A2999 RMK VIA YQB SLP154

CYUL;2010-07-08 07:00;CYUL 080700Z 24005KT 15SM FEW240 26/22 A2998 RMK CI1 VIA YQB FIC SLP153

CYUL;2010-07-08 08:00;CYUL 080800Z 24005KT 15SM BKN075 25/21 A2998 RMK AC6 VIA YQB FIC SLP152

CYUL;2010-07-08 09:00;CYUL 080900Z CCA 25004KT 12SM FEW080 25/21 A2999 RMK AC2 TCU ASOCTD E. VIA YQB FIC SLP155

CYUL;2010-07-08 10:00;CYUL 081000Z 24005KT 12SM FEW055 FEW075 25/21 A2999 RMK CU1AC2 VIA YQB FIC SLP156

CYUL;2010-07-08 11:00;CYUL 081100Z 24004KT 12SM FEW080 26/21 RMK AC1 ALTM MISG SLP158

CYUL;2010-07-08 12:00;CYUL 081200Z 21004KT 12SM FEW080 26/22 A3000 RMK ACC1 SLP160

CYUL;2010-07-08 13:00;CYUL 081300Z 20004KT 12SM FEW080 FEW120 28/23 A3000 RMK AC1AC1 SLP159

CYUL;2010-07-08 14:00;CYUL 081400Z 21005KT 15SM FEW080 FEW210 28/22 A3000 RMK AC1CI0 SLP158

CYUL;2010-07-08 15:00;CYUL 081500Z 21007KT 15SM FEW028 29/23 A2998 RMK CU1 SLP153

CYUL;2010-07-08 16:00;CYUL 081600Z 21008KT 15SM FEW036 31/23 A2997 RMK CU1 SLP148

CYUL;2010-07-08 17:00;CYUL 081700Z 20009KT 30SM FEW042 32/22 A2995 RMK CU1 SLP143

CYUL;2010-07-08 18:00;CYUL 081800Z 21010KT 30SM FEW050 FEW240 33/21 A2994 RMK CU1CI0 SLP138

CYUL;2010-07-08 19:00;CYUL 081900Z 23010KT 30SM FEW052 FEW240 33/20 A2992 RMK CU1CI1 SLP133

CYUL;2010-07-08 20:00;CYUL 082000Z 22011KT 30SM FEW052 FEW240 34/20 A2990 RMK CU1CI1 SLP126

CYUL;2010-07-08 21:00;CYUL 082100Z 24012KT 30SM FEW055 34/21 A2988 RMK CU1 SLP119

CYUL;2010-07-08 22:00;CYUL 082200Z 23010KT 30SM FEW068 FEW240 34/21 A2988 RMK ACC0CI0 ACC SE SLP117

CYUL;2010-07-08 23:00;CYUL 082300Z 22009KT 30SM FEW050 FEW240 33/21 A2988 RMK CU0CI1 SLP117

CYUL;2010-07-09 00:00;CYUL 090000Z 21006KT 15SM FEW045 FEW240 31/22 A2988 RMK CU1CI1 TCU SE SLP118

CYUL;2010-07-09 01:00;CYUL 090100Z 22006KT 15SM FEW060 FEW240 31/23 A2989 RMK SC1CI1 SLP123

CYUL;2010-07-09 02:00;CYUL 090200Z 27007KT 15SM FEW240 30/22 A2990 RMK CI1 SLP125

CYUL;2010-07-09 03:00;CYUL 090300Z 36003KT 15SM SKC 28/22 A2991 RMK SLP128

CYUL;2010-07-09 04:00;CYUL 090400Z 33005KT 15SM FEW240 26/21 A2991 RMK CI0 SLP129

CYUL;2010-07-09 05:00;CYUL 090500Z 00000KT 15SM FEW080 25/21 A2991 RMK AC2 SLP130

CYUL;2010-07-09 06:00;CYUL 090600Z 25004KT 15SM SKC 26/22 A2991 RMK SLP128

CYUL;2010-07-09 07:00;CYUL 090700Z 00000KT 15SM FEW240 25/21 A2990 RMK CI1 SLP124

CYUL;2010-07-09 08:00;CYUL 090800Z 22004KT 15SM SKC 25/22 A2989 RMK SLP123

CYUL;2010-07-09 09:00;CYUL 090900Z 15004KT 15SM SCT045 SCT240 24/21 A2990 RMK CF3CI1 SLP126

CYUL;2010-07-09 10:00;CYUL 091000Z 00000KT 15SM SCT040 25/22 A2990 RMK CF3 SLP125

CYUL;2010-07-09 11:00;CYUL 091100Z 17006KT 15SM FEW045 FEW120 25/22 A2989 RMK CF1AC1 SLP121

CYUL;2010-07-09 12:00;CYUL 091200Z 16003KT 15SM FEW120 26/22 A2989 RMK AC2 SLP121

CYUL;2010-07-09 13:00;CYUL 091300Z 16002KT 15SM FEW040 BKN110 27/23 A2988 RMK CF1AC4 SLP117

CYUL;2010-07-09 14:00;CYUL 091400Z 19004KT 15SM FEW032 SCT110 BKN180 BKN240 29/22 A2986 RMK CU1AC2AC2CI1 SLP113

CYUL;2010-07-09 15:00;CYUL 091500Z 22008KT 12SM FEW032 SCT110 BKN180 OVC240 29/22 A2986 RMK SC2AC2AC2CS1 CU EMBD SLP111

CYUL;2010-07-09 16:00;CYUL 091600Z 21005KT 12SM SCT037 BKN100 BKN160 OVC240 30/23 A2983 RMK SC2AC2AC1CS1 CU EMBD SLP102

CYUL;2010-07-09 16:46;CYUL 091646Z 19004KT 6SM -TSRA FEW032 BKN058 OVC180 29/ RMK SC2SC4AC2 CB ASOCTD S CIG LWR S

CYUL;2010-07-09 16:54;CYUL 091654Z 24007KT 5SM -TSRA SCT008 BKN020CB OVC060 28/ RMK SF3CB2SC3

CYUL;2010-07-09 17:00;CYUL 091700Z 26010KT 6SM -TSRA SCT008 BKN027CB OVC050 26/22 A2981 RERA RMK SF2CB2SC3 OCNL LTGCC SLP094

CYUL;2010-07-09 17:07;CYUL 091707Z 22022G28KT 1SM +TSRA SCT008 OVC020CB 24/ RMK SF3CB5

CYUL;2010-07-09 17:13;CYUL 091713Z 19017G35KT 2SM -TSRA SCT008 BKN018CB OVC027 23/ RERA RMK SF3CB4SC1 LTGCC

CYUL;2010-07-09 17:22;CYUL 091722Z 20013G22KT 4SM -TSRA FEW008 SCT018CB BKN038 OVC057 23/ RERA RMK SF2CB2SC4SC1 LTGCC

CYUL;2010-07-09 17:33;CYUL 091733Z 28016KT 6SM -TSRA FEW012 SCT020CB BKN032 OVC057 23/ RERA RMK SF2CB2SC4SC1 OCNL LTGCC CB MOVG FM SW TO NE CIG LWR NE

CYUL;2010-07-09 17:38;CYUL 091738Z 31011G19KT 4SM -TSRA FEW012 BKN023CB OVC040 23/ RERA RMK SF2CB4SC2 OCNL LTGCC VIS NW 1/2 CIG LWR NW

CYUL;2010-07-09 17:44;CYUL 091744Z 31011G19KT 4SM -TSRA FEW012 BKN023CB OVC036 23/ RERA RMK SF2CB2SC4 CIG LWR NE

CYUL;2010-07-09 18:00;CYUL 091800Z 34010KT 8SM -TSRA FEW014 SCT022CB BKN036 OVC058 23/21 A2984 RERA RMK SF2CB2SC4SC1 /R19/ SLP106

CYUL;2010-07-09 18:19;CYUL 091819Z 13002KT 3SM -TSRA SCT012 BKN022CB OVC030 23/ RERA RMK SF3CB3SC2

CYUL;2010-07-09 18:40;CYUL 091840Z 14009KT 2SM -TSRA SCT012 BKN020CB OVC030 23/ RERA RMK SF2CB2SC3 OCNL LTGCC

CYUL;2010-07-09 18:49;CYUL 091849Z 18009KT 6SM -TSRA FEW012 SCT027CB BKN040 OVC057 23/ RERA RMK SF1CB2SC3SC2 OCNL LTGCC

CYUL;2010-07-09 19:00;CYUL 091900Z 24006KT 12SM TS FEW022 SCT044 BKN060 OVC130 24/22 A2980 RERA RMK SF1SC2SC3AC2 /R12/ CB ASOCTD SLP091

CYUL;2010-07-09 19:12;CYUL 091912Z 14003KT 12SM FEW022 SCT038 BKN060 OVC180 24/ RETSRA RMK SF1SC2SC4AC1

CYUL;2010-07-09 19:45;CYUL 091945Z 29008KT 4SM -RA FEW017 BKN028 OVC060 24/ RETSRA RMK SF2SC4SC2

CYUL;2010-07-09 20:00;CYUL 092000Z 00000KT 8SM -RA FEW012 SCT020 BKN032 OVC072 23/21 A2983 RMK SF1SC2SC4AC1 CB ASOCTD SLP100

CYUL;2010-07-09 21:00;CYUL 092100Z 03008KT 12SM -RA FEW009 SCT037 OVC058 24/22 A2978 RMK SF2SC2SC4 VRY LGT RA SLP086

CYUL;2010-07-09 21:28;CYUL 092128Z 03008KT 12SM FEW008 BKN016 OVC058 24/ RMK SF2SC4SC2

CYUL;2010-07-09 21:48;CYUL 092148Z 01009KT 12SM FEW009 BKN014 OVC036 23/ RMK SF2SC4SC2

CYUL;2010-07-09 22:00;CYUL 092200Z 04006KT 12SM -RA FEW008 BKN016 OVC022 23/21 A2978 RMK SF2SC5SC2 -RA INTMT SLP086

CYUL;2010-07-09 23:00;CYUL 092300Z 05007KT 12SM FEW014 SCT032 OVC100 23/20 A2977 RMK SF1SC3AC3 SLP083

CYUL;2010-07-09 23:18;CYUL 092318Z 04006KT 12SM BKN015 BKN027 OVC058 23/ RMK SF4SC3SC1

CYUL;2010-07-10 00:00;CYUL 100000Z 34004KT 12SM BKN017 OVC027 23/21 A2979 RMK SF6SC2 SLP087

CYUL;2010-07-10 00:12;CYUL 100012Z 33004KT 12SM -RA BKN017 OVC022 22/ RMK SF6SC2

CYUL;2010-07-10 01:00;CYUL 100100Z 34004KT 8SM -RA FEW007 BKN016 OVC028 22/21 A2981 RMK SF2SC5SC2 SLP094

CYUL;2010-07-10 02:00;CYUL 100200Z 01003KT 4SM -RA BR FEW003 OVC030 22/21 A2980 RMK SF2SC6 SLP093

CYUL;2010-07-10 02:44;CYUL 100244Z 29002KT 5SM -RA BR BKN005 OVC100 22/ RMK SF6AC2

CYUL;2010-07-10 03:00;CYUL 100300Z 32004KT 4SM -RA BR BKN004 OVC013 22/21 A2982 RMK ST6SC2 SLP097

CYUL;2010-07-10 03:21;CYUL 100321Z 35006KT 3SM -RA BR FEW004 SCT018 OVC040 22/ RMK SF2SC2SC4

CYUL;2010-07-10 04:00;CYUL 100400Z 01005KT 5SM -RA BR BKN005 OVC030 21/20 A2980 RMK SF5SC3 SLP091

CYUL;2010-07-10 04:31;CYUL 100431Z 36004KT 5SM BR SCT006 BKN070 OVC120 21/ RMK SF2AC4AC2

CYUL;2010-07-10 05:00;CYUL 100500Z CCA 00000KT 5SM -RA BR SCT004 BKN065 OVC130 21/20 A2978 RMK SF2SC5AC1 -RS INTMT SLP085

CYUL;2010-07-10 06:00;CYUL 100600Z 26002KT 6SM -RA BR FEW005 OVC130 21/20 A2979 RMK SF1AS7 SLP088

CYUL;2010-07-10 07:00;CYUL 100700Z 00000KT 6SM BR FEW005 FEW025 BKN110 OVC180 21/20 A2978 RMK SF1SC1AC3AS3 SLP085

CYUL;2010-07-10 08:00;CYUL 100800Z 27003KT 6SM BR BKN033 OVC100 21/20 A2979 RMK SC6AC2 SLP087

CYUL;2010-07-10 09:00;CYUL 100900Z 26003KT 6SM BR BKN009 OVC180 21/20 A2980 RMK SF5AC3 SLP092

CYUL;2010-07-10 09:13;CYUL 100913Z 25002KT 6SM BR FEW008 OVC210 21/ RMK SF2CC6

CYUL;2010-07-10 10:00;CYUL 101000Z 26004KT 6SM BR FEW006 BKN095 OVC240 21/20 A2982 RMK SF1AC6CI2 SLP097

CYUL;2010-07-10 11:00;CYUL 101100Z 27004KT 8SM FEW008 FEW095 OVC240 22/20 A2982 RMK SF1AC2CI6 SLP099

CYUL;2010-07-10 12:00;CYUL 101200Z 24006KT 8SM BKN008 OVC240 22/21 A2983 RMK SF6CI2 SLP101

CYUL;2010-07-10 13:00;CYUL 101300Z 29005KT 10SM BKN010 OVC210 23/20 A2984 RMK SF7CS1 SLP106

CYUL;2010-07-10 14:00;CYUL 101400Z 28003KT 15SM SCT014 BKN045 BKN150 OVC220 23/20 A2985 RMK SF2SC3AC2CS1 SLP107

CYUL;2010-07-10 14:18;CYUL 101418Z 30004KT 15SM SCT017 BKN028 OVC150 24/ RMK CU3SC4AC1 ACC ASOCTD

CYUL;2010-07-10 15:00;CYUL 101500Z 22002KT 15SM SCT022 BKN100 BKN180 OVC230 25/20 A2985 RMK CU3AC2AC1CS1 SLP108

CYUL;2010-07-10 16:00;CYUL 101600Z 21004KT 15SM FEW021 BKN100 BKN180 BKN240 25/21 A2985 RMK CU2AC2AC2CS1 SLP107

CYUL;2010-07-10 17:00;CYUL 101700Z 23007KT 15SM SCT029 BKN120 BKN180 BKN240 26/20 A2985 RMK CU3AC2AC2CI1 SLP108

CYUL;2010-07-10 18:00;CYUL 101800Z 25007KT 15SM FEW032 FEW120 SCT180 BKN240 26/20 A2985 RMK CU1AC1AC1CI2 SLP107

CYUL;2010-07-10 19:00;CYUL 101900Z 20008KT 30SM FEW032 SCT170 BKN240 27/20 A2984 RMK CU1AC1CI2 SLP105

CYUL;2010-07-10 20:00;CYUL 102000Z 20010KT 30SM FEW036 FEW180 BKN240 27/20 A2984 RMK CF1AC1CI1 TCU EMBD NE SLP106

CYUL;2010-07-10 21:00;CYUL 102100Z 20008KT 30SM FEW060 FEW180 BKN240 28/19 A2984 RMK SC1AC1CI1 TCU EMBD SLP106

CYUL;2010-07-10 22:00;CYUL 102200Z 20010KT 30SM FEW060 SCT120 BKN240 27/19 A2984 RMK SC1AC2CI2 TCU EMBD SLP104

CYUL;2010-07-10 23:00;CYUL 102300Z 27006KT 30SM SCT050 SCT120 BKN240 28/19 A2984 RMK SC2AC2CI1 TCU EMBD CIG LWR NE SLP105

CYUL;2010-07-11 00:00;CYUL 110000Z 31004KT 30SM FEW052 SCT110 BKN240 26/19 A2985 RMK SC2AC1CI1 TCU EMBD N SLP107

CYUL;2010-07-11 01:00;CYUL 110100Z 27005KT 15SM FEW055 FEW120 FEW240 25/18 A2985 RMK SC1AC1CI0 SLP110

CYUL;2010-07-11 02:00;CYUL 110200Z 26004KT 15SM FEW120 FEW240 25/18 A2987 RMK AC1CI1 SLP114

CYUL;2010-07-11 03:00;CYUL 110300Z 25003KT 15SM BKN240 24/18 A2987 RMK CI1 SLP115

CYUL;2010-07-11 04:00;CYUL 110400Z 22003KT 15SM SCT240 24/19 A2987 RMK CI0 SLP115

CYUL;2010-07-11 05:00;CYUL 110500Z 28003KT 15SM FEW120 SCT240 22/19 A2987 RMK AC1CI1 SLP116

CYUL;2010-07-11 06:00;CYUL 110600Z 00000KT 15SM FEW075 BKN120 22/19 A2987 RMK AC1AC5 SLP115

CYUL;2010-07-11 07:00;CYUL 110700Z 00000KT 15SM FEW120 SCT240 22/19 A2986 RMK AC2CI0 SLP113

CYUL;2010-07-11 08:00;CYUL 110800Z 30003KT 15SM FEW085 BKN240 20/19 A2985 RMK AC2CI0 SLP110

CYUL;2010-07-11 09:00;CYUL 110900Z 18002KT 15SM FEW085 SCT120 BKN240 21/19 A2987 RMK AC1AC2CI1 SLP114

CYUL;2010-07-11 10:00;CYUL 111000Z 36002KT 15SM FEW080 FEW120 BKN240 21/19 A2988 RMK ACC1AC1CI2 SLP118

CYUL;2010-07-11 11:00;CYUL 111100Z 25002KT 15SM FEW075 SCT120 BKN240 22/19 A2988 RMK ACC2AC2CI1 SLP119

CYUL;2010-07-11 12:00;CYUL 111200Z 36002KT 15SM FEW075 FEW120 OVC250 22/19 A2989 RMK ACC1AC2CI2 SLP121

CYUL;2010-07-11 13:00;CYUL 111300Z 02003KT 15SM FEW075 OVC250 24/16 A2988 RMK ACC1CI2 SLP118

CYUL;2010-07-11 14:00;CYUL 111400Z 36002KT 30SM FEW040 FEW075 BKN240 25/15 A2989 RMK CU1AC0CI2 ACC ASOCTD SLP121

CYUL;2010-07-11 15:00;CYUL 111500Z CCA 30002KT 30SM FEW042 FEW090 BKN240 27/18 A2989 RMK CU1AC1CI2 SLP122

CYUL;2010-07-11 16:00;CYUL 111600Z 20004KT 30SM FEW040 SCT170 BKN240 27/19 A2988 RMK CU1AC1CI2 SLP120

CYUL;2010-07-11 17:00;CYUL 111700Z 24006KT 30SM FEW060 SCT120 BKN240 28/18 A2987 RMK SC1AC1CI2 ACC ASOCTD NW TCU EMBD E SLP114

CYUL;2010-07-11 18:00;CYUL 111800Z 25004KT 30SM FEW060 SCT170 BKN240 29/16 A2985 RMK SC1AC1CI2 ACC ASOCTD CU EMBD E SLP108

CYUL;2010-07-11 19:00;CYUL 111900Z 24008KT 30SM FEW062 SCT180 BKN240 29/16 A2984 RMK SC1AC1CI2 ACC ASOCTD SW TCU EMBD NE SLP104

CYUL;2010-07-11 20:00;CYUL 112000Z 23008KT 30SM FEW060 FEW180 BKN240 29/14 A2983 RMK SC1AC1CI2 TCU EMBD NE SLP100

CYUL;2010-07-11 21:00;CYUL 112100Z 22008KT 30SM FEW060 FEW170 BKN240 29/14 A2982 RMK SC1AC1CI2 TCU EMBD N-E SLP097

CYUL;2010-07-11 22:00;CYUL 112200Z 22006KT 30SM FEW060 FEW180 BKN240 29/15 A2980 RMK SC1AC1CI2 TCU EMBD SLP091

CYUL;2010-07-11 23:00;CYUL 112300Z 23007KT 30SM SCT240 28/16 A2980 RMK CI1 CU ASOCTD SLP090

CYUL;2010-07-12 00:00;CYUL 120000Z 22007KT 30SM FEW240 28/17 A2980 RMK CI1 TCU ASOCTD SLP090

CYUL;2010-07-12 01:00;CYUL 120100Z 22005KT 15SM FEW240 27/16 A2980 RMK CI1 TCU ASOCTD S SLP093

CYUL;2010-07-12 02:00;CYUL 120200Z 22005KT 15SM FEW180 26/15 A2981 RMK AC1 SLP095

CYUL;2010-07-12 03:00;CYUL 120300Z 24004KT 15SM SKC 25/18 A2981 RMK SLP096

CYUL;2010-07-12 04:00;CYUL 120400Z 23003KT 15SM SKC 25/17 A2981 RMK SLP095

CYUL;2010-07-12 05:00;CYUL 120500Z 22006KT 15SM FEW150 24/19 A2982 RMK AC0 SLP099

CYUL;2010-07-12 06:00;CYUL 120600Z 24004KT 15SM FEW150 23/17 A2983 RMK AC1 SLP101

CYUL;2010-07-12 07:00;CYUL 120700Z 26006KT 15SM SKC 22/17 A2983 RMK SLP101

CYUL;2010-07-12 08:00;CYUL 120800Z 26002KT 15SM FEW150 20/16 A2983 RMK AC0 SLP102

CYUL;2010-07-12 09:00;CYUL 120900Z 26005KT 15SM FEW065 FEW120 21/16 A2983 RMK CU1AC2 SLP103

CYUL;2010-07-12 10:00;CYUL 121000Z 00000KT 15SM FEW065 SCT120 21/15 A2983 RMK CU2AC2 SLP103

CYUL;2010-07-12 11:00;CYUL 121100Z 23003KT 15SM FEW065 FEW120 22/16 A2985 RMK CU1AC2 SLP107

CYUL;2010-07-12 12:00;CYUL 121200Z 22005KT 15SM FEW065 FEW240 23/17 A2985 RMK CU1CI0 SLP109

CYUL;2010-07-12 13:00;CYUL 121300Z 22005KT 15SM SCT240 24/16 A2986 RMK CI0 SLP111

CYUL;2010-07-12 14:00;CYUL 121400Z 21006KT 30SM BKN240 25/14 A2986 RMK CI2 CU PRSNT SLP112

CYUL;2010-07-12 15:00;CYUL 121500Z 22004KT 30SM FEW110 FEW180 BKN240 27/14 A2985 RMK AC1AC1CI2 SLP110

CYUL;2010-07-12 16:00;CYUL 121600Z 23004KT 30SM FEW180 BKN240 28/16 A2985 RMK AC1CI2 SLP109

CYUL;2010-07-12 17:00;CYUL 121700Z 19007KT 30SM FEW180 BKN240 28/17 A2984 RMK AC1CI2 SLP104

CYUL;2010-07-12 18:00;CYUL 121800Z 22007KT 30SM FEW044 FEW100 FEW170 BKN240 29/17 A2983 RMK CU1AC0AC1CI1 SLP103

CYUL;2010-07-12 19:00;CYUL 121900Z 21005KT 30SM FEW044 SCT120 BKN160 BKN240 29/18 A2981 RMK CU1AC2AC2CI2 SLP095

CYUL;2010-07-12 20:00;CYUL 122000Z 16011KT 30SM FEW052 SCT120 SCT180 BKN240 29/20 A2981 RMK CU1AC2AC1CI2 SLP094

CYUL;2010-07-12 21:00;CYUL 122100Z 16009KT 15SM FEW040 SCT150 BKN240 28/19 A2980 RMK CU1AC2CI2 SLP092

CYUL;2010-07-12 22:00;CYUL 122200Z 14007KT 15SM FEW060 FEW150 BKN240 29/19 A2979 RMK SC1AC1CI2 TCU EMBD S SLP087

CYUL;2010-07-12 23:00;CYUL 122300Z 17020G40KT 15SM BKN055 BKN110 BKN170 BKN240 24/16 A2983 RMK SC3AC2AC1CI1 CB ASOCTD TCU E CIG LWR SE SLP100

CYUL;2010-07-12 23:12;CYUL 122312Z 17015G25KT 10SM TS SCT052 BKN120 BKN170 BKN240 23/ RMK SC3AC2AC2CI1 CB SE TCU EMBD NE DIST LTGCC SE

CYUL;2010-07-12 23:24;CYUL 122324Z CCA 16013KT 10SM -TSRA FEW050CB BKN120 BKN170 BKN240 23/ RMK CB2AC3AC2CI1 CB SE TCU EMBD NE DIST LTGCC SE CIG LWR SE

CYUL;2010-07-13 00:00;CYUL 130000Z 16008KT 10SM -TSRA FEW048CB SCT075 BKN110 BKN240 23/19 A2980 RMK CB2AC2AC3CI1 CB PRSNT E TCU EMBD NW CIG LWR E OCNL LTGCC SE SLP092

CYUL;2010-07-13 00:29;CYUL 130029Z 16007KT 15SM FEW052 SCT090 BKN180 BKN240 23/ RETS RMK SC1AC2AC3CI1 CB PRSNT E TCU EMBD CIG LWR E

CYUL;2010-07-13 01:00;CYUL 130100Z 16008KT 15SM FEW052 SCT080 BKN140 OVC240 23/17 A2981 RMK SC2AC2AC3CI1 SLP096

CYUL;2010-07-13 02:00;CYUL 130200Z 33002KT 15SM FEW070 SCT140 BKN240 22/17 A2983 RMK AC2AC2CI0 DIST LTNG N SLP101

CYUL;2010-07-13 03:00;CYUL 130300Z 07005KT 15SM -SHRA BKN080 BKN120 24/17 A2984 RMK AC5AC1 SLP104

CYUL;2010-07-13 03:19;CYUL 130319Z 06006KT 15SM SCT090 BKN120 24/ RMK AC2AC1

CYUL;2010-07-13 04:00;CYUL 130400Z 09005KT 15SM -SHRA BKN090 BKN120 24/18 A2984 RMK AC6AC2 SLP105

CYUL;2010-07-13 04:35;CYUL 130435Z 31007KT 15SM BKN090 OVC120 22/ RMK AC6AC2

CYUL;2010-07-13 05:00;CYUL 130500Z 36004KT 15SM SCT090 OVC120 23/19 A2985 RMK AC3AC5 SLP109

CYUL;2010-07-13 05:55;CYUL 130555Z 02007KT 15SM -SHRA SCT090 OVC120 22/ RMK AC3AC5

CYUL;2010-07-13 06:00;CYUL 130600Z 32002KT 12SM -SHRA OVC110 22/18 A2987 RMK AC8 SLP116

CYUL;2010-07-13 07:00;CYUL 130700Z 05004KT 12SM OVC110 22/18 A2987 RMK AC8 SLP116

CYUL;2010-07-13 08:00;CYUL 130800Z 05006KT 15SM OVC110 22/18 A2988 RMK AC8 SLP117

CYUL;2010-07-13 08:37;CYUL 130837Z 04004KT 15SM -SHRA OVC110 22/ RMK AC8

CYUL;2010-07-13 09:00;CYUL 130900Z 06006KT 15SM -SHRA OVC130 22/18 A2988 RMK AC8 SLP120

CYUL;2010-07-13 10:00;CYUL 131000Z 06007KT 15SM OVC120 21/18 A2989 RMK AC8 SLP123

CYUL;2010-07-13 10:15;CYUL 131015Z 06007KT 15SM -SHRA OVC120 21/ RMK AC8

CYUL;2010-07-13 10:34;CYUL 131034Z 07007KT 15SM BKN050 OVC120 21/ RMK SC5AC3

CYUL;2010-07-13 11:00;CYUL 131100Z 06006KT 15SM SCT050 OVC100 21/18 A2989 RMK SC3AC5 SLP122

CYUL;2010-07-13 12:00;CYUL 131200Z 10004KT 12SM SCT050 OVC120 22/18 A2990 RMK SC3AC4 SLP126

CYUL;2010-07-13 12:16;CYUL 131216Z 14003KT 10SM -SHRA BKN075 OVC100 22/ RMK AC6AC2 VIS S 3

CYUL;2010-07-13 12:51;CYUL 131251Z 04003KT 12SM BKN040 OVC070 22/ RMK SC5AC3

CYUL;2010-07-13 13:00;CYUL 131300Z 00000KT 12SM BKN048 OVC070 22/19 A2991 RMK SC6AC2 SLP128

CYUL;2010-07-13 14:00;CYUL 131400Z 07003KT 12SM SCT048 BKN072 BKN140 24/20 A2990 RMK SC3AC2AC2 SLP126

CYUL;2010-07-13 15:00;CYUL 131500Z 35002KT 12SM FEW020 SCT050 BKN080 OVC140 25/20 A2990 RMK CU1SC2AC2AC3 SLP125

CYUL;2010-07-13 16:00;CYUL 131600Z 30003KT 12SM FEW020 SCT040 OVC120 26/19 A2989 RMK CU1SC3AC3 SLP123

CYUL;2010-07-13 17:00;CYUL 131700Z 28003KT 12SM BKN039 OVC100 26/19 A2989 RMK SC6AC2 SLP123

CYUL;2010-07-13 18:00;CYUL 131800Z 00000KT 15SM BKN040 OVC080 27/18 A2988 RMK SC6AC2 SLP119

CYUL;2010-07-13 18:11;CYUL 131811Z 00000KT 15SM TS VCSH BKN040 OVC070 27/ RMK SC6AC2 CB EMBD LTNG E

CYUL;2010-07-13 18:45;CYUL 131845Z 14011G19KT 15SM -SHRA FEW010 BKN037 OVC070 24/ RETS RMK SF1SC5AC2 CB EMBD DIST LTNG NE

CYUL;2010-07-13 19:00;CYUL 131900Z 11010KT 15SM -SHRA FEW010 BKN038 OVC080 24/21 A2989 RETS RMK SF1SC4AC3 CB EMBD SLP121

CYUL;2010-07-13 19:38;CYUL 131938Z 07005KT 15SM FEW020 SCT050 OVC085 24/ RMK SC1SC2AC5

CYUL;2010-07-13 20:00;CYUL 132000Z 05005KT 15SM FEW040 SCT070 OVC100 24/20 A2989 RMK SC2AC2AC4 SLP121

CYUL;2010-07-13 21:00;CYUL 132100Z 04007KT 15SM FEW060 BKN100 OVC180 25/20 A2989 RMK SC2AC3AC2 SLP123

CYUL;2010-07-13 21:27;CYUL 132127Z 02010KT 12SM TS FEW012 BKN055 BKN080 OVC120 24/ RMK SF2SC3AC2AC2 CB EMBD

CYUL;2010-07-13 21:37;CYUL 132137Z 03010KT 12SM -TSRA FEW012 BKN055 OVC090 24/ RMK SF2SC4AC2 CB EMBD

CYUL;2010-07-13 22:00;CYUL 132200Z 02011KT 10SM -TSRA FEW013 SCT055 BKN090 OVC140 24/20 A2989 RMK SF1SC3AC3AC1 CB EMBD OCNL -SHRA SLP123

CYUL;2010-07-13 22:44;CYUL 132244Z 04009KT 10SM -SHRA FEW013 SCT050 BKN070 OVC100 23/ RETS RMK SF1SC3AC2AC2

CYUL;2010-07-13 23:00;CYUL 132300Z 04010KT 10SM -SHRA FEW020 FEW050 BKN080 OVC140 23/21 A2990 RETS RMK SC1SC2AC3AC2 SLP124

CYUL;2010-07-13 23:42;CYUL 132342Z 07007KT 10SM -SHRA FEW009 BKN050 OVC120 23/ RMK SF2SC4AC2

CYUL;2010-07-14 00:00;CYUL 140000Z 05008KT 10SM -SHRA FEW009 SCT050 OVC090 22/20 A2991 RMK SF1SC2AC5 SLP130

CYUL;2010-07-14 01:00;CYUL 140100Z 05006KT 10SM -SHRA FEW009 BKN028 OVC090 22/20 A2993 RMK SF2SC4AC2 OCNL -SHRA SLP135

CYUL;2010-07-14 01:53;CYUL 140153Z 03004KT 10SM FEW009 OVC020 22/ RMK SF1SC7

CYUL;2010-07-14 02:00;CYUL 140200Z 05005KT 10SM FEW009 OVC017 22/19 A2994 RMK SF2SC6 SLP138

CYUL;2010-07-14 02:11;CYUL 140211Z 04007KT 10SM -SHRA FEW009 OVC017 22/ RMK SF2SC6

CYUL;2010-07-14 03:00;CYUL 140300Z 05007KT 10SM -DZ FEW009 OVC018 22/19 A2993 RMK SF2SC6 SLP135

CYUL;2010-07-14 04:00;CYUL 140400Z 03006KT 10SM -DZ OVC023 21/19 A2992 RMK SC8 SLP131

CYUL;2010-07-14 04:07;CYUL 140407Z 03006KT 10SM -RA BKN025 OVC120 21/ RMK SC6AC2

CYUL;2010-07-14 05:00;CYUL 140500Z 05005KT 10SM SCT030 OVC130 21/19 A2992 RMK SC3AC5 SLP132

CYUL;2010-07-14 06:00;CYUL 140600Z 01007KT 8SM BKN030 OVC120 21/19 A2993 RMK SC6AC2 SLP135

CYUL;2010-07-14 07:00;CYUL 140700Z 36006KT 8SM SCT030 OVC160 20/19 A2992 RMK SC3AC5 SLP133

CYUL;2010-07-14 08:00;CYUL 140800Z 01006KT 8SM FEW045 OVC160 21/19 A2993 RMK SC2AC6 SLP134

CYUL;2010-07-14 09:00;CYUL 140900Z 02008KT 8SM FEW005 OVC010 21/19 A2994 RMK SF2SF6 SLP139

CYUL;2010-07-14 10:00;CYUL 141000Z 02006KT 10SM FEW008 OVC012 21/19 A2996 RMK SF1SF7 SLP144

CYUL;2010-07-14 10:21;CYUL 141021Z 01008KT 12SM SCT014 OVC120 21/ RMK SF3AC5

CYUL;2010-07-14 11:00;CYUL 141100Z 02009KT 15SM FEW015 SCT180 BKN240 21/19 A2997 RMK SF1AC3CI1 SLP149

CYUL;2010-07-14 12:00;CYUL 141200Z 02011KT 15SM FEW014 SCT047 BKN240 22/19 A2998 RMK SF1SC3CI0 SLP151

CYUL;2010-07-14 13:00;CYUL 141300Z 02013KT 15SM SCT017 BKN055 22/18 A2999 RMK SC3CU2 SLP154

CYUL;2010-07-14 14:00;CYUL 141400Z 04010KT 15SM BKN020 23/19 A2999 RMK SC6 SLP155

CYUL;2010-07-14 15:00;CYUL 141500Z 02008KT 15SM BKN020 24/19 A3000 RMK SC6 CU ASOCTD SLP159

CYUL;2010-07-14 16:00;CYUL 141600Z 06007KT 15SM SCT025 BKN210 25/19 A3000 RMK SC4CI0 CU ASOCTD SLP160

CYUL;2010-07-14 17:00;CYUL 141700Z 05008KT 15SM SCT030 BKN210 26/20 A3000 RMK CU4CI0 SLP158

CYUL;2010-07-14 18:00;CYUL 141800Z 06005KT 15SM SCT035 BKN210 27/20 A2999 RMK CU3CI1 SLP155

CYUL;2010-07-14 19:00;CYUL 141900Z 04010G15KT 15SM FEW040 SCT240 27/18 A3000 RMK CU2CI0 SLP158

CYUL;2010-07-14 20:00;CYUL 142000Z 04010KT 15SM FEW040 FEW240 28/18 A2999 RMK CU2CI0 SLP155

CYUL;2010-07-14 21:00;CYUL 142100Z 01009KT 15SM FEW040 FEW240 28/19 A2999 RMK CU2CI1 SLP156

CYUL;2010-07-14 22:00;CYUL 142200Z 04008KT 15SM FEW045 FEW240 28/18 A2999 RMK CU2CI1 SLP157

CYUL;2010-07-14 23:00;CYUL 142300Z 35008KT 15SM FEW045 FEW240 28/18 A3000 RMK CU1CI1 SLP159

CYUL;2010-07-15 00:00;CYUL 150000Z 05006KT 15SM FEW045 28/17 A2999 RMK CU1 SLP157

CYUL;2010-07-15 01:00;CYUL 150100Z 05003KT 15SM FEW040 27/17 A3001 RMK CU1 CU TR SLP163

CYUL;2010-07-15 02:00;CYUL 150200Z 25002KT 15SM FEW040 25/18 A3003 RMK CU1 SLP169

CYUL;2010-07-15 03:00;CYUL 150300Z 25002KT 15SM SKC 23/19 A3002 RMK SLP167

CYUL;2010-07-15 04:00;CYUL 150400Z 26003KT 15SM SKC 23/19 A3002 RMK SLP167

CYUL;2010-07-15 05:00;CYUL 150500Z 00000KT 15SM SKC 23/19 A3004 RMK SLP171

CYUL;2010-07-15 06:00;CYUL 150600Z 00000KT 15SM SKC 22/19 A3004 RMK SLP172

CYUL;2010-07-15 07:00;CYUL 150700Z 34003KT 15SM SKC 21/18 A3002 RMK SLP166

CYUL;2010-07-15 08:00;CYUL 150800Z 34003KT 15SM SKC 19/18 A3001 RMK SLP164

CYUL;2010-07-15 09:00;CYUL 150900Z 32002KT 15SM SKC 19/17 A3004 RMK SLP174

CYUL;2010-07-15 10:00;CYUL 151000Z 36003KT 15SM FEW240 19/16 A3005 RMK CI0 SLP177

CYUL;2010-07-15 11:00;CYUL 151100Z 03005KT 15SM SCT240 21/16 A3005 RMK CI0 SLP175

CYUL;2010-07-15 12:00;CYUL 151200Z 01003KT 15SM BKN240 23/16 A3005 RMK CI1 SLP177

CYUL;2010-07-15 13:00;CYUL 151300Z 31002KT 15SM SCT240 24/16 A3007 RMK CI0 SLP182

CYUL;2010-07-15 14:00;CYUL 151400Z 28002KT 15SM SCT240 25/16 A3007 RMK CI0 SLP181

CYUL;2010-07-15 15:00;CYUL 151500Z 00000KT 15SM FEW035 SCT240 27/17 A3005 RMK CU1CI1 SLP176

CYUL;2010-07-15 16:00;CYUL 151600Z 19003KT 15SM FEW040 SCT240 28/16 A3004 RMK CU1CI1 SLP173

CYUL;2010-07-15 17:00;CYUL 151700Z 19004KT 15SM FEW040 SCT240 29/17 A3002 RMK CU1CI1 SLP166

CYUL;2010-07-15 18:00;CYUL 151800Z 21003KT 15SM FEW050 SCT240 30/16 A2999 RMK CU1CI1 SLP157

CYUL;2010-07-15 19:00;CYUL 151900Z 20005KT 15SM FEW050 SCT240 30/17 A2998 RMK CU1CI1 SLP152

CYUL;2010-07-15 20:00;CYUL 152000Z 17004KT 15SM FEW050 FEW150 SCT240 30/17 A2996 RMK CU1AC1CI0 SLP146

CYUL;2010-07-15 21:00;CYUL 152100Z 22005KT 15SM FEW050 FEW150 SCT240 30/19 A2994 RMK CU1AC1CI0 SLP140

CYUL;2010-07-15 22:00;CYUL 152200Z 24004KT 15SM FEW050 FEW150 SCT240 30/20 A2993 RMK CU1AC1CI1 SLP135

CYUL;2010-07-15 23:00;CYUL 152300Z 18004KT 15SM FEW050 FEW120 SCT240 29/19 A2992 RMK CU1AC1CI0 SLP132

CYUL;2010-07-16 00:00;CYUL 160000Z 15007KT 15SM FEW050 FEW140 SCT240 28/20 A2991 RMK CU1AC2CI0 SLP129

CYUL;2010-07-16 01:00;CYUL 160100Z 16005KT 15SM FEW090 SCT140 BKN210 28/20 A2991 RMK AC1AC3CI1 SLP127

CYUL;2010-07-16 02:00;CYUL 160200Z 19004KT 15SM SCT055 BKN085 OVC210 28/20 A2992 RMK CF4AC3CI1 SLP131

CYUL;2010-07-16 03:00;CYUL 160300Z 19005KT 15SM FEW055 FEW090 OVC180 27/20 A2991 RMK CF2AC1AC6 SLP128

CYUL;2010-07-16 04:00;CYUL 160400Z 20005KT 15SM FEW060 OVC200 27/20 A2989 RMK CF1CI8 SLP123

CYUL;2010-07-16 05:00;CYUL 160500Z 20008KT 15SM BKN190 OVC240 26/21 A2986 RMK AC7CI1 SLP113

CYUL;2010-07-16 06:00;CYUL 160600Z 21009KT 15SM SCT190 OVC240 25/21 A2985 RMK AC4CI3 SLP110

CYUL;2010-07-16 07:00;CYUL 160700Z 20007KT 15SM SCT190 BKN240 25/19 A2983 RMK AC4CC3 SLP103

CYUL;2010-07-16 08:00;CYUL 160800Z 17005KT 15SM OVC240 25/19 A2982 RMK CI7 SLP099

CYUL;2010-07-16 09:00;CYUL 160900Z 18007KT 15SM FEW180 OVC240 24/19 A2982 RMK AC2CI6 SLP098

CYUL;2010-07-16 10:00;CYUL 161000Z 17009KT 15SM FEW060 SCT120 OVC140 24/20 A2982 RMK CF1AC3AC5 SLP098

CYUL;2010-07-16 11:00;CYUL 161100Z 15006KT 15SM -RA SCT055 OVC067 24/20 A2981 RMK SC3AS5 SLP095

CYUL;2010-07-16 11:36;CYUL 161136Z 16006KT 15SM OVC060 24/ RMK SC8

CYUL;2010-07-16 12:00;CYUL 161200Z 16006KT 15SM -RA SCT065 OVC120 25/20 A2979 RMK SC3AC5 -RA INTMT SLP089

CYUL;2010-07-16 13:00;CYUL 161300Z 21009KT 15SM OVC070 25/20 A2979 RMK AC8 SLP088

CYUL;2010-07-16 13:37;CYUL 161337Z 23013KT 15SM -SHRA FEW025 BKN050 OVC130 26/ RMK CF1SC7AC1

CYUL;2010-07-16 14:00;CYUL 161400Z 23020G25KT 15SM -SHRA FEW025 BKN045 OVC120 25/20 A2980 RMK CF1SC6AC2 SLP090

CYUL;2010-07-16 15:00;CYUL 161500Z 23014G19KT 15SM -SHRA SCT014 BKN045 OVC090 24/21 A2979 RMK SF3SC3AC2 SLP087

CYUL;2010-07-16 15:22;CYUL 161522Z 23014KT 15SM FEW014 BKN045 BKN090 OVC220 24/ RMK SC2SC2AC2CI1

CYUL;2010-07-16 16:00;CYUL 161600Z 23016KT 15SM FEW016 BKN044 OVC080 25/21 A2978 RMK SC2SC4AC2 SLP085

CYUL;2010-07-16 17:00;CYUL 161700Z 24016G21KT 15SM OVC020 26/21 A2977 RMK SC8 SLP082

CYUL;2010-07-16 18:00;CYUL 161800Z 24020G25KT 15SM OVC019 26/21 A2976 RMK SC8 SLP077

CYUL;2010-07-16 19:00;CYUL 161900Z 23013G19KT 15SM BKN020 BKN240 26/21 A2973 RMK SC6CI1 CU ASOCTD SLP069

CYUL;2010-07-16 20:00;CYUL 162000Z 23013KT 15SM SCT020 BKN030 BKN240 27/21 A2972 RMK CU3SC2CI1 SLP063

CYUL;2010-07-16 21:00;CYUL 162100Z 23015KT 15SM FEW025 BKN240 27/21 A2970 RMK CU2CI2 SLP058

CYUL;2010-07-16 22:00;CYUL 162200Z 23015KT 15SM FEW025TCU BKN240 28/21 A2969 RMK TCU2CI2 SLP054

CYUL;2010-07-16 22:31;CYUL 162231Z 25011KT 15SM -SHRA FEW030TCU SCT070 BKN210 27/ RMK TCU2AC2CI1

CYUL;2010-07-16 23:00;CYUL 162300Z 25009G15KT 15SM VCSH SCT030TCU BKN070 BKN220 27/20 A2970 RMK TCU3AC2CI1 SLP056

CYUL;2010-07-16 23:24;CYUL 162324Z 30008KT 10SM -SHRA SCT035TCU BKN070 BKN210 27/ RMK TCU4AC2CI1 -SHRA OCNL

CYUL;2010-07-16 23:28;CYUL 162328Z 31018G24KT 2SM TSRA BKN030CB BKN070 BKN210 25/ RMK CB5AC2CI1

CYUL;2010-07-16 23:32;CYUL 162332Z 31009G24KT 10SM -TSRA SCT030CB BKN070 BKN210 23/ RERA RMK CB3AC2CI1 VIS NE 2

CYUL;2010-07-16 23:47;CYUL 162347Z 25005KT 15SM VCSH FEW030CB SCT080 BKN210 25/ RETSRA RMK CB2AC2CI1

CYUL;2010-07-17 00:00;CYUL 170000Z 23004KT 15SM FEW030CB BKN070 BKN210 25/21 A2970 RETSRA RMK CB2AC3CI1 SLP057

CYUL;2010-07-17 01:00;CYUL 170100Z 23011G17KT 15SM FEW030 SCT060 26/21 A2970 RMK SC1SC2 SLP059

CYUL;2010-07-17 02:00;CYUL 170200Z 23015KT 15SM FEW030 FEW070 25/20 A2972 RMK CF1AC2 SLP064

CYUL;2010-07-17 03:00;CYUL 170300Z 23012G17KT 15SM FEW070 25/20 A2973 RMK AC2 SLP069

CYUL;2010-07-17 04:00;CYUL 170400Z 24010KT 15SM FEW070 24/20 A2974 RMK AC1 SLP072

CYUL;2010-07-17 05:00;CYUL 170500Z 24009KT 15SM SKC 24/19 A2974 RMK SLP070

CYUL;2010-07-17 06:00;CYUL 170600Z 24010KT 15SM SKC 23/18 A2974 RMK SLP072

CYUL;2010-07-17 07:00;CYUL 170700Z 24010KT 15SM SKC 23/18 A2975 RMK SLP073

CYUL;2010-07-17 08:00;CYUL 170800Z 23011KT 15SM SKC 23/18 A2974 RMK SLP071

CYUL;2010-07-17 09:00;CYUL 170900Z 23013KT 15SM FEW020 22/19 A2974 RMK CF1 SLP071

CYUL;2010-07-17 10:00;CYUL 171000Z 23014KT 15SM FEW015 FEW025 BKN095 BKN130 23/19 A2974 RMK SF1CF2AC4AC2 SLP071

CYUL;2010-07-17 11:00;CYUL 171100Z 23011G17KT 15SM FEW020 FEW045 FEW095 23/19 A2974 RMK CF1CU1AC2 SLP071

CYUL;2010-07-17 12:00;CYUL 171200Z 24012KT 15SM FEW020 FEW100 24/20 A2973 RMK CU2AC1 SLP069

CYUL;2010-07-17 13:00;CYUL 171300Z 24011G16KT 15SM FEW020 BKN120 25/20 A2972 RMK CU1AC6 SLP066

CYUL;2010-07-17 14:00;CYUL 171400Z 23014KT 30SM FEW023 SCT120 SCT240 25/20 A2972 RMK CF1AC1CI1 SLP064

CYUL;2010-07-17 15:00;CYUL 171500Z 22014KT 30SM FEW028 FEW100 SCT180 SCT240 26/20 A2972 RMK CF1AC0AC1CI1 SLP063

CYUL;2010-07-17 16:00;CYUL 171600Z 23011KT 30SM FEW032 FEW120 SCT180 SCT240 27/20 A2970 RMK CU1AC1AC1CI0 SLP059

CYUL;2010-07-17 17:00;CYUL 171700Z 22011KT 30SM FEW062 FEW095 SCT170 SCT240 28/20 A2967 RMK SC1AC0AC1CI0 ACC ASOCTD SLP049

CYUL;2010-07-17 18:00;CYUL 171800Z 22012KT 15SM FEW062 BKN120 BKN180 28/19 A2965 RMK SC1AC4AC1 SLP039

CYUL;2010-07-17 18:05;CYUL 171805Z 22009G15KT 15SM -SHRA FEW060 BKN110 BKN180 28/ RMK SC1AC4AC1 ACC ASOCTD

CYUL;2010-07-17 18:11;CYUL 171811Z 22012KT 10SM -TSRA FEW050CB BKN090 BKN120 BKN180 28/ RMK CB1AC4AC1AC1 ACC ASOCTD

CYUL;2010-07-17 18:24;CYUL 171824Z CCA 29021G27KT 1 1/2SM -TSRA SCT013 BKN040CB OVC120 24/ RERA RMK SF3CB4AC1 OCNL LTGCC

CYUL;2010-07-17 18:37;CYUL 171837Z 22024G35KT 4SM -TSRA FEW018 BKN040CB BKN085 OVC150 23/ RERA RMK SF1CB4AC2AC1 OCNL LTGCC

CYUL;2010-07-17 19:00;CYUL 171900Z 33012KT 10SM -TSRA FEW039CB BKN052 OVC090 21/17 A2966 RERA RMK CB2SC4AC2 LTGCC CIGLWR NE TCU EMBD SE SLP044

CYUL;2010-07-17 19:13;CYUL 171913Z 08005KT 15SM -RA SCT052 BKN085 BKN130 22/ RETS RMK SC3AC2AC1 TCU EMBD

CYUL;2010-07-17 19:28;CYUL 171928Z 07004KT 12SM -TSRA SCT048 BKN085 BKN120 23/ RMK SC3AC3AC1 TCU EMBD N CB ASOCTD

CYUL;2010-07-17 19:37;CYUL 171937Z 29012KT 3SM -TSRA SCT012 BKN034CB OVC050 21/ RERA RMK SF3CB4SC1

CYUL;2010-07-17 19:47;CYUL 171947Z 26009G26KT 6SM -TSRA FEW019 SCT035CB BKN058 BKN110 21/ RERA RMK SF2CB2SC2AC1 CIG LWR SE TCU EMBD

CYUL;2010-07-17 20:00;CYUL 172000Z 23005KT 15SM -RA FEW030 SCT055 BKN100 BKN220 22/19 A2964 RETSRA RMK SC1SC2AC2CI1 /R12/ TCU EMBD NW CB ASOCTD W SLP036

CYUL;2010-07-17 20:31;CYUL 172031Z 21007KT 15SM SCT052 BKN120 BKN220 24/ RMK SC2AC2CI1

CYUL;2010-07-17 21:00;CYUL 172100Z 21011KT 15SM FEW062 FEW120 SCT240 26/21 A2961 RMK SC1AC1CI1 TCU EMBD N SLP025

CYUL;2010-07-17 21:51;CYUL 172151Z 23021G31KT 15SM -SHRA FEW028 SCT055 BKN090 BKN160 BKN240 26/ RMK SC1SC2AC3AC1CI1

CYUL;2010-07-17 22:00;CYUL 172200Z 23018G31KT 15SM -SHRA FEW032 SCT057 BKN100 BKN220 26/18 A2959 RMK SC1SC2AC4CI1 SLP020

CYUL;2010-07-17 22:25;CYUL 172225Z CCA 26010KT 15SM FEW035 SCT062 BKN090 BKN220 26/ RMK SC1SC2AC3CI1 TCU EMBD E-NW

CYUL;2010-07-17 23:00;CYUL 172300Z 26013G19KT 12SM VCSH FEW047CB SCT065 BKN100 BKN220 27/19 A2962 RMK CB1SC2AC3CI1 LTGCC NW CIG LWR NE SLP029

CYUL;2010-07-17 23:16;CYUL 172316Z 08008G17KT 12SM TS VCSH FEW033CB BKN050 BKN090 OVC200 23/ RMK CB2SC2AC2CI1 LTGCC CIG LWR NE

CYUL;2010-07-17 23:42;CYUL 172342Z 34012G18KT 8SM -TSRA SCT040CB BKN056 OVC090 22/ RMK CB3SC3AC2 LTGCC CB MOVG NW TO SW

CYUL;2010-07-17 23:49;CYUL 172349Z 33011G17KT 2 1/2SM -TSRA SCT008 BKN030CB OVC050 21/ RMK SF3CB4SC1 FQT LTGCC

CYUL;2010-07-17 23:53;CYUL 172353Z 35008G17KT 6SM -TSRA FEW014 SCT030CB BKN050 OVC075 20/ RMK SF1CB3SC3AC1 FQT LTGCC

CYUL;2010-07-18 00:00;CYUL 180000Z 30006KT 8SM -TSRA SCT043CB BKN059 BKN090 OVC130 20/18 A2965 RMK CB3SC2AC2AC1 FQT LTGCC SLP041

CYUL;2010-07-18 00:45;CYUL 180045Z 07002KT 10SM FEW042CB SCT065 BKN100 BKN220 20/ RETS RMK CB1SC2AC2CI1 TCU EMBD SE

CYUL;2010-07-18 01:00;CYUL 180100Z 00000KT 10SM SCT050 BKN070 BKN110 21/18 A2966 RETS RMK SC2AC3AC1 TCU EMBD SE CB ASOCTD SLP044

CYUL;2010-07-18 02:00;CYUL 180200Z 16004KT 15SM BKN055 21/19 A2967 RMK SC6 TCU EMBD SLP047

CYUL;2010-07-18 02:34;CYUL 180234Z 22006KT 6SM -SHRA OVC055 22/ RMK SC8 TCU EMBD

CYUL;2010-07-18 03:00;CYUL 180300Z 22006KT 15SM BKN055 OVC080 22/20 A2967 RERA RMK SC6AC2 SLP047

CYUL;2010-07-18 04:00;CYUL 180400Z 22007KT 15SM BKN070 22/19 A2967 RMK AC5 SLP048

CYUL;2010-07-18 05:00;CYUL 180500Z 22008KT 15SM SCT055 BKN100 22/18 A2968 RMK SC3AC2 SLP051

CYUL;2010-07-18 06:00;CYUL 180600Z 24006KT 15SM BKN070 22/19 A2969 RMK AC7 SLP053

CYUL;2010-07-18 07:00;CYUL 180700Z 26007KT 15SM BKN080 21/18 A2969 RMK AC7 SLP055

CYUL;2010-07-18 08:00;CYUL 180800Z 27007KT 15SM BKN100 21/17 A2970 RMK AC6 SLP058

CYUL;2010-07-18 09:00;CYUL 180900Z 27006KT 15SM BKN100 20/17 A2972 RMK AC6 SLP065

CYUL;2010-07-18 10:00;CYUL 181000Z 27009KT 30SM BKN100 20/17 A2975 RMK AC6 SLP073

CYUL;2010-07-18 11:00;CYUL 181100Z 27008KT 30SM BKN100 20/16 A2975 RMK AC6 SLP076

CYUL;2010-07-18 12:00;CYUL 181200Z 27007KT 30SM FEW085 BKN095 21/16 A2976 RMK AC1AC6 SLP078

CYUL;2010-07-18 13:00;CYUL 181300Z 27007KT 30SM FEW022 FEW095 22/16 A2977 RMK CU1AC1 SLP080

CYUL;2010-07-18 14:00;CYUL 181400Z 26012KT 30SM FEW025 FEW240 23/17 A2977 RMK CF1CI0 SLP082

CYUL;2010-07-18 15:00;CYUL 181500Z 29011G18KT 30SM FEW036 SCT055 23/16 A2977 RMK CU2SC1 SLP081

CYUL;2010-07-18 16:00;CYUL 181600Z 27011G17KT 30SM SCT036 SCT058 25/16 A2978 RMK CU3SC1 SLP084

CYUL;2010-07-18 17:00;CYUL 181700Z 26016KT 30SM SCT042 BKN058 BKN240 25/16 A2978 RMK CU3SC2CI1 SLP084

CYUL;2010-07-18 18:00;CYUL 181800Z 26013G18KT 30SM FEW043 BKN062 BKN080 25/15 A2978 RMK CU2SC2AC2 ACC ASOCTD SLP086

CYUL;2010-07-18 19:00;CYUL 181900Z 28013G19KT 30SM FEW062 BKN080 24/15 A2979 RMK SC2AC5 ACC ASOCTD SLP089

CYUL;2010-07-18 20:00;CYUL 182000Z 27012G19KT 30SM FEW042 SCT065 BKN090 25/16 A2979 RMK CU2SC2AC4 SLP089

CYUL;2010-07-18 21:00;CYUL 182100Z 28011G16KT 30SM FEW040 SCT090 SCT240 25/16 A2979 RMK CU1AC2CI1 SLP087

CYUL;2010-07-18 22:00;CYUL 182200Z 26014KT 30SM FEW040 FEW090 FEW240 25/16 A2979 RMK CU1AC1CI1 SLP089

CYUL;2010-07-18 23:00;CYUL 182300Z 28009G16KT 30SM FEW040 SCT080 SCT240 25/15 A2980 RMK CU1AC2CI1 SLP092

CYUL;2010-07-19 00:00;CYUL 190000Z CCA 28010KT 15SM FEW065 FEW100 SCT240 24/15 A2980 RMK SC1AC1CI1 CU EMBD SLP090

CYUL;2010-07-19 01:00;CYUL 190100Z 28006KT 15SM FEW060 BKN080 BKN220 22/16 A2981 RMK SC1AC4CI1 CU EMBD SLP096

CYUL;2010-07-19 02:00;CYUL 190200Z 28004KT 15SM FEW067 SCT080 BKN220 22/15 A2983 RMK AC2AC2CI0 SLP100

CYUL;2010-07-19 03:00;CYUL 190300Z 28003KT 15SM FEW080 SCT220 20/15 A2982 RMK AC2CI1 SLP097

CYUL;2010-07-19 04:00;CYUL 190400Z 23003KT 15SM FEW160 SCT240 22/17 A2981 RMK AC2CI0 SLP094

CYUL;2010-07-19 05:00;CYUL 190500Z 25002KT 15SM FEW100 BKN160 BKN220 22/17 A2980 RMK AC1AC4CI2 SLP093

CYUL;2010-07-19 06:00;CYUL 190600Z 00000KT 15SM FEW055 BKN120 OVC180 21/19 A2980 RMK SC1AC5AC2 SLP092

CYUL;2010-07-19 07:00;CYUL 190700Z 36002KT 15SM SCT027 BKN060 OVC090 21/18 A2980 RMK SC3SC3AC2 SLP090

CYUL;2010-07-19 08:00;CYUL 190800Z 00000KT 15SM -RA FEW040 BKN065 OVC080 21/18 A2978 RMK SC1SC5AC2 SLP086

CYUL;2010-07-19 08:28;CYUL 190828Z 14003KT 15SM SCT028 BKN060 OVC080 21/ RMK SC4SC2AC2

CYUL;2010-07-19 08:40;CYUL 190840Z 16005KT 15SM -RA SCT028 BKN060 OVC090 21/ RMK SC3SC2AC3 -RA INTMT

CYUL;2010-07-19 09:00;CYUL 190900Z 17006KT 15SM -RA BKN024 BKN060 OVC090 21/19 A2979 RMK SC5SC2AC2 -RA INTMT SLP087

CYUL;2010-07-19 10:00;CYUL 191000Z 17002KT 12SM -RA FEW012 BKN022 OVC090 20/19 A2979 RMK SF1SC6AC2 SLP087

CYUL;2010-07-19 10:42;CYUL 191042Z 24008KT 7SM -RA FEW009 BKN016 OVC030 21/ RMK SF2SC5SC2

CYUL;2010-07-19 10:47;CYUL 191047Z 25009KT 2 1/2SM RA BR FEW007 BKN014 OVC020 21/ RMK SF2SC6SC1

CYUL;2010-07-19 11:00;CYUL 191100Z 24008KT 6SM -RA BR FEW007 BKN020 OVC040 20/19 A2980 RERA RMK SF2SC4SC2 SLP090

CYUL;2010-07-19 12:00;CYUL 191200Z 29002KT 5SM -RA BR FEW007 BKN012 OVC035 19/17 A2980 RERA RMK SF1SC4SC3 /R11/ SLP092

CYUL;2010-07-19 13:00;CYUL 191300Z 09002KT 12SM -RA FEW005 BKN009 OVC040 20/18 A2979 RMK SF2SF3SC3 SLP087

CYUL;2010-07-19 13:14;CYUL 191314Z 17003KT 12SM -RA SCT006 BKN016 OVC025 20/ RMK SF3SC3SC2

CYUL;2010-07-19 14:00;CYUL 191400Z 16003KT 15SM FEW007 BKN015 OVC038 20/18 A2978 RMK SF2SC5SC2 SLP084

CYUL;2010-07-19 14:36;CYUL 191436Z 16004KT 15SM BKN009 OVC020 21/ RMK SF6SC2

CYUL;2010-07-19 14:49;CYUL 191449Z 16006KT 15SM SCT010 OVC020 20/ RMK SF4SC4

CYUL;2010-07-19 15:00;CYUL 191500Z 18006KT 12SM SCT010 OVC028 20/19 A2977 RMK SF3SC5 SLP083

CYUL;2010-07-19 15:12;CYUL 191512Z 34007KT 12SM SCT007 OVC015 20/ RMK SF4SC4

CYUL;2010-07-19 15:17;CYUL 191517Z 35010KT 12SM BKN006 OVC015 19/ RMK SF5SC3

CYUL;2010-07-19 15:27;CYUL 191527Z CCA 02006KT 12SM -RA BKN006 OVC015 19/ RMK SF5SC3

CYUL;2010-07-19 15:45;CYUL 191545Z 03008KT 12SM BKN009 OVC020 19/ RMK SF6SC2

CYUL;2010-07-19 16:00;CYUL 191600Z 04007KT 12SM OVC010 19/17 A2977 RMK SF8 SLP083

CYUL;2010-07-19 16:28;CYUL 191628Z 01009KT 10SM -SHRA BKN008 OVC013 19/ RMK SF6SC2

CYUL;2010-07-19 16:50;CYUL 191650Z 03008KT 12SM BKN008 OVC014 19/ RMK SF5SC3

CYUL;2010-07-19 17:00;CYUL 191700Z 03008KT 12SM BKN009 OVC015 19/17 A2977 RMK SF6SC2 SLP080

CYUL;2010-07-19 18:00;CYUL 191800Z 04007KT 12SM BKN008 OVC018 19/17 A2977 RMK SF5SC3 SLP081

CYUL;2010-07-19 18:16;CYUL 191816Z 03006KT 15SM SCT010 OVC022 19/ RMK SF3SC4

CYUL;2010-07-19 19:00;CYUL 191900Z 01004KT 15SM SCT012 BKN025 OVC080 21/18 A2977 RMK SF3SC4AC1 SLP083

CYUL;2010-07-19 20:00;CYUL 192000Z 02006KT 15SM SCT020 BKN090 22/17 A2977 RMK SC3AC1 SLP082

CYUL;2010-07-19 21:00;CYUL 192100Z 32004KT 15SM SCT023 BKN090 22/17 A2977 RMK CU3AC1 TCU ASOCT SLP083

CYUL;2010-07-19 22:00;CYUL 192200Z 26004KT 15SM FEW030TCU SCT090 SCT240 24/17 A2977 RMK TCU1AC1CI0 SLP083

CYUL;2010-07-19 23:00;CYUL 192300Z 23003KT 15SM FEW050TCU FEW100 24/18 A2979 RMK TCU1AC1 SLP087

CYUL;2010-07-20 00:00;CYUL 200000Z 21002KT 15SM FEW050 SCT100 23/18 A2981 RMK SC2AC0 TCU ASOCT SLP095

CYUL;2010-07-20 00:53;CYUL 200053Z 33010G16KT 15SM -SHRA BKN032 OVC065 22/ RMK SC5SC2 CB EMBD

CYUL;2010-07-20 01:00;CYUL 200100Z 32005G16KT 12SM -SHRA SCT006 BKN017 OVC065 21/18 A2983 RMK SF3SC3SC2 RERA CB EMBD SLP103

CYUL;2010-07-20 01:27;CYUL 200127Z 25005KT 15SM SCT030 BKN080 21/ RMK SC3ACC2 CB EMBD

CYUL;2010-07-20 02:00;CYUL 200200Z 27003KT 15SM FEW030 FEW080 20/18 A2984 RMK SC1AC2 SLP104

CYUL;2010-07-20 03:00;CYUL 200300Z 25004KT 15SM FEW080 21/19 A2983 RMK AC1 SLP103

CYUL;2010-07-20 04:00;CYUL 200400Z 25004KT 15SM FEW120 21/19 A2985 RMK AC1 SLP107

CYUL;2010-07-20 05:00;CYUL 200500Z 24005KT 15SM FEW110 21/18 A2986 RMK AC2 SLP112

CYUL;2010-07-20 06:00;CYUL 200600Z 23005KT 15SM FEW110 SCT240 20/18 A2987 RMK AC1CI1 SLP115

CYUL;2010-07-20 07:00;CYUL 200700Z 23003KT 15SM FEW120 SCT230 19/18 A2988 RMK AC1CI2 SLP117

CYUL;2010-07-20 08:00;CYUL 200800Z 34003KT 10SM FEW080 BKN240 18/17 A2988 RMK AC1CI1 SLP117

CYUL;2010-07-20 09:00;CYUL 200900Z 31004KT 15SM FEW010 FEW090 BKN240 18/17 A2989 RMK SF1AC1CI2 SLP122

CYUL;2010-07-20 10:00;CYUL 201000Z 32003KT 15SM FEW010 FEW065 BKN240 18/17 A2990 RMK SF1SC2CI2 SLP126

CYUL;2010-07-20 11:00;CYUL 201100Z 27002KT 15SM FEW060 FEW120 BKN240 19/17 A2991 RMK SC1AC1CI1 SLP130

CYUL;2010-07-20 12:00;CYUL 201200Z 01005KT 15SM FEW060 SCT180 BKN240 20/16 A2993 RMK SC1AC2CI1 SLP135

CYUL;2010-07-20 13:00;CYUL 201300Z 03005KT 15SM FEW090 SCT180 BKN240 20/15 A2994 RMK AC1AC2CI1 CC ASOCTD SLP139

CYUL;2010-07-20 14:00;CYUL 201400Z 05005KT 15SM FEW035 BKN230 22/15 A2995 RMK CU1CC5 SLP142

CYUL;2010-07-20 15:00;CYUL 201500Z 02003KT 15SM FEW050 BKN230 24/14 A2995 RMK CU1CS5 SLP142

CYUL;2010-07-20 16:00;CYUL 201600Z 15002KT 15SM FEW050 OVC210 24/15 A2995 RMK CU1CS6 SLP142

CYUL;2010-07-20 17:00;CYUL 201700Z 19005KT 15SM FEW050 BKN240 25/17 A2996 RMK CU1CI3 SLP144

CYUL;2010-07-20 18:00;CYUL 201800Z 21005KT 15SM FEW050 BKN240 26/15 A2995 RMK CU2CI1 SLP141

CYUL;2010-07-20 19:00;CYUL 201900Z 21007KT 15SM FEW060 BKN230 26/14 A2995 RMK CU2CI1 SLP141

CYUL;2010-07-20 20:00;CYUL 202000Z 23007KT 30SM FEW060 27/13 A2994 RMK CU2 SLP140

CYUL;2010-07-20 21:00;CYUL 202100Z 25004KT 30SM FEW060 27/13 A2993 RMK CU1 SLP136

CYUL;2010-07-20 22:00;CYUL 202200Z 19005KT 30SM FEW060 FEW240 26/14 A2993 RMK CU1CI0 SLP135

CYUL;2010-07-20 23:00;CYUL 202300Z 24004KT 30SM FEW060 FEW240 26/14 A2992 RMK CU1CI0 SLP133

CYUL;2010-07-21 00:00;CYUL 210000Z 23006KT 30SM FEW060 FEW240 26/14 A2992 RMK CU1CI1 SLP132

CYUL;2010-07-21 01:00;CYUL 210100Z 23006KT 15SM FEW060 FEW240 25/15 A2993 RMK CU1CI1 SLP136

CYUL;2010-07-21 02:00;CYUL 210200Z 22006KT 15SM FEW060 FEW240 24/16 A2995 RMK SC1CI1 SLP142

CYUL;2010-07-21 03:00;CYUL 210300Z 23005KT 15SM FEW240 23/17 A2995 RMK CI1 SLP142

CYUL;2010-07-21 04:00;CYUL 210400Z 21004KT 15SM FEW120 FEW240 22/16 A2994 RMK AC1CI0 SLP139

CYUL;2010-07-21 05:00;CYUL 210500Z 18002KT 15SM FEW240 21/16 A2993 RMK CI0 SLP137

CYUL;2010-07-21 06:00;CYUL 210600Z 14002KT 15SM FEW120 20/17 A2994 RMK AC1 SLP138

CYUL;2010-07-21 07:00;CYUL 210700Z 00000KT 15SM SKC 20/17 A2993 RMK SLP137

CYUL;2010-07-21 08:00;CYUL 210800Z 00000KT 15SM FEW120 SCT240 20/17 A2993 RMK AC2CI1 SLP134

CYUL;2010-07-21 09:00;CYUL 210900Z 18002KT 15SM BKN120 20/18 A2993 RMK AC6 SLP136

CYUL;2010-07-21 10:00;CYUL 211000Z 18002KT 30SM BKN110 20/17 A2993 RMK AC7 SLP134

CYUL;2010-07-21 11:00;CYUL 211100Z 17003KT 30SM -SHRA BKN090 BKN130 20/17 A2993 RMK AC6AC2 SLP134

CYUL;2010-07-21 12:00;CYUL 211200Z 14002KT 15SM FEW090 SCT120 BKN240 21/18 A2992 RMK AC2AC2CI1 SLP131

CYUL;2010-07-21 13:00;CYUL 211300Z 21004KT 15SM FEW090 FEW120 SCT240 23/18 A2990 RMK AC1AC1CI2 SLP126

CYUL;2010-07-21 14:00;CYUL 211400Z 17004KT 15SM FEW090 BKN160 BKN240 24/18 A2989 RMK AC2AC2CI0 SLP121

CYUL;2010-07-21 15:00;CYUL 211500Z 16005KT 15SM FEW060 FEW090 BKN130 25/18 A2988 RMK CU1AC2AC3 SLP117

CYUL;2010-07-21 16:00;CYUL 211600Z 15007KT 15SM FEW060TCU BKN120 27/19 A2985 RMK TCU1AC4 SLP110

CYUL;2010-07-21 17:00;CYUL 211700Z 14006KT 15SM FEW060 FEW120 BKN170 26/18 A2982 RMK CU1AC2AC5 SLP099

CYUL;2010-07-21 18:00;CYUL 211800Z 25007KT 15SM FEW030TCU BKN045 OVC110 26/18 A2982 RMK TCU2SC5AC1 SLP099

CYUL;2010-07-21 18:17;CYUL 211817Z 23007KT 15SM -SHRA FEW030TCU BKN050 OVC100 26/ RMK TCU2SC5AC2

CYUL;2010-07-21 19:00;CYUL 211900Z 25008KT 12SM -SHRA SCT040TCU BKN090 OVC120 25/18 A2982 RMK TCU3AC3AC2 SLP099

CYUL;2010-07-21 19:06;CYUL 211906Z 26010KT 12SM -TSRA BKN040TCU BKN090 OVC120 25/ RMK TCU5AC2AC2 CB EMBD

CYUL;2010-07-21 19:44;CYUL 211944Z 00000KT 15SM FEW030TCU SCT060 OVC110 22/ RMK TCU2SC2AC2 RETS

CYUL;2010-07-21 20:00;CYUL 212000Z 04004KT 15SM FEW035TCU BKN100 OVC240 23/18 A2979 RMK TCU2AC4CI0 RETS SLP088

CYUL;2010-07-21 21:00;CYUL 212100Z 03004KT 15SM FEW020 SCT120 BKN180 OVC240 22/17 A2979 RMK CU1AC3AC4CI0 SLP087

CYUL;2010-07-21 22:00;CYUL 212200Z 00000KT 15SM FEW025 SCT150 OVC200 22/18 A2978 RMK CU1AC3CS5 SLP085

CYUL;2010-07-21 23:00;CYUL 212300Z 13003KT 15SM FEW020 BKN160 21/18 A2978 RMK SC1AC6 SLP084

CYUL;2010-07-22 00:00;CYUL 220000Z 00000KT 15SM BKN018 BKN120 22/19 A2978 RMK SC5AC2 TCU ASOCT SLP084

CYUL;2010-07-22 01:00;CYUL 220100Z 33003KT 15SM FEW025 SCT120 20/18 A2977 RMK SC2AC1 SLP080

CYUL;2010-07-22 02:00;CYUL 220200Z 32004KT 15SM FEW025 BKN050 BKN110 19/17 A2979 RMK SC2SC2AC1 DIST LTNG N SLP088

CYUL;2010-07-22 03:00;CYUL 220300Z 27003KT 15SM FEW018 BKN080 BKN130 20/17 A2979 RMK SC2AC4AC1 DIST LTNG W-N SLP087

CYUL;2010-07-22 03:08;CYUL 220308Z 23003KT 15SM TS FEW018 BKN043 BKN090 20/ RMK SC2SC3AC2 CB EMBD LTGCG W-N

CYUL;2010-07-22 03:18;CYUL 220318Z 22005KT 15SM -TSRA FEW020TCU BKN045 BKN090 21/ RMK TCU1SC5AC2 CB EMBD LTGCG W-N

CYUL;2010-07-22 03:40;CYUL 220340Z 25006KT 15SM -TSRA FEW009 BKN030 BKN065 OVC090 21/ RMK SF1SC5SC2AC2 CB EMBD LTGCG

CYUL;2010-07-22 04:00;CYUL 220400Z 29007KT 1 1/2SM +TSRA BR FEW006 BKN012 OVC030 20/18 A2979 RMK SF2SC6SC1 CB EMBD LTGCG SLP089

CYUL;2010-07-22 04:05;CYUL 220405Z 28006KT 4SM TSRA BR FEW006 BKN014 OVC025 20/ RERA RMK SF2SC5SC2 CB EMBD LTGCG

CYUL;2010-07-22 04:15;CYUL 220415Z 34016KT 5SM TSRA FEW007 BKN015 OVC025 19/  RMK SF2SC4SC2 CB EMBD LTGCG

CYUL;2010-07-22 05:00;CYUL 220500Z 27002KT 6SM -TSRA FEW015 BKN030 OVC080 18/17 A2978 RETSRA RMK SF2SC3AC2 CB EMBD LTGCG /R10/ SLP085

CYUL;2010-07-22 05:28;CYUL 220528Z 25003KT 15SM -SHRA FEW015 SCT030 BKN085 18/ RETS RMK SF1SC3AC3 CB EMBD DIST LTNG E-S

CYUL;2010-07-22 06:00;CYUL 220600Z 32002KT 15SM FEW020 SCT090 17/16 A2976 RETS RMK SC1AC3 DIST LTNG E SLP077

CYUL;2010-07-22 07:00;CYUL 220700Z 25004KT 15SM FEW010 FEW100 17/16 A2977 RMK SF1AC2 SLP082

CYUL;2010-07-22 08:00;CYUL 220800Z 27004KT 15SM FEW010 BKN022 18/17 A2978 RMK SF1SC6 SLP084

CYUL;2010-07-22 09:00;CYUL 220900Z 26005KT 15SM FEW010 SCT022 BKN080 18/17 A2979 RMK SF2SC2AC3 SLP087

CYUL;2010-07-22 10:00;CYUL 221000Z 28008KT 15SM FEW010 BKN040 BKN090 18/17 A2980 RMK SF2SC4AC1 SLP090

CYUL;2010-07-22 11:00;CYUL 221100Z 28008KT 15SM FEW012 BKN045 18/17 A2981 RMK SF1SC6 SLP096

CYUL;2010-07-22 12:00;CYUL 221200Z 28007KT 15SM FEW009 BKN050 19/17 A2984 RMK SF1SC6 SLP104

CYUL;2010-07-22 12:10;CYUL 221210Z 28006KT 15SM -SHRA FEW009 BKN035 BKN050 19/ RMK SF1SC4SC2

CYUL;2010-07-22 12:45;CYUL 221245Z 30006KT 15SM FEW009 SCT035 BKN070 20/ RMK SF1SC3AC2

CYUL;2010-07-22 13:00;CYUL 221300Z 28008KT 15SM FEW008 SCT030 BKN070 20/17 A2985 RMK SF1SC3AC3 SLP110

CYUL;2010-07-22 14:00;CYUL 221400Z 31005KT 15SM FEW008 FEW030 BKN110 22/18 A2987 RMK SF1SC1AC2 SLP116

CYUL;2010-07-22 15:00;CYUL 221500Z 29006KT 15SM FEW030 23/18 A2988 RMK CU2 SLP119

CYUL;2010-07-22 16:00;CYUL 221600Z 29005KT 15SM SCT030 24/18 A2987 RMK CU3 SLP116

CYUL;2010-07-22 17:00;CYUL 221700Z 31009KT 15SM SCT060 26/18 A2988 RMK CU4 SLP118

CYUL;2010-07-22 18:00;CYUL 221800Z 29013KT 15SM SCT060 27/17 A2989 RMK SC4 SLP121

CYUL;2010-07-22 19:00;CYUL 221900Z 27010G18KT 15SM SCT060 27/16 A2990 RMK CU3 SLP124

CYUL;2010-07-22 20:00;CYUL 222000Z 29014G19KT 15SM FEW060 FEW240 27/14 A2990 RMK CU1CI1 SLP124

CYUL;2010-07-22 21:00;CYUL 222100Z 28013KT 15SM FEW065 FEW240 27/13 A2990 RMK CU1CI0 SLP125

CYUL;2010-07-22 22:00;CYUL 222200Z 29009KT 15SM FEW065 FEW240 27/12 A2990 RMK CU1CI1 SLP125

CYUL;2010-07-22 23:00;CYUL 222300Z 29012KT 15SM FEW240 26/13 A2990 RMK CI1 SLP125

CYUL;2010-07-23 00:00;CYUL 230000Z 27008KT 15SM FEW240 24/14 A2991 RMK CI0 SLP129

CYUL;2010-07-23 01:00;CYUL 230100Z 29005KT 15SM FEW240 21/15 A2992 RMK CI0 SLP133

CYUL;2010-07-23 02:00;CYUL 230200Z 30003KT 15SM FEW240 20/14 A2994 RMK CI1 SLP140

CYUL;2010-07-23 03:00;CYUL 230300Z 24006KT 15SM FEW240 22/14 A2995 RMK CI1 SLP143

CYUL;2010-07-23 04:00;CYUL 230400Z 25006KT 15SM FEW240 21/14 A2997 RMK CI1 SLP148

CYUL;2010-07-23 05:00;CYUL 230500Z 29006KT 15SM FEW240 18/15 A2996 RMK CI1 SLP144

CYUL;2010-07-23 06:00;CYUL 230600Z 18003KT 15SM FEW240 18/15 A2996 RMK CI1 SLP147

CYUL;2010-07-23 07:00;CYUL 230700Z 26003KT 15SM FEW240 17/15 A2997 RMK CI1 SLP149

CYUL;2010-07-23 08:00;CYUL 230800Z 00000KT 15SM SKC 18/16 A2996 RMK SLP147

CYUL;2010-07-23 09:00;CYUL 230900Z 20002KT 15SM FEW240 18/15 A2997 RMK CI1 SLP150

CYUL;2010-07-23 10:00;CYUL 231000Z 03003KT 15SM SCT240 18/16 A2996 RMK CI1 SLP144

CYUL;2010-07-23 11:00;CYUL 231100Z 04005KT 15SM FEW020 FEW150 SCT240 19/15 A2998 RMK CU1AC1CI1 SLP151

CYUL;2010-07-23 12:00;CYUL 231200Z 05005KT 15SM FEW020 FEW150 SCT240 20/13 A2997 RMK CF1AC1CI1 SLP149

CYUL;2010-07-23 13:00;CYUL 231300Z 10006KT 30SM FEW028 FEW170 SCT240 22/14 A2995 RMK CU1AC1CI1 SLP143

CYUL;2010-07-23 14:00;CYUL 231400Z 10007KT 30SM FEW030 FEW100 FEW150 SCT240 23/16 A2994 RMK CU1AC1AC1CI0 SLP138

CYUL;2010-07-23 15:00;CYUL 231500Z 15006KT 15SM FEW025 FEW100 SCT240 24/18 A2993 RMK CU1AC2CI0 SLP136

CYUL;2010-07-23 16:00;CYUL 231600Z 13009KT 15SM FEW028 FEW120 BKN150 OVC240 25/18 A2990 RMK CU2AC1AC3CI0 SLP126

CYUL;2010-07-23 17:00;CYUL 231700Z 14011KT 15SM FEW030 FEW100 SCT160 OVC240 26/17 A2989 RMK CU1AC1AC2CI0 SLP121

CYUL;2010-07-23 18:00;CYUL 231800Z 15013G19KT 15SM FEW035 BKN110 BKN170 OVC240 25/17 A2986 RMK CU1AC4AC2CI0 SLP113

CYUL;2010-07-23 18:53;CYUL 231853Z 15014KT 15SM -SHRA FEW030 BKN090 BKN150 OVC240 25/ RMK CU1AC5AC2CI0

CYUL;2010-07-23 19:00;CYUL 231900Z 15014KT 15SM -SHRA FEW030 BKN090 BKN150 OVC240 25/18 A2984 RMK CU1AC5AC2CI0 SLP105

CYUL;2010-07-23 19:31;CYUL 231931Z 14015KT 15SM BKN090 OVC140 24/ RMK AC7AC1

CYUL;2010-07-23 20:00;CYUL 232000Z 14016G21KT 15SM BKN095 OVC140 24/17 A2982 RMK AC7AC1 SLP098

CYUL;2010-07-23 21:00;CYUL 232100Z 16016KT 15SM BKN065 OVC100 23/17 A2981 RMK SC7AC1 SLP095

CYUL;2010-07-23 22:00;CYUL 232200Z 14011KT 15SM FEW020 OVC065 22/17 A2981 RMK CU1SC8 SLP095

CYUL;2010-07-23 23:00;CYUL 232300Z 12012KT 15SM OVC045 22/17 A2981 RMK SC8 DIST SHWR NW-N SLP094

CYUL;2010-07-24 00:00;CYUL 240000Z 12012KT 15SM FEW025 OVC045 22/17 A2980 RMK CF2SC6 SLP090

CYUL;2010-07-24 00:28;CYUL 240028Z 12012KT 15SM -SHRA OVC035 22/ RMK SC8

CYUL;2010-07-24 01:00;CYUL 240100Z 14009G16KT 15SM -DZ BKN018 OVC035 21/18 A2981 RMK SC7SC1 SLP094

CYUL;2010-07-24 02:00;CYUL 240200Z 15008KT 12SM -DZ FEW009 SCT014 OVC018 20/18 A2981 RMK SF2SF2SC4 SLP096

CYUL;2010-07-24 02:45;CYUL 240245Z 13006KT 7SM -SHRA FEW008 BKN012 OVC017 20/ RMK SF2SF5ST2

CYUL;2010-07-24 03:00;CYUL 240300Z 13005KT 4SM -SHRA BR FEW007 BKN012 OVC018 20/19 A2981 RMK SF2SF5ST2 SLP094

CYUL;2010-07-24 04:00;CYUL 240400Z 07007KT 4SM -SHRA BR FEW006 BKN012 OVC016 20/18 A2980 RMK SF2SF4ST2 SLP092

CYUL;2010-07-24 04:48;CYUL 240448Z 10003KT 4SM -SHRA BR BKN005 OVC012 20/ RMK SF6ST2

CYUL;2010-07-24 05:00;CYUL 240500Z 10003KT 4SM -DZ BR BKN005 OVC011 20/19 A2980 RMK SF6ST2 SLP091

CYUL;2010-07-24 05:18;CYUL 240518Z 13002KT 7SM -DZ FEW004 BKN007 OVC012 20/ RMK SF2SF5ST2

CYUL;2010-07-24 05:29;CYUL 240529Z 00000KT 7SM -DZ FEW004 SCT007 OVC013 20/ RMK SF2SF2ST4

CYUL;2010-07-24 05:54;CYUL 240554Z 00000KT 4SM -DZ BR BKN005 OVC010 20/ RMK SF6ST2

CYUL;2010-07-24 06:00;CYUL 240600Z 02005KT 4SM -SHRA BR BKN004 OVC010 19/18 A2979 RMK SF6ST2 SLP088

CYUL;2010-07-24 06:23;CYUL 240623Z 03005KT 5SM -SHRA BR FEW003 BKN006 OVC010 19/ RMK SF2SF5ST2

CYUL;2010-07-24 06:30;CYUL 240630Z 01007KT 5SM -SHRA BR BKN004 OVC009 19/ RMK SF6ST2

CYUL;2010-07-24 07:00;CYUL 240700Z 01005KT 6SM -SHRA BR FEW003 BKN006 OVC010 18/18 A2978 RMK SF2SF5ST2 SLP086

CYUL;2010-07-24 08:00;CYUL 240800Z 01005KT 10SM -DZ FEW004 BKN006 OVC011 18/17 A2978 RMK SF1SF6ST2 SLP085

CYUL;2010-07-24 09:00;CYUL 240900Z 01006KT 12SM -DZ FEW004 BKN006 OVC010 18/17 A2979 RMK SF2SF5ST2 SLP087

CYUL;2010-07-24 10:00;CYUL 241000Z 01003KT 12SM BKN006 OVC010 18/17 A2980 RMK SF6ST2 SLP091

CYUL;2010-07-24 11:00;CYUL 241100Z 02004KT 12SM BKN006 OVC010 18/17 A2980 RMK SF6ST2 SLP093

CYUL;2010-07-24 12:00;CYUL 241200Z 00000KT 10SM BKN006 OVC010 19/18 A2981 RMK SF6ST2 SLP094

CYUL;2010-07-24 12:54;CYUL 241254Z 00000KT 6SM BR BKN004 OVC008 20/ RMK SF6ST2

CYUL;2010-07-24 13:00;CYUL 241300Z 00000KT 6SM BR BKN005 OVC008 19/18 A2981 RMK SF6ST2 SLP096

CYUL;2010-07-24 14:00;CYUL 241400Z 00000KT 4SM BR OVC005 20/19 A2982 RMK ST8 SLP097

CYUL;2010-07-24 14:36;CYUL 241436Z 00000KT 4SM BR OVC004 21/ RMK ST8

CYUL;2010-07-24 15:00;CYUL 241500Z 00000KT 4SM BR OVC005 21/19 A2982 RMK ST8 SLP098

CYUL;2010-07-24 16:00;CYUL 241600Z 21002KT 4SM BR BKN005 OVC009 21/20 A2981 RMK SF6ST2 SLP095

CYUL;2010-07-24 16:33;CYUL 241633Z 00000KT 8SM SCT007 OVC210 23/ RMK SF3CI4

CYUL;2010-07-24 17:00;CYUL 241700Z 26005KT 10SM FEW010 OVC200 24/21 A2979 RMK SF2CI6 SLP089

CYUL;2010-07-24 18:00;CYUL 241800Z 29004KT 15SM SCT018 BKN085 OVC220 25/21 A2979 RMK CU3AC2CI2 SLP087

CYUL;2010-07-24 19:00;CYUL 241900Z 29004KT 15SM FEW025 BKN095 OVC220 27/21 A2977 RMK CU2AC3CI1 SLP081

CYUL;2010-07-24 20:00;CYUL 242000Z 00000KT 15SM FEW025TCU FEW050 BKN095 OVC240 27/21 A2974 RMK TCU1SC2AC5CI0 SLP072

CYUL;2010-07-24 21:00;CYUL 242100Z 00000KT 15SM FEW025 SCT050 BKN080 OVC240 27/21 A2973 RMK CU1SC2AC4CI1 SLP069

CYUL;2010-07-24 22:00;CYUL 242200Z 19004KT 15SM VCSH SCT030 BKN090 OVC200 27/21 A2972 RMK CU3AC2CI3 SLP064

CYUL;2010-07-24 23:00;CYUL 242300Z 18005KT 15SM FEW025TCU OVC170 26/22 A2971 RMK TCU1AS7 SLP060

CYUL;2010-07-25 00:00;CYUL 250000Z 18005KT 15SM FEW025 BKN130 OVC210 26/21 A2972 RMK CF2AS5CI1 SLP063

CYUL;2010-07-25 01:00;CYUL 250100Z 21009KT 15SM FEW025 OVC130 26/22 A2970 RMK CF1AC7 SLP059

CYUL;2010-07-25 01:40;CYUL 250140Z 22007KT 15SM -SHRA FEW050 OVC150 26/ RMK CF1AC7

CYUL;2010-07-25 02:00;CYUL 250200Z 22006KT 15SM -SHRA FEW058 SCT120 OVC160 26/23 A2970 RMK SC1AC2AC6 SLP059

CYUL;2010-07-25 02:46;CYUL 250246Z 23007KT 15SM FEW042 SCT060 BKN100 OVC150 25/ RMK SC2SC2AC3AC2

CYUL;2010-07-25 03:00;CYUL 250300Z 24008KT 15SM FEW042 BKN090 OVC140 25/23 A2968 RMK SC2AC4AC2 SLP051

CYUL;2010-07-25 03:23;CYUL 250323Z 23009KT 15SM -SHRA BKN047 BKN090 OVC150 25/ RMK SC4AC2AC2

CYUL;2010-07-25 04:00;CYUL 250400Z 25008KT 15SM SCT047 SCT090 BKN140 25/22 A2968 RMK SC2AC2AC3 SLP050

CYUL;2010-07-25 05:00;CYUL 250500Z 25008KT 15SM FEW047 BKN100 BKN150 25/22 A2968 RMK SC1AC4AC2 SLP052

CYUL;2010-07-25 06:00;CYUL 250600Z 26010KT 15SM FEW050 SCT110 24/20 A2968 RMK SC1AC2 SLP052

CYUL;2010-07-25 07:00;CYUL 250700Z 29009KT 15SM SCT120 23/19 A2969 RMK AC2 SLP054

CYUL;2010-07-25 08:00;CYUL 250800Z 19007KT 15SM BKN075 22/19 A2970 RMK AC4 SLP057

CYUL;2010-07-25 09:00;CYUL 250900Z 27006KT 15SM SCT080 BKN100 22/18 A2972 RMK AC3AC3 SLP065

CYUL;2010-07-25 10:00;CYUL 251000Z 25006KT 15SM SCT080 BKN100 22/18 A2973 RMK AC2AC4 SLP068

CYUL;2010-07-25 11:00;CYUL 251100Z 27007KT 15SM FEW024 BKN080 BKN110 22/18 A2975 RMK CU1AC5AC1 SLP075

CYUL;2010-07-25 12:00;CYUL 251200Z 28009KT 15SM FEW035 BKN100 BKN240 22/18 A2976 RMK CU1AC4CI1 SLP077

CYUL;2010-07-25 13:00;CYUL 251300Z 28009KT 30SM FEW030 SCT100 BKN240 23/17 A2977 RMK CU1AC2CI2 ACC ASOCTD SLP080

CYUL;2010-07-25 14:00;CYUL 251400Z 28012KT 30SM BKN030 BKN100 OVC240 23/17 A2976 RMK CU5AC1CI2 SLP077

CYUL;2010-07-25 15:00;CYUL 251500Z 32012KT 30SM BKN035 BKN240 22/15 A2977 RMK CU5CI2 SLP081

CYUL;2010-07-25 16:00;CYUL 251600Z 30012G19KT 30SM FEW035 BKN220 22/15 A2978 RMK CU2CI6 SLP086

CYUL;2010-07-25 17:00;CYUL 251700Z 29012KT 30SM FEW040 BKN220 22/14 A2979 RMK CU2CI3 SLP089

CYUL;2010-07-25 18:00;CYUL 251800Z 30013G19KT 30SM BKN040 BKN220 22/14 A2980 RMK CU6CI1 SLP090

CYUL;2010-07-25 19:00;CYUL 251900Z 29011G16KT 30SM BKN042 BKN220 22/14 A2979 RMK CU7CI1 SLP089

CYUL;2010-07-25 20:00;CYUL 252000Z 29012KT 30SM BKN050 22/13 A2980 RMK CU7 SLP092

CYUL;2010-07-25 21:00;CYUL 252100Z 29011KT 30SM FEW048 BKN065 23/13 A2980 RMK CU2SC4 SLP093

CYUL;2010-07-25 22:00;CYUL 252200Z 29010KT 30SM FEW050 FEW065 23/12 A2980 RMK CU2SC1 SLP093

CYUL;2010-07-25 23:00;CYUL 252300Z 29006KT 30SM FEW050 BKN080 22/12 A2980 RMK CU2AC3 SLP093

CYUL;2010-07-26 00:00;CYUL 260000Z 29006KT 30SM FEW080 21/13 A2981 RMK AC2 SLP095

CYUL;2010-07-26 01:00;CYUL 260100Z 29007KT 30SM FEW045 FEW080 20/12 A2983 RMK CF1AC1 SLP103

CYUL;2010-07-26 02:00;CYUL 260200Z 30006KT 15SM FEW080 20/12 A2986 RMK AC1 SLP111

CYUL;2010-07-26 03:00;CYUL 260300Z 27006KT 15SM SKC 19/12 A2986 RMK SLP113

CYUL;2010-07-26 04:00;CYUL 260400Z 28006KT 15SM FEW240 19/12 A2987 RMK CI1 SLP115

CYUL;2010-07-26 05:00;CYUL 260500Z 28006KT 15SM FEW090 19/12 A2987 RMK AC1 SLP116

CYUL;2010-07-26 06:00;CYUL 260600Z 28008KT 15SM SKC 18/12 A2988 RMK SLP117

CYUL;2010-07-26 07:00;CYUL 260700Z 30007KT 15SM SKC 18/12 A2988 RMK SLP118

CYUL;2010-07-26 08:00;CYUL 260800Z 28007KT 15SM SKC 17/12 A2988 RMK SLP120

CYUL;2010-07-26 09:00;CYUL 260900Z 29008KT 15SM SKC 16/12 A2989 RMK SLP123

CYUL;2010-07-26 10:00;CYUL 261000Z 28008KT 15SM SKC 16/12 A2991 RMK SLP127

CYUL;2010-07-26 11:00;CYUL 261100Z 30012KT 15SM SKC 18/12 A2991 RMK SLP130

CYUL;2010-07-26 12:00;CYUL 261200Z 28013G18KT 30SM SKC 19/12 A2992 RMK SLP132

CYUL;2010-07-26 13:00;CYUL 261300Z 29011G19KT 30SM FEW028 FEW240 20/13 A2992 RMK CU0CI0 SLP132

CYUL;2010-07-26 14:00;CYUL 261400Z 29015G21KT 30SM FEW030 FEW080 FEW240 21/13 A2991 RMK CU1ACC1CI1 SLP128

CYUL;2010-07-26 15:00;CYUL 261500Z 29017G24KT 30SM FEW040 FEW240 23/13 A2991 RMK CU1CI1 SLP128

CYUL;2010-07-26 16:00;CYUL 261600Z 31013G22KT 30SM FEW045 FEW240 23/12 A2990 RMK CU1CI0 SLP126

CYUL;2010-07-26 17:00;CYUL 261700Z 29015G20KT 30SM FEW045 FEW240 24/13 A2990 RMK CU1CI1 SLP125

CYUL;2010-07-26 18:00;CYUL 261800Z 30017G24KT 30SM FEW055 25/13 A2990 RMK CU2 SLP124

CYUL;2010-07-26 19:00;CYUL 261900Z 30015G20KT 30SM FEW060 25/13 A2990 RMK CU2 SLP126

CYUL;2010-07-26 20:00;CYUL 262000Z 31018G24KT 30SM FEW065 26/12 A2989 RMK CU2 SLP122

CYUL;2010-07-26 21:00;CYUL 262100Z 30015G21KT 30SM FEW065 26/12 A2990 RMK CU2 SLP124

CYUL;2010-07-26 22:00;CYUL 262200Z 30014G20KT 30SM FEW070 26/12 A2990 RMK CU1 SLP126

CYUL;2010-07-26 23:00;CYUL 262300Z 31009G18KT 30SM FEW070 25/12 A2991 RMK CF1 SLP127

CYUL;2010-07-27 00:00;CYUL 270000Z 29007KT 30SM FEW070 24/11 A2991 RMK CF1 SLP129

CYUL;2010-07-27 01:00;CYUL 270100Z 30007KT 30SM FEW240 21/11 A2993 RMK CI1 SLP134

CYUL;2010-07-27 02:00;CYUL 270200Z 29004KT 15SM FEW240 20/12 A2994 RMK CI1 SLP138

CYUL;2010-07-27 03:00;CYUL 270300Z 28004KT 15SM SKC 19/11 A2994 RMK SLP139

CYUL;2010-07-27 04:00;CYUL 270400Z 27002KT 15SM SKC 19/11 A2995 RMK SLP141

CYUL;2010-07-27 05:00;CYUL 270500Z 23003KT 15SM SKC 20/12 A2996 RMK SLP145

CYUL;2010-07-27 06:00;CYUL 270600Z 24006KT 15SM SKC 19/14 A2996 RMK SLP146

CYUL;2010-07-27 07:00;CYUL 270700Z 25005KT 15SM SKC 19/13 A2997 RMK SLP149

CYUL;2010-07-27 08:00;CYUL 270800Z 26006KT 15SM SKC 19/15 A2999 RMK SLP154

CYUL;2010-07-27 09:00;CYUL 270900Z 25004KT 15SM FEW240 18/14 A3000 RMK CI0 SLP159

CYUL;2010-07-27 10:00;CYUL 271000Z 23003KT 30SM FEW240 17/13 A3001 RMK CI0 SLP161

CYUL;2010-07-27 11:00;CYUL 271100Z 23003KT 30SM FEW240 18/14 A3001 RMK CI0 SLP162

CYUL;2010-07-27 12:00;CYUL 271200Z 23003KT 30SM FEW240 20/14 A3001 RMK CI0 SLP164

CYUL;2010-07-27 13:00;CYUL 271300Z 20003KT 30SM SCT240 22/15 A3002 RMK CI1 SLP167

CYUL;2010-07-27 14:00;CYUL 271400Z 23006KT 30SM SCT240 24/16 A3001 RMK CI0 SLP164

CYUL;2010-07-27 15:00;CYUL 271500Z 21009KT 15SM SCT240 25/18 A3000 RMK CI0 SLP159

CYUL;2010-07-27 16:00;CYUL 271600Z 22012KT 15SM FEW040 FEW240 26/17 A2999 RMK CU1CI0 SLP156

CYUL;2010-07-27 17:00;CYUL 271700Z 22012KT 15SM FEW050 FEW180 27/16 A2998 RMK CU1AC0 SLP152

CYUL;2010-07-27 18:00;CYUL 271800Z 21011KT 15SM FEW050 28/18 A2997 RMK CU1 SLP148

CYUL;2010-07-27 19:00;CYUL 271900Z 22011KT 15SM FEW050 28/19 A2995 RMK CF1 SLP143

CYUL;2010-07-27 20:00;CYUL 272000Z 22013KT 15SM FEW055 FEW180 29/19 A2994 RMK CU1AC1 SLP140

CYUL;2010-07-27 21:00;CYUL 272100Z 23013KT 15SM FEW060 FEW120 SCT240 29/18 A2994 RMK CU1AC1CI0 SLP138

CYUL;2010-07-27 22:00;CYUL 272200Z 22014KT 15SM FEW050 FEW120 SCT240 29/19 A2993 RMK CU1AC1CI0 SLP135

CYUL;2010-07-27 23:00;CYUL 272300Z 23011KT 15SM FEW180 FEW240 28/18 A2993 RMK AC0CI0 SLP137

CYUL;2010-07-28 00:00;CYUL 280000Z 24011KT 15SM FEW180 BKN240 27/19 A2993 RMK AC0CI0 SLP137

CYUL;2010-07-28 01:00;CYUL 280100Z 25013G18KT 15SM FEW180 BKN240 26/19 A2994 RMK AC0CI0 SLP138

CYUL;2010-07-28 02:00;CYUL 280200Z 25011KT 15SM FEW120 SCT180 SCT240 25/19 A2995 RMK AC2AC1CI0 SLP141

CYUL;2010-07-28 03:00;CYUL 280300Z 22009KT 15SM SCT110 24/18 A2993 RMK AC4 SLP137

CYUL;2010-07-28 04:00;CYUL 280400Z 23010KT 15SM BKN100 25/14 A2993 RMK AC5 SLP134

CYUL;2010-07-28 05:00;CYUL 280500Z 23010KT 15SM FEW100 SCT240 24/14 A2991 RMK AC2CI0 SLP130

CYUL;2010-07-28 06:00;CYUL 280600Z 25010KT 15SM FEW100 23/14 A2993 RMK AC2 SLP136

CYUL;2010-07-28 07:00;CYUL 280700Z 23006KT 15SM FEW100 FEW240 22/14 A2993 RMK AC1CI0 SLP135

CYUL;2010-07-28 08:00;CYUL 280800Z 24004KT 15SM FEW240 21/14 A2993 RMK CI0 SLP134

CYUL;2010-07-28 09:00;CYUL 280900Z 24004KT 15SM FEW240 21/14 A2991 RMK CI0 SLP130

CYUL;2010-07-28 10:00;CYUL 281000Z 22005KT 15SM SCT240 22/16 A2990 RMK CI1 SLP126

CYUL;2010-07-28 11:00;CYUL 281100Z 23002KT 15SM FEW240 21/16 A2990 RMK CI0 SLP125

CYUL;2010-07-28 12:00;CYUL 281200Z 20007KT 15SM SCT240 22/16 A2987 RMK CI1 SLP116

CYUL;2010-07-28 13:00;CYUL 281300Z 20011KT 15SM SCT240 25/17 A2985 RMK CI1 SLP109

CYUL;2010-07-28 14:00;CYUL 281400Z 23011KT 15SM BKN240 26/17 A2984 RMK CI1 SLP104

CYUL;2010-07-28 15:00;CYUL 281500Z 23016G21KT 15SM FEW060 BKN210 27/16 A2983 RMK CU1CI0 SLP100

CYUL;2010-07-28 16:00;CYUL 281600Z 24015G22KT 15SM FEW050 SCT150 BKN230 28/16 A2982 RMK CU1AC2CI0 SLP097

CYUL;2010-07-28 16:53;CYUL 281653Z 24011KT 15SM -SHRA SCT090 OVC140 27/ RMK AC3AC5

CYUL;2010-07-28 17:00;CYUL 281700Z 24012G17KT 15SM -SHRA SCT090 OVC140 27/16 A2979 RMK AC3AC5 SLP088

CYUL;2010-07-28 17:26;CYUL 281726Z 25019G24KT 15SM BKN085 OVC140 27/ RMK AC5AC3

CYUL;2010-07-28 18:00;CYUL 281800Z 24014KT 15SM OVC075 27/17 A2977 RMK AC8 SLP083

CYUL;2010-07-28 19:00;CYUL 281900Z 23016G22KT 15SM BKN070 OVC120 26/17 A2975 RMK AC6AC2 SLP075

CYUL;2010-07-28 20:00;CYUL 282000Z 23014G20KT 15SM BKN053 OVC090 27/18 A2973 RMK SC6AC2 SLP069

CYUL;2010-07-28 21:00;CYUL 282100Z 23015G20KT 15SM SCT050 OVC085 26/18 A2972 RMK SC3AC5 SLP063

CYUL;2010-07-28 22:00;CYUL 282200Z 23016G22KT 15SM OVC073 26/18 A2970 RMK AC8 SLP058

CYUL;2010-07-28 23:00;CYUL 282300Z 23015G20KT 15SM BKN085 OVC120 26/18 A2968 RMK AC6AC2 SLP052

CYUL;2010-07-29 00:00;CYUL 290000Z 22014G19KT 15SM BKN035 BKN090 BKN240 26/19 A2967 RMK SC6AC2CI0 SLP048

CYUL;2010-07-29 01:00;CYUL 290100Z 24017G24KT 15SM FEW035 BKN240 25/19 A2966 RMK SC2CC2 SLP045

CYUL;2010-07-29 02:00;CYUL 290200Z 24014G19KT 15SM FEW040 BKN240 24/20 A2966 RMK SC1CI2 SLP044

CYUL;2010-07-29 03:00;CYUL 290300Z 24012G17KT 15SM FEW016 SCT040 BKN240 24/20 A2966 RMK SF2SC1CI2 SLP044

CYUL;2010-07-29 04:00;CYUL 290400Z 24012G17KT 15SM FEW016 SCT040 BKN240 24/20 A2967 RMK SF2SC2CI0 SLP046

CYUL;2010-07-29 05:00;CYUL 290500Z 24012KT 15SM FEW040 SCT240 23/20 A2968 RMK SC1CI1 SLP049

CYUL;2010-07-29 06:00;CYUL 290600Z 24012KT 15SM SKC 23/19 A2968 RMK SLP052

CYUL;2010-07-29 07:00;CYUL 290700Z 25011G16KT 15SM FEW080 FEW240 22/18 A2970 RMK AC1CI1 SLP058

CYUL;2010-07-29 08:00;CYUL 290800Z 25011KT 15SM BKN085 22/18 A2972 RMK AC5 SLP066

CYUL;2010-07-29 09:00;CYUL 290900Z 30009KT 15SM BKN088 21/16 A2975 RMK AC5 SLP073

CYUL;2010-07-29 10:00;CYUL 291000Z 31009KT 15SM BKN088 20/14 A2977 RMK AC5 SLP082

CYUL;2010-07-29 11:00;CYUL 291100Z 32010G15KT 15SM FEW088 18/11 A2981 RMK AC2 SLP096

CYUL;2010-07-29 12:00;CYUL 291200Z 31010KT 15SM FEW030 FEW085 18/12 A2984 RMK CU1AC1 SLP104

CYUL;2010-07-29 13:00;CYUL 291300Z 31011G17KT 30SM FEW030 FEW240 19/11 A2985 RMK CU1CI0 SLP110

CYUL;2010-07-29 14:00;CYUL 291400Z 29013KT 30SM FEW040 FEW120 19/10 A2986 RMK CF2AC1 SLP113

CYUL;2010-07-29 15:00;CYUL 291500Z 30009G22KT 30SM BKN045 20/10 A2987 RMK CU6 SLP116

CYUL;2010-07-29 16:00;CYUL 291600Z 28010G19KT 30SM BKN050 20/10 A2988 RMK CU7 SLP119

CYUL;2010-07-29 17:00;CYUL 291700Z 29011G16KT 15SM BKN060 21/10 A2988 RMK CU6 SLP118

CYUL;2010-07-29 18:00;CYUL 291800Z 30010G18KT 15SM BKN060 21/10 A2988 RMK CU6 SLP120

CYUL;2010-07-29 19:00;CYUL 291900Z 30010G15KT 15SM BKN060 21/10 A2989 RMK CU6 SLP123

CYUL;2010-07-29 20:00;CYUL 292000Z CCA 30008G17KT 15SM BKN065 22/10 A2989 RMK CU6 SLP122

CYUL;2010-07-29 21:00;CYUL 292100Z 29011KT 30SM BKN065 22/09 A2989 RMK CU5 SLP121

CYUL;2010-07-29 22:00;CYUL 292200Z 28011KT 30SM SCT060 22/09 A2989 RMK CU4 SLP123

CYUL;2010-07-29 23:00;CYUL 292300Z 29007KT 30SM SCT060 21/09 A2989 RMK CU3 SLP122

CYUL;2010-07-30 00:00;CYUL 300000Z 31006KT 30SM FEW065 20/09 A2989 RMK CU2 SLP123

CYUL;2010-07-30 01:00;CYUL 300100Z 34004KT 15SM FEW065 18/09 A2991 RMK CU2 SLP128

CYUL;2010-07-30 02:00;CYUL 300200Z 36007KT 15SM FEW065 19/09 A2991 RMK SC1 SLP129

CYUL;2010-07-30 03:00;CYUL 300300Z 36005KT 15SM FEW065 18/09 A2992 RMK SC1 SLP132

CYUL;2010-07-30 04:00;CYUL 300400Z 01005KT 15SM FEW065 SCT240 17/09 A2993 RMK SC1CI1 SLP135

CYUL;2010-07-30 05:00;CYUL 300500Z 34004KT 15SM FEW065 16/09 A2994 RMK SC1 SLP138

CYUL;2010-07-30 06:00;CYUL 300600Z 35004KT 15SM FEW080 FEW240 15/09 A2993 RMK AC1CI1 SLP134

CYUL;2010-07-30 07:00;CYUL 300700Z 33005KT 15SM SCT075 14/10 A2992 RMK AC2 SLP133

CYUL;2010-07-30 08:00;CYUL 300800Z 34005KT 15SM SCT075 15/09 A2992 RMK AC2 SLP131

CYUL;2010-07-30 09:00;CYUL 300900Z 33005KT 15SM SCT068 13/09 A2993 RMK AC3 SLP135

CYUL;2010-07-30 10:00;CYUL 301000Z 34005KT 15SM SCT070 13/10 A2994 RMK AC2 SLP140

CYUL;2010-07-30 11:00;CYUL 301100Z 34004KT 15SM FEW065 SCT240 14/09 A2996 RMK SC2CI1 SLP147

CYUL;2010-07-30 12:00;CYUL 301200Z 34005KT 30SM FEW062 FEW240 15/10 A2997 RMK SC1CI1 SLP148

CYUL;2010-07-30 13:00;CYUL 301300Z 27006KT 30SM FEW045 FEW240 16/10 A2997 RMK SC1CI1 SLP150

CYUL;2010-07-30 14:00;CYUL 301400Z 33007KT 30SM BKN045 BKN240 17/07 A2996 RMK CU6CI1 SLP147

CYUL;2010-07-30 15:00;CYUL 301500Z 29008KT 30SM BKN050 BKN240 17/07 A2997 RMK CU6CI0 SLP151

CYUL;2010-07-30 16:00;CYUL 301600Z 30011KT 30SM BKN055 BKN240 17/07 A2998 RMK CU6CI1 SLP152

CYUL;2010-07-30 17:00;CYUL 301700Z 32006KT 30SM BKN055 18/07 A2997 RMK CU7 SLP151

CYUL;2010-07-30 18:00;CYUL 301800Z 30009KT 30SM FEW060 19/08 A2997 RMK CU2 SLP151

CYUL;2010-07-30 19:00;CYUL 301900Z 34008KT 30SM FEW050 BKN060 19/09 A2998 RMK CU2SC4 SLP152

CYUL;2010-07-30 20:00;CYUL 302000Z 32009KT 30SM SCT050 BKN065 19/09 A2997 RMK CU4SC2 SLP149

CYUL;2010-07-30 21:00;CYUL 302100Z 34006KT 30SM SCT048 SCT065 20/09 A2996 RMK CU3SC1 SLP148

CYUL;2010-07-30 22:00;CYUL 302200Z 31005KT 30SM SCT050 BKN065 19/10 A2997 RMK CU3SC4 SLP149

CYUL;2010-07-30 23:00;CYUL 302300Z 31004KT 30SM FEW050 BKN065 18/10 A2996 RMK CU1SC5 SLP148

CYUL;2010-07-31 00:00;CYUL 310000Z 33006KT 30SM FEW050 BKN070 18/10 A2997 RMK SC2AC6 SLP150

CYUL;2010-07-31 01:00;CYUL 310100Z 35003KT 30SM FEW050 BKN070 18/10 A2998 RMK SC1AC6 SLP154

CYUL;2010-07-31 02:00;CYUL 310200Z 34003KT 15SM BKN063 17/10 A2999 RMK SC4 SLP156

CYUL;2010-07-31 03:00;CYUL 310300Z 31006KT 15SM SCT062 15/10 A2999 RMK SC2 SLP158

CYUL;2010-07-31 04:00;CYUL 310400Z 31003KT 15SM FEW065 15/10 A3000 RMK SC1 SLP159

CYUL;2010-07-31 05:00;CYUL 310500Z 01003KT 15SM FEW065 15/10 A2999 RMK SC1 SLP158

CYUL;2010-07-31 06:00;CYUL 310600Z 01003KT 15SM FEW240 14/10 A2999 RMK CI1 SLP158

CYUL;2010-07-31 07:00;CYUL 310700Z 35002KT 15SM FEW060 FEW240 12/10 A2999 RMK SC1CI0 SLP157

CYUL;2010-07-31 08:00;CYUL 310800Z 35004KT 15SM FEW050 FEW240 12/10 A2999 RMK SC0CI0 SLP155

CYUL;2010-07-31 09:00;CYUL 310900Z 32002KT 15SM FEW240 10/09 A2999 RMK CI1 SLP157

CYUL;2010-07-31 10:00;CYUL 311000Z 27003KT 15SM FEW052 FEW240 11/09 A3001 RMK SC1CI1 SLP164

CYUL;2010-07-31 11:00;CYUL 311100Z 30002KT 15SM FEW050 FEW240 13/10 A3002 RMK SC1CI1 SLP166

CYUL;2010-07-31 12:00;CYUL 311200Z 00000KT 30SM FEW050 FEW240 14/10 A3002 RMK SC1CI1 SLP166

CYUL;2010-07-31 13:00;CYUL 311300Z 28002KT 30SM FEW042 SCT240 17/10 A3002 RMK SC1CI1 SLP167

CYUL;2010-07-31 14:00;CYUL 311400Z 32003KT 30SM FEW035 FEW050 BKN240 19/10 A3001 RMK CU1SC1CI1 SLP165

CYUL;2010-07-31 15:00;CYUL 311500Z 24005KT 30SM FEW040 BKN240 19/09 A3001 RMK CU2CI0 SLP164

CYUL;2010-07-31 16:00;CYUL 311600Z 22005KT 30SM FEW045 BKN240 21/09 A3000 RMK CU2CI1 SLP160

CYUL;2010-07-31 17:00;CYUL 311700Z 17004KT 30SM FEW050 BKN220 21/09 A2999 RMK CU2CI2 SLP157

CYUL;2010-07-31 18:00;CYUL 311800Z 25005KT 30SM FEW050 BKN220 21/09 A2999 RMK CU2CI1 SLP156

CYUL;2010-07-31 19:00;CYUL 311900Z 24005KT 30SM FEW055 SCT200 BKN240 22/09 A2999 RMK CU2CC1CI1 SLP155

CYUL;2010-07-31 20:00;CYUL 312000Z 26005KT 30SM FEW060 BKN200 OVC240 22/09 A2998 RMK CU1CC3CI2 SLP153

CYUL;2010-07-31 21:00;CYUL 312100Z 26005KT 30SM FEW060 SCT200 OVC240 22/09 A2997 RMK CU1CC2CI2 SLP150

CYUL;2010-07-31 22:00;CYUL 312200Z 25002KT 30SM FEW060 FEW200 BKN240 22/09 A2997 RMK CU1CC1CI2 SLP149

CYUL;2010-07-31 23:00;CYUL 312300Z 23003KT 30SM FEW060 FEW240 22/09 A2997 RMK CU1CI2 SLP150

CYUL;2010-08-01 01:00;CYUL 010100Z 29002KT 30SM FEW060 FEW180 FEW240 18/10 A2998 RMK CU1AC1CI0 SLP152

CYUL;2010-08-01 02:00;CYUL 010200Z 00000KT 15SM SKC 19/10 A2999 RMK SLP154

CYUL;2010-08-01 03:00;CYUL 010300Z 00000KT 15SM SKC 17/11 A2999 RMK SLP154

CYUL;2010-08-01 04:00;CYUL 010400Z 00000KT 15SM SKC 16/10 A2999 RMK SLP156

CYUL;2010-08-01 05:00;CYUL 010500Z 00000KT 15SM SKC 15/11 A3000 RMK SLP158

CYUL;2010-08-01 06:00;CYUL 010600Z 01004KT 15SM SKC 16/12 A3000 RMK SLP159

CYUL;2010-08-01 07:00;CYUL 010700Z 35003KT 15SM SKC 15/10 A3001 RMK SLP162

CYUL;2010-08-01 08:00;CYUL 010800Z 02002KT 15SM SKC 15/10 A3001 RMK SLP163

CYUL;2010-08-01 09:00;CYUL 010900Z 01003KT 15SM SKC 14/10 A3002 RMK SLP166

CYUL;2010-08-01 10:00;CYUL 011000Z 01004KT 15SM FEW240 14/10 A3003 RMK CI1 SLP169

CYUL;2010-08-01 11:00;CYUL 011100Z 35004KT 15SM FEW240 15/12 A3005 RMK CI0 SLP175

CYUL;2010-08-01 12:00;CYUL 011200Z 03005KT 30SM FEW062 FEW240 17/12 A3006 RMK SC1CI1 SLP181

CYUL;2010-08-01 13:00;CYUL 011300Z 04005KT 30SM FEW065 FEW240 19/13 A3007 RMK SC1CI1 SLP182

CYUL;2010-08-01 14:00;CYUL 011400Z 05005KT 30SM FEW030 FEW240 22/14 A3006 RMK CU1CI0 SLP180

CYUL;2010-08-01 15:00;CYUL 011500Z 08004KT 30SM FEW035 FEW240 23/14 A3005 RMK CU1CI1 SLP175

CYUL;2010-08-01 16:00;CYUL 011600Z 12006KT 30SM FEW040 FEW240 24/13 A3004 RMK CU1CI1 SLP172

CYUL;2010-08-01 17:00;CYUL 011700Z 13009KT 30SM FEW045 FEW240 25/13 A3004 RMK CU2CI1 SLP171

CYUL;2010-08-01 18:00;CYUL 011800Z 13005KT 30SM SCT050 BKN240 25/14 A3002 RMK CU3CI0 SLP167

CYUL;2010-08-01 19:00;CYUL 011900Z 17007KT 30SM FEW050 BKN240 26/13 A3001 RMK CU1CI0 CONTRAILS SLP164

CYUL;2010-08-01 20:00;CYUL 012000Z 15007KT 30SM FEW060 BKN250 26/12 A3001 RMK CU1CI0 SLP163

CYUL;2010-08-01 21:00;CYUL 012100Z 18004KT 30SM FEW060 BKN240 26/12 A3001 RMK CU1CI1 SLP162

CYUL;2010-08-01 22:00;CYUL 012200Z 12006KT 30SM FEW065 BKN240 26/12 A3000 RMK CU1CI1 SLP160

CYUL;2010-08-01 23:00;CYUL 012300Z 14007KT 30SM FEW040TCU BKN240 24/13 A2999 RMK TCU1CI1 SLP157

CYUL;2010-08-02 00:00;CYUL 020000Z 15006KT 30SM FEW040 FEW200 OVC240 24/13 A2999 RMK CU1CI1CI2 SLP157

CYUL;2010-08-02 01:00;CYUL 020100Z 11004KT 30SM BKN240 24/12 A3001 RMK CI2 SLP161

CYUL;2010-08-02 02:00;CYUL 020200Z 10003KT 15SM SCT240 24/12 A3001 RMK CI0 SLP164

CYUL;2010-08-02 03:00;CYUL 020300Z 09004KT 15SM BKN075 24/13 A3001 RMK AC2 SLP163

CYUL;2010-08-02 04:00;CYUL 020400Z 09005KT 15SM BKN080 23/13 A3001 RMK AC2 SLP163

CYUL;2010-08-02 05:00;CYUL 020500Z 09002KT 15SM FEW080 SCT130 23/13 A3001 RMK AC1AC0 SLP163

CYUL;2010-08-02 06:00;CYUL 020600Z 15004KT 15SM FEW070 SCT220 20/15 A3001 RMK AC1CI0 SLP163

CYUL;2010-08-02 07:00;CYUL 020700Z 00000KT 15SM SCT070 SCT230 19/14 A3001 RMK AC1CI0 SLP162

CYUL;2010-08-02 08:00;CYUL 020800Z 16005KT 15SM FEW080 18/16 A3001 RMK AC1 SLP164

CYUL;2010-08-02 09:00;CYUL 020900Z 32002KT 15SM FEW120 17/15 A3003 RMK AC1 SLP169

CYUL;2010-08-02 10:00;CYUL 021000Z 00000KT 15SM FEW070 BKN160 17/14 A3004 RMK AC1AC2 SLP174

CYUL;2010-08-02 11:00;CYUL 021100Z 00000KT 15SM BKN150 19/15 A3006 RMK AC3 SLP180

CYUL;2010-08-02 12:00;CYUL 021200Z 00000KT 15SM SCT130 BKN170 21/16 A3007 RMK AC2AC2 SLP182

CYUL;2010-08-02 13:00;CYUL 021300Z 25004KT 15SM BKN055 BKN130 22/17 A3007 RMK SC5AC2 SLP182

CYUL;2010-08-02 14:00;CYUL 021400Z 14002KT 15SM FEW060 BKN110 BKN160 22/17 A3006 RMK SC2AC3AC1 SLP178

CYUL;2010-08-02 14:04;CYUL 021404Z 20002KT 15SM -SHRA FEW060 BKN110 22/ RMK SC2AC3

CYUL;2010-08-02 14:26;CYUL 021426Z 20002KT 15SM FEW060 SCT110 SCT160 BKN240 22/ RMK SC1AC2AC1CI1

CYUL;2010-08-02 15:00;CYUL 021500Z 13003KT 15SM FEW070 FEW140 SCT240 24/18 A3004 RMK AC1AC1CI1 SLP174

CYUL;2010-08-02 16:00;CYUL 021600Z 22006KT 15SM FEW025 FEW120 SCT240 25/18 A3004 RMK CU1AC1CI1 SLP171

CYUL;2010-08-02 17:00;CYUL 021700Z 24003KT 15SM FEW050 BKN110 BKN210 27/19 A3002 RMK CU1AC4CI1 SLP166

CYUL;2010-08-02 18:00;CYUL 021800Z 23005KT 15SM FEW040 SCT110 BKN210 27/19 A3001 RMK CU1AC2CI2 TCU ASOCTD SLP161

CYUL;2010-08-02 19:00;CYUL 021900Z 19005KT 15SM FEW040TCU SCT090 BKN210 27/19 A3000 RMK TCU2AC1CI1 SLP158

CYUL;2010-08-02 20:00;CYUL 022000Z 16010KT 15SM FEW040TCU FEW090 SCT150 BKN240 27/20 A2999 RMK TCU2AC1AC1CI1 SLP155

CYUL;2010-08-02 21:00;CYUL 022100Z 16008KT 15SM FEW040TCU FEW140 OVC210 26/20 A2998 RMK TCU1AC2CI3 SLP151

CYUL;2010-08-02 22:00;CYUL 022200Z 16009KT 15SM FEW040TCU SCT090 OVC220 25/19 A2998 RMK TCU1AC2CS3 SLP151

CYUL;2010-08-02 23:00;CYUL 022300Z 18011G17KT 12SM TS VCSH FEW020CB SCT040TCU BKN080 OVC200 23/18 A2997 RMK CB2TCU2AC2CS2 SLP150

CYUL;2010-08-02 23:05;CYUL 022305Z 25011G17KT 6SM TSRA BKN022CB BKN035 OVC200 23/ RMK CB5SC2CS2 LTGCG

CYUL;2010-08-02 23:08;CYUL 022308Z 29019G24KT 2SM TSRA BKN018CB OVC030 23/ RMK CB6SC2 LTGCG

CYUL;2010-08-02 23:23;CYUL 022323Z 27004KT 4SM -TSRA BKN020CB BKN030 OVC050 20/ RERA RMK CB5SC2SC2 LTGCG

CYUL;2010-08-03 00:00;CYUL 030000Z 20008KT 10SM -TSRA FEW020CB BKN045 OVC080 20/18 A3000 RERA RMK CB2SC4AC2 /R10/ SLP160

CYUL;2010-08-03 00:22;CYUL 030022Z 16008KT 15SM -SHRA FEW020TCU SCT040 OVC100 20/ RETS RMK TCU1SC3AC4 CB EMBD

CYUL;2010-08-03 01:00;CYUL 030100Z 14008KT 15SM -SHRA FEW030 SCT080 OVC120 20/19 A3000 RETS RMK SC2AC2AC5 SLP160

CYUL;2010-08-03 01:35;CYUL 030135Z 16007KT 15SM FEW005 SCT080 BKN140 20/ RMK SC1AC3AC2

CYUL;2010-08-03 02:00;CYUL 030200Z 16007KT 15SM FEW008 SCT060 OVC170 21/19 A3001 RMK SF1SC3AC5 SLP161

CYUL;2010-08-03 02:09;CYUL 030209Z 16007KT 15SM -SHRA FEW008 SCT060 OVC150 21/ RMK SF1SC3AC5

CYUL;2010-08-03 02:24;CYUL 030224Z 16008KT 15SM FEW010 BKN060 OVC130 21/ RMK SF1SC5AC3

CYUL;2010-08-03 03:00;CYUL 030300Z 18005KT 15SM FEW010 BKN060 OVC120 20/19 A3000 RMK SF1SC6AC2 SLP160

CYUL;2010-08-03 04:00;CYUL 030400Z 15005KT 15SM FEW060 OVC140 20/18 A2999 RMK SC2AC6 SLP155

CYUL;2010-08-03 05:00;CYUL 030500Z 17003KT 15SM OVC110 20/19 A2998 RMK AC8 SLP152

CYUL;2010-08-03 05:31;CYUL 030531Z 19005KT 15SM -SHRA SCT035 OVC100 20/ RMK SC3AC5

CYUL;2010-08-03 06:00;CYUL 030600Z 15004KT 8SM -SHRA BKN030 OVC095 20/19 A2998 RMK SC5AC3 SLP153

CYUL;2010-08-03 06:34;CYUL 030634Z 15004KT 12SM FEW035 SCT065 OVC090 20/ RMK SC2SC2AC5

CYUL;2010-08-03 06:54;CYUL 030654Z 16004KT 12SM -SHRA FEW035 SCT065 OVC120 20/ RMK SC2SC2AC5

CYUL;2010-08-03 07:00;CYUL 030700Z 18004KT 12SM -SHRA SCT065 OVC120 20/19 A2997 RMK SC3AC5 SLP148

CYUL;2010-08-03 07:30;CYUL 030730Z 19007KT 12SM -SHRA SCT005 OVC080 20/ RMK SF3AC5

CYUL;2010-08-03 08:00;CYUL 030800Z 19005KT 10SM -RA SCT008 OVC035 20/19 A2997 RMK SF3SC5 SLP148

CYUL;2010-08-03 08:05;CYUL 030805Z 19004KT 6SM -RA BKN007 OVC035 20/ RMK SF5SC3

CYUL;2010-08-03 09:00;CYUL 030900Z 14005KT 6SM -RA SCT005 OVC012 20/19 A2997 RMK SF3SF5 RERA SLP149

CYUL;2010-08-03 09:32;CYUL 030932Z 15005KT 6SM -RA SCT007 BKN015 OVC035 20/ RMK SF3SC3SC2 RERA

CYUL;2010-08-03 10:00;CYUL 031000Z 16008KT 8SM SCT008 BKN025 OVC130 20/19 A2996 RMK SF3SC4AC1 RERA /R10/ SLP147

CYUL;2010-08-03 10:36;CYUL 031036Z 15010KT 10SM SCT004 OVC028 20/ RMK SF4SC4

CYUL;2010-08-03 11:00;CYUL 031100Z 15010KT 12SM FEW005 SCT030 OVC085 20/19 A2995 RMK SF2SC2AC4 SLP142

CYUL;2010-08-03 11:44;CYUL 031144Z 16008KT 12SM -SHRA FEW005 OVC070 21/ RMK SF2AC6

CYUL;2010-08-03 11:55;CYUL 031155Z 17008KT 6SM -SHRA FEW005 OVC030 21/ RMK SF2SC6 VIS S SW 2

CYUL;2010-08-03 12:00;CYUL 031200Z 17009KT 6SM -TSRA FEW005 OVC030 20/20 A2996 RMK SF2SC6 CB EMBD VIS SW 2 SLP144

CYUL;2010-08-03 12:36;CYUL 031236Z 34004KT 8SM -TSRA BKN006 OVC025 20/ RMK SF6SC2 CB EMBD

CYUL;2010-08-03 12:42;CYUL 031242Z 34004KT 3SM TSRA BKN007 OVC017 20/ RMK SF6SC2 CB EMBD VIS S SW 1

CYUL;2010-08-03 12:55;CYUL 031255Z 09003KT 4SM -SHRA SCT007 OVC025 21/ RMK SF4SC4 RETS RERA CB EMBD

CYUL;2010-08-03 13:00;CYUL 031300Z 12004KT 6SM -TSRA SCT007 OVC024 20/20 A2996 RMK SF3SC5 RERA CB EMBD SLP145

CYUL;2010-08-03 13:18;CYUL 031318Z CCA 14006KT 10SM FEW008 OVC024 21/ RMK SF2SC6 RETS CB EMBD

CYUL;2010-08-03 13:22;CYUL 031322Z 16004KT 10SM -SHRA FEW008 OVC023 21/ RMK SF2SC6 RETS CB EMBD

CYUL;2010-08-03 13:52;CYUL 031352Z 14006KT 10SM FEW008 OVC022 21/ RMK SF1SC8 RETS CB EMBD

CYUL;2010-08-03 14:00;CYUL 031400Z 16006KT 10SM FEW008 OVC021 22/21 A2996 RMK SF1SC7 RETS CB EMBD SLP145

CYUL;2010-08-03 15:00;CYUL 031500Z 17006KT 8SM FEW007 BKN015 OVC025 23/21 A2995 RMK SF1SF5SC2 SLP142

CYUL;2010-08-03 16:00;CYUL 031600Z 20009KT 8SM BKN013 BKN020 OVC035 23/21 A2994 RMK SF5SC2SC2 SLP138

CYUL;2010-08-03 16:08;CYUL 031608Z 20006KT 8SM FEW008 BKN024 OVC040 23/ RMK SF2SC2SC3

CYUL;2010-08-03 17:00;CYUL 031700Z 16007KT 8SM FEW010 OVC020 24/21 A2992 RMK SF1SC7 SLP131

CYUL;2010-08-03 18:00;CYUL 031800Z 14007KT 10SM SCT018 BKN050 BKN110 24/21 A2989 RMK SC3SC2AC2 SLP123

CYUL;2010-08-03 19:00;CYUL 031900Z 16008KT 8SM SCT018 BKN040 OVC080 25/22 A2988 RMK SC3SC3AC1 SLP117

CYUL;2010-08-03 19:42;CYUL 031942Z 15007KT 6SM -DZ BR FEW014 BKN024 OVC050 24/ RMK SF1SC6SC2

CYUL;2010-08-03 19:51;CYUL 031951Z 15008KT 6SM -TSRA BR FEW014 BKN024 OVC080 24/ RMK SF1SC5AC2 CB EMBD

CYUL;2010-08-03 20:00;CYUL 032000Z 14009KT 6SM -TSRA BR FEW014 BKN024 OVC060 24/22 A2985 RMK SF1SC6SC2 CB EMBD SLP108

CYUL;2010-08-03 21:00;CYUL 032100Z 00000KT 4SM -TSRA BR SCT008 BKN012 OVC025 24/22 A2987 RMK SF3SC4SC1 CB EMBD SLP114

CYUL;2010-08-03 21:11;CYUL 032111Z 16004KT 1SM TSRA BR OVC006 OVC012 24/ RMK SF6SC2 CB EMBD LTGCG

CYUL;2010-08-03 21:18;CYUL 032118Z 23011KT 3/4SM +TSRA BR OVC008 23/ RMK RA5SF3 CB EMBD

CYUL;2010-08-03 21:24;CYUL 032124Z 23007KT 3SM TSRA BR FEW008 BKN013 OVC025 23/ RERA RMK SF2SF2SC3 CB EMBD

CYUL;2010-08-03 21:45;CYUL 032145Z 29005KT 4SM -TSRA BR FEW008 BKN020 OVC040 22/ RERA RMK SF2SC4SC2 CB EMBD

CYUL;2010-08-03 22:00;CYUL 032200Z 29002KT 4SM -SHRA BR FEW008 BKN020 OVC040 22/20 A2985 RETSRA RMK SF2SC5SC2 CB EMBD /R12/ SLP110

CYUL;2010-08-03 22:13;CYUL 032213Z 28003KT 2 1/2SM SHRA BR FEW008 OVC018 21/ RMK SF2SC6 CB EMBD

CYUL;2010-08-03 22:26;CYUL 032226Z 30005KT 4SM SHRA BR FEW008 BKN013 OVC020 21/ RMK SF1SF5SC2 CB EMBD

CYUL;2010-08-03 22:40;CYUL 032240Z 00000KT 5SM SHRA BR SCT013 BKN020 OVC030 21/ RMK SF3SC3SC2

CYUL;2010-08-03 23:00;CYUL 032300Z 22004KT 6SM -SHRA BR FEW013 BKN030 OVC050 22/21 A2985 RERA RMK SF2SC4SC2 SLP109

CYUL;2010-08-04 00:00;CYUL 040000Z 19007KT 8SM -SHRA FEW030 SCT070 BKN120 22/21 A2983 RERA RMK SC1AC2AC4 /R21/ SLP102

CYUL;2010-08-04 00:24;CYUL 040024Z 17006KT 8SM FEW040 BKN070 OVC130 22/ RMK SC1AC4AC3

CYUL;2010-08-04 00:40;CYUL 040040Z 16004KT 6SM -RA BR FEW040 BKN065 OVC130 22/ RMK SC2SC3AC3

CYUL;2010-08-04 01:00;CYUL 040100Z 00000KT 3SM -RA BR FEW017 BKN030 OVC060 22/21 A2983 RMK SC2SC4SC2 SLP102

CYUL;2010-08-04 01:22;CYUL 040122Z 12003KT 7SM -TSRA FEW012 BKN045 OVC110 22/ RMK SF1SC4AC2 CB EMBD W LTGCG

CYUL;2010-08-04 02:00;CYUL 040200Z 33007KT 4SM -TSRA FEW009 OVC035 22/21 A2983 RMK SF2SC6 CB EMBD W LTGCG SLP102

CYUL;2010-08-04 02:24;CYUL 040224Z 25003KT 4SM -SHRA FEW010 BKN030 OVC045 22/ RMK SF2SC6SC1 RETS DIST LTNG

CYUL;2010-08-04 02:43;CYUL 040243Z 22003KT 6SM -TSRA FEW010 BKN035 OVC130 22/ RMK SF2SC4AC2 CB EMBD

CYUL;2010-08-04 03:00;CYUL 040300Z 24004KT 4SM -TSRA FEW010 BKN035 OVC075 22/21 A2981 RMK SF2SC5AC2 CB EMBD SLP096

CYUL;2010-08-04 04:00;CYUL 040400Z 25005KT 8SM SCT035 BKN090 BKN140 22/21 A2979 RMK SC3AC2AC2 RETS SLP089

CYUL;2010-08-04 05:00;CYUL 040500Z 21007KT 6SM BR FEW015 BKN055 OVC090 23/21 A2978 RMK SF1SC6AC2 SLP086

CYUL;2010-08-04 06:00;CYUL 040600Z 23003KT 6SM BR FEW010 SCT060 22/21 A2977 RMK SF1SC3 SLP081

CYUL;2010-08-04 06:49;CYUL 040649Z 32007KT 4SM BR SCT009 OVC030 22/ RMK SF3SC5

CYUL;2010-08-04 07:00;CYUL 040700Z 32004KT 4SM BR SCT008 BKN012 OVC045 22/21 A2977 RMK SF3SF3SC2 SLP083

CYUL;2010-08-04 07:18;CYUL 040718Z 26003KT 4SM BR SCT008 OVC022 22/ RMK SF3SF5

CYUL;2010-08-04 08:00;CYUL 040800Z 20003KT 8SM FEW010 OVC019 22/21 A2976 RMK SF2SF6 SLP077

CYUL;2010-08-04 09:00;CYUL 040900Z 22005KT 8SM BKN012 22/21 A2975 RMK SF6 SLP074

CYUL;2010-08-04 09:16;CYUL 040916Z 22006KT 4SM BR FEW008 BKN011 22/ RMK SF1SF6

CYUL;2010-08-04 09:41;CYUL 040941Z 24006KT 3SM BR OVC009 22/ RMK SF8

CYUL;2010-08-04 10:00;CYUL 041000Z 25006KT 2 1/2SM BR OVC009 22/21 A2977 RMK SF8 SLP080

CYUL;2010-08-04 11:00;CYUL 041100Z 24008KT 2 1/4SM BR OVC008 22/21 A2977 RMK SF8 SLP083

CYUL;2010-08-04 12:00;CYUL 041200Z 25011KT 3SM BR BKN008 BKN014 22/21 A2977 RMK SF5SF2 SLP083

CYUL;2010-08-04 12:53;CYUL 041253Z 25009KT 3SM BR SCT008 BKN019 23/ RMK SF3SC3

CYUL;2010-08-04 13:00;CYUL 041300Z 26008KT 6SM HZ SCT009 BKN019 23/21 A2977 RMK SF3SC4 SLP081

CYUL;2010-08-04 13:33;CYUL 041333Z 27013KT 8SM SCT012 OVC020 24/ RMK SF3SC5

CYUL;2010-08-04 14:00;CYUL 041400Z 25007KT 8SM SCT013 BKN020 OVC030 25/21 A2977 RMK SF4SC3SC1 SLP082

CYUL;2010-08-04 15:00;CYUL 041500Z 24009G17KT 8SM FEW015 SCT020 OVC030 26/21 A2976 RMK CU1SC3SC4 SLP078

CYUL;2010-08-04 16:00;CYUL 041600Z 26012G17KT 10SM SCT020 BKN030 BKN210 27/22 A2975 RMK CU4SC1CI0 TCU ASOCTD SLP073

CYUL;2010-08-04 17:00;CYUL 041700Z 23010G15KT 10SM FEW022 SCT030 BKN210 28/22 A2973 RMK CU2SC2CI1 TCU EMBD SLP067

CYUL;2010-08-04 18:00;CYUL 041800Z 22012KT 10SM FEW025 SCT045 BKN210 28/23 A2970 RMK CU2SC2CI2 TCU EMBD SLP059

CYUL;2010-08-04 18:24;CYUL 041824Z 22011KT 10SM -SHRA FEW025TCU BKN047 OVC210 28/ RMK TCU2SC5CI2 CB EMBD

CYUL;2010-08-04 18:32;CYUL 041832Z 23013KT 10SM -TSRA FEW025TCU BKN047 OVC130 28/ RMK TCU2SC5AC2 CB EMBD

CYUL;2010-08-04 19:00;CYUL 041900Z 24012G17KT 8SM -TSRA FEW025CB BKN050 OVC140 26/23 A2971 RMK CB2SC2AC3 SLP060

CYUL;2010-08-04 19:12;CYUL 041912Z 23020G28KT 1 1/2SM +TSRA BKN020CB BKN040 OVC120 25/ RMK CB5SC2AC1

CYUL;2010-08-04 19:26;CYUL 041926Z 22015G25KT 12SM -TSRA SCT020CB BKN060 BKN120 OVC220 24/ RERA RMK CB3SC2AC2CI2

CYUL;2010-08-04 19:53;CYUL 041953Z 25009G18KT 2SM TSRA BKN018CB OVC040 25/ RERA RMK CB6SC2 LTGCG

CYUL;2010-08-04 20:00;CYUL 042000Z 23017G32KT 4SM TSRA BKN020CB BKN050 OVC100 23/21 A2971 RERA RMK CB5SC2AC2 LTGCG SLP061

CYUL;2010-08-04 20:33;CYUL 042033Z 23012KT 15SM SCT030CB BKN120 BKN200 23/ RETSRA RMK CB3AC2CI2

CYUL;2010-08-04 21:00;CYUL 042100Z 22011KT 15SM FEW050CB BKN090 BKN140 BKN210 23/20 A2969 RETSRA RMK CB2AC3AC1CI2 /R11/ SLP056

CYUL;2010-08-04 21:22;CYUL 042122Z 21009KT 10SM -TSRA BKN050CB BKN090 OVC140 23/ RMK CB5AC2AC2 LTGCG W

CYUL;2010-08-04 21:29;CYUL 042129Z 24013KT 1 1/2SM +TSRA BKN030CB OVC080 23/ RMK CB6AC2 LTGCG

CYUL;2010-08-04 21:37;CYUL 042137Z 23007G15KT 4SM TSRA BKN035CB BKN050 OVC090 22/ RERA RMK CB6SC1AC2

CYUL;2010-08-04 22:00;CYUL 042200Z 28003KT 8SM -TSRA BKN040CB OVC070 22/21 A2969 RERA RMK CB6AC2 SLP055

CYUL;2010-08-04 22:25;CYUL 042225Z 18003KT 15SM -SHRA FEW040CB SCT070 BKN130 BKN210 23/ RETS RMK CB2AC2AC2CI2

CYUL;2010-08-04 23:00;CYUL 042300Z 24003KT 15SM FEW040 FEW070 BKN130 BKN210 23/21 A2965 RETS RMK SC1AC2AC3CI2 CB EMBD SLP041

CYUL;2010-08-05 00:00;CYUL 050000Z 23009KT 15SM FEW050 FEW070 SCT140 BKN220 23/21 A2966 RMK SC1AC1AC2CI2 SLP043

CYUL;2010-08-05 01:00;CYUL 050100Z 23006KT 15SM FEW040TCU SCT075 BKN140 BKN210 23/20 A2966 RMK TCU1AC3AC2CI2 SLP045

CYUL;2010-08-05 02:00;CYUL 050200Z 23005KT 15SM FEW080 23/20 A2966 RMK AC1 SLP043

CYUL;2010-08-05 03:00;CYUL 050300Z 00000KT 15SM FEW050 FEW240 22/20 A2965 RMK CU1CI0 SLP041

CYUL;2010-08-05 04:00;CYUL 050400Z 25003KT 15SM FEW050 FEW070 23/20 A2964 RMK CU1AC2 SLP037

CYUL;2010-08-05 05:00;CYUL 050500Z 00000KT 15SM FEW060 FEW090 21/20 A2964 RMK CU1AC2 SLP037

CYUL;2010-08-05 06:00;CYUL 050600Z 21006KT 15SM SCT020 BKN210 22/21 A2962 RMK SC3CI0 SLP031

CYUL;2010-08-05 07:00;CYUL 050700Z 23008KT 8SM OVC200 23/21 A2961 RMK CS8 SLP028

CYUL;2010-08-05 08:00;CYUL 050800Z 22006KT 6SM BR OVC190 23/21 A2960 RMK AC8 SLP023

CYUL;2010-08-05 09:00;CYUL 050900Z 22006KT 6SM BR FEW060 OVC180 23/21 A2959 RMK SC1AC7 SLP021

CYUL;2010-08-05 09:41;CYUL 050941Z 22005KT 2 1/2SM BR OVC190 23/ RMK AC8

CYUL;2010-08-05 10:00;CYUL 051000Z 22005KT 2 1/2SM BR OVC190 23/21 A2959 RMK AC6 SLP022

CYUL;2010-08-05 10:08;CYUL 051008Z 22005KT 3SM BR OVC190 23/ RMK AC6 VIS W 11/2

CYUL;2010-08-05 11:00;CYUL 051100Z 23007KT 3SM BR FEW010 OVC180 23/21 A2960 RMK SF2AC6 VIS W 11/4 SLP023

CYUL;2010-08-05 12:00;CYUL 051200Z 23007KT 3SM HZ FEW011 OVC190 23/21 A2959 RMK SF1AC8 SLP018

CYUL;2010-08-05 13:00;CYUL 051300Z 23007KT 6SM HZ FEW013 BKN170 OVC210 24/21 A2958 RMK SF1AC6CI0 SLP015

CYUL;2010-08-05 13:06;CYUL 051306Z 24009KT 6SM HZ FEW008 BKN170 OVC210 24/ RMK SF2AC4CI0

CYUL;2010-08-05 13:23;CYUL 051323Z 23007KT 6SM HZ BKN011 BKN180 OVC210 24/ RMK SF5AC2CI0

CYUL;2010-08-05 14:00;CYUL 051400Z 22010KT 8SM FEW013 BKN160 BKN210 25/21 A2957 RMK CU2AC2CI0 TCU ASOCT SLP012

CYUL;2010-08-05 15:00;CYUL 051500Z 22012KT 15SM FEW032 SCT150 BKN240 26/21 A2956 RMK CF1AC2CI1 SLP009

CYUL;2010-08-05 16:00;CYUL 051600Z 22011G16KT 15SM FEW026 SCT150 BKN240 27/21 A2955 RMK CF2AC1CI1 SLP006

CYUL;2010-08-05 17:00;CYUL 051700Z 23016KT 15SM FEW032 SCT150 BKN240 27/20 A2954 RMK CU2AC1CI2 SLP002

CYUL;2010-08-05 18:00;CYUL 051800Z 22013KT 15SM FEW036 SCT160 BKN240 28/20 A2952 RMK SC1AC1CI2 ACC ASOCTD SLP995

CYUL;2010-08-05 19:00;CYUL 051900Z 23016KT 15SM FEW038 SCT170 BKN240 29/20 A2951 RMK SC1AC2CI1 ACC ASOCTD SLP992

CYUL;2010-08-05 20:00;CYUL 052000Z 24010G16KT 30SM FEW040 FEW240 29/20 A2948 RMK SC1CI1 CU EMBD SLP984

CYUL;2010-08-05 21:00;CYUL 052100Z 24013KT 30SM FEW042 FEW180 29/20 A2947 RMK SC1AC1 SLP980

CYUL;2010-08-05 22:00;CYUL 052200Z 30008KT 30SM FEW057 SCT100 SCT240 25/19 A2947 RMK SC1AC2CI0 ACC ASOCTD SLP979

CYUL;2010-08-05 22:54;CYUL 052254Z 26005KT 10SM TS FEW050 SCT090 BKN180 26/ RMK SC2AC2AC2 CB ASOCTD SW

CYUL;2010-08-05 22:57;CYUL 052257Z 26005KT 10SM -TSRA FEW050 SCT090 BKN180 26/ RMK SC2AC2AC2 CB ASOCTD SW

CYUL;2010-08-05 23:00;CYUL 052300Z 29017G28KT 4SM -TSRA FEW035CB BKN070 BKN150 25/20 A2948 RMK CB2AC4AC2 CIG LWR SW SLP983

CYUL;2010-08-05 23:29;CYUL 052329Z 26007G15KT 8SM VCSH FEW047 BKN075 BKN170 22/ RETS RMK SC2AC3AC1 CB ASOCTD E

CYUL;2010-08-06 00:00;CYUL 060000Z 25006KT 15SM FEW058 FEW110 FEW180 23/19 A2947 RETS RMK SC1AC1AC0 TCU EMBD E SLP978

CYUL;2010-08-06 00:54;CYUL 060054Z 19009KT 10SM TS FEW050 SCT070 SCT110 24/ RMK SC1AC2AC1 LTGCC NW CB ASOCTS NW

CYUL;2010-08-06 01:00;CYUL 060100Z 19009KT 10SM TS VCSH FEW050CB SCT070 SCT110 23/20 A2946 RMK CB2AC1AC1 LTGCC NW CIG LWR NW SLP976

CYUL;2010-08-06 01:11;CYUL 060111Z 30019G29KT 8SM -TSRA FEW020 SCT044CB BKN070 22/ RMK SC2CB2AC2 CBMOVG RPDLY NW TO SE FQT LTGCC

CYUL;2010-08-06 01:38;CYUL 060138Z 27004KT 15SM FEW044 SCT070 BKN140 20/ RETSRA RMK SC2AC2AC2

CYUL;2010-08-06 02:00;CYUL 060200Z CCA 22002KT 15SM FEW070 BKN130 20/17 A2949 RETSRA RMK AC1AC5 SLP987

CYUL;2010-08-06 03:00;CYUL 060300Z 29009KT 15SM FEW025 FEW070 FEW130 21/19 A2952 RMK CF1AC1AC1 SLP996

CYUL;2010-08-06 04:00;CYUL 060400Z 30006KT 15SM SKC 20/17 A2953 RMK SLP000

CYUL;2010-08-06 05:00;CYUL 060500Z 24004KT 15SM SKC 19/16 A2954 RMK SLP002

CYUL;2010-08-06 06:00;CYUL 060600Z 26003KT 15SM SKC 19/15 A2955 RMK SLP005

CYUL;2010-08-06 07:00;CYUL 060700Z 27006KT 15SM FEW085 18/15 A2956 RMK AC2 SLP010

CYUL;2010-08-06 08:00;CYUL 060800Z 27007KT 15SM FEW090 18/14 A2956 RMK AC1 SLP011

CYUL;2010-08-06 09:00;CYUL 060900Z 25007KT 15SM FEW110 17/15 A2958 RMK AC2 SLP016

CYUL;2010-08-06 10:00;CYUL 061000Z 28008KT 30SM FEW110 BKN240 17/14 A2959 RMK AC2CC3 SLP020

CYUL;2010-08-06 11:00;CYUL 061100Z 25006KT 30SM FEW025 BKN068 BKN110 BKN220 17/15 A2960 RMK CF1ACC5AC1CC1 SLP024

CYUL;2010-08-06 12:00;CYUL 061200Z 29008KT 30SM FEW025 BKN065 18/14 A2961 RMK CF1SC7 SLP029

CYUL;2010-08-06 13:00;CYUL 061300Z 28009KT 30SM FEW020 BKN055 18/14 A2963 RMK CU1SC6 SLP034

CYUL;2010-08-06 14:00;CYUL 061400Z 27010KT 30SM FEW020 BKN075 19/13 A2964 RMK CU1AC6 SLP037

CYUL;2010-08-06 15:00;CYUL 061500Z 32013KT 15SM FEW028 BKN042 BKN085 19/12 A2965 RMK CU2SC3AC2 SLP041

CYUL;2010-08-06 16:00;CYUL 061600Z 30018KT 30SM FEW032 SCT050 SCT095 19/10 A2967 RMK CU2SC1AC1 SLP049

CYUL;2010-08-06 17:00;CYUL 061700Z 29013G22KT 30SM FEW040 SCT060 SCT092 20/10 A2969 RMK CU1SC1AC1 SLP054

CYUL;2010-08-06 18:00;CYUL 061800Z 28014G20KT 30SM FEW040 SCT062 BKN080 BKN240 20/09 A2970 RMK CU2SC2AC2CI1 SLP058

CYUL;2010-08-06 19:00;CYUL 061900Z 29017G22KT 30SM FEW048 FEW070 BKN240 19/05 A2971 RMK CU1AC2CI1 SLP062

CYUL;2010-08-06 20:00;CYUL 062000Z 29018G24KT 30SM FEW052 FEW072 SCT240 20/06 A2973 RMK CU1AC1CI1 SLP068

CYUL;2010-08-06 21:00;CYUL 062100Z 28016KT 30SM FEW055 SCT072 BKN240 20/06 A2975 RMK CU2AC1CI1 SLP073

CYUL;2010-08-06 22:00;CYUL 062200Z 28011G18KT 30SM FEW055 FEW240 19/07 A2976 RMK CU1CI1 SLP078

CYUL;2010-08-06 23:00;CYUL 062300Z 29010G15KT 30SM FEW065 FEW240 19/05 A2977 RMK SC1CI1 CU PRSNT SLP081

CYUL;2010-08-07 00:00;CYUL 070000Z 31006KT 15SM FEW065 FEW240 17/06 A2978 RMK SC1CI1 SLP085

CYUL;2010-08-07 01:00;CYUL 070100Z 31003KT 15SM FEW240 14/08 A2980 RMK CI1 SLP092

CYUL;2010-08-07 02:00;CYUL 070200Z 00000KT 15SM FEW240 14/08 A2981 RMK CI1 SLP095

CYUL;2010-08-07 03:00;CYUL 070300Z 26002KT 15SM SKC 13/08 A2981 RMK SLP096

CYUL;2010-08-07 04:00;CYUL 070400Z 30002KT 15SM FEW100 12/08 A2982 RMK AC1 SLP099

CYUL;2010-08-07 05:00;CYUL 070500Z 29003KT 15SM BKN100 12/08 A2983 RMK AC6 SLP100

CYUL;2010-08-07 06:00;CYUL 070600Z 29005KT 15SM SCT100 12/08 A2984 RMK AC3 SLP104

CYUL;2010-08-07 07:00;CYUL 070700Z 31004KT 15SM FEW100 12/08 A2984 RMK AC2 SLP106

CYUL;2010-08-07 08:00;CYUL 070800Z 29003KT 15SM FEW100 10/08 A2985 RMK AC1 SLP108

CYUL;2010-08-07 09:00;CYUL 070900Z 30003KT 15SM FEW100 10/08 A2987 RMK AC1 SLP116

CYUL;2010-08-07 10:00;CYUL 071000Z 31004KT 30SM FEW085 11/08 A2989 RMK AC2 SLP123

CYUL;2010-08-07 11:00;CYUL 071100Z 33004KT 30SM FEW050 FEW085 12/09 A2991 RMK SC1AC2 SLP131

CYUL;2010-08-07 12:00;CYUL 071200Z 32004KT 30SM FEW080 14/09 A2993 RMK AC1 SLP137

CYUL;2010-08-07 13:00;CYUL 071300Z 29004KT 30SM FEW035 FEW080 16/08 A2994 RMK CU1AC1 SLP141

CYUL;2010-08-07 14:00;CYUL 071400Z 29007KT 30SM FEW045 FEW080 FEW240 17/04 A2995 RMK CU1AC1CI0 SLP144

CYUL;2010-08-07 15:00;CYUL 071500Z 28009KT 30SM FEW050 FEW240 18/05 A2996 RMK CU1CI1 SLP147

CYUL;2010-08-07 16:00;CYUL 071600Z 28009KT 30SM FEW050 FEW240 19/06 A2996 RMK CU2CI1 SLP147

CYUL;2010-08-07 17:00;CYUL 071700Z 28011G17KT 30SM FEW055 SCT240 19/06 A2995 RMK CU2CI1 SLP144

CYUL;2010-08-07 18:00;CYUL 071800Z 25014KT 30SM FEW056 SCT240 20/05 A2994 RMK CU2CI1 SLP140

CYUL;2010-08-07 19:00;CYUL 071900Z 27012G18KT 30SM FEW060 SCT240 20/05 A2994 RMK CU2CI1 SLP139

CYUL;2010-08-07 20:00;CYUL 072000Z 26008G17KT 30SM FEW065 SCT240 20/06 A2993 RMK SC2CI1 SLP138

CYUL;2010-08-07 21:00;CYUL 072100Z 26012G19KT 30SM FEW065 FEW240 21/06 A2993 RMK SC1CS1 SLP137

CYUL;2010-08-07 22:00;CYUL 072200Z 23013KT 30SM FEW065 FEW240 21/07 A2992 RMK SC1CS1 SLP134

CYUL;2010-08-07 23:00;CYUL 072300Z 24011KT 30SM FEW080 FEW240 20/06 A2992 RMK AC1CI1 SLP134

CYUL;2010-08-08 00:00;CYUL 080000Z 25005KT 30SM FEW080 FEW240 19/07 A2992 RMK AC1CI1 SLP133

CYUL;2010-08-08 01:00;CYUL 080100Z 23005KT 15SM FEW150 FEW240 19/07 A2993 RMK AC1CI1 SLP136

CYUL;2010-08-08 02:00;CYUL 080200Z 17006KT 15SM FEW150 FEW240 17/10 A2993 RMK AC1CI0 SLP137

CYUL;2010-08-08 03:00;CYUL 080300Z CCA 17009KT 15SM FEW120 SCT240 17/09 A2993 RMK AC1CI0 SLP137

CYUL;2010-08-08 04:00;CYUL 080400Z 20008KT 15SM SCT085 BKN240 17/10 A2993 RMK AC3CI0 SLP137

CYUL;2010-08-08 05:00;CYUL 080500Z 19010KT 15SM BKN070 17/11 A2992 RMK AC7 SLP132

CYUL;2010-08-08 06:00;CYUL 080600Z 21012KT 15SM FEW060 BKN075 BKN240 17/12 A2991 RMK SC2AC4CI1 SLP129

CYUL;2010-08-08 07:00;CYUL 080700Z 23010KT 15SM FEW045 FEW080 BKN240 18/12 A2992 RMK CF1AC2CI2 SLP131

CYUL;2010-08-08 08:00;CYUL 080800Z 26005KT 15SM FEW040 FEW070 SCT240 17/12 A2992 RMK CF2AC1CI0 SLP132

CYUL;2010-08-08 09:00;CYUL 080900Z 00000KT 15SM SCT050 BKN100 BKN240 17/12 A2992 RMK CF4AC2CI0 SLP131

CYUL;2010-08-08 10:00;CYUL 081000Z 00000KT 30SM FEW050 BKN100 BKN150 16/13 A2992 RMK CF2AC6AC1 SLP132

CYUL;2010-08-08 10:44;CYUL 081044Z 19003KT 30SM -SHRA FEW055 BKN075 BKN110 17/ RMK SC2AC6AC1

CYUL;2010-08-08 11:00;CYUL 081100Z 18008KT 30SM -SHRA BKN065 BKN100 17/14 A2992 RMK SC7AC1 SLP131

CYUL;2010-08-08 11:27;CYUL 081127Z 19006KT 30SM FEW060 OVC110 18/ RMK CF2AC6

CYUL;2010-08-08 12:00;CYUL 081200Z 18007KT 30SM BKN050 OVC110 18/14 A2991 RMK SC6AC2 CU EMBD SLP129

CYUL;2010-08-08 13:00;CYUL 081300Z CCA 21006KT 30SM BKN090 BKN110 19/14 A2991 RMK AC6AC2 ACC ASOCTD SLP129

CYUL;2010-08-08 14:00;CYUL 081400Z 20006KT 30SM BKN058 BKN095 OVC140 20/15 A2992 RMK SC5AC2AC2 SLP133

CYUL;2010-08-08 14:43;CYUL 081443Z 24013KT 15SM -SHRA FEW046 BKN065 OVC110 20/ RMK SC2SC4AC2

CYUL;2010-08-08 15:00;CYUL 081500Z 21009KT 15SM -SHRA FEW047 BKN057 OVC090 19/14 A2993 RMK SC2SC5AC2 SLP134

CYUL;2010-08-08 15:41;CYUL 081541Z 22012G18KT 15SM BKN053 OVC095 20/ RMK SC6AC2

CYUL;2010-08-08 16:00;CYUL 081600Z 23007KT 15SM BKN053 OVC095 20/15 A2992 RMK SC6AC2 SLP133

CYUL;2010-08-08 17:00;CYUL 081700Z 20010KT 15SM FEW050 SCT110 BKN170 OVC240 22/14 A2991 RMK SC2AC2AC4CS1 SLP129

CYUL;2010-08-08 18:00;CYUL 081800Z 18007KT 15SM FEW065 BKN130 OVC220 23/16 A2991 RMK SC1AC3CS4 SLP127

CYUL;2010-08-08 19:00;CYUL 081900Z 20007KT 15SM FEW042 BKN062 BKN120 OVC210 23/16 A2990 RMK SC2SC2AC3CS1 SLP124

CYUL;2010-08-08 19:55;CYUL 081955Z 20006KT 15SM -SHRA BKN041 OVC120 23/ RMK SC5AC3

CYUL;2010-08-08 20:00;CYUL 082000Z 20007KT 15SM -SHRA BKN040 BKN068 OVC110 23/17 A2988 RMK SC5AC2AC2 SLP120

CYUL;2010-08-08 21:00;CYUL 082100Z 24004KT 8SM -SHRA BKN035 OVC062 22/18 A2988 RMK SC6SC2 SLP120

CYUL;2010-08-08 22:00;CYUL 082200Z 21011KT 8SM -SHRA BKN036 OVC058 21/19 A2988 RMK SC5SC3 SLP119

CYUL;2010-08-08 23:00;CYUL 082300Z 18009KT 6SM -RA BKN037 OVC062 21/19 A2988 RMK SC6SC2 SLP119

CYUL;2010-08-08 23:22;CYUL 082322Z 19012KT 3SM -RA BR SCT017 OVC039 20/ RMK SF3SC5

CYUL;2010-08-08 23:33;CYUL 082333Z 18006G15KT 2SM -RA BR SCT017 OVC025 20/ RMK SF3SC5

CYUL;2010-08-09 00:00;CYUL 090000Z 18011KT 3SM -RA BKN020 OVC033 20/19 A2987 RERA RMK SC4SC4 /R14/ SLP115

CYUL;2010-08-09 00:09;CYUL 090009Z 19011KT 4SM -RA SCT016 OVC028 20/ RMK SF3SC5

CYUL;2010-08-09 01:00;CYUL 090100Z 23013G18KT 8SM -RA FEW013 BKN024 OVC048 20/19 A2988 RMK SF2SC5SC2 SLP118

CYUL;2010-08-09 02:00;CYUL 090200Z 25010G15KT 5SM -RA BR SCT005 OVC040 20/18 A2988 RMK SF3SC5 SLP120

CYUL;2010-08-09 03:00;CYUL 090300Z 23004KT 5SM -DZ BR BKN006 OVC015 20/19 A2987 RMK SF6SC2 SLP115

CYUL;2010-08-09 03:28;CYUL 090328Z CCA 18005KT 6SM -DZ BR FEW006 OVC025 20/ RMK SF2SC6

CYUL;2010-08-09 04:00;CYUL 090400Z 17005KT 6SM BR FEW004 OVC022 20/19 A2986 RMK SF2SC6 SLP113

CYUL;2010-08-09 04:49;CYUL 090449Z 17005KT 5SM -DZ BR FEW005 BKN012 OVC020 20/ RMK SF1SF6SC2

CYUL;2010-08-09 05:00;CYUL 090500Z 17007KT 6SM -DZ BR FEW005 SCT011 BKN016 OVC040 20/19 A2987 RMK SF1SF2SC4SC1 SLP115

CYUL;2010-08-09 06:00;CYUL 090600Z 18005KT 6SM BR FEW005 BKN012 OVC035 20/19 A2987 RMK SF1SF4SC4 SLP114

CYUL;2010-08-09 06:20;CYUL 090620Z 22003KT 6SM -DZ BR BKN009 OVC030 20/ RMK SF6SC2 -DZ INTMT

CYUL;2010-08-09 06:43;CYUL 090643Z 00000KT 6SM BR FEW010 BKN030 OVC045 20/ RMK SF2SC6SC1

CYUL;2010-08-09 07:00;CYUL 090700Z 25004KT 7SM FEW010 SCT025 20/19 A2987 RMK SF1SC3 SLP115

CYUL;2010-08-09 08:00;CYUL 090800Z 23004KT 8SM FEW020 20/19 A2988 RMK SC2 SLP119

CYUL;2010-08-09 08:30;CYUL 090830Z 24004KT 7SM OVC010 20/ RMK ST7

CYUL;2010-08-09 09:00;CYUL 090900Z 24004KT 5SM BR FEW005 OVC010 20/19 A2990 RMK SF1SF7 SLP125

CYUL;2010-08-09 10:00;CYUL 091000Z 23005KT 4SM BR FEW006 BKN010 OVC067 20/18 A2991 RMK SF2SF5AC1 SLP129

CYUL;2010-08-09 10:21;CYUL 091021Z 21007KT 3SM BR BKN008 BKN070 19/ RMK SF7AC1

CYUL;2010-08-09 11:00;CYUL 091100Z 23007KT 4SM BR BKN005 OVC010 19/18 A2992 RMK SF6ST2 SLP133

CYUL;2010-08-09 11:47;CYUL 091147Z 26005KT 4SM BR FEW005 BKN012 OVC070 20/ RMK SF2SF5AC2

CYUL;2010-08-09 12:00;CYUL 091200Z 25006KT 6SM BR BKN007 OVC070 20/18 A2993 RMK ST7AC1 SLP137

CYUL;2010-08-09 13:00;CYUL 091300Z 24006KT 7SM OVC007 21/19 A2994 RMK SF8 SLP138

CYUL;2010-08-09 14:00;CYUL 091400Z 25005KT 8SM BKN007 OVC012 21/19 A2993 RMK SF6SF2 SLP137

CYUL;2010-08-09 14:45;CYUL 091445Z 26009KT 7SM -DZ OVC007 21/ RMK ST8

CYUL;2010-08-09 15:00;CYUL 091500Z 25008KT 8SM BKN009 BKN013 OVC020 22/19 A2994 RMK SF6SF2SC1 SLP138

CYUL;2010-08-09 15:07;CYUL 091507Z 29005KT 8SM -RA BKN008 OVC013 21/ RMK SF6SC2

CYUL;2010-08-09 15:40;CYUL 091540Z 29007KT 8SM -DZ BKN008 OVC013 21/ RMK SF6SC2

CYUL;2010-08-09 16:00;CYUL 091600Z 27004KT 10SM FEW008 BKN014 OVC030 22/20 A2993 RMK SF2SF3SC2 SLP136

CYUL;2010-08-09 16:30;CYUL 091630Z 27008KT 15SM SCT014 BKN040 BKN080 23/ RMK CF4SC2AC1

CYUL;2010-08-09 17:00;CYUL 091700Z 26006KT 15SM SCT015 BKN030 BKN210 24/19 A2992 RMK CF4SC1CI1 SLP131

CYUL;2010-08-09 18:00;CYUL 091800Z 27011KT 15SM FEW020 FEW090 BKN210 25/19 A2991 RMK CU2AC1CI2 SLP127

CYUL;2010-08-09 19:00;CYUL 091900Z 25011KT 15SM FEW025 FEW090 BKN210 26/17 A2989 RMK CF1AC2CI2 SLP122

CYUL;2010-08-09 20:00;CYUL 092000Z 27008KT 15SM FEW030 FEW070 BKN210 27/18 A2987 RMK CF1AC1CI2 SLP116

CYUL;2010-08-09 21:00;CYUL 092100Z 27007KT 15SM FEW030 SCT070 BKN210 26/18 A2987 RMK CF1AC4CI0 SLP116

CYUL;2010-08-09 22:00;CYUL 092200Z 26006KT 15SM FEW070 FEW120 BKN220 26/17 A2987 RMK AC1AC1CI2 SLP114

CYUL;2010-08-09 23:00;CYUL 092300Z 26007KT 15SM FEW070 BKN240 26/17 A2986 RMK AC1CI2 SLP113

CYUL;2010-08-10 00:00;CYUL 100000Z 24005KT 15SM FEW030TCU FEW120 SCT210 25/17 A2987 RMK TCU1AC1CI2 SLP114

CYUL;2010-08-10 01:00;CYUL 100100Z 27004KT 15SM FEW080 SCT240 22/17 A2988 RMK AC1CI1 SLP118

CYUL;2010-08-10 02:00;CYUL 100200Z 25003KT 15SM SKC 23/18 A2989 RMK SLP122

CYUL;2010-08-10 03:00;CYUL 100300Z 22005KT 15SM SKC 23/19 A2989 RMK SLP122

CYUL;2010-08-10 04:00;CYUL 100400Z 24005KT 15SM SKC 22/19 A2990 RMK SLP125

CYUL;2010-08-10 05:00;CYUL 100500Z 24004KT 15SM SKC 21/19 A2989 RMK SLP123

CYUL;2010-08-10 06:00;CYUL 100600Z 25004KT 12SM SKC 21/19 A2989 RMK SLP122

CYUL;2010-08-10 07:00;CYUL 100700Z 22004KT 12SM SKC 20/19 A2989 RMK SLP123

CYUL;2010-08-10 08:00;CYUL 100800Z 24006KT 10SM SCT005 20/19 A2990 RMK SF3 SLP124

CYUL;2010-08-10 08:14;CYUL 100814Z 23006KT 6SM BR SCT002 20/ RMK SF4

CYUL;2010-08-10 08:35;CYUL 100835Z 24007KT 4SM BR BKN002 20/ RMK SF6

CYUL;2010-08-10 09:00;CYUL 100900Z 25005KT 2 1/2SM BR OVC001 20/19 A2990 RMK SF8 SLP124

CYUL;2010-08-10 09:21;CYUL 100921Z 25005KT 2SM BR OVC002 20/ RMK SF8

CYUL;2010-08-10 09:30;CYUL 100930Z 25006KT 1 1/4SM BR OVC002 20/ RMK SF8

CYUL;2010-08-10 09:51;CYUL 100951Z 25005KT 3/4SM BR OVC002 20/ RMK SF8

CYUL;2010-08-10 10:00;CYUL 101000Z 25006KT 3/4SM BR OVC002 20/19 A2990 RMK FG2SF6 SLP126

CYUL;2010-08-10 10:36;CYUL 101036Z 26006KT 5/8SM BR OVC002 20/ RMK FG3SF5

CYUL;2010-08-10 11:00;CYUL 101100Z 26005KT 5/8SM BR OVC002 20/19 A2991 RMK FG4SF4 SLP128

CYUL;2010-08-10 11:35;CYUL 101135Z 27008KT 1SM BR OVC002 21/ RMK SF8

CYUL;2010-08-10 11:42;CYUL 101142Z 27007KT 1 1/4SM BR OVC002 21/ RMK SF8

CYUL;2010-08-10 11:45;CYUL 101145Z 26006KT 1 3/4SM BR OVC003 21/ RMK SF8

CYUL;2010-08-10 12:00;CYUL 101200Z 26008KT 3SM BR OVC004 21/20 A2991 RMK SF8 SLP128

CYUL;2010-08-10 12:13;CYUL 101213Z 26007KT 4SM BR OVC005 22/ RMK SF8

CYUL;2010-08-10 12:29;CYUL 101229Z 27006KT 4SM BR SCT007 OVC012 22/ RMK SF4SF4

CYUL;2010-08-10 13:00;CYUL 101300Z 26009KT 6SM HZ SCT008 BKN012 22/20 A2991 RMK SF3SF4 SLP127

CYUL;2010-08-10 13:42;CYUL 101342Z 25008KT 8SM FEW008 SCT013 24/ RMK SF2SF2

CYUL;2010-08-10 14:00;CYUL 101400Z 27007KT 8SM SCT013 23/20 A2990 RMK SF4 SLP126

CYUL;2010-08-10 14:20;CYUL 101420Z 27007KT 8SM SCT015 24/ RMK CU3

CYUL;2010-08-10 15:00;CYUL 101500Z 28009KT 12SM FEW017 SCT230 25/20 A2990 RMK CF2CI0 SLP126

CYUL;2010-08-10 16:00;CYUL 101600Z 24008KT 15SM FEW015 FEW140 SCT240 26/20 A2989 RMK CF1AC2CI0 SLP122

CYUL;2010-08-10 17:00;CYUL 101700Z 22010KT 15SM FEW015 BKN150 BKN210 27/20 A2989 RMK CF1AC4CI0 SLP121

CYUL;2010-08-10 18:00;CYUL 101800Z 21011KT 15SM FEW030TCU BKN140 BKN240 27/21 A2987 RMK TCU1AC3CI0 SLP114

CYUL;2010-08-10 19:00;CYUL 101900Z 26009KT 15SM FEW030CB SCT140 BKN240 28/18 A2985 RMK CB1AC2CI0 CB N-E SLP110

CYUL;2010-08-10 19:40;CYUL 101940Z 03020KT 15SM VCSH FEW030CB SCT050 BKN120 BKN240 25/ RMK CB2SC2AC1CI1

CYUL;2010-08-10 20:00;CYUL 102000Z 04016G24KT 12SM VCSH FEW035CB SCT050 BKN090 BKN150 24/18 A2989 RMK CB2SC2AC2AC2 SLP121

CYUL;2010-08-10 21:00;CYUL 102100Z 09008KT 15SM FEW030TCU FEW070 BKN110 24/17 A2989 RMK TCU2AC1AC5 CB EMBD SLP121

CYUL;2010-08-10 22:00;CYUL 102200Z 04007KT 15SM FEW040TCU FEW080 SCT110 BKN210 23/17 A2988 RMK TCU2AC1AC2CI1 SLP120

CYUL;2010-08-10 22:11;CYUL 102211Z 04006KT 15SM -SHRA FEW040TCU SCT080 BKN130 BKN210 24/ RMK TCU2AC2AC2CI1

CYUL;2010-08-10 22:30;CYUL 102230Z 04004KT 15SM FEW040TCU FEW080 SCT130 BKN210 23/ RMK TCU1AC2AC2CI0

CYUL;2010-08-10 23:00;CYUL 102300Z 05005KT 15SM FEW040 FEW080 FEW120 23/17 A2987 RMK CU1AC1AC1 SLP116

CYUL;2010-08-11 00:00;CYUL 110000Z 04003KT 15SM FEW070 FEW120 SCT240 22/17 A2988 RMK AC1AC1CI1 SLP117

CYUL;2010-08-11 01:00;CYUL 110100Z 18004KT 15SM BKN065 22/18 A2990 RMK SC5 SLP124

CYUL;2010-08-11 02:00;CYUL 110200Z 19002KT 15SM FEW065 21/17 A2991 RMK SC2 SLP127

CYUL;2010-08-11 03:00;CYUL 110300Z 00000KT 15SM SCT240 20/17 A2991 RMK CI0 SLP127

CYUL;2010-08-11 04:00;CYUL 110400Z 27003KT 15SM FEW240 19/17 A2991 RMK CI1 SLP129

CYUL;2010-08-11 05:00;CYUL 110500Z 00000KT 15SM SKC 19/17 A2991 RMK SLP129

CYUL;2010-08-11 06:00;CYUL 110600Z 00000KT 15SM SKC 18/17 A2991 RMK SLP127

CYUL;2010-08-11 07:00;CYUL 110700Z 00000KT 15SM SKC 18/17 A2991 RMK SLP129

CYUL;2010-08-11 08:00;CYUL 110800Z 00000KT 12SM SKC 17/17 A2992 RMK SLP131

CYUL;2010-08-11 08:43;CYUL 110843Z 01007KT 12SM FEW004 18/ RMK SF2

CYUL;2010-08-11 09:00;CYUL 110900Z 34002KT 12SM FEW005 18/17 A2992 RMK SF1 SLP132

CYUL;2010-08-11 10:00;CYUL 111000Z 35003KT 15SM FEW180 FEW240 17/16 A2992 RMK AC1CI0 SLP133

CYUL;2010-08-11 11:00;CYUL 111100Z 04005KT 15SM FEW180 FEW240 18/16 A2993 RMK AC1CI0 SLP137

CYUL;2010-08-11 12:00;CYUL 111200Z 04008KT 15SM FEW180 FEW240 20/15 A2994 RMK AC1CI0 SLP139

CYUL;2010-08-11 13:00;CYUL 111300Z 03009KT 15SM FEW020 SCT033 BKN150 20/15 A2995 RMK CU1SC2AC1 SLP141

CYUL;2010-08-11 14:00;CYUL 111400Z 03006KT 15SM SCT038 BKN240 22/15 A2995 RMK SC4CI0 SLP143

CYUL;2010-08-11 15:00;CYUL 111500Z 05007KT 15SM FEW030 FEW070 SCT240 23/13 A2995 RMK CU1AC1CI1 SLP143

CYUL;2010-08-11 16:00;CYUL 111600Z 05006KT 15SM FEW030 FEW070 SCT240 24/13 A2996 RMK CU1AC1CI1 SLP145

CYUL;2010-08-11 17:00;CYUL 111700Z 06003KT 15SM FEW040 BKN240 24/14 A2995 RMK CU1CI1 SLP142

CYUL;2010-08-11 18:00;CYUL 111800Z 13002KT 15SM FEW040 SCT240 25/14 A2993 RMK CU1CI0 SLP137

CYUL;2010-08-11 19:00;CYUL 111900Z 05005KT 15SM FEW045 SCT240 25/13 A2993 RMK CU1CI0 SLP135

CYUL;2010-08-11 20:00;CYUL 112000Z 04004KT 15SM FEW045 SCT240 26/13 A2992 RMK CU1CI0 SLP132

CYUL;2010-08-11 21:00;CYUL 112100Z 01003KT 15SM FEW050 SCT240 26/14 A2991 RMK CU1CI0 SLP128

CYUL;2010-08-11 22:00;CYUL 112200Z 18006KT 15SM FEW055 BKN240 25/15 A2991 RMK CU2CI1 SLP129

CYUL;2010-08-11 23:00;CYUL 112300Z 07007KT 15SM FEW055 BKN240 25/13 A2991 RMK SC2CI1 SLP127

CYUL;2010-08-12 00:00;CYUL 120000Z 09006KT 15SM FEW055 SCT150 BKN240 23/12 A2992 RMK SC2AC1CI2 SLP132

CYUL;2010-08-12 01:00;CYUL 120100Z 12005KT 15SM SCT055 BKN240 22/12 A2993 RMK SC3CI2 SLP134

CYUL;2010-08-12 02:00;CYUL 120200Z 09004KT 15SM FEW090 BKN240 22/11 A2993 RMK AC1CI0 SLP136

CYUL;2010-08-12 03:00;CYUL 120300Z 09003KT 15SM BKN240 22/11 A2993 RMK CI0 SLP136

CYUL;2010-08-12 04:00;CYUL 120400Z 00000KT 15SM BKN240 19/12 A2994 RMK CI0 SLP138

CYUL;2010-08-12 05:00;CYUL 120500Z 01003KT 15SM BKN240 19/13 A2994 RMK CI0 SLP140

CYUL;2010-08-12 06:00;CYUL 120600Z 03006KT 15SM SCT240 18/13 A2995 RMK CI0 SLP143

CYUL;2010-08-12 07:00;CYUL 120700Z 02007KT 15SM SCT240 16/13 A2995 RMK CI0 SLP143

CYUL;2010-08-12 08:00;CYUL 120800Z 03009KT 15SM SCT240 16/13 A2995 RMK CI0 SLP142

CYUL;2010-08-12 09:00;CYUL 120900Z 03008KT 15SM BKN240 15/13 A2995 RMK CI2 SLP141

CYUL;2010-08-12 10:00;CYUL 121000Z 02007KT 30SM SCT180 BKN240 15/13 A2996 RMK AC2CI1 SLP145

CYUL;2010-08-12 11:00;CYUL 121100Z 03008KT 30SM FEW180 BKN220 15/13 A2997 RMK AC2CI1 SLP148

CYUL;2010-08-12 12:00;CYUL 121200Z 04010KT 30SM FEW180 BKN220 17/12 A2998 RMK AC2CI0 SLP151

CYUL;2010-08-12 13:00;CYUL 121300Z 03010KT 30SM FEW180 BKN240 19/12 A2998 RMK AC1CI1 SLP152

CYUL;2010-08-12 14:00;CYUL 121400Z 05011KT 30SM FEW180 BKN240 21/12 A2998 RMK AC1CI1 SLP153

CYUL;2010-08-12 15:00;CYUL 121500Z 03009KT 30SM SCT240 23/12 A2998 RMK CI1 SLP152

CYUL;2010-08-12 16:00;CYUL 121600Z 05010KT 30SM FEW020 BKN240 24/11 A2997 RMK CU1CI2 SLP149

CYUL;2010-08-12 19:00;CYUL 121900Z 04013KT 30SM FEW040 BKN240 24/12 A2996 RMK CU1CI3 SLP144

CYUL;2010-08-12 20:00;CYUL 122000Z 05007G15KT 30SM FEW040 BKN240 25/12 A2996 RMK CU1CI2 SLP144

CYUL;2010-08-12 21:00;CYUL 122100Z 06007KT 30SM FEW040 SCT240 25/11 A2995 RMK CU1CI2 SLP143

CYUL;2010-08-12 22:00;CYUL 122200Z 09009KT 30SM FEW150 SCT240 25/10 A2995 RMK AC1CI2 SLP143

CYUL;2010-08-12 23:00;CYUL 122300Z 06010KT 30SM FEW210 SCT240 24/10 A2995 RMK CI1CI1 SLP141

CYUL;2010-08-13 00:00;CYUL 130000Z 05009KT 30SM FEW210 SCT240 24/09 A2996 RMK CI1CI1 SLP146

CYUL;2010-08-13 01:00;CYUL 130100Z 03008KT 15SM FEW120 FEW240 20/12 A2998 RMK AC1CI0 SLP151

CYUL;2010-08-13 02:00;CYUL 130200Z 03007KT 15SM FEW240 20/12 A2998 RMK CI0 SLP152

CYUL;2010-08-13 03:00;CYUL 130300Z 04007KT 15SM FEW150 BKN180 20/12 A2998 RMK AC1AC6 SLP153

CYUL;2010-08-13 04:00;CYUL 130400Z 03007KT 15SM FEW070 BKN150 19/13 A2999 RMK AC1AC6 SLP154

CYUL;2010-08-13 05:00;CYUL 130500Z 01005KT 15SM FEW055 SCT240 18/12 A2999 RMK SC2CI0 SLP156

CYUL;2010-08-13 06:00;CYUL 130600Z 02007KT 15SM FEW055 SCT240 17/12 A2999 RMK SC2CI0 SLP156

CYUL;2010-08-13 07:00;CYUL 130700Z 02006KT 15SM FEW055 FEW240 16/11 A3000 RMK SC1CI0 SLP158

CYUL;2010-08-13 08:00;CYUL 130800Z 03007KT 15SM FEW055 FEW240 15/11 A3000 RMK SC1CI0 SLP159

CYUL;2010-08-13 09:00;CYUL 130900Z 01005KT 15SM FEW055 15/11 A3001 RMK SC1 SLP164

CYUL;2010-08-13 10:00;CYUL 131000Z 03006KT 15SM FEW020 FEW150 FEW240 14/11 A3002 RMK CU1AC1CI1 SLP167

CYUL;2010-08-13 11:00;CYUL 131100Z 04006KT 30SM FEW020 FEW080 FEW240 15/11 A3003 RMK CU1AC1CI0 SLP170

CYUL;2010-08-13 12:00;CYUL 131200Z 04007KT 30SM FEW080 FEW240 16/12 A3004 RMK AC1CI0 SLP172

CYUL;2010-08-13 13:00;CYUL 131300Z 02003KT 30SM FEW100 18/13 A3005 RMK AC2 SLP177

CYUL;2010-08-13 14:00;CYUL 131400Z 01002KT 30SM FEW045 FEW100 SCT240 19/14 A3005 RMK SC1AC1CI1 SLP177

CYUL;2010-08-13 15:00;CYUL 131500Z 03004KT 30SM FEW100 SCT240 22/16 A3006 RMK AC1CI1 SLP180

CYUL;2010-08-13 16:00;CYUL 131600Z 22003KT 30SM FEW036 FEW170 BKN240 23/14 A3006 RMK SC1AC1CI2 SLP180

CYUL;2010-08-13 17:00;CYUL 131700Z 18002KT 30SM FEW180 BKN240 24/16 A3004 RMK AC1CI2 SLP173

CYUL;2010-08-13 18:00;CYUL 131800Z 22006KT 30SM FEW036 BKN240 25/18 A3004 RMK CU1CI2 SLP173

CYUL;2010-08-13 19:00;CYUL 131900Z 21006KT 30SM FEW120 BKN240 25/17 A3004 RMK AC1CI2 ACC ASOCTD SE CU PRSNT SLP174

CYUL;2010-08-13 20:00;CYUL 132000Z 14002KT 30SM FEW130 SCT240 26/18 A3003 RMK AC1CI1 ACC ASOCTD SE TCU NE SLP170

CYUL;2010-08-13 21:00;CYUL 132100Z 20005KT 30SM FEW140 FEW240 26/17 A3002 RMK AC1CI1 ACC ASOCTD NE SLP167

CYUL;2010-08-13 22:00;CYUL 132200Z 27004KT 30SM FEW052 FEW240 26/17 A3002 RMK CU1CI1 SLP165

CYUL;2010-08-13 23:00;CYUL 132300Z 22004KT 30SM FEW065 FEW180 SCT240 26/17 A3001 RMK SC1AC0CI1 SLP162

CYUL;2010-08-14 00:00;CYUL 140000Z 00000KT 15SM FEW065 FEW180 BKN240 25/17 A3001 RMK SC1AC0CI2 SLP161

CYUL;2010-08-14 01:00;CYUL 140100Z 13003KT 15SM FEW070 FEW240 24/17 A3001 RMK AC1CI1 SLP162

CYUL;2010-08-14 02:00;CYUL 140200Z 12004KT 15SM SCT075 23/17 A3001 RMK AC3 SLP164

CYUL;2010-08-14 03:00;CYUL 140300Z 17003KT 15SM BKN085 24/18 A3003 RMK AC7 SLP168

CYUL;2010-08-14 04:00;CYUL 140400Z 12002KT 15SM FEW070 SCT085 23/17 A3003 RMK AC2AC2 SLP169

CYUL;2010-08-14 05:00;CYUL 140500Z 00000KT 15SM FEW065 SCT080 22/18 A3003 RMK SC2AC1 SLP169

CYUL;2010-08-14 06:00;CYUL 140600Z 13004KT 15SM BKN240 21/17 A3003 RMK CI0 SLP170

CYUL;2010-08-14 07:00;CYUL 140700Z 17005KT 15SM SCT080 BKN240 21/18 A3003 RMK AC4CI2 SLP169

CYUL;2010-08-14 08:00;CYUL 140800Z 20002KT 15SM BKN085 21/18 A3004 RMK AC6 SLP174

CYUL;2010-08-14 09:00;CYUL 140900Z 00000KT 15SM BKN085 21/18 A3005 RMK AC6 SLP177

CYUL;2010-08-14 10:00;CYUL 141000Z 00000KT 15SM FEW060 FEW090 OVC240 21/18 A3007 RMK SC1AC1CI1 SLP183

CYUL;2010-08-14 11:00;CYUL 141100Z 00000KT 15SM FEW060 FEW090 OVC240 21/18 A3008 RMK SC1AC1CI2 SLP185

CYUL;2010-08-14 12:00;CYUL 141200Z 16003KT 15SM FEW020 BKN100 OVC240 22/19 A3008 RMK CU1AC4CI1 SLP186

CYUL;2010-08-14 13:00;CYUL 141300Z 17006KT 15SM FEW030 BKN120 OVC240 23/18 A3008 RMK CU1AC6CI1 SLP185

CYUL;2010-08-14 14:00;CYUL 141400Z 19006KT 15SM FEW050 BKN140 OVC240 23/17 A3007 RMK SC2AC4CS2 SLP183

CYUL;2010-08-14 15:00;CYUL 141500Z 17007KT 15SM FEW050 FEW090 BKN180 OVC240 24/18 A3007 RMK SC1AC1AC4CS2 SLP182

CYUL;2010-08-14 16:00;CYUL 141600Z 15005KT 15SM FEW060 FEW120 BKN170 OVC220 25/18 A3004 RMK SC1AC2AC3CS2 SLP174

CYUL;2010-08-14 17:00;CYUL 141700Z 16008KT 15SM FEW090 BKN170 OVC240 25/18 A3003 RMK AC2AC4CS2 ACC ASOCTD SLP170

CYUL;2010-08-14 18:00;CYUL 141800Z CCA 12009KT 15SM FEW065 SCT180 BKN240 26/18 A3003 RMK SC1AC2CI2 ACC ASOCTD SLP168

CYUL;2010-08-14 19:00;CYUL 141900Z 17008KT 30SM FEW065 SCT170 BKN240 27/19 A3002 RMK SC1AC2CI2 SLP166

CYUL;2010-08-14 20:00;CYUL 142000Z 15010KT 30SM FEW065 SCT180 BKN240 27/19 A3000 RMK SC1AC2CI2 SLP159

CYUL;2010-08-14 21:00;CYUL 142100Z 15009KT 30SM FEW062 SCT180 BKN240 27/18 A2999 RMK SC1AC2CI3 SLP155

CYUL;2010-08-14 22:00;CYUL 142200Z 14009KT 30SM FEW170 BKN240 27/18 A2997 RMK AC2CI2 SLP150

CYUL;2010-08-14 23:00;CYUL 142300Z 13009KT 15SM BKN065 BKN150 BKN240 26/17 A2997 RMK SC3AC2CI1 SLP148

CYUL;2010-08-15 00:00;CYUL 150000Z 15011KT 15SM FEW062 SCT082 BKN240 25/17 A2996 RMK SC1AC2CI2 SLP144

CYUL;2010-08-15 01:00;CYUL 150100Z 16013KT 15SM FEW080 BKN240 24/16 A2996 RMK AC2CI2 SLP144

CYUL;2010-08-15 02:00;CYUL 150200Z 17013KT 15SM SCT070 OVC240 24/16 A2996 RMK AC2CI4 SLP146

CYUL;2010-08-15 03:00;CYUL 150300Z 17008KT 15SM BKN080 OVC240 24/17 A2996 RMK AC7CI1 SLP147

CYUL;2010-08-15 04:00;CYUL 150400Z 16007KT 15SM BKN080 OVC240 23/17 A2997 RMK AC6CI2 SLP148

CYUL;2010-08-15 05:00;CYUL 150500Z 15007KT 15SM BKN080 OVC180 22/17 A2996 RMK AC5AS3 SLP147

CYUL;2010-08-15 06:00;CYUL 150600Z 16008KT 15SM OVC220 22/17 A2996 RMK CI7 SLP146

CYUL;2010-08-15 07:00;CYUL 150700Z 15008KT 15SM FEW080 BKN230 21/17 A2996 RMK AC1CI2 SLP145

CYUL;2010-08-15 08:00;CYUL 150800Z 16010KT 15SM FEW060 SCT200 21/16 A2996 RMK SC1CI1 SLP144

CYUL;2010-08-15 09:00;CYUL 150900Z 16008KT 15SM BKN045 BKN240 21/16 A2995 RMK SC6CI1 SLP141

CYUL;2010-08-15 10:00;CYUL 151000Z 16010KT 15SM OVC050 21/15 A2996 RMK SC8 SLP144

CYUL;2010-08-15 11:00;CYUL 151100Z 16008KT 15SM OVC050 20/15 A2996 RMK SC8 SLP146

CYUL;2010-08-15 12:00;CYUL 151200Z 16012KT 15SM BKN050 OVC240 21/15 A2996 RMK SC6CI1 SLP146

CYUL;2010-08-15 13:00;CYUL 151300Z 16008KT 15SM OVC047 22/16 A2995 RMK SC8 SLP142

CYUL;2010-08-15 14:00;CYUL 151400Z 15010KT 15SM SCT047 BKN072 OVC240 23/17 A2994 RMK SC3AC2CI1 SLP138

CYUL;2010-08-15 15:00;CYUL 151500Z 14009KT 15SM FEW062 BKN120 BKN170 BKN240 24/17 A2994 RMK SC2AC3AC2CI1 SLP138

CYUL;2010-08-15 16:00;CYUL 151600Z 15009KT 30SM FEW035 SCT120 BKN180 BKN240 24/17 A2992 RMK CU1AC2AC2CI1 SLP133

CYUL;2010-08-15 17:00;CYUL 151700Z 16009KT 15SM OVC045 24/18 A2992 RMK SC8 SLP133

CYUL;2010-08-15 18:00;CYUL 151800Z 13010KT 15SM OVC045 24/18 A2991 RMK SC8 SLP130

CYUL;2010-08-15 19:00;CYUL 151900Z 16004KT 15SM OVC044 24/18 A2991 RMK SC8 SLP127

CYUL;2010-08-15 19:33;CYUL 151933Z 15010KT 15SM -SHRA FEW032 OVC045 24/ RMK SC2SC6

CYUL;2010-08-15 20:00;CYUL 152000Z 16007KT 15SM -SHRA OVC044 23/19 A2990 RMK SC8 VRY LGT RA SLP124

CYUL;2010-08-15 20:30;CYUL 152030Z 14006KT 15SM FEW047 OVC100 23/ RMK SC2AC6

CYUL;2010-08-15 21:00;CYUL 152100Z 15010KT 15SM FEW065 OVC120 23/18 A2987 RMK SC2AC6 SLP116

CYUL;2010-08-15 21:51;CYUL 152151Z 16009KT 15SM -SHRA FEW065 BKN095 OVC120 23/ RMK SC2AC4AC2

CYUL;2010-08-15 22:00;CYUL 152200Z 17009KT 15SM SCT043 BKN095 OVC130 23/18 A2987 RMK SC2AC4AC2 SLP115

CYUL;2010-08-15 22:19;CYUL 152219Z 17010KT 15SM -SHRA BKN043 OVC090 23/ RMK SC5AC3

CYUL;2010-08-15 23:00;CYUL 152300Z 17010KT 15SM BKN039 OVC080 23/18 A2987 RMK SC5AC3 SLP114

CYUL;2010-08-15 23:20;CYUL 152320Z 16009KT 15SM -SHRA BKN038 OVC080 23/ RMK SC6AC2

CYUL;2010-08-16 00:00;CYUL 160000Z 16008KT 15SM -SHRA OVC040 22/18 A2986 RMK SC8 VRY LGT RA SLP113

CYUL;2010-08-16 01:00;CYUL 160100Z 21003KT 6SM -SHRA SCT013 BKN025 OVC035 21/19 A2988 RMK SF2SC4SC2 SLP120

CYUL;2010-08-16 01:32;CYUL 160132Z 15004KT 12SM -RA FEW016 OVC036 20/ RERA RMK SF2SC6

CYUL;2010-08-16 02:00;CYUL 160200Z 13004KT 12SM OVC035 20/19 A2986 RERA RMK SC8 /R12/ SLP112

CYUL;2010-08-16 03:00;CYUL 160300Z 16010KT 15SM OVC037 21/19 A2985 RMK SC8 SLP108

CYUL;2010-08-16 04:00;CYUL 160400Z 16011G16KT 15SM OVC035 21/18 A2983 RMK SC8 SLP102

CYUL;2010-08-16 05:00;CYUL 160500Z 16010G15KT 15SM OVC030 20/18 A2982 RMK SC8 SLP099

CYUL;2010-08-16 05:14;CYUL 160514Z 16013KT 15SM -DZ OVC025 20/ RMK SC8

CYUL;2010-08-16 06:00;CYUL 160600Z 16010KT 12SM -DZ OVC027 20/18 A2982 RMK SC8 SLP097

CYUL;2010-08-16 07:00;CYUL 160700Z 15009KT 15SM -DZ FEW025 OVC040 20/18 A2980 RMK SC2SC6 SLP093

CYUL;2010-08-16 07:32;CYUL 160732Z 14007KT 15SM BKN026 OVC045 20/ RMK SC6SC2

CYUL;2010-08-16 08:00;CYUL 160800Z 14008KT 15SM FEW025 SCT040 20/18 A2979 RMK SC2SC2 SLP087

CYUL;2010-08-16 09:00;CYUL 160900Z 15008KT 15SM OVC025 20/18 A2978 RMK SC8 SLP086

CYUL;2010-08-16 10:00;CYUL 161000Z 14011KT 15SM OVC028 20/18 A2978 RMK SC8 SLP084

CYUL;2010-08-16 10:49;CYUL 161049Z 15013KT 15SM TS OVC030 20/ RMK SC8 CB EMBD W-NW

CYUL;2010-08-16 11:00;CYUL 161100Z 17008G16KT 6SM TSRA FEW015 OVC025 20/18 A2978 RMK SC2SC6 CB EMBD VIS E 15 SLP084

CYUL;2010-08-16 11:05;CYUL 161105Z 33013KT 2SM TSRA BKN010CB OVC025 20/ RMK CB7SC1 WSHFT 1101Z

CYUL;2010-08-16 11:14;CYUL 161114Z 08002KT 10SM -TSRA FEW010 OVC040 20/ RERA RMK SC2SC6 CB EMBD

CYUL;2010-08-16 11:34;CYUL 161134Z 11003KT 15SM FEW010 OVC025 20/ RETSRA RMK SF1SC7

CYUL;2010-08-16 12:00;CYUL 161200Z 15009KT 15SM FEW010 OVC025 20/18 A2978 RETSRA RMK SF1SC7 SLP085

CYUL;2010-08-16 13:00;CYUL 161300Z 16008KT 15SM BKN025 OVC040 21/19 A2977 RMK SC7SC1 SLP081

CYUL;2010-08-16 13:52;CYUL 161352Z 15009KT 15SM TS VCSH FEW010 OVC023 22/ RMK SF1SC8 CB EMBD

CYUL;2010-08-16 14:00;CYUL 161400Z CCA 15008KT 6SM -TSRA FEW016 BKN026 OVC037 22/19 A2977 RMK SF1SC6SC2 CB EMBD CIG LWR NW LTGCC VIS NW 11/2 SLP080

CYUL;2010-08-16 14:12;CYUL 161412Z 15004KT 6SM -TSRA FEW013 BKN021 OVC030 22/ RMK SF1SC6SC2 CB EMBD CIG LWR NW LTGCC

CYUL;2010-08-16 14:31;CYUL 161431Z 17005KT 12SM VCSH FEW016 BKN025 OVC039 22/ RETS RMK SF1SC6SC2 CB EMBD

CYUL;2010-08-16 14:44;CYUL 161444Z 15002KT 12SM -SHRA FEW016 BKN024 OVC033 23/ RETS RMK SF1SC6SC2 CB EMBD

CYUL;2010-08-16 15:00;CYUL 161500Z 21002KT 15SM FEW019 BKN027 OVC038 23/20 A2977 RETS RMK SF2SC5SC2 SLP080

CYUL;2010-08-16 15:16;CYUL 161516Z 18003KT 15SM -SHRA FEW018 BKN027 BKN038 23/ RMK SF1SC5SC2 CB EMBD

CYUL;2010-08-16 15:37;CYUL 161537Z 26008KT 15SM FEW025 SCT038 SCT090 BKN240 24/ RERA RMK SF2SC2AC1CI0 TCU EMBD E

CYUL;2010-08-16 16:00;CYUL 161600Z 21006KT 15SM FEW036 FEW120 SCT240 26/22 A2976 RERA RMK SC1AC1CI1 ACC ASOCTD TCU EMBD E SLP077

CYUL;2010-08-16 17:00;CYUL 161700Z 25013G19KT 30SM FEW065 FEW110 FEW240 27/22 A2975 RMK SC1AC1CI1 TCU EMBD NE ACC ASOCTD SLP073

CYUL;2010-08-16 18:00;CYUL 161800Z 25018KT 30SM FEW047 FEW120 FEW240 28/19 A2974 RMK SC1AC1CI1 TCU EMBD SLP071

CYUL;2010-08-16 19:00;CYUL 161900Z 24018KT 30SM FEW048 FEW240 28/18 A2975 RMK CU1CI0 SLP073

CYUL;2010-08-16 20:00;CYUL 162000Z 25017G25KT 30SM FEW045 FEW064 FEW240 28/17 A2976 RMK CU1SC1CI0 ACC ASOCTD SLP078

CYUL;2010-08-16 21:00;CYUL 162100Z 25016G21KT 30SM FEW048 FEW090 FEW240 28/16 A2977 RMK CU1AC1CI0 SLP082

CYUL;2010-08-16 22:00;CYUL 162200Z 24014G19KT 30SM FEW052 FEW090 FEW240 27/17 A2978 RMK SC1AC1CI0 CU EMBD SLP085

CYUL;2010-08-16 23:00;CYUL 162300Z 24018KT 15SM FEW055 FEW100 FEW240 26/16 A2980 RMK SC1AC1CI0 CU PRSNT SLP090

CYUL;2010-08-17 00:00;CYUL 170000Z 23017KT 15SM FEW048 FEW070 SCT085 25/14 A2981 RMK CU1AC1AC1 ACC ASOCTD CIG LWR NE SLP096

CYUL;2010-08-17 01:00;CYUL 170100Z 22014KT 15SM FEW065 SCT080 24/14 A2983 RMK SC1AC2 SLP102

CYUL;2010-08-17 02:00;CYUL 170200Z 23013KT 15SM FEW070 FEW090 24/15 A2985 RMK AC1AC1 SLP110

CYUL;2010-08-17 03:00;CYUL 170300Z 23014KT 15SM FEW090 23/14 A2986 RMK AC1 SLP113

CYUL;2010-08-17 04:00;CYUL 170400Z 23013KT 15SM BKN080 22/15 A2987 RMK AC5 SLP116

CYUL;2010-08-17 05:00;CYUL 170500Z 25009KT 15SM FEW060 FEW080 21/15 A2988 RMK SC2AC1 SLP120

CYUL;2010-08-17 06:00;CYUL 170600Z 24008KT 15SM BKN060 21/15 A2990 RMK SC6 SLP124

CYUL;2010-08-17 07:00;CYUL 170700Z 25006KT 15SM BKN075 20/14 A2991 RMK AC7 SLP128

CYUL;2010-08-17 08:00;CYUL 170800Z 22008KT 15SM FEW075 20/14 A2991 RMK AC1 SLP127

CYUL;2010-08-17 09:00;CYUL 170900Z 21006KT 15SM SKC 19/16 A2992 RMK SLP131

CYUL;2010-08-17 10:00;CYUL 171000Z 19009KT 30SM FEW050 FEW075 19/16 A2991 RMK SC1AC1 SLP130

CYUL;2010-08-17 11:00;CYUL 171100Z 22009KT 30SM FEW030 FEW075 20/16 A2993 RMK CU1AC2 SLP134

CYUL;2010-08-17 12:00;CYUL 171200Z 23007KT 30SM FEW020 FEW070 20/16 A2993 RMK CF1AC2 SLP136

CYUL;2010-08-17 13:00;CYUL 171300Z 22009KT 30SM FEW020 BKN075 22/17 A2994 RMK CF1AC6 SLP139

CYUL;2010-08-17 14:00;CYUL 171400Z 23010KT 30SM FEW028 FEW075 FEW240 23/16 A2994 RMK CF1AC0CI1 SLP138

CYUL;2010-08-17 15:00;CYUL 171500Z 22009KT 30SM FEW032 FEW240 24/16 A2993 RMK CF1CI1 SLP137

CYUL;2010-08-17 16:00;CYUL 171600Z 22011KT 30SM FEW036 FEW240 24/16 A2992 RMK CF1CI1 ACC ASOCTD SLP132

CYUL;2010-08-17 17:00;CYUL 171700Z 23016KT 30SM FEW048 FEW120 SCT240 26/14 A2990 RMK CF1AC1CI2 SLP126

CYUL;2010-08-17 18:00;CYUL 171800Z 23018KT 30SM FEW048 FEW065 SCT240 26/12 A2989 RMK CU1SC1CI1 SLP121

CYUL;2010-08-17 19:00;CYUL 171900Z 23018KT 30SM FEW060 SCT120 SCT240 27/12 A2988 RMK CU1AC1CI2 TCU EMBD N SLP119

CYUL;2010-08-17 20:00;CYUL 172000Z 24017G26KT 30SM FEW060 FEW160 SCT240 27/12 A2988 RMK CF1AC1CI2 TCU EMBD SLP119

CYUL;2010-08-17 21:00;CYUL 172100Z 23019G30KT 30SM FEW052 FEW180 SCT240 26/13 A2988 RMK CU1AC1CI2 SLP119

CYUL;2010-08-17 22:00;CYUL 172200Z 25015G21KT 30SM FEW065 SCT240 26/13 A2989 RMK SC1CI2 ACC ASOCTD TCU EMBD SLP121

CYUL;2010-08-17 23:00;CYUL 172300Z 24017KT 30SM FEW065 FEW110 SCT240 25/14 A2990 RMK SC1AC1CI1 TCU EMBD E SLP126

CYUL;2010-08-18 00:00;CYUL 180000Z 24017KT 15SM FEW060 FEW110 SCT240 24/14 A2992 RMK SC1AC1CI2 SLP131

CYUL;2010-08-18 01:00;CYUL 180100Z 24010G15KT 15SM SCT100 24/14 A2993 RMK AC3 SLP137

CYUL;2010-08-18 02:00;CYUL 180200Z 27003KT 15SM FEW060 FEW100 21/14 A2994 RMK SC1AC1 SLP140

CYUL;2010-08-18 03:00;CYUL 180300Z 23008KT 15SM FEW065 FEW240 22/14 A2996 RMK CF1CI1 SLP145

CYUL;2010-08-18 04:00;CYUL 180400Z 25007KT 15SM FEW065 21/14 A2997 RMK SC2 SLP150

CYUL;2010-08-18 05:00;CYUL 180500Z 26008KT 15SM FEW075 19/13 A2998 RMK AC1 SLP153

CYUL;2010-08-18 06:00;CYUL 180600Z 25007KT 15SM FEW070 18/13 A2999 RMK AC2 SLP155

CYUL;2010-08-18 07:00;CYUL 180700Z 24006KT 15SM FEW240 18/12 A2999 RMK CI0 SLP156

CYUL;2010-08-18 08:00;CYUL 180800Z 26006KT 15SM BKN240 17/12 A3001 RMK CI0 SLP161

CYUL;2010-08-18 09:00;CYUL 180900Z 26004KT 15SM BKN240 17/11 A3002 RMK CI2 SLP166

CYUL;2010-08-18 10:00;CYUL 181000Z 23007KT 30SM BKN240 17/12 A3004 RMK CI4 CC ASOCTD SLP172

CYUL;2010-08-18 11:00;CYUL 181100Z 25006KT 30SM OVC240 17/12 A3004 RMK CI5 SLP174

CYUL;2010-08-18 12:00;CYUL 181200Z 22004KT 30SM FEW180 OVC240 17/11 A3006 RMK AC2CI2 SLP178

CYUL;2010-08-18 13:00;CYUL 181300Z 24005KT 30SM FEW180 OVC240 19/13 A3005 RMK AC1CI2 SLP176

CYUL;2010-08-18 14:00;CYUL 181400Z 25003KT 30SM FEW040 BKN180 BKN210 20/13 A3005 RMK CU1AC3CI2 SLP177

CYUL;2010-08-18 15:00;CYUL 181500Z 22009KT 30SM FEW040 BKN180 BKN230 20/13 A3005 RMK CU1AS5CI1 SLP175

CYUL;2010-08-18 16:00;CYUL 181600Z 22008KT 30SM FEW045 OVC220 21/13 A3004 RMK CU1CS7 SLP173

CYUL;2010-08-18 17:00;CYUL 181700Z 22013KT 30SM FEW045 BKN230 21/12 A3004 RMK CU2CI2 CC ASOCT SLP171

CYUL;2010-08-18 18:00;CYUL 181800Z 23011KT 30SM FEW040 BKN230 22/13 A3003 RMK CU2CI1 SLP169

CYUL;2010-08-18 19:00;CYUL 181900Z 24010KT 30SM FEW045 BKN220 23/12 A3002 RMK CU2CI2 SLP166

CYUL;2010-08-18 20:00;CYUL 182000Z 22011KT 30SM SCT040 OVC230 23/13 A3001 RMK CU3CS3 SLP163

CYUL;2010-08-18 21:00;CYUL 182100Z 22012KT 30SM FEW040 BKN220 22/13 A3001 RMK CU1CI2 SLP161

CYUL;2010-08-18 22:00;CYUL 182200Z 22010KT 30SM FEW045 SCT230 22/13 A3000 RMK CU1CI1 SLP158

CYUL;2010-08-18 23:00;CYUL 182300Z 25008KT 30SM FEW045 SCT230 22/12 A2999 RMK CU1CI1 SLP155

CYUL;2010-08-19 00:00;CYUL 190000Z 27003KT 30SM FEW120 FEW240 20/12 A2998 RMK AC1CI0 SLP151

CYUL;2010-08-19 01:00;CYUL 190100Z 23003KT 15SM FEW240 20/12 A2997 RMK CI1 SLP149

CYUL;2010-08-19 02:00;CYUL 190200Z 20004KT 15SM SKC 19/14 A2996 RMK SLP145

CYUL;2010-08-19 03:00;CYUL 190300Z 18005KT 15SM SKC 18/15 A2996 RMK SLP147

CYUL;2010-08-19 04:00;CYUL 190400Z 19005KT 15SM SKC 17/14 A2995 RMK SLP143

CYUL;2010-08-19 05:00;CYUL 190500Z 20007KT 15SM SKC 19/15 A2995 RMK SLP142

CYUL;2010-08-19 06:00;CYUL 190600Z 23006KT 15SM SKC 19/15 A2995 RMK SLP141

CYUL;2010-08-19 07:00;CYUL 190700Z 24004KT 15SM SKC 17/14 A2994 RMK SLP139

CYUL;2010-08-19 08:00;CYUL 190800Z 24005KT 15SM SKC 16/14 A2994 RMK SLP139

CYUL;2010-08-19 09:00;CYUL 190900Z 24006KT 15SM SKC 16/14 A2994 RMK SLP138

CYUL;2010-08-19 10:00;CYUL 191000Z 25005KT 30SM FEW180 FEW240 15/14 A2994 RMK AC1CI1 SLP140

CYUL;2010-08-19 11:00;CYUL 191100Z 25005KT 30SM FEW240 17/14 A2993 RMK CI2 SLP135

CYUL;2010-08-19 12:00;CYUL 191200Z 23004KT 30SM BKN240 18/15 A2992 RMK CI2 SLP133

CYUL;2010-08-19 13:00;CYUL 191300Z 21006KT 30SM BKN240 19/15 A2992 RMK CI1 SLP132

CYUL;2010-08-19 14:00;CYUL 191400Z 26006KT 30SM FEW240 21/15 A2991 RMK CI0 SLP128

CYUL;2010-08-19 15:00;CYUL 191500Z 20008KT 30SM FEW180 22/15 A2989 RMK AC1 SLP121

CYUL;2010-08-19 16:00;CYUL 191600Z 20007KT 30SM FEW045 FEW180 23/16 A2988 RMK CF1AC1 SLP117

CYUL;2010-08-19 18:00;CYUL 191800Z 22006KT 30SM FEW045 FEW240 25/13 A2982 RMK CF1CI0 SLP099

CYUL;2010-08-19 19:00;CYUL 191900Z 23006KT 30SM FEW045 BKN230 26/14 A2979 RMK CF1CI1 SLP087

CYUL;2010-08-19 20:00;CYUL 192000Z 24007KT 30SM FEW045 SCT150 BKN240 26/13 A2977 RMK CU1AC2CI1 SLP081

CYUL;2010-08-19 21:00;CYUL 192100Z 21006KT 30SM FEW050 SCT090 OVC180 26/14 A2976 RMK CU1AC3AC3 SLP077

CYUL;2010-08-19 22:00;CYUL 192200Z 20008KT 30SM -SHRA FEW035 SCT065 OVC100 25/15 A2975 RMK CU1SC3AC5 SLP073

CYUL;2010-08-19 22:49;CYUL 192249Z 25011G24KT 30SM FEW035 SCT065 OVC090 22/ RMK CU1SC3AC4

CYUL;2010-08-19 23:00;CYUL 192300Z 25016G21KT 30SM FEW035 OVC110 22/15 A2975 RMK CU1AC6 SLP075

CYUL;2010-08-20 00:00;CYUL 200000Z 26013G18KT 15SM FEW035 BKN110 21/15 A2977 RMK CU1AC5 SLP081

CYUL;2010-08-20 01:00;CYUL 200100Z 26011G17KT 15SM SCT025 BKN095 20/16 A2979 RMK SC3AC2 SLP088

CYUL;2010-08-20 02:00;CYUL 200200Z 29011KT 15SM FEW020 FEW100 19/16 A2980 RMK CF1AC1 SLP093

CYUL;2010-08-20 03:00;CYUL 200300Z 30007KT 15SM FEW020 SCT090 18/14 A2984 RMK CF1AC3 SLP105

CYUL;2010-08-20 04:00;CYUL 200400Z 31006KT 15SM FEW020 FEW090 16/13 A2986 RMK CF1AC1 SLP113

CYUL;2010-08-20 05:00;CYUL 200500Z 32004KT 15SM FEW025 15/11 A2988 RMK SC1 SLP120

CYUL;2010-08-20 06:00;CYUL 200600Z 31004KT 15SM FEW025 14/10 A2990 RMK SC1 SLP125

CYUL;2010-08-20 07:00;CYUL 200700Z 31005KT 15SM FEW025 13/10 A2991 RMK SC1 SLP129

CYUL;2010-08-20 08:00;CYUL 200800Z 33006KT 15SM FEW025 13/09 A2993 RMK SC1 SLP137

CYUL;2010-08-20 09:00;CYUL 200900Z 34004KT 15SM FEW025 12/09 A2996 RMK SC1 SLP146

CYUL;2010-08-20 10:00;CYUL 201000Z 33004KT 30SM FEW025 FEW240 10/08 A2999 RMK SC1CI1 SLP156

CYUL;2010-08-20 11:00;CYUL 201100Z 35003KT 30SM FEW025 12/09 A3001 RMK SC1 SLP164

CYUL;2010-08-20 12:00;CYUL 201200Z 33005KT 30SM FEW025 FEW240 14/08 A3004 RMK CU1CI1 SLP174

CYUL;2010-08-20 13:00;CYUL 201300Z 31005KT 30SM SKC 15/09 A3005 RMK SLP176

CYUL;2010-08-20 14:00;CYUL 201400Z 07003KT 30SM FEW030 17/08 A3004 RMK CF1 SLP172

CYUL;2010-08-20 15:00;CYUL 201500Z 32002KT 30SM FEW030 18/09 A3004 RMK CF1 SLP174

CYUL;2010-08-20 16:00;CYUL 201600Z 23005KT 30SM FEW030 19/08 A3004 RMK CU1 SLP175

CYUL;2010-08-20 17:00;CYUL 201700Z 30009G15KT 30SM FEW040 20/10 A3006 RMK CU1 SLP179

CYUL;2010-08-20 18:00;CYUL 201800Z 26006KT 30SM FEW050 20/09 A3004 RMK CU1 SLP174

CYUL;2010-08-20 19:00;CYUL 201900Z 24009KT 30SM FEW050 FEW240 22/10 A3004 RMK CU1CI0 SLP172

CYUL;2010-08-20 20:00;CYUL 202000Z 26006KT 30SM FEW065 SCT240 22/10 A3002 RMK CU1CI1 SLP166

CYUL;2010-08-20 21:00;CYUL 202100Z 26007KT 30SM FEW062 BKN240 22/10 A3001 RMK CF1CI2 SLP164

CYUL;2010-08-20 22:00;CYUL 202200Z 27010KT 30SM FEW060 BKN240 21/10 A3001 RMK SC1CI2 SLP164

CYUL;2010-08-20 23:00;CYUL 202300Z 26006KT 30SM BKN240 21/11 A3001 RMK CI2 SLP162

CYUL;2010-08-21 00:00;CYUL 210000Z 25006KT 15SM SCT240 20/11 A3000 RMK CI1 SLP161

CYUL;2010-08-21 01:00;CYUL 210100Z 26007KT 15SM FEW240 19/10 A3002 RMK CI1 SLP167

CYUL;2010-08-21 02:00;CYUL 210200Z 26007KT 15SM SKC 18/10 A3004 RMK SLP173

CYUL;2010-08-21 03:00;CYUL 210300Z 24005KT 15SM SKC 18/10 A3004 RMK SLP173

CYUL;2010-08-21 04:00;CYUL 210400Z 23004KT 15SM SKC 17/10 A3005 RMK SLP176

CYUL;2010-08-21 05:00;CYUL 210500Z 24003KT 15SM FEW240 17/10 A3006 RMK CI1 SLP179

CYUL;2010-08-21 06:00;CYUL 210600Z 23002KT 15SM FEW240 17/09 A3005 RMK CI0 SLP176

CYUL;2010-08-21 07:00;CYUL 210700Z 00000KT 15SM FEW240 14/10 A3004 RMK CI1 SLP172

CYUL;2010-08-21 08:00;CYUL 210800Z 27003KT 15SM FEW240 14/10 A3004 RMK CI1 SLP173

CYUL;2010-08-21 09:00;CYUL 210900Z 00000KT 15SM BKN240 14/11 A3003 RMK CI1 SLP169

CYUL;2010-08-21 10:00;CYUL 211000Z 00000KT 30SM OVC240 14/11 A3004 RMK CI1 SLP174

CYUL;2010-08-21 11:00;CYUL 211100Z 21003KT 30SM FEW180 OVC240 15/12 A3007 RMK AC1CI2 SLP184

CYUL;2010-08-21 12:00;CYUL 211200Z 21003KT 30SM FEW150 OVC240 17/13 A3007 RMK AC1CI4 SLP184

CYUL;2010-08-21 13:00;CYUL 211300Z 21005KT 30SM BKN150 OVC240 17/11 A3008 RMK AC7CI1 SLP186

CYUL;2010-08-21 14:00;CYUL 211400Z 27002KT 30SM SCT110 BKN150 OVC240 17/13 A3008 RMK AC2AC5CI1 SLP188

CYUL;2010-08-21 15:00;CYUL 211500Z 00000KT 30SM SCT100 BKN140 OVC200 19/12 A3008 RMK AC2AC5CI1 SLP186

CYUL;2010-08-21 15:52;CYUL 211552Z 15006KT 15SM -SHRA FEW034 SCT065 BKN100 OVC160 21/ RMK SC1SC2AC3AC2

CYUL;2010-08-21 16:00;CYUL 211600Z 16006KT 15SM -SHRA FEW029 BKN052 BKN090 OVC140 21/12 A3005 RMK SC2SC3AC2AC1 SLP177

CYUL;2010-08-21 17:00;CYUL 211700Z 14006KT 15SM -SHRA SCT050 BKN080 OVC120 19/13 A3005 RMK SC3AC3AC2 VRY LGT RA SLP178

CYUL;2010-08-21 18:00;CYUL 211800Z 16007KT 15SM -SHRA SCT055 BKN084 OVC110 20/13 A3006 RMK SC3AC3AC2 SLP181

CYUL;2010-08-21 19:00;CYUL 211900Z 12007KT 15SM -SHRA SCT055 BKN085 OVC110 19/13 A3004 RMK SC2AC4AC2 SLP175

CYUL;2010-08-21 20:00;CYUL 212000Z 13006KT 15SM -SHRA SCT055 BKN075 OVC095 19/12 A3004 RMK SC3AC4AC1 SLP174

CYUL;2010-08-21 21:00;CYUL 212100Z 18008KT 15SM -SHRA FEW050 SCT075 OVC100 19/13 A3005 RMK SC2AC2AC5 SLP178

CYUL;2010-08-21 22:00;CYUL 212200Z 09007KT 15SM FEW065 OVC110 17/12 A2999 RMK SC2AC6 PRESFR SLP158

CYUL;2010-08-21 23:00;CYUL 212300Z 08007KT 15SM FEW065 OVC110 18/11 A3001 RMK SC1AC7 SLP165

CYUL;2010-08-21 23:19;CYUL 212319Z 05005KT 15SM -SHRA FEW062 OVC090 18/ RMK SC2AC6

CYUL;2010-08-22 00:00;CYUL 220000Z 06006KT 15SM -RA FEW065 BKN095 OVC120 18/14 A3001 RMK SC2AC5AC2 SLP162

CYUL;2010-08-22 01:00;CYUL 220100Z 07005KT 15SM -RA FEW058 OVC120 18/15 A3003 RMK SC2AC6 SLP171

CYUL;2010-08-22 02:00;CYUL 220200Z 05009KT 15SM -RA SCT075 OVC100 17/15 A3002 RMK AC3AC5 SLP166

CYUL;2010-08-22 03:00;CYUL 220300Z 03005KT 15SM FEW010 OVC100 16/15 A3002 RMK SF1AC8 SLP167

CYUL;2010-08-22 04:00;CYUL 220400Z 05009KT 15SM -RA FEW010 OVC075 16/14 A3001 RMK SF1AC8 SLP163

CYUL;2010-08-22 04:30;CYUL 220430Z 05009KT 15SM FEW015 FEW075 OVC100 16/ RMK SF1AC1AC7

CYUL;2010-08-22 04:46;CYUL 220446Z 05009KT 15SM -RA FEW015 OVC110 16/ RMK SF1AC8 -RA INTMT

CYUL;2010-08-22 05:00;CYUL 220500Z 05010KT 15SM -RA FEW015 OVC120 16/14 A3000 RMK SF1AC8 -RA INTMT SLP159

CYUL;2010-08-22 05:35;CYUL 220535Z 04009KT 15SM FEW015 FEW100 OVC120 16/ RMK SF1AC2AC6

CYUL;2010-08-22 06:00;CYUL 220600Z 02008KT 15SM FEW007 BKN019 OVC120 16/14 A3000 RMK SF1SC7AC1 SLP161

CYUL;2010-08-22 06:29;CYUL 220629Z 04008KT 15SM -RA FEW007 BKN018 OVC130 16/ RMK SF1SC6AC2

CYUL;2010-08-22 07:00;CYUL 220700Z 04012KT 15SM FEW007 FEW018 OVC075 16/14 A2999 RMK SF1SC2AC6 SLP155

CYUL;2010-08-22 08:00;CYUL 220800Z 04008KT 15SM FEW007 OVC017 16/14 A2999 RMK SF1SC8 SLP156

CYUL;2010-08-22 09:00;CYUL 220900Z 05009KT 15SM SCT019 BKN075 OVC100 16/14 A2999 RMK SC3AC4AC1 SLP157

CYUL;2010-08-22 10:00;CYUL 221000Z 04006KT 15SM FEW017 OVC100 16/14 A2999 RMK SC1AC7 SLP158

CYUL;2010-08-22 10:39;CYUL 221039Z 04009KT 15SM -RA FEW015 BKN050 OVC075 16/ RMK SF1SC6AC2

CYUL;2010-08-22 11:00;CYUL 221100Z 03009KT 15SM FEW015 BKN050 OVC130 16/14 A3000 RMK SF1SC6AC2 SLP161

CYUL;2010-08-22 12:00;CYUL 221200Z 04008KT 15SM FEW015 SCT055 OVC110 16/14 A3000 RMK SF1SC3AC5 SLP160

CYUL;2010-08-22 13:00;CYUL 221300Z 05007KT 15SM BKN090 OVC120 16/14 A3002 RMK AC6AC2 SLP166

CYUL;2010-08-22 13:41;CYUL 221341Z 04010KT 15SM -RA FEW008 OVC014 17/ RMK SF1ST8

CYUL;2010-08-22 14:00;CYUL 221400Z 04008KT 15SM -RA BKN012 OVC017 17/14 A3002 RMK SF6ST2 SLP166

CYUL;2010-08-22 14:16;CYUL 221416Z 04007KT 15SM -RA BKN011 OVC044 17/ RMK SF4SC4

CYUL;2010-08-22 14:45;CYUL 221445Z 03009KT 15SM -RA BKN011 OVC018 17/ RMK SF6ST2

CYUL;2010-08-22 15:00;CYUL 221500Z 04010KT 15SM -RA BKN011 OVC016 17/15 A3002 RMK SF6ST2 SLP168

CYUL;2010-08-22 16:00;CYUL 221600Z 05008KT 15SM -RA BKN011 OVC016 18/15 A3003 RMK SF6ST2 VRY LGT RA SLP169

CYUL;2010-08-22 17:00;CYUL 221700Z 05010KT 15SM -RA OVC010 18/16 A3002 RMK ST8 SLP167

CYUL;2010-08-22 17:45;CYUL 221745Z 05010KT 15SM -RA OVC009 18/ RMK ST8

CYUL;2010-08-22 18:00;CYUL 221800Z 05011KT 15SM -RA OVC009 18/16 A3002 RMK ST8 VRY LGR RA SLP167

CYUL;2010-08-22 18:36;CYUL 221836Z 05009KT 12SM -RA SCT009 OVC013 18/ RMK SF3ST5

CYUL;2010-08-22 19:00;CYUL 221900Z 04007KT 10SM -RA SCT009 OVC014 18/16 A3002 RMK SF2ST6 SLP166

CYUL;2010-08-22 20:00;CYUL 222000Z 04011KT 10SM -RA SCT007 OVC012 18/17 A3002 RMK SF3ST5 SLP166

CYUL;2010-08-22 21:00;CYUL 222100Z 05009KT 8SM -RA SCT007 OVC012 18/17 A3002 RMK SF3ST5 SLP168

CYUL;2010-08-22 22:00;CYUL 222200Z 05010KT 8SM -RA SCT006 OVC010 18/17 A3003 RMK SF3ST5 SLP170

CYUL;2010-08-22 22:21;CYUL 222221Z 05010KT 8SM -RA SCT007 OVC015 18/ RMK SF3ST5

CYUL;2010-08-22 22:48;CYUL 222248Z 04010KT 8SM -RA SCT006 OVC012 18/ RMK SF3ST5

CYUL;2010-08-22 23:00;CYUL 222300Z 04010KT 8SM -RA BKN006 OVC013 18/17 A3004 RMK SF3ST5 SLP173

CYUL;2010-08-22 23:42;CYUL 222342Z 05007KT 8SM -RA FEW006 BKN012 OVC018 18/ RMK SF2SF2ST4

CYUL;2010-08-23 00:00;CYUL 230000Z 05012KT 8SM -RA SCT006 OVC016 18/17 A3004 RMK SF3ST5 SLP174

CYUL;2010-08-23 01:00;CYUL 230100Z 05011KT 10SM -RA SCT006 BKN015 OVC020 18/17 A3005 RMK SF2SF4ST2 SLP177

CYUL;2010-08-23 01:14;CYUL 230114Z 05012KT 15SM -RA FEW006 BKN019 OVC090 18/ RMK SF2SC6AC1

CYUL;2010-08-23 01:26;CYUL 230126Z 05010KT 15SM -RA BKN006 OVC019 18/ RMK SF4ST4

CYUL;2010-08-23 01:39;CYUL 230139Z 05009KT 15SM -RA BKN005 OVC014 18/ RMK SF5ST3

CYUL;2010-08-23 02:00;CYUL 230200Z 05009KT 10SM -RA SCT005 OVC009 18/17 A3005 RMK SF4ST4 SLP178

CYUL;2010-08-23 03:00;CYUL 230300Z 05009KT 7SM -RA BKN004 OVC008 18/17 A3006 RMK SF6ST2 SLP179

CYUL;2010-08-23 03:18;CYUL 230318Z 04010KT 6SM -RA BR SCT004 BKN035 OVC090 18/ RMK SF3SC2AS3

CYUL;2010-08-23 04:00;CYUL 230400Z 05008KT 5SM -RA BR FEW009 SCT035 OVC050 18/17 A3005 RMK SF2SC1SC5 SLP176

CYUL;2010-08-23 04:20;CYUL 230420Z 05008KT 6SM -RA BR BKN009 OVC050 18/ RMK SF7SC1

CYUL;2010-08-23 04:36;CYUL 230436Z 05007KT 6SM -RA BR SCT010 OVC120 18/ RMK SF3AS5

CYUL;2010-08-23 05:00;CYUL 230500Z 06007KT 7SM -RA SCT004 BKN060 OVC120 18/17 A3005 RMK SF4SC3AC1 SLP176

CYUL;2010-08-23 06:00;CYUL 230600Z 04007KT 10SM -RA FEW010 FEW050 BKN080 OVC110 18/17 A3005 RMK SF1SC2AC3AS3 SLP177

CYUL;2010-08-23 07:00;CYUL 230700Z 04009KT 12SM FEW008 BKN050 OVC120 17/16 A3005 RMK SF1SC6AC1 SLP177

CYUL;2010-08-23 07:33;CYUL 230733Z 05011KT 12SM -RA FEW008 OVC070 17/ RMK SF1AS7 -RA INTMT

CYUL;2010-08-23 08:00;CYUL 230800Z 05010G15KT 12SM -RA FEW008 OVC070 17/15 A3005 RMK SF1AS8 SLP178

CYUL;2010-08-23 08:43;CYUL 230843Z 05009KT 15SM OVC070 17/ RMK AC8

CYUL;2010-08-23 09:00;CYUL 230900Z 06009KT 15SM SCT070 OVC120 17/15 A3007 RMK AC3AS5 SLP182

CYUL;2010-08-23 09:47;CYUL 230947Z 04009KT 15SM -RA OVC120 17/ RMK AC8

CYUL;2010-08-23 10:00;CYUL 231000Z 04010KT 15SM -RA FEW010 OVC120 17/15 A3008 RMK SF1AC8 SLP188

CYUL;2010-08-23 11:00;CYUL 231100Z 03010KT 15SM -RA FEW008 BKN120 OVC240 17/15 A3010 RMK SF1AC6CI2 SLP193

CYUL;2010-08-23 11:31;CYUL 231131Z 05012KT 15SM FEW008 OVC130 17/ RMK SF1AC8

CYUL;2010-08-23 12:00;CYUL 231200Z 06011KT 15SM FEW008 OVC130 17/14 A3012 RMK SF1AC8 SLP199

CYUL;2010-08-23 13:00;CYUL 231300Z 07013KT 15SM FEW010 OVC130 18/14 A3012 RMK SF1AC8 SLP202

CYUL;2010-08-23 14:00;CYUL 231400Z 06011KT 15SM FEW020 BKN180 OVC240 19/14 A3014 RMK CF1AC6CI2 SLP206

CYUL;2010-08-23 15:00;CYUL 231500Z 07010KT 15SM FEW027 SCT170 BKN240 20/14 A3014 RMK CU1AC2CI2 SLP208

CYUL;2010-08-23 16:00;CYUL 231600Z 11010G15KT 15SM FEW040 SCT170 BKN240 21/12 A3014 RMK CU1AC2CI2 SLP207

CYUL;2010-08-23 17:00;CYUL 231700Z 10009KT 30SM FEW040 FEW170 SCT240 23/12 A3014 RMK CU1AC1CI1 SLP207

CYUL;2010-08-23 18:00;CYUL 231800Z 10009KT 30SM FEW047 FEW150 BKN240 24/13 A3014 RMK CU1AC1CI2 SLP207

CYUL;2010-08-23 19:00;CYUL 231900Z 07005G15KT 30SM FEW043 SCT150 BKN240 24/14 A3013 RMK CU2AC1CI1 SLP203

CYUL;2010-08-23 20:00;CYUL 232000Z 07009KT 30SM FEW045 FEW170 SCT240 24/14 A3012 RMK CF1AC1CI1 SLP200

CYUL;2010-08-23 21:00;CYUL 232100Z 08010G15KT 30SM FEW054 SCT240 25/14 A3012 RMK SC1CI1 CU PRSNT SLP199

CYUL;2010-08-23 22:00;CYUL 232200Z 06009KT 30SM FEW050 SCT240 24/13 A3013 RMK SC1CI1 CU PRSNT SLP202

CYUL;2010-08-23 23:00;CYUL 232300Z 06011KT 30SM FEW058 FEW240 23/15 A3014 RMK SC1CI1 SLP207

CYUL;2010-08-24 00:00;CYUL 240000Z 05009KT 15SM FEW065 FEW240 23/14 A3015 RMK SC1CI1 SLP211

CYUL;2010-08-24 01:00;CYUL 240100Z 05012KT 15SM FEW065 FEW240 22/14 A3016 RMK SC1CI1 SLP214

CYUL;2010-08-24 02:00;CYUL 240200Z 06008KT 15SM FEW065 FEW240 21/15 A3014 RMK SC1CI0 SLP208

CYUL;2010-08-24 03:00;CYUL 240300Z 04008KT 15SM FEW240 20/15 A3014 RMK CI1 SLP208

CYUL;2010-08-24 04:00;CYUL 240400Z 04007KT 15SM FEW070 19/15 A3014 RMK AC1 SLP208

CYUL;2010-08-24 05:00;CYUL 240500Z 05005KT 15SM FEW065 19/15 A3013 RMK SC1 SLP205

CYUL;2010-08-24 06:00;CYUL 240600Z 03006KT 15SM BKN065 18/15 A3014 RMK SC6 SLP207

CYUL;2010-08-24 07:00;CYUL 240700Z 05008KT 15SM FEW060 18/14 A3013 RMK SC1 SLP202

CYUL;2010-08-24 08:00;CYUL 240800Z 03008KT 15SM SCT060 17/14 A3013 RMK SC3 SLP204

CYUL;2010-08-24 09:00;CYUL 240900Z 03007KT 15SM FEW008 FEW060 16/14 A3014 RMK SF1SC2 SLP208

CYUL;2010-08-24 10:00;CYUL 241000Z 02007KT 15SM FEW060 FEW240 15/14 A3016 RMK SC1CI0 SLP213

CYUL;2010-08-24 11:00;CYUL 241100Z 03007KT 15SM FEW008 FEW240 15/14 A3017 RMK SF1CI1 SLP217

CYUL;2010-08-24 12:00;CYUL 241200Z 04006KT 30SM FEW240 17/14 A3017 RMK CI1 SLP219

CYUL;2010-08-24 13:00;CYUL 241300Z 05005KT 30SM FEW240 20/14 A3017 RMK CI1 SLP218

CYUL;2010-08-24 14:00;CYUL 241400Z 03007KT 30SM FEW026 FEW240 21/15 A3017 RMK CU1CI1 SLP219

CYUL;2010-08-24 15:00;CYUL 241500Z 04009KT 30SM FEW035 FEW240 22/16 A3017 RMK CF1CI1 SLP217

CYUL;2010-08-24 16:00;CYUL 241600Z 07009KT 30SM FEW042 FEW240 23/14 A3015 RMK CF1CI1 SLP212

CYUL;2010-08-24 17:00;CYUL 241700Z 09005KT 30SM FEW048 FEW240 23/14 A3013 RMK SC1CI1 CU PRSNT SLP205

CYUL;2010-08-24 18:00;CYUL 241800Z 09006KT 30SM FEW042 SCT057 SCT240 24/14 A3012 RMK CU1SC2CI1 SLP198

CYUL;2010-08-24 19:00;CYUL 241900Z 08009KT 30SM SCT052 SCT240 24/13 A3009 RMK SC2CI1 CU EMBD SLP190

CYUL;2010-08-24 20:00;CYUL 242000Z 08009KT 30SM SCT052 SCT240 25/13 A3008 RMK SC2CI1 CU EMBD SLP185

CYUL;2010-08-24 21:00;CYUL 242100Z 07007KT 30SM SCT057 SCT240 25/13 A3007 RMK SC2CI1 CU PRSNT SLP184

CYUL;2010-08-24 22:00;CYUL 242200Z 12006KT 30SM FEW057 SCT240 23/14 A3007 RMK SC1CI1 SLP182

CYUL;2010-08-24 23:00;CYUL 242300Z 09009KT 30SM FEW057 FEW240 24/13 A3006 RMK SC1CI1 SLP179

CYUL;2010-08-25 00:00;CYUL 250000Z 06007KT 15SM FEW060 FEW240 24/14 A3005 RMK SC1CI1 SLP177

CYUL;2010-08-25 01:00;CYUL 250100Z 05006KT 15SM FEW240 23/15 A3006 RMK CI1 SLP178

CYUL;2010-08-25 02:00;CYUL 250200Z 06005KT 15SM FEW240 22/15 A3005 RMK CI1 SLP176

CYUL;2010-08-25 03:00;CYUL 250300Z 06005KT 15SM FEW240 22/15 A3004 RMK CI1 SLP172

CYUL;2010-08-25 04:00;CYUL 250400Z 04005KT 15SM SCT240 19/15 A3003 RMK CC2 SLP169

CYUL;2010-08-25 05:00;CYUL 250500Z 03005KT 15SM FEW240 18/15 A3003 RMK CI1 SLP168

CYUL;2010-08-25 06:00;CYUL 250600Z 10003KT 15SM BKN240 19/14 A3003 RMK CI1 SLP168

CYUL;2010-08-25 07:00;CYUL 250700Z 14003KT 15SM FEW180 BKN240 18/14 A3001 RMK AC1CI2 SLP164

CYUL;2010-08-25 08:00;CYUL 250800Z 14003KT 15SM FEW180 OVC240 17/15 A3001 RMK AC1CI2 SLP162

CYUL;2010-08-25 09:00;CYUL 250900Z 10003KT 15SM OVC240 18/15 A3000 RMK CC7 SLP158

CYUL;2010-08-25 10:00;CYUL 251000Z 10003KT 15SM FEW090 SCT110 OVC220 19/15 A2999 RMK AC1AC2CI5 SLP157

CYUL;2010-08-25 11:00;CYUL 251100Z 13005KT 15SM FEW080 SCT110 OVC210 18/15 A2999 RMK AC2AC2CI4 SLP157

CYUL;2010-08-25 12:00;CYUL 251200Z 10003KT 15SM BKN080 OVC210 19/15 A2999 RMK AC6CI2 SLP156

CYUL;2010-08-25 13:00;CYUL 251300Z 13006KT 15SM FEW060 BKN075 OVC200 19/16 A3000 RMK SC2AS6CI1 SLP158

CYUL;2010-08-25 14:00;CYUL 251400Z 13009KT 15SM FEW020 BKN070 BKN080 20/16 A2999 RMK SC1AC4AC2 SLP154

CYUL;2010-08-25 15:00;CYUL 251500Z 14006KT 15SM FEW020 BKN050 OVC070 20/16 A2998 RMK SC2SC4AC2 SLP153

CYUL;2010-08-25 15:14;CYUL 251514Z 11005KT 15SM -SHRA FEW020 BKN040 OVC070 20/ RMK SC2SC5AC2

CYUL;2010-08-25 15:48;CYUL 251548Z 15003KT 15SM SCT013 BKN030 OVC050 20/ RMK SC4SC2SC2

CYUL;2010-08-25 16:00;CYUL 251600Z 10005KT 15SM BKN014 BKN030 OVC045 20/17 A2996 RMK SC5SC2SC2 SLP147

CYUL;2010-08-25 16:11;CYUL 251611Z 11008KT 15SM BKN016 BKN043 BKN060 20/ RMK SC5SC2SC1

CYUL;2010-08-25 17:00;CYUL 251700Z 12009KT 15SM SCT015 BKN050 BKN060 21/17 A2994 RMK SC3SC3SC1 SLP139

CYUL;2010-08-25 18:00;CYUL 251800Z 09008KT 15SM FEW016 BKN045 BKN070 21/16 A2992 RMK CU1SC4AC2 SLP133

CYUL;2010-08-25 19:00;CYUL 251900Z 10007KT 15SM SCT020 BKN045 BKN090 22/16 A2990 RMK SC3SC2AC2 CU ASOCTD SLP126

CYUL;2010-08-25 20:00;CYUL 252000Z 09004KT 15SM FEW023 BKN045 BKN070 22/16 A2988 RMK SC2SC4AC1 SLP119

CYUL;2010-08-25 21:00;CYUL 252100Z 06007KT 15SM BKN024 BKN045 OVC060 22/16 A2987 RMK SC5SC2SC2 SLP115

CYUL;2010-08-25 22:00;CYUL 252200Z 05007KT 15SM FEW025 SCT045 BKN080 BKN150 21/16 A2986 RMK SC2SC2AC1AC2 SLP112

CYUL;2010-08-25 23:00;CYUL 252300Z 03007KT 15SM FEW025 BKN050 BKN080 21/16 A2986 RMK SC1SC4AC2 SLP111

CYUL;2010-08-26 00:00;CYUL 260000Z 05008KT 15SM SCT050 BKN090 BKN120 21/15 A2985 RMK SC3AC2AC2 SLP109

CYUL;2010-08-26 01:00;CYUL 260100Z 06008KT 15SM FEW030 SCT090 BKN130 20/15 A2986 RMK SC1AC3AC3 SLP111

CYUL;2010-08-26 02:00;CYUL 260200Z 05005KT 15SM FEW040 BKN130 BKN160 19/15 A2985 RMK SC2AC3AC1 SLP110

CYUL;2010-08-26 03:00;CYUL 260300Z 02005KT 15SM FEW040 BKN130 19/15 A2985 RMK SC1AC6 SLP109

CYUL;2010-08-26 04:00;CYUL 260400Z 36006KT 15SM FEW075 BKN130 18/15 A2985 RMK AC2AC6 SLP107

CYUL;2010-08-26 05:00;CYUL 260500Z 05005KT 15SM FEW025 FEW055 BKN075 18/15 A2984 RMK SC1SC1AC4 SLP106

CYUL;2010-08-26 06:00;CYUL 260600Z 00000KT 15SM FEW075 BKN085 17/15 A2984 RMK AC1AC6 SLP104

CYUL;2010-08-26 07:00;CYUL 260700Z 04003KT 15SM FEW045 BKN067 BKN130 17/15 A2983 RMK SC1AC4AC1 SLP101

CYUL;2010-08-26 08:00;CYUL 260800Z 00000KT 15SM FEW020 FEW045 BKN055 17/16 A2983 RMK SC1SC2SC5 SLP101

CYUL;2010-08-26 09:00;CYUL 260900Z 34003KT 15SM BKN020 BKN095 17/15 A2982 RMK SC6AC1 SLP098

CYUL;2010-08-26 10:00;CYUL 261000Z 33002KT 15SM OVC015 17/16 A2984 RMK SC8 SLP104

CYUL;2010-08-26 11:00;CYUL 261100Z 35004KT 15SM FEW015 FEW040 SCT070 17/16 A2985 RMK SC1SC1AC2 SLP110

CYUL;2010-08-26 12:00;CYUL 261200Z 00000KT 15SM FEW015 FEW075 18/16 A2985 RMK SC1AC1 SLP110

CYUL;2010-08-26 13:00;CYUL 261300Z 25006KT 15SM SCT015 SCT080 20/16 A2985 RMK CU4AC1 SLP110

CYUL;2010-08-26 14:00;CYUL 261400Z 27012KT 15SM SCT014 19/16 A2987 RMK CU4 SLP115

CYUL;2010-08-26 14:17;CYUL 261417Z 28009KT 15SM BKN014 20/ RMK CU6

CYUL;2010-08-26 14:38;CYUL 261438Z 24006KT 15SM SCT015 21/ RMK CU4

CYUL;2010-08-26 15:00;CYUL 261500Z 24007KT 15SM FEW016 SCT090 21/16 A2986 RMK CU2AC1 TCU ASOCTD N SLP113

CYUL;2010-08-26 15:52;CYUL 261552Z 26010G15KT 15SM -SHRA FEW020 BKN026 BKN080 22/ RMK CU1SC5AC2 TCU EMBD

CYUL;2010-08-26 16:00;CYUL 261600Z 27013KT 12SM -SHRA FEW020 BKN025 BKN080 21/16 A2986 RMK CF1SC5AC2 VIS LWR W TCU EMBD SLP113

CYUL;2010-08-26 16:38;CYUL 261638Z 26011KT 15SM VCSH FEW020TCU FEW025 BKN085 20/ RMK TCU1SC2AC5

CYUL;2010-08-26 17:00;CYUL 261700Z 25009KT 15SM FEW020TCU FEW030 BKN085 20/17 A2987 RMK TCU1SC1AC6 SLP114

CYUL;2010-08-26 17:22;CYUL 261722Z 25012KT 12SM -SHRA FEW020TCU BKN025 BKN080 20/ RMK TCU2SC3AC2

CYUL;2010-08-26 18:00;CYUL 261800Z 25011G17KT 15SM FEW020TCU SCT025 BKN090 21/16 A2986 RMK TCU1SC2AC3 SLP112

CYUL;2010-08-26 19:00;CYUL 261900Z 26016G21KT 15SM FEW025TCU FEW090 SCT240 23/14 A2985 RMK TCU2AC1CI0 SLP110

CYUL;2010-08-26 19:15;CYUL 261915Z 27013G18KT 15SM -SHRA FEW025TCU BKN037 BKN090 22/ RMK TCU2SC3AC2

CYUL;2010-08-26 20:00;CYUL 262000Z 29013G19KT 15SM VCSH FEW030TCU SCT045 BKN070 BKN120 20/13 A2987 RMK TCU2SC2AC1AC2 SLP114

CYUL;2010-08-26 20:40;CYUL 262040Z 30017KT 12SM -SHRA FEW030 SCT050 BKN090 21/ RMK CU2SC2AC2 -SHRA OCNL TCU ASOCTD

CYUL;2010-08-26 21:00;CYUL 262100Z 29014G19KT 15SM -SHRA FEW030 FEW050 BKN090 19/15 A2989 RMK CU1SC2AC4 -SHRA OCNL TCU ASOCTD SLP122

CYUL;2010-08-26 22:00;CYUL 262200Z 28013KT 15SM -SHRA FEW020 BKN090 BKN150 19/15 A2991 RMK CF1AC5AC1 -SHRA OCNL SLP127

CYUL;2010-08-26 22:20;CYUL 262220Z 28014G20KT 15SM FEW020 BKN090 BKN150 19/ RMK CF1AC4AC2

CYUL;2010-08-26 23:00;CYUL 262300Z 30012G18KT 15SM FEW025 SCT090 SCT150 18/13 A2992 RMK CU1AC2AC1 SLP133

CYUL;2010-08-27 00:00;CYUL 270000Z 31010G16KT 15SM FEW025 BKN100 BKN150 18/13 A2995 RMK CU1AC4AC1 SLP141

CYUL;2010-08-27 01:00;CYUL 270100Z 30011KT 15SM FEW030 SCT060 BKN080 18/12 A2997 RMK SC1SC2AC2 SLP150

CYUL;2010-08-27 02:00;CYUL 270200Z 29009KT 15SM FEW020 BKN085 17/12 A2999 RMK CF1AC6 SLP154

CYUL;2010-08-27 03:00;CYUL 270300Z 31009KT 15SM BKN100 16/12 A3000 RMK AC5 SLP158

CYUL;2010-08-27 04:00;CYUL 270400Z 31006KT 15SM SCT085 15/12 A3001 RMK AC4 SLP163

CYUL;2010-08-27 05:00;CYUL 270500Z 30006KT 15SM FEW085 15/11 A3003 RMK AC1 SLP168

CYUL;2010-08-27 06:00;CYUL 270600Z 29003KT 15SM FEW020 FEW090 13/11 A3004 RMK CF1AC2 SLP173

CYUL;2010-08-27 08:00;CYUL 270800Z 30006KT 15SM FEW060 12/10 A3005 RMK SC1 SLP177

CYUL;2010-08-27 09:00;CYUL 270900Z 29006KT 15SM FEW020 12/10 A3006 RMK SC1 SLP181

CYUL;2010-08-27 10:00;CYUL 271000Z 30007KT 30SM FEW010 FEW060 FEW240 12/10 A3008 RMK SF1SC1CI1 SLP186

CYUL;2010-08-27 11:00;CYUL 271100Z 31006KT 30SM FEW010 FEW070 FEW240 13/10 A3009 RMK SF1AC1CI0 CONTRAILS SLP192

CYUL;2010-08-27 12:00;CYUL 271200Z 31009KT 30SM FEW010 SCT240 14/10 A3012 RMK CF1CI0 SLP199

CYUL;2010-08-27 13:00;CYUL 271300Z 31006KT 30SM FEW020 FEW240 16/10 A3012 RMK CF1CI0 SLP202

CYUL;2010-08-27 14:00;CYUL 271400Z 27004KT 30SM FEW020 FEW240 17/08 A3012 RMK CF1CI0 SLP202

CYUL;2010-08-27 15:00;CYUL 271500Z 24008KT 30SM FEW030 FEW240 19/10 A3012 RMK CU1CI1 SLP201

CYUL;2010-08-27 16:00;CYUL 271600Z 29008KT 30SM FEW035 SCT240 18/10 A3012 RMK CU2CI1 SLP201

CYUL;2010-08-27 17:00;CYUL 271700Z 26008KT 30SM FEW035 BKN240 20/10 A3010 RMK CU2CI1 SLP195

CYUL;2010-08-27 18:00;CYUL 271800Z 27009KT 30SM FEW040 BKN240 21/09 A3009 RMK CU2CI1 SLP192

CYUL;2010-08-27 19:00;CYUL 271900Z 28010KT 30SM FEW040 BKN240 21/10 A3008 RMK CU2CI2 SLP186

CYUL;2010-08-27 20:00;CYUL 272000Z 28010KT 30SM FEW040 BKN240 22/09 A3007 RMK CU2CI2 SLP183

CYUL;2010-08-27 21:00;CYUL 272100Z 28010G16KT 30SM FEW050 BKN240 22/10 A3006 RMK CU2CI1 SLP180

CYUL;2010-08-27 22:00;CYUL 272200Z 26010KT 30SM FEW050 SCT210 BKN240 21/09 A3005 RMK CU1CC1CI1 SLP176

CYUL;2010-08-27 23:00;CYUL 272300Z 26008KT 30SM FEW060 SCT210 BKN240 21/10 A3004 RMK SC1CI2CI2 SLP174

CYUL;2010-08-28 00:00;CYUL 280000Z 23006KT 15SM FEW150 SCT210 BKN240 20/10 A3005 RMK AC1CI1CI2 SLP177

CYUL;2010-08-28 01:00;CYUL 280100Z 24008KT 15SM SCT160 BKN220 19/11 A3007 RMK AS2CI2 SLP183

CYUL;2010-08-28 01:46;CYUL 280146Z 24011KT 15SM -SHRA FEW120 OVC140 20/ RMK AC2AS6

CYUL;2010-08-28 02:00;CYUL 280200Z 24010KT 15SM BKN130 20/12 A3006 RMK AC7 SLP180

CYUL;2010-08-28 03:00;CYUL 280300Z 25013G19KT 15SM BKN120 BKN160 19/12 A3006 RMK AC6AC1 SLP181

CYUL;2010-08-28 04:00;CYUL 280400Z 24011KT 15SM FEW120 OVC220 19/14 A3006 RMK AC1CI6 SLP179

CYUL;2010-08-28 05:00;CYUL 280500Z 25011KT 15SM SCT160 BKN180 18/12 A3007 RMK AC3AC2 VIRGA SLP185

CYUL;2010-08-28 06:00;CYUL 280600Z 25007KT 15SM SCT130 17/12 A3007 RMK AC4 SLP184

CYUL;2010-08-28 07:00;CYUL 280700Z 25009KT 15SM BKN110 17/12 A3007 RMK AC7 SLP185

CYUL;2010-08-28 08:00;CYUL 280800Z 27009KT 15SM OVC100 17/12 A3009 RMK AC8 SLP189

CYUL;2010-08-28 09:00;CYUL 280900Z 25010KT 15SM OVC120 16/13 A3009 RMK AC8 SLP192

CYUL;2010-08-28 10:00;CYUL 281000Z 25010KT 15SM BKN110 16/13 A3011 RMK AC6 SLP198

CYUL;2010-08-28 11:00;CYUL 281100Z 26009KT 15SM FEW008 FEW100 SCT130 16/13 A3013 RMK SF1AC1AC2 SLP204

CYUL;2010-08-28 12:00;CYUL 281200Z 25008KT 30SM FEW010 FEW130 BKN180 BKN240 17/13 A3014 RMK SF1AC1AC5CI0 SLP208

CYUL;2010-08-28 13:00;CYUL 281300Z 25010KT 30SM FEW110 BKN170 17/13 A3014 RMK AC2AC6 SLP208

CYUL;2010-08-28 14:00;CYUL 281400Z 25008KT 30SM FEW110 BKN170 BKN220 19/14 A3015 RMK AC2AC4CI1 SLP210

CYUL;2010-08-28 15:00;CYUL 281500Z 22007KT 30SM FEW170 FEW240 21/14 A3014 RMK AC2CI1 SLP207

CYUL;2010-08-28 16:00;CYUL 281600Z 23011KT 30SM FEW150 FEW240 23/15 A3013 RMK AC1CI1 SLP204

CYUL;2010-08-28 17:00;CYUL 281700Z 22013KT 30SM FEW150 SCT240 24/14 A3011 RMK AC1CI1 SLP197

CYUL;2010-08-28 18:00;CYUL 281800Z 22013KT 30SM FEW120 FEW180 SCT240 25/14 A3010 RMK AC1AC1CI1 SLP193

CYUL;2010-08-28 19:00;CYUL 281900Z 23012G17KT 30SM FEW030 FEW150 FEW240 25/15 A3008 RMK CU1AC1CI1 SLP186

CYUL;2010-08-28 20:00;CYUL 282000Z 23014KT 30SM FEW040 SCT240 26/16 A3006 RMK CU1CI1 SLP178

CYUL;2010-08-28 21:00;CYUL 282100Z 24013G18KT 30SM FEW050 FEW150 SCT240 26/16 A3004 RMK CU2AC1CI0 SLP174

CYUL;2010-08-28 22:00;CYUL 282200Z 23015G20KT 30SM FEW050 SCT150 BKN240 25/17 A3004 RMK CU1AC2CI1 SLP171

CYUL;2010-08-28 23:00;CYUL 282300Z 23014KT 30SM FEW160 SCT240 25/17 A3001 RMK AC2CI0 SLP163

CYUL;2010-08-29 00:00;CYUL 290000Z 23016KT 30SM FEW160 FEW240 24/16 A3001 RMK AC1CI0 SLP161

CYUL;2010-08-29 01:00;CYUL 290100Z 23014G20KT 15SM FEW150 FEW210 23/15 A3002 RMK AC1CI1 SLP165

CYUL;2010-08-29 02:00;CYUL 290200Z 24012G20KT 15SM BKN170 23/15 A3003 RMK AC4 SLP168

CYUL;2010-08-29 03:00;CYUL 290300Z 25013KT 15SM FEW180 22/15 A3003 RMK AC2 SLP169

CYUL;2010-08-29 04:00;CYUL 290400Z 25007G17KT 15SM FEW180 BKN230 22/16 A3006 RMK AC2CC5 SLP179

CYUL;2010-08-29 05:00;CYUL 290500Z 25009KT 15SM FEW230 22/16 A3007 RMK CC2 SLP183

CYUL;2010-08-29 06:00;CYUL 290600Z 25013KT 15SM FEW230 21/16 A3008 RMK CC1 SLP185

CYUL;2010-08-29 07:00;CYUL 290700Z 25010KT 15SM SKC 21/16 A3009 RMK SLP189

CYUL;2010-08-29 08:00;CYUL 290800Z 25008KT 15SM SKC 20/16 A3011 RMK SLP195

CYUL;2010-08-29 09:00;CYUL 290900Z 25009KT 15SM SKC 20/16 A3012 RMK SLP199

CYUL;2010-08-29 10:00;CYUL 291000Z 25009KT 15SM SKC 20/16 A3013 RMK SLP203

CYUL;2010-08-29 11:00;CYUL 291100Z 22009KT 30SM FEW240 19/16 A3015 RMK CC0 SLP208

CYUL;2010-08-29 12:00;CYUL 291200Z 26013KT 30SM FEW240 21/17 A3015 RMK CI1 SLP210

CYUL;2010-08-29 13:00;CYUL 291300Z 27012KT 30SM FEW240 22/17 A3016 RMK CI1 SLP212

CYUL;2010-08-29 14:00;CYUL 291400Z 25011KT 15SM FEW240 24/18 A3015 RMK CI0 SLP211

CYUL;2010-08-29 15:00;CYUL 291500Z 23009G15KT 15SM FEW240 25/18 A3015 RMK CI0 SLP208

CYUL;2010-08-29 16:00;CYUL 291600Z 23012KT 15SM FEW240 27/18 A3012 RMK CI0 SLP201

CYUL;2010-08-29 17:00;CYUL 291700Z 26014G21KT 15SM FEW240 28/19 A3012 RMK CI0 SLP198

CYUL;2010-08-29 18:00;CYUL 291800Z 22012G17KT 15SM FEW040 FEW240 29/20 A3011 RMK CU1CI0 SLP196

CYUL;2010-08-29 19:00;CYUL 291900Z 25011G16KT 15SM FEW045 FEW240 29/19 A3009 RMK CU1CI0 SLP191

CYUL;2010-08-29 20:00;CYUL 292000Z 27015G21KT 15SM FEW045 FEW240 30/18 A3009 RMK CU1CI0 SLP188

CYUL;2010-08-29 21:00;CYUL 292100Z 26011G16KT 30SM FEW045 FEW240 29/18 A3008 RMK CU1CI1 SLP185

CYUL;2010-08-29 22:00;CYUL 292200Z 24012G17KT 30SM FEW240 29/18 A3008 RMK CI0 SLP186

CYUL;2010-08-29 23:00;CYUL 292300Z 23010KT 30SM FEW240 27/18 A3007 RMK CI1 SLP184

CYUL;2010-08-30 00:00;CYUL 300000Z 24009KT 30SM FEW240 26/17 A3008 RMK CI1 SLP187

CYUL;2010-08-30 01:00;CYUL 300100Z 24013KT 15SM FEW240 25/17 A3009 RMK CI1 SLP190

CYUL;2010-08-30 02:00;CYUL 300200Z 25013KT 15SM FEW240 24/16 A3010 RMK CI1 SLP194

CYUL;2010-08-30 03:00;CYUL 300300Z 26009KT 15SM BKN240 23/16 A3012 RMK CI0 SLP198

CYUL;2010-08-30 04:00;CYUL 300400Z 25008KT 15SM FEW240 22/16 A3013 RMK CI0 SLP202

CYUL;2010-08-30 05:00;CYUL 300500Z 25008KT 15SM FEW240 21/15 A3013 RMK CI1 SLP204

CYUL;2010-08-30 06:00;CYUL 300600Z 25007KT 15SM FEW240 20/15 A3013 RMK CI1 SLP204

CYUL;2010-08-30 07:00;CYUL 300700Z 25005KT 15SM SKC 19/15 A3014 RMK SLP205

CYUL;2010-08-30 08:00;CYUL 300800Z 23005KT 15SM SKC 19/16 A3015 RMK SLP208

CYUL;2010-08-30 09:00;CYUL 300900Z 23006KT 15SM SKC 19/16 A3015 RMK SLP211

CYUL;2010-08-30 10:00;CYUL 301000Z 25008KT 15SM FEW180 18/15 A3017 RMK AC2 SLP215

CYUL;2010-08-30 11:00;CYUL 301100Z 25006KT 15SM SKC 18/15 A3018 RMK SLP219

CYUL;2010-08-30 12:00;CYUL 301200Z 27007KT 15SM SKC 20/16 A3018 RMK SLP221

CYUL;2010-08-30 13:00;CYUL 301300Z 25009KT 15SM SKC 22/16 A3018 RMK SLP221

CYUL;2010-08-30 14:00;CYUL 301400Z 23007KT 15SM SKC 23/16 A3018 RMK SLP220

CYUL;2010-08-30 15:00;CYUL 301500Z 25011KT 15SM SKC 25/15 A3017 RMK SLP218

CYUL;2010-08-30 16:00;CYUL 301600Z 22010KT 15SM SKC 27/17 A3015 RMK SLP211

CYUL;2010-08-30 17:00;CYUL 301700Z 22011KT 15SM FEW240 27/18 A3014 RMK CI1 SLP207

CYUL;2010-08-30 18:00;CYUL 301800Z 22009KT 15SM FEW240 28/18 A3012 RMK CI1 SLP198

CYUL;2010-08-30 19:00;CYUL 301900Z 23011KT 15SM SCT240 29/18 A3010 RMK CI1 SLP193

CYUL;2010-08-30 20:00;CYUL 302000Z 26010G17KT 15SM FEW240 30/19 A3008 RMK CI1 SLP186

CYUL;2010-08-30 21:00;CYUL 302100Z 24013KT 15SM FEW240 30/20 A3007 RMK CI1 SLP183

CYUL;2010-08-30 22:00;CYUL 302200Z 22007KT 15SM FEW240 29/21 A3006 RMK CI0 SLP179

CYUL;2010-08-30 23:00;CYUL 302300Z 24009KT 15SM SCT240 29/21 A3005 RMK CI1 SLP176

CYUL;2010-08-31 00:00;CYUL 310000Z 24008KT 15SM FEW060 FEW240 28/21 A3006 RMK SC1CI1 SLP178

CYUL;2010-08-31 01:00;CYUL 310100Z 24009KT 15SM FEW080 SCT240 27/21 A3006 RMK AC2CI1 SLP179

CYUL;2010-08-31 02:00;CYUL 310200Z 24008KT 15SM SCT080 27/21 A3005 RMK AC3 SLP177

CYUL;2010-08-31 03:00;CYUL 310300Z 24007KT 15SM SCT085 26/21 A3005 RMK AC4 SLP177

CYUL;2010-08-31 04:00;CYUL 310400Z 26009KT 15SM SCT090 25/20 A3006 RMK AC3 SLP178

CYUL;2010-08-31 05:00;CYUL 310500Z 26008KT 15SM FEW090 24/20 A3006 RMK AC2 SLP178

CYUL;2010-08-31 06:00;CYUL 310600Z 25006KT 15SM FEW090 24/20 A3006 RMK AC2 SLP178

CYUL;2010-08-31 07:00;CYUL 310700Z 24005KT 15SM SCT085 24/20 A3005 RMK AC1 SLP177

CYUL;2010-08-31 08:00;CYUL 310800Z 23006KT 15SM SKC 23/20 A3004 RMK SLP174

CYUL;2010-08-31 09:00;CYUL 310900Z 23008KT 15SM SKC 22/20 A3005 RMK SLP176

CYUL;2010-08-31 10:00;CYUL 311000Z 24008KT 8SM SCT080 22/19 A3007 RMK AC3 SLP181

CYUL;2010-08-31 11:00;CYUL 311100Z 24010KT 8SM FEW080 FEW240 23/19 A3008 RMK AC0CI0 SLP185

CYUL;2010-08-31 12:00;CYUL 311200Z 24008KT 10SM FEW240 23/20 A3009 RMK CI0 SLP188

CYUL;2010-08-31 13:00;CYUL 311300Z 24007KT 10SM FEW180 FEW240 25/20 A3009 RMK AC1CI0 SLP188

CYUL;2010-08-31 14:00;CYUL 311400Z 23009KT 12SM FEW070 FEW180 FEW240 26/21 A3008 RMK AC1AC1CI0 SLP187

CYUL;2010-08-31 15:00;CYUL 311500Z 23011KT 12SM FEW240 27/21 A3008 RMK CI1 SLP185

CYUL;2010-08-31 16:00;CYUL 311600Z 24011KT 15SM FEW020 29/21 A3006 RMK CU1 CU TR SLP179

CYUL;2010-08-31 17:00;CYUL 311700Z 26012KT 15SM FEW030 31/20 A3004 RMK CU1 SLP173

CYUL;2010-08-31 18:00;CYUL 311800Z 25012KT 15SM FEW030 31/20 A3003 RMK CU1 SLP168

CYUL;2010-08-31 19:00;CYUL 311900Z 24010G15KT 15SM FEW030 32/21 A3001 RMK CU1 SLP162

CYUL;2010-08-31 20:00;CYUL 312000Z 22011G17KT 15SM FEW040 FEW240 31/22 A2999 RMK CU1CI1 SLP157

CYUL;2010-08-31 21:00;CYUL 312100Z 22012KT 15SM FEW040 FEW240 31/21 A2999 RMK CU1CI1 SLP156

CYUL;2010-08-31 22:00;CYUL 312200Z 23010KT 15SM FEW240 30/21 A2998 RMK CI0 SLP153

CYUL;2010-08-31 23:00;CYUL 312300Z 25010KT 15SM FEW240 30/21 A2998 RMK CI0 SLP151

CYUL;2010-09-01 01:00;CYUL 010100Z 25008KT 10SM SKC 29/20 A3000 RMK SLP158

CYUL;2010-09-01 02:00;CYUL 010200Z 23008KT 10SM SKC 27/20 A2999 RMK SLP157

CYUL;2010-09-01 03:00;CYUL 010300Z 24009KT 15SM SKC 27/20 A2999 RMK SLP155

CYUL;2010-09-01 04:00;CYUL 010400Z 26006KT 15SM SKC 26/19 A2999 RMK SLP155

CYUL;2010-09-01 05:00;CYUL 010500Z 24007KT 12SM FEW120 25/19 A2998 RMK AC1 SLP153

CYUL;2010-09-01 06:00;CYUL 010600Z 25007KT 12SM SKC 24/19 A2998 RMK SLP151

CYUL;2010-09-01 07:00;CYUL 010700Z 24007KT 10SM FEW120 24/19 A2997 RMK AC2 SLP150

CYUL;2010-09-01 08:00;CYUL 010800Z 23008KT 10SM SCT110 24/19 A2996 RMK AC1 SLP147

CYUL;2010-09-01 09:00;CYUL 010900Z 24005KT 12SM SKC 23/18 A2996 RMK SLP146

CYUL;2010-09-01 10:00;CYUL 011000Z 24004KT 10SM FEW120 23/18 A2997 RMK AC2 SLP148

CYUL;2010-09-01 11:00;CYUL 011100Z 24006KT 10SM SCT070 BKN095 24/18 A2998 RMK AC3AC2 SLP153

CYUL;2010-09-01 12:00;CYUL 011200Z 22006KT 12SM FEW065 BKN100 24/19 A2999 RMK SC2AC2 SLP154

CYUL;2010-09-01 13:00;CYUL 011300Z 23010KT 12SM FEW100 FEW240 25/19 A2998 RMK AC2CI0 SLP153

CYUL;2010-09-01 14:00;CYUL 011400Z 22008KT 12SM FEW240 26/20 A2998 RMK CI1 SLP151

CYUL;2010-09-01 15:00;CYUL 011500Z 23009KT 10SM SKC 27/20 A2997 RMK SLP148

CYUL;2010-09-01 16:00;CYUL 011600Z 22010KT 10SM SKC 29/20 A2995 RMK SLP142

CYUL;2010-09-01 17:00;CYUL 011700Z 23011KT 10SM SKC 30/20 A2993 RMK SLP135

CYUL;2010-09-01 18:00;CYUL 011800Z 23013KT 10SM FEW030 31/20 A2992 RMK CU1 SLP131

CYUL;2010-09-01 19:00;CYUL 011900Z 23017KT 10SM FEW040 32/19 A2990 RMK CU1 SLP125

CYUL;2010-09-01 20:00;CYUL 012000Z 23014KT 10SM FEW050 32/19 A2988 RMK CU1 SLP119

CYUL;2010-09-01 21:00;CYUL 012100Z 24016KT 10SM FEW050 FEW240 32/19 A2987 RMK CU1CI1 SLP114

CYUL;2010-09-01 22:00;CYUL 012200Z 23014KT 12SM SKC 31/19 A2985 RMK SLP110

CYUL;2010-09-01 23:00;CYUL 012300Z 24012KT 12SM SKC 30/19 A2985 RMK SLP110

CYUL;2010-09-02 00:00;CYUL 020000Z 23009KT 12SM FEW240 28/19 A2986 RMK CI1 SLP111

CYUL;2010-09-02 01:00;CYUL 020100Z 23011KT 15SM SKC 28/19 A2987 RMK SLP114

CYUL;2010-09-02 02:00;CYUL 020200Z 23010KT 15SM SKC 27/19 A2987 RMK SLP115

CYUL;2010-09-02 03:00;CYUL 020300Z 21008KT 15SM SKC 26/19 A2987 RMK SLP115

CYUL;2010-09-02 04:00;CYUL 020400Z 21009KT 15SM SKC 25/19 A2987 RMK SLP114

CYUL;2010-09-02 05:00;CYUL 020500Z 22008KT 15SM SKC 25/19 A2987 RMK SLP114

CYUL;2010-09-02 06:00;CYUL 020600Z 19007KT 15SM SKC 24/18 A2986 RMK SLP112

CYUL;2010-09-02 07:00;CYUL 020700Z 24007KT 15SM SKC 25/18 A2985 RMK SLP110

CYUL;2010-09-02 08:00;CYUL 020800Z 25011KT 15SM SKC 24/18 A2986 RMK SLP112

CYUL;2010-09-02 09:00;CYUL 020900Z 25013KT 15SM SKC 24/18 A2986 RMK SLP112

CYUL;2010-09-02 10:00;CYUL 021000Z 25011KT 12SM SKC 24/18 A2987 RMK SLP116

CYUL;2010-09-02 11:00;CYUL 021100Z 25007KT 12SM FEW180 FEW240 23/18 A2989 RMK AC2CI1 SLP123

CYUL;2010-09-02 12:00;CYUL 021200Z 26009KT 12SM FEW180 BKN210 24/18 A2990 RMK AC2CI0 SLP126

CYUL;2010-09-02 13:00;CYUL 021300Z 26007KT 12SM FEW180 BKN240 25/19 A2990 RMK AC2CI0 SLP126

CYUL;2010-09-02 14:00;CYUL 021400Z 23005KT 12SM FEW080 FEW120 SCT240 26/20 A2990 RMK AC1AC1CI1 SLP125

CYUL;2010-09-02 15:00;CYUL 021500Z 20007KT 12SM FEW030 BKN075 26/20 A2990 RMK CU1AC7 SLP126

CYUL;2010-09-02 16:00;CYUL 021600Z 22005KT 12SM FEW030 BKN075 OVC120 27/20 A2990 RMK CU1AC5AC2 SLP126

CYUL;2010-09-02 17:00;CYUL 021700Z 21006KT 12SM FEW030 BKN075 OVC110 27/20 A2989 RMK CU1AC6AC2 SLP122

CYUL;2010-09-02 17:23;CYUL 021723Z 24008KT 12SM -SHRA FEW030 BKN075 OVC110 27/ RMK CU1AC6AC2

CYUL;2010-09-02 17:45;CYUL 021745Z 23008KT 15SM BKN075 OVC100 27/ RMK AC6AC2

CYUL;2010-09-02 18:00;CYUL 021800Z 22007KT 12SM BKN075 OVC100 27/19 A2988 RMK AC5AC3 SLP118

CYUL;2010-09-02 19:00;CYUL 021900Z 23007KT 12SM FEW070 OVC090 27/19 A2987 RMK AC2AC6 SLP116

CYUL;2010-09-02 20:00;CYUL 022000Z 25004KT 12SM BKN090 OVC160 28/20 A2986 RMK AC6AC2 SLP113

CYUL;2010-09-02 21:00;CYUL 022100Z 36003KT 12SM BKN100 BKN150 OVC210 27/21 A2985 RMK AC6AC2CI0 SLP109

CYUL;2010-09-02 22:00;CYUL 022200Z 00000KT 12SM BKN090 OVC120 28/20 A2984 RMK AC6AC2 SLP104

CYUL;2010-09-02 23:00;CYUL 022300Z 15003KT 10SM FEW050 OVC080 27/21 A2984 RMK SC2AC6 SLP105

CYUL;2010-09-02 23:36;CYUL 022336Z 05006KT 10SM -SHRA BKN048 BKN080 OVC100 26/ RMK SC5AC2AC1

CYUL;2010-09-03 00:00;CYUL 030000Z 10004KT 10SM -SHRA BKN050 BKN080 OVC100 26/21 A2984 RMK SC5AC2AC1 VRY LGT RA SLP105

CYUL;2010-09-03 00:21;CYUL 030021Z 10002KT 10SM BKN045 BKN070 OVC100 26/ RMK SC5AC2AC2 LTNG W

CYUL;2010-09-03 01:00;CYUL 030100Z 23003KT 10SM SCT045 BKN080 BKN120 26/21 A2985 RMK SC3AC2AC2 DIST LTNG N SLP107

CYUL;2010-09-03 02:00;CYUL 030200Z 36002KT 10SM FEW065 SCT100 24/21 A2984 RMK SC1AC2 SLP104

CYUL;2010-09-03 03:00;CYUL 030300Z 23006KT 10SM -SHRA FEW045 BKN160 25/20 A2983 RMK SC1AC2 SLP100

CYUL;2010-09-03 03:18;CYUL 030318Z 24007KT 12SM FEW040 SCT070 25/ RMK SC1AC2

CYUL;2010-09-03 04:00;CYUL 030400Z 23009KT 15SM FEW120 25/20 A2981 RMK AC1 SLP094

CYUL;2010-09-03 05:00;CYUL 030500Z 22007KT 15SM FEW120 24/20 A2980 RMK AC1 SLP092

CYUL;2010-09-03 06:00;CYUL 030600Z 25009KT 15SM FEW120 24/20 A2979 RMK AC0 SLP089

CYUL;2010-09-03 07:00;CYUL 030700Z 22006KT 15SM SKC 24/20 A2978 RMK SLP086

CYUL;2010-09-03 08:00;CYUL 030800Z 23006KT 15SM SKC 23/19 A2978 RMK SLP085

CYUL;2010-09-03 09:00;CYUL 030900Z 00000KT 15SM FEW240 22/19 A2977 RMK CI0 SLP082

CYUL;2010-09-03 10:00;CYUL 031000Z 00000KT 15SM FEW240 22/19 A2977 RMK CI0 SLP080

CYUL;2010-09-03 11:00;CYUL 031100Z 14003KT 12SM FEW180 FEW240 22/19 A2976 RMK AC2CI0 SLP078

CYUL;2010-09-03 12:00;CYUL 031200Z 14004KT 12SM FEW090 24/20 A2975 RMK AC1 SLP074

CYUL;2010-09-03 13:00;CYUL 031300Z 16008KT 12SM SCT100 SCT220 25/19 A2972 RMK AC2CI1 SLP065

CYUL;2010-09-03 14:00;CYUL 031400Z 15008KT 15SM FEW220 28/20 A2968 RMK CI1 SLP051

CYUL;2010-09-03 15:00;CYUL 031500Z 16008KT 15SM SCT240 29/20 A2966 RMK CI1 SLP044

CYUL;2010-09-03 16:00;CYUL 031600Z 18007KT 15SM FEW240 31/20 A2963 RMK CI2 SLP034

CYUL;2010-09-03 17:00;CYUL 031700Z 22011KT 15SM FEW065 BKN240 32/17 A2961 RMK CF1CI2 SLP025

CYUL;2010-09-03 18:00;CYUL 031800Z 23010G15KT 15SM FEW070 BKN240 33/17 A2959 RMK CF1CI2 CS ASOCTD SLP018

CYUL;2010-09-03 19:00;CYUL 031900Z 21009KT 15SM FEW070 BKN240 33/17 A2956 RMK CU1CS4 SLP011

CYUL;2010-09-03 20:00;CYUL 032000Z 19010KT 15SM FEW065 OVC220 32/20 A2953 RMK CU1CI6 SLP001

CYUL;2010-09-03 21:00;CYUL 032100Z 17013KT 15SM FEW060 FEW180 OVC240 31/21 A2951 RMK CU1AC1CI4 SLP993

CYUL;2010-09-03 22:00;CYUL 032200Z 16012KT 15SM FEW060 FEW180 OVC240 30/20 A2951 RMK CU1AC1CI2 SLP992

CYUL;2010-09-03 23:00;CYUL 032300Z 16009KT 15SM FEW180 OVC240 28/20 A2950 RMK AC2CI2 CONTRAILS SLP989

CYUL;2010-09-04 00:00;CYUL 040000Z CCA 16008KT 15SM FEW030CB FEW150 BKN240 27/20 A2949 RMK CB1AC1CI2 CB SW SLP987

CYUL;2010-09-04 01:00;CYUL 040100Z 15008KT 15SM FEW150 BKN240 26/19 A2948 RMK AC1CI2 SLP984

CYUL;2010-09-04 02:00;CYUL 040200Z 31010KT 15SM FEW080 BKN240 25/18 A2949 RMK AC1CI1 SLP985

CYUL;2010-09-04 03:00;CYUL 040300Z 27009G17KT 15SM FEW080 SCT170 BKN240 24/17 A2950 RMK AC1AC1CI2 SLP988

CYUL;2010-09-04 04:00;CYUL 040400Z 26014KT 15SM FEW090 SCT240 23/17 A2950 RMK AC1CI1 SLP988

CYUL;2010-09-04 05:00;CYUL 040500Z 27013G18KT 15SM FEW062 SCT100 SCT160 BKN240 22/17 A2948 RMK SC1AC1AC1CI1 SLP984

CYUL;2010-09-04 06:00;CYUL 040600Z 26009KT 15SM BKN054 BKN110 22/17 A2948 RMK SC5AC1 SLP981

CYUL;2010-09-04 07:00;CYUL 040700Z 27012KT 15SM BKN065 OVC095 20/15 A2947 RMK SC6AC2 SLP979

CYUL;2010-09-04 08:00;CYUL 040800Z 24008KT 15SM -SHRA FEW065 OVC075 19/16 A2948 RMK SC2AC6 SLP983

CYUL;2010-09-04 09:00;CYUL 040900Z 27005KT 15SM -SHRA FEW020 SCT045 OVC100 18/17 A2945 RMK SF1SC3AC4 SLP974

CYUL;2010-09-04 10:00;CYUL 041000Z 27004KT 15SM -SHRA BKN016 OVC045 18/17 A2945 RMK SF4SC4 SLP971

CYUL;2010-09-04 11:00;CYUL 041100Z 25007KT 15SM -SHRA BKN011 OVC028 19/17 A2944 RMK SF6SC2 SLP968

CYUL;2010-09-04 11:29;CYUL 041129Z 25009KT 15SM FEW012 BKN019 OVC030 19/ RMK SF2SC5SC1

CYUL;2010-09-04 12:00;CYUL 041200Z 26008KT 15SM FEW016 FEW022 SCT058 BKN120 19/17 A2943 RMK SF1CU1SC1AC1 SLP966

CYUL;2010-09-04 13:00;CYUL 041300Z 26011KT 30SM FEW022 FEW110 20/16 A2943 RMK CF1AC1 ACC ASOCTD SLP965

CYUL;2010-09-04 14:00;CYUL 041400Z 25014KT 30SM FEW030 20/13 A2941 RMK CU2 TCU ASOCTD SLP960

CYUL;2010-09-04 15:00;CYUL 041500Z 24012G17KT 30SM -SHRA BKN035 BKN065 20/13 A2942 RMK CU6SC1 SLP961

CYUL;2010-09-04 15:26;CYUL 041526Z 25015G25KT 30SM FEW030TCU SCT080 21/ RMK TCU2AC2

CYUL;2010-09-04 16:00;CYUL 041600Z 23017G25KT 15SM VCSH FEW030TCU SCT075 BKN110 21/14 A2942 RMK TCU2AC1AC3 SLP962

CYUL;2010-09-04 16:50;CYUL 041650Z 23022G29KT 8SM -SHRA BKN035TCU BKN070 21/ RMK TCU6AC1

CYUL;2010-09-04 17:00;CYUL 041700Z 24019G32KT 15SM -SHRA FEW035TCU BKN050 BKN110 18/14 A2943 RMK TCU2SC3AC2 VIS NE 8 SLP965

CYUL;2010-09-04 17:27;CYUL 041727Z 23015KT 15SM FEW035TCU FEW050 BKN090 19/ RMK TCU2SC1AC4

CYUL;2010-09-04 18:00;CYUL 041800Z 24022G28KT 15SM VCSH FEW030TCU SCT050 SCT100 21/13 A2941 RMK TCU2SC2AC1 SLP959

CYUL;2010-09-04 19:00;CYUL 041900Z 23021G27KT 30SM BKN045 BKN070 20/10 A2941 RMK CU6AC1 SLP959

CYUL;2010-09-04 19:53;CYUL 041953Z 25020G27KT 30SM -SHRA BKN050 BKN070 20/ RMK CU6AC2

CYUL;2010-09-04 20:00;CYUL 042000Z 24018G24KT 30SM VCSH SCT050 BKN065 BKN150 19/10 A2943 RMK CU4SC3AC1 SLP965

CYUL;2010-09-04 21:00;CYUL 042100Z 25023G32KT 30SM FEW045 BKN075 19/09 A2944 RMK CU2AC6 SLP970

CYUL;2010-09-04 22:00;CYUL 042200Z 23020G31KT 15SM VCSH FEW030 SCT050 BKN080 18/11 A2946 RMK CF2SC2AC4 SLP977

CYUL;2010-09-04 22:07;CYUL 042207Z 22025G32KT 15SM -SHRA FEW030 SCT050 BKN085 17/ RMK CF2SC2AC4

CYUL;2010-09-04 22:43;CYUL 042243Z 23019G27KT 15SM VCSH SCT025 BKN070 BKN085 17/ RMK CF3AC2AC2

CYUL;2010-09-04 23:00;CYUL 042300Z 23026G34KT 15SM -SHRA SCT025 BKN040 BKN090 17/11 A2948 RMK CF4SC2AC1 SLP982

CYUL;2010-09-04 23:24;CYUL 042324Z 23016G21KT 15SM SCT020 BKN050 BKN110 17/ RMK CF3SC2AC2

CYUL;2010-09-05 00:00;CYUL 050000Z 22016KT 15SM FEW020TCU SCT050 BKN110 16/12 A2949 RMK TCU1SC3AC2 SLP986

CYUL;2010-09-05 01:00;CYUL 050100Z 23014G25KT 15SM FEW020 BKN045 OVC110 17/11 A2950 RMK CF2SC6AC1 SLP991

CYUL;2010-09-05 02:00;CYUL 050200Z 24025KT 15SM FEW024 BKN050 OVC067 16/10 A2951 RMK SF2SC5AC2 SLP993

CYUL;2010-09-05 03:00;CYUL 050300Z 25021G33KT 15SM SCT032 OVC057 15/09 A2952 RMK SC3SC5 SLP998

CYUL;2010-09-05 03:13;CYUL 050313Z 25022KT 15SM -SHRA SCT032 OVC060 15/ RMK SC3SC5

CYUL;2010-09-05 04:00;CYUL 050400Z 25022G29KT 15SM -SHRA SCT026 OVC037 15/09 A2955 RMK SC2SC6 VRY LGT RA SLP007

CYUL;2010-09-05 04:32;CYUL 050432Z 25017G26KT 15SM FEW032 SCT065 SCT092 15/ RMK SC1SC1AC1

CYUL;2010-09-05 05:00;CYUL 050500Z 25019G25KT 15SM BKN032 BKN075 14/09 A2957 RMK SC4AC1 SLP013

CYUL;2010-09-05 06:00;CYUL 050600Z 26020G27KT 15SM SCT032 OVC050 14/08 A2959 RMK SC2SC5 SLP020

CYUL;2010-09-05 06:43;CYUL 050643Z 26015G22KT 15SM -SHRA SCT027 OVC044 12/ RMK SF3SC5

CYUL;2010-09-05 07:00;CYUL 050700Z 27019G24KT 12SM -SHRA FEW013 BKN030 OVC045 12/10 A2961 RMK SF1SC5SC2 SLP027

CYUL;2010-09-05 08:00;CYUL 050800Z 26018G24KT 15SM FEW027 BKN180 12/08 A2962 RMK SF1AC2 SLP030

CYUL;2010-09-05 09:00;CYUL 050900Z 25016G22KT 15SM FEW032 11/06 A2965 RMK CF1 SLP040

CYUL;2010-09-05 10:00;CYUL 051000Z 24014KT 15SM FEW028 FEW062 11/07 A2967 RMK SC1SC1 SLP047

CYUL;2010-09-05 11:00;CYUL 051100Z 26012G17KT 30SM FEW032 FEW060 11/07 A2968 RMK SC1SC1 SLP051

CYUL;2010-09-05 12:00;CYUL 051200Z 25015KT 30SM FEW036 FEW090 FEW240 12/08 A2971 RMK SC1AC1CI0 SLP060

CYUL;2010-09-05 13:00;CYUL 051300Z 25017KT 30SM FEW026 BKN032 BKN085 13/08 A2972 RMK SC2SC2AC1 SLP064

CYUL;2010-09-05 14:00;CYUL 051400Z 25017KT 30SM BKN030 14/07 A2975 RMK CU6 TCU ASOCTD SLP075

CYUL;2010-09-05 15:00;CYUL 051500Z 25018KT 30SM SCT035 BKN050 14/06 A2977 RMK CU3SC4 SLP080

CYUL;2010-09-05 15:22;CYUL 051522Z 25012G19KT 30SM -SHRA BKN035 BKN050 14/ RMK CU6SC1

CYUL;2010-09-05 15:42;CYUL 051542Z 27015G22KT 30SM SCT035 BKN050 15/ RMK CU3SC3

CYUL;2010-09-05 16:00;CYUL 051600Z 27018KT 30SM BKN035 BKN050 15/07 A2978 RMK CU6SC2 SLP085

CYUL;2010-09-05 17:00;CYUL 051700Z 26015G24KT 30SM SCT040 SCT060 16/07 A2979 RMK CU3SC1 SLP087

CYUL;2010-09-05 18:00;CYUL 051800Z 26015KT 30SM SCT045 BKN055 16/06 A2980 RMK CU3SC4 SLP093

CYUL;2010-09-05 19:00;CYUL 051900Z 26018KT 30SM SCT050 BKN075 17/06 A2981 RMK CU4AC3 SLP095

CYUL;2010-09-05 20:00;CYUL 052000Z 26015KT 30SM SCT050 BKN070 17/06 A2982 RMK CU3AC4 SLP097

CYUL;2010-09-05 20:20;CYUL 052020Z 24014KT 30SM -SHRA SCT050 BKN070 17/ RMK CU4AC3

CYUL;2010-09-05 20:44;CYUL 052044Z 24017KT 30SM SCT048 BKN060 BKN080 17/ RMK CU4SC2AC1

CYUL;2010-09-05 21:00;CYUL 052100Z 26013KT 30SM SCT048 SCT060 BKN085 18/07 A2982 RMK CU3SC1AC3 SLP100

CYUL;2010-09-05 22:00;CYUL 052200Z 24009G15KT 30SM VCSH FEW050 BKN065 BKN095 17/08 A2984 RMK CU2SC4AC1 SLP105

CYUL;2010-09-05 22:04;CYUL 052204Z 23010G15KT 30SM -SHRA FEW050 BKN065 BKN095 17/ RMK CU2SC4AC1

CYUL;2010-09-05 22:29;CYUL 052229Z 23011G17KT 30SM VCSH FEW030CB FEW075 16/ RMK CB2AC1

CYUL;2010-09-05 23:00;CYUL 052300Z 25011KT 15SM VCSH FEW030CB SCT060 BKN070 BKN240 16/09 A2985 RMK CB2SC2AC2CI1 CB SE-S SLP109

CYUL;2010-09-06 00:00;CYUL 060000Z 23008KT 15SM FEW035TCU FEW070 FEW240 15/10 A2987 RMK TCU2AC1CI1 SLP117

CYUL;2010-09-06 01:00;CYUL 060100Z 23013KT 15SM FEW050 SCT070 BKN085 16/11 A2990 RMK CF1AC3AC4 SLP126

CYUL;2010-09-06 02:00;CYUL 060200Z 25016KT 15SM BKN063 BKN080 16/10 A2992 RMK SC3AC1 SLP132

CYUL;2010-09-06 03:00;CYUL 060300Z 25013G19KT 15SM SCT060 SCT075 15/10 A2994 RMK SC2AC1 SLP140

CYUL;2010-09-06 04:00;CYUL 060400Z 25013KT 15SM FEW062 FEW080 14/09 A2996 RMK SC1AC1 SLP148

CYUL;2010-09-06 05:00;CYUL 060500Z 25011KT 15SM FEW080 13/09 A2998 RMK AC1 SLP154

CYUL;2010-09-06 06:00;CYUL 060600Z 25010KT 15SM SKC 13/09 A2999 RMK SLP158

CYUL;2010-09-06 07:00;CYUL 060700Z 25009KT 15SM SKC 12/09 A3001 RMK SLP163

CYUL;2010-09-06 08:00;CYUL 060800Z 25006KT 15SM SKC 12/09 A3002 RMK SLP166

CYUL;2010-09-06 09:00;CYUL 060900Z 25004KT 15SM FEW048 11/08 A3003 RMK SC0 SLP170

CYUL;2010-09-06 10:00;CYUL 061000Z 25002KT 15SM FEW048 11/08 A3004 RMK SC1 SLP173

CYUL;2010-09-06 11:00;CYUL 061100Z 24003KT 15SM FEW050 12/10 A3006 RMK SC1 SLP179

CYUL;2010-09-06 12:00;CYUL 061200Z 23008KT 30SM FEW057 FEW110 FEW240 15/11 A3007 RMK SC1AC0CI1 SLP184

CYUL;2010-09-06 13:00;CYUL 061300Z 19007KT 30SM FEW060 FEW075 FEW240 16/11 A3007 RMK SC1AC1CI0 SLP185

CYUL;2010-09-06 14:00;CYUL 061400Z 23011KT 30SM FEW060 FEW075 FEW240 18/11 A3008 RMK SC1ACC1CI1 SLP188

CYUL;2010-09-06 15:00;CYUL 061500Z 22007KT 30SM FEW035 FEW075 FEW240 19/11 A3007 RMK CU1AC2CI1 SLP185

CYUL;2010-09-06 16:00;CYUL 061600Z 21011KT 30SM SCT045 BKN075 BKN210 22/12 A3006 RMK CU3AC2CC1 ACC ASOCTD SLP179

CYUL;2010-09-06 17:00;CYUL 061700Z 23014G21KT 30SM FEW050 SCT075 BKN210 22/09 A3004 RMK CU2AC1CI1 CS ASOCTD SLP174

CYUL;2010-09-06 18:00;CYUL 061800Z 23019G25KT 30SM SCT050 BKN075 22/11 A3003 RMK CU3AC4 SLP171

CYUL;2010-09-06 18:35;CYUL 061835Z 23016G24KT 30SM -SHRA FEW050 SCT075 OVC095 21/ RMK CU2AC2AC4

CYUL;2010-09-06 19:00;CYUL 061900Z 23019KT 30SM -SHRA FEW050 OVC070 21/12 A3004 RMK CU2AC6 SLP172

CYUL;2010-09-06 20:00;CYUL 062000Z 25014KT 30SM -RA FEW035 SCT045 OVC060 19/13 A3004 RMK CF2SC2SC4 SLP174

CYUL;2010-09-06 21:00;CYUL 062100Z 25010KT 30SM -RA FEW045 SCT060 OVC090 19/14 A3004 RMK CF1SC3AC4 SLP173

CYUL;2010-09-06 21:48;CYUL 062148Z 23009KT 30SM FEW040 BKN060 OVC100 19/ RMK CF2SC5AC1

CYUL;2010-09-06 22:00;CYUL 062200Z 22008KT 30SM FEW035 SCT060 OVC090 20/13 A3003 RMK CF2SC2AC4 SLP171

CYUL;2010-09-06 22:11;CYUL 062211Z 23012KT 30SM -SHRA SCT035 OVC085 20/ RMK CF3AC5

CYUL;2010-09-06 23:00;CYUL 062300Z 23013G18KT 30SM -RA SCT065 OVC090 19/13 A3004 RMK SC4AS4 SLP172

CYUL;2010-09-07 00:00;CYUL 070000Z 24012KT 15SM -RA BKN065 OVC100 17/14 A3005 RMK SC6AC2 SLP176

CYUL;2010-09-07 01:00;CYUL 070100Z 21005KT 15SM -RA SCT075 OVC085 17/14 A3004 RMK AC3AC5 SLP172

CYUL;2010-09-07 01:48;CYUL 070148Z 18009KT 15SM OVC060 17/ RMK SC8

CYUL;2010-09-07 02:00;CYUL 070200Z 19008KT 15SM OVC051 17/14 A3003 RMK SC8 SLP171

CYUL;2010-09-07 03:00;CYUL 070300Z 21013KT 15SM OVC045 18/13 A3004 RMK SC8 SLP173

CYUL;2010-09-07 03:22;CYUL 070322Z 22011G16KT 15SM -SHRA OVC048 18/ RMK SC8

CYUL;2010-09-07 04:00;CYUL 070400Z 20010KT 15SM OVC044 17/14 A3003 RMK SC8 SLP170

CYUL;2010-09-07 05:00;CYUL 070500Z 22009KT 15SM OVC044 18/14 A3002 RMK SC8 SLP166

CYUL;2010-09-07 06:00;CYUL 070600Z 26007KT 15SM -SHRA OVC040 18/14 A3003 RMK SC8 VRY LGT RA SLP168

CYUL;2010-09-07 07:00;CYUL 070700Z 24005KT 15SM -SHRA BKN044 BKN060 OVC072 17/15 A3002 RMK SC5SC2AC1 SLP166

CYUL;2010-09-07 08:00;CYUL 070800Z 24006KT 15SM -SHRA OVC050 16/15 A3002 RMK SC8 SLP166

CYUL;2010-09-07 09:00;CYUL 070900Z 21004KT 15SM SCT062 OVC095 17/15 A3000 RMK SC2AC5 SLP159

CYUL;2010-09-07 10:00;CYUL 071000Z 18004KT 15SM BKN085 17/15 A3001 RMK AC6 SLP164

CYUL;2010-09-07 11:00;CYUL 071100Z 21007KT 15SM OVC070 17/15 A3002 RMK AC8 SLP167

CYUL;2010-09-07 12:00;CYUL 071200Z 25007KT 15SM BKN080 OVC110 18/14 A3003 RMK AC6AC2 SLP169

CYUL;2010-09-07 12:12;CYUL 071212Z 23007KT 15SM -SHRA BKN085 OVC110 18/ RMK AC6AC2

CYUL;2010-09-07 13:00;CYUL 071300Z 24010KT 15SM -SHRA FEW038 OVC100 18/15 A3002 RMK SC2AC6 SLP166

CYUL;2010-09-07 14:00;CYUL 071400Z 22009KT 15SM -SHRA FEW040 OVC090 18/15 A3001 RMK SC2AC6 SLP162

CYUL;2010-09-07 14:33;CYUL 071433Z 22005KT 30SM FEW040 BKN100 OVC150 18/ RMK SC1AC5AC2

CYUL;2010-09-07 15:00;CYUL 071500Z 18005KT 30SM BKN100 OVC160 19/16 A2998 RMK AC5AC3 SLP151

CYUL;2010-09-07 16:00;CYUL 071600Z 18004KT 30SM FEW100 BKN180 BKN220 21/16 A2997 RMK AC2AC3CI2 SLP148

CYUL;2010-09-07 17:00;CYUL 071700Z 16005KT 30SM FEW150 BKN220 22/16 A2995 RMK AC2CI2 SLP141

CYUL;2010-09-07 18:00;CYUL 071800Z 16007KT 30SM SCT200 BKN240 24/16 A2993 RMK CC3CI1 SLP136

CYUL;2010-09-07 19:00;CYUL 071900Z 13009KT 30SM FEW030 FEW210 BKN240 25/16 A2989 RMK CU1CC1CI2 SLP123

CYUL;2010-09-07 20:00;CYUL 072000Z 13008KT 30SM FEW150 BKN240 26/16 A2988 RMK AC1CI2 SLP117

CYUL;2010-09-07 21:00;CYUL 072100Z 12006KT 30SM FEW150 FEW210 BKN240 25/17 A2986 RMK AC1CC1CI2 SLP111

CYUL;2010-09-07 22:00;CYUL 072200Z 14010KT 30SM FEW120 SCT160 SCT220 BKN240 26/17 A2982 RMK AC2AC2CC1CI1 SLP099

CYUL;2010-09-07 23:00;CYUL 072300Z 15011KT 15SM FEW100 FEW150 BKN220 25/17 A2978 RMK AC1AC2CC2 SLP085

CYUL;2010-09-08 00:00;CYUL 080000Z 16010KT 15SM SCT080 BKN130 BKN210 24/17 A2976 RMK AC3AC2CI1 DIST LTNG NW SLP079

CYUL;2010-09-08 00:45;CYUL 080045Z 16010KT 15SM TS BKN080 BKN120 BKN160 24/ RMK AC5AC1AC1 CB EMBD LTGIC W-N

CYUL;2010-09-08 01:00;CYUL 080100Z 16010KT 15SM TS BKN075 BKN100 BKN120 24/17 A2973 RMK AC5AC2AC1 CB EMBD LTGCG W-N SLP069

CYUL;2010-09-08 01:12;CYUL 080112Z 35018KT 10SM -TSRA SCT035 BKN075 OVC100 23/ RMK SC3AC3AC2 CB EMBD LTGCG

CYUL;2010-09-08 02:00;CYUL 080200Z CCA 04009KT 8SM -TSRA SCT026 BKN055 OVC075 20/18 A2980 RMK SC3SC3AC2 CB EMBD LTGCG PRESRR SLP091

CYUL;2010-09-08 02:44;CYUL 080244Z 08010KT 12SM -SHRA FEW030 BKN080 OVC130 20/ RETS RMK SC2AC5AC1 CB EMBD LTGCG

CYUL;2010-09-08 02:55;CYUL 080255Z 07007KT 12SM -TSRA FEW030 BKN080 OVC130 20/ RMK SC2AC5AC1 CB EMBD LTGCG

CYUL;2010-09-08 03:00;CYUL 080300Z 32004KT 12SM -TSRA SCT036 OVC070 20/18 A2983 RMK SC2AC6 CB EMBD FQT LTGCC SLP102

CYUL;2010-09-08 03:52;CYUL 080352Z 12009KT 12SM -SHRA FEW036 BKN058 OVC110 19/ RETS RMK SC2SC4AC2 CB EMBD LTGCC

CYUL;2010-09-08 04:00;CYUL 080400Z 11009KT 12SM -SHRA FEW036 SCT060 BKN090 OVC130 19/18 A2974 RETS RMK SC1SC2AC4AC1 CB EMBD /R11/ PRESFR SLP071

CYUL;2010-09-08 04:44;CYUL 080444Z 12011KT 15SM BKN060 OVC095 20/ RMK SC6AC2

CYUL;2010-09-08 05:00;CYUL 080500Z 12010KT 15SM FEW055 OVC075 20/18 A2971 RMK SC2AC6 SLP061

CYUL;2010-09-08 06:00;CYUL 080600Z 16010G16KT 15SM BKN055 BKN095 20/18 A2967 RMK SC5AC2 SLP049

CYUL;2010-09-08 07:00;CYUL 080700Z 20006KT 15SM OVC038 20/17 A2966 RMK SC7 SLP043

CYUL;2010-09-08 08:00;CYUL 080800Z 22011KT 15SM SCT029 BKN055 20/17 A2964 RMK SC2SC2 SLP038

CYUL;2010-09-08 09:00;CYUL 080900Z CCA 24008KT 15SM SCT062 OVC150 20/18 A2962 RMK SC3AC5 SLP032

CYUL;2010-09-08 10:00;CYUL 081000Z 23011KT 15SM SCT062 BKN100 OVC140 20/17 A2962 RMK SC2AC3AC2 SLP030

CYUL;2010-09-08 11:00;CYUL 081100Z 24009KT 15SM FEW022 SCT060 BKN100 BKN130 20/17 A2962 RMK SC1SC2AC2AC1 SLP031

CYUL;2010-09-08 11:08;CYUL 081108Z 25010KT 15SM -SHRA FEW022 SCT060 BKN100 BKN130 20/ RMK SC1SC2AC2AC1

CYUL;2010-09-08 12:00;CYUL 081200Z 27012G21KT 8SM -SHRA FEW022 BKN054 OVC090 17/15 A2964 RMK SF1SC3AC4 SLP038

CYUL;2010-09-08 12:46;CYUL 081246Z 26010KT 15SM BKN060 BKN110 17/ RMK SC5AC2

CYUL;2010-09-08 13:00;CYUL 081300Z 25010KT 15SM BKN056 BKN100 17/14 A2964 RMK SC6AC2 SLP038

CYUL;2010-09-08 14:00;CYUL 081400Z 25011KT 15SM FEW010 BKN058 BKN120 18/15 A2964 RMK SF1SC4AC2 SLP039

CYUL;2010-09-08 14:45;CYUL 081445Z 25012G18KT 15SM -SHRA FEW020 BKN048 BKN090 18/ RMK CF2SC2AC2

CYUL;2010-09-08 15:00;CYUL 081500Z 24016G21KT 15SM SCT020 BKN045 BKN090 20/15 A2965 RMK CF3SC2AC2 SLP040

CYUL;2010-09-08 15:35;CYUL 081535Z 25017G22KT 15SM -SHRA SCT020 BKN070 BKN100 19/ RMK CF3AC2AC2 -SHRA OCNL TCU EMBD

CYUL;2010-09-08 16:00;CYUL 081600Z 25015G21KT 15SM -SHRA FEW020 SCT040 BKN090 19/15 A2964 RMK CF2SC2AC3 TCU EMBD SLP037

CYUL;2010-09-08 17:00;CYUL 081700Z 25021KT 15SM -SHRA SCT022 BKN055 BKN090 19/13 A2964 RMK CU3SC2AC2 SLP036

CYUL;2010-09-08 18:00;CYUL 081800Z 24013G18KT 15SM VCSH FEW022 SCT080 19/14 A2963 RMK CU2AC2 SLP034

CYUL;2010-09-08 19:00;CYUL 081900Z 27014G21KT 15SM FEW025 SCT040 BKN080 21/13 A2961 RMK CU2SC2AC2 SLP029

CYUL;2010-09-08 20:00;CYUL 082000Z 25017KT 15SM FEW030 SCT040 BKN080 21/12 A2962 RMK CU2SC1AC2 SLP032

CYUL;2010-09-08 21:00;CYUL 082100Z 28014G21KT 15SM FEW030 SCT050 BKN100 20/12 A2963 RMK CU2SC2AC2 SLP033

CYUL;2010-09-08 22:00;CYUL 082200Z 25010KT 15SM FEW040 BKN080 BKN130 19/13 A2964 RMK SC1AC4AC2 SLP036

CYUL;2010-09-08 22:40;CYUL 082240Z 24010KT 15SM -SHRA FEW040 BKN060 BKN130 19/ RMK SC2SC2AC2

CYUL;2010-09-08 23:00;CYUL 082300Z 23009KT 15SM -SHRA FEW030 BKN050 BKN100 19/13 A2964 RMK SC1SC4AC2 SLP036

CYUL;2010-09-08 23:40;CYUL 082340Z 23010KT 15SM FEW030 SCT060 BKN100 18/ RMK SC1SC2AC3

CYUL;2010-09-09 00:00;CYUL 090000Z 24010KT 15SM FEW030 BKN055 BKN100 18/14 A2964 RMK SC1SC4AC2 SLP039

CYUL;2010-09-09 01:00;CYUL 090100Z 25010KT 15SM SCT045 BKN120 17/13 A2965 RMK SC3AC3 SLP040

CYUL;2010-09-09 02:00;CYUL 090200Z 27009KT 15SM BKN040 BKN120 17/13 A2964 RMK SC5AC1 SLP039

CYUL;2010-09-09 03:00;CYUL 090300Z 26010KT 15SM SCT036 BKN100 16/12 A2965 RMK SC2AC2 SLP041

CYUL;2010-09-09 04:00;CYUL 090400Z 25010KT 15SM FEW026 BKN036 BKN100 16/12 A2965 RMK SC2SC3AC1 SLP042

CYUL;2010-09-09 05:00;CYUL 090500Z 26010KT 15SM FEW029 SCT062 BKN085 BKN220 16/12 A2965 RMK SC2SC2AC2CI1 SLP042

CYUL;2010-09-09 06:00;CYUL 090600Z CCA 26010KT 15SM SCT075 BKN090 16/13 A2964 RMK AC2AC2 SLP039

CYUL;2010-09-09 07:00;CYUL 090700Z 26009KT 15SM FEW022 BKN063 16/12 A2965 RMK SC1SC6 SLP040

CYUL;2010-09-09 08:00;CYUL 090800Z 26008KT 15SM FEW016 BKN024 BKN180 15/12 A2964 RMK SF2SC3AC1 SLP039

CYUL;2010-09-09 09:00;CYUL 090900Z 27010KT 15SM FEW017 BKN052 BKN090 15/12 A2965 RMK SF2SC3AC1 SLP040

CYUL;2010-09-09 10:00;CYUL 091000Z 27008KT 15SM FEW017 BKN042 BKN062 15/12 A2966 RMK SF1SC5SC2 SLP043

CYUL;2010-09-09 11:00;CYUL 091100Z 27008KT 15SM FEW018 OVC043 15/12 A2967 RMK SC1SC7 SLP046

CYUL;2010-09-09 12:00;CYUL 091200Z 27008KT 15SM FEW022 SCT036 BKN058 OVC120 15/12 A2967 RMK SC1SC2SC4AC1 SLP047

CYUL;2010-09-09 13:00;CYUL 091300Z 27013KT 15SM FEW016 BKN038 OVC052 15/12 A2967 RMK SF2SC6SC1 SLP048

CYUL;2010-09-09 14:00;CYUL 091400Z 27012KT 15SM BKN016 OVC038 15/12 A2968 RMK SC6SC2 SLP051

CYUL;2010-09-09 15:00;CYUL 091500Z 27009KT 15SM BKN016 OVC040 16/13 A2968 RMK SC5SC3 SLP051

CYUL;2010-09-09 16:00;CYUL 091600Z 27009KT 15SM BKN017 OVC035 16/12 A2969 RMK SC7SC1 SLP053

CYUL;2010-09-09 17:00;CYUL 091700Z 28006KT 15SM SCT017 OVC026 16/13 A2969 RMK SC4SC4 SLP054

CYUL;2010-09-09 17:51;CYUL 091751Z 27009KT 10SM -SHRA SCT017 OVC028 17/ RMK SC3SC5

CYUL;2010-09-09 18:00;CYUL 091800Z 27008KT 10SM -SHRA BKN016 OVC025 16/14 A2969 RMK SC5SC3 SLP054

CYUL;2010-09-09 18:32;CYUL 091832Z 26009KT 6SM -DZ BR BKN013 OVC018 16/ RMK SC5SC3 VIS 3 N

CYUL;2010-09-09 18:44;CYUL 091844Z CCA 33010KT 2SM -RA BR SCT008 BKN011 OVC017 15/ RMK SF3SC3SC2

CYUL;2010-09-09 19:00;CYUL 091900Z 02009KT 2SM -RA BR BKN007 OVC014 15/13 A2970 RMK SF6SC2 SLP057

CYUL;2010-09-09 19:15;CYUL 091915Z 03010KT 4SM -RA BR SCT006 BKN010 OVC018 15/ RMK SF4SC2SC2

CYUL;2010-09-09 19:44;CYUL 091944Z 04008KT 6SM -RA BR SCT006 BKN015 OVC025 15/ RMK SF3SC2SC2

CYUL;2010-09-09 20:00;CYUL 092000Z 04006KT 8SM -RA FEW006 SCT015 OVC030 15/14 A2971 RMK SF2SC2SC4 SLP060

CYUL;2010-09-09 21:00;CYUL 092100Z 03013KT 8SM -RA FEW008 BKN015 OVC030 15/13 A2972 RMK SF2SC4SC2 -RA INTMT SLP065

CYUL;2010-09-09 21:32;CYUL 092132Z 01006KT 15SM FEW008 FEW015 OVC030 15/ RMK SF1SC1SC6

CYUL;2010-09-09 22:00;CYUL 092200Z 01009KT 15SM FEW008 OVC035 15/12 A2973 RMK SF1SC8 SLP069

CYUL;2010-09-09 23:00;CYUL 092300Z 36005KT 15SM FEW020 BKN070 OVC100 15/13 A2975 RMK SC1AC6AC2 SLP075

CYUL;2010-09-10 00:00;CYUL 100000Z 34005KT 15SM FEW030 FEW070 OVC100 15/13 A2977 RMK SC1AC1AC6 SLP082

CYUL;2010-09-10 01:00;CYUL 100100Z 35005KT 15SM FEW030 BKN050 OVC090 15/11 A2979 RMK SC2SC4AC2 SLP087

CYUL;2010-09-10 02:00;CYUL 100200Z 36005KT 15SM FEW020 BKN100 OVC110 15/11 A2979 RMK SC1AC6AC2 SLP089

CYUL;2010-09-10 03:00;CYUL 100300Z 34006KT 15SM FEW018 BKN090 BKN110 14/10 A2981 RMK SC1AC6AC2 SLP094

CYUL;2010-09-10 04:00;CYUL 100400Z 35007KT 15SM FEW018 FEW085 BKN100 14/10 A2981 RMK SC1AC1AC6 SLP095

CYUL;2010-09-10 05:00;CYUL 100500Z 35006KT 15SM FEW110 13/10 A2982 RMK AC2 SLP097

CYUL;2010-09-10 06:00;CYUL 100600Z 32004KT 15SM FEW085 11/09 A2982 RMK AC2 SLP099

CYUL;2010-09-10 07:00;CYUL 100700Z 32006KT 15SM SCT085 12/09 A2982 RMK AC3 SLP100

CYUL;2010-09-10 08:00;CYUL 100800Z 33007KT 15SM FEW090 FEW130 11/09 A2983 RMK AC1AC1 SLP102

CYUL;2010-09-10 09:00;CYUL 100900Z 32005KT 15SM FEW130 11/09 A2984 RMK AC1 SLP107

CYUL;2010-09-10 10:00;CYUL 101000Z 31005KT 15SM BKN072 11/09 A2985 RMK AC7 SLP111

CYUL;2010-09-10 11:00;CYUL 101100Z 31006KT 30SM FEW075 12/09 A2987 RMK AC2 SLP117

CYUL;2010-09-10 12:00;CYUL 101200Z 30006KT 30SM SCT045 13/10 A2988 RMK SC3 SLP120

CYUL;2010-09-10 13:00;CYUL 101300Z 33007KT 30SM FEW020 FEW045 15/10 A2988 RMK CU1SC2 SLP120

CYUL;2010-09-10 14:00;CYUL 101400Z 02009KT 30SM FEW055 BKN070 16/09 A2988 RMK CU2AC5 SLP121

CYUL;2010-09-10 15:00;CYUL 101500Z 34007KT 30SM FEW055 BKN070 17/10 A2989 RMK CU1AC6 SLP123

CYUL;2010-09-10 16:00;CYUL 101600Z 29010KT 30SM FEW055 BKN085 18/11 A2989 RMK CU2AC2 SLP122

CYUL;2010-09-10 17:00;CYUL 101700Z 32009KT 30SM SCT056 BKN150 19/11 A2988 RMK CU4AC0 SLP120

CYUL;2010-09-10 18:00;CYUL 101800Z 31007KT 30SM BKN045 BKN150 19/12 A2987 RMK CU5AC0 SLP116

CYUL;2010-09-10 19:00;CYUL 101900Z 28007KT 30SM BKN060 BKN150 21/12 A2986 RMK CU5AC1 SLP112

CYUL;2010-09-10 20:00;CYUL 102000Z 30006KT 30SM SCT065 22/10 A2985 RMK CU4 SLP109

CYUL;2010-09-10 21:00;CYUL 102100Z 27009KT 30SM SCT075 21/11 A2985 RMK AC3 SLP110

CYUL;2010-09-10 22:00;CYUL 102200Z 35007KT 30SM FEW065 21/08 A2986 RMK CU2 SLP113

CYUL;2010-09-10 23:00;CYUL 102300Z 35006KT 30SM FEW065 20/08 A2988 RMK CU2 SLP120

CYUL;2010-09-11 00:00;CYUL 110000Z 35005KT 15SM FEW065 17/07 A2991 RMK CU1 SLP128

CYUL;2010-09-11 01:00;CYUL 110100Z 32005KT 15SM SKC 14/08 A2993 RMK SLP135

CYUL;2010-09-11 02:00;CYUL 110200Z 32004KT 15SM SKC 14/09 A2993 RMK SLP138

CYUL;2010-09-11 03:00;CYUL 110300Z 35004KT 15SM SKC 14/08 A2995 RMK SLP144

CYUL;2010-09-11 04:00;CYUL 110400Z 00000KT 15SM FEW150 13/08 A2996 RMK AC1 SLP147

CYUL;2010-09-11 05:00;CYUL 110500Z 35002KT 15SM SKC 11/08 A2997 RMK SLP150

CYUL;2010-09-11 06:00;CYUL 110600Z 34002KT 15SM SKC 10/08 A2997 RMK SLP150

CYUL;2010-09-11 07:00;CYUL 110700Z 34002KT 15SM SKC 10/08 A2997 RMK SLP151

CYUL;2010-09-11 08:00;CYUL 110800Z 00000KT 15SM SKC 11/08 A2998 RMK SLP153

CYUL;2010-09-11 09:00;CYUL 110900Z 00000KT 15SM SKC 11/07 A2999 RMK SLP158

CYUL;2010-09-11 10:00;CYUL 111000Z 23003KT 15SM SKC 09/07 A3000 RMK SLP161

CYUL;2010-09-11 11:00;CYUL 111100Z 27004KT 30SM SKC 09/07 A3003 RMK SLP169

CYUL;2010-09-11 12:00;CYUL 111200Z 00000KT 30SM SKC 13/09 A3004 RMK SLP173

CYUL;2010-09-11 13:00;CYUL 111300Z 34002KT 30SM FEW240 15/08 A3006 RMK CI1 SLP180

CYUL;2010-09-11 14:00;CYUL 111400Z 35002KT 30SM FEW240 16/09 A3008 RMK CI1 SLP186

CYUL;2010-09-11 15:00;CYUL 111500Z 00000KT 30SM FEW240 18/09 A3007 RMK CI1 SLP183

CYUL;2010-09-11 16:00;CYUL 111600Z 07002KT 30SM FEW240 20/10 A3006 RMK CI1 SLP179

CYUL;2010-09-11 17:00;CYUL 111700Z 23002KT 30SM FEW240 21/10 A3004 RMK CI1 SLP174

CYUL;2010-09-11 18:00;CYUL 111800Z 19005KT 30SM FEW050 FEW240 22/10 A3002 RMK CU1CI0 SLP167

CYUL;2010-09-11 19:00;CYUL 111900Z 18002KT 30SM FEW240 22/06 A3001 RMK CI0 SLP163

CYUL;2010-09-11 20:00;CYUL 112000Z 04004KT 30SM SCT240 22/07 A3000 RMK CI0 SLP159

CYUL;2010-09-11 21:00;CYUL 112100Z 12006KT 30SM BKN240 22/08 A2999 RMK CI0 SLP156

CYUL;2010-09-11 22:00;CYUL 112200Z 09005KT 30SM BKN240 22/06 A3000 RMK CI1 SLP159

CYUL;2010-09-11 23:00;CYUL 112300Z 08006KT 30SM BKN240 21/05 A3000 RMK CI1 SLP160

CYUL;2010-09-12 00:00;CYUL 120000Z 08004KT 15SM BKN240 20/06 A3001 RMK CI2 SLP163

CYUL;2010-09-12 01:00;CYUL 120100Z 08005KT 15SM BKN240 19/07 A3001 RMK CI2 SLP163

CYUL;2010-09-12 02:00;CYUL 120200Z 08008KT 15SM BKN240 19/07 A3001 RMK CI1 SLP162

CYUL;2010-09-12 03:00;CYUL 120300Z 09007KT 15SM OVC240 18/07 A3001 RMK CI2 SLP161

CYUL;2010-09-12 04:00;CYUL 120400Z 09009KT 15SM OVC240 18/07 A3000 RMK CI2 SLP160

CYUL;2010-09-12 05:00;CYUL 120500Z 09005KT 15SM OVC240 17/08 A3000 RMK CI2 SLP159

CYUL;2010-09-12 06:00;CYUL 120600Z 10005KT 15SM OVC240 16/08 A2999 RMK CI2 SLP157

CYUL;2010-09-12 07:00;CYUL 120700Z 06004KT 15SM OVC240 15/08 A2999 RMK CI2 SLP157

CYUL;2010-09-12 08:00;CYUL 120800Z 03006KT 15SM OVC240 13/09 A2998 RMK CI2 SLP153

CYUL;2010-09-12 09:00;CYUL 120900Z 03006KT 15SM OVC240 12/09 A2998 RMK CI5 SLP153

CYUL;2010-09-12 10:00;CYUL 121000Z 03006KT 15SM OVC240 13/09 A2999 RMK CI6 SLP155

CYUL;2010-09-12 11:00;CYUL 121100Z 13004KT 30SM FEW075 OVC240 14/11 A2999 RMK AC2CI5 SLP155

CYUL;2010-09-12 12:00;CYUL 121200Z 12008KT 30SM BKN075 OVC240 15/11 A2998 RMK AC6CI2 SLP153

CYUL;2010-09-12 13:00;CYUL 121300Z 14011KT 30SM SCT075 BKN170 OVC240 16/12 A2997 RMK AC3AS4CI1 SLP150

CYUL;2010-09-12 14:00;CYUL 121400Z 15009KT 30SM BKN075 OVC150 17/12 A2998 RMK AC6AC2 SLP152

CYUL;2010-09-12 14:32;CYUL 121432Z 15011KT 30SM -SHRA BKN075 OVC120 17/ RMK AC6AC2

CYUL;2010-09-12 15:00;CYUL 121500Z 15010KT 15SM BKN070 OVC120 18/12 A2998 RMK AC6AC2 SLP153

CYUL;2010-09-12 15:42;CYUL 121542Z 15008KT 15SM -SHRA SCT065 BKN080 OVC120 18/ RMK SC3AC2AC2

CYUL;2010-09-12 16:00;CYUL 121600Z 15006KT 15SM -SHRA SCT050 BKN080 OVC110 18/13 A2998 RMK SC3AC3AC2 SLP152

CYUL;2010-09-12 17:00;CYUL 121700Z 15008KT 15SM FEW065 SCT090 OVC130 19/13 A2996 RMK SC2AC2AC3 SLP147

CYUL;2010-09-12 18:00;CYUL 121800Z 16013KT 15SM FEW055 SCT110 BKN210 20/12 A2996 RMK SC2AC2CC2 SLP146

CYUL;2010-09-12 18:12;CYUL 121812Z 15014G19KT 15SM BKN053 BKN130 OVC210 20/ RMK SC5AC1CC2

CYUL;2010-09-12 19:00;CYUL 121900Z 17013G18KT 15SM BKN046 OVC100 20/12 A2995 RMK SC5AC3 SLP143

CYUL;2010-09-12 19:38;CYUL 121938Z 18014G19KT 15SM -SHRA BKN046 OVC100 19/ RMK SC6AC2

CYUL;2010-09-12 19:52;CYUL 121952Z 17015KT 15SM BKN050 OVC090 19/ RMK SC6AC2

CYUL;2010-09-12 19:55;CYUL 121955Z 17015KT 15SM BKN050 OVC090 19/ RMK SC6AC2

CYUL;2010-09-12 20:00;CYUL 122000Z 18014G19KT 30SM BKN052 OVC090 19/11 A2995 RMK SC6AC2 SLP143

CYUL;2010-09-12 21:00;CYUL 122100Z 17016KT 30SM BKN055 OVC085 18/11 A2995 RMK SC7AC1 SLP144

CYUL;2010-09-12 21:47;CYUL 122147Z 16013KT 30SM -SHRA BKN047 OVC080 17/ RMK SC7AC1

CYUL;2010-09-12 22:00;CYUL 122200Z 16012G17KT 30SM -SHRA BKN045 OVC090 17/11 A2995 RMK SC7AC1 SLP143

CYUL;2010-09-12 22:35;CYUL 122235Z 17015KT 30SM OVC042 17/ RMK SC8

CYUL;2010-09-12 23:00;CYUL 122300Z 16015G20KT 15SM OVC040 17/10 A2995 RMK SC8 SLP143

CYUL;2010-09-13 00:00;CYUL 130000Z 16011G16KT 15SM OVC039 17/10 A2995 RMK SC8 SLP143

CYUL;2010-09-13 00:28;CYUL 130028Z 17012KT 15SM -SHRA OVC035 16/ RMK SC8

CYUL;2010-09-13 00:46;CYUL 130046Z 16011KT 15SM OVC036 16/ RMK SC8

CYUL;2010-09-13 01:00;CYUL 130100Z 16011KT 15SM OVC035 16/11 A2995 RMK SC8 SLP144

CYUL;2010-09-13 02:00;CYUL 130200Z 17011KT 15SM -SHRA OVC030 16/11 A2995 RMK SC8 SLP142

CYUL;2010-09-13 02:27;CYUL 130227Z 18010KT 15SM OVC030 16/ RMK SC8

CYUL;2010-09-13 03:00;CYUL 130300Z 17009KT 15SM OVC028 16/12 A2994 RMK SC8 SLP141

CYUL;2010-09-13 04:00;CYUL 130400Z 17009KT 15SM OVC025 16/11 A2993 RMK SC8 SLP135

CYUL;2010-09-13 05:00;CYUL 130500Z 17009KT 15SM -SHRA OVC023 16/12 A2992 RMK SC8 SLP132

CYUL;2010-09-13 06:00;CYUL 130600Z 17008KT 15SM -SHRA OVC022 15/12 A2991 RMK SC8 SLP127

CYUL;2010-09-13 06:34;CYUL 130634Z 19008KT 15SM BKN020 OVC035 15/ RMK SC6SC2

CYUL;2010-09-13 07:00;CYUL 130700Z 20009KT 15SM BKN018 OVC035 16/13 A2990 RMK SC6SC2 SLP125

CYUL;2010-09-13 08:00;CYUL 130800Z 22011KT 15SM BKN015 BKN025 16/13 A2989 RMK SC5SC2 SLP123

CYUL;2010-09-13 08:45;CYUL 130845Z 23006KT 15SM BKN013 BKN022 16/ RMK SC5SC2

CYUL;2010-09-13 09:00;CYUL 130900Z 22005KT 15SM BKN012 15/13 A2989 RMK SC6 SLP121

CYUL;2010-09-13 10:00;CYUL 131000Z 19006KT 15SM SCT013 BKN060 BKN080 15/13 A2988 RMK SC3SC2AC1 SLP119

CYUL;2010-09-13 11:00;CYUL 131100Z 17008KT 15SM FEW013 SCT030 BKN090 14/13 A2988 RMK SC2SC1AC4 SLP120

CYUL;2010-09-13 12:00;CYUL 131200Z 16009KT 15SM FEW015 FEW030 BKN070 BKN150 15/13 A2987 RMK SC1SC2AC4AC1 SLP116

CYUL;2010-09-13 13:00;CYUL 131300Z 21006KT 30SM FEW015 BKN030 OVC070 15/12 A2988 RMK SC1SC6AC2 SLP118

CYUL;2010-09-13 13:44;CYUL 131344Z 24004KT 30SM BKN013 OVC080 16/ RMK SC6AC2

CYUL;2010-09-13 14:00;CYUL 131400Z 24009KT 15SM BKN016 OVC080 16/13 A2988 RMK SC6AC2 SLP117

CYUL;2010-09-13 14:08;CYUL 131408Z 27007KT 15SM -SHRA BKN016 OVC057 16/ RMK SC6SC2

CYUL;2010-09-13 14:22;CYUL 131422Z 25009KT 12SM -SHRA SCT016 OVC056 16/ RMK SC3SC5

CYUL;2010-09-13 15:00;CYUL 131500Z 23004KT 10SM -RA SCT017 OVC070 15/13 A2987 RMK SC3AC5 SLP115

CYUL;2010-09-13 16:00;CYUL 131600Z 23012KT 10SM -RA FEW015 BKN055 OVC070 14/12 A2986 RMK SC2SC6AC1 SLP113

CYUL;2010-09-13 16:29;CYUL 131629Z 25008KT 12SM -RA BKN008 OVC020 14/ RMK SF6SC2

CYUL;2010-09-13 16:50;CYUL 131650Z 25005KT 12SM -RA SCT008 BKN012 OVC060 15/ RMK SF3SF2SC2

CYUL;2010-09-13 17:00;CYUL 131700Z 25006KT 15SM -RA FEW008 SCT012 BKN060 15/14 A2985 RMK SF2SF2SC2 SLP108

CYUL;2010-09-13 17:20;CYUL 131720Z 23006KT 15SM FEW008 FEW012 SCT060 BKN110 16/ RMK SF1SF2SC2AC2

CYUL;2010-09-13 18:00;CYUL 131800Z 21009KT 15SM FEW015 SCT060 SCT240 18/14 A2983 RMK SF1SC3CI1 SLP100

CYUL;2010-09-13 19:00;CYUL 131900Z 23009KT 15SM FEW060 19/12 A2981 RMK CU2 SLP095

CYUL;2010-09-13 20:00;CYUL 132000Z 22007KT 30SM FEW055 FEW150 19/12 A2980 RMK CU2AC1 SLP090

CYUL;2010-09-13 21:00;CYUL 132100Z 20007KT 30SM FEW060 SCT100 20/11 A2978 RMK CU2AC1 SLP086

CYUL;2010-09-13 22:00;CYUL 132200Z 23004KT 30SM SCT045 BKN110 20/12 A2978 RMK CU3AC1 SLP086

CYUL;2010-09-13 23:00;CYUL 132300Z 22007KT 15SM FEW045 SCT120 19/12 A2978 RMK CU1AC1 SLP085

CYUL;2010-09-14 00:00;CYUL 140000Z 21006KT 15SM FEW120 BKN240 18/12 A2979 RMK AC1CI0 SLP087

CYUL;2010-09-14 01:00;CYUL 140100Z 21006KT 15SM FEW050 FEW090 BKN210 17/13 A2979 RMK SC1AC2CI2 SLP089

CYUL;2010-09-14 02:00;CYUL 140200Z 22008KT 15SM FEW070 BKN200 17/13 A2979 RMK AC2CI2 ACC ASOCTD SLP089

CYUL;2010-09-14 03:00;CYUL 140300Z 27007KT 15SM FEW030 SCT055 BKN090 BKN210 16/12 A2980 RMK SC1SC2AC2CI1 SLP091

CYUL;2010-09-14 03:48;CYUL 140348Z 29008KT 15SM -SHRA SCT045 BKN080 BKN120 OVC210 15/ RMK SC3AC2AC2CI1

CYUL;2010-09-14 04:00;CYUL 140400Z 29006KT 15SM -SHRA SCT045 BKN075 OVC120 15/10 A2978 RMK SC3AC3AC2 SLP085

CYUL;2010-09-14 05:00;CYUL 140500Z 24006KT 15SM -SHRA FEW015 FEW050 OVC090 14/11 A2978 RMK CF1SC1AC7 SLP085

CYUL;2010-09-14 06:00;CYUL 140600Z 25006KT 15SM FEW040 SCT090 BKN210 14/11 A2977 RMK SC2AC2CI2 SLP082

CYUL;2010-09-14 07:00;CYUL 140700Z 26004KT 15SM FEW030 BKN060 BKN160 13/11 A2977 RMK SC1SC4AS2 SLP080

CYUL;2010-09-14 08:00;CYUL 140800Z 23006KT 15SM FEW030 SCT060 13/11 A2976 RMK SC1SC3 SLP078

CYUL;2010-09-14 09:00;CYUL 140900Z 24006KT 15SM FEW015 BKN080 BKN120 13/11 A2977 RMK SC1AC4AC2 SLP081

CYUL;2010-09-14 09:08;CYUL 140908Z 23007KT 15SM BKN011 BKN080 13/ RMK SF5AC2

CYUL;2010-09-14 09:38;CYUL 140938Z 25008KT 15SM SCT011 BKN080 BKN120 13/ RMK SF3AC2AC2

CYUL;2010-09-14 10:00;CYUL 141000Z 25010KT 15SM FEW011 BKN060 OVC110 13/11 A2978 RMK SF2SC3AC2 SLP085

CYUL;2010-09-14 10:48;CYUL 141048Z 23009KT 10SM BKN010 OVC050 13/ RMK SF6SC2

CYUL;2010-09-14 11:00;CYUL 141100Z 24011KT 10SM BKN010 OVC050 13/11 A2980 RMK SF6SC2 SLP091

CYUL;2010-09-14 11:16;CYUL 141116Z 25008KT 10SM BKN009 OVC050 13/ RMK SF7SC1

CYUL;2010-09-14 12:00;CYUL 141200Z 25008KT 10SM OVC008 13/11 A2981 RMK ST8 SLP095

CYUL;2010-09-14 13:00;CYUL 141300Z 27009KT 12SM BKN009 OVC014 14/11 A2982 RMK SF6SC2 SLP099

CYUL;2010-09-14 13:33;CYUL 141333Z 27009KT 15SM SCT009 BKN014 BKN080 14/ RMK SF3SF2AC2

CYUL;2010-09-14 14:00;CYUL 141400Z 27008KT 15SM FEW009 BKN015 BKN090 15/12 A2983 RMK SF1SF4AC0 SLP102

CYUL;2010-09-14 15:00;CYUL 141500Z 28005KT 15SM BKN042 BKN100 16/10 A2983 RMK SC6AC1 SLP103

CYUL;2010-09-14 16:00;CYUL 141600Z 27010G15KT 15SM BKN030 BKN100 17/11 A2983 RMK SC5AC1 TCU ASOCT SLP103

CYUL;2010-09-14 16:33;CYUL 141633Z CCA 27014G19KT 15SM -SHRA BKN030 BKN050 16/ RMK SC6SC2 TCU ASOCT

CYUL;2010-09-14 16:55;CYUL 141655Z 27010KT 15SM BKN030 BKN070 17/ RMK SC5AC2 TCU ASOCT

CYUL;2010-09-14 17:00;CYUL 141700Z CCA 27010G15KT 15SM BKN030 BKN090 16/11 A2983 RMK SC5AC0 TCU ASOCT SLP101

CYUL;2010-09-14 18:00;CYUL 141800Z 27012G17KT 15SM FEW035 BKN100 18/09 A2982 RMK CU2AC1 TCU ASOCT SLP097

CYUL;2010-09-14 18:50;CYUL 141850Z 30012G18KT 15SM -SHRA BKN038 BKN100 17/ RMK SC5AC1 TCU ASOCT

CYUL;2010-09-14 19:00;CYUL 141900Z 25011G17KT 15SM -SHRA BKN030 BKN060 15/10 A2983 RMK SC5SC2 RERA VIS S 2 SLP102

CYUL;2010-09-14 19:20;CYUL 141920Z 23010KT 15SM SCT035 BKN090 16/ RMK SC3AC2

CYUL;2010-09-14 20:00;CYUL 142000Z 25015KT 15SM FEW030TCU BKN060 BKN120 16/11 A2983 RMK TCU1SC5AC1 SLP103

CYUL;2010-09-14 20:02;CYUL 142002Z 26015KT 15SM -SHRA FEW030TCU BKN060 BKN120 16/ RMK TCU1SC5AC1

CYUL;2010-09-14 20:27;CYUL 142027Z 29004KT 15SM FEW030TCU BKN080 BKN120 15/ RMK TCU2AC5AC1

CYUL;2010-09-14 21:00;CYUL 142100Z 28009KT 30SM FEW030TCU BKN065 BKN085 15/11 A2983 RMK TCU1SC6AC1 SLP104

CYUL;2010-09-14 22:00;CYUL 142200Z 28011KT 15SM SCT040 BKN100 15/10 A2984 RMK SC3AC2 TCU ASOCT SLP107

CYUL;2010-09-14 22:36;CYUL 142236Z 30007KT 15SM -SHRA FEW035TCU BKN065 BKN095 14/ RMK TCU1SC5AC1

CYUL;2010-09-14 22:55;CYUL 142255Z 30006KT 15SM FEW035TCU BKN065 BKN090 14/ RMK TCU1SC4AC1

CYUL;2010-09-14 23:00;CYUL 142300Z 30006KT 15SM FEW035TCU SCT065 BKN090 BKN160 13/09 A2985 RMK TCU1SC3AC2AC0 SLP110

CYUL;2010-09-15 00:00;CYUL 150000Z 31008KT 15SM FEW035TCU BKN063 BKN100 14/08 A2988 RMK TCU1SC6AC2 SLP120

CYUL;2010-09-15 01:00;CYUL 150100Z 31004KT 15SM FEW090 BKN150 12/08 A2988 RMK AC2AC0 SLP121

CYUL;2010-09-15 02:00;CYUL 150200Z 29003KT 15SM FEW070 BKN100 11/08 A2989 RMK AC1AC6 SLP123

CYUL;2010-09-15 03:00;CYUL 150300Z 27004KT 15SM FEW080 BKN110 12/09 A2989 RMK AC1AC6 SLP122

CYUL;2010-09-15 04:00;CYUL 150400Z 31003KT 15SM FEW070 SCT120 BKN210 10/07 A2988 RMK AC2AC2CI0 SLP121

CYUL;2010-09-15 05:00;CYUL 150500Z 26008KT 15SM BKN064 BKN090 12/08 A2990 RMK SC5AC2 SLP127

CYUL;2010-09-15 06:00;CYUL 150600Z 28005KT 15SM FEW060 BKN085 12/08 A2991 RMK SC2AC6 SLP128

CYUL;2010-09-15 07:00;CYUL 150700Z 28006KT 15SM FEW015 BKN090 11/09 A2992 RMK CF1AC6 SLP132

CYUL;2010-09-15 07:35;CYUL 150735Z 27004KT 15SM -SHRA FEW015 BKN065 BKN090 11/ RMK CF1SC5AC2

CYUL;2010-09-15 08:00;CYUL 150800Z 27008KT 15SM FEW015 BKN058 BKN090 11/09 A2993 RMK CF1SC6AC1 SLP135

CYUL;2010-09-15 09:00;CYUL 150900Z 30006KT 15SM FEW010 BKN053 11/08 A2995 RMK SF1SC6 SLP142

CYUL;2010-09-15 10:00;CYUL 151000Z 29005KT 15SM FEW010 FEW060 09/07 A2997 RMK SF1SC2 SLP149

CYUL;2010-09-15 11:00;CYUL 151100Z 27005KT 15SM FEW010 FEW060 09/07 A3000 RMK SC1SC2 SLP159

CYUL;2010-09-15 12:00;CYUL 151200Z 29010KT 15SM FEW010 FEW060 FEW120 10/08 A3001 RMK SC1SC2AC1 SLP162

CYUL;2010-09-15 13:00;CYUL 151300Z 30010KT 15SM FEW010 FEW060 BKN120 12/08 A3001 RMK CF1SC1AC5 SLP163

CYUL;2010-09-15 14:00;CYUL 151400Z 31011KT 15SM FEW013 FEW060 BKN130 12/07 A3001 RMK CF1CU1AC2 SLP165

CYUL;2010-09-15 15:00;CYUL 151500Z 32008G17KT 30SM SCT035 BKN140 14/07 A3003 RMK SC3AC1 TCU ASOCT SLP171

CYUL;2010-09-15 15:18;CYUL 151518Z 30010KT 30SM BKN035 BKN100 13/ RMK SC6AC1 TCU ASOCT

CYUL;2010-09-15 16:00;CYUL 151600Z 27010KT 30SM BKN042 BKN090 14/07 A3003 RMK SC6AC1 SLP170

CYUL;2010-09-15 17:00;CYUL 151700Z 28013G18KT 30SM BKN043 OVC090 14/07 A3003 RMK SC7AC1 SLP171

CYUL;2010-09-15 18:00;CYUL 151800Z 30015KT 30SM BKN050 OVC090 14/07 A3003 RMK SC6AC2 SLP169

CYUL;2010-09-15 19:00;CYUL 151900Z 29012G18KT 30SM BKN036 BKN090 OVC210 14/07 A3003 RMK SC6AC1CI0 SLP169

CYUL;2010-09-15 20:00;CYUL 152000Z 27011G16KT 30SM FEW035 BKN057 BKN090 15/07 A3004 RMK SC2SC2AC1 SLP172

CYUL;2010-09-15 21:00;CYUL 152100Z 28015KT 30SM FEW035 BKN065 15/07 A3005 RMK SC2SC5 SLP176

CYUL;2010-09-15 22:00;CYUL 152200Z 27010KT 30SM FEW065 FEW090 15/08 A3005 RMK CU1AC1 SLP176

CYUL;2010-09-15 23:00;CYUL 152300Z 27009KT 15SM FEW065 FEW210 14/08 A3006 RMK SC1CI1 SLP181

CYUL;2010-09-16 00:00;CYUL 160000Z 25012KT 15SM SCT053 13/08 A3009 RMK SC2 SLP190

CYUL;2010-09-16 01:00;CYUL 160100Z 26011G17KT 15SM BKN058 13/08 A3009 RMK SC5 SLP192

CYUL;2010-09-16 02:00;CYUL 160200Z 27005KT 15SM SCT058 13/08 A3010 RMK SC3 SLP195

CYUL;2010-09-16 03:00;CYUL 160300Z 26005KT 15SM SCT050 12/08 A3012 RMK SC3 SLP200

CYUL;2010-09-16 04:00;CYUL 160400Z 28005KT 15SM BKN050 12/09 A3011 RMK SC6 SLP197

CYUL;2010-09-16 05:00;CYUL 160500Z 31007KT 15SM SCT050 12/08 A3011 RMK SC3 SLP196

CYUL;2010-09-16 06:00;CYUL 160600Z 32002KT 15SM FEW050 10/08 A3009 RMK SC1 SLP191

CYUL;2010-09-16 07:00;CYUL 160700Z 25004KT 15SM FEW015 10/08 A3009 RMK CF1 SLP189

CYUL;2010-09-16 08:00;CYUL 160800Z 24004KT 15SM FEW015 09/07 A3009 RMK CF1 SLP192

CYUL;2010-09-16 09:00;CYUL 160900Z 27003KT 15SM FEW015 BKN210 08/08 A3009 RMK SC1CI5 SLP192

CYUL;2010-09-16 10:00;CYUL 161000Z 27003KT 15SM FEW020 FEW050 BKN160 08/07 A3011 RMK SC1SC2AC4 SLP196

CYUL;2010-09-16 11:00;CYUL 161100Z 24004KT 15SM FEW040 BKN150 11/09 A3011 RMK SC1AC6 SLP198

CYUL;2010-09-16 12:00;CYUL 161200Z 00000KT 30SM FEW030 BKN130 11/09 A3010 RMK SC1AC6 SLP194

CYUL;2010-09-16 13:00;CYUL 161300Z 00000KT 30SM FEW018 FEW040 OVC110 12/08 A3009 RMK SC1SC2AC6 SLP189

CYUL;2010-09-16 14:00;CYUL 161400Z 00000KT 30SM FEW020 BKN045 OVC110 13/10 A3007 RMK SF1SC5AC2 SLP183

CYUL;2010-09-16 15:00;CYUL 161500Z 22002KT 30SM FEW020 BKN042 OVC090 13/09 A3006 RMK CF1SC7AC1 SLP179

CYUL;2010-09-16 16:00;CYUL 161600Z 00000KT 30SM FEW020 OVC042 14/08 A3004 RMK CU1SC8 SLP172

CYUL;2010-09-16 17:00;CYUL 161700Z 00000KT 30SM FEW020 OVC045 14/07 A3001 RMK CU1SC7 SLP165

CYUL;2010-09-16 18:00;CYUL 161800Z 05006KT 30SM FEW030 OVC044 14/08 A2998 RMK CU1SC8 SLP153

CYUL;2010-09-16 18:35;CYUL 161835Z 06007KT 30SM -SHRA FEW030 OVC044 14/ RMK CU1SC8

CYUL;2010-09-16 19:00;CYUL 161900Z 07007KT 12SM -SHRA FEW030 SCT055 OVC080 13/09 A2998 RMK CU1SC3AC5 SLP154

CYUL;2010-09-16 20:00;CYUL 162000Z 06011KT 12SM -RA FEW030 OVC070 12/09 A2994 RMK CU1AC8 SLP140

CYUL;2010-09-16 21:00;CYUL 162100Z 06011KT 10SM -RA BKN037 OVC060 11/09 A2991 RMK SC6SC2 SLP129

CYUL;2010-09-16 22:00;CYUL 162200Z 06015KT 10SM -RA BKN033 OVC050 11/08 A2988 RMK SC6SC2 SLP118

CYUL;2010-09-16 22:52;CYUL 162252Z 05014KT 4SM -RA BKN011 OVC050 10/ RMK SF6SC2

CYUL;2010-09-16 23:00;CYUL 162300Z 05013KT 4SM -RA BKN011 OVC060 11/09 A2987 RMK SF7SC1 SLP116

CYUL;2010-09-16 23:11;CYUL 162311Z 05012KT 4SM -RA BKN008 OVC012 10/ RMK SF5SF3

CYUL;2010-09-17 00:00;CYUL 170000Z 05016KT 4SM -RA BKN008 OVC020 10/09 A2985 RMK SF6SC2 RERA /R11/ SLP110

CYUL;2010-09-17 00:10;CYUL 170010Z 05015KT 4SM -RA SCT008 OVC014 10/ RMK SF3SF5

CYUL;2010-09-17 01:00;CYUL 170100Z 04014G19KT 4SM -RA SCT007 BKN012 OVC025 10/09 A2985 RMK SF3SF4SC1 SLP108

CYUL;2010-09-17 02:00;CYUL 170200Z 05013G20KT 10SM -RA FEW007 BKN013 BKN027 OVC037 10/09 A2982 RMK SF2SF2SC3SC1 SLP098

CYUL;2010-09-17 02:09;CYUL 170209Z 05018G25KT 8SM -RA SCT007 BKN013 OVC027 10/ RMK SF2SF4SC2

CYUL;2010-09-17 02:26;CYUL 170226Z 05020KT 8SM -RA FEW008 SCT014 BKN024 OVC030 10/ RMK SF1SF3SC3SC1

CYUL;2010-09-17 03:00;CYUL 170300Z CCA 04013G22KT 8SM -RA FEW009 SCT014 BKN024 OVC035 10/08 A2982 RMK SF1SF3SC3SC1 SLP098

CYUL;2010-09-17 03:35;CYUL 170335Z 02012G17KT 8SM -RA FEW007 BKN014 OVC025 10/ RMK SF2SF4SC2

CYUL;2010-09-17 03:51;CYUL 170351Z 02014KT 8SM -RA BKN007 OVC017 09/ RMK SF5SC3

CYUL;2010-09-17 04:00;CYUL 170400Z 02015KT 8SM -RA SCT007 BKN015 OVC025 09/08 A2982 RMK SF3SC4SC1 SLP100

CYUL;2010-09-17 04:38;CYUL 170438Z 02016KT 10SM -RA BKN008 OVC018 09/ RMK SF6SC2

CYUL;2010-09-17 05:00;CYUL 170500Z 02014G20KT 12SM -RA SCT008 BKN013 OVC025 09/08 A2983 RMK SF3SF3SC2 SLP103

CYUL;2010-09-17 05:49;CYUL 170549Z 02016KT 12SM -RA FEW012 BKN032 OVC060 09/ RMK SF2SC2SC4

CYUL;2010-09-17 06:00;CYUL 170600Z 02015KT 12SM -DZ FEW016 BKN030 OVC060 09/08 A2984 RMK SF2SC5SC2 SLP107

CYUL;2010-09-17 06:30;CYUL 170630Z 02013G18KT 12SM FEW018 BKN032 OVC060 09/ RMK SF2SC5SC2

CYUL;2010-09-17 06:40;CYUL 170640Z 01013G19KT 12SM SCT014 BKN020 OVC060 09/ RMK SF3SC3SC2

CYUL;2010-09-17 07:00;CYUL 170700Z 03012KT 15SM FEW018 BKN030 OVC060 09/07 A2986 RMK SF1SC6SC2 SLP113

CYUL;2010-09-17 08:00;CYUL 170800Z 02010KT 15SM OVC038 10/08 A2987 RMK SC8 SLP115

CYUL;2010-09-17 09:00;CYUL 170900Z 02009KT 15SM OVC042 10/07 A2990 RMK SC8 SLP127

CYUL;2010-09-17 10:00;CYUL 171000Z 01011KT 15SM FEW043 BKN055 10/06 A2993 RMK SC2SC5 SLP135

CYUL;2010-09-17 11:00;CYUL 171100Z 01008KT 15SM SCT055 09/05 A2995 RMK SC3 SLP144

CYUL;2010-09-17 12:00;CYUL 171200Z 01008KT 15SM FEW055 09/05 A2999 RMK SC1 SLP157

CYUL;2010-09-17 13:00;CYUL 171300Z 01008KT 30SM FEW025 FEW055 FEW240 11/05 A3002 RMK SC1SC1CI0 SLP167

CYUL;2010-09-17 14:00;CYUL 171400Z 03010KT 30SM FEW025 FEW055 12/06 A3004 RMK CU1SC1 SLP173

CYUL;2010-09-17 15:00;CYUL 171500Z 01006KT 30SM FEW025 14/07 A3006 RMK CU1 SLP179

CYUL;2010-09-17 16:00;CYUL 171600Z 33007KT 30SM SCT032 14/08 A3007 RMK CU3 SLP182

CYUL;2010-09-17 17:00;CYUL 171700Z 36003KT 30SM SCT035 SCT240 14/07 A3007 RMK CU3CI1 SLP184

CYUL;2010-09-17 18:00;CYUL 171800Z 29005KT 30SM FEW040 FEW240 15/07 A3007 RMK CU2CI1 SLP183

CYUL;2010-09-17 19:00;CYUL 171900Z 22004KT 30SM FEW040 FEW240 17/07 A3007 RMK CU1CI1 SLP182

CYUL;2010-09-17 20:00;CYUL 172000Z 27004KT 30SM FEW045 FEW240 17/08 A3007 RMK CU1CI1 SLP182

CYUL;2010-09-17 21:00;CYUL 172100Z 28006KT 30SM FEW050 FEW240 17/07 A3008 RMK CU1CI1 SLP186

CYUL;2010-09-17 22:00;CYUL 172200Z 25006KT 30SM FEW060 FEW240 17/06 A3009 RMK SC1CI0 SLP190

CYUL;2010-09-17 23:00;CYUL 172300Z 21007KT 30SM FEW240 16/07 A3010 RMK CI0 SLP195

CYUL;2010-09-18 00:00;CYUL 180000Z 24004KT 15SM FEW240 15/08 A3012 RMK CI0 SLP199

CYUL;2010-09-18 01:00;CYUL 180100Z 24005KT 15SM FEW240 15/09 A3012 RMK CI0 SLP202

CYUL;2010-09-18 02:00;CYUL 180200Z 25004KT 15SM FEW240 14/09 A3013 RMK CI1 SLP205

CYUL;2010-09-18 03:00;CYUL 180300Z 22004KT 15SM SKC 13/08 A3015 RMK SLP211

CYUL;2010-09-18 04:00;CYUL 180400Z 24004KT 15SM SKC 12/07 A3015 RMK SLP212

CYUL;2010-09-18 05:00;CYUL 180500Z 21004KT 15SM SKC 11/07 A3016 RMK SLP215

CYUL;2010-09-18 06:00;CYUL 180600Z 23004KT 15SM SKC 11/08 A3017 RMK SLP218

CYUL;2010-09-18 07:00;CYUL 180700Z 24003KT 15SM SKC 10/08 A3017 RMK SLP218

CYUL;2010-09-18 08:00;CYUL 180800Z 23002KT 15SM SKC 09/08 A3017 RMK SLP219

CYUL;2010-09-18 09:00;CYUL 180900Z 23004KT 15SM SKC 08/08 A3019 RMK SLP223

CYUL;2010-09-18 10:00;CYUL 181000Z 25004KT 15SM FEW025 FEW240 08/07 A3020 RMK SF0CI0 SLP228

CYUL;2010-09-18 11:00;CYUL 181100Z 25005KT 15SM FEW022 FEW240 09/08 A3022 RMK SF1CI0 SLP234

CYUL;2010-09-18 12:00;CYUL 181200Z 25004KT 30SM FEW020 FEW240 12/10 A3022 RMK SF0CI1 SLP234

CYUL;2010-09-18 13:00;CYUL 181300Z 20007KT 30SM FEW020 FEW240 13/10 A3022 RMK CF1CI1 CONTRAIL SLP233

CYUL;2010-09-18 14:00;CYUL 181400Z 21008KT 30SM FEW020 BKN240 15/10 A3021 RMK CU1CI0 CONTRAILS SLP230

CYUL;2010-09-18 15:00;CYUL 181500Z 21009KT 30SM FEW025 BKN240 16/10 A3017 RMK CU1CI0 SLP219

CYUL;2010-09-18 16:00;CYUL 181600Z 23008KT 30SM SCT035 BKN240 17/09 A3015 RMK CU3CI0 SLP210

CYUL;2010-09-18 17:00;CYUL 181700Z 23007KT 30SM FEW040 SCT240 18/10 A3014 RMK CU2CI0 SLP207

CYUL;2010-09-18 18:00;CYUL 181800Z 23006KT 30SM FEW040 SCT240 18/09 A3011 RMK CU1CI0 SLP198

CYUL;2010-09-18 19:00;CYUL 181900Z 22005KT 30SM FEW045 FEW120 FEW240 20/10 A3008 RMK CF1AC1CI0 SLP187

CYUL;2010-09-18 20:00;CYUL 182000Z 19006KT 30SM FEW045 FEW150 BKN240 20/09 A3006 RMK CF1AC1CI1 CONTRAILS SLP179

CYUL;2010-09-18 21:00;CYUL 182100Z 23006KT 30SM FEW150 SCT240 21/10 A3004 RMK AC1CI0 SLP175

CYUL;2010-09-18 22:00;CYUL 182200Z 23007KT 30SM FEW050 FEW110 BKN240 20/10 A3004 RMK CF1AC2CI0 CC ASOCTD SLP174

CYUL;2010-09-18 23:00;CYUL 182300Z 20005KT 30SM FEW070 FEW085 SCT130 BKN240 18/10 A3004 RMK AC1AC2AC1CI0 SLP174

CYUL;2010-09-19 00:00;CYUL 190000Z 19006KT 15SM SCT055 OVC100 18/11 A3004 RMK SC4AC4 SLP175

CYUL;2010-09-19 01:00;CYUL 190100Z 25007KT 15SM OVC070 18/11 A3007 RMK AC8 SLP182

CYUL;2010-09-19 02:00;CYUL 190200Z 23005KT 15SM OVC070 18/12 A3006 RMK AC8 SLP181

CYUL;2010-09-19 03:00;CYUL 190300Z 25008KT 15SM BKN037 OVC062 17/12 A3007 RMK SC6SC2 SLP185

CYUL;2010-09-19 04:00;CYUL 190400Z 24008KT 15SM OVC037 17/12 A3007 RMK SC8 SLP182

CYUL;2010-09-19 05:00;CYUL 190500Z 24008KT 15SM BKN029 OVC060 17/12 A3007 RMK SC6SC2 SLP182

CYUL;2010-09-19 06:00;CYUL 190600Z 26010KT 15SM BKN040 OVC052 17/12 A3008 RMK SC6SC2 SLP186

CYUL;2010-09-19 07:00;CYUL 190700Z 29006KT 15SM OVC050 16/12 A3008 RMK SC8 SLP187

CYUL;2010-09-19 08:00;CYUL 190800Z 31005KT 15SM FEW048 BKN057 15/11 A3009 RMK SC2SC4 SLP189

CYUL;2010-09-19 09:00;CYUL 190900Z 32006KT 15SM FEW055 13/10 A3010 RMK SC1 SLP194

CYUL;2010-09-19 10:00;CYUL 191000Z 34006KT 15SM FEW055 SCT240 11/09 A3012 RMK SC2CI1 SLP199

CYUL;2010-09-19 11:00;CYUL 191100Z 34003KT 15SM SCT022 BKN240 10/08 A3014 RMK SC2CI2 SLP207

CYUL;2010-09-19 12:00;CYUL 191200Z 35004KT 15SM FEW022 BKN220 11/08 A3015 RMK SF1CI2 SLP211

CYUL;2010-09-19 13:00;CYUL 191300Z 34002KT 15SM FEW025 BKN210 12/08 A3015 RMK CF1CI2 SLP212

CYUL;2010-09-19 14:00;CYUL 191400Z 06003KT 30SM BKN025 BKN210 13/09 A3015 RMK SC4CI1 SLP210

CYUL;2010-09-19 15:00;CYUL 191500Z 06002KT 30SM BKN025 BKN210 15/08 A3015 RMK CU5CI1 SLP210

CYUL;2010-09-19 16:00;CYUL 191600Z 30003KT 30SM FEW030 FEW220 17/09 A3014 RMK CU2CI1 SLP206

CYUL;2010-09-19 17:00;CYUL 191700Z 23005KT 30SM FEW030 FEW240 17/10 A3012 RMK CU2CI1 SLP202

CYUL;2010-09-19 18:00;CYUL 191800Z 26009KT 30SM FEW040 FEW240 18/09 A3010 RMK CU1CI1 SLP195

CYUL;2010-09-19 19:00;CYUL 191900Z 20007KT 30SM FEW045 FEW240 17/08 A3009 RMK CU1CI1 SLP191

CYUL;2010-09-19 20:00;CYUL 192000Z 29002KT 30SM FEW045 FEW240 18/08 A3008 RMK CU1CI1 SLP186

CYUL;2010-09-19 21:00;CYUL 192100Z 27007KT 30SM FEW050 FEW240 19/06 A3007 RMK CU1CI1 SLP182

CYUL;2010-09-19 22:00;CYUL 192200Z 26007KT 30SM FEW050 FEW240 18/05 A3006 RMK SC1CI0 SLP181

CYUL;2010-09-19 23:00;CYUL 192300Z 27005KT 30SM FEW050 FEW240 16/06 A3007 RMK SC1CI0 SLP182

CYUL;2010-09-20 00:00;CYUL 200000Z 25004KT 15SM FEW050 FEW240 15/07 A3007 RMK SC1CI0 SLP185

CYUL;2010-09-20 01:00;CYUL 200100Z 28005KT 15SM FEW240 12/07 A3008 RMK CI0 SLP188

CYUL;2010-09-20 02:00;CYUL 200200Z 31007KT 15SM SKC 13/07 A3008 RMK SLP188

CYUL;2010-09-20 03:00;CYUL 200300Z 31005KT 15SM FEW240 11/06 A3008 RMK CI1 SLP188

CYUL;2010-09-20 04:00;CYUL 200400Z 30004KT 15SM FEW060 10/06 A3008 RMK SC1 SLP188

CYUL;2010-09-20 05:00;CYUL 200500Z 32006KT 15SM FEW062 10/07 A3008 RMK SC1 SLP186

CYUL;2010-09-20 06:00;CYUL 200600Z 32003KT 15SM SCT070 10/07 A3007 RMK AC2 SLP185

CYUL;2010-09-20 07:00;CYUL 200700Z 33005KT 15SM FEW070 10/07 A3008 RMK AC1 SLP186

CYUL;2010-09-20 08:00;CYUL 200800Z 32005KT 15SM FEW070 09/06 A3008 RMK AC1 SLP186

CYUL;2010-09-20 09:00;CYUL 200900Z 32003KT 15SM FEW060 08/06 A3009 RMK SC1 SLP189

CYUL;2010-09-20 10:00;CYUL 201000Z 00000KT 15SM FEW060 09/06 A3009 RMK SC1 SLP192

CYUL;2010-09-20 11:00;CYUL 201100Z 00000KT 15SM FEW060 08/05 A3010 RMK SC1 SLP194

CYUL;2010-09-20 12:00;CYUL 201200Z 34002KT 30SM FEW060 10/06 A3012 RMK SC1 SLP199

CYUL;2010-09-20 13:00;CYUL 201300Z 32003KT 30SM FEW060 12/06 A3012 RMK SC1 SLP201

CYUL;2010-09-20 14:00;CYUL 201400Z 34007KT 30SM FEW030 FEW070 14/07 A3014 RMK CU1AC1 SLP206

CYUL;2010-09-20 15:00;CYUL 201500Z 34008KT 30SM FEW045 16/05 A3013 RMK CU1 SLP203

CYUL;2010-09-20 16:00;CYUL 201600Z 34010G16KT 30SM FEW065 17/02 A3012 RMK CU2 SLP199

CYUL;2010-09-20 17:00;CYUL 201700Z 34013KT 30SM FEW065 18/03 A3009 RMK CU2 SLP192

CYUL;2010-09-20 18:00;CYUL 201800Z 29007KT 30SM FEW065 17/02 A3007 RMK CU2 SLP185

CYUL;2010-09-20 19:00;CYUL 201900Z 31007KT 30SM SCT065 18/04 A3006 RMK CU4 SLP180

CYUL;2010-09-20 20:00;CYUL 202000Z 31011KT 30SM FEW065 18/04 A3005 RMK CU2 SLP176

CYUL;2010-09-20 21:00;CYUL 202100Z 29010G16KT 30SM FEW065 18/04 A3005 RMK CU2 SLP176

CYUL;2010-09-20 22:00;CYUL 202200Z 29011KT 30SM FEW065 17/03 A3006 RMK CU2 SLP179

CYUL;2010-09-20 23:00;CYUL 202300Z 31007KT 30SM FEW070 14/04 A3007 RMK AC1 SLP182

CYUL;2010-09-21 00:00;CYUL 210000Z 31006KT 15SM FEW070 12/04 A3009 RMK AC1 SLP189

CYUL;2010-09-21 01:00;CYUL 210100Z 32004KT 15SM SKC 11/04 A3010 RMK SLP194

CYUL;2010-09-21 02:00;CYUL 210200Z 32004KT 15SM SKC 10/04 A3011 RMK SLP197

CYUL;2010-09-21 03:00;CYUL 210300Z 30005KT 15SM SKC 09/04 A3012 RMK SLP200

CYUL;2010-09-21 04:00;CYUL 210400Z 30005KT 15SM SKC 07/04 A3012 RMK SLP202

CYUL;2010-09-21 05:00;CYUL 210500Z 31003KT 15SM SKC 09/04 A3013 RMK SLP204

CYUL;2010-09-21 06:00;CYUL 210600Z 30006KT 15SM SKC 08/04 A3013 RMK SLP203

CYUL;2010-09-21 07:00;CYUL 210700Z 00000KT 15SM SKC 09/04 A3012 RMK SLP200

CYUL;2010-09-21 08:00;CYUL 210800Z 00000KT 15SM SKC 09/04 A3012 RMK SLP201

CYUL;2010-09-21 09:00;CYUL 210900Z 36003KT 15SM SKC 08/04 A3014 RMK SLP206

CYUL;2010-09-21 10:00;CYUL 211000Z 27002KT 15SM BKN240 06/03 A3015 RMK CI2 SLP210

CYUL;2010-09-21 11:00;CYUL 211100Z 28002KT 30SM BKN240 08/05 A3015 RMK CI3 SLP209

CYUL;2010-09-21 12:00;CYUL 211200Z 26004KT 30SM BKN240 09/06 A3017 RMK CI3 SLP219

CYUL;2010-09-21 13:00;CYUL 211300Z 22005KT 30SM BKN150 BKN220 11/06 A3013 RMK AC5CI2 SLP203

CYUL;2010-09-21 13:49;CYUL 211349Z 22009KT 30SM -SHRA BKN150 OVC220 11/ RMK AC6CI1

CYUL;2010-09-21 14:00;CYUL 211400Z 21007KT 30SM BKN130 OVC210 12/08 A3011 RMK AC6CI1 SLP198

CYUL;2010-09-21 15:00;CYUL 211500Z 18006KT 30SM BKN110 OVC150 13/07 A3009 RMK AC6AC2 SLP190

CYUL;2010-09-21 15:54;CYUL 211554Z 16004KT 12SM -SHRA BKN080 OVC120 13/ RMK AC6AC2

CYUL;2010-09-21 16:00;CYUL 211600Z 16006KT 12SM -SHRA SCT045 OVC080 13/08 A3008 RMK SC3AC5 SLP188

CYUL;2010-09-21 17:00;CYUL 211700Z 18007KT 30SM FEW045 BKN100 OVC150 13/09 A3003 RMK SC2AC4AC2 SLP171

CYUL;2010-09-21 18:00;CYUL 211800Z 16007KT 30SM OVC055 14/09 A2999 RMK SC8 SLP158

CYUL;2010-09-21 19:00;CYUL 211900Z 16008KT 30SM FEW040 OVC055 15/10 A2995 RMK SC2SC6 SLP144

CYUL;2010-09-21 20:00;CYUL 212000Z 16009KT 30SM OVC050 15/09 A2991 RMK SC8 SLP128

CYUL;2010-09-21 21:00;CYUL 212100Z 16010KT 30SM OVC048 15/09 A2986 RMK SC7 SLP113

CYUL;2010-09-21 22:00;CYUL 212200Z 18006KT 30SM FEW055 FEW210 16/10 A2982 RMK SC1CI1 SLP100

CYUL;2010-09-21 23:00;CYUL 212300Z 17002KT 30SM FEW240 15/10 A2981 RMK CI1 SLP095

CYUL;2010-09-22 00:00;CYUL 220000Z 16006KT 15SM FEW240 14/11 A2978 RMK CI0 SLP085

CYUL;2010-09-22 01:00;CYUL 220100Z 15005KT 15SM SCT240 14/10 A2977 RMK CI2 SLP081

CYUL;2010-09-22 02:00;CYUL 220200Z 18004KT 15SM FEW060 FEW150 SCT240 14/11 A2977 RMK SC2AC1CI1 SLP084

CYUL;2010-09-22 02:47;CYUL 220247Z 19004KT 15SM -SHRA FEW070 BKN120 BKN180 15/ RMK AC2AC3AC1

CYUL;2010-09-22 03:00;CYUL 220300Z 20007KT 15SM FEW070 BKN120 BKN210 16/12 A2975 RMK AC1AC5CI2 OCNL -SHRA SLP076

CYUL;2010-09-22 03:10;CYUL 220310Z 21009KT 15SM -SHRA FEW070 BKN120 BKN180 17/ RMK AC1AC5AC2 -SHRA OCNL

CYUL;2010-09-22 04:00;CYUL 220400Z 25009KT 15SM -SHRA FEW070 BKN130 OVC180 18/13 A2976 RMK AC1AC6AC1 -SHRA OCNL SLP078

CYUL;2010-09-22 04:30;CYUL 220430Z 24017G22KT 15SM SCT120 BKN180 BKN220 19/ RMK AC3AC2CI1

CYUL;2010-09-22 05:00;CYUL 220500Z 25015G22KT 15SM FEW090 BKN130 BKN210 19/13 A2976 RMK AC1AC4CI1 SLP077

CYUL;2010-09-22 06:00;CYUL 220600Z 26014KT 15SM SCT036 BKN140 BKN210 19/14 A2980 RMK SC3AC2CI1 SLP090

CYUL;2010-09-22 07:00;CYUL 220700Z 23013G20KT 15SM FEW050 BKN130 OVC180 19/15 A2978 RMK SC1AC6AC2 SLP086

CYUL;2010-09-22 07:14;CYUL 220714Z 23011G16KT 15SM -SHRA FEW060 BKN130 BKN210 19/ RMK SC1AC4CI1

CYUL;2010-09-22 08:00;CYUL 220800Z 25013G22KT 15SM BKN050 BKN120 19/15 A2980 RMK SC6AC2 SLP091

CYUL;2010-09-22 09:00;CYUL 220900Z 25014G19KT 15SM SCT045 BKN060 BKN180 19/15 A2980 RMK SC3SC2AC2 SLP093

CYUL;2010-09-22 09:48;CYUL 220948Z 25015KT 15SM -SHRA BKN048 BKN065 OVC150 19/ RMK SC5SC2AC2

CYUL;2010-09-22 10:00;CYUL 221000Z 25014G20KT 15SM -SHRA SCT048 BKN065 OVC120 19/16 A2980 RMK SC3SC2AC3 SLP093

CYUL;2010-09-22 10:26;CYUL 221026Z 24013G19KT 8SM -RA BKN016 BKN030 OVC070 18/ RMK SC6SC2AC1

CYUL;2010-09-22 11:00;CYUL 221100Z 25011G16KT 10SM -RA BKN018 BKN030 OVC080 18/15 A2981 RMK SC5SC2AC1 SLP095

CYUL;2010-09-22 12:00;CYUL 221200Z 24013KT 15SM -RA BKN022 OVC060 17/15 A2982 RMK SC6SC2 SLP099

CYUL;2010-09-22 13:00;CYUL 221300Z 24011KT 15SM FEW008 BKN023 OVC035 18/16 A2984 RMK SF1SC5SC3 INTMT -RA SLP104

CYUL;2010-09-22 14:00;CYUL 221400Z 25014KT 15SM FEW008 BKN030 OVC060 18/16 A2985 RMK SF1SC6SC2 SLP110

CYUL;2010-09-22 14:09;CYUL 221409Z 25012G18KT 15SM -RA FEW008 OVC030 18/ RMK SF2SC6 -RA INTMT

CYUL;2010-09-22 14:43;CYUL 221443Z 26018KT 15SM FEW010 OVC046 19/ RMK SF2SC6

CYUL;2010-09-22 15:00;CYUL 221500Z 26015KT 15SM FEW010 OVC044 19/16 A2986 RMK SF2SC6 SLP112

CYUL;2010-09-22 16:00;CYUL 221600Z 25012KT 15SM BKN013 OVC055 20/17 A2986 RMK SF5SC3 SLP112

CYUL;2010-09-22 16:53;CYUL 221653Z 25015KT 15SM SCT013 OVC055 20/ RMK SF3SC4

CYUL;2010-09-22 17:00;CYUL 221700Z 26012G19KT 15SM FEW015 SCT055 OVC180 21/16 A2985 RMK SF1SC3AS2 SLP107

CYUL;2010-09-22 18:00;CYUL 221800Z 25013G18KT 15SM SCT025 OVC210 22/17 A2983 RMK SC3CS2 SLP103

CYUL;2010-09-22 19:00;CYUL 221900Z 27014KT 15SM SCT050 OVC240 23/15 A2983 RMK SC3CS2 SLP102

CYUL;2010-09-22 20:00;CYUL 222000Z 28011G19KT 15SM FEW045TCU OVC210 22/13 A2985 RMK TCU2CS2 SLP108

CYUL;2010-09-22 21:00;CYUL 222100Z 28013G18KT 15SM FEW045TCU BKN210 21/12 A2987 RMK TCU1CI2 SLP115

CYUL;2010-09-22 22:00;CYUL 222200Z 29011KT 15SM FEW050TCU SCT210 20/11 A2989 RMK TCU1CI2 SLP121

CYUL;2010-09-22 23:00;CYUL 222300Z 31008KT 15SM FEW050TCU FEW210 17/11 A2991 RMK TCU1CI1 SLP129

CYUL;2010-09-23 00:00;CYUL 230000Z 28008KT 15SM FEW240 17/10 A2995 RMK CI0 SLP141

CYUL;2010-09-23 01:00;CYUL 230100Z 27008KT 15SM SKC 16/11 A3000 RMK SLP158

CYUL;2010-09-23 02:00;CYUL 230200Z 29005KT 15SM SKC 13/10 A3000 RMK SLP160

CYUL;2010-09-23 03:00;CYUL 230300Z 30007KT 15SM FEW100 13/10 A3007 RMK AC1 PRESRR SLP185

CYUL;2010-09-23 04:00;CYUL 230400Z 33005KT 15SM FEW240 12/09 A3009 RMK CI0 SLP191

CYUL;2010-09-23 05:00;CYUL 230500Z 31005KT 15SM FEW240 10/07 A3011 RMK CI0 SLP196

CYUL;2010-09-23 06:00;CYUL 230600Z 33004KT 15SM SCT240 09/06 A3012 RMK CI0 SLP202

CYUL;2010-09-23 07:00;CYUL 230700Z 27002KT 15SM SCT240 10/06 A3015 RMK CI0 SLP210

CYUL;2010-09-23 08:00;CYUL 230800Z 32004KT 15SM FEW150 SCT240 08/06 A3016 RMK AC1CI2 SLP214

CYUL;2010-09-23 09:00;CYUL 230900Z 05005KT 15SM FEW090 SCT240 10/07 A3018 RMK AC1CI1 SLP222

CYUL;2010-09-23 10:00;CYUL 231000Z 36005KT 15SM FEW060 SCT240 08/05 A3020 RMK SC1CI1 SLP229

CYUL;2010-09-23 11:00;CYUL 231100Z 36004KT 30SM FEW150 BKN240 08/04 A3023 RMK AC1CI2 SLP239

CYUL;2010-09-23 12:00;CYUL 231200Z 04005KT 30SM FEW150 BKN240 10/04 A3025 RMK AC1CI2 SLP243

CYUL;2010-09-23 13:00;CYUL 231300Z 02008KT 30SM FEW150 FEW220 BKN240 11/05 A3026 RMK AC1CI2CS2 SLP248

CYUL;2010-09-23 14:00;CYUL 231400Z 02007KT 30SM BKN160 OVC180 12/05 A3029 RMK AC5AS2 SLP258

CYUL;2010-09-23 15:00;CYUL 231500Z 36004KT 30SM SCT150 OVC190 13/04 A3027 RMK AC3AS2 SLP252

CYUL;2010-09-23 16:00;CYUL 231600Z 27002KT 30SM BKN150 OVC180 13/05 A3028 RMK AC5AS2 SLP253

CYUL;2010-09-23 17:00;CYUL 231700Z 23002KT 30SM FEW045 BKN150 OVC180 14/05 A3028 RMK CF1AC6AS2 SLP254

CYUL;2010-09-23 18:00;CYUL 231800Z 00000KT 30SM BKN160 OVC180 14/05 A3025 RMK AC6AC2 SLP245

CYUL;2010-09-23 19:00;CYUL 231900Z 14002KT 30SM FEW130 OVC150 14/06 A3023 RMK AC1AS7 SLP238

CYUL;2010-09-23 20:00;CYUL 232000Z 00000KT 30SM BKN130 OVC170 14/06 A3022 RMK AC6AC2 SLP233

CYUL;2010-09-23 21:00;CYUL 232100Z 03002KT 30SM BKN120 OVC160 14/05 A3021 RMK AC7AC1 SLP231

CYUL;2010-09-23 22:00;CYUL 232200Z 10003KT 30SM OVC130 14/06 A3020 RMK AC8 SLP228

CYUL;2010-09-23 23:00;CYUL 232300Z 06004KT 30SM OVC130 14/06 A3019 RMK AC8 SLP225

CYUL;2010-09-24 00:00;CYUL 240000Z 09005KT 15SM OVC130 14/06 A3020 RMK AC8 SLP229

CYUL;2010-09-24 01:00;CYUL 240100Z 08006KT 15SM -SHRA BKN090 OVC120 14/06 A3019 RMK AC6AC2 SLP225

CYUL;2010-09-24 02:00;CYUL 240200Z CCA 06008KT 15SM -SHRA BKN090 OVC110 13/07 A3017 RMK AC6AC2 SLP219

CYUL;2010-09-24 03:00;CYUL 240300Z CCA 05006KT 15SM -RA OVC075 12/07 A3017 RMK AS8 SLP218

CYUL;2010-09-24 04:00;CYUL 240400Z 05008KT 6SM -RA BR OVC055 11/07 A3014 RMK SC8 SLP207

CYUL;2010-09-24 05:00;CYUL 240500Z 05011KT 10SM -RA OVC050 11/08 A3011 RMK SC8 SLP196

CYUL;2010-09-24 06:00;CYUL 240600Z 05011KT 6SM -RA BR OVC045 11/08 A3008 RMK NS8 SLP186

CYUL;2010-09-24 07:00;CYUL 240700Z 05009KT 5SM -RA BR FEW008 OVC040 10/08 A3006 RMK SF1NS7 SLP179

CYUL;2010-09-24 08:00;CYUL 240800Z 04011KT 6SM -RA BR FEW006 BKN012 OVC025 10/08 A3001 RERA RMK SF2SF4NS2 SLP164

CYUL;2010-09-24 08:32;CYUL 240832Z 05012KT 10SM -RA FEW006 OVC022 10/ RMK SF2SC6

CYUL;2010-09-24 09:00;CYUL 240900Z 04011G16KT 10SM -RA BKN008 OVC019 10/09 A3000 RMK SF6SC2 SLP159

CYUL;2010-09-24 10:00;CYUL 241000Z 04010KT 12SM BKN006 OVC012 10/09 A2999 RMK ST7ST1 SLP156

CYUL;2010-09-24 10:45;CYUL 241045Z 04013KT 10SM OVC004 10/ RMK ST8

CYUL;2010-09-24 11:00;CYUL 241100Z 03016KT 10SM OVC004 10/09 A2999 RMK ST8 SLP156

CYUL;2010-09-24 11:41;CYUL 241141Z 02010KT 10SM -RA OVC004 10/ RMK ST8

CYUL;2010-09-24 12:00;CYUL 241200Z 03010KT 8SM -RA OVC005 10/09 A2999 RMK ST8 SLP156

CYUL;2010-09-24 13:00;CYUL 241300Z 04008KT 8SM -RA OVC005 10/09 A2996 RMK ST8 SLP148

CYUL;2010-09-24 14:00;CYUL 241400Z 05010KT 8SM -RA OVC006 10/09 A2995 RMK ST8 SLP142

CYUL;2010-09-24 15:00;CYUL 241500Z 05007KT 8SM OVC006 10/09 A2991 RMK ST8 SLP131

CYUL;2010-09-24 16:00;CYUL 241600Z 05006KT 10SM OVC006 11/10 A2987 RMK ST8 SLP116

CYUL;2010-09-24 17:00;CYUL 241700Z 04005KT 12SM OVC007 12/11 A2983 RMK ST8 SLP102

CYUL;2010-09-24 18:00;CYUL 241800Z 02004KT 10SM OVC008 13/12 A2980 RMK ST8 SLP092

CYUL;2010-09-24 18:37;CYUL 241837Z 04004KT 12SM SCT009 BKN032 OVC050 14/ RMK SF2SC4SC2

CYUL;2010-09-24 19:00;CYUL 241900Z 02005KT 12SM FEW018 BKN060 OVC220 15/12 A2975 RMK SF1SC2CS4 SLP075

CYUL;2010-09-24 20:00;CYUL 242000Z 04006KT 15SM FEW032 SCT120 SCT180 BKN240 16/13 A2971 RMK SC1AC2AC1CI2 SLP063

CYUL;2010-09-24 21:00;CYUL 242100Z 03008KT 15SM FEW120 SCT180 BKN240 16/13 A2968 RMK AC2AC1CI2 SLP051

CYUL;2010-09-24 22:00;CYUL 242200Z 04008KT 15SM FEW065 SCT180 SCT240 14/12 A2966 RMK SC1AC1CI1 SLP044

CYUL;2010-09-24 23:00;CYUL 242300Z 03005KT 10SM SCT090 BKN170 BKN210 15/12 A2963 RMK AC2AC3CS1 SLP035

CYUL;2010-09-24 23:51;CYUL 242351Z 35007KT 8SM -SHRA SCT050 BKN075 OVC120 14/ RMK SC2AC4AC2

CYUL;2010-09-25 00:00;CYUL 250000Z 33008KT 8SM -SHRA SCT060 OVC084 14/12 A2964 RMK SC3AC5 SLP039

CYUL;2010-09-25 01:00;CYUL 250100Z 00000KT 6SM -SHRA FEW012 BKN032 OVC080 15/14 A2967 RMK SF1SC4AC3 SLP046

CYUL;2010-09-25 02:00;CYUL 250200Z 21006KT 10SM BKN080 19/17 A2963 RMK AC6 SLP034

CYUL;2010-09-25 03:00;CYUL 250300Z 21012KT 12SM BKN067 22/18 A2960 RMK AC7 SLP024

CYUL;2010-09-25 03:20;CYUL 250320Z 21014KT 12SM -SHRA BKN070 OVC100 22/ RMK AC6AC2

CYUL;2010-09-25 03:45;CYUL 250345Z 21014KT 15SM BKN070 23/ RMK AC7

CYUL;2010-09-25 04:00;CYUL 250400Z 21014KT 8SM -SHRA BKN070 OVC090 23/18 A2959 RMK AC6AC2 SLP021

CYUL;2010-09-25 04:23;CYUL 250423Z 22013KT 15SM BKN080 23/ RMK AC7

CYUL;2010-09-25 05:00;CYUL 250500Z 23009KT 15SM SCT080 22/17 A2959 RMK AC4 SLP020

CYUL;2010-09-25 06:00;CYUL 250600Z 24010KT 15SM SKC 22/17 A2959 RMK SLP022

CYUL;2010-09-25 07:00;CYUL 250700Z 27010G16KT 15SM BKN026 22/17 A2960 RMK SC6 SLP024

CYUL;2010-09-25 08:00;CYUL 250800Z 27009G18KT 15SM FEW028 20/13 A2961 RMK SC2 SLP029

CYUL;2010-09-25 09:00;CYUL 250900Z 26013KT 15SM FEW030 FEW060 19/13 A2964 RMK CF1SC1 SLP037

CYUL;2010-09-25 10:00;CYUL 251000Z 25014G24KT 15SM FEW025 FEW070 17/12 A2968 RMK SC1AC1 SLP051

CYUL;2010-09-25 11:00;CYUL 251100Z 25015G24KT 30SM FEW050 FEW240 16/10 A2969 RMK SC2CI1 SLP056

CYUL;2010-09-25 12:00;CYUL 251200Z 25014KT 30SM FEW050 16/10 A2971 RMK SC2 SLP060

CYUL;2010-09-25 13:00;CYUL 251300Z 25013KT 30SM FEW030 FEW070 17/11 A2972 RMK CU1AC2 SLP063

CYUL;2010-09-25 14:00;CYUL 251400Z 25013G19KT 15SM FEW028 BKN055 BKN070 17/11 A2973 RMK CU1SC5AC1 SLP069

CYUL;2010-09-25 15:00;CYUL 251500Z 23016G21KT 15SM FEW030 BKN063 BKN075 18/11 A2973 RMK CF1SC5AC2 SLP069

CYUL;2010-09-25 16:00;CYUL 251600Z 25014KT 15SM FEW032 BKN044 BKN075 18/11 A2975 RMK CF2SC3AC1 SLP073

CYUL;2010-09-25 17:00;CYUL 251700Z 23015KT 15SM -SHRA FEW032 BKN045 BKN080 18/11 A2975 RMK CU1SC5AC1 SLP076

CYUL;2010-09-25 17:36;CYUL 251736Z 24012KT 15SM FEW032 BKN062 BKN078 17/ RMK CF1SC4AC2

CYUL;2010-09-25 18:00;CYUL 251800Z 24010KT 15SM FEW035 BKN062 BKN080 18/11 A2977 RMK CF1SC6AC1 SLP080

CYUL;2010-09-25 19:00;CYUL 251900Z 24011KT 15SM FEW036 BKN070 18/11 A2978 RMK CU1AC6 SLP084

CYUL;2010-09-25 20:00;CYUL 252000Z 23009KT 15SM FEW045 BKN064 BKN078 18/11 A2979 RMK SC2SC4AC1 SLP088

CYUL;2010-09-25 21:00;CYUL 252100Z 23008KT 15SM FEW045 SCT058 BKN080 18/12 A2980 RMK SC1SC3AC2 CU PRSNT E SLP092

CYUL;2010-09-25 22:00;CYUL 252200Z 23010KT 15SM SCT060 BKN083 17/11 A2982 RMK SC2AC4 SLP099

CYUL;2010-09-25 23:00;CYUL 252300Z 23008KT 15SM FEW062 BKN080 17/11 A2985 RMK SC2AC6 SLP108

CYUL;2010-09-26 00:00;CYUL 260000Z 26006KT 15SM SCT050 BKN067 17/11 A2987 RMK SC2AC4 SLP114

CYUL;2010-09-26 01:00;CYUL 260100Z 25004KT 15SM FEW055 BKN080 16/11 A2989 RMK SC2AC6 SLP121

CYUL;2010-09-26 02:00;CYUL 260200Z 23005KT 15SM BKN045 OVC055 16/11 A2991 RMK SC6SC2 SLP128

CYUL;2010-09-26 03:00;CYUL 260300Z 25004KT 15SM SCT060 OVC080 15/11 A2993 RMK SC3AC5 SLP136

CYUL;2010-09-26 04:00;CYUL 260400Z 27003KT 15SM OVC035 15/11 A2995 RMK SC8 SLP142

CYUL;2010-09-26 04:14;CYUL 260414Z 26003KT 15SM -RA OVC024 15/ RMK SC8

CYUL;2010-09-26 04:28;CYUL 260428Z 03013KT 6SM -RA BR OVC007 14/ RMK ST8

CYUL;2010-09-26 05:00;CYUL 260500Z 04013KT 6SM -RA BR SCT008 OVC020 12/10 A2998 RMK SF3SC5 SLP153

CYUL;2010-09-26 05:35;CYUL 260535Z 04013KT 4SM -DZ BR BKN010 OVC020 12/ RMK ST7SC1

CYUL;2010-09-26 06:00;CYUL 260600Z 03011KT 6SM -DZ BR BKN010 OVC022 11/10 A3000 RMK ST6SC2 SLP159

CYUL;2010-09-26 06:20;CYUL 260620Z 04010KT 7SM -DZ BKN008 OVC022 12/ RMK ST7SC1

CYUL;2010-09-26 06:47;CYUL 260647Z 05012G17KT 8SM -DZ SCT008 OVC020 11/ RMK SF3SC5

CYUL;2010-09-26 07:00;CYUL 260700Z 05011KT 8SM -DZ BKN008 OVC023 11/09 A3001 RMK SF6SC2 SLP164

CYUL;2010-09-26 07:28;CYUL 260728Z 04009G18KT 12SM BKN010 OVC018 10/ RMK ST6SC2

CYUL;2010-09-26 08:00;CYUL 260800Z 05010KT 12SM BKN011 OVC016 10/08 A3003 RMK ST6SC2 SLP169

CYUL;2010-09-26 08:44;CYUL 260844Z 05013KT 12SM SCT011 OVC020 10/ RMK SF3SC5

CYUL;2010-09-26 09:00;CYUL 260900Z 03010G15KT 15SM BKN011 OVC018 10/07 A3005 RMK ST6SC2 SLP176

CYUL;2010-09-26 10:00;CYUL 261000Z 04014KT 15SM OVC010 09/07 A3007 RMK ST8 SLP183

CYUL;2010-09-26 11:00;CYUL 261100Z 06010G17KT 12SM OVC012 09/06 A3009 RMK ST8 SLP189

CYUL;2010-09-26 12:00;CYUL 261200Z 06011KT 12SM OVC014 09/06 A3012 RMK ST8 SLP199

CYUL;2010-09-26 13:00;CYUL 261300Z 04011KT 15SM OVC013 09/06 A3015 RMK ST8 SLP212

CYUL;2010-09-26 13:44;CYUL 261344Z 04011KT 15SM -DZ OVC012 09/ RMK ST8

CYUL;2010-09-26 14:00;CYUL 261400Z 04010KT 12SM -DZ OVC012 09/07 A3017 RMK ST8 SLP217

CYUL;2010-09-26 15:00;CYUL 261500Z 04011KT 15SM -DZ FEW009 BKN013 OVC023 10/07 A3018 RMK SF2SF5SC1 SLP220

CYUL;2010-09-26 15:19;CYUL 261519Z 04013KT 15SM -DZ BKN012 OVC025 10/ RMK SF7SC1

CYUL;2010-09-26 16:00;CYUL 261600Z 05008KT 12SM -DZ OVC014 10/07 A3018 RMK SF8 SLP220

CYUL;2010-09-26 17:00;CYUL 261700Z 05008KT 15SM BKN012 OVC017 11/08 A3018 RMK SF6SF2 SLP222

CYUL;2010-09-26 18:00;CYUL 261800Z 04011KT 15SM OVC015 12/08 A3018 RMK SF8 SLP221

CYUL;2010-09-26 19:00;CYUL 261900Z 03010KT 15SM OVC020 12/08 A3018 RMK SC8 SLP222

CYUL;2010-09-26 20:00;CYUL 262000Z 03011KT 15SM OVC020 13/08 A3017 RMK SC7 SLP218

CYUL;2010-09-26 21:00;CYUL 262100Z 05011KT 15SM OVC021 13/08 A3017 RMK SC8 SLP217

CYUL;2010-09-26 22:00;CYUL 262200Z 04011KT 15SM OVC022 13/08 A3017 RMK SC8 SLP217

CYUL;2010-09-26 23:00;CYUL 262300Z 04009KT 15SM OVC022 13/08 A3017 RMK SC8 SLP217

CYUL;2010-09-27 00:00;CYUL 270000Z 02008KT 15SM BKN023 OVC075 12/08 A3017 RMK SC6AC2 SLP218

CYUL;2010-09-27 01:00;CYUL 270100Z 03009KT 15SM SCT025 OVC075 12/08 A3018 RMK SC3AC4 SLP221

CYUL;2010-09-27 02:00;CYUL 270200Z 02007KT 15SM FEW017 BKN075 12/09 A3018 RMK SC2AC6 SLP222

CYUL;2010-09-27 03:00;CYUL 270300Z 03006KT 15SM FEW017 BKN075 12/09 A3018 RMK SC1AC6 SLP222

CYUL;2010-09-27 04:00;CYUL 270400Z 04008KT 15SM FEW017 SCT026 BKN075 11/09 A3018 RMK SC1SC4AC3 SLP222

CYUL;2010-09-27 05:00;CYUL 270500Z 05006KT 15SM OVC016 11/09 A3018 RMK ST8 SLP221

CYUL;2010-09-27 06:00;CYUL 270600Z 03006KT 15SM OVC013 12/09 A3017 RMK ST8 SLP216

CYUL;2010-09-27 07:00;CYUL 270700Z 05007KT 15SM OVC012 12/09 A3015 RMK ST7 SLP212

CYUL;2010-09-27 08:00;CYUL 270800Z 06006KT 15SM SCT012 OVC060 12/09 A3015 RMK SF4SC4 SLP209

CYUL;2010-09-27 09:00;CYUL 270900Z 03005KT 15SM BKN011 OVC055 11/09 A3014 RMK SF6SC2 SLP208

CYUL;2010-09-27 10:00;CYUL 271000Z 03006KT 15SM BKN010 OVC055 11/09 A3015 RMK ST6SC2 SLP210

CYUL;2010-09-27 10:45;CYUL 271045Z 04005KT 15SM SCT008 OVC055 11/ RMK SF3SC5

CYUL;2010-09-27 11:00;CYUL 271100Z 03005KT 15SM FEW008 OVC050 12/10 A3015 RMK SF2SC6 SLP209

CYUL;2010-09-27 12:00;CYUL 271200Z 03006KT 30SM FEW008 OVC050 12/10 A3015 RMK SF1SC8 SLP210

CYUL;2010-09-27 13:00;CYUL 271300Z 11005KT 30SM FEW008 BKN050 14/11 A3013 RMK SF1SC7 SLP205

CYUL;2010-09-27 14:00;CYUL 271400Z 13007KT 30SM FEW010 BKN240 16/12 A3012 RMK SF1CI2 SLP202

CYUL;2010-09-27 15:00;CYUL 271500Z 14008KT 15SM FEW020 FEW180 BKN210 18/12 A3010 RMK CF1AC1CI2 SLP195

CYUL;2010-09-27 16:00;CYUL 271600Z 15010KT 15SM FEW025 FEW180 BKN220 19/13 A3008 RMK CF1AC2CI1 SLP188

CYUL;2010-09-27 17:00;CYUL 271700Z 13010KT 15SM FEW030 BKN100 BKN180 19/12 A3006 RMK CU1AC5AC1 SLP181

CYUL;2010-09-27 18:00;CYUL 271800Z 15010KT 15SM BKN110 OVC170 18/12 A3004 RMK AC5AC3 SLP174

CYUL;2010-09-27 19:00;CYUL 271900Z 13011KT 30SM BKN055 OVC075 17/12 A3002 RMK SC5AC3 SLP167

CYUL;2010-09-27 20:00;CYUL 272000Z 14012KT 15SM SCT045 OVC065 17/12 A3000 RMK SC3SC5 SLP160

CYUL;2010-09-27 20:29;CYUL 272029Z 14008KT 15SM -SHRA OVC060 17/ RMK SC8

CYUL;2010-09-27 21:00;CYUL 272100Z 13010KT 12SM -RA OVC050 16/13 A2999 RMK SC8 SLP157

CYUL;2010-09-27 22:00;CYUL 272200Z 12009KT 12SM -RA FEW025 OVC034 15/13 A2999 RMK SF1SC8 SLP155

CYUL;2010-09-27 23:00;CYUL 272300Z 11007KT 10SM -RA BKN023 OVC040 15/13 A2996 RMK SC6SC2 SLP148

CYUL;2010-09-28 00:00;CYUL 280000Z 11007KT 6SM -RA FEW010 OVC047 15/13 A2994 RMK SF2SC6 SLP139

CYUL;2010-09-28 00:28;CYUL 280028Z 11008KT 6SM -RA BKN011 OVC035 15/ RMK SF6SC2

CYUL;2010-09-28 01:00;CYUL 280100Z 12007KT 4SM -RA BKN008 OVC025 15/13 A2992 RMK SF6SC2 SLP133

CYUL;2010-09-28 01:24;CYUL 280124Z 11009KT 4SM -RA SCT008 OVC029 15/ RMK SF3SC5

CYUL;2010-09-28 01:40;CYUL 280140Z 10006KT 4SM -RA SCT005 OVC014 15/ RMK SF3SF5

CYUL;2010-09-28 02:00;CYUL 280200Z 10007KT 6SM -RA BR SCT004 OVC012 15/14 A2989 RMK SF4SF4 SLP122

CYUL;2010-09-28 03:00;CYUL 280300Z 12007KT 6SM -RA BR SCT004 OVC008 15/14 A2985 RMK SF3SF5 SLP110

CYUL;2010-09-28 04:00;CYUL 280400Z 14008KT 6SM -RA BR BKN006 OVC040 15/14 A2983 RMK SF6SC2 SLP101

CYUL;2010-09-28 04:46;CYUL 280446Z 15009KT 6SM -RA BR SCT007 OVC040 15/ RMK SF2SC6

CYUL;2010-09-28 05:00;CYUL 280500Z 15008KT 6SM -RA BR FEW007 OVC040 15/15 A2980 RMK SF2SC6 SLP092

CYUL;2010-09-28 05:37;CYUL 280537Z 13008KT 4SM -DZ BR BKN006 OVC030 16/ RMK SF6SC2

CYUL;2010-09-28 06:00;CYUL 280600Z 14010KT 6SM -DZ BR BKN006 BKN018 OVC040 16/15 A2977 RMK SF5SC1SC2 /R11/ SLP081

CYUL;2010-09-28 06:21;CYUL 280621Z 16008KT 10SM FEW006 OVC050 16/ RMK SF1SC7

CYUL;2010-09-28 07:00;CYUL 280700Z 15008KT 7SM -RA SCT007 OVC040 16/15 A2975 RMK SF4SC4 SLP073

CYUL;2010-09-28 09:00;CYUL 280900Z 14011KT 10SM -RA FEW007 OVC040 17/16 A2970 RMK SF1SC7 SLP059

CYUL;2010-09-28 10:00;CYUL 281000Z 14011KT 12SM -RA FEW007 SCT050 SCT070 OVC130 17/16 A2968 RMK SF1SC3AC1AC4 SLP052

CYUL;2010-09-28 11:00;CYUL 281100Z 14009KT 12SM -RA FEW007 BKN045 OVC110 17/16 A2967 RMK SF1SC7AC1 SLP048

CYUL;2010-09-28 12:00;CYUL 281200Z 16012KT 12SM -RA SCT045 OVC110 18/17 A2967 RMK SC3AC5 SLP048

CYUL;2010-09-28 13:00;CYUL 281300Z 15012KT 12SM -RA FEW007 OVC055 19/17 A2967 RMK SF1SC8 SLP049

CYUL;2010-09-28 14:00;CYUL 281400Z 15012G17KT 12SM -RA FEW008 BKN060 OVC090 19/18 A2968 RMK SF1SC6AC2 -RA INTMT SLP050

CYUL;2010-09-28 14:55;CYUL 281455Z 15010KT 15SM FEW008 SCT060 OVC120 20/ RMK SF1SC3AC5

CYUL;2010-09-28 15:00;CYUL 281500Z 15011KT 15SM -RA FEW010 SCT050 OVC090 20/18 A2966 RMK SF1SC3AC5 -RA INTMT SLP043

CYUL;2010-09-28 16:00;CYUL 281600Z 14010KT 15SM FEW010 BKN055 OVC120 21/19 A2964 RMK SF1SC6AC2 -RA INTMT SLP038

CYUL;2010-09-28 16:27;CYUL 281627Z 14011KT 15SM FEW010 SCT065 OVC100 21/ RMK SF1SC3AC5

CYUL;2010-09-28 16:48;CYUL 281648Z 14011KT 15SM -RA FEW010 SCT065 OVC100 21/ RMK SF1SC3AC5 -RA INTMT

CYUL;2010-09-28 17:00;CYUL 281700Z 14012KT 15SM -RA FEW010 SCT065 OVC080 20/18 A2963 RMK SF1SC3AC5 -RA INTMT SLP033

CYUL;2010-09-28 18:00;CYUL 281800Z 13009KT 15SM FEW065 SCT090 BKN120 OVC230 21/19 A2960 RMK SC1AC3AC4CI0 SLP024

CYUL;2010-09-28 19:00;CYUL 281900Z 13010G17KT 15SM FEW065 BKN095 BKN120 OVC230 23/20 A2956 RMK SC1AC4AC1CI0 SLP009

CYUL;2010-09-28 20:00;CYUL 282000Z 15014G19KT 15SM FEW060 SCT090 BKN190 OVC240 24/19 A2953 RMK SC1AC3AC2CI0 SLP001

CYUL;2010-09-28 21:00;CYUL 282100Z 16017KT 15SM SCT060 BKN140 OVC240 24/19 A2951 RMK SC3AC4CI0 TCU ASOCT SLP993

CYUL;2010-09-28 21:26;CYUL 282126Z 19019KT 10SM -SHRA SCT025TCU OVC090 24/ RMK TCU3AC4 VIS S 3

CYUL;2010-09-28 21:54;CYUL 282154Z 22008G19KT 15SM BKN037 BKN090 20/ RMK SC5AC2 TCU ASOCT

CYUL;2010-09-28 22:00;CYUL 282200Z 19006G18KT 15SM BKN040 BKN090 20/18 A2954 RMK SC5AC2 TCU ASOCT SLP005

CYUL;2010-09-28 22:11;CYUL 282211Z 22006KT 15SM -SHRA BKN040 BKN090 20/ RMK SC5AC2 TCU ASOCT

CYUL;2010-09-28 22:28;CYUL 282228Z 18009KT 15SM BKN040 BKN090 20/ RMK SC6AC1 TCU ASOCT

CYUL;2010-09-28 23:00;CYUL 282300Z 15004KT 30SM BKN050 BKN120 20/18 A2954 RMK SC5AC2 TCU ASOCT SLP005

CYUL;2010-09-29 00:00;CYUL 290000Z 00000KT 15SM FEW045 SCT120 19/18 A2956 RMK SC2AC1 SLP009

CYUL;2010-09-29 00:39;CYUL 290039Z 16004KT 15SM -SHRA SCT045 BKN075 20/ RMK SC3AC2

CYUL;2010-09-29 01:00;CYUL 290100Z 18007KT 15SM SCT045 BKN080 BKN110 20/18 A2957 RMK SC3AC2AC2 SLP014

CYUL;2010-09-29 01:23;CYUL 290123Z 11006KT 15SM -SHRA BKN065 OVC100 20/ RMK SC6AC2

CYUL;2010-09-29 01:47;CYUL 290147Z 19008KT 15SM SCT065 BKN090 20/ RMK SC3AC2

CYUL;2010-09-29 02:00;CYUL 290200Z 20007KT 15SM FEW045 SCT065 BKN085 20/18 A2957 RMK CF2SC2AC2 SLP015

CYUL;2010-09-29 03:00;CYUL 290300Z 20008KT 15SM FEW045 BKN065 20/17 A2960 RMK SC2SC3 SLP024

CYUL;2010-09-29 04:00;CYUL 290400Z 24013KT 15SM FEW050 BKN100 20/17 A2963 RMK SC2AC2 SLP033

CYUL;2010-09-29 05:00;CYUL 290500Z 23008KT 15SM SCT025 19/16 A2964 RMK SC3 SLP038

CYUL;2010-09-29 06:00;CYUL 290600Z 23010G15KT 15SM FEW025 FEW100 BKN220 18/15 A2964 RMK CF1AC1CI2 SLP039

CYUL;2010-09-29 07:00;CYUL 290700Z 22010KT 15SM SCT050 BKN220 18/14 A2965 RMK SC3CI1 SLP040

CYUL;2010-09-29 08:00;CYUL 290800Z 24014G20KT 15SM -SHRA BKN025 OVC045 18/14 A2967 RMK SC6SC2 SLP048

CYUL;2010-09-29 08:28;CYUL 290828Z 24019KT 15SM FEW020 OVC035 17/ RMK CF2SC6

CYUL;2010-09-29 08:46;CYUL 290846Z 24022G28KT 12SM -SHRA OVC022 17/ RMK SC8

CYUL;2010-09-29 09:00;CYUL 290900Z 23023G29KT 12SM -SHRA OVC028 16/13 A2970 RMK SC8 SLP057

CYUL;2010-09-29 09:43;CYUL 290943Z 22019KT 15SM FEW028 OVC045 16/ RMK SC2SC6

CYUL;2010-09-29 10:00;CYUL 291000Z 23016KT 15SM FEW028 OVC045 16/13 A2972 RMK CF1SC7 SLP064

CYUL;2010-09-29 11:00;CYUL 291100Z 24018KT 15SM SCT025 OVC040 17/12 A2974 RMK SC4SC4 SLP070

CYUL;2010-09-29 12:00;CYUL 291200Z 24014G22KT 15SM FEW019 SCT030 OVC055 16/12 A2977 RMK SC2SC2SC5 SLP081

CYUL;2010-09-29 13:00;CYUL 291300Z 23017KT 15SM FEW020 FEW030 BKN050 16/12 A2980 RMK SC2SC1SC5 SLP091

CYUL;2010-09-29 14:00;CYUL 291400Z 23017G24KT 15SM BKN023 OVC050 16/11 A2982 RMK SC5SC3 SLP098

CYUL;2010-09-29 15:00;CYUL 291500Z 26010G17KT 15SM FEW017 BKN025 BKN050 16/12 A2983 RMK SC2SC4SC2 SLP103

CYUL;2010-09-29 16:00;CYUL 291600Z 23014KT 15SM BKN024 BKN045 16/11 A2985 RMK SC6SC2 SLP109

CYUL;2010-09-29 17:00;CYUL 291700Z 23018KT 15SM BKN032 BKN050 16/11 A2987 RMK SC6SC2 SLP116

CYUL;2010-09-29 18:00;CYUL 291800Z 24015G21KT 15SM BKN032 OVC045 17/11 A2988 RMK SC6SC2 SLP119

CYUL;2010-09-29 19:00;CYUL 291900Z 23013G18KT 15SM BKN032 OVC040 17/11 A2989 RMK SC6SC2 SLP121

CYUL;2010-09-29 20:00;CYUL 292000Z 23012G18KT 15SM OVC028 17/11 A2990 RMK SC8 SLP125

CYUL;2010-09-29 21:00;CYUL 292100Z 25011G17KT 15SM OVC032 16/11 A2992 RMK SC8 SLP131

CYUL;2010-09-29 22:00;CYUL 292200Z 25007KT 15SM OVC030 16/11 A2992 RMK SC8 SLP133

CYUL;2010-09-29 23:00;CYUL 292300Z 23009KT 15SM BKN033 16/11 A2995 RMK SC7 SLP141

CYUL;2010-09-30 00:00;CYUL 300000Z 24009KT 15SM SCT038 16/11 A2996 RMK SC2 SLP147

CYUL;2010-09-30 01:00;CYUL 300100Z 21004KT 15SM FEW040 16/11 A2996 RMK SC1 SLP148

CYUL;2010-09-30 02:00;CYUL 300200Z 00000KT 15SM FEW040 BKN240 15/12 A2995 RMK SC1CI0 SLP143

CYUL;2010-09-30 03:00;CYUL 300300Z 00000KT 15SM BKN240 14/12 A2994 RMK CC4 SLP140

CYUL;2010-09-30 04:00;CYUL 300400Z 13002KT 15SM BKN240 14/12 A2995 RMK CC7 SLP143

CYUL;2010-09-30 05:00;CYUL 300500Z 12002KT 15SM OVC220 13/11 A2994 RMK CI7 SLP140

CYUL;2010-09-30 06:00;CYUL 300600Z 11002KT 15SM BKN055 OVC180 14/11 A2994 RMK SC5AC2 SLP141

CYUL;2010-09-30 07:00;CYUL 300700Z 14002KT 15SM OVC050 14/12 A2994 RMK SC8 SLP141

CYUL;2010-09-30 08:00;CYUL 300800Z 13002KT 15SM BKN045 OVC120 14/12 A2994 RMK SC6AC2 SLP141

CYUL;2010-09-30 09:00;CYUL 300900Z 13003KT 15SM FEW050 OVC120 14/12 A2993 RMK SC2AS6 SLP136

CYUL;2010-09-30 10:00;CYUL 301000Z 12002KT 15SM OVC120 14/12 A2991 RMK AS8 SLP131

CYUL;2010-09-30 11:00;CYUL 301100Z 12003KT 15SM -RA FEW085 OVC110 15/13 A2991 RMK AC2AS6 SLP129

CYUL;2010-09-30 12:00;CYUL 301200Z 11004KT 15SM -RA FEW050 OVC100 15/13 A2990 RMK SC2AS6 SLP126

CYUL;2010-09-30 13:00;CYUL 301300Z 15007KT 10SM -RA SCT055 OVC075 15/14 A2990 RMK SC3AS5 SLP126

CYUL;2010-09-30 13:45;CYUL 301345Z 16007KT 3SM -RA BR FEW006 SCT018 OVC035 15/ RMK SF1SF2NS5

CYUL;2010-09-30 14:00;CYUL 301400Z 16004KT 3SM -RA BR FEW006 OVC035 15/14 A2989 RMK SF2NS6 SLP123

CYUL;2010-09-30 15:00;CYUL 301500Z 14002KT 4SM -RA BR FEW005 OVC025 16/15 A2985 RMK SF2SC6 SLP111

CYUL;2010-09-30 15:48;CYUL 301548Z 13004KT 4SM -RA BR FEW005 BKN008 OVC022 16/ RMK SF2SF3SC3

CYUL;2010-09-30 16:00;CYUL 301600Z 12005KT 4SM -RA BR SCT007 OVC025 16/15 A2983 RMK SF4SC4 SLP104

CYUL;2010-09-30 16:20;CYUL 301620Z 13002KT 4SM -RA BR BKN007 OVC022 16/ RMK SF5SC3

CYUL;2010-09-30 16:27;CYUL 301627Z 11003KT 2 1/2SM -RA BR BKN007 OVC018 16/ RMK SF6SC2

CYUL;2010-09-30 16:35;CYUL 301635Z 12003KT 3SM -RA BR BKN008 OVC020 16/ RMK SF5SC3

CYUL;2010-09-30 17:00;CYUL 301700Z 08003KT 3SM -RA BR BKN007 OVC020 16/15 A2981 RMK SF6SC2 SLP096

CYUL;2010-09-30 18:00;CYUL 301800Z 05005KT 3SM -RA BR FEW004 BKN008 OVC015 16/15 A2977 RMK SF2SF5SC2 /R13/ SLP082

CYUL;2010-09-30 18:15;CYUL 301815Z 00000KT 2 1/2SM -RA BR FEW004 BKN008 OVC013 16/ RMK SF2SF5SC2

CYUL;2010-09-30 18:33;CYUL 301833Z 05003KT 3SM -RA BR FEW004 BKN008 OVC013 16/ RMK SF1SF5SC2

CYUL;2010-09-30 19:00;CYUL 301900Z 03005KT 3SM -RA BR BKN005 OVC012 16/15 A2975 RMK SF5SF3 SLP076

CYUL;2010-09-30 20:00;CYUL 302000Z 05007KT 3SM -RA BR BKN005 OVC009 16/15 A2971 RMK SF6SF2 SLP062

CYUL;2010-09-30 21:00;CYUL 302100Z 08005KT 2 1/2SM RA BR BKN005 OVC009 16/15 A2971 RMK SF6SF2 SLP062

CYUL;2010-09-30 21:15;CYUL 302115Z 07008KT 3SM -RA BR BKN005 OVC009 16/ RERA RMK SF6SF2

CYUL;2010-09-30 22:00;CYUL 302200Z 03009KT 3SM -RA BR BKN005 OVC008 16/15 A2963 RERA RMK SF6SF2 PRESFR /R12/ SLP033

CYUL;2010-09-30 22:33;CYUL 302233Z 03006KT 1 3/4SM RA BR BKN005 OVC008 16/ RMK SF6SF2

CYUL;2010-09-30 22:45;CYUL 302245Z 04009KT 3SM -RA BR BKN005 BKN008 OVC015 16/ RERA RMK SF5SF2SC1

CYUL;2010-09-30 23:00;CYUL 302300Z 04010KT 4SM -RA BR BKN005 OVC010 16/15 A2957 RERA RMK SF6SF2 SLP015

CYUL;2010-09-30 23:16;CYUL 302316Z 36011KT 4SM RA BR BKN004 OVC009 16/ RMK SF5SF3

CYUL;2010-09-30 23:40;CYUL 302340Z 36012KT 4SM RA BR FEW004 SCT007 OVC020 15/ RMK SF2SF2SC4

CYUL;2010-10-01 01:00;CYUL 010100Z 34015KT 2 1/2SM R06R/3500FT/N R06L/3000V4500FT/U RA BR BKN007 OVC020 15/15 A2955 RMK SF6SC2 SLP007

CYUL;2010-10-01 01:26;CYUL 010126Z 36013G18KT 3SM RA BR SCT007 OVC020 15/ RMK SF3SC5

CYUL;2010-10-01 01:48;CYUL 010148Z 36013KT 3SM RA BR BKN007 OVC020 15/ RERA RMK SF6SC2

CYUL;2010-10-01 02:00;CYUL 010200Z 34011G17KT 8SM -RA BKN009 BKN020 OVC045 15/15 A2952 RERA RMK SF4SC3SC1 /R25/ SLP998

CYUL;2010-10-01 02:23;CYUL 010223Z 32010G17KT 8SM -RA FEW008 BKN012 OVC045 15/ RERA RMK SF2SC5SC1

CYUL;2010-10-01 02:38;CYUL 010238Z 31009KT 8SM -RA SCT011 BKN018 OVC047 15/ RERA RMK SF2SC4SC2 VRY LGT RA

CYUL;2010-10-01 03:00;CYUL 010300Z 29008KT 8SM -RA FEW014 OVC028 15/14 A2962 RMK SF1SC7 PRESRR VRY LGT RA SLP032

CYUL;2010-10-01 03:21;CYUL 010321Z 28006KT 15SM OVC034 15/ RMK SC8

CYUL;2010-10-01 04:00;CYUL 010400Z 26009KT 15SM OVC045 15/14 A2966 RMK SC8 SLP043

CYUL;2010-10-01 05:00;CYUL 010500Z 25009KT 15SM SCT011 OVC045 15/14 A2969 RMK SF2SC6 SLP054

CYUL;2010-10-01 05:24;CYUL 010524Z 25008KT 10SM -RA SCT007 BKN028 OVC052 15/ RMK SF2SC6SC1

CYUL;2010-10-01 05:53;CYUL 010553Z 25008KT 10SM -RA FEW008 BKN014 OVC035 15/ RMK SF2SC5SC2

CYUL;2010-10-01 06:00;CYUL 010600Z 25009KT 10SM -RA FEW009 BKN013 OVC035 15/14 A2971 RMK SF2SC5SC2 SLP062

CYUL;2010-10-01 06:48;CYUL 010648Z 27008KT 15SM -RA FEW012 BKN048 OVC100 15/ RMK SF1SC6AC1

CYUL;2010-10-01 07:00;CYUL 010700Z 27007KT 15SM -RA FEW012 BKN048 OVC100 15/14 A2970 RMK SF1SC6AC2 SLP057

CYUL;2010-10-01 08:00;CYUL 010800Z 27005KT 15SM -RA FEW018 BKN037 OVC057 15/14 A2972 RMK SC1SC6SC2 SLP064

CYUL;2010-10-01 09:00;CYUL 010900Z 24005KT 15SM -RA FEW006 BKN032 OVC045 15/14 A2974 RMK SF2SC5SC2 SLP072

CYUL;2010-10-01 09:35;CYUL 010935Z 24006KT 15SM -RA BKN008 OVC035 15/ RMK SF6SC2

CYUL;2010-10-01 10:00;CYUL 011000Z 24006KT 15SM -RA BKN009 OVC025 15/14 A2975 RMK SF6SC2 VRY LGT RA SLP073

CYUL;2010-10-01 11:00;CYUL 011100Z 25004KT 12SM BKN009 BKN030 OVC090 15/14 A2974 RMK SF3SC4AC1 SLP070

CYUL;2010-10-01 11:08;CYUL 011108Z 27003KT 12SM -RA SCT008 BKN030 OVC052 15/ RMK SF2SC4SC2 -RA INTMT

CYUL;2010-10-01 12:00;CYUL 011200Z 31002KT 10SM -RA FEW008 BKN027 OVC050 15/14 A2974 RMK SF1SC6SC2 SLP070

CYUL;2010-10-01 13:00;CYUL 011300Z 32004KT 12SM -RA FEW006 OVC035 15/14 A2973 RMK SF2SC6 SLP068

CYUL;2010-10-01 13:26;CYUL 011326Z 31005KT 15SM FEW006 BKN030 OVC040 15/ RMK SF1SC5SC2

CYUL;2010-10-01 14:00;CYUL 011400Z 32005KT 15SM FEW008 BKN030 OVC048 15/14 A2974 RMK SF1SC5SC3 SLP070

CYUL;2010-10-01 15:00;CYUL 011500Z 32005KT 15SM FEW008 SCT030 BKN045 OVC200 15/14 A2974 RMK SF1SC2SC3CI2 SLP071

CYUL;2010-10-01 16:00;CYUL 011600Z 31005KT 15SM FEW008 OVC033 16/13 A2975 RMK SF1SC8 SLP073

CYUL;2010-10-01 17:00;CYUL 011700Z 28005KT 15SM FEW010 BKN034 OVC050 16/13 A2976 RMK SC1SC6SC2 SLP078

CYUL;2010-10-01 18:00;CYUL 011800Z 28004KT 15SM FEW010 BKN040 OVC055 16/13 A2975 RMK SC1SC5SC2 SLP075

CYUL;2010-10-01 19:00;CYUL 011900Z 31005KT 15SM FEW022 BKN044 OVC200 16/13 A2976 RMK SC2SC6CI1 SLP079

CYUL;2010-10-01 21:00;CYUL 012100Z 32011KT 15SM SCT035 BKN065 BKN220 16/11 A2977 RMK SC3SC2CI1 SLP082

CYUL;2010-10-01 22:00;CYUL 012200Z 30004KT 15SM FEW040 BKN075 16/11 A2979 RMK SC2AC4 SLP087

CYUL;2010-10-01 23:00;CYUL 012300Z 30008KT 15SM FEW040 SCT075 14/09 A2980 RMK SC2AC2 SLP092

CYUL;2010-10-02 00:00;CYUL 020000Z 32009KT 15SM FEW040 FEW070 13/09 A2982 RMK SC2AC1 SLP100

CYUL;2010-10-02 01:00;CYUL 020100Z 31006KT 15SM FEW045 BKN068 12/08 A2984 RMK SC2AC3 SLP107

CYUL;2010-10-02 02:00;CYUL 020200Z 31005KT 15SM FEW069 11/08 A2985 RMK AC1 SLP109

CYUL;2010-10-02 03:00;CYUL 020300Z 34003KT 15SM SCT067 10/08 A2986 RMK AC2 SLP112

CYUL;2010-10-02 04:00;CYUL 020400Z 34003KT 15SM FEW028 BKN067 10/08 A2985 RMK SC1AC3 SLP111

CYUL;2010-10-02 05:00;CYUL 020500Z 32006KT 15SM BKN060 10/06 A2986 RMK SC6 SLP113

CYUL;2010-10-02 06:00;CYUL 020600Z 31004KT 15SM SCT057 09/05 A2986 RMK SC2 SLP112

CYUL;2010-10-02 07:00;CYUL 020700Z 30007KT 15SM FEW057 08/05 A2985 RMK SC1 SLP111

CYUL;2010-10-02 08:00;CYUL 020800Z 30007KT 15SM SKC 07/04 A2987 RMK SLP117

CYUL;2010-10-02 09:00;CYUL 020900Z 31007KT 15SM SKC 06/04 A2990 RMK SLP125

CYUL;2010-10-02 10:00;CYUL 021000Z 31008KT 15SM SKC 06/04 A2992 RMK SLP132

CYUL;2010-10-02 11:00;CYUL 021100Z 33003KT 15SM FEW060 FEW200 05/03 A2994 RMK SC1CI1 SLP139

CYUL;2010-10-02 12:00;CYUL 021200Z 31005KT 15SM FEW028 FEW060 FEW240 07/04 A2997 RMK CU1SC2CI0 SLP150

CYUL;2010-10-02 13:00;CYUL 021300Z 31007KT 30SM FEW030 FEW060 SCT240 08/04 A2998 RMK CU1SC2CI1 SLP152

CYUL;2010-10-02 14:00;CYUL 021400Z 32009KT 15SM BKN026 09/04 A3000 RMK SC6 SLP159

CYUL;2010-10-02 15:00;CYUL 021500Z 30009KT 15SM BKN025 09/04 A2999 RMK SC7 SLP158

CYUL;2010-10-02 16:00;CYUL 021600Z 28010KT 30SM BKN028 10/04 A3000 RMK SC7 SLP161

CYUL;2010-10-02 17:00;CYUL 021700Z 29007KT 30SM BKN035 11/05 A3000 RMK SC7 SLP161

CYUL;2010-10-02 18:00;CYUL 021800Z 30010G15KT 30SM BKN040 12/03 A3000 RMK SC7 SLP159

CYUL;2010-10-02 19:00;CYUL 021900Z 28008KT 30SM BKN045 12/04 A3000 RMK SC7 SLP160

CYUL;2010-10-02 20:00;CYUL 022000Z 27010KT 30SM BKN050 12/03 A3001 RMK SC7 SLP165

CYUL;2010-10-02 21:00;CYUL 022100Z 30009KT 30SM BKN055 12/03 A3003 RMK SC7 SLP171

CYUL;2010-10-02 22:00;CYUL 022200Z 27009KT 30SM BKN055 BKN120 12/03 A3005 RMK SC6AC1 SLP176

CYUL;2010-10-02 23:00;CYUL 022300Z 29005KT 15SM BKN055 BKN120 10/03 A3007 RMK SC5AC1 SLP185

CYUL;2010-10-03 00:00;CYUL 030000Z 30004KT 15SM FEW050 FEW160 08/03 A3009 RMK SC1AC1 SLP192

CYUL;2010-10-03 01:00;CYUL 030100Z 30004KT 15SM FEW070 07/03 A3012 RMK AC1 SLP200

CYUL;2010-10-03 02:00;CYUL 030200Z 31006KT 15SM SKC 07/03 A3013 RMK SLP204

CYUL;2010-10-03 03:00;CYUL 030300Z 33004KT 15SM SKC 06/03 A3014 RMK SLP208

CYUL;2010-10-03 04:00;CYUL 030400Z 30003KT 15SM SKC 05/02 A3015 RMK SLP210

CYUL;2010-10-03 05:00;CYUL 030500Z 31005KT 15SM SKC 05/02 A3016 RMK SLP214

CYUL;2010-10-03 06:00;CYUL 030600Z 34002KT 15SM SKC 05/02 A3018 RMK SLP222

CYUL;2010-10-03 07:00;CYUL 030700Z 32004KT 15SM SKC 03/01 A3019 RMK SLP225

CYUL;2010-10-03 08:00;CYUL 030800Z 00000KT 15SM SKC 04/02 A3020 RMK SLP229

CYUL;2010-10-03 09:00;CYUL 030900Z 00000KT 15SM SKC 04/02 A3023 RMK SLP237

CYUL;2010-10-03 10:00;CYUL 031000Z 29002KT 15SM FEW240 03/01 A3024 RMK CI1 SLP242

CYUL;2010-10-03 11:00;CYUL 031100Z 33004KT 15SM FEW240 03/02 A3027 RMK CI1 SLP251

CYUL;2010-10-03 12:00;CYUL 031200Z 34006KT 15SM FEW240 04/03 A3029 RMK CI1 SLP260

CYUL;2010-10-03 13:00;CYUL 031300Z 36006KT 30SM FEW050 FEW240 07/03 A3032 RMK SC1CI1 SLP268

CYUL;2010-10-03 14:00;CYUL 031400Z 03006KT 30SM FEW020 FEW030 08/03 A3033 RMK CU1SC1 SLP272

CYUL;2010-10-03 15:00;CYUL 031500Z 07009KT 30SM SCT028 09/03 A3034 RMK CU4 SLP275

CYUL;2010-10-03 16:00;CYUL 031600Z 04004KT 30SM BKN030 10/03 A3034 RMK SC6 SLP276

CYUL;2010-10-03 17:00;CYUL 031700Z 05007KT 30SM OVC035 10/03 A3034 RMK SC8 SLP276

CYUL;2010-10-03 18:00;CYUL 031800Z 05004KT 30SM BKN035 BKN045 10/03 A3034 RMK SC6SC2 SLP275

CYUL;2010-10-03 19:00;CYUL 031900Z 09002KT 30SM BKN042 11/02 A3033 RMK SC5 SLP272

CYUL;2010-10-03 20:00;CYUL 032000Z 06007KT 30SM SCT040 12/02 A3032 RMK SC3 SLP268

CYUL;2010-10-03 21:00;CYUL 032100Z 05010KT 30SM FEW040 12/02 A3031 RMK CU2 SLP266

CYUL;2010-10-03 22:00;CYUL 032200Z 04007KT 30SM FEW040 FEW240 11/03 A3031 RMK CU1CI1 SLP266

CYUL;2010-10-03 23:00;CYUL 032300Z 03003KT 15SM FEW240 10/02 A3031 RMK CI1 SLP267

CYUL;2010-10-04 00:00;CYUL 040000Z 04002KT 15SM SKC 08/03 A3033 RMK SLP273

CYUL;2010-10-04 01:00;CYUL 040100Z 02003KT 15SM SKC 07/03 A3034 RMK SLP277

CYUL;2010-10-04 02:00;CYUL 040200Z 01003KT 15SM SKC 07/03 A3035 RMK SLP278

CYUL;2010-10-04 03:00;CYUL 040300Z 03005KT 15SM SKC 07/03 A3035 RMK SLP278

CYUL;2010-10-04 04:00;CYUL 040400Z 03008KT 15SM SKC 06/03 A3036 RMK SLP281

CYUL;2010-10-04 05:00;CYUL 040500Z 03007KT 15SM SKC 06/02 A3037 RMK SLP285

CYUL;2010-10-04 06:00;CYUL 040600Z 03006KT 15SM FEW240 06/02 A3036 RMK CI1 SLP284

CYUL;2010-10-04 07:00;CYUL 040700Z 02007KT 15SM SKC 05/02 A3035 RMK SLP280

CYUL;2010-10-04 08:00;CYUL 040800Z 03009KT 15SM SKC 06/03 A3034 RMK SLP277

CYUL;2010-10-04 09:00;CYUL 040900Z 04009KT 15SM SKC 05/02 A3036 RMK SLP283

CYUL;2010-10-04 10:00;CYUL 041000Z 02007KT 15SM FEW240 05/03 A3037 RMK CI1 SLP285

CYUL;2010-10-04 11:00;CYUL 041100Z 03010KT 15SM FEW100 SCT180 BKN210 05/03 A3036 RMK AC1AC2CI1 SLP281

CYUL;2010-10-04 12:00;CYUL 041200Z 04012KT 30SM FEW160 FEW240 06/03 A3036 RMK AC1CI1 SLP284

CYUL;2010-10-04 13:00;CYUL 041300Z 02012KT 30SM FEW240 08/04 A3037 RMK CI1 SLP286

CYUL;2010-10-04 14:00;CYUL 041400Z 03009KT 30SM FEW120 FEW240 09/05 A3038 RMK AC1CI1 SLP290

CYUL;2010-10-04 15:00;CYUL 041500Z 05010G15KT 30SM FEW028 FEW120 11/04 A3037 RMK CU1AC1 SLP286

CYUL;2010-10-04 16:00;CYUL 041600Z 06011G18KT 30SM FEW030 FEW240 12/04 A3034 RMK CU1CI1 SLP276

CYUL;2010-10-04 17:00;CYUL 041700Z 03014KT 30SM FEW120 FEW240 13/05 A3031 RMK AC1CI1 SLP265

CYUL;2010-10-04 18:00;CYUL 041800Z 06011KT 30SM FEW130 FEW240 14/04 A3028 RMK AC1CI1 SLP256

CYUL;2010-10-04 19:00;CYUL 041900Z 04012KT 30SM BKN110 BKN240 14/04 A3026 RMK AC5CI0 SLP248

CYUL;2010-10-04 20:00;CYUL 042000Z 04011KT 30SM BKN110 14/05 A3024 RMK AC7 SLP243

CYUL;2010-10-04 21:00;CYUL 042100Z 04008KT 30SM BKN100 14/05 A3023 RMK AC7 SLP238

CYUL;2010-10-04 22:00;CYUL 042200Z 04009KT 30SM BKN100 14/05 A3022 RMK AC7 SLP236

CYUL;2010-10-04 23:00;CYUL 042300Z 01005KT 15SM BKN095 13/05 A3023 RMK AC7 SLP238

CYUL;2010-10-05 00:00;CYUL 050000Z 02007KT 15SM BKN100 13/05 A3023 RMK AC7 SLP238

CYUL;2010-10-05 01:00;CYUL 050100Z 02007KT 15SM FEW100 11/05 A3022 RMK AC2 SLP236

CYUL;2010-10-05 02:00;CYUL 050200Z 03007KT 15SM SCT070 11/04 A3022 RMK AC2 SLP236

CYUL;2010-10-05 03:00;CYUL 050300Z 01003KT 15SM FEW090 SCT230 10/04 A3023 RMK AC2CI0 SLP236

CYUL;2010-10-05 04:00;CYUL 050400Z 36005KT 15SM SCT090 SCT230 09/04 A3020 RMK AC2CI0 SLP229

CYUL;2010-10-05 05:00;CYUL 050500Z 01005KT 15SM BKN095 BKN120 10/05 A3020 RMK AC5AC2 SLP226

CYUL;2010-10-05 06:00;CYUL 050600Z 01005KT 15SM FEW090 BKN120 09/05 A3019 RMK AC2AC2 SLP223

CYUL;2010-10-05 07:00;CYUL 050700Z 01005KT 15SM BKN100 10/05 A3017 RMK AC6 SLP217

CYUL;2010-10-05 08:00;CYUL 050800Z 01005KT 15SM FEW070 BKN110 09/05 A3017 RMK AC2AC2 SLP217

CYUL;2010-10-05 09:00;CYUL 050900Z 02010KT 15SM FEW070 BKN110 09/04 A3017 RMK AC1AC2 SLP217

CYUL;2010-10-05 10:00;CYUL 051000Z 02008KT 15SM BKN100 09/04 A3017 RMK AC2 SLP219

CYUL;2010-10-05 11:00;CYUL 051100Z 03007KT 30SM BKN100 09/04 A3020 RMK AC5 SLP226

CYUL;2010-10-05 12:00;CYUL 051200Z 03010KT 30SM FEW100 09/04 A3019 RMK AC1 SLP224

CYUL;2010-10-05 13:00;CYUL 051300Z 03006KT 15SM FEW120 11/05 A3020 RMK AC1 SLP226

CYUL;2010-10-05 14:00;CYUL 051400Z 04008KT 30SM FEW100 13/05 A3020 RMK AC2 SLP227

CYUL;2010-10-05 15:00;CYUL 051500Z 03009KT 30SM FEW030 FEW095 14/05 A3020 RMK CU1AC2 SLP227

CYUL;2010-10-05 16:00;CYUL 051600Z 04013KT 30SM FEW030 FEW100 16/04 A3018 RMK CU1AC1 SLP220

CYUL;2010-10-05 17:00;CYUL 051700Z 03012KT 30SM FEW100 FEW240 18/04 A3016 RMK AC1CI1 SLP214

CYUL;2010-10-05 18:00;CYUL 051800Z 03011KT 30SM FEW100 18/04 A3013 RMK AC1 SLP205

CYUL;2010-10-05 19:00;CYUL 051900Z 03014KT 30SM FEW100 19/01 A3012 RMK AC1 SLP200

CYUL;2010-10-05 20:00;CYUL 052000Z 04013G18KT 30SM FEW100 19/M01 A3011 RMK AC1 SLP196

CYUL;2010-10-05 21:00;CYUL 052100Z 05013KT 30SM FEW060 FEW100 19/M04 A3010 RMK SC1AC1 SLP193

CYUL;2010-10-05 22:00;CYUL 052200Z 04011KT 30SM FEW050 FEW090 19/00 A3010 RMK SC1AC1 SLP195

CYUL;2010-10-05 23:00;CYUL 052300Z 06011KT 15SM FEW090 18/02 A3012 RMK AC1 SLP199

CYUL;2010-10-06 00:00;CYUL 060000Z 05011KT 15SM SKC 17/03 A3011 RMK SLP198

CYUL;2010-10-06 01:00;CYUL 060100Z 05008KT 15SM SKC 16/03 A3012 RMK SLP201

CYUL;2010-10-06 02:00;CYUL 060200Z 03010KT 15SM SKC 14/05 A3012 RMK SLP201

CYUL;2010-10-06 03:00;CYUL 060300Z 03010KT 15SM SKC 13/06 A3012 RMK SLP202

CYUL;2010-10-06 04:00;CYUL 060400Z 03013KT 15SM SKC 13/06 A3011 RMK SLP198

CYUL;2010-10-06 05:00;CYUL 060500Z 03011KT 15SM FEW070 FEW240 12/06 A3012 RMK AC2CI1 SLP200

CYUL;2010-10-06 06:00;CYUL 060600Z 04011KT 15SM SCT070 BKN110 13/06 A3012 RMK AC2AC2 SLP202

CYUL;2010-10-06 07:00;CYUL 060700Z 05016G24KT 15SM BKN100 13/05 A3011 RMK AC3 SLP198

CYUL;2010-10-06 08:00;CYUL 060800Z 05014G20KT 15SM BKN100 13/05 A3010 RMK AC3 SLP195

CYUL;2010-10-06 09:00;CYUL 060900Z 06014KT 15SM BKN085 12/04 A3009 RMK AC4 SLP192

CYUL;2010-10-06 10:00;CYUL 061000Z 06011KT 15SM SCT090 12/04 A3009 RMK AC2 SLP191

CYUL;2010-10-06 11:00;CYUL 061100Z 06010KT 30SM SCT100 12/05 A3009 RMK AC2 SLP190

CYUL;2010-10-06 12:00;CYUL 061200Z 05011KT 15SM FEW090 BKN130 12/05 A3008 RMK AC2AC4 SLP187

CYUL;2010-10-06 12:36;CYUL 061236Z 05011KT 15SM -SHRA BKN090 BKN120 12/ RMK AC6AC1

CYUL;2010-10-06 12:54;CYUL 061254Z 05011KT 15SM BKN070 BKN120 12/ RMK AC6AC1

CYUL;2010-10-06 13:00;CYUL 061300Z 05012KT 15SM BKN075 BKN110 12/05 A3007 RMK AC6AC2 SLP185

CYUL;2010-10-06 13:47;CYUL 061347Z 05008KT 15SM -SHRA BKN075 OVC090 12/ RMK AC6AC2

CYUL;2010-10-06 14:00;CYUL 061400Z 05008KT 15SM -SHRA BKN070 OVC090 12/06 A3007 RMK AC6AC2 SLP183

CYUL;2010-10-06 15:00;CYUL 061500Z 36003KT 8SM -RA BKN042 OVC070 12/07 A3008 RMK SC5AC3 SLP186

CYUL;2010-10-06 15:16;CYUL 061516Z 00000KT 6SM -DZ BR BKN034 OVC065 11/ RMK SC6SC2

CYUL;2010-10-06 16:00;CYUL 061600Z 02009KT 15SM -RA FEW035 SCT055 OVC100 11/08 A3004 RMK SC2SC2AC4 VRY LGT RA SLP172

CYUL;2010-10-06 17:00;CYUL 061700Z 02009KT 15SM -RA FEW035 SCT055 OVC100 11/08 A3000 RMK SC2SC2AC4 SLP161

CYUL;2010-10-06 17:38;CYUL 061738Z 36009KT 15SM FEW035 SCT050 OVC120 11/ RMK SC2SC2AC5

CYUL;2010-10-06 18:00;CYUL 061800Z 02010KT 15SM -RA SCT040 OVC090 11/08 A2996 RMK SC3AC5 -RA INTMT SLP147

CYUL;2010-10-06 19:00;CYUL 061900Z 01011KT 12SM -RA FEW040 SCT060 BKN100 12/09 A2991 RMK SC2SC2AC3 SLP131

CYUL;2010-10-06 20:00;CYUL 062000Z 03012G18KT 12SM -RA FEW040 OVC090 12/09 A2986 RMK SC2AC6 SLP114

CYUL;2010-10-06 21:00;CYUL 062100Z 04009KT 10SM -RA FEW030 BKN070 OVC100 12/09 A2985 RMK SC2AC4AC2 SLP108

CYUL;2010-10-06 22:00;CYUL 062200Z 06008KT 8SM -RA BKN045 OVC070 12/09 A2985 RMK SC6AC2 SLP108

CYUL;2010-10-06 23:00;CYUL 062300Z 09009KT 6SM -RA BR BKN018 OVC024 11/09 A2983 RMK SC5SC3 SLP102

CYUL;2010-10-06 23:12;CYUL 062312Z 07007KT 5SM -RA BR BKN013 OVC020 11/ RMK SF5SC3

CYUL;2010-10-07 00:00;CYUL 070000Z 07008KT 5SM -RA BR SCT011 BKN017 OVC024 10/09 A2979 RMK SF3SC3SC2 /R12/ SLP089

CYUL;2010-10-07 00:17;CYUL 070017Z 06010KT 6SM -RA BR FEW007 BKN012 OVC020 10/ RMK SF1SF5SC2

CYUL;2010-10-07 01:00;CYUL 070100Z 07011KT 8SM -RA FEW007 BKN012 OVC020 11/09 A2975 RMK SF1SF6SC2 SLP076

CYUL;2010-10-07 02:00;CYUL 070200Z 05008KT 10SM -RA FEW008 SCT015 OVC027 11/09 A2972 RMK SF2SF2SC5 SLP066

CYUL;2010-10-07 02:20;CYUL 070220Z 05009KT 15SM SCT008 OVC026 11/ RMK SF3SC5

CYUL;2010-10-07 03:00;CYUL 070300Z 05007KT 15SM FEW009 OVC025 11/09 A2968 RMK SF2SC6 SLP053

CYUL;2010-10-07 04:00;CYUL 070400Z 04007KT 15SM FEW009 BKN020 OVC025 11/09 A2965 RMK SF2SC5SC1 SLP042

CYUL;2010-10-07 05:00;CYUL 070500Z 04006KT 15SM FEW009 OVC021 11/09 A2962 RMK SF2SC6 SLP032

CYUL;2010-10-07 06:00;CYUL 070600Z 03005KT 15SM -DZ FEW009 OVC022 10/09 A2959 RMK SF2SC6 SLP022

CYUL;2010-10-07 06:34;CYUL 070634Z 36005KT 3SM -RA BR BKN009 OVC017 10/ RMK SF6SC2

CYUL;2010-10-07 07:00;CYUL 070700Z 01005KT 2 1/2SM -RA BR BKN009 OVC017 10/09 A2957 RMK SF5SC3 SLP013

CYUL;2010-10-07 08:00;CYUL 070800Z 01006KT 2 1/2SM -RA BR OVC005 10/09 A2955 RMK SF8 SLP006

CYUL;2010-10-07 09:00;CYUL 070900Z 35006KT 4SM -RA BR OVC008 10/09 A2952 RMK SF8 SLP997

CYUL;2010-10-07 09:51;CYUL 070951Z 32005KT 2 1/2SM -RA BR SCT008 OVC012 10/ RMK SF3SF5

CYUL;2010-10-07 10:00;CYUL 071000Z 32007KT 2 1/2SM -RA BR SCT005 OVC014 10/09 A2951 RMK SF3SF5 SLP995

CYUL;2010-10-07 10:31;CYUL 071031Z 32004KT 3SM -RA BR SCT004 OVC008 10/ RMK SF3SF5

CYUL;2010-10-07 10:48;CYUL 071048Z 31005KT 2 1/2SM -RA BR SCT004 BKN008 OVC027 10/ RMK SF3SF4SC1

CYUL;2010-10-07 11:00;CYUL 071100Z 30006KT 2 1/2SM -RA BR BKN005 OVC021 10/09 A2950 RMK SF6SC2 SLP991

CYUL;2010-10-07 12:00;CYUL 071200Z 28007KT 2SM -RA BR OVC005 10/09 A2949 RMK SF8 SLP987

CYUL;2010-10-07 12:27;CYUL 071227Z 30008KT 8SM -DZ BKN005 OVC065 10/ RMK SF5SC3

CYUL;2010-10-07 12:34;CYUL 071234Z 30009KT 15SM -DZ SCT007 OVC050 10/ RMK SF3SC5

CYUL;2010-10-07 12:48;CYUL 071248Z 20009KT 15SM -RA SCT007 OVC035 10/ RMK SF3SC5

CYUL;2010-10-07 13:00;CYUL 071300Z 28010KT 15SM FEW008 OVC033 10/09 A2949 RMK SF2SC6 -RA INTMT SLP986

CYUL;2010-10-07 13:39;CYUL 071339Z 27010KT 15SM FEW010 SCT035 OVC075 11/ RMK SF2SC2AC3

CYUL;2010-10-07 14:00;CYUL 071400Z 26010G15KT 15SM FEW010 SCT035 BKN080 BKN140 11/10 A2945 RMK SF1SC2AC2AC1 SLP973

CYUL;2010-10-07 14:28;CYUL 071428Z 27012G19KT 12SM FEW009 SCT014 BKN026 OVC070 12/ RMK SF1SF2SC3AC2

CYUL;2010-10-07 14:50;CYUL 071450Z 28011KT 12SM FEW014 SCT036 BKN075 BKN120 12/ RMK SF1SF2AC2AC2

CYUL;2010-10-07 15:00;CYUL 071500Z 28013KT 15SM FEW013 BKN025 BKN080 BKN120 12/10 A2949 RMK SF1SC4AC2AC1 SLP986

CYUL;2010-10-07 16:00;CYUL 071600Z 28008KT 15SM FEW024 FEW080 SCT130 14/10 A2949 RMK SC1AC1AC1 SLP986

CYUL;2010-10-07 17:00;CYUL 071700Z 30016G25KT 30SM FEW040 BKN057 BKN110 BKN240 16/08 A2949 RMK SC1SC2AC2CI1 SLP988

CYUL;2010-10-07 18:00;CYUL 071800Z 28014KT 15SM BKN055 BKN085 BKN220 16/07 A2949 RMK SC3AC2CI0 TCU EMBD NE SLP987

CYUL;2010-10-07 19:00;CYUL 071900Z 33004KT 15SM -RA FEW036 BKN055 BKN080 14/08 A2949 RMK SC2SC5AC1 TCU EMBD SLP987

CYUL;2010-10-07 19:26;CYUL 071926Z 31004KT 15SM FEW035 SCT060 BKN120 15/ RMK SC2SC2AC2

CYUL;2010-10-07 19:43;CYUL 071943Z CCA 27016KT 15SM -RA FEW035 BKN055 BKN120 15/ RMK SC2SC4AC2 -RA INTMT

CYUL;2010-10-07 20:00;CYUL 072000Z 28020G31KT 12SM -RA FEW028 BKN043 BKN060 BKN075 12/08 A2951 RMK SC2SC3SC1AC1 SLP994

CYUL;2010-10-07 20:13;CYUL 072013Z 28010G20KT 15SM FEW042 SCT062 BKN120 13/ RMK SC2SC2AC1

CYUL;2010-10-07 21:00;CYUL 072100Z 26017KT 30SM FEW065 FEW240 14/08 A2951 RMK SC1CI1 SLP993

CYUL;2010-10-07 22:00;CYUL 072200Z 30015G20KT 15SM FEW065 FEW240 14/04 A2956 RMK SC1CI1 SLP009

CYUL;2010-10-07 23:00;CYUL 072300Z 30014KT 15SM FEW065 SCT085 14/03 A2961 RMK SC1AC2 SLP027

CYUL;2010-10-08 00:00;CYUL 080000Z 29010KT 15SM FEW090 13/03 A2965 RMK AC1 SLP041

CYUL;2010-10-08 01:00;CYUL 080100Z 27009G15KT 15SM FEW100 12/02 A2967 RMK AC0 SLP049

CYUL;2010-10-08 02:00;CYUL 080200Z 25010KT 15SM SCT100 12/02 A2968 RMK AC1 SLP053

CYUL;2010-10-08 03:00;CYUL 080300Z 26013KT 15SM FEW090 11/03 A2969 RMK AC1 SLP055

CYUL;2010-10-08 04:00;CYUL 080400Z 26013KT 15SM SKC 11/03 A2971 RMK SLP062

CYUL;2010-10-08 05:00;CYUL 080500Z 26011KT 15SM SKC 10/04 A2972 RMK SLP064

CYUL;2010-10-08 06:00;CYUL 080600Z 26011KT 15SM SKC 10/03 A2970 RMK SLP059

CYUL;2010-10-08 07:00;CYUL 080700Z 26014KT 15SM FEW120 10/04 A2972 RMK AC1 SLP063

CYUL;2010-10-08 08:00;CYUL 080800Z 26010KT 15SM FEW120 09/04 A2972 RMK AC1 SLP064

CYUL;2010-10-08 09:00;CYUL 080900Z 25010G15KT 15SM BKN150 10/04 A2971 RMK AC6 SLP062

CYUL;2010-10-08 10:00;CYUL 081000Z 26012KT 15SM BKN110 10/04 A2972 RMK AC7 SLP064

CYUL;2010-10-08 11:00;CYUL 081100Z 25011KT 30SM -SHRA OVC085 10/04 A2971 RMK AC7 SLP061

CYUL;2010-10-08 11:19;CYUL 081119Z 24013KT 30SM BKN085 10/ RMK AC7

CYUL;2010-10-08 12:00;CYUL 081200Z 24014KT 30SM BKN100 10/05 A2969 RMK AC7 SLP056

CYUL;2010-10-08 12:43;CYUL 081243Z 25008KT 30SM -SHRA BKN075 11/ RMK AC7

CYUL;2010-10-08 13:00;CYUL 081300Z 26009KT 30SM BKN085 11/06 A2969 RMK AC7 SLP055

CYUL;2010-10-08 14:00;CYUL 081400Z 27015G20KT 30SM BKN075 BKN120 12/07 A2969 RMK AC6AC2 SLP054

CYUL;2010-10-08 15:00;CYUL 081500Z 27017G22KT 15SM -SHRA BKN053 BKN100 12/07 A2969 RMK SC6AC1 VRY LGT RA SLP056

CYUL;2010-10-08 15:51;CYUL 081551Z 27015G21KT 15SM BKN070 BKN090 12/ RMK AC6AC2 OCNL -SHRA

CYUL;2010-10-08 16:00;CYUL 081600Z 26015KT 15SM BKN070 BKN100 12/08 A2969 RMK AC6AC2 OCNL -SHRA SLP055

CYUL;2010-10-08 16:07;CYUL 081607Z 26014G19KT 15SM -SHRA BKN075 OVC100 12/ RMK AC6AC2

CYUL;2010-10-08 16:18;CYUL 081618Z 26016KT 15SM BKN075 OVC100 12/ RMK AC6AC2

CYUL;2010-10-08 16:52;CYUL 081652Z 27015KT 15SM -SHRA BKN070 BKN090 12/ RMK AC6AC2

CYUL;2010-10-08 17:00;CYUL 081700Z 27015G20KT 15SM -SHRA BKN070 BKN090 12/08 A2969 RMK AC6AC2 SLP056

CYUL;2010-10-08 18:00;CYUL 081800Z 28012KT 15SM -SHRA BKN065 OVC080 12/09 A2969 RMK SC6AC2 SLP055

CYUL;2010-10-08 19:00;CYUL 081900Z 27014KT 15SM -SHRA FEW042 BKN065 BKN090 12/09 A2969 RMK CU1SC6AC1 CU EMBD NE SLP056

CYUL;2010-10-08 20:00;CYUL 082000Z 29008KT 15SM -SHRA FEW060 BKN085 12/09 A2969 RMK SC2AC4 CU EMBD NE VRY LGT RA SLP054

CYUL;2010-10-08 20:47;CYUL 082047Z 31010KT 15SM SCT065 BKN090 13/ RMK SC2AC3

CYUL;2010-10-08 21:00;CYUL 082100Z 31009KT 15SM FEW065 BKN090 BKN120 13/09 A2969 RMK SC2AC3AC1 SLP054

CYUL;2010-10-08 22:00;CYUL 082200Z 30006KT 15SM FEW065 SCT090 BKN120 12/09 A2970 RMK SC1AC2AC1 CU EMBD NE SLP058

CYUL;2010-10-08 23:00;CYUL 082300Z 29003KT 15SM FEW060 BKN090 12/09 A2972 RMK SC1AC3 SLP065

CYUL;2010-10-09 00:00;CYUL 090000Z 26006KT 15SM SCT090 12/09 A2973 RMK AC2 SLP068

CYUL;2010-10-09 01:00;CYUL 090100Z 26006KT 15SM FEW090 11/08 A2974 RMK AC1 SLP072

CYUL;2010-10-09 02:00;CYUL 090200Z 27007KT 15SM FEW100 11/08 A2975 RMK AC0 SLP076

CYUL;2010-10-09 03:00;CYUL 090300Z 24008KT 15SM SKC 11/08 A2976 RMK SLP080

CYUL;2010-10-09 04:00;CYUL 090400Z 27006KT 15SM SKC 08/07 A2978 RMK SLP087

CYUL;2010-10-09 05:00;CYUL 090500Z 26007KT 15SM SKC 09/07 A2980 RMK SLP092

CYUL;2010-10-09 06:00;CYUL 090600Z 28005KT 15SM SKC 08/04 A2982 RMK SLP100

CYUL;2010-10-09 07:00;CYUL 090700Z 31004KT 15SM SKC 07/04 A2983 RMK SLP102

CYUL;2010-10-09 08:00;CYUL 090800Z 32006KT 15SM SKC 07/02 A2984 RMK SLP106

CYUL;2010-10-09 09:00;CYUL 090900Z 32008KT 15SM SKC 06/01 A2988 RMK SLP118

CYUL;2010-10-09 10:00;CYUL 091000Z 36007KT 15SM SKC 04/M00 A2992 RMK SLP134

CYUL;2010-10-09 11:00;CYUL 091100Z 34009KT 15SM FEW030 FEW090 04/M02 A2996 RMK CF1AC1 SLP147

CYUL;2010-10-09 12:00;CYUL 091200Z 29004KT 15SM FEW040 FEW090 04/M01 A2998 RMK CU0AC0 SLP154

CYUL;2010-10-09 13:00;CYUL 091300Z 29009KT 30SM FEW045 06/M01 A3000 RMK CU1 SLP161

CYUL;2010-10-09 14:00;CYUL 091400Z 30009KT 30SM FEW045 07/M01 A3001 RMK CF1 SLP165

CYUL;2010-10-09 15:00;CYUL 091500Z 27010G16KT 30SM FEW045 FEW240 08/M01 A3001 RMK CF1CI0 SLP163

CYUL;2010-10-09 16:00;CYUL 091600Z 26011G16KT 30SM FEW050 08/M01 A3000 RMK SC1 SLP161

CYUL;2010-10-09 17:00;CYUL 091700Z 28012G17KT 30SM FEW047 10/00 A2999 RMK CF2 SLP157

CYUL;2010-10-09 18:00;CYUL 091800Z 28014G19KT 30SM FEW050 11/M00 A2997 RMK CF1 SLP151

CYUL;2010-10-09 19:00;CYUL 091900Z 31017G22KT 30SM FEW055 FEW240 11/M01 A2996 RMK CF1CI0 SLP148

CYUL;2010-10-09 20:00;CYUL 092000Z 31013G21KT 30SM FEW055 11/M00 A2997 RMK SC1 SLP149

CYUL;2010-10-09 21:00;CYUL 092100Z 30017KT 30SM FEW060 FEW240 11/M01 A2997 RMK SC1CI0 SLP149

CYUL;2010-10-09 22:00;CYUL 092200Z 29009G15KT 30SM FEW240 10/M01 A2998 RMK CI1 SLP153

CYUL;2010-10-09 23:00;CYUL 092300Z 31006KT 15SM FEW240 08/M01 A2999 RMK CI0 SLP155

CYUL;2010-10-10 00:00;CYUL 100000Z 29005KT 15SM SKC 06/M01 A2999 RMK SLP157

CYUL;2010-10-10 01:00;CYUL 100100Z 29006KT 15SM SKC 06/M01 A2999 RMK SLP159

CYUL;2010-10-10 02:00;CYUL 100200Z 28006KT 15SM SKC 06/M02 A2999 RMK SLP157

CYUL;2010-10-10 03:00;CYUL 100300Z 28007KT 15SM SKC 05/M01 A2998 RMK SLP153

CYUL;2010-10-10 04:00;CYUL 100400Z 27006KT 15SM SCT150 06/M01 A2997 RMK AC2 SLP149

CYUL;2010-10-10 05:00;CYUL 100500Z 29006KT 15SM BKN160 06/M01 A2995 RMK AC7 SLP142

CYUL;2010-10-10 06:00;CYUL 100600Z 26007KT 15SM BKN120 07/M00 A2993 RMK AC7 SLP136

CYUL;2010-10-10 07:00;CYUL 100700Z 30006KT 15SM BKN140 BKN170 07/M01 A2993 RMK AC6AC2 SLP135

CYUL;2010-10-10 08:00;CYUL 100800Z 24005KT 15SM SCT130 BKN170 07/M00 A2991 RMK AC3AC4 SLP131

CYUL;2010-10-10 09:00;CYUL 100900Z 23008KT 15SM OVC180 07/01 A2991 RMK AC8 SLP131

CYUL;2010-10-10 10:00;CYUL 101000Z 25009KT 15SM BKN140 06/M00 A2991 RMK AC7 SLP129

CYUL;2010-10-10 11:00;CYUL 101100Z 25007KT 30SM BKN150 06/M00 A2989 RMK AC7 SLP124

CYUL;2010-10-10 12:00;CYUL 101200Z 24012KT 30SM FEW140 BKN170 06/00 A2987 RMK AC2AC2 SLP116

CYUL;2010-10-10 13:00;CYUL 101300Z 25013KT 30SM FEW090 BKN140 BKN180 07/01 A2986 RMK AC1AC3AC0 SLP112

CYUL;2010-10-10 14:00;CYUL 101400Z 25013KT 30SM SCT140 BKN160 BKN190 09/01 A2983 RMK AC2AC2AC0 SLP103

CYUL;2010-10-10 15:00;CYUL 101500Z 24010G18KT 30SM SCT130 BKN160 BKN240 11/01 A2978 RMK AC2AC1CI1 SLP085

CYUL;2010-10-10 16:00;CYUL 101600Z 24016KT 30SM BKN130 BKN240 13/M01 A2975 RMK AC2CI1 SLP074

CYUL;2010-10-10 17:00;CYUL 101700Z 25016G22KT 30SM BKN100 BKN120 BKN210 14/M02 A2971 RMK AC3AC2CI1 SLP061

CYUL;2010-10-10 18:00;CYUL 101800Z 25015G21KT 30SM SCT075 BKN120 BKN210 14/M01 A2967 RMK AC2AC2CI0 SLP049

CYUL;2010-10-10 19:00;CYUL 101900Z 26014KT 30SM FEW065 BKN090 BKN210 15/M01 A2964 RMK SC2AC2CI0 SLP038

CYUL;2010-10-10 20:00;CYUL 102000Z 26017KT 30SM FEW065 BKN120 BKN240 15/M02 A2963 RMK SC1AC2CI1 SLP035

CYUL;2010-10-10 21:00;CYUL 102100Z 27013KT 30SM FEW065 FEW120 15/01 A2962 RMK SC1AC2 SLP030

CYUL;2010-10-10 22:00;CYUL 102200Z 27011KT 30SM FEW065 FEW120 14/02 A2962 RMK SC1AC1 SLP032

CYUL;2010-10-10 23:00;CYUL 102300Z 28007KT 15SM FEW120 11/02 A2964 RMK AC1 SLP036

CYUL;2010-10-11 00:00;CYUL 110000Z 27008KT 15SM SKC 11/03 A2963 RMK SLP035

CYUL;2010-10-11 01:00;CYUL 110100Z 27006KT 15SM FEW240 10/02 A2965 RMK CI1 SLP041

CYUL;2010-10-11 02:00;CYUL 110200Z 24007KT 15SM FEW120 11/02 A2966 RMK AC1 SLP044

CYUL;2010-10-11 03:00;CYUL 110300Z 26006KT 15SM FEW120 08/02 A2967 RMK AC1 SLP047

CYUL;2010-10-11 04:00;CYUL 110400Z 27006KT 15SM FEW120 08/03 A2967 RMK AC1 SLP050

CYUL;2010-10-11 05:00;CYUL 110500Z 30007KT 15SM FEW120 08/04 A2968 RMK AC1 SLP052

CYUL;2010-10-11 06:00;CYUL 110600Z 30007KT 15SM FEW090 08/03 A2969 RMK AC1 SLP056

CYUL;2010-10-11 07:00;CYUL 110700Z 31006KT 15SM FEW090 06/03 A2971 RMK AC1 SLP062

CYUL;2010-10-11 08:00;CYUL 110800Z 31007KT 15SM FEW045 07/03 A2972 RMK SC2 SLP067

CYUL;2010-10-11 09:00;CYUL 110900Z 30007KT 15SM FEW045 07/03 A2974 RMK SC1 SLP073

CYUL;2010-10-11 10:00;CYUL 111000Z 29005KT 15SM SKC 05/02 A2977 RMK SLP081

CYUL;2010-10-11 11:00;CYUL 111100Z 28005KT 30SM FEW040 FEW240 05/02 A2978 RMK SC1CI0 SLP085

CYUL;2010-10-11 12:00;CYUL 111200Z 30007KT 30SM FEW040 FEW240 06/02 A2979 RMK SC1CI1 SLP090

CYUL;2010-10-11 13:00;CYUL 111300Z 32008KT 30SM FEW040 FEW240 08/02 A2981 RMK SC1CI1 SLP095

CYUL;2010-10-11 14:00;CYUL 111400Z 30010KT 30SM FEW040 FEW240 08/02 A2982 RMK CU1CI0 SLP099

CYUL;2010-10-11 15:00;CYUL 111500Z 31005KT 30SM FEW045 FEW240 09/01 A2983 RMK CU1CI0 SLP103

CYUL;2010-10-11 16:00;CYUL 111600Z 32005KT 30SM FEW045 FEW240 11/01 A2983 RMK CU1CI1 SLP101

CYUL;2010-10-11 17:00;CYUL 111700Z 25004KT 30SM FEW045 FEW240 11/01 A2982 RMK CU1CI0 SLP098

CYUL;2010-10-11 18:00;CYUL 111800Z 27008KT 30SM FEW045 FEW240 12/00 A2980 RMK CU1CI0 SLP093

CYUL;2010-10-11 19:00;CYUL 111900Z 25010KT 30SM FEW045 FEW240 12/M01 A2980 RMK CU1CI0 SLP092

CYUL;2010-10-11 20:00;CYUL 112000Z 25011KT 30SM FEW045 FEW240 13/M02 A2980 RMK CU1CI0 SLP093

CYUL;2010-10-11 21:00;CYUL 112100Z 26010KT 30SM FEW180 SCT240 12/M02 A2980 RMK AC0CI0 SLP093

CYUL;2010-10-11 22:00;CYUL 112200Z 29005KT 30SM SCT180 BKN220 10/M01 A2981 RMK AC1CI0 SLP095

CYUL;2010-10-11 23:00;CYUL 112300Z 30004KT 15SM SCT180 BKN210 08/M02 A2982 RMK AC0CI0 SLP100

CYUL;2010-10-12 00:00;CYUL 120000Z 33005KT 15SM BKN230 06/M01 A2983 RMK CI0 SLP102

CYUL;2010-10-12 01:00;CYUL 120100Z 33002KT 15SM FEW240 06/M01 A2983 RMK CI0 SLP104

CYUL;2010-10-12 02:00;CYUL 120200Z 32006KT 15SM FEW150 FEW240 05/M00 A2985 RMK AC1CI1 SLP108

CYUL;2010-10-12 03:00;CYUL 120300Z 36002KT 15SM BKN150 06/M00 A2985 RMK AC6 SLP109

CYUL;2010-10-12 04:00;CYUL 120400Z 36005KT 15SM BKN150 06/01 A2984 RMK AC6 SLP106

CYUL;2010-10-12 05:00;CYUL 120500Z 36003KT 15SM FEW150 05/00 A2983 RMK AC2 SLP102

CYUL;2010-10-12 06:00;CYUL 120600Z 32002KT 15SM SKC 03/00 A2984 RMK SLP106

CYUL;2010-10-12 07:00;CYUL 120700Z 30002KT 15SM FEW240 03/00 A2983 RMK CI1 SLP104

CYUL;2010-10-12 08:00;CYUL 120800Z 00000KT 15SM FEW240 03/00 A2984 RMK CI0 SLP107

CYUL;2010-10-12 09:00;CYUL 120900Z 36003KT 15SM FEW160 FEW240 03/M01 A2984 RMK AC1CI1 SLP106

CYUL;2010-10-12 09:10;CYUL 120910Z 36003KT 15SM FEW160 01/ RMK AC2

CYUL;2010-10-12 10:00;CYUL 121000Z 34003KT 15SM FEW160 02/M00 A2985 RMK AC1 SLP110

CYUL;2010-10-12 11:00;CYUL 121100Z 00000KT 15SM FEW150 FEW210 02/M01 A2985 RMK AC1CI1 SLP109

CYUL;2010-10-12 12:00;CYUL 121200Z 00000KT 30SM FEW040 FEW150 FEW210 02/M01 A2987 RMK SC1AC1CI1 SLP116

CYUL;2010-10-12 13:00;CYUL 121300Z 01004KT 30SM FEW040 SCT210 05/01 A2988 RMK SC2CI1 SLP120

CYUL;2010-10-12 14:00;CYUL 121400Z 01002KT 30SM SCT040 SCT120 07/02 A2988 RMK CF0AC1 SLP121

CYUL;2010-10-12 15:00;CYUL 121500Z 04002KT 30SM SCT045 10/02 A2988 RMK CU3 SLP121

CYUL;2010-10-12 16:00;CYUL 121600Z 29007KT 30SM BKN037 10/01 A2989 RMK CU5 SLP122

CYUL;2010-10-12 17:00;CYUL 121700Z 00000KT 30SM FEW040 SCT120 10/00 A2988 RMK CU2AC1 SLP119

CYUL;2010-10-12 18:00;CYUL 121800Z 25003KT 30SM FEW060 FEW100 11/01 A2987 RMK CU2AC1 SLP116

CYUL;2010-10-12 19:00;CYUL 121900Z 28007KT 30SM FEW060 FEW100 12/02 A2987 RMK CU2AC1 SLP115

CYUL;2010-10-12 20:00;CYUL 122000Z 25008KT 30SM FEW050 BKN120 12/02 A2988 RMK CU2AC0 SLP120

CYUL;2010-10-12 21:00;CYUL 122100Z 25008KT 30SM FEW050 BKN100 12/02 A2988 RMK CU1AC2 SLP121

CYUL;2010-10-12 22:00;CYUL 122200Z 24006KT 30SM FEW050 FEW100 11/02 A2991 RMK CU1AC2 SLP128

CYUL;2010-10-12 23:00;CYUL 122300Z 26006KT 15SM FEW100 10/03 A2992 RMK AC1 SLP132

CYUL;2010-10-13 00:00;CYUL 130000Z 27007KT 15SM FEW050 BKN100 09/03 A2993 RMK SC1AC2 SLP138

CYUL;2010-10-13 01:00;CYUL 130100Z 29006KT 15SM SCT045 09/03 A2994 RMK SC3 SLP141

CYUL;2010-10-13 02:00;CYUL 130200Z 28005KT 15SM FEW040 06/02 A2995 RMK SC1 SLP144

CYUL;2010-10-13 03:00;CYUL 130300Z 28005KT 15SM FEW070 05/02 A2996 RMK AC1 SLP146

CYUL;2010-10-13 04:00;CYUL 130400Z 29005KT 15SM FEW070 FEW120 04/01 A2997 RMK AC1AC1 SLP149

CYUL;2010-10-13 05:00;CYUL 130500Z 31004KT 15SM FEW040 FEW070 06/02 A2998 RMK SC1AC1 SLP152

CYUL;2010-10-13 06:00;CYUL 130600Z 34002KT 15SM FEW050 FEW070 06/03 A2999 RMK SC2AC1 SLP155

CYUL;2010-10-13 07:00;CYUL 130700Z 15002KT 15SM FEW045 04/02 A2999 RMK SC1 SLP155

CYUL;2010-10-13 08:00;CYUL 130800Z 00000KT 15SM FEW045 03/01 A2999 RMK SC1 SLP156

CYUL;2010-10-13 09:00;CYUL 130900Z 00000KT 15SM SKC 04/02 A3000 RMK SLP159

CYUL;2010-10-13 10:00;CYUL 131000Z 27003KT 15SM FEW020 03/02 A3001 RMK SC1 SLP163

CYUL;2010-10-13 11:00;CYUL 131100Z 00000KT 30SM MIFG FEW010 04/03 A3002 RMK SF1 SLP168

CYUL;2010-10-13 12:00;CYUL 131200Z 26004KT 30SM FEW004 04/03 A3004 RMK SF1 SLP172

CYUL;2010-10-13 13:00;CYUL 131300Z 26005KT 15SM FEW008 FEW240 07/05 A3005 RMK SF1CI1 SLP177

CYUL;2010-10-13 14:00;CYUL 131400Z 23004KT 30SM FEW012 FEW240 08/04 A3005 RMK SF1CI0 SLP178

CYUL;2010-10-13 15:00;CYUL 131500Z 21004KT 30SM FEW020 FEW240 10/05 A3005 RMK CF1CI1 SLP178

CYUL;2010-10-13 16:00;CYUL 131600Z 20005KT 30SM FEW020 FEW240 11/05 A3005 RMK CU1CI1 SLP177

CYUL;2010-10-13 17:00;CYUL 131700Z 19005KT 30SM FEW025 FEW240 12/05 A3004 RMK CU1CI1 SLP172

CYUL;2010-10-13 18:00;CYUL 131800Z 27006KT 30SM FEW030 FEW240 13/05 A3001 RMK CU1CI1 SLP164

CYUL;2010-10-13 19:00;CYUL 131900Z 19007KT 30SM FEW035 FEW240 13/05 A3000 RMK CU1CI0 SLP159

CYUL;2010-10-13 20:00;CYUL 132000Z 21007KT 30SM FEW150 SCT240 14/04 A2999 RMK AC1CI0 CONTRAILS SLP157

CYUL;2010-10-13 21:00;CYUL 132100Z 21007KT 30SM FEW150 BKN240 14/04 A2999 RMK AC1CI0 SLP157

CYUL;2010-10-13 22:00;CYUL 132200Z 21005KT 30SM FEW150 SCT240 13/03 A2999 RMK AC1CI0 SLP157

CYUL;2010-10-13 23:00;CYUL 132300Z 26004KT 15SM FEW150 BKN240 10/04 A3000 RMK AC1CI0 SLP160

CYUL;2010-10-14 00:00;CYUL 140000Z 25003KT 15SM FEW150 SCT240 08/04 A3000 RMK AC1CI0 SLP161

CYUL;2010-10-14 01:00;CYUL 140100Z 18005KT 15SM SCT110 BKN140 09/06 A3001 RMK AC3AC2 SLP162

CYUL;2010-10-14 02:00;CYUL 140200Z 16005KT 15SM FEW120 BKN150 09/06 A3001 RMK AC2AC4 SLP162

CYUL;2010-10-14 03:00;CYUL 140300Z 15002KT 15SM FEW100 BKN150 10/05 A3000 RMK AC2AC6 SLP159

CYUL;2010-10-14 04:00;CYUL 140400Z 18005KT 15SM BKN080 OVC150 11/06 A2999 RMK AC6AC2 SLP158

CYUL;2010-10-14 05:00;CYUL 140500Z 17006KT 15SM OVC078 11/05 A2999 RMK AC8 SLP155

CYUL;2010-10-14 06:00;CYUL 140600Z 14005KT 15SM OVC072 10/05 A2998 RMK AC8 SLP153

CYUL;2010-10-14 07:00;CYUL 140700Z 15005KT 15SM OVC075 10/06 A2997 RMK AC8 SLP151

CYUL;2010-10-14 08:00;CYUL 140800Z 16003KT 15SM OVC076 10/05 A2996 RMK AC8 SLP145

CYUL;2010-10-14 09:00;CYUL 140900Z 11002KT 15SM OVC078 09/06 A2995 RMK AC8 SLP143

CYUL;2010-10-14 10:00;CYUL 141000Z 11007KT 15SM OVC085 09/07 A2994 RMK AC8 SLP140

CYUL;2010-10-14 11:00;CYUL 141100Z 12006KT 30SM BKN090 10/07 A2993 RMK AC7 SLP138

CYUL;2010-10-14 12:00;CYUL 141200Z 10005KT 30SM BKN090 OVC110 09/07 A2993 RMK AC6AC2 SLP137

CYUL;2010-10-14 13:00;CYUL 141300Z 12007KT 30SM SCT090 OVC110 10/07 A2994 RMK AC3AC5 SLP139

CYUL;2010-10-14 14:00;CYUL 141400Z 13006KT 30SM BKN110 OVC170 11/07 A2993 RMK AC6AS2 SLP137

CYUL;2010-10-14 15:00;CYUL 141500Z 12005KT 30SM BKN110 OVC200 12/07 A2992 RMK AC6CI2 SLP132

CYUL;2010-10-14 16:00;CYUL 141600Z 10007KT 30SM FEW030 BKN150 OVC210 13/07 A2990 RMK CU1AC6CI1 SLP125

CYUL;2010-10-14 17:00;CYUL 141700Z CCA 14006KT 30SM FEW035 BKN150 OVC210 14/07 A2986 RMK SC1AC5CI2 SLP112

CYUL;2010-10-14 18:00;CYUL 141800Z 10004KT 30SM FEW040 FEW150 OVC210 15/06 A2983 RMK SC1AC2CI6 SLP104

CYUL;2010-10-14 19:00;CYUL 141900Z 09006KT 30SM FEW040 FEW150 OVC200 16/06 A2980 RMK SC1AC1CS7 SLP093

CYUL;2010-10-14 20:00;CYUL 142000Z 11007KT 30SM FEW040 FEW120 BKN170 OVC220 16/06 A2979 RMK SC1AC2AS2CI2 SLP090

CYUL;2010-10-14 21:00;CYUL 142100Z 14008KT 30SM FEW040 FEW130 OVC150 16/05 A2979 RMK SC1AC2AS6 SLP090

CYUL;2010-10-14 22:00;CYUL 142200Z 12006KT 30SM FEW040 FEW075 BKN140 OVC240 14/06 A2977 RMK SC1AC2AS6CS1 SLP083

CYUL;2010-10-14 23:00;CYUL 142300Z 04009KT 15SM BKN090 OVC140 13/08 A2977 RMK AC5AS3 SLP082

CYUL;2010-10-15 00:00;CYUL 150000Z 09008KT 15SM BKN080 OVC100 15/05 A2976 RMK AC7AS1 SLP078

CYUL;2010-10-15 01:00;CYUL 150100Z 36007KT 15SM FEW060 OVC075 12/08 A2975 RMK SC2AC6 SLP077

CYUL;2010-10-15 02:00;CYUL 150200Z 12006KT 15SM BKN060 OVC080 13/06 A2975 RMK SC6AC2 SLP075

CYUL;2010-10-15 02:16;CYUL 150216Z 01004KT 15SM -RA BKN060 OVC080 13/ RMK SC6AC2 VRY LGT RA

CYUL;2010-10-15 03:00;CYUL 150300Z 16010KT 15SM -RA FEW040 BKN050 OVC065 12/08 A2975 RMK SC2SC5SC2 SLP075

CYUL;2010-10-15 04:00;CYUL 150400Z 15010KT 15SM -RA OVC050 11/09 A2974 RMK SC8 SLP072

CYUL;2010-10-15 05:00;CYUL 150500Z 14011KT 15SM -RA FEW012 OVC045 10/10 A2973 RMK SF1SC7 SLP069

CYUL;2010-10-15 06:00;CYUL 150600Z 14009KT 15SM -RA FEW040 OVC050 10/10 A2971 RMK SC2SC6 SLP063

CYUL;2010-10-15 07:00;CYUL 150700Z CCA 13006KT 15SM -RA FEW012 BKN030 OVC045 10/09 A2969 RMK SF1SC5SC2 SLP057

CYUL;2010-10-15 08:00;CYUL 150800Z 08005KT 15SM -RA FEW005 SCT009 OVC019 OVC045 10/09 A2967 RMK SF1SF2SC3SC2 SLP047

CYUL;2010-10-15 09:00;CYUL 150900Z 05005KT 15SM -RA FEW012 BKN032 OVC046 09/09 A2964 RMK SF1SC5SC2 SLP039

CYUL;2010-10-15 10:00;CYUL 151000Z 03007KT 15SM -RA FEW018 SCT030 BKN045 OVC060 09/09 A2962 RMK SF1SC3SC2SC2 SLP031

CYUL;2010-10-15 11:00;CYUL 151100Z 02010KT 15SM -RA FEW008 SCT032 OVC050 09/09 A2960 RMK SF2SC2SC4 SLP024

CYUL;2010-10-15 11:42;CYUL 151142Z 03011KT 5SM -RA BR SCT008 BKN013 BKN024 OVC040 09/ RMK SF2SC2SC3SC2

CYUL;2010-10-15 11:54;CYUL 151154Z 04013KT 8SM -RA FEW008 BKN020 BKN036 OVC050 09/ RMK SF2SC2SC3SC1

CYUL;2010-10-15 12:00;CYUL 151200Z 04010G15KT 8SM -RA FEW013 BKN023 OVC040 09/08 A2960 RMK SF2SC5SC2 SLP024

CYUL;2010-10-15 13:00;CYUL 151300Z 02012KT 8SM -RA FEW008 SCT014 BKN026 OVC040 08/08 A2958 RMK SF1SF2SC3SC2 SLP018

CYUL;2010-10-15 13:14;CYUL 151314Z 02012KT 7SM -RA SCT008 BKN014 BKN022 OVC040 08/ RMK SF2SF3SC2SC1

CYUL;2010-10-15 14:00;CYUL 151400Z 02014G19KT 7SM -RA BKN007 OVC013 08/08 A2956 RMK SF7SC1 SLP009

CYUL;2010-10-15 15:00;CYUL 151500Z 02016KT 5SM -RA BR BKN008 OVC020 08/08 A2951 RMK SF7NS1 SLP994

CYUL;2010-10-15 15:35;CYUL 151535Z 02020G27KT 5SM -RA BR BKN011 OVC025 08/ RMK SF6NS2

CYUL;2010-10-15 16:00;CYUL 151600Z 01018G25KT 5SM -RA BR BKN011 OVC018 08/07 A2948 RMK SF6NS2 SLP984

CYUL;2010-10-15 17:00;CYUL 151700Z CCA 01021G30KT 3SM -RA BR OVC012 07/06 A2945 RERA RMK SF8 /R15/ SLP973

CYUL;2010-10-15 17:36;CYUL 151736Z 02029G37KT 2 1/2SM RA BR BKN020 OVC028 07/ RMK SF5NS3

CYUL;2010-10-15 18:00;CYUL 151800Z 03029G45KT 2 1/2SM RA BR SCT013 OVC021 07/07 A2943 RMK SF4NS4 /R25/ SLP967

CYUL;2010-10-15 19:00;CYUL 151900Z 03026G35KT 4SM -RA BR FEW015 OVC022 07/07 A2943 RERA RMK SF2NS6 SLP968

CYUL;2010-10-15 20:00;CYUL 152000Z CCA 02024G33KT 4SM -RA BR BKN016 OVC028 07/07 A2945 RERA RMK SF6NS2 /R13/ SLP972

CYUL;2010-10-15 21:00;CYUL 152100Z 03026G36KT 3SM RA BR FEW014 OVC022 06/06 A2948 RMK SF2NS6 SLP985

CYUL;2010-10-15 22:00;CYUL 152200Z 02019G27KT 5SM -RA BR SCT013 OVC026 06/05 A2950 RERA RMK SF4NS4 SLP990

CYUL;2010-10-15 23:00;CYUL 152300Z 36021G27KT 5SM -RA BR SCT016 OVC028 06/05 A2951 RMK SF3NS5 /R23/ SLP994

CYUL;2010-10-16 00:00;CYUL 160000Z 35017G24KT 8SM -RA FEW018 BKN028 OVC040 06/06 A2951 RMK SF1SC6NS2 SLP994

CYUL;2010-10-16 01:00;CYUL 160100Z CCA 36019G26KT 10SM -RA SCT020 OVC030 07/06 A2952 RMK SC3NS5 SLP999

CYUL;2010-10-16 02:00;CYUL 160200Z 35015G24KT 10SM -RA SCT026 BKN035 OVC044 07/06 A2954 RMK SC2SC4NS2 SLP005

CYUL;2010-10-16 03:00;CYUL 160300Z 35016KT 12SM -RA FEW024 BKN032 OVC042 07/05 A2956 RMK SC2SC6NS1 SLP012

CYUL;2010-10-16 03:54;CYUL 160354Z 36013G21KT 15SM FEW028 BKN038 OVC055 07/ RMK SC1SC5SC2

CYUL;2010-10-16 04:00;CYUL 160400Z 35017KT 15SM FEW027 BKN036 OVC055 07/04 A2957 RMK SC1SC6SC2 SLP016

CYUL;2010-10-16 05:00;CYUL 160500Z 36015KT 15SM SCT032 BKN044 OVC067 08/04 A2959 RMK SC3SC3AC2 SLP021

CYUL;2010-10-16 06:00;CYUL 160600Z 36012G17KT 15SM -RA FEW027 BKN032 OVC050 07/05 A2960 RMK SC2SC6SC1 SLP025

CYUL;2010-10-16 07:00;CYUL 160700Z 34013KT 15SM -RA BKN030 OVC045 07/04 A2961 RMK SC6SC2 SLP030

CYUL;2010-10-16 08:00;CYUL 160800Z 35012G21KT 15SM -RA OVC034 07/05 A2963 RMK SC8 SLP036

CYUL;2010-10-16 09:00;CYUL 160900Z 33009G15KT 15SM -RA SCT035 OVC070 07/05 A2965 RMK SC2AC6 SLP042

CYUL;2010-10-16 10:00;CYUL 161000Z 33005KT 15SM OVC040 07/05 A2968 RMK SC8 SLP051

CYUL;2010-10-16 11:00;CYUL 161100Z 34008KT 15SM BKN060 OVC080 07/04 A2969 RMK SC5AC2 SLP057

CYUL;2010-10-16 11:08;CYUL 161108Z 34008KT 15SM -RA BKN048 OVC070 07/ RMK SC5AC2 -RA INTMT

CYUL;2010-10-16 11:53;CYUL 161153Z 34006KT 15SM SCT040 BKN060 BKN078 08/ RMK SC3SC2AC2

CYUL;2010-10-16 12:00;CYUL 161200Z 35008KT 15SM FEW040 SCT060 BKN072 08/04 A2972 RMK SC2SC2AS3 SLP064

CYUL;2010-10-16 13:00;CYUL 161300Z 35009G16KT 15SM FEW035 SCT062 BKN100 BKN210 08/04 A2974 RMK SC1SC2AS3CS1 SUN DIMLY VISBL SLP071

CYUL;2010-10-16 14:00;CYUL 161400Z 34013KT 15SM SCT035 OVC120 10/05 A2975 RMK SC4AS3 SLP076

CYUL;2010-10-16 15:00;CYUL 161500Z 34011KT 15SM OVC030 10/05 A2976 RMK SC8 SLP080

CYUL;2010-10-16 16:00;CYUL 161600Z 34009G17KT 15SM BKN035 10/05 A2978 RMK SC7 SLP085

CYUL;2010-10-16 16:16;CYUL 161616Z 34010G15KT 15SM -SHRA BKN035 BKN120 10/ RMK SC7AC1

CYUL;2010-10-16 16:34;CYUL 161634Z 34012G17KT 15SM BKN035 BKN050 11/ RMK SC6SC2

CYUL;2010-10-16 17:00;CYUL 161700Z 35012KT 15SM BKN040 BKN090 12/05 A2977 RMK SC6AC1 SLP084

CYUL;2010-10-16 18:00;CYUL 161800Z 35016G22KT 15SM BKN045 BKN100 11/04 A2977 RMK SC7AC1 SLP083

CYUL;2010-10-16 19:00;CYUL 161900Z 31013KT 15SM BKN040 11/04 A2979 RMK SC7 SLP089

CYUL;2010-10-16 20:00;CYUL 162000Z 32011KT 30SM FEW040 BKN050 11/04 A2980 RMK CF2SC5 SLP092

CYUL;2010-10-16 21:00;CYUL 162100Z 31011G16KT 15SM BKN050 11/04 A2981 RMK SC7 SLP096

CYUL;2010-10-16 22:00;CYUL 162200Z 31011G17KT 15SM BKN050 BKN240 10/04 A2983 RMK SC7CI1 SLP102

CYUL;2010-10-16 23:00;CYUL 162300Z 31010G15KT 15SM BKN050 BKN240 09/03 A2985 RMK SC6CI1 SLP111

CYUL;2010-10-17 00:00;CYUL 170000Z 31008KT 15SM BKN050 09/03 A2986 RMK SC7 SLP113

CYUL;2010-10-17 01:00;CYUL 170100Z 31007KT 15SM BKN055 08/03 A2986 RMK SC7 SLP114

CYUL;2010-10-17 02:00;CYUL 170200Z 28006KT 15SM FEW055 06/03 A2987 RMK SC1 SLP115

CYUL;2010-10-17 03:00;CYUL 170300Z 27005KT 15SM FEW055 FEW210 05/03 A2986 RMK SC1CI1 SLP112

CYUL;2010-10-17 04:00;CYUL 170400Z 27005KT 15SM SCT200 05/03 A2985 RMK CS0 SLP109

CYUL;2010-10-17 05:00;CYUL 170500Z 27004KT 15SM FEW240 05/03 A2984 RMK CI1 SLP105

CYUL;2010-10-17 06:00;CYUL 170600Z 23002KT 15SM SKC 06/03 A2982 RMK SLP100

CYUL;2010-10-17 07:00;CYUL 170700Z 23003KT 15SM SKC 05/04 A2980 RMK SLP092

CYUL;2010-10-17 08:00;CYUL 170800Z 23005KT 15SM FEW240 04/03 A2979 RMK CI1 SLP088

CYUL;2010-10-17 09:00;CYUL 170900Z 22004KT 15SM FEW240 04/02 A2977 RMK CI1 SLP084

CYUL;2010-10-17 10:00;CYUL 171000Z 23006KT 15SM FEW060 FEW120 SCT240 04/02 A2975 RMK SC1AC1CI1 SLP077

CYUL;2010-10-17 11:00;CYUL 171100Z 24007KT 12SM BKN055 BKN120 05/04 A2974 RMK SC5AC2 SLP073

CYUL;2010-10-17 12:00;CYUL 171200Z 27004KT 30SM SCT045 BKN062 BKN120 06/04 A2974 RMK SC2SC3AC2 SLP073

CYUL;2010-10-17 12:54;CYUL 171254Z 25005KT 15SM -SHRA BKN050 OVC075 07/ RMK SC6AC2

CYUL;2010-10-17 13:00;CYUL 171300Z 25006KT 15SM -SHRA BKN055 OVC075 07/04 A2974 RMK SC6AC2 VRY LGT RA SLP071

CYUL;2010-10-17 13:45;CYUL 171345Z 26010KT 15SM BKN032 OVC060 08/ RMK SC6SC2

CYUL;2010-10-17 14:00;CYUL 171400Z 25009KT 15SM -SHRA OVC030 07/05 A2972 RMK SC8 SLP065

CYUL;2010-10-17 15:00;CYUL 171500Z 28010KT 15SM SCT035 BKN050 08/06 A2970 RMK SC4SC2 CU ASOCTD SLP059

CYUL;2010-10-17 16:00;CYUL 171600Z 29014G19KT 15SM FEW025 FEW055 11/06 A2969 RMK CU1SC1 SLP056

CYUL;2010-10-17 17:00;CYUL 171700Z 29013G21KT 15SM SCT028 12/06 A2970 RMK CU3 SLP058

CYUL;2010-10-17 18:00;CYUL 171800Z 28013KT 30SM SCT045 13/05 A2969 RMK CU4 SLP054

CYUL;2010-10-17 19:00;CYUL 171900Z 29017KT 30SM FEW050 SCT070 14/03 A2968 RMK CU2AC2 SLP052

CYUL;2010-10-17 20:00;CYUL 172000Z 29017KT 30SM FEW070 BKN095 14/00 A2969 RMK CU2AC4 SLP055

CYUL;2010-10-17 21:00;CYUL 172100Z 30009KT 30SM FEW070 BKN090 13/02 A2970 RMK CU2AC4 SLP060

CYUL;2010-10-17 22:00;CYUL 172200Z 29009KT 30SM SCT070 BKN095 12/01 A2972 RMK AC3AC2 VIRGA SLP065

CYUL;2010-10-17 23:00;CYUL 172300Z 29011KT 15SM SCT065 BKN080 11/02 A2974 RMK SC4AC2 SLP071

CYUL;2010-10-18 00:00;CYUL 180000Z 32006KT 15SM FEW070 FEW085 09/02 A2975 RMK AC1AC2 SLP076

CYUL;2010-10-18 01:00;CYUL 180100Z 31006KT 15SM FEW070 FEW085 08/02 A2977 RMK AC1AC1 SLP084

CYUL;2010-10-18 02:00;CYUL 180200Z 30005KT 15SM SKC 07/M01 A2979 RMK SLP089

CYUL;2010-10-18 03:00;CYUL 180300Z 27006KT 15SM SKC 07/M02 A2980 RMK SLP091

CYUL;2010-10-18 04:00;CYUL 180400Z 26006KT 15SM FEW240 06/M02 A2980 RMK CI1 SLP092

CYUL;2010-10-18 05:00;CYUL 180500Z 25010KT 15SM FEW240 05/M01 A2981 RMK CI0 SLP096

CYUL;2010-10-18 06:00;CYUL 180600Z 27007KT 15SM SKC 04/M01 A2981 RMK SLP096

CYUL;2010-10-18 07:00;CYUL 180700Z 27005KT 15SM SKC 04/M00 A2981 RMK SLP097

CYUL;2010-10-18 08:00;CYUL 180800Z 26007KT 15SM SKC 04/M00 A2982 RMK SLP099

CYUL;2010-10-18 09:00;CYUL 180900Z 26005KT 15SM SKC 04/M00 A2983 RMK SLP104

CYUL;2010-10-18 10:00;CYUL 181000Z 27006KT 15SM FEW055 04/M00 A2984 RMK SC1 SLP106

CYUL;2010-10-18 11:00;CYUL 181100Z 28007KT 15SM BKN090 04/00 A2985 RMK AC6 SLP110

CYUL;2010-10-18 12:00;CYUL 181200Z 29006KT 15SM BKN100 05/00 A2987 RMK AC5 SLP115

CYUL;2010-10-18 13:00;CYUL 181300Z 28007KT 15SM SCT090 SCT240 06/M00 A2987 RMK AC3CI1 SLP117

CYUL;2010-10-18 14:00;CYUL 181400Z 29011KT 30SM FEW025 BKN095 07/00 A2988 RMK CU1AC5 SLP118

CYUL;2010-10-18 15:00;CYUL 181500Z 28008KT 30SM FEW030 SCT095 08/M00 A2986 RMK CU1AC2 SLP113

CYUL;2010-10-18 16:00;CYUL 181600Z 30012KT 30SM FEW045 SCT090 09/M02 A2984 RMK CU2AC1 SLP106

CYUL;2010-10-18 17:00;CYUL 181700Z 26015G24KT 30SM -SHRA BKN050 BKN085 09/M02 A2982 RMK CU6AC1 SLP100

CYUL;2010-10-18 17:24;CYUL 181724Z 27011G21KT 30SM SCT055 BKN070 09/ RMK CU3AC4

CYUL;2010-10-18 17:39;CYUL 181739Z 27016G21KT 30SM -SHRA BKN055 BKN070 09/ RMK SC6AC2 CU ASOCTD

CYUL;2010-10-18 18:00;CYUL 181800Z 29013G19KT 30SM SCT055 BKN085 09/M01 A2982 RMK CU3AC4 SLP098

CYUL;2010-10-18 19:00;CYUL 181900Z 26017KT 30SM BKN065 BKN085 10/M03 A2980 RMK CU5AC2 SLP093

CYUL;2010-10-18 20:00;CYUL 182000Z 27013G21KT 30SM SCT075 BKN085 BKN240 10/M02 A2980 RMK CU3AC4CI1 SLP093

CYUL;2010-10-18 21:00;CYUL 182100Z 27016G26KT 30SM FEW070 BKN085 BKN240 09/M03 A2980 RMK CU2AC4CI0 SLP093

CYUL;2010-10-18 22:00;CYUL 182200Z 27009KT 30SM FEW065 SCT085 BKN240 09/M02 A2981 RMK SC1AC3CI0 SLP096

CYUL;2010-10-18 23:00;CYUL 182300Z 27009KT 15SM SCT080 SCT240 08/M02 A2983 RMK AC4CI1 SLP101

CYUL;2010-10-19 00:00;CYUL 190000Z 27005KT 15SM SCT075 06/M01 A2983 RMK AC3 SLP104

CYUL;2010-10-19 01:00;CYUL 190100Z 27005KT 15SM SCT070 05/M01 A2985 RMK AC4 SLP108

CYUL;2010-10-19 02:00;CYUL 190200Z 29004KT 15SM FEW070 03/M02 A2987 RMK AC2 SLP115

CYUL;2010-10-19 03:00;CYUL 190300Z 26004KT 15SM FEW070 03/M02 A2987 RMK AC1 SLP117

CYUL;2010-10-19 04:00;CYUL 190400Z 27004KT 15SM FEW240 03/M02 A2987 RMK CI1 SLP115

CYUL;2010-10-19 05:00;CYUL 190500Z 28004KT 15SM FEW210 02/M02 A2987 RMK CI1 SLP117

CYUL;2010-10-19 06:00;CYUL 190600Z 28002KT 15SM FEW240 02/M02 A2988 RMK CI1 SLP118

CYUL;2010-10-19 07:00;CYUL 190700Z 00000KT 15SM FEW240 01/M02 A2986 RMK CI2 SLP113

CYUL;2010-10-19 08:00;CYUL 190800Z 17003KT 15SM FEW240 01/M02 A2985 RMK CI0 SLP108

CYUL;2010-10-19 09:00;CYUL 190900Z 18002KT 15SM FEW180 SCT240 01/M01 A2985 RMK AC1CI0 SLP108

CYUL;2010-10-19 10:00;CYUL 191000Z 18005KT 15SM FEW180 BKN240 01/00 A2985 RMK AC2CI2 SLP109

CYUL;2010-10-19 11:00;CYUL 191100Z 22003KT 30SM SCT180 BKN240 02/00 A2985 RMK AC2CI2 SLP109

CYUL;2010-10-19 12:00;CYUL 191200Z 22009KT 30SM BKN180 BKN220 05/00 A2985 RMK AC3CI1 SLP111

CYUL;2010-10-19 13:00;CYUL 191300Z 22007KT 30SM BKN170 OVC220 05/01 A2986 RMK AC5CI2 SLP113

CYUL;2010-10-19 14:00;CYUL 191400Z 22006KT 30SM FEW120 OVC150 07/02 A2985 RMK AC2AS3 SLP110

CYUL;2010-10-19 15:00;CYUL 191500Z 23008KT 30SM FEW080 BKN120 OVC200 07/01 A2984 RMK AC2AS2CI0 SLP106

CYUL;2010-10-19 16:00;CYUL 191600Z 23010KT 30SM FEW045 BKN100 BKN240 09/02 A2983 RMK CU1AC2CI1 SLP101

CYUL;2010-10-19 17:00;CYUL 191700Z 23013KT 30SM FEW045 SCT120 BKN240 11/03 A2980 RMK CU2AC1CI0 SLP092

CYUL;2010-10-19 18:00;CYUL 191800Z 22014KT 30SM BKN060 BKN120 11/03 A2978 RMK SC5AC1 SLP085

CYUL;2010-10-19 19:00;CYUL 191900Z 23011G16KT 15SM BKN065 12/03 A2976 RMK SC6 SLP080

CYUL;2010-10-19 20:00;CYUL 192000Z 23011G19KT 15SM BKN046 11/03 A2976 RMK CU6 SLP078

CYUL;2010-10-19 21:00;CYUL 192100Z 23013KT 30SM BKN060 12/03 A2975 RMK CU6 SLP076

CYUL;2010-10-19 22:00;CYUL 192200Z 23012KT 30SM SCT065 BKN075 11/02 A2975 RMK SC3AC1 SLP077

CYUL;2010-10-19 23:00;CYUL 192300Z 23008KT 15SM FEW065 SCT080 BKN100 11/03 A2977 RMK SC1AC1AC1 SLP081

CYUL;2010-10-20 00:00;CYUL 200000Z 22011G16KT 15SM FEW090 BKN240 10/03 A2976 RMK AC1CI1 SLP080

CYUL;2010-10-20 01:00;CYUL 200100Z 22013G18KT 15SM BKN240 10/03 A2977 RMK CI0 SLP081

CYUL;2010-10-20 02:00;CYUL 200200Z 22014KT 15SM BKN230 09/04 A2977 RMK CI2 SLP082

CYUL;2010-10-20 03:00;CYUL 200300Z 23014KT 15SM FEW120 BKN180 OVC220 09/04 A2977 RMK AC2AC2CI1 SLP081

CYUL;2010-10-20 04:00;CYUL 200400Z 22016KT 15SM SCT068 BKN090 BKN120 09/04 A2976 RMK AC3AC2AC2 SLP078

CYUL;2010-10-20 05:00;CYUL 200500Z 23011G18KT 15SM BKN067 BKN080 BKN120 09/05 A2976 RMK AC5AC2AC1 SLP079

CYUL;2010-10-20 06:00;CYUL 200600Z 24011G16KT 15SM BKN095 10/04 A2976 RMK AC6 SLP079

CYUL;2010-10-20 07:00;CYUL 200700Z 24012G17KT 15SM FEW100 09/04 A2977 RMK AC2 SLP081

CYUL;2010-10-20 08:00;CYUL 200800Z 25011G19KT 15SM FEW070 FEW220 08/03 A2978 RMK AC1CI1 SLP085

CYUL;2010-10-20 09:00;CYUL 200900Z 27008KT 15SM FEW080 07/03 A2980 RMK AC1 SLP092

CYUL;2010-10-20 10:00;CYUL 201000Z 29006KT 15SM FEW070 05/02 A2981 RMK AC1 SLP096

CYUL;2010-10-20 11:00;CYUL 201100Z 29005KT 15SM FEW120 FEW210 03/01 A2981 RMK AC1CI1 SLP097

CYUL;2010-10-20 12:00;CYUL 201200Z 21004KT 15SM FEW100 FEW240 05/02 A2983 RMK AC1CI1 SLP101

CYUL;2010-10-20 13:00;CYUL 201300Z 19006KT 15SM FEW080 FEW140 SCT240 08/02 A2984 RMK AC1AC1CI1 SLP105

CYUL;2010-10-20 14:00;CYUL 201400Z 21007KT 15SM FEW040 SCT240 09/04 A2983 RMK CU1CI0 SLP101

CYUL;2010-10-20 15:00;CYUL 201500Z 21007KT 15SM FEW050 BKN200 11/04 A2980 RMK CU1CI2 SLP091

CYUL;2010-10-20 16:00;CYUL 201600Z 19009KT 30SM FEW050 OVC210 12/04 A2978 RMK CU2CI1 SLP085

CYUL;2010-10-20 17:00;CYUL 201700Z 22007KT 30SM SCT045 BKN100 OVC210 13/05 A2975 RMK CU3AC1CI0 SLP075

CYUL;2010-10-20 18:00;CYUL 201800Z 21009KT 30SM FEW045 SCT120 BKN210 14/05 A2971 RMK CU2AC0CI0 SLP063

CYUL;2010-10-20 19:00;CYUL 201900Z 22009KT 30SM SCT060 BKN080 14/04 A2969 RMK CU3ACC4 SLP057

CYUL;2010-10-20 20:00;CYUL 202000Z 15010KT 30SM BKN060 BKN120 BKN210 13/06 A2967 RMK CU5AC1CI0 SLP049

CYUL;2010-10-20 21:00;CYUL 202100Z 14010KT 30SM BKN065 BKN080 13/06 A2965 RMK SC6AC1 SLP042

CYUL;2010-10-20 22:00;CYUL 202200Z 16007KT 30SM BKN075 12/06 A2964 RMK AC7 SLP038

CYUL;2010-10-20 23:00;CYUL 202300Z 19008KT 15SM BKN075 13/03 A2964 RMK AC3 SLP037

CYUL;2010-10-21 00:00;CYUL 210000Z 15008KT 15SM BKN090 12/03 A2962 RMK AC3 SLP033

CYUL;2010-10-21 01:00;CYUL 210100Z 17012KT 15SM SCT090 BKN150 12/04 A2960 RMK AC3AC2 SLP026

CYUL;2010-10-21 02:00;CYUL 210200Z 16011G16KT 15SM FEW090 FEW150 SCT210 10/03 A2959 RMK AC1AC1CI1 SLP022

CYUL;2010-10-21 03:00;CYUL 210300Z 16011G16KT 15SM FEW080 FEW120 SCT240 10/03 A2957 RMK AC2AC1CI1 SLP014

CYUL;2010-10-21 04:00;CYUL 210400Z 15012KT 15SM FEW080 SCT150 10/03 A2954 RMK AC2AC2 SLP004

CYUL;2010-10-21 05:00;CYUL 210500Z 16015KT 15SM FEW080 09/03 A2951 RMK AC2 SLP993

CYUL;2010-10-21 05:22;CYUL 210522Z 16016KT 15SM -SHRA BKN070 BKN100 10/ RMK AC5AC2

CYUL;2010-10-21 06:00;CYUL 210600Z 16014KT 15SM FEW070 BKN090 10/03 A2948 RMK AC2AC5 SLP982

CYUL;2010-10-21 07:00;CYUL 210700Z 16014KT 15SM SCT080 BKN130 10/03 A2945 RMK AC3AC3 SLP975

CYUL;2010-10-21 08:00;CYUL 210800Z 17014KT 15SM BKN080 OVC120 10/03 A2943 RMK AC6AC2 SLP965

CYUL;2010-10-21 08:46;CYUL 210846Z 16014KT 15SM -SHRA BKN080 OVC120 10/ RMK AC6AC2

CYUL;2010-10-21 09:00;CYUL 210900Z 17012KT 15SM BKN080 OVC100 10/03 A2941 RMK AC6AC2 OCNL -SHRA SLP959

CYUL;2010-10-21 10:00;CYUL 211000Z 23007KT 15SM -RA BKN050 OVC080 10/05 A2940 RMK SC6AC2 SLP958

CYUL;2010-10-21 11:00;CYUL 211100Z 17002KT 15SM -RA FEW024 OVC040 09/07 A2939 RMK SC2SC6 SLP954

CYUL;2010-10-21 11:30;CYUL 211130Z 25008KT 6SM -RA BR BKN014 OVC024 09/ RMK SC6SC2

CYUL;2010-10-21 12:00;CYUL 211200Z 27008KT 8SM -RA FEW008 BKN015 OVC028 08/07 A2941 RMK SF1SC4SC3 SLP961

CYUL;2010-10-21 13:00;CYUL 211300Z 30008KT 10SM -RA FEW009 FEW015 OVC030 07/06 A2943 RMK SF1SC2SC6 SLP967

CYUL;2010-10-21 14:00;CYUL 211400Z 24004KT 10SM -RA FEW009 BKN030 OVC050 07/06 A2943 RMK SF1SC6SC2 SLP967

CYUL;2010-10-21 14:18;CYUL 211418Z 24005KT 12SM -RA FEW010 BKN040 OVC058 07/ RMK SF1SC6SC2

CYUL;2010-10-21 14:35;CYUL 211435Z 24010KT 12SM -RA FEW009 BKN036 OVC055 08/ RMK SF2SC6SC1

CYUL;2010-10-21 15:00;CYUL 211500Z 24008KT 12SM FEW009 BKN022 OVC035 08/07 A2944 RMK SF2SC5SC2 -RA INTMT SLP969

CYUL;2010-10-21 15:32;CYUL 211532Z 19009KT 15SM FEW009 BKN015 OVC040 08/ RMK SF2SF4SC2

CYUL;2010-10-21 15:37;CYUL 211537Z 24009KT 15SM -RA FEW009 BKN014 OVC037 08/ RMK SF2SF4SC2 -RA INTMT

CYUL;2010-10-21 15:50;CYUL 211550Z 23012KT 15SM BKN009 OVC028 08/ RMK SF6SC2 -RA INTMT

CYUL;2010-10-21 16:00;CYUL 211600Z 21008KT 15SM BKN010 OVC025 08/07 A2944 RMK SF6SC2 -RA INTMT SLP971

CYUL;2010-10-21 16:21;CYUL 211621Z 23011KT 15SM BKN015 BKN025 OVC047 08/ RMK SF5SC2SC1 -RA INTMT

CYUL;2010-10-21 16:40;CYUL 211640Z 24010KT 15SM SCT012 BKN040 OVC065 09/ RMK SF3SC3SC2

CYUL;2010-10-21 17:00;CYUL 211700Z 24009KT 15SM SCT012 BKN040 OVC130 09/08 A2944 RMK SF3SC4AC1 SLP970

CYUL;2010-10-21 17:17;CYUL 211717Z 25014G19KT 15SM -SHRA SCT012 BKN030 OVC130 09/ RMK SF3SC4AC1

CYUL;2010-10-21 17:28;CYUL 211728Z 27014KT 15SM -SHRA BKN013 BKN020 OVC060 08/ RMK SF5SC2SC1

CYUL;2010-10-21 17:54;CYUL 211754Z 30012G17KT 15SM SCT013 BKN030 OVC060 08/ RMK SF3SC3SC2

CYUL;2010-10-21 18:00;CYUL 211800Z 29009KT 15SM -SHRA FEW013 BKN030 OVC060 08/06 A2946 RMK SF2SC5SC1 SLP976

CYUL;2010-10-21 18:19;CYUL 211819Z 28014G22KT 15SM FEW013 BKN026 OVC060 08/ RMK SF2SC5SC1

CYUL;2010-10-21 19:00;CYUL 211900Z 29010G22KT 15SM BKN023 OVC040 07/05 A2949 RMK SC6SC2 SLP988

CYUL;2010-10-21 20:00;CYUL 212000Z 27014G20KT 30SM SCT020 OVC033 07/02 A2952 RMK SC3SC5 SLP998

CYUL;2010-10-21 20:13;CYUL 212013Z 27016G22KT 30SM -SHRA SCT020 OVC033 07/ RMK SC3SC5

CYUL;2010-10-21 20:32;CYUL 212032Z 27019G25KT 30SM FEW020 OVC048 07/ RMK SC2SC6

CYUL;2010-10-21 21:00;CYUL 212100Z 27017G22KT 15SM FEW020 OVC040 06/00 A2956 RMK SC2SC6 SLP010

CYUL;2010-10-21 22:00;CYUL 212200Z 29014G24KT 15SM OVC047 05/M01 A2959 RMK SC8 SLP022

CYUL;2010-10-21 23:00;CYUL 212300Z 29010G17KT 15SM OVC048 05/M02 A2962 RMK SC8 SLP033

CYUL;2010-10-22 00:00;CYUL 220000Z 28011G16KT 15SM OVC060 05/M02 A2964 RMK SC7 SLP039

CYUL;2010-10-22 01:00;CYUL 220100Z 28015KT 15SM OVC060 05/M03 A2965 RMK SC7 SLP042

CYUL;2010-10-22 02:00;CYUL 220200Z 28013G18KT 15SM BKN055 OVC065 04/M03 A2967 RMK SC6SC2 SLP048

CYUL;2010-10-22 03:00;CYUL 220300Z 28012G18KT 15SM OVC070 04/M03 A2968 RMK AS8 SLP051

CYUL;2010-10-22 04:00;CYUL 220400Z 29017KT 15SM BKN074 04/M02 A2968 RMK AC6 SLP053

CYUL;2010-10-22 05:00;CYUL 220500Z 29011G16KT 15SM FEW062 BKN075 03/M01 A2969 RMK SC1AC6 SLP056

CYUL;2010-10-22 06:00;CYUL 220600Z 30008KT 15SM BKN080 03/M01 A2971 RMK AC7 SLP062

CYUL;2010-10-22 07:00;CYUL 220700Z 30010KT 15SM SCT070 03/M01 A2972 RMK AC3 SLP065

CYUL;2010-10-22 08:00;CYUL 220800Z 29009G17KT 15SM FEW080 FEW240 02/M02 A2973 RMK AC1CI0 SLP069

CYUL;2010-10-22 09:00;CYUL 220900Z 28008KT 15SM FEW080 FEW240 02/M02 A2976 RMK AC1CI0 SLP078

CYUL;2010-10-22 10:00;CYUL 221000Z 29011KT 15SM FEW080 SCT240 02/M02 A2978 RMK AC1CI1 SLP086

CYUL;2010-10-22 11:00;CYUL 221100Z 28011KT 15SM FEW080 SCT240 01/M03 A2980 RMK AC1CI1 SLP092

CYUL;2010-10-22 12:00;CYUL 221200Z 28013KT 15SM FEW030 FEW080 FEW240 01/M02 A2982 RMK CU1AC1CI1 SLP099

CYUL;2010-10-22 13:00;CYUL 221300Z 28011G19KT 30SM FEW035 FEW100 FEW240 03/M01 A2985 RMK CU1AC1CI1 SLP108

CYUL;2010-10-22 14:00;CYUL 221400Z 29015G21KT 30SM FEW025 SCT240 04/M02 A2985 RMK CU1CC2 SLP110

CYUL;2010-10-22 15:00;CYUL 221500Z 28014G22KT 30SM BKN030 BKN240 05/M01 A2986 RMK CU7CI1 SLP113

CYUL;2010-10-22 16:00;CYUL 221600Z 31016G21KT 30SM BKN038 05/M03 A2987 RMK CU7 SLP115

CYUL;2010-10-22 17:00;CYUL 221700Z 29017G25KT 30SM BKN040 05/M02 A2987 RMK CU7 SLP115

CYUL;2010-10-22 18:00;CYUL 221800Z 30017G25KT 30SM BKN045 BKN240 06/M02 A2988 RMK CU6CC1 SLP118

CYUL;2010-10-22 19:00;CYUL 221900Z 27017G26KT 30SM BKN045 BKN100 06/M03 A2988 RMK CU6AC1 SLP120

CYUL;2010-10-22 20:00;CYUL 222000Z 27018G29KT 30SM BKN045 BKN100 05/M03 A2991 RMK SC6AC1 SLP129

CYUL;2010-10-22 21:00;CYUL 222100Z 28012G22KT 30SM BKN042 04/M03 A2992 RMK SC7 SLP135

CYUL;2010-10-22 22:00;CYUL 222200Z 29015G24KT 30SM BKN040 03/M04 A2995 RMK SC7 SLP143

CYUL;2010-10-22 23:00;CYUL 222300Z 29015G20KT 15SM OVC044 03/M05 A2996 RMK SC8 SLP148

CYUL;2010-10-23 00:00;CYUL 230000Z 28013KT 15SM OVC045 03/M05 A2998 RMK SC8 SLP154

CYUL;2010-10-23 01:00;CYUL 230100Z 30009G17KT 15SM OVC045 03/M05 A2998 RMK SC8 SLP154

CYUL;2010-10-23 02:00;CYUL 230200Z 28009G15KT 15SM BKN050 BKN130 02/M05 A2999 RMK SC6AC1 SLP157

CYUL;2010-10-23 03:00;CYUL 230300Z 28008KT 15SM FEW050 BKN140 02/M04 A2999 RMK SC2AC4 SLP158

CYUL;2010-10-23 04:00;CYUL 230400Z 27009KT 15SM FEW055 BKN120 02/M04 A3000 RMK SC1AS4 SLP161

CYUL;2010-10-23 05:00;CYUL 230500Z 28010KT 15SM FEW130 01/M05 A3000 RMK AS1 SLP160

CYUL;2010-10-23 06:00;CYUL 230600Z 23006KT 15SM FEW130 00/M05 A3001 RMK AC1 SLP164

CYUL;2010-10-23 07:00;CYUL 230700Z 25007KT 15SM SKC M00/M03 A3002 RMK SLP169

CYUL;2010-10-23 08:00;CYUL 230800Z 25007KT 15SM SKC M00/M02 A3003 RMK SLP171

CYUL;2010-10-23 09:00;CYUL 230900Z 24009KT 15SM SKC M00/M02 A3004 RMK SLP176

CYUL;2010-10-23 10:00;CYUL 231000Z 25007KT 15SM SKC M00/M02 A3006 RMK SLP182

CYUL;2010-10-23 11:00;CYUL 231100Z 25007KT 15SM FEW120 M01/M02 A3007 RMK AC1 SLP183

CYUL;2010-10-23 12:00;CYUL 231200Z 26009KT 15SM FEW220 00/M02 A3009 RMK CI1 SLP190

CYUL;2010-10-23 13:00;CYUL 231300Z 27010KT 30SM FEW030 FEW220 02/M01 A3010 RMK CF1CI1 SLP195

CYUL;2010-10-23 14:00;CYUL 231400Z 27011KT 30SM FEW020 FEW150 04/M01 A3012 RMK CF1AC1 SLP200

CYUL;2010-10-23 15:00;CYUL 231500Z 29015KT 30SM FEW030 FEW150 05/M03 A3011 RMK CF1AC1 SLP197

CYUL;2010-10-23 16:00;CYUL 231600Z 30010G15KT 30SM FEW030 FEW150 06/M02 A3010 RMK CU1AC1 SLP196

CYUL;2010-10-23 17:00;CYUL 231700Z 28011G17KT 30SM FEW035 FEW150 06/M03 A3009 RMK CU1AC1 SLP192

CYUL;2010-10-23 18:00;CYUL 231800Z 28013KT 30SM FEW040 FEW180 08/M02 A3009 RMK CU1AC1 SLP191

CYUL;2010-10-23 19:00;CYUL 231900Z 28012KT 30SM FEW040 FEW180 FEW240 08/M03 A3009 RMK CU1AC1CI1 SLP190

CYUL;2010-10-23 20:00;CYUL 232000Z 28012KT 30SM FEW045 FEW180 FEW240 08/M03 A3009 RMK CU1AC1CI0 SLP191

CYUL;2010-10-23 21:00;CYUL 232100Z 29009KT 30SM FEW180 FEW240 08/M04 A3011 RMK AC1CI0 SLP197

CYUL;2010-10-23 22:00;CYUL 232200Z 27004KT 30SM FEW180 SCT240 06/M03 A3014 RMK AC1CI1 SLP208

CYUL;2010-10-23 23:00;CYUL 232300Z 28004KT 15SM FEW240 04/M03 A3016 RMK CI1 SLP214

CYUL;2010-10-24 00:00;CYUL 240000Z 28004KT 15SM FEW240 02/M03 A3017 RMK CI0 SLP217

CYUL;2010-10-24 01:00;CYUL 240100Z 28003KT 15SM FEW240 02/M03 A3016 RMK CI1 SLP216

CYUL;2010-10-24 02:00;CYUL 240200Z 32003KT 15SM SCT240 03/M02 A3016 RMK CI1 SLP216

CYUL;2010-10-24 03:00;CYUL 240300Z 05004KT 15SM BKN240 03/M03 A3018 RMK CS1 SLP223

CYUL;2010-10-24 04:00;CYUL 240400Z 01004KT 15SM BKN240 01/M02 A3019 RMK CS2 SLP226

CYUL;2010-10-24 05:00;CYUL 240500Z 05006KT 15SM OVC230 03/M03 A3019 RMK CS5 SLP226

CYUL;2010-10-24 06:00;CYUL 240600Z 02003KT 15SM OVC210 02/M03 A3020 RMK CS5 SLP230

CYUL;2010-10-24 07:00;CYUL 240700Z 36002KT 15SM OVC210 02/M02 A3022 RMK CS5 SLP236

CYUL;2010-10-24 08:00;CYUL 240800Z 04003KT 15SM OVC180 03/M04 A3022 RMK AS6 SLP235

CYUL;2010-10-24 09:00;CYUL 240900Z CCA 04004KT 15SM OVC180 03/M04 A3021 RMK AS7 SLP232

CYUL;2010-10-24 10:00;CYUL 241000Z 04004KT 15SM OVC140 03/M03 A3019 RMK AS8 SLP226

CYUL;2010-10-24 11:00;CYUL 241100Z 03006KT 15SM OVC140 02/M02 A3020 RMK AS8 SLP227

CYUL;2010-10-24 12:00;CYUL 241200Z 04006KT 15SM OVC120 03/M02 A3020 RMK AS8 SLP230

CYUL;2010-10-24 13:00;CYUL 241300Z 06006KT 15SM BKN080 OVC130 03/M03 A3020 RMK AC5AC3 SLP228

CYUL;2010-10-24 14:00;CYUL 241400Z 05008KT 15SM OVC100 04/M04 A3020 RMK AC8 SLP227

CYUL;2010-10-24 15:00;CYUL 241500Z 05007KT 15SM FEW100 OVC120 04/M03 A3018 RMK AC2AC6 SLP222

CYUL;2010-10-24 16:00;CYUL 241600Z 07007KT 15SM FEW090 OVC100 04/M03 A3017 RMK AC1AS7 SLP219

CYUL;2010-10-24 17:00;CYUL 241700Z 04008KT 15SM BKN070 OVC100 05/M03 A3014 RMK AC6AS2 SLP209

CYUL;2010-10-24 18:00;CYUL 241800Z 06008KT 15SM FEW025 BKN048 OVC080 05/M03 A3011 RMK CU1SC6AS2 SLP198

CYUL;2010-10-24 19:00;CYUL 241900Z 05008KT 15SM BKN042 OVC075 05/M03 A3009 RMK SC6AS2 SLP191

CYUL;2010-10-24 20:00;CYUL 242000Z 05008KT 15SM OVC042 05/M02 A3008 RMK SC8 SLP188

CYUL;2010-10-24 21:00;CYUL 242100Z 06007KT 15SM OVC035 05/M02 A3008 RMK SC8 SLP188

CYUL;2010-10-24 21:28;CYUL 242128Z 06007KT 15SM -RA OVC035 05/ RMK SC8

CYUL;2010-10-24 22:00;CYUL 242200Z 05007KT 15SM -RA OVC028 04/M02 A3006 RMK SC8 SLP182

CYUL;2010-10-24 23:00;CYUL 242300Z 06006KT 15SM -RA BKN025 OVC040 04/00 A3006 RMK SC6SC2 SLP182

CYUL;2010-10-25 00:00;CYUL 250000Z 05006KT 12SM -RA OVC023 04/M00 A3007 RMK SC8 SLP184

CYUL;2010-10-25 01:00;CYUL 250100Z 05007KT 12SM -RA BKN020 OVC030 04/01 A3004 RMK SC6SC2 SLP176

CYUL;2010-10-25 02:00;CYUL 250200Z 05007KT 12SM -RA BKN027 OVC045 04/01 A3003 RMK SC6SC2 SLP172

CYUL;2010-10-25 02:27;CYUL 250227Z 05009KT 12SM SCT030 OVC053 04/ RMK SC3SC5

CYUL;2010-10-25 03:00;CYUL 250300Z 04003KT 10SM -RA BKN030 OVC055 04/02 A3003 RMK SC6SC2 -RA INTMT SLP172

CYUL;2010-10-25 04:00;CYUL 250400Z 05005KT 10SM -RA BKN012 OVC017 04/03 A3000 RMK SF5SC3 SLP162

CYUL;2010-10-25 04:17;CYUL 250417Z 09006KT 10SM FEW009 OVC017 04/ RMK SF2SC6

CYUL;2010-10-25 04:35;CYUL 250435Z 05006KT 10SM BKN016 OVC035 04/ RMK SC6SC2

CYUL;2010-10-25 05:00;CYUL 250500Z 05007KT 12SM FEW012 BKN016 OVC021 04/03 A2998 RMK SF2SC6SC1 SLP153

CYUL;2010-10-25 05:22;CYUL 250522Z 04008KT 12SM FEW009 SCT012 OVC018 04/ RMK SF1SF3SC4

CYUL;2010-10-25 05:54;CYUL 250554Z 04011KT 12SM FEW009 OVC012 04/ RMK SF2SF6

CYUL;2010-10-25 06:00;CYUL 250600Z 04010KT 12SM FEW009 OVC012 04/03 A2996 RMK SF2SF5 SLP147

CYUL;2010-10-25 07:00;CYUL 250700Z 04009KT 10SM OVC009 04/03 A2994 RMK SF8 SLP140

CYUL;2010-10-25 08:00;CYUL 250800Z 04008KT 10SM OVC009 04/03 A2992 RMK SF8 SLP135

CYUL;2010-10-25 09:00;CYUL 250900Z 04009KT 10SM OVC006 04/04 A2991 RMK SF8 SLP128

CYUL;2010-10-25 10:00;CYUL 251000Z 04007KT 6SM BR OVC006 05/04 A2990 RMK SF8 SLP126

CYUL;2010-10-25 10:53;CYUL 251053Z 04008KT 4SM -RA BR OVC005 05/ RMK SF8

CYUL;2010-10-25 11:00;CYUL 251100Z 04007KT 4SM -RA BR OVC006 05/04 A2988 RMK SF8 SLP120

CYUL;2010-10-25 11:12;CYUL 251112Z 03008KT 2 1/2SM -RA BR OVC007 05/ RMK SF8

CYUL;2010-10-25 12:00;CYUL 251200Z 02007KT 2 1/2SM BR OVC009 05/05 A2988 RMK SF8 -RA INTMT SLP120

CYUL;2010-10-25 12:08;CYUL 251208Z CCA 03010KT 2 1/2SM BR FEW004 OVC009 05/ RMK SF2SF6 -RA INTMT

CYUL;2010-10-25 12:30;CYUL 251230Z 04009KT 2 1/2SM BR FEW004 BKN009 OVC045 05/ RMK SF2SF6SC1

CYUL;2010-10-25 13:00;CYUL 251300Z 03005KT 2SM -RA BR BKN009 OVC040 05/05 A2987 RMK SF7SC1 -RA INTMT SLP116

CYUL;2010-10-25 13:23;CYUL 251323Z 02007KT 2 1/2SM BR FEW003 BKN009 OVC042 05/ RMK SF1SF5SC2

CYUL;2010-10-25 14:00;CYUL 251400Z 04007KT 2 1/2SM BR BKN004 OVC008 05/05 A2985 RMK SF6SF2 SLP110

CYUL;2010-10-25 14:36;CYUL 251436Z 03007KT 2 1/2SM -DZ BR BKN004 OVC007 06/ RMK SF6SF2

CYUL;2010-10-25 15:00;CYUL 251500Z 05008KT 3SM BR BKN004 OVC007 05/05 A2984 RMK SF6SF2 SLP105

CYUL;2010-10-25 15:16;CYUL 251516Z 02009KT 3SM BR SCT004 OVC007 07/ RMK SF3SF5

CYUL;2010-10-25 16:00;CYUL 251600Z 03009KT 3SM BR FEW004 BKN007 OVC030 06/06 A2982 RMK SF2SF5SC1 SLP100

CYUL;2010-10-25 16:22;CYUL 251622Z 04008KT 3SM -RA BR BKN007 OVC030 07/ RMK SF6SC2

CYUL;2010-10-25 17:00;CYUL 251700Z 04009KT 1 3/4SM -RA BR BKN007 OVC018 07/07 A2979 RMK SF6SC2 SLP090

CYUL;2010-10-25 17:16;CYUL 251716Z 03009KT 2 1/2SM -DZ BR BKN008 BKN018 OVC070 07/ RMK SF5SC1AC2

CYUL;2010-10-25 17:35;CYUL 251735Z 04008KT 3SM BR BKN008 OVC070 08/ RMK SF6AC2

CYUL;2010-10-25 18:00;CYUL 251800Z 02007KT 3SM BR BKN007 OVC020 08/08 A2977 RMK SF7SC1 SLP082

CYUL;2010-10-25 18:35;CYUL 251835Z 05008KT 4SM BR SCT008 BKN020 OVC100 09/ RMK SF4SC1AC3

CYUL;2010-10-25 19:00;CYUL 251900Z 04006KT 4SM BR SCT008 SCT020 OVC080 09/09 A2975 RMK SF3SC1AC4 SLP074

CYUL;2010-10-25 19:07;CYUL 251907Z 02006KT 4SM -RA BR FEW008 SCT020 OVC080 09/ RMK SF2SC2AC4

CYUL;2010-10-25 19:45;CYUL 251945Z 02007KT 4SM -RA BR FEW004 BKN009 OVC070 08/ RMK SF2SF3AC2

CYUL;2010-10-25 20:00;CYUL 252000Z 03006KT 4SM -RA BR BKN009 OVC070 08/08 A2975 RMK SF6AC2 SLP074

CYUL;2010-10-25 20:12;CYUL 252012Z 05007KT 4SM -RA BR SCT009 BKN040 OVC070 08/ RMK SF3SC2AC2

CYUL;2010-10-25 21:00;CYUL 252100Z 01005KT 4SM -RA BR FEW009 BKN035 OVC070 08/08 A2975 RMK SF2SC5AC1 SLP075

CYUL;2010-10-25 21:07;CYUL 252107Z 01004KT 1 3/4SM -RA BR SCT009 BKN017 OVC035 08/ RMK SF3SF3SC2

CYUL;2010-10-25 22:00;CYUL 252200Z 04005KT 2 1/2SM -RA BR FEW004 SCT007 OVC040 08/08 A2974 RMK SF1SF3SC4 SLP071

CYUL;2010-10-25 22:12;CYUL 252212Z 02006KT 3SM -RA BR FEW004 BKN007 OVC030 08/ RMK SF2SF3SC2

CYUL;2010-10-25 22:40;CYUL 252240Z 03006KT 2SM -RA BR BKN005 OVC009 08/ RMK SF6SF2

CYUL;2010-10-25 23:00;CYUL 252300Z 02007KT 2 1/2SM -RA BR FEW003 BKN005 OVC025 08/08 A2974 RMK SF2SF5SC2 SLP072

CYUL;2010-10-25 23:38;CYUL 252338Z 03008KT 4SM -RA BR FEW003 BKN006 OVC020 08/ RMK SF2SF6SC1

CYUL;2010-10-26 00:00;CYUL 260000Z 03009KT 3SM -RA BR BKN004 OVC008 08/08 A2975 RMK SF6SF2 SLP075

CYUL;2010-10-26 01:00;CYUL 260100Z 04008KT 4SM -RA BR BKN005 OVC020 08/08 A2975 RMK SF6SC2 VRY LTG RA SLP074

CYUL;2010-10-26 01:22;CYUL 260122Z 02006KT 4SM BR BKN005 OVC030 08/ RMK SF5SC3

CYUL;2010-10-26 02:00;CYUL 260200Z 02006KT 4SM BR SCT005 BKN035 OVC045 08/08 A2974 RMK SF3SC3SC2 SLP072

CYUL;2010-10-26 02:51;CYUL 260251Z 01008KT 3SM BR SCT002 OVC042 08/ RMK SF3SC5

CYUL;2010-10-26 03:00;CYUL 260300Z 02007KT 3SM BR BKN002 OVC040 08/08 A2973 RMK SF5SC3 SLP070

CYUL;2010-10-26 03:12;CYUL 260312Z 02008KT 3SM BR BKN005 OVC040 08/ RMK SF6SC2

CYUL;2010-10-26 03:25;CYUL 260325Z 02007KT 3SM BR BKN003 OVC030 08/ RMK SF6SC2

CYUL;2010-10-26 04:00;CYUL 260400Z 04007KT 2 1/2SM BR SCT003 OVC030 08/08 A2973 RMK SF3SC5 SLP068

CYUL;2010-10-26 05:00;CYUL 260500Z 01005KT 2 1/4SM BR BKN002 OVC030 08/08 A2973 RMK SF6SC2 SLP070

CYUL;2010-10-26 06:00;CYUL 260600Z 02005KT 2 1/4SM BR BKN003 OVC023 08/08 A2975 RMK SF5SC3 SLP074

CYUL;2010-10-26 06:49;CYUL 260649Z 02006KT 2 1/2SM BR SCT003 OVC022 08/ RMK SF3SC5

CYUL;2010-10-26 07:00;CYUL 260700Z 03006KT 2 1/2SM BR SCT003 OVC022 08/08 A2975 RMK SF3SC5 SLP075

CYUL;2010-10-26 07:41;CYUL 260741Z 03005KT 2 1/2SM BR SCT004 OVC022 08/ RMK SF3SC5

CYUL;2010-10-26 08:00;CYUL 260800Z 02005KT 2 1/2SM BR SCT004 BKN021 OVC035 08/07 A2975 RMK SF3SC3SC2 SLP077

CYUL;2010-10-26 09:00;CYUL 260900Z 02005KT 2 1/2SM BR BKN004 OVC020 08/07 A2976 RMK SF5SC3 SLP080

CYUL;2010-10-26 10:00;CYUL 261000Z 36003KT 2 1/4SM BR BKN004 OVC019 08/07 A2979 RMK SF6SC2 SLP088

CYUL;2010-10-26 11:00;CYUL 261100Z 03004KT 2 1/2SM BR BKN004 OVC022 08/07 A2980 RMK SF6SC2 SLP091

CYUL;2010-10-26 11:38;CYUL 261138Z 02006KT 2SM BR BKN005 OVC020 08/ RMK SF6SC2

CYUL;2010-10-26 12:00;CYUL 261200Z 03007KT 1 3/4SM BR BKN004 OVC021 08/07 A2981 RMK SF6SC2 SLP095

CYUL;2010-10-26 12:23;CYUL 261223Z 02006KT 1 3/4SM BR SCT004 OVC021 08/ RMK SF3SC5

CYUL;2010-10-26 13:00;CYUL 261300Z 03005KT 1 3/4SM BR SCT004 OVC020 08/08 A2983 RMK SF3SC5 SLP102

CYUL;2010-10-26 14:00;CYUL 261400Z 01006KT 3SM BR SCT005 OVC020 09/08 A2984 RMK SF4SC4 SLP105

CYUL;2010-10-26 14:26;CYUL 261426Z 03007KT 3SM BR BKN005 OVC020 09/ RMK SF5SC3

CYUL;2010-10-26 15:00;CYUL 261500Z 03007KT 3SM BR BKN005 OVC020 09/08 A2985 RMK SF5SC3 SLP108

CYUL;2010-10-26 16:00;CYUL 261600Z 04007KT 4SM BR BKN006 OVC020 10/09 A2984 RMK SF5SC3 SLP107

CYUL;2010-10-26 16:45;CYUL 261645Z 04009KT 4SM BR SCT006 OVC020 11/ RMK SF3SC5

CYUL;2010-10-26 17:00;CYUL 261700Z 02009KT 4SM BR BKN007 OVC025 11/09 A2983 RMK SF5SC3 SLP104

CYUL;2010-10-26 17:25;CYUL 261725Z 02011KT 4SM BR SCT007 BKN040 OVC120 11/ RMK SF3SC3AS2

CYUL;2010-10-26 18:00;CYUL 261800Z 04011KT 5SM BR FEW007 BKN040 BKN160 BKN210 11/09 A2981 RMK SF2SC2AC2CI1 SLP097

CYUL;2010-10-26 19:00;CYUL 261900Z 04015KT 5SM BR SCT006 SCT040 BKN160 BKN210 11/10 A2980 RMK SF3SC1AC2CI1 SLP093

CYUL;2010-10-26 19:22;CYUL 261922Z 04013KT 5SM BR BKN005 BKN040 OVC150 11/ RMK SF5SC1AC2

CYUL;2010-10-26 20:00;CYUL 262000Z 04013KT 4SM BR OVC004 10/09 A2979 RMK ST8 SLP089

CYUL;2010-10-26 20:30;CYUL 262030Z 05014KT 2 1/2SM BR OVC004 10/ RMK ST8

CYUL;2010-10-26 21:00;CYUL 262100Z 05013KT 3SM BR OVC004 10/09 A2977 RMK ST8 SLP084

CYUL;2010-10-26 21:22;CYUL 262122Z 05013KT 2 1/2SM BR OVC003 10/ RMK ST8

CYUL;2010-10-26 22:00;CYUL 262200Z 04012KT 3SM BR BKN003 OVC008 09/09 A2977 RMK SF6SF2 SLP083

CYUL;2010-10-26 22:25;CYUL 262225Z 04016KT 3SM BR SCT003 BKN050 OVC200 09/ RMK SF4SC1CI2

CYUL;2010-10-26 23:00;CYUL 262300Z 04012KT 6SM BR FEW004 BKN140 OVC210 09/09 A2975 RMK SF2AC2CI3 SLP077

CYUL;2010-10-26 23:36;CYUL 262336Z 04012KT 6SM -RA BR SCT004 BKN090 OVC150 09/ RMK SF4AC3AC1

CYUL;2010-10-27 00:00;CYUL 270000Z 04013KT 6SM -RA BR SCT004 BKN060 OVC120 09/09 A2977 RMK SF3SC2AC3 SLP082

CYUL;2010-10-27 01:00;CYUL 270100Z 04011KT 6SM BR FEW004 OVC090 09/09 A2974 RMK SF2AC6 INTMT -RA SLP072

CYUL;2010-10-27 02:00;CYUL 270200Z 04011KT 6SM BR FEW005 BKN090 09/08 A2972 RMK SF1AC6 SLP066

CYUL;2010-10-27 03:00;CYUL 270300Z 04009KT 8SM FEW005 OVC100 09/09 A2969 RMK SF1AC8 SLP057

CYUL;2010-10-27 04:00;CYUL 270400Z 03008KT 8SM FEW005 BKN050 OVC090 10/09 A2973 RMK SF1SC6AC2 SLP069

CYUL;2010-10-27 05:00;CYUL 270500Z 36004KT 8SM BKN047 OVC090 10/09 A2971 RMK SC6AC2 SLP061

CYUL;2010-10-27 05:56;CYUL 270556Z 36005G16KT 8SM -RA BKN025 OVC065 10/ RMK SC6SC2

CYUL;2010-10-27 06:00;CYUL 270600Z 01005KT 6SM -RA BKN025 OVC060 10/10 A2972 RMK SC6SC2 SLP066

CYUL;2010-10-27 07:00;CYUL 270700Z 12006KT 3SM -RA BKN040 OVC075 14/13 A2968 RMK SC6AC2 SLP051

CYUL;2010-10-27 08:00;CYUL 270800Z 15011KT 10SM BKN055 OVC130 17/16 A2964 RMK SC5AC2 SLP039

CYUL;2010-10-27 09:00;CYUL 270900Z 18011G16KT 10SM OVC050 17/16 A2968 RMK SC8 SLP050

CYUL;2010-10-27 09:31;CYUL 270931Z 24011G16KT 10SM -RA OVC019 17/ RMK SC8

CYUL;2010-10-27 10:00;CYUL 271000Z 23012KT 10SM OVC034 16/13 A2971 RMK SC8 INTMT -RA SLP061

CYUL;2010-10-27 10:53;CYUL 271053Z 24011KT 10SM OVC047 15/ RMK SC8

CYUL;2010-10-27 11:00;CYUL 271100Z 24013KT 10SM OVC048 15/12 A2975 RMK SC8 SLP073

CYUL;2010-10-27 12:00;CYUL 271200Z 24008KT 30SM BKN058 BKN080 14/11 A2978 RMK SC6AC1 SLP085

CYUL;2010-10-27 13:00;CYUL 271300Z 22008KT 30SM FEW055 BKN075 14/12 A2980 RMK SC1AC2 SLP092

CYUL;2010-10-27 14:00;CYUL 271400Z 23009KT 30SM FEW015 FEW060 FEW090 15/11 A2980 RMK CF1SC1AC1 SLP092

CYUL;2010-10-27 15:00;CYUL 271500Z 22011G16KT 30SM FEW015 FEW060 16/11 A2980 RMK CU1SC1 SLP091

CYUL;2010-10-27 16:00;CYUL 271600Z 22013KT 30SM FEW020 FEW060 17/10 A2979 RMK CU1SC1 SLP089

CYUL;2010-10-27 17:00;CYUL 271700Z 22009G15KT 30SM FEW025 18/09 A2977 RMK CU1 SLP081

CYUL;2010-10-27 18:00;CYUL 271800Z 23010G16KT 30SM FEW035 19/08 A2975 RMK CU2 SLP074

CYUL;2010-10-27 19:00;CYUL 271900Z 23014KT 30SM FEW040 20/07 A2973 RMK CU1 SLP069

CYUL;2010-10-27 20:00;CYUL 272000Z 23016KT 30SM FEW040 20/05 A2972 RMK CU1 SLP065

CYUL;2010-10-27 21:00;CYUL 272100Z 23011KT 30SM FEW040 18/05 A2972 RMK CU1 SLP063

CYUL;2010-10-27 22:00;CYUL 272200Z 22008KT 30SM FEW060 FEW240 17/04 A2971 RMK SC1CI1 SLP062

CYUL;2010-10-27 23:00;CYUL 272300Z 20009KT 15SM FEW060 16/03 A2971 RMK SC1 SLP062

CYUL;2010-10-28 00:00;CYUL 280000Z 18011KT 15SM SKC 15/03 A2970 RMK SLP057

CYUL;2010-10-28 01:00;CYUL 280100Z 19008KT 15SM FEW110 14/02 A2970 RMK AC2 SLP057

CYUL;2010-10-28 02:00;CYUL 280200Z 18012KT 15SM FEW180 FEW240 14/03 A2968 RMK AC1CI0 SLP052

CYUL;2010-10-28 03:00;CYUL 280300Z 18009KT 15SM SCT180 BKN240 14/04 A2968 RMK AC0CI0 SLP050

CYUL;2010-10-28 04:00;CYUL 280400Z 19006KT 15SM FEW160 13/04 A2968 RMK AC0 SLP050

CYUL;2010-10-28 05:00;CYUL 280500Z 23016KT 15SM BKN130 16/04 A2968 RMK AC5 SLP050

CYUL;2010-10-28 06:00;CYUL 280600Z 21008KT 15SM FEW100 15/04 A2965 RMK AC1 SLP041

CYUL;2010-10-28 07:00;CYUL 280700Z 18011KT 15SM FEW120 14/04 A2964 RMK AC1 SLP037

CYUL;2010-10-28 08:00;CYUL 280800Z 18009KT 15SM FEW150 13/04 A2962 RMK AC1 SLP032

CYUL;2010-10-28 09:00;CYUL 280900Z 16006KT 15SM BKN160 10/05 A2961 RMK AC2 SLP029

CYUL;2010-10-28 10:00;CYUL 281000Z 20014KT 15SM FEW160 14/06 A2962 RMK AC0 SLP030

CYUL;2010-10-28 11:00;CYUL 281100Z 19013KT 15SM FEW090 14/06 A2960 RMK AC0 SLP025

CYUL;2010-10-28 12:00;CYUL 281200Z 19014KT 30SM FEW060 FEW100 14/05 A2959 RMK CU1AC1 SLP022

CYUL;2010-10-28 13:00;CYUL 281300Z 21017KT 30SM FEW075 BKN100 15/05 A2960 RMK AC2AC6 SLP025

CYUL;2010-10-28 14:00;CYUL 281400Z 23021G26KT 30SM BKN075 BKN110 16/04 A2960 RMK AC6AC2 SLP024

CYUL;2010-10-28 15:00;CYUL 281500Z 25014G21KT 30SM BKN060 BKN090 15/04 A2961 RMK SC6AC1 SLP026

CYUL;2010-10-28 15:18;CYUL 281518Z 24026G32KT 30SM -SHRA BKN058 OVC080 15/ RMK SC7AC1

CYUL;2010-10-28 16:00;CYUL 281600Z 24022G38KT 15SM FEW050 BKN062 OVC080 15/04 A2963 RMK SC2SC4AC2 SLP035

CYUL;2010-10-28 16:46;CYUL 281646Z 26017G24KT 15SM -SHRA FEW050 BKN070 OVC090 14/ RMK SC2AC4AC2 -SHRA OCNL

CYUL;2010-10-28 17:00;CYUL 281700Z 27020G26KT 15SM -SHRA FEW040 BKN050 OVC075 14/05 A2966 RMK SC2SC3AC2 SLP043

CYUL;2010-10-28 17:27;CYUL 281727Z 25015G20KT 15SM FEW040 OVC060 13/ RMK SC2SC6

CYUL;2010-10-28 18:00;CYUL 281800Z 26021G26KT 15SM OVC052 13/04 A2967 RMK SC8 SLP046

CYUL;2010-10-28 19:00;CYUL 281900Z 24020G27KT 15SM BKN060 OVC080 13/03 A2968 RMK SC6AC2 SLP052

CYUL;2010-10-28 20:00;CYUL 282000Z 24017G27KT 15SM BKN062 BKN080 OVC120 14/02 A2972 RMK SC6AC2AC1 SLP063

CYUL;2010-10-28 21:00;CYUL 282100Z 24014G21KT 30SM BKN060 BKN090 13/03 A2972 RMK SC6AC2 SLP067

CYUL;2010-10-28 22:00;CYUL 282200Z 25015G21KT 15SM BKN067 13/03 A2975 RMK AC7 SLP076

CYUL;2010-10-28 23:00;CYUL 282300Z 25018KT 15SM BKN062 13/03 A2978 RMK SC7 SLP085

CYUL;2010-10-29 00:00;CYUL 290000Z 25015KT 15SM BKN055 BKN080 12/03 A2980 RMK SC6AC2 SLP091

CYUL;2010-10-29 01:00;CYUL 290100Z 24016G25KT 15SM BKN057 BKN075 12/04 A2981 RMK SC6AC2 SLP096

CYUL;2010-10-29 01:37;CYUL 290137Z 24013G18KT 15SM -SHRA SCT050 BKN070 11/ RMK SC3AC4

CYUL;2010-10-29 02:00;CYUL 290200Z 24016KT 15SM FEW045 BKN075 11/05 A2982 RMK SC2AC6 SLP099

CYUL;2010-10-29 03:00;CYUL 290300Z 25014G20KT 15SM FEW070 SCT240 10/05 A2982 RMK AC2CI0 SLP098

CYUL;2010-10-29 04:00;CYUL 290400Z 26013KT 15SM FEW070 BKN240 10/05 A2982 RMK AC1CI2 SLP098

CYUL;2010-10-29 05:00;CYUL 290500Z 25009KT 15SM FEW070 OVC240 09/05 A2982 RMK AC1CI5 SLP099

CYUL;2010-10-29 06:00;CYUL 290600Z 25010KT 15SM SCT050 OVC220 09/05 A2982 RMK SC4CI3 SLP100

CYUL;2010-10-29 07:00;CYUL 290700Z 26008KT 15SM FEW050 OVC210 09/05 A2983 RMK SC2CI4 SLP102

CYUL;2010-10-29 08:00;CYUL 290800Z 28008KT 15SM BKN053 08/05 A2983 RMK SC7 SLP101

CYUL;2010-10-29 09:00;CYUL 290900Z 28007KT 15SM SCT047 BKN056 08/05 A2984 RMK SC3SC4 SLP106

CYUL;2010-10-29 10:00;CYUL 291000Z 30008KT 15SM SCT050 BKN060 08/04 A2985 RMK SC3SC4 SLP110

CYUL;2010-10-29 11:00;CYUL 291100Z 30006KT 15SM OVC045 08/04 A2986 RMK SC8 SLP114

CYUL;2010-10-29 11:13;CYUL 291113Z 30005KT 15SM -RA OVC045 07/ RMK SC8

CYUL;2010-10-29 12:00;CYUL 291200Z 31004KT 15SM -RA FEW020 OVC050 07/04 A2988 RMK SC1SC7 SLP121

CYUL;2010-10-29 13:00;CYUL 291300Z 34003KT 15SM -RA FEW020 BKN030 OVC050 07/05 A2990 RMK SC1SC4SC3 SLP127

CYUL;2010-10-29 14:00;CYUL 291400Z 33004KT 15SM -RA FEW030 BKN052 OVC080 07/04 A2991 RMK SC1SC6AC2 SLP128

CYUL;2010-10-29 14:17;CYUL 291417Z 36005KT 15SM FEW035 BKN065 BKN090 OVC120 07/ RMK SC1SC4AC2AC1

CYUL;2010-10-29 14:23;CYUL 291423Z 36005KT 15SM -RA FEW030 BKN065 BKN080 OVC100 07/ RMK SC2SC4AC2AC1 -RA INTMT

CYUL;2010-10-29 14:53;CYUL 291453Z 28006KT 15SM FEW031 BKN052 OVC080 07/ RMK SC2SC5AC2

CYUL;2010-10-29 15:00;CYUL 291500Z 29009KT 15SM -RA FEW024 SCT036 BKN050 OVC067 08/04 A2990 RMK SC1SC2SC4AC2 -RA INTMT VRY LGT RA SLP127

CYUL;2010-10-29 15:22;CYUL 291522Z 31006KT 15SM FEW030 BKN053 OVC070 08/ RMK SC1SC6AC2 OCNL RA

CYUL;2010-10-29 16:00;CYUL 291600Z 29007KT 15SM FEW026 SCT037 OVC055 08/04 A2990 RMK SC1SC3SC4 SLP126

CYUL;2010-10-29 16:14;CYUL 291614Z 28008KT 15SM -RA FEW026 BKN036 OVC050 08/ RMK SC2SC5SC2

CYUL;2010-10-29 16:31;CYUL 291631Z 31008KT 15SM FEW030 BKN050 OVC067 08/ RMK SC2SC5AC2

CYUL;2010-10-29 17:00;CYUL 291700Z 28012KT 15SM SCT035 BKN060 OVC090 08/03 A2988 RMK SC2SC4AC2 SLP121

CYUL;2010-10-29 18:00;CYUL 291800Z 28012G17KT 15SM FEW032 BKN050 OVC070 08/02 A2988 RMK SC2SC5AC2 SLP120

CYUL;2010-10-29 19:00;CYUL 291900Z 28012KT 15SM FEW040 OVC057 08/01 A2989 RMK SC2SC6 SLP122

CYUL;2010-10-29 20:00;CYUL 292000Z 29012G17KT 15SM FEW040 BKN056 07/M01 A2989 RMK SC2SC6 SLP123

CYUL;2010-10-29 21:00;CYUL 292100Z 29010G15KT 15SM FEW040 BKN052 OVC100 06/M01 A2991 RMK SC1SC6AC1 SLP129

CYUL;2010-10-29 22:00;CYUL 292200Z 29009G16KT 15SM FEW045 OVC058 06/M01 A2992 RMK SC2SC6 SLP134

CYUL;2010-10-29 23:00;CYUL 292300Z 30009KT 15SM OVC055 06/M02 A2994 RMK SC8 SLP139

CYUL;2010-10-30 00:00;CYUL 300000Z 29012KT 15SM FEW040 BKN053 06/M03 A2995 RMK SC2SC5 SLP142

CYUL;2010-10-30 01:00;CYUL 300100Z 29016KT 15SM FEW055 03/M03 A2996 RMK SC2 SLP148

CYUL;2010-10-30 02:00;CYUL 300200Z 28011G17KT 15SM BKN045 03/M05 A2998 RMK SC6 SLP154

CYUL;2010-10-30 03:00;CYUL 300300Z 27009KT 15SM BKN160 02/M06 A2998 RMK AC6 SLP154

CYUL;2010-10-30 04:00;CYUL 300400Z 25007KT 15SM FEW160 02/M05 A2996 RMK AC1 SLP147

CYUL;2010-10-30 05:00;CYUL 300500Z 25009KT 15SM BKN100 02/M05 A2995 RMK AC6 SLP145

CYUL;2010-10-30 06:00;CYUL 300600Z 24004KT 15SM BKN070 02/M04 A2993 RMK AC7 VIRGA SLP138

CYUL;2010-10-30 07:00;CYUL 300700Z 25011KT 10SM -SHSN OVC040 03/M03 A2991 RMK SC8 SLP131

CYUL;2010-10-30 07:40;CYUL 300740Z 23005KT 15SM SCT040 OVC070 03/ RMK SC4AC4

CYUL;2010-10-30 08:00;CYUL 300800Z 22009KT 15SM FEW045 BKN090 03/M00 A2988 RMK SC1AC4 SLP121

CYUL;2010-10-30 09:00;CYUL 300900Z 25007KT 15SM FEW025 FEW040 BKN120 02/00 A2987 RMK CF1SC2AC6 SLP117

CYUL;2010-10-30 10:00;CYUL 301000Z 27009KT 15SM FEW025 BKN120 03/M00 A2986 RMK CF1AC7 SLP114

CYUL;2010-10-30 11:00;CYUL 301100Z 28008KT 15SM FEW015 SCT075 BKN120 02/00 A2986 RMK SF1AC4AC2 SLP113

CYUL;2010-10-30 12:00;CYUL 301200Z 27008KT 15SM FEW015 FEW030 SCT110 BKN240 02/00 A2986 RMK SF1SC1AC3CI1 SLP112

CYUL;2010-10-30 13:00;CYUL 301300Z 27012KT 30SM FEW015 SCT110 OVC220 04/M00 A2986 RMK SC1AC4CS3 SLP113

CYUL;2010-10-30 14:00;CYUL 301400Z 29008KT 30SM FEW021 BKN120 OVC200 05/M00 A2985 RMK CF1AS4CS2 SLP110

CYUL;2010-10-30 15:00;CYUL 301500Z 29012KT 30SM FEW037 BKN110 OVC200 05/M01 A2985 RMK SC1AS4CS2 SLP109

CYUL;2010-10-30 16:00;CYUL 301600Z 27012KT 15SM SCT045 OVC070 05/M02 A2983 RMK SC3AC5 SLP104

CYUL;2010-10-30 17:00;CYUL 301700Z 24008KT 15SM -SHRA FEW018 BKN035 OVC050 05/00 A2981 RMK SF1SC5SC2 SLP096

CYUL;2010-10-30 18:00;CYUL 301800Z 28006KT 12SM -SHRA FEW019 BKN024 OVC040 04/01 A2979 RMK SF1SC6SC2 SLP088

CYUL;2010-10-30 19:00;CYUL 301900Z 32003KT 15SM -SHRA FEW009 BKN022 OVC037 04/02 A2977 RMK SF1SC6SC2 SLP081

CYUL;2010-10-30 20:00;CYUL 302000Z 30003KT 12SM -RA FEW009 BKN018 OVC028 03/02 A2976 RMK SF2SC5SC2 SLP078

CYUL;2010-10-30 21:00;CYUL 302100Z 02002KT 12SM -RA SCT009 BKN017 OVC022 03/02 A2974 RMK SF3SC3SC2 SLP073

CYUL;2010-10-30 21:25;CYUL 302125Z 04004KT 12SM -RA BKN009 OVC018 03/ RMK SF5ST3

CYUL;2010-10-30 21:55;CYUL 302155Z 04004KT 12SM -RA SCT009 BKN013 OVC018 02/ RMK SF3SF3SC2

CYUL;2010-10-30 22:00;CYUL 302200Z 06003KT 12SM -RA FEW009 BKN014 OVC020 02/01 A2973 RMK SF2SF5SC2 SLP068

CYUL;2010-10-30 22:18;CYUL 302218Z 05005KT 10SM -RA BKN009 OVC014 02/ RMK SF5ST3

CYUL;2010-10-30 23:00;CYUL 302300Z 05006KT 10SM -RA BKN006 OVC012 02/01 A2972 RMK SF6ST2 SLP064

CYUL;2010-10-30 23:32;CYUL 302332Z 05005KT 5SM -RA BR SCT004 OVC013 01/ RMK SF3ST5

CYUL;2010-10-30 23:40;CYUL 302340Z 05004KT 5SM -RA BR SCT004 BKN009 OVC014 01/ RMK SF2SF4ST2

CYUL;2010-10-30 23:50;CYUL 302350Z 05004KT 5SM -RASN BR FEW004 BKN009 OVC017 01/ RMK SF2SF4ST2

CYUL;2010-10-31 00:00;CYUL 310000Z 05004KT 5SM -RASN BR FEW004 BKN010 OVC020 01/00 A2970 RMK SF2SF5SC2 SLP059

CYUL;2010-10-31 00:16;CYUL 310016Z 03006KT 4SM -RASN BR SCT004 BKN008 OVC013 01/ RMK SF3SF3ST2

CYUL;2010-10-31 00:42;CYUL 310042Z 04004KT 3SM -RASN BR FEW003 BKN006 OVC014 00/ RMK SF2SF5ST2

CYUL;2010-10-31 01:00;CYUL 310100Z 04003KT 3SM -RASN BR FEW003 BKN007 OVC016 00/00 A2969 RMK SF2SF5ST2 SLP056

CYUL;2010-10-31 02:00;CYUL 310200Z 03006KT 1 3/4SM -SN BR BKN002 OVC018 01/00 A2967 RMK ST6SC2 /S01/ SLP048

CYUL;2010-10-31 03:00;CYUL 310300Z 03006KT 2 1/4SM -SN BR OVC004 01/00 A2966 RMK ST8 SLP045

CYUL;2010-10-31 04:00;CYUL 310400Z 04009KT 3SM -SN BR SCT003 BKN006 OVC027 01/00 A2966 RMK SF3SF4SC1 SLP045

CYUL;2010-10-31 05:00;CYUL 310500Z CCA 03009KT 4SM -SN BR OVC005 01/00 A2967 RMK ST8 SLP048

CYUL;2010-10-31 05:20;CYUL 310520Z 03013KT 5SM -SN FEW005 SCT018 OVC045 01/ RMK SF2SC2SC4

CYUL;2010-10-31 06:00;CYUL 310600Z 02009KT 3SM -SN BKN005 OVC011 01/00 A2967 RMK SF5SF3 SLP049

CYUL;2010-10-31 06:17;CYUL 310617Z 02010KT 5SM -SN FEW005 SCT011 OVC050 01/ RMK SF2SF2SC4

CYUL;2010-10-31 07:00;CYUL 310700Z 01010KT 4SM -SN FEW007 OVC025 01/00 A2968 RMK SF2SC6 SLP053

CYUL;2010-10-31 08:00;CYUL 310800Z 36006KT 3SM -SN FEW006 OVC028 01/00 A2970 RMK SF2SC6 SLP059

CYUL;2010-10-31 08:53;CYUL 310853Z 36005KT 10SM FEW006 OVC075 01/ RMK SF1AS7

CYUL;2010-10-31 09:00;CYUL 310900Z 35005KT 10SM FEW006 OVC075 01/M01 A2972 RMK SF1AS7 SLP067

CYUL;2010-10-31 10:00;CYUL 311000Z 31005KT 15SM FEW010 BKN100 BKN120 01/00 A2976 RMK SF1AC5AC1 SLP079

CYUL;2010-10-31 11:00;CYUL 311100Z 32005KT 15SM FEW010 BKN100 01/M01 A2978 RMK SF1AC6 SLP087

CYUL;2010-10-31 12:00;CYUL 311200Z 30004KT 15SM FEW015 FEW030 BKN100 BKN240 00/M01 A2982 RMK SF1SC1AC6CI1 SLP101

CYUL;2010-10-31 13:00;CYUL 311300Z 33007KT 15SM FEW012 FEW050 BKN100 BKN240 01/M01 A2985 RMK SF1SC1AC6CI1 SLP111

CYUL;2010-10-31 14:00;CYUL 311400Z 34006KT 15SM FEW020 FEW050 BKN100 BKN240 01/M02 A2987 RMK SF1SC1AC2CI1 SLP118

CYUL;2010-10-31 15:00;CYUL 311500Z 35007KT 15SM FEW025 SCT052 SCT100 BKN240 02/M02 A2989 RMK CU1SC2AC1CI1 SLP123

CYUL;2010-10-31 16:00;CYUL 311600Z 36008KT 15SM FEW028 BKN049 BKN100 03/M03 A2989 RMK CU1SC4AC2 SLP125

CYUL;2010-10-31 17:00;CYUL 311700Z 30010KT 15SM FEW032 BKN048 BKN070 03/M04 A2990 RMK CF1SC6AC1 SLP128

CYUL;2010-10-31 17:21;CYUL 311721Z 29008KT 15SM -SHRA BKN034 BKN050 02/ RMK SC5SC2

CYUL;2010-10-31 18:00;CYUL 311800Z 32011KT 15SM FEW032 BKN043 02/M04 A2992 RMK SC2SC6 SLP133

CYUL;2010-10-31 19:00;CYUL 311900Z 31011KT 15SM SCT035 BKN045 02/M05 A2993 RMK SC3SC4 SLP137

CYUL;2010-10-31 20:00;CYUL 312000Z 30010KT 15SM OVC044 02/M06 A2996 RMK SC8 SLP148

CYUL;2010-10-31 21:00;CYUL 312100Z 29009KT 15SM OVC045 02/M04 A2999 RMK SC8 SLP157

CYUL;2010-10-31 22:00;CYUL 312200Z 28010KT 15SM OVC044 02/M04 A3001 RMK SC8 SLP165

CYUL;2010-10-31 23:00;CYUL 312300Z 28011KT 15SM OVC045 02/M04 A3004 RMK SC8 SLP175

CYUL;2010-11-01 01:00;CYUL 010100Z 28009KT 15SM SCT043 BKN085 OVC110 02/M03 A3009 RMK SC2AC2AS3 SLP190

CYUL;2010-11-01 02:00;CYUL 010200Z 28008KT 15SM FEW045 FEW100 BKN120 01/M03 A3010 RMK SC1AC1AC6 SLP195

CYUL;2010-11-01 03:00;CYUL 010300Z 28009KT 15SM FEW100 OVC120 02/M02 A3011 RMK AC2AC6 SLP198

CYUL;2010-11-01 04:00;CYUL 010400Z 28009KT 15SM FEW100 OVC120 01/M02 A3012 RMK AC1AC7 SLP203

CYUL;2010-11-01 05:00;CYUL 010500Z 28009KT 15SM SCT042 BKN120 02/M02 A3014 RMK SC4AC2 SLP208

CYUL;2010-11-01 06:00;CYUL 010600Z 28008KT 15SM BKN045 BKN120 02/M02 A3015 RMK SC6AC2 SLP212

CYUL;2010-11-01 07:00;CYUL 010700Z 29008KT 15SM FEW045 SCT130 01/M02 A3017 RMK SC2AC2 SLP217

CYUL;2010-11-01 08:00;CYUL 010800Z 30009KT 15SM BKN050 BKN130 01/M02 A3017 RMK SC6AC1 SLP220

CYUL;2010-11-01 09:00;CYUL 010900Z 30007KT 15SM BKN055 BKN130 01/M02 A3020 RMK SC7AC1 SLP229

CYUL;2010-11-01 10:00;CYUL 011000Z 29009KT 15SM SCT055 BKN140 01/M02 A3023 RMK SC3AC4 SLP237

CYUL;2010-11-01 11:00;CYUL 011100Z 30009KT 15SM FEW025 BKN060 02/M02 A3025 RMK SC1SC7 SLP244

CYUL;2010-11-01 12:00;CYUL 011200Z 29007KT 15SM FEW065 BKN130 BKN240 02/M01 A3028 RMK SC2AC6CI1 SLP254

CYUL;2010-11-01 13:00;CYUL 011300Z 28007KT 15SM FEW045 BKN067 03/M01 A3030 RMK SC2AC6 SLP263

CYUL;2010-11-01 14:00;CYUL 011400Z 32007KT 15SM FEW020 SCT057 BKN075 BKN130 03/M01 A3031 RMK SF1SC2AC2AC0 SLP267

CYUL;2010-11-01 15:00;CYUL 011500Z 31009KT 15SM FEW032 BKN063 BKN120 04/M01 A3032 RMK CF1SC4AC1 SLP269

CYUL;2010-11-01 16:00;CYUL 011600Z 32006KT 30SM FEW030 SCT050 SCT075 BKN240 05/M01 A3033 RMK SC1SC2AC1CI1 SLP271

CYUL;2010-11-01 17:00;CYUL 011700Z 27005KT 30SM FEW030 SCT065 SCT090 BKN240 05/M01 A3033 RMK SC1SC2AC1CI1 SLP271

CYUL;2010-11-01 18:00;CYUL 011800Z 27010KT 15SM FEW030 BKN045 BKN075 06/M01 A3032 RMK SC1SC6AC1 SLP269

CYUL;2010-11-01 19:00;CYUL 011900Z 28008KT 15SM FEW032 BKN043 BKN060 06/M01 A3032 RMK SC2SC5SC1 SLP270

CYUL;2010-11-01 20:00;CYUL 012000Z 31008KT 15SM FEW040 BKN057 07/M02 A3033 RMK SC2SC6 SLP272

CYUL;2010-11-01 21:00;CYUL 012100Z 29011KT 15SM FEW040 BKN060 BKN075 06/M00 A3034 RMK SC2SC3AC0 SLP277

CYUL;2010-11-01 21:53;CYUL 012153Z 29009KT 15SM -SHRA FEW040 BKN055 06/ RMK SC2SC6

CYUL;2010-11-01 22:00;CYUL 012200Z 29011KT 15SM -SHRA FEW040 BKN054 06/M01 A3036 RMK SC2SC6 VRY LGT RA SLP283

CYUL;2010-11-01 22:32;CYUL 012232Z 30008KT 15SM BKN058 06/ RMK SC7 OCNL -SHRA

CYUL;2010-11-01 23:00;CYUL 012300Z 30005KT 15SM BKN052 05/M01 A3038 RMK SC7 SLP288

CYUL;2010-11-02 00:00;CYUL 020000Z 30006KT 15SM BKN060 05/M01 A3039 RMK SC7 SLP291

CYUL;2010-11-02 01:00;CYUL 020100Z 32006KT 15SM BKN060 05/M01 A3039 RMK SC6 SLP294

CYUL;2010-11-02 02:00;CYUL 020200Z 32008KT 15SM BKN055 04/M01 A3041 RMK SC5 SLP301

CYUL;2010-11-02 03:00;CYUL 020300Z 31007KT 15SM SCT055 02/M01 A3042 RMK SC2 SLP304

CYUL;2010-11-02 04:00;CYUL 020400Z 31006KT 15SM BKN055 02/M01 A3043 RMK SC3 SLP307

CYUL;2010-11-02 05:00;CYUL 020500Z 32007KT 15SM BKN055 02/M01 A3044 RMK SC6 SLP309

CYUL;2010-11-02 06:00;CYUL 020600Z 33007KT 15SM BKN055 02/M02 A3044 RMK SC3 SLP309

CYUL;2010-11-02 07:00;CYUL 020700Z 32007KT 15SM BKN055 02/M02 A3045 RMK SC5 SLP312

CYUL;2010-11-02 08:00;CYUL 020800Z 34009KT 15SM SCT060 01/M02 A3044 RMK SC2 SLP310

CYUL;2010-11-02 09:00;CYUL 020900Z 32006KT 15SM FEW060 M00/M03 A3045 RMK SC2 SLP312

CYUL;2010-11-02 10:00;CYUL 021000Z 33007KT 15SM BKN045 02/M02 A3046 RMK SC6 SLP315

CYUL;2010-11-02 11:00;CYUL 021100Z 34007KT 15SM BKN041 02/M02 A3048 RMK SC6 SLP322

CYUL;2010-11-02 12:00;CYUL 021200Z 33004KT 15SM BKN036 03/M02 A3049 RMK SC7 SLP325

CYUL;2010-11-02 13:00;CYUL 021300Z 32006KT 15SM BKN036 03/M02 A3049 RMK SC7 SLP328

CYUL;2010-11-02 14:00;CYUL 021400Z 35004KT 15SM BKN035 04/M03 A3050 RMK SC7 SLP330

CYUL;2010-11-02 15:00;CYUL 021500Z 36005KT 15SM BKN035 04/M03 A3049 RMK SC7 SLP328

CYUL;2010-11-02 16:00;CYUL 021600Z 32005KT 30SM BKN034 04/M04 A3049 RMK SC7 SLP326

CYUL;2010-11-02 17:00;CYUL 021700Z 28004KT 30SM BKN034 05/M03 A3047 RMK SC5 SLP320

CYUL;2010-11-02 18:00;CYUL 021800Z 27002KT 30SM FEW036 06/M03 A3045 RMK SC2 CU ASOCTD SLP312

CYUL;2010-11-02 19:00;CYUL 021900Z 21008KT 30SM FEW035 05/M03 A3043 RMK SC2 SLP307

CYUL;2010-11-02 20:00;CYUL 022000Z 20008KT 30SM FEW040 05/M02 A3042 RMK SC1 SLP304

CYUL;2010-11-02 21:00;CYUL 022100Z 20006KT 30SM FEW040 05/M02 A3041 RMK SC1 SLP298

CYUL;2010-11-02 22:00;CYUL 022200Z 20007KT 30SM SKC 05/M01 A3040 RMK SLP295

CYUL;2010-11-02 23:00;CYUL 022300Z 21007KT 15SM SKC 04/M01 A3039 RMK SLP292

CYUL;2010-11-03 00:00;CYUL 030000Z 19004KT 15SM SKC 03/M01 A3038 RMK SLP289

CYUL;2010-11-03 01:00;CYUL 030100Z 18004KT 15SM SKC 02/M01 A3036 RMK SLP281

CYUL;2010-11-03 02:00;CYUL 030200Z 22003KT 15SM SKC 01/M01 A3035 RMK SLP279

CYUL;2010-11-03 03:00;CYUL 030300Z 23004KT 15SM SKC 02/M01 A3035 RMK SLP278

CYUL;2010-11-03 04:00;CYUL 030400Z 24004KT 15SM SKC 02/M01 A3034 RMK SLP276

CYUL;2010-11-03 05:00;CYUL 030500Z 23003KT 15SM SKC 01/M01 A3033 RMK SLP272

CYUL;2010-11-03 06:00;CYUL 030600Z 23005KT 15SM SKC 01/M00 A3031 RMK SLP265

CYUL;2010-11-03 07:00;CYUL 030700Z 21002KT 15SM SKC M00/M01 A3029 RMK SLP259

CYUL;2010-11-03 08:00;CYUL 030800Z 18002KT 15SM SKC 00/M01 A3027 RMK SLP253

CYUL;2010-11-03 09:00;CYUL 030900Z 13002KT 15SM SKC M01/M02 A3026 RMK FROIN SLP249

CYUL;2010-11-03 10:00;CYUL 031000Z 17003KT 15SM SKC M02/M02 A3026 RMK FROIN SLP248

CYUL;2010-11-03 11:00;CYUL 031100Z 23004KT 15SM FEW120 M01/M02 A3025 RMK AC1 FROIN SLP244

CYUL;2010-11-03 12:00;CYUL 031200Z 00000KT 30SM FEW015 FEW150 M01/M02 A3023 RMK SF1AC1 FROIN SLP239

CYUL;2010-11-03 13:00;CYUL 031300Z 23002KT 30SM FEW010 FEW120 01/M00 A3023 RMK SF2AC1 FROIN SLP237

CYUL;2010-11-03 13:09;CYUL 031309Z 25002KT 30SM SCT008 SCT120 01/ RMK SF2AC1 FROIN

CYUL;2010-11-03 14:00;CYUL 031400Z 00000KT 30SM FEW008 FEW120 03/01 A3022 RMK SF2AC1 FROIN SLP234

CYUL;2010-11-03 15:00;CYUL 031500Z 16003KT 30SM FEW008 FEW240 04/00 A3019 RMK SF1CI1 SLP225

CYUL;2010-11-03 16:00;CYUL 031600Z 16004KT 30SM FEW015 FEW240 06/M01 A3016 RMK CU1CI1 SLP216

CYUL;2010-11-03 17:00;CYUL 031700Z 18002KT 30SM SCT030 07/M00 A3013 RMK CU3 SLP204

CYUL;2010-11-03 18:00;CYUL 031800Z 18006KT 30SM FEW030 FEW210 06/M01 A3009 RMK CU2CI1 SLP193

CYUL;2010-11-03 19:00;CYUL 031900Z 16004KT 30SM FEW030 FEW210 07/M01 A3006 RMK CU1CI1 SLP180

CYUL;2010-11-03 20:00;CYUL 032000Z 13004KT 30SM FEW030 FEW240 07/M01 A3003 RMK CU1CI1 SLP170

CYUL;2010-11-03 21:00;CYUL 032100Z 12005KT 30SM FEW240 06/M01 A3001 RMK CI1 SLP163

CYUL;2010-11-03 22:00;CYUL 032200Z 15006KT 15SM FEW240 04/M01 A2999 RMK CI1 SLP158

CYUL;2010-11-03 23:00;CYUL 032300Z 12002KT 15SM FEW240 04/M01 A2998 RMK CI1 SLP155

CYUL;2010-11-04 00:00;CYUL 040000Z 08005KT 15SM FEW240 05/M01 A2996 RMK CI0 SLP147

CYUL;2010-11-04 01:00;CYUL 040100Z 06004KT 15SM FEW240 05/M01 A2994 RMK CI1 SLP140

CYUL;2010-11-04 02:00;CYUL 040200Z 10004KT 15SM SCT240 04/M01 A2993 RMK CI0 SLP136

CYUL;2010-11-04 03:00;CYUL 040300Z 16008KT 15SM SCT230 03/M01 A2990 RMK CI1 SLP128

CYUL;2010-11-04 04:00;CYUL 040400Z 12004KT 15SM BKN200 03/M01 A2988 RMK CI2 SLP120

CYUL;2010-11-04 05:00;CYUL 040500Z 09004KT 15SM BKN200 04/M01 A2985 RMK CI2 SLP112

CYUL;2010-11-04 06:00;CYUL 040600Z 13002KT 15SM BKN200 02/M01 A2985 RMK CI2 SLP108

CYUL;2010-11-04 07:00;CYUL 040700Z 12003KT 15SM FEW060 BKN150 BKN200 02/M01 A2983 RMK SC1AC2CI1 SLP104

CYUL;2010-11-04 08:00;CYUL 040800Z 15008KT 15SM SCT150 03/M01 A2981 RMK AC2 SLP097

CYUL;2010-11-04 09:00;CYUL 040900Z 15007KT 15SM BKN160 03/M01 A2980 RMK AC3 SLP094

CYUL;2010-11-04 10:00;CYUL 041000Z 14007KT 15SM FEW150 BKN180 BKN240 03/M01 A2979 RMK AC1AC3CI0 SLP090

CYUL;2010-11-04 11:00;CYUL 041100Z 14006KT 15SM BKN038 BKN080 04/M00 A2980 RMK SC5AC2 SLP091

CYUL;2010-11-04 12:00;CYUL 041200Z 16008KT 15SM BKN040 OVC090 05/01 A2980 RMK SC6AC2 SLP093

CYUL;2010-11-04 13:00;CYUL 041300Z 17004KT 15SM OVC044 05/01 A2982 RMK SC8 SLP098

CYUL;2010-11-04 13:27;CYUL 041327Z 16005KT 15SM -SHRA OVC041 06/ RMK SC8

CYUL;2010-11-04 14:00;CYUL 041400Z 13006KT 15SM -RA BKN043 OVC060 06/02 A2979 RMK SC7SC1 SLP090

CYUL;2010-11-04 15:00;CYUL 041500Z 15006KT 10SM -RA BKN040 OVC080 06/03 A2979 RMK SC6AC2 SLP089

CYUL;2010-11-04 16:00;CYUL 041600Z 15006KT 8SM -RA BKN032 OVC050 06/04 A2980 RMK SC7SC1 SLP092

CYUL;2010-11-04 17:00;CYUL 041700Z 14004KT 6SM -RA BR OVC028 06/05 A2978 RMK SC8 SLP087

CYUL;2010-11-04 17:32;CYUL 041732Z 14004KT 6SM -RA BR SCT010 OVC027 06/ RMK SF4SC4

CYUL;2010-11-04 18:00;CYUL 041800Z 15005KT 6SM -RA BR BKN010 OVC025 07/05 A2977 RMK SF5SC3 SLP083

CYUL;2010-11-04 19:00;CYUL 041900Z 15008KT 6SM -RA BR FEW008 BKN011 OVC024 07/06 A2977 RMK SF1SF6SC2 SLP082

CYUL;2010-11-04 20:00;CYUL 042000Z 12005KT 6SM -RA BR FEW008 BKN012 OVC030 07/06 A2974 RMK SF2SF3SC3 SLP073

CYUL;2010-11-04 21:00;CYUL 042100Z 09005KT 6SM -RA BR FEW007 BKN013 OVC025 06/05 A2972 RMK SF2SF5SC2 SLP067

CYUL;2010-11-04 22:00;CYUL 042200Z 09009KT 6SM -RA BR BKN009 OVC029 06/05 A2971 RMK SF5SC3 SLP061

CYUL;2010-11-04 22:25;CYUL 042225Z 08006KT 6SM -RA BR SCT009 OVC028 06/ RMK SF4SC4

CYUL;2010-11-04 23:00;CYUL 042300Z 08010KT 5SM -RA BR SCT008 OVC022 06/05 A2972 RMK SF3SC5 SLP064

CYUL;2010-11-05 00:00;CYUL 050000Z 05007KT 6SM -RA BR SCT008 OVC022 06/05 A2971 RMK SF3SC5 SLP062

CYUL;2010-11-05 00:50;CYUL 050050Z 05010KT 6SM -RA BR BKN009 OVC022 06/ RMK SF6SC2

CYUL;2010-11-05 01:00;CYUL 050100Z 05011KT 6SM -RA BR BKN008 OVC018 06/05 A2966 RMK SF7SC1 SLP045

CYUL;2010-11-05 02:00;CYUL 050200Z 06012KT 8SM -RA BKN008 OVC012 06/04 A2962 RMK SF7SC1 SLP033

CYUL;2010-11-05 03:00;CYUL 050300Z 05012G17KT 4SM -DZ BR OVC007 05/04 A2960 RMK SF8 SLP024

CYUL;2010-11-05 04:00;CYUL 050400Z 05011G16KT 4SM -DZ BR OVC006 05/04 A2958 RMK SF8 SLP019

CYUL;2010-11-05 05:00;CYUL 050500Z 04013KT 4SM -DZ BR OVC007 05/04 A2956 RMK SF8 SLP012

CYUL;2010-11-05 06:00;CYUL 050600Z 04017KT 5SM -DZ BR OVC008 05/04 A2953 RMK SF8 SLP000

CYUL;2010-11-05 07:00;CYUL 050700Z 04014G20KT 4SM -DZ BR OVC008 04/03 A2953 RMK SF8 SLP002

CYUL;2010-11-05 07:29;CYUL 050729Z 04011KT 2 1/2SM -DZ BR BKN006 OVC012 04/ RMK SF6SF2

CYUL;2010-11-05 07:37;CYUL 050737Z 01010KT 2 1/2SM -DZ BR OVC004 04/ RMK ST8

CYUL;2010-11-05 08:00;CYUL 050800Z 02011KT 2 1/4SM -DZ BR OVC005 04/03 A2951 RMK ST8 SLP995

CYUL;2010-11-05 08:42;CYUL 050842Z 02011KT 2 1/4SM -DZ BR BKN004 OVC007 03/ RMK ST6SF2

CYUL;2010-11-05 09:00;CYUL 050900Z 02012KT 2 1/4SM -DZ BR SCT003 OVC006 03/03 A2949 RMK SF3SF5 SLP987

CYUL;2010-11-05 10:00;CYUL 051000Z 02011G16KT 2 1/4SM -DZ BR FEW004 OVC006 03/03 A2947 RMK SF2SF6 SLP982

CYUL;2010-11-05 10:10;CYUL 051010Z 03012KT 2 1/2SM -RA BR FEW003 OVC006 03/ RMK SF2SF6

CYUL;2010-11-05 10:33;CYUL 051033Z 03010KT 4SM -DZ BR SCT004 OVC007 03/ RMK SF3SF5

CYUL;2010-11-05 11:00;CYUL 051100Z 03011KT 5SM -RA BR OVC005 03/03 A2945 RMK ST8 SLP975

CYUL;2010-11-05 12:00;CYUL 051200Z 02009KT 5SM -RA BR FEW004 OVC006 04/03 A2945 RMK SF2ST6 SLP976

CYUL;2010-11-05 13:00;CYUL 051300Z 02010KT 6SM -RA BR OVC006 04/03 A2945 RMK SF8 SLP974

CYUL;2010-11-05 14:00;CYUL 051400Z 02008KT 4SM -RA BR BKN006 OVC009 04/03 A2943 RMK SF6ST2 SLP968

CYUL;2010-11-05 14:46;CYUL 051446Z 02008KT 3SM -RA BR BKN004 OVC008 04/ RMK SF3ST5

CYUL;2010-11-05 15:00;CYUL 051500Z 02007KT 2 1/2SM -RA BR FEW004 BKN007 OVC012 04/03 A2941 RMK SF2SF5ST2 SLP961

CYUL;2010-11-05 15:12;CYUL 051512Z 02008KT 4SM -RA BR FEW004 BKN008 OVC013 04/ RMK SF1SF6ST2

CYUL;2010-11-05 15:34;CYUL 051534Z 01007KT 6SM -RA BR FEW004 BKN008 OVC013 04/ RMK SF1SF3ST4

CYUL;2010-11-05 15:46;CYUL 051546Z 02006KT 6SM -RA BR FEW004 BKN008 OVC013 04/ RMK SF1SF6ST2

CYUL;2010-11-05 16:00;CYUL 051600Z 03009KT 6SM -RA BR FEW005 BKN008 OVC012 04/04 A2941 RMK SF2SF5ST2 SLP962

CYUL;2010-11-05 16:45;CYUL 051645Z 36005KT 8SM -RA FEW005 SCT008 BKN014 OVC019 04/ RMK SF1SF2SC4SC1

CYUL;2010-11-05 17:00;CYUL 051700Z 34005KT 8SM -RA SCT008 BKN018 OVC022 04/04 A2940 RMK SF3SC4SC1 SLP958

CYUL;2010-11-05 17:06;CYUL 051706Z 34006KT 8SM -RA FEW005 BKN008 OVC014 04/ RMK SF1SF6SC2

CYUL;2010-11-05 18:00;CYUL 051800Z 34004KT 8SM -RA FEW005 BKN010 OVC014 04/04 A2940 RMK SF1SF5SC2 SLP956

CYUL;2010-11-05 19:00;CYUL 051900Z 29004KT 6SM -RA BR FEW004 BKN009 OVC016 04/04 A2941 RMK SF1SF5ST2 SLP962

CYUL;2010-11-05 19:22;CYUL 051922Z 31004KT 6SM -RA BR SCT006 BKN016 OVC020 04/ RMK SF3SC4SC1

CYUL;2010-11-05 19:41;CYUL 051941Z 29007KT 6SM -RA BR SCT006 BKN012 OVC017 04/ RMK SF2SC4SC2

CYUL;2010-11-05 20:00;CYUL 052000Z 27005KT 8SM -RA SCT009 BKN017 OVC022 04/04 A2944 RMK SF2SC4SC2 SLP972

CYUL;2010-11-05 20:28;CYUL 052028Z 26006KT 8SM -RA SCT008 BKN012 OVC016 04/ RMK SF2SC5SC1

CYUL;2010-11-05 20:53;CYUL 052053Z 26007KT 10SM -RA FEW008 SCT012 OVC020 OVC030 04/ RMK SF1SC2SC5SC1

CYUL;2010-11-05 21:00;CYUL 052100Z 27006KT 10SM -RA FEW008 SCT014 BKN020 OVC030 04/03 A2947 RMK SF1SC2SC4SC1 SLP981

CYUL;2010-11-05 21:24;CYUL 052124Z 26006KT 10SM -RA FEW008 BKN014 OVC020 05/ RMK SF1SC5SC2

CYUL;2010-11-05 22:00;CYUL 052200Z 25005KT 10SM -DZ SCT012 BKN022 BKN030 OVC050 04/04 A2951 RMK SF2SC4SC1SC1 SLP995

CYUL;2010-11-05 22:24;CYUL 052224Z 25009KT 12SM FEW015 BKN022 BKN035 05/ RMK SF1SC6SC1

CYUL;2010-11-05 23:00;CYUL 052300Z 25009KT 12SM SCT018 BKN028 BKN045 04/03 A2955 RMK SC2SC4SC1 SLP009

CYUL;2010-11-06 00:00;CYUL 060000Z 26011KT 15SM FEW009 FEW014 SCT030 BKN048 04/03 A2959 RMK SF1SF2SC2SC2 SLP023

CYUL;2010-11-06 01:00;CYUL 060100Z 26010G16KT 15SM FEW022 SCT035 OVC050 04/02 A2964 RMK SC1SC2SC5 SLP039

CYUL;2010-11-06 02:00;CYUL 060200Z 26011KT 15SM FEW012 SCT030 OVC055 03/02 A2969 RMK SF1SC4SC4 SLP056

CYUL;2010-11-06 03:00;CYUL 060300Z 27010G15KT 15SM FEW015 OVC050 03/01 A2975 RMK SF1SC7 SLP074

CYUL;2010-11-06 04:00;CYUL 060400Z 27011KT 15SM FEW015 BKN050 OVC060 03/01 A2978 RMK SF1SC6SC2 SLP087

CYUL;2010-11-06 05:00;CYUL 060500Z 28010KT 15SM FEW015 BKN050 03/00 A2984 RMK SF1SC7 PRESRR SLP107

CYUL;2010-11-06 06:00;CYUL 060600Z 27010KT 15SM FEW015 BKN055 03/00 A2989 RMK SC1SC7 SLP125

CYUL;2010-11-06 07:00;CYUL 060700Z 27009KT 15SM FEW015 BKN050 02/00 A2994 RMK SC1SC6 SLP140

CYUL;2010-11-06 08:00;CYUL 060800Z 28008KT 15SM FEW015 FEW050 01/M01 A2998 RMK SC1SC2 SLP153

CYUL;2010-11-06 09:00;CYUL 060900Z 28008KT 15SM FEW015 FEW055 01/M01 A3001 RMK SF1SC1 SLP164

CYUL;2010-11-06 10:00;CYUL 061000Z 27005KT 15SM FEW015 01/M01 A3004 RMK SF1 SLP174

CYUL;2010-11-06 11:00;CYUL 061100Z 29005KT 15SM FEW015 FEW220 M01/M02 A3008 RMK SF1CI1 SLP188

CYUL;2010-11-06 12:00;CYUL 061200Z 29006KT 30SM FEW015 FEW060 FEW150 FEW220 M01/M02 A3012 RMK SF1SC1AC1CI1 SLP202

CYUL;2010-11-06 13:00;CYUL 061300Z 29004KT 30SM FEW015 FEW070 FEW220 01/M00 A3016 RMK SF1AC1CI1 SLP214

CYUL;2010-11-06 14:00;CYUL 061400Z 31005KT 30SM FEW020 FEW070 FEW240 03/M00 A3018 RMK CF1AC1CI0 SLP222

CYUL;2010-11-06 15:00;CYUL 061500Z 34004KT 30SM FEW025 FEW120 FEW240 04/M02 A3021 RMK CF1AC0CI1 SLP231

CYUL;2010-11-06 16:00;CYUL 061600Z 00000KT 30SM SCT028 SCT045 04/M02 A3021 RMK CU3SC1 SLP232

CYUL;2010-11-06 17:00;CYUL 061700Z 26007KT 15SM BKN028 BKN040 05/M01 A3020 RMK SC5SC1 SLP229

CYUL;2010-11-06 18:00;CYUL 061800Z 29009KT 15SM BKN029 05/M01 A3021 RMK SC6 SLP233

CYUL;2010-11-06 19:00;CYUL 061900Z 25008KT 15SM BKN030 05/M01 A3023 RMK SC7 SLP238

CYUL;2010-11-06 20:00;CYUL 062000Z 25008KT 15SM BKN031 04/M01 A3025 RMK SC7 SLP244

CYUL;2010-11-06 21:00;CYUL 062100Z 25007KT 15SM BKN030 04/M01 A3026 RMK SC7 SLP250

CYUL;2010-11-06 22:00;CYUL 062200Z 25008KT 15SM BKN034 04/M01 A3028 RMK SC7 SLP255

CYUL;2010-11-06 23:00;CYUL 062300Z 25008KT 15SM OVC032 03/M01 A3030 RMK SC8 SLP261

CYUL;2010-11-07 00:00;CYUL 070000Z 28009KT 15SM OVC033 03/M01 A3031 RMK SC8 SLP266

CYUL;2010-11-07 01:00;CYUL 070100Z 28005KT 15SM OVC031 03/M01 A3032 RMK SC8 SLP269

CYUL;2010-11-07 02:00;CYUL 070200Z 28007KT 15SM OVC025 02/M01 A3033 RMK SC8 SLP274

CYUL;2010-11-07 03:00;CYUL 070300Z 26007KT 15SM OVC028 02/M02 A3035 RMK SC8 SLP278

CYUL;2010-11-07 04:00;CYUL 070400Z 27006KT 15SM OVC025 02/M03 A3036 RMK SC8 SLP281

CYUL;2010-11-07 05:00;CYUL 070500Z 29009KT 15SM OVC023 02/M02 A3036 RMK SC8 SLP283

CYUL;2010-11-07 06:00;CYUL 070600Z 28007KT 15SM OVC023 01/M03 A3036 RMK SC8 SLP283

CYUL;2010-11-07 07:00;CYUL 070700Z 29006KT 15SM OVC021 01/M03 A3036 RMK SC8 SLP284

CYUL;2010-11-07 08:00;CYUL 070800Z 31007KT 15SM OVC022 01/M03 A3037 RMK SC8 SLP286

CYUL;2010-11-07 09:00;CYUL 070900Z 29007KT 15SM OVC024 01/M03 A3038 RMK SC8 SLP289

CYUL;2010-11-07 10:00;CYUL 071000Z 31004KT 15SM OVC025 01/M04 A3038 RMK SC8 SLP290

CYUL;2010-11-07 11:00;CYUL 071100Z 32005KT 15SM OVC024 01/M03 A3037 RMK SC8 SLP286

CYUL;2010-11-07 12:00;CYUL 071200Z 31005KT 30SM BKN023 01/M03 A3039 RMK SC7 SLP291

CYUL;2010-11-07 13:00;CYUL 071300Z 31009KT 30SM BKN024 01/M04 A3040 RMK SC7 SLP295

CYUL;2010-11-07 14:00;CYUL 071400Z 30006KT 30SM BKN025 01/M03 A3039 RMK SC7 SLP293

CYUL;2010-11-07 15:00;CYUL 071500Z 32002KT 30SM SCT030 02/M03 A3038 RMK SC2 SLP290

CYUL;2010-11-07 16:00;CYUL 071600Z 34003KT 30SM FEW030 FEW240 02/M03 A3035 RMK SC1CI1 SLP280

CYUL;2010-11-07 17:00;CYUL 071700Z 00000KT 30SM FEW032 FEW240 04/M03 A3033 RMK SC1CI1 SLP271

CYUL;2010-11-07 18:00;CYUL 071800Z 28007KT 30SM FEW032 FEW240 05/M03 A3030 RMK SC1CI1 SLP262

CYUL;2010-11-07 19:00;CYUL 071900Z 32003KT 30SM SCT034 SCT240 04/M03 A3028 RMK SC2CI1 SLP256

CYUL;2010-11-07 20:00;CYUL 072000Z 00000KT 30SM FEW036 FEW240 04/M03 A3026 RMK SC1CI1 SLP249

CYUL;2010-11-07 21:00;CYUL 072100Z 00000KT 30SM FEW040 FEW090 FEW240 05/M03 A3026 RMK SC1AC1CI1 SLP248

CYUL;2010-11-07 22:00;CYUL 072200Z 27003KT 15SM FEW040 FEW240 02/M03 A3025 RMK SC1CI1 SLP245

CYUL;2010-11-07 23:00;CYUL 072300Z 33002KT 15SM FEW240 00/M03 A3024 RMK CI1 SLP241

CYUL;2010-11-08 00:00;CYUL 080000Z 05005KT 15SM FEW240 03/M03 A3022 RMK CI1 SLP234

CYUL;2010-11-08 01:00;CYUL 080100Z 09006KT 15SM FEW032 FEW240 02/M03 A3023 RMK SC1CI1 SLP238

CYUL;2010-11-08 02:00;CYUL 080200Z 04004KT 15SM SCT240 02/M03 A3019 RMK CI1 SLP225

CYUL;2010-11-08 03:00;CYUL 080300Z 00000KT 15SM SCT240 M01/M03 A3017 RMK CI1 SLP217

CYUL;2010-11-08 04:00;CYUL 080400Z 35005KT 15SM FEW240 M02/M04 A3014 RMK CI0 SLP208

CYUL;2010-11-08 05:00;CYUL 080500Z 03004KT 15SM FEW240 M01/M03 A3011 RMK CI0 SLP199

CYUL;2010-11-08 06:00;CYUL 080600Z 34003KT 15SM BKN240 M02/M04 A3010 RMK CI6 SLP195

CYUL;2010-11-08 07:00;CYUL 080700Z 32002KT 15SM BKN240 M02/M04 A3006 RMK CI6 SLP181

CYUL;2010-11-08 08:00;CYUL 080800Z 31004KT 15SM OVC240 M02/M03 A3001 RMK CI6 SLP166

CYUL;2010-11-08 12:00;CYUL 081200Z 34008KT 15SM FEW110 BKN240 M01/M04 A2995 RMK AC2CI3 SLP143

CYUL;2010-11-08 13:00;CYUL 081300Z 32003KT 15SM FEW110 SCT140 BKN240 M00/M03 A2995 RMK AC2AC2CI2 SLP145

CYUL;2010-11-08 14:00;CYUL 081400Z 33005KT 15SM BKN045 BKN120 OVC240 01/M03 A2993 RMK SC6AC1CI1 SLP136

CYUL;2010-11-08 15:00;CYUL 081500Z 34007KT 15SM -RA BKN034 OVC050 02/M04 A2991 RMK SC6SC2 SLP129

CYUL;2010-11-08 15:19;CYUL 081519Z 32006KT 15SM OVC033 02/ RMK SC7

CYUL;2010-11-08 16:00;CYUL 081600Z 35007KT 15SM OVC032 03/M03 A2988 RMK SC8 SLP122

CYUL;2010-11-08 17:00;CYUL 081700Z 36012KT 15SM OVC030 05/M03 A2985 RMK SC8 SLP109

CYUL;2010-11-08 18:00;CYUL 081800Z 36010KT 15SM OVC030 05/M02 A2984 RMK SC8 SLP107

CYUL;2010-11-08 18:50;CYUL 081850Z 04011KT 15SM -RA OVC030 05/ RMK SC8

CYUL;2010-11-08 19:00;CYUL 081900Z 05006KT 15SM -RA OVC030 05/M02 A2984 RMK SC8 SLP108

CYUL;2010-11-08 20:00;CYUL 082000Z 02007KT 6SM -RA BR BKN022 OVC030 04/02 A2986 RMK SC6SC2 SLP113

CYUL;2010-11-08 21:00;CYUL 082100Z 27003KT 4SM -RA BR OVC027 04/03 A2986 RMK SC8 SLP115

CYUL;2010-11-08 22:00;CYUL 082200Z 25002KT 4SM -RA BR OVC028 04/03 A2987 RMK SC8 SLP118

CYUL;2010-11-08 23:00;CYUL 082300Z 26003KT 3SM -RA BR OVC029 04/04 A2988 RMK SC8 SLP122

CYUL;2010-11-09 00:00;CYUL 090000Z 31003KT 4SM -RA BR OVC030 04/04 A2990 RMK SC8 SLP128

CYUL;2010-11-09 01:00;CYUL 090100Z 01005KT 4SM -RA BR OVC032 04/03 A2991 RMK SC8 SLP129

CYUL;2010-11-09 02:00;CYUL 090200Z 01007KT 8SM -RA FEW010 BKN030 OVC055 04/03 A2991 RMK SF1SC6SC2 SLP131

CYUL;2010-11-09 03:00;CYUL 090300Z 02009KT 10SM -RA FEW012 BKN035 OVC080 04/03 A2991 RMK SF1SC6AC2 SLP132

CYUL;2010-11-09 04:00;CYUL 090400Z 02010KT 10SM -RA FEW009 BKN017 OVC028 04/03 A2992 RMK SF2SC5SC2 SLP135

CYUL;2010-11-09 05:00;CYUL 090500Z 02009KT 8SM -RA FEW009 BKN018 OVC035 04/03 A2993 RMK SF2SC5SC2 SLP137

CYUL;2010-11-09 06:00;CYUL 090600Z 36007KT 8SM -RA FEW009 BKN016 OVC025 04/04 A2994 RMK SF1SC6SC2 SLP141

CYUL;2010-11-09 07:00;CYUL 090700Z 01006KT 8SM -RA FEW009 BKN016 OVC026 05/04 A2996 RMK SF1SC6SC2 VRY LGT RA SLP146

CYUL;2010-11-09 08:00;CYUL 090800Z 01008KT 8SM -DZ BKN018 OVC028 05/03 A2996 RMK SC6SC2 SLP149

CYUL;2010-11-09 08:50;CYUL 090850Z 02009KT 10SM BKN014 OVC018 05/ RMK SC6SC2

CYUL;2010-11-09 09:00;CYUL 090900Z 02009KT 15SM BKN014 OVC020 05/03 A2998 RMK SC6SC2 SLP155

CYUL;2010-11-09 10:00;CYUL 091000Z 01008KT 15SM BKN013 OVC020 05/03 A3000 RMK SC6SC2 SLP160

CYUL;2010-11-09 11:00;CYUL 091100Z 36005KT 15SM BKN014 OVC020 05/03 A3001 RMK SC6SC2 SLP164

CYUL;2010-11-09 11:22;CYUL 091122Z 36007KT 15SM -DZ FEW010 BKN015 OVC020 05/ RMK SF1SC6SC2

CYUL;2010-11-09 12:00;CYUL 091200Z 36005KT 6SM -DZ BR FEW010 BKN015 OVC020 05/04 A3003 RMK SF1SC5SC2 SLP172

CYUL;2010-11-09 12:24;CYUL 091224Z 35006KT 8SM -DZ FEW008 BKN015 OVC020 05/ RMK SF2SC4SC2

CYUL;2010-11-09 12:48;CYUL 091248Z 34002KT 8SM SCT007 OVC020 05/ RMK SF4SC4

CYUL;2010-11-09 13:00;CYUL 091300Z 36004KT 10SM SCT007 BKN020 OVC040 05/04 A3006 RMK SF3SC4SC1 SLP180

CYUL;2010-11-09 14:00;CYUL 091400Z 01006KT 10SM FEW008 BKN020 OVC040 06/04 A3007 RMK SF1SC6SC2 SLP183

CYUL;2010-11-09 15:00;CYUL 091500Z 02008KT 15SM FEW008 BKN029 OVC045 06/04 A3007 RMK SF2SC5SC1 SLP186

CYUL;2010-11-09 16:00;CYUL 091600Z 01009KT 15SM FEW008 BKN045 OVC080 08/04 A3007 RMK SF1SC5AC2 SLP184

CYUL;2010-11-09 17:00;CYUL 091700Z 05008KT 15SM FEW008 BKN030 OVC040 08/04 A3007 RMK SF1SC6SC2 SLP185

CYUL;2010-11-09 18:00;CYUL 091800Z 07006KT 15SM FEW008 OVC040 08/04 A3009 RMK SF1SC8 SLP191

CYUL;2010-11-09 19:00;CYUL 091900Z 34007KT 15SM BKN065 09/05 A3008 RMK SC6 SLP188

CYUL;2010-11-09 20:00;CYUL 092000Z 04006KT 15SM BKN080 09/04 A3009 RMK AC3 SLP192

CYUL;2010-11-09 21:00;CYUL 092100Z 05003KT 15SM FEW090 09/04 A3010 RMK AC2 SLP195

CYUL;2010-11-09 22:00;CYUL 092200Z 00000KT 15SM FEW090 07/03 A3011 RMK AC1 SLP197

CYUL;2010-11-09 23:00;CYUL 092300Z 00000KT 15SM FEW090 06/03 A3012 RMK AC1 SLP203

CYUL;2010-11-10 00:00;CYUL 100000Z 00000KT 15SM FEW090 04/03 A3015 RMK AC1 SLP210

CYUL;2010-11-10 01:00;CYUL 100100Z 02003KT 15SM SKC 07/00 A3016 RMK SLP215

CYUL;2010-11-10 02:00;CYUL 100200Z 03011KT 15SM SKC 05/M00 A3017 RMK SLP217

CYUL;2010-11-10 03:00;CYUL 100300Z 03009KT 15SM FEW240 04/M01 A3019 RMK CI1 SLP226

CYUL;2010-11-10 04:00;CYUL 100400Z 04009KT 15SM SKC 03/M01 A3021 RMK SLP232

CYUL;2010-11-10 05:00;CYUL 100500Z 04007KT 15SM FEW240 02/M01 A3023 RMK CI0 SLP238

CYUL;2010-11-10 06:00;CYUL 100600Z 03011KT 15SM BKN240 02/M01 A3025 RMK CI1 SLP245

CYUL;2010-11-10 07:00;CYUL 100700Z 04009G15KT 15SM BKN240 02/M01 A3026 RMK CI3 SLP250

CYUL;2010-11-10 08:00;CYUL 100800Z 03011KT 15SM BKN240 01/M02 A3027 RMK CI2 SLP251

CYUL;2010-11-10 09:00;CYUL 100900Z 02011KT 15SM SCT240 01/M02 A3028 RMK CI2 SLP256

CYUL;2010-11-10 10:00;CYUL 101000Z 02008KT 15SM SCT240 00/M02 A3029 RMK CI1 SLP259

CYUL;2010-11-10 11:00;CYUL 101100Z 04007KT 15SM FEW050 SCT240 01/M02 A3031 RMK SC1CI2 SLP266

CYUL;2010-11-10 12:00;CYUL 101200Z 03009KT 15SM SCT240 01/M02 A3034 RMK CI2 SLP275

CYUL;2010-11-10 13:00;CYUL 101300Z 04008KT 15SM SCT240 01/M03 A3036 RMK CI1 SLP281

CYUL;2010-11-10 14:00;CYUL 101400Z 04011KT 15SM FEW240 02/M02 A3037 RMK CI1 SLP286

CYUL;2010-11-10 15:00;CYUL 101500Z 04014KT 15SM FEW015 FEW240 04/M02 A3037 RMK CF1CI0 SLP286

CYUL;2010-11-10 16:00;CYUL 101600Z 04013KT 15SM FEW015 FEW240 05/M01 A3036 RMK CF1CI0 SLP284

CYUL;2010-11-10 17:00;CYUL 101700Z 02012KT 15SM FEW015 FEW240 06/M01 A3035 RMK CF1CI1 SLP280

CYUL;2010-11-10 18:00;CYUL 101800Z 03010KT 15SM FEW240 07/M01 A3034 RMK CI1 SLP277

CYUL;2010-11-10 19:00;CYUL 101900Z 05015KT 15SM FEW240 08/M03 A3034 RMK CI1 SLP276

CYUL;2010-11-10 20:00;CYUL 102000Z 06014KT 15SM FEW240 08/M04 A3035 RMK CI1 SLP278

CYUL;2010-11-10 21:00;CYUL 102100Z 05014KT 15SM FEW240 08/M03 A3036 RMK CI1 SLP282

CYUL;2010-11-10 22:00;CYUL 102200Z 06007KT 15SM FEW240 07/M03 A3037 RMK CI1 SLP287

CYUL;2010-11-10 23:00;CYUL 102300Z 02006KT 15SM SKC 05/M02 A3039 RMK SLP292

CYUL;2010-11-11 00:00;CYUL 110000Z 09005KT 15SM SKC 06/M02 A3039 RMK SLP293

CYUL;2010-11-11 01:00;CYUL 110100Z 03007KT 15SM SKC 04/M02 A3040 RMK SLP297

CYUL;2010-11-11 02:00;CYUL 110200Z 04006KT 15SM SKC 06/M01 A3042 RMK SLP304

CYUL;2010-11-11 03:00;CYUL 110300Z 06006KT 15SM SKC 05/M02 A3044 RMK SLP309

CYUL;2010-11-11 04:00;CYUL 110400Z 07009KT 15SM SKC 04/M04 A3045 RMK SLP313

CYUL;2010-11-11 05:00;CYUL 110500Z 05010KT 15SM SKC 04/M04 A3047 RMK SLP318

CYUL;2010-11-11 06:00;CYUL 110600Z 05013G18KT 15SM SKC 04/M03 A3047 RMK SLP318

CYUL;2010-11-11 07:00;CYUL 110700Z 05014KT 15SM SKC 03/M03 A3048 RMK SLP324

CYUL;2010-11-11 08:00;CYUL 110800Z 02011KT 15SM SKC 01/M01 A3049 RMK SLP325

CYUL;2010-11-11 09:00;CYUL 110900Z 03011KT 15SM SKC 01/M02 A3049 RMK SLP328

CYUL;2010-11-11 11:00;CYUL 111100Z 03012KT 15SM SKC 01/M02 A3052 RMK SLP338

CYUL;2010-11-11 12:00;CYUL 111200Z 03007KT 30SM SKC 01/M02 A3054 RMK SLP344

CYUL;2010-11-11 13:00;CYUL 111300Z 03008KT 30SM SKC 01/M02 A3056 RMK SLP350

CYUL;2010-11-11 14:00;CYUL 111400Z 03009KT 30SM SKC 03/M05 A3056 RMK SLP351

CYUL;2010-11-11 15:00;CYUL 111500Z 05011KT 30SM SKC 04/M06 A3056 RMK SLP350

CYUL;2010-11-11 16:00;CYUL 111600Z 05008G16KT 30SM SKC 06/M06 A3055 RMK SLP346

CYUL;2010-11-11 17:00;CYUL 111700Z 03012KT 30SM SKC 07/M03 A3053 RMK SLP341

CYUL;2010-11-11 18:00;CYUL 111800Z 02008KT 30SM SKC 08/M04 A3053 RMK SLP340

CYUL;2010-11-11 19:00;CYUL 111900Z 05008KT 30SM SKC 08/M03 A3052 RMK SLP337

CYUL;2010-11-11 20:00;CYUL 112000Z 03009KT 30SM SKC 08/M02 A3052 RMK SLP335

CYUL;2010-11-11 21:00;CYUL 112100Z 05007KT 30SM SKC 08/M03 A3052 RMK SLP338

CYUL;2010-11-11 22:00;CYUL 112200Z 04005KT 30SM FEW240 07/M03 A3053 RMK CI1 SLP340

CYUL;2010-11-11 23:00;CYUL 112300Z 05005KT 15SM SKC 06/M03 A3054 RMK SLP344

CYUL;2010-11-12 00:00;CYUL 120000Z 04004KT 15SM SKC 06/M04 A3054 RMK SLP343

CYUL;2010-11-12 01:00;CYUL 120100Z 05007KT 15SM SKC 06/M05 A3052 RMK SLP338

CYUL;2010-11-12 02:00;CYUL 120200Z 05007KT 15SM SKC 05/M04 A3052 RMK SLP338

CYUL;2010-11-12 03:00;CYUL 120300Z 01004KT 15SM SKC 02/M04 A3051 RMK SLP333

CYUL;2010-11-12 04:00;CYUL 120400Z 36005KT 15SM SKC M00/M04 A3050 RMK SLP331

CYUL;2010-11-12 05:00;CYUL 120500Z 02006KT 15SM SKC 00/M03 A3051 RMK SLP332

CYUL;2010-11-12 06:00;CYUL 120600Z 02006KT 15SM SKC 00/M03 A3049 RMK SLP327

CYUL;2010-11-12 07:00;CYUL 120700Z 06005KT 15SM SKC 02/M04 A3048 RMK SLP323

CYUL;2010-11-12 08:00;CYUL 120800Z 04003KT 15SM SKC 02/M03 A3048 RMK SLP324

CYUL;2010-11-12 09:00;CYUL 120900Z 32002KT 15SM SKC M02/M04 A3049 RMK SLP328

CYUL;2010-11-12 10:00;CYUL 121000Z 05005KT 15SM SKC M01/M03 A3049 RMK SLP328

CYUL;2010-11-12 11:00;CYUL 121100Z 35005KT 15SM SKC M04/M06 A3049 RMK SLP328

CYUL;2010-11-12 12:00;CYUL 121200Z 04006KT 15SM BKN240 M00/M04 A3049 RMK CI2 SLP328

CYUL;2010-11-12 13:00;CYUL 121300Z 02003KT 15SM BKN240 00/M02 A3049 RMK CI2 SLP328

CYUL;2010-11-12 14:00;CYUL 121400Z 00000KT 15SM FEW240 04/M01 A3049 RMK CI1 SLP329

CYUL;2010-11-12 15:00;CYUL 121500Z 00000KT 15SM FEW240 05/01 A3049 RMK CI0 SLP325

CYUL;2010-11-12 16:00;CYUL 121600Z 16002KT 15SM FEW240 07/02 A3047 RMK CI0 SLP320

CYUL;2010-11-12 17:00;CYUL 121700Z 23002KT 15SM FEW240 08/02 A3044 RMK CI0 SLP311

CYUL;2010-11-12 18:00;CYUL 121800Z CCA 18002KT 15SM SCT240 09/00 A3042 RMK CI0 CONTRAILS SLP304

CYUL;2010-11-12 19:00;CYUL 121900Z 00000KT 15SM SCT240 10/00 A3041 RMK CI0 SLP299

CYUL;2010-11-12 20:00;CYUL 122000Z 23003KT 30SM FEW240 09/M01 A3040 RMK CI0 SLP297

CYUL;2010-11-12 21:00;CYUL 122100Z 22003KT 30SM SCT240 07/M01 A3039 RMK CI0 CONTRAILS SLP292

CYUL;2010-11-12 22:00;CYUL 122200Z 20002KT 30SM BKN240 05/M00 A3039 RMK CI0 SLP292

CYUL;2010-11-12 23:00;CYUL 122300Z 00000KT 15SM SCT240 04/M00 A3038 RMK CI0 SLP290

CYUL;2010-11-13 00:00;CYUL 130000Z 00000KT 15SM FEW240 04/M01 A3038 RMK CI0 SLP289

CYUL;2010-11-13 01:00;CYUL 130100Z 14002KT 15SM FEW240 04/M01 A3037 RMK CI0 SLP287

CYUL;2010-11-13 02:00;CYUL 130200Z 00000KT 15SM SKC 02/M02 A3036 RMK SLP284

CYUL;2010-11-13 03:00;CYUL 130300Z 00000KT 15SM SKC 02/M02 A3035 RMK SLP279

CYUL;2010-11-13 04:00;CYUL 130400Z 00000KT 15SM SKC M00/M02 A3033 RMK SLP273

CYUL;2010-11-13 05:00;CYUL 130500Z 34003KT 15SM SKC M01/M02 A3032 RMK SLP270

CYUL;2010-11-13 06:00;CYUL 130600Z 00000KT 15SM FEW240 M01/M03 A3031 RMK CI1 SLP266

CYUL;2010-11-13 07:00;CYUL 130700Z 02003KT 15SM SKC 00/M02 A3031 RMK SLP267

CYUL;2010-11-13 08:00;CYUL 130800Z 02002KT 15SM SKC M02/M04 A3030 RMK SLP263

CYUL;2010-11-13 09:00;CYUL 130900Z 17002KT 15SM SKC M02/M03 A3029 RMK SLP259

CYUL;2010-11-13 10:00;CYUL 131000Z 00000KT 15SM SKC M00/M01 A3028 RMK SLP257

CYUL;2010-11-13 11:00;CYUL 131100Z 16002KT 15SM SKC M03/M04 A3027 RMK SLP253

CYUL;2010-11-13 12:00;CYUL 131200Z CCA 02003KT 12SM FEW045 FEW100 M00/M01 A3029 RMK SC1AC1 FROIN SLP259

CYUL;2010-11-13 13:00;CYUL 131300Z 00000KT 15SM FEW045 FEW100 FEW240 02/M00 A3029 RMK SC1AC0CI0 FORIN SLP259

CYUL;2010-11-13 14:00;CYUL 131400Z 00000KT 15SM FEW050 FEW240 04/02 A3028 RMK SC1CI1 SLP257

CYUL;2010-11-13 15:00;CYUL 131500Z 36002KT 15SM BKN055 BKN240 06/03 A3028 RMK SC6CI0 SLP256

CYUL;2010-11-13 16:00;CYUL 131600Z 00000KT 15SM SCT060 BKN240 08/03 A3026 RMK SC4CI0 SLP249

CYUL;2010-11-13 17:00;CYUL 131700Z 00000KT 15SM SCT060 BKN240 08/02 A3023 RMK SC3CI0 SLP239

CYUL;2010-11-13 18:00;CYUL 131800Z 00000KT 15SM FEW060 BKN240 10/M02 A3021 RMK SC2CI0 SLP231

CYUL;2010-11-13 19:00;CYUL 131900Z 08003KT 15SM FEW045 BKN240 12/M01 A3020 RMK SC2CI1 SLP227

CYUL;2010-11-13 20:00;CYUL 132000Z 02007KT 15SM BKN050 OVC240 10/01 A3019 RMK SC7CI0 SLP226

CYUL;2010-11-13 21:00;CYUL 132100Z 03008KT 15SM BKN055 BKN240 10/M00 A3019 RMK SC7CI1 SLP226

CYUL;2010-11-13 22:00;CYUL 132200Z 05006KT 15SM SCT040 BKN060 BKN240 09/M01 A3019 RMK SC4SC3CI1 SLP225

CYUL;2010-11-13 23:00;CYUL 132300Z 05007KT 15SM FEW045 BKN060 09/M00 A3020 RMK SC2SC6 SLP227

CYUL;2010-11-14 00:00;CYUL 140000Z 03006KT 15SM FEW040 BKN060 BKN240 08/M00 A3019 RMK SC2SC3CI0 SLP226

CYUL;2010-11-14 01:00;CYUL 140100Z 01006KT 15SM FEW040 FEW060 06/00 A3018 RMK SC1SC1 SLP223

CYUL;2010-11-14 02:00;CYUL 140200Z 03007KT 15SM FEW240 05/01 A3019 RMK CI0 SLP224

CYUL;2010-11-14 03:00;CYUL 140300Z 05011G17KT 15SM FEW240 07/01 A3018 RMK CS0 SLP222

CYUL;2010-11-14 04:00;CYUL 140400Z 05012KT 15SM FEW240 06/01 A3017 RMK CI0 SLP219

CYUL;2010-11-14 05:00;CYUL 140500Z 04008KT 15SM SKC 06/01 A3016 RMK SLP216

CYUL;2010-11-14 06:00;CYUL 140600Z 03009KT 15SM FEW240 04/01 A3015 RMK CI0 SLP213

CYUL;2010-11-14 07:00;CYUL 140700Z 05013G18KT 15SM SKC 05/00 A3015 RMK SLP210

CYUL;2010-11-14 08:00;CYUL 140800Z 03011KT 15SM SCT220 03/00 A3013 RMK CI3 SLP206

CYUL;2010-11-14 09:00;CYUL 140900Z 04011KT 15SM BKN190 03/M00 A3012 RMK AC4 SLP201

CYUL;2010-11-14 10:00;CYUL 141000Z 04010KT 15SM BKN210 03/M01 A3011 RMK CI2 SLP197

CYUL;2010-11-14 11:00;CYUL 141100Z 03009KT 15SM BKN240 02/M01 A3012 RMK CI3 SLP200

CYUL;2010-11-14 12:00;CYUL 141200Z 05010KT 15SM FEW180 BKN220 03/M02 A3010 RMK AC1CI2 SLP195

CYUL;2010-11-14 13:00;CYUL 141300Z 05011KT 15SM SCT180 BKN240 03/M02 A3011 RMK AC2CI2 SLP198

CYUL;2010-11-14 14:00;CYUL 141400Z 05011KT 30SM FEW180 BKN240 03/M02 A3011 RMK AC1CI1 SLP198

CYUL;2010-11-14 15:00;CYUL 141500Z 06011KT 30SM FEW180 SCT240 05/M01 A3009 RMK AC2CI1 SLP190

CYUL;2010-11-14 16:00;CYUL 141600Z 07010KT 30SM BKN180 BKN220 06/M01 A3005 RMK AC5CI1 SLP179

CYUL;2010-11-14 17:00;CYUL 141700Z 06011KT 30SM BKN180 BKN220 07/M00 A3001 RMK AC6CI1 SLP163

CYUL;2010-11-14 18:00;CYUL 141800Z 09010KT 30SM SCT180 BKN240 10/01 A2997 RMK AC4CI0 SLP151

CYUL;2010-11-14 19:00;CYUL 141900Z 06006KT 30SM SCT160 SCT220 11/01 A2996 RMK AC3CI1 SLP146

CYUL;2010-11-14 20:00;CYUL 142000Z 04008KT 30SM BKN170 BKN220 11/01 A2994 RMK AC6CC1 SLP140

CYUL;2010-11-14 21:00;CYUL 142100Z 05008KT 30SM BKN160 BKN240 09/02 A2993 RMK AC5CI0 SLP136

CYUL;2010-11-14 22:00;CYUL 142200Z 05010KT 15SM SCT160 BKN200 08/02 A2991 RMK AC4CI2 SLP130

CYUL;2010-11-14 23:00;CYUL 142300Z 04008KT 15SM FEW160 BKN200 07/02 A2989 RMK AC2CI4 SLP122

CYUL;2010-11-15 00:00;CYUL 150000Z 10003KT 15SM FEW140 BKN160 OVC200 11/02 A2990 RMK AC1AS3CI2 SLP127

CYUL;2010-11-15 01:00;CYUL 150100Z 16010KT 15SM SCT140 OVC240 11/02 A2990 RMK AC3CI4 SLP125

CYUL;2010-11-15 02:00;CYUL 150200Z 16011KT 15SM BKN150 OVC240 11/02 A2989 RMK AC6CI2 VIRGA SLP123

CYUL;2010-11-15 02:40;CYUL 150240Z 16009KT 15SM -RA OVC100 11/ RMK AS8

CYUL;2010-11-15 03:00;CYUL 150300Z 19007KT 15SM -RA BKN080 OVC100 11/02 A2990 RMK AS6AS2 VRY LGT RA SLP126

CYUL;2010-11-15 03:42;CYUL 150342Z 16007KT 15SM BKN080 OVC095 11/ RMK AS6AS2

CYUL;2010-11-15 04:00;CYUL 150400Z 16010KT 15SM BKN080 OVC095 10/03 A2989 RMK AS6AS2 SLP124

CYUL;2010-11-15 04:48;CYUL 150448Z 16011KT 15SM -SHRA BKN055 OVC075 11/ RMK SC6AS2

CYUL;2010-11-15 05:00;CYUL 150500Z 19009KT 15SM -SHRA OVC060 10/03 A2990 RMK SC8 SLP126

CYUL;2010-11-15 06:00;CYUL 150600Z 32003KT 15SM -SHRA OVC060 06/04 A2993 RMK SC8 SLP135

CYUL;2010-11-15 07:00;CYUL 150700Z CCA 00000KT 15SM -SHRA OVC043 08/06 A2993 RMK SC8 SLP138

CYUL;2010-11-15 08:00;CYUL 150800Z 18005KT 15SM -RA BKN020 OVC045 08/06 A2995 RMK SC5SC3 SLP142

CYUL;2010-11-15 09:00;CYUL 150900Z 21007KT 15SM -RA BKN017 OVC025 08/07 A2996 RMK SC6SC2 SLP146

CYUL;2010-11-15 10:00;CYUL 151000Z 25009KT 15SM OVC033 08/06 A2998 RMK SC8 SLP153

CYUL;2010-11-15 11:00;CYUL 151100Z 25013KT 15SM BKN030 OVC050 07/04 A2999 RMK SC6SC2 SLP155

CYUL;2010-11-15 12:00;CYUL 151200Z 24008KT 15SM OVC048 07/04 A3000 RMK SC8 SLP160

CYUL;2010-11-15 12:12;CYUL 151212Z 25007KT 15SM -SHRA FEW018 BKN048 OVC110 07/ RMK SF1SC6AC2

CYUL;2010-11-15 12:48;CYUL 151248Z 24014KT 15SM SCT050 BKN130 OVC220 07/ RMK SC2AS4CI1

CYUL;2010-11-15 13:00;CYUL 151300Z 24009KT 15SM SCT058 BKN140 OVC240 07/02 A3002 RMK SC2AS2CS2 SLP166

CYUL;2010-11-15 14:00;CYUL 151400Z 23006KT 15SM FEW060 SCT130 BKN180 OVC240 07/03 A3003 RMK SC1AC2AS2CS2 SLP170

CYUL;2010-11-15 15:00;CYUL 151500Z 23011KT 15SM FEW130 OVC220 08/01 A3004 RMK AC2CS5 SLP172

CYUL;2010-11-15 16:00;CYUL 151600Z 22010KT 15SM FEW035 FEW120 BKN220 08/01 A3003 RMK CF1AC1CS5 SLP171

CYUL;2010-11-15 17:00;CYUL 151700Z 22010KT 15SM FEW150 FEW220 09/00 A3001 RMK AC1CI2 SLP163

CYUL;2010-11-15 18:00;CYUL 151800Z 19006KT 15SM FEW035 FEW150 FEW240 09/01 A3000 RMK CF1AC1CI1 SLP161

CYUL;2010-11-15 19:00;CYUL 151900Z 21006KT 30SM FEW035 FEW150 FEW240 10/01 A3000 RMK CF1AC1CI1 SLP160

CYUL;2010-11-15 20:00;CYUL 152000Z 21005KT 30SM FEW035 FEW150 FEW240 10/01 A3000 RMK CF1AC1CI1 SLP160

CYUL;2010-11-15 21:00;CYUL 152100Z 22002KT 30SM FEW150 FEW240 09/01 A3001 RMK AC1CI0 SLP162

CYUL;2010-11-15 22:00;CYUL 152200Z 14004KT 15SM FEW150 FEW240 06/00 A2999 RMK AC1CI0 SLP156

CYUL;2010-11-15 23:00;CYUL 152300Z 15004KT 15SM FEW240 06/03 A3000 RMK CI0 SLP159

CYUL;2010-11-16 00:00;CYUL 160000Z 16008KT 15SM FEW240 06/04 A3001 RMK CI0 SLP164

CYUL;2010-11-16 01:00;CYUL 160100Z 20002KT 15SM FEW150 FEW240 04/03 A3002 RMK AC1CI1 SLP168

CYUL;2010-11-16 02:00;CYUL 160200Z 18006KT 15SM FEW150 FEW240 04/03 A3002 RMK AC1CI0 SLP168

CYUL;2010-11-16 03:00;CYUL 160300Z 20004KT 15SM FEW150 SCT240 04/03 A3003 RMK AC1CI0 SLP170

CYUL;2010-11-16 04:00;CYUL 160400Z 22004KT 15SM FEW240 05/03 A3003 RMK CI0 SLP171

CYUL;2010-11-16 05:00;CYUL 160500Z 22005KT 15SM FEW240 05/02 A3003 RMK CI0 SLP170

CYUL;2010-11-16 06:00;CYUL 160600Z 26002KT 15SM FEW240 03/01 A3003 RMK CI0 SLP170

CYUL;2010-11-16 07:00;CYUL 160700Z 14004KT 10SM BKN200 03/02 A3004 RMK CS6 SLP174

CYUL;2010-11-16 08:00;CYUL 160800Z 00000KT 10SM OVC220 04/03 A3004 RMK CS6 SLP173

CYUL;2010-11-16 09:00;CYUL 160900Z 00000KT 10SM BKN220 02/01 A3004 RMK CS3 SLP173

CYUL;2010-11-16 10:00;CYUL 161000Z 00000KT 15SM BKN230 01/M00 A3005 RMK CI2 SLP177

CYUL;2010-11-16 11:00;CYUL 161100Z 13003KT 15SM FEW180 FEW240 02/01 A3005 RMK AC1CI0 SLP178

CYUL;2010-11-16 12:00;CYUL 161200Z 14004KT 10SM FEW180 BKN240 02/M00 A3006 RMK AC1CI0 SLP182

CYUL;2010-11-16 13:00;CYUL 161300Z 00000KT 12SM FEW180 SCT240 04/02 A3008 RMK AC1CI0 SLP187

CYUL;2010-11-16 14:00;CYUL 161400Z 14002KT 15SM FEW180 FEW240 06/03 A3007 RMK AC0CI0 SLP184

CYUL;2010-11-16 15:00;CYUL 161500Z 19002KT 15SM FEW014 SCT240 08/02 A3008 RMK SF2CI0 SLP187

CYUL;2010-11-16 16:00;CYUL 161600Z 20002KT 15SM FEW014 FEW240 09/02 A3007 RMK SF1CI1 SLP183

CYUL;2010-11-16 17:00;CYUL 161700Z 16002KT 15SM FEW210 11/03 A3004 RMK CI1 SLP175

CYUL;2010-11-16 18:00;CYUL 161800Z 17002KT 15SM FEW025 BKN220 11/04 A3003 RMK CU1CI2 CU TR SLP171

CYUL;2010-11-16 19:00;CYUL 161900Z 14003KT 15SM BKN220 12/02 A3002 RMK CI2 SLP166

CYUL;2010-11-16 20:00;CYUL 162000Z 12004KT 15SM BKN220 11/02 A3001 RMK CI2 SLP164

CYUL;2010-11-16 21:00;CYUL 162100Z 12005KT 15SM SCT160 BKN220 09/02 A3002 RMK AS2CI2 SLP167

CYUL;2010-11-16 22:00;CYUL 162200Z 09005KT 15SM FEW180 BKN240 10/01 A3001 RMK AS1CI2 SLP163

CYUL;2010-11-16 23:00;CYUL 162300Z 08005KT 15SM BKN080 BKN240 10/01 A3000 RMK AC5CI1 SLP161

CYUL;2010-11-17 00:00;CYUL 170000Z 06007KT 15SM FEW080 OVC170 10/01 A2998 RMK AC2AS4 SLP152

CYUL;2010-11-17 01:00;CYUL 170100Z 05009KT 15SM SCT078 OVC150 10/02 A2996 RMK AC3AS3 SLP145

CYUL;2010-11-17 02:00;CYUL 170200Z 05009KT 15SM BKN070 OVC120 09/02 A2993 RMK AC6AC2 SLP135

CYUL;2010-11-17 02:18;CYUL 170218Z 05008KT 15SM -RA OVC070 09/ RMK AC8

CYUL;2010-11-17 03:00;CYUL 170300Z 08010KT 15SM -RA BKN045 OVC060 09/02 A2991 RMK SC6SC2 SLP129

CYUL;2010-11-17 04:00;CYUL 170400Z 08009KT 6SM -RA OVC048 08/05 A2988 RMK SC8 SLP119

CYUL;2010-11-17 05:00;CYUL 170500Z 08010KT 3SM -RA OVC037 07/06 A2984 RMK SC8 SLP107

CYUL;2010-11-17 06:00;CYUL 170600Z 05013G21KT 2 1/2SM -RA OVC038 08/07 A2976 RMK SC8 PRESFR /R10/ SLP078

CYUL;2010-11-17 06:57;CYUL 170657Z 06012G17KT 4SM -RA OVC032 07/ RMK SC8

CYUL;2010-11-17 07:00;CYUL 170700Z 06013KT 4SM -RA OVC032 07/06 A2971 RMK SC8 SLP063

CYUL;2010-11-17 08:00;CYUL 170800Z 06012KT 3SM -RA OVC028 08/07 A2965 RMK SC8 PRESFR SLP042

CYUL;2010-11-17 09:00;CYUL 170900Z 09014G25KT 6SM -RA FEW010 OVC032 08/07 A2958 RMK SF1SC7 PRESFR SLP017

CYUL;2010-11-17 09:22;CYUL 170922Z 08012G19KT 6SM -RA BKN014 OVC032 09/ RMK SF5SC3

CYUL;2010-11-17 10:00;CYUL 171000Z 09013KT 6SM -RA SCT014 OVC033 09/07 A2952 RMK SF3SC5 /R10/ SLP998

CYUL;2010-11-17 11:00;CYUL 171100Z 08012KT 3SM -RA FEW014 OVC030 09/06 A2947 RMK SF2SC6 RERA SLP982

CYUL;2010-11-17 12:00;CYUL 171200Z 09005KT 3SM -RA FEW009 BKN012 OVC025 09/08 A2945 RMK SF2SC5SC2 SLP975

CYUL;2010-11-17 12:22;CYUL 171222Z 10006KT 4SM -RA FEW009 BKN015 OVC027 09/ RMK SF1SC6SC2

CYUL;2010-11-17 12:55;CYUL 171255Z 09008KT 4SM -RA FEW010 SCT015 OVC052 09/ RMK SF1SC2SC5

CYUL;2010-11-17 13:00;CYUL 171300Z 09008KT 6SM -RA FEW010 SCT020 OVC053 09/08 A2943 RMK SF1SC2SC5 SLP965

CYUL;2010-11-17 14:00;CYUL 171400Z CCA 12011G18KT 8SM -RA FEW012 BKN050 OVC070 09/08 A2935 RMK SF2SC6AC1 PRESFR SLP941

CYUL;2010-11-17 15:00;CYUL 171500Z 14012KT 8SM -RA FEW012 OVC060 10/08 A2932 RMK SF2SC6 RERA SLP930

CYUL;2010-11-17 16:00;CYUL 171600Z 14009KT 8SM -RA FEW012 OVC045 10/09 A2931 RMK SF2SC6 SLP925

CYUL;2010-11-17 17:00;CYUL 171700Z 17008KT 15SM FEW012 OVC035 10/09 A2927 RMK SF1SC7 INTMT -RA VIA CYQB FIC

CYUL;2010-11-17 18:00;CYUL 171800Z 24003KT 15SM -RA SCT020 OVC040 11/09 A2926 RMK SC3SC5 SLP910

CYUL;2010-11-17 19:00;CYUL 171900Z 22009KT 15SM -RA BKN019 OVC040 11/09 A2925 RMK SC5SC3 VIA YQB FIC SLP907

CYUL;2010-11-17 20:00;CYUL 172000Z 23016KT 15SM -RA FEW020 OVC050 10/08 A2927 RMK SC2SC6 SLP913

CYUL;2010-11-17 21:00;CYUL 172100Z 24015KT 15SM -RA FEW015 BKN040 OVC070 10/08 A2927 RMK SC1SC5AC2 SLP914

CYUL;2010-11-17 21:25;CYUL 172125Z 23016G21KT 10SM -RA BKN015 OVC025 10/ RMK SC6SC2

CYUL;2010-11-17 21:34;CYUL 172134Z 23017G25KT 8SM -RA BKN013 OVC025 10/ RMK SC6SC2

CYUL;2010-11-17 22:00;CYUL 172200Z 23021G27KT 10SM -RA BKN016 OVC030 09/07 A2929 RMK SC6SC2 SLP919

CYUL;2010-11-17 22:47;CYUL 172247Z 23019G25KT 7SM -RA BKN012 OVC020 08/ RMK SC6SC2

CYUL;2010-11-17 23:00;CYUL 172300Z 23020G29KT 8SM -RA BKN012 OVC018 08/07 A2931 RMK SC6SC2 SLP925

CYUL;2010-11-18 00:00;CYUL 180000Z 26021G26KT 10SM -RA BKN013 OVC020 07/06 A2935 RMK SC6SC2 SLP938

CYUL;2010-11-18 00:45;CYUL 180045Z 27021G27KT 10SM -RA SCT012 BKN017 OVC030 06/ RMK SC3SC3SC2

CYUL;2010-11-18 01:00;CYUL 180100Z 27021G27KT 15SM -RA SCT012 BKN018 OVC030 06/04 A2940 RMK SF3SC3SC2 SLP957

CYUL;2010-11-18 02:00;CYUL 180200Z 27021G31KT 15SM SCT017 BKN030 OVC060 05/02 A2947 RMK SC3SC2SC2 PRESRR SLP980

CYUL;2010-11-18 03:00;CYUL 180300Z 27024G32KT 15SM FEW020 BKN035 BKN075 05/02 A2953 RMK SC2SC5AC1 PRESRR SLP002

CYUL;2010-11-18 04:00;CYUL 180400Z 27018G24KT 15SM SCT030 BKN090 05/02 A2959 RMK SC4AC2 SLP021

CYUL;2010-11-18 05:00;CYUL 180500Z 27018G26KT 15SM FEW030 BKN120 05/01 A2964 RMK SC2AC3 SLP037

CYUL;2010-11-18 06:00;CYUL 180600Z 28016G25KT 15SM BKN045 OVC120 05/01 A2969 RMK SC6AC2 SLP054

CYUL;2010-11-18 07:00;CYUL 180700Z 27015KT 15SM FEW040 BKN180 05/01 A2974 RMK SC2AC1 SLP071

CYUL;2010-11-18 08:00;CYUL 180800Z 28015G24KT 15SM BKN040 05/00 A2976 RMK SC6 SLP079

CYUL;2010-11-18 09:00;CYUL 180900Z 28018KT 15SM SCT050 04/M01 A2980 RMK SC3 SLP091

CYUL;2010-11-18 10:00;CYUL 181000Z 28017G22KT 15SM BKN045 04/M01 A2983 RMK SC6 SLP104

CYUL;2010-11-18 11:00;CYUL 181100Z 27013G19KT 15SM BKN043 04/M02 A2986 RMK SC6 SLP114

CYUL;2010-11-18 12:00;CYUL 181200Z 27016G21KT 15SM BKN044 04/M02 A2989 RMK SC7 SLP124

CYUL;2010-11-18 13:00;CYUL 181300Z 30012KT 15SM FEW045 04/M03 A2992 RMK SC2 SLP134

CYUL;2010-11-18 14:00;CYUL 181400Z 29010G15KT 15SM BKN040 04/M02 A2993 RMK SC3 SLP138

CYUL;2010-11-18 15:00;CYUL 181500Z 29014KT 15SM SCT040 SCT240 05/M01 A2995 RMK SC3CI0 SLP144

CYUL;2010-11-18 16:00;CYUL 181600Z 30012G19KT 15SM BKN038 05/M02 A2997 RMK SC5 SLP151

CYUL;2010-11-18 17:00;CYUL 181700Z 28013KT 15SM BKN038 BKN240 06/M02 A2996 RMK SC6CI1 SLP147

CYUL;2010-11-18 18:00;CYUL 181800Z 27011KT 30SM BKN037 BKN240 05/M02 A2996 RMK SC6CI1 SLP146

CYUL;2010-11-18 19:00;CYUL 181900Z 27010G16KT 30SM BKN040 05/M02 A2996 RMK SC7 SLP145

CYUL;2010-11-18 20:00;CYUL 182000Z 29012KT 30SM BKN045 05/M02 A2997 RMK SC7 SLP149

CYUL;2010-11-18 21:00;CYUL 182100Z 30010KT 30SM OVC040 04/M04 A2999 RMK SC8 SLP156

CYUL;2010-11-18 22:00;CYUL 182200Z 26007KT 15SM OVC045 04/M02 A2999 RMK SC7 SLP158

CYUL;2010-11-18 23:00;CYUL 182300Z 27006KT 15SM FEW040 BKN060 OVC120 04/M02 A3000 RMK SC2SC4AC2 SLP160

CYUL;2010-11-19 00:00;CYUL 190000Z 27008KT 15SM BKN040 OVC060 04/M02 A3001 RMK SC7SC1 VIRGA W SLP163

CYUL;2010-11-19 00:10;CYUL 190010Z 29010KT 15SM -SHSN BKN040 OVC065 03/ RMK SC6SC1

CYUL;2010-11-19 00:35;CYUL 190035Z 26007KT 15SM BKN040 BKN080 03/ RMK SC5AC2

CYUL;2010-11-19 01:00;CYUL 190100Z 27007KT 10SM -SHSN BKN040 OVC060 03/M01 A3001 RMK SC6SC2 -SHSN OCNL SLP165

CYUL;2010-11-19 01:38;CYUL 190138Z 25007KT 15SM FEW040 SCT060 BKN085 02/ RMK SC2SC2AC3

CYUL;2010-11-19 02:00;CYUL 190200Z 28009KT 15SM FEW040 BKN085 BKN120 02/M00 A3002 RMK SC2AC4AC2 SLP168

CYUL;2010-11-19 03:00;CYUL 190300Z 28008KT 15SM FEW040 BKN110 02/M00 A3002 RMK SC1AC5 SLP169

CYUL;2010-11-19 04:00;CYUL 190400Z 30009KT 15SM FEW040 BKN100 01/M02 A3003 RMK SC1AC2 SLP172

CYUL;2010-11-19 05:00;CYUL 190500Z 31007KT 15SM BKN090 01/M02 A3004 RMK AC3 SLP175

CYUL;2010-11-19 06:00;CYUL 190600Z CCA 30007KT 15SM FEW090 00/M03 A3006 RMK AC1 SLP180

CYUL;2010-11-19 07:00;CYUL 190700Z 31007KT 15SM SCT090 M00/M04 A3008 RMK AC2 SLP188

CYUL;2010-11-19 08:00;CYUL 190800Z 34008KT 15SM FEW090 M01/M04 A3010 RMK AC1 SLP195

CYUL;2010-11-19 09:00;CYUL 190900Z 32005KT 15SM BKN085 M01/M05 A3013 RMK AC5 SLP206

CYUL;2010-11-19 10:00;CYUL 191000Z 34005KT 15SM FEW020 FEW057 BKN080 M01/M05 A3015 RMK SF1SC2AC3 SLP212

CYUL;2010-11-19 11:00;CYUL 191100Z 33005KT 15SM FEW025 SCT075 M01/M06 A3017 RMK SC1AC1 SLP218

CYUL;2010-11-19 12:00;CYUL 191200Z 35004KT 15SM FEW030 FEW070 M02/M06 A3020 RMK SC1AC1 SLP227

CYUL;2010-11-19 13:00;CYUL 191300Z 35006KT 15SM FEW020 FEW030 FEW090 M02/M06 A3022 RMK SF1SC1AC0 SLP236

CYUL;2010-11-19 14:00;CYUL 191400Z 34005KT 30SM FEW032 FEW100 FEW240 M01/M07 A3023 RMK SC1AC0CI1 SLP240

CYUL;2010-11-19 15:00;CYUL 191500Z 32003KT 30SM FEW025 SCT240 M01/M08 A3024 RMK SC2CI0 CONTRAILS SLP243

CYUL;2010-11-19 16:00;CYUL 191600Z 32006KT 30SM BKN030 BKN240 M00/M07 A3025 RMK SC6CI0 SLP245

CYUL;2010-11-19 17:00;CYUL 191700Z 35003KT 30SM SCT030 BKN240 M00/M06 A3024 RMK SC4CI0 SLP241

CYUL;2010-11-19 18:00;CYUL 191800Z 25003KT 30SM BKN030 01/M07 A3023 RMK SC6 SLP239

CYUL;2010-11-19 19:00;CYUL 191900Z 24005KT 30SM SCT035 00/M08 A3021 RMK CU4 SLP233

CYUL;2010-11-19 20:00;CYUL 192000Z 25008KT 30SM BKN033 BKN240 00/M07 A3022 RMK CU6CI1 SLP234

CYUL;2010-11-19 21:00;CYUL 192100Z 24009KT 30SM FEW033 FEW180 BKN240 M00/M07 A3021 RMK SC2AC1CI0 SLP233

CYUL;2010-11-19 22:00;CYUL 192200Z 26005KT 15SM FEW035 BKN240 M01/M07 A3021 RMK SC1CI1 CC ASOCTD SLP231

CYUL;2010-11-19 23:00;CYUL 192300Z 25007KT 15SM FEW030 FEW140 OVC220 M01/M07 A3020 RMK SC1AC2CI1 SLP227

CYUL;2010-11-20 00:00;CYUL 200000Z CCA 25004KT 15SM FEW025 SCT110 OVC220 M01/M06 A3017 RMK SC1AC2CS1 SLP219

CYUL;2010-11-20 01:00;CYUL 200100Z 25002KT 15SM SCT130 OVC210 M02/M06 A3013 RMK AS2CS2 SLP205

CYUL;2010-11-20 02:00;CYUL 200200Z 17007KT 15SM OVC100 M01/M05 A3011 RMK AS8 SLP197

CYUL;2010-11-20 03:00;CYUL 200300Z 17008KT 15SM OVC085 M01/M05 A3009 RMK AS8 SLP191

CYUL;2010-11-20 04:00;CYUL 200400Z 14009KT 15SM FEW062 BKN110 OVC220 M01/M06 A3007 RMK SC1AS6CS1 SLP183

CYUL;2010-11-20 05:00;CYUL 200500Z 14009KT 15SM BKN045 OVC110 M01/M05 A3002 RMK SC6AS2 SLP168

CYUL;2010-11-20 06:00;CYUL 200600Z 15008KT 15SM OVC050 M00/M05 A2997 RMK SC8 SLP152

CYUL;2010-11-20 07:00;CYUL 200700Z 15012KT 15SM OVC050 01/M05 A2990 RMK SC8 PRESFR SLP126

CYUL;2010-11-20 08:00;CYUL 200800Z 16011KT 15SM OVC038 01/M04 A2985 RMK SC8 SLP111

CYUL;2010-11-20 09:00;CYUL 200900Z 18007KT 15SM OVC030 02/M03 A2982 RMK SC8 SLP099

CYUL;2010-11-20 09:51;CYUL 200951Z 23019KT 15SM -RA FEW028 OVC040 05/ RMK SC2SC6

CYUL;2010-11-20 10:00;CYUL 201000Z 23021KT 15SM -RA OVC036 05/01 A2979 RMK SC8 SLP090

CYUL;2010-11-20 11:00;CYUL 201100Z 24018KT 15SM -RA BKN032 OVC070 05/02 A2979 RMK SC7AC1 VRY LGT RA SLP089

CYUL;2010-11-20 12:00;CYUL 201200Z 23018KT 15SM FEW050 OVC075 06/02 A2976 RMK SC2AC6 SLP079

CYUL;2010-11-20 13:00;CYUL 201300Z 24017G24KT 15SM SCT050 BKN110 07/02 A2975 RMK SC2AC4 SLP075

CYUL;2010-11-20 13:24;CYUL 201324Z 25025G31KT 12SM -SHRA FEW024 BKN040 BKN090 07/ RMK SC2SC4AC2

CYUL;2010-11-20 13:28;CYUL 201328Z 30030G38KT 1SM -SHRA FEW011 BKN016 OVC030 03/ RMK SF2SF5SC2

CYUL;2010-11-20 13:31;CYUL 201331Z 29025G38KT 4SM -RASN FEW007 BKN014 OVC020 01/ RMK SF2SF5SC2

CYUL;2010-11-20 13:35;CYUL 201335Z 28022G38KT 8SM -TSRASN FEW007 BKN014 OVC020 02/ RMK SF1SF5SC2 LTGCC SE CB EMBD

CYUL;2010-11-20 13:43;CYUL 201343Z 28015G28KT 15SM TS FEW014 BKN060 BKN080 02/ RMK SF1SC4AC1 CB EMBD

CYUL;2010-11-20 13:56;CYUL 201356Z CCA 27016G21KT 15SM FEW022 BKN055 BKN075 03/ RETS RMK SF1SC6AC1 CU EMBD N

CYUL;2010-11-20 14:00;CYUL 201400Z 27019G25KT 15SM FEW022 BKN060 BKN075 03/01 A2981 RETS RMK SC1SC4AC1 PRESRR CU EMBD N SLP095

CYUL;2010-11-20 15:00;CYUL 201500Z 29023G35KT 15SM FEW035 FEW065 04/M04 A2985 RMK SC1SC1 SLP111

CYUL;2010-11-20 16:00;CYUL 201600Z 29024G30KT 30SM SCT045 SCT070 05/M04 A2990 RMK CU3AC1 SLP127

CYUL;2010-11-20 17:00;CYUL 201700Z 30022G27KT 30SM BKN050 04/M05 A2992 RMK CU6 SLP135

CYUL;2010-11-20 18:00;CYUL 201800Z 30016G28KT 30SM SCT045 04/M05 A2995 RMK CU3 SLP145

CYUL;2010-11-20 19:00;CYUL 201900Z 30021G30KT 30SM FEW045 04/M06 A2998 RMK CU2 SLP155

CYUL;2010-11-20 20:00;CYUL 202000Z 29018KT 30SM BKN050 04/M07 A3004 RMK SC6 PRESRR SLP176

CYUL;2010-11-20 21:00;CYUL 202100Z 31019G25KT 30SM FEW050 FEW240 02/M07 A3009 RMK SC2CI1 SLP193

CYUL;2010-11-20 22:00;CYUL 202200Z 29015G22KT 30SM FEW050 FEW240 01/M08 A3015 RMK SC2CI1 SLP210

CYUL;2010-11-20 23:00;CYUL 202300Z 31010G17KT 15SM SCT045 00/M08 A3020 RMK SC4 PRESRR SLP230

CYUL;2010-11-21 00:00;CYUL 210000Z 32011G21KT 15SM FEW045 M01/M10 A3025 RMK SC1 SLP247

CYUL;2010-11-21 01:00;CYUL 210100Z 32006KT 15SM FEW045 M03/M09 A3030 RMK SC1 SLP262

CYUL;2010-11-21 02:00;CYUL 210200Z 31005KT 15SM FEW045 M03/M10 A3033 RMK SC1 SLP272

CYUL;2010-11-21 03:00;CYUL 210300Z 36009KT 15SM FEW040 M03/M10 A3036 RMK SC1 SLP285

CYUL;2010-11-21 04:00;CYUL 210400Z 01006KT 15SM FEW037 M03/M10 A3040 RMK SC1 SLP297

CYUL;2010-11-21 05:00;CYUL 210500Z 35007KT 15SM FEW040 M04/M10 A3042 RMK SC1 SLP305

CYUL;2010-11-21 06:00;CYUL 210600Z 36006KT 15SM FEW240 M05/M11 A3045 RMK CI1 SLP313

CYUL;2010-11-21 07:00;CYUL 210700Z 36006KT 15SM FEW040 FEW240 M05/M11 A3048 RMK SC1CI1 SLP325

CYUL;2010-11-21 08:00;CYUL 210800Z 35005KT 15SM FEW037 FEW240 M06/M11 A3050 RMK SC1CI1 SLP330

CYUL;2010-11-21 09:00;CYUL 210900Z 28004KT 15SM BKN040 M06/M10 A3052 RMK SC5 SLP339

CYUL;2010-11-21 10:00;CYUL 211000Z 33004KT 15SM BKN039 M05/M10 A3054 RMK SC6 SLP345

CYUL;2010-11-21 11:00;CYUL 211100Z 01007KT 15SM SCT039 M05/M11 A3055 RMK SC2 SLP349

CYUL;2010-11-21 12:00;CYUL 211200Z 02008KT 15SM FEW040 FEW170 SCT240 M05/M11 A3059 RMK SC1AC1CI1 SLP360

CYUL;2010-11-21 13:00;CYUL 211300Z 03007KT 15SM FEW032 FEW240 M05/M11 A3060 RMK SC1CI1 SLP365

CYUL;2010-11-21 14:00;CYUL 211400Z 02007KT 30SM FEW040 FEW240 M04/M11 A3061 RMK SC1CI1 SLP369

CYUL;2010-11-21 15:00;CYUL 211500Z 04004KT 30SM FEW025 FEW180 BKN240 M03/M11 A3062 RMK SC1AC1CI1 SLP370

CYUL;2010-11-21 16:00;CYUL 211600Z 03007KT 30SM FEW030 FEW180 BKN240 M03/M11 A3060 RMK SC1AC1CI2 SLP366

CYUL;2010-11-21 17:00;CYUL 211700Z 09008KT 30SM FEW035 FEW180 OVC210 M02/M12 A3057 RMK SC1AC1CS3 SLP355

CYUL;2010-11-21 18:00;CYUL 211800Z 10007KT 30SM FEW035 BKN120 OVC210 M02/M10 A3055 RMK CF1AS6CS2 SLP349

CYUL;2010-11-21 19:00;CYUL 211900Z 10006KT 30SM BKN110 BKN130 OVC220 M02/M10 A3054 RMK AS4AC1CS2 SLP344

CYUL;2010-11-21 20:00;CYUL 212000Z 11006KT 30SM FEW130 OVC220 M02/M10 A3053 RMK AC1CI2 SLP340

CYUL;2010-11-21 21:00;CYUL 212100Z 09007KT 30SM FEW150 SCT200 OVC240 M02/M11 A3053 RMK AC1CS2CI1 SLP340

CYUL;2010-11-21 22:00;CYUL 212200Z 08006KT 15SM OVC200 M03/M10 A3049 RMK CI2 SLP329

CYUL;2010-11-21 23:00;CYUL 212300Z 07007KT 15SM FEW120 BKN160 OVC210 M02/M10 A3049 RMK AC1AS2CI1 SLP329

CYUL;2010-11-22 00:00;CYUL 220000Z 07008KT 15SM OVC120 M02/M10 A3047 RMK AS7 SLP321

CYUL;2010-11-22 01:00;CYUL 220100Z 07009KT 15SM FEW110 SCT130 OVC200 M02/M11 A3044 RMK AC1AC2CI3 SLP312

CYUL;2010-11-22 02:00;CYUL 220200Z 08010KT 15SM BKN100 OVC130 M01/M10 A3042 RMK AC5AS2 SLP303

CYUL;2010-11-22 03:00;CYUL 220300Z 08010KT 15SM BKN090 OVC120 M01/M09 A3038 RMK AC6AC2 SLP291

CYUL;2010-11-22 04:00;CYUL 220400Z 07008KT 15SM OVC090 M01/M09 A3036 RMK AC8 SLP283

CYUL;2010-11-22 05:00;CYUL 220500Z 07008KT 15SM BKN060 OVC085 M01/M09 A3032 RMK SC6AC2 SLP271

CYUL;2010-11-22 05:11;CYUL 220511Z 07009KT 15SM -SN BKN050 OVC065 M01/ RMK SC6SC2

CYUL;2010-11-22 06:00;CYUL 220600Z 08007KT 4SM -SN OVC035 M00/M07 A3029 RMK SC8 SLP261

CYUL;2010-11-22 06:23;CYUL 220623Z 09007KT 6SM -SN -FZRA OVC034 M00/ RMK SC8

CYUL;2010-11-22 07:00;CYUL 220700Z 08008KT 8SM -SN -FZRA OVC040 M00/M04 A3026 RMK SC8 SLP251

CYUL;2010-11-22 07:22;CYUL 220722Z 06009KT 8SM -FZRA OVC050 M00/ RMK SC8

CYUL;2010-11-22 07:47;CYUL 220747Z 05008KT 8SM OVC050 00/ RMK SC8 REFZRA

CYUL;2010-11-22 08:00;CYUL 220800Z 04008KT 8SM OVC052 M00/M03 A3023 RMK SC8 REFZRA SLP239

CYUL;2010-11-22 08:31;CYUL 220831Z 04008KT 6SM -RA OVC038 00/ RMK SC8

CYUL;2010-11-22 09:00;CYUL 220900Z 05007KT 6SM -RA OVC042 00/M02 A3020 RMK SC8 SLP228

CYUL;2010-11-22 10:00;CYUL 221000Z 11007KT 4SM -RA OVC040 02/00 A3016 RMK SC8 SLP215

CYUL;2010-11-22 11:00;CYUL 221100Z 13004KT 6SM -RA OVC032 02/01 A3015 RMK SC8 SLP210

CYUL;2010-11-22 11:51;CYUL 221151Z 14007KT 6SM -DZ OVC045 03/ RMK SC8

CYUL;2010-11-22 12:00;CYUL 221200Z 14007KT 3SM -RA OVC045 03/01 A3012 RMK SC8 SLP200

CYUL;2010-11-22 13:00;CYUL 221300Z 13004KT 4SM -RA OVC045 03/02 A3011 RMK SC8 SLP197

CYUL;2010-11-22 14:00;CYUL 221400Z 15002KT 8SM OVC043 04/02 A3009 RMK SC8 SLP192

CYUL;2010-11-22 15:00;CYUL 221500Z 10003KT 10SM OVC040 05/03 A3008 RMK SC8 SLP187

CYUL;2010-11-22 16:00;CYUL 221600Z 35005KT 8SM OVC035 06/03 A3007 RMK SC8 SLP183

CYUL;2010-11-22 17:00;CYUL 221700Z 02005KT 6SM BR OVC037 03/02 A3004 RMK SC8 SLP175

CYUL;2010-11-22 18:00;CYUL 221800Z 01006KT 5SM BR OVC035 03/02 A3003 RMK SC8 SLP170

CYUL;2010-11-22 19:00;CYUL 221900Z 02005KT 5SM BR OVC033 03/03 A3001 RMK SC8 SLP166

CYUL;2010-11-22 20:00;CYUL 222000Z 02009KT 5SM BR OVC026 03/02 A3002 RMK SC8 SLP167

CYUL;2010-11-22 20:46;CYUL 222046Z 03006KT 5SM -RA BR OVC023 03/ RMK SC8 VRY LGT RA

CYUL;2010-11-22 21:00;CYUL 222100Z 02005KT 5SM -RA BR OVC022 03/02 A3001 RMK SC8 INTMT -RA SLP164

CYUL;2010-11-22 22:00;CYUL 222200Z 01007KT 4SM -RA BR FEW005 OVC017 03/02 A3002 RMK SF2SC6 SLP169

CYUL;2010-11-22 22:47;CYUL 222247Z 03007KT 2 1/2SM -DZ BR FEW005 OVC015 02/ RMK SF2SC6

CYUL;2010-11-22 23:00;CYUL 222300Z 02008KT 1 3/4SM -DZ BR BKN007 OVC014 02/02 A3002 RMK SF5SC3 SLP167

CYUL;2010-11-22 23:27;CYUL 222327Z 03008KT 1 1/2SM -DZ BR SCT002 OVC005 02/ RMK SF3SF5

CYUL;2010-11-23 00:00;CYUL 230000Z 03006KT 1 1/2SM -DZ BR FEW002 OVC005 03/02 A3001 RMK SF2SF6 SLP164

CYUL;2010-11-23 01:00;CYUL 230100Z 03007KT 2SM -DZ BR OVC005 02/02 A3000 RMK ST8 SLP162

CYUL;2010-11-23 01:32;CYUL 230132Z CCA 02006KT 2SM -DZ BR OVC004 02/ RMK ST8

CYUL;2010-11-23 02:00;CYUL 230200Z 01004KT 2SM -DZ BR BKN004 OVC007 02/02 A3000 RMK SF6SF2 SLP161

CYUL;2010-11-23 03:00;CYUL 230300Z 03007KT 1 3/4SM -DZ BR OVC004 02/02 A2999 RMK SF8 SLP158

CYUL;2010-11-23 03:10;CYUL 230310Z 02006KT 1 3/4SM -DZ BR OVC003 02/ RMK SF8

CYUL;2010-11-23 04:00;CYUL 230400Z 03008KT 2SM -DZ BR OVC003 02/02 A2996 RMK SF8 SLP148

CYUL;2010-11-23 04:18;CYUL 230418Z 03006KT 2SM -DZ BR OVC004 02/ RMK SF8

CYUL;2010-11-23 05:00;CYUL 230500Z 03007KT 1 3/4SM -DZ BR OVC003 02/02 A2996 RMK SF8 SLP147

CYUL;2010-11-23 05:17;CYUL 230517Z 03010KT 1 3/4SM -DZ BR BKN002 OVC005 02/ RMK SF6SF2

CYUL;2010-11-23 06:00;CYUL 230600Z 04009KT 3SM -RA BR BKN004 OVC012 02/02 A2993 RMK SF6SC2 SLP138

CYUL;2010-11-23 06:42;CYUL 230642Z 03007KT 3SM -RA BR BKN005 OVC012 02/ RMK SF6SC2

CYUL;2010-11-23 07:00;CYUL 230700Z 03008KT 3SM -RA BR BKN005 OVC015 02/02 A2991 RMK SF6SC2 RERA SLP132

CYUL;2010-11-23 08:00;CYUL 230800Z 04008KT 3SM BR OVC004 03/02 A2988 RMK SF8 INTMT -RA SLP121

CYUL;2010-11-23 09:00;CYUL 230900Z 02008KT 3SM -RA BR OVC004 03/02 A2986 RMK SF8 SLP113

CYUL;2010-11-23 10:00;CYUL 231000Z 02006KT 2 1/2SM BR OVC003 03/03 A2982 RMK SF8 INTMT -RA SLP100

CYUL;2010-11-23 11:00;CYUL 231100Z 02006KT 2 1/2SM -DZ BR OVC003 04/03 A2978 RMK SF8 SLP088

CYUL;2010-11-23 11:28;CYUL 231128Z 03006KT 2 1/2SM -RA BR OVC002 03/ RMK SF8

CYUL;2010-11-23 11:52;CYUL 231152Z 04010KT 2SM -RA BR OVC005 03/ RMK SF8

CYUL;2010-11-23 12:00;CYUL 231200Z 04009KT 2SM -RA BR OVC005 04/03 A2975 RMK SF8 SLP077

CYUL;2010-11-23 12:09;CYUL 231209Z 04009KT 2SM -RA BR BKN003 OVC005 04/ RMK SF6SF2 VIS W 3/4

CYUL;2010-11-23 12:44;CYUL 231244Z 05006KT 2SM -RA BR SCT003 OVC007 05/ RMK SF3SF5

CYUL;2010-11-23 13:00;CYUL 231300Z 02006KT 1 3/4SM -RA BR FEW003 BKN010 OVC030 05/05 A2971 RMK SF2SF4SC2 SLP063

CYUL;2010-11-23 13:16;CYUL 231316Z 36005KT 1 1/2SM -RA BR SCT002 BKN012 OVC023 04/ RMK SF3SF2SC2 RERA

CYUL;2010-11-23 13:28;CYUL 231328Z CCA 34006KT 2SM -RA BR BKN002 OVC045 04/ RMK SF6SC2 RERA

CYUL;2010-11-23 13:54;CYUL 231354Z 03005KT 2 1/4SM -RA BR SCT002 OVC040 04/ RMK SF3SC5 RERA

CYUL;2010-11-23 14:00;CYUL 231400Z 36005KT 2 1/4SM -RA BR SCT003 OVC040 04/04 A2972 RMK SF3SC5 RERA SLP066

CYUL;2010-11-23 14:21;CYUL 231421Z 34006KT 2 1/4SM -RA BR BKN003 OVC040 04/ RMK SF5SC3

CYUL;2010-11-23 14:40;CYUL 231440Z 03005KT 2 1/4SM -RA BR BKN002 OVC040 04/ RMK SF6SC2

CYUL;2010-11-23 15:00;CYUL 231500Z 05005KT 3SM -RA BR OVC002 04/04 A2967 RMK ST8 SLP050

CYUL;2010-11-23 15:18;CYUL 231518Z 09008KT 3SM -RA BR FEW002 SCT008 BKN020 OVC050 04/ RMK SF2SF2SC3SC1

CYUL;2010-11-23 16:00;CYUL 231600Z 31003KT 3SM -RA BR SCT005 BKN022 OVC080 07/07 A2961 RMK SF3SC4AC1 PRESFR SLP028

CYUL;2010-11-23 16:05;CYUL 231605Z 31009KT 3SM -RA BR SCT002 BKN005 OVC025 06/ RMK SF3SF2SC2

CYUL;2010-11-23 16:40;CYUL 231640Z 36003KT 3SM BR BKN002 OVC009 04/ RMK SF6SF2

CYUL;2010-11-23 17:00;CYUL 231700Z 01003KT 3SM BR BKN003 BKN008 OVC020 04/04 A2961 RMK SF5SF2SC2 SLP030

CYUL;2010-11-23 17:21;CYUL 231721Z 07004KT 4SM BR FEW002 OVC022 05/ RMK SF2SC6

CYUL;2010-11-23 18:00;CYUL 231800Z 15002KT 5SM BR FEW010 BKN028 OVC060 08/07 A2958 RMK SF1SC6SC1 SLP017

CYUL;2010-11-23 18:15;CYUL 231815Z 20002KT 5SM -RA BR FEW010 OVC025 08/ RMK SF1SC7

CYUL;2010-11-23 19:00;CYUL 231900Z 21010KT 8SM -RA BKN026 BKN060 BKN090 12/11 A2957 RMK SC5SC2AC1 SLP015

CYUL;2010-11-23 19:32;CYUL 231932Z 22011KT 12SM FEW030 SCT060 BKN090 12/ RMK SC2SC2AC2

CYUL;2010-11-23 20:00;CYUL 232000Z 23013G18KT 15SM FEW020 FEW040 SCT070 12/10 A2958 RMK SC1SC2AC2 TCU ASOCTD SLP018

CYUL;2010-11-23 20:22;CYUL 232022Z 23012G17KT 15SM -SHRA FEW020TCU FEW050 BKN075 13/ RMK TCU1SC2AC3

CYUL;2010-11-23 20:45;CYUL 232045Z 24013G19KT 15SM FEW025TCU SCT060 13/ RMK TCU2SC2

CYUL;2010-11-23 21:00;CYUL 232100Z 23012G17KT 15SM FEW025TCU FEW060 13/10 A2958 RMK TCU1SC2 SLP019

CYUL;2010-11-23 22:00;CYUL 232200Z 29005KT 15SM FEW030 FEW050 07/06 A2962 RMK CU1SC1 SLP031

CYUL;2010-11-23 23:00;CYUL 232300Z 27016G22KT 15SM SCT060 10/04 A2966 RMK SC4 SLP045

CYUL;2010-11-24 00:00;CYUL 240000Z 27012KT 15SM BKN055 09/02 A2969 RMK SC5 SLP056

CYUL;2010-11-24 01:00;CYUL 240100Z 27015G28KT 15SM BKN055 07/01 A2974 RMK SC6 SLP073

CYUL;2010-11-24 02:00;CYUL 240200Z 26019G25KT 15SM SCT052 06/M01 A2978 RMK SC4 SLP085

CYUL;2010-11-24 03:00;CYUL 240300Z 26015G24KT 15SM BKN055 05/M02 A2980 RMK SC2 SLP091

CYUL;2010-11-24 04:00;CYUL 240400Z 26019G26KT 15SM BKN050 05/M02 A2981 RMK SC4 SLP097

CYUL;2010-11-24 05:00;CYUL 240500Z 27017G30KT 15SM BKN060 04/M02 A2984 RMK SC3 SLP105

CYUL;2010-11-24 06:00;CYUL 240600Z 28014G22KT 15SM SCT050 02/M03 A2987 RMK SC2 SLP115

CYUL;2010-11-24 07:00;CYUL 240700Z 29023G28KT 15SM BKN033 02/M05 A2990 RMK SC6 SLP127

CYUL;2010-11-24 08:00;CYUL 240800Z 29011G24KT 15SM BKN040 01/M05 A2995 RMK SC6 SLP142

CYUL;2010-11-24 09:00;CYUL 240900Z 30014G21KT 15SM BKN038 01/M06 A2998 RMK SC5 SLP154

CYUL;2010-11-24 10:00;CYUL 241000Z 28007KT 15SM SCT038 M01/M07 A3002 RMK SC1 SLP166

CYUL;2010-11-24 11:00;CYUL 241100Z 28017KT 15SM FEW040 M01/M07 A3005 RMK SC1 SLP178

CYUL;2010-11-24 12:00;CYUL 241200Z 29017G26KT 30SM FEW050 FEW120 M02/M08 A3009 RMK SC1AC1 SLP191

CYUL;2010-11-24 13:00;CYUL 241300Z 29013KT 15SM FEW015 FEW050 M01/M07 A3012 RMK SF1SC1 SLP203

CYUL;2010-11-24 14:00;CYUL 241400Z 29016G22KT 15SM FEW015 M01/M09 A3015 RMK SF1 SLP211

CYUL;2010-11-24 15:00;CYUL 241500Z 29013G20KT 30SM FEW015 M01/M11 A3016 RMK SF1 SLP214

CYUL;2010-11-24 16:00;CYUL 241600Z 28019G25KT 30SM FEW020 00/M11 A3015 RMK CF1 SLP213

CYUL;2010-11-24 17:00;CYUL 241700Z 30017G26KT 30SM SKC 00/M13 A3015 RMK SLP212

CYUL;2010-11-24 18:00;CYUL 241800Z 28017G24KT 30SM SKC 01/M13 A3017 RMK SLP217

CYUL;2010-11-24 19:00;CYUL 241900Z 28020G25KT 30SM FEW240 01/M15 A3017 RMK CI1 SLP217

CYUL;2010-11-24 20:00;CYUL 242000Z 29021G26KT 30SM FEW240 01/M15 A3017 RMK CI0 SLP218

CYUL;2010-11-24 21:00;CYUL 242100Z 30013G18KT 30SM FEW240 M00/M15 A3018 RMK CI0 SLP222

CYUL;2010-11-24 22:00;CYUL 242200Z 29009KT 15SM FEW240 M01/M14 A3020 RMK CI0 SLP230

CYUL;2010-11-24 23:00;CYUL 242300Z 28009G16KT 15SM FEW240 M02/M14 A3023 RMK CI1 SLP240

CYUL;2010-11-25 00:00;CYUL 250000Z 30010G15KT 15SM FEW240 M02/M14 A3025 RMK CI1 SLP246

CYUL;2010-11-25 01:00;CYUL 250100Z 29008KT 15SM SKC M03/M15 A3026 RMK SLP250

CYUL;2010-11-25 02:00;CYUL 250200Z 29007KT 15SM SKC M04/M14 A3027 RMK SLP253

CYUL;2010-11-25 03:00;CYUL 250300Z 29008KT 15SM SKC M04/M14 A3027 RMK SLP253

CYUL;2010-11-25 04:00;CYUL 250400Z 29006KT 15SM SKC M05/M14 A3027 RMK SLP254

CYUL;2010-11-25 05:00;CYUL 250500Z 31006KT 15SM SKC M05/M14 A3027 RMK SLP253

CYUL;2010-11-25 06:00;CYUL 250600Z 31004KT 15SM SKC M07/M13 A3027 RMK SLP253

CYUL;2010-11-25 07:00;CYUL 250700Z 33002KT 15SM FEW240 M07/M12 A3027 RMK CI0 SLP253

CYUL;2010-11-25 08:00;CYUL 250800Z 04003KT 15SM SKC M07/M14 A3028 RMK SLP256

CYUL;2010-11-25 09:00;CYUL 250900Z 03002KT 15SM SKC M07/M14 A3027 RMK SLP252

CYUL;2010-11-25 10:00;CYUL 251000Z 04003KT 15SM SKC M07/M14 A3025 RMK SLP248

CYUL;2010-11-25 11:00;CYUL 251100Z 05003KT 15SM SKC M07/M13 A3026 RMK SLP249

CYUL;2010-11-25 12:00;CYUL 251200Z 02003KT 30SM FEW240 M08/M13 A3025 RMK CI0 SLP246

CYUL;2010-11-25 13:00;CYUL 251300Z 00000KT 30SM FEW180 FEW240 M07/M11 A3026 RMK AC1CI1 SLP250

CYUL;2010-11-25 14:00;CYUL 251400Z 00000KT 15SM FEW180 SCT240 M04/M12 A3026 RMK AC1CI0 SLP251

CYUL;2010-11-25 15:00;CYUL 251500Z 00000KT 30SM BKN180 BKN240 M04/M12 A3025 RMK AS4CI0 SLP247

CYUL;2010-11-25 16:00;CYUL 251600Z 00000KT 30SM BKN180 M04/M12 A3021 RMK AS6 SLP232

CYUL;2010-11-25 17:00;CYUL 251700Z 20003KT 30SM FEW090 BKN160 BKN240 M04/M10 A3019 RMK AC1AS6CI1 SLP227

CYUL;2010-11-25 18:00;CYUL 251800Z 18003KT 30SM BKN180 OVC240 M04/M10 A3018 RMK AS6CI2 SLP222

CYUL;2010-11-25 19:00;CYUL 251900Z 14005KT 30SM FEW090 BKN180 OVC240 M04/M10 A3014 RMK AC1AS6CI2 SLP210

CYUL;2010-11-25 20:00;CYUL 252000Z 12006KT 30SM FEW100 SCT180 OVC240 M04/M09 A3013 RMK AC2AS2CS2 SLP205

CYUL;2010-11-25 21:00;CYUL 252100Z 10006KT 15SM SCT120 BKN180 OVC220 M04/M09 A3011 RMK AC3AS2CS2 SLP200

CYUL;2010-11-25 22:00;CYUL 252200Z 09006KT 15SM BKN140 OVC180 M04/M09 A3006 RMK AC6AC2 SLP183

CYUL;2010-11-25 23:00;CYUL 252300Z 09007KT 15SM BKN100 OVC150 M04/M09 A3004 RMK AC6AC2 SLP177

CYUL;2010-11-26 00:00;CYUL 260000Z 09009KT 15SM BKN100 OVC140 M03/M10 A3002 RMK AC6AC2 SLP168

CYUL;2010-11-26 01:00;CYUL 260100Z 07008KT 15SM OVC095 M03/M10 A2999 RMK AC8 SLP159

CYUL;2010-11-26 02:00;CYUL 260200Z 07008KT 15SM OVC090 M03/M09 A2994 RMK AC8 SLP141

CYUL;2010-11-26 03:00;CYUL 260300Z 09009KT 15SM FEW090 BKN130 OVC220 M03/M10 A2989 RMK AC2AC5CI1 SLP124

CYUL;2010-11-26 04:00;CYUL 260400Z 05012KT 15SM BKN080 OVC090 M03/M09 A2984 RMK AC6AC2 SLP108

CYUL;2010-11-26 05:00;CYUL 260500Z 05010G15KT 15SM BKN083 OVC095 M03/M09 A2977 RMK AC7AC1 PRESFR SLP085

CYUL;2010-11-26 06:00;CYUL 260600Z 04017KT 15SM OVC090 M03/M09 A2973 RMK AS8 SLP069

CYUL;2010-11-26 06:47;CYUL 260647Z 06014KT 15SM -PL FEW070 OVC080 M03/ RMK AC2AS6

CYUL;2010-11-26 07:00;CYUL 260700Z CCA 05014KT 15SM -SN BKN075 OVC100 M04/M08 A2966 RMK AC6AS2 PRESFR SLP047

CYUL;2010-11-26 08:00;CYUL 260800Z 05011KT 15SM -SN FEW075 OVC090 M03/M07 A2961 RMK AC2AS6 -SN INTMT SLP028

CYUL;2010-11-26 08:21;CYUL 260821Z 04009KT 12SM -SN -FZRA BKN050 OVC080 M03/ RMK SC7AC1 -SN INTMT

CYUL;2010-11-26 09:00;CYUL 260900Z 05009KT 5SM -FZRA OVC020 M03/M06 A2954 RMK SC8 PRESFR SLP006

CYUL;2010-11-26 09:19;CYUL 260919Z 05010KT 12SM -SN -FZRA OVC017 M03/ RMK SC8 -SN INTMT

CYUL;2010-11-26 09:48;CYUL 260948Z 05010KT 15SM -SN OVC013 M03/ REFZRA RMK SC8 -SN INTMT

CYUL;2010-11-26 10:00;CYUL 261000Z CCB 06006KT 12SM -SN -FZDZ OVC013 M02/M04 A2947 REFZRA RMK ST8 PRESFR SLP982

CYUL;2010-11-26 11:00;CYUL 261100Z CCA 06006KT 4SM -SN -FZDZ BR BKN009 OVC028 M01/M02 A2940 RMK ST7SC1 PRESFR SLP960

CYUL;2010-11-26 11:28;CYUL 261128Z 09005KT 8SM -SN BKN007 OVC030 M00/ REFZDZ RMK ST7SC1

CYUL;2010-11-26 11:42;CYUL 261142Z 11005KT 7SM -FZRA FEW005 BKN008 OVC030 M00/ RMK SF2ST6SC1

CYUL;2010-11-26 12:00;CYUL 261200Z CCA 00000KT 6SM -DZ BR BKN006 OVC027 00/M00 A2936 REFZRA RMK SF6SC2 SLP945

CYUL;2010-11-26 12:11;CYUL 261211Z 36002KT 6SM -SHPL BR BKN006 OVC027 00/ RMK SF7SC1

CYUL;2010-11-26 12:18;CYUL 261218Z 33002KT 3SM -DZ BR OVC006 00/ RMK ST8

CYUL;2010-11-26 12:32;CYUL 261232Z 36002KT 2SM -DZ BR OVC005 00/ RMK ST8

CYUL;2010-11-26 12:45;CYUL 261245Z 02002KT 2 1/4SM -RA BR SCT004 OVC008 01/ RMK SF3ST5

CYUL;2010-11-26 13:00;CYUL 261300Z 32003KT 4SM -FZRA BR BKN005 OVC013 00/M00 A2935 RMK ST6ST2 SLP941

CYUL;2010-11-26 13:20;CYUL 261320Z 36002KT 2 1/2SM -FZRA BR SCT005 OVC016 M00/ RMK SF2SC6

CYUL;2010-11-26 13:43;CYUL 261343Z 32002KT 1 1/2SM -FZDZ BR BKN005 OVC013 M00/ REFZRA RMK SF5ST3

CYUL;2010-11-26 14:00;CYUL 261400Z 29007KT 5SM -FZDZ BR FEW003 OVC006 00/M01 A2939 REFZRA RMK SF2SF6 SLP953

CYUL;2010-11-26 14:24;CYUL 261424Z 27006KT 5SM BR OVC007 00/ REFZDZ RMK ST8

CYUL;2010-11-26 14:47;CYUL 261447Z 26011KT 8SM SCT011 BKN018 BKN032 OVC047 01/ REFZDZ RMK SF2SC3SC2SC1

CYUL;2010-11-26 15:00;CYUL 261500Z 27022G28KT 15SM FEW014 BKN023 BKN037 OVC045 01/M00 A2945 REFZDZ RMK SF2SC4SC2SC1 PRESRR SLP975

CYUL;2010-11-26 16:00;CYUL 261600Z 26018KT 15SM FEW020 BKN039 BKN050 01/M01 A2947 RMK SF2SC5SC1 SLP982

CYUL;2010-11-26 17:00;CYUL 261700Z 27018KT 15SM FEW022 BKN042 BKN064 01/M02 A2949 RMK SF2SC5SC1 SLP987

CYUL;2010-11-26 17:13;CYUL 261713Z 27022G28KT 12SM -SHSN FEW022 BKN038 OVC062 01/ RMK SF2SC5SC1

CYUL;2010-11-26 18:00;CYUL 261800Z 27018G24KT 15SM -SHSN FEW022 BKN031 OVC044 00/M03 A2950 RMK SF2SC4SC2 SLP991

CYUL;2010-11-26 19:00;CYUL 261900Z 26016G21KT 15SM -SHSN FEW042 OVC058 M00/M04 A2952 RMK SC2SC6 SLP998

CYUL;2010-11-26 19:20;CYUL 261920Z 27016G24KT 15SM FEW040 BKN060 00/ RMK SC2SC6

CYUL;2010-11-26 20:00;CYUL 262000Z 26015KT 15SM FEW047 BKN063 01/M05 A2952 RMK SC2SC2 SLP999

CYUL;2010-11-26 21:00;CYUL 262100Z 25014G19KT 15SM FEW050 SCT062 00/M07 A2953 RMK SC1SC2 SLP000

CYUL;2010-11-26 22:00;CYUL 262200Z 24014G20KT 15SM FEW060 M00/M09 A2952 RMK SC1 SLP998

CYUL;2010-11-26 23:00;CYUL 262300Z 24013G21KT 15SM FEW070 M00/M08 A2953 RMK AC1 SLP001

CYUL;2010-11-27 00:00;CYUL 270000Z 22013KT 15SM BKN058 00/M08 A2952 RMK SC7 SLP998

CYUL;2010-11-27 01:00;CYUL 270100Z 23017KT 15SM BKN060 00/M08 A2951 RMK SC7 SLP994

CYUL;2010-11-27 02:00;CYUL 270200Z 21013KT 15SM FEW060 M01/M06 A2949 RMK SC1 SLP988

CYUL;2010-11-27 03:00;CYUL 270300Z 23014G20KT 15SM FEW050 FEW060 M00/M06 A2949 RMK CF1SC2 SLP987

CYUL;2010-11-27 04:00;CYUL 270400Z 21017G22KT 15SM FEW055 BKN065 00/M06 A2947 RMK SC2SC6 SLP981

CYUL;2010-11-27 05:00;CYUL 270500Z 22014G22KT 15SM FEW020 OVC065 01/M05 A2945 RMK CF1SC8 SLP974

CYUL;2010-11-27 06:00;CYUL 270600Z 22014G21KT 15SM FEW020 OVC065 01/M05 A2943 RMK CF1SC8 SLP968

CYUL;2010-11-27 07:00;CYUL 270700Z 24012G17KT 15SM BKN030 BKN065 OVC090 01/M05 A2942 RMK SC6SC1AC2 SLP964

CYUL;2010-11-27 08:00;CYUL 270800Z 23010G15KT 15SM BKN035 BKN070 OVC090 01/M05 A2940 RMK SC6AC1AC1 SLP957

CYUL;2010-11-27 09:00;CYUL 270900Z 22016KT 15SM FEW035 OVC075 01/M05 A2937 RMK SC1AS7 SLP949

CYUL;2010-11-27 09:35;CYUL 270935Z 22017KT 15SM -SN OVC040 01/ RMK SC8

CYUL;2010-11-27 10:00;CYUL 271000Z 22022G28KT 6SM -SN SCT017 OVC030 01/M03 A2937 RMK SC3SC5 SLP948

CYUL;2010-11-27 10:25;CYUL 271025Z 21014G25KT 1 3/4SM -SN OVC013 M00/ RMK SC8

CYUL;2010-11-27 10:41;CYUL 271041Z 21016G21KT 1 1/4SM -SN OVC009 M00/ RMK ST8

CYUL;2010-11-27 11:00;CYUL 271100Z 23013G18KT 1SM R24R/P6000FT/U R24L/P6000FT/D -SN DRSN OVC007 M00/M01 A2938 RMK ST8 SLP952

CYUL;2010-11-27 11:22;CYUL 271122Z 25008KT 1 1/2SM -SN DRSN SCT006 OVC012 M01/ RMK SF3ST5

CYUL;2010-11-27 12:00;CYUL 271200Z CCA 22011KT 1 3/4SM -SN DRSN SCT007 OVC012 00/M01 A2938 RMK SF3SF5 /S01/ SLP952

CYUL;2010-11-27 12:16;CYUL 271216Z 23014KT 5SM -SN DRSN SCT009 BKN025 OVC060 00/ RMK SF3SC3SC2

CYUL;2010-11-27 12:51;CYUL 271251Z 22015KT 1 3/4SM -SN DRSN BKN012 OVC020 00/ RMK SF6SC2 -SN INTMT

CYUL;2010-11-27 13:00;CYUL 271300Z 22017G25KT 2SM -SN DRSN BKN012 OVC020 00/M01 A2939 RMK SF6SC2 -SN INTMT SLP953

CYUL;2010-11-27 13:25;CYUL 271325Z 22018G24KT 5/8SM R24R/P6000FT/D R24L/P6000FT/D -SN DRSN OVC012 M00/ RMK SN3SF5

CYUL;2010-11-27 13:32;CYUL 271332Z 23016G21KT 3/8SM R24R/4000VP6000FT/D R24L/P6000FT/D SN DRSN VV004 00/ RMK SN8

CYUL;2010-11-27 13:42;CYUL 271342Z 22016KT 3/4SM R24R/2600V5500FT/N R24L/2800V5000FT/N -SN DRSN SCT007 OVC018 M00/ RESN RMK SF3SC5

CYUL;2010-11-27 13:52;CYUL 271352Z 22018KT 5SM -SN DRSN SCT009 BKN020 OVC050 00/ RESN RMK SF3SC2SC2

CYUL;2010-11-27 14:00;CYUL 271400Z 22017G22KT 5SM -SN DRSN FEW011 OVC040 00/M02 A2938 RESN RMK SF2SC6 SLP952

CYUL;2010-11-27 14:45;CYUL 271445Z 23016G24KT 2SM -SN DRSN SCT009 OVC022 00/ RMK SF3SC5

CYUL;2010-11-27 14:49;CYUL 271449Z 23017G24KT 1SM R24R/P6000FT/N R24L/P6000FT/N -SN DRSN BKN008 OVC022 M00/ RMK SF6SC2

CYUL;2010-11-27 15:00;CYUL 271500Z 24014G19KT 5/8SM R24R/3500V5000FT/N R24L/5000FT/N -SN DRSN FEW004 BKN009 OVC018 M01/M02 A2940 RMK SF1SF5SC2 SLP957

CYUL;2010-11-27 15:13;CYUL 271513Z 25017KT 3/4SM R24R/3000V6000FT/U R24L/3500FT/D -SN DRSN FEW004 BKN009 OVC018 M01/ RMK SF1SF5SC2

CYUL;2010-11-27 15:18;CYUL 271518Z 25019KT 2SM -SN DRSN SCT009 BKN016 OVC039 M01/ RMK SF3SF4SC1

CYUL;2010-11-27 15:21;CYUL 271521Z 25018KT 4SM -SN DRSN FEW014 BKN020 OVC039 M01/ RMK SF2SF5SC2

CYUL;2010-11-27 15:31;CYUL 271531Z 25014G20KT 10SM -SN DRSN FEW017 BKN032 BKN050 BKN070 M01/ RMK SF1SC4SC2AC1 SUN DIMLY VISBL CU EMBD NW

CYUL;2010-11-27 15:53;CYUL 271553Z 25014KT 15SM FEW020 BKN062 BKN110 M01/ RMK SF1SC5AC2

CYUL;2010-11-27 16:00;CYUL 271600Z 26015KT 15SM FEW020 BKN060 BKN110 M01/M03 A2940 RMK SF1SC3AC2 SLP959

CYUL;2010-11-27 16:06;CYUL 271606Z CCA 26018G24KT 3/4SM R24R/6000FT/D R24L/6000FT/N -SHSN DRSN FEW004 BKN013 OVC028 M01/ RMK SF1SF5SC2 -SN INTMT

CYUL;2010-11-27 16:16;CYUL 271616Z 28016G24KT 1SM R24R/2600V6000FT/U R24L/3000V6000FT/D -SN DRSN FEW004 BKN008 OVC018 M02/ RMK SF1SF5SC2

CYUL;2010-11-27 16:20;CYUL 271620Z 27013G20KT 4SM -SN DRSN FEW008 BKN013 OVC028 M02/ RMK SF2SF4SC2

CYUL;2010-11-27 16:26;CYUL 271626Z CCA 27012G18KT 15SM -SN DRSN FEW013 BKN038 BKN070 M02/ RMK SF2SC4AC2 CU EMBD N-W

CYUL;2010-11-27 16:40;CYUL 271640Z 27011KT 15SM FEW018 BKN058 BKN075 M02/ RMK SF1SC4AC2 CU EMBD NW

CYUL;2010-11-27 17:00;CYUL 271700Z 28017KT 15SM FEW020 SCT062 BKN100 BKN140 M01/M04 A2945 RMK SF1SC2AC1AC1 SLP973

CYUL;2010-11-27 17:49;CYUL 271749Z 29022KT 2SM -SHRA FEW008 SCT013 BKN022 OVC050 M01/ RMK SF2SF2SC4SC1

CYUL;2010-11-27 17:54;CYUL 271754Z 31016G26KT 4SM -SHSN DRSN FEW008 SCT013 BKN022 OVC050 M02/ RMK SF2SF2SC4SC1

CYUL;2010-11-27 18:00;CYUL 271800Z 29012G26KT 5SM -SHSN DRSN FEW014 BKN028 BKN034 BKN055 M02/M04 A2951 RMK SF2SC3SC2SC1 PRESRR /S01/ SLP993

CYUL;2010-11-27 18:27;CYUL 271827Z 29015KT 15SM FEW028 SCT050 BKN100 M01/ RMK SC2SC2AC1

CYUL;2010-11-27 19:00;CYUL 271900Z CCA 29017KT 15SM FEW032 BKN043 BKN067 M01/M06 A2957 RMK SC1SC4AC2 PRESRR SLP014

CYUL;2010-11-27 20:00;CYUL 272000Z 29017KT 15SM BKN040 M02/M09 A2964 RMK SC6 PRESRR SLP039

CYUL;2010-11-27 21:00;CYUL 272100Z 29016G22KT 15SM FEW033 BKN045 M03/M09 A2972 RMK SC2SC4 PRESRR SLP066

CYUL;2010-11-27 22:00;CYUL 272200Z 29013G18KT 15SM FEW044 M04/M11 A2978 RMK SC1 PRESRR SLP087

CYUL;2010-11-27 23:00;CYUL 272300Z 28013G18KT 15SM BKN035 M04/M10 A2983 RMK SC3 SLP105

CYUL;2010-11-28 00:00;CYUL 280000Z 29009G16KT 15SM BKN029 M04/M09 A2989 RMK SC6 SLP123

CYUL;2010-11-28 01:00;CYUL 280100Z 28013KT 15SM SCT032 M04/M09 A2992 RMK SC2 SLP134

CYUL;2010-11-28 02:00;CYUL 280200Z 27011G20KT 15SM FEW029 M05/M10 A2995 RMK SC1 SLP144

CYUL;2010-11-28 03:00;CYUL 280300Z 28012KT 15SM FEW028 FEW080 M05/M10 A2997 RMK SC1AC1 SLP150

CYUL;2010-11-28 04:00;CYUL 280400Z 26007KT 15SM FEW100 M06/M10 A2999 RMK AC1 SLP156

CYUL;2010-11-28 05:00;CYUL 280500Z 25009KT 15SM FEW060 BKN085 M06/M10 A3001 RMK SC1AC5 SLP163

CYUL;2010-11-28 06:00;CYUL 280600Z 26009KT 15SM FEW025 OVC045 M06/M10 A3003 RMK SC2SC3 SLP171

CYUL;2010-11-28 07:00;CYUL 280700Z 24006KT 15SM BKN020 BKN040 M05/M09 A3005 RMK SC5SC2 SLP179

CYUL;2010-11-28 08:00;CYUL 280800Z 24008KT 15SM OVC017 M04/M08 A3008 RMK SC8 SLP188

CYUL;2010-11-28 09:00;CYUL 280900Z 26010KT 15SM BKN020 OVC030 M04/M07 A3009 RMK SC6SC2 SLP194

CYUL;2010-11-28 10:00;CYUL 281000Z 25008KT 15SM FEW020 OVC033 M03/M07 A3011 RMK SC1SC8 SLP199

CYUL;2010-11-28 11:00;CYUL 281100Z 25010KT 15SM OVC033 M03/M07 A3013 RMK SC8 SLP206

CYUL;2010-11-28 12:00;CYUL 281200Z 24009G16KT 15SM BKN033 BKN055 M02/M07 A3015 RMK SC7SC1 SLP213

CYUL;2010-11-28 13:00;CYUL 281300Z 25007KT 30SM BKN040 M02/M06 A3017 RMK SC7 SLP218

CYUL;2010-11-28 14:00;CYUL 281400Z 25010KT 15SM FEW030 BKN043 M01/M06 A3019 RMK SC2SC6 SLP225

CYUL;2010-11-28 15:00;CYUL 281500Z 26008KT 15SM FEW035 BKN055 M01/M05 A3020 RMK SC1SC2 SLP231

CYUL;2010-11-28 16:00;CYUL 281600Z 26010KT 15SM FEW040 BKN057 M00/M05 A3021 RMK SC1SC2 SLP234

CYUL;2010-11-28 17:00;CYUL 281700Z 24011KT 30SM FEW032 SCT055 01/M04 A3022 RMK SC2SC1 SLP235

CYUL;2010-11-28 18:00;CYUL 281800Z 29012G19KT 30SM BKN030 BKN052 01/M04 A3023 RMK SC4SC1 SLP240

CYUL;2010-11-28 19:00;CYUL 281900Z 29007KT 30SM BKN030 BKN120 02/M04 A3023 RMK SC5AC0 SLP241

CYUL;2010-11-28 20:00;CYUL 282000Z 26012KT 30SM SCT035 SCT050 02/M04 A3025 RMK SC2SC1 SLP246

CYUL;2010-11-28 21:00;CYUL 282100Z 26006KT 15SM FEW032 BKN045 01/M03 A3028 RMK SC2SC3 SLP255

CYUL;2010-11-28 22:00;CYUL 282200Z 25005KT 15SM BKN038 02/M03 A3030 RMK SC7 SLP262

CYUL;2010-11-28 23:00;CYUL 282300Z 25007KT 15SM BKN038 02/M03 A3031 RMK SC6 SLP268

CYUL;2010-11-29 00:00;CYUL 290000Z 26006KT 15SM BKN042 02/M03 A3033 RMK SC6 SLP273

CYUL;2010-11-29 01:00;CYUL 290100Z 28004KT 15SM BKN039 01/M02 A3034 RMK SC6 SLP278

CYUL;2010-11-29 02:00;CYUL 290200Z 27004KT 15SM BKN045 M00/M03 A3036 RMK SC6 SLP282

CYUL;2010-11-29 03:00;CYUL 290300Z 24005KT 15SM OVC045 01/M03 A3037 RMK SC8 SLP286

CYUL;2010-11-29 04:00;CYUL 290400Z 24003KT 15SM OVC047 01/M03 A3038 RMK SC8 SLP289

CYUL;2010-11-29 05:00;CYUL 290500Z 23003KT 15SM BKN045 01/M03 A3040 RMK SC7 SLP296

CYUL;2010-11-29 06:00;CYUL 290600Z 22002KT 15SM BKN049 01/M02 A3040 RMK SC7 SLP297

CYUL;2010-11-29 07:00;CYUL 290700Z 00000KT 15SM FEW030 OVC040 01/M02 A3042 RMK SC1SC7 SLP304

CYUL;2010-11-29 08:00;CYUL 290800Z 17004KT 15SM FEW022 OVC044 01/M01 A3044 RMK SC2SC6 SLP310

CYUL;2010-11-29 09:00;CYUL 290900Z 00000KT 15SM FEW025 OVC040 01/M01 A3045 RMK SC1SC7 SLP313

CYUL;2010-11-29 10:00;CYUL 291000Z 19002KT 15SM OVC040 01/M01 A3047 RMK SC8 SLP319

CYUL;2010-11-29 11:00;CYUL 291100Z 00000KT 15SM OVC040 02/M01 A3048 RMK SC8 SLP324

CYUL;2010-11-29 12:00;CYUL 291200Z 00000KT 30SM FEW040 FEW240 00/M02 A3049 RMK SC1CI1 SLP328

CYUL;2010-11-29 13:00;CYUL 291300Z 00000KT 30SM FEW040 FEW240 01/M01 A3051 RMK SC1CI1 SLP334

CYUL;2010-11-29 14:00;CYUL 291400Z 20003KT 30SM FEW040 FEW240 03/M01 A3052 RMK SC1CI1 SLP336

CYUL;2010-11-29 15:00;CYUL 291500Z 19005KT 30SM FEW240 04/M01 A3051 RMK CI1 SLP334

CYUL;2010-11-29 16:00;CYUL 291600Z 22004KT 30SM FEW050 FEW240 04/M01 A3050 RMK SC1CI1 SLP330

CYUL;2010-11-29 17:00;CYUL 291700Z 22005KT 30SM FEW055 SCT240 05/M02 A3049 RMK SC1CI1 SLP327

CYUL;2010-11-29 18:00;CYUL 291800Z 22006KT 30SM FEW170 SCT240 06/M02 A3047 RMK AC1CI1 SLP321

CYUL;2010-11-29 19:00;CYUL 291900Z 00000KT 30SM SCT240 05/M02 A3047 RMK CI1 SLP318

CYUL;2010-11-29 20:00;CYUL 292000Z 02002KT 15SM BKN240 05/M03 A3046 RMK CI3 SLP317

CYUL;2010-11-29 21:00;CYUL 292100Z 13005KT 15SM BKN240 04/M02 A3047 RMK CI5 SLP320

CYUL;2010-11-29 22:00;CYUL 292200Z 11005KT 15SM BKN240 04/M02 A3047 RMK CI2 SLP319

CYUL;2010-11-29 23:00;CYUL 292300Z 09005KT 15SM BKN240 03/M02 A3045 RMK CI2 SLP314

CYUL;2010-11-30 00:00;CYUL 300000Z 07005KT 15SM BKN240 04/M02 A3046 RMK CI5 SLP317

CYUL;2010-11-30 01:00;CYUL 300100Z 08005KT 15SM BKN240 04/M02 A3044 RMK CI5 SLP312

CYUL;2010-11-30 02:00;CYUL 300200Z 08008KT 15SM BKN230 03/M02 A3041 RMK CI5 SLP301

CYUL;2010-11-30 03:00;CYUL 300300Z 08009KT 15SM BKN220 03/M03 A3041 RMK CS6 SLP298

CYUL;2010-11-30 04:00;CYUL 300400Z 10005KT 15SM OVC220 03/M02 A3040 RMK CS6 SLP296

CYUL;2010-11-30 05:00;CYUL 300500Z 08003KT 15SM OVC210 03/M02 A3041 RMK CS5 SLP299

CYUL;2010-11-30 06:00;CYUL 300600Z 08006KT 15SM BKN220 02/M02 A3038 RMK CI4 SLP290

CYUL;2010-11-30 07:00;CYUL 300700Z 05004KT 15SM FEW240 02/M02 A3037 RMK CI0 SLP286

CYUL;2010-11-30 08:00;CYUL 300800Z 09004KT 15SM SKC 02/M02 A3036 RMK SLP282

CYUL;2010-11-30 09:00;CYUL 300900Z 01005KT 15SM SKC M01/M03 A3034 RMK SLP277

CYUL;2010-11-30 10:00;CYUL 301000Z 04006KT 15SM SKC M02/M03 A3034 RMK SLP277

CYUL;2010-11-30 11:00;CYUL 301100Z 13005KT 15SM FEW240 02/M01 A3034 RMK CI0 SLP277

CYUL;2010-11-30 12:00;CYUL 301200Z 15012G17KT 15SM BKN240 03/M01 A3031 RMK CI1 SLP267

CYUL;2010-11-30 13:00;CYUL 301300Z 15011KT 15SM FEW090 OVC240 03/M01 A3030 RMK AC1CS4 SLP263

CYUL;2010-11-30 14:00;CYUL 301400Z 15014G19KT 15SM SCT050 OVC240 04/M00 A3029 RMK SC3CS3 SLP259

CYUL;2010-11-30 15:00;CYUL 301500Z 15011G16KT 15SM SCT055 OVC210 05/00 A3028 RMK SC4CS4 SLP255

CYUL;2010-11-30 16:00;CYUL 301600Z 15016KT 15SM FEW050 BKN070 OVC210 06/01 A3024 RMK SC2AC2CS3 SLP241

CYUL;2010-11-30 17:00;CYUL 301700Z 14014KT 15SM BKN055 OVC070 06/02 A3021 RMK SC6AC2 SLP233

CYUL;2010-11-30 17:10;CYUL 301710Z 15014G19KT 15SM -RA OVC055 06/ RMK SC8

CYUL;2010-11-30 18:00;CYUL 301800Z 14014G20KT 15SM -RA OVC052 07/02 A3018 RMK SC8 SLP222

CYUL;2010-11-30 19:00;CYUL 301900Z 14016KT 15SM OVC055 07/03 A3015 RMK SC8 INTMT -RA SLP213

CYUL;2010-11-30 20:00;CYUL 302000Z 15017G24KT 15SM -RA FEW050 OVC060 07/03 A3015 RMK SC2SC6 SLP212

CYUL;2010-11-30 21:00;CYUL 302100Z 14015G20KT 12SM -RA FEW040 OVC055 06/04 A3016 RMK SC2SC6 SLP214

CYUL;2010-11-30 22:00;CYUL 302200Z 14016KT 8SM -RA BKN032 OVC045 06/05 A3015 RMK SC6SC2 SLP212

CYUL;2010-11-30 23:00;CYUL 302300Z 13016KT 8SM -RA FEW010 BKN030 OVC050 06/05 A3014 RMK SF1SC5SC3 SLP208

CYUL;2010-12-01 05:00;CYUL 010500Z 13016G21KT 4SM -RA BR FEW008 OVC014 07/06 A3000 RMK SF1SF7 RERA SLP160

CYUL;2010-12-01 06:00;CYUL 010600Z 14015KT 4SM -RA BR FEW008 OVC014 07/06 A2999 RMK SF2SF6 RERA /R12/ SLP155

CYUL;2010-12-01 06:43;CYUL 010643Z 13014G20KT 3SM -RA BR FEW009 OVC015 07/ RMK SF1SF8

CYUL;2010-12-01 07:00;CYUL 010700Z 14016G22KT 4SM -RA BR FEW009 OVC016 07/06 A2998 RMK SF1SF7 RERA SLP153

CYUL;2010-12-01 07:50;CYUL 010750Z 13016G21KT 8SM -RA SCT020 OVC090 07/ RMK SF3AC5 RERA

CYUL;2010-12-01 08:00;CYUL 010800Z 13018G25KT 10SM -RA FEW020 SCT060 OVC085 07/06 A2994 RMK SF2SC2AC4 RERA SLP139

CYUL;2010-12-01 08:38;CYUL 010838Z 13015G22KT 15SM SCT020 OVC090 07/ RMK SF3AC5

CYUL;2010-12-01 09:00;CYUL 010900Z 13017G25KT 15SM SCT020 OVC090 08/06 A2991 RMK SF3AC5 SLP128

CYUL;2010-12-01 09:17;CYUL 010917Z 13017G26KT 15SM -RA SCT020 OVC090 08/ RMK SF3AC5 -RA INTMT

CYUL;2010-12-01 10:00;CYUL 011000Z 12015KT 12SM -RA BKN021 OVC100 08/06 A2988 RMK SF6AC2 /R10/ SLP119

CYUL;2010-12-01 11:00;CYUL 011100Z 13015G21KT 12SM -RA BKN030 OVC045 08/06 A2986 RMK SC6SC2 RERA SLP112

CYUL;2010-12-01 12:00;CYUL 011200Z 12017KT 15SM -RA FEW025 BKN060 OVC100 08/06 A2983 RMK SF2SC4AC2 SLP102

CYUL;2010-12-01 13:00;CYUL 011300Z 12013G18KT 12SM -RA FEW025 BKN060 OVC080 09/07 A2980 RMK SF1SC6AC2 SLP093

CYUL;2010-12-01 14:00;CYUL 011400Z 10008KT 15SM -RA FEW020 OVC035 09/07 A2979 RMK SF2SC6 SLP088

CYUL;2010-12-01 15:00;CYUL 011500Z 10005KT 15SM -RA FEW015 OVC035 10/07 A2975 RMK SC2SC6 SLP077

CYUL;2010-12-01 16:00;CYUL 011600Z 09009KT 15SM -RA FEW015 OVC040 10/07 A2971 RMK SC1SC7 SLP061

CYUL;2010-12-01 16:40;CYUL 011640Z 11012G17KT 15SM FEW020 BKN040 OVC120 10/ RMK SC1SC6AC1

CYUL;2010-12-01 16:49;CYUL 011649Z 11012G17KT 15SM -RA FEW020 BKN040 OVC120 10/ RMK SC1SC5AC2 -RA INTMT

CYUL;2010-12-01 17:00;CYUL 011700Z 11014KT 15SM -RA BKN040 OVC120 11/07 A2962 RMK SC5AC3 PRESFR -RA INTMT SLP032

CYUL;2010-12-01 17:42;CYUL 011742Z 11013KT 15SM FEW030 BKN045 OVC120 11/ RMK SC2SC5AC2

CYUL;2010-12-01 18:00;CYUL 011800Z 13013G22KT 15SM FEW030 BKN045 OVC120 12/08 A2955 RMK SC2SC6AC1 PRESFR SLP009

CYUL;2010-12-01 18:40;CYUL 011840Z 13018G31KT 15SM -RA OVC038 12/ RMK SC8

CYUL;2010-12-01 19:00;CYUL 011900Z 13021G31KT 15SM -RA FEW030 OVC040 12/08 A2951 RMK SC2SC6 SLP994

CYUL;2010-12-01 20:00;CYUL 012000Z 12017G27KT 15SM SCT040 OVC100 12/08 A2945 RMK SC4AC4 PRESFR INTMT -RA SLP974

CYUL;2010-12-01 20:27;CYUL 012027Z 17013G24KT 8SM -RA BKN034 OVC100 12/ RMK SC7AC1 -RA INTMT

CYUL;2010-12-01 20:38;CYUL 012038Z 16013G24KT 2 1/2SM RA BR OVC030 11/ RMK SC8 -RA INTMT

CYUL;2010-12-01 21:00;CYUL 012100Z 18011G16KT 4SM -RA BR FEW009 BKN014 OVC028 10/09 A2953 RERA RMK SF1SC6SC2 PRESRR SLP000

CYUL;2010-12-01 21:20;CYUL 012120Z 23017KT 6SM -RA BR FEW008 BKN016 OVC025 08/ RMK SF2SC4SC2

CYUL;2010-12-01 21:36;CYUL 012136Z 22015KT 5SM -RA BR FEW008 BKN014 OVC020 08/ RMK SF2SC4SC2

CYUL;2010-12-01 22:00;CYUL 012200Z 24014G20KT 5SM -RA BR SCT007 BKN011 OVC018 07/06 A2958 RMK SF4SC3SC1 SLP019

CYUL;2010-12-01 22:40;CYUL 012240Z 23018G25KT 6SM -RA BR SCT007 BKN016 OVC025 05/ RMK SF3SC3SC2

CYUL;2010-12-01 23:00;CYUL 012300Z 23015G20KT 6SM -RA BR SCT007 BKN016 OVC030 04/04 A2962 RMK SF3SC3SC2 /R10/ SLP031

CYUL;2010-12-01 23:22;CYUL 012322Z 23018G25KT 5SM -RA BR SCT008 BKN012 OVC020 04/ RMK SF3SF3SC2

CYUL;2010-12-02 00:00;CYUL 020000Z 23022G27KT 7SM -RA SCT008 BKN012 OVC025 03/01 A2966 RMK SF3SF3SC2 SLP044

CYUL;2010-12-02 00:10;CYUL 020010Z 24018G25KT 5SM -RASN SCT009 BKN012 OVC020 02/ RMK SF3SF3SC2

CYUL;2010-12-02 00:30;CYUL 020030Z 24015G20KT 4SM -SN SCT007 OVC012 01/ RMK SF4SF4

CYUL;2010-12-02 00:50;CYUL 020050Z 25012G17KT 2SM -SN BKN007 OVC014 01/ RMK SF5SF3

CYUL;2010-12-02 01:00;CYUL 020100Z 25011G17KT 2 1/2SM -SN BKN006 OVC012 01/00 A2968 RMK SF6SF2 SLP052

CYUL;2010-12-02 01:46;CYUL 020146Z 24012KT 1 1/4SM -SN OVC006 01/ RMK SN3SF5

CYUL;2010-12-02 02:00;CYUL 020200Z 24010KT 3SM -SN BKN006 OVC010 01/00 A2971 RMK SF6SF2 /S01/ SLP063

CYUL;2010-12-02 02:28;CYUL 020228Z 23011KT 5SM -SN SCT006 OVC013 02/ RMK SF4SC4

CYUL;2010-12-02 02:45;CYUL 020245Z 23011KT 7SM -RASN FEW006 SCT012 OVC020 02/ RMK SF2SF2SC4

CYUL;2010-12-02 03:00;CYUL 020300Z 23009KT 8SM -RASN FEW009 BKN023 OVC040 02/01 A2972 RMK SF1SC6SC2 /S02/ SLP064

CYUL;2010-12-02 03:26;CYUL 020326Z 23013KT 15SM -RA FEW009 FEW014 OVC023 02/ RMK SF1SF2SC6

CYUL;2010-12-02 03:43;CYUL 020343Z 23011G16KT 15SM FEW015 BKN024 OVC038 03/ RMK SF2SC4SC2

CYUL;2010-12-02 04:00;CYUL 020400Z 24010KT 15SM FEW016 BKN035 OVC080 03/01 A2974 RMK SF2SC4AC2 SLP073

CYUL;2010-12-02 05:00;CYUL 020500Z 25014G19KT 15SM FEW012 BKN033 OVC070 02/01 A2975 RMK SF2SC4AC2 SLP076

CYUL;2010-12-02 05:36;CYUL 020536Z 24013KT 15SM -SN SCT016 OVC026 02/ RMK SF3SC5

CYUL;2010-12-02 06:00;CYUL 020600Z 24014KT 15SM -SN FEW016 OVC027 02/00 A2977 RMK SF2SC6 SLP083

CYUL;2010-12-02 07:00;CYUL 020700Z 25010G15KT 12SM -RASN BKN020 OVC040 02/M00 A2980 RMK SC5SC3 SLP093

CYUL;2010-12-02 08:00;CYUL 020800Z 24011G18KT 15SM SCT040 OVC100 02/M01 A2982 RMK SC3AC5 SLP099

CYUL;2010-12-02 09:00;CYUL 020900Z 24009G15KT 15SM FEW040 SCT080 01/M01 A2983 RMK SC1AC2 SLP103

CYUL;2010-12-02 10:00;CYUL 021000Z 25008KT 15SM FEW017 01/M02 A2986 RMK SC1 SLP114

CYUL;2010-12-02 11:00;CYUL 021100Z 26010G15KT 15SM FEW017 BKN028 01/M02 A2988 RMK SC1SC6 SLP120

CYUL;2010-12-02 12:00;CYUL 021200Z 25011KT 15SM FEW017 BKN035 01/M02 A2991 RMK SC1SC6 SLP131

CYUL;2010-12-02 13:00;CYUL 021300Z 25011KT 15SM FEW015 FEW045 FEW080 01/M03 A2993 RMK SC1SC1AC1 SLP139

CYUL;2010-12-02 14:00;CYUL 021400Z 25014KT 15SM FEW015 FEW090 01/M03 A2995 RMK SC1AC1 SLP145

CYUL;2010-12-02 15:00;CYUL 021500Z 26015G20KT 15SM FEW018 FEW080 02/M03 A2997 RMK SC1AC1 SLP152

CYUL;2010-12-02 16:00;CYUL 021600Z 27013KT 15SM SCT025 03/M02 A2997 RMK SC3 SLP152

CYUL;2010-12-02 17:00;CYUL 021700Z 26011G17KT 15SM BKN025 03/M02 A2998 RMK SC6 SLP154

CYUL;2010-12-02 18:00;CYUL 021800Z 25012G20KT 15SM SCT028 03/M02 A2998 RMK SC4 SLP155

CYUL;2010-12-02 19:00;CYUL 021900Z 24012KT 15SM BKN028 03/M03 A2999 RMK SC7 SLP157

CYUL;2010-12-02 20:00;CYUL 022000Z 25010KT 15SM OVC030 02/M02 A3000 RMK SC8 SLP160

CYUL;2010-12-02 21:00;CYUL 022100Z 29008KT 15SM BKN025 OVC030 02/M01 A3001 RMK SC6SC2 SLP166

CYUL;2010-12-02 22:00;CYUL 022200Z 28006KT 15SM OVC028 02/M02 A3005 RMK SC8 SLP177

CYUL;2010-12-02 23:00;CYUL 022300Z 28005KT 15SM OVC030 02/M02 A3006 RMK SC8 SLP180

CYUL;2010-12-03 00:00;CYUL 030000Z 28004KT 15SM OVC035 01/M02 A3006 RMK SC8 SLP181

CYUL;2010-12-03 01:00;CYUL 030100Z 28003KT 15SM OVC030 01/M02 A3007 RMK SC8 SLP184

CYUL;2010-12-03 02:00;CYUL 030200Z 26002KT 15SM OVC033 02/M02 A3007 RMK SC8 SLP184

CYUL;2010-12-03 02:48;CYUL 030248Z 25003KT 15SM -SHSN OVC035 02/ RMK SC8

CYUL;2010-12-03 03:00;CYUL 030300Z 26006KT 15SM OVC038 02/M02 A3007 RMK SC8 SLP183

CYUL;2010-12-03 03:52;CYUL 030352Z 25005KT 15SM -SHSN FEW022 BKN043 01/ RMK CF1SC6

CYUL;2010-12-03 04:00;CYUL 030400Z 26005KT 15SM -SHSN FEW022 BKN044 01/M01 A3006 RMK CF1SC6 SLP181

CYUL;2010-12-03 04:31;CYUL 030431Z 26004KT 15SM FEW022 BKN044 01/ RMK CF1SC7

CYUL;2010-12-03 05:00;CYUL 030500Z 26004KT 15SM FEW022 BKN045 01/M01 A3004 RMK CF1SC6 SLP176

CYUL;2010-12-03 06:00;CYUL 030600Z 26003KT 15SM FEW022 FEW045 00/M01 A3004 RMK SC1SC1 SLP173

CYUL;2010-12-03 06:29;CYUL 030629Z 05002KT 12SM BKN009 M00/ RMK ST4

CYUL;2010-12-03 06:41;CYUL 030641Z 04003KT 12SM OVC009 00/ RMK ST7

CYUL;2010-12-03 07:00;CYUL 030700Z 36003KT 12SM BKN008 M00/M02 A3004 RMK SF7 SLP176

CYUL;2010-12-03 07:47;CYUL 030747Z 00000KT 12SM FEW008 SCT018 SCT025 M01/ RMK SF1SC2SC1

CYUL;2010-12-03 08:00;CYUL 030800Z 01002KT 12SM FEW008 OVC020 M01/M02 A3004 RMK SF2SC6 SLP175

CYUL;2010-12-03 09:00;CYUL 030900Z 33004KT 12SM BKN020 M01/M02 A3004 RMK SC7 SLP173

CYUL;2010-12-03 10:00;CYUL 031000Z 29002KT 12SM FEW015 BKN075 M01/M02 A3004 RMK SC1AC6 SLP173

CYUL;2010-12-03 11:00;CYUL 031100Z 00000KT 12SM FEW055 BKN080 M01/M02 A3003 RMK SC2AC6 SLP171

CYUL;2010-12-03 12:00;CYUL 031200Z 24005KT 12SM FEW015 SCT075 SCT100 M01/M02 A3003 RMK SF1AC4AC1 SLP171

CYUL;2010-12-03 13:00;CYUL 031300Z 25005KT 10SM FEW015 BKN080 M00/M01 A3004 RMK SF1AC7 SLP173

CYUL;2010-12-03 14:00;CYUL 031400Z 27004KT 15SM FEW015 BKN080 00/M01 A3003 RMK SF1AC7 SLP172

CYUL;2010-12-03 15:00;CYUL 031500Z 28005KT 15SM FEW050 SCT080 01/M01 A3003 RMK SC1AC2 SLP171

CYUL;2010-12-03 17:00;CYUL 031700Z 29006KT 30SM FEW028 FEW110 FEW240 03/M02 A2999 RMK SC1AC1CI1 SLP156

CYUL;2010-12-03 18:00;CYUL 031800Z CCA 31006KT 15SM FEW030 FEW100 SCT240 03/M02 A2997 RMK SC2AC1CI1 CU EMBD SLP151

CYUL;2010-12-03 19:00;CYUL 031900Z 28009KT 15SM SCT043 SCT170 BKN240 04/M02 A2997 RMK SC2AC1CI1 CU EMBD SLP150

CYUL;2010-12-03 20:00;CYUL 032000Z 30008KT 15SM FEW040 FEW150 BKN240 03/M04 A2998 RMK SC1AC1CI2 SLP155

CYUL;2010-12-03 21:00;CYUL 032100Z 30008KT 15SM FEW032 FEW150 BKN240 01/M04 A2999 RMK SC1AC1CI2 SLP156

CYUL;2010-12-03 22:00;CYUL 032200Z 31007KT 15SM FEW040 FEW240 01/M05 A3000 RMK SC1CI1 SLP160

CYUL;2010-12-03 23:00;CYUL 032300Z 32008KT 15SM SCT200 M00/M05 A3000 RMK CI1 SLP162

CYUL;2010-12-04 00:00;CYUL 040000Z 31006KT 15SM FEW240 M01/M05 A3001 RMK CI1 SLP165

CYUL;2010-12-04 01:00;CYUL 040100Z 31007KT 15SM SCT220 M01/M05 A3000 RMK CI1 SLP162

CYUL;2010-12-04 02:00;CYUL 040200Z 31008KT 15SM BKN220 M01/M06 A3000 RMK CI2 SLP160

CYUL;2010-12-04 03:00;CYUL 040300Z 31007KT 15SM BKN220 M02/M06 A2999 RMK CI2 SLP157

CYUL;2010-12-04 04:00;CYUL 040400Z 31006KT 15SM BKN180 M02/M06 A2998 RMK AS3 SLP153

CYUL;2010-12-04 05:00;CYUL 040500Z 31005KT 15SM SKC M03/M06 A2996 RMK SLP148

CYUL;2010-12-04 06:00;CYUL 040600Z 30006KT 15SM FEW220 M04/M07 A2995 RMK CI1 SLP143

CYUL;2010-12-04 07:00;CYUL 040700Z 30005KT 15SM FEW015 FEW240 M04/M07 A2994 RMK SF1CI0 SLP140

CYUL;2010-12-04 08:00;CYUL 040800Z 29005KT 15SM FEW015 FEW100 BKN240 M04/M06 A2992 RMK SF1AC1CI2 SLP135

CYUL;2010-12-04 09:00;CYUL 040900Z 29005KT 15SM FEW035 BKN045 M04/M06 A2991 RMK SC1SC6 SLP130

CYUL;2010-12-04 10:00;CYUL 041000Z 29006KT 15SM OVC040 M02/M05 A2989 RMK SC8 SLP125

CYUL;2010-12-04 11:00;CYUL 041100Z 29007KT 15SM FEW015 OVC050 M02/M05 A2987 RMK SF1SC8 SLP118

CYUL;2010-12-04 12:00;CYUL 041200Z 29007KT 15SM FEW015 BKN050 M02/M05 A2986 RMK SF1SC7 SLP114

CYUL;2010-12-04 13:00;CYUL 041300Z 28007KT 30SM FEW015 BKN055 BKN240 M02/M05 A2985 RMK SF1SC6CI1 SLP110

CYUL;2010-12-04 14:00;CYUL 041400Z 28008KT 30SM FEW015 BKN055 BKN240 M01/M05 A2983 RMK SF1SC6CI1 SLP105

CYUL;2010-12-04 15:00;CYUL 041500Z 29012KT 30SM FEW020 BKN050 OVC240 M01/M05 A2981 RMK SF1SC6CI1 SLP097

CYUL;2010-12-04 16:00;CYUL 041600Z 28011G16KT 30SM FEW020 BKN057 BKN074 BKN240 M01/M05 A2978 RMK SF1SC4AC2CI1 SLP086

CYUL;2010-12-04 16:32;CYUL 041632Z 28013KT 15SM -SHSN SCT028 BKN055 OVC240 M01/ RMK SC3SC4CI1

CYUL;2010-12-04 17:00;CYUL 041700Z 27015KT 10SM -SHSN FEW027 BKN039 BKN060 OVC240 M02/M06 A2976 RMK SC2SC4SC2CI1 SLP081

CYUL;2010-12-04 17:47;CYUL 041747Z 28012G19KT 3SM -SN BR FEW013 BKN022 OVC030 M02/ RMK SF2SC4SC2

CYUL;2010-12-04 17:54;CYUL 041754Z 27014KT 2 1/2SM -SN BR SCT012 BKN020 OVC028 M02/ RMK SF3SC3SC2

CYUL;2010-12-04 18:00;CYUL 041800Z 28012G17KT 2 1/2SM -SN BR SCT012 BKN020 OVC030 M02/M05 A2975 RMK SF3SC3SC2 SLP076

CYUL;2010-12-04 18:10;CYUL 041810Z 27012KT 4SM -SN BR FEW015 BKN022 OVC037 M02/ RMK SF2SC5SC2

CYUL;2010-12-04 19:00;CYUL 041900Z 27012KT 8SM -SN FEW014 BKN020 OVC038 M02/M05 A2974 RMK SF2SF4SC2 SLP073

CYUL;2010-12-04 20:00;CYUL 042000Z 27013KT 15SM -SN FEW018 BKN035 OVC045 M02/M05 A2974 RMK SC2SC4SC2 VRY LGT SN SLP072

CYUL;2010-12-04 21:00;CYUL 042100Z 27013G18KT 15SM -SN FEW014 BKN025 OVC040 M02/M05 A2974 RMK SF1SC5SC2 SLP073

CYUL;2010-12-04 22:00;CYUL 042200Z 28011G17KT 15SM -SN FEW016 OVC040 M03/M05 A2974 RMK SF1SC7 SLP073

CYUL;2010-12-04 22:48;CYUL 042248Z 28011G17KT 15SM FEW017 OVC040 M03/ RMK SF1SC7

CYUL;2010-12-04 23:00;CYUL 042300Z 28011G16KT 15SM FEW018 OVC040 M03/M06 A2974 RMK SF1SC7 SLP072

CYUL;2010-12-05 00:00;CYUL 050000Z 29012KT 15SM FEW018 OVC042 M03/M07 A2973 RMK SF1SC7 SLP069

CYUL;2010-12-05 01:00;CYUL 050100Z 29013KT 15SM FEW028 SCT040 OVC080 M03/M07 A2971 RMK SC1SC3AC4 SLP064

CYUL;2010-12-05 01:51;CYUL 050151Z 29011KT 15SM -SHSN FEW030 BKN060 OVC090 M03/ RMK SC1SC6AC1

CYUL;2010-12-05 02:00;CYUL 050200Z 27010G15KT 15SM -SHSN FEW030 BKN058 OVC085 M03/M07 A2970 RMK SC2SC6AC1 SLP059

CYUL;2010-12-05 03:00;CYUL 050300Z 28010G15KT 15SM -SN FEW020 FEW045 OVC075 M04/M08 A2968 RMK CF1SC1AS5 SLP054

CYUL;2010-12-05 04:00;CYUL 050400Z 28013KT 15SM -SN FEW015 BKN050 M04/M08 A2967 RMK SF1SC4 SLP050

CYUL;2010-12-05 05:00;CYUL 050500Z CCA 27014KT 15SM -SN FEW015 FEW040 BKN100 M05/M08 A2967 RMK SF1SC1AS2 SLP048

CYUL;2010-12-05 05:38;CYUL 050538Z 27013KT 15SM FEW015 FEW040 FEW100 M05/ RMK SF1SC1AC1

CYUL;2010-12-05 06:00;CYUL 050600Z 27011G16KT 15SM FEW018 FEW100 M05/M08 A2965 RMK SF1AC1 SLP042

CYUL;2010-12-05 07:00;CYUL 050700Z 26012KT 15SM FEW018 BKN053 M05/M08 A2964 RMK SF2SC2 SLP041

CYUL;2010-12-05 08:00;CYUL 050800Z 26013KT 15SM FEW016 OVC045 M05/M08 A2964 RMK SF2SC5 SLP039

CYUL;2010-12-05 09:00;CYUL 050900Z 26011G16KT 15SM FEW016 BKN045 M05/M08 A2963 RMK SF2SC5 SLP037

CYUL;2010-12-05 10:00;CYUL 051000Z 26011G16KT 15SM FEW016 OVC040 M05/M08 A2961 RMK SF2SC6 SLP031

CYUL;2010-12-05 11:00;CYUL 051100Z 26014KT 15SM FEW016 OVC040 M06/M09 A2961 RMK SF1SC7 SLP030

CYUL;2010-12-05 12:00;CYUL 051200Z 25012G17KT 15SM FEW016 BKN040 M06/M09 A2960 RMK SF1SC6 SLP027

CYUL;2010-12-05 13:00;CYUL 051300Z 25014KT 15SM FEW016 BKN040 M06/M09 A2961 RMK SF1SC6 SLP030

CYUL;2010-12-05 14:00;CYUL 051400Z 25009KT 15SM FEW016 OVC040 M06/M09 A2962 RMK SC2SC6 SLP032

CYUL;2010-12-05 14:45;CYUL 051445Z 25011KT 15SM -SHSN FEW016 OVC040 M05/ RMK SC2SC5

CYUL;2010-12-05 15:00;CYUL 051500Z 26010G15KT 15SM -SHSN SCT018 OVC040 M05/M09 A2961 RMK SC2SC6 SLP030

CYUL;2010-12-05 16:00;CYUL 051600Z 25011KT 15SM -SN BKN020 OVC040 M05/M08 A2959 RMK SC5SC3 VRY LGT SN SLP024

CYUL;2010-12-05 17:00;CYUL 051700Z 23013KT 15SM -SN BKN021 OVC040 M04/M09 A2958 RMK SC6SC2 SLP019

CYUL;2010-12-05 23:00;CYUL 052300Z 26009KT 15SM -SN BKN022 OVC035 M04/M08 A2956 RMK SC6SC2 SLP012

CYUL;2010-12-06 00:00;CYUL 060000Z 26010KT 15SM -SN BKN024 OVC038 M04/M07 A2956 RMK SC6SC2 SLP012

CYUL;2010-12-06 01:00;CYUL 060100Z 24007KT 15SM -SN BKN022 OVC037 M04/M06 A2956 RMK SC5SC3 SLP011

CYUL;2010-12-06 02:00;CYUL 060200Z 24007KT 15SM -SN FEW022 BKN034 OVC045 M04/M06 A2955 RMK SC2SC4SC2 SLP010

CYUL;2010-12-06 03:00;CYUL 060300Z 25006KT 15SM -SN SCT014 OVC030 M04/M06 A2955 RMK SF3SC5 SLP008

CYUL;2010-12-06 03:30;CYUL 060330Z 25006KT 15SM -SN BKN013 OVC033 M03/ RMK SC5SC3

CYUL;2010-12-06 04:00;CYUL 060400Z 26006KT 8SM -SN BKN013 OVC030 M04/M05 A2953 RMK SC6SC2 SLP002

CYUL;2010-12-06 05:00;CYUL 060500Z 28006KT 10SM -SN BKN013 BKN030 OVC057 M03/M05 A2952 RMK SC5SC2SC2 SLP999

CYUL;2010-12-06 05:10;CYUL 060510Z 27008KT 10SM -SN SCT013 SCT030 OVC055 M03/ RMK SC3SC1SC3

CYUL;2010-12-06 06:00;CYUL 060600Z 27006KT 15SM -SN BKN013 BKN036 OVC057 M03/M06 A2952 RMK SC5SC1SC2 SLP998

CYUL;2010-12-06 07:00;CYUL 060700Z 27009KT 15SM -SN SCT015 OVC033 M03/M06 A2951 RMK SC3SC5 SLP997

CYUL;2010-12-06 08:00;CYUL 060800Z 27011KT 15SM -SN BKN015 OVC030 M04/M06 A2950 RMK SC6SC2 VRY LGT SN SLP992

CYUL;2010-12-06 09:00;CYUL 060900Z 27010KT 15SM -SN FEW016 OVC036 M04/M07 A2949 RMK SC2SC6 SLP988

CYUL;2010-12-06 10:00;CYUL 061000Z 28010KT 15SM -SN FEW015 OVC028 M04/M07 A2948 RMK SC1SC7 SLP987

CYUL;2010-12-06 11:00;CYUL 061100Z 28009KT 15SM -SN FEW015 BKN030 OVC040 M04/M07 A2947 RMK SC1SC6SC1 SLP982

CYUL;2010-12-06 12:00;CYUL 061200Z 28009KT 8SM -SN FEW020 OVC032 M04/M07 A2945 RMK SC1SC7 SLP977

CYUL;2010-12-06 13:00;CYUL 061300Z 28011KT 15SM -SN FEW015 OVC035 M04/M07 A2944 RMK SC1SC7 SLP972

CYUL;2010-12-06 14:00;CYUL 061400Z 27014KT 15SM -SN FEW012 OVC030 M04/M07 A2942 RMK SF1SC7 SLP966

CYUL;2010-12-06 15:00;CYUL 061500Z 27013KT 12SM -SN FEW013 BKN030 OVC045 M04/M07 A2940 RMK SF1SC6SC2 SLP960

CYUL;2010-12-06 16:00;CYUL 061600Z CCA 27016G21KT 12SM -SN FEW013 OVC035 M04/M08 A2935 RMK SF1SC8 PRESFR SLP940

CYUL;2010-12-06 17:00;CYUL 061700Z 27018KT 15SM -SN FEW015 OVC038 M05/M08 A2930 RMK SF1SC7 SLP926

CYUL;2010-12-06 17:28;CYUL 061728Z 28017G25KT 2 1/2SM -SN OVC033 M05/ RMK SC8

CYUL;2010-12-06 18:00;CYUL 061800Z 27013G24KT 2 1/2SM -SN OVC030 M05/M07 A2927 RMK SC8 SLP915

CYUL;2010-12-06 18:29;CYUL 061829Z 27015G20KT 2SM -SN BKN012 OVC025 M04/ RMK SF6SC2

CYUL;2010-12-06 18:47;CYUL 061847Z 27014KT 1 3/4SM -SN BKN009 OVC021 M04/ RMK SF6SC2

CYUL;2010-12-06 19:00;CYUL 061900Z 27015G21KT 1 3/4SM -SN BKN009 OVC020 M04/M07 A2925 RMK SF6SC2 SLP907

CYUL;2010-12-06 19:25;CYUL 061925Z 27016G22KT 1 1/4SM -SN BKN009 OVC020 M04/ RMK SF6SC2

CYUL;2010-12-06 19:48;CYUL 061948Z 27015KT 1SM R24R/5500FT/N R24L/6000FT/D -SN BKN005 OVC016 M04/ RMK SF6SC2

CYUL;2010-12-06 20:00;CYUL 062000Z 27014G21KT 1SM R24R/5500FT/N R24L/5500FT/U -SN DRSN BKN005 OVC017 M04/M06 A2924 RMK SF6SC2 /S01/ SLP904

CYUL;2010-12-06 20:54;CYUL 062054Z 27016G21KT 1SM R24R/5500FT/U R24L/6000FT/D -SN DRSN BKN004 OVC017 M04/ RMK SF6SC2

CYUL;2010-12-06 21:00;CYUL 062100Z 27016G24KT 3/4SM R24R/5500FT/N R24L/6000FT/N -SN DRSN BKN004 OVC015 M04/M05 A2923 RMK SN2SF6SC1 /S03/ SLP901

CYUL;2010-12-06 21:21;CYUL 062121Z 26016G22KT 1SM R24R/6000FT/N R24L/6000FT/N -SN DRSN BKN005 OVC012 M04/ RMK SN2SF6SC1

CYUL;2010-12-06 22:00;CYUL 062200Z 26016G24KT 1SM R24R/6000FT/U R24L/3000V5000FT/N -SN DRSN BKN003 OVC012 M04/M05 A2923 RMK SN2SF5SC1 /S04/ SLP899

CYUL;2010-12-06 22:33;CYUL 062233Z 27019G25KT 3/4SM R24R/6000FT/U R24L/3000V5500FT/N -SN DRSN OVC004 M04/ RMK SN2SF6

CYUL;2010-12-06 23:00;CYUL 062300Z 26021G28KT 3/4SM R24R/6000FT/N R24L/3000V6000FT/D -SN DRSN OVC004 M04/M05 A2921 RMK SN2SF6 /S05/ SLP892

CYUL;2010-12-06 23:14;CYUL 062314Z 27020G29KT 3/4SM R24R/6000FT/N R24L/5500FT/N -SN DRSN OVC005 M04/ RMK SN2SF6

CYUL;2010-12-06 23:55;CYUL 062355Z 27021G27KT 1SM R24R/6000FT/N R24L/6000FT/N -SN DRSN BKN005 OVC015 M04/ RMK SF6SC2

CYUL;2010-12-07 00:00;CYUL 070000Z 27021G27KT 1SM R24R/6000FT/N R24L/3000V5000FT/N -SN DRSN BKN005 OVC012 M04/M06 A2919 RMK SF6SC2 /S07/ SLP887

CYUL;2010-12-07 00:17;CYUL 070017Z 27020G27KT 1 1/4SM -SN DRSN BKN006 OVC017 M04/ RMK SF6SC2

CYUL;2010-12-07 01:00;CYUL 070100Z 26022G28KT 1 1/4SM -SN DRSN BKN007 OVC017 M05/M06 A2917 RMK SF6SC2 /S01/ SLP881

CYUL;2010-12-07 01:13;CYUL 070113Z 25022KT 1 1/2SM -SN DRSN BKN005 OVC017 M05/ RMK SF6SC2

CYUL;2010-12-07 02:00;CYUL 070200Z CCA 25022G30KT 1 1/4SM -SN DRSN BKN005 OVC016 M05/M06 A2916 RMK SF6SC2 /S02/ SLP877

CYUL;2010-12-07 02:13;CYUL 070213Z 25020KT 1SM R24R/6000FT/N R24L/4000V6000FT/D -SN DRSN BKN005 OVC016 M05/ RMK SN2SF6SC1

CYUL;2010-12-07 02:38;CYUL 070238Z 25019KT 1SM R24R/6000FT/N R24L/6000FT/U -SN DRSN BKN004 OVC016 M05/ RMK SN2SF6SC1

CYUL;2010-12-07 03:00;CYUL 070300Z 25021G26KT 3/4SM R24R/P6000FT/U R24L/P6000FT/D -SN DRSN VV005 M05/M07 A2916 RMK SN8 /S04/ SLP875

CYUL;2010-12-07 03:11;CYUL 070311Z 25021KT 1SM R24R/P6000FT/U R24L/4500VP6000FT/U -SN DRSN BKN006 OVC027 M05/ RMK SN2SF3SC3

CYUL;2010-12-07 03:20;CYUL 070320Z 25022G31KT 1 1/2SM R24R/P6000FT/U R24L/4500VP6000FT/U -SN DRSN SCT004 BKN012 OVC025 M05/ RMK SF3SF2SC3

CYUL;2010-12-07 03:30;CYUL 070330Z 25022G28KT 3SM -SN DRSN FEW004 BKN014 OVC025 M05/ RMK SF2SF2SC3

CYUL;2010-12-07 04:00;CYUL 070400Z 25020G26KT 2 1/2SM -SN DRSN BKN013 OVC026 M05/M07 A2916 RMK SN2SC3SC2 /S05/ SLP877

CYUL;2010-12-07 04:10;CYUL 070410Z 25022G30KT 1 3/4SM -SN DRSN BKN009 OVC020 M05/ RMK SN3SF3SC2

CYUL;2010-12-07 05:00;CYUL 070500Z 25021G29KT 1 1/4SM -SN DRSN OVC009 M06/M07 A2915 RMK SN3SF5 SLP874

CYUL;2010-12-07 06:00;CYUL 070600Z 25021G27KT 1 1/2SM -SN DRSN OVC009 M06/M07 A2916 RMK SN2SF6 /S06/ SLP876

CYUL;2010-12-07 06:40;CYUL 070640Z 25018G30KT 1SM R24R/P6000FT/D R24L/P6000FT/N -SN DRSN VV008 M06/ RMK SN8

CYUL;2010-12-07 07:00;CYUL 070700Z 25019G28KT 1SM R24R/P6000FT/D R24L/P6000FT/U -SN DRSN VV008 M06/M07 A2917 RMK SN8 /S01/ SLP879

CYUL;2010-12-07 07:42;CYUL 070742Z 25019G25KT 3/4SM R24R/P6000FT/N R24L/P6000FT/D -SN BLSN VV006 M06/ RMK SN8

CYUL;2010-12-07 08:00;CYUL 070800Z 24019G24KT 3/4SM R24R/P6000FT/U R24L/P6000FT/N -SN BLSN VV005 M06/M07 A2917 RMK SN8 /S02/ SLP879

CYUL;2010-12-07 09:00;CYUL 070900Z 25019G24KT 1SM R24R/P6000FT/U R24L/P6000FT/D -SN BLSN VV008 M06/M07 A2918 RMK SN8 /S03/ SLP883

CYUL;2010-12-07 10:00;CYUL 071000Z 24020KT 1SM R24R/P6000FT/N R24L/P6000FT/U -SN DRSN VV008 M06/M07 A2919 REBLSN RMK SN8 SLP887

CYUL;2010-12-07 11:00;CYUL 071100Z 24017G25KT 1SM R24R/P6000FT/D R24L/P6000FT/U -SN DRSN VV007 M06/M07 A2921 RMK SN8 /S05/ SLP893

CYUL;2010-12-07 12:00;CYUL 071200Z 25019G25KT 1SM R24R/P6000FT/U R24L/4500VP6000FT/N -SN DRSN VV008 M06/M07 A2923 RMK SN8 /S06/ SLP900

CYUL;2010-12-07 12:50;CYUL 071250Z 24019G25KT 3/4SM R24R/6000FT/D R24L/1400V1600FT/N -SN DRSN VV006 M06/ RMK SN8

CYUL;2010-12-07 13:00;CYUL 071300Z 24019G24KT 3/4SM R24R/5500FT/N R24L/5000FT/N -SN DRSN VV006 M06/M07 A2926 RMK SN8 /S01/ SLP910

CYUL;2010-12-07 14:00;CYUL 071400Z 25018G24KT 3/4SM R24R/5000FT/N R24L/5500FT/U -SN DRSN VV006 M06/M07 A2928 RMK SN8 /S02/ SLP918

CYUL;2010-12-07 15:00;CYUL 071500Z 25021KT 3/4SM R24R/4500FT/U R24L/4000FT/N -SN DRSN VV008 M06/M07 A2931 RMK SN8 /S03/ SLP928

CYUL;2010-12-07 16:00;CYUL 071600Z 25017G22KT 3/4SM R24R/5000FT/N R24L/4000FT/N -SN DRSN VV007 M06/M07 A2932 RMK SN8 /S04/ SLP932

CYUL;2010-12-07 16:15;CYUL 071615Z 25018G25KT 1SM R24R/6000FT/U R24L/3500V5000FT/N -SN DRSN VV009 M05/ RMK SN8

CYUL;2010-12-07 16:52;CYUL 071652Z 25018KT 1 1/4SM -SN DRSN BKN010 OVC025 M05/ RMK SN3SF4SC1

CYUL;2010-12-07 17:00;CYUL 071700Z 25018KT 1 1/4SM R24R/6000FT/N R24L/3500V6000FT/D -SN DRSN BKN010 OVC025 M05/M07 A2933 RMK SN2SF4SC2 /S05/ SLP936

CYUL;2010-12-07 17:26;CYUL 071726Z 25019G26KT 1SM R24R/6000FT/D R24L/6000FT/U -SN DRSN BKN009 OVC020 M05/ RMK SN3SF4SC1

CYUL;2010-12-07 17:52;CYUL 071752Z 25017KT 1 1/2SM -SN DRSN BKN015 OVC025 M05/ RMK SF6SC2

CYUL;2010-12-07 18:00;CYUL 071800Z 25016KT 1 1/2SM -SN BKN015 OVC025 M05/M07 A2935 RMK SF6SC2 SLP942

CYUL;2010-12-07 18:17;CYUL 071817Z 26016KT 1 1/2SM -SN BKN014 OVC025 M05/ RMK SF6SC2

CYUL;2010-12-07 18:35;CYUL 071835Z 26016KT 1 1/4SM R24R/6000FT/U R24L/4500V6000FT/U -SN BKN008 OVC022 M05/ RMK SN2SF6SC1

CYUL;2010-12-07 19:00;CYUL 071900Z 25018KT 1 1/2SM -SN BKN014 OVC028 M05/M07 A2937 RMK SF6SC2 /S01/ SLP948

CYUL;2010-12-07 19:15;CYUL 071915Z 26017KT 1 1/4SM -SN BKN009 OVC026 M05/ RMK SF6SC2

CYUL;2010-12-07 20:00;CYUL 072000Z 26016KT 1SM R24R/6000FT/U R24L/6000FT/U -SN DRSN VV008 M05/M07 A2940 RMK SN8 SLP958

CYUL;2010-12-07 20:20;CYUL 072020Z 27019KT 1 1/4SM -SN DRSN VV010 M05/ RMK SN8

CYUL;2010-12-07 20:33;CYUL 072033Z 26018KT 1 1/2SM -SN DRSN BKN015 OVC035 M05/ RMK SF6SC2

CYUL;2010-12-07 21:00;CYUL 072100Z 26017G22KT 2 1/2SM -SN DRSN BKN020 OVC037 M05/M08 A2942 RMK SC6SC2 SLP966

CYUL;2010-12-07 22:00;CYUL 072200Z 26017KT 2SM -SN DRSN BKN018 OVC030 M05/M07 A2946 RMK SC6SC2 SLP978

CYUL;2010-12-07 23:00;CYUL 072300Z 26017KT 2SM -SN DRSN BKN014 OVC030 M05/M08 A2949 RMK SC6SC2 SLP988

CYUL;2010-12-07 23:14;CYUL 072314Z 26018KT 2SM -SN DRSN SCT009 OVC020 M06/ RMK SF3SC5

CYUL;2010-12-07 23:55;CYUL 072355Z 27016G24KT 2 1/2SM -SN DRSN BKN020 OVC035 M06/ RMK SC5SC3

CYUL;2010-12-08 00:00;CYUL 080000Z 27015KT 2 1/2SM -SN DRSN BKN020 OVC035 M06/M08 A2951 RMK SC5SC3 SLP997

CYUL;2010-12-08 00:35;CYUL 080035Z 27012G19KT 2 1/2SM -SN DRSN BKN011 OVC030 M06/ RMK SC6SC2

CYUL;2010-12-08 01:00;CYUL 080100Z 27019KT 2 1/2SM -SN DRSN BKN012 OVC028 M06/M08 A2953 RMK SF6SC2 SLP001

CYUL;2010-12-08 01:39;CYUL 080139Z 27013G18KT 3SM -SN BKN015 OVC040 M06/ RMK SF6SC2

CYUL;2010-12-08 02:00;CYUL 080200Z 26012G17KT 2 1/2SM -SN BKN017 OVC025 M06/M09 A2955 RMK SC6SC2 SLP008

CYUL;2010-12-08 02:42;CYUL 080242Z 27014KT 2SM -SN BKN013 OVC025 M06/ RMK SC6SC2

CYUL;2010-12-08 03:00;CYUL 080300Z 27016KT 3SM -SN FEW010 BKN015 OVC025 M07/M09 A2956 RMK SF1SC6SC2 SLP013

CYUL;2010-12-08 03:26;CYUL 080326Z 27016G22KT 2 1/2SM -SN BKN014 OVC030 M07/ RMK SF6SC2

CYUL;2010-12-08 04:00;CYUL 080400Z 27016KT 4SM -SN DRSN SCT014 OVC027 M07/M09 A2958 RMK SF3SC5 SLP019

CYUL;2010-12-08 05:00;CYUL 080500Z 26014KT 2 1/2SM -SN DRSN BKN012 OVC020 M07/M09 A2959 RMK SN2SF5SC2 SLP023

CYUL;2010-12-08 05:27;CYUL 080527Z 27011G17KT 4SM -SN DRSN SCT014 BKN022 OVC040 M07/ RMK SF3SC4SC1

CYUL;2010-12-08 06:00;CYUL 080600Z 27013KT 6SM -SN DRSN FEW012 BKN030 OVC050 M07/M11 A2960 RMK SF2SC5SC2 /S01/ SLP026

CYUL;2010-12-08 06:40;CYUL 080640Z 25012KT 3SM -SN DRSN BKN013 OVC030 M08/ RMK SF5SC3

CYUL;2010-12-08 07:00;CYUL 080700Z 25011KT 3SM -SN DRSN BKN013 OVC020 M08/M10 A2962 RMK SF6SC2 SLP033

CYUL;2010-12-08 07:32;CYUL 080732Z 25011KT 2 1/2SM -SN DRSN BKN011 OVC020 M08/ RMK SF6SC2

CYUL;2010-12-08 08:00;CYUL 080800Z 26010G19KT 1 1/2SM -SN DRSN BKN009 OVC018 M08/M10 A2963 RMK SN2SF5SC2 SLP037

CYUL;2010-12-08 08:37;CYUL 080837Z 25011KT 1SM R24R/P6000FT/D R24L/P6000FT/D -SN DRSN VV007 M08/ RMK SN8

CYUL;2010-12-08 09:00;CYUL 080900Z 25012KT 1SM R24R/P6000FT/N R24L/P6000FT/U -SN DRSN VV008 M08/M10 A2964 RMK SN8 SLP041

CYUL;2010-12-08 09:16;CYUL 080916Z 25011KT 1 1/4SM -SN VV009 M08/ RMK SN8

CYUL;2010-12-08 09:43;CYUL 080943Z 25012KT 1 1/2SM -SN DRSN OVC012 M08/ RMK SN3SF5

CYUL;2010-12-08 10:00;CYUL 081000Z 25011KT 3SM -SN DRSN BKN014 OVC020 M08/M10 A2965 RMK SF6SC2 /S01/ SLP044

CYUL;2010-12-08 11:00;CYUL 081100Z 25012KT 3SM -SN DRSN BKN012 OVC020 M09/M11 A2968 RMK SF6SC2 SLP053

CYUL;2010-12-08 12:00;CYUL 081200Z 25015KT 2SM -SN DRSN BKN010 OVC019 M09/M11 A2970 RMK SF6SC2 /S02/ SLP060

CYUL;2010-12-08 12:23;CYUL 081223Z 26013KT 3SM -SN DRSN BKN012 OVC020 M09/ RMK SF6SC2

CYUL;2010-12-08 13:00;CYUL 081300Z 25013KT 4SM -SN DRSN SCT012 BKN018 BKN040 M09/M11 A2972 RMK SF4SC2SC1 SLP065

CYUL;2010-12-08 14:00;CYUL 081400Z 25014KT 8SM -SN DRSN FEW014 BKN025 OVC040 M09/M12 A2974 RMK SF2SC4SC2 SLP073

CYUL;2010-12-08 14:30;CYUL 081430Z 27015KT 10SM DRSN FEW012 BKN023 BKN050 M09/ RMK SF2SC3SC2

CYUL;2010-12-08 15:00;CYUL 081500Z 26012G18KT 12SM DRSN FEW015 BKN028 M09/M12 A2976 RMK SF2SC4 SLP080

CYUL;2010-12-08 16:00;CYUL 081600Z 27017G22KT 12SM DRSN FEW018 BKN027 BKN055 M09/M13 A2976 RMK SF2SC3SC1 SLP080

CYUL;2010-12-08 17:00;CYUL 081700Z 27015G20KT 15SM DRSN FEW018 BKN028 BKN037 M08/M13 A2977 RMK SF2SC5SC1 SLP083

CYUL;2010-12-08 18:00;CYUL 081800Z 25018KT 15SM DRSN FEW018 BKN026 OVC035 M08/M13 A2978 RMK SF1SC6SC2 SLP087

CYUL;2010-12-08 19:00;CYUL 081900Z 26015G21KT 15SM DRSN BKN025 BKN038 M08/M13 A2979 RMK SC4SC2 SLP090

CYUL;2010-12-08 20:00;CYUL 082000Z 28014G22KT 15SM DRSN SCT026 OVC036 M08/M13 A2982 RMK SC3SC5 SLP099

CYUL;2010-12-08 20:44;CYUL 082044Z 27011G18KT 12SM -SHSN DRSN BKN022 OVC035 M08/ RMK SC5SC3

CYUL;2010-12-08 21:00;CYUL 082100Z 27016KT 10SM -SHSN DRSN FEW016 BKN028 OVC037 M08/M12 A2984 RMK SF2SC5SC2 SLP109

CYUL;2010-12-08 21:14;CYUL 082114Z 25015KT 3SM -SN DRSN FEW014 OVC023 M08/ RMK SF2SC6

CYUL;2010-12-08 21:33;CYUL 082133Z 25014KT 5SM -SN DRSN FEW013 BKN020 OVC032 M08/ RMK SF1SC6SC1

CYUL;2010-12-08 22:00;CYUL 082200Z 25013KT 12SM -SN DRSN BKN022 BKN034 OVC080 M08/M11 A2988 RMK SC5SC2AC1 SLP120

CYUL;2010-12-08 23:00;CYUL 082300Z 25011KT 15SM -SN DRSN FEW019 BKN030 BKN045 M08/M11 A2991 RMK SF2SC4SC1 SLP130

CYUL;2010-12-08 23:45;CYUL 082345Z CCA 25012KT 6SM -SN DRSN SCT014 OVC023 M08/ RMK SF3SC5

CYUL;2010-12-09 00:00;CYUL 090000Z 25011KT 6SM -SN DRSN SCT017 OVC028 M09/M11 A2993 RMK SF2SC6 SLP137

CYUL;2010-12-09 01:00;CYUL 090100Z 25009KT 6SM -SN DRSN SCT014 BKN020 OVC030 M09/M10 A2993 RMK SF2SC5SC1 SLP140

CYUL;2010-12-09 01:21;CYUL 090121Z 26010KT 8SM -SN DRSN FEW018 BKN028 OVC040 M09/ RMK SF2SC5SC2

CYUL;2010-12-09 02:00;CYUL 090200Z 26011KT 12SM -SN DRSN FEW020 BKN033 OVC058 M08/M11 A2995 RMK SF1SC5SC2 SLP145

CYUL;2010-12-09 02:50;CYUL 090250Z 26011KT 12SM -SN DRSN SCT012 OVC024 M09/ RMK SF2SC6

CYUL;2010-12-09 03:00;CYUL 090300Z 26010KT 12SM -SN FEW013 BKN028 OVC070 M09/M11 A2996 RMK SF2SC6AC1 SLP150

CYUL;2010-12-09 03:20;CYUL 090320Z 26010KT 8SM -SN FEW008 BKN015 OVC050 M09/ RMK SF2SC3SC2

CYUL;2010-12-09 04:00;CYUL 090400Z 28010KT 10SM -SN FEW010 FEW015 OVC085 M09/M12 A2998 RMK SF1SC2AC6 SLP154

CYUL;2010-12-09 05:00;CYUL 090500Z 27010KT 10SM -SN FEW010 BKN045 OVC070 M09/M12 A2999 RMK SF1SC5AC2 SLP158

CYUL;2010-12-09 06:00;CYUL 090600Z 25009KT 8SM -SN FEW010 BKN035 OVC070 M10/M12 A3001 RMK SF1SC5AC2 /S01/ SLP164

CYUL;2010-12-09 07:00;CYUL 090700Z 25007KT 10SM -SN FEW012 SCT050 BKN090 M11/M13 A3002 RMK SF1SC3AC3 INTMT -SN SLP170

CYUL;2010-12-09 08:00;CYUL 090800Z 28009KT 10SM -SN FEW012 BKN055 BKN080 M10/M14 A3004 RMK SF1SC5AC1 SLP175

CYUL;2010-12-09 09:00;CYUL 090900Z 29010KT 10SM -SN FEW012 BKN050 BKN080 M11/M14 A3005 RMK SF1SC5AC2 -SN INTMT SLP180

CYUL;2010-12-09 10:00;CYUL 091000Z 29009KT 10SM -SN FEW019 BKN040 BKN100 M11/M14 A3007 RMK SC2SC2AC2 SLP185

CYUL;2010-12-09 10:26;CYUL 091026Z 28009KT 10SM FEW016 SCT040 BKN075 M11/ RMK SC2SC2AC1

CYUL;2010-12-09 11:00;CYUL 091100Z 28009KT 10SM -SHSN FEW015 BKN050 BKN080 M11/M14 A3009 RMK SF1SC5AC1 SLP191

CYUL;2010-12-09 12:00;CYUL 091200Z 28011KT 10SM -SHSN FEW015 BKN065 BKN100 M11/M13 A3011 RMK SC1SC6AC2 SLP198

CYUL;2010-12-09 13:00;CYUL 091300Z 28010G15KT 15SM FEW015 BKN060 BKN210 M10/M13 A3014 RMK SF1SC6CI2 OCNL -SHSN SLP209

CYUL;2010-12-09 14:00;CYUL 091400Z 29010KT 15SM FEW015 BKN060 M11/M15 A3016 RMK SC1SC6 SLP215

CYUL;2010-12-09 15:00;CYUL 091500Z CCA 29009G15KT 15SM FEW015 SCT060 BKN240 M11/M16 A3018 RMK SC1SC2CI0 SLP224

CYUL;2010-12-09 16:00;CYUL 091600Z 29011KT 15SM FEW015 SCT080 BKN230 M10/M16 A3019 RMK SC1AC2CI0 SLP227

CYUL;2010-12-09 17:00;CYUL 091700Z 29012KT 15SM FEW015 FEW080 SCT240 M10/M16 A3020 RMK SC1AC2CI0 SLP230

CYUL;2010-12-09 18:00;CYUL 091800Z 28011KT 15SM SCT030 BKN240 M10/M16 A3020 RMK SC3CI0 SLP231

CYUL;2010-12-09 19:00;CYUL 091900Z 27011KT 15SM BKN025 M10/M15 A3022 RMK SC2 SLP237

CYUL;2010-12-09 20:00;CYUL 092000Z 25011KT 15SM BKN035 M09/M15 A3025 RMK SC6 SLP246

CYUL;2010-12-09 21:00;CYUL 092100Z 25010KT 15SM BKN035 M10/M14 A3028 RMK SC6 SLP256

CYUL;2010-12-09 22:00;CYUL 092200Z 25010KT 15SM FEW035 M10/M15 A3030 RMK SC2 SLP265

CYUL;2010-12-09 23:00;CYUL 092300Z 26007KT 15SM FEW025 M11/M15 A3033 RMK SC1 SLP274

CYUL;2010-12-10 00:00;CYUL 100000Z 26008KT 15SM FEW030 M12/M16 A3035 RMK SC0 SLP281

CYUL;2010-12-10 01:00;CYUL 100100Z 25005KT 15SM FEW030 M12/M16 A3036 RMK SC1 SLP283

CYUL;2010-12-10 02:00;CYUL 100200Z 27003KT 15SM FEW030 M14/M17 A3036 RMK SC1 SLP286

CYUL;2010-12-10 03:00;CYUL 100300Z 27005KT 15SM FEW030 FEW240 M15/M17 A3037 RMK SC1CI1 SLP288

CYUL;2010-12-10 04:00;CYUL 100400Z 29004KT 15SM FEW030 M16/M17 A3038 RMK SC1 SLP292

CYUL;2010-12-10 05:00;CYUL 100500Z 29003KT 15SM FEW030 M15/M16 A3039 RMK SC1 SLP294

CYUL;2010-12-10 06:00;CYUL 100600Z 00000KT 15SM FEW030 M15/M16 A3040 RMK SC1 SLP297

CYUL;2010-12-10 07:00;CYUL 100700Z 00000KT 15SM FEW020 M16/M18 A3039 RMK SF1 SLP294

CYUL;2010-12-10 08:00;CYUL 100800Z 00000KT 15SM FEW030 M17/M22 A3040 RMK SC1 SLP298

CYUL;2010-12-10 09:00;CYUL 100900Z 00000KT 15SM FEW030 FEW210 M14/M16 A3041 RMK SC1CI1 SLP301

CYUL;2010-12-10 10:00;CYUL 101000Z 00000KT 15SM FEW160 SCT240 M14/M16 A3039 RMK AC1CI1 SLP296

CYUL;2010-12-10 11:00;CYUL 101100Z 09002KT 15SM FEW170 M13/M15 A3039 RMK AC1 SLP294

CYUL;2010-12-10 12:00;CYUL 101200Z 11005KT 15SM SCT150 BKN240 M14/M16 A3039 RMK AC2CI1 SLP295

CYUL;2010-12-10 13:00;CYUL 101300Z 10004KT 15SM BKN150 BKN240 M13/M15 A3036 RMK AC4CI1 SLP286

CYUL;2010-12-10 14:00;CYUL 101400Z 10007KT 15SM BKN160 BKN220 M12/M14 A3035 RMK AC5CI1 SLP282

CYUL;2010-12-10 14:51;CYUL 101451Z 11006KT 15SM -SHSN FEW020 BKN120 OVC160 M11/ RMK SC1AC5AC2

CYUL;2010-12-10 15:00;CYUL 101500Z 09006KT 15SM FEW015 SCT130 OVC200 M11/M13 A3034 RMK SF1AS2CS4 SLP277

CYUL;2010-12-10 16:00;CYUL 101600Z 11009KT 15SM FEW014 SCT120 OVC200 M10/M13 A3031 RMK SF1AC2CS5 SLP266

CYUL;2010-12-10 17:00;CYUL 101700Z 10008KT 15SM FEW015 SCT100 OVC200 M09/M13 A3028 RMK SF1AS3CS4 SLP256

CYUL;2010-12-10 18:00;CYUL 101800Z 10006KT 15SM BKN075 OVC200 M09/M13 A3025 RMK AS4CS4 SLP246

CYUL;2010-12-10 19:00;CYUL 101900Z 11007KT 15SM BKN060 OVC200 M08/M13 A3022 RMK SC6CS2 SLP238

CYUL;2010-12-10 20:00;CYUL 102000Z 09008G15KT 15SM -SN BKN050 OVC200 M07/M13 A3020 RMK SC6CS2 SLP229

CYUL;2010-12-10 21:00;CYUL 102100Z 09008KT 15SM FEW037 BKN047 BKN140 OVC200 M07/M12 A3019 RMK SC2SC3AC1CI0 SLP226

CYUL;2010-12-10 21:35;CYUL 102135Z 09010KT 5SM -SN OVC050 M07/ RMK SC8

CYUL;2010-12-10 22:00;CYUL 102200Z 08008KT 6SM -SN SCT050 OVC080 M07/M09 A3017 RMK SC2AS6 SLP220

CYUL;2010-12-10 23:00;CYUL 102300Z 07004KT 15SM -SN FEW050 OVC130 M06/M08 A3016 RMK SC2AC6 SLP216

CYUL;2010-12-11 00:00;CYUL 110000Z 18007KT 4SM -SN OVC035 M05/M09 A3015 RMK SC8 SLP213

CYUL;2010-12-11 00:32;CYUL 110032Z 14006KT 2SM -SN BKN015 OVC025 M06/ RMK SC5SC3

CYUL;2010-12-11 01:00;CYUL 110100Z 15007KT 3SM -SN BKN018 OVC028 M06/M07 A3013 RMK SC5SC3 SLP206

CYUL;2010-12-11 01:45;CYUL 110145Z 15008KT 1 3/4SM -SN OVC020 M05/ RMK SC8

CYUL;2010-12-11 02:00;CYUL 110200Z 15010KT 2SM -SN OVC025 M05/M07 A3011 RMK SC8 SLP200

CYUL;2010-12-11 02:33;CYUL 110233Z 16011KT 3SM -SN FEW016 OVC028 M05/ RMK SF1SC7

CYUL;2010-12-11 02:46;CYUL 110246Z 16012KT 2SM -SN OVC025 M05/ RMK SC8

CYUL;2010-12-11 02:55;CYUL 110255Z 16011KT 4SM -SN SCT012 OVC025 M05/ RMK SF2SC6

CYUL;2010-12-11 03:00;CYUL 110300Z 16012KT 3SM -SN SCT014 OVC030 M05/M07 A3010 RMK SF3SC5 SLP196

CYUL;2010-12-11 03:30;CYUL 110330Z 16011KT 4SM -SN SCT012 OVC028 M05/ RMK SF3SC5

CYUL;2010-12-11 03:48;CYUL 110348Z 16012KT 6SM -SN FEW016 OVC031 M05/ RMK SF2SC6

CYUL;2010-12-11 04:00;CYUL 110400Z 16012KT 15SM -SN FEW020 BKN032 OVC070 M05/M06 A3009 RMK SF1SC6AC1 SLP192

CYUL;2010-12-11 05:00;CYUL 110500Z 16011KT 15SM -SN OVC029 M04/M06 A3007 RMK SC8 SLP187

CYUL;2010-12-11 06:00;CYUL 110600Z CCA 16011KT 15SM -SN OVC022 M04/M06 A3007 RMK SC8 /S01/ SLP184

CYUL;2010-12-11 07:00;CYUL 110700Z 16011KT 15SM -SN OVC025 M04/M06 A3005 RMK SC8 VRY LGT SN SLP180

CYUL;2010-12-11 08:00;CYUL 110800Z 16010KT 15SM -SN OVC025 M03/M06 A3006 RMK SC8 SLP181

CYUL;2010-12-11 09:00;CYUL 110900Z 16009KT 15SM OVC024 M03/M05 A3005 RMK SC8 SLP179

CYUL;2010-12-11 10:00;CYUL 111000Z 15008KT 15SM OVC019 M02/M04 A3005 RMK SC8 SLP180

CYUL;2010-12-11 11:00;CYUL 111100Z 16007KT 15SM OVC020 M02/M04 A3007 RMK SC8 SLP184

CYUL;2010-12-11 12:00;CYUL 111200Z 16006KT 15SM BKN023 OVC032 M01/M03 A3008 RMK SC6SC2 SLP187

CYUL;2010-12-11 13:00;CYUL 111300Z 17004KT 15SM OVC023 M01/M02 A3009 RMK SC8 SLP192

CYUL;2010-12-11 14:00;CYUL 111400Z 28002KT 10SM -SHSN SCT023 OVC050 M01/M02 A3010 RMK SC3SC5 SLP196

CYUL;2010-12-11 15:00;CYUL 111500Z 27005KT 6SM BR OVC018 01/M01 A3012 RMK ST8 SLP203

CYUL;2010-12-11 15:17;CYUL 111517Z 33008KT 4SM -SN BR OVC017 M01/ RMK ST8

CYUL;2010-12-11 16:00;CYUL 111600Z 31005KT 2SM -SN BR OVC020 M02/M04 A3014 RMK ST8 SLP209

CYUL;2010-12-11 16:21;CYUL 111621Z 29006KT 4SM -SN BR OVC025 M02/ RMK SC8

CYUL;2010-12-11 17:00;CYUL 111700Z 30004KT 6SM -SN BR OVC033 M01/M03 A3015 RMK SC8 SLP212

CYUL;2010-12-11 18:00;CYUL 111800Z 27005KT 15SM OVC030 00/M02 A3015 RMK SC8 SLP211

CYUL;2010-12-11 19:00;CYUL 111900Z 25004KT 15SM OVC030 00/M03 A3015 RMK SC8 SLP213

CYUL;2010-12-11 20:00;CYUL 112000Z 26005KT 15SM OVC035 00/M03 A3017 RMK SC8 SLP220

CYUL;2010-12-11 21:00;CYUL 112100Z 24004KT 15SM FEW040 OVC048 00/M03 A3020 RMK SC2SC6 SLP227

CYUL;2010-12-11 21:53;CYUL 112153Z 25003KT 15SM -SN OVC040 00/ RMK SC8

CYUL;2010-12-11 22:00;CYUL 112200Z 26002KT 15SM -SN OVC040 00/M03 A3021 RMK SC8 SLP233

CYUL;2010-12-11 23:00;CYUL 112300Z 00000KT 15SM -SN OVC037 M00/M03 A3022 RMK SC8 SLP236

CYUL;2010-12-12 00:00;CYUL 120000Z 04003KT 12SM -SN BKN018 OVC040 M00/M03 A3023 RMK ST6SC2 SLP240

CYUL;2010-12-12 01:00;CYUL 120100Z 04005KT 15SM FEW020 OVC040 M01/M06 A3023 RMK SC1SC7 SLP239

CYUL;2010-12-12 02:00;CYUL 120200Z 02005KT 15SM OVC040 M01/M05 A3022 RMK SC8 SLP236

CYUL;2010-12-12 03:00;CYUL 120300Z 05007KT 15SM OVC040 M00/M05 A3022 RMK SC8 SLP234

CYUL;2010-12-12 04:00;CYUL 120400Z 05008KT 15SM FEW027 OVC037 M01/M06 A3022 RMK SC1SC7 SLP236

CYUL;2010-12-12 05:00;CYUL 120500Z 05011KT 15SM FEW027 OVC038 M01/M06 A3021 RMK SC2SC6 SLP232

CYUL;2010-12-12 06:00;CYUL 120600Z 05011G17KT 15SM BKN038 M02/M05 A3017 RMK SC5 SLP220

CYUL;2010-12-12 07:00;CYUL 120700Z 04011G16KT 15SM SCT037 M03/M06 A3016 RMK SC2 SLP215

CYUL;2010-12-12 08:00;CYUL 120800Z 04012KT 15SM FEW035 M04/M07 A3013 RMK SC2 SLP206

CYUL;2010-12-12 09:00;CYUL 120900Z 04012G17KT 15SM FEW032 BKN240 M04/M07 A3010 RMK SC1CS2 SLP195

CYUL;2010-12-12 10:00;CYUL 121000Z 05015KT 15SM BKN200 M05/M07 A3007 RMK CS2 SLP184

CYUL;2010-12-12 11:00;CYUL 121100Z 05016KT 15SM OVC180 M04/M06 A3002 RMK AS5 SLP168

CYUL;2010-12-12 12:00;CYUL 121200Z 05015KT 15SM OVC120 M04/M06 A2999 RMK AS5 SLP157

CYUL;2010-12-12 13:00;CYUL 121300Z 04013KT 15SM OVC080 M04/M05 A2998 RMK AS8 SLP153

CYUL;2010-12-12 14:00;CYUL 121400Z 05013KT 5/8SM -SHSN OVC016 M03/M05 A2995 RMK SN2SF6 SLP143

CYUL;2010-12-12 14:20;CYUL 121420Z 04013KT 1 1/4SM -SHSN SCT017 OVC030 M03/ RMK SF2SC6

CYUL;2010-12-12 14:23;CYUL 121423Z 04014KT 2SM -SHSN SCT017 OVC030 M03/ RMK SF2SC6

CYUL;2010-12-12 14:34;CYUL 121434Z 04014KT 3/4SM R06L/6000FT/D R06R/6000FT/D -SHSN SCT009 OVC020 M03/ RMK SF3SC5

CYUL;2010-12-12 14:50;CYUL 121450Z 05014KT 1/2SM R06R/4000V6000FT/D R06L/3500V5500FT/D SN VV007 M03/ RMK SN8

CYUL;2010-12-12 15:00;CYUL 121500Z 05014KT 5/8SM R06R/3000V4500FT/U R06L/3000V5500FT/U -SN OVC015 M03/M04 A2989 RESN RMK SN6SC2 PRESFR /S01/ SLP123

CYUL;2010-12-12 15:09;CYUL 121509Z 05014KT 1 1/4SM -SNPL OVC024 M03/ RMK SC8

CYUL;2010-12-12 15:19;CYUL 121519Z 06013KT 1 3/4SM -SNPL FEW025 OVC040 M02/ RMK SC2SC6

CYUL;2010-12-12 15:43;CYUL 121543Z 05014KT 5/8SM R06R/P6000FT/D R06L/P6000FT/D -SN VV006 M02/ RMK SN8

CYUL;2010-12-12 16:00;CYUL 121600Z 05015KT 5/8SM R06R/4000FT/N R06L/3500FT/U -SN VV007 M02/M02 A2983 RMK SN8 PRESFR /S02/ SLP102

CYUL;2010-12-12 17:00;CYUL 121700Z 06012KT 5/8SM R06R/5000FT/D R06L/4500FT/D -SN OVC008 M00/M01 A2975 RMK SN6ST2 PRESFR /S04/ SLP076

CYUL;2010-12-12 17:16;CYUL 121716Z 06011G17KT 1SM R06R/6000FT/U R06L/3500VP6000FT/N -SNPL BKN004 OVC013 00/ RMK ST5ST3

CYUL;2010-12-12 17:25;CYUL 121725Z 06010G15KT 2SM -SN FEW005 OVC008 00/ RMK ST2ST6

CYUL;2010-12-12 17:37;CYUL 121737Z 07006KT 4SM BR OVC006 00/ RMK ST8

CYUL;2010-12-12 17:54;CYUL 121754Z CCA 06012KT 2 1/2SM -SNPL BR SCT007 OVC014 00/ RMK ST4ST4

CYUL;2010-12-12 18:00;CYUL 121800Z CCB 06012KT 2SM -SNPL BR BKN007 OVC013 00/M01 A2967 RMK SF5ST3 PRESFR /S07/ -SN INTMT -PL INTMT SLP049

CYUL;2010-12-12 18:18;CYUL 121818Z 06016KT 4SM BR BKN008 OVC015 00/ RMK SF6SC2

CYUL;2010-12-12 18:27;CYUL 121827Z 06013G19KT 4SM -SN BR FEW007 OVC012 00/ RMK SF2SF6 -SN INTMT

CYUL;2010-12-12 18:43;CYUL 121843Z CCA 06013KT 5SM -SNPL BR FEW007 BKN018 OVC028 01/ RMK SF2SF3SC3 -PL INTMT

CYUL;2010-12-12 19:00;CYUL 121900Z CCA 05015KT 4SM -RASN BR FEW009 SCT018 OVC030 01/M00 A2960 RMK SF1SF3SC4 PRESFR -SN INTMT SLP026

CYUL;2010-12-12 19:29;CYUL 121929Z 04008G18KT 4SM BR FEW009 BKN015 OVC022 01/ RMK SF1SF5SC2

CYUL;2010-12-12 19:42;CYUL 121942Z 03013KT 2 1/4SM BR FEW004 BKN013 OVC022 00/ RMK SF2SF5SC2

CYUL;2010-12-12 20:00;CYUL 122000Z 04015KT 6SM BR FEW005 BKN018 OVC026 01/M00 A2955 RMK SF1SF5SC2 SLP008

CYUL;2010-12-12 20:40;CYUL 122040Z 06014KT 8SM -SHRA FEW011 BKN025 OVC070 02/ RMK SF1SC6AS2

CYUL;2010-12-12 21:00;CYUL 122100Z 05013KT 8SM FEW011 FEW020 OVC030 02/01 A2949 RMK SF1SF2SC6 SLP989

CYUL;2010-12-12 22:00;CYUL 122200Z 05014KT 8SM FEW019 BKN026 OVC035 02/01 A2945 RMK SF1SC6SC2 SLP976

CYUL;2010-12-12 23:00;CYUL 122300Z 05013KT 10SM FEW025 OVC040 03/01 A2940 RMK SC2SC6 SLP957

CYUL;2010-12-12 23:23;CYUL 122323Z 05014KT 7SM -RA FEW026 OVC035 03/ RMK SF2SC6

CYUL;2010-12-13 00:00;CYUL 130000Z 05012KT 6SM -RA BR FEW026 OVC035 02/01 A2937 RMK SC2SC6 SLP947

CYUL;2010-12-13 00:39;CYUL 130039Z 05013KT 10SM BKN032 OVC090 03/ RMK SC6AS2

CYUL;2010-12-13 01:00;CYUL 130100Z CCA 04012KT 12SM OVC032 03/01 A2930 RMK SC8 PRESFR SLP925

CYUL;2010-12-13 02:00;CYUL 130200Z 05011KT 12SM FEW030 OVC075 03/02 A2928 RMK SC2AS6 SLP918

CYUL;2010-12-13 02:12;CYUL 130212Z 05010KT 12SM -RA FEW030 OVC075 03/ RMK SC2AS6

CYUL;2010-12-13 03:00;CYUL 130300Z 04010KT 15SM -RA SCT017 OVC035 03/02 A2926 RMK SF2SC6 SLP910

CYUL;2010-12-13 04:00;CYUL 130400Z 05012KT 12SM -RA FEW016 OVC023 03/02 A2923 RMK SF2SC6 SLP899

CYUL;2010-12-13 04:14;CYUL 130414Z 03010KT 8SM -RA SCT009 OVC022 03/ RMK SF2SC6

CYUL;2010-12-13 04:33;CYUL 130433Z 05010KT 6SM -RA BR BKN009 OVC023 02/ RMK SF5SC3

CYUL;2010-12-13 05:00;CYUL 130500Z 03011KT 5SM -RA BR SCT008 OVC019 02/02 A2918 RMK SF2SC6 SLP883

CYUL;2010-12-13 06:00;CYUL 130600Z 03009KT 5SM -RA BR BKN009 OVC020 02/02 A2914 RERA RMK SF5SC3 /R13/ SLP869

CYUL;2010-12-13 07:00;CYUL 130700Z 03007KT 6SM -RA BR BKN008 OVC020 02/01 A2912 RMK SF6SC2 SLP862

CYUL;2010-12-13 07:35;CYUL 130735Z 36003KT 6SM -RA BR FEW002 BKN006 OVC018 02/ RMK SF2SF5SC2

CYUL;2010-12-13 08:00;CYUL 130800Z CCA 31005KT 4SM -RA BR SCT002 BKN006 OVC014 02/01 A2909 RMK SF2SF4SC2 SLP853

CYUL;2010-12-13 08:41;CYUL 130841Z 27006KT 8SM -RA FEW002 BKN007 BKN012 OVC022 02/ RMK SF1SF3SC3SC1

CYUL;2010-12-13 09:00;CYUL 130900Z 29004KT 8SM -RA SCT002 BKN006 OVC018 01/01 A2909 RMK SF3SF3SC2 SLP852

CYUL;2010-12-13 09:53;CYUL 130953Z 23005KT 10SM -RA FEW008 BKN024 OVC040 02/ RMK SF2SC6SC1

CYUL;2010-12-13 10:00;CYUL 131000Z 24004KT 8SM -RA SCT006 BKN019 OVC028 02/02 A2910 RMK SF2SC4SC2 SLP857

CYUL;2010-12-13 10:52;CYUL 131052Z 25007KT 8SM -RA BKN005 OVC014 02/ RMK SF6SC2

CYUL;2010-12-13 11:00;CYUL 131100Z 26008KT 8SM -RA FEW004 BKN007 OVC017 02/02 A2911 RMK SF2SF6SC1 SLP859

CYUL;2010-12-13 12:00;CYUL 131200Z 25012KT 10SM BKN006 OVC020 03/02 A2914 RMK SF6SC2 /R10/ SLP871

CYUL;2010-12-13 12:30;CYUL 131230Z 26013KT 10SM FEW007 BKN017 OVC030 03/ RMK SF2SC5SC2

CYUL;2010-12-13 13:00;CYUL 131300Z 25011KT 10SM BKN009 BKN018 BKN035 OVC050 03/02 A2915 RMK SF3SC3SC1SC1 SLP874

CYUL;2010-12-13 14:00;CYUL 131400Z 25010KT 8SM -RASN BKN007 OVC016 01/01 A2916 RMK SF5SC3 SLP878

CYUL;2010-12-13 15:00;CYUL 131500Z 26012KT 1 1/4SM -SN OVC005 00/M01 A2921 RMK ST8 SLP893

CYUL;2010-12-13 15:16;CYUL 131516Z 25013KT 4SM -SN OVC007 M00/ RMK ST8

CYUL;2010-12-13 16:00;CYUL 131600Z 26013KT 4SM -SN BKN008 OVC025 M01/M02 A2922 RMK SF7SC1 SLP896

CYUL;2010-12-13 16:53;CYUL 131653Z 25014KT 1 1/2SM -SN BKN008 OVC020 M02/ RMK SF6SC2

CYUL;2010-12-13 17:00;CYUL 131700Z 24011G16KT 1 3/4SM -SN BKN008 OVC022 M02/M03 A2923 RMK SF6SC2 SLP900

CYUL;2010-12-13 17:26;CYUL 131726Z 24016KT 8SM -SN BKN010 OVC045 M02/ RMK SF6SC2

CYUL;2010-12-13 17:48;CYUL 131748Z 25013KT 2 1/2SM -SN SCT008 OVC040 M03/ RMK SF3SC5

CYUL;2010-12-13 18:00;CYUL 131800Z 25015KT 4SM -SN FEW008 OVC040 M03/M05 A2923 RMK SF2SC6 /S01/ SLP900

CYUL;2010-12-13 19:00;CYUL 131900Z 26014KT 4SM -SN FEW010 SCT040 OVC065 M04/M06 A2923 RMK SF2SC1SC5 SLP901

CYUL;2010-12-13 20:00;CYUL 132000Z 25015G20KT 3SM -SN DRSN FEW011 OVC040 M04/M06 A2928 RMK SF2SC6 SLP917

CYUL;2010-12-13 20:15;CYUL 132015Z 25016KT 1 3/4SM -SN DRSN FEW011 OVC040 M04/ RMK SF2SC6

CYUL;2010-12-13 21:00;CYUL 132100Z 25016KT 1 1/2SM -SN DRSN FEW011 OVC030 M05/M06 A2929 RMK SF2SC6 SLP922

CYUL;2010-12-13 22:00;CYUL 132200Z CCA 27014KT 1 3/4SM -SN DRSN FEW009 OVC028 M06/M07 A2926 RMK SF2SC6 /S01/ SLP909

CYUL;2010-12-13 22:30;CYUL 132230Z 25016KT 2 1/2SM -SN DRSN BKN010 OVC025 M05/ RMK SF6SC2

CYUL;2010-12-13 23:00;CYUL 132300Z 26014G19KT 4SM -SN DRSN SCT011 OVC045 M06/M08 A2929 RMK SF3SC5 /S02/ SLP920

CYUL;2010-12-14 00:00;CYUL 140000Z 27016G24KT 4SM -SN DRSN FEW011 SCT025 OVC048 M06/M08 A2929 RMK SF1SC3SC4 SLP922

CYUL;2010-12-14 01:00;CYUL 140100Z 27018KT 6SM -SN DRSN FEW014 FEW026 OVC035 M07/M09 A2932 RMK SF1SC2SC6 SLP929

CYUL;2010-12-14 01:22;CYUL 140122Z 27016KT 2SM -SN DRSN OVC028 M07/ RMK SC8

CYUL;2010-12-14 02:00;CYUL 140200Z 27015KT 1 3/4SM -SN DRSN FEW011 OVC028 M07/M09 A2930 RMK SF1SC7 SLP924

CYUL;2010-12-14 02:40;CYUL 140240Z 28014KT 3SM -SN DRSN FEW010 OVC040 M08/ RMK SF1SC7

CYUL;2010-12-14 03:00;CYUL 140300Z 28012G18KT 3SM -SN FEW010 OVC035 M08/M10 A2929 RMK SF2SC6 SLP919

CYUL;2010-12-14 03:32;CYUL 140332Z 27013KT 2SM -SN DRSN SCT011 OVC026 M08/ RMK SN2SF2SC4

CYUL;2010-12-14 03:36;CYUL 140336Z 27013KT 1 3/4SM -SN DRSN BKN011 OVC025 M08/ RMK SN3SF3SC2

CYUL;2010-12-14 03:48;CYUL 140348Z 27015KT 1 1/4SM -SN DRSN BKN009 OVC018 M08/ RMK SN3SF3SC2

CYUL;2010-12-14 04:00;CYUL 140400Z 27012G17KT 1 1/4SM -SN DRSN VV009 M09/M10 A2929 RMK SN8 /S03/ SLP922

CYUL;2010-12-14 04:22;CYUL 140422Z 27013KT 1SM R24L/4500VP6000FT/D R24R/P6000FT/N -SN DRSN VV006 M09/ RMK SN8

CYUL;2010-12-14 04:49;CYUL 140449Z 28012KT 1 1/4SM -SN DRSN VV008 M09/ RMK SN8

CYUL;2010-12-14 05:00;CYUL 140500Z 28012G17KT 1SM R24L/P6000FT/D R24R/P6000FT/D -SN DRSN VV007 M09/M11 A2928 RMK SN8 SLP917

CYUL;2010-12-14 05:30;CYUL 140530Z 29012KT 1 1/4SM -SN DRSN VV008 M09/ RMK SN8

CYUL;2010-12-14 05:42;CYUL 140542Z 28012KT 1 3/4SM -SN DRSN BKN010 OVC020 M09/ RMK SN4SF3SC1

CYUL;2010-12-14 05:50;CYUL 140550Z 28008G15KT 3SM -SN DRSN FEW009 BKN015 OVC025 M09/ RMK SF2SC4SC2

CYUL;2010-12-14 06:00;CYUL 140600Z 28009KT 3SM -SN DRSN FEW010 BKN015 OVC025 M09/M11 A2929 RMK SF2SC5SC2 /S04/ SLP921

CYUL;2010-12-14 06:38;CYUL 140638Z 28013KT 2 1/2SM -SN DRSN BKN011 OVC022 M10/ RMK SF5SC3

CYUL;2010-12-14 06:47;CYUL 140647Z 29008G16KT 1 1/2SM -SN DRSN BKN009 OVC020 M10/ RMK SF6SC2

CYUL;2010-12-14 07:00;CYUL 140700Z 28012KT 2 1/2SM -SN DRSN BKN013 OVC025 M10/M12 A2929 RMK SF6SC2 SLP922

CYUL;2010-12-14 07:14;CYUL 140714Z 29010G15KT 3SM -SN DRSN BKN016 OVC030 M10/ RMK SC5SC3

CYUL;2010-12-14 08:00;CYUL 140800Z 29012KT 4SM -SN DRSN FEW015 BKN030 OVC065 M10/M12 A2929 RMK SC2SC3SC3 SLP923

CYUL;2010-12-14 09:00;CYUL 140900Z 29012KT 8SM -SN DRSN FEW015 BKN065 OVC090 M10/M13 A2930 RMK SC1SC6AC1 SLP926

CYUL;2010-12-14 10:00;CYUL 141000Z 29010G16KT 8SM -SN DRSN FEW015 BKN044 OVC060 M10/M13 A2930 RMK SC1SC6SC2 SLP926

CYUL;2010-12-14 11:00;CYUL 141100Z 27009KT 6SM -SN FEW020 FEW040 OVC060 M10/M13 A2932 RMK SC1SC2SC6 SLP932

CYUL;2010-12-14 11:22;CYUL 141122Z 27012KT 4SM -SN BKN015 OVC035 M10/ RMK SC5SC3

CYUL;2010-12-14 11:42;CYUL 141142Z 27011KT 4SM -SN BKN013 OVC035 M10/ RMK SC5SC3

CYUL;2010-12-14 12:00;CYUL 141200Z 27011KT 2 1/2SM -SN BKN009 OVC020 M11/M13 A2935 RMK SC6SC2 /S01/ SLP941

CYUL;2010-12-14 12:24;CYUL 141224Z 27010KT 1 1/4SM -SN VV008 M11/ RMK SN8

CYUL;2010-12-14 12:45;CYUL 141245Z 27008KT 1SM R24L/P6000FT/D R24R/P6000FT/D -SN VV007 M11/ RMK SN8

CYUL;2010-12-14 13:00;CYUL 141300Z 27009KT 1SM R24L/4000VP6000FT/D R24R/P6000FT/D -SN VV009 M11/M12 A2938 RMK SN8 SLP951

CYUL;2010-12-14 13:11;CYUL 141311Z 27009KT 1 1/4SM -SN VV009 M11/ RMK SN8

CYUL;2010-12-14 13:30;CYUL 141330Z 26010KT 1SM R24L/P6000FT/D R24R/P6000FT/D -SN VV007 M11/ RMK SN8

CYUL;2010-12-14 14:00;CYUL 141400Z 25011KT 1SM R24L/P6000FT/D R24R/P6000FT/N -SN VV007 M11/M12 A2938 RMK SN8 /S01/ SLP953

CYUL;2010-12-14 14:21;CYUL 141421Z 25012KT 1 1/2SM -SN BKN009 OVC020 M11/ RMK SN3SF3SC2

CYUL;2010-12-14 14:32;CYUL 141432Z 26012KT 3SM -SN FEW009 BKN024 OVC060 M11/ RMK SF2SC2SC2

CYUL;2010-12-14 15:00;CYUL 141500Z 25013KT 3SM -SN SCT008 BKN020 M11/M13 A2940 RMK SF3SC1 SLP960

CYUL;2010-12-14 15:16;CYUL 141516Z 26013KT 3SM -SN FEW010 BKN020 M11/ RMK SF2SC1

CYUL;2010-12-14 15:43;CYUL 141543Z 25013KT 2 1/2SM -SN SCT010 BKN020 M11/ RMK SF3SC2

CYUL;2010-12-14 16:00;CYUL 141600Z 26012G18KT 3SM -SN SCT015 BKN023 M11/M14 A2941 RMK SF3SC1 SLP963

CYUL;2010-12-14 17:00;CYUL 141700Z 26010KT 4SM -SN FEW012 BKN019 M10/M13 A2943 RMK SF2SC2 SLP970

CYUL;2010-12-14 17:39;CYUL 141739Z 26011KT 12SM SCT028 BKN070 M10/ RMK SC3AC1

CYUL;2010-12-14 18:00;CYUL 141800Z 24011KT 12SM -SN SCT020 BKN030 BKN210 M10/M14 A2946 RMK SC3SC2CI0 -SN INTMT SLP978

CYUL;2010-12-14 19:00;CYUL 141900Z 24013KT 12SM -SN SCT025 BKN170 M10/M14 A2948 RMK SC4AC2 SLP986

CYUL;2010-12-14 19:27;CYUL 141927Z 25014KT 15SM BKN025 BKN180 BKN240 M10/ RMK SC5AC1CI0

CYUL;2010-12-14 20:00;CYUL 142000Z 25013KT 15SM SCT025 BKN240 M10/M14 A2952 RMK SC4CI0 SLP998

CYUL;2010-12-14 21:00;CYUL 142100Z 25012KT 15SM FEW020 FEW240 M10/M14 A2955 RMK SC2CI1 SLP010

CYUL;2010-12-14 22:00;CYUL 142200Z 25012KT 15SM FEW025 SCT090 M11/M14 A2958 RMK SC1AC1 SLP018

CYUL;2010-12-14 23:00;CYUL 142300Z 26009KT 15SM FEW025 M11/M14 A2961 RMK SC1 SLP029

CYUL;2010-12-15 00:00;CYUL 150000Z 25009KT 15SM FEW025 M11/M15 A2964 RMK SC1 SLP040

CYUL;2010-12-15 01:00;CYUL 150100Z 26008KT 15SM FEW020 M12/M15 A2965 RMK SC1 SLP044

CYUL;2010-12-15 02:00;CYUL 150200Z 27012KT 15SM FEW020 M12/M15 A2964 RMK SC1 SLP040

CYUL;2010-12-15 03:00;CYUL 150300Z 27003KT 15SM FEW015 M13/M15 A2964 RMK CF1 SLP041

CYUL;2010-12-15 04:00;CYUL 150400Z 28002KT 15SM FEW015 M14/M15 A2967 RMK SC1 SLP050

CYUL;2010-12-15 05:00;CYUL 150500Z 29007KT 15SM FEW015 FEW040 M14/M16 A2964 RMK SC1SC1 SLP042

CYUL;2010-12-15 06:00;CYUL 150600Z 28006KT 15SM FEW015 BKN240 M14/M16 A2965 RMK SC1CI2 SLP043

CYUL;2010-12-15 07:00;CYUL 150700Z 29007KT 15SM FEW015 BKN240 M14/M16 A2966 RMK CF1CI3 SLP046

CYUL;2010-12-15 08:00;CYUL 150800Z 29007KT 15SM FEW015 BKN220 M13/M16 A2967 RMK SC1CI6 SLP051

CYUL;2010-12-15 09:00;CYUL 150900Z 29005KT 15SM BKN240 M15/M16 A2969 RMK CI3 SLP057

CYUL;2010-12-15 10:00;CYUL 151000Z 28007KT 15SM FEW008 BKN240 M14/M16 A2968 RMK SF1CI3 SLP055

CYUL;2010-12-15 11:00;CYUL 151100Z 28011KT 15SM FEW008 BKN190 OVC220 M13/M16 A2967 RMK SF1AS6CI2 SLP051

CYUL;2010-12-15 12:00;CYUL 151200Z 28013KT 15SM BKN180 OVC220 M13/M16 A2966 RMK AS6CI2 SLP046

CYUL;2010-12-15 13:00;CYUL 151300Z 28012KT 15SM BKN150 BKN210 M13/M16 A2964 RMK AS5CI2 SLP041

CYUL;2010-12-15 14:00;CYUL 151400Z 28011KT 15SM BKN140 BKN210 M13/M16 A2964 RMK AS5CS2 SLP042

CYUL;2010-12-15 15:00;CYUL 151500Z 28012KT 15SM FEW015 BKN130 OVC150 M13/M16 A2964 RMK SF1AC7AC1 SLP042

CYUL;2010-12-15 16:00;CYUL 151600Z 27014G19KT 15SM FEW015 BKN110 OVC140 M13/M16 A2963 RMK SF1AC6AS2 SLP036

CYUL;2010-12-15 17:00;CYUL 151700Z 27013G18KT 15SM FEW020 OVC110 M12/M16 A2962 RMK SF1AC8 SLP035

CYUL;2010-12-15 18:00;CYUL 151800Z 27014G19KT 15SM FEW020 OVC080 M12/M16 A2963 RMK SC1AC8 SLP037

CYUL;2010-12-15 19:00;CYUL 151900Z 27013G19KT 15SM FEW020 OVC070 M12/M16 A2964 RMK SC1AC8 SLP040

CYUL;2010-12-15 19:08;CYUL 151908Z 27013KT 15SM -SN FEW020 BKN035 OVC070 M11/ RMK SC1SC6AC2

CYUL;2010-12-15 19:41;CYUL 151941Z 27016KT 2 1/2SM -SN BKN020 OVC040 M11/ RMK SF6SC2

CYUL;2010-12-15 20:00;CYUL 152000Z 26013KT 3SM -SN BKN020 OVC045 M11/M15 A2965 RMK SF6SC2 SLP044

CYUL;2010-12-15 20:18;CYUL 152018Z 25012G17KT 2 1/2SM -SN BKN030 OVC045 M12/ RMK SF6SC2

CYUL;2010-12-15 21:00;CYUL 152100Z 26014KT 2SM -SN BKN016 OVC030 M12/M14 A2965 RMK SF6SC2 SLP043

CYUL;2010-12-15 21:11;CYUL 152111Z 26014KT 1 1/2SM -SN BKN014 OVC027 M12/ RMK SF6SC2

CYUL;2010-12-15 21:17;CYUL 152117Z 26012KT 1 1/2SM -SN BKN008 OVC025 M12/ RMK SF6SC2

CYUL;2010-12-15 22:00;CYUL 152200Z 26011G16KT 1 1/2SM -SN BKN009 OVC027 M11/M13 A2965 RMK SF6SC2 /S01/ SLP043

CYUL;2010-12-15 22:18;CYUL 152218Z 26012G18KT 2SM -SN BKN010 OVC027 M11/ RMK SF6SC2

CYUL;2010-12-15 23:00;CYUL 152300Z 26011KT 1 1/2SM -SN BKN009 OVC023 M11/M14 A2966 RMK SF7SC1 SLP047

CYUL;2010-12-15 23:51;CYUL 152351Z 26011KT 3SM -SN BKN012 OVC030 M11/ RMK SF7SC1

CYUL;2010-12-16 00:00;CYUL 160000Z 26010KT 3SM -SN BKN015 OVC035 M11/M13 A2966 RMK SF6SC2 /S02/ SLP047

CYUL;2010-12-16 00:25;CYUL 160025Z 26010KT 2 1/2SM -SN BKN013 OVC028 M11/ RMK SF6SC2

CYUL;2010-12-16 01:00;CYUL 160100Z 25012KT 1 1/2SM -SN BKN009 OVC026 M11/M13 A2966 RMK SF7SC1 SLP046

CYUL;2010-12-16 01:26;CYUL 160126Z 25011KT 2SM -SN BKN012 OVC030 M11/ RMK SF7SC1

CYUL;2010-12-16 01:50;CYUL 160150Z 26009KT 2 1/2SM -SN BKN015 OVC035 M11/ RMK SF6SC2

CYUL;2010-12-16 02:00;CYUL 160200Z 26009KT 2 1/2SM -SN BKN014 OVC032 M11/M13 A2966 RMK SF6SC2 /S01/ SLP046

CYUL;2010-12-16 03:00;CYUL 160300Z 26010KT 3SM -SN BKN018 OVC040 M11/M13 A2965 RMK SC6SC2 SLP044

CYUL;2010-12-16 04:00;CYUL 160400Z 26009KT 3SM -SN OVC020 M11/M13 A2965 RMK SC8 SLP044

CYUL;2010-12-16 05:00;CYUL 160500Z 26009KT 6SM -SN FEW015 OVC040 M11/M13 A2964 RMK SF1SC7 SLP042

CYUL;2010-12-16 06:00;CYUL 160600Z 27010KT 3SM -SN OVC020 M11/M13 A2964 RMK SC8 SLP042

CYUL;2010-12-16 06:38;CYUL 160638Z 26009KT 2 1/2SM -SN OVC014 M11/ RMK SC8

CYUL;2010-12-16 07:00;CYUL 160700Z 26009KT 3SM -SN OVC016 M11/M13 A2966 RMK SC8 SLP046

CYUL;2010-12-16 08:00;CYUL 160800Z 27008KT 3SM -SN OVC016 M11/M13 A2966 RMK SC8 SLP046

CYUL;2010-12-16 09:00;CYUL 160900Z 25006KT 5SM -SHSN SCT025 BKN040 BKN130 M12/M14 A2966 RMK SC3SC2AC2 SLP048

CYUL;2010-12-16 10:00;CYUL 161000Z 25005KT 5SM -SHSN SCT020 BKN050 OVC120 M11/M13 A2967 RMK SC3SC2AS2 SLP050

CYUL;2010-12-16 10:45;CYUL 161045Z 26005KT 10SM FEW020 SCT040 BKN170 M12/ RMK SC2SC2AC1

CYUL;2010-12-16 11:00;CYUL 161100Z 26004KT 15SM FEW020 SCT040 BKN170 M12/M14 A2968 RMK SC2SC2AC2 SLP053

CYUL;2010-12-16 12:00;CYUL 161200Z 25004KT 15SM FEW020 SCT120 BKN240 M12/M14 A2968 RMK SC2AC2CI1 SLP054

CYUL;2010-12-16 13:00;CYUL 161300Z 26003KT 15SM FEW020 FEW050 SCT140 BKN210 M12/M14 A2968 RMK SC2SC1AC1CI1 SLP055

CYUL;2010-12-16 14:00;CYUL 161400Z 26004KT 15SM FEW011 SCT120 BKN210 M13/M14 A2969 RMK SF2AC2CI1 SLP056

CYUL;2010-12-16 15:00;CYUL 161500Z 29003KT 15SM SCT013 BKN095 BKN210 M12/M13 A2969 RMK SF3AC2CI0 SLP058

CYUL;2010-12-16 15:04;CYUL 161504Z 28003KT 15SM -SN SCT013 BKN095 BKN210 M12/ RMK SF3AC2CI0

CYUL;2010-12-16 16:00;CYUL 161600Z 26003KT 15SM -SN BKN018 BKN095 BKN210 M10/M13 A2969 RMK SC5AC2CI0 SLP059

CYUL;2010-12-16 16:27;CYUL 161627Z 21006KT 4SM -SN BKN013 OVC060 M09/ RMK SF6SC2

CYUL;2010-12-16 16:35;CYUL 161635Z 20005KT 2 1/2SM -SN BKN013 OVC020 M09/ RMK SF6SC2

CYUL;2010-12-16 17:00;CYUL 161700Z 20004KT 6SM -SN FEW012 BKN016 OVC030 M09/M12 A2969 RMK SF1SC6SC2 /S01/ VIS W 21/2 SLP058

CYUL;2010-12-16 19:00;CYUL 161900Z 21002KT 10SM -SN FEW013 BKN030 OVC070 M08/M12 A2970 RMK SF1SC6AC2 SLP061

CYUL;2010-12-16 20:00;CYUL 162000Z 11003KT 3SM -SN BKN030 BKN045 OVC110 M09/M11 A2972 RMK SC6SC1AC2 SLP066

CYUL;2010-12-16 20:13;CYUL 162013Z 09003KT 3SM -SN BKN014 OVC032 M09/ RMK SF6SC2

CYUL;2010-12-16 20:37;CYUL 162037Z 09003KT 3SM -SN BKN017 OVC038 M09/ RMK SF6SC2

CYUL;2010-12-16 20:54;CYUL 162054Z 09002KT 2 1/2SM -SN BKN014 BKN034 OVC080 M09/ RMK SF6SC2AC1

CYUL;2010-12-16 21:00;CYUL 162100Z 10003KT 3SM -SN SCT012 BKN025 OVC080 M09/M11 A2973 RMK SF3SC3AC1 SLP070

CYUL;2010-12-16 21:17;CYUL 162117Z 09004KT 6SM -SN FEW013 SCT040 BKN090 OVC240 M09/ RMK SF1SC3AC2CI0

CYUL;2010-12-16 21:48;CYUL 162148Z 10003KT 15SM FEW045 SCT120 M09/ RMK SC2AC1

CYUL;2010-12-16 22:00;CYUL 162200Z 08003KT 15SM FEW040 SCT120 M09/M12 A2974 RMK SC1AC1 SLP075

CYUL;2010-12-16 22:29;CYUL 162229Z 06003KT 15SM -SN FEW040 SCT070 BKN110 M09/ RMK SC2AC1AC0 -SN INTMT

CYUL;2010-12-16 23:00;CYUL 162300Z 03004KT 6SM -SN FEW020 SCT043 BKN090 M09/M11 A2975 RMK SC2SC2AC1 SLP076

CYUL;2010-12-17 00:00;CYUL 170000Z 01006KT 4SM -SN BKN015 OVC110 M09/M11 A2975 RMK SC5AS2 SLP078

CYUL;2010-12-17 00:30;CYUL 170030Z 04007KT 2 1/2SM -SN BKN009 OVC025 M09/ RMK SF6SC2

CYUL;2010-12-17 00:43;CYUL 170043Z 04007KT 3SM -SN BKN012 OVC025 M09/ RMK SF6SC2

CYUL;2010-12-17 01:00;CYUL 170100Z 04006KT 3SM -SN BKN015 OVC036 M09/M11 A2976 RMK SF6SC2 SLP080

CYUL;2010-12-17 02:00;CYUL 170200Z 05007KT 4SM -SN OVC025 M09/M12 A2976 RMK SC8 SLP080

CYUL;2010-12-17 02:14;CYUL 170214Z 04008KT 4SM -SN FEW009 OVC027 M10/ RMK SF2SC6

CYUL;2010-12-17 02:24;CYUL 170224Z 05008KT 2 1/2SM -SN FEW009 OVC030 M10/ RMK SF2SC6

CYUL;2010-12-17 02:47;CYUL 170247Z 05007KT 2 1/2SM -SN FEW012 OVC033 M10/ RMK SF2SC6

CYUL;2010-12-17 03:00;CYUL 170300Z 05008KT 3SM -SN OVC035 M10/M12 A2976 RMK SC8 SLP080

CYUL;2010-12-17 04:00;CYUL 170400Z 01006KT 3SM -SN OVC040 M10/M12 A2976 RMK SC8 SLP080

CYUL;2010-12-17 05:00;CYUL 170500Z 02005KT 6SM -SN FEW010 FEW035 OVC080 M11/M13 A2977 RMK SF1SC2AC6 SLP083

CYUL;2010-12-17 06:00;CYUL 170600Z 01006KT 7SM -SN FEW035 OVC080 M11/M13 A2977 RMK SC1AC7 /S01/ SLP085

CYUL;2010-12-17 07:00;CYUL 170700Z 01005KT 7SM -SN OVC075 M11/M13 A2978 RMK AC8 SLP088

CYUL;2010-12-17 08:00;CYUL 170800Z 36005KT 6SM -SN OVC072 M11/M13 A2980 RMK AS8 SLP094

CYUL;2010-12-17 09:00;CYUL 170900Z 36003KT 7SM -SN OVC067 M11/M13 A2981 RMK AS8 SLP097

CYUL;2010-12-17 10:00;CYUL 171000Z 34004KT 6SM -SN OVC060 M11/M13 A2981 RMK SC8 SLP097

CYUL;2010-12-17 11:00;CYUL 171100Z 27002KT 8SM -SN OVC058 M12/M14 A2982 RMK SC8 SLP101

CYUL;2010-12-17 12:00;CYUL 171200Z 25002KT 12SM -SN FEW025 BKN060 M12/M13 A2983 RMK SC1SC6 SLP106

CYUL;2010-12-17 13:00;CYUL 171300Z 28002KT 12SM -SN FEW005 BKN055 BKN240 M12/M13 A2985 RMK SF1SC6CI1 SLP111

CYUL;2010-12-17 13:43;CYUL 171343Z 30004KT 15SM FEW006 FEW055 FEW240 M13/ RMK SF1SC2CI1

CYUL;2010-12-17 14:00;CYUL 171400Z 27003KT 15SM -SN FEW006 FEW055 FEW240 M12/M13 A2987 RMK SF1SC2CI1 -SN INTMT SLP117

CYUL;2010-12-17 15:00;CYUL 171500Z 25005KT 15SM FEW012 FEW240 M10/M13 A2988 RMK SF1CI1 SLP122

CYUL;2010-12-17 16:00;CYUL 171600Z 28007KT 15SM FEW014 FEW240 M09/M12 A2988 RMK SF1CI0 SLP123

CYUL;2010-12-17 17:00;CYUL 171700Z 24007KT 30SM FEW018 FEW036 M08/M11 A2988 RMK SF1SC1 SLP122

CYUL;2010-12-17 18:00;CYUL 171800Z 23007KT 30SM FEW025 FEW240 M08/M12 A2989 RMK SC1CI0 SLP124

CYUL;2010-12-17 19:00;CYUL 171900Z 22009KT 30SM FEW030 FEW240 M08/M12 A2990 RMK SC1CI1 SLP128

CYUL;2010-12-17 20:00;CYUL 172000Z 23010KT 30SM FEW035 FEW240 M07/M12 A2991 RMK SC1CI1 SLP133

CYUL;2010-12-17 21:00;CYUL 172100Z 25009KT 15SM -SHSN FEW025 FEW240 M08/M12 A2993 RMK SC1CI1 VRY LGT SN SLP139

CYUL;2010-12-17 21:38;CYUL 172138Z 25006KT 15SM FEW030 FEW240 M08/ RMK SC1CI1

CYUL;2010-12-17 22:00;CYUL 172200Z 27006KT 15SM FEW030 FEW240 M09/M12 A2995 RMK SC1CI1 SLP144

CYUL;2010-12-17 23:00;CYUL 172300Z 27003KT 15SM FEW030 FEW075 FEW240 M09/M13 A2995 RMK SC1AC1CI1 SLP146

CYUL;2010-12-18 00:00;CYUL 180000Z 24002KT 15SM FEW035 FEW080 SCT240 M09/M12 A2997 RMK SC1AC1CI1 SLP152

CYUL;2010-12-18 01:00;CYUL 180100Z 22006KT 15SM BKN070 BKN240 M07/M10 A2998 RMK AC3CI1 SLP156

CYUL;2010-12-18 02:00;CYUL 180200Z 16005KT 15SM BKN060 M08/M10 A2999 RMK SC6 SLP157

CYUL;2010-12-18 02:11;CYUL 180211Z 14005KT 15SM -SHSN BKN070 M08/ RMK AC7

CYUL;2010-12-18 03:00;CYUL 180300Z 13005KT 15SM -SN OVC070 M08/M10 A2999 RMK AC8 SLP157

CYUL;2010-12-18 04:00;CYUL 180400Z 12003KT 15SM -SN OVC070 M07/M10 A2998 RMK AS8 -SN INTMT SLP155

CYUL;2010-12-18 05:00;CYUL 180500Z 15005KT 15SM -SN SCT035 OVC070 M07/M10 A2998 RMK SC4AS4 SLP154

CYUL;2010-12-18 06:00;CYUL 180600Z 13004KT 15SM -SN OVC017 M06/M09 A2997 RMK ST8 SLP153

CYUL;2010-12-18 07:00;CYUL 180700Z 13004KT 15SM -SN OVC015 M06/M08 A2998 RMK ST8 SLP154

CYUL;2010-12-18 08:00;CYUL 180800Z 14005KT 15SM -SN FEW010 OVC017 M05/M07 A2999 RMK SF1ST7 SLP157

CYUL;2010-12-18 09:00;CYUL 180900Z 14003KT 6SM -SN OVC040 M05/M07 A2999 RMK SC8 SLP159

CYUL;2010-12-18 10:00;CYUL 181000Z 14003KT 10SM -SN FEW010 FEW040 BKN085 M06/M07 A2998 RMK SF1SC2AC5 SLP156

CYUL;2010-12-18 11:00;CYUL 181100Z 08002KT 12SM -SN FEW017 OVC075 M05/M06 A2999 RMK SF1AC7 SLP157

CYUL;2010-12-18 12:00;CYUL 181200Z 03002KT 10SM -SN BKN070 OVC100 M04/M05 A2999 RMK AC6AC2 SLP160

CYUL;2010-12-18 13:00;CYUL 181300Z 36004KT 8SM FEW010 OVC070 M06/M08 A3001 RMK SF1AS8 SLP166

CYUL;2010-12-18 13:53;CYUL 181353Z 03006KT 1 3/4SM -SHSN OVC022 M07/ RMK SC8

CYUL;2010-12-18 14:00;CYUL 181400Z 01005KT 2SM -SHSN OVC020 M07/M09 A3004 RMK SC8 SLP174

CYUL;2010-12-18 14:52;CYUL 181452Z 03004KT 1 1/4SM -SHSN SCT014 OVC020 M07/ RMK SF3SC5

CYUL;2010-12-18 15:00;CYUL 181500Z 03004KT 1 1/2SM -SN SCT013 OVC024 M07/M08 A3004 RMK SF3SC5 SLP177

CYUL;2010-12-18 16:00;CYUL 181600Z 02004KT 2SM -SN SCT014 OVC027 M06/M07 A3004 RMK SF3SC5 SLP175

CYUL;2010-12-18 16:32;CYUL 181632Z 02003KT 4SM -SN FEW013 BKN028 OVC070 M05/ RMK SF2SC6AC1

CYUL;2010-12-18 17:00;CYUL 181700Z 04002KT 2 1/2SM -SN FEW016 BKN024 OVC038 M05/M06 A3003 RMK SF1SC5SC2 SUN DIMLY VISBL SLP171

CYUL;2010-12-18 17:14;CYUL 181714Z CCA 02002KT 4SM -SN FEW015 BKN028 OVC035 M04/ RMK SF2SC5SC2

CYUL;2010-12-18 18:00;CYUL 181800Z 00000KT 6SM -SN FEW018 BKN029 OVC045 M04/M06 A3001 RMK SF1SC6SC2 /S01/ SLP167

CYUL;2010-12-18 19:00;CYUL 181900Z 00000KT 15SM -SN FEW020 BKN060 BKN090 M02/M04 A3001 RMK SF1SC2AC1 SLP166

CYUL;2010-12-18 20:00;CYUL 182000Z 24003KT 12SM -SN FEW017 BKN027 BKN045 M01/M04 A3002 RMK SF2SC4SC1 SLP169

CYUL;2010-12-18 21:00;CYUL 182100Z 31002KT 15SM FEW022 BKN050 BKN090 M02/M04 A3004 RMK SC2SC2AC1 SLP173

CYUL;2010-12-18 22:00;CYUL 182200Z 00000KT 15SM FEW023 SCT048 BKN062 M03/M05 A3005 RMK SC2SC2SC1 SLP177

CYUL;2010-12-18 23:00;CYUL 182300Z 13003KT 15SM -SN FEW032 BKN060 M02/M04 A3005 RMK SC2SC3 SLP178

CYUL;2010-12-18 23:50;CYUL 182350Z 36003KT 15SM FEW035 BKN060 M05/ RMK SC2SC4

CYUL;2010-12-19 00:00;CYUL 190000Z 01002KT 15SM FEW035 BKN060 M05/M06 A3005 RMK SC2SC5 SLP180

CYUL;2010-12-19 01:00;CYUL 190100Z 04004KT 15SM FEW035 BKN062 M06/M07 A3006 RMK SC1SC4 SLP181

CYUL;2010-12-19 02:00;CYUL 190200Z CCA 31003KT 12SM FEW005 OVC055 M07/M08 A3006 RMK SF2SC6 FROIN SLP183

CYUL;2010-12-19 03:00;CYUL 190300Z 01002KT 6SM BR BKN065 M08/M08 A3007 RMK SC6 SLP187

CYUL;2010-12-19 03:14;CYUL 190314Z 03004KT 5SM BR BKN001 OVC063 M07/ RMK ST4SC3

CYUL;2010-12-19 03:36;CYUL 190336Z 36003KT 4SM BR BKN002 OVC063 M08/ RMK ST7SC1

CYUL;2010-12-19 04:00;CYUL 190400Z 05003KT 4SM BR OVC001 M07/M08 A3008 RMK ST7 SLP188

CYUL;2010-12-19 04:35;CYUL 190435Z 01002KT 3SM -SN BR SCT001 OVC030 M06/ RMK ST4SC4

CYUL;2010-12-19 05:00;CYUL 190500Z 04003KT 3SM BR FEW002 SCT033 OVC060 M06/M07 A3008 RMK SF2SC2SC5 SLP190

CYUL;2010-12-19 06:00;CYUL 190600Z 03003KT 2 1/2SM -SN BR FEW030 OVC063 M06/M07 A3009 RMK SC1SC7 SLP191

CYUL;2010-12-19 07:00;CYUL 190700Z 04004KT 3SM -SN BR SCT040 OVC060 M05/M06 A3009 RMK SC3SC5 SLP193

CYUL;2010-12-19 08:00;CYUL 190800Z 00000KT 3SM -SN BR FEW045 OVC060 M05/M06 A3010 RMK SC1SC7 SLP196

CYUL;2010-12-19 08:42;CYUL 190842Z 00000KT 3SM BR OVC060 M05/ RMK SC8

CYUL;2010-12-19 09:00;CYUL 190900Z 00000KT 3SM BR OVC060 M05/M06 A3010 RMK SC8 SLP195

CYUL;2010-12-19 10:00;CYUL 191000Z 00000KT 3SM BR BKN003 OVC060 M05/M06 A3010 RMK ST6SC2 SLP197

CYUL;2010-12-19 10:18;CYUL 191018Z 15004KT 1 3/4SM -SN BR OVC002 M05/ RMK ST8

CYUL;2010-12-19 11:00;CYUL 191100Z 00000KT 1 1/2SM -SN BR OVC002 M06/M06 A3010 RMK ST8 SLP196

CYUL;2010-12-19 12:00;CYUL 191200Z 04002KT 3/4SM R06R/2000FT/N R06L/4000VP6000FT/N BR OVC001 M05/M06 A3010 RMK ST8 SLP196

CYUL;2010-12-19 12:29;CYUL 191229Z 00000KT 1SM R06R/4500FT/N R06L/P6000FT/D BR SCT002 OVC060 M05/ RMK ST4SC4

CYUL;2010-12-19 12:49;CYUL 191249Z 00000KT 3/4SM R06R/2800V5000FT/U R06L/P6000FT/U BR BKN003 OVC060 M06/ RMK ST6SC2

CYUL;2010-12-19 13:00;CYUL 191300Z 00000KT 3/4SM R06R/2600V4000FT/U R06L/P6000FT/D BR OVC002 M06/M06 A3011 RMK ST8 SLP199

CYUL;2010-12-19 13:33;CYUL 191333Z 00000KT 5/8SM R06R/1200FT/N R06L/3000V4500FT/N -SN BR OVC003 M05/ RMK ST8

CYUL;2010-12-19 14:00;CYUL 191400Z 04003KT 1 3/4SM -SN BR BKN003 OVC035 M05/M06 A3011 RMK SF4SC2 SLP200

CYUL;2010-12-19 14:21;CYUL 191421Z 03004KT 1 3/4SM BR OVC004 M05/ RMK ST6

CYUL;2010-12-19 14:48;CYUL 191448Z 03006KT 1SM R06R/P6000FT/N R06L/P6000FT/D BR OVC003 M05/ RMK ST6

CYUL;2010-12-19 15:00;CYUL 191500Z 03005KT 3/4SM R06R/4000VP6000FT/D R06L/4000VP6000FT/D BR OVC003 M06/M06 A3013 RMK FG2ST6 SLP205

CYUL;2010-12-19 15:13;CYUL 191513Z 05004KT 3/4SM R06R/5000FT/D R06L/4500FT/N -SN BR OVC003 M05/ RMK FG2ST6

CYUL;2010-12-19 15:25;CYUL 191525Z 05005KT 1SM R06R/5000FT/N R06L/5500FT/U -SN BR OVC003 M05/ RMK FG2ST6

CYUL;2010-12-19 15:50;CYUL 191550Z 05004KT 1SM R06R/4500VP6000FT/U R06L/P6000FT/N BR OVC004 M05/ RMK FG2ST6

CYUL;2010-12-19 16:00;CYUL 191600Z 05006KT 1 1/4SM BR OVC004 M05/M06 A3012 RMK FG2ST6 SLP201

CYUL;2010-12-19 16:35;CYUL 191635Z 02006KT 1 1/2SM BR OVC005 M05/ RMK FG2ST6

CYUL;2010-12-19 17:00;CYUL 191700Z 04006KT 1 3/4SM BR BKN005 OVC010 M05/M06 A3009 RMK FG1ST6SC1 SLP192

CYUL;2010-12-19 18:00;CYUL 191800Z 02006KT 2 1/2SM BR OVC006 M05/M06 A3008 RMK ST8 SLP188

CYUL;2010-12-19 18:36;CYUL 191836Z 02007KT 3SM BR OVC005 M05/ RMK ST8

CYUL;2010-12-19 19:00;CYUL 191900Z 05005KT 4SM BR OVC006 M05/M06 A3007 RMK ST8 SLP187

CYUL;2010-12-19 20:00;CYUL 192000Z 04005KT 4SM BR BKN008 OVC015 M05/M06 A3007 RMK ST6SC2 SLP187

CYUL;2010-12-19 21:00;CYUL 192100Z 05003KT 6SM BR SCT008 BKN015 BKN210 M05/M06 A3007 RMK SF4SF1CI1 SLP185

CYUL;2010-12-19 22:00;CYUL 192200Z 00000KT 6SM BR FEW008 BKN015 M06/M08 A3007 RMK SF1SF4 SLP186

CYUL;2010-12-19 23:00;CYUL 192300Z 00000KT 7SM FEW015 M08/M09 A3007 RMK SC2 SLP186

CYUL;2010-12-19 23:36;CYUL 192336Z 00000KT 5SM R06R/P6000FT/N R06L/1600FT/N BR SCT015 M08/ RMK SF3 VIS W-N 11/2

CYUL;2010-12-19 23:40;CYUL 192340Z 00000KT 2SM R06R/P6000FT/N R06L/1600FT/N BR SCT015 M09/ RMK FG1SF2 VIS VRB 1/2-5

CYUL;2010-12-19 23:50;CYUL 192350Z 00000KT 5SM R06R/P6000FT/N R06L/1000V1600FT/N BR FEW015 M10/ RMK SF2 VIS LWR W

CYUL;2010-12-20 00:00;CYUL 200000Z 00000KT 5SM R06R/P6000FT/N R06L/3000VP6000FT/U BR FEW015 M09/M10 A3007 RMK SF2 SLP184

CYUL;2010-12-20 00:10;CYUL 200010Z 00000KT 3SM R06R/P6000FT/N R06L/3000VP6000FT/N BR SCT015 M10/ RMK FG1SF3 VIS W-N 3/4

CYUL;2010-12-20 01:00;CYUL 200100Z 27002KT 4SM R06R/P6000FT/N R06L/1200FT/N BR FEW015 SCT050 M09/M10 A3006 RMK SF2SC1 FROIN SLP182

CYUL;2010-12-20 01:22;CYUL 200122Z 28002KT 3SM R06R/P6000FT/N R06L/P6000FT/U BR FEW007 FEW015 SCT050 M09/ RMK SF1SF2SC1 VIS W 3/4

CYUL;2010-12-20 01:42;CYUL 200142Z 00000KT 2SM R06R/P6000FT/N R06L/3500VP6000FT/D BR FEW006 FEW015 SCT050 M09/ RMK SF1SF2SC1 VIS VRB 1/2-3

CYUL;2010-12-20 02:00;CYUL 200200Z 27002KT 1SM R06R/P6000FT/N R06L/2600V6000FT/N BR FEW007 SCT014 M10/M10 A3004 RMK FG2SF1SF1 FROIN VIS VRB 1/4-3 SLP176

CYUL;2010-12-20 02:22;CYUL 200222Z 25002KT 1 1/2SM R06R/P6000FT/D R06L/3500VP6000FT/D BR SCT004 M08/ RMK FG2SF2 VIS W QUAD 1/2

CYUL;2010-12-20 02:32;CYUL 200232Z 27003KT 1/2SM R06R/P6000FT/U R06L/2800VP6000FT/N FZFG BKN004 M09/ RMK FG2SF3 VIS VRB 1/4-11/4

CYUL;2010-12-20 03:00;CYUL 200300Z 28003KT 1/4SM R06R/3500VP6000FT/D R06L/3000FT/N FZFG VV001 M10/M11 A3004 RMK FG8 SLP174

CYUL;2010-12-20 03:26;CYUL 200326Z 31002KT 1/2SM R06R/4000VP6000FT/D R06L/2600VP6000FT/D FZFG VV001 M08/ RMK FG8

CYUL;2010-12-20 03:40;CYUL 200340Z 29002KT 5/8SM R06R/2000FT/N R06L/2200FT/N BR OVC002 M07/ RMK FG2ST6

CYUL;2010-12-20 04:00;CYUL 200400Z 31002KT 1/4SM R06R/1400FT/N R06L/1600FT/N FZFG VV001 M07/M08 A3002 RMK FG8 SLP169

CYUL;2010-12-20 04:50;CYUL 200450Z 27003KT 3/8SM R06R/3000VP6000FT/U R06L/1600FT/U -SN FZFG OVC002 M07/ RMK FG6ST2

CYUL;2010-12-20 05:00;CYUL 200500Z 27003KT 1/4SM R06R/P6000FT/D R06L/1400FT/N -SN FZFG VV001 M07/M08 A3001 RMK FG8 VIS SE 3/4 SLP167

CYUL;2010-12-20 06:00;CYUL 200600Z 27003KT 1/4SM R06R/1200V1800FT/N R06L/1600FT/N FZFG VV001 M08/M09 A3001 RMK FG8 FROIN SLP167

CYUL;2010-12-20 07:00;CYUL 200700Z 23002KT 1/4SM R06R/1600FT/N R06L/1600FT/N FZFG VV001 M08/M09 A3002 RMK FG8 SLP168

CYUL;2010-12-20 07:33;CYUL 200733Z 24002KT 5/8SM R06R/1400FT/N R06L/1600FT/N -SN BR OVC005 M09/ RMK FG5ST2

CYUL;2010-12-20 07:51;CYUL 200751Z 28002KT 1/4SM R06R/2000FT/N R06L/1400FT/N FZFG VV001 M09/ RMK FG8

CYUL;2010-12-20 08:00;CYUL 200800Z 30002KT 1/4SM R06R/1200V1800FT/N R06L/1200FT/N FZFG VV001 M08/M09 A3002 RMK FG8 SLP168

CYUL;2010-12-20 08:52;CYUL 200852Z 30003KT 3/4SM R06R/2400FT/U R06L/2800VP6000FT/N BR OVC001 M09/ RMK ST8

CYUL;2010-12-20 09:00;CYUL 200900Z 30002KT 3/4SM R06R/2600V5000FT/N R06L/4000VP6000FT/U BR OVC001 M09/M10 A3001 RMK ST8 SLP167

CYUL;2010-12-20 09:30;CYUL 200930Z 30004KT 1SM R06R/3500V5500FT/U R06L/4500VP6000FT/D -SN BR OVC002 M09/ RMK ST8

CYUL;2010-12-20 10:00;CYUL 201000Z 28003KT 3/8SM R06R/2400FT/N R06L/2400VP6000FT/U -SN FZFG VV001 M09/M10 A3001 RMK FG8 SLP165

CYUL;2010-12-20 11:00;CYUL 201100Z 26003KT 3/8SM R06R/2400FT/N R06L/1400V2000FT/U FZFG VV001 M09/M10 A3002 RMK FG8 SLP168

CYUL;2010-12-20 11:29;CYUL 201129Z 27003KT 1/2SM R06R/2800FT/N R06L/3000FT/D -SN FZFG VV001 M09/ RMK FG8 -SN INTMT

CYUL;2010-12-20 12:00;CYUL 201200Z 30003KT 5/8SM R06R/2800V5500FT/N R06L/3000FT/N BR VV001 M10/M11 A3002 RMK FG8 SLP168

CYUL;2010-12-20 12:34;CYUL 201234Z 28003KT 1SM R06R/P6000FT/D R06L/P6000FT/U BR OVC002 M10/ RMK ST8

CYUL;2010-12-20 12:52;CYUL 201252Z 27004KT 1 1/4SM BR FEW001 BKN045 M10/ RMK ST2SC2

CYUL;2010-12-20 13:00;CYUL 201300Z 26003KT 1 3/4SM R06R/2800V5000FT/N R06L/P6000FT/D BR FEW001 BKN045 M10/M11 A3003 RMK ST2SC1 SLP171

CYUL;2010-12-20 14:00;CYUL 201400Z 00000KT 2SM BR FEW001 FEW040 FEW240 M10/M11 A3004 RMK ST1SC1CI1 SLP174

CYUL;2010-12-20 15:00;CYUL 201500Z 00000KT 3SM BR FEW001 FEW040 FEW240 M09/M10 A3003 RMK SF1SC1CI1 SLP173

CYUL;2010-12-20 16:00;CYUL 201600Z 00000KT 4SM BR FEW002 FEW240 M08/M09 A3002 RMK SF1CI1 VIA CYQB FIC SLP169

CYUL;2010-12-20 16:28;CYUL 201628Z 00000KT 4SM -SHSN BR FEW002 SCT020 M07/ RMK SF1SC2 VIA CYQB FIC

CYUL;2010-12-20 17:00;CYUL 201700Z 00000KT 4SM -SHSN BR SCT020 SCT210 M07/M07 A3000 RMK SC3CI1 VIA CYQB FIC SLP162

CYUL;2010-12-20 18:00;CYUL 201800Z 04005KT 6SM -SHSN BR FEW020 BKN036 M06/M07 A2999 RMK SC2SC6 VIA YQB FIC SLP158

CYUL;2010-12-20 19:00;CYUL 201900Z 00000KT 8SM -SHSN FEW017 OVC032 M06/M07 A3000 RMK SC2SC6 VIA CYQB FIC SLP163

CYUL;2010-12-20 19:35;CYUL 201935Z 01004KT 8SM FEW020 BKN030 M06/ RMK SC2SC6

CYUL;2010-12-20 20:00;CYUL 202000Z 01002KT 8SM FEW020 OVC030 M06/M08 A3001 RMK SC2SC6 SLP166

CYUL;2010-12-20 21:00;CYUL 202100Z 00000KT 10SM OVC027 M06/M08 A3002 RMK SC8 SLP168

CYUL;2010-12-20 22:00;CYUL 202200Z 00000KT 10SM OVC025 M05/M08 A3004 RMK SC8 SLP175

CYUL;2010-12-20 23:00;CYUL 202300Z 35002KT 10SM OVC025 M05/M08 A3004 RMK SC8 SLP177

CYUL;2010-12-21 00:00;CYUL 210000Z 35005KT 10SM -SN OVC022 M05/M08 A3005 RMK SC8 SLP179

CYUL;2010-12-21 01:00;CYUL 210100Z 33005KT 15SM -SN OVC025 M05/M09 A3003 RMK SC8 SLP173

CYUL;2010-12-21 01:36;CYUL 210136Z 32005KT 15SM OVC025 M05/ RMK SC8

CYUL;2010-12-21 02:00;CYUL 210200Z 31005KT 15SM OVC025 M05/M09 A3002 RMK SC8 SLP169

CYUL;2010-12-21 03:00;CYUL 210300Z 28005KT 15SM FEW025 OVC120 M05/M09 A3001 RMK SC2AS6 SLP167

CYUL;2010-12-21 04:00;CYUL 210400Z 28006KT 15SM FEW030 OVC100 M05/M09 A3002 RMK SC2AS6 SLP168

CYUL;2010-12-21 05:00;CYUL 210500Z 29007KT 15SM FEW030 OVC085 M05/M08 A3001 RMK SC1AS7 SLP167

CYUL;2010-12-21 06:00;CYUL 210600Z 29007KT 15SM OVC085 M05/M08 A3000 RMK AS8 SLP162

CYUL;2010-12-21 06:22;CYUL 210622Z 28008KT 15SM -SN OVC045 M05/ RMK SC8

CYUL;2010-12-21 07:00;CYUL 210700Z 28006KT 5SM -SN OVC030 M06/M08 A3001 RMK SC8 SLP166

CYUL;2010-12-21 08:00;CYUL 210800Z 28007KT 15SM SCT060 OVC140 M06/M08 A3000 RMK SC4AS4 SLP163

CYUL;2010-12-21 09:00;CYUL 210900Z 29006KT 15SM BKN053 OVC150 M05/M08 A2999 RMK SC7AS1 SLP160

CYUL;2010-12-21 10:00;CYUL 211000Z 28006KT 15SM FEW030 OVC040 M05/M08 A2999 RMK SC2SC6 SLP160

CYUL;2010-12-21 11:00;CYUL 211100Z 28006KT 15SM OVC021 M05/M08 A3001 RMK SC8 SLP164

CYUL;2010-12-21 12:00;CYUL 211200Z 28007KT 15SM OVC020 M05/M08 A3001 RMK SC8 SLP165

CYUL;2010-12-21 13:00;CYUL 211300Z 28006KT 15SM OVC028 M04/M07 A3001 RMK SC8 SLP164

CYUL;2010-12-21 13:29;CYUL 211329Z 28005KT 15SM -SN OVC035 M04/ RMK SC8

CYUL;2010-12-21 14:00;CYUL 211400Z 29005KT 15SM -SN OVC043 M04/M07 A3001 RMK SC8 SLP166

CYUL;2010-12-21 15:00;CYUL 211500Z 28004KT 12SM -SN BKN022 OVC045 M04/M07 A3001 RMK SC6SC2 SLP165

CYUL;2010-12-21 16:00;CYUL 211600Z 27008KT 15SM FEW022 OVC040 M03/M07 A2999 RMK SC2SC6 SLP158

CYUL;2010-12-21 17:00;CYUL 211700Z 27008KT 15SM FEW022 OVC028 M03/M06 A2997 RMK SC2SC6 SLP152

CYUL;2010-12-21 17:32;CYUL 211732Z 27011KT 15SM -SN BKN020 OVC027 M03/ RMK SC6SC2

CYUL;2010-12-21 18:00;CYUL 211800Z 27009KT 15SM -SN SCT022 OVC030 M02/M06 A2996 RMK SC3SC5 SLP149

CYUL;2010-12-21 19:00;CYUL 211900Z 27007KT 10SM -SN OVC030 M03/M06 A2997 RMK SC8 SLP152

CYUL;2010-12-21 19:40;CYUL 211940Z 27010KT 15SM FEW020 OVC030 M02/ RMK SC1SC7

CYUL;2010-12-21 20:00;CYUL 212000Z 27009KT 15SM -SN FEW020 OVC033 M03/M05 A2998 RMK SC2SC6 -SN INTMT SLP154

CYUL;2010-12-21 21:00;CYUL 212100Z 26010KT 15SM FEW020 OVC040 M02/M05 A2999 RMK SC2SC6 INTMT -SN SLP156

CYUL;2010-12-21 22:00;CYUL 212200Z 26010KT 15SM -SN FEW020 OVC032 M02/M05 A2999 RMK SC2SC6 SLP159

CYUL;2010-12-21 23:00;CYUL 212300Z 26008KT 10SM -SN FEW020 OVC035 M03/M05 A3001 RMK SC2SC6 SLP163

CYUL;2010-12-22 00:00;CYUL 220000Z 25007KT 15SM FEW020 BKN035 OVC045 M03/M05 A3000 RMK SC1SC5SC2 INTMT -SN SLP162

CYUL;2010-12-22 01:00;CYUL 220100Z 25008KT 15SM BKN023 OVC045 M03/M05 A2999 RMK SC6SC2 SLP158

CYUL;2010-12-22 02:00;CYUL 220200Z 25007KT 15SM FEW023 BKN045 M03/M06 A2998 RMK SC2SC5 SLP153

CYUL;2010-12-22 03:00;CYUL 220300Z 24006KT 15SM FEW025 FEW045 OVC180 M04/M06 A2996 RMK SC1SC2AC6 SLP149

CYUL;2010-12-22 04:00;CYUL 220400Z 26008KT 15SM FEW022 FEW045 OVC180 M04/M06 A2996 RMK SC1SC2AC6 SLP147

CYUL;2010-12-22 05:00;CYUL 220500Z 27008KT 15SM BKN023 OVC180 M03/M05 A2995 RMK SC7AC1 SLP143

CYUL;2010-12-22 06:00;CYUL 220600Z 25006KT 15SM BKN025 OVC180 M03/M06 A2993 RMK SC6AC1 SLP138

CYUL;2010-12-22 07:00;CYUL 220700Z 24005KT 15SM FEW025 FEW040 BKN180 M04/M06 A2993 RMK SC1SC1AC2 SLP136

CYUL;2010-12-22 08:00;CYUL 220800Z 23004KT 15SM FEW025 BKN038 BKN220 M04/M06 A2992 RMK SC1SC6CI1 SLP135

CYUL;2010-12-22 09:00;CYUL 220900Z 24004KT 15SM FEW025 OVC037 M04/M05 A2992 RMK SC2SC6 SLP133

CYUL;2010-12-22 10:00;CYUL 221000Z 27003KT 15SM OVC037 M04/M05 A2991 RMK SC8 SLP130

CYUL;2010-12-22 11:00;CYUL 221100Z 25003KT 15SM FEW025 BKN039 M03/M05 A2990 RMK SC1SC6 SLP128

CYUL;2010-12-22 12:00;CYUL 221200Z 26004KT 15SM FEW025 OVC035 M03/M05 A2990 RMK SC2SC6 SLP126

CYUL;2010-12-22 13:00;CYUL 221300Z 23004KT 15SM FEW010 FEW028 OVC037 M03/M05 A2989 RMK SF1SC1SC7 SLP124

CYUL;2010-12-22 14:00;CYUL 221400Z 26006KT 15SM FEW010 BKN035 BKN042 M03/M05 A2988 RMK SF1SC6SC1 SLP121

CYUL;2010-12-22 15:00;CYUL 221500Z 26005KT 15SM FEW010 OVC033 M02/M04 A2988 RMK SF1SC7 SLP121

CYUL;2010-12-22 16:00;CYUL 221600Z 26006KT 15SM FEW015 OVC030 M01/M04 A2986 RMK SC1SC7 SLP115

CYUL;2010-12-22 16:30;CYUL 221630Z 27006KT 15SM -SN BKN018 OVC030 M01/ RMK SC6SC2

CYUL;2010-12-22 16:50;CYUL 221650Z 27007KT 2SM -SN BKN015 OVC020 M01/ RMK SC6SC2

CYUL;2010-12-22 17:00;CYUL 221700Z 28006KT 1 1/2SM -SN BKN011 OVC018 M02/M04 A2985 RMK SN2SC5SC1 SLP110

CYUL;2010-12-22 17:06;CYUL 221706Z 29007KT 1SM R24L/5500FT/D R24R/P6000FT/D -SN VV009 M02/ RMK SN8

CYUL;2010-12-22 18:00;CYUL 221800Z 29006KT 3/4SM R24L/5500FT/U R24R/5500FT/U -SN VV008 M02/M03 A2983 RMK SN8 /S01/ SLP102

CYUL;2010-12-22 18:30;CYUL 221830Z 28006KT 1SM R24L/5500FT/U R24R/6000FT/U -SN VV009 M01/ RMK SN8

CYUL;2010-12-22 18:42;CYUL 221842Z 28005KT 1 1/2SM -SN BKN007 OVC018 M01/ RMK SN2SF4SC2

CYUL;2010-12-22 19:00;CYUL 221900Z 28005KT 2SM -SN BKN007 OVC015 M01/M02 A2982 RMK SN1SF5SC2 SLP099

CYUL;2010-12-22 19:20;CYUL 221920Z 28006KT 3SM -SN SCT007 BKN012 OVC020 M01/ RMK SF4SF2SC2

CYUL;2010-12-22 19:42;CYUL 221942Z 28005KT 3SM -SN FEW007 SCT012 OVC025 M01/ RMK SF2SF2SC4

CYUL;2010-12-22 20:00;CYUL 222000Z 28005KT 4SM -SN FEW007 SCT012 OVC022 M01/M02 A2982 RMK SF2SF2SC4 SLP100

CYUL;2010-12-22 20:36;CYUL 222036Z 30005KT 3SM -SN SCT007 BKN014 OVC022 M00/ RMK SF3SC2SC2

CYUL;2010-12-22 21:00;CYUL 222100Z 31007KT 2 1/2SM -SN BKN009 BKN014 OVC020 M01/M01 A2983 RMK SF5SF2SC2 /S01/ SLP103

CYUL;2010-12-22 21:16;CYUL 222116Z 31007KT 2SM -SN SCT009 OVC016 M01/ RMK SF3SC5

CYUL;2010-12-22 21:46;CYUL 222146Z 30006KT 3SM -SN FEW008 SCT014 OVC030 M01/ RMK SF2SF2SC5

CYUL;2010-12-22 22:00;CYUL 222200Z 29004KT 4SM -SN FEW008 BKN016 OVC030 M01/M01 A2983 RMK SF2SF3SC3 SLP105

CYUL;2010-12-22 23:00;CYUL 222300Z 30006KT 3SM -SN FEW008 OVC020 M01/M01 A2984 RMK SF2SC6 SLP107

CYUL;2010-12-23 00:00;CYUL 230000Z 32004KT 3SM -SN FEW007 SCT012 OVC025 M01/M02 A2984 RMK SF2SF2SC5 /S02/ SLP108

CYUL;2010-12-23 00:21;CYUL 230021Z 32004KT 3SM -SN FEW007 BKN011 OVC025 M01/ RMK SF2SF3SC3

CYUL;2010-12-23 01:00;CYUL 230100Z 33006KT 3SM -SN SCT007 BKN012 OVC025 M01/M02 A2985 RMK SF3SF2SC2 SLP110

CYUL;2010-12-23 01:18;CYUL 230118Z 32004KT 3SM -SN FEW007 SCT012 OVC020 M01/ RMK SF2SF2SC4

CYUL;2010-12-23 02:00;CYUL 230200Z 32004KT 4SM -SN FEW007 SCT012 OVC025 M01/M02 A2985 RMK SF1SF2SC5 SLP111

CYUL;2010-12-23 03:00;CYUL 230300Z 31005KT 4SM -SN FEW007 SCT015 OVC055 M01/M03 A2985 RMK SF2SF2SC4 SLP111

CYUL;2010-12-23 04:00;CYUL 230400Z 31006KT 4SM -SN FEW007 SCT013 OVC030 M02/M03 A2985 RMK SF1SF3SC4 SLP112

CYUL;2010-12-23 05:00;CYUL 230500Z 32009KT 4SM -SN FEW009 BKN017 OVC030 M02/M03 A2985 RMK SF2SF4SC2 /S01/ SLP111

CYUL;2010-12-23 06:00;CYUL 230600Z 32007KT 4SM -SN FEW009 BKN011 OVC027 M02/M04 A2985 RMK SF1SF6SC1 /S02/ SLP110

CYUL;2010-12-23 07:00;CYUL 230700Z 32007KT 4SM -SN FEW009 BKN015 OVC022 M03/M04 A2986 RMK SF1SF6SC2 SLP114

CYUL;2010-12-23 07:34;CYUL 230734Z 32007KT 3SM -SN BKN012 OVC026 M03/ RMK SF6SC2

CYUL;2010-12-23 08:00;CYUL 230800Z 32007KT 4SM -SN SCT012 OVC030 M03/M04 A2987 RMK SF3SC4 /S01/ SLP117

CYUL;2010-12-23 09:00;CYUL 230900Z 32006KT 3SM -SN BKN017 OVC037 M03/M04 A2987 RMK SF6SC2 SLP118

CYUL;2010-12-23 09:46;CYUL 230946Z 33006KT 3SM -SN BKN014 OVC037 M03/ RMK SF6SC2

CYUL;2010-12-23 10:00;CYUL 231000Z 32005KT 2 1/2SM -SN BKN007 OVC025 M03/M04 A2988 RMK SF6SC2 SLP122

CYUL;2010-12-23 11:00;CYUL 231100Z 31005KT 1 1/2SM -SN BKN006 OVC017 M03/M04 A2990 RMK SF6SC2 /S02/ SLP126

CYUL;2010-12-23 12:00;CYUL 231200Z 29006KT 2SM -SN BKN009 OVC025 M03/M04 A2991 RMK SF6SC2 /S03/ SLP129

CYUL;2010-12-23 12:29;CYUL 231229Z 28005KT 2 1/2SM -SN SCT012 OVC045 M03/ RMK SF3SC5

CYUL;2010-12-23 12:37;CYUL 231237Z 28006KT 3SM -SN FEW012 OVC043 M03/ RMK SF2SC6

CYUL;2010-12-23 13:00;CYUL 231300Z 28006KT 3SM -SN FEW012 OVC040 M03/M04 A2992 RMK SF2SC6 VIS W 11/2 /S01/ SLP133

CYUL;2010-12-23 13:13;CYUL 231313Z 27006KT 3SM -SN FEW008 BKN025 OVC040 M03/ RMK SF2SC5SC2 VIS W 11/2

CYUL;2010-12-23 13:28;CYUL 231328Z 28006KT 2 1/2SM -SN FEW008 BKN012 OVC025 M03/ RMK SF2SF5SC2

CYUL;2010-12-23 14:00;CYUL 231400Z 27004KT 2 1/2SM -SN FEW009 BKN014 OVC028 M03/M04 A2994 RMK SF2SF6SC1 SLP140

CYUL;2010-12-23 14:12;CYUL 231412Z 27005KT 1 1/2SM R24L/4500V6000FT/U R24R/6000FT/N -SN FEW009 BKN015 OVC033 M03/ RMK SF2SF6SC1

CYUL;2010-12-23 14:52;CYUL 231452Z 27006KT 1 1/4SM -SN FEW009 BKN013 OVC030 M03/ RMK SF2SF6SC1

CYUL;2010-12-23 15:00;CYUL 231500Z 28006KT 1 1/4SM -SN FEW009 BKN016 OVC032 M03/M04 A2996 RMK SF1SC6SC2 /S02/ SLP146

CYUL;2010-12-23 15:05;CYUL 231505Z 28007KT 1 3/4SM -SN FEW009 BKN017 OVC032 M03/ RMK SF2SC6SC1

CYUL;2010-12-23 15:29;CYUL 231529Z 28006KT 3SM -SN FEW009 BKN020 OVC032 M03/ RMK SF1SC6SC2

CYUL;2010-12-23 15:41;CYUL 231541Z 27006KT 6SM -SN FEW014 BKN025 OVC040 M03/ RMK SF1SC5SC2 SUN DIMLY VISBL

CYUL;2010-12-23 16:00;CYUL 231600Z 27006KT 12SM -SN FEW017 BKN025 OVC040 M02/M04 A2996 RMK SF1SC5SC2 SLP149

CYUL;2010-12-23 17:00;CYUL 231700Z 26008KT 15SM -SN FEW027 OVC062 M02/M04 A2996 RMK SC2SC6 VRY LGT RA SLP148

CYUL;2010-12-23 17:29;CYUL 231729Z 26009KT 15SM FEW030 OVC067 M02/ RMK SC2AC6

CYUL;2010-12-23 18:00;CYUL 231800Z 26008KT 15SM FEW030 OVC068 M01/M04 A2996 RMK SC2AC6 SLP148

CYUL;2010-12-23 19:00;CYUL 231900Z 27005KT 15SM BKN060 M01/M04 A2996 RMK SC7 SLP148

CYUL;2010-12-23 20:00;CYUL 232000Z 26006KT 15SM SCT058 BKN072 M00/M05 A2998 RMK SC3AC2 SLP154

CYUL;2010-12-23 21:00;CYUL 232100Z 28007KT 15SM BKN058 BKN075 M01/M05 A3000 RMK SC3AC1 SLP160

CYUL;2010-12-23 22:00;CYUL 232200Z 29008KT 15SM FEW060 FEW240 M03/M07 A3002 RMK SC1CI1 SLP167

CYUL;2010-12-23 23:00;CYUL 232300Z 30006KT 15SM FEW240 M05/M08 A3004 RMK CI1 SLP174

CYUL;2010-12-24 00:00;CYUL 240000Z 30007KT 15SM FEW070 FEW240 M06/M09 A3007 RMK AC1CI0 SLP184

CYUL;2010-12-24 01:00;CYUL 240100Z 31007KT 15SM FEW240 M07/M10 A3008 RMK CI1 SLP188

CYUL;2010-12-24 02:00;CYUL 240200Z 31004KT 15SM FEW240 M09/M11 A3009 RMK CI1 SLP192

CYUL;2010-12-24 03:00;CYUL 240300Z 31005KT 15SM FEW150 FEW240 M10/M12 A3010 RMK AC1CI0 SLP197

CYUL;2010-12-24 04:00;CYUL 240400Z 30005KT 15SM FEW150 FEW240 M10/M12 A3012 RMK AC1CI0 SLP201

CYUL;2010-12-24 05:00;CYUL 240500Z 29005KT 15SM FEW150 M11/M13 A3012 RMK AC1 SLP202

CYUL;2010-12-24 06:00;CYUL 240600Z 30006KT 15SM SKC M11/M12 A3012 RMK SLP202

CYUL;2010-12-24 07:00;CYUL 240700Z 29005KT 15SM SKC M11/M13 A3013 RMK SLP205

CYUL;2010-12-24 08:00;CYUL 240800Z 27004KT 15SM SKC M11/M13 A3013 RMK SLP207

CYUL;2010-12-24 09:00;CYUL 240900Z 26004KT 15SM SKC M12/M13 A3014 RMK SLP208

CYUL;2010-12-24 10:00;CYUL 241000Z 25006KT 15SM SKC M11/M12 A3014 RMK SLP210

CYUL;2010-12-24 11:00;CYUL 241100Z 26006KT 15SM FEW015 FEW240 M11/M12 A3015 RMK SF1CI1 SLP213

CYUL;2010-12-24 12:00;CYUL 241200Z 25006KT 15SM FEW015 FEW150 SCT240 M11/M13 A3016 RMK SF1AC0CI0 SLP217

CYUL;2010-12-24 13:00;CYUL 241300Z 25007KT 15SM FEW015 FEW180 SCT240 M11/M13 A3017 RMK SF1AC1CI0 SLP219

CYUL;2010-12-24 14:00;CYUL 241400Z 26006KT 15SM FEW015 FEW180 BKN240 M10/M12 A3018 RMK SF1AC1CI0 SLP222

CYUL;2010-12-24 15:00;CYUL 241500Z 26008KT 15SM FEW020 SCT180 BKN240 M09/M12 A3018 RMK SF1AC1CI2 SLP224

CYUL;2010-12-24 16:00;CYUL 241600Z 27009KT 30SM FEW020 FEW170 BKN240 M08/M11 A3018 RMK SF1AC1CI2 SLP222

CYUL;2010-12-24 17:00;CYUL 241700Z 25006KT 30SM FEW030 FEW180 BKN240 M07/M11 A3015 RMK SC1AC1CI2 SLP214

CYUL;2010-12-24 18:00;CYUL 241800Z 26007KT 30SM FEW035 FEW180 BKN240 M06/M11 A3014 RMK SC1AC1CI2 SLP210

CYUL;2010-12-24 19:00;CYUL 241900Z 25008KT 30SM FEW035 FEW170 BKN240 M06/M10 A3014 RMK SC1AC1CI2 SLP208

CYUL;2010-12-24 20:00;CYUL 242000Z 26009KT 30SM FEW060 BKN240 M06/M11 A3014 RMK SC1CI2 SLP209

CYUL;2010-12-24 21:00;CYUL 242100Z 25007KT 15SM FEW180 BKN240 M06/M11 A3015 RMK AC1CI2 SLP211

CYUL;2010-12-24 22:00;CYUL 242200Z 24006KT 15SM FEW240 M06/M11 A3015 RMK CI1 SLP211

CYUL;2010-12-24 23:00;CYUL 242300Z 26009KT 15SM FEW240 M07/M11 A3015 RMK CI1 SLP211

CYUL;2010-12-25 00:00;CYUL 250000Z 26009KT 15SM SKC M07/M11 A3014 RMK SLP210

CYUL;2010-12-25 01:00;CYUL 250100Z 25005KT 15SM SKC M08/M11 A3015 RMK SLP212

CYUL;2010-12-25 02:00;CYUL 250200Z 00000KT 15SM SKC M10/M12 A3015 RMK SLP211

CYUL;2010-12-25 03:00;CYUL 250300Z 00000KT 15SM SKC M10/M12 A3015 RMK SLP211

CYUL;2010-12-25 04:00;CYUL 250400Z 00000KT 15SM SKC M12/M14 A3015 RMK SLP211

CYUL;2010-12-25 05:00;CYUL 250500Z 00000KT 15SM SKC M11/M13 A3014 RMK SLP210

CYUL;2010-12-25 06:00;CYUL 250600Z 00000KT 15SM SKC M11/M12 A3014 RMK SLP209

CYUL;2010-12-25 07:00;CYUL 250700Z 00000KT 15SM FEW240 M12/M13 A3014 RMK CI0 SLP208

CYUL;2010-12-25 08:00;CYUL 250800Z 31003KT 15SM FEW240 M12/M14 A3014 RMK CI0 SLP209

CYUL;2010-12-25 09:00;CYUL 250900Z 36002KT 15SM BKN240 M12/M13 A3013 RMK CI0 SLP207

CYUL;2010-12-25 10:00;CYUL 251000Z 00000KT 15SM BKN230 M14/M15 A3013 RMK CI0 SLP207

CYUL;2010-12-25 11:00;CYUL 251100Z 00000KT 15SM FEW180 BKN220 M13/M14 A3014 RMK AC1CI0 SLP209

CYUL;2010-12-25 12:00;CYUL 251200Z 00000KT 15SM FEW015 FEW180 SCT220 M13/M15 A3015 RMK SF1AC1CI0 SLP211

CYUL;2010-12-25 13:00;CYUL 251300Z 00000KT 15SM FEW015 FEW180 BKN210 M13/M14 A3014 RMK SF1AC0CI0 SLP210

CYUL;2010-12-25 14:00;CYUL 251400Z 30002KT 15SM FEW015 FEW180 BKN210 M13/M14 A3014 RMK SF1AC1CI0 SLP210

CYUL;2010-12-25 15:00;CYUL 251500Z 29002KT 30SM FEW017 FEW180 BKN240 M11/M12 A3014 RMK SF1AC1CI2 SLP209

CYUL;2010-12-25 16:00;CYUL 251600Z 00000KT 30SM FEW017 FEW180 BKN220 M10/M11 A3012 RMK SF1AC1CI2 SLP204

CYUL;2010-12-25 17:00;CYUL 251700Z 00000KT 30SM FEW018 SCT180 BKN220 M08/M12 A3011 RMK SF1AC2CS2 SLP200

CYUL;2010-12-25 18:00;CYUL 251800Z 23002KT 30SM FEW018 SCT150 BKN230 M07/M12 A3010 RMK SF1AC2CS2 SLP195

CYUL;2010-12-25 19:00;CYUL 251900Z 00000KT 30SM FEW020 BKN150 OVC220 M07/M12 A3009 RMK SF1AS2CS2 SLP191

CYUL;2010-12-25 20:00;CYUL 252000Z 27003KT 15SM FEW020 BKN150 OVC220 M08/M12 A3009 RMK SF1AS2CS2 SLP192

CYUL;2010-12-25 21:00;CYUL 252100Z 27003KT 15SM SCT140 OVC210 M08/M12 A3009 RMK AS2CS3 SLP193

CYUL;2010-12-25 22:00;CYUL 252200Z 27003KT 15SM BKN150 OVC210 M09/M12 A3011 RMK AS3CS2 SLP199

CYUL;2010-12-25 23:00;CYUL 252300Z 24003KT 15SM BKN150 OVC210 M10/M12 A3012 RMK AS3CS2 SLP202

CYUL;2010-12-26 00:00;CYUL 260000Z 00000KT 15SM FEW150 SCT240 M10/M13 A3012 RMK AC1CI1 SLP201

CYUL;2010-12-26 01:00;CYUL 260100Z 26002KT 15SM FEW150 BKN200 M12/M13 A3011 RMK AC1CI2 SLP200

CYUL;2010-12-26 02:00;CYUL 260200Z 00000KT 15SM BKN130 BKN200 M12/M13 A3011 RMK AS3CS1 SLP199

CYUL;2010-12-26 03:00;CYUL 260300Z 00000KT 15SM SCT140 BKN200 M11/M13 A3011 RMK AC2CS2 SLP200

CYUL;2010-12-26 04:00;CYUL 260400Z 00000KT 15SM SCT160 BKN200 M12/M13 A3011 RMK AC1CS2 SLP200

CYUL;2010-12-26 05:00;CYUL 260500Z 00000KT 15SM FEW150 BKN200 M11/M13 A3012 RMK AC1CI0 SLP204

CYUL;2010-12-26 06:00;CYUL 260600Z 01002KT 15SM FEW015 FEW130 BKN200 M12/M13 A3011 RMK SF1AC1CI1 SLP199

CYUL;2010-12-26 07:00;CYUL 260700Z 04004KT 15SM BKN180 M10/M12 A3012 RMK AS3 SLP203

CYUL;2010-12-26 08:00;CYUL 260800Z 02004KT 15SM BKN140 M13/M15 A3013 RMK AS3 SLP205

CYUL;2010-12-26 09:00;CYUL 260900Z 04006KT 15SM FEW015 FEW120 BKN210 M10/M14 A3013 RMK SF1AC1CI2 SLP206

CYUL;2010-12-26 10:00;CYUL 261000Z 36003KT 15SM FEW015 FEW170 BKN200 M11/M14 A3014 RMK SF1AC1CS4 SLP208

CYUL;2010-12-26 11:00;CYUL 261100Z 02005KT 15SM FEW015 BKN160 BKN200 M11/M15 A3014 RMK SF1AS4CI0 SLP210

CYUL;2010-12-26 12:00;CYUL 261200Z 01005KT 15SM FEW015 FEW140 SCT240 M13/M15 A3013 RMK SF1AC2CI0 VIA CYQB FIC SLP207

CYUL;2010-12-26 13:00;CYUL 261300Z 01006KT 15SM BKN022 M12/M15 A3014 RMK SC6 SLP208

CYUL;2010-12-26 14:00;CYUL 261400Z 03008KT 15SM BKN020 M11/M15 A3015 RMK SC7 SLP212

CYUL;2010-12-26 14:16;CYUL 261416Z 03008KT 15SM -SN BKN021 M11/ RMK SC6

CYUL;2010-12-26 15:00;CYUL 261500Z 04012KT 15SM -SN BKN021 M11/M15 A3016 RMK SC4 SLP216

CYUL;2010-12-26 16:00;CYUL 261600Z 04011KT 30SM -SN SCT023 SCT045 M11/M14 A3015 RMK SC2SC1 VRY LGT SN SLP212

CYUL;2010-12-26 17:00;CYUL 261700Z 02009KT 15SM -SN FEW018 BKN024 M10/M14 A3012 RMK SF2SC4 SLP204

CYUL;2010-12-26 18:00;CYUL 261800Z 02008KT 15SM -SN BKN026 M10/M14 A3010 RMK SC6 SLP196

CYUL;2010-12-26 19:00;CYUL 261900Z 04006KT 15SM -SN BKN028 M09/M13 A3008 RMK SC7 SLP188

CYUL;2010-12-26 20:00;CYUL 262000Z 03008KT 15SM BKN027 M09/M14 A3006 RMK SC6 SLP182

CYUL;2010-12-26 21:00;CYUL 262100Z 04006KT 15SM FEW028 FEW045 BKN240 M09/M14 A3006 RMK SC1SC1CI2 SLP181

CYUL;2010-12-26 22:00;CYUL 262200Z 04005KT 15SM FEW028 FEW240 M10/M14 A3003 RMK SC1CI1 SLP171

CYUL;2010-12-26 23:00;CYUL 262300Z 02008KT 15SM FEW030 SCT240 M10/M14 A3002 RMK SC1CI1 SLP168

CYUL;2010-12-26 23:47;CYUL 262347Z 36007KT 15SM -SN SCT030 BKN240 M11/ RMK SC2CI2

CYUL;2010-12-27 00:00;CYUL 270000Z 02007KT 15SM -SN BKN032 BKN240 M10/M14 A2999 RMK SC5CI2 SLP160

CYUL;2010-12-27 01:00;CYUL 270100Z 04014KT 15SM -SN BKN030 M09/M14 A2998 RMK SC6 SLP156

CYUL;2010-12-27 02:00;CYUL 270200Z 02018KT 15SM -SN OVC024 M10/M14 A2990 RMK SC7 SLP129

CYUL;2010-12-27 03:00;CYUL 270300Z 02014KT 15SM OVC019 M10/M14 A2986 RMK SC7 SLP114

CYUL;2010-12-27 04:00;CYUL 270400Z 02014KT 15SM OVC019 M10/M14 A2984 RMK SC7 SLP107

CYUL;2010-12-27 05:00;CYUL 270500Z 02016KT 15SM OVC021 M10/M14 A2981 RMK SC7 SLP097

CYUL;2010-12-27 06:00;CYUL 270600Z 01015G24KT 15SM -SN OVC020 M11/M15 A2976 RMK SC7 SLP082

CYUL;2010-12-27 07:00;CYUL 270700Z 01016G24KT 15SM -SN OVC025 M11/M15 A2973 RMK SC8 SLP072

CYUL;2010-12-27 07:51;CYUL 270751Z 01014KT 15SM BKN021 M11/ RMK SC6

CYUL;2010-12-27 08:00;CYUL 270800Z 36013G18KT 15SM BKN023 M11/M15 A2972 RMK SC6 SLP068

CYUL;2010-12-27 09:00;CYUL 270900Z 36015KT 15SM -SN OVC020 M11/M16 A2968 RMK SC8 SLP055

CYUL;2010-12-27 10:00;CYUL 271000Z 35010G17KT 15SM -SN OVC022 M11/M16 A2967 RMK SC8 SLP049

CYUL;2010-12-27 11:00;CYUL 271100Z 35010G15KT 15SM OVC024 M12/M17 A2965 RMK SC8 INTMT -SN SLP043

CYUL;2010-12-27 11:54;CYUL 271154Z 34006KT 15SM BKN024 M12/ RMK SC6

CYUL;2010-12-27 12:00;CYUL 271200Z 35006KT 15SM BKN026 M12/M17 A2965 RMK SC6 SLP043

CYUL;2010-12-27 13:00;CYUL 271300Z 31003KT 15SM BKN040 M13/M18 A2964 RMK SC7 SLP040

CYUL;2010-12-27 14:00;CYUL 271400Z 32005KT 15SM SCT040 M14/M19 A2964 RMK SC2 SLP040

CYUL;2010-12-27 15:00;CYUL 271500Z 30006KT 30SM FEW040 FEW240 M12/M18 A2963 RMK SC1CI1 SLP036

CYUL;2010-12-27 16:00;CYUL 271600Z 30007KT 30SM BKN035 BKN240 M11/M18 A2961 RMK SC4CI1 SLP029

CYUL;2010-12-27 17:00;CYUL 271700Z 33006KT 15SM BKN040 M10/M18 A2958 RMK SC6 SLP019

CYUL;2010-12-27 18:00;CYUL 271800Z 33005KT 30SM SCT045 SCT240 M09/M18 A2956 RMK SC2CI0 SLP012

CYUL;2010-12-27 19:00;CYUL 271900Z 27005KT 15SM BKN048 M08/M16 A2956 RMK SC6 SLP011

CYUL;2010-12-27 20:00;CYUL 272000Z 34012G18KT 15SM BKN057 M07/M16 A2957 RMK SC6 SLP016

CYUL;2010-12-27 21:00;CYUL 272100Z 32012KT 15SM FEW058 M08/M17 A2960 RMK SC1 SLP026

CYUL;2010-12-27 22:00;CYUL 272200Z 32009KT 15SM FEW055 M09/M17 A2963 RMK SC1 SLP036

CYUL;2010-12-27 23:00;CYUL 272300Z 28006KT 15SM SKC M11/M18 A2965 RMK SLP044

CYUL;2010-12-28 00:00;CYUL 280000Z 29008KT 15SM SKC M12/M18 A2967 RMK SLP051

CYUL;2010-12-28 01:00;CYUL 280100Z 29008KT 15SM SKC M12/M18 A2968 RMK SLP054

CYUL;2010-12-28 02:00;CYUL 280200Z 29008KT 15SM SKC M12/M18 A2969 RMK SLP057

CYUL;2010-12-28 03:00;CYUL 280300Z 28009KT 15SM SKC M12/M19 A2970 RMK SLP061

CYUL;2010-12-28 04:00;CYUL 280400Z 28011KT 15SM SKC M12/M19 A2971 RMK SLP063

CYUL;2010-12-28 05:00;CYUL 280500Z 28012KT 15SM SKC M12/M18 A2970 RMK SLP062

CYUL;2010-12-28 06:00;CYUL 280600Z 28015KT 15SM SKC M12/M18 A2971 RMK SLP065

CYUL;2010-12-28 07:00;CYUL 280700Z 27013KT 15SM SKC M12/M18 A2972 RMK SLP067

CYUL;2010-12-28 08:00;CYUL 280800Z 27013G19KT 15SM SKC M12/M18 A2973 RMK SLP070

CYUL;2010-12-28 09:00;CYUL 280900Z 26011KT 15SM SKC M12/M18 A2973 RMK SLP072

CYUL;2010-12-28 10:00;CYUL 281000Z 25013KT 15SM SKC M12/M17 A2973 RMK SLP071

CYUL;2010-12-28 11:00;CYUL 281100Z 27013KT 15SM SKC M11/M17 A2973 RMK SLP072

CYUL;2010-12-28 12:00;CYUL 281200Z 27013KT 15SM SKC M11/M17 A2974 RMK SLP075

CYUL;2010-12-28 13:00;CYUL 281300Z 27014KT 30SM FEW120 M11/M16 A2976 RMK AC1 SLP080

CYUL;2010-12-28 14:00;CYUL 281400Z 27014G19KT 30SM SKC M10/M16 A2976 RMK SLP080

CYUL;2010-12-28 15:00;CYUL 281500Z 27013G18KT 30SM SKC M09/M15 A2978 RMK SLP088

CYUL;2010-12-28 16:00;CYUL 281600Z 27014KT 30SM SKC M09/M14 A2977 RMK SLP085

CYUL;2010-12-28 17:00;CYUL 281700Z 27014KT 30SM FEW240 M07/M14 A2976 RMK CI1 SLP080

CYUL;2010-12-28 18:00;CYUL 281800Z 27013G18KT 30SM FEW240 M07/M13 A2975 RMK CI1 SLP077

CYUL;2010-12-28 19:00;CYUL 281900Z 28011G16KT 30SM FEW060 FEW240 M06/M13 A2975 RMK SC1CI1 SLP077

CYUL;2010-12-28 20:00;CYUL 282000Z 28012KT 30SM FEW060 FEW240 M05/M13 A2975 RMK SC1CI1 SLP076

CYUL;2010-12-28 21:00;CYUL 282100Z 28012KT 30SM FEW060 FEW240 M05/M13 A2976 RMK SC1CI1 SLP082

CYUL;2010-12-28 22:00;CYUL 282200Z 25009KT 15SM FEW240 M06/M14 A2979 RMK CI1 SLP091

CYUL;2010-12-28 23:00;CYUL 282300Z 26007KT 15SM SKC M07/M13 A2981 RMK SLP099

CYUL;2010-12-29 00:00;CYUL 290000Z 27008KT 15SM SKC M07/M13 A2983 RMK SLP103

CYUL;2010-12-29 01:00;CYUL 290100Z 27009KT 15SM SKC M08/M11 A2983 RMK SLP104

CYUL;2010-12-29 02:00;CYUL 290200Z 28008KT 15SM FEW240 M09/M12 A2985 RMK CI1 SLP110

CYUL;2010-12-29 03:00;CYUL 290300Z 28008KT 15SM FEW150 M09/M11 A2985 RMK AC0 SLP111

CYUL;2010-12-29 04:00;CYUL 290400Z 28006KT 15SM FEW150 M09/M11 A2986 RMK AC1 SLP115

CYUL;2010-12-29 05:00;CYUL 290500Z 29005KT 15SM BKN045 M07/M10 A2985 RMK SC6 SLP112

CYUL;2010-12-29 06:00;CYUL 290600Z 28002KT 15SM BKN032 OVC045 M06/M09 A2985 RMK SC6SC2 SLP112

CYUL;2010-12-29 07:00;CYUL 290700Z 31004KT 15SM FEW016 OVC025 M06/M09 A2986 RMK SC2SC6 SLP114

CYUL;2010-12-29 07:53;CYUL 290753Z 00000KT 15SM -SN OVC015 M05/ RMK SC8

CYUL;2010-12-29 08:00;CYUL 290800Z 00000KT 15SM -SN OVC015 M05/M08 A2987 RMK SC8 SLP118

CYUL;2010-12-29 08:48;CYUL 290848Z 00000KT 15SM -SN OVC013 M05/ RMK SC8

CYUL;2010-12-29 09:00;CYUL 290900Z 00000KT 8SM -SN OVC012 M05/M07 A2988 RMK SC8 SLP121

CYUL;2010-12-29 09:13;CYUL 290913Z 00000KT 6SM -SN SCT007 OVC012 M05/ RMK SF3SC5

CYUL;2010-12-29 10:00;CYUL 291000Z 00000KT 6SM -SN SCT006 OVC013 M05/M06 A2989 RMK SF3SC5 SLP124

CYUL;2010-12-29 11:00;CYUL 291100Z 00000KT 4SM -SN OVC009 M05/M06 A2991 RMK SF8 SLP130

CYUL;2010-12-29 12:00;CYUL 291200Z 00000KT 4SM -SN OVC009 M05/M06 A2993 RMK SF8 SLP138

CYUL;2010-12-29 13:00;CYUL 291300Z 00000KT 4SM -SN BKN007 OVC015 M05/M06 A2995 RMK SF6SC2 SLP144

CYUL;2010-12-29 13:35;CYUL 291335Z 00000KT 6SM BR FEW009 OVC028 M05/ RMK SF2SC6

CYUL;2010-12-29 14:00;CYUL 291400Z 30002KT 8SM FEW010 BKN028 OVC038 M04/M05 A2996 RMK SF1SC6SC2 SLP149

CYUL;2010-12-29 14:23;CYUL 291423Z 32003KT 6SM -SN FEW010 OVC030 M04/ RMK SF1SC8 -SN INTMT

CYUL;2010-12-29 15:00;CYUL 291500Z 31004KT 15SM FEW014 OVC035 M03/M05 A2997 RMK SF1SC7 SLP153

CYUL;2010-12-29 15:43;CYUL 291543Z 30007KT 12SM -SN FEW014 OVC036 M03/ RMK SF1SC8 -SN INTMT

CYUL;2010-12-29 16:00;CYUL 291600Z 27004KT 15SM -SN OVC035 M03/M05 A2997 RMK SC8 SLP151

CYUL;2010-12-29 17:00;CYUL 291700Z 26004KT 15SM -SN FEW013 OVC035 M02/M04 A2996 RMK SF2SC6 SLP149

CYUL;2010-12-29 18:00;CYUL 291800Z 27005KT 15SM -SN OVC040 M02/M04 A2995 RMK SC8 SLP144

CYUL;2010-12-29 19:00;CYUL 291900Z 27006KT 15SM -SN OVC042 M01/M03 A2996 RMK SC8 SLP146

CYUL;2010-12-29 20:00;CYUL 292000Z 27007KT 12SM -SN OVC040 M01/M03 A2997 RMK SC8 SLP152

CYUL;2010-12-29 21:00;CYUL 292100Z 26005KT 15SM -SN FEW025 OVC042 M01/M03 A2999 RMK SC1SC7 SLP159

CYUL;2010-12-29 22:00;CYUL 292200Z 26005KT 15SM -SN FEW030 BKN045 M01/M03 A3002 RMK SC1SC5 SLP167

CYUL;2010-12-29 22:36;CYUL 292236Z 27004KT 15SM OVC045 M01/ RMK SC7

CYUL;2010-12-29 23:00;CYUL 292300Z 25003KT 15SM BKN045 M01/M03 A3003 RMK SC7 SLP171

CYUL;2010-12-30 00:00;CYUL 300000Z 25005KT 15SM OVC045 M01/M04 A3004 RMK SC7 SLP176

CYUL;2010-12-30 01:00;CYUL 300100Z 26005KT 15SM BKN044 M01/M04 A3004 RMK SC6 SLP176

CYUL;2010-12-30 02:00;CYUL 300200Z 27007KT 15SM FEW045 M02/M06 A3006 RMK SC2 SLP180

CYUL;2010-12-30 03:00;CYUL 300300Z 27005KT 15SM BKN043 M04/M07 A3008 RMK SC4 SLP190

CYUL;2010-12-30 04:00;CYUL 300400Z 23004KT 15SM SCT240 M04/M07 A3008 RMK CI0 SLP189

CYUL;2010-12-30 05:00;CYUL 300500Z 23003KT 15SM SKC M04/M06 A3007 RMK SLP186

CYUL;2010-12-30 06:00;CYUL 300600Z 23004KT 15SM BKN030 BKN240 M04/M06 A3008 RMK SC4CI1 SLP187

CYUL;2010-12-30 07:00;CYUL 300700Z 20002KT 15SM OVC030 M05/M06 A3009 RMK SC8 SLP190

CYUL;2010-12-30 08:00;CYUL 300800Z 21006KT 12SM OVC026 M03/M04 A3010 RMK SC8 SLP195

CYUL;2010-12-30 09:00;CYUL 300900Z 24010KT 15SM OVC020 M01/M04 A3010 RMK SC8 SLP195

CYUL;2010-12-30 10:00;CYUL 301000Z 24006KT 15SM OVC018 M01/M04 A3011 RMK SC8 SLP197

CYUL;2010-12-30 11:00;CYUL 301100Z 25009KT 15SM OVC019 M01/M03 A3013 RMK SC8 SLP205

CYUL;2010-12-30 12:00;CYUL 301200Z 25008KT 15SM OVC020 M01/M03 A3013 RMK SC8 SLP206

CYUL;2010-12-30 13:00;CYUL 301300Z 25008KT 10SM OVC020 M00/M03 A3013 RMK SC7 SLP206

CYUL;2010-12-30 14:00;CYUL 301400Z 24007KT 12SM OVC018 00/M03 A3015 RMK SC8 SLP213

CYUL;2010-12-30 15:00;CYUL 301500Z 24012KT 15SM OVC018 M00/M03 A3017 RMK SC8 SLP217

CYUL;2010-12-30 16:00;CYUL 301600Z 26013KT 15SM BKN019 BKN030 M00/M04 A3016 RMK SC5SC2 SLP216

CYUL;2010-12-30 17:00;CYUL 301700Z 26010KT 15SM BKN021 BKN030 00/M04 A3014 RMK SC5SC2 SLP208

CYUL;2010-12-30 18:00;CYUL 301800Z 22011KT 30SM FEW035 SCT240 01/M04 A3012 RMK SC1CI1 SLP202

CYUL;2010-12-30 19:00;CYUL 301900Z 22008KT 30SM BKN240 01/M04 A3009 RMK CI2 SLP191

CYUL;2010-12-30 20:00;CYUL 302000Z 23007KT 30SM BKN240 01/M04 A3008 RMK CI2 SLP189

CYUL;2010-12-30 21:00;CYUL 302100Z 22005KT 15SM BKN240 00/M04 A3008 RMK CI2 SLP189

CYUL;2010-12-30 22:00;CYUL 302200Z 19004KT 15SM FEW240 M01/M04 A3008 RMK CI1 SLP188

CYUL;2010-12-30 23:00;CYUL 302300Z 14003KT 15SM FEW240 M02/M05 A3007 RMK CI1 SLP185

CYUL;2010-12-31 00:00;CYUL 310000Z 22003KT 15SM FEW170 FEW240 M02/M05 A3007 RMK AC1CI1 SLP185

CYUL;2010-12-31 01:00;CYUL 310100Z 23004KT 15SM FEW110 BKN240 M01/M04 A3007 RMK AC1CI1 SLP185

CYUL;2010-12-31 02:00;CYUL 310200Z 16002KT 15SM BKN030 BKN130 M01/M03 A3006 RMK SC5AC2 SLP182

CYUL;2010-12-31 03:00;CYUL 310300Z 18003KT 12SM BKN029 OVC100 M01/M04 A3006 RMK SC6AC2 SLP180

CYUL;2010-12-31 04:00;CYUL 310400Z 16003KT 12SM OVC026 M02/M04 A3005 RMK SC8 SLP178

CYUL;2010-12-31 05:00;CYUL 310500Z 15003KT 10SM OVC035 M01/M03 A3004 RMK SC8 SLP176

CYUL;2010-12-31 06:00;CYUL 310600Z 14005KT 12SM OVC023 M00/M03 A3002 RMK SC8 SLP169

CYUL;2010-12-31 07:00;CYUL 310700Z 14004KT 12SM OVC029 00/M03 A3004 RMK SC8 SLP173

CYUL;2010-12-31 08:00;CYUL 310800Z 14003KT 12SM OVC024 00/M02 A3004 RMK SC8 SLP174

CYUL;2010-12-31 09:00;CYUL 310900Z 13003KT 12SM OVC027 01/M02 A3003 RMK SC8 SLP171

CYUL;2010-12-31 10:00;CYUL 311000Z 14004KT 12SM OVC024 01/M02 A3002 RMK SC8 SLP169

CYUL;2010-12-31 11:00;CYUL 311100Z 15003KT 12SM BKN021 OVC030 01/M02 A3003 RMK SC7SC1 SLP170

CYUL;2010-12-31 12:00;CYUL 311200Z 14006KT 12SM BKN018 OVC024 01/M02 A3002 RMK SC7SC1 SLP169

CYUL;2010-12-31 13:00;CYUL 311300Z 18004KT 10SM -DZ OVC018 01/M01 A3003 RMK SC8 SLP171

CYUL;2010-12-31 14:00;CYUL 311400Z 14004KT 12SM -DZ FEW018 BKN075 OVC085 02/M01 A3002 RMK SC1AC6AC1 SLP167

CYUL;2010-12-31 14:26;CYUL 311426Z 14003KT 12SM FEW018 BKN035 OVC085 02/ RMK SC1SC6AS1

CYUL;2010-12-31 15:00;CYUL 311500Z 14006KT 12SM FEW018 BKN040 OVC080 02/M01 A3002 RMK SC1SC6AS1 SLP168

CYUL;2010-12-31 16:00;CYUL 311600Z 14004KT 15SM FEW035 OVC050 02/M01 A2999 RMK SC2SC6 SLP159

CYUL;2010-12-31 17:00;CYUL 311700Z 14003KT 15SM FEW040 FEW070 SCT240 03/M00 A2997 RMK SC1AC2CI0 SLP151

CYUL;2010-12-31 18:00;CYUL 311800Z 12003KT 15SM BKN045 BKN070 BKN210 04/M00 A2995 RMK SC6AC1CI1 SLP145

CYUL;2010-12-31 19:00;CYUL 311900Z 02002KT 15SM OVC040 04/00 A2996 RMK SC8 SLP148

CYUL;2010-12-31 20:00;CYUL 312000Z 12003KT 15SM OVC038 04/M00 A2998 RMK SC8 SLP153

CYUL;2010-12-31 21:00;CYUL 312100Z 14002KT 15SM OVC035 03/M00 A3000 RMK SC8 SLP160

CYUL;2010-12-31 22:00;CYUL 312200Z 14005KT 15SM BKN022 OVC030 04/00 A3000 RMK SC6SC2 SLP160

CYUL;2010-12-31 23:00;CYUL 312300Z 16006KT 10SM -DZ OVC024 03/00 A3000 RMK SC8 SLP161

CYUL;2010-12-31 23:20;CYUL 312320Z 17005KT 15SM OVC024 03/ RMK SC8

