CYVR;2006-01-01 00:00;METAR CYVR 010000Z 11005KT 12SM FEW018 BKN025 OVC040 08/06 A2922 RMK SC2SC5SC1 SLP895=

CYVR;2006-01-01 00:26;SPECI CYVR 010026Z 10007KT 8SM -SHRA BKN025 BKN045 OVC060 08/ RMK SC5SC2SC1=

CYVR;2006-01-01 00:55;SPECI CYVR 010055Z 11007KT 10SM FEW011 BKN017 OVC025 07/ RMK SC2SC2SC3=

CYVR;2006-01-01 01:00;METAR CYVR 010100Z 13006KT 10SM SCT011 BKN016 OVC025 07/06 A2925 RMK SC3SC4SC1 SLP905=

CYVR;2006-01-01 01:15;SPECI CYVR 010115Z 11008KT 5SM +RA BR SCT011 BKN016 OVC031 07/ RMK SC3SC4SC1=

CYVR;2006-01-01 01:42;SPECI CYVR 010142Z 12013KT 10SM FEW011 BKN017 BKN055 OVC110 07/ RMK SC2SC2SC2AC2=

CYVR;2006-01-01 02:31;SPECI CYVR 010231Z 09008KT 10SM -SHRA SCT015 SCT060 BKN075 OVC100 07/ RMK SC3SC1AC2AC2=

CYVR;2006-01-01 03:00;METAR CYVR 010300Z 09010KT 12SM -SHRA SCT015 BKN055 BKN075 OVC090 07/06 A2929 RMK SC3SC2AC2AC2 PCPN VRY LGT SLP920=

CYVR;2006-01-01 03:25;SPECI CYVR 010325Z 10009KT 12SM FEW015 SCT055 BKN080 OVC210 07/ RMK SC2SC2AC2CI2=

CYVR;2006-01-01 04:00;METAR CYVR 010400Z 10011KT 12SM FEW015 SCT050 BKN120 OVC210 07/06 A2932 RMK SC2SC2AC2CI2 SLP930=

CYVR;2006-01-01 05:00;METAR CYVR 010500Z 12011KT 8SM -SHRA FEW014 BKN029 BKN060 OVC100 07/06 A2935 RMK SC2SC4SC2AC1 SLP939=

CYVR;2006-01-01 05:37;SPECI CYVR 010537Z 15005KT 12SM FEW015 SCT030 SCT060 BKN130 08/ RMK SC2SC2SC1AC2=

CYVR;2006-01-01 06:00;METAR CYVR 010600Z 15009KT 12SM FEW012 SCT030 SCT050 BKN070 BKN210 08/07 A2936 RMK SC2SC2SC1AC2CI1 SLP943=

CYVR;2006-01-01 07:00;METAR CYVR 010700Z 11006KT 12SM FEW020 SCT050 BKN070 BKN210 07/06 A2939 RMK SC2SC2AC2CI1 SLP953=

CYVR;2006-01-01 09:00;METAR CYVR 010900Z 10007KT 10SM FEW020 BKN060 BKN120 07/06 A2944 RMK SC2SC4AC2 SLP971=

CYVR;2006-01-01 10:00;METAR CYVR 011000Z 10008KT 15SM FEW020 BKN061 06/05 A2947 RMK SC2SC3 SLP979=

CYVR;2006-01-01 11:00;METAR CYVR 011100Z 10007KT 15SM FEW020 SCT030 BKN062 BKN080 08/06 A2947 RMK SC2SC2SC3AC1 SLP980=

CYVR;2006-01-01 12:00;METAR CYVR 011200Z 11010KT 15SM FEW025 SCT040 BKN080 BKN220 07/06 A2947 RMK SC2SC2AC2CI2 SLP978=

CYVR;2006-01-01 13:00;METAR CYVR 011300Z 09011KT 12SM FEW025 SCT040 BKN160 07/05 A2944 RMK SC2SC2AC3 SLP971=

CYVR;2006-01-01 14:00;METAR CYVR 011400Z 09016KT 12SM FEW025 BKN041 BKN160 08/05 A2941 RMK SC2SC2AC2 SLP961=

CYVR;2006-01-01 15:00;METAR CYVR 011500Z 07011KT 15SM BKN038 OVC110 08/05 A2939 RMK SC6AC2 SLP951=

CYVR;2006-01-01 16:00;METAR CYVR 011600Z 09012KT 15SM BKN040 BKN074 OVC110 08/04 A2935 RMK SC6AC2AC1 SLP939=

CYVR;2006-01-01 16:23;SPECI CYVR 011623Z 10009KT 12SM -RA BKN039 OVC075 07/ RMK SC6AC2=

CYVR;2006-01-01 17:00;METAR CYVR 011700Z 08018KT 12SM -RA BKN037 BKN060 OVC075 08/05 A2931 RMK SC5SC2AC1 SLP926=

CYVR;2006-01-01 17:25;SPECI CYVR 011725Z 09017G26KT 12SM FEW037 BKN060 OVC080 08/ RMK SC2SC3AC2=

CYVR;2006-01-01 18:00;METAR CYVR 011800Z 13014KT 15SM FEW035 BKN062 OVC078 08/04 A2928 RMK SC2SC5AC1 SLP916=

CYVR;2006-01-01 18:21;SPECI CYVR 011821Z 09018KT 15SM -RA BKN042 OVC060 08/ RMK SC6SC2=

CYVR;2006-01-01 19:00;METAR CYVR 011900Z 09016G22KT 12SM -RA SCT040 BKN054 OVC072 08/04 A2925 RMK SC3SC4AC1 SLP905=

CYVR;2006-01-01 19:46;SPECI CYVR 011946Z 10019KT 15SM FEW040 BKN059 OVC078 08/ RMK SC2SC5AC1=

CYVR;2006-01-01 20:00;METAR CYVR 012000Z 09019G28KT 15SM FEW040 BKN064 OVC075 09/04 A2922 RMK SC2SC4AC2 SLP894=

CYVR;2006-01-01 21:00;METAR CYVR 012100Z 07017KT 15SM FEW044 BKN064 OVC076 09/04 A2918 RMK SC2SC4AC2 SLP882=

CYVR;2006-01-01 21:37;SPECI CYVR 012137Z 10020G25KT 15SM -RA BKN040 OVC052 08/ RMK SC6SC2=

CYVR;2006-01-01 22:00;METAR CYVR 012200Z 10023G29KT 12SM -RA OVC042 08/04 A2918 RMK SC8 SLP881=

CYVR;2006-01-01 22:26;SPECI CYVR 012226Z 11019G24KT 12SM SCT042 BKN059 OVC076 08/ RMK SC4SC2AC2=

CYVR;2006-01-01 23:00;METAR CYVR 012300Z 11023KT 15SM BKN042 BKN061 OVC090 09/04 A2921 RMK SC6SC1AC1 SLP890=

CYVR;2006-01-02 00:00;METAR CYVR 020000Z 09021G36KT 15SM BKN041 BKN059 OVC100 09/05 A2920 RMK SC5SC2AC2 SLP889=

CYVR;2006-01-02 00:34;SPECI CYVR 020034Z 09020G29KT 12SM -RA BKN044 OVC064 08/ RMK SC6SC2=

CYVR;2006-01-02 01:00;METAR CYVR 020100Z 10020G26KT 10SM -RA SCT027 OVC046 08/05 A2921 RMK SC3SC5 VIS N LWR SLP892=

CYVR;2006-01-02 02:00;METAR CYVR 020200Z 15020G36KT 10SM -RA SCT031 OVC046 09/05 A2924 RMK SC3SC5 SLP902=

CYVR;2006-01-02 03:00;METAR CYVR 020300Z 15016G29KT 10SM -RA FEW030 BKN045 OVC055 10/06 A2927 RMK SC2SC3SC2 SLP913=

CYVR;2006-01-02 03:40;SPECI CYVR 020340Z 16022G29KT 10SM FEW030 SCT040 BKN055 OVC080 10/ RMK SC2SC1SC2AC2=

CYVR;2006-01-02 04:00;METAR CYVR 020400Z 14016KT 12SM FEW030 BKN060 BKN075 OVC140 10/05 A2931 RMK SC2SC2AC2AC1 SLP926=

CYVR;2006-01-02 05:00;METAR CYVR 020500Z 14016G22KT 12SM FEW015 FEW030 BKN070 OVC090 09/05 A2934 RMK SF1SC2AC4AC2 SLP934=

CYVR;2006-01-02 05:30;SPECI CYVR 020530Z 16016G22KT 12SM -SHRA FEW015 SCT045 BKN060 OVC080 10/ RMK SF1SC2SC3AC2=

CYVR;2006-01-02 06:00;METAR CYVR 020600Z 16016G22KT 12SM -SHRA FEW015 BKN052 BKN070 OVC080 09/05 A2939 RMK SF1SC5AC2AC1 SLP951=

CYVR;2006-01-02 06:45;SPECI CYVR 020645Z 15014KT 12SM FEW015 SCT045 BKN070 09/ RMK SF1SC3AC2=

CYVR;2006-01-02 07:00;METAR CYVR 020700Z 14012G19KT 15SM FEW015 SCT040 BKN070 BKN130 09/05 A2941 RMK SF1SC2AC2AC1 SHS NE SLP958=

CYVR;2006-01-02 08:00;METAR CYVR 020800Z 15016KT 12SM FEW015 FEW030 BKN060 BKN080 09/05 A2943 RMK SF1SC2SC3AC2 SLP965=

CYVR;2006-01-02 09:00;METAR CYVR 020900Z 14011KT 15SM FEW020 BKN057 BKN120 09/05 A2945 RMK SC2SC4AC2 SLP972=

CYVR;2006-01-02 10:00;METAR CYVR 021000Z 15009KT 15SM FEW020 BKN050 BKN110 09/06 A2947 RMK SC2SC4AC2 SLP978=

CYVR;2006-01-02 11:00;METAR CYVR 021100Z 17009KT 10SM -SHRA FEW020 BKN041 OVC070 08/06 A2949 RMK SC2SC6AC1 SLP988=

CYVR;2006-01-02 12:00;METAR CYVR 021200Z 14003KT 12SM -SHRA FEW020 BKN042 OVC080 08/06 A2950 RMK SC2SC5AC2 SLP990=

CYVR;2006-01-02 12:13;SPECI CYVR 021213Z 09005KT 15SM FEW020 BKN050 OVC080 07/ RMK SC2SC4AC2=

CYVR;2006-01-02 13:00;METAR CYVR 021300Z 09006KT 15SM FEW020 SCT045 BKN060 BKN200 07/06 A2951 RMK SC2SC2SC2CI2 SLP993=

CYVR;2006-01-02 14:00;METAR CYVR 021400Z 09007KT 15SM FEW020 BKN060 BKN090 BKN200 07/06 A2953 RMK SC2SC3AC1CI2 SLP000=

CYVR;2006-01-02 15:00;METAR CYVR 021500Z 09006KT 15SM FEW030 FEW044 BKN080 BKN200 06/05 A2953 RMK SC1SC2AC2CI2 SLP001=

CYVR;2006-01-02 16:00;METAR CYVR 021600Z 09005KT 15SM FEW038 BKN061 OVC200 06/05 A2956 RMK SC2SC3CI2 SLP009=

CYVR;2006-01-02 17:00;METAR CYVR 021700Z 10006KT 15SM BKN038 BKN085 BKN200 06/05 A2958 RMK SC5AC1CI1 SLP017=

CYVR;2006-01-02 18:00;METAR CYVR 021800Z 08005KT 15SM FEW038 BKN061 OVC140 07/05 A2960 RMK SC2SC3AC1 SLP023=

CYVR;2006-01-02 19:00;METAR CYVR 021900Z 10007KT 15SM FEW038 BKN063 BKN140 OVC200 08/06 A2961 RMK SC2SC4AC2CI1 SLP027=

CYVR;2006-01-02 20:00;METAR CYVR 022000Z 10007KT 15SM FEW037 BKN060 OVC140 09/07 A2961 RMK SC2SC3AC2 SLP028=

CYVR;2006-01-02 21:00;METAR CYVR 022100Z 11008KT 15SM FEW015 SCT036 BKN059 OVC140 09/06 A2961 RMK SC2SC2SC3AC1 SLP027=

CYVR;2006-01-02 22:00;METAR CYVR 022200Z 11005KT 15SM FEW015 SCT040 BKN062 OVC120 09/06 A2961 RMK SC2SC2SC3AC1 SLP028=

CYVR;2006-01-03 00:00;METAR CYVR 030000Z 10003KT 15SM FEW020 SCT040 OVC091 08/06 A2965 RMK SC2SC2AC2 SLP039=

CYVR;2006-01-03 01:00;METAR CYVR 030100Z 13003KT 15SM FEW016 SCT060 BKN140 08/06 A2965 RMK SC1SC2AC3 SLP042=

CYVR;2006-01-03 02:00;METAR CYVR 030200Z 12002KT 15SM FEW020 SCT060 OVC140 07/06 A2966 RMK SC2SC2AC3 SLP044=

CYVR;2006-01-03 03:00;METAR CYVR 030300Z 11003KT 15SM MIFG FEW012 FEW060 BKN160 BKN210 06/05 A2967 RMK SF2SC1AC2CI1 SLP047=

CYVR;2006-01-03 04:00;METAR CYVR 030400Z 09005KT 15SM MIFG FEW012 SCT160 BKN210 04/04 A2968 RMK SF2AC2CI2 SLP051=

CYVR;2006-01-03 05:00;METAR CYVR 030500Z 10006KT 15SM FEW018 SCT210 03/02 A2971 RMK SF2CI1 SLP060=

CYVR;2006-01-03 06:00;METAR CYVR 030600Z 09007KT 15SM FEW018 SCT220 03/02 A2972 RMK SF2CI1 SLP065=

CYVR;2006-01-03 06:42;SPECI CYVR 030642Z 10007KT 15SM FEW018 FEW220 02/ RMK SF1CI2=

CYVR;2006-01-03 07:00;METAR CYVR 030700Z 10007KT 15SM FEW012 FEW220 02/02 A2975 RMK SF2CI1 SLP076=

CYVR;2006-01-03 08:00;METAR CYVR 030800Z 11009KT 15SM FEW014 SCT090 SCT220 05/04 A2978 RMK SF2AC1CI0 SLP083=

CYVR;2006-01-03 09:00;METAR CYVR 030900Z 09008KT 12SM BKN016 BKN090 05/04 A2979 RMK SC5AC1 SLP089=

CYVR;2006-01-03 10:00;METAR CYVR 031000Z 10008KT 12SM BKN015 BKN030 06/05 A2981 RMK SC6SC1 SLP095=

CYVR;2006-01-03 11:00;METAR CYVR 031100Z 10007KT 12SM BKN011 BKN030 06/05 A2984 RMK SC6SC2 SLP105=

CYVR;2006-01-03 12:00;METAR CYVR 031200Z 09010KT 12SM SCT012 BKN072 05/04 A2983 RMK SC4AC3 SLP102=

CYVR;2006-01-03 13:00;METAR CYVR 031300Z 09010KT 12SM FEW014 SCT050 BKN075 05/03 A2983 RMK SC2SC2AC2 SLP102=

CYVR;2006-01-03 14:00;METAR CYVR 031400Z 09009KT 15SM FEW014 FEW050 SCT080 04/03 A2983 RMK SC1SC2AC2 SLP103=

CYVR;2006-01-03 15:00;METAR CYVR 031500Z 09009KT 15SM FEW020 SCT055 BKN100 05/03 A2984 RMK SC2SC2AC2 SLP104=

CYVR;2006-01-03 16:00;METAR CYVR 031600Z 08010KT 20SM FEW020 SCT055 BKN100 05/03 A2984 RMK SC2SC2AC1 SLP104=

CYVR;2006-01-03 18:00;METAR CYVR 031800Z 09011KT 20SM FEW020 SCT040 BKN073 OVC220 06/04 A2983 RMK SC2SC2AC3CI2 SLP103=

CYVR;2006-01-03 19:00;METAR CYVR 031900Z 11014KT 30SM FEW025 SCT075 BKN095 07/04 A2982 RMK SC2AC2AC4 SLP099=

CYVR;2006-01-03 19:27;SPECI CYVR 031927Z 09014KT 30SM -SHRA FEW025 BKN050 07/ RMK SC2SC5 PCPN VRY LGT=

CYVR;2006-01-03 20:00;METAR CYVR 032000Z 09017KT 20SM -SHRA SCT025 OVC042 07/03 A2980 RMK SC3SC5 SLP093=

CYVR;2006-01-03 20:52;SPECI CYVR 032052Z 08012G19KT 12SM -RA SCT018 OVC040 07/ RMK SC4SC4=

CYVR;2006-01-03 21:00;METAR CYVR 032100Z 08015KT 12SM -RA SCT018 OVC040 07/03 A2979 RMK SC4SC4 SLP088=

CYVR;2006-01-03 22:00;METAR CYVR 032200Z 12016G24KT 10SM -RA SCT018 OVC035 07/03 A2980 RMK SC3SC5 SLP091=

CYVR;2006-01-03 23:00;METAR CYVR 032300Z 11013KT 7SM -RA SCT020 OVC037 06/03 A2981 RMK SC4SC4 SLP096=

CYVR;2006-01-04 00:00;METAR CYVR 040000Z 09008KT 7SM -RA SCT020 OVC032 06/04 A2984 RMK SC4SC4 SLP104=

CYVR;2006-01-04 01:00;METAR CYVR 040100Z 09011KT 8SM -RA SCT020 OVC032 05/04 A2986 RMK SC3SC5 SLP112=

CYVR;2006-01-04 02:00;METAR CYVR 040200Z 09015KT 8SM -RA FEW020 OVC026 05/04 A2988 RMK SC2SC6 SLP118=

CYVR;2006-01-04 02:56;SPECI CYVR 040256Z 08012KT 12SM -RA BKN015 OVC021 05/ RMK SC6SC2 VIS N QUAD 8 SM=

CYVR;2006-01-04 03:00;METAR CYVR 040300Z 09011KT 12SM -RA BKN015 OVC019 05/04 A2992 RMK SC6SC2 VIS N QUAD 6 SM SLP131=

CYVR;2006-01-04 03:12;SPECI CYVR 040312Z 10009KT 12SM -RA SCT015 BKN017 OVC021 05/ RMK SC4SC2SC2 VIS N QUAD 6 SM=

CYVR;2006-01-04 03:48;SPECI CYVR 040348Z 09013KT 12SM -RA SCT010 BKN014 OVC018 05/ RMK SC3SC3SC2 VIS N QUAD 6 SM=

CYVR;2006-01-04 04:00;METAR CYVR 040400Z 08012KT 12SM -RA SCT010 OVC013 05/04 A2995 RMK SC3SC5 VIS N QUAD 10 SM SLP143=

CYVR;2006-01-04 04:15;SPECI CYVR 040415Z 10010KT 15SM -RA FEW010 SCT013 BKN019 OVC031 05/ RMK SF2SC2SC4SC1=

CYVR;2006-01-04 05:21;SPECI CYVR 040521Z 09009KT 15SM FEW015 SCT030 BKN090 OVC140 05/ RMK SF1SC2AC2AC2=

CYVR;2006-01-04 06:00;METAR CYVR 040600Z 09010KT 15SM FEW018 BKN052 OVC090 05/04 A3002 RMK SC2SC5AC2 SLP166=

CYVR;2006-01-04 06:50;SPECI CYVR 040650Z 09010KT 15SM BKN015 OVC046 06/ RMK SC5SC3=

CYVR;2006-01-04 07:20;SPECI CYVR 040720Z 10011KT 15SM -RA SCT014 BKN035 OVC052 06/ RMK SC4SC3SC1 VIS N QUAD 10 SM=

CYVR;2006-01-04 07:45;SPECI CYVR 040745Z 10010KT 15SM FEW014 SCT035 BKN080 OVC130 06/ RMK SC2SC1AC3AC2=

CYVR;2006-01-04 08:00;METAR CYVR 040800Z 09009KT 15SM FEW030 SCT060 BKN180 05/04 A3008 RMK SC2SC2AC1 SLP185=

CYVR;2006-01-04 10:00;METAR CYVR 041000Z 11010KT 15SM FEW030 BKN055 06/05 A3017 RMK SC2SC4 SLP217=

CYVR;2006-01-04 10:21;SPECI CYVR 041021Z 13010KT 15SM -SHRA FEW030 OVC044 07/ RMK SC2SC5 PCPN VRY LGT=

CYVR;2006-01-04 11:00;METAR CYVR 041100Z 11009KT 10SM -SHRA BKN029 OVC045 07/06 A3022 RMK SC6SC2 VIS N QUAD 5 SM SLP234=

CYVR;2006-01-04 11:56;SPECI CYVR 041156Z 10008KT 15SM SCT029 BKN080 OVC140 07/ RMK SC3AC3AC2=

CYVR;2006-01-04 12:00;METAR CYVR 041200Z 10008KT 15SM SCT029 BKN080 OVC140 07/05 A3024 RMK SC3AC3AC2 SLP241=

CYVR;2006-01-04 13:00;METAR CYVR 041300Z 10010KT 15SM SCT030 OVC150 06/05 A3025 RMK SC3AC5 SLP243=

CYVR;2006-01-04 14:00;METAR CYVR 041400Z 10010KT 15SM FEW030 OVC052 06/05 A3029 RMK SC2SC6 SLP256=

CYVR;2006-01-04 15:00;METAR CYVR 041500Z 10009KT 15SM FEW030 OVC120 06/04 A3030 RMK SC2AC6 SLP260=

CYVR;2006-01-04 16:00;METAR CYVR 041600Z 09008KT 20SM FEW020 BKN095 BKN140 06/04 A3032 RMK SC2AC3AC2 SLP268=

CYVR;2006-01-04 17:00;METAR CYVR 041700Z 09010KT 20SM FEW025 BKN095 BKN230 06/04 A3034 RMK SC2AC3CI2 SLP274=

CYVR;2006-01-04 18:00;METAR CYVR 041800Z 08009KT 20SM FEW025 BKN110 BKN160 07/04 A3035 RMK SC2AC4AC1 SLP278=

CYVR;2006-01-04 19:00;METAR CYVR 041900Z 09011KT 20SM SCT034 BKN110 OVC140 09/05 A3035 RMK SC3AC2AC2 SLP279=

CYVR;2006-01-04 20:00;METAR CYVR 042000Z 09010G15KT 20SM FEW034 BKN140 BKN170 09/05 A3035 RMK SC2AC3AC2 SLP279=

CYVR;2006-01-04 21:00;METAR CYVR 042100Z 09009KT 20SM FEW035 BKN140 OVC230 09/05 A3034 RMK SC2AC4CI2 SLP273=

CYVR;2006-01-04 22:00;METAR CYVR 042200Z 09009KT 20SM FEW035 BKN140 OVC230 09/05 A3031 RMK SC1AC5CI2 SLP263=

CYVR;2006-01-04 23:00;METAR CYVR 042300Z 08010KT 30SM SCT100 BKN180 09/04 A3026 RMK AC4AC3 SLP247=

CYVR;2006-01-05 00:00;METAR CYVR 050000Z 09009KT 30SM FEW020 OVC100 08/04 A3023 RMK SC2AC6 SLP236=

CYVR;2006-01-05 01:00;METAR CYVR 050100Z 11010KT 30SM FEW020 OVC100 07/04 A3023 RMK SC1AC7 SLP237=

CYVR;2006-01-05 01:47;SPECI CYVR 050147Z 11004KT 20SM -SHRA FEW030 OVC070 08/ RMK SC1AC7 PCPN VRY LGT=

CYVR;2006-01-05 02:00;METAR CYVR 050200Z 07008KT 20SM -SHRA FEW020 SCT060 OVC090 07/04 A3023 RMK SC2SC2AC5 PCPN VRY LGT SLP238=

CYVR;2006-01-05 02:24;SPECI CYVR 050224Z 08015KT 20SM FEW020 OVC077 08/ RMK SC1AC7=

CYVR;2006-01-05 03:00;METAR CYVR 050300Z 08011G16KT 20SM OVC070 08/03 A3022 RMK AC8 SLP234=

CYVR;2006-01-05 03:43;SPECI CYVR 050343Z 08016KT 15SM -RA OVC061 09/ RMK SC8=

CYVR;2006-01-05 04:00;METAR CYVR 050400Z 12013KT 20SM -SHRA SCT061 BKN069 OVC079 09/02 A3019 RMK SC3AC3AC2 SLP222=

CYVR;2006-01-05 04:37;SPECI CYVR 050437Z 10006KT 20SM FEW060 OVC071 10/ RMK SC2AC6=

CYVR;2006-01-05 05:00;METAR CYVR 050500Z 09006KT 20SM SCT045 OVC071 10/01 A3013 RMK SC3AC5 PRESFR SLP204=

CYVR;2006-01-05 06:00;METAR CYVR 050600Z 09013G18KT 20SM FEW045 BKN060 OVC079 09/03 A3010 RMK SC2SC3AC2 SLP192=

CYVR;2006-01-05 06:07;SPECI CYVR 050607Z 09012KT 20SM -SHRA FEW060 BKN070 OVC089 09/ RMK SC2AC4AC2 PCPN VRY LGT=

CYVR;2006-01-05 09:00;METAR CYVR 050900Z 09008KT 12SM -RA BKN061 OVC078 07/05 A3007 RMK SC6AC2 K SLP184=

CYVR;2006-01-05 10:00;METAR CYVR 051000Z 12008KT 15SM -RA OVC063 07/06 A3006 RMK SC8 VIS N QUAD 8 SM SLP179=

CYVR;2006-01-05 12:00;METAR CYVR 051200Z 09008KT 15SM -RA OVC063 08/07 A3003 RMK SC8 VIS N QUAD 10 SM SLP170=

CYVR;2006-01-05 13:00;METAR CYVR 051300Z 08014KT 12SM -RA BKN053 OVC063 09/07 A3000 RMK SC6SC2 SLP160=

CYVR;2006-01-05 14:00;METAR CYVR 051400Z 09014KT 12SM -RA BKN050 OVC057 09/07 A3002 RMK SC6SC2 SLP165=

CYVR;2006-01-05 15:00;METAR CYVR 051500Z 08013KT 15SM -RA BKN040 OVC050 09/08 A3002 RMK SC6SC2 SLP165=

CYVR;2006-01-05 16:00;METAR CYVR 051600Z 11010KT 15SM -RA BKN038 OVC055 10/08 A3007 RMK SC6SC2 SLP182=

CYVR;2006-01-05 17:00;METAR CYVR 051700Z 15009KT 20SM FEW025 SCT060 BKN100 10/08 A3011 RMK SC2SC2AC3 SLP196=

CYVR;2006-01-05 17:05;SPECI CYVR 051705Z 14009KT 20SM -SHRA FEW025 BKN060 BKN100 10/ RMK SC2SC3AC2 PCPN VRY LGT=

CYVR;2006-01-05 17:38;SPECI CYVR 051738Z 09009KT 20SM FEW025 BKN060 BKN100 10/ RMK SC2SC3AC2=

CYVR;2006-01-05 18:00;METAR CYVR 051800Z 09009KT 30SM FEW020 SCT060 BKN120 10/09 A3016 RMK SC2SC2AC3 SLP213=

CYVR;2006-01-05 19:00;METAR CYVR 051900Z 11009KT 30SM FEW020 SCT070 BKN130 BKN230 10/09 A3015 RMK SC2AC2AC2CI1 SLP211=

CYVR;2006-01-05 20:52;SPECI CYVR 052052Z 12013G18KT 20SM FEW009 SCT018 OVC065 10/ RMK SC2SC2SC4=

CYVR;2006-01-05 21:00;METAR CYVR 052100Z 12015G21KT 20SM FEW009 SCT018 BKN065 OVC140 10/09 A3017 RMK SC2SC2SC2AC2 SLP218=

CYVR;2006-01-05 22:00;METAR CYVR 052200Z 11012G17KT 20SM SCT007 BKN041 OVC140 10/08 A3018 RMK SF3SC4AC1 SLP219=

CYVR;2006-01-05 22:37;SPECI CYVR 052237Z 11014KT 30SM BKN010 OVC040 10/ RMK SF5SC3=

CYVR;2006-01-05 23:00;METAR CYVR 052300Z 10011KT 30SM BKN011 BKN037 11/09 A3017 RMK SF5SC2 SLP216=

CYVR;2006-01-05 23:32;SPECI CYVR 052332Z 11009KT 20SM -SHRA BKN011 OVC037 11/ RMK SF6SC2 PCPN VRY LGT=

CYVR;2006-01-06 00:00;METAR CYVR 060000Z 12011KT 8SM -SHRA BKN011 OVC020 11/09 A3017 RMK SF6SC2 SLP217=

CYVR;2006-01-06 00:15;SPECI CYVR 060015Z 11009KT 6SM -SHRA BR FEW011 BKN015 OVC022 10/ RMK SF2SC3SC2=

CYVR;2006-01-06 00:53;SPECI CYVR 060053Z 10010KT 8SM -SHRA FEW005 BKN015 OVC022 10/ RMK SC1SC6SC2 PCPN VRY LGT=

CYVR;2006-01-06 01:00;METAR CYVR 060100Z 10010KT 8SM -SHRA FEW007 BKN016 OVC022 10/09 A3016 RMK SF2SC5SC2 SLP213=

CYVR;2006-01-06 01:42;SPECI CYVR 060142Z 09012KT 10SM FEW007 OVC018 10/ RMK SF2SC6=

CYVR;2006-01-06 02:00;METAR CYVR 060200Z 09010KT 10SM SCT005 OVC020 10/09 A3013 RMK SF3SC5 SLP203=

CYVR;2006-01-06 02:41;SPECI CYVR 060241Z 09009KT 15SM -SHRA FEW007 OVC021 10/ RMK SF2SC6 PCPN VRY LGT=

CYVR;2006-01-06 03:00;METAR CYVR 060300Z 11008KT 15SM -SHRA FEW007 OVC020 10/09 A3010 RMK SF2SC6 PCPN VRY LGT SLP192=

CYVR;2006-01-06 03:10;SPECI CYVR 060310Z 10011KT 6SM -SHRA BR FEW007 OVC025 10/ RMK SF2SC6=

CYVR;2006-01-06 03:17;SPECI CYVR 060317Z 10011KT 3SM -SHRA BR FEW007 OVC021 10/ RMK SF2SC6=

CYVR;2006-01-06 03:33;SPECI CYVR 060333Z 08007KT 7SM -SHRA FEW015 OVC026 10/ RMK SF2SC6 VIS NE QUAD 12 SM=

CYVR;2006-01-06 05:00;METAR CYVR 060500Z 07008KT 15SM -RA OVC028 10/09 A3005 RMK SC8 SLP176=

CYVR;2006-01-06 05:22;SPECI CYVR 060522Z 09008KT 6SM -RA BR FEW010 SCT028 OVC036 09/ RMK SF2SC2SC4=

CYVR;2006-01-06 05:36;SPECI CYVR 060536Z 09006KT 8SM -RA FEW010 BKN028 OVC036 09/ RMK SF2SC4SC2 VIS N QUAD 5 SM=

CYVR;2006-01-06 06:00;METAR CYVR 060600Z 09004KT 10SM -RA FEW015 BKN027 OVC036 09/09 A3005 RMK SF2SC5SC2 VIS N QUAD 6 SM SLP175=

CYVR;2006-01-06 07:11;SPECI CYVR 060711Z 09015KT 6SM -RA BR FEW007 FEW015 BKN027 OVC034 09/ RMK SF2SF1SC5SC1 VIS N QUAD 3 SM=

CYVR;2006-01-06 07:15;SPECI CYVR 060715Z 10016KT 8SM -RA FEW007 FEW015 BKN027 OVC034 09/ RMK SF2SF1SC5SC1 VIS N QUAD 5 SM=

CYVR;2006-01-06 08:00;METAR CYVR 060800Z 10016G22KT 10SM -RA FEW015 OVC026 09/08 A2999 RMK SF2SC6 VIS N QUAD 5 SM SLP155=

CYVR;2006-01-06 09:00;METAR CYVR 060900Z 09014KT 15SM -RA FEW010 OVC020 09/08 A2997 RMK SF2SC6 VIS N QUAD 8 SM SLP149=

CYVR;2006-01-06 10:00;METAR CYVR 061000Z 09012KT 15SM -RA FEW010 OVC021 09/08 A2997 RMK SF2SC6 VIS N QUAD 12 SM SLP150=

CYVR;2006-01-06 11:00;METAR CYVR 061100Z 10013KT 15SM -SHRA SCT020 BKN040 OVC120 09/08 A2996 RMK SC4SC3AC1 SLP144=

CYVR;2006-01-06 11:44;SPECI CYVR 061144Z 11013KT 15SM FEW020 OVC040 09/ RMK SC2SC6=

CYVR;2006-01-06 12:00;METAR CYVR 061200Z 12009G15KT 15SM BKN017 OVC038 09/08 A2994 RMK SC6SC2 SLP140=

CYVR;2006-01-06 13:00;METAR CYVR 061300Z 09012KT 15SM BKN017 OVC038 09/08 A2991 RMK SC5SC2 SLP130=

CYVR;2006-01-06 14:00;METAR CYVR 061400Z 10011G17KT 15SM BKN017 OVC040 09/08 A2992 RMK SC5SC2 SLP131=

CYVR;2006-01-06 15:00;METAR CYVR 061500Z 10014G20KT 15SM BKN015 OVC021 10/08 A2991 RMK SC6SC2 SLP127=

CYVR;2006-01-06 15:06;SPECI CYVR 061506Z 10015KT 15SM BKN011 BKN018 OVC043 10/ RMK SF5SC2SC1=

CYVR;2006-01-06 15:29;SPECI CYVR 061529Z 10013KT 15SM SCT011 BKN016 OVC038 10/ RMK SF4SC3SC1=

CYVR;2006-01-06 16:00;METAR CYVR 061600Z 13014G19KT 15SM FEW011 BKN017 OVC035 11/09 A2989 RMK SF2SC5SC2 SLP123=

CYVR;2006-01-06 16:13;SPECI CYVR 061613Z 12016KT 15SM FEW017 BKN035 11/ RMK SF2SC3=

CYVR;2006-01-06 17:00;METAR CYVR 061700Z 14016KT 20SM FEW016 BKN037 BKN072 11/09 A2990 RMK SF2SC3AC2 SLP125=

CYVR;2006-01-06 18:00;METAR CYVR 061800Z 13015KT 20SM FEW016 SCT035 BKN065 BKN100 11/09 A2991 RMK SF2SC2SC3AC1 SLP130=

CYVR;2006-01-06 20:00;METAR CYVR 062000Z 16017KT 30SM FEW017 FEW040 BKN080 BKN130 12/09 A2988 RMK SC1SC2AC2AC2 SLP119=

CYVR;2006-01-06 21:00;METAR CYVR 062100Z 15014KT 30SM FEW020 SCT040 BKN090 BKN130 12/09 A2987 RMK SC2SC2AC2AC1 SLP115=

CYVR;2006-01-06 22:00;METAR CYVR 062200Z 09007KT 30SM FEW020 BKN070 BKN110 12/09 A2986 RMK SC2AC4AC2 SLP112=

CYVR;2006-01-06 23:00;METAR CYVR 062300Z 15009KT 30SM FEW020 SCT040 BKN065 BKN110 12/09 A2986 RMK SC2SC2SC2AC1 SLP111=

CYVR;2006-01-07 00:00;METAR CYVR 070000Z 09004KT 30SM FEW016 SCT040 BKN051 OVC070 11/09 A2986 RMK SC2SC2SC3AC1 SLP111=

CYVR;2006-01-07 01:00;METAR CYVR 070100Z 10003KT 20SM SCT011 BKN041 BKN075 10/09 A2985 RMK SC3SC2AC2 SLP107=

CYVR;2006-01-07 01:27;SPECI CYVR 070127Z 11005KT 20SM -SHRA FEW013 BKN072 BKN082 10/ RMK SC2AC3AC2 PCPN VRY LGT=

CYVR;2006-01-07 01:55;SPECI CYVR 070155Z 15003KT 20SM -SHRA FEW009 SCT014 BKN050 10/ RMK SF2SC2SC3 PCPN VRY LGT=

CYVR;2006-01-07 02:00;METAR CYVR 070200Z 17002KT 15SM -SHRA FEW009 SCT014 BKN050 10/09 A2983 RMK SF2SC2SC3 PCPN VRY LGT SLP102=

CYVR;2006-01-07 02:30;SPECI CYVR 070230Z 14007KT 15SM SCT010 BKN085 BKN120 10/ RMK SF3AC2AC1=

CYVR;2006-01-07 03:00;METAR CYVR 070300Z 14004KT 15SM FEW011 FEW050 SCT085 BKN150 09/08 A2982 RMK SF2SC1AC2AC3 SLP099=

CYVR;2006-01-07 03:17;SPECI CYVR 070317Z 14004KT 15SM FEW005 FEW011 SCT065 BKN090 BKN150 09/ RMK SF2SC1SC2AC2AC2=

CYVR;2006-01-07 04:00;METAR CYVR 070400Z 00000KT 20SM FEW005 FEW015 BKN057 OVC140 09/08 A2981 RMK SF1SF1SC3AC1 VIS N QUAD 15 SM SLP096=

CYVR;2006-01-07 04:41;SPECI CYVR 070441Z 30007KT 15SM -RA FEW010 OVC053 08/ RMK SF2SC5=

CYVR;2006-01-07 04:51;SPECI CYVR 070451Z 30008KT 15SM -RA BKN007 OVC053 08/ RMK SC5SC2=

CYVR;2006-01-07 05:10;SPECI CYVR 070510Z 30008KT 15SM -SHRA FEW007 BKN010 OVC053 08/ RMK SC2SC3SC2=

CYVR;2006-01-07 05:26;SPECI CYVR 070526Z 30008KT 15SM FEW007 BKN012 OVC053 08/ RMK SC2SC3SC2=

CYVR;2006-01-07 05:36;SPECI CYVR 070536Z 29008KT 15SM -SHRA BKN013 OVC049 08/ RMK SC5SC3=

CYVR;2006-01-07 05:53;SPECI CYVR 070553Z 29007KT 15SM SCT015 OVC049 08/ RMK SC4SC4=

CYVR;2006-01-07 06:00;METAR CYVR 070600Z 29007KT 15SM BKN016 BKN049 OVC058 08/07 A2981 RMK SC6SC2SC1 SLP094=

CYVR;2006-01-07 08:00;METAR CYVR 070800Z 30005KT 15SM FEW016 OVC036 08/07 A2978 RMK SC2SC5 SLP083=

CYVR;2006-01-07 09:00;METAR CYVR 070900Z 31008KT 15SM FEW010 FEW015 OVC033 08/07 A2977 RMK SF1SC2SC5 SLP080=

CYVR;2006-01-07 10:13;SPECI CYVR 071013Z 33004KT 15SM SCT010 OVC034 08/ RMK SC4SC4=

CYVR;2006-01-07 11:00;METAR CYVR 071100Z 33003KT 15SM FEW010 OVC033 07/06 A2975 RMK SC2SC6 SLP074=

CYVR;2006-01-07 11:04;SPECI CYVR 071104Z 35003KT 15SM -RA FEW010 OVC034 07/ RMK SC2SC6=

CYVR;2006-01-07 11:25;SPECI CYVR 071125Z 04004KT 15SM FEW010 BKN032 OVC043 08/ RMK SC2SC4SC2=

CYVR;2006-01-07 11:56;SPECI CYVR 071156Z 11005KT 15SM BKN004 OVC033 08/ RMK SC5SC3=

CYVR;2006-01-07 12:00;METAR CYVR 071200Z 10005KT 15SM BKN005 OVC033 08/07 A2972 RMK SC5SC3 SLP066=

CYVR;2006-01-07 12:22;SPECI CYVR 071222Z 11006KT 8SM BKN004 OVC033 08/ RMK ST6SC2 VIS N QUAD LWR 3 SM=

CYVR;2006-01-07 12:33;SPECI CYVR 071233Z 10007KT 6SM BR OVC003 08/ RMK ST8 VIS N QUAD LWR 21/2 SM=

CYVR;2006-01-07 12:41;SPECI CYVR 071241Z 10007KT 3SM BR OVC003 08/ RMK ST8 VIS N QUAD LWR 2 SM=

CYVR;2006-01-07 12:42;SPECI CYVR 071242Z 10007KT 2 1/2SM BR OVC003 08/ RMK ST8 VIS N QUAD LWR 2 SM=

CYVR;2006-01-07 13:00;METAR CYVR 071300Z 11006KT 2 1/2SM BR OVC004 08/07 A2971 RMK ST8 SLP061=

CYVR;2006-01-07 13:37;SPECI CYVR 071337Z 11007KT 5SM -RA BR SCT004 OVC007 08/ RMK ST3SC5=

CYVR;2006-01-07 14:00;METAR CYVR 071400Z 09005KT 4SM -RA BR FEW002 BKN007 OVC035 08/07 A2969 RMK ST2SC4SC2 SLP055=

CYVR;2006-01-07 14:08;SPECI CYVR 071408Z 09005KT 4SM -DZ BR SCT005 OVC031 08/ RMK ST4SC4=

CYVR;2006-01-07 14:14;SPECI CYVR 071414Z 08005KT 3SM -DZ BR BKN004 OVC031 08/ RMK ST6SC2=

CYVR;2006-01-07 14:38;SPECI CYVR 071438Z 12003KT 3SM BR BKN004 OVC030 08/ RMK ST6SC2=

CYVR;2006-01-07 15:00;METAR CYVR 071500Z 12003KT 2 1/2SM BR BKN003 OVC030 08/07 A2968 RMK ST7SC1 SLP052=

CYVR;2006-01-07 15:47;SPECI CYVR 071547Z 14004KT 2SM BR BKN004 OVC008 08/ RMK ST6SC2=

CYVR;2006-01-07 16:00;METAR CYVR 071600Z 10004KT 2SM BR BKN004 BKN008 OVC015 08/07 A2967 RMK SF6SC2SC1 SLP049=

CYVR;2006-01-07 16:13;SPECI CYVR 071613Z 09005KT 2SM BR SCT003 BKN008 OVC027 08/ RMK SF4SC1SC3=

CYVR;2006-01-07 16:20;SPECI CYVR 071620Z 09005KT 1 1/2SM BR SCT003 SCT008 BKN020 OVC033 08/ RMK SF3SC1SC2SC2=

CYVR;2006-01-07 17:00;METAR CYVR 071700Z 09007KT 2SM BR SCT006 SCT019 OVC027 08/07 A2966 RMK FG1SF2SC1SC4 SLP045=

CYVR;2006-01-07 17:13;SPECI CYVR 071713Z 09009KT 2 1/2SM -SHRA BR FEW006 SCT018 BKN025 OVC040 08/ RMK SF2SC2SC3SC1=

CYVR;2006-01-07 18:00;METAR CYVR 071800Z 10011KT 5SM -SHRA BR FEW008 SCT014 BKN020 OVC030 08/08 A2965 RMK SF2SC1SC4SC1 SLP042=

CYVR;2006-01-07 18:21;SPECI CYVR 071821Z 09010KT 3SM -SHRA BR SCT005 BKN011 OVC020 08/ RMK SF3SC2SC2=

CYVR;2006-01-07 18:27;SPECI CYVR 071827Z 10011KT 2SM -SHRA BR BKN004 BKN012 OVC020 08/ RMK SF5SC2SC1=

CYVR;2006-01-07 18:37;SPECI CYVR 071837Z 11009KT 3SM -SHRA BR BKN006 BKN013 OVC020 08/ RMK SF5SC2SC1=

CYVR;2006-01-07 19:00;METAR CYVR 071900Z 09014KT 4SM -SHRA BR SCT006 BKN012 OVC024 09/08 A2964 RMK SF4SC3SC1 SLP038=

CYVR;2006-01-07 19:20;SPECI CYVR 071920Z 10012KT 10SM SCT005 BKN013 OVC025 09/ RMK SF3SC2SC2=

CYVR;2006-01-07 20:00;METAR CYVR 072000Z 10012KT 12SM FEW005 BKN016 OVC030 09/08 A2963 RMK SF2SC5SC2 SLP034=

CYVR;2006-01-07 21:00;METAR CYVR 072100Z 11012KT 12SM -SHRA FEW006 BKN017 OVC030 09/07 A2963 RMK SF2SC5SC2 SLP033=

CYVR;2006-01-07 21:49;SPECI CYVR 072149Z 13006KT 4SM RA FEW005 BKN011 OVC019 09/ RMK SF2SC4SC2=

CYVR;2006-01-07 22:00;METAR CYVR 072200Z 12007KT 4SM RA BR SCT006 BKN013 OVC025 09/08 A2962 RMK SF4SC2SC2 SLP032=

CYVR;2006-01-07 22:25;SPECI CYVR 072225Z 17007KT 4SM RA BR SCT006 SCT014 BKN025 OVC040 09/ RMK SF3SC1SC2SC2=

CYVR;2006-01-07 23:00;METAR CYVR 072300Z 12007KT 8SM -RA FEW007 SCT019 OVC040 09/07 A2965 RMK SF2SC2SC4 RERA SLP039=

CYVR;2006-01-08 00:00;METAR CYVR 080000Z 14008KT 8SM -RA FEW008 SCT018 BKN031 OVC040 08/07 A2968 RMK SF2SC2SC3SC2 SLP051=

CYVR;2006-01-08 01:00;METAR CYVR 080100Z 12008KT 10SM -RA FEW011 SCT030 BKN045 OVC060 08/07 A2972 RMK SF2SC2SC3SC2 SLP066=

CYVR;2006-01-08 01:17;SPECI CYVR 080117Z 11008KT 10SM FEW012 FEW020 BKN055 OVC080 08/ RMK SF2SC1SC3AC2=

CYVR;2006-01-08 01:32;SPECI CYVR 080132Z 11008KT 10SM -RA FEW015 SCT020 BKN040 BKN080 08/ RMK SF2SC2SC3AC1=

CYVR;2006-01-08 02:00;METAR CYVR 080200Z 12008KT 8SM -RA FEW014 SCT025 BKN039 BKN062 08/06 A2977 RMK SF2SC2SC2SC2 SLP080=

CYVR;2006-01-08 03:00;METAR CYVR 080300Z 14005KT 8SM -RA SCT020 BKN043 OVC062 08/05 A2980 RMK SC3SC3SC2 SLP090=

CYVR;2006-01-08 03:50;SPECI CYVR 080350Z 18009KT 10SM FEW020 BKN042 OVC064 08/ RMK SC2SC5SC2=

CYVR;2006-01-08 04:00;METAR CYVR 080400Z 18010KT 10SM FEW020 SCT040 BKN056 OVC140 07/04 A2983 RMK SC2SC2SC2AS2 SLP100=

CYVR;2006-01-08 05:00;METAR CYVR 080500Z 20008KT 12SM FEW020 FEW040 BKN060 OVC100 07/04 A2985 RMK SC2SC1SC3AS2 SLP108=

CYVR;2006-01-08 06:00;METAR CYVR 080600Z 20007KT 12SM FEW020 BKN055 OVC100 07/04 A2988 RMK SC2SC4AS2 SLP117=

CYVR;2006-01-08 07:00;METAR CYVR 080700Z 18005KT 12SM FEW020 FEW040 SCT055 OVC110 07/03 A2992 RMK SC2SC1SC2AS2 SLP131=

CYVR;2006-01-08 09:00;METAR CYVR 080900Z 11004KT 15SM FEW030 SCT055 SCT075 04/02 A2999 RMK SC1SC2AC1 SLP156=

CYVR;2006-01-08 11:00;METAR CYVR 081100Z 11006KT 15SM FEW060 SCT220 03/03 A3005 RMK SC2CI1 SLP177=

CYVR;2006-01-08 12:00;METAR CYVR 081200Z 07006KT 15SM FEW060 SCT220 02/02 A3008 RMK SC1CI2 SLP186=

CYVR;2006-01-08 13:00;METAR CYVR 081300Z 09007KT 15SM FEW060 SCT220 03/02 A3011 RMK SC1CI2 SLP195=

CYVR;2006-01-08 15:00;METAR CYVR 081500Z 10008KT 12SM SCT011 BKN045 BKN060 05/04 A3014 RMK SF3SC2SC2 SLP206=

CYVR;2006-01-08 16:00;METAR CYVR 081600Z 13006KT 12SM SCT010 BKN047 BKN060 06/04 A3016 RMK SF3SC2SC2 SLP213=

CYVR;2006-01-08 17:00;METAR CYVR 081700Z 12003KT 15SM FEW010 SCT018 BKN045 BKN060 06/04 A3020 RMK SF2SC2SC2SC1 SLP227=

CYVR;2006-01-08 18:00;METAR CYVR 081800Z 14006KT 15SM FEW011 FEW018 SCT060 BKN080 06/03 A3020 RMK SF1SC2SC1AC1 SLP228=

CYVR;2006-01-08 19:00;METAR CYVR 081900Z 14012KT 15SM FEW012 SCT020 BKN057 BKN090 07/03 A3021 RMK SF1SC3SC2AC1 SLP231=

CYVR;2006-01-08 20:00;METAR CYVR 082000Z 13016KT 15SM SCT021 BKN056 OVC090 07/04 A3020 RMK SC4SC2AC1 SLP228=

CYVR;2006-01-08 21:00;METAR CYVR 082100Z 13014KT 15SM BKN020 BKN055 OVC080 07/04 A3019 RMK SC5SC2AC1 SLP222=

CYVR;2006-01-08 22:00;METAR CYVR 082200Z 12011G17KT 15SM SCT018 BKN025 OVC055 07/04 A3018 RMK SC3SC3SC2 SLP220=

CYVR;2006-01-08 23:00;METAR CYVR 082300Z 12012KT 15SM BKN023 OVC050 08/04 A3018 RMK SC6SC2 SHS W SLP219=

CYVR;2006-01-08 23:15;SPECI CYVR 082315Z 11013KT 12SM -RA BKN022 OVC035 08/ RMK SC6SC2=

CYVR;2006-01-09 00:00;METAR CYVR 090000Z 10009KT 10SM -RA BKN020 OVC031 07/04 A3016 RMK SC7SC1 SLP214=

CYVR;2006-01-09 02:00;METAR CYVR 090200Z 10010G17KT 10SM -RA SCT021 BKN043 OVC120 07/05 A3013 RMK SC3SC4AC1 SLP203=

CYVR;2006-01-09 03:00;METAR CYVR 090300Z 11016G22KT 10SM -RA BKN022 OVC043 07/05 A3010 RMK SC6SC2 SLP193=

CYVR;2006-01-09 04:00;METAR CYVR 090400Z 12017KT 10SM -RA BKN022 BKN047 OVC120 07/04 A3007 RMK SC6SC2AC1 SLP184=

CYVR;2006-01-09 05:00;METAR CYVR 090500Z 12017G25KT 10SM -RA BKN022 OVC050 07/05 A3006 RMK SC6SC2 SLP180=

CYVR;2006-01-09 06:00;METAR CYVR 090600Z 10013KT 10SM -RA BKN019 OVC046 06/05 A3004 RMK SC6SC2 SLP174=

CYVR;2006-01-09 09:00;METAR CYVR 090900Z 12012KT 10SM -RA FEW013 BKN017 OVC042 08/06 A2998 RERA RMK SC2SC5SC1 SLP151=

CYVR;2006-01-09 10:00;METAR CYVR 091000Z 13012G18KT 8SM -RA SCT013 BKN017 OVC042 08/06 A2996 RMK SC3SC4SC1 SLP147=

CYVR;2006-01-09 11:00;METAR CYVR 091100Z 13014KT 8SM -RA SCT011 OVC016 08/07 A2994 RMK SC4SC4 SLP138=

CYVR;2006-01-09 11:48;SPECI CYVR 091148Z 13007KT 10SM SCT011 BKN019 OVC039 08/ RMK SC3SC4SC1=

CYVR;2006-01-09 12:00;METAR CYVR 091200Z 13018KT 10SM SCT011 BKN020 OVC041 08/06 A2990 RMK SC3SC4SC1 SLP125=

CYVR;2006-01-09 12:06;SPECI CYVR 091206Z 14018KT 8SM -RA SCT011 BKN020 OVC040 08/ RMK SC3SC3SC2=

CYVR;2006-01-09 13:00;METAR CYVR 091300Z 14017KT 8SM -RA SCT014 BKN022 OVC044 08/06 A2988 RMK SC3SC4SC1 SLP119=

CYVR;2006-01-09 14:00;METAR CYVR 091400Z 13015KT 8SM -RA SCT012 OVC018 08/06 A2986 RMK SC3SC5 SLP113=

CYVR;2006-01-09 15:00;METAR CYVR 091500Z 13011G16KT 8SM -RA FEW012 BKN019 OVC035 08/06 A2984 RMK SC2SC6SC1 SLP104=

CYVR;2006-01-09 16:00;METAR CYVR 091600Z 15012KT 5SM -RA BR FEW011 BKN021 OVC038 08/06 A2983 RMK SF2SC5SC2 SLP100=

CYVR;2006-01-09 17:00;METAR CYVR 091700Z 18013KT 4SM RA BR FEW011 BKN024 OVC035 08/07 A2986 RMK SF2SC5SC2 /R10/ SLP111=

CYVR;2006-01-09 17:31;SPECI CYVR 091731Z 15011KT 20SM -RA FEW009 SCT025 BKN040 OVC060 08/ RMK SF2SC2SC2SC2 VIS NE - SE 5=

CYVR;2006-01-09 18:00;METAR CYVR 091800Z 15011G16KT 10SM -RA FEW009 SCT030 SCT050 BKN080 OVC120 08/07 A2985 RMK SF2SC2SC1AC3AC1 VIS SW - NW 20 SLP109=

CYVR;2006-01-09 18:18;SPECI CYVR 091818Z 14008KT 10SM FEW009 SCT040 BKN082 OVC120 08/ RMK SF2SC2AC3AC1 VIS SW - NW 20 / LWR E=

CYVR;2006-01-09 19:00;METAR CYVR 091900Z 12007KT 10SM FEW008 SCT040 BKN084 OVC120 08/07 A2986 RMK SC2SC2AC3AC1 VIS SW - NW 20 SLP111=

CYVR;2006-01-09 20:00;METAR CYVR 092000Z 09010KT 12SM BKN006 BKN040 OVC090 07/06 A2985 RMK SF6SC2AC1 VIS HIER SW SLP108=

CYVR;2006-01-09 21:00;METAR CYVR 092100Z 09010KT 12SM BKN006 BKN010 BKN040 OVC090 07/06 A2983 RMK SF6SC1SC1AC1 VIS HIER SW SLP102=

CYVR;2006-01-09 22:00;METAR CYVR 092200Z 09007KT 12SM BKN006 BKN011 BKN040 OVC100 08/07 A2984 RMK SC6SC1SC1AC1 SLP104=

CYVR;2006-01-09 23:00;METAR CYVR 092300Z 08008KT 12SM SCT006 BKN012 BKN025 OVC080 08/07 A2983 RMK SF4SC2SC2AC1 SLP100=

CYVR;2006-01-10 00:00;METAR CYVR 100000Z 11009KT 12SM SCT006 BKN011 BKN035 OVC080 08/07 A2983 RMK SC3SC2SC2AC1 SLP103=

CYVR;2006-01-10 01:17;SPECI CYVR 100117Z 09009KT 10SM BKN006 BKN014 OVC050 08/ RMK SC5SC2SC2=

CYVR;2006-01-10 03:00;METAR CYVR 100300Z 09010KT 10SM FEW006 SCT030 OVC100 07/06 A2979 RMK SC2SC2AS3 SLP088=

CYVR;2006-01-10 03:36;SPECI CYVR 100336Z 09010KT 10SM -RA FEW006 SCT030 OVC061 07/ RMK SC2SC2SC4=

CYVR;2006-01-10 04:00;METAR CYVR 100400Z 09009KT 8SM -RA FEW006 BKN035 OVC062 07/06 A2979 RMK SC2SC5SC2 SLP088=

CYVR;2006-01-10 05:00;METAR CYVR 100500Z 11004KT 8SM -RA SCT011 OVC032 07/06 A2976 RMK SC3SC5 SLP078=

CYVR;2006-01-10 06:00;METAR CYVR 100600Z 09007KT 8SM -RA SCT005 OVC022 07/06 A2970 RMK SC4SC4 PRESFR SLP057=

CYVR;2006-01-10 08:00;METAR CYVR 100800Z 07010KT 10SM -RA FEW006 OVC023 06/05 A2960 RMK SC2SC6 SLP023=

CYVR;2006-01-10 09:00;METAR CYVR 100900Z 05008KT 10SM -RA FEW006 BKN029 OVC041 06/05 A2950 RMK SC2SC5SC2 PESFR SLP991=

CYVR;2006-01-10 10:00;METAR CYVR 101000Z 06007KT 10SM -RA FEW008 BKN024 OVC040 06/05 A2945 RMK SC2SC5SC2 SLP974=

CYVR;2006-01-10 11:00;METAR CYVR 101100Z 09011KT 10SM -RA FEW007 OVC022 06/05 A2941 RMK SC2SC6 PCPN VRY LGT SLP958=

CYVR;2006-01-10 12:00;METAR CYVR 101200Z 36003KT 10SM -RA FEW006 OVC018 06/05 A2939 RMK SC2SC6 SLP953=

CYVR;2006-01-10 12:35;SPECI CYVR 101235Z 05007KT 8SM -RA FEW006 BKN014 OVC019 06/ RMK SC2SC3SC2=

CYVR;2006-01-10 13:00;METAR CYVR 101300Z 07006KT 8SM -RA FEW006 BKN013 OVC019 06/05 A2936 RMK SC2SC4SC2 SLP942=

CYVR;2006-01-10 13:32;SPECI CYVR 101332Z 03007KT 7SM -RA BKN007 OVC015 06/ RMK SC6SC2=

CYVR;2006-01-10 14:00;METAR CYVR 101400Z 31013KT 8SM RA BKN007 OVC018 06/05 A2937 RMK SC5SC3 RERA SLP947=

CYVR;2006-01-10 14:21;SPECI CYVR 101421Z 32017G25KT 8SM RA SCT007 OVC017 05/ RMK SC4SC4=

CYVR;2006-01-10 15:00;METAR CYVR 101500Z 31016G22KT 10SM -RA FEW007 FEW020 SCT050 BKN090 BKN150 06/04 A2941 RMK SC1SC2SC1AC2AC1 SLP960=

CYVR;2006-01-10 15:06;SPECI CYVR 101506Z 31016G22KT 12SM FEW007 FEW020 SCT050 BKN090 BKN160 05/ RMK SC1SC2SC1AC2AC1=

CYVR;2006-01-10 16:00;METAR CYVR 101600Z 30020G27KT 15SM FEW008 FEW030 SCT100 06/04 A2947 RMK SC1SC1AC1 PRESRR LO CLD NE - E SLP978=

CYVR;2006-01-10 17:00;METAR CYVR 101700Z 27014G19KT 15SM FEW009 SCT045 SCT100 06/04 A2954 RMK SC1SC2AC1 PRESRR LENT SLP005=

CYVR;2006-01-10 18:00;METAR CYVR 101800Z 29014KT 15SM FEW009 SCT043 BKN090 07/05 A2959 RMK SF1SC3AC1 SLP021=

CYVR;2006-01-10 20:00;METAR CYVR 102000Z 19004KT 20SM FEW011 SCT035 BKN080 BKN210 07/05 A2964 RMK SF2SC2AC2CI1 SLP036=

CYVR;2006-01-10 21:00;METAR CYVR 102100Z 08003KT 20SM FEW012 SCT032 BKN070 OVC110 07/05 A2962 RMK SF1SC2AC2AC2 SLP032=

CYVR;2006-01-10 22:00;METAR CYVR 102200Z 10008KT 15SM -SHRA FEW014 BKN044 OVC060 07/05 A2962 RMK CF1SC6SC2 PCPN VRY LGT SLP030=

CYVR;2006-01-10 23:00;METAR CYVR 102300Z 09010KT 10SM -RA FEW014 BKN033 BKN044 OVC060 07/05 A2960 RMK CF1SC5SC2SC1 SLP025=

CYVR;2006-01-11 00:00;METAR CYVR 110000Z 09010KT 8SM -RA FEW015 BKN030 OVC048 07/05 A2957 RMK CF1SC5SC2 SLP014=

CYVR;2006-01-11 01:00;METAR CYVR 110100Z 09010KT 6SM -RA FEW015 BKN039 OVC060 06/05 A2953 RMK SF1SC5SC2 SLP001=

CYVR;2006-01-11 03:00;METAR CYVR 110300Z 08012KT 8SM -RA FEW007 SCT020 OVC032 06/05 A2944 RMK SF2SC2SC5 SLP968=

CYVR;2006-01-11 04:00;METAR CYVR 110400Z 09009KT 10SM -RA FEW007 BKN024 OVC040 05/04 A2940 RMK SF2SC4SC2 SLP955=

CYVR;2006-01-11 06:00;METAR CYVR 110600Z 07009KT 10SM -RA FEW007 BKN024 OVC036 06/04 A2937 RMK SF2SC5SC2 SLP946=

CYVR;2006-01-11 08:00;METAR CYVR 110800Z 09009KT 8SM -RA OVC019 06/05 A2939 RMK SC8 SLP954=

CYVR;2006-01-11 09:00;METAR CYVR 110900Z 11006KT 10SM -RA FEW007 BKN016 OVC037 05/04 A2941 RMK SF1SC6SC1 PCPN VRY LGT SLP958=

CYVR;2006-01-11 09:08;SPECI CYVR 110908Z 17003KT 12SM FEW007 BKN015 OVC037 05/ RMK SF1SC6SC1=

CYVR;2006-01-11 10:00;METAR CYVR 111000Z 08006KT 12SM SCT006 BKN015 OVC035 05/04 A2945 RMK SC4SC3SC1 SLP974=

CYVR;2006-01-11 11:00;METAR CYVR 111100Z 09005KT 12SM FEW008 SCT016 BKN039 OVC060 05/04 A2949 RMK SC2SC2SC2SC2 SLP986=

CYVR;2006-01-11 12:00;METAR CYVR 111200Z 13004KT 15SM FEW020 BKN047 BKN100 06/05 A2952 RMK SC2SC3AC2 SLP995=

CYVR;2006-01-11 13:00;METAR CYVR 111300Z 19008KT 15SM FEW020 SCT049 BKN091 07/04 A2954 RMK SC2SC2AC2 SLP003=

CYVR;2006-01-11 14:00;METAR CYVR 111400Z 17010KT 15SM FEW020 SCT045 BKN060 OVC090 07/04 A2957 RMK SC2SC2SC3AC2 SLP012=

CYVR;2006-01-11 15:00;METAR CYVR 111500Z 17008KT 15SM FEW015 BKN047 OVC060 07/05 A2958 RMK SC2SC5SC2 SLP017=

CYVR;2006-01-11 16:00;METAR CYVR 111600Z 16009KT 20SM FEW015 SCT045 OVC060 07/05 A2960 RMK SC2SC2SC5 VIS N QUAD 15 SM SLP022=

CYVR;2006-01-11 17:00;METAR CYVR 111700Z 18012G17KT 20SM FEW015 SCT040 BKN070 BKN080 07/05 A2962 RMK SC2SC2AC3AC1 SLP030=

CYVR;2006-01-11 17:44;SPECI CYVR 111744Z 19015KT 15SM -SHRA FEW015 SCT030 OVC048 07/ RMK SC2SC2SC4=

CYVR;2006-01-11 18:00;METAR CYVR 111800Z 19014G19KT 15SM -SHRA FEW015 BKN047 OVC060 07/04 A2964 RMK SC2SC4SC2 SLP038=

CYVR;2006-01-11 18:32;SPECI CYVR 111832Z 17011KT 20SM FEW015 SCT060 BKN110 08/ RMK SC2SC2AC2=

CYVR;2006-01-11 19:00;METAR CYVR 111900Z 19017KT 20SM FEW015 SCT045 BKN073 BKN085 07/03 A2965 RMK SC2SC2AC2AC2 SLP042=

CYVR;2006-01-11 20:00;METAR CYVR 112000Z 19014G20KT 20SM FEW020 SCT060 BKN140 08/04 A2966 RMK SC2SC2AC3 SHS DIST E QUAD SLP044=

CYVR;2006-01-11 21:00;METAR CYVR 112100Z 19011G16KT 20SM FEW020 SCT060 BKN100 BKN180 08/04 A2967 RMK SC2SC2AC2AC1 SLP048=

CYVR;2006-01-11 22:00;METAR CYVR 112200Z 19011G16KT 20SM FEW025 BKN063 BKN100 08/03 A2969 RMK SC2SC4AC1 SHS DIST W QUAD SLP055=

CYVR;2006-01-11 22:16;SPECI CYVR 112216Z 19013KT 20SM -SHRA FEW025 BKN062 BKN100 08/ RMK SC2SC4AC1 PCPN VRY LGT=

CYVR;2006-01-11 22:41;SPECI CYVR 112241Z 18009KT 20SM FEW025 BKN062 BKN140 08/ RMK SC2SC3AC2=

CYVR;2006-01-11 23:00;METAR CYVR 112300Z 18009KT 20SM FEW025 SCT060 BKN210 08/04 A2972 RMK SC2SC2CI1 SLP066=

CYVR;2006-01-12 00:00;METAR CYVR 120000Z 19008KT 20SM FEW030 SCT060 BKN160 BKN210 08/04 A2974 RMK SC1SC1AC1CI1 SLP071=

CYVR;2006-01-12 01:00;METAR CYVR 120100Z 19012KT 20SM SCT030 BKN077 BKN087 08/03 A2976 RMK SC2AC3AC2 SLP077=

CYVR;2006-01-12 03:00;METAR CYVR 120300Z 19006KT 20SM FEW030 SCT075 BKN140 BKN170 07/03 A2980 RMK SC2AC2AC2AC2 SLP091=

CYVR;2006-01-12 04:00;METAR CYVR 120400Z 18008KT 20SM FEW030 FEW050 SCT140 06/03 A2983 RMK SC2SC1AC2 SLP100=

CYVR;2006-01-12 05:00;METAR CYVR 120500Z 09003KT 20SM FEW030 FEW050 SCT140 05/03 A2984 RMK SC1SC2AC2 SLP106=

CYVR;2006-01-12 06:00;METAR CYVR 120600Z 07007KT 20SM FEW030 BKN055 05/03 A2988 RMK SC2SC6 SLP117=

CYVR;2006-01-12 08:00;METAR CYVR 120800Z 13003KT 15SM FEW025 BKN050 05/03 A2992 RMK SC1SC6 SLP133=

CYVR;2006-01-12 09:00;METAR CYVR 120900Z 08006KT 15SM FEW025 BKN055 BKN220 04/02 A2994 RMK SC1SC4CI1 SLP140=

CYVR;2006-01-12 10:00;METAR CYVR 121000Z 09005KT 15SM FEW035 SCT060 BKN120 04/03 A2996 RMK SC2SC2AC2 SLP146=

CYVR;2006-01-12 11:00;METAR CYVR 121100Z 09006KT 15SM -SHRA FEW035 OVC061 04/03 A2998 RMK SC2SC6 PCPN VRY LGT SLP152=

CYVR;2006-01-12 12:00;METAR CYVR 121200Z 09007KT 15SM -SHRA SCT030 OVC055 05/04 A2998 RMK SC3SC5 PCPN VRY LGT SLP152=

CYVR;2006-01-12 12:34;SPECI CYVR 121234Z 09008KT 15SM FEW025 BKN060 OVC220 04/ RMK SC2SC3CI2=

CYVR;2006-01-12 13:00;METAR CYVR 121300Z 08007KT 15SM FEW020 FEW040 SCT060 OVC120 04/03 A2998 RMK SC2SC1SC2AC4 SLP151=

CYVR;2006-01-12 14:00;METAR CYVR 121400Z 12007KT 15SM SCT020 BKN050 OVC100 06/04 A2998 RMK SC3SC4AC1 SLP151=

CYVR;2006-01-12 15:35;SPECI CYVR 121535Z 09008KT 15SM FEW020 SCT034 BKN079 OVC120 06/ RMK SC2SC2AC3AC2=

CYVR;2006-01-12 16:00;METAR CYVR 121600Z 09009KT 20SM FEW020 BKN074 OVC120 06/04 A2996 RMK SC2AC2AC3 VIS N QUAD 15 SM SLP147=

CYVR;2006-01-12 17:00;METAR CYVR 121700Z 09012KT 20SM BKN026 OVC075 06/04 A2995 RMK SC5AC3 SLP141=

CYVR;2006-01-12 18:00;METAR CYVR 121800Z 09011KT 20SM OVC027 07/04 A2993 RMK SC8 VIS N QUAD 15 SM SLP136=

CYVR;2006-01-12 18:39;SPECI CYVR 121839Z 09011KT 15SM -RA OVC027 07/ RMK SC8=

CYVR;2006-01-12 19:00;METAR CYVR 121900Z 10013G19KT 15SM -RA BKN027 OVC040 07/04 A2990 RMK SC6SC2 SLP126=

CYVR;2006-01-12 20:00;METAR CYVR 122000Z 10016KT 8SM -RA OVC026 07/05 A2987 RMK SC8 SLP114=

CYVR;2006-01-12 21:00;METAR CYVR 122100Z 10017G24KT 8SM -RA FEW019 OVC025 06/04 A2982 RMK SF2SC6 SLP097=

CYVR;2006-01-12 21:37;SPECI CYVR 122137Z 11018KT 6SM -RA BR SCT019 OVC029 06/ RMK SC3SC5=

CYVR;2006-01-12 22:00;METAR CYVR 122200Z 11016KT 6SM -RA BR SCT019 OVC025 06/04 A2979 RMK SC3SC5 SLP088=

CYVR;2006-01-12 23:00;METAR CYVR 122300Z 11018G25KT 7SM -RA SCT020 OVC027 05/04 A2977 RMK SC3SC5 SLP081=

CYVR;2006-01-13 00:00;METAR CYVR 130000Z 10015KT 8SM -RA SCT023 OVC036 05/04 A2975 RMK SC3SC5 SLP076=

CYVR;2006-01-13 01:00;METAR CYVR 130100Z 09014G20KT 15SM -RA BKN028 OVC031 06/04 A2972 RMK SC5SC3 SLP066=

CYVR;2006-01-13 02:00;METAR CYVR 130200Z 09010KT 15SM -RA SCT024 OVC031 06/05 A2971 RMK SC3SC5 SLP061=

CYVR;2006-01-13 04:00;METAR CYVR 130400Z 09013KT 15SM -RA OVC020 06/05 A2967 RMK SC8 SLP049=

CYVR;2006-01-13 06:00;METAR CYVR 130600Z 10018KT 15SM -RA SCT019 BKN025 OVC050 06/04 A2964 RMK SC3SC3SC2 SLP036=

CYVR;2006-01-13 08:30;SPECI CYVR 130830Z 09012G17KT 15SM FEW014 BKN017 OVC025 06/ RMK SC2SC4SC2=

CYVR;2006-01-13 08:35;SPECI CYVR 130835Z 10013KT 15SM -SHRA FEW014 BKN017 OVC025 06/ RMK SC2SC4SC2=

CYVR;2006-01-13 09:00;METAR CYVR 130900Z 10012G17KT 15SM -SHRA FEW013 BKN016 OVC020 06/05 A2963 RMK SC2SC4SC2 PCPN VRY LGT SLP033=

CYVR;2006-01-13 09:39;SPECI CYVR 130939Z 10010G15KT 15SM FEW014 BKN019 OVC040 07/ RMK SC2SC5SC1=

CYVR;2006-01-13 09:51;SPECI CYVR 130951Z 10011KT 15SM -SHRA FEW014 BKN020 OVC040 07/ RMK SC2SC5SC1 PCPN VRY LGT=

CYVR;2006-01-13 10:00;METAR CYVR 131000Z 09011KT 15SM -SHRA FEW014 BKN019 OVC040 07/06 A2963 RMK SC2SC5SC1 PCPN VRY LGT SLP033=

CYVR;2006-01-13 10:43;SPECI CYVR 131043Z 12010KT 8SM RA BKN014 OVC031 09/ RMK SC5SC3=

CYVR;2006-01-13 12:00;METAR CYVR 131200Z 16013KT 10SM -RA FEW014 SCT025 OVC055 09/07 A2965 RMK SF2SC2SC5 SLP041=

CYVR;2006-01-13 13:00;METAR CYVR 131300Z 14009KT 10SM -RA FEW015 SCT025 OVC050 09/08 A2965 RMK SF2SC2SC5 SLP041=

CYVR;2006-01-13 14:00;METAR CYVR 131400Z 13010KT 10SM -RA FEW015 BKN040 OVC063 09/07 A2966 RMK SF2SC3SC2 SLP043=

CYVR;2006-01-13 15:00;METAR CYVR 131500Z 13011KT 8SM -RA FEW015 BKN040 OVC050 09/07 A2967 RMK SF2SC4SC2 SLP046=

CYVR;2006-01-13 16:00;METAR CYVR 131600Z 11011KT 8SM -RA FEW015 SCT029 OVC040 08/07 A2967 RMK SF1SC2SC5 SLP046=

CYVR;2006-01-13 16:28;SPECI CYVR 131628Z 11009KT 6SM -RA BR FEW007 SCT029 OVC045 08/ RMK SF2SC1SC5=

CYVR;2006-01-13 17:00;METAR CYVR 131700Z 12009KT 6SM -RA BR FEW010 OVC044 08/07 A2968 RMK SF2SC6 SLP050=

CYVR;2006-01-13 18:00;METAR CYVR 131800Z 09011KT 6SM -RA BR FEW015 BKN044 OVC048 08/07 A2967 RMK SF2SC5SC2 SLP047=

CYVR;2006-01-13 18:11;SPECI CYVR 131811Z 09012KT 8SM -RA FEW010 BKN044 OVC057 08/ RMK SF2SC4SC2=

CYVR;2006-01-13 19:00;METAR CYVR 131900Z 09011KT 12SM -RA FEW015 FEW020 OVC048 08/07 A2968 RMK SF1SC2SC6 SLP050=

CYVR;2006-01-13 19:28;SPECI CYVR 131928Z 10006KT 6SM -RA BR FEW015 OVC031 08/ RMK SF2SC6=

CYVR;2006-01-13 19:40;SPECI CYVR 131940Z 08007KT 5SM -RA BR BKN006 OVC031 08/ RMK SC5SC3=

CYVR;2006-01-13 20:00;METAR CYVR 132000Z 09008KT 12SM -RA SCT006 OVC043 08/07 A2969 RMK SC3SC5 SLP053=

CYVR;2006-01-13 21:00;METAR CYVR 132100Z 10012KT 15SM FEW010 FEW030 OVC075 08/07 A2965 RMK SF1SC2AC6 SLP041=

CYVR;2006-01-13 21:27;SPECI CYVR 132127Z 10010KT 15SM BKN006 BKN045 OVC075 08/ RMK SC5SC2AC2=

CYVR;2006-01-13 21:34;SPECI CYVR 132134Z 07011KT 15SM SCT006 SCT045 OVC065 08/ RMK SC3SC1SC4=

CYVR;2006-01-13 22:00;METAR CYVR 132200Z 06010KT 15SM SCT012 SCT045 OVC065 08/07 A2966 RMK SC3SC1SC4 SLP043=

CYVR;2006-01-13 23:00;METAR CYVR 132300Z 12008KT 15SM FEW010 FEW035 SCT065 OVC100 08/06 A2966 RMK SF2SC1SC2AC4 SLP044=

CYVR;2006-01-14 00:00;METAR CYVR 140000Z 10011KT 15SM FEW035 SCT085 OVC110 07/05 A2967 RMK SC2AC2AC4 SLP047=

CYVR;2006-01-14 00:25;SPECI CYVR 140025Z 10013KT 15SM -SHRA SCT035 BKN061 OVC085 07/ RMK SC3SC4AC1=

CYVR;2006-01-14 00:50;SPECI CYVR 140050Z 10014KT 15SM SCT035 BKN055 OVC075 07/ RMK SC3SC4AC1=

CYVR;2006-01-14 01:23;SPECI CYVR 140123Z 10013KT 15SM -SHRA BKN012 OVC050 07/ RMK SC6SC2=

CYVR;2006-01-14 01:32;SPECI CYVR 140132Z 10011KT 15SM -SHRA SCT012 OVC045 07/ RMK SC4SC4=

CYVR;2006-01-14 02:00;METAR CYVR 140200Z 10013KT 15SM -SHRA SCT012 OVC050 07/05 A2967 RMK SC4SC4 SLP048=

CYVR;2006-01-14 02:41;SPECI CYVR 140241Z 10013KT 15SM FEW016 BKN047 OVC120 07/ RMK SC2SC5AC1=

CYVR;2006-01-14 03:00;METAR CYVR 140300Z 10014KT 15SM SCT012 BKN047 OVC053 07/05 A2967 RMK SC3SC3SC2 SLP047=

CYVR;2006-01-14 03:27;SPECI CYVR 140327Z 10010KT 15SM -SHRA SCT016 BKN038 OVC045 06/ RMK SC3SC3SC2=

CYVR;2006-01-14 04:00;METAR CYVR 140400Z 11013KT 15SM -SHRA SCT011 BKN017 OVC034 07/05 A2968 RMK SF4SC2SC2 SLP050=

CYVR;2006-01-14 04:26;SPECI CYVR 140426Z 10010G15KT 15SM FEW011 SCT030 BKN085 OVC130 06/ RMK SF2SC2AC3AC1=

CYVR;2006-01-14 05:00;METAR CYVR 140500Z 11011KT 15SM FEW012 SCT046 BKN061 OVC120 06/05 A2968 RMK SF2SC2SC3AC2 SLP051=

CYVR;2006-01-14 06:28;SPECI CYVR 140628Z 10009KT 15SM -SHRA SCT011 BKN019 BKN043 OVC065 06/ RMK SF3SC3SC1SC1=

CYVR;2006-01-14 06:54;SPECI CYVR 140654Z 11009KT 15SM FEW011 SCT020 BKN045 OVC060 06/ RMK SF2SC2SC2SC2=

CYVR;2006-01-14 07:00;METAR CYVR 140700Z 11011KT 15SM -SHRA FEW011 SCT020 BKN045 OVC060 06/05 A2969 RMK SF2SC2SC2SC2 PCPN VRY LGT SLP053=

CYVR;2006-01-14 07:34;SPECI CYVR 140734Z 10009KT 15SM FEW013 SCT025 BKN055 OVC085 06/ RMK SF2SC2SC3AC2=

CYVR;2006-01-14 08:00;METAR CYVR 140800Z 11007KT 15SM FEW012 SCT025 BKN055 OVC070 06/05 A2969 RMK SF2SC2SC2AC2 SLP053=

CYVR;2006-01-14 09:00;METAR CYVR 140900Z 13007KT 15SM FEW011 FEW025 BKN075 OVC230 07/06 A2970 RMK SF2SC1AC5CI1 SLP056=

CYVR;2006-01-14 10:00;METAR CYVR 141000Z 04003KT 15SM FEW011 BKN100 BKN230 06/05 A2968 RMK SF2AC3CI1 SLP052=

CYVR;2006-01-14 11:00;METAR CYVR 141100Z 09005KT 15SM FEW015 FEW065 BKN095 BKN120 06/05 A2971 RMK SF1SC2AC3AC1 SLP061=

CYVR;2006-01-14 12:00;METAR CYVR 141200Z 11004KT 15SM FEW015 SCT090 BKN120 BKN230 06/04 A2970 RMK SC2AC2AC2CI1 SLP057=

CYVR;2006-01-14 13:00;METAR CYVR 141300Z 15004KT 15SM FEW015 SCT050 BKN130 OVC230 06/05 A2971 RMK SC2SC2AC3CI1 SLP060=

CYVR;2006-01-14 14:00;METAR CYVR 141400Z 11003KT 15SM FEW015 BKN055 OVC130 05/04 A2970 RMK SF2SC6AC1 SLP059=

CYVR;2006-01-14 15:00;METAR CYVR 141500Z 25004KT 15SM BKN055 BKN065 06/04 A2971 RMK SC5SC2 SLP060=

CYVR;2006-01-14 16:00;METAR CYVR 141600Z 00000KT 15SM FEW010 BKN055 06/04 A2972 RMK SC2SC4 SLP063=

CYVR;2006-01-14 17:00;METAR CYVR 141700Z 24005KT 15SM FEW010 SCT055 BKN220 06/03 A2972 RMK SF1SC2CI1 SLP065=

CYVR;2006-01-14 18:00;METAR CYVR 141800Z 24006KT 15SM FEW010 SCT055 BKN220 06/03 A2973 RMK SC1SC1CC1 SLP068=

CYVR;2006-01-14 20:00;METAR CYVR 142000Z 23003KT 20SM FEW025 BKN180 BKN220 08/03 A2973 RMK SC1AC2CC1 SLP068=

CYVR;2006-01-14 21:00;METAR CYVR 142100Z 25004KT 20SM FEW035 SCT160 SCT220 08/04 A2973 RMK SC1AC2CI1 TCU ASOCT SLP068=

CYVR;2006-01-14 22:00;METAR CYVR 142200Z 30007KT 20SM FEW035 FEW040 SCT075 BKN160 BKN210 08/04 A2973 RMK SF1CU1AC1AC1CI0 SLP069=

CYVR;2006-01-14 23:00;METAR CYVR 142300Z 25004KT 20SM FEW040 SCT075 BKN160 BKN210 07/03 A2975 RMK SC2AC1AC2CI0 TCU ASOCT SLP073=

CYVR;2006-01-15 00:00;METAR CYVR 150000Z 29003KT 20SM FEW040 SCT075 BKN110 07/04 A2976 RMK SC1AC1AC2 TCU ASOCT SLP078=

CYVR;2006-01-15 02:00;METAR CYVR 150200Z 25003KT 20SM FEW035 BKN058 06/02 A2980 RMK SC2SC2 SLP091=

CYVR;2006-01-15 03:00;METAR CYVR 150300Z 27010KT 20SM FEW035 SCT055 05/01 A2982 RMK SC2SC2 SLP097=

CYVR;2006-01-15 04:00;METAR CYVR 150400Z 28004KT 15SM FEW024 BKN055 05/01 A2983 RMK SC2SC2 SLP103=

CYVR;2006-01-15 05:00;METAR CYVR 150500Z 27007KT 15SM FEW025 SCT055 05/01 A2985 RMK SC2SC2 SLP107=

CYVR;2006-01-15 06:00;METAR CYVR 150600Z 00000KT 15SM FEW030 SCT045 04/01 A2987 RMK SC2SC2 SLP114=

CYVR;2006-01-15 08:44;SPECI CYVR 150844Z 25003KT 20SM FEW020 02/ RMK SC2=

CYVR;2006-01-15 10:00;METAR CYVR 151000Z 11005KT 20SM FEW020 SCT130 01/M01 A2997 RMK SC1AC2 SLP148=

CYVR;2006-01-15 11:00;METAR CYVR 151100Z 09006KT 20SM FEW020 BKN110 BKN130 M01/M02 A2999 RMK SC1AC3AC1 SLP157=

CYVR;2006-01-15 12:00;METAR CYVR 151200Z 11006KT 15SM FEW020 BKN100 BKN130 00/M01 A3001 RMK SC2AC3AC1 SLP162=

CYVR;2006-01-15 13:00;METAR CYVR 151300Z 09005KT 15SM FEW030 BKN080 BKN100 00/M01 A3002 RMK SC2AC4AC2 SLP165=

CYVR;2006-01-15 14:00;METAR CYVR 151400Z 09006KT 15SM FEW025 BKN055 BKN080 01/M00 A3004 RMK SC2SC4AC2 SLP173=

CYVR;2006-01-15 15:00;METAR CYVR 151500Z 09006KT 15SM FEW050 BKN078 BKN120 01/M01 A3006 RMK SC2AC2AC2 SLP181=

CYVR;2006-01-15 16:00;METAR CYVR 151600Z 08006KT 15SM FEW050 BKN075 BKN120 02/M00 A3009 RMK SC2AC4AC1 SLP191=

CYVR;2006-01-15 17:00;METAR CYVR 151700Z 09008KT 15SM FEW020 BKN082 BKN120 03/02 A3011 RMK SC1AC6AC1 SLP198=

CYVR;2006-01-15 18:00;METAR CYVR 151800Z 09006KT 15SM FEW020 BKN079 04/02 A3015 RMK SC1AC6 SLP209=

CYVR;2006-01-15 19:00;METAR CYVR 151900Z 09008KT 15SM FEW020 FEW060 SCT077 05/03 A3017 RMK SC1SC1AC2 SLP215=

CYVR;2006-01-15 20:00;METAR CYVR 152000Z 12005KT 15SM FEW020 FEW060 SCT078 06/03 A3018 RMK SC1SC1AC3 TCU EMBD SLP221=

CYVR;2006-01-15 21:00;METAR CYVR 152100Z 22004KT 15SM FEW017 SCT060 BKN079 07/03 A3019 RMK SC2SC2AC3 TCU EMBD SLP224=

CYVR;2006-01-15 22:00;METAR CYVR 152200Z 16005KT 15SM FEW025 FEW060 SCT080 BKN220 07/01 A3019 RMK SC1SC1AC2CI0 TCU EMBD SLP222=

CYVR;2006-01-16 00:00;METAR CYVR 160000Z 14005KT 15SM FEW030 FEW060 OVC210 06/01 A3022 RMK SC1SC1CS2 SLP235=

CYVR;2006-01-16 02:00;METAR CYVR 160200Z 09006KT 15SM FEW030 BKN067 BKN210 05/02 A3023 RMK SC1AC6CS1 SLP238=

CYVR;2006-01-16 03:00;METAR CYVR 160300Z 09007KT 15SM FEW030 BKN060 05/02 A3024 RMK SF1SC6 SLP239=

CYVR;2006-01-16 04:00;METAR CYVR 160400Z 09008KT 15SM FEW025 BKN048 BKN060 05/03 A3023 RMK SF1SC4SC2 SLP236=

CYVR;2006-01-16 05:00;METAR CYVR 160500Z 10007KT 15SM FEW030 BKN048 BKN060 05/03 A3023 RMK SF1SC6SC1 SLP238=

CYVR;2006-01-16 07:00;METAR CYVR 160700Z 09010KT 15SM FEW060 BKN120 05/03 A3022 RMK SC2AC4 SLP234=

CYVR;2006-01-16 08:00;METAR CYVR 160800Z 09010KT 15SM BKN028 BKN060 05/02 A3022 RMK SC5SC2 SLP232=

CYVR;2006-01-16 08:27;SPECI CYVR 160827Z 09011KT 12SM -SHRA BKN030 BKN060 05/ RMK SC5SC2=

CYVR;2006-01-16 09:00;METAR CYVR 160900Z 09010KT 10SM -SHRA BKN027 BKN045 05/02 A3020 RMK SC6SC2 SLP228=

CYVR;2006-01-16 10:00;METAR CYVR 161000Z 08010KT 10SM -RA BKN026 BKN045 OVC090 05/02 A3018 RMK SC6SC2AC1 SLP221=

CYVR;2006-01-16 11:00;METAR CYVR 161100Z 09015KT 10SM -RA BKN024 BKN040 OVC100 04/02 A3017 RMK SC6SC2AC1 SLP216=

CYVR;2006-01-16 12:00;METAR CYVR 161200Z 09014G19KT 10SM -RA BKN018 BKN027 OVC110 04/02 A3015 RMK SC5SC2AC1 SLP209=

CYVR;2006-01-16 13:00;METAR CYVR 161300Z 09017KT 10SM -RA SCT017 BKN023 OVC150 03/02 A3011 RMK SC3SC3AC2 SLP197=

CYVR;2006-01-16 14:00;METAR CYVR 161400Z 09011KT 8SM -RA FEW016 BKN027 OVC050 03/02 A3009 RMK SC2SC4SC2 SLP191=

CYVR;2006-01-16 15:00;METAR CYVR 161500Z 09012G17KT 10SM -RA BKN022 OVC046 04/02 A3006 RMK SC6SC2 SLP181=

CYVR;2006-01-16 16:00;METAR CYVR 161600Z 08010G17KT 10SM -RA FEW019 BKN032 OVC051 04/03 A3005 RMK SC2SC5SC2 SLP175=

CYVR;2006-01-16 18:00;METAR CYVR 161800Z 09013KT 8SM -RA BKN020 OVC034 05/03 A3002 RMK SC6SC2 SLP166=

CYVR;2006-01-16 19:00;METAR CYVR 161900Z 10012KT 8SM -RA BKN018 OVC029 04/03 A3002 RMK SC6SC2 SLP165=

CYVR;2006-01-16 20:00;METAR CYVR 162000Z 10013KT 8SM -RA BKN015 OVC026 04/03 A3000 RMK SC7SC1 SLP158=

CYVR;2006-01-16 20:10;SPECI CYVR 162010Z 10014KT 8SM -RA BKN012 OVC023 04/ RMK SC6SC2=

CYVR;2006-01-16 20:35;SPECI CYVR 162035Z 09014KT 8SM -RA SCT012 OVC024 04/ RMK SC3SC5=

CYVR;2006-01-16 21:00;METAR CYVR 162100Z 09013G18KT 8SM -RA SCT012 OVC021 04/03 A2997 RMK SC3SC5 SLP149=

CYVR;2006-01-16 22:00;METAR CYVR 162200Z 09011G17KT 8SM -RA SCT012 OVC026 04/03 A2995 RMK SC3SC5 SLP142=

CYVR;2006-01-16 23:00;METAR CYVR 162300Z 09014KT 8SM -RA SCT012 OVC022 04/03 A2993 RMK SC3SC5 SLP134=

CYVR;2006-01-17 00:00;METAR CYVR 170000Z 08015KT 10SM -RA FEW014 BKN020 OVC035 05/03 A2990 RMK SC2SC5SC1 SLP124=

CYVR;2006-01-17 03:00;METAR CYVR 170300Z 09019KT 6SM -RA FEW012 BKN018 OVC024 05/04 A2974 RMK SC2SC6SC1 PRESFR SLP072=

CYVR;2006-01-17 04:00;METAR CYVR 170400Z 10020KT 6SM -RA SCT014 OVC020 05/04 A2970 RMK SC4SC4 SLP059=

CYVR;2006-01-17 04:44;SPECI CYVR 170444Z 11017KT 6SM -RA BKN011 BKN020 OVC040 06/ RMK SC5SC2SC1=

CYVR;2006-01-17 05:00;METAR CYVR 170500Z 09019KT 8SM -RA BKN010 BKN015 OVC025 06/05 A2969 RMK SC5SC2SC1 SLP055=

CYVR;2006-01-17 05:16;SPECI CYVR 170516Z 12015G20KT 5SM -RA BR SCT006 BKN010 OVC020 06/ RMK SF3SC2SC2=

CYVR;2006-01-17 06:00;METAR CYVR 170600Z 15013G22KT 8SM -RA SCT009 BKN019 BKN060 OVC090 09/08 A2970 RMK SF3SC2SC2AC2 SLP057=

CYVR;2006-01-17 06:11;SPECI CYVR 170611Z 16017KT 10SM FEW010 SCT020 BKN070 OVC120 09/ RMK SF2SC2AC2AC2=

CYVR;2006-01-17 07:00;METAR CYVR 170700Z 17008G15KT 15SM FEW010 FEW025 SCT050 BKN120 09/07 A2973 RMK SF1SC1SC2AC2 SLP068=

CYVR;2006-01-17 08:00;METAR CYVR 170800Z 23009G15KT 15SM FEW015 FEW050 SCT150 09/05 A2974 RMK SC1SC2AC2 SLP070=

CYVR;2006-01-17 09:00;METAR CYVR 170900Z 28007KT 15SM FEW015 FEW045 SCT090 BKN210 10/05 A2978 RMK SC1SC1AC2CI1 SLP083=

CYVR;2006-01-17 10:00;METAR CYVR 171000Z 19006KT 15SM FEW020 FEW050 SCT120 09/04 A2980 RMK SC1SC1AC1 SLP091=

CYVR;2006-01-17 11:00;METAR CYVR 171100Z 20011KT 15SM FEW020 FEW050 SCT090 09/04 A2983 RMK SC1SC2AC1 SLP100=

CYVR;2006-01-17 12:00;METAR CYVR 171200Z 17011KT 15SM FEW020 SCT040 BKN060 08/04 A2984 RMK SC1SC2SC2 SLP105=

CYVR;2006-01-17 13:00;METAR CYVR 171300Z 13009KT 15SM FEW025 SCT040 BKN062 09/04 A2984 RMK SC1SC2SC2 SLP104=

CYVR;2006-01-17 14:00;METAR CYVR 171400Z 12004KT 15SM FEW025 BKN063 BKN140 08/03 A2985 RMK SC1SC4AC2 SLP109=

CYVR;2006-01-17 14:54;SPECI CYVR 171454Z 15014G19KT 12SM -RA FEW025 SCT044 OVC058 08/ RMK SC2SC2SC5=

CYVR;2006-01-17 15:00;METAR CYVR 171500Z 15013KT 12SM -RA FEW025 SCT044 OVC059 08/05 A2985 RMK SC2SC2SC5 SLP107=

CYVR;2006-01-17 16:00;METAR CYVR 171600Z 14010G18KT 12SM -RA FEW025 BKN039 OVC060 08/05 A2987 RMK SC2SC6SC1 SLP114=

CYVR;2006-01-17 16:17;SPECI CYVR 171617Z 15010KT 12SM FEW025 BKN043 OVC071 08/ RMK SC2SC5AC2=

CYVR;2006-01-17 16:34;SPECI CYVR 171634Z 16015KT 12SM -SHRA FEW025 BKN041 OVC098 08/ RMK SC2SC5AC1=

CYVR;2006-01-17 17:00;METAR CYVR 171700Z 17017G22KT 12SM -SHRA FEW025 BKN032 OVC085 08/05 A2987 RMK SC2SC5AC2 SLP115=

CYVR;2006-01-17 18:00;METAR CYVR 171800Z 18008KT 6SM -SHRA BR SCT020 OVC038 07/05 A2989 RMK SC3SC5 SLP121=

CYVR;2006-01-17 19:25;SPECI CYVR 171925Z 15005KT 12SM FEW020 SCT040 OVC058 08/ RMK SC2SC2SC5=

CYVR;2006-01-17 21:00;METAR CYVR 172100Z 13010KT 12SM -SHRA FEW025 BKN044 OVC080 08/06 A2983 RMK SC1SC6AC1 SLP100=

CYVR;2006-01-17 21:33;SPECI CYVR 172133Z 11010KT 12SM FEW025 BKN047 OVC080 08/ RMK SC1SC6AC2=

CYVR;2006-01-17 22:00;METAR CYVR 172200Z 11010KT 10SM FEW020 BKN050 OVC080 08/06 A2979 RMK SC1SC6AC2 SLP089=

CYVR;2006-01-17 22:53;SPECI CYVR 172253Z 09009KT 8SM -SHRA FEW020 BKN038 OVC074 08/ RMK SC2SC6AC1=

CYVR;2006-01-17 23:00;METAR CYVR 172300Z 09011KT 8SM -SHRA FEW025 BKN036 OVC053 08/06 A2978 RMK SC2SC4SC2 SLP086=

CYVR;2006-01-18 00:00;METAR CYVR 180000Z 08005KT 8SM -SHRA FEW020 BKN035 OVC055 08/06 A2978 RMK SC2SC5SC2 SLP083=

CYVR;2006-01-18 01:55;SPECI CYVR 180155Z 09004KT 10SM FEW030 BKN065 OVC140 07/ RMK SC2SC3AC3=

CYVR;2006-01-18 02:00;METAR CYVR 180200Z 11003KT 12SM FEW030 BKN059 OVC140 07/05 A2975 RMK SC2SC3AC3 SLP074=

CYVR;2006-01-18 02:52;SPECI CYVR 180252Z 08004KT 8SM -SHRA FEW025 BKN042 OVC140 07/ RMK SC2SC4AC2=

CYVR;2006-01-18 03:00;METAR CYVR 180300Z 08004KT 8SM -SHRA FEW026 BKN041 BKN060 OVC140 07/06 A2975 RMK SC2SC4SC1AC2 SLP076=

CYVR;2006-01-18 04:00;METAR CYVR 180400Z 09008KT 10SM -SHRA FEW025 BKN042 BKN060 OVC120 07/06 A2975 RMK SC2SC3SC2AC1 SLP076=

CYVR;2006-01-18 05:00;METAR CYVR 180500Z 10006KT 10SM -SHRA SCT034 SCT045 BKN080 OVC120 06/06 A2976 RMK SC3SC1AC2AC2 SLP077=

CYVR;2006-01-18 06:00;METAR CYVR 180600Z 08007KT 8SM -SHRA FEW015 BKN035 BKN052 OVC080 06/06 A2976 RMK SF2SC4SC2AC1 SLP078=

CYVR;2006-01-18 08:00;METAR CYVR 180800Z 09006KT 8SM -SHRA FEW011 SCT032 BKN051 OVC090 06/05 A2977 RMK SF1SC2SC4AC1 SLP080=

CYVR;2006-01-18 08:43;SPECI CYVR 180843Z 07006KT 10SM FEW012 SCT040 BKN070 OVC120 06/ RMK SF1SC3AC2AC2=

CYVR;2006-01-18 09:00;METAR CYVR 180900Z 07006KT 10SM FEW008 BKN040 BKN070 OVC120 06/05 A2977 RMK SF2SC3AC2AC1 SLP081=

CYVR;2006-01-18 09:07;SPECI CYVR 180907Z 07007KT 10SM BKN008 BKN030 OVC070 06/ RMK SF5SC2AC2=

CYVR;2006-01-18 09:30;SPECI CYVR 180930Z 08008KT 10SM -SHRA BKN009 BKN018 BKN040 OVC070 06/ RMK SF5SC2SC1AC1=

CYVR;2006-01-18 09:49;SPECI CYVR 180949Z 09005KT 10SM -SHRA SCT008 SCT019 BKN040 OVC070 06/ RMK SF3SC1SC2AC2=

CYVR;2006-01-18 10:00;METAR CYVR 181000Z 08005KT 10SM -SHRA SCT009 BKN040 OVC070 06/05 A2978 RMK SF3SC3AC2 SLP084=

CYVR;2006-01-18 11:00;METAR CYVR 181100Z 09005KT 10SM -SHRA SCT011 BKN038 OVC060 06/05 A2979 RMK SF4SC3SC1 SLP089=

CYVR;2006-01-18 12:00;METAR CYVR 181200Z 09007KT 8SM -SHRA SCT011 BKN033 OVC050 06/05 A2979 RMK SF4SC2SC2 SLP088=

CYVR;2006-01-18 12:16;SPECI CYVR 181216Z 08004KT 8SM -SHRA BKN009 BKN035 OVC050 06/ RMK SF5SC2SC1=

CYVR;2006-01-18 13:00;METAR CYVR 181300Z 09008KT 8SM -SHRA SCT010 BKN032 BKN050 OVC110 06/05 A2978 RMK SF3SC2SC2AC2 SLP086=

CYVR;2006-01-18 13:41;SPECI CYVR 181341Z 09006KT 8SM FEW011 BKN034 BKN050 OVC100 05/ RMK SF2SC3SC1AC1=

CYVR;2006-01-18 14:00;METAR CYVR 181400Z 08006KT 10SM FEW011 BKN036 BKN050 OVC200 05/04 A2979 RMK SF2SC3SC1CI2 SLP087=

CYVR;2006-01-18 16:00;METAR CYVR 181600Z 06006KT 10SM FEW011 BKN030 OVC060 06/05 A2983 RMK SC2SC5SC1 SLP100=

CYVR;2006-01-18 17:00;METAR CYVR 181700Z 07004KT 8SM FEW011 BKN034 OVC055 06/05 A2985 RMK SC2SC4SC2 SLP109=

CYVR;2006-01-18 18:00;METAR CYVR 181800Z 05003KT 10SM SCT014 BKN028 OVC050 07/05 A2987 RMK SC3SC4SC1 SLP116=

CYVR;2006-01-18 20:00;METAR CYVR 182000Z 00000KT 8SM SCT011 OVC044 08/06 A2990 RMK SC4SC3 SLP125=

CYVR;2006-01-18 20:32;SPECI CYVR 182032Z 26006KT 8SM FEW005 BKN011 OVC030 07/ RMK SF2SC4SC2=

CYVR;2006-01-18 20:53;SPECI CYVR 182053Z 26004KT 8SM FEW007 SCT011 BKN018 OVC035 07/ RMK SF1SC2SC2SC2=

CYVR;2006-01-18 21:00;METAR CYVR 182100Z 27006KT 8SM FEW007 SCT011 BKN016 OVC041 07/06 A2991 RMK SF1SC2SC3SC2 SLP129=

CYVR;2006-01-18 22:00;METAR CYVR 182200Z 30007KT 12SM FEW007 BKN018 OVC050 07/06 A2992 RMK SF2SC4SC2 SLP131=

CYVR;2006-01-18 23:00;METAR CYVR 182300Z 29005KT 12SM FEW006 SCT020 BKN050 07/05 A2994 RMK SF2SC2SC2 SLP139=

CYVR;2006-01-19 00:00;METAR CYVR 190000Z 28008KT 12SM SCT008 BKN015 OVC050 07/06 A2996 RMK SC4SC3SC1 SLP146=

CYVR;2006-01-19 00:51;SPECI CYVR 190051Z 29007KT 12SM FEW007 BKN011 OVC049 06/ RMK SC2SC6SC1=

CYVR;2006-01-19 01:00;METAR CYVR 190100Z 28008KT 12SM FEW007 BKN011 OVC049 06/05 A2997 RMK SC1SC6SC1 SLP150=

CYVR;2006-01-19 02:00;METAR CYVR 190200Z 29007KT 12SM BKN010 OVC047 07/05 A2998 RMK SC6SC2 SLP154=

CYVR;2006-01-19 03:32;SPECI CYVR 190332Z 30008KT 15SM SCT010 OVC047 07/ RMK SC4SC4 LO CLD N - E=

CYVR;2006-01-19 04:00;METAR CYVR 190400Z 30008KT 15SM SCT010 OVC046 07/06 A3002 RMK SC3SC5 SLP165=

CYVR;2006-01-19 05:00;METAR CYVR 190500Z 29008KT 15SM SCT009 OVC047 07/05 A3003 RMK SF3SC5 LO CLD E OVR APCH SLP170=

CYVR;2006-01-19 07:00;METAR CYVR 190700Z 28005KT 15SM FEW010 SCT025 BKN046 OVC055 07/05 A3006 RMK SF2SC2SC3SC2 SLP181=

CYVR;2006-01-19 09:00;METAR CYVR 190900Z 25006KT 15SM FEW011 SCT035 BKN052 06/05 A3007 RMK SF2SC2SC3 SLP184=

CYVR;2006-01-19 10:00;METAR CYVR 191000Z 28004KT 15SM FEW010 FEW035 BKN053 06/05 A3008 RMK SF2SC1SC5 SLP187=

CYVR;2006-01-19 11:00;METAR CYVR 191100Z 22003KT 15SM FEW011 BKN054 OVC210 06/04 A3009 RMK SF1SC5CI2 SLP190=

CYVR;2006-01-19 12:00;METAR CYVR 191200Z 28005KT 15SM FEW010 BKN054 OVC210 05/04 A3010 RMK SF1SC6CI1 SLP194=

CYVR;2006-01-19 13:00;METAR CYVR 191300Z 04003KT 15SM FEW011 BKN058 OVC210 05/04 A3009 RMK SF1SC6CI1 SLP191=

CYVR;2006-01-19 14:00;METAR CYVR 191400Z 10003KT 15SM FEW012 SCT060 BKN160 OVC210 04/03 A3009 RMK SF1SC2AC2CI1 SLP189=

CYVR;2006-01-19 15:00;METAR CYVR 191500Z 05002KT 15SM FEW012 SCT040 OVC060 05/04 A3009 RMK SF1SC3SC4 SLP190=

CYVR;2006-01-19 16:00;METAR CYVR 191600Z 09003KT 15SM FEW012 SCT032 OVC065 05/04 A3009 RMK SF1SC2SC5 SLP191=

CYVR;2006-01-19 17:00;METAR CYVR 191700Z 07005KT 15SM FEW012 SCT030 BKN061 OVC160 05/04 A3010 RMK SF1SC2SC4AC1 SLP193=

CYVR;2006-01-19 18:00;METAR CYVR 191800Z 10007KT 15SM FEW012 SCT020 BKN026 OVC060 06/05 A3010 RMK SF2SC2SC2SC2 SLP194=

CYVR;2006-01-19 18:46;SPECI CYVR 191846Z 10006KT 15SM FEW008 SCT014 BKN030 OVC050 06/ RMK SF2SC2SC3SC2=

CYVR;2006-01-19 18:53;SPECI CYVR 191853Z 12009KT 15SM -SHRA FEW008 SCT014 BKN030 OVC050 06/ RMK SF2SC2SC2SC2 PCPN VRY LGT=

CYVR;2006-01-19 19:00;METAR CYVR 191900Z 10008KT 15SM -SHRA FEW009 SCT014 BKN021 OVC041 06/05 A3010 RMK SF2SC2SC2SC2 PCPN VRY LGT SLP194=

CYVR;2006-01-19 19:21;SPECI CYVR 191921Z 12007KT 15SM SCT010 BKN020 OVC045 06/ RMK SF3SC3SC2=

CYVR;2006-01-19 19:32;SPECI CYVR 191932Z 10007KT 10SM SCT008 BKN021 OVC043 06/ RMK SF4SC3SC1=

CYVR;2006-01-19 19:45;SPECI CYVR 191945Z 10007KT 10SM BKN008 BKN021 OVC035 07/ RMK SF5SC2SC1=

CYVR;2006-01-19 19:56;SPECI CYVR 191956Z 11007KT 10SM BKN010 BKN019 OVC055 07/ RMK SF5SC2SC2=

CYVR;2006-01-19 20:25;SPECI CYVR 192025Z 11006KT 12SM BKN009 BKN020 OVC055 07/ RMK SF6SC2SC1=

CYVR;2006-01-19 20:53;SPECI CYVR 192053Z 11008KT 12SM BKN010 BKN055 OVC120 07/ RMK SC5SC2AC1=

CYVR;2006-01-19 21:44;SPECI CYVR 192144Z 09009KT 15SM SCT014 SCT020 OVC055 07/ RMK SC3SC1SC4=

CYVR;2006-01-19 22:00;METAR CYVR 192200Z 09009KT 15SM SCT012 OVC051 07/05 A3005 RMK SC4SC4 SLP176=

CYVR;2006-01-19 23:00;METAR CYVR 192300Z 09007KT 15SM FEW012 SCT040 OVC051 07/04 A3005 RMK SF2SC2SC4 SLP175=

CYVR;2006-01-19 23:44;SPECI CYVR 192344Z 09008KT 12SM -SHRA FEW012 BKN051 OVC072 06/ RMK SF2SC3AC2=

CYVR;2006-01-20 00:00;METAR CYVR 200000Z 09008KT 12SM -SHRA FEW012 BKN050 OVC065 06/04 A3004 RMK SF2SC3SC2 SLP173=

CYVR;2006-01-20 00:38;SPECI CYVR 200038Z 11007KT 6SM -RA BR FEW012 BKN022 OVC040 06/ RMK SF2SC3SC2=

CYVR;2006-01-20 01:00;METAR CYVR 200100Z 13008KT 15SM -RA FEW012 BKN022 OVC045 07/04 A3002 RMK SF2SC4SC2 VIS LWR N 7SM SLP165=

CYVR;2006-01-20 01:55;SPECI CYVR 200155Z 13010KT 8SM -SHRA FEW012 BKN030 OVC060 06/ RMK SF2SC2SC3=

CYVR;2006-01-20 03:00;METAR CYVR 200300Z 11011KT 15SM FEW015 SCT020 OVC060 06/05 A2997 RMK SF1SC2SC5 VIS N QUAD 10 SM SLP148=

CYVR;2006-01-20 03:18;SPECI CYVR 200318Z 10010KT 15SM FEW013 BKN015 OVC060 06/ RMK SF2SC6SC1 VIS N QUAD 10 SM=

CYVR;2006-01-20 03:20;SPECI CYVR 200320Z 10011KT 15SM -SHRA FEW013 BKN016 OVC026 06/ RMK SF2SC5SC1 VIS N QUAD 10 SM=

CYVR;2006-01-20 03:39;SPECI CYVR 200339Z 10012KT 15SM -SHRA BKN012 OVC016 06/ RMK SC5SC3 VIS N QUAD 10 SM=

CYVR;2006-01-20 03:48;SPECI CYVR 200348Z 10012KT 15SM -SHRA SCT012 BKN018 OVC025 07/ RMK SC3SC4SC1 VIS N QUAD 10 SM=

CYVR;2006-01-20 04:00;METAR CYVR 200400Z 13015KT 15SM -SHRA SCT004 BKN017 OVC025 07/05 A2993 RMK SF3SC4SC1 SLP136=

CYVR;2006-01-20 05:00;METAR CYVR 200500Z 13017KT 15SM -SHRA FEW012 BKN020 OVC032 07/04 A2990 RMK SF2SC5SC2 VIS N 10 SM SLP126=

CYVR;2006-01-20 07:00;METAR CYVR 200700Z 13019KT 12SM -RA BKN019 OVC025 06/05 A2983 RMK SC6SC2 VIS N QUAD 5 SM SLP101=

CYVR;2006-01-20 08:00;METAR CYVR 200800Z 13011G19KT 12SM -RA FEW015 OVC020 06/05 A2981 RMK SC2SC6 VIS N QUAD 4 SM SLP095=

CYVR;2006-01-20 09:00;METAR CYVR 200900Z 09014KT 12SM -RA FEW009 BKN013 OVC019 04/03 A2979 RMK SF2SC6SC1 VIS N QUAD 4 SM SLP089=

CYVR;2006-01-20 10:00;METAR CYVR 201000Z 09009G16KT 15SM -RA FEW009 OVC012 03/02 A2979 RMK SF2SC6 VIS N QUAD 8 SM SLP087=

CYVR;2006-01-20 11:00;METAR CYVR 201100Z 06008KT 15SM FEW009 BKN019 OVC023 04/03 A2979 RMK SF1SC6SC2 SLP087=

CYVR;2006-01-20 12:00;METAR CYVR 201200Z 08008KT 15SM FEW020 SCT075 03/02 A2979 RMK SC2AC2 SLP087=

CYVR;2006-01-20 13:00;METAR CYVR 201300Z 06005KT 15SM FEW020 SCT075 BKN110 03/02 A2980 RMK SC2AC2AC3 SLP092=

CYVR;2006-01-20 14:00;METAR CYVR 201400Z 02004KT 15SM FEW020 BKN066 BKN120 03/02 A2982 RMK SC2AC3AC1 SLP097=

CYVR;2006-01-20 15:00;METAR CYVR 201500Z 01003KT 15SM FEW020 SCT040 BKN210 02/01 A2983 RMK SC1SC1CI2 SLP103=

CYVR;2006-01-20 16:00;METAR CYVR 201600Z 00000KT 20SM FEW020 FEW040 FEW120 02/01 A2985 RMK SC1SC1AC1 SLP108=

CYVR;2006-01-20 17:00;METAR CYVR 201700Z 20003KT 30SM FEW020 FEW050 04/03 A2987 RMK SC1SC2 SLP115=

CYVR;2006-01-20 17:39;SPECI CYVR 201739Z 00000KT 30SM BKN014 BKN040 04/ RMK SC5SC1=

CYVR;2006-01-20 18:08;SPECI CYVR 201808Z 27013KT 30SM SCT010 BKN022 06/ RMK SC4SC2=

CYVR;2006-01-20 19:00;METAR CYVR 201900Z 29010KT 30SM SCT010 SCT020 BKN045 07/05 A2992 RMK SC3SC1SC1 SLP132=

CYVR;2006-01-20 19:51;SPECI CYVR 201951Z 18012KT 30SM BKN014 BKN050 07/ RMK SC5SC2=

CYVR;2006-01-20 20:00;METAR CYVR 202000Z 29013KT 30SM BKN015 BKN050 06/04 A2993 RMK SC5SC2 SLP137=

CYVR;2006-01-20 20:31;SPECI CYVR 202031Z 29012KT 30SM BKN013 BKN045 07/ RMK SC5SC2=

CYVR;2006-01-20 20:46;SPECI CYVR 202046Z 28016KT 30SM FEW013 BKN057 07/ RMK SC2SC2=

CYVR;2006-01-20 21:00;METAR CYVR 202100Z 30015KT 30SM FEW013 SCT056 07/05 A2995 RMK SC2SC2 SLP141=

CYVR;2006-01-20 22:00;METAR CYVR 202200Z 31014KT 30SM FEW017 FEW060 FEW200 07/04 A2997 RMK SC1SC1CI1 SLP149=

CYVR;2006-01-20 23:00;METAR CYVR 202300Z 30014KT 30SM FEW017 FEW060 07/03 A2999 RMK SC1SC1 SLP155=

CYVR;2006-01-21 00:00;METAR CYVR 210000Z 29011KT 30SM FEW020 FEW060 06/03 A3001 RMK SC1SC1 TCU ASOCT SLP164=

CYVR;2006-01-21 01:00;METAR CYVR 210100Z 30009KT 30SM FEW020 FEW060 04/02 A3003 RMK SC1SC1 SLP170=

CYVR;2006-01-21 03:00;METAR CYVR 210300Z 30007KT 20SM FEW018 BKN059 05/03 A3007 RMK SF2SC6 SLP183=

CYVR;2006-01-21 04:00;METAR CYVR 210400Z 02003KT 20SM FEW030 SCT056 05/02 A3009 RMK SF1SC2 TR SF SLP189=

CYVR;2006-01-21 05:00;METAR CYVR 210500Z 13005KT 20SM SCT031 OVC040 04/02 A3011 RMK SC3SC3 SLP197=

CYVR;2006-01-21 06:00;METAR CYVR 210600Z 10006KT 20SM SCT025 SCT035 OVC058 04/03 A3014 RMK SC3SC1SC4 SLP205=

CYVR;2006-01-21 09:00;METAR CYVR 210900Z 08005KT 15SM FEW025 SCT035 OVC058 04/03 A3017 RMK SC2SC2SC4 SLP217=

CYVR;2006-01-21 11:00;METAR CYVR 211100Z 10005KT 15SM BKN023 OVC032 04/03 A3019 RMK SC6SC2 SLP223=

CYVR;2006-01-21 12:00;METAR CYVR 211200Z 11008KT 15SM FEW023 SCT032 OVC084 04/02 A3019 RMK SC2SC2AC4 SLP222=

CYVR;2006-01-21 13:00;METAR CYVR 211300Z 10006KT 15SM FEW016 FEW030 OVC054 04/03 A3019 RMK SC1SC2SC6 SLP223=

CYVR;2006-01-21 14:34;SPECI CYVR 211434Z 09008KT 15SM -SHRA FEW011 BKN035 OVC044 04/ RMK SF2SC3SC2 PCPN VRY LGT=

CYVR;2006-01-21 15:00;METAR CYVR 211500Z 08008KT 8SM -SHRA FEW013 SCT019 BKN035 OVC044 05/03 A3020 RMK SF2SC2SC3SC1 SLP226=

CYVR;2006-01-21 16:00;METAR CYVR 211600Z 08009KT 6SM -RA BR SCT011 BKN021 OVC035 04/03 A3022 RMK SF3SC4SC1 SLP232=

CYVR;2006-01-21 17:00;METAR CYVR 211700Z 09008KT 6SM -RA BR SCT011 BKN021 OVC026 05/04 A3024 RMK SF3SC2SC2 SLP242=

CYVR;2006-01-21 18:00;METAR CYVR 211800Z 07008KT 7SM -RA SCT013 OVC022 05/04 A3027 RMK SF4SC4 SLP249=

CYVR;2006-01-21 19:00;METAR CYVR 211900Z 07008KT 7SM -RA SCT013 BKN020 OVC035 05/04 A3028 RMK SF4SC2SC2 SLP254=

CYVR;2006-01-21 20:00;METAR CYVR 212000Z 07008KT 7SM -RA SCT012 OVC019 05/04 A3028 RMK SF4SC4 SLP253=

CYVR;2006-01-21 20:18;SPECI CYVR 212018Z 07009KT 7SM -RA BKN013 OVC019 05/ RMK SF5SC3=

CYVR;2006-01-21 20:30;SPECI CYVR 212030Z 09008KT 7SM -RA FEW006 BKN011 OVC019 05/ RMK SF2SC3SC2=

CYVR;2006-01-21 21:00;METAR CYVR 212100Z 07005KT 8SM -RA FEW008 BKN011 OVC019 05/04 A3028 RMK SF2SC3SC2 SLP254=

CYVR;2006-01-21 21:28;SPECI CYVR 212128Z 09008KT 15SM FEW008 BKN014 OVC019 05/ RMK SF2SC5SC2=

CYVR;2006-01-21 21:49;SPECI CYVR 212149Z 08008KT 10SM FEW008 SCT014 BKN020 OVC035 05/ RMK SF2SC2SC3SC2=

CYVR;2006-01-21 22:00;METAR CYVR 212200Z 09008KT 15SM -SHRA FEW008 SCT014 BKN023 OVC035 05/04 A3029 RMK SF2SF2SC3SC2 PCPN VRY LGT SLP256=

CYVR;2006-01-21 23:00;METAR CYVR 212300Z 08007KT 10SM -SHRA FEW008 FEW015 OVC029 06/04 A3030 RMK SF1SF2SC6 PCPN VRY LGT SLP262=

CYVR;2006-01-22 00:00;METAR CYVR 220000Z 06005KT 15SM -SHRA FEW015 BKN029 BKN043 06/04 A3033 RMK SF2SC2SC2 PCPN VRY LGT SLP270=

CYVR;2006-01-22 00:46;SPECI CYVR 220046Z 08005KT 15SM -RA FEW015 SCT026 BKN032 OVC055 06/ RMK SF2SC2SC2SC2=

CYVR;2006-01-22 01:00;METAR CYVR 220100Z 08005KT 15SM -RA FEW015 FEW025 SCT032 OVC056 05/04 A3035 RMK SF2SC1SC2SC4 PCPN VRY LGT SLP277=

CYVR;2006-01-22 01:33;SPECI CYVR 220133Z 09004KT 15SM SCT019 BKN028 OVC042 05/ RMK SC3SC3SC2=

CYVR;2006-01-22 02:00;METAR CYVR 220200Z 09003KT 15SM FEW015 SCT021 OVC043 05/04 A3036 RMK SF2SC2SC4 SLP280=

CYVR;2006-01-22 02:33;SPECI CYVR 220233Z 09003KT 15SM -SHRA FEW013 SCT022 OVC044 05/ RMK SF2SC2SC4 PCPN VRY LGT=

CYVR;2006-01-22 03:00;METAR CYVR 220300Z 09003KT 15SM -SHRA FEW010 SCT021 OVC031 05/04 A3037 RMK SF2SC2SC4 SLP284=

CYVR;2006-01-22 03:45;SPECI CYVR 220345Z 09004KT 15SM -SHRA BKN011 OVC031 05/ RMK SC5SC3=

CYVR;2006-01-22 04:00;METAR CYVR 220400Z 12005KT 15SM -SHRA SCT011 BKN022 OVC031 05/04 A3038 RMK SC3SC2SC2 SLP288=

CYVR;2006-01-22 05:00;METAR CYVR 220500Z 08003KT 15SM -SHRA FEW018 BKN036 OVC054 05/04 A3040 RMK SC2SC5SC2 SLP296=

CYVR;2006-01-22 05:44;SPECI CYVR 220544Z 09005KT 15SM FEW011 SCT031 OVC043 05/ RMK SC2SC2SC5=

CYVR;2006-01-22 06:00;METAR CYVR 220600Z 10004KT 15SM FEW011 SCT031 OVC047 05/04 A3042 RMK SC2SC2SC5 SLP300=

CYVR;2006-01-22 07:00;METAR CYVR 220700Z 11005KT 15SM FEW015 BKN023 OVC044 05/04 A3043 RMK SC2SC5SC2 SLP303=

CYVR;2006-01-22 08:00;METAR CYVR 220800Z 10003KT 15SM FEW012 BKN022 OVC043 05/04 A3044 RMK SC2SC4SC2 SLP307=

CYVR;2006-01-22 08:17;SPECI CYVR 220817Z 10005KT 15SM BKN012 OVC044 05/ RMK SC6SC2=

CYVR;2006-01-22 08:26;SPECI CYVR 220826Z 09005KT 15SM SCT012 BKN044 OVC088 05/ RMK SC4SC2AC2=

CYVR;2006-01-22 09:00;METAR CYVR 220900Z 09005KT 15SM SCT011 OVC044 05/04 A3045 RMK SC3SC5 SLP311=

CYVR;2006-01-22 09:25;SPECI CYVR 220925Z 10005KT 15SM -SHRA FEW011 OVC042 05/ RMK SC2SC6 PCPN VRY LGT=

CYVR;2006-01-22 10:00;METAR CYVR 221000Z 09005KT 15SM FEW013 BKN033 OVC044 05/04 A3046 RMK SC2SC4SC2 SLP314=

CYVR;2006-01-22 11:00;METAR CYVR 221100Z 09007KT 15SM BKN012 OVC035 05/04 A3046 RMK SC5SC3 SLP316=

CYVR;2006-01-22 12:00;METAR CYVR 221200Z 08007KT 15SM SCT008 BKN012 OVC035 05/04 A3048 RMK SC3SC3SC2 SLP320=

CYVR;2006-01-22 13:00;METAR CYVR 221300Z 09009KT 15SM -SHRA FEW008 BKN012 OVC031 06/04 A3045 RMK SC2SC5SC2 SLP313=

CYVR;2006-01-22 14:00;METAR CYVR 221400Z 09008KT 15SM -SHRA SCT012 BKN035 OVC045 06/05 A3046 RMK SC3SC3SC2 SLP315=

CYVR;2006-01-22 15:00;METAR CYVR 221500Z 09008KT 15SM -SHRA FEW022 OVC035 06/05 A3046 RMK SC2SC6 SLP314=

CYVR;2006-01-22 15:32;SPECI CYVR 221532Z 10008KT 12SM -SHRA BKN010 OVC025 06/ RMK SC5SC3 VIS N QUAD 5 SM=

CYVR;2006-01-22 16:00;METAR CYVR 221600Z 11007KT 10SM -SHRA BKN011 OVC023 06/05 A3047 RMK SF5SC3 VIS LWR N 5 SM SLP318=

CYVR;2006-01-22 17:00;METAR CYVR 221700Z 10006KT 10SM -SHRA BKN012 OVC022 06/05 A3048 RMK SF6SC2 VIS LWR N 4 SM SLP322=

CYVR;2006-01-22 17:27;SPECI CYVR 221727Z 11005KT 15SM BKN009 OVC020 06/ RMK SF6SC2 VIS LWR N 7SM=

CYVR;2006-01-22 17:34;SPECI CYVR 221734Z 11005KT 15SM -SHRA BKN010 OVC020 06/ RMK SF6SC2 VIS LWR N 7SM=

CYVR;2006-01-22 17:51;SPECI CYVR 221751Z 14004KT 15SM BKN008 OVC020 07/ RMK SF6SC2 VIS LWR N 7SM=

CYVR;2006-01-22 18:00;METAR CYVR 221800Z 14009KT 15SM BKN009 BKN020 07/05 A3049 RMK SC6SC2 SLP324=

CYVR;2006-01-22 18:29;SPECI CYVR 221829Z 16010KT 15SM SCT009 OVC056 07/ RMK SC4SC4=

CYVR;2006-01-22 19:23;SPECI CYVR 221923Z 15011KT 15SM -SHRA SCT012 BKN055 07/ RMK SC4SC3=

CYVR;2006-01-22 19:40;SPECI CYVR 221940Z 17011G16KT 15SM SCT012 BKN048 07/ RMK SC3SC4=

CYVR;2006-01-22 20:00;METAR CYVR 222000Z 17016KT 15SM SCT012 OVC048 08/05 A3049 RMK SC3SC5 SLP324=

CYVR;2006-01-22 20:53;SPECI CYVR 222053Z 16015G20KT 15SM -SHRA FEW012 BKN048 OVC072 08/ RMK SC2SC3AC2 PCPN VRY LGT=

CYVR;2006-01-22 21:00;METAR CYVR 222100Z 17012G18KT 15SM -SHRA FEW012 BKN048 OVC072 08/05 A3045 RMK SC2SC3AC2 PCPN VRY LGT SLP312=

CYVR;2006-01-22 21:27;SPECI CYVR 222127Z 14009G15KT 15SM FEW012 BKN050 OVC072 08/ RMK SC2SC5AC1=

CYVR;2006-01-22 22:00;METAR CYVR 222200Z 16011G16KT 15SM FEW012 BKN038 BKN055 08/05 A3044 RMK SC2SC3SC2 SLP309=

CYVR;2006-01-22 22:05;SPECI CYVR 222205Z 15011G16KT 15SM -SHRA FEW012 BKN042 BKN055 08/ RMK SC2SC3SC2=

CYVR;2006-01-22 23:00;METAR CYVR 222300Z 15009KT 20SM -SHRA FEW012 BKN029 BKN040 08/05 A3043 RMK SC2SC4SC2 PCPN VRY LGT SLP304=

CYVR;2006-01-23 00:00;METAR CYVR 230000Z 15009KT 15SM -SHRA FEW015 SCT029 BKN042 08/05 A3043 RMK SC2SF2ST3 SLP303=

CYVR;2006-01-23 00:23;SPECI CYVR 230023Z 16009KT 12SM -RA FEW014 SCT026 OVC044 07/ RMK SC2SF2SC4=

CYVR;2006-01-23 00:55;SPECI CYVR 230055Z 14006KT 6SM -RA FEW011 SCT025 OVC036 07/ RMK SC2SF2SC5=

CYVR;2006-01-23 02:00;METAR CYVR 230200Z 11006KT 10SM -RA FEW011 OVC037 07/06 A3042 RMK SC2SC6 SLP301=

CYVR;2006-01-23 02:44;SPECI CYVR 230244Z 08006KT 10SM FEW010 OVC039 07/ RMK SF2SC6=

CYVR;2006-01-23 02:54;SPECI CYVR 230254Z 08008KT 10SM -SHRA FEW010 OVC038 07/ RMK SF2SC6=

CYVR;2006-01-23 03:51;SPECI CYVR 230351Z 08006KT 15SM -DZ FEW012 BKN035 OVC050 07/ RMK SF2ST4SC2 VIS N - NE QUAD 8 SM=

CYVR;2006-01-23 04:00;METAR CYVR 230400Z 08006KT 15SM -DZ FEW012 BKN033 OVC050 07/06 A3042 RMK SF2ST5SC2 VIS N QUAD 8 SM SLP300=

CYVR;2006-01-23 04:54;SPECI CYVR 230454Z 08010KT 15SM FEW012 SCT033 OVC048 07/ RMK SF2ST2SC4=

CYVR;2006-01-23 05:00;METAR CYVR 230500Z 09009KT 15SM FEW012 SCT042 OVC048 07/06 A3042 RMK SF2SC2SC4 SLP300=

CYVR;2006-01-23 06:00;METAR CYVR 230600Z 09009KT 12SM -SHRA FEW020 SCT035 OVC045 07/06 A3042 RMK SF2SC2SC4 VIS N QUAD 8 SM SLP301=

CYVR;2006-01-23 06:48;SPECI CYVR 230648Z 12011KT 12SM -DZ FEW011 BKN027 OVC033 08/ RMK SF2ST3SC2 VIS N QUAD 6 SM=

CYVR;2006-01-23 07:19;SPECI CYVR 230719Z 12011KT 6SM -DZ BR BKN008 BKN020 OVC027 07/ RMK ST5SC2SC1 VIS N QUAD 3 SM=

CYVR;2006-01-23 07:53;SPECI CYVR 230753Z 13009KT 4SM -DZ BR FEW005 SCT008 OVC027 07/ RMK SF2ST2SC4 VIS N QUAD 3 SM=

CYVR;2006-01-23 08:00;METAR CYVR 230800Z 13008KT 6SM -DZ BR FEW008 SCT020 OVC027 07/06 A3043 RMK SF2ST2ST4 VIS N QUAD 3 SM SLP306=

CYVR;2006-01-23 09:00;METAR CYVR 230900Z 10004KT 4SM -DZ BR FEW008 BKN014 OVC018 07/06 A3044 RMK SF2ST5SC2 SLP308=

CYVR;2006-01-23 10:00;METAR CYVR 231000Z 08006KT 4SM -DZ BR FEW004 BKN011 OVC016 07/07 A3047 RMK SF2ST4ST2 SLP319=

CYVR;2006-01-23 10:05;SPECI CYVR 231005Z 08009KT 4SM -RA BR SCT004 BKN011 OVC016 07/ RMK SF3ST3ST2=

CYVR;2006-01-23 10:29;SPECI CYVR 231029Z 08009KT 7SM -RA SCT006 BKN011 OVC016 07/ RMK SF3ST3SC2 VIS N QUAD 3 SM=

CYVR;2006-01-23 11:00;METAR CYVR 231100Z 09007KT 10SM -RA FEW006 BKN012 OVC015 07/07 A3048 RMK SF2SC4SC2 VIS N QUAD 5 SM SLP321=

CYVR;2006-01-23 12:00;METAR CYVR 231200Z 10008KT 12SM -RA FEW008 OVC011 07/07 A3046 RMK SF2SC6 SLP316=

CYVR;2006-01-23 12:07;SPECI CYVR 231207Z 11008KT 15SM -DZ FEW008 BKN011 OVC015 07/ RMK SF2ST4SC2 PCPN VRY LGT=

CYVR;2006-01-23 12:23;SPECI CYVR 231223Z 09004KT 15SM -DZ BKN008 OVC011 07/ RMK ST6ST2 PCPN VRY LGT=

CYVR;2006-01-23 13:00;METAR CYVR 231300Z 08004KT 15SM -DZ BKN008 OVC011 07/07 A3048 RMK ST6SC2 SLP320=

CYVR;2006-01-23 14:08;SPECI CYVR 231408Z 11005KT 7SM -DZ FEW006 OVC008 07/ RMK SF2ST6 VIS N QUAD 4 SM=

CYVR;2006-01-23 14:20;SPECI CYVR 231420Z 09005KT 7SM -DZ FEW004 SCT008 OVC010 07/ RMK SF2ST2ST4 VIS N QUAD 4 SM=

CYVR;2006-01-23 14:50;SPECI CYVR 231450Z 10006KT 5SM -RA BR FEW004 BKN008 OVC011 07/ RMK SF1SF4ST3=

CYVR;2006-01-23 15:00;METAR CYVR 231500Z 11008KT 5SM -RA BR FEW004 BKN009 OVC011 07/07 A3048 RMK SF1SF4SC3 SLP320=

CYVR;2006-01-23 16:00;METAR CYVR 231600Z 09004KT 5SM -RA BR SCT005 BKN009 OVC015 07/07 A3049 RMK SF3SF3SC2 PCPN VRY LGT SLP325=

CYVR;2006-01-23 16:51;SPECI CYVR 231651Z 09007KT 3SM -DZ BR SCT004 BKN008 OVC012 07/ RMK SF3SF3ST2=

CYVR;2006-01-23 17:00;METAR CYVR 231700Z 09007KT 3SM -DZ BR SCT004 BKN007 OVC012 07/07 A3050 RMK SF3SF3ST2 VIS LWR NE SLP328=

CYVR;2006-01-23 17:12;SPECI CYVR 231712Z 10007KT 3SM -RA BR SCT003 BKN007 OVC012 07/ RMK SF3SF3ST2=

CYVR;2006-01-23 17:44;SPECI CYVR 231744Z 11008KT 2 1/2SM -DZ BR SCT003 BKN006 OVC012 07/ RMK SF3SF4ST1=

CYVR;2006-01-23 18:00;METAR CYVR 231800Z 11007KT 2SM -DZ BR SCT004 BKN007 OVC011 08/07 A3050 RMK SF3SF3ST2 SLP329=

CYVR;2006-01-23 18:21;SPECI CYVR 231821Z 09007KT 2SM -RADZ BR FEW002 BKN005 OVC008 07/ RMK SF2SF4ST2 VIS HIER S=

CYVR;2006-01-23 19:00;METAR CYVR 231900Z 09008KT 3SM -RADZ BR FEW003 BKN006 OVC010 07/07 A3051 RMK SF2SF5ST2 VIS LWR N - E SLP333=

CYVR;2006-01-23 19:10;SPECI CYVR 231910Z 08006KT 1 1/2SM -RADZ BR FEW003 BKN005 OVC009 08/ RMK SF2SF3ST2 VIS HIER S=

CYVR;2006-01-23 20:00;METAR CYVR 232000Z 10008KT 5SM -DZ BR FEW004 BKN007 OVC011 08/07 A3051 RMK SF2SF4ST2 VIS N - E 2 SLP331=

CYVR;2006-01-23 20:08;SPECI CYVR 232008Z 10007KT 4SM -RA BR FEW004 BKN008 OVC011 08/ RMK SF2SF3ST3 VIS HIER SE - SW=

CYVR;2006-01-23 21:00;METAR CYVR 232100Z 10006KT 10SM BKN006 OVC012 08/07 A3050 RMK SF5ST3 VIS LWR N - E SLP328=

CYVR;2006-01-23 22:00;METAR CYVR 232200Z 09007KT 15SM BKN008 BKN014 OVC030 08/07 A3049 RMK SF5SC2SC1 VIS LWR N - E SLP325=

CYVR;2006-01-23 23:00;METAR CYVR 232300Z 11006KT 15SM SCT009 BKN013 OVC030 09/07 A3049 RMK SF3SC4SC1 SLP324=

CYVR;2006-01-23 23:38;SPECI CYVR 232338Z 11007KT 15SM SCT009 BKN015 OVC030 09/ RMK SF3SC4SC1=

CYVR;2006-01-24 00:00;METAR CYVR 240000Z 10007KT 15SM SCT008 BKN016 OVC030 09/07 A3048 RMK SF3SC4SC1 SLP323=

CYVR;2006-01-24 03:00;METAR CYVR 240300Z 10004KT 15SM SCT014 BKN057 OVC076 07/06 A3046 RMK SC3SC3AC2 SLP316=

CYVR;2006-01-24 04:00;METAR CYVR 240400Z 11004KT 15SM FEW016 BKN062 BKN085 06/05 A3045 RMK SC2SC4AC1 SLP312=

CYVR;2006-01-24 05:00;METAR CYVR 240500Z 11004KT 15SM BKN017 OVC064 07/06 A3045 RMK SC6SC2 SLP311=

CYVR;2006-01-24 06:00;METAR CYVR 240600Z 10004KT 15SM BKN019 OVC064 07/06 A3044 RMK SC6SC2 SLP308=

CYVR;2006-01-24 08:00;METAR CYVR 240800Z 10004KT 15SM BKN020 OVC049 06/05 A3041 RMK SC5SC3 SLP297=

CYVR;2006-01-24 09:00;METAR CYVR 240900Z 09004KT 15SM BKN021 OVC055 06/06 A3038 RMK SC5SC3 SLP289=

CYVR;2006-01-24 10:00;METAR CYVR 241000Z 09003KT 15SM FEW020 SCT055 06/05 A3036 RMK SC2SC2 SLP281=

CYVR;2006-01-24 11:00;METAR CYVR 241100Z 09003KT 15SM FEW060 SCT210 05/04 A3034 RMK SC1CI1 SLP274=

CYVR;2006-01-24 12:00;METAR CYVR 241200Z 00000KT 15SM FEW060 SCT210 04/03 A3031 RMK SC1CI1 SLP265=

CYVR;2006-01-24 13:00;METAR CYVR 241300Z 00000KT 15SM FEW060 SCT210 04/03 A3027 RMK SC1CI2 SLP251=

CYVR;2006-01-24 14:00;METAR CYVR 241400Z 00000KT 15SM MIFG FEW210 03/02 A3025 RMK CI1 SLP243=

CYVR;2006-01-24 15:00;METAR CYVR 241500Z 28007KT 20SM FEW070 FEW220 03/03 A3022 RMK AC1CI1 SLP234=

CYVR;2006-01-24 16:00;METAR CYVR 241600Z 09006KT 20SM FEW070 SCT240 03/02 A3019 RMK AC1CI2 SLP222=

CYVR;2006-01-24 17:00;METAR CYVR 241700Z 19004KT 30SM FEW060 SCT240 04/03 A3017 RMK SC1CI2 SLP217=

CYVR;2006-01-24 18:00;METAR CYVR 241800Z 35002KT 30SM FEW060 BKN220 07/05 A3014 RMK SC1CI2 SLP207=

CYVR;2006-01-24 19:00;METAR CYVR 241900Z 34003KT 30SM FEW080 BKN230 08/05 A3009 RMK AC1CI2 SLP189=

CYVR;2006-01-24 20:00;METAR CYVR 242000Z 29003KT 30SM FEW080 BKN220 10/05 A3004 RMK AC1CI2 PRESFR SLP172=

CYVR;2006-01-24 21:00;METAR CYVR 242100Z 28007KT 30SM FEW090 BKN220 08/05 A2999 RMK AC1CI2 SLP157=

CYVR;2006-01-24 22:00;METAR CYVR 242200Z 30010KT 30SM FEW007 BKN220 08/06 A2995 RMK SF1CI2 TR SF SLP141=

CYVR;2006-01-24 23:00;METAR CYVR 242300Z 31007KT 30SM FEW008 FEW230 08/06 A2993 RMK SF1CI2 TR SF SLP134=

CYVR;2006-01-25 00:00;METAR CYVR 250000Z 35009KT 30SM SCT220 07/05 A2990 RMK CI2 SLP126=

CYVR;2006-01-25 01:00;METAR CYVR 250100Z 33006KT 30SM SCT230 06/05 A2990 RMK CI2 SLP124=

CYVR;2006-01-25 02:00;METAR CYVR 250200Z 05002KT 30SM SCT230 06/05 A2987 RMK CI2 SLP114=

CYVR;2006-01-25 03:00;METAR CYVR 250300Z 08008KT 20SM FEW230 05/04 A2985 RMK CI0 SLP109=

CYVR;2006-01-25 05:00;METAR CYVR 250500Z 24004KT 15SM FEW230 05/04 A2985 RMK CI0 SLP109=

CYVR;2006-01-25 06:00;METAR CYVR 250600Z 00000KT 20SM SCT220 04/04 A2984 RMK CI1 SLP104=

CYVR;2006-01-25 07:00;METAR CYVR 250700Z 00000KT 20SM SCT220 04/03 A2983 RMK CI1 SLP100=

CYVR;2006-01-25 08:00;METAR CYVR 250800Z 10005KT 20SM FEW150 BKN220 05/04 A2981 RMK AC2CI2 SLP095=

CYVR;2006-01-25 09:00;METAR CYVR 250900Z 10008KT 20SM FEW150 BKN240 05/03 A2979 RMK AC1CI4 SLP089=

CYVR;2006-01-25 10:00;METAR CYVR 251000Z 11005KT 20SM BKN240 05/04 A2979 RMK CI4 SLP088=

CYVR;2006-01-25 11:00;METAR CYVR 251100Z 11005KT 20SM BKN240 05/03 A2977 RMK CI3 SLP082=

CYVR;2006-01-25 12:00;METAR CYVR 251200Z 10005KT 20SM SCT240 05/03 A2977 RMK CI1 SLP080=

CYVR;2006-01-25 13:00;METAR CYVR 251300Z 11007KT 20SM FEW240 04/02 A2977 RMK CI0 SLP080=

CYVR;2006-01-25 14:00;METAR CYVR 251400Z 11007KT 20SM FEW230 03/02 A2975 RMK CI0 SLP076=

CYVR;2006-01-25 15:00;METAR CYVR 251500Z 10008KT 20SM SCT100 BKN220 05/03 A2974 RMK AC4CI0 SLP072=

CYVR;2006-01-25 16:00;METAR CYVR 251600Z 09011KT 20SM FEW050 FEW100 SCT230 05/02 A2973 RMK SC1AC2CI1 SLP067=

CYVR;2006-01-25 17:00;METAR CYVR 251700Z 09014KT 20SM FEW050 FEW100 BKN230 08/03 A2972 RMK SC1AC1CI2 SLP063=

CYVR;2006-01-25 18:00;METAR CYVR 251800Z 12012G17KT 20SM FEW050 BKN090 BKN230 09/04 A2972 RMK SC1AC5CI1 SHS W SLP065=

CYVR;2006-01-25 19:00;METAR CYVR 251900Z 12009KT 20SM SCT050 BKN090 BKN230 09/05 A2975 RMK SC3AC3CI1 SHS W SLP073=

CYVR;2006-01-25 19:14;SPECI CYVR 251914Z 15005KT 15SM -RA BKN045 BKN090 10/ RMK SC5AC2=

CYVR;2006-01-25 20:00;METAR CYVR 252000Z 00000KT 12SM -RA FEW020 BKN047 OVC090 09/06 A2975 RMK CF1SC6AC2 SLP076=

CYVR;2006-01-25 21:00;METAR CYVR 252100Z 10007KT 15SM -RA FEW020 BKN051 BKN080 08/04 A2973 RMK CF1SC6AC1 SLP069=

CYVR;2006-01-25 21:10;SPECI CYVR 252110Z 09005KT 15SM FEW020 BKN055 BKN090 08/ RMK CF1SC4AC2=

CYVR;2006-01-25 22:00;METAR CYVR 252200Z 09006KT 15SM VCSH FEW040 BKN062 BKN090 08/05 A2973 RMK SF1SC6AC1 SLP069=

CYVR;2006-01-25 22:24;SPECI CYVR 252224Z 10006KT 15SM -SHRA SCT040 BKN060 BKN080 08/ RMK SC4SC2AC1=

CYVR;2006-01-25 22:53;SPECI CYVR 252253Z 11010KT 15SM SCT040 BKN070 BKN100 08/ RMK SC4AC2AC1=

CYVR;2006-01-25 23:00;METAR CYVR 252300Z 12010KT 15SM VCSH SCT043 BKN070 BKN100 08/06 A2975 RMK SC4AC2AC1 SLP073=

CYVR;2006-01-26 00:00;METAR CYVR 260000Z 11007KT 15SM FEW045 BKN070 BKN160 08/05 A2974 RMK SC2AC3AC2 SLP072=

CYVR;2006-01-26 01:00;METAR CYVR 260100Z 16011KT 15SM SCT045 BKN068 BKN160 08/04 A2976 RMK SC3AC2AC2 SLP079=

CYVR;2006-01-26 02:00;METAR CYVR 260200Z 21007KT 15SM FEW040 SCT070 BKN110 BKN200 07/02 A2977 RMK SC2AC2AC2CI1 SLP082=

CYVR;2006-01-26 03:00;METAR CYVR 260300Z 14006KT 15SM FEW040 SCT092 BKN160 07/02 A2978 RMK SC2AC2AC3 SLP086=

CYVR;2006-01-26 04:00;METAR CYVR 260400Z 11008KT 15SM FEW040 SCT060 BKN120 OVC210 06/03 A2978 RMK SC2SC2AC2CI2 SLP084=

CYVR;2006-01-26 05:00;METAR CYVR 260500Z 11011KT 15SM SCT036 BKN060 BKN120 06/03 A2976 RMK SC3SC2AC2 SLP078=

CYVR;2006-01-26 06:00;METAR CYVR 260600Z 11011KT 15SM SCT016 BKN031 OVC069 06/05 A2977 RMK SC3SC3AC2 SLP080=

CYVR;2006-01-26 07:00;METAR CYVR 260700Z 12010KT 15SM -SHRA SCT016 BKN037 OVC055 07/04 A2976 RMK SC3SC3SC2 SLP078=

CYVR;2006-01-26 08:00;METAR CYVR 260800Z 15014KT 12SM -SHRA SCT016 BKN041 OVC055 06/04 A2978 RMK SC3SC3SC2 SLP084=

CYVR;2006-01-26 09:00;METAR CYVR 260900Z 18013G18KT 12SM -SHRA FEW012 BKN021 OVC040 06/04 A2979 RMK CF2SC6SC1 SLP087=

CYVR;2006-01-26 09:32;SPECI CYVR 260932Z 17013G25KT 15SM FEW015 BKN024 OVC044 05/ RMK SC2SC4SC2=

CYVR;2006-01-26 10:00;METAR CYVR 261000Z 17015G24KT 15SM FEW016 BKN031 BKN045 OVC090 06/03 A2978 RMK SC2SC3SC2AC2 SLP086=

CYVR;2006-01-26 11:00;METAR CYVR 261100Z 18012G17KT 15SM FEW020 BKN045 OVC084 06/03 A2979 RMK SC2SC3AC3 SLP087=

CYVR;2006-01-26 12:00;METAR CYVR 261200Z 18018KT 15SM FEW020 SCT045 BKN061 OVC092 07/03 A2979 RMK SC2SC2SC3AC2 SLP089=

CYVR;2006-01-26 13:00;METAR CYVR 261300Z 18020G26KT 15SM FEW020 SCT045 BKN060 OVC096 07/04 A2979 RMK SC1SC2SC2AC3 SLP089=

CYVR;2006-01-26 14:00;METAR CYVR 261400Z 17012G26KT 15SM FEW020 SCT060 OVC100 07/04 A2979 RMK SC1SC2AC5 SLP087=

CYVR;2006-01-26 15:00;METAR CYVR 261500Z 17013KT 15SM FEW025 SCT060 OVC090 06/03 A2980 RMK SC1SC2AC5 SLP090=

CYVR;2006-01-26 16:00;METAR CYVR 261600Z 16011G16KT 15SM FEW020 SCT055 BKN090 OVC160 06/03 A2981 RMK SC1SC2AC3AC2 VIRGA SLP094=

CYVR;2006-01-26 17:00;METAR CYVR 261700Z 17015KT 15SM FEW020 FEW050 BKN090 OVC150 06/03 A2982 RMK SC1SC2AC4AC2 SLP099=

CYVR;2006-01-26 18:00;METAR CYVR 261800Z 17012G18KT 15SM FEW020 FEW050 BKN080 OVC160 06/02 A2983 RMK SC1SC2AC4AC2 SLP101=

CYVR;2006-01-26 19:00;METAR CYVR 261900Z 16007KT 15SM FEW020 BKN075 BKN160 BKN220 06/02 A2982 RMK SC1AC5AC1CI1 SLP099=

CYVR;2006-01-26 20:00;METAR CYVR 262000Z 14010KT 20SM FEW025 SCT040 BKN060 OVC090 07/02 A2980 RMK SF2SC2SC2AC2 VIS LWR NE - E SLP093=

CYVR;2006-01-26 21:00;METAR CYVR 262100Z 13013G19KT 15SM SCT017 BKN030 BKN050 OVC090 06/03 A2979 RMK SC4SC2SC2AC1 SLP087=

CYVR;2006-01-26 22:00;METAR CYVR 262200Z 14017KT 15SM SCT018 BKN060 OVC100 07/03 A2975 RMK SC4SC2AC2 VIRGA SLP076=

CYVR;2006-01-26 22:26;SPECI CYVR 262226Z 13016G21KT 15SM -RA BKN021 BKN060 OVC090 07/ RMK SC5SC2AC1 VIS HIER W=

CYVR;2006-01-26 23:00;METAR CYVR 262300Z 12016G22KT 15SM -SHRA BKN020 BKN050 OVC090 07/03 A2973 RMK SC6SC2AC1 SLP067=

CYVR;2006-01-26 23:17;SPECI CYVR 262317Z 12015G20KT 15SM BKN021 BKN035 OVC080 07/ RMK SC5SC2AC1=

CYVR;2006-01-27 00:00;METAR CYVR 270000Z 11018G25KT 20SM BKN021 BKN035 OVC080 07/03 A2971 RMK SC5SC2AC2 SLP060=

CYVR;2006-01-27 01:14;SPECI CYVR 270114Z 13015G21KT 15SM -SHRA BKN027 BKN040 OVC080 07/ RMK SC6SC1AC1=

CYVR;2006-01-27 02:00;METAR CYVR 270200Z 10011KT 8SM -SHRA BKN026 BKN050 OVC090 05/04 A2967 RMK SC6SC1AC1 TWR OBSD LTG DIST E SLP047=

CYVR;2006-01-27 03:00;METAR CYVR 270300Z 15020G26KT 10SM -SHRA BKN021 OVC035 07/03 A2966 RMK SC6SC2 SLP043=

CYVR;2006-01-27 03:50;SPECI CYVR 270350Z 18013G19KT 12SM SCT021 SCT037 OVC091 06/ RMK SC3SC1AC4=

CYVR;2006-01-27 04:00;METAR CYVR 270400Z 18013G19KT 12SM SCT020 BKN057 OVC084 06/03 A2969 RMK SC3SC2AC2 SLP054=

CYVR;2006-01-27 05:00;METAR CYVR 270500Z 18014KT 12SM FEW025 BKN064 OVC080 06/02 A2972 RMK SC2SC5AC2 SLP064=

CYVR;2006-01-27 06:00;METAR CYVR 270600Z 16009KT 15SM FEW025 SCT062 OVC085 06/03 A2974 RMK SC2SC2AC4 SLP071=

CYVR;2006-01-27 08:00;METAR CYVR 270800Z 18012KT 15SM FEW025 SCT060 BKN100 OVC150 06/02 A2977 RMK SC1SC2AC3AC2 SLP082=

CYVR;2006-01-27 09:00;METAR CYVR 270900Z 17008KT 15SM FEW025 SCT040 BKN092 BKN150 OVC200 06/02 A2979 RMK SC2SC2AC2AC2CI0 SLP089=

CYVR;2006-01-27 10:00;METAR CYVR 271000Z 16009KT 15SM FEW025 SCT061 BKN100 OVC150 06/02 A2981 RMK SC2SC2AC2AC2 SLP094=

CYVR;2006-01-27 11:00;METAR CYVR 271100Z 15006KT 15SM SCT016 BKN053 OVC078 06/03 A2983 RMK SC3SC2AC2 SLP102=

CYVR;2006-01-27 11:29;SPECI CYVR 271129Z 18013KT 12SM -SHRA SCT017 BKN055 BKN080 OVC120 06/ RMK SC3SC2AC2AC1=

CYVR;2006-01-27 12:00;METAR CYVR 271200Z 18008KT 12SM -SHRA SCT024 BKN051 OVC100 05/03 A2985 RMK SC3SC3AC2 SLP107=

CYVR;2006-01-27 12:20;SPECI CYVR 271220Z 16010KT 12SM SCT024 SCT050 BKN071 OVC096 05/ RMK SC3SC1AC3AC1=

CYVR;2006-01-27 13:00;METAR CYVR 271300Z 11005KT 12SM FEW025 SCT050 BKN071 BKN100 05/02 A2985 RMK SC1SC2AC2AC1 SLP109=

CYVR;2006-01-27 15:00;METAR CYVR 271500Z 09004KT 15SM FEW014 BKN018 OVC170 03/02 A2988 RMK SC2SC4AC1 SLP120=

CYVR;2006-01-27 16:00;METAR CYVR 271600Z 11004KT 15SM FEW015 BKN023 OVC034 05/03 A2990 RMK SC2SC4SC2 SLP125=

CYVR;2006-01-27 17:00;METAR CYVR 271700Z 16005KT 15SM FEW020 OVC038 05/03 A2991 RMK SC2SC6 SLP129=

CYVR;2006-01-27 18:00;METAR CYVR 271800Z 18007KT 15SM SCT018 BKN080 BKN120 06/03 A2993 RMK SC3AC1AC1 SLP134=

CYVR;2006-01-27 19:00;METAR CYVR 271900Z 18008KT 15SM SCT018 OVC025 06/03 A2996 RMK SC3SC4 SLP144=

CYVR;2006-01-27 20:00;METAR CYVR 272000Z 16011KT 15SM FEW013 SCT025 BKN035 OVC067 06/03 A2995 RMK SC2SC2SC3AC1 SLP143=

CYVR;2006-01-27 21:36;SPECI CYVR 272136Z 16009KT 15SM BKN015 OVC025 07/ RMK SC5SC3=

CYVR;2006-01-27 21:46;SPECI CYVR 272146Z 17010KT 15SM SCT015 OVC025 07/ RMK SC3SC4=

CYVR;2006-01-27 22:00;METAR CYVR 272200Z 16009KT 15SM SCT015 BKN021 OVC220 06/03 A2994 RMK SC3SC2CI2 SLP139=

CYVR;2006-01-27 23:00;METAR CYVR 272300Z 16007KT 15SM SCT020 OVC180 07/03 A2995 RMK SC2AS6 SLP141=

CYVR;2006-01-28 00:00;METAR CYVR 280000Z 14012KT 15SM FEW020 SCT037 OVC180 07/03 A2994 RMK SC2SC2AS5 SLP140=

CYVR;2006-01-28 01:00;METAR CYVR 280100Z 13012KT 15SM FEW020 SCT040 BKN063 OVC100 07/03 A2991 RMK SC2SC2SC3AS2 SLP130=

CYVR;2006-01-28 02:21;SPECI CYVR 280221Z 12010G16KT 15SM -SHRA FEW020 BKN032 OVC050 06/ RMK SC2SC5SC2=

CYVR;2006-01-28 03:00;METAR CYVR 280300Z 11011KT 12SM -SHRA SCT022 OVC050 06/04 A2987 RMK SC4SC4 SLP114=

CYVR;2006-01-28 03:52;SPECI CYVR 280352Z 11012KT 10SM -RA BKN024 OVC037 06/ RMK SC6SC2=

CYVR;2006-01-28 04:00;METAR CYVR 280400Z 11011KT 10SM -RA BKN020 OVC037 06/04 A2983 RMK SC6SC2 SLP102=

CYVR;2006-01-28 09:00;METAR CYVR 280900Z 08025G33KT 8SM -RA SCT019 OVC030 04/02 A2949 RMK SC4SC4 PRESFR SLP986=

CYVR;2006-01-28 11:00;METAR CYVR 281100Z 10019G25KT 8SM -RA FEW011 BKN019 OVC027 04/03 A2934 RERA RMK SF2SC2SC3 PRESFR SLP935=

CYVR;2006-01-28 12:35;SPECI CYVR 281235Z 11020G26KT 8SM -RA BKN015 OVC020 05/ RERA RMK SC6SC2=

CYVR;2006-01-28 12:45;SPECI CYVR 281245Z 15016G26KT 8SM -RA SCT015 OVC020 06/ RMK SC4SC4=

CYVR;2006-01-28 13:00;METAR CYVR 281300Z 16028G35KT 8SM -RA SCT015 BKN020 OVC030 06/04 A2931 RMK SC3SC3SC2 SLP926=

CYVR;2006-01-28 13:36;SPECI CYVR 281336Z 19020G25KT 12SM FEW015 SCT025 OVC110 07/ RMK SC2SC2AC4=

CYVR;2006-01-28 14:00;METAR CYVR 281400Z 21019G24KT 12SM FEW015 SCT025 BKN055 OVC110 07/02 A2936 RMK SF2SC2SC2AC2 SLP943=

CYVR;2006-01-28 15:00;METAR CYVR 281500Z 20016G22KT 12SM FEW020 SCT065 BKN150 07/01 A2942 RMK SC2SC2AC2 PRESRR SLP963=

CYVR;2006-01-28 16:00;METAR CYVR 281600Z 22016G21KT 15SM FEW035 BKN160 BKN220 07/01 A2948 RMK SC2AC3CI1 PRESRR SLP984=

CYVR;2006-01-28 17:00;METAR CYVR 281700Z 20009KT 20SM FEW040 SCT180 BKN220 07/01 A2952 RMK SC2AC2CC1 SLP998=

CYVR;2006-01-28 18:00;METAR CYVR 281800Z 22012G17KT 20SM FEW035 BKN079 BKN180 07/02 A2955 RMK SC2AC2AC1 SLP008=

CYVR;2006-01-28 19:00;METAR CYVR 281900Z 20008G15KT 20SM FEW040 OVC067 08/02 A2958 RMK SC2AC6 SLP017=

CYVR;2006-01-28 20:00;METAR CYVR 282000Z 16010G15KT 15SM -SHRA BKN027 OVC076 07/03 A2959 RMK SC6AC2 SLP021=

CYVR;2006-01-28 22:00;METAR CYVR 282200Z 20015KT 20SM -SHRA FEW016 SCT025 BKN037 BKN065 08/05 A2964 RMK SC2SC2SC2SC1 SLP036=

CYVR;2006-01-28 22:17;SPECI CYVR 282217Z 21013KT 20SM FEW025 SCT045 BKN065 BKN140 07/ RMK SC2SC1SC1AC1=

CYVR;2006-01-28 23:00;METAR CYVR 282300Z 22004KT 20SM FEW025 SCT065 BKN140 BKN220 07/04 A2966 RMK SC1SC1AC1CI1 SLP044=

CYVR;2006-01-29 00:00;METAR CYVR 290000Z 21010KT 20SM FEW020 FEW045 SCT160 SCT220 08/03 A2969 RMK SF1SC1AC1CI1 SLP053=

CYVR;2006-01-29 01:00;METAR CYVR 290100Z 21010KT 20SM FEW025 FEW150 SCT220 07/03 A2973 RMK SC2AC1CI0 TCU EMBD SLP067=

CYVR;2006-01-29 02:00;METAR CYVR 290200Z 18006KT 20SM FEW025 FEW150 06/02 A2976 RMK SC1AC0 SLP077=

CYVR;2006-01-29 04:00;METAR CYVR 290400Z 09004KT 15SM FEW025 SCT055 BKN085 04/02 A2981 RMK SC1SC3AC2 SLP095=

CYVR;2006-01-29 06:00;METAR CYVR 290600Z 08003KT 15SM FEW025 FEW055 SCT085 BKN250 03/01 A2986 RMK SC1SC2AC2CI2 SLP111=

CYVR;2006-01-29 07:00;METAR CYVR 290700Z 09006KT 15SM FEW025 SCT055 BKN250 03/02 A2988 RMK SC1SC3CI1 SLP119=

CYVR;2006-01-29 10:00;METAR CYVR 291000Z 14003KT 15SM FEW025 BKN054 BKN090 BKN210 03/02 A2995 RMK SC2SC3AC1CI1 SLP143=

CYVR;2006-01-29 11:00;METAR CYVR 291100Z 12007KT 15SM FEW055 SCT090 BKN180 03/02 A2997 RMK SC2AC2AC2 SLP150=

CYVR;2006-01-29 12:00;METAR CYVR 291200Z 11005KT 15SM FEW055 SCT090 BKN200 02/01 A2997 RMK SC2AC2CI4 SLP148=

CYVR;2006-01-29 13:00;METAR CYVR 291300Z 09004KT 15SM FEW045 BKN090 BKN190 02/01 A2998 RMK SC2AC2AC2 SLP151=

CYVR;2006-01-29 15:00;METAR CYVR 291500Z 09008KT 20SM FEW035 BKN061 OVC071 03/02 A2998 RMK SC2SC4AC2 SLP151=

CYVR;2006-01-29 16:00;METAR CYVR 291600Z 13008KT 20SM FEW030 BKN064 OVC220 04/02 A2997 RMK SC2SC1CS1 SLP149=

CYVR;2006-01-29 17:00;METAR CYVR 291700Z 10011KT 20SM SCT030 BKN060 OVC130 04/03 A2996 RMK SC2SC3AC2 SLP145=

CYVR;2006-01-29 18:00;METAR CYVR 291800Z 09011KT 20SM BKN031 BKN062 OVC130 05/03 A2994 RMK SC5SC2AC2 SLP138=

CYVR;2006-01-29 19:44;SPECI CYVR 291944Z 09013KT 15SM -SHRA BKN025 OVC031 06/ RMK SC6SC2=

CYVR;2006-01-29 21:00;METAR CYVR 292100Z 09014G19KT 20SM -SHRA FEW030 BKN045 OVC053 06/03 A2977 RMK CF2SC4SC2 PRESFR PCPN VRY LGT SLP081=

CYVR;2006-01-29 22:00;METAR CYVR 292200Z 09019G25KT 12SM -RA FEW022 OVC025 05/02 A2967 RMK SC2SC6 PRESFR SLP049=

CYVR;2006-01-29 22:47;SPECI CYVR 292247Z 09020G28KT 6SM -RA BR BKN018 OVC025 04/ RMK SC6SC2=

CYVR;2006-01-29 23:00;METAR CYVR 292300Z 09017G26KT 7SM -RA BKN016 OVC023 04/03 A2964 RMK SC6SC2 SLP036=

CYVR;2006-01-29 23:45;SPECI CYVR 292345Z 09021G28KT 7SM -RA BKN011 OVC016 04/ RMK SC5SC3=

CYVR;2006-01-30 00:00;METAR CYVR 300000Z 09020G30KT 7SM -RA SCT011 OVC016 03/02 A2957 RMK SC4SC4 PRESFR SLP013=

CYVR;2006-01-30 00:03;SPECI CYVR 300003Z 09019G30KT 8SM -RA BKN011 OVC016 03/ RMK SC5SC3=

CYVR;2006-01-30 00:15;SPECI CYVR 300015Z 09021G29KT 8SM -RA SCT011 BKN017 OVC031 03/ RMK SC4SC3SC1=

CYVR;2006-01-30 01:00;METAR CYVR 300100Z 10019G25KT 7SM -RA FEW011 SCT016 OVC024 03/02 A2951 RMK SC2SC2SC5 PRESFR SLP993=

CYVR;2006-01-30 02:00;METAR CYVR 300200Z 10016G21KT 8SM -RA SCT018 OVC028 04/03 A2947 RMK SC3SC5 SLP979=

CYVR;2006-01-30 03:00;METAR CYVR 300300Z 08018G28KT 8SM -RA BKN020 OVC028 04/03 A2941 RMK SC6SC2 PRESFR SLP961=

CYVR;2006-01-30 04:00;METAR CYVR 300400Z 09019G25KT 8SM -RA BKN018 OVC028 05/03 A2937 RMK SC5SC3 SLP947=

CYVR;2006-01-30 04:41;SPECI CYVR 300441Z 09019KT 7SM -RA BKN015 OVC025 04/ RMK SC5SC3=

CYVR;2006-01-30 04:48;SPECI CYVR 300448Z 09016G22KT 7SM -RA BKN012 OVC022 05/ RMK SC5SC3=

CYVR;2006-01-30 05:00;METAR CYVR 300500Z 09014KT 7SM -RA BKN012 BKN015 OVC022 05/04 A2936 RMK SC5SC2SC2 /R13/ SLP941=

CYVR;2006-01-30 05:28;SPECI CYVR 300528Z 07012KT 7SM RA BKN009 OVC015 05/ RMK SC5SC3=

CYVR;2006-01-30 06:34;SPECI CYVR 300634Z 07008KT 8SM -RA BKN008 OVC015 06/ RMK SC5SC3=

CYVR;2006-01-30 07:00;METAR CYVR 300700Z 10005KT 7SM -RA BKN009 OVC015 07/07 A2936 RMK SC5SC3 SLP942=

CYVR;2006-01-30 07:12;SPECI CYVR 300712Z 14007KT 10SM -RA SCT008 SCT015 BKN041 OVC060 08/ RMK SC3SC1SC2SC2=

CYVR;2006-01-30 08:00;METAR CYVR 300800Z 16012KT 10SM -RA FEW008 BKN045 OVC060 08/07 A2935 RMK SC2SC3SC2 SLP939=

CYVR;2006-01-30 10:00;METAR CYVR 301000Z 11003KT 10SM -RA FEW008 SCT045 OVC065 08/06 A2937 RMK SC2SC2SC4 SLP946=

CYVR;2006-01-30 12:00;METAR CYVR 301200Z 12004KT 10SM -RA FEW008 BKN058 OVC083 07/06 A2939 RMK SC2SC3AC3 SLP954=

CYVR;2006-01-30 13:00;METAR CYVR 301300Z 07004KT 7SM -RA FEW008 BKN042 OVC060 06/06 A2941 RMK SC2SC4SC2 SLP961=

CYVR;2006-01-30 14:00;METAR CYVR 301400Z 02004KT 7SM -RA FEW008 SCT051 OVC065 06/05 A2943 RMK SF1SC3SC4 SLP967=

CYVR;2006-01-30 14:19;SPECI CYVR 301419Z 00000KT 12SM -SHRA FEW008 SCT061 OVC140 06/ RMK SF1SC3AC4 PCPN VRY LGT=

CYVR;2006-01-30 14:47;SPECI CYVR 301447Z 12003KT 12SM FEW008 FEW040 BKN061 OVC140 06/ RMK SF1SC2SC4AC2=

CYVR;2006-01-30 15:00;METAR CYVR 301500Z 11003KT 12SM -SHRA FEW008 SCT044 BKN065 OVC078 06/05 A2946 RMK SF1SC3SC2AC2 PCPN VRY LGT SLP977=

CYVR;2006-01-30 16:00;METAR CYVR 301600Z 09004KT 12SM -SHRA FEW008 SCT044 OVC077 06/05 A2949 RMK SF2SC2AC4 F BNK NW - NE QUAD OVR WTR VIS LWR 4 SM SLP988=

CYVR;2006-01-30 16:25;SPECI CYVR 301625Z 18004KT 15SM FEW008 FEW035 SCT077 BKN140 BKN220 06/ RMK SF1SC1AC2AC2CI1 F BNK NW - NE QUAD OVR WTR VIS LWR 4 SM=

CYVR;2006-01-30 17:00;METAR CYVR 301700Z 25007KT 15SM FEW008 SCT040 BKN120 BKN220 06/05 A2955 RMK SF1SC2AC1CI1 PRESRR F BNK NW - NE QUAD VIS LWR 4 SM SLP007=

CYVR;2006-01-30 18:00;METAR CYVR 301800Z 34005KT 20SM FEW008 FEW035 BKN230 07/06 A2959 RMK SF1SC1CI1 VIS LWR NE QUAD 12 SM SLP021=

CYVR;2006-01-30 19:00;METAR CYVR 301900Z 30003KT 20SM FEW008 FEW030 SCT100 BKN220 08/06 A2962 RMK SF1SC1AC1CI0 SLP032=

CYVR;2006-01-30 20:00;METAR CYVR 302000Z 25004KT 20SM FEW008 FEW025 SCT100 09/06 A2965 RMK CF1SC1AC1 TCU EMBD SLP042=

CYVR;2006-01-30 22:00;METAR CYVR 302200Z 20003KT 30SM FEW015 FEW025 FEW080 10/04 A2971 RMK SF1SC1AC1 TCU EMBD TR AC SLP062=

CYVR;2006-01-30 23:00;METAR CYVR 302300Z 20004KT 30SM FEW025 FEW030 FEW080 11/03 A2975 RMK SF1SC1AC1 TCU ASOCT TR SF SLP074=

CYVR;2006-01-31 00:00;METAR CYVR 310000Z 21004KT 30SM FEW035 FEW040 SCT090 10/03 A2978 RMK SF1SC1AC1 TCU ASOCT SLP085=

CYVR;2006-01-31 01:00;METAR CYVR 310100Z 20009KT 30SM FEW035 FEW065 SCT130 BKN220 09/03 A2980 RMK SC1SC1AC1CI1 SLP091=

CYVR;2006-01-31 02:00;METAR CYVR 310200Z 20011KT 30SM FEW035 BKN077 BKN100 08/03 A2981 RMK SC2AC2AC1 SLP096=

CYVR;2006-01-31 04:00;METAR CYVR 310400Z 20013G18KT 20SM FEW035 SCT065 OVC095 08/03 A2987 RMK SC2SC2AC4 SLP114=

CYVR;2006-01-31 06:00;METAR CYVR 310600Z 21012KT 15SM FEW025 SCT055 SCT230 07/02 A2987 RMK SC2SC2CI1 SLP115=

CYVR;2006-01-31 07:00;METAR CYVR 310700Z 23008KT 15SM FEW030 BKN060 BKN230 07/01 A2993 RMK SC1SC4CI2 SLP134=

CYVR;2006-01-31 08:00;METAR CYVR 310800Z 22009KT 15SM FEW035 SCT065 BKN160 06/01 A2995 RMK SC2SC2AC2 SLP141=

CYVR;2006-01-31 09:00;METAR CYVR 310900Z 23009KT 15SM FEW035 FEW065 SCT160 OVC230 07/01 A2996 RMK SC1SC2AC2CS4 SLP147=

CYVR;2006-01-31 10:00;METAR CYVR 311000Z 20007KT 15SM FEW040 SCT075 OVC140 07/01 A2998 RMK SC1AC2AC5 SLP152=

CYVR;2006-01-31 11:00;METAR CYVR 311100Z 18005KT 15SM FEW040 BKN065 OVC140 07/02 A2998 RMK SC2SC5AC2 SLP152=

CYVR;2006-01-31 13:00;METAR CYVR 311300Z 11009KT 15SM SCT060 OVC100 05/02 A2996 RMK SC4AC4 SLP144=

CYVR;2006-01-31 13:53;SPECI CYVR 311353Z 14008KT 15SM -SHRA FEW025 BKN042 OVC065 07/ RMK SC2SC5SC2=

CYVR;2006-01-31 14:00;METAR CYVR 311400Z 14007KT 15SM -SHRA FEW025 BKN042 OVC065 07/04 A2996 RMK SC2SC5SC2 SLP145=

CYVR;2006-01-31 15:00;METAR CYVR 311500Z 14009KT 12SM -SHRA FEW025 BKN040 OVC058 06/04 A2993 RMK SC2SC5SC2 SLP134=

CYVR;2006-01-31 15:43;SPECI CYVR 311543Z 14011KT 12SM FEW020 BKN041 OVC058 06/ RMK SC2SC4SC2=

CYVR;2006-01-31 16:00;METAR CYVR 311600Z 13011KT 12SM FEW020 BKN043 OVC063 06/04 A2989 RMK SC2SC5SC1 SLP123=

CYVR;2006-01-31 17:00;METAR CYVR 311700Z 10007KT 12SM BKN023 BKN045 OVC084 06/04 A2988 RMK SC5SC2AC1 SLP117=

CYVR;2006-01-31 18:00;METAR CYVR 311800Z 10012G17KT 12SM BKN018 OVC060 06/04 A2986 RMK SC7SC1 SLP111=

CYVR;2006-01-31 19:00;METAR CYVR 311900Z 11014KT 12SM FEW015 OVC020 07/04 A2983 RMK SC2SC6 SLP100=

CYVR;2006-01-31 20:00;METAR CYVR 312000Z 13013G25KT 12SM -SHRA BKN022 OVC052 07/04 A2974 RMK SC6SC2 SLP071=

CYVR;2006-01-31 21:38;SPECI CYVR 312138Z 12021G30KT 12SM FEW018 BKN033 OVC050 08/ RMK SC2SC4SC2=

CYVR;2006-01-31 22:00;METAR CYVR 312200Z 13024G31KT 12SM FEW018 BKN031 OVC050 08/02 A2962 RMK SC2SC5SC2 PRESFR SLP029=

CYVR;2006-01-31 22:24;SPECI CYVR 312224Z 13025G37KT 12SM -SHRA FEW018 BKN034 OVC050 08/ RMK SC2SC5SC2=

CYVR;2006-01-31 23:00;METAR CYVR 312300Z 12025G37KT 8SM -SHRA BKN019 OVC033 06/03 A2954 RMK SC6SC2 PRESFR SLP004=

CYVR;2006-02-01 00:00;METAR CYVR 010000Z 11026G33KT 7SM -SHRA BKN017 OVC029 05/03 A2945 RMK SC6SC2 PRESFR SLP972=

CYVR;2006-02-01 01:00;METAR CYVR 010100Z 09026G33KT 6SM -SHRA BR SCT010 OVC018 03/02 A2936 RMK SC3SC5 PRESFR SLP942=

CYVR;2006-02-01 02:00;METAR CYVR 010200Z 10022G32KT 5SM -SHRA BR SCT011 OVC018 04/02 A2929 RMK SC3SC5 PRESFR SLP919=

CYVR;2006-02-01 03:00;METAR CYVR 010300Z 09020KT 4SM RA BR FEW008 BKN013 OVC020 04/03 A2926 RMK SF2SC4SC2 SLP910=

CYVR;2006-02-01 03:44;SPECI CYVR 010344Z 15021G27KT 5SM -RA BR FEW007 SCT014 OVC021 06/ RMK SF2SC2SC4=

CYVR;2006-02-01 04:00;METAR CYVR 010400Z 15018G25KT 8SM -RA FEW007 SCT014 BKN021 OVC033 06/04 A2928 RMK SF2SC2SC3SC2 SLP916=

CYVR;2006-02-01 04:12;SPECI CYVR 010412Z 16020G27KT 10SM FEW009 SCT015 BKN025 OVC033 06/ RMK SF1SC2SC2SC2=

CYVR;2006-02-01 05:00;METAR CYVR 010500Z 17015KT 12SM FEW012 FEW030 SCT090 07/04 A2929 RMK SF1SC2AC1 TWR OBSD LTG DIST W SLP919=

CYVR;2006-02-01 06:00;METAR CYVR 010600Z 10007KT 12SM FEW014 FEW030 SCT062 BKN090 08/04 A2929 RMK SF1SC2SC2AC1 SLP918=

CYVR;2006-02-01 07:29;SPECI CYVR 010729Z 19017G24KT 12SM FEW015 SCT035 BKN080 07/ RMK SF1SC3AC2 TCU EMBD / SHS E=

CYVR;2006-02-01 07:37;SPECI CYVR 010737Z 19015G20KT 12SM FEW015 SCT035 BKN080 BKN210 07/ RMK SF1SC2AC2CI1 CB EMBD / OCNL LTGIC SE=

CYVR;2006-02-01 08:55;SPECI CYVR 010855Z 18014G20KT 10SM -SHRA FEW015 BKN040 BKN080 08/ RMK SF1SC4AC2 TCU EMBD=

CYVR;2006-02-01 09:00;METAR CYVR 010900Z 18017KT 10SM -SHRA FEW015 BKN040 BKN090 08/04 A2931 RMK SF1SC4AC2 TCU EMBD SLP926=

CYVR;2006-02-01 09:16;SPECI CYVR 010916Z 19018G24KT 10SM FEW015 SCT035 BKN080 BKN140 08/ RMK SF1SC2AC2AC2 TCU EMBD=

CYVR;2006-02-01 09:55;SPECI CYVR 010955Z 18012G18KT 8SM -SHRA FEW012 BKN033 BKN050 BKN090 08/ RMK SF2SC3SC1AC1 TCU EMBD=

CYVR;2006-02-01 10:00;METAR CYVR 011000Z 18013G18KT 8SM -SHRA FEW012 BKN033 BKN050 BKN090 07/03 A2933 RMK SF2SC3SC1AC1 TCU EMBD SLP932=

CYVR;2006-02-01 10:24;SPECI CYVR 011024Z 18012KT 10SM FEW011 SCT030 BKN050 BKN200 07/ RMK SF1SC2SC2CI1 TCU EMBD=

CYVR;2006-02-01 11:00;METAR CYVR 011100Z 18011KT 8SM -SHRA FEW010 FEW030 BKN048 BKN090 08/04 A2936 RMK SF1SC2SC3AC1 TCU EMBD SLP941=

CYVR;2006-02-01 11:34;SPECI CYVR 011134Z 19014G19KT 10SM FEW011 FEW030 SCT050 BKN100 08/ RMK SF1SC2SC2AC2 TCU EMBD=

CYVR;2006-02-01 12:00;METAR CYVR 011200Z 20018KT 12SM FEW012 SCT040 BKN090 BKN150 08/04 A2938 RMK SF1SC2AC2AC1 SLP950=

CYVR;2006-02-01 13:00;METAR CYVR 011300Z 21015G20KT 12SM FEW012 SCT035 BKN080 BKN140 08/03 A2944 RMK SF1SC2AC3AC1 PRESRR SLP968=

CYVR;2006-02-01 14:00;METAR CYVR 011400Z 20014KT 12SM FEW012 SCT040 BKN090 BKN150 08/04 A2949 RMK SF1SC2AC3AC1 SLP986=

CYVR;2006-02-01 15:00;METAR CYVR 011500Z 22017KT 12SM FEW035 BKN071 BKN150 08/03 A2953 RMK SC2AC3AC1 SLP000=

CYVR;2006-02-01 16:00;METAR CYVR 011600Z 22014KT 15SM SCT035 BKN072 BKN180 08/03 A2957 RMK SC3AC2AC2 SLP014=

CYVR;2006-02-01 17:00;METAR CYVR 011700Z 21008G17KT 20SM FEW040 SCT074 BKN190 08/02 A2962 RMK SC2AC1AC2 SLP031=

CYVR;2006-02-01 18:00;METAR CYVR 011800Z 22009KT 20SM FEW040 SCT069 BKN180 08/02 A2966 RMK SC2AC2AC2 SLP044=

CYVR;2006-02-01 19:00;METAR CYVR 011900Z 20008KT 20SM FEW040 SCT075 BKN200 09/03 A2970 RMK SC2AC2CI2 SLP056=

CYVR;2006-02-01 20:00;METAR CYVR 012000Z 15008KT 20SM FEW040 BKN058 OVC080 09/03 A2971 RMK SC2SC4AC2 SLP061=

CYVR;2006-02-01 21:00;METAR CYVR 012100Z 16010KT 20SM FEW040 BKN064 OVC088 08/04 A2972 RMK SC1SC6AC1 SLP063=

CYVR;2006-02-01 21:27;SPECI CYVR 012127Z 17013KT 10SM -SHRA BKN036 OVC052 08/ RMK SC6SC2=

CYVR;2006-02-01 22:00;METAR CYVR 012200Z 18014KT 8SM -SHRA FEW020 BKN034 OVC049 08/05 A2972 RMK SC1SC6SC2 SLP066=

CYVR;2006-02-01 22:47;SPECI CYVR 012247Z 17016KT 12SM FEW016 BKN032 OVC057 07/ RMK SC1SC5SC2=

CYVR;2006-02-01 23:00;METAR CYVR 012300Z 17012G19KT 10SM FEW016 BKN034 OVC057 07/04 A2972 RMK SC1SC5SC2 SLP063=

CYVR;2006-02-01 23:10;SPECI CYVR 012310Z 16012KT 10SM -SHRA FEW016 BKN036 OVC055 07/ RMK SC1SC4SC3=

CYVR;2006-02-01 23:52;SPECI CYVR 012352Z 13008KT 12SM FEW016 SCT036 BKN061 OVC091 07/ RMK SC1SC2SC2AC2=

CYVR;2006-02-02 00:35;SPECI CYVR 020035Z 09007KT 12SM -SHRA FEW018 BKN037 OVC069 07/ RMK SC1SC5AC2=

CYVR;2006-02-02 01:00;METAR CYVR 020100Z 09008KT 8SM -SHRA SCT016 BKN033 OVC054 06/05 A2971 RMK SC3SC3SC2 SLP061=

CYVR;2006-02-02 01:55;SPECI CYVR 020155Z 09012KT 10SM SCT016 SCT034 OVC051 06/ RMK SC3SC1SC4=

CYVR;2006-02-02 02:27;SPECI CYVR 020227Z 10}012KT 10SM -SHRA FEW016 SCT030 BKN045 OVC072 07/ } RMK SC2SC2SC4AC1=

CYVR;2006-02-02 02:27;SPECI CYVR 020227Z 10012KT 10SM -SHRA FEW016 SCT030 BKN045 OVC072 07/ RMK SC2SC2SC4AC1 =

CYVR;2006-02-02 03:00;METAR CYVR 020300Z 11011G16KT 10SM -SHRA FEW016 SCT030 BKN045 OVC070 07/05 A2967 RMK SC2SC2SC4AC1 SLP048=

CYVR;2006-02-02 04:00;METAR CYVR 020400Z 14010KT 10SM -SHRA FEW016 BKN042 OVC060 08/06 A2967 RMK SC2SC5SC2 SLP047=

CYVR;2006-02-02 05:00;METAR CYVR 020227=

CYVR;2006-02-02 05:45;SPECI CYVR 020545Z 13008KT 10SM FEW015 SCT030 BKN045 OVC120 08/ RMK SC1SC2SC2AC2=

CYVR;2006-02-02 06:00;METAR CYVR 020600Z 15009KT 10SM FEW015 FEW030 BKN042 OVC090 08/05 A2967 RMK SC1SC2SC4AC2 SLP048=

CYVR;2006-02-02 07:00;METAR CYVR 020700Z 14014KT 10SM FEW016 SCT035 BKN060 OVC100 08/05 A2966 RMK SC1SC2SC3AC2 SLP045=

CYVR;2006-02-02 07:33;SPECI CYVR 020733Z 16010G15KT 8SM -SHRA FEW015 BKN041 OVC060 08/ RMK SC1SC5SC2=

CYVR;2006-02-02 08:00;METAR CYVR 020800Z 17010KT 8SM -SHRA FEW015 BKN028 OVC060 08/05 A2968 RMK SC1SC6SC2 TCU EMBD SLP052=

CYVR;2006-02-02 08:12;SPECI CYVR 020812Z 17011KT 10SM FEW015 SCT029 BKN060 OVC100 08/ RMK SC1SC3SC2AC2=

CYVR;2006-02-02 08:29;SPECI CYVR 020829Z 17011G16KT 10SM -SHRA FEW015 SCT030 BKN080 OVC150 08/ RMK SC1SC3AC2AC2=

CYVR;2006-02-02 10:00;METAR CYVR 021000Z 18011KT 12SM FEW015 FEW030 BKN071 OVC150 08/05 A2970 RMK SC1SC2AC4AC2 SLP059=

CYVR;2006-02-02 11:00;METAR CYVR 021100Z 11004KT 8SM -SHRA FEW010 BKN031 OVC060 07/05 A2973 RMK SF1SC5SC2 SLP067=

CYVR;2006-02-02 11:40;SPECI CYVR 021140Z 13006KT 15SM FEW010 SCT030 BKN070 OVC120 07/ RMK SF1SC2AC3AC2=

CYVR;2006-02-02 12:00;METAR CYVR 021200Z 11004KT 15SM FEW011 FEW030 BKN070 OVC120 07/05 A2973 RMK SF1SC2AC4AC2 SLP068=

CYVR;2006-02-02 13:00;METAR CYVR 021300Z 06004KT 12SM SCT011 BKN044 OVC070 07/06 A2975 RMK SF3SC3AC2 SLP074=

CYVR;2006-02-02 14:00;METAR CYVR 021400Z 17005KT 15SM FEW011 SCT050 BKN070 07/05 A2976 RMK SF1SC2AC2 SLP078=

CYVR;2006-02-02 15:00;METAR CYVR 021500Z 14004KT 15SM FEW011 FEW052 SCT080 06/04 A2978 RMK SF1SC2AC1 SLP085=

CYVR;2006-02-02 16:00;METAR CYVR 021600Z 13005KT 15SM FEW015 SCT050 BKN088 06/04 A2980 RMK SC1SC2AC2 SLP093=

CYVR;2006-02-02 17:00;METAR CYVR 021700Z 15008KT 15SM FEW015 BKN055 BKN090 07/05 A2983 RMK SC1SC5AC2 SLP101=

CYVR;2006-02-02 18:00;METAR CYVR 021800Z 18014KT 15SM FEW015 BKN054 BKN083 08/05 A2985 RMK SC1SC6AC1 SLP107=

CYVR;2006-02-02 19:00;METAR CYVR 021900Z 18009KT 15SM FEW015 BKN055 BKN080 BKN200 10/06 A2988 RMK SC1SC4AC1CI1 SLP118=

CYVR;2006-02-02 20:00;METAR CYVR 022000Z 20009KT 15SM FEW020 SCT055 BKN200 10/04 A2988 RMK SC2SC2CI0 SLP117=

CYVR;2006-02-02 21:00;METAR CYVR 022100Z 19007KT 15SM FEW030 BKN059 BKN090 10/05 A2988 RMK SC2SC3AC1 SLP119=

CYVR;2006-02-02 22:00;METAR CYVR 022200Z 17007KT 15SM FEW035TCU BKN060 BKN150 10/03 A2988 RMK TCU1SC6AC1 SLP117=

CYVR;2006-02-02 23:00;METAR CYVR 022300Z 14007KT 15SM FEW015 FEW040 BKN150 OVC210 09/06 A2988 RMK CF1SC2AC3CS2 SLP120=

CYVR;2006-02-03 00:00;METAR CYVR 030000Z 14007KT 15SM FEW017 SCT047 BKN150 OVC210 09/05 A2988 RMK SC1SC2AC3CS2 SLP117=

CYVR;2006-02-03 02:00;METAR CYVR 030200Z 10006KT 15SM FEW020 SCT045 BKN110 OVC210 08/05 A2986 RMK SC1SC2AC3CS2 SLP112=

CYVR;2006-02-03 02:50;SPECI CYVR 030250Z 05005KT 15SM -SHRA SCT022 BKN045 OVC100 08/ RMK SC3SC3AC2=

CYVR;2006-02-03 03:00;METAR CYVR 030300Z 07005KT 12SM -SHRA BKN023 BKN045 OVC100 08/05 A2987 RMK SC5SC2AC2 SLP114=

CYVR;2006-02-03 03:45;SPECI CYVR 030345Z 12012G17KT 4SM SHRA SCT011 BKN022 OVC035 07/ RMK SC3SC2SC2 WND SHFT=

CYVR;2006-02-03 04:00;METAR CYVR 030400Z 12009G15KT 5SM -SHRA FEW012 BKN025 OVC035 07/06 A2988 RMK SC2SC3SC2 RERA SLP120=

CYVR;2006-02-03 05:00;METAR CYVR 030500Z 25007KT 8SM -SHRA FEW011 BKN031 OVC060 07/05 A2991 RMK SC2SC6SC1 SLP127=

CYVR;2006-02-03 06:00;METAR CYVR 030600Z 13002KT 8SM -RA FEW011 BKN029 OVC050 07/05 A2992 RMK SC2SC5SC2 SLP132=

CYVR;2006-02-03 06:32;SPECI CYVR 030632Z 11004KT 10SM FEW011 SCT030 BKN050 OVC070 07/ RMK SC2SC2SC2AC2=

CYVR;2006-02-03 07:00;METAR CYVR 030700Z 12005KT 10SM FEW012 BKN031 BKN050 OVC070 06/05 A2994 RMK SC2SC3SC2AC1 SLP139=

CYVR;2006-02-03 10:00;METAR CYVR 031000Z 10007KT 12SM FEW013 SCT030 BKN055 06/05 A3001 RMK SC2SC2SC3 SLP162=

CYVR;2006-02-03 11:00;METAR CYVR 031100Z 08006KT 12SM FEW014 BKN047 OVC240 06/05 A3003 RMK SC2SC4CI2 SLP170=

CYVR;2006-02-03 12:00;METAR CYVR 031200Z 09007KT 12SM FEW015 BKN053 OVC240 05/04 A3005 RMK SC1SC4CI3 SLP175=

CYVR;2006-02-03 13:00;METAR CYVR 031300Z 09003KT 15SM FEW011 FEW050 OVC220 05/04 A3006 RMK SF1SC1CI6 SLP179=

CYVR;2006-02-03 14:00;METAR CYVR 031400Z 08005KT 15SM FEW020 FEW050 BKN210 05/04 A3006 RMK SF1SC1CI2 SLP180=

CYVR;2006-02-03 15:00;METAR CYVR 031500Z 09005KT 15SM FEW020 FEW070 BKN210 04/03 A3006 RMK SC1AC1CI2 SLP178=

CYVR;2006-02-03 16:00;METAR CYVR 031600Z 07009KT 15SM FEW035 FEW070 OVC210 05/04 A3006 RMK SC1AC1CI2 SLP178=

CYVR;2006-02-03 16:32;SPECI CYVR 031632Z 09008KT 30SM BKN012 BKN070 05/ RMK SC6AC1=

CYVR;2006-02-03 16:54;SPECI CYVR 031654Z 10006KT 30SM SCT012 BKN021 BKN070 06/ RMK SC4SC2AC1=

CYVR;2006-02-03 17:00;METAR CYVR 031700Z 09005KT 30SM FEW012 SCT022 BKN058 OVC210 06/05 A3005 RMK SC2SC1SC2CS2 SLP175=

CYVR;2006-02-03 18:00;METAR CYVR 031800Z 09006KT 30SM BKN022 BKN060 OVC210 07/05 A3004 RMK SC6SC1CS1 SLP171=

CYVR;2006-02-03 19:00;METAR CYVR 031900Z 09012KT 30SM SCT022 BKN057 BKN120 OVC210 08/05 A3002 RMK SC3SC2AC2CS2 SLP167=

CYVR;2006-02-03 20:00;METAR CYVR 032000Z 07010G16KT 20SM FEW025 BKN051 BKN120 OVC210 08/05 A2998 RMK SC2SC5AC1CS1 SLP152=

CYVR;2006-02-03 21:00;METAR CYVR 032100Z 07008KT 20SM FEW025 BKN047 BKN080 OVC210 08/04 A2994 RMK SC2SC3AC2CS1 SLP140=

CYVR;2006-02-03 22:00;METAR CYVR 032200Z 10010KT 20SM FEW030 BKN051 OVC100 08/05 A2990 RMK SC1SC6AC2 SLP124=

CYVR;2006-02-03 22:21;SPECI CYVR 032221Z 10016G22KT 12SM -SHRA SCT022 BKN048 OVC100 08/ RMK SC3SC3AC2=

CYVR;2006-02-03 23:00;METAR CYVR 032300Z 09018KT 8SM -RA BKN026 OVC041 07/04 A2984 RMK SC5SC3 PRESFR SLP104=

CYVR;2006-02-04 00:00;METAR CYVR 040000Z 10022G27KT 8SM -RA BKN027 OVC042 06/04 A2979 RMK SC5SC3 SLP088=

CYVR;2006-02-04 02:00;METAR CYVR 040200Z 10015KT 10SM -RA SCT025 OVC043 06/04 A2966 RMK SC3SC5 SLP044=

CYVR;2006-02-04 03:00;METAR CYVR 040300Z 09015KT 10SM -RA FEW015 BKN031 OVC060 06/04 A2961 RMK SF2SC6SC1 SLP027=

CYVR;2006-02-04 04:00;METAR CYVR 040400Z 11014KT 15SM -RA FEW016 BKN030 OVC080 07/05 A2954 RMK SF2SC5AC2 PRESFR SLP002=

CYVR;2006-02-04 04:19;SPECI CYVR 040419Z 10017KT 15SM FEW016 BKN031 OVC080 07/ RMK SF1SC6AC1=

CYVR;2006-02-04 05:00;METAR CYVR 040500Z 10019G24KT 15SM FEW015 BKN030 BKN060 OVC080 08/05 A2944 RMK SF1SC4SC2AC2 PRESFR SLP969=

CYVR;2006-02-04 05:03;SPECI CYVR 040503Z 10017G24KT 15SM -RA FEW015 BKN030 BKN060 OVC080 08/ RMK SF1SC4SC1AC2=

CYVR;2006-02-04 07:00;METAR CYVR 040700Z 09014G19KT 8SM -RA FEW020 BKN046 OVC070 08/06 A2934 RMK SF1SC6AC1 SLP935=

CYVR;2006-02-04 08:25;SPECI CYVR 040825Z 13003KT 5SM -RA BR FEW009 BKN029 OVC060 08/ RMK SF1SC6SC1=

CYVR;2006-02-04 09:23;SPECI CYVR 040923Z 10012KT 15SM FEW009 SCT060 BKN100 08/ RMK SF1SC2AC2=

CYVR;2006-02-04 10:00;METAR CYVR 041000Z 12013KT 15SM FEW010 FEW060 SCT120 09/07 A2931 RMK SF2SC1AC2 SLP925=

CYVR;2006-02-04 11:00;METAR CYVR 041100Z 13023G31KT 12SM FEW011 SCT055 BKN090 10/06 A2930 RMK SF1SC2AC3 SLP923=

CYVR;2006-02-04 12:00;METAR CYVR 041200Z 14028G33KT 12SM FEW012 FEW070 SCT120 10/05 A2929 RMK SF1AC2AC2 SLP918=

CYVR;2006-02-04 13:00;METAR CYVR 041300Z 13029G37KT 12SM FEW015 BKN080 BKN120 09/04 A2928 RMK SF1AC4AC2 SLP914=

CYVR;2006-02-04 14:00;METAR CYVR 041400Z 13029G40KT 15SM FEW020 BKN070 BKN110 09/04 A2927 RMK SF1AC5AC2 SLP913=

CYVR;2006-02-04 15:00;METAR CYVR 041500Z 14031G38KT 15SM FEW020 BKN070 BKN110 09/04 A2930 RMK SF2AC3AC2 SLP922=

CYVR;2006-02-04 15:08;SPECI CYVR 041508Z 14027G38KT 15SM -SHRA FEW020 BKN070 BKN110 08/ RMK SF2AC2AC2=

CYVR;2006-02-04 16:00;METAR CYVR 041600Z 14028G38KT 15SM -SHRA FEW020 BKN035 OVC055 08/04 A2931 RMK SF2SC3SC3 SLP925=

CYVR;2006-02-04 16:38;SPECI CYVR 041638Z 14032G38KT 15SM FEW020 BKN045 OVC063 08/ RMK SF2SC3SC2=

CYVR;2006-02-04 17:00;METAR CYVR 041700Z 15027G34KT 15SM -SHRA SCT018 BKN030 OVC045 08/04 A2933 RMK SF3SC3SC2 PCPN VRY LGT SLP931=

CYVR;2006-02-04 18:00;METAR CYVR 041800Z 15020G29KT 10SM -SHRA FEW018 BKN027 OVC040 07/04 A2937 RMK SC2SC4SC2 SLP945=

CYVR;2006-02-04 18:07;SPECI CYVR 041807Z 15023G35KT 10SM -RA FEW018 BKN028 OVC045 07/ RMK SF2SC3SC2=

CYVR;2006-02-04 18:25;SPECI CYVR 041825Z 16021G29KT 15SM FEW018 BKN035 OVC060 08/ RMK SF2SC3SC3=

CYVR;2006-02-04 19:00;METAR CYVR 041900Z 16021G27KT 15SM FEW018 BKN042 OVC090 08/04 A2944 RMK SC2SC4AC2 SLP968=

CYVR;2006-02-04 22:00;METAR CYVR 042200Z 17025G31KT 15SM FEW018 SCT045 BKN085 07/03 A2955 RMK SC2SC2AC3 SLP008=

CYVR;2006-02-04 22:07;SPECI CYVR 042207Z 17025G32KT 15SM -SHRA FEW018 BKN034 BKN085 07/ RMK SC2SC3AC2=

CYVR;2006-02-04 23:00;METAR CYVR 042300Z 18025G32KT 10SM -SHRA FEW018 BKN032 OVC043 07/03 A2960 RMK SC2SC4SC2 SLP023=

CYVR;2006-02-04 23:18;SPECI CYVR 042318Z 19024G29KT 10SM -RA FEW018 BKN033 OVC044 07/ RMK SC2SC4SC2=

CYVR;2006-02-05 00:00;METAR CYVR 050000Z 18019G28KT 8SM -RA FEW018 BKN033 OVC048 07/04 A2965 RMK SC2SC4SC2 PRESRR SLP041=

CYVR;2006-02-05 02:55;SPECI CYVR 050255Z 27016KT 15SM FEW018 FEW045 BKN067 OVC085 07/ RMK SF1SC1AC4AC2=

CYVR;2006-02-05 03:00;METAR CYVR 050300Z 27016KT 15SM FEW018 SCT067 OVC092 07/05 A2985 RMK SF2AC2AC5 PRESRR SLP107=

CYVR;2006-02-05 04:00;METAR CYVR 050400Z 27023KT 15SM FEW020 OVC072 07/04 A2992 RMK SF2AC6 PRESRR SLP131=

CYVR;2006-02-05 05:00;METAR CYVR 050500Z 27018G32KT 15SM FEW020 OVC054 07/03 A2998 RMK SF2SC6 PRESRR SLP152=

CYVR;2006-02-05 06:00;METAR CYVR 050600Z 27022G28KT 15SM FEW020 OVC051 07/01 A3004 RMK SF1SC7 PRESRR SLP172=

CYVR;2006-02-05 07:00;METAR CYVR 050700Z 28022KT 15SM FEW030 OVC054 07/00 A3010 RMK SF1SC6 PRESRR SLP192=

CYVR;2006-02-05 09:00;METAR CYVR 050900Z 29021G27KT 15SM FEW065 05/M00 A3019 RMK SC2 SLP224=

CYVR;2006-02-05 10:00;METAR CYVR 051000Z 28014G19KT 15SM FEW035 SCT060 05/M01 A3024 RMK SC1SC2 SLP242=

CYVR;2006-02-05 11:00;METAR CYVR 051100Z 28019KT 15SM FEW035 OVC065 06/M02 A3029 RMK SC2SC6 SLP257=

CYVR;2006-02-05 12:00;METAR CYVR 051200Z 27014KT 15SM BKN060 05/M02 A3030 RMK SC6 SLP262=

CYVR;2006-02-05 13:00;METAR CYVR 051300Z 27013KT 15SM FEW060 05/M02 A3033 RMK SC1 SLP270=

CYVR;2006-02-05 15:00;METAR CYVR 051500Z 27010KT 15SM BKN060 05/M01 A3039 RMK SC6 SLP290=

CYVR;2006-02-05 16:00;METAR CYVR 051600Z 27008KT 20SM BKN063 BKN220 05/M01 A3040 RMK SC5CI1 SLP295=

CYVR;2006-02-05 17:00;METAR CYVR 051700Z 08003KT 30SM SCT063 BKN220 03/00 A3041 RMK SC3CI2 SLP299=

CYVR;2006-02-05 18:00;METAR CYVR 051800Z 11006KT 30SM BKN060 BKN220 03/01 A3043 RMK SC5CI1 SLP306=

CYVR;2006-02-05 19:00;METAR CYVR 051900Z 09006KT 30SM FEW045 SCT060 BKN220 06/00 A3044 RMK SC2SC2CI2 SLP307=

CYVR;2006-02-05 20:00;METAR CYVR 052000Z 11003KT 30SM FEW040 SCT060 BKN190 07/M01 A3043 RMK SC2SC2AC2 SLP306=

CYVR;2006-02-05 21:00;METAR CYVR 052100Z 00000KT 30SM FEW025 SCT052 BKN190 07/M02 A3042 RMK CF2SC2AC1 SLP301=

CYVR;2006-02-05 22:00;METAR CYVR 052200Z 23004KT 30SM FEW025 BKN045 BKN060 08/M01 A3041 RMK CF2SC2SC2 SLP297=

CYVR;2006-02-05 23:00;METAR CYVR 052300Z 30002KT 30SM FEW025 BKN051 BKN190 07/M01 A3040 RMK SC2SC4AC1 SLP296=

CYVR;2006-02-06 00:00;METAR CYVR 060000Z 00000KT 30SM FEW030 BKN055 BKN190 06/00 A3040 RMK SC2SC5AC1 SLP294=

CYVR;2006-02-06 03:00;METAR CYVR 060300Z 02003KT 20SM SCT055 OVC190 04/M01 A3035 RMK SC3AC4 SLP278=

CYVR;2006-02-06 04:00;METAR CYVR 060400Z 07005KT 20SM FEW055 OVC160 04/00 A3033 RMK SC2AC6 SLP271=

CYVR;2006-02-06 05:00;METAR CYVR 060500Z 04004KT 20SM FEW055 BKN140 04/00 A3032 RMK SC2AC2 SLP267=

CYVR;2006-02-06 10:00;METAR CYVR 061000Z 00000KT 20SM BKN110 OVC130 04/01 A3026 RMK AC6AC2 SLP246=

CYVR;2006-02-06 11:00;METAR CYVR 061100Z 11002KT 20SM BKN100 OVC120 04/00 A3026 RMK AC6AC2 SLP247=

CYVR;2006-02-06 12:00;METAR CYVR 061200Z 09002KT 20SM BKN100 OVC120 03/00 A3025 RMK AC6AC2 SLP245=

CYVR;2006-02-06 13:00;METAR CYVR 061300Z 13004KT 20SM OVC110 03/00 A3024 RMK AC8 SLP242=

CYVR;2006-02-06 15:00;METAR CYVR 061500Z 00000KT 20SM OVC090 03/00 A3025 RMK AC7 SLP243=

CYVR;2006-02-06 16:00;METAR CYVR 061600Z 10002KT 30SM FEW090 FEW220 03/M00 A3026 RMK AC1CI1 SLP247=

CYVR;2006-02-06 17:00;METAR CYVR 061700Z 36002KT 30SM FEW090 BKN210 05/01 A3027 RMK AC1CI3 SLP252=

CYVR;2006-02-06 18:00;METAR CYVR 061800Z 28003KT 30SM SCT150 BKN210 07/00 A3028 RMK AC3CI4 SLP255=

CYVR;2006-02-06 19:00;METAR CYVR 061900Z 27002KT 30SM SCT060 BKN210 06/01 A3029 RMK SC3CI4 SLP257=

CYVR;2006-02-06 20:00;METAR CYVR 062000Z 31006KT 30SM SCT150 BKN210 07/M00 A3029 RMK AC3CI4 SLP256=

CYVR;2006-02-06 21:00;METAR CYVR 062100Z 26005KT 30SM OVC210 07/02 A3028 RMK CI8 SLP254=

CYVR;2006-02-06 22:00;METAR CYVR 062200Z 29005KT 30SM SCT170 OVC210 07/02 A3027 RMK AC3CI5 SLP252=

CYVR;2006-02-06 23:00;METAR CYVR 062300Z 30005KT 30SM SCT150 OVC210 07/03 A3027 RMK AC3CI5 SLP252=

CYVR;2006-02-07 00:00;METAR CYVR 070000Z 29006KT 30SM FEW120 BKN210 06/03 A3028 RMK AC2CI5 SLP254=

CYVR;2006-02-07 04:00;METAR CYVR 070400Z 07003KT 20SM SCT081 BKN095 06/03 A3028 RMK AC3AC2 SLP254=

CYVR;2006-02-07 05:00;METAR CYVR 070500Z 09006KT 20SM FEW080 OVC100 05/03 A3027 RMK AC2AC5 SLP251=

CYVR;2006-02-07 06:00;METAR CYVR 070600Z 11003KT 20SM BKN100 06/03 A3028 RMK AC7 SLP254=

CYVR;2006-02-07 07:41;SPECI CYVR 070741Z 00000KT 20SM -SHRA SCT062 OVC100 06/ RMK SC3AC4 PCPN VRY LGT=

CYVR;2006-02-07 09:00;METAR CYVR 070900Z 00000KT 20SM SCT060 OVC072 06/03 A3029 RMK SC3AC4 SLP256=

CYVR;2006-02-07 10:00;METAR CYVR 071000Z 18002KT 20SM SCT070 BKN220 06/03 A3027 RMK AC3CI1 SLP251=

CYVR;2006-02-07 11:00;METAR CYVR 071100Z 00000KT 20SM FEW070 BKN220 04/03 A3026 RMK AC2CI3 SLP246=

CYVR;2006-02-07 12:00;METAR CYVR 071200Z 00000KT 20SM BKN220 03/01 A3027 RMK CI5 SLP250=

CYVR;2006-02-07 13:00;METAR CYVR 071300Z 05003KT 20SM BKN230 03/01 A3026 RMK CS6 SLP247=

CYVR;2006-02-07 14:00;METAR CYVR 071400Z 00000KT 20SM BKN240 03/01 A3026 RMK CS7 SLP247=

CYVR;2006-02-07 15:00;METAR CYVR 071500Z 10003KT 20SM BKN250 04/02 A3025 RMK CS7 SLP245=

CYVR;2006-02-07 16:00;METAR CYVR 071600Z 09005KT 30SM BKN240 03/01 A3025 RMK CS6 SLP244=

CYVR;2006-02-07 18:00;METAR CYVR 071800Z 11008KT 30SM SCT160 OVC250 06/03 A3025 RMK AC3CS5 SLP243=

CYVR;2006-02-07 19:00;METAR CYVR 071900Z 10004KT 30SM SCT150 OVC240 08/03 A3026 RMK AC3CS5 SLP248=

CYVR;2006-02-07 21:00;METAR CYVR 072100Z 12005KT 30SM FEW090 BKN240 10/03 A3023 RMK AC2CS6 SLP238=

CYVR;2006-02-08 00:00;METAR CYVR 080000Z 24002KT 30SM FEW090 BKN190 BKN240 08/05 A3019 RMK AC2AC3CS2 SLP225=

CYVR;2006-02-08 02:00;METAR CYVR 080200Z 34004KT 20SM BKN090 BKN180 07/04 A3020 RMK AC5AC2 SLP226=

CYVR;2006-02-08 03:32;SPECI CYVR 080332Z 12003KT 15SM -SHRA SCT085 OVC100 08/ RMK AC3AC5 PCPN VRY LGT=

CYVR;2006-02-08 04:00;METAR CYVR 080400Z 09004KT 15SM -SHRA BKN069 OVC085 08/05 A3019 RMK AC5AC3 SLP224=

CYVR;2006-02-08 05:00;METAR CYVR 080500Z 10008KT 15SM -SHRA BKN076 OVC085 08/05 A3022 RMK AC6AC2 SLP233=

CYVR;2006-02-08 05:48;SPECI CYVR 080548Z 07007KT 15SM BKN069 OVC075 08/ RMK AC6AC2=

CYVR;2006-02-08 06:00;METAR CYVR 080600Z 07010KT 15SM SCT071 OVC078 08/06 A3021 RMK AC3AC5 SLP231=

CYVR;2006-02-08 07:40;SPECI CYVR 080740Z 11008KT 20SM -SHRA SCT062 OVC073 08/ RMK SC3AC5 PCPN VRY LGT=

CYVR;2006-02-08 08:00;METAR CYVR 080800Z 12004KT 15SM -SHRA BKN045 OVC070 08/06 A3024 RMK SC6AC2 SLP239=

CYVR;2006-02-08 09:00;METAR CYVR 080900Z 00000KT 15SM -SHRA BKN039 OVC045 07/06 A3025 RMK SC5SC3 SLP244=

CYVR;2006-02-08 11:00;METAR CYVR 081100Z 10005KT 15SM -SHRA BKN041 OVC065 07/06 A3027 RMK SC5SC3 SLP249=

CYVR;2006-02-08 11:48;SPECI CYVR 081148Z 09003KT 15SM FEW041 OVC090 07/ RMK SC2AC6=

CYVR;2006-02-08 12:00;METAR CYVR 081200Z 08003KT 15SM SCT009 SCT041 OVC095 07/06 A3028 RMK SC3SC1AC4 SLP255=

CYVR;2006-02-08 13:00;METAR CYVR 081300Z 27009KT 15SM BKN014 OVC240 06/05 A3031 RMK SC5CS3 SLP265=

CYVR;2006-02-08 14:00;METAR CYVR 081400Z 29015KT 15SM BKN009 OVC014 07/06 A3033 RMK SC5SC3 SLP271=

CYVR;2006-02-08 14:12;SPECI CYVR 081412Z 29015G21KT 15SM FEW009 SCT210 07/ RMK SC1CS1=

CYVR;2006-02-08 14:35;SPECI CYVR 081435Z 29017G22KT 10SM BKN007 BKN015 BKN210 07/ RMK SF5SC1CI1=

CYVR;2006-02-08 14:43;SPECI CYVR 081443Z 28018KT 12SM SCT006 SCT014 BKN220 07/ RMK SF3SC1CI0 LO CLD E=

CYVR;2006-02-08 15:00;METAR CYVR 081500Z 29018KT 15SM SCT007 SCT016 BKN220 07/06 A3036 RMK SF3SC1CI2 LO CLD E OVR APCH SLP280=

CYVR;2006-02-08 17:00;METAR CYVR 081700Z 29019G27KT 30SM FEW009 FEW015 FEW220 07/05 A3041 RMK SF1SC1CI1 LO CLD LYR E / VIS N - E 15 SLP298=

CYVR;2006-02-08 19:00;METAR CYVR 081900Z 30023G29KT 30SM FEW015 FEW200 08/04 A3045 RMK SC1CI1 SLP310=

CYVR;2006-02-08 20:00;METAR CYVR 082000Z 30022G27KT 30SM FEW017 FEW210 08/05 A3046 RMK CU1CI0 SLP315=

CYVR;2006-02-08 23:00;METAR CYVR 082300Z 29020G25KT 30SM FEW035 FEW200 08/04 A3047 RMK CU1CI0 SLP317=

CYVR;2006-02-09 00:00;METAR CYVR 090000Z 29020G26KT 30SM FEW040 FEW200 08/03 A3048 RMK CU1CI0 SLP321=

CYVR;2006-02-09 01:00;METAR CYVR 090100Z 29017G22KT 30SM FEW040 07/03 A3048 RMK CU1 SLP323=

CYVR;2006-02-09 02:00;METAR CYVR 090200Z 29018KT 30SM FEW040 06/03 A3050 RMK CU1 SLP329=

CYVR;2006-02-09 03:00;METAR CYVR 090300Z 30017KT 20SM FEW210 06/03 A3051 RMK CI1 SLP331=

CYVR;2006-02-09 05:00;METAR CYVR 090500Z 34002KT 20SM SKC 06/02 A3055 RMK SLP344=

CYVR;2006-02-09 07:00;METAR CYVR 090700Z 10003KT 20SM FEW030 04/02 A3060 RMK SC2 SLP362=

CYVR;2006-02-09 08:00;METAR CYVR 090800Z 32002KT 20SM FEW035 03/02 A3061 RMK SC2 SLP367=

CYVR;2006-02-09 10:00;METAR CYVR 091000Z 07003KT 20SM FEW030 FEW100 FEW210 02/00 A3063 RMK SC1AC1CI1 SLP374=

CYVR;2006-02-09 11:00;METAR CYVR 091100Z 04002KT 20SM FEW100 FEW210 02/00 A3064 RMK AC1CI1 SLP377=

CYVR;2006-02-09 12:00;METAR CYVR 091200Z 05002KT 20SM FEW100 FEW210 00/M01 A3064 RMK AC1CI1 FROIN SLP377=

CYVR;2006-02-09 15:00;METAR CYVR 091500Z 09003KT 30SM SKC 01/M01 A3065 RMK SLP379=

CYVR;2006-02-09 16:00;METAR CYVR 091600Z 00000KT 30SM FEW220 01/M01 A3066 RMK CI1 SLP382=

CYVR;2006-02-09 19:00;METAR CYVR 091900Z 31007KT 30SM FEW240 06/01 A3067 RMK CI0 SLP386=

CYVR;2006-02-09 20:00;METAR CYVR 092000Z 31006KT 30SM FEW240 07/M01 A3066 RMK CI0 SLP384=

CYVR;2006-02-09 21:00;METAR CYVR 092100Z 29007KT 30SM FEW240 08/01 A3064 RMK CI0 SLP375=

CYVR;2006-02-09 23:00;METAR CYVR 092300Z 31013KT 30SM FEW240 07/03 A3060 RMK CI0 SLP363=

CYVR;2006-02-10 00:00;METAR CYVR 100000Z 30012KT 30SM FEW240 07/02 A3060 RMK CI0 SLP361=

CYVR;2006-02-10 01:00;METAR CYVR 100100Z 30012KT 30SM FEW240 06/02 A3058 RMK CI1 SLP355=

CYVR;2006-02-10 03:00;METAR CYVR 100300Z 34008KT 30SM FEW240 05/02 A3058 RMK CI1 SLP354=

CYVR;2006-02-10 04:00;METAR CYVR 100400Z 01003KT 30SM FEW240 05/01 A3057 RMK CI1 SLP352=

CYVR;2006-02-10 05:00;METAR CYVR 100500Z 05002KT 20SM SKC 04/M01 A3056 RMK SLP349=

CYVR;2006-02-10 07:00;METAR CYVR 100700Z 33004KT 20SM SKC 02/M03 A3055 RMK SLP346=

CYVR;2006-02-10 08:00;METAR CYVR 100800Z 01006KT 20SM SKC 01/M05 A3055 RMK SLP344=

CYVR;2006-02-10 10:00;METAR CYVR 101000Z 32003KT 20SM SKC 01/M03 A3053 RMK SLP337=

CYVR;2006-02-10 11:00;METAR CYVR 101100Z 21003KT 20SM SKC 00/M03 A3051 RMK SLP333=

CYVR;2006-02-10 12:00;METAR CYVR 101200Z 00000KT 20SM SKC M00/M03 A3049 RMK SLP326=

CYVR;2006-02-10 13:00;METAR CYVR 101300Z 02003KT 20SM SKC M01/M04 A3048 RMK SLP322=

CYVR;2006-02-10 14:00;METAR CYVR 101400Z 00000KT 20SM SKC M00/M02 A3047 RMK SLP319=

CYVR;2006-02-10 15:00;METAR CYVR 101500Z 13003KT 30SM SKC M00/M02 A3047 RMK SLP319=

CYVR;2006-02-10 17:00;METAR CYVR 101700Z 08004KT 30SM FEW240 03/M00 A3048 RMK CI0 SLP323=

CYVR;2006-02-10 18:00;METAR CYVR 101800Z 18002KT 30SM FEW240 07/M01 A3048 RMK CI0 SLP323=

CYVR;2006-02-10 19:00;METAR CYVR 101900Z 26005KT 30SM FEW240 08/01 A3048 RMK CI0 SLP323=

CYVR;2006-02-10 20:00;METAR CYVR 102000Z 32006KT 30SM FEW240 08/M01 A3047 RMK CI1 SLP319=

CYVR;2006-02-10 21:00;METAR CYVR 102100Z 31005KT 30SM FEW240 09/M01 A3045 RMK CI0 SLP311=

CYVR;2006-02-10 22:00;METAR CYVR 102200Z 29006KT 30SM FEW240 09/M01 A3044 RMK CI0 SLP307=

CYVR;2006-02-11 00:00;METAR CYVR 110000Z 31005KT 30SM SKC 08/01 A3041 RMK SLP298=

CYVR;2006-02-11 01:00;METAR CYVR 110100Z 27007KT 30SM SKC 06/01 A3040 RMK SLP296=

CYVR;2006-02-11 03:00;METAR CYVR 110300Z 36005KT 30SM FEW220 05/00 A3040 RMK CI1 SLP296=

CYVR;2006-02-11 05:00;METAR CYVR 110500Z 36003KT 30SM FEW220 03/M01 A3042 RMK CI1 SLP301=

CYVR;2006-02-11 05:12;SPECI CYVR 110512Z 01004KT 30SM FEW220 02/ RMK CI1=

CYVR;2006-02-11 06:00;METAR CYVR 110600Z 05006KT 20SM SKC 02/M02 A3043 RMK SLP304=

CYVR;2006-02-11 07:00;METAR CYVR 110700Z 00000KT 20SM SKC 03/M01 A3045 RMK SLP310=

CYVR;2006-02-11 08:00;METAR CYVR 110800Z 00000KT 20SM SKC 03/M02 A3045 RMK SLP313=

CYVR;2006-02-11 08:18;SPECI CYVR 110818Z 00000KT 20SM SKC 02/=

CYVR;2006-02-11 11:00;METAR CYVR 111100Z 12003KT 20SM SKC 00/M03 A3046 RMK SLP314=

CYVR;2006-02-11 12:00;METAR CYVR 111200Z 13002KT 20SM SKC 00/M03 A3046 RMK SLP314=

CYVR;2006-02-11 13:00;METAR CYVR 111300Z 04005KT 20SM FEW210 M01/M03 A3047 RMK CI2 SLP317=

CYVR;2006-02-11 14:00;METAR CYVR 111400Z 15002KT 20SM FEW210 M01/M03 A3048 RMK CI1 SLP320=

CYVR;2006-02-11 15:00;METAR CYVR 111500Z 09002KT 30SM FEW220 M01/M03 A3049 RMK CI1 SLP325=

CYVR;2006-02-11 17:00;METAR CYVR 111700Z 12003KT 30SM FEW200 04/M01 A3052 RMK CI1 SLP334=

CYVR;2006-02-11 18:00;METAR CYVR 111800Z 09002KT 30SM SCT220 06/M01 A3052 RMK CI1 SLP336=

CYVR;2006-02-11 20:00;METAR CYVR 112000Z 27005KT 30SM FEW160 SCT240 08/M01 A3053 RMK AC2CI1 SLP339=

CYVR;2006-02-11 21:00;METAR CYVR 112100Z 27003KT 30SM FEW150 BKN240 07/M01 A3052 RMK AC2CI2 SLP334=

CYVR;2006-02-11 22:00;METAR CYVR 112200Z 33002KT 30SM SCT120 SCT160 BKN240 07/M01 A3047 RMK AC3AC1CI1 SLP319=

CYVR;2006-02-12 00:00;METAR CYVR 120000Z 28008KT 30SM FEW120 SCT160 BKN210 07/01 A3048 RMK AC2AC1CI2 SLP320=

CYVR;2006-02-12 01:00;METAR CYVR 120100Z 31004KT 30SM FEW130 SCT170 BKN200 05/01 A3047 RMK AC2AC2CI2 SLP318=

CYVR;2006-02-12 02:00;METAR CYVR 120200Z 31007KT 30SM FEW130 BKN170 BKN200 05/01 A3048 RMK AC2AC2CI0 SLP320=

CYVR;2006-02-12 03:00;METAR CYVR 120300Z 01002KT 30SM SCT120 BKN170 OVC200 06/02 A3048 RMK AC3AC3CI1 SLP322=

CYVR;2006-02-12 04:00;METAR CYVR 120400Z 00000KT 30SM SCT120 BKN170 OVC200 06/02 A3050 RMK AC3AC4CI1 SLP329=

CYVR;2006-02-12 05:00;METAR CYVR 120500Z 29002KT 30SM SCT100 OVC180 05/02 A3052 RMK AC3AC3 SLP335=

CYVR;2006-02-12 06:00;METAR CYVR 120600Z 04003KT 30SM FEW100 BKN180 OVC210 04/02 A3051 RMK AC2AC2CI1 SLP333=

CYVR;2006-02-12 08:00;METAR CYVR 120800Z 17004KT 20SM FEW170 BKN220 04/00 A3052 RMK AC2CS1 SLP335=

CYVR;2006-02-12 09:00;METAR CYVR 120900Z 26002KT 20SM BKN080 OVC220 03/01 A3055 RMK AC6CS1 SLP344=

CYVR;2006-02-12 10:00;METAR CYVR 121000Z 02005KT 20SM BKN076 OVC170 04/01 A3055 RMK AC6AC2 SLP346=

CYVR;2006-02-12 12:00;METAR CYVR 121200Z 11005KT 20SM SCT059 OVC091 04/01 A3055 RMK SC3AC5 SLP346=

CYVR;2006-02-12 13:00;METAR CYVR 121300Z 09008KT 20SM SCT058 BKN078 OVC095 04/01 A3055 RMK SC3AC3AC2 SLP346=

CYVR;2006-02-12 15:00;METAR CYVR 121500Z 15003KT 20SM SCT055 BKN078 05/00 A3058 RMK SC3AC4 SLP356=

CYVR;2006-02-12 20:00;METAR CYVR 122000Z 10010KT 30SM SCT040 BKN060 10/02 A3061 RMK SC3SC3 SLP366=

CYVR;2006-02-12 23:00;METAR CYVR 122300Z 12008KT 20SM SCT036 BKN047 10/01 A3057 RMK SC3SC3 SLP351=

CYVR;2006-02-13 00:00;METAR CYVR 130000Z 10005KT 20SM FEW036 BKN057 11/01 A3056 RMK SC2SC4 SLP348=

CYVR;2006-02-13 01:00;METAR CYVR 130100Z 11005KT 20SM FEW036 SCT057 BKN071 10/00 A3055 RMK SC2SC2AC4 SLP345=

CYVR;2006-02-13 01:11;SPECI CYVR 130111Z 14004KT 15SM -SHRA FEW035 SCT050 BKN070 10/ RMK SC2SC2AC3=

CYVR;2006-02-13 01:52;SPECI CYVR 130152Z 16003KT 15SM FEW035 SCT054 OVC065 10/ RMK SC2SC2SC4=

CYVR;2006-02-13 02:00;METAR CYVR 130200Z 14004KT 15SM FEW035 SCT055 OVC068 10/02 A3054 RMK SC2SC2AC4 SLP341=

CYVR;2006-02-13 03:00;METAR CYVR 130300Z 11003KT 15SM SCT038 BKN044 OVC049 09/01 A3055 RMK SC3SC2SC2 SLP344=

CYVR;2006-02-13 03:27;SPECI CYVR 130327Z 09003KT 15SM -SHRA SCT035 BKN046 OVC058 09/ RMK SC3SC2SC2 PCPN VRY LGT=

CYVR;2006-02-13 04:00;METAR CYVR 130400Z 05006KT 15SM -SHRA SCT035 BKN048 OVC055 09/02 A3053 RMK SC3SC2SC2 SLP340=

CYVR;2006-02-13 07:00;METAR CYVR 130700Z 08005KT 12SM -RA SCT018 BKN040 OVC045 07/05 A3055 RMK SC3SC3SC2 SLP346=

CYVR;2006-02-13 09:13;SPECI CYVR 130913Z 30007KT 12SM -RA FEW013 BKN015 OVC024 06/ RMK SC2SC2SC3 VIS LWR N QUAD 8 SM=

CYVR;2006-02-13 10:00;METAR CYVR 131000Z 30008KT 15SM -RA SCT007 BKN019 OVC035 06/06 A3054 RMK SF3SC2SC2 SLP341=

CYVR;2006-02-13 11:00;METAR CYVR 131100Z 29013KT 15SM BKN019 OVC070 06/05 A3052 RMK SC5AC3 SLP336=

CYVR;2006-02-13 11:45;SPECI CYVR 131145Z 29012KT 15SM -SHRA SCT019 BKN045 OVC070 06/ RMK SC3SC3AC2=

CYVR;2006-02-13 12:00;METAR CYVR 131200Z 29016KT 15SM -SHRA FEW015 BKN065 OVC100 06/05 A3051 RMK SF2SC3AC2 SLP333=

CYVR;2006-02-13 13:00;METAR CYVR 131300Z 30016G22KT 15SM SCT012 BKN095 OVC100 06/05 A3050 RMK SF3AC3AC2 SLP330=

CYVR;2006-02-13 14:00;METAR CYVR 131400Z 29024G29KT 15SM BKN016 OVC120 06/04 A3049 RMK SC6AC2 SLP326=

CYVR;2006-02-13 15:00;METAR CYVR 131500Z 30023G28KT 15SM OVC028 06/04 A3048 RMK SC8 SLP320=

CYVR;2006-02-13 16:00;METAR CYVR 131600Z 30021G30KT 20SM FEW015 SCT025 BKN170 06/03 A3047 RMK SC1SC3AC3 SLP319=

CYVR;2006-02-13 17:00;METAR CYVR 131700Z 29029G34KT 20SM FEW020 BKN180 06/02 A3046 RMK SC2AC5 SLP314=

CYVR;2006-02-13 18:00;METAR CYVR 131800Z 29029G36KT 20SM FEW020 SCT120 BKN190 06/01 A3045 RMK SC2AC2AC3 SLP312=

CYVR;2006-02-13 20:00;METAR CYVR 132000Z 29035G42KT 20SM FEW020 FEW120 FEW180 07/02 A3042 RMK SC1AC1AC1 SLP301=

CYVR;2006-02-13 21:00;METAR CYVR 132100Z 29036G42KT 30SM FEW020 FEW180 08/01 A3039 RMK SC1AC1 SLP292=

CYVR;2006-02-13 23:00;METAR CYVR 132300Z 29032G38KT 30SM FEW035 FEW180 08/01 A3037 RMK SC2AC1 SLP283=

CYVR;2006-02-14 00:00;METAR CYVR 140000Z 23032G38KT 30SM FEW035 07/M00 A3036 RMK SC2 SLP282=

CYVR;2006-02-14 01:00;METAR CYVR 140100Z 30027G33KT 30SM FEW035 06/00 A3035 RMK SC2 SLP277=

CYVR;2006-02-14 02:00;METAR CYVR 140200Z 30028G35KT 30SM FEW035 FEW210 06/M01 A3032 RMK SC2CI1 SLP268=

CYVR;2006-02-14 03:00;METAR CYVR 140300Z 30029G35KT 20SM FEW035 SCT240 06/M02 A3030 RMK SC1CI2 SLP262=

CYVR;2006-02-14 04:00;METAR CYVR 140400Z 30028G36KT 20SM FEW240 05/M01 A3031 RMK CI1 SLP265=

CYVR;2006-02-14 05:00;METAR CYVR 140500Z 29029KT 20SM SKC 05/M02 A3031 RMK SLP265=

CYVR;2006-02-14 06:00;METAR CYVR 140600Z 30026G31KT 20SM FEW240 05/M01 A3030 RMK CI1 SLP262=

CYVR;2006-02-14 09:00;METAR CYVR 140900Z 29018KT 20SM FEW180 04/M01 A3028 RMK AC0 SLP255=

CYVR;2006-02-14 13:00;METAR CYVR 141300Z 00000KT 20SM SCT180 M00/M03 A3028 RMK AC3 SLP254=

CYVR;2006-02-14 15:00;METAR CYVR 141500Z 07003KT 20SM BKN150 M01/M03 A3026 RMK AS6 SLP248=

CYVR;2006-02-14 16:00;METAR CYVR 141600Z 11007KT 20SM FEW040 BKN150 00/M02 A3028 RMK SC2AC3 SLP255=

CYVR;2006-02-14 17:00;METAR CYVR 141700Z 34003KT 20SM FEW040 BKN140 03/M02 A3029 RMK SC2AC2 SLP258=

CYVR;2006-02-14 18:00;METAR CYVR 141800Z 14005KT 30SM FEW040 FEW090 SCT140 05/M01 A3031 RMK SC2AC1AC2 SLP263=

CYVR;2006-02-14 19:00;METAR CYVR 141900Z 24005KT 30SM FEW040 FEW210 06/M02 A3031 RMK SC1CI2 SLP263=

CYVR;2006-02-14 20:00;METAR CYVR 142000Z 29006KT 30SM FEW025 FEW060 FEW210 05/M01 A3031 RMK SF1SC1CI1 TCU ASOCT SLP263=

CYVR;2006-02-14 21:00;METAR CYVR 142100Z 29009KT 30SM FEW035 FEW090 05/00 A3029 RMK SC2AC1 TCU ASOCTD SLP257=

CYVR;2006-02-14 22:00;METAR CYVR 142200Z 29009KT 30SM FEW030 FEW090 06/M01 A3027 RMK SC2AC1 SLP252=

CYVR;2006-02-14 23:00;METAR CYVR 142300Z 30012KT 30SM FEW030 SCT090 06/M01 A3027 RMK SC2AC1 SLP249=

CYVR;2006-02-15 00:00;METAR CYVR 150000Z 31012KT 30SM FEW035 FEW090 FEW210 05/M00 A3026 RMK SF1AC1CI1 SLP248=

CYVR;2006-02-15 01:00;METAR CYVR 150100Z 31012KT 30SM FEW035 FEW090 04/M02 A3026 RMK SC1AC1 SLP248=

CYVR;2006-02-15 02:00;METAR CYVR 150200Z 31007KT 30SM FEW090 03/M02 A3027 RMK AC1 SLP250=

CYVR;2006-02-15 03:00;METAR CYVR 150300Z 11003KT 20SM FEW210 03/M03 A3028 RMK CI1 SLP255=

CYVR;2006-02-15 05:00;METAR CYVR 150500Z 00000KT 20SM FEW240 02/M04 A3030 RMK CI0 SLP259=

CYVR;2006-02-15 06:00;METAR CYVR 150600Z 10005KT 20SM SKC 02/M03 A3031 RMK SLP263=

CYVR;2006-02-15 07:00;METAR CYVR 150700Z 09005KT 20SM SKC 00/M06 A3032 RMK SLP266=

CYVR;2006-02-15 08:00;METAR CYVR 150800Z 36002KT 20SM SKC 01/M07 A3032 RMK SLP267=

CYVR;2006-02-15 09:00;METAR CYVR 150900Z 00000KT 20SM SKC M00/M07 A3032 RMK SLP267=

CYVR;2006-02-15 10:00;METAR CYVR 151000Z 08004KT 20SM FEW120 SCT220 M00/M08 A3032 RMK AC1CI1 SLP267=

CYVR;2006-02-15 11:00;METAR CYVR 151100Z 09004KT 20SM FEW220 00/M08 A3032 RMK CI1 SLP267=

CYVR;2006-02-15 12:00;METAR CYVR 151200Z 05003KT 20SM FEW220 M01/M09 A3031 RMK CI1 SLP263=

CYVR;2006-02-15 13:00;METAR CYVR 151300Z 35002KT 20SM FEW220 M03/M08 A3031 RMK CI0 SLP264=

CYVR;2006-02-15 14:00;METAR CYVR 151400Z 04003KT 20SM FEW220 M03/M08 A3031 RMK CI0 SLP263=

CYVR;2006-02-15 15:00;METAR CYVR 151500Z 09003KT 30SM FEW040 M00/M09 A3030 RMK SC1 TR SC SLP261=

CYVR;2006-02-15 16:00;METAR CYVR 151600Z 05006KT 30SM FEW040 M01/M09 A3031 RMK SC1 TR SC SLP264=

CYVR;2006-02-15 17:00;METAR CYVR 151700Z 08006KT 30SM FEW040 03/M07 A3031 RMK SC1 TR SC SLP264=

CYVR;2006-02-15 18:00;METAR CYVR 151800Z 00000KT 30SM FEW040 05/M08 A3031 RMK SC1 SLP263=

CYVR;2006-02-15 19:00;METAR CYVR 151900Z 23003KT 30SM FEW040 FEW150 06/M09 A3030 RMK SC1AC1 SLP262=

CYVR;2006-02-15 20:00;METAR CYVR 152000Z 24008KT 30SM FEW040 FEW220 06/M09 A3030 RMK SC1CI1 SLP261=

CYVR;2006-02-15 22:00;METAR CYVR 152200Z 28011KT 30SM FEW040 BKN210 06/M03 A3028 RMK SC1CI3 SLP255=

CYVR;2006-02-15 23:00;METAR CYVR 152300Z 30011KT 30SM FEW040 FEW120 BKN210 06/M03 A3028 RMK SC1AC1CI3 SLP254=

CYVR;2006-02-16 00:00;METAR CYVR 160000Z 30008KT 30SM FEW040 FEW120 BKN210 06/M03 A3027 RMK SC1AC1CI6 SLP252=

CYVR;2006-02-16 01:00;METAR CYVR 160100Z 30007KT 30SM SCT070 BKN210 05/M04 A3027 RMK AC3CI2 SLP251=

CYVR;2006-02-16 03:00;METAR CYVR 160300Z 05004KT 20SM FEW070 OVC150 04/M04 A3028 RMK AC2AC6 SLP253=

CYVR;2006-02-16 04:26;SPECI CYVR 160426Z 10008KT 20SM BKN130 OVC160 02/ RMK AC6AC1=

CYVR;2006-02-16 05:00;METAR CYVR 160500Z 09005KT 20SM SCT120 OVC130 03/M04 A3028 RMK AC3AC4 SLP253=

CYVR;2006-02-16 06:00;METAR CYVR 160600Z 07005KT 20SM SCT130 02/M05 A3029 RMK AC3 SLP256=

CYVR;2006-02-16 08:00;METAR CYVR 160800Z 00000KT 20SM FEW130 01/M05 A3029 RMK AC1 SLP257=

CYVR;2006-02-16 10:00;METAR CYVR 161000Z 00000KT 20SM SKC M01/M04 A3030 RMK SLP260=

CYVR;2006-02-16 11:00;METAR CYVR 161100Z 09005KT 20SM SKC M01/M04 A3030 RMK SLP260=

CYVR;2006-02-16 12:00;METAR CYVR 161200Z 11006KT 20SM SKC M02/M06 A3030 RMK SLP262=

CYVR;2006-02-16 13:00;METAR CYVR 161300Z 11006KT 20SM FEW120 M01/M05 A3031 RMK AC1 SLP263=

CYVR;2006-02-16 14:00;METAR CYVR 161400Z 11007KT 20SM FEW120 M01/M05 A3031 RMK AC1 SLP265=

CYVR;2006-02-16 15:00;METAR CYVR 161500Z 10003KT 30SM FEW040 FEW200 M02/M06 A3032 RMK CU1CI1 TR CU SLP267=

CYVR;2006-02-16 16:00;METAR CYVR 161600Z 09004KT 30SM FEW040 FEW120 FEW200 M00/M06 A3033 RMK SC1AC1CI1 TR SC SLP272=

CYVR;2006-02-16 17:00;METAR CYVR 161700Z 08007KT 30SM FEW040 FEW120 FEW200 02/M06 A3034 RMK SC1AC1CI0 TR SC SLP275=

CYVR;2006-02-16 19:00;METAR CYVR 161900Z 18003KT 30SM FEW040 05/M09 A3035 RMK SC1 TR SC SLP277=

CYVR;2006-02-16 20:00;METAR CYVR 162000Z 24008KT 30SM FEW040 06/M08 A3034 RMK SC1 TR SC SLP275=

CYVR;2006-02-16 22:00;METAR CYVR 162200Z 25002KT 30SM FEW040 07/M13 A3032 RMK SC1 TR SC SLP267=

CYVR;2006-02-16 23:00;METAR CYVR 162300Z 15007KT 30SM FEW040 07/M12 A3032 RMK SC1 TR SC SLP268=

CYVR;2006-02-17 00:00;METAR CYVR 170000Z 17004KT 30SM FEW040 06/M15 A3032 RMK CU1 TR CU SLP269=

CYVR;2006-02-17 02:00;METAR CYVR 170200Z 09015KT 30SM FEW040 03/M15 A3035 RMK SC1 TR SC SLP276=

CYVR;2006-02-17 02:23;SPECI CYVR 170223Z 11016KT 30SM SKC 02/=

CYVR;2006-02-17 03:00;METAR CYVR 170300Z 09012G18KT 30SM SKC 02/M15 A3038 RMK SLP287=

CYVR;2006-02-17 04:00;METAR CYVR 170400Z 08014KT 30SM SKC 02/M16 A3040 RMK SLP294=

CYVR;2006-02-17 05:00;METAR CYVR 170500Z 04016G21KT 30SM SKC 02/M16 A3041 RMK SLP299=

CYVR;2006-02-17 08:00;METAR CYVR 170800Z 08010G15KT 30SM SKC M01/M16 A3048 RMK SLP321=

CYVR;2006-02-17 09:00;METAR CYVR 170900Z 07012G17KT 30SM SKC M00/M18 A3048 RMK SLP321=

CYVR;2006-02-17 11:00;METAR CYVR 171100Z 06014KT 30SM SKC 00/M20 A3051 RMK SLP331=

CYVR;2006-02-17 12:00;METAR CYVR 171200Z 06014G20KT 30SM SKC M00/M20 A3051 RMK SLP333=

CYVR;2006-02-17 13:00;METAR CYVR 171300Z 07009G15KT 30SM SKC M01/M21 A3053 RMK SLP338=

CYVR;2006-02-17 15:00;METAR CYVR 171500Z 12008KT 30SM SKC M02/M19 A3056 RMK SLP350=

CYVR;2006-02-17 16:00;METAR CYVR 171600Z 11010KT 30SM SKC M02/M18 A3056 RMK SLP350=

CYVR;2006-02-17 17:00;METAR CYVR 171700Z 09010G16KT 30SM SKC 00/M18 A3057 RMK SLP352=

CYVR;2006-02-17 19:00;METAR CYVR 171900Z 08015G20KT 30SM SKC 03/M21 A3057 RMK SLP353=

CYVR;2006-02-17 22:00;METAR CYVR 172200Z 09013KT 30SM SKC 05/M19 A3053 RMK SLP340=

CYVR;2006-02-18 00:00;METAR CYVR 180000Z 08011G17KT 30SM SKC 05/M20 A3051 RMK SLP332=

CYVR;2006-02-18 01:00;METAR CYVR 180100Z 12010KT 30SM SKC 03/M19 A3050 RMK SLP328=

CYVR;2006-02-18 03:00;METAR CYVR 180300Z 34002KT 30SM FEW230 01/M12 A3050 RMK CI0 SLP330=

CYVR;2006-02-18 04:00;METAR CYVR 180400Z 15003KT 30SM SKC 02/M14 A3050 RMK SLP328=

CYVR;2006-02-18 05:00;METAR CYVR 180500Z 00000KT 30SM SKC M01/M15 A3050 RMK SLP329=

CYVR;2006-02-18 07:00;METAR CYVR 180700Z 11002KT 30SM FEW220 M00/M10 A3050 RMK CI0 SLP328=

CYVR;2006-02-18 08:00;METAR CYVR 180800Z 06004KT 30SM FEW220 M03/M11 A3049 RMK CI0 SLP325=

CYVR;2006-02-18 10:00;METAR CYVR 181000Z 34004KT 30SM SKC M04/M12 A3048 RMK SLP322=

CYVR;2006-02-18 11:00;METAR CYVR 181100Z 06004KT 30SM SKC M01/M14 A3047 RMK SLP317=

CYVR;2006-02-18 12:00;METAR CYVR 181200Z 11004KT 30SM SKC M02/M14 A3046 RMK SLP314=

CYVR;2006-02-18 13:00;METAR CYVR 181300Z 00000KT 30SM FEW240 M02/M14 A3045 RMK CI2 SLP311=

CYVR;2006-02-18 14:00;METAR CYVR 181400Z 12004KT 30SM BKN240 M02/M13 A3045 RMK CI4 SLP310=

CYVR;2006-02-18 15:00;METAR CYVR 181500Z 00000KT 30SM BKN220 M03/M13 A3044 RMK CI3 SLP308=

CYVR;2006-02-18 16:00;METAR CYVR 181600Z 00000KT 30SM BKN220 M03/M12 A3044 RMK CI2 SLP309=

CYVR;2006-02-18 17:00;METAR CYVR 181700Z 01004KT 30SM BKN220 01/M08 A3044 RMK CI2 SLP309=

CYVR;2006-02-18 19:00;METAR CYVR 181900Z 24005KT 30SM SCT210 05/M10 A3043 RMK CI2 SLP303=

CYVR;2006-02-18 20:00;METAR CYVR 182000Z 32007KT 30SM BKN210 05/M12 A3041 RMK CI2 SLP299=

CYVR;2006-02-18 21:00;METAR CYVR 182100Z 30011KT 30SM BKN210 05/M07 A3039 RMK CI2 SLP290=

CYVR;2006-02-18 22:00;METAR CYVR 182200Z 30010KT 30SM SCT160 BKN210 05/M05 A3037 RMK AC2CI2 SLP284=

CYVR;2006-02-19 00:00;METAR CYVR 190000Z 28010KT 30SM BKN220 04/M09 A3035 RMK CI3 SLP279=

CYVR;2006-02-19 02:00;METAR CYVR 190200Z 29006KT 30SM BKN210 01/M06 A3035 RMK CI2 SLP276=

CYVR;2006-02-19 03:00;METAR CYVR 190300Z 30009KT 30SM SCT220 02/M04 A3035 RMK CI2 SLP277=

CYVR;2006-02-19 05:00;METAR CYVR 190500Z 36003KT 30SM FEW240 01/M05 A3035 RMK CI2 WND EST SLP279=

CYVR;2006-02-19 06:00;METAR CYVR 190600Z 05002KT 30SM FEW240 01/M06 A3035 RMK CI1 WND ESTD SLP279=

CYVR;2006-02-19 08:00;METAR CYVR 190800Z 00000KT 30SM SKC M02/M08 A3035 RMK SLP279=

CYVR;2006-02-19 09:00;METAR CYVR 190900Z 00000KT 30SM SKC M00/M05 A3035 RMK SLP279=

CYVR;2006-02-19 10:00;METAR CYVR 191000Z 09003KT 30SM SKC M02/M06 A3036 RMK SLP280=

CYVR;2006-02-19 11:00;METAR CYVR 191100Z 09004KT 30SM FEW230 M03/M06 A3035 RMK CI0 SLP279=

CYVR;2006-02-19 12:00;METAR CYVR 191200Z 09002KT 30SM SKC M03/M06 A3035 RMK SLP277=

CYVR;2006-02-19 13:00;METAR CYVR 191300Z 00000KT 30SM SKC M04/M07 A3035 RMK SLP278=

CYVR;2006-02-19 14:00;METAR CYVR 191400Z 13002KT 30SM SKC M04/M08 A3035 RMK FROIN SLP277=

CYVR;2006-02-19 15:00;METAR CYVR 191500Z 12004KT 30SM FEW210 M03/M07 A3035 RMK CI0 SLP279=

CYVR;2006-02-19 16:00;METAR CYVR 191600Z 06003KT 30SM FEW210 M03/M07 A3037 RMK CI0 SLP284=

CYVR;2006-02-19 17:00;METAR CYVR 191700Z 12006KT 30SM FEW210 01/M06 A3037 RMK CI1 SLP284=

CYVR;2006-02-19 21:00;METAR CYVR 192100Z 24004KT 30SM OVC210 05/M03 A3034 RMK CI7 SLP274=

CYVR;2006-02-19 22:00;METAR CYVR 192200Z 23005KT 30SM OVC210 05/M04 A3032 RMK CI7 SLP268=

CYVR;2006-02-19 23:00;METAR CYVR 192300Z 25003KT 30SM BKN170 OVC220 05/M04 A3032 RMK AS5CS2 SLP266=

CYVR;2006-02-20 01:00;METAR CYVR 200100Z 00000KT 30SM SCT150 OVC220 04/M05 A3030 RMK AS3CS2 SLP262=

CYVR;2006-02-20 03:00;METAR CYVR 200300Z 03003KT 30SM FEW160 BKN210 02/M05 A3032 RMK AS2CI2 SLP267=

CYVR;2006-02-20 04:00;METAR CYVR 200400Z 10004KT 30SM FEW150 FEW220 01/M05 A3032 RMK AC1CI1 SLP266=

CYVR;2006-02-20 06:00;METAR CYVR 200600Z 07006KT 30SM FEW160 FEW230 M01/M05 A3032 RMK AC1CI1 SLP268=

CYVR;2006-02-20 08:00;METAR CYVR 200800Z 10005KT 30SM FEW200 M00/M04 A3032 RMK CI1 SLP267=

CYVR;2006-02-20 10:00;METAR CYVR 201000Z 09004KT 30SM FEW230 M01/M05 A3033 RMK CI2 SLP271=

CYVR;2006-02-20 11:00;METAR CYVR 201100Z 09002KT 30SM FEW230 M01/M05 A3032 RMK CI2 SLP267=

CYVR;2006-02-20 12:00;METAR CYVR 201200Z 10004KT 30SM FEW150 BKN230 M01/M05 A3031 RMK AC2CI3 SLP265=

CYVR;2006-02-20 13:00;METAR CYVR 201300Z 09005KT 30SM SCT160 BKN230 M01/M05 A3031 RMK AC3CI2 SLP263=

CYVR;2006-02-20 14:00;METAR CYVR 201400Z 11006KT 30SM SCT120 BKN160 M00/M05 A3030 RMK AC3AC2 SLP260=

CYVR;2006-02-20 15:00;METAR CYVR 201500Z 10003KT 20SM FEW065 SCT085 BKN140 M01/M05 A3030 RMK SC2AC2AC4 SLP262=

CYVR;2006-02-20 16:00;METAR CYVR 201600Z 07005KT 15SM FEW050 SCT070 BKN110 M00/M04 A3031 RMK SC2AC2AC3 FU SLP264=

CYVR;2006-02-20 16:38;SPECI CYVR 201638Z 09005KT 15SM -SHPL BKN059 BKN110 01/ RMK SC5AC2 PCPN VRG LGT=

CYVR;2006-02-20 17:49;SPECI CYVR 201749Z 09008KT 15SM BKN058 OVC120 02/ RMK SC6AC2=

CYVR;2006-02-20 19:00;METAR CYVR 201900Z 09009KT 15SM BKN055 OVC120 03/M04 A3032 RMK SC6AC2 SLP267=

CYVR;2006-02-20 20:00;METAR CYVR 202000Z 09007KT 15SM FEW030 BKN052 OVC120 04/M04 A3032 RMK SC2SC6AC1 SLP269=

CYVR;2006-02-20 21:00;METAR CYVR 202100Z 11007KT 15SM FEW030 OVC051 04/M04 A3032 RMK SC2SC6 SLP267=

CYVR;2006-02-20 22:00;METAR CYVR 202200Z 10006KT 15SM FEW030 OVC048 05/M03 A3030 RMK SC2SC6 SLP262=

CYVR;2006-02-20 23:00;METAR CYVR 202300Z 12007KT 20SM FEW030 OVC045 04/M02 A3029 RMK SC2SC6 SLP258=

CYVR;2006-02-21 00:00;METAR CYVR 210000Z 11008KT 15SM FEW030 BKN047 OVC058 04/M02 A3029 RMK SC2SC3SC2 SLP257=

CYVR;2006-02-21 01:00;METAR CYVR 210100Z 12006KT 15SM FEW030 BKN043 OVC056 04/M02 A3029 RMK SC2SC4SC2 SLP258=

CYVR;2006-02-21 05:00;METAR CYVR 210500Z 09004KT 15SM SCT023 SCT039 OVC053 03/M02 A3030 RMK SC3SC1SC4 SLP262=

CYVR;2006-02-21 08:00;METAR CYVR 210800Z 10006KT 15SM OVC025 03/M02 A3029 RMK SC8 SLP258=

CYVR;2006-02-21 09:00;METAR CYVR 210900Z 09006KT 15SM BKN013 OVC025 03/M01 A3029 RMK SC5SC3 SLP258=

CYVR;2006-02-21 09:26;SPECI CYVR 210926Z 09006KT 15SM SCT013 OVC018 03/ RMK SC4SC4=

CYVR;2006-02-21 10:54;SPECI CYVR 211054Z 10004KT 15SM -RA OVC012 02/ RMK SC8=

CYVR;2006-02-21 11:00;METAR CYVR 211100Z 08003KT 15SM -DZ OVC013 02/00 A3028 RMK ST8 SLP253=

CYVR;2006-02-21 12:00;METAR CYVR 211200Z 08005KT 10SM -DZ OVC013 02/00 A3027 RMK ST8 SLP250=

CYVR;2006-02-21 13:00;METAR CYVR 211300Z 09006KT 15SM -DZ OVC012 02/01 A3027 RMK ST8 PCPN VRY LGT SLP250=

CYVR;2006-02-21 13:24;SPECI CYVR 211324Z 10006KT 15SM OVC011 02/ RMK ST8=

CYVR;2006-02-21 14:00;METAR CYVR 211400Z 09005KT 12SM OVC011 02/01 A3026 RMK ST8 SLP247=

CYVR;2006-02-21 15:00;METAR CYVR 211500Z 09003KT 10SM OVC011 02/01 A3027 RMK ST8 VIS N QUAD LWR 5 SM SLP249=

CYVR;2006-02-21 17:48;SPECI CYVR 211748Z 10004KT 8SM -DZ BKN009 OVC015 03/ RMK ST7SC1 VIS LWR NW - E 4 SM=

CYVR;2006-02-21 18:00;METAR CYVR 211800Z 10004KT 8SM -DZ OVC009 03/02 A3027 RMK ST8 VIS LWR=

CYVR;2006-02-21 19:19;SPECI CYVR 211919Z 08003KT 7SM BKN011 OVC020 04/ RMK ST7SC1 VIS LWR=

CYVR;2006-02-21 20:00;METAR CYVR 212000Z 00000KT 8SM SCT011 OVC032 05/02 A3026 RMK ST4SC4 VIS LWR NW-E 4 SM SLP246=

CYVR;2006-02-21 21:00;METAR CYVR 212100Z 29003KT 10SM FEW011 BKN030 OVC061 06/02 A3024 RMK ST2SC3SC2 VIS LWR NW-E 4 SM SLP240=

CYVR;2006-02-21 22:00;METAR CYVR 212200Z 22004KT 8SM FEW011 SCT034 OVC056 06/02 A3022 RMK ST2SC2SC4 SLP235=

CYVR;2006-02-21 23:00;METAR CYVR 212300Z 21002KT 10SM FEW011 BKN032 OVC060 06/01 A3022 RMK ST2SC5SC2 SLP232=

CYVR;2006-02-22 00:00;METAR CYVR 220000Z 00000KT 10SM FEW011 BKN033 OVC060 06/02 A3020 RMK ST2SC5SC2 SLP228=

CYVR;2006-02-22 01:00;METAR CYVR 220100Z 00000KT 15SM FEW011 SCT033 BKN050 06/01 A3018 RMK ST2SC2SC3 SLP221=

CYVR;2006-02-22 02:00;METAR CYVR 220200Z 00000KT 15SM FEW011 BKN057 BKN072 05/02 A3019 RMK ST2SC3AC2 VIS LWR NE QUAD 5 SM SLP222=

CYVR;2006-02-22 03:00;METAR CYVR 220300Z 18002KT 10SM FEW011 SCT036 BKN057 BKN064 05/02 A3018 RMK ST2SC2SC2SC2 VIS LWR NW - E 5 SM SLP221=

CYVR;2006-02-22 04:00;METAR CYVR 220400Z 02003KT 15SM BKN039 BKN070 04/01 A3017 RMK SC5AC1 VIS LWR N QUAD 8 SM SLP217=

CYVR;2006-02-22 05:00;METAR CYVR 220500Z 00000KT 15SM FEW040 SCT070 03/02 A3017 RMK SC2AC1 VIS LWR N QUAD 8 SM SLP217=

CYVR;2006-02-22 07:00;METAR CYVR 220700Z 00000KT 15SM FEW015 SCT045 BKN063 04/02 A3018 RMK SF1SC2SC1 VIS N QUAD 8 SM SLP219=

CYVR;2006-02-22 08:00;METAR CYVR 220800Z 16003KT 15SM FEW015 SCT062 BKN240 03/01 A3017 RMK SF1SC2CI1 VIS NW - NE QUAD 6 SM SLP217=

CYVR;2006-02-22 10:00;METAR CYVR 221000Z 20007KT 15SM FEW020 BKN043 BKN067 03/02 A3018 RMK SC1SC4AC2 VIS N QUAD 10 SM SLP219=

CYVR;2006-02-22 11:00;METAR CYVR 221100Z 27010KT 15SM FEW020 SCT045 BKN062 05/03 A3018 RMK SC1SC2SC2 SLP221=

CYVR;2006-02-22 12:00;METAR CYVR 221200Z 25012KT 15SM FEW020 SCT050 BKN065 05/03 A3018 RMK SC1SC2SC2 SLP219=

CYVR;2006-02-22 13:00;METAR CYVR 221300Z 26012KT 15SM FEW020 BKN065 05/03 A3018 RMK SC1SC2 SLP220=

CYVR;2006-02-22 14:00;METAR CYVR 221400Z 26015KT 15SM FEW020 SCT065 05/04 A3018 RMK SC1SC2 SLP220=

CYVR;2006-02-22 15:00;METAR CYVR 221500Z 27016KT 15SM FEW020 FEW025 BKN065 OVC070 06/04 A3018 RMK SF1SC1SC4AC2 SLP221=

CYVR;2006-02-22 16:00;METAR CYVR 221600Z 27017KT 20SM FEW020 BKN071 06/02 A3019 RMK SC2AC5 SLP224=

CYVR;2006-02-22 17:00;METAR CYVR 221700Z 27019KT 20SM FEW020 BKN076 06/02 A3020 RMK SC2AC4 SLP228=

CYVR;2006-02-22 18:00;METAR CYVR 221800Z 28015KT 20SM FEW020 BKN072 BKN150 07/02 A3021 RMK SC1AC5AC1 SLP229=

CYVR;2006-02-22 19:00;METAR CYVR 221900Z 28017KT 30SM FEW020 BKN071 07/03 A3022 RMK SC1AC6 SLP232=

CYVR;2006-02-22 20:00;METAR CYVR 222000Z 28014KT 30SM FEW020 BKN076 OVC180 08/03 A3021 RMK SC1AC4AC3 SLP231=

CYVR;2006-02-22 21:00;METAR CYVR 222100Z 27008KT 30SM FEW050 BKN076 OVC100 07/03 A3021 RMK SC2AC3AC3 SLP230=

CYVR;2006-02-22 22:00;METAR CYVR 222200Z 27009KT 30SM FEW050 OVC060 07/03 A3019 RMK SC2ST6 SLP225=

CYVR;2006-02-22 23:00;METAR CYVR 222300Z 28006KT 20SM SCT040 OVC060 08/02 A3018 RMK SC3ST5 SLP221=

CYVR;2006-02-23 00:00;METAR CYVR 230000Z 23003KT 20SM SCT040 OVC055 07/02 A3018 RMK SC3ST5 SLP221=

CYVR;2006-02-23 01:00;METAR CYVR 230100Z 22002KT 20SM FEW018 OVC042 07/00 A3017 RMK SF2ST6 SLP216=

CYVR;2006-02-23 01:36;SPECI CYVR 230136Z 23002KT 15SM -SHRA FEW018 OVC040 07/ RMK SF2ST6=

CYVR;2006-02-23 02:00;METAR CYVR 230200Z 23004KT 15SM -SHRA FEW016 BKN037 OVC056 06/02 A3016 RMK SF2ST3ST2 PCPN VRY LGT SLP214=

CYVR;2006-02-23 02:30;SPECI CYVR 230230Z 22004KT 15SM -DZ FEW018 BKN056 OVC082 06/ RMK SF2SC5AC2=

CYVR;2006-02-23 03:00;METAR CYVR 230300Z 23003KT 15SM -DZ FEW018 BKN046 OVC072 06/03 A3015 RMK SF2ST4AC2 SLP210=

CYVR;2006-02-23 03:12;SPECI CYVR 230312Z 24002KT 15SM -SHRA FEW018 BKN041 OVC067 06/ RMK ST2SC5AC1=

CYVR;2006-02-23 04:00;METAR CYVR 230400Z 00000KT 15SM -DZ FEW020 SCT040 BKN050 OVC068 05/03 A3014 RMK ST2ST2ST2AS2 PCPN VRY LGT SLP206=

CYVR;2006-02-23 05:00;METAR CYVR 230500Z 00000KT 15SM -SHRA FEW020 SCT050 OVC073 05/02 A3012 RMK ST2ST2AS4 SLP201=

CYVR;2006-02-23 06:00;METAR CYVR 230600Z 08004KT 15SM -SHRA FEW020 SCT034 BKN051 OVC076 05/03 A3011 RMK ST2SC2SC2AC2 SLP198=

CYVR;2006-02-23 07:00;METAR CYVR 230700Z 02003KT 15SM -SHRA FEW020 BKN055 BKN078 OVC140 05/03 A3011 RMK ST2SC3AC2AC2 PCPN VRY LGT SLP198=

CYVR;2006-02-23 10:00;METAR CYVR 231000Z 29006KT 15SM -SHRA FEW020 BKN029 OVC045 04/03 A3009 RMK ST1SC6SC2 SLP191=

CYVR;2006-02-23 11:00;METAR CYVR 231100Z 29009KT 15SM -RA BKN029 OVC051 05/03 A3008 RMK SC6SC2 SLP187=

CYVR;2006-02-23 12:00;METAR CYVR 231200Z 29010KT 15SM -RA FEW007 SCT014 OVC019 05/03 A3006 RMK SF2SC2SC4 SLP181=

CYVR;2006-02-23 13:00;METAR CYVR 231300Z 29011KT 15SM -RA FEW017 BKN029 OVC056 04/03 A3005 RMK SF2SC5SC2 SLP177=

CYVR;2006-02-23 14:00;METAR CYVR 231400Z 30012KT 15SM -RA FEW014 BKN019 OVC026 04/02 A3005 RMK SC2SC3SC2 SLP175=

CYVR;2006-02-23 15:00;METAR CYVR 231500Z 29015KT 15SM -RA SCT014 BKN028 OVC055 04/02 A3004 RMK SC3SC3SC2 SLP172=

CYVR;2006-02-23 16:00;METAR CYVR 231600Z 28016KT 15SM -RA FEW011 SCT025 OVC042 04/02 A3003 RMK SC2SC2SC4 SLP168=

CYVR;2006-02-23 16:12;SPECI CYVR 231612Z 28017KT 15SM FEW009 SCT025 OVC045 04/ RMK SC2SC2SC4=

CYVR;2006-02-23 19:00;METAR CYVR 231900Z 28024G31KT 20SM FEW010 SCT060 BKN170 05/01 A3003 RMK SF1SC2AC3 SLP169=

CYVR;2006-02-23 20:00;METAR CYVR 232000Z 29026G33KT 30SM FEW010 BKN081 BKN170 05/00 A3004 RMK SF1AC4AC1 SLP172=

CYVR;2006-02-23 21:00;METAR CYVR 232100Z 28027KT 30SM FEW025 BKN081 05/00 A3005 RMK SC1AC5 TCU ASOCTD SLP175=

CYVR;2006-02-23 22:00;METAR CYVR 232200Z 29027G34KT 30SM SCT080 BKN100 07/M02 A3004 RMK AC4AC1 TCU ASOCTD SLP173=

CYVR;2006-02-24 00:00;METAR CYVR 240000Z 29030G36KT 30SM FEW060 FEW120 06/M06 A3006 RMK SC1AC2 TCU ASOCTD SLP179=

CYVR;2006-02-24 01:00;METAR CYVR 240100Z 29025G36KT 30SM FEW060 FEW120 05/M05 A3009 RMK SC1AC2 SLP188=

CYVR;2006-02-24 03:00;METAR CYVR 240300Z 30022G33KT 30SM FEW120 FEW220 04/M06 A3011 RMK AC1CI1 SLP198=

CYVR;2006-02-24 04:00;METAR CYVR 240400Z 31025G30KT 30SM SKC 04/M05 A3014 RMK SLP205=

CYVR;2006-02-24 05:00;METAR CYVR 240500Z 31020KT 30SM SKC 03/M05 A3016 RMK SLP213=

CYVR;2006-02-24 06:00;METAR CYVR 240600Z 30021G28KT 30SM SKC 03/M04 A3018 RMK SLP221=

CYVR;2006-02-24 07:00;METAR CYVR 240700Z 30018G24KT 30SM SKC 02/M05 A3021 RMK SLP231=

CYVR;2006-02-24 08:00;METAR CYVR 240800Z 30015KT 30SM SKC 02/M05 A3023 RMK SLP237=

CYVR;2006-02-24 09:00;METAR CYVR 240900Z 30013KT 30SM SKC 01/M05 A3025 RMK SLP244=

CYVR;2006-02-24 10:00;METAR CYVR 241000Z 30013KT 30SM SKC 01/M06 A3027 RMK SLP250=

CYVR;2006-02-24 11:00;METAR CYVR 241100Z 31012KT 30SM SKC 00/M07 A3028 RMK SLP254=

CYVR;2006-02-24 12:00;METAR CYVR 241200Z 09006KT 30SM SKC M02/M06 A3030 RMK SLP261=

CYVR;2006-02-24 13:00;METAR CYVR 241300Z 07002KT 30SM SKC M02/M06 A3032 RMK SLP266=

CYVR;2006-02-24 15:00;METAR CYVR 241500Z 09006KT 30SM FEW030 FEW220 M03/M05 A3034 RMK SC1CI0 SLP273=

CYVR;2006-02-24 16:00;METAR CYVR 241600Z 36003KT 30SM FEW025 M02/M05 A3036 RMK SC1 SLP281=

CYVR;2006-02-24 17:00;METAR CYVR 241700Z 10006KT 30SM FEW030 01/M04 A3037 RMK SC1 SLP285=

CYVR;2006-02-24 19:00;METAR CYVR 241900Z 31004KT 30SM FEW030 04/M03 A3039 RMK CU2 SLP290=

CYVR;2006-02-24 20:00;METAR CYVR 242000Z 32005KT 30SM FEW040 04/M03 A3039 RMK CU2 SLP292=

CYVR;2006-02-24 22:00;METAR CYVR 242200Z 30002KT 30SM FEW045 04/M04 A3038 RMK CU2 SLP287=

CYVR;2006-02-24 23:00;METAR CYVR 242300Z 23005KT 30SM FEW045 FEW230 05/M04 A3037 RMK CU1CI1 TCU ASOCTD SLP285=

CYVR;2006-02-25 00:00;METAR CYVR 250000Z 28003KT 30SM FEW045 FEW080 FEW230 04/M05 A3037 RMK CU1AC1CI0 SLP283=

CYVR;2006-02-25 01:00;METAR CYVR 250100Z 27003KT 30SM FEW045 FEW080 FEW230 03/M05 A3035 RMK CU1AC1CI1 SLP279=

CYVR;2006-02-25 01:33;SPECI CYVR 250133Z 28004KT 30SM FEW040 SCT230 02/ RMK SC1CI1=

CYVR;2006-02-25 02:00;METAR CYVR 250200Z 31003KT 30SM FEW050 SCT230 01/M06 A3034 RMK SC1CI1 SLP274=

CYVR;2006-02-25 04:00;METAR CYVR 250400Z 03004KT 30SM FEW210 01/M06 A3034 RMK CI2 SLP274=

CYVR;2006-02-25 06:00;METAR CYVR 250600Z 07007KT 30SM FEW210 M00/M05 A3032 RMK CI2 SLP268=

CYVR;2006-02-25 07:00;METAR CYVR 250700Z 06003KT 30SM SCT210 M00/M06 A3031 RMK CI2 SLP264=

CYVR;2006-02-25 09:00;METAR CYVR 250900Z 01002KT 30SM SCT210 M01/M07 A3030 RMK CI2 SLP259=

CYVR;2006-02-25 10:00;METAR CYVR 251000Z 09003KT 30SM SCT210 M01/M07 A3029 RMK CI2 SLP258=

CYVR;2006-02-25 12:00;METAR CYVR 251200Z 11004KT 30SM FEW180 SCT210 M00/M06 A3025 RMK AC1CI2 SLP243=

CYVR;2006-02-25 13:00;METAR CYVR 251300Z 00000KT 30SM FEW160 BKN210 M02/M06 A3024 RMK AC2CI2 SLP241=

CYVR;2006-02-25 14:00;METAR CYVR 251400Z 35002KT 30SM BKN150 BKN210 M02/M06 A3023 RMK AC5CI2 SLP238=

CYVR;2006-02-25 15:00;METAR CYVR 251500Z 05002KT 30SM FEW130 BKN150 M01/M06 A3022 RMK AC2AS4 SLP235=

CYVR;2006-02-25 16:00;METAR CYVR 251600Z 10003KT 30SM SCT130 OVC150 M01/M05 A3021 RMK AC3AS4 SLP231=

CYVR;2006-02-25 18:00;METAR CYVR 251800Z 10004KT 30SM SCT090 OVC130 02/M05 A3021 RMK AC3AS4 SLP229=

CYVR;2006-02-25 19:00;METAR CYVR 251900Z 00000KT 30SM SCT070 OVC120 02/M07 A3020 RMK AC3AS5 SLP227=

CYVR;2006-02-25 20:00;METAR CYVR 252000Z 32004KT 20SM BKN050 OVC100 03/M07 A3019 RMK SC5AS3 SLP222=

CYVR;2006-02-25 21:00;METAR CYVR 252100Z 21002KT 20SM BKN038 OVC060 03/M07 A3018 RMK SC6SC2 SN SHS N SLP219=

CYVR;2006-02-25 22:00;METAR CYVR 252200Z 02006KT 20SM SCT030 BKN045 OVC060 04/M07 A3014 RMK SC3SC3SC2 VIS N - NE 10 SLP207=

CYVR;2006-02-25 23:00;METAR CYVR 252300Z 07016KT 12SM SCT030 BKN041 OVC050 03/M04 A3010 RMK SC3SC4SC1 SLP193=

CYVR;2006-02-25 23:22;SPECI CYVR 252322Z 07009KT 12SM -SHRASN SCT022 OVC035 03/ RMK SC4SC4=

CYVR;2006-02-26 01:00;METAR CYVR 260100Z 09005KT 10SM -SHRA FEW012 SCT030 OVC051 02/00 A3006 RMK SF1SC2SC5 SLP180=

CYVR;2006-02-26 01:45;SPECI CYVR 260145Z 09005KT 10SM -RA SCT009 BKN018 OVC030 02/ RMK SF3SC3SC2=

CYVR;2006-02-26 02:00;METAR CYVR 260200Z 08008KT 10SM -RA SCT009 BKN020 OVC030 02/00 A3004 RMK SF3SC4SC1 SLP174=

CYVR;2006-02-26 02:22;SPECI CYVR 260222Z 12007KT 8SM -RASN SCT007 OVC025 02/ RMK SF3SC5=

CYVR;2006-02-26 03:26;SPECI CYVR 260326Z 09004KT 8SM -SN SCT007 BKN026 OVC044 01/ RMK SF3SC3SC2=

CYVR;2006-02-26 04:00;METAR CYVR 260400Z 13004KT 12SM -SN FEW007 BKN031 OVC052 01/00 A3002 RMK SF2SC4SC2 SN VRY LGT SLP166=

CYVR;2006-02-26 04:46;SPECI CYVR 260446Z 09005KT 8SM -RA SCT006 OVC029 01/ RMK SC4SC4=

CYVR;2006-02-26 05:00;METAR CYVR 260500Z 09003KT 8SM -RA SCT006 BKN029 OVC044 02/01 A3001 RMK SC4SC2SC2 RA VRY LGT SLP161=

CYVR;2006-02-26 05:44;SPECI CYVR 260544Z 24002KT 8SM FEW007 BKN023 BKN044 OVC072 02/ RMK SC2SC3SC2AC1=

CYVR;2006-02-26 06:54;SPECI CYVR 260654Z 18003KT 8SM SCT006 BKN010 OVC021 02/ RMK SF3SC2SC2=

CYVR;2006-02-26 07:00;METAR CYVR 260700Z 17005KT 8SM SCT006 BKN010 OVC020 02/01 A3000 RMK SF4SC2SC2 SLP158=

CYVR;2006-02-26 07:48;SPECI CYVR 260748Z 16005KT 8SM SCT004 BKN009 OVC024 02/ RMK SF3SC3SC2=

CYVR;2006-02-26 08:28;SPECI CYVR 260828Z 11003KT 8SM -RA FEW006 SCT013 BKN029 OVC046 02/ RMK SF2SC2SC2SC2=

CYVR;2006-02-26 09:00;METAR CYVR 260900Z 08003KT 8SM -RA FEW006 SCT022 BKN042 OVC056 02/01 A2996 RMK SF2SC2SC2SC2 SLP146=

CYVR;2006-02-26 10:00;METAR CYVR 261000Z 07007KT 8SM -RA FEW007 SCT031 OVC051 02/01 A2992 RMK SF2SC2SC4 SLP133=

CYVR;2006-02-26 10:25;SPECI CYVR 261025Z 10005KT 10SM FEW007 SCT031 BKN053 OVC075 02/ RMK SF2SC2SC4AC1=

CYVR;2006-02-26 11:00;METAR CYVR 261100Z 18007KT 12SM SCT030 BKN046 OVC075 02/01 A2992 RMK SC3SC3AC2 SLP133=

CYVR;2006-02-26 11:26;SPECI CYVR 261126Z 16004KT 10SM -RA SCT030 BKN046 OVC075 03/ RMK SC3SC4AC1=

CYVR;2006-02-26 12:00;METAR CYVR 261200Z 09002KT 10SM -RA FEW008 FEW025 BKN044 OVC070 02/01 A2990 RMK SF1SC2SC5AC1 SLP124=

CYVR;2006-02-26 13:00;METAR CYVR 261300Z 07004KT 8SM -RA FEW008 FEW025 OVC042 03/02 A2987 RMK SF1SC1SC6 SLP114=

CYVR;2006-02-26 14:00;METAR CYVR 261400Z 11004KT 8SM -RA FEW025 OVC044 03/02 A2985 RMK SC2SC6 SLP107=

CYVR;2006-02-26 15:00;METAR CYVR 261500Z 23003KT 12SM -RA FEW020 OVC043 04/03 A2983 RMK SC2SC6 SLP101=

CYVR;2006-02-26 16:00;METAR CYVR 261600Z 11006KT 15SM -RA FEW011 BKN040 OVC058 04/03 A2980 RMK SC2SC4SC2 SLP091=

CYVR;2006-02-26 17:00;METAR CYVR 261700Z 14003KT 15SM -RA FEW010 BKN042 OVC055 04/04 A2979 RMK SF2SC4SC2 SLP089=

CYVR;2006-02-26 17:41;SPECI CYVR 261741Z 00000KT 15SM FEW010 SCT040 BKN070 OVC120 05/ RMK SF1SC2AC3AS1=

CYVR;2006-02-26 19:00;METAR CYVR 261900Z 21005KT 15SM FEW008 SCT045 BKN090 OVC130 06/04 A2975 RMK SF1SC2AC2AS2 SLP073=

CYVR;2006-02-26 20:00;METAR CYVR 262000Z 20007KT 15SM FEW005 SCT045 BKN080 OVC120 06/05 A2971 RMK SF1SC2AC3AS2 SLP062=

CYVR;2006-02-26 21:00;METAR CYVR 262100Z 24004KT 15SM FEW006 SCT025 BKN055 OVC080 06/04 A2969 RMK SF2SC2SC2AC2 SLP054=

CYVR;2006-02-26 21:26;SPECI CYVR 262126Z 14002KT 12SM -SHRA FEW006 SCT020 BKN041 OVC060 06/ RMK SF2SC1SC3SC2=

CYVR;2006-02-26 23:00;METAR CYVR 262300Z 09004KT 10SM -RA FEW008 FEW025 BKN044 OVC060 06/05 A2961 RMK SF2SC1SC4SC2 SLP027=

CYVR;2006-02-27 00:00;METAR CYVR 270000Z 08007KT 12SM -RA FEW008 FEW025 BKN045 OVC060 07/06 A2957 RMK SF1SC1SC6SC1 SLP015=

CYVR;2006-02-27 01:00;METAR CYVR 270100Z 21005KT 8SM -RA FEW009 BKN042 OVC050 07/06 A2955 RMK SF2SC5SC2 SLP007=

CYVR;2006-02-27 02:00;METAR CYVR 270200Z 00000KT 5SM -RA BR FEW011 SCT025 BKN041 OVC053 06/05 A2952 RMK SF1SC2SC4SC1 SLP996=

CYVR;2006-02-27 04:00;METAR CYVR 270400Z 08006KT 8SM -RA FEW011 SCT023 OVC032 06/05 A2946 RMK SF2SC2SC5 SLP977=

CYVR;2006-02-27 05:00;METAR CYVR 270500Z 07008KT 8SM -RA FEW011 BKN026 OVC044 07/06 A2943 RMK SF2SC4SC2 SLP967=

CYVR;2006-02-27 07:38;SPECI CYVR 270738Z 09017KT 10SM FEW015 BKN030 OVC061 07/ RMK SC2SC6SC1=

CYVR;2006-02-27 08:00;METAR CYVR 270800Z 10013G19KT 12SM FEW017 BKN033 OVC060 07/06 A2936 RMK SC2SC6SC1 SLP942=

CYVR;2006-02-27 11:00;METAR CYVR 271100Z 12017G25KT 12SM BKN022 OVC068 10/07 A2928 RMK SC6AC2 SLP917=

CYVR;2006-02-27 12:00;METAR CYVR 271200Z 14016G25KT 12SM FEW025 BKN069 OVC120 10/07 A2928 RMK SC2AC5AC1 SLP914=

CYVR;2006-02-27 13:00;METAR CYVR 271300Z 13020G28KT 12SM FEW020 BKN064 OVC076 10/07 A2927 RMK SC2SC3AC2 SLP913=

CYVR;2006-02-27 16:00;METAR CYVR 271600Z 19007G17KT 20SM FEW025 SCT045 BKN110 BKN170 11/05 A2937 RMK SC2SC2AC3AC1 SLP947=

CYVR;2006-02-27 17:00;METAR CYVR 271700Z 19020G25KT 20SM FEW025 SCT050 BKN100 BKN170 10/04 A2939 RMK SC1SC3AC2AC1 ACSL SLP952=

CYVR;2006-02-27 18:00;METAR CYVR 271800Z 21016G21KT 20SM FEW025 SCT050 BKN070 OVC110 10/04 A2943 RMK SC1SC3AC2AC1 ACSL SLP966=

CYVR;2006-02-27 19:00;METAR CYVR 271900Z 21012G21KT 20SM FEW030 SCT050 BKN080 OVC110 11/04 A2945 RMK SC1SC2AC2AC2 SLP972=

CYVR;2006-02-27 20:00;METAR CYVR 272000Z 19013G19KT 20SM FEW040 SCT060 BKN090 BKN110 11/04 A2947 RMK SC1SC2AC2AC2 SLP981=

CYVR;2006-02-27 21:00;METAR CYVR 272100Z 22017KT 30SM SCT041 BKN060 BKN090 BKN110 10/04 A2949 RMK SC3SC2AC2AC1 VIS LWR E SLP988=

CYVR;2006-02-27 22:00;METAR CYVR 272200Z 31006KT 20SM SCT040 BKN061 BKN080 09/05 A2950 RMK SC3SC2AC1 SLP989=

CYVR;2006-02-28 00:00;METAR CYVR 280000Z 30022KT 20SM FEW040 BKN055 BKN070 BKN100 07/03 A2952 RMK SC2SC2AC2AC1 SLP997=

CYVR;2006-02-28 01:00;METAR CYVR 280100Z 29018G24KT 20SM FEW035 BKN055 BKN080 06/02 A2953 RMK SC2SC5AC1 SLP001=

CYVR;2006-02-28 02:00;METAR CYVR 280200Z 30016G21KT 20SM FEW030 BKN058 BKN080 06/01 A2954 RMK SC2SC3AC2 SLP003=

CYVR;2006-02-28 04:00;METAR CYVR 280400Z 30016KT 20SM FEW030 SCT060 BKN082 05/00 A2952 RMK SC1SC3AC3 SLP996=

CYVR;2006-02-28 05:00;METAR CYVR 280500Z 30016G21KT 20SM BKN052 OVC075 05/00 A2952 RMK SC6AC2 SLP998=

CYVR;2006-02-28 06:00;METAR CYVR 280600Z 30016KT 20SM BKN050 BKN081 BKN096 04/M00 A2952 RMK SC5AC2AC1 SLP996=

CYVR;2006-02-28 07:00;METAR CYVR 280700Z 31014KT 20SM BKN041 BKN074 OVC091 04/M00 A2950 RMK SC6AC2AC1 SLP990=

CYVR;2006-02-28 08:00;METAR CYVR 280800Z 31014KT 20SM SCT033 BKN042 OVC075 04/01 A2948 RMK SC3SC3AC2 SLP984=

CYVR;2006-02-28 09:00;METAR CYVR 280900Z 31014KT 20SM BKN041 OVC081 04/01 A2945 RMK SC6AC2 SLP973=

CYVR;2006-02-28 11:00;METAR CYVR 281100Z 30019G24KT 20SM BKN036 BKN079 OVC130 04/01 A2941 RMK SC6AC2AC1 SLP961=

CYVR;2006-02-28 12:00;METAR CYVR 281200Z 31022KT 20SM SCT031 BKN048 OVC140 04/01 A2939 RMK SC3SC3AC2 SLP952=

CYVR;2006-02-28 13:00;METAR CYVR 281300Z 30022G27KT 20SM FEW010 SCT037 OVC120 04/02 A2937 RMK SC2SC2AC4 SLP946=

CYVR;2006-02-28 14:00;METAR CYVR 281400Z 30021G29KT 20SM FEW011 SCT040 OVC110 04/02 A2938 RMK SC2SC1AC5 SLP948=

CYVR;2006-02-28 15:00;METAR CYVR 281500Z 30022G31KT 20SM FEW010 BKN044 OVC110 04/01 A2938 RMK SF1SC6AC2 SLP950=

CYVR;2006-02-28 16:00;METAR CYVR 281600Z 30024G29KT 20SM FEW010 BKN044 OVC100 04/02 A2940 RMK SF1SC6AC1 SLP956=

CYVR;2006-02-28 17:00;METAR CYVR 281700Z 30021G26KT 20SM FEW010 BKN046 OVC100 04/02 A2943 RMK SF1SC6AC2 SLP967=

CYVR;2006-02-28 17:49;SPECI CYVR 281749Z 31019KT 20SM -SHRA FEW010 OVC039 04/ RMK SF1SC7 PCPN VRY LGT=

CYVR;2006-02-28 18:00;METAR CYVR 281800Z 30018KT 20SM -SHRA FEW010 BKN039 OVC050 05/02 A2948 RMK SF1SC6SC2 SLP982=

CYVR;2006-02-28 18:06;SPECI CYVR 281806Z 30017G22KT 20SM FEW010 BKN036 OVC050 05/ RMK SF1SC6SC2=

CYVR;2006-02-28 20:00;METAR CYVR 282000Z 29013KT 30SM FEW010 BKN044 BKN090 05/01 A2958 RMK SF1SC5AC2 SLP017=

CYVR;2006-02-28 22:00;METAR CYVR 282200Z 24004KT 30SM FEW035 FEW100 SCT220 07/M00 A2965 RMK CU1AC1CI0 SLP041=

CYVR;2006-03-01 00:00;METAR CYVR 010000Z 24003KT 30SM FEW035 FEW065 BKN220 08/01 A2972 RMK SC1SC1CI1 SLP066=

CYVR;2006-03-01 01:00;METAR CYVR 010100Z 20006KT 30SM FEW045 SCT065 SCT220 07/M01 A2976 RMK SC1CF1CI1 TCU ASOCT SLP077=

CYVR;2006-03-01 03:00;METAR CYVR 010300Z 21008KT 15SM SCT062 BKN084 07/M01 A2982 RMK SC4AC3 SLP098=

CYVR;2006-03-01 05:00;METAR CYVR 010500Z 12006KT 20SM BKN072 BKN085 06/M01 A2986 RMK AC5AC2 SLP113=

CYVR;2006-03-01 06:00;METAR CYVR 010600Z 11007KT 20SM SCT072 BKN085 05/01 A2989 RMK AC3AC4 SLP122=

CYVR;2006-03-01 07:00;METAR CYVR 010700Z 11012KT 15SM SCT016 BKN072 OVC086 05/02 A2991 RMK SC3AC2AC2 SLP127=

CYVR;2006-03-01 07:47;SPECI CYVR 010747Z 11012KT 15SM -SHRA FEW015 OVC068 05/ RMK SC2AC6=

CYVR;2006-03-01 08:39;SPECI CYVR 010839Z 09012KT 12SM FEW015 SCT036 OVC056 05/ RMK SC2SC2SC4=

CYVR;2006-03-01 09:00;METAR CYVR 010900Z 08011KT 12SM FEW015 SCT032 OVC054 04/00 A2993 RMK SC2SC2SC4 SLP135=

CYVR;2006-03-01 11:00;METAR CYVR 011100Z 07009KT 20SM FEW052 SCT085 03/M01 A2992 RMK SC2AC2 SLP133=

CYVR;2006-03-01 11:28;SPECI CYVR 011128Z 07007KT 20SM FEW052 SCT079 02/ RMK SC2AC2=

CYVR;2006-03-01 12:50;SPECI CYVR 011250Z 09008KT 15SM FEW030 OVC062 04/ RMK SC2SC6=

CYVR;2006-03-01 13:00;METAR CYVR 011300Z 10009KT 15SM FEW040 OVC065 04/01 A2991 RMK SC2SC6 SLP127=

CYVR;2006-03-01 14:00;METAR CYVR 011400Z 10009KT 15SM FEW050 BKN070 BKN160 05/00 A2990 RMK SC2AC2AC2 SLP125=

CYVR;2006-03-01 15:00;METAR CYVR 011500Z 10018KT 20SM BKN040 BKN065 06/M00 A2988 RMK SC6SC2 SLP119=

CYVR;2006-03-01 16:00;METAR CYVR 011600Z 09018KT 30SM BKN042 OVC060 07/M00 A2988 RMK SC6SC1 SLP118=

CYVR;2006-03-01 17:00;METAR CYVR 011700Z 09014G20KT 30SM SCT042 OVC092 07/00 A2989 RMK SC3AC4 SLP121=

CYVR;2006-03-01 18:00;METAR CYVR 011800Z 10018G24KT 20SM FEW035 BKN059 OVC066 08/M00 A2988 RMK SF2SC3AS2 SLP117=

CYVR;2006-03-01 21:00;METAR CYVR 012100Z 08016G21KT 30SM FEW045 BKN075 OVC085 10/00 A2983 RMK SC2AS3AS2 VIRGA SLP100=

CYVR;2006-03-01 23:00;METAR CYVR 012300Z 09016G21KT 30SM FEW045 BKN065 OVC085 11/M01 A2978 RMK SC2SC3AS2 SLP085=

CYVR;2006-03-02 00:00;METAR CYVR 020000Z 09012G18KT 30SM FEW050 BKN100 OVC170 11/00 A2976 RMK SF2AS3AS2 LENT SLP079=

CYVR;2006-03-02 02:00;METAR CYVR 020200Z 09016KT 30SM SCT095 BKN170 OVC220 09/00 A2973 RMK AC3AS2CS2 LENT SLP068=

CYVR;2006-03-02 03:00;METAR CYVR 020300Z 10013KT 30SM SCT170 BKN220 08/00 A2973 RMK AC3CS1 SLP069=

CYVR;2006-03-02 04:00;METAR CYVR 020400Z 10013G19KT 20SM SCT190 OVC210 09/M01 A2972 RMK AC3CI2 SLP066=

CYVR;2006-03-02 05:00;METAR CYVR 020500Z 11014KT 20SM SCT180 BKN210 08/M00 A2971 RMK AC3CS2 SLP061=

CYVR;2006-03-02 06:00;METAR CYVR 020600Z 09011KT 20SM SCT180 BKN210 08/M01 A2968 RMK AC3CS3 SLP052=

CYVR;2006-03-02 07:00;METAR CYVR 020700Z 08010KT 20SM SCT170 BKN210 08/M02 A2966 RMK AC3CS2 SLP044=

CYVR;2006-03-02 08:00;METAR CYVR 020800Z 07008KT 20SM SCT130 OVC250 07/M01 A2964 RMK AC3CS2 SLP037=

CYVR;2006-03-02 12:00;METAR CYVR 021200Z 10005G28KT 20SM BKN070 OVC100 11/M01 A2960 RMK AC6AC2 SLP023=

CYVR;2006-03-02 12:10;SPECI CYVR 021210Z 09007KT 20SM -SHRA SCT054 BKN073 OVC100 12/ RMK SC3AC3AC2=

CYVR;2006-03-02 13:00;METAR CYVR 021300Z 13014G21KT 15SM -SHRA SCT050 OVC068 11/01 A2962 RMK SC4AC4 PCPN VRY LGT SLP031=

CYVR;2006-03-02 14:00;METAR CYVR 021400Z 13021G28KT 15SM FEW050 BKN060 OVC070 09/04 A2967 RMK SC2SC2AC3 SLP048=

CYVR;2006-03-02 14:07;SPECI CYVR 021407Z 14021G26KT 15SM -RA SCT048 BKN064 OVC072 09/ RMK SC3SC3AC2=

CYVR;2006-03-02 15:08;SPECI CYVR 021508Z 13021KT 15SM -SHRA BKN051 OVC062 08/ RMK SC6SC2=

CYVR;2006-03-02 15:24;SPECI CYVR 021524Z 13020G30KT 15SM BKN046 BKN062 OVC074 08/ RMK SC5SC2AC2=

CYVR;2006-03-02 16:00;METAR CYVR 021600Z 13018G26KT 15SM FEW035 BKN062 OVC080 07/02 A2974 RMK SC2SC4AC2 SLP071=

CYVR;2006-03-02 17:00;METAR CYVR 021700Z 10017KT 15SM FEW035 SCT045 BKN063 OVC080 07/02 A2978 RMK SC2SC2SC3AC2 SLP085=

CYVR;2006-03-02 19:00;METAR CYVR 021900Z 10019G24KT 20SM BKN039 BKN070 OVC090 08/01 A2983 RMK SC5AC2AC1 SLP103=

CYVR;2006-03-02 20:00;METAR CYVR 022000Z 09015G20KT 30SM SCT040 BKN120 BKN140 08/01 A2986 RMK SC3AC2AC2 SLP112=

CYVR;2006-03-02 22:00;METAR CYVR 022200Z 10012G18KT 30SM FEW045 SCT055 BKN090 OVC110 10/01 A2988 RMK SF2SC2AC2AC2 SLP119=

CYVR;2006-03-02 23:37;SPECI CYVR 022337Z 13012G18KT 30SM -SHRA BKN052 BKN065 OVC090 10/ RMK SC5SC2AC1 PCPN VRY LGT=

CYVR;2006-03-03 00:00;METAR CYVR 030000Z 14008KT 20SM -SHRA BKN055 BKN065 OVC090 10/01 A2991 RMK SC5SC2AC1 PCPN VRY LGT SLP130=

CYVR;2006-03-03 00:14;SPECI CYVR 030014Z 12009KT 20SM SCT055 BKN087 BKN095 10/ RMK SC3AC2AC2=

CYVR;2006-03-03 00:41;SPECI CYVR 030041Z 32009KT 20SM -SHRA BKN045 BKN087 BKN095 09/ RMK SC5AC2AC1 PCPN VRY LGT=

CYVR;2006-03-03 01:00;METAR CYVR 030100Z 34008KT 20SM -SHRA FEW039 BKN045 BKN090 07/03 A2993 RMK SC2SC3AC2 PCPN VRY LGT SLP135=

CYVR;2006-03-03 01:34;SPECI CYVR 030134Z 01005KT 20SM FEW040 SCT055 BKN065 BKN080 08/ RMK SC2SC2SC2AC1=

CYVR;2006-03-03 02:00;METAR CYVR 030200Z 00000KT 20SM BKN040 BKN065 08/02 A2995 RMK SC6SC2 VIRGA SLP141=

CYVR;2006-03-03 02:18;SPECI CYVR 030218Z 08006KT 20SM -SHRA BKN042 OVC076 08/ RMK SC6AC2 PCPN VRY LGT=

CYVR;2006-03-03 03:00;METAR CYVR 030300Z 12012KT 20SM SCT035 SCT040 BKN063 08/02 A2996 RMK SC3SC1SC2 SLP147=

CYVR;2006-03-03 03:08;SPECI CYVR 030308Z 13015KT 20SM -SHRA FEW035 BKN065 BKN071 08/ RMK SC2SC3AC1 PCPN VRY LGT=

CYVR;2006-03-03 03:44;SPECI CYVR 030344Z 10011KT 20SM FEW035 BKN069 07/ RMK SC1AC3=

CYVR;2006-03-03 04:00;METAR CYVR 030400Z 09008KT 20SM FEW065 SCT220 06/03 A2997 RMK SC1CI1 SLP150=

CYVR;2006-03-03 05:00;METAR CYVR 030500Z 08006KT 20SM FEW065 BKN230 05/02 A2998 RMK SC2CI2 SLP152=

CYVR;2006-03-03 06:00;METAR CYVR 030600Z 06008KT 20SM FEW040 SCT230 04/02 A2998 RMK SC2CI2 SLP152=

CYVR;2006-03-03 08:00;METAR CYVR 030800Z 09007KT 20SM FEW047 FEW230 02/01 A2997 RMK SC1CI1 SLP150=

CYVR;2006-03-03 09:00;METAR CYVR 030900Z 11007KT 20SM FEW045 FEW230 02/00 A2996 RMK SC1CI1 SLP145=

CYVR;2006-03-03 10:00;METAR CYVR 031000Z 10006KT 20SM FEW045 02/00 A2995 RMK SC1 SLP141=

CYVR;2006-03-03 11:00;METAR CYVR 031100Z 12004KT 20SM FEW050 03/01 A2993 RMK SC1 SLP135=

CYVR;2006-03-03 12:00;METAR CYVR 031200Z 14002KT 20SM FEW210 02/00 A2990 RMK CI2 SLP125=

CYVR;2006-03-03 13:00;METAR CYVR 031300Z 00000KT 20SM MIFG FEW210 00/M01 A2989 RMK CI2 SLP121=

CYVR;2006-03-03 14:00;METAR CYVR 031400Z 22006KT 20SM FEW060 FEW210 01/00 A2989 RMK SC1CI1 SLP121=

CYVR;2006-03-03 16:00;METAR CYVR 031600Z 10003KT 30SM FEW065 BKN210 03/00 A2988 RMK SC1CI3 SLP117=

CYVR;2006-03-03 17:00;METAR CYVR 031700Z 09003KT 30SM BKN220 06/02 A2987 RMK CI2 SLP115=

CYVR;2006-03-03 18:00;METAR CYVR 031800Z 33002KT 30SM BKN220 07/M00 A2985 RMK CI2 SLP109=

CYVR;2006-03-03 20:00;METAR CYVR 032000Z 31004KT 30SM BKN170 OVC220 08/02 A2981 RMK AS5CI2 SLP096=

CYVR;2006-03-03 21:00;METAR CYVR 032100Z 29006KT 30SM SCT060 BKN140 OVC180 07/02 A2979 RMK SC3AC3AC2 SLP088=

CYVR;2006-03-03 22:00;METAR CYVR 032200Z 32008KT 30SM FEW060 BKN140 OVC180 07/02 A2977 RMK SC2AC3AC2 SLP080=

CYVR;2006-03-03 23:00;METAR CYVR 032300Z 31008KT 30SM SCT140 OVC160 07/03 A2975 RMK AC3AC4 SLP075=

CYVR;2006-03-04 00:00;METAR CYVR 040000Z 30011KT 30SM FEW140 BKN170 OVC180 07/03 A2975 RMK AC2AC3AC2 SLP073=

CYVR;2006-03-04 01:00;METAR CYVR 040100Z 32008KT 30SM BKN170 OVC190 06/03 A2975 RMK AC6AC2 SLP074=

CYVR;2006-03-04 03:00;METAR CYVR 040300Z 31002KT 30SM SCT170 OVC190 06/02 A2973 RMK AC3AC4 SLP069=

CYVR;2006-03-04 08:00;METAR CYVR 040800Z 02004KT 20SM FEW050 BKN100 OVC130 05/01 A2979 RMK SC2AC3AC2 SLP088=

CYVR;2006-03-04 09:00;METAR CYVR 040900Z 01002KT 20SM FEW045 BKN071 OVC087 05/02 A2981 RMK SC2AC3AC3 SLP094=

CYVR;2006-03-04 10:00;METAR CYVR 041000Z 10004KT 20SM FEW045 SCT078 OVC140 05/02 A2983 RMK SC2AC2AC2 SLP101=

CYVR;2006-03-04 11:00;METAR CYVR 041100Z 12007KT 20SM SCT059 BKN073 OVC140 05/01 A2984 RMK SC4AC2AC2 SLP106=

CYVR;2006-03-04 12:00;METAR CYVR 041200Z 09003KT 20SM FEW035 BKN053 OVC073 05/01 A2986 RMK SF2SC5AC2 SLP111=

CYVR;2006-03-04 12:28;SPECI CYVR 041228Z 10002KT 15SM -SHRA FEW035 BKN051 OVC073 05/ RMK SF2SC6AC1=

CYVR;2006-03-04 13:43;SPECI CYVR 041343Z 09005KT 15SM FEW030 BKN051 OVC070 05/ RMK SF2SC6AC1=

CYVR;2006-03-04 14:00;METAR CYVR 041400Z 07005KT 15SM -SHRA FEW030 BKN051 OVC090 05/02 A2991 RMK SF2SC6AC1 PCPN VRY LGT SLP127=

CYVR;2006-03-04 15:43;SPECI CYVR 041543Z 09010KT 15SM FEW030 FEW050 BKN220 05/ RMK SC1SC2CI1=

CYVR;2006-03-04 16:00;METAR CYVR 041600Z 09008KT 15SM FEW030 SCT049 OVC220 05/02 A2993 RMK SC1SC3CI0 SLP137=

CYVR;2006-03-04 17:00;METAR CYVR 041700Z 10010KT 15SM BKN024 OVC053 07/03 A2996 RMK SC6SC2 SLP145=

CYVR;2006-03-04 18:00;METAR CYVR 041800Z 09009KT 15SM BKN027 BKN038 OVC051 07/03 A2998 RMK SC6SC2SC1 SLP152=

CYVR;2006-03-04 19:00;METAR CYVR 041900Z 11010KT 15SM SCT021 BKN036 OVC050 07/03 A2999 RMK SC3SC4SC1 SLP155=

CYVR;2006-03-04 20:00;METAR CYVR 042000Z 13008KT 15SM BKN024 BKN051 08/03 A3000 RMK SC6SC2 SLP158=

CYVR;2006-03-04 21:00;METAR CYVR 042100Z 13009G15KT 15SM BKN024 BKN047 10/01 A3000 RMK SC6SC1 SLP158=

CYVR;2006-03-04 22:00;METAR CYVR 042200Z 14011KT 30SM BKN033 BKN050 10/00 A2998 RMK SC5SC1 SLP154=

CYVR;2006-03-04 23:00;METAR CYVR 042300Z 17010G17KT 30SM FEW038 BKN220 11/00 A2998 RMK SC2CI0 SLP154=

CYVR;2006-03-05 00:00;METAR CYVR 050000Z 14008KT 30SM FEW038 FEW050 BKN220 11/M00 A2998 RMK SC1SC2CI0 SLP152=

CYVR;2006-03-05 01:00;METAR CYVR 050100Z 14004KT 30SM FEW050 OVC220 10/M01 A2997 RMK SC1CI1 SLP149=

CYVR;2006-03-05 04:00;METAR CYVR 050400Z 08004KT 30SM FEW050 SCT240 06/00 A2995 RMK SC1CI1 SLP141=

CYVR;2006-03-05 06:00;METAR CYVR 050600Z 11005KT 30SM FEW050 SCT240 04/M01 A2991 RMK SC1CI2 SLP129=

CYVR;2006-03-05 07:00;METAR CYVR 050700Z 12005KT 30SM BKN240 06/M00 A2990 RMK CI3 SLP126=

CYVR;2006-03-05 09:00;METAR CYVR 050900Z 00000KT 30SM BKN230 04/00 A2989 RMK CI4 SLP121=

CYVR;2006-03-05 11:00;METAR CYVR 051100Z 34002KT 30SM BKN240 03/M01 A2983 RMK CI4 SLP102=

CYVR;2006-03-05 12:00;METAR CYVR 051200Z 00000KT 20SM BKN210 02/M01 A2980 RMK CI5 SLP092=

CYVR;2006-03-05 13:00;METAR CYVR 051300Z 09002KT 20SM FEW170 BKN200 03/M02 A2978 RMK AC2CI3 SLP086=

CYVR;2006-03-05 14:00;METAR CYVR 051400Z 09008KT 20SM SCT100 BKN170 05/M01 A2976 RMK AC4AC3 SLP079=

CYVR;2006-03-05 15:00;METAR CYVR 051500Z 10007KT 20SM BKN072 OVC100 06/M02 A2975 RMK AC6AC2 SLP075=

CYVR;2006-03-05 16:00;METAR CYVR 051600Z 12009KT 20SM BKN053 OVC086 07/M03 A2977 RMK SC6AC2 SLP080=

CYVR;2006-03-05 16:45;SPECI CYVR 051645Z 13012G18KT 20SM -SHRA OVC037 09/ RMK SC8 CIG RAG=

CYVR;2006-03-05 17:00;METAR CYVR 051700Z 14008G24KT 15SM -SHRA BKN036 OVC066 10/M01 A2979 RMK SC5AC3 SLP087=

CYVR;2006-03-05 18:00;METAR CYVR 051800Z 13010G19KT 12SM -SHRA BKN033 OVC047 09/01 A2980 RMK SC6SC2 CIG RAG SLP093=

CYVR;2006-03-05 19:00;METAR CYVR 051900Z 09011G17KT 10SM -SHRA BKN037 OVC049 07/03 A2980 RMK SC6SC2 SLP092=

CYVR;2006-03-05 20:00;METAR CYVR 052000Z 04011G16KT 10SM -RA OVC032 07/04 A2979 RMK SC8 SLP089=

CYVR;2006-03-05 21:00;METAR CYVR 052100Z 06011KT 12SM -RA BKN031 BKN044 OVC056 08/05 A2978 RMK SC5SC2SC1 SLP083=

CYVR;2006-03-05 22:00;METAR CYVR 052200Z 09011KT 15SM -RA SCT046 BKN055 OVC220 10/05 A2977 RMK SC3SC2CI2 PCPN VRY LGT SLP080=

CYVR;2006-03-05 22:42;SPECI CYVR 052242Z 10012KT 20SM BKN054 OVC120 11/ RMK SC6AC2=

CYVR;2006-03-06 00:00;METAR CYVR 060000Z 07006KT 20SM FEW040 BKN061 OVC110 10/04 A2978 RMK SC2SC6AC1 SLP083=

CYVR;2006-03-06 00:31;SPECI CYVR 060031Z 08008KT 20SM -SHRA BKN039 OVC056 09/ RMK SC5SC3=

CYVR;2006-03-06 01:00;METAR CYVR 060100Z 07009KT 20SM -SHRA FEW040 BKN064 OVC076 09/05 A2978 RMK SC2SC5AC1 SLP084=

CYVR;2006-03-06 05:00;METAR CYVR 060500Z 05011KT 20SM FEW060 SCT090 SCT240 06/03 A2975 RMK SC2AC2CI1 SLP075=

CYVR;2006-03-06 08:00;METAR CYVR 060800Z 11007KT 20SM FEW040 SCT080 BKN120 BKN170 06/03 A2968 RMK SC2AC2AC2AC1 SLP050=

CYVR;2006-03-06 09:00;METAR CYVR 060900Z 08007KT 20SM FEW040 SCT080 OVC100 07/03 A2966 RMK SC2AC2AC3 SLP044=

CYVR;2006-03-06 10:00;METAR CYVR 061000Z 09017KT 20SM FEW040 OVC087 08/02 A2964 RMK SC2AC6 SLP036=

CYVR;2006-03-06 11:00;METAR CYVR 061100Z 10014KT 20SM FEW050 SCT090 OVC120 08/02 A2961 RMK SC2AC2AC4 SLP027=

CYVR;2006-03-06 12:00;METAR CYVR 061200Z 11015KT 20SM FEW050 BKN092 OVC120 08/02 A2959 RMK SC2AC5AC1 SLP020=

CYVR;2006-03-06 13:00;METAR CYVR 061300Z 12013KT 20SM FEW050 BKN090 OVC150 09/01 A2960 RMK SC2AC4AC2 SLP024=

CYVR;2006-03-06 14:00;METAR CYVR 061400Z 10017G22KT 20SM FEW070 BKN120 BKN230 09/01 A2958 RMK AC2AC3CI2 SLP018=

CYVR;2006-03-06 15:00;METAR CYVR 061500Z 09018G24KT 20SM SCT061 BKN092 BKN220 08/01 A2958 RMK SC3AC2CI0 SLP017=

CYVR;2006-03-06 16:00;METAR CYVR 061600Z 10014KT 20SM BKN059 BKN078 OVC120 10/02 A2958 RMK SC5AC2AC1 SLP017=

CYVR;2006-03-06 17:00;METAR CYVR 061700Z 10017G24KT 20SM BKN063 BKN077 OVC120 10/02 A2959 RMK SC5AC2AC1 SLP019=

CYVR;2006-03-06 18:00;METAR CYVR 061800Z 14021G28KT 20SM BKN057 BKN080 BKN230 11/03 A2960 RMK SC5AC2CI1 SLP022=

CYVR;2006-03-06 19:00;METAR CYVR 061900Z 14023G33KT 20SM FEW040 BKN061 BKN110 12/03 A2958 RMK SC1SC4AC2 SLP016=

CYVR;2006-03-06 20:00;METAR CYVR 062000Z 14021G32KT 20SM FEW045 BKN060 BKN110 12/03 A2958 RMK SC1SC5AC2 SLP017=

CYVR;2006-03-06 21:00;METAR CYVR 062100Z 15026G35KT 20SM FEW045 BKN064 BKN100 OVC220 12/03 A2958 RMK SC2SC3AC2CI0 SLP017=

CYVR;2006-03-06 22:00;METAR CYVR 062200Z 16024G31KT 20SM FEW045 SCT065 BKN120 OVC220 11/04 A2958 RMK SC1SC2AC4CI1 SLP017=

CYVR;2006-03-06 23:00;METAR CYVR 062300Z 16016G30KT 20SM SCT040 BKN065 BKN120 OVC210 11/04 A2961 RMK SC3SC2AC2CS1 SLP028=

CYVR;2006-03-07 00:00;METAR CYVR 070000Z 17019G27KT 20SM BKN046 OVC100 11/04 A2964 RMK SC7AC1 SLP037=

CYVR;2006-03-07 00:43;SPECI CYVR 070043Z 17017G24KT 20SM -RA SCT027 BKN041 OVC090 10/ RMK SC3SC3AC2=

CYVR;2006-03-07 01:00;METAR CYVR 070100Z 15015G20KT 20SM SCT027 BKN044 BKN095 OVC120 09/05 A2966 RMK SC3SC2AC2AC1 SLP045=

CYVR;2006-03-07 03:00;METAR CYVR 070300Z 14017G25KT 20SM SCT035 BKN072 BKN140 09/03 A2969 RMK SC3AC2AC2 SLP054=

CYVR;2006-03-07 04:00;METAR CYVR 070400Z 14014G19KT 20SM FEW035 SCT070 BKN100 BKN150 09/03 A2971 RMK SC2AC2AC2AC2 SLP062=

CYVR;2006-03-07 06:00;METAR CYVR 070600Z 16015G22KT 15SM FEW025 BKN066 OVC080 08/03 A2975 RMK SC2AC5AC1 SLP074=

CYVR;2006-03-07 06:11;SPECI CYVR 070611Z 16019G25KT 15SM -SHRA SCT027 BKN055 OVC070 08/ RMK SC3SC3AC2=

CYVR;2006-03-07 07:20;SPECI CYVR 070720Z 16013G18KT 15SM FEW025 BKN050 OVC068 07/ RMK SC2SC4AC2=

CYVR;2006-03-07 08:00;METAR CYVR 070800Z 16016KT 15SM FEW025 BKN055 OVC090 07/04 A2978 RMK SC2SC3AC2 SLP083=

CYVR;2006-03-07 09:00;METAR CYVR 070900Z 16013G18KT 15SM FEW025 BKN070 OVC084 07/04 A2979 RMK SC2AC4AC2 SLP089=

CYVR;2006-03-07 10:00;METAR CYVR 071000Z 16012KT 15SM FEW025 BKN060 OVC080 07/04 A2981 RMK SC2SC4AC2 SLP095=

CYVR;2006-03-07 11:00;METAR CYVR 071100Z 16010G15KT 10SM -SHRA FEW025 BKN036 OVC050 07/05 A2983 RMK SC2SC5SC2 SLP100=

CYVR;2006-03-07 12:00;METAR CYVR 071200Z 16011KT 10SM -SHRA FEW020 BKN035 OVC055 07/05 A2984 RMK SC2SC3SC2 SLP104=

CYVR;2006-03-07 12:29;SPECI CYVR 071229Z 14011KT 12SM FEW020 SCT030 OVC052 07/ RMK SC2SC2SC4=

CYVR;2006-03-07 13:00;METAR CYVR 071300Z 16011KT 10SM -SHRA FEW020 SCT030 OVC048 07/04 A2985 RMK SC2SC2SC4 SLP110=

CYVR;2006-03-07 13:25;SPECI CYVR 071325Z 16011KT 12SM FEW025 BKN056 OVC090 07/ RMK SC2SC4AC2=

CYVR;2006-03-07 14:00;METAR CYVR 071400Z 16010KT 12SM FEW025 BKN060 OVC084 07/04 A2987 RMK SC2SC3AC2 SLP115=

CYVR;2006-03-07 14:26;SPECI CYVR 071426Z 16012KT 12SM -SHRA FEW025 BKN051 OVC080 07/ RMK SC2SC4AC2=

CYVR;2006-03-07 15:00;METAR CYVR 071500Z 16011KT 10SM -SHRA SCT028 BKN046 OVC080 07/04 A2989 RMK SC3SC4AC1 SLP122=

CYVR;2006-03-07 16:00;METAR CYVR 071600Z 15012KT 12SM -SHRA SCT026 BKN037 OVC074 07/04 A2991 RMK SC3SC3AC2 SLP129=

CYVR;2006-03-07 17:54;SPECI CYVR 071754Z 16009KT 10SM SCT011 OVC018 07/ RMK SC4SC4=

CYVR;2006-03-07 18:00;METAR CYVR 071800Z 16010G16KT 12SM SCT012 BKN017 OVC030 07/05 A2995 RMK SC3SC4SC1 SLP142=

CYVR;2006-03-07 21:00;METAR CYVR 072100Z 03006KT 20SM FEW012 BKN026 BKN053 OVC090 08/06 A2999 RMK SC2SC3SC1AC1 SLP156=

CYVR;2006-03-07 22:00;METAR CYVR 072200Z 02006KT 20SM FEW014 BKN040 OVC080 09/06 A3000 RMK SC2SC4AC2 SLP158=

CYVR;2006-03-07 22:43;SPECI CYVR 072243Z 25010KT 10SM -SHRA FEW013 SCT017 OVC037 07/ RMK SC2SC2SC5=

CYVR;2006-03-07 23:00;METAR CYVR 072300Z 23010KT 8SM RA FEW013 BKN022 BKN035 OVC050 07/05 A3003 RMK SC2SC4SC2SC1 SLP169=

CYVR;2006-03-07 23:53;SPECI CYVR 072353Z 00000KT 15SM FEW013 SCT025 BKN040 BKN060 08/ RERA RMK SC1SC2SC3SC1=

CYVR;2006-03-08 00:00;METAR CYVR 080000Z 00000KT 20SM FEW013 SCT025 BKN041 BKN057 08/04 A3002 RERA RMK SC1SC2SC3SC1 SLP167=

CYVR;2006-03-08 01:00;METAR CYVR 080100Z 30003KT 20SM FEW030 FEW060 09/04 A3003 RMK SC1SC2 SLP169=

CYVR;2006-03-08 04:00;METAR CYVR 080400Z 09003KT 20SM FEW030 BKN060 04/02 A3006 RMK SC2SC3 SLP180=

CYVR;2006-03-08 05:00;METAR CYVR 080500Z 23005KT 20SM FEW030 BKN060 06/02 A3008 RMK SC2SC3 SLP185=

CYVR;2006-03-08 06:00;METAR CYVR 080600Z 15005KT 20SM FEW030 SCT060 05/01 A3009 RMK SC2SC2 SLP189=

CYVR;2006-03-08 09:00;METAR CYVR 080900Z 09004KT 20SM FEW025 BKN060 BKN080 04/01 A3009 RMK SC2SC3AC2 SLP191=

CYVR;2006-03-08 10:00;METAR CYVR 081000Z 19010G15KT 15SM SCT025 BKN050 06/02 A3009 RMK SC3SC4 SLP188=

CYVR;2006-03-08 11:00;METAR CYVR 081100Z 20009G16KT 10SM -SHRA BKN019 BKN050 OVC100 06/03 A3007 RMK SC5SC2AC2 SLP182=

CYVR;2006-03-08 12:00;METAR CYVR 081200Z 14012KT 8SM -RA BKN018 BKN040 OVC130 05/03 A3004 RMK SC6SC2AC1 SLP171=

CYVR;2006-03-08 13:00;METAR CYVR 081300Z 13011KT 8SM -RA BKN017 BKN027 OVC120 04/02 A2998 RMK SC5SC2AC1 SLP154=

CYVR;2006-03-08 14:00;METAR CYVR 081400Z 12014KT 8SM -RA SCT013 BKN020 OVC035 04/02 A2995 RMK SC4SC3SC1 SLP143=

CYVR;2006-03-08 14:49;SPECI CYVR 081449Z 14010G17KT 7SM -RA BKN014 OVC020 04/ RMK SC5SC3=

CYVR;2006-03-08 15:00;METAR CYVR 081500Z 13013G19KT 6SM -RA BKN014 OVC020 04/03 A2990 RMK SC5SC3 SLP126=

CYVR;2006-03-08 15:09;SPECI CYVR 081509Z 14018KT 6SM -RA SCT013 BKN025 OVC036 04/ RMK SC3SC4SC1=

CYVR;2006-03-08 16:00;METAR CYVR 081600Z 13020G26KT 6SM -RA BKN014 OVC019 04/02 A2985 RMK SC5SC3 SLP110=

CYVR;2006-03-08 16:50;SPECI CYVR 081650Z 14022KT 8SM -RA SCT013 BKN018 OVC027 04/ RMK SC3SC4SC1=

CYVR;2006-03-08 18:00;METAR CYVR 081800Z 09014G27KT 6SM -RA SCT012 BKN017 OVC027 03/02 A2973 RMK SC4SC3SC1 PRESFR SLP069=

CYVR;2006-03-08 18:05;SPECI CYVR 081805Z 09015G27KT 6SM -RA FEW008 SCT012 BKN017 OVC027 03/ RMK SF1SC3SC3SC1=

CYVR;2006-03-08 18:17;SPECI CYVR 081817Z 08017KT 6SM -RA FEW008 BKN011 BKN017 OVC027 03/ RMK SF2SC3SC2SC1=

CYVR;2006-03-08 18:49;SPECI CYVR 081849Z 09014G25KT 5SM -RA FEW008 SCT011 BKN016 OVC027 03/ RMK SF2SC2SC3SC1=

CYVR;2006-03-08 19:36;SPECI CYVR 081936Z 10017G25KT 4SM -RA FEW008 BKN011 OVC019 03/ RMK SF2SC3SC2=

CYVR;2006-03-08 20:42;SPECI CYVR 082042Z 13019G24KT 5SM -RA FEW008 SCT014 BKN018 OVC030 05/ RMK SF2SC2SC2SC2=

CYVR;2006-03-08 21:00;METAR CYVR 082100Z 14020G25KT 4SM -RA FEW008 SCT013 BKN019 OVC030 05/04 A2949 RMK SF2SC2SC3SC1 PRESFR SLP987=

CYVR;2006-03-08 21:10;SPECI CYVR 082110Z 13017G27KT 3SM -RA FEW008 SCT016 BKN020 OVC030 05/ RMK SF2SC2SC2SC2=

CYVR;2006-03-08 21:51;SPECI CYVR 082151Z 14020KT 4SM -RA FEW008 SCT016 BKN022 OVC030 06/ RMK SF2SC2SC2SC2=

CYVR;2006-03-08 22:00;METAR CYVR 082200Z 14025G32KT 4SM -RA FEW008 SCT014 BKN019 OVC030 06/04 A2939 RMK SF2SC2SC2SC2 PRESFR SLP952=

CYVR;2006-03-08 23:00;METAR CYVR 082300Z 16023G29KT 5SM -RA SCT011 BKN019 OVC029 06/04 A2934 RMK SF3SC3SC2 PRESFR SLP934=

CYVR;2006-03-09 00:00;METAR CYVR 090000Z 17017G24KT 15SM FEW011 FEW020 BKN054 BKN100 06/04 A2929 RMK SF2SC1SC2AC2 SLP920=

CYVR;2006-03-09 02:00;METAR CYVR 090200Z 22019G26KT 30SM FEW025 SCT080 BKN120 06/01 A2934 RMK SF2AC2AC2 SLP935=

CYVR;2006-03-09 02:36;SPECI CYVR 090236Z 30021G41KT 15SM -SHRA BKN024 OVC040 05/ RMK SC6SC2 VIS LWR W - N QUADS 8 SM=

CYVR;2006-03-09 03:00;METAR CYVR 090300Z 30029G34KT 15SM -SHRA FEW016 BKN034 OVC044 04/02 A2940 RMK SC2SC4SC2 PRESRR / CIG RAG / VIS LWR N QUAD 8 SM SLP955=

CYVR;2006-03-09 03:25;SPECI CYVR 090325Z 30025G30KT 12SM -SHRA BKN012 OVC023 03/ RMK SC5SC3 VIS LWR N QUAD 8 SM=

CYVR;2006-03-09 03:51;SPECI CYVR 090351Z 31021G30KT 15SM -RA SCT012 BKN018 OVC041 03/ RMK SC4SC2SC2 VIS LWR N QUAD 10 SM=

CYVR;2006-03-09 04:26;SPECI CYVR 090426Z 31022G28KT 15SM FEW015 BKN036 OVC050 03/ RMK SC2SC5SC1 VIS LWR N 12 SM=

CYVR;2006-03-09 05:00;METAR CYVR 090500Z 31019G26KT 15SM FEW027 BKN033 OVC045 04/01 A2947 RMK SC2SC5SC1 SLP980=

CYVR;2006-03-09 05:39;SPECI CYVR 090539Z 32036G41KT 6SM -RA FEW010CB BKN021 OVC035 02/ RMK CB2SC4SC2 LTGIC VIS S QUAD / VIS LWR N QUAD 4 SM=

CYVR;2006-03-09 05:42;SPECI CYVR 090542Z 32036G41KT 3SM -SN SCT005 OVC017 01/ RMK SC4SC4 VIS LWR N QUAD 2 SM=

CYVR;2006-03-09 05:49;SPECI CYVR 090549Z 32027G41KT 2 1/2SM -RASN BKN005 OVC017 01/ RMK SC5SC3=

CYVR;2006-03-09 06:00;METAR CYVR 090600Z 31024G33KT 12SM -RASN SCT007 BKN018 OVC028 02/M00 A2951 RMK SC3SC4SC1 SLP994=

CYVR;2006-03-09 06:22;SPECI CYVR 090622Z 29025G33KT 15SM -RA FEW008 BKN019 OVC034 02/ RMK SC2SC5SC2=

CYVR;2006-03-09 06:38;SPECI CYVR 090638Z 30033G46KT 15SM -RASN SCT010 BKN016 OVC034 02/ RMK SC3SC3SC2=

CYVR;2006-03-09 06:40;SPECI CYVR 090640Z 30026G46KT 6SM -RASN SCT008 OVC018 01/ RMK SC3SC5=

CYVR;2006-03-09 06:44;SPECI CYVR 090644Z 31030G46KT 8SM -RASN SCT008 BKN017 OVC055 02/ RMK SC3SC4SC1=

CYVR;2006-03-09 07:00;METAR CYVR 090700Z 28027G35KT 15SM -RASN SCT009 BKN022 OVC039 02/M01 A2955 RMK SC4SC2SC2 VIS N QUAD 12 SM SLP006=

CYVR;2006-03-09 07:15;SPECI CYVR 090715Z 30024G39KT 6SM -RASN BKN007 OVC018 01/ RMK SC5SC3 VIS N - NE 3 SM=

CYVR;2006-03-09 07:25;SPECI CYVR 090725Z 30027G34KT 3SM -RASN BKN005 OVC018 01/ RMK SC5SC3 VIS N - NE 2 SM=

CYVR;2006-03-09 07:35;SPECI CYVR 090735Z 30022G31KT 6SM -RASN SCT005 BKN018 OVC057 01/ RMK SC4SC3SC1 VIS N - NE 4 SM=

CYVR;2006-03-09 07:50;SPECI CYVR 090750Z 31020G27KT 12SM -RA FEW008 BKN018 OVC035 01/ RMK SC2SC3SC2 VIS N 6 SM=

CYVR;2006-03-09 08:00;METAR CYVR 090800Z 30018G27KT 15SM -RA FEW017 BKN035 BKN065 02/M00 A2957 RMK SC2SC2SC1 SLP014=

CYVR;2006-03-09 08:09;SPECI CYVR 090809Z 29018KT 15SM FEW018 SCT035 SCT050 02/ RMK SC2SC1SC1=

CYVR;2006-03-09 08:47;SPECI CYVR 090847Z 31014G22KT 15SM -SHRA FEW018 BKN044 03/ RMK SC2SC4=

CYVR;2006-03-09 09:00;METAR CYVR 090900Z 30012G19KT 15SM -SHRA SCT044 BKN055 03/M01 A2959 RMK SC3SC2 SLP020=

CYVR;2006-03-09 09:12;SPECI CYVR 090912Z 32011G18KT 15SM FEW045 FEW055 BKN075 03/ RMK SC2SC1AC2=

CYVR;2006-03-09 10:00;METAR CYVR 091000Z 34013G24KT 15SM BKN042 03/M02 A2960 RMK SC6 SLP025=

CYVR;2006-03-09 11:00;METAR CYVR 091100Z 36004KT 20SM FEW042 FEW150 01/M02 A2961 RMK SC1AC1 SLP026=

CYVR;2006-03-09 12:00;METAR CYVR 091200Z 21003KT 20SM FEW040 FEW150 02/M01 A2959 RMK SC1AC1 SLP021=

CYVR;2006-03-09 13:00;METAR CYVR 091300Z 11005KT 30SM FEW010 FEW150 01/M03 A2960 RMK SC1AC1 SLP023=

CYVR;2006-03-09 14:00;METAR CYVR 091400Z 11004KT 20SM FEW015 BKN120 01/M03 A2959 RMK SC2AC4 SLP021=

CYVR;2006-03-09 15:31;SPECI CYVR 091531Z 08007KT 15SM -SN BKN031 BKN050 01/ RMK SC5SC2 VIS LWR N 6SM=

CYVR;2006-03-09 16:00;METAR CYVR 091600Z 09007KT 10SM -SN BKN025 BKN043 01/M01 A2957 RMK SC5SC2 VIS LWR N 4 SM SLP012=

CYVR;2006-03-09 16:23;SPECI CYVR 091623Z 08008KT 15SM SCT034 BKN048 02/ RMK SC3SC4=

CYVR;2006-03-09 16:37;SPECI CYVR 091637Z 09008KT 15SM -SN BKN031 BKN048 02/ RMK SC5SC2=

CYVR;2006-03-09 17:00;METAR CYVR 091700Z 11008KT 30SM -SN BKN020 OVC043 02/M00 A2955 RMK SC5SC3 VIS LWR NW-E 6 SM SLP008=

CYVR;2006-03-09 17:12;SPECI CYVR 091712Z 09010KT 20SM -SHRA BKN013 OVC020 02/ RMK SC5SC3 VIS LWR N 5 SM=

CYVR;2006-03-09 17:25;SPECI CYVR 091725Z 09009KT 20SM -SHRA SCT009 BKN015 OVC022 02/ RMK SC3SC3SC2 VIS LWR NW-E 5SM=

CYVR;2006-03-09 17:49;SPECI CYVR 091749Z 17010KT 20SM SCT009 BKN013 OVC020 03/ RMK SC3SC3SC2 VIS N 5SM=

CYVR;2006-03-09 18:00;METAR CYVR 091800Z 18010KT 20SM FEW009 BKN013 BKN022 03/01 A2955 RMK SC2SC3SC2 VIS LWR N 5 SM SLP006=

CYVR;2006-03-09 18:17;SPECI CYVR 091817Z 17012G17KT 20SM -SHRA SCT008 BKN012 BKN022 03/ RMK SC3SC2SC2 PCPN VRY LGT=

CYVR;2006-03-09 18:40;SPECI CYVR 091840Z 16010G15KT 20SM FEW008 SCT015 BKN030 03/ RMK SC2SC2SC3=

CYVR;2006-03-09 19:00;METAR CYVR 091900Z 13010KT 20SM SCT008 BKN018 BKN025 04/02 A2954 RMK SC4SC2SC1 SLP002=

CYVR;2006-03-09 20:00;METAR CYVR 092000Z 14005KT 20SM FEW008 BKN017 BKN026 05/02 A2953 RMK SC2SC2SC2 SLP999=

CYVR;2006-03-09 22:00;METAR CYVR 092200Z 08006KT 30SM FEW020 SCT050 BKN090 05/01 A2950 RMK SC2SC2AC2 TCU ASOCTD SLP991=

CYVR;2006-03-10 00:00;METAR CYVR 100000Z 07010KT 30SM FEW030 BKN050 BKN140 05/02 A2949 RMK SC2SC2AC2 SLP988=

CYVR;2006-03-10 02:00;METAR CYVR 100200Z 09009KT 20SM SCT047 BKN120 04/00 A2948 RMK SC4AC2 SLP983=

CYVR;2006-03-10 03:00;METAR CYVR 100300Z 11010KT 20SM FEW045 SCT090 BKN140 02/M01 A2948 RMK SC2AC2AC1 SLP983=

CYVR;2006-03-10 04:00;METAR CYVR 100400Z 10005KT 20SM FEW040 FEW180 01/M01 A2948 RMK SC1AC2 SLP983=

CYVR;2006-03-10 05:00;METAR CYVR 100500Z 13010KT 20SM FEW020 SCT053 BKN068 OVC150 03/M01 A2947 RMK SC2SC2AC2AC1 SLP981=

CYVR;2006-03-10 06:00;METAR CYVR 100600Z 10009KT 20SM FEW015 BKN024 OVC055 02/00 A2947 RMK SC2SC4SC2 SLP981=

CYVR;2006-03-10 06:40;SPECI CYVR 100640Z 10012KT 15SM -SHRA BKN012 OVC050 02/ RMK SC6SC2=

CYVR;2006-03-10 06:56;SPECI CYVR 100656Z 09011KT 15SM -SHRA BKN007 OVC013 02/ RMK SC5SC3=

CYVR;2006-03-10 07:00;METAR CYVR 100700Z 09012KT 10SM -SHRASN BKN006 OVC013 02/00 A2947 RMK SC5SC3 VIS N LWR 6 SM SLP981=

CYVR;2006-03-10 07:15;SPECI CYVR 100715Z 10010KT 8SM -SHSN BKN005 OVC012 01/ RMK SC5SC3 VIS LWR N 4 SM=

CYVR;2006-03-10 08:05;SPECI CYVR 100805Z 09012KT 3SM -SN FEW003 BKN005 OVC010 01/ RMK SC2SC5SC2 VIS LWR N-NE QUAD 2 SM=

CYVR;2006-03-10 08:23;SPECI CYVR 100823Z 09009KT 2 1/2SM -SN SCT003 BKN005 OVC010 00/ RMK SC3SC4SC1=

CYVR;2006-03-10 08:28;SPECI CYVR 100828Z 09008KT 1 1/4SM -SN SCT003 BKN005 OVC010 00/ RMK SC3SC4SC1=

CYVR;2006-03-10 08:33;SPECI CYVR 100833Z 09007KT 5/8SM -SN SCT002 BKN004 OVC010 00/ RMK SC3SC4SC1=

CYVR;2006-03-10 08:34;SPECI CYVR 100834Z 09008KT 1/2SM SN SCT002 BKN004 OVC010 00/ RMK SC3SC4SC1=

CYVR;2006-03-10 08:38;SPECI CYVR 100838Z 09008KT 5/8SM -SN SCT002 BKN004 OVC013 00/ RMK SC3SC3SC2=

CYVR;2006-03-10 08:42;SPECI CYVR 100842Z 09009KT 1SM -SN SCT003 BKN006 OVC013 00/ RMK SC3SC3SC2=

CYVR;2006-03-10 08:49;SPECI CYVR 100849Z 08007KT 1 1/2SM -SN SCT006 BKN014 OVC018 00/ RMK SC3SC3SC2=

CYVR;2006-03-10 09:00;METAR CYVR 100900Z 07007KT 3SM -SN FEW008 BKN014 OVC018 00/M00 A2947 RESN RMK SC2SC4SC2 SLP979=

CYVR;2006-03-10 09:03;SPECI CYVR 100903Z 07006KT 6SM -SN FEW008 BKN013 OVC018 00/ RMK SC2SC4SC2 VIS LWR N 3 SM=

CYVR;2006-03-10 09:05;SPECI CYVR 100905Z 07006KT 7SM -SN FEW008 BKN013 OVC018 00/ RMK SC2SC4SC2 VIS LWR N 3 SM=

CYVR;2006-03-10 09:20;SPECI CYVR 100920Z 09009KT 5SM -SN FEW008 BKN013 OVC021 00/ RMK SC2SC4SC2 VIS LWR N 3 SM=

CYVR;2006-03-10 09:22;SPECI CYVR 100922Z 09009KT 3SM -SN FEW008 BKN013 OVC021 00/ RMK SC2SC2SC3=

CYVR;2006-03-10 09:45;SPECI CYVR 100945Z 09006KT 4SM -SN BKN008 OVC015 00/ RMK SC5SC3=

CYVR;2006-03-10 09:55;SPECI CYVR 100955Z 09006KT 2 1/2SM -SN BKN004 BKN008 OVC013 00/ RMK SC5SC2SC1=

CYVR;2006-03-10 09:56;SPECI CYVR 100956Z 09006KT 1 1/4SM -SN BKN004 BKN008 OVC013 00/ RMK SC5SC2SC1=

CYVR;2006-03-10 10:07;SPECI CYVR 101007Z 07005KT 1/2SM SN BKN003 OVC007 00/ RMK SC5SC3=

CYVR;2006-03-10 10:14;SPECI CYVR 101014Z 09006KT 5/8SM -SN BKN004 OVC010 00/ RMK SC5SC3=

CYVR;2006-03-10 10:22;SPECI CYVR 101022Z 09007KT 5/8SM -SN SCT004 BKN006 OVC016 00/ RMK SC3SC4SC1=

CYVR;2006-03-10 10:37;SPECI CYVR 101037Z 08009KT 1 1/4SM -SN BKN007 OVC013 00/ RMK SC5SC3=

CYVR;2006-03-10 10:41;SPECI CYVR 101041Z 08010KT 2 1/2SM -SN SCT007 BKN013 OVC017 00/ RMK SC4SC3SC1=

CYVR;2006-03-10 10:48;SPECI CYVR 101048Z 08009KT 5SM -SN SCT013 OVC018 01/ RMK SC4SC4=

CYVR;2006-03-10 11:00;METAR CYVR 101100Z 08009KT 8SM -SN BKN013 OVC020 01/M00 A2947 RMK SC5SC3 /S03/ SLP980=

CYVR;2006-03-10 11:12;SPECI CYVR 101112Z 09009KT 10SM -SN SCT013 OVC018 01/ RMK SC4SC4 VIS LWR N 4 SM=

CYVR;2006-03-10 13:00;METAR CYVR 101300Z 10012KT 6SM -SHSN BKN012 BKN023 OVC045 01/M00 A2949 RMK SC5SC2SC1 SLP985=

CYVR;2006-03-10 13:06;SPECI CYVR 101306Z 10012KT 8SM -SHSN SCT012 BKN023 OVC030 01/ RMK SC3SC3SC2 VIS LWR N 4 SM=

CYVR;2006-03-10 13:24;SPECI CYVR 101324Z 10010KT 5SM -SHSN BKN007 OVC023 01/ RMK SC5SC3 VIS LWR N 3 SM=

CYVR;2006-03-10 13:28;SPECI CYVR 101328Z 10010KT 7SM -SN SCT007 OVC023 01/ RMK SC4SC4 VIS LWR N 3 SM=

CYVR;2006-03-10 13:34;SPECI CYVR 101334Z 11008KT 4SM -SN SCT007 OVC019 01/ RMK SC4SC4 VIS LWR N 2 SM=

CYVR;2006-03-10 13:37;SPECI CYVR 101337Z 11011KT 3SM -SN SCT007 OVC019 01/ RMK SC4SC4 VIS LWR N 2 SM=

CYVR;2006-03-10 13:45;SPECI CYVR 101345Z 10012KT 4SM -SN SCT005 BKN012 OVC017 01/ RMK SC4SC3SC1 VIS LWR N 2 SM=

CYVR;2006-03-10 14:00;METAR CYVR 101400Z 10010G15KT 4SM -SN FEW005 SCT008 BKN017 OVC022 01/M00 A2951 RMK SC2SC2SC3SC1 SLP992=

CYVR;2006-03-10 14:15;SPECI CYVR 101415Z 10012KT 3SM -SN FEW008 BKN013 OVC018 01/ RMK SC2SC3SC2=

CYVR;2006-03-10 14:27;SPECI CYVR 101427Z 09011KT 4SM -SN SCT008 BKN013 OVC018 01/ RMK SC3SC3SC2=

CYVR;2006-03-10 14:44;SPECI CYVR 101444Z 10012KT 2 1/2SM -SN BKN009 OVC013 01/ RMK SC5SC3=

CYVR;2006-03-10 15:18;SPECI CYVR 101518Z 10010KT 3SM -SN FEW007 BKN019 OVC032 01/ RMK SC2SC4SC2=

CYVR;2006-03-10 16:00;METAR CYVR 101600Z 09010KT 6SM -DZ FEW009 BKN018 OVC022 01/M00 A2954 RMK ST2SC3SC2 VIS LWR NW-E 2 1/2 SM SLP003=

CYVR;2006-03-10 16:10;SPECI CYVR 101610Z 10009KT 4SM -DZSN FEW009 BKN018 OVC023 01/ RMK ST2SC4SC2 VIS LWR NW-E 2 1/4 SM=

CYVR;2006-03-10 16:15;SPECI CYVR 101615Z 10008KT 1SM -DZSN FEW005 BKN016 OVC023 01/ RMK ST2SC4SC2 VIS LWR RPD=

CYVR;2006-03-10 16:20;SPECI CYVR 101620Z 09008KT 2 1/2SM -DZSN FEW008 BKN018 OVC026 00/ RMK ST2SC4SC2=

CYVR;2006-03-10 16:24;SPECI CYVR 101624Z 07007KT 4SM -DZSN FEW008 BKN019 OVC032 01/ RMK ST2SC3SC2=

CYVR;2006-03-10 16:34;SPECI CYVR 101634Z 08006KT 15SM -SN FEW012 BKN024 OVC036 01/ RMK ST2SC3SC2 VIS LWR NW QUAD 5=

CYVR;2006-03-10 16:41;SPECI CYVR 101641Z 07006KT 15SM FEW012 SCT032 BKN054 02/ RMK SC2SC2SC2 VIS LWR NW QUAD 5 SM=

CYVR;2006-03-10 17:00;METAR CYVR 101700Z 11009KT 15SM FEW012 SCT026 BKN054 02/01 A2955 RMK SF1SC3SC2 SLP008=

CYVR;2006-03-10 19:00;METAR CYVR 101900Z 10008KT 15SM FEW012 BKN046 BKN074 05/01 A2958 RMK SF2SC4AC2 SLP017=

CYVR;2006-03-10 20:00;METAR CYVR 102000Z 07006KT 30SM FEW025 FEW045 SCT240 05/01 A2958 RMK CF1SC2CI2 SLP018=

CYVR;2006-03-10 21:00;METAR CYVR 102100Z 09007KT 30SM SCT036 BKN240 07/M01 A2958 RMK SC3CI1 SLP017=

CYVR;2006-03-10 22:00;METAR CYVR 102200Z 30007KT 30SM FEW043 SCT240 08/M02 A2957 RMK SC2CI2 SLP015=

CYVR;2006-03-10 23:00;METAR CYVR 102300Z 30008KT 30SM FEW050 SCT240 07/00 A2958 RMK SC2CI2 SLP016=

CYVR;2006-03-11 00:00;METAR CYVR 110000Z 30010KT 30SM FEW060 FEW090 FEW240 07/M01 A2958 RMK SC1AC1CI1 SLP016=

CYVR;2006-03-11 01:00;METAR CYVR 110100Z 30012KT 30SM FEW060 SCT210 06/00 A2958 RMK SC1CI2 SLP016=

CYVR;2006-03-11 03:00;METAR CYVR 110300Z 31013KT 30SM FEW060 SCT230 04/01 A2960 RMK SC1CI2 SLP025=

CYVR;2006-03-11 04:00;METAR CYVR 110400Z 05003KT 30SM FEW060 OVC230 04/M01 A2962 RMK SC1CS2 TWR REP LTG VIS DIST SW SLP030=

CYVR;2006-03-11 06:00;METAR CYVR 110600Z 07004KT 30SM SCT065 SCT220 02/M02 A2965 RMK SC1CI1 TWR REP FRQ LTG VIS S QUAD SLP039=

CYVR;2006-03-11 07:00;METAR CYVR 110700Z 31002KT 30SM SCT088 BKN220 02/M02 A2967 RMK AC2CI1 SLP046=

CYVR;2006-03-11 08:00;METAR CYVR 110800Z 18002KT 30SM FEW090 SCT220 03/M01 A2969 RMK AC1CI1 SLP053=

CYVR;2006-03-11 09:00;METAR CYVR 110900Z 00000KT 30SM FEW090 FEW220 00/M03 A2970 RMK AC1CI1 SLP059=

CYVR;2006-03-11 10:00;METAR CYVR 111000Z 08002KT 30SM FEW220 01/M02 A2972 RMK CI0 SLP063=

CYVR;2006-03-11 11:00;METAR CYVR 111100Z 04004KT 30SM FEW220 M00/M02 A2972 RMK CI1 SLP064=

CYVR;2006-03-11 12:00;METAR CYVR 111200Z 09003KT 30SM FEW220 M00/M03 A2972 RMK CI1 SLP066=

CYVR;2006-03-11 13:00;METAR CYVR 111300Z 35002KT 30SM FEW220 M01/M03 A2974 RMK CI1 SLP071=

CYVR;2006-03-11 15:00;METAR CYVR 111500Z 06002KT 30SM FEW220 00/M03 A2977 RMK CI2 SLP081=

CYVR;2006-03-11 16:00;METAR CYVR 111600Z 13002KT 30SM FEW210 01/M02 A2979 RMK CI1 SLP087=

CYVR;2006-03-11 17:00;METAR CYVR 111700Z 18002KT 30SM SCT210 04/M02 A2981 RMK CI2 SLP094=

CYVR;2006-03-11 18:00;METAR CYVR 111800Z 32005KT 30SM FEW210 05/M01 A2982 RMK CI2 SLP099=

CYVR;2006-03-11 19:00;METAR CYVR 111900Z 30010KT 30SM FEW050 FEW210 06/M01 A2983 RMK SF1CI2 TR SC SLP100=

CYVR;2006-03-11 20:00;METAR CYVR 112000Z 29015KT 30SM FEW050 FEW210 07/01 A2983 RMK SF1CI1 TR SF SLP101=

CYVR;2006-03-11 21:00;METAR CYVR 112100Z 30016KT 30SM FEW050 FEW220 07/02 A2982 RMK SC1CI1 SLP099=

CYVR;2006-03-11 22:00;METAR CYVR 112200Z 30018KT 30SM FEW050 FEW220 07/02 A2982 RMK SC1CI1 SLP098=

CYVR;2006-03-11 23:00;METAR CYVR 112300Z 30016KT 30SM FEW050 SCT220 07/02 A2982 RMK SC1CI2 SLP099=

CYVR;2006-03-12 00:00;METAR CYVR 120000Z 30018KT 30SM FEW050 FEW220 07/02 A2983 RMK SC1CI2 TCU ASOCTD SLP102=

CYVR;2006-03-12 01:00;METAR CYVR 120100Z 31014KT 30SM FEW050 FEW220 07/02 A2984 RMK SC1CI1 TCU ASOCTD SLP104=

CYVR;2006-03-12 03:00;METAR CYVR 120300Z 31011KT 30SM FEW060 FEW220 06/01 A2986 RMK SC1CI1 TR SC SLP112=

CYVR;2006-03-12 04:00;METAR CYVR 120400Z 34005KT 30SM FEW220 05/01 A2988 RMK CI1 SLP117=

CYVR;2006-03-12 05:00;METAR CYVR 120500Z 01003KT 30SM FEW220 04/M02 A2989 RMK CI0 SLP121=

CYVR;2006-03-12 06:00;METAR CYVR 120600Z 05002KT 30SM FEW060 FEW220 03/M03 A2990 RMK SC0CI0 SLP125=

CYVR;2006-03-12 07:00;METAR CYVR 120700Z 00000KT 30SM FEW090 FEW220 02/M03 A2991 RMK AC0CI0 SLP129=

CYVR;2006-03-12 08:00;METAR CYVR 120800Z 00000KT 30SM FEW220 02/M01 A2992 RMK CI0 SLP132=

CYVR;2006-03-12 09:00;METAR CYVR 120900Z 00000KT 30SM FEW220 00/M03 A2993 RMK CI0 SLP136=

CYVR;2006-03-12 10:00;METAR CYVR 121000Z 34002KT 30SM FEW220 00/M04 A2994 RMK CI0 SLP140=

CYVR;2006-03-12 11:00;METAR CYVR 121100Z 00000KT 30SM FEW220 M00/M03 A2995 RMK CI0 SLP141=

CYVR;2006-03-12 12:00;METAR CYVR 121200Z 04005KT 30SM FEW220 M00/M04 A2995 RMK CI0 SLP142=

CYVR;2006-03-12 13:00;METAR CYVR 121300Z 34005KT 30SM FEW220 M00/M04 A2996 RMK CI0 SLP147=

CYVR;2006-03-12 15:00;METAR CYVR 121500Z 10006KT 30SM SKC 00/M04 A2999 RMK SLP156=

CYVR;2006-03-12 16:00;METAR CYVR 121600Z 18003KT 30SM FEW020 04/M03 A3000 RMK SC1 TR SC SLP160=

CYVR;2006-03-12 17:00;METAR CYVR 121700Z 00000KT 30SM FEW025 06/M03 A3001 RMK SC1 TR SC SLP164=

CYVR;2006-03-12 18:00;METAR CYVR 121800Z 23006KT 30SM SKC 06/M03 A3002 RMK SLP165=

CYVR;2006-03-12 19:00;METAR CYVR 121900Z 24007KT 30SM FEW025 06/M02 A3002 RMK CU1 SLP167=

CYVR;2006-03-12 20:00;METAR CYVR 122000Z 25005KT 30SM FEW045 07/M02 A3003 RMK CU1 SLP169=

CYVR;2006-03-12 21:00;METAR CYVR 122100Z 25008KT 30SM FEW045 07/M01 A3003 RMK CU1 SLP168=

CYVR;2006-03-12 22:00;METAR CYVR 122200Z 24006KT 30SM FEW050 08/M01 A3002 RMK CU1 SLP167=

CYVR;2006-03-12 23:00;METAR CYVR 122300Z 23005KT 30SM FEW050 08/M01 A3003 RMK CU1 SLP168=

CYVR;2006-03-13 00:00;METAR CYVR 130000Z 23004KT 30SM FEW050 08/M01 A3002 RMK CU1 SLP167=

CYVR;2006-03-13 01:00;METAR CYVR 130100Z 29002KT 30SM FEW050 FEW220 07/M01 A3002 RMK CU1CI0 SLP165=

CYVR;2006-03-13 04:00;METAR CYVR 130400Z 05003KT 30SM FEW220 04/M00 A3004 RMK CI0 SLP174=

CYVR;2006-03-13 05:00;METAR CYVR 130500Z 12003KT 30SM SKC 04/M02 A3005 RMK SLP175=

CYVR;2006-03-13 06:00;METAR CYVR 130600Z 08007KT 30SM FEW070 FEW210 02/M02 A3006 RMK AC1CI1 SLP179=

CYVR;2006-03-13 07:00;METAR CYVR 130700Z 08007KT 30SM SCT070 02/M02 A3006 RMK AC3 SLP179=

CYVR;2006-03-13 08:00;METAR CYVR 130800Z 09007KT 30SM FEW075 01/M02 A3006 RMK AC2 SLP180=

CYVR;2006-03-13 09:00;METAR CYVR 130900Z 10007KT 30SM FEW075 00/M03 A3006 RMK AC2 SLP181=

CYVR;2006-03-13 10:00;METAR CYVR 131000Z 09007KT 30SM FEW075 M00/M03 A3007 RMK AC2 SLP183=

CYVR;2006-03-13 11:00;METAR CYVR 131100Z 08006KT 30SM FEW075 M01/M04 A3007 RMK AC1 SLP182=

CYVR;2006-03-13 12:00;METAR CYVR 131200Z 09006KT 30SM FEW075 M01/M04 A3006 RMK AC1 SLP181=

CYVR;2006-03-13 13:00;METAR CYVR 131300Z 09005KT 30SM FEW070 FEW230 M01/M04 A3006 RMK AC1CI1 SLP180=

CYVR;2006-03-13 14:00;METAR CYVR 131400Z 09009KT 30SM FEW040 BKN078 M01/M03 A3006 RMK SC1AC4 SLP178=

CYVR;2006-03-13 15:00;METAR CYVR 131500Z 10006KT 20SM FEW030 BKN070 02/M02 A3005 RMK SC2AC2 SLP177=

CYVR;2006-03-13 16:00;METAR CYVR 131600Z 09008KT 15SM BKN030 BKN070 BKN210 03/M00 A3005 RMK SC5AC1CI1 SLP175=

CYVR;2006-03-13 17:00;METAR CYVR 131700Z 08008KT 15SM BKN034 BKN070 BKN210 04/00 A3004 RMK SC6AC1CI1 SLP174=

CYVR;2006-03-13 18:00;METAR CYVR 131800Z 09008KT 15SM BKN032 BKN070 06/01 A3003 RMK SC6AC1 SLP170=

CYVR;2006-03-13 19:00;METAR CYVR 131900Z 12011G18KT 20SM SCT035 BKN070 BKN220 08/01 A3001 RMK SC3AC2CI0 SLP164=

CYVR;2006-03-13 20:00;METAR CYVR 132000Z 10010KT 20SM SCT038 BKN080 08/00 A2999 RMK CU4AC2 SLP157=

CYVR;2006-03-13 21:00;METAR CYVR 132100Z 08008KT 20SM SCT040 BKN080 09/01 A2996 RMK CU4AC1 SLP146=

CYVR;2006-03-13 22:00;METAR CYVR 132200Z 10015G20KT 20SM SCT045 SCT220 10/M02 A2993 RMK CU3CI0 SLP135=

CYVR;2006-03-13 23:00;METAR CYVR 132300Z 09007KT 20SM SCT050 BKN220 10/M00 A2990 RMK CU3CI1 SLP124=

CYVR;2006-03-14 00:00;METAR CYVR 140000Z 09008KT 20SM FEW050 BKN220 10/M01 A2986 RMK CU2CI1 SLP113=

CYVR;2006-03-14 01:00;METAR CYVR 140100Z 09007KT 20SM FEW050 BKN220 09/M02 A2983 RMK CU2CI1 SLP100=

CYVR;2006-03-14 02:00;METAR CYVR 140200Z 09007KT 20SM FEW050 FEW150 BKN220 08/M03 A2979 RMK CU1AC2CI1 SLP089=

CYVR;2006-03-14 03:00;METAR CYVR 140300Z 08008KT 20SM FEW120 SCT220 07/M03 A2976 RMK AC2CI1 SLP078=

CYVR;2006-03-14 05:00;METAR CYVR 140500Z 10006KT 20SM FEW050 FEW090 OVC120 06/M02 A2974 RMK SC1AC2AC4 SLP070=

CYVR;2006-03-14 06:00;METAR CYVR 140600Z 09008KT 20SM FEW050 OVC110 06/M02 A2974 RMK SC2AC6 SLP070=

CYVR;2006-03-14 07:00;METAR CYVR 140700Z 09011KT 20SM FEW050 BKN080 OVC120 06/M03 A2973 RMK SC1AS6AC1 SLP069=

CYVR;2006-03-14 08:00;METAR CYVR 140800Z 09008KT 20SM FEW014 BKN070 OVC120 06/M03 A2973 RMK ST1AS4AC3 SLP068=

CYVR;2006-03-14 09:00;METAR CYVR 140900Z 11008KT 20SM FEW014 BKN055 BKN070 OVC120 06/M03 A2974 RMK ST1SC4AS2AC2 SLP070=

CYVR;2006-03-14 10:00;METAR CYVR 141000Z 10010KT 20SM FEW017 BKN050 OVC080 07/M02 A2973 RMK SC2SC5AC2 SLP069=

CYVR;2006-03-14 10:21;SPECI CYVR 141021Z 09009G16KT 15SM -RA FEW016 BKN048 OVC080 06/ RMK SC2SC5AC2=

CYVR;2006-03-14 10:29;SPECI CYVR 141029Z 08008G15KT 15SM FEW016 BKN048 OVC080 06/ RMK SC2SC5AC2=

CYVR;2006-03-14 11:00;METAR CYVR 141100Z 09010KT 15SM FEW016 BKN046 OVC075 06/M02 A2972 RMK SC2SC5AC2 SLP065=

CYVR;2006-03-14 12:00;METAR CYVR 141200Z 05011KT 15SM FEW016 BKN041 OVC075 05/02 A2972 RMK SC2SC5AC2 SLP063=

CYVR;2006-03-14 12:14;SPECI CYVR 141214Z 05011KT 15SM -RA FEW016 BKN041 OVC075 05/ RMK SC2SC5AC2=

CYVR;2006-03-14 13:00;METAR CYVR 141300Z 08010KT 15SM -RA FEW020 BKN037 OVC090 05/02 A2972 RMK SC2SC4AC2 SLP064=

CYVR;2006-03-14 14:00;METAR CYVR 141400Z 08007KT 15SM -RA BKN028 OVC110 04/02 A2973 RMK SC6AC2 SLP067=

CYVR;2006-03-14 15:00;METAR CYVR 141500Z 09012KT 8SM -RA FEW011 BKN026 OVC090 04/02 A2973 RMK SF2SC6AC1 SLP069=

CYVR;2006-03-14 16:00;METAR CYVR 141600Z 09010G15KT 10SM -RA FEW012 BKN022 OVC040 04/02 A2974 RMK SF1SC6SC1 SLP071=

CYVR;2006-03-14 17:00;METAR CYVR 141700Z 10012KT 4SM RA BR FEW011 BKN017 OVC025 04/02 A2976 RMK SF1SC6SC1 SLP077=

CYVR;2006-03-14 18:00;METAR CYVR 141800Z 11011KT 10SM -RA FEW012 BKN016 BKN030 OVC220 04/03 A2977 RERA RMK SF2SC4SC1CI1 SLP080=

CYVR;2006-03-14 18:25;SPECI CYVR 141825Z 09011KT 12SM FEW012 SCT018 BKN060 BKN220 05/ RMK SF1SC2SC2CI1=

CYVR;2006-03-14 19:00;METAR CYVR 141900Z 05011KT 15SM FEW008 FEW020 BKN060 BKN090 06/05 A2977 RMK SF1SC2SC2AC2 SLP082=

CYVR;2006-03-14 20:00;METAR CYVR 142000Z 06008KT 15SM FEW010 SCT016 BKN030 BKN080 07/04 A2979 RMK SF1SC2SC2AC2 SLP087=

CYVR;2006-03-14 21:00;METAR CYVR 142100Z 09008KT 15SM SCT022 BKN035 BKN080 08/04 A2979 RMK CU3CU3AC1 TCU ASOCTD SLP087=

CYVR;2006-03-14 21:05;SPECI CYVR 142105Z 09009KT 15SM -SHRA SCT022 BKN036 BKN080 08/ RMK CU3CU3AC1 TCU ASOCTD=

CYVR;2006-03-14 21:32;SPECI CYVR 142132Z 12009KT 15SM SCT025 BKN038 BKN080 08/ RMK CU3CU2AC2 TCU ASOCTD=

CYVR;2006-03-14 23:00;METAR CYVR 142300Z 11008KT 20SM SCT035 SCT055 BKN240 10/03 A2978 RMK CU3SC1CI1 TCU ASOCTD SLP085=

CYVR;2006-03-15 00:00;METAR CYVR 150000Z 13012KT 20SM SCT040TCU BKN080 BKN240 09/02 A2978 RMK TCU3AC2CI2 SHS SW - W SLP084=

CYVR;2006-03-15 00:38;SPECI CYVR 150038Z 14005KT 15SM -SHRA BKN042 BKN080 BKN220 09/ RMK SC5AC1CI1 TCU EMBD=

CYVR;2006-03-15 01:13;SPECI CYVR 150113Z 01005G15KT 10SM -SHRA FEW011 BKN025 BKN070 06/ RMK SF1SC6AC1 TCU EMBD / VIS NW - E 2=

CYVR;2006-03-15 01:22;SPECI CYVR 150122Z 11004KT 15SM SCT025TCU SCT050 BKN240 07/ RMK TCU3SC1CI0 VIS N - E 4 DUE SHS=

CYVR;2006-03-15 02:14;SPECI CYVR 150214Z 04004KT 20SM FEW040TCU FEW100 BKN240 05/ RMK TCU2AC1CI1 CB ASOCTD / TWR RPTS LTG NE=

CYVR;2006-03-15 03:00;METAR CYVR 150300Z 04007KT 20SM FEW040 SCT120 BKN220 05/03 A2979 RMK SC2AC0CI1 SLP087=

CYVR;2006-03-15 04:00;METAR CYVR 150400Z 06006KT 20SM FEW040 SCT060 BKN120 BKN220 05/03 A2980 RMK SC2SC2AC2CI1 SLP091=

CYVR;2006-03-15 05:00;METAR CYVR 150500Z 09006KT 20SM SCT045 BKN064 BKN120 04/03 A2980 RMK SC3SC3AC1 SLP093=

CYVR;2006-03-15 06:00;METAR CYVR 150600Z 09008KT 20SM FEW045 OVC061 05/03 A2982 RMK SC2SC6 SLP097=

CYVR;2006-03-15 07:00;METAR CYVR 150700Z 10009KT 20SM FEW035 BKN060 05/03 A2983 RMK SC2SC5 SLP100=

CYVR;2006-03-15 08:00;METAR CYVR 150800Z 13008KT 20SM FEW035 SCT060 BKN090 06/03 A2983 RMK SC2SC2AC4 SLP103=

CYVR;2006-03-15 09:00;METAR CYVR 150900Z 09005KT 20SM BKN027 BKN050 BKN240 04/03 A2984 RMK SC5SC2CI0 SLP105=

CYVR;2006-03-15 11:00;METAR CYVR 151100Z 13012KT 20SM BKN028 OVC045 06/04 A2985 RMK SC6SC2 SLP107=

CYVR;2006-03-15 12:00;METAR CYVR 151200Z 13011KT 20SM SCT016 OVC028 06/03 A2985 RMK SC3SC5 SLP108=

CYVR;2006-03-15 13:00;METAR CYVR 151300Z 12015G21KT 20SM BKN016 OVC030 06/03 A2985 RMK SC5SC3 SLP107=

CYVR;2006-03-15 14:00;METAR CYVR 151400Z 13017KT 20SM FEW016 OVC024 07/03 A2984 RMK SC2SC6 SLP104=

CYVR;2006-03-15 16:00;METAR CYVR 151600Z 13018G25KT 20SM FEW015 BKN025 OVC040 07/02 A2984 RMK SF1SC6SC1 SLP105=

CYVR;2006-03-15 16:07;SPECI CYVR 151607Z 13016G21KT 15SM -SHRA FEW015 BKN024 OVC040 07/ RMK SF1SC6SC1=

CYVR;2006-03-15 17:00;METAR CYVR 151700Z 14016G21KT 12SM -SHRA FEW015 BKN026 OVC050 07/03 A2985 RMK SF1SC6SC1 SLP108=

CYVR;2006-03-15 18:00;METAR CYVR 151800Z 14024G30KT 15SM -SHRA FEW015 BKN029 OVC050 07/02 A2985 RMK SF1SC6SC1 SLP109=

CYVR;2006-03-15 18:20;SPECI CYVR 151820Z 14021G27KT 15SM FEW015 BKN027 OVC050 07/ RMK SF1SC6SC1=

CYVR;2006-03-15 19:00;METAR CYVR 151900Z 14019G24KT 15SM -SHRA FEW015 BKN029 OVC050 07/03 A2986 RMK SF1SC6SC1 PCPN VRY LGT SLP112=

CYVR;2006-03-15 19:44;SPECI CYVR 151944Z 14020G28KT 15SM FEW016 BKN030 OVC050 07/ RMK SF1SC6SC1=

CYVR;2006-03-15 20:00;METAR CYVR 152000Z 14022G29KT 15SM FEW016 BKN030 OVC050 08/02 A2987 RMK SF1SC6SC1 SLP114=

CYVR;2006-03-15 21:00;METAR CYVR 152100Z 16017G24KT 15SM -SHRA FEW015 BKN031 OVC045 08/02 A2987 RMK CF1SC6SC2 SLP115=

CYVR;2006-03-15 21:37;SPECI CYVR 152137Z 16021KT 15SM FEW016 SCT030 OVC054 09/ RMK CF1SC3SC4=

CYVR;2006-03-15 22:00;METAR CYVR 152200Z 17020KT 15SM FEW017 SCT030 OVC049 09/03 A2987 RMK CF1CU2SC5 SLP116=

CYVR;2006-03-15 22:30;SPECI CYVR 152230Z 17017G24KT 15SM -SHRA FEW017 SCT035 OVC048 08/ RMK CF1CU3SC4=

CYVR;2006-03-15 23:00;METAR CYVR 152300Z 19009G17KT 15SM FEW020 FEW035 BKN050 BKN080 08/05 A2989 RMK CF1CU2SC2AC2 SLP122=

CYVR;2006-03-15 23:34;SPECI CYVR 152334Z 16015KT 12SM -SHRA FEW020 FEW030 BKN045 BKN080 08/ RMK CF1SC2SC3AC2=

CYVR;2006-03-15 23:54;SPECI CYVR 152354Z 15015KT 15SM FEW025 BKN041 BKN080 08/ RMK CF2SC3AC2=

CYVR;2006-03-16 00:00;METAR CYVR 160000Z 16017KT 15SM FEW025 BKN043 BKN080 08/04 A2991 RMK CF2SC3AC2 SLP127=

CYVR;2006-03-16 04:00;METAR CYVR 160400Z 10010KT 20SM FEW030 SCT045 BKN074 BKN230 06/03 A2993 RMK SC2SC2AC3CI0 SLP134=

CYVR;2006-03-16 06:00;METAR CYVR 160600Z 08006KT 20SM FEW030 BKN045 OVC130 06/03 A2992 RMK SC2SC5AC2 SLP132=

CYVR;2006-03-16 07:00;METAR CYVR 160700Z 07008KT 20SM FEW030 SCT045 OVC120 06/03 A2990 RMK SC2SC2AS5 SLP125=

CYVR;2006-03-16 08:00;METAR CYVR 160800Z 07007KT 20SM FEW045 SCT070 OVC110 06/03 A2988 RMK SC2AC2AS5 SLP119=

CYVR;2006-03-16 09:00;METAR CYVR 160900Z 07007KT 20SM SCT064 BKN081 OVC110 06/03 A2986 RMK SC3AC2AS2 SLP112=

CYVR;2006-03-16 10:00;METAR CYVR 161000Z 05009KT 20SM SCT061 BKN085 OVC120 05/03 A2984 RMK SC3AC3AS2 SLP105=

CYVR;2006-03-16 11:00;METAR CYVR 161100Z 13011KT 20SM SCT025 BKN043 OVC072 05/02 A2983 RMK SC3SC4AC1 SLP100=

CYVR;2006-03-16 11:15;SPECI CYVR 161115Z 11011KT 15SM -SHRA BKN028 OVC041 06/ RMK SC5SC3=

CYVR;2006-03-16 12:00;METAR CYVR 161200Z 09010KT 15SM -SHRA SCT027 OVC049 05/02 A2981 RMK SC3SC5 SLP095=

CYVR;2006-03-16 13:00;METAR CYVR 161300Z 08013G18KT 15SM FEW030 BKN056 OVC075 06/01 A2977 RMK SC2SC5AC1 SLP082=

CYVR;2006-03-16 14:00;METAR CYVR 161400Z 08007KT 15SM FEW054 BKN071 BKN150 05/01 A2974 RMK SC2AC3AS1 SLP070=

CYVR;2006-03-16 16:00;METAR CYVR 161600Z 09008G15KT 20SM FEW055 SCT078 BKN140 OVC220 06/02 A2969 RMK SC2AC1AC2CS1 SLP054=

CYVR;2006-03-16 17:00;METAR CYVR 161700Z 12007KT 20SM BKN060 OVC072 07/03 A2968 RMK SC6AC2 SLP050=

CYVR;2006-03-16 17:50;SPECI CYVR 161750Z 12014KT 15SM -SHRA BKN054 OVC060 07/ RMK SC6SC2=

CYVR;2006-03-16 18:00;METAR CYVR 161800Z 12015KT 15SM -SHRA SCT045 BKN054 OVC060 07/01 A2970 RMK SC3SC3SC2 SLP059=

CYVR;2006-03-16 19:00;METAR CYVR 161900Z 10012G17KT 12SM -RA SCT029 OVC045 08/03 A2971 RMK SC3SC5 SLP061=

CYVR;2006-03-16 19:31;SPECI CYVR 161931Z 10015KT 15SM FEW030 BKN047 OVC060 07/ RMK SC2SC3SC2=

CYVR;2006-03-16 19:33;SPECI CYVR 161933Z 09013G18KT 15SM -SHRA FEW030 BKN047 OVC060 08/ RMK SC2SC3SC2=

CYVR;2006-03-16 20:00;METAR CYVR 162000Z 09013KT 15SM -SHRA BKN048 OVC060 08/03 A2972 RMK SC6SC2 PCPN VRY LGT SLP063=

CYVR;2006-03-16 21:00;METAR CYVR 162100Z 09013G25KT 15SM -SHRA BKN035 BKN042 OVC060 08/03 A2972 RMK SC5SC2SC2 SLP066=

CYVR;2006-03-16 21:21;SPECI CYVR 162121Z 09020G28KT 15SM BKN038 BKN045 OVC060 07/ RMK SC6SC2SC1=

CYVR;2006-03-16 21:25;SPECI CYVR 162125Z 09020G26KT 15SM -SHRA BKN036 BKN045 OVC060 07/ RMK SC6SC2SC1=

CYVR;2006-03-16 22:00;METAR CYVR 162200Z 10015G20KT 12SM -SHRA BKN025 BKN035 OVC050 07/04 A2973 RMK SC5SC2SC1 PCPN VRY LGT SLP069=

CYVR;2006-03-16 23:00;METAR CYVR 162300Z 10014KT 20SM FEW025 SCT042 BKN060 BKN220 08/05 A2976 RMK CF1SC2SC1CI1 SLP077=

CYVR;2006-03-17 00:00;METAR CYVR 170000Z 13014KT 20SM FEW030 FEW060 SCT220 09/03 A2976 RMK CU1SC1CI1 SLP079=

CYVR;2006-03-17 03:00;METAR CYVR 170300Z 09007KT 20SM SCT035 SCT046 BKN060 06/03 A2978 RMK SC3SC1SC2 SLP083=

CYVR;2006-03-17 04:00;METAR CYVR 170400Z 08006KT 20SM SCT035 SCT060 04/02 A2978 RMK SC3SC1 SLP085=

CYVR;2006-03-17 05:00;METAR CYVR 170500Z 09009KT 20SM FEW050 BKN230 05/03 A2979 RMK SC2CI2 SLP087=

CYVR;2006-03-17 07:00;METAR CYVR 170700Z 10008KT 15SM SCT045 BKN220 03/01 A2980 RMK SC3CI1 SLP093=

CYVR;2006-03-17 08:00;METAR CYVR 170800Z 09007KT 15SM FEW045 BKN065 OVC190 03/02 A2980 RMK SC2SC5AC1 SLP092=

CYVR;2006-03-17 09:00;METAR CYVR 170900Z 08008KT 15SM SCT045 BKN190 03/01 A2980 RMK SC3AC2 SLP093=

CYVR;2006-03-17 10:00;METAR CYVR 171000Z 08006KT 15SM SCT042 BKN064 OVC190 04/02 A2981 RMK SC4SC3AC1 SLP094=

CYVR;2006-03-17 11:00;METAR CYVR 171100Z 08006KT 15SM SCT039 OVC045 05/02 A2980 RMK SC4SC4 SLP091=

CYVR;2006-03-17 11:13;SPECI CYVR 171113Z 10004KT 12SM -SHRA SCT039 BKN054 OVC076 04/ RMK SC3SC2AC2=

CYVR;2006-03-17 12:00;METAR CYVR 171200Z 03005KT 10SM -SHRA BKN040 OVC054 05/02 A2980 RMK SC5SC3 SLP092=

CYVR;2006-03-17 13:00;METAR CYVR 171300Z 11005KT 8SM -SHRA BKN037 OVC048 05/03 A2982 RMK SC5SC3 PCPN VRY LGT SLP099=

CYVR;2006-03-17 13:31;SPECI CYVR 171331Z 04004KT 10SM SCT037 OVC057 05/ RMK SC3SC5=

CYVR;2006-03-17 14:00;METAR CYVR 171400Z 12004KT 15SM -SHRA BKN036 BKN044 OVC057 05/03 A2984 RMK SC5SC2SC1 SLP105=

CYVR;2006-03-17 14:29;SPECI CYVR 171429Z 09007KT 15SM FEW037 SCT044 BKN057 04/ RMK SC2SC2SC3=

CYVR;2006-03-17 15:00;METAR CYVR 171500Z 07004KT 15SM FEW037 BKN057 BKN110 05/03 A2984 RMK SC2SC2AC2 SLP106=

CYVR;2006-03-17 16:00;METAR CYVR 171600Z 03005KT 20SM FEW005 BKN038 BKN100 06/03 A2985 RMK SF1SC6AC1 SLP110=

CYVR;2006-03-17 17:00;METAR CYVR 171700Z 32006KT 20SM SCT032 OVC046 06/04 A2987 RMK SC3SC4 SLP115=

CYVR;2006-03-17 18:00;METAR CYVR 171800Z 34005KT 20SM SCT042 OVC052 07/04 A2988 RMK SC3SC4 SLP119=

CYVR;2006-03-17 19:00;METAR CYVR 171900Z 32008KT 20SM FEW025 SCT030 BKN059 08/04 A2990 RMK SF1SC2SC2 SLP125=

CYVR;2006-03-17 20:00;METAR CYVR 172000Z 30012KT 20SM FEW030 FEW035 SCT060 08/04 A2991 RMK CF1SC2SC1 SLP130=

CYVR;2006-03-17 21:00;METAR CYVR 172100Z 30015KT 20SM FEW030 FEW035 FEW060 08/04 A2992 RMK CU1SC1SC0 SLP133=

CYVR;2006-03-17 22:00;METAR CYVR 172200Z 30014KT 20SM FEW020 FEW035 09/05 A2992 RMK CF1SC1 TR CF SLP133=

CYVR;2006-03-18 00:00;METAR CYVR 180000Z 29017KT 20SM FEW015 FEW030 08/05 A2993 RMK CF1SC1 TR CF SLP137=

CYVR;2006-03-18 01:00;METAR CYVR 180100Z 30017KT 20SM FEW015 FEW030TCU FEW180 07/03 A2994 RMK SC1TCU1AC0 TR SC SLP140=

CYVR;2006-03-18 04:00;METAR CYVR 180400Z 30017KT 20SM FEW035 FEW220 06/02 A2998 RMK SC1CI1 SLP151=

CYVR;2006-03-18 05:00;METAR CYVR 180500Z 30017KT 20SM FEW035 SCT120 BKN220 06/01 A2999 RMK SC1AC1CI1 SLP156=

CYVR;2006-03-18 06:00;METAR CYVR 180600Z 29017KT 20SM FEW035 SCT120 BKN220 05/00 A3001 RMK SC1AC2CI1 SLP163=

CYVR;2006-03-18 07:00;METAR CYVR 180700Z 30017G22KT 20SM FEW035 SCT065 BKN120 05/00 A3002 RMK SC1SC3AC2 SLP165=

CYVR;2006-03-18 08:00;METAR CYVR 180800Z 29022KT 15SM FEW035 SCT065 BKN110 05/00 A3004 RMK SC1SC3AC3 SLP173=

CYVR;2006-03-18 09:00;METAR CYVR 180900Z 29019G26KT 15SM FEW030 BKN065 BKN110 05/M01 A3004 RMK SC1SC4AC2 SLP174=

CYVR;2006-03-18 10:00;METAR CYVR 181000Z 30016G22KT 15SM FEW035 BKN060 BKN110 05/01 A3006 RMK SC1SC6AC1 SLP180=

CYVR;2006-03-18 11:00;METAR CYVR 181100Z 30019KT 15SM FEW035 SCT060 BKN070 05/M00 A3007 RMK SC1SC3AC3 SLP184=

CYVR;2006-03-18 12:00;METAR CYVR 181200Z 30017KT 15SM FEW030 FEW060 SCT071 04/M00 A3009 RMK SC1SC1AC2 SLP190=

CYVR;2006-03-18 13:00;METAR CYVR 181300Z 28012KT 15SM FEW030 FEW062 BKN110 04/M00 A3009 RMK SC1SC1AC1 SLP191=

CYVR;2006-03-18 15:00;METAR CYVR 181500Z 28014KT 30SM FEW023 FEW062 04/M00 A3011 RMK SF2SC1 SLP195=

CYVR;2006-03-18 16:00;METAR CYVR 181600Z 29014KT 30SM FEW017 SCT110 05/01 A3012 RMK SC2AC1 SLP199=

CYVR;2006-03-18 17:00;METAR CYVR 181700Z 29010G15KT 20SM FEW025 FEW030 06/01 A3012 RMK CF1SC1 SLP201=

CYVR;2006-03-18 20:00;METAR CYVR 182000Z 29015KT 30SM FEW030 FEW035 FEW120 07/01 A3013 RMK CF1SC1AC0 TR CF SLP204=

CYVR;2006-03-18 22:00;METAR CYVR 182200Z 28012KT 30SM FEW045 FEW070 BKN220 08/M01 A3013 RMK SC0AC1CS1 SLP202=

CYVR;2006-03-18 23:00;METAR CYVR 182300Z 28010KT 30SM FEW040 FEW055 BKN220 08/01 A3013 RMK CF1SC1CI1 TR CF SLP203=

CYVR;2006-03-19 00:00;METAR CYVR 190000Z 26012KT 30SM FEW035 BKN220 08/00 A3013 RMK SC1CI1 SLP204=

CYVR;2006-03-19 01:00;METAR CYVR 190100Z 28010KT 30SM FEW035 FEW180 07/01 A3014 RMK SC1AS1 TR SC SLP205=

CYVR;2006-03-19 02:00;METAR CYVR 190200Z 26006KT 30SM FEW035 FEW180 SCT240 06/M00 A3014 RMK SC1AC0CI1 TR SC SLP207=

CYVR;2006-03-19 03:00;METAR CYVR 190300Z 24004KT 30SM FEW220 06/M00 A3015 RMK CI1 SLP209=

CYVR;2006-03-19 05:00;METAR CYVR 190500Z 09003KT 30SM FEW220 04/M00 A3017 RMK CI0 SLP217=

CYVR;2006-03-19 06:00;METAR CYVR 190600Z 08006KT 30SM FEW210 03/M01 A3018 RMK CI1 SLP219=

CYVR;2006-03-19 07:00;METAR CYVR 190700Z 05005KT 30SM FEW210 04/M02 A3018 RMK CI1 SLP221=

CYVR;2006-03-19 08:00;METAR CYVR 190800Z 04003KT 30SM FEW210 01/M02 A3019 RMK CI0 SLP223=

CYVR;2006-03-19 09:00;METAR CYVR 190900Z 34004KT 30SM FEW210 01/M02 A3018 RMK CI0 SLP221=

CYVR;2006-03-19 10:00;METAR CYVR 191000Z 09002KT 30SM FEW210 01/M02 A3017 RMK CI1 SLP216=

CYVR;2006-03-19 11:00;METAR CYVR 191100Z 00000KT 30SM SCT210 01/M02 A3017 RMK CI2 SLP215=

CYVR;2006-03-19 12:00;METAR CYVR 191200Z 06003KT 30SM BKN210 00/M02 A3017 RMK CI2 SLP217=

CYVR;2006-03-19 13:00;METAR CYVR 191300Z 13003KT 30SM SCT210 02/M01 A3017 RMK CI2 SLP216=

CYVR;2006-03-19 14:00;METAR CYVR 191400Z 10007KT 30SM FEW210 M01/M03 A3017 RMK CI0 SLP217=

CYVR;2006-03-19 15:00;METAR CYVR 191500Z 09003KT 30SM FEW065 M00/M02 A3016 RMK SC1 TR SC SLP214=

CYVR;2006-03-19 16:00;METAR CYVR 191600Z 09002KT 30SM SKC 03/00 A3017 RMK SLP215=

CYVR;2006-03-19 18:00;METAR CYVR 191800Z 21003KT 30SM FEW220 08/M02 A3014 RMK CI0 SLP206=

CYVR;2006-03-19 19:00;METAR CYVR 191900Z 25006KT 30SM FEW050 FEW100 07/M00 A3012 RMK CF1AC1 TR CF / TR AC SLP199=

CYVR;2006-03-19 20:00;METAR CYVR 192000Z 24009G16KT 30SM FEW050 08/00 A3010 RMK CU1 TR CU SLP192=

CYVR;2006-03-19 21:00;METAR CYVR 192100Z 26008KT 30SM FEW050 FEW220 08/02 A3007 RMK CU1CI1 TR CU / TR CI SLP182=

CYVR;2006-03-19 22:00;METAR CYVR 192200Z 26008KT 30SM FEW050 FEW220 09/M00 A3004 RMK CU1CI0 TR CU SLP171=

CYVR;2006-03-19 23:00;METAR CYVR 192300Z 27008KT 30SM FEW220 09/M03 A3001 RMK CI0 SLP162=

CYVR;2006-03-20 00:00;METAR CYVR 200000Z 30008KT 30SM FEW220 09/M03 A2999 RMK CI0 SLP155=

CYVR;2006-03-20 01:00;METAR CYVR 200100Z 31007KT 30SM FEW220 08/M02 A2997 RMK CI0 SLP148=

CYVR;2006-03-20 02:00;METAR CYVR 200200Z 32007KT 30SM FEW220 06/M02 A2994 RMK CI0 SLP140=

CYVR;2006-03-20 04:00;METAR CYVR 200400Z 00000KT 30SM FEW220 06/M01 A2991 RMK CI0 SLP130=

CYVR;2006-03-20 06:00;METAR CYVR 200600Z 00000KT 30SM FEW220 05/M02 A2990 RMK CI0 SLP124=

CYVR;2006-03-20 07:00;METAR CYVR 200700Z 00000KT 30SM FEW210 05/M02 A2988 RMK CI0 SLP119=

CYVR;2006-03-20 08:00;METAR CYVR 200800Z 00000KT 30SM FEW210 03/M02 A2988 RMK CI0 SLP117=

CYVR;2006-03-20 09:00;METAR CYVR 200900Z 10003KT 30SM FEW210 03/M02 A2986 RMK CI0 SLP111=

CYVR;2006-03-20 10:00;METAR CYVR 201000Z 07002KT 30SM FEW210 03/M02 A2985 RMK CI0 SLP107=

CYVR;2006-03-20 11:00;METAR CYVR 201100Z 00000KT 30SM FEW210 01/M03 A2983 RMK CI0 SLP103=

CYVR;2006-03-20 12:00;METAR CYVR 201200Z 00000KT 30SM FEW210 02/M01 A2982 RMK CI0 SLP097=

CYVR;2006-03-20 13:00;METAR CYVR 201300Z 02003KT 30SM FEW210 00/M03 A2981 RMK CI0 SLP095=

CYVR;2006-03-20 14:00;METAR CYVR 201400Z 09002KT 30SM FEW210 01/M02 A2980 RMK CI1 SLP092=

CYVR;2006-03-20 16:00;METAR CYVR 201600Z 13002KT 30SM SKC 05/M00 A2980 RMK SLP091=

CYVR;2006-03-20 17:00;METAR CYVR 201700Z 34004KT 30SM SKC 07/M00 A2980 RMK SLP092=

CYVR;2006-03-20 18:00;METAR CYVR 201800Z 31009KT 30SM SKC 08/02 A2980 RMK SLP092=

CYVR;2006-03-20 19:00;METAR CYVR 201900Z 30011KT 30SM FEW040 08/02 A2979 RMK CU1 TR CU SLP088=

CYVR;2006-03-20 20:00;METAR CYVR 202000Z 30012KT 30SM FEW040 09/02 A2978 RMK SC1 SLP083=

CYVR;2006-03-20 21:00;METAR CYVR 202100Z 31011KT 30SM FEW040 09/02 A2975 RMK SC1 SLP075=

CYVR;2006-03-20 22:00;METAR CYVR 202200Z 30011KT 30SM FEW050 10/02 A2974 RMK SC1 SLP070=

CYVR;2006-03-20 23:00;METAR CYVR 202300Z 29011KT 30SM FEW050 11/01 A2972 RMK SC1 SLP066=

CYVR;2006-03-21 00:00;METAR CYVR 210000Z 30009KT 30SM FEW050 10/02 A2972 RMK SC1 SLP064=

CYVR;2006-03-21 01:00;METAR CYVR 210100Z 29010KT 30SM FEW060 10/03 A2971 RMK SC2 SLP062=

CYVR;2006-03-21 02:00;METAR CYVR 210200Z 31007KT 30SM SCT070 08/03 A2971 RMK AC3 SLP060=

CYVR;2006-03-21 03:00;METAR CYVR 210300Z 32006KT 30SM BKN092 08/03 A2971 RMK AC6 SLP060=

CYVR;2006-03-21 04:00;METAR CYVR 210400Z 31005KT 30SM FEW060 BKN096 08/03 A2971 RMK SC1AC6 SLP061=

CYVR;2006-03-21 05:00;METAR CYVR 210500Z 31004KT 20SM FEW060 BKN100 08/04 A2972 RMK SC2AC6 SLP063=

CYVR;2006-03-21 07:00;METAR CYVR 210700Z 08004KT 20SM FEW060 BKN100 07/02 A2970 RMK SC2AC6 SLP058=

CYVR;2006-03-21 08:00;METAR CYVR 210800Z 16004KT 20SM FEW060 BKN100 08/03 A2970 RMK SC1AC6 SLP059=

CYVR;2006-03-21 10:00;METAR CYVR 211000Z 03002KT 20SM FEW060 BKN110 07/02 A2970 RMK SC1AC6 SLP059=

CYVR;2006-03-21 11:00;METAR CYVR 211100Z 02003KT 20SM OVC110 06/02 A2970 RMK AC7 SLP058=

CYVR;2006-03-21 12:00;METAR CYVR 211200Z 07003KT 20SM SCT090 OVC110 07/02 A2970 RMK AC3AC4 SLP059=

CYVR;2006-03-21 13:00;METAR CYVR 211300Z 09005KT 20SM BKN074 OVC110 06/02 A2971 RMK AC5AC3 SLP062=

CYVR;2006-03-21 14:00;METAR CYVR 211400Z 09011KT 15SM BKN071 OVC120 06/02 A2972 RMK AC6AC2 SLP064=

CYVR;2006-03-21 16:00;METAR CYVR 211600Z 09011KT 15SM BKN065 BKN081 OVC120 08/02 A2974 RMK SC5AC2AC1 SLP071=

CYVR;2006-03-21 17:00;METAR CYVR 211700Z 11009KT 15SM BKN065 OVC080 08/03 A2976 RMK SC6AC2 SLP078=

CYVR;2006-03-21 18:00;METAR CYVR 211800Z 10011KT 15SM SCT054 BKN092 OVC130 09/03 A2976 RMK SC4AC2AC2 SLP078=

CYVR;2006-03-21 19:00;METAR CYVR 211900Z 11012KT 15SM SCT031 BKN059 OVC090 10/04 A2977 RMK SC4SC2AC2 SLP080=

CYVR;2006-03-21 19:47;SPECI CYVR 211947Z 14017G22KT 15SM -SHRA SCT034 BKN057 OVC090 09/ RMK SC3SC4AC1=

CYVR;2006-03-21 20:00;METAR CYVR 212000Z 14017KT 15SM -SHRA BKN034 OVC055 09/05 A2978 RMK SC6SC2 SLP083=

CYVR;2006-03-21 20:31;SPECI CYVR 212031Z 13020KT 12SM SCT019 BKN033 OVC085 10/ RMK SC3SC3AC2=

CYVR;2006-03-21 21:00;METAR CYVR 212100Z 14018KT 12SM BKN022 OVC044 09/05 A2979 RMK SC6SC2 SLP087=

CYVR;2006-03-21 21:11;SPECI CYVR 212111Z 13014G20KT 12SM -SHRA BKN023 BKN039 OVC054 09/ RMK SC5SC2SC1=

CYVR;2006-03-21 21:52;SPECI CYVR 212152Z 13012KT 12SM SCT020 BKN034 OVC060 09/ RMK SC3SC3SC2=

CYVR;2006-03-21 22:00;METAR CYVR 212200Z 14013KT 10SM -SHRA SCT023 OVC035 09/05 A2979 RMK SC3SC5 SLP088=

CYVR;2006-03-21 23:00;METAR CYVR 212300Z 14011KT 12SM -SHRA FEW022 BKN035 OVC050 09/05 A2980 RMK SC2SC5SC1 SLP090=

CYVR;2006-03-21 23:27;SPECI CYVR 212327Z 13012KT 12SM FEW020 BKN038 OVC050 09/ RMK SC2SC4SC2=

CYVR;2006-03-22 00:00;METAR CYVR 220000Z 13012G17KT 12SM FEW026 BKN042 OVC080 10/05 A2980 RMK SC2SC5AC2 SLP092=

CYVR;2006-03-22 01:00;METAR CYVR 220100Z 12012KT 12SM SCT033 BKN048 OVC084 09/05 A2981 RMK SC3SC2AC2 SLP094=

CYVR;2006-03-22 02:00;METAR CYVR 220200Z 10009KT 12SM BKN036 BKN050 OVC078 09/05 A2982 RMK SC6SC2AC1 SLP098=

CYVR;2006-03-22 03:00;METAR CYVR 220300Z 12011KT 15SM BKN032 BKN050 OVC080 09/04 A2983 RMK SC6SC1AC1 SLP101=

CYVR;2006-03-22 03:53;SPECI CYVR 220353Z 14013G19KT 12SM -SHRA BKN029 BKN045 OVC080 09/ RMK SC6SC1AC1=

CYVR;2006-03-22 04:00;METAR CYVR 220400Z 14014G19KT 12SM -SHRA BKN028 BKN045 OVC080 09/05 A2984 RMK SC6SC2AC1 SLP105=

CYVR;2006-03-22 05:00;METAR CYVR 220500Z 12018KT 15SM SCT029 SCT050 OVC085 08/05 A2985 RMK SC3SC1AC4 SLP107=

CYVR;2006-03-22 06:00;METAR CYVR 220600Z 12017G24KT 15SM SCT025 BKN082 OVC140 08/04 A2987 RMK SC3AC4AC1 SLP114=

CYVR;2006-03-22 07:00;METAR CYVR 220700Z 11017G26KT 15SM BKN025 BKN050 OVC081 09/05 A2987 RMK SC6SC2AC1 SLP116=

CYVR;2006-03-22 08:00;METAR CYVR 220800Z 12019G26KT 15SM BKN025 OVC070 09/04 A2989 RMK SC6AC2 SLP122=

CYVR;2006-03-22 08:26;SPECI CYVR 220826Z 12022G30KT 15SM -SHRA BKN026 BKN040 OVC080 09/ RMK SC6SC1AC1=

CYVR;2006-03-22 09:00;METAR CYVR 220900Z 12020G30KT 15SM SCT025 BKN081 OVC100 09/04 A2988 RMK SC4AC3AC1 SLP117=

CYVR;2006-03-22 10:00;METAR CYVR 221000Z 12021G27KT 15SM SCT025 OVC074 10/03 A2989 RMK SC4AC4 SLP121=

CYVR;2006-03-22 11:00;METAR CYVR 221100Z 14018G26KT 12SM FEW028 SCT040 BKN070 OVC080 10/03 A2991 RMK SC2SC2AC3AC2 SLP129=

CYVR;2006-03-22 11:27;SPECI CYVR 221127Z 14016G24KT 12SM -SHRA FEW030 BKN043 OVC070 09/ RMK SC2SC4AC2=

CYVR;2006-03-22 12:00;METAR CYVR 221200Z 14016G21KT 12SM -SHRA FEW030 BKN045 OVC070 09/04 A2993 RMK SC2SC4AC2 SLP135=

CYVR;2006-03-22 13:00;METAR CYVR 221300Z 13012G17KT 12SM -SHRA FEW030 BKN044 OVC070 09/05 A2994 RMK SC2SC4AC2 SLP139=

CYVR;2006-03-22 14:00;METAR CYVR 221400Z 13015KT 12SM -SHRA FEW030 SCT046 OVC081 09/05 A2995 RMK SC2SC2AC4 SLP141=

CYVR;2006-03-22 15:00;METAR CYVR 221500Z 14012G18KT 12SM -SHRA BKN033 BKN047 OVC075 09/05 A2998 RMK SC6SC2AC1 SLP151=

CYVR;2006-03-22 16:00;METAR CYVR 221600Z 14011KT 12SM -SHRA BKN037 OVC057 09/05 A3000 RMK SC6SC2 SLP160=

CYVR;2006-03-22 17:00;METAR CYVR 221700Z 13015KT 12SM -SHRA BKN034 OVC055 09/05 A3002 RMK SC6SC2 SLP165=

CYVR;2006-03-22 18:00;METAR CYVR 221800Z 14013G20KT 10SM -SHRA BKN032 OVC050 10/05 A3005 RMK SC7SC1 SLP175=

CYVR;2006-03-22 19:00;METAR CYVR 221900Z 15014KT 10SM -SHRA BKN033 OVC050 09/06 A3007 RMK SC6SC2 SLP182=

CYVR;2006-03-22 20:00;METAR CYVR 222000Z 16013G19KT 10SM -RA BKN034 OVC047 10/05 A3008 RMK SC6SC2 SLP185=

CYVR;2006-03-22 21:00;METAR CYVR 222100Z 14008KT 10SM -RA BKN035 OVC047 10/06 A3009 RMK SC6SC2 SLP188=

CYVR;2006-03-22 22:00;METAR CYVR 222200Z 13012G18KT 10SM -RA OVC034 10/06 A3009 RMK SC8 SLP190=

CYVR;2006-03-22 23:00;METAR CYVR 222300Z 13014KT 10SM -SHRA BKN033 OVC050 10/06 A3009 RMK SC6SC2 PCPN VRY LGT SLP190=

CYVR;2006-03-22 23:27;SPECI CYVR 222327Z 13014KT 10SM OVC036 10/ RMK SC8=

CYVR;2006-03-22 23:39;SPECI CYVR 222339Z 12013KT 10SM -SHRA BKN037 OVC053 10/ RMK SC6SC2=

CYVR;2006-03-23 00:00;METAR CYVR 230000Z 12014KT 10SM -SHRA BKN037 OVC050 10/06 A3011 RMK SC6SC2 SLP195=

CYVR;2006-03-23 01:00;METAR CYVR 230100Z 11011KT 10SM -SHRA BKN035 OVC047 10/06 A3011 RMK SC6SC2 SLP197=

CYVR;2006-03-23 02:00;METAR CYVR 230200Z 08009KT 8SM -SHRA BKN036 OVC050 09/07 A3011 RMK SC6SC2 SLP198=

CYVR;2006-03-23 04:00;METAR CYVR 230400Z 09011KT 8SM -RA BKN030 BKN050 OVC120 08/07 A3012 RMK SC6SC1AC1 SLP201=

CYVR;2006-03-23 05:00;METAR CYVR 230500Z 10012G17KT 8SM -RA SCT029 BKN055 OVC070 08/07 A3013 RMK SC3SC4AC1 SLP204=

CYVR;2006-03-23 06:00;METAR CYVR 230600Z 08011KT 12SM -RA FEW025 BKN057 OVC070 08/06 A3013 RMK SC2SC5AC1 SLP202=

CYVR;2006-03-23 07:00;METAR CYVR 230700Z 09010G15KT 12SM -SHRA FEW030 BKN050 OVC110 08/06 A3011 RMK SC2SC4AC2 SLP198=

CYVR;2006-03-23 09:00;METAR CYVR 230900Z 11011KT 15SM FEW050 BKN100 OVC130 07/05 A3010 RMK SC2AC4AC2 SLP193=

CYVR;2006-03-23 10:00;METAR CYVR 231000Z 10010G16KT 15SM FEW050 BKN070 OVC100 07/05 A3009 RMK SC2AC4AC2 SLP190=

CYVR;2006-03-23 11:00;METAR CYVR 231100Z 09011KT 15SM FEW050 BKN060 OVC081 07/05 A3007 RMK SC2SC3AC2 SLP182=

CYVR;2006-03-23 12:00;METAR CYVR 231200Z 11011KT 15SM FEW040 BKN060 OVC077 07/05 A3005 RMK SC2SC4AC2 SLP177=

CYVR;2006-03-23 13:00;METAR CYVR 231300Z 11008KT 15SM FEW040 BKN060 OVC075 08/05 A3005 RMK SC2SC3AC2 SLP176=

CYVR;2006-03-23 13:42;SPECI CYVR 231342Z 14008KT 15SM -SHRA FEW040 BKN061 OVC070 08/ RMK SC2SC5AC2=

CYVR;2006-03-23 14:00;METAR CYVR 231400Z 10007KT 15SM -SHRA FEW040 BKN057 OVC070 08/05 A3006 RMK SC2SC4AC2 SLP179=

CYVR;2006-03-23 15:00;METAR CYVR 231500Z 09011KT 15SM -SHRA FEW040 OVC053 07/05 A3004 RMK SC2SC6 SLP173=

CYVR;2006-03-23 16:00;METAR CYVR 231600Z 10011KT 15SM -SHRA FEW040 BKN061 OVC092 10/06 A3003 RMK SC2SC5AC1 PCPN VRY LGT SLP170=

CYVR;2006-03-23 17:00;METAR CYVR 231700Z 06013G18KT 15SM -SHRA FEW040 BKN065 OVC090 11/06 A3000 RMK SC2SC4AC2 PCPN VRY LGT SLP160=

CYVR;2006-03-23 17:35;SPECI CYVR 231735Z 07010G15KT 15SM FEW045 BKN072 OVC087 12/ RMK SC1AC5AC2=

CYVR;2006-03-23 18:00;METAR CYVR 231800Z 09010KT 15SM FEW045 BKN073 OVC100 13/07 A2997 RMK SC1AC5AS2 SLP149=

CYVR;2006-03-23 20:00;METAR CYVR 232000Z 10015KT 20SM FEW050 SCT075 OVC130 14/08 A2992 RMK SC1AC3AS4 SLP132=

CYVR;2006-03-23 21:00;METAR CYVR 232100Z 10011G16KT 20SM FEW050 SCT075 BKN140 OVC230 16/07 A2989 RMK SC1AC3AS3CI1 SLP123=

CYVR;2006-03-23 22:00;METAR CYVR 232200Z 09014KT 20SM FEW050 BKN081 OVC120 14/06 A2988 RMK SC2AC3AS2 SLP118=

CYVR;2006-03-23 23:00;METAR CYVR 232300Z 09010KT 20SM BKN055 OVC080 14/07 A2987 RMK SC6AC2 SLP115=

CYVR;2006-03-23 23:23;SPECI CYVR 232323Z 12009G16KT 15SM -SHRA BKN047 OVC076 15/ RMK SC6AC2 MDT TO SEV TURB W - NW OF ARPT=

CYVR;2006-03-24 00:00;METAR CYVR 240000Z 11014G20KT 15SM -SHRA BKN044 OVC087 15/05 A2985 RMK SC5AC3 PCPN VRY LGT SLP109=

CYVR;2006-03-24 00:29;SPECI CYVR 240029Z 09014KT 15SM SCT047 OVC083 15/ RMK SC4AC4=

CYVR;2006-03-24 01:00;METAR CYVR 240100Z 09012KT 15SM SCT047 OVC079 15/05 A2983 RMK SC4AC4 MDT=

CYVR;2006-03-24 01:35;SPECI CYVR 240135Z 11011KT 15SM -SHRA BKN040 OVC071 15/ RMK SC6AC2=

CYVR;2006-03-24 02:00;METAR CYVR 240200Z 09015G26KT 15SM -SHRA FEW040 BKN065 OVC083 15/05 A2983 RMK SC2SC5AC1 SLP100=

CYVR;2006-03-24 02:52;SPECI CYVR 240252Z 14016G24KT 15SM FEW040 BKN060 OVC087 15/ RMK SC2SC2AC3=

CYVR;2006-03-24 03:00;METAR CYVR 240300Z 13015G24KT 15SM FEW040 BKN059 OVC090 15/04 A2985 RMK SC2SC3AC2 SLP108=

CYVR;2006-03-24 04:00;METAR CYVR 240400Z 11013G18KT 15SM FEW040 SCT060 OVC100 13/05 A2985 RMK SC2SC2AC5 SLP108=

CYVR;2006-03-24 05:00;METAR CYVR 240500Z 09012KT 20SM FEW045 BKN080 OVC110 12/05 A2984 RMK SC1AC5AC2 SLP105=

CYVR;2006-03-24 06:00;METAR CYVR 240600Z 11008KT 20SM FEW040 BKN083 OVC110 12/06 A2985 RMK SC2AC6AC1 SLP107=

CYVR;2006-03-24 07:00;METAR CYVR 240700Z 11002KT 20SM FEW040 OVC090 12/06 A2983 RMK SC2AC6 SLP101=

CYVR;2006-03-24 08:00;METAR CYVR 240800Z 30011KT 15SM -SHRA FEW040 BKN059 OVC080 09/07 A2983 RMK SC2SC5AC2 SLP102=

CYVR;2006-03-24 09:00;METAR CYVR 240900Z 32009KT 12SM -RA SCT045 BKN062 OVC080 09/07 A2983 RMK SC3SC4AC1 SLP100=

CYVR;2006-03-24 10:00;METAR CYVR 241000Z 34007KT 12SM -RA BKN047 OVC060 09/08 A2980 RMK SC5SC3 SLP092=

CYVR;2006-03-24 11:00;METAR CYVR 241100Z 34006KT 10SM -RA BKN042 OVC060 09/08 A2980 RMK SC6SC2 SLP091=

CYVR;2006-03-24 12:00;METAR CYVR 241200Z 03006KT 8SM -RA FEW028 BKN041 OVC060 09/08 A2979 RMK SC2SC4SC2 SLP088=

CYVR;2006-03-24 13:00;METAR CYVR 241300Z 02006KT 12SM -SHRA FEW025 BKN054 OVC090 09/08 A2977 RMK SF2SC4AC2 SLP081=

CYVR;2006-03-24 14:00;METAR CYVR 241400Z 08007KT 15SM -SHRA FEW011 BKN040 OVC090 09/07 A2979 RMK SF1SC6AC2 PCPN VRY LGT SLP087=

CYVR;2006-03-24 15:00;METAR CYVR 241500Z 10013KT 15SM SCT012 BKN090 OVC130 09/07 A2978 RMK SC4AC2AC2 SLP085=

CYVR;2006-03-24 15:07;SPECI CYVR 241507Z 11012KT 15SM BKN011 OVC090 09/ RMK SC6AC2=

CYVR;2006-03-24 15:42;SPECI CYVR 241542Z 10015KT 15SM SCT012 BKN025 OVC036 09/ RMK SC3SC2SC2=

CYVR;2006-03-24 16:00;METAR CYVR 241600Z 10013KT 15SM SCT012 BKN022 OVC041 08/07 A2980 RMK SC3SC2SC2 SLP092=

CYVR;2006-03-24 17:00;METAR CYVR 241700Z 13014KT 15SM -SHRA FEW012 OVC018 09/07 A2980 RMK SC2SC6 SLP091=

CYVR;2006-03-24 18:00;METAR CYVR 241800Z 13017G24KT 15SM FEW011 BKN024 BKN060 09/06 A2981 RMK SC2SC3SC2 SLP095=

CYVR;2006-03-24 19:00;METAR CYVR 241900Z 14013G18KT 15SM FEW011 SCT023 BKN070 10/06 A2982 RMK SC2SC2AC2 SLP098=

CYVR;2006-03-24 20:00;METAR CYVR 242000Z 16017G24KT 15SM FEW011 SCT035 BKN065 12/05 A2983 RMK SC1SC3SC1 SLP103=

CYVR;2006-03-24 21:00;METAR CYVR 242100Z 16019G25KT 15SM FEW030 SCT060 BKN110 11/04 A2985 RMK SC2SC2AC2 SLP107=

CYVR;2006-03-24 22:00;METAR CYVR 242200Z 20014G20KT 15SM SCT030 SCT060 BKN210 12/04 A2985 RMK SC3SC1CI1 DIST SHRA NW QUAD / VIS LWR NW QUAD 8 SM SLP108=

CYVR;2006-03-24 23:00;METAR CYVR 242300Z 16014G19KT 15SM SCT030 SCT080 BKN110 12/04 A2987 RMK SC3AC1AC2 SLP114=

CYVR;2006-03-25 00:00;METAR CYVR 250000Z 21011KT 15SM SCT030 SCT055 BKN110 11/04 A2988 RMK SC3SC1AC3 DIST SHRA W - NW SLP117=

CYVR;2006-03-25 00:13;SPECI CYVR 250013Z 23009KT 15SM -SHRA SCT030 BKN071 BKN110 11/ RMK SC3AC2AC2=

CYVR;2006-03-25 00:49;SPECI CYVR 250049Z 28007KT 15SM FEW030 SCT071 BKN110 11/ RMK SC2AC2AC2=

CYVR;2006-03-25 01:00;METAR CYVR 250100Z 19010KT 15SM FEW030 SCT071 BKN110 11/03 A2988 RMK SC2AC2AC2 DIST SHRA N / TCU EMBD SLP120=

CYVR;2006-03-25 02:00;METAR CYVR 250200Z 19009KT 15SM FEW030 SCT100 BKN210 10/01 A2989 RMK SC2AC2CI2 SLP123=

CYVR;2006-03-25 03:00;METAR CYVR 250300Z 20005KT 20SM SCT035 BKN085 BKN110 BKN190 09/01 A2990 RMK SC2AC2AC1AC1 SHS DIST NW QUAD / NE QUAD SLP125=

CYVR;2006-03-25 04:00;METAR CYVR 250400Z 18004KT 20SM FEW035 SCT060 BKN180 09/01 A2990 RMK SC2SC2AC2 SLP126=

CYVR;2006-03-25 05:33;SPECI CYVR 250533Z 13004KT 20SM -SHRA FEW035 OVC060 08/ RMK SC2SC5=

CYVR;2006-03-25 05:55;SPECI CYVR 250555Z 14003KT 20SM FEW035 OVC060 08/ RMK SC2SC6=

CYVR;2006-03-25 06:03;SPECI CYVR 250603Z 15003KT 20SM -SHRA FEW035 OVC061 08/ RMK SC2SC6=

CYVR;2006-03-25 07:00;METAR CYVR 250700Z 25002KT 20SM -SHRA FEW035 OVC058 07/02 A2990 RMK SC2SC6 SLP124=

CYVR;2006-03-25 07:41;SPECI CYVR 250741Z 32002KT 20SM FEW035 OVC055 07/ RMK SC2SC6=

CYVR;2006-03-25 09:00;METAR CYVR 250900Z 03004KT 20SM FEW035 BKN055 OVC062 06/02 A2988 RMK SC1SC5SC2 SLP117=

CYVR;2006-03-25 10:00;METAR CYVR 251000Z 04003KT 20SM FEW055 05/00 A2986 RMK SC2 SLP111=

CYVR;2006-03-25 11:00;METAR CYVR 251100Z 07002KT 20SM SCT058 05/01 A2984 RMK SC2 SLP104=

CYVR;2006-03-25 12:00;METAR CYVR 251200Z 02002KT 20SM FEW060 05/01 A2983 RMK SC2 SLP100=

CYVR;2006-03-25 13:00;METAR CYVR 251300Z 10002KT 20SM SCT060 03/00 A2982 RMK SC2 SLP097=

CYVR;2006-03-25 14:00;METAR CYVR 251400Z 03003KT 20SM SCT060 03/01 A2981 RMK SC2 SLP095=

CYVR;2006-03-25 15:00;METAR CYVR 251500Z 34002KT 30SM FEW055 SCT220 04/01 A2979 RMK SF1CI1 CONTRAILS SLP089=

CYVR;2006-03-25 16:00;METAR CYVR 251600Z 11003KT 30SM FEW055 SCT220 05/02 A2978 RMK SC1CI2 SLP086=

CYVR;2006-03-25 17:00;METAR CYVR 251700Z 28003KT 30SM FEW035 BKN210 07/02 A2977 RMK SC1CI3 SLP082=

CYVR;2006-03-25 18:00;METAR CYVR 251800Z 31009KT 30SM FEW035 SCT110 BKN150 08/03 A2975 RMK SC2AC2AC2 SLP076=

CYVR;2006-03-25 19:00;METAR CYVR 251900Z 30012KT 30SM FEW035 BKN190 07/04 A2975 RMK SC2AC4 SLP076=

CYVR;2006-03-25 20:00;METAR CYVR 252000Z 30015KT 30SM FEW035 SCT100 BKN180 08/04 A2975 RMK SC2AC2AC1 SLP075=

CYVR;2006-03-25 21:00;METAR CYVR 252100Z 30016KT 30SM FEW035 BKN150 09/03 A2974 RMK SC2AC2 TCU ASOCTD SLP070=

CYVR;2006-03-25 22:00;METAR CYVR 252200Z 29016KT 30SM FEW035 SCT150 09/03 A2973 RMK SC2AC1 SLP068=

CYVR;2006-03-25 23:00;METAR CYVR 252300Z 29015KT 30SM FEW035 SCT150 10/03 A2973 RMK SC2AC1 TCU ASOCTD SLP069=

CYVR;2006-03-26 00:00;METAR CYVR 260000Z 30015KT 30SM FEW035 SCT150 10/03 A2974 RMK SC2AC2 TCU EMBD SLP072=

CYVR;2006-03-26 01:00;METAR CYVR 260100Z 29012KT 30SM FEW040 SCT150 09/02 A2975 RMK SC2AC2 SLP074=

CYVR;2006-03-26 03:00;METAR CYVR 260300Z 29013KT 30SM FEW040 BKN170 07/00 A2978 RMK SC1AC3 SLP083=

CYVR;2006-03-26 05:00;METAR CYVR 260500Z 26009KT 30SM FEW040 SCT056 BKN160 07/04 A2984 RMK SC1SC2AC1 SLP104=

CYVR;2006-03-26 06:00;METAR CYVR 260600Z 27008KT 30SM SCT054 BKN160 07/00 A2987 RMK SC2AC1 SLP115=

CYVR;2006-03-26 09:00;METAR CYVR 260900Z 25009KT 30SM FEW054 SCT210 06/M01 A2994 RMK SC2CI1 SLP140=

CYVR;2006-03-26 10:00;METAR CYVR 261000Z 12004KT 30SM FEW035 SCT054 BKN160 05/00 A2997 RMK SC2SC1AC3 SLP149=

CYVR;2006-03-26 11:00;METAR CYVR 261100Z 16003KT 30SM FEW035 BKN062 BKN100 03/00 A3000 RMK SC2SC2AC2 SLP158=

CYVR;2006-03-26 12:00;METAR CYVR 261200Z 17008KT 30SM FEW035 BKN059 BKN070 06/01 A3003 RMK SC2SC4AC1 SLP168=

CYVR;2006-03-26 13:00;METAR CYVR 261300Z 11004KT 30SM FEW015 SCT035 OVC060 04/01 A3005 RMK SC2SC2SC3 SLP176=

CYVR;2006-03-26 13:54;SPECI CYVR 261354Z 15011KT 20SM -SHRA BKN022 OVC045 06/ RMK SC5SC3=

CYVR;2006-03-26 14:00;METAR CYVR 261400Z 15014KT 15SM -SHRA BKN022 OVC039 06/03 A3007 RMK SC5SC3 SLP183=

CYVR;2006-03-26 15:00;METAR CYVR 261500Z 14011KT 15SM -SHRA FEW022 BKN031 OVC041 06/03 A3009 RMK SC2SC3SC2 PCPN VRY LGT SLP188=

CYVR;2006-03-26 16:00;METAR CYVR 261600Z 16015KT 20SM -SHRA FEW026 BKN063 OVC140 06/03 A3010 RMK SC2SC2AC2 PCPN VRY LGT SLP194=

CYVR;2006-03-26 16:19;SPECI CYVR 261619Z 16012G17KT 20SM FEW022 BKN063 BKN150 06/ RMK SC2SC2AC2=

CYVR;2006-03-26 17:00;METAR CYVR 261700Z 15015KT 20SM SCT018 BKN064 OVC140 07/03 A3012 RMK SC3SC2AC2 SLP200=

CYVR;2006-03-26 18:00;METAR CYVR 261800Z 16014KT 20SM SCT019 BKN065 OVC100 07/03 A3014 RMK SC3SC2AC2 SLP206=

CYVR;2006-03-26 19:00;METAR CYVR 261900Z 16014G20KT 20SM SCT019 BKN070 OVC100 08/03 A3015 RMK SC4AC3AC1 SLP211=

CYVR;2006-03-26 19:56;SPECI CYVR 261956Z 17013G18KT 20SM -SHRA SCT019 BKN047 OVC090 08/ RMK SC3SC2AC2 CPPN VRY LGT=

CYVR;2006-03-26 20:00;METAR CYVR 262000Z 16016KT 20SM -SHRA SCT019 BKN045 OVC090 08/03 A3016 RMK SC3SC2AC2 CPPN VRY LGT SLP214=

CYVR;2006-03-26 20:25;SPECI CYVR 262025Z 15016KT 20SM FEW019 BKN031 BKN052 OVC090 08/ RMK SC2SC3SC2AC1 DIST SHRA N=

CYVR;2006-03-26 21:00;METAR CYVR 262100Z 15015G21KT 20SM FEW019 BKN031 OVC090 08/02 A3017 RMK SC2SC5AC1 SLP215=

CYVR;2006-03-26 22:00;METAR CYVR 262200Z 14012KT 30SM FEW028 BKN063 OVC240 08/02 A3016 RMK SC2SC4CI2 SLP214=

CYVR;2006-03-26 22:25;SPECI CYVR 262225Z 14011KT 30SM -SHRA FEW028 BKN041 OVC240 08/ RMK SC2SC5CI2 PCPN VRY LGT=

CYVR;2006-03-26 23:00;METAR CYVR 262300Z 11010G16KT 15SM -SHRA FEW027 BKN040 OVC090 08/02 A3016 RMK SC2ST5AC1 SLP212=

CYVR;2006-03-26 23:27;SPECI CYVR 262327Z 12009KT 15SM SCT027 BKN047 OVC090 08/ RMK SC3ST4AC1=

CYVR;2006-03-26 23:37;SPECI CYVR 262337Z 13008KT 15SM -SHRA SCT027 BKN040 OVC090 08/ RMK SC3ST4AC1 PCPN VRY LGT=

CYVR;2006-03-27 00:00;METAR CYVR 270000Z 13009KT 15SM -SHRA SCT027 OVC040 08/03 A3016 RMK SC3ST5 SLP212=

CYVR;2006-03-27 02:00;METAR CYVR 270200Z 09007KT 6SM -RA FEW025 BKN036 OVC100 06/05 A3014 RMK SC2ST5AC1 SLP208=

CYVR;2006-03-27 03:52;SPECI CYVR 270352Z 07008KT 10SM -RA SCT028 OVC048 06/ RMK SC4SC4 VIS N LWR 8 SM=

CYVR;2006-03-27 04:00;METAR CYVR 270400Z 08008KT 15SM -RA FEW028 SCT035 OVC055 06/04 A3015 RMK SC2SC2SC4 VIS N LWR 10 SM SLP210=

CYVR;2006-03-27 04:32;SPECI CYVR 270432Z 06009KT 15SM FEW030 SCT060 OVC110 06/ RMK SC2SC2AC5=

CYVR;2006-03-27 06:00;METAR CYVR 270600Z 07007KT 20SM BKN034 OVC110 05/04 A3014 RMK SC5AC3 SLP208=

CYVR;2006-03-27 07:00;METAR CYVR 270700Z 07007KT 20SM BKN037 OVC060 06/04 A3014 RMK SC6SC2 SLP207=

CYVR;2006-03-27 07:33;SPECI CYVR 270733Z 07008KT 15SM -SHRA BKN037 OVC045 05/ RMK SC6SC2=

CYVR;2006-03-27 08:35;SPECI CYVR 270835Z 09007KT 20SM FEW022 BKN035 OVC045 06/ RMK SC2SC3SC2=

CYVR;2006-03-27 09:00;METAR CYVR 270900Z 08007KT 20SM FEW030 OVC042 06/04 A3012 RMK SC2SC6 SLP199=

CYVR;2006-03-27 10:00;METAR CYVR 271000Z 05007KT 20SM FEW035 BKN067 OVC100 05/04 A3010 RMK SC2AC3AC2 SLP193=

CYVR;2006-03-27 12:00;METAR CYVR 271200Z 07007KT 20SM BKN160 04/03 A3004 RMK AC6 SLP174=

CYVR;2006-03-27 13:00;METAR CYVR 271300Z 09005KT 20SM FEW100 BKN130 04/03 A3002 RMK AC2AC4 SLP165=

CYVR;2006-03-27 16:00;METAR CYVR 271600Z 00000KT 30SM SCT130 OVC150 06/03 A2996 RMK AS3AS3 SLP146=

CYVR;2006-03-27 17:00;METAR CYVR 271700Z 00000KT 30SM SCT110 OVC130 07/04 A2995 RMK AS3AS2 SLP143=

CYVR;2006-03-27 18:00;METAR CYVR 271800Z 21006KT 30SM SCT110 BKN160 09/04 A2993 RMK AS2AS3 SLP137=

CYVR;2006-03-27 20:00;METAR CYVR 272000Z 29013KT 30SM FEW030 SCT160 09/06 A2990 RMK SC1AS2 SLP124=

CYVR;2006-03-27 22:00;METAR CYVR 272200Z 30013KT 30SM FEW035 BKN180 11/06 A2984 RMK SC1AS2 SLP106=

CYVR;2006-03-28 00:00;METAR CYVR 280000Z 30013KT 30SM FEW100 OVC230 09/05 A2978 RMK AS2CS5 SLP084=

CYVR;2006-03-28 01:00;METAR CYVR 280100Z 30012G17KT 30SM FEW100 BKN200 09/05 A2976 RMK AS2CI4 SLP077=

CYVR;2006-03-28 02:00;METAR CYVR 280200Z 31013KT 30SM SCT140 OVC200 09/05 A2973 RMK AS3CI2 SLP068=

CYVR;2006-03-28 04:00;METAR CYVR 280400Z 31011KT 30SM BKN210 08/05 A2971 RMK CI2 SLP060=

CYVR;2006-03-28 05:00;METAR CYVR 280500Z 32006KT 30SM BKN200 07/05 A2969 RMK CI2 SLP055=

CYVR;2006-03-28 06:00;METAR CYVR 280600Z 30003KT 30SM BKN190 07/05 A2968 RMK AC2 SLP050=

CYVR;2006-03-28 07:00;METAR CYVR 280700Z 29007KT 30SM FEW130 BKN150 08/04 A2967 RMK AC2AC3 SLP049=

CYVR;2006-03-28 08:00;METAR CYVR 280800Z 32010KT 30SM BKN120 BKN140 08/04 A2967 RMK AC6AC2 SLP047=

CYVR;2006-03-28 09:00;METAR CYVR 280900Z 31013KT 30SM BKN120 07/05 A2967 RMK AC7 SLP048=

CYVR;2006-03-28 10:00;METAR CYVR 281000Z 32013KT 30SM SCT120 BKN170 07/04 A2965 RMK AC3AC3 SLP042=

CYVR;2006-03-28 11:00;METAR CYVR 281100Z 29012KT 30SM BKN140 08/05 A2967 RMK AC6 SLP047=

CYVR;2006-03-28 13:00;METAR CYVR 281300Z 32009KT 30SM BKN110 OVC130 07/05 A2968 RMK AC6AC2 SLP052=

CYVR;2006-03-28 14:00;METAR CYVR 281400Z 30004KT 30SM FEW110 OVC140 07/05 A2972 RMK AC2AC5 SLP064=

CYVR;2006-03-28 15:00;METAR CYVR 281500Z 36004KT 30SM FEW050 SCT080 BKN110 BKN150 08/06 A2974 RMK SC1AC2AC3AC1 SLP071=

CYVR;2006-03-28 16:00;METAR CYVR 281600Z 10007KT 20SM FEW050 BKN070 BKN100 08/04 A2976 RMK SC2AC3AC2 SLP078=

CYVR;2006-03-28 17:00;METAR CYVR 281700Z 10011KT 20SM FEW055 BKN070 BKN100 09/04 A2977 RMK SC2AC4AS1 SLP082=

CYVR;2006-03-28 18:00;METAR CYVR 281800Z 14011KT 15SM SCT046 BKN070 OVC100 10/05 A2979 RMK SC4AC2AC1 SHS S SLP088=

CYVR;2006-03-28 19:00;METAR CYVR 281900Z 16008KT 15SM -SHRA FEW011 BKN037 BKN050 OVC080 09/06 A2980 RMK SC2SC4SC1AC1 CIG + VIS LWR E SLP091=

CYVR;2006-03-28 19:19;SPECI CYVR 281919Z 15006KT 12SM -SHRA FEW009 BKN014 BKN038 OVC060 09/ RMK SF1SC4SC2SC1=

CYVR;2006-03-28 20:00;METAR CYVR 282000Z 13006KT 12SM -SHRA FEW008 BKN013 BKN040 OVC090 09/08 A2980 RMK SF1SC5SC2AC1 SLP090=

CYVR;2006-03-28 20:26;SPECI CYVR 282026Z 11008KT 15SM SCT013 BKN043 BKN080 OVC100 10/ RMK SC3SC2AC2AS1=

CYVR;2006-03-28 21:00;METAR CYVR 282100Z 11006KT 15SM FEW014 BKN041 OVC080 10/07 A2978 RMK CU2SC4AC1 SLP086=

CYVR;2006-03-28 22:00;METAR CYVR 282200Z 16003KT 15SM BKN021 BKN045 BKN080 OVC120 11/06 A2977 RMK CU5SC1AC1AS1 SLP081=

CYVR;2006-03-28 23:00;METAR CYVR 282300Z 21005KT 15SM FEW020 BKN060 OVC090 10/07 A2976 RMK SC2SC4AC2 SLP078=

CYVR;2006-03-29 00:00;METAR CYVR 290000Z 23003KT 15SM FEW030 SCT070 BKN150 10/07 A2975 RMK SC2AC2AS3 SLP074=

CYVR;2006-03-29 01:00;METAR CYVR 290100Z 30003KT 15SM FEW035 SCT060 SCT150 BKN240 10/07 A2973 RMK SC2SC2AC1CI2 SLP069=

CYVR;2006-03-29 02:00;METAR CYVR 290200Z 29003KT 20SM FEW045 FEW060 SCT160 BKN240 08/06 A2973 RMK SC2SC1AC1CI2 SLP067=

CYVR;2006-03-29 03:00;METAR CYVR 290300Z 33005KT 20SM FEW060 SCT140 BKN210 08/06 A2973 RMK SC1AC2CI2 SLP067=

CYVR;2006-03-29 04:00;METAR CYVR 290400Z 32006KT 20SM FEW140 BKN210 07/05 A2972 RMK AC2CI2 SLP065=

CYVR;2006-03-29 06:00;METAR CYVR 290600Z 31006KT 20SM SKC 07/06 A2972 RMK SLP065=

CYVR;2006-03-29 07:00;METAR CYVR 290700Z 31008KT 20SM SKC 05/04 A2972 RMK SLP063=

CYVR;2006-03-29 08:00;METAR CYVR 290800Z 33007KT 20SM BKN005 05/04 A2971 RMK SC4 SLP062=

CYVR;2006-03-29 08:28;SPECI CYVR 290828Z 32008KT 20SM SKC 05/=

CYVR;2006-03-29 09:00;METAR CYVR 290900Z 32009KT 20SM FEW015 05/04 A2971 RMK SC1 SLP060=

CYVR;2006-03-29 10:00;METAR CYVR 291000Z 31009KT 20SM SKC 06/05 A2970 RMK SLP059=

CYVR;2006-03-29 11:00;METAR CYVR 291100Z 30009KT 20SM SKC 05/04 A2971 RMK SLP060=

CYVR;2006-03-29 12:00;METAR CYVR 291200Z 32009KT 20SM SKC 04/03 A2971 RMK SLP062=

CYVR;2006-03-29 13:00;METAR CYVR 291300Z 34004KT 20SM SKC 04/03 A2972 RMK SLP063=

CYVR;2006-03-29 14:00;METAR CYVR 291400Z 02005KT 20SM FEW020 FEW220 03/02 A2973 RMK SC1CI0 SLP067=

CYVR;2006-03-29 16:00;METAR CYVR 291600Z 00000KT 30SM FEW013 FEW230 07/04 A2976 RMK SF1CI0 SLP078=

CYVR;2006-03-29 18:00;METAR CYVR 291800Z 23007KT 20SM FEW016 SCT230 10/06 A2978 RMK CU2CI0 SLP085=

CYVR;2006-03-29 19:00;METAR CYVR 291900Z 24005KT 20SM FEW020 FEW050 SCT240 10/06 A2979 RMK CF1CU1CI1 SLP087=

CYVR;2006-03-29 20:00;METAR CYVR 292000Z 23006KT 20SM FEW040 SCT240 10/07 A2980 RMK CU2CI1 SLP091=

CYVR;2006-03-29 21:00;METAR CYVR 292100Z 24007KT 20SM FEW045 SCT240 13/06 A2980 RMK CU1CI1 SLP093=

CYVR;2006-03-29 22:00;METAR CYVR 292200Z 18007G15KT 20SM FEW045 BKN240 13/05 A2981 RMK CU2CI2 SLP094=

CYVR;2006-03-29 23:00;METAR CYVR 292300Z 18009KT 30SM FEW050 BKN240 13/06 A2982 RMK CU1CI3 SLP097=

CYVR;2006-03-30 00:00;METAR CYVR 300000Z 14011KT 20SM FEW050 BKN230 12/06 A2982 RMK CU1CI2 SLP099=

CYVR;2006-03-30 01:00;METAR CYVR 300100Z 14008KT 20SM FEW050 BKN210 11/06 A2983 RMK SC2CI2 SLP102=

CYVR;2006-03-30 02:06;SPECI CYVR 300206Z 13008KT 20SM FEW040 SCT120 BKN210 11/ RMK SC2AC2CI2 CB EMBD / LTG NW=

CYVR;2006-03-30 04:00;METAR CYVR 300400Z 12008KT 20SM FEW040 FEW120 BKN180 BKN210 10/06 A2986 RMK SC1AC2AS2CS2 SLP113=

CYVR;2006-03-30 05:00;METAR CYVR 300500Z 11008KT 20SM FEW040 BKN077 OVC210 09/06 A2988 RMK SC1AC6CS1 SLP118=

CYVR;2006-03-30 06:00;METAR CYVR 300600Z 12005KT 20SM FEW040 BKN076 OVC110 10/05 A2990 RMK SC1AC6AC2 SLP124=

CYVR;2006-03-30 07:00;METAR CYVR 300700Z 16005KT 20SM FEW040 BKN077 OVC140 10/04 A2991 RMK SC1AC6AC2 SLP128=

CYVR;2006-03-30 07:45;SPECI CYVR 300745Z 11005KT 20SM -SHRA SCT044 BKN080 OVC110 10/ RMK SC3AC3AC2=

CYVR;2006-03-30 08:00;METAR CYVR 300800Z 13006KT 20SM -SHRA FEW044 BKN078 BKN110 09/05 A2992 RMK SC2AC3AC1 SLP132=

CYVR;2006-03-30 08:35;SPECI CYVR 300835Z 13004KT 20SM FEW045 SCT077 09/ RMK SC2AC2=

CYVR;2006-03-30 09:00;METAR CYVR 300900Z 12004KT 20SM FEW045 SCT080 08/05 A2993 RMK SC1AC2 SLP136=

CYVR;2006-03-30 12:00;METAR CYVR 301200Z 11007KT 20SM FEW043 SCT064 OVC074 08/06 A2996 RMK SC1SC3AC4 SLP145=

CYVR;2006-03-30 14:00;METAR CYVR 301400Z 10008KT 20SM -SHRA FEW025 BKN041 OVC065 07/06 A2997 RMK SC2SC5SC2 SLP148=

CYVR;2006-03-30 14:25;SPECI CYVR 301425Z 11009KT 20SM FEW020 BKN036 OVC062 07/ RMK SC2SC4SC2=

CYVR;2006-03-30 14:40;SPECI CYVR 301440Z 11006KT 15SM -SHRA FEW015 BKN038 BKN060 BKN100 07/ RMK SC1SC5SC1AC1=

CYVR;2006-03-30 15:00;METAR CYVR 301500Z 09007KT 15SM -SHRA FEW013 BKN037 BKN060 BKN100 07/06 A2996 RMK SF1SC4SC1AC1 TCU EMBD SLP147=

CYVR;2006-03-30 16:00;METAR CYVR 301600Z 06006KT 15SM -SHRA FEW012 BKN032 OVC060 08/07 A2997 RMK SF1SC6SC2 SLP149=

CYVR;2006-03-30 17:00;METAR CYVR 301700Z 10008KT 10SM -SHRA FEW012 BKN025 BKN040 OVC060 07/07 A2997 RMK SF1SC5SC2SC1 SLP150=

CYVR;2006-03-30 17:35;SPECI CYVR 301735Z 08006KT 15SM FEW015 BKN025 OVC060 08/ RMK SF1SC6SC2=

CYVR;2006-03-30 18:00;METAR CYVR 301800Z 09007KT 15SM FEW015 BKN026 OVC060 08/07 A2997 RMK SF1SC6SC2 SLP150=

CYVR;2006-03-30 19:00;METAR CYVR 301900Z 07006KT 15SM FEW020 SCT040 OVC084 10/06 A2997 RMK SC2SC2AC3 SLP148=

CYVR;2006-03-30 20:00;METAR CYVR 302000Z 08008KT 15SM FEW025 BKN060 OVC085 11/07 A2996 RMK CU2SC4AC1 SLP145=

CYVR;2006-03-30 21:00;METAR CYVR 302100Z 08008KT 20SM FEW030 SCT060 BKN090 12/07 A2994 RMK CU2SC1AC2 SLP140=

CYVR;2006-03-30 22:00;METAR CYVR 302200Z 12003KT 20SM SCT035 BKN060 BKN090 13/07 A2992 RMK CU4SC1AC1 SLP132=

CYVR;2006-03-30 23:00;METAR CYVR 302300Z 09005KT 20SM SCT040 BKN055 BKN090 13/05 A2990 RMK CU3SC2AC2 SLP124=

CYVR;2006-03-31 00:00;METAR CYVR 310000Z 30005KT 20SM SCT040 BKN055 BKN150 13/06 A2987 RMK CU3SC2AC2 TCU ASOCTD SLP116=

CYVR;2006-03-31 02:00;METAR CYVR 310200Z 04004KT 20SM SCT052 BKN070 BKN200 13/05 A2984 RMK CU3AC2CI1 TCU ASOCTD SLP104=

CYVR;2006-03-31 05:00;METAR CYVR 310500Z 05005KT 20SM FEW040 BKN058 OVC077 10/06 A2984 RMK SC1SC6AC2 SLP106=

CYVR;2006-03-31 06:35;SPECI CYVR 310635Z 07005KT 20SM -SHRA SCT057 OVC074 10/ RMK SC4AC4=

CYVR;2006-03-31 06:56;SPECI CYVR 310656Z 03008KT 20SM SCT057 BKN080 OVC098 10/ RMK SC3AC3AC2=

CYVR;2006-03-31 09:00;METAR CYVR 310900Z 07006KT 20SM SCT053 OVC081 09/06 A2979 RMK SC3AC5 SLP087=

CYVR;2006-03-31 10:00;METAR CYVR 311000Z 34003KT 20SM SCT056 OVC084 09/06 A2977 RMK SC3AC5 SLP082=

CYVR;2006-03-31 10:18;SPECI CYVR 311018Z 00000KT 20SM -SHRA BKN057 OVC084 09/ RMK SC6AC2=

CYVR;2006-03-31 11:00;METAR CYVR 311100Z 05003KT 20SM -SHRA FEW044 BKN055 OVC081 09/07 A2976 RMK SC2SC4AC2 SLP077=

CYVR;2006-03-31 11:30;SPECI CYVR 311130Z 34006KT 20SM FEW044 BKN056 OVC087 09/ RMK SC2SC5AC2=

CYVR;2006-03-31 12:00;METAR CYVR 311200Z 34004KT 20SM BKN053 OVC082 08/07 A2974 RMK SC6AC2 SLP072=

CYVR;2006-03-31 12:51;SPECI CYVR 311251Z 18005KT 20SM -SHRA BKN053 OVC074 09/ RMK SC6AC2=

CYVR;2006-03-31 13:00;METAR CYVR 311300Z 18005KT 20SM -SHRA BKN050 OVC074 09/07 A2975 RMK SC6AC2 SLP075=

CYVR;2006-03-31 14:00;METAR CYVR 311400Z 13002KT 15SM -RA BKN041 OVC065 08/07 A2976 RMK SC6SC2 SLP078=

CYVR;2006-03-31 15:00;METAR CYVR 311500Z 08010KT 10SM -SHRA SCT025 BKN045 OVC070 08/07 A2977 RMK SF3SC4AC1 SLP081=

CYVR;2006-03-31 16:00;METAR CYVR 311600Z 10009KT 6SM -SHRA FEW010 BKN014 OVC030 08/07 A2978 RMK SF1SC6SC2 SLP085=

CYVR;2006-03-31 17:00;METAR CYVR 311700Z 09008KT 8SM -SHRA BKN014 OVC030 08/08 A2979 RMK SC6SC2 SLP088=

CYVR;2006-03-31 17:20;SPECI CYVR 311720Z 09010KT 8SM -SHRA FEW007 BKN014 OVC030 08/ RMK SF2SC5SC2=

CYVR;2006-03-31 19:00;METAR CYVR 311900Z 09009KT 15SM -SHRA FEW009 BKN014 BKN020 OVC035 09/08 A2981 RMK SF1SC4SC2SC2 SLP094=

CYVR;2006-03-31 19:30;SPECI CYVR 311930Z 09008KT 15SM FEW011 SCT014 BKN020 OVC039 09/ RMK SF1SC3SC2SC2=

CYVR;2006-03-31 21:00;METAR CYVR 312100Z 08007KT 20SM FEW022 SCT040 BKN200 10/08 A2980 RMK SC2CU2CI2 TCU ASOCTD SLP091=

CYVR;2006-03-31 23:00;METAR CYVR 312300Z 05005KT 20SM FEW030 SCT090 BKN210 13/07 A2978 RMK CU2AC1CI1 TCU ASOCTD SLP083=

CYVR;2006-04-01 00:00;METAR CYVR 010000Z 10005KT 20SM FEW035TCU SCT090 BKN200 12/07 A2978 RMK TCU2AC1CI1 SLP083=

CYVR;2006-04-01 01:00;METAR CYVR 010100Z 29004KT 20SM FEW040 SCT090 BKN220 10/07 A2977 RMK CU2AC1CI1 SLP080=

CYVR;2006-04-01 02:00;METAR CYVR 010200Z 30003KT 20SM FEW045 FEW080 BKN220 10/07 A2976 RMK SC2AC1CI1 SLP079=

CYVR;2006-04-01 03:00;METAR CYVR 010300Z 11003KT 20SM FEW090 BKN220 10/07 A2977 RMK AC2CI1 SLP080=

CYVR;2006-04-01 04:00;METAR CYVR 010400Z 06004KT 20SM FEW090 BKN220 09/06 A2976 RMK AC1CI2 SLP079=

CYVR;2006-04-01 05:00;METAR CYVR 010500Z 08003KT 20SM FEW100 BKN240 07/05 A2978 RMK AC2CI2 SLP083=

CYVR;2006-04-01 06:00;METAR CYVR 010600Z 18002KT 20SM FEW100 SCT240 07/05 A2978 RMK AC1CI1 SLP084=

CYVR;2006-04-01 07:00;METAR CYVR 010700Z 36002KT 20SM FEW060 BKN180 BKN240 07/04 A2977 RMK SC2AC4CI0 SLP080=

CYVR;2006-04-01 08:00;METAR CYVR 010800Z 01004KT 20SM FEW060 BKN180 OVC240 07/04 A2976 RMK SC2AC5CI1 SLP079=

CYVR;2006-04-01 09:00;METAR CYVR 010900Z 10003KT 20SM SCT100 OVC240 06/04 A2976 RMK AC4CI2 SLP077=

CYVR;2006-04-01 10:00;METAR CYVR 011000Z 35002KT 20SM FEW100 BKN160 OVC240 06/04 A2973 RMK AC2AC2CI2 SLP068=

CYVR;2006-04-01 12:00;METAR CYVR 011200Z 12005KT 20SM BKN055 OVC083 08/05 A2972 RMK SC5AC3 SLP066=

CYVR;2006-04-01 12:17;SPECI CYVR 011217Z 27002KT 20SM -SHRA BKN056 OVC079 08/ RMK SC6AC2=

CYVR;2006-04-01 13:00;METAR CYVR 011300Z 25008G15KT 12SM -SHRA BKN027 OVC045 08/07 A2975 RMK SC5SC3 SLP073=

CYVR;2006-04-01 14:00;METAR CYVR 011400Z 29006KT 12SM -RA BKN017 OVC034 08/07 A2976 RMK SC6SC2 SLP079=

CYVR;2006-04-01 14:12;SPECI CYVR 011412Z 31006KT 12SM -RA SCT008 BKN017 OVC036 07/ RMK SC3SC3SC2=

CYVR;2006-04-01 14:35;SPECI CYVR 011435Z 27011KT 10SM -RA SCT008 BKN014 OVC035 07/ RMK SC4SC2SC2=

CYVR;2006-04-01 15:00;METAR CYVR 011500Z 30013KT 10SM -RA SCT008 SCT015 BKN025 OVC048 07/06 A2977 RMK SF3SC1SC2SC2 SLP082=

CYVR;2006-04-01 16:00;METAR CYVR 011600Z 27004KT 6SM -RA FEW009 BKN017 OVC025 07/07 A2980 RMK SF2SC6SC1 SLP092=

CYVR;2006-04-01 17:00;METAR CYVR 011700Z 27008KT 8SM -RA FEW009 SCT018 BKN029 OVC040 07/07 A2981 RMK SF2SC2SC2SC2 SLP096=

CYVR;2006-04-01 18:00;METAR CYVR 011800Z 23007KT 8SM -RA FEW009 SCT015 BKN030 OVC045 08/07 A2983 RMK SF2SC2SC2SC2 SLP102=

CYVR;2006-04-01 19:00;METAR CYVR 011900Z 20006KT 10SM -RA FEW008 SCT020 BKN039 OVC049 08/07 A2985 RMK SF2SC2SC3SC2 SLP108=

CYVR;2006-04-01 20:00;METAR CYVR 012000Z 17004KT 10SM -RA FEW009 BKN026 OVC045 08/07 A2986 RMK CU2SC4SC2 SLP113=

CYVR;2006-04-01 21:00;METAR CYVR 012100Z 17008KT 10SM -RA FEW008 BKN019 BKN035 OVC048 08/06 A2989 RMK SC2SC3SC2SC2 SLP121=

CYVR;2006-04-01 22:00;METAR CYVR 012200Z 14012KT 12SM -RA FEW007 SCT015 BKN022 OVC045 08/07 A2990 RMK SC2SC2SC3SC2 SLP126=

CYVR;2006-04-01 23:00;METAR CYVR 012300Z 13012KT 12SM -RA FEW009 SCT014 BKN020 OVC040 08/07 A2991 RMK SC2SC2SC2SC2 SLP128=

CYVR;2006-04-02 00:00;METAR CYVR 020000Z 14013KT 10SM -RA SCT009 BKN024 OVC045 08/06 A2993 RMK SC3SC3SC2 PCPN VRY LGT SLP135=

CYVR;2006-04-02 01:00;METAR CYVR 020100Z 13013KT 5SM -RA SCT009 BKN027 OVC046 07/07 A2993 RMK SC3SC2SC3 SLP137=

CYVR;2006-04-02 02:00;METAR CYVR 020200Z 12011KT 12SM FEW008 SCT027 BKN048 08/07 A2994 RMK SC2SC2SC3 SLP139=

CYVR;2006-04-02 04:00;METAR CYVR 020400Z 09007KT 12SM FEW007 SCT040 BKN100 07/06 A2997 RMK SC2SC2AC2 SLP148=

CYVR;2006-04-02 05:00;METAR CYVR 020500Z 09007KT 12SM FEW007 SCT050 BKN090 07/06 A2998 RMK SC2SC2AC2 SLP151=

CYVR;2006-04-02 06:00;METAR CYVR 020600Z 09007KT 12SM FEW008 BKN054 OVC089 07/06 A2998 RMK SC2SC4AC2 SLP153=

CYVR;2006-04-02 07:00;METAR CYVR 020700Z 08008KT 12SM FEW007 SCT045 BKN091 07/06 A2998 RMK SC2SC2AC2 SLP152=

CYVR;2006-04-02 08:00;METAR CYVR 020800Z 07007KT 15SM FEW007 FEW030 FEW090 06/05 A2999 RMK SC1SC1AC1 SLP155=

CYVR;2006-04-02 09:00;METAR CYVR 020900Z 09007KT 15SM BKN035 BKN090 06/05 A2999 RMK SC5AC2 SLP157=

CYVR;2006-04-02 11:00;METAR CYVR 021100Z 08008KT 15SM FEW035 BKN250 05/04 A3000 RMK SC2CI4 SLP158=

CYVR;2006-04-02 12:00;METAR CYVR 021200Z 10008KT 15SM FEW035 SCT055 BKN230 05/04 A2999 RMK SC2SC2CS4 SLP157=

CYVR;2006-04-02 13:00;METAR CYVR 021300Z 10008KT 20SM FEW050 SCT150 BKN220 05/04 A3000 RMK SC2AC2CS3 SLP158=

CYVR;2006-04-02 14:00;METAR CYVR 021400Z 09009KT 30SM FEW050 SCT150 BKN230 05/04 A2999 RMK SC2AC2CS3 SLP157=

CYVR;2006-04-02 16:00;METAR CYVR 021600Z 09015KT 30SM BKN058 OVC150 07/05 A3002 RMK SC6AC2 SLP166=

CYVR;2006-04-02 16:02;SPECI CYVR 021602Z 08012KT 30SM -SHRA BKN058 OVC150 07/ RMK SC6AC2 PCPN VRY LGT=

CYVR;2006-04-02 16:56;SPECI CYVR 021656Z 08013G18KT 30SM BKN058 BKN150 09/ RMK SC6AC1=

CYVR;2006-04-02 17:00;METAR CYVR 021700Z 08013G18KT 30SM BKN056 BKN150 09/05 A3002 RMK SC5AC1 SLP166=

CYVR;2006-04-02 18:00;METAR CYVR 021800Z 08014KT 30SM FEW045 SCT060 BKN150 BKN220 11/04 A3002 RMK SC1SC1AC1CI1 SLP166=

CYVR;2006-04-02 19:00;METAR CYVR 021900Z 08012KT 30SM FEW045 BKN064 BKN086 13/02 A3002 RMK SC1SC2AC1 SLP165=

CYVR;2006-04-02 22:00;METAR CYVR 022200Z 09011KT 30SM FEW065 BKN090 BKN150 15/02 A2999 RMK SC2AC3AC2 LENT SLP157=

CYVR;2006-04-02 23:00;METAR CYVR 022300Z 10010KT 30SM FEW065 FEW090 BKN180 15/02 A2998 RMK SC1AC2AC5 LENT SLP154=

CYVR;2006-04-03 00:00;METAR CYVR 030000Z 11009G15KT 30SM FEW090 SCT180 BKN220 16/03 A2997 RMK AC1AC1CI1 SLP150=

CYVR;2006-04-03 01:00;METAR CYVR 030100Z 10012KT 30SM BKN058 BKN180 15/03 A2997 RMK SC5AC1=

CYVR;2006-04-03 03:00;METAR CYVR 030300Z 10008KT 20SM SCT071 BKN091 OVC190 13/03 A2998 RMK AC3AC2AC2 SLP153=

CYVR;2006-04-03 04:15;SPECI CYVR 030415Z 10008KT 15SM BKN071 BKN090 OVC120 13/ RMK AC5AC2AC2=

CYVR;2006-04-03 05:00;METAR CYVR 030500Z 08006KT 15SM SCT080 BKN130 OVC190 12/03 A3001 RMK AC3AC2AC2 SLP161=

CYVR;2006-04-03 07:00;METAR CYVR 030700Z 08007KT 15SM BKN082 OVC120 10/04 A2999 RMK AC5AC2 SLP155=

CYVR;2006-04-03 08:00;METAR CYVR 030800Z 10007KT 15SM BKN087 OVC120 09/04 A2998 RMK AC6AC2 SLP151=

CYVR;2006-04-03 09:00;METAR CYVR 030900Z 23003KT 15SM BKN088 OVC120 10/04 A2997 RMK AC6AC2 SLP149=

CYVR;2006-04-03 11:00;METAR CYVR 031100Z 18002KT 15SM FEW088 08/05 A2992 RMK AC2 SLP131=

CYVR;2006-04-03 12:00;METAR CYVR 031200Z 00000KT 20SM FEW090 BKN230 07/04 A2988 RMK AC2CI2 SLP120=

CYVR;2006-04-03 14:00;METAR CYVR 031400Z 30013KT 15SM BKN130 BKN190 08/07 A2985 RMK AC5AC2 SLP108=

CYVR;2006-04-03 15:00;METAR CYVR 031500Z 01003KT 30SM SCT130 BKN170 09/06 A2983 RMK AC1AC2 SLP102=

CYVR;2006-04-03 16:00;METAR CYVR 031600Z 28011KT 30SM FEW120 SCT180 BKN220 10/08 A2983 RMK AC1AC1CI1 SLP101=

CYVR;2006-04-03 17:00;METAR CYVR 031700Z 32012KT 30SM BKN090 BKN160 09/08 A2981 RMK AC5AC2 SLP096=

CYVR;2006-04-03 18:00;METAR CYVR 031800Z 30011KT 30SM OVC091 10/08 A2981 RMK AC7 SLP094=

CYVR;2006-04-03 19:00;METAR CYVR 031900Z 30013KT 30SM -SHRA BKN077 OVC090 09/07 A2981 RMK AC5AC3 PCPN VRY LGT SLP094=

CYVR;2006-04-03 19:22;SPECI CYVR 031922Z 31014KT 30SM BKN080 OVC090 10/ RMK AC5AC3=

CYVR;2006-04-03 20:00;METAR CYVR 032000Z 31012KT 30SM OVC081 09/08 A2979 RMK AC8 SLP089=

CYVR;2006-04-03 20:34;SPECI CYVR 032034Z 31011KT 30SM -SHRA OVC078 09/ RMK AC8 PCPN VRY LGT=

CYVR;2006-04-03 21:00;METAR CYVR 032100Z 31013KT 30SM -SHRA OVC078 09/08 A2980 RMK AC8 SLP090=

CYVR;2006-04-03 22:00;METAR CYVR 032200Z 29008KT 30SM OVC076 10/08 A2979 RMK AC7 SLP087=

CYVR;2006-04-03 23:00;METAR CYVR 032300Z 28010KT 30SM OVC080 10/08 A2979 RMK AC7 SLP087=

CYVR;2006-04-03 23:31;SPECI CYVR 032331Z 28012KT 30SM -SHRA FEW056 OVC071 10/ RMK SC2AC5 PCPN VRY LGT=

CYVR;2006-04-04 00:00;METAR CYVR 040000Z 28015KT 30SM -SHRA OVC070 09/08 A2980 RMK AC8 SLP091=

CYVR;2006-04-04 03:00;METAR CYVR 040300Z 36004KT 15SM -RA BKN050 OVC069 09/08 A2985 RMK SC6AC2 FG BNK N SLP107=

CYVR;2006-04-04 05:00;METAR CYVR 040500Z 25007KT 5SM RA BR FEW005 SCT011 BKN020 OVC043 09/05 A2992 RMK SF2SF2SC4SC1 SLP133=

CYVR;2006-04-04 06:00;METAR CYVR 040600Z 28004KT 8SM -RA FEW008 BKN033 OVC042 08/07 A2993 RERA RMK SF2SC4SC2 SLP134=

CYVR;2006-04-04 06:27;SPECI CYVR 040627Z 32006KT 8SM FEW008 BKN036 OVC089 08/ RMK SF2SC5AC2=

CYVR;2006-04-04 07:00;METAR CYVR 040700Z 36003KT 8SM FEW008 BKN047 OVC130 08/07 A2992 RMK SF2SC6AC1 SLP133=

CYVR;2006-04-04 09:00;METAR CYVR 040900Z 17005KT 15SM BKN045 BKN062 BKN150 08/08 A2994 RMK SC5SC2AC1 SLP140=

CYVR;2006-04-04 10:00;METAR CYVR 041000Z 18003KT 15SM FEW018 BKN051 OVC150 08/07 A2996 RMK SC2SC5AC2 SLP144=

CYVR;2006-04-04 11:00;METAR CYVR 041100Z 09002KT 15SM FEW015 BKN052 OVC069 08/07 A2996 RMK SF2SC6AC1 SLP145=

CYVR;2006-04-04 12:00;METAR CYVR 041200Z 05002KT 15SM FEW016 BKN051 OVC065 07/07 A2996 RMK SF2SC4SC2 SLP144=

CYVR;2006-04-04 13:00;METAR CYVR 041300Z 00000KT 12SM FEW018 SCT052 BKN064 BKN160 07/07 A2995 RMK SF2SC2SC2AC1 SLP142=

CYVR;2006-04-04 14:00;METAR CYVR 041400Z 35002KT 15SM FEW011 SCT047 BKN062 07/07 A2994 RMK SF1SC2SC3 FG BNK N SLP140=

CYVR;2006-04-04 15:00;METAR CYVR 041500Z 36003KT 15SM FEW012 BKN065 09/07 A2995 RMK SF2SC3 SLP141=

CYVR;2006-04-04 16:00;METAR CYVR 041600Z 09002KT 15SM FEW012 BKN061 10/07 A2994 RMK CF2SC3 SLP140=

CYVR;2006-04-04 18:00;METAR CYVR 041800Z 30006KT 20SM FEW010 SCT013 10/08 A2993 RMK CF1CU2 TCU ASOCT SLP137=

CYVR;2006-04-04 19:00;METAR CYVR 041900Z 29009KT 30SM FEW010 FEW013 10/07 A2991 RMK CF1CU2 SLP128=

CYVR;2006-04-04 20:00;METAR CYVR 042000Z 30011KT 30SM FEW010 FEW015 11/08 A2990 RMK CF1CU1 TR CF SLP126=

CYVR;2006-04-04 21:00;METAR CYVR 042100Z 28010KT 30SM FEW035 11/06 A2989 RMK SC1 SLP123=

CYVR;2006-04-04 22:00;METAR CYVR 042200Z 30009KT 30SM FEW030 FEW035 12/05 A2988 RMK CF1SC1 TR CF SLP118=

CYVR;2006-04-04 23:00;METAR CYVR 042300Z 30013KT 30SM FEW035 FEW220 12/07 A2985 RMK CF1CI1 TR CI SLP108=

CYVR;2006-04-05 00:00;METAR CYVR 050000Z 29015KT 30SM FEW035 FEW220 12/05 A2983 RMK CF1CI0 SLP102=

CYVR;2006-04-05 01:00;METAR CYVR 050100Z 29014KT 30SM FEW035 FEW220 12/04 A2981 RMK CF1CI1 TR CF SLP095=

CYVR;2006-04-05 02:00;METAR CYVR 050200Z 29013KT 30SM FEW035 FEW220 11/05 A2979 RMK CF1CI0 TR CF SLP089=

CYVR;2006-04-05 03:00;METAR CYVR 050300Z 30010KT 30SM FEW035 FEW220 09/05 A2978 RMK CU1CI1 SLP084=

CYVR;2006-04-05 04:00;METAR CYVR 050400Z 31010KT 30SM FEW220 08/06 A2978 RMK CI1 SLP084=

CYVR;2006-04-05 06:00;METAR CYVR 050600Z 33008KT 30SM FEW100 08/07 A2975 RMK AC1 SLP076=

CYVR;2006-04-05 07:00;METAR CYVR 050700Z 34004KT 30SM FEW110 07/05 A2973 RMK AC1 SLP069=

CYVR;2006-04-05 08:00;METAR CYVR 050800Z 30014KT 30SM SCT110 08/06 A2972 RMK AC3 SLP066=

CYVR;2006-04-05 09:00;METAR CYVR 050900Z 31008KT 30SM FEW120 07/05 A2973 RMK AC2 SLP068=

CYVR;2006-04-05 10:00;METAR CYVR 051000Z 31013KT 30SM FEW110 08/06 A2972 RMK AC1 SLP063=

CYVR;2006-04-05 11:00;METAR CYVR 051100Z 36006KT 30SM FEW210 06/04 A2969 RMK CI0 SLP055=

CYVR;2006-04-05 12:00;METAR CYVR 051200Z 36003KT 30SM SKC 05/04 A2968 RMK SLP052=

CYVR;2006-04-05 13:00;METAR CYVR 051300Z 32011KT 30SM FEW110 FEW210 06/05 A2967 RMK AC1CI1 SLP047=

CYVR;2006-04-05 14:00;METAR CYVR 051400Z 31008KT 30SM FEW015 FEW100 FEW210 06/05 A2968 RMK SC1AC1CI1 SLP051=

CYVR;2006-04-05 14:33;SPECI CYVR 051433Z 30010KT 30SM BKN007 07/ RMK SC5=

CYVR;2006-04-05 14:42;SPECI CYVR 051442Z 30013KT 30SM FEW008 FEW210 07/ RMK SC1CI0=

CYVR;2006-04-05 15:00;METAR CYVR 051500Z 31013KT 30SM FEW008 FEW210 08/07 A2967 RMK SC1CI0 TR SC SLP047=

CYVR;2006-04-05 16:00;METAR CYVR 051600Z 31012KT 30SM SCT210 08/07 A2966 RMK CI1 SLP043=

CYVR;2006-04-05 17:00;METAR CYVR 051700Z 31012KT 30SM BKN210 09/07 A2965 RMK CI2 SLP042=

CYVR;2006-04-05 18:00;METAR CYVR 051800Z 31012KT 30SM FEW210 10/07 A2965 RMK CI1 SLP042=

CYVR;2006-04-05 19:00;METAR CYVR 051900Z 30013KT 30SM FEW210 11/08 A2965 RMK CI1 SLP041=

CYVR;2006-04-05 20:00;METAR CYVR 052000Z 30012KT 30SM FEW040 FEW100 SCT210 11/08 A2965 RMK SC1AC1CI1 TR SC TR AC SLP040=

CYVR;2006-04-05 21:00;METAR CYVR 052100Z 29011KT 30SM FEW040 BKN210 11/07 A2964 RMK SC1CS1 SLP038=

CYVR;2006-04-05 22:00;METAR CYVR 052200Z 28011KT 30SM FEW040 SCT210 12/08 A2965 RMK SC1CI2 TR SC SLP040=

CYVR;2006-04-05 23:00;METAR CYVR 052300Z 29007KT 30SM FEW040 SCT210 13/08 A2965 RMK SC1CI2 SLP042=

CYVR;2006-04-06 00:00;METAR CYVR 060000Z 26004KT 30SM FEW060 FEW210 12/07 A2966 RMK SC1CI2 TR SC SLP043=

CYVR;2006-04-06 01:00;METAR CYVR 060100Z 21004KT 30SM FEW060 FEW210 14/06 A2967 RMK SC1CI1 SLP048=

CYVR;2006-04-06 02:00;METAR CYVR 060200Z 20004KT 30SM FEW060 FEW090 FEW210 14/04 A2969 RMK SC1AC1CI1 SLP054=

CYVR;2006-04-06 03:00;METAR CYVR 060300Z 14007KT 30SM FEW060 FEW090 FEW220 12/06 A2971 RMK SC1AC1CI0 SLP061=

CYVR;2006-04-06 04:00;METAR CYVR 060400Z 11007KT 30SM FEW070 SCT100 11/05 A2974 RMK AC2AC2 SLP070=

CYVR;2006-04-06 05:00;METAR CYVR 060500Z 09007KT 30SM FEW070 SCT110 10/06 A2976 RMK AC2AC2 SLP079=

CYVR;2006-04-06 06:00;METAR CYVR 060600Z 10006KT 30SM FEW070 FEW110 08/05 A2979 RMK AC1AC2 SLP088=

CYVR;2006-04-06 07:00;METAR CYVR 060700Z 10005KT 30SM BKN110 09/07 A2982 RMK AC5 SLP097=

CYVR;2006-04-06 08:00;METAR CYVR 060800Z 10002KT 30SM BKN100 09/06 A2985 RMK AC5 SLP109=

CYVR;2006-04-06 09:00;METAR CYVR 060900Z 21005KT 30SM FEW040 BKN100 09/03 A2988 RMK SC1AC5 SLP118=

CYVR;2006-04-06 10:00;METAR CYVR 061000Z 19006KT 30SM FEW040 SCT100 09/02 A2991 RMK SC1AC3 SLP129=

CYVR;2006-04-06 11:00;METAR CYVR 061100Z 12007KT 30SM FEW040 SCT090 08/02 A2994 RMK SC1AC2 SLP140=

CYVR;2006-04-06 12:00;METAR CYVR 061200Z 11007KT 30SM FEW040 FEW090 06/02 A2997 RMK SC1AC1 SLP150=

CYVR;2006-04-06 13:00;METAR CYVR 061300Z 09009KT 30SM FEW045 FEW080 04/02 A3000 RMK SC1AC1 SLP159=

CYVR;2006-04-06 14:00;METAR CYVR 061400Z 09008KT 30SM SCT053 BKN220 05/03 A3003 RMK SC4CI1 SLP168=

CYVR;2006-04-06 15:00;METAR CYVR 061500Z 09009KT 30SM FEW036 BKN050 08/04 A3004 RMK SC1SC6 SLP174=

CYVR;2006-04-06 16:00;METAR CYVR 061600Z 11009KT 30SM BKN046 09/03 A3006 RMK SC7 SLP181=

CYVR;2006-04-06 17:00;METAR CYVR 061700Z 11008KT 30SM FEW025 OVC049 10/05 A3008 RMK SC1SC7 SLP187=

CYVR;2006-04-06 18:00;METAR CYVR 061800Z 09011KT 20SM SCT022 OVC043 10/05 A3009 RMK SC4SC4 SLP191=

CYVR;2006-04-06 18:13;SPECI CYVR 061813Z 10011KT 20SM -SHRA SCT025 OVC048 10/ RMK SC3SC5=

CYVR;2006-04-06 18:35;SPECI CYVR 061835Z 08007KT 20SM FEW025 BKN043 11/ RMK SC2SC5=

CYVR;2006-04-06 19:00;METAR CYVR 061900Z 09007KT 20SM FEW027 SCT047 BKN100 OVC220 11/04 A3009 RMK SC2SC2AC1CI0 SLP191=

CYVR;2006-04-06 21:00;METAR CYVR 062100Z 14010KT 30SM FEW037 BKN150 OVC220 12/04 A3009 RMK SC2AS2CI1 SLP191=

CYVR;2006-04-06 22:00;METAR CYVR 062200Z 13006KT 30SM SCT042 SCT090 BKN150 OVC220 13/04 A3010 RMK SC3AC1AS1CI0 SLP193=

CYVR;2006-04-06 23:00;METAR CYVR 062300Z 14011KT 30SM FEW045 FEW090 SCT120 OVC210 13/02 A3009 RMK SC1AC1AS2CS2 SLP190=

CYVR;2006-04-07 00:00;METAR CYVR 070000Z 16007KT 30SM FEW045 FEW068 SCT100 BKN220 12/02 A3009 RMK SC1AC1AC2CI1 SLP191=

CYVR;2006-04-07 01:00;METAR CYVR 070100Z 21006KT 30SM FEW045 FEW065 BKN100 12/04 A3009 RMK SC1SC2AC3 SLP190=

CYVR;2006-04-07 02:00;METAR CYVR 070200Z 21003KT 30SM FEW040 SCT060 BKN075 12/03 A3009 RMK SC1SC3AC3 SLP191=

CYVR;2006-04-07 03:00;METAR CYVR 070300Z 29002KT 20SM FEW040 SCT060 BKN085 11/04 A3010 RMK SC1SC2AC2 SLP192=

CYVR;2006-04-07 04:00;METAR CYVR 070400Z 02005KT 20SM FEW050 BKN079 BKN100 11/05 A3010 RMK SC2AC4AC1 SLP194=

CYVR;2006-04-07 05:00;METAR CYVR 070500Z 03006KT 20SM FEW050 BKN077 BKN110 10/04 A3011 RMK SC2AC3AC2 SLP196=

CYVR;2006-04-07 06:00;METAR CYVR 070600Z 04003KT 20SM FEW050 BKN075 BKN100 10/04 A3011 RMK SC2AC4AC2 SLP197=

CYVR;2006-04-07 07:00;METAR CYVR 070700Z 09004KT 20SM FEW050 SCT070 BKN100 08/03 A3012 RMK SC1AC2AC2 SLP200=

CYVR;2006-04-07 08:00;METAR CYVR 070800Z 10004KT 20SM FEW070 FEW110 08/03 A3011 RMK AC1AC2 SLP198=

CYVR;2006-04-07 09:00;METAR CYVR 070900Z 10003KT 20SM FEW060 FEW090 07/04 A3012 RMK SC1AC2 SLP199=

CYVR;2006-04-07 10:00;METAR CYVR 071000Z 03004KT 20SM FEW060 SCT120 07/04 A3011 RMK SC2AC2 SLP195=

CYVR;2006-04-07 11:00;METAR CYVR 071100Z 22002KT 20SM FEW060 BKN110 08/04 A3010 RMK SC2AC3 SLP194=

CYVR;2006-04-07 12:00;METAR CYVR 071200Z 00000KT 20SM FEW120 SCT220 07/03 A3009 RMK AC2CI1 SLP190=

CYVR;2006-04-07 13:00;METAR CYVR 071300Z 16002KT 20SM FEW110 SCT220 06/03 A3009 RMK AC2CI1 SLP188=

CYVR;2006-04-07 16:00;METAR CYVR 071600Z 00000KT 20SM BKN120 OVC230 09/03 A3007 RMK AC5CS1 SLP182=

CYVR;2006-04-07 17:00;METAR CYVR 071700Z 25002KT 20SM BKN110 OVC230 11/04 A3004 RMK AC6CS1 SLP174=

CYVR;2006-04-07 18:00;METAR CYVR 071800Z 26006KT 20SM FEW110 OVC220 10/04 A3003 RMK AC2CS2 SLP169=

CYVR;2006-04-07 19:00;METAR CYVR 071900Z 24008G16KT 20SM BKN120 OVC220 10/05 A3001 RMK AC6CS1 SLP163=

CYVR;2006-04-07 21:00;METAR CYVR 072100Z 29006KT 20SM SCT080 BKN120 OVC220 10/05 A2997 RMK AC3AC3CS2 SLP149=

CYVR;2006-04-07 23:00;METAR CYVR 072300Z 30009KT 20SM FEW080 BKN100 OVC220 11/06 A2992 RMK AC2AC5CS0 SLP131=

CYVR;2006-04-08 00:00;METAR CYVR 080000Z 31009KT 20SM FEW100 BKN230 12/06 A2989 RMK AC2CI1 SLP123=

CYVR;2006-04-08 04:00;METAR CYVR 080400Z 29008KT 20SM FEW130 SCT160 BKN240 10/08 A2985 RMK AC1AC2CI0 SLP107=

CYVR;2006-04-08 06:00;METAR CYVR 080600Z 31006KT 20SM FEW120 BKN150 BKN230 10/08 A2983 RMK AC2AC3CI1 SLP103=

CYVR;2006-04-08 07:00;METAR CYVR 080700Z 32005KT 20SM BKN110 BKN150 09/08 A2982 RMK AC5AC2 SLP098=

CYVR;2006-04-08 08:00;METAR CYVR 080800Z 31007KT 20SM BKN130 BKN170 09/08 A2981 RMK AC6AC2 SLP095=

CYVR;2006-04-08 09:00;METAR CYVR 080900Z 30005KT 20SM BKN130 BKN160 09/08 A2980 RMK AC6AC1 SLP091=

CYVR;2006-04-08 10:00;METAR CYVR 081000Z 28006KT 15SM SCT090 BKN130 09/07 A2980 RMK AC3AC4 SLP090=

CYVR;2006-04-08 11:00;METAR CYVR 081100Z 32008KT 15SM BKN090 BKN130 10/07 A2979 RMK AC5AC2 SLP088=

CYVR;2006-04-08 12:00;METAR CYVR 081200Z 32003KT 15SM BKN080 BKN130 10/08 A2979 RMK AC5AC2 SLP088=

CYVR;2006-04-08 13:00;METAR CYVR 081300Z 30009KT 20SM FEW090 BKN130 10/06 A2979 RMK AC2AC5 SLP088=

CYVR;2006-04-08 14:00;METAR CYVR 081400Z 28005KT 20SM OVC130 09/06 A2979 RMK AC6 SLP089=

CYVR;2006-04-08 15:00;METAR CYVR 081500Z 27002KT 20SM SCT095 OVC130 10/07 A2980 RMK AC3AC5 SLP092=

CYVR;2006-04-08 16:00;METAR CYVR 081600Z 04002KT 20SM BKN100 OVC130 10/07 A2981 RMK AC6AC2 SLP095=

CYVR;2006-04-08 17:00;METAR CYVR 081700Z 31002KT 20SM SCT090 OVC120 11/08 A2982 RMK AC3AC5 SLP097=

CYVR;2006-04-08 18:00;METAR CYVR 081800Z 24004KT 20SM BKN100 OVC230 13/08 A2984 RMK AC6CI0 SLP104=

CYVR;2006-04-08 19:00;METAR CYVR 081900Z 24006KT 20SM SCT080 OVC110 12/09 A2986 RMK AC3AC4 SLP111=

CYVR;2006-04-08 20:00;METAR CYVR 082000Z 24004KT 20SM BKN078 OVC110 12/09 A2984 RMK AC6AC2 SLP104=

CYVR;2006-04-08 21:00;METAR CYVR 082100Z 21005KT 20SM BKN077 OVC110 13/07 A2988 RMK AC6AC2 SLP120=

CYVR;2006-04-08 22:00;METAR CYVR 082200Z 14008KT 20SM FEW058 BKN073 OVC110 13/06 A2990 RMK SC2AC5AC1 SLP124=

CYVR;2006-04-09 00:00;METAR CYVR 090000Z 14006KT 15SM FEW050 BKN072 OVC110 13/07 A2991 RMK SC2AC6AC1 SLP128=

CYVR;2006-04-09 01:00;METAR CYVR 090100Z 14013KT 15SM -SHRA SCT022 BKN064 OVC078 12/09 A2992 RMK SC3SC2AC2 PCPN VRY LGT SLP131=

CYVR;2006-04-09 01:37;SPECI CYVR 090137Z 13012KT 15SM SCT020 BKN060 OVC072 11/ RMK SF3SC2AC2=

CYVR;2006-04-09 02:00;METAR CYVR 090200Z 14012KT 15SM -SHRA FEW011 FEW020 BKN061 OVC073 11/09 A2992 RMK SF1SF2SC3AC2 PCPN VRY LGT SLP132=

CYVR;2006-04-09 02:20;SPECI CYVR 090220Z 14013KT 12SM -SHRA FEW006 SCT020 BKN063 OVC075 11/ RMK SF2SF1SC3AC2=

CYVR;2006-04-09 03:31;SPECI CYVR 090331Z 13011KT 12SM -SHRA SCT006 BKN014 BKN050 OVC060 10/ RMK SF3SC2SC2SC2=

CYVR;2006-04-09 03:47;SPECI CYVR 090347Z 14011KT 10SM -SHRA BKN007 BKN015 BKN040 OVC050 10/ RMK SF5SC1SC2SC1=

CYVR;2006-04-09 04:00;METAR CYVR 090400Z 14010G15KT 10SM -SHRA BKN006 BKN017 OVC040 10/09 A2995 RMK SF6SC2SC1 SLP141=

CYVR;2006-04-09 05:00;METAR CYVR 090500Z 13009KT 10SM -SHRA BKN007 BKN019 OVC059 10/09 A2996 RMK SF5SC2SC2 SLP144=

CYVR;2006-04-09 05:45;SPECI CYVR 090545Z 14011KT 10SM -SHRA SCT007 BKN013 BKN025 OVC050 10/ RMK SF3SC2SC2SC1=

CYVR;2006-04-09 06:00;METAR CYVR 090600Z 14012KT 10SM -SHRA SCT008 BKN014 BKN025 OVC050 09/09 A2996 RMK SF4SC2SC1SC1 SLP146=

CYVR;2006-04-09 06:20;SPECI CYVR 090620Z 14009KT 10SM -SHRA BKN008 BKN015 BKN025 OVC040 09/ RMK SF5SC2SC1SC1=

CYVR;2006-04-09 07:00;METAR CYVR 090700Z 15010KT 10SM -SHRA BKN009 BKN015 BKN022 OVC040 09/09 A2996 RMK SF5SC2SC1SC1 SLP147=

CYVR;2006-04-09 08:00;METAR CYVR 090800Z 07007KT 8SM -SHRA BKN008 BKN016 OVC030 09/09 A2998 RMK SF6SC2SC1 SLP151=

CYVR;2006-04-09 09:00;METAR CYVR 090900Z 10006KT 8SM -RA BKN006 BKN012 OVC030 09/08 A2998 RMK SC6SC2SC1 SLP153=

CYVR;2006-04-09 11:00;METAR CYVR 091100Z 10008KT 8SM -RA BKN007 BKN015 OVC030 08/08 A2999 RMK SC6SC1SC1 SLP156=

CYVR;2006-04-09 12:00;METAR CYVR 091200Z 09007KT 8SM -RA BKN006 BKN012 OVC020 08/08 A2999 RMK SC6SC1SC1 SLP157=

CYVR;2006-04-09 13:00;METAR CYVR 091300Z 09009KT 10SM -RA BKN009 BKN014 OVC025 08/08 A2998 RMK SC6SC2SC1 SLP154=

CYVR;2006-04-09 14:00;METAR CYVR 091400Z 09009KT 12SM -RA BKN008 BKN015 OVC026 08/08 A2999 RMK SC6SC2SC1 SLP155=

CYVR;2006-04-09 15:00;METAR CYVR 091500Z 09010KT 12SM -RA BKN007 OVC018 08/08 A2999 RMK SC7SC1 PCPN VRY LGT SLP156=

CYVR;2006-04-09 16:00;METAR CYVR 091600Z 09009KT 12SM -RA BKN007 OVC019 08/08 A2999 RMK SC7SC1 VIS LWR NE QUAD 5SM SLP157=

CYVR;2006-04-09 16:52;SPECI CYVR 091652Z 10010KT 12SM BKN007 OVC018 09/ RMK SC6SC2=

CYVR;2006-04-09 17:00;METAR CYVR 091700Z 10011KT 8SM BKN007 OVC018 09/08 A2999 RMK SC6SC2 SLP156=

CYVR;2006-04-09 17:51;SPECI CYVR 091751Z 11009KT 8SM -SHRA BKN008 OVC018 09/ RMK SC6SC2=

CYVR;2006-04-09 18:00;METAR CYVR 091800Z 11011KT 8SM -SHRA BKN008 OVC018 09/08 A2999 RMK SC6SC2 SLP155=

CYVR;2006-04-09 18:36;SPECI CYVR 091836Z 12011KT 8SM -RA SCT007 BKN011 OVC018 09/ RMK SC3SC3SC2 VIS LWR NW-NE QUADS 5SM=

CYVR;2006-04-09 19:30;SPECI CYVR 091930Z 12010KT 12SM SCT007 BKN011 OVC019 09/ RMK SC3SC3SC2=

CYVR;2006-04-09 20:00;METAR CYVR 092000Z 11011KT 12SM -SHRA FEW007 BKN011 OVC015 09/08 A2998 RMK SC2SC2SC3 PCPN VRY LGT SLP151=

CYVR;2006-04-09 20:31;SPECI CYVR 092031Z 12010KT 12SM FEW007 SCT012 OVC015 10/ RMK SC2SC2SC4=

CYVR;2006-04-09 21:00;METAR CYVR 092100Z 13009KT 12SM FEW007 SCT012 OVC017 10/09 A2996 RMK SC2SC2SC4 SLP147=

CYVR;2006-04-09 23:00;METAR CYVR 092300Z 13006KT 15SM FEW007 SCT015 BKN024 OVC076 11/08 A2994 RMK SC2SC2SC3AC1 SLP139=

CYVR;2006-04-10 00:00;METAR CYVR 100000Z 18005KT 15SM FEW015 SCT022 BKN034 OVC075 10/08 A2992 RMK SF1SC2SC3AC2 SLP133=

CYVR;2006-04-10 01:00;METAR CYVR 100100Z 16005KT 15SM FEW013 SCT024 BKN035 OVC075 10/08 A2991 RMK SF2SC2SC2AC2 SLP129=

CYVR;2006-04-10 02:00;METAR CYVR 100200Z 14005KT 15SM FEW013 BKN039 OVC100 10/08 A2989 RMK SC2SC3AS2 SLP123=

CYVR;2006-04-10 04:00;METAR CYVR 100400Z 12003KT 15SM FEW015 FEW035 OVC130 09/07 A2988 RMK SF1SC1AS5 SLP119=

CYVR;2006-04-10 05:00;METAR CYVR 100500Z 11005KT 15SM FEW015 FEW035 BKN130 08/07 A2988 RMK SF1SC1AS3 SLP117=

CYVR;2006-04-10 08:00;METAR CYVR 100800Z 11004KT 15SM SCT015 OVC040 08/06 A2984 RMK SC3SC5 SLP104=

CYVR;2006-04-10 08:33;SPECI CYVR 100833Z 10005KT 15SM BKN013 OVC040 09/ RMK SC5SC3=

CYVR;2006-04-10 08:52;SPECI CYVR 100852Z 12004KT 15SM SCT014 OVC055 09/ RMK SC4SC4=

CYVR;2006-04-10 09:00;METAR CYVR 100900Z 12004KT 15SM BKN013 BKN047 OVC055 09/08 A2983 RMK SC5SC2SC2 SLP102=

CYVR;2006-04-10 09:32;SPECI CYVR 100932Z 11005KT 15SM BKN016 BKN047 OVC055 08/ RMK SC5SC2SC2=

CYVR;2006-04-10 10:35;SPECI CYVR 101035Z 10005KT 15SM -SHRA OVC015 08/ RMK SC8=

CYVR;2006-04-10 11:00;METAR CYVR 101100Z 09004KT 12SM -SHRA BKN016 OVC058 08/08 A2981 RMK SC6SC2 SLP094=

CYVR;2006-04-10 11:50;SPECI CYVR 101150Z 08004KT 8SM -SHRA BKN007 OVC016 08/ RMK SC5SC3=

CYVR;2006-04-10 12:00;METAR CYVR 101200Z 09004KT 8SM -DZ BKN007 OVC016 08/08 A2980 RMK ST6SC2 SLP092=

CYVR;2006-04-10 12:07;SPECI CYVR 101207Z 09004KT 10SM -DZ SCT007 BKN013 OVC028 08/ RMK ST4SC2SC2 PCPN VRY LGT=

CYVR;2006-04-10 12:22;SPECI CYVR 101222Z 09006KT 10SM -SHRA SCT006 BKN016 OVC029 08/ RMK SC3SC3SC2=

CYVR;2006-04-10 13:00;METAR CYVR 101300Z 09006KT 10SM -SHRA FEW006 BKN017 OVC025 08/08 A2979 RMK SC2SC4SC2 SLP088=

CYVR;2006-04-10 14:00;METAR CYVR 101400Z 11005KT 3SM -RA BR BKN005 OVC012 08/08 A2979 RMK SC5SC3 SLP089=

CYVR;2006-04-10 15:00;METAR CYVR 101500Z 11005KT 3SM -RA BR BKN005 OVC011 09/09 A2979 RMK SC6SC2 SLP089=

CYVR;2006-04-10 15:48;SPECI CYVR 101548Z 13002KT 2 1/2SM -RA BR FEW003 BKN006 OVC011 09/ RMK SF2SC3SC2=

CYVR;2006-04-10 16:00;METAR CYVR 101600Z 15003KT 3SM -RA BR FEW003 BKN006 OVC013 09/08 A2979 RMK SF2SC3SC2 SLP089=

CYVR;2006-04-10 16:54;SPECI CYVR 101654Z 15006KT 6SM -RA FEW003 SCT006 BKN013 OVC034 09/ RMK SF2SC2SC2SC2=

CYVR;2006-04-10 17:00;METAR CYVR 101700Z 18005KT 6SM -RA FEW003 SCT006 BKN013 BKN021 OVC034 09/08 A2979 RMK SF2SC2SC2SC2SC1 SLP089=

CYVR;2006-04-10 18:00;METAR CYVR 101800Z 15004KT 15SM FEW007 BKN012 BKN020 OVC034 10/08 A2979 RMK SF2SC3SC2SC2 SLP089=

CYVR;2006-04-10 19:00;METAR CYVR 101900Z 25004KT 15SM FEW007 SCT017 BKN021 BKN032 10/08 A2979 RMK SF2SC2SC2SC2 SLP089=

CYVR;2006-04-10 20:00;METAR CYVR 102000Z 24009KT 15SM FEW007 BKN022 OVC032 11/08 A2979 RMK SF2SC3SC3 SLP087=

CYVR;2006-04-10 21:00;METAR CYVR 102100Z 22007KT 20SM -SHRA FEW007 BKN021 BKN035 11/08 A2978 RMK SF2SC3SC2 PCPN VRY LGT SLP085=

CYVR;2006-04-10 21:14;SPECI CYVR 102114Z 22008KT 20SM FEW007 BKN020 BKN033 11/ RMK SF2SC3SC2=

CYVR;2006-04-10 22:00;METAR CYVR 102200Z 23010KT 20SM FEW008 BKN022 BKN046 11/07 A2978 RMK SF2SC3SC2 SLP084=

CYVR;2006-04-10 23:00;METAR CYVR 102300Z 26006KT 30SM FEW008 BKN025 BKN050 11/08 A2977 RMK SF1SC4SC2 TCU EMBD SLP082=

CYVR;2006-04-11 00:00;METAR CYVR 110000Z 30002KT 30SM FEW012 BKN028 BKN061 11/08 A2977 RMK SF1SC4SC2 SLP080=

CYVR;2006-04-11 01:00;METAR CYVR 110100Z 25006KT 30SM FEW025 BKN060 13/08 A2976 RMK SC2SC4=

CYVR;2006-04-11 04:00;METAR CYVR 110400Z 32002KT 30SM FEW025 FEW100 09/06 A2978 RMK SC1AC1 SLP084=

CYVR;2006-04-11 05:00;METAR CYVR 110500Z 02003KT 20SM BKN024 08/06 A2979 RMK SC3 SLP088=

CYVR;2006-04-11 06:00;METAR CYVR 110600Z 04004KT 30SM FEW025 08/07 A2980 RMK SC1 SLP090=

CYVR;2006-04-11 08:00;METAR CYVR 110800Z 00000KT 30SM SKC 06/04 A2980 RMK SLP093=

CYVR;2006-04-11 09:00;METAR CYVR 110900Z 00000KT 30SM SKC 06/05 A2981 RMK SLP095=

CYVR;2006-04-11 10:00;METAR CYVR 111000Z 00000KT 30SM FEW100 06/05 A2982 RMK AC2 SLP098=

CYVR;2006-04-11 11:00;METAR CYVR 111100Z 18002KT 30SM BKN059 07/05 A2983 RMK SC6 SLP101=

CYVR;2006-04-11 12:00;METAR CYVR 111200Z 14003KT 20SM BKN023 OVC059 07/06 A2984 RMK SC6SC2 SLP105=

CYVR;2006-04-11 13:00;METAR CYVR 111300Z 09002KT 20SM BKN023 OVC059 07/06 A2985 RMK SC6SC2 SLP109=

CYVR;2006-04-11 14:24;SPECI CYVR 111424Z 12003KT 20SM BKN015 OVC025 08/ RMK SC6SC2=

CYVR;2006-04-11 16:00;METAR CYVR 111600Z 17003KT 20SM BKN012 OVC025 09/06 A2988 RMK SC7SC1 SLP120=

CYVR;2006-04-11 17:00;METAR CYVR 111700Z 22003KT 20SM BKN012 OVC025 10/07 A2990 RMK SC7SC1 SLP124=

CYVR;2006-04-11 18:00;METAR CYVR 111800Z 20005KT 15SM BKN013 BKN025 10/08 A2991 RMK SC6SC2 SLP128=

CYVR;2006-04-11 19:00;METAR CYVR 111900Z 27009KT 20SM FEW011 SCT025 BKN100 12/09 A2991 RMK SC2SC1AC2 SLP127=

CYVR;2006-04-11 21:00;METAR CYVR 112100Z 31008KT 20SM FEW018 SCT100 OVC150 12/09 A2991 RMK SC2AC2AC3 SLP127=

CYVR;2006-04-11 22:00;METAR CYVR 112200Z 29008KT 30SM FEW017 OVC150 12/08 A2989 RMK SC2AC4 SLP123=

CYVR;2006-04-11 23:00;METAR CYVR 112300Z 29006KT 30SM FEW030 BKN150 13/08 A2988 RMK SC2AC4 CB EMBD W SLP117=

CYVR;2006-04-12 00:00;METAR CYVR 120000Z 26007KT 30SM FEW035 OVC200 12/08 A2987 RMK SC2CS5 CB EMBD SW SLP114=

CYVR;2006-04-12 01:00;METAR CYVR 120100Z 28007KT 30SM FEW035 OVC220 12/09 A2986 RMK SC2CS4 SLP113=

CYVR;2006-04-12 03:00;METAR CYVR 120300Z 27004KT 30SM FEW150 OVC220 11/08 A2987 RMK AC1CS2 SLP114=

CYVR;2006-04-12 04:00;METAR CYVR 120400Z 24003KT 30SM SCT130 OVC210 11/07 A2988 RMK AS2CS1 SLP119=

CYVR;2006-04-12 06:00;METAR CYVR 120600Z 21002KT 30SM FEW085 BKN110 OVC180 10/07 A2991 RMK AC2AS3AS1 SLP129=

CYVR;2006-04-12 07:00;METAR CYVR 120700Z 00000KT 30SM FEW025 BKN080 BKN140 OVC180 10/07 A2992 RMK SF1AC4AC2AS2 SLP131=

CYVR;2006-04-12 10:00;METAR CYVR 121000Z 26002KT 20SM -RA FEW020 OVC042 10/09 A2992 RMK SC2SC6 SLP133=

CYVR;2006-04-12 11:00;METAR CYVR 121100Z 00000KT 20SM -SHRA FEW020 OVC044 09/09 A2992 RMK SC2SC6 SLP131=

CYVR;2006-04-12 12:00;METAR CYVR 121200Z 08006KT 15SM -SHRA FEW020 OVC048 09/08 A2991 RMK SC2SC6 SLP129=

CYVR;2006-04-12 12:14;SPECI CYVR 121214Z 09003KT 15SM FEW020 BKN043 OVC060 09/ RMK SC2SC4SC2=

CYVR;2006-04-12 12:17;SPECI CYVR 121217Z 09003KT 15SM -SHRA FEW020 BKN043 OVC060 09/ RMK SC2SC4SC2 PCPN VRY LGT=

CYVR;2006-04-12 12:49;SPECI CYVR 121249Z 09004KT 15SM FEW020 BKN044 OVC180 08/ RMK SC2SC5AC2=

CYVR;2006-04-12 13:23;SPECI CYVR 121323Z 10005KT 15SM FEW020 SCT045 SCT062 OVC180 08/ RMK SC2SC2SC1AS3=

CYVR;2006-04-12 14:00;METAR CYVR 121400Z 09006KT 15SM FEW020 SCT045 BKN075 BKN180 07/07 A2991 RMK SC1SC1AC1AC1 SLP129=

CYVR;2006-04-12 15:00;METAR CYVR 121500Z 10008KT 10SM SCT010 BKN045 BKN075 09/08 A2991 RMK SC3SC2AC2 SLP128=

CYVR;2006-04-12 15:37;SPECI CYVR 121537Z 13007KT 10SM BKN011 BKN045 BKN075 10/ RMK SC5SC2AC1=

CYVR;2006-04-12 16:00;METAR CYVR 121600Z 12008KT 6SM BR BKN012 OVC076 10/09 A2992 RMK SC6AC2 SLP131=

CYVR;2006-04-12 16:39;SPECI CYVR 121639Z 15005KT 15SM SCT013 BKN057 BKN110 11/ RMK SC3SC2AC2=

CYVR;2006-04-12 17:00;METAR CYVR 121700Z 19005KT 30SM FEW012 BKN052 BKN110 11/08 A2993 RMK SC2SC4AC1 SLP137=

CYVR;2006-04-12 17:14;SPECI CYVR 121714Z 20006KT 20SM -SHRA FEW012 SCT052 BKN100 11/ RMK SC2SC2AS3=

CYVR;2006-04-12 17:28;SPECI CYVR 121728Z 21008KT 20SM FEW012 SCT052 BKN076 11/ RMK SC2SC2AS4=

CYVR;2006-04-12 18:00;METAR CYVR 121800Z 24007KT 30SM FEW030CB BKN078 12/06 A2993 RMK CB2AS3 CB SW - NW SLP137=

CYVR;2006-04-12 19:00;METAR CYVR 121900Z 25015KT 30SM FEW030 SCT053 BKN078 13/05 A2993 RMK SC2SC2AC2 SLP137=

CYVR;2006-04-12 21:00;METAR CYVR 122100Z 30008KT 30SM SCT040 OVC190 12/06 A2995 RMK SC3AS3 SLP142=

CYVR;2006-04-12 23:00;METAR CYVR 122300Z 29008KT 30SM FEW040 OVC130 12/05 A2996 RMK SC2AS6 SLP146=

CYVR;2006-04-13 00:00;METAR CYVR 130000Z 27007KT 30SM FEW030 OVC130 11/03 A2997 RMK SC2AS6 SLP150=

CYVR;2006-04-13 01:00;METAR CYVR 130100Z 21009KT 30SM FEW040 SCT067 OVC100 11/02 A2998 RMK SC2AC2AC4 SLP153=

CYVR;2006-04-13 02:00;METAR CYVR 130200Z 22018KT 30SM FEW040 BKN085 OVC100 11/02 A2998 RMK SC2AC4AC2 SHS DIST W QUAD SLP154=

CYVR;2006-04-13 04:00;METAR CYVR 130400Z 24014KT 20SM SCT040 BKN062 OVC100 10/02 A3001 RMK SC3SC2AC1 SLP162=

CYVR;2006-04-13 05:00;METAR CYVR 130500Z 25011KT 20SM FEW025 SCT040 BKN090 OVC120 09/03 A3001 RMK SF1SC2AC3AC2 SLP164=

CYVR;2006-04-13 07:00;METAR CYVR 130700Z 27006KT 20SM FEW035 BKN055 OVC090 08/03 A3003 RMK SC2SC4AC2 SLP168=

CYVR;2006-04-13 10:00;METAR CYVR 131000Z 10005KT 20SM FEW035 FEW055 OVC090 08/03 A3002 RMK SC2SC1AC6 SLP167=

CYVR;2006-04-13 11:00;METAR CYVR 131100Z 12004KT 20SM FEW030 SCT060 OVC078 08/03 A3002 RMK SC2SC2AC5 SLP165=

CYVR;2006-04-13 12:00;METAR CYVR 131200Z 10007KT 20SM FEW030 FEW060 OVC075 07/04 A3001 RMK SC2SC1AC6 SLP163=

CYVR;2006-04-13 13:00;METAR CYVR 131300Z 10007KT 20SM FEW030 OVC070 07/04 A3002 RMK SC1AC7 SLP165=

CYVR;2006-04-13 14:00;METAR CYVR 131400Z 09008KT 20SM FEW030 BKN068 OVC080 07/04 A3001 RMK SC1AC6AC1 SLP163=

CYVR;2006-04-13 14:46;SPECI CYVR 131446Z 09006KT 20SM -SHRA FEW025 SCT045 OVC063 07/ RMK SC1SC2SC5 PCPN VRY LGT=

CYVR;2006-04-13 15:00;METAR CYVR 131500Z 10005KT 15SM -SHRA FEW025 SCT045 OVC064 07/05 A3001 RMK SC1SC2SC5 SLP161=

CYVR;2006-04-13 16:00;METAR CYVR 131600Z 14006KT 12SM -SHRA FEW022 BKN036 OVC060 08/05 A2999 RMK SC2SC5SC2 SLP156=

CYVR;2006-04-13 17:00;METAR CYVR 131700Z 16009KT 8SM -RA FEW018 BKN031 OVC050 08/06 A3000 RMK SC2SC5SC1 SLP159=

CYVR;2006-04-13 18:00;METAR CYVR 131800Z 12007KT 6SM -RA FEW016 BKN030 OVC045 07/05 A3000 RMK SC2SC5SC1 SLP159=

CYVR;2006-04-13 19:00;METAR CYVR 131900Z 12012G17KT 8SM -RA FEW012 BKN029 OVC048 07/06 A2998 RMK SF2SC4SC2 SLP153=

CYVR;2006-04-13 21:00;METAR CYVR 132100Z 13017G22KT 10SM -SHRA FEW014 SCT025 BKN048 OVC080 07/05 A2995 RMK SC2SC2SC4AC1 SLP141=

CYVR;2006-04-13 22:00;METAR CYVR 132200Z 11013G20KT 10SM -SHRA FEW012 BKN020 OVC045 07/05 A2993 RMK SC2SC5SC2 SLP137=

CYVR;2006-04-14 00:00;METAR CYVR 140000Z 10016KT 8SM -RA FEW012 BKN019 OVC040 07/06 A2988 RMK SF2SC5SC1 SLP119=

CYVR;2006-04-14 01:00;METAR CYVR 140100Z 09016KT 8SM -RA FEW014 BKN020 OVC040 07/06 A2984 RMK SF2SC4SC2 SLP106=

CYVR;2006-04-14 03:28;SPECI CYVR 140328Z 09013KT 6SM -RA BR FEW011 OVC013 06/ RMK SF2SC6=

CYVR;2006-04-14 05:00;METAR CYVR 140500Z 09012KT 8SM -RA BKN012 OVC024 06/06 A2974 RMK SC5SC3 SLP072=

CYVR;2006-04-14 06:00;METAR CYVR 140600Z 10012KT 10SM -RA FEW012 BKN018 OVC044 07/06 A2970 RMK SC2SC4SC2 SLP058=

CYVR;2006-04-14 07:00;METAR CYVR 140700Z 09015KT 10SM -RA FEW013 BKN019 OVC045 07/06 A2966 RMK SC2SC5SC2 SLP044=

CYVR;2006-04-14 08:00;METAR CYVR 140800Z 10013KT 10SM -RA FEW013 BKN019 OVC044 07/07 A2964 RMK SC2SC4SC2 SLP036=

CYVR;2006-04-14 09:00;METAR CYVR 140900Z 10010KT 10SM -SHRA FEW013 BKN020 OVC043 08/07 A2961 RMK SC2SC4SC2 SLP027=

CYVR;2006-04-14 10:00;METAR CYVR 141000Z 09010KT 12SM -SHRA FEW020 BKN046 OVC090 08/07 A2956 RMK SC2SC4AC2 WND ESTD SLP010=

CYVR;2006-04-14 11:00;METAR CYVR 141100Z 09010KT 12SM -SHRA FEW018 BKN042 OVC060 08/07 A2955 RMK SC2SC5SC2 SLP008=

CYVR;2006-04-14 11:42;SPECI CYVR 141142Z 15015KT 12SM FEW020 BKN046 BKN060 OVC100 08/ RMK SC2SC3SC1AC2=

CYVR;2006-04-14 12:00;METAR CYVR 141200Z 15015KT 12SM FEW020 BKN044 BKN056 OVC110 08/07 A2953 RMK SC1SC4SC2AC1 SLP001=

CYVR;2006-04-14 13:00;METAR CYVR 141300Z 18013KT 15SM FEW020 SCT044 OVC110 08/06 A2951 RMK SC2SC2AC5 SLP992=

CYVR;2006-04-14 16:00;METAR CYVR 141600Z 27012KT 20SM FEW015 SCT040 BKN120 OVC210 08/04 A2952 RMK SC1SC2AC4CI1 TCU EMBD SLP995=

CYVR;2006-04-14 17:00;METAR CYVR 141700Z 24013G18KT 20SM FEW020 FEW040 BKN130 OVC220 08/03 A2952 RMK SC1SC2AC5CI1 SLP996=

CYVR;2006-04-14 19:00;METAR CYVR 141900Z 24009G16KT 20SM FEW030 FEW050 BKN110 OVC220 08/02 A2953 RMK CU1SC2AC5CI1 SLP999=

CYVR;2006-04-14 20:00;METAR CYVR 142000Z 22009KT 20SM FEW035 BKN073 OVC120 09/01 A2954 RMK CU2AC5AC2 SLP002=

CYVR;2006-04-14 21:00;METAR CYVR 142100Z 20015KT 20SM FEW040 BKN080 OVC110 09/02 A2954 RMK CU2AC4AS1 TCU ASOCTD / SHS NE SLP002=

CYVR;2006-04-14 22:00;METAR CYVR 142200Z 21009KT 20SM FEW040 BKN075 OVC100 09/02 A2954 RMK CU2AC4AS1 TCU ASOCTD SLP002=

CYVR;2006-04-15 00:00;METAR CYVR 150000Z 24011G17KT 20SM FEW050TCU SCT080 BKN120 BKN220 09/01 A2952 RMK TCU2AC1AC2CI1 SLP998=

CYVR;2006-04-15 01:00;METAR CYVR 150100Z 32018KT 20SM FEW040TCU FEW080 BKN110 07/03 A2952 RMK TCU2AC1AC2 SLP998=

CYVR;2006-04-15 04:00;METAR CYVR 150400Z 22016KT 20SM FEW040 FEW060 SCT110 BKN220 07/M02 A2953 RMK SC1SC1AC1CI1 SLP999=

CYVR;2006-04-15 05:00;METAR CYVR 150500Z 16004KT 20SM FEW040 FEW070 OVC110 07/M02 A2954 RMK SC1AC2AC6 SLP002=

CYVR;2006-04-15 09:00;METAR CYVR 150900Z 13004KT 20SM FEW040 SCT074 OVC120 06/01 A2954 RMK SC2AC2AC5 SLP003=

CYVR;2006-04-15 10:00;METAR CYVR 151000Z 13005KT 20SM FEW046 BKN072 OVC100 06/01 A2954 RMK SC2AC3AC2 SLP002=

CYVR;2006-04-15 11:00;METAR CYVR 151100Z 09010KT 20SM FEW024 BKN041 BKN079 OVC110 04/03 A2953 RMK SC2SC2AC2AC1 SLP001=

CYVR;2006-04-15 12:00;METAR CYVR 151200Z 09011KT 20SM FEW022 SCT036 OVC074 04/03 A2953 RMK SC2SC2AC4 SLP001=

CYVR;2006-04-15 12:17;SPECI CYVR 151217Z 09011KT 15SM -SHRA FEW016 BKN028 OVC067 04/ RMK SC2SC6AC1=

CYVR;2006-04-15 12:50;SPECI CYVR 151250Z 09012KT 15SM SCT028 BKN071 OVC110 04/ RMK SC3AC3AC2=

CYVR;2006-04-15 13:00;METAR CYVR 151300Z 09011KT 15SM FEW030 BKN066 OVC100 04/03 A2953 RMK SC2AC4AC2 SLP999=

CYVR;2006-04-15 14:00;METAR CYVR 151400Z 08012KT 12SM -SHRA FEW012 BKN018 OVC040 03/03 A2953 RMK SF1SC6SC2 TCU EMBD SLP000=

CYVR;2006-04-15 16:00;METAR CYVR 151600Z 09011KT 12SM -SHRA FEW011 BKN019 OVC030 04/03 A2952 RMK SF1SC6SC1 SLP998=

CYVR;2006-04-15 17:32;SPECI CYVR 151732Z 09016KT 15SM FEW012 BKN018 OVC028 05/ RMK SF1SC5SC2=

CYVR;2006-04-15 18:00;METAR CYVR 151800Z 09015G20KT 20SM BKN018 OVC028 06/04 A2949 RMK SC6SC2 SLP987=

CYVR;2006-04-15 20:00;METAR CYVR 152000Z 09015G24KT 20SM FEW035 OVC140 08/02 A2940 RMK SF2AC6 SLP957=

CYVR;2006-04-15 21:00;METAR CYVR 152100Z 09012G17KT 20SM FEW035 BKN057 OVC130 08/02 A2938 RMK SF1SC6AC2 SLP949=

CYVR;2006-04-15 21:44;SPECI CYVR 152144Z 11016G24KT 15SM -SHRA OVC031 07/ RMK SC8=

CYVR;2006-04-15 22:00;METAR CYVR 152200Z 10014G24KT 12SM -SHRA OVC031 07/04 A2940 RMK SC8 SLP956=

CYVR;2006-04-15 22:44;SPECI CYVR 152244Z 12013G22KT 6SM -RA BR BKN019 OVC032 06/ RMK SC5SC3=

CYVR;2006-04-15 22:51;SPECI CYVR 152251Z 12017KT 8SM -RA BKN019 OVC032 06/ RMK SC5SC3=

CYVR;2006-04-15 23:00;METAR CYVR 152300Z 11015G20KT 10SM -RA FEW014 BKN034 OVC040 06/04 A2942 RMK SF2SC4SC2 SLP962=

CYVR;2006-04-16 00:35;SPECI CYVR 160035Z 08014KT 15SM -SHRA FEW015 OVC022 06/ RMK SF2SC6=

CYVR;2006-04-16 01:00;METAR CYVR 160100Z 09012G18KT 15SM -SHRA BKN017 OVC023 06/05 A2943 RMK SC6SC2 CIG RAG SLP967=

CYVR;2006-04-16 01:38;SPECI CYVR 160138Z 12008G15KT 15SM SCT019 BKN033 BKN100 06/ RMK SC3SC2AC2=

CYVR;2006-04-16 04:00;METAR CYVR 160400Z 19007KT 15SM FEW035 FEW060 BKN120 OVC220 07/02 A2954 RMK SC1SC2AC3CI2 SLP003=

CYVR;2006-04-16 05:00;METAR CYVR 160500Z 15005KT 15SM FEW040 BKN077 BKN140 OVC220 06/02 A2958 RMK SC2AC3AC2CI1 SLP017=

CYVR;2006-04-16 07:00;METAR CYVR 160700Z 14005KT 15SM BKN036 BKN080 OVC200 06/01 A2961 RMK SC5AC2CI1 SLP027=

CYVR;2006-04-16 11:00;METAR CYVR 161100Z 14013G18KT 15SM BKN028 BKN084 OVC110 06/02 A2968 RMK SC5AC2AC1 SLP050=

CYVR;2006-04-16 12:36;SPECI CYVR 161236Z 15017G24KT 15SM -SHRA SCT019 BKN045 BKN064 OVC080 06/ RMK SC3SC2SC2AC1=

CYVR;2006-04-16 13:00;METAR CYVR 161300Z 13016G24KT 15SM SCT017 OVC035 06/03 A2971 RMK SC3SC5 SLP060=

CYVR;2006-04-16 13:11;SPECI CYVR 161311Z 14013G18KT 15SM -SHRA SCT017 OVC030 06/ RMK SC3SC5=

CYVR;2006-04-16 14:46;SPECI CYVR 161446Z 13018KT 15SM -SHRA SCT018 BKN035 OVC080 06/ RMK SC4SC2AC2 TCU EMBD=

CYVR;2006-04-16 16:00;METAR CYVR 161600Z 14016KT 15SM -SHRA BKN022 BKN035 OVC070 06/03 A2976 RMK SC6SC1AC1 TCU EMBD SLP079=

CYVR;2006-04-16 16:28;SPECI CYVR 161628Z 13015G24KT 15SM BKN024 BKN040 OVC080 06/ RMK SC6SC1AC1 TCU EMBD=

CYVR;2006-04-16 17:00;METAR CYVR 161700Z 13019KT 15SM BKN026 OVC080 07/02 A2978 RMK SC6AC1 SLP083=

CYVR;2006-04-16 17:29;SPECI CYVR 161729Z 14016G25KT 15SM -SHRA BKN028 OVC080 07/ RMK SC6AC1=

CYVR;2006-04-16 18:00;METAR CYVR 161800Z 13015G24KT 12SM -SHRA SCT025TCU BKN035 BKN080 07/04 A2978 RMK TCU3SC2AC1 SLP086=

CYVR;2006-04-16 19:20;SPECI CYVR 161920Z 12018G24KT 15SM BKN025TCU BKN040 BKN080 08/ RMK TCU5SC1AC1=

CYVR;2006-04-16 20:00;METAR CYVR 162000Z 16017G22KT 20SM BKN029TCU BKN080 08/02 A2980 RMK TCU6AC1 SLP093=

CYVR;2006-04-16 22:00;METAR CYVR 162200Z 16012KT 20SM SCT036TCU BKN090 BKN130 10/02 A2981 RMK TCU3AC3AC1 SLP096=

CYVR;2006-04-17 00:00;METAR CYVR 170000Z 18006KT 20SM FEW041TCU SCT090 BKN220 10/01 A2982 RMK TCU2AC2CI2 SLP097=

CYVR;2006-04-17 01:00;METAR CYVR 170100Z 18008KT 20SM SCT045TCU BKN078 10/02 A2983 RMK TCU4AC3 VIRGA SLP102=

CYVR;2006-04-17 02:00;METAR CYVR 170200Z 28009KT 15SM SCT044 BKN071 OVC120 08/04 A2984 RMK SC3AC3AC2 SH N AND NW SLP105=

CYVR;2006-04-17 03:00;METAR CYVR 170300Z 04006KT 15SM BKN042 BKN063 OVC220 08/04 A2985 RMK SC6SC2CI0 SLP108=

CYVR;2006-04-17 07:00;METAR CYVR 170700Z 08005KT 15SM FEW080 04/03 A2994 RMK AC2 SLP138=

CYVR;2006-04-17 10:00;METAR CYVR 171000Z 08005KT 15SM FEW040 FEW090 03/02 A2998 RMK SC1AC1 SLP153=

CYVR;2006-04-17 11:00;METAR CYVR 171100Z 08005KT 15SM FEW040 FEW090 FEW140 02/01 A3000 RMK SC1AC1AC1 SLP160=

CYVR;2006-04-17 12:00;METAR CYVR 171200Z 09005KT 15SM SCT015 SCT070 03/02 A3003 RMK SC3AC1 SLP170=

CYVR;2006-04-17 13:00;METAR CYVR 171300Z 09004KT 15SM FEW016 BKN057 OVC078 04/03 A3006 RMK SC1SC6AC2 SLP178=

CYVR;2006-04-17 14:00;METAR CYVR 171400Z 10007KT 15SM SCT035 BKN054 BKN080 05/03 A3008 RMK SC2SC2AC1 SLP186=

CYVR;2006-04-17 15:00;METAR CYVR 171500Z 10007KT 20SM SCT012 BKN055 OVC072 06/05 A3010 RMK SC3SC2AC2 SLP194=

CYVR;2006-04-17 15:27;SPECI CYVR 171527Z 09008KT 20SM BKN012 OVC072 07/ RMK SC5AC2=

CYVR;2006-04-17 15:36;SPECI CYVR 171536Z 10008KT 20SM BKN015 OVC072 07/ RMK SC5AC2=

CYVR;2006-04-17 16:00;METAR CYVR 171600Z 10007KT 20SM SCT015 OVC072 07/05 A3013 RMK SC4AC2 SLP203=

CYVR;2006-04-17 17:00;METAR CYVR 171700Z 11006KT 20SM FEW020 SCT030 SCT072 09/05 A3015 RMK SC1SC1AC1 TCU ASOCT SLP209=

CYVR;2006-04-17 18:00;METAR CYVR 171800Z 14008KT 20SM SCT030 BKN072 09/04 A3017 RMK SC2AC2 SLP217=

CYVR;2006-04-17 19:00;METAR CYVR 171900Z 14005KT 20SM FEW020 BKN035 BKN210 11/05 A3018 RMK CF1CU4CI1 TCU ASOCT SLP220=

CYVR;2006-04-17 20:00;METAR CYVR 172000Z 35006KT 20SM FEW030 SCT035 BKN075 10/03 A3020 RMK CF1CU3AC1 SLP226=

CYVR;2006-04-17 21:00;METAR CYVR 172100Z 26009KT 20SM FEW035 SCT065 11/03 A3021 RMK CF1CU2 TCU ASOCT SLP230=

CYVR;2006-04-17 22:00;METAR CYVR 172200Z 25007KT 30SM FEW035 SCT055 10/06 A3022 RMK CF1CU2 TR CF / TCU ASOCT SLP232=

CYVR;2006-04-17 23:00;METAR CYVR 172300Z 26006KT 30SM FEW035 FEW040TCU FEW100 12/03 A3022 RMK CF1TCU2AC1 TR CF TR AC SLP235=

CYVR;2006-04-18 00:00;METAR CYVR 180000Z 27004KT 30SM FEW040 SCT045TCU BKN100 BKN220 12/M01 A3023 RMK CF1TCU2AC1CI1 TR CF SLP238=

CYVR;2006-04-18 01:00;METAR CYVR 180100Z 25004KT 30SM FEW045 FEW100 SCT220 12/03 A3024 RMK SC1AC1CI1 TCU EMBD / SHS DIST NE QUAD SLP242=

CYVR;2006-04-18 03:00;METAR CYVR 180300Z 18004KT 30SM FEW040 FEW070 BKN220 11/01 A3027 RMK CU1AC2CI1 SLP250=

CYVR;2006-04-18 04:00;METAR CYVR 180400Z 13005KT 30SM SCT040 BKN070 BKN220 11/01 A3028 RMK SC3AC2CI1 SHS W SLP255=

CYVR;2006-04-18 07:00;METAR CYVR 180700Z 19003KT 20SM FEW045 SCT080 09/03 A3033 RMK SC2AC2 SLP270=

CYVR;2006-04-18 11:00;METAR CYVR 181100Z 10006KT 20SM BKN062 BKN080 06/05 A3037 RMK SC5AC2 SLP284=

CYVR;2006-04-18 12:38;SPECI CYVR 181238Z 10006KT 15SM -SHRA BKN052 BKN075 07/ RMK SC5AC2=

CYVR;2006-04-18 13:00;METAR CYVR 181300Z 11005KT 15SM FEW030 BKN048 BKN075 07/05 A3037 RMK CF1SC5AC2 SLP286=

CYVR;2006-04-18 14:46;SPECI CYVR 181446Z 13005KT 12SM -SHRA BKN013 OVC037 08/ RMK SC6SC2=

CYVR;2006-04-18 16:00;METAR CYVR 181600Z 14004KT 15SM -SHRA SCT012 BKN031 OVC040 08/06 A3039 RMK SC3SC2SC2 SLP292=

CYVR;2006-04-18 17:00;METAR CYVR 181700Z 13013KT 15SM FEW012 BKN027 BKN100 09/05 A3039 RMK SC2SC2AC1 SLP291=

CYVR;2006-04-18 18:00;METAR CYVR 181800Z 13013KT 20SM SCT024 BKN095 10/04 A3039 RMK CU4AC1 SLP291=

CYVR;2006-04-18 19:00;METAR CYVR 181900Z 15011KT 20SM SCT034 BKN110 BKN140 10/03 A3038 RMK CU2AC2AC1 SLP288=

CYVR;2006-04-18 22:00;METAR CYVR 182200Z 13009KT 20SM FEW035 BKN100 OVC120 12/02 A3032 RMK CU1AC6AC1 SLP269=

CYVR;2006-04-18 23:00;METAR CYVR 182300Z 13008KT 20SM FEW040 BKN085 OVC100 11/00 A3030 RMK CF1AC6AC1 SLP262=

CYVR;2006-04-19 00:00;METAR CYVR 190000Z 13007KT 20SM FEW040 BKN085 OVC120 12/M00 A3028 RMK CF1AC4AC1 SLP253=

CYVR;2006-04-19 01:00;METAR CYVR 190100Z 08008KT 20SM FEW075 BKN085 BKN120 12/02 A3025 RMK AC2AC3AC2 SLP244=

CYVR;2006-04-19 02:00;METAR CYVR 190200Z 10006KT 20SM SCT080 BKN110 12/02 A3023 RMK AC4AC3 SLP236=

CYVR;2006-04-19 03:00;METAR CYVR 190300Z 06005KT 20SM FEW080 BKN100 OVC120 12/01 A3021 RMK AC2AC3AC2 SLP230=

CYVR;2006-04-19 04:00;METAR CYVR 190400Z 07005KT 20SM FEW080 BKN095 OVC120 11/02 A3020 RMK AC2AC6AC1 SLP226=

CYVR;2006-04-19 05:00;METAR CYVR 190500Z 08005KT 20SM FEW080 OVC100 10/02 A3018 RMK AC2AC6 SLP221=

CYVR;2006-04-19 06:00;METAR CYVR 190600Z 08006KT 20SM FEW080 OVC100 10/03 A3017 RMK AC2AC6 SLP217=

CYVR;2006-04-19 07:00;METAR CYVR 190700Z 09006KT 20SM FEW080 OVC100 10/02 A3016 RMK AC2AC6 SLP214=

CYVR;2006-04-19 08:00;METAR CYVR 190800Z 08006KT 20SM FEW080 OVC100 09/03 A3015 RMK AC2AC6 SLP211=

CYVR;2006-04-19 10:00;METAR CYVR 191000Z 09005KT 20SM FEW080 BKN100 OVC120 09/03 A3011 RMK AC2AC6AC1 SLP197=

CYVR;2006-04-19 11:00;METAR CYVR 191100Z 10006KT 15SM FEW080 BKN100 OVC120 08/03 A3010 RMK AC1AC6AC1 SLP193=

CYVR;2006-04-19 12:00;METAR CYVR 191200Z 17002KT 15SM FEW080 BKN100 OVC120 09/02 A3011 RMK AC1AC6AC1 SLP197=

CYVR;2006-04-19 12:54;SPECI CYVR 191254Z 02002KT 15SM -SHRA SCT050 BKN100 OVC120 09/ RMK SC4AC2AC1 PCPN VRY LGT=

CYVR;2006-04-19 13:00;METAR CYVR 191300Z 01002KT 15SM -SHRA BKN050 BKN095 OVC120 09/04 A3010 RMK SC5AC2AC1 SLP192=

CYVR;2006-04-19 14:00;METAR CYVR 191400Z 10006KT 15SM -SHRA BKN068 OVC087 09/04 A3010 RMK AS5AS2 PCPN VRY LGT SLP193=

CYVR;2006-04-19 14:19;SPECI CYVR 191419Z 32002KT 20SM SCT070 BKN095 OVC110 09/ RMK AS3AC3AC1=

CYVR;2006-04-19 16:00;METAR CYVR 191600Z 14002KT 30SM FEW074 BKN090 OVC110 10/03 A3010 RMK AC2AS3AS2 SHS DIST NE QUAD SLP193=

CYVR;2006-04-19 17:00;METAR CYVR 191700Z 11005KT 30SM FEW045 BKN088 OVC130 11/04 A3009 RMK SF1AC5AS2 TR SF SLP189=

CYVR;2006-04-19 19:00;METAR CYVR 191900Z 24006KT 30SM BKN067 BKN079 OVC120 11/05 A3009 RMK AC5AS2AS2 SHS DIST NE SLP188=

CYVR;2006-04-19 20:00;METAR CYVR 192000Z 29005KT 30SM BKN065 OVC076 11/06 A3009 RMK SC5AS3 SHS=

CYVR;2006-04-19 20:43;SPECI CYVR 192043Z 30008KT 20SM -SHRA BKN060 OVC080 10/ RMK SC6AC2=

CYVR;2006-04-19 21:00;METAR CYVR 192100Z 29006KT 20SM -SHRA BKN060 OVC075 10/06 A3008 RMK SC6AS2 SLP187=

CYVR;2006-04-19 22:00;METAR CYVR 192200Z 32006KT 20SM -SHRA BKN055 OVC070 11/07 A3007 RMK SC6AS2 SLP184=

CYVR;2006-04-19 23:48;SPECI CYVR 192348Z 05009KT 20SM BKN055 OVC070 12/ RMK SC6AS2=

CYVR;2006-04-20 00:00;METAR CYVR 200000Z 05010KT 20SM BKN057 OVC070 12/07 A3004 RMK SC6AS2 SLP172=

CYVR;2006-04-20 00:43;SPECI CYVR 200043Z 06010KT 20SM -SHRA BKN057 OVC070 12/ RMK SC6AS2 PCPN VRY LGT=

CYVR;2006-04-20 02:00;METAR CYVR 200200Z 07007KT 20SM -RA BKN058 OVC072 11/07 A3002 RMK SC6AS2 SLP167=

CYVR;2006-04-20 04:00;METAR CYVR 200400Z 04009KT 15SM -RA BKN056 OVC074 10/08 A3001 RMK SC6AS2 SLP163=

CYVR;2006-04-20 06:00;METAR CYVR 200600Z 34002KT 15SM -SHRA FEW051 BKN064 OVC095 10/07 A3001 RMK SC2SC4AS2 PCPN VRY LGT SLP163=

CYVR;2006-04-20 06:35;SPECI CYVR 200635Z 24003KT 15SM FEW051 BKN071 OVC120 09/ RMK SC2AS4AS2=

CYVR;2006-04-20 07:00;METAR CYVR 200700Z 00000KT 15SM BKN071 OVC120 10/08 A3001 RMK AS6AS2 SLP162=

CYVR;2006-04-20 08:00;METAR CYVR 200800Z 00000KT 15SM -SHRA BKN067 OVC090 10/07 A3001 RMK AS6AS2 PCPN VRY LGT SLP162=

CYVR;2006-04-20 09:00;METAR CYVR 200900Z 12005KT 15SM -RA FEW057 BKN070 OVC090 09/08 A3000 RMK SC2AS3AS2 SLP158=

CYVR;2006-04-20 09:45;SPECI CYVR 200945Z 09006KT 15SM FEW057 BKN068 OVC090 09/ RMK SC1AS5AS2=

CYVR;2006-04-20 11:00;METAR CYVR 201100Z 12004KT 15SM SCT045 BKN070 OVC110 09/08 A2999 RMK SC3AS2AS2 SLP157=

CYVR;2006-04-20 12:00;METAR CYVR 201200Z 11006KT 15SM FEW045 SCT070 BKN110 OVC230 09/07 A2999 RMK SC2AS2AS3CI1 SLP155=

CYVR;2006-04-20 13:00;METAR CYVR 201300Z 09004KT 20SM SCT055 BKN073 OVC110 08/07 A2999 RMK SC3AS3AS2 SLP155=

CYVR;2006-04-20 14:00;METAR CYVR 201400Z 09005KT 20SM SCT061 BKN082 OVC100 08/07 A2999 RMK SC4AS2AS2 SLP156=

CYVR;2006-04-20 15:00;METAR CYVR 201500Z 10007KT 20SM FEW060 BKN110 OVC170 09/08 A2999 RMK SC2AS2AS2 SLP157=

CYVR;2006-04-20 23:00;METAR CYVR 202300Z 30016KT 30SM FEW090 BKN120 OVC220 11/08 A2991 RMK AC2AS4CS2 SLP129=

CYVR;2006-04-21 00:00;METAR CYVR 210000Z 30019KT 30SM FEW085 OVC120 10/08 A2990 RMK AC2AS6 SLP126=

CYVR;2006-04-21 01:00;METAR CYVR 210100Z 30018KT 30SM BKN025 OVC075 09/08 A2990 RMK SC5AS3 SLP124=

CYVR;2006-04-21 01:06;SPECI CYVR 210106Z 29017KT 20SM -SHRA FEW025 OVC075 09/ RMK SC2AS6 PCPN VRY LGT=

CYVR;2006-04-21 01:55;SPECI CYVR 210155Z 30016G21KT 20SM FEW005 BKN021 OVC075 09/ RMK SC2SC3AS2=

CYVR;2006-04-21 02:00;METAR CYVR 210200Z 30016KT 20SM SCT005 BKN021 OVC075 09/08 A2988 RMK SC4SC2AS2 SLP120=

CYVR;2006-04-21 03:40;SPECI CYVR 210340Z 30016KT 15SM -SHRA SCT005 BKN021 OVC048 08/ RMK SC4SC2SC2 PCPN VRY LGT=

CYVR;2006-04-21 04:00;METAR CYVR 210400Z 30018KT 12SM -SHRA SCT005 SCT021 OVC049 08/08 A2989 RMK SF3SC1SC4 SLP123=

CYVR;2006-04-21 05:42;SPECI CYVR 210542Z 28015KT 12SM SCT005 BKN031 OVC042 08/ RMK SF3SC2SC2=

CYVR;2006-04-21 07:40;SPECI CYVR 210740Z 29017KT 12SM -SHRA SCT005 BKN043 OVC055 08/ RMK SF3SC2SC2=

CYVR;2006-04-21 08:00;METAR CYVR 210800Z 29017KT 15SM -SHRA FEW005 BKN045 OVC060 08/07 A2991 RMK SF2SC3SC2 SLP127=

CYVR;2006-04-21 08:48;SPECI CYVR 210848Z 28021G26KT 12SM -RA FEW005 SCT009 BKN041 OVC058 07/ RMK SF2SF2SC2SC2=

CYVR;2006-04-21 11:00;METAR CYVR 211100Z 29021KT 12SM -RA FEW011 BKN049 OVC120 06/05 A2994 RMK SF2SC3AS2 SLP140=

CYVR;2006-04-21 12:00;METAR CYVR 211200Z 29018G24KT 12SM -RA FEW010 BKN016 OVC039 06/04 A2996 RMK SF2SC3SC2 SLP147=

CYVR;2006-04-21 13:00;METAR CYVR 211300Z 29019G24KT 15SM -RA FEW013 BKN017 OVC036 06/04 A2998 RMK SF2SC5SC2 SLP154=

CYVR;2006-04-21 14:00;METAR CYVR 211400Z 28019G25KT 15SM -RA FEW014 BKN020 OVC060 06/04 A3001 RMK SF2SC6SC1 SLP161=

CYVR;2006-04-21 14:07;SPECI CYVR 211407Z 28020G25KT 15SM FEW014 BKN022 OVC060 06/ RMK SF2SC6SC1=

CYVR;2006-04-21 16:00;METAR CYVR 211600Z 30017KT 20SM FEW024 BKN066 07/03 A3004 RMK SC2AC3 SLP174=

CYVR;2006-04-21 17:00;METAR CYVR 211700Z 28014KT 20SM SCT030 SCT070 09/04 A3007 RMK SC3AC1 SLP182=

CYVR;2006-04-21 18:00;METAR CYVR 211800Z 27013KT 20SM FEW035 FEW070 09/02 A3009 RMK SC2AC1 SLP189=

CYVR;2006-04-21 19:00;METAR CYVR 211900Z 27013G18KT 20SM FEW040 FEW080 10/02 A3011 RMK SC2AC1 SLP198=

CYVR;2006-04-21 21:00;METAR CYVR 212100Z 28016KT 20SM FEW040 FEW070 FEW110 11/02 A3015 RMK SC1AC1AC1 SLP209=

CYVR;2006-04-21 22:00;METAR CYVR 212200Z 24010KT 20SM FEW040 BKN081 BKN110 10/01 A3016 RMK SC2AC5AC1 SLP213=

CYVR;2006-04-21 23:00;METAR CYVR 212300Z 23010KT 20SM FEW040 SCT060 BKN080 11/01 A3016 RMK SC2SC1AC2 SLP214=

CYVR;2006-04-22 00:00;METAR CYVR 220000Z 23010KT 20SM FEW040 SCT080 11/02 A3017 RMK SC2AC2 SLP215=

CYVR;2006-04-22 01:00;METAR CYVR 220100Z 22011G19KT 20SM FEW040 FEW076 11/01 A3017 RMK SC1AC2 SLP216=

CYVR;2006-04-22 02:00;METAR CYVR 220200Z 26006KT 20SM FEW040 SCT077 11/01 A3018 RMK SC2AC2 SLP220=

CYVR;2006-04-22 03:00;METAR CYVR 220300Z 28011KT 30SM FEW040 FEW077 09/04 A3018 RMK SC1AC1 SLP220=

CYVR;2006-04-22 04:00;METAR CYVR 220400Z 29006KT 30SM FEW051 FEW078 09/04 A3019 RMK SC1AC1 SLP224=

CYVR;2006-04-22 05:00;METAR CYVR 220500Z 02006KT 20SM FEW051 08/04 A3021 RMK SC1 SLP229=

CYVR;2006-04-22 06:00;METAR CYVR 220600Z 05006KT 20SM FEW051 07/03 A3022 RMK SC1 SLP234=

CYVR;2006-04-22 07:00;METAR CYVR 220700Z 05004KT 20SM FEW230 06/02 A3024 RMK CI1 SLP239=

CYVR;2006-04-22 08:00;METAR CYVR 220800Z 00000KT 20SM FEW230 07/03 A3025 RMK CI1 SLP245=

CYVR;2006-04-22 09:00;METAR CYVR 220900Z 35003KT 20SM FEW220 05/02 A3027 RMK CI1 SLP250=

CYVR;2006-04-22 10:00;METAR CYVR 221000Z 00000KT 20SM FEW220 05/02 A3028 RMK CI1 SLP253=

CYVR;2006-04-22 11:00;METAR CYVR 221100Z 11003KT 20SM FEW220 05/02 A3028 RMK CI2 SLP254=

CYVR;2006-04-22 12:00;METAR CYVR 221200Z 00000KT 20SM FEW220 04/02 A3029 RMK CI2 SLP258=

CYVR;2006-04-22 13:00;METAR CYVR 221300Z 36002KT 30SM FEW030 FEW070 04/01 A3031 RMK SF1AC1 TR SF SLP264=

CYVR;2006-04-22 14:00;METAR CYVR 221400Z 03004KT 30SM SKC 05/02 A3032 RMK SLP267=

CYVR;2006-04-22 15:00;METAR CYVR 221500Z 03004KT 30SM SKC 07/03 A3032 RMK SLP269=

CYVR;2006-04-22 16:00;METAR CYVR 221600Z 30015KT 30SM SKC 08/04 A3032 RMK SLP269=

CYVR;2006-04-22 17:00;METAR CYVR 221700Z 31014KT 30SM SKC 09/05 A3033 RMK SLP271=

CYVR;2006-04-22 19:00;METAR CYVR 221900Z 29019KT 30SM SKC 10/06 A3032 RMK SLP266=

CYVR;2006-04-22 21:00;METAR CYVR 222100Z 30018KT 30SM SKC 11/05 A3030 RMK SLP260=

CYVR;2006-04-22 22:00;METAR CYVR 222200Z 29020KT 30SM SKC 11/05 A3028 RMK SLP254=

CYVR;2006-04-22 23:00;METAR CYVR 222300Z 30018G25KT 30SM SKC 12/06 A3026 RMK SLP246=

CYVR;2006-04-23 00:00;METAR CYVR 230000Z 30018G24KT 30SM SKC 12/05 A3024 RMK SLP240=

CYVR;2006-04-23 01:00;METAR CYVR 230100Z 30019KT 30SM SKC 12/04 A3023 RMK SLP237=

CYVR;2006-04-23 02:00;METAR CYVR 230200Z 30017KT 30SM SKC 11/04 A3022 RMK SLP233=

CYVR;2006-04-23 03:00;METAR CYVR 230300Z 31013KT 30SM SKC 10/04 A3021 RMK SLP231=

CYVR;2006-04-23 04:00;METAR CYVR 230400Z 31011KT 30SM SKC 09/05 A3022 RMK SLP234=

CYVR;2006-04-23 09:00;METAR CYVR 230900Z 31006KT 30SM SKC 06/03 A3023 RMK SLP238=

CYVR;2006-04-23 10:00;METAR CYVR 231000Z 31011KT 30SM SKC 07/04 A3023 RMK SLP236=

CYVR;2006-04-23 11:00;METAR CYVR 231100Z 30009KT 30SM SKC 06/04 A3024 RMK SLP239=

CYVR;2006-04-23 12:00;METAR CYVR 231200Z 30007KT 30SM SKC 07/06 A3023 RMK SLP237=

CYVR;2006-04-23 13:00;METAR CYVR 231300Z 31007KT 30SM SKC 06/05 A3023 RMK SLP236=

CYVR;2006-04-23 14:00;METAR CYVR 231400Z 30009KT 30SM SKC 07/05 A3023 RMK SLP238=

CYVR;2006-04-23 16:00;METAR CYVR 231600Z 30011KT 30SM SKC 11/07 A3023 RMK SLP238=

CYVR;2006-04-23 17:00;METAR CYVR 231700Z 29011KT 30SM SKC 12/06 A3023 RMK SLP238=

CYVR;2006-04-23 21:00;METAR CYVR 232100Z 30010KT 30SM SKC 15/07 A3019 RMK SLP224=

CYVR;2006-04-23 23:00;METAR CYVR 232300Z 31011KT 30SM SKC 15/06 A3015 RMK SLP211=

CYVR;2006-04-24 00:00;METAR CYVR 240000Z 31011KT 30SM SKC 16/04 A3013 RMK SLP204=

CYVR;2006-04-24 01:00;METAR CYVR 240100Z 31009KT 30SM SKC 15/04 A3012 RMK SLP199=

CYVR;2006-04-24 02:00;METAR CYVR 240200Z 31008KT 30SM SKC 15/04 A3010 RMK SLP193=

CYVR;2006-04-24 04:00;METAR CYVR 240400Z 31006KT 30SM FEW240 11/06 A3009 RMK CI0 SLP191=

CYVR;2006-04-24 05:00;METAR CYVR 240500Z 31005KT 30SM FEW240 10/07 A3010 RMK CI0 SLP192=

CYVR;2006-04-24 07:00;METAR CYVR 240700Z 00000KT 30SM SKC 09/06 A3011 RMK SLP195=

CYVR;2006-04-24 08:00;METAR CYVR 240800Z 29004KT 30SM SKC 08/06 A3011 RMK SLP196=

CYVR;2006-04-24 10:00;METAR CYVR 241000Z 00000KT 30SM SKC 06/01 A3012 RMK SLP200=

CYVR;2006-04-24 11:00;METAR CYVR 241100Z 08003KT 30SM SKC 06/02 A3012 RMK SLP201=

CYVR;2006-04-24 12:00;METAR CYVR 241200Z 03003KT 30SM SKC 08/02 A3012 RMK SLP200=

CYVR;2006-04-24 13:00;METAR CYVR 241300Z 00000KT 30SM SKC 06/02 A3012 RMK SLP199=

CYVR;2006-04-24 14:00;METAR CYVR 241400Z 30008KT 30SM SKC 07/02 A3013 RMK SLP203=

CYVR;2006-04-24 15:00;METAR CYVR 241500Z 33005KT 30SM SKC 11/05 A3012 RMK SLP201=

CYVR;2006-04-24 16:00;METAR CYVR 241600Z 35002KT 30SM SKC 13/07 A3011 RMK SLP198=

CYVR;2006-04-24 17:00;METAR CYVR 241700Z 29008KT 30SM SKC 13/07 A3010 RMK SLP193=

CYVR;2006-04-24 18:00;METAR CYVR 241800Z 29009KT 30SM SKC 14/08 A3009 RMK SLP189=

CYVR;2006-04-24 19:00;METAR CYVR 241900Z 29012KT 30SM SKC 15/06 A3006 RMK SLP181=

CYVR;2006-04-24 20:00;METAR CYVR 242000Z 31011KT 30SM SKC 14/07 A3004 RMK SLP172=

CYVR;2006-04-24 22:00;METAR CYVR 242200Z 31014KT 30SM SKC 15/08 A2996 RMK SLP147=

CYVR;2006-04-24 23:00;METAR CYVR 242300Z 30012KT 30SM SKC 16/09 A2994 RMK SLP138=

CYVR;2006-04-25 00:00;METAR CYVR 250000Z 27011KT 30SM SKC 16/07 A2993 RMK SLP134=

CYVR;2006-04-25 01:00;METAR CYVR 250100Z 29011KT 30SM SKC 15/08 A2991 RMK SLP128=

CYVR;2006-04-25 02:00;METAR CYVR 250200Z 30009KT 30SM FEW240 14/08 A2989 RMK CI1 SLP123=

CYVR;2006-04-25 03:00;METAR CYVR 250300Z 24004KT 30SM SCT240 14/07 A2990 RMK CI2 SLP125=

CYVR;2006-04-25 04:00;METAR CYVR 250400Z 14002KT 30SM FEW230 13/05 A2993 RMK CI2 SLP135=

CYVR;2006-04-25 05:00;METAR CYVR 250500Z 08010KT 30SM FEW150 SCT230 12/07 A2995 RMK AC2CI2 SLP141=

CYVR;2006-04-25 06:00;METAR CYVR 250600Z 09007KT 30SM SCT160 BKN230 12/05 A2995 RMK AC3CI1 SLP142=

CYVR;2006-04-25 07:00;METAR CYVR 250700Z 09009KT 30SM SCT150 BKN230 12/05 A2995 RMK AC3CI1 SLP142=

CYVR;2006-04-25 08:00;METAR CYVR 250800Z 11007KT 30SM FEW150 BKN230 11/05 A2996 RMK AC2CI2 SLP146=

CYVR;2006-04-25 09:00;METAR CYVR 250900Z 10007KT 30SM FEW150 BKN220 10/04 A2996 RMK AC2CI2 SLP146=

CYVR;2006-04-25 10:00;METAR CYVR 251000Z 09004KT 30SM FEW150 SCT220 09/04 A2997 RMK AC2CI2 SLP149=

CYVR;2006-04-25 11:00;METAR CYVR 251100Z 05003KT 30SM FEW220 10/03 A2998 RMK CI2 SLP153=

CYVR;2006-04-25 12:00;METAR CYVR 251200Z 36003KT 30SM FEW220 09/03 A3000 RMK CI2 SLP158=

CYVR;2006-04-25 13:00;METAR CYVR 251300Z 01002KT 30SM FEW220 09/04 A3001 RMK CI1 SLP164=

CYVR;2006-04-25 14:00;METAR CYVR 251400Z 36003KT 30SM FEW220 08/03 A3004 RMK CI1 SLP172=

CYVR;2006-04-25 15:00;METAR CYVR 251500Z 09004KT 30SM FEW180 11/05 A3006 RMK AC1 SLP180=

CYVR;2006-04-25 18:00;METAR CYVR 251800Z 14014G20KT 30SM FEW022 FEW180 13/08 A3007 RMK CF1AC1 HZ SLP184=

CYVR;2006-04-25 19:00;METAR CYVR 251900Z 14011KT 20SM FEW022 FEW180 14/09 A3008 RMK CF1AC2 HZ SLP185=

CYVR;2006-04-25 20:00;METAR CYVR 252000Z 15008KT 20SM FEW022 SCT180 15/07 A3007 RMK CF1AS2 HZ SLP183=

CYVR;2006-04-25 21:00;METAR CYVR 252100Z 14005KT 20SM FEW025 SCT200 16/07 A3006 RMK CF1CS2 SLP181=

CYVR;2006-04-25 22:00;METAR CYVR 252200Z 16010KT 20SM FEW025 FEW200 16/08 A3005 RMK CF1CS1 SLP177=

CYVR;2006-04-25 23:00;METAR CYVR 252300Z 17007KT 20SM FEW025 FEW200 17/08 A3004 RMK CF1CS1 SLP171=

CYVR;2006-04-26 00:00;METAR CYVR 260000Z 18010KT 20SM FEW035 17/06 A3003 RMK CF1 SLP168=

CYVR;2006-04-26 01:00;METAR CYVR 260100Z 15007KT 20SM SKC 17/06 A3002 RMK SLP165=

CYVR;2006-04-26 04:00;METAR CYVR 260400Z 10010KT 30SM FEW120 FEW220 11/07 A3001 RMK AC1CI0 TR AC SLP162=

CYVR;2006-04-26 05:00;METAR CYVR 260500Z 11010KT 30SM FEW220 11/07 A3002 RMK CI0 SLP165=

CYVR;2006-04-26 06:00;METAR CYVR 260600Z 12008KT 20SM FEW220 11/06 A3001 RMK CI1 SLP164=

CYVR;2006-04-26 07:00;METAR CYVR 260700Z 09007KT 20SM FEW220 09/06 A3001 RMK CI0 SLP163=

CYVR;2006-04-26 08:00;METAR CYVR 260800Z 11009KT 20SM FEW220 10/06 A3001 RMK CI0 SLP164=

CYVR;2006-04-26 10:00;METAR CYVR 261000Z 11010KT 20SM SCT210 08/06 A3001 RMK CS2 SLP163=

CYVR;2006-04-26 11:00;METAR CYVR 261100Z 10009KT 20SM FEW180 SCT210 08/06 A3002 RMK AS2CS1 SLP165=

CYVR;2006-04-26 12:00;METAR CYVR 261200Z 09010KT 20SM OVC160 09/06 A3001 RMK AC6 SLP164=

CYVR;2006-04-26 13:00;METAR CYVR 261300Z 11011KT 30SM SCT140 OVC170 09/06 A3001 RMK AS3AC2 SLP164=

CYVR;2006-04-26 14:00;METAR CYVR 261400Z 10009KT 20SM FEW040 SCT090 OVC130 09/07 A3002 RMK SC2AC2AC4 HZ SLP166=

CYVR;2006-04-26 15:00;METAR CYVR 261500Z 11011KT 20SM FEW018 FEW040 BKN095 OVC120 10/07 A3003 RMK SF1SC2AC2AC3 SLP169=

CYVR;2006-04-26 18:00;METAR CYVR 261800Z 16009KT 20SM FEW024 SCT061 OVC081 11/04 A3007 RMK SC2SC2AS4 SLP183=

CYVR;2006-04-26 19:00;METAR CYVR 261900Z 19007KT 20SM SCT035 OVC080 11/03 A3009 RMK SC3AS5 SLP188=

CYVR;2006-04-26 20:00;METAR CYVR 262000Z 23012KT 20SM FEW035 OVC070 11/01 A3010 RMK SC2AS6 SLP194=

CYVR;2006-04-26 20:50;SPECI CYVR 262050Z 20012G17KT 20SM -SHRA SCT042 OVC055 11/ RMK SC3ST5=

CYVR;2006-04-26 21:00;METAR CYVR 262100Z 20009G18KT 15SM -SHRA SCT035 OVC047 10/02 A3012 RMK SC3ST5 SLP200=

CYVR;2006-04-26 22:00;METAR CYVR 262200Z 09006KT 20SM SCT042 OVC071 10/04 A3013 RMK SC4AC4 SLP203=

CYVR;2006-04-27 00:00;METAR CYVR 270000Z 10009KT 30SM SCT039 OVC051 10/04 A3014 RMK SC3SC5 SLP207=

CYVR;2006-04-27 01:00;METAR CYVR 270100Z 10008KT 20SM FEW038 OVC047 10/05 A3015 RMK SF2ST6 SLP211=

CYVR;2006-04-27 01:15;SPECI CYVR 270115Z 09008KT 15SM -SHRA FEW038 OVC046 10/ RMK SF2ST6 PCPN VRY LGT=

CYVR;2006-04-27 01:40;SPECI CYVR 270140Z 09008KT 15SM -DZ FEW038 OVC049 09/ RMK SF2ST6 PCPN VRY LGT=

CYVR;2006-04-27 03:20;SPECI CYVR 270320Z 08009KT 15SM SCT035 OVC050 09/ RMK SC4ST4=

CYVR;2006-04-27 04:00;METAR CYVR 270400Z 07008KT 15SM SCT035 OVC049 09/05 A3018 RMK SC4ST4 SLP220=

CYVR;2006-04-27 05:00;METAR CYVR 270500Z 08007KT 15SM SCT025 OVC048 09/05 A3020 RMK SC3SC5 SLP226=

CYVR;2006-04-27 06:16;SPECI CYVR 270616Z 10006KT 15SM -SHRA SCT035 BKN042 OVC050 09/ RMK SC3SC3SC2=

CYVR;2006-04-27 06:38;SPECI CYVR 270638Z 09005KT 15SM SCT035 OVC047 09/ RMK SC3SC5=

CYVR;2006-04-27 07:00;METAR CYVR 270700Z 09005KT 15SM SCT034 BKN040 OVC045 09/06 A3021 RMK SC3SC3SC2 SLP230=

CYVR;2006-04-27 08:00;METAR CYVR 270800Z 09005KT 15SM FEW035 OVC045 09/06 A3022 RMK SC2SC6 SLP235=

CYVR;2006-04-27 10:00;METAR CYVR 271000Z 07006KT 15SM OVC020 09/06 A3022 RMK SC8 SLP235=

CYVR;2006-04-27 11:00;METAR CYVR 271100Z 09005KT 15SM BKN020 OVC026 09/06 A3023 RMK SC5SC3 SLP238=

CYVR;2006-04-27 15:00;METAR CYVR 271500Z 07006KT 15SM -RA FEW011 OVC058 09/08 A3027 RMK SF2SC6 PCPN VRY LGT SLP252=

CYVR;2006-04-27 16:00;METAR CYVR 271600Z 09006KT 7SM -RA FEW011 SCT033 OVC049 10/09 A3029 RMK SF2SC2ST4 SLP256=

CYVR;2006-04-27 16:53;SPECI CYVR 271653Z 11007KT 12SM -RA BKN010 BKN030 OVC051 11/ RMK SC5SC1SC2=

CYVR;2006-04-27 17:00;METAR CYVR 271700Z 12005KT 12SM -RA BKN011 BKN031 OVC051 11/09 A3029 RMK SC6SC1SC2 SLP258=

CYVR;2006-04-27 18:00;METAR CYVR 271800Z 12005KT 10SM -RA BKN013 OVC021 11/09 A3030 RMK SC5SC3 SLP262=

CYVR;2006-04-27 18:30;SPECI CYVR 271830Z 11006KT 12SM BKN022 OVC036 11/ RMK SC5SC3=

CYVR;2006-04-27 19:00;METAR CYVR 271900Z 09006KT 12SM SCT015 BKN037 OVC054 12/09 A3031 RMK SC3SC3SC2 SLP265=

CYVR;2006-04-27 20:00;METAR CYVR 272000Z 10008KT 12SM FEW019 BKN038 OVC051 12/08 A3031 RMK SC2SC2SC3 SLP265=

CYVR;2006-04-27 21:30;SPECI CYVR 272130Z 08005KT 15SM BKN021 OVC051 13/ RMK SC6SC2=

CYVR;2006-04-27 22:00;METAR CYVR 272200Z 09005KT 15SM SCT023 BKN049 OVC071 13/09 A3031 RMK SC4SC2AS2 SLP263=

CYVR;2006-04-27 23:00;METAR CYVR 272300Z 00000KT 20SM BKN025 BKN061 OVC110 14/09 A3030 RMK SC5SC2AS2 SLP261=

CYVR;2006-04-28 01:00;METAR CYVR 280100Z 28006KT 15SM BKN063 BKN110 13/09 A3028 RMK SC5AC2 SLP254=

CYVR;2006-04-28 02:00;METAR CYVR 280200Z 33006KT 15SM BKN065 13/08 A3027 RMK SC7 SLP252=

CYVR;2006-04-28 03:00;METAR CYVR 280300Z 30004KT 20SM OVC067 13/09 A3027 RMK AC7 SLP250=

CYVR;2006-04-28 04:00;METAR CYVR 280400Z 30006KT 20SM BKN066 OVC170 11/09 A3027 RMK AC7AC1 SLP252=

CYVR;2006-04-28 05:00;METAR CYVR 280500Z 30006KT 20SM BKN066 OVC170 11/09 A3029 RMK AC6AC1 SLP256=

CYVR;2006-04-28 06:00;METAR CYVR 280600Z 30006KT 20SM BKN065 11/09 A3028 RMK SC6 SLP255=

CYVR;2006-04-28 07:00;METAR CYVR 280700Z 30004KT 20SM BKN063 10/09 A3027 RMK SC4 SLP252=

CYVR;2006-04-28 08:00;METAR CYVR 280800Z 02002KT 20SM BKN058 10/08 A3027 RMK SC5 SLP249=

CYVR;2006-04-28 09:00;METAR CYVR 280900Z 32002KT 20SM SCT058 11/07 A3026 RMK SC2 SLP247=

CYVR;2006-04-28 11:00;METAR CYVR 281100Z 33003KT 20SM FEW052 09/06 A3025 RMK SC2 SLP243=

CYVR;2006-04-28 12:00;METAR CYVR 281200Z 33003KT 20SM FEW052 07/05 A3024 RMK SC2 SLP242=

CYVR;2006-04-28 13:00;METAR CYVR 281300Z 00000KT 30SM FEW052 FEW220 07/06 A3023 RMK SC1CI1 CONTRAILS SLP237=

CYVR;2006-04-28 14:00;METAR CYVR 281400Z 34002KT 30SM FEW050 SCT220 09/07 A3023 RMK SC1CI1 TR SC / CONTRAILS SLP236=

CYVR;2006-04-28 15:00;METAR CYVR 281500Z 14003KT 30SM BKN220 12/08 A3022 RMK CI2 CONTRAILS SLP235=

CYVR;2006-04-28 16:00;METAR CYVR 281600Z 19003KT 30SM FEW040 SCT210 14/07 A3022 RMK SC1CI2 TR SC / CONTRAILS SLP234=

CYVR;2006-04-28 17:00;METAR CYVR 281700Z 25005KT 30SM FEW065 SCT210 14/08 A3022 RMK SC1CI2 CONTRAILS SLP232=

CYVR;2006-04-28 19:00;METAR CYVR 281900Z 24006KT 30SM FEW065 BKN180 15/09 A3020 RMK SC1AC6 SLP228=

CYVR;2006-04-28 20:00;METAR CYVR 282000Z 25005KT 30SM FEW080 BKN180 16/10 A3019 RMK AC1AC6 TR AC SLP223=

CYVR;2006-04-28 21:00;METAR CYVR 282100Z 25005KT 30SM FEW065 SCT140 BKN220 16/10 A3018 RMK SC1AC2CS4 SLP219=

CYVR;2006-04-28 22:00;METAR CYVR 282200Z 26004KT 30SM FEW060 SCT140 BKN220 17/11 A3016 RMK SC1AC3CS3 SLP213=

CYVR;2006-04-28 23:00;METAR CYVR 282300Z 33003KT 30SM FEW060 SCT140 OVC220 17/11 A3013 RMK SC1AC3CS4 SLP204=

CYVR;2006-04-29 00:00;METAR CYVR 290000Z 25003KT 30SM FEW060 BKN140 OVC220 17/11 A3012 RMK SC1AC4CS3 SLP200=

CYVR;2006-04-29 01:00;METAR CYVR 290100Z 29002KT 30SM FEW060 BKN140 OVC220 16/12 A3011 RMK SC1AC5CS2 SLP195=

CYVR;2006-04-29 04:00;METAR CYVR 290400Z 14004KT 30SM FEW085 BKN110 OVC120 16/09 A3011 RMK AS2AS3AS3 SLP196=

CYVR;2006-04-29 04:47;SPECI CYVR 290447Z 10008KT 20SM -SHRA BKN091 OVC120 14/ RMK AC5AS3 PCPN VRY LGT=

CYVR;2006-04-29 05:00;METAR CYVR 290500Z 11007KT 20SM -SHRA FEW086 BKN095 OVC120 14/10 A3012 RMK AC2AC5AS2 PCPN VRY LGT SLP200=

CYVR;2006-04-29 05:07;SPECI CYVR 290507Z 10007KT 20SM FEW086 BKN097 OVC120 14/ RMK AC2AC5AS2=

CYVR;2006-04-29 06:42;SPECI CYVR 290642Z 00000KT 15SM -SHRA BKN084 OVC120 14/ RMK AC6AC2=

CYVR;2006-04-29 07:00;METAR CYVR 290700Z 00000KT 15SM -SHRA SCT085 BKN130 BKN150 13/10 A3011 RMK AC3AC1AC1 SLP195=

CYVR;2006-04-29 07:08;SPECI CYVR 290708Z 00000KT 15SM FEW085 SCT130 BKN160 13/ RMK AC2AC2AC2=

CYVR;2006-04-29 09:00;METAR CYVR 290900Z 08006KT 20SM FEW070 FEW160 11/09 A3011 RMK AC1AC1 SLP195=

CYVR;2006-04-29 10:00;METAR CYVR 291000Z 00000KT 20SM FEW070 FEW140 11/09 A3011 RMK AC1AC1 SLP195=

CYVR;2006-04-29 12:00;METAR CYVR 291200Z 07002KT 20SM SCT004 BKN090 10/09 A3010 RMK SC4AC1 SLP194=

CYVR;2006-04-29 12:07;SPECI CYVR 291207Z 09002KT 20SM BKN005 BKN090 10/ RMK SC5AC1=

CYVR;2006-04-29 12:39;SPECI CYVR 291239Z 07003KT 20SM SCT005 BKN140 10/ RMK SC3AC2=

CYVR;2006-04-29 13:00;METAR CYVR 291300Z 36002KT 15SM -SHRA FEW005 BKN060 BKN080 10/09 A3010 RMK SC2SC3AC1 SLP194=

CYVR;2006-04-29 13:22;SPECI CYVR 291322Z 08004KT 15SM SCT007 BKN065 BKN090 10/ RMK SC4SC1AC2=

CYVR;2006-04-29 13:52;SPECI CYVR 291352Z 03002KT 10SM -SHRA SCT006 BKN070 OVC140 10/ RMK SC4AC2AC1 PCPN VRY LGT=

CYVR;2006-04-29 14:40;SPECI CYVR 291440Z 30010KT 10SM BKN008 BKN015 OVC070 11/ RMK SF5SC2AC1=

CYVR;2006-04-29 15:46;SPECI CYVR 291546Z 31011KT 12SM -SHRA SCT008 BKN014 OVC060 10/ RMK SC4SC2SC2 PCPN VRY LGT=

CYVR;2006-04-29 17:00;METAR CYVR 291700Z 30016KT 6SM -SHRA FEW007 SCT014 BKN023 OVC050 09/08 A3013 RMK SC2SC2SC3SC1 SLP202=

CYVR;2006-04-29 17:12;SPECI CYVR 291712Z 30016KT 3SM -SHRA BR SCT007 BKN014 OVC025 08/ RMK SC3SC2SC2=

CYVR;2006-04-29 17:20;SPECI CYVR 291720Z 30014G20KT 2SM -SHRA BR SCT008 BKN015 OVC025 08/ RMK SC4SC3SC1=

CYVR;2006-04-29 17:32;SPECI CYVR 291732Z 31016KT 4SM -SHRA BR SCT007 BKN016 OVC025 09/ RMK SF4SC3SC1=

CYVR;2006-04-29 18:00;METAR CYVR 291800Z 29014KT 5SM -RA BR SCT007 BKN018 OVC030 09/08 A3013 RMK SF4SC3SC1 SLP204=

CYVR;2006-04-29 19:00;METAR CYVR 291900Z 30013KT 5SM -RA BR FEW008 BKN023 OVC060 09/08 A3014 RMK SF2SC5SC1 SLP205=

CYVR;2006-04-29 20:31;SPECI CYVR 292031Z 29013KT 20SM FEW007 SCT022 BKN035 BKN070 09/ RMK SF1SC2SC3AC1 VIS NE 10=

CYVR;2006-04-29 21:00;METAR CYVR 292100Z 28016KT 15SM FEW008 SCT020 BKN037 OVC070 09/07 A3016 RMK SF1SC2SC4AC1 SLP212=

CYVR;2006-04-29 22:00;METAR CYVR 292200Z 28018KT 15SM FEW008 SCT045 BKN090 OVC140 09/05 A3018 RMK SF1SC2AC3AC2 SLP219=

CYVR;2006-04-29 23:00;METAR CYVR 292300Z 28015G21KT 20SM FEW010 SCT050 BKN130 BKN200 10/05 A3018 RMK SF1SC2AC3CI1 SLP221=

CYVR;2006-04-30 00:00;METAR CYVR 300000Z 27014KT 20SM FEW015 SCT070 BKN150 11/05 A3019 RMK SF1AC3AC2 SLP224=

CYVR;2006-04-30 01:00;METAR CYVR 300100Z 26014KT 20SM FEW030 BKN080 BKN210 11/03 A3021 RMK SC2AC3CI1 SLP230=

CYVR;2006-04-30 02:00;METAR CYVR 300200Z 20010G16KT 20SM FEW040 SCT100 BKN210 11/04 A3021 RMK SC1AC3CI1 TCU TOP NE SLP230=

CYVR;2006-04-30 05:00;METAR CYVR 300500Z 27016KT 20SM FEW220 10/03 A3025 RMK CI0 SLP245=

CYVR;2006-04-30 07:00;METAR CYVR 300700Z 05005KT 20SM FEW220 06/04 A3030 RMK CI0 SLP259=

CYVR;2006-04-30 08:00;METAR CYVR 300800Z 08004KT 20SM FEW090 FEW220 05/03 A3032 RMK AC1CI0 TR AC SLP267=

CYVR;2006-04-30 10:00;METAR CYVR 301000Z 02003KT 20SM FEW035 FEW220 05/03 A3034 RMK SC1CI1 SLP275=

CYVR;2006-04-30 12:00;METAR CYVR 301200Z 10006KT 20SM FEW036 04/03 A3036 RMK SC1 SLP280=

CYVR;2006-04-30 13:00;METAR CYVR 301300Z 10005KT 15SM FEW040 04/03 A3037 RMK SC1 SLP283=

CYVR;2006-04-30 13:46;SPECI CYVR 301346Z 08005KT 15SM FEW007 FEW040 04/ RMK SF2SC1 VIS LWR E DUE LO CLD=

CYVR;2006-04-30 14:00;METAR CYVR 301400Z 08004KT 15SM FEW007 SCT040 05/04 A3038 RMK SF2SC1 VIS LWR NE DUE LO CLD SLP288=

CYVR;2006-04-30 15:00;METAR CYVR 301500Z 08006KT 15SM FEW008 SCT030 07/05 A3040 RMK SF2SC1 VIS LWR N - E SLP295=

CYVR;2006-04-30 16:00;METAR CYVR 301600Z 13003KT 15SM FEW011 SCT030 08/06 A3041 RMK SF2CU2 SLP298=

CYVR;2006-04-30 17:00;METAR CYVR 301700Z 22004KT 15SM FEW015 FEW035 09/05 A3040 RMK SF1CU2 SLP296=

CYVR;2006-04-30 18:00;METAR CYVR 301800Z 27006KT 15SM FEW015 FEW030 10/05 A3040 RMK SF1CU2 TCU ASOCTD SLP295=

CYVR;2006-04-30 19:00;METAR CYVR 301900Z 25007KT 20SM FEW030 11/06 A3040 RMK CU2 SLP294=

CYVR;2006-04-30 21:00;METAR CYVR 302100Z 23007KT 20SM FEW040 SCT200 12/05 A3037 RMK CU2CI1 SLP283=

CYVR;2006-04-30 22:00;METAR CYVR 302200Z 24004KT 20SM FEW045 BKN220 12/02 A3036 RMK CU2CS2 SLP280=

CYVR;2006-04-30 23:00;METAR CYVR 302300Z 25005KT 20SM FEW045 OVC220 12/02 A3034 RMK CU2CS5 SLP273=

CYVR;2006-05-01 00:00;METAR CYVR 010000Z 23006KT 20SM FEW045 OVC220 13/01 A3032 RMK CU1CS6 SLP266=

CYVR;2006-05-01 02:00;METAR CYVR 010200Z 20008KT 20SM FEW045 FEW100 12/01 A3028 RMK SC1AC1 SLP254=

CYVR;2006-05-01 03:00;METAR CYVR 010300Z 18006KT 20SM FEW045 FEW080 11/03 A3027 RMK SC1AC1 SLP249=

CYVR;2006-05-01 04:00;METAR CYVR 010400Z 16003KT 20SM BKN071 10/04 A3026 RMK AC5 SLP247=

CYVR;2006-05-01 05:00;METAR CYVR 010500Z 10004KT 15SM BKN075 09/04 A3025 RMK AC6 SLP245=

CYVR;2006-05-01 06:00;METAR CYVR 010600Z 08004KT 20SM BKN074 09/04 A3024 RMK AC7 SLP240=

CYVR;2006-05-01 08:00;METAR CYVR 010800Z 08004KT 20SM SCT070 BKN160 08/04 A3023 RMK AC4AS2 SLP236=

CYVR;2006-05-01 09:00;METAR CYVR 010900Z 11003KT 20SM SCT075 BKN180 07/04 A3022 RMK AC4AS2 SLP234=

CYVR;2006-05-01 10:00;METAR CYVR 011000Z 09004KT 20SM FEW040 BKN076 OVC180 06/03 A3022 RMK SC2AC4AS1 SLP233=

CYVR;2006-05-01 11:28;SPECI CYVR 011128Z 06002KT 10SM -RA BKN034 OVC050 07/ RMK SC6SC2=

CYVR;2006-05-01 11:54;SPECI CYVR 011154Z 06002KT 15SM BKN036 OVC054 07/ RMK SC6SC2=

CYVR;2006-05-01 12:00;METAR CYVR 011200Z 09003KT 15SM BKN036 BKN054 07/04 A3022 RMK SC6SC2 SLP234=

CYVR;2006-05-01 13:00;METAR CYVR 011300Z 29016KT 15SM BKN032 OVC055 08/05 A3022 RMK SC6SC2 SLP233=

CYVR;2006-05-01 14:00;METAR CYVR 011400Z 29019G26KT 20SM SCT025 BKN067 BKN080 08/05 A3022 RMK SC3AC2AC1 SLP235=

CYVR;2006-05-01 15:00;METAR CYVR 011500Z 29022G30KT 20SM FEW030 BKN070 BKN090 08/05 A3024 RMK SC2AC3AC1 SLP239=

CYVR;2006-05-01 18:00;METAR CYVR 011800Z 29024G33KT 30SM FEW045 10/03 A3027 RMK CU2 SLP251=

CYVR;2006-05-01 19:00;METAR CYVR 011900Z 29027G33KT 30SM FEW045 10/03 A3026 RMK CU2 SLP248=

CYVR;2006-05-01 20:00;METAR CYVR 012000Z 28031G37KT 30SM FEW050 11/03 A3026 RMK CU2 SLP246=

CYVR;2006-05-01 21:00;METAR CYVR 012100Z 29030G38KT 30SM FEW050 12/02 A3025 RMK CU2 SLP245=

CYVR;2006-05-01 22:00;METAR CYVR 012200Z 30033G40KT 30SM FEW050 12/02 A3026 RMK CU2 SLP248=

CYVR;2006-05-01 23:00;METAR CYVR 012300Z 29029G36KT 30SM FEW050 12/02 A3028 RMK CU1 SLP253=

CYVR;2006-05-02 00:00;METAR CYVR 020000Z 29024G29KT 30SM FEW050 12/01 A3027 RMK CU2 SLP252=

CYVR;2006-05-02 01:00;METAR CYVR 020100Z 30026G35KT 30SM FEW050 12/01 A3027 RMK CU2 SLP251=

CYVR;2006-05-02 02:00;METAR CYVR 020200Z 30024G29KT 30SM FEW050 11/01 A3029 RMK SC1 SLP256=

CYVR;2006-05-02 04:00;METAR CYVR 020400Z 29021G26KT 30SM FEW050 09/03 A3031 RMK SC1 SLP263=

CYVR;2006-05-02 06:00;METAR CYVR 020600Z 29020G27KT 30SM FEW210 08/04 A3036 RMK CI0 SLP280=

CYVR;2006-05-02 11:00;METAR CYVR 021100Z 08006KT 20SM FEW210 04/02 A3043 RMK CI1 SLP303=

CYVR;2006-05-02 12:00;METAR CYVR 021200Z 01004KT 20SM FEW210 05/03 A3043 RMK CI0 SLP305=

CYVR;2006-05-02 13:00;METAR CYVR 021300Z 00000KT 20SM SKC 04/01 A3044 RMK SLP308=

CYVR;2006-05-02 14:00;METAR CYVR 021400Z 00000KT 30SM FEW030 FEW220 06/01 A3045 RMK CU1CI0 SLP310=

CYVR;2006-05-02 18:00;METAR CYVR 021800Z 30013KT 30SM FEW030 FEW240 10/04 A3045 RMK CU1CI0 SLP312=

CYVR;2006-05-02 19:00;METAR CYVR 021900Z 30013KT 30SM FEW040 FEW240 10/05 A3044 RMK CU1CI0 SLP308=

CYVR;2006-05-02 20:00;METAR CYVR 022000Z 30014KT 30SM FEW045 FEW240 11/05 A3042 RMK CU1CI0 SLP301=

CYVR;2006-05-02 23:00;METAR CYVR 022300Z 29012KT 30SM FEW050 FEW220 13/04 A3037 RMK CU1CI0 SLP284=

CYVR;2006-05-03 00:00;METAR CYVR 030000Z 30014KT 30SM FEW040 13/05 A3036 RMK CU1 SLP280=

CYVR;2006-05-03 02:00;METAR CYVR 030200Z 30013G18KT 30SM FEW220 12/04 A3033 RMK CI0 SLP271=

CYVR;2006-05-03 03:00;METAR CYVR 030300Z 29010KT 30SM FEW220 11/05 A3032 RMK CI0 SLP268=

CYVR;2006-05-03 06:00;METAR CYVR 030600Z 31005KT 30SM SKC 09/07 A3030 RMK SLP260=

CYVR;2006-05-03 10:00;METAR CYVR 031000Z 30011KT 30SM FEW220 06/03 A3031 RMK CI2 SLP263=

CYVR;2006-05-03 11:00;METAR CYVR 031100Z 31011KT 30SM FEW220 08/06 A3031 RMK CI2 SLP265=

CYVR;2006-05-03 12:00;METAR CYVR 031200Z 31012KT 30SM FEW220 08/06 A3032 RMK CI1 SLP266=

CYVR;2006-05-03 13:00;METAR CYVR 031300Z 30010KT 30SM FEW220 07/04 A3031 RMK CI0 SLP264=

CYVR;2006-05-03 14:00;METAR CYVR 031400Z 31014KT 30SM FEW220 09/05 A3032 RMK CI0 SLP268=

CYVR;2006-05-03 15:00;METAR CYVR 031500Z 31014KT 30SM FEW220 10/06 A3032 RMK CI0 SLP268=

CYVR;2006-05-03 17:00;METAR CYVR 031700Z 30017KT 30SM FEW220 11/06 A3031 RMK CI0 SLP265=

CYVR;2006-05-03 18:00;METAR CYVR 031800Z 30020KT 30SM FEW220 12/07 A3031 RMK CI0 SLP263=

CYVR;2006-05-03 19:00;METAR CYVR 031900Z 31019KT 30SM FEW220 12/07 A3030 RMK CI0 SLP260=

CYVR;2006-05-03 20:00;METAR CYVR 032000Z 31018KT 30SM FEW220 13/07 A3028 RMK CI0 SLP254=

CYVR;2006-05-03 22:00;METAR CYVR 032200Z 31016G21KT 30SM FEW220 15/07 A3025 RMK CI1 TR CI SLP243=

CYVR;2006-05-04 00:00;METAR CYVR 040000Z 31013KT 30SM SKC 16/06 A3022 RMK SLP235=

CYVR;2006-05-04 01:00;METAR CYVR 040100Z 30011G16KT 30SM FEW190 16/05 A3021 RMK AS0 SLP231=

CYVR;2006-05-04 02:00;METAR CYVR 040200Z 31010G15KT 30SM FEW190 15/04 A3019 RMK AS1 SLP224=

CYVR;2006-05-04 03:00;METAR CYVR 040300Z 31010KT 30SM SCT180 13/04 A3019 RMK AS2 SLP223=

CYVR;2006-05-04 04:00;METAR CYVR 040400Z 32009KT 30SM FEW210 11/05 A3019 RMK CI1 SLP223=

CYVR;2006-05-04 06:00;METAR CYVR 040600Z 32003KT 20SM FEW210 12/07 A3019 RMK CI1 SLP222=

CYVR;2006-05-04 07:00;METAR CYVR 040700Z 00000KT 20SM FEW210 11/08 A3019 RMK CI1 SLP223=

CYVR;2006-05-04 08:00;METAR CYVR 040800Z 10003KT 20SM FEW210 09/05 A3019 RMK CI1 SLP224=

CYVR;2006-05-04 09:00;METAR CYVR 040900Z 28003KT 20SM SCT210 08/02 A3020 RMK CI2 SLP227=

CYVR;2006-05-04 10:00;METAR CYVR 041000Z 32002KT 20SM FEW210 09/03 A3020 RMK CI1 SLP228=

CYVR;2006-05-04 11:00;METAR CYVR 041100Z 00000KT 15SM FEW210 09/05 A3020 RMK CI1 SLP226=

CYVR;2006-05-04 12:00;METAR CYVR 041200Z 32002KT 20SM SCT200 08/05 A3021 RMK CI2 SLP230=

CYVR;2006-05-04 14:00;METAR CYVR 041400Z 09004KT 30SM SCT200 09/05 A3021 RMK CI2 CONTRAILS SLP230=

CYVR;2006-05-04 15:00;METAR CYVR 041500Z 00000KT 30SM BKN210 11/06 A3022 RMK CI2 CONTRAILS SLP233=

CYVR;2006-05-04 16:00;METAR CYVR 041600Z 09002KT 30SM BKN210 14/06 A3021 RMK CI2 SLP229=

CYVR;2006-05-04 17:00;METAR CYVR 041700Z 30009KT 30SM BKN210 15/07 A3020 RMK CI2 SLP228=

CYVR;2006-05-04 19:00;METAR CYVR 041900Z 29007KT 30SM BKN230 15/06 A3019 RMK CI2 SLP224=

CYVR;2006-05-04 20:00;METAR CYVR 042000Z 28006KT 30SM OVC230 16/06 A3017 RMK CI2 SLP216=

CYVR;2006-05-04 21:00;METAR CYVR 042100Z 29007KT 30SM OVC220 16/04 A3014 RMK CI5 SLP207=

CYVR;2006-05-04 22:00;METAR CYVR 042200Z 29007KT 30SM OVC220 17/07 A3012 RMK CI3 SLP200=

CYVR;2006-05-04 23:00;METAR CYVR 042300Z 28005KT 30SM OVC220 17/06 A3009 RMK CI2 SLP191=

CYVR;2006-05-05 00:00;METAR CYVR 050000Z 30006KT 30SM OVC220 18/08 A3007 RMK CI2 SLP183=

CYVR;2006-05-05 04:00;METAR CYVR 050400Z 34006KT 30SM BKN220 12/10 A3001 RMK CI4 SLP164=

CYVR;2006-05-05 06:00;METAR CYVR 050600Z 25002KT 20SM BKN230 13/09 A3001 RMK CI3 SLP163=

CYVR;2006-05-05 07:00;METAR CYVR 050700Z 25003KT 20SM BKN220 11/09 A3000 RMK CI3 SLP160=

CYVR;2006-05-05 09:00;METAR CYVR 050900Z 36002KT 20SM OVC210 10/09 A2999 RMK CI4 SLP156=

CYVR;2006-05-05 10:00;METAR CYVR 051000Z 00000KT 20SM BKN210 10/07 A2998 RMK CI3 SLP152=

CYVR;2006-05-05 12:00;METAR CYVR 051200Z 08002KT 30SM BKN210 09/05 A2998 RMK CI2 SLP152=

CYVR;2006-05-05 17:00;METAR CYVR 051700Z 24004KT 30SM FEW180 OVC220 15/07 A2996 RMK AC1CI2 SLP147=

CYVR;2006-05-05 18:00;METAR CYVR 051800Z 24008KT 30SM OVC220 15/07 A2996 RMK CI2 SLP147=

CYVR;2006-05-05 21:00;METAR CYVR 052100Z 29006KT 30SM FEW180 BKN220 17/09 A2993 RMK AS1CI2 SLP136=

CYVR;2006-05-05 22:00;METAR CYVR 052200Z 25005KT 30SM SCT180 BKN220 19/10 A2991 RMK AC1CI1 SLP130=

CYVR;2006-05-05 23:00;METAR CYVR 052300Z 22010KT 30SM FEW040 FEW180 SCT220 21/08 A2989 RMK CF1AC1CI1 TR CF SLP123=

CYVR;2006-05-06 00:00;METAR CYVR 060000Z 21007KT 30SM FEW040 SCT160 BKN220 20/06 A2988 RMK CU1AC2CI1 SLP120=

CYVR;2006-05-06 03:00;METAR CYVR 060300Z 22002KT 30SM FEW120 SCT220 16/08 A2987 RMK AC2CI1 SLP115=

CYVR;2006-05-06 05:00;METAR CYVR 060500Z 20002KT 20SM FEW120 FEW220 14/09 A2990 RMK AC1CI1 SLP125=

CYVR;2006-05-06 06:00;METAR CYVR 060600Z 23006KT 20SM BKN220 13/07 A2990 RMK CI3 SLP124=

CYVR;2006-05-06 09:00;METAR CYVR 060900Z 11006KT 20SM FEW220 08/04 A2994 RMK CI1 SLP140=

CYVR;2006-05-06 10:00;METAR CYVR 061000Z 09008KT 20SM FEW220 08/05 A2997 RMK CI2 SLP148=

CYVR;2006-05-06 11:00;METAR CYVR 061100Z 08009KT 20SM SCT220 09/07 A2998 RMK CI2 SLP153=

CYVR;2006-05-06 12:00;METAR CYVR 061200Z 08011KT 20SM FEW040 SCT060 BKN088 BKN220 09/07 A3000 RMK SC2SC2AC2CI1 SLP159=

CYVR;2006-05-06 13:00;METAR CYVR 061300Z 09014KT 20SM FEW042 BKN058 BKN088 09/07 A3000 RMK SC2SC3AC2 SLP160=

CYVR;2006-05-06 15:00;METAR CYVR 061500Z 09012KT 20SM FEW020 OVC054 10/07 A3001 RMK SC2SC6 SLP164=

CYVR;2006-05-06 15:08;SPECI CYVR 061508Z 09012KT 20SM -SHRA FEW020 OVC045 10/ RMK SC2SC6=

CYVR;2006-05-06 15:41;SPECI CYVR 061541Z 09009KT 20SM FEW020 OVC052 10/ RMK SC2SC6=

CYVR;2006-05-06 16:00;METAR CYVR 061600Z 11006KT 20SM FEW020 BKN042 OVC054 10/07 A3003 RMK SC1SC4SC2 SLP169=

CYVR;2006-05-06 16:36;SPECI CYVR 061636Z 20003KT 12SM -SHRA FEW020 BKN042 OVC054 11/ RMK SC2SC4SC2=

CYVR;2006-05-06 17:55;SPECI CYVR 061755Z 08002KT 15SM FEW020 BKN045 OVC071 12/ RMK CF2SC5AC2=

CYVR;2006-05-06 18:00;METAR CYVR 061800Z 09003KT 15SM FEW020 BKN046 OVC070 11/07 A3005 RMK CU2SC5AC2 SLP176=

CYVR;2006-05-06 19:00;METAR CYVR 061900Z 25005KT 15SM FEW025 OVC044 11/07 A3005 RMK SC2SC6 SLP177=

CYVR;2006-05-06 19:18;SPECI CYVR 061918Z 22005KT 15SM -SHRA FEW025 BKN039 OVC045 11/ RMK SC2SC4SC2=

CYVR;2006-05-06 19:54;SPECI CYVR 061954Z 22005KT 15SM FEW025 SCT039 BKN045 OVC069 12/ RMK SC2SC2SC2AC2=

CYVR;2006-05-06 20:00;METAR CYVR 062000Z 23004KT 15SM FEW025 SCT045 BKN055 OVC069 12/06 A3006 RMK SF2SC2SC2AC2 SLP181=

CYVR;2006-05-06 21:00;METAR CYVR 062100Z 27002KT 15SM FEW025 BKN056 OVC070 12/05 A3006 RMK SF2SC4AC2 SLP179=

CYVR;2006-05-06 23:00;METAR CYVR 062300Z 24002KT 20SM FEW025 SCT035 OVC049 13/05 A3006 RMK CF1SC2SC4 SLP178=

CYVR;2006-05-07 00:00;METAR CYVR 070000Z 15004KT 30SM FEW035 OVC047 13/05 A3003 RMK SC2SC6 SLP170=

CYVR;2006-05-07 01:00;METAR CYVR 070100Z 13009KT 30SM SCT035 BKN058 OVC064 13/05 A3003 RMK SC3SC3SC2 SLP168=

CYVR;2006-05-07 01:53;SPECI CYVR 070153Z 14008KT 20SM -SHRA FEW035 BKN047 OVC061 12/ RMK SC2SC3SC3 PCPN VRY LGT=

CYVR;2006-05-07 02:48;SPECI CYVR 070248Z 11008KT 20SM FEW035 BKN048 OVC059 11/ RMK SC2SC3SC3=

CYVR;2006-05-07 04:00;METAR CYVR 070400Z 22005KT 12SM -RA FEW021 BKN038 OVC062 11/07 A3002 RMK SC2SC4SC2 SLP166=

CYVR;2006-05-07 05:00;METAR CYVR 070500Z 28004KT 12SM -RA FEW023 BKN041 OVC062 10/06 A3001 RMK SF1SC6SC2 SLP162=

CYVR;2006-05-07 07:00;METAR CYVR 070700Z 14004KT 10SM -RA BKN039 OVC052 09/08 A3001 RMK ST6SC2 SLP162=

CYVR;2006-05-07 08:00;METAR CYVR 070800Z 12006KT 10SM -RA FEW021 BKN044 OVC061 08/07 A3001 RMK SF1ST6SC2 SLP162=

CYVR;2006-05-07 09:00;METAR CYVR 070900Z 10008KT 10SM -RA FEW022 BKN038 OVC052 08/07 A2999 RMK SF1ST5SC2 SLP155=

CYVR;2006-05-07 10:00;METAR CYVR 071000Z 09008KT 10SM -RA FEW015 BKN041 OVC063 08/07 A2997 RMK SF2ST4SC2 SLP149=

CYVR;2006-05-07 11:00;METAR CYVR 071100Z 09009KT 10SM -RA SCT012 OVC044 08/07 A2996 RMK SF4SC4 SLP147=

CYVR;2006-05-07 12:00;METAR CYVR 071200Z 09010KT 7SM -RA SCT010 OVC040 08/07 A2994 RMK SF4SC4 SLP140=

CYVR;2006-05-07 12:15;SPECI CYVR 071215Z 09010KT 8SM -RA BKN011 BKN018 OVC040 08/ RMK SF5SC2SC2=

CYVR;2006-05-07 13:00;METAR CYVR 071300Z 12011KT 5SM -RA BKN011 BKN021 OVC040 08/08 A2992 RMK SC5SC2SC2 SLP133=

CYVR;2006-05-07 15:44;SPECI CYVR 071544Z 14013KT 10SM BKN016 OVC024 09/ RMK SC6SC2=

CYVR;2006-05-07 16:00;METAR CYVR 071600Z 14010G15KT 10SM -SHRA BKN016 OVC024 09/07 A2989 RMK SC6SC2 SLP123=

CYVR;2006-05-07 17:17;SPECI CYVR 071717Z 15019KT 12SM SCT015 BKN022 OVC037 10/ RMK SC4SC2SC2=

CYVR;2006-05-07 18:00;METAR CYVR 071800Z 17016G21KT 12SM SCT015 BKN022 BKN042 11/09 A2989 RMK SC4SC2SC2 SLP123=

CYVR;2006-05-07 19:00;METAR CYVR 071900Z 18014KT 15SM SCT016 BKN036 BKN051 12/08 A2989 RMK SC4SC2SC1 SLP122=

CYVR;2006-05-07 20:00;METAR CYVR 072000Z 18013G24KT 15SM FEW018 SCT041 13/08 A2989 RMK SC2SC1 SLP121=

CYVR;2006-05-07 21:00;METAR CYVR 072100Z 19015KT 15SM FEW024 SCT045 14/07 A2989 RMK SC2SC1 SLP122=

CYVR;2006-05-07 22:00;METAR CYVR 072200Z 23011G16KT 20SM FEW041 SCT070 15/04 A2991 RMK SC2AC1 SLP130=

CYVR;2006-05-07 23:00;METAR CYVR 072300Z 29007KT 20SM SCT044 BKN077 14/06 A2993 RMK SC4AC2 SLP134=

CYVR;2006-05-08 00:00;METAR CYVR 080000Z 24014KT 20SM BKN051 BKN077 14/04 A2994 RMK SC6AC2 SLP140=

CYVR;2006-05-08 01:00;METAR CYVR 080100Z 24016KT 20SM FEW045 SCT085 14/05 A2995 RMK SC2AC1 SLP143=

CYVR;2006-05-08 02:00;METAR CYVR 080200Z 24017G26KT 30SM FEW045 SCT090 13/04 A2996 RMK SC2AC1 SHS N SLP147=

CYVR;2006-05-08 04:00;METAR CYVR 080400Z 29017KT 30SM FEW045 BKN072 11/04 A3001 RMK SC2AC2 SLP161=

CYVR;2006-05-08 05:00;METAR CYVR 080500Z 30015G20KT 30SM FEW040 BKN074 10/04 A3004 RMK SC2AC2 SLP171=

CYVR;2006-05-08 06:00;METAR CYVR 080600Z 30019KT 20SM FEW040 SCT070 BKN085 10/04 A3005 RMK SC2AC2AC2 SLP177=

CYVR;2006-05-08 07:00;METAR CYVR 080700Z 28015G21KT 20SM FEW050 SCT070 BKN090 09/04 A3007 RMK SC2AC2AC2 SLP182=

CYVR;2006-05-08 10:00;METAR CYVR 081000Z 28017G24KT 20SM FEW040 FEW080 08/03 A3012 RMK SC1AC1 SLP199=

CYVR;2006-05-08 11:00;METAR CYVR 081100Z 29024G29KT 20SM FEW080 FEW220 08/02 A3014 RMK AC1CI0 SLP208=

CYVR;2006-05-08 12:00;METAR CYVR 081200Z 29024G29KT 30SM FEW040 FEW220 08/02 A3016 RMK SC1CI0 SLP213=

CYVR;2006-05-08 13:00;METAR CYVR 081300Z 29022G27KT 30SM FEW040 07/02 A3018 RMK SC1 SLP220=

CYVR;2006-05-08 14:00;METAR CYVR 081400Z 29022KT 30SM FEW040 08/02 A3021 RMK SC1 TR SC SLP229=

CYVR;2006-05-08 15:00;METAR CYVR 081500Z 29020G26KT 30SM FEW030 09/02 A3023 RMK SC1 CF ASOCTD SLP236=

CYVR;2006-05-08 16:00;METAR CYVR 081600Z 28021G27KT 30SM FEW030 09/03 A3023 RMK SC1 SLP236=

CYVR;2006-05-08 18:00;METAR CYVR 081800Z 28022G27KT 30SM FEW040 10/03 A3026 RMK SC1 SLP246=

CYVR;2006-05-08 19:00;METAR CYVR 081900Z 29021G29KT 30SM FEW040 11/03 A3027 RMK SC1 SLP251=

CYVR;2006-05-08 20:00;METAR CYVR 082000Z 28019G24KT 30SM FEW040 11/04 A3028 RMK SC1 SLP253=

CYVR;2006-05-08 21:00;METAR CYVR 082100Z 30018KT 30SM FEW045 12/04 A3028 RMK SC1 SLP253=

CYVR;2006-05-08 22:00;METAR CYVR 082200Z 29020G25KT 30SM FEW050 13/02 A3027 RMK SC1 SLP251=

CYVR;2006-05-08 23:00;METAR CYVR 082300Z 28015G24KT 30SM FEW050 13/03 A3028 RMK SC1 SLP254=

CYVR;2006-05-09 00:00;METAR CYVR 090000Z 28016KT 30SM FEW050 13/04 A3028 RMK SC1 SLP253=

CYVR;2006-05-09 03:00;METAR CYVR 090300Z 27017KT 30SM FEW050 11/03 A3027 RMK SC1 SLP252=

CYVR;2006-05-09 04:00;METAR CYVR 090400Z 25013KT 30SM FEW050 11/01 A3030 RMK SC1 SLP260=

CYVR;2006-05-09 05:00;METAR CYVR 090500Z 25011KT 30SM FEW050 10/04 A3031 RMK SC1 SLP265=

CYVR;2006-05-09 06:00;METAR CYVR 090600Z 25008KT 30SM FEW050 10/05 A3032 RMK SC1 SLP267=

CYVR;2006-05-09 07:00;METAR CYVR 090700Z 27011G17KT 30SM FEW050 10/02 A3032 RMK SC1 SLP269=

CYVR;2006-05-09 08:00;METAR CYVR 090800Z 28007KT 30SM FEW045 09/03 A3034 RMK SC1 SLP274=

CYVR;2006-05-09 09:00;METAR CYVR 090900Z 34002KT 30SM FEW040 07/04 A3034 RMK SC1 SLP275=

CYVR;2006-05-09 10:00;METAR CYVR 091000Z 08009KT 30SM FEW040 FEW220 05/02 A3035 RMK SC1CI0 SLP277=

CYVR;2006-05-09 11:00;METAR CYVR 091100Z 08006KT 30SM FEW040 FEW220 06/03 A3035 RMK SC1CI0 SLP277=

CYVR;2006-05-09 12:00;METAR CYVR 091200Z 07005KT 30SM FEW040 FEW220 06/02 A3036 RMK SC1CI0 SLP282=

CYVR;2006-05-09 13:00;METAR CYVR 091300Z 07006KT 30SM FEW040 FEW220 06/03 A3037 RMK SC1CI0 SLP283=

CYVR;2006-05-09 15:00;METAR CYVR 091500Z 11007KT 30SM FEW030 SCT210 08/04 A3039 RMK SC1CI1 SLP290=

CYVR;2006-05-09 17:00;METAR CYVR 091700Z 25005KT 30SM FEW037 FEW210 11/04 A3039 RMK SC1CI0 SLP292=

CYVR;2006-05-09 18:00;METAR CYVR 091800Z 27008KT 30SM FEW040 FEW220 11/06 A3040 RMK SC1CI0 SLP293=

CYVR;2006-05-09 19:00;METAR CYVR 091900Z 27008KT 30SM FEW040 11/06 A3039 RMK SC1 SLP291=

CYVR;2006-05-09 20:00;METAR CYVR 092000Z 26005KT 30SM FEW040 FEW220 12/06 A3037 RMK SC1CI1 SLP285=

CYVR;2006-05-09 22:00;METAR CYVR 092200Z 25007KT 30SM FEW045 SCT220 13/07 A3035 RMK SC1CI1 SLP279=

CYVR;2006-05-09 23:00;METAR CYVR 092300Z 23006KT 30SM FEW045 FEW220 13/05 A3033 RMK SC1CI0 SLP272=

CYVR;2006-05-10 00:00;METAR CYVR 100000Z 24006KT 30SM FEW050 SCT220 13/05 A3032 RMK SC1CI1 TR SC SLP268=

CYVR;2006-05-10 01:00;METAR CYVR 100100Z 24006KT 30SM SCT220 14/02 A3032 RMK CI1 SLP266=

CYVR;2006-05-10 02:00;METAR CYVR 100200Z 23005KT 30SM SCT220 13/02 A3031 RMK CI1 SLP264=

CYVR;2006-05-10 04:00;METAR CYVR 100400Z 00000KT 30SM BKN240 12/01 A3030 RMK CI2 SLP262=

CYVR;2006-05-10 05:00;METAR CYVR 100500Z 02002KT 30SM BKN240 11/03 A3030 RMK CI2 SLP261=

CYVR;2006-05-10 06:00;METAR CYVR 100600Z 00000KT 30SM BKN240 11/03 A3029 RMK CI2 SLP257=

CYVR;2006-05-10 07:00;METAR CYVR 100700Z 00000KT 30SM BKN220 11/03 A3030 RMK CI2 SLP259=

CYVR;2006-05-10 08:00;METAR CYVR 100800Z 00000KT 30SM SCT220 10/04 A3030 RMK CI2 SLP259=

CYVR;2006-05-10 09:00;METAR CYVR 100900Z 02003KT 30SM BKN220 09/04 A3030 RMK CI2 SLP260=

CYVR;2006-05-10 10:00;METAR CYVR 101000Z 03004KT 30SM BKN210 08/04 A3030 RMK CI2 SLP260=

CYVR;2006-05-10 11:00;METAR CYVR 101100Z 09004KT 30SM BKN210 08/04 A3030 RMK CI4 SLP259=

CYVR;2006-05-10 12:00;METAR CYVR 101200Z 09003KT 30SM BKN220 08/04 A3029 RMK CI4 SLP258=

CYVR;2006-05-10 13:00;METAR CYVR 101300Z 11004KT 20SM BKN210 07/04 A3030 RMK CI4 SLP260=

CYVR;2006-05-10 14:00;METAR CYVR 101400Z 09004KT 20SM FEW140 OVC220 09/05 A3030 RMK AC1CS3 SLP261=

CYVR;2006-05-10 16:00;METAR CYVR 101600Z 17002KT 20SM FEW140 OVC220 13/06 A3030 RMK AC1CS2 TR AC SLP261=

CYVR;2006-05-10 18:00;METAR CYVR 101800Z 26007KT 20SM BKN220 13/06 A3028 RMK CS2 SLP254=

CYVR;2006-05-10 19:00;METAR CYVR 101900Z 25007KT 20SM BKN220 14/05 A3027 RMK CS2 SLP252=

CYVR;2006-05-10 20:00;METAR CYVR 102000Z 25006KT 20SM OVC220 15/05 A3025 RMK CI2 SLP244=

CYVR;2006-05-10 21:00;METAR CYVR 102100Z 26007KT 20SM FEW140 OVC220 15/06 A3024 RMK AC1CI4 SLP239=

CYVR;2006-05-10 22:00;METAR CYVR 102200Z 29007KT 20SM FEW160 OVC220 14/06 A3022 RMK AC1CS5 SLP235=

CYVR;2006-05-10 23:00;METAR CYVR 102300Z 29006KT 20SM OVC220 16/07 A3020 RMK CS6 SLP226=

CYVR;2006-05-11 00:00;METAR CYVR 110000Z 29007KT 20SM OVC210 16/06 A3017 RMK CS3 SLP218=

CYVR;2006-05-11 01:00;METAR CYVR 110100Z 29007KT 20SM BKN220 16/05 A3015 RMK CI1 SLP210=

CYVR;2006-05-11 02:00;METAR CYVR 110200Z 28005KT 20SM FEW100 BKN220 14/08 A3013 RMK AC1CI1 SLP202=

CYVR;2006-05-11 03:00;METAR CYVR 110300Z 32005KT 20SM FEW080 BKN220 12/07 A3011 RMK AC1CI2 SLP198=

CYVR;2006-05-11 04:00;METAR CYVR 110400Z 34002KT 20SM BKN230 12/05 A3011 RMK CI2 SLP195=

CYVR;2006-05-11 05:00;METAR CYVR 110500Z 35003KT 20SM BKN230 12/04 A3010 RMK CI2 SLP194=

CYVR;2006-05-11 06:00;METAR CYVR 110600Z 36002KT 20SM FEW160 SCT240 11/03 A3009 RMK AC1CI2 SLP191=

CYVR;2006-05-11 07:00;METAR CYVR 110700Z 00000KT 20SM FEW150 BKN240 11/03 A3009 RMK AC1CI2 SLP188=

CYVR;2006-05-11 10:00;METAR CYVR 111000Z 09004KT 20SM FEW140 BKN180 09/05 A3006 RMK AC2AC4 SLP179=

CYVR;2006-05-11 11:00;METAR CYVR 111100Z 09005KT 20SM FEW140 BKN160 09/05 A3005 RMK AC2AC4 SLP176=

CYVR;2006-05-11 12:00;METAR CYVR 111200Z 12004KT 20SM BKN140 OVC170 09/05 A3004 RMK AC5AC2 SLP174=

CYVR;2006-05-11 13:00;METAR CYVR 111300Z 10005KT 20SM SCT140 BKN220 09/05 A3003 RMK AC3CI2 SLP170=

CYVR;2006-05-11 14:00;METAR CYVR 111400Z 10004KT 20SM BKN085 BKN140 OVC220 10/06 A3004 RMK AC4AC1CS2 SLP172=

CYVR;2006-05-11 15:00;METAR CYVR 111500Z 10005KT 20SM BKN093 OVC220 11/07 A3004 RMK AC5CS2 SLP172=

CYVR;2006-05-11 16:00;METAR CYVR 111600Z 13005KT 20SM BKN084 BKN120 OVC220 12/08 A3004 RMK AC5AC2CS1 SLP174=

CYVR;2006-05-11 17:00;METAR CYVR 111700Z 11007KT 20SM FEW084 BKN100 OVC220 13/08 A3005 RMK AC2AC2CS2 SLP175=

CYVR;2006-05-11 18:00;METAR CYVR 111800Z 12014KT 20SM SCT045 BKN080 OVC220 12/08 A3005 RMK SC3AC3CS2 SLP177=

CYVR;2006-05-11 18:04;SPECI CYVR 111804Z 13014KT 20SM -SHRA SCT045 BKN074 OVC220 12/ RMK SC3AC3CS2 PCPN VRY LGT=

CYVR;2006-05-11 18:52;SPECI CYVR 111852Z 14009KT 20SM FEW045 BKN080 OVC220 12/ RMK SC2AC3CS2=

CYVR;2006-05-11 20:00;METAR CYVR 112000Z 13007KT 20SM FEW045 BKN065 13/08 A3008 RMK SC2SC5 SLP186=

CYVR;2006-05-11 21:00;METAR CYVR 112100Z 12012KT 20SM FEW030 SCT045 BKN066 BKN180 13/08 A3007 RMK CF1SC2AC2AC2 SLP184=

CYVR;2006-05-11 22:00;METAR CYVR 112200Z 12010KT 20SM SCT035 BKN055 OVC080 14/06 A3007 RMK SC3SC2AC2 SLP183=

CYVR;2006-05-11 23:00;METAR CYVR 112300Z 11008KT 20SM FEW035 BKN051 BKN080 15/08 A3006 RMK SC2SC3AC2 SLP179=

CYVR;2006-05-12 00:00;METAR CYVR 120000Z 10007KT 20SM FEW035 SCT045 BKN076 15/07 A3004 RMK SC2SC2AC2 SLP173=

CYVR;2006-05-12 04:00;METAR CYVR 120400Z 22014KT 20SM FEW042 BKN065 BKN079 12/04 A3004 RMK SF2SC3AC1 DIST PCPN N SLP174=

CYVR;2006-05-12 05:00;METAR CYVR 120500Z 28015G20KT 20SM FEW040 SCT060 BKN078 12/08 A3006 RMK SC2SC2AC2 SLP178=

CYVR;2006-05-12 06:00;METAR CYVR 120600Z 28021KT 20SM FEW031 BKN045 BKN062 11/06 A3007 RMK SC2SC3SC2 SLP182=

CYVR;2006-05-12 07:00;METAR CYVR 120700Z 26016G21KT 20SM FEW035 BKN049 BKN065 10/04 A3008 RMK SC2SC2SC2 SLP185=

CYVR;2006-05-12 08:00;METAR CYVR 120800Z 24013KT 20SM FEW032 BKN047 BKN072 10/03 A3009 RMK SC2SC3AC2 SLP189=

CYVR;2006-05-12 09:00;METAR CYVR 120900Z 23013KT 15SM SCT027 BKN051 BKN069 10/03 A3009 RMK SC3SC2AC2 SLP190=

CYVR;2006-05-12 10:00;METAR CYVR 121000Z 28015KT 15SM FEW020 BKN031 BKN059 BKN072 10/05 A3010 RMK SF2SC2SC2AC1 SLP192=

CYVR;2006-05-12 11:00;METAR CYVR 121100Z 27013G18KT 15SM FEW021 SCT047 BKN065 09/04 A3011 RMK SC2SC2SC2 SLP195=

CYVR;2006-05-12 12:00;METAR CYVR 121200Z 26012KT 20SM FEW021 SCT045 BKN071 09/03 A3011 RMK SC1SC2AC3 SLP197=

CYVR;2006-05-12 13:00;METAR CYVR 121300Z 25010KT 30SM SCT045 BKN063 09/03 A3012 RMK SC3SC3 SLP200=

CYVR;2006-05-12 14:00;METAR CYVR 121400Z 26011KT 30SM FEW035 BKN068 09/02 A3013 RMK SC2AC3 SLP202=

CYVR;2006-05-12 15:00;METAR CYVR 121500Z 25011KT 30SM FEW035 BKN055 BKN070 10/03 A3014 RMK SC2SC2AC1 SLP206=

CYVR;2006-05-12 16:00;METAR CYVR 121600Z 25012G17KT 30SM FEW035 BKN074 10/03 A3016 RMK SC2AC2 SLP213=

CYVR;2006-05-12 17:00;METAR CYVR 121700Z 29011KT 30SM FEW035 FEW075 SCT180 BKN220 10/04 A3017 RMK CU1AC1AC1CI1 SLP217=

CYVR;2006-05-12 18:00;METAR CYVR 121800Z 29011G16KT 30SM FEW040 FEW160 11/04 A3018 RMK SC1AC1 SLP220=

CYVR;2006-05-12 21:00;METAR CYVR 122100Z 27008KT 30SM FEW035 FEW040 SCT160 12/04 A3021 RMK CU1SC1AC1 SLP231=

CYVR;2006-05-12 23:00;METAR CYVR 122300Z 21010KT 30SM FEW040 FEW045 FEW070 FEW160 13/03 A3022 RMK CU1SC1AC1AC1 TR CU / TR AC SLP232=

CYVR;2006-05-13 00:00;METAR CYVR 130000Z 25008KT 30SM FEW040 FEW045 FEW160 FEW220 13/04 A3022 RMK CU1SC1AC1CI1 TR SC SLP234=

CYVR;2006-05-13 02:00;METAR CYVR 130200Z 25004KT 30SM FEW045 FEW160 12/03 A3021 RMK SC2AC1 SLP231=

CYVR;2006-05-13 03:00;METAR CYVR 130300Z 29004KT 30SM FEW045 FEW160 11/01 A3022 RMK SC1AC1 SLP233=

CYVR;2006-05-13 05:00;METAR CYVR 130500Z 02003KT 30SM FEW045 FEW180 09/02 A3022 RMK SC1AC1 SLP235=

CYVR;2006-05-13 07:00;METAR CYVR 130700Z 07006KT 20SM SCT200 08/02 A3022 RMK CI2 SLP235=

CYVR;2006-05-13 08:00;METAR CYVR 130800Z 07003KT 20SM FEW200 07/02 A3022 RMK CI2 SLP234=

CYVR;2006-05-13 09:00;METAR CYVR 130900Z 08005KT 20SM SCT200 06/03 A3022 RMK CI2 SLP234=

CYVR;2006-05-13 10:00;METAR CYVR 131000Z 35002KT 20SM FEW200 06/01 A3021 RMK CI1 SLP231=

CYVR;2006-05-13 11:00;METAR CYVR 131100Z 01003KT 20SM FEW180 06/01 A3021 RMK AC2 SLP230=

CYVR;2006-05-13 12:00;METAR CYVR 131200Z 00000KT 30SM FEW140 SCT210 06/01 A3021 RMK AC1CC1 SLP230=

CYVR;2006-05-13 13:00;METAR CYVR 131300Z 09002KT 30SM FEW140 SCT210 06/01 A3021 RMK AC0CC2 TR AC SLP231=

CYVR;2006-05-13 14:00;METAR CYVR 131400Z 00000KT 30SM FEW065 FEW210 07/02 A3021 RMK SC1CI0 SLP231=

CYVR;2006-05-13 15:00;METAR CYVR 131500Z 34008KT 30SM FEW065 FEW210 09/04 A3021 RMK SF1CI0 SLP231=

CYVR;2006-05-13 16:00;METAR CYVR 131600Z 31013KT 30SM FEW065 FEW210 11/04 A3022 RMK CF1CI0 SLP232=

CYVR;2006-05-13 18:00;METAR CYVR 131800Z 29010KT 30SM FEW045 FEW210 12/05 A3022 RMK CU1CI0 CONTRAILS SLP235=

CYVR;2006-05-13 20:00;METAR CYVR 132000Z 29011KT 30SM FEW045 FEW210 13/05 A3024 RMK CU1CI0 CONTRAILS SLP239=

CYVR;2006-05-13 21:00;METAR CYVR 132100Z 29012KT 30SM FEW045 BKN210 14/04 A3023 RMK CU1CI2 SLP238=

CYVR;2006-05-14 01:00;METAR CYVR 140100Z 28011KT 30SM FEW045 BKN210 15/04 A3021 RMK SC1CS1 TR SC / CONTRAILS SLP231=

CYVR;2006-05-14 03:00;METAR CYVR 140300Z 25008KT 30SM FEW160 BKN210 12/06 A3022 RMK AC2CI2 SLP233=

CYVR;2006-05-14 04:00;METAR CYVR 140400Z 26007KT 30SM SCT230 12/05 A3022 RMK CI2 SLP233=

CYVR;2006-05-14 05:00;METAR CYVR 140500Z 27005KT 30SM SCT230 12/06 A3023 RMK CI2 SLP236=

CYVR;2006-05-14 06:00;METAR CYVR 140600Z 00000KT 30SM SCT230 12/07 A3022 RMK CI2 SLP235=

CYVR;2006-05-14 08:00;METAR CYVR 140800Z 02003KT 30SM FEW210 08/01 A3025 RMK CI1 SLP243=

CYVR;2006-05-14 09:00;METAR CYVR 140900Z 36002KT 30SM BKN180 10/01 A3024 RMK AC4 SLP242=

CYVR;2006-05-14 11:00;METAR CYVR 141100Z 11002KT 30SM FEW150 SCT230 08/03 A3026 RMK AC2CC1 SLP246=

CYVR;2006-05-14 12:00;METAR CYVR 141200Z 01002KT 30SM FEW150 FEW230 07/02 A3027 RMK AC1CC2 SLP250=

CYVR;2006-05-14 13:00;METAR CYVR 141300Z 33009KT 30SM FEW150 FEW230 09/04 A3027 RMK AC2CC1 SLP252=

CYVR;2006-05-14 17:00;METAR CYVR 141700Z 31014KT 30SM SCT240 13/08 A3029 RMK CC2 SLP257=

CYVR;2006-05-14 19:00;METAR CYVR 141900Z 31013KT 30SM BKN220 15/08 A3028 RMK CS2 SLP253=

CYVR;2006-05-14 20:00;METAR CYVR 142000Z 30013KT 30SM BKN140 16/09 A3027 RMK AC6 SLP249=

CYVR;2006-05-14 21:00;METAR CYVR 142100Z 30012KT 30SM FEW140 SCT210 SCT240 16/08 A3025 RMK AC2CC1CI0 SLP243=

CYVR;2006-05-14 22:00;METAR CYVR 142200Z 30011KT 30SM FEW160 SCT220 17/07 A3024 RMK AC1CI2 TR AC SLP239=

CYVR;2006-05-14 23:00;METAR CYVR 142300Z 31011KT 30SM FEW220 17/08 A3021 RMK CI1 SLP231=

CYVR;2006-05-15 00:00;METAR CYVR 150000Z 31011KT 30SM FEW220 17/08 A3019 RMK CI1 SLP225=

CYVR;2006-05-15 01:00;METAR CYVR 150100Z 31011KT 30SM FEW220 16/09 A3018 RMK CI1 SLP219=

CYVR;2006-05-15 02:00;METAR CYVR 150200Z 31009KT 30SM FEW220 15/09 A3017 RMK CI1 SLP215=

CYVR;2006-05-15 04:00;METAR CYVR 150400Z 31008KT 30SM FEW220 13/10 A3015 RMK CI1 SLP211=

CYVR;2006-05-15 05:00;METAR CYVR 150500Z 31008KT 30SM FEW220 12/09 A3016 RMK CI1 SLP214=

CYVR;2006-05-15 06:00;METAR CYVR 150600Z 31007KT 30SM FEW220 12/10 A3016 RMK CI1 SLP213=

CYVR;2006-05-15 08:00;METAR CYVR 150800Z 33002KT 30SM FEW220 11/08 A3015 RMK CI1 SLP209=

CYVR;2006-05-15 09:00;METAR CYVR 150900Z 32003KT 20SM SCT220 12/09 A3015 RMK CI2 SLP209=

CYVR;2006-05-15 12:00;METAR CYVR 151200Z 32008KT 30SM SCT160 BKN200 11/08 A3012 RMK AC3CS2 SLP199=

CYVR;2006-05-15 13:00;METAR CYVR 151300Z 30003KT 30SM BKN170 11/07 A3012 RMK AC6 SLP199=

CYVR;2006-05-15 14:00;METAR CYVR 151400Z 00000KT 30SM BKN170 BKN220 12/07 A3011 RMK AC5CI1 SLP196=

CYVR;2006-05-15 15:00;METAR CYVR 151500Z 31008KT 30SM BKN170 BKN230 14/09 A3010 RMK AC5CC1 SLP192=

CYVR;2006-05-15 16:00;METAR CYVR 151600Z 31011KT 30SM FEW160 15/09 A3009 RMK AC2 SLP191=

CYVR;2006-05-15 17:00;METAR CYVR 151700Z 29014KT 30SM FEW200 15/10 A3008 RMK CI1 SLP187=

CYVR;2006-05-15 18:00;METAR CYVR 151800Z 31013KT 30SM FEW200 16/10 A3006 RMK CI1 SLP181=

CYVR;2006-05-15 19:00;METAR CYVR 151900Z 31014KT 30SM FEW220 17/10 A3004 RMK CI1 SLP172=

CYVR;2006-05-15 20:00;METAR CYVR 152000Z 31014KT 30SM FEW230 19/11 A3002 RMK CI1 SLP165=

CYVR;2006-05-15 21:00;METAR CYVR 152100Z 31011KT 30SM SCT240 19/10 A3000 RMK CI2 SLP160=

CYVR;2006-05-15 22:00;METAR CYVR 152200Z 31012KT 30SM BKN240 19/10 A2997 RMK CI3 SLP149=

CYVR;2006-05-15 23:00;METAR CYVR 152300Z 31013KT 30SM BKN240 21/09 A2994 RMK CI4 SLP138=

CYVR;2006-05-16 00:00;METAR CYVR 160000Z 32012KT 30SM BKN240 20/09 A2991 RMK CI5 SLP128=

CYVR;2006-05-16 01:00;METAR CYVR 160100Z 31009KT 30SM BKN240 18/09 A2989 RMK CI5 SLP122=

CYVR;2006-05-16 03:00;METAR CYVR 160300Z 31005KT 30SM FEW160 OVC240 17/10 A2987 RMK AS2CI5 SLP115=

CYVR;2006-05-16 04:00;METAR CYVR 160400Z 32005KT 30SM FEW100 FEW150 OVC230 16/10 A2988 RMK AC1AS2CI3 SLP117=

CYVR;2006-05-16 06:00;METAR CYVR 160600Z 32009KT 30SM BKN240 17/08 A2991 RMK CI4 SLP129=

CYVR;2006-05-16 07:00;METAR CYVR 160700Z 09003KT 30SM BKN240 17/08 A2991 RMK CI5 SLP130=

CYVR;2006-05-16 09:00;METAR CYVR 160900Z 09003KT 30SM BKN240 17/09 A2995 RMK CI2 SLP143=

CYVR;2006-05-16 10:00;METAR CYVR 161000Z 19003KT 30SM BKN240 17/09 A2998 RMK CI3 SLP151=

CYVR;2006-05-16 11:00;METAR CYVR 161100Z 18002KT 30SM FEW180 SCT240 15/09 A2999 RMK AC1CI2 SLP157=

CYVR;2006-05-16 12:00;METAR CYVR 161200Z 00000KT 30SM FEW180 FEW240 14/09 A3001 RMK AC1CI0 SLP164=

CYVR;2006-05-16 13:00;METAR CYVR 161300Z 00000KT 20SM FEW180 14/10 A3004 RMK AC1 TR AC SLP171=

CYVR;2006-05-16 14:00;METAR CYVR 161400Z 12003KT 20SM FEW180 16/10 A3006 RMK AC1 SLP179=

CYVR;2006-05-16 15:00;METAR CYVR 161500Z 09008KT 30SM FEW120 19/11 A3006 RMK AC1 SLP181=

CYVR;2006-05-16 16:00;METAR CYVR 161600Z 11010KT 30SM FEW100 22/11 A3008 RMK AC1 SLP186=

CYVR;2006-05-16 17:00;METAR CYVR 161700Z 14008KT 20SM FEW100 23/10 A3010 RMK AC1 SLP192=

CYVR;2006-05-16 18:00;METAR CYVR 161800Z 13008KT 20SM FEW090 24/11 A3011 RMK AC1 SLP196=

CYVR;2006-05-16 19:00;METAR CYVR 161900Z 11009KT 20SM FEW200 25/12 A3011 RMK CI1 SLP196=

CYVR;2006-05-16 21:00;METAR CYVR 162100Z 13006KT 20SM SKC 26/11 A3009 RMK SLP191=

CYVR;2006-05-16 22:00;METAR CYVR 162200Z 14005KT 20SM SKC 27/11 A3009 RMK SLP189=

CYVR;2006-05-16 23:00;METAR CYVR 162300Z 22008KT 20SM FEW200 28/13 A3007 RMK CI1 SLP183=

CYVR;2006-05-17 00:00;METAR CYVR 170000Z 22009KT 30SM FEW170 28/11 A3005 RMK AC1 SLP177=

CYVR;2006-05-17 01:00;METAR CYVR 170100Z 24006KT 30SM FEW170 27/10 A3005 RMK AC1 SLP176=

CYVR;2006-05-17 05:00;METAR CYVR 170500Z 10010KT 20SM FEW220 17/10 A3006 RMK CI1 SLP179=

CYVR;2006-05-17 08:00;METAR CYVR 170800Z 11005KT 20SM FEW220 15/09 A3009 RMK CI1 SLP191=

CYVR;2006-05-17 09:00;METAR CYVR 170900Z 13003KT 20SM SKC 14/09 A3010 RMK SLP194=

CYVR;2006-05-17 12:00;METAR CYVR 171200Z 09003KT 20SM FEW220 12/09 A3010 RMK CI0 SLP194=

CYVR;2006-05-17 13:00;METAR CYVR 171300Z 09002KT 20SM BKN220 12/09 A3011 RMK CI2 SLP195=

CYVR;2006-05-17 14:00;METAR CYVR 171400Z 00000KT 20SM BKN220 14/09 A3010 RMK CI2 SLP194=

CYVR;2006-05-17 15:00;METAR CYVR 171500Z 00000KT 20SM BKN210 15/10 A3010 RMK CI2 SLP192=

CYVR;2006-05-17 17:00;METAR CYVR 171700Z 31012KT 20SM BKN220 16/11 A3009 RMK CI3 HZ SLP188=

CYVR;2006-05-17 18:00;METAR CYVR 171800Z 31011KT 20SM BKN230 16/12 A3007 RMK CI5 HZ SLP182=

CYVR;2006-05-17 19:00;METAR CYVR 171900Z 29012KT 20SM BKN240 17/12 A3005 RMK CI4 HZ SLP177=

CYVR;2006-05-17 21:00;METAR CYVR 172100Z 30010KT 20SM BKN240 19/13 A3002 RMK CI3 SLP165=

CYVR;2006-05-17 22:00;METAR CYVR 172200Z 28009KT 20SM BKN240 19/13 A3001 RMK CI4 SLP161=

CYVR;2006-05-17 23:00;METAR CYVR 172300Z 29010KT 20SM BKN240 19/13 A2998 RMK CI3 SLP154=

CYVR;2006-05-18 00:00;METAR CYVR 180000Z 30009KT 30SM SCT230 19/12 A2996 RMK CI3 SLP147=

CYVR;2006-05-18 01:00;METAR CYVR 180100Z 28007KT 30SM BKN230 19/13 A2994 RMK CI3 SLP140=

CYVR;2006-05-18 02:00;METAR CYVR 180200Z 28004KT 30SM FEW180 BKN230 18/12 A2992 RMK AC1CI2 SLP131=

CYVR;2006-05-18 03:00;METAR CYVR 180300Z 26002KT 30SM SCT230 18/11 A2991 RMK CI2 SLP130=

CYVR;2006-05-18 04:00;METAR CYVR 180400Z 20005KT 30SM SCT230 17/11 A2992 RMK CI1 SLP133=

CYVR;2006-05-18 05:00;METAR CYVR 180500Z 13002KT 30SM FEW230 17/11 A2994 RMK CI1 SLP138=

CYVR;2006-05-18 06:00;METAR CYVR 180600Z 12003KT 30SM SKC 16/11 A2995 RMK SLP141=

CYVR;2006-05-18 07:00;METAR CYVR 180700Z 09004KT 20SM SKC 14/10 A2996 RMK SLP145=

CYVR;2006-05-18 09:00;METAR CYVR 180900Z 14004KT 20SM SKC 14/10 A2997 RMK SLP149=

CYVR;2006-05-18 10:00;METAR CYVR 181000Z 13014KT 20SM FEW230 13/09 A2997 RMK CI1 SLP150=

CYVR;2006-05-18 11:00;METAR CYVR 181100Z 09007KT 20SM FEW230 11/08 A2998 RMK CI1 SLP151=

CYVR;2006-05-18 12:00;METAR CYVR 181200Z 10006KT 20SM FEW180 11/08 A2998 RMK AC1 SLP152=

CYVR;2006-05-18 13:00;METAR CYVR 181300Z 09004KT 20SM FEW230 12/08 A2998 RMK CI1 SLP152=

CYVR;2006-05-18 14:00;METAR CYVR 181400Z 11004KT 20SM FEW230 14/09 A2997 RMK CI1 SLP150=

CYVR;2006-05-18 15:00;METAR CYVR 181500Z 18002KT 20SM FEW240 15/09 A2998 RMK CI1 SLP152=

CYVR;2006-05-19 19:00;METAR CYVR 191900Z 15004KT 30SM SCT120 BKN140 OVC190 17/10 A2987 RMK AC3AC3AC2 SLP115=

CYVR;2006-05-19 20:00;METAR CYVR 192000Z 17005KT 30SM FEW060 BKN120 OVC160 17/11 A2987 RMK SC2AC3AC2 SLP114=

CYVR;2006-05-19 21:00;METAR CYVR 192100Z 17005KT 30SM FEW060 SCT120 OVC140 18/10 A2987 RMK SC2AC2AC4 SLP114=

CYVR;2006-05-19 22:00;METAR CYVR 192200Z 25005KT 30SM FEW060 BKN140 BKN220 20/10 A2985 RMK SC2AC4CI1 SLP107=

CYVR;2006-05-19 23:00;METAR CYVR 192300Z 24008KT 30SM FEW060 BKN130 OVC220 17/13 A2983 RMK SC2AC3CI1 SLP103=

CYVR;2006-05-20 00:00;METAR CYVR 200000Z 23006KT 30SM FEW060 OVC130 17/13 A2983 RMK SC2AC5 SLP101=

CYVR;2006-05-20 01:00;METAR CYVR 200100Z 24006KT 30SM FEW060 OVC140 18/12 A2983 RMK SC2AC6 SLP102=

CYVR;2006-05-20 02:00;METAR CYVR 200200Z 14009KT 30SM FEW060 BKN130 OVC210 18/10 A2985 RMK SC2AC4CI2 SLP107=

CYVR;2006-05-20 04:00;METAR CYVR 200400Z 10009KT 30SM FEW060 SCT120 BKN150 OVC210 16/10 A2985 RMK SC1AC2AC3CI1 SLP110=

CYVR;2006-05-20 05:00;METAR CYVR 200500Z 11008KT 30SM FEW060 OVC150 15/11 A2986 RMK SC2AC5 SLP112=

CYVR;2006-05-20 07:00;METAR CYVR 200700Z 09004KT 20SM FEW060 BKN100 OVC150 16/11 A2985 RMK SC2AC3AC2 SLP110=

CYVR;2006-05-20 08:00;METAR CYVR 200800Z 12005KT 20SM FEW060 BKN080 OVC120 16/11 A2985 RMK SC2AC4AC2 SLP108=

CYVR;2006-05-20 09:00;METAR CYVR 200900Z 12007KT 20SM SCT080 BKN100 OVC190 16/12 A2984 RMK AC4AC2AC2 SLP104=

CYVR;2006-05-20 10:00;METAR CYVR 201000Z 14005KT 15SM SCT025 BKN039 OVC080 15/12 A2984 RMK SC3SC3AC2 SLP104=

CYVR;2006-05-20 10:05;SPECI CYVR 201005Z 14005KT 15SM -SHRA FEW025 BKN039 OVC100 15/ RMK SC2SC2AC3 PCPN VRY LGT=

CYVR;2006-05-20 10:32;SPECI CYVR 201032Z 13006KT 12SM SCT021 SCT039 BKN100 OVC150 15/ RMK SC3SF1AC2AC2=

CYVR;2006-05-20 11:00;METAR CYVR 201100Z 13008KT 8SM BKN020 BKN040 OVC150 15/12 A2983 RMK SC5SC2AC2 SLP101=

CYVR;2006-05-20 12:00;METAR CYVR 201200Z 14005KT 15SM SCT019 BKN051 OVC160 15/12 A2983 RMK SF3SC3AC2 SLP103=

CYVR;2006-05-20 13:00;METAR CYVR 201300Z 16004KT 6SM -SHRA SCT016 BKN065 OVC100 14/12 A2983 RMK SF3SC3AC2 PCPN VRY LGT SLP103=

CYVR;2006-05-20 13:30;SPECI CYVR 201330Z 15006KT 7SM SCT018 BKN065 OVC100 13/ RMK SF3SC4AC1=

CYVR;2006-05-20 14:00;METAR CYVR 201400Z 15007KT 5SM -DZ FEW012 BKN017 OVC065 13/11 A2985 RMK SF2ST3SC2 PCPN VRY LGT SLP108=

CYVR;2006-05-20 14:15;SPECI CYVR 201415Z 13007KT 7SM FEW012 SCT017 OVC065 13/ RMK SF2SF2SC5=

CYVR;2006-05-20 15:00;METAR CYVR 201500Z 11009KT 15SM FEW020 OVC067 13/10 A2985 RMK SC2AC6 SLP107=

CYVR;2006-05-20 16:00;METAR CYVR 201600Z 13010KT 20SM FEW020 OVC066 13/10 A2986 RMK SC2AC6 SLP112=

CYVR;2006-05-20 17:00;METAR CYVR 201700Z 12010G15KT 20SM FEW020 BKN057 OVC066 14/10 A2987 RMK SC2SC5AC2 SLP116=

CYVR;2006-05-20 18:00;METAR CYVR 201800Z 11010KT 20SM FEW015 OVC057 14/10 A2989 RMK SC2SC6 SLP121=

CYVR;2006-05-20 19:00;METAR CYVR 201900Z 11011KT 20SM FEW015 OVC061 14/10 A2991 RMK SC2SC6 SLP127=

CYVR;2006-05-20 20:00;METAR CYVR 202000Z 12019KT 20SM FEW015 BKN070 15/10 A2991 RMK SC2AC4 SLP127=

CYVR;2006-05-20 21:00;METAR CYVR 202100Z 12014G22KT 20SM FEW015 FEW020 SCT070 17/11 A2991 RMK CF1SC1AC2 TR CF SLP128=

CYVR;2006-05-20 22:00;METAR CYVR 202200Z 12016G21KT 20SM FEW023 FEW035 SCT080 17/10 A2992 RMK CF1SC1AC1 SLP132=

CYVR;2006-05-20 23:00;METAR CYVR 202300Z 13013G18KT 20SM FEW025 FEW035 FEW080 17/10 A2992 RMK CF1SC1AC1 SLP132=

CYVR;2006-05-21 00:00;METAR CYVR 210000Z 14017KT 20SM FEW025 FEW035 FEW080 18/10 A2992 RMK CF1SC1AC1 SLP131=

CYVR;2006-05-21 02:00;METAR CYVR 210200Z 12015G24KT 30SM FEW035 FEW150 17/09 A2990 RMK SC1AC1 SLP126=

CYVR;2006-05-21 03:00;METAR CYVR 210300Z 12012KT 30SM SCT060 SCT140 15/09 A2990 RMK SC3AC1 SLP126=

CYVR;2006-05-21 04:00;METAR CYVR 210400Z 10013KT 30SM SCT055 14/09 A2990 RMK SC3 SLP124=

CYVR;2006-05-21 05:00;METAR CYVR 210500Z 11011KT 30SM FEW055 FEW080 14/08 A2989 RMK SC2AC1 SLP123=

CYVR;2006-05-21 06:00;METAR CYVR 210600Z 11008KT 30SM FEW055 FEW080 SCT220 13/09 A2988 RMK SC1AC1CI1 SLP119=

CYVR;2006-05-21 07:00;METAR CYVR 210700Z 10009KT 30SM FEW079 SCT220 12/09 A2987 RMK AC2CI1 SLP114=

CYVR;2006-05-21 08:00;METAR CYVR 210800Z 12010KT 20SM BKN077 12/09 A2986 RMK AC6 SLP112=

CYVR;2006-05-21 09:00;METAR CYVR 210900Z 14009KT 20SM BKN071 12/09 A2984 RMK AC6 SLP106=

CYVR;2006-05-21 10:00;METAR CYVR 211000Z 12005KT 20SM FEW050 BKN065 BKN120 12/08 A2983 RMK SC2SC3AC2 SLP101=

CYVR;2006-05-21 11:00;METAR CYVR 211100Z 11007KT 20SM FEW020 BKN042 OVC056 12/09 A2981 RMK SF2SC3SC2 SLP095=

CYVR;2006-05-21 12:00;METAR CYVR 211200Z 12006KT 20SM FEW029 BKN045 OVC120 12/09 A2979 RMK SF2SC5AC1 SLP089=

CYVR;2006-05-21 13:00;METAR CYVR 211300Z 12005KT 20SM FEW028 BKN043 OVC120 12/09 A2977 RMK SF2SC5AC0 SLP082=

CYVR;2006-05-21 14:00;METAR CYVR 211400Z 15005KT 20SM SCT020 OVC040 12/09 A2976 RMK SF3SC4 SLP079=

CYVR;2006-05-21 15:00;METAR CYVR 211500Z 11005KT 20SM SCT015 OVC045 13/09 A2975 RMK SC3SC4 SLP075=

CYVR;2006-05-21 16:00;METAR CYVR 211600Z 12007KT 20SM FEW015 OVC046 14/11 A2974 RMK SC1SC6 SLP071=

CYVR;2006-05-21 18:00;METAR CYVR 211800Z 07002KT 30SM FEW040 SCT085 17/10 A2970 RMK SC1AC1 SLP057=

CYVR;2006-05-21 19:00;METAR CYVR 211900Z 23009KT 30SM FEW040 SCT160 BKN220 16/10 A2967 RMK SC1AC1CI1 SLP049=

CYVR;2006-05-21 20:00;METAR CYVR 212000Z 27006KT 30SM FEW040 SCT160 BKN220 16/11 A2964 RMK SC1AC2CI1 SLP038=

CYVR;2006-05-21 21:00;METAR CYVR 212100Z 27006KT 30SM FEW045 SCT160 BKN190 15/10 A2963 RMK SC1AC2AC3 SLP033=

CYVR;2006-05-21 22:00;METAR CYVR 212200Z 28005KT 30SM FEW045 SCT110 OVC210 16/11 A2962 RMK SC2AC2CS4 SLP029=

CYVR;2006-05-21 23:00;METAR CYVR 212300Z 30004KT 30SM FEW045 BKN092 OVC190 16/10 A2959 RMK CF1AC6AC2 SLP020=

CYVR;2006-05-21 23:53;SPECI CYVR 212353Z 21004KT 20SM -SHRA BKN090 OVC190 16/ RMK AC6AC2 PCPN VRY LGT=

CYVR;2006-05-22 01:00;METAR CYVR 220100Z 15003KT 20SM -SHRA BKN051 BKN072 OVC090 17/10 A2960 RMK SC6AC2AC1 SLP022=

CYVR;2006-05-22 02:00;METAR CYVR 220200Z 19005KT 8SM -RA BKN051 OVC069 14/12 A2963 RMK SC6AC2 SLP034=

CYVR;2006-05-22 03:00;METAR CYVR 220300Z 00000KT 7SM -RA SCT051 OVC070 13/11 A2964 RMK SC4AC4 SLP037=

CYVR;2006-05-22 04:00;METAR CYVR 220400Z 03006KT 20SM FEW051 BKN065 OVC090 13/12 A2964 RMK SF2SC3AC2 SLP036=

CYVR;2006-05-22 05:00;METAR CYVR 220500Z 09010KT 20SM FEW050 BKN080 BKN140 OVC160 13/12 A2963 RMK SF2AC3AC2AC2 SLP035=

CYVR;2006-05-22 06:00;METAR CYVR 220600Z 10010KT 15SM FEW055 SCT080 OVC120 13/12 A2963 RMK SC2AC2AC3 SLP035=

CYVR;2006-05-22 10:00;METAR CYVR 221000Z 08006KT 12SM FEW040 OVC100 14/12 A2958 RMK SC2AC6 SLP018=

CYVR;2006-05-22 11:21;SPECI CYVR 221121Z 22002KT 10SM -SHRA FEW045 BKN090 OVC110 13/ RMK SF2AC3AC3=

CYVR;2006-05-22 12:00;METAR CYVR 221200Z 26003KT 20SM -SHRA FEW045 BKN072 BKN100 13/12 A2959 RMK SF2AS3AS2 SLP019=

CYVR;2006-05-22 13:00;METAR CYVR 221300Z 27004KT 4SM -RA BR SCT045 OVC075 13/12 A2960 RMK SF3AS5 SLP023=

CYVR;2006-05-22 15:00;METAR CYVR 221500Z 32005KT 15SM -RA FEW015 SCT055 OVC084 14/13 A2957 RMK SF1SC2AC4 SLP012=

CYVR;2006-05-22 15:24;SPECI CYVR 221524Z 33004KT 20SM FEW020 BKN045 OVC085 14/ RMK SF1SC4AC2=

CYVR;2006-05-22 15:49;SPECI CYVR 221549Z 00000KT 20SM -SHRA FEW020 BKN045 OVC085 14/ RMK SF1SC4AC2=

CYVR;2006-05-22 16:00;METAR CYVR 221600Z 01002KT 20SM -SHRA FEW020 BKN044 OVC065 14/13 A2957 RMK SF1SC4SC2 SLP013=

CYVR;2006-05-22 17:00;METAR CYVR 221700Z 29004KT 20SM -SHRA FEW020 BKN050 OVC065 14/13 A2957 RMK SF1SC5SC2 SLP012=

CYVR;2006-05-22 17:50;SPECI CYVR 221750Z 28009KT 20SM FEW020 BKN045 OVC065 14/ RMK SF2SC4SC2=

CYVR;2006-05-22 18:00;METAR CYVR 221800Z 29007KT 20SM -SHRA FEW020 BKN045 OVC065 14/12 A2958 RMK SF2SC5SC2 SLP016=

CYVR;2006-05-22 18:29;SPECI CYVR 221829Z 25009KT 15SM -SHRA SCT004 BKN007 OVC013 14/ RMK SF3SC2SC3=

CYVR;2006-05-22 19:00;METAR CYVR 221900Z 25011KT 15SM -RA SCT007 OVC036 13/13 A2959 RMK SF3SC5 VIS N QUAD LWR 6 SM SLP020=

CYVR;2006-05-22 19:23;SPECI CYVR 221923Z 26008G15KT 6SM -RA BR SCT010 OVC037 13/ RMK SC3SC5=

CYVR;2006-05-22 19:30;SPECI CYVR 221930Z 27008KT 8SM -RA SCT010 OVC037 13/ RMK SC3SC5=

CYVR;2006-05-22 20:00;METAR CYVR 222000Z 28006KT 15SM -RA FEW010 OVC044 13/12 A2960 RMK SC2SC6 VIS N QUAD 8 SM SLP024=

CYVR;2006-05-22 20:43;SPECI CYVR 222043Z 25004KT 6SM -RA BR FEW010 SCT031 OVC046 13/ RMK SC2SC2SC5=

CYVR;2006-05-22 21:00;METAR CYVR 222100Z 25003KT 7SM -RA FEW015 BKN052 OVC065 13/12 A2964 RMK SC2SC4SC2 SLP037=

CYVR;2006-05-22 22:00;METAR CYVR 222200Z 36004KT 15SM -RA FEW015 BKN054 OVC072 13/13 A2965 RMK SC2SC3AC3 SLP041=

CYVR;2006-05-22 23:00;METAR CYVR 222300Z 05003KT 15SM -RA SCT010 OVC072 14/12 A2968 RMK SC3AC5 SLP050=

CYVR;2006-05-23 00:00;METAR CYVR 230000Z 13005KT 15SM -SHRA FEW010 BKN055 OVC070 14/12 A2970 RMK SC2SC4AC2 SLP058=

CYVR;2006-05-23 01:00;METAR CYVR 230100Z 14007KT 15SM -SHRA FEW010 BKN051 OVC070 13/12 A2972 RMK SF2SC5AC2 PCPN VRY LGT SLP066=

CYVR;2006-05-23 02:00;METAR CYVR 230200Z 17005KT 15SM -SHRA BKN010 BKN044 OVC070 13/12 A2973 RMK SC5SC2AC1 SLP069=

CYVR;2006-05-23 02:11;SPECI CYVR 230211Z 16004KT 15SM -SHRA SCT010 BKN045 OVC070 13/ RMK SC3SC3AC1=

CYVR;2006-05-23 04:00;METAR CYVR 230400Z 22004KT 10SM FEW010 SCT025 OVC050 12/11 A2977 RMK SF2SC2SC4 SLP082=

CYVR;2006-05-23 04:05;SPECI CYVR 230405Z 21005KT 10SM -SHRA FEW010 SCT025 OVC040 12/ RMK SF2SC2SC4=

CYVR;2006-05-23 05:00;METAR CYVR 230500Z 09006KT 10SM -SHRA FEW010 SCT035 OVC050 12/11 A2978 RMK SF1SC3SC4 SLP085=

CYVR;2006-05-23 05:29;SPECI CYVR 230529Z 08003KT 15SM FEW010 OVC055 12/ RMK SF2SC6=

CYVR;2006-05-23 07:00;METAR CYVR 230700Z 08008KT 15SM FEW050 OVC110 12/11 A2981 RMK SC2AC6 SLP096=

CYVR;2006-05-23 08:00;METAR CYVR 230800Z 09007KT 15SM FEW060 BKN090 BKN140 11/10 A2983 RMK SC2AC2AC1 SLP100=

CYVR;2006-05-23 09:00;METAR CYVR 230900Z 09007KT 15SM FEW060 BKN090 BKN140 11/10 A2983 RMK SC2AC4AC1 SLP103=

CYVR;2006-05-23 09:54;SPECI CYVR 230954Z 09005KT 10SM -SHRA FEW060 BKN080 BKN120 11/ RMK SC2AC4AC2 PCPN VRY LGT=

CYVR;2006-05-23 10:00;METAR CYVR 231000Z 06006KT 10SM -SHRA FEW060 BKN080 BKN120 11/10 A2984 RMK SC2AC4AC2 PCPN VRY LGT SLP104=

CYVR;2006-05-23 10:18;SPECI CYVR 231018Z 07008KT 10SM FEW060 BKN080 BKN120 11/ RMK SC2AC3AC2=

CYVR;2006-05-23 10:55;SPECI CYVR 231055Z 08007KT 15SM -SHRA FEW060 BKN095 BKN120 11/ RMK SC2AC2AC2 PCPN VRY LGT=

CYVR;2006-05-23 11:00;METAR CYVR 231100Z 08007KT 15SM -SHRA FEW060 BKN095 BKN120 11/10 A2984 RMK SC2AC2AC2 PCPN VRY LGT SLP106=

CYVR;2006-05-23 11:37;SPECI CYVR 231137Z 11006KT 15SM FEW080 BKN090 BKN140 11/ RMK AC2AC2AC2=

CYVR;2006-05-23 12:00;METAR CYVR 231200Z 12005KT 15SM SCT100 BKN150 11/10 A2985 RMK AC4AC3 SLP109=

CYVR;2006-05-23 13:00;METAR CYVR 231300Z 12005KT 20SM BKN085 BKN120 11/10 A2987 RMK AC5AC2 SLP116=

CYVR;2006-05-23 14:00;METAR CYVR 231400Z 14003KT 15SM OVC076 13/10 A2989 RMK AC8 SLP123=

CYVR;2006-05-23 15:00;METAR CYVR 231500Z 10009KT 15SM FEW080 SCT140 BKN240 14/11 A2989 RMK AC2AC2CI2 SLP121=

CYVR;2006-05-23 16:00;METAR CYVR 231600Z 09010KT 15SM FEW070 FEW110 OVC230 15/10 A2991 RMK AC2AC1CI4 SLP127=

CYVR;2006-05-23 17:00;METAR CYVR 231700Z 12010KT 15SM FEW067 BKN130 OVC230 15/11 A2993 RMK AC2AS3CI2 SLP134=

CYVR;2006-05-23 18:00;METAR CYVR 231800Z 12011G18KT 8SM -SHRA SCT039 BKN062 OVC120 15/11 A2995 RMK SC3SC3AS2 SLP141=

CYVR;2006-05-23 19:00;METAR CYVR 231900Z 11014KT 10SM -SHRA FEW035 BKN059 OVC120 15/11 A2997 RMK SC2SC4AS2 SLP150=

CYVR;2006-05-23 20:00;METAR CYVR 232000Z 11014G20KT 15SM -SHRA FEW031 SCT060 OVC078 15/11 A3000 RMK SC2SC1AC5 SLP159=

CYVR;2006-05-23 21:00;METAR CYVR 232100Z 13015KT 15SM -SHRA FEW036 SCT060 BKN086 16/13 A3001 RMK SC2SC2AC2 SLP162=

CYVR;2006-05-23 21:18;SPECI CYVR 232118Z 11011G17KT 15SM FEW031 SCT060 BKN087 17/ RMK SC2SC2AC2=

CYVR;2006-05-23 22:00;METAR CYVR 232200Z 11012G18KT 15SM BKN028 BKN057 BKN088 17/12 A3001 RMK SC6SC1AC1 SLP161=

CYVR;2006-05-23 23:00;METAR CYVR 232300Z 13014G20KT 15SM FEW030 SCT064 BKN100 18/11 A3001 RMK SC2SC2AC3 SLP163=

CYVR;2006-05-24 01:00;METAR CYVR 240100Z 16007KT 20SM SCT034 BKN074 OVC220 17/10 A3002 RMK SC3AC2CI0 TCU EMBD SLP165=

CYVR;2006-05-24 02:00;METAR CYVR 240200Z 16007KT 15SM SCT035 BKN080 BKN110 OVC220 17/10 A3002 RMK SC3AC2AC2CI1 TCU EMBD SLP165=

CYVR;2006-05-24 04:00;METAR CYVR 240400Z 11007KT 15SM SCT025 BKN038 BKN070 OVC200 15/11 A3001 RMK SC3SC2AC1CI1 SLP163=

CYVR;2006-05-24 05:00;METAR CYVR 240500Z 11008KT 15SM SCT030 BKN058 BKN080 OVC110 15/11 A3002 RMK SC3SC2AC2AC1 SLP167=

CYVR;2006-05-24 05:20;SPECI CYVR 240520Z 12010KT 15SM BKN032 BKN045 OVC080 15/ RMK SC5SC2AC2=

CYVR;2006-05-24 06:00;METAR CYVR 240600Z 14008KT 15SM BKN018 BKN035 OVC080 14/12 A3003 RMK SC5SC2AC1 SLP169=

CYVR;2006-05-24 07:00;METAR CYVR 240700Z 15006KT 15SM FEW040 BKN060 BKN220 14/12 A3003 RMK SC2SC2CI1 SLP170=

CYVR;2006-05-24 08:00;METAR CYVR 240800Z 13008KT 15SM FEW040 BKN058 BKN200 13/11 A3004 RMK SC2SC2CI2 SLP173=

CYVR;2006-05-24 09:00;METAR CYVR 240900Z 11009KT 15SM BKN041 BKN070 BKN110 12/11 A3005 RMK SC5AC2AC1 SLP176=

CYVR;2006-05-24 10:00;METAR CYVR 241000Z 11007KT 15SM BKN042 BKN070 BKN120 13/11 A3006 RMK SC5AC2AC1 SLP179=

CYVR;2006-05-24 11:00;METAR CYVR 241100Z 11009KT 15SM BKN041 BKN065 BKN110 12/11 A3005 RMK SC5SC2AC1 SLP176=

CYVR;2006-05-24 12:00;METAR CYVR 241200Z 10008KT 15SM SCT040 BKN058 OVC100 12/11 A3004 RMK SC3SC3AC2 SLP173=

CYVR;2006-05-24 12:20;SPECI CYVR 241220Z 11008KT 12SM -SHRA BKN035 BKN055 OVC100 12/ RMK SC6SC2AC1=

CYVR;2006-05-24 13:00;METAR CYVR 241300Z 10008KT 12SM -SHRA BKN035 BKN060 OVC110 12/11 A3004 RMK SC5SC2AC1 SLP172=

CYVR;2006-05-24 13:19;SPECI CYVR 241319Z 09008KT 12SM BKN036 BKN055 OVC100 12/ RMK SC5SC2AC1=

CYVR;2006-05-24 14:00;METAR CYVR 241400Z 11009KT 12SM FEW022 BKN034 BKN046 OVC100 13/11 A3005 RMK SC2SC3SC2AC1 SLP176=

CYVR;2006-05-24 16:00;METAR CYVR 241600Z 12009KT 12SM SCT011 BKN018 BKN029 OVC050 14/12 A3006 RMK SC3SC3SC1SC1 SLP179=

CYVR;2006-05-24 17:00;METAR CYVR 241700Z 13011KT 12SM FEW012 BKN019 BKN050 OVC100 15/11 A3006 RMK SC2SC3SC2AC1 SLP181=

CYVR;2006-05-24 18:00;METAR CYVR 241800Z 14011KT 12SM BKN019 BKN042 BKN100 OVC210 15/11 A3006 RMK SC5SC2AC1CI0 SLP179=

CYVR;2006-05-24 21:00;METAR CYVR 242100Z 17009KT 15SM FEW027 BKN059 BKN100 OVC210 17/10 A3005 RMK SC2SC3AC2CI0 SLP177=

CYVR;2006-05-24 22:00;METAR CYVR 242200Z 18009KT 15SM SCT034 BKN057 OVC100 17/09 A3005 RMK SC3SC3AC2 SLP177=

CYVR;2006-05-24 22:33;SPECI CYVR 242233Z 18006KT 12SM -SHRA BKN033 OVC057 16/ RMK SC6SC2 VIS N 8=

CYVR;2006-05-24 23:00;METAR CYVR 242300Z 25009G20KT 12SM -SHRA FEW011 BKN031 OVC046 15/11 A3006 RMK SC2SC3SC2 VIS N 8 PCPN VRY LGT SLP181=

CYVR;2006-05-25 00:00;METAR CYVR 250000Z 28010KT 12SM FEW014 BKN036 OVC045 14/11 A3009 RMK SC2SC4SC1 SLP188=

CYVR;2006-05-25 00:14;SPECI CYVR 250014Z 29005KT 12SM SHRA FEW007 SCT014 BKN031 OVC050 14/ RMK SC2SC2SC2SC1 VIS NE LWR=

CYVR;2006-05-25 00:37;SPECI CYVR 250037Z 30004KT 12SM FEW009 BKN034 BKN053 OVC098 15/ RERA RMK SC1SC5SC1AC1=

CYVR;2006-05-25 01:00;METAR CYVR 250100Z 00000KT 15SM FEW035 BKN056 BKN110 15/10 A3009 RMK SC2SC3AC2 SLP189=

CYVR;2006-05-25 04:27;SPECI CYVR 250427Z 15005KT 15SM -SHRA FEW040 FEW060 BKN085 BKN150 14/ RMK SC2SC1AC2AC2 TCU EMBD=

CYVR;2006-05-25 05:00;METAR CYVR 250500Z 15005KT 15SM -SHRA FEW040 BKN072 BKN090 14/10 A3012 RMK SC2AC2AC2 SLP201=

CYVR;2006-05-25 06:25;SPECI CYVR 250625Z 14003KT 15SM -SHRA FEW040 BKN071 BKN100 14/ RMK SC2AC3AC2=

CYVR;2006-05-25 07:00;METAR CYVR 250700Z 11006KT 15SM FEW040 BKN080 BKN220 12/10 A3011 RMK SC2AC2CI1 SLP198=

CYVR;2006-05-25 08:05;SPECI CYVR 250805Z 10007KT 10SM -SHRA SCT040 BKN060 BKN090 12/ RMK SC3SC2AC2=

CYVR;2006-05-25 09:00;METAR CYVR 250900Z 14007KT 8SM -SHRA SCT040 BKN070 OVC090 12/10 A3012 RMK SC3AC3AC2 SLP200=

CYVR;2006-05-25 10:00;METAR CYVR 251000Z 11004KT 10SM -SHRA FEW015 SCT030 BKN050 BKN090 12/10 A3012 RMK SF1SC2SC2AC2 SLP199=

CYVR;2006-05-25 11:29;SPECI CYVR 251129Z 09007KT 12SM FEW015 FEW030 SCT055 BKN220 11/ RMK SF1SC2SC2CI1=

CYVR;2006-05-25 12:00;METAR CYVR 251200Z 09005KT 12SM FEW011 FEW030 BKN068 BKN100 11/10 A3010 RMK SF1SC2AC2AC1 SLP193=

CYVR;2006-05-25 13:00;METAR CYVR 251300Z 09012KT 15SM FEW011 FEW040 SCT065 BKN130 10/09 A3010 RMK SF1SC2SC2AC2 SLP194=

CYVR;2006-05-25 14:00;METAR CYVR 251400Z 09013KT 15SM SCT035 BKN061 OVC240 11/09 A3010 RMK SC3SC4CI0 SLP194=

CYVR;2006-05-25 16:00;METAR CYVR 251600Z 10016KT 15SM FEW035 FEW060 SCT150 OVC230 12/08 A3009 RMK SC1SC1AC2CS2 SLP191=

CYVR;2006-05-25 18:00;METAR CYVR 251800Z 11010KT 15SM FEW020 FEW037 OVC062 14/10 A3006 RMK CU1SC2SC5 SLP181=

CYVR;2006-05-25 19:00;METAR CYVR 251900Z 13007KT 15SM SCT024 BKN037 OVC220 15/10 A3004 RMK CU4SC1CS1 SLP172=

CYVR;2006-05-25 20:00;METAR CYVR 252000Z 17006KT 15SM BKN038 BKN140 OVC220 16/09 A3001 RMK SC6AC1CS0 SLP164=

CYVR;2006-05-25 22:00;METAR CYVR 252200Z 24013KT 15SM BKN036 OVC220 17/08 A2997 RMK SC6CS0 SLP148=

CYVR;2006-05-25 23:00;METAR CYVR 252300Z 25011KT 15SM BKN035 BKN053TCU OVC220 16/10 A2995 RMK SC5TCU2CS0 SLP142=

CYVR;2006-05-26 00:00;METAR CYVR 260000Z 27007KT 15SM FEW035TCU FEW044 SCT120 OVC220 15/09 A2993 RMK TCU1SC2AC2CS1 SLP137=

CYVR;2006-05-26 04:00;METAR CYVR 260400Z 27003KT 20SM FEW040 SCT150 BKN220 13/09 A2989 RMK SC2AC2CI2 SLP121=

CYVR;2006-05-26 06:00;METAR CYVR 260600Z 18003KT 20SM FEW040 SCT080 BKN150 13/09 A2988 RMK SC1AC3AC2 SLP119=

CYVR;2006-05-26 07:00;METAR CYVR 260700Z 14007KT 20SM FEW030 SCT085 BKN220 12/09 A2988 RMK SF2AC2CI1 SLP117=

CYVR;2006-05-26 09:00;METAR CYVR 260900Z 09006KT 12SM -SHRA SCT025 OVC074 11/10 A2986 RMK SC3AC5 SLP111=

CYVR;2006-05-26 10:00;METAR CYVR 261000Z 10007KT 10SM -SHRA SCT011 SCT030 OVC071 11/10 A2985 RMK SF3SC1AC4 SLP108=

CYVR;2006-05-26 11:00;METAR CYVR 261100Z 11005KT 10SM -SHRA SCT010 OVC064 11/10 A2983 RMK SF3SC5 SLP103=

CYVR;2006-05-26 12:00;METAR CYVR 261200Z 13005KT 10SM -SHRA SCT009 BKN021 OVC055 11/10 A2982 RMK SF3SC2SC3 SLP099=

CYVR;2006-05-26 12:21;SPECI CYVR 261221Z 14007KT 12SM SCT007 BKN029 OVC055 11/ RMK SF3SC3SC2=

CYVR;2006-05-26 13:00;METAR CYVR 261300Z 14005KT 12SM FEW007 SCT030 OVC060 11/09 A2981 RMK SC2SC2SC4 SLP096=

CYVR;2006-05-26 14:00;METAR CYVR 261400Z 13004KT 12SM SCT007 BKN023 OVC060 11/09 A2981 RMK SC3SC4SC1 SLP095=

CYVR;2006-05-26 16:00;METAR CYVR 261600Z 14003KT 12SM FEW009 BKN029 OVC070 12/10 A2980 RMK SC2SC5AC1 SLP092=

CYVR;2006-05-26 17:00;METAR CYVR 261700Z 19003KT 12SM FEW010 BKN020 BKN077 13/09 A2980 RMK SC2SC5AC1 SLP090=

CYVR;2006-05-26 18:00;METAR CYVR 261800Z 23005KT 12SM BKN018 BKN034 BKN100 OVC220 13/10 A2979 RMK SC6SC1AC1CI1 SLP089=

CYVR;2006-05-26 20:00;METAR CYVR 262000Z 28006KT 12SM FEW020 SCT039 BKN070 OVC220 14/10 A2977 RMK SC2SC2AC1CI1 SLP082=

CYVR;2006-05-26 21:00;METAR CYVR 262100Z 27006KT 15SM FEW020 SCT040 BKN080 OVC220 14/11 A2977 RMK SC1SC2AC2CI1 SLP080=

CYVR;2006-05-26 22:00;METAR CYVR 262200Z 24007KT 15SM FEW035 BKN077 OVC220 15/11 A2975 RMK SC1AC4CS2 SLP076=

CYVR;2006-05-26 23:00;METAR CYVR 262300Z 23008KT 15SM FEW035 BKN077 OVC220 15/09 A2975 RMK SC1AC4CS2 SLP074=

CYVR;2006-05-27 00:00;METAR CYVR 270000Z 21007G17KT 15SM FEW035 SCT080 BKN140 OVC220 14/09 A2974 RMK SC1AC2AS4CI1 TCU TOPS W SLP072=

CYVR;2006-05-27 01:00;METAR CYVR 270100Z 18008KT 15SM FEW030 BKN076 OVC120 15/08 A2974 RMK SC1AC5AS2 SLP071=

CYVR;2006-05-27 01:33;SPECI CYVR 270133Z 19006KT 20SM -SHRA FEW020 SCT040 BKN062 OVC120 14/ RMK SC1SC2SC3AS2=

CYVR;2006-05-27 03:00;METAR CYVR 270300Z 17009KT 20SM FEW020 FEW040 BKN058 BKN080 14/09 A2975 RMK SC1SC2SC2AC2 SLP073=

CYVR;2006-05-27 04:00;METAR CYVR 270400Z 14007KT 20SM FEW020 SCT040 BKN060 BKN090 13/09 A2974 RMK SC1SC3SC2AC1 SLP072=

CYVR;2006-05-27 05:00;METAR CYVR 270500Z 10011KT 20SM FEW020 BKN041 BKN060 OVC090 12/09 A2976 RMK SC1SC4SC2AC1 SLP077=

CYVR;2006-05-27 05:41;SPECI CYVR 270541Z 09012KT 15SM -SHRA FEW020 BKN043 OVC060 12/ RMK SC1SC5SC2=

CYVR;2006-05-27 06:30;SPECI CYVR 270630Z 09010KT 15SM FEW020 BKN045 OVC070 11/ RMK SC1SC5AC2=

CYVR;2006-05-27 07:00;METAR CYVR 270700Z 10011KT 15SM FEW018 BKN044 OVC070 12/10 A2976 RMK SC1SC5AC2 SLP079=

CYVR;2006-05-27 08:00;METAR CYVR 270800Z 09011KT 15SM FEW011 SCT020 OVC041 11/09 A2977 RMK SF2SC2SC4 SLP080=

CYVR;2006-05-27 08:47;SPECI CYVR 270847Z 09010KT 12SM -SHRA BKN014 BKN025 OVC040 11/ RMK SC5SC2SC2=

CYVR;2006-05-27 09:00;METAR CYVR 270900Z 09009G15KT 12SM -SHRA BKN014 BKN025 BKN040 OVC070 11/10 A2977 RMK SC5SC1SC2AC1 SLP080=

CYVR;2006-05-27 10:00;METAR CYVR 271000Z 09010KT 12SM -SHRA BKN010 BKN025 OVC050 11/10 A2977 RMK SC6SC2SC1 SLP080=

CYVR;2006-05-27 10:34;SPECI CYVR 271034Z 09012KT 12SM BKN011 BKN025 OVC050 11/ RMK SC6SC2SC1=

CYVR;2006-05-27 11:00;METAR CYVR 271100Z 09009KT 12SM BKN013 BKN025 OVC040 11/10 A2977 RMK SC6SC2SC1 SLP080=

CYVR;2006-05-27 12:00;METAR CYVR 271200Z 09010KT 12SM BKN014 BKN030 OVC050 11/10 A2977 RMK SC6SC2SC1 SLP080=

CYVR;2006-05-27 12:54;SPECI CYVR 271254Z 09009KT 10SM -SHRA BKN012 BKN018 OVC035 11/ RMK SC6SC2SC1=

CYVR;2006-05-27 15:00;METAR CYVR 271500Z 10009KT 10SM BKN014 OVC020 12/10 A2978 RMK SC6SC2 SLP085=

CYVR;2006-05-27 15:38;SPECI CYVR 271538Z 09009KT 12SM -SHRA BKN015 OVC020 12/ RMK SC6SC2 PCPN VRY LGT=

CYVR;2006-05-27 16:00;METAR CYVR 271600Z 10010KT 10SM -SHRA BKN015 OVC023 12/10 A2979 RMK SC6SC2 PCPN VRY LGT SLP088=

CYVR;2006-05-27 16:54;SPECI CYVR 271654Z 09010KT 10SM SCT013 OVC018 12/ RMK SC4SC4=

CYVR;2006-05-27 17:19;SPECI CYVR 271719Z 09010KT 10SM -SHRA FEW013 BKN016 OVC025 13/ RMK SF2SC4SC2 PCPN VRY LGT=

CYVR;2006-05-27 17:39;SPECI CYVR 271739Z 09008KT 10SM FEW013 BKN017 OVC028 13/ RMK SF2SC4SC2=

CYVR;2006-05-27 18:00;METAR CYVR 271800Z 12007KT 10SM FEW013 BKN016 OVC026 12/10 A2980 RMK SF2SC4SC2 SLP090=

CYVR;2006-05-27 19:00;METAR CYVR 271900Z 09007KT 10SM FEW013 BKN018 OVC025 13/10 A2980 RMK SF2SC5SC2 SLP091=

CYVR;2006-05-27 20:00;METAR CYVR 272000Z 14007KT 10SM FEW013 BKN019 OVC027 13/10 A2980 RMK SF2SC5SC2 SLP090=

CYVR;2006-05-27 21:00;METAR CYVR 272100Z 22002KT 10SM FEW012 BKN018 OVC029 14/10 A2980 RMK SF1SC5SC2 SLP090=

CYVR;2006-05-27 23:00;METAR CYVR 272300Z 19007KT 20SM FEW013 BKN019 BKN036 15/10 A2979 RMK SF1SC4SC2 SLP089=

CYVR;2006-05-28 00:00;METAR CYVR 280000Z 15006KT 20SM SCT021 BKN060 15/11 A2979 RMK SC3SC2=

CYVR;2006-05-28 01:00;METAR CYVR 280100Z 15006KT 20SM SCT036 BKN078 15/10 A2980 RMK SC3AC3 SLP090=

CYVR;2006-05-28 02:00;METAR CYVR 280200Z 14006KT 20SM SCT035 BKN077 15/10 A2980 RMK SC3AC3 SLP093=

CYVR;2006-05-28 05:00;METAR CYVR 280500Z 10009KT 15SM FEW012 BKN019 OVC055 13/11 A2985 RMK SC2SC2SC2 SLP108=

CYVR;2006-05-28 06:00;METAR CYVR 280600Z 09011KT 15SM FEW017 OVC063 12/11 A2985 RMK SC2SC6 SLP110=

CYVR;2006-05-28 08:00;METAR CYVR 280800Z 08009KT 15SM -SHRA BKN016 BKN026 OVC045 12/11 A2986 RMK SC5SC2SC2 SLP112=

CYVR;2006-05-28 08:20;SPECI CYVR 280820Z 09008KT 15SM -RA BKN014 OVC025 12/ RMK SC6SC2=

CYVR;2006-05-28 09:00;METAR CYVR 280900Z 09010KT 12SM -RA OVC012 12/11 A2987 RMK SC8 SLP114=

CYVR;2006-05-28 11:44;SPECI CYVR 281144Z 10008KT 12SM -SHRA FEW007 BKN011 OVC018 12/ RMK SC2SC5SC2=

CYVR;2006-05-28 12:00;METAR CYVR 281200Z 11008KT 8SM -SHRA FEW005 BKN010 OVC017 12/11 A2988 RMK SC2SC4SC2 SLP119=

CYVR;2006-05-28 12:11;SPECI CYVR 281211Z 10007KT 8SM -RA FEW005 BKN008 OVC012 12/ RMK SF2SC5SC2=

CYVR;2006-05-28 13:00;METAR CYVR 281300Z 12007KT 12SM -SHRA SCT007 OVC010 11/10 A2989 RMK SC3SC5 SLP121=

CYVR;2006-05-28 14:21;SPECI CYVR 281421Z 12008KT 20SM SCT014 BKN030 OVC060 11/ RMK SC4SC2SC2=

CYVR;2006-05-28 15:00;METAR CYVR 281500Z 13007KT 20SM FEW010 BKN015 OVC030 12/10 A2991 RMK SF2SC5SC2 SLP128=

CYVR;2006-05-28 16:00;METAR CYVR 281600Z 12010KT 20SM FEW010 SCT015 OVC030 12/10 A2993 RMK SF1SC3SC4 SLP134=

CYVR;2006-05-28 17:00;METAR CYVR 281700Z 12011KT 20SM SCT013 OVC035 13/10 A2994 RMK SC4SC4 SLP139=

CYVR;2006-05-28 21:00;METAR CYVR 282100Z 12008KT 20SM SCT020 OVC032 14/10 A2999 RMK SC3SC5 SLP155=

CYVR;2006-05-28 22:00;METAR CYVR 282200Z 13010KT 30SM FEW020 OVC033 14/10 A3000 RMK SF2SC6 SLP159=

CYVR;2006-05-29 00:00;METAR CYVR 290000Z 12009KT 20SM FEW020 SCT040 BKN055 BKN080 16/10 A3000 RMK SC2SC2SC2AC1 SLP160=

CYVR;2006-05-29 02:00;METAR CYVR 290200Z 11012KT 30SM FEW030 BKN051 OVC068 15/11 A3002 RMK SC2SC3AC2 SLP165=

CYVR;2006-05-29 05:00;METAR CYVR 290500Z 11006KT 20SM FEW030 SCT047 BKN052 13/10 A3006 RMK SC2SC2SC2 SLP180=

CYVR;2006-05-29 06:00;METAR CYVR 290600Z 10006KT 20SM FEW030 BKN054 12/09 A3008 RMK SC2SC3 SLP185=

CYVR;2006-05-29 07:00;METAR CYVR 290700Z 12004KT 20SM FEW030 FEW050 11/08 A3009 RMK SC1SC0 SLP188=

CYVR;2006-05-29 09:00;METAR CYVR 290900Z 09006KT 20SM FEW035 FEW220 09/07 A3011 RMK SC1CI1 SLP195=

CYVR;2006-05-29 10:00;METAR CYVR 291000Z 09006KT 20SM FEW035 FEW050 SCT220 08/07 A3012 RMK SC1SC1CI1 SLP199=

CYVR;2006-05-29 11:00;METAR CYVR 291100Z 09008KT 20SM FEW035 SCT052 09/08 A3013 RMK SC2SC2 SLP202=

CYVR;2006-05-29 12:00;METAR CYVR 291200Z 10010KT 20SM FEW035 SCT052 09/08 A3014 RMK SC1SC2 SLP205=

CYVR;2006-05-29 13:00;METAR CYVR 291300Z 10009KT 20SM FEW025 SCT052 10/09 A3015 RMK SC1SC2 SLP210=

CYVR;2006-05-29 14:00;METAR CYVR 291400Z 10009KT 20SM FEW025 BKN051 BKN100 11/09 A3017 RMK SC1SC2AC1 SLP215=

CYVR;2006-05-29 14:18;SPECI CYVR 291418Z 12010KT 20SM FEW008 SCT025 BKN052 BKN070 11/ RMK SF2SC2SC2AC1=

CYVR;2006-05-29 17:00;METAR CYVR 291700Z 15008KT 20SM FEW015 BKN050 OVC063 13/09 A3019 RMK SC2SC4SC1 SLP222=

CYVR;2006-05-29 19:00;METAR CYVR 291900Z 16006KT 30SM SCT023 OVC063 14/09 A3020 RMK SC3SC5 SLP227=

CYVR;2006-05-29 20:00;METAR CYVR 292000Z 11005KT 30SM FEW023 BKN070 OVC140 16/09 A3020 RMK SC2AC4AC1 SLP226=

CYVR;2006-05-29 21:00;METAR CYVR 292100Z 12004KT 30SM FEW030 OVC069 16/09 A3020 RMK SC2AS6 SLP226=

CYVR;2006-05-29 22:00;METAR CYVR 292200Z 21008KT 30SM SCT036 OVC075 16/08 A3020 RMK SC3AS4 SLP227=

CYVR;2006-05-29 23:00;METAR CYVR 292300Z 21006KT 30SM SCT041 BKN075 BKN140 17/09 A3019 RMK SC3AC2AC1 TCU EMBD SLP225=

CYVR;2006-05-30 00:00;METAR CYVR 300000Z 25008KT 30SM FEW025 BKN047 BKN075 16/09 A3020 RMK SC2SC3AC2 SLP228=

CYVR;2006-05-30 01:00;METAR CYVR 300100Z 27003KT 30SM SCT038 BKN075 16/09 A3020 RMK SC3AC3 TCU EMBD SLP227=

CYVR;2006-05-30 04:00;METAR CYVR 300400Z 26002KT 30SM SCT076 13/09 A3019 RMK AC2 SLP224=

CYVR;2006-05-30 05:00;METAR CYVR 300500Z 00000KT 30SM SCT075 13/08 A3021 RMK AC2 SLP229=

CYVR;2006-05-30 06:00;METAR CYVR 300600Z 04003KT 30SM FEW075 12/09 A3021 RMK AC1 SLP229=

CYVR;2006-05-30 08:00;METAR CYVR 300800Z 05006KT 30SM FEW075 FEW220 11/08 A3021 RMK AC1CI0 SLP230=

CYVR;2006-05-30 10:00;METAR CYVR 301000Z 11003KT 30SM FEW075 10/07 A3021 RMK AC0 SLP231=

CYVR;2006-05-30 11:00;METAR CYVR 301100Z 13002KT 30SM FEW075 10/07 A3022 RMK AC0 SLP234=

CYVR;2006-05-30 11:54;SPECI CYVR 301154Z 10004KT 30SM MIFG FEW220 09/ RMK CI0=

CYVR;2006-05-30 12:00;METAR CYVR 301200Z 09005KT 30SM MIFG FEW220 08/07 A3022 RMK CI0 SLP232=

CYVR;2006-05-30 13:00;METAR CYVR 301300Z 00000KT 30SM FEW220 09/07 A3022 RMK CI0 SLP233=

CYVR;2006-05-30 14:00;METAR CYVR 301400Z 00000KT 30SM FEW050 FEW220 12/08 A3023 RMK SF0CI0 SLP237=

CYVR;2006-05-30 15:00;METAR CYVR 301500Z 00000KT 30SM FEW050 BKN210 13/08 A3023 RMK SC1CI2 CONTRAILS SLP237=

CYVR;2006-05-30 17:00;METAR CYVR 301700Z 25006KT 30SM FEW050 BKN200 14/09 A3023 RMK SC1CI2 SLP238=

CYVR;2006-05-30 18:00;METAR CYVR 301800Z 25007KT 30SM FEW050 BKN220 15/10 A3022 RMK SC1CI3 SLP235=

CYVR;2006-05-30 19:00;METAR CYVR 301900Z 25007KT 30SM FEW050 BKN200 15/11 A3022 RMK SC1CI2 SLP233=

CYVR;2006-05-30 20:00;METAR CYVR 302000Z 25006KT 30SM FEW050 BKN210 16/12 A3021 RMK SF1CI2 SLP231=

CYVR;2006-05-30 21:00;METAR CYVR 302100Z 25006KT 30SM FEW050 BKN210 17/13 A3020 RMK SC1CI2 CONTRAILS SLP227=

CYVR;2006-05-30 22:00;METAR CYVR 302200Z 25007KT 30SM FEW050 BKN200 18/10 A3019 RMK SC1CI2 SLP222=

CYVR;2006-05-30 23:00;METAR CYVR 302300Z 25007KT 30SM FEW050 BKN200 19/10 A3017 RMK SC1CI3 SLP218=

CYVR;2006-05-31 00:00;METAR CYVR 310000Z 00000KT 30SM FEW050 BKN200 20/08 A3016 RMK SC1CI3 SLP213=

CYVR;2006-05-31 01:00;METAR CYVR 310100Z 26005KT 30SM FEW050 SCT200 19/08 A3014 RMK SC0CI2 TR SC SLP207=

CYVR;2006-05-31 02:00;METAR CYVR 310200Z 29005KT 30SM FEW050 FEW090 FEW220 18/06 A3014 RMK SC1AC1CI1 TR SC/TR AC CONTRAILS SLP205=

CYVR;2006-05-31 03:00;METAR CYVR 310300Z 27003KT 30SM FEW050 FEW090 FEW220 17/06 A3013 RMK SC1AC1CI1 TR SC / CONTRAILS SLP202=

CYVR;2006-05-31 04:00;METAR CYVR 310400Z 30002KT 30SM FEW090 FEW220 16/07 A3012 RMK AC1CI1 CONTRAILS SLP200=

CYVR;2006-05-31 06:00;METAR CYVR 310600Z 03004KT 30SM BKN190 BKN240 15/06 A3011 RMK AC2CI1 SLP198=

CYVR;2006-05-31 07:00;METAR CYVR 310700Z 02003KT 30SM SCT160 BKN180 14/07 A3011 RMK AC2AC1 SLP196=

CYVR;2006-05-31 09:00;METAR CYVR 310900Z 34002KT 30SM SCT150 BKN220 13/07 A3011 RMK AC2CI1 SLP195=

CYVR;2006-05-31 10:00;METAR CYVR 311000Z 11004KT 30SM BKN150 14/06 A3010 RMK AC6 SLP193=

CYVR;2006-05-31 11:00;METAR CYVR 311100Z 00000KT 30SM BKN150 13/06 A3009 RMK AC3 SLP188=

CYVR;2006-05-31 12:00;METAR CYVR 311200Z 02003KT 30SM FEW150 SCT220 11/06 A3008 RMK AC2CI0 SLP186=

CYVR;2006-05-31 13:00;METAR CYVR 311300Z 00000KT 30SM FEW140 SCT220 12/07 A3007 RMK AC1CI0=

CYVR;2006-05-31 15:00;METAR CYVR 311500Z 32003KT 30SM FEW090 BKN150 15/07 A3006 RMK AC1AS3 SLP181=

CYVR;2006-05-31 16:00;METAR CYVR 311600Z 32008KT 30SM FEW090 SCT150 BKN230 16/07 A3006 RMK AC1AS2CI2 SLP179=

CYVR;2006-05-31 18:00;METAR CYVR 311800Z 26007KT 30SM BKN110 BKN160 BKN230 17/10 A3002 RMK AC5AS1CI1 SLP167=

CYVR;2006-05-31 19:00;METAR CYVR 311900Z 29008KT 30SM SCT120 BKN160 BKN230 18/11 A3001 RMK AC4AC1CI1 SLP161=

CYVR;2006-05-31 20:00;METAR CYVR 312000Z 29013KT 30SM BKN120 BKN160 BKN240 18/10 A2999 RMK AC5AC1CI1 SLP155=

CYVR;2006-05-31 21:00;METAR CYVR 312100Z 31011KT 30SM BKN120 BKN170 BKN240 18/11 A2997 RMK AC6AC1CI1 SLP148=

CYVR;2006-05-31 22:00;METAR CYVR 312200Z 31012KT 30SM BKN120 OVC160 18/10 A2995 RMK AC6AC2 SLP142=

CYVR;2006-05-31 23:00;METAR CYVR 312300Z 27010KT 30SM BKN100 OVC150 17/11 A2996 RMK AC6AC2 SLP144=

CYVR;2006-06-01 00:00;METAR CYVR 010000Z 29011KT 30SM BKN100 OVC150 16/12 A2995 RMK AC6AC2 SLP143=

CYVR;2006-06-01 01:00;METAR CYVR 010100Z 33004KT 20SM BKN090 OVC130 16/12 A2998 RMK AC6AC2 SLP152=

CYVR;2006-06-01 01:05;SPECI CYVR 010105Z 33006KT 20SM -RA SCT070 BKN090 OVC110 16/ RMK AC3AC4AC1 PCPN VRY LGT=

CYVR;2006-06-01 01:42;SPECI CYVR 010142Z 35009KT 20SM FEW070 BKN091 OVC110 17/ RMK AC2AC6AC1=

CYVR;2006-06-01 03:00;METAR CYVR 010300Z 18003KT 10SM -SHRA SCT064 BKN088 OVC100 17/13 A3000 RMK SC4AC2AC2 SLP159=

CYVR;2006-06-01 06:00;METAR CYVR 010600Z 18006KT 10SM -RA FEW040 SCT067 OVC091 14/13 A3004 RMK SC2AC2AC4 SLP172=

CYVR;2006-06-01 07:48;SPECI CYVR 010748Z 11011KT 12SM BKN039 BKN080 OVC110 15/ RMK SC5AC2AC2=

CYVR;2006-06-01 09:00;METAR CYVR 010900Z 10004KT 12SM -RA BKN035 BKN080 OVC110 15/14 A3001 RMK SC6AC2AC1 SLP163=

CYVR;2006-06-01 09:41;SPECI CYVR 010941Z 04002KT 12SM BKN032 BKN054 OVC075 15/ RMK SC6SC2AC1=

CYVR;2006-06-01 10:00;METAR CYVR 011000Z 07002KT 12SM BKN037 BKN055 OVC082 15/14 A3000 RMK SC5SC2AC1 SLP158=

CYVR;2006-06-01 12:00;METAR CYVR 011200Z 16003KT 15SM BKN031 OVC090 15/14 A2998 RMK SC7AC1 SLP152=

CYVR;2006-06-01 13:00;METAR CYVR 011300Z 00000KT 15SM BKN028 OVC090 15/14 A2997 RMK SC6AC1 SLP148=

CYVR;2006-06-01 14:00;METAR CYVR 011400Z 09002KT 15SM BKN024 BKN050 16/15 A2996 RMK SC6SC1 SLP147=

CYVR;2006-06-01 15:00;METAR CYVR 011500Z 27004KT 15SM BKN028 BKN060 16/15 A2996 RMK SC6SC1 SLP147=

CYVR;2006-06-01 16:00;METAR CYVR 011600Z 30002KT 15SM BKN031 BKN080 16/15 A2996 RMK SC6AC1 SLP146=

CYVR;2006-06-01 17:00;METAR CYVR 011700Z 31003KT 20SM FEW032 BKN090 19/16 A2994 RMK SC2AC4 SLP138=

CYVR;2006-06-01 18:00;METAR CYVR 011800Z 27005KT 20SM SCT035 OVC090 17/15 A2993 RMK SC3AS4 SLP134=

CYVR;2006-06-01 19:14;SPECI CYVR 011914Z 27003KT 15SM -SHRA SCT038 OVC084 18/ RMK SC3AS5=

CYVR;2006-06-01 20:00;METAR CYVR 012000Z 26003KT 15SM -SHRA SCT035 OVC089 17/15 A2991 RMK SC3AC5 SLP130=

CYVR;2006-06-01 22:00;METAR CYVR 012200Z 17003KT 10SM -RA SCT012 SCT035 BKN085 OVC240 18/16 A2989 RMK SF3SC1AC3CI1 SLP121=

CYVR;2006-06-02 00:00;METAR CYVR 020000Z 11008KT 12SM -RA FEW012 SCT030 BKN045 OVC080 19/16 A2988 RMK CF2SC2SC3AC1 SLP119=

CYVR;2006-06-02 01:00;METAR CYVR 020100Z 21008KT 12SM -RA FEW011 SCT030 BKN046 OVC090 17/16 A2988 RMK SC2SC2SC3AC1 TCU EMBD SLP118=

CYVR;2006-06-02 01:41;SPECI CYVR 020141Z 15003KT 15SM FEW012 SCT040 BKN090 OVC140 18/ RMK SC2SC2AC2AC2=

CYVR;2006-06-02 02:00;METAR CYVR 020200Z 13004KT 15SM FEW012 SCT033 BKN055 OVC100 18/16 A2987 RMK SC1SC2SC2AC2 VIS N LWR SLP115=

CYVR;2006-06-02 02:33;SPECI CYVR 020233Z 14004KT 15SM -RA BKN026 BKN047 OVC100 18/ RMK SC5SC2AC2=

CYVR;2006-06-02 03:00;METAR CYVR 020300Z 12005KT 8SM -RA FEW014 BKN026 BKN050 OVC100 18/16 A2987 RMK SC2SC3SC2AC1 SLP115=

CYVR;2006-06-02 03:27;SPECI CYVR 020327Z 12010KT 10SM FEW014 BKN026 BKN050 OVC100 18/ RMK SC2SC4SC1AC2=

CYVR;2006-06-02 03:34;SPECI CYVR 020334Z 14008KT 12SM -SHRA FEW014 BKN025 OVC050 18/ RMK SC2SC4SC2=

CYVR;2006-06-02 04:00;METAR CYVR 020400Z 13009KT 6SM -SHRA BR FEW012 OVC018 17/16 A2987 RMK SC2SC6 VIS N NE 3 SLP116=

CYVR;2006-06-02 04:27;SPECI CYVR 020427Z 18008KT 6SM -SHRA BR SCT006 BKN013 OVC018 17/ RMK SC3SC2SC2=

CYVR;2006-06-02 05:00;METAR CYVR 020500Z 19008KT 8SM -SHRA FEW005 SCT012 BKN018 OVC048 16/15 A2989 RMK SC2SC2SC2SC2 SLP121=

CYVR;2006-06-02 06:00;METAR CYVR 020600Z 14007KT 10SM -RA FEW005 SCT016 BKN044 OVC060 16/15 A2990 RMK SC2SC2SC3SC2 SLP124=

CYVR;2006-06-02 08:48;SPECI CYVR 020848Z 11006KT 12SM FEW005 SCT040 OVC080 15/ RMK SF2SC2AC5=

CYVR;2006-06-02 10:00;METAR CYVR 021000Z 10006KT 15SM FEW008 SCT036 BKN062 OVC090 15/14 A2992 RMK SF1SC2SC3AC2 SLP132=

CYVR;2006-06-02 11:00;METAR CYVR 021100Z 09005KT 15SM -RA FEW022 BKN041 OVC080 15/14 A2992 RMK SC2SC4AC2 SLP131=

CYVR;2006-06-02 11:43;SPECI CYVR 021143Z 09010KT 15SM FEW011 SCT041 BKN061 OVC090 15/ RMK SC2SC2SC3AC2=

CYVR;2006-06-02 12:00;METAR CYVR 021200Z 10010KT 15SM SCT012 BKN049 OVC090 15/14 A2991 RMK SC4SC2AC2 SLP130=

CYVR;2006-06-02 12:50;SPECI CYVR 021250Z 13005KT 15SM BKN013 OVC040 15/ RMK SC6SC2=

CYVR;2006-06-02 13:00;METAR CYVR 021300Z 11005KT 15SM BKN011 OVC035 15/14 A2992 RMK SC6SC2 SLP133=

CYVR;2006-06-02 16:00;METAR CYVR 021600Z 11008KT 15SM FEW011 BKN025 BKN080 16/14 A2992 RMK SC2SC4AC1 SLP132=

CYVR;2006-06-02 18:00;METAR CYVR 021800Z 14007KT 15SM FEW015 BKN026 OVC080 16/13 A2993 RMK SC2SC5AC1 SLP137=

CYVR;2006-06-02 20:00;METAR CYVR 022000Z 22005KT 20SM FEW018 SCT026 BKN080 18/13 A2993 RMK CU2SC2AC2 SLP137=

CYVR;2006-06-02 21:00;METAR CYVR 022100Z 23005KT 20SM FEW019 SCT040 BKN080 19/12 A2994 RMK CU2SC2AC2 SLP139=

CYVR;2006-06-02 22:00;METAR CYVR 022200Z 25004KT 20SM FEW025 BKN051 BKN080 19/13 A2995 RMK CU2SC2AC1 SLP141=

CYVR;2006-06-02 23:00;METAR CYVR 022300Z 23005KT 20SM FEW030 BKN060 BKN089 19/13 A2996 RMK CU2SC3AC1 SHS N SLP146=

CYVR;2006-06-03 00:00;METAR CYVR 030000Z 24008KT 20SM FEW035 BKN067 BKN090 19/14 A2997 RMK SC2AC4AC1 SLP149=

CYVR;2006-06-03 01:00;METAR CYVR 030100Z 22010KT 20SM FEW040TCU SCT060 SCT080 19/09 A2998 RMK TCU1SC2AC1 SLP153=

CYVR;2006-06-03 03:00;METAR CYVR 030300Z 24010G16KT 20SM FEW045 BKN072 17/08 A3002 RMK SC2AC6 SLP167=

CYVR;2006-06-03 06:00;METAR CYVR 030600Z 23006G15KT 20SM BKN078 BKN110 15/07 A3009 RMK AC6AC2 SLP191=

CYVR;2006-06-03 07:00;METAR CYVR 030700Z 20005KT 20SM FEW040 BKN074 OVC110 15/08 A3012 RMK SC1AC6AC1 SLP199=

CYVR;2006-06-03 09:00;METAR CYVR 030900Z 11004KT 20SM FEW040 BKN073 OVC100 14/08 A3014 RMK SC1AC6AC2 SLP207=

CYVR;2006-06-03 11:00;METAR CYVR 031100Z 11004KT 20SM BKN043 BKN075 OVC100 13/09 A3017 RMK SC6AC2AC1 SLP215=

CYVR;2006-06-03 12:00;METAR CYVR 031200Z 09007KT 20SM FEW037 BKN064 BKN090 12/10 A3016 RMK SC2SC2AC2 SLP214=

CYVR;2006-06-03 13:00;METAR CYVR 031300Z 08008KT 20SM FEW040 BKN056 BKN090 12/10 A3017 RMK SC1SC5AC2 SLP218=

CYVR;2006-06-03 13:55;SPECI CYVR 031355Z 10010KT 20SM -SHRA FEW040 SCT050 BKN100 13/ RMK SC1SC2AC3=

CYVR;2006-06-03 14:00;METAR CYVR 031400Z 10010KT 20SM -SHRA FEW040 SCT050 BKN100 13/10 A3018 RMK SC1SC2AC3 PCPN VRY LGT SLP220=

CYVR;2006-06-03 14:18;SPECI CYVR 031418Z 10009KT 20SM FEW040 FEW055 BKN110 13/ RMK SC1SC2AC4=

CYVR;2006-06-03 15:00;METAR CYVR 031500Z 10010KT 20SM FEW050 SCT075 BKN110 BKN240 14/10 A3019 RMK SC2AC2AC2CI1 SLP223=

CYVR;2006-06-03 17:00;METAR CYVR 031700Z 12007KT 20SM FEW025 SCT050 BKN120 BKN210 16/10 A3020 RMK CU1CU3AC1CS2 SLP226=

CYVR;2006-06-03 18:00;METAR CYVR 031800Z 12003KT 20SM FEW050 SCT100 BKN220 17/10 A3019 RMK CU2AC1CS2 TCU ASOCTD SLP223=

CYVR;2006-06-03 20:00;METAR CYVR 032000Z 27006KT 20SM SCT045 BKN220 16/11 A3016 RMK CU3CI2 TCU ASOCTD SLP212=

CYVR;2006-06-03 22:00;METAR CYVR 032200Z 31006KT 30SM FEW055 SCT230 17/10 A3012 RMK CU2CI1 TCU ASOCTD SLP200=

CYVR;2006-06-03 23:00;METAR CYVR 032300Z 27008KT 30SM FEW055 SCT240 19/11 A3009 RMK CU2CI1 SLP191=

CYVR;2006-06-04 00:00;METAR CYVR 040000Z 30007KT 30SM FEW050 SCT240 19/11 A3007 RMK CU2CI1 SLP183=

CYVR;2006-06-04 01:00;METAR CYVR 040100Z 26007KT 30SM FEW050 FEW240 18/10 A3005 RMK CU1CI1 SLP177=

CYVR;2006-06-04 03:00;METAR CYVR 040300Z 30005KT 30SM BKN150 18/11 A3001 RMK AC6 SLP163=

CYVR;2006-06-04 04:00;METAR CYVR 040400Z 30004KT 30SM BKN150 16/11 A2998 RMK AC5 SLP154=

CYVR;2006-06-04 08:00;METAR CYVR 040800Z 09002KT 30SM SCT140 BKN230 14/08 A2989 RMK AC4CI2 SLP121=

CYVR;2006-06-04 09:00;METAR CYVR 040900Z 35004KT 30SM SCT130 BKN170 OVC220 14/08 A2985 RMK AC4AC2CI2 SLP110=

CYVR;2006-06-04 10:00;METAR CYVR 041000Z 26003KT 30SM SCT073 BKN120 OVC220 14/09 A2984 RMK AC3AC3CI2 SLP105=

CYVR;2006-06-04 10:52;SPECI CYVR 041052Z 16005KT 20SM -RA FEW040 BKN072 OVC098 14/ RMK SC2AC5AC2=

CYVR;2006-06-04 11:00;METAR CYVR 041100Z 15006KT 20SM -RA FEW040 BKN068 OVC100 14/10 A2984 RMK SC2AC5AC2 SLP106=

CYVR;2006-06-04 12:00;METAR CYVR 041200Z 35004KT 10SM -RA FEW040 BKN071 OVC100 13/11 A2984 RMK SC2AC5AC2 SLP105=

CYVR;2006-06-04 13:00;METAR CYVR 041300Z 36002KT 10SM -RA BKN059 OVC080 12/11 A2984 RMK SC6AC2 SLP104=

CYVR;2006-06-04 14:00;METAR CYVR 041400Z 34003KT 12SM -RA BKN058 OVC075 13/11 A2984 RMK SC6AC2 SLP104=

CYVR;2006-06-04 15:00;METAR CYVR 041500Z 32005KT 15SM -RA SCT052 BKN060 OVC078 13/11 A2983 RMK SC3ST3AC2 SLP102=

CYVR;2006-06-04 17:00;METAR CYVR 041700Z 29006KT 15SM -RA FEW042 BKN053 OVC065 13/10 A2983 RMK SC2SC6SC1 PCPN VRY LGT SLP103=

CYVR;2006-06-04 17:20;SPECI CYVR 041720Z 31009KT 15SM BKN058 OVC090 14/ RMK SC6AC2=

CYVR;2006-06-04 18:00;METAR CYVR 041800Z 30007KT 15SM FEW010 SCT050 BKN062 OVC090 14/11 A2985 RMK SF2SC2SC2AC2 SLP107=

CYVR;2006-06-04 19:00;METAR CYVR 041900Z 29008KT 15SM SCT014 OVC047 14/11 A2986 RMK SF4SC4 SLP113=

CYVR;2006-06-04 20:00;METAR CYVR 042000Z 23004KT 15SM SCT014 OVC045 15/11 A2988 RMK SF3SC5 SLP120=

CYVR;2006-06-04 21:18;SPECI CYVR 042118Z 24002KT 12SM -SHRA FEW015 OVC036 15/ RMK SF2ST6 PCPN VRY LGT=

CYVR;2006-06-04 22:00;METAR CYVR 042200Z 23004KT 12SM -SHRA FEW015 OVC035 15/10 A2992 RMK SF2ST6 SLP131=

CYVR;2006-06-04 22:42;SPECI CYVR 042242Z 23005KT 15SM FEW015 OVC034 15/ RMK SF2ST6=

CYVR;2006-06-04 23:27;SPECI CYVR 042327Z 25004KT 20SM FEW015 SCT034 OVC073 16/ RMK SF1SC3AC4=

CYVR;2006-06-05 01:00;METAR CYVR 050100Z 26005KT 20SM SCT015 BKN072 OVC120 16/12 A2993 RMK SC3AC3AC2 SLP137=

CYVR;2006-06-05 03:00;METAR CYVR 050300Z 19004KT 20SM FEW019 OVC071 16/12 A2996 RMK SC2AC5 SLP146=

CYVR;2006-06-05 04:00;METAR CYVR 050400Z 15005KT 20SM FEW020 OVC071 15/12 A2997 RMK SC2AC6 SLP150=

CYVR;2006-06-05 05:00;METAR CYVR 050500Z 15004KT 20SM FEW020 BKN072 OVC095 15/12 A2999 RMK SC2AC6AC1 SLP156=

CYVR;2006-06-05 06:00;METAR CYVR 050600Z 10006KT 20SM FEW020 OVC067 14/12 A3000 RMK SC2AC6 SLP158=

CYVR;2006-06-05 07:00;METAR CYVR 050700Z 10006KT 20SM FEW028 BKN068 OVC085 14/12 A3001 RMK SC2AC3AC2 SLP161=

CYVR;2006-06-05 08:00;METAR CYVR 050800Z 10009KT 20SM SCT030 OVC074 14/12 A3001 RMK SC3AC5 SLP163=

CYVR;2006-06-05 09:00;METAR CYVR 050900Z 12009KT 20SM FEW010 BKN039 OVC071 14/12 A3002 RMK SC2SC2AC3 SLP167=

CYVR;2006-06-05 11:00;METAR CYVR 051100Z 10011KT 20SM FEW020 OVC073 13/12 A3002 RMK SC2AC6 SLP167=

CYVR;2006-06-05 12:00;METAR CYVR 051200Z 10007KT 20SM FEW025 OVC084 13/12 A3003 RMK SC2AC6 SLP169=

CYVR;2006-06-05 13:00;METAR CYVR 051300Z 10008KT 20SM FEW025 SCT080 OVC190 13/11 A3003 RMK SC2AC1AS4 SLP170=

CYVR;2006-06-05 14:00;METAR CYVR 051400Z 10010KT 20SM FEW025 FEW080 OVC180 14/12 A3004 RMK SC1AC1AS3 SLP174=

CYVR;2006-06-05 15:00;METAR CYVR 051500Z 14007KT 30SM FEW018 SCT035 BKN080 OVC180 15/11 A3006 RMK SF1SC2AC2AS2 SLP179=

CYVR;2006-06-05 16:00;METAR CYVR 051600Z 13005KT 30SM FEW015 BKN039 BKN180 15/11 A3007 RMK SF2SC3AS2 SLP183=

CYVR;2006-06-05 17:00;METAR CYVR 051700Z 12006KT 30SM SCT020 BKN040 BKN180 16/11 A3007 RMK SC3SC2AS2 SLP184=

CYVR;2006-06-05 18:00;METAR CYVR 051800Z 18003KT 30SM FEW022 BKN180 17/11 A3007 RMK SC2AS3 SLP184=

CYVR;2006-06-05 19:00;METAR CYVR 051900Z 23008G17KT 30SM FEW035 BKN200 18/10 A3008 RMK SC2CS3 SLP185=

CYVR;2006-06-05 20:00;METAR CYVR 052000Z 22010G17KT 30SM FEW038 BKN160 18/13 A3007 RMK SC2AS5 SLP184=

CYVR;2006-06-05 21:00;METAR CYVR 052100Z 24009G16KT 30SM FEW031 BKN170 17/12 A3007 RMK SC2AS4 SLP183=

CYVR;2006-06-05 22:00;METAR CYVR 052200Z 24008G16KT 30SM FEW035 BKN180 17/11 A3007 RMK SC2AS3 SLP183=

CYVR;2006-06-06 00:00;METAR CYVR 060000Z 25006KT 30SM FEW040 BKN210 17/12 A3005 RMK SC2CI2 SLP177=

CYVR;2006-06-06 02:00;METAR CYVR 060200Z 29004KT 30SM FEW040 SCT210 18/11 A3004 RMK SC1CI2 SLP173=

CYVR;2006-06-06 03:00;METAR CYVR 060300Z 32005KT 30SM FEW040 FEW190 SCT210 17/10 A3004 RMK CF1AC1CI1 TR CF SLP171=

CYVR;2006-06-06 04:00;METAR CYVR 060400Z 32005KT 30SM FEW040 SCT190 BKN210 15/10 A3004 RMK SC1AC2CI0 TR SC SLP173=

CYVR;2006-06-06 05:00;METAR CYVR 060500Z 36003KT 30SM FEW190 SCT220 16/08 A3004 RMK AC1CI0 SLP172=

CYVR;2006-06-06 06:00;METAR CYVR 060600Z 01002KT 30SM FEW180 15/09 A3004 RMK AC1 SLP172=

CYVR;2006-06-06 07:00;METAR CYVR 060700Z 27002KT 30SM FEW180 14/10 A3004 RMK AC0 SLP173=

CYVR;2006-06-06 09:00;METAR CYVR 060900Z 11002KT 30SM FEW180 12/09 A3004 RMK AC0 SLP173=

CYVR;2006-06-06 10:00;METAR CYVR 061000Z 09003KT 30SM FEW180 12/09 A3006 RMK AC0 SLP178=

CYVR;2006-06-06 12:00;METAR CYVR 061200Z 11007KT 30SM FEW180 10/09 A3007 RMK AC0 SLP183=

CYVR;2006-06-06 13:00;METAR CYVR 061300Z 08004KT 30SM FEW180 11/09 A3009 RMK AC0 SLP188=

CYVR;2006-06-06 14:00;METAR CYVR 061400Z 10004KT 30SM FEW150 14/11 A3009 RMK AC0 SLP190=

CYVR;2006-06-06 15:00;METAR CYVR 061500Z 11005KT 20SM FEW050 14/11 A3011 RMK SC0 SLP196=

CYVR;2006-06-06 16:00;METAR CYVR 061600Z 10004KT 20SM FEW015 FEW210 16/12 A3011 RMK SC2CI0 SLP197=

CYVR;2006-06-06 17:00;METAR CYVR 061700Z 00000KT 30SM FEW015 FEW035 SCT210 18/12 A3010 RMK CF2SC1CI0 SLP194=

CYVR;2006-06-06 18:00;METAR CYVR 061800Z 25007KT 30SM FEW020 FEW035 SCT210 17/13 A3010 RMK CF1SC2CI0 SLP193=

CYVR;2006-06-06 19:00;METAR CYVR 061900Z 24007KT 30SM FEW030 SCT210 17/14 A3009 RMK SC2CI1 SLP191=

CYVR;2006-06-06 22:00;METAR CYVR 062200Z 24008KT 30SM FEW045 FEW220 19/10 A3006 RMK SC1CI0 SLP181=

CYVR;2006-06-06 23:00;METAR CYVR 062300Z 24007KT 30SM FEW040 SCT220 20/10 A3006 RMK SC2CI0 TCU EMBD SLP178=

CYVR;2006-06-07 00:00;METAR CYVR 070000Z 24006KT 30SM FEW040 SCT220 20/10 A3004 RMK SC2CI1 TCU EMBD SLP173=

CYVR;2006-06-07 01:00;METAR CYVR 070100Z 23005KT 30SM FEW040 BKN220 20/09 A3003 RMK SC2CI2 TCU EMBD / CONTRAILS SLP169=

CYVR;2006-06-07 02:00;METAR CYVR 070200Z 24005KT 30SM FEW040 BKN220 19/11 A3002 RMK SC1CI3 CONTRAILS SLP166=

CYVR;2006-06-07 03:00;METAR CYVR 070300Z 26002KT 30SM FEW040 SCT220 19/10 A3001 RMK CF1CI0 TR CF / CONTRAILS SLP163=

CYVR;2006-06-07 04:00;METAR CYVR 070400Z 00000KT 30SM FEW150 SCT220 18/12 A3001 RMK AC1CI0 SLP163=

CYVR;2006-06-07 07:00;METAR CYVR 070700Z 10006KT 30SM FEW150 SCT220 14/11 A3003 RMK AC1CI1 SLP168=

CYVR;2006-06-07 08:00;METAR CYVR 070800Z 09008KT 30SM SCT220 13/09 A3003 RMK CI2 SLP169=

CYVR;2006-06-07 09:00;METAR CYVR 070900Z 11006KT 30SM FEW220 14/11 A3003 RMK CI1 SLP169=

CYVR;2006-06-07 11:00;METAR CYVR 071100Z 11006KT 30SM FEW220 12/09 A3003 RMK CI1 SLP169=

CYVR;2006-06-07 12:00;METAR CYVR 071200Z 12003KT 30SM FEW220 12/09 A3004 RMK CI1 SLP172=

CYVR;2006-06-07 13:00;METAR CYVR 071300Z 09002KT 30SM FEW150 BKN220 12/09 A3004 RMK AC1CI1 SLP174=

CYVR;2006-06-07 14:00;METAR CYVR 071400Z 08005KT 30SM FEW150 BKN220 14/10 A3005 RMK AC1CI1 SLP175=

CYVR;2006-06-07 16:00;METAR CYVR 071600Z 14007KT 30SM FEW120 BKN220 16/10 A3005 RMK AC1CI2 SLP175=

CYVR;2006-06-07 17:00;METAR CYVR 071700Z 13003KT 30SM FEW050 SCT220 17/11 A3005 RMK SC1CI2 TR SC SLP176=

CYVR;2006-06-07 20:00;METAR CYVR 072000Z 24007KT 30SM FEW050 SCT220 18/13 A3003 RMK SC1CI2 SLP170=

CYVR;2006-06-07 21:00;METAR CYVR 072100Z 24006KT 30SM FEW050 SCT220 19/13 A3002 RMK SC1CI2 SLP166=

CYVR;2006-06-07 22:00;METAR CYVR 072200Z 22009G15KT 30SM FEW045 SCT220 19/13 A3002 RMK SC1CC1 SLP165=

CYVR;2006-06-07 23:00;METAR CYVR 072300Z 22009KT 30SM FEW050 FEW140 FEW220 21/11 A3001 RMK SC1AC1CC0 SLP162=

CYVR;2006-06-08 00:00;METAR CYVR 080000Z 22011KT 30SM FEW050 FEW140 21/11 A3000 RMK SC1AC1 SLP159=

CYVR;2006-06-08 01:00;METAR CYVR 080100Z 18008KT 30SM FEW050 FEW140 20/11 A2999 RMK SC1AC1 SLP157=

CYVR;2006-06-08 02:00;METAR CYVR 080200Z 16008KT 20SM FEW050 FEW140 20/10 A2998 RMK SC1AC1 SLP154=

CYVR;2006-06-08 03:00;METAR CYVR 080300Z 14008KT 30SM FEW040 FEW140 19/11 A2999 RMK CF1AC0 SLP156=

CYVR;2006-06-08 05:00;METAR CYVR 080500Z 10009KT 30SM FEW140 15/11 A3000 RMK AC1 SLP160=

CYVR;2006-06-08 07:00;METAR CYVR 080700Z 11008KT 30SM BKN083 15/10 A3002 RMK AC6 SLP165=

CYVR;2006-06-08 09:00;METAR CYVR 080900Z 11009KT 30SM SCT060 BKN081 14/10 A3002 RMK SC2AC2 SLP165=

CYVR;2006-06-08 10:00;METAR CYVR 081000Z 11009KT 20SM BKN059 BKN081 14/10 A3002 RMK SC5AC2 SLP166=

CYVR;2006-06-08 11:00;METAR CYVR 081100Z 10010KT 20SM OVC059 14/10 A3002 RMK SC7 SLP166=

CYVR;2006-06-08 12:00;METAR CYVR 081200Z 10010KT 30SM OVC059 14/09 A3003 RMK SC8 SLP169=

CYVR;2006-06-08 13:00;METAR CYVR 081300Z 09011KT 30SM OVC057 14/10 A3004 RMK SC8 SLP171=

CYVR;2006-06-08 14:00;METAR CYVR 081400Z 09009KT 20SM SCT024 OVC052 14/09 A3004 RMK SC4SC4 SLP173=

CYVR;2006-06-08 15:00;METAR CYVR 081500Z 09008KT 20SM BKN025 OVC050 14/10 A3004 RMK SC5SC3 SLP174=

CYVR;2006-06-08 16:00;METAR CYVR 081600Z 11004KT 20SM FEW017 BKN028 OVC045 14/10 A3005 RMK SC2SC3SC2 SLP176=

CYVR;2006-06-08 17:00;METAR CYVR 081700Z 11006KT 20SM BKN018 BKN030 OVC045 14/10 A3006 RMK SC5SC2SC2 SLP180=

CYVR;2006-06-08 18:00;METAR CYVR 081800Z 11009KT 12SM BKN020 OVC040 14/11 A3006 RMK SC6SC2 SLP180=

CYVR;2006-06-08 19:00;METAR CYVR 081900Z 06006KT 10SM FEW016 BKN027 OVC045 14/11 A3007 RMK CF1SC6SC2 SLP182=

CYVR;2006-06-08 20:28;SPECI CYVR 082028Z 08007KT 8SM -RA FEW015 OVC030 13/ RMK CF1SC7=

CYVR;2006-06-08 20:42;SPECI CYVR 082042Z 10008KT 8SM -RA FEW007 SCT015 OVC031 13/ RMK SC2SC1SC5=

CYVR;2006-06-08 21:00;METAR CYVR 082100Z 10009KT 8SM -RA FEW008 SCT017 OVC030 12/11 A3009 RMK SC2SC2SC5 SLP188=

CYVR;2006-06-08 22:00;METAR CYVR 082200Z 10010KT 8SM -RA SCT007 OVC032 13/12 A3009 RMK SC3SC5 SLP188=

CYVR;2006-06-08 22:49;SPECI CYVR 082249Z 10009KT 8SM -RA SCT005 BKN011 OVC034 13/ RMK SC3SC2SC2=

CYVR;2006-06-08 23:00;METAR CYVR 082300Z 09009KT 8SM -RA FEW005 BKN010 OVC034 13/12 A3009 RMK SC2SC4SC2 SLP189=

CYVR;2006-06-09 00:00;METAR CYVR 090000Z 10006KT 7SM -RA FEW005 BKN011 OVC034 13/12 A3009 RMK SC2SC5SC1 SLP188=

CYVR;2006-06-09 00:42;SPECI CYVR 090042Z 17005KT 7SM -RA FEW007 BKN015 OVC035 13/ RMK SC2SC5SC1=

CYVR;2006-06-09 01:00;METAR CYVR 090100Z 16005KT 7SM -RA SCT007 OVC016 13/12 A3008 RMK SC3SC5 SLP187=

CYVR;2006-06-09 02:00;METAR CYVR 090200Z 12009KT 8SM -RA FEW007 SCT018 OVC075 13/12 A3008 RMK SF2SC2AC4 SLP186=

CYVR;2006-06-09 02:12;SPECI CYVR 090212Z 10010KT 8SM -RA BKN009 BKN020 OVC075 13/ RMK SC5SC2AC2=

CYVR;2006-06-09 03:00;METAR CYVR 090300Z 12005KT 6SM -RA BKN009 BKN025 OVC075 12/12 A3008 RMK SF6SC2AC1 SLP186=

CYVR;2006-06-09 03:51;SPECI CYVR 090351Z 13007KT 8SM -RA SCT009 BKN030 OVC075 12/ RMK SF4SC3AC1=

CYVR;2006-06-09 04:00;METAR CYVR 090400Z 13005KT 8SM -RA SCT009 BKN030 BKN055 OVC075 12/12 A3008 RMK SF3SC3SC1AC1 SLP185=

CYVR;2006-06-09 04:19;SPECI CYVR 090419Z 10006KT 8SM -RA BKN008 BKN030 OVC050 12/ RMK SF6SC2SC1=

CYVR;2006-06-09 04:34;SPECI CYVR 090434Z 10006KT 8SM -RA SCT008 BKN025 BKN050 OVC075 12/ RMK SF4SC2SC2AC1=

CYVR;2006-06-09 05:00;METAR CYVR 090500Z 10005KT 8SM -RA FEW008 SCT014 BKN025 OVC050 12/12 A3009 RMK SF2SF2SC3SC1 SLP189=

CYVR;2006-06-09 06:00;METAR CYVR 090600Z 12006KT 6SM -RA FEW007 SCT014 BKN030 OVC080 12/12 A3008 RMK SF2SF2SC3AC1 SLP187=

CYVR;2006-06-09 07:00;METAR CYVR 090700Z 09008KT 5SM RA BR SCT008 BKN016 BKN025 OVC040 12/12 A3009 RMK SF3SC2SC2SC2 SLP188=

CYVR;2006-06-09 09:00;METAR CYVR 090900Z 09006KT 6SM -RA FEW009 BKN030 OVC070 11/11 A3009 RMK SF2SC3AC2 SLP188=

CYVR;2006-06-09 10:00;METAR CYVR 091000Z 09004KT 8SM -RA FEW009 BKN030 OVC061 11/11 A3008 RMK SF2SC5SC2 SLP185=

CYVR;2006-06-09 10:45;SPECI CYVR 091045Z 09004KT 8SM SCT018 BKN031 BKN050 OVC075 11/ RMK SF3SC2SC2AC1=

CYVR;2006-06-09 11:00;METAR CYVR 091100Z 09004KT 8SM SCT018 BKN030 BKN050 OVC075 12/11 A3008 RMK SF3SC2SC2AC1 SLP185=

CYVR;2006-06-09 11:38;SPECI CYVR 091138Z 09006KT 8SM FEW009 BKN017 BKN030 OVC050 12/ RMK SF2SF3SC2SC1=

CYVR;2006-06-09 12:00;METAR CYVR 091200Z 09006KT 15SM SCT009 BKN018 BKN030 OVC050 12/11 A3008 RMK SF3SF3SC1SC1 SLP185=

CYVR;2006-06-09 13:00;METAR CYVR 091300Z 10007KT 15SM FEW008 BKN014 BKN030 OVC050 12/11 A3008 RMK SF2SF4SC2SC1 SLP185=

CYVR;2006-06-09 13:18;SPECI CYVR 091318Z 09007KT 15SM -RA FEW008 BKN013 BKN030 OVC050 12/ RMK SF2SF5SC1SC1=

CYVR;2006-06-09 14:00;METAR CYVR 091400Z 09008KT 15SM -RA FEW007 BKN016 BKN030 OVC053 12/11 A3008 RMK SF2SC4SC1SC1 PCPN VRY LGT SLP187=

CYVR;2006-06-09 14:32;SPECI CYVR 091432Z 10008KT 12SM -RA SCT007 BKN013 OVC050 12/ RMK SF3SC3SC2 PCPN VRY LGT=

CYVR;2006-06-09 15:00;METAR CYVR 091500Z 10009KT 12SM -RA SCT007 OVC012 13/12 A3009 RMK SF4SC4 PCPN VRY LGT SLP188=

CYVR;2006-06-09 15:33;SPECI CYVR 091533Z 09007KT 12SM SCT007 OVC012 13/ RMK SF3SC5=

CYVR;2006-06-09 16:00;METAR CYVR 091600Z 11008KT 12SM SCT007 BKN013 OVC020 13/12 A3010 RMK SF3SC3SC2 SLP192=

CYVR;2006-06-09 17:00;METAR CYVR 091700Z 13008KT 12SM FEW007 BKN013 OVC055 14/12 A3009 RMK SF2SC6SC1 SLP191=

CYVR;2006-06-09 17:33;SPECI CYVR 091733Z 10007KT 12SM FEW012 BKN017 OVC060 14/ RMK SC2SC6SC1=

CYVR;2006-06-09 18:00;METAR CYVR 091800Z 11005KT 12SM FEW012 BKN019 OVC060 15/12 A3010 RMK SC2SC6SC1 SLP192=

CYVR;2006-06-09 19:00;METAR CYVR 091900Z 23007KT 12SM -RA SCT008 BKN012 OVC020 14/12 A3010 RMK SC3SC4SC1 SLP194=

CYVR;2006-06-09 19:34;SPECI CYVR 091934Z 23006KT 12SM SCT012 BKN024 BKN065 OVC220 14/ RMK SC3SC2SC2CI0=

CYVR;2006-06-09 20:00;METAR CYVR 092000Z 22004KT 15SM FEW012 SCT025 BKN063 OVC100 15/13 A3010 RMK SC2SC2SC3AC1 SLP193=

CYVR;2006-06-09 21:00;METAR CYVR 092100Z 27006KT 15SM BKN017 BKN060 OVC079 16/13 A3009 RMK SC6SC2AC1 SLP190=

CYVR;2006-06-09 22:00;METAR CYVR 092200Z 26009KT 15SM FEW020 FEW060 SCT080 OVC200 15/12 A3008 RMK SC1SC2AC2CS2 SLP187=

CYVR;2006-06-09 23:00;METAR CYVR 092300Z 30013KT 15SM FEW020 BKN200 15/13 A3006 RMK SC1CS6 SLP180=

CYVR;2006-06-10 00:00;METAR CYVR 100000Z 29008KT 15SM FEW030 FEW080 BKN200 16/13 A3005 RMK SC1AC1CI4 SLP177=

CYVR;2006-06-10 01:00;METAR CYVR 100100Z 28008KT 15SM FEW030 FEW090 BKN200 16/13 A3004 RMK SC1AC1CI2 SLP171=

CYVR;2006-06-10 02:00;METAR CYVR 100200Z 29007KT 20SM FEW040 FEW090 SCT220 17/13 A3003 RMK SC1AC2CI1 SLP169=

CYVR;2006-06-10 03:00;METAR CYVR 100300Z 25002KT 20SM FEW040 FEW120 BKN220 16/12 A3002 RMK SC1AC2CI2 SLP167=

CYVR;2006-06-10 04:00;METAR CYVR 100400Z 19003KT 20SM FEW040 FEW110 BKN220 15/12 A3002 RMK SC1AC2CI2 SLP167=

CYVR;2006-06-10 05:00;METAR CYVR 100500Z 20004KT 30SM FEW040 FEW100 SCT240 15/12 A3002 RMK SC1AC1CI1 SLP167=

CYVR;2006-06-10 06:00;METAR CYVR 100600Z 14003KT 30SM FEW040 FEW150 SCT240 14/12 A3002 RMK SC1AC1CI1 SLP167=

CYVR;2006-06-10 07:00;METAR CYVR 100700Z 00000KT 30SM FEW045 FEW140 SCT240 13/12 A3002 RMK SC1AC1CI1 SLP165=

CYVR;2006-06-10 08:00;METAR CYVR 100800Z 04005KT 20SM SCT025 SCT140 BKN240 13/11 A3002 RMK SC3AC1CI0 SLP167=

CYVR;2006-06-10 09:00;METAR CYVR 100900Z 00000KT 20SM SCT024 BKN220 13/11 A3001 RMK SC3CI1 SLP161=

CYVR;2006-06-10 10:00;METAR CYVR 101000Z 09004KT 20SM BKN023 BKN230 12/11 A3000 RMK SC5CI1 SLP160=

CYVR;2006-06-10 11:00;METAR CYVR 101100Z 09004KT 20SM SCT025 BKN230 12/11 A2998 RMK SC3CI1 SLP154=

CYVR;2006-06-10 12:00;METAR CYVR 101200Z 10004KT 20SM BKN033 BKN120 BKN230 13/11 A2997 RMK SC6AC1CI1 SLP149=

CYVR;2006-06-10 13:00;METAR CYVR 101300Z 00000KT 15SM BKN031 BKN120 BKN230 13/12 A2997 RMK SC6AC1CI1 SLP150=

CYVR;2006-06-10 14:00;METAR CYVR 101400Z 14004KT 12SM BKN032 OVC100 14/12 A2997 RMK SC7AC1 SLP148=

CYVR;2006-06-10 15:00;METAR CYVR 101500Z 00000KT 10SM BKN033 OVC100 14/12 A2997 RMK SC7AC1 SLP150=

CYVR;2006-06-10 16:00;METAR CYVR 101600Z 00000KT 10SM BKN037 OVC100 15/12 A2998 RMK SC7AC1 SLP151=

CYVR;2006-06-10 17:00;METAR CYVR 101700Z 16003KT 10SM FEW016 OVC037 16/13 A2998 RMK SC2SC6 SLP151=

CYVR;2006-06-10 18:00;METAR CYVR 101800Z 24006KT 15SM FEW036 BKN070 17/13 A2997 RMK SC2AC2 SLP150=

CYVR;2006-06-10 19:00;METAR CYVR 101900Z 23006KT 15SM BKN031 BKN090 17/13 A2997 RMK SC6AC1 SLP149=

CYVR;2006-06-10 20:00;METAR CYVR 102000Z 24006KT 15SM BKN021 BKN034 BKN090 17/13 A2997 RMK SC6SC1AC1 SLP148=

CYVR;2006-06-10 21:00;METAR CYVR 102100Z 26008KT 15SM BKN022 BKN035 18/14 A2996 RMK SC6SC1 TCU TOPS W SLP146=

CYVR;2006-06-10 22:00;METAR CYVR 102200Z 25008KT 15SM BKN028 BKN100 19/13 A2994 RMK SC6AC1 SLP138=

CYVR;2006-06-10 23:00;METAR CYVR 102300Z 23011KT 15SM SCT026 BKN040 20/13 A2993 RMK SC4SC1 SLP134=

CYVR;2006-06-11 00:00;METAR CYVR 110000Z 16008KT 15SM FEW040 FEW100 20/12 A2991 RMK SC1AC1 SLP129=

CYVR;2006-06-11 01:00;METAR CYVR 110100Z 16008KT 15SM FEW040 20/12 A2991 RMK SC1 SLP127=

CYVR;2006-06-11 02:00;METAR CYVR 110200Z 16008KT 20SM FEW040 19/12 A2991 RMK SC1 SLP129=

CYVR;2006-06-11 03:00;METAR CYVR 110300Z 15007KT 20SM FEW040 19/12 A2991 RMK SC1 SLP130=

CYVR;2006-06-11 04:00;METAR CYVR 110400Z 16006KT 20SM FEW040 18/12 A2992 RMK SC1 SLP131=

CYVR;2006-06-11 05:00;METAR CYVR 110500Z 14005KT 20SM FEW040 17/11 A2993 RMK SC1 SLP136=

CYVR;2006-06-11 06:00;METAR CYVR 110600Z 11007KT 20SM FEW040 15/12 A2993 RMK SC2 SLP136=

CYVR;2006-06-11 07:00;METAR CYVR 110700Z 09006KT 20SM FEW040 14/12 A2993 RMK SC2 SLP136=

CYVR;2006-06-11 08:00;METAR CYVR 110800Z 08005KT 20SM FEW030 14/12 A2992 RMK SC2 SLP133=

CYVR;2006-06-11 09:00;METAR CYVR 110900Z 11005KT 20SM FEW030 14/11 A2991 RMK SC2 SLP130=

CYVR;2006-06-11 10:00;METAR CYVR 111000Z 09003KT 20SM FEW030 14/11 A2991 RMK SC2 SLP129=

CYVR;2006-06-11 11:00;METAR CYVR 111100Z 00000KT 20SM SCT032 13/11 A2991 RMK SC3 SLP127=

CYVR;2006-06-11 12:00;METAR CYVR 111200Z 35002KT 20SM FEW031 12/11 A2989 RMK SC2 SLP121=

CYVR;2006-06-11 13:00;METAR CYVR 111300Z 00000KT 20SM BKN034 14/11 A2988 RMK SC5 SLP119=

CYVR;2006-06-11 14:00;METAR CYVR 111400Z 23002KT 20SM OVC036 14/12 A2988 RMK SC8 SLP119=

CYVR;2006-06-11 15:00;METAR CYVR 111500Z 20002KT 15SM OVC036 15/12 A2988 RMK SC8 SLP119=

CYVR;2006-06-11 16:00;METAR CYVR 111600Z 19002KT 15SM OVC035 16/13 A2988 RMK SC8 SLP119=

CYVR;2006-06-11 17:00;METAR CYVR 111700Z 24002KT 12SM OVC037 16/13 A2987 RMK SC8 SLP116=

CYVR;2006-06-11 18:00;METAR CYVR 111800Z 28004KT 12SM BKN037 17/14 A2986 RMK SC7 SLP111=

CYVR;2006-06-11 19:00;METAR CYVR 111900Z 28010KT 15SM SCT037 BKN140 18/15 A2983 RMK SC4AC1 SLP102=

CYVR;2006-06-11 20:00;METAR CYVR 112000Z 28008KT 15SM SCT037 BKN140 18/14 A2982 RMK SC4AC3 SLP097=

CYVR;2006-06-11 21:00;METAR CYVR 112100Z 31009KT 15SM FEW040 SCT140 BKN220 19/15 A2980 RMK SC2AC2CI2 SLP093=

CYVR;2006-06-11 22:00;METAR CYVR 112200Z 25009KT 15SM FEW040 BKN140 BKN220 20/15 A2982 RMK SC2AC3CI2 SLP097=

CYVR;2006-06-11 23:00;METAR CYVR 112300Z 27006KT 15SM FEW045 SCT100 OVC170 18/14 A2982 RMK SC2AC1AS5 SLP099=

CYVR;2006-06-12 00:00;METAR CYVR 120000Z 32007KT 15SM FEW045 SCT100 OVC170 19/14 A2981 RMK SC2AC2AS4 SLP094=

CYVR;2006-06-12 01:00;METAR CYVR 120100Z 29006KT 15SM FEW050 FEW100 OVC200 20/14 A2978 RMK SC1AC1CS5 SLP084=

CYVR;2006-06-12 02:00;METAR CYVR 120200Z 29007KT 30SM FEW100 BKN210 19/15 A2978 RMK AC2CI2 SLP085=

CYVR;2006-06-12 03:00;METAR CYVR 120300Z 30006KT 30SM FEW110 SCT220 17/15 A2978 RMK AC1CI2 SLP083=

CYVR;2006-06-12 04:00;METAR CYVR 120400Z 28002KT 30SM FEW110 FEW230 17/14 A2978 RMK AC1CI1 SLP084=

CYVR;2006-06-12 05:00;METAR CYVR 120500Z 30002KT 30SM FEW120 FEW230 16/14 A2979 RMK AC1CI2 SLP088=

CYVR;2006-06-12 06:00;METAR CYVR 120600Z 01002KT 30SM FEW120 FEW230 16/13 A2979 RMK AC1CI1 SLP089=

CYVR;2006-06-12 07:00;METAR CYVR 120700Z 12004KT 30SM FEW130 FEW230 15/12 A2980 RMK AC1CI1 SLP091=

CYVR;2006-06-12 08:00;METAR CYVR 120800Z 09006KT 30SM FEW120 FEW220 14/12 A2980 RMK AC1CI1 SLP093=

CYVR;2006-06-12 09:00;METAR CYVR 120900Z 04002KT 30SM FEW120 SCT220 15/12 A2980 RMK AC2CI1 SLP090=

CYVR;2006-06-12 10:00;METAR CYVR 121000Z 07002KT 30SM FEW120 SCT210 14/12 A2980 RMK AC2CI1 SLP091=

CYVR;2006-06-12 11:00;METAR CYVR 121100Z 12002KT 30SM FEW110 FEW210 13/11 A2980 RMK AC1CI1 SLP091=

CYVR;2006-06-12 12:00;METAR CYVR 121200Z 00000KT 30SM FEW110 13/11 A2981 RMK AC1 SLP095=

CYVR;2006-06-12 13:00;METAR CYVR 121300Z 00000KT 30SM FEW100 13/11 A2982 RMK AC1 SLP099=

CYVR;2006-06-12 14:00;METAR CYVR 121400Z 00000KT 30SM FEW110 15/12 A2982 RMK AC2 SLP098=

CYVR;2006-06-12 15:00;METAR CYVR 121500Z 22003KT 30SM BKN160 16/12 A2983 RMK AC6 SLP103=

CYVR;2006-06-12 16:00;METAR CYVR 121600Z 20003KT 30SM BKN160 19/11 A2983 RMK AC5 SLP102=

CYVR;2006-06-12 17:00;METAR CYVR 121700Z 26007KT 30SM BKN160 19/12 A2983 RMK AC2 SLP102=

CYVR;2006-06-12 20:00;METAR CYVR 122000Z 27005KT 30SM FEW055 SCT150 BKN210 22/13 A2984 RMK SC1AS2CI1 TCU EMBD SLP104=

CYVR;2006-06-12 21:00;METAR CYVR 122100Z 27007KT 30SM FEW055 SCT140 BKN200 23/14 A2983 RMK SC1AS2CI2 SLP101=

CYVR;2006-06-12 22:00;METAR CYVR 122200Z 36012KT 30SM FEW050 SCT150 BKN200 25/12 A2983 RMK SC1AS3CI2 SLP103=

CYVR;2006-06-12 23:00;METAR CYVR 122300Z 28006KT 20SM FEW050 BKN150 BKN200 23/15 A2982 RMK SC1AS4CI2 PCPN DIST N SLP098=

CYVR;2006-06-13 00:00;METAR CYVR 130000Z 27006KT 20SM FEW050 BKN150 BKN200 22/14 A2983 RMK SC1AC4CI2 TCU EMBD SLP101=

CYVR;2006-06-13 01:00;METAR CYVR 130100Z 32005KT 20SM SCT050 BKN150 BKN200 22/13 A2983 RMK SC3AC2CI1 SLP102=

CYVR;2006-06-13 03:00;METAR CYVR 130300Z 30004KT 30SM FEW050 BKN100 BKN150 21/12 A2984 RMK SC1AC4AC2 SLP104=

CYVR;2006-06-13 04:00;METAR CYVR 130400Z 17002KT 30SM BKN085 OVC120 21/12 A2986 RMK AC5AC2 SLP112=

CYVR;2006-06-13 05:00;METAR CYVR 130500Z 11006KT 20SM FEW060 OVC080 21/12 A2989 RMK SC2AC6 SHS=

CYVR;2006-06-13 07:00;METAR CYVR 130700Z 11012KT 20SM SCT060 OVC075 18/13 A2993 RMK SC3AC5 SLP134=

CYVR;2006-06-13 08:00;METAR CYVR 130800Z 10008KT 20SM BKN057 OVC075 18/14 A2993 RMK SC6AC2 SLP135=

CYVR;2006-06-13 09:00;METAR CYVR 130900Z 10010KT 20SM FEW045 BKN062 OVC075 18/14 A2993 RMK SC2SC4AC2 SLP137=

CYVR;2006-06-13 11:00;METAR CYVR 131100Z 10008KT 20SM SCT021 BKN030 OVC062 17/14 A2995 RMK SC3SC3SC1 SLP141=

CYVR;2006-06-13 12:00;METAR CYVR 131200Z 11008KT 15SM FEW020 BKN028 OVC035 17/14 A2995 RMK SC2SC5SC1 SLP143=

CYVR;2006-06-13 12:05;SPECI CYVR 131205Z 10008KT 15SM -SHRA SCT020 OVC027 17/ RMK SC3SC5 PCPN VRY LGT=

CYVR;2006-06-13 13:00;METAR CYVR 131300Z 14007KT 12SM -SHRA BKN018 OVC028 15/14 A2996 RMK SC6SC2 SLP146=

CYVR;2006-06-13 13:12;SPECI CYVR 131312Z 14009KT 5SM -SHRA BR BKN017 OVC025 15/ RMK SC6SC2=

CYVR;2006-06-13 13:20;SPECI CYVR 131320Z 14006KT 7SM -SHRA BKN017 BKN025 OVC044 15/ RMK SC6SC2SC1=

CYVR;2006-06-13 13:57;SPECI CYVR 131357Z 14009KT 7SM -SHRA SCT009 BKN014 OVC020 16/ RMK SC3SC3SC2=

CYVR;2006-06-13 14:00;METAR CYVR 131400Z 12008KT 7SM -SHRA SCT010 BKN014 OVC020 16/15 A2997 RMK SC3SC3SC2 SLP149=

CYVR;2006-06-13 14:23;SPECI CYVR 131423Z 12009KT 6SM -SHRA SCT006 BKN013 OVC020 16/ RMK SF3SC3SC2=

CYVR;2006-06-13 15:00;METAR CYVR 131500Z 13012KT 7SM FEW008 BKN017 OVC021 15/14 A2998 RMK SF2SC4SC2 SLP151=

CYVR;2006-06-13 16:00;METAR CYVR 131600Z 12009KT 8SM SCT009 OVC025 16/14 A2998 RMK SF4SC4 SLP154=

CYVR;2006-06-13 16:24;SPECI CYVR 131624Z 11008KT 10SM SCT009 BKN014 OVC023 16/ RMK SF4SC2SC2=

CYVR;2006-06-13 17:00;METAR CYVR 131700Z 13009KT 10SM SCT009 BKN013 OVC025 17/14 A2999 RMK SF3SC2SC2 PCPN DIST N SLP155=

CYVR;2006-06-13 18:00;METAR CYVR 131800Z 13010KT 10SM FEW010 SCT017 OVC035 17/14 A2998 RMK SF1SC3SC4 SLP154=

CYVR;2006-06-13 19:00;METAR CYVR 131900Z 13013KT 15SM FEW010 SCT015 BKN025 OVC190 18/13 A2998 RMK SF1SC2SC2AS2 SLP153=

CYVR;2006-06-13 20:00;METAR CYVR 132000Z 16008KT 20SM SCT015 BKN035 OVC190 19/13 A2996 RMK SC3SC2AC2 SLP146=

CYVR;2006-06-13 22:00;METAR CYVR 132200Z 20009KT 20SM FEW015 BKN032 OVC100 20/13 A2995 RMK SF1SC4AS2 PCPN DIST N SLP143=

CYVR;2006-06-14 01:00;METAR CYVR 140100Z 18010KT 30SM FEW035 SCT090 BKN210 20/13 A2996 RMK SC2AC2CI3 SLP145=

CYVR;2006-06-14 02:00;METAR CYVR 140200Z 18010KT 20SM FEW035 BKN100 BKN210 19/12 A2997 RMK SC2AC3CI1 SLP148=

CYVR;2006-06-14 03:00;METAR CYVR 140300Z 17010KT 20SM FEW035 SCT050 BKN100 BKN200 18/12 A2997 RMK SC2SC1AC2CI1 SLP148=

CYVR;2006-06-14 04:00;METAR CYVR 140400Z 14008KT 20SM FEW035 BKN045 OVC100 18/12 A2997 RMK SC2SC3AC2 SLP148=

CYVR;2006-06-14 06:00;METAR CYVR 140600Z 11007KT 20SM FEW040 SCT054 BKN076 16/12 A2997 RMK SC2SC2AC2 SLP150=

CYVR;2006-06-14 07:00;METAR CYVR 140700Z 12008KT 20SM BKN046 BKN060 BKN090 16/12 A2997 RMK SC5SC1AC1 SLP148=

CYVR;2006-06-14 09:00;METAR CYVR 140900Z 14004KT 15SM SCT045 BKN076 OVC085 16/12 A2996 RMK SC3AC3AC1 SLP145=

CYVR;2006-06-14 10:00;METAR CYVR 141000Z 10005KT 15SM SCT045 BKN064 OVC075 15/12 A2995 RMK SC3SC3AC1 SLP143=

CYVR;2006-06-14 12:00;METAR CYVR 141200Z 12005KT 20SM BKN045 OVC075 15/11 A2996 RMK SC6AC2 SLP144=

CYVR;2006-06-14 13:00;METAR CYVR 141300Z 10008KT 20SM FEW025 BKN045 OVC075 14/12 A2996 RMK SC2SC5AC2 SLP146=

CYVR;2006-06-14 15:00;METAR CYVR 141500Z 13010KT 30SM FEW015 BKN054 OVC062 15/12 A2997 RMK SF2SC3SC2 SLP148=

CYVR;2006-06-14 16:00;METAR CYVR 141600Z 11007KT 30SM FEW015 BKN052 OVC063 15/12 A2997 RMK SF2SC5SC1 SLP149=

CYVR;2006-06-14 17:00;METAR CYVR 141700Z 12007KT 30SM FEW015 BKN051 OVC063 15/11 A2997 RMK SF1SC6SC1 SLP149=

CYVR;2006-06-14 18:00;METAR CYVR 141800Z 13008KT 20SM FEW015 BKN056 OVC076 16/12 A2997 RMK SF1SC6AC1 SLP150=

CYVR;2006-06-14 19:00;METAR CYVR 141900Z 13008KT 20SM SCT022 BKN060 OVC075 18/12 A2998 RMK SC3SC3AC1 SLP152=

CYVR;2006-06-14 21:00;METAR CYVR 142100Z 16009KT 30SM SCT025 BKN062 OVC079 18/11 A2998 RMK SC3SC3AC1 SLP153=

CYVR;2006-06-14 22:00;METAR CYVR 142200Z 16008KT 30SM FEW029 BKN060 OVC078 18/12 A2998 RMK SC2SC5AC1 SLP154=

CYVR;2006-06-14 23:00;METAR CYVR 142300Z 17006KT 20SM SCT045 OVC075 18/11 A2999 RMK SC3AC5 SLP155=

CYVR;2006-06-15 00:00;METAR CYVR 150000Z 19009KT 20SM FEW045 SCT060 OVC081 18/12 A2999 RMK SC2SC1AC4 SLP155=

CYVR;2006-06-15 03:00;METAR CYVR 150300Z 15007KT 20SM FEW035 SCT052 OVC069 17/10 A2999 RMK SC2SC2AC4 SLP157=

CYVR;2006-06-15 04:00;METAR CYVR 150400Z 16006KT 20SM FEW035 BKN043 OVC068 17/10 A3000 RMK SC2SC4AC2 SHS N QUAD SLP158=

CYVR;2006-06-15 05:00;METAR CYVR 150500Z 17003KT 20SM FEW030 BKN045 OVC080 16/11 A3001 RMK SC2SC4AC2 SLP161=

CYVR;2006-06-15 05:28;SPECI CYVR 150528Z 16003KT 15SM -SHRA FEW030 BKN045 OVC076 16/ RMK SC2SC3AC2=

CYVR;2006-06-15 05:50;SPECI CYVR 150550Z 19004KT 15SM FEW030 BKN048 OVC076 16/ RMK SC2SC3AC2=

CYVR;2006-06-15 06:00;METAR CYVR 150600Z 20006KT 15SM FEW035 BKN043 OVC060 16/10 A3001 RMK SC2SC4SC2 SLP162=

CYVR;2006-06-15 06:12;SPECI CYVR 150612Z 22013KT 15SM -SHRA FEW035 BKN042 OVC060 16/ RMK SC2SC3SC2 PCPN VRY LGT=

CYVR;2006-06-15 06:37;SPECI CYVR 150637Z 23003KT 15SM FEW035 SCT042 BKN060 OVC074 16/ RMK SC2SC2SC2AC2=

CYVR;2006-06-15 07:00;METAR CYVR 150700Z 19005KT 15SM -SHRA FEW035 SCT055 BKN060 OVC071 16/10 A3001 RMK SC2SC2SC2AC1 SLP162=

CYVR;2006-06-15 08:00;METAR CYVR 150800Z 17004KT 15SM FEW035 SCT060 OVC085 15/10 A3001 RMK SC2SC2AC4 SLP161=

CYVR;2006-06-15 09:00;METAR CYVR 150900Z 15005KT 20SM FEW035 BKN057 OVC086 15/11 A3002 RMK SC2SC4AC1 SLP165=

CYVR;2006-06-15 10:00;METAR CYVR 151000Z 12007KT 20SM FEW035 BKN047 OVC075 14/11 A3002 RMK SC2SC5AC1 SLP167=

CYVR;2006-06-15 11:00;METAR CYVR 151100Z 11006KT 20SM FEW035 BKN044 OVC075 13/11 A3002 RMK SC2SC5AC2 SLP166=

CYVR;2006-06-15 12:00;METAR CYVR 151200Z 10006KT 20SM SCT035 OVC089 13/11 A3002 RMK SC2AC6 SLP166=

CYVR;2006-06-15 14:00;METAR CYVR 151400Z 10010KT 20SM FEW035 OVC073 13/11 A3002 RMK SF2AC5 SLP167=

CYVR;2006-06-15 15:00;METAR CYVR 151500Z 10011KT 30SM FEW035 SCT059 OVC072 13/11 A3003 RMK SF2SC2AC3 SLP170=

CYVR;2006-06-15 16:00;METAR CYVR 151600Z 10009KT 30SM SCT016 BKN084 15/12 A3004 RMK SC3AC4 SLP172=

CYVR;2006-06-15 17:00;METAR CYVR 151700Z 12005KT 30SM SCT021 BKN082 17/12 A3003 RMK SC3AC3 SLP170=

CYVR;2006-06-15 18:00;METAR CYVR 151800Z 17008KT 30SM SCT029 BKN080 17/12 A3003 RMK SC4AC1 SLP170=

CYVR;2006-06-15 20:00;METAR CYVR 152000Z 00000KT 30SM FEW040 SCT210 19/11 A3002 RMK SC2CI1 SLP166=

CYVR;2006-06-15 21:00;METAR CYVR 152100Z 13011KT 30SM SCT035 BKN085 19/12 A3002 RMK SC4AC2 SLP165=

CYVR;2006-06-15 22:00;METAR CYVR 152200Z 17008KT 30SM FEW037 BKN100 20/11 A3001 RMK SC2AC2 SLP164=

CYVR;2006-06-16 00:00;METAR CYVR 160000Z 16015KT 30SM FEW037 SCT062 OVC080 19/10 A3002 RMK SC2SC2AC3 DIST PCPN NE SLP165=

CYVR;2006-06-16 01:00;METAR CYVR 160100Z 15007KT 20SM FEW040 SCT061 OVC082 19/11 A3001 RMK SC2SC2AC4 SLP163=

CYVR;2006-06-16 02:00;METAR CYVR 160200Z 14007KT 30SM FEW039 BKN053 OVC076 18/11 A3001 RMK SC2SC3AC2 SLP161=

CYVR;2006-06-16 03:00;METAR CYVR 160300Z 12008KT 30SM -SHRA FEW035 BKN065 OVC080 18/11 A3001 RMK SC2SC4AC1 SLP161=

CYVR;2006-06-16 03:16;SPECI CYVR 160316Z 10007KT 30SM FEW035 BKN056 OVC088 18/ RMK SC2SC4AC2=

CYVR;2006-06-16 04:53;SPECI CYVR 160453Z 10007KT 30SM -SHRA FEW040 BKN054 OVC081 17/ RMK SC2SC3AC2=

CYVR;2006-06-16 06:00;METAR CYVR 160600Z 05006KT 20SM -SHRA FEW037 BKN043 OVC060 16/14 A3000 RMK SC2SC5SC2 PCPN VRY LGT SLP158=

CYVR;2006-06-16 06:15;SPECI CYVR 160615Z 05005KT 20SM FEW037 BKN043 OVC080 16/ RMK SC2SC5AC1=

CYVR;2006-06-16 07:00;METAR CYVR 160700Z 05006KT 20SM FEW037 SCT043 OVC072 16/13 A2998 RMK SC2SC2AC4 SLP151=

CYVR;2006-06-16 07:45;SPECI CYVR 160745Z 12005KT 20SM -SHRA BKN041 OVC070 16/ RMK SC6AC2=

CYVR;2006-06-16 08:00;METAR CYVR 160800Z 10005KT 15SM -SHRA BKN036 OVC045 16/13 A2998 RMK SC6SC2 SLP151=

CYVR;2006-06-16 08:37;SPECI CYVR 160837Z 10003KT 6SM -SHRA BR BKN029 OVC040 15/ RMK SC6SC2 VIS N QUAD LWR 3 SM=

CYVR;2006-06-16 08:56;SPECI CYVR 160856Z 06005KT 12SM -RA BKN030 OVC055 15/ RMK SC6SC2 VIS N QUAD 10 SM=

CYVR;2006-06-16 09:30;SPECI CYVR 160930Z 04005KT 15SM FEW030 BKN035 OVC047 15/ RMK SC2SC4SC2=

CYVR;2006-06-16 10:00;METAR CYVR 161000Z 09006KT 20SM FEW030 SCT035 BKN060 15/13 A2996 RMK SC2SC2SC3 VIS LWR N QUAD SLP144=

CYVR;2006-06-16 11:00;METAR CYVR 161100Z 11005KT 20SM BKN031 BKN060 OVC075 15/13 A2996 RMK SC6SC2AC1 SLP147=

CYVR;2006-06-16 12:00;METAR CYVR 161200Z 13009KT 20SM BKN030 BKN057 OVC095 15/12 A2995 RMK SC5SC2AC2 SLP142=

CYVR;2006-06-16 12:23;SPECI CYVR 161223Z 10007KT 15SM -SHRA SCT030 BKN051 OVC060 14/ RMK SC3SC3SC2=

CYVR;2006-06-16 13:00;METAR CYVR 161300Z 10010KT 20SM SCT030 BKN051 OVC064 15/12 A2994 RMK SC3SC3SC2 SLP138=

CYVR;2006-06-16 14:00;METAR CYVR 161400Z 13012KT 20SM SCT030 BKN048 OVC060 15/12 A2994 RMK SC4SC3SC1 SHS SW - W SLP139=

CYVR;2006-06-16 14:48;SPECI CYVR 161448Z 14009KT 15SM SCT030 BKN050 BKN070 15/ RMK SC3SC2AC2=

CYVR;2006-06-16 15:00;METAR CYVR 161500Z 15007KT 15SM SCT028 BKN050 BKN075 15/12 A2994 RMK SC3SC2AC2 SLP139=

CYVR;2006-06-16 16:00;METAR CYVR 161600Z 14007KT 15SM FEW017 BKN028 BKN060 16/12 A2995 RMK SC2SC2SC2 SLP141=

CYVR;2006-06-16 17:00;METAR CYVR 161700Z 16005KT 15SM FEW020 SCT038 BKN095 18/13 A2995 RMK SC2CU2AC2 TCU ASOCTD SLP142=

CYVR;2006-06-16 17:30;SPECI CYVR 161730Z 19010KT 15SM -SHRA FEW018 BKN041 17/ RMK CF2CU5 TCU EMBD=

CYVR;2006-06-16 18:00;METAR CYVR 161800Z 16007KT 15SM -SHRA FEW018 BKN042 BKN065 16/13 A2996 RMK CF2CU3SC2 VIS HIER W SLP147=

CYVR;2006-06-16 18:25;SPECI CYVR 161825Z 16008KT 20SM FEW020 SCT040TCU BKN100 BKN240 18/ RMK CF2TCU2AC1CI1=

CYVR;2006-06-16 19:00;METAR CYVR 161900Z 17005KT 20SM FEW025 SCT042 BKN100 20/14 A2996 RMK CU2SC2AC2 TCU ASOCTD SLP146=

CYVR;2006-06-16 19:16;SPECI CYVR 161916Z 19011G16KT 20SM -SHRA FEW021 BKN034 BKN060 18/ RMK SF1CU4SC2 TCU ASOCTD=

CYVR;2006-06-16 19:50;SPECI CYVR 161950Z 19011G16KT 20SM FEW030 BKN078 19/ RMK SC2AC4=

CYVR;2006-06-16 21:00;METAR CYVR 162100Z 18014KT 30SM FEW038 SCT078 BKN220 18/10 A2998 RMK CU2AC2CI1 SLP153=

CYVR;2006-06-16 22:00;METAR CYVR 162200Z 19008KT 30SM FEW035 BKN077 BKN220 20/10 A2998 RMK CU2AC3CI1 SLP154=

CYVR;2006-06-16 23:00;METAR CYVR 162300Z 21009G15KT 30SM FEW035 BKN080 BKN220 20/10 A2999 RMK CU2AC2CI1 SLP157=

CYVR;2006-06-17 00:00;METAR CYVR 170000Z 22009G15KT 30SM FEW040 BKN200 20/10 A3001 RMK CU2CI2 SLP161=

CYVR;2006-06-17 02:00;METAR CYVR 170200Z 22014KT 30SM BKN061 BKN080 18/10 A3003 RMK SC6AC1 SLP168=

CYVR;2006-06-17 03:00;METAR CYVR 170300Z 22015KT 30SM BKN057 BKN075 17/09 A3004 RMK SC6AC2 SLP172=

CYVR;2006-06-17 04:00;METAR CYVR 170400Z 22014KT 30SM FEW040 BKN051 BKN080 17/10 A3006 RMK SC1SC6AC1 SLP180=

CYVR;2006-06-17 06:00;METAR CYVR 170600Z 22016KT 30SM FEW040 BKN062 BKN080 BKN140 15/09 A3011 RMK SC1SC4AC1AC1 SLP195=

CYVR;2006-06-17 07:00;METAR CYVR 170700Z 23015KT 20SM FEW040 SCT055 BKN140 15/08 A3012 RMK SC1SC3AC1 SLP200=

CYVR;2006-06-17 08:00;METAR CYVR 170800Z 23014KT 20SM FEW040 BKN061 BKN120 15/08 A3013 RMK SC1SC5AC2 SLP204=

CYVR;2006-06-17 09:00;METAR CYVR 170900Z 25009KT 20SM FEW040 BKN063 OVC120 15/09 A3014 RMK SC1SC6AC2 SLP207=

CYVR;2006-06-17 10:00;METAR CYVR 171000Z 22007KT 20SM FEW040 BKN067 OVC120 14/09 A3016 RMK SC1AC6AC2 SLP213=

CYVR;2006-06-17 11:00;METAR CYVR 171100Z 22003KT 20SM FEW040 BKN064 OVC100 14/09 A3017 RMK SC1SC6AC2 SLP217=

CYVR;2006-06-17 12:00;METAR CYVR 171200Z 17004KT 20SM FEW040 BKN064 OVC100 14/09 A3019 RMK SC1SC6AC2 SLP222=

CYVR;2006-06-17 13:00;METAR CYVR 171300Z 13006KT 20SM FEW040 BKN066 OVC110 14/09 A3020 RMK SC1AC6AC2 SLP226=

CYVR;2006-06-17 14:00;METAR CYVR 171400Z 11007KT 20SM FEW020 SCT040 BKN070 BKN120 14/10 A3021 RMK SC1SC2AC2AC2 SLP231=

CYVR;2006-06-17 15:00;METAR CYVR 171500Z 14006KT 20SM SCT035 BKN065 BKN120 14/10 A3022 RMK SC3SC2AC2 SLP235=

CYVR;2006-06-17 16:00;METAR CYVR 171600Z 11004KT 20SM FEW035 BKN079 BKN120 15/10 A3023 RMK SC2AC3AC2 SLP237=

CYVR;2006-06-17 18:00;METAR CYVR 171800Z 16008KT 20SM SCT027TCU BKN075 BKN130 15/09 A3024 RMK TCU3AC2AC1 SLP240=

CYVR;2006-06-17 19:00;METAR CYVR 171900Z 14004KT 20SM SCT030 BKN080 BKN130 16/10 A3025 RMK CU3AC2AC1 TCU ASOCTD SLP243=

CYVR;2006-06-17 21:00;METAR CYVR 172100Z 20011KT 30SM SCT045TCU BKN079 BKN120 18/10 A3024 RMK TCU3AC2AC1 SLP241=

CYVR;2006-06-17 22:00;METAR CYVR 172200Z 19012G20KT 30SM SCT040TCU BKN090 BKN120 18/10 A3025 RMK TCU3AC2AC1 SLP243=

CYVR;2006-06-17 23:00;METAR CYVR 172300Z 20007KT 20SM FEW035TCU BKN090 BKN110 17/10 A3025 RMK TCU2AC2AC1 SHS N OVR MTNS SLP243=

CYVR;2006-06-18 00:00;METAR CYVR 180000Z 19006KT 20SM FEW035TCU BKN095 BKN150 18/10 A3025 RMK TCU2AC4AC1 SLP243=

CYVR;2006-06-18 01:00;METAR CYVR 180100Z 22002KT 20SM FEW040 BKN075 BKN100 17/11 A3024 RMK CU2AC3AC1 TCU ASOCTD SLP239=

CYVR;2006-06-18 02:00;METAR CYVR 180200Z 24004KT 20SM FEW035 BKN072 OVC100 17/11 A3023 RMK SC2AC5AC2 SLP237=

CYVR;2006-06-18 04:00;METAR CYVR 180400Z 32003KT 20SM FEW078 BKN100 BKN210 15/10 A3022 RMK AC2AC1CI1 SLP232=

CYVR;2006-06-18 05:00;METAR CYVR 180500Z 02003KT 20SM FEW080 FEW100 BKN210 15/10 A3022 RMK AC1AC2CI1 SLP234=

CYVR;2006-06-18 07:00;METAR CYVR 180700Z 08006KT 20SM FEW064 BKN081 BKN220 13/10 A3021 RMK SC2AC2CI1 SLP229=

CYVR;2006-06-18 08:00;METAR CYVR 180800Z 06005KT 20SM FEW064 BKN080 BKN180 14/10 A3020 RMK SC2AC4AC2 SLP227=

CYVR;2006-06-18 09:00;METAR CYVR 180900Z 08004KT 20SM FEW064 BKN080 OVC220 13/10 A3019 RMK SC2AC4CI1 SLP223=

CYVR;2006-06-18 10:00;METAR CYVR 181000Z 09003KT 20SM FEW080 BKN210 14/10 A3019 RMK AC2CI2 SLP222=

CYVR;2006-06-18 11:00;METAR CYVR 181100Z 00000KT 20SM FEW080 BKN200 13/10 A3018 RMK AC2CI2 SLP219=

CYVR;2006-06-18 12:00;METAR CYVR 181200Z 11003KT 20SM BKN075 OVC200 12/10 A3017 RMK AC5CI2 SLP218=

CYVR;2006-06-18 13:00;METAR CYVR 181300Z 13003KT 20SM FEW055 BKN081 OVC200 13/10 A3017 RMK SC2AC5CI1 SLP217=

CYVR;2006-06-18 14:00;METAR CYVR 181400Z 16004KT 20SM FEW040 BKN061 BKN080 BKN200 14/10 A3018 RMK SC1SC4AC2CI1 SLP220=

CYVR;2006-06-18 15:00;METAR CYVR 181500Z 13004KT 20SM FEW040 SCT060 BKN081 BKN200 14/10 A3018 RMK SC1SC3AC2CI1 SLP221=

CYVR;2006-06-18 16:00;METAR CYVR 181600Z 11005KT 20SM FEW040 SCT060 BKN079 BKN200 15/11 A3018 RMK SC1SC2AC3CI1 SLP221=

CYVR;2006-06-18 18:00;METAR CYVR 181800Z 22007KT 20SM FEW040 BKN081 16/12 A3018 RMK CU2AC4 SLP221=

CYVR;2006-06-18 19:00;METAR CYVR 181900Z 24007KT 20SM FEW040 BKN082 17/10 A3019 RMK CU2AC3 TCU ASOCTD SLP222=

CYVR;2006-06-18 20:00;METAR CYVR 182000Z 24005KT 30SM FEW045 BKN078 17/09 A3019 RMK CU2AC2 SLP224=

CYVR;2006-06-18 21:00;METAR CYVR 182100Z 26004KT 30SM FEW050 FEW080 SCT220 18/08 A3019 RMK CU2AC1CI1 SLP224=

CYVR;2006-06-18 22:00;METAR CYVR 182200Z 26005KT 30SM FEW050 FEW090 18/08 A3019 RMK CU1AC2 SLP224=

CYVR;2006-06-18 23:00;METAR CYVR 182300Z 26007KT 30SM FEW050 FEW150 18/09 A3019 RMK CU2AC1 SLP224=

CYVR;2006-06-19 00:00;METAR CYVR 190000Z 24007KT 30SM FEW050 FEW080 18/08 A3019 RMK CU1AC1 SLP222=

CYVR;2006-06-19 01:00;METAR CYVR 190100Z 26007KT 30SM FEW050 FEW080 18/09 A3019 RMK CU1AC1 SLP222=

CYVR;2006-06-19 02:00;METAR CYVR 190200Z 25006KT 30SM FEW050 FEW080 18/10 A3018 RMK SC1AC1 SLP219=

CYVR;2006-06-19 03:00;METAR CYVR 190300Z 30007KT 30SM FEW050 FEW080 17/09 A3018 RMK SC1AC1 SLP219=

CYVR;2006-06-19 04:00;METAR CYVR 190400Z 29012KT 30SM SCT080 15/10 A3017 RMK AC3 SLP218=

CYVR;2006-06-19 05:00;METAR CYVR 190500Z 29017KT 30SM BKN076 15/11 A3018 RMK AC5 SLP219=

CYVR;2006-06-19 06:00;METAR CYVR 190600Z 30019KT 30SM BKN077 15/11 A3017 RMK AC7 SLP218=

CYVR;2006-06-19 08:00;METAR CYVR 190800Z 30016G22KT 20SM FEW060 BKN084 OVC110 15/10 A3018 RMK SC1AC6AC1 SLP219=

CYVR;2006-06-19 09:00;METAR CYVR 190900Z 30016G21KT 20SM FEW060 SCT084 14/10 A3017 RMK SC1AC2 SLP218=

CYVR;2006-06-19 10:00;METAR CYVR 191000Z 29016G21KT 20SM FEW080 14/09 A3017 RMK AC2 SLP218=

CYVR;2006-06-19 12:00;METAR CYVR 191200Z 29016G22KT 20SM FEW080 13/09 A3018 RMK AC1 SLP220=

CYVR;2006-06-19 13:00;METAR CYVR 191300Z 30014G20KT 20SM FEW018 FEW080 13/10 A3019 RMK CU1AC1 SLP222=

CYVR;2006-06-19 14:00;METAR CYVR 191400Z 29016KT 30SM FEW020 FEW080 14/09 A3019 RMK CF1AC1 SLP224=

CYVR;2006-06-19 15:00;METAR CYVR 191500Z 29016KT 30SM FEW021 FEW090 14/10 A3020 RMK SC2AC1 LO CLD E SLP226=

CYVR;2006-06-19 16:00;METAR CYVR 191600Z 29017KT 30SM FEW022 FEW040 FEW090 15/10 A3020 RMK SC1CU1AC1 LO CLD E SLP228=

CYVR;2006-06-19 17:00;METAR CYVR 191700Z 29019KT 30SM FEW025 FEW090 15/10 A3021 RMK CU2AC1 SLP229=

CYVR;2006-06-19 18:00;METAR CYVR 191800Z 29017KT 30SM FEW030 16/10 A3022 RMK CU2 SLP232=

CYVR;2006-06-19 19:00;METAR CYVR 191900Z 29011G17KT 30SM FEW030 16/11 A3022 RMK CU2 SLP233=

CYVR;2006-06-19 20:00;METAR CYVR 192000Z 28012KT 30SM FEW040 17/10 A3023 RMK CU2 SLP237=

CYVR;2006-06-19 21:00;METAR CYVR 192100Z 29009KT 30SM FEW050 FEW200 17/07 A3023 RMK CU1CI1 SLP238=

CYVR;2006-06-19 22:00;METAR CYVR 192200Z 22005KT 30SM FEW050 FEW200 17/08 A3023 RMK CU1CI1 SLP236=

CYVR;2006-06-19 23:00;METAR CYVR 192300Z 24005KT 30SM FEW050 FEW200 18/09 A3023 RMK CU1CI1 SLP237=

CYVR;2006-06-20 00:00;METAR CYVR 200000Z 22006KT 30SM FEW050 SCT210 18/08 A3022 RMK CU1CI2 SLP235=

CYVR;2006-06-20 01:00;METAR CYVR 200100Z 19007KT 30SM FEW040 SCT070 BKN210 18/08 A3022 RMK CU1AC2CI2 SLP233=

CYVR;2006-06-20 02:00;METAR CYVR 200200Z 16005KT 30SM SCT065 BKN210 18/08 A3021 RMK SC3CI3 SLP229=

CYVR;2006-06-20 03:00;METAR CYVR 200300Z 19003KT 30SM FEW065 BKN210 17/09 A3020 RMK SC2CI2 SLP228=

CYVR;2006-06-20 04:00;METAR CYVR 200400Z 00000KT 30SM FEW070 BKN210 17/08 A3021 RMK AC1CI2 SLP230=

CYVR;2006-06-20 05:00;METAR CYVR 200500Z 12004KT 30SM FEW070 BKN210 16/08 A3022 RMK AC1CI1 SLP234=

CYVR;2006-06-20 06:00;METAR CYVR 200600Z 11005KT 30SM FEW070 BKN210 14/10 A3023 RMK AC2CI2 SLP238=

CYVR;2006-06-20 07:00;METAR CYVR 200700Z 09006KT 20SM SCT060 BKN210 13/09 A3024 RMK SC4CI2 SLP239=

CYVR;2006-06-20 08:00;METAR CYVR 200800Z 11008KT 20SM BKN061 BKN210 13/09 A3024 RMK SC6CI1 SLP241=

CYVR;2006-06-20 09:00;METAR CYVR 200900Z 13010KT 20SM BKN064 BKN150 OVC210 14/09 A3025 RMK SC6AC1CI1 SLP243=

CYVR;2006-06-20 10:00;METAR CYVR 201000Z 10009KT 20SM SCT064 BKN210 12/09 A3025 RMK SC4CI1 SLP245=

CYVR;2006-06-20 11:00;METAR CYVR 201100Z 08006KT 20SM FEW064 BKN140 BKN200 11/08 A3026 RMK SC2AC3CI1 SLP246=

CYVR;2006-06-20 12:00;METAR CYVR 201200Z 09006KT 20SM FEW060 BKN140 BKN200 11/08 A3026 RMK SC2AC2CI1 SLP248=

CYVR;2006-06-20 13:00;METAR CYVR 201300Z 08007KT 20SM FEW035 SCT064 BKN081 12/09 A3027 RMK SC1SC3AC3 SLP251=

CYVR;2006-06-20 14:00;METAR CYVR 201400Z 09009KT 20SM FEW040 SCT055 BKN090 13/09 A3027 RMK SF1SC2AC0 SLP252=

CYVR;2006-06-20 15:00;METAR CYVR 201500Z 10009KT 20SM FEW038 BKN060 BKN090 13/10 A3028 RMK SF1SC2AC1 SLP254=

CYVR;2006-06-20 16:00;METAR CYVR 201600Z 11007KT 20SM FEW035 SCT090 15/11 A3029 RMK SC2AC1 SLP256=

CYVR;2006-06-20 18:00;METAR CYVR 201800Z 16006KT 20SM BKN025 BKN065 16/10 A3029 RMK SC5SC1 SLP257=

CYVR;2006-06-20 19:00;METAR CYVR 201900Z 25009KT 20SM BKN027 BKN065 16/11 A3030 RMK SC5SC1 SLP259=

CYVR;2006-06-20 20:00;METAR CYVR 202000Z 25008KT 20SM FEW035 FEW070 17/11 A3029 RMK CU1AC1 SLP258=

CYVR;2006-06-20 21:00;METAR CYVR 202100Z 23009G15KT 30SM FEW035 FEW040 FEW120 17/12 A3030 RMK CU1SC1AC0 TCU ASOCT SLP259=

CYVR;2006-06-20 23:00;METAR CYVR 202300Z 24007KT 30SM FEW040 FEW120 BKN220 19/10 A3028 RMK SC1AC1CI0 SLP254=

CYVR;2006-06-21 00:00;METAR CYVR 210000Z 25006KT 30SM FEW040 FEW120 BKN240 18/08 A3027 RMK SC1AC0CI2 SLP251=

CYVR;2006-06-21 01:00;METAR CYVR 210100Z 25005KT 30SM FEW040 FEW120 BKN240 18/10 A3027 RMK SC1AC1CI2 SLP249=

CYVR;2006-06-21 03:00;METAR CYVR 210300Z 24002KT 30SM FEW040 FEW160 BKN220 16/10 A3025 RMK SC1AC1CI2 SLP243=

CYVR;2006-06-21 04:00;METAR CYVR 210400Z 27003KT 30SM FEW050 FEW200 16/10 A3025 RMK SC1CI2 SLP243=

CYVR;2006-06-21 05:00;METAR CYVR 210500Z 00000KT 30SM FEW050 FEW200 16/10 A3026 RMK SC1CI1 SLP246=

CYVR;2006-06-21 06:00;METAR CYVR 210600Z 12003KT 30SM FEW050 16/09 A3026 RMK SC1 SLP246=

CYVR;2006-06-21 08:00;METAR CYVR 210800Z 10008KT 30SM FEW050 13/11 A3027 RMK SC1 SLP249=

CYVR;2006-06-21 09:00;METAR CYVR 210900Z 10009KT 30SM FEW200 12/10 A3027 RMK CI1 SLP251=

CYVR;2006-06-21 10:00;METAR CYVR 211000Z 10006KT 30SM FEW210 11/09 A3028 RMK CI0 SLP253=

CYVR;2006-06-21 12:00;METAR CYVR 211200Z 09006KT 20SM FEW025 SCT055 10/08 A3029 RMK SC2SC2 SLP258=

CYVR;2006-06-21 13:00;METAR CYVR 211300Z 09006KT 20SM FEW025 SCT055 BKN070 12/09 A3030 RMK SC2SC2AC2 SLP261=

CYVR;2006-06-21 14:00;METAR CYVR 211400Z 09008KT 15SM FEW025 SCT055 BKN077 13/10 A3031 RMK SC2SC2AC2 SLP265=

CYVR;2006-06-21 15:00;METAR CYVR 211500Z 10006KT 20SM FEW035 BKN051 BKN075 14/11 A3033 RMK SC2SC3AC1 SLP271=

CYVR;2006-06-21 16:00;METAR CYVR 211600Z 11007KT 20SM FEW035 SCT050 BKN080 14/11 A3033 RMK SC2SC2AC2 SLP271=

CYVR;2006-06-21 17:00;METAR CYVR 211700Z 20003KT 20SM FEW030 FEW035 SCT072 BKN085 16/11 A3033 RMK CF1SC1AC1AC2 TR CF SLP271=

CYVR;2006-06-21 20:00;METAR CYVR 212000Z 26009KT 30SM FEW035 FEW040 FEW120 SCT220 19/11 A3034 RMK CF1SC1AC1CI1 TR CF CONTRAILS SLP275=

CYVR;2006-06-21 21:00;METAR CYVR 212100Z 24008KT 30SM FEW035 FEW100 BKN220 18/11 A3034 RMK SC1AC1CI1 CONTRAILS SLP275=

CYVR;2006-06-21 22:00;METAR CYVR 212200Z 23007KT 30SM FEW035 FEW100 BKN220 20/08 A3034 RMK SC1AC0CI1 CONTRAILS SLP274=

CYVR;2006-06-22 00:00;METAR CYVR 220000Z 22007KT 30SM FEW035 FEW100 SCT220 20/10 A3033 RMK CF1AC1CI1 TR CF SLP271=

CYVR;2006-06-22 01:00;METAR CYVR 220100Z 23006KT 30SM FEW035 FEW100 FEW220 19/09 A3032 RMK CF1AC1CI0 TR CF CONTRAILS SLP266=

CYVR;2006-06-22 02:00;METAR CYVR 220200Z 23006KT 30SM FEW035 FEW100 FEW220 19/09 A3031 RMK SC1AC1CI0 SLP264=

CYVR;2006-06-22 03:00;METAR CYVR 220300Z 22006KT 30SM FEW035 FEW100 BKN220 19/10 A3030 RMK SC1AC2CI2 CONTRAILS SLP261=

CYVR;2006-06-22 04:00;METAR CYVR 220400Z 20003KT 30SM FEW100 SCT220 18/10 A3029 RMK AC1CI1 SLP258=

CYVR;2006-06-22 06:00;METAR CYVR 220600Z 13003KT 20SM FEW100 FEW220 16/10 A3030 RMK AC1CI0 SLP260=

CYVR;2006-06-22 07:00;METAR CYVR 220700Z 10005KT 20SM FEW100 SCT220 14/11 A3030 RMK AC1CI2 SLP259=

CYVR;2006-06-22 08:00;METAR CYVR 220800Z 10008KT 20SM BKN200 14/11 A3029 RMK CS6 SLP258=

CYVR;2006-06-22 10:00;METAR CYVR 221000Z 10008KT 20SM OVC210 12/11 A3029 RMK CS6 SLP257=

CYVR;2006-06-22 12:00;METAR CYVR 221200Z 09006KT 15SM FEW053 SCT090 SCT200 11/09 A3030 RMK SC2AC2CI1 SLP259=

CYVR;2006-06-22 12:34;SPECI CYVR 221234Z 09005KT 15SM FEW009 SCT051 BKN090 BKN200 12/ RMK SF2SC2AC2CI1=

CYVR;2006-06-22 13:00;METAR CYVR 221300Z 08007KT 15SM SCT009 BKN051 12/10 A3030 RMK ST3SC2 SLP261=

CYVR;2006-06-22 14:00;METAR CYVR 221400Z 10006KT 15SM SCT009 BKN051 13/11 A3031 RMK SF3SC2 SLP263=

CYVR;2006-06-22 14:17;SPECI CYVR 221417Z 10008KT 15SM BKN010 BKN051 14/ RMK ST5SC2=

CYVR;2006-06-22 14:38;SPECI CYVR 221438Z 11007KT 15SM SCT010 BKN051 14/ RMK ST4SC1=

CYVR;2006-06-22 15:00;METAR CYVR 221500Z 09008KT 20SM BKN011 BKN051 14/11 A3032 RMK SC4SC1 SLP268=

CYVR;2006-06-22 15:35;SPECI CYVR 221535Z 10007KT 20SM BKN014 BKN060 14/ RMK SC5SC2=

CYVR;2006-06-22 18:00;METAR CYVR 221800Z 15010KT 20SM FEW025 FEW030 FEW100 17/11 A3033 RMK CF1SC1AC1 TR CF SLP271=

CYVR;2006-06-22 19:00;METAR CYVR 221900Z 15005KT 20SM FEW035 SCT080 18/11 A3033 RMK SC1AC1 SLP272=

CYVR;2006-06-22 20:00;METAR CYVR 222000Z 20004KT 20SM FEW030 FEW035 SCT075 19/12 A3033 RMK CU1SC1AC0 SLP271=

CYVR;2006-06-22 21:00;METAR CYVR 222100Z 22009G15KT 30SM FEW040 FEW070 SCT220 21/12 A3032 RMK CU2AC1CI0 SLP269=

CYVR;2006-06-22 22:00;METAR CYVR 222200Z 21009G15KT 30SM FEW035 FEW220 21/09 A3032 RMK SC2CI1 CONTRAILS TR CI SLP269=

CYVR;2006-06-23 00:00;METAR CYVR 230000Z 19010KT 30SM FEW040 BKN220 21/06 A3031 RMK CU1CI1 CONTRAILS SLP265=

CYVR;2006-06-23 01:00;METAR CYVR 230100Z 21011KT 30SM FEW040 BKN220 20/05 A3031 RMK CU1CI1 CONTRAILS SLP265=

CYVR;2006-06-23 04:00;METAR CYVR 230400Z 16003KT 30SM FEW040 FEW220 17/08 A3031 RMK SC1CI1 SLP263=

CYVR;2006-06-23 06:00;METAR CYVR 230600Z 16002KT 30SM FEW055 16/08 A3033 RMK SC1 SLP270=

CYVR;2006-06-23 07:00;METAR CYVR 230700Z 10004KT 30SM FEW055 15/08 A3034 RMK SC1 SLP273=

CYVR;2006-06-23 09:00;METAR CYVR 230900Z 16003KT 30SM SKC 14/08 A3035 RMK SLP276=

CYVR;2006-06-23 10:00;METAR CYVR 231000Z 11004KT 30SM SKC 12/08 A3035 RMK SLP277=

CYVR;2006-06-23 11:00;METAR CYVR 231100Z 11005KT 30SM FEW090 11/07 A3036 RMK AC1 SLP280=

CYVR;2006-06-23 12:00;METAR CYVR 231200Z 12007KT 30SM FEW025 11/07 A3036 RMK SC2 SLP281=

CYVR;2006-06-23 13:00;METAR CYVR 231300Z 04002KT 30SM FEW030 SCT210 12/08 A3037 RMK SC2CI1 SLP286=

CYVR;2006-06-23 14:00;METAR CYVR 231400Z 10002KT 30SM FEW220 14/10 A3038 RMK CI1 CONTRAILS SLP289=

CYVR;2006-06-23 15:00;METAR CYVR 231500Z 14002KT 20SM SCT220 15/11 A3039 RMK CI2 SLP291=

CYVR;2006-06-23 16:00;METAR CYVR 231600Z 21002KT 30SM FEW040 FEW220 17/10 A3039 RMK CF1CI0 TR CF SLP290=

CYVR;2006-06-23 17:00;METAR CYVR 231700Z 24005KT 30SM FEW040 FEW220 17/10 A3037 RMK CF1CI0 SLP286=

CYVR;2006-06-23 18:00;METAR CYVR 231800Z 26010KT 30SM FEW040 BKN220 18/12 A3039 RMK CU0CI0 SLP290=

CYVR;2006-06-23 19:00;METAR CYVR 231900Z 26009KT 30SM FEW040 BKN220 18/12 A3038 RMK CF1CI0 SLP288=

CYVR;2006-06-23 21:00;METAR CYVR 232100Z 26009KT 30SM FEW040 BKN240 19/13 A3036 RMK CF1CI0 SLP280=

CYVR;2006-06-23 23:00;METAR CYVR 232300Z 27008KT 30SM FEW040 OVC240 19/13 A3033 RMK CF1CI5 TR CF SLP272=

CYVR;2006-06-24 00:00;METAR CYVR 240000Z 26007KT 30SM FEW040 SCT240 20/14 A3032 RMK CU1CI0 SLP266=

CYVR;2006-06-24 01:00;METAR CYVR 240100Z 20008KT 30SM FEW040 SCT220 20/13 A3030 RMK CF1CI0 SLP260=

CYVR;2006-06-24 02:00;METAR CYVR 240200Z 25006KT 30SM FEW220 20/13 A3029 RMK CI0 SLP256=

CYVR;2006-06-24 03:00;METAR CYVR 240300Z 23006KT 30SM BKN220 19/13 A3028 RMK CI2 CONTRAILS SLP254=

CYVR;2006-06-24 04:00;METAR CYVR 240400Z 20004KT 30SM SCT220 19/11 A3028 RMK CI2 SLP253=

CYVR;2006-06-24 05:00;METAR CYVR 240500Z 18003KT 30SM FEW220 18/11 A3029 RMK CI1 SLP257=

CYVR;2006-06-24 06:00;METAR CYVR 240600Z 16003KT 30SM FEW220 17/11 A3029 RMK CI1 SLP258=

CYVR;2006-06-24 07:00;METAR CYVR 240700Z 12004KT 30SM FEW220 16/11 A3030 RMK CI1 SLP259=

CYVR;2006-06-24 09:00;METAR CYVR 240900Z 10005KT 30SM FEW220 15/11 A3030 RMK CI1 SLP260=

CYVR;2006-06-24 10:00;METAR CYVR 241000Z 11003KT 30SM SKC 14/12 A3030 RMK SLP260=

CYVR;2006-06-24 11:00;METAR CYVR 241100Z 12004KT 30SM FEW220 15/11 A3030 RMK CI1 SLP262=

CYVR;2006-06-24 12:00;METAR CYVR 241200Z 36003KT 30SM FEW220 14/11 A3031 RMK CI1 SLP265=

CYVR;2006-06-24 13:00;METAR CYVR 241300Z 36002KT 30SM FEW220 14/10 A3032 RMK CI0 SLP269=

CYVR;2006-06-24 14:00;METAR CYVR 241400Z 00000KT 30SM SKC 17/10 A3033 RMK SLP270=

CYVR;2006-06-24 15:00;METAR CYVR 241500Z 27004KT 30SM SKC 18/12 A3033 RMK SLP270=

CYVR;2006-06-24 16:00;METAR CYVR 241600Z 32009KT 30SM SKC 19/12 A3032 RMK SLP269=

CYVR;2006-06-24 17:00;METAR CYVR 241700Z 30010KT 30SM SKC 19/12 A3033 RMK SLP270=

CYVR;2006-06-24 18:00;METAR CYVR 241800Z 31010KT 30SM SKC 20/15 A3033 RMK SLP270=

CYVR;2006-06-24 19:00;METAR CYVR 241900Z 30008KT 30SM SKC 21/14 A3032 RMK SLP266=

CYVR;2006-06-24 20:00;METAR CYVR 242000Z 29009KT 30SM SKC 22/12 A3030 RMK SLP262=

CYVR;2006-06-24 21:00;METAR CYVR 242100Z 30012KT 30SM SKC 22/13 A3030 RMK SLP260=

CYVR;2006-06-24 22:00;METAR CYVR 242200Z 31011KT 30SM SKC 23/12 A3029 RMK SLP256=

CYVR;2006-06-24 23:00;METAR CYVR 242300Z 30011KT 30SM SKC 23/13 A3027 RMK SLP251=

CYVR;2006-06-25 00:00;METAR CYVR 250000Z 30010KT 30SM SKC 23/14 A3025 RMK SLP245=

CYVR;2006-06-25 01:00;METAR CYVR 250100Z 31010KT 30SM SKC 23/13 A3024 RMK SLP239=

CYVR;2006-06-25 03:00;METAR CYVR 250300Z 31007KT 30SM SKC 22/13 A3022 RMK SLP235=

CYVR;2006-06-25 04:00;METAR CYVR 250400Z 32008KT 30SM FEW240 20/14 A3022 RMK CS0 SLP233=

CYVR;2006-06-25 05:00;METAR CYVR 250500Z 32009KT 30SM FEW240 21/11 A3022 RMK CS0 SLP233=

CYVR;2006-06-25 06:00;METAR CYVR 250600Z 00000KT 30SM FEW240 20/12 A3022 RMK CI0 SLP235=

CYVR;2006-06-25 07:00;METAR CYVR 250700Z 03002KT 30SM SKC 20/11 A3023 RMK SLP237=

CYVR;2006-06-25 08:00;METAR CYVR 250800Z 36002KT 30SM SKC 18/11 A3023 RMK SLP238=

CYVR;2006-06-25 09:00;METAR CYVR 250900Z 29002KT 30SM SKC 17/11 A3024 RMK SLP240=

CYVR;2006-06-25 10:00;METAR CYVR 251000Z 08003KT 30SM SKC 17/11 A3024 RMK SLP241=

CYVR;2006-06-25 11:00;METAR CYVR 251100Z 24004KT 30SM SKC 18/13 A3025 RMK SLP243=

CYVR;2006-06-25 12:00;METAR CYVR 251200Z 30006KT 30SM SKC 15/12 A3025 RMK SLP245=

CYVR;2006-06-25 13:00;METAR CYVR 251300Z 31009KT 30SM SKC 17/16 A3026 RMK SLP248=

CYVR;2006-06-25 14:00;METAR CYVR 251400Z 33011KT 30SM SKC 19/14 A3026 RMK SLP248=

CYVR;2006-06-25 15:00;METAR CYVR 251500Z 31012KT 30SM SKC 19/15 A3027 RMK SLP251=

CYVR;2006-06-25 16:00;METAR CYVR 251600Z 31012KT 30SM SKC 20/16 A3028 RMK SLP253=

CYVR;2006-06-25 17:00;METAR CYVR 251700Z 31013KT 30SM SKC 20/16 A3028 RMK SLP253=

CYVR;2006-06-25 18:00;METAR CYVR 251800Z 30015KT 30SM SKC 21/16 A3027 RMK SLP249=

CYVR;2006-06-25 19:00;METAR CYVR 251900Z 31015KT 30SM SKC 22/16 A3026 RMK SLP246=

CYVR;2006-06-25 20:00;METAR CYVR 252000Z 30014KT 30SM SKC 23/15 A3024 RMK SLP242=

CYVR;2006-06-25 21:00;METAR CYVR 252100Z 31015KT 30SM SKC 24/16 A3022 RMK SLP235=

CYVR;2006-06-25 22:00;METAR CYVR 252200Z 30014KT 30SM SKC 25/15 A3020 RMK SLP228=

CYVR;2006-06-25 23:00;METAR CYVR 252300Z 31015KT 30SM SKC 25/14 A3018 RMK SLP220=

CYVR;2006-06-26 00:00;METAR CYVR 260000Z 31013KT 30SM SKC 24/15 A3016 RMK SLP213=

CYVR;2006-06-26 01:00;METAR CYVR 260100Z 31014KT 30SM SKC 24/15 A3014 RMK SLP206=

CYVR;2006-06-26 02:00;METAR CYVR 260200Z 32012KT 30SM SKC 23/15 A3013 RMK SLP202=

CYVR;2006-06-26 03:00;METAR CYVR 260300Z 32013KT 30SM SKC 23/15 A3011 RMK SLP197=

CYVR;2006-06-26 04:00;METAR CYVR 260400Z 32011KT 30SM SKC 22/14 A3011 RMK SLP195=

CYVR;2006-06-26 05:00;METAR CYVR 260500Z 32013KT 30SM SKC 22/15 A3011 RMK SLP197=

CYVR;2006-06-26 06:00;METAR CYVR 260600Z 33010KT 30SM SKC 23/14 A3011 RMK SLP198=

CYVR;2006-06-26 07:00;METAR CYVR 260700Z 31014KT 30SM SKC 20/16 A3012 RMK SLP199=

CYVR;2006-06-26 08:00;METAR CYVR 260800Z 31010G18KT 30SM SKC 20/16 A3012 RMK SLP199=

CYVR;2006-06-26 09:00;METAR CYVR 260900Z 31011KT 30SM SKC 18/16 A3012 RMK SLP200=

CYVR;2006-06-26 10:00;METAR CYVR 261000Z 31011G16KT 30SM SKC 18/16 A3012 RMK SLP200=

CYVR;2006-06-26 12:00;METAR CYVR 261200Z 31017KT 30SM SKC 17/15 A3012 RMK SLP199=

CYVR;2006-06-26 13:00;METAR CYVR 261300Z 30018KT 30SM SKC 17/15 A3012 RMK SLP199=

CYVR;2006-06-26 14:00;METAR CYVR 261400Z 31018KT 30SM SKC 17/15 A3012 RMK SLP200=

CYVR;2006-06-26 15:00;METAR CYVR 261500Z 31015KT 30SM SKC 18/15 A3012 RMK SLP201=

CYVR;2006-06-26 16:00;METAR CYVR 261600Z 31019KT 30SM SKC 19/15 A3012 RMK SLP199=

CYVR;2006-06-26 17:00;METAR CYVR 261700Z 30019KT 30SM SKC 19/15 A3010 RMK SLP194=

CYVR;2006-06-26 18:00;METAR CYVR 261800Z 31018KT 30SM SKC 20/15 A3009 RMK SLP188=

CYVR;2006-06-26 19:00;METAR CYVR 261900Z 30017KT 30SM SKC 21/15 A3007 RMK SLP182=

CYVR;2006-06-26 20:00;METAR CYVR 262000Z 31016KT 30SM SKC 22/15 A3005 RMK SLP176=

CYVR;2006-06-26 21:00;METAR CYVR 262100Z 31018KT 30SM SKC 23/15 A3002 RMK SLP167=

CYVR;2006-06-26 22:00;METAR CYVR 262200Z 32014G19KT 30SM SKC 23/15 A3000 RMK SLP158=

CYVR;2006-06-26 23:00;METAR CYVR 262300Z 32015KT 30SM SKC 24/15 A2997 RMK SLP149=

CYVR;2006-06-27 00:00;METAR CYVR 270000Z 31015KT 30SM SKC 23/15 A2994 RMK SLP138=

CYVR;2006-06-27 01:00;METAR CYVR 270100Z 32014KT 30SM SKC 23/15 A2992 RMK SLP131=

CYVR;2006-06-27 02:00;METAR CYVR 270200Z 32015KT 30SM SKC 22/15 A2989 RMK SLP122=

CYVR;2006-06-27 03:00;METAR CYVR 270300Z 31014KT 30SM SKC 21/15 A2988 RMK SLP120=

CYVR;2006-06-27 04:00;METAR CYVR 270400Z 32014KT 30SM FEW200 20/15 A2988 RMK CI1 SLP117=

CYVR;2006-06-27 06:00;METAR CYVR 270600Z 33015KT 30SM FEW160 20/13 A2988 RMK AC1 SLP120=

CYVR;2006-06-27 08:00;METAR CYVR 270800Z 31018KT 30SM SKC 18/14 A2989 RMK SLP122=

CYVR;2006-06-27 09:00;METAR CYVR 270900Z 32015KT 30SM SKC 17/14 A2990 RMK SLP124=

CYVR;2006-06-27 10:00;METAR CYVR 271000Z 31015KT 30SM SKC 17/14 A2990 RMK SLP124=

CYVR;2006-06-27 11:00;METAR CYVR 271100Z 31016KT 30SM FEW120 16/14 A2990 RMK AC1 SLP126=

CYVR;2006-06-27 12:00;METAR CYVR 271200Z 31017KT 30SM FEW150 16/14 A2991 RMK AC1 SLP127=

CYVR;2006-06-27 13:00;METAR CYVR 271300Z 31020KT 30SM FEW220 16/13 A2991 RMK CI1 SLP130=

CYVR;2006-06-27 14:00;METAR CYVR 271400Z 31016G21KT 30SM FEW220 16/14 A2992 RMK CI1 SLP133=

CYVR;2006-06-27 15:00;METAR CYVR 271500Z 30016G21KT 30SM FEW220 17/14 A2993 RMK CI1 SLP136=

CYVR;2006-06-27 16:00;METAR CYVR 271600Z 30017KT 30SM FEW220 17/14 A2993 RMK CI1 SLP137=

CYVR;2006-06-27 17:00;METAR CYVR 271700Z 30016G21KT 30SM FEW220 19/14 A2994 RMK CI1 TR CI SLP138=

CYVR;2006-06-27 18:00;METAR CYVR 271800Z 30015KT 30SM SKC 19/14 A2994 RMK SLP139=

CYVR;2006-06-27 19:00;METAR CYVR 271900Z 30014KT 30SM FEW220 19/14 A2995 RMK CI1 SLP143=

CYVR;2006-06-27 20:00;METAR CYVR 272000Z 30010KT 30SM FEW220 20/14 A2995 RMK CI1 SLP142=

CYVR;2006-06-27 21:00;METAR CYVR 272100Z 30006KT 30SM SKC 21/14 A2994 RMK SLP140=

CYVR;2006-06-27 22:00;METAR CYVR 272200Z 30011KT 30SM SKC 22/14 A2994 RMK SLP139=

CYVR;2006-06-27 23:00;METAR CYVR 272300Z 31010KT 30SM SKC 22/14 A2993 RMK SLP137=

CYVR;2006-06-28 00:00;METAR CYVR 280000Z 31006KT 30SM SKC 22/13 A2992 RMK SLP132=

CYVR;2006-06-28 01:00;METAR CYVR 280100Z 29008KT 30SM FEW220 20/14 A2992 RMK CI1 TR CI SLP133=

CYVR;2006-06-28 03:00;METAR CYVR 280300Z 30007KT 30SM SKC 20/13 A2992 RMK SLP132=

CYVR;2006-06-28 04:00;METAR CYVR 280400Z 28008KT 30SM SKC 18/14 A2993 RMK SLP135=

CYVR;2006-06-28 05:00;METAR CYVR 280500Z 31008KT 30SM SKC 17/14 A2995 RMK SLP142=

CYVR;2006-06-28 06:00;METAR CYVR 280600Z 31009KT 30SM SKC 17/13 A2996 RMK SLP145=

CYVR;2006-06-28 07:00;METAR CYVR 280700Z 30016G24KT 30SM SKC 16/12 A2997 RMK SLP150=

CYVR;2006-06-28 09:00;METAR CYVR 280900Z 29020KT 30SM SKC 15/10 A3002 RMK SLP165=

CYVR;2006-06-28 10:00;METAR CYVR 281000Z 30009G15KT 30SM SKC 14/10 A3004 RMK SLP173=

CYVR;2006-06-28 11:00;METAR CYVR 281100Z 30012KT 30SM SKC 13/10 A3005 RMK SLP175=

CYVR;2006-06-28 12:00;METAR CYVR 281200Z 30011KT 30SM FEW220 12/09 A3006 RMK CI0 SLP181=

CYVR;2006-06-28 13:00;METAR CYVR 281300Z 30010KT 30SM FEW020 FEW220 13/10 A3008 RMK SF1CI1 TR SF SLP187=

CYVR;2006-06-28 14:00;METAR CYVR 281400Z 31010KT 30SM FEW220 14/10 A3009 RMK CI1 SLP191=

CYVR;2006-06-28 15:00;METAR CYVR 281500Z 30013KT 30SM FEW035 15/10 A3010 RMK SC1 SLP193=

CYVR;2006-06-28 16:00;METAR CYVR 281600Z 30011KT 30SM FEW040 15/11 A3010 RMK CU1 TR CU SLP194=

CYVR;2006-06-28 17:00;METAR CYVR 281700Z 30013KT 30SM FEW040 16/10 A3010 RMK CU1 TR CU SLP194=

CYVR;2006-06-28 18:00;METAR CYVR 281800Z 30012KT 30SM FEW040 17/10 A3011 RMK CU1 TR CU SLP196=

CYVR;2006-06-28 19:00;METAR CYVR 281900Z 30011KT 30SM FEW040 FEW220 17/11 A3011 RMK CU1CI1 SLP198=

CYVR;2006-06-28 20:00;METAR CYVR 282000Z 31010KT 30SM FEW040 FEW220 18/10 A3011 RMK CU1CI1 TR CU TR CI SLP196=

CYVR;2006-06-28 21:00;METAR CYVR 282100Z 30008KT 30SM FEW220 18/10 A3011 RMK CI1 SLP195=

CYVR;2006-06-28 22:00;METAR CYVR 282200Z 29008KT 30SM FEW220 19/11 A3009 RMK CI1 SLP190=

CYVR;2006-06-28 23:00;METAR CYVR 282300Z 29008KT 30SM FEW220 19/10 A3009 RMK CI1 SLP190=

CYVR;2006-06-29 00:00;METAR CYVR 290000Z 29006KT 30SM FEW220 19/09 A3008 RMK CI1 SLP185=

CYVR;2006-06-29 01:00;METAR CYVR 290100Z 29006KT 30SM FEW220 19/09 A3007 RMK CI1 SLP184=

CYVR;2006-06-29 03:00;METAR CYVR 290300Z 30005KT 30SM SCT220 18/10 A3007 RMK CI1 SLP182=

CYVR;2006-06-29 04:00;METAR CYVR 290400Z 28005KT 30SM FEW220 17/10 A3006 RMK CI2 SLP181=

CYVR;2006-06-29 05:00;METAR CYVR 290500Z 28004KT 30SM FEW220 17/10 A3008 RMK CI1 SLP186=

CYVR;2006-06-29 06:00;METAR CYVR 290600Z 31008KT 30SM FEW220 16/11 A3008 RMK CI1 SLP186=

CYVR;2006-06-29 07:00;METAR CYVR 290700Z 31008KT 30SM FEW220 15/10 A3008 RMK CI1 SLP186=

CYVR;2006-06-29 09:00;METAR CYVR 290900Z 33005KT 30SM FEW220 15/10 A3009 RMK CI0 SLP190=

CYVR;2006-06-29 10:00;METAR CYVR 291000Z 35006KT 30SM SKC 13/08 A3010 RMK SLP193=

CYVR;2006-06-29 12:00;METAR CYVR 291200Z 31013KT 30SM FEW220 13/10 A3011 RMK CI1 SLP197=

CYVR;2006-06-29 13:00;METAR CYVR 291300Z 31014KT 30SM FEW220 14/10 A3012 RMK CI1 SLP200=

CYVR;2006-06-29 14:00;METAR CYVR 291400Z 31011KT 30SM FEW220 15/11 A3013 RMK CI0 SLP203=

CYVR;2006-06-29 15:00;METAR CYVR 291500Z 31013KT 30SM FEW220 15/11 A3013 RMK CI0 SLP204=

CYVR;2006-06-29 16:00;METAR CYVR 291600Z 31012KT 30SM FEW220 16/11 A3014 RMK CI1 TR CI SLP205=

CYVR;2006-06-29 17:00;METAR CYVR 291700Z 30014KT 30SM FEW220 17/11 A3013 RMK CI1 TR CI SLP203=

CYVR;2006-06-29 18:00;METAR CYVR 291800Z 31014KT 30SM FEW220 17/11 A3011 RMK CI1 SLP198=

CYVR;2006-06-29 19:00;METAR CYVR 291900Z 30015KT 30SM FEW220 18/11 A3011 RMK CI0 SLP195=

CYVR;2006-06-29 20:00;METAR CYVR 292000Z 31012KT 30SM FEW220 19/12 A3009 RMK CI0 SLP191=

CYVR;2006-06-29 21:00;METAR CYVR 292100Z 31011KT 30SM FEW220 20/12 A3009 RMK CI0 SLP188=

CYVR;2006-06-29 22:00;METAR CYVR 292200Z 31011KT 30SM FEW220 21/13 A3007 RMK CI0 SLP184=

CYVR;2006-06-29 23:00;METAR CYVR 292300Z 31008KT 30SM FEW220 22/12 A3006 RMK CI0 SLP181=

CYVR;2006-06-30 00:00;METAR CYVR 300000Z 28005KT 30SM FEW220 21/12 A3006 RMK CI0 SLP180=

CYVR;2006-06-30 01:00;METAR CYVR 300100Z 29005KT 30SM FEW150 FEW220 21/12 A3006 RMK AC1CI0 SLP179=

CYVR;2006-06-30 02:00;METAR CYVR 300200Z 20003KT 30SM BKN180 BKN220 21/11 A3006 RMK AC3CI1 SLP178=

CYVR;2006-06-30 03:00;METAR CYVR 300300Z 19002KT 30SM BKN180 BKN220 22/09 A3006 RMK AC5CI1 SLP181=

CYVR;2006-06-30 04:00;METAR CYVR 300400Z 03005KT 30SM SCT180 BKN220 20/12 A3007 RMK AC4CS2 SLP182=

CYVR;2006-06-30 05:00;METAR CYVR 300500Z 14004KT 30SM SCT180 BKN220 20/08 A3008 RMK AC4CI0 SLP187=

CYVR;2006-06-30 06:00;METAR CYVR 300600Z 10004KT 30SM SCT150 19/12 A3009 RMK AC4 SLP189=

CYVR;2006-06-30 07:00;METAR CYVR 300700Z 10006KT 30SM SCT150 17/10 A3009 RMK AC2 SLP190=

CYVR;2006-06-30 09:00;METAR CYVR 300900Z 11003KT 30SM SKC 17/10 A3009 RMK SLP188=

CYVR;2006-06-30 10:00;METAR CYVR 301000Z 11007KT 30SM SKC 15/10 A3009 RMK SLP191=

CYVR;2006-06-30 11:00;METAR CYVR 301100Z 10003KT 30SM FEW065 16/10 A3010 RMK SC1 TR SC SLP193=

CYVR;2006-06-30 12:00;METAR CYVR 301200Z 00000KT 30SM FEW070 15/10 A3011 RMK AC1 SLP197=

CYVR;2006-06-30 13:00;METAR CYVR 301300Z 00000KT 30SM FEW070 16/10 A3012 RMK AC1 SLP201=

CYVR;2006-06-30 14:00;METAR CYVR 301400Z 00000KT 30SM FEW070 18/11 A3013 RMK AC1 TR AC SLP203=

CYVR;2006-06-30 15:00;METAR CYVR 301500Z 28004KT 30SM SKC 19/12 A3014 RMK SLP206=

CYVR;2006-06-30 16:00;METAR CYVR 301600Z 31004KT 30SM SKC 20/11 A3014 RMK SLP208=

CYVR;2006-06-30 17:00;METAR CYVR 301700Z 31007KT 30SM SKC 21/13 A3014 RMK SLP207=

CYVR;2006-06-30 18:00;METAR CYVR 301800Z 30006KT 30SM SKC 21/11 A3013 RMK SLP203=

CYVR;2006-06-30 20:00;METAR CYVR 302000Z 25005KT 30SM SKC 23/13 A3011 RMK HZ SLP197=

CYVR;2006-06-30 21:00;METAR CYVR 302100Z 24007KT 30SM SKC 23/14 A3010 RMK HZ SLP194=

CYVR;2006-06-30 22:00;METAR CYVR 302200Z 26004KT 30SM SKC 24/14 A3008 RMK HZ SLP187=

CYVR;2006-07-01 00:00;METAR CYVR 010000Z 26007KT 30SM SKC 25/14 A3005 RMK SLP175=

CYVR;2006-07-01 01:00;METAR CYVR 010100Z 26006KT 30SM SKC 24/14 A3004 RMK SLP171=

CYVR;2006-07-01 02:00;METAR CYVR 010200Z 27005KT 30SM SKC 24/13 A3003 RMK SLP168=

CYVR;2006-07-01 03:00;METAR CYVR 010300Z 28003KT 30SM SKC 22/14 A3002 RMK SLP166=

CYVR;2006-07-01 04:00;METAR CYVR 010400Z 31002KT 30SM SKC 22/12 A3002 RMK SLP165=

CYVR;2006-07-01 05:00;METAR CYVR 010500Z 00000KT 30SM FEW220 21/11 A3002 RMK CI0 SLP167=

CYVR;2006-07-01 06:00;METAR CYVR 010600Z 10006KT 30SM FEW220 18/12 A3003 RMK CI0 SLP170=

CYVR;2006-07-01 07:00;METAR CYVR 010700Z 13005KT 30SM SKC 19/12 A3003 RMK SLP169=

CYVR;2006-07-01 08:00;METAR CYVR 010800Z 11006KT 30SM SKC 18/13 A3004 RMK SLP173=

CYVR;2006-07-01 09:00;METAR CYVR 010900Z 09003KT 30SM SKC 16/12 A3005 RMK SLP176=

CYVR;2006-07-01 10:00;METAR CYVR 011000Z 09004KT 30SM SKC 15/13 A3006 RMK SLP179=

CYVR;2006-07-01 11:00;METAR CYVR 011100Z 15005KT 30SM FEW220 16/11 A3007 RMK CI0 SLP184=

CYVR;2006-07-01 12:00;METAR CYVR 011200Z 12004KT 30SM FEW220 15/11 A3008 RMK CI0 SLP185=

CYVR;2006-07-01 13:00;METAR CYVR 011300Z 13004KT 30SM SKC 15/10 A3009 RMK SLP189=

CYVR;2006-07-01 14:00;METAR CYVR 011400Z 11006KT 30SM FEW220 16/10 A3010 RMK CI1 TR CI SLP193=

CYVR;2006-07-01 15:00;METAR CYVR 011500Z 09005KT 30SM FEW220 17/11 A3011 RMK CI1 TR CI SLP197=

CYVR;2006-07-01 16:00;METAR CYVR 011600Z 14004KT 30SM SKC 19/10 A3011 RMK SLP198=

CYVR;2006-07-01 17:00;METAR CYVR 011700Z 16006KT 30SM SKC 20/11 A3012 RMK SLP199=

CYVR;2006-07-01 18:00;METAR CYVR 011800Z 15005KT 30SM SKC 21/11 A3011 RMK SLP197=

CYVR;2006-07-01 19:00;METAR CYVR 011900Z 23010G16KT 30SM SKC 22/11 A3011 RMK HZ SLP195=

CYVR;2006-07-01 20:00;METAR CYVR 012000Z 23010G17KT 30SM SKC 22/14 A3010 RMK SLP192=

CYVR;2006-07-01 21:00;METAR CYVR 012100Z 23008KT 30SM SKC 23/14 A3009 RMK SLP188=

CYVR;2006-07-01 22:00;METAR CYVR 012200Z 25006KT 30SM SKC 24/15 A3007 RMK SLP182=

CYVR;2006-07-01 23:00;METAR CYVR 012300Z 25008G17KT 30SM SKC 23/15 A3005 RMK SLP177=

CYVR;2006-07-02 00:00;METAR CYVR 020000Z 25007KT 30SM SKC 23/15 A3004 RMK SLP172=

CYVR;2006-07-02 02:00;METAR CYVR 020200Z 23005KT 30SM SKC 23/13 A3000 RMK SLP160=

CYVR;2006-07-02 03:00;METAR CYVR 020300Z 24003KT 30SM SKC 22/12 A3000 RMK HZ SLP158=

CYVR;2006-07-02 05:00;METAR CYVR 020500Z 03002KT 30SM SKC 19/13 A3001 RMK SLP162=

CYVR;2006-07-02 06:00;METAR CYVR 020600Z 11006KT 30SM SKC 17/12 A3001 RMK SLP162=

CYVR;2006-07-02 08:00;METAR CYVR 020800Z 11007KT 30SM SKC 15/12 A3001 RMK SLP163=

CYVR;2006-07-02 09:00;METAR CYVR 020900Z 11002KT 30SM SKC 16/13 A3001 RMK SLP164=

CYVR;2006-07-02 10:00;METAR CYVR 021000Z 18003KT 30SM SKC 15/13 A3003 RMK SLP168=

CYVR;2006-07-02 11:00;METAR CYVR 021100Z 14007KT 30SM SKC 15/12 A3004 RMK HZ SLP171=

CYVR;2006-07-02 12:00;METAR CYVR 021200Z 09005KT 20SM FEW075 14/11 A3004 RMK AC1 HZ / TR AC SLP174=

CYVR;2006-07-02 13:00;METAR CYVR 021300Z 11006KT 15SM FEW220 15/11 A3006 RMK CI1 HZ SLP178=

CYVR;2006-07-02 14:00;METAR CYVR 021400Z 10006KT 20SM FEW220 16/13 A3006 RMK CI1 HZ SLP180=

CYVR;2006-07-02 15:00;METAR CYVR 021500Z 16004KT 20SM FEW220 17/13 A3007 RMK CI1 HZ SLP182=

CYVR;2006-07-02 17:00;METAR CYVR 021700Z 24008KT 20SM FEW220 20/13 A3006 RMK CI1 HZ SLP181=

CYVR;2006-07-02 18:00;METAR CYVR 021800Z 23007KT 20SM FEW220 20/15 A3005 RMK CI1 HZ SLP177=

CYVR;2006-07-02 19:00;METAR CYVR 021900Z 24006KT 30SM FEW230 22/15 A3004 RMK CI1 SLP172=

CYVR;2006-07-02 21:00;METAR CYVR 022100Z 24008KT 30SM FEW220 23/13 A3001 RMK CI1 SLP163=

CYVR;2006-07-02 22:00;METAR CYVR 022200Z 24007KT 30SM FEW220 24/12 A3001 RMK CI1 SLP161=

CYVR;2006-07-03 00:00;METAR CYVR 030000Z 26007KT 30SM SCT230 23/14 A2997 RMK CI1 SLP150=

CYVR;2006-07-03 01:00;METAR CYVR 030100Z 27004KT 30SM SCT230 24/12 A2995 RMK CI1 SLP142=

CYVR;2006-07-03 03:00;METAR CYVR 030300Z 23005KT 30SM FEW230 23/11 A2993 RMK CI1 SLP136=

CYVR;2006-07-03 04:00;METAR CYVR 030400Z 20003KT 30SM FEW230 23/11 A2994 RMK CI1 SLP138=

CYVR;2006-07-03 06:00;METAR CYVR 030600Z 10008KT 30SM FEW230 18/13 A2998 RMK CI1 SLP151=

CYVR;2006-07-03 08:00;METAR CYVR 030800Z 11008KT 30SM SKC 16/13 A3000 RMK SLP158=

CYVR;2006-07-03 09:00;METAR CYVR 030900Z 10007KT 30SM SKC 16/13 A3001 RMK SLP162=

CYVR;2006-07-03 10:00;METAR CYVR 031000Z 10004KT 30SM SKC 15/13 A3003 RMK SLP169=

CYVR;2006-07-03 11:00;METAR CYVR 031100Z 14005KT 30SM SKC 16/13 A3004 RMK SLP172=

CYVR;2006-07-03 12:00;METAR CYVR 031200Z 11007KT 30SM SKC 15/13 A3004 RMK SLP174=

CYVR;2006-07-03 13:00;METAR CYVR 031300Z 12007KT 30SM SKC 15/13 A3006 RMK SLP179=

CYVR;2006-07-03 14:00;METAR CYVR 031400Z 14010KT 20SM SKC 16/13 A3008 RMK HZ SLP186=

CYVR;2006-07-03 15:00;METAR CYVR 031500Z 11009KT 20SM SKC 17/13 A3009 RMK HZ SLP190=

CYVR;2006-07-03 16:00;METAR CYVR 031600Z 12008KT 20SM SKC 19/13 A3009 RMK HZ SLP191=

CYVR;2006-07-03 17:00;METAR CYVR 031700Z 11010KT 20SM SKC 20/12 A3010 RMK HZ SLP192=

CYVR;2006-07-03 18:00;METAR CYVR 031800Z 13008KT 30SM SKC 21/12 A3010 RMK SLP192=

CYVR;2006-07-03 19:00;METAR CYVR 031900Z 14008KT 30SM FEW050 22/12 A3010 RMK CU1 TR CU SLP192=

CYVR;2006-07-03 20:00;METAR CYVR 032000Z 14007KT 30SM FEW050 23/12 A3009 RMK CU1 TR CU SLP190=

CYVR;2006-07-03 21:00;METAR CYVR 032100Z 12006KT 30SM FEW050 24/12 A3009 RMK CU1 TR CU SLP189=

CYVR;2006-07-03 22:00;METAR CYVR 032200Z 14003KT 30SM FEW040 25/14 A3007 RMK CU1 SLP184=

CYVR;2006-07-03 23:00;METAR CYVR 032300Z 23008KT 30SM FEW040 26/14 A3006 RMK CU1 SLP179=

CYVR;2006-07-04 00:00;METAR CYVR 040000Z 22010KT 30SM FEW040 26/14 A3004 RMK CU1 SLP172=

CYVR;2006-07-04 01:00;METAR CYVR 040100Z 15006KT 30SM FEW040 26/14 A3003 RMK CU1 SLP168=

CYVR;2006-07-04 02:00;METAR CYVR 040200Z 16006KT 30SM SKC 24/13 A3001 RMK SLP164=

CYVR;2006-07-04 03:00;METAR CYVR 040300Z 14005KT 30SM SKC 24/13 A3001 RMK SLP164=

CYVR;2006-07-04 04:00;METAR CYVR 040400Z 10009KT 30SM SKC 20/13 A3002 RMK SLP167=

CYVR;2006-07-04 05:00;METAR CYVR 040500Z 10010KT 30SM SKC 18/13 A3004 RMK SLP171=

CYVR;2006-07-04 06:00;METAR CYVR 040600Z 11007KT 30SM SKC 17/13 A3004 RMK SLP172=

CYVR;2006-07-04 07:00;METAR CYVR 040700Z 14006KT 30SM SKC 17/13 A3004 RMK SLP173=

CYVR;2006-07-04 08:00;METAR CYVR 040800Z 15006KT 30SM SKC 16/12 A3005 RMK SLP175=

CYVR;2006-07-04 10:00;METAR CYVR 041000Z 14006KT 30SM SKC 15/11 A3007 RMK SLP183=

CYVR;2006-07-04 12:00;METAR CYVR 041200Z 11006KT 30SM BKN220 14/11 A3007 RMK CI3 SLP184=

CYVR;2006-07-04 13:00;METAR CYVR 041300Z 11007KT 30SM BKN220 14/11 A3009 RMK CI3 SLP188=

CYVR;2006-07-04 14:00;METAR CYVR 041400Z 11011KT 20SM FEW160 BKN220 15/12 A3010 RMK AC1CI3 HZ SLP194=

CYVR;2006-07-04 15:00;METAR CYVR 041500Z 12010KT 20SM FEW150 BKN230 16/12 A3011 RMK AC2CI2 HZ SLP196=

CYVR;2006-07-04 16:00;METAR CYVR 041600Z 13009KT 20SM FEW150 BKN220 17/12 A3011 RMK AC2CI3 HZ SLP198=

CYVR;2006-07-04 17:00;METAR CYVR 041700Z 10006KT 20SM FEW140 BKN220 17/12 A3011 RMK AC2CI4 SLP195=

CYVR;2006-07-04 18:00;METAR CYVR 041800Z 16007KT 20SM FEW140 OVC210 19/12 A3011 RMK AC2CS5 SLP196=

CYVR;2006-07-04 19:00;METAR CYVR 041900Z 34003KT 20SM FEW060 FEW140 OVC200 21/12 A3008 RMK SC1AC2CS4 SLP186=

CYVR;2006-07-04 20:00;METAR CYVR 042000Z 22011KT 20SM FEW060 FEW130 BKN200 21/14 A3007 RMK SC1AC1CI2 SLP184=

CYVR;2006-07-04 21:00;METAR CYVR 042100Z 22009KT 20SM FEW120 SCT210 22/13 A3005 RMK AC1CI1 SLP177=

CYVR;2006-07-04 22:00;METAR CYVR 042200Z 22008KT 20SM FEW060 FEW210 23/11 A3004 RMK SC1CI1 SLP172=

CYVR;2006-07-04 23:00;METAR CYVR 042300Z 23007KT 30SM FEW060 FEW210 24/11 A3002 RMK SC1CI1 SLP166=

CYVR;2006-07-05 00:00;METAR CYVR 050000Z 25006KT 20SM FEW070 FEW210 22/11 A2999 RMK AC1CI2 SLP156=

CYVR;2006-07-05 01:00;METAR CYVR 050100Z 23008KT 30SM FEW070 FEW200 23/12 A2998 RMK AC1CI2 SLP151=

CYVR;2006-07-05 03:00;METAR CYVR 050300Z 14006KT 30SM FEW090 SCT200 22/13 A2998 RMK AC1CI1 SLP154=

CYVR;2006-07-05 04:00;METAR CYVR 050400Z 14009KT 30SM FEW070 BKN210 20/13 A2998 RMK AC1CI2 SLP154=

CYVR;2006-07-05 05:00;METAR CYVR 050500Z 15013KT 30SM FEW070 BKN210 18/13 A3000 RMK AC2CI1 SLP160=

CYVR;2006-07-05 06:00;METAR CYVR 050600Z 15011G16KT 30SM FEW070 FEW150 BKN220 17/10 A3000 RMK AC2AC1CI1 SLP158=

CYVR;2006-07-05 07:00;METAR CYVR 050700Z 11013KT 20SM BKN150 BKN220 16/10 A3001 RMK AC5CI1 SLP161=

CYVR;2006-07-05 08:00;METAR CYVR 050800Z 10011KT 20SM BKN140 BKN220 16/10 A3001 RMK AC5CI1 SLP164=

CYVR;2006-07-05 09:00;METAR CYVR 050900Z 10012KT 20SM BKN140 16/11 A3002 RMK AC6 SLP166=

CYVR;2006-07-05 10:00;METAR CYVR 051000Z 10012KT 20SM BKN140 15/10 A3003 RMK AC5 SLP168=

CYVR;2006-07-05 11:00;METAR CYVR 051100Z 11014KT 20SM SCT140 SCT220 14/10 A3003 RMK AC3CI1 SLP169=

CYVR;2006-07-05 12:00;METAR CYVR 051200Z 11012KT 20SM SCT140 14/10 A3004 RMK AC4 SLP171=

CYVR;2006-07-05 13:13;SPECI CYVR 051313Z 11013KT 20SM FEW013 FEW040 BKN130 14/ RMK SC1SC1AC5=

CYVR;2006-07-05 14:00;METAR CYVR 051400Z 13016KT 20SM FEW013 SCT040 BKN130 14/11 A3005 RMK SC1SC2AC3 SHS NE SLP175=

CYVR;2006-07-05 15:00;METAR CYVR 051500Z 12015KT 20SM FEW012 SCT040 BKN130 15/11 A3006 RMK SF2SC2AC3 VIS LWR NE DUE LO CLD SLP180=

CYVR;2006-07-05 16:00;METAR CYVR 051600Z 13014KT 20SM FEW014 FEW040 BKN130 16/11 A3007 RMK SF2SC1AC3 VIS LWR N - E DUE LO CLD/HZ SLP184=

CYVR;2006-07-05 17:00;METAR CYVR 051700Z 12012G18KT 20SM FEW016 FEW035 BKN130 17/11 A3007 RMK SF2SC1AC3 VIS LWR N - E SLP182=

CYVR;2006-07-05 18:00;METAR CYVR 051800Z 14012KT 20SM FEW018 FEW035 BKN140 17/11 A3006 RMK CU2CU1AC2 SLP181=

CYVR;2006-07-06 20:00;METAR CYVR 062000Z 13010KT 20SM FEW035 FEW045 OVC060 16/10 A3017 RMK SC1SC2SC6 SLP217=

CYVR;2006-07-06 21:00;METAR CYVR 062100Z 14010KT 20SM FEW030 FEW035 BKN050 OVC060 17/09 A3018 RMK CF1SC1SC6SC2 TR CF SLP219=

CYVR;2006-07-06 22:00;METAR CYVR 062200Z 13008KT 20SM FEW030 FEW035 SCT050 OVC060 18/10 A3018 RMK CF1SC1SC2SC4 TR CF SLP221=

CYVR;2006-07-06 23:00;METAR CYVR 062300Z 13011KT 20SM FEW030 FEW035 BKN058 18/10 A3018 RMK CF1SC1SC6 TR CF SLP221=

CYVR;2006-07-07 00:00;METAR CYVR 070000Z 13010KT 20SM FEW035 OVC062 18/10 A3019 RMK SC2SC6 SLP224=

CYVR;2006-07-07 01:00;METAR CYVR 070100Z 13012KT 20SM FEW035 OVC066 17/10 A3020 RMK SC2AC6 SLP226=

CYVR;2006-07-07 03:00;METAR CYVR 070300Z 13010KT 20SM FEW039 BKN070 17/10 A3021 RMK SC2AC5 SLP230=

CYVR;2006-07-07 04:00;METAR CYVR 070400Z 13012KT 20SM FEW037 BKN052 16/10 A3022 RMK SC2SC4 SLP233=

CYVR;2006-07-07 05:00;METAR CYVR 070500Z 12011G16KT 20SM FEW037 SCT052 BKN075 16/10 A3024 RMK SC2SC2AC3 SLP242=

CYVR;2006-07-07 06:00;METAR CYVR 070600Z 11011KT 20SM FEW037 SCT065 16/09 A3025 RMK SC1SC3 SLP245=

CYVR;2006-07-07 07:00;METAR CYVR 070700Z 12013KT 20SM SCT065 15/09 A3027 RMK SC3 SLP250=

CYVR;2006-07-07 08:00;METAR CYVR 070800Z 12011KT 20SM FEW065 14/09 A3028 RMK SC2 SLP254=

CYVR;2006-07-07 09:00;METAR CYVR 070900Z 10011KT 20SM FEW060 13/09 A3029 RMK SC2 SLP256=

CYVR;2006-07-07 10:00;METAR CYVR 071000Z 10007KT 20SM SCT050 12/09 A3030 RMK SC3 SLP261=

CYVR;2006-07-07 11:00;METAR CYVR 071100Z 09006KT 30SM FEW050 11/09 A3031 RMK SC2 SLP264=

CYVR;2006-07-07 12:00;METAR CYVR 071200Z 12006KT 30SM FEW050 SCT085 BKN230 12/09 A3031 RMK SC2AC1CC2 SLP265=

CYVR;2006-07-07 13:00;METAR CYVR 071300Z 11007KT 30SM FEW050 SCT090 BKN220 11/09 A3032 RMK SC1AC2CC2 SLP267=

CYVR;2006-07-07 14:00;METAR CYVR 071400Z 11006KT 30SM FEW035 FEW090 BKN180 13/10 A3032 RMK CF1AC2AC3 SLP269=

CYVR;2006-07-07 16:00;METAR CYVR 071600Z 13008KT 30SM FEW040 SCT100 BKN180 BKN220 16/09 A3034 RMK SC1AC1AC2CI0 SLP273=

CYVR;2006-07-07 17:00;METAR CYVR 071700Z 14006KT 30SM FEW035 FEW160 SCT220 18/09 A3033 RMK SC1AC1CI0 SLP271=

CYVR;2006-07-07 18:00;METAR CYVR 071800Z 15009KT 30SM FEW030 FEW035 SCT160 BKN220 18/10 A3033 RMK CF1SC1AC1CI0 TR CF SLP272=

CYVR;2006-07-07 19:00;METAR CYVR 071900Z 16009KT 30SM FEW035 FEW040 SCT160 BKN230 19/09 A3033 RMK CU1SC1AC1CC1 TR CU SLP270=

CYVR;2006-07-07 20:00;METAR CYVR 072000Z 14007KT 30SM FEW035 SCT160 BKN220 21/09 A3032 RMK CU1AC2CC1 TR CU SLP266=

CYVR;2006-07-07 22:00;METAR CYVR 072200Z 22010KT 30SM FEW040 FEW130 SCT220 23/08 A3030 RMK CU1AC1CI1 TR CU SLP259=

CYVR;2006-07-07 23:00;METAR CYVR 072300Z 22012KT 30SM FEW040 FEW090 SCT130 23/11 A3028 RMK CF1AC0AC1 TR CF SLP253=

CYVR;2006-07-08 00:00;METAR CYVR 080000Z 22011KT 30SM FEW130 FEW220 22/08 A3027 RMK AC1CI1 SLP249=

CYVR;2006-07-08 01:00;METAR CYVR 080100Z 21012KT 30SM SCT130 22/09 A3026 RMK AC2 SLP246=

CYVR;2006-07-08 03:00;METAR CYVR 080300Z 29004KT 30SM FEW100 BKN120 19/10 A3024 RMK AC2AC2 SLP240=

CYVR;2006-07-08 04:00;METAR CYVR 080400Z 32002KT 30SM SCT090 BKN120 18/10 A3024 RMK AC4AC1 SLP240=

CYVR;2006-07-08 06:00;METAR CYVR 080600Z 03003KT 30SM SCT100 19/07 A3024 RMK AC2 SLP240=

CYVR;2006-07-08 07:00;METAR CYVR 080700Z 00000KT 30SM SCT100 18/07 A3023 RMK AC2 SLP238=

CYVR;2006-07-08 08:00;METAR CYVR 080800Z 17003KT 30SM FEW095 18/09 A3024 RMK AC1 SLP240=

CYVR;2006-07-08 09:00;METAR CYVR 080900Z 12004KT 30SM FEW095 15/09 A3024 RMK AC2 SLP239=

CYVR;2006-07-08 10:00;METAR CYVR 081000Z 11006KT 30SM SCT100 15/10 A3024 RMK AC2 SLP241=

CYVR;2006-07-08 11:00;METAR CYVR 081100Z 11006KT 30SM SCT053 BKN110 15/12 A3024 RMK SC3AC2 SLP241=

CYVR;2006-07-08 12:00;METAR CYVR 081200Z 10005KT 20SM FEW053 SCT110 BKN190 15/12 A3024 RMK SC2AC2AC2 SLP241=

CYVR;2006-07-08 13:00;METAR CYVR 081300Z 10003KT 30SM FEW053 BKN190 15/11 A3024 RMK SC2AC5 SLP242=

CYVR;2006-07-08 14:00;METAR CYVR 081400Z 12003KT 30SM FEW050 BKN190 17/10 A3025 RMK SC1AC2 TR SC SLP244=

CYVR;2006-07-08 16:00;METAR CYVR 081600Z 21004KT 30SM SCT150 BKN230 20/10 A3024 RMK AC2CC0 SLP241=

CYVR;2006-07-08 18:00;METAR CYVR 081800Z 26008KT 30SM BKN150 BKN230 21/13 A3023 RMK AC2CC0 SLP237=

CYVR;2006-07-08 19:00;METAR CYVR 081900Z 25007KT 30SM BKN160 BKN230 20/13 A3022 RMK AC3CC1 SLP235=

CYVR;2006-07-08 20:00;METAR CYVR 082000Z 29008KT 30SM FEW160 SCT220 22/13 A3021 RMK AC1CI1 SLP230=

CYVR;2006-07-08 21:00;METAR CYVR 082100Z 30009KT 30SM FEW160 SCT220 23/12 A3019 RMK AC1CC1 SLP224=

CYVR;2006-07-08 22:00;METAR CYVR 082200Z 29011KT 30SM FEW160 SCT220 24/12 A3018 RMK AS1CI1 SLP219=

CYVR;2006-07-09 00:00;METAR CYVR 090000Z 30015KT 30SM BKN180 BKN220 22/14 A3014 RMK AC2CI1 SLP207=

CYVR;2006-07-09 01:00;METAR CYVR 090100Z 29018G24KT 30SM FEW180 BKN220 21/14 A3012 RMK AC1CI2 CONTRAILS SLP201=

CYVR;2006-07-09 02:00;METAR CYVR 090200Z 29017G22KT 30SM FEW120 BKN170 BKN220 19/15 A3011 RMK AC1AC4CI1 SLP196=

CYVR;2006-07-09 04:00;METAR CYVR 090400Z 29019KT 30SM FEW120 BKN150 19/16 A3008 RMK AC2AC5 SLP187=

CYVR;2006-07-09 07:00;METAR CYVR 090700Z 30013KT 20SM SCT120 BKN160 18/16 A3006 RMK AC3AC3 SLP180=

CYVR;2006-07-09 09:00;METAR CYVR 090900Z 32008KT 20SM FEW180 BKN210 17/16 A3004 RMK AC2CC1 SLP174=

CYVR;2006-07-09 10:00;METAR CYVR 091000Z 32009KT 20SM FEW120 SCT180 BKN210 17/16 A3004 RMK AC1AC2CC1 SLP173=

CYVR;2006-07-09 11:00;METAR CYVR 091100Z 31007KT 20SM FEW130 BKN210 17/16 A3003 RMK AC2CI1 SLP170=

CYVR;2006-07-09 12:00;METAR CYVR 091200Z 32007KT 20SM SCT140 BKN200 16/16 A3003 RMK AC3CI1 SLP169=

CYVR;2006-07-09 12:24;SPECI CYVR 091224Z 32006KT 20SM FEW003 SCT100 BKN150 17/ RMK SF1AC2AC2=

CYVR;2006-07-09 13:00;METAR CYVR 091300Z 31007KT 20SM FEW003 BKN110 BKN200 17/16 A3002 RMK SF1AC4CC2 SLP167=

CYVR;2006-07-09 13:27;SPECI CYVR 091327Z 31007KT 20SM -SHRA FEW003 SCT075 BKN110 18/ RMK SF1AC3AC2 PCPN VRY LGT=

CYVR;2006-07-09 14:00;METAR CYVR 091400Z 31007KT 20SM FEW005 FEW075 BKN140 18/17 A3002 RMK SF1AC1AC3 TR SF SLP167=

CYVR;2006-07-09 15:00;METAR CYVR 091500Z 32005KT 20SM FEW005 BKN100 BKN130 19/17 A3002 RMK SF1AC2AC3 TR SF SLP165=

CYVR;2006-07-09 15:17;SPECI CYVR 091517Z 29008KT 20SM -SHRA BKN013 OVC100 18/ RMK SC5AC2 PCPN VRY LGT=

CYVR;2006-07-09 16:00;METAR CYVR 091600Z 31008KT 20SM -SHRA FEW008 BKN013 OVC100 18/17 A3002 RMK SF1SC6AC2 TR SF SLP165=

CYVR;2006-07-09 16:32;SPECI CYVR 091632Z 31005KT 20SM SCT012 BKN095 19/ RMK SC3AC3=

CYVR;2006-07-09 17:41;SPECI CYVR 091741Z 26002KT 20SM BKN012 OVC088 20/ RMK SC5AC2=

CYVR;2006-07-09 17:50;SPECI CYVR 091750Z 24004KT 20SM SCT012 OVC095 20/ RMK SC3AC3=

CYVR;2006-07-09 18:00;METAR CYVR 091800Z 22003KT 20SM SCT013 BKN100 21/17 A2999 RMK SC3AC3 SLP155=

CYVR;2006-07-09 19:00;METAR CYVR 091900Z 29004KT 20SM FEW035 FEW085 BKN140 20/17 A2998 RMK CF1AC2AC3 SLP152=

CYVR;2006-07-09 20:00;METAR CYVR 092000Z 28007KT 20SM FEW040 BKN077 OVC140 22/18 A2997 RMK SC1AC4AC2 SLP148=

CYVR;2006-07-09 21:00;METAR CYVR 092100Z 25007KT 20SM FEW040 BKN078 OVC140 22/18 A2996 RMK SC1AC5AC1 SLP145=

CYVR;2006-07-09 22:00;METAR CYVR 092200Z 26004KT 20SM FEW040 SCT090 OVC130 22/17 A2994 RMK SC1AC2AC3 SLP140=

CYVR;2006-07-09 23:00;METAR CYVR 092300Z 24006KT 20SM FEW040 BKN130 BKN160 22/17 A2993 RMK SC1AC2AC2 SLP134=

CYVR;2006-07-10 00:00;METAR CYVR 100000Z 25005KT 20SM FEW040 BKN080 BKN130 23/16 A2990 RMK SC1AC5AC1 SLP126=

CYVR;2006-07-10 01:00;METAR CYVR 100100Z 23005KT 20SM FEW040 BKN075 BKN220 23/17 A2988 RMK SC1AC2CI1 CONTRAILS SLP118=

CYVR;2006-07-10 03:00;METAR CYVR 100300Z 17003KT 20SM FEW040 BKN068 23/15 A2985 RMK SC2AC4 SLP110=

CYVR;2006-07-10 04:00;METAR CYVR 100400Z 33002KT 20SM SCT065 BKN220 22/14 A2985 RMK SC4CI1 SLP107=

CYVR;2006-07-10 05:00;METAR CYVR 100500Z 16002KT 20SM FEW065 SCT220 21/14 A2985 RMK SC2CI1 SLP108=

CYVR;2006-07-10 06:00;METAR CYVR 100600Z 13006KT 20SM FEW065 BKN220 19/14 A2984 RMK SC2CI2 SLP105=

CYVR;2006-07-10 09:00;METAR CYVR 100900Z 12004KT 20SM SCT031 BKN064 BKN240 16/13 A2984 RMK SC3SC2CI1 SLP106=

CYVR;2006-07-10 10:00;METAR CYVR 101000Z 32011KT 20SM SCT018 BKN030 16/13 A2984 RMK SC3SC3 SLP106=

CYVR;2006-07-10 12:00;METAR CYVR 101200Z 29012KT 20SM SCT017 BKN030 17/13 A2986 RMK SF3SC2 SLP111=

CYVR;2006-07-10 13:00;METAR CYVR 101300Z 29014KT 30SM FEW027 SCT036 BKN045 17/13 A2987 RMK SF2SC2SC2 SLP115=

CYVR;2006-07-10 14:00;METAR CYVR 101400Z 27012KT 20SM SCT020 BKN036 17/13 A2989 RMK SC4SC2 SLP122=

CYVR;2006-07-10 16:00;METAR CYVR 101600Z 27012KT 20SM BKN024 BKN036 18/12 A2992 RMK SC5SC2 SLP133=

CYVR;2006-07-10 17:00;METAR CYVR 101700Z 27010KT 20SM SCT024 BKN037 OVC055 17/12 A2993 RMK SC3SC3SC2 SLP137=

CYVR;2006-07-10 18:00;METAR CYVR 101800Z 27004KT 20SM BKN025 BKN036 OVC050 18/12 A2994 RMK SC5SC2SC2 SLP139=

CYVR;2006-07-10 19:00;METAR CYVR 101900Z 00000KT 20SM BKN023 BKN036 OVC050 18/12 A2995 RMK SC5SC2SC2 SLP143=

CYVR;2006-07-10 20:00;METAR CYVR 102000Z 11007KT 20SM FEW023 BKN041 OVC064 19/12 A2996 RMK SC2SC4SC2 SLP144=

CYVR;2006-07-10 22:00;METAR CYVR 102200Z 15008KT 20SM FEW026 BKN039 BKN061 20/12 A2996 RMK SC2SC4SC1 SLP144=

CYVR;2006-07-10 23:00;METAR CYVR 102300Z 10008KT 20SM FEW026 BKN038 BKN060 20/12 A2996 RMK SC2SC5SC1 SLP144=

CYVR;2006-07-11 00:00;METAR CYVR 110000Z 12008KT 20SM FEW025 FEW032 SCT240 21/11 A2994 RMK CU1SC1CI1 SLP140=

CYVR;2006-07-11 01:00;METAR CYVR 110100Z 16009KT 20SM FEW038 BKN240 21/11 A2993 RMK SC1CI2 SLP136=

CYVR;2006-07-11 02:00;METAR CYVR 110200Z 16009KT 20SM FEW040 BKN240 20/11 A2992 RMK SC1CI2 SLP133=

CYVR;2006-07-11 03:00;METAR CYVR 110300Z 16008KT 20SM FEW040 BKN240 19/11 A2992 RMK SC1CI2 SLP133=

CYVR;2006-07-11 04:00;METAR CYVR 110400Z 16007KT 30SM FEW040 BKN240 18/11 A2992 RMK SC2CI2 SLP133=

CYVR;2006-07-11 05:00;METAR CYVR 110500Z 14006KT 30SM FEW040 BKN240 17/11 A2992 RMK SC1CI2 SLP133=

CYVR;2006-07-11 06:00;METAR CYVR 110600Z 10008KT 30SM FEW040 BKN220 15/12 A2991 RMK SC1CI2 SLP129=

CYVR;2006-07-11 07:00;METAR CYVR 110700Z 09007KT 30SM FEW040 BKN230 15/12 A2990 RMK SC1CI3 SLP125=

CYVR;2006-07-11 09:00;METAR CYVR 110900Z 10006KT 30SM FEW040 SCT220 14/10 A2988 RMK SC1CI2 SLP120=

CYVR;2006-07-11 10:00;METAR CYVR 111000Z 11007KT 20SM SCT210 13/11 A2987 RMK CI2 SLP116=

CYVR;2006-07-11 11:00;METAR CYVR 111100Z 11005KT 20SM SCT210 13/10 A2986 RMK CI2 SLP113=

CYVR;2006-07-11 12:00;METAR CYVR 111200Z 11006KT 20SM FEW140 BKN200 13/11 A2986 RMK AC1CI6 SLP113=

CYVR;2006-07-11 13:00;METAR CYVR 111300Z 11007KT 20SM SCT150 BKN200 14/12 A2986 RMK AC4CI2 VIRGA SLP113=

CYVR;2006-07-11 15:00;METAR CYVR 111500Z 10007KT 20SM FEW027 SCT040 BKN110 OVC160 15/12 A2988 RMK SC2SC1AC4AC1 SLP119=

CYVR;2006-07-11 16:00;METAR CYVR 111600Z 12007KT 20SM FEW030 FEW040 BKN110 OVC160 17/12 A2988 RMK SC2SC1AC4AC2 SLP118=

CYVR;2006-07-11 17:00;METAR CYVR 111700Z 15009KT 20SM FEW030 SCT040 BKN090 OVC200 18/11 A2988 RMK SC2SC1AC3CI1 SLP118=

CYVR;2006-07-11 18:00;METAR CYVR 111800Z 17010KT 20SM FEW030 SCT100 BKN160 OVC200 19/12 A2988 RMK SC2AC2AC2CI1 SLP118=

CYVR;2006-07-11 19:00;METAR CYVR 111900Z 15008KT 20SM FEW035 SCT100 OVC150 20/12 A2987 RMK SC2AC2AC3 SLP115=

CYVR;2006-07-11 20:00;METAR CYVR 112000Z 14009KT 20SM FEW030 BKN120 OVC160 20/12 A2987 RMK SC2AC5AC1 SLP116=

CYVR;2006-07-11 21:00;METAR CYVR 112100Z 16010KT 20SM FEW035 SCT110 BKN150 BKN220 21/12 A2987 RMK SC1AC2AC2CI1 SLP116=

CYVR;2006-07-11 22:00;METAR CYVR 112200Z 14009KT 20SM FEW040 BKN120 OVC220 21/11 A2987 RMK SC1AC3CI2 SLP116=

CYVR;2006-07-11 23:00;METAR CYVR 112300Z 15008KT 20SM FEW040 BKN130 BKN220 22/10 A2987 RMK SC1AC5CI1 SLP115=

CYVR;2006-07-12 00:00;METAR CYVR 120000Z 14010KT 20SM FEW040 BKN110 OVC220 21/10 A2987 RMK SC1AC6CI1 TR SC SLP114=

CYVR;2006-07-12 01:00;METAR CYVR 120100Z 15011KT 20SM BKN110 OVC220 20/12 A2986 RMK AC6CI2 SLP112=

CYVR;2006-07-12 02:00;METAR CYVR 120200Z 15010KT 20SM FEW040 BKN100 OVC220 19/12 A2986 RMK SC1AC6CI1 SLP112=

CYVR;2006-07-12 03:00;METAR CYVR 120300Z 14012KT 20SM FEW040 BKN090 OVC180 18/11 A2987 RMK SC1AC6AC1 SLP115=

CYVR;2006-07-12 04:00;METAR CYVR 120400Z 11009KT 20SM FEW035 BKN090 OVC120 17/11 A2988 RMK SC1AC6AC1 SLP119=

CYVR;2006-07-12 05:15;SPECI CYVR 120515Z 13007KT 20SM -SHRA FEW035 BKN074 OVC120 17/ RMK SC1AC6AC1=

CYVR;2006-07-12 06:00;METAR CYVR 120600Z 08007KT 20SM FEW030 BKN070 OVC120 16/12 A2989 RMK SC1AC6AC1 SLP123=

CYVR;2006-07-12 07:00;METAR CYVR 120700Z 11008KT 20SM FEW035 BKN065 OVC100 16/12 A2989 RMK SC1SC6AC1 SLP122=

CYVR;2006-07-12 08:00;METAR CYVR 120800Z 12005KT 20SM FEW035 BKN059 OVC100 16/11 A2989 RMK SC1SC6AC1 SLP121=

CYVR;2006-07-12 09:00;METAR CYVR 120900Z 12004KT 20SM FEW035 BKN055 OVC090 16/11 A2988 RMK SC1SC6AC1 SLP119=

CYVR;2006-07-12 10:00;METAR CYVR 121000Z 11006KT 20SM FEW035 BKN054 OVC080 15/12 A2988 RMK SC1SC6AC1 SLP119=

CYVR;2006-07-12 11:00;METAR CYVR 121100Z 11007KT 15SM FEW030 BKN053 OVC070 15/11 A2988 RMK SC2SC6AC1 SLP118=

CYVR;2006-07-12 12:00;METAR CYVR 121200Z 11010KT 15SM SCT027 BKN048 OVC070 15/12 A2988 RMK SC3SC4AC1 SLP119=

CYVR;2006-07-12 12:49;SPECI CYVR 121249Z 12009KT 15SM -SHRA BKN028 BKN050 OVC070 15/ RMK SC5SC2AC1=

CYVR;2006-07-12 13:00;METAR CYVR 121300Z 12008KT 15SM -SHRA BKN029 BKN050 OVC070 15/12 A2989 RMK SC5SC2AC1 SLP122=

CYVR;2006-07-12 14:00;METAR CYVR 121400Z 11010KT 12SM -SHRA FEW008 BKN033 OVC050 14/13 A2989 RMK SF2SC5SC2 SLP123=

CYVR;2006-07-12 15:00;METAR CYVR 121500Z 13009KT 4SM -SHRA SCT008 BKN015 OVC031 14/12 A2991 RMK SC3SC2SC2 SLP129=

CYVR;2006-07-12 15:32;SPECI CYVR 121532Z 11007KT 2 1/2SM -SHRA BR SCT005 BKN012 OVC029 14/ RMK SC3SC4SC1=

CYVR;2006-07-12 15:43;SPECI CYVR 121543Z 09008KT 3SM -SHRA BR FEW005 SCT010 BKN020 OVC041 14/ RMK SC2SC2SC3SC1=

CYVR;2006-07-12 16:00;METAR CYVR 121600Z 10008KT 8SM -SHRA FEW006 SCT012 BKN021 OVC040 14/13 A2992 RMK SC2SC2SC3SC1 SLP131=

CYVR;2006-07-12 16:47;SPECI CYVR 121647Z 11013KT 3SM -SHRA BR FEW005 BKN012 OVC030 14/ RMK SC2SC3SC3=

CYVR;2006-07-12 17:00;METAR CYVR 121700Z 13014KT 3SM -SHRA BR FEW006 BKN013 OVC034 14/13 A2992 RMK SC2SC4SC2 SLP131=

CYVR;2006-07-12 18:00;METAR CYVR 121800Z 11008KT 3SM -SHRA BR FEW006 BKN012 OVC030 14/13 A2992 RMK SC2SC5SC1 SLP131=

CYVR;2006-07-12 18:08;SPECI CYVR 121808Z 09008KT 2SM -SHRA BR FEW006 BKN011 OVC030 14/ RMK SC2SC4SC2=

CYVR;2006-07-12 19:00;METAR CYVR 121900Z 08011KT 2SM -SHRA BR SCT006 BKN011 OVC024 14/14 A2991 RMK SC3SC2SC2 SLP130=

CYVR;2006-07-12 20:00;METAR CYVR 122000Z 08010KT 2SM -SHRA BR SCT006 BKN011 OVC026 14/14 A2992 RMK SC3SC2SC2 SLP132=

CYVR;2006-07-12 20:22;SPECI CYVR 122022Z 08008KT 6SM -SHRA BR FEW006 SCT011 BKN015 OVC028 14/ RMK SC2SC2SC3SC1=

CYVR;2006-07-12 21:00;METAR CYVR 122100Z 09007KT 6SM -RA BR FEW007 SCT011 OVC015 14/13 A2993 RMK SC2SC2SC4 SLP135=

CYVR;2006-07-12 22:00;METAR CYVR 122200Z 09007KT 8SM -RA FEW007 SCT011 OVC015 15/14 A2993 RMK CF1SC2SC5 SLP137=

CYVR;2006-07-12 22:36;SPECI CYVR 122236Z 11008KT 8SM -RA FEW007 BKN011 OVC016 15/ RMK CF1SC6SC2=

CYVR;2006-07-12 23:00;METAR CYVR 122300Z 09007KT 12SM FEW007 BKN010 OVC020 15/14 A2994 RMK CF2SC5SC2 SLP139=

CYVR;2006-07-13 00:00;METAR CYVR 130000Z 10007KT 12SM FEW007 BKN013 OVC020 16/15 A2994 RMK CF2SC5SC2 SLP140=

CYVR;2006-07-13 01:00;METAR CYVR 130100Z 10007KT 10SM FEW007 BKN013 OVC030 17/15 A2994 RMK CF1SC6SC1 SLP139=

CYVR;2006-07-13 01:42;SPECI CYVR 130142Z 11007KT 10SM -SHRA FEW008 BKN015 BKN030 OVC080 17/ RMK CF1SC6SC1AC1=

CYVR;2006-07-13 02:00;METAR CYVR 130200Z 13008KT 15SM -SHRA FEW008 SCT017 BKN030 BKN080 17/15 A2995 RMK SF1SC3SC2AC1 VIS LWR N - E SLP141=

CYVR;2006-07-13 02:11;SPECI CYVR 130211Z 13007KT 15SM FEW009 BKN016 BKN030 BKN080 17/ RMK SF2SC2SC2AC1 VIS LWR N - E=

CYVR;2006-07-13 03:00;METAR CYVR 130300Z 14005KT 20SM FEW009 SCT015 BKN027 BKN080 17/15 A2995 RMK SF1SC3SC2AC1 VIS N - E 10 SLP143=

CYVR;2006-07-13 04:00;METAR CYVR 130400Z 11006KT 20SM FEW009 SCT020 BKN073 BKN240 16/15 A2996 RMK SF1SC2AC2CC2 VIS N - E 10 SLP147=

CYVR;2006-07-13 05:00;METAR CYVR 130500Z 10008KT 20SM FEW009 FEW025 BKN070 BKN230 15/14 A2998 RMK SC1SC2AC2CC1 SLP151=

CYVR;2006-07-13 06:00;METAR CYVR 130600Z 08004KT 20SM FEW008 FEW025 SCT065 BKN230 14/13 A2999 RMK SC1SC2SC1CI1 SLP156=

CYVR;2006-07-13 07:00;METAR CYVR 130700Z 02003KT 20SM FEW010 FEW040 BKN220 14/13 A3000 RMK SC1SC2CI2 SLP160=

CYVR;2006-07-13 08:00;METAR CYVR 130800Z 18007KT 20SM FEW015 FEW060 SCT180 BKN240 16/12 A3001 RMK SC1SC2AC1CI1 SLP163=

CYVR;2006-07-13 09:00;METAR CYVR 130900Z 18007KT 15SM FEW015 BKN060 BKN160 16/11 A3002 RMK SC2SC3AC2 SLP165=

CYVR;2006-07-13 10:00;METAR CYVR 131000Z 15005KT 15SM FEW015 BKN058 BKN150 15/11 A3002 RMK SC2SC4AC2 SLP167=

CYVR;2006-07-13 11:00;METAR CYVR 131100Z 14009KT 15SM FEW010 BKN049 OVC140 15/12 A3003 RMK SC1SC6AC2 SLP169=

CYVR;2006-07-13 12:00;METAR CYVR 131200Z 14007KT 20SM FEW009 BKN048 OVC140 14/12 A3003 RMK SF1SC6AC1 SLP169=

CYVR;2006-07-13 13:00;METAR CYVR 131300Z 10008KT 20SM FEW008 BKN049 OVC110 14/12 A3006 RMK SC1SC4AC3 SLP178=

CYVR;2006-07-13 14:00;METAR CYVR 131400Z 16006KT 20SM FEW008 FEW050 OVC110 14/12 A3006 RMK SC1SC2AC6 SLP180=

CYVR;2006-07-13 15:00;METAR CYVR 131500Z 14008KT 20SM FEW008 FEW050 OVC110 14/11 A3008 RMK SC1SC1AC6 SLP186=

CYVR;2006-07-13 16:00;METAR CYVR 131600Z 11009KT 20SM FEW010 SCT050 OVC110 15/12 A3009 RMK SC1SC2AC5 SLP190=

CYVR;2006-07-13 17:00;METAR CYVR 131700Z 13010KT 20SM FEW010 BKN052 OVC110 15/11 A3010 RMK SC1SC4AC3 SLP192=

CYVR;2006-07-13 18:00;METAR CYVR 131800Z 15010KT 20SM FEW030 BKN050 OVC110 17/11 A3010 RMK SC1SC5AC2 SLP192=

CYVR;2006-07-13 20:00;METAR CYVR 132000Z 15007KT 20SM FEW040 SCT060 BKN100 19/10 A3010 RMK SC2SC2AC4 SLP192=

CYVR;2006-07-13 21:00;METAR CYVR 132100Z 14008KT 20SM FEW040 BKN110 BKN240 19/10 A3009 RMK SC2AC3CI2 SLP191=

CYVR;2006-07-13 22:00;METAR CYVR 132200Z 12003KT 20SM FEW040 BKN120 BKN240 20/11 A3008 RMK SC1AC6CI1 TCU EMBD SLP187=

CYVR;2006-07-13 23:00;METAR CYVR 132300Z 14008KT 20SM SCT040 BKN120 21/11 A3007 RMK SC3AC3 TCU EMBD SLP183=

CYVR;2006-07-14 00:00;METAR CYVR 140000Z 15010KT 20SM FEW040 SCT100 BKN140 20/10 A3006 RMK SC2AC2AC2 TCU EMBD SLP181=

CYVR;2006-07-14 01:00;METAR CYVR 140100Z 17008KT 20SM FEW040 BKN070 OVC120 19/11 A3006 RMK SC1AC6AC1 SLP179=

CYVR;2006-07-14 02:00;METAR CYVR 140200Z 19006KT 30SM FEW040 BKN072 BKN110 OVC140 18/11 A3006 RMK SC1AC6AC1AC1 SLP178=

CYVR;2006-07-14 02:31;SPECI CYVR 140231Z 14007KT 30SM -SHRA FEW040 BKN070 OVC090 18/ RMK SC2AC4AC2 VIS LWR E=

CYVR;2006-07-14 03:00;METAR CYVR 140300Z 15005KT 30SM -SHRA FEW040 BKN075 OVC100 17/12 A3005 RMK SC2AC4AC2 VIS LWR E SLP176=

CYVR;2006-07-14 04:00;METAR CYVR 140400Z 11003KT 20SM -SHRA FEW040 BKN068 BKN100 17/13 A3004 RMK SC2AC5AC1 SLP174=

CYVR;2006-07-14 04:28;SPECI CYVR 140428Z 11006KT 20SM FEW040 BKN058 BKN090 16/ RMK SC2SC5AC1=

CYVR;2006-07-14 05:00;METAR CYVR 140500Z 10007KT 20SM FEW040 BKN059 OVC090 16/13 A3005 RMK SC2SC5AC2 SLP176=

CYVR;2006-07-14 06:00;METAR CYVR 140600Z 16005KT 20SM FEW035 BKN060 OVC100 16/13 A3006 RMK SC2SC4AC2 SLP178=

CYVR;2006-07-14 07:00;METAR CYVR 140700Z 13009KT 20SM FEW035 BKN070 BKN090 16/12 A3005 RMK SC1AC5AC2 SLP176=

CYVR;2006-07-14 08:00;METAR CYVR 140800Z 13003KT 15SM FEW035 BKN065 BKN110 16/12 A3004 RMK SC1SC5AC2 SLP173=

CYVR;2006-07-14 09:00;METAR CYVR 140900Z 11007KT 15SM FEW030 SCT045 BKN062 OVC130 15/13 A3004 RMK SC2SC2SC3AC1 SLP173=

CYVR;2006-07-14 10:00;METAR CYVR 141000Z 10006KT 15SM FEW030 BKN060 OVC120 15/13 A3003 RMK SC2SC5AC2 SLP170=

CYVR;2006-07-14 11:00;METAR CYVR 141100Z 12005KT 15SM FEW035 BKN070 BKN110 15/13 A3004 RMK SC2AC4AC2 SLP171=

CYVR;2006-07-14 12:00;METAR CYVR 141200Z 12004KT 15SM SCT020 BKN070 BKN100 15/13 A3004 RMK SC3AC2AC2 SLP171=

CYVR;2006-07-14 13:00;METAR CYVR 141300Z 11008KT 20SM FEW020 FEW070 SCT100 14/13 A3003 RMK SC1AC2AC2 SLP169=

CYVR;2006-07-14 14:00;METAR CYVR 141400Z 11007KT 15SM FEW020 BKN047 BKN062 OVC080 16/13 A3003 RMK SC2SC3SC2AC1 SLP169=

CYVR;2006-07-14 14:54;SPECI CYVR 141454Z 13010G15KT 12SM BKN013 BKN042 OVC060 16/ RMK SC5SC2SC1=

CYVR;2006-07-14 15:00;METAR CYVR 141500Z 13009G15KT 12SM SCT015 BKN036 OVC060 16/13 A3004 RMK SC3SC2SC2 SLP173=

CYVR;2006-07-14 16:00;METAR CYVR 141600Z 11009KT 15SM SCT018 BKN036 BKN058 17/13 A3004 RMK SC4SC2SC2 SLP172=

CYVR;2006-07-14 17:00;METAR CYVR 141700Z 13008KT 20SM SCT020 BKN050 BKN070 19/13 A3004 RMK SC3SC2AC2 SLP172=

CYVR;2006-07-14 18:00;METAR CYVR 141800Z 14010G18KT 20SM BKN027 BKN058 20/12 A3004 RMK SC5SC2 SLP171=

CYVR;2006-07-14 18:51;SPECI CYVR 141851Z 18010G15KT 15SM -SHRA SCT025 BKN057 20/ RMK SC3SC4 PCPN VRY LGT=

CYVR;2006-07-14 19:00;METAR CYVR 141900Z 14013KT 15SM -SHRA SCT025 BKN057 19/13 A3005 RMK SC3SC4 PCPN VRY LGT SLP176=

CYVR;2006-07-14 20:00;METAR CYVR 142000Z 21006KT 10SM -SHRA FEW030 OVC050 19/13 A3006 RMK SF2ST6 PCPN VRY LGT SLP180=

CYVR;2006-07-14 20:29;SPECI CYVR 142029Z 22008G18KT 12SM FEW023 BKN050 OVC075 19/ RMK SF2ST3AC2=

CYVR;2006-07-14 21:00;METAR CYVR 142100Z 24009KT 15SM FEW023 BKN046 BKN075 19/12 A3007 RMK SF2ST2AC2 SLP182=

CYVR;2006-07-14 21:24;SPECI CYVR 142124Z 26007KT 7SM -SHRA SCT024 OVC044 18/ RMK SF3ST5 PCPN VRY LGT=

CYVR;2006-07-14 21:40;SPECI CYVR 142140Z 25005KT 15SM FEW024 BKN049 BKN075 18/ RMK SF2ST2AC2=

CYVR;2006-07-14 21:53;SPECI CYVR 142153Z 24003KT 15SM -SHRA FEW023 BKN051 OVC075 18/ RMK SF2ST4AC2 PCPN VRY LGT=

CYVR;2006-07-14 22:00;METAR CYVR 142200Z 00000KT 15SM -SHRA FEW023 BKN050 OVC072 18/13 A3007 RMK SF2ST4AC2 PCPN VRY LGT SLP183=

CYVR;2006-07-14 22:53;SPECI CYVR 142253Z 32002KT 30SM SCT045 BKN078 BKN090 19/ RMK SC2AC2AC2 PCPN DIST N=

CYVR;2006-07-14 23:00;METAR CYVR 142300Z 35003KT 30SM -SHRA SCT045 BKN076 BKN090 19/14 A3007 RMK SC2AC2AC2 PCPN VRY LGT SLP182=

CYVR;2006-07-14 23:24;SPECI CYVR 142324Z 04004KT 30SM SCT045 BKN077 20/ RMK SC3AC2 PCPN DIST N=

CYVR;2006-07-15 00:00;METAR CYVR 150000Z 36003KT 30SM FEW045 SCT076 BKN100 21/13 A3005 RMK SC2AC2AC2 SLP177=

CYVR;2006-07-15 02:00;METAR CYVR 150200Z 24006KT 30SM SCT045 BKN072 19/14 A3005 RMK SC3AC4 SHS=

CYVR;2006-07-15 02:07;SPECI CYVR 150207Z 23006KT 30SM -SHRA SCT045 BKN072 19/ RMK SC3AC4 PCPN VRY LGT=

CYVR;2006-07-15 02:28;SPECI CYVR 150228Z 22004KT 30SM FEW045 BKN075 19/ RMK SC2AC5=

CYVR;2006-07-15 03:00;METAR CYVR 150300Z 27002KT 30SM FEW050 BKN080 19/13 A3005 RMK SC2AC4 SLP177=

CYVR;2006-07-15 04:00;METAR CYVR 150400Z 31003KT 30SM FEW050 SCT080 17/13 A3006 RMK SC2AC1 SLP179=

CYVR;2006-07-15 05:00;METAR CYVR 150500Z 02004KT 30SM FEW050 FEW055 FEW080 17/12 A3007 RMK CF1SC1AC1 TR CF SLP183=

CYVR;2006-07-15 06:00;METAR CYVR 150600Z 03002KT 30SM FEW050 SCT080 17/13 A3008 RMK SC1AC2 SLP186=

CYVR;2006-07-15 07:00;METAR CYVR 150700Z 08003KT 30SM FEW045 BKN085 16/13 A3007 RMK SC1AC3 SLP184=

CYVR;2006-07-15 08:00;METAR CYVR 150800Z 02003KT 30SM FEW085 15/12 A3007 RMK AC2 SLP184=

CYVR;2006-07-15 09:00;METAR CYVR 150900Z 09004KT 30SM FEW078 14/11 A3009 RMK AC1 SLP189=

CYVR;2006-07-15 10:00;METAR CYVR 151000Z 03004KT 30SM FEW045 BKN069 14/11 A3009 RMK SC1AC3 SLP190=

CYVR;2006-07-15 11:00;METAR CYVR 151100Z 00000KT 30SM FEW045 FEW062 SCT220 14/11 A3010 RMK SC1SC1CI0 SLP193=

CYVR;2006-07-15 12:00;METAR CYVR 151200Z 00000KT 30SM FEW045 FEW070 14/12 A3010 RMK SC1AC1 SLP194=

CYVR;2006-07-15 13:00;METAR CYVR 151300Z 00000KT 30SM FEW025 BKN065 15/12 A3012 RMK SC1SC5 SLP200=

CYVR;2006-07-15 14:00;METAR CYVR 151400Z 00000KT 30SM FEW011 BKN072 15/13 A3013 RMK SF2AC4 SLP203=

CYVR;2006-07-15 15:00;METAR CYVR 151500Z 28004KT 30SM FEW013 BKN069 17/14 A3014 RMK SF2AC4 SLP208=

CYVR;2006-07-15 16:00;METAR CYVR 151600Z 26008KT 30SM SCT017 BKN065 17/13 A3016 RMK SF3SC2 SLP212=

CYVR;2006-07-15 18:00;METAR CYVR 151800Z 27006KT 30SM FEW035 18/13 A3018 RMK SC2 SLP219=

CYVR;2006-07-15 19:00;METAR CYVR 151900Z 26007KT 30SM FEW040 19/13 A3019 RMK SC2 SLP222=

CYVR;2006-07-15 21:00;METAR CYVR 152100Z 28006KT 30SM FEW045 20/09 A3019 RMK SC2 SLP225=

CYVR;2006-07-15 22:00;METAR CYVR 152200Z 25007KT 30SM FEW045 21/09 A3019 RMK SC2 SLP225=

CYVR;2006-07-15 23:00;METAR CYVR 152300Z 26008KT 30SM FEW045 21/10 A3019 RMK SC2 SLP225=

CYVR;2006-07-16 00:00;METAR CYVR 160000Z 30007KT 30SM FEW045 21/11 A3019 RMK SC2 SLP224=

CYVR;2006-07-16 01:00;METAR CYVR 160100Z 29007KT 30SM FEW040 21/11 A3019 RMK SC1 SLP222=

CYVR;2006-07-16 02:00;METAR CYVR 160200Z 29006KT 30SM FEW040 21/09 A3018 RMK CF0 SLP220=

CYVR;2006-07-16 03:00;METAR CYVR 160300Z 26005KT 30SM FEW040 FEW220 20/09 A3018 RMK CF1CI0 TR CF SLP220=

CYVR;2006-07-16 04:00;METAR CYVR 160400Z 19004KT 30SM FEW220 19/09 A3018 RMK CI0 SLP221=

CYVR;2006-07-16 05:00;METAR CYVR 160500Z 17002KT 30SM FEW220 19/08 A3019 RMK CI0 SLP225=

CYVR;2006-07-16 06:00;METAR CYVR 160600Z 00000KT 30SM FEW220 18/08 A3019 RMK CI0 SLP225=

CYVR;2006-07-16 07:00;METAR CYVR 160700Z 02004KT 30SM FEW220 16/09 A3020 RMK CI0 SLP227=

CYVR;2006-07-16 08:00;METAR CYVR 160800Z 00000KT 30SM FEW220 16/09 A3020 RMK CI0 SLP228=

CYVR;2006-07-16 09:00;METAR CYVR 160900Z 10004KT 30SM SKC 15/09 A3021 RMK SLP230=

CYVR;2006-07-16 10:00;METAR CYVR 161000Z 09003KT 30SM SKC 14/09 A3021 RMK SLP230=

CYVR;2006-07-16 11:00;METAR CYVR 161100Z 02003KT 30SM SKC 13/09 A3022 RMK SLP233=

CYVR;2006-07-16 12:00;METAR CYVR 161200Z 36002KT 30SM FEW220 13/09 A3022 RMK CI0 SLP235=

CYVR;2006-07-16 13:00;METAR CYVR 161300Z 11003KT 30SM FEW180 14/09 A3024 RMK AC0 SLP239=

CYVR;2006-07-16 14:00;METAR CYVR 161400Z 10005KT 30SM FEW180 15/10 A3024 RMK AC0 SLP240=

CYVR;2006-07-16 15:00;METAR CYVR 161500Z 00000KT 30SM FEW160 17/10 A3024 RMK AC0 SLP242=

CYVR;2006-07-16 16:00;METAR CYVR 161600Z 29003KT 30SM FEW160 18/11 A3024 RMK AC0 SLP242=

CYVR;2006-07-16 17:00;METAR CYVR 161700Z 29007KT 30SM FEW160 18/13 A3024 RMK AC1 TR AC SLP240=

CYVR;2006-07-16 18:00;METAR CYVR 161800Z 30009KT 30SM FEW040 SCT230 19/13 A3023 RMK SF0CI1 TR SF SLP237=

CYVR;2006-07-16 20:00;METAR CYVR 162000Z 28008KT 30SM FEW040 SCT230 20/13 A3021 RMK CF0CI1 TR CF SLP231=

CYVR;2006-07-16 21:00;METAR CYVR 162100Z 29008KT 30SM FEW160 SCT230 21/11 A3019 RMK AC0CI1 TR AC / CONTRAILS SLP225=

CYVR;2006-07-16 22:00;METAR CYVR 162200Z 25008KT 30SM FEW160 SCT230 21/12 A3018 RMK AC0CI2 TR AC SLP220=

CYVR;2006-07-16 23:00;METAR CYVR 162300Z 24008G15KT 30SM FEW160 BKN230 22/11 A3017 RMK AC1CI3 SLP217=

CYVR;2006-07-17 00:00;METAR CYVR 170000Z 29006KT 30SM FEW160 BKN220 22/12 A3016 RMK AC2CI3 SLP214=

CYVR;2006-07-17 01:00;METAR CYVR 170100Z 25005KT 30SM FEW140 BKN210 20/12 A3015 RMK AC2CI3 SLP211=

CYVR;2006-07-17 03:00;METAR CYVR 170300Z 23004KT 30SM FEW160 21/12 A3014 RMK AC1 SLP207=

CYVR;2006-07-17 04:00;METAR CYVR 170400Z 15002KT 30SM FEW160 21/07 A3013 RMK AC1 SLP204=

CYVR;2006-07-17 05:00;METAR CYVR 170500Z 00000KT 30SM FEW160 19/09 A3014 RMK AC1 SLP208=

CYVR;2006-07-17 06:00;METAR CYVR 170600Z 10007KT 30SM FEW160 16/12 A3015 RMK AC1 SLP210=

CYVR;2006-07-17 08:00;METAR CYVR 170800Z 13011KT 30SM BKN160 16/10 A3016 RMK AC2 SLP214=

CYVR;2006-07-17 09:00;METAR CYVR 170900Z 12011KT 30SM FEW160 15/10 A3016 RMK AC2 SLP214=

CYVR;2006-07-17 10:00;METAR CYVR 171000Z 12011KT 30SM SCT160 14/10 A3017 RMK AC2 SLP215=

CYVR;2006-07-17 11:00;METAR CYVR 171100Z 11008KT 30SM FEW160 14/09 A3018 RMK AC1 SLP219=

CYVR;2006-07-17 12:00;METAR CYVR 171200Z 11010KT 30SM FEW160 13/09 A3018 RMK AC1 SLP221=

CYVR;2006-07-17 13:00;METAR CYVR 171300Z 11012KT 30SM FEW160 12/10 A3020 RMK AC1 SLP226=

CYVR;2006-07-17 14:00;METAR CYVR 171400Z 10013KT 30SM FEW160 14/10 A3021 RMK AC1 SLP230=

CYVR;2006-07-17 15:00;METAR CYVR 171500Z 11014KT 30SM FEW160 15/11 A3023 RMK AC2 SLP236=

CYVR;2006-07-17 16:00;METAR CYVR 171600Z 12012G17KT 30SM FEW019 BKN029 16/10 A3024 RMK SF1SC6 SLP239=

CYVR;2006-07-17 17:00;METAR CYVR 171700Z 14012KT 20SM FEW019 OVC027 16/10 A3024 RMK SF1SC6 SLP241=

CYVR;2006-07-17 18:00;METAR CYVR 171800Z 12013KT 20SM FEW017 OVC028 17/10 A3024 RMK SF1SC6 SLP242=

CYVR;2006-07-17 19:00;METAR CYVR 171900Z 14009KT 20SM SCT027 BKN038 17/10 A3024 RMK SC3SC4 SLP242=

CYVR;2006-07-17 21:00;METAR CYVR 172100Z 24007KT 20SM BKN036 19/11 A3024 RMK SC4 SLP240=

CYVR;2006-07-17 22:00;METAR CYVR 172200Z 23010G16KT 20SM FEW036 19/10 A3023 RMK SC2 SLP237=

CYVR;2006-07-17 23:00;METAR CYVR 172300Z 18008KT 20SM FEW039 20/10 A3022 RMK SC2 SLP234=

CYVR;2006-07-18 00:00;METAR CYVR 180000Z 23010KT 30SM FEW040 FEW090 21/10 A3022 RMK SC2AC1 SLP232=

CYVR;2006-07-18 01:00;METAR CYVR 180100Z 23008KT 30SM FEW040 21/10 A3021 RMK SC2 SLP230=

CYVR;2006-07-18 03:00;METAR CYVR 180300Z 22005KT 30SM FEW040 FEW180 19/09 A3020 RMK SC1AC0 SLP227=

CYVR;2006-07-18 05:00;METAR CYVR 180500Z 15006KT 30SM FEW050 SCT055 17/11 A3020 RMK SC1CF0 SLP226=

CYVR;2006-07-18 06:00;METAR CYVR 180600Z 12007KT 30SM FEW050 FEW150 15/11 A3020 RMK SF1AC0 SLP226=

CYVR;2006-07-18 07:00;METAR CYVR 180700Z 12007KT 30SM FEW150 14/11 A3020 RMK AC1 SLP227=

CYVR;2006-07-18 10:00;METAR CYVR 181000Z 11008KT 30SM SCT030 13/11 A3021 RMK SC3 SLP229=

CYVR;2006-07-18 11:00;METAR CYVR 181100Z 11010KT 30SM FEW030 12/10 A3020 RMK SC1 SLP228=

CYVR;2006-07-18 12:00;METAR CYVR 181200Z 10008KT 30SM SCT030 12/10 A3021 RMK SC3 SLP229=

CYVR;2006-07-18 13:00;METAR CYVR 181300Z 10006KT 30SM FEW020 13/10 A3021 RMK SC1 SLP230=

CYVR;2006-07-18 15:00;METAR CYVR 181500Z 13006KT 20SM FEW025 FEW240 15/11 A3022 RMK SC1CI1 SLP234=

CYVR;2006-07-18 16:00;METAR CYVR 181600Z 14005KT 20SM FEW030 FEW240 17/11 A3022 RMK CF1CI1 SLP235=

CYVR;2006-07-18 17:00;METAR CYVR 181700Z 16003KT 20SM FEW040 SCT240 18/12 A3022 RMK CF1CI1 SLP235=

CYVR;2006-07-18 18:00;METAR CYVR 181800Z 25007KT 30SM FEW040 BKN240 19/12 A3022 RMK CU1CI2 SLP232=

CYVR;2006-07-18 20:00;METAR CYVR 182000Z 27007KT 20SM FEW040 BKN240 18/13 A3020 RMK CU1CS4 SLP227=

CYVR;2006-07-18 21:00;METAR CYVR 182100Z 25007KT 20SM FEW040 BKN230 19/12 A3019 RMK CU1CS3 SLP222=

CYVR;2006-07-18 22:00;METAR CYVR 182200Z 25007KT 30SM FEW040 BKN240 20/12 A3017 RMK CU1CI3 SLP217=

CYVR;2006-07-18 23:00;METAR CYVR 182300Z 25007KT 30SM FEW045 BKN240 20/13 A3016 RMK CU1CI2 SLP213=

CYVR;2006-07-19 00:00;METAR CYVR 190000Z 25006KT 30SM FEW045 SCT240 21/12 A3015 RMK CU1CI1 SLP209=

CYVR;2006-07-19 01:00;METAR CYVR 190100Z 25005KT 30SM FEW045 FEW240 21/11 A3013 RMK CU1CI1 SLP204=

CYVR;2006-07-19 02:00;METAR CYVR 190200Z 27005KT 30SM FEW050 FEW240 21/09 A3011 RMK CU1CI1 TR CU SLP198=

CYVR;2006-07-19 03:00;METAR CYVR 190300Z 22003KT 30SM FEW240 20/11 A3010 RMK CI1 SLP194=

CYVR;2006-07-19 05:00;METAR CYVR 190500Z 13002KT 30SM FEW240 19/12 A3010 RMK CI1 SLP194=

CYVR;2006-07-19 06:00;METAR CYVR 190600Z 10007KT 30SM FEW240 16/11 A3010 RMK CI1 SLP193=

CYVR;2006-07-19 07:00;METAR CYVR 190700Z 10007KT 30SM FEW240 15/12 A3009 RMK CI1 SLP191=

CYVR;2006-07-19 10:00;METAR CYVR 191000Z 10005KT 30SM FEW240 14/12 A3009 RMK CI1 SLP190=

CYVR;2006-07-19 11:00;METAR CYVR 191100Z 11006KT 30SM BKN230 14/11 A3009 RMK CI3 SLP188=

CYVR;2006-07-19 12:00;METAR CYVR 191200Z 10007KT 30SM BKN230 13/11 A3009 RMK CI4 SLP189=

CYVR;2006-07-19 13:00;METAR CYVR 191300Z 10007KT 30SM SCT170 OVC230 14/11 A3010 RMK AC2CI2 SLP192=

CYVR;2006-07-19 14:00;METAR CYVR 191400Z 14005KT 20SM SCT160 BKN230 15/12 A3010 RMK AC3CI1 SLP194=

CYVR;2006-07-19 15:00;METAR CYVR 191500Z 11007KT 20SM SCT150 BKN230 15/12 A3010 RMK AC4CI2 SLP193=

CYVR;2006-07-19 16:00;METAR CYVR 191600Z 14006KT 20SM BKN160 BKN230 17/12 A3010 RMK AC6CI1 SLP194=

CYVR;2006-07-19 17:00;METAR CYVR 191700Z 14003KT 30SM BKN130 OVC160 17/12 A3011 RMK AC6AC2 SLP197=

CYVR;2006-07-19 18:00;METAR CYVR 191800Z 09003KT 30SM BKN140 OVC170 19/11 A3011 RMK AC5AC2 SLP196=

CYVR;2006-07-19 19:00;METAR CYVR 191900Z 13005KT 30SM BKN130 OVC170 19/11 A3010 RMK AS5AC2 SLP194=

CYVR;2006-07-19 21:00;METAR CYVR 192100Z 16006KT 30SM FEW050 BKN140 OVC240 21/11 A3010 RMK CU1AS6CI1 SLP192=

CYVR;2006-07-19 22:00;METAR CYVR 192200Z 22005KT 30SM FEW050 OVC130 21/11 A3010 RMK CU1AS7 SLP193=

CYVR;2006-07-19 23:00;METAR CYVR 192300Z 23008KT 30SM FEW050 SCT130 BKN170 23/11 A3009 RMK CU1AS3AC2 SLP190=

CYVR;2006-07-20 00:00;METAR CYVR 200000Z 23009KT 30SM FEW050 BKN160 24/14 A3009 RMK CU1AC4 SLP189=

CYVR;2006-07-20 01:00;METAR CYVR 200100Z 26006KT 30SM FEW050 SCT150 BKN180 21/14 A3009 RMK CU1AC3AC2 SLP188=

CYVR;2006-07-20 03:00;METAR CYVR 200300Z 29004KT 30SM FEW150 19/15 A3009 RMK AC2 SLP189=

CYVR;2006-07-20 04:00;METAR CYVR 200400Z 32002KT 30SM FEW150 FEW230 18/13 A3009 RMK AC2CI1 SLP191=

CYVR;2006-07-20 05:00;METAR CYVR 200500Z 30002KT 30SM FEW150 18/12 A3011 RMK AC2 SLP195=

CYVR;2006-07-20 06:00;METAR CYVR 200600Z 02003KT 30SM FEW150 18/11 A3011 RMK AC1 SLP198=

CYVR;2006-07-20 07:00;METAR CYVR 200700Z 09003KT 30SM FEW150 17/12 A3012 RMK AC1 SLP201=

CYVR;2006-07-20 08:00;METAR CYVR 200800Z 09003KT 30SM FEW150 16/12 A3013 RMK AC1 SLP203=

CYVR;2006-07-20 09:00;METAR CYVR 200900Z 10004KT 30SM SKC 15/12 A3014 RMK SLP208=

CYVR;2006-07-20 10:00;METAR CYVR 201000Z 09002KT 30SM SKC 15/13 A3015 RMK SLP210=

CYVR;2006-07-20 11:00;METAR CYVR 201100Z 12002KT 30SM SKC 16/12 A3016 RMK SLP214=

CYVR;2006-07-20 12:00;METAR CYVR 201200Z 13002KT 30SM SKC 15/13 A3018 RMK SLP219=

CYVR;2006-07-20 13:00;METAR CYVR 201300Z 04002KT 30SM SKC 15/12 A3019 RMK SLP223=

CYVR;2006-07-20 14:00;METAR CYVR 201400Z 00000KT 30SM SKC 18/14 A3020 RMK SLP228=

CYVR;2006-07-20 15:00;METAR CYVR 201500Z 01002KT 30SM SKC 19/13 A3022 RMK SLP232=

CYVR;2006-07-20 16:00;METAR CYVR 201600Z 31002KT 30SM FEW240 20/13 A3022 RMK CI0 SLP235=

CYVR;2006-07-20 17:00;METAR CYVR 201700Z 25006KT 30SM FEW240 20/14 A3023 RMK CI0 SLP237=

CYVR;2006-07-20 18:00;METAR CYVR 201800Z 27007KT 30SM FEW240 22/14 A3023 RMK CI0 SLP236=

CYVR;2006-07-20 19:00;METAR CYVR 201900Z 28009KT 30SM FEW240 23/14 A3022 RMK CI0 SLP235=

CYVR;2006-07-20 20:00;METAR CYVR 202000Z 27007KT 30SM FEW250 22/13 A3022 RMK CI0 SLP232=

CYVR;2006-07-20 21:00;METAR CYVR 202100Z 29009KT 30SM FEW250 23/14 A3021 RMK CI1 SLP229=

CYVR;2006-07-20 22:00;METAR CYVR 202200Z 30009KT 30SM FEW250 24/14 A3019 RMK CI1 SLP223=

CYVR;2006-07-21 00:00;METAR CYVR 210000Z 30011KT 30SM FEW240 24/15 A3015 RMK CI1 SLP210=

CYVR;2006-07-21 01:00;METAR CYVR 210100Z 31009KT 30SM FEW240 25/15 A3013 RMK CI1 SLP204=

CYVR;2006-07-21 04:00;METAR CYVR 210400Z 31011KT 30SM FEW240 22/16 A3010 RMK CI1 SLP193=

CYVR;2006-07-21 05:00;METAR CYVR 210500Z 32008KT 30SM SKC 21/16 A3010 RMK SLP194=

CYVR;2006-07-21 06:00;METAR CYVR 210600Z 32006KT 30SM SKC 21/16 A3010 RMK SLP193=

CYVR;2006-07-21 08:00;METAR CYVR 210800Z 36004KT 30SM SKC 20/17 A3012 RMK SLP199=

CYVR;2006-07-21 09:00;METAR CYVR 210900Z 35006KT 30SM SKC 19/15 A3012 RMK SLP199=

CYVR;2006-07-21 10:00;METAR CYVR 211000Z 06003KT 30SM SKC 19/15 A3011 RMK SLP198=

CYVR;2006-07-21 11:00;METAR CYVR 211100Z 00000KT 30SM SKC 20/15 A3011 RMK SLP196=

CYVR;2006-07-21 12:00;METAR CYVR 211200Z 31004KT 30SM SKC 19/16 A3011 RMK SLP197=

CYVR;2006-07-21 13:00;METAR CYVR 211300Z 30007KT 30SM SKC 19/16 A3011 RMK SLP196=

CYVR;2006-07-21 15:00;METAR CYVR 211500Z 31009KT 30SM SKC 21/18 A3013 RMK SLP203=

CYVR;2006-07-21 16:00;METAR CYVR 211600Z 32012KT 30SM SKC 23/18 A3012 RMK SLP201=

CYVR;2006-07-21 17:00;METAR CYVR 211700Z 30012KT 30SM SKC 24/17 A3012 RMK SLP201=

CYVR;2006-07-21 18:00;METAR CYVR 211800Z 31014KT 30SM SKC 24/17 A3011 RMK SLP198=

CYVR;2006-07-21 19:00;METAR CYVR 211900Z 31013KT 30SM SKC 26/17 A3011 RMK SLP195=

CYVR;2006-07-21 20:00;METAR CYVR 212000Z 31013KT 30SM SKC 26/17 A3010 RMK SLP193=

CYVR;2006-07-21 21:00;METAR CYVR 212100Z 30011KT 30SM SKC 28/17 A3008 RMK SLP187=

CYVR;2006-07-21 22:00;METAR CYVR 212200Z 29009KT 30SM FEW220 27/18 A3006 RMK CI0 SLP181=

CYVR;2006-07-21 23:00;METAR CYVR 212300Z 29009KT 30SM FEW220 28/16 A3005 RMK CI1 SLP176=

CYVR;2006-07-22 00:00;METAR CYVR 220000Z 32009KT 30SM FEW240 28/17 A3002 RMK CI1 SLP167=

CYVR;2006-07-22 01:00;METAR CYVR 220100Z 29007KT 30SM FEW240 28/17 A3001 RMK CI1 SLP162=

CYVR;2006-07-22 03:00;METAR CYVR 220300Z 30005KT 30SM SCT240 25/18 A2998 RMK CI2 SLP154=

CYVR;2006-07-22 04:00;METAR CYVR 220400Z 27004KT 30SM SCT240 24/18 A2999 RMK CI2 SLP155=

CYVR;2006-07-22 05:00;METAR CYVR 220500Z 00000KT 30SM SCT240 22/18 A2999 RMK CI2 SLP155=

CYVR;2006-07-22 07:00;METAR CYVR 220700Z 25003KT 30SM BKN240 22/18 A2999 RMK CI3 SLP157=

CYVR;2006-07-22 08:00;METAR CYVR 220800Z 33002KT 30SM BKN240 20/18 A2999 RMK CI3 SLP157=

CYVR;2006-07-22 09:00;METAR CYVR 220900Z 31006KT 30SM BKN240 20/18 A3000 RMK CI2 SLP160=

CYVR;2006-07-22 10:00;METAR CYVR 221000Z 32009KT 30SM FEW120 BKN240 21/19 A3001 RMK AC2CI2 VIS LWR N SLP164=

CYVR;2006-07-22 11:00;METAR CYVR 221100Z 30009KT 30SM FEW120 BKN240 21/18 A3002 RMK AC2CI4 VIS LWR N SLP165=

CYVR;2006-07-22 12:00;METAR CYVR 221200Z 32010KT 30SM FEW150 BKN240 21/18 A3002 RMK AC1CI5 SLP165=

CYVR;2006-07-22 13:00;METAR CYVR 221300Z 32007KT 30SM FEW150 OVC240 20/18 A3003 RMK AC2CI5 SLP170=

CYVR;2006-07-22 14:00;METAR CYVR 221400Z 32009KT 30SM SCT140 OVC220 21/18 A3004 RMK AC2CI3 SLP173=

CYVR;2006-07-22 15:00;METAR CYVR 221500Z 32009KT 30SM FEW120 OVC200 22/18 A3005 RMK AC1CI5 SLP176=

CYVR;2006-07-22 16:00;METAR CYVR 221600Z 31010KT 30SM FEW120 OVC200 22/18 A3005 RMK AC2CI3 SLP176=

CYVR;2006-07-22 17:00;METAR CYVR 221700Z 31013KT 30SM FEW140 BKN210 24/18 A3006 RMK AC2CI3 SLP179=

CYVR;2006-07-22 18:00;METAR CYVR 221800Z 32013KT 30SM SCT150 BKN220 24/18 A3004 RMK AC3CI2 SLP173=

CYVR;2006-07-22 19:00;METAR CYVR 221900Z 30014KT 30SM FEW150 BKN220 25/18 A3003 RMK AC1CI2 SLP170=

CYVR;2006-07-22 20:00;METAR CYVR 222000Z 30012KT 30SM FEW230 26/17 A3003 RMK CI1 SLP170=

CYVR;2006-07-22 21:00;METAR CYVR 222100Z 31012KT 30SM FEW230 27/18 A3001 RMK CI1 SLP164=

CYVR;2006-07-22 22:00;METAR CYVR 222200Z 31010KT 30SM FEW230 29/17 A2999 RMK CI1 SLP157=

CYVR;2006-07-22 23:00;METAR CYVR 222300Z 31008KT 30SM FEW230 29/17 A2997 RMK CI2 SLP149=

CYVR;2006-07-23 00:00;METAR CYVR 230000Z 31010KT 30SM FEW240 28/17 A2996 RMK CI2 SLP144=

CYVR;2006-07-23 02:00;METAR CYVR 230200Z 31008KT 30SM FEW240 26/18 A2992 RMK CI1 SLP133=

CYVR;2006-07-23 03:00;METAR CYVR 230300Z 32007KT 30SM FEW240 26/18 A2991 RMK CI1 SLP129=

CYVR;2006-07-23 04:00;METAR CYVR 230400Z 31012KT 30SM FEW200 24/18 A2991 RMK CI1 SLP127=

CYVR;2006-07-23 06:00;METAR CYVR 230600Z 32006KT 30SM FEW200 22/18 A2993 RMK CI1 SLP134=

CYVR;2006-07-23 07:00;METAR CYVR 230700Z 31009KT 30SM FEW200 22/18 A2993 RMK CI1 SLP134=

CYVR;2006-07-23 08:00;METAR CYVR 230800Z 31011KT 30SM SKC 22/18 A2993 RMK SLP136=

CYVR;2006-07-23 09:00;METAR CYVR 230900Z 32012KT 30SM SKC 21/18 A2994 RMK SLP138=

CYVR;2006-07-23 10:00;METAR CYVR 231000Z 32011G18KT 30SM SKC 20/17 A2994 RMK SLP140=

CYVR;2006-07-23 11:00;METAR CYVR 231100Z 32013KT 20SM FEW060 20/17 A2995 RMK SC1 SLP141=

CYVR;2006-07-23 12:00;METAR CYVR 231200Z 31013KT 20SM FEW200 20/17 A2995 RMK CI1 SLP143=

CYVR;2006-07-23 13:00;METAR CYVR 231300Z 31014KT 30SM SKC 19/17 A2996 RMK SLP145=

CYVR;2006-07-23 15:00;METAR CYVR 231500Z 31016KT 30SM SKC 21/17 A2997 RMK SLP148=

CYVR;2006-07-23 16:00;METAR CYVR 231600Z 31015KT 30SM SKC 21/17 A2997 RMK SLP149=

CYVR;2006-07-23 17:00;METAR CYVR 231700Z 31019KT 30SM SKC 22/17 A2997 RMK SLP150=

CYVR;2006-07-23 18:00;METAR CYVR 231800Z 31018G24KT 30SM SKC 23/17 A2996 RMK SLP146=

CYVR;2006-07-23 19:00;METAR CYVR 231900Z 30019KT 30SM SKC 23/17 A2996 RMK SLP144=

CYVR;2006-07-23 20:00;METAR CYVR 232000Z 30017G22KT 30SM SKC 24/17 A2994 RMK SLP138=

CYVR;2006-07-23 21:00;METAR CYVR 232100Z 31016KT 30SM SKC 25/17 A2993 RMK SLP134=

CYVR;2006-07-23 22:00;METAR CYVR 232200Z 31014G21KT 30SM SKC 26/17 A2991 RMK SLP128=

CYVR;2006-07-23 23:00;METAR CYVR 232300Z 31013KT 30SM FEW035 27/17 A2989 RMK SC1 SLP122=

CYVR;2006-07-24 00:00;METAR CYVR 240000Z 32008KT 30SM FEW035 25/17 A2987 RMK CU1 SLP116=

CYVR;2006-07-24 01:00;METAR CYVR 240100Z 31011G16KT 30SM FEW035 25/17 A2986 RMK CU1 SLP111=

CYVR;2006-07-24 02:00;METAR CYVR 240200Z 30015G20KT 30SM FEW035 25/17 A2984 RMK CU1 TR CU SLP104=

CYVR;2006-07-24 03:00;METAR CYVR 240300Z 30018KT 30SM FEW035 FEW220 24/17 A2983 RMK CU1CI0 TR CU SLP101=

CYVR;2006-07-24 04:00;METAR CYVR 240400Z 30018G26KT 30SM FEW220 22/16 A2983 RMK CI0 SLP101=

CYVR;2006-07-24 05:00;METAR CYVR 240500Z 31019G28KT 30SM FEW220 23/16 A2985 RMK CI0 SLP108=

CYVR;2006-07-24 06:00;METAR CYVR 240600Z 32013KT 30SM FEW220 22/15 A2986 RMK CI0 SLP113=

CYVR;2006-07-24 08:00;METAR CYVR 240800Z 31015G20KT 30SM FEW220 20/16 A2988 RMK CI0 SLP117=

CYVR;2006-07-24 10:00;METAR CYVR 241000Z 31009KT 30SM SKC 18/15 A2989 RMK SLP123=

CYVR;2006-07-24 12:00;METAR CYVR 241200Z 32012KT 30SM FEW050 18/15 A2990 RMK CU1 TR CU SLP125=

CYVR;2006-07-24 13:00;METAR CYVR 241300Z 31012KT 30SM FEW220 18/15 A2991 RMK CC1 TR CC SLP127=

CYVR;2006-07-24 15:00;METAR CYVR 241500Z 30007KT 30SM SKC 19/15 A2991 RMK SLP129=

CYVR;2006-07-24 16:00;METAR CYVR 241600Z 30014KT 30SM SKC 21/16 A2991 RMK SLP130=

CYVR;2006-07-24 17:00;METAR CYVR 241700Z 31014G20KT 30SM SKC 21/15 A2992 RMK SLP132=

CYVR;2006-07-24 20:00;METAR CYVR 242000Z 31017KT 30SM FEW040 FEW210 23/16 A2990 RMK CF1CI0 SLP125=

CYVR;2006-07-24 21:00;METAR CYVR 242100Z 32015KT 30SM FEW040 FEW220 25/16 A2989 RMK CF0CI0 SLP121=

CYVR;2006-07-24 22:00;METAR CYVR 242200Z 32013KT 30SM FEW045 FEW220 25/15 A2988 RMK CF0CI0 SLP120=

CYVR;2006-07-24 23:00;METAR CYVR 242300Z 31012KT 30SM FEW045 24/15 A2987 RMK CF0 SLP115=

CYVR;2006-07-25 00:00;METAR CYVR 250000Z 31010KT 30SM FEW045 25/14 A2985 RMK CF0 SLP109=

CYVR;2006-07-25 01:00;METAR CYVR 250100Z 31006KT 30SM FEW045 25/14 A2985 RMK CF1 TR CF SLP107=

CYVR;2006-07-25 03:00;METAR CYVR 250300Z 21005KT 30SM FEW045 FEW220 25/14 A2984 RMK CU1CI1 CB TOP N SLP104=

CYVR;2006-07-25 05:00;METAR CYVR 250500Z 07003KT 30SM FEW055 FEW220 23/12 A2985 RMK SC1CI1 BC TOP N SLP110=

CYVR;2006-07-25 06:00;METAR CYVR 250600Z 26002KT 30SM FEW220 22/13 A2986 RMK CI1 SLP113=

CYVR;2006-07-25 07:00;METAR CYVR 250700Z 25007KT 30SM FEW220 23/13 A2987 RMK CI1 SLP116=

CYVR;2006-07-25 08:00;METAR CYVR 250800Z 00000KT 30SM FEW220 20/13 A2987 RMK CI0 SLP116=

CYVR;2006-07-25 09:00;METAR CYVR 250900Z 11007KT 30SM FEW220 17/14 A2988 RMK CI0 SLP117=

CYVR;2006-07-25 10:00;METAR CYVR 251000Z 11005KT 30SM FEW220 16/14 A2988 RMK CI0 SLP120=

CYVR;2006-07-25 12:00;METAR CYVR 251200Z 10002KT 30SM SCT045 17/14 A2990 RMK SC2 SLP126=

CYVR;2006-07-25 13:00;METAR CYVR 251300Z 00000KT 30SM FEW110 BKN220 17/15 A2991 RMK AC2CI1 SLP128=

CYVR;2006-07-25 14:00;METAR CYVR 251400Z 14004KT 20SM BKN220 18/15 A2993 RMK CI5 SLP134=

CYVR;2006-07-25 15:00;METAR CYVR 251500Z 11005KT 30SM FEW040 SCT190 BKN220 19/15 A2994 RMK SC1AC2CI2 TR SC SLP139=

CYVR;2006-07-25 16:00;METAR CYVR 251600Z 11008KT 30SM SCT014 BKN075 BKN190 20/16 A2995 RMK SC3AC2AC1 SLP143=

CYVR;2006-07-25 17:00;METAR CYVR 251700Z 13009KT 30SM FEW045 FEW075 BKN190 BKN220 19/14 A2997 RMK CF1AC2AC3CI1 TR CF SLP148=

CYVR;2006-07-25 18:00;METAR CYVR 251800Z 15004KT 30SM SCT180 BKN220 20/15 A2997 RMK AC2CI1 SLP148=

CYVR;2006-07-25 19:00;METAR CYVR 251900Z 12004KT 30SM FEW190 SCT220 23/15 A2997 RMK AC1CI1 SLP149=

CYVR;2006-07-25 20:00;METAR CYVR 252000Z 18005KT 30SM FEW190 SCT230 24/15 A2996 RMK AC1CI1 SLP145=

CYVR;2006-07-25 21:00;METAR CYVR 252100Z 22011G17KT 30SM FEW045 BKN160 BKN230 24/16 A2995 RMK CU1AC2CI2 TR CU SLP142=

CYVR;2006-07-25 22:00;METAR CYVR 252200Z 22008KT 30SM FEW045 BKN140 BKN230 24/16 A2995 RMK CU1AC5CI0 TR CU SLP141=

CYVR;2006-07-26 00:00;METAR CYVR 260000Z 22008KT 30SM FEW045 FEW140 SCT220 25/15 A2993 RMK CU0AC1CI1 SLP134=

CYVR;2006-07-26 02:00;METAR CYVR 260200Z 21005KT 30SM FEW045 FEW080 FEW140 24/14 A2991 RMK CU1AC1AC1 TR CU SLP128=

CYVR;2006-07-26 03:00;METAR CYVR 260300Z 20003KT 30SM FEW140 23/14 A2990 RMK AC0 SLP126=

CYVR;2006-07-26 04:00;METAR CYVR 260400Z 10009KT 30SM FEW220 20/14 A2992 RMK CI0 SLP131=

CYVR;2006-07-26 05:00;METAR CYVR 260500Z 14006KT 30SM FEW220 20/14 A2993 RMK CI0 SLP134=

CYVR;2006-07-26 07:00;METAR CYVR 260700Z 11007KT 30SM FEW220 17/14 A2993 RMK CI0 SLP137=

CYVR;2006-07-26 09:00;METAR CYVR 260900Z 11006KT 20SM FEW220 16/14 A2996 RMK CI0 SLP145=

CYVR;2006-07-26 10:00;METAR CYVR 261000Z 14006KT 20SM FEW220 16/14 A2996 RMK CI0 SLP147=

CYVR;2006-07-26 11:00;METAR CYVR 261100Z 11006KT 20SM FEW050 15/14 A2997 RMK SC0 SLP149=

CYVR;2006-07-26 12:00;METAR CYVR 261200Z 13010KT 20SM FEW050 FEW220 15/14 A2998 RMK SC1CI0 SLP152=

CYVR;2006-07-26 13:00;METAR CYVR 261300Z 11006KT 20SM FEW050 FEW220 15/13 A2999 RMK SC1CI0 SLP156=

CYVR;2006-07-26 14:00;METAR CYVR 261400Z 11007KT 20SM FEW015 16/14 A3001 RMK SC1 TR SC SLP161=

CYVR;2006-07-26 14:54;SPECI CYVR 261454Z 12008KT 20SM SCT007 16/ RMK SC4=

CYVR;2006-07-26 15:00;METAR CYVR 261500Z 11006KT 20SM BKN008 16/14 A3002 RMK SC6 SLP166=

CYVR;2006-07-26 15:35;SPECI CYVR 261535Z 12008KT 20SM SCT009 17/ RMK SC4=

CYVR;2006-07-26 16:00;METAR CYVR 261600Z 13005KT 20SM FEW009 18/14 A3003 RMK SC1 SLP168=

CYVR;2006-07-26 17:00;METAR CYVR 261700Z 13005KT 20SM SKC 19/14 A3003 RMK SLP170=

CYVR;2006-07-26 18:00;METAR CYVR 261800Z 18005KT 20SM SKC 21/15 A3003 RMK SLP168=

CYVR;2006-07-26 19:00;METAR CYVR 261900Z 18006KT 20SM SKC 23/15 A3002 RMK SLP166=

CYVR;2006-07-26 20:00;METAR CYVR 262000Z 22006KT 20SM FEW050 FEW220 24/15 A3001 RMK SC1CI1 TR SC SLP161=

CYVR;2006-07-26 21:00;METAR CYVR 262100Z 22011G17KT 20SM FEW050 FEW220 25/16 A2999 RMK SC1CI1 TR SC SLP156=

CYVR;2006-07-26 22:00;METAR CYVR 262200Z 23009G18KT 20SM FEW050 FEW220 26/16 A2999 RMK SC1CI1 SLP155=

CYVR;2006-07-26 23:00;METAR CYVR 262300Z 25006KT 20SM FEW050 FEW220 26/16 A2998 RMK SC1CI1 TR SC SLP152=

CYVR;2006-07-27 00:00;METAR CYVR 270000Z 27005KT 20SM FEW050 FEW220 25/16 A2997 RMK SC1CI1 TR SC TR CI SLP149=

CYVR;2006-07-27 01:00;METAR CYVR 270100Z 25004KT 20SM FEW050 24/16 A2996 RMK SC1 TR SC SLP146=

CYVR;2006-07-27 02:00;METAR CYVR 270200Z 29004KT 20SM FEW050 24/16 A2995 RMK SC1 TR SC SLP142=

CYVR;2006-07-27 03:00;METAR CYVR 270300Z 30004KT 30SM FEW050 22/17 A2994 RMK SC1 SLP139=

CYVR;2006-07-27 04:00;METAR CYVR 270400Z 24004KT 30SM FEW050 21/17 A2993 RMK SC1 SLP137=

CYVR;2006-07-27 05:00;METAR CYVR 270500Z 18003KT 30SM FEW050 21/16 A2994 RMK SC1 SLP140=

CYVR;2006-07-27 06:00;METAR CYVR 270600Z 12006KT 30SM FEW050 19/15 A2995 RMK SC1 SLP141=

CYVR;2006-07-27 07:00;METAR CYVR 270700Z 10006KT 30SM FEW060 17/14 A2995 RMK SC1 SLP143=

CYVR;2006-07-27 08:00;METAR CYVR 270800Z 11009KT 30SM SKC 16/14 A2995 RMK SLP143=

CYVR;2006-07-27 09:00;METAR CYVR 270900Z 11007KT 30SM SKC 16/14 A2996 RMK SLP145=

CYVR;2006-07-27 10:00;METAR CYVR 271000Z 11007KT 30SM SKC 15/14 A2996 RMK SLP145=

CYVR;2006-07-27 11:00;METAR CYVR 271100Z 11007KT 30SM FEW050 15/13 A2996 RMK SC1 TR SC SLP147=

CYVR;2006-07-27 12:00;METAR CYVR 271200Z 10008KT 30SM SKC 15/14 A2996 RMK SLP147=

CYVR;2006-07-27 13:00;METAR CYVR 271300Z 08005KT 30SM FEW090 FEW240 15/14 A2998 RMK AC1CI0 SLP151=

CYVR;2006-07-27 14:00;METAR CYVR 271400Z 11003KT 30SM FEW080 FEW240 17/14 A2998 RMK AC1CI0 SLP151=

CYVR;2006-07-27 16:00;METAR CYVR 271600Z 30012KT 30SM FEW014 FEW040 BKN057 BKN090 19/15 A2998 RMK CU1SC1SC3AC2 SLP152=

CYVR;2006-07-27 17:00;METAR CYVR 271700Z 30014KT 30SM FEW040 FEW060 SCT090 20/15 A2998 RMK SC1SC2AC2 SLP153=

CYVR;2006-07-27 18:00;METAR CYVR 271800Z 31014KT 30SM FEW040 FEW060 FEW100 20/15 A2998 RMK SC1SC1AC1 SLP151=

CYVR;2006-07-27 19:00;METAR CYVR 271900Z 30013KT 30SM FEW040 FEW090 21/14 A2998 RMK SC1AC1 SLP152=

CYVR;2006-07-27 20:00;METAR CYVR 272000Z 31010G15KT 30SM FEW040 FEW090 22/14 A2997 RMK SC1AC1 SLP150=

CYVR;2006-07-27 21:00;METAR CYVR 272100Z 30009KT 30SM FEW040 22/14 A2997 RMK SC1 TR SC SLP148=

CYVR;2006-07-27 22:00;METAR CYVR 272200Z 28006KT 30SM FEW040 23/13 A2996 RMK SC1 TR SC SLP145=

CYVR;2006-07-27 23:00;METAR CYVR 272300Z 27005KT 30SM FEW040 FEW120 23/14 A2995 RMK SC1AC1 TR SC SLP143=

CYVR;2006-07-28 00:00;METAR CYVR 280000Z 25006KT 30SM FEW040 FEW120 FEW240 24/14 A2994 RMK SC1AC1CI1 TR SC SLP139=

CYVR;2006-07-28 01:00;METAR CYVR 280100Z 26007KT 30SM FEW120 BKN240 22/15 A2993 RMK AC2CI2 SLP135=

CYVR;2006-07-28 02:00;METAR CYVR 280200Z 24006KT 30SM FEW120 BKN240 22/14 A2992 RMK AC2CI2 SLP132=

CYVR;2006-07-28 03:00;METAR CYVR 280300Z 26003KT 30SM FEW100 BKN240 22/13 A2992 RMK AC1CI2 SLP132=

CYVR;2006-07-28 04:00;METAR CYVR 280400Z 00000KT 30SM FEW110 SCT240 21/13 A2992 RMK AC1CI1 SLP133=

CYVR;2006-07-28 05:00;METAR CYVR 280500Z 29002KT 30SM FEW070 SCT240 21/14 A2993 RMK AC1CI1 SLP135=

CYVR;2006-07-28 06:00;METAR CYVR 280600Z 29013KT 30SM FEW070 FEW220 18/13 A2993 RMK AC1CI1 SLP136=

CYVR;2006-07-28 07:00;METAR CYVR 280700Z 27015KT 30SM FEW070 FEW220 19/14 A2993 RMK AC1CI1 SLP136=

CYVR;2006-07-28 08:00;METAR CYVR 280800Z 29011KT 30SM FEW070 FEW200 18/14 A2993 RMK AC1CI1 SLP136=

CYVR;2006-07-28 09:00;METAR CYVR 280900Z 31007KT 30SM FEW210 17/13 A2994 RMK CI1 SLP139=

CYVR;2006-07-28 10:00;METAR CYVR 281000Z 31010KT 30SM FEW210 16/12 A2994 RMK CI1 SLP140=

CYVR;2006-07-28 11:00;METAR CYVR 281100Z 30012KT 30SM SCT070 SCT210 16/11 A2996 RMK AC3CI0 SLP144=

CYVR;2006-07-28 12:00;METAR CYVR 281200Z 32006KT 30SM FEW030 SCT070 SCT220 15/11 A2995 RMK SC1AC2CI1 SLP143=

CYVR;2006-07-28 13:00;METAR CYVR 281300Z 29008KT 30SM FEW030 BKN062 16/13 A2996 RMK SC1SC5 SLP147=

CYVR;2006-07-28 14:00;METAR CYVR 281400Z 13007KT 20SM FEW020 BKN057 BKN074 16/12 A2998 RMK SC1SC6AC1 SLP151=

CYVR;2006-07-28 15:00;METAR CYVR 281500Z 12006KT 20SM SCT020 BKN048 OVC060 16/13 A2999 RMK SC3SC2SC2 SLP156=

CYVR;2006-07-28 16:00;METAR CYVR 281600Z 10009KT 20SM BKN022 BKN041 BKN060 16/13 A2999 RMK SC5SC2SC1 SLP156=

CYVR;2006-07-28 17:00;METAR CYVR 281700Z 10006KT 20SM BKN019 BKN039 18/13 A2999 RMK SC6SC2 SLP157=

CYVR;2006-07-28 18:00;METAR CYVR 281800Z 14005KT 20SM BKN024 BKN040 18/12 A3000 RMK SC6SC2 SLP158=

CYVR;2006-07-28 19:00;METAR CYVR 281900Z 17010KT 20SM BKN026 BKN050 19/12 A3000 RMK SC6SC2 SLP159=

CYVR;2006-07-28 20:00;METAR CYVR 282000Z 16007KT 20SM BKN030 BKN050 19/12 A3000 RMK SC6SC1 SLP159=

CYVR;2006-07-28 21:00;METAR CYVR 282100Z 15009KT 20SM BKN031 BKN050 20/12 A3001 RMK SC6SC1 SLP161=

CYVR;2006-07-28 22:00;METAR CYVR 282200Z 13008KT 20SM SCT035 BKN160 21/11 A3000 RMK SC4AC1 SLP158=

CYVR;2006-07-28 23:00;METAR CYVR 282300Z 14010KT 20SM SCT032 SCT210 20/12 A2998 RMK SC3CI1 CU ASOCTD SLP153=

CYVR;2006-07-29 00:00;METAR CYVR 290000Z 14010KT 20SM FEW040 FEW210 20/11 A2997 RMK SC1CI1 CU ASOCTD SLP149=

CYVR;2006-07-29 01:00;METAR CYVR 290100Z 15009KT 20SM FEW040 FEW220 20/12 A2996 RMK SC1CI2 SLP145=

CYVR;2006-07-29 02:00;METAR CYVR 290200Z 15008KT 20SM FEW040 FEW140 BKN220 19/12 A2995 RMK SC1AC1CI2 SLP142=

CYVR;2006-07-29 03:00;METAR CYVR 290300Z 14009KT 20SM FEW040 FEW140 BKN240 18/12 A2994 RMK SC1AC1CI2 SLP139=

CYVR;2006-07-29 04:00;METAR CYVR 290400Z 13008KT 20SM FEW040 FEW140 BKN230 18/12 A2993 RMK SC1AC1CI2 SLP135=

CYVR;2006-07-29 05:00;METAR CYVR 290500Z 10007KT 20SM FEW040 FEW130 BKN240 17/12 A2993 RMK SC1AC1CI2 SLP137=

CYVR;2006-07-29 06:00;METAR CYVR 290600Z 10008KT 20SM FEW040 BKN170 BKN240 17/12 A2992 RMK SC1AC4CI1 SLP133=

CYVR;2006-07-29 07:00;METAR CYVR 290700Z 10007KT 20SM FEW040 SCT160 BKN240 16/11 A2992 RMK SC1AC3CI1 SLP131=

CYVR;2006-07-29 08:00;METAR CYVR 290800Z 11009KT 20SM FEW060 BKN160 BKN220 16/11 A2992 RMK SC2AC2CI1 SLP131=

CYVR;2006-07-29 09:00;METAR CYVR 290900Z 11009KT 20SM FEW040 SCT070 BKN200 15/10 A2991 RMK SC2AC2CI1 SLP129=

CYVR;2006-07-29 10:00;METAR CYVR 291000Z 10009KT 20SM FEW040 BKN061 BKN140 14/11 A2991 RMK SC1SC6AC1 SLP130=

CYVR;2006-07-29 11:00;METAR CYVR 291100Z 12010KT 20SM FEW040 BKN064 BKN140 14/11 A2992 RMK SC1SC4AC1 SLP133=

CYVR;2006-07-29 12:00;METAR CYVR 291200Z 10011KT 20SM FEW040 SCT063 BKN210 13/11 A2993 RMK SC1SC3CI2 SLP135=

CYVR;2006-07-29 13:00;METAR CYVR 291300Z 10011KT 20SM FEW015 SCT040 BKN065 BKN210 14/11 A2994 RMK SF1SC2SC2CI1 SLP140=

CYVR;2006-07-29 14:00;METAR CYVR 291400Z 11013KT 20SM FEW015 FEW035 BKN072 14/11 A2995 RMK SF1SC2AC5 SLP143=

CYVR;2006-07-29 15:00;METAR CYVR 291500Z 09012KT 20SM SCT015 BKN031 OVC069 14/11 A2996 RMK SC4SC2AC2 SLP145=

CYVR;2006-07-29 16:00;METAR CYVR 291600Z 09012G17KT 20SM BKN018 OVC035 16/10 A2997 RMK SC6SC2 SLP149=

CYVR;2006-07-29 17:00;METAR CYVR 291700Z 11011KT 20SM BKN022 BKN037 BKN070 17/10 A2999 RMK SC5SC1AC2 SLP155=

CYVR;2006-07-29 19:00;METAR CYVR 291900Z 13011G17KT 20SM BKN028 OVC042 17/10 A3000 RMK SC6SC2 SLP158=

CYVR;2006-07-29 20:00;METAR CYVR 292000Z 14010KT 20SM BKN031 OVC066 17/09 A3001 RMK SC6AC2 SLP162=

CYVR;2006-07-29 21:00;METAR CYVR 292100Z 14012KT 20SM FEW030 SCT045 OVC058 18/09 A3002 RMK SC2SC2SC4 SLP165=

CYVR;2006-07-29 22:00;METAR CYVR 292200Z 15011KT 20SM FEW040 BKN058 OVC070 17/10 A3002 RMK SC2SC4AC2 SLP167=

CYVR;2006-07-29 23:00;METAR CYVR 292300Z 13009KT 20SM FEW040 SCT060 BKN070 19/10 A3001 RMK SC2SC2AC2 SLP164=

CYVR;2006-07-30 00:00;METAR CYVR 300000Z 14008KT 20SM FEW040 SCT065 20/09 A2999 RMK CU2SC2 SLP156=

CYVR;2006-07-30 01:00;METAR CYVR 300100Z 15008KT 20SM FEW040 BKN070 19/09 A2998 RMK CU2AC3 SLP152=

CYVR;2006-07-30 02:00;METAR CYVR 300200Z 17007KT 20SM FEW050 BKN079 19/09 A2997 RMK SC2AC4 SLP149=

CYVR;2006-07-30 03:00;METAR CYVR 300300Z 16008KT 20SM FEW050 BKN084 18/09 A2997 RMK SC2AC5 SLP148=

CYVR;2006-07-30 04:00;METAR CYVR 300400Z 14008KT 20SM FEW050 SCT080 BKN210 17/09 A2996 RMK SC1AC2CI1 SLP144=

CYVR;2006-07-30 05:00;METAR CYVR 300500Z 10008KT 20SM FEW050 BKN088 BKN210 16/10 A2995 RMK SC1AC5CI1 SLP141=

CYVR;2006-07-30 06:00;METAR CYVR 300600Z 11008KT 20SM FEW050 BKN090 BKN210 16/10 A2994 RMK SC1AC6CI1 SLP140=

CYVR;2006-07-30 07:00;METAR CYVR 300700Z 11008KT 15SM -SHRA SCT055 OVC095 15/11 A2994 RMK SC3AC5 SLP138=

CYVR;2006-07-30 07:23;SPECI CYVR 300723Z 10007KT 15SM SCT055 OVC099 15/ RMK SC3AC5=

CYVR;2006-07-30 08:00;METAR CYVR 300800Z 11007KT 20SM FEW050 SCT065 OVC100 15/10 A2993 RMK SC2SC2AC4 SLP135=

CYVR;2006-07-30 09:00;METAR CYVR 300900Z 11007KT 20SM FEW040 SCT065 OVC100 15/10 A2992 RMK SC2SC2AC4 SLP132=

CYVR;2006-07-30 10:00;METAR CYVR 301000Z 09006KT 20SM FEW040 SCT060 OVC100 14/11 A2991 RMK SC2SC2AC5 SLP130=

CYVR;2006-07-30 11:00;METAR CYVR 301100Z 10004KT 20SM FEW040 BKN080 OVC150 14/11 A2991 RMK SC2AC3AC3 SLP129=

CYVR;2006-07-30 12:00;METAR CYVR 301200Z 28011KT 20SM FEW020 SCT050 BKN086 BKN140 15/12 A2992 RMK SC1SC2AC3AC1 TCU EMBD SLP131=

CYVR;2006-07-30 12:05;SPECI CYVR 301205Z 28011KT 20SM FEW017 SCT050 BKN085 BKN140 15/ RMK SC1SC2AC3AC1 CB EMBD LTGIC N=

CYVR;2006-07-30 13:00;METAR CYVR 301300Z 30007KT 15SM FEW017 FEW040CB BKN077 BKN140 16/11 A2992 RMK CF1CB2AC4AC1 OCNL LTGIC DIST N AND E SLP131=

CYVR;2006-07-30 13:09;SPECI CYVR 301309Z 29007KT 15SM -SHRA FEW016 FEW040CB BKN070 BKN140 16/ RMK CF1CB2AC4AC1 OCNL LTGIC DIST N AND E=

CYVR;2006-07-30 14:00;METAR CYVR 301400Z 01004KT 20SM -SHRA FEW016 BKN056 BKN068 OVC140 14/12 A2993 RMK SF2SC3AC2AC1 CB EMBD SLP137=

CYVR;2006-07-30 14:33;SPECI CYVR 301433Z 02005KT 20SM FEW016 SCT055 BKN072 OVC120 14/ RMK SF1SC2AC2AC2 VC SHRA / CB EMBD=

CYVR;2006-07-30 15:00;METAR CYVR 301500Z 04008KT 20SM FEW016 SCT055 BKN076 OVC120 14/12 A2996 RMK SF1SC3AC2AC1 DIST PCPN SE / CB EMBD SLP144=

CYVR;2006-07-30 16:00;METAR CYVR 301600Z 10006KT 20SM FEW017 FEW030 SCT062 BKN078 15/12 A2998 RMK SF1SC2SC2AC3 CB EMBD SLP151=

CYVR;2006-07-30 17:00;METAR CYVR 301700Z 36015G21KT 15SM -SHRA FEW014 SCT030 BKN050 BKN080 BKN140 17/13 A2999 RMK SF2SC2SC1AC2AC1 PCPN VRY LGT / CB EMBD SLP155=

CYVR;2006-07-30 17:15;SPECI CYVR 301715Z 09007G17KT 4SM +TSRA SCT008 BKN016CB BKN030 12/ RMK SF3CB2SC2 LTGCC=

CYVR;2006-07-30 17:36;SPECI CYVR 301736Z 11009KT 15SM SHRA FEW008 SCT016 BKN030 BKN079 12/ RMK SF1SC3SC2AC1 VIS LWR NE-SE 6SM / CB EMBD=

CYVR;2006-07-30 19:00;METAR CYVR 301900Z 14006KT 20SM FEW014 SCT055 BKN083 BKN220 16/13 A3002 RMK SF2SC2AC2CI1 SLP165=

CYVR;2006-07-30 20:00;METAR CYVR 302000Z 13008KT 30SM FEW025 FEW052 FEW080 SCT220 17/10 A3003 RMK SF1SC1AC1CI1 SLP168=

CYVR;2006-07-30 21:00;METAR CYVR 302100Z 18006KT 30SM FEW030 SCT220 18/11 A3003 RMK SC2CI2 SLP169=

CYVR;2006-07-30 22:00;METAR CYVR 302200Z 19006KT 30SM FEW040 FEW090 SCT220 20/10 A3003 RMK SC2AC1CI2 SLP169=

CYVR;2006-07-30 23:00;METAR CYVR 302300Z 23005KT 30SM FEW040 FEW070 FEW220 20/09 A3003 RMK SC1AC1CI1 SLP170=

CYVR;2006-07-31 00:00;METAR CYVR 310000Z 22009KT 30SM FEW040 FEW070 SCT220 20/10 A3003 RMK SC1AC1CI2 SLP170=

CYVR;2006-07-31 01:00;METAR CYVR 310100Z 22008G15KT 30SM FEW060 SCT110 BKN220 19/09 A3003 RMK SC2AC2CI2 TCU EMBD SLP170=

CYVR;2006-07-31 02:00;METAR CYVR 310200Z 21007KT 30SM FEW045 SCT095 BKN220 19/09 A3004 RMK SC1AC1CI1 TCU EMBD SLP171=

CYVR;2006-07-31 03:00;METAR CYVR 310300Z 23002KT 30SM FEW050 FEW095 SCT220 18/11 A3004 RMK SC1AC0CI1 SLP172=

CYVR;2006-07-31 04:00;METAR CYVR 310400Z 25003KT 30SM FEW050 FEW080 FEW220 17/11 A3004 RMK SC1AC0CI0 SLP173=

CYVR;2006-07-31 05:00;METAR CYVR 310500Z 00000KT 30SM FEW050 FEW080 16/11 A3005 RMK SC1AC0 SLP177=

CYVR;2006-07-31 06:00;METAR CYVR 310600Z 13002KT 30SM FEW050 16/11 A3006 RMK SC1 SLP178=

CYVR;2006-07-31 07:00;METAR CYVR 310700Z 09002KT 30SM SCT055 14/11 A3006 RMK SC2 SLP179=

CYVR;2006-07-31 08:00;METAR CYVR 310800Z 09006KT 30SM FEW050 BKN090 14/12 A3006 RMK SC1AC6 SLP180=

CYVR;2006-07-31 09:00;METAR CYVR 310900Z 11007KT 30SM FEW057 BKN088 14/12 A3006 RMK SC2AC5 SLP180=

CYVR;2006-07-31 10:00;METAR CYVR 311000Z 10006KT 30SM FEW055 BKN088 14/11 A3006 RMK SC1AC6 SLP179=

CYVR;2006-07-31 11:00;METAR CYVR 311100Z 10008KT 30SM FEW060 OVC090 14/11 A3005 RMK SC2AC6 SLP177=

CYVR;2006-07-31 12:00;METAR CYVR 311200Z 08005KT 30SM FEW055 BKN090 14/11 A3005 RMK SC2AC5 SLP176=

CYVR;2006-07-31 13:00;METAR CYVR 311300Z 10006KT 30SM FEW055 BKN090 14/11 A3005 RMK SC2AC4 SLP177=

CYVR;2006-07-31 14:00;METAR CYVR 311400Z 13006KT 30SM FEW025 SCT058 BKN085 14/11 A3006 RMK SF2SC2AC3 SLP178=

CYVR;2006-07-31 15:00;METAR CYVR 311500Z 15004KT 20SM SCT027 BKN057 BKN078 15/11 A3006 RMK SC3SC2AC2 DIST PCPN W SLP180=

CYVR;2006-07-31 16:00;METAR CYVR 311600Z 20003KT 20SM SCT027 BKN054 BKN076 15/12 A3006 RMK SC3SC2AC2 DIST PCPN SW SLP180=

CYVR;2006-07-31 17:00;METAR CYVR 311700Z 22002KT 30SM SCT015 BKN021 OVC074 16/12 A3006 RMK SC3SC3AC1 SLP179=

CYVR;2006-07-31 18:00;METAR CYVR 311800Z 23005KT 30SM FEW020 BKN050 BKN076 17/12 A3006 RMK SC2SC3AC2 DIST PCPN NE SLP178=

CYVR;2006-07-31 19:00;METAR CYVR 311900Z 23007KT 30SM SCT030 BKN077 18/13 A3005 RMK SC3AC4 SLP175=

CYVR;2006-07-31 21:00;METAR CYVR 312100Z 30009KT 30SM FEW030 BKN080 20/12 A3003 RMK SC2AC4 SLP169=

CYVR;2006-07-31 23:00;METAR CYVR 312300Z 26007KT 30SM FEW040 BKN080 20/12 A3001 RMK SC2AC2 TCU ASOCTD SLP161=

CYVR;2006-08-01 00:00;METAR CYVR 010000Z 25008KT 30SM FEW040 SCT080 20/12 A2999 RMK SC2AC1 TCU EMBD SLP157=

CYVR;2006-08-01 02:00;METAR CYVR 010200Z 22007KT 30SM FEW045 FEW080 FEW220 20/10 A2998 RMK SC1AC0CI0 SLP151=

CYVR;2006-08-01 04:00;METAR CYVR 010400Z 18004KT 30SM FEW080 SCT220 19/11 A2997 RMK AC0CI1 CONTRAILS SLP150=

CYVR;2006-08-01 05:00;METAR CYVR 010500Z 13004KT 30SM FEW080 FEW220 18/11 A2998 RMK AC0CI1 SLP152=

CYVR;2006-08-01 06:00;METAR CYVR 010600Z 09006KT 30SM FEW085 FEW220 15/11 A2998 RMK AC1CI0 SLP154=

CYVR;2006-08-01 07:00;METAR CYVR 010700Z 09005KT 30SM FEW085 FEW220 15/12 A2999 RMK AC1CI0 SLP155=

CYVR;2006-08-01 08:00;METAR CYVR 010800Z 11008KT 30SM FEW085 BKN250 15/12 A2999 RMK AC1CS4 SLP156=

CYVR;2006-08-01 09:00;METAR CYVR 010900Z 11007KT 30SM FEW080 BKN240 14/11 A2999 RMK AC1CS2 SLP156=

CYVR;2006-08-01 10:00;METAR CYVR 011000Z 11007KT 30SM FEW080 SCT230 15/11 A2999 RMK AC1CI2 SLP157=

CYVR;2006-08-01 11:00;METAR CYVR 011100Z 10007KT 30SM FEW089 SCT180 BKN220 14/11 A3000 RMK AC1AC1CC2 SLP160=

CYVR;2006-08-01 12:00;METAR CYVR 011200Z 10007KT 30SM SCT080 OVC170 14/11 A3001 RMK AC3AC4 SLP162=

CYVR;2006-08-01 13:00;METAR CYVR 011300Z 11009KT 30SM FEW050 BKN090 OVC170 14/11 A3002 RMK SC2AC4AC2 SLP165=

CYVR;2006-08-01 14:00;METAR CYVR 011400Z 11007KT 30SM FEW050 FEW080 BKN170 OVC210 14/11 A3004 RMK SF1AS2AC2CS2 SLP172=

CYVR;2006-08-01 15:00;METAR CYVR 011500Z 11009KT 30SM SCT011 BKN050 OVC170 15/11 A3005 RMK SF3SC2AC2 SLP175=

CYVR;2006-08-01 16:00;METAR CYVR 011600Z 13010KT 30SM SCT011 SCT060 OVC180 16/12 A3006 RMK SF2SC2AS3 SLP179=

CYVR;2006-08-01 17:00;METAR CYVR 011700Z 14010KT 30SM FEW018 SCT050 SCT120 OVC170 17/12 A3006 RMK SF2SC2AC1AC4 SLP181=

CYVR;2006-08-01 18:00;METAR CYVR 011800Z 13012KT 30SM FEW050 SCT170 BKN210 18/12 A3007 RMK SC1AC2CI1 SLP183=

CYVR;2006-08-01 19:00;METAR CYVR 011900Z 15012KT 30SM FEW050 SCT210 19/12 A3008 RMK SC2CS2 SLP185=

CYVR;2006-08-01 20:00;METAR CYVR 012000Z 14009KT 30SM FEW050 FEW210 20/12 A3008 RMK SC1CI1 TCU ASOCTD SLP186=

CYVR;2006-08-01 23:00;METAR CYVR 012300Z 17009KT 30SM FEW050 SCT090 22/11 A3008 RMK SC1AC3 TCU ASOCTD SLP187=

CYVR;2006-08-02 00:00;METAR CYVR 020000Z 15009KT 30SM FEW050 BKN085 20/10 A3009 RMK SC1AC5 TCU ASOCTD SLP188=

CYVR;2006-08-02 01:00;METAR CYVR 020100Z 15005KT 30SM FEW050 SCT080 21/10 A3007 RMK SC1AC2 SLP184=

CYVR;2006-08-02 02:00;METAR CYVR 020200Z 18003KT 30SM FEW050 FEW080 21/11 A3007 RMK SC1AC1 SLP184=

CYVR;2006-08-02 03:00;METAR CYVR 020300Z 13005KT 30SM FEW050 FEW080 20/11 A3008 RMK CF0AC0 SLP185=

CYVR;2006-08-02 04:00;METAR CYVR 020400Z 11007KT 30SM FEW050 FEW080 18/11 A3008 RMK SF1AC0 TR SF SLP187=

CYVR;2006-08-02 05:00;METAR CYVR 020500Z 11007KT 30SM FEW040 FEW063 16/12 A3010 RMK SC1SC1 TR SC SLP193=

CYVR;2006-08-02 06:00;METAR CYVR 020600Z 10005KT 30SM FEW045 16/11 A3011 RMK SC1 SLP195=

CYVR;2006-08-02 07:00;METAR CYVR 020700Z 10003KT 30SM FEW060 16/12 A3012 RMK SF0 SLP200=

CYVR;2006-08-02 08:00;METAR CYVR 020800Z 10002KT 30SM FEW060 15/12 A3012 RMK SF0 SLP201=

CYVR;2006-08-02 09:00;METAR CYVR 020900Z 11006KT 30SM FEW060 14/11 A3013 RMK SC1 SLP204=

CYVR;2006-08-02 10:00;METAR CYVR 021000Z 32002KT 30SM FEW060 14/11 A3014 RMK SC1 SLP207=

CYVR;2006-08-02 11:00;METAR CYVR 021100Z 02003KT 30SM FEW050 14/10 A3015 RMK SC1 SLP210=

CYVR;2006-08-02 12:00;METAR CYVR 021200Z 08007KT 30SM FEW050 13/10 A3015 RMK SC1 SLP211=

CYVR;2006-08-02 13:00;METAR CYVR 021300Z 09007KT 30SM FEW050 13/10 A3016 RMK SC0 SLP213=

CYVR;2006-08-02 14:00;METAR CYVR 021400Z 10005KT 30SM FEW050 15/11 A3017 RMK SF0 SLP218=

CYVR;2006-08-02 15:00;METAR CYVR 021500Z 11004KT 30SM FEW050 16/12 A3019 RMK SC2 SLP223=

CYVR;2006-08-02 16:00;METAR CYVR 021600Z 10005KT 30SM FEW045 FEW090 17/12 A3020 RMK SC2AC1 SLP226=

CYVR;2006-08-02 17:00;METAR CYVR 021700Z 08003KT 30SM FEW030 SCT150 BKN240 18/12 A3020 RMK CF2AC2CS2 SLP227=

CYVR;2006-08-02 18:00;METAR CYVR 021800Z 27008KT 30SM SCT030 BKN150 18/13 A3021 RMK SC4AC2 SLP230=

CYVR;2006-08-02 19:00;METAR CYVR 021900Z 30008KT 30SM FEW020 FEW040 19/13 A3021 RMK SC1SC2 SLP230=

CYVR;2006-08-02 20:00;METAR CYVR 022000Z 28006KT 30SM FEW030 BKN200 20/13 A3021 RMK SC2CS0 SLP229=

CYVR;2006-08-02 21:00;METAR CYVR 022100Z 26007KT 30SM FEW030 BKN200 20/13 A3019 RMK SC2CS0 SLP225=

CYVR;2006-08-02 22:00;METAR CYVR 022200Z 24008KT 30SM FEW040 SCT200 20/13 A3019 RMK SC2CS0 SLP222=

CYVR;2006-08-02 23:00;METAR CYVR 022300Z 25007KT 30SM FEW040 21/13 A3018 RMK SC2 SLP219=

CYVR;2006-08-03 00:00;METAR CYVR 030000Z 24007KT 30SM FEW040 SCT200 20/13 A3016 RMK SC2CI2 SLP213=

CYVR;2006-08-03 01:00;METAR CYVR 030100Z 25006KT 30SM FEW040 BKN200 20/12 A3014 RMK SC2CI2 SLP208=

CYVR;2006-08-03 02:00;METAR CYVR 030200Z 27006KT 30SM FEW040 SCT200 20/13 A3013 RMK SC1CI2 SLP204=

CYVR;2006-08-03 03:00;METAR CYVR 030300Z 24005KT 30SM FEW040 FEW220 19/13 A3012 RMK SC0CI1 SLP201=

CYVR;2006-08-03 04:00;METAR CYVR 030400Z 25003KT 30SM SCT220 19/12 A3012 RMK CI1 CONTRAILS SLP201=

CYVR;2006-08-03 06:00;METAR CYVR 030600Z 00000KT 30SM FEW220 18/13 A3011 RMK CI1 SLP198=

CYVR;2006-08-03 07:00;METAR CYVR 030700Z 11002KT 30SM FEW220 17/13 A3011 RMK CI1 SLP197=

CYVR;2006-08-03 08:00;METAR CYVR 030800Z 14002KT 30SM FEW220 15/13 A3010 RMK CS1 SLP194=

CYVR;2006-08-03 09:00;METAR CYVR 030900Z 11006KT 30SM FEW220 14/12 A3009 RMK CS1 SLP191=

CYVR;2006-08-03 10:00;METAR CYVR 031000Z 08006KT 30SM FEW230 15/13 A3009 RMK CS1 SLP190=

CYVR;2006-08-03 11:00;METAR CYVR 031100Z 09005KT 30SM FEW180 FEW220 14/12 A3009 RMK AC1CS0 SLP191=

CYVR;2006-08-03 12:00;METAR CYVR 031200Z 34003KT 20SM FEW019 SCT180 BKN230 14/12 A3010 RMK SC1AC1CS1 SLP193=

CYVR;2006-08-03 13:00;METAR CYVR 031300Z 02003KT 30SM SCT023 SCT180 OVC230 14/12 A3010 RMK SC2AC1CS2 SLP193=

CYVR;2006-08-03 14:00;METAR CYVR 031400Z 00000KT 30SM BKN022 BKN180 OVC230 16/13 A3011 RMK SC5AC1CS1 SLP196=

CYVR;2006-08-03 15:00;METAR CYVR 031500Z 35003KT 30SM BKN021 BKN220 17/13 A3011 RMK SC5CS2 SLP197=

CYVR;2006-08-03 16:00;METAR CYVR 031600Z 31008KT 30SM SCT021 BKN210 17/13 A3011 RMK SC2CS2 SLP197=

CYVR;2006-08-03 17:00;METAR CYVR 031700Z 30012KT 20SM FEW018 BKN210 18/13 A3011 RMK SC2CS2 SLP197=

CYVR;2006-08-03 18:00;METAR CYVR 031800Z 29010KT 20SM FEW019 BKN210 18/13 A3011 RMK SC1CS2 SLP195=

CYVR;2006-08-03 19:00;METAR CYVR 031900Z 29010KT 30SM FEW019 SCT210 20/13 A3010 RMK SC1CI1 SLP192=

CYVR;2006-08-03 20:00;METAR CYVR 032000Z 29008KT 30SM FEW020 BKN210 19/13 A3008 RMK SC1CS2 SLP187=

CYVR;2006-08-03 21:00;METAR CYVR 032100Z 30009KT 30SM FEW025 SCT210 19/13 A3007 RMK SC1CI2 SLP183=

CYVR;2006-08-03 22:00;METAR CYVR 032200Z 28009KT 30SM FEW025 SCT210 20/13 A3006 RMK SC1CI2 SLP179=

CYVR;2006-08-03 23:00;METAR CYVR 032300Z 28010KT 30SM FEW040 FEW210 20/14 A3004 RMK SC1CI1 SLP174=

CYVR;2006-08-04 00:00;METAR CYVR 040000Z 27009KT 30SM FEW040 FEW210 21/13 A3003 RMK SC1CI1 SLP168=

CYVR;2006-08-04 01:00;METAR CYVR 040100Z 29008KT 30SM FEW045 BKN210 20/13 A3001 RMK SC1CS2 SLP164=

CYVR;2006-08-04 02:00;METAR CYVR 040200Z 29008KT 30SM OVC210 20/12 A3000 RMK CI3 SLP160=

CYVR;2006-08-04 03:00;METAR CYVR 040300Z 29007KT 30SM BKN210 19/13 A2999 RMK CI2 SLP157=

CYVR;2006-08-04 04:00;METAR CYVR 040400Z 28008KT 30SM FEW100 BKN210 18/13 A3000 RMK AC1CI2 SLP159=

CYVR;2006-08-04 05:00;METAR CYVR 040500Z 30010KT 30SM BKN210 18/14 A3000 RMK CI2 SLP160=

CYVR;2006-08-04 06:00;METAR CYVR 040600Z 29020KT 30SM SCT210 18/13 A2999 RMK CI2 SLP156=

CYVR;2006-08-04 07:00;METAR CYVR 040700Z 29016G21KT 20SM SCT210 18/14 A2999 RMK CI1 SLP156=

CYVR;2006-08-04 08:00;METAR CYVR 040800Z 30021KT 20SM SCT210 17/11 A2999 RMK CI1 SLP157=

CYVR;2006-08-04 09:00;METAR CYVR 040900Z 31019G24KT 20SM BKN210 17/12 A2999 RMK CI2 SLP155=

CYVR;2006-08-04 10:00;METAR CYVR 041000Z 31017KT 20SM FEW210 16/11 A2999 RMK CI1 SLP157=

CYVR;2006-08-04 11:00;METAR CYVR 041100Z 31016G21KT 20SM FEW100 SCT210 16/11 A2999 RMK AC1CI1 SLP157=

CYVR;2006-08-04 12:00;METAR CYVR 041200Z 30017KT 20SM BKN068 BKN210 15/11 A3001 RMK AC5CI1 SLP161=

CYVR;2006-08-04 13:00;METAR CYVR 041300Z 31015KT 20SM SCT064 SCT100 BKN210 15/12 A3002 RMK SC3AC1CI1 SLP165=

CYVR;2006-08-04 14:00;METAR CYVR 041400Z 30013KT 20SM SCT068 BKN210 15/12 A3003 RMK AC3CI0 SLP168=

CYVR;2006-08-04 16:00;METAR CYVR 041600Z 30013KT 30SM FEW040 FEW100 SCT210 17/11 A3005 RMK SC1AC1CI0 SLP175=

CYVR;2006-08-04 17:00;METAR CYVR 041700Z 30013KT 30SM FEW043 FEW210 17/12 A3006 RMK SC1CI1 SLP178=

CYVR;2006-08-04 18:00;METAR CYVR 041800Z 30011KT 30SM FEW035 FEW210 18/12 A3007 RMK SC1CI1 SLP182=

CYVR;2006-08-04 19:00;METAR CYVR 041900Z 30011KT 30SM FEW035 FEW200 18/11 A3007 RMK SC1CI1 SLP182=

CYVR;2006-08-04 20:00;METAR CYVR 042000Z 29011KT 30SM FEW045 19/12 A3007 RMK SC1 SLP182=

CYVR;2006-08-04 21:00;METAR CYVR 042100Z 28009KT 30SM FEW045 20/12 A3006 RMK CU1 SLP178=

CYVR;2006-08-04 22:00;METAR CYVR 042200Z 28008KT 30SM FEW045 20/12 A3005 RMK CU1 SLP176=

CYVR;2006-08-04 23:00;METAR CYVR 042300Z 30007KT 30SM FEW045 20/11 A3004 RMK CU1 SLP172=

CYVR;2006-08-05 00:00;METAR CYVR 050000Z 26006KT 30SM FEW045 20/11 A3003 RMK CU1 SLP169=

CYVR;2006-08-05 01:00;METAR CYVR 050100Z 30004KT 30SM FEW045 21/10 A3003 RMK CU1 SLP168=

CYVR;2006-08-05 02:00;METAR CYVR 050200Z 31004KT 30SM SKC 20/10 A3002 RMK SLP167=

CYVR;2006-08-05 03:00;METAR CYVR 050300Z 34005KT 30SM SKC 19/09 A3001 RMK SLP163=

CYVR;2006-08-05 04:00;METAR CYVR 050400Z 01006KT 30SM FEW210 18/10 A3001 RMK CI1 TR CI SLP164=

CYVR;2006-08-05 05:00;METAR CYVR 050500Z 03003KT 30SM FEW210 18/10 A3003 RMK CI1 TR CI SLP169=

CYVR;2006-08-05 06:00;METAR CYVR 050600Z 17002KT 30SM SKC 18/10 A3003 RMK SLP169=

CYVR;2006-08-05 07:00;METAR CYVR 050700Z 00000KT 20SM SKC 17/10 A3004 RMK SLP171=

CYVR;2006-08-05 08:00;METAR CYVR 050800Z 00000KT 20SM SKC 16/10 A3004 RMK SLP172=

CYVR;2006-08-05 09:00;METAR CYVR 050900Z 00000KT 20SM SKC 15/10 A3004 RMK SLP173=

CYVR;2006-08-05 10:00;METAR CYVR 051000Z 03002KT 20SM SKC 15/11 A3004 RMK SLP173=

CYVR;2006-08-05 11:00;METAR CYVR 051100Z 00000KT 20SM SKC 15/11 A3004 RMK SLP174=

CYVR;2006-08-05 12:00;METAR CYVR 051200Z 00000KT 20SM SKC 13/10 A3004 RMK SLP174=

CYVR;2006-08-05 13:00;METAR CYVR 051300Z 00000KT 30SM SKC 14/11 A3006 RMK SLP178=

CYVR;2006-08-05 14:00;METAR CYVR 051400Z 34002KT 30SM FEW240 16/11 A3007 RMK CI0 SLP183=

CYVR;2006-08-05 15:00;METAR CYVR 051500Z 12002KT 30SM FEW240 18/12 A3008 RMK CI0 SLP185=

CYVR;2006-08-05 16:00;METAR CYVR 051600Z 20002KT 30SM FEW240 19/12 A3008 RMK CI0 SLP185=

CYVR;2006-08-05 17:00;METAR CYVR 051700Z 26004KT 30SM FEW240 19/13 A3007 RMK CI0 SLP184=

CYVR;2006-08-05 18:00;METAR CYVR 051800Z 26006KT 30SM FEW240 20/14 A3008 RMK CI1 SLP185=

CYVR;2006-08-05 19:00;METAR CYVR 051900Z 26006KT 30SM FEW240 21/15 A3007 RMK CI1 SLP183=

CYVR;2006-08-05 20:00;METAR CYVR 052000Z 24006KT 30SM FEW240 21/14 A3006 RMK CI1 SLP179=

CYVR;2006-08-05 21:00;METAR CYVR 052100Z 27006KT 30SM FEW050 SCT240 22/13 A3005 RMK CU1CI1 TR CU SLP175=

CYVR;2006-08-05 22:00;METAR CYVR 052200Z 27006KT 30SM FEW050 FEW240 22/14 A3004 RMK CU1CI1 TR CU SLP171=

CYVR;2006-08-05 23:00;METAR CYVR 052300Z 29005KT 30SM FEW050 FEW240 22/12 A3002 RMK CU1CI1 TR CU SLP165=

CYVR;2006-08-06 00:00;METAR CYVR 060000Z 25005KT 30SM FEW040 FEW240 23/12 A3000 RMK CU1CI1 TR CU SLP159=

CYVR;2006-08-06 01:00;METAR CYVR 060100Z 28005KT 30SM FEW240 23/11 A2999 RMK CI1 SLP155=

CYVR;2006-08-06 02:00;METAR CYVR 060200Z 29003KT 30SM SCT120 BKN240 22/13 A2998 RMK AC3CI1 SLP151=

CYVR;2006-08-06 03:00;METAR CYVR 060300Z 32004KT 30SM FEW140 BKN240 21/13 A2996 RMK AC1CI2 SLP147=

CYVR;2006-08-06 04:00;METAR CYVR 060400Z 33002KT 30SM FEW140 SCT240 19/13 A2996 RMK AC1CI1 SLP146=

CYVR;2006-08-06 05:00;METAR CYVR 060500Z 00000KT 30SM FEW140 SCT240 20/12 A2996 RMK AC1CI1 SLP146=

CYVR;2006-08-06 06:00;METAR CYVR 060600Z 20005KT 30SM FEW140 SCT230 19/14 A2996 RMK AC1CI1 SLP146=

CYVR;2006-08-06 07:00;METAR CYVR 060700Z 11003KT 30SM FEW240 18/13 A2996 RMK CI1 SLP145=

CYVR;2006-08-06 08:00;METAR CYVR 060800Z 05003KT 30SM FEW240 17/12 A2996 RMK CI1 SLP147=

CYVR;2006-08-06 09:00;METAR CYVR 060900Z 10004KT 30SM FEW240 16/13 A2996 RMK CI1 SLP146=

CYVR;2006-08-06 10:00;METAR CYVR 061000Z 14006KT 30SM FEW230 18/14 A2996 RMK CI1 SLP147=

CYVR;2006-08-06 11:00;METAR CYVR 061100Z 10005KT 30SM FEW230 15/13 A2997 RMK CI1 SLP149=

CYVR;2006-08-06 12:00;METAR CYVR 061200Z 10004KT 30SM FEW100 FEW230 15/12 A2997 RMK AC1CI1 SLP149=

CYVR;2006-08-06 13:00;METAR CYVR 061300Z 11003KT 30SM FEW100 15/12 A2998 RMK AC1 SLP152=

CYVR;2006-08-06 14:00;METAR CYVR 061400Z 11005KT 30SM FEW110 16/13 A2998 RMK AC1 SLP154=

CYVR;2006-08-06 15:00;METAR CYVR 061500Z 11007KT 30SM FEW110 18/12 A2999 RMK AC1 SLP157=

CYVR;2006-08-06 16:00;METAR CYVR 061600Z 13005KT 30SM FEW240 20/12 A3001 RMK CI0 SLP161=

CYVR;2006-08-06 17:00;METAR CYVR 061700Z 10007KT 30SM FEW040 21/12 A3000 RMK CU1 TR CU SLP160=

CYVR;2006-08-06 18:00;METAR CYVR 061800Z 17004KT 30SM FEW040 23/12 A3000 RMK CU1 TR CU SLP158=

CYVR;2006-08-06 19:00;METAR CYVR 061900Z 23007KT 30SM FEW045 FEW240 24/13 A2999 RMK CU1CI1 TR CU SLP156=

CYVR;2006-08-06 20:00;METAR CYVR 062000Z 26009KT 30SM FEW045 FEW240 25/12 A2998 RMK CU1CI1 TR CU SLP152=

CYVR;2006-08-06 21:00;METAR CYVR 062100Z 27003KT 30SM FEW050 FEW240 23/17 A2997 RMK CU1CI0 SLP149=

CYVR;2006-08-06 22:00;METAR CYVR 062200Z 25007KT 30SM FEW050 FEW240 23/17 A2996 RMK CU1CI1 SLP145=

CYVR;2006-08-06 23:00;METAR CYVR 062300Z 25005KT 30SM FEW040 FEW240 22/16 A2995 RMK CU1CI1 TR CU SLP141=

CYVR;2006-08-07 00:00;METAR CYVR 070000Z 26004KT 30SM FEW240 23/16 A2993 RMK CI1 SLP135=

CYVR;2006-08-07 01:00;METAR CYVR 070100Z 25005KT 30SM FEW240 23/16 A2992 RMK CI1 SLP131=

CYVR;2006-08-07 02:00;METAR CYVR 070200Z 27003KT 30SM FEW240 21/16 A2991 RMK CI1 SLP127=

CYVR;2006-08-07 03:00;METAR CYVR 070300Z 34003KT 30SM FEW240 21/15 A2989 RMK CI1 SLP123=

CYVR;2006-08-07 04:00;METAR CYVR 070400Z 00000KT 30SM FEW240 22/11 A2989 RMK CI1 SLP123=

CYVR;2006-08-07 05:00;METAR CYVR 070500Z 00000KT 30SM FEW240 21/12 A2989 RMK CI1 SLP123=

CYVR;2006-08-07 06:00;METAR CYVR 070600Z 13007KT 30SM FEW240 18/14 A2989 RMK CI1 SLP122=

CYVR;2006-08-07 07:00;METAR CYVR 070700Z 09005KT 30SM FEW240 17/14 A2989 RMK CI1 SLP121=

CYVR;2006-08-07 08:00;METAR CYVR 070800Z 10005KT 30SM FEW240 16/13 A2990 RMK CI1 SLP124=

CYVR;2006-08-07 09:00;METAR CYVR 070900Z 12005KT 30SM FEW240 17/14 A2989 RMK CI1 SLP123=

CYVR;2006-08-07 10:00;METAR CYVR 071000Z 14006KT 30SM FEW240 17/13 A2990 RMK CI1 SLP125=

CYVR;2006-08-07 11:00;METAR CYVR 071100Z 11006KT 30SM FEW240 15/13 A2991 RMK CI1 SLP130=

CYVR;2006-08-07 12:00;METAR CYVR 071200Z 13008KT 30SM SKC 15/13 A2992 RMK SLP131=

CYVR;2006-08-07 13:00;METAR CYVR 071300Z 11006KT 30SM FEW240 14/13 A2992 RMK CI1 SLP131=

CYVR;2006-08-07 14:00;METAR CYVR 071400Z 11008KT 30SM SCT240 15/12 A2993 RMK CI0 SLP135=

CYVR;2006-08-07 15:00;METAR CYVR 071500Z 12009KT 30SM SCT240 16/13 A2994 RMK CI0 SLP138=

CYVR;2006-08-07 16:00;METAR CYVR 071600Z 12008KT 30SM FEW240 18/13 A2995 RMK CI0 SLP141=

CYVR;2006-08-07 17:00;METAR CYVR 071700Z 14008KT 30SM FEW150 FEW240 19/13 A2994 RMK AC0CI0 SLP139=

CYVR;2006-08-07 18:00;METAR CYVR 071800Z 13005KT 30SM FEW150 FEW240 22/14 A2994 RMK AC0CI0 SLP138=

CYVR;2006-08-07 19:00;METAR CYVR 071900Z 16008KT 30SM FEW150 FEW240 22/13 A2993 RMK AS1CI0 TR AS SLP137=

CYVR;2006-08-07 20:00;METAR CYVR 072000Z 12007KT 30SM FEW150 FEW240 24/12 A2992 RMK AC1CI0 SLP133=

CYVR;2006-08-07 21:00;METAR CYVR 072100Z 13005KT 30SM FEW150 FEW240 25/12 A2992 RMK AC0CI0 SLP132=

CYVR;2006-08-07 22:00;METAR CYVR 072200Z 13006KT 30SM FEW150 FEW240 27/13 A2991 RMK AC0CI0 SLP128=

CYVR;2006-08-07 23:00;METAR CYVR 072300Z 17008KT 30SM FEW150 FEW220 26/13 A2990 RMK AC0CI0 CONTRAILS SLP126=

CYVR;2006-08-08 00:00;METAR CYVR 080000Z 18006KT 30SM FEW150 FEW220 26/13 A2989 RMK AC0CI0 SLP123=

CYVR;2006-08-08 02:00;METAR CYVR 080200Z 14008KT 30SM FEW200 25/13 A2988 RMK CI1 SLP119=

CYVR;2006-08-08 03:00;METAR CYVR 080300Z 10009KT 30SM FEW180 FEW200 22/13 A2988 RMK AC1CI0 SLP119=

CYVR;2006-08-08 04:00;METAR CYVR 080400Z 11010KT 30SM FEW180 FEW200 19/13 A2989 RMK AC1CI0 SLP123=

CYVR;2006-08-08 05:00;METAR CYVR 080500Z 11011KT 20SM FEW180 FEW200 18/12 A2992 RMK AC1CI0 SLP131=

CYVR;2006-08-08 06:00;METAR CYVR 080600Z 11014KT 20SM FEW180 FEW200 18/11 A2993 RMK AC1CI0 SLP137=

CYVR;2006-08-08 07:00;METAR CYVR 080700Z 13012KT 20SM FEW180 17/10 A2995 RMK AC1 SLP142=

CYVR;2006-08-08 08:00;METAR CYVR 080800Z 11012KT 20SM FEW180 17/09 A2996 RMK AC1 SLP147=

CYVR;2006-08-08 09:00;METAR CYVR 080900Z 11010KT 20SM FEW180 15/09 A2998 RMK AC1 SLP152=

CYVR;2006-08-08 10:00;METAR CYVR 081000Z 10012KT 20SM FEW180 14/09 A2999 RMK AC1 SLP157=

CYVR;2006-08-08 11:00;METAR CYVR 081100Z 11011KT 20SM FEW180 14/08 A3000 RMK AC1 SLP160=

CYVR;2006-08-08 12:00;METAR CYVR 081200Z 11007KT 20SM FEW050 FEW180 14/09 A3002 RMK SC1AC1 SLP167=

CYVR;2006-08-08 13:00;METAR CYVR 081300Z 10010KT 20SM FEW100 BKN130 14/09 A3004 RMK AC2AC2 SLP171=

CYVR;2006-08-08 14:00;METAR CYVR 081400Z 12010KT 20SM SCT100 BKN140 16/10 A3004 RMK AC3AC2 SLP174=

CYVR;2006-08-08 15:00;METAR CYVR 081500Z 12012G17KT 30SM SCT092 BKN140 BKN220 17/11 A3006 RMK AC3AC2CC0 SLP179=

CYVR;2006-08-08 16:00;METAR CYVR 081600Z 11014KT 30SM FEW019 BKN075 OVC095 16/11 A3007 RMK CU2AC5AC1 SLP184=

CYVR;2006-08-08 17:00;METAR CYVR 081700Z 12011KT 20SM FEW019 BKN058 OVC075 16/11 A3009 RMK CU1SC5AC2 SLP191=

CYVR;2006-08-08 19:00;METAR CYVR 081900Z 16008KT 15SM -SHRA FEW020 BKN046 OVC058 17/12 A3011 RMK SC2SC5SC2 PCPN VRY LGT SLP197=

CYVR;2006-08-08 20:00;METAR CYVR 082000Z 21003KT 15SM -SHRA FEW020 OVC045 17/13 A3012 RMK CF1SC7 PCPN VRY LGT SLP201=

CYVR;2006-08-08 21:00;METAR CYVR 082100Z 00000KT 12SM -SHRA FEW027 OVC053 17/14 A3012 RMK SF2SC6 SLP201=

CYVR;2006-08-08 22:00;METAR CYVR 082200Z 15004KT 15SM FEW015 SCT050 OVC083 17/14 A3012 RMK SF2SC2AC5 SLP199=

CYVR;2006-08-08 23:00;METAR CYVR 082300Z 12003KT 20SM FEW015 SCT035 OVC071 18/13 A3012 RMK SF2SC2AC5 SLP200=

CYVR;2006-08-08 23:05;SPECI CYVR 082305Z 14004KT 15SM -SHRA FEW015 SCT033 OVC071 18/ RMK SF2SC2AC4 PCPN VRY LGT=

CYVR;2006-08-09 00:00;METAR CYVR 090000Z 12003KT 15SM -SHRA FEW015 BKN051 OVC064 17/14 A3012 RMK SC2SC5SC2 SLP201=

CYVR;2006-08-09 01:00;METAR CYVR 090100Z 11005KT 6SM -RA BR FEW027 BKN041 OVC068 17/14 A3012 RMK SC2SC2AC3 SLP200=

CYVR;2006-08-09 01:42;SPECI CYVR 090142Z 13004KT 7SM -RA FEW020 SCT040 OVC072 16/ RMK SC2SC2AC4=

CYVR;2006-08-09 02:00;METAR CYVR 090200Z 10004KT 6SM -RA BR FEW025 BKN050 OVC065 16/14 A3012 RMK SC2SC3SC2 SLP201=

CYVR;2006-08-09 03:49;SPECI CYVR 090349Z 10005KT 8SM FEW025 SCT060 BKN078 OVC090 16/ RMK SF2SC2AC3AC1=

CYVR;2006-08-09 04:00;METAR CYVR 090400Z 10005KT 10SM FEW025 SCT060 BKN079 OVC090 16/15 A3012 RMK SF2SC2AC3AC1 SLP200=

CYVR;2006-08-09 05:00;METAR CYVR 090500Z 10005KT 8SM FEW025 SCT050 OVC073 16/15 A3013 RMK SF2SC2AS4 SLP204=

CYVR;2006-08-09 05:24;SPECI CYVR 090524Z 12006KT 8SM FEW007 BKN037 OVC064 16/ RMK SF2SC3SC3=

CYVR;2006-08-09 05:51;SPECI CYVR 090551Z 11007KT 8SM -SHRA FEW007 SCT032 BKN039 OVC064 16/ RMK SF2SC2SC2SC2 PCPN VRY LGT=

CYVR;2006-08-09 06:00;METAR CYVR 090600Z 11006KT 6SM -SHRA BR FEW007 SCT031 OVC039 16/15 A3014 RMK SF2SC2SC4 SLP207=

CYVR;2006-08-09 06:54;SPECI CYVR 090654Z 11006KT 5SM -RA BR SCT006 BKN020 OVC032 16/ RMK SF3SC2SC2=

CYVR;2006-08-09 07:00;METAR CYVR 090700Z 10007KT 5SM -RA BR BKN007 BKN020 OVC032 16/15 A3014 RMK SF5SC2SC1 SLP207=

CYVR;2006-08-09 08:00;METAR CYVR 090800Z 11005KT 5SM -RA BR BKN005 OVC030 16/15 A3014 RMK SF6ST2 PCPN VRY LGT SLP207=

CYVR;2006-08-09 08:52;SPECI CYVR 090852Z 10004KT 4SM BR BKN004 OVC030 16/ RMK SF6ST2=

CYVR;2006-08-09 09:00;METAR CYVR 090900Z 10004KT 4SM BR BKN004 OVC030 16/15 A3014 RMK SF6ST2 SLP205=

CYVR;2006-08-09 09:18;SPECI CYVR 090918Z 11003KT 5SM BR BKN005 BKN030 OVC060 16/ RMK SF5SC2SC1=

CYVR;2006-08-09 10:00;METAR CYVR 091000Z 11003KT 6SM BR BKN007 OVC030 16/15 A3013 RMK SF6ST2 SLP203=

CYVR;2006-08-09 10:19;SPECI CYVR 091019Z 13002KT 6SM -SHRA BR BKN007 OVC030 16/ RMK SF6ST2=

CYVR;2006-08-09 10:54;SPECI CYVR 091054Z 00000KT 6SM -SHRA BR SCT006 BKN011 OVC030 16/ RMK SF3SF2ST2 PCPN VRY LGT=

CYVR;2006-08-09 11:00;METAR CYVR 091100Z 00000KT 6SM -SHRA BR SCT006 BKN010 OVC030 16/15 A3014 RMK SF3SF2ST2 PCPN VRY LGT SLP205=

CYVR;2006-08-09 12:00;METAR CYVR 091200Z 20004KT 4SM -SHRA BR SCT005 BKN010 OVC020 16/15 A3013 RMK SF3SF4ST1 PCPN VRY LGT SLP204=

CYVR;2006-08-09 12:38;SPECI CYVR 091238Z 30006KT 2SM -RA BR SCT003 BKN010 OVC020 16/ RMK SF4SF3ST1=

CYVR;2006-08-09 13:00;METAR CYVR 091300Z 31005KT 3SM -RA BR SCT003 BKN010 OVC020 16/15 A3014 RMK SF3SF4ST1 SLP205=

CYVR;2006-08-09 14:00;METAR CYVR 091400Z 30007KT 6SM -DZ SCT006 BKN011 OVC020 16/16 A3014 RMK SF4ST3ST1 PCPN VRY LGT SLP206=

CYVR;2006-08-09 14:30;SPECI CYVR 091430Z 30009KT 10SM SCT006 BKN018 16/ RMK SF3ST4 VIS LWR NE 4 SM=

CYVR;2006-08-09 15:00;METAR CYVR 091500Z 29011KT 15SM SCT008 BKN018 OVC024 17/16 A3014 RMK SF3SC2SC2 VIS NE LWR 10 SM SLP208=

CYVR;2006-08-09 15:21;SPECI CYVR 091521Z 29015KT 15SM FEW008 BKN013 OVC023 17/ RMK SF2SC2SC3 VIS N LWR 10 SM=

CYVR;2006-08-09 15:24;SPECI CYVR 091524Z 29014KT 15SM FEW008 BKN016 OVC023 16/ RMK SF2SC2SC3 VIS N LWR 10 SM=

CYVR;2006-08-09 16:00;METAR CYVR 091600Z 29012KT 15SM FEW008 SCT014 OVC025 17/15 A3015 RMK SF2SC2SC4 SLP210=

CYVR;2006-08-09 17:00;METAR CYVR 091700Z 29014KT 15SM FEW015 BKN038 BKN060 17/15 A3016 RMK SC2SC2SC2 SLP212=

CYVR;2006-08-09 18:00;METAR CYVR 091800Z 30010KT 15SM FEW015 SCT040 BKN060 17/15 A3016 RMK CU2SC2SC2 SLP214=

CYVR;2006-08-09 19:00;METAR CYVR 091900Z 30011KT 20SM FEW020 FEW045 BKN068 18/15 A3016 RMK SC2SC1AC2 CONTRAILS SLP213=

CYVR;2006-08-09 20:00;METAR CYVR 092000Z 31007KT 30SM FEW020 FEW025 FEW180 BKN240 20/15 A3015 RMK CF1SC1AC1CI0 CONTRAILS / TR CF SLP211=

CYVR;2006-08-09 21:00;METAR CYVR 092100Z 31006KT 30SM FEW020 FEW025 SCT170 BKN240 20/15 A3016 RMK CF1SC1AC1CI1 TR CF SLP212=

CYVR;2006-08-09 22:00;METAR CYVR 092200Z 24007KT 30SM FEW030 FEW170 BKN240 21/14 A3015 RMK SC1AC1CI1 SLP210=

CYVR;2006-08-09 23:00;METAR CYVR 092300Z 26008KT 30SM FEW035 SCT070 BKN170 BKN240 21/15 A3014 RMK SC1AC2AC1CI0 SLP207=

CYVR;2006-08-10 00:00;METAR CYVR 100000Z 26006KT 30SM FEW040 BKN090 BKN170 20/14 A3013 RMK SC1AC4AC1 SLP204=

CYVR;2006-08-10 01:00;METAR CYVR 100100Z 26005KT 30SM FEW040 SCT090 BKN220 19/15 A3013 RMK SC1AC2CI2 SLP203=

CYVR;2006-08-10 02:00;METAR CYVR 100200Z 29004KT 30SM FEW045 SCT090 BKN200 BKN240 19/14 A3012 RMK CF1AC3CC1CI1 TR CF SLP199=

CYVR;2006-08-10 03:00;METAR CYVR 100300Z 23002KT 30SM FEW045 BKN130 BKN160 18/13 A3011 RMK SC2AC3AC2 SLP195=

CYVR;2006-08-10 04:00;METAR CYVR 100400Z 32002KT 30SM SCT120 OVC140 18/13 A3011 RMK AC3AS4 SLP195=

CYVR;2006-08-10 05:00;METAR CYVR 100500Z 00000KT 30SM SCT120 BKN170 17/13 A3011 RMK AC3AS3 SLP195=

CYVR;2006-08-10 06:00;METAR CYVR 100600Z 00000KT 20SM BKN120 OVC170 18/13 A3010 RMK AC5AS2 SLP193=

CYVR;2006-08-10 07:00;METAR CYVR 100700Z 17003KT 20SM -SHRA FEW080 BKN110 OVC130 18/14 A3010 RMK AS2AS6AS1 PCPN VRY LGT SLP192=

CYVR;2006-08-10 07:26;SPECI CYVR 100726Z 00000KT 20SM FEW080 BKN110 OVC170 18/ RMK AS1AS4AS2=

CYVR;2006-08-10 08:00;METAR CYVR 100800Z 19002KT 20SM BKN110 OVC170 18/14 A3009 RMK AS6AS2 SLP189=

CYVR;2006-08-10 09:00;METAR CYVR 100900Z 31002KT 20SM SCT110 OVC120 18/14 A3008 RMK AS3AS5 SLP186=

CYVR;2006-08-10 10:00;METAR CYVR 101000Z 31007KT 20SM FEW100 OVC120 17/14 A3007 RMK AS2AS6 SLP182=

CYVR;2006-08-10 11:00;METAR CYVR 101100Z 31006KT 20SM FEW080 OVC110 17/15 A3006 RMK AS2AS6 SLP180=

CYVR;2006-08-10 12:00;METAR CYVR 101200Z 31008KT 20SM FEW016 BKN110 OVC140 17/14 A3006 RMK SF2AS3AC2 SLP178=

CYVR;2006-08-10 13:00;METAR CYVR 101300Z 29017KT 20SM FEW015 BKN110 OVC140 16/14 A3006 RMK SF2AS4AS1 SLP178=

CYVR;2006-08-10 14:00;METAR CYVR 101400Z 30016G21KT 20SM -SHRA FEW015 BKN080 OVC110 16/13 A3005 RMK SF2AS2AS3 PCPN VRY LGT SLP177=

CYVR;2006-08-10 15:00;METAR CYVR 101500Z 31015KT 15SM -SHRA FEW015 BKN073 OVC080 15/14 A3007 RMK SC2AC6AC1 SLP182=

CYVR;2006-08-10 16:00;METAR CYVR 101600Z 30009KT 15SM -RA FEW015 BKN049 OVC057 16/14 A3007 RMK SC1SC6SC2 SLP183=

CYVR;2006-08-10 17:00;METAR CYVR 101700Z 31011KT 15SM -RA SCT014 OVC050 16/14 A3006 RMK SC4SC4 SLP180=

CYVR;2006-08-10 17:42;SPECI CYVR 101742Z 29011KT 20SM BKN016 OVC050 17/ RMK SC6SC2=

CYVR;2006-08-10 18:00;METAR CYVR 101800Z 35004KT 20SM FEW015 SCT019 OVC083 17/14 A3006 RMK SC2SC2AC3 SLP179=

CYVR;2006-08-10 19:00;METAR CYVR 101900Z 29010KT 30SM FEW015 FEW020 BKN085 17/15 A3006 RMK CF1SC1AC6 SLP180=

CYVR;2006-08-10 20:00;METAR CYVR 102000Z 32008KT 30SM FEW015 BKN083 BKN110 18/14 A3006 RMK SF1AC4AC2 SLP179=

CYVR;2006-08-10 21:00;METAR CYVR 102100Z 30007KT 30SM FEW020 SCT050 BKN094 19/15 A3006 RMK CF1SC2AC3 SLP180=

CYVR;2006-08-10 22:00;METAR CYVR 102200Z 26005KT 30SM FEW020 FEW050 BKN085 19/14 A3006 RMK SF1SC2AC4 SLP178=

CYVR;2006-08-10 23:00;METAR CYVR 102300Z 24007KT 30SM FEW025 BKN076 BKN085 20/14 A3005 RMK SC2AC3AC2 SLP177=

CYVR;2006-08-11 00:00;METAR CYVR 110000Z 23005KT 30SM FEW025 FEW040 BKN085 19/13 A3005 RMK SC1SC1AC5 SLP175=

CYVR;2006-08-11 01:00;METAR CYVR 110100Z 25003KT 30SM FEW025 BKN090 BKN110 19/14 A3004 RMK SF1AC4AC1 SLP173=

CYVR;2006-08-11 02:00;METAR CYVR 110200Z 24004KT 30SM FEW025 FEW040 BKN090 BKN220 19/14 A3004 RMK SF1SC1AC2CI0 TR SF SLP171=

CYVR;2006-08-11 05:00;METAR CYVR 110500Z 16005KT 30SM FEW080 SCT120 18/11 A3005 RMK AC2AC2 SLP177=

CYVR;2006-08-11 06:00;METAR CYVR 110600Z 10006KT 30SM FEW080 SCT130 15/12 A3006 RMK AC2AC2 SLP178=

CYVR;2006-08-11 07:00;METAR CYVR 110700Z 10003KT 20SM FEW130 16/11 A3005 RMK AC2 SLP176=

CYVR;2006-08-11 08:00;METAR CYVR 110800Z 04002KT 20SM FEW140 15/11 A3005 RMK AC2 SLP177=

CYVR;2006-08-11 09:00;METAR CYVR 110900Z 00000KT 20SM FEW040 FEW150 14/11 A3005 RMK SC2AC1 SLP177=

CYVR;2006-08-11 10:00;METAR CYVR 111000Z 01003KT 20SM FEW040 SCT120 BKN140 15/13 A3006 RMK SC2AC2AC2 SLP180=

CYVR;2006-08-11 11:00;METAR CYVR 111100Z 15005KT 20SM FEW040 SCT120 BKN150 14/12 A3006 RMK SC2AC2AC2 SLP180=

CYVR;2006-08-11 12:00;METAR CYVR 111200Z 13005KT 20SM FEW020 SCT040 BKN130 14/11 A3007 RMK SF2SC2AC3 SLP184=

CYVR;2006-08-11 12:19;SPECI CYVR 111219Z 11007KT 10SM SCT013 BKN021 OVC030 14/ RMK SF4ST2ST2=

CYVR;2006-08-11 13:00;METAR CYVR 111300Z 11007KT 12SM SCT013 BKN019 OVC027 14/12 A3009 RMK SF3ST3ST2 SLP189=

CYVR;2006-08-11 14:00;METAR CYVR 111400Z 12010KT 20SM FEW013 BKN016 OVC032 14/12 A3010 RMK SF2SC6SC1 VIS N 10 SLP193=

CYVR;2006-08-11 15:00;METAR CYVR 111500Z 11009KT 20SM FEW011 BKN016 OVC032 14/12 A3011 RMK SF2SC6SC1 VIS N 10 SLP197=

CYVR;2006-08-11 16:00;METAR CYVR 111600Z 10009KT 20SM FEW011 BKN017 OVC026 15/12 A3012 RMK SF2SC4SC2 SLP199=

CYVR;2006-08-11 17:00;METAR CYVR 111700Z 11010KT 20SM FEW014 BKN022 OVC056 16/12 A3012 RMK SC2SC5SC2 SLP201=

CYVR;2006-08-11 18:00;METAR CYVR 111800Z 11008KT 15SM FEW012 BKN020 OVC054 16/12 A3013 RMK SC2SC4SC2 SLP204=

CYVR;2006-08-11 19:00;METAR CYVR 111900Z 11007KT 15SM BKN017 BKN056 18/13 A3013 RMK SC6SC1 SLP204=

CYVR;2006-08-11 20:00;METAR CYVR 112000Z 11010KT 15SM BKN020 BKN046 19/13 A3014 RMK SC5SC2 SLP207=

CYVR;2006-08-11 21:00;METAR CYVR 112100Z 09009KT 15SM BKN020 BKN034 BKN051 18/13 A3014 RMK SC5SC2SC1 SLP205=

CYVR;2006-08-11 22:00;METAR CYVR 112200Z 20008KT 15SM SCT024 SCT036 20/12 A3013 RMK SC3SC1 SLP202=

CYVR;2006-08-11 23:00;METAR CYVR 112300Z 19008KT 15SM SCT027 SCT036 21/12 A3012 RMK SC3SC1 SLP200=

CYVR;2006-08-12 00:00;METAR CYVR 120000Z 16011KT 20SM FEW027 FEW090 19/12 A3012 RMK SC2AC1 SLP199=

CYVR;2006-08-12 01:00;METAR CYVR 120100Z 14006KT 20SM FEW030 FEW090 19/12 A3011 RMK SC1AC1 SLP196=

CYVR;2006-08-12 02:00;METAR CYVR 120200Z 17006KT 20SM FEW035 19/11 A3010 RMK SC1 SLP194=

CYVR;2006-08-12 03:00;METAR CYVR 120300Z 16006KT 20SM FEW035 18/11 A3010 RMK SC1 SLP193=

CYVR;2006-08-12 04:00;METAR CYVR 120400Z 14006KT 20SM FEW040 15/11 A3010 RMK SC1 SLP194=

CYVR;2006-08-12 05:00;METAR CYVR 120500Z 11008KT 20SM FEW040 14/11 A3011 RMK SC1 SLP196=

CYVR;2006-08-12 06:00;METAR CYVR 120600Z 12006KT 30SM FEW040 15/11 A3011 RMK SC1 SLP197=

CYVR;2006-08-12 07:00;METAR CYVR 120700Z 09005KT 30SM FEW040 14/11 A3011 RMK SC1 SLP196=

CYVR;2006-08-12 08:00;METAR CYVR 120800Z 11007KT 30SM FEW045 13/10 A3011 RMK SC1 SLP198=

CYVR;2006-08-12 09:00;METAR CYVR 120900Z 09004KT 30SM FEW045 13/10 A3012 RMK SC1 SLP200=

CYVR;2006-08-12 10:00;METAR CYVR 121000Z 09003KT 20SM BKN046 14/11 A3012 RMK SC6 SLP201=

CYVR;2006-08-12 11:00;METAR CYVR 121100Z 11002KT 20SM BKN043 14/12 A3012 RMK SC6 SLP200=

CYVR;2006-08-12 12:00;METAR CYVR 121200Z 10003KT 20SM BKN042 15/12 A3012 RMK SC7 SLP201=

CYVR;2006-08-12 13:00;METAR CYVR 121300Z 21003KT 15SM FEW011 BKN047 15/11 A3013 RMK SF1SC5 SLP204=

CYVR;2006-08-12 14:00;METAR CYVR 121400Z 18002KT 15SM FEW020 OVC048 15/11 A3015 RMK SC1SC7 SLP209=

CYVR;2006-08-12 15:00;METAR CYVR 121500Z 20003KT 15SM BKN026 OVC044 16/11 A3015 RMK SC5SC3 SLP210=

CYVR;2006-08-12 16:00;METAR CYVR 121600Z 00000KT 15SM SCT027 OVC050 17/12 A3016 RMK SC3SC5 SLP212=

CYVR;2006-08-12 17:00;METAR CYVR 121700Z 23007KT 15SM SCT017 BKN030 OVC050 18/12 A3016 RMK SC3SC2SC2 SLP213=

CYVR;2006-08-12 18:00;METAR CYVR 121800Z 28009KT 15SM FEW016 BKN030 BKN049 18/14 A3016 RMK SC2SC3SC2 SLP214=

CYVR;2006-08-12 19:00;METAR CYVR 121900Z 29009KT 15SM FEW026 SCT210 19/13 A3015 RMK SC2CI0 SLP211=

CYVR;2006-08-12 20:00;METAR CYVR 122000Z 29008KT 15SM FEW030 BKN220 19/12 A3015 RMK SC2CI1 SLP210=

CYVR;2006-08-12 21:00;METAR CYVR 122100Z 28007KT 15SM FEW030 SCT220 21/13 A3014 RMK SC2CI0 SLP207=

CYVR;2006-08-12 22:00;METAR CYVR 122200Z 26006KT 15SM FEW040 FEW220 21/12 A3013 RMK SC2CI0 SLP203=

CYVR;2006-08-12 23:00;METAR CYVR 122300Z 26008KT 20SM FEW040 FEW220 21/13 A3011 RMK SC1CI0 SLP198=

CYVR;2006-08-13 00:00;METAR CYVR 130000Z 24008KT 20SM FEW040 FEW220 20/12 A3010 RMK SC1CI0 SLP193=

CYVR;2006-08-13 01:00;METAR CYVR 130100Z 25006KT 20SM FEW220 20/12 A3008 RMK CI0 SLP187=

CYVR;2006-08-13 02:00;METAR CYVR 130200Z 25003KT 30SM FEW040 FEW240 19/13 A3007 RMK CU1CI0 SLP184=

CYVR;2006-08-13 03:00;METAR CYVR 130300Z 25004KT 30SM FEW240 18/13 A3007 RMK CI1 SLP182=

CYVR;2006-08-13 04:00;METAR CYVR 130400Z 00000KT 30SM FEW240 17/12 A3008 RMK CI1 SLP186=

CYVR;2006-08-13 05:00;METAR CYVR 130500Z 00000KT 30SM FEW220 18/12 A3009 RMK CI0 SLP188=

CYVR;2006-08-13 06:00;METAR CYVR 130600Z 06002KT 30SM FEW220 17/13 A3009 RMK CI0 SLP188=

CYVR;2006-08-13 07:00;METAR CYVR 130700Z 10004KT 30SM FEW220 17/12 A3008 RMK CI0 SLP187=

CYVR;2006-08-13 08:00;METAR CYVR 130800Z 10005KT 30SM FEW220 15/12 A3009 RMK CI1 SLP191=

CYVR;2006-08-13 09:00;METAR CYVR 130900Z 10005KT 30SM FEW220 14/12 A3010 RMK CI1 SLP193=

CYVR;2006-08-13 10:00;METAR CYVR 131000Z 10005KT 30SM FEW220 14/12 A3010 RMK CI1 SLP193=

CYVR;2006-08-13 11:00;METAR CYVR 131100Z 02003KT 30SM FEW230 14/12 A3010 RMK CI1 SLP193=

CYVR;2006-08-13 12:00;METAR CYVR 131200Z 36002KT 30SM SKC 14/12 A3010 RMK SLP193=

CYVR;2006-08-13 13:00;METAR CYVR 131300Z 00000KT 30SM SKC 14/12 A3010 RMK SLP193=

CYVR;2006-08-13 14:00;METAR CYVR 131400Z 00000KT 30SM SKC 15/12 A3011 RMK SLP196=

CYVR;2006-08-13 15:00;METAR CYVR 131500Z 00000KT 30SM SKC 17/13 A3012 RMK SLP200=

CYVR;2006-08-13 16:00;METAR CYVR 131600Z 26005KT 30SM FEW030 18/13 A3012 RMK SC1 TR SC SLP200=

CYVR;2006-08-13 17:00;METAR CYVR 131700Z 28005KT 30SM FEW016 FEW030 19/14 A3012 RMK CU2SC1 TR SC SLP200=

CYVR;2006-08-13 18:00;METAR CYVR 131800Z 27006KT 30SM FEW016 19/15 A3011 RMK CU2 SLP197=

CYVR;2006-08-13 19:00;METAR CYVR 131900Z 29008KT 30SM SKC 20/15 A3010 RMK SLP193=

CYVR;2006-08-13 20:00;METAR CYVR 132000Z 30011KT 30SM SKC 20/15 A3009 RMK SLP188=

CYVR;2006-08-13 21:00;METAR CYVR 132100Z 30008KT 30SM SKC 22/15 A3007 RMK SLP183=

CYVR;2006-08-13 22:00;METAR CYVR 132200Z 29008KT 30SM FEW030 22/15 A3005 RMK SC1 TR SC SLP177=

CYVR;2006-08-13 23:00;METAR CYVR 132300Z 28006KT 30SM FEW040 22/14 A3003 RMK SC1 TR SC SLP169=

CYVR;2006-08-14 00:00;METAR CYVR 140000Z 29006KT 30SM SKC 22/15 A3001 RMK TR SC SLP162=

CYVR;2006-08-14 01:00;METAR CYVR 140100Z 30007KT 30SM SKC 22/14 A2999 RMK SLP155=

CYVR;2006-08-14 02:00;METAR CYVR 140200Z 28005KT 30SM SKC 21/15 A2997 RMK SLP150=

CYVR;2006-08-14 03:00;METAR CYVR 140300Z 28004KT 30SM SKC 20/15 A2997 RMK SLP148=

CYVR;2006-08-14 04:00;METAR CYVR 140400Z 20003KT 30SM SKC 20/15 A2996 RMK SLP147=

CYVR;2006-08-14 05:00;METAR CYVR 140500Z 20002KT 30SM SKC 19/15 A2997 RMK SLP149=

CYVR;2006-08-14 06:00;METAR CYVR 140600Z 18004KT 30SM SKC 19/15 A2997 RMK SLP150=

CYVR;2006-08-14 07:00;METAR CYVR 140700Z 15003KT 30SM SKC 18/15 A2997 RMK SLP149=

CYVR;2006-08-14 08:00;METAR CYVR 140800Z 13002KT 30SM SKC 16/14 A2997 RMK SLP148=

CYVR;2006-08-14 09:00;METAR CYVR 140900Z 09006KT 30SM SKC 15/13 A2996 RMK SLP146=

CYVR;2006-08-14 10:00;METAR CYVR 141000Z 02003KT 30SM SKC 16/14 A2997 RMK SLP148=

CYVR;2006-08-14 11:00;METAR CYVR 141100Z 01002KT 30SM SKC 16/14 A2997 RMK SLP149=

CYVR;2006-08-14 12:00;METAR CYVR 141200Z 33002KT 30SM SKC 15/14 A2997 RMK SLP150=

CYVR;2006-08-14 13:00;METAR CYVR 141300Z 09002KT 30SM FEW100 FEW240 14/13 A2997 RMK AC1CI1 SLP150=

CYVR;2006-08-14 14:00;METAR CYVR 141400Z 36003KT 30SM FEW016 FEW240 16/14 A2998 RMK SC1CI1 TR SC SLP152=

CYVR;2006-08-14 15:00;METAR CYVR 141500Z 31011KT 30SM FEW016 BKN240 18/15 A2998 RMK SC1CI2 SLP154=

CYVR;2006-08-14 16:00;METAR CYVR 141600Z 32012KT 30SM FEW020 BKN240 18/15 A2999 RMK SC1CI1 SLP155=

CYVR;2006-08-14 17:00;METAR CYVR 141700Z 30013KT 30SM BKN220 19/15 A2999 RMK CI2 SLP155=

CYVR;2006-08-14 18:00;METAR CYVR 141800Z 29012KT 30SM FEW150 BKN220 20/14 A2999 RMK AC2CI2 SLP155=

CYVR;2006-08-14 19:00;METAR CYVR 141900Z 29010KT 30SM FEW150 SCT220 20/14 A2998 RMK AC1CI1 SLP153=

CYVR;2006-08-14 20:00;METAR CYVR 142000Z 31011KT 30SM FEW150 FEW220 21/14 A2998 RMK AC1CI1 SLP152=

CYVR;2006-08-14 21:00;METAR CYVR 142100Z 27006KT 30SM FEW040 FEW220 21/14 A2997 RMK SC1CI1 TR SC SLP149=

CYVR;2006-08-14 22:00;METAR CYVR 142200Z 27005KT 30SM FEW040 FEW220 21/14 A2996 RMK SC1CI1 TR SC SLP146=

CYVR;2006-08-14 23:00;METAR CYVR 142300Z 24007KT 30SM FEW040 FEW220 21/14 A2996 RMK SC1CI1 TR SC TR CI SLP144=

CYVR;2006-08-15 00:00;METAR CYVR 150000Z 29007KT 30SM FEW040 21/14 A2994 RMK SC1 SLP140=

CYVR;2006-08-15 01:00;METAR CYVR 150100Z 29009KT 30SM SKC 21/14 A2993 RMK SLP137=

CYVR;2006-08-15 02:00;METAR CYVR 150200Z 31007KT 30SM FEW040 21/14 A2993 RMK SC1 SLP135=

CYVR;2006-08-15 03:00;METAR CYVR 150300Z 30006KT 30SM FEW040 FEW220 19/14 A2993 RMK SC1CI0 SLP134=

CYVR;2006-08-15 04:00;METAR CYVR 150400Z 30006KT 30SM FEW040 FEW230 18/14 A2993 RMK SC1CI0 SLP137=

CYVR;2006-08-15 05:00;METAR CYVR 150500Z 32010KT 30SM FEW040 FEW230 18/15 A2994 RMK SC1CI0 SLP140=

CYVR;2006-08-15 06:00;METAR CYVR 150600Z 31012KT 30SM FEW040 FEW240 18/15 A2995 RMK SC1CI0 SLP141=

CYVR;2006-08-15 07:00;METAR CYVR 150700Z 30020KT 30SM FEW230 18/13 A2995 RMK CI1 SLP143=

CYVR;2006-08-15 08:00;METAR CYVR 150800Z 30017KT 30SM SKC 17/13 A2996 RMK SLP146=

CYVR;2006-08-15 09:00;METAR CYVR 150900Z 30019KT 30SM SKC 16/12 A2997 RMK SLP148=

CYVR;2006-08-15 10:00;METAR CYVR 151000Z 30016G22KT 30SM SKC 16/12 A2997 RMK SLP149=

CYVR;2006-08-15 11:00;METAR CYVR 151100Z 30013G19KT 30SM FEW240 15/12 A2997 RMK CI1 SLP149=

CYVR;2006-08-15 12:00;METAR CYVR 151200Z 30012KT 30SM FEW080 FEW240 15/12 A2998 RMK AC1CI0 SLP153=

CYVR;2006-08-15 13:00;METAR CYVR 151300Z 30013KT 30SM FEW035 FEW240 14/12 A2999 RMK SC1CI0 SLP157=

CYVR;2006-08-15 14:00;METAR CYVR 151400Z 30012KT 30SM FEW035 FEW080 FEW220 15/12 A3002 RMK SF1AC0CI0 TR SF SLP165=

CYVR;2006-08-15 15:00;METAR CYVR 151500Z 30012KT 30SM FEW017 FEW035 FEW080 SCT220 16/13 A3003 RMK SF1SC0AC1CI1 TR SF SLP169=

CYVR;2006-08-15 16:00;METAR CYVR 151600Z 29011KT 30SM SCT018 BKN080 BKN220 17/13 A3004 RMK SC2AC0CI1 SLP173=

CYVR;2006-08-15 17:00;METAR CYVR 151700Z 29010KT 30SM FEW018 FEW080 SCT220 17/12 A3004 RMK SC1AC0CI1 SLP174=

CYVR;2006-08-15 18:00;METAR CYVR 151800Z 29011KT 30SM FEW018 BKN220 18/12 A3005 RMK SC1CI2 SLP175=

CYVR;2006-08-15 19:00;METAR CYVR 151900Z 27006KT 30SM FEW020 BKN220 18/12 A3005 RMK SC0CI2 SLP176=

CYVR;2006-08-15 20:00;METAR CYVR 152000Z 26006KT 30SM FEW035 BKN220 19/12 A3005 RMK CU1CI2 SLP175=

CYVR;2006-08-15 21:00;METAR CYVR 152100Z 22005KT 30SM FEW035 OVC220 20/12 A3004 RMK CU1CI2 SLP173=

CYVR;2006-08-15 22:00;METAR CYVR 152200Z 25006KT 30SM FEW040 BKN220 20/12 A3003 RMK CU0CI2 CONTRAILS SLP169=

CYVR;2006-08-15 23:00;METAR CYVR 152300Z 24007KT 30SM FEW040 BKN220 19/13 A3001 RMK CU0CI2 SLP164=

CYVR;2006-08-16 00:00;METAR CYVR 160000Z 23005KT 30SM FEW040 SCT140 BKN220 20/12 A3000 RMK CU0AS1CI2 SLP160=

CYVR;2006-08-16 01:00;METAR CYVR 160100Z 24005KT 30SM FEW040 FEW140 BKN210 19/12 A2999 RMK CF0AS1CI4 SLP156=

CYVR;2006-08-16 02:00;METAR CYVR 160200Z 21006KT 30SM FEW040 FEW140 BKN240 20/12 A2998 RMK CU0AS2CI4 TR CU SLP152=

CYVR;2006-08-16 03:00;METAR CYVR 160300Z 19004KT 30SM FEW140 BKN220 19/11 A2998 RMK AS1CI3 CONTRAILS SLP153=

CYVR;2006-08-16 04:00;METAR CYVR 160400Z 14004KT 30SM BKN220 18/11 A2998 RMK CI3 SLP153=

CYVR;2006-08-16 05:00;METAR CYVR 160500Z 13004KT 30SM SCT220 16/12 A2998 RMK CI2 SLP154=

CYVR;2006-08-16 06:00;METAR CYVR 160600Z 10005KT 30SM FEW220 15/12 A2999 RMK CI2 SLP156=

CYVR;2006-08-16 07:00;METAR CYVR 160700Z 11005KT 30SM FEW220 15/12 A3000 RMK CI2 SLP158=

CYVR;2006-08-16 09:00;METAR CYVR 160900Z 17002KT 30SM FEW220 15/12 A3000 RMK CI1 SLP160=

CYVR;2006-08-16 10:00;METAR CYVR 161000Z 19002KT 30SM FEW220 15/12 A3001 RMK CI1 SLP162=

CYVR;2006-08-16 11:00;METAR CYVR 161100Z 15002KT 30SM SCT220 15/13 A3001 RMK CI2 SLP163=

CYVR;2006-08-16 12:00;METAR CYVR 161200Z 11004KT 30SM BKN220 13/11 A3001 RMK CI2 SLP163=

CYVR;2006-08-16 13:00;METAR CYVR 161300Z 07003KT 20SM FEW050 FEW140 BKN220 14/11 A3002 RMK SC1AC1CI2 SLP166=

CYVR;2006-08-16 14:00;METAR CYVR 161400Z 00000KT 20SM FEW050 FEW120 BKN220 14/12 A3004 RMK SC1AC1CI2 SLP172=

CYVR;2006-08-16 15:00;METAR CYVR 161500Z 00000KT 30SM FEW050 FEW120 SCT220 16/13 A3006 RMK SC0AC1CI0 CONTRAILS SLP178=

CYVR;2006-08-16 16:00;METAR CYVR 161600Z 19004KT 20SM FEW025 FEW120 FEW220 16/13 A3006 RMK SC1AC0CI0 SLP181=

CYVR;2006-08-16 17:00;METAR CYVR 161700Z 30007KT 20SM SCT017 SCT120 17/14 A3007 RMK SC2AC0 SLP182=

CYVR;2006-08-16 18:00;METAR CYVR 161800Z 30007KT 30SM BKN017 BKN220 18/13 A3007 RMK CU3CI1 SLP182=

CYVR;2006-08-16 19:00;METAR CYVR 161900Z 26006KT 30SM FEW020 18/13 A3006 RMK CU1 SLP180=

CYVR;2006-08-16 20:00;METAR CYVR 162000Z 25005KT 30SM FEW030 18/13 A3006 RMK CU0 SLP178=

CYVR;2006-08-16 21:00;METAR CYVR 162100Z 24007KT 30SM FEW030 20/13 A3005 RMK CU0 SLP176=

CYVR;2006-08-16 22:00;METAR CYVR 162200Z 25006G16KT 30SM FEW035 19/13 A3004 RMK CF1 TR CF SLP174=

CYVR;2006-08-16 23:00;METAR CYVR 162300Z 22006KT 30SM FEW035 FEW220 20/13 A3003 RMK CF1CI1 TR CF TR CI SLP169=

CYVR;2006-08-17 00:00;METAR CYVR 170000Z 23007KT 30SM SKC 20/13 A3003 RMK SLP168=

CYVR;2006-08-17 01:00;METAR CYVR 170100Z 22006KT 30SM SKC 21/13 A3002 RMK SLP165=

CYVR;2006-08-17 02:00;METAR CYVR 170200Z 20006KT 30SM FEW180 21/13 A3001 RMK AS0 SLP164=

CYVR;2006-08-17 03:00;METAR CYVR 170300Z 17007KT 30SM FEW180 20/13 A3002 RMK AS1 SLP166=

CYVR;2006-08-17 04:00;METAR CYVR 170400Z 13007KT 30SM FEW180 18/13 A3004 RMK AS0 SLP174=

CYVR;2006-08-17 05:00;METAR CYVR 170500Z 11009KT 30SM FEW180 16/12 A3006 RMK AS0 SLP180=

CYVR;2006-08-17 06:00;METAR CYVR 170600Z 11011KT 30SM FEW180 16/12 A3008 RMK AS1 SLP185=

CYVR;2006-08-17 07:00;METAR CYVR 170700Z 11010KT 30SM SKC 15/12 A3009 RMK SLP190=

CYVR;2006-08-17 08:00;METAR CYVR 170800Z 09006KT 30SM SKC 15/11 A3011 RMK SLP195=

CYVR;2006-08-17 09:00;METAR CYVR 170900Z 10006KT 30SM SKC 15/11 A3012 RMK SLP199=

CYVR;2006-08-17 10:00;METAR CYVR 171000Z 11007KT 30SM FEW220 14/11 A3013 RMK CS1 SLP202=

CYVR;2006-08-17 11:00;METAR CYVR 171100Z 11006KT 30SM FEW040 FEW220 14/11 A3014 RMK SC1CS0 SLP205=

CYVR;2006-08-17 12:00;METAR CYVR 171200Z 11006KT 20SM FEW040 FEW220 13/11 A3015 RMK SC1CI1 SLP210=

CYVR;2006-08-17 13:00;METAR CYVR 171300Z 10005KT 20SM FEW030 FEW180 12/11 A3017 RMK SC1AS1 SLP217=

CYVR;2006-08-17 14:00;METAR CYVR 171400Z 11008KT 15SM FEW025 FEW180 14/12 A3019 RMK SF1AS1 SLP223=

CYVR;2006-08-17 14:39;SPECI CYVR 171439Z 13008KT 15SM SCT006 14/ RMK SF2=

CYVR;2006-08-17 15:00;METAR CYVR 171500Z 14009KT 12SM BKN009 15/12 A3020 RMK SF5 SLP228=

CYVR;2006-08-17 15:09;SPECI CYVR 171509Z 14007KT 30SM SCT009 15/ RMK SC2=

CYVR;2006-08-17 15:32;SPECI CYVR 171532Z 13009KT 20SM BKN009 15/ RMK SC5=

CYVR;2006-08-17 16:00;METAR CYVR 171600Z 13009KT 20SM BKN008 14/12 A3022 RMK SC7 SLP235=

CYVR;2006-08-17 17:00;METAR CYVR 171700Z 11009KT 20SM OVC009 15/12 A3023 RMK SC7 SLP237=

CYVR;2006-08-17 18:00;METAR CYVR 171800Z 14006KT 20SM OVC009 16/12 A3024 RMK SC7 SLP241=

CYVR;2006-08-17 18:38;SPECI CYVR 171838Z 13009KT 20SM BKN009 17/ RMK SC3=

CYVR;2006-08-17 19:00;METAR CYVR 171900Z 16008KT 30SM FEW009 17/12 A3024 RMK SF0 SLP240=

CYVR;2006-08-17 20:00;METAR CYVR 172000Z 13004KT 20SM SKC 18/12 A3023 RMK HZ SLP237=

CYVR;2006-08-17 22:00;METAR CYVR 172200Z 22010KT 20SM SKC 21/13 A3020 RMK HZ SLP228=

CYVR;2006-08-17 23:00;METAR CYVR 172300Z 22010KT 30SM SKC 21/13 A3019 RMK HZ SLP224=

CYVR;2006-08-18 00:00;METAR CYVR 180000Z 22009KT 30SM SKC 21/13 A3018 RMK SLP221=

CYVR;2006-08-18 01:00;METAR CYVR 180100Z 22009KT 30SM FEW180 21/13 A3018 RMK AC0 SLP220=

CYVR;2006-08-18 02:00;METAR CYVR 180200Z 22007KT 30SM FEW220 20/12 A3017 RMK CI0 SLP218=

CYVR;2006-08-18 03:00;METAR CYVR 180300Z 15004KT 30SM FEW220 19/12 A3017 RMK CI1 SLP216=

CYVR;2006-08-18 04:00;METAR CYVR 180400Z 15005KT 30SM FEW220 18/13 A3018 RMK CI1 SLP219=

CYVR;2006-08-18 05:00;METAR CYVR 180500Z 10006KT 20SM FEW030 FEW220 15/13 A3019 RMK SC1CI0 SLP222=

CYVR;2006-08-18 06:00;METAR CYVR 180600Z 10006KT 20SM FEW220 14/12 A3019 RMK CI0 SLP224=

CYVR;2006-08-18 07:00;METAR CYVR 180700Z 11005KT 15SM FEW030 15/12 A3020 RMK SC1 SLP226=

CYVR;2006-08-18 08:00;METAR CYVR 180800Z 11003KT 12SM FEW030 14/12 A3020 RMK SC1 SLP226=

CYVR;2006-08-18 09:00;METAR CYVR 180900Z 10002KT 10SM FEW025 15/12 A3019 RMK SC1 SLP224=

CYVR;2006-08-18 10:00;METAR CYVR 181000Z CCA 00000KT 10SM FEW025 FEW200 14/12 A3019 RMK SC1CI0 SLP225=

CYVR;2006-08-18 11:00;METAR CYVR 181100Z 12003KT 12SM BCFG FEW025 FEW200 14/12 A3020 RMK SC1CI0 SLP226=

CYVR;2006-08-18 12:00;METAR CYVR 181200Z 11003KT 15SM FEW025 FEW200 13/12 A3019 RMK SF1CI0 SLP223=

CYVR;2006-08-18 13:00;METAR CYVR 181300Z 33002KT 15SM MIFG FEW090 12/11 A3020 RMK AS1 SLP226=

CYVR;2006-08-18 14:00;METAR CYVR 181400Z 00000KT 20SM FEW220 14/12 A3020 RMK CI0 SLP228=

CYVR;2006-08-18 15:00;METAR CYVR 181500Z 30002KT 20SM FEW220 16/14 A3020 RMK CI0 SLP228=

CYVR;2006-08-18 16:00;METAR CYVR 181600Z 30006KT 20SM FEW015 17/14 A3020 RMK CU0 SLP227=

CYVR;2006-08-18 17:00;METAR CYVR 181700Z 28007KT 20SM SCT012 18/14 A3020 RMK CF2 SLP227=

CYVR;2006-08-18 18:00;METAR CYVR 181800Z 28010KT 20SM FEW012 19/15 A3020 RMK CU2 SLP226=

CYVR;2006-08-18 19:00;METAR CYVR 181900Z 31009KT 30SM FEW012 FEW220 19/15 A3019 RMK CF1CI0 TR CF SLP222=

CYVR;2006-08-18 20:00;METAR CYVR 182000Z 31011KT 30SM FEW015 FEW220 20/14 A3017 RMK CF1CI0 HZ / TR CF SLP217=

CYVR;2006-08-18 21:00;METAR CYVR 182100Z 31012KT 30SM FEW015 FEW220 21/15 A3015 RMK CF1CI0 HZ / TR CF SLP211=

CYVR;2006-08-18 22:00;METAR CYVR 182200Z 31012KT 30SM FEW040 FEW220 22/14 A3013 RMK CF1CI0 TR CF SLP203=

CYVR;2006-08-18 23:00;METAR CYVR 182300Z 31010G15KT 30SM FEW045 FEW220 21/14 A3011 RMK CF1CI0 TR CF SLP195=

CYVR;2006-08-19 00:00;METAR CYVR 190000Z 30010KT 30SM FEW220 21/15 A3009 RMK CI0 SLP188=

CYVR;2006-08-19 01:00;METAR CYVR 190100Z 30010KT 30SM SCT220 21/15 A3006 RMK CI0 SLP180=

CYVR;2006-08-19 02:00;METAR CYVR 190200Z 28006KT 30SM FEW220 19/15 A3005 RMK CI1 CONTRAILS SLP175=

CYVR;2006-08-19 03:00;METAR CYVR 190300Z 31004KT 30SM FEW220 19/15 A3003 RMK CI1 SLP170=

CYVR;2006-08-19 04:00;METAR CYVR 190400Z 31007KT 30SM FEW090 FEW220 18/15 A3003 RMK AC1CI1 SLP169=

CYVR;2006-08-19 05:00;METAR CYVR 190500Z 29005KT 30SM FEW220 18/15 A3004 RMK CI1 SLP171=

CYVR;2006-08-19 06:00;METAR CYVR 190600Z 30009KT 30SM FEW220 18/15 A3003 RMK CI0 SLP170=

CYVR;2006-08-19 07:00;METAR CYVR 190700Z 30009KT 30SM FEW220 18/15 A3004 RMK CI0 SLP171=

CYVR;2006-08-19 08:00;METAR CYVR 190800Z 30017KT 30SM FEW220 17/14 A3004 RMK CI0 SLP171=

CYVR;2006-08-19 09:00;METAR CYVR 190900Z 30017KT 30SM FEW220 16/13 A3003 RMK CI0 SLP170=

CYVR;2006-08-19 10:00;METAR CYVR 191000Z 30018KT 30SM SKC 16/13 A3003 RMK SLP170=

CYVR;2006-08-19 11:00;METAR CYVR 191100Z 30018KT 20SM SKC 16/13 A3003 RMK SLP170=

CYVR;2006-08-19 12:00;METAR CYVR 191200Z 31015KT 20SM SKC 15/12 A3003 RMK SLP170=

CYVR;2006-08-19 13:00;METAR CYVR 191300Z 31014KT 20SM SKC 15/12 A3004 RMK SLP171=

CYVR;2006-08-19 14:00;METAR CYVR 191400Z 31013KT 30SM FEW240 15/13 A3004 RMK CI0 SLP174=

CYVR;2006-08-19 15:00;METAR CYVR 191500Z 31014KT 30SM FEW240 16/13 A3005 RMK CI1 SLP177=

CYVR;2006-08-19 16:00;METAR CYVR 191600Z 31015KT 30SM FEW240 17/13 A3005 RMK CI1 SLP176=

CYVR;2006-08-19 17:00;METAR CYVR 191700Z 31014KT 30SM FEW240 18/13 A3004 RMK CI0 SLP174=

CYVR;2006-08-19 18:00;METAR CYVR 191800Z 31014KT 30SM FEW240 19/13 A3004 RMK CI0 SLP173=

CYVR;2006-08-19 19:00;METAR CYVR 191900Z 30014KT 30SM FEW040 19/13 A3004 RMK CU1 TR CU SLP173=

CYVR;2006-08-19 20:00;METAR CYVR 192000Z 31014KT 30SM FEW050 FEW240 20/14 A3003 RMK CU1CI1 TR CU SLP168=

CYVR;2006-08-19 21:00;METAR CYVR 192100Z 31012KT 30SM FEW050 FEW240 21/14 A3001 RMK CU1CI1 TR CU SLP163=

CYVR;2006-08-19 22:00;METAR CYVR 192200Z 30013KT 30SM FEW050 FEW240 21/14 A2999 RMK CU1CI0 TR CU SLP157=

CYVR;2006-08-19 23:00;METAR CYVR 192300Z 31012KT 30SM FEW045 FEW240 21/14 A2998 RMK CU1CI0 TR CU SLP151=

CYVR;2006-08-20 00:00;METAR CYVR 200000Z 32011KT 30SM FEW240 21/14 A2996 RMK CI0 SLP146=

CYVR;2006-08-20 01:00;METAR CYVR 200100Z 31009KT 30SM FEW240 21/14 A2994 RMK CI0 SLP139=

CYVR;2006-08-20 02:00;METAR CYVR 200200Z 31007KT 30SM FEW240 20/14 A2993 RMK CI0 SLP134=

CYVR;2006-08-20 03:00;METAR CYVR 200300Z 32007KT 30SM FEW240 18/14 A2992 RMK CI0 SLP131=

CYVR;2006-08-20 04:00;METAR CYVR 200400Z 31011KT 30SM FEW240 19/13 A2992 RMK CI0 SLP132=

CYVR;2006-08-20 05:00;METAR CYVR 200500Z 30011KT 30SM FEW240 18/13 A2992 RMK CI0 SLP133=

CYVR;2006-08-20 06:00;METAR CYVR 200600Z 31007KT 30SM SKC 18/13 A2993 RMK SLP137=

CYVR;2006-08-20 07:00;METAR CYVR 200700Z 30011KT 30SM SKC 17/13 A2993 RMK SLP136=

CYVR;2006-08-20 08:00;METAR CYVR 200800Z 31009KT 30SM SKC 16/14 A2994 RMK SLP139=

CYVR;2006-08-20 09:00;METAR CYVR 200900Z 32008KT 30SM SKC 16/14 A2994 RMK SLP139=

CYVR;2006-08-20 10:00;METAR CYVR 201000Z 31010KT 30SM SKC 16/14 A2995 RMK SLP142=

CYVR;2006-08-20 11:00;METAR CYVR 201100Z 32008KT 30SM SKC 16/13 A2995 RMK SLP143=

CYVR;2006-08-20 12:00;METAR CYVR 201200Z 31009KT 30SM SKC 15/13 A2996 RMK SLP146=

CYVR;2006-08-20 13:00;METAR CYVR 201300Z 31009KT 30SM SKC 14/13 A2996 RMK SLP147=

CYVR;2006-08-20 14:00;METAR CYVR 201400Z 32007KT 30SM FEW240 15/14 A2998 RMK CI0 SLP151=

CYVR;2006-08-20 15:00;METAR CYVR 201500Z 32009KT 30SM FEW240 17/15 A2999 RMK CI0 SLP156=

CYVR;2006-08-20 16:00;METAR CYVR 201600Z 31009KT 30SM FEW240 18/14 A2999 RMK CI1 SLP157=

CYVR;2006-08-20 17:00;METAR CYVR 201700Z 30010KT 30SM SCT230 19/14 A2999 RMK CI1 SLP156=

CYVR;2006-08-20 18:00;METAR CYVR 201800Z 30009KT 30SM SCT240 20/14 A2999 RMK CI1 SLP157=

CYVR;2006-08-20 19:00;METAR CYVR 201900Z 30009KT 30SM SCT240 21/13 A2999 RMK CI1 SLP155=

CYVR;2006-08-20 20:00;METAR CYVR 202000Z 29008KT 30SM SCT240 21/14 A2998 RMK CI1 SLP153=

CYVR;2006-08-20 21:00;METAR CYVR 202100Z 30008KT 30SM SCT240 22/13 A2997 RMK CI1 SLP149=

CYVR;2006-08-20 22:00;METAR CYVR 202200Z 30007KT 30SM SCT240 23/13 A2996 RMK CI2 SLP144=

CYVR;2006-08-20 23:00;METAR CYVR 202300Z 29006KT 30SM BKN240 24/13 A2994 RMK CI2 SLP140=

CYVR;2006-08-21 00:00;METAR CYVR 210000Z 31006KT 30SM BKN240 23/14 A2993 RMK CI2 SLP134=

CYVR;2006-08-21 01:00;METAR CYVR 210100Z 30005KT 30SM BKN240 22/15 A2992 RMK CI2 SLP132=

CYVR;2006-08-21 02:00;METAR CYVR 210200Z 29002KT 30SM BKN230 21/14 A2991 RMK CI2 SLP127=

CYVR;2006-08-21 03:00;METAR CYVR 210300Z 31002KT 30SM BKN230 21/12 A2990 RMK CI2 SLP125=

CYVR;2006-08-21 04:00;METAR CYVR 210400Z 00000KT 30SM BKN230 19/12 A2991 RMK CI2 SLP127=

CYVR;2006-08-21 05:00;METAR CYVR 210500Z 00000KT 30SM BKN230 18/13 A2991 RMK CI2 SLP128=

CYVR;2006-08-21 06:00;METAR CYVR 210600Z 27002KT 30SM BKN230 17/14 A2991 RMK CI2 SLP130=

CYVR;2006-08-21 07:00;METAR CYVR 210700Z 36004KT 30SM BKN230 17/13 A2992 RMK CI2 SLP133=

CYVR;2006-08-21 08:00;METAR CYVR 210800Z 00000KT 30SM BKN230 17/14 A2993 RMK CI2 SLP134=

CYVR;2006-08-21 09:00;METAR CYVR 210900Z 00000KT 30SM SCT230 15/13 A2993 RMK CI2 SLP136=

CYVR;2006-08-21 10:00;METAR CYVR 211000Z 02002KT 30SM SCT230 14/12 A2994 RMK CI2 SLP139=

CYVR;2006-08-21 11:00;METAR CYVR 211100Z 11004KT 30SM SCT230 14/12 A2995 RMK CI2 SLP143=

CYVR;2006-08-21 12:00;METAR CYVR 211200Z 00000KT 30SM SCT230 15/13 A2996 RMK CI2 SLP145=

CYVR;2006-08-21 13:00;METAR CYVR 211300Z 10005KT 30SM VCFG SCT230 13/12 A2997 RMK CI1 FG BANK N SLP150=

CYVR;2006-08-21 14:00;METAR CYVR 211400Z 09002KT 20SM FEW100 BKN230 14/13 A2998 RMK AC1CI1 HZ SLP152=

CYVR;2006-08-21 15:00;METAR CYVR 211500Z 12003KT 20SM FEW100 SCT240 16/15 A2999 RMK AC1CI1 HZ SLP155=

CYVR;2006-08-21 16:00;METAR CYVR 211600Z 00000KT 20SM FEW100 SCT240 18/15 A3000 RMK AC1CI1 HZ SLP158=

CYVR;2006-08-21 17:00;METAR CYVR 211700Z 30005KT 20SM FEW120 SCT240 19/14 A2999 RMK AC1CI1 HZ SLP156=

CYVR;2006-08-21 18:00;METAR CYVR 211800Z 30009KT 30SM SCT240 20/14 A2999 RMK CI2 SLP156=

CYVR;2006-08-21 19:00;METAR CYVR 211900Z 30011KT 30SM BKN240 21/14 A2998 RMK CI1 SLP152=

CYVR;2006-08-21 20:00;METAR CYVR 212000Z 31012KT 30SM BKN240 22/15 A2996 RMK CI1 SLP147=

CYVR;2006-08-21 21:00;METAR CYVR 212100Z 30012KT 30SM BKN240 22/14 A2995 RMK CI2 SLP142=

CYVR;2006-08-21 22:00;METAR CYVR 212200Z 30012KT 30SM BKN240 22/14 A2993 RMK CI2 SLP137=

CYVR;2006-08-21 23:00;METAR CYVR 212300Z 31012KT 30SM BKN240 22/14 A2992 RMK CI2 SLP132=

CYVR;2006-08-22 00:00;METAR CYVR 220000Z 29010KT 30SM SCT240 22/15 A2991 RMK CI1 SLP127=

CYVR;2006-08-22 01:00;METAR CYVR 220100Z 28008KT 30SM SCT240 21/15 A2989 RMK CI1 SLP123=

CYVR;2006-08-22 02:00;METAR CYVR 220200Z 23007KT 30SM BKN240 21/14 A2990 RMK CI2 SLP126=

CYVR;2006-08-22 03:00;METAR CYVR 220300Z 25007KT 30SM BKN240 21/13 A2992 RMK CI2 SLP132=

CYVR;2006-08-22 04:00;METAR CYVR 220400Z 11010KT 30SM BKN240 18/13 A2995 RMK CI1 SLP141=

CYVR;2006-08-22 05:00;METAR CYVR 220500Z 11009KT 30SM BKN240 18/12 A2996 RMK CI1 SLP144=

CYVR;2006-08-22 06:00;METAR CYVR 220600Z 14007KT 30SM BKN240 17/13 A2996 RMK CI2 SLP145=

CYVR;2006-08-22 07:00;METAR CYVR 220700Z 14005KT 30SM BKN240 16/12 A2997 RMK CI3 SLP148=

CYVR;2006-08-22 08:00;METAR CYVR 220800Z 11006KT 30SM BKN240 15/11 A2998 RMK CI4 SLP151=

CYVR;2006-08-22 09:00;METAR CYVR 220900Z 10005KT 30SM BKN240 14/11 A2999 RMK CI4 SLP155=

CYVR;2006-08-22 10:00;METAR CYVR 221000Z 13005KT 30SM BKN240 14/11 A2999 RMK CI2 SLP155=

CYVR;2006-08-22 11:00;METAR CYVR 221100Z 03003KT 30SM BKN240 14/11 A3000 RMK CI2 SLP159=

CYVR;2006-08-22 12:00;METAR CYVR 221200Z 04004KT 30SM BKN240 15/11 A3000 RMK CI2 SLP160=

CYVR;2006-08-22 13:00;METAR CYVR 221300Z 09010KT 30SM FEW100 SCT240 14/11 A3001 RMK AC1CI2 SLP163=

CYVR;2006-08-22 14:00;METAR CYVR 221400Z 10013KT 20SM SCT140 SCT240 14/11 A3002 RMK AC3CI0 SLP167=

CYVR;2006-08-22 15:00;METAR CYVR 221500Z 11015G20KT 20SM FEW018 SCT150 SCT240 15/12 A3004 RMK SF2AC2CI1 SLP173=

CYVR;2006-08-22 16:00;METAR CYVR 221600Z 11012KT 15SM BKN019 BKN160 16/13 A3006 RMK SC6AC1 SLP179=

CYVR;2006-08-22 17:00;METAR CYVR 221700Z 14012KT 15SM BKN021 BKN160 16/12 A3007 RMK SC6AC1 SLP183=

CYVR;2006-08-22 18:00;METAR CYVR 221800Z 13009KT 15SM BKN020 BKN170 17/13 A3008 RMK SC6AC1 SLP185=

CYVR;2006-08-22 19:00;METAR CYVR 221900Z 17007KT 20SM SCT022 SCT230 18/13 A3008 RMK SC3CI1 CU ASOCTD SLP185=

CYVR;2006-08-22 20:00;METAR CYVR 222000Z 16005KT 20SM SCT023 BKN220 19/12 A3008 RMK CU4CI1 SLP187=

CYVR;2006-08-22 21:00;METAR CYVR 222100Z 12003KT 20SM BKN022 BKN220 18/12 A3009 RMK CU5CI1 SLP188=

CYVR;2006-08-22 22:00;METAR CYVR 222200Z 18007KT 20SM FEW020 SCT230 20/12 A3008 RMK CU2CI1 SLP187=

CYVR;2006-08-22 23:00;METAR CYVR 222300Z 18009KT 20SM FEW025 BKN240 19/12 A3008 RMK CU1CI2 SLP185=

CYVR;2006-08-23 00:00;METAR CYVR 230000Z 19008KT 20SM FEW025 FEW170 SCT240 19/12 A3006 RMK CU1AC2CI1 SLP181=

CYVR;2006-08-23 01:00;METAR CYVR 230100Z 22007KT 30SM FEW025 SCT170 BKN240 19/12 A3007 RMK CU1AC3CI1 SLP184=

CYVR;2006-08-23 02:00;METAR CYVR 230200Z 17007KT 30SM FEW025 SCT140 BKN180 BKN240 19/12 A3006 RMK SC1AC2AC2CI1 SLP180=

CYVR;2006-08-23 03:00;METAR CYVR 230300Z 11008KT 30SM FEW140 FEW180 17/12 A3006 RMK AC2AC1 TR AC AT 180 SLP181=

CYVR;2006-08-23 04:00;METAR CYVR 230400Z 11008KT 30SM FEW140 16/12 A3008 RMK AC2 SLP186=

CYVR;2006-08-23 05:00;METAR CYVR 230500Z 11006KT 30SM BKN130 16/12 A3009 RMK AC7 SLP189=

CYVR;2006-08-23 06:00;METAR CYVR 230600Z 11008KT 30SM FEW080 BKN130 16/12 A3009 RMK AC2AC5 SLP190=

CYVR;2006-08-23 07:00;METAR CYVR 230700Z 12007KT 30SM FEW080 BKN130 16/12 A3009 RMK AC2AC6 SLP188=

CYVR;2006-08-23 08:00;METAR CYVR 230800Z 13004KT 30SM BKN130 15/11 A3009 RMK AC5 SLP188=

CYVR;2006-08-23 09:00;METAR CYVR 230900Z 13005KT 30SM SCT130 15/11 A3008 RMK AC4 SLP187=

CYVR;2006-08-23 10:00;METAR CYVR 231000Z 11006KT 30SM FEW130 13/11 A3009 RMK AC2 SLP189=

CYVR;2006-08-23 11:00;METAR CYVR 231100Z 13003KT 30SM BKN080 BKN130 14/11 A3009 RMK AC6AC1 SLP188=

CYVR;2006-08-23 12:00;METAR CYVR 231200Z 14003KT 30SM OVC080 14/11 A3009 RMK AC8 SLP191=

CYVR;2006-08-23 13:00;METAR CYVR 231300Z 11005KT 30SM BKN078 13/11 A3010 RMK AC5 SLP192=

CYVR;2006-08-23 14:00;METAR CYVR 231400Z 13008KT 30SM FEW012 FEW080 13/11 A3011 RMK CF1AC1 TR CF SLP196=

CYVR;2006-08-23 15:00;METAR CYVR 231500Z 11007KT 15SM FEW012 SCT080 BKN220 14/12 A3012 RMK CF1AC3CI0 TR CF SLP201=

CYVR;2006-08-23 16:00;METAR CYVR 231600Z 12008KT 15SM SCT009 BKN071 OVC080 15/12 A3014 RMK SC4AC2AC1 SLP206=

CYVR;2006-08-23 18:00;METAR CYVR 231800Z 12009KT 15SM BKN011 BKN070 17/12 A3015 RMK SC6AC1 SLP210=

CYVR;2006-08-23 18:19;SPECI CYVR 231819Z 10010KT 15SM BKN015 OVC070 16/ RMK SC6AC1=

CYVR;2006-08-23 19:00;METAR CYVR 231900Z 13007KT 15SM BKN017 OVC070 17/12 A3015 RMK SC6AC1 SLP211=

CYVR;2006-08-23 20:00;METAR CYVR 232000Z 11007KT 20SM SCT017 BKN070 18/13 A3015 RMK SC3AC1 SLP211=

CYVR;2006-08-23 21:00;METAR CYVR 232100Z 12008KT 20SM FEW015 BKN070 19/13 A3015 RMK CF1AC2 SLP209=

CYVR;2006-08-23 22:00;METAR CYVR 232200Z 13007KT 20SM FEW020 BKN071 19/12 A3014 RMK CF1AC5 SLP208=

CYVR;2006-08-23 23:00;METAR CYVR 232300Z 16012KT 20SM FEW025 BKN080 19/13 A3014 RMK SC1AC4 SLP207=

CYVR;2006-08-24 00:00;METAR CYVR 240000Z 16013KT 20SM FEW030 SCT080 19/12 A3013 RMK SC1AC1 SLP202=

CYVR;2006-08-24 01:00;METAR CYVR 240100Z 17009KT 20SM FEW030 FEW078 FEW220 19/12 A3012 RMK SC0AC0CI1 SLP201=

CYVR;2006-08-24 02:00;METAR CYVR 240200Z 14009KT 20SM FEW030 SCT080 BKN220 18/11 A3012 RMK SC2AC2CI2 SLP201=

CYVR;2006-08-24 03:00;METAR CYVR 240300Z 12011KT 20SM FEW030 SCT080 BKN220 16/12 A3012 RMK SC2AC1CI1 SLP199=

CYVR;2006-08-24 04:00;METAR CYVR 240400Z 11008KT 20SM FEW030 SCT060 BKN220 16/12 A3013 RMK SC2SC2CI2 SLP202=

CYVR;2006-08-24 05:00;METAR CYVR 240500Z 10004KT 20SM FEW030 BKN056 BKN220 15/12 A3013 RMK SC2SC3CI2 SLP202=

CYVR;2006-08-24 06:00;METAR CYVR 240600Z 10011KT 20SM FEW030 FEW056 BKN230 15/11 A3012 RMK SC2SC1CI2 SLP199=

CYVR;2006-08-24 07:00;METAR CYVR 240700Z 11010KT 20SM FEW030 FEW055 BKN220 14/11 A3012 RMK SC1SC2CI1 SLP201=

CYVR;2006-08-24 08:00;METAR CYVR 240800Z 12009KT 20SM FEW030 FEW055 BKN220 14/11 A3012 RMK SC1SC2CI1 SLP200=

CYVR;2006-08-24 09:00;METAR CYVR 240900Z 11009KT 20SM FEW030 SCT050 BKN220 14/11 A3012 RMK SC2SC2CI2 SLP199=

CYVR;2006-08-24 10:00;METAR CYVR 241000Z 11008KT 15SM FEW030 BKN050 OVC220 13/11 A3012 RMK SC2SC3CI2 SLP200=

CYVR;2006-08-24 11:00;METAR CYVR 241100Z 11007KT 15SM SCT013 BKN055 BKN220 13/10 A3011 RMK SF2SC3CI1 SLP197=

CYVR;2006-08-24 12:00;METAR CYVR 241200Z 12004KT 20SM FEW013 FEW030 SCT055 BKN220 13/11 A3011 RMK SF1SC1SC2CI1 SLP196=

CYVR;2006-08-24 13:00;METAR CYVR 241300Z 10005KT 15SM BKN046 BKN071 13/11 A3011 RMK SC6AC2 SLP196=

CYVR;2006-08-24 14:00;METAR CYVR 241400Z 00000KT 15SM FEW030 BKN044 OVC070 14/11 A3011 RMK SF2SC4AC2 SLP197=

CYVR;2006-08-24 15:00;METAR CYVR 241500Z 00000KT 20SM SCT030 BKN041 OVC070 14/11 A3011 RMK SC3SC3AC1 SLP198=

CYVR;2006-08-24 16:00;METAR CYVR 241600Z 00000KT 20SM BKN022 OVC040 15/11 A3012 RMK SC6SC2 SLP201=

CYVR;2006-08-24 17:00;METAR CYVR 241700Z 28003KT 20SM OVC022 16/11 A3012 RMK SC8 SLP200=

CYVR;2006-08-24 18:00;METAR CYVR 241800Z 24005KT 20SM BKN022 17/12 A3011 RMK SC4 SLP197=

CYVR;2006-08-24 19:00;METAR CYVR 241900Z 28007KT 20SM OVC024 17/12 A3011 RMK SC7 SLP197=

CYVR;2006-08-24 20:00;METAR CYVR 242000Z 29007KT 20SM BKN020 18/13 A3011 RMK SC4 SLP195=

CYVR;2006-08-24 22:00;METAR CYVR 242200Z 30008KT 30SM FEW025 FEW035 20/11 A3008 RMK CF1SC0 TR CF SLP185=

CYVR;2006-08-24 23:00;METAR CYVR 242300Z 25006KT 30SM FEW030 FEW035 20/12 A3006 RMK CF1SC0 TR CF SLP178=

CYVR;2006-08-25 00:00;METAR CYVR 250000Z 24005KT 30SM FEW035 FEW220 20/11 A3004 RMK CF1CI0 TR CF SLP173=

CYVR;2006-08-25 01:00;METAR CYVR 250100Z 22008KT 30SM FEW035 FEW075 20/12 A3003 RMK CF1AC0 TR CF SLP170=

CYVR;2006-08-25 02:00;METAR CYVR 250200Z 18007KT 30SM FEW080 19/12 A3002 RMK AC0 SLP167=

CYVR;2006-08-25 03:00;METAR CYVR 250300Z 17007KT 30SM FEW080 18/12 A3004 RMK AC0 SLP172=

CYVR;2006-08-25 04:00;METAR CYVR 250400Z 12005KT 30SM FEW080 17/11 A3005 RMK AC0 SLP176=

CYVR;2006-08-25 05:00;METAR CYVR 250500Z 10005KT 30SM FEW080 16/12 A3006 RMK AC0 SLP179=

CYVR;2006-08-25 06:00;METAR CYVR 250600Z 10004KT 30SM SKC 16/12 A3006 RMK SLP181=

CYVR;2006-08-25 07:00;METAR CYVR 250700Z 05002KT 20SM FEW050 15/11 A3006 RMK SC1 SLP181=

CYVR;2006-08-25 08:00;METAR CYVR 250800Z 09004KT 20SM FEW030 FEW050 15/12 A3007 RMK SC1SC1 SLP182=

CYVR;2006-08-25 09:00;METAR CYVR 250900Z 00000KT 20SM FEW050 14/12 A3006 RMK SC1 SLP181=

CYVR;2006-08-25 10:00;METAR CYVR 251000Z 04002KT 20SM FEW050 14/12 A3007 RMK SC1 SLP184=

CYVR;2006-08-25 11:00;METAR CYVR 251100Z 00000KT 15SM FEW040 14/12 A3007 RMK SC1 SLP183=

CYVR;2006-08-25 12:00;METAR CYVR 251200Z 09002KT 15SM FEW030 13/11 A3008 RMK SC1 SLP185=

CYVR;2006-08-25 13:00;METAR CYVR 251300Z 03003KT 20SM MIFG FEW040 13/11 A3008 RMK SC1 SLP187=

CYVR;2006-08-25 14:00;METAR CYVR 251400Z 00000KT 20SM MIFG FEW050 14/12 A3009 RMK SC1 SLP190=

CYVR;2006-08-25 15:00;METAR CYVR 251500Z 00000KT 30SM SCT050 16/13 A3010 RMK SC2 SLP192=

CYVR;2006-08-25 16:00;METAR CYVR 251600Z 30005KT 30SM FEW012 FEW050 17/14 A3010 RMK CU1SC0 SLP194=

CYVR;2006-08-25 17:00;METAR CYVR 251700Z 30009KT 30SM FEW050 18/13 A3010 RMK SF1 SLP193=

CYVR;2006-08-25 18:00;METAR CYVR 251800Z 31011KT 30SM FEW220 19/14 A3010 RMK CI0 SLP192=

CYVR;2006-08-25 19:00;METAR CYVR 251900Z 30009KT 30SM FEW040 FEW220 19/14 A3009 RMK CF1CI0 TR CF SLP190=

CYVR;2006-08-25 20:00;METAR CYVR 252000Z 30008KT 30SM FEW040 FEW220 20/14 A3008 RMK CF1CI0 TR CF / CONTRAILS SLP185=

CYVR;2006-08-25 21:00;METAR CYVR 252100Z 31008KT 30SM FEW040 BKN220 21/14 A3006 RMK CF1CI0 TR CF / CONTRAILS SLP179=

CYVR;2006-08-25 22:00;METAR CYVR 252200Z 29010KT 30SM BKN220 22/14 A3004 RMK CI1 SLP171=

CYVR;2006-08-25 23:00;METAR CYVR 252300Z 31009KT 30SM BKN220 22/14 A3002 RMK CI1 SLP166=

CYVR;2006-08-26 00:00;METAR CYVR 260000Z 30007KT 30SM BKN220 22/14 A3001 RMK CI1 SLP161=

CYVR;2006-08-26 01:00;METAR CYVR 260100Z 31005KT 30SM FEW180 BKN220 21/14 A2999 RMK AS1CI2 SLP155=

CYVR;2006-08-26 02:00;METAR CYVR 260200Z 29006KT 30SM OVC220 20/14 A2998 RMK CI4 SLP153=

CYVR;2006-08-26 03:00;METAR CYVR 260300Z 26005KT 30SM BKN220 19/15 A2997 RMK CI4 SLP150=

CYVR;2006-08-26 04:00;METAR CYVR 260400Z 28004KT 30SM BKN220 19/15 A2998 RMK CI4 SLP153=

CYVR;2006-08-26 05:00;METAR CYVR 260500Z 25007KT 30SM BKN220 19/14 A2999 RMK CI3 SLP155=

CYVR;2006-08-26 06:00;METAR CYVR 260600Z 23003KT 30SM BKN220 19/14 A2999 RMK CI3 SLP156=

CYVR;2006-08-26 07:00;METAR CYVR 260700Z 27008KT 30SM BKN250 18/14 A2999 RMK CI3 SLP157=

CYVR;2006-08-26 08:00;METAR CYVR 260800Z 29005KT 30SM BKN250 18/15 A2999 RMK CI2 SLP156=

CYVR;2006-08-26 09:00;METAR CYVR 260900Z 34003KT 30SM FEW240 16/13 A2999 RMK CI1 SLP157=

CYVR;2006-08-26 10:00;METAR CYVR 261000Z 31010KT 20SM FEW230 14/13 A3001 RMK CI1 SLP162=

CYVR;2006-08-26 11:00;METAR CYVR 261100Z 31011KT 20SM FEW230 16/14 A3001 RMK CI0 SLP162=

CYVR;2006-08-26 12:00;METAR CYVR 261200Z 32011KT 20SM FEW230 16/14 A3001 RMK CI1 SLP164=

CYVR;2006-08-26 13:00;METAR CYVR 261300Z 32011KT 20SM FEW050 SCT230 16/14 A3002 RMK SC1CI2 SLP167=

CYVR;2006-08-26 14:00;METAR CYVR 261400Z 32010KT 30SM BKN220 16/14 A3004 RMK CI2 SLP172=

CYVR;2006-08-26 15:00;METAR CYVR 261500Z 31010KT 30SM SCT220 17/14 A3005 RMK CI3 CONTRAILS SLP175=

CYVR;2006-08-26 16:00;METAR CYVR 261600Z 31009KT 30SM FEW220 18/15 A3004 RMK CI1 SLP174=

CYVR;2006-08-26 17:00;METAR CYVR 261700Z 30011KT 30SM FEW220 19/14 A3005 RMK CI0 SLP175=

CYVR;2006-08-26 18:00;METAR CYVR 261800Z 30013KT 30SM FEW220 20/14 A3005 RMK CI0 SLP175=

CYVR;2006-08-26 19:00;METAR CYVR 261900Z 30010KT 30SM FEW220 20/14 A3004 RMK CI0 SLP174=

CYVR;2006-08-26 20:00;METAR CYVR 262000Z 30008KT 30SM FEW220 21/15 A3003 RMK CI1 TR CI SLP169=

CYVR;2006-08-26 21:00;METAR CYVR 262100Z 26007KT 30SM FEW220 21/14 A3002 RMK CI1 TR CI SLP165=

CYVR;2006-08-26 22:00;METAR CYVR 262200Z 28005KT 30SM SKC 21/14 A3001 RMK SLP162=

CYVR;2006-08-26 23:00;METAR CYVR 262300Z 29006KT 30SM SKC 21/14 A3000 RMK SLP158=

CYVR;2006-08-27 00:00;METAR CYVR 270000Z 30006KT 30SM SKC 22/14 A2998 RMK CONTRAILS SLP154=

CYVR;2006-08-27 01:00;METAR CYVR 270100Z 29005KT 30SM FEW220 21/14 A2998 RMK CI1 TR CI SLP151=

CYVR;2006-08-27 02:00;METAR CYVR 270200Z 32004KT 30SM FEW220 20/14 A2997 RMK CI1 TR CI / CONTRAILS SLP150=

CYVR;2006-08-27 03:00;METAR CYVR 270300Z 30004KT 30SM FEW220 19/14 A2997 RMK CI0 SLP148=

CYVR;2006-08-27 04:00;METAR CYVR 270400Z 27002KT 30SM FEW220 18/15 A2998 RMK CI0 SLP151=

CYVR;2006-08-27 05:00;METAR CYVR 270500Z 00000KT 30SM FEW220 18/15 A2998 RMK CI0 SLP152=

CYVR;2006-08-27 06:00;METAR CYVR 270600Z 26004KT 30SM FEW220 18/16 A2998 RMK CI0 SLP154=

CYVR;2006-08-27 07:00;METAR CYVR 270700Z 00000KT 30SM FEW220 17/15 A2999 RMK CI0 SLP156=

CYVR;2006-08-27 08:00;METAR CYVR 270800Z 00000KT 30SM FEW220 17/15 A3000 RMK CI0 SLP159=

CYVR;2006-08-27 09:00;METAR CYVR 270900Z 01003KT 30SM FEW220 15/14 A3000 RMK CI0 SLP160=

CYVR;2006-08-27 10:00;METAR CYVR 271000Z 34003KT 30SM FEW220 15/13 A3001 RMK CI0 SLP162=

CYVR;2006-08-27 11:00;METAR CYVR 271100Z 32005KT 20SM FEW220 15/14 A3001 RMK CI0 SLP163=

CYVR;2006-08-27 12:00;METAR CYVR 271200Z 31010KT 20SM FEW220 16/14 A3002 RMK CI0 SLP165=

CYVR;2006-08-27 13:00;METAR CYVR 271300Z 30011KT 30SM FEW220 15/13 A3003 RMK CI0 SLP168=

CYVR;2006-08-27 14:00;METAR CYVR 271400Z 31008KT 30SM SCT220 15/14 A3004 RMK CI1 SLP172=

CYVR;2006-08-27 15:00;METAR CYVR 271500Z 31011KT 30SM BKN220 17/15 A3005 RMK CI2 SLP175=

CYVR;2006-08-27 16:00;METAR CYVR 271600Z 30011KT 30SM BKN220 18/15 A3005 RMK CI1 SLP176=

CYVR;2006-08-27 17:00;METAR CYVR 271700Z 31012KT 30SM BKN220 19/14 A3005 RMK CI1 SLP176=

CYVR;2006-08-27 18:00;METAR CYVR 271800Z 29011KT 30SM BKN220 20/14 A3005 RMK CI2 SLP176=

CYVR;2006-08-27 19:00;METAR CYVR 271900Z 31010KT 30SM BKN220 20/15 A3005 RMK CI2 SLP176=

CYVR;2006-08-27 20:00;METAR CYVR 272000Z 30008KT 30SM BKN220 20/14 A3004 RMK CI2 SLP172=

CYVR;2006-08-27 21:00;METAR CYVR 272100Z 29007KT 30SM BKN220 21/15 A3002 RMK CI2 SLP167=

CYVR;2006-08-27 22:00;METAR CYVR 272200Z 31005KT 30SM BKN220 23/15 A3000 RMK CI2 SLP160=

CYVR;2006-08-27 23:00;METAR CYVR 272300Z 31006KT 30SM BKN220 22/14 A2999 RMK CI2 SLP157=

CYVR;2006-08-28 00:00;METAR CYVR 280000Z 29006KT 30SM BKN220 23/15 A2997 RMK CI1 SLP150=

CYVR;2006-08-28 01:00;METAR CYVR 280100Z 29005KT 30SM BKN220 22/15 A2996 RMK CI2 SLP147=

CYVR;2006-08-28 02:00;METAR CYVR 280200Z 30004KT 30SM BKN220 20/14 A2995 RMK CI2 SLP141=

CYVR;2006-08-28 03:00;METAR CYVR 280300Z 30004KT 30SM BKN240 19/13 A2994 RMK CI2 SLP139=

CYVR;2006-08-28 04:00;METAR CYVR 280400Z 29004KT 30SM BKN240 18/14 A2994 RMK CI2 SLP140=

CYVR;2006-08-28 05:00;METAR CYVR 280500Z 27002KT 30SM BKN240 18/16 A2994 RMK CI2 SLP140=

CYVR;2006-08-28 06:00;METAR CYVR 280600Z 26002KT 30SM SCT240 18/16 A2993 RMK CI2 SLP137=

CYVR;2006-08-28 07:00;METAR CYVR 280700Z 00000KT 30SM SCT240 17/16 A2993 RMK CI2 SLP137=

CYVR;2006-08-28 08:00;METAR CYVR 280800Z 00000KT 30SM MIFG SCT230 16/15 A2993 RMK CI1 SLP137=

CYVR;2006-08-28 09:00;METAR CYVR 280900Z 00000KT 30SM MIFG FEW230 16/15 A2993 RMK CI1 SLP134=

CYVR;2006-08-28 10:00;METAR CYVR 281000Z 12003KT 30SM FEW230 15/14 A2992 RMK CI1 SLP133=

CYVR;2006-08-28 11:00;METAR CYVR 281100Z 09002KT 20SM R26R/2400FT/N MIFG FEW004 SCT220 14/14 A2991 RMK SF2CI1 SLP130=

CYVR;2006-08-28 12:00;METAR CYVR 281200Z 00000KT 15SM R26R/1600FT/N MIFG FEW005 FEW220 14/14 A2991 RMK SF2CI0 SLP129=

CYVR;2006-08-28 13:00;METAR CYVR 281300Z 05002KT 20SM FEW009 SCT220 14/13 A2990 RMK SF1CI1 SLP126=

CYVR;2006-08-28 14:00;METAR CYVR 281400Z 00000KT 20SM BKN220 15/14 A2990 RMK CI2 SLP125=

CYVR;2006-08-28 15:00;METAR CYVR 281500Z 00000KT 30SM BKN220 17/16 A2990 RMK CI2 SLP126=

CYVR;2006-08-28 16:00;METAR CYVR 281600Z 30005KT 30SM BKN230 18/15 A2989 RMK CI2 SLP123=

CYVR;2006-08-28 17:00;METAR CYVR 281700Z 28006KT 30SM BKN230 20/14 A2988 RMK CI2 SLP119=

CYVR;2006-08-28 18:00;METAR CYVR 281800Z 29009KT 30SM BKN230 20/14 A2988 RMK CI2 SLP118=

CYVR;2006-08-28 19:00;METAR CYVR 281900Z 30010KT 30SM BKN230 21/14 A2986 RMK CI2 SLP113=

CYVR;2006-08-28 20:00;METAR CYVR 282000Z 31010KT 30SM BKN230 22/15 A2985 RMK CI2 SLP109=

CYVR;2006-08-28 21:00;METAR CYVR 282100Z 30010KT 30SM BKN220 22/14 A2984 RMK CI4 SLP105=

CYVR;2006-08-28 22:00;METAR CYVR 282200Z 30009KT 30SM FEW140 BKN200 21/14 A2983 RMK AC1CI3 SLP102=

CYVR;2006-08-28 23:00;METAR CYVR 282300Z 31010KT 30SM FEW140 BKN200 22/14 A2983 RMK AC1CI3 SLP100=

CYVR;2006-08-29 00:00;METAR CYVR 290000Z 29009KT 30SM FEW140 BKN220 22/15 A2981 RMK AC1CI3 SLP095=

CYVR;2006-08-29 01:00;METAR CYVR 290100Z 29008KT 30SM FEW140 BKN230 21/14 A2980 RMK AC2CI2 SLP091=

CYVR;2006-08-29 02:00;METAR CYVR 290200Z 29005KT 30SM FEW150 BKN230 19/15 A2979 RMK AC2CC3 SLP088=

CYVR;2006-08-29 03:00;METAR CYVR 290300Z 29007KT 30SM FEW150 SCT240 18/14 A2978 RMK AC1CC3 SLP086=

CYVR;2006-08-29 04:00;METAR CYVR 290400Z 31008KT 30SM FEW150 BKN240 18/14 A2980 RMK AC1CI3 SLP090=

CYVR;2006-08-29 05:00;METAR CYVR 290500Z 30012KT 30SM FEW160 BKN240 18/14 A2980 RMK AC1CI4 SLP091=

CYVR;2006-08-29 06:00;METAR CYVR 290600Z 29006KT 30SM SCT120 BKN240 18/14 A2980 RMK AC3CI2 SLP092=

CYVR;2006-08-29 07:00;METAR CYVR 290700Z 28010KT 30SM BKN130 BKN220 18/13 A2981 RMK AC5CI1 SLP094=

CYVR;2006-08-29 08:00;METAR CYVR 290800Z 27010KT 30SM BKN160 BKN210 18/14 A2981 RMK AC5CI2 SLP096=

CYVR;2006-08-29 09:00;METAR CYVR 290900Z 25006KT 20SM BKN160 BKN220 17/13 A2982 RMK AC5CI2 SLP098=

CYVR;2006-08-29 10:00;METAR CYVR 291000Z 27007KT 20SM OVC160 17/13 A2983 RMK AC8 SLP102=

CYVR;2006-08-29 11:00;METAR CYVR 291100Z 28007KT 20SM BKN140 OVC170 16/11 A2983 RMK AC5AC3 SLP103=

CYVR;2006-08-29 12:00;METAR CYVR 291200Z 28002KT 20SM FEW020 SCT140 SCT200 15/11 A2985 RMK SC1AC2CI1 SLP108=

CYVR;2006-08-29 13:00;METAR CYVR 291300Z 15006KT 20SM SCT025 SCT060 BKN110 14/12 A2986 RMK SC3SC1AC1 SLP112=

CYVR;2006-08-29 14:00;METAR CYVR 291400Z 14006KT 20SM FEW020 BKN052 OVC100 15/12 A2987 RMK SC2SC6AC1 VIS N LWR SLP114=

CYVR;2006-08-29 15:00;METAR CYVR 291500Z 12005KT 20SM FEW022 BKN046 OVC100 15/12 A2988 RMK SC2SC5AC1 VIS E NE LWR SLP118=

CYVR;2006-08-29 16:00;METAR CYVR 291600Z 20002KT 20SM FEW020 BKN038 OVC050 15/11 A2989 RMK SC2SC5SC2 VIS N NE LWR SLP122=

CYVR;2006-08-29 17:00;METAR CYVR 291700Z 31008KT 20SM FEW018 BKN033 OVC050 16/10 A2990 RMK SC2SC6SC1 VIS N NE LWR SLP124=

CYVR;2006-08-29 18:00;METAR CYVR 291800Z 29005KT 20SM FEW018 BKN034 BKN052 16/10 A2990 RMK SC1SC5SC1 SLP124=

CYVR;2006-08-29 19:00;METAR CYVR 291900Z 23003KT 20SM FEW018 BKN035 OVC061 18/10 A2990 RMK SC2SC3SC2 SLP125=

CYVR;2006-08-29 20:00;METAR CYVR 292000Z 23004KT 20SM FEW020 BKN037 OVC060 17/09 A2990 RMK SC2SC5SC2 SLP125=

CYVR;2006-08-29 21:00;METAR CYVR 292100Z 22002KT 20SM SCT037 BKN060 19/10 A2990 RMK SC4SC3 SLP125=

CYVR;2006-08-29 22:00;METAR CYVR 292200Z 24009KT 20SM SCT040 BKN060 BKN200 20/09 A2990 RMK SC3SC2CC1 TCU EMBD SLP124=

CYVR;2006-08-29 23:00;METAR CYVR 292300Z 21008KT 20SM SCT040 BKN060 20/08 A2989 RMK SC3SC4 SLP123=

CYVR;2006-08-30 00:00;METAR CYVR 300000Z 18007KT 20SM FEW040 BKN056 BKN090 19/07 A2988 RMK SC2SC3AC2 SLP120=

CYVR;2006-08-30 01:00;METAR CYVR 300100Z 19006KT 20SM FEW050 BKN090 OVC200 19/07 A2988 RMK SC2AC2CI2 SLP118=

CYVR;2006-08-30 02:00;METAR CYVR 300200Z 23010G15KT 20SM FEW050 SCT090 BKN180 19/08 A2988 RMK SC2AC2AC2 TCU EMBD SLP118=

CYVR;2006-08-30 03:00;METAR CYVR 300300Z 31018G24KT 20SM FEW050 BKN090 BKN180 16/11 A2988 RMK SC2AC3AC2 SLP120=

CYVR;2006-08-30 04:00;METAR CYVR 300400Z 31013G19KT 20SM FEW050 BKN100 BKN180 15/10 A2990 RMK SC2AC2AC2 SLP124=

CYVR;2006-08-30 05:00;METAR CYVR 300500Z 30013G19KT 20SM FEW055 BKN100 BKN180 15/10 A2991 RMK SC2AC3AC2 SLP128=

CYVR;2006-08-30 06:00;METAR CYVR 300600Z 29015KT 20SM FEW045 BKN090 BKN170 14/11 A2991 RMK SC2AC3AC2 SLP130=

CYVR;2006-08-30 07:00;METAR CYVR 300700Z 28011G16KT 20SM FEW011 FEW040 BKN090 BKN120 14/11 A2991 RMK SC1SC2AC4AC1 SLP130=

CYVR;2006-08-30 08:00;METAR CYVR 300800Z 29013KT 20SM FEW012 SCT040 BKN090 OVC120 15/10 A2992 RMK SF1SC2AC2AC2 SLP131=

CYVR;2006-08-30 09:00;METAR CYVR 300900Z 29013KT 15SM -SHRA FEW012 SCT040 BKN080 OVC120 14/11 A2992 RMK SF1SC2AC2AC2 SLP132=

CYVR;2006-08-30 09:47;SPECI CYVR 300947Z 29012KT 15SM FEW011 SCT025 BKN071 OVC120 14/ RMK SF1SC2AC4AC1=

CYVR;2006-08-30 10:00;METAR CYVR 301000Z 31010KT 15SM FEW010 SCT021 BKN071 OVC140 14/10 A2993 RMK SF1SC2AC2AC3 SLP136=

CYVR;2006-08-30 11:00;METAR CYVR 301100Z 31013KT 15SM FEW012 SCT020 SCT080 BKN170 14/10 A2995 RMK SF1SC2AC1AC2 SLP141=

CYVR;2006-08-30 12:00;METAR CYVR 301200Z 31016KT 15SM SCT018 BKN060 BKN170 14/10 A2996 RMK SC3SC2AC2 SLP146=

CYVR;2006-08-30 13:00;METAR CYVR 301300Z 29017KT 20SM FEW019 FEW060 SCT170 13/10 A2996 RMK SC2SC1AC1 SLP147=

CYVR;2006-08-30 14:00;METAR CYVR 301400Z 29014KT 20SM FEW019 FEW060 13/10 A2998 RMK SC2SC1 SLP153=

CYVR;2006-08-30 15:00;METAR CYVR 301500Z 30013KT 20SM BKN021 14/09 A3000 RMK SC5 SLP160=

CYVR;2006-08-30 16:00;METAR CYVR 301600Z 30016KT 30SM BKN019 BKN038 15/10 A3002 RMK SC5SC1 SLP167=

CYVR;2006-08-30 17:00;METAR CYVR 301700Z 29014KT 30SM FEW019 SCT038 16/10 A3004 RMK SC2SC1 SLP174=

CYVR;2006-08-30 18:00;METAR CYVR 301800Z 29013KT 30SM BKN022 16/10 A3006 RMK SC5 SLP181=

CYVR;2006-08-30 19:00;METAR CYVR 301900Z 27016KT 30SM FEW030 FEW050 17/10 A3007 RMK SC1SC1 SLP184=

CYVR;2006-08-30 20:00;METAR CYVR 302000Z 27012KT 30SM FEW040 SCT060 18/10 A3009 RMK SC2SC2 SLP189=

CYVR;2006-08-30 21:00;METAR CYVR 302100Z 26011G17KT 30SM FEW040 BKN064 BKN080 17/09 A3010 RMK SC2SC2AC2 SLP194=

CYVR;2006-08-30 22:00;METAR CYVR 302200Z 23008KT 30SM FEW050 SCT080 BKN210 18/08 A3011 RMK SC2AC2CI0 SLP197=

CYVR;2006-08-30 23:00;METAR CYVR 302300Z 21010KT 30SM FEW050 FEW080 BKN220 19/08 A3012 RMK SC1AC1CI2 SLP199=

CYVR;2006-08-31 00:00;METAR CYVR 310000Z 23007KT 30SM FEW050 BKN220 19/09 A3012 RMK SC1CI4 SLP199=

CYVR;2006-08-31 01:00;METAR CYVR 310100Z 23004KT 30SM FEW050 OVC210 19/09 A3012 RMK SC1CI6 SLP200=

CYVR;2006-08-31 02:00;METAR CYVR 310200Z 13003KT 30SM FEW050 SCT082 BKN210 19/08 A3012 RMK SC2AC2CI2 SLP199=

CYVR;2006-08-31 03:00;METAR CYVR 310300Z 34002KT 30SM FEW050 SCT065 SCT078 OVC210 18/07 A3014 RMK SC2SC2AC1CI3 SLP205=

CYVR;2006-08-31 04:00;METAR CYVR 310400Z 04005KT 30SM FEW050 SCT062 BKN085 BKN210 17/08 A3015 RMK SC2SC2AC1CI2 SLP209=

CYVR;2006-08-31 05:00;METAR CYVR 310500Z 10008KT 30SM FEW060 SCT080 BKN210 15/10 A3015 RMK SC2AC2CI1 SLP211=

CYVR;2006-08-31 06:00;METAR CYVR 310600Z 11009KT 20SM SCT060 BKN081 OVC210 16/09 A3017 RMK SC3AC4CI1 SLP217=

CYVR;2006-08-31 07:00;METAR CYVR 310700Z 09009KT 20SM SCT065 BKN085 OVC210 15/09 A3018 RMK SC3AC4CI0 SLP220=

CYVR;2006-08-31 08:00;METAR CYVR 310800Z 10008KT 20SM -SHRA BKN063 OVC085 15/09 A3020 RMK SC5AC3 PCPN VRY LGT SLP226=

CYVR;2006-08-31 08:19;SPECI CYVR 310819Z 10010KT 20SM BKN064 OVC080 15/ RMK SC6AC2=

CYVR;2006-08-31 09:00;METAR CYVR 310900Z 09008KT 20SM BKN065 OVC087 14/09 A3020 RMK SC6AC2 SLP227=

CYVR;2006-08-31 10:00;METAR CYVR 311000Z 08007KT 20SM SCT065 OVC086 14/09 A3021 RMK SC3AC5 SLP230=

CYVR;2006-08-31 11:00;METAR CYVR 311100Z 09008KT 20SM FEW065 SCT088 12/08 A3022 RMK SC2AC2 SLP234=

CYVR;2006-08-31 12:00;METAR CYVR 311200Z 09006KT 20SM FEW065 11/08 A3023 RMK SC2 SLP238=

CYVR;2006-08-31 13:00;METAR CYVR 311300Z 11004KT 30SM FEW065 11/08 A3024 RMK SC2 SLP240=

CYVR;2006-08-31 14:00;METAR CYVR 311400Z 00000KT 30SM FEW065 12/09 A3025 RMK SC1 CONTRAILS SLP244=

CYVR;2006-08-31 15:00;METAR CYVR 311500Z 00000KT 30SM FEW040 FEW050 FEW230 14/09 A3027 RMK CF1SC1CI0 TR CF TR SC SLP250=

CYVR;2006-08-31 16:00;METAR CYVR 311600Z 00000KT 30SM FEW040 FEW050 15/09 A3027 RMK CF1SC0 TR CF SLP250=

CYVR;2006-08-31 17:00;METAR CYVR 311700Z 27005KT 30SM FEW040 FEW050 16/09 A3027 RMK CF1SC0 TR CF SLP251=

CYVR;2006-08-31 18:00;METAR CYVR 311800Z 26009KT 30SM FEW040 FEW230 16/09 A3028 RMK CU0CI0 SLP253=

CYVR;2006-08-31 19:00;METAR CYVR 311900Z 27007KT 30SM FEW040 FEW230 17/10 A3027 RMK CF0CI0 SLP251=

CYVR;2006-08-31 20:00;METAR CYVR 312000Z 29010KT 30SM FEW040 FEW230 18/11 A3027 RMK CU0CI0 SLP249=

CYVR;2006-08-31 21:00;METAR CYVR 312100Z 30010KT 30SM FEW040 FEW230 18/09 A3026 RMK CU0CI0 SLP246=

CYVR;2006-08-31 22:00;METAR CYVR 312200Z 31011KT 30SM FEW040 FEW230 19/09 A3024 RMK CU0CI0 CONTRAILS SLP241=

CYVR;2006-08-31 23:00;METAR CYVR 312300Z 31009KT 30SM FEW040 FEW230 19/09 A3023 RMK CU0CI0 CONTRAILS SLP236=

CYVR;2006-09-01 00:00;METAR CYVR 010000Z 31009KT 30SM FEW040 FEW230 19/11 A3021 RMK CU0CI0 CONTRAILS SLP231=

CYVR;2006-09-01 01:00;METAR CYVR 010100Z 31008KT 30SM FEW040 FEW230 18/11 A3020 RMK CF1CI0 TR CF / CONTRAILS SLP227=

CYVR;2006-09-01 02:00;METAR CYVR 010200Z 31009KT 30SM FEW230 18/10 A3019 RMK CI0 CONTRAILS SLP223=

CYVR;2006-09-01 03:00;METAR CYVR 010300Z 32010KT 30SM FEW230 16/11 A3019 RMK CI0 SLP222=

CYVR;2006-09-01 04:00;METAR CYVR 010400Z 32008KT 30SM FEW230 16/11 A3019 RMK CI0 SLP225=

CYVR;2006-09-01 05:00;METAR CYVR 010500Z 32005KT 30SM FEW230 14/11 A3019 RMK CI0 SLP224=

CYVR;2006-09-01 06:00;METAR CYVR 010600Z 33003KT 30SM FEW230 14/12 A3019 RMK CI0 SLP222=

CYVR;2006-09-01 07:00;METAR CYVR 010700Z 33003KT 30SM FEW230 14/09 A3019 RMK CI0 SLP224=

CYVR;2006-09-01 08:00;METAR CYVR 010800Z 35003KT 30SM FEW230 13/09 A3019 RMK CI0 SLP225=

CYVR;2006-09-01 09:00;METAR CYVR 010900Z 09004KT 30SM FEW230 13/09 A3020 RMK CI0 SLP226=

CYVR;2006-09-01 10:00;METAR CYVR 011000Z 00000KT 20SM FEW230 12/09 A3019 RMK CI0 SLP224=

CYVR;2006-09-01 12:00;METAR CYVR 011200Z 35002KT 20SM SKC 12/09 A3018 RMK SLP220=

CYVR;2006-09-01 13:00;METAR CYVR 011300Z 01003KT 20SM FEW220 11/08 A3018 RMK CI0 SLP219=

CYVR;2006-09-01 14:00;METAR CYVR 011400Z 00000KT 30SM SCT220 13/10 A3017 RMK CI2 SLP217=

CYVR;2006-09-01 15:00;METAR CYVR 011500Z 14002KT 30SM BKN220 14/10 A3018 RMK CI1 SLP219=

CYVR;2006-09-01 16:00;METAR CYVR 011600Z 31005KT 30SM BKN220 17/11 A3017 RMK CI1 SLP215=

CYVR;2006-09-01 17:00;METAR CYVR 011700Z 31006KT 30SM FEW220 18/11 A3016 RMK CI0 CONTRAILS SLP213=

CYVR;2006-09-01 18:00;METAR CYVR 011800Z 30009KT 30SM FEW220 19/11 A3015 RMK CI0 CONTRAILS SLP210=

CYVR;2006-09-01 19:00;METAR CYVR 011900Z 30012KT 30SM SCT220 19/11 A3014 RMK CI0 CONTRAILS SLP205=

CYVR;2006-09-01 20:00;METAR CYVR 012000Z 31010KT 30SM SCT220 20/11 A3011 RMK CI0 HZ SLP197=

CYVR;2006-09-01 21:00;METAR CYVR 012100Z 31010KT 30SM FEW220 22/10 A3009 RMK CI0 HZ / CONTRAILS SLP188=

CYVR;2006-09-01 22:00;METAR CYVR 012200Z 31012KT 30SM FEW220 22/11 A3006 RMK CI0 HZ SLP180=

CYVR;2006-09-01 23:00;METAR CYVR 012300Z 31010KT 30SM FEW220 22/11 A3004 RMK CI0 SLP172=

CYVR;2006-09-02 00:00;METAR CYVR 020000Z 32009KT 30SM SCT220 23/10 A3001 RMK CI0 CONTRAILS SLP162=

CYVR;2006-09-02 01:00;METAR CYVR 020100Z 31008KT 30SM FEW220 24/10 A2998 RMK CI0 CONTRAILS SLP153=

CYVR;2006-09-02 02:00;METAR CYVR 020200Z 30008KT 30SM SCT220 21/12 A2997 RMK CI0 CONTRAILS SLP150=

CYVR;2006-09-02 03:00;METAR CYVR 020300Z 30008KT 30SM SCT220 OVC250 18/13 A2996 RMK CI1CS0 HZ / CONTRAILS SLP145=

CYVR;2006-09-02 04:00;METAR CYVR 020400Z 31004KT 30SM SCT220 OVC250 17/14 A2996 RMK CI1CS0 HZ SLP145=

CYVR;2006-09-02 05:00;METAR CYVR 020500Z 26004KT 20SM FEW220 BKN250 18/15 A2996 RMK CI1CS0 SLP144=

CYVR;2006-09-02 06:00;METAR CYVR 020600Z 29004KT 20SM FEW220 16/13 A2996 RMK CI1 SLP144=

CYVR;2006-09-02 07:00;METAR CYVR 020700Z 03003KT 20SM FEW220 16/13 A2996 RMK CI0 SLP145=

CYVR;2006-09-02 08:00;METAR CYVR 020800Z 05004KT 20SM FEW220 15/12 A2996 RMK CI0 SLP146=

CYVR;2006-09-02 09:00;METAR CYVR 020900Z 02003KT 15SM FEW220 15/10 A2996 RMK CI0 SLP146=

CYVR;2006-09-02 10:00;METAR CYVR 021000Z 03002KT 15SM FEW220 14/11 A2996 RMK CI0 SLP144=

CYVR;2006-09-02 11:00;METAR CYVR 021100Z 00000KT 30SM FEW220 13/09 A2996 RMK CI0 SLP145=

CYVR;2006-09-02 12:00;METAR CYVR 021200Z 36002KT 15SM FEW220 13/09 A2995 RMK CI0 SLP143=

CYVR;2006-09-02 13:00;METAR CYVR 021300Z 35002KT 20SM FEW240 12/09 A2995 RMK CS0 HZ SLP142=

CYVR;2006-09-02 14:00;METAR CYVR 021400Z 00000KT 20SM FEW240 13/11 A2996 RMK CS0 HZ SLP144=

CYVR;2006-09-02 15:00;METAR CYVR 021500Z 13002KT 30SM FEW240 15/12 A2995 RMK CS0 HZ SLP143=

CYVR;2006-09-02 16:00;METAR CYVR 021600Z 31008KT 30SM FEW240 18/11 A2996 RMK CS0 HZ SLP144=

CYVR;2006-09-02 17:00;METAR CYVR 021700Z 30010KT 30SM FEW240 20/11 A2995 RMK CS0 SLP142=

CYVR;2006-09-02 18:00;METAR CYVR 021800Z 29007KT 30SM SKC 21/13 A2995 RMK SLP142=

CYVR;2006-09-02 19:00;METAR CYVR 021900Z 30009KT 30SM SKC 21/11 A2994 RMK SLP138=

CYVR;2006-09-02 20:00;METAR CYVR 022000Z 30006KT 30SM SKC 22/12 A2992 RMK HZ SLP131=

CYVR;2006-09-02 21:00;METAR CYVR 022100Z 29010KT 30SM FEW220 21/13 A2991 RMK CI0 SLP130=

CYVR;2006-09-02 22:00;METAR CYVR 022200Z 30008KT 30SM FEW220 24/11 A2990 RMK CI0 HZ SLP125=

CYVR;2006-09-02 23:00;METAR CYVR 022300Z 31008KT 30SM FEW220 24/11 A2988 RMK CI0 HZ SLP119=

CYVR;2006-09-03 00:00;METAR CYVR 030000Z 30007KT 30SM FEW220 25/10 A2986 RMK CI0 HZ SLP112=

CYVR;2006-09-03 01:00;METAR CYVR 030100Z 29006KT 30SM BKN220 21/13 A2984 RMK CI2 SLP106=

CYVR;2006-09-03 02:00;METAR CYVR 030200Z 30006KT 30SM BKN220 20/14 A2983 RMK CI2 SLP101=

CYVR;2006-09-03 03:00;METAR CYVR 030300Z 29005KT 30SM BKN220 18/15 A2983 RMK CI2 HZ SLP101=

CYVR;2006-09-03 04:00;METAR CYVR 030400Z 29003KT 30SM BKN220 18/14 A2983 RMK CI2 SLP102=

CYVR;2006-09-03 05:00;METAR CYVR 030500Z 33002KT 20SM BKN200 17/14 A2984 RMK CI2 SLP104=

CYVR;2006-09-03 06:00;METAR CYVR 030600Z 31004KT 20SM BKN180 17/15 A2984 RMK AC2 SLP104=

CYVR;2006-09-03 07:00;METAR CYVR 030700Z 35005KT 20SM BKN180 15/13 A2983 RMK AC2 SLP102=

CYVR;2006-09-03 08:00;METAR CYVR 030800Z 00000KT 20SM SCT190 15/11 A2984 RMK AC1 SLP106=

CYVR;2006-09-03 09:00;METAR CYVR 030900Z 00000KT 15SM FEW210 15/11 A2985 RMK CI0 SLP110=

CYVR;2006-09-03 10:00;METAR CYVR 031000Z 01002KT 15SM FEW210 15/12 A2986 RMK CI0 SLP113=

CYVR;2006-09-03 11:00;METAR CYVR 031100Z 00000KT 15SM FEW210 15/12 A2987 RMK CI0 SLP116=

CYVR;2006-09-03 12:00;METAR CYVR 031200Z 33002KT 15SM FEW210 14/11 A2988 RMK CI0 SLP117=

CYVR;2006-09-03 14:00;METAR CYVR 031400Z 00000KT 30SM SCT210 15/13 A2989 RMK CI1 HZ SLP121=

CYVR;2006-09-03 15:00;METAR CYVR 031500Z 03003KT 30SM FEW210 16/14 A2990 RMK CI0 HZ SLP125=

CYVR;2006-09-03 16:00;METAR CYVR 031600Z 01002KT 30SM FEW210 19/12 A2990 RMK CI0 HZ SLP124=

CYVR;2006-09-03 17:00;METAR CYVR 031700Z 31007KT 30SM FEW210 21/14 A2990 RMK CI0 HZ SLP124=

CYVR;2006-09-03 18:00;METAR CYVR 031800Z 30008KT 30SM FEW180 21/13 A2989 RMK AC0 HZ SLP123=

CYVR;2006-09-03 19:00;METAR CYVR 031900Z 31007KT 30SM BKN180 22/13 A2988 RMK AC2 HZ SLP119=

CYVR;2006-09-03 20:00;METAR CYVR 032000Z 30007KT 30SM BKN180 22/13 A2987 RMK AC2 HZ SLP115=

CYVR;2006-09-03 21:00;METAR CYVR 032100Z 31005KT 30SM SCT180 23/12 A2985 RMK AC2 HZ SLP110=

CYVR;2006-09-03 22:00;METAR CYVR 032200Z 30005KT 30SM SCT180 SCT220 25/11 A2984 RMK AC2CI0 HZ SLP106=

CYVR;2006-09-03 23:00;METAR CYVR 032300Z 30003KT 30SM SCT180 SCT220 25/12 A2983 RMK AC2CI0 HZ SLP101=

CYVR;2006-09-04 00:00;METAR CYVR 040000Z 31004KT 30SM SCT180 BKN220 23/13 A2982 RMK AC2CI0 HZ SLP097=

CYVR;2006-09-04 01:00;METAR CYVR 040100Z 27004KT 30SM BKN180 BKN220 22/12 A2982 RMK AC3CI0 HZ SLP098=

CYVR;2006-09-04 02:00;METAR CYVR 040200Z 33003KT 30SM SCT180 22/13 A2982 RMK AC2 HZ SLP097=

CYVR;2006-09-04 04:00;METAR CYVR 040400Z 21003KT 30SM FEW180 21/10 A2983 RMK AC2 SLP103=

CYVR;2006-09-04 05:00;METAR CYVR 040500Z 00000KT 20SM FEW180 19/11 A2985 RMK AC2 SLP107=

CYVR;2006-09-04 06:00;METAR CYVR 040600Z 10004KT 20SM SCT210 18/13 A2984 RMK CI1 SLP106=

CYVR;2006-09-04 07:00;METAR CYVR 040700Z 10005KT 15SM SCT210 16/13 A2985 RMK CI1 SLP110=

CYVR;2006-09-04 08:00;METAR CYVR 040800Z 08002KT 15SM SCT210 18/14 A2986 RMK CI1 SLP113=

CYVR;2006-09-04 09:00;METAR CYVR 040900Z 09002KT 15SM BKN180 16/13 A2987 RMK AC2 SLP116=

CYVR;2006-09-04 10:00;METAR CYVR 041000Z 10004KT 15SM BKN180 16/12 A2989 RMK AC2 SLP121=

CYVR;2006-09-04 11:00;METAR CYVR 041100Z 00000KT 15SM SCT170 15/12 A2990 RMK AC2 SLP125=

CYVR;2006-09-04 12:00;METAR CYVR 041200Z 07002KT 15SM FEW170 14/12 A2991 RMK AC1 SLP127=

CYVR;2006-09-04 13:00;METAR CYVR 041300Z 11003KT 15SM FEW170 14/12 A2991 RMK AC1 HZ SLP130=

CYVR;2006-09-04 14:00;METAR CYVR 041400Z 00000KT 15SM SCT170 15/12 A2995 RMK AC4 HZ SLP141=

CYVR;2006-09-04 15:00;METAR CYVR 041500Z 10007KT 15SM SCT170 15/12 A2997 RMK AC3 HZ SLP150=

CYVR;2006-09-04 16:00;METAR CYVR 041600Z 11007KT 15SM FEW170 16/12 A2998 RMK AC2 HZ SLP153=

CYVR;2006-09-04 17:00;METAR CYVR 041700Z 14004KT 20SM FEW170 19/13 A2998 RMK AC1 HZ SLP153=

CYVR;2006-09-04 18:00;METAR CYVR 041800Z 23004KT 20SM FEW160 21/12 A2998 RMK AC1 HZ SLP154=

CYVR;2006-09-04 19:00;METAR CYVR 041900Z 23008KT 20SM FEW160 21/15 A2998 RMK AC1 HZ SLP152=

CYVR;2006-09-04 20:00;METAR CYVR 042000Z 23008G15KT 20SM FEW160 22/13 A2999 RMK AC0 HZ SLP156=

CYVR;2006-09-04 21:00;METAR CYVR 042100Z 24005KT 20SM SKC 23/12 A2999 RMK HZ SLP156=

CYVR;2006-09-04 22:00;METAR CYVR 042200Z 24005KT 20SM SKC 24/11 A2999 RMK HZ SLP156=

CYVR;2006-09-04 23:00;METAR CYVR 042300Z 23004KT 20SM SKC 23/12 A2998 RMK HZ SLP153=

CYVR;2006-09-05 00:00;METAR CYVR 050000Z 21007KT 20SM SKC 23/14 A2998 RMK HZ SLP152=

CYVR;2006-09-05 01:00;METAR CYVR 050100Z 22007KT 20SM SKC 23/11 A2999 RMK HZ SLP155=

CYVR;2006-09-05 02:00;METAR CYVR 050200Z 22003KT 20SM SKC 22/12 A2999 RMK HZ SLP157=

CYVR;2006-09-05 03:00;METAR CYVR 050300Z 10007KT 20SM SKC 18/12 A3001 RMK HZ SLP162=

CYVR;2006-09-05 04:00;METAR CYVR 050400Z 10010KT 20SM SKC 17/13 A3004 RMK SLP171=

CYVR;2006-09-05 05:00;METAR CYVR 050500Z 13007KT 20SM SKC 17/12 A3006 RMK SLP179=

CYVR;2006-09-05 06:00;METAR CYVR 050600Z 13007KT 20SM SKC 17/12 A3008 RMK SLP186=

CYVR;2006-09-05 07:00;METAR CYVR 050700Z 10006KT 20SM SKC 14/11 A3010 RMK SLP193=

CYVR;2006-09-05 08:00;METAR CYVR 050800Z 11007KT 20SM SKC 13/11 A3012 RMK SLP200=

CYVR;2006-09-05 09:00;METAR CYVR 050900Z 13006KT 20SM SKC 15/11 A3013 RMK SLP203=

CYVR;2006-09-05 10:00;METAR CYVR 051000Z 10005KT 20SM SKC 13/10 A3014 RMK SLP208=

CYVR;2006-09-05 11:00;METAR CYVR 051100Z 09003KT 20SM SKC 13/11 A3016 RMK SLP213=

CYVR;2006-09-05 12:00;METAR CYVR 051200Z 13003KT 20SM SKC 13/12 A3017 RMK SLP218=

CYVR;2006-09-05 13:00;METAR CYVR 051300Z 10004KT 20SM SKC 12/11 A3019 RMK SLP223=

CYVR;2006-09-05 13:40;SPECI CYVR 051340Z 16006KT 15SM FEW006 13/ RMK SF1 FG BNK SE - SW / VIS S 4=

CYVR;2006-09-05 13:52;SPECI CYVR 051352Z 15005KT 10SM BKN004 13/ RMK SF5 VIS E - SW 4=

CYVR;2006-09-05 14:00;METAR CYVR 051400Z 15005KT 5SM BR BKN003 13/12 A3020 RMK SF5 VIS HIER NW - NE SLP227=

CYVR;2006-09-05 14:25;SPECI CYVR 051425Z 13006KT 8SM SCT003 14/ RMK SF3 VIS E - SW 4=

CYVR;2006-09-05 15:00;METAR CYVR 051500Z 12006KT 15SM FEW004 FEW240 14/13 A3021 RMK SF1CI1 VIS SE QUAD 5 DUE FG BNK SLP231=

CYVR;2006-09-05 15:35;SPECI CYVR 051535Z 11005KT 8SM PRFG BKN004 15/ RMK SF5 VIS NE - S 1=

CYVR;2006-09-05 16:00;METAR CYVR 051600Z 14004KT 4SM BR BKN004 15/14 A3022 RMK SF5 VIS W - N 8 SLP235=

CYVR;2006-09-05 16:27;SPECI CYVR 051627Z 14003KT 5SM BR SCT004 SCT240 16/ RMK SF3CI1 VIS NW - N HIER / LO CLD ALQDS=

CYVR;2006-09-05 17:00;METAR CYVR 051700Z 20003KT 15SM FEW004 FEW240 17/13 A3024 RMK SF2CI1 VIS LWR SE SLP239=

CYVR;2006-09-05 18:00;METAR CYVR 051800Z 00000KT 15SM FEW010 FEW240 19/12 A3023 RMK SF1CI1 TR SF SLP236=

CYVR;2006-09-05 19:00;METAR CYVR 051900Z 30007KT 20SM FEW240 20/13 A3022 RMK CI0 SLP233=

CYVR;2006-09-05 20:00;METAR CYVR 052000Z 28008KT 30SM SKC 21/14 A3020 RMK SLP228=

CYVR;2006-09-05 21:00;METAR CYVR 052100Z 29007KT 30SM SKC 20/15 A3019 RMK SLP224=

CYVR;2006-09-05 22:00;METAR CYVR 052200Z 26007KT 30SM SKC 21/14 A3017 RMK SLP218=

CYVR;2006-09-05 23:00;METAR CYVR 052300Z 25007KT 30SM SKC 21/15 A3016 RMK SLP212=

CYVR;2006-09-06 00:00;METAR CYVR 060000Z 23007KT 30SM SKC 21/14 A3014 RMK SLP207=

CYVR;2006-09-06 01:00;METAR CYVR 060100Z 24005KT 30SM SKC 21/14 A3013 RMK SLP202=

CYVR;2006-09-06 02:00;METAR CYVR 060200Z 20003KT 30SM SKC 20/14 A3012 RMK SLP200=

CYVR;2006-09-06 03:00;METAR CYVR 060300Z 16003KT 30SM SKC 20/14 A3013 RMK SLP202=

CYVR;2006-09-06 04:00;METAR CYVR 060400Z 13004KT 30SM SKC 19/14 A3014 RMK SLP206=

CYVR;2006-09-06 05:00;METAR CYVR 060500Z 14004KT 30SM SKC 18/13 A3014 RMK SLP207=

CYVR;2006-09-06 06:00;METAR CYVR 060600Z 11005KT 30SM SKC 16/14 A3015 RMK SLP209=

CYVR;2006-09-06 07:00;METAR CYVR 060700Z 10003KT 20SM SKC 16/13 A3015 RMK SLP209=

CYVR;2006-09-06 08:00;METAR CYVR 060800Z 11003KT 20SM SKC 16/13 A3015 RMK SLP210=

CYVR;2006-09-06 09:00;METAR CYVR 060900Z 11003KT 20SM SKC 15/13 A3015 RMK SLP210=

CYVR;2006-09-06 10:00;METAR CYVR 061000Z 11003KT 20SM SKC 14/13 A3015 RMK SLP211=

CYVR;2006-09-06 11:00;METAR CYVR 061100Z 00000KT 20SM R26R/3500V6000FT/U SKC 14/13 A3016 RMK SLP213=

CYVR;2006-09-06 12:00;METAR CYVR 061200Z 00000KT 20SM SKC 14/12 A3016 RMK RVR RWY 26R 2600 FT V 6000 FT SLP214=

CYVR;2006-09-06 13:00;METAR CYVR 061300Z 00000KT 20SM SKC 14/12 A3016 RMK SLP213=

CYVR;2006-09-06 14:00;METAR CYVR 061400Z 09002KT 20SM MIFG SKC 14/13 A3017 RMK SLP216=

CYVR;2006-09-06 15:00;METAR CYVR 061500Z 00000KT 20SM SKC 16/14 A3018 RMK SLP220=

CYVR;2006-09-06 16:00;METAR CYVR 061600Z 22002KT 20SM FEW015 17/14 A3019 RMK SC1 HZ SLP222=

CYVR;2006-09-06 17:00;METAR CYVR 061700Z 24005KT 20SM FEW015 FEW240 19/15 A3018 RMK SF1CI1 TR SF SLP221=

CYVR;2006-09-06 18:00;METAR CYVR 061800Z 26007KT 20SM FEW020 FEW240 20/15 A3018 RMK CF1CI1 TR CF SLP220=

CYVR;2006-09-06 19:00;METAR CYVR 061900Z 28006KT 20SM FEW020 20/15 A3017 RMK CF1 TR CF SLP217=

CYVR;2006-09-06 20:00;METAR CYVR 062000Z 24005KT 30SM SKC 20/15 A3016 RMK SLP212=

CYVR;2006-09-06 21:00;METAR CYVR 062100Z 25007KT 30SM SKC 20/15 A3014 RMK SLP208=

CYVR;2006-09-06 22:00;METAR CYVR 062200Z 26007KT 30SM FEW240 20/14 A3013 RMK CI0 SLP204=

CYVR;2006-09-06 23:00;METAR CYVR 062300Z 25008KT 30SM FEW240 20/14 A3012 RMK CI0 SLP199=

CYVR;2006-09-07 00:00;METAR CYVR 070000Z 24003KT 30SM FEW240 20/14 A3010 RMK CI0 SLP192=

CYVR;2006-09-07 01:00;METAR CYVR 070100Z 24004KT 30SM FEW240 20/13 A3009 RMK CI1 SLP188=

CYVR;2006-09-07 02:00;METAR CYVR 070200Z 19002KT 30SM FEW240 20/13 A3008 RMK CI1 SLP186=

CYVR;2006-09-07 03:00;METAR CYVR 070300Z 00000KT 30SM FEW240 19/13 A3008 RMK CI1 SLP185=

CYVR;2006-09-07 04:00;METAR CYVR 070400Z 00000KT 30SM FEW240 18/14 A3008 RMK CI1 SLP187=

CYVR;2006-09-07 05:00;METAR CYVR 070500Z 16002KT 30SM FEW240 17/13 A3009 RMK CI1 SLP188=

CYVR;2006-09-07 06:00;METAR CYVR 070600Z 11004KT 30SM FEW240 16/14 A3009 RMK CI2 SLP188=

CYVR;2006-09-07 07:00;METAR CYVR 070700Z 11003KT 20SM FEW240 16/14 A3009 RMK CI2 SLP188=

CYVR;2006-09-07 08:00;METAR CYVR 070800Z 00000KT 20SM FEW240 14/13 A3009 RMK CI2 SLP188=

CYVR;2006-09-07 09:00;METAR CYVR 070900Z 27004KT 20SM FEW240 14/12 A3008 RMK CI2 SLP185=

CYVR;2006-09-07 10:00;METAR CYVR 071000Z 11008KT 20SM FEW240 13/11 A3007 RMK CI1 SLP184=

CYVR;2006-09-07 11:00;METAR CYVR 071100Z 09006KT 20SM FEW210 12/11 A3007 RMK CI2 SLP183=

CYVR;2006-09-07 12:00;METAR CYVR 071200Z 09006KT 20SM FEW210 12/11 A3007 RMK CI2 SLP183=

CYVR;2006-09-07 13:00;METAR CYVR 071300Z 09005KT 20SM PRFG FEW006 FEW210 12/11 A3007 RMK SF1CI2 VIS S 4 SLP182=

CYVR;2006-09-07 14:00;METAR CYVR 071400Z 09006KT 15SM FEW005 FEW220 12/11 A3007 RMK SF2CI0 VIS LWR E - S SLP182=

CYVR;2006-09-07 15:00;METAR CYVR 071500Z 10007KT 15SM FEW005 SCT230 14/12 A3008 RMK SF2CI0 LO CLD S - W SLP185=

CYVR;2006-09-07 15:17;SPECI CYVR 071517Z 10004KT 15SM BKN005 14/ RMK SF5=

CYVR;2006-09-07 16:00;METAR CYVR 071600Z 13004KT 10SM BKN005 15/13 A3008 RMK SC7 CIG RAG SLP185=

CYVR;2006-09-07 17:00;METAR CYVR 071700Z 13002KT 15SM SCT008 BKN015 BKN220 16/13 A3007 RMK SC4SC1CI0 SLP182=

CYVR;2006-09-07 17:15;SPECI CYVR 071715Z 00000KT 15SM SCT008 SCT017 BKN220 17/ RMK SC3SC1CI0=

CYVR;2006-09-07 18:00;METAR CYVR 071800Z 21004KT 20SM FEW010 SCT240 19/13 A3006 RMK CU2CI1 SLP178=

CYVR;2006-09-07 20:00;METAR CYVR 072000Z 23004KT 20SM FEW020 SCT240 19/14 A3001 RMK CF1CI1 HZ SLP163=

CYVR;2006-09-07 21:00;METAR CYVR 072100Z 23006KT 20SM FEW025 SCT240 19/14 A2999 RMK CF1CI1 TR CF SLP155=

CYVR;2006-09-07 22:00;METAR CYVR 072200Z 26007KT 30SM SCT240 20/15 A2996 RMK CI1 SLP147=

CYVR;2006-09-07 23:00;METAR CYVR 072300Z 25007KT 30SM SCT240 21/14 A2994 RMK CI2 SLP140=

CYVR;2006-09-08 00:00;METAR CYVR 080000Z 23007KT 30SM BKN240 20/14 A2992 RMK CI2 SLP132=

CYVR;2006-09-08 01:00;METAR CYVR 080100Z 23006KT 30SM BKN240 20/13 A2990 RMK CI2 SLP125=

CYVR;2006-09-08 02:00;METAR CYVR 080200Z 22002KT 30SM BKN240 19/12 A2988 RMK CI2 SLP118=

CYVR;2006-09-08 03:00;METAR CYVR 080300Z 00000KT 30SM BKN240 18/12 A2986 RMK CI0 SLP113=

CYVR;2006-09-08 04:00;METAR CYVR 080400Z 00000KT 20SM SCT240 17/12 A2987 RMK CI1 SLP114=

CYVR;2006-09-08 05:00;METAR CYVR 080500Z 11004KT 30SM SCT240 15/12 A2987 RMK CI1 SLP115=

CYVR;2006-09-08 06:00;METAR CYVR 080600Z 10006KT 30SM BKN240 14/11 A2985 RMK CI1 SLP110=

CYVR;2006-09-08 07:00;METAR CYVR 080700Z 10004KT 30SM SCT240 15/12 A2985 RMK CI0 SLP108=

CYVR;2006-09-08 08:00;METAR CYVR 080800Z 10004KT 30SM FEW240 13/11 A2984 RMK CI0 SLP105=

CYVR;2006-09-08 09:00;METAR CYVR 080900Z 11006KT 30SM FEW240 13/11 A2984 RMK CI0 SLP104=

CYVR;2006-09-08 10:00;METAR CYVR 081000Z 13006KT 30SM SCT240 14/11 A2983 RMK CI2 SLP102=

CYVR;2006-09-08 11:00;METAR CYVR 081100Z 12005KT 30SM SCT240 12/10 A2983 RMK CI2 SLP103=

CYVR;2006-09-08 13:00;METAR CYVR 081300Z 12007KT 30SM FEW240 12/10 A2984 RMK CI0 SLP104=

CYVR;2006-09-08 14:00;METAR CYVR 081400Z 12007KT 30SM FEW240 11/09 A2984 RMK CI0 SLP105=

CYVR;2006-09-08 15:00;METAR CYVR 081500Z 11010KT 30SM FEW240 13/10 A2984 RMK CI0 SLP105=

CYVR;2006-09-08 15:57;SPECI CYVR 081557Z 11010KT 30SM BKN006 13/ RMK SC7=

CYVR;2006-09-08 16:00;METAR CYVR 081600Z 11009KT 30SM BKN006 13/11 A2984 RMK SC7 SLP106=

CYVR;2006-09-08 16:33;SPECI CYVR 081633Z 11009KT 30SM SCT006 BKN040 13/ RMK SC4SC2=

CYVR;2006-09-08 16:56;SPECI CYVR 081656Z 13009KT 30SM BKN009 BKN040 14/ RMK SC5SC2=

CYVR;2006-09-08 17:00;METAR CYVR 081700Z 13012KT 30SM OVC010 14/11 A2984 RMK SC7 SLP106=

CYVR;2006-09-08 18:00;METAR CYVR 081800Z 14014KT 30SM FEW010 FEW240 15/11 A2984 RMK SC0CI0 SLP104=

CYVR;2006-09-08 19:00;METAR CYVR 081900Z 15009KT 30SM FEW040 FEW240 17/12 A2983 RMK CF0CI0 SLP100=

CYVR;2006-09-08 20:00;METAR CYVR 082000Z 14005KT 30SM FEW040 FEW240 18/11 A2982 RMK CF1CI0 TR CF SLP097=

CYVR;2006-09-08 21:00;METAR CYVR 082100Z 15004KT 30SM FEW040 SCT240 19/12 A2980 RMK CF1CC1 TR CF SLP092=

CYVR;2006-09-08 22:00;METAR CYVR 082200Z 20008KT 30SM FEW045 FEW180 FEW240 20/12 A2979 RMK CF1AC0CI0 TR CF SLP088=

CYVR;2006-09-08 23:00;METAR CYVR 082300Z 17005KT 30SM FEW045 FEW240 21/12 A2978 RMK CF1CI0 TR CF SLP084=

CYVR;2006-09-09 00:00;METAR CYVR 090000Z 22009G15KT 30SM FEW240 20/12 A2978 RMK CI1 SLP083=

CYVR;2006-09-09 01:00;METAR CYVR 090100Z 22007KT 30SM FEW240 19/12 A2978 RMK CI1 SLP083=

CYVR;2006-09-09 02:00;METAR CYVR 090200Z 24004KT 20SM SCT240 17/12 A2979 RMK CI2 SLP087=

CYVR;2006-09-09 03:00;METAR CYVR 090300Z 28002KT 20SM SCT150 BKN240 15/12 A2978 RMK AC2CI2 FU SLP085=

CYVR;2006-09-09 04:00;METAR CYVR 090400Z 00000KT 20SM FEW150 BKN250 15/13 A2979 RMK AC2CI5 FU SLP089=

CYVR;2006-09-09 05:00;METAR CYVR 090500Z 23003KT 15SM FEW150 OVC240 16/14 A2980 RMK AC2CS6 SLP093=

CYVR;2006-09-09 06:00;METAR CYVR 090600Z 30005KT 15SM FEW013 SCT150 OVC240 16/14 A2981 RMK SF2AC2CS3 SLP094=

CYVR;2006-09-09 07:00;METAR CYVR 090700Z 31009KT 15SM SCT011 BKN100 OVC240 16/14 A2982 RMK SF2AS2CS2 SLP098=

CYVR;2006-09-09 08:00;METAR CYVR 090800Z 32008KT 15SM FEW010 BKN100 OVC230 16/14 A2982 RMK SF2AS2CS2 SLP099=

CYVR;2006-09-09 08:10;SPECI CYVR 090810Z 31005KT 15SM -SHRA FEW010 BKN062 OVC100 16/ RMK SF2SC3AC2=

CYVR;2006-09-09 09:00;METAR CYVR 090900Z 28007KT 15SM -SHRA FEW010 BKN065 OVC100 16/14 A2984 RMK SF2SC4AS2 SLP105=

CYVR;2006-09-09 09:24;SPECI CYVR 090924Z 29008KT 15SM -RA SCT009 BKN065 OVC094 16/ RMK SF2SC4AS2=

CYVR;2006-09-09 10:00;METAR CYVR 091000Z 30005KT 15SM -RA SCT009 BKN069 OVC094 16/15 A2985 RMK SF2AC4AS2 PCPN VRY LGT SLP109=

CYVR;2006-09-09 10:19;SPECI CYVR 091019Z 32002KT 15SM -RA SCT009 BKN017 OVC069 16/ RMK SF4SF2AC2=

CYVR;2006-09-09 10:42;SPECI CYVR 091042Z 04002KT 10SM -RA BKN008 OVC015 16/ RMK SF6SF2=

CYVR;2006-09-09 11:00;METAR CYVR 091100Z 16004KT 10SM -RA BKN008 OVC015 16/14 A2986 RMK SF5SF3 SLP111=

CYVR;2006-09-09 11:20;SPECI CYVR 091120Z 04007KT 10SM -RA SCT010 OVC070 15/ RMK SF4AC4=

CYVR;2006-09-09 12:00;METAR CYVR 091200Z 14006KT 8SM -RA BKN009 BKN072 OVC087 15/14 A2987 RMK SF4AC3AC1 SLP116=

CYVR;2006-09-09 13:00;METAR CYVR 091300Z 19003KT 10SM -RA FEW005 BKN078 OVC100 15/14 A2987 RMK SF2AS5AC2 SLP115=

CYVR;2006-09-09 14:00;METAR CYVR 091400Z 19005KT 10SM -RA FEW005 SCT020 BKN040 OVC078 14/13 A2988 RMK SF2SF2ST2AC2 SLP120=

CYVR;2006-09-09 14:31;SPECI CYVR 091431Z 16007KT 10SM FEW005 FEW020 BKN049 OVC081 14/ RMK SF1SF2ST4AC2 PCPN N=

CYVR;2006-09-09 15:00;METAR CYVR 091500Z 17008KT 15SM FEW005 FEW020 SCT050 OVC082 14/13 A2989 RMK SF1SC2SC2AC4 SLP123=

CYVR;2006-09-09 15:29;SPECI CYVR 091529Z 15006KT 15SM -SHRA FEW005 SCT019 BKN024 OVC050 14/ RMK SF1SC2SC2SC2 PCPN VRY LGT=

CYVR;2006-09-09 16:00;METAR CYVR 091600Z 14005KT 15SM -SHRA FEW005 BKN017 OVC025 14/13 A2991 RMK SF1SC5SC2 SLP128=

CYVR;2006-09-09 17:00;METAR CYVR 091700Z 13008KT 15SM -SHRA FEW007 BKN019 OVC025 15/13 A2993 RMK SF2SC4SC2 SLP134=

CYVR;2006-09-09 17:45;SPECI CYVR 091745Z 12007KT 15SM FEW010 BKN020 OVC025 15/ RMK CF1SC6SC2=

CYVR;2006-09-09 18:00;METAR CYVR 091800Z 12009KT 15SM FEW012 OVC020 15/13 A2994 RMK SC2SC6 SLP139=

CYVR;2006-09-09 18:27;SPECI CYVR 091827Z 12008KT 15SM BKN011 OVC020 15/ RMK SC5SC3=

CYVR;2006-09-09 19:00;METAR CYVR 091900Z 13007KT 15SM FEW011 BKN015 OVC020 15/13 A2995 RMK SC2SC2SC3 SLP142=

CYVR;2006-09-09 19:50;SPECI CYVR 091950Z 14005KT 15SM BKN011 OVC020 16/ RMK SC5SC3=

CYVR;2006-09-09 20:00;METAR CYVR 092000Z 17005KT 15SM SCT011 BKN018 OVC040 16/13 A2996 RMK SC4SC2SC2 SLP146=

CYVR;2006-09-09 21:00;METAR CYVR 092100Z 13004KT 20SM FEW011 BKN017 OVC021 17/14 A2997 RMK SC2SC3SC2 VIS N QUAD 12 SM SLP150=

CYVR;2006-09-09 22:00;METAR CYVR 092200Z 09005KT 20SM FEW011 BKN017 OVC025 17/14 A2998 RMK SC2SC3SC2 SLP153=

CYVR;2006-09-09 23:00;METAR CYVR 092300Z 20007KT 20SM FEW012 SCT020 BKN040 OVC060 18/14 A3000 RMK SC1SC2SC3SC2 SLP158=

CYVR;2006-09-10 00:00;METAR CYVR 100000Z 17008KT 20SM FEW015 SCT023 BKN035 OVC061 17/13 A3001 RMK SC1SC2SC1SC3 SLP161=

CYVR;2006-09-10 01:00;METAR CYVR 100100Z 09005KT 20SM FEW015 BKN029 OVC060 17/13 A3002 RMK SC2SC4SC2 SLP165=

CYVR;2006-09-10 02:00;METAR CYVR 100200Z 11008KT 20SM FEW015 BKN030 BKN065 17/13 A3002 RMK SC2SC3SC2 SLP166=

CYVR;2006-09-10 03:00;METAR CYVR 100300Z 11006KT 20SM SCT037 BKN046 16/12 A3003 RMK SC4SC2 SLP170=

CYVR;2006-09-10 04:00;METAR CYVR 100400Z 11006KT 20SM FEW035 SCT065 BKN085 16/11 A3004 RMK SC2SC2AC3 SLP173=

CYVR;2006-09-10 05:00;METAR CYVR 100500Z 09007KT 20SM FEW035 BKN065 BKN082 15/13 A3006 RMK SC2SC4AC2 SLP178=

CYVR;2006-09-10 06:00;METAR CYVR 100600Z 10009KT 20SM FEW062 BKN083 14/10 A3006 RMK SC2AC2 SLP181=

CYVR;2006-09-10 07:00;METAR CYVR 100700Z 11009KT 20SM FEW062 SCT079 13/09 A3008 RMK SC2AC2 SLP186=

CYVR;2006-09-10 08:00;METAR CYVR 100800Z 09008KT 20SM BKN230 12/10 A3008 RMK CS5 SLP186=

CYVR;2006-09-10 09:00;METAR CYVR 100900Z 11010KT 20SM FEW075 SCT230 12/09 A3009 RMK AC1CS2 SLP189=

CYVR;2006-09-10 10:00;METAR CYVR 101000Z 11008KT 20SM FEW075 SCT230 12/09 A3010 RMK AC1CS1 SLP194=

CYVR;2006-09-10 11:00;METAR CYVR 101100Z 10009KT 20SM FEW075 BKN240 11/08 A3011 RMK AC1CS2 SLP196=

CYVR;2006-09-10 12:00;METAR CYVR 101200Z 11009KT 20SM FEW060 BKN240 11/08 A3011 RMK SC1CS1 SLP195=

CYVR;2006-09-10 13:00;METAR CYVR 101300Z 11009KT 20SM FEW050 BKN240 11/09 A3011 RMK SC1CI2 SLP197=

CYVR;2006-09-10 14:00;METAR CYVR 101400Z 12008KT 20SM FEW050 BKN240 12/09 A3012 RMK SC1CI2 SLP201=

CYVR;2006-09-10 15:00;METAR CYVR 101500Z 12009KT 20SM FEW050 FEW180 BKN240 13/09 A3013 RMK SF1AC1CI2 TR SF SLP204=

CYVR;2006-09-10 16:00;METAR CYVR 101600Z 13009KT 20SM FEW050 FEW180 SCT240 15/10 A3015 RMK SC1AC1CI0 TR SC SLP209=

CYVR;2006-09-10 17:00;METAR CYVR 101700Z 12010KT 30SM FEW025 BKN180 BKN240 16/10 A3014 RMK CF1AC2CI0 TR CF SLP207=

CYVR;2006-09-10 19:00;METAR CYVR 101900Z 16009KT 30SM FEW040 FEW180 SCT240 19/10 A3015 RMK SC0AC1CI0 SLP209=

CYVR;2006-09-10 20:00;METAR CYVR 102000Z 18008KT 30SM FEW040 SCT160 BKN240 19/10 A3014 RMK SC0AC2CI0 SLP207=

CYVR;2006-09-10 21:00;METAR CYVR 102100Z 17007KT 30SM FEW045 FEW160 20/10 A3014 RMK SC0AC1 SLP205=

CYVR;2006-09-10 22:00;METAR CYVR 102200Z 21010G18KT 30SM FEW045 FEW160 FEW240 21/09 A3013 RMK CF1AC1CI0 TR CF SLP202=

CYVR;2006-09-10 23:00;METAR CYVR 102300Z 22010KT 30SM FEW045 SCT140 BKN240 21/10 A3012 RMK CF1AC1CI0 TR CF SLP199=

CYVR;2006-09-11 00:00;METAR CYVR 110000Z 23009KT 30SM FEW045 SCT140 SCT240 21/08 A3010 RMK CF1AC1CI0 TR CF SLP194=

CYVR;2006-09-11 01:00;METAR CYVR 110100Z 23006KT 30SM FEW140 BKN240 19/07 A3010 RMK AC1CI2 SLP194=

CYVR;2006-09-11 02:00;METAR CYVR 110200Z 32005KT 30SM BKN120 BKN240 17/11 A3011 RMK AC3CI1 SLP196=

CYVR;2006-09-11 03:00;METAR CYVR 110300Z 32003KT 30SM FEW100 SCT120 BKN240 16/12 A3011 RMK AC2AC2CI1 SLP197=

CYVR;2006-09-11 04:00;METAR CYVR 110400Z 32002KT 30SM FEW100 SCT130 16/12 A3011 RMK AC1AC2 SLP198=

CYVR;2006-09-11 05:00;METAR CYVR 110500Z 28007KT 30SM SCT100 BKN240 16/11 A3012 RMK AC2CI1 SLP199=

CYVR;2006-09-11 06:00;METAR CYVR 110600Z 30006KT 30SM FEW110 14/11 A3012 RMK AC1 SLP200=

CYVR;2006-09-11 07:00;METAR CYVR 110700Z 33004KT 30SM FEW100 14/12 A3012 RMK AC1 SLP200=

CYVR;2006-09-11 08:00;METAR CYVR 110800Z 04002KT 30SM FEW100 14/12 A3012 RMK AC1 SLP199=

CYVR;2006-09-11 09:00;METAR CYVR 110900Z 07002KT 30SM FEW100 14/11 A3012 RMK AC0 SLP200=

CYVR;2006-09-11 10:00;METAR CYVR 111000Z 00000KT 20SM FEW040 FEW100 12/10 A3013 RMK SC1AC0 SLP203=

CYVR;2006-09-11 11:00;METAR CYVR 111100Z 09002KT 20SM FEW040 FEW100 13/11 A3014 RMK SC1AC0 SLP207=

CYVR;2006-09-11 11:53;SPECI CYVR 111153Z 00000KT 20SM R26R/4500V6000FT/D FEW040 12/ RMK SC1=

CYVR;2006-09-11 12:00;METAR CYVR 111200Z 00000KT 20SM FEW040 12/10 A3014 RMK SC1 SLP208=

CYVR;2006-09-11 13:00;METAR CYVR 111300Z 00000KT 20SM SCT040 12/10 A3015 RMK SC2 CONTRAILS SLP211=

CYVR;2006-09-11 14:00;METAR CYVR 111400Z 10002KT 20SM SCT080 12/10 A3016 RMK AC2 SLP213=

CYVR;2006-09-11 15:00;METAR CYVR 111500Z 11002KT 30SM FEW080 FEW240 14/12 A3017 RMK AC1CI0 SLP217=

CYVR;2006-09-11 16:00;METAR CYVR 111600Z 17003KT 30SM FEW080 SCT240 17/11 A3017 RMK AC1CI0 SLP218=

CYVR;2006-09-11 17:00;METAR CYVR 111700Z 25005KT 30SM FEW080 SCT140 18/11 A3018 RMK AC0AC1 SLP221=

CYVR;2006-09-11 18:00;METAR CYVR 111800Z 26007KT 30SM FEW080 SCT140 18/13 A3019 RMK AC0AC1 SLP223=

CYVR;2006-09-11 19:00;METAR CYVR 111900Z 28007KT 30SM SCT140 BKN240 18/13 A3019 RMK AC1CI0 SLP224=

CYVR;2006-09-11 21:00;METAR CYVR 112100Z 27008KT 30SM FEW050 FEW140 FEW240 21/13 A3017 RMK CF1AC0CI0 TR CF SLP218=

CYVR;2006-09-11 23:00;METAR CYVR 112300Z 29008KT 30SM FEW050 FEW140 FEW240 20/13 A3015 RMK CF1AC1CI0 TR CF TR AC / CONTRAILS SLP210=

CYVR;2006-09-12 00:00;METAR CYVR 120000Z 27005KT 30SM FEW240 20/12 A3014 RMK CI0 SLP206=

CYVR;2006-09-12 01:00;METAR CYVR 120100Z 27005KT 30SM FEW140 FEW240 19/13 A3014 RMK AC0CI0 SLP205=

CYVR;2006-09-12 02:00;METAR CYVR 120200Z 29005KT 30SM FEW140 FEW240 18/14 A3013 RMK AC1CI0 SLP203=

CYVR;2006-09-12 03:00;METAR CYVR 120300Z 29002KT 30SM FEW140 FEW240 17/12 A3013 RMK AC1CI0 SLP202=

CYVR;2006-09-12 04:00;METAR CYVR 120400Z 27002KT 30SM FEW140 FEW240 17/13 A3014 RMK AC1CI0 SLP206=

CYVR;2006-09-12 05:00;METAR CYVR 120500Z 00000KT 30SM FEW240 16/13 A3014 RMK CI0 SLP206=

CYVR;2006-09-12 06:00;METAR CYVR 120600Z 00000KT 30SM FEW240 17/13 A3014 RMK CI0 SLP206=

CYVR;2006-09-12 07:00;METAR CYVR 120700Z 11002KT 30SM SCT240 16/13 A3014 RMK CI0 SLP208=

CYVR;2006-09-12 08:00;METAR CYVR 120800Z 00000KT 30SM SCT240 15/12 A3014 RMK CI0 SLP208=

CYVR;2006-09-12 09:00;METAR CYVR 120900Z 09002KT 30SM SCT240 14/12 A3015 RMK CI0 SLP211=

CYVR;2006-09-12 10:00;METAR CYVR 121000Z 03003KT 15SM FEW030 SCT240 14/13 A3016 RMK SF1CI0 SLP212=

CYVR;2006-09-12 11:00;METAR CYVR 121100Z 00000KT 15SM MIFG FEW030 BKN230 14/13 A3016 RMK SF1CI2 SLP212=

CYVR;2006-09-12 12:00;METAR CYVR 121200Z 11004KT 15SM FEW030 BKN250 13/12 A3016 RMK SF1CI5 SLP214=

CYVR;2006-09-12 13:00;METAR CYVR 121300Z 10005KT 15SM FEW030 BKN230 13/12 A3016 RMK SF1CS5 SLP213=

CYVR;2006-09-12 14:00;METAR CYVR 121400Z 12003KT 15SM FEW180 OVC230 14/12 A3017 RMK AC2CS5 SLP216=

CYVR;2006-09-12 15:00;METAR CYVR 121500Z 13006KT 30SM BKN200 14/12 A3017 RMK CS4 SLP215=

CYVR;2006-09-12 16:00;METAR CYVR 121600Z 10005KT 20SM FEW170 FEW200 16/12 A3017 RMK AC1CI1 SLP217=

CYVR;2006-09-12 17:00;METAR CYVR 121700Z 00000KT 20SM FEW100 FEW170 17/12 A3018 RMK AC1AC1 SLP221=

CYVR;2006-09-12 18:00;METAR CYVR 121800Z 25006KT 20SM FEW050 FEW100 19/13 A3018 RMK CU1AC1 TR CU TR AC SLP220=

CYVR;2006-09-12 19:00;METAR CYVR 121900Z 25009KT 20SM FEW050 FEW100 FEW200 19/13 A3018 RMK CU1AC1CI1 TR CU TR AC SLP219=

CYVR;2006-09-12 20:00;METAR CYVR 122000Z 27008KT 20SM FEW050 SCT200 19/14 A3017 RMK SC1CI3 SLP217=

CYVR;2006-09-12 21:00;METAR CYVR 122100Z 29008KT 20SM FEW050 FEW200 19/15 A3016 RMK SC1CI2 TR SC SLP213=

CYVR;2006-09-12 22:00;METAR CYVR 122200Z 28007KT 20SM FEW050 21/14 A3015 RMK SC1 TR SC SLP210=

CYVR;2006-09-12 23:00;METAR CYVR 122300Z 26007KT 20SM FEW050 SCT210 20/14 A3013 RMK SC1CI2 TR SC SLP203=

CYVR;2006-09-13 00:00;METAR CYVR 130000Z 25007KT 20SM FEW050 SCT210 20/14 A3012 RMK SC1CI2 SLP200=

CYVR;2006-09-13 01:00;METAR CYVR 130100Z 29006KT 20SM BKN210 20/14 A3011 RMK CI2 SLP198=

CYVR;2006-09-13 02:00;METAR CYVR 130200Z 29012KT 30SM FEW050 SCT220 19/14 A3010 RMK SC1CI2 SLP194=

CYVR;2006-09-13 03:00;METAR CYVR 130300Z 29014KT 30SM FEW050 SCT240 18/13 A3009 RMK SC1CI1 SLP191=

CYVR;2006-09-13 04:00;METAR CYVR 130400Z 28017KT 30SM FEW050 SCT240 18/12 A3009 RMK SC1CI1 SLP190=

CYVR;2006-09-13 05:00;METAR CYVR 130500Z 29021G26KT 30SM FEW050 BKN240 17/12 A3008 RMK SC1CI2 SLP187=

CYVR;2006-09-13 06:00;METAR CYVR 130600Z 30019G24KT 20SM FEW070 BKN240 17/12 A3009 RMK AC2CI3 SLP188=

CYVR;2006-09-13 07:00;METAR CYVR 130700Z 30016G22KT 20SM FEW060 BKN240 16/12 A3008 RMK SC2CI2 SLP187=

CYVR;2006-09-13 08:00;METAR CYVR 130800Z 30021G27KT 20SM FEW070 BKN240 16/11 A3007 RMK AC2CI2 SLP184=

CYVR;2006-09-13 09:00;METAR CYVR 130900Z 29022KT 20SM FEW050 SCT070 BKN220 15/11 A3007 RMK SC2AC2CI2 SLP184=

CYVR;2006-09-13 10:00;METAR CYVR 131000Z 29020G25KT 20SM SCT055 SCT220 15/11 A3007 RMK SC3CI1 SLP184=

CYVR;2006-09-13 11:00;METAR CYVR 131100Z 30018KT 20SM BKN060 BKN220 15/11 A3006 RMK SC5CI1 SLP181=

CYVR;2006-09-13 12:00;METAR CYVR 131200Z 30017G24KT 20SM FEW040 SCT060 BKN220 14/11 A3006 RMK SC1SC3CI1 SLP178=

CYVR;2006-09-13 13:00;METAR CYVR 131300Z 29019G26KT 20SM FEW040 BKN060 BKN220 14/10 A3004 RMK SC1SC4CI1 SLP173=

CYVR;2006-09-13 14:00;METAR CYVR 131400Z 29017G22KT 20SM FEW040 BKN070 14/10 A3004 RMK SC1AC6 SLP171=

CYVR;2006-09-13 15:00;METAR CYVR 131500Z 30016KT 20SM FEW030 BKN062 BKN200 14/10 A3004 RMK SC1SC6CI1 SLP174=

CYVR;2006-09-13 16:00;METAR CYVR 131600Z 29015KT 20SM FEW026 SCT064 SCT200 15/10 A3004 RMK SC1SC2CI1 SLP172=

CYVR;2006-09-13 17:00;METAR CYVR 131700Z 28017KT 20SM FEW024 BKN060 16/10 A3004 RMK SC2SC2 SLP171=

CYVR;2006-09-13 18:00;METAR CYVR 131800Z 27017KT 20SM FEW023 BKN065 BKN200 16/08 A3003 RMK SC2SC3CI1 SLP170=

CYVR;2006-09-13 19:00;METAR CYVR 131900Z 27019G24KT 20SM FEW025 SCT060 17/10 A3001 RMK SC2SC2 SLP164=

CYVR;2006-09-13 20:00;METAR CYVR 132000Z 28013KT 20SM FEW030 BKN066 17/09 A3000 RMK SC2AC4 SLP160=

CYVR;2006-09-13 21:00;METAR CYVR 132100Z 25010G15KT 20SM FEW030 BKN069 17/08 A2999 RMK SC2AC4 SLP155=

CYVR;2006-09-13 22:00;METAR CYVR 132200Z 21010G17KT 20SM FEW030 SCT066 BKN080 17/08 A2996 RMK SC2AC2AC2 SLP146=

CYVR;2006-09-13 23:00;METAR CYVR 132300Z 20009KT 20SM SCT036 BKN069 BKN090 17/08 A2994 RMK SC3AC2AC1 SLP139=

CYVR;2006-09-14 00:00;METAR CYVR 140000Z 17009KT 20SM FEW040 SCT070 BKN150 17/09 A2993 RMK SC1AC3AC2 SLP135=

CYVR;2006-09-14 01:00;METAR CYVR 140100Z 18009KT 20SM FEW038 BKN073 BKN120 15/09 A2991 RMK SC2AC4AC1 SLP127=

CYVR;2006-09-14 02:00;METAR CYVR 140200Z 18007KT 20SM FEW040 SCT055 BKN120 15/10 A2988 RMK SC2SC2AC2 TCU EMBD SLP120=

CYVR;2006-09-14 03:00;METAR CYVR 140300Z 10008KT 20SM -SHRA FEW035 BKN045 BKN060 14/10 A2986 RMK SC2SC4SC1 TCU EMBD SLP113=

CYVR;2006-09-14 03:24;SPECI CYVR 140324Z 09007KT 20SM FEW030 BKN047 BKN060 13/ RMK SC2SC4SC1 TCU EMBD=

CYVR;2006-09-14 03:44;SPECI CYVR 140344Z 05008KT 15SM -SHRA SCT025 BKN045 BKN060 13/ RMK SC3SC3SC1 TCU EMBD=

CYVR;2006-09-14 04:00;METAR CYVR 140400Z 05008KT 15SM -SHRA SCT025 BKN050 OVC070 13/11 A2987 RMK SC3SC3AC2 SLP114=

CYVR;2006-09-14 05:00;METAR CYVR 140500Z 06007KT 15SM -SHRA SCT025 BKN050 OVC071 11/10 A2987 RMK SC3SC3AC2 SLP114=

CYVR;2006-09-14 05:21;SPECI CYVR 140521Z 07008KT 15SM FEW025 SCT055 OVC140 11/ RMK SC2SC2AC4=

CYVR;2006-09-14 06:00;METAR CYVR 140600Z 08005KT 15SM FEW025 SCT050 OVC110 12/10 A2986 RMK SC2SC2AC4 SLP111=

CYVR;2006-09-14 07:00;METAR CYVR 140700Z 32004KT 20SM FEW025 SCT050 BKN110 BKN160 11/10 A2985 RMK SC2SC2AC2AC2 SLP110=

CYVR;2006-09-14 08:00;METAR CYVR 140800Z 10003KT 20SM FEW030 SCT090 BKN160 10/09 A2984 RMK SC2AC2AC2 SLP105=

CYVR;2006-09-14 09:00;METAR CYVR 140900Z 10003KT 20SM FEW030 SCT090 SCT150 11/10 A2984 RMK SC2AC2AC1 SLP105=

CYVR;2006-09-14 10:00;METAR CYVR 141000Z 11003KT 15SM SCT012 BKN040 BKN160 11/10 A2982 RMK SC4SC2AC1 SLP098=

CYVR;2006-09-14 11:00;METAR CYVR 141100Z 11006KT 15SM SCT012 BKN025 BKN040 11/10 A2981 RMK SC3SC2SC2 SLP096=

CYVR;2006-09-14 12:00;METAR CYVR 141200Z 10005KT 15SM SCT018 BKN029 BKN040 11/09 A2980 RMK SC3SC2SC2 SLP090=

CYVR;2006-09-14 13:00;METAR CYVR 141300Z 11005KT 15SM FEW015 SCT030 BKN043 11/09 A2978 RMK SC2SC2SC3 SLP085=

CYVR;2006-09-14 14:00;METAR CYVR 141400Z 12005KT 15SM FEW015 SCT023 OVC043 11/09 A2977 RMK SC2SC2SC4 SLP082=

CYVR;2006-09-14 15:00;METAR CYVR 141500Z 11005KT 15SM FEW014 SCT020 OVC039 11/09 A2976 RMK SC2SC2SC4 SLP077=

CYVR;2006-09-14 16:00;METAR CYVR 141600Z 13005KT 15SM FEW014 BKN024 OVC042 11/09 A2975 RMK SC1SC4SC3 SLP075=

CYVR;2006-09-14 17:00;METAR CYVR 141700Z 11004KT 15SM FEW012 SCT022 OVC046 12/10 A2974 RMK SC2SC2SC5 SLP072=

CYVR;2006-09-14 18:00;METAR CYVR 141800Z 11005KT 20SM FEW012 BKN022 OVC050 13/10 A2974 RMK SC2SC3SC3 SLP072=

CYVR;2006-09-14 19:00;METAR CYVR 141900Z 13005KT 20SM FEW015 SCT024 OVC054 13/10 A2974 RMK SC2SC2SC4 SLP072=

CYVR;2006-09-14 20:00;METAR CYVR 142000Z 23004KT 15SM FEW015 BKN023 BKN050 OVC100 14/10 A2974 RMK SC1SC4SC2AC1 SLP070=

CYVR;2006-09-14 21:00;METAR CYVR 142100Z 00000KT 15SM SCT018 BKN043 BKN062 OVC100 13/09 A2973 RMK SC3SC2SC2AC1 SLP069=

CYVR;2006-09-14 21:10;SPECI CYVR 142110Z 18002KT 12SM -SHRA FEW018 BKN040 BKN058 OVC100 14/ RMK SC2SC3SC2AC1=

CYVR;2006-09-14 22:00;METAR CYVR 142200Z 12009KT 12SM -SHRA FEW018 SCT039 BKN057 OVC100 14/10 A2973 RMK SC2SC2SC2AC2 SLP067=

CYVR;2006-09-14 22:52;SPECI CYVR 142252Z 11008KT 15SM FEW020 BKN055 BKN100 OVC200 14/ RMK SC2SC3AC2CI0=

CYVR;2006-09-14 23:00;METAR CYVR 142300Z 12007KT 15SM FEW020 BKN056 BKN100 OVC200 14/09 A2972 RMK SC1SC4AC2CI0 SLP064=

CYVR;2006-09-15 00:00;METAR CYVR 150000Z 12010KT 15SM FEW020 BKN058 BKN100 OVC150 13/09 A2973 RMK SC1SC6AC1AC1 SLP069=

CYVR;2006-09-15 00:43;SPECI CYVR 150043Z 13005KT 12SM -SHRA FEW016 SCT030 BKN057 OVC100 13/ RMK SC1SC2SC3AC2=

CYVR;2006-09-15 01:00;METAR CYVR 150100Z 11008KT 15SM -SHRA FEW016 BKN039 BKN065 OVC100 13/10 A2973 RMK SC1SC4SC2AC2 SLP069=

CYVR;2006-09-15 02:00;METAR CYVR 150200Z 09002KT 15SM FEW014 SCT040 BKN090 BKN140 12/10 A2974 RMK SF2SC2AC2AC1 SLP070=

CYVR;2006-09-15 03:00;METAR CYVR 150300Z 08005KT 15SM SCT015 SCT050 BKN090 BKN140 12/10 A2973 RMK SC3SC1AC2AC1 TCU EMBD SLP068=

CYVR;2006-09-15 03:21;SPECI CYVR 150321Z 05005KT 15SM -SHRA SCT014 BKN060 BKN090 12/ RMK SC3SC2AC2 TCU EMBD=

CYVR;2006-09-15 03:43;SPECI CYVR 150343Z 09003KT 15SM SCT014 BKN070 BKN090 12/ RMK SC3AC2AC2 TCU EMBD=

CYVR;2006-09-15 05:00;METAR CYVR 150500Z 05004KT 15SM FEW015 SCT070 BKN085 11/09 A2972 RMK SC2AC2AC2 SLP066=

CYVR;2006-09-15 06:00;METAR CYVR 150600Z 09002KT 15SM FEW015 BKN078 BKN090 11/10 A2973 RMK SC2AC3AC1 SLP067=

CYVR;2006-09-15 07:00;METAR CYVR 150700Z 00000KT 20SM FEW018 SCT060 BKN080 11/10 A2972 RMK SC2SC2AC2 SLP066=

CYVR;2006-09-15 08:00;METAR CYVR 150800Z 00000KT 20SM FEW018 SCT060 BKN085 11/09 A2972 RMK SC2SC2AC3 SLP066=

CYVR;2006-09-15 09:00;METAR CYVR 150900Z 09002KT 15SM FEW020 SCT050 BKN070 11/09 A2973 RMK SC2SC2AC3 SLP069=

CYVR;2006-09-15 10:00;METAR CYVR 151000Z 09003KT 15SM -SHRA FEW025 SCT050 BKN067 11/09 A2974 RMK SC2SC2AC3 SLP070=

CYVR;2006-09-15 11:00;METAR CYVR 151100Z 10003KT 15SM -SHRA FEW025 SCT050 OVC070 11/09 A2974 RMK SC2SC2AC4 SLP071=

CYVR;2006-09-15 12:00;METAR CYVR 151200Z 10002KT 15SM -SHRA FEW025 SCT050 OVC070 11/09 A2974 RMK SC2SC2AC3 SLP070=

CYVR;2006-09-15 12:43;SPECI CYVR 151243Z 10003KT 15SM FEW025 SCT050 OVC077 11/ RMK SC2SC2AC5=

CYVR;2006-09-15 13:00;METAR CYVR 151300Z 09003KT 15SM FEW025 SCT050 OVC072 11/10 A2975 RMK SC2SC2AC5 SLP074=

CYVR;2006-09-15 13:23;SPECI CYVR 151323Z 09002KT 15SM -SHRA FEW020 FEW050 OVC070 11/ RMK SC1SC2AC5=

CYVR;2006-09-15 14:00;METAR CYVR 151400Z 00000KT 15SM -SHRA FEW020 BKN063 OVC090 11/10 A2976 RMK SC1SC6AC2 PCPN VRY LGT SLP077=

CYVR;2006-09-15 15:00;METAR CYVR 151500Z 11004KT 15SM -SHRA FEW020 BKN054 BKN070 OVC120 12/10 A2977 RMK SC1SC5AC2AC1 PCPN VRY LGT SLP080=

CYVR;2006-09-15 16:00;METAR CYVR 151600Z 11003KT 15SM -SHRA FEW015 BKN061 OVC110 12/10 A2977 RMK SC2SC3AC2 SLP080=

CYVR;2006-09-15 16:30;SPECI CYVR 151630Z 17003KT 15SM SCT010 OVC066 13/ RMK SC3AC5=

CYVR;2006-09-15 17:00;METAR CYVR 151700Z 20004KT 15SM BKN015 OVC066 13/10 A2979 RMK SC6AC2 SLP087=

CYVR;2006-09-15 18:00;METAR CYVR 151800Z 23005KT 15SM BKN018 BKN064 BKN110 14/11 A2980 RMK SC5SC2AC1 SLP090=

CYVR;2006-09-15 19:00;METAR CYVR 151900Z 25008KT 15SM SCT018 BKN064 15/11 A2981 RMK SC3SC4 SLP094=

CYVR;2006-09-15 20:00;METAR CYVR 152000Z 27008KT 15SM SCT018 OVC064 14/10 A2982 RMK SC3SC5 SLP097=

CYVR;2006-09-15 21:00;METAR CYVR 152100Z 29008KT 15SM -SHRA FEW017 BKN028 BKN064 14/11 A2983 RMK SC2SC3SC2 SLP100=

CYVR;2006-09-15 22:23;SPECI CYVR 152223Z 29007KT 20SM FEW040 FEW064 BKN085 BKN200 15/ RMK SC1SC2AC3CI1=

CYVR;2006-09-15 23:00;METAR CYVR 152300Z 30005KT 20SM FEW040 FEW080 BKN220 16/09 A2983 RMK SC1AC1CI2 SLP102=

CYVR;2006-09-16 00:00;METAR CYVR 160000Z 25005KT 20SM FEW050 FEW100 SCT200 16/08 A2984 RMK SC1AC1CI2 SLP104=

CYVR;2006-09-16 01:00;METAR CYVR 160100Z 30007KT 20SM FEW050TCU FEW100 FEW200 16/07 A2985 RMK TCU1AC1CI1 SLP108=

CYVR;2006-09-16 02:00;METAR CYVR 160200Z 29004KT 30SM FEW050 FEW100 SCT220 14/07 A2986 RMK CU1AC1CI1 CB DIST SE SLP112=

CYVR;2006-09-16 03:00;METAR CYVR 160300Z 35002KT 30SM FEW050 FEW120 FEW240 12/07 A2987 RMK CU1AC1CI1 SLP116=

CYVR;2006-09-16 04:00;METAR CYVR 160400Z 00000KT 30SM FEW050 FEW110 FEW240 12/08 A2989 RMK SC1AC1CI1 SLP122=

CYVR;2006-09-16 05:00;METAR CYVR 160500Z 08004KT 30SM FEW050 FEW120 FEW240 11/08 A2990 RMK SC1AC1CI1 SLP126=

CYVR;2006-09-16 06:00;METAR CYVR 160600Z 10003KT 30SM FEW040 SCT085 SCT240 13/08 A2992 RMK SC1AC2CI1 SLP132=

CYVR;2006-09-16 07:00;METAR CYVR 160700Z 08005KT 20SM FEW040 SCT080 BKN240 11/08 A2994 RMK SC1AC3CI1 SLP139=

CYVR;2006-09-16 08:00;METAR CYVR 160800Z 09005KT 20SM FEW040 SCT085 SCT220 10/08 A2996 RMK SC1AC2CI1 SLP147=

CYVR;2006-09-16 09:00;METAR CYVR 160900Z 11006KT 20SM FEW040 SCT080 10/08 A2998 RMK SC1AC3 SLP151=

CYVR;2006-09-16 10:00;METAR CYVR 161000Z 11009KT 20SM FEW040 SCT080 10/09 A2999 RMK SC1AC2 SLP157=

CYVR;2006-09-16 11:00;METAR CYVR 161100Z 10008KT 20SM FEW025 BKN070 10/08 A3001 RMK SC1AC4 SLP162=

CYVR;2006-09-16 12:00;METAR CYVR 161200Z 09008KT 20SM FEW025 BKN070 BKN090 10/08 A3002 RMK SC1AC4AC1 SLP167=

CYVR;2006-09-16 13:00;METAR CYVR 161300Z 10008KT 20SM FEW025 SCT070 BKN100 10/08 A3005 RMK SC1AC3AC2 SLP175=

CYVR;2006-09-16 14:00;METAR CYVR 161400Z 10008KT 20SM BKN074 BKN110 10/07 A3006 RMK AC6AC2 SLP181=

CYVR;2006-09-16 15:00;METAR CYVR 161500Z 11007KT 20SM SCT074 BKN110 10/07 A3009 RMK AC4AC1 SLP188=

CYVR;2006-09-16 16:00;METAR CYVR 161600Z 13012KT 20SM FEW070 BKN098 13/07 A3010 RMK AC2AC4 SLP193=

CYVR;2006-09-16 17:00;METAR CYVR 161700Z 11009KT 20SM BKN098 14/08 A3012 RMK AC5 SLP199=

CYVR;2006-09-16 18:00;METAR CYVR 161800Z 14011KT 20SM FEW020 FEW100 15/08 A3014 RMK CU2AC1 TCU TOPS N AND W SLP205=

CYVR;2006-09-16 19:00;METAR CYVR 161900Z 16009KT 20SM FEW023 FEW040TCU FEW210 16/09 A3014 RMK CU1TCU1CI1 SLP207=

CYVR;2006-09-16 20:00;METAR CYVR 162000Z 16011KT 20SM FEW023 FEW040TCU SCT210 17/09 A3014 RMK CU1TCU1CI1 SLP208=

CYVR;2006-09-16 21:00;METAR CYVR 162100Z 15009KT 20SM FEW025 FEW040TCU SCT210 17/04 A3014 RMK CU1TCU1CI2 SLP207=

CYVR;2006-09-16 22:00;METAR CYVR 162200Z 21010KT 20SM FEW040TCU SCT210 17/09 A3014 RMK TCU1CI1 SLP208=

CYVR;2006-09-16 23:00;METAR CYVR 162300Z 19008KT 20SM FEW040TCU FEW210 18/08 A3015 RMK TCU1CI0 SLP209=

CYVR;2006-09-17 00:00;METAR CYVR 170000Z 21009KT 20SM FEW040TCU FEW210 18/07 A3015 RMK TCU1CI0 SLP210=

CYVR;2006-09-17 01:00;METAR CYVR 170100Z 17009KT 20SM FEW040TCU FEW210 17/07 A3016 RMK TCU1CI0 SLP212=

CYVR;2006-09-17 02:00;METAR CYVR 170200Z 15006KT 30SM FEW040TCU FEW210 17/07 A3017 RMK TCU1CI0 SLP215=

CYVR;2006-09-17 03:00;METAR CYVR 170300Z 10008KT 20SM FEW040 FEW210 13/08 A3017 RMK CU1CI0 TCU TOPS W SLP217=

CYVR;2006-09-17 04:00;METAR CYVR 170400Z 09006KT 20SM FEW210 12/08 A3019 RMK CI0 SLP223=

CYVR;2006-09-17 05:00;METAR CYVR 170500Z 09007KT 20SM FEW070 SCT170 13/08 A3019 RMK AC2AC1 SLP223=

CYVR;2006-09-17 06:00;METAR CYVR 170600Z 08006KT 20SM FEW050 SCT072 SCT160 BKN210 12/09 A3019 RMK SF2AC1AC1CI1 SLP225=

CYVR;2006-09-17 07:00;METAR CYVR 170700Z 10007KT 20SM SCT120 BKN210 12/08 A3019 RMK AC2CI1 SLP224=

CYVR;2006-09-17 08:00;METAR CYVR 170800Z 12007KT 20SM FEW050 SCT110 BKN220 11/09 A3019 RMK SF2AC2CS2 SLP225=

CYVR;2006-09-17 09:00;METAR CYVR 170900Z 09007KT 20SM SCT040 BKN070 OVC210 12/08 A3020 RMK SF2AC2CS4 SLP226=

CYVR;2006-09-17 10:00;METAR CYVR 171000Z 09007KT 20SM FEW060 SCT100 BKN110 BKN210 12/08 A3019 RMK SF1AC2AC2CI1 SLP222=

CYVR;2006-09-17 11:00;METAR CYVR 171100Z 11007KT 20SM FEW060 BKN100 OVC130 12/08 A3018 RMK SF1AC4AC3 SLP220=

CYVR;2006-09-17 11:30;SPECI CYVR 171130Z 10007KT 15SM -SHRA SCT085 BKN120 OVC140 12/ RMK AC2AC5AC2 PCPN VRY LGT=

CYVR;2006-09-17 12:00;METAR CYVR 171200Z 09008KT 15SM FEW030 BKN100 OVC140 12/08 A3017 RMK SF1AC6AC2 SLP216=

CYVR;2006-09-17 13:00;METAR CYVR 171300Z 11007KT 20SM FEW035 BKN080 BKN100 12/08 A3017 RMK SF2AC4AC2 SLP216=

CYVR;2006-09-17 14:00;METAR CYVR 171400Z 11007KT 20SM FEW035 BKN075 12/08 A3016 RMK SF1AS6 SLP213=

CYVR;2006-09-17 15:00;METAR CYVR 171500Z 10009KT 30SM -SHRA FEW037 BKN045 OVC075 13/08 A3017 RMK SC2SC3AC3 PCPN VRY LGT SLP215=

CYVR;2006-09-17 16:00;METAR CYVR 171600Z 10008KT 15SM -RA SCT045 OVC070 13/09 A3016 RMK SC3AC5 SLP213=

CYVR;2006-09-17 17:00;METAR CYVR 171700Z 11010KT 15SM -RA FEW045 OVC060 13/10 A3016 RMK SC2SC6 SLP214=

CYVR;2006-09-17 18:00;METAR CYVR 171800Z 09009KT 15SM -RA FEW045 BKN051 OVC060 14/11 A3017 RMK SC2SC5SC2 SLP215=

CYVR;2006-09-17 19:00;METAR CYVR 171900Z 08009KT 15SM -RA BKN040 OVC051 14/10 A3016 RMK SC6SC2 SLP212=

CYVR;2006-09-17 20:00;METAR CYVR 172000Z 08010G19KT 12SM -RA BKN037 OVC045 14/09 A3014 RMK SC6SC2 SLP206=

CYVR;2006-09-17 21:00;METAR CYVR 172100Z 07015KT 15SM -RA FEW035 BKN048 OVC055 13/11 A3012 RMK SC2SC5SC2 SLP200=

CYVR;2006-09-17 22:00;METAR CYVR 172200Z 08011KT 15SM -RA FEW040 BKN049 OVC055 14/10 A3011 RMK SC2SC5SC2 SLP195=

CYVR;2006-09-17 23:00;METAR CYVR 172300Z 07011KT 15SM -SHRA BKN033 BKN045 OVC060 15/10 A3010 RMK SC5SC2SC2 SLP193=

CYVR;2006-09-18 00:00;METAR CYVR 180000Z 07011KT 15SM -SHRA BKN037 OVC060 14/10 A3007 RMK SC6SC2 SLP182=

CYVR;2006-09-18 01:00;METAR CYVR 180100Z 08009KT 15SM -SHRA SCT038 OVC052 14/11 A3006 RMK SC3SC5 SLP178=

CYVR;2006-09-18 01:17;SPECI CYVR 180117Z 08008KT 15SM SCT037 SCT045 OVC061 14/ RMK SC3SC1SC4=

CYVR;2006-09-18 02:00;METAR CYVR 180200Z 06010KT 15SM FEW038 SCT060 OVC100 14/10 A3003 RMK SC2SC2AC4 SLP170=

CYVR;2006-09-18 03:00;METAR CYVR 180300Z CCA 08010KT 15SM BKN039 BKN060 OVC100 14/10 A3000 RMK SC5SC2AC1 SLP160=

CYVR;2006-09-18 04:00;METAR CYVR 180400Z 10008KT 15SM -SHRA BKN044 OVC083 14/11 A2999 RMK SC6AC2 SLP156=

CYVR;2006-09-18 05:00;METAR CYVR 180500Z 09010KT 15SM -SHRA SCT044 OVC074 14/12 A2996 RMK SC4AC4 PCPN VRY LGT SLP146=

CYVR;2006-09-18 05:22;SPECI CYVR 180522Z 08009KT 15SM FEW044 OVC072 14/ RMK SC2AC6=

CYVR;2006-09-18 06:00;METAR CYVR 180600Z 06006KT 15SM SCT042 OVC068 14/12 A2996 RMK SF2AS6 SLP144=

CYVR;2006-09-18 06:19;SPECI CYVR 180619Z 13005KT 15SM -SHRA FEW037 BKN054 OVC068 15/ RMK SF2ST4AS2=

CYVR;2006-09-18 07:00;METAR CYVR 180700Z 05004KT 10SM -SHRA BKN044 OVC065 14/12 A2996 RMK ST6ST2 SLP147=

CYVR;2006-09-18 07:55;SPECI CYVR 180755Z 09008KT 7SM -RA OVC036 13/ RMK ST8=

CYVR;2006-09-18 08:00;METAR CYVR 180800Z 09009KT 7SM -RA OVC032 13/12 A2997 RMK ST8 SLP150=

CYVR;2006-09-18 09:00;METAR CYVR 180900Z 09012KT 10SM SCT036 BKN051 OVC074 13/12 A2996 RMK SF2ST3AS2 SLP145=

CYVR;2006-09-18 10:00;METAR CYVR 181000Z 09012KT 10SM BKN031 BKN051 OVC074 13/12 A2995 RMK SF4ST2AC2 SLP143=

CYVR;2006-09-18 11:00;METAR CYVR 181100Z 09012KT 12SM FEW011 FEW030 SCT048 BKN065 13/12 A2995 RMK SF1ST1ST2ST1 SLP141=

CYVR;2006-09-18 12:00;METAR CYVR 181200Z 11010KT 12SM SCT033 BKN079 13/12 A2995 RMK SF3AS2 SLP142=

CYVR;2006-09-18 13:00;METAR CYVR 181300Z 10007KT 15SM FEW010 SCT016 BKN024 OVC066 13/12 A2995 RMK SF2SF2ST2AS2 SLP143=

CYVR;2006-09-18 14:00;METAR CYVR 181400Z 11007KT 15SM FEW010 SCT013 BKN026 OVC063 13/12 A2995 RMK SF1SC2SC2SC2 SLP141=

CYVR;2006-09-18 14:32;SPECI CYVR 181432Z 13009KT 15SM SCT006 BKN015 OVC073 13/ RMK SC3SC2AC2=

CYVR;2006-09-18 14:36;SPECI CYVR 181436Z 13009KT 15SM SCT003 BKN006 BKN015 OVC073 13/ RMK SC3SC2SC1AC1=

CYVR;2006-09-18 14:52;SPECI CYVR 181452Z 13009KT 15SM FEW006 SCT013 SCT030TCU 13/ RMK SF2SC1TCU1=

CYVR;2006-09-18 15:00;METAR CYVR 181500Z 13008KT 15SM FEW006 BKN014 13/12 A2993 RMK SF1SC2 SLP137=

CYVR;2006-09-18 15:10;SPECI CYVR 181510Z 13009KT 15SM SCT006 OVC014 13/ RMK SC3SC4=

CYVR;2006-09-18 15:22;SPECI CYVR 181522Z 12006KT 15SM FEW005 BKN008 OVC014 14/ RMK SF2SC3SC2=

CYVR;2006-09-18 16:00;METAR CYVR 181600Z 15005KT 15SM OVC007 14/13 A2993 RMK SC8 SLP135=

CYVR;2006-09-18 17:00;METAR CYVR 181700Z 15005KT 15SM OVC007 14/13 A2993 RMK SC8 SLP134=

CYVR;2006-09-18 18:00;METAR CYVR 181800Z 12006KT 15SM BKN007 OVC010 14/13 A2993 RMK SC6SC2 SLP134=

CYVR;2006-09-18 18:36;SPECI CYVR 181836Z 11005KT 15SM SCT007 OVC010 15/ RMK SC4SC4=

CYVR;2006-09-18 19:00;METAR CYVR 181900Z 12007KT 15SM BKN012 BKN073 16/13 A2992 RMK SC5AC0 SLP133=

CYVR;2006-09-18 20:00;METAR CYVR 182000Z 16008KT 15SM SCT013 BKN075 17/13 A2992 RMK CU3AC0 SLP132=

CYVR;2006-09-18 21:00;METAR CYVR 182100Z 17006KT 15SM BKN024 BKN120 18/12 A2993 RMK SC5AC2 SLP134=

CYVR;2006-09-18 22:00;METAR CYVR 182200Z 18003KT 15SM FEW020 SCT028 BKN095 18/11 A2992 RMK CU2SC2AC2 SLP132=

CYVR;2006-09-18 22:34;SPECI CYVR 182234Z 16005KT 15SM -SHRA FEW025 OVC086 17/ RMK SF2AC5 PCPN VRY LGT=

CYVR;2006-09-18 23:00;METAR CYVR 182300Z 15005KT 15SM -SHRA FEW025 BKN066 OVC073 17/13 A2992 RMK SC2AC3AC2 SLP132=

CYVR;2006-09-19 00:00;METAR CYVR 190000Z 11005KT 15SM -SHRA FEW025 BKN071 OVC110 16/13 A2991 RMK SC2AC2AC3 SLP130=

CYVR;2006-09-19 01:00;METAR CYVR 190100Z 13006KT 15SM -SHRA FEW025 BKN070 OVC084 15/13 A2992 RMK SC2AC2AC3 SLP132=

CYVR;2006-09-19 02:00;METAR CYVR 190200Z 08007KT 15SM -SHRA FEW025 BKN067 OVC082 15/13 A2991 RMK SC2AC4AC2 PCPN VRY LGT SLP129=

CYVR;2006-09-19 03:00;METAR CYVR 190300Z 06009KT 12SM -SHRA FEW025 BKN064 OVC075 14/12 A2991 RMK SC2SC5AC2 SLP130=

CYVR;2006-09-19 04:00;METAR CYVR 190400Z 07008KT 10SM -RA FEW016 SCT032 OVC071 14/13 A2992 RMK SF2SC2AC4 SLP133=

CYVR;2006-09-19 04:36;SPECI CYVR 190436Z 07009KT 15SM FEW016 FEW032 BKN060 OVC140 13/ RMK SF1SF2SC3AC2=

CYVR;2006-09-19 05:00;METAR CYVR 190500Z 08005KT 15SM FEW016 SCT061 OVC100 13/11 A2993 RMK SF1SC3AC4 SLP135=

CYVR;2006-09-19 06:00;METAR CYVR 190600Z 09009KT 15SM FEW017 SCT060 BKN090 OVC110 13/11 A2993 RMK SF1SC2AC2AS4 SLP136=

CYVR;2006-09-19 07:00;METAR CYVR 190700Z 11010KT 15SM FEW018 SCT043 BKN065 OVC100 12/11 A2994 RMK SF1SC2SC2AC2 SLP140=

CYVR;2006-09-19 08:00;METAR CYVR 190800Z 11009KT 15SM FEW018 BKN040 OVC072 12/11 A2995 RMK SF1ST6AS1 SLP142=

CYVR;2006-09-19 08:12;SPECI CYVR 190812Z 11010KT 15SM -SHRA FEW018 FEW035 BKN044 OVC080 12/ RMK SF1SF2ST4AS2=

CYVR;2006-09-19 08:49;SPECI CYVR 190849Z 11006KT 15SM FEW018 SCT046 BKN075 OVC210 12/ RMK SF1SF2AS4CI1=

CYVR;2006-09-19 09:00;METAR CYVR 190900Z 09006KT 15SM FEW018 BKN050 OVC078 12/11 A2995 RMK SF1SC4AS3 SLP142=

CYVR;2006-09-19 10:00;METAR CYVR 191000Z 08003KT 15SM FEW025 BKN048 OVC080 12/10 A2996 RMK SF2SC2AC4 SLP146=

CYVR;2006-09-19 10:16;SPECI CYVR 191016Z 04003KT 15SM -SHRA SCT028 BKN045 OVC081 12/ RMK SF4SC2AS2=

CYVR;2006-09-19 11:00;METAR CYVR 191100Z 04003KT 12SM -SHRA FEW025 BKN037 OVC047 12/10 A2998 RMK SF2SC4SC2 SLP151=

CYVR;2006-09-19 12:00;METAR CYVR 191200Z 00000KT 12SM -SHRA SCT030 OVC070 12/10 A2999 RMK ST4AS4 PCPN VRY LGT SLP155=

CYVR;2006-09-19 13:00;METAR CYVR 191300Z 32002KT 15SM -SHRA FEW039 BKN072 BKN092 12/11 A3000 RMK SF2AS2AS2 PCPN VRY LGT SLP159=

CYVR;2006-09-19 13:47;SPECI CYVR 191347Z 30007KT 15SM FEW021 BKN042 BKN071 12/ RMK SF0SC5AC1=

CYVR;2006-09-19 14:00;METAR CYVR 191400Z 29007KT 15SM FEW021 BKN042 BKN100 12/11 A3002 RMK SF1SC4AS1 SLP166=

CYVR;2006-09-19 14:41;SPECI CYVR 191441Z 30010KT 15SM BKN013 OVC042 13/ RMK SC6SC2=

CYVR;2006-09-19 15:00;METAR CYVR 191500Z 31009KT 15SM SCT013 BKN018 OVC040 13/12 A3004 RMK SC4SC2SC2 SLP171=

CYVR;2006-09-19 16:00;METAR CYVR 191600Z 31010KT 20SM FEW007 SCT015 SCT040 14/12 A3004 RMK CF2SC1SC0 SLP171=

CYVR;2006-09-19 17:00;METAR CYVR 191700Z 32008KT 20SM SCT010 BKN040 14/12 A3004 RMK CU2SC1 TCU ASOCT SLP174=

CYVR;2006-09-19 17:51;SPECI CYVR 191751Z 30010KT 20SM BKN010 BKN025 14/ RMK SC6SC2=

CYVR;2006-09-19 18:00;METAR CYVR 191800Z 30011KT 20SM BKN012 BKN025 14/12 A3006 RMK SC6SC2 SLP180=

CYVR;2006-09-19 19:00;METAR CYVR 191900Z 29010KT 20SM BKN015 15/12 A3007 RMK SC5 SLP182=

CYVR;2006-09-19 20:00;METAR CYVR 192000Z 29011KT 20SM FEW010 BKN014 BKN030 16/13 A3006 RMK CF1SC3SC1 TR CF SLP181=

CYVR;2006-09-19 21:00;METAR CYVR 192100Z 29013KT 20SM FEW010 FEW020 16/12 A3007 RMK CF1SC1 SLP183=

CYVR;2006-09-19 22:00;METAR CYVR 192200Z 29012KT 20SM FEW010 FEW025 FEW220 17/12 A3008 RMK CF1SC2CI0 TR CF/ TCU ASOCT SLP186=

CYVR;2006-09-19 23:00;METAR CYVR 192300Z 29010KT 20SM FEW020 FEW030 FEW220 16/11 A3008 RMK CU1SC1CI0 SLP186=

CYVR;2006-09-20 00:00;METAR CYVR 200000Z 32006KT 20SM FEW040 SCT220 16/10 A3008 RMK SC1CI1 SLP185=

CYVR;2006-09-20 01:00;METAR CYVR 200100Z 23005KT 20SM FEW040 FEW120 BKN220 15/10 A3009 RMK SF1AC1CI1 SLP189=

CYVR;2006-09-20 02:00;METAR CYVR 200200Z 22004KT 20SM FEW040 FEW120 BKN240 15/09 A3009 RMK SF1AC1CS3 TR SF SLP190=

CYVR;2006-09-20 03:00;METAR CYVR 200300Z 14003KT 20SM FEW040 FEW120 SCT220 14/10 A3010 RMK SF1AC1CS1 SLP193=

CYVR;2006-09-20 04:00;METAR CYVR 200400Z 11006KT 20SM FEW040 SCT120 BKN250 13/10 A3010 RMK SF1AC1CS2 SLP193=

CYVR;2006-09-20 05:00;METAR CYVR 200500Z 10006KT 20SM FEW078 FEW220 12/10 A3011 RMK AC0CS1 SLP196=

CYVR;2006-09-20 06:00;METAR CYVR 200600Z 10008KT 15SM FEW078 BKN200 12/11 A3012 RMK AC1CS5 SLP199=

CYVR;2006-09-20 07:00;METAR CYVR 200700Z 11008KT 15SM FEW068 BKN200 12/10 A3012 RMK AC1CS5 SLP200=

CYVR;2006-09-20 08:00;METAR CYVR 200800Z 12008KT 15SM FEW069 SCT150 OVC200 12/10 A3013 RMK AC1AS2CS3 SLP202=

CYVR;2006-09-20 09:00;METAR CYVR 200900Z 12011KT 15SM FEW067 SCT140 BKN180 12/10 A3012 RMK AC1AS2AS2 SLP201=

CYVR;2006-09-20 10:00;METAR CYVR 201000Z 11011KT 12SM BKN010 OVC140 12/10 A3011 RMK SF4AS3 SLP197=

CYVR;2006-09-20 10:39;SPECI CYVR 201039Z 10010KT 12SM BKN011 BKN060 OVC120 12/ RMK SF5ST2AS1=

CYVR;2006-09-20 11:00;METAR CYVR 201100Z 11011KT 12SM BKN011 BKN059 OVC110 12/10 A3011 RMK SF5ST2AS1 SLP198=

CYVR;2006-09-20 11:14;SPECI CYVR 201114Z 10011KT 12SM SCT011 BKN065 OVC110 12/ RMK SF3ST2AS2=

CYVR;2006-09-20 12:00;METAR CYVR 201200Z 10010KT 12SM SCT011 BKN059 OVC076 12/10 A3010 RMK SF2ST3AS2 SLP193=

CYVR;2006-09-20 12:36;SPECI CYVR 201236Z 10011KT 12SM -SHRA FEW011 BKN072 OVC100 12/ RMK SF2AS6AS1 PCPN VRY LGT=

CYVR;2006-09-20 13:00;METAR CYVR 201300Z 10010KT 12SM -SHRA FEW011 SCT078 OVC093 12/10 A3009 RMK SF1AS2AS5 PCPN VRY LGT SLP191=

CYVR;2006-09-20 14:00;METAR CYVR 201400Z 10009KT 12SM -RA FEW010 BKN075 OVC100 12/10 A3008 RMK SF2AC5AC2 SLP187=

CYVR;2006-09-20 15:00;METAR CYVR 201500Z 11008KT 8SM -RA FEW012 SCT029 BKN040 OVC070 12/11 A3007 RMK SF1SC3SC2AC2 SLP183=

CYVR;2006-09-20 16:00;METAR CYVR 201600Z 20006KT 8SM -RA SCT013 BKN035 OVC050 12/11 A3006 RMK SC3SC3SC2 SLP179=

CYVR;2006-09-20 17:00;METAR CYVR 201700Z 17007KT 8SM -RA FEW012 BKN040 OVC058 12/11 A3006 RMK SC2SC2SC3 SLP178=

CYVR;2006-09-20 18:00;METAR CYVR 201800Z 15011KT 6SM -RA FEW010 BKN033 BKN055 OVC075 12/11 A3003 RMK SC2SC3SC2AC1 SLP169=

CYVR;2006-09-20 18:15;SPECI CYVR 201815Z 15010KT 6SM RA SCT008 BKN029 OVC055 12/ RMK SC4SC2SC2=

CYVR;2006-09-20 19:00;METAR CYVR 201900Z 14011KT 8SM -RA SCT007 BKN042 OVC050 12/11 A3001 RMK SC4SC3SC1 SLP163=

CYVR;2006-09-20 19:38;SPECI CYVR 201938Z 13014KT 5SM -RA BR BKN008 BKN035 OVC050 12/ RMK SC6SC2SC1=

CYVR;2006-09-20 20:00;METAR CYVR 202000Z 14012G17KT 4SM -RA BR BKN006 BKN030 OVC050 12/11 A3000 RMK SC6SC2SC1 SLP159=

CYVR;2006-09-20 20:46;SPECI CYVR 202046Z 13015G20KT 2SM RA BR BKN006 BKN015 OVC035 12/ RMK SC6SC2SC1=

CYVR;2006-09-20 21:00;METAR CYVR 202100Z 14014G19KT 1 1/2SM RA BR BKN007 BKN018 OVC030 12/11 A2998 RMK SC6SC2SC1 SLP154=

CYVR;2006-09-20 22:00;METAR CYVR 202200Z 13015KT 2SM -RA BR SCT008 BKN019 OVC040 12/11 A2997 RMK SC4SC2SC2 SLP150=

CYVR;2006-09-20 23:00;METAR CYVR 202300Z 12012KT 2SM -RA BR BKN007 BKN020 OVC035 13/12 A2994 RMK SC5SC2SC1 SLP139=

CYVR;2006-09-20 23:15;SPECI CYVR 202315Z 13012KT 4SM -RA BR BKN007 BKN021 OVC035 13/ RMK SC5SC2SC1=

CYVR;2006-09-20 23:37;SPECI CYVR 202337Z 11011G16KT 2SM -RA BR BKN006 BKN020 OVC035 12/ RMK SC6SC1SC1=

CYVR;2006-09-21 00:00;METAR CYVR 210000Z 13010G17KT 2SM -RA BR BKN007 BKN020 OVC030 13/12 A2992 RMK SC6SC1SC1 SLP131=

CYVR;2006-09-21 01:00;METAR CYVR 210100Z 15009KT 2 1/2SM -RA BR BKN007 BKN025 OVC035 12/12 A2991 RMK SC6SC2SC1 SLP129=

CYVR;2006-09-21 02:00;METAR CYVR 210200Z 15007KT 2SM -RA BR SCT004 BKN007 OVC014 12/11 A2990 RMK SF3SC4SC1 SLP125=

CYVR;2006-09-21 02:29;SPECI CYVR 210229Z 15005KT 4SM -DZ BR SCT004 BKN007 OVC015 12/ RMK ST3SC4SC1=

CYVR;2006-09-21 03:00;METAR CYVR 210300Z 15003KT 5SM -DZ BR SCT004 BKN007 OVC015 12/11 A2990 RMK ST3SC4SC1 SLP124=

CYVR;2006-09-21 04:00;METAR CYVR 210400Z 17003KT 8SM -DZ SCT004 BKN007 OVC015 12/11 A2991 RMK ST3SC4SC1 SLP127=

CYVR;2006-09-21 04:47;SPECI CYVR 210447Z 00000KT 8SM SCT004 BKN011 OVC018 12/ RMK ST3SC4SC1=

CYVR;2006-09-21 05:00;METAR CYVR 210500Z 00000KT 2 1/2SM -RA BR SCT004 OVC011 12/11 A2991 RMK ST3SC5 SLP127=

CYVR;2006-09-21 05:40;SPECI CYVR 210540Z 01003KT 8SM SCT005 OVC011 12/ RMK ST3SC5=

CYVR;2006-09-21 06:00;METAR CYVR 210600Z 02002KT 10SM SCT005 BKN012 OVC030 12/11 A2990 RMK ST3SC4SC1 SLP124=

CYVR;2006-09-21 07:00;METAR CYVR 210700Z 33007KT 10SM SCT005 BKN010 OVC030 12/11 A2990 RMK ST4SC3SC1 SLP124=

CYVR;2006-09-21 08:00;METAR CYVR 210800Z 28010KT 12SM FEW006 BKN012 OVC050 12/11 A2990 RMK ST2SC4SC2 SLP126=

CYVR;2006-09-21 09:00;METAR CYVR 210900Z 30014KT 12SM FEW006 SCT011 BKN051 OVC072 12/11 A2991 RMK SF1SC2SC2AC2 SLP127=

CYVR;2006-09-21 10:00;METAR CYVR 211000Z 28023KT 12SM FEW008 FEW012 SCT050 OVC068 12/10 A2988 RMK SF1SC1SC2AC5 SLP120=

CYVR;2006-09-21 11:00;METAR CYVR 211100Z 28023G28KT 12SM BKN018 OVC070 12/10 A2989 RMK SC5AC3 SLP121=

CYVR;2006-09-21 12:00;METAR CYVR 211200Z 27023KT 12SM SCT018 BKN068 12/10 A2989 RMK SC3AC4 SLP121=

CYVR;2006-09-21 13:00;METAR CYVR 211300Z 30023G28KT 15SM FEW018 SCT070 BKN210 12/09 A2989 RMK SC2AC2CI3 SLP121=

CYVR;2006-09-21 14:00;METAR CYVR 211400Z 30024KT 20SM FEW015 FEW070 BKN210 12/09 A2989 RMK SF2AC1CI1 SLP123=

CYVR;2006-09-21 15:00;METAR CYVR 211500Z 31012KT 20SM FEW016 SCT060 BKN210 12/10 A2991 RMK SC2SC1CI1 LO CLD E SLP130=

CYVR;2006-09-21 16:00;METAR CYVR 211600Z 32009KT 20SM FEW017 SCT060 BKN210 12/10 A2992 RMK SC2SC1CI2 LO CLD E SLP133=

CYVR;2006-09-21 17:00;METAR CYVR 211700Z 30009KT 20SM FEW017 SCT080 BKN220 13/10 A2994 RMK CU2AC1CI2 VIS LWR E DUE LO CLD SLP140=

CYVR;2006-09-21 18:00;METAR CYVR 211800Z 30009KT 20SM FEW018 SCT080 BKN230 14/10 A2995 RMK CU2AC1CI2 SLP141=

CYVR;2006-09-21 19:00;METAR CYVR 211900Z 29011KT 20SM FEW020 SCT070 BKN230 14/10 A2996 RMK SC2AC1CI1 SLP144=

CYVR;2006-09-21 20:00;METAR CYVR 212000Z 30010KT 30SM FEW022 FEW070 BKN240 15/11 A2996 RMK CU2AC1CI1 SLP144=

CYVR;2006-09-21 21:00;METAR CYVR 212100Z 29013G18KT 30SM FEW030 SCT240 16/10 A2998 RMK CU2CI1 TCU ASOCTD SLP151=

CYVR;2006-09-21 22:00;METAR CYVR 212200Z 30010KT 30SM FEW035TCU SCT240 16/10 A2998 RMK TCU2CI1 SHS N AND NE OVR MTNS SLP152=

CYVR;2006-09-21 23:00;METAR CYVR 212300Z 29009KT 20SM FEW040TCU SCT120 BKN240 15/10 A3000 RMK TCU2AC2CI1 SHS E SLP158=

CYVR;2006-09-22 00:00;METAR CYVR 220000Z 29005KT 30SM FEW040 FEW130 SCT240 16/10 A3001 RMK CU2AC1CI0 TCU ASOCTD N SLP164=

CYVR;2006-09-22 01:00;METAR CYVR 220100Z 29007KT 30SM FEW040 FEW110 SCT240 16/11 A3003 RMK CU1AC2CI1 TCU ASOCTD SLP169=

CYVR;2006-09-22 02:00;METAR CYVR 220200Z 31005KT 30SM SCT110 14/11 A3005 RMK AC3 SLP175=

CYVR;2006-09-22 03:00;METAR CYVR 220300Z 00000KT 30SM SCT110 14/11 A3007 RMK AC3 SLP182=

CYVR;2006-09-22 04:00;METAR CYVR 220400Z 09006KT 30SM FEW100 12/09 A3010 RMK AC2 SLP192=

CYVR;2006-09-22 05:00;METAR CYVR 220500Z 12004KT 30SM FEW100 13/10 A3011 RMK AC2 SLP197=

CYVR;2006-09-22 06:00;METAR CYVR 220600Z 10003KT 30SM FEW100 12/10 A3014 RMK AC2 SLP206=

CYVR;2006-09-22 07:00;METAR CYVR 220700Z 09004KT 20SM FEW100 FEW220 11/09 A3016 RMK AC1CI1 SLP214=

CYVR;2006-09-22 08:00;METAR CYVR 220800Z 08005KT 20SM FEW100 FEW220 10/08 A3018 RMK AC1CI1 SLP220=

CYVR;2006-09-22 09:00;METAR CYVR 220900Z 30003KT 20SM SCT040 10/08 A3021 RMK SC4 SLP230=

CYVR;2006-09-22 10:00;METAR CYVR 221000Z 00000KT 20SM FEW040 FEW220 10/08 A3023 RMK SC1CI1 SLP236=

CYVR;2006-09-22 11:00;METAR CYVR 221100Z 00000KT 20SM FEW037 FEW220 09/08 A3024 RMK SC1CI1 SLP239=

CYVR;2006-09-22 12:00;METAR CYVR 221200Z 06002KT 20SM FEW037 FEW220 10/09 A3024 RMK SC1CI1 SLP240=

CYVR;2006-09-22 13:00;METAR CYVR 221300Z 14003KT 20SM FEW037 09/08 A3025 RMK SC1 SLP245=

CYVR;2006-09-22 13:37;SPECI CYVR 221337Z 00000KT 20SM R26R/2600V6000FT/D FEW045 09/ RMK SC1=

CYVR;2006-09-22 14:00;METAR CYVR 221400Z 00000KT 30SM R26R/2800V6000FT/U FEW050 09/08 A3027 RMK SC1 SLP250=

CYVR;2006-09-22 15:00;METAR CYVR 221500Z 33003KT 30SM FEW050 FEW220 10/09 A3029 RMK SC1CC0 SLP257=

CYVR;2006-09-22 17:00;METAR CYVR 221700Z 29006KT 30SM FEW025 FEW050 BKN200 14/10 A3030 RMK SF1SC1CI1 TR SF SLP262=

CYVR;2006-09-22 18:00;METAR CYVR 221800Z 30006KT 30SM FEW011 FEW050 BKN200 14/10 A3031 RMK SF1SC1CI2 SLP265=

CYVR;2006-09-22 19:00;METAR CYVR 221900Z 29008KT 30SM FEW011 BKN200 15/11 A3031 RMK SF0CI2 TR SF SLP264=

CYVR;2006-09-22 20:00;METAR CYVR 222000Z 29008KT 30SM FEW011 SCT180 BKN200 15/11 A3032 RMK SF0AC2CI2 TR SF SLP267=

CYVR;2006-09-22 21:00;METAR CYVR 222100Z 29008KT 30SM FEW050 SCT180 BKN200 16/12 A3031 RMK SC1AC2CI2 SLP263=

CYVR;2006-09-22 22:00;METAR CYVR 222200Z 29007KT 30SM FEW050 BKN150 BKN190 16/12 A3030 RMK SC1AC2AC2 SLP260=

CYVR;2006-09-22 23:00;METAR CYVR 222300Z 29007KT 30SM FEW045 BKN150 BKN190 16/11 A3029 RMK SF0AC2AC2 TR SF SLP257=

CYVR;2006-09-23 00:00;METAR CYVR 230000Z 27007KT 30SM SCT150 BKN200 15/11 A3028 RMK AC2CI1 SLP253=

CYVR;2006-09-23 01:00;METAR CYVR 230100Z 29004KT 30SM FEW170 15/10 A3028 RMK AC1 SLP253=

CYVR;2006-09-23 02:00;METAR CYVR 230200Z 20002KT 30SM FEW150 BKN210 15/10 A3028 RMK AC2CI0 SLP253=

CYVR;2006-09-23 03:00;METAR CYVR 230300Z 19003KT 30SM FEW150 BKN220 14/10 A3028 RMK AC1CI1 SLP253=

CYVR;2006-09-23 04:00;METAR CYVR 230400Z 21004KT 30SM FEW150 SCT220 13/10 A3028 RMK AC1CI1 SLP253=

CYVR;2006-09-23 05:00;METAR CYVR 230500Z 04003KT 30SM FEW150 BKN210 12/10 A3029 RMK AC1CI1 SLP256=

CYVR;2006-09-23 06:00;METAR CYVR 230600Z 00000KT 30SM SCT210 13/10 A3029 RMK CI1 SLP257=

CYVR;2006-09-23 07:00;METAR CYVR 230700Z 09003KT 20SM SCT210 12/10 A3030 RMK CI1 SLP260=

CYVR;2006-09-23 08:00;METAR CYVR 230800Z 08002KT 20SM FEW210 12/10 A3031 RMK CI1 SLP263=

CYVR;2006-09-23 09:00;METAR CYVR 230900Z 00000KT 20SM FEW210 11/10 A3031 RMK CI1 SLP264=

CYVR;2006-09-23 10:00;METAR CYVR 231000Z 09002KT 20SM FEW210 10/10 A3032 RMK CI1 SLP266=

CYVR;2006-09-23 11:00;METAR CYVR 231100Z 09002KT 20SM FEW210 10/09 A3032 RMK CI1 SLP266=

CYVR;2006-09-23 12:00;METAR CYVR 231200Z 07002KT 20SM FEW210 10/10 A3032 RMK CI1 SLP267=

CYVR;2006-09-23 13:00;METAR CYVR 231300Z 01003KT 20SM FEW210 09/08 A3032 RMK CI1 SLP267=

CYVR;2006-09-23 13:33;SPECI CYVR 231333Z 00000KT 20SM R26R/4500V6000FT/D FEW220 09/ RMK CI0=

CYVR;2006-09-23 14:00;METAR CYVR 231400Z 36002KT 20SM R26R/2800V6000FT/D MIFG FEW220 10/09 A3033 RMK CI0 SLP271=

CYVR;2006-09-23 15:00;METAR CYVR 231500Z 11002KT 30SM FEW220 11/09 A3034 RMK CI0 SLP273=

CYVR;2006-09-23 16:00;METAR CYVR 231600Z 29003KT 30SM FEW220 13/10 A3034 RMK CI0 SLP275=

CYVR;2006-09-23 17:00;METAR CYVR 231700Z 29004KT 30SM FEW220 15/11 A3034 RMK CI0 SLP274=

CYVR;2006-09-23 18:00;METAR CYVR 231800Z 30007KT 30SM FEW220 16/11 A3034 RMK CI0 SLP273=

CYVR;2006-09-23 19:00;METAR CYVR 231900Z 29010KT 30SM FEW200 16/11 A3033 RMK CI0 SLP270=

CYVR;2006-09-23 20:00;METAR CYVR 232000Z 29007KT 30SM FEW200 16/12 A3032 RMK CI0 SLP266=

CYVR;2006-09-23 21:00;METAR CYVR 232100Z 29009KT 30SM SKC 17/12 A3029 RMK SLP258=

CYVR;2006-09-23 22:00;METAR CYVR 232200Z 31008KT 30SM SKC 17/12 A3027 RMK SLP249=

CYVR;2006-09-23 23:00;METAR CYVR 232300Z 30008KT 30SM SKC 18/12 A3024 RMK SLP242=

CYVR;2006-09-24 00:00;METAR CYVR 240000Z 30008KT 30SM SKC 17/12 A3023 RMK SLP236=

CYVR;2006-09-24 01:00;METAR CYVR 240100Z 30008KT 30SM FEW050 16/12 A3021 RMK SF1 TR SF SLP229=

CYVR;2006-09-24 02:00;METAR CYVR 240200Z 31004KT 30SM SKC 15/12 A3019 RMK SLP225=

CYVR;2006-09-24 03:00;METAR CYVR 240300Z 31006KT 30SM SKC 14/11 A3019 RMK SLP223=

CYVR;2006-09-24 04:00;METAR CYVR 240400Z 33005KT 30SM SKC 14/12 A3019 RMK SLP225=

CYVR;2006-09-24 05:00;METAR CYVR 240500Z 00000KT 30SM SKC 14/11 A3020 RMK SLP226=

CYVR;2006-09-24 06:00;METAR CYVR 240600Z 00000KT 30SM SKC 13/10 A3020 RMK SLP228=

CYVR;2006-09-24 07:00;METAR CYVR 240700Z 03002KT 20SM SKC 12/10 A3021 RMK SLP230=

CYVR;2006-09-24 08:00;METAR CYVR 240800Z 03002KT 20SM SKC 13/11 A3021 RMK SLP231=

CYVR;2006-09-24 09:00;METAR CYVR 240900Z 00000KT 20SM SKC 12/10 A3021 RMK SLP231=

CYVR;2006-09-24 10:00;METAR CYVR 241000Z 00000KT 20SM SKC 12/10 A3021 RMK SLP229=

CYVR;2006-09-24 11:00;METAR CYVR 241100Z 34002KT 20SM SKC 11/10 A3020 RMK SLP227=

CYVR;2006-09-24 12:00;METAR CYVR 241200Z 00000KT 20SM SKC 12/11 A3020 RMK SLP228=

CYVR;2006-09-24 13:00;METAR CYVR 241300Z 09002KT 20SM SKC 10/10 A3021 RMK SLP229=

CYVR;2006-09-24 13:36;SPECI CYVR 241336Z 12003KT 20SM MIFG FEW240 11/ RMK CI0=

CYVR;2006-09-24 14:00;METAR CYVR 241400Z 11003KT 20SM MIFG FEW220 10/10 A3021 RMK CI0 SLP231=

CYVR;2006-09-24 15:28;SPECI CYVR 241528Z 00000KT 30SM FEW220 13/ RMK CI0=

CYVR;2006-09-24 16:00;METAR CYVR 241600Z 36002KT 30SM FEW220 14/12 A3022 RMK CI0 SLP233=

CYVR;2006-09-24 17:00;METAR CYVR 241700Z 30005KT 30SM FEW220 15/12 A3022 RMK CI0 SLP234=

CYVR;2006-09-24 18:00;METAR CYVR 241800Z CCA 31008KT 30SM FEW220 16/13 A3022 RMK CI0 HZ SLP232=

CYVR;2006-09-24 19:00;METAR CYVR 241900Z 29009KT 30SM FEW025 FEW220 16/13 A3021 RMK SC0CI0 HZ SLP229=

CYVR;2006-09-24 21:00;METAR CYVR 242100Z 29007KT 30SM FEW025 17/14 A3017 RMK SF1 TR SF / HZ SLP217=

CYVR;2006-09-24 22:00;METAR CYVR 242200Z 29007KT 30SM SKC 18/14 A3016 RMK HZ SLP212=

CYVR;2006-09-24 23:00;METAR CYVR 242300Z 30006KT 30SM SKC 18/14 A3014 RMK SLP206=

CYVR;2006-09-25 00:00;METAR CYVR 250000Z 31006KT 30SM SKC 18/13 A3012 RMK SLP200=

CYVR;2006-09-25 01:00;METAR CYVR 250100Z 30004KT 30SM SKC 17/13 A3011 RMK SLP195=

CYVR;2006-09-25 02:00;METAR CYVR 250200Z 31005KT 30SM SKC 15/12 A3010 RMK SLP192=

CYVR;2006-09-25 03:00;METAR CYVR 250300Z 28004KT 30SM FEW050 15/13 A3010 RMK SF0 TR SF SLP193=

CYVR;2006-09-25 04:00;METAR CYVR 250400Z 26004KT 20SM MIFG SKC 14/13 A3010 RMK SLP193=

CYVR;2006-09-25 05:00;METAR CYVR 250500Z 28006KT 30SM SKC 14/13 A3011 RMK SLP196=

CYVR;2006-09-25 06:00;METAR CYVR 250600Z 33004KT 30SM R26R/4000V6000FT/U SKC 13/12 A3011 RMK SLP197=

CYVR;2006-09-25 06:36;SPECI CYVR 250636Z 36003KT 30SM R26R/1200V1800FT/N MIFG SKC 13/=

CYVR;2006-09-25 07:00;METAR CYVR 250700Z 34004KT 20SM R26R/1600V2400FT/N MIFG SKC 13/13 A3011 RMK SLP197=

CYVR;2006-09-25 08:37;SPECI CYVR 250837Z 00000KT 15SM R08R/4000V6000FT/D BCFG FEW200 11/ RMK CI0=

CYVR;2006-09-25 09:00;METAR CYVR 250900Z 00000KT 15SM R08R/2800V6000FT/N R26R/3500V6000FT/N MIFG FEW200 12/12 A3011 RMK CI0 SLP196=

CYVR;2006-09-25 10:00;METAR CYVR 251000Z 34003KT 15SM R26R/3000V6000FT/D MIFG FEW200 11/10 A3012 RMK CI0 SLP200=

CYVR;2006-09-25 11:00;METAR CYVR 251100Z 32002KT 15SM R26R/1200V1800FT/N MIFG FEW220 11/10 A3012 RMK CI0 SLP199=

CYVR;2006-09-25 12:00;METAR CYVR 251200Z 13003KT 15SM MIFG FEW220 11/10 A3011 RMK CI0 SLP198=

CYVR;2006-09-25 12:03;SPECI CYVR 251203Z 14002KT 15SM R26R/4500V6000FT/D MIFG FEW220 11/ RMK CI0=

CYVR;2006-09-25 13:00;METAR CYVR 251300Z 00000KT 15SM R26R/1200V2000FT/N MIFG FEW200 11/10 A3013 RMK CI0 SLP202=

CYVR;2006-09-25 14:00;METAR CYVR 251400Z 12003KT 15SM R26R/1600V2200FT/N MIFG FEW150 FEW200 12/11 A3011 RMK AS0CS0 HZ SLP197=

CYVR;2006-09-25 15:00;METAR CYVR 251500Z 36003KT 20SM R26R/3000V6000FT/U MIFG FEW150 FEW220 11/11 A3013 RMK AC0CI0 HZ SLP203=

CYVR;2006-09-25 15:26;SPECI CYVR 251526Z 00000KT 20SM FEW150 FEW220 13/ RMK AC0CI0=

CYVR;2006-09-25 16:00;METAR CYVR 251600Z 17002KT 20SM FEW150 FEW220 15/13 A3014 RMK AC0CI0 SLP205=

CYVR;2006-09-25 18:00;METAR CYVR 251800Z 27006KT 30SM FEW220 17/14 A3014 RMK CI1 SLP208=

CYVR;2006-09-25 19:00;METAR CYVR 251900Z 29005KT 30SM FEW220 18/14 A3014 RMK CI0 SLP207=

CYVR;2006-09-25 20:00;METAR CYVR 252000Z 29005KT 30SM BKN220 18/13 A3012 RMK CI1 SLP201=

CYVR;2006-09-25 21:00;METAR CYVR 252100Z 29005KT 30SM BKN220 19/13 A3011 RMK CI1 SLP198=

CYVR;2006-09-25 22:00;METAR CYVR 252200Z 28005KT 30SM SCT220 19/14 A3011 RMK CI1 SLP195=

CYVR;2006-09-25 23:00;METAR CYVR 252300Z 29006KT 30SM BKN220 19/12 A3010 RMK CI1 SLP192=

CYVR;2006-09-26 00:00;METAR CYVR 260000Z 31004KT 30SM BKN220 19/13 A3009 RMK CI1 SLP189=

CYVR;2006-09-26 01:00;METAR CYVR 260100Z 29005KT 30SM BKN220 18/14 A3008 RMK CI1 SLP187=

CYVR;2006-09-26 02:00;METAR CYVR 260200Z 27003KT 30SM FEW180 SCT220 16/14 A3007 RMK AC1CI0 SLP184=

CYVR;2006-09-26 03:00;METAR CYVR 260300Z 28002KT 30SM FEW180 FEW220 15/13 A3008 RMK AC1CI0 SLP186=

CYVR;2006-09-26 04:00;METAR CYVR 260400Z 00000KT 30SM FEW220 15/13 A3009 RMK CI0 SLP190=

CYVR;2006-09-26 05:00;METAR CYVR 260500Z 00000KT 30SM FEW220 15/13 A3010 RMK CI0 SLP192=

CYVR;2006-09-26 06:00;METAR CYVR 260600Z 18002KT 30SM FEW220 14/12 A3010 RMK CI0 SLP193=

CYVR;2006-09-26 07:00;METAR CYVR 260700Z 00000KT 20SM MIFG FEW220 14/12 A3011 RMK CI0 SLP196=

CYVR;2006-09-26 08:00;METAR CYVR 260800Z 00000KT 20SM MIFG FEW220 13/11 A3011 RMK CI0 SLP197=

CYVR;2006-09-26 09:00;METAR CYVR 260900Z 17003KT 15SM MIFG FEW220 14/12 A3012 RMK CI0 SLP199=

CYVR;2006-09-26 09:34;SPECI CYVR 260934Z 00000KT 15SM R26R/4000V6000FT/D MIFG FEW220 13/ RMK CI0=

CYVR;2006-09-26 10:00;METAR CYVR 261000Z 00000KT 15SM MIFG FEW220 12/11 A3012 RMK CI0 SLP201=

CYVR;2006-09-26 10:09;SPECI CYVR 261009Z 04002KT 15SM R08R/4000V6000FT/D MIFG FEW220 12/ RMK CI0=

CYVR;2006-09-26 10:30;SPECI CYVR 261030Z 36002KT 15SM R26R/2600V6000FT/N MIFG FEW220 12/ RMK CI0=

CYVR;2006-09-26 11:00;METAR CYVR 261100Z 00000KT 15SM R26R/3000V6000FT/N MIFG FEW220 11/10 A3013 RMK CI0 SLP202=

CYVR;2006-09-26 12:00;METAR CYVR 261200Z 07002KT 15SM R26R/5000V6000FT/D MIFG FEW050 FEW210 12/11 A3013 RMK SF0CI0 SLP202=

CYVR;2006-09-26 13:00;METAR CYVR 261300Z 00000KT 15SM R26R/3500V6000FT/D MIFG FEW050 FEW200 12/11 A3013 RMK SF1CI0 SLP204=

CYVR;2006-09-26 14:00;METAR CYVR 261400Z 00000KT 20SM R26R/2200V2400FT/N MIFG FEW200 13/11 A3014 RMK CS1 SLP207=

CYVR;2006-09-26 14:53;SPECI CYVR 261453Z 36002KT 20SM SCT220 13/ RMK CI1=

CYVR;2006-09-26 15:00;METAR CYVR 261500Z 36002KT 20SM SCT220 13/12 A3015 RMK CI1 SLP209=

CYVR;2006-09-26 16:00;METAR CYVR 261600Z 28003KT 30SM SCT220 16/14 A3016 RMK CI1 SLP212=

CYVR;2006-09-26 18:00;METAR CYVR 261800Z 30007KT 30SM FEW220 18/13 A3017 RMK CI1 HZ SLP215=

CYVR;2006-09-26 19:00;METAR CYVR 261900Z 30007KT 30SM SCT220 19/13 A3017 RMK CI1 SLP215=

CYVR;2006-09-26 20:00;METAR CYVR 262000Z 29006KT 30SM FEW220 19/14 A3016 RMK CI1 HZ SLP212=

CYVR;2006-09-26 21:00;METAR CYVR 262100Z 30008KT 30SM FEW220 19/14 A3015 RMK CI1 HZ SLP209=

CYVR;2006-09-26 22:00;METAR CYVR 262200Z 30006KT 30SM FEW220 20/13 A3013 RMK CI0 HZ SLP204=

CYVR;2006-09-26 23:00;METAR CYVR 262300Z 30009KT 30SM FEW220 20/14 A3012 RMK CI0 HZ SLP199=

CYVR;2006-09-27 00:00;METAR CYVR 270000Z 30009KT 30SM FEW220 19/13 A3011 RMK CI0 HZ SLP195=

CYVR;2006-09-27 01:00;METAR CYVR 270100Z 32007KT 30SM FEW220 18/14 A3010 RMK CI0 HZ SLP192=

CYVR;2006-09-27 02:00;METAR CYVR 270200Z 26004KT 30SM FEW220 17/13 A3009 RMK CI1 SLP191=

CYVR;2006-09-27 03:00;METAR CYVR 270300Z 30004KT 30SM FEW230 16/13 A3009 RMK CI1 SLP191=

CYVR;2006-09-27 04:00;METAR CYVR 270400Z 26002KT 30SM FEW230 16/13 A3009 RMK CI0 SLP190=

CYVR;2006-09-27 05:00;METAR CYVR 270500Z 18002KT 30SM FEW230 16/14 A3010 RMK CI0 SLP193=

CYVR;2006-09-27 06:00;METAR CYVR 270600Z 18002KT 30SM FEW240 15/13 A3011 RMK CI0 SLP196=

CYVR;2006-09-27 07:00;METAR CYVR 270700Z 09002KT 30SM FEW220 15/12 A3012 RMK CI1 SLP200=

CYVR;2006-09-27 08:00;METAR CYVR 270800Z 00000KT 20SM R26R/3500VP6000FT/U FEW220 15/13 A3012 RMK CI1 SLP201=

CYVR;2006-09-27 09:00;METAR CYVR 270900Z 32002KT 20SM R26R/3000VP6000FT/U FEW220 13/12 A3013 RMK CI1 SLP204=

CYVR;2006-09-27 10:00;METAR CYVR 271000Z 01003KT 20SM FEW220 14/12 A3013 RMK CI1 SLP202=

CYVR;2006-09-27 11:00;METAR CYVR 271100Z 27002KT 20SM R26R/4000VP6000FT/U FEW220 14/13 A3014 RMK CI1 SLP205=

CYVR;2006-09-27 12:00;METAR CYVR 271200Z 00000KT 20SM R08R/3000VP6000FT/N MIFG FEW220 13/12 A3014 RMK CI1 SLP205=

CYVR;2006-09-27 13:00;METAR CYVR 271300Z 18002KT 20SM MIFG FEW230 14/12 A3014 RMK CI1 SLP206=

CYVR;2006-09-27 14:00;METAR CYVR 271400Z 09002KT 20SM R26R/2400V2600FT/N MIFG FEW230 13/12 A3014 RMK CI0 SLP208=

CYVR;2006-09-27 14:47;SPECI CYVR 271447Z 16002KT 20SM MIFG FEW230 14/ RMK CI0=

CYVR;2006-09-27 15:00;METAR CYVR 271500Z 00000KT 20SM FEW230 14/12 A3015 RMK CI0 SLP210=

CYVR;2006-09-27 16:00;METAR CYVR 271600Z 00000KT 20SM FEW230 16/14 A3016 RMK CI0 HZ / VIS NE QUAD LWR SLP212=

CYVR;2006-09-27 17:00;METAR CYVR 271700Z 23002KT 20SM FEW230 19/14 A3017 RMK CI0 HZ / VIS NE QUAD LWR SLP216=

CYVR;2006-09-27 18:00;METAR CYVR 271800Z 30004KT 20SM FEW230 19/14 A3017 RMK CI0 SLP216=

CYVR;2006-09-27 19:00;METAR CYVR 271900Z 29005KT 20SM SKC 20/14 A3017 RMK SLP215=

CYVR;2006-09-27 20:00;METAR CYVR 272000Z 29007KT 30SM SKC 19/15 A3016 RMK SLP213=

CYVR;2006-09-27 21:00;METAR CYVR 272100Z 30007KT 30SM SKC 20/15 A3015 RMK HZ SLP210=

CYVR;2006-09-27 22:00;METAR CYVR 272200Z 29005KT 30SM SKC 21/14 A3014 RMK HZ SLP205=

CYVR;2006-09-27 23:00;METAR CYVR 272300Z 31004KT 30SM SKC 21/14 A3012 RMK HZ SLP199=

CYVR;2006-09-28 00:00;METAR CYVR 280000Z 27003KT 30SM SKC 21/13 A3010 RMK SLP194=

CYVR;2006-09-28 01:00;METAR CYVR 280100Z 28003KT 30SM SKC 20/14 A3009 RMK SLP190=

CYVR;2006-09-28 02:00;METAR CYVR 280200Z 23003KT 30SM SKC 17/14 A3009 RMK SLP188=

CYVR;2006-09-28 03:00;METAR CYVR 280300Z 26003KT 30SM SKC 16/15 A3009 RMK SLP190=

CYVR;2006-09-28 04:00;METAR CYVR 280400Z 28002KT 30SM R26R/1200V2000FT/N MIFG SKC 16/15 A3009 RMK SLP191=

CYVR;2006-09-28 05:00;METAR CYVR 280500Z 36002KT 30SM R26R/2600VP6000FT/U MIFG SKC 15/14 A3010 RMK SLP194=

CYVR;2006-09-28 06:00;METAR CYVR 280600Z 33004KT 30SM R26R/3000FT/N SKC 15/13 A3012 RMK SLP201=

CYVR;2006-09-28 07:00;METAR CYVR 280700Z 30003KT 20SM SKC 15/14 A3014 RMK SLP206=

CYVR;2006-09-28 08:00;METAR CYVR 280800Z 21002KT 20SM R08R/3000VP6000FT/D MIFG SKC 16/15 A3013 RMK SLP202=

CYVR;2006-09-28 09:00;METAR CYVR 280900Z 00000KT 20SM MIFG SKC 14/13 A3013 RMK SLP202=

CYVR;2006-09-28 10:00;METAR CYVR 281000Z 08003KT 20SM MIFG SKC 13/12 A3013 RMK SLP203=

CYVR;2006-09-28 11:00;METAR CYVR 281100Z 11003KT 15SM MIFG SKC 14/13 A3013 RMK SLP202=

CYVR;2006-09-28 12:00;METAR CYVR 281200Z 02002KT 15SM MIFG FEW010 12/11 A3013 RMK SF1 VIS E 5 SLP204=

CYVR;2006-09-28 13:00;METAR CYVR 281300Z 00000KT 15SM MIFG FEW011 12/12 A3014 RMK SF1 SLP207=

CYVR;2006-09-28 14:00;METAR CYVR 281400Z 32002KT 20SM R26R/1600FT/N FEW220 12/12 A3015 RMK CI1 SLP210=

CYVR;2006-09-28 15:00;METAR CYVR 281500Z 02002KT 20SM FEW220 14/13 A3017 RMK CI1 SLP215=

CYVR;2006-09-28 16:00;METAR CYVR 281600Z 30005KT 30SM FEW220 16/14 A3017 RMK CI2 SLP216=

CYVR;2006-09-28 17:00;METAR CYVR 281700Z 30004KT 30SM BKN220 17/14 A3017 RMK CI2 SLP216=

CYVR;2006-09-28 18:00;METAR CYVR 281800Z 31009KT 30SM BKN220 17/14 A3017 RMK CI2 SLP218=

CYVR;2006-09-28 19:00;METAR CYVR 281900Z 24009KT 30SM FEW220 18/14 A3016 RMK CI1 SLP214=

CYVR;2006-09-28 20:00;METAR CYVR 282000Z 29009KT 30SM FEW220 18/14 A3015 RMK CI1 SLP211=

CYVR;2006-09-28 21:00;METAR CYVR 282100Z 31010KT 30SM FEW220 19/14 A3014 RMK CI1 SLP207=

CYVR;2006-09-28 22:00;METAR CYVR 282200Z 30007KT 30SM SCT220 20/14 A3012 RMK CI1 SLP199=

CYVR;2006-09-28 23:00;METAR CYVR 282300Z 29007KT 30SM FEW220 20/14 A3011 RMK CI1 SLP195=

CYVR;2006-09-29 00:00;METAR CYVR 290000Z 27004KT 30SM BKN220 18/14 A3010 RMK CI1 SLP193=

CYVR;2006-09-29 01:00;METAR CYVR 290100Z 27003KT 30SM SCT220 18/13 A3009 RMK CI1 SLP191=

CYVR;2006-09-29 02:00;METAR CYVR 290200Z 26002KT 30SM SCT230 16/13 A3009 RMK CI2 SLP189=

CYVR;2006-09-29 03:00;METAR CYVR 290300Z 23002KT 30SM SCT220 16/13 A3009 RMK CI2 SLP191=

CYVR;2006-09-29 04:00;METAR CYVR 290400Z 00000KT 30SM SCT220 16/13 A3009 RMK CI2 SLP191=

CYVR;2006-09-29 05:00;METAR CYVR 290500Z 23002KT 30SM FEW220 16/12 A3009 RMK CI1 SLP191=

CYVR;2006-09-29 06:00;METAR CYVR 290600Z 28002KT 30SM FEW220 14/12 A3009 RMK CI1 SLP191=

CYVR;2006-09-29 07:00;METAR CYVR 290700Z 00000KT 20SM FEW220 13/11 A3010 RMK CI0 SLP192=

CYVR;2006-09-29 09:00;METAR CYVR 290900Z 27002KT 20SM FEW220 13/12 A3010 RMK CI1 SLP193=

CYVR;2006-09-29 10:00;METAR CYVR 291000Z 00000KT 20SM FEW230 13/12 A3010 RMK CI1 SLP192=

CYVR;2006-09-29 11:00;METAR CYVR 291100Z 01003KT 20SM R08R/3500VP6000FT/D FEW230 11/10 A3009 RMK CI1 SLP191=

CYVR;2006-09-29 12:00;METAR CYVR 291200Z 02002KT 20SM MIFG FEW230 12/11 A3009 RMK CI1 SLP188=

CYVR;2006-09-29 13:00;METAR CYVR 291300Z 00000KT 10SM R26R/1600FT/N MIFG FEW011 FEW230 12/11 A3008 RMK SF1CI0 SLP187=

CYVR;2006-09-29 14:00;METAR CYVR 291400Z 35003KT 20SM R26R/1400V2800FT/N MIFG FEW011 FEW230 12/11 A3008 RMK SF1CI0 SLP187=

CYVR;2006-09-29 15:00;METAR CYVR 291500Z 33002KT 20SM R26R/1400FT/N FEW011 FEW230 13/12 A3008 RMK SF1CI0 SLP186=

CYVR;2006-09-29 16:00;METAR CYVR 291600Z 32005KT 20SM FEW011 FEW230 14/13 A3008 RMK SF1CI0 SLP185=

CYVR;2006-09-29 17:00;METAR CYVR 291700Z 30008KT 20SM FEW011 FEW230 15/13 A3008 RMK SF1CI1 SLP185=

CYVR;2006-09-29 18:00;METAR CYVR 291800Z 30009KT 20SM FEW011 16/13 A3007 RMK SF1 SLP183=

CYVR;2006-09-29 19:00;METAR CYVR 291900Z 29010KT 20SM FEW014 16/13 A3006 RMK SF1 TR SF SLP178=

CYVR;2006-09-29 20:00;METAR CYVR 292000Z 30010KT 20SM SKC 17/13 A3004 RMK SLP172=

CYVR;2006-09-29 21:00;METAR CYVR 292100Z 30007KT 20SM SKC 17/13 A3002 RMK SLP165=

CYVR;2006-09-29 22:00;METAR CYVR 292200Z 31006KT 20SM SKC 17/13 A2999 RMK SLP157=

CYVR;2006-09-29 23:00;METAR CYVR 292300Z 28004KT 20SM SKC 17/12 A2998 RMK SLP152=

CYVR;2006-09-30 00:00;METAR CYVR 300000Z 28004KT 20SM SKC 17/12 A2996 RMK SLP146=

CYVR;2006-09-30 01:00;METAR CYVR 300100Z 26003KT 20SM SKC 16/13 A2995 RMK SLP142=

CYVR;2006-09-30 02:00;METAR CYVR 300200Z 00000KT 20SM SKC 14/12 A2993 RMK SLP136=

CYVR;2006-09-30 03:00;METAR CYVR 300300Z 00000KT 30SM SKC 14/13 A2993 RMK SLP136=

CYVR;2006-09-30 04:00;METAR CYVR 300400Z 18002KT 30SM SKC 15/13 A2993 RMK SLP137=

CYVR;2006-09-30 05:00;METAR CYVR 300500Z 00000KT 30SM MIFG SKC 14/12 A2993 RMK SLP136=

CYVR;2006-09-30 06:00;METAR CYVR 300600Z 11006KT 30SM SKC 12/11 A2993 RMK SLP134=

CYVR;2006-09-30 07:00;METAR CYVR 300700Z 15004KT 30SM SKC 13/12 A2992 RMK SLP133=

CYVR;2006-09-30 08:00;METAR CYVR 300800Z 12007KT 30SM FEW010 12/11 A2992 RMK SF1 SLP132=

CYVR;2006-09-30 09:00;METAR CYVR 300900Z 11003KT 30SM FEW011 11/10 A2992 RMK SF1 SLP133=

CYVR;2006-09-30 10:00;METAR CYVR 301000Z 11007KT 20SM SCT007 BKN220 11/10 A2992 RMK SF3CI1 SLP132=

CYVR;2006-09-30 11:00;METAR CYVR 301100Z 09008KT 15SM BKN007 BKN220 11/10 A2992 RMK SF5CI2 SLP133=

CYVR;2006-09-30 12:00;METAR CYVR 301200Z 09005KT 15SM BKN008 BKN220 11/10 A2991 RMK SF6CI1 SLP129=

CYVR;2006-09-30 13:00;METAR CYVR 301300Z 05005KT 15SM BKN009 12/10 A2992 RMK ST7 SLP132=

CYVR;2006-09-30 14:00;METAR CYVR 301400Z 06005KT 15SM OVC009 12/10 A2992 RMK ST8 SLP131=

CYVR;2006-09-30 15:00;METAR CYVR 301500Z 10006KT 12SM OVC009 12/10 A2993 RMK ST8 SLP134=

CYVR;2006-09-30 15:10;SPECI CYVR 301510Z 10006KT 8SM -DZ OVC010 11/ RMK ST8=

CYVR;2006-09-30 15:53;SPECI CYVR 301553Z 10004KT 2 1/2SM -DZ BR OVC009 11/ RMK ST8=

CYVR;2006-09-30 16:00;METAR CYVR 301600Z 09004KT 2 1/4SM -DZ BR OVC008 11/10 A2994 RMK ST8 SLP140=

CYVR;2006-09-30 16:45;SPECI CYVR 301645Z 05002KT 3SM BR BKN009 OVC015 11/ RMK ST7SC1=

CYVR;2006-09-30 17:00;METAR CYVR 301700Z 09003KT 3SM BR BKN009 OVC015 11/10 A2996 RMK ST7SC1 SLP144=

CYVR;2006-09-30 17:28;SPECI CYVR 301728Z 04003KT 2 1/2SM -DZ BR FEW005 BKN009 OVC015 12/ RMK SF1ST6SC1=

CYVR;2006-09-30 17:50;SPECI CYVR 301750Z 05007KT 3SM -DZ BR BKN009 OVC020 12/ RMK ST6SC2=

CYVR;2006-09-30 18:00;METAR CYVR 301800Z 08005KT 4SM -DZ BR BKN009 OVC020 12/11 A2997 RMK ST5SC3 VIS N 21/2 SLP150=

CYVR;2006-09-30 18:35;SPECI CYVR 301835Z 10003KT 6SM BR FEW005 SCT009 OVC021 12/ RMK SF1ST3SC5=

CYVR;2006-09-30 19:00;METAR CYVR 301900Z 11003KT 8SM FEW005 FEW009 BKN022 OVC033 13/11 A2998 RMK SF1ST2SC4SC2 SLP152=

CYVR;2006-09-30 20:00;METAR CYVR 302000Z 20003KT 15SM FEW011 BKN018 OVC050 14/11 A2999 RMK ST2SC4SC2 SLP155=

CYVR;2006-09-30 21:00;METAR CYVR 302100Z 24005KT 20SM FEW011 FEW020 OVC060 16/10 A2998 RMK ST1SC1SC6 SLP152=

CYVR;2006-09-30 22:00;METAR CYVR 302200Z 23004KT 20SM FEW013 FEW025 SCT060 BKN230 16/08 A2998 RMK ST1SC1SC2CI2 SLP151=

CYVR;2006-10-01 00:00;METAR CYVR 010000Z 22005KT 20SM FEW040 FEW120 BKN200 17/08 A2997 RMK SC1AC2CI1 SLP150=

CYVR;2006-10-01 01:00;METAR CYVR 010100Z 21005KT 20SM FEW040 SCT060 OVC130 15/08 A2996 RMK SC1SC2AC5 SLP147=

CYVR;2006-10-01 02:00;METAR CYVR 010200Z 15005KT 20SM FEW040 SCT060 BKN120 15/09 A2996 RMK SC1SC2AC2 VIRGA W SLP147=

CYVR;2006-10-01 03:00;METAR CYVR 010300Z 13004KT 20SM FEW040 SCT060 BKN110 14/09 A2997 RMK SC1SC2AC2 SLP149=

CYVR;2006-10-01 04:00;METAR CYVR 010400Z 10004KT 20SM SCT050 BKN081 BKN110 12/09 A2998 RMK SC3AC2AC1 SLP151=

CYVR;2006-10-01 05:00;METAR CYVR 010500Z 09003KT 20SM SCT045 BKN066 BKN080 13/09 A2998 RMK SC3AC2AC1 SLP152=

CYVR;2006-10-01 06:00;METAR CYVR 010600Z 09006KT 20SM SCT045 BKN063 BKN080 13/10 A2998 RMK SC3SC3AC1 SLP153=

CYVR;2006-10-01 07:00;METAR CYVR 010700Z 08005KT 20SM BKN051 BKN060 BKN080 13/10 A2998 RMK SC5SC2AC1 SLP154=

CYVR;2006-10-01 08:00;METAR CYVR 010800Z 10003KT 15SM -SHRA BKN049 OVC060 13/10 A2999 RMK SC6SC2 SLP156=

CYVR;2006-10-01 08:37;SPECI CYVR 010837Z 00000KT 15SM BKN048 OVC060 13/ RMK SC6SC2=

CYVR;2006-10-01 09:00;METAR CYVR 010900Z 00000KT 15SM BKN047 OVC060 13/10 A3000 RMK SC6SC2 SLP158=

CYVR;2006-10-01 10:00;METAR CYVR 011000Z 00000KT 15SM SCT017 BKN046 OVC060 13/10 A3000 RMK SF3SC4SC1 SLP158=

CYVR;2006-10-01 11:00;METAR CYVR 011100Z 31005KT 20SM SCT015 SCT045 11/09 A3000 RMK SF3SC1 SLP158=

CYVR;2006-10-01 12:00;METAR CYVR 011200Z 31004KT 20SM SCT015 SCT040 10/09 A3000 RMK SF3SC1 SLP159=

CYVR;2006-10-01 13:00;METAR CYVR 011300Z 29007KT 20SM FEW015 FEW230 11/10 A3000 RMK SF2CI1 SLP159=

CYVR;2006-10-01 14:00;METAR CYVR 011400Z 33005KT 20SM FEW015 FEW070 09/08 A3001 RMK SF2AC1 SLP162=

CYVR;2006-10-01 15:00;METAR CYVR 011500Z 34005KT 20SM FEW060 FEW120 10/09 A3002 RMK SC2AC1 SLP166=

CYVR;2006-10-01 16:00;METAR CYVR 011600Z 31012KT 20SM FEW017 SCT060 11/09 A3003 RMK SC2SC1 SLP170=

CYVR;2006-10-01 17:00;METAR CYVR 011700Z 31011KT 20SM FEW017 BKN071 13/09 A3004 RMK SC1AC6 SLP173=

CYVR;2006-10-01 18:00;METAR CYVR 011800Z 31013KT 20SM FEW017 BKN070 13/09 A3004 RMK SC1AC6 SLP174=

CYVR;2006-10-01 19:00;METAR CYVR 011900Z 29015KT 20SM FEW020 BKN069 14/09 A3005 RMK SC1AC6 SLP175=

CYVR;2006-10-01 20:00;METAR CYVR 012000Z 31013KT 20SM FEW030 BKN070 14/09 A3005 RMK SC1AC5 SLP176=

CYVR;2006-10-01 21:00;METAR CYVR 012100Z 30012KT 20SM FEW040 FEW090 15/10 A3004 RMK SC1AC1 SLP172=

CYVR;2006-10-01 22:00;METAR CYVR 012200Z 31011KT 20SM FEW100 14/09 A3003 RMK AC1 SLP168=

CYVR;2006-10-01 23:00;METAR CYVR 012300Z 29010KT 20SM FEW040 14/09 A3002 RMK SC1 SLP165=

CYVR;2006-10-02 00:00;METAR CYVR 020000Z 30009KT 20SM FEW050 FEW230 14/09 A3001 RMK SC1CI0 TR SC SLP161=

CYVR;2006-10-02 01:00;METAR CYVR 020100Z 30008KT 20SM FEW050 FEW230 14/09 A3000 RMK SC1CI1 SLP159=

CYVR;2006-10-02 02:00;METAR CYVR 020200Z 30008KT 30SM FEW050 FEW240 11/08 A3000 RMK SC1CI1 SLP159=

CYVR;2006-10-02 03:00;METAR CYVR 020300Z 31009KT 30SM FEW050 FEW240 11/08 A3001 RMK SC1CI1 SLP161=

CYVR;2006-10-02 04:00;METAR CYVR 020400Z 31008KT 30SM FEW240 11/08 A3001 RMK CI2 SLP162=

CYVR;2006-10-02 05:00;METAR CYVR 020500Z 30003KT 30SM SCT240 12/08 A3001 RMK CI2 SLP164=

CYVR;2006-10-02 06:00;METAR CYVR 020600Z 15004KT 30SM FEW240 11/08 A3002 RMK CI1 SLP165=

CYVR;2006-10-02 09:00;METAR CYVR 020900Z 04004KT 30SM FEW011 FEW240 09/07 A3003 RMK SF1CI1 SLP169=

CYVR;2006-10-02 10:00;METAR CYVR 021000Z 02004KT 30SM FEW010 FEW240 09/07 A3004 RMK SF1CI1 SLP171=

CYVR;2006-10-02 11:00;METAR CYVR 021100Z 04002KT 30SM SCT230 09/07 A3003 RMK CI2 SLP170=

CYVR;2006-10-02 12:00;METAR CYVR 021200Z 11002KT 30SM FEW230 08/06 A3004 RMK CI2 SLP172=

CYVR;2006-10-02 13:00;METAR CYVR 021300Z 10002KT 20SM BKN210 08/07 A3005 RMK CI4 SLP177=

CYVR;2006-10-02 14:00;METAR CYVR 021400Z 13002KT 20SM FEW100 BKN210 08/07 A3006 RMK AC1CI2 SLP178=

CYVR;2006-10-02 15:00;METAR CYVR 021500Z 00000KT 30SM FEW120 BKN200 08/06 A3006 RMK AC2CI2 SLP180=

CYVR;2006-10-02 16:00;METAR CYVR 021600Z 00000KT 30SM OVC180 10/08 A3008 RMK AC7 SLP186=

CYVR;2006-10-02 17:00;METAR CYVR 021700Z 00000KT 30SM OVC180 12/08 A3008 RMK AC7 SLP186=

CYVR;2006-10-02 18:00;METAR CYVR 021800Z 28005KT 30SM SCT160 OVC210 13/08 A3008 RMK AC3CI4 SLP187=

CYVR;2006-10-02 19:00;METAR CYVR 021900Z 29010KT 30SM FEW055 FEW150 BKN200 13/08 A3008 RMK CU1AC1CI2 SLP186=

CYVR;2006-10-02 20:00;METAR CYVR 022000Z 31011KT 30SM FEW055 SCT200 13/09 A3008 RMK CU1CI2 SLP186=

CYVR;2006-10-02 21:00;METAR CYVR 022100Z 31010KT 30SM FEW055 SCT200 14/09 A3008 RMK CU1CI1 SLP185=

CYVR;2006-10-02 22:00;METAR CYVR 022200Z 30010KT 30SM FEW055 SCT200 14/08 A3006 RMK CU1CI2 SLP181=

CYVR;2006-10-02 23:00;METAR CYVR 022300Z 30006KT 30SM FEW050 BKN210 15/09 A3006 RMK CU1CI2 SLP181=

CYVR;2006-10-03 00:00;METAR CYVR 030000Z 30004KT 30SM FEW050 SCT210 14/09 A3006 RMK CU1CI2 SLP180=

CYVR;2006-10-03 01:00;METAR CYVR 030100Z 30003KT 30SM FEW050 SCT210 14/09 A3006 RMK CU1CI2 SLP180=

CYVR;2006-10-03 02:00;METAR CYVR 030200Z 00000KT 30SM BKN210 13/09 A3006 RMK CS2 SLP181=

CYVR;2006-10-03 03:00;METAR CYVR 030300Z 18002KT 20SM BKN220 13/09 A3008 RMK CS2 SLP186=

CYVR;2006-10-03 04:00;METAR CYVR 030400Z 16002KT 20SM FEW190 BKN220 11/09 A3009 RMK AC0CS2 SLP188=

CYVR;2006-10-03 05:00;METAR CYVR 030500Z 15002KT 20SM FEW060 BKN210 11/09 A3009 RMK SC1CS2 SLP190=

CYVR;2006-10-03 07:00;METAR CYVR 030700Z 05003KT 20SM SCT061 BKN070 11/09 A3010 RMK SC2AC2 SLP194=

CYVR;2006-10-03 08:00;METAR CYVR 030800Z 15002KT 20SM SCT072 BKN200 10/07 A3011 RMK AC2CS2 SLP197=

CYVR;2006-10-03 09:00;METAR CYVR 030900Z 00000KT 20SM FEW072 BKN180 10/07 A3012 RMK AC2AS2 SLP199=

CYVR;2006-10-03 10:00;METAR CYVR 031000Z 10002KT 20SM FEW050 BKN072 BKN180 10/07 A3012 RMK SC2AC2AS1 SLP200=

CYVR;2006-10-03 11:00;METAR CYVR 031100Z 11002KT 20SM FEW010 BKN073 BKN180 10/08 A3011 RMK SF1AC5AS1 SLP198=

CYVR;2006-10-03 12:00;METAR CYVR 031200Z 08004KT 20SM FEW010 SCT072 OVC140 09/08 A3012 RMK SF1AC3AS3 SLP199=

CYVR;2006-10-03 13:00;METAR CYVR 031300Z 10002KT 15SM FEW017 SCT071 BKN087 OVC160 09/08 A3013 RMK SF1AC3AC2AS1 SLP202=

CYVR;2006-10-03 14:00;METAR CYVR 031400Z 00000KT 15SM BKN016 BKN019 OVC065 10/09 A3014 RMK SC5SC2SC2 SLP205=

CYVR;2006-10-03 14:19;SPECI CYVR 031419Z 00000KT 15SM BKN014 OVC019 10/ RMK SC6SC2=

CYVR;2006-10-03 14:25;SPECI CYVR 031425Z 00000KT 15SM SCT014 OVC019 10/ RMK SC4SC4=

CYVR;2006-10-03 15:00;METAR CYVR 031500Z 00000KT 15SM FEW015 BKN021 OVC030 11/08 A3015 RMK SC2SC4SC1 SLP209=

CYVR;2006-10-03 16:00;METAR CYVR 031600Z 01003KT 20SM BKN021 BKN082 12/09 A3016 RMK SC5AC2 SLP212=

CYVR;2006-10-03 17:00;METAR CYVR 031700Z 30008KT 20SM FEW015 SCT021 BKN085 12/09 A3016 RMK CF2SC2AC2 SLP214=

CYVR;2006-10-03 18:00;METAR CYVR 031800Z 30008KT 20SM SCT021 BKN085 12/09 A3017 RMK SC2AC1 SLP215=

CYVR;2006-10-03 19:00;METAR CYVR 031900Z 31009KT 20SM BKN019 BKN085 13/09 A3017 RMK CU3AC1 SLP216=

CYVR;2006-10-03 20:00;METAR CYVR 032000Z 30008KT 20SM FEW020 SCT085 13/09 A3017 RMK CU1AC1 SLP215=

CYVR;2006-10-03 21:00;METAR CYVR 032100Z 31009KT 20SM FEW040 FEW085 SCT220 14/09 A3016 RMK CU0AC1CI1 SLP212=

CYVR;2006-10-03 22:00;METAR CYVR 032200Z 31010KT 20SM FEW020 SCT220 14/09 A3014 RMK CF0CI2 SLP207=

CYVR;2006-10-03 23:00;METAR CYVR 032300Z 31011KT 20SM FEW040 FEW220 14/09 A3013 RMK CF0CI1 SLP204=

CYVR;2006-10-04 00:00;METAR CYVR 040000Z 31009KT 20SM FEW040 FEW220 14/09 A3013 RMK CU0CI0 SLP202=

CYVR;2006-10-04 01:00;METAR CYVR 040100Z 30006KT 30SM FEW085 FEW220 13/09 A3013 RMK AC0CI0 SLP202=

CYVR;2006-10-04 02:00;METAR CYVR 040200Z 31005KT 30SM FEW085 FEW220 11/08 A3013 RMK AC0CI0 SLP204=

CYVR;2006-10-04 03:00;METAR CYVR 040300Z 36002KT 20SM FEW085 SCT220 12/09 A3014 RMK AC1CI1 SLP208=

CYVR;2006-10-04 04:00;METAR CYVR 040400Z 00000KT 20SM FEW090 SCT220 12/09 A3015 RMK AC2CI1 SLP209=

CYVR;2006-10-04 05:00;METAR CYVR 040500Z 00000KT 20SM SCT100 BKN200 10/08 A3014 RMK AC3CI0 SLP207=

CYVR;2006-10-04 06:00;METAR CYVR 040600Z 36004KT 20SM FEW100 SCT120 09/07 A3014 RMK AC2AC2 SLP208=

CYVR;2006-10-04 07:00;METAR CYVR 040700Z 01002KT 20SM FEW085 FEW120 10/08 A3014 RMK AC1AC0 SLP208=

CYVR;2006-10-04 08:00;METAR CYVR 040800Z 29008KT 15SM FEW120 10/09 A3015 RMK AC0 SLP209=

CYVR;2006-10-04 09:00;METAR CYVR 040900Z 31011KT 15SM FEW180 11/09 A3014 RMK AC0 SLP207=

CYVR;2006-10-04 10:00;METAR CYVR 041000Z 31016KT 15SM FEW010 FEW200 11/09 A3014 RMK SF1CI0 SLP207=

CYVR;2006-10-04 11:00;METAR CYVR 041100Z 30018KT 15SM FEW010 FEW200 11/09 A3013 RMK SF0CI0 SLP203=

CYVR;2006-10-04 12:00;METAR CYVR 041200Z 31018KT 15SM FEW200 11/09 A3013 RMK CI0 SLP202=

CYVR;2006-10-04 13:00;METAR CYVR 041300Z 31017KT 15SM FEW200 11/09 A3012 RMK CI1 SLP201=

CYVR;2006-10-04 14:00;METAR CYVR 041400Z 31017G22KT 20SM FEW220 10/09 A3012 RMK CI0 SLP199=

CYVR;2006-10-04 15:00;METAR CYVR 041500Z 30016G22KT 20SM FEW220 11/09 A3013 RMK CI0 SLP202=

CYVR;2006-10-04 16:00;METAR CYVR 041600Z 30017KT 20SM SKC 12/10 A3013 RMK SLP204=

CYVR;2006-10-04 17:00;METAR CYVR 041700Z 31017KT 30SM SKC 12/09 A3014 RMK SLP205=

CYVR;2006-10-04 18:00;METAR CYVR 041800Z 30019KT 30SM SKC 13/09 A3013 RMK SLP204=

CYVR;2006-10-04 19:00;METAR CYVR 041900Z 31020KT 30SM SKC 14/10 A3012 RMK SLP200=

CYVR;2006-10-04 20:00;METAR CYVR 042000Z 30019G25KT 30SM SKC 15/10 A3010 RMK SLP193=

CYVR;2006-10-04 21:00;METAR CYVR 042100Z 30016G25KT 30SM SKC 14/10 A3009 RMK SLP189=

CYVR;2006-10-04 22:00;METAR CYVR 042200Z 31014KT 30SM SKC 15/09 A3007 RMK SLP182=

CYVR;2006-10-04 23:00;METAR CYVR 042300Z 31012KT 30SM FEW100 15/09 A3005 RMK AS1 TR AS SLP175=

CYVR;2006-10-05 00:00;METAR CYVR 050000Z 31011KT 30SM FEW220 15/09 A3002 RMK CI0 SLP166=

CYVR;2006-10-05 01:00;METAR CYVR 050100Z 31010KT 30SM FEW220 14/09 A3001 RMK CI0 SLP162=

CYVR;2006-10-05 02:00;METAR CYVR 050200Z 32009KT 30SM FEW220 13/09 A3000 RMK CI0 SLP159=

CYVR;2006-10-05 03:00;METAR CYVR 050300Z 33011KT 30SM FEW220 13/09 A3000 RMK CI0 SLP158=

CYVR;2006-10-05 04:00;METAR CYVR 050400Z 33015KT 30SM FEW200 13/09 A3001 RMK CI0 SLP161=

CYVR;2006-10-05 05:00;METAR CYVR 050500Z 31008KT 30SM FEW200 12/08 A3001 RMK CI0 SLP162=

CYVR;2006-10-05 06:00;METAR CYVR 050600Z 34005KT 30SM FEW200 12/08 A3001 RMK CI0 SLP162=

CYVR;2006-10-05 07:00;METAR CYVR 050700Z 00000KT 20SM FEW200 11/08 A3001 RMK CI0 SLP164=

CYVR;2006-10-05 08:00;METAR CYVR 050800Z 36005KT 20SM FEW200 09/07 A3002 RMK CI0 SLP167=

CYVR;2006-10-05 09:00;METAR CYVR 050900Z 34005KT 20SM FEW220 09/07 A3002 RMK CI0 SLP166=

CYVR;2006-10-05 10:00;METAR CYVR 051000Z 33005KT 20SM FEW220 09/07 A3002 RMK CI0 SLP165=

CYVR;2006-10-05 11:00;METAR CYVR 051100Z 31005KT 20SM FEW220 10/09 A3001 RMK CI0 SLP163=

CYVR;2006-10-05 12:00;METAR CYVR 051200Z 10004KT 20SM FEW200 07/06 A3001 RMK CI1 SLP161=

CYVR;2006-10-05 13:00;METAR CYVR 051300Z 36004KT 20SM FEW200 07/06 A3000 RMK CI1 SLP160=

CYVR;2006-10-05 13:19;SPECI CYVR 051319Z 33004KT 20SM R26R/4000V6000FT/D FEW200 08/ RMK CI1=

CYVR;2006-10-05 14:00;METAR CYVR 051400Z 32004KT 30SM R26R/2600V6000FT/D FEW220 08/06 A3001 RMK CI0 HZ SLP162=

CYVR;2006-10-05 14:39;SPECI CYVR 051439Z 03003KT 30SM FEW220 09/ RMK CI0=

CYVR;2006-10-05 14:57;SPECI CYVR 051457Z 00000KT 30SM R26R/4500V6000FT/U FEW220 08/ RMK CI0=

CYVR;2006-10-05 15:00;METAR CYVR 051500Z 00000KT 30SM FEW220 08/06 A3000 RMK CI0 SLP160=

CYVR;2006-10-05 16:00;METAR CYVR 051600Z 00000KT 30SM SCT220 12/08 A3001 RMK CI1 SLP162=

CYVR;2006-10-05 17:00;METAR CYVR 051700Z 11004KT 30SM SCT220 14/09 A3001 RMK CI2 SLP163=

CYVR;2006-10-05 18:00;METAR CYVR 051800Z 32004KT 30SM FEW120 BKN220 14/10 A2999 RMK AC0CI2 SLP157=

CYVR;2006-10-05 19:00;METAR CYVR 051900Z 30010KT 30SM FEW120 BKN220 15/09 A2998 RMK AC1CI2 TR AC SLP152=

CYVR;2006-10-05 20:00;METAR CYVR 052000Z 30007KT 30SM FEW120 BKN220 14/09 A2997 RMK AC1CI4 SLP149=

CYVR;2006-10-05 21:00;METAR CYVR 052100Z 30007KT 30SM FEW120 BKN220 15/08 A2996 RMK AC1CI2 SLP145=

CYVR;2006-10-05 22:00;METAR CYVR 052200Z 32005KT 30SM BKN180 BKN220 14/09 A2995 RMK AC5CI1 SLP141=

CYVR;2006-10-05 23:00;METAR CYVR 052300Z 29004KT 30SM BKN150 BKN180 OVC220 14/08 A2994 RMK AC5AC2CI1 SLP138=

CYVR;2006-10-06 00:00;METAR CYVR 060000Z 28007KT 30SM SCT160 BKN180 OVC220 13/09 A2994 RMK AC4AC2CI2 SLP138=

CYVR;2006-10-06 01:00;METAR CYVR 060100Z 29005KT 30SM SCT130 BKN150 OVC180 12/09 A2993 RMK AC3AC3AC2 SLP137=

CYVR;2006-10-06 02:00;METAR CYVR 060200Z 31004KT 20SM BKN110 OVC140 12/09 A2993 RMK AC6AC2 SLP137=

CYVR;2006-10-06 03:00;METAR CYVR 060300Z 31005KT 20SM BKN100 OVC150 12/09 A2995 RMK AC6AC2 SLP141=

CYVR;2006-10-06 04:00;METAR CYVR 060400Z 32004KT 20SM BKN110 OVC130 12/09 A2995 RMK AC6AC2 SLP141=

CYVR;2006-10-06 05:00;METAR CYVR 060500Z 28002KT 20SM SCT100 BKN120 OVC160 12/09 A2995 RMK AC3AC2AC2 SLP143=

CYVR;2006-10-06 06:00;METAR CYVR 060600Z 36002KT 20SM BKN110 BKN140 BKN220 11/08 A2995 RMK AC4AC2CI0 SLP143=

CYVR;2006-10-06 07:00;METAR CYVR 060700Z 00000KT 20SM BKN110 BKN140 11/09 A2996 RMK AC5AC2 SLP147=

CYVR;2006-10-06 08:00;METAR CYVR 060800Z 29005KT 20SM BKN100 OVC120 12/10 A2998 RMK AC6AC2 SLP151=

CYVR;2006-10-06 09:00;METAR CYVR 060900Z 32006KT 20SM -SHRA SCT086 OVC100 11/10 A2999 RMK AC4AC4 PCPN VRY LGT SLP155=

CYVR;2006-10-06 09:23;SPECI CYVR 060923Z 31008KT 20SM SCT086 BKN100 OVC150 11/ RMK AC3AC3AC2=

CYVR;2006-10-06 10:00;METAR CYVR 061000Z 30006KT 20SM SCT095 BKN120 OVC150 11/10 A3000 RMK AC3AC2AC2 SLP159=

CYVR;2006-10-06 10:27;SPECI CYVR 061027Z 29005KT 20SM -SHRA BKN090 OVC120 12/ RMK AS6AC2=

CYVR;2006-10-06 10:45;SPECI CYVR 061045Z 29005KT 20SM SCT087 OVC120 12/ RMK AS4AC4=

CYVR;2006-10-06 11:00;METAR CYVR 061100Z 29006KT 20SM -SHRA FEW043 BKN093 OVC160 11/10 A3001 RMK SF1AS5AC2 PCPN VRY LGT SLP162=

CYVR;2006-10-06 11:30;SPECI CYVR 061130Z 29009KT 20SM FEW018 BKN091 OVC160 11/ RMK SF1AS5AC2=

CYVR;2006-10-06 12:00;METAR CYVR 061200Z 32008KT 15SM -SHRA FEW018 BKN081 OVC100 11/10 A3001 RMK SF1AS5AC2 PCPN VRY LGT SLP162=

CYVR;2006-10-06 12:31;SPECI CYVR 061231Z 30009KT 15SM SCT011 BKN079 OVC100 12/ RMK SF3AC3AC2=

CYVR;2006-10-06 13:00;METAR CYVR 061300Z 31010KT 15SM FEW011 BKN080 OVC100 11/10 A3003 RMK SF2AS5AC2 SLP168=

CYVR;2006-10-06 13:38;SPECI CYVR 061338Z 32009KT 15SM FEW009 BKN077 BKN100 11/ RMK SF2AC4AC1=

CYVR;2006-10-06 14:00;METAR CYVR 061400Z 30007KT 15SM FEW010 BKN078 BKN100 11/09 A3004 RMK SF1AC6AC1 SLP173=

CYVR;2006-10-06 15:00;METAR CYVR 061500Z 31011KT 20SM SCT014 BKN074 BKN110 12/09 A3006 RMK SC3AC3AC1 SHS NE SLP181=

CYVR;2006-10-06 15:28;SPECI CYVR 061528Z 31011KT 20SM SCT013 BKN025 BKN075 12/ RMK SC4SC1AC2 LO CLD AND SHS E OVR APCH=

CYVR;2006-10-06 16:00;METAR CYVR 061600Z 31010KT 20SM FEW012 SCT023 BKN078 12/09 A3008 RMK SC2SC2AC1 VIS N - E 10 DUE LO CLD AND SHS SLP185=

CYVR;2006-10-06 17:00;METAR CYVR 061700Z 30011KT 20SM FEW013 BKN022 BKN080 12/09 A3009 RMK SC2SC4AC1 VIS E 10 SLP190=

CYVR;2006-10-06 18:00;METAR CYVR 061800Z 30013KT 20SM FEW014 BKN025 BKN080 13/09 A3010 RMK SC1SC5AC1 VIS LWR E SLP194=

CYVR;2006-10-06 19:00;METAR CYVR 061900Z 30010KT 20SM FEW017 SCT027 13/08 A3011 RMK SC1SC2 LO CLD E OVR APCH SLP196=

CYVR;2006-10-06 20:00;METAR CYVR 062000Z 29009KT 30SM FEW026 SCT080 14/08 A3011 RMK SC2AC1 VIS E 10 SLP195=

CYVR;2006-10-06 21:00;METAR CYVR 062100Z 28009KT 30SM FEW028 FEW080 FEW200 14/08 A3010 RMK SC1AC1CI1 VIS LWR E SLP193=

CYVR;2006-10-06 22:00;METAR CYVR 062200Z 29009KT 30SM FEW030 FEW080 14/08 A3009 RMK SC1AC1 SLP190=

CYVR;2006-10-06 23:00;METAR CYVR 062300Z 29006KT 30SM FEW040 FEW075 14/08 A3009 RMK CU1AC1 SLP189=

CYVR;2006-10-07 00:00;METAR CYVR 070000Z 28004KT 30SM FEW040 FEW080 14/08 A3009 RMK CU1AC1 SLP190=

CYVR;2006-10-07 01:00;METAR CYVR 070100Z 28008KT 30SM FEW040 FEW080 13/07 A3009 RMK CU1AC1 SLP190=

CYVR;2006-10-07 02:00;METAR CYVR 070200Z 29013KT 30SM FEW040 FEW070 12/07 A3009 RMK SC1AC1 SLP191=

CYVR;2006-10-07 03:00;METAR CYVR 070300Z 30016KT 30SM FEW080 12/07 A3011 RMK AC1 SLP197=

CYVR;2006-10-07 04:00;METAR CYVR 070400Z 31008KT 30SM FEW080 FEW200 12/08 A3013 RMK AC1CI0 SLP203=

CYVR;2006-10-07 05:00;METAR CYVR 070500Z 28010KT 30SM FEW080 FEW200 11/07 A3014 RMK AC1CI0 SLP207=

CYVR;2006-10-07 06:00;METAR CYVR 070600Z 29011KT 30SM FEW080 FEW200 11/08 A3015 RMK AC1CI0 SLP211=

CYVR;2006-10-07 07:00;METAR CYVR 070700Z 29008KT 20SM FEW080 FEW200 10/07 A3017 RMK AC1CI0 SLP216=

CYVR;2006-10-07 08:00;METAR CYVR 070800Z 09002KT 20SM FEW020 FEW200 10/07 A3018 RMK SC1CI0 SLP219=

CYVR;2006-10-07 09:00;METAR CYVR 070900Z 09005KT 20SM FEW020 FEW200 07/06 A3019 RMK SC1CI1 SLP224=

CYVR;2006-10-07 10:00;METAR CYVR 071000Z 34004KT 20SM BKN076 08/06 A3021 RMK AC6 SLP229=

CYVR;2006-10-07 11:00;METAR CYVR 071100Z 30004KT 20SM FEW077 FEW200 07/05 A3022 RMK AC1CI1 SLP232=

CYVR;2006-10-07 12:00;METAR CYVR 071200Z 34005KT 20SM FEW075 FEW200 07/06 A3023 RMK AC1CI1 SLP236=

CYVR;2006-10-07 13:00;METAR CYVR 071300Z 31011KT 20SM SCT220 08/07 A3024 RMK CI2 SLP240=

CYVR;2006-10-07 14:00;METAR CYVR 071400Z 31011KT 30SM FEW075 FEW220 09/07 A3025 RMK AC1CI1 SLP244=

CYVR;2006-10-07 15:00;METAR CYVR 071500Z 31008KT 30SM FEW230 09/08 A3027 RMK CI2 SLP252=

CYVR;2006-10-07 16:00;METAR CYVR 071600Z 02005KT 30SM FEW050 SCT200 11/08 A3029 RMK CF1CI1 TR CF SLP258=

CYVR;2006-10-07 17:00;METAR CYVR 071700Z 30008KT 30SM FEW050 FEW220 12/09 A3030 RMK CU1CI1 SLP262=

CYVR;2006-10-07 18:00;METAR CYVR 071800Z 30007KT 30SM FEW050 SCT220 13/08 A3031 RMK CU1CI1 SLP265=

CYVR;2006-10-07 19:00;METAR CYVR 071900Z 29011KT 30SM FEW050 SCT240 13/08 A3032 RMK CU1CI1 SLP268=

CYVR;2006-10-07 20:00;METAR CYVR 072000Z 30010KT 30SM FEW050 SCT230 14/07 A3033 RMK CU1CI2 SLP270=

CYVR;2006-10-07 21:00;METAR CYVR 072100Z 28008KT 30SM FEW050 BKN230 14/09 A3032 RMK CU1CI2 SLP266=

CYVR;2006-10-07 22:00;METAR CYVR 072200Z 30006KT 30SM FEW050 BKN220 14/08 A3030 RMK CU1CI2 SLP262=

CYVR;2006-10-07 23:00;METAR CYVR 072300Z 29005KT 20SM FEW050 BKN210 14/07 A3030 RMK CU1CS5 SLP261=

CYVR;2006-10-08 00:00;METAR CYVR 080000Z 00000KT 20SM BKN140 OVC210 14/07 A3029 RMK AS6CS2 SLP258=

CYVR;2006-10-08 01:00;METAR CYVR 080100Z 00000KT 20SM OVC120 15/03 A3028 RMK AS8 SLP255=

CYVR;2006-10-08 02:00;METAR CYVR 080200Z 18005KT 20SM FEW090 OVC130 14/05 A3028 RMK AC2AS6 SLP255=

CYVR;2006-10-08 03:00;METAR CYVR 080300Z 12005KT 20SM SCT090 OVC140 13/06 A3029 RMK AC4AS4 SLP256=

CYVR;2006-10-08 04:00;METAR CYVR 080400Z 09007KT 20SM SCT060 OVC080 12/08 A3030 RMK SC3AC5 SLP261=

CYVR;2006-10-08 05:00;METAR CYVR 080500Z 10006KT 20SM SCT063 OVC100 12/08 A3030 RMK SC3AC5 SLP262=

CYVR;2006-10-08 06:44;SPECI CYVR 080644Z 11006KT 15SM -SHRA SCT050 OVC067 12/ RMK SC3AC5=

CYVR;2006-10-08 07:00;METAR CYVR 080700Z 11006KT 15SM -SHRA SCT054 OVC067 12/08 A3031 RMK SC3AC5 SLP263=

CYVR;2006-10-08 08:00;METAR CYVR 080800Z 12007KT 15SM -SHRA SCT058 BKN071 OVC098 11/08 A3030 RMK SC3AC2AC3 SLP261=

CYVR;2006-10-08 09:00;METAR CYVR 080900Z 12008KT 15SM -SHRA BKN057 BKN080 OVC120 11/08 A3030 RMK SC5AC2AC2 SLP260=

CYVR;2006-10-08 10:00;METAR CYVR 081000Z 09008KT 12SM -SHRA BKN040 OVC080 11/09 A3030 RMK SC6AC2 SLP262=

CYVR;2006-10-08 11:00;METAR CYVR 081100Z 10006KT 12SM -SHRA SCT010 OVC034 10/09 A3030 RMK ST3SC5 SLP262=

CYVR;2006-10-08 11:17;SPECI CYVR 081117Z 10008KT 10SM -SHRA BKN007 BKN030 OVC080 10/ RMK ST5SC2AC2=

CYVR;2006-10-08 11:32;SPECI CYVR 081132Z 10010KT 6SM -RA BR FEW004 BKN012 OVC025 10/ RMK SF2SC4SC2=

CYVR;2006-10-08 11:52;SPECI CYVR 081152Z 10007KT 4SM -RA BR SCT011 BKN023 OVC033 10/ RMK ST3SC2SC3=

CYVR;2006-10-08 12:00;METAR CYVR 081200Z 10006KT 6SM -RA BR SCT011 BKN023 OVC033 10/09 A3030 RMK ST3SC2SC3 SLP261=

CYVR;2006-10-08 13:00;METAR CYVR 081300Z 09004KT 6SM -RA BR SCT012 BKN025 OVC037 10/09 A3030 RMK SF3SC2SC2 SLP260=

CYVR;2006-10-08 13:27;SPECI CYVR 081327Z 08005KT 8SM SCT012 BKN029 OVC037 10/ RMK SF3SC3SC2=

CYVR;2006-10-08 13:42;SPECI CYVR 081342Z 06005KT 6SM -SHRA BR SCT011 BKN028 OVC037 10/ RMK SF3SC4SC1=

CYVR;2006-10-08 14:00;METAR CYVR 081400Z 07003KT 8SM -SHRA SCT011 BKN028 OVC035 10/09 A3030 RMK SF3SC3SC2 SLP262=

CYVR;2006-10-08 15:00;METAR CYVR 081500Z 07004KT 8SM -SHRA FEW012 BKN029 OVC038 10/09 A3033 RMK SF2SC5SC1 SLP270=

CYVR;2006-10-08 16:00;METAR CYVR 081600Z 07008KT 8SM -SHRA FEW007 SCT020 OVC033 10/09 A3035 RMK SF2SC2SC4 SLP276=

CYVR;2006-10-08 16:45;SPECI CYVR 081645Z 08007KT 12SM FEW007 SCT015 OVC037 10/ RMK SF2SC2SC4=

CYVR;2006-10-08 17:00;METAR CYVR 081700Z 09007KT 12SM FEW008 SCT017 OVC035 11/09 A3035 RMK SF2SC2SC4 SLP277=

CYVR;2006-10-08 18:00;METAR CYVR 081800Z 08005KT 12SM FEW009 SCT020 OVC032 11/09 A3036 RMK SF2SC2SC5 SLP282=

CYVR;2006-10-08 19:00;METAR CYVR 081900Z 08002KT 15SM FEW010 SCT035 BKN060 13/10 A3036 RMK SC1SC2SC3 SLP281=

CYVR;2006-10-08 20:00;METAR CYVR 082000Z 31006KT 20SM FEW015 FEW040 SCT060 13/10 A3036 RMK SC1CU2SC1 SLP281=

CYVR;2006-10-08 21:00;METAR CYVR 082100Z 29010KT 20SM FEW020 FEW040 14/10 A3035 RMK SC1CU2 SLP279=

CYVR;2006-10-08 22:00;METAR CYVR 082200Z 29011KT 30SM FEW030 FEW040 13/09 A3035 RMK SC1CU1 SLP278=

CYVR;2006-10-08 23:00;METAR CYVR 082300Z 29013KT 30SM FEW040 13/09 A3035 RMK CU1 SLP276=

CYVR;2006-10-09 00:00;METAR CYVR 090000Z 30012KT 30SM FEW040 13/09 A3034 RMK SC1 SLP275=

CYVR;2006-10-09 01:00;METAR CYVR 090100Z 31009KT 30SM FEW040 12/09 A3034 RMK SC1 SLP275=

CYVR;2006-10-09 02:00;METAR CYVR 090200Z 31009KT 30SM SKC 11/09 A3035 RMK SLP276=

CYVR;2006-10-09 03:00;METAR CYVR 090300Z 31010KT 30SM SKC 12/09 A3035 RMK SLP279=

CYVR;2006-10-09 04:00;METAR CYVR 090400Z 31012KT 30SM SKC 11/10 A3036 RMK SLP281=

CYVR;2006-10-09 05:00;METAR CYVR 090500Z 31009KT 30SM SKC 11/09 A3037 RMK SLP283=

CYVR;2006-10-09 06:00;METAR CYVR 090600Z 34006KT 30SM SKC 10/08 A3037 RMK SLP286=

CYVR;2006-10-09 07:00;METAR CYVR 090700Z 33003KT 20SM SKC 10/09 A3039 RMK SLP292=

CYVR;2006-10-09 08:00;METAR CYVR 090800Z 32009KT 20SM SKC 10/09 A3040 RMK SLP296=

CYVR;2006-10-09 09:00;METAR CYVR 090900Z 29004KT 20SM SKC 09/08 A3041 RMK SLP298=

CYVR;2006-10-09 10:00;METAR CYVR 091000Z 33005KT 20SM R26R/2200FT/N SKC 08/07 A3043 RMK SLP304=

CYVR;2006-10-09 11:00;METAR CYVR 091100Z 31008KT 20SM SKC 07/07 A3043 RMK SLP304=

CYVR;2006-10-09 12:00;METAR CYVR 091200Z 00000KT 20SM SKC 09/08 A3043 RMK SLP305=

CYVR;2006-10-09 13:00;METAR CYVR 091300Z 30007KT 20SM R26R/2800V5000FT/N SKC 07/06 A3043 RMK SLP305=

CYVR;2006-10-09 14:00;METAR CYVR 091400Z 31010KT 30SM R26R/3000VP6000FT/D MIFG FEW220 07/06 A3044 RMK CI0 SLP309=

CYVR;2006-10-09 14:23;SPECI CYVR 091423Z 31012KT 30SM MIFG FEW008 SCT220 09/ RMK SF1CI1 VIS SW - W 5 DUE FG BNK OVR GASTR=

CYVR;2006-10-09 14:46;SPECI CYVR 091446Z 31011KT 1SM BR BKN001 BKN220 09/ RMK FG5SF2CI1 VIS NW 15=

CYVR;2006-10-09 15:00;METAR CYVR 091500Z 30010KT 15SM R26L/3500VP6000FT/U R26R/2800VP6000FT/U PRFG FEW002 BKN220 09/09 A3044 RMK SF2CI2 VIS E - SE 2 SLP309=

CYVR;2006-10-09 16:00;METAR CYVR 091600Z 31011KT 20SM FEW007 BKN220 10/09 A3045 RMK SF1CI2 LO CLD OVR GASTR SLP312=

CYVR;2006-10-09 17:00;METAR CYVR 091700Z 31009KT 20SM FEW008 BKN220 11/10 A3045 RMK SC1CI2 SLP312=

CYVR;2006-10-09 18:00;METAR CYVR 091800Z 30012KT 20SM FEW009 BKN240 12/10 A3045 RMK SC1CI2 SLP310=

CYVR;2006-10-09 19:00;METAR CYVR 091900Z 30012KT 30SM FEW010 BKN240 12/10 A3044 RMK SC1CI2 SLP307=

CYVR;2006-10-09 20:00;METAR CYVR 092000Z 30012KT 30SM FEW012 FEW240 13/10 A3042 RMK SC1CI1 SLP301=

CYVR;2006-10-09 21:00;METAR CYVR 092100Z 31010KT 30SM FEW010 SCT240 12/10 A3040 RMK SC1CI2 VIS W 5 DUE FG BNK AND LO CLD SLP293=

CYVR;2006-10-09 22:00;METAR CYVR 092200Z 30012KT 30SM FEW010 FEW240 13/10 A3036 RMK SF1CI1 VIS SW - NW 4 DUE FG BNK OVR GASTR SLP282=

CYVR;2006-10-09 23:00;METAR CYVR 092300Z 31010KT 30SM FEW007 FEW240 12/10 A3034 RMK SF1CI1 LO CLD OVR GASTR SLP274=

CYVR;2006-10-10 00:00;METAR CYVR 100000Z 30008KT 30SM SCT230 13/10 A3032 RMK CI1 SLP268=

CYVR;2006-10-10 01:00;METAR CYVR 100100Z 30008KT 30SM SCT220 12/10 A3030 RMK CI1 SLP262=

CYVR;2006-10-10 02:00;METAR CYVR 100200Z 31007KT 30SM SCT220 10/09 A3030 RMK CI1 SLP259=

CYVR;2006-10-10 03:00;METAR CYVR 100300Z 32006KT 30SM SCT220 10/09 A3028 RMK CI2 SLP254=

CYVR;2006-10-10 04:00;METAR CYVR 100400Z 33002KT 30SM SCT220 10/09 A3029 RMK CI2 SLP257=

CYVR;2006-10-10 05:00;METAR CYVR 100500Z 02003KT 30SM SCT220 09/08 A3028 RMK CI2 TWR REP MIFG N OF ARPT SLP255=

CYVR;2006-10-10 06:00;METAR CYVR 100600Z 36004KT 30SM FEW220 09/08 A3029 RMK CI1 SLP256=

CYVR;2006-10-10 07:00;METAR CYVR 100700Z 00000KT 20SM FEW220 08/07 A3027 RMK CI1 SLP252=

CYVR;2006-10-10 08:00;METAR CYVR 100800Z 00000KT 20SM FEW220 07/07 A3027 RMK CI1 SLP252=

CYVR;2006-10-10 09:00;METAR CYVR 100900Z 12002KT 20SM FEW220 07/07 A3027 RMK CI1 SLP250=

CYVR;2006-10-10 10:00;METAR CYVR 101000Z 00000KT 20SM FEW220 07/06 A3026 RMK CI1 SLP246=

CYVR;2006-10-10 11:00;METAR CYVR 101100Z 00000KT 20SM FEW220 07/06 A3025 RMK CI1 SLP243=

CYVR;2006-10-10 12:00;METAR CYVR 101200Z 08002KT 20SM FEW220 06/06 A3024 RMK CI1 SLP241=

CYVR;2006-10-10 13:00;METAR CYVR 101300Z 11003KT 20SM FEW220 06/06 A3024 RMK CI1 SLP240=

CYVR;2006-10-10 13:23;SPECI CYVR 101323Z 13003KT 20SM MIFG FEW220 06/ RMK CI0=

CYVR;2006-10-10 14:00;METAR CYVR 101400Z 00000KT 20SM MIFG FEW220 07/06 A3024 RMK CI0 SLP239=

CYVR;2006-10-10 15:00;METAR CYVR 101500Z 00000KT 20SM FEW180 FEW220 07/07 A3023 RMK AS0CI1 SLP237=

CYVR;2006-10-10 16:00;METAR CYVR 101600Z 22002KT 20SM FEW180 SCT220 09/08 A3024 RMK AS1CI1 SLP239=

CYVR;2006-10-10 17:00;METAR CYVR 101700Z 31002KT 20SM FEW180 SCT220 11/08 A3024 RMK AS1CI1 SLP239=

CYVR;2006-10-10 18:00;METAR CYVR 101800Z 25004KT 30SM BKN180 BKN220 13/07 A3023 RMK AS2CI1 SLP238=

CYVR;2006-10-10 19:00;METAR CYVR 101900Z 30005KT 30SM BKN180 BKN220 14/09 A3022 RMK AS2CI0 HZ SLP234=

CYVR;2006-10-10 20:00;METAR CYVR 102000Z 30007KT 30SM SCT180 BKN220 14/07 A3020 RMK AS1CI1 HZ SLP228=

CYVR;2006-10-10 21:00;METAR CYVR 102100Z 29008KT 30SM FEW180 BKN220 14/09 A3019 RMK AS0CI1 HZ SLP222=

CYVR;2006-10-10 22:00;METAR CYVR 102200Z 30008KT 30SM SCT220 14/10 A3017 RMK CI0 HZ SLP216=

CYVR;2006-10-10 23:00;METAR CYVR 102300Z 28006KT 30SM FEW180 FEW220 15/09 A3016 RMK AC0CI0 SLP213=

CYVR;2006-10-11 00:00;METAR CYVR 110000Z 26005KT 30SM SCT220 14/10 A3015 RMK CI0 SLP209=

CYVR;2006-10-11 01:00;METAR CYVR 110100Z 28004KT 30SM FEW220 13/10 A3014 RMK CI0 SLP207=

CYVR;2006-10-11 02:00;METAR CYVR 110200Z 28004KT 30SM FEW220 11/10 A3013 RMK CI0 SLP204=

CYVR;2006-10-11 03:00;METAR CYVR 110300Z 00000KT 30SM FEW220 12/10 A3013 RMK CI0 SLP204=

CYVR;2006-10-11 04:00;METAR CYVR 110400Z 17004KT 30SM FEW220 11/10 A3014 RMK CI0 SLP205=

CYVR;2006-10-11 05:00;METAR CYVR 110500Z 11003KT 20SM FEW220 10/09 A3015 RMK CI0 SLP210=

CYVR;2006-10-11 05:38;SPECI CYVR 110538Z 00000KT 20SM R26R/3000V6000FT/D MIFG FEW220 10/ RMK CI0=

CYVR;2006-10-11 06:00;METAR CYVR 110600Z 00000KT 20SM MIFG FEW220 09/09 A3015 RMK CI0 SLP211=

CYVR;2006-10-11 06:19;SPECI CYVR 110619Z 00000KT 20SM R26R/4500V6000FT/U MIFG FEW220 10/ RMK CI0=

CYVR;2006-10-11 07:00;METAR CYVR 110700Z 10002KT 20SM R26R/4500V6000FT/D MIFG FEW220 09/09 A3015 RMK CI0 SLP211=

CYVR;2006-10-11 08:00;METAR CYVR 110800Z 11004KT 15SM MIFG FEW220 08/08 A3015 RMK CI0 SLP211=

CYVR;2006-10-11 08:09;SPECI CYVR 110809Z 09003KT 15SM R26R/3500V6000FT/N MIFG FEW220 08/ RMK CI0=

CYVR;2006-10-11 09:00;METAR CYVR 110900Z 10002KT 15SM R26R/2200V2600FT/N MIFG FEW025 FEW220 08/08 A3016 RMK SF1CI0 SLP212=

CYVR;2006-10-11 11:11;SPECI CYVR 111111Z 00000KT 4SM R08R/3500V6000FT/D R26R/2600V6000FT/N BR FEW025 FEW220 07/ RMK SF1CI0=

CYVR;2006-10-11 11:48;SPECI CYVR 111148Z 00000KT 10SM R26L/3000V6000FT/N R26R/3000V6000FT/N BCFG FEW025 FEW220 06/ RMK SF1CI0=

CYVR;2006-10-11 12:00;METAR CYVR 111200Z 17002KT 6SM R26R/2600V3000FT/N BR FEW220 07/07 A3015 RMK CI0 SLP209=

CYVR;2006-10-11 12:31;SPECI CYVR 111231Z 00000KT 3SM R26L/3500V6000FT/N R26R/2600V3500FT/N BR SKC 06/ RMK FG7=

CYVR;2006-10-11 12:52;SPECI CYVR 111252Z 00000KT 1SM R26R/5500V6000FT/D BR VV015 06/ RMK FG8=

CYVR;2006-10-11 13:00;METAR CYVR 111300Z 00000KT 1/2SM R26L/1200V1800FT/N R26R/5500V6000FT/D FG SKC 06/06 A3015 RMK FG7 SLP209=

CYVR;2006-10-11 13:10;SPECI CYVR 111310Z 00000KT 3/4SM R26L/2800V6000FT/U BR SKC 06/ RMK FG7=

CYVR;2006-10-11 13:28;SPECI CYVR 111328Z 00000KT 3/4SM R26L/1800V2800FT/N R26R/5000V6000FT/U BR SKC 06/ RMK FG7=

CYVR;2006-10-11 13:37;SPECI CYVR 111337Z 00000KT 15SM R26L/2800V6000FT/U R26R/4000V6000FT/D MIFG FEW220 07/ RMK CI0=

CYVR;2006-10-11 14:00;METAR CYVR 111400Z 10002KT 15SM R26R/2800V3500FT/N MIFG FEW220 07/07 A3014 RMK CI0 SLP208=

CYVR;2006-10-11 15:00;METAR CYVR 111500Z 00000KT 20SM R26R/1800V2000FT/N MIFG FEW220 08/08 A3014 RMK CI0 SLP208=

CYVR;2006-10-11 15:49;SPECI CYVR 111549Z 10003KT 20SM FEW220 10/ RMK CI0=

CYVR;2006-10-11 16:00;METAR CYVR 111600Z 13002KT 20SM FEW220 10/09 A3015 RMK CI0 SLP209=

CYVR;2006-10-11 17:00;METAR CYVR 111700Z 00000KT 20SM FEW220 13/10 A3015 RMK CI0 HZ SLP210=

CYVR;2006-10-11 18:00;METAR CYVR 111800Z 24005KT 20SM FEW220 14/10 A3014 RMK CI0 HZ SLP208=

CYVR;2006-10-11 19:00;METAR CYVR 111900Z 25004KT 20SM SKC 14/10 A3014 RMK HZ SLP207=

CYVR;2006-10-11 20:00;METAR CYVR 112000Z 30005KT 20SM SKC 15/10 A3014 RMK HZ SLP205=

CYVR;2006-10-11 21:00;METAR CYVR 112100Z 28004KT 30SM SKC 15/10 A3011 RMK HZ SLP198=

CYVR;2006-10-11 22:00;METAR CYVR 112200Z 27005KT 30SM SKC 16/09 A3009 RMK HZ SLP190=

CYVR;2006-10-11 23:00;METAR CYVR 112300Z 29005KT 30SM SKC 16/09 A3008 RMK HZ SLP185=

CYVR;2006-10-12 00:00;METAR CYVR 120000Z 29005KT 30SM SKC 15/10 A3006 RMK HZ SLP180=

CYVR;2006-10-12 01:00;METAR CYVR 120100Z 32002KT 30SM SKC 13/10 A3005 RMK HZ SLP175=

CYVR;2006-10-12 02:00;METAR CYVR 120200Z 32003KT 30SM MIFG SKC 12/09 A3004 RMK SLP173=

CYVR;2006-10-12 03:00;METAR CYVR 120300Z 27002KT 30SM MIFG FEW220 12/11 A3005 RMK CI0 SLP175=

CYVR;2006-10-12 04:00;METAR CYVR 120400Z 00000KT 20SM MIFG FEW220 11/11 A3005 RMK CI0 SLP175=

CYVR;2006-10-12 05:00;METAR CYVR 120500Z 00000KT 15SM MIFG FEW210 11/10 A3004 RMK CI0 SLP173=

CYVR;2006-10-12 06:00;METAR CYVR 120600Z 36002KT 20SM MIFG FEW210 10/09 A3004 RMK CI0 SLP173=

CYVR;2006-10-12 07:00;METAR CYVR 120700Z 34002KT 15SM FEW220 08/07 A3004 RMK CI0 SLP173=

CYVR;2006-10-12 08:00;METAR CYVR 120800Z 00000KT 15SM MIFG FEW210 09/08 A3004 RMK CI0 SLP172=

CYVR;2006-10-12 09:00;METAR CYVR 120900Z 10002KT 15SM MIFG FEW210 09/08 A3003 RMK CI0 SLP170=

CYVR;2006-10-12 10:00;METAR CYVR 121000Z 00000KT 15SM MIFG FEW210 08/07 A3003 RMK CI0 SLP170=

CYVR;2006-10-12 10:28;SPECI CYVR 121028Z 10002KT 15SM R08R/3000V6000FT/D MIFG FEW210 07/ RMK CI0=

CYVR;2006-10-12 11:00;METAR CYVR 121100Z 00000KT 15SM R08R/5000V6000FT/U MIFG FEW200 08/07 A3002 RMK CI0 SLP165=

CYVR;2006-10-12 13:00;METAR CYVR 121300Z 17002KT 15SM R26R/3000V6000FT/U MIFG FEW210 07/07 A3001 RMK CI0 SLP162=

CYVR;2006-10-12 15:57;SPECI CYVR 121557Z 27002KT 30SM SKC 11/=

CYVR;2006-10-12 16:00;METAR CYVR 121600Z 27002KT 30SM SKC 11/10 A3000 RMK HZ SLP160=

CYVR;2006-10-12 16:00;SPECI CYVR 121600Z 27002KT 30SM SKC 11/10 A3000 RMK HZ SLP160=

CYVR;2006-10-12 17:00;METAR CYVR 121700Z 31002KT 30SM SKC 12/11 A3000 RMK HZ SLP160=

CYVR;2006-10-12 18:00;METAR CYVR 121800Z 29006KT 30SM SKC 13/10 A2999 RMK SLP157=

CYVR;2006-10-12 19:00;METAR CYVR 121900Z 29006KT 30SM SKC 14/12 A2999 RMK SLP156=

CYVR;2006-10-12 20:00;METAR CYVR 122000Z 29006KT 30SM SKC 14/10 A2997 RMK HZ SLP150=

CYVR;2006-10-12 21:00;METAR CYVR 122100Z 30006KT 30SM SKC 15/10 A2996 RMK HZ SLP145=

CYVR;2006-10-12 22:00;METAR CYVR 122200Z 28006KT 30SM SKC 15/11 A2994 RMK HZ SLP138=

CYVR;2006-10-12 23:00;METAR CYVR 122300Z 31004KT 30SM FEW180 15/11 A2992 RMK AS0 HZ SLP131=

CYVR;2006-10-13 00:00;METAR CYVR 130000Z 30004KT 30SM FEW180 14/10 A2990 RMK AS0 HZ SLP125=

CYVR;2006-10-13 01:00;METAR CYVR 130100Z 29002KT 30SM FEW180 FEW220 13/09 A2988 RMK AS1CI0 HZ SLP118=

CYVR;2006-10-13 02:00;METAR CYVR 130200Z 28004KT 30SM FEW220 11/10 A2987 RMK CI1 SLP116=

CYVR;2006-10-13 03:00;METAR CYVR 130300Z 32003KT 20SM FEW220 11/10 A2987 RMK CI1 SLP116=

CYVR;2006-10-13 04:00;METAR CYVR 130400Z 29005KT 20SM FEW220 11/10 A2988 RMK CI1 SLP117=

CYVR;2006-10-13 05:00;METAR CYVR 130500Z 30005KT 20SM MIFG SCT220 11/11 A2987 RMK CI2 SLP115=

CYVR;2006-10-13 06:00;METAR CYVR 130600Z 35003KT 20SM MIFG SCT220 10/10 A2987 RMK CI2 SLP115=

CYVR;2006-10-13 06:53;SPECI CYVR 130653Z 31002KT 20SM R26L/3500V6000FT/N MIFG SCT220 11/ RMK CI2=

CYVR;2006-10-13 07:00;METAR CYVR 130700Z 32003KT 15SM R26L/3500V6000FT/N MIFG SCT250 10/10 A2987 RMK CI2 SLP116=

CYVR;2006-10-13 07:34;SPECI CYVR 130734Z 00000KT 15SM R26R/3000V6000FT/D MIFG FEW250 10/ RMK CI2=

CYVR;2006-10-13 08:00;METAR CYVR 130800Z 00000KT 10SM R08R/3000V6000FT/D MIFG FEW250 09/09 A2987 RMK CI2 SLP115=

CYVR;2006-10-13 08:20;SPECI CYVR 130820Z 00000KT 10SM R26R/2000V2200FT/N MIFG FEW250 09/ RMK CI2=

CYVR;2006-10-13 08:36;SPECI CYVR 130836Z 27002KT 5SM R26R/1200V1800FT/N BR FEW250 10/ RMK CI1 ROOF VIS 8=

CYVR;2006-10-13 08:41;SPECI CYVR 130841Z 00000KT 5SM R08R/2200V2400FT/N R26R/2400V2800FT/N BR FEW250 10/ RMK CI1 ROOF VIS 8=

CYVR;2006-10-13 09:00;METAR CYVR 130900Z 02003KT 2 1/2SM R08R/0900V1800FT/N R26R/4500V6000FT/U BR FEW250 08/08 A2987 RMK CI0 SLP115=

CYVR;2006-10-13 09:06;SPECI CYVR 130906Z 03004KT 8SM R08R/2800V4000FT/N R26R/5000V6000FT/U MIFG FEW250 08/ RMK CI0=

CYVR;2006-10-13 10:00;METAR CYVR 131000Z 01003KT 10SM R26R/1600V2000FT/N MIFG FEW220 08/07 A2986 RMK CI0 SLP113=

CYVR;2006-10-13 11:00;METAR CYVR 131100Z 00000KT 15SM MIFG FEW220 08/08 A2986 RMK CI0 SLP113=

CYVR;2006-10-13 11:11;SPECI CYVR 131111Z 00000KT 15SM R08R/3500V6000FT/D R26R/2000V2400FT/N MIFG FEW220 08/ RMK CI0=

CYVR;2006-10-13 12:00;METAR CYVR 131200Z 04002KT 15SM R08R/3500V6000FT/U R26R/4000V6000FT/D MIFG FEW220 08/08 A2986 RMK CI0 SLP113=

CYVR;2006-10-13 13:00;METAR CYVR 131300Z 35003KT 15SM R26R/3000V6000FT/U MIFG FEW220 08/08 A2987 RMK CC1 SLP114=

CYVR;2006-10-13 14:00;METAR CYVR 131400Z 00000KT 15SM R26R/4500V6000FT/U MIFG BKN120 BKN220 09/09 A2987 RMK AC4CI1 SLP115=

CYVR;2006-10-13 15:00;METAR CYVR 131500Z 32002KT 20SM FEW150 BKN220 09/09 A2988 RMK AC2CI0 SLP117=

CYVR;2006-10-13 16:00;METAR CYVR 131600Z 31010KT 20SM FEW012 FEW150 SCT220 10/09 A2989 RMK SF1AC1CI0 SLP123=

CYVR;2006-10-13 16:21;SPECI CYVR 131621Z 32007KT 1/2SM FG BKN001 10/ RMK FG6SF1=

CYVR;2006-10-13 16:23;SPECI CYVR 131623Z 32007KT 1/2SM R26L/3500V6000FT/U R26R/4500V6000FT/D FG OVC001 10/ RMK FG6SF1=

CYVR;2006-10-13 16:26;SPECI CYVR 131626Z 30009KT 1/4SM R26L/3000V6000FT/D R26R/4000V6000FT/D FG OVC001 10/ RMK FG6SF1=

CYVR;2006-10-13 16:30;SPECI CYVR 131630Z 31009KT 1/4SM R26L/2800V3500FT/N R26R/3000V6000FT/D FG VV003 10/ RMK FG8=

CYVR;2006-10-13 16:35;SPECI CYVR 131635Z 30008KT 1/4SM R26L/2800V3000FT/N R26R/2400V3000FT/N FG BKN005 10/ RMK FG6SF1=

CYVR;2006-10-13 16:40;SPECI CYVR 131640Z 31007KT 1/4SM R26L/2200V2600FT/N R26R/2000V2400FT/N FG VV004 10/ RMK FG8=

CYVR;2006-10-13 16:45;SPECI CYVR 131645Z 31006KT 1/8SM R26L/1800V2600FT/N R26R/1800V2400FT/N FG VV004 10/ RMK FG8=

CYVR;2006-10-13 16:50;SPECI CYVR 131650Z 30006KT 1/4SM R26L/1800V2400FT/N R26R/1800V2200FT/N FG VV005 10/ RMK FG8=

CYVR;2006-10-13 16:55;SPECI CYVR 131655Z 32007KT 1/2SM R26L/3000V3500FT/N R26R/2000V2200FT/N FG VV005 10/ RMK FG8=

CYVR;2006-10-13 17:00;METAR CYVR 131700Z 31006KT 1/2SM R26L/3000V5500FT/N R26R/2400V3000FT/N FG VV005 10/10 A2990 RMK FG8 SLP124=

CYVR;2006-10-13 17:05;SPECI CYVR 131705Z 32007KT 1SM R26L/3500V6000FT/N R26R/2600V3500FT/N BR BKN005 11/ RMK FG6SF1=

CYVR;2006-10-13 17:13;SPECI CYVR 131713Z 32005KT 1 1/2SM R26L/5000V6000FT/U R26R/3000V6000FT/U BR BKN003 BKN005 11/ RMK SF5SF1 VIS W QUAD 3 SM=

CYVR;2006-10-13 17:19;SPECI CYVR 131719Z 32005KT 8SM SCT003 BKN005 11/ RMK SF2SF1 VIS N - SE 2 SM DUE FG BNK + LO CLD=

CYVR;2006-10-13 17:23;SPECI CYVR 131723Z 31006KT 8SM BKN003 BKN005 11/ RMK SF5SF1 VIS N - SE 21/2 SM DUE FG BNK + LO CLD=

CYVR;2006-10-13 17:25;SPECI CYVR 131725Z 29007KT 8SM BKN003 BKN005 11/ RMK SF3SF1 VIS N - SE LWR DUE FG BNK + LO CLD=

CYVR;2006-10-13 17:34;SPECI CYVR 131734Z 29007KT 8SM BKN004 BKN005 11/ RMK SF5SF1=

CYVR;2006-10-13 18:00;METAR CYVR 131800Z 30008KT 8SM BKN004 11/10 A2990 RMK SC6 VIS N QUAD LWR 3 SM DUE TO FG BNK + LO CLD SLP125=

CYVR;2006-10-13 18:04;SPECI CYVR 131804Z 30009KT 10SM SCT004 BKN006 11/ RMK SC3SC2 VIS N QUAD LWR 3 SM DUE FG BNK + LO CLD=

CYVR;2006-10-13 19:00;METAR CYVR 131900Z 30010KT 15SM BKN006 11/10 A2990 RMK SC5 SLP124=

CYVR;2006-10-13 19:19;SPECI CYVR 131919Z 30010KT 15SM BKN006 BKN008 12/ RMK SF3SC1=

CYVR;2006-10-13 19:29;SPECI CYVR 131929Z 30012KT 20SM FEW006 FEW010 12/ RMK CF1SC1 HZ=

CYVR;2006-10-13 20:00;METAR CYVR 132000Z 30010KT 20SM FEW006 13/10 A2988 RMK SC1 HZ SLP120=

CYVR;2006-10-13 20:45;SPECI CYVR 132045Z 29013KT 10SM BKN004 11/ RMK SF5 VIS W - N QUAD 4 SM DUE FG BNK + LO CLD=

CYVR;2006-10-13 20:56;SPECI CYVR 132056Z 29013KT 6SM BR BKN004 11/ RMK SC6 VIS W - N QUAD 1 SM DUE FG BNK + LO CLD=

CYVR;2006-10-13 21:00;METAR CYVR 132100Z 30013KT 5SM BR BKN003 12/11 A2988 RMK ST6 VIS LWR W - N 1SM SLP119=

CYVR;2006-10-13 21:03;SPECI CYVR 132103Z 30012KT 2 1/2SM BR BKN003 11/ RMK ST6 VIS LWR W - N 1 SM=

CYVR;2006-10-13 21:12;SPECI CYVR 132112Z 30011KT 3SM BR BKN003 11/ RMK ST6=

CYVR;2006-10-13 21:16;SPECI CYVR 132116Z 31010KT 7SM BKN004 11/ RMK ST6 VIS W - N LWR 2 SM=

CYVR;2006-10-13 21:33;SPECI CYVR 132133Z 32006KT 15SM BKN004 12/ RMK ST3 VIS LWR W - NW 5 SM=

CYVR;2006-10-13 22:00;METAR CYVR 132200Z 30004KT 20SM FEW005 FEW220 12/10 A2985 RMK SF0CI1 SLP110=

CYVR;2006-10-13 23:00;METAR CYVR 132300Z 26006KT 2SM BR FEW220 12/10 A2985 RMK FG2CI0 VIS N - E 15 SLP107=

CYVR;2006-10-13 23:14;SPECI CYVR 132314Z 26005KT 3/4SM R26L/4500V6000FT BR SKC 11/ RMK FG6 VIS HGR NW - SW 10SM=

CYVR;2006-10-13 23:21;SPECI CYVR 132321Z 26004KT 1/2SM R26L/2400V2600FT/N FG SKC 10/ RMK FG6=

CYVR;2006-10-13 23:39;SPECI CYVR 132339Z 28005KT 3SM R26L/2800V6000FT/U BR SKC 10/ RMK FG5 VIS HIER NE - S 15S M=

CYVR;2006-10-14 00:00;METAR CYVR 140000Z 29005KT 2SM R26L/4000V6000FT/D BR SKC 11/10 A2985 RMK FG7 SLP107=

CYVR;2006-10-14 00:07;SPECI CYVR 140007Z 30006KT 15SM FEW005 FEW220 11/ RMK SF0CI0=

CYVR;2006-10-14 01:00;METAR CYVR 140100Z 29005KT 30SM SCT220 11/10 A2984 RMK CI2 SLP105=

CYVR;2006-10-14 02:00;METAR CYVR 140200Z 29004KT 30SM FEW220 10/10 A2984 RMK CI2 SLP106=

CYVR;2006-10-14 03:00;METAR CYVR 140300Z 00000KT 20SM MIFG FEW220 10/10 A2985 RMK CI1 SLP107=

CYVR;2006-10-14 03:26;SPECI CYVR 140326Z 00000KT 20SM R26R/2200V6000FT/D MIFG FEW220 10/ RMK CI1=

CYVR;2006-10-14 04:00;METAR CYVR 140400Z 00000KT 20SM R26R/4000V6000FT/U MIFG SCT220 11/10 A2985 RMK CI1 SLP107=

CYVR;2006-10-14 05:00;METAR CYVR 140500Z 13003KT 15SM MIFG FEW220 10/09 A2986 RMK CI1 SLP112=

CYVR;2006-10-14 06:00;METAR CYVR 140600Z 12003KT 15SM MIFG FEW007 FEW220 09/09 A2986 RMK SF0CI1 SLP113=

CYVR;2006-10-14 06:09;SPECI CYVR 140609Z 11004KT 15SM R26R/4500V6000FT/U MIFG FEW007 FEW220 09/ RMK SF0CI1=

CYVR;2006-10-14 06:44;SPECI CYVR 140644Z 10004KT 4SM R26R/3500V6000FT/D BR FEW007 FEW220 08/ RMK SF0CI1=

CYVR;2006-10-14 06:55;SPECI CYVR 140655Z 09005KT 1/2SM R26R/2600V3000FT/N FG VV002 08/ RMK FG8=

CYVR;2006-10-14 07:00;METAR CYVR 140700Z 09005KT 1/4SM R26R/2600V3000FT/N FG VV002 08/08 A2987 RMK FG8 SLP115=

CYVR;2006-10-14 07:03;SPECI CYVR 140703Z 09005KT 1/8SM R26R/2800V3500FT/N FG VV002 09/ RMK FG8=

CYVR;2006-10-14 07:39;SPECI CYVR 140739Z 11006KT 1/4SM R08R/2600V3500FT/N R26R/1800V2400FT/N FG VV002 09/ RMK FG8=

CYVR;2006-10-14 08:00;METAR CYVR 140800Z 11004KT 1/4SM R08R/3500V4500FT/N R26R/1800V2400FT/N FG VV002 09/09 A2988 RMK FG8 SLP118=

CYVR;2006-10-14 09:00;METAR CYVR 140900Z 11003KT 1/4SM R08R/2200V2800FT/N R26R/1000V1100FT/N FG VV002 08/08 A2988 RMK FG8 SLP120=

CYVR;2006-10-14 09:33;SPECI CYVR 140933Z 11005KT 1/2SM R08R/2000V2400FT/N R26R/1800V2400FT/N FG VV002 08/ RMK FG8=

CYVR;2006-10-14 10:00;METAR CYVR 141000Z 10005KT 1/2SM R08R/3000V6000FT/U R26R/2400V2800FT/N FG VV002 07/07 A2988 RMK FG8 SLP119=

CYVR;2006-10-14 10:06;SPECI CYVR 141006Z 10005KT 1/8SM R08R/3500V6000FT/U R26R/2400V2800FT/N FG VV002 07/ RMK FG8=

CYVR;2006-10-14 11:00;METAR CYVR 141100Z 11005KT 1/8SM R08R/3500V5000FT/U R26R/1600V2000FT/N FG VV002 08/08 A2988 RMK FG8 SLP118=

CYVR;2006-10-14 12:00;METAR CYVR 141200Z 11005KT 1/8SM R08R/3500V4500FT/N R26R/1600V1800FT/N FG VV002 08/08 A2987 RMK FG8 SLP115=

CYVR;2006-10-14 13:00;METAR CYVR 141300Z 12005KT 1/8SM R08R/3500V4500FT/D R26R/2600V3000FT/N FG VV002 08/08 A2986 RMK FG8 SLP112=

CYVR;2006-10-14 14:00;METAR CYVR 141400Z 11006KT 1/4SM R08L/2600V4000FT/D R08R/3500V5000FT/U FG SKC 09/09 A2985 RMK FG7 SLP110=

CYVR;2006-10-14 14:37;SPECI CYVR 141437Z 14004KT 1/8SM R08L/3500FT/D R08R/5000FT/U FG VV002 09/ RMK FG8=

CYVR;2006-10-14 15:00;METAR CYVR 141500Z 19005KT 1/8SM R08L/1800FT/N R08R/4000V6000FT/U FG VV002 09/09 A2987 RMK FG8 SLP114=

CYVR;2006-10-14 15:54;SPECI CYVR 141554Z 11003KT 1/4SM R08L/2000FT/N R08R/3500FT/D FG VV002 09/ RMK FG8=

CYVR;2006-10-14 16:00;METAR CYVR 141600Z 10004KT 1/4SM R08L/2000FT/U R08R/3500FT/N FG VV002 09/09 A2987 RMK FG8 SLP114=

CYVR;2006-10-14 16:35;SPECI CYVR 141635Z 09005KT 1/2SM R08L/3000V4500FT/D R08R/4500V6000FT/U FG OVC006 09/ RMK FG7ST1=

CYVR;2006-10-14 17:00;METAR CYVR 141700Z 12005KT 1/2SM FG OVC005 09/09 A2987 RMK FG7ST1 SLP115=

CYVR;2006-10-14 18:00;METAR CYVR 141800Z 12006KT 1/2SM FG OVC005 10/10 A2987 RMK FG7ST1 SLP116=

CYVR;2006-10-14 18:15;SPECI CYVR 141815Z 10006KT 3/4SM BR OVC005 10/ RMK FG7ST1=

CYVR;2006-10-14 18:40;SPECI CYVR 141840Z 12007KT 1SM BR OVC005 10/ RMK FG6ST2=

CYVR;2006-10-14 19:00;METAR CYVR 141900Z 14008KT 1SM BR OVC005 10/10 A2987 RMK FG6ST2 SLP115=

CYVR;2006-10-14 19:07;SPECI CYVR 141907Z 14008KT 2SM BR OVC005 11/ RMK FG3ST5=

CYVR;2006-10-14 20:00;METAR CYVR 142000Z 15008KT 2 1/2SM BR OVC005 11/10 A2986 RMK ST8 SLP112=

CYVR;2006-10-14 20:48;SPECI CYVR 142048Z 12010KT 3SM BR OVC006 10/ RMK ST8=

CYVR;2006-10-14 21:00;METAR CYVR 142100Z 14009KT 3SM BR OVC005 11/10 A2984 RMK ST8 SLP104=

CYVR;2006-10-14 22:00;METAR CYVR 142200Z 15006KT 3SM BR OVC005 11/10 A2983 RMK ST8 SLP100=

CYVR;2006-10-14 23:00;METAR CYVR 142300Z 11008KT 4SM BR BKN006 OVC011 11/10 A2980 RMK ST7SC1 SLP093=

CYVR;2006-10-15 00:00;METAR CYVR 150000Z 15006KT 5SM BR BKN008 BKN040 OVC100 11/10 A2980 RMK ST5SC1AC2 SLP093=

CYVR;2006-10-15 00:40;SPECI CYVR 150040Z 15009KT 6SM BR SCT007 SCT050 OVC100 11/ RMK ST3SC1AC4=

CYVR;2006-10-15 00:55;SPECI CYVR 150055Z 17008KT 6SM BR BKN006 OVC100 11/ RMK ST6AC2=

CYVR;2006-10-15 01:00;METAR CYVR 150100Z 17006KT 6SM BR OVC006 11/09 A2980 RMK ST8 SLP090=

CYVR;2006-10-15 02:00;METAR CYVR 150200Z 13009KT 4SM BR BKN006 OVC011 11/10 A2978 RMK ST6SC2 SLP086=

CYVR;2006-10-15 02:49;SPECI CYVR 150249Z 14009KT 4SM -SHRA BR BKN006 OVC012 11/ RMK ST6SC2=

CYVR;2006-10-15 03:00;METAR CYVR 150300Z 14004KT 4SM -SHRA BR BKN006 OVC012 11/10 A2977 RMK ST6SC2 SLP082=

CYVR;2006-10-15 04:00;METAR CYVR 150400Z 18005KT 4SM -SHRA BR BKN006 OVC013 11/10 A2979 RMK ST7SC1 SLP087=

CYVR;2006-10-15 04:44;SPECI CYVR 150444Z 13005KT 5SM -RA BR FEW006 BKN011 OVC069 11/ RMK SF2SC4AC2=

CYVR;2006-10-15 05:00;METAR CYVR 150500Z 07002KT 5SM -RA BR FEW007 BKN015 OVC060 10/10 A2978 RMK SF2SC4SC2 SLP085=

CYVR;2006-10-15 06:00;METAR CYVR 150600Z 11010KT 5SM -RA BR SCT007 BKN030 OVC063 10/10 A2976 RMK SF3SC2SC2 SLP078=

CYVR;2006-10-15 07:00;METAR CYVR 150700Z 12009KT 5SM -RA BR SCT006 BKN016 BKN040 OVC060 10/10 A2975 RMK SF3SC2SC2SC2 SLP075=

CYVR;2006-10-15 08:00;METAR CYVR 150800Z 11007KT 5SM -RA BR SCT008 BKN017 OVC040 10/10 A2975 RMK SF4SC2SC2 SLP073=

CYVR;2006-10-15 09:00;METAR CYVR 150900Z 09009KT 5SM -RA BR SCT008 BKN040 OVC058 10/10 A2972 RMK SF3SC2SC2 SLP066=

CYVR;2006-10-15 10:00;METAR CYVR 151000Z 09009KT 4SM -RA BR SCT008 BKN035 OVC050 10/10 A2971 RMK SF3SC3SC2 SLP062=

CYVR;2006-10-15 10:22;SPECI CYVR 151022Z 09009KT 3SM -RA BR BKN007 OVC030 10/ RMK SF6SC2=

CYVR;2006-10-15 11:00;METAR CYVR 151100Z 11008KT 2 1/2SM -RA BR BKN006 OVC030 10/10 A2969 RMK SF6SC2 SLP055=

CYVR;2006-10-15 12:00;METAR CYVR 151200Z 11006KT 2 1/2SM -RA BR FEW004 BKN007 OVC020 10/10 A2967 RMK SF2SC5SC1 CIG RAG SLP047=

CYVR;2006-10-15 13:00;METAR CYVR 151300Z 12009KT 3SM -RA BR FEW003 BKN007 OVC017 11/10 A2965 RMK SF2SC4SC2 CIG RAG SLP040=

CYVR;2006-10-15 14:00;METAR CYVR 151400Z 13008KT 3SM -RA BR BKN007 OVC012 11/10 A2965 RMK SC6SC2 SLP039=

CYVR;2006-10-15 15:00;METAR CYVR 151500Z 10010KT 2SM -RA BR BKN009 OVC012 10/10 A2962 RMK SC7SC1 SLP030=

CYVR;2006-10-15 15:33;SPECI CYVR 151533Z 09008KT 2 1/2SM -RA BR SCT008 OVC014 10/ RMK SC3SC5=

CYVR;2006-10-15 16:00;METAR CYVR 151600Z 09009KT 2 1/2SM -RA BR SCT008 OVC014 10/10 A2960 RMK SC3SC5 SLP025=

CYVR;2006-10-15 16:08;SPECI CYVR 151608Z 09011KT 5SM -RA BR SCT008 OVC014 10/ RMK SC3SC5=

CYVR;2006-10-15 17:00;METAR CYVR 151700Z 09008KT 5SM -RA BR FEW007 OVC014 11/10 A2960 RMK SC2SC6 SLP022=

CYVR;2006-10-15 17:24;SPECI CYVR 151724Z 07009KT 2 1/2SM -RA BR FEW007 OVC013 11/ RMK SC2SC6=

CYVR;2006-10-15 17:48;SPECI CYVR 151748Z 09009KT 4SM -RA BR SCT011 OVC018 11/ RMK SC3SC5=

CYVR;2006-10-15 18:00;METAR CYVR 151800Z 09011KT 6SM -RA BR FEW012 OVC023 11/10 A2956 RMK SC2SC6 SLP011=

CYVR;2006-10-15 18:47;SPECI CYVR 151847Z 09008KT 2SM -RA BR FEW010 OVC020 11/ RMK SC2SC6=

CYVR;2006-10-15 19:00;METAR CYVR 151900Z 10009KT 2SM -RA BR FEW010 OVC019 11/11 A2955 RMK SC2SC6 SLP008=

CYVR;2006-10-15 20:00;METAR CYVR 152000Z 09010KT 6SM -RA BR FEW011 OVC017 11/11 A2954 RMK SC2SC6 SLP002=

CYVR;2006-10-15 20:19;SPECI CYVR 152019Z 11008KT 3SM -RA BR FEW007 BKN012 OVC018 11/ RMK SC2SC3SC3=

CYVR;2006-10-15 21:00;METAR CYVR 152100Z 09005KT 6SM -RA BR FEW006 BKN012 OVC019 11/11 A2952 RMK SC2SC5SC2 SLP996=

CYVR;2006-10-15 22:00;METAR CYVR 152200Z 10009KT 6SM -RA BR FEW008 BKN013 OVC018 12/11 A2950 RMK SC1SC4SC3 SLP989=

CYVR;2006-10-15 23:00;METAR CYVR 152300Z 10009KT 6SM -RA BR FEW007 OVC014 12/11 A2949 RMK SC2SC6 SLP985=

CYVR;2006-10-15 23:42;SPECI CYVR 152342Z 10010KT 2 1/2SM -RA BR BKN007 OVC013 12/ RMK SC6SC2=

CYVR;2006-10-16 00:00;METAR CYVR 160000Z 10012KT 2SM -RA BR BKN008 OVC013 11/11 A2948 RMK SC7SC1 SLP984=

CYVR;2006-10-16 00:51;SPECI CYVR 160051Z 09009KT 5SM -RA BR BKN008 OVC014 11/ RMK SC6SC2=

CYVR;2006-10-16 01:00;METAR CYVR 160100Z 11008KT 5SM -RA BR BKN008 OVC014 11/11 A2947 RMK SC6SC2 SLP981=

CYVR;2006-10-16 02:00;METAR CYVR 160200Z 11006KT 6SM -RA BR BKN009 OVC015 11/11 A2947 RMK SC6SC2 CIG RAG SLP980=

CYVR;2006-10-16 03:00;METAR CYVR 160300Z 10005KT 6SM -RA BR BKN008 OVC016 11/11 A2948 RMK SC6SC2 SLP983=

CYVR;2006-10-16 04:00;METAR CYVR 160400Z 18003KT 6SM -SHRA BR SCT007 BKN012 OVC020 12/11 A2949 RMK SC3SC3SC2 SLP987=

CYVR;2006-10-16 05:00;METAR CYVR 160500Z 20005KT 5SM -SHRA BR BKN009 OVC015 12/11 A2951 RMK SC6SC2 SLP992=

CYVR;2006-10-16 06:00;METAR CYVR 160600Z 22007KT 5SM -SHRA BR SCT008 BKN015 OVC025 11/11 A2951 RMK SC3SC3SC2 SLP994=

CYVR;2006-10-16 07:00;METAR CYVR 160700Z 23005KT 6SM -SHRA BR BKN007 BKN016 OVC030 12/11 A2953 RMK SC5SC2SC1 SLP999=

CYVR;2006-10-16 08:00;METAR CYVR 160800Z 30002KT 6SM -SHRA BR BKN006 BKN015 OVC030 11/11 A2954 RMK SC5SC2SC1 SLP003=

CYVR;2006-10-16 09:00;METAR CYVR 160900Z 00000KT 5SM -SHRA BR BKN005 BKN012 OVC020 12/11 A2955 RMK SC6SC2SC1 SLP008=

CYVR;2006-10-16 10:00;METAR CYVR 161000Z 30006KT 5SM -SHRA BR FEW003 BKN005 OVC011 11/11 A2957 RMK SF2SC5SC1 CIG RAG SLP012=

CYVR;2006-10-16 10:41;SPECI CYVR 161041Z 09002KT 5SM -RA BR FEW003 BKN012 OVC020 11/ RMK SF2SC5SC2=

CYVR;2006-10-16 11:00;METAR CYVR 161100Z 09004KT 4SM -RA BR SCT004 BKN007 OVC018 11/11 A2958 RMK SF3SC2SC2 SLP016=

CYVR;2006-10-16 12:00;METAR CYVR 161200Z 07007KT 3SM -RA BR SCT004 BKN006 OVC015 11/11 A2959 RMK SF3SC3SC2 VIS W - N 2 SLP020=

CYVR;2006-10-16 12:45;SPECI CYVR 161245Z 06004KT 3SM -RA BR BKN004 BKN008 OVC015 11/ RMK SF5SC2SC1=

CYVR;2006-10-16 13:00;METAR CYVR 161300Z 06006KT 3SM -RA BR FEW003 BKN005 OVC015 11/11 A2961 RMK SF2SC4SC2 SLP028=

CYVR;2006-10-16 13:50;SPECI CYVR 161350Z 07005KT 5SM BR FEW003 OVC005 11/ RMK SF2SC6=

CYVR;2006-10-16 14:00;METAR CYVR 161400Z 07006KT 8SM FEW003 BKN006 OVC015 11/10 A2964 RMK SF2SC6SC1 SLP038=

CYVR;2006-10-16 14:44;SPECI CYVR 161444Z 36004KT 8SM -RA BKN008 BKN014 OVC020 11/ RMK SC6SC2SC1=

CYVR;2006-10-16 15:00;METAR CYVR 161500Z 04003KT 10SM -RA BKN008 BKN014 OVC022 11/10 A2967 RMK SC5SC2SC1 SLP046=

CYVR;2006-10-16 15:22;SPECI CYVR 161522Z 05004KT 10SM -RA SCT008 BKN012 OVC022 11/ RMK SC4SC2SC2=

CYVR;2006-10-16 15:46;SPECI CYVR 161546Z 09002KT 10SM SCT012 BKN013 BKN020 OVC040 12/ RMK SC3SC2SC2SC1=

CYVR;2006-10-16 16:00;METAR CYVR 161600Z 00000KT 10SM FEW012 SCT022 OVC040 12/11 A2969 RMK SC2SC2SC4 SLP055=

CYVR;2006-10-16 16:38;SPECI CYVR 161638Z 33004KT 8SM BKN008 BKN020 OVC040 12/ RMK SC6SC2SC1=

CYVR;2006-10-16 17:45;SPECI CYVR 161745Z 30009KT 10SM SCT009 BKN018 OVC032 12/ RMK SC3SC3SC2=

CYVR;2006-10-16 17:55;SPECI CYVR 161755Z 32007KT 10SM BKN008 OVC020 12/ RMK SC6SC2=

CYVR;2006-10-16 18:00;METAR CYVR 161800Z 31009KT 10SM BKN009 OVC020 12/11 A2973 RMK SC6SC2 SLP068=

CYVR;2006-10-16 19:00;METAR CYVR 161900Z 31012KT 15SM BKN008 BKN018 BKN032 12/11 A2975 RMK SC5SC2SC1 SLP076=

CYVR;2006-10-16 19:53;SPECI CYVR 161953Z 31011KT 15SM FEW008 SCT020 BKN033 12/ RMK SC2SC2SC3=

CYVR;2006-10-16 20:00;METAR CYVR 162000Z 31011KT 15SM FEW008 SCT020 BKN033 13/11 A2978 RMK SC1SC2SC3 SLP083=

CYVR;2006-10-16 21:00;METAR CYVR 162100Z 30011KT 20SM FEW014 FEW033 13/11 A2978 RMK SC1SC1 SLP085=

CYVR;2006-10-16 22:00;METAR CYVR 162200Z 31011KT 20SM FEW030 13/10 A2979 RMK SC1 SLP087=

CYVR;2006-10-16 23:00;METAR CYVR 162300Z 30009KT 20SM FEW030 13/10 A2981 RMK SC1 SLP094=

CYVR;2006-10-17 00:00;METAR CYVR 170000Z 32005KT 20SM FEW030 13/10 A2982 RMK SC1 SLP099=

CYVR;2006-10-17 01:00;METAR CYVR 170100Z 31005KT 20SM FEW050 11/09 A2983 RMK SC1 SLP103=

CYVR;2006-10-17 02:00;METAR CYVR 170200Z 32002KT 30SM FEW050 FEW090 11/09 A2985 RMK SC1AC2 SLP108=

CYVR;2006-10-17 03:00;METAR CYVR 170300Z 18002KT 20SM FEW050 BKN100 12/10 A2987 RMK SC1AC5 SLP116=

CYVR;2006-10-17 04:00;METAR CYVR 170400Z 25003KT 20SM FEW040 BKN100 12/10 A2990 RMK SC1AC5 SLP125=

CYVR;2006-10-17 05:00;METAR CYVR 170500Z 00000KT 20SM FEW040 SCT080 BKN110 11/10 A2992 RMK SC1AC2AC3 SLP131=

CYVR;2006-10-17 06:00;METAR CYVR 170600Z 17003KT 20SM FEW040 BKN079 BKN110 12/11 A2994 RMK SC1AC5AC1 SLP138=

CYVR;2006-10-17 07:00;METAR CYVR 170700Z 00000KT 20SM FEW017 SCT040 BKN075 BKN100 11/10 A2996 RMK SC2SC2AC2AC2 SLP147=

CYVR;2006-10-17 08:00;METAR CYVR 170800Z 00000KT 20SM FEW020 SCT040 BKN070 BKN110 11/10 A2999 RMK SC2SC2AC2AC2 SLP157=

CYVR;2006-10-17 09:00;METAR CYVR 170900Z 00000KT 15SM FEW020 FEW040 BKN061 BKN100 11/10 A3001 RMK SC1SC2SC3AC2 SLP164=

CYVR;2006-10-17 10:00;METAR CYVR 171000Z 00000KT 15SM FEW020 SCT035 BKN055 BKN070 11/10 A3004 RMK SC2SC2SC2AC2 SLP171=

CYVR;2006-10-17 11:00;METAR CYVR 171100Z 00000KT 15SM FEW015 SCT030 BKN055 BKN070 10/10 A3006 RMK SC2SC2SC3AC1 SLP179=

CYVR;2006-10-17 12:00;METAR CYVR 171200Z 16003KT 15SM FEW011 SCT030 BKN044 BKN080 11/11 A3007 RMK SF1SC2SC3AC1 SLP183=

CYVR;2006-10-17 13:00;METAR CYVR 171300Z 00000KT 15SM FEW007 SCT030 BKN048 BKN080 11/10 A3008 RMK SF2SC2SC3AC1 SLP187=

CYVR;2006-10-17 14:00;METAR CYVR 171400Z 00000KT 15SM FEW007 BKN036 OVC048 11/10 A3011 RMK SF2SC4SC2 SLP195=

CYVR;2006-10-17 15:00;METAR CYVR 171500Z 13005KT 15SM SCT006 SCT017 BKN031 OVC045 11/10 A3012 RMK SC3SC1SC3SC1 SLP201=

CYVR;2006-10-17 15:34;SPECI CYVR 171534Z 14002KT 15SM -RA FEW007 FEW016 BKN033 OVC045 11/ RMK SC2SC1SC5SC1=

CYVR;2006-10-17 16:00;METAR CYVR 171600Z 00000KT 15SM FEW007 BKN037 OVC045 11/11 A3014 RMK SC2SC5SC1 SLP208=

CYVR;2006-10-17 16:18;SPECI CYVR 171618Z 08004KT 15SM -SHRA SCT006 BKN034 OVC042 11/ RMK SC3SC2SC2=

CYVR;2006-10-17 17:00;METAR CYVR 171700Z 12006KT 15SM -SHRA FEW006 SCT011 OVC041 11/10 A3017 RMK SC2SC2SC4 SLP215=

CYVR;2006-10-17 18:00;METAR CYVR 171800Z 17003KT 15SM -SHRA FEW011 SCT022 OVC043 12/08 A3018 RMK SC2SC1SC5 SLP219=

CYVR;2006-10-17 18:27;SPECI CYVR 171827Z 19002KT 15SM FEW011 FEW020 OVC044 12/ RMK SC2SC1SC6=

CYVR;2006-10-17 19:00;METAR CYVR 171900Z 22003KT 15SM FEW011 BKN042 OVC060 12/07 A3019 RMK SC2SC6SC1 SLP223=

CYVR;2006-10-17 20:00;METAR CYVR 172000Z 27004KT 20SM FEW013 SCT042 BKN062 12/10 A3020 RMK SC1SC3SC3 SLP226=

CYVR;2006-10-17 21:00;METAR CYVR 172100Z 27005KT 20SM FEW040 BKN060 OVC240 13/09 A3019 RMK SC1SC5CI0 SLP224=

CYVR;2006-10-17 22:00;METAR CYVR 172200Z 26006KT 20SM FEW040 FEW060 BKN210 13/08 A3018 RMK SC1SC1CI2 SLP221=

CYVR;2006-10-17 23:00;METAR CYVR 172300Z 32004KT 20SM FEW040 FEW060 BKN220 13/08 A3019 RMK SC1SC1CI4 SLP223=

CYVR;2006-10-18 00:00;METAR CYVR 180000Z 30002KT 20SM FEW040 FEW060 BKN180 BKN240 12/08 A3019 RMK SC1SC1AC4CI1 SLP224=

CYVR;2006-10-18 01:00;METAR CYVR 180100Z 33003KT 20SM BKN059 BKN150 OVC240 12/07 A3019 RMK SC6AC1CI1 SLP224=

CYVR;2006-10-18 02:00;METAR CYVR 180200Z 00000KT 20SM BKN059 BKN160 BKN240 12/06 A3018 RMK SC6AC1CI1 SLP220=

CYVR;2006-10-18 03:00;METAR CYVR 180300Z 00000KT 20SM BKN052 BKN150 12/06 A3020 RMK SC6AC2 SLP227=

CYVR;2006-10-18 04:00;METAR CYVR 180400Z 13003KT 20SM SCT048 BKN060 BKN150 12/08 A3021 RMK SC3SC3AC1 SLP230=

CYVR;2006-10-18 05:00;METAR CYVR 180500Z 09004KT 20SM BKN046 BKN060 BKN140 11/08 A3021 RMK SC5SC2AC1 SLP229=

CYVR;2006-10-18 06:00;METAR CYVR 180600Z 10005KT 20SM BKN044 BKN060 BKN140 11/08 A3021 RMK SC5SC2AC1 SLP231=

CYVR;2006-10-18 07:00;METAR CYVR 180700Z 12007KT 20SM SCT045 BKN160 11/08 A3020 RMK SC3AC4 SLP228=

CYVR;2006-10-18 08:00;METAR CYVR 180800Z 11007KT 20SM FEW040 SCT130 BKN170 10/08 A3020 RMK SC2AC2AC2 SLP226=

CYVR;2006-10-18 09:00;METAR CYVR 180900Z 11007KT 20SM FEW060 BKN140 BKN170 11/08 A3020 RMK SC2AC4AC1 SLP226=

CYVR;2006-10-18 10:00;METAR CYVR 181000Z 11007KT 20SM BKN059 BKN130 11/08 A3021 RMK SC5AC2 SLP229=

CYVR;2006-10-18 11:00;METAR CYVR 181100Z 09006KT 15SM SCT045 BKN090 OVC130 10/09 A3020 RMK SC3AC2AC2 SLP228=

CYVR;2006-10-18 12:00;METAR CYVR 181200Z 10006KT 12SM -SHRA FEW040 BKN072 OVC090 10/09 A3020 RMK SC2AC4AC2 SLP226=

CYVR;2006-10-18 13:00;METAR CYVR 181300Z 10007KT 8SM -RA FEW040 BKN060 OVC080 10/09 A3020 RMK SC2SC4AC2 SLP226=

CYVR;2006-10-18 14:00;METAR CYVR 181400Z 09008KT 8SM -RA SCT032 BKN075 OVC084 10/09 A3020 RMK SC3AC2AC2 SLP226=

CYVR;2006-10-18 14:45;SPECI CYVR 181445Z 11007KT 6SM -RA BR FEW004 BKN031 OVC075 10/ RMK SF2SC4AC2=

CYVR;2006-10-18 15:00;METAR CYVR 181500Z 10006KT 5SM -RA BR FEW006 BKN026 OVC075 10/10 A3020 RMK SF2SC4AC2 VIS N LWR 4 SM SLP226=

CYVR;2006-10-18 16:00;METAR CYVR 181600Z 10006KT 6SM -RA BR BKN022 OVC060 10/10 A3021 RMK SC5SC3 SLP229=

CYVR;2006-10-18 16:34;SPECI CYVR 181634Z 10006KT 7SM -RA FEW007 SCT022 OVC067 11/ RMK SF2SC2AC4=

CYVR;2006-10-18 17:00;METAR CYVR 181700Z 10006KT 8SM -RA SCT007 OVC060 11/10 A3020 RMK SC3SC5 SLP228=

CYVR;2006-10-18 17:45;SPECI CYVR 181745Z 12003KT 12SM -SHRA BKN010 OVC045 11/ RMK SC5SC3=

CYVR;2006-10-18 17:56;SPECI CYVR 181756Z 15004KT 12SM BKN008 OVC045 11/ RMK SC6SC2=

CYVR;2006-10-18 18:00;METAR CYVR 181800Z 18003KT 12SM FEW007 BKN010 OVC045 11/10 A3021 RMK SC2SC4SC2 SLP230=

CYVR;2006-10-18 19:00;METAR CYVR 181900Z 16006KT 12SM SCT010 OVC026 12/10 A3020 RMK SC4SC4 SLP228=

CYVR;2006-10-18 20:00;METAR CYVR 182000Z 18006KT 12SM BKN012 OVC025 12/10 A3020 RMK SC5SC3 SLP226=

CYVR;2006-10-18 20:44;SPECI CYVR 182044Z 17006KT 8SM -RA FEW010 OVC021 12/ RMK SF2SC6 PCPN VYR LGT=

CYVR;2006-10-18 21:00;METAR CYVR 182100Z 14006KT 6SM -RA BR FEW010 BKN025 OVC041 12/10 A3019 RMK SF2SC5SC2 PCPN VRY LGT SLP225=

CYVR;2006-10-18 21:03;SPECI CYVR 182103Z 16006KT 6SM -DZ BR FEW010 BKN025 OVC040 12/ RMK SF2ST3ST3=

CYVR;2006-10-18 21:32;SPECI CYVR 182132Z 14006KT 8SM -DZ FEW010 SCT025 OVC050 12/ RMK SF2ST2ST4=

CYVR;2006-10-18 22:00;METAR CYVR 182200Z 14006KT 12SM -DZ FEW010 SCT025 OVC049 12/10 A3018 RMK SF2ST2ST4 PCPN VRY LGT SLP220=

CYVR;2006-10-18 23:00;METAR CYVR 182300Z 16007KT 12SM -DZ SCT016 OVC026 12/10 A3018 RMK SC3ST5 PCPN VRY LGT SLP219=

CYVR;2006-10-19 00:00;METAR CYVR 190000Z 13004KT 12SM -DZ SCT009 OVC019 12/10 A3017 RMK SC4SC4 SLP217=

CYVR;2006-10-19 00:32;SPECI CYVR 190032Z 10006KT 6SM -DZ BR SCT009 OVC018 12/ RMK SF3ST5=

CYVR;2006-10-19 01:00;METAR CYVR 190100Z 11005KT 3SM -DZ BR FEW009 BKN024 OVC042 11/11 A3017 RMK SF2ST3ST3 SLP218=

CYVR;2006-10-19 01:20;SPECI CYVR 190120Z 13006KT 2 1/2SM -DZ BR FEW009 SCT025 OVC036 11/ RMK SF2ST2ST5=

CYVR;2006-10-19 02:00;METAR CYVR 190200Z 14006KT 2 1/2SM -DZ BR FEW009 SCT024 OVC033 11/10 A3016 RMK SF2ST2ST4 SLP212=

CYVR;2006-10-19 03:26;SPECI CYVR 190326Z 11004KT 2 1/2SM -SHRA BR FEW003 SCT009 BKN014 OVC022 11/ RMK SF2SF2SF2SC3 PCPN VRY LGT=

CYVR;2006-10-19 03:36;SPECI CYVR 190336Z 11004KT 2 1/2SM -SHRA BR FEW003 BKN008 BKN014 OVC022 11/ RMK SF2SF2SF2SC2 PCPN VRY LGT=

CYVR;2006-10-19 04:00;METAR CYVR 190400Z 14005KT 2 1/2SM -SHRA BR FEW003 BKN007 BKN014 OVC022 11/11 A3016 RMK SF2SF3SF2SC1 SLP213=

CYVR;2006-10-19 05:00;METAR CYVR 190500Z 12007KT 4SM -SHRA BR FEW003 BKN007 BKN022 OVC051 11/10 A3016 RMK SF2SF2ST2SC2 PCPN VRY LGT SLP214=

CYVR;2006-10-19 06:00;METAR CYVR 190600Z 11005KT 4SM -DZ BR SCT002 BKN007 OVC022 11/10 A3016 RMK SF3SF3SC2 SLP212=

CYVR;2006-10-19 07:00;METAR CYVR 190700Z 09007KT 2 1/2SM -DZ BR FEW001 BKN007 OVC022 11/10 A3013 RMK SF2SF4SC2 SLP204=

CYVR;2006-10-19 08:00;METAR CYVR 190800Z 08005KT 2 1/2SM -DZ BR FEW001 SCT007 OVC011 11/11 A3014 RMK SF2SF2ST4 SLP205=

CYVR;2006-10-19 09:00;METAR CYVR 190900Z 07007KT 2 1/2SM -DZ BR SCT005 BKN011 OVC022 11/11 A3013 RMK SF3ST3ST2 SLP202=

CYVR;2006-10-19 09:53;SPECI CYVR 190953Z 07006KT 2 1/2SM -SHRA BR SCT004 OVC010 11/ RMK SF3ST5=

CYVR;2006-10-19 10:00;METAR CYVR 191000Z 07007KT 2 1/2SM -SHRA BR SCT004 OVC009 11/11 A3011 RMK SF3ST5 SLP198=

CYVR;2006-10-19 10:44;SPECI CYVR 191044Z 07007KT 3SM -SHRA BR SCT005 BKN012 OVC017 11/ RMK SF3ST3ST2=

CYVR;2006-10-19 11:00;METAR CYVR 191100Z 07006KT 8SM -RA SCT005 BKN011 OVC017 11/11 A3009 RMK SF3ST3SC2 SLP191=

CYVR;2006-10-19 12:00;METAR CYVR 191200Z 06005KT 5SM -RA BR FEW006 BKN015 OVC023 11/10 A3008 RMK SF2ST3ST2 SLP187=

CYVR;2006-10-19 13:00;METAR CYVR 191300Z 10006KT 3SM -RA BR FEW005 BKN016 OVC027 11/11 A3006 RMK SF2ST3ST2 SLP181=

CYVR;2006-10-19 13:22;SPECI CYVR 191322Z 09004KT 5SM -DZ BR SCT005 BKN016 OVC027 11/ RMK SF3ST3ST2=

CYVR;2006-10-19 14:00;METAR CYVR 191400Z 07004KT 2 1/2SM -DZ BR FEW005 BKN017 OVC027 11/11 A3007 RMK SF2ST4ST2 SLP184=

CYVR;2006-10-19 14:34;SPECI CYVR 191434Z 09006KT 5SM -DZ BR SCT004 BKN015 OVC025 11/ RMK SF4ST3ST1=

CYVR;2006-10-19 14:45;SPECI CYVR 191445Z 09005KT 5SM -DZ BR SCT004 BKN016 OVC021 11/ RMK SF4ST3ST1=

CYVR;2006-10-19 15:00;METAR CYVR 191500Z 09005KT 3SM -DZ BR SCT004 BKN015 OVC021 11/11 A3006 RMK SF4ST3ST1 VIS NE QUAD 21/2 SM SLP179=

CYVR;2006-10-19 15:18;SPECI CYVR 191518Z 09005KT 2 1/2SM -DZ BR SCT004 OVC015 11/ RMK ST4ST4=

CYVR;2006-10-19 16:00;METAR CYVR 191600Z 09005KT 1 1/2SM -DZ BR BKN004 OVC015 11/11 A3007 RMK ST5ST3 SLP182=

CYVR;2006-10-19 17:00;METAR CYVR 191700Z 11004KT 2 1/2SM -DZ BR BKN006 OVC016 12/11 A3007 RMK ST5ST3 SLP184=

CYVR;2006-10-19 17:29;SPECI CYVR 191729Z 11003KT 5SM -DZ BR SCT007 OVC015 12/ RMK SF3ST5=

CYVR;2006-10-19 17:43;SPECI CYVR 191743Z 12002KT 3SM -DZ BR SCT007 OVC012 12/ RMK SF3ST5=

CYVR;2006-10-19 17:56;SPECI CYVR 191756Z 14002KT 7SM -DZ SCT007 OVC012 12/ RMK SF3ST5=

CYVR;2006-10-19 18:00;METAR CYVR 191800Z 17002KT 7SM -DZ FEW006 BKN011 OVC024 12/12 A3008 RMK SF2ST3ST2 SLP185=

CYVR;2006-10-19 18:48;SPECI CYVR 191848Z 21003KT 15SM FEW007 BKN011 OVC025 12/ RMK SF2ST5ST2 VIS N LWR=

CYVR;2006-10-19 19:00;METAR CYVR 191900Z 24006KT 15SM FEW007 BKN010 OVC020 13/11 A3007 RMK SF2ST5ST1 SLP183=

CYVR;2006-10-19 19:28;SPECI CYVR 191928Z 24007KT 15SM SCT010 BKN017 OVC033 13/ RMK SF3ST2ST2=

CYVR;2006-10-19 20:00;METAR CYVR 192000Z 27009KT 15SM FEW005 SCT017 OVC034 13/12 A3008 RMK SF2SC2SC3 SLP185=

CYVR;2006-10-19 21:00;METAR CYVR 192100Z 28012KT 15SM SCT006 BKN010 OVC030 13/11 A3009 RMK SC4SC2SC2 SLP188=

CYVR;2006-10-19 21:40;SPECI CYVR 192140Z 28015KT 15SM BKN008 OVC013 12/ RMK SC5SC3=

CYVR;2006-10-19 22:00;METAR CYVR 192200Z 28017KT 15SM BKN007 BKN013 12/11 A3008 RMK SC6SC1 SLP187=

CYVR;2006-10-19 22:32;SPECI CYVR 192232Z 28019G26KT 15SM FEW007 SCT014 12/ RMK SF2SC1=

CYVR;2006-10-19 23:00;METAR CYVR 192300Z 28025G32KT 20SM FEW007 FEW015 12/11 A3007 RMK SF1SC1 SLP184=

CYVR;2006-10-20 00:00;METAR CYVR 200000Z 28027KT 20SM FEW015 12/09 A3007 RMK SC1 SLP183=

CYVR;2006-10-20 01:00;METAR CYVR 200100Z 28029G34KT 30SM FEW030 12/09 A3006 RMK SF0 SLP180=

CYVR;2006-10-20 02:00;METAR CYVR 200200Z 27026G33KT 30SM FEW035 FEW220 12/09 A3008 RMK SF0CI0 SLP186=

CYVR;2006-10-20 03:00;METAR CYVR 200300Z 28024G30KT 30SM FEW220 12/08 A3009 RMK CI0 SLP190=

CYVR;2006-10-20 04:00;METAR CYVR 200400Z 29027KT 30SM FEW220 12/08 A3011 RMK CI0 SLP196=

CYVR;2006-10-20 05:00;METAR CYVR 200500Z 29021G28KT 20SM FEW020 FEW220 11/08 A3013 RMK SF1CI0 SLP202=

CYVR;2006-10-20 06:00;METAR CYVR 200600Z 36009G17KT 15SM FEW020 FEW220 10/08 A3015 RMK SF1CI0 SLP209=

CYVR;2006-10-20 07:00;METAR CYVR 200700Z 10004KT 15SM FEW030 FEW220 09/08 A3018 RMK SF1CI0 SLP221=

CYVR;2006-10-20 08:00;METAR CYVR 200800Z 00000KT 15SM BKN034 10/08 A3020 RMK SC6 SLP228=

CYVR;2006-10-20 09:00;METAR CYVR 200900Z 09002KT 15SM BKN034 09/08 A3022 RMK SC7 SLP234=

CYVR;2006-10-20 10:00;METAR CYVR 201000Z 11002KT 15SM BKN034 09/08 A3024 RMK SC7 SLP240=

CYVR;2006-10-20 11:00;METAR CYVR 201100Z 08004KT 15SM OVC034 10/08 A3025 RMK SC7 SLP243=

CYVR;2006-10-20 12:00;METAR CYVR 201200Z 02003KT 15SM OVC036 10/09 A3027 RMK SC8 SLP250=

CYVR;2006-10-20 13:00;METAR CYVR 201300Z 32005KT 15SM OVC036 10/09 A3028 RMK SC8 SLP254=

CYVR;2006-10-20 14:00;METAR CYVR 201400Z 01003KT 20SM BKN034 10/09 A3029 RMK SC6 SLP258=

CYVR;2006-10-20 15:00;METAR CYVR 201500Z 00000KT 20SM FEW023 BKN032 11/09 A3031 RMK SF1SC6 SLP264=

CYVR;2006-10-20 16:00;METAR CYVR 201600Z 00000KT 20SM FEW019 OVC030 11/09 A3032 RMK SF2SC5 SLP268=

CYVR;2006-10-20 17:00;METAR CYVR 201700Z 31005KT 20SM SCT025 OVC030 11/09 A3034 RMK SC3SC5 SLP273=

CYVR;2006-10-20 18:00;METAR CYVR 201800Z 30008KT 20SM SCT025 OVC030 11/09 A3035 RMK SC3SC5 SLP278=

CYVR;2006-10-20 19:00;METAR CYVR 201900Z 30009KT 20SM FEW020 OVC033 12/09 A3035 RMK CF2SC6 SLP279=

CYVR;2006-10-20 20:00;METAR CYVR 202000Z 30011KT 20SM SCT030 12/09 A3035 RMK SC2 SLP276=

CYVR;2006-10-20 21:00;METAR CYVR 202100Z 30013KT 20SM FEW030 SCT220 12/10 A3034 RMK SC2CI0 SLP275=

CYVR;2006-10-20 22:00;METAR CYVR 202200Z 31008KT 20SM FEW030 SCT220 12/09 A3033 RMK SC1CI1 SLP272=

CYVR;2006-10-20 23:00;METAR CYVR 202300Z 31008KT 20SM FEW030 BKN220 12/09 A3033 RMK SC1CI2 SLP271=

CYVR;2006-10-21 00:00;METAR CYVR 210000Z 30004KT 20SM SCT220 12/09 A3032 RMK CI2 SLP267=

CYVR;2006-10-21 01:00;METAR CYVR 210100Z 30005KT 20SM FEW220 10/08 A3031 RMK CI0 SLP263=

CYVR;2006-10-21 02:00;METAR CYVR 210200Z 31005KT 20SM FEW220 09/08 A3031 RMK CI0 SLP264=

CYVR;2006-10-21 03:00;METAR CYVR 210300Z 35002KT 20SM FEW200 09/08 A3032 RMK CI0 SLP266=

CYVR;2006-10-21 04:00;METAR CYVR 210400Z 04003KT 20SM FEW200 09/08 A3032 RMK CI0 SLP266=

CYVR;2006-10-21 05:00;METAR CYVR 210500Z 02003KT 20SM FEW200 09/08 A3032 RMK CI0 SLP266=

CYVR;2006-10-21 06:00;METAR CYVR 210600Z 00000KT 20SM FEW200 08/07 A3032 RMK CI0 SLP267=

CYVR;2006-10-21 07:00;METAR CYVR 210700Z 04003KT 15SM FEW200 07/07 A3032 RMK CI1 SLP267=

CYVR;2006-10-21 08:00;METAR CYVR 210800Z 03002KT 15SM R26R/5500V6000FT/D MIFG SCT220 07/07 A3031 RMK CI2 SLP265=

CYVR;2006-10-21 09:00;METAR CYVR 210900Z 00000KT 15SM MIFG BKN190 08/07 A3032 RMK AC4 SLP266=

CYVR;2006-10-21 10:00;METAR CYVR 211000Z 00000KT 15SM BKN190 07/07 A3032 RMK AC4 SLP266=

CYVR;2006-10-21 11:00;METAR CYVR 211100Z 36006KT 15SM FEW020 FEW190 06/05 A3031 RMK SC1AC0 SLP264=

CYVR;2006-10-21 12:00;METAR CYVR 211200Z 04003KT 15SM FEW020 FEW190 06/05 A3031 RMK SC1AC0 SLP263=

CYVR;2006-10-21 13:00;METAR CYVR 211300Z 13004KT 15SM MIFG FEW210 06/06 A3031 RMK CI1 SLP264=

CYVR;2006-10-21 14:00;METAR CYVR 211400Z 09003KT 20SM R26R/3000V6000FT/D MIFG FEW230 06/06 A3031 RMK CI1 SLP265=

CYVR;2006-10-21 14:11;SPECI CYVR 211411Z 11005KT 20SM R26R/3000V6000FT/U MIFG FEW009 FEW230 07/ RMK SF1CI2 VIS E 2 DUE FG BNK=

CYVR;2006-10-21 14:18;SPECI CYVR 211418Z 10005KT 20SM PRFG FEW006 FEW230 07/ RMK SF1CI2 VIS E 1/2 DUE FG BNK=

CYVR;2006-10-21 14:27;SPECI CYVR 211427Z 11005KT 1SM BR FEW230 05/ RMK FG2CI1 VIS N - E 1/2=

CYVR;2006-10-21 14:39;SPECI CYVR 211439Z 11006KT 1/2SM R08R/2400FT/N R08L/3000V6000FT/U FG FEW230 04/ RMK FG2CI1 VIS SE - SW 20=

CYVR;2006-10-21 14:51;SPECI CYVR 211451Z 11006KT 1/4SM R08R/2200FT/N FG SCT230 04/ RMK FG2CI1 VIS S - SW 1=

CYVR;2006-10-21 15:00;METAR CYVR 211500Z 10004KT 1/4SM R08R/2000FT/N FG FEW230 04/04 A3031 RMK FG2CI1 SLP265=

CYVR;2006-10-21 15:25;SPECI CYVR 211525Z 11005KT 1/4SM R08L/1600V2400FT/N R08R/2400FT/N FG SCT005 SCT220 05/ RMK FG2SF1CI1=

CYVR;2006-10-21 15:35;SPECI CYVR 211535Z 10006KT 1/2SM R08L/2200FT/N R08R/2000FT/N FG FEW006 SCT220 05/ RMK FG2SF1CI1=

CYVR;2006-10-21 16:10;SPECI CYVR 211610Z 00000KT 15SM FEW009 FEW220 07/ RMK SF1CI1 VIS NE - SE 2=

CYVR;2006-10-21 17:00;METAR CYVR 211700Z 00000KT 15SM FEW010 FEW220 09/08 A3032 RMK SF1CI1 VIS E 8 SLP269=

CYVR;2006-10-21 18:25;SPECI CYVR 211825Z 29006KT 15SM FEW006 FEW220 11/ RMK SF2CI0 VIS W LWR DUE LO CLD AND FG OVR GASTR=

CYVR;2006-10-21 19:00;METAR CYVR 211900Z 29009KT 15SM FEW006 SCT015 SCT220 11/09 A3030 RMK SF2SC1CI0 VIS LWR W SLP260=

CYVR;2006-10-21 20:00;METAR CYVR 212000Z 28009KT 15SM SCT008 SCT220 11/09 A3029 RMK SC3CI0 SLP257=

CYVR;2006-10-21 21:00;METAR CYVR 212100Z 29007KT 20SM FEW007 FEW230 11/09 A3027 RMK SC2CI1 SLP250=

CYVR;2006-10-21 22:00;METAR CYVR 212200Z 29010KT 15SM SCT007 10/09 A3026 RMK SC4 SLP246=

CYVR;2006-10-21 22:30;SPECI CYVR 212230Z 31010KT 15SM FEW002 BKN007 10/ RMK SF1SC5 VIS W - NW 1 DUE FG BNK=

CYVR;2006-10-21 22:42;SPECI CYVR 212242Z 29008KT 12SM BKN003 BKN007 09/ RMK ST5SC2 VIS NW - N 3=

CYVR;2006-10-21 23:00;METAR CYVR 212300Z 31008KT 8SM BKN003 BKN006 09/09 A3024 RMK ST5SC2 VIS NW - N 2 SLP241=

CYVR;2006-10-21 23:16;SPECI CYVR 212316Z 31006KT 2SM BR BKN003 BKN005 09/ RMK ST6SC2 VIS W - N 1=

CYVR;2006-10-21 23:38;SPECI CYVR 212338Z 31006KT 4SM BR BKN003 BKN006 09/ RMK ST5SC2=

CYVR;2006-10-21 23:47;SPECI CYVR 212347Z 31004KT 8SM SCT003 BKN006 09/ RMK ST3SC3=

CYVR;2006-10-22 00:00;METAR CYVR 220000Z 27005KT 8SM FEW004 BKN006 10/09 A3022 RMK ST2SC3 SLP235=

CYVR;2006-10-22 00:33;SPECI CYVR 220033Z 30004KT 8SM BKN004 09/ RMK SC6 VIS NW 3=

CYVR;2006-10-22 01:00;METAR CYVR 220100Z 31004KT 5SM BR BKN004 09/09 A3021 RMK SC7 SLP229=

CYVR;2006-10-22 01:29;SPECI CYVR 220129Z 30004KT 2SM BR SCT002 BKN004 OVC007 09/ RMK SF3SC2SC2=

CYVR;2006-10-22 01:39;SPECI CYVR 220139Z 32004KT 1SM BR SCT002 BKN004 OVC007 09/ RMK SF4SC3SC1=

CYVR;2006-10-22 01:45;SPECI CYVR 220145Z 32005KT 1/2SM R26L/4500V6000FT/D R26R/4000V6000FT/U FG VV002 09/ RMK FG8=

CYVR;2006-10-22 02:00;METAR CYVR 220200Z 31006KT 1/2SM R26L/4000V6000FT/N R26R/2600V5000FT/D FG VV002 09/09 A3020 RMK FG8 SLP226=

CYVR;2006-10-22 02:44;SPECI CYVR 220244Z 32007KT 1/4SM R26L/3000V6000FT/D R26R/2200V3000FT/N FG VV001 09/ RMK FG8=

CYVR;2006-10-22 03:00;METAR CYVR 220300Z 33005KT 1/4SM R26L/3500V6000FT/D R26R/2200V2600FT/N FG VV002 09/09 A3019 RMK FG8 SLP224=

CYVR;2006-10-22 04:00;METAR CYVR 220400Z 31004KT 1/4SM R26L/1800V2800FT/N R26R/1000V1600FT/N FG VV002 08/08 A3017 RMK FG8 SLP218=

CYVR;2006-10-22 05:00;METAR CYVR 220500Z 29004KT 1/4SM R26L/1200V1400FT/N R26R/1200V1600FT/N FG VV001 09/09 A3017 RMK FG8 SLP216=

CYVR;2006-10-22 06:00;METAR CYVR 220600Z CCA 31002KT 1/8SM R08L/2200V2600FT/N R08R/3000V4500FT/N FG VV001 09/09 A3017 RMK FG8 SLP215=

CYVR;2006-10-22 06:47;SPECI CYVR 220647Z 29005KT 1/4SM R08L/3000V4500FT/D R08R/4000V6000FT/D FG VV001 09/ RMK FG8=

CYVR;2006-10-22 07:00;METAR CYVR 220700Z 32004KT 1/4SM R08L/2200V2600FT/N R08R/3500V4000FT/N FG VV001 08/08 A3017 RMK FG8 SLP215=

CYVR;2006-10-22 09:00;METAR CYVR 220900Z 36002KT 1/8SM R08L/2000V2400FT/N R08R/1800V2400FT/N FG VV001 07/07 A3014 RMK FG8 SLP208=

CYVR;2006-10-22 10:00;METAR CYVR 221000Z 01002KT 1/4SM R08L/3000V4000FT/D R08R/2600V2800FT/N FG VV001 07/07 A3014 RMK FG8 SLP205=

CYVR;2006-10-22 10:45;SPECI CYVR 221045Z 00000KT 1/8SM R08L/1100V1400FT/N R08R/2000V2400FT/N FG VV001 07/ RMK FG8=

CYVR;2006-10-22 11:00;METAR CYVR 221100Z 00000KT 1/8SM R08L/1100V1200FT/N R08R/1800V2200FT/N FG VV001 07/07 A3013 RMK FG8 SLP202=

CYVR;2006-10-22 12:00;METAR CYVR 221200Z 02003KT 1/8SM R08L/1600V1600FT/N R08R/2200V2800FT/N FG VV001 07/07 A3010 RMK FG8 SLP194=

CYVR;2006-10-22 13:00;METAR CYVR 221300Z 25005KT 1/8SM R08L/2400V3000FT/N R08R/3500V6000FT/U FG VV002 08/08 A3010 RMK FG8 SLP194=

CYVR;2006-10-22 13:31;SPECI CYVR 221331Z 00000KT 1/4SM R08L/2800FT/N FG VV003 08/ RMK FG8=

CYVR;2006-10-22 13:37;SPECI CYVR 221337Z 28002KT 1/2SM R08L/2200FT/N FG VV003 08/ RMK FG8=

CYVR;2006-10-22 13:55;SPECI CYVR 221355Z 36002KT 3/4SM R08L/2400FT/N BR VV004 08/ RMK FG8=

CYVR;2006-10-22 14:00;METAR CYVR 221400Z 02002KT 3/4SM R08L/2400FT/N BR VV004 08/08 A3009 RMK FG8 SLP190=

CYVR;2006-10-22 14:34;SPECI CYVR 221434Z 09002KT 1/2SM R08L/2600FT/N FG VV003 08/ RMK FG8=

CYVR;2006-10-22 15:00;METAR CYVR 221500Z 00000KT 1/2SM R08L/2800FT/N FG VV004 08/08 A3009 RMK FG8 BLN DSAPRD 500FT SLP188=

CYVR;2006-10-22 15:34;SPECI CYVR 221534Z 00000KT 1/4SM R08L/1800FT/N FG VV003 08/ RMK FG8=

CYVR;2006-10-22 16:00;METAR CYVR 221600Z 07002KT 1/4SM R08L/2400FT/N FG VV003 08/08 A3009 RMK FG8 SLP188=

CYVR;2006-10-22 17:00;METAR CYVR 221700Z 16002KT 1/4SM R08L/1200V2200FT/U R08R/2200FT/N FG VV003 07/07 A3009 RMK FG8 SLP190=

CYVR;2006-10-22 17:36;SPECI CYVR 221736Z 09003KT 1/2SM R08L/2800V6000FT/N R08R/3000V6000FT/N FG VV003 08/ RMK FG8=

CYVR;2006-10-22 17:52;SPECI CYVR 221752Z 00000KT 3/4SM BR VV004 08/ RMK FG8=

CYVR;2006-10-22 18:00;METAR CYVR 221800Z 00000KT 1SM BR OVC003 08/08 A3009 RMK ST8 SLP189=

CYVR;2006-10-22 18:04;SPECI CYVR 221804Z 00000KT 2SM BR OVC003 08/ RMK ST8=

CYVR;2006-10-22 18:22;SPECI CYVR 221822Z 00000KT 3SM BR BKN003 BKN005 08/ RMK ST6SC1=

CYVR;2006-10-22 18:40;SPECI CYVR 221840Z 22002KT 5SM BR SCT003 BKN006 09/ RMK SC3SC2 LO CLD OVR GASTR/ VIS N 15=

CYVR;2006-10-22 18:49;SPECI CYVR 221849Z 22002KT 8SM SCT004 BKN220 09/ RMK SC3CI2 LO CLD OVR GASTR / VIS N HIER=

CYVR;2006-10-22 19:00;METAR CYVR 221900Z 00000KT 8SM SCT004 SCT220 10/10 A3008 RMK SF3CI1 VIS S - W 4 DUE LO CLD AND FG SLP187=

CYVR;2006-10-22 20:00;METAR CYVR 222000Z 27005KT 15SM PRFG FEW005 SCT220 11/10 A3006 RMK SF1CI2 VIS SW - NW 2 DUE FG BNK SLP181=

CYVR;2006-10-22 21:00;METAR CYVR 222100Z 29004KT 20SM FEW005 SCT230 11/09 A3005 RMK SF1CI1 VIS NW 5 DUE FG BNK SLP175=

CYVR;2006-10-22 22:00;METAR CYVR 222200Z 31006KT 20SM FEW007 BKN230 11/09 A3005 RMK SF1CI3 FG BNK OVR GASTR SLP175=

CYVR;2006-10-22 22:32;SPECI CYVR 222232Z 30016KT 15SM BKN004 BKN220 09/ RMK SF5CI1 VIS NW 5=

CYVR;2006-10-22 23:00;METAR CYVR 222300Z 31017KT 15SM SCT005 BKN220 09/08 A3006 RMK SC4CI1 SLP181=

CYVR;2006-10-23 00:00;METAR CYVR 230000Z 29015G20KT 15SM SCT005 BKN220 09/09 A3007 RMK SC4CI2 SLP182=

CYVR;2006-10-23 00:05;SPECI CYVR 230005Z 29018KT 15SM BKN005 BKN220 09/ RMK SC6CI1 VIS LWR W=

CYVR;2006-10-23 00:20;SPECI CYVR 230020Z 29014KT 15SM SCT005 BKN190 09/ RMK SC4AC2=

CYVR;2006-10-23 01:00;METAR CYVR 230100Z 30018G24KT 15SM SCT006 BKN180 BKN220 10/09 A3007 RMK SC3AC2CI1 SLP182=

CYVR;2006-10-23 02:00;METAR CYVR 230200Z 31016KT 15SM FEW008 BKN120 OVC220 10/09 A3007 RMK SC2AC5CI1 SLP184=

CYVR;2006-10-23 03:00;METAR CYVR 230300Z 30014KT 15SM FEW008 BKN140 OVC220 11/09 A3008 RMK SC2AC5CI2 SLP187=

CYVR;2006-10-23 04:00;METAR CYVR 230400Z 30017KT 15SM BKN110 BKN220 10/09 A3010 RMK AC5CI1 SLP192=

CYVR;2006-10-23 05:00;METAR CYVR 230500Z 31017KT 15SM BKN110 11/08 A3011 RMK AC6 SLP196=

CYVR;2006-10-23 06:00;METAR CYVR 230600Z 32015G20KT 15SM FEW110 10/08 A3012 RMK AC2 SLP200=

CYVR;2006-10-23 07:00;METAR CYVR 230700Z 31015KT 15SM FEW100 FEW210 10/08 A3014 RMK AC2CI1 SLP205=

CYVR;2006-10-23 08:00;METAR CYVR 230800Z 01003KT 15SM FEW100 FEW210 08/07 A3015 RMK AC1CI1 SLP209=

CYVR;2006-10-23 09:00;METAR CYVR 230900Z 00000KT 15SM FEW011 SCT020 08/07 A3017 RMK SC2SC2 VIS N LWR SLP218=

CYVR;2006-10-23 10:00;METAR CYVR 231000Z 08003KT 15SM SCT015 08/07 A3019 RMK SC3 VIS N LWR SLP224=

CYVR;2006-10-23 11:00;METAR CYVR 231100Z 11004KT 15SM OVC014 08/07 A3020 RMK SC8 VIS N LWR SLP226=

CYVR;2006-10-23 12:00;METAR CYVR 231200Z 00000KT 15SM OVC014 09/08 A3021 RMK SC8 VIS N LWR SLP229=

CYVR;2006-10-23 12:14;SPECI CYVR 231214Z 31003KT 15SM OVC016 09/ RMK SC8=

CYVR;2006-10-23 13:00;METAR CYVR 231300Z 01003KT 15SM OVC018 09/08 A3022 RMK SC8 SLP232=

CYVR;2006-10-23 14:00;METAR CYVR 231400Z 34002KT 15SM FEW011 BKN020 09/08 A3023 RMK SF1SC6 SLP237=

CYVR;2006-10-23 15:00;METAR CYVR 231500Z 04003KT 15SM FEW012 OVC021 09/08 A3024 RMK SF1SC6 SLP240=

CYVR;2006-10-23 16:00;METAR CYVR 231600Z 04004KT 15SM FEW012 OVC022 10/08 A3024 RMK SF1SC7 SLP241=

CYVR;2006-10-23 17:00;METAR CYVR 231700Z 00000KT 15SM FEW014 OVC021 10/07 A3026 RMK SF1SC7 SLP247=

CYVR;2006-10-23 18:00;METAR CYVR 231800Z 00000KT 15SM FEW015 OVC022 11/07 A3026 RMK SF1SC7 SLP246=

CYVR;2006-10-23 19:00;METAR CYVR 231900Z 13004KT 15SM FEW014 OVC022 11/07 A3025 RMK SF1SC7 SLP244=

CYVR;2006-10-23 20:00;METAR CYVR 232000Z 11006KT 15SM BKN021 11/07 A3024 RMK SC7 SLP239=

CYVR;2006-10-23 21:00;METAR CYVR 232100Z 12006KT 15SM SCT022 OVC180 11/06 A3021 RMK SC4AS3 SLP230=

CYVR;2006-10-23 22:00;METAR CYVR 232200Z 12007KT 15SM FEW023 BKN160 OVC220 12/07 A3018 RMK SC2AS4CI1 SLP219=

CYVR;2006-10-23 23:00;METAR CYVR 232300Z 08003KT 15SM FEW020 SCT150 BKN220 11/07 A3018 RMK SC2AS2CI2 VIS LWR NE SLP219=

CYVR;2006-10-24 00:00;METAR CYVR 240000Z 13005KT 15SM FEW025 FEW150 BKN220 12/07 A3016 RMK SC1AC2CI1 SLP213=

CYVR;2006-10-24 01:00;METAR CYVR 240100Z 12005KT 15SM FEW150 SCT230 10/07 A3014 RMK AC1CI2 SLP207=

CYVR;2006-10-24 02:00;METAR CYVR 240200Z 15005KT 15SM FEW150 SCT220 10/07 A3013 RMK AC1CI2 SLP204=

CYVR;2006-10-24 03:00;METAR CYVR 240300Z 09005KT 15SM FEW025 FEW140 SCT220 07/05 A3012 RMK SC1AC1CI1 SLP199=

CYVR;2006-10-24 04:00;METAR CYVR 240400Z 10007KT 15SM FEW025 FEW140 SCT220 07/06 A3009 RMK SC1AC1CI1 SLP190=

CYVR;2006-10-24 05:00;METAR CYVR 240500Z 10005KT 12SM FEW020 FEW110 BKN210 07/06 A3009 RMK SC1AC2CI2 VIS N LWR SLP188=

CYVR;2006-10-24 06:00;METAR CYVR 240600Z 08007KT 12SM FEW040 FEW110 SCT210 06/05 A3006 RMK SC1AC1CI1 SLP181=

CYVR;2006-10-24 07:00;METAR CYVR 240700Z 10011KT 12SM FEW040 FEW110 BKN210 07/06 A3003 RMK SC2AC1CI1 VIS N LWR SLP170=

CYVR;2006-10-24 08:00;METAR CYVR 240800Z 10012KT 15SM BKN016 OVC100 08/07 A3001 RMK SC7AC1 SLP162=

CYVR;2006-10-24 08:42;SPECI CYVR 240842Z 10015KT 15SM BKN012 OVC060 08/ RMK SC6SC2=

CYVR;2006-10-24 09:00;METAR CYVR 240900Z 10011KT 15SM BKN011 OVC057 08/07 A2998 RMK SC5SC3 SLP151=

CYVR;2006-10-24 10:00;METAR CYVR 241000Z 11012KT 15SM BKN011 BKN034 OVC050 09/08 A2994 RMK SC5SC2SC2 SLP140=

CYVR;2006-10-24 10:22;SPECI CYVR 241022Z 11009KT 15SM -SHRA BKN011 BKN032 OVC050 09/ RMK SC5SC2SC2=

CYVR;2006-10-24 11:00;METAR CYVR 241100Z 13006KT 10SM -SHRA BKN011 OVC033 09/08 A2993 RMK SC5SC3 SLP134=

CYVR;2006-10-24 11:46;SPECI CYVR 241146Z 17010KT 10SM -RA FEW008 BKN011 OVC027 09/ RMK SF2SC4SC2=

CYVR;2006-10-24 11:56;SPECI CYVR 241156Z 16019KT 12SM -RA FEW008 SCT012 BKN030 OVC070 10/ RMK SF1SC2SC3AC2=

CYVR;2006-10-24 12:00;METAR CYVR 241200Z 16015G21KT 12SM -RA FEW008 SCT012 BKN030 OVC070 10/09 A2990 RMK SF1SC2SC3AC2 SLP125=

CYVR;2006-10-24 13:00;METAR CYVR 241300Z 14006KT 12SM FEW012 SCT030 OVC054 10/09 A2990 RMK SC2SC2SC5 SLP126=

CYVR;2006-10-24 13:38;SPECI CYVR 241338Z 18013KT 12SM -SHRA FEW012 SCT035 OVC080 10/ RMK SC2SC2AC4=

CYVR;2006-10-24 14:00;METAR CYVR 241400Z 19012KT 12SM -SHRA FEW015 FEW030 SCT055 BKN080 10/09 A2988 RMK SC2SC1SC2AC2 SLP120=

CYVR;2006-10-24 14:27;SPECI CYVR 241427Z 18007KT 15SM FEW014 FEW040 SCT075 09/ RMK SF2SC1AC2=

CYVR;2006-10-24 15:00;METAR CYVR 241500Z 21009KT 15SM FEW012 FEW050 SCT070 10/08 A2989 RMK SF2SC1AC2 VIS LWR NE SLP121=

CYVR;2006-10-24 16:00;METAR CYVR 241600Z 22007KT 15SM FEW012 FEW070 SCT150 11/07 A2989 RMK SF1AC2AC1 SLP123=

CYVR;2006-10-24 17:00;METAR CYVR 241700Z 22002KT 15SM FEW012 FEW030 SCT150 12/08 A2991 RMK SF1SC1AC1 SLP130=

CYVR;2006-10-24 18:00;METAR CYVR 241800Z 24006KT 20SM FEW012 FEW035 SCT090 BKN200 12/07 A2992 RMK SF1CU1AC2CI1 SLP131=

CYVR;2006-10-24 19:00;METAR CYVR 241900Z 21004KT 20SM FEW025 FEW050 BKN120 BKN220 12/05 A2993 RMK CU2SC1AC4CI1 SLP134=

CYVR;2006-10-24 20:00;METAR CYVR 242000Z 24004KT 15SM FEW025 BKN077 OVC120 12/06 A2994 RMK SC2AS4AC2 SLP138=

CYVR;2006-10-24 20:43;SPECI CYVR 242043Z 27007KT 15SM -SHRA FEW025 SCT048 OVC075 12/ RMK SC2SC2AS3=

CYVR;2006-10-24 21:00;METAR CYVR 242100Z 27007KT 15SM FEW030 SCT050 OVC078 12/07 A2994 RMK SC2SC2AS4 SLP140=

CYVR;2006-10-24 22:00;METAR CYVR 242200Z 28008KT 15SM FEW030 SCT060 BKN100 BKN210 12/07 A2995 RMK SC2SC2AC2CI2 SLP142=

CYVR;2006-10-24 23:00;METAR CYVR 242300Z 28011G17KT 20SM FEW030 BKN050 BKN100 12/08 A2998 RMK SC2SC4AC1 SLP151=

CYVR;2006-10-25 00:00;METAR CYVR 250000Z 29017KT 20SM FEW030 SCT060 BKN120 11/07 A2999 RMK SC2SC2AC2 LENT SLP155=

CYVR;2006-10-25 01:00;METAR CYVR 250100Z 28020KT 20SM FEW050 SCT120 11/07 A3000 RMK SC2AC1=

CYVR;2006-10-25 02:00;METAR CYVR 250200Z 29021G27KT 20SM FEW050 FEW120 11/07 A3002 RMK SC2AC1 SLP166=

CYVR;2006-10-25 03:00;METAR CYVR 250300Z 29023G29KT 20SM FEW100 FEW200 10/07 A3005 RMK AC2CI1 SLP177=

CYVR;2006-10-25 04:00;METAR CYVR 250400Z 28024G31KT 20SM FEW100 FEW210 10/06 A3005 RMK AC1CI2 SLP177=

CYVR;2006-10-25 05:00;METAR CYVR 250500Z 28023G31KT 20SM FEW210 10/06 A3008 RMK CI2 SLP185=

CYVR;2006-10-25 06:00;METAR CYVR 250600Z 29026G32KT 20SM FEW210 10/06 A3009 RMK CI2 SLP190=

CYVR;2006-10-25 07:00;METAR CYVR 250700Z 30019G25KT 20SM FEW210 09/06 A3013 RMK CI2 SLP202=

CYVR;2006-10-25 08:00;METAR CYVR 250800Z 31017G22KT 20SM FEW040 FEW210 09/06 A3015 RMK SC1CI1 TR SC SLP209=

CYVR;2006-10-25 09:00;METAR CYVR 250900Z 32011KT 20SM FEW220 08/05 A3017 RMK CI2 SLP217=

CYVR;2006-10-25 10:00;METAR CYVR 251000Z 03004KT 20SM FEW220 06/04 A3021 RMK CI2 SLP231=

CYVR;2006-10-25 11:00;METAR CYVR 251100Z 00000KT 20SM FEW020 FEW040 FEW220 05/04 A3023 RMK CF1SC1CI1 SLP238=

CYVR;2006-10-25 12:00;METAR CYVR 251200Z 30009KT 20SM FEW020 FEW140 FEW220 05/04 A3025 RMK SC1AC1CI1 SLP243=

CYVR;2006-10-25 13:00;METAR CYVR 251300Z 30006KT 20SM FEW040 BKN120 07/06 A3026 RMK SC2AC6 SLP247=

CYVR;2006-10-25 14:00;METAR CYVR 251400Z 08005KT 20SM FEW025 BKN100 06/05 A3028 RMK SC2AC6 VIS LWR N SLP253=

CYVR;2006-10-25 15:00;METAR CYVR 251500Z 10003KT 15SM SCT023 BKN100 BKN160 06/05 A3031 RMK SC3AC3AC1 VIS LWR N SLP263=

CYVR;2006-10-25 16:00;METAR CYVR 251600Z 09003KT 12SM SCT024 BKN090 OVC150 08/07 A3034 RMK SC3AC2AS2 SLP273=

CYVR;2006-10-25 17:00;METAR CYVR 251700Z 16002KT 12SM SCT025 OVC085 09/07 A3037 RMK SC3AS4 SLP285=

CYVR;2006-10-25 18:00;METAR CYVR 251800Z 00000KT 15SM FEW020 SCT050 OVC075 10/06 A3038 RMK SC2SC2AS4 SLP287=

CYVR;2006-10-25 19:00;METAR CYVR 251900Z 00000KT 15SM FEW020 BKN055 OVC075 11/06 A3039 RMK SC2SC3AS2 SLP291=

CYVR;2006-10-25 19:49;SPECI CYVR 251949Z 17002KT 15SM -SHRA FEW020 BKN035 BKN060 OVC075 11/ RMK SC2SC3SC2AS2=

CYVR;2006-10-25 20:00;METAR CYVR 252000Z 00000KT 15SM -SHRA FEW020 SCT035 BKN055 OVC075 11/04 A3039 RMK SC2SC2SC3AS2 SLP292=

CYVR;2006-10-25 21:00;METAR CYVR 252100Z 22006KT 15SM -SHRA FEW020 BKN041 BKN060 OVC080 11/05 A3039 RMK SC2SC3SC2AS1 SLP292=

CYVR;2006-10-25 22:00;METAR CYVR 252200Z 17003KT 8SM -RA FEW020 BKN043 OVC060 10/06 A3039 RMK SC2SC5SC2 SLP291=

CYVR;2006-10-25 23:00;METAR CYVR 252300Z 11006KT 8SM -RA FEW020 BKN044 OVC060 09/06 A3038 RMK SC2SC6SC1 SLP289=

CYVR;2006-10-26 00:00;METAR CYVR 260000Z 13007KT 10SM -RA SCT014 BKN038 OVC050 09/08 A3038 RMK SC3SC4SC1 SLP288=

CYVR;2006-10-26 01:00;METAR CYVR 260100Z 12007KT 8SM -RA BKN016 OVC038 09/08 A3037 RMK SC5SC3 SLP285=

CYVR;2006-10-26 02:00;METAR CYVR 260200Z 09010KT 8SM -RA BKN015 OVC024 09/08 A3037 RMK SC5SC3 SLP284=

CYVR;2006-10-26 03:00;METAR CYVR 260300Z 08008KT 6SM -RA BR SCT008 BKN015 OVC027 08/08 A3037 RMK SC3SC2SC2 VIS N LWR SLP285=

CYVR;2006-10-26 04:00;METAR CYVR 260400Z 09009KT 8SM -RA FEW008 SCT015 OVC038 08/08 A3036 RMK SC1SC2SC5 SLP280=

CYVR;2006-10-26 05:00;METAR CYVR 260500Z 09010KT 8SM -SHRA SCT015 OVC034 09/08 A3036 RMK SC3SC5 SLP280=

CYVR;2006-10-26 06:00;METAR CYVR 260600Z 09008KT 8SM -SHRA FEW008 SCT017 OVC028 08/08 A3034 RMK SF1SC2SC5 SLP275=

CYVR;2006-10-26 06:45;SPECI CYVR 260645Z 09010KT 8SM FEW008 OVC027 08/ RMK SF2SC6=

CYVR;2006-10-26 07:00;METAR CYVR 260700Z 09010KT 10SM FEW008 OVC025 08/08 A3033 RMK SF2SC6 SLP270=

CYVR;2006-10-26 08:00;METAR CYVR 260800Z 07010KT 10SM FEW012 OVC028 09/08 A3032 RMK SF2SC6 SLP268=

CYVR;2006-10-26 08:22;SPECI CYVR 260822Z 07010KT 8SM -RA FEW012 OVC025 09/ RMK SF2SC6 VIS N LWR=

CYVR;2006-10-26 08:55;SPECI CYVR 260855Z 12007KT 8SM FEW015 OVC028 09/ RMK SC2SC6=

CYVR;2006-10-26 09:00;METAR CYVR 260900Z 09007KT 10SM FEW015 OVC027 10/08 A3031 RMK SC2SC6 SLP264=

CYVR;2006-10-26 10:00;METAR CYVR 261000Z 11008KT 15SM FEW017 SCT028 OVC042 10/08 A3031 RMK SC2SC2SC4 SLP263=

CYVR;2006-10-26 11:00;METAR CYVR 261100Z 14012G18KT 15SM FEW025 SCT040 OVC060 10/08 A3029 RMK SC2SC2SC4 SLP258=

CYVR;2006-10-26 12:00;METAR CYVR 261200Z 16013KT 15SM FEW025 FEW040 BKN062 OVC076 11/08 A3028 RMK SC1SC2SC4AC2 SLP255=

CYVR;2006-10-26 13:00;METAR CYVR 261300Z 13011KT 15SM FEW025 SCT062 BKN140 OVC210 10/08 A3028 RMK SC1SC2AC3CI2 SLP255=

CYVR;2006-10-26 14:00;METAR CYVR 261400Z 13011KT 15SM FEW025 FEW040 BKN054 OVC061 11/08 A3028 RMK SC1SC2SC3SC2 SLP254=

CYVR;2006-10-26 15:00;METAR CYVR 261500Z 12008KT 15SM FEW025 BKN044 OVC060 11/08 A3027 RMK SC2SC5SC2 SLP251=

CYVR;2006-10-26 16:00;METAR CYVR 261600Z 09009KT 15SM FEW019 FEW035 BKN056 OVC085 11/09 A3027 RMK CF1SC2SC4AC2 SLP251=

CYVR;2006-10-26 17:00;METAR CYVR 261700Z 13010KT 15SM FEW020 FEW040 BKN055 OVC085 11/09 A3028 RMK CF1SC2SC3AC2 SLP254=

CYVR;2006-10-26 18:00;METAR CYVR 261800Z 16010G18KT 15SM FEW025 OVC057 12/09 A3028 RMK SC2SC6 SLP254=

CYVR;2006-10-26 19:00;METAR CYVR 261900Z 17017G26KT 15SM FEW025 OVC058 12/09 A3027 RMK SC2SC6 SLP252=

CYVR;2006-10-26 20:00;METAR CYVR 262000Z 18022KT 15SM FEW025 FEW045 OVC061 13/09 A3027 RMK SC2SC1SC6 SLP251=

CYVR;2006-10-26 21:00;METAR CYVR 262100Z 18020G25KT 20SM FEW025 BKN053 OVC061 13/09 A3027 RMK SC2SC5SC2 SLP250=

CYVR;2006-10-26 22:00;METAR CYVR 262200Z 18018G24KT 20SM FEW025 SCT050 OVC070 13/09 A3026 RMK SC2SC2AC5 SLP247=

CYVR;2006-10-26 23:00;METAR CYVR 262300Z 18017G25KT 20SM FEW025 FEW050 OVC070 13/09 A3027 RMK SC2SC1AC6 SLP249=

CYVR;2006-10-26 23:26;SPECI CYVR 262326Z 18020G25KT 15SM -SHRA FEW025 FEW055 OVC071 13/ RMK SC2SC1AC6 PCPN VRY LGT=

CYVR;2006-10-27 00:00;METAR CYVR 270000Z 16016G26KT 15SM -SHRA FEW025 SCT050 OVC071 12/09 A3027 RMK SC2SC2AC5 PCPN VRY LGT SLP252=

CYVR;2006-10-27 01:00;METAR CYVR 270100Z 17018KT 15SM -SHRA FEW025 OVC060 12/09 A3027 RMK SC2SC6 PCPN VRY LGT SLP251=

CYVR;2006-10-27 02:00;METAR CYVR 270200Z 17017G22KT 15SM -SHRA FEW025 OVC067 12/10 A3028 RMK SC2AC6 SLP253=

CYVR;2006-10-27 03:00;METAR CYVR 270300Z 14011G18KT 15SM -SHRA FEW025 OVC058 12/10 A3029 RMK SC2SC6 SLP256=

CYVR;2006-10-27 04:00;METAR CYVR 270400Z 14009KT 15SM -SHRA FEW025 OVC058 12/10 A3029 RMK SC2SC6 SLP256=

CYVR;2006-10-27 05:00;METAR CYVR 270500Z 12010KT 15SM -SHRA FEW025 OVC053 12/10 A3030 RMK SC2SC6 PCPN VRY LGT SLP259=

CYVR;2006-10-27 05:43;SPECI CYVR 270543Z 11008KT 15SM FEW025 BKN054 OVC065 12/ RMK SC2SC3SC3=

CYVR;2006-10-27 06:00;METAR CYVR 270600Z 11005KT 15SM FEW025 BKN059 OVC080 12/10 A3030 RMK SC2SC3AC3 SLP261=

CYVR;2006-10-27 07:00;METAR CYVR 270700Z 12009KT 15SM FEW025 SCT060 BKN091 OVC110 12/10 A3030 RMK SF1SC2AC2AC2 SLP260=

CYVR;2006-10-27 08:00;METAR CYVR 270800Z 09009KT 15SM FEW025 BKN066 OVC084 13/10 A3030 RMK SF1AC4AC3 SLP262=

CYVR;2006-10-27 09:00;METAR CYVR 270900Z 14010KT 15SM FEW025 BKN071 OVC083 12/10 A3031 RMK SF2AC3AC3 SLP263=

CYVR;2006-10-27 10:00;METAR CYVR 271000Z 13006KT 15SM FEW011 SCT072 OVC200 11/10 A3031 RMK SF2AC2CC3 SLP264=

CYVR;2006-10-27 11:00;METAR CYVR 271100Z 09009KT 15SM FEW012 BKN067 OVC210 12/10 A3031 RMK SF2AC3CS2 SLP265=

CYVR;2006-10-27 12:00;METAR CYVR 271200Z 10007KT 15SM SCT014 BKN062 OVC230 12/10 A3031 RMK SF2SC3CI2 SLP263=

CYVR;2006-10-27 13:00;METAR CYVR 271300Z 11008KT 15SM FEW015 SCT042 OVC063 12/10 A3030 RMK SF2SC2SC4 SLP262=

CYVR;2006-10-27 14:00;METAR CYVR 271400Z 13006KT 15SM FEW015 BKN063 12/11 A3031 RMK SF2SC5 SLP264=

CYVR;2006-10-27 15:00;METAR CYVR 271500Z 11007KT 15SM FEW015 SCT060 OVC072 12/11 A3032 RMK SF2SC1AC5 SLP266=

CYVR;2006-10-27 16:00;METAR CYVR 271600Z 11004KT 15SM FEW015 SCT045 BKN075 12/11 A3033 RMK SC1SC1AC2 SLP270=

CYVR;2006-10-27 17:00;METAR CYVR 271700Z 16008KT 15SM FEW015 FEW045 BKN061 13/11 A3035 RMK SC1SC1SC5 SLP276=

CYVR;2006-10-27 18:00;METAR CYVR 271800Z 18015KT 15SM FEW015 BKN060 14/11 A3034 RMK SC2SC5 SLP275=

CYVR;2006-10-27 19:00;METAR CYVR 271900Z 18011KT 15SM FEW020 OVC057 14/11 A3034 RMK SC2SC6 SLP275=

CYVR;2006-10-27 20:00;METAR CYVR 272000Z 18010G15KT 15SM FEW020 FEW025 OVC063 14/11 A3035 RMK CF1SC2SC6 SLP277=

CYVR;2006-10-27 21:00;METAR CYVR 272100Z 18012G17KT 15SM FEW020 BKN066 14/11 A3034 RMK SC1AC5 SLP274=

CYVR;2006-10-27 22:00;METAR CYVR 272200Z 17013KT 15SM FEW020 BKN053 OVC065 14/11 A3034 RMK SC2SC3SC2 SLP274=

CYVR;2006-10-27 23:00;METAR CYVR 272300Z 16008KT 15SM FEW020 OVC052 14/11 A3033 RMK SC2SC5 SLP271=

CYVR;2006-10-28 00:00;METAR CYVR 280000Z 17008KT 20SM FEW025 SCT053 BKN065 14/11 A3032 RMK SC2SC2SC3 SLP268=

CYVR;2006-10-28 01:00;METAR CYVR 280100Z 15006KT 20SM FEW025 BKN061 BKN068 14/11 A3032 RMK SC2SC3AC1 SLP266=

CYVR;2006-10-28 02:00;METAR CYVR 280200Z 11007KT 20SM FEW025 SCT060 BKN075 13/11 A3031 RMK SC2SC2AC2 SLP265=

CYVR;2006-10-28 03:00;METAR CYVR 280300Z 09006KT 20SM FEW025 BKN073 BKN084 13/11 A3031 RMK SF2AC2AC2 SLP263=

CYVR;2006-10-28 04:00;METAR CYVR 280400Z 08007KT 15SM FEW058 BKN062 OVC083 13/11 A3030 RMK SC2SC3AC2 SLP261=

CYVR;2006-10-28 05:00;METAR CYVR 280500Z 12006KT 15SM SCT060 OVC084 13/10 A3030 RMK SC3AC5 SLP260=

CYVR;2006-10-28 06:00;METAR CYVR 280600Z 11006KT 15SM FEW060 OVC084 12/10 A3029 RMK SC2AC6 SLP257=

CYVR;2006-10-28 07:00;METAR CYVR 280700Z 09005KT 15SM SCT075 OVC090 12/10 A3029 RMK AC4AC4 SLP256=

CYVR;2006-10-28 08:00;METAR CYVR 280800Z 11005KT 15SM FEW025 SCT073 OVC088 12/10 A3027 RMK SC1AC3AC4 SLP252=

CYVR;2006-10-28 09:00;METAR CYVR 280900Z 07007KT 15SM FEW025 BKN075 OVC085 12/10 A3027 RMK SC1AC5AC2 SLP250=

CYVR;2006-10-28 10:00;METAR CYVR 281000Z 08007KT 15SM FEW025 BKN078 OVC092 12/10 A3026 RMK SC2AC4AC2 SLP248=

CYVR;2006-10-28 11:00;METAR CYVR 281100Z 08006KT 15SM FEW025 BKN078 OVC091 11/10 A3025 RMK SC2AC3AC2 SLP244=

CYVR;2006-10-28 12:00;METAR CYVR 281200Z 08007KT 15SM FEW025 BKN073 OVC089 11/10 A3024 RMK SC2AC5AC1 SLP239=

CYVR;2006-10-28 13:00;METAR CYVR 281300Z 09007KT 15SM BKN073 OVC093 11/10 A3023 RMK AC6AC2 SLP236=

CYVR;2006-10-28 14:00;METAR CYVR 281400Z 09009KT 15SM FEW020 BKN074 OVC087 11/10 A3022 RMK SF1AC4AC2 SLP233=

CYVR;2006-10-28 15:00;METAR CYVR 281500Z 10009KT 15SM FEW020 BKN065 BKN075 11/10 A3021 RMK SF1SC4AC1 SLP229=

CYVR;2006-10-28 16:00;METAR CYVR 281600Z 10009KT 20SM FEW020 SCT075 11/10 A3020 RMK SF1AC2 SLP227=

CYVR;2006-10-28 17:00;METAR CYVR 281700Z 10013KT 20SM FEW010 BKN077 12/10 A3020 RMK SF2AC4 SLP226=

CYVR;2006-10-28 18:00;METAR CYVR 281800Z 11010KT 20SM FEW010 OVC071 12/10 A3019 RMK SC2AC6 SLP225=

CYVR;2006-10-28 19:00;METAR CYVR 281900Z 10010KT 20SM SCT010 OVC063 13/11 A3018 RMK SC3SC4 SLP221=

CYVR;2006-10-28 20:00;METAR CYVR 282000Z 11007KT 20SM FEW010 OVC057 13/11 A3016 RMK SC2SC6 SLP214=

CYVR;2006-10-28 21:00;METAR CYVR 282100Z 09007KT 20SM FEW010 FEW055 BKN075 BKN180 14/11 A3014 RMK SC1SC1AC2AC1 SLP207=

CYVR;2006-10-28 22:00;METAR CYVR 282200Z 09008KT 20SM FEW015 FEW045 BKN075 BKN180 14/11 A3011 RMK SC1SC1AC2AC1 SLP198=

CYVR;2006-10-28 23:00;METAR CYVR 282300Z 10008KT 20SM FEW015 FEW045 BKN078 BKN180 13/11 A3008 RMK SC1SC1AC4AC1 SLP187=

CYVR;2006-10-29 00:00;METAR CYVR 290000Z 09007KT 20SM FEW015 BKN068 13/10 A3006 RMK SC2AC4 SLP180=

CYVR;2006-10-29 01:00;METAR CYVR 290100Z 10006KT 20SM FEW035 OVC058 12/10 A3004 RMK SC2SC6 SLP174=

CYVR;2006-10-29 02:00;METAR CYVR 290200Z 09004KT 20SM FEW058 BKN079 BKN091 12/10 A3002 RMK SC2AC2AC2 SLP165=

CYVR;2006-10-29 03:00;METAR CYVR 290300Z 19008KT 15SM FEW059 BKN079 BKN091 14/08 A2999 RMK SC2AC3AC2 SLP155=

CYVR;2006-10-29 04:00;METAR CYVR 290400Z 15010KT 15SM FEW059 SCT071 BKN090 13/08 A2995 RMK SC1AC2AC3 SLP143=

CYVR;2006-10-29 05:00;METAR CYVR 290500Z 17012KT 15SM FEW059 BKN069 BKN089 13/08 A2991 RMK SC2AC3AC2 SLP129=

CYVR;2006-10-29 05:22;SPECI CYVR 290522Z 18014KT 15SM -SHRA FEW030 OVC061 13/ RMK SC2SC6 PCPN VRY LGT=

CYVR;2006-10-29 06:00;METAR CYVR 290600Z 19015G20KT 12SM -SHRA SCT030 OVC050 13/09 A2988 RMK SF2SC6 PCPN VRY LGT SLP120=

CYVR;2006-10-29 06:27;SPECI CYVR 290627Z 29021KT 10SM -SHRA SCT008 BKN019 OVC032 10/ RMK SF3SC3SC2 PCPN VRY LGT=

CYVR;2006-10-29 07:00;METAR CYVR 290700Z 29020G27KT 7SM -RA SCT008 OVC018 09/09 A2990 RMK SF4SC4 SLP124=

CYVR;2006-10-29 07:15;SPECI CYVR 290715Z 28025KT 2 1/2SM -RA BR SCT009 OVC025 09/ RMK SF4SC4=

CYVR;2006-10-29 08:00;METAR CYVR 290800Z 29023G28KT 10SM -SHRA SCT009 OVC037 09/08 A2988 RMK SF2SC6 SLP119=

CYVR;2006-10-29 09:00;METAR CYVR 290900Z 29023G31KT 10SM -SHRA FEW009 OVC060 09/07 A2988 RMK SF2SC6 PCPN VRY LGT SLP119=

CYVR;2006-10-29 09:46;SPECI CYVR 290946Z 28024G31KT 15SM FEW009 FEW060 FEW100 SCT220 09/ RMK SF0SC1AC1CI2=

CYVR;2006-10-29 10:00;METAR CYVR 291000Z 29023G29KT 15SM FEW060 FEW100 SCT220 09/06 A2988 RMK SC1AC1CI0 SLP118=

CYVR;2006-10-29 11:00;METAR CYVR 291100Z 29029KT 15SM FEW060 SCT200 09/04 A2987 RMK SC1CI1 SLP116=

CYVR;2006-10-29 12:00;METAR CYVR 291200Z 30025G33KT 15SM FEW071 SCT200 08/03 A2987 RMK AC1CI0 SLP115=

CYVR;2006-10-29 13:00;METAR CYVR 291300Z 29023G29KT 15SM FEW050 BKN087 08/03 A2987 RMK SF1AC6 SLP114=

CYVR;2006-10-29 14:00;METAR CYVR 291400Z 28028G35KT 20SM FEW050 SCT100 08/03 A2985 RMK SC1AC2 SLP108=

CYVR;2006-10-29 15:00;METAR CYVR 291500Z 30031G36KT 20SM FEW030 FEW050 07/02 A2984 RMK SC1SC2 SLP106=

CYVR;2006-10-29 16:00;METAR CYVR 291600Z 30028G36KT 20SM FEW030 FEW050 07/03 A2985 RMK SC2SC1 SLP107=

CYVR;2006-10-29 17:00;METAR CYVR 291700Z 30027G35KT 20SM FEW030 FEW050 08/03 A2985 RMK SC2SC1 SLP110=

CYVR;2006-10-29 18:00;METAR CYVR 291800Z 32018KT 20SM FEW040 BKN072 09/03 A2986 RMK SC2AC5 SLP111=

CYVR;2006-10-29 18:56;SPECI CYVR 291856Z 33014G21KT 15SM -SHRA BKN028 OVC040 08/ RMK SC5SC3=

CYVR;2006-10-29 19:00;METAR CYVR 291900Z 33015G21KT 15SM -SHRA BKN026 OVC039 07/03 A2992 RMK SC5SC3 PRESRR SLP132=

CYVR;2006-10-29 19:55;SPECI CYVR 291955Z 31015KT 20SM SCT028 BKN041 BKN080 08/ RMK SC3SC2AC2=

CYVR;2006-10-29 20:00;METAR CYVR 292000Z 31017KT 20SM SCT028 BKN041 BKN078 08/05 A2994 RMK SC3SC2AC2 SLP140=

CYVR;2006-10-29 21:00;METAR CYVR 292100Z 35020G28KT 20SM FEW030 FEW080 SCT200 11/M04 A2994 RMK SC2AC1CI1 SLP139=

CYVR;2006-10-29 22:00;METAR CYVR 292200Z 36021G29KT 20SM FEW040 FEW080 11/M06 A2996 RMK SC1AC1 SLP147=

CYVR;2006-10-29 23:00;METAR CYVR 292300Z 34020G25KT 20SM FEW040 10/M08 A3000 RMK SC2 SLP159=

CYVR;2006-10-30 00:00;METAR CYVR 300000Z 35018G24KT 20SM FEW040 09/M08 A3003 RMK SC1 SLP170=

CYVR;2006-10-30 01:00;METAR CYVR 300100Z 35014KT 20SM FEW040 08/M09 A3006 RMK SC1 SLP180=

CYVR;2006-10-30 03:00;METAR CYVR 300300Z 35007KT 20SM FEW040 06/M07 A3014 RMK SC1 SLP205=

CYVR;2006-10-30 04:00;METAR CYVR 300400Z 03006KT 20SM FEW040 05/M05 A3017 RMK SC1 SLP216=

CYVR;2006-10-30 05:00;METAR CYVR 300500Z 08004KT 20SM FEW040 02/M05 A3020 RMK SC1 SLP226=

CYVR;2006-10-30 06:00;METAR CYVR 300600Z 09009KT 20SM SKC 03/M05 A3023 RMK SLP238=

CYVR;2006-10-30 08:00;METAR CYVR 300800Z 13005KT 20SM SKC 03/M05 A3027 RMK SLP249=

CYVR;2006-10-30 09:00;METAR CYVR 300900Z 06002KT 20SM SKC 02/M03 A3030 RMK SLP259=

CYVR;2006-10-30 10:00;METAR CYVR 301000Z 09005KT 20SM SKC 02/M04 A3031 RMK SLP265=

CYVR;2006-10-30 11:00;METAR CYVR 301100Z 09004KT 20SM SKC M01/M05 A3032 RMK SLP267=

CYVR;2006-10-30 12:00;METAR CYVR 301200Z 14004KT 20SM SKC M01/M04 A3033 RMK SLP271=

CYVR;2006-10-30 13:00;METAR CYVR 301300Z 11004KT 20SM SKC 00/M04 A3034 RMK SLP273=

CYVR;2006-10-30 14:00;METAR CYVR 301400Z 11005KT 20SM SKC M00/M03 A3035 RMK SLP277=

CYVR;2006-10-30 15:00;METAR CYVR 301500Z 10006KT 20SM FEW090 M01/M03 A3035 RMK AC1 TR AC SLP278=

CYVR;2006-10-30 16:00;METAR CYVR 301600Z 11004KT 30SM FEW090 01/M03 A3036 RMK AC1 TR AC SLP281=

CYVR;2006-10-30 17:00;METAR CYVR 301700Z 11005KT 30SM SKC 03/M03 A3037 RMK SLP284=

CYVR;2006-10-30 18:00;METAR CYVR 301800Z 11005KT 30SM SKC 05/M05 A3037 RMK SLP283=

CYVR;2006-10-30 19:00;METAR CYVR 301900Z 27004KT 30SM SKC 06/M08 A3037 RMK SLP283=

CYVR;2006-10-30 20:00;METAR CYVR 302000Z 24006KT 30SM SKC 06/M06 A3035 RMK SLP278=

CYVR;2006-10-30 21:00;METAR CYVR 302100Z 27008KT 30SM SKC 06/M04 A3034 RMK SLP275=

CYVR;2006-10-30 22:00;METAR CYVR 302200Z 27007KT 30SM SKC 06/M04 A3033 RMK SLP271=

CYVR;2006-10-30 23:00;METAR CYVR 302300Z 30006KT 30SM SKC 06/M04 A3032 RMK SLP268=

CYVR;2006-10-31 00:00;METAR CYVR 310000Z 27006KT 30SM SKC 05/M04 A3031 RMK SLP265=

CYVR;2006-10-31 01:00;METAR CYVR 310100Z 28004KT 30SM SKC 04/M05 A3031 RMK SLP263=

CYVR;2006-10-31 02:00;METAR CYVR 310200Z 36003KT 30SM SKC 03/M04 A3030 RMK SLP261=

CYVR;2006-10-31 03:00;METAR CYVR 310300Z 36003KT 30SM SKC 04/M04 A3030 RMK SLP262=

CYVR;2006-10-31 04:00;METAR CYVR 310400Z 08004KT 30SM FEW210 02/M03 A3031 RMK CI1 SLP263=

CYVR;2006-10-31 05:00;METAR CYVR 310500Z 09004KT 30SM FEW210 01/M03 A3030 RMK CI1 SLP262=

CYVR;2006-10-31 06:00;METAR CYVR 310600Z 09005KT 30SM FEW200 01/M04 A3030 RMK CI1 SLP262=

CYVR;2006-10-31 07:00;METAR CYVR 310700Z 09003KT 30SM FEW210 01/M03 A3030 RMK CI0 SLP261=

CYVR;2006-10-31 08:00;METAR CYVR 310800Z 00000KT 30SM FEW210 01/M03 A3030 RMK CI0 SLP261=

CYVR;2006-10-31 09:00;METAR CYVR 310900Z 02003KT 30SM SKC M00/M03 A3031 RMK SLP263=

CYVR;2006-10-31 10:00;METAR CYVR 311000Z 10002KT 30SM SKC M01/M03 A3031 RMK SLP263=

CYVR;2006-10-31 11:00;METAR CYVR 311100Z 10003KT 30SM SKC M01/M03 A3030 RMK SLP261=

CYVR;2006-10-31 12:00;METAR CYVR 311200Z 12006KT 30SM SKC M02/M04 A3030 RMK SLP261=

CYVR;2006-10-31 13:00;METAR CYVR 311300Z 09003KT 30SM SKC M02/M03 A3031 RMK FROIN SLP263=

CYVR;2006-10-31 14:00;METAR CYVR 311400Z 00000KT 30SM SKC M02/M03 A3031 RMK SLP264=

CYVR;2006-10-31 15:00;METAR CYVR 311500Z 11004KT 30SM SKC M01/M03 A3032 RMK SLP266=

CYVR;2006-10-31 16:00;METAR CYVR 311600Z 12004KT 30SM SKC 00/M02 A3032 RMK SLP268=

CYVR;2006-10-31 17:00;METAR CYVR 311700Z 11005KT 30SM SKC 02/M01 A3033 RMK SLP272=

CYVR;2006-10-31 18:00;METAR CYVR 311800Z 14004KT 30SM SKC 04/M01 A3033 RMK SLP271=

CYVR;2006-10-31 19:00;METAR CYVR 311900Z 31002KT 30SM FEW240 06/M02 A3032 RMK CI1 TR CI SLP269=

CYVR;2006-10-31 20:00;METAR CYVR 312000Z 27007KT 30SM FEW240 06/M01 A3032 RMK CI1 SLP269=

CYVR;2006-10-31 21:00;METAR CYVR 312100Z 29006KT 30SM FEW240 06/M00 A3031 RMK CI1 TR CI SLP264=

CYVR;2006-10-31 22:00;METAR CYVR 312200Z 31007KT 30SM FEW240 07/00 A3030 RMK CI1 TR CI SLP260=

CYVR;2006-10-31 23:00;METAR CYVR 312300Z 30008KT 30SM FEW220 07/01 A3029 RMK CI1 SLP258=

CYVR;2006-11-01 00:00;METAR CYVR 010000Z 31007KT 30SM FEW220 06/00 A3028 RMK CI1 SLP254=

CYVR;2006-11-01 01:00;METAR CYVR 010100Z 32006KT 30SM SCT220 03/M01 A3027 RMK CI1 SLP249=

CYVR;2006-11-01 02:00;METAR CYVR 010200Z 32005KT 30SM SCT220 03/M01 A3026 RMK CI1 SLP248=

CYVR;2006-11-01 03:00;METAR CYVR 010300Z 00000KT 30SM FEW220 04/M02 A3027 RMK CI1 SLP249=

CYVR;2006-11-01 04:00;METAR CYVR 010400Z 07005KT 30SM FEW220 04/M02 A3026 RMK CI1 SLP247=

CYVR;2006-11-01 05:00;METAR CYVR 010500Z 01003KT 30SM FEW230 02/M03 A3026 RMK CI1 SLP247=

CYVR;2006-11-01 06:00;METAR CYVR 010600Z 02004KT 30SM FEW240 01/M04 A3026 RMK CI1 SLP247=

CYVR;2006-11-01 07:00;METAR CYVR 010700Z 13004KT 30SM FEW240 02/M03 A3026 RMK CI1 SLP246=

CYVR;2006-11-01 08:00;METAR CYVR 010800Z 08003KT 20SM FEW020 FEW240 01/M02 A3024 RMK SF1CI1 SLP240=

CYVR;2006-11-01 09:00;METAR CYVR 010900Z 00000KT 20SM FEW240 M01/M03 A3024 RMK CI1 SLP239=

CYVR;2006-11-01 10:00;METAR CYVR 011000Z 11006KT 15SM FEW240 M01/M02 A3022 RMK CI1 SLP233=

CYVR;2006-11-01 11:00;METAR CYVR 011100Z 04002KT 15SM FEW240 M00/M01 A3021 RMK CI1 VIS LWR E SLP230=

CYVR;2006-11-01 12:00;METAR CYVR 011200Z 09005KT 15SM FEW240 M01/M03 A3019 RMK CI2 VIS LWR E SLP224=

CYVR;2006-11-01 13:00;METAR CYVR 011300Z 00000KT 20SM FEW240 M00/M01 A3018 RMK CI2 SLP221=

CYVR;2006-11-01 14:00;METAR CYVR 011400Z 00000KT 20SM FEW240 M01/M02 A3017 RMK CI2 SLP218=

CYVR;2006-11-01 15:00;METAR CYVR 011500Z 12005KT 20SM BKN240 M01/M03 A3017 RMK CI2 SLP215=

CYVR;2006-11-01 16:00;METAR CYVR 011600Z 11005KT 20SM BKN240 M00/M02 A3016 RMK CI3 SLP214=

CYVR;2006-11-01 17:00;METAR CYVR 011700Z 10005KT 20SM BKN240 03/M01 A3016 RMK CI2 SLP213=

CYVR;2006-11-01 18:00;METAR CYVR 011800Z 13002KT 20SM OVC220 06/M01 A3015 RMK CI4 SLP210=

CYVR;2006-11-01 19:00;METAR CYVR 011900Z 26004KT 20SM OVC230 07/M02 A3014 RMK CI4 SLP207=

CYVR;2006-11-01 20:00;METAR CYVR 012000Z 29003KT 20SM OVC230 07/M02 A3011 RMK CI5 SLP198=

CYVR;2006-11-01 21:00;METAR CYVR 012100Z 30007KT 20SM OVC220 08/M01 A3010 RMK CI5 SLP192=

CYVR;2006-11-01 22:00;METAR CYVR 012200Z 31004KT 20SM FEW170 OVC210 07/00 A3007 RMK AC1CS6 SLP183=

CYVR;2006-11-01 23:00;METAR CYVR 012300Z 25004KT 20SM FEW160 OVC200 07/01 A3005 RMK AC2CS5 SLP177=

CYVR;2006-11-02 00:00;METAR CYVR 020000Z 29002KT 20SM FEW170 OVC200 07/02 A3004 RMK AC2CS3 SLP171=

CYVR;2006-11-02 01:00;METAR CYVR 020100Z 32004KT 20SM BKN170 OVC210 05/01 A3002 RMK AC6CS2 SLP166=

CYVR;2006-11-02 02:00;METAR CYVR 020200Z 35003KT 20SM SCT170 BKN210 04/M00 A3001 RMK AC3CS2 SLP161=

CYVR;2006-11-02 03:00;METAR CYVR 020300Z 00000KT 20SM SCT170 BKN200 05/00 A3001 RMK AC3CS2 SLP162=

CYVR;2006-11-02 04:00;METAR CYVR 020400Z 34003KT 20SM BKN160 BKN210 05/01 A3000 RMK AC5CS2 SLP160=

CYVR;2006-11-02 05:00;METAR CYVR 020500Z 00000KT 20SM BKN150 BKN210 04/01 A3000 RMK AC5CS2 SLP158=

CYVR;2006-11-02 06:00;METAR CYVR 020600Z 10002KT 20SM BKN140 OVC210 05/02 A3000 RMK AC6CS2 SLP158=

CYVR;2006-11-02 07:00;METAR CYVR 020700Z 13003KT 20SM BKN110 OVC150 05/01 A2999 RMK AC6AC2 SLP156=

CYVR;2006-11-02 08:00;METAR CYVR 020800Z 09004KT 20SM BKN085 OVC120 05/01 A2997 RMK AC6AC2 SLP149=

CYVR;2006-11-02 09:00;METAR CYVR 020900Z 11003KT 20SM BKN086 OVC110 05/01 A2996 RMK AC6AC2 SLP144=

CYVR;2006-11-02 10:00;METAR CYVR 021000Z 09002KT 15SM BKN084 OVC110 05/01 A2994 RMK AC6AC2 SLP139=

CYVR;2006-11-02 11:00;METAR CYVR 021100Z 07005KT 15SM FEW060 BKN082 OVC100 05/01 A2992 RMK SC2AC5AC2 SLP132=

CYVR;2006-11-02 11:37;SPECI CYVR 021137Z 03002KT 15SM -SHRA SCT061 BKN080 OVC100 05/ RMK SC4AC3AC1=

CYVR;2006-11-02 12:00;METAR CYVR 021200Z 04004KT 12SM -SHRA SCT050 BKN062 OVC080 05/02 A2988 RMK SC3SC3AC2 SLP120=

CYVR;2006-11-02 13:00;METAR CYVR 021300Z 01003KT 15SM -SHRA BKN051 BKN060 OVC080 06/02 A2985 RMK SC6SC2AC1 SLP109=

CYVR;2006-11-02 14:00;METAR CYVR 021400Z 15004KT 15SM -SHRA BKN052 OVC070 06/02 A2983 RMK SC6AC2 SLP101=

CYVR;2006-11-02 15:00;METAR CYVR 021500Z 22003KT 15SM -SHRA OVC053 05/02 A2981 RMK SC8 SLP094=

CYVR;2006-11-02 16:00;METAR CYVR 021600Z 01003KT 12SM -SHRA OVC047 06/03 A2980 RMK SC8 SLP092=

CYVR;2006-11-02 17:00;METAR CYVR 021700Z 11003KT 8SM -RA BKN037 OVC050 06/03 A2980 RMK SC6SC2 SLP091=

CYVR;2006-11-02 18:00;METAR CYVR 021800Z 14002KT 8SM -RA BKN035 OVC047 05/03 A2978 RMK SC6SC2 SLP086=

CYVR;2006-11-02 19:00;METAR CYVR 021900Z 02004KT 6SM -RA BR OVC037 05/04 A2977 RMK SC8 SLP080=

CYVR;2006-11-02 20:00;METAR CYVR 022000Z 03003KT 10SM -RA BKN031 OVC050 06/05 A2973 RMK SC6SC2 SLP069=

CYVR;2006-11-02 20:33;SPECI CYVR 022033Z 08004KT 10SM BKN030 OVC050 06/ RMK SC6SC2=

CYVR;2006-11-02 21:00;METAR CYVR 022100Z 08002KT 12SM BKN030 OVC050 06/05 A2971 RMK SC6SC2 SLP062=

CYVR;2006-11-02 21:16;SPECI CYVR 022116Z 11002KT 12SM -RA BKN029 OVC050 06/ RMK SC6SC2=

CYVR;2006-11-02 22:00;METAR CYVR 022200Z 27002KT 10SM -RA SCT012 OVC029 06/05 A2969 RMK SC3SC5 SLP054=

CYVR;2006-11-02 22:13;SPECI CYVR 022213Z 00000KT 5SM -RA BR SCT009 OVC029 06/ RMK SC3SC5=

CYVR;2006-11-02 22:43;SPECI CYVR 022243Z 00000KT 3SM -RA BR BKN008 OVC029 06/ RMK SC5SC3=

CYVR;2006-11-02 23:00;METAR CYVR 022300Z 32002KT 3SM -RA BR BKN008 OVC029 06/06 A2967 RMK SC5SC3 SLP046=

CYVR;2006-11-02 23:33;SPECI CYVR 022333Z 04002KT 2 1/2SM -RA BR SCT008 OVC030 06/ RMK SC3SC5=

CYVR;2006-11-03 00:00;METAR CYVR 030000Z 08004KT 5SM -RA BR FEW008 OVC029 06/06 A2965 RMK SC2SC6 SLP041=

CYVR;2006-11-03 01:00;METAR CYVR 030100Z 11007KT 6SM -RA BR FEW008 OVC022 07/07 A2963 RMK SC2SC6 SLP035=

CYVR;2006-11-03 02:00;METAR CYVR 030200Z 11004KT 6SM -RA BR FEW007 OVC023 07/07 A2964 RMK SC2SC6 SLP036=

CYVR;2006-11-03 03:00;METAR CYVR 030300Z 10009KT 5SM -RA BR FEW007 OVC020 07/07 A2964 RMK SC2SC6 SLP036=

CYVR;2006-11-03 04:00;METAR CYVR 030400Z 09008KT 4SM -RA BR FEW006 BKN017 OVC025 08/08 A2964 RMK SF2SC6SC1 SLP038=

CYVR;2006-11-03 04:16;SPECI CYVR 030416Z 09012KT 5SM BR FEW005 BKN016 OVC025 08/ RMK SF2SC6SC1=

CYVR;2006-11-03 04:33;SPECI CYVR 030433Z 09010KT 5SM -SHRA BR FEW006 BKN017 OVC025 08/ RMK SF2SC5SC2=

CYVR;2006-11-03 05:00;METAR CYVR 030500Z 09010KT 8SM -SHRA FEW006 BKN018 OVC025 08/08 A2963 RMK SF2SC5SC2 SLP034=

CYVR;2006-11-03 05:49;SPECI CYVR 030549Z 08009KT 5SM -SHRA BR FEW007 BKN014 OVC030 08/ RMK SF2SC5SC2=

CYVR;2006-11-03 06:00;METAR CYVR 030600Z 11007KT 5SM -SHRA BR FEW007 BKN015 OVC030 08/08 A2966 RMK SF2SC6SC1 SLP043=

CYVR;2006-11-03 07:00;METAR CYVR 030700Z 08009KT 5SM -RA BR FEW007 BKN014 OVC025 09/08 A2966 RERA RMK SF2SC5SC2 SLP044=

CYVR;2006-11-03 08:00;METAR CYVR 030800Z 09011KT 8SM FEW006 BKN011 OVC020 09/08 A2966 RMK SF2SC6SC1 SLP045=

CYVR;2006-11-03 08:38;SPECI CYVR 030838Z 09010KT 8SM -SHRA FEW006 BKN012 OVC020 09/ RMK SF2SC5SC2=

CYVR;2006-11-03 09:00;METAR CYVR 030900Z 09010KT 5SM RA BR FEW008 BKN013 OVC035 09/08 A2965 RMK SF2SC4SC2 SLP041=

CYVR;2006-11-03 10:00;METAR CYVR 031000Z 10013KT 5SM -RA BR SCT005 BKN011 BKN020 OVC035 09/09 A2966 RMK SC3SC2SC2SC2 SLP043=

CYVR;2006-11-03 10:27;SPECI CYVR 031027Z 11011KT 5SM -RA BR BKN007 BKN012 OVC032 09/ RMK SF5SC2SC2=

CYVR;2006-11-03 11:00;METAR CYVR 031100Z 10012KT 5SM -RA BR BKN006 BKN012 OVC025 09/09 A2965 RMK SF5SC2SC1 SLP042=

CYVR;2006-11-03 12:00;METAR CYVR 031200Z 11011G16KT 6SM -RA BKN007 BKN012 OVC025 10/10 A2965 RMK SF5SC2SC1 /R10/ SLP041=

CYVR;2006-11-03 13:00;METAR CYVR 031300Z 07009KT 3SM +RA BR SCT003 BKN006 OVC015 10/10 A2965 RMK SF3SF3SC2 SLP042=

CYVR;2006-11-03 14:00;METAR CYVR 031400Z 09010KT 5SM -RA BR FEW004 BKN006 OVC015 10/10 A2965 RERA RMK SF2ST5SC2 SLP040=

CYVR;2006-11-03 15:00;METAR CYVR 031500Z 09010KT 6SM -RA BR FEW004 BKN006 OVC009 10/10 A2964 RMK SF2SC4SC2 SLP037=

CYVR;2006-11-03 16:00;METAR CYVR 031600Z 10011KT 4SM -RA BR FEW005 BKN011 OVC080 10/10 A2964 RMK SF2SC6AC1 SLP037=

CYVR;2006-11-03 17:00;METAR CYVR 031700Z 09011KT 6SM -RA BR FEW007 OVC015 11/10 A2962 RMK SF2SC6 SLP030=

CYVR;2006-11-03 18:00;METAR CYVR 031800Z 09013G18KT 7SM -RA FEW015 OVC026 12/11 A2957 RMK SC2SC6 SLP012=

CYVR;2006-11-03 18:28;SPECI CYVR 031828Z 10012G17KT 5SM -RA BR FEW015 SCT026 OVC035 12/ RMK SC2SC2SC4=

CYVR;2006-11-03 19:00;METAR CYVR 031900Z 09013KT 6SM -RA BR FEW015 BKN024 OVC028 12/11 A2955 RMK SF2SC5SC2 SLP006=

CYVR;2006-11-03 19:10;SPECI CYVR 031910Z 08014KT 2 1/2SM RA BR FEW015 OVC021 12/ RMK SF2SC6=

CYVR;2006-11-03 20:00;METAR CYVR 032000Z 10016KT 1 1/2SM -RA BR FEW015 OVC019 12/12 A2954 RMK SF2SC6 SLP002=

CYVR;2006-11-03 20:34;SPECI CYVR 032034Z 16021G28KT 8SM -RA FEW015 OVC025 13/ RMK SC2SC6=

CYVR;2006-11-03 21:00;METAR CYVR 032100Z 17024G32KT 15SM -SHRA FEW015 SCT025 OVC083 14/13 A2952 RMK SF2SC2AC3 SLP997=

CYVR;2006-11-03 21:32;SPECI CYVR 032132Z 18022G27KT 20SM FEW015 FEW025 BKN083 BKN170 BKN220 14/ RMK CF1SC1AC3AC2CI0 TR CF=

CYVR;2006-11-03 22:00;METAR CYVR 032200Z 18018G27KT 20SM FEW015 FEW025 BKN062 BKN170 14/12 A2956 RMK CF1SC2SC3AC1 TR CF SLP009=

CYVR;2006-11-03 22:33;SPECI CYVR 032233Z 25015KT 20SM -SHRA SCT020 BKN042 OVC068 14/ RMK SC3SC2AC2=

CYVR;2006-11-03 22:43;SPECI CYVR 032243Z 26014KT 15SM -SHRA BKN005 OVC042 12/ RMK SC5SC3=

CYVR;2006-11-03 22:47;SPECI CYVR 032247Z 27013KT 15SM -SHRA SCT005 OVC046 11/ RMK SC4SC4=

CYVR;2006-11-03 23:00;METAR CYVR 032300Z 28012G19KT 15SM FEW006 OVC045 11/10 A2963 RMK SC2SC6 PRESRR SLP033=

CYVR;2006-11-04 00:00;METAR CYVR 040000Z 29005KT 15SM FEW015 SCT045 BKN170 10/10 A2966 RMK SC2SC2AC4 SLP043=

CYVR;2006-11-04 01:00;METAR CYVR 040100Z 16002KT 15SM FEW015 SCT035 OVC120 11/10 A2967 RMK SF1SC2AC5 SLP048=

CYVR;2006-11-04 01:46;SPECI CYVR 040146Z 11007KT 15SM -SHRA SCT035 OVC087 11/ RMK SC3AC5=

CYVR;2006-11-04 02:00;METAR CYVR 040200Z 12005KT 15SM -SHRA FEW035 BKN087 OVC160 11/10 A2969 RMK SC2AC2AC3 SLP055=

CYVR;2006-11-04 02:18;SPECI CYVR 040218Z 12008KT 15SM FEW035 BKN092 OVC110 10/ RMK SC2AC4AC2=

CYVR;2006-11-04 03:00;METAR CYVR 040300Z 11007KT 15SM FEW018 SCT039 BKN090 OVC110 10/10 A2971 RMK SF2SC2AC2AC2 SLP062=

CYVR;2006-11-04 03:18;SPECI CYVR 040318Z 11007KT 15SM -SHRA FEW016 SCT039 OVC077 10/ RMK SF2SC2AC4=

CYVR;2006-11-04 03:44;SPECI CYVR 040344Z 13007KT 8SM -SHRA BKN015 OVC039 10/ RMK ST6SC2=

CYVR;2006-11-04 04:00;METAR CYVR 040400Z 12006KT 8SM -SHRA BKN013 OVC039 10/10 A2973 RMK ST6SC2 SLP067=

CYVR;2006-11-04 04:44;SPECI CYVR 040444Z 07006KT 8SM -SHRA FEW003 BKN008 OVC039 10/ RMK SF2ST4SC2=

CYVR;2006-11-04 05:00;METAR CYVR 040500Z 09007KT 8SM -RA FEW003 BKN006 OVC039 10/10 A2974 RMK SF2ST6SC1 SLP071=

CYVR;2006-11-04 05:34;SPECI CYVR 040534Z 09008KT 8SM -RA BKN003 BKN007 OVC040 11/ RMK SF5ST2SC1=

CYVR;2006-11-04 06:00;METAR CYVR 040600Z 10008KT 8SM -RA BKN003 BKN008 OVC070 11/11 A2975 RMK SF5ST2AC2 SLP074=

CYVR;2006-11-04 06:14;SPECI CYVR 040614Z 10008KT 8SM -RA SCT003 BKN055 OVC072 11/ RMK SF3ST2AC2=

CYVR;2006-11-04 07:00;METAR CYVR 040700Z 12008KT 8SM -RA FEW003 BKN052 OVC072 12/12 A2976 RMK SF2SC5AC2 SLP078=

CYVR;2006-11-04 08:28;SPECI CYVR 040828Z 13009KT 10SM SCT005 BKN010 OVC032 12/ RMK SF3ST2SC2=

CYVR;2006-11-04 08:43;SPECI CYVR 040843Z 12009KT 10SM BKN005 BKN010 OVC042 12/ RMK SF5ST2SC2=

CYVR;2006-11-04 09:00;METAR CYVR 040900Z 13009KT 10SM FEW005 SCT042 OVC085 12/12 A2977 RMK SF2ST2AC4 SLP081=

CYVR;2006-11-04 10:00;METAR CYVR 041000Z 14012KT 10SM FEW005 BKN050 OVC090 12/11 A2979 RMK SF2SC5AC2 SLP087=

CYVR;2006-11-04 10:29;SPECI CYVR 041029Z 14011KT 10SM -SHRA FEW005 SCT040 OVC073 12/ RMK SF2SC2AC5=

CYVR;2006-11-04 11:00;METAR CYVR 041100Z 14011KT 10SM -SHRA FEW005 OVC075 12/11 A2979 RMK SF2AC6 SLP089=

CYVR;2006-11-04 11:38;SPECI CYVR 041138Z 14012KT 10SM FEW005 OVC075 12/ RMK SF2AC6=

CYVR;2006-11-04 12:00;METAR CYVR 041200Z 14013KT 12SM FEW005 OVC075 12/11 A2979 RMK SF2AC6 SLP089=

CYVR;2006-11-04 13:00;METAR CYVR 041300Z 15011KT 15SM FEW005 BKN090 OVC200 12/11 A2980 RMK SF2AC5CI2 SLP092=

CYVR;2006-11-04 14:00;METAR CYVR 041400Z 14013KT 15SM FEW005 SCT053 BKN091 OVC200 13/11 A2981 RMK SF2SC1AC3CI2 SLP096=

CYVR;2006-11-04 15:00;METAR CYVR 041500Z 14011G17KT 20SM FEW005 FEW053 SCT091 OVC150 13/11 A2981 RMK SF2SF1AC2AS4 SLP094=

CYVR;2006-11-04 16:00;METAR CYVR 041600Z 12012KT 20SM FEW010 BKN090 OVC150 13/11 A2981 RMK SF2AC3AC3 SLP096=

CYVR;2006-11-04 16:42;SPECI CYVR 041642Z 11011KT 20SM -SHRA FEW009 SCT021 OVC090 12/ RMK SF2SC2AC4 PCPN VRY LGT=

CYVR;2006-11-04 17:00;METAR CYVR 041700Z 11012G17KT 6SM -SHRA BR SCT009 BKN025 BKN037 OVC080 13/12 A2980 RMK SF3SF2SC2AC1 SLP090=

CYVR;2006-11-04 17:13;SPECI CYVR 041713Z 13013KT 7SM -SHRA SCT010 BKN017 OVC040 12/ RMK SF3SC3SC2=

CYVR;2006-11-04 17:25;SPECI CYVR 041725Z 13015KT 6SM -SHRA SCT010 BKN017 OVC040 12/ RMK SF3SC3SC2=

CYVR;2006-11-04 18:00;METAR CYVR 041800Z 14016KT 5SM -RA BR FEW010 OVC024 12/11 A2977 RMK SF2SC6 SLP080=

CYVR;2006-11-04 19:00;METAR CYVR 041900Z 12014G19KT 6SM -RA BR FEW012 BKN025 OVC065 12/11 A2972 RMK SF2SC6SC1 SLP063=

CYVR;2006-11-04 20:00;METAR CYVR 042000Z 13019G24KT 6SM -RA BR FEW010 BKN024 OVC065 12/11 A2968 RMK SF1SC6SC1 SLP050=

CYVR;2006-11-04 21:00;METAR CYVR 042100Z 15018KT 7SM -RA FEW010 BKN022 OVC065 12/11 A2967 RMK SF1SC6SC1 SLP048=

CYVR;2006-11-04 21:44;SPECI CYVR 042144Z 16016G21KT 15SM FEW015 SCT025 SCT065 OVC120 13/ RMK SF1SC2SC1AC4=

CYVR;2006-11-04 22:00;METAR CYVR 042200Z 17019G26KT 15SM FEW015 SCT080 OVC120 13/11 A2966 RMK SC2AC2AC3 SLP044=

CYVR;2006-11-04 23:00;METAR CYVR 042300Z 16015G20KT 15SM FEW015 BKN080 OVC150 13/11 A2966 RMK SC2AC3AC2 SLP045=

CYVR;2006-11-05 00:00;METAR CYVR 050000Z 17015KT 20SM FEW015 SCT080 SCT120 BKN220 13/11 A2968 RMK SC1AC2AC1CI1 SLP051=

CYVR;2006-11-05 01:00;METAR CYVR 050100Z 17017KT 20SM SCT020 BKN110 OVC220 12/10 A2968 RMK SC2AC2CI0 SLP050=

CYVR;2006-11-05 01:55;SPECI CYVR 050155Z 17015G20KT 15SM -RA FEW020 BKN053 OVC075 13/ RMK SC2SC4AC2=

CYVR;2006-11-05 02:00;METAR CYVR 050200Z 17018KT 15SM -RA FEW020 BKN053 OVC071 13/11 A2971 RMK SC2SC4AC2 SLP060=

CYVR;2006-11-05 02:17;SPECI CYVR 050217Z 18012G17KT 6SM -RA BR FEW020 BKN035 OVC053 12/ RMK SC2SC2SC3=

CYVR;2006-11-05 02:31;SPECI CYVR 050231Z 16013KT 8SM -RA FEW020 BKN035 BKN053 OVC074 12/ RMK SC2SC2SC2AC1=

CYVR;2006-11-05 03:00;METAR CYVR 050300Z 16014KT 15SM -RA FEW025 SCT055 OVC074 12/11 A2973 RMK SC2SC2AC4 SLP069=

CYVR;2006-11-05 03:26;SPECI CYVR 050326Z 16014KT 15SM FEW035 SCT055 BKN075 12/ RMK SC2SC2AC3=

CYVR;2006-11-05 04:00;METAR CYVR 050400Z 17014KT 15SM SCT025 BKN075 12/11 A2973 RMK SC1AC2 SLP069=

CYVR;2006-11-05 05:00;METAR CYVR 050500Z 16013G18KT 15SM FEW030 FEW090 SCT200 BKN230 12/11 A2975 RMK SF1AC2CS2CI1 SLP073=

CYVR;2006-11-05 05:29;SPECI CYVR 050529Z 16012KT 12SM -SHRA FEW035 BKN068 BKN090 12/ RMK SF2AC2AC2=

CYVR;2006-11-05 06:00;METAR CYVR 050600Z 14011KT 12SM -SHRA FEW025 BKN057 OVC085 12/11 A2976 RMK SF2SC4AC2 SLP078=

CYVR;2006-11-05 07:00;METAR CYVR 050700Z 16013G20KT 12SM -SHRA FEW020 BKN065 OVC087 12/11 A2977 RMK SF2SC4AC2 PCPN VRY LGT SLP081=

CYVR;2006-11-05 07:42;SPECI CYVR 050742Z 17007KT 12SM -RA FEW020 SCT041 OVC065 12/ RMK SF2SC2SC4=

CYVR;2006-11-05 08:00;METAR CYVR 050800Z 18008KT 15SM FEW020 FEW076 SCT099 OVC230 12/10 A2978 RMK SF1AC2AC2CS3 SLP085=

CYVR;2006-11-05 09:00;METAR CYVR 050900Z 12006KT 15SM FEW020 BKN067 OVC088 12/10 A2980 RMK SF2AC3AC3 SLP090=

CYVR;2006-11-05 09:32;SPECI CYVR 050932Z 10004KT 12SM -SHRA FEW032 BKN045 OVC072 11/ RMK SF2SC5AC1 PCPN VRY LGT=

CYVR;2006-11-05 10:00;METAR CYVR 051000Z 10006KT 12SM SCT039 OVC060 11/10 A2981 RMK SF3SC5 SLP096=

CYVR;2006-11-05 10:13;SPECI CYVR 051013Z 16006KT 12SM -SHRA FEW022 BKN039 OVC062 12/ RMK SF2SC3SC2 PCPN VRY LGT=

CYVR;2006-11-05 11:00;METAR CYVR 051100Z 19010KT 15SM FEW039 BKN063 12/09 A2984 RMK SF2SC3 SLP104=

CYVR;2006-11-05 12:00;METAR CYVR 051200Z 21008KT 15SM FEW040 SCT060 SCT210 11/08 A2988 RMK SF2SC2CI0 SLP120=

CYVR;2006-11-05 13:00;METAR CYVR 051300Z 33002KT 15SM FEW035 SCT062 BKN210 08/07 A2991 RMK SF2SC2CI1 SLP128=

CYVR;2006-11-05 14:00;METAR CYVR 051400Z 10003KT 20SM FEW030 SCT057 BKN210 08/08 A2994 RMK SF2SC2CI1 SLP140=

CYVR;2006-11-05 15:00;METAR CYVR 051500Z 10008KT 20SM FEW022 BKN054 BKN210 08/08 A2997 RMK SF1SC4CI1 SLP148=

CYVR;2006-11-05 16:00;METAR CYVR 051600Z 09006KT 20SM FEW022 SCT054 BKN210 08/08 A2999 RMK SF1SC2CI1 SLP157=

CYVR;2006-11-05 17:00;METAR CYVR 051700Z 09005KT 20SM FEW020 FEW050 SCT067 BKN210 11/09 A3001 RMK SF1SC2AC2CI1 SLP164=

CYVR;2006-11-05 18:00;METAR CYVR 051800Z 07005KT 20SM FEW020 BKN050 12/09 A3001 RMK SF2SC6 SLP164=

CYVR;2006-11-05 19:00;METAR CYVR 051900Z 10010KT 20SM OVC052 12/10 A3002 RMK SC8 VIRGA NW-NE VIS LWR NW-NE SLP165=

CYVR;2006-11-05 20:00;METAR CYVR 052000Z 10010KT 30SM OVC050 12/10 A3002 RMK SC8 SLP165=

CYVR;2006-11-05 21:00;METAR CYVR 052100Z 11008KT 30SM FEW015 BKN059 OVC240 13/09 A3000 RMK CF1SC4CI2 SLP158=

CYVR;2006-11-05 22:00;METAR CYVR 052200Z 10008KT 30SM FEW021 OVC054 12/10 A2997 RMK SF2SC6 SLP149=

CYVR;2006-11-05 23:00;METAR CYVR 052300Z 09010KT 10SM -RA FEW020 OVC046 12/10 A2994 RMK SF2SC6 SLP138=

CYVR;2006-11-06 00:00;METAR CYVR 060000Z 09011KT 8SM -RA SCT018 OVC047 11/10 A2991 RMK SF2SC6 SLP127=

CYVR;2006-11-06 01:00;METAR CYVR 060100Z 09008KT 6SM -RA BR FEW019 OVC048 11/10 A2987 RMK SF2SC6 SLP115=

CYVR;2006-11-06 01:50;SPECI CYVR 060150Z 10009KT 6SM -RA BR BKN014 OVC025 11/ RMK SF5SC3=

CYVR;2006-11-06 02:00;METAR CYVR 060200Z 12009KT 5SM -RA BR BKN014 BKN025 OVC051 11/11 A2985 RMK SF5SF2SC2 SLP109=

CYVR;2006-11-06 03:00;METAR CYVR 060300Z 10013KT 5SM -RA BR SCT013 BKN019 OVC032 11/11 A2982 RMK SF4SF2SC2 SLP097=

CYVR;2006-11-06 04:00;METAR CYVR 060400Z 09009KT 5SM -RA BR FEW013 SCT023 OVC030 11/10 A2977 RMK SF2SF2SC4 SLP080=

CYVR;2006-11-06 05:00;METAR CYVR 060500Z 09009KT 5SM -RA BR FEW013 OVC026 11/10 A2972 RMK SF2ST6 SLP064=

CYVR;2006-11-06 06:19;SPECI CYVR 060619Z 10012G17KT 5SM -RA BR BKN013 OVC020 11/ RMK SF6ST2=

CYVR;2006-11-06 07:37;SPECI CYVR 060737Z 10010KT 5SM -RA BR BKN009 OVC015 11/ RMK SF5SC3=

CYVR;2006-11-06 08:00;METAR CYVR 060800Z 09011KT 4SM RA BR BKN009 OVC015 11/11 A2967 RMK SF6SF2 RERA SLP048=

CYVR;2006-11-06 09:00;METAR CYVR 060900Z 10012KT 5SM -RA BR SCT006 BKN009 OVC020 11/11 A2964 RMK SF3SF4ST1 RERA SLP037=

CYVR;2006-11-06 09:54;SPECI CYVR 060954Z 10011KT 10SM -RA SCT007 BKN015 OVC058 12/ RMK SF4SF2SC2 PCPN VRY LGT=

CYVR;2006-11-06 10:00;METAR CYVR 061000Z 11012KT 10SM -RA SCT007 BKN014 OVC058 12/12 A2964 RMK SF4SF2SC2 PCPN VRY LGT SLP036=

CYVR;2006-11-06 11:00;METAR CYVR 061100Z 08007KT 10SM FEW009 SCT014 OVC050 13/13 A2963 RMK SF2SF2SC4 SLP034=

CYVR;2006-11-06 11:43;SPECI CYVR 061143Z 11009KT 10SM -SHRA SCT011 OVC048 14/ RMK SF4SC4=

CYVR;2006-11-06 12:00;METAR CYVR 061200Z 13011KT 10SM -RA SCT011 OVC048 14/14 A2960 RMK SF4SC4 /R10/ SLP022=

CYVR;2006-11-06 13:00;METAR CYVR 061300Z 16019KT 8SM -RA SCT012 BKN028 OVC048 14/14 A2960 RMK SF3SF3SC2 SLP024=

CYVR;2006-11-06 14:00;METAR CYVR 061400Z 16020G25KT 10SM -RA BKN009 BKN030 OVC055 14/14 A2959 RMK SF5SF2SC2 SLP019=

CYVR;2006-11-06 14:33;SPECI CYVR 061433Z 17021G27KT 12SM -RA FEW009 SCT028 OVC051 14/ RMK SF2SF2SC5=

CYVR;2006-11-06 15:00;METAR CYVR 061500Z 16018KT 10SM RA FEW009 SCT029 OVC045 14/14 A2958 RMK SF2SF2ST5 SLP017=

CYVR;2006-11-06 15:19;SPECI CYVR 061519Z 17018KT 2 1/2SM +RA FEW009 SCT031 OVC056 14/ RMK SF2SF2ST5=

CYVR;2006-11-06 15:29;SPECI CYVR 061529Z 17016G21KT 2SM RA BR FEW009 SCT029 OVC046 14/ RMK SF2SF2ST5=

CYVR;2006-11-06 15:45;SPECI CYVR 061545Z 17020KT 3SM RA BR FEW009 SCT042 OVC062 14/ RMK SF1SF3SC4=

CYVR;2006-11-06 16:00;METAR CYVR 061600Z 17018KT 5SM -RA BR FEW009 BKN035 OVC054 14/14 A2960 RMK SF2SC5SC2 /R17/ SLP025=

CYVR;2006-11-06 17:00;METAR CYVR 061700Z 16016G22KT 6SM -RA BR FEW006 SCT044 OVC078 14/14 A2960 RMK SF2SC2AC5 SLP024=

CYVR;2006-11-06 17:09;SPECI CYVR 061709Z 17016G24KT 7SM -RA FEW006 FEW044 BKN056 OVC066 14/ RMK SF2SC1SC4AC2=

CYVR;2006-11-06 17:25;SPECI CYVR 061725Z 17018KT 6SM -RA BR FEW006 BKN047 OVC056 14/ RMK SF2SC5SC2=

CYVR;2006-11-06 17:55;SPECI CYVR 061755Z 16019G24KT 7SM -RA FEW006 SCT047 BKN085 OVC110 14/ RMK SF2SC2AC3AC1=

CYVR;2006-11-06 18:00;METAR CYVR 061800Z 16016G22KT 8SM -RA FEW010 SCT048 BKN065 OVC085 14/14 A2959 RERA RMK SF2SC2SC3AC2 /R21/ SLP021=

CYVR;2006-11-06 18:41;SPECI CYVR 061841Z 17017KT 12SM FEW008 BKN045 BKN080 OVC110 14/ RMK SF2SC3AC2AC1=

CYVR;2006-11-06 18:55;SPECI CYVR 061855Z 16017KT 12SM -RA FEW008 SCT045 BKN077 OVC110 14/ RMK SF2SC2AC3AC1=

CYVR;2006-11-06 19:00;METAR CYVR 061900Z 16016KT 12SM -RA FEW010 SCT045 BKN077 OVC110 14/14 A2963 RMK SF2SC2AC3AC1 SLP035=

CYVR;2006-11-06 20:00;METAR CYVR 062000Z 16012G17KT 10SM -RA FEW010 SCT035 BKN054 OVC080 15/14 A2965 RMK SF1SC2SC2AC2 SLP041=

CYVR;2006-11-06 21:00;METAR CYVR 062100Z 15016KT 15SM -SHRA FEW010 SCT035 BKN097 OVC110 15/14 A2961 RMK SF1SC2AC3AC2 VIS LWR N QUAD SLP027=

CYVR;2006-11-06 21:25;SPECI CYVR 062125Z 16009G17KT 12SM -SHRA BKN009 OVC045 15/ RMK SC6SC2=

CYVR;2006-11-06 21:41;SPECI CYVR 062141Z 15014KT 5SM RA BR SCT008 OVC017 15/ RMK SC4SC4=

CYVR;2006-11-06 22:00;METAR CYVR 062200Z 15017G24KT 8SM -RA FEW008 BKN040 OVC083 15/14 A2960 RERA RMK SF2SC3AC2 VIS LWR N QUAD 5 SM SLP024=

CYVR;2006-11-06 22:14;SPECI CYVR 062214Z 13009G17KT 15SM -SHRA BKN010 BKN031 OVC080 15/ RMK SC5SC2AC1 VIS LWR N QUAD=

CYVR;2006-11-06 22:32;SPECI CYVR 062232Z 14012KT 15SM -SHRA BKN008 OVC031 15/ RMK SC6SC2 VIS LWR N QUAD=

CYVR;2006-11-06 22:39;SPECI CYVR 062239Z 14012KT 15SM SCT008 SCT031 OVC049 15/ RMK SC3SC1SC4 VIS LWR N QUAD=

CYVR;2006-11-06 23:00;METAR CYVR 062300Z 14013G19KT 15SM FEW008 BKN033 OVC050 15/14 A2960 RMK SF2SC5SC1 VIS LWR N QUAD SLP023=

CYVR;2006-11-07 00:00;METAR CYVR 070000Z 12014KT 20SM FEW008 BKN049 BKN110 15/14 A2960 RMK SF2SC3AC1 VIS LWR N QUAD SLP023=

CYVR;2006-11-07 01:00;METAR CYVR 070100Z 13015KT 20SM FEW010 BKN050 BKN110 15/13 A2962 RMK SF2SC3AC0 VIS LWR N QUAD SLP029=

CYVR;2006-11-07 02:00;METAR CYVR 070200Z 20015KT 20SM FEW008 SCT050 BKN075 16/12 A2963 RMK SF2SC1AC2 SLP035=

CYVR;2006-11-07 03:00;METAR CYVR 070300Z 21014G19KT 20SM FEW008 SCT045 BKN160 16/10 A2966 RMK SF2SC2AC2 SLP043=

CYVR;2006-11-07 04:00;METAR CYVR 070400Z 11006KT 20SM FEW015 SCT045 BKN160 13/11 A2967 RMK SF1SC2AC2 SLP048=

CYVR;2006-11-07 05:00;METAR CYVR 070500Z 16013KT 20SM FEW032 SCT090 OVC220 14/11 A2965 RMK SF2AC2CS3 SLP042=

CYVR;2006-11-07 06:00;METAR CYVR 070600Z 17015KT 20SM FEW035 FEW090 BKN160 OVC210 15/11 A2965 RMK SF1AC2AC2CS2 SLP042=

CYVR;2006-11-07 07:00;METAR CYVR 070700Z 16016KT 15SM FEW032 SCT045 BKN160 14/10 A2966 RMK SF1SF2AC3 SLP044=

CYVR;2006-11-07 08:00;METAR CYVR 070800Z 16013KT 20SM FEW032 BKN072 BKN150 14/10 A2965 RMK SF2AC3AC1 SLP039=

CYVR;2006-11-07 09:00;METAR CYVR 070900Z 15013KT 15SM FEW040 BKN062 OVC091 14/11 A2965 RMK SF2SC3AC2 SLP041=

CYVR;2006-11-07 10:00;METAR CYVR 071000Z 16012G18KT 15SM FEW048 BKN085 BKN150 OVC250 13/11 A2964 RMK SF2AC3AC2CS1 SLP037=

CYVR;2006-11-07 10:13;SPECI CYVR 071013Z 16012KT 15SM -SHRA SCT049 BKN085 OVC150 13/ RMK SF3AC3AC1 PCPN VRY LGT=

CYVR;2006-11-07 10:43;SPECI CYVR 071043Z 15012KT 15SM FEW041 BKN056 BKN095 OVC250 13/ RMK SF2SC3AC2CS1=

CYVR;2006-11-07 10:52;SPECI CYVR 071052Z 14008G16KT 15SM -SHRA FEW039 BKN052 BKN095 OVC250 13/ RMK SF2SC3AC2CS1 PCPN VRY LGT=

CYVR;2006-11-07 11:00;METAR CYVR 071100Z 13008KT 15SM -SHRA FEW025 BKN050 OVC089 13/11 A2963 RMK SF2SC6AC1 PCPN VRY LGT SLP034=

CYVR;2006-11-07 11:16;SPECI CYVR 071116Z 14010KT 15SM FEW020 SCT056 OVC072 13/ RMK SF2SC2AC4=

CYVR;2006-11-07 11:42;SPECI CYVR 071142Z 15010KT 15SM -SHRA FEW020 BKN060 OVC073 13/ RMK SF2SC4AC2 PCPN VRY LGT=

CYVR;2006-11-07 12:00;METAR CYVR 071200Z 13008KT 15SM -SHRA FEW020 BKN051 OVC076 13/11 A2961 RMK SF2SC5AC2 PCPN VRY LGT SLP027=

CYVR;2006-11-07 12:22;SPECI CYVR 071222Z 12008KT 15SM FEW020 BKN056 OVC072 13/ RMK SF2SC3AC3=

CYVR;2006-11-07 13:00;METAR CYVR 071300Z 13007KT 15SM FEW020 SCT056 BKN072 OVC140 13/11 A2962 RMK SF2SC2AC2AC2 SLP032=

CYVR;2006-11-07 14:00;METAR CYVR 071400Z 17010KT 15SM FEW020 SCT040 BKN060 OVC091 13/11 A2960 RMK SF1SC2SC3AC2 SLP025=

CYVR;2006-11-07 15:00;METAR CYVR 071500Z 14007KT 15SM FEW020 SCT056 OVC120 12/11 A2961 RMK SF2SC2AC4 SLP026=

CYVR;2006-11-07 16:00;METAR CYVR 071600Z 18006KT 20SM FEW020 FEW050 BKN150 BKN210 12/09 A2961 RMK SF1SF2AC2CC1 SLP027=

CYVR;2006-11-07 17:00;METAR CYVR 071700Z 14004KT 20SM FEW040 OVC130 12/09 A2962 RMK SF2AC6 SLP031=

CYVR;2006-11-07 17:51;SPECI CYVR 071751Z 18009KT 20SM -SHRA FEW040 OVC120 12/ RMK SF2AC6=

CYVR;2006-11-07 18:00;METAR CYVR 071800Z 19012KT 20SM -SHRA FEW035 OVC120 13/09 A2962 RMK SF2AS6 PCPN VRY LGT SLP029=

CYVR;2006-11-07 19:00;METAR CYVR 071900Z 18010KT 20SM -SHRA FEW025 OVC062 12/09 A2960 RMK SC2SC6 VIS LWR N QUAD SLP023=

CYVR;2006-11-07 20:24;SPECI CYVR 072024Z 18008KT 20SM FEW035 OVC050 13/ RMK SC2SC5=

CYVR;2006-11-07 21:00;METAR CYVR 072100Z 20010KT 20SM FEW035 BKN045 15/10 A2960 RMK SC2SC3 SLP022=

CYVR;2006-11-07 22:00;METAR CYVR 072200Z 20009KT 20SM FEW025 FEW045 14/08 A2960 RMK SC1SC1 SLP022=

CYVR;2006-11-08 00:00;METAR CYVR 080000Z 25019KT 30SM FEW035 SCT065 BKN120 12/05 A2965 RMK SC1SC1AC2 SLP042=

CYVR;2006-11-08 01:00;METAR CYVR 080100Z 25013KT 30SM FEW035 SCT082 BKN110 12/05 A2967 RMK SF1AC2AC2 SLP048=

CYVR;2006-11-08 02:00;METAR CYVR 080200Z 26009KT 30SM FEW040 SCT075 11/05 A2970 RMK SC2AC2 SLP058=

CYVR;2006-11-08 03:00;METAR CYVR 080300Z 20014KT 30SM FEW040 FEW064 10/07 A2972 RMK SC1SC2 SLP064=

CYVR;2006-11-08 03:12;SPECI CYVR 080312Z 20014KT 30SM FEW040 FEW064 10/ RMK SC1SC2 LTNG REPD 50 SE=

CYVR;2006-11-08 06:00;METAR CYVR 080600Z 19012KT 30SM FEW040 SCT066 OVC081 10/06 A2977 RMK SC2AC2AC5 SLP081=

CYVR;2006-11-08 07:00;METAR CYVR 080700Z 20013KT 20SM FEW040 BKN059 OVC080 10/06 A2979 RMK SC1SC5AC2 SLP087=

CYVR;2006-11-08 08:00;METAR CYVR 080800Z 20010KT 20SM FEW040 BKN060 BKN076 09/05 A2979 RMK SC1SC4AC1 SLP088=

CYVR;2006-11-08 09:00;METAR CYVR 080900Z 21010G16KT 20SM FEW040 BKN056 BKN078 09/05 A2981 RMK SC1SC4AC2 SLP094=

CYVR;2006-11-08 10:00;METAR CYVR 081000Z 23010KT 20SM FEW040 FEW060 SCT100 09/05 A2982 RMK SC1SC2AC2 SLP098=

CYVR;2006-11-08 11:00;METAR CYVR 081100Z 26011KT 20SM FEW040 SCT054 BKN110 08/05 A2984 RMK SC1SC2AC2 SLP104=

CYVR;2006-11-08 12:00;METAR CYVR 081200Z 30002KT 20SM FEW040 07/06 A2984 RMK SC2 SLP106=

CYVR;2006-11-08 13:00;METAR CYVR 081300Z 00000KT 20SM BKN026 BKN052 07/06 A2986 RMK SC6SC2 SLP112=

CYVR;2006-11-08 14:00;METAR CYVR 081400Z 18003KT 20SM FEW030 FEW050 07/05 A2987 RMK SC1SC2 SLP114=

CYVR;2006-11-08 15:00;METAR CYVR 081500Z 00000KT 20SM FEW030 FEW060 FEW240 06/05 A2988 RMK SC1SC1CI1 HZ SLP117=

CYVR;2006-11-08 16:00;METAR CYVR 081600Z 29006KT 30SM FEW025 FEW060 FEW240 06/05 A2989 RMK SC1SC1CI0 SLP121=

CYVR;2006-11-08 17:00;METAR CYVR 081700Z 29005KT 30SM FEW025 FEW060 FEW240 09/06 A2990 RMK SF1SC1CI0 SLP125=

CYVR;2006-11-08 18:00;METAR CYVR 081800Z 25005KT 30SM FEW017 FEW025 FEW060 FEW240 09/07 A2992 RMK SF0SF1SC1CI0 TR SF SLP131=

CYVR;2006-11-08 19:00;METAR CYVR 081900Z 26006KT 30SM FEW017 SCT031 BKN110 10/07 A2992 RMK SF0SC3AC2 TR SF SLP133=

CYVR;2006-11-08 20:00;METAR CYVR 082000Z 29008KT 30SM FEW030 BKN100 09/07 A2992 RMK SC2AC4 TCU ASOCTD SLP132=

CYVR;2006-11-08 21:00;METAR CYVR 082100Z 32004KT 30SM SCT030 BKN100 10/06 A2991 RMK SC3AC4 SLP128=

CYVR;2006-11-08 22:00;METAR CYVR 082200Z 31002KT 30SM SCT030 BKN100 10/05 A2990 RMK SC3AC4 SLP124=

CYVR;2006-11-08 23:00;METAR CYVR 082300Z 32005KT 30SM FEW030 BKN100 09/06 A2988 RMK SC2AC3 SLP120=

CYVR;2006-11-09 00:00;METAR CYVR 090000Z 30004KT 30SM FEW030 BKN100 BKN210 08/06 A2988 RMK SC2AC2CI1 TCU EMBD SLP117=

CYVR;2006-11-09 01:00;METAR CYVR 090100Z 33006KT 30SM FEW090 SCT120 BKN200 07/05 A2988 RMK AC2AC2CS1 SLP117=

CYVR;2006-11-09 02:00;METAR CYVR 090200Z 00000KT 30SM SCT089 BKN170 BKN210 07/05 A2986 RMK AC3AC2CS1 SLP113=

CYVR;2006-11-09 03:00;METAR CYVR 090300Z 00000KT 30SM BKN093 OVC180 08/05 A2986 RMK AC6AC2 SLP113=

CYVR;2006-11-09 04:00;METAR CYVR 090400Z 36003KT 30SM BKN093 OVC210 07/05 A2987 RMK AC7CS1 SLP115=

CYVR;2006-11-09 05:00;METAR CYVR 090500Z 32006KT 30SM SCT055 BKN097 OVC210 08/05 A2988 RMK SC3AC4CS1 SLP117=

CYVR;2006-11-09 06:00;METAR CYVR 090600Z 03002KT 30SM SCT060 BKN100 OVC210 07/05 A2987 RMK SC3AC3CS2 SLP116=

CYVR;2006-11-09 07:00;METAR CYVR 090700Z 34005KT 20SM SCT055 BKN094 OVC170 06/04 A2988 RMK SC3AC2AC2 SLP119=

CYVR;2006-11-09 08:00;METAR CYVR 090800Z 32011KT 20SM BKN061 BKN090 OVC180 06/04 A2988 RMK SC5AC2AC2 SLP119=

CYVR;2006-11-09 09:00;METAR CYVR 090900Z 32011KT 20SM BKN064 BKN091 OVC210 06/04 A2989 RMK SC5AC2CS1 SLP122=

CYVR;2006-11-09 10:00;METAR CYVR 091000Z 31009KT 20SM BKN076 BKN095 05/03 A2990 RMK AC5AC1 SLP125=

CYVR;2006-11-09 11:00;METAR CYVR 091100Z 34004KT 20SM BKN077 BKN100 05/04 A2992 RMK AC5AC2 SLP131=

CYVR;2006-11-09 12:00;METAR CYVR 091200Z 36002KT 20SM BKN074 BKN098 05/04 A2993 RMK AC5AC2 SLP135=

CYVR;2006-11-09 13:00;METAR CYVR 091300Z 36002KT 20SM BKN074 BKN096 05/03 A2995 RMK AC6AC2 SLP141=

CYVR;2006-11-09 14:00;METAR CYVR 091400Z 11002KT 20SM SCT059 BKN096 BKN200 05/04 A2996 RMK SC4AC2CS1 SLP146=

CYVR;2006-11-09 15:00;METAR CYVR 091500Z 00000KT 20SM BKN060 BKN095 BKN200 05/04 A2998 RMK SC5AC2CS1 SLP152=

CYVR;2006-11-09 16:00;METAR CYVR 091600Z 16002KT 30SM SCT059 BKN081 06/04 A3000 RMK SC4AC2 SHWS NW SLP160=

CYVR;2006-11-09 17:00;METAR CYVR 091700Z 10004KT 30SM FEW050 SCT079 BKN200 06/05 A3001 RMK SC2AC2CI1 SLP162=

CYVR;2006-11-09 18:00;METAR CYVR 091800Z 14006KT 30SM FEW015 FEW045 BKN078 07/05 A3003 RMK SF1SC2AC2 SLP170=

CYVR;2006-11-09 19:00;METAR CYVR 091900Z 09005KT 30SM FEW015 SCT045 BKN080 09/05 A3004 RMK CF2CU2AC1 SLP174=

CYVR;2006-11-09 20:00;METAR CYVR 092000Z 15004KT 30SM FEW020 BKN039 BKN085 09/05 A3006 RMK CF2CU3AC0 SLP180=

CYVR;2006-11-09 21:00;METAR CYVR 092100Z 15005KT 30SM BKN031 BKN085 10/04 A3006 RMK CU5AC1 SLP179=

CYVR;2006-11-09 23:00;METAR CYVR 092300Z 13009KT 30SM FEW035TCU SCT050 BKN210 09/05 A3007 RMK TCU2SC2CI0 SLP183=

CYVR;2006-11-10 00:00;METAR CYVR 100000Z 13010KT 20SM FEW035TCU SCT055 OVC200 09/05 A3008 RMK TCU2SC2CS4 SLP187=

CYVR;2006-11-10 01:00;METAR CYVR 100100Z 12008KT 20SM BKN031 OVC050 08/06 A3008 RMK SC5SC3 TCU EMBD SLP187=

CYVR;2006-11-10 02:00;METAR CYVR 100200Z 12008KT 20SM -SHRA FEW018 BKN034 OVC050 08/06 A3008 RMK SF2SC4SC2 SLP187=

CYVR;2006-11-10 02:20;SPECI CYVR 100220Z 14010KT 20SM FEW013 BKN039 OVC080 09/ RMK SF2SC3AC3=

CYVR;2006-11-10 03:00;METAR CYVR 100300Z 13010KT 20SM FEW014 FEW040 BKN068 OVC210 08/06 A3008 RMK SC2SC1AC5CS1 SLP185=

CYVR;2006-11-10 04:00;METAR CYVR 100400Z 10009KT 20SM FEW040 SCT055 BKN078 OVC200 07/05 A3006 RMK SC2SC2AC3CS2 SLP180=

CYVR;2006-11-10 05:00;METAR CYVR 100500Z 09015KT 20SM FEW040 SCT060 BKN090 OVC200 07/05 A3004 RMK SC2SC2AC3CS2 SLP171=

CYVR;2006-11-10 06:00;METAR CYVR 100600Z 10014KT 20SM BKN027 OVC074 07/04 A3003 RMK SC5AC3 SLP168=

CYVR;2006-11-10 07:00;METAR CYVR 100700Z 10014KT 20SM SCT027 BKN039 OVC080 08/04 A2999 RMK SC3SC2AC3 SLP157=

CYVR;2006-11-10 08:00;METAR CYVR 100800Z 10017KT 20SM BKN033 BKN074 OVC140 08/04 A2995 RMK SC5AC2AC2 SLP142=

CYVR;2006-11-10 09:00;METAR CYVR 100900Z 10018KT 20SM SCT030 BKN052 OVC078 08/04 A2993 RMK SC3SC2AC2 SLP134=

CYVR;2006-11-10 09:18;SPECI CYVR 100918Z 10018KT 20SM -SHRA SCT030 BKN051 OVC075 08/ RMK SC3SC2AC2=

CYVR;2006-11-10 10:00;METAR CYVR 101000Z 10019G26KT 20SM -SHRA BKN038 OVC050 08/04 A2988 RMK SC6SC2 PCPN VRY LGT SLP118=

CYVR;2006-11-10 11:00;METAR CYVR 101100Z 10019G24KT 20SM -SHRA BKN041 OVC056 08/04 A2983 RMK SC6SC2 PCPN VRY LGT SLP102=

CYVR;2006-11-10 13:00;METAR CYVR 101300Z 10016G32KT 20SM -RA OVC031 07/05 A2974 RMK SC8 SLP071=

CYVR;2006-11-10 14:00;METAR CYVR 101400Z 10017G22KT 20SM -RA OVC025 07/06 A2972 RMK SC8 SLP063=

CYVR;2006-11-10 15:00;METAR CYVR 101500Z 12016G26KT 10SM -RA FEW012 BKN015 OVC030 07/06 A2970 RMK SF2SF2SC3 RERA SLP057=

CYVR;2006-11-10 15:20;SPECI CYVR 101520Z 10018G26KT 5SM -RA BR FEW009 BKN014 OVC024 06/ RMK SF2SF3SC2=

CYVR;2006-11-10 16:00;METAR CYVR 101600Z 12016G36KT 4SM -RA BR FEW009 BKN014 OVC024 07/06 A2969 RMK SF2SF4SC2 SLP055=

CYVR;2006-11-10 17:00;METAR CYVR 101700Z 14021G28KT 4SM -RA BR FEW009 BKN015 OVC021 07/06 A2967 RMK SF2SF4SC2 SLP049=

CYVR;2006-11-10 18:00;METAR CYVR 101800Z 13014G19KT 4SM -RA BR FEW007 BKN013 OVC020 07/06 A2965 RMK SF2SF5SC2 SLP041=

CYVR;2006-11-10 19:00;METAR CYVR 101900Z 13012KT 3SM -RA BR FEW009 BKN013 OVC022 07/07 A2963 RMK SF2SF3SC3 SLP033=

CYVR;2006-11-10 19:45;SPECI CYVR 101945Z 07009KT 4SM RA BR BKN007 OVC013 06/ RMK SF5SF3=

CYVR;2006-11-10 20:00;METAR CYVR 102000Z 07007KT 4SM RA BR BKN007 OVC012 06/06 A2962 RMK SF6SF2 SLP030=

CYVR;2006-11-10 21:00;METAR CYVR 102100Z 09005KT 6SM -RA BR BKN009 OVC019 07/07 A2961 RMK SF6SC2 /R10/ RERA SLP027=

CYVR;2006-11-10 21:16;SPECI CYVR 102116Z 08006KT 7SM -RA SCT009 BKN021 OVC028 08/ RMK SF3SC3SC2=

CYVR;2006-11-10 22:00;METAR CYVR 102200Z 09007KT 10SM -RA SCT009 BKN022 OVC034 08/07 A2960 RMK SF3SC4SC1 SLP024=

CYVR;2006-11-10 22:42;SPECI CYVR 102242Z 17006KT 15SM FEW011 BKN018 OVC035 08/ RMK SF2SC5SC1=

CYVR;2006-11-10 23:00;METAR CYVR 102300Z 14004KT 15SM FEW011 BKN018 OVC034 08/07 A2962 RMK SF2SC5SC2 TCU EMBD SHWS N SLP031=

CYVR;2006-11-10 23:37;SPECI CYVR 102337Z 07008KT 10SM -SHRA FEW011 BKN017 OVC030 07/ RMK SF2SC5SC1 TCU EMBD=

CYVR;2006-11-11 00:00;METAR CYVR 110000Z 05007KT 10SM -SHRA FEW011 BKN018 OVC030 07/06 A2963 RMK SF2SC4CU1 TCU EMBD PCPN VRY LGT SLP033=

CYVR;2006-11-11 00:47;SPECI CYVR 110047Z 08008KT 10SM FEW005 BKN014 OVC030 RMK SF2SC4SC2 TCU EMBD=

CYVR;2006-11-11 01:00;METAR CYVR 110100Z 07007KT 10SM FEW005 OVC014 06/06 A2963 RMK SF2SC6 TCU EMBD SLP035=

CYVR;2006-11-11 02:00;METAR CYVR 110200Z 10010KT 10SM FEW009 BKN014 OVC035 06/06 A2964 RMK SF2SF3SC3 SLP037=

CYVR;2006-11-11 02:30;SPECI CYVR 110230Z 10010KT 10SM FEW013 SCT035 OVC069 06/ RMK SF2SC2AC5=

CYVR;2006-11-11 03:00;METAR CYVR 110300Z 09008KT 10SM FEW013 BKN038 OVC070 06/06 A2965 RMK SF2SC5AC2 SLP040=

CYVR;2006-11-11 03:19;SPECI CYVR 110319Z 09009KT 8SM -SHRA FEW013 BKN034 OVC070 06/ RMK SF2SC5AC2=

CYVR;2006-11-11 04:00;METAR CYVR 110400Z 11007KT 10SM -SHRA SCT014 BKN034 BKN063 OVC110 06/06 A2965 RMK SC3SC2SC2AC1 PCPN VRY LGT SLP042=

CYVR;2006-11-11 04:23;SPECI CYVR 110423Z 13005KT 8SM -SHRA FEW013 SCT035 BKN061 OVC080 07/ RMK SC2SC2SC3AC2 TWR REP LTNG DIST S PCPN VRY LGT=

CYVR;2006-11-11 05:00;METAR CYVR 110500Z 19010G16KT 10SM -SHRA FEW013 FEW024 BKN060 OVC140 08/07 A2966 RMK SC1SC2SC4AC2 PCPN VRY LGT SLP044=

CYVR;2006-11-11 05:35;SPECI CYVR 110535Z 18008KT 15SM FEW025 SCT060 BKN110 07/ RMK SC2SC2AC2=

CYVR;2006-11-11 06:00;METAR CYVR 110600Z 18009KT 15SM FEW025 SCT060 BKN085 BKN110 07/06 A2968 RMK SC1SC2AC2AC2 SLP051=

CYVR;2006-11-11 07:00;METAR CYVR 110700Z 19009KT 15SM FEW035 BKN060 BKN100 07/06 A2970 RMK SC2SC3AC2 SLP058=

CYVR;2006-11-11 08:00;METAR CYVR 110800Z 14002KT 15SM FEW035 BKN057 07/05 A2972 RMK SC2SC3 SLP063=

CYVR;2006-11-11 09:00;METAR CYVR 110900Z 21009KT 20SM FEW035 FEW055 FEW090 07/05 A2974 RMK SC1SC1AC1 SLP070=

CYVR;2006-11-11 10:00;METAR CYVR 111000Z 19005KT 20SM FEW030 FEW055 FEW100 07/05 A2976 RMK SC1SC1AC1 SLP078=

CYVR;2006-11-11 11:00;METAR CYVR 111100Z 06003KT 20SM FEW030 FEW055 FEW100 05/04 A2978 RMK SC1SC1AC1 SLP084=

CYVR;2006-11-11 12:00;METAR CYVR 111200Z 13002KT 20SM FEW030 FEW055 SCT120 06/05 A2979 RMK SC1SC2AC1 SLP089=

CYVR;2006-11-11 13:00;METAR CYVR 111300Z 08007KT 20SM FEW030 FEW062 SCT140 04/03 A2982 RMK SC1SC2AC2 SLP098=

CYVR;2006-11-11 14:00;METAR CYVR 111400Z 10006KT 20SM FEW030 BKN120 OVC150 03/03 A2984 RMK SC2AC6AS1 SLP104=

CYVR;2006-11-11 15:00;METAR CYVR 111500Z 08005KT 20SM FEW025 BKN053 OVC150 04/04 A2985 RMK SC2SC4AC2 SLP109=

CYVR;2006-11-11 16:00;METAR CYVR 111600Z 10006KT 20SM FEW025 SCT055 BKN150 OVC200 05/04 A2988 RMK SC2SC2AC2CI2 SLP117=

CYVR;2006-11-11 17:00;METAR CYVR 111700Z 10004KT 20SM FEW040 BKN091 BKN150 OVC200 06/05 A2990 RMK SC2AC3AC2CI1 SLP124=

CYVR;2006-11-11 18:00;METAR CYVR 111800Z 18008KT 20SM FEW035 FEW092 BKN160 BKN210 08/05 A2990 RMK SC2AC1AC2CI1 SLP126=

CYVR;2006-11-11 19:00;METAR CYVR 111900Z 21008KT 30SM FEW041 FEW090 BKN200 09/05 A2992 RMK CU2AC1CI1 SLP132=

CYVR;2006-11-11 20:00;METAR CYVR 112000Z 22011G18KT 30SM FEW040TCU SCT090 BKN210 09/04 A2993 RMK TCU2AC2CI2 SLP137=

CYVR;2006-11-11 21:00;METAR CYVR 112100Z 21011KT 30SM FEW038TCU BKN061 OVC120 09/04 A2994 RMK TCU2SC3AC3 SLP140=

CYVR;2006-11-11 22:00;METAR CYVR 112200Z 19009KT 20SM BKN041 OVC075 09/04 A2996 RMK SC6AC2 TCU EMBD VIRGA ALL QUADS SLP144=

CYVR;2006-11-11 22:24;SPECI CYVR 112224Z 17005KT 10SM -SHRA FEW020 BKN042 OVC070 09/ RMK SF2SC4AC2=

CYVR;2006-11-11 23:00;METAR CYVR 112300Z 20007G17KT 7SM -SHRA FEW015 BKN038 OVC055 09/04 A2996 RMK SF2SC5SC1 SLP144=

CYVR;2006-11-11 23:37;SPECI CYVR 112337Z 20010G16KT 15SM FEW021 BKN034 BKN110 OVC160 08/ RMK SF2SC4AC2AS1=

CYVR;2006-11-12 00:00;METAR CYVR 120000Z 21007KT 20SM FEW021 SCT034 BKN069 BKN120 OVC170 07/05 A2996 RMK SF2SC2AC2AC1AS1 SLP146=

CYVR;2006-11-12 01:00;METAR CYVR 120100Z 18006KT 20SM FEW025 SCT070 BKN110 OVC170 08/04 A2996 RMK SC2AC1AC2AS2 SLP147=

CYVR;2006-11-12 01:44;SPECI CYVR 120144Z 18011KT 15SM -SHRA FEW025 BKN048 OVC071 07/ RMK SC2SC3AC2=

CYVR;2006-11-12 02:00;METAR CYVR 120200Z 18011G16KT 10SM -SHRA FEW021 BKN035 OVC050 07/05 A2997 RMK SF2SC5SC2 SLP150=

CYVR;2006-11-12 03:00;METAR CYVR 120300Z 17007KT 15SM FEW035 BKN073 OVC220 07/05 A2998 RMK SF2AC4CS2 SLP151=

CYVR;2006-11-12 03:30;SPECI CYVR 120330Z 18010KT 12SM -SHRA SCT038 BKN049 OVC072 07/ RMK SF3SC3AC2=

CYVR;2006-11-12 04:00;METAR CYVR 120400Z 17009KT 12SM -SHRA SCT035 BKN059 OVC073 07/05 A2997 RMK SF3SC3AC2 SLP148=

CYVR;2006-11-12 05:00;METAR CYVR 120500Z 13005KT 10SM -RA BKN029 OVC055 07/06 A2997 RMK ST6SC2 SLP148=

CYVR;2006-11-12 06:00;METAR CYVR 120600Z 18006KT 7SM -RA BKN029 OVC042 07/06 A2996 RMK ST6ST2 SLP146=

CYVR;2006-11-12 07:00;METAR CYVR 120700Z 18010KT 12SM -RA BKN032 OVC044 07/05 A2996 RMK ST6ST2 SLP144=

CYVR;2006-11-12 07:31;SPECI CYVR 120731Z 16006KT 12SM FEW019 BKN034 OVC048 07/ RMK SF2ST4SC2=

CYVR;2006-11-12 08:00;METAR CYVR 120800Z 17009KT 15SM FEW019 SCT033 BKN082 OVC130 07/06 A2994 RMK SF2ST2AC2AC2 SLP139=

CYVR;2006-11-12 09:00;METAR CYVR 120900Z 18010KT 15SM FEW018 BKN048 BKN081 OVC120 08/06 A2993 RMK SF2SC2AC2AC2 SLP136=

CYVR;2006-11-12 09:26;SPECI CYVR 120926Z 17011KT 12SM -SHRA FEW018 SCT053 BKN078 OVC120 08/ RMK SF2SC2AC3AC2 PCPN VRY LGT=

CYVR;2006-11-12 09:49;SPECI CYVR 120949Z 16009KT 15SM FEW019 BKN056 OVC072 08/ RMK SF2SC4AC2=

CYVR;2006-11-12 10:00;METAR CYVR 121000Z 17009KT 15SM FEW019 BKN055 BKN075 OVC120 08/06 A2991 RMK SF2SC4AC1AC1 SLP129=

CYVR;2006-11-12 10:35;SPECI CYVR 121035Z 18007KT 12SM -SHRA FEW019 BKN046 OVC078 08/ RMK SF2SC4AC2 PCPN VRY LGT=

CYVR;2006-11-12 11:00;METAR CYVR 121100Z 17010G15KT 12SM -SHRA FEW019 BKN045 OVC078 08/06 A2990 RMK SF2SC5AC1 SLP126=

CYVR;2006-11-12 11:27;SPECI CYVR 121127Z 17012G17KT 12SM FEW019 OVC041 08/ RMK SF2SC6=

CYVR;2006-11-12 11:44;SPECI CYVR 121144Z 18014KT 12SM -SHRA FEW019 OVC044 08/ RMK SF2SC6=

CYVR;2006-11-12 12:00;METAR CYVR 121200Z 18013KT 6SM -SHRA BR FEW018 OVC044 08/07 A2988 RMK SF2SC6 SLP120=

CYVR;2006-11-12 12:30;SPECI CYVR 121230Z 16011KT 12SM FEW018 BKN051 OVC065 07/ RMK SF2SC3SC2=

CYVR;2006-11-12 13:00;METAR CYVR 121300Z 17009KT 12SM FEW019 SCT052 BKN074 OVC100 08/06 A2986 RMK SF2SC2AC2AC2 SLP113=

CYVR;2006-11-12 13:28;SPECI CYVR 121328Z 18009KT 12SM -SHRA FEW019 SCT036 BKN048 OVC074 08/ RMK SF2SC2SC2AC2=

CYVR;2006-11-12 14:00;METAR CYVR 121400Z 19010KT 8SM -SHRA FEW018 SCT033 OVC045 08/07 A2986 RMK SF2SC2SC4 SLP111=

CYVR;2006-11-12 14:23;SPECI CYVR 121423Z 18015KT 8SM -RA FEW018 SCT032 OVC044 08/ RMK SF2SC2SC4=

CYVR;2006-11-12 15:00;METAR CYVR 121500Z 14008KT 8SM -RA SCT018 BKN038 OVC064 08/07 A2985 RMK SC3SC2SC2 SLP107=

CYVR;2006-11-12 16:00;METAR CYVR 121600Z 17008KT 8SM -RA FEW018 BKN033 OVC059 08/07 A2984 RMK SC2SC5SC1 SLP104=

CYVR;2006-11-12 17:00;METAR CYVR 121700Z 15007KT 10SM -RA FEW018 BKN036 OVC050 08/07 A2982 RMK SC2SC6SC1 SLP098=

CYVR;2006-11-12 18:00;METAR CYVR 121800Z 14008KT 8SM -RA FEW018 BKN036 OVC049 08/08 A2981 RMK SC2SC6SC1 SLP094=

CYVR;2006-11-12 19:00;METAR CYVR 121900Z 16008KT 8SM -RA SCT015 BKN034 OVC048 08/08 A2978 RMK SC3SC4SC1 SLP086=

CYVR;2006-11-12 20:00;METAR CYVR 122000Z 16013KT 10SM -RA FEW016 BKN034 OVC047 08/08 A2974 RMK SC2SC3SC3 SLP070=

CYVR;2006-11-12 21:00;METAR CYVR 122100Z 15012KT 10SM -RA FEW016 BKN041 OVC051 08/08 A2970 RMK SC1SC6SC1 SLP056=

CYVR;2006-11-12 22:00;METAR CYVR 122200Z 15015KT 12SM -RA FEW016 FEW034 BKN042 OVC056 08/07 A2965 RMK SC1SC2SC4SC2 SLP042=

CYVR;2006-11-12 22:45;SPECI CYVR 122245Z 13011KT 12SM -RA FEW008 BKN013 OVC041 09/ RMK SF2SC4SC2=

CYVR;2006-11-12 23:00;METAR CYVR 122300Z 12008KT 8SM -RA FEW008 BKN013 OVC022 09/08 A2960 RMK SF2SC3SC2 SLP024=

CYVR;2006-11-12 23:27;SPECI CYVR 122327Z 13012KT 8SM -RA FEW008 SCT013 BKN018 OVC040 09/ RMK SF2SC2SC4SC1=

CYVR;2006-11-13 00:00;METAR CYVR 130000Z 13011KT 8SM -RA SCT013 BKN023 OVC040 09/08 A2954 RMK SC3SC3SC2 PRESFR SLP004=

CYVR;2006-11-13 01:00;METAR CYVR 130100Z 14010KT 5SM -RA BR FEW012 OVC028 09/07 A2948 RMK SC2SC6 PRESFR SLP983=

CYVR;2006-11-13 02:00;METAR CYVR 130200Z 15018G28KT 8SM -RA FEW012 BKN023 OVC037 09/06 A2941 RMK SC2SC6SC1 PRESFR SLP960=

CYVR;2006-11-13 04:00;METAR CYVR 130400Z 10014KT 4SM -RA BR FEW012 BKN023 OVC031 07/06 A2927 RMK SF2SC3SC2 PRESFR SLP912=

CYVR;2006-11-13 05:00;METAR CYVR 130500Z 11012G17KT 4SM -RA BR FEW012 BKN025 OVC040 06/06 A2922 RMK SF2SC3SC2 SLP896=

CYVR;2006-11-13 06:00;METAR CYVR 130600Z 08006KT 4SM -RA BR SCT011 BKN025 OVC035 06/06 A2918 RMK SF3ST3SC2 /R10/ SLP882=

CYVR;2006-11-13 06:12;SPECI CYVR 130612Z 08008KT 4SM -RA BR BKN006 BKN012 OVC025 06/ RMK SF5ST2SC1=

CYVR;2006-11-13 06:38;SPECI CYVR 130638Z 03006KT 8SM -RA FEW006 SCT012 OVC025 06/ RMK SF2SF2SC4=

CYVR;2006-11-13 07:00;METAR CYVR 130700Z 04006KT 8SM -RA FEW006 SCT012 BKN024 OVC037 06/05 A2917 RMK SF2SF2ST3SC2 SLP879=

CYVR;2006-11-13 08:00;METAR CYVR 130800Z 00000KT 8SM -RA SCT012 BKN035 OVC045 05/05 A2917 RMK SF3SC3SC2 SLP877=

CYVR;2006-11-13 09:00;METAR CYVR 130900Z 28005KT 8SM -RA SCT012 BKN028 OVC053 05/05 A2919 RMK SF3SC3SC2 SLP884=

CYVR;2006-11-13 10:00;METAR CYVR 131000Z 26006KT 8SM -RA FEW012 BKN028 OVC056 06/05 A2924 RMK SF2SC3SC2 SLP901=

CYVR;2006-11-13 11:00;METAR CYVR 131100Z 18003KT 12SM -RA FEW028 BKN047 OVC058 06/05 A2926 RMK SF2SC3SC2 PCPN VRY LGT SLP909=

CYVR;2006-11-13 11:27;SPECI CYVR 131127Z 18004KT 12SM FEW028 BKN046 OVC062 06/ RMK SF2SC3SC2=

CYVR;2006-11-13 12:00;METAR CYVR 131200Z 00000KT 12SM SCT016 BKN037 OVC059 06/05 A2932 RMK SF3SC2SC2 PRESRR SLP928=

CYVR;2006-11-13 13:00;METAR CYVR 131300Z 02002KT 15SM FEW016 FEW037 FEW061 05/04 A2936 RMK SF1SC1SC1 SLP941=

CYVR;2006-11-13 14:00;METAR CYVR 131400Z 28012KT 15SM FEW016 FEW037 07/05 A2940 RMK SF2SC1 SLP955=

CYVR;2006-11-13 15:00;METAR CYVR 131500Z 27006KT 20SM FEW016 SCT028 BKN220 07/05 A2944 RMK SF2SC2CS1 SLP969=

CYVR;2006-11-13 16:00;METAR CYVR 131600Z 18004KT 20SM FEW012 FEW030 SCT060 BKN120 06/05 A2947 RMK SF1SC1SC2AC2 SLP981=

CYVR;2006-11-13 17:00;METAR CYVR 131700Z 12004KT 20SM FEW012 FEW030 BKN095 OVC120 06/05 A2950 RMK SF1SC1AC3AC2 SLP990=

CYVR;2006-11-13 18:00;METAR CYVR 131800Z 17003KT 20SM FEW015 SCT075 BKN110 OVC140 08/05 A2951 RMK SC2AC2AC3AC1 SLP992=

CYVR;2006-11-13 19:00;METAR CYVR 131900Z 19012G17KT 20SM FEW030 BKN057 OVC120 08/04 A2951 RMK SC2SC5AC1 SLP992=

CYVR;2006-11-13 20:00;METAR CYVR 132000Z 18011KT 20SM FEW015 FEW035 BKN065 OVC080 08/04 A2949 RMK SF1SC2SC2AC3 SLP988=

CYVR;2006-11-13 20:23;SPECI CYVR 132023Z 19016KT 15SM -SHRA FEW015 SCT032 BKN054 OVC080 08/ RMK SF1SC3SC2AC2 PCPN VRY LGT=

CYVR;2006-11-13 21:00;METAR CYVR 132100Z 20016G26KT 15SM -SHRA FEW015 BKN034 OVC047 07/04 A2948 RMK SC1SC4SC3 PCPN VRY LGT SLP984=

CYVR;2006-11-13 21:50;SPECI CYVR 132150Z 17010G18KT 15SM FEW015 FEW035 SCT075 OVC094 07/ RMK SC1SC2AC2AC4=

CYVR;2006-11-13 22:00;METAR CYVR 132200Z 17010KT 20SM FEW015 FEW035 BKN058 OVC098 07/05 A2947 RMK SC1SC2SC3AC2 SLP978=

CYVR;2006-11-13 23:00;METAR CYVR 132300Z 17010G17KT 20SM FEW015 FEW035 BKN054 BKN080 07/04 A2946 RMK SC1SC2SC3AC1 VIS LWR N QUAD SLP977=

CYVR;2006-11-14 00:00;METAR CYVR 140000Z 18009KT 20SM FEW015 FEW030 SCT060 SCT120 07/04 A2947 RMK SC1SC1SC1AC0 SLP978=

CYVR;2006-11-14 01:00;METAR CYVR 140100Z 23010KT 15SM FEW015 FEW035 BKN063 07/04 A2948 RMK SC1SC2SC5 SLP984=

CYVR;2006-11-14 02:00;METAR CYVR 140200Z 24003KT 15SM FEW015 SCT045 BKN063 BKN080 07/04 A2950 RMK SC1SC2SC2AC0 SLP991=

CYVR;2006-11-14 03:00;METAR CYVR 140300Z 29009KT 15SM FEW025 BKN048 BKN055 07/04 A2952 RMK SC2SC3SC1 SLP998=

CYVR;2006-11-14 04:00;METAR CYVR 140400Z 31012G19KT 15SM FEW025 BKN041 OVC052 07/05 A2956 RMK SF2SF3SC2 SLP011=

CYVR;2006-11-14 05:00;METAR CYVR 140500Z 29022KT 15SM FEW020 FEW080 07/03 A2961 RMK SF2AC1 SLP028=

CYVR;2006-11-14 06:00;METAR CYVR 140600Z 29028G33KT 15SM FEW020 FEW080 06/03 A2967 RMK SF1AC1 PRESRR SLP047=

CYVR;2006-11-14 07:00;METAR CYVR 140700Z 29022G28KT 15SM FEW030 06/03 A2972 RMK SF2 SLP063=

CYVR;2006-11-14 09:00;METAR CYVR 140900Z 26017KT 15SM FEW020 05/04 A2982 RMK SF2 SLP097=

CYVR;2006-11-14 10:00;METAR CYVR 141000Z 30011KT 15SM FEW025 SCT240 05/03 A2987 RMK SF2CI0 SLP115=

CYVR;2006-11-14 11:00;METAR CYVR 141100Z 33005KT 15SM FEW025 FEW240 03/02 A2991 RMK SF2CI0 SLP130=

CYVR;2006-11-14 12:00;METAR CYVR 141200Z 00000KT 15SM FEW025 SCT190 04/03 A2996 RMK SF1AC1 SLP146=

CYVR;2006-11-14 13:00;METAR CYVR 141300Z 10003KT 15SM FEW020 SCT170 02/02 A3000 RMK SF1AC1 SLP159=

CYVR;2006-11-14 14:00;METAR CYVR 141400Z 09007KT 15SM FEW020 FEW045 BKN068 03/02 A3002 RMK SF1SF2AC4 SLP166=

CYVR;2006-11-14 15:00;METAR CYVR 141500Z 07008KT 15SM FEW020 BKN077 OVC120 04/03 A3005 RMK SF2AC5AC1 SLP175=

CYVR;2006-11-14 16:00;METAR CYVR 141600Z 09010KT 20SM FEW020 SCT034 BKN065 OVC080 05/04 A3009 RMK SF2SC2SC2AC2 VIS N QUAD 15 SM SLP188=

CYVR;2006-11-14 16:40;SPECI CYVR 141640Z 11011KT 12SM -SHRA FEW020 SCT035 BKN046 OVC070 05/ RMK SC2SC2SC3AC2=

CYVR;2006-11-14 17:00;METAR CYVR 141700Z 10010KT 15SM -SHRA BKN024 BKN045 OVC070 05/05 A3010 RMK SC5SC2AC1 PCPN VRY LGT SLP194=

CYVR;2006-11-14 17:12;SPECI CYVR 141712Z 09011KT 15SM SCT021 BKN026 BKN045 06/ RMK SC3SC2SC1=

CYVR;2006-11-14 18:00;METAR CYVR 141800Z 10011G17KT 15SM FEW012 SCT024 BKN050 OVC070 06/05 A3012 RMK SF1SC2SC3AC2 SLP199=

CYVR;2006-11-14 18:16;SPECI CYVR 141816Z 11011G17KT 15SM BKN008 OVC017 06/ RMK SC5SC3=

CYVR;2006-11-14 18:26;SPECI CYVR 141826Z 11009KT 15SM SCT008 SCT020 OVC057 06/ RMK SC3SC1SC4=

CYVR;2006-11-14 18:34;SPECI CYVR 141834Z 10009KT 15SM SCT008 BKN014 OVC055 06/ RMK SC3SC2SC2=

CYVR;2006-11-14 18:38;SPECI CYVR 141838Z 10010KT 15SM -SHRA FEW008 BKN015 BKN035 OVC055 06/ RMK SC2SC2SC2SC1=

CYVR;2006-11-14 19:00;METAR CYVR 141900Z 12008KT 15SM FEW008 SCT016 BKN035 OVC050 07/06 A3014 RMK SF2SC2SC4SC1 SLP205=

CYVR;2006-11-14 20:00;METAR CYVR 142000Z 16012G17KT 15SM FEW010 SCT035 OVC060 08/05 A3013 RMK SF2SC2SC4 SLP203=

CYVR;2006-11-14 21:00;METAR CYVR 142100Z 14010KT 15SM FEW010 FEW035 BKN055 OVC080 08/05 A3012 RMK SF1SC2SC3AC2 SLP200=

CYVR;2006-11-14 22:00;METAR CYVR 142200Z 14013G18KT 15SM FEW015 SCT025 BKN045 OVC080 08/05 A3011 RMK SF1SC2SC3AC2 SLP198=

CYVR;2006-11-14 23:00;METAR CYVR 142300Z 14011G16KT 15SM FEW015 SCT045 BKN053 OVC080 08/05 A3011 RMK SF1SC2SC2AC2 SLP195=

CYVR;2006-11-15 00:00;METAR CYVR 150000Z 13011KT 15SM FEW015 SCT045 BKN054 OVC083 08/05 A3011 RMK SF1SF2SC3AC2 SLP197=

CYVR;2006-11-15 01:00;METAR CYVR 150100Z 13010G15KT 15SM FEW015 SCT045 BKN090 OVC140 08/05 A3010 RMK SF2SC2AC2AC3 SLP193=

CYVR;2006-11-15 02:00;METAR CYVR 150200Z 14011G16KT 15SM FEW015 FEW045 SCT063 OVC090 08/06 A3007 RMK SF1SC2SC2AC4 SLP182=

CYVR;2006-11-15 03:00;METAR CYVR 150300Z 14015KT 15SM FEW015 SCT050 BKN081 OVC150 08/05 A3003 RMK SF2SC2AC2AS2 SLP169=

CYVR;2006-11-15 04:00;METAR CYVR 150400Z 13018KT 15SM FEW020 SCT076 OVC150 08/06 A3000 RMK SF2AC2AS5 SLP159=

CYVR;2006-11-15 05:00;METAR CYVR 150500Z 14017G26KT 12SM FEW020 BKN100 OVC150 08/05 A2997 RMK SF2AS4AS2 SLP150=

CYVR;2006-11-15 06:00;METAR CYVR 150600Z 13014G19KT 12SM FEW028 OVC110 09/04 A2995 RMK SF2AS6 SLP143=

CYVR;2006-11-15 07:00;METAR CYVR 150700Z 11011KT 12SM BKN035 OVC087 08/05 A2991 RMK SC6AS2 SLP130=

CYVR;2006-11-15 07:30;SPECI CYVR 150730Z 13009KT 12SM -SHRA FEW022 BKN045 OVC058 08/ RMK SF2ST3SC3=

CYVR;2006-11-15 08:00;METAR CYVR 150800Z 13013KT 12SM -SHRA FEW022 BKN038 OVC063 09/05 A2987 RMK SF2ST3SC2 SLP116=

CYVR;2006-11-15 09:00;METAR CYVR 150900Z 13012KT 12SM -RA FEW021 BKN040 OVC061 08/05 A2982 RMK SF2ST5SC1 SLP097=

CYVR;2006-11-15 10:00;METAR CYVR 151000Z 10014KT 12SM -RA FEW020 BKN039 OVC055 07/05 A2975 RMK SF2ST6SC1 PRESFR SLP075=

CYVR;2006-11-15 11:00;METAR CYVR 151100Z 13020G26KT 12SM -RA FEW019 OVC029 08/04 A2970 RMK SF2ST6 SLP059=

CYVR;2006-11-15 12:00;METAR CYVR 151200Z 12018G27KT 10SM -RA FEW019 BKN035 OVC049 08/05 A2965 RMK SF2ST5SC2 PRESFR SLP040=

CYVR;2006-11-15 13:00;METAR CYVR 151300Z 13020G26KT 10SM -RA FEW020 BKN039 OVC051 08/06 A2960 RMK SF2ST3SC3 SLP025=

CYVR;2006-11-15 15:00;METAR CYVR 151500Z 12021G31KT 6SM RA BR SCT012 OVC017 08/07 A2953 RMK SC3SC5 SLP999=

CYVR;2006-11-15 16:00;METAR CYVR 151600Z 13026G41KT 3SM +RA BR FEW012 BKN021 OVC045 08/07 A2946 RMK SC2SC4SC2 /R10/ PRESFR SLP976=

CYVR;2006-11-15 17:00;METAR CYVR 151700Z 13027G37KT 4SM -RA BR FEW014 BKN026 OVC048 09/07 A2940 RMK SC2SC4SC2 SLP957=

CYVR;2006-11-15 18:00;METAR CYVR 151800Z 14028G35KT 4SM RA BR FEW014 BKN030 OVC054 09/08 A2935 RMK SC2SC3SC3 SLP939=

CYVR;2006-11-15 18:25;SPECI CYVR 151825Z 13029G41KT 10SM FEW014 FEW025 BKN049 OVC090 10/ RMK CF1SC2SC5AC1=

CYVR;2006-11-15 18:46;SPECI CYVR 151846Z 14027G32KT 4SM -RA BR FEW014 SCT025 OVC049 10/ RMK CF2SC2SC4=

CYVR;2006-11-15 19:00;METAR CYVR 151900Z 14026G35KT 4SM RA BR FEW014 SCT025 BKN042 OVC087 10/08 A2927 RMK SC2SC2SC4AC1 PRESFR SLP912=

CYVR;2006-11-15 20:00;METAR CYVR 152000Z 14021G28KT 6SM -RA BR FEW020 BKN044 OVC078 10/09 A2921 RMK SC2SC5AC1 SLP893=

CYVR;2006-11-15 21:00;METAR CYVR 152100Z 16026G36KT 6SM -RA BR FEW020 OVC040 11/09 A2919 RMK SC2SC6 SLP885=

CYVR;2006-11-15 22:00;METAR CYVR 152200Z 16031G39KT 6SM -RA BR SCT024 BKN048 OVC061 10/09 A2913 RMK SC3SC4SC1 PRESFR SLP863=

CYVR;2006-11-15 23:00;METAR CYVR 152300Z 16025G34KT 10SM -RA FEW020 BKN044 OVC058 10/08 A2910 RMK SC2SC4SC2 SLP856=

CYVR;2006-11-16 00:00;METAR CYVR 160000Z 16023G32KT 8SM -RA FEW018 BKN032 OVC050 10/09 A2909 RMK SC2SC5SC1 /R10/ SLP851=

CYVR;2006-11-16 01:00;METAR CYVR 160100Z 16024G30KT 10SM -RA FEW025 SCT036 BKN051 OVC080 10/09 A2908 RMK SC2SC2SC3AC2 SLP847=

CYVR;2006-11-16 01:35;SPECI CYVR 160135Z 17020G28KT 10SM FEW036 BKN052 OVC081 10/ RMK SC2SC5AC2=

CYVR;2006-11-16 02:00;METAR CYVR 160200Z 18019G27KT 12SM FEW040 BKN059 OVC086 11/09 A2912 RMK SC2SC4AC2 SLP862=

CYVR;2006-11-16 02:39;SPECI CYVR 160239Z 28021G26KT 12SM FEW020 SCT045 BKN085 OVC130 11/ RMK SC2SC2AC3AC2 WND SHFT=

CYVR;2006-11-16 03:00;METAR CYVR 160300Z 29030G37KT 12SM FEW020 SCT030 BKN098 OVC130 09/06 A2923 RMK SC2SC2AC3AC2 PRESRR SLP898=

CYVR;2006-11-16 04:00;METAR CYVR 160400Z 30030G35KT 15SM FEW020 SCT035 BKN110 07/03 A2933 RMK SC2SC2AC2 PRESRR SLP933=

CYVR;2006-11-16 04:38;SPECI CYVR 160438Z 28028G37KT 12SM -SHRA FEW020 BKN045 BKN110 07/ RMK SC2SC3AC2=

CYVR;2006-11-16 06:00;METAR CYVR 160600Z 28026G32KT 15SM FEW020 SCT050 BKN090 07/01 A2952 RMK SC2SC2AC2 PRESRR SLP995=

CYVR;2006-11-16 07:00;METAR CYVR 160700Z 27023G28KT 15SM FEW020 BKN045 BKN090 07/01 A2960 RMK SC2SC3AC1 PRESRR SLP022=

CYVR;2006-11-16 08:00;METAR CYVR 160800Z 28020KT 15SM FEW020 BKN051 07/00 A2966 RMK SC2SC3 PRESRR SLP045=

CYVR;2006-11-16 09:00;METAR CYVR 160900Z 28012G17KT 15SM FEW020 BKN055 07/M01 A2972 RMK SC2SC3 SLP063=

CYVR;2006-11-16 10:00;METAR CYVR 161000Z 27007KT 20SM FEW020 SCT055 05/M00 A2976 RMK SC1SC2 SLP079=

CYVR;2006-11-16 11:00;METAR CYVR 161100Z 26006KT 20SM FEW020 FEW050 06/M00 A2980 RMK SC1SC2 SLP091=

CYVR;2006-11-16 12:00;METAR CYVR 161200Z 19005KT 20SM FEW030 BKN086 05/02 A2983 RMK SC2AC3 SLP101=

CYVR;2006-11-16 13:00;METAR CYVR 161300Z 09007KT 20SM FEW030 FEW080 02/M00 A2985 RMK SC1AC1 SLP108=

CYVR;2006-11-16 14:00;METAR CYVR 161400Z 05007KT 20SM FEW030 FEW080 01/M01 A2988 RMK SC1AC1 SLP118=

CYVR;2006-11-16 15:00;METAR CYVR 161500Z 07010KT 20SM FEW040 OVC064 04/02 A2990 RMK SC1SC7 SLP125=

CYVR;2006-11-16 16:00;METAR CYVR 161600Z 09007KT 20SM FEW025 BKN038 OVC050 04/02 A2992 RMK SC1SC6SC2 PCPN DIST N VIS LWR SLP133=

CYVR;2006-11-16 16:06;SPECI CYVR 161606Z 09009KT 20SM -SHRA FEW025 BKN037 OVC048 04/ RMK SC1SC6SC2 VIS N LWR=

CYVR;2006-11-16 16:36;SPECI CYVR 161636Z 09008KT 20SM SCT021 BKN039 OVC060 05/ RMK SC3SC3SC2=

CYVR;2006-11-16 17:00;METAR CYVR 161700Z 10010KT 20SM FEW016 BKN028 OVC054 05/04 A2995 RMK SC2SC4SC2 SLP141=

CYVR;2006-11-16 18:00;METAR CYVR 161800Z 09012KT 20SM SCT021 BKN036 OVC062 06/05 A2996 RMK SC3SC2SC3 SLP146=

CYVR;2006-11-16 19:00;METAR CYVR 161900Z 11014G19KT 20SM SCT018 BKN046 BKN067 08/05 A2996 RMK SC3SC2AC2 SLP147=

CYVR;2006-11-16 20:00;METAR CYVR 162000Z 12017G22KT 20SM SCT021 BKN053 BKN075 08/04 A2996 RMK SC3SC2AC2 SLP145=

CYVR;2006-11-16 21:00;METAR CYVR 162100Z 11012G17KT 20SM SCT023 BKN057 08/04 A2996 RMK SC4SC3 SLP146=

CYVR;2006-11-16 22:00;METAR CYVR 162200Z 15014KT 20SM FEW022 OVC051 09/04 A2995 RMK SC2SC6 SLP143=

CYVR;2006-11-16 23:00;METAR CYVR 162300Z 14011G17KT 20SM FEW027 OVC050 09/05 A2995 RMK SC2SC6 SLP141=

CYVR;2006-11-17 00:00;METAR CYVR 170000Z 15015KT 20SM FEW027 BKN046 BKN090 10/04 A2995 RMK SC2SC5AC1 PCPN DIST N VIS LWR SLP142=

CYVR;2006-11-17 01:00;METAR CYVR 170100Z 15014KT 20SM FEW025 BKN044 OVC080 10/04 A2996 RMK SC2SC6AC1 SLP144=

CYVR;2006-11-17 02:00;METAR CYVR 170200Z 14015KT 20SM FEW030 BKN051 OVC080 10/04 A2995 RMK SC2SC6AC1 SLP143=

CYVR;2006-11-17 03:00;METAR CYVR 170300Z 16013G19KT 20SM -SHRA FEW030 BKN049 OVC080 10/04 A2996 RMK SC2SC4AC2 SLP147=

CYVR;2006-11-17 04:00;METAR CYVR 170400Z 14010KT 15SM -SHRA FEW030 BKN044 OVC070 08/06 A2998 RMK SC2SC5AC1 SLP153=

CYVR;2006-11-17 04:28;SPECI CYVR 170428Z 14012KT 15SM FEW030 BKN049 OVC070 09/ RMK SC2SC5AC1=

CYVR;2006-11-17 05:00;METAR CYVR 170500Z 15013KT 15SM -SHRA FEW025 BKN047 OVC070 09/05 A2998 RMK SC2SC6AC1 SLP151=

CYVR;2006-11-17 06:00;METAR CYVR 170600Z 16011G16KT 12SM -SHRA FEW025 BKN046 OVC070 09/05 A2999 RMK SC2SC6AC1 SLP156=

CYVR;2006-11-17 07:00;METAR CYVR 170700Z 16013KT 12SM -SHRA FEW020 BKN047 OVC070 09/05 A3000 RMK SC2SC5AC2 SLP160=

CYVR;2006-11-17 08:00;METAR CYVR 170800Z 16014KT 15SM -SHRA FEW020 BKN046 OVC070 09/04 A3001 RMK SC2SC5AC2 SLP162=

CYVR;2006-11-17 09:00;METAR CYVR 170900Z 15011KT 10SM -SHRA FEW020 BKN048 OVC068 09/05 A3002 RMK SC2SC6AC1 SLP165=

CYVR;2006-11-17 10:00;METAR CYVR 171000Z 14011KT 10SM FEW020 BKN048 OVC070 09/05 A3002 RMK SC2SC6AC1 SLP166=

CYVR;2006-11-17 11:00;METAR CYVR 171100Z 14012G17KT 10SM FEW020 BKN048 OVC060 09/04 A3003 RMK SC1SC6SC1 SLP168=

CYVR;2006-11-17 12:00;METAR CYVR 171200Z 15010KT 10SM FEW020 BKN047 OVC060 09/04 A3002 RMK SC2SC6SC1 SLP165=

CYVR;2006-11-17 12:07;SPECI CYVR 171207Z 16013G18KT 10SM -SHRA FEW020 BKN046 OVC060 09/ RMK SC2SC6SC1=

CYVR;2006-11-17 13:00;METAR CYVR 171300Z 14006KT 10SM -SHRA FEW020 BKN047 OVC060 08/05 A3003 RMK SC2SC6SC1 SLP169=

CYVR;2006-11-17 14:00;METAR CYVR 171400Z 11007KT 10SM -SHRA FEW020 BKN035 OVC060 07/06 A3004 RMK SC2SC6SC1 SLP171=

CYVR;2006-11-17 15:00;METAR CYVR 171500Z 11007KT 10SM -SHRA FEW020 OVC043 07/06 A3004 RMK SC2SC6 SLP172=

CYVR;2006-11-17 16:00;METAR CYVR 171600Z 09010KT 10SM -SHRA FEW020 BKN043 OVC060 07/06 A3004 RMK SC1SC6SC1 SLP174=

CYVR;2006-11-17 17:00;METAR CYVR 171700Z 09010KT 12SM -SHRA FEW020 BKN043 OVC090 07/06 A3006 RMK SC1SC6AC1 VIS N LWR SLP181=

CYVR;2006-11-17 18:00;METAR CYVR 171800Z 10013KT 10SM -SHRA FEW020 BKN042 OVC080 07/06 A3007 RMK SC1SC6AC1 SLP184=

CYVR;2006-11-17 19:00;METAR CYVR 171900Z 09012KT 12SM -SHRA FEW025 BKN043 OVC080 07/06 A3009 RMK SC1SC6AC1 SLP189=

CYVR;2006-11-17 20:00;METAR CYVR 172000Z 07010KT 8SM -RA FEW018 OVC040 07/06 A3008 RMK SC2SC6 SLP187=

CYVR;2006-11-17 21:00;METAR CYVR 172100Z 08011KT 8SM -RA FEW024 OVC043 07/06 A3008 RMK SC2SC6 SLP185=

CYVR;2006-11-17 22:00;METAR CYVR 172200Z 07009KT 8SM -RA SCT030 OVC054 07/06 A3008 RMK SC3SC5 SLP185=

CYVR;2006-11-17 23:00;METAR CYVR 172300Z 06010KT 10SM -RA FEW030 SCT042 OVC056 07/06 A3008 RMK SC2SC2SC4 SLP185=

CYVR;2006-11-18 00:00;METAR CYVR 180000Z 06013KT 10SM -RA FEW030 BKN046 OVC060 07/06 A3007 RMK SC2SC6SC1 SLP182=

CYVR;2006-11-18 00:28;SPECI CYVR 180028Z 08009KT 12SM FEW030 BKN044 OVC060 06/ RMK SC2SC5SC1=

CYVR;2006-11-18 00:50;SPECI CYVR 180050Z 07006KT 10SM -RA FEW030 BKN048 OVC060 06/ RMK SC2SC5SC1=

CYVR;2006-11-18 01:00;METAR CYVR 180100Z 07005KT 10SM -RA FEW030 BKN044 OVC060 06/06 A3007 RMK SC2SC5SC1 SLP183=

CYVR;2006-11-18 02:00;METAR CYVR 180200Z 08009KT 8SM -RA FEW025 BKN040 OVC060 06/06 A3009 RMK SC2SC6SC1 VIS N LWR SLP189=

CYVR;2006-11-18 03:00;METAR CYVR 180300Z 08008KT 8SM -RA FEW025 BKN046 OVC074 07/06 A3009 RMK SC2SC5AC2 SLP191=

CYVR;2006-11-18 04:00;METAR CYVR 180400Z 07010KT 8SM -SHRA FEW020 BKN034 OVC060 07/06 A3009 RMK SC2SC5SC2 SLP191=

CYVR;2006-11-18 05:00;METAR CYVR 180500Z 09009KT 10SM -SHRA FEW020 BKN045 OVC060 07/07 A3010 RMK SC2SC4SC2 SLP193=

CYVR;2006-11-18 05:20;SPECI CYVR 180520Z 08012KT 10SM FEW020 BKN048 OVC070 07/ RMK SC2SC5AC2=

CYVR;2006-11-18 05:32;SPECI CYVR 180532Z 10009G16KT 10SM -SHRA FEW020 BKN049 OVC060 07/ RMK SC2SC5SC2=

CYVR;2006-11-18 06:00;METAR CYVR 180600Z 09011KT 10SM -SHRA FEW020 BKN045 OVC060 07/07 A3011 RMK SC2SC5SC2 SLP197=

CYVR;2006-11-18 07:00;METAR CYVR 180700Z 09010KT 8SM -SHRA FEW020 BKN035 OVC050 07/07 A3013 RMK SC2SC5SC2 SLP204=

CYVR;2006-11-18 08:00;METAR CYVR 180800Z 09009KT 8SM -SHRA FEW020 BKN039 OVC050 08/07 A3014 RMK SC2SC4SC2 SLP208=

CYVR;2006-11-18 09:00;METAR CYVR 180900Z 07012KT 12SM FEW025 SCT040 OVC090 07/07 A3015 RMK SC2SC2AC4 SLP209=

CYVR;2006-11-18 10:00;METAR CYVR 181000Z 10013KT 12SM FEW020 BKN048 OVC070 07/07 A3017 RMK SC2SC3AC2 SLP217=

CYVR;2006-11-18 11:00;METAR CYVR 181100Z 10011KT 10SM -SHRA FEW020 BKN041 OVC070 08/07 A3018 RMK SC2SC3AC2 SLP220=

CYVR;2006-11-18 11:40;SPECI CYVR 181140Z 07010KT 10SM FEW020 BKN035 OVC060 08/ RMK SC2SC4SC2=

CYVR;2006-11-18 12:00;METAR CYVR 181200Z 08009KT 12SM FEW020 BKN037 OVC060 08/07 A3019 RMK SC2SC4SC2 SLP223=

CYVR;2006-11-18 13:00;METAR CYVR 181300Z 09010KT 12SM FEW020 BKN032 OVC060 07/07 A3019 RMK SC2SC4SC2 SLP224=

CYVR;2006-11-18 13:09;SPECI CYVR 181309Z 09009KT 12SM -SHRA FEW020 BKN033 OVC060 07/ RMK SC2SC4SC2=

CYVR;2006-11-18 14:00;METAR CYVR 181400Z 08010KT 12SM FEW020 SCT032 BKN050 OVC080 07/07 A3019 RMK SC2SC2SC2AC2 SLP223=

CYVR;2006-11-18 15:00;METAR CYVR 181500Z 08007KT 12SM SCT030 BKN050 OVC076 08/06 A3020 RMK SC3SC3AC2 SLP226=

CYVR;2006-11-18 16:00;METAR CYVR 181600Z 08008KT 15SM FEW030 BKN049 OVC084 08/06 A3020 RMK SC2SC3AC2 SLP226=

CYVR;2006-11-18 16:42;SPECI CYVR 181642Z 09010KT 15SM -SHRA FEW030 BKN052 OVC090 08/ RMK SC2SC6AC1=

CYVR;2006-11-18 17:00;METAR CYVR 181700Z 08008KT 15SM -SHRA FEW030 BKN047 OVC085 08/07 A3020 RMK SC2SC5AC2 SLP227=

CYVR;2006-11-18 17:40;SPECI CYVR 181740Z 09008KT 15SM SCT037 BKN056 OVC090 09/ RMK SC3SC3AC2=

CYVR;2006-11-18 18:00;METAR CYVR 181800Z 08010KT 15SM SCT042 BKN059 OVC078 09/07 A3021 RMK SC3SC3AC2 SLP230=

CYVR;2006-11-18 19:00;METAR CYVR 181900Z 09010KT 20SM FEW037 BKN058 OVC080 10/07 A3020 RMK SC2SC5AC1 SLP228=

CYVR;2006-11-18 20:00;METAR CYVR 182000Z 08012KT 20SM FEW040 FEW060 SCT080 OVC150 10/07 A3017 RMK SC2SC1AC2AC4 SLP217=

CYVR;2006-11-18 21:00;METAR CYVR 182100Z 08011KT 20SM FEW040 FEW060 SCT090 OVC200 12/07 A3014 RMK SC1SC1AC2CI4 SLP205=

CYVR;2006-11-18 22:00;METAR CYVR 182200Z 07013KT 20SM FEW040 BKN067 OVC200 11/06 A3010 RMK SC1AC5CI2 SLP194=

CYVR;2006-11-18 23:00;METAR CYVR 182300Z 09004KT 20SM FEW040 BKN072 OVC200 10/06 A3011 RMK SC1AC4CI2 SLP197=

CYVR;2006-11-19 00:00;METAR CYVR 190000Z 09009KT 20SM FEW040 FEW070 BKN170 OVC210 09/06 A3010 RMK SC1AC1AC5CI2 SLP192=

CYVR;2006-11-19 01:00;METAR CYVR 190100Z 09011KT 20SM FEW070 SCT160 OVC220 09/06 A3007 RMK AC1AC2CI5 SLP182=

CYVR;2006-11-19 02:00;METAR CYVR 190200Z 10010KT 20SM FEW070 BKN150 OVC220 08/06 A3006 RMK AC2AC5CI2 SLP178=

CYVR;2006-11-19 03:00;METAR CYVR 190300Z 09008KT 20SM FEW070 BKN160 OVC220 08/06 A3005 RMK AC2AC5CI2 SLP175=

CYVR;2006-11-19 04:00;METAR CYVR 190400Z 10012KT 20SM FEW070 BKN140 OVC200 08/05 A3002 RMK AC2AC5CI2 SLP166=

CYVR;2006-11-19 05:00;METAR CYVR 190500Z 09015KT 15SM -SHRA FEW060 BKN090 BKN120 OVC170 08/05 A2997 RMK SC2AC4AC2AC1 SLP149=

CYVR;2006-11-19 05:30;SPECI CYVR 190530Z 09012KT 15SM FEW060 SCT090 BKN120 OVC170 08/ RMK SC2AC2AC2AC2=

CYVR;2006-11-19 06:00;METAR CYVR 190600Z 10007KT 20SM FEW060 BKN110 OVC150 08/05 A2995 RMK SC2AC3AC3 SLP141=

CYVR;2006-11-19 07:00;METAR CYVR 190700Z 11010KT 20SM FEW070 BKN110 OVC170 08/05 A2992 RMK AC2AC4AC2 SLP131=

CYVR;2006-11-19 08:00;METAR CYVR 190800Z 12007KT 20SM FEW090 SCT120 OVC200 08/04 A2989 RMK AC2AC2CI4 SLP121=

CYVR;2006-11-19 09:00;METAR CYVR 190900Z 11009KT 20SM FEW080 SCT130 OVC220 07/04 A2988 RMK AC2AC2CI5 SLP117=

CYVR;2006-11-19 10:00;METAR CYVR 191000Z 09013KT 20SM SCT090 BKN110 OVC220 08/04 A2983 RMK AC3AC3CI2 SLP102=

CYVR;2006-11-19 11:00;METAR CYVR 191100Z 10010KT 20SM BKN085 OVC170 08/04 A2982 RMK AC6AC2 SLP098=

CYVR;2006-11-19 12:00;METAR CYVR 191200Z 09012KT 20SM FEW060 SCT090 OVC150 09/04 A2980 RMK SC1AC2AC5 SLP090=

CYVR;2006-11-19 13:00;METAR CYVR 191300Z 11011KT 15SM -SHRA FEW050 BKN070 OVC140 10/05 A2972 RMK SC2AC5AC2 PRESFR SLP063=

CYVR;2006-11-19 14:00;METAR CYVR 191400Z 12013KT 15SM -SHRA FEW050 BKN080 OVC130 10/06 A2966 RMK SC2AC6AC1 SLP045=

CYVR;2006-11-19 15:00;METAR CYVR 191500Z 10015KT 10SM -SHRA FEW026 BKN051 OVC075 10/07 A2963 RMK SF1SC4AC3 SLP035=

CYVR;2006-11-19 16:00;METAR CYVR 191600Z 13019G24KT 10SM -SHRA FEW022 BKN051 OVC076 12/08 A2959 RMK SF2SC4AC2 SLP020=

CYVR;2006-11-19 17:00;METAR CYVR 191700Z 15021G29KT 8SM -SHRA FEW021 BKN050 OVC074 12/09 A2962 RMK SF2SC5AC2 SLP029=

CYVR;2006-11-19 18:00;METAR CYVR 191800Z 16023G37KT 10SM -RA FEW021 OVC046 12/09 A2964 RMK SF2SC6 SLP037=

CYVR;2006-11-19 19:00;METAR CYVR 191900Z 16026G31KT 15SM -RA FEW021 BKN046 OVC090 12/09 A2966 RMK SF2SC5AC2 PCPN VRY LGT SLP045=

CYVR;2006-11-19 19:12;SPECI CYVR 191912Z 16023G32KT 15SM FEW020 BKN045 OVC090 12/ RMK SF1SC3AC4=

CYVR;2006-11-19 20:00;METAR CYVR 192000Z 17017KT 15SM FEW025 BKN039 OVC090 12/10 A2969 RMK SF2SC4AC2 SLP054=

CYVR;2006-11-19 20:14;SPECI CYVR 192014Z 16019G25KT 10SM -RA FEW025 BKN039 BKN090 12/ RMK SF2SC4AC2=

CYVR;2006-11-19 21:00;METAR CYVR 192100Z 20015G21KT 15SM -RA FEW015 SCT039 BKN091 13/08 A2972 RMK SF2SC2AC3 SLP066=

CYVR;2006-11-19 21:08;SPECI CYVR 192108Z 20016G21KT 15SM FEW015 SCT039 BKN091 BKN210 13/ RMK CF2SC2AC2CI1=

CYVR;2006-11-19 22:00;METAR CYVR 192200Z 25016G21KT 15SM FEW025 FEW040 BKN092 BKN210 12/06 A2976 RMK SF1SC2AC2CI1 SLP077=

CYVR;2006-11-19 23:00;METAR CYVR 192300Z 23015KT 20SM FEW035 SCT090 BKN210 12/05 A2979 RMK SC2AC2CI2 SLP089=

CYVR;2006-11-20 00:00;METAR CYVR 200000Z 23013KT 30SM FEW050 FEW090 BKN220 11/03 A2983 RMK SC2AC1CI2 SLP102=

CYVR;2006-11-20 01:00;METAR CYVR 200100Z 26008KT 30SM FEW048 FEW090 BKN220 09/05 A2986 RMK SC2AC1CI1 SLP112=

CYVR;2006-11-20 02:00;METAR CYVR 200200Z 00000KT 30SM FEW045 FEW080 SCT220 07/04 A2988 RMK SC1AC1CI1 SLP117=

CYVR;2006-11-20 03:00;METAR CYVR 200300Z 24002KT 20SM SCT180 09/03 A2986 RMK AS2 SLP113=

CYVR;2006-11-20 04:00;METAR CYVR 200400Z 08007KT 20SM OVC160 06/04 A2988 RMK AS6 SLP117=

CYVR;2006-11-20 05:00;METAR CYVR 200500Z 08006KT 20SM SCT071 OVC150 07/04 A2987 RMK AC4AS3 SLP116=

CYVR;2006-11-20 06:00;METAR CYVR 200600Z 11008KT 20SM BKN070 OVC120 07/04 A2987 RMK AC6AC2 SLP115=

CYVR;2006-11-20 07:00;METAR CYVR 200700Z 10011KT 20SM BKN049 OVC120 07/05 A2986 RMK SC5AC3 SLP111=

CYVR;2006-11-20 08:00;METAR CYVR 200800Z 09010KT 20SM FEW030 SCT050 BKN100 OVC130 07/05 A2983 RMK SF1SC3AC2AC2 SLP101=

CYVR;2006-11-20 08:49;SPECI CYVR 200849Z 11014KT 15SM -SHRA FEW018 BKN065 OVC100 08/ RMK SF2SC5AC2 PCPN VRY LGT=

CYVR;2006-11-20 09:00;METAR CYVR 200900Z 11010KT 15SM -SHRA FEW019 BKN065 OVC100 08/05 A2983 RMK SF2SC5AC1 PCPN VRY LGT SLP100=

CYVR;2006-11-20 10:00;METAR CYVR 201000Z 15007KT 12SM -SHRA BKN016 OVC027 08/05 A2984 RMK SF6SC2 PCPN VRY LGT SLP105=

CYVR;2006-11-20 10:12;SPECI CYVR 201012Z 14008KT 12SM -RA SCT016 BKN029 OVC045 08/ RMK SF4SC2SC2=

CYVR;2006-11-20 10:35;SPECI CYVR 201035Z 15009KT 12SM -RA BKN013 BKN024 OVC031 08/ RMK SF5SC2SC2 PCPN VRY LGT=

CYVR;2006-11-20 10:47;SPECI CYVR 201047Z 15008KT 12SM -RA SCT014 BKN045 OVC065 08/ RMK SF3SC2SC2 PCPN VRY LGT=

CYVR;2006-11-20 11:00;METAR CYVR 201100Z 18006KT 12SM -RA FEW013 BKN045 OVC065 08/07 A2984 RMK SF2SC3SC2 SLP105=

CYVR;2006-11-20 11:15;SPECI CYVR 201115Z 18009KT 12SM FEW015 BKN040 BKN075 OVC140 08/ RMK SF2SC3AC2AC2=

CYVR;2006-11-20 12:00;METAR CYVR 201200Z 21004KT 15SM FEW015 FEW045 SCT060 BKN110 BKN150 07/06 A2984 RMK SF1SC2SC2AC2AC1 SLP105=

CYVR;2006-11-20 13:00;METAR CYVR 201300Z 10005KT 15SM FEW025 FEW090 FEW150 07/06 A2985 RMK SF1AC1AC1 SLP110=

CYVR;2006-11-20 14:00;METAR CYVR 201400Z 06005KT 20SM FEW025 FEW090 05/05 A2986 RMK SF1AC1 SLP113=

CYVR;2006-11-20 15:00;METAR CYVR 201500Z 09008KT 20SM FEW025 FEW090 05/04 A2987 RMK SF1AC1 SLP116=

CYVR;2006-11-20 16:00;METAR CYVR 201600Z 11007KT 20SM FEW020 FEW025 FEW090 05/04 A2989 RMK SF1SC1AC1 TR AC SLP122=

CYVR;2006-11-20 17:00;METAR CYVR 201700Z 10011KT 20SM FEW020 BKN075 BKN220 07/06 A2990 RMK SC2AC1CI2 SLP126=

CYVR;2006-11-20 18:00;METAR CYVR 201800Z 12015KT 20SM BKN015 BKN032 OVC075 09/07 A2990 RMK SC4SC2AC1 SLP124=

CYVR;2006-11-20 18:17;SPECI CYVR 201817Z 12016KT 20SM BKN015 OVC032 09/ RMK SC6SC2=

CYVR;2006-11-20 19:00;METAR CYVR 201900Z 13018KT 20SM FEW012 BKN015 OVC034 09/07 A2987 RMK SF1SC6SC2 SLP115=

CYVR;2006-11-20 20:00;METAR CYVR 202000Z 13018KT 20SM SCT015 BKN027 BKN035 10/07 A2983 RMK SC3SC2SC1 SLP101=

CYVR;2006-11-20 21:00;METAR CYVR 202100Z 15016G21KT 20SM -SHRA FEW020 BKN044 OVC055 10/06 A2981 RMK SC2SC5SC2 SLP094=

CYVR;2006-11-20 22:00;METAR CYVR 202200Z 15010KT 12SM -RA FEW025 BKN034 OVC045 09/06 A2981 RMK SC2SC6SC1 SLP095=

CYVR;2006-11-20 23:00;METAR CYVR 202300Z 18013G20KT 20SM FEW020 SCT045 BKN090 BKN120 09/05 A2980 RMK SC2SC2AC2AC1 SLP092=

CYVR;2006-11-21 00:00;METAR CYVR 210000Z 18012G18KT 20SM FEW020 SCT100 BKN120 09/05 A2980 RMK SC2AC2AC2 SLP092=

CYVR;2006-11-21 01:00;METAR CYVR 210100Z 16010KT 20SM FEW025 SCT035 BKN110 08/05 A2981 RMK SC2SC1AC2 SLP094=

CYVR;2006-11-21 02:00;METAR CYVR 210200Z 17010KT 20SM FEW025 SCT045 BKN140 08/06 A2980 RMK SC2SC2AC3 SLP093=

CYVR;2006-11-21 03:00;METAR CYVR 210300Z 10008KT 20SM FEW025 OVC120 08/05 A2981 RMK SC2AC5 SLP096=

CYVR;2006-11-21 04:00;METAR CYVR 210400Z 10010KT 20SM FEW025 SCT120 07/06 A2980 RMK SF1AC2 SLP091=

CYVR;2006-11-21 05:00;METAR CYVR 210500Z 09011KT 15SM FEW030 BKN065 OVC150 07/06 A2980 RMK SF2SC3AC2 SLP090=

CYVR;2006-11-21 06:00;METAR CYVR 210600Z 09008KT 15SM FEW019 BKN058 OVC150 07/06 A2977 RMK SF2SC3AC3 SLP082=

CYVR;2006-11-21 07:00;METAR CYVR 210700Z 09010KT 15SM -SHRA FEW018 BKN069 OVC090 07/06 A2974 RMK SF2AC3AC2 PCPN VRY LGT SLP072=

CYVR;2006-11-21 08:00;METAR CYVR 210800Z 09010KT 12SM -RA FEW017 BKN025 OVC036 08/06 A2970 RMK SF2SC5SC2 SLP058=

CYVR;2006-11-21 09:00;METAR CYVR 210900Z 10012KT 8SM RA SCT015 BKN024 OVC038 07/07 A2968 RMK SF3SC2SC2 SLP051=

CYVR;2006-11-21 11:00;METAR CYVR 211100Z 09020KT 8SM -RA OVC018 07/06 A2959 RMK SC8 SLP020=

CYVR;2006-11-21 12:00;METAR CYVR 211200Z 09017G22KT 7SM -RA OVC019 06/05 A2954 RMK ST8 SLP004=

CYVR;2006-11-21 13:00;METAR CYVR 211300Z 10019KT 8SM -RA OVC017 06/05 A2949 RMK ST8 SLP986=

CYVR;2006-11-21 14:00;METAR CYVR 211400Z 10019KT 10SM -RA SCT017 OVC044 06/06 A2944 RMK ST3SC5 SLP969=

CYVR;2006-11-21 15:00;METAR CYVR 211500Z 09013G19KT 10SM -RA FEW015 BKN022 OVC044 06/06 A2941 RMK SF2ST5SC2 SLP959=

CYVR;2006-11-21 15:28;SPECI CYVR 211528Z 10018KT 10SM -DZ FEW015 OVC022 07/ RMK SF2SC6=

CYVR;2006-11-21 15:32;SPECI CYVR 211532Z 10017G22KT 10SM -RA FEW015 OVC023 06/ RMK SF2SC6=

CYVR;2006-11-21 15:48;SPECI CYVR 211548Z 12015G21KT 10SM FEW015 OVC021 07/ RMK SF2SC6=

CYVR;2006-11-21 16:00;METAR CYVR 211600Z 14013G18KT 15SM FEW018 SCT023 SCT058 BKN090 OVC150 09/07 A2936 RMK SF2SC2SC1AC2AC2 SLP944=

CYVR;2006-11-21 17:00;METAR CYVR 211700Z 15021G27KT 15SM FEW015 BKN025 OVC050 09/07 A2941 RMK SF2SC5SC1 SLP960=

CYVR;2006-11-21 17:55;SPECI CYVR 211755Z 16026G35KT 15SM -SHRA SCT025 BKN071 OVC100 10/ RMK SC4AC2AC1=

CYVR;2006-11-21 18:00;METAR CYVR 211800Z 16024G35KT 15SM -SHRA SCT025 BKN070 OVC100 10/07 A2942 RMK SC3AC3AC1 PCPN VRY LGT SLP963=

CYVR;2006-11-21 18:24;SPECI CYVR 211824Z 19023G31KT 6SM -SHRA BR BKN018 OVC025 09/ RMK SC6SC2 VIS N QUAD LWR 2 SM=

CYVR;2006-11-21 18:42;SPECI CYVR 211842Z 18024G31KT 7SM -SHRA BKN018 OVC025 08/ RMK SC6SC2 VIS NE QUAD LWR 3 SM=

CYVR;2006-11-21 19:00;METAR CYVR 211900Z 17016G24KT 15SM FEW018 FEW025 SCT050 BKN170 08/07 A2946 RMK SF1SC2SC2AC3 SLP975=

CYVR;2006-11-21 20:00;METAR CYVR 212000Z CCA 19018G31KT 15SM -SHRA FEW025 SCT090 BKN120 09/04 A2949 RMK SC2AC2AC3 SLP985=

CYVR;2006-11-21 20:24;SPECI CYVR 212024Z 18022KT 15SM FEW025 SCT090 BKN140 09/ RMK SC2AC2AC2=

CYVR;2006-11-21 21:00;METAR CYVR 212100Z 18016G21KT 15SM FEW025 BKN033 OVC090 09/04 A2956 RMK SC2SC4AC2 PRESRR SLP009=

CYVR;2006-11-21 22:00;METAR CYVR 212200Z 18017G26KT 15SM FEW020 SCT046 OVC076 08/04 A2958 RMK SC2SC2AC4 SLP016=

CYVR;2006-11-21 22:16;SPECI CYVR 212216Z 20022G27KT 15SM -SHRA SCT027 OVC043 08/ RMK SC3SC5=

CYVR;2006-11-21 22:44;SPECI CYVR 212244Z 18020KT 15SM SCT027 BKN035 OVC078 08/ RMK SC3SC2AC2=

CYVR;2006-11-21 23:00;METAR CYVR 212300Z 18017G24KT 15SM FEW025 SCT035 BKN078 OVC110 07/04 A2960 RMK SC2SC2AC2AC2 SLP022=

CYVR;2006-11-22 00:00;METAR CYVR 220000Z 20015G22KT 15SM FEW025 BKN075 BKN120 07/04 A2964 RMK SC2AC3AC1 VIRGA SLP037=

CYVR;2006-11-22 01:00;METAR CYVR 220100Z 19013KT 15SM FEW027 SCT075 BKN120 OVC220 07/04 A2968 RMK SC2AC2AC2CI1 SLP050=

CYVR;2006-11-22 01:33;SPECI CYVR 220133Z 19018G24KT 15SM -SHRA SCT036 BKN060 OVC075 08/ RMK SC4SC2AC2 PCPN VRY LGT=

CYVR;2006-11-22 02:00;METAR CYVR 220200Z 18012G21KT 15SM FEW032 SCT060 BKN075 OVC120 07/03 A2971 RMK SC2SC2AC2AC2 SLP060=

CYVR;2006-11-22 03:00;METAR CYVR 220300Z 17012KT 15SM FEW030 BKN120 OVC130 07/03 A2973 RMK SC2AC4AC2 SLP068=

CYVR;2006-11-22 04:00;METAR CYVR 220400Z 16006KT 15SM SCT040 BKN072 OVC100 07/03 A2975 RMK SC4AC2AC2 SLP073=

CYVR;2006-11-22 04:17;SPECI CYVR 220417Z 14005KT 12SM -SHRA BKN037 OVC072 07/ RMK SC6AC2=

CYVR;2006-11-22 05:00;METAR CYVR 220500Z 23003KT 10SM -SHRA SCT017 OVC026 07/05 A2975 RMK SF4SC4 SLP075=

CYVR;2006-11-22 05:21;SPECI CYVR 220521Z 22008KT 12SM -RA SCT013 OVC020 06/ RMK SF3SC5=

CYVR;2006-11-22 06:00;METAR CYVR 220600Z 14009KT 7SM -RA SCT017 BKN036 OVC057 06/05 A2975 RMK SF3SC2SC2 SLP076=

CYVR;2006-11-22 06:27;SPECI CYVR 220627Z 14007KT 12SM FEW017 SCT051 BKN065 OVC150 07/ RMK SF2SC2SC2AC2=

CYVR;2006-11-22 07:00;METAR CYVR 220700Z 13007KT 12SM FEW019 BKN061 OVC150 06/04 A2977 RMK SF2SC3AC2 SLP080=

CYVR;2006-11-22 08:00;METAR CYVR 220800Z 13011KT 12SM FEW018 BKN039 OVC100 07/05 A2977 RMK SF2SC4AC2 SLP081=

CYVR;2006-11-22 08:33;SPECI CYVR 220833Z 13008KT 10SM -SHRA BKN019 OVC039 07/ RMK SF5SC3=

CYVR;2006-11-22 09:00;METAR CYVR 220900Z 13007KT 12SM -SHRA SCT018 OVC027 07/05 A2977 RMK SF3SC5 SLP080=

CYVR;2006-11-22 10:00;METAR CYVR 221000Z 14010KT 12SM SCT022 BKN038 OVC075 07/05 A2977 RMK SF3SC3AC2 SLP081=

CYVR;2006-11-22 10:24;SPECI CYVR 221024Z 14010KT 45SM -SHRA SCT019 BKN028 OVC076 07/ RMK SF3SC3AC2 PCPN VRY LGT=

CYVR;2006-11-22 10:43;SPECI CYVR 221043Z 13012KT 12SM SCT018 BKN026 OVC078 07/ RMK SF3SC3AC2=

CYVR;2006-11-22 11:00;METAR CYVR 221100Z 13010KT 12SM BKN020 BKN032 OVC078 07/05 A2977 RMK SF5SC2AC2 SLP082=

CYVR;2006-11-22 12:00;METAR CYVR 221200Z 12009KT 12SM SCT018 OVC027 07/05 A2977 RMK SF4SC4 SLP082=

CYVR;2006-11-22 13:00;METAR CYVR 221300Z 10011KT 12SM BKN017 OVC026 06/05 A2978 RMK SF6SC2 SLP085=

CYVR;2006-11-22 13:49;SPECI CYVR 221349Z 10011KT 12SM -SHRA BKN018 OVC026 06/ RMK SF6SC2 PCPN VRY LGT=

CYVR;2006-11-22 14:00;METAR CYVR 221400Z 10013KT 12SM -SHRA BKN018 OVC025 06/05 A2979 RMK SF6SC2 PCPN VRY LGT SLP088=

CYVR;2006-11-22 14:24;SPECI CYVR 221424Z 10007KT 10SM -SHRA BKN013 OVC019 06/ RMK SF6SF2=

CYVR;2006-11-22 14:45;SPECI CYVR 221445Z 10010KT 12SM -SHRA SCT013 OVC020 06/ RMK SF4SC4 PCPN VRY LGT=

CYVR;2006-11-22 15:00;METAR CYVR 221500Z 12008KT 12SM SCT013 BKN023 OVC034 09/05 A2979 RMK SF3SC3SC2 SLP089=

CYVR;2006-11-22 15:26;SPECI CYVR 221526Z 14012KT 12SM -SHRA SCT012 BKN019 OVC033 07/ RMK SF3SC2SC2 PCPN VRY LGT=

CYVR;2006-11-22 16:00;METAR CYVR 221600Z 13013KT 12SM -SHRA BKN015 OVC020 06/05 A2980 RMK SC6SC2 SLP093=

CYVR;2006-11-22 17:00;METAR CYVR 221700Z 10010KT 15SM -RA FEW012 BKN015 OVC025 06/05 A2982 RMK SF2SC6SC1 SLP097=

CYVR;2006-11-22 18:00;METAR CYVR 221800Z 09011KT 15SM -SHRA FEW012 BKN016 OVC035 06/05 A2982 RMK SF2SC6SC1 SLP097=

CYVR;2006-11-22 18:32;SPECI CYVR 221832Z 08010KT 15SM FEW015 BKN021 OVC028 06/ RMK SF2SC5SC2=

CYVR;2006-11-22 19:00;METAR CYVR 221900Z 10012KT 15SM FEW015 BKN025 OVC030 06/05 A2980 RMK SF1SC5SC2 SLP091=

CYVR;2006-11-22 20:00;METAR CYVR 222000Z 09011KT 15SM FEW015 SCT025 BKN037 OVC055 07/05 A2977 RMK SF2SC2SC3SC1 SLP080=

CYVR;2006-11-22 21:00;METAR CYVR 222100Z 09012KT 15SM FEW025 BKN039 OVC060 07/05 A2974 RMK SC2SC5SC2 SLP072=

CYVR;2006-11-22 21:35;SPECI CYVR 222135Z 09010G15KT 15SM -SHRA SCT030 OVC040 08/ RMK SC3SC5 PCPN VRY LGT=

CYVR;2006-11-22 22:00;METAR CYVR 222200Z 08011KT 15SM -SHRA FEW030 OVC039 08/04 A2971 RMK SC2SC6 SLP061=

CYVR;2006-11-22 23:00;METAR CYVR 222300Z 11013G21KT 15SM -SHRA FEW025 BKN030 OVC040 07/04 A2969 RMK SC2SC5SC1 SLP055=

CYVR;2006-11-23 00:00;METAR CYVR 230000Z 11010KT 8SM -RA FEW020 BKN027 OVC035 06/05 A2968 RMK SC2SC5SC2 SLP050=

CYVR;2006-11-23 00:08;SPECI CYVR 230008Z 12014KT 6SM -RA BR FEW020 BKN029 OVC035 06/ RMK SC2SC6SC1=

CYVR;2006-11-23 00:31;SPECI CYVR 230031Z 10010KT 8SM -RA SCT017 BKN025 OVC035 06/ RMK SC3SC3SC2=

CYVR;2006-11-23 01:00;METAR CYVR 230100Z 09013KT 8SM -RA FEW013 BKN025 OVC035 06/05 A2966 RMK SF2SC5SC2 SLP044=

CYVR;2006-11-23 02:00;METAR CYVR 230200Z 09013KT 10SM -RA BKN024 OVC035 06/05 A2965 RMK SC6SC2 SLP039=

CYVR;2006-11-23 02:52;SPECI CYVR 230252Z 11015KT 6SM RA BR FEW015 BKN019 OVC025 06/ RMK SC2SC5SC1 VIS N LWR 4 SM=

CYVR;2006-11-23 04:00;METAR CYVR 230400Z 10007KT 8SM -RA SCT015 BKN020 OVC035 06/06 A2963 RMK SF3SC2SC2 /R10/ SLP035=

CYVR;2006-11-23 04:34;SPECI CYVR 230434Z 18009KT 12SM FEW015 SCT022 OVC052 07/ RMK SF2SC2SC4=

CYVR;2006-11-23 05:00;METAR CYVR 230500Z 20013KT 12SM SCT018 BKN045 OVC061 07/04 A2964 RMK SF3SC3SC2 SLP036=

CYVR;2006-11-23 05:23;SPECI CYVR 230523Z 19013KT 12SM -RA FEW017 SCT027 OVC045 07/ RMK SF2SC2SC4=

CYVR;2006-11-23 06:00;METAR CYVR 230600Z 09011KT 12SM -RA FEW018 SCT029 OVC044 07/04 A2965 RMK SF2SC2SC4 SLP042=

CYVR;2006-11-23 07:00;METAR CYVR 230700Z 17010KT 10SM -RA FEW020 BKN048 OVC072 06/04 A2966 RMK SF2SC4AC2 PCPN VTY LGT SLP045=

CYVR;2006-11-23 07:46;SPECI CYVR 230746Z 18008KT 12SM FEW020 SCT042 BKN072 OVC100 06/ RMK SF2SC2AC2AC2=

CYVR;2006-11-23 08:00;METAR CYVR 230800Z 16007KT 12SM FEW020 BKN062 OVC100 06/04 A2968 RMK SF2SC2AC2 SLP051=

CYVR;2006-11-23 09:00;METAR CYVR 230900Z 18007KT 12SM FEW020 SCT058 OVC190 06/04 A2970 RMK SF2SC2AS5 SLP056=

CYVR;2006-11-23 10:00;METAR CYVR 231000Z 17008KT 12SM FEW020 FEW050 SCT090 OVC230 06/04 A2971 RMK SF1SC2AC2CS3 SLP062=

CYVR;2006-11-23 11:00;METAR CYVR 231100Z 17008KT 15SM FEW020 FEW060 SCT120 BKN210 06/03 A2973 RMK SF1SF2AC2CS1 SLP069=

CYVR;2006-11-23 12:00;METAR CYVR 231200Z 17008KT 12SM FEW020 SCT044 OVC057 07/03 A2975 RMK SF2SC1SC5 SLP074=

CYVR;2006-11-23 12:10;SPECI CYVR 231210Z 18013KT 12SM -SHRA FEW020 SCT044 OVC057 07/ RMK SF2SF2SC5=

CYVR;2006-11-23 13:00;METAR CYVR 231300Z 18016KT 12SM -SHRA FEW020 BKN047 OVC069 06/03 A2976 RMK SF2SC4AC2 SLP077=

CYVR;2006-11-23 14:00;METAR CYVR 231400Z 18010KT 12SM FEW020 OVC046 06/04 A2978 RMK SF2SC6 SLP084=

CYVR;2006-11-23 15:00;METAR CYVR 231500Z 25015KT 15SM FEW020 SCT050 BKN090 BKN150 07/02 A2980 RMK CU1SC2AC2AC1 SLP091=

CYVR;2006-11-23 16:00;METAR CYVR 231600Z 27009KT 15SM FEW025 FEW050 SCT080 BKN200 06/01 A2983 RMK SC2SC1AC2CI2 SLP102=

CYVR;2006-11-23 17:00;METAR CYVR 231700Z 16005KT 15SM FEW025 FEW060 SCT090 BKN200 07/01 A2987 RMK SC2SC1AC1CI2 SLP114=

CYVR;2006-11-23 17:49;SPECI CYVR 231749Z 12008KT 15SM -SHRA FEW025 BKN049 BKN110 BKN200 07/ RMK SC2SC3AC2CI1 TCU EMBD=

CYVR;2006-11-23 18:00;METAR CYVR 231800Z 13008KT 20SM -SHRA FEW025 BKN045 BKN110 OVC200 07/03 A2986 RMK SC2SC3AC2CI1 TCU EMBD SLP112=

CYVR;2006-11-23 18:37;SPECI CYVR 231837Z 16013G18KT 5SM RA BR SCT019 BKN032 OVC050 06/ RMK SC3SC3SC2=

CYVR;2006-11-23 19:00;METAR CYVR 231900Z 14011G18KT 6SM -RA SCT019 BKN027 OVC050 06/04 A2985 RMK SC4SC3SC1 SLP108=

CYVR;2006-11-23 20:00;METAR CYVR 232000Z 16016G21KT 8SM -SHRA SCT022 BKN045 OVC060 06/04 A2981 RMK SC3SC3SC2 TCU EMBD SLP094=

CYVR;2006-11-23 21:00;METAR CYVR 232100Z 15012G17KT 10SM -SHRA FEW020 BKN035 OVC060 06/04 A2978 RMK SC2SC4SC2 TCU EMBD SLP085=

CYVR;2006-11-23 21:41;SPECI CYVR 232141Z 17014G19KT 5SM SHRA BR SCT018 BKN032 OVC045 06/ RMK SC4SC3SC1=

CYVR;2006-11-23 22:00;METAR CYVR 232200Z 18012G20KT 3SM RA BR FEW012 BKN018 OVC030 06/05 A2978 RMK CF1SC6SC2 SLP085=

CYVR;2006-11-23 22:46;SPECI CYVR 232246Z 16016KT 10SM FEW014 BKN020 BKN040 06/ RMK SF2SC4SC2 VIS LWR NE=

CYVR;2006-11-23 23:00;METAR CYVR 232300Z 18016KT 15SM SCT017 BKN050 BKN110 06/05 A2977 RMK SC3SC2AC2 VIS LWR NE SLP082=

CYVR;2006-11-23 23:46;SPECI CYVR 232346Z 18016KT 15SM -SHRA SCT017 SCT030 BKN050 07/ RMK SC3SC1SC3=

CYVR;2006-11-24 00:00;METAR CYVR 240000Z 19013G20KT 15SM -SHRA SCT018 SCT030 BKN055 07/03 A2978 RMK SC3SC1SC3 SLP085=

CYVR;2006-11-24 00:11;SPECI CYVR 240011Z 19013KT 15SM FEW017 BKN028 BKN060 07/ RMK SC2SC2SC2=

CYVR;2006-11-24 01:00;METAR CYVR 240100Z 18015G20KT 15SM SCT025 BKN060 BKN120 06/03 A2979 RMK SC3SC2AC2 SLP088=

CYVR;2006-11-24 02:00;METAR CYVR 240200Z 19010G16KT 15SM FEW025 SCT060 BKN100 06/03 A2980 RMK SC2SC2AC3 SLP091=

CYVR;2006-11-24 03:00;METAR CYVR 240300Z 19013KT 15SM FEW025 SCT060 BKN090 OVC140 06/02 A2980 RMK SC2SC2AC4AC1 SLP090=

CYVR;2006-11-24 04:00;METAR CYVR 240400Z 19010KT 15SM FEW025 BKN090 OVC140 06/02 A2980 RMK SC2AC5AC2 SLP093=

CYVR;2006-11-24 05:00;METAR CYVR 240500Z 19012KT 15SM FEW025 BKN090 OVC160 05/02 A2981 RMK SC2AC5AC2 SLP096=

CYVR;2006-11-24 06:00;METAR CYVR 240600Z 19013KT 15SM FEW025 SCT054 BKN076 OVC140 06/02 A2982 RMK SC2SC2AC3AC2 SLP099=

CYVR;2006-11-24 07:00;METAR CYVR 240700Z 19008KT 15SM FEW030 SCT061 BKN120 05/02 A2983 RMK SC2SC2AC2 SLP103=

CYVR;2006-11-24 08:00;METAR CYVR 240800Z 19008KT 15SM FEW030 SCT060 BKN090 BKN120 05/02 A2984 RMK SC1SC2AC3AC1 SLP106=

CYVR;2006-11-24 09:00;METAR CYVR 240900Z 20007KT 15SM FEW030 FEW060 BKN092 05/02 A2985 RMK SC1SC2AC2 SLP107=

CYVR;2006-11-24 10:00;METAR CYVR 241000Z 19005KT 15SM FEW030 FEW060 FEW090 SCT180 04/02 A2986 RMK SC1SC1AC1AC2 SLP111=

CYVR;2006-11-24 11:00;METAR CYVR 241100Z 11003KT 15SM FEW030 BKN061 BKN180 02/00 A2987 RMK SC1SC4AC2 SLP116=

CYVR;2006-11-24 12:00;METAR CYVR 241200Z 11003KT 15SM FEW030 BKN064 BKN180 02/01 A2988 RMK SC1SC4AC2 SLP117=

CYVR;2006-11-24 13:00;METAR CYVR 241300Z 00000KT 15SM FEW030 BKN064 OVC180 02/01 A2988 RMK SC1SC6AC1 SLP117=

CYVR;2006-11-24 14:00;METAR CYVR 241400Z 10006KT 15SM SCT052 BKN064 OVC180 03/02 A2990 RMK SC3SC4AC1 SLP124=

CYVR;2006-11-24 15:00;METAR CYVR 241500Z 11006KT 15SM FEW015 SCT055 BKN170 03/02 A2991 RMK SC2SC2AC3 SLP128=

CYVR;2006-11-24 16:00;METAR CYVR 241600Z 10004KT 15SM FEW020 SCT050 BKN160 03/02 A2992 RMK SC2SC2AC2 TCU EMBD / VIS LWR NW SLP131=

CYVR;2006-11-24 17:00;METAR CYVR 241700Z 08006KT 15SM FEW020TCU FEW050 SCT070 BKN110 04/03 A2992 RMK TCU1SC2AC2AC2 TCU / SHS W SLP133=

CYVR;2006-11-24 18:00;METAR CYVR 241800Z 10005KT 15SM -SHRA SCT019 BKN030 OVC070 06/03 A2993 RMK SC4SC2AC1 TCU EMBD SLP135=

CYVR;2006-11-24 18:23;SPECI CYVR 241823Z 22002KT 10SM -SHRA FEW009 BKN017 OVC030 05/ RMK SF1SC5SC2 VIS NW 4=

CYVR;2006-11-24 19:00;METAR CYVR 241900Z 05006KT 12SM -SHRA FEW018 SCT030 BKN060 BKN110 05/04 A2994 RMK SC2SC2SC2AC1 TCU EMBD / VIS N - E 5 SLP139=

CYVR;2006-11-24 19:12;SPECI CYVR 241912Z 00000KT 15SM FEW020 SCT035 SCT060 BKN120 05/ RMK SC2SC2SC1AC1 TCU EMBD / VIS NE 5=

CYVR;2006-11-24 20:00;METAR CYVR 242000Z 01005KT 15SM FEW020 FEW030TCU SCT060 BKN150 05/04 A2993 RMK SF1TCU2SC1AC1 SHS NW SLP137=

CYVR;2006-11-24 21:00;METAR CYVR 242100Z 02005KT 15SM FEW015 SCT030TCU BKN060 BKN170 06/04 A2994 RMK SC2TCU2SC2AC1 SLP138=

CYVR;2006-11-24 22:00;METAR CYVR 242200Z 31003KT 15SM FEW018 SCT040TCU BKN070 BKN170 07/03 A2994 RMK CU2TCU2AC2AC1 SLP138=

CYVR;2006-11-24 23:00;METAR CYVR 242300Z 30004KT 15SM FEW025 SCT040TCU BKN075 BKN170 05/03 A2993 RMK CU2TCU2AC2AC1 SLP137=

CYVR;2006-11-25 00:00;METAR CYVR 250000Z 32004KT 15SM SCT026 SCT040TCU BKN080 05/03 A2994 RMK SC3TCU1AC2 SLP140=

CYVR;2006-11-25 01:00;METAR CYVR 250100Z 00000KT 20SM FEW030 SCT075 04/02 A2994 RMK SC2AC2 TCU EMBD SLP140=

CYVR;2006-11-25 02:00;METAR CYVR 250200Z 00000KT 20SM FEW030 SCT075 03/02 A2994 RMK SC2AC2 SLP139=

CYVR;2006-11-25 03:00;METAR CYVR 250300Z 20002KT 20SM SCT029 BKN071 03/02 A2994 RMK SC3AC2 SLP139=

CYVR;2006-11-25 04:00;METAR CYVR 250400Z 10007KT 20SM FEW029 BKN063 BKN160 02/02 A2994 RMK SC2SC3AC2 SLP139=

CYVR;2006-11-25 05:00;METAR CYVR 250500Z 10005KT 20SM FEW025 BKN061 BKN150 01/01 A2993 RMK SC2SC3AC2 SLP135=

CYVR;2006-11-25 06:00;METAR CYVR 250600Z 12006KT 20SM FEW025 BKN060 BKN160 02/02 A2993 RMK SC2SC3AC2 SLP136=

CYVR;2006-11-25 07:00;METAR CYVR 250700Z 09004KT 15SM FEW025 BKN054 OVC150 02/02 A2993 RMK SC2SC5AC2 SLP135=

CYVR;2006-11-25 08:00;METAR CYVR 250800Z 11005KT 12SM FEW025 BKN064 OVC110 02/02 A2993 RMK SC2SC5AC2 VIS N LWR SLP137=

CYVR;2006-11-25 08:38;SPECI CYVR 250838Z 11004KT 10SM -SHRA FEW025 SCT037 BKN058 OVC090 02/ RMK SC2SC2SC4AC1=

CYVR;2006-11-25 09:00;METAR CYVR 250900Z 11004KT 10SM -SHRA BKN027 OVC048 02/02 A2993 RMK SC5SC3 SLP134=

CYVR;2006-11-25 10:00;METAR CYVR 251000Z 00000KT 8SM -SHRA BKN016 OVC034 02/02 A2993 RMK SC5SC3 SLP134=

CYVR;2006-11-25 11:00;METAR CYVR 251100Z 29019KT 8SM -SHRA FEW016 SCT035 BKN064 OVC090 03/02 A2993 RMK SC2SC1SC4AC1 SLP134=

CYVR;2006-11-25 11:25;SPECI CYVR 251125Z 29017G22KT 15SM FEW016 BKN032 OVC069 03/ RMK SC2SC4AC2=

CYVR;2006-11-25 12:00;METAR CYVR 251200Z 30016G21KT 15SM SCT022 BKN062 BKN090 03/00 A2993 RMK SC3SC2AC1 SLP134=

CYVR;2006-11-25 13:00;METAR CYVR 251300Z 30022KT 15SM FEW060 SCT090 02/M03 A2993 RMK SC2AC2 SLP137=

CYVR;2006-11-25 14:00;METAR CYVR 251400Z 31020KT 20SM FEW050 02/M04 A2994 RMK SC2 SLP140=

CYVR;2006-11-25 15:00;METAR CYVR 251500Z 31016KT 20SM FEW035 02/M03 A2996 RMK SC2 SLP147=

CYVR;2006-11-25 16:00;METAR CYVR 251600Z 29014KT 20SM FEW035 FEW120 02/M03 A2997 RMK SC2AC1 SLP149=

CYVR;2006-11-25 17:00;METAR CYVR 251700Z 30018KT 20SM FEW030 SCT150 03/M02 A2998 RMK SC2AC2 SLP154=

CYVR;2006-11-25 18:00;METAR CYVR 251800Z 32010G16KT 20SM FEW030 BKN120 BKN150 03/M02 A3000 RMK SC1AC4AC2 SLP158=

CYVR;2006-11-25 19:00;METAR CYVR 251900Z 32005KT 15SM FEW030 BKN100 BKN150 03/M02 A3001 RMK SC1AC6AC1 SLP164=

CYVR;2006-11-25 20:00;METAR CYVR 252000Z 36003KT 20SM FEW030 BKN070 OVC140 03/M04 A3001 RMK SC1AC6AC2 VIRGA SLP163=

CYVR;2006-11-25 21:00;METAR CYVR 252100Z 11004KT 20SM FEW030 BKN060 OVC080 03/M03 A3001 RMK SC1SC6AC1 VIRGA SLP162=

CYVR;2006-11-25 22:00;METAR CYVR 252200Z 09010KT 20SM FEW025 BKN050 OVC070 03/M02 A2998 RMK CU1SC6AC1 VIS NE 10 SLP154=

CYVR;2006-11-25 23:00;METAR CYVR 252300Z 08012G17KT 12SM FEW020 BKN050 OVC070 03/M01 A2997 RMK CU1SC6AC1 VIRGA SLP150=

CYVR;2006-11-25 23:41;SPECI CYVR 252341Z 07012KT 12SM -SHRASN SCT015 BKN025 OVC050 02/ RMK SC3SC3SC2=

CYVR;2006-11-25 23:48;SPECI CYVR 252348Z 08011KT 1SM -SHSN VV010 02/ RMK SN8=

CYVR;2006-11-26 00:00;METAR CYVR 260000Z 09009G16KT 1 1/2SM -SHSN VV008 01/M00 A2997 RMK SN8 SLP148=

CYVR;2006-11-26 00:10;SPECI CYVR 260010Z 07009KT 3/4SM R08L/P6000FT/U R08R/P6000FT/D -SHSN VV007 01/ RMK SN8=

CYVR;2006-11-26 01:00;METAR CYVR 260100Z 07013KT 3/4SM R08L/P6000FT/N R08R/P6000FT/U -SN VV005 00/00 A2997 RMK SN8 SLP148=

CYVR;2006-11-26 02:00;METAR CYVR 260200Z 08011KT 3/4SM R08L/P6000FT/U R08R/P6000FT/U -SN VV006 00/00 A2993 RMK SN8 SLP135=

CYVR;2006-11-26 02:55;SPECI CYVR 260255Z 09015KT 1 1/4SM -SN OVC014 00/ RMK SN5SC3=

CYVR;2006-11-26 03:00;METAR CYVR 260300Z 08014KT 1 1/4SM -SN OVC014 00/00 A2990 RMK SN5SC3 SLP125=

CYVR;2006-11-26 03:18;SPECI CYVR 260318Z 08013KT 2 1/4SM -SN BKN013 OVC020 00/ RMK SN5SC2SC1=

CYVR;2006-11-26 04:00;METAR CYVR 260400Z 10011KT 2SM -SN BKN013 OVC019 00/00 A2988 RMK SN6SC2SC1 SLP120=

CYVR;2006-11-26 04:40;SPECI CYVR 260440Z 09013KT 1 1/4SM -SN OVC012 00/ RMK SN6SC2=

CYVR;2006-11-26 05:28;SPECI CYVR 260528Z 09013KT 3/4SM R08L/6000FT/D R08R/6000FT/D -SN VV005 00/ RMK SN8=

CYVR;2006-11-26 06:00;METAR CYVR 260600Z 09013KT 3/4SM R08L/6000FT/N R08R/6000FT/N -SN VV006 00/00 A2985 RMK SN8 SLP107=

CYVR;2006-11-26 07:00;METAR CYVR 260700Z 09013KT 3/4SM R08L/6000FT/N R08R/6000FT/D -SN VV005 00/00 A2981 RMK SN8 /S01/ SLP096=

CYVR;2006-11-26 07:22;SPECI CYVR 260722Z 09015KT 1SM R08L/6000FT/N R08R/6000FT/N -SN VV006 00/ RMK SN8=

CYVR;2006-11-26 08:00;METAR CYVR 260800Z 09017G22KT 1SM R08L/6000FT/N R08R/6000FT/N -SN VV007 01/00 A2979 RMK SN8 /S02/ SLP089=

CYVR;2006-11-26 08:40;SPECI CYVR 260840Z 09015KT 3SM -SN BKN012 OVC031 01/ RMK SN5SC2SC1=

CYVR;2006-11-26 09:00;METAR CYVR 260900Z 09014KT 3SM -SN BKN013 OVC031 01/01 A2976 RMK SN3SC3SC2 SLP078=

CYVR;2006-11-26 10:00;METAR CYVR 261000Z 08015G20KT 6SM -SN BKN013 OVC030 01/01 A2974 RMK SN2SC3SC2 SLP071=

CYVR;2006-11-26 12:00;METAR CYVR 261200Z 08014KT 8SM -SN BKN013 OVC019 01/00 A2967 RMK SC5SC3 SLP046=

CYVR;2006-11-26 13:17;SPECI CYVR 261317Z 07009KT 6SM -SN SCT008 BKN011 OVC021 01/ RMK SC3SC3SC2=

CYVR;2006-11-26 14:00;METAR CYVR 261400Z 08007KT 5SM -SN SCT007 BKN012 OVC021 01/00 A2957 RMK SC3SC3SC2 SLP012=

CYVR;2006-11-26 14:40;SPECI CYVR 261440Z 07006KT 6SM -RASN FEW007 BKN014 BKN030 OVC040 01/ RMK SF2SC2SC2SC1=

CYVR;2006-11-26 15:00;METAR CYVR 261500Z 07005KT 4SM -RASN SCT007 BKN014 OVC030 01/01 A2951 RMK SF3SC3SC2 SLP994=

CYVR;2006-11-26 15:17;SPECI CYVR 261517Z 08006KT 3SM -SN SCT006 BKN012 OVC030 01/ RMK SF3SC3SC2=

CYVR;2006-11-26 15:23;SPECI CYVR 261523Z 14003KT 1 1/2SM -SN VV009 01/ RMK SN8=

CYVR;2006-11-26 15:31;SPECI CYVR 261531Z 12003KT 1SM R08L/P6000FT/N R08R/P6000FT/N -SN VV008 01/ RMK SN8=

CYVR;2006-11-26 16:00;METAR CYVR 261600Z 16003KT 3/4SM R08L/P6000FT/D R08R/P6000FT/D -SN VV007 01/00 A2949 RMK SN8 SLP985=

CYVR;2006-11-26 16:22;SPECI CYVR 261622Z 17002KT 1/2SM R08L/P6000FT/D R08R/P6000FT/D SN VV006 00/ RMK SN8=

CYVR;2006-11-26 16:32;SPECI CYVR 261632Z 15002KT 3/4SM R08L/P6000FT/U R08R/P6000FT/U -SN VV007 00/ RMK SN8=

CYVR;2006-11-26 17:00;METAR CYVR 261700Z 10002KT 1/2SM R08L/P6000FT/N R08R/P6000FT/D SN VV007 00/00 A2947 RMK SN8 SLP980=

CYVR;2006-11-26 17:20;SPECI CYVR 261720Z 00000KT 1/2SM R08L/5500FT/U R08R/6000FT/N SN VV004 00/ RMK SN8=

CYVR;2006-11-26 18:00;METAR CYVR 261800Z 29002KT 1/2SM R08L/4500FT/N R08R/5500FT/N SN VV004 00/00 A2945 RMK SN8 /S04/ SLP972=

CYVR;2006-11-26 18:50;SPECI CYVR 261850Z 00000KT 3/8SM R08L/4000FT/N R08R/5500FT/N SN VV004 00/ RMK SN8=

CYVR;2006-11-26 19:00;METAR CYVR 261900Z 22002KT 1/2SM R08L/5000FT/U R08R/6000FT/N SN VV004 01/01 A2942 RMK SN8 /S02/ SLP964=

CYVR;2006-11-26 19:11;SPECI CYVR 261911Z 22002KT 1/2SM R08L/5000FT/N R08R/6000FT/N SN VV005 01/ RMK SN8=

CYVR;2006-11-26 20:00;METAR CYVR 262000Z 21004KT 1/2SM R08L/5000FT/N R08R/P6000FT/N SN VV005 00/00 A2940 RMK SN8 SLP956=

CYVR;2006-11-26 21:00;METAR CYVR 262100Z 21005KT 1/2SM R08L/5500FT/U R08R/P6000FT/U SN VV005 00/00 A2937 RMK SN8 /S04/ SLP946=

CYVR;2006-11-26 21:43;SPECI CYVR 262143Z 14002KT 3/4SM R08L/P6000FT/U R08R/P6000FT/N -SN VV007 00/ RMK SN8=

CYVR;2006-11-26 22:00;METAR CYVR 262200Z 00000KT 3/4SM R08L/P6000FT/N R08R/P6000FT/D -SN VV007 00/00 A2934 RMK SN8 /S05/ SLP937=

CYVR;2006-11-26 22:32;SPECI CYVR 262232Z 00000KT 1/2SM R08L/3500VP6000FT/D R08R/P6000FT/D SN VV005 00/ RMK SN8=

CYVR;2006-11-26 22:53;SPECI CYVR 262253Z 00000KT 3/4SM R08L/P6000FT/U R08R/P6000FT/U -SN VV006 00/ RMK SN8=

CYVR;2006-11-26 23:00;METAR CYVR 262300Z 29002KT 3/4SM R08L/P6000FT/U R08R/P6000FT/U -SN VV006 00/00 A2934 RMK SN8 SLP934=

CYVR;2006-11-27 00:00;METAR CYVR 270000Z 30002KT 3/4SM R08L/P6000FT/N R08R/P6000FT/D -SN VV006 00/00 A2936 RMK SN8 SLP942=

CYVR;2006-11-27 00:44;SPECI CYVR 270044Z 00000KT 1SM R26L/P6000FT/U R26R/P6000FT/D -SN VV008 00/ RMK SN8=

CYVR;2006-11-27 01:00;METAR CYVR 270100Z 00000KT 1SM R26L/P6000FT/D R26R/P6000FT/D -SN VV007 00/00 A2939 RMK SN8 SLP953=

CYVR;2006-11-27 01:35;SPECI CYVR 270135Z 00000KT 1 1/2SM -SN VV009 00/ RMK SN8=

CYVR;2006-11-27 01:44;SPECI CYVR 270144Z 00000KT 2SM -SN FEW007 BKN011 OVC025 00/ RMK SF2SC6SC1=

CYVR;2006-11-27 02:00;METAR CYVR 270200Z 32006KT 1 1/2SM -SN FEW007 BKN010 OVC027 00/M00 A2941 RMK SF2SC6SC1 SLP960=

CYVR;2006-11-27 03:00;METAR CYVR 270300Z 09007KT 1 1/2SM -SN SCT007 OVC010 M00/M00 A2944 RMK SF3SC5 SLP968=

CYVR;2006-11-27 03:42;SPECI CYVR 270342Z 08008KT 1SM R08L/6000FT/N R08R/6000FT/N -SN SCT007 OVC010 M00/ RMK SN3SC1SC4=

CYVR;2006-11-27 04:27;SPECI CYVR 270427Z 03004KT 1SM R08L/6000FT/U R08R/6000FT/N -SN OVC007 M01/ RMK SN6SC2=

CYVR;2006-11-27 04:46;SPECI CYVR 270446Z 13013KT 3/4SM R08L/6000FT/D R08R/6000FT/D -SN VV006 M01/ RMK SN8=

CYVR;2006-11-27 05:08;SPECI CYVR 270508Z 12012KT 1/2SM R08L/6000FT/D R08R/6000FT/D SN VV005 M02/ RMK SN8=

CYVR;2006-11-27 05:28;SPECI CYVR 270528Z 11010KT 1/2SM R08L/6000FT/D R08R/6000FT/D SN VV004 M02/ RMK SN8=

CYVR;2006-11-27 05:50;SPECI CYVR 270550Z 12009KT 1SM R08L/6000FT/U R08R/6000FT/N -SN OVC007 M02/ RMK SN5SC3=

CYVR;2006-11-27 06:00;METAR CYVR 270600Z 12009KT 1SM R08L/6000FT/U R08R/6000FT/N -SN OVC007 M02/M03 A2952 RMK SN5SC3 /S04/ SLP998=

CYVR;2006-11-27 06:18;SPECI CYVR 270618Z 10009KT 1 1/2SM -SN BKN007 OVC013 M03/ RMK SN4SC2SC2=

CYVR;2006-11-27 06:44;SPECI CYVR 270644Z 10007KT 3/4SM R08L/6000FT/N R08R/6000FT/N -SN OVC008 M03/ RMK SN5SC3=

CYVR;2006-11-27 07:00;METAR CYVR 270700Z 11006KT 3/4SM R08L/6000FT/U R08R/6000FT/U -SN BKN007 OVC012 M03/M03 A2955 RMK SN4SC2SC2 /SO1/ SLP008=

CYVR;2006-11-27 07:55;SPECI CYVR 270755Z 11005KT 1 1/4SM -SN SCT007 OVC014 M03/ RMK SN2SC2SC4=

CYVR;2006-11-27 08:00;METAR CYVR 270800Z 10005KT 1 1/4SM -SN SCT007 OVC014 M03/M04 A2957 RMK SN2SC2SC4 /S02/ SLP014=

CYVR;2006-11-27 08:14;SPECI CYVR 270814Z 12004KT 2SM -SN SCT007 BKN014 OVC021 M03/ RMK SC3SC4SC1=

CYVR;2006-11-27 08:38;SPECI CYVR 270838Z 13005KT 3/4SM R08L/6000FT/U R08R/6000FT/N -SN VV007 M03/ RMK SN8=

CYVR;2006-11-27 09:27;SPECI CYVR 270927Z 15002KT 2SM -SN SCT007 OVC014 M03/ RMK SN2SC2SC4=

CYVR;2006-11-27 10:00;METAR CYVR 271000Z 11003KT 2SM -SN SCT007 OVC014 M03/M04 A2960 RMK SN2SC2SC4 SLP024=

CYVR;2006-11-27 11:00;METAR CYVR 271100Z 11007KT 1 1/2SM -SN SCT007 OVC014 M04/M04 A2962 RMK SN2SC2SC4 SLP031=

CYVR;2006-11-27 12:00;METAR CYVR 271200Z 12004KT 2 1/2SM -SN SCT007 BKN014 OVC021 M04/M05 A2963 RMK SC3SC3SC2 /S04/ SLP034=

CYVR;2006-11-27 12:48;SPECI CYVR 271248Z 12003KT 3SM -SN FEW007 SCT014 OVC021 M04/ RMK SC2SC2SC4=

CYVR;2006-11-27 13:00;METAR CYVR 271300Z 14003KT 3SM -SN FEW007 SCT014 OVC021 M04/M05 A2965 RMK SC2SC2SC4 SLP039=

CYVR;2006-11-27 14:00;METAR CYVR 271400Z 11005KT 10SM -SN FEW007 SCT014 OVC022 M04/M06 A2966 RMK SC2SC2SC4 PCPN VRY LGT SLP045=

CYVR;2006-11-27 15:00;METAR CYVR 271500Z 12006KT 10SM -SN FEW007 FEW014 OVC027 M04/M06 A2968 RMK SF1SF2SC6 PCPN VRY LGT SLP052=

CYVR;2006-11-27 16:26;SPECI CYVR 271626Z 11005KT 2SM -SN FEW014 OVC023 M05/ RMK SF2SC6=

CYVR;2006-11-27 17:00;METAR CYVR 271700Z 11005KT 2 1/2SM -SN FEW014 BKN024 OVC039 M05/M07 A2973 RMK SF2SC4SC2 SLP069=

CYVR;2006-11-27 17:12;SPECI CYVR 271712Z 11005KT 3SM -SN FEW014 SCT022 OVC031 M05/ RMK SF2SC2SC4=

CYVR;2006-11-27 17:22;SPECI CYVR 271722Z 12005KT 2SM -SN FEW013 BKN023 OVC031 M05/ RMK SF2SC3SC2=

CYVR;2006-11-27 18:34;SPECI CYVR 271834Z 12005KT 2 1/2SM -SN FEW014 OVC021 M05/ RMK SF2SC6=

CYVR;2006-11-27 19:00;METAR CYVR 271900Z 12005KT 4SM -SN FEW014 OVC021 M04/M07 A2977 RMK SF2SC6 SLP081=

CYVR;2006-11-27 19:54;SPECI CYVR 271954Z 16002KT 12SM FEW014 BKN023 OVC031 M04/ RMK SF2SC3SC3=

CYVR;2006-11-27 20:00;METAR CYVR 272000Z 18003KT 12SM FEW014 BKN023 OVC031 M04/M06 A2979 RMK SF2SC3SC3 SLP087=

CYVR;2006-11-27 20:08;SPECI CYVR 272008Z 16004KT 12SM -SN FEW014 BKN021 OVC032 M04/ RMK SF2SC3SC3 PCPN VRY LGT=

CYVR;2006-11-27 21:00;METAR CYVR 272100Z 14004KT 4SM -SN FEW015 SCT021 OVC047 M04/M06 A2980 RMK SF2SC2SC4 SLP090=

CYVR;2006-11-27 22:00;METAR CYVR 272200Z 13004KT 2SM -SN FEW015 BKN021 OVC035 M04/M06 A2981 RMK SF2SC3SC3 SLP094=

CYVR;2006-11-27 22:26;SPECI CYVR 272226Z 17004KT 4SM -SN FEW015 SCT022 OVC031 M04/ RMK SF2SC2SC5=

CYVR;2006-11-27 23:00;METAR CYVR 272300Z 13007KT 5SM -SN FEW015 BKN027 OVC062 M05/M07 A2982 RMK SF2SC4SC2 PCPN VRY LGT SLP099=

CYVR;2006-11-27 23:44;SPECI CYVR 272344Z 14002KT 12SM FEW015 FEW030 SCT062 BKN082 M05/ RMK SF1SC2SC2AC2=

CYVR;2006-11-28 00:00;METAR CYVR 280000Z 16004KT 12SM FEW015 FEW030 BKN042 BKN080 M04/M07 A2985 RMK SF1SC2SC3AC2 SLP108=

CYVR;2006-11-28 00:39;SPECI CYVR 280039Z 15004KT 10SM -SN FEW015 BKN027 OVC050 M04/ RMK SF2SC3SC3 PCPN VRY LGT=

CYVR;2006-11-28 01:00;METAR CYVR 280100Z 15005KT 10SM -SN FEW015 BKN027 OVC050 M05/M07 A2987 RMK SF2SC5SC2 PCPN VRY LGT SLP114=

CYVR;2006-11-28 02:00;METAR CYVR 280200Z 12007KT 10SM -SN FEW030 BKN046 OVC062 M05/M08 A2989 RMK SF2SC5SC2 PCPN VRY LGT SLP122=

CYVR;2006-11-28 02:31;SPECI CYVR 280231Z 11008KT 10SM FEW015 BKN025 OVC042 M05/ RMK SF1SC4SC3=

CYVR;2006-11-28 03:00;METAR CYVR 280300Z 13005KT 10SM FEW015 BKN029 OVC046 M05/M09 A2991 RMK SF1SC4SC3 SLP129=

CYVR;2006-11-28 04:00;METAR CYVR 280400Z 12008KT 15SM FEW015 BKN026 M06/M10 A2994 RMK SC2SC5 SLP138=

CYVR;2006-11-28 05:00;METAR CYVR 280500Z 11008KT 15SM SCT025 BKN040 M06/M09 A2996 RMK SC3SC4 SLP147=

CYVR;2006-11-28 06:00;METAR CYVR 280600Z 13007KT 15SM FEW025 BKN037 M06/M10 A2999 RMK SC2SC5 SLP157=

CYVR;2006-11-28 06:20;SPECI CYVR 280620Z 11008KT 15SM -SN FEW025 BKN037 M06/ RMK SC2SC5 PCPN VRY LGT=

CYVR;2006-11-28 06:47;SPECI CYVR 280647Z 12007KT 15SM SCT028 BKN037 M07/ RMK SC4SC3=

CYVR;2006-11-28 07:00;METAR CYVR 280700Z 12009KT 15SM BKN027 BKN037 M07/M11 A3002 RMK SC5SC2 SLP165=

CYVR;2006-11-28 08:00;METAR CYVR 280800Z 12010KT 15SM SCT027 BKN038 M07/M12 A3005 RMK SC3SC4 SLP175=

CYVR;2006-11-28 09:00;METAR CYVR 280900Z 12009KT 15SM FEW025 BKN040 M07/M12 A3007 RMK SC2SC5 SLP183=

CYVR;2006-11-28 10:00;METAR CYVR 281000Z 11009KT 15SM BKN037 M08/M12 A3010 RMK SC7 SLP192=

CYVR;2006-11-28 11:00;METAR CYVR 281100Z 12010KT 15SM BKN037 M08/M12 A3013 RMK SC7 SLP202=

CYVR;2006-11-28 12:00;METAR CYVR 281200Z 12010KT 15SM BKN040 M08/M12 A3017 RMK SC7 SLP215=

CYVR;2006-11-28 13:00;METAR CYVR 281300Z 12010KT 15SM BKN038 M08/M13 A3018 RMK SC7 SLP219=

CYVR;2006-11-28 14:00;METAR CYVR 281400Z 11011KT 15SM BKN040 M08/M12 A3019 RMK SC7 SLP225=

CYVR;2006-11-28 15:00;METAR CYVR 281500Z 12010KT 15SM BKN040 M08/M13 A3022 RMK SC7 SLP235=

CYVR;2006-11-28 15:08;SPECI CYVR 281508Z 12010KT 15SM -SN BKN040 M08/ RMK SC7=

CYVR;2006-11-28 16:00;METAR CYVR 281600Z 12011KT 15SM BKN035 M08/M13 A3026 RMK SC6 SLP247=

CYVR;2006-11-28 17:00;METAR CYVR 281700Z 11010KT 15SM FEW029 BKN045 M08/M13 A3028 RMK SF2SC5 SLP255=

CYVR;2006-11-28 17:10;SPECI CYVR 281710Z 12011KT 15SM -SN FEW029 BKN046 M08/ RMK SF2SC5 PCPN VRY LGT=

CYVR;2006-11-28 17:35;SPECI CYVR 281735Z 12009KT 20SM FEW029 FEW046 M08/ RMK SF1SC2=

CYVR;2006-11-28 18:00;METAR CYVR 281800Z 11008KT 20SM FEW037 BKN049 M08/M14 A3031 RMK SF2SC2 SLP265=

CYVR;2006-11-28 19:00;METAR CYVR 281900Z 12009KT 20SM FEW020 BKN036 M07/M13 A3033 RMK SF2SC4 SLP272=

CYVR;2006-11-28 20:00;METAR CYVR 282000Z 15005KT 20SM FEW020 SCT038 M06/M13 A3035 RMK SF2SC2 SLP279=

CYVR;2006-11-28 21:00;METAR CYVR 282100Z 14005KT 15SM FEW020 BKN037 M06/M13 A3037 RMK SF2SC2 SLP285=

CYVR;2006-11-28 22:00;METAR CYVR 282200Z 15005KT 30SM FEW020 FEW038 M05/M12 A3038 RMK SF1SC2 SLP290=

CYVR;2006-11-28 23:00;METAR CYVR 282300Z 14005KT 30SM FEW018 SCT035 M06/M12 A3040 RMK SF2SC2 SLP295=

CYVR;2006-11-29 00:00;METAR CYVR 290000Z 13006KT 30SM FEW018 FEW031 M06/M13 A3042 RMK SF0SC2 SLP301=

CYVR;2006-11-29 01:00;METAR CYVR 290100Z 13005KT 20SM FEW018 FEW031 M07/M13 A3045 RMK SF0SC2 SLP313=

CYVR;2006-11-29 02:00;METAR CYVR 290200Z 13007KT 15SM FEW018 FEW031 M07/M14 A3047 RMK SF1SC1 SLP318=

CYVR;2006-11-29 03:00;METAR CYVR 290300Z 13008KT 20SM FEW015 FEW030 M08/M14 A3048 RMK SF1SC2 SLP324=

CYVR;2006-11-29 04:00;METAR CYVR 290400Z 10008KT 20SM FEW015 FEW030 M11/M14 A3049 RMK SF1SC1 SLP325=

CYVR;2006-11-29 05:00;METAR CYVR 290500Z 11009KT 20SM FEW020 FEW030 M11/M15 A3050 RMK SF1SC1 SLP329=

CYVR;2006-11-29 06:00;METAR CYVR 290600Z 10008KT 20SM FEW030 SCT230 M09/M14 A3052 RMK SC1CI2 SLP335=

CYVR;2006-11-29 07:00;METAR CYVR 290700Z 11008KT 20SM FEW030 BKN240 M11/M14 A3054 RMK SC1CI2 SLP342=

CYVR;2006-11-29 08:00;METAR CYVR 290800Z 10008KT 20SM FEW030 BKN240 M11/M14 A3055 RMK SC1CI2 SLP345=

CYVR;2006-11-29 09:00;METAR CYVR 290900Z 10008KT 15SM FEW030 BKN230 M11/M14 A3055 RMK SC1CI2 SLP346=

CYVR;2006-11-29 10:00;METAR CYVR 291000Z 11009KT 15SM FEW030 BKN170 M10/M14 A3056 RMK SC1AC3 SLP349=

CYVR;2006-11-29 11:00;METAR CYVR 291100Z 11008KT 15SM FEW035 BKN190 M10/M13 A3055 RMK SC1AC4 SLP345=

CYVR;2006-11-29 12:00;METAR CYVR 291200Z 11008KT 15SM FEW035 OVC170 M09/M13 A3054 RMK SC1AC5 SLP342=

CYVR;2006-11-29 13:00;METAR CYVR 291300Z 09006KT 15SM FEW030 BKN120 M09/M12 A3055 RMK SC1AC5 SLP345=

CYVR;2006-11-29 14:00;METAR CYVR 291400Z 11009KT 15SM FEW030 BKN110 M08/M12 A3054 RMK SC1AC6 SLP342=

CYVR;2006-11-29 15:00;METAR CYVR 291500Z 11008KT 15SM FEW030 BKN100 M08/M11 A3053 RMK SF1AC6 SLP339=

CYVR;2006-11-29 16:00;METAR CYVR 291600Z 11005KT 15SM FEW030 SCT070 OVC100 M08/M11 A3054 RMK SF1AC2AC5 SLP342=

CYVR;2006-11-29 17:00;METAR CYVR 291700Z 11008KT 30SM FEW030 OVC080 M07/M10 A3053 RMK SF1AC7 SLP341=

CYVR;2006-11-29 18:00;METAR CYVR 291800Z 11009KT 20SM FEW045 OVC065 M07/M09 A3052 RMK SF1SC7 SLP337=

CYVR;2006-11-29 19:00;METAR CYVR 291900Z 11010KT 15SM FEW025 OVC038 M06/M08 A3052 RMK SF1ST7 SLP335=

CYVR;2006-11-29 20:00;METAR CYVR 292000Z 11009KT 3SM -SN SCT014 OVC030 M05/M07 A3050 RMK SF3ST5 SLP329=

CYVR;2006-11-29 20:08;SPECI CYVR 292008Z 10009KT 1SM -SN SCT014 OVC021 M05/ RMK SF3ST5=

CYVR;2006-11-29 20:17;SPECI CYVR 292017Z 11010KT 3/4SM -SN FEW007 SCT012 OVC019 M05/ RMK SF2SF2SC5=

CYVR;2006-11-29 20:22;SPECI CYVR 292022Z 11010KT 1/2SM SN FEW007 SCT012 OVC019 M05/ RMK SF2SF2SC5=

CYVR;2006-11-29 21:00;METAR CYVR 292100Z 10007KT 2SM -SN FEW007 SCT014 OVC028 M05/M06 A3049 RMK SF2SF2SC5 SLP326=

CYVR;2006-11-29 22:00;METAR CYVR 292200Z 09008KT 1/2SM SN SCT009 OVC019 M04/M05 A3045 RMK SF3SC5 RESN /S01/ SLP312=

CYVR;2006-11-29 23:00;METAR CYVR 292300Z 09010KT 4SM -SN FEW010 SCT022 BKN040 OVC052 M04/M04 A3041 RMK SF2SF2SC4SC1 RESN SLP298=

CYVR;2006-11-30 00:00;METAR CYVR 300000Z 10008KT 1 1/2SM -SN SCT010 OVC022 M03/M03 A3036 RMK SF3SC5 /S02/ SLP281=

CYVR;2006-11-30 02:00;METAR CYVR 300200Z 07012KT 1SM -SN FEW006 SCT010 BKN020 OVC040 M01/M02 A3026 RMK SF2SF2SC4SC1 SLP247=

CYVR;2006-11-30 03:00;METAR CYVR 300300Z 08011KT 8SM -SN FEW010 OVC036 M00/M02 A3020 RMK SF2SC6 PRESFR SLP226=

CYVR;2006-11-30 04:00;METAR CYVR 300400Z 08012G17KT 1/2SM SN SCT005 OVC017 M00/M01 A3015 RMK SF4SC4 /S02/ SLP211=

CYVR;2006-11-30 05:00;METAR CYVR 300500Z 09019G25KT 1/2SM SN FEW004 SCT008 OVC013 M00/M00 A3009 RMK SF2SC2SC4 /S04/ PRESFR SLP191=

CYVR;2006-11-30 06:00;METAR CYVR 300600Z 09015KT 1SM -SN SCT004 OVC014 M00/M00 A3007 RESN RMK SC3SC5 /R06/ SLP182=

CYVR;2006-11-30 07:00;METAR CYVR 300700Z 09012KT 1SM -SN SCT004 OVC015 00/00 A3007 RMK SC3SC5 /S01/ SLP182=

CYVR;2006-11-30 08:00;METAR CYVR 300800Z 08013KT 2 1/2SM -SN BKN010 OVC014 00/00 A3006 RMK SC6SC2 /S02/ SLP181=

CYVR;2006-11-30 09:00;METAR CYVR 300900Z 07010KT 15SM BKN008 OVC014 01/01 A3007 RMK SC6SC2 SLP183=

CYVR;2006-11-30 10:00;METAR CYVR 301000Z 04008KT 15SM SCT009 OVC015 01/01 A3010 RMK SC3SC5 SLP192=

CYVR;2006-11-30 11:00;METAR CYVR 301100Z 06005KT 15SM FEW009 BKN016 OVC022 01/01 A3016 RMK SC2SC3SC2 PRESRR SLP213=

CYVR;2006-11-30 12:00;METAR CYVR 301200Z 09002KT 15SM FEW015 01/00 A3017 RMK SC2 SLP217=

CYVR;2006-11-30 13:00;METAR CYVR 301300Z 15005KT 15SM BKN019 01/01 A3021 RMK SC7 SLP230=

CYVR;2006-11-30 14:00;METAR CYVR 301400Z 13003KT 15SM OVC016 01/01 A3023 RMK SC7 SLP237=

CYVR;2006-11-30 15:00;METAR CYVR 301500Z 11006KT 15SM OVC015 01/01 A3025 RMK SC8 SLP245=

CYVR;2006-11-30 16:00;METAR CYVR 301600Z 10008KT 7SM OVC015 01/00 A3028 RMK SC7 SLP253=

CYVR;2006-11-30 17:00;METAR CYVR 301700Z 10007KT 8SM OVC017 01/01 A3030 RMK SC7 SLP259=

CYVR;2006-11-30 18:00;METAR CYVR 301800Z 09007KT 6SM BR OVC019 01/01 A3032 RMK SC8 SLP268=

CYVR;2006-11-30 19:00;METAR CYVR 301900Z 08006KT 6SM BR OVC019 02/01 A3034 RMK SC8 SLP274=

CYVR;2006-11-30 20:00;METAR CYVR 302000Z 04007KT 15SM OVC019 02/01 A3035 RMK SC7 SLP276=

CYVR;2006-11-30 21:00;METAR CYVR 302100Z 07007KT 15SM OVC021 03/01 A3035 RMK SC8 SLP277=

CYVR;2006-11-30 22:00;METAR CYVR 302200Z 09006KT 15SM SCT020 OVC100 02/01 A3035 RMK SC4AC3 SLP278=

CYVR;2006-11-30 23:00;METAR CYVR 302300Z 09004KT 15SM BKN024 OVC100 03/01 A3037 RMK SC5AC2 SLP284=

CYVR;2006-12-01 00:00;METAR CYVR 010000Z 00000KT 15SM FEW024 SCT100 BKN220 03/01 A3038 RMK SF2AC2CI3 HZ SLP288=

CYVR;2006-12-01 01:00;METAR CYVR 010100Z 09002KT 15SM FEW024 SCT100 BKN240 02/01 A3039 RMK SF2AC2CI3 SLP291=

CYVR;2006-12-01 02:00;METAR CYVR 010200Z 26002KT 15SM FEW022 SCT240 01/00 A3040 RMK SF1CI2 SLP295=

CYVR;2006-12-01 03:00;METAR CYVR 010300Z 36002KT 15SM FEW022 FEW220 01/01 A3041 RMK SC1CI0 SLP298=

CYVR;2006-12-01 03:28;SPECI CYVR 010328Z 00000KT 12SM R08L/3500V6000FT/D MIFG FEW022 FEW220 M00/ RMK ST1CI0=

CYVR;2006-12-01 04:00;METAR CYVR 010400Z 11004KT 15SM MIFG SCT025 00/00 A3043 RMK SF2 SLP303=

CYVR;2006-12-01 05:00;METAR CYVR 010500Z 10003KT 15SM BKN017 00/00 A3043 RMK SF6 SLP306=

CYVR;2006-12-01 05:40;SPECI CYVR 010540Z 00000KT 10SM MIFG SCT017 SCT063 00/ RMK SF2SC1 VIS N QUAD LWR 5 SM=

CYVR;2006-12-01 05:44;SPECI CYVR 010544Z 00000KT 6SM R08L/3000V6000FT/U BR SCT017 SCT063 00/ RMK SF2SC1=

CYVR;2006-12-01 06:00;METAR CYVR 010600Z 09005KT 7SM R08L/4500V6000FT/D MIFG BKN018 M01/M01 A3045 RMK SC5 SLP311=

CYVR;2006-12-01 06:14;SPECI CYVR 010614Z 09003KT 7SM BKN015 00/ RMK SC6 FG BKN N QUAD VIS LWR 4 SM=

CYVR;2006-12-01 06:20;SPECI CYVR 010620Z 10003KT 6SM BR OVC014 00/ RMK SC7 VIS LWR N QUAD 3SM=

CYVR;2006-12-01 06:39;SPECI CYVR 010639Z 11005KT 7SM OVC014 00/ RMK SC8 F BKN N QUAD VIS LWR 4 SM=

CYVR;2006-12-01 07:00;METAR CYVR 010700Z 10003KT 6SM BR OVC017 01/01 A3046 RMK SC8 VIS N QUAD LWR 3 SM SLP316=

CYVR;2006-12-01 07:25;SPECI CYVR 010725Z 00000KT 7SM OVC017 01/ RMK SC8 VIS N QUAD LWR 4 SM=

CYVR;2006-12-01 08:00;METAR CYVR 010800Z 00000KT 8SM OVC018 01/01 A3047 RMK SC8 F BNK N QUAD VIS LWR N 3 SM SLP318=

CYVR;2006-12-01 08:29;SPECI CYVR 010829Z 09003KT 6SM BR SCT012 OVC020 00/ RMK SF4SC3 VIS N QUAD LWR 3 SM=

CYVR;2006-12-01 09:00;METAR CYVR 010900Z 12004KT 7SM SCT011 BKN015 OVC021 01/01 A3048 RMK SF3SC2SC2 VIS N QUAD LWR 4 SM SLP323=

CYVR;2006-12-01 09:23;SPECI CYVR 010923Z 20004KT 7SM BKN013 OVC018 01/ RMK SC6SC2 F BNK N QUAD VIS LWR 3 SM=

CYVR;2006-12-01 10:00;METAR CYVR 011000Z 08002KT 6SM -RA BR BKN012 OVC018 01/01 A3048 RMK SC5SC3 VIS N LWR SLP323=

CYVR;2006-12-01 10:24;SPECI CYVR 011024Z 17003KT 6SM -RA BR SCT012 OVC018 02/ RMK SF3SC4 VIS N LWR 2 SM=

CYVR;2006-12-01 11:00;METAR CYVR 011100Z 27005KT 6SM BR BKN013 OVC018 02/01 A3050 RMK SC6SC2 VIS N LWR SLP328=

CYVR;2006-12-01 12:00;METAR CYVR 011200Z 02003KT 6SM BR SCT012 OVC021 01/01 A3050 RMK SC3SC4 SLP329=

CYVR;2006-12-01 12:15;SPECI CYVR 011215Z 08007KT 6SM BR SCT007 BKN011 OVC018 01/ RMK ST4SC2SC2 VIS N QUAD LWR 2 SM=

CYVR;2006-12-01 13:00;METAR CYVR 011300Z 02003KT 6SM BR FEW007 BKN018 OVC021 02/01 A3051 RMK SC2SC3SC3 SLP331=

CYVR;2006-12-01 14:00;METAR CYVR 011400Z 03003KT 5SM BR SCT011 OVC019 01/01 A3051 RMK SC3SC5 SLP333=

CYVR;2006-12-01 15:00;METAR CYVR 011500Z 03002KT 6SM BR FEW014 BKN022 02/01 A3052 RMK SC2SC3 SLP335=

CYVR;2006-12-01 16:00;METAR CYVR 011600Z 15002KT 10SM FEW015 OVC027 02/02 A3054 RMK SC2SC6 SLP341=

CYVR;2006-12-01 17:00;METAR CYVR 011700Z 19002KT 8SM BKN022 BKN040 02/02 A3056 RMK SC6SC1 SLP348=

CYVR;2006-12-01 18:00;METAR CYVR 011800Z 15003KT 8SM FEW025 BKN032 03/02 A3057 RMK SC2SC5 SLP353=

CYVR;2006-12-01 19:00;METAR CYVR 011900Z 00000KT 10SM FEW022 OVC031 03/02 A3058 RMK SC2SC6 SLP357=

CYVR;2006-12-01 20:00;METAR CYVR 012000Z 13003KT 8SM FEW018 OVC032 04/02 A3058 RMK SC2SC6 SLP356=

CYVR;2006-12-01 21:00;METAR CYVR 012100Z 35002KT 8SM SCT017 OVC031 03/02 A3059 RMK SC3SC5 SLP359=

CYVR;2006-12-01 22:00;METAR CYVR 012200Z 10003KT 8SM FEW017 OVC032 03/02 A3060 RMK SC2SC6 SLP361=

CYVR;2006-12-01 23:00;METAR CYVR 012300Z 08003KT 8SM FEW020 OVC038 03/02 A3060 RMK SC2SC6 SLP362=

CYVR;2006-12-02 00:00;METAR CYVR 020000Z 00000KT 8SM FEW020 BKN037 03/02 A3061 RMK SC2SC4 SLP364=

CYVR;2006-12-02 01:00;METAR CYVR 020100Z 11004KT 8SM FEW020 BKN038 02/01 A3061 RMK SC2SC5 SLP366=

CYVR;2006-12-02 02:00;METAR CYVR 020200Z 11003KT 8SM FEW020 BKN038 BKN230 02/01 A3062 RMK SC2SC4CI0 SLP369=

CYVR;2006-12-02 03:00;METAR CYVR 020300Z 11007KT 6SM BR FEW020 FEW040 SCT050 BKN230 02/01 A3063 RMK SC2SC1SC2CI2 SLP371=

CYVR;2006-12-02 04:00;METAR CYVR 020400Z 10003KT 6SM BR FEW020 SCT050 BKN230 01/00 A3063 RMK SC2SC2CI2 VIS HIER W SLP374=

CYVR;2006-12-02 05:00;METAR CYVR 020500Z 02002KT 8SM FEW011 BKN044 BKN220 01/01 A3064 RMK SF2SC3CI1 SLP376=

CYVR;2006-12-02 06:00;METAR CYVR 020600Z 01002KT 10SM FEW010 SCT045 BKN220 01/01 A3065 RMK SF2SC2CI1 SLP378=

CYVR;2006-12-02 07:00;METAR CYVR 020700Z 36002KT 8SM R08L/2800VP6000FT/D BCFG FEW012 BKN044 BKN150 00/00 A3066 RMK SF2SC4AC1 SLP383=

CYVR;2006-12-02 08:00;METAR CYVR 020800Z 00000KT 8SM R08L/3000VP6000FT/U MIFG FEW015 BKN045 BKN140 01/01 A3067 RMK SF2SC3AC2 SLP386=

CYVR;2006-12-02 09:00;METAR CYVR 020900Z 11003KT 4SM BR FEW015 SCT040 BKN110 01/01 A3067 RMK SF1SC2AC3 SLP386=

CYVR;2006-12-02 10:00;METAR CYVR 021000Z 10004KT 3SM BR FEW020 FEW045 BKN090 00/00 A3068 RMK SF1SC2AC5 SLP388=

CYVR;2006-12-02 11:00;METAR CYVR 021100Z 10004KT 4SM BR FEW020 BKN100 BKN160 00/M00 A3068 RMK SF1AC5AC1 SLP388=

CYVR;2006-12-02 12:00;METAR CYVR 021200Z 11004KT 6SM BR FEW020 BKN080 BKN160 00/00 A3067 RMK SF1AC5AC1 SLP386=

CYVR;2006-12-02 13:00;METAR CYVR 021300Z 08002KT 8SM BCFG FEW011 SCT080 SCT160 M00/M00 A3067 RMK SF1AC2AC1 SLP385=

CYVR;2006-12-02 14:00;METAR CYVR 021400Z 08002KT 2SM R08L/1400FT/N BR FEW011 BKN072 M03/M03 A3067 RMK SF1AC4 SLP386=

CYVR;2006-12-02 14:09;SPECI CYVR 021409Z 08002KT 3SM R08L/1100V1600FT/N R08R/4000VP6000FT/U BR FEW011 SCT070 M02/ RMK SF1AC3=

CYVR;2006-12-02 14:22;SPECI CYVR 021422Z 10002KT 12SM R08L/1200FT BCFG FEW012 SCT070 SCT190 M01/ RMK SF1AC2AC1=

CYVR;2006-12-02 16:00;METAR CYVR 021600Z 11006KT 15SM R08L/4000V6000FT/U R08R/6000FT/D BCFG FEW070 BKN150 OVC190 M01/M01 A3068 RMK AC2AC4AC2 SLP388=

CYVR;2006-12-02 17:00;METAR CYVR 021700Z 11005KT 20SM FEW070 BKN150 OVC210 M01/M01 A3069 RMK AC2AC5CI0 SLP391=

CYVR;2006-12-02 18:00;METAR CYVR 021800Z 10004KT 20SM SCT015 BKN140 OVC210 00/00 A3069 RMK SC3AC4CI0 SLP394=

CYVR;2006-12-02 19:00;METAR CYVR 021900Z 11005KT 20SM SCT014 BKN140 BKN190 02/01 A3069 RMK SC3AC2AC1 SLP391=

CYVR;2006-12-02 20:00;METAR CYVR 022000Z 12002KT 20SM FEW014 FEW140 BKN210 03/01 A3068 RMK SC1AC1CI1 TR AC SLP388=

CYVR;2006-12-02 21:00;METAR CYVR 022100Z 12002KT 20SM FEW015 OVC210 03/00 A3066 RMK SC1CI2 SLP384=

CYVR;2006-12-02 22:00;METAR CYVR 022200Z 00000KT 20SM FEW015 FEW100 OVC210 03/00 A3065 RMK SC1AC1CI2 TR SC SLP380=

CYVR;2006-12-02 23:00;METAR CYVR 022300Z 31003KT 20SM OVC210 03/00 A3063 RMK CI3 SLP374=

CYVR;2006-12-03 00:00;METAR CYVR 030000Z 00000KT 20SM FEW020 FEW090 OVC210 03/01 A3063 RMK SC1AC1CI2 SLP373=

CYVR;2006-12-03 01:00;METAR CYVR 030100Z 00000KT 20SM FEW090 OVC210 01/00 A3063 RMK AC1CI2 SLP371=

CYVR;2006-12-03 02:00;METAR CYVR 030200Z 00000KT 20SM BKN210 M01/M01 A3061 RMK CI2 SLP365=

CYVR;2006-12-03 03:00;METAR CYVR 030300Z 00000KT 20SM MIFG BKN210 01/00 A3060 RMK CI2 SLP361=

CYVR;2006-12-03 04:00;METAR CYVR 030400Z 00000KT 20SM MIFG FEW180 BKN220 M00/M00 A3060 RMK AC2CI2 SLP361=

CYVR;2006-12-03 05:00;METAR CYVR 030500Z 00000KT 20SM R26R/2600VP6000FT/N MIFG FEW180 BKN240 M00/M00 A3059 RMK AC2CI2 SLP358=

CYVR;2006-12-03 07:00;METAR CYVR 030700Z 35004KT 15SM R26R/1200V2200FT/N MIFG FEW180 BKN230 M01/M01 A3057 RMK AC2CI2 SLP353=

CYVR;2006-12-03 08:00;METAR CYVR 030800Z 13003KT 15SM R26R/4000VP6000FT/U MIFG SCT180 BKN230 M01/M01 A3057 RMK AC3CI1 SLP351=

CYVR;2006-12-03 09:00;METAR CYVR 030900Z 12002KT 8SM R08R/4500VP6000FT/D BCFG SCT180 BKN230 M01/M01 A3055 RMK AC4CI1 SLP346=

CYVR;2006-12-03 10:00;METAR CYVR 031000Z 09003KT 8SM R26R/1400V1800FT/N BCFG FEW180 SCT230 M02/M02 A3055 RMK AC2CI2 SLP344=

CYVR;2006-12-03 11:00;METAR CYVR 031100Z 09003KT 1SM R08R/2600V4000FT/N R26R/2400V3000FT/N BR SCT180 SCT230 M03/M03 A3053 RMK AC3CI1 SLP340=

CYVR;2006-12-03 12:00;METAR CYVR 031200Z 12005KT 1 1/2SM BR SCT160 BKN230 M02/M02 A3053 RMK AC3CI2 SLP338=

CYVR;2006-12-03 13:00;METAR CYVR 031300Z 09003KT 3SM BR SCT160 BKN230 M01/M01 A3051 RMK AC3CI1 SLP332=

CYVR;2006-12-03 14:00;METAR CYVR 031400Z 09003KT 12SM R26R/2200FT/N MIFG BKN170 M01/M01 A3050 RMK AC4 SLP330=

CYVR;2006-12-03 15:00;METAR CYVR 031500Z 11006KT 12SM SCT170 OVC210 M01/M01 A3049 RMK AC4CI4 SLP324=

CYVR;2006-12-03 16:00;METAR CYVR 031600Z 36002KT 15SM BKN150 OVC220 M02/M02 A3049 RMK AC5CI1 SLP326=

CYVR;2006-12-03 17:00;METAR CYVR 031700Z 11005KT 15SM BKN160 OVC220 M01/M01 A3049 RMK AC6CI0 SLP325=

CYVR;2006-12-03 18:00;METAR CYVR 031800Z 00000KT 20SM OVC160 00/00 A3050 RMK AC8 SLP328=

CYVR;2006-12-03 19:00;METAR CYVR 031900Z 01002KT 20SM BKN130 BKN180 OVC220 01/01 A3050 RMK AC5AC2CS2 SLP328=

CYVR;2006-12-03 20:00;METAR CYVR 032000Z 12004KT 20SM BKN120 OVC180 01/01 A3047 RMK AC6AC2 SLP317=

CYVR;2006-12-03 21:00;METAR CYVR 032100Z 13003KT 20SM BKN150 OVC220 02/01 A3044 RMK AC5CI1 SLP309=

CYVR;2006-12-03 22:00;METAR CYVR 032200Z 11004KT 20SM BKN130 OVC210 02/01 A3043 RMK AC7CI1 SLP305=

CYVR;2006-12-03 23:00;METAR CYVR 032300Z 02002KT 20SM FEW090 BKN120 OVC210 02/01 A3041 RMK AC1AC4CI2 SLP297=

CYVR;2006-12-04 00:00;METAR CYVR 040000Z 07003KT 20SM FEW090 BKN150 OVC220 02/01 A3042 RMK AC2AC6CI1 SLP300=

CYVR;2006-12-04 01:00;METAR CYVR 040100Z 09003KT 20SM BKN110 OVC160 02/01 A3041 RMK AC6AC2 SLP297=

CYVR;2006-12-04 02:00;METAR CYVR 040200Z 00000KT 20SM BKN080 OVC100 02/01 A3040 RMK AC6AC2 SLP295=

CYVR;2006-12-04 02:08;SPECI CYVR 040208Z 07005KT 20SM -SHRA BKN067 OVC090 03/ RMK AC6AC2=

CYVR;2006-12-04 03:00;METAR CYVR 040300Z 16002KT 15SM -SHRA BKN070 OVC090 03/02 A3038 RMK AC6AC2 SLP287=

CYVR;2006-12-04 04:00;METAR CYVR 040400Z 17003KT 12SM -SHRA BKN055 OVC076 02/02 A3037 RMK SC6AC2 SLP286=

CYVR;2006-12-04 05:00;METAR CYVR 040500Z 14005KT 12SM -SHRA BKN056 OVC072 02/02 A3035 RMK SC6AC2 SLP277=

CYVR;2006-12-04 06:00;METAR CYVR 040600Z 00000KT 12SM -SHRA BKN060 OVC090 02/01 A3033 RMK SC5AC3 SLP272=

CYVR;2006-12-04 06:45;SPECI CYVR 040645Z 29005KT 10SM SCT060 OVC100 02/ RMK SC4AC4=

CYVR;2006-12-04 07:00;METAR CYVR 040700Z 29004KT 8SM SCT060 BKN070 OVC100 02/02 A3034 RMK SC3AC2AC3 SLP274=

CYVR;2006-12-04 07:25;SPECI CYVR 040725Z 34004KT 8SM -SHRA BKN060 OVC084 02/ RMK SC5AC3=

CYVR;2006-12-04 08:00;METAR CYVR 040800Z 07005KT 6SM -SHRA BR BKN058 OVC080 02/02 A3030 RMK SC6AC2 SLP262=

CYVR;2006-12-04 09:00;METAR CYVR 040900Z 10004KT 8SM -SHRA BKN055 OVC080 02/02 A3030 RMK SC6AC2 SLP261=

CYVR;2006-12-04 10:00;METAR CYVR 041000Z 11007KT 5SM -SHRA BR BKN054 OVC080 02/02 A3028 RMK SC6AC2 SLP255=

CYVR;2006-12-04 11:00;METAR CYVR 041100Z 09009KT 3SM -RA BR BKN030 OVC060 02/02 A3027 RMK SC5SC3 SLP252=

CYVR;2006-12-04 12:00;METAR CYVR 041200Z 12005KT 8SM -RA SCT030 OVC055 03/03 A3025 RMK SC3SC5 SLP244=

CYVR;2006-12-04 13:00;METAR CYVR 041300Z 10004KT 4SM -RA BR BKN038 OVC055 03/03 A3024 RMK SC5SC3 SLP242=

CYVR;2006-12-04 14:00;METAR CYVR 041400Z 12007KT 4SM -RA BR BKN018 OVC030 02/02 A3024 RMK SC5SC3 SLP239=

CYVR;2006-12-04 15:00;METAR CYVR 041500Z 07009KT 8SM -RA SCT017 BKN032 OVC040 02/02 A3023 RMK SC3SC3SC2 SLP237=

CYVR;2006-12-04 15:42;SPECI CYVR 041542Z 08007KT 15SM FEW017 BKN028 OVC035 03/ RMK SF1SC6SC2=

CYVR;2006-12-04 16:00;METAR CYVR 041600Z 07008KT 15SM FEW017 BKN028 OVC035 03/03 A3023 RMK SF1SC6SC1 SLP236=

CYVR;2006-12-04 16:21;SPECI CYVR 041621Z 08008KT 15SM -RA FEW017 OVC029 03/ RMK SF1SC7 VIS N QUAD LWR=

CYVR;2006-12-04 16:48;SPECI CYVR 041648Z 09009KT 15SM FEW017 OVC029 04/ RMK SF1SC7=

CYVR;2006-12-04 17:00;METAR CYVR 041700Z 08009KT 15SM FEW017 OVC027 03/03 A3023 RMK SF1SC7 INTMT -RA SLP236=

CYVR;2006-12-04 19:00;METAR CYVR 041900Z 09009KT 15SM -SHRA OVC023 03/03 A3025 RMK SC8 SLP243=

CYVR;2006-12-04 19:55;SPECI CYVR 041955Z 08010KT 15SM -SHRA BKN012 OVC020 04/ RMK SC5SC3=

CYVR;2006-12-04 20:00;METAR CYVR 042000Z 08009KT 15SM -SHRA BKN014 OVC019 04/03 A3023 RMK SC5SC3 SLP237=

CYVR;2006-12-04 20:21;SPECI CYVR 042021Z 07010KT 15SM SCT012 OVC017 04/ RMK SC3SC5=

CYVR;2006-12-04 21:00;METAR CYVR 042100Z 07008KT 15SM FEW017 OVC021 04/03 A3023 RMK SC2SC6 SLP236=

CYVR;2006-12-04 22:00;METAR CYVR 042200Z 07009KT 15SM OVC017 04/03 A3019 RMK SC8 SLP225=

CYVR;2006-12-04 23:00;METAR CYVR 042300Z 08008KT 15SM SCT017 OVC024 04/03 A3023 RMK SC3SC5 SLP238=

CYVR;2006-12-05 01:00;METAR CYVR 050100Z 09005KT 15SM FEW020 SCT058 BKN095 OVC120 04/03 A3024 RMK SC2SC2AC3AC1 SLP241=

CYVR;2006-12-05 02:00;METAR CYVR 050200Z 09005KT 15SM FEW020 FEW055 SCT065 BKN220 04/03 A3025 RMK SC1SC1SC2CI0 SLP243=

CYVR;2006-12-05 03:00;METAR CYVR 050300Z 09003KT 15SM FEW020 FEW055 SCT062 OVC220 04/03 A3026 RMK SC1SC2SC2CI1 SLP247=

CYVR;2006-12-05 04:00;METAR CYVR 050400Z 13004KT 15SM FEW025 SCT060 SCT220 04/03 A3027 RMK SC2SC2CI0 SLP251=

CYVR;2006-12-05 05:00;METAR CYVR 050500Z 09002KT 15SM FEW025 SCT055 BKN220 03/03 A3028 RMK SC1SC2CI1 SLP254=

CYVR;2006-12-05 06:00;METAR CYVR 050600Z 09002KT 15SM R08L/3000V5500FT/N MIFG FEW018 SCT055 BKN230 03/03 A3030 RMK SC1SC2CI1 SLP260=

CYVR;2006-12-05 07:00;METAR CYVR 050700Z 00000KT 10SM MIFG FEW011 SCT055 BKN220 02/01 A3031 RMK SC1SC2CI2 SLP263=

CYVR;2006-12-05 07:39;SPECI CYVR 050739Z 00000KT 8SM BKN010 BKN060 BKN220 02/ RMK SF5SC1CI1=

CYVR;2006-12-05 08:00;METAR CYVR 050800Z 00000KT 8SM BKN010 BKN060 BKN220 02/02 A3032 RMK SF5SC1CI1 SLP269=

CYVR;2006-12-05 09:00;METAR CYVR 050900Z 01004KT 8SM MIFG BKN010 BKN060 BKN230 03/02 A3033 RMK SF5SC1CI1 SLP272=

CYVR;2006-12-05 09:27;SPECI CYVR 050927Z 00000KT 8SM SCT012 BKN120 03/ RMK SF3AC1=

CYVR;2006-12-05 10:00;METAR CYVR 051000Z 12004KT 8SM FEW011 SCT120 BKN210 03/03 A3034 RMK SF2AC1CI2 SLP273=

CYVR;2006-12-05 11:00;METAR CYVR 051100Z 00000KT 4SM BR BKN011 BKN100 02/02 A3034 RMK SC5AC1 SLP275=

CYVR;2006-12-05 11:43;SPECI CYVR 051143Z 00000KT 3SM BR BKN009 BKN100 02/ RMK SC6AC1=

CYVR;2006-12-05 12:00;METAR CYVR 051200Z 00000KT 4SM BR BKN009 BKN100 03/03 A3034 RMK SC6AC1 SLP275=

CYVR;2006-12-05 13:00;METAR CYVR 051300Z 13003KT 4SM BR BKN009 BKN040 03/03 A3035 RMK SC6SC1 SLP278=

CYVR;2006-12-05 13:40;SPECI CYVR 051340Z 08005KT 5SM -SHRA BR SCT004 BKN009 OVC040 02/ RMK SF3ST3SC1=

CYVR;2006-12-05 14:00;METAR CYVR 051400Z 09006KT 4SM -SHRA BR SCT004 BKN009 OVC040 02/02 A3035 RMK SF3ST4SC1 SLP276=

CYVR;2006-12-05 14:15;SPECI CYVR 051415Z 09006KT 4SM BR BKN004 OVC009 02/ RMK SF5ST3=

CYVR;2006-12-05 14:46;SPECI CYVR 051446Z 09005KT 3SM BR BKN002 OVC005 02/ RMK SF5ST3=

CYVR;2006-12-05 14:52;SPECI CYVR 051452Z 09004KT 3SM -SHRA BR BKN002 OVC004 02/ RMK SF6ST2=

CYVR;2006-12-05 15:00;METAR CYVR 051500Z 10004KT 3SM -SHRA BR BKN002 OVC006 03/03 A3035 RMK SF6ST2 SLP278=

CYVR;2006-12-05 15:09;SPECI CYVR 051509Z 09004KT 2SM -SHRA BR BKN002 OVC006 03/ RMK SF6SC2=

CYVR;2006-12-05 15:23;SPECI CYVR 051523Z 10005KT 1 1/2SM R08L/3000FT/D R08R/3500VP6000FT/D -SHRA BR SCT002 OVC006 03/ RMK SF4SC4=

CYVR;2006-12-05 16:00;METAR CYVR 051600Z 07005KT 2SM -SHRA BR SCT003 OVC007 04/04 A3037 RMK SF3SC5 SLP283=

CYVR;2006-12-05 16:54;SPECI CYVR 051654Z 08005KT 3SM -RA BR FEW004 OVC007 03/ RMK SF2SC6=

CYVR;2006-12-05 17:00;METAR CYVR 051700Z 08006KT 3SM R08L/4500VP6000FT/N -RA BR FEW004 OVC007 03/03 A3037 RMK SF2SC6 SLP285=

CYVR;2006-12-05 18:00;METAR CYVR 051800Z 10007KT 5SM -RA BR BKN008 OVC030 04/04 A3037 RMK SC6SC2 SLP285=

CYVR;2006-12-05 18:16;SPECI CYVR 051816Z 07006KT 2 1/2SM -RA BR BKN008 OVC030 04/ RMK SC6SC2=

CYVR;2006-12-05 19:00;METAR CYVR 051900Z 08006KT 7SM -RA FEW008 OVC021 05/05 A3037 RMK SC2SC6 SLP286=

CYVR;2006-12-05 20:00;METAR CYVR 052000Z 08008KT 8SM -RA FEW008 SCT025 OVC061 04/04 A3035 RMK SF2SC2SC4 SLP277=

CYVR;2006-12-05 21:00;METAR CYVR 052100Z 10005KT 15SM FEW020 SCT060 OVC088 04/04 A3033 RMK SC2SC2AC5 SLP270=

CYVR;2006-12-05 22:00;METAR CYVR 052200Z 07005KT 15SM FEW035 SCT060 OVC084 05/04 A3032 RMK SC2SC2AC5 SLP269=

CYVR;2006-12-05 23:00;METAR CYVR 052300Z 10004KT 15SM FEW035 SCT065 OVC097 06/04 A3032 RMK SC2SC2AC4 SLP267=

CYVR;2006-12-06 00:00;METAR CYVR 060000Z 25005KT 20SM FEW035 OVC088 06/05 A3033 RMK SC2AC6 SLP270=

CYVR;2006-12-06 01:00;METAR CYVR 060100Z 22003KT 15SM MIFG FEW035 OVC082 04/04 A3032 RMK SC2AC6 SLP266=

CYVR;2006-12-06 01:13;SPECI CYVR 060113Z 17003KT 15SM FEW035 OVC081 04/ RMK SC2AC6=

CYVR;2006-12-06 02:00;METAR CYVR 060200Z 00000KT 15SM MIFG FEW035 SCT088 OVC110 05/04 A3031 RMK SC2AC2AC5 SLP264=

CYVR;2006-12-06 03:00;METAR CYVR 060300Z 00000KT 15SM MIFG FEW035 BKN078 OVC110 05/04 A3030 RMK SF2AC3AC3 SLP260=

CYVR;2006-12-06 03:40;SPECI CYVR 060340Z 08006KT 15SM -SHRA FEW035 OVC075 05/ RMK SF2AC6 PCPN VRY LGT=

CYVR;2006-12-06 04:00;METAR CYVR 060400Z 22002KT 15SM FEW035 OVC077 05/04 A3029 RMK SF2AC6 SLP257=

CYVR;2006-12-06 05:00;METAR CYVR 060500Z 29005KT 15SM MIFG OVC080 05/05 A3030 RMK AC8 SLP259=

CYVR;2006-12-06 06:00;METAR CYVR 060600Z 17002KT 15SM MIFG OVC100 05/04 A3029 RMK AS8 SLP257=

CYVR;2006-12-06 07:00;METAR CYVR 060700Z 21002KT 15SM OVC087 05/05 A3030 RMK AS8 SLP261=

CYVR;2006-12-06 08:00;METAR CYVR 060800Z 00000KT 15SM MIFG OVC077 04/04 A3030 RMK AS8 SLP262=

CYVR;2006-12-06 09:00;METAR CYVR 060900Z 26003KT 15SM MIFG OVC078 05/05 A3030 RMK AS8 SLP261=

CYVR;2006-12-06 10:00;METAR CYVR 061000Z 00000KT 15SM MIFG OVC076 04/04 A3030 RMK AS8 SLP261=

CYVR;2006-12-06 11:00;METAR CYVR 061100Z 11003KT 15SM OVC075 04/04 A3030 RMK AS8 SLP262=

CYVR;2006-12-06 12:00;METAR CYVR 061200Z 00000KT 15SM MIFG OVC073 04/04 A3030 RMK AC8 SLP259=

CYVR;2006-12-06 13:00;METAR CYVR 061300Z 00000KT 15SM OVC081 04/04 A3030 RMK AC7 SLP261=

CYVR;2006-12-06 15:00;METAR CYVR 061500Z 11002KT 15SM FEW076 SCT170 BKN240 04/04 A3029 RMK AC2AC2CI2 SLP256=

CYVR;2006-12-06 16:00;METAR CYVR 061600Z 13003KT 15SM FEW076 BKN240 04/04 A3029 RMK AC2CI2 SLP256=

CYVR;2006-12-06 17:00;METAR CYVR 061700Z 34002KT 15SM FEW068 SCT098 BKN210 OVC240 04/03 A3030 RMK AC2AC2CC1CI0 SLP259=

CYVR;2006-12-06 18:00;METAR CYVR 061800Z 15004KT 15SM FEW090 SCT120 BKN210 BKN220 06/05 A3029 RMK AC2AC1CC1CI0 SLP257=

CYVR;2006-12-06 19:00;METAR CYVR 061900Z 36002KT 15SM FEW073 BKN088 BKN120 08/05 A3029 RMK AC2AC1AC1 SLP258=

CYVR;2006-12-06 20:00;METAR CYVR 062000Z 13004KT 20SM FEW080 FEW120 BKN220 08/05 A3026 RMK AC1AC1CI1 SLP248=

CYVR;2006-12-06 21:00;METAR CYVR 062100Z 21003KT 20SM FEW080 SCT120 OVC220 09/05 A3028 RMK AS1AC2CI1 SLP253=

CYVR;2006-12-06 22:00;METAR CYVR 062200Z 31002KT 20SM FEW080 OVC210 07/05 A3027 RMK AS1CS5 SLP251=

CYVR;2006-12-06 23:00;METAR CYVR 062300Z 05002KT 20SM FEW120 OVC210 07/05 A3027 RMK AS2CS5 SLP249=

CYVR;2006-12-07 00:00;METAR CYVR 070000Z 00000KT 15SM FEW080 OVC210 06/05 A3027 RMK AC2CS3 SLP250=

CYVR;2006-12-07 01:00;METAR CYVR 070100Z 00000KT 20SM FEW120 BKN210 06/05 A3026 RMK AC2CI3 SLP247=

CYVR;2006-12-07 02:00;METAR CYVR 070200Z 12002KT 20SM FEW120 OVC210 05/04 A3025 RMK AC2CS4 SLP245=

CYVR;2006-12-07 03:00;METAR CYVR 070300Z 10003KT 20SM BKN220 06/05 A3024 RMK CS3 SLP242=

CYVR;2006-12-07 04:00;METAR CYVR 070400Z 00000KT 15SM BKN200 04/04 A3024 RMK CS4 HZ SLP241=

CYVR;2006-12-07 05:00;METAR CYVR 070500Z 00000KT 15SM FEW065 BKN200 04/04 A3024 RMK SF1CS5 SLP242=

CYVR;2006-12-07 05:05;SPECI CYVR 070505Z 00000KT 15SM R26R/4000V6000FT/D MIFG FEW065 BKN200 04/ RMK SF1CS5=

CYVR;2006-12-07 06:00;METAR CYVR 070600Z 00000KT 15SM R26R/4500V6000FT/D MIFG FEW065 OVC200 03/03 A3024 RMK SF1CS7 SLP242=

CYVR;2006-12-07 07:00;METAR CYVR 070700Z 00000KT 15SM R26R/2600V6000FT/U MIFG OVC200 03/03 A3023 RMK CS8 SLP236=

CYVR;2006-12-07 08:00;METAR CYVR 070800Z 14004KT 15SM OVC220 04/04 A3022 RMK CS8 HZ SLP232=

CYVR;2006-12-07 09:00;METAR CYVR 070900Z 00000KT 15SM OVC190 04/04 A3021 RMK AS8 HZ SLP230=

CYVR;2006-12-07 10:00;METAR CYVR 071000Z 00000KT 15SM OVC180 04/04 A3020 RMK AS8 HZ SLP226=

CYVR;2006-12-07 11:00;METAR CYVR 071100Z 11002KT 15SM SCT170 OVC200 04/04 A3019 RMK AC3CS4 HZ SLP222=

CYVR;2006-12-07 12:00;METAR CYVR 071200Z 00000KT 15SM R08R/4500V6000FT/D R26R/3500V6000FT/U MIFG BKN190 02/02 A3016 RMK AC7 SLP214=

CYVR;2006-12-07 13:00;METAR CYVR 071300Z 09004KT 15SM OVC170 03/03 A3016 RMK AC8 HZ SLP212=

CYVR;2006-12-07 14:00;METAR CYVR 071400Z 00000KT 15SM OVC180 03/03 A3014 RMK AC8 HZ SLP207=

CYVR;2006-12-07 15:00;METAR CYVR 071500Z 09004KT 15SM BKN140 03/03 A3015 RMK AC7 SLP209=

CYVR;2006-12-07 16:00;METAR CYVR 071600Z 11007KT 15SM BKN140 03/03 A3010 RMK AS7 SLP194=

CYVR;2006-12-07 17:00;METAR CYVR 071700Z 15008KT 15SM FEW090 SCT140 BKN170 05/04 A3012 RMK AC2AC2AC4 SLP201=

CYVR;2006-12-07 18:00;METAR CYVR 071800Z 15006KT 30SM SCT080 BKN110 OVC140 05/03 A3011 RMK AC3AC2AC2 SLP197=

CYVR;2006-12-07 19:00;METAR CYVR 071900Z 04010KT 30SM FEW090 OVC120 05/03 A3009 RMK AC2AC5 SLP189=

CYVR;2006-12-07 20:00;METAR CYVR 072000Z 13007KT 30SM FEW080 BKN130 OVC170 06/04 A3008 RMK AC1AC4AC2 SLP186=

CYVR;2006-12-07 21:00;METAR CYVR 072100Z 10007KT 30SM FEW130 BKN160 OVC180 06/04 A3007 RMK AC2AC4AS2 SLP182=

CYVR;2006-12-07 22:00;METAR CYVR 072200Z 07004KT 30SM FEW080 FEW120 OVC170 06/04 A3007 RMK AC1AC2AS6 SLP182=

CYVR;2006-12-07 23:00;METAR CYVR 072300Z 09014G19KT 30SM FEW088 BKN120 OVC140 06/04 A3001 RMK AC2AC5AC2 PRESFR SLP162=

CYVR;2006-12-08 00:00;METAR CYVR 080000Z 00000KT 30SM FEW080 BKN130 OVC170 06/04 A3005 RMK AC2AC4AC2 SLP175=

CYVR;2006-12-08 01:00;METAR CYVR 080100Z 13003KT 30SM FEW080 BKN120 OVC140 06/04 A3003 RMK AC1AC5AC2 SLP169=

CYVR;2006-12-08 02:00;METAR CYVR 080200Z 04005KT 20SM SCT085 BKN120 OVC140 05/04 A3003 RMK AC3AC3AC2 SLP168=

CYVR;2006-12-08 02:51;SPECI CYVR 080251Z 09003KT 20SM -SHRA FEW065 OVC092 07/ RMK SC2AC6 PCPN VRY LGT=

CYVR;2006-12-08 03:00;METAR CYVR 080300Z 00000KT 20SM -SHRA FEW065 OVC088 07/04 A3000 RMK SC2AC6 PCPN VRY LGT SLP160=

CYVR;2006-12-08 04:00;METAR CYVR 080400Z 15007KT 15SM -SHRA FEW061 OVC078 07/04 A3001 RMK SF2AC6 PCPN VRY LGT SLP163=

CYVR;2006-12-08 05:00;METAR CYVR 080500Z 12011KT 15SM -RA SCT060 OVC077 06/05 A3001 RMK SF3AC5 SLP161=

CYVR;2006-12-08 06:00;METAR CYVR 080600Z 09010KT 15SM -RA SCT056 OVC065 06/05 A3000 RMK SF3SC5 SLP159=

CYVR;2006-12-08 07:00;METAR CYVR 080700Z 09009KT 15SM -RA BKN065 OVC077 06/05 A2998 RMK SC5AC3 PCPN VRY LGT SLP153=

CYVR;2006-12-08 08:00;METAR CYVR 080800Z 11007KT 15SM OVC076 07/06 A2995 RMK AC8 SLP141=

CYVR;2006-12-08 09:00;METAR CYVR 080900Z 19006KT 15SM OVC082 07/05 A2995 RMK AC8 SLP142=

CYVR;2006-12-08 10:00;METAR CYVR 081000Z 00000KT 15SM OVC080 06/05 A2992 RMK AC8 SLP133=

CYVR;2006-12-08 10:36;SPECI CYVR 081036Z 27002KT 15SM -RA FEW071 OVC081 05/ RMK AC2AC6=

CYVR;2006-12-08 11:00;METAR CYVR 081100Z 35004KT 15SM OVC078 06/05 A2991 RMK AC8 SLP129=

CYVR;2006-12-08 12:00;METAR CYVR 081200Z 01003KT 15SM BKN076 OVC100 05/05 A2989 RMK AC6AC2 SLP121=

CYVR;2006-12-08 14:00;METAR CYVR 081400Z 34003KT 15SM -SHRA BKN076 OVC100 06/05 A2985 RMK AC6AC2 PCPN VRY LGT SLP110=

CYVR;2006-12-08 15:00;METAR CYVR 081500Z 15002KT 15SM -SHRA BKN069 OVC085 08/06 A2984 RMK AC6AC2 SLP105=

CYVR;2006-12-08 16:00;METAR CYVR 081600Z 00000KT 15SM -SHRA OVC071 07/06 A2982 RMK AC8 SLP097=

CYVR;2006-12-08 16:55;SPECI CYVR 081655Z 19003KT 20SM OVC074 07/ RMK AC8=

CYVR;2006-12-08 17:00;METAR CYVR 081700Z 18003KT 30SM OVC082 07/06 A2981 RMK AC8 SLP095=

CYVR;2006-12-08 18:00;METAR CYVR 081800Z 17002KT 30SM SCT082 OVC130 07/06 A2981 RMK AC3AC5 SLP095=

CYVR;2006-12-08 19:00;METAR CYVR 081900Z 00000KT 30SM BKN120 OVC240 08/06 A2980 RMK AC6CI2 SLP091=

CYVR;2006-12-08 20:00;METAR CYVR 082000Z 35002KT 30SM OVC130 07/06 A2978 RMK AC7 SLP084=

CYVR;2006-12-08 21:00;METAR CYVR 082100Z 34002KT 30SM BKN130 OVC240 08/07 A2975 RMK AC6CI2 SLP073=

CYVR;2006-12-08 22:00;METAR CYVR 082200Z 31002KT 30SM BKN130 OVC240 08/07 A2972 RMK AC6CI2 SLP065=

CYVR;2006-12-08 23:00;METAR CYVR 082300Z 23003KT 30SM BKN130 OVC240 08/06 A2970 RMK AC6CI2 SLP059=

CYVR;2006-12-09 00:00;METAR CYVR 090000Z 00000KT 30SM BKN120 OVC240 07/06 A2969 RMK AC6CI2 SLP055=

CYVR;2006-12-09 01:00;METAR CYVR 090100Z 21007KT 30SM OVC120 08/06 A2967 RMK AC7 SLP049=

CYVR;2006-12-09 02:00;METAR CYVR 090200Z 08003KT 30SM OVC120 07/06 A2967 RMK AC8 SLP047=

CYVR;2006-12-09 03:00;METAR CYVR 090300Z 10004KT 15SM OVC120 08/06 A2967 RMK AC8 SLP047=

CYVR;2006-12-09 04:00;METAR CYVR 090400Z 13002KT 15SM OVC130 07/06 A2966 RMK AC8 SLP044=

CYVR;2006-12-09 05:00;METAR CYVR 090500Z 05004KT 15SM OVC120 07/05 A2963 RMK AC8 SLP035=

CYVR;2006-12-09 06:00;METAR CYVR 090600Z 11002KT 15SM BKN120 05/04 A2962 RMK AS6 SLP031=

CYVR;2006-12-09 07:00;METAR CYVR 090700Z 11002KT 15SM BKN120 04/04 A2963 RMK AS3 SLP033=

CYVR;2006-12-09 08:00;METAR CYVR 090800Z 01002KT 15SM MIFG FEW120 BKN220 04/04 A2961 RMK AS2CS3 SLP027=

CYVR;2006-12-09 09:00;METAR CYVR 090900Z 00000KT 15SM MIFG FEW120 BKN220 03/03 A2959 RMK AC1CS5 SLP019=

CYVR;2006-12-09 10:00;METAR CYVR 091000Z 23003KT 15SM MIFG OVC210 03/02 A2957 RMK CS8 SLP015=

CYVR;2006-12-09 11:00;METAR CYVR 091100Z 11002KT 15SM R08L/2400V2800FT/N MIFG BKN200 03/03 A2956 RMK CS4 SLP010=

CYVR;2006-12-09 12:00;METAR CYVR 091200Z 09005KT 15SM MIFG BKN130 OVC160 03/03 A2954 RMK AS6AS2 SLP002=

CYVR;2006-12-09 13:00;METAR CYVR 091300Z 11005KT 15SM OVC140 03/03 A2954 RMK AS8 SLP004=

CYVR;2006-12-09 14:00;METAR CYVR 091400Z 08007KT 15SM BKN120 OVC170 04/04 A2953 RMK AC6AC2 SLP001=

CYVR;2006-12-09 15:00;METAR CYVR 091500Z 00000KT 15SM BKN100 OVC160 04/04 A2954 RMK AC6AC2 SLP005=

CYVR;2006-12-09 15:17;SPECI CYVR 091517Z 17002KT 15SM -SHRA BKN078 BKN100 OVC160 05/ RMK AC5AC2AC1=

CYVR;2006-12-09 15:48;SPECI CYVR 091548Z 07003KT 20SM SCT075 BKN090 OVC150 04/ RMK AC4AC3AC1=

CYVR;2006-12-09 16:00;METAR CYVR 091600Z 33004KT 20SM SCT075 BKN090 OVC150 04/04 A2955 RMK AC3AC4AC1 SLP006=

CYVR;2006-12-09 17:00;METAR CYVR 091700Z 29002KT 20SM FEW070 BKN085 OVC160 05/04 A2957 RMK AC2AC4AS2 SLP012=

CYVR;2006-12-09 18:00;METAR CYVR 091800Z 12004KT 20SM SCT070 BKN100 OVC170 06/05 A2958 RMK AC4AC2AS2 SHS N SLP016=

CYVR;2006-12-09 19:00;METAR CYVR 091900Z 09008KT 20SM SCT075 BKN090 OVC170 07/05 A2958 RMK AC4AC3AS1 SLP016=

CYVR;2006-12-09 19:27;SPECI CYVR 091927Z 08012KT 15SM -SHRA SCT060 BKN083 OVC120 08/ RMK SC3AC3AC2=

CYVR;2006-12-09 20:00;METAR CYVR 092000Z 10010KT 15SM SCT040 BKN060 OVC085 08/04 A2958 RMK SC3SC2AC2 SHS N SLP018=

CYVR;2006-12-09 20:38;SPECI CYVR 092038Z 09012KT 15SM -SHRA BKN039 BKN060 OVC080 08/ RMK SC5SC2AC2=

CYVR;2006-12-09 21:00;METAR CYVR 092100Z 11015KT 15SM -SHRA BKN039 BKN055 OVC080 08/05 A2962 RMK SC5SC2AC1 SLP029=

CYVR;2006-12-09 22:00;METAR CYVR 092200Z 13018KT 10SM -SHRA SCT020 BKN035 OVC060 09/07 A2964 RMK SC4SC3SC1 SLP037=

CYVR;2006-12-09 22:54;SPECI CYVR 092254Z 11013KT 12SM FEW020 BKN036 OVC045 08/ RMK SC2SC5SC1=

CYVR;2006-12-09 23:00;METAR CYVR 092300Z 11012KT 12SM FEW020 BKN038 OVC050 08/07 A2966 RMK SC2SC3SC2 SLP043=

CYVR;2006-12-10 00:00;METAR CYVR 100000Z 12011KT 15SM FEW020 SCT035 BKN050 OVC090 09/07 A2968 RMK SC2SC2SC3AC1 SLP050=

CYVR;2006-12-10 01:00;METAR CYVR 100100Z 10011KT 15SM FEW020 SCT050 BKN070 OVC100 08/07 A2969 RMK SC2SC2AC3AC1 SLP055=

CYVR;2006-12-10 01:37;SPECI CYVR 100137Z 09009KT 15SM -SHRA FEW020 SCT035 BKN060 OVC080 08/ RMK SC2SC2SC4AC1=

CYVR;2006-12-10 02:00;METAR CYVR 100200Z 09008KT 15SM -SHRA FEW020 SCT035 BKN062 OVC080 08/07 A2970 RMK SC2SC2SC4AC1 SLP059=

CYVR;2006-12-10 02:18;SPECI CYVR 100218Z 09007KT 15SM FEW020 SCT035 BKN080 OVC093 08/ RMK SC2SC2AC3AC2=

CYVR;2006-12-10 03:00;METAR CYVR 100300Z 10007KT 15SM FEW030 SCT070 BKN100 OVC140 08/07 A2971 RMK SC2AC2AC2AC2 SLP061=

CYVR;2006-12-10 04:00;METAR CYVR 100400Z 08008KT 15SM BKN034 BKN070 OVC140 08/07 A2971 RMK SC5AC2AC2 SLP062=

CYVR;2006-12-10 05:00;METAR CYVR 100500Z 09009KT 15SM FEW034 BKN080 OVC150 08/07 A2970 RMK SC2AC4AC2 SLP059=

CYVR;2006-12-10 06:00;METAR CYVR 100600Z 08008KT 15SM FEW034 SCT070 OVC150 07/07 A2970 RMK SC2AC2AC4 SLP057=

CYVR;2006-12-10 07:00;METAR CYVR 100700Z 09009KT 15SM FEW030 SCT075 OVC140 07/07 A2967 RMK SC2AC2AC4 SLP048=

CYVR;2006-12-10 08:00;METAR CYVR 100800Z 06005KT 15SM FEW030 FEW080 BKN150 BKN230 07/06 A2966 RMK SC1AC2AC2CI2 SLP043=

CYVR;2006-12-10 09:00;METAR CYVR 100900Z 04008KT 15SM FEW060 FEW150 BKN220 07/05 A2962 RMK SC1AC2CI2 SLP032=

CYVR;2006-12-10 10:00;METAR CYVR 101000Z 09004KT 15SM SCT094 BKN160 BKN210 06/05 A2961 RMK AC3AC2CI2 SLP027=

CYVR;2006-12-10 11:00;METAR CYVR 101100Z 23002KT 15SM BKN088 BKN150 OVC210 06/05 A2960 RMK AC6AC2CI1 SLP023=

CYVR;2006-12-10 12:00;METAR CYVR 101200Z 23002KT 15SM BKN088 OVC150 05/05 A2957 RMK AC5AC3 SLP015=

CYVR;2006-12-10 13:00;METAR CYVR 101300Z 21004KT 15SM SCT072 BKN095 OVC150 06/05 A2956 RMK AC3AC3AC2 SLP009=

CYVR;2006-12-10 14:00;METAR CYVR 101400Z 17006KT 15SM BKN074 BKN095 OVC150 06/05 A2956 RMK AC6AC2AC1 SLP009=

CYVR;2006-12-10 14:30;SPECI CYVR 101430Z 16004KT 15SM -SHRA SCT055 BKN074 OVC100 06/ RMK SC3AC3AC2=

CYVR;2006-12-10 15:00;METAR CYVR 101500Z 18007KT 15SM -SHRA SCT045 BKN068 OVC100 06/06 A2958 RMK SC4AC3AC1 SLP018=

CYVR;2006-12-10 16:00;METAR CYVR 101600Z 03008KT 10SM -SHRA BKN051 OVC070 06/06 A2957 RMK SC6AC2 SLP014=

CYVR;2006-12-10 17:00;METAR CYVR 101700Z 12007KT 12SM -SHRA BKN049 BKN070 07/06 A2959 RMK SC6AC1 VIS HIER S SLP020=

CYVR;2006-12-10 17:36;SPECI CYVR 101736Z 12005KT 15SM BKN051 BKN070 06/ RMK SC6AC1=

CYVR;2006-12-10 18:00;METAR CYVR 101800Z 18002KT 15SM BKN049 BKN070 07/06 A2960 RMK SC6AC2 SLP024=

CYVR;2006-12-10 19:00;METAR CYVR 101900Z 21002KT 15SM FEW011 BKN049 BKN060 07/06 A2962 RMK SF1SC5SC2 SLP029=

CYVR;2006-12-10 20:00;METAR CYVR 102000Z 30004KT 15SM SCT049 BKN090 BKN160 08/07 A2961 RMK SC3AC2AC1 SLP028=

CYVR;2006-12-10 21:00;METAR CYVR 102100Z 25004KT 15SM FEW015 BKN044 BKN090 07/06 A2965 RMK SF1SC5AC2 SLP040=

CYVR;2006-12-10 21:27;SPECI CYVR 102127Z 17003KT 15SM -SHRA FEW015 BKN040 OVC074 07/ RMK SF1SC6AC2=

CYVR;2006-12-10 22:00;METAR CYVR 102200Z 09003KT 12SM -SHRA FEW015 BKN045 OVC070 08/07 A2967 RMK SF1SC6AC2 SLP046=

CYVR;2006-12-10 23:00;METAR CYVR 102300Z 10011KT 15SM -SHRA FEW015 SCT025 BKN050 OVC070 08/08 A2969 RMK SF1SC2SC4AC1 SLP054=

CYVR;2006-12-11 00:00;METAR CYVR 110000Z 11009KT 12SM -SHRA SCT025 BKN040 BKN055 08/07 A2972 RMK SC3SC3SC1 SLP066=

CYVR;2006-12-11 01:00;METAR CYVR 110100Z 14013KT 12SM -SHRA FEW025 BKN050 BKN088 08/08 A2976 RMK SC2SC4AC1 SLP079=

CYVR;2006-12-11 01:18;SPECI CYVR 110118Z 14011KT 15SM FEW025 BKN045 BKN089 08/ RMK SC2SC3AC2=

CYVR;2006-12-11 02:00;METAR CYVR 110200Z 14012KT 15SM FEW030 SCT050 SCT090 BKN240 08/07 A2980 RMK SC2SC2AC1CI3 SLP091=

CYVR;2006-12-11 03:00;METAR CYVR 110300Z 12012G17KT 15SM FEW030 FEW050 BKN100 OVC240 08/07 A2983 RMK SC1SC2AC4CI2 SLP101=

CYVR;2006-12-11 04:00;METAR CYVR 110400Z 13013G20KT 15SM SCT041 BKN063 BKN120 OVC240 09/07 A2985 RMK SC3SC2AC2CI1 SLP109=

CYVR;2006-12-11 05:00;METAR CYVR 110500Z 12012KT 15SM FEW035 SCT070 OVC100 08/07 A2986 RMK SC2AC2AC4 SLP112=

CYVR;2006-12-11 05:54;SPECI CYVR 110554Z 11012KT 15SM -SHRA FEW035 SCT066 OVC100 08/ RMK SC2AC2AC4=

CYVR;2006-12-11 06:00;METAR CYVR 110600Z 11011KT 15SM -SHRA FEW035 SCT066 OVC100 08/07 A2986 RMK SC2AC2AC4 SLP112=

CYVR;2006-12-11 07:00;METAR CYVR 110700Z 13014KT 15SM -SHRA BKN035 OVC052 09/07 A2986 RMK SC6SC2 SLP111=

CYVR;2006-12-11 08:00;METAR CYVR 110800Z 14016G21KT 10SM -SHRA BKN023 OVC047 09/07 A2987 RMK SC6SC2 SLP115=

CYVR;2006-12-11 09:00;METAR CYVR 110900Z 13017G22KT 10SM -RA SCT022 BKN037 OVC046 09/07 A2986 RMK SC3SC4SC1 SLP112=

CYVR;2006-12-11 10:00;METAR CYVR 111000Z 13017G22KT 10SM -RA FEW022 BKN041 OVC060 09/07 A2987 RMK SC2SC4SC2 SLP114=

CYVR;2006-12-11 11:00;METAR CYVR 111100Z 12016G24KT 10SM -RA BKN026 OVC044 08/06 A2986 RMK SC6SC2 SLP113=

CYVR;2006-12-11 12:00;METAR CYVR 111200Z 12017G27KT 12SM -RA BKN030 OVC047 08/06 A2984 RMK SC5SC3 SLP104=

CYVR;2006-12-11 13:00;METAR CYVR 111300Z 11014G19KT 12SM -RA BKN031 OVC050 08/06 A2982 RMK SC6SC2 SLP097=

CYVR;2006-12-11 14:00;METAR CYVR 111400Z 09015KT 12SM -RA BKN029 OVC050 07/06 A2978 RMK SC6SC2 SLP083=

CYVR;2006-12-11 15:00;METAR CYVR 111500Z 09018KT 6SM -RA BR BKN028 OVC046 07/06 A2973 RERA RMK SC6SC2 SLP069=

CYVR;2006-12-11 16:00;METAR CYVR 111600Z 08017G22KT 8SM -RA FEW015 BKN026 OVC045 08/07 A2970 RMK SF1SC6SC2 SLP056=

CYVR;2006-12-11 17:00;METAR CYVR 111700Z 09017G24KT 10SM -RA FEW015 BKN027 OVC045 08/07 A2965 RMK SF1SC6SC1 SLP039=

CYVR;2006-12-11 18:00;METAR CYVR 111800Z 10019G27KT 8SM -RA FEW015 BKN028 OVC045 08/07 A2961 RMK SF1SC6SC1 SLP026=

CYVR;2006-12-11 19:00;METAR CYVR 111900Z 10019G27KT 8SM -RA FEW015 BKN028 OVC045 08/07 A2956 RMK SF2SC6SC1 VIS LWR NW SLP010=

CYVR;2006-12-11 19:29;SPECI CYVR 111929Z 10017G26KT 15SM FEW015 BKN028 OVC045 08/ RMK SF1SC6SC1=

CYVR;2006-12-11 20:00;METAR CYVR 112000Z 11018KT 15SM FEW015 BKN029 OVC060 08/07 A2952 RMK SF1SC6SC2 SLP998=

CYVR;2006-12-11 21:00;METAR CYVR 112100Z 14032G39KT 15SM FEW030 SCT080 OVC140 12/08 A2948 RMK SC2AC2AC4 SLP982=

CYVR;2006-12-11 22:21;SPECI CYVR 112221Z 15032G46KT 15SM -SHRA FEW030 BKN080 BKN140 BKN200 12/ RMK SC2AC3AC1CI1=

CYVR;2006-12-12 00:00;METAR CYVR 120000Z 16021G26KT 10SM -SHRA FEW030 BKN065 OVC088 10/08 A2957 RMK SC2SC3AC2 PRESRR TCU EMBD SLP012=

CYVR;2006-12-12 01:00;METAR CYVR 120100Z 18021G31KT 12SM -SHRA FEW030 BKN055 OVC090 10/05 A2963 RMK SC2SC3AC2 PRESRR SLP034=

CYVR;2006-12-12 02:00;METAR CYVR 120200Z 19014G24KT 12SM -SHRA FEW030 BKN055 OVC090 09/05 A2967 RMK SC2SC4AC2 SLP049=

CYVR;2006-12-12 03:00;METAR CYVR 120300Z 20015G26KT 12SM -SHRA FEW030 BKN060 OVC090 08/05 A2971 RMK SC2SC4AC2 SLP062=

CYVR;2006-12-12 04:00;METAR CYVR 120400Z 18013G20KT 12SM -SHRA FEW030 BKN055 BKN090 OVC140 09/05 A2974 RMK SC2SC2AC2AC1 SLP070=

CYVR;2006-12-12 04:19;SPECI CYVR 120419Z 17013G18KT 12SM FEW036 BKN067 BKN110 OVC150 08/ RMK SC2AC2AC2AC1=

CYVR;2006-12-12 05:00;METAR CYVR 120500Z 18015KT 15SM FEW035 BKN070 BKN200 09/03 A2973 RMK SC2AC3CI2 SLP069=

CYVR;2006-12-12 06:00;METAR CYVR 120600Z 13010KT 15SM BKN041 OVC070 08/04 A2974 RMK SC6AC2 SLP071=

CYVR;2006-12-12 07:00;METAR CYVR 120700Z 09008KT 15SM BKN041 BKN060 OVC076 07/05 A2972 RMK SC5SC2AC2 SLP063=

CYVR;2006-12-12 07:50;SPECI CYVR 120750Z 16008KT 15SM -SHRA BKN040 OVC064 08/ RMK SC6SC2=

CYVR;2006-12-12 08:00;METAR CYVR 120800Z 14008KT 12SM -SHRA BKN036 OVC056 08/06 A2973 RMK SC6SC2 SLP068=

CYVR;2006-12-12 09:00;METAR CYVR 120900Z 20014KT 12SM -SHRA BKN044 OVC068 07/05 A2975 RMK SC6AC2 SLP074=

CYVR;2006-12-12 10:00;METAR CYVR 121000Z 22017KT 12SM -SHRA FEW030 OVC044 07/05 A2979 RMK SC2SC6 SLP089=

CYVR;2006-12-12 11:00;METAR CYVR 121100Z 20009KT 12SM -SHRA FEW030 BKN049 OVC077 06/05 A2983 RMK SC2SC4AC2 SLP101=

CYVR;2006-12-12 12:00;METAR CYVR 121200Z 19006KT 12SM -SHRA FEW037 BKN060 OVC090 06/04 A2986 RMK SC2SC5AC1 SLP112=

CYVR;2006-12-12 13:00;METAR CYVR 121300Z 17007KT 12SM -SHRA FEW035 OVC056 06/05 A2989 RMK SC2SC6 SLP122=

CYVR;2006-12-12 14:00;METAR CYVR 121400Z 16005KT 12SM -SHRA BKN038 OVC060 07/04 A2992 RMK SC6SC2 SLP133=

CYVR;2006-12-12 14:52;SPECI CYVR 121452Z 13003KT 12SM BKN035 BKN060 BKN150 06/ RMK SC5SC1AC1=

CYVR;2006-12-12 15:00;METAR CYVR 121500Z 14003KT 15SM SCT035 BKN055 BKN150 05/04 A2996 RMK SC3SC2AC1 SLP144=

CYVR;2006-12-12 16:00;METAR CYVR 121600Z 20009KT 15SM FEW020 FEW050 SCT070 SCT150 07/04 A2998 RMK SF1SC2AC1AC1 SLP152=

CYVR;2006-12-12 17:00;METAR CYVR 121700Z 10003KT 20SM FEW030 FEW050 SCT150 05/04 A3002 RMK SC2SC1AC1 SLP166=

CYVR;2006-12-12 18:00;METAR CYVR 121800Z 21012KT 15SM FEW030 SCT063 SCT130 BKN220 08/04 A3006 RMK SC2SC2AC1CI0 SLP178=

CYVR;2006-12-12 19:00;METAR CYVR 121900Z 19013KT 15SM FEW030 FEW060 SCT120 BKN220 08/05 A3007 RMK SC1SC2AC1CI1 SLP184=

CYVR;2006-12-12 20:00;METAR CYVR 122000Z 19008KT 15SM FEW030 SCT060 BKN120 BKN220 09/05 A3009 RMK SC2SC2AC2CI1 SLP188=

CYVR;2006-12-12 21:00;METAR CYVR 122100Z 18008KT 15SM FEW035 BKN063 BKN090 BKN200 09/05 A3008 RMK SC2SC3AC1CI1 SLP187=

CYVR;2006-12-12 22:00;METAR CYVR 122200Z 16009KT 15SM FEW035 BKN069 BKN180 09/05 A3009 RMK SC2AC3AC1 SLP190=

CYVR;2006-12-12 23:00;METAR CYVR 122300Z 13007KT 15SM FEW035 SCT070 BKN180 08/05 A3006 RMK SC2AC2AC1 SLP181=

CYVR;2006-12-13 00:00;METAR CYVR 130000Z 13009KT 15SM FEW035 FEW070 BKN160 08/05 A3004 RMK SC1AC2AC2 SLP173=

CYVR;2006-12-13 01:00;METAR CYVR 130100Z 10011KT 15SM FEW035 FEW070 SCT150 BKN200 07/05 A3000 RMK SC1AC2AC2CI1 SLP160=

CYVR;2006-12-13 02:00;METAR CYVR 130200Z 10010G15KT 15SM FEW035 BKN130 BKN220 07/05 A2998 RMK SC1AC5CI1 SLP153=

CYVR;2006-12-13 03:00;METAR CYVR 130300Z 10014KT 15SM FEW030 SCT060 OVC100 07/04 A2992 RMK SC2SC2AC5 PRESFR SLP132=

CYVR;2006-12-13 04:00;METAR CYVR 130400Z 09015KT 15SM BKN036 OVC090 07/04 A2986 RMK SC6AC2 PRESFR SLP111=

CYVR;2006-12-13 04:40;SPECI CYVR 130440Z 09017KT 12SM -SHRA BKN036 OVC090 07/ RMK SC6AC2=

CYVR;2006-12-13 05:00;METAR CYVR 130500Z 11024G30KT 12SM -SHRA OVC034 07/03 A2981 RMK SC8 SLP096=

CYVR;2006-12-13 07:00;METAR CYVR 130700Z 09024G30KT 8SM RA BKN018 OVC030 04/03 A2965 RMK SC6SC2 PRESFR SLP041=

CYVR;2006-12-13 08:00;METAR CYVR 130800Z 10020KT 8SM RA BKN017 OVC030 04/03 A2958 RMK SC5SC3 PRESFR SLP016=

CYVR;2006-12-13 10:00;METAR CYVR 131000Z 09019KT 8SM -RA BKN019 OVC034 05/04 A2948 RMK SC6SC2 SLP983=

CYVR;2006-12-13 11:00;METAR CYVR 131100Z 12011G17KT 10SM -RA FEW018 BKN035 BKN060 06/05 A2947 RMK SC2SC3SC2 PCPN VRY LGT SLP980=

CYVR;2006-12-13 11:18;SPECI CYVR 131118Z 11011KT 12SM FEW018 SCT036 BKN067 07/ RMK SC2SC2AC4=

CYVR;2006-12-13 12:00;METAR CYVR 131200Z 16012KT 12SM FEW018 FEW036 BKN074 08/07 A2946 RMK SC2SC1AC5 SLP975=

CYVR;2006-12-13 13:00;METAR CYVR 131300Z 18014G19KT 12SM FEW020 FEW040 BKN069 OVC090 09/07 A2945 RMK SC1SC2AC5AC1 SLP974=

CYVR;2006-12-13 13:50;SPECI CYVR 131350Z 19013KT 12SM -SHRA FEW020 BKN058 OVC090 09/ RMK SC1SC6AC2=

CYVR;2006-12-13 14:00;METAR CYVR 131400Z 19016KT 12SM -SHRA FEW020 BKN062 OVC090 09/06 A2946 RMK SC1SC6AC2 SLP976=

CYVR;2006-12-13 15:00;METAR CYVR 131500Z 19019G26KT 15SM -SHRA FEW025 FEW060 BKN077 OVC100 09/06 A2948 RMK SC1SC2AC5AC1 SLP983=

CYVR;2006-12-13 16:00;METAR CYVR 131600Z 28018G25KT 15SM FEW025 BKN071 OVC091 09/06 A2952 RMK SC1AC6AC2 SLP996=

CYVR;2006-12-13 17:00;METAR CYVR 131700Z 20016G22KT 15SM FEW025 BKN058 OVC077 10/06 A2956 RMK SC1SC4AC2 SLP010=

CYVR;2006-12-13 18:00;METAR CYVR 131800Z 20020KT 15SM FEW025 BKN057 BKN170 10/05 A2960 RMK SC2SC4AC2 SLP024=

CYVR;2006-12-13 18:26;SPECI CYVR 131826Z 21019G25KT 15SM -SHRA FEW025 BKN055 BKN160 10/ RMK SC2SC4AC1=

CYVR;2006-12-13 19:00;METAR CYVR 131900Z 20014KT 15SM FEW025 BKN055 BKN160 10/05 A2965 RMK SC2SC3AC1 PRESRR SLP042=

CYVR;2006-12-13 20:00;METAR CYVR 132000Z 22018G28KT 15SM FEW035 SCT055 BKN150 10/05 A2969 RMK SC2SC2AC2 SLP055=

CYVR;2006-12-13 21:00;METAR CYVR 132100Z 22016KT 20SM FEW030 SCT062 BKN130 11/05 A2975 RMK SC1SC2AC1 PRESRR SLP073=

CYVR;2006-12-13 22:00;METAR CYVR 132200Z 22019KT 20SM FEW030 FEW060 SCT120 09/04 A2978 RMK SC1SC1AC1 SLP086=

CYVR;2006-12-13 23:00;METAR CYVR 132300Z 22018KT 20SM FEW030 FEW060 SCT140 09/03 A2982 RMK SC1SC1AC1 SLP098=

CYVR;2006-12-14 00:00;METAR CYVR 140000Z 22016KT 20SM FEW030 SCT060 BKN120 OVC160 08/03 A2987 RMK SC2SC2AC2AC1 SLP116=

CYVR;2006-12-14 01:00;METAR CYVR 140100Z 23016KT 20SM FEW030 SCT065 BKN120 BKN140 08/02 A2990 RMK SC1SC2AC2AC0 SLP126=

CYVR;2006-12-14 02:00;METAR CYVR 140200Z 20020G28KT 20SM FEW030 SCT075 BKN110 07/02 A2991 RMK SC2AC2AC1 SLP128=

CYVR;2006-12-14 03:00;METAR CYVR 140300Z 19008G17KT 15SM FEW065 BKN120 07/02 A2993 RMK SC2AC2 SLP137=

CYVR;2006-12-14 04:00;METAR CYVR 140400Z 26009KT 15SM FEW030 FEW060 BKN120 06/01 A2995 RMK SC1SC2AC2 SLP142=

CYVR;2006-12-14 05:00;METAR CYVR 140500Z 20007KT 15SM FEW042 BKN076 OVC120 06/02 A2997 RMK SC2AC3AC2 SLP150=

CYVR;2006-12-14 06:00;METAR CYVR 140600Z 20007KT 15SM FEW042 FEW076 SCT120 06/01 A2998 RMK SC1AC1AC1 SLP153=

CYVR;2006-12-14 07:00;METAR CYVR 140700Z 22007KT 15SM FEW032 SCT075 06/00 A3001 RMK SC2AC1 SLP164=

CYVR;2006-12-14 08:00;METAR CYVR 140800Z 22009G16KT 15SM FEW044 SCT210 06/01 A3002 RMK SC2CI0 SLP166=

CYVR;2006-12-14 09:00;METAR CYVR 140900Z 18004KT 15SM FEW043 FEW210 03/00 A3003 RMK SC2CI0 SLP168=

CYVR;2006-12-14 10:00;METAR CYVR 141000Z 07004KT 15SM FEW047 FEW090 SCT210 03/01 A3002 RMK SC1AC2CI0 SLP165=

CYVR;2006-12-14 11:00;METAR CYVR 141100Z 10006KT 15SM FEW045 SCT092 BKN230 02/00 A3001 RMK SC2AC2CI1 SLP164=

CYVR;2006-12-14 12:00;METAR CYVR 141200Z 10007KT 15SM FEW045 SCT093 OVC180 02/01 A3001 RMK SC1AC2AS4 SLP163=

CYVR;2006-12-14 13:00;METAR CYVR 141300Z 07009KT 15SM FEW043 FEW093 OVC190 03/01 A2996 RMK SC2AC1AS5 SLP146=

CYVR;2006-12-14 15:00;METAR CYVR 141500Z 08008KT 15SM FEW042 OVC150 04/01 A2985 RMK SC2AC6 PRESFR SLP108=

CYVR;2006-12-14 16:00;METAR CYVR 141600Z 11004KT 15SM FEW040 BKN120 OVC170 04/01 A2981 RMK SC2AC5AC2 SLP094=

CYVR;2006-12-14 17:00;METAR CYVR 141700Z 07007KT 15SM FEW040 BKN074 OVC091 04/02 A2973 RMK SC1AC6AC2 PRESFR SLP069=

CYVR;2006-12-14 18:00;METAR CYVR 141800Z 02009KT 15SM BKN039 OVC057 05/02 A2969 RMK SC6SC2 SLP053=

CYVR;2006-12-14 19:00;METAR CYVR 141900Z 12014G21KT 15SM -RA BKN026 OVC041 05/01 A2959 RMK SC6SC2 PRESFR SLP021=

CYVR;2006-12-14 20:00;METAR CYVR 142000Z 09018KT 12SM -SHRA BKN023 OVC045 04/02 A2947 RMK SC6SC2 PRESFR SLP978=

CYVR;2006-12-14 21:00;METAR CYVR 142100Z 12014KT 15SM -RA BKN026 OVC038 04/03 A2943 RMK SC6SC2 SLP965=

CYVR;2006-12-14 21:13;SPECI CYVR 142113Z 10014KT 6SM -RA BR BKN023 OVC035 03/ RMK SC6SC2=

CYVR;2006-12-14 21:20;SPECI CYVR 142120Z 08016KT 2 1/2SM -RA BR BKN023 OVC035 03/ RMK SC6SC2=

CYVR;2006-12-14 21:22;SPECI CYVR 142122Z 09013G19KT 3SM -RA BR BKN025 OVC043 03/ RMK SC6SC2=

CYVR;2006-12-14 21:28;SPECI CYVR 142128Z 07012G19KT 7SM -RA BKN025 OVC043 04/ RMK SC6SC2=

CYVR;2006-12-14 22:00;METAR CYVR 142200Z 07010KT 15SM -RA FEW025 BKN031 OVC043 04/03 A2928 RMK SC2SC5SC2 PRESFR SLP915=

CYVR;2006-12-14 22:48;SPECI CYVR 142248Z 13006KT 6SM -RA BR OVC027 04/ RMK SC8=

CYVR;2006-12-14 23:00;METAR CYVR 142300Z 10008KT 6SM -RA BR OVC028 04/04 A2928 RMK SC8 SLP917=

CYVR;2006-12-14 23:25;SPECI CYVR 142325Z 09010KT 15SM -RA OVC027 04/ RMK SC8=

CYVR;2006-12-14 23:47;SPECI CYVR 142347Z 12012KT 6SM -RA BR OVC023 04/ RMK SC8=

CYVR;2006-12-15 00:00;METAR CYVR 150000Z 11012G18KT 6SM -RA BR OVC021 04/04 A2921 RMK SC8 /R10/ PRESFR SLP892=

CYVR;2006-12-15 00:11;SPECI CYVR 150011Z 10016KT 7SM -RA OVC021 04/ RMK SC8=

CYVR;2006-12-15 01:00;METAR CYVR 150100Z 08011G17KT 15SM SCT021 BKN190 BKN220 05/04 A2910 RMK SC3AC1CI0 PRESFR SLP854=

CYVR;2006-12-15 01:51;SPECI CYVR 150151Z 10014KT 15SM -RA BKN043 OVC057 05/ RMK SC6SC2=

CYVR;2006-12-15 03:00;METAR CYVR 150300Z 11016KT 15SM -RA FEW050 BKN061 OVC210 05/04 A2903 RMK SC2SC3CS2 PCPN VRY LGT SLP832=

CYVR;2006-12-15 04:00;METAR CYVR 150400Z 10019G27KT 15SM -RA FEW035 BKN051 OVC090 05/04 A2900 RMK SF2SC5AC2 SLP819=

CYVR;2006-12-15 05:00;METAR CYVR 150500Z 11007KT 8SM -RA SCT015 BKN033 OVC050 06/05 A2897 RMK SF3SC3SC2 SLP812=

CYVR;2006-12-15 05:41;SPECI CYVR 150541Z 06005KT 10SM FEW015 SCT085 BKN130 OVC170 05/ RMK SF2AC2AC2AC2=

CYVR;2006-12-15 06:00;METAR CYVR 150600Z 08010KT 10SM FEW015 BKN068 OVC095 06/05 A2897 RMK SF2AC4AC2 SLP810=

CYVR;2006-12-15 06:24;SPECI CYVR 150624Z 08009G15KT 10SM -RA FEW013 BKN021 OVC065 06/ RMK SF2SF4SC2=

CYVR;2006-12-15 07:00;METAR CYVR 150700Z 12014KT 8SM -RA FEW015 BKN024 OVC046 08/07 A2897 RMK SF2SF4SC2 SLP810=

CYVR;2006-12-15 08:00;METAR CYVR 150800Z 16014G22KT 8SM -RA FEW015 BKN042 OVC051 08/07 A2897 RMK SF2SC4SC2 SLP812=

CYVR;2006-12-15 08:45;SPECI CYVR 150845Z 16020G26KT 10SM FEW015 OVC041 09/ RMK SF2SC6=

CYVR;2006-12-15 09:00;METAR CYVR 150900Z 16021G28KT 8SM -RA FEW015 BKN037 OVC061 08/07 A2900 RMK SF2SC4SC2 SLP819=

CYVR;2006-12-15 10:00;METAR CYVR 151000Z 18014KT 8SM -RA FEW015 SCT039 OVC065 08/07 A2902 RMK SF2SC2SC4 PCPN VRY LGT SLP829=

CYVR;2006-12-15 10:34;SPECI CYVR 151034Z 29045G50KT 8SM -RA FEW013 BKN028 OVC039 04/ RMK SF2SC4SC2=

CYVR;2006-12-15 11:00;METAR CYVR 151100Z 29034G51KT 8SM -RA SCT012 BKN028 OVC051 04/03 A2918 RMK SF3SC3SC2 PRESRR SLP882=

CYVR;2006-12-15 12:00;METAR CYVR 151200Z 27036G43KT 8SM -RA FEW017 BKN055 OVC065 05/03 A2931 RMK SF2SC3SC2 PRESRR SLP924=

CYVR;2006-12-15 13:00;METAR CYVR 151300Z 27021G31KT 8SM -RA FEW015 OVC035 05/03 A2946 RMK SF2SC6 PRESRR SLP975=

CYVR;2006-12-15 15:00;METAR CYVR 151500Z 34011KT 10SM -RA FEW017 BKN031 OVC055 05/03 A2959 RMK SF2SC4SC2 PCPN VRY LGT / PRESRR SLP021=

CYVR;2006-12-15 16:00;METAR CYVR 151600Z 30007G17KT 8SM -RA SCT014 BKN031 OVC056 04/02 A2965 RMK SF3SC3SC2 PRESRR SLP042=

CYVR;2006-12-15 16:26;SPECI CYVR 151626Z 28041G48KT 15SM -RA BKN014 OVC033 03/ RMK SC6SC2=

CYVR;2006-12-15 16:30;SPECI CYVR 151630Z 29032G48KT 15SM -RA SCT014 BKN023 OVC033 03/ RMK SC4SC2SC2=

CYVR;2006-12-15 16:45;SPECI CYVR 151645Z 28025G31KT 15SM SCT025 BKN055 OVC085 04/ RMK SC4SC2AC2=

CYVR;2006-12-15 17:00;METAR CYVR 151700Z 29024G29KT 15SM FEW030 SCT065 OVC170 05/02 A2970 RMK SF2SC2AC2 SLP056=

CYVR;2006-12-15 18:00;METAR CYVR 151800Z 31026G32KT 20SM FEW040 BKN064 BKN170 06/01 A2974 RMK SC2SC3AC0 SLP070=

CYVR;2006-12-15 19:00;METAR CYVR 151900Z 30026KT 20SM FEW040 SCT065 BKN220 05/01 A2979 RMK SC1SC1CI1 SLP089=

CYVR;2006-12-15 20:00;METAR CYVR 152000Z 30021KT 20SM FEW040 SCT070 BKN220 06/01 A2985 RMK SC1AC1CI1 SLP107=

CYVR;2006-12-15 21:00;METAR CYVR 152100Z 30019G24KT 20SM FEW040 FEW190 BKN220 06/01 A2988 RMK SC1AC0CI1 SLP120=

CYVR;2006-12-15 22:00;METAR CYVR 152200Z 30016G24KT 30SM FEW040 FEW120 SCT190 06/01 A2992 RMK CF1AC1AC0 SLP132=

CYVR;2006-12-15 23:00;METAR CYVR 152300Z 30013KT 30SM FEW045 BKN130 BKN220 06/M00 A2995 RMK CF1AC3CI0 SLP143=

CYVR;2006-12-16 00:00;METAR CYVR 160000Z 31011KT 30SM FEW040 FEW140 04/M01 A2997 RMK SF1AC1 SLP149=

CYVR;2006-12-16 01:00;METAR CYVR 160100Z 35006KT 30SM FEW040 FEW120 04/M01 A2999 RMK CF1AC1 TR CF / TR AC SLP155=

CYVR;2006-12-16 02:00;METAR CYVR 160200Z 31006KT 30SM FEW045 FEW120 02/M03 A3000 RMK CF1AS1 TR CF / TR AS SLP159=

CYVR;2006-12-16 03:00;METAR CYVR 160300Z 00000KT 30SM FEW120 04/M02 A3001 RMK AS1 TR AS SLP162=

CYVR;2006-12-16 04:00;METAR CYVR 160400Z 11005KT 30SM FEW180 01/M02 A3002 RMK AS0 SLP166=

CYVR;2006-12-16 06:00;METAR CYVR 160600Z 08008KT 20SM FEW045 OVC130 01/M01 A3004 RMK SC1AS6 SLP174=

CYVR;2006-12-16 07:00;METAR CYVR 160700Z 08007KT 15SM FEW065 OVC100 01/M01 A3006 RMK SC1AS7 SLP179=

CYVR;2006-12-16 09:30;SPECI CYVR 160930Z 11014KT 10SM -SHRA FEW014 BKN019 OVC030 02/ RMK SF2SF3SC2=

CYVR;2006-12-16 10:00;METAR CYVR 161000Z 09009KT 10SM -SHRA BKN013 OVC021 01/01 A3008 RMK SF6SC2 SLP185=

CYVR;2006-12-16 10:38;SPECI CYVR 161038Z 08011KT 10SM -RA SCT013 BKN017 OVC034 01/ RMK SF3SF2SC2=

CYVR;2006-12-16 11:00;METAR CYVR 161100Z 08011KT 8SM -RA FEW011 BKN016 OVC021 02/01 A3008 RMK SF2SF2SC3 SLP185=

CYVR;2006-12-16 12:00;METAR CYVR 161200Z 07009KT 8SM FEW016 SCT024 BKN045 OVC060 02/01 A3006 RMK SF2SF2SC3SC2 SLP181=

CYVR;2006-12-16 13:00;METAR CYVR 161300Z 09007KT 10SM FEW016 BKN035 OVC100 02/01 A3005 RMK SF2SC3AC2 SLP176=

CYVR;2006-12-16 14:00;METAR CYVR 161400Z 12006KT 10SM FEW016 SCT032 OVC090 01/01 A3004 RMK SF2SC2AS5 SLP173=

CYVR;2006-12-16 15:00;METAR CYVR 161500Z 11008KT 12SM FEW020 BKN040 OVC090 01/01 A3004 RMK SC2SC4AC2 SLP171=

CYVR;2006-12-16 16:00;METAR CYVR 161600Z 11008KT 15SM FEW040 SCT090 OVC150 01/00 A3004 RMK SC2AC2AC2 SLP171=

CYVR;2006-12-16 17:00;METAR CYVR 161700Z 09011KT 20SM FEW040 FEW090 OVC130 01/01 A3004 RMK SC1AC2AC6 SLP172=

CYVR;2006-12-16 18:00;METAR CYVR 161800Z 09010KT 20SM FEW040 FEW090 OVC120 02/00 A3003 RMK SC1AC1AC6 SLP170=

CYVR;2006-12-16 19:00;METAR CYVR 161900Z 10007KT 20SM FEW040 FEW100 OVC140 03/01 A3003 RMK SC1AC2AC6 SLP168=

CYVR;2006-12-16 20:00;METAR CYVR 162000Z 11008KT 20SM FEW040 SCT090 OVC140 03/01 A3001 RMK SC1AC2AC5 SLP163=

CYVR;2006-12-16 21:00;METAR CYVR 162100Z 10009KT 20SM SCT090 OVC130 04/02 A2998 RMK AC3AC5 SLP154=

CYVR;2006-12-16 22:00;METAR CYVR 162200Z 09007KT 20SM BKN100 OVC160 04/01 A2997 RMK AC5AC3 SLP150=

CYVR;2006-12-16 23:00;METAR CYVR 162300Z 10008KT 20SM SCT090 BKN140 OVC210 04/01 A2996 RMK AC3AC2CI2 SLP144=

CYVR;2006-12-17 00:00;METAR CYVR 170000Z 12005KT 20SM FEW090 OVC120 03/01 A2996 RMK AC2AC6 SLP146=

CYVR;2006-12-17 01:00;METAR CYVR 170100Z 00000KT 20SM FEW090 OVC120 03/00 A2996 RMK AC2AC6 SLP147=

CYVR;2006-12-17 02:00;METAR CYVR 170200Z 16003KT 20SM FEW080 OVC120 03/00 A2997 RMK AC2AC6 SLP150=

CYVR;2006-12-17 03:00;METAR CYVR 170300Z 12005KT 15SM FEW080 OVC120 03/00 A2998 RMK AC2AC6 SLP151=

CYVR;2006-12-17 04:00;METAR CYVR 170400Z 12003KT 15SM FEW080 OVC100 03/01 A2999 RMK AC2AC6 SLP157=

CYVR;2006-12-17 05:00;METAR CYVR 170500Z 09006KT 15SM FEW080 OVC100 02/00 A3000 RMK AC2AC6 SLP160=

CYVR;2006-12-17 06:00;METAR CYVR 170600Z 08004KT 15SM FEW090 OVC130 02/00 A3002 RMK AC2AC6 SLP165=

CYVR;2006-12-17 07:00;METAR CYVR 170700Z 08006KT 15SM FEW110 OVC130 01/00 A3004 RMK AC2AC6 SLP172=

CYVR;2006-12-17 08:00;METAR CYVR 170800Z 04004KT 15SM OVC100 02/00 A3005 RMK AC8 SLP175=

CYVR;2006-12-17 09:00;METAR CYVR 170900Z 01004KT 15SM -SN BKN073 OVC100 02/00 A3006 RMK AC6AC2 PCPN VRY LGT SLP179=

CYVR;2006-12-17 09:28;SPECI CYVR 170928Z 07002KT 15SM OVC067 02/ RMK AC8=

CYVR;2006-12-17 10:00;METAR CYVR 171000Z 09003KT 12SM -SN OVC060 02/00 A3007 RMK SC8 PCPN VRY LGT SLP183=

CYVR;2006-12-17 10:43;SPECI CYVR 171043Z 09002KT 12SM OVC059 02/ RMK SC8=

CYVR;2006-12-17 11:00;METAR CYVR 171100Z 09002KT 12SM OVC057 02/00 A3009 RMK SC8 SLP190=

CYVR;2006-12-17 12:00;METAR CYVR 171200Z 11004KT 15SM OVC057 03/00 A3010 RMK SC8 SLP193=

CYVR;2006-12-17 13:00;METAR CYVR 171300Z 00000KT 15SM BKN060 OVC080 02/01 A3012 RMK SC6AC2 SLP199=

CYVR;2006-12-17 14:00;METAR CYVR 171400Z 00000KT 15SM FEW035 BKN058 OVC080 01/00 A3014 RMK SC2SC4AC2 SLP208=

CYVR;2006-12-17 15:00;METAR CYVR 171500Z 11003KT 15SM FEW045 BKN078 02/01 A3017 RMK SC2AC5 SLP215=

CYVR;2006-12-17 16:00;METAR CYVR 171600Z 09005KT 20SM FEW020 BKN055 BKN075 01/00 A3018 RMK SC1SC6AC1 SLP219=

CYVR;2006-12-17 17:00;METAR CYVR 171700Z 08003KT 20SM FEW025 BKN049 BKN075 03/01 A3020 RMK SC1SC6AC1 SLP227=

CYVR;2006-12-17 18:00;METAR CYVR 171800Z 10004KT 20SM FEW025 BKN056 BKN080 03/01 A3023 RMK SC1SC6AC1 SLP238=

CYVR;2006-12-17 19:00;METAR CYVR 171900Z 10003KT 20SM BKN057 BKN090 OVC210 04/01 A3025 RMK SC6AC1CI1 SLP244=

CYVR;2006-12-17 20:00;METAR CYVR 172000Z 32003KT 20SM BKN056 05/00 A3027 RMK SC7 SLP250=

CYVR;2006-12-17 21:00;METAR CYVR 172100Z 12003KT 20SM FEW040 BKN058 BKN210 05/M00 A3027 RMK SC1SC4CI1 SLP249=

CYVR;2006-12-17 22:00;METAR CYVR 172200Z 14003KT 20SM SCT058 BKN210 05/M01 A3027 RMK SC3CI1 SLP252=

CYVR;2006-12-17 23:00;METAR CYVR 172300Z 11005KT 20SM BKN055 BKN210 04/M02 A3028 RMK SC5CI2 SLP254=

CYVR;2006-12-18 00:00;METAR CYVR 180000Z 10004KT 20SM BKN053 OVC210 04/M01 A3029 RMK SC6CI1 SLP258=

CYVR;2006-12-18 01:00;METAR CYVR 180100Z 09004KT 20SM BKN052 BKN100 OVC210 03/M01 A3031 RMK SC5AC1CI1 SLP265=

CYVR;2006-12-18 02:00;METAR CYVR 180200Z 08005KT 20SM SCT052 BKN120 OVC210 02/M01 A3032 RMK SC3AC3CI1 SLP269=

CYVR;2006-12-18 03:00;METAR CYVR 180300Z 08006KT 20SM SCT050 BKN110 BKN220 02/M00 A3034 RMK SC3AC2CI1 SLP273=

CYVR;2006-12-18 04:00;METAR CYVR 180400Z 09004KT 20SM SCT045 SCT110 BKN220 01/M01 A3035 RMK SC3AC1CI2 SLP279=

CYVR;2006-12-18 05:00;METAR CYVR 180500Z 10009KT 20SM SCT045 BKN100 BKN220 02/M00 A3037 RMK SC3AC3CI1 SLP283=

CYVR;2006-12-18 06:00;METAR CYVR 180600Z 11010KT 20SM FEW045 BKN080 OVC210 02/00 A3037 RMK SC2AC5CI1 SLP283=

CYVR;2006-12-18 07:00;METAR CYVR 180700Z 10007KT 20SM FEW045 BKN071 OVC220 02/00 A3039 RMK SC2AC5CI1 SLP290=

CYVR;2006-12-18 08:00;METAR CYVR 180800Z 10008KT 15SM FEW040 BKN066 OVC090 03/00 A3039 RMK SC2AC5AC1 SLP291=

CYVR;2006-12-18 09:00;METAR CYVR 180900Z 11007KT 15SM FEW040 BKN062 OVC080 03/00 A3040 RMK SC2SC5AC1 SLP293=

CYVR;2006-12-18 10:00;METAR CYVR 181000Z 12005KT 15SM FEW040 BKN055 OVC070 03/00 A3040 RMK SC2SC5AC1 SLP295=

CYVR;2006-12-18 10:49;SPECI CYVR 181049Z 09006KT 12SM -RA FEW044 BKN060 OVC080 02/ RMK SC2SC4AC2=

CYVR;2006-12-18 11:00;METAR CYVR 181100Z 10004KT 12SM -RA FEW044 BKN060 OVC080 03/00 A3042 RMK SC2SC4AC2 PCPN VRY LGT SLP300=

CYVR;2006-12-18 11:18;SPECI CYVR 181118Z 09005KT 12SM SCT042 BKN060 OVC080 03/ RMK SC3SC4AC1=

CYVR;2006-12-18 12:00;METAR CYVR 181200Z 10006KT 12SM SCT040 BKN062 OVC080 03/M00 A3041 RMK SC3SC4AC1 SLP299=

CYVR;2006-12-18 12:53;SPECI CYVR 181253Z 08007KT 12SM -RA FEW025 BKN050 OVC070 03/ RMK SC2SC5AC1=

CYVR;2006-12-18 13:00;METAR CYVR 181300Z 09007KT 12SM -RA SCT023 BKN050 OVC070 03/M00 A3041 RMK SC3SC4AC1 SLP297=

CYVR;2006-12-18 14:00;METAR CYVR 181400Z 07008KT 10SM -RA FEW025 OVC048 03/01 A3040 RMK SC2SC6 SLP296=

CYVR;2006-12-18 15:00;METAR CYVR 181500Z 06011KT 10SM -RA FEW025 OVC045 03/01 A3040 RMK SC2SC6 SLP296=

CYVR;2006-12-18 16:00;METAR CYVR 181600Z 07013KT 12SM -RA FEW025 OVC039 03/01 A3040 RMK SC2SC6 PCPN VRY LGT SLP295=

CYVR;2006-12-18 16:29;SPECI CYVR 181629Z 08010G16KT 12SM FEW025 OVC037 03/ RMK SC2SC6=

CYVR;2006-12-18 16:50;SPECI CYVR 181650Z 07012KT 15SM -SHRA BKN035 OVC050 03/ RMK SC6SC2=

CYVR;2006-12-18 17:00;METAR CYVR 181700Z 08010G15KT 15SM -SHRA BKN033 OVC050 03/01 A3040 RMK SC6SC2 SLP296=

CYVR;2006-12-18 18:00;METAR CYVR 181800Z 07012G17KT 15SM -SHRA FEW018 BKN030 OVC050 03/01 A3040 RMK SC1SC6SC1 SLP295=

CYVR;2006-12-18 19:00;METAR CYVR 181900Z 07012KT 15SM -SHRA FEW018 BKN034 OVC050 03/02 A3039 RMK SC1SC6SC2 SLP292=

CYVR;2006-12-18 19:48;SPECI CYVR 181948Z 07012KT 15SM FEW020 BKN036 OVC049 04/ RMK SC1SC6SC2=

CYVR;2006-12-18 20:00;METAR CYVR 182000Z 07010G16KT 15SM FEW020 BKN037 OVC050 04/02 A3037 RMK SC1SC5SC2 SLP283=

CYVR;2006-12-18 21:00;METAR CYVR 182100Z 07011KT 15SM FEW025 BKN036 OVC050 04/02 A3035 RMK SC1SC5SC2 SLP276=

CYVR;2006-12-18 22:00;METAR CYVR 182200Z 09011KT 15SM FEW025 BKN040 OVC053 04/01 A3032 RMK SC2SC6SC1 SLP269=

CYVR;2006-12-18 23:00;METAR CYVR 182300Z 08011KT 15SM BKN036 OVC060 04/02 A3032 RMK SC6SC2 SLP266=

CYVR;2006-12-18 23:20;SPECI CYVR 182320Z 07010KT 15SM -SHRA BKN035 OVC060 04/ RMK SC6SC2=

CYVR;2006-12-18 23:48;SPECI CYVR 182348Z 08012KT 15SM OVC033 04/ RMK SC8=

CYVR;2006-12-19 00:00;METAR CYVR 190000Z 07012KT 15SM OVC036 04/01 A3030 RMK SC8 SLP262=

CYVR;2006-12-19 01:00;METAR CYVR 190100Z 07012KT 15SM OVC033 04/02 A3028 RMK SC8 SLP255=

CYVR;2006-12-19 02:00;METAR CYVR 190200Z 08014KT 15SM BKN043 BKN050 OVC090 04/02 A3026 RMK SC5SC2AC1 SLP247=

CYVR;2006-12-19 03:00;METAR CYVR 190300Z 08011KT 15SM BKN045 OVC080 05/02 A3023 RMK SC6AC2 SLP238=

CYVR;2006-12-19 03:36;SPECI CYVR 190336Z 09013KT 15SM -SHRA BKN046 OVC060 05/ RMK SC6SC2=

CYVR;2006-12-19 04:00;METAR CYVR 190400Z 09010G15KT 15SM -SHRA BKN044 OVC060 05/01 A3022 RMK SC6SC2 SLP234=

CYVR;2006-12-19 05:00;METAR CYVR 190500Z 09012G17KT 15SM -SHRA BKN045 OVC060 05/01 A3020 RMK SC6SC2 SLP228=

CYVR;2006-12-19 05:50;SPECI CYVR 190550Z 08015KT 15SM BKN046 OVC060 05/ RMK SC6SC2=

CYVR;2006-12-19 06:00;METAR CYVR 190600Z 08014KT 15SM BKN045 OVC060 05/00 A3017 RMK SC6SC2 SLP217=

CYVR;2006-12-19 06:44;SPECI CYVR 190644Z 09009KT 10SM -RA BKN043 OVC060 06/ RMK SC6SC2=

CYVR;2006-12-19 07:00;METAR CYVR 190700Z 08012KT 10SM -RA BKN041 BKN060 OVC110 05/01 A3018 RMK SC6SC1AC1 SLP221=

CYVR;2006-12-19 08:00;METAR CYVR 190800Z 09013KT 6SM -RA BKN036 BKN060 OVC110 04/02 A3018 RMK SC6SC1AC1 SLP220=

CYVR;2006-12-19 09:00;METAR CYVR 190900Z 08015KT 8SM -RA SCT030 BKN048 OVC060 04/02 A3017 RMK SC4SC3SC1 SLP218=

CYVR;2006-12-19 10:00;METAR CYVR 191000Z 06013KT 6SM -RA BR BKN035 BKN050 OVC100 04/03 A3021 RMK SC6SC1AC1 SLP229=

CYVR;2006-12-19 11:00;METAR CYVR 191100Z 10014KT 10SM -RA SCT035 OVC071 03/03 A3021 RMK SC4AC4 SLP230=

CYVR;2006-12-19 12:00;METAR CYVR 191200Z 08013KT 10SM -RA BKN021 BKN048 OVC070 03/03 A3022 RMK SC5SC2AC1 SLP235=

CYVR;2006-12-19 12:20;SPECI CYVR 191220Z 08011KT 10SM BKN023 BKN045 OVC070 04/ RMK SC6SC2AC1=

CYVR;2006-12-19 13:00;METAR CYVR 191300Z 06009KT 10SM BKN024 BKN045 OVC070 04/03 A3024 RMK SC6SC2AC1 SLP240=

CYVR;2006-12-19 14:00;METAR CYVR 191400Z 08010KT 10SM BKN023 BKN040 OVC070 04/03 A3022 RMK SC6SC2AC1 SLP235=

CYVR;2006-12-19 15:00;METAR CYVR 191500Z 08008KT 12SM SCT017 BKN036 OVC070 05/03 A3023 RMK SC3SC3AC2 SLP237=

CYVR;2006-12-19 16:00;METAR CYVR 191600Z 07007KT 15SM BKN020 OVC040 05/04 A3024 RMK SC7SC1 SLP239=

CYVR;2006-12-19 17:00;METAR CYVR 191700Z 07007KT 15SM OVC020 05/04 A3025 RMK SC8 SLP244=

CYVR;2006-12-19 17:44;SPECI CYVR 191744Z 06008KT 10SM -RA OVC020 05/ RMK SC8=

CYVR;2006-12-19 18:00;METAR CYVR 191800Z 05007KT 8SM -RA OVC019 05/04 A3025 RMK SC8 SLP244=

CYVR;2006-12-19 19:00;METAR CYVR 191900Z 06008KT 12SM -RA BKN020 OVC040 05/05 A3024 RMK SC7SC1 SLP242=

CYVR;2006-12-19 20:27;SPECI CYVR 192027Z 08008KT 2 1/2SM -RA BR OVC018 06/ RMK SC8 PCPN VRY LGT=

CYVR;2006-12-19 20:33;SPECI CYVR 192033Z 07009KT 2 1/4SM -RA BR FEW007 OVC016 06/ RMK SC2SC6=

CYVR;2006-12-19 20:55;SPECI CYVR 192055Z 09009KT 4SM -RA BR FEW007 BKN017 OVC029 06/ RMK SC2SC5SC1 PCPN VRY LGT=

CYVR;2006-12-19 21:00;METAR CYVR 192100Z 09008KT 4SM -RA BR FEW007 BKN018 OVC030 06/06 A3019 RMK SC2SC5SC1 SLP225=

CYVR;2006-12-19 22:00;METAR CYVR 192200Z 11006KT 3SM -RA BR FEW005 OVC018 06/06 A3018 RMK SC2SC6 SLP221=

CYVR;2006-12-19 22:10;SPECI CYVR 192210Z 12006KT 2 1/4SM -RA BR SCT005 OVC020 06/ RMK SC3SC5=

CYVR;2006-12-19 22:35;SPECI CYVR 192235Z 11008KT 6SM -RA BR SCT006 OVC021 06/ RMK SC3SC5=

CYVR;2006-12-19 22:54;SPECI CYVR 192254Z 11006KT 2SM -RA BR SCT006 OVC017 06/ RMK SC3SC5=

CYVR;2006-12-19 23:00;METAR CYVR 192300Z 10006KT 2SM -RA BR SCT006 BKN016 OVC022 05/05 A3018 RMK SC3SC3SC2 SLP219=

CYVR;2006-12-19 23:46;SPECI CYVR 192346Z 10005KT 1 3/4SM -RA BR BKN005 OVC016 05/ RMK SC5SC3=

CYVR;2006-12-20 00:00;METAR CYVR 200000Z 12005KT 1 3/4SM -RA BR BKN004 OVC016 06/05 A3017 RMK ST6SC2 SLP218=

CYVR;2006-12-20 01:00;METAR CYVR 200100Z 09008KT 1 3/4SM -RA BR BKN004 OVC017 05/05 A3017 RMK ST5SC3 SLP217=

CYVR;2006-12-20 01:50;SPECI CYVR 200150Z 09007KT 2 1/2SM -RA BR SCT004 OVC015 05/ RMK SF3SC5=

CYVR;2006-12-20 02:00;METAR CYVR 200200Z 08007KT 2 1/2SM -RA BR SCT004 OVC017 05/05 A3016 RMK SF3SC5 SLP213=

CYVR;2006-12-20 02:50;SPECI CYVR 200250Z 08007KT 4SM -RA BR SCT004 BKN020 OVC053 06/ RMK SF3SC4SC1=

CYVR;2006-12-20 03:00;METAR CYVR 200300Z 07009KT 4SM -RA BR SCT004 BKN020 BKN040 OVC055 06/06 A3014 RMK SF3SC3SC1SC1 SLP207=

CYVR;2006-12-20 03:21;SPECI CYVR 200321Z 08007KT 8SM FEW004 SCT020 BKN041 OVC055 06/ RMK SF2SC2SC3SC1=

CYVR;2006-12-20 04:00;METAR CYVR 200400Z 10005KT 8SM -SHRA FEW005 SCT015 BKN035 OVC050 06/06 A3013 RMK SF2SC2SC4SC1 SLP203=

CYVR;2006-12-20 04:25;SPECI CYVR 200425Z 10004KT 8SM FEW004 SCT015 BKN038 OVC050 06/ RMK SF2SC2SC4SC1=

CYVR;2006-12-20 05:00;METAR CYVR 200500Z 09009KT 8SM FEW005 SCT035 BKN045 OVC070 06/06 A3011 RMK SF2SC2SC2AC2 SLP197=

CYVR;2006-12-20 06:00;METAR CYVR 200600Z 10007KT 15SM FEW006 SCT040 BKN055 OVC075 06/06 A3010 RMK SF1SC2SC2AC2 SLP193=

CYVR;2006-12-20 07:00;METAR CYVR 200700Z 11008KT 15SM FEW006 SCT030 BKN070 OVC200 05/05 A3009 RMK SF1SC2AC3CI2 SLP189=

CYVR;2006-12-20 08:00;METAR CYVR 200800Z 16007KT 15SM FEW008 BKN040 BKN070 OVC200 06/05 A3011 RMK SF1SC5AC1CI2 SLP196=

CYVR;2006-12-20 09:00;METAR CYVR 200900Z 11005KT 15SM FEW010 BKN040 BKN070 OVC210 05/05 A3010 RMK SF1SC5AC2CI1 SLP193=

CYVR;2006-12-20 10:00;METAR CYVR 201000Z 10008KT 12SM FEW010 SCT040 BKN060 OVC200 06/05 A3010 RMK SF1SC2SC3CI2 SLP194=

CYVR;2006-12-20 11:00;METAR CYVR 201100Z 10007KT 12SM -SHRA FEW010 SCT040 BKN062 OVC100 06/05 A3013 RMK SF1SC2SC4AC1 SLP202=

CYVR;2006-12-20 12:00;METAR CYVR 201200Z 08011KT 8SM -RA FEW011 BKN049 OVC070 07/05 A3011 RMK SF1SC5AC2 SLP196=

CYVR;2006-12-20 13:00;METAR CYVR 201300Z 09013KT 12SM -SHRA FEW011 BKN047 OVC070 07/04 A3009 RMK SF1SC6AC2 SLP188=

CYVR;2006-12-20 14:00;METAR CYVR 201400Z 09013G20KT 15SM -SHRA FEW015 BKN050 BKN090 OVC150 07/04 A3006 RMK SF1SC4AC2AC2 SLP179=

CYVR;2006-12-20 14:20;SPECI CYVR 201420Z 10015KT 15SM FEW015 BKN055 BKN090 OVC150 07/ RMK SF1SC5AC1AC2=

CYVR;2006-12-20 15:00;METAR CYVR 201500Z 10010KT 15SM FEW020 BKN056 OVC090 07/04 A3009 RMK SC2SC6AC1 SLP188=

CYVR;2006-12-20 16:00;METAR CYVR 201600Z 12017KT 15SM BKN031 BKN054 OVC071 08/04 A3009 RMK SC5SC2AC1 SLP190=

CYVR;2006-12-20 16:24;SPECI CYVR 201624Z 13018KT 10SM -SHRA SCT035 BKN056 OVC070 07/ RMK SC4SC3AC1=

CYVR;2006-12-20 17:00;METAR CYVR 201700Z 10009G15KT 10SM -RA SCT032 BKN054 OVC070 07/05 A3008 RMK SC3SC4AC1 SLP187=

CYVR;2006-12-20 18:00;METAR CYVR 201800Z 09008KT 8SM -RA SCT035 OVC048 07/05 A3007 RMK SC3SC5 SLP184=

CYVR;2006-12-20 19:00;METAR CYVR 201900Z 07010KT 10SM -RA FEW033 BKN044 OVC066 07/06 A3004 RMK SC1SC4AC3 SLP171=

CYVR;2006-12-20 19:30;SPECI CYVR 201930Z 08010KT 15SM FEW044 BKN062 OVC090 07/ RMK SC2SC5AC1=

CYVR;2006-12-20 20:00;METAR CYVR 202000Z 09008KT 15SM FEW044 BKN069 OVC090 08/06 A3001 RMK SC2AC6AC1 SLP162=

CYVR;2006-12-20 21:00;METAR CYVR 202100Z 10015KT 15SM -RA FEW040 BKN057 OVC080 08/05 A2998 RMK SC2SC4AC2 SLP151=

CYVR;2006-12-20 22:00;METAR CYVR 202200Z 11013KT 15SM -RA SCT042 BKN058 OVC076 07/06 A2996 RMK SC3SC3AC2 SLP144=

CYVR;2006-12-20 23:00;METAR CYVR 202300Z 10011G16KT 12SM -RA BKN045 OVC062 07/06 A2994 RMK SC5SC3 SLP139=

CYVR;2006-12-21 00:00;METAR CYVR 210000Z 10015KT 12SM -RA SCT042 BKN066 OVC090 07/05 A2991 RMK SC3AC2AC2 SLP128=

CYVR;2006-12-21 01:00;METAR CYVR 210100Z 10014KT 15SM -RA FEW040 SCT066 OVC084 07/05 A2989 RMK SC2AC2AC4 SLP123=

CYVR;2006-12-21 02:00;METAR CYVR 210200Z 09013KT 15SM -RA FEW040 SCT070 BKN091 OVC130 07/05 A2985 RMK SC1AC2AC4AC1 PCPN VRY LGT SLP107=

CYVR;2006-12-21 02:20;SPECI CYVR 210220Z 09014KT 15SM FEW040 SCT070 BKN090 OVC130 08/ RMK SC1AC2AC3AC2=

CYVR;2006-12-21 03:00;METAR CYVR 210300Z 09015KT 15SM FEW040 SCT090 BKN130 OVC170 08/05 A2975 RMK SC1AC2AC2AC2 PRESFR SLP075=

CYVR;2006-12-21 04:00;METAR CYVR 210400Z 11014KT 15SM BKN041 BKN120 OVC170 08/05 A2970 RMK SC5AC2AC2 SLP059=

CYVR;2006-12-21 04:32;SPECI CYVR 210432Z 12015G21KT 15SM -RA BKN040 BKN120 OVC170 08/ RMK SC6AC2AC1=

CYVR;2006-12-21 05:00;METAR CYVR 210500Z 10020G25KT 15SM -RA BKN030 BKN056 OVC120 07/06 A2965 RMK SC5SC2AC2 SLP042=

CYVR;2006-12-21 06:00;METAR CYVR 210600Z 10020G28KT 15SM SCT020 BKN040 OVC070 07/06 A2961 RMK SC4SC2AC2 SLP028=

CYVR;2006-12-21 07:00;METAR CYVR 210700Z 10015KT 15SM -RA FEW020 BKN054 OVC080 07/07 A2962 RMK SC2SC3AC2 SLP030=

CYVR;2006-12-21 08:00;METAR CYVR 210800Z 13016KT 15SM -RA SCT020 BKN060 OVC080 08/07 A2964 RMK SC3SC3AC2 SLP037=

CYVR;2006-12-21 09:00;METAR CYVR 210900Z 15020KT 15SM -RA OVC030 09/06 A2966 RMK SC8 SLP045=

CYVR;2006-12-21 09:47;SPECI CYVR 210947Z 14017G22KT 15SM FEW050 BKN070 09/ RMK SC2AC4=

CYVR;2006-12-21 10:00;METAR CYVR 211000Z 14016G24KT 15SM FEW050 SCT090 BKN140 09/06 A2970 RMK SC2AC2AC2 SLP057=

CYVR;2006-12-21 10:09;SPECI CYVR 211009Z 14016KT 15SM -SHRA SCT050 BKN090 BKN140 09/ RMK SC3AC2AC2=

CYVR;2006-12-21 11:00;METAR CYVR 211100Z 14016G24KT 15SM -SHRA SCT050 BKN070 BKN110 08/07 A2974 RMK SC3AC2AC2 SLP071=

CYVR;2006-12-21 12:00;METAR CYVR 211200Z 17015G24KT 15SM SCT045 BKN090 BKN150 08/06 A2977 RMK SC3AC2AC1 SLP080=

CYVR;2006-12-21 12:11;SPECI CYVR 211211Z 18018G26KT 15SM -SHRA SCT045 BKN090 BKN140 09/ RMK SC3AC3AC1=

CYVR;2006-12-21 13:00;METAR CYVR 211300Z 18017KT 15SM -SHRA SCT040 BKN090 OVC140 08/05 A2980 RMK SC3AC2AC2 SLP091=

CYVR;2006-12-21 14:00;METAR CYVR 211400Z 20014KT 15SM SCT040 BKN090 OVC180 08/04 A2984 RMK SC3AC2AC3 SLP104=

CYVR;2006-12-21 14:23;SPECI CYVR 211423Z 20015KT 15SM -SHRA SCT040 BKN060 OVC180 08/ RMK SC4SC2AC2=

CYVR;2006-12-21 15:00;METAR CYVR 211500Z 19010G15KT 15SM -SHRA BKN035 OVC100 08/04 A2988 RMK SC6AC2 SLP117=

CYVR;2006-12-21 16:00;METAR CYVR 211600Z 18009G16KT 15SM FEW025 BKN065 OVC100 07/04 A2991 RMK SF1SC5AC2 SLP129=

CYVR;2006-12-21 17:00;METAR CYVR 211700Z 23016G26KT 20SM FEW030 BKN065 BKN100 08/04 A2996 RMK SF2SC4AC1 SLP144=

CYVR;2006-12-21 18:00;METAR CYVR 211800Z 19007KT 20SM FEW030 BKN055 BKN100 08/04 A2999 RMK SF2SC3AC1 SLP155=

CYVR;2006-12-21 19:00;METAR CYVR 211900Z 15006KT 20SM FEW035 BKN053 BKN075 09/05 A2999 RMK SF2SC4AC2 SLP157=

CYVR;2006-12-21 20:00;METAR CYVR 212000Z 18007KT 15SM FEW030 BKN053 OVC065 09/04 A2999 RMK SF2SC5SC2 SLP156=

CYVR;2006-12-21 21:00;METAR CYVR 212100Z 27010G15KT 15SM -RA BKN025 OVC055 07/04 A2998 RMK SC5SC3 SLP151=

CYVR;2006-12-21 22:00;METAR CYVR 212200Z 23007KT 12SM -RA BKN022 OVC030 07/04 A3000 RMK SC6SC2 SLP158=

CYVR;2006-12-21 23:00;METAR CYVR 212300Z 36003KT 10SM -RA SCT022 BKN028 OVC035 06/05 A3000 RMK SC3SC3SC2 SLP159=

CYVR;2006-12-22 00:00;METAR CYVR 220000Z 04006KT 15SM -SHRA FEW020 BKN034 BKN055 BKN110 06/05 A3000 RMK SF2SC4SC1AC1 SLP160=

CYVR;2006-12-22 00:20;SPECI CYVR 220020Z 07008KT 15SM FEW020 SCT035 BKN110 BKN190 05/ RMK SF1SC2AC2AC2=

CYVR;2006-12-22 01:00;METAR CYVR 220100Z 08008KT 15SM FEW020 SCT060 BKN180 05/04 A3001 RMK SF1SC2AC2 SLP161=

CYVR;2006-12-22 02:00;METAR CYVR 220200Z 09008KT 15SM FEW020 BKN065 OVC110 05/04 A3003 RMK SF1SC5AC2 SLP168=

CYVR;2006-12-22 03:00;METAR CYVR 220300Z 10009KT 15SM FEW020 BKN065 OVC120 05/04 A3004 RMK SF2SC4AC2 SLP171=

CYVR;2006-12-22 04:00;METAR CYVR 220400Z 09007KT 15SM FEW025 BKN060 OVC160 04/04 A3005 RMK SF2SC5AC2 SLP175=

CYVR;2006-12-22 05:00;METAR CYVR 220500Z 11006KT 15SM FEW020 BKN060 BKN160 04/04 A3006 RMK SF1SC4AC1 SLP181=

CYVR;2006-12-22 06:00;METAR CYVR 220600Z 16006KT 15SM FEW020 SCT074 BKN160 05/04 A3009 RMK SF1AC2AC1 SLP188=

CYVR;2006-12-22 07:00;METAR CYVR 220700Z 19006KT 15SM FEW025 BKN072 BKN160 06/04 A3011 RMK SF2AC4AC1 SLP196=

CYVR;2006-12-22 08:00;METAR CYVR 220800Z 21006KT 15SM FEW025 BKN057 OVC160 04/03 A3013 RMK SF2SC5AC1 SLP204=

CYVR;2006-12-22 09:00;METAR CYVR 220900Z 36004KT 15SM FEW025 BKN058 05/03 A3016 RMK SF2SC5 SLP212=

CYVR;2006-12-22 10:00;METAR CYVR 221000Z 26004KT 15SM FEW057 03/02 A3018 RMK SC1 SLP219=

CYVR;2006-12-22 11:00;METAR CYVR 221100Z 15002KT 15SM FEW059 04/03 A3020 RMK SC1 SLP228=

CYVR;2006-12-22 12:00;METAR CYVR 221200Z 09005KT 15SM FEW059 02/02 A3022 RMK SC1 SLP234=

CYVR;2006-12-22 13:00;METAR CYVR 221300Z 11006KT 15SM FEW057 02/02 A3023 RMK SC1 SLP237=

CYVR;2006-12-22 15:00;METAR CYVR 221500Z 09007KT 15SM FEW055 00/M00 A3029 RMK SC2 SLP257=

CYVR;2006-12-22 15:14;SPECI CYVR 221514Z 09005KT 15SM R08L/5500V6000FT/D MIFG FEW055 01/ RMK SC2=

CYVR;2006-12-22 16:10;SPECI CYVR 221610Z 09006KT 15SM FEW025 SCT055 BKN220 01/ RMK SF2SC1CS0=

CYVR;2006-12-22 17:00;METAR CYVR 221700Z 08004KT 15SM FEW025 BKN220 02/02 A3036 RMK SF1CS1 SLP281=

CYVR;2006-12-22 18:00;METAR CYVR 221800Z 09007KT 20SM FEW020 OVC220 04/03 A3036 RMK SC1CS4 SLP281=

CYVR;2006-12-22 19:00;METAR CYVR 221900Z 09011KT 15SM FEW017 BKN035 OVC180 05/04 A3035 RMK SC2SC3AS3 SLP276=

CYVR;2006-12-22 20:00;METAR CYVR 222000Z 12014KT 15SM FEW020 BKN037 OVC080 06/04 A3031 RMK SC2SC5AC2 SLP265=

CYVR;2006-12-22 21:00;METAR CYVR 222100Z 14008KT 15SM SCT035 OVC041 06/04 A3032 RMK SC3SC5 SLP268=

CYVR;2006-12-22 22:00;METAR CYVR 222200Z 14006KT 15SM FEW023 BKN041 OVC230 06/03 A3031 RMK SF2SC4CS2 SLP264=

CYVR;2006-12-22 23:00;METAR CYVR 222300Z 12013KT 15SM BKN024 OVC220 06/03 A3031 RMK SC5CS3 SLP263=

CYVR;2006-12-23 00:00;METAR CYVR 230000Z 09015KT 15SM SCT025 OVC120 06/03 A3027 RMK SC3AS5 SLP249=

CYVR;2006-12-23 01:00;METAR CYVR 230100Z 07010KT 15SM FEW035 OVC130 05/03 A3023 RMK SC2AS6 SLP238=

CYVR;2006-12-23 02:00;METAR CYVR 230200Z 09012KT 15SM FEW035 OVC130 05/02 A3018 RMK SC2AS6 SLP220=

CYVR;2006-12-23 03:00;METAR CYVR 230300Z 09006G15KT 15SM FEW038 OVC100 05/01 A3016 RMK SC1AS7 SLP212=

CYVR;2006-12-23 04:00;METAR CYVR 230400Z 09008KT 15SM FEW038 OVC100 04/03 A3011 RMK SC1AS7 SLP197=

CYVR;2006-12-23 05:00;METAR CYVR 230500Z 10007KT 15SM OVC100 04/02 A3009 RMK AS8 SLP189=

CYVR;2006-12-23 06:00;METAR CYVR 230600Z 13007KT 15SM OVC080 04/02 A3006 RMK AS8 SLP181=

CYVR;2006-12-23 07:00;METAR CYVR 230700Z 11006KT 15SM FEW050 OVC062 05/02 A3005 RMK SF2ST6 SLP175=

CYVR;2006-12-23 07:27;SPECI CYVR 230727Z 14006KT 15SM -SHRA FEW050 OVC063 04/ RMK SF2ST6=

CYVR;2006-12-23 08:00;METAR CYVR 230800Z 10013KT 10SM -SHRA SCT021 OVC042 05/01 A3004 RMK SF3SC5 SLP171=

CYVR;2006-12-23 09:00;METAR CYVR 230900Z 12018G25KT 10SM -RA SCT016 OVC022 05/02 A3001 RMK SF3SC5 SLP162=

CYVR;2006-12-23 10:00;METAR CYVR 231000Z 09019KT 8SM -RA BKN017 OVC022 04/02 A2997 RMK SF5SC3 SLP150=

CYVR;2006-12-23 10:46;SPECI CYVR 231046Z 09016G21KT 8SM -RA SCT009 BKN018 OVC026 03/ RMK SF3SF2SC2=

CYVR;2006-12-23 11:00;METAR CYVR 231100Z 08013KT 8SM -RA FEW009 BKN016 OVC030 02/02 A2994 RMK SF2SF2SC3 SLP139=

CYVR;2006-12-23 12:00;METAR CYVR 231200Z 11006KT 8SM -RA FEW009 BKN022 OVC037 02/01 A2991 RMK SF2SF3SC3 SLP127=

CYVR;2006-12-23 13:00;METAR CYVR 231300Z 11005KT 8SM -RA FEW009 BKN020 OVC030 02/02 A2988 RMK SF2SF3SC3 SLP117=

CYVR;2006-12-23 14:00;METAR CYVR 231400Z 13005KT 8SM -RA FEW010 BKN021 OVC030 02/02 A2988 RMK SF1SF4SC3 SLP117=

CYVR;2006-12-23 16:00;METAR CYVR 231600Z 13004KT 10SM -RA FEW022 BKN027 OVC035 03/02 A2992 RMK SF1SC6SC2 SLP132=

CYVR;2006-12-23 17:00;METAR CYVR 231700Z 11005KT 8SM -SHRA FEW006 BKN018 OVC025 03/02 A2996 RMK SF2SC5SC1 SLP147=

CYVR;2006-12-23 17:50;SPECI CYVR 231750Z 11006KT 6SM -SHRA BR BKN017 OVC025 03/ RMK SC6SC2=

CYVR;2006-12-23 18:00;METAR CYVR 231800Z 10006KT 6SM -SHRA BR BKN017 OVC025 03/03 A3000 RMK SC6SC2 SLP158=

CYVR;2006-12-23 18:44;SPECI CYVR 231844Z 09007KT 7SM -RA BKN014 OVC023 03/ RMK SC6SC2=

CYVR;2006-12-23 19:00;METAR CYVR 231900Z 08006KT 10SM BKN014 OVC018 04/03 A3001 RMK SC6SC2 SLP163=

CYVR;2006-12-23 20:00;METAR CYVR 232000Z 08006KT 15SM BKN010 OVC013 04/03 A3003 RMK SC7SC1 SLP169=

CYVR;2006-12-23 21:00;METAR CYVR 232100Z 08008KT 15SM SCT008 OVC013 04/03 A3006 RMK SC3SC4 SLP178=

CYVR;2006-12-23 21:50;SPECI CYVR 232150Z 08005KT 15SM SCT013 BKN019 05/ RMK SC3SC3=

CYVR;2006-12-23 22:00;METAR CYVR 232200Z 09004KT 15SM SCT013 BKN019 05/04 A3010 RMK SC3SC3 SLP194=

CYVR;2006-12-23 23:00;METAR CYVR 232300Z 11004KT 20SM FEW019 SCT220 05/04 A3014 RMK SF2CI0 SLP207=

CYVR;2006-12-24 00:00;METAR CYVR 240000Z 12004KT 20SM BKN019 BKN220 04/03 A3018 RMK SC2CI1 SLP221=

CYVR;2006-12-24 01:00;METAR CYVR 240100Z 09002KT 15SM FEW020 OVC062 04/03 A3022 RMK SC2SC6 SLP233=

CYVR;2006-12-24 02:00;METAR CYVR 240200Z 00000KT 15SM FEW020 BKN062 04/03 A3025 RMK SC2SC3 SLP243=

CYVR;2006-12-24 03:00;METAR CYVR 240300Z 11006KT 15SM FEW020 SCT060 03/02 A3024 RMK SF1SC2 SLP242=

CYVR;2006-12-24 04:00;METAR CYVR 240400Z 09003KT 15SM FEW016 BKN060 02/01 A3026 RMK SF2SC2 SLP247=

CYVR;2006-12-24 04:11;SPECI CYVR 240411Z 09004KT 15SM SCT012 OVC017 02/ RMK SF3SF4=

CYVR;2006-12-24 05:00;METAR CYVR 240500Z 00000KT 12SM SCT010 OVC015 03/03 A3031 RMK SF4SF4 SLP263=

CYVR;2006-12-24 06:00;METAR CYVR 240600Z 00000KT 12SM SCT010 OVC015 04/04 A3034 RMK SF4SF4 SLP275=

CYVR;2006-12-24 07:00;METAR CYVR 240700Z 08008KT 15SM SCT010 BKN016 OVC080 04/03 A3033 RMK SF3SF4AC1 SLP270=

CYVR;2006-12-24 08:00;METAR CYVR 240800Z 08010KT 15SM FEW010 SCT016 OVC024 05/04 A3035 RMK SF1SF2SC5 SLP277=

CYVR;2006-12-24 09:00;METAR CYVR 240900Z 08010KT 15SM FEW015 BKN026 OVC038 04/04 A3033 RMK SF2SC3SC3 SLP272=

CYVR;2006-12-24 10:00;METAR CYVR 241000Z 08005KT 15SM FEW041 SCT050 BKN220 04/03 A3033 RMK SF1SC2CI2 SLP270=

CYVR;2006-12-24 11:00;METAR CYVR 241100Z 08009KT 15SM FEW045 SCT200 04/02 A3026 RMK SF1CS2 PRESFR SLP247=

CYVR;2006-12-24 12:00;METAR CYVR 241200Z 10006KT 15SM FEW045 OVC180 03/02 A3025 RMK SF1AS6 SLP244=

CYVR;2006-12-24 13:00;METAR CYVR 241300Z 10009KT 15SM OVC190 03/02 A3021 RMK AS8 SLP231=

CYVR;2006-12-24 14:00;METAR CYVR 241400Z 10010KT 15SM OVC190 03/02 A3020 RMK AS8 SLP226=

CYVR;2006-12-24 17:00;METAR CYVR 241700Z 09012KT 30SM BKN064 OVC073 04/01 A3005 RMK SC5AC3 SLP175=

CYVR;2006-12-24 18:00;METAR CYVR 241800Z 11013KT 30SM SCT075 BKN100 OVC120 05/01 A2999 RMK AC3AC3AC2 PRESFR SLP156=

CYVR;2006-12-24 19:00;METAR CYVR 241900Z 12014KT 30SM BKN055 OVC065 06/01 A2997 RMK SC6SC2 SLP150=

CYVR;2006-12-24 19:40;SPECI CYVR 241940Z 13018G28KT 15SM -RA BKN043 OVC055 07/ RMK SC6SC2=

CYVR;2006-12-24 20:00;METAR CYVR 242000Z 13019G35KT 15SM -RA BKN035 OVC050 08/M00 A2993 RMK SC6SC2 SLP137=

CYVR;2006-12-24 21:00;METAR CYVR 242100Z 10018G28KT 6SM -RA BKN018 OVC023 07/02 A2990 RMK SC6SC2 SLP126=

CYVR;2006-12-24 21:54;SPECI CYVR 242154Z 10022G33KT 7SM -RA SCT018 OVC040 05/ RMK SC4SC4=

CYVR;2006-12-24 22:00;METAR CYVR 242200Z 10023G33KT 8SM -RA SCT018 OVC035 05/03 A2983 RMK SC4SC4 PRESFR SLP100=

CYVR;2006-12-24 23:00;METAR CYVR 242300Z 09016KT 6SM -RA OVC037 05/04 A2978 RMK SC8 SLP083=

CYVR;2006-12-25 00:00;METAR CYVR 250000Z 10015G20KT 6SM -RA OVC028 05/05 A2975 RMK SC8 /R10/ SLP073=

CYVR;2006-12-25 00:17;SPECI CYVR 250017Z 10014G20KT 7SM -RA SCT028 OVC034 05/ RMK SC3SC5=

CYVR;2006-12-25 01:00;METAR CYVR 250100Z 09014G19KT 8SM -RA BKN027 OVC041 06/05 A2972 RMK SC6SC2 SLP065=

CYVR;2006-12-25 01:39;SPECI CYVR 250139Z 10011G16KT 8SM -RA BKN013 OVC020 06/ RMK SC7SC1=

CYVR;2006-12-25 02:00;METAR CYVR 250200Z 10011G16KT 8SM -RA BKN012 OVC020 06/06 A2972 RMK SC7SC1 SLP065=

CYVR;2006-12-25 03:00;METAR CYVR 250300Z 20009KT 15SM SCT012 BKN130 OVC160 08/07 A2975 RMK SC3AC2AC2 SLP074=

CYVR;2006-12-25 03:08;SPECI CYVR 250308Z 21011KT 8SM -RA SCT013 BKN030 OVC045 08/ RMK SC3SC2SC2=

CYVR;2006-12-25 04:00;METAR CYVR 250400Z 20012KT 8SM -RA FEW015 BKN035 OVC050 07/06 A2977 RMK SF2SC3SC3 SLP081=

CYVR;2006-12-25 05:00;METAR CYVR 250500Z 17008KT 12SM FEW030 BKN080 OVC150 07/06 A2978 RMK SC2AC3AC3 SLP086=

CYVR;2006-12-25 06:00;METAR CYVR 250600Z 14007KT 12SM FEW015 FEW030 BKN120 OVC210 07/05 A2982 RMK SF1SC2AC4CS2 SLP097=

CYVR;2006-12-25 07:00;METAR CYVR 250700Z 11005KT 12SM FEW025 BKN051 OVC075 06/05 A2983 RMK SF2SC4AC2 SLP103=

CYVR;2006-12-25 07:11;SPECI CYVR 250711Z 10003KT 12SM -RA FEW025 BKN050 OVC065 06/ RMK SF2SC4SC2=

CYVR;2006-12-25 07:54;SPECI CYVR 250754Z 11002KT 12SM FEW018 SCT035 OVC083 06/ RMK SF2SC2AC5=

CYVR;2006-12-25 08:00;METAR CYVR 250800Z 22002KT 12SM FEW015 SCT042 OVC083 06/05 A2986 RMK SF2SC2AC4 SLP113=

CYVR;2006-12-25 08:29;SPECI CYVR 250829Z 24007KT 12SM -SHRA FEW015 SCT030 OVC061 07/ RMK SF2SC2SC4 PCPN VRY LGT=

CYVR;2006-12-25 08:48;SPECI CYVR 250848Z 22009G16KT 12SM FEW017 BKN073 BKN120 OVC220 07/ RMK SF2AC3AC2CS1=

CYVR;2006-12-25 09:00;METAR CYVR 250900Z 23006KT 12SM FEW017 BKN073 BKN120 OVC220 07/04 A2989 RMK SF2AC3AC2CS1 SLP121=

CYVR;2006-12-25 11:00;METAR CYVR 251100Z 10005KT 12SM FEW025 BKN100 04/03 A2994 RMK SF2AC3 SLP138=

CYVR;2006-12-25 12:00;METAR CYVR 251200Z 11007KT 12SM FEW035 SCT065 OVC090 06/05 A2996 RMK SF2SC2AC3 SLP146=

CYVR;2006-12-25 12:39;SPECI CYVR 251239Z 14010KT 12SM -SHRA FEW015 BKN055 OVC090 06/ RMK SF2SC3AC2 PCPN VRY LGT=

CYVR;2006-12-25 13:00;METAR CYVR 251300Z 16007KT 12SM -RA FEW015 BKN026 OVC047 07/06 A2996 RMK SF2SC3SC2 SLP146=

CYVR;2006-12-25 13:38;SPECI CYVR 251338Z 18010KT 12SM FEW019 BKN050 OVC170 07/ RMK SF2SC2AC3=

CYVR;2006-12-25 14:00;METAR CYVR 251400Z 18006KT 12SM FEW022 BKN067 OVC150 07/05 A2996 RMK SF2AC3AC2 SLP146=

CYVR;2006-12-25 15:00;METAR CYVR 251500Z 14004KT 15SM FEW030 BKN056 OVC150 07/04 A2998 RMK SF2SC5AC1 SLP154=

CYVR;2006-12-25 15:15;SPECI CYVR 251515Z 15004KT 15SM -SHRA FEW030 SCT045 BKN058 OVC150 07/ RMK SF2SC2SC2AC1=

CYVR;2006-12-25 15:50;SPECI CYVR 251550Z 18006KT 20SM FEW015 SCT030 BKN055 BKN150 06/ RMK SC2SC2SC2AC1 TCU EMBD / VIS LWR E=

CYVR;2006-12-25 16:00;METAR CYVR 251600Z 15005KT 20SM SCT013 SCT030 BKN055 BKN150 06/05 A3000 RMK SC3SC1SC2AC1 TCU EMBD / VIS LWR NE SLP160=

CYVR;2006-12-25 17:00;METAR CYVR 251700Z 11005KT 20SM FEW015 SCT030 BKN075 BKN110 06/04 A3004 RMK SF1SC2AC2AC1 SLP172=

CYVR;2006-12-25 18:00;METAR CYVR 251800Z 13008KT 20SM FEW020 FEW030 BKN066 BKN140 07/05 A3005 RMK SC1SC2AC2AC2 SLP177=

CYVR;2006-12-25 19:00;METAR CYVR 251900Z 13009KT 20SM FEW020 BKN040 BKN070 BKN140 08/05 A3005 RMK SC1SC4AC1AC1 SLP177=

CYVR;2006-12-25 20:00;METAR CYVR 252000Z 14011KT 15SM FEW020 BKN044 BKN070 08/06 A3004 RMK SC2SC5AC1 SLP171=

CYVR;2006-12-25 21:00;METAR CYVR 252100Z 14013G20KT 15SM FEW015 SCT040 BKN060 BKN080 08/05 A3002 RMK SC1SC2SC3AC1 SLP167=

CYVR;2006-12-25 22:00;METAR CYVR 252200Z 14009KT 15SM FEW020 SCT040 BKN100 BKN140 08/05 A3001 RMK SC1SC3AC2AC1 SLP164=

CYVR;2006-12-25 23:00;METAR CYVR 252300Z 14009KT 15SM FEW025 SCT040 BKN082 OVC120 08/05 A3000 RMK SC1SC2AC4AC1 SLP160=

CYVR;2006-12-26 00:00;METAR CYVR 260000Z 22004KT 15SM FEW025 BKN062 OVC080 08/05 A3001 RMK SC2SC5AC2 SLP162=

CYVR;2006-12-26 01:00;METAR CYVR 260100Z 18004KT 15SM FEW025 BKN061 OVC080 08/05 A3001 RMK SC2SC5AC2 SLP162=

CYVR;2006-12-26 02:00;METAR CYVR 260200Z 12006KT 15SM FEW025 SCT060 BKN071 OVC100 08/05 A2999 RMK SC2SC2AC4AC1 SLP157=

CYVR;2006-12-26 03:00;METAR CYVR 260300Z 11006KT 15SM FEW020 SCT064 OVC076 07/06 A3000 RMK SC2SC2AC5 SLP158=

CYVR;2006-12-26 04:00;METAR CYVR 260400Z 16002KT 15SM FEW016 BKN064 OVC078 08/06 A2999 RMK SC2SC2AC3 SLP156=

CYVR;2006-12-26 05:00;METAR CYVR 260500Z 13007KT 15SM -SHRA BKN016 OVC063 07/06 A2998 RMK SC6SC2 SLP151=

CYVR;2006-12-26 06:00;METAR CYVR 260600Z 15006KT 15SM -SHRA SCT016 BKN038 OVC074 07/06 A2998 RMK SC3SC3AC2 PCPN VRY LGT SLP153=

CYVR;2006-12-26 06:25;SPECI CYVR 260625Z 14007KT 15SM FEW017 BKN043 OVC069 07/ RMK SC2SC3AC2=

CYVR;2006-12-26 07:00;METAR CYVR 260700Z 14006KT 15SM FEW017 BKN046 OVC070 07/06 A2998 RMK SC2SC4AC2 SLP153=

CYVR;2006-12-26 08:00;METAR CYVR 260800Z 10007KT 15SM FEW018 BKN042 OVC061 06/06 A2997 RMK SC2SC3SC3 SLP150=

CYVR;2006-12-26 09:00;METAR CYVR 260900Z 09006KT 15SM FEW020 SCT051 BKN090 OVC180 05/05 A2996 RMK SC1SC2AC4AC1 SLP146=

CYVR;2006-12-26 10:00;METAR CYVR 261000Z 09005KT 15SM FEW020 SCT067 OVC180 05/05 A2996 RMK SC1AC2AC5 SLP144=

CYVR;2006-12-26 11:00;METAR CYVR 261100Z 08006KT 15SM FEW020 BKN063 BKN090 OVC170 05/05 A2996 RMK SC1SC4AC2AC2 SLP146=

CYVR;2006-12-26 12:00;METAR CYVR 261200Z 05006KT 15SM FEW020 BKN058 OVC170 05/05 A2994 RMK SC1SC6AC1 SLP139=

CYVR;2006-12-26 13:00;METAR CYVR 261300Z 07006KT 15SM FEW030 BKN058 OVC180 05/04 A2989 RMK SC1SC4AC3 SLP123=

CYVR;2006-12-26 14:00;METAR CYVR 261400Z 09003KT 15SM FEW020 BKN062 OVC180 05/04 A2986 RMK SC2SC4AC2 SLP111=

CYVR;2006-12-26 15:00;METAR CYVR 261500Z 03003KT 20SM SCT020 BKN057 OVC180 05/04 A2983 RMK SC3SC3AC1 SLP103=

CYVR;2006-12-26 16:00;METAR CYVR 261600Z 34002KT 20SM FEW025 SCT055 BKN140 OVC180 04/04 A2982 RMK SC2SC2AC2AC1 SLP099=

CYVR;2006-12-26 17:00;METAR CYVR 261700Z 35004KT 20SM FEW025 FEW050 BKN130 OVC180 04/04 A2980 RMK SC1SC2AS4AC1 SLP090=

CYVR;2006-12-26 18:00;METAR CYVR 261800Z 00000KT 20SM FEW025 FEW050 BKN130 05/04 A2979 RMK SC1SC2AS5 SLP088=

CYVR;2006-12-26 19:00;METAR CYVR 261900Z 00000KT 20SM FEW020 FEW050 BKN140 05/04 A2977 RMK SC1SC1AS6 SLP080=

CYVR;2006-12-26 20:00;METAR CYVR 262000Z 32006KT 20SM FEW020 BKN140 06/05 A2971 RMK SC1AS6 PRESFR SLP060=

CYVR;2006-12-26 21:00;METAR CYVR 262100Z 33010KT 20SM FEW025 BKN090 BKN140 07/03 A2966 RMK SC1AC5AS2 SLP043=

CYVR;2006-12-26 22:00;METAR CYVR 262200Z 29018KT 20SM FEW015 BKN080 OVC150 06/04 A2964 RMK SC1AC6AS2 SLP038=

CYVR;2006-12-26 23:00;METAR CYVR 262300Z 31018KT 15SM FEW015 FEW040 BKN075 OVC120 06/04 A2962 RMK SC1SC2AC4AC2 SLP029=

CYVR;2006-12-27 00:00;METAR CYVR 270000Z 30014KT 15SM FEW015 SCT045 BKN060 OVC080 06/04 A2962 RMK SC1SC3SC2AC2 SLP031=

CYVR;2006-12-27 00:37;SPECI CYVR 270037Z 31015KT 15SM -SHRA FEW015 SCT030 BKN051 OVC070 06/ RMK SC1SC3SC3AC1=

CYVR;2006-12-27 01:00;METAR CYVR 270100Z 30016KT 15SM -SHRA FEW015 SCT030 BKN055 OVC070 06/04 A2962 RMK SC1SC2SC4AC1 SLP029=

CYVR;2006-12-27 02:00;METAR CYVR 270200Z 31014KT 15SM -RA FEW015 SCT035 BKN055 OVC070 06/05 A2960 RMK SC1SC2SC4AC1 SLP023=

CYVR;2006-12-27 02:48;SPECI CYVR 270248Z 30016KT 15SM FEW015 FEW035 BKN053 OVC090 05/ RMK SC1SC2SC3AC2=

CYVR;2006-12-27 03:00;METAR CYVR 270300Z 31018KT 15SM FEW015 FEW035 SCT055 OVC090 05/04 A2958 RMK SC1SC2SC2AC4 SLP017=

CYVR;2006-12-27 04:00;METAR CYVR 270400Z 31018KT 15SM FEW035 FEW060 BKN084 OVC110 05/04 A2957 RMK SC1SC2AC3AS1 SLP012=

CYVR;2006-12-27 05:00;METAR CYVR 270500Z 31018G24KT 15SM FEW035 BKN074 OVC100 05/04 A2957 RMK SC1AC5AS2 SLP013=

CYVR;2006-12-27 06:00;METAR CYVR 270600Z 31021KT 15SM FEW035 BKN078 OVC110 05/04 A2957 RMK SC1AC5AS2 SLP014=

CYVR;2006-12-27 07:00;METAR CYVR 270700Z 30022G28KT 15SM FEW035 BKN076 OVC100 05/03 A2957 RMK SC1AC6AC2 SLP012=

CYVR;2006-12-27 08:00;METAR CYVR 270800Z 31022G29KT 15SM BKN075 OVC100 05/03 A2957 RMK AC6AS2 SLP013=

CYVR;2006-12-27 09:00;METAR CYVR 270900Z 31026KT 15SM FEW040 BKN075 OVC100 04/02 A2958 RMK SC2AC3AS2 SLP017=

CYVR;2006-12-27 10:00;METAR CYVR 271000Z 30024G29KT 15SM FEW040 SCT075 OVC120 05/02 A2960 RMK SC2AC2AS5 SLP023=

CYVR;2006-12-27 11:00;METAR CYVR 271100Z 31021G27KT 15SM FEW035 FEW080 OVC150 04/02 A2961 RMK SC2AC1AS6 SLP028=

CYVR;2006-12-27 12:00;METAR CYVR 271200Z 30017KT 15SM FEW025 FEW070 BKN130 OVC180 04/02 A2963 RMK SC1AC2AC4AS2 SLP035=

CYVR;2006-12-27 13:00;METAR CYVR 271300Z 32014KT 15SM FEW030 FEW070 BKN130 OVC170 04/01 A2966 RMK SC1AC1AC4AS2 SLP043=

CYVR;2006-12-27 14:00;METAR CYVR 271400Z 30014KT 15SM SCT030 SCT130 BKN200 04/01 A2969 RMK SC3AC1CI2 SLP054=

CYVR;2006-12-27 15:00;METAR CYVR 271500Z 01003KT 15SM BKN022 BKN130 04/02 A2972 RMK SC6AC1 VIS LWR NE SLP066=

CYVR;2006-12-27 15:35;SPECI CYVR 271535Z 03006KT 12SM SCT011 BKN020 BKN120 05/ RMK SF3SC3AC1 LO CLD NE=

CYVR;2006-12-27 16:00;METAR CYVR 271600Z 36002KT 15SM FEW009 BKN018 BKN070 05/03 A2979 RMK SF2SC3AC2 PRESRR VIS N - SE 5 DUE LO CLD SLP089=

CYVR;2006-12-27 16:53;SPECI CYVR 271653Z 35006KT 15SM -SHRA FEW010 BKN017 BKN070 05/ RMK SF2SC4AC1 VIS N - E 5=

CYVR;2006-12-27 17:00;METAR CYVR 271700Z 34005KT 20SM -SHRA FEW010 BKN016 BKN070 05/03 A2985 RMK SF2SC4AC1 PRESRR VIS N - E 5 SLP108=

CYVR;2006-12-27 18:00;METAR CYVR 271800Z 29012KT 20SM -RA FEW011 SCT025 BKN040 BKN075 05/03 A2991 RMK SF2SC2SC2AC2 PRESRR VIS E 8 SLP129=

CYVR;2006-12-27 18:40;SPECI CYVR 271840Z 30019G25KT 20SM FEW012 SCT025 BKN073 05/ RMK SF1SC2AC4 VIS E 10=

CYVR;2006-12-27 19:00;METAR CYVR 271900Z 32015G20KT 30SM FEW012 SCT030 BKN055 BKN075 05/01 A2995 RMK SF1SC2SC2AC2 VIS E 10 SLP142=

CYVR;2006-12-27 20:00;METAR CYVR 272000Z 31016KT 30SM FEW025 SCT060 SCT100 05/02 A2998 RMK SC2SC2AC1 VIS E 15 SLP153=

CYVR;2006-12-27 21:00;METAR CYVR 272100Z 30019G24KT 30SM FEW025 FEW060 SCT120 06/02 A3001 RMK SC1SC1AC2 SLP164=

CYVR;2006-12-27 22:00;METAR CYVR 272200Z 30018G27KT 30SM FEW025 FEW080 06/01 A3004 RMK SC1AC2 SLP174=

CYVR;2006-12-27 23:00;METAR CYVR 272300Z 29023G30KT 30SM FEW030 FEW080 06/01 A3010 RMK SC1AC1 PRESRR SLP194=

CYVR;2006-12-28 00:00;METAR CYVR 280000Z 31011G16KT 30SM FEW030 FEW090 05/01 A3015 RMK SC1AC1 SLP209=

CYVR;2006-12-28 01:00;METAR CYVR 280100Z 30018KT 30SM FEW030 05/02 A3020 RMK CF1 PRESRR SLP227=

CYVR;2006-12-28 02:00;METAR CYVR 280200Z 04005KT 30SM FEW030 03/01 A3024 RMK CF1 SLP239=

CYVR;2006-12-28 03:00;METAR CYVR 280300Z 10005KT 30SM FEW030 FEW080 03/02 A3028 RMK SC1AC1 SLP253=

CYVR;2006-12-28 04:00;METAR CYVR 280400Z 03004KT 30SM FEW030 FEW080 02/01 A3032 RMK SC2AC1 SLP266=

CYVR;2006-12-28 05:00;METAR CYVR 280500Z 05005KT 30SM FEW025 FEW070 01/M00 A3036 RMK SC1AC2 SLP281=

CYVR;2006-12-28 06:00;METAR CYVR 280600Z 04003KT 20SM BKN027 01/M01 A3040 RMK SC5 SLP296=

CYVR;2006-12-28 07:00;METAR CYVR 280700Z 00000KT 15SM FEW027 01/M01 A3042 RMK SC2 SLP301=

CYVR;2006-12-28 08:00;METAR CYVR 280800Z 07007KT 15SM FEW027 00/M03 A3045 RMK SC2 SLP311=

CYVR;2006-12-28 09:00;METAR CYVR 280900Z 11007KT 15SM FEW027 M01/M02 A3047 RMK SC1 SLP318=

CYVR;2006-12-28 10:00;METAR CYVR 281000Z 00000KT 15SM FEW200 00/M01 A3051 RMK CI1 SLP331=

CYVR;2006-12-28 11:00;METAR CYVR 281100Z 01005KT 15SM FEW030 SCT200 M01/M02 A3052 RMK SC2CI1 SLP336=

CYVR;2006-12-28 12:00;METAR CYVR 281200Z 10005KT 15SM FEW026 SCT200 M02/M03 A3052 RMK SC2CI1 SLP334=

CYVR;2006-12-28 13:00;METAR CYVR 281300Z 11003KT 15SM FEW026 SCT220 M01/M03 A3053 RMK SC1CI2 SLP339=

CYVR;2006-12-28 14:00;METAR CYVR 281400Z 00000KT 15SM FEW220 M02/M03 A3055 RMK CI1 SLP344=

CYVR;2006-12-28 15:00;METAR CYVR 281500Z 09003KT 30SM FEW200 M01/M03 A3054 RMK CI1 SLP343=

CYVR;2006-12-28 16:00;METAR CYVR 281600Z 12008KT 30SM FEW020 SCT200 M01/M03 A3056 RMK SC1CI1 SLP347=

CYVR;2006-12-28 17:00;METAR CYVR 281700Z 07002KT 30SM FEW024 FEW080 SCT210 M01/M02 A3059 RMK SF1AC1CI1 SLP358=

CYVR;2006-12-28 18:00;METAR CYVR 281800Z 10005KT 30SM FEW025 SCT210 01/M01 A3059 RMK SF1CI1 SLP359=

CYVR;2006-12-28 19:00;METAR CYVR 281900Z 11005KT 30SM FEW025 FEW170 BKN210 02/M01 A3058 RMK SF1AC1CI1 SLP356=

CYVR;2006-12-28 20:00;METAR CYVR 282000Z 09006KT 30SM FEW030 BKN210 03/M02 A3055 RMK SF1CI1 SLP345=

CYVR;2006-12-28 21:00;METAR CYVR 282100Z 10004KT 30SM FEW150 BKN220 03/M02 A3051 RMK AC2CI2 SLP333=

CYVR;2006-12-28 22:00;METAR CYVR 282200Z 00000KT 30SM FEW150 SCT220 05/M02 A3050 RMK AC2CC2 SLP330=

CYVR;2006-12-28 23:00;METAR CYVR 282300Z 22005KT 30SM FEW150 SCT230 04/M02 A3049 RMK AC2CI2 SLP326=

CYVR;2006-12-29 00:00;METAR CYVR 290000Z 25002KT 30SM FEW130 SCT160 BKN230 03/M03 A3048 RMK AC2AC2CI1 SLP321=

CYVR;2006-12-29 01:00;METAR CYVR 290100Z 00000KT 30SM SCT130 BKN230 02/M03 A3047 RMK AC3CI1 SLP317=

CYVR;2006-12-29 02:00;METAR CYVR 290200Z 00000KT 30SM SCT130 BKN220 02/M03 A3045 RMK AC4CI1 SLP313=

CYVR;2006-12-29 03:00;METAR CYVR 290300Z 16003KT 30SM BKN130 BKN220 01/M03 A3044 RMK AC6CI1 SLP307=

CYVR;2006-12-29 04:00;METAR CYVR 290400Z 16002KT 30SM FEW130 SCT220 01/M03 A3041 RMK AC2CI1 SLP297=

CYVR;2006-12-29 05:00;METAR CYVR 290500Z 11008KT 30SM BKN120 BKN200 M00/M03 A3037 RMK AC6CI1 SLP283=

CYVR;2006-12-29 06:00;METAR CYVR 290600Z 11002KT 30SM BKN130 BKN180 00/M02 A3035 RMK AC6AS1 SLP278=

CYVR;2006-12-29 07:00;METAR CYVR 290700Z 29003KT 20SM SCT150 BKN220 00/M02 A3034 RMK AC4CI1 SLP274=

CYVR;2006-12-29 08:00;METAR CYVR 290800Z 00000KT 20SM BKN150 BKN220 00/M02 A3030 RMK AC6CI1 SLP262=

CYVR;2006-12-29 09:00;METAR CYVR 290900Z 11007KT 20SM BKN160 OVC210 M00/M02 A3027 RMK AC6CI1 SLP251=

CYVR;2006-12-29 10:00;METAR CYVR 291000Z 09004KT 20SM BKN150 BKN210 M00/M03 A3024 RMK AC5CI1 SLP240=

CYVR;2006-12-29 11:00;METAR CYVR 291100Z 09004KT 20SM BKN150 BKN210 M01/M03 A3021 RMK AC5CI1 SLP230=

CYVR;2006-12-29 12:00;METAR CYVR 291200Z 11005KT 20SM BKN160 OVC200 M01/M03 A3016 RMK AC6CI2 SLP214=

CYVR;2006-12-29 13:00;METAR CYVR 291300Z 07002KT 20SM BKN150 OVC190 M00/M03 A3012 RMK AC6AS2 SLP201=

CYVR;2006-12-29 14:00;METAR CYVR 291400Z 33002KT 20SM BKN150 BKN190 M01/M03 A3011 RMK AC6AS2 SLP197=

CYVR;2006-12-29 15:00;METAR CYVR 291500Z 29005KT 20SM SCT150 BKN170 M00/M03 A3014 RMK AC4AS3 SLP207=

CYVR;2006-12-29 16:00;METAR CYVR 291600Z 08006KT 20SM BKN170 BKN240 01/M02 A3011 RMK AC6CI2 SLP196=

CYVR;2006-12-29 17:00;METAR CYVR 291700Z 09012KT 20SM FEW120 BKN170 BKN230 02/M03 A3012 RMK AC2AC4CI1 SLP199=

CYVR;2006-12-29 18:00;METAR CYVR 291800Z 09006KT 30SM FEW120 BKN160 BKN220 02/M02 A3016 RMK AC2AC4CI1 SLP213=

CYVR;2006-12-29 19:00;METAR CYVR 291900Z 09013KT 30SM SCT140 BKN160 BKN210 05/M02 A3016 RMK AC4AC2CI1 SLP213=

CYVR;2006-12-29 20:00;METAR CYVR 292000Z 09009KT 20SM SCT060 BKN130 BKN180 OVC210 05/M02 A3018 RMK SC4AC2AC1CI1 VIRGA SLP219=

CYVR;2006-12-29 20:39;SPECI CYVR 292039Z 09009KT 15SM -RA SCT035 BKN060 BKN140 OVC200 05/ RMK SC3SC2AC1CI1 VIS HIER E=

CYVR;2006-12-29 21:00;METAR CYVR 292100Z 08010KT 15SM -RA FEW027 BKN045 OVC140 05/M01 A3020 RMK SC2SC4AC1 VIS HIER E SLP226=

CYVR;2006-12-29 22:00;METAR CYVR 292200Z 06012KT 12SM -RA BKN032 OVC045 04/01 A3022 RMK SC5SC3 SLP234=

CYVR;2006-12-29 23:00;METAR CYVR 292300Z 08012G17KT 15SM -RA FEW030 BKN041 OVC060 04/02 A3025 RMK SC2SC5SC1 SLP243=

CYVR;2006-12-29 23:12;SPECI CYVR 292312Z 09009G16KT 15SM FEW030 BKN040 OVC060 05/ RMK SC2SC5SC1=

CYVR;2006-12-29 23:28;SPECI CYVR 292328Z 07007KT 15SM -SHRA FEW030 BKN041 OVC060 05/ RMK SC2SC5SC1=

CYVR;2006-12-30 00:00;METAR CYVR 300000Z 07011KT 15SM -SHRA BKN031 BKN045 05/02 A3029 RMK SC5SC2 SLP256=

CYVR;2006-12-30 00:05;SPECI CYVR 300005Z 06011KT 20SM BKN031 BKN045 BKN080 05/ RMK SC5SC1AC1 VIS LWR E=

CYVR;2006-12-30 01:00;METAR CYVR 300100Z 07012KT 20SM SCT030 SCT045 BKN090 05/02 A3031 RMK SC3SC1AC2 SLP264=

CYVR;2006-12-30 02:00;METAR CYVR 300200Z 10011KT 15SM SCT017 BKN030 BKN060 05/02 A3034 RMK SC3SC2SC1 SLP275=

CYVR;2006-12-30 03:00;METAR CYVR 300300Z 09011KT 12SM BKN015 BKN027 04/02 A3037 RMK SF5SC1 SLP283=

CYVR;2006-12-30 04:00;METAR CYVR 300400Z 10009KT 12SM SCT019 BKN028 04/02 A3039 RMK SF3SC4 SLP292=

CYVR;2006-12-30 05:00;METAR CYVR 300500Z 08006KT 12SM BKN019 BKN032 04/02 A3040 RMK SC6SC2 SLP296=

CYVR;2006-12-30 06:00;METAR CYVR 300600Z 09008KT 12SM FEW019 BKN031 04/02 A3041 RMK SF2SC4 SLP298=

CYVR;2006-12-30 07:00;METAR CYVR 300700Z 09006KT 12SM BKN024 OVC150 04/02 A3043 RMK SC6AC2 SLP303=

CYVR;2006-12-30 08:00;METAR CYVR 300800Z 08004KT 15SM FEW030 BKN120 OVC150 03/01 A3043 RMK SF2AC2AC2 SLP306=

CYVR;2006-12-30 09:00;METAR CYVR 300900Z 05004KT 15SM FEW025 BKN038 OVC120 03/01 A3044 RMK SF2SC4AC2 SLP308=

CYVR;2006-12-30 10:00;METAR CYVR 301000Z 09004KT 15SM SCT025 BKN050 OVC120 04/02 A3045 RMK SC4SC1AC2 SLP311=

CYVR;2006-12-30 11:00;METAR CYVR 301100Z 01003KT 12SM BKN028 BKN050 OVC110 04/02 A3046 RMK SC5SC2AC2 SLP314=

CYVR;2006-12-30 12:00;METAR CYVR 301200Z 14003KT 15SM BKN028 OVC110 04/02 A3045 RMK SC6AC2 SLP310=

CYVR;2006-12-30 13:00;METAR CYVR 301300Z 11005KT 15SM OVC031 04/02 A3044 RMK SC8 SLP309=

CYVR;2006-12-30 14:00;METAR CYVR 301400Z 09005KT 15SM OVC032 03/01 A3044 RMK SC7 SLP307=

CYVR;2006-12-30 15:00;METAR CYVR 301500Z 10005KT 15SM BKN033 BKN110 03/01 A3044 RMK SC6AC1 SLP309=

CYVR;2006-12-30 16:00;METAR CYVR 301600Z 12006KT 20SM SCT033 SCT110 03/01 A3043 RMK SC2AC1 SLP303=

CYVR;2006-12-30 17:00;METAR CYVR 301700Z 12005KT 20SM BKN033 BKN110 03/01 A3045 RMK SC5AC1 SLP310=

CYVR;2006-12-30 18:00;METAR CYVR 301800Z 12006KT 20SM FEW034 BKN098 04/01 A3046 RMK SC2AC3 SLP314=

CYVR;2006-12-30 19:00;METAR CYVR 301900Z 11006KT 20SM BKN094 04/01 A3045 RMK AC6 SLP311=

CYVR;2006-12-30 20:00;METAR CYVR 302000Z 07005KT 30SM OVC096 05/01 A3043 RMK AC7 SLP306=

CYVR;2006-12-30 21:00;METAR CYVR 302100Z 10004KT 30SM OVC096 05/02 A3041 RMK AC7 SLP298=

CYVR;2006-12-30 22:00;METAR CYVR 302200Z 10003KT 30SM OVC096 06/02 A3038 RMK AC7 SLP287=

CYVR;2006-12-30 23:00;METAR CYVR 302300Z 26002KT 30SM OVC095 06/02 A3036 RMK AC8 SLP282=

CYVR;2006-12-31 00:00;METAR CYVR 310000Z 27002KT 30SM OVC100 05/02 A3035 RMK AC7 SLP277=

CYVR;2006-12-31 01:00;METAR CYVR 310100Z 00000KT 20SM OVC097 05/02 A3033 RMK AC8 SLP271=

CYVR;2006-12-31 02:00;METAR CYVR 310200Z 00000KT 20SM BKN075 OVC085 05/03 A3032 RMK AC6AC2 SLP269=

CYVR;2006-12-31 03:00;METAR CYVR 310300Z 23002KT 15SM SCT080 OVC100 05/03 A3032 RMK AC4AC4 SLP268=

CYVR;2006-12-31 04:00;METAR CYVR 310400Z 33005KT 15SM SCT100 OVC130 05/02 A3032 RMK AC4AC4 SLP267=

CYVR;2006-12-31 05:00;METAR CYVR 310500Z 00000KT 15SM SCT075 OVC090 05/02 A3032 RMK AC4AC4 SLP269=

CYVR;2006-12-31 06:00;METAR CYVR 310600Z 34003KT 15SM SCT064 OVC078 04/02 A3032 RMK SC3AS5 SLP266=

CYVR;2006-12-31 07:00;METAR CYVR 310700Z 02006KT 15SM BKN064 OVC085 04/02 A3032 RMK SC5AS3 SLP268=

CYVR;2006-12-31 08:00;METAR CYVR 310800Z 11003KT 15SM BKN061 OVC083 04/02 A3032 RMK SC5AS3 SLP266=

CYVR;2006-12-31 08:33;SPECI CYVR 310833Z 03003KT 15SM -SHRA BKN042 OVC063 04/ RMK SC5SC3=

CYVR;2006-12-31 09:00;METAR CYVR 310900Z 36006KT 12SM -SHRA BKN052 OVC071 05/02 A3030 RMK SC5AS3 PCPN VRY LGT SLP259=

CYVR;2006-12-31 10:00;METAR CYVR 311000Z 09006KT 12SM -RA BKN045 OVC069 04/02 A3030 RMK SC5AS3 PCPN VRY LGT SLP259=

CYVR;2006-12-31 11:00;METAR CYVR 311100Z 12005KT 10SM -RA BKN039 BKN067 OVC095 04/02 A3030 RMK SC5AS2AS1 SLP260=

CYVR;2006-12-31 13:00;METAR CYVR 311300Z 14005KT 10SM -RA FEW028 BKN047 OVC075 04/02 A3029 RMK SF2SC4AS2 PCPN VRY LGT SLP256=

CYVR;2006-12-31 15:00;METAR CYVR 311500Z 13003KT 15SM -RA FEW035 SCT045 OVC059 04/02 A3030 RMK SF2SC2SC4 SLP260=

CYVR;2006-12-31 16:00;METAR CYVR 311600Z 10003KT 15SM -SHRA FEW041 OVC059 03/02 A3030 RMK SF2SC6 SLP260=

CYVR;2006-12-31 16:26;SPECI CYVR 311626Z 08002KT 15SM BKN041 OVC059 03/ RMK SC6SC2=

CYVR;2006-12-31 17:00;METAR CYVR 311700Z 12006KT 15SM BKN045 OVC050 04/02 A3031 RMK SC6SC2 SLP265=

CYVR;2006-12-31 18:00;METAR CYVR 311800Z 09006KT 15SM OVC044 05/02 A3032 RMK SC7 SLP268=

CYVR;2006-12-31 19:00;METAR CYVR 311900Z 10006KT 15SM OVC042 05/03 A3032 RMK SC7 SLP269=

CYVR;2006-12-31 20:00;METAR CYVR 312000Z 12007KT 15SM OVC043 06/02 A3032 RMK SC8 SLP268=

CYVR;2006-12-31 21:00;METAR CYVR 312100Z 12009KT 15SM SCT042 BKN069 07/02 A3031 RMK SC3AC2 SLP263=

CYVR;2006-12-31 22:00;METAR CYVR 312200Z 11009KT 15SM SCT045 OVC061 07/02 A3030 RMK SC3SC5 SLP261=

CYVR;2006-12-31 23:00;METAR CYVR 312300Z 10007KT 15SM FEW042 BKN069 OVC084 07/01 A3031 RMK SC2AC4AC2 SLP264=

