CYWG;2009-01-01 07:00;CYWG 010700Z 14010KT 10SM -SN BKN024 OVC066 M15/M19 A2968 RMK SC6SC2 SLP076

CYWG;2009-01-01 07:18;CYWG 010718Z 13011KT 2SM -SN OVC032 M15/ RMK SN4SC4

CYWG;2009-01-01 07:26;CYWG 010726Z 13012KT 1SM R13/P6000FT/D R36/P6000FT/D -SN VV010 M15/ RMK SN8

CYWG;2009-01-01 08:00;CYWG 010800Z 12014KT 1SM R13/P6000FT/D R36/P6000FT/D -SN VV010 M14/M17 A2962 RMK SN8 PRESFR SLP056

CYWG;2009-01-01 09:00;CYWG 010900Z 11012KT 1SM R13/P6000FT/U R36/P6000FT/U -SN VV010 M15/M17 A2960 RMK SN8 /S02/ SLP045

CYWG;2009-01-01 10:00;CYWG 011000Z 10012G17KT 1SM R13/P6000FT/D R36/P6000FT/D -SN DRSN VV010 M14/M17 A2956 RMK SN8 SLP034

CYWG;2009-01-01 10:44;CYWG 011044Z 10014KT 2SM -SN DRSN OVC025 M14/ RMK SN4SC4

CYWG;2009-01-01 11:00;CYWG 011100Z 10012KT 2SM -SN OVC025 M14/M17 A2954 RMK SN4SC4 SLP028

CYWG;2009-01-01 11:24;CYWG 011124Z 10012KT 1SM R13/P6000FT/D R36/P6000FT/D -SN VV010 M14/ RMK SN8

CYWG;2009-01-01 11:42;CYWG 011142Z 10012KT 3/4SM R13/P6000FT/U R36/P6000FT/U -SN VV003 M14/ RMK SN8

CYWG;2009-01-01 12:00;CYWG 011200Z 10011KT 3/4SM R13/P6000FT/D R36/P6000FT/D -SN VV003 M14/M17 A2953 RMK SN8 /S04/ SLP023

CYWG;2009-01-01 12:39;CYWG 011239Z 09011KT 1 1/2SM -SN DRSN VV004 M14/ RMK SN8

CYWG;2009-01-01 13:00;CYWG 011300Z 08010KT 1 1/2SM -SN DRSN VV008 M15/M17 A2953 RMK SN8 SLP022

CYWG;2009-01-01 13:17;CYWG 011317Z 08008KT 3SM -SN DRSN OVC076 M15/ RMK SN4AC4

CYWG;2009-01-01 14:00;CYWG 011400Z 07006KT 5SM -SN BKN015 OVC076 M15/M17 A2953 RMK SC5AC3 SLP024

CYWG;2009-01-01 15:00;CYWG 011500Z 03008KT 10SM -SN BKN040 OVC068 M16/M19 A2954 RMK SC5AC2 SLP027

CYWG;2009-01-01 16:00;CYWG 011600Z 03012KT 10SM -SN BKN028 OVC062 M16/M18 A2956 RMK SC5SC2 SLP032

CYWG;2009-01-01 16:46;CYWG 011646Z 03012KT 15SM FEW010 SCT080 OVC250 M16/ RMK ST1AC2CI2

CYWG;2009-01-01 17:00;CYWG 011700Z 03013KT 15SM FEW010 SCT080 OVC250 M16/M19 A2957 RMK ST1AC2CI2 SLP036

CYWG;2009-01-01 17:35;CYWG 011735Z 02015KT 10SM -SN DRSN FEW011 OVC056 M15/ RMK ST2SC4

CYWG;2009-01-01 18:00;CYWG 011800Z 02012KT 6SM -SN DRSN FEW010 OVC056 M15/M18 A2957 RMK ST2SC5 /S06/ SLP035

CYWG;2009-01-01 19:00;CYWG 011900Z 01014KT 10SM -SN DRSN FEW007 OVC040 M16/M19 A2958 RMK SF1SC5 SLP038

CYWG;2009-01-01 20:00;CYWG 012000Z 01013KT 15SM -SN DRSN FEW017 FEW058 SCT210 M16/M20 A2960 RMK SC1SC2CI1 SLP045

CYWG;2009-01-01 20:21;CYWG 012021Z 36010KT 15SM DRSN FEW052 SCT210 M16/ RMK SC1CI1 IC

CYWG;2009-01-01 21:00;CYWG 012100Z 36011KT 15SM DRSN FEW023 SCT041 BKN090 BKN210 M16/M20 A2962 RMK SC1SC2AC1CI1 IC SLP054

CYWG;2009-01-01 21:22;CYWG 012122Z 36009KT 8SM -SN DRSN FEW033 FEW053 BKN090 BKN210 M17/ RMK SC1SC2AC2CI1

CYWG;2009-01-01 22:00;CYWG 012200Z 36012KT 10SM -SN DRSN FEW033 FEW090 SCT210 M17/M21 A2965 RMK SC1AC1CI0 SLP064

CYWG;2009-01-01 22:25;CYWG 012225Z 35010KT 15SM DRSN FEW030 FEW080 FEW210 M19/ RMK SC1AC1CI1

CYWG;2009-01-01 23:00;CYWG 012300Z 33012KT 15SM DRSN FEW021 SCT080 BKN210 M21/M24 A2970 RMK SC1AC2CI1 SLP079

CYWG;2009-01-02 00:00;CYWG 020000Z 33010KT 15SM -SN DRSN BKN023 BKN079 M22/M26 A2973 RMK SC5AC2 SLP092

CYWG;2009-01-02 01:00;CYWG 020100Z 34014KT 10SM -SN DRSN OVC020 M18/M21 A2975 RMK SC6 SLP100

CYWG;2009-01-02 02:00;CYWG 020200Z 33015KT 15SM -SN DRSN BKN020 M20/M24 A2978 RMK SC6 SLP108

CYWG;2009-01-02 03:00;CYWG 020300Z 34013KT 15SM -SN DRSN BKN020 M21/M25 A2979 RMK SC5 SLP114

CYWG;2009-01-02 04:00;CYWG 020400Z 34011KT 15SM FEW020 SCT094 M23/M27 A2980 RMK SC2AC2 SLP118

CYWG;2009-01-02 05:00;CYWG 020500Z 33011KT 15SM SKC M25/M29 A2982 RMK SLP122

CYWG;2009-01-02 06:00;CYWG 020600Z 32009KT 15SM SKC M27/M31 A2984 RMK SLP131

CYWG;2009-01-02 07:00;CYWG 020700Z 32010KT 15SM SKC M27/M31 A2986 RMK SLP139

CYWG;2009-01-02 08:00;CYWG 020800Z 30010KT 15SM SKC M29/M34 A2989 RMK SLP149

CYWG;2009-01-02 09:00;CYWG 020900Z 32010KT 15SM SKC M30/M34 A2991 RMK SLP156

CYWG;2009-01-02 10:00;CYWG 021000Z 33009KT 15SM SKC M29/M34 A2993 RMK SLP162

CYWG;2009-01-02 11:00;CYWG 021100Z 30008KT 15SM SKC M30/M34 A2994 RMK SLP168

CYWG;2009-01-02 12:00;CYWG 021200Z 31002KT 15SM SKC M32/M36 A2995 RMK FZFG OVR CITY SLP175

CYWG;2009-01-02 13:00;CYWG 021300Z 34004KT 15SM SKC M31/M35 A2996 RMK FZFG OVR CITY SLP178

CYWG;2009-01-02 14:00;CYWG 021400Z 31002KT 15SM FEW100 FEW210 M32/M37 A2998 RMK AC1CI1 FZFG OVR CITY SLP183

CYWG;2009-01-02 15:00;CYWG 021500Z 32003KT 15SM FEW100 FEW210 M33/M37 A2999 RMK AC1CI1 FZFG OVR CITY SLP187

CYWG;2009-01-02 16:00;CYWG 021600Z 03003KT 15SM FEW100 BKN210 M32/M36 A2998 RMK AC1CI1 FZFG OVR CITY SLP184

CYWG;2009-01-02 17:00;CYWG 021700Z 04005KT 15SM FEW100 BKN210 M27/M31 A2997 RMK AC1CI2 FZFG OVR CITY SLP182

CYWG;2009-01-02 18:00;CYWG 021800Z 01003KT 15SM FEW100 SCT210 M26/M30 A2996 RMK AC1CI1 SLP179

CYWG;2009-01-02 19:00;CYWG 021900Z 34004KT 15SM FEW210 M26/M30 A2997 RMK CI2 SLP181

CYWG;2009-01-02 20:00;CYWG 022000Z 33004KT 15SM FEW220 M26/M30 A2999 RMK CI2 SLP187

CYWG;2009-01-02 21:00;CYWG 022100Z 04002KT 15SM BKN220 M25/M29 A2997 RMK CI2 SLP183

CYWG;2009-01-02 22:00;CYWG 022200Z 05007KT 15SM BKN220 M27/M31 A2997 RMK CI2 SLP183

CYWG;2009-01-02 23:00;CYWG 022300Z 04006KT 15SM OVC220 M25/M29 A2999 RMK CI2 SLP188

CYWG;2009-01-03 00:00;CYWG 030000Z 06005KT 15SM OVC220 M23/M27 A2999 RMK CI4 SLP187

CYWG;2009-01-03 01:00;CYWG 030100Z 06004KT 15SM OVC220 M22/M27 A2999 RMK CI6 SLP190

CYWG;2009-01-03 02:00;CYWG 030200Z 09006KT 15SM SCT096 OVC220 M21/M25 A2998 RMK AC3CI5 SLP186

CYWG;2009-01-03 03:00;CYWG 030300Z 10006KT 15SM BKN090 OVC220 M19/M23 A2999 RMK AC6CI2 SLP189

CYWG;2009-01-03 04:00;CYWG 030400Z 12007KT 15SM OVC081 M18/M23 A3002 RMK AC8 SLP197

CYWG;2009-01-03 05:00;CYWG 030500Z 09007KT 15SM FEW040 OVC069 M18/M22 A3002 RMK SC2AC6 SLP197

CYWG;2009-01-03 06:00;CYWG 030600Z 11012KT 15SM OVC055 M17/M22 A3002 RMK SC8 SLP193

CYWG;2009-01-03 07:00;CYWG 030700Z 10009KT 15SM OVC055 M17/M22 A3002 RMK SC8 SLP193

CYWG;2009-01-03 08:00;CYWG 030800Z 10012KT 15SM OVC041 M17/M22 A3001 RMK SC8 SLP191

CYWG;2009-01-03 08:20;CYWG 030820Z 10012KT 10SM -SN OVC031 M17/ RMK SC8

CYWG;2009-01-03 09:00;CYWG 030900Z 08013KT 6SM -SN OVC025 M17/M22 A3002 RMK SC8 SLP192

CYWG;2009-01-03 09:16;CYWG 030916Z 09011G16KT 2SM -SN VV010 M17/ RMK SN8

CYWG;2009-01-03 09:29;CYWG 030929Z 09011G16KT 1SM R13/P6000FT/D R36/P6000FT/U -SN DRSN VV010 M17/ RMK SN8

CYWG;2009-01-03 10:00;CYWG 031000Z 11012KT 3/4SM R13/P6000FT/D R36/P6000FT/D -SN DRSN VV010 M17/M21 A3003 RMK SN8 SLP198

CYWG;2009-01-03 11:00;CYWG 031100Z 09012G17KT 3/4SM R13/P6000FT/U R36/P6000FT/U -SN DRSN VV008 M17/M21 A2999 RMK SN8 SLP184

CYWG;2009-01-03 11:09;CYWG 031109Z 09013KT 1SM R13/P6000FT/U R36/P6000FT/U -SN DRSN VV010 M17/ RMK SN8

CYWG;2009-01-03 11:20;CYWG 031120Z 10014KT 1 1/2SM -SN DRSN OVC040 M17/ RMK SN4SC4

CYWG;2009-01-03 12:00;CYWG 031200Z 09011KT 1SM R13/P6000FT/U R36/P6000FT/N -SN DRSN OVC040 M17/M20 A2999 RMK SN5SC3 SLP181

CYWG;2009-01-03 12:34;CYWG 031234Z 10012KT 1 1/2SM -SN DRSN OVC040 M17/ RMK SN4SC4

CYWG;2009-01-03 13:00;CYWG 031300Z 10013KT 1 1/2SM -SN DRSN OVC030 M16/M20 A3001 RMK SN4SC4 SLP188

CYWG;2009-01-03 13:26;CYWG 031326Z 10011KT 1SM R13/P6000FT/D R36/P6000FT/D -SN DRSN VV012 M16/ RMK SN8

CYWG;2009-01-03 14:00;CYWG 031400Z 10008KT 1SM R13/P6000FT/U R36/P6000FT/N -SN DRSN VV012 M16/M20 A3001 RMK SN8 /S02/ SLP188

CYWG;2009-01-03 15:00;CYWG 031500Z 10010KT 3/4SM R13/P6000FT/D R36/P6000FT/D -SN DRSN VV005 M16/M19 A3000 RMK SN8 /S03/ SLP183

CYWG;2009-01-03 15:40;CYWG 031540Z 10007KT 1 1/2SM -SN DRSN VV009 M16/ RMK SN8

CYWG;2009-01-03 16:00;CYWG 031600Z 09008KT 1 1/2SM -SN DRSN VV012 M16/M20 A3001 RMK SN8 SLP187

CYWG;2009-01-03 17:00;CYWG 031700Z 10009KT 3/4SM R13/P6000FT/N R36/P6000FT/D -SN VV005 M15/M18 A3000 RMK SN8 /S04/ SLP185

CYWG;2009-01-03 17:45;CYWG 031745Z 09007KT 1/2SM R13/4500VP6000FT/D R36/P6000FT/D SN VV004 M15/ RMK SN8 /S05/

CYWG;2009-01-03 18:00;CYWG 031800Z 08006KT 1/4SM R13/4500FT/N R36/6000FT/D +SN VV002 M15/M18 A2999 RMK SN8 SLP178

CYWG;2009-01-03 18:35;CYWG 031835Z 09006KT 3/4SM R13/P6000FT/U R36/P6000FT/U -SN VV003 M15/ RMK SN8

CYWG;2009-01-03 19:00;CYWG 031900Z 07005KT 3/4SM R13/4500FT/N R36/5500FT/U -SN VV003 M14/M17 A2998 RESN RMK SN8 SLP176

CYWG;2009-01-03 20:00;CYWG 032000Z 04006KT 3/4SM R13/P6000FT/N R36/4500VP6000FT/U -SN VV004 M15/M17 A2998 RMK SN8 SLP176

CYWG;2009-01-03 20:35;CYWG 032035Z 01006KT 1 1/2SM R36/3000VP6000FT/N -SN VV002 M15/ RMK SN8

CYWG;2009-01-03 21:00;CYWG 032100Z 01008KT 1 1/2SM R36/4500VP6000FT/D -SN VV007 M15/M17 A2999 RMK SN8 SLP179

CYWG;2009-01-03 21:28;CYWG 032128Z 05011KT 2 1/2SM -SN VV009 M15/ RMK SN8

CYWG;2009-01-03 21:39;CYWG 032139Z 05008KT 5SM -SN OVC010 M15/ RMK SC8

CYWG;2009-01-03 21:50;CYWG 032150Z 04006KT 6SM -SN OVC018 M15/ RMK SC8

CYWG;2009-01-03 22:00;CYWG 032200Z 04005KT 8SM -SN OVC018 M15/M18 A2999 RMK SC8 /S01/ SLP179

CYWG;2009-01-03 23:00;CYWG 032300Z 01005KT 12SM -SN OVC022 M15/M18 A3000 RMK SC8 SLP184

CYWG;2009-01-04 00:00;CYWG 040000Z 31007KT 5SM -SN OVC023 M15/M18 A3002 RMK SC8 SLP188

CYWG;2009-01-04 01:00;CYWG 040100Z 31008KT 12SM -SN OVC056 M15/M18 A3002 RMK SC8 SLP189

CYWG;2009-01-04 02:00;CYWG 040200Z 30012KT 12SM -SN OVC051 M15/M18 A3003 RMK SC8 SLP191

CYWG;2009-01-04 03:00;CYWG 040300Z 30016KT 12SM -SN DRSN OVC045 M16/M20 A3003 RMK SC8 SLP193

CYWG;2009-01-04 04:00;CYWG 040400Z 30014KT 12SM -SN DRSN OVC041 M17/M20 A3003 RMK SC8 SLP194

CYWG;2009-01-04 05:00;CYWG 040500Z 30012KT 15SM -SN DRSN OVC039 M17/M21 A3004 RMK SC8 SLP196

CYWG;2009-01-04 05:16;CYWG 040516Z 29013KT 15SM DRSN OVC039 RMK SC8

CYWG;2009-01-04 06:00;CYWG 040600Z 29013KT 15SM DRSN OVC039 M18/M21 A3004 RMK SC8 SLP198

CYWG;2009-01-04 07:00;CYWG 040700Z 30015KT 15SM DRSN OVC039 M18/M23 A3005 RMK SC8 SLP200

CYWG;2009-01-04 08:00;CYWG 040800Z 27010KT 15SM DRSN BKN039 M24/M28 A3006 RMK SC3 SLP204

CYWG;2009-01-04 09:00;CYWG 040900Z 27009KT 15SM DRSN SCT039 M26/M30 A3007 RMK SC2 SLP210

CYWG;2009-01-04 10:00;CYWG 041000Z 27010KT 15SM DRSN SKC M26/M31 A3008 RMK SLP212

CYWG;2009-01-04 11:00;CYWG 041100Z 27010KT 15SM DRSN SKC M27/M32 A3007 RMK SLP211

CYWG;2009-01-04 12:00;CYWG 041200Z 27011KT 15SM SKC M28/M33 A3007 RMK SLP211

CYWG;2009-01-04 13:00;CYWG 041300Z 27011KT 15SM SKC M29/M34 A3008 RMK SLP214

CYWG;2009-01-04 14:00;CYWG 041400Z 27012KT 15SM SKC M29/M34 A3008 RMK SLP213

CYWG;2009-01-04 15:00;CYWG 041500Z 27009KT 15SM FEW230 M30/M35 A3009 RMK CI1 SLP218

CYWG;2009-01-04 16:00;CYWG 041600Z 27010KT 15SM DRSN FEW230 M29/M35 A3010 RMK CI1 SLP223

CYWG;2009-01-04 17:00;CYWG 041700Z 27010KT 15SM DRSN SKC M28/M34 A3011 RMK SLP225

CYWG;2009-01-04 18:00;CYWG 041800Z 28014KT 15SM DRSN SKC M27/M33 A3009 RMK SLP219

CYWG;2009-01-04 19:00;CYWG 041900Z CCA 27013KT 15SM DRSN SKC M27/M32 A3009 RMK SLP218

CYWG;2009-01-04 20:00;CYWG 042000Z 27014KT 15SM DRSN FEW220 M26/M32 A3009 RMK CI1 SLP217

CYWG;2009-01-04 21:00;CYWG 042100Z 27010KT 15SM SKC M25/M31 A3008 RMK SLP218

CYWG;2009-01-04 22:00;CYWG 042200Z 27010KT 15SM FEW220 M26/M32 A3009 RMK CI1 SLP219

CYWG;2009-01-04 23:00;CYWG 042300Z 26009KT 15SM FEW220 M26/M32 A3009 RMK CI1 SLP221

CYWG;2009-01-05 00:00;CYWG 050000Z 26009KT 15SM FEW095 FEW220 M27/M32 A3009 RMK AC1CI1 SLP221

CYWG;2009-01-05 01:00;CYWG 050100Z 27007KT 15SM FEW030 FEW090 M27/M33 A3007 RMK SC1AC1 SLP217

CYWG;2009-01-05 02:00;CYWG 050200Z 26006KT 15SM FEW075 M29/M34 A3007 RMK AC1 SLP215

CYWG;2009-01-05 03:00;CYWG 050300Z 26007KT 15SM FEW075 M28/M33 A3006 RMK AC1 SLP214

CYWG;2009-01-05 04:00;CYWG 050400Z 26006KT 15SM FEW075 M28/M33 A3005 RMK AC1 SLP210

CYWG;2009-01-05 05:00;CYWG 050500Z 27008KT 15SM FEW095 M28/M33 A3003 RMK AC2 SLP205

CYWG;2009-01-05 06:00;CYWG 050600Z 27008KT 15SM FEW090 M29/M34 A3003 RMK AC2 SLP203

CYWG;2009-01-05 07:00;CYWG 050700Z 28007KT 15SM FEW090 M30/M34 A3001 RMK AC1 SLP197

CYWG;2009-01-05 08:00;CYWG 050800Z 27007KT 15SM SKC M30/M34 A3000 RMK SLP194

CYWG;2009-01-05 09:00;CYWG 050900Z 21003KT 10SM SKC M31/M35 A3000 RMK BR SLP194

CYWG;2009-01-05 10:00;CYWG 051000Z 22002KT 10SM SKC M31/M36 A2999 RMK BR SLP190

CYWG;2009-01-05 11:00;CYWG 051100Z 23003KT 15SM SKC M31/M35 A2998 RMK SLP186

CYWG;2009-01-05 12:00;CYWG 051200Z 22004KT 15SM SKC M31/M35 A2996 RMK SLP178

CYWG;2009-01-05 13:00;CYWG 051300Z 19002KT 15SM SKC M32/M36 A2994 RMK SLP174

CYWG;2009-01-05 14:00;CYWG 051400Z 21004KT 15SM SKC M32/M37 A2993 RMK SLP171

CYWG;2009-01-05 15:00;CYWG 051500Z 21003KT 4SM R31/4000VP6000FT/U BR SKC M33/M37 A2993 RMK SLP169

CYWG;2009-01-05 16:00;CYWG 051600Z 18004KT 6SM BR FEW120 M31/M35 A2990 RMK AC1 SLP162

CYWG;2009-01-05 17:00;CYWG 051700Z 18003KT 8SM FEW250 M29/M33 A2990 RMK CI0 BR SLP160

CYWG;2009-01-05 18:00;CYWG 051800Z 18004KT 15SM FEW250 M26/M30 A2987 RMK CI0 SLP146

CYWG;2009-01-05 19:00;CYWG 051900Z 18004KT 15SM BKN250 M25/M31 A2984 RMK CI1 SLP139

CYWG;2009-01-05 20:00;CYWG 052000Z 20005KT 15SM FEW250 M24/M30 A2983 RMK CI1 SLP133

CYWG;2009-01-05 21:00;CYWG 052100Z 00000KT 15SM BKN250 M27/M33 A2981 RMK CI1 SLP129

CYWG;2009-01-05 22:00;CYWG 052200Z 09004KT 15SM BKN250 M27/M32 A2980 RMK CI1 SLP126

CYWG;2009-01-05 23:00;CYWG 052300Z 08005KT 15SM BKN250 M26/M30 A2978 RMK CI1 SLP119

CYWG;2009-01-06 00:00;CYWG 060000Z 07004KT 15SM OVC250 M27/M31 A2977 RMK CI1 SLP116

CYWG;2009-01-06 01:00;CYWG 060100Z 07004KT 15SM OVC250 M27/M31 A2977 RMK CI2 SLP113

CYWG;2009-01-06 02:00;CYWG 060200Z 06005KT 15SM OVC250 M28/M32 A2976 RMK CI2 SLP112

CYWG;2009-01-06 03:00;CYWG 060300Z 07005KT 15SM OVC086 M26/M30 A2974 RMK AC6 SLP106

CYWG;2009-01-06 04:00;CYWG 060400Z 10004KT 15SM BKN091 M22/M26 A2973 RMK AC6 OBS TAKEN +08 SLP102

CYWG;2009-01-06 05:00;CYWG 060500Z 10006KT 15SM BKN090 M22/M26 A2971 RMK AC6 SLP094

CYWG;2009-01-06 06:00;CYWG 060600Z 11006KT 15SM BKN082 M21/M26 A2968 RMK AC7 SLP079

CYWG;2009-01-06 07:00;CYWG 060700Z 07009KT 15SM OVC085 M20/M25 A2966 RMK AC8 SLP072

CYWG;2009-01-06 08:00;CYWG 060800Z 08006KT 15SM OVC048 M20/M25 A2963 RMK SC8 SLP064

CYWG;2009-01-06 09:00;CYWG 060900Z 06007KT 15SM OVC051 M20/M25 A2964 RMK SC8 SLP065

CYWG;2009-01-06 10:00;CYWG 061000Z 06006KT 15SM OVC058 M20/M25 A2962 RMK SC7 SLP058

CYWG;2009-01-06 11:00;CYWG 061100Z 07009KT 15SM OVC067 M20/M25 A2961 RMK AC8 SLP055

CYWG;2009-01-06 12:00;CYWG 061200Z 07008KT 15SM BKN070 OVC120 M20/M25 A2961 RMK AC6AC2 SLP055

CYWG;2009-01-06 13:00;CYWG 061300Z 07008KT 15SM BKN059 OVC120 M20/M24 A2961 RMK SC6AC2 SLP056

CYWG;2009-01-06 13:32;CYWG 061332Z 06007KT 10SM -SN OVC043 M19/ RMK SC8

CYWG;2009-01-06 14:00;CYWG 061400Z 06007KT 3SM -SN OVC030 M19/M23 A2963 RMK SC8 SLP061

CYWG;2009-01-06 14:39;CYWG 061439Z 06008KT 1 1/2SM -SN OVC018 M19/ RMK SC8

CYWG;2009-01-06 15:00;CYWG 061500Z 07009KT 1 1/2SM -SN OVC014 M19/M22 A2962 RMK SC8 SLP057

CYWG;2009-01-06 15:33;CYWG 061533Z 06008KT 2SM -SN VV012 M18/ RMK SN8

CYWG;2009-01-06 16:00;CYWG 061600Z 05010KT 2 1/2SM -SN OVC012 M18/M22 A2961 RMK SC8 SLP055

CYWG;2009-01-06 16:45;CYWG 061645Z 05011KT 3SM -SN OVC046 M18/ RMK SC7

CYWG;2009-01-06 17:00;CYWG 061700Z 05009KT 6SM -SN BKN039 OVC120 M18/M22 A2960 RMK SC6AC2 SLP052

CYWG;2009-01-06 17:27;CYWG 061727Z 05011KT 15SM BKN039 OVC120 M18/ RMK SC5AC2

CYWG;2009-01-06 18:00;CYWG 061800Z 05010KT 10SM -SN BKN022 OVC120 M18/M22 A2959 RMK SC6AC2 SLP044

CYWG;2009-01-06 19:00;CYWG 061900Z 05010KT 6SM -SN BKN041 OVC120 M17/M21 A2958 RMK SC7AC1 SLP041

CYWG;2009-01-06 19:25;CYWG 061925Z 04012KT 2SM -SN BKN022 OVC120 M17/ RMK SC5AC2

CYWG;2009-01-06 20:00;CYWG 062000Z 03012KT 15SM -SN FEW022 BKN050 OVC250 M17/M21 A2958 RMK SC2SC3CI1 SLP041

CYWG;2009-01-06 21:00;CYWG 062100Z 03011KT 10SM -SN FEW024 OVC050 M17/M21 A2958 RMK SC2SC4 SLP043

CYWG;2009-01-06 22:00;CYWG 062200Z 02011KT 15SM -SN SCT030 OVC095 M18/M22 A2961 RMK SC3AC2 SLP051

CYWG;2009-01-06 23:00;CYWG 062300Z 01009KT 10SM -SN SCT015 OVC050 M18/M22 A2963 RMK SC3SC2 SLP059

CYWG;2009-01-07 00:00;CYWG 070000Z 01008KT 12SM -SN SCT019 OVC066 M18/M22 A2964 RMK SC3AC2 /S01/ SLP061

CYWG;2009-01-07 01:00;CYWG 070100Z 01010KT 12SM -SN SCT030 OVC077 M18/M23 A2964 RMK SC3AC2 SLP064

CYWG;2009-01-07 02:00;CYWG 070200Z 01007KT 15SM -SN BKN041 M19/M23 A2964 RMK SC4 SLP063

CYWG;2009-01-07 03:00;CYWG 070300Z 01007KT 15SM FEW038 BKN083 M20/M23 A2964 RMK SC2AC1 SLP062

CYWG;2009-01-07 04:00;CYWG 070400Z 33006KT 15SM OVC043 M18/M22 A2964 RMK SC8 SLP063

CYWG;2009-01-07 04:50;CYWG 070450Z 33007KT 6SM -SN OVC090 M20/ RMK AC6

CYWG;2009-01-07 05:00;CYWG 070500Z 33007KT 12SM -SN SCT007 OVC090 M21/M24 A2963 RMK ST2AC5 SLP059

CYWG;2009-01-07 06:00;CYWG 070600Z 32010KT 12SM SCT011 OVC047 M20/M23 A2963 RMK ST3SC4 SLP057

CYWG;2009-01-07 06:52;CYWG 070652Z 35010KT 6SM -SN OVC026 M19/ RMK SN2SC6

CYWG;2009-01-07 07:00;CYWG 070700Z 36007KT 12SM -SN OVC026 M19/M22 A2959 RMK SC8 SLP046

CYWG;2009-01-07 08:00;CYWG 070800Z 35007KT 15SM BKN058 M22/M25 A2959 RMK SC6 SLP044

CYWG;2009-01-07 09:00;CYWG 070900Z 34009KT 15SM BKN070 M23/M26 A2960 RMK AC6 SLP048

CYWG;2009-01-07 10:00;CYWG 071000Z 33008KT 15SM SCT040 BKN059 M22/M25 A2961 RMK SC3SC2 SLP051

CYWG;2009-01-07 11:00;CYWG 071100Z 33009KT 15SM FEW038 M25/M28 A2961 RMK SC2 SLP051

CYWG;2009-01-07 12:00;CYWG 071200Z 32010KT 15SM FEW035 SCT084 M26/M30 A2962 RMK SC2AC2 SLP056

CYWG;2009-01-07 13:00;CYWG 071300Z 32008KT 15SM FEW050 FEW090 M27/M30 A2964 RMK SC2AC1 SLP064

CYWG;2009-01-07 14:00;CYWG 071400Z 31007KT 15SM FEW050 SCT090 M25/M29 A2965 RMK SC2AC2 SLP067

CYWG;2009-01-07 15:00;CYWG 071500Z 32005KT 15SM FEW040 SCT080 M28/M32 A2966 RMK SC1AC2 SLP073

CYWG;2009-01-07 16:00;CYWG 071600Z 33006KT 15SM FEW030 FEW095 M27/M31 A2967 RMK SC1AC1 SLP076

CYWG;2009-01-07 17:00;CYWG 071700Z 33006KT 15SM FEW095 M25/M29 A2969 RMK AC1 SLP081

CYWG;2009-01-07 18:00;CYWG 071800Z 33004KT 15SM FEW092 M23/M27 A2968 RMK AC1 SLP079

CYWG;2009-01-07 19:00;CYWG 071900Z 32007KT 15SM FEW090 FEW210 M21/M25 A2969 RMK AC1CI1 SLP082

CYWG;2009-01-07 20:00;CYWG 072000Z 30012KT 15SM FEW090 BKN210 M21/M25 A2970 RMK AC2CI2 SLP086

CYWG;2009-01-07 20:41;CYWG 072041Z 31008KT 6SM -SN FEW090 BKN210 M21/ RMK AC2CI2

CYWG;2009-01-07 21:00;CYWG 072100Z 31008KT 10SM -SN FEW090 BKN210 M21/M25 A2972 RMK AC2CI1 SLP090

CYWG;2009-01-07 21:48;CYWG 072148Z 30006KT 15SM FEW090 BKN210 M21/ RMK AC2CI1

CYWG;2009-01-07 22:00;CYWG 072200Z 30007KT 15SM FEW090 FEW210 M22/M26 A2974 RMK AC1CI0 SLP098

CYWG;2009-01-07 23:00;CYWG 072300Z 30009KT 15SM FEW090 FEW210 M23/M27 A2976 RMK AC1CI0 SLP104

CYWG;2009-01-08 00:00;CYWG 080000Z 30010KT 15SM FEW210 M26/M30 A2978 RMK CI0 SLP114

CYWG;2009-01-08 01:00;CYWG 080100Z 29009KT 15SM SKC M25/M29 A2980 RMK SLP122

CYWG;2009-01-08 02:00;CYWG 080200Z 30010KT 15SM FEW090 M26/M30 A2981 RMK AC1 SLP124

CYWG;2009-01-08 03:00;CYWG 080300Z 27006KT 15SM BKN054 M22/M26 A2980 RMK SC6 SLP123

CYWG;2009-01-08 04:00;CYWG 080400Z 30006KT 15SM BKN058 BKN094 M21/M25 A2981 RMK SC5AC2 SLP126

CYWG;2009-01-08 05:00;CYWG 080500Z 30006KT 15SM BKN063 M20/M24 A2982 RMK SC6 SLP128

CYWG;2009-01-08 06:00;CYWG 080600Z 28009KT 15SM FEW069 M22/M26 A2983 RMK AC2 SLP128

CYWG;2009-01-08 07:00;CYWG 080700Z 28007KT 15SM FEW091 M24/M28 A2983 RMK AC2 SLP128

CYWG;2009-01-08 08:00;CYWG 080800Z 28007KT 15SM FEW087 M24/M29 A2983 RMK AC1 SLP130

CYWG;2009-01-08 09:00;CYWG 080900Z 28007KT 15SM SKC M24/M28 A2985 RMK SLP135

CYWG;2009-01-08 10:00;CYWG 081000Z 28007KT 15SM FEW085 M27/M31 A2986 RMK AC1 SLP139

CYWG;2009-01-08 11:00;CYWG 081100Z 28004KT 15SM FEW072 M29/M33 A2986 RMK AC1 SLP140

CYWG;2009-01-08 12:00;CYWG 081200Z 28006KT 15SM FEW094 M27/M31 A2988 RMK AC1 SLP149

CYWG;2009-01-08 13:00;CYWG 081300Z 30006KT 15SM SKC M29/M33 A2988 RMK FZFG OVR CTY SLP151

CYWG;2009-01-08 14:00;CYWG 081400Z 26006KT 15SM SKC M28/M32 A2990 RMK SLP155

CYWG;2009-01-08 15:00;CYWG 081500Z 25002KT 15SM SKC M27/M31 A2990 RMK SLP155

CYWG;2009-01-08 16:00;CYWG 081600Z 29002KT 15SM SKC M26/M30 A2989 RMK SLP153

CYWG;2009-01-08 17:00;CYWG 081700Z 27004KT 15SM SKC M26/M30 A2991 RMK SLP159

CYWG;2009-01-08 18:00;CYWG 081800Z 28004KT 15SM SKC M25/M29 A2991 RMK SLP158

CYWG;2009-01-08 19:00;CYWG 081900Z 30004KT 15SM FEW210 M25/M28 A2990 RMK CI1 SLP155

CYWG;2009-01-08 20:00;CYWG 082000Z 32003KT 15SM SKC M24/M28 A2990 RMK SLP156

CYWG;2009-01-08 21:00;CYWG 082100Z 32003KT 15SM FEW220 M24/M29 A2990 RMK CI1 SLP155

CYWG;2009-01-08 22:00;CYWG 082200Z 27003KT 15SM FEW220 M24/M28 A2991 RMK CI1 SLP159

CYWG;2009-01-08 23:00;CYWG 082300Z 27002KT 15SM FEW230 M24/M28 A2991 RMK CI1 SLP158

CYWG;2009-01-09 00:00;CYWG 090000Z 16002KT 15SM FEW080 M26/M31 A2991 RMK AC2 SLP162

CYWG;2009-01-09 01:00;CYWG 090100Z 20003KT 15SM FEW085 M26/M31 A2992 RMK AC2 SLP164

CYWG;2009-01-09 02:00;CYWG 090200Z 00000KT 15SM SKC M29/M32 A2993 RMK SLP168

CYWG;2009-01-09 03:00;CYWG 090300Z 23002KT 15SM SKC M29/M33 A2995 RMK SLP175

CYWG;2009-01-09 04:00;CYWG 090400Z 03003KT 15SM SKC M30/M34 A2995 RMK SLP176

CYWG;2009-01-09 05:00;CYWG 090500Z 00000KT 15SM SKC M27/M31 A2997 RMK SLP181

CYWG;2009-01-09 06:00;CYWG 090600Z 05007KT 15SM SKC M27/M31 A2998 RMK SLP183

CYWG;2009-01-09 07:00;CYWG 090700Z 07004KT 12SM MIFG BKN220 M26/M30 A2999 RMK CI2 SLP187

CYWG;2009-01-09 08:00;CYWG 090800Z 03004KT 15SM SCT076 M29/M34 A3002 RMK AC3 SLP198

CYWG;2009-01-09 09:00;CYWG 090900Z 03004KT 15SM MIFG SCT220 M30/M34 A3006 RMK CI2 SLP212

CYWG;2009-01-09 10:00;CYWG 091000Z 04005KT 15SM MIFG BKN220 M27/M31 A3009 RMK CI2 VIS LWR E SLP221

CYWG;2009-01-09 11:00;CYWG 091100Z 06003KT 15SM MIFG BKN220 M27/M31 A3010 RMK CI2 SLP226

CYWG;2009-01-09 12:00;CYWG 091200Z 04003KT 15SM SKC M27/M31 A3012 RMK SLP233

CYWG;2009-01-09 13:00;CYWG 091300Z 35002KT 15SM FEW007 FEW220 M29/M33 A3016 RMK ST1CI0 SLP247

CYWG;2009-01-09 14:00;CYWG 091400Z 33005KT 15SM BKN220 M30/M34 A3020 RMK CI2 SLP260

CYWG;2009-01-09 15:00;CYWG 091500Z 31003KT 10SM BKN220 M29/M33 A3024 RMK CI2 FROIN SLP275

CYWG;2009-01-09 16:00;CYWG 091600Z 28003KT 15SM BKN230 M26/M31 A3027 RMK CI2 SLP285

CYWG;2009-01-09 17:00;CYWG 091700Z 28003KT 15SM BKN230 M26/M30 A3029 RMK CI2 SLP292

CYWG;2009-01-09 18:00;CYWG 091800Z 25002KT 15SM BKN230 M23/M26 A3029 RMK CI4 SLP288

CYWG;2009-01-09 19:00;CYWG 091900Z 28006KT 15SM SCT230 M22/M26 A3030 RMK CI4 SLP291

CYWG;2009-01-09 20:00;CYWG 092000Z 28005KT 15SM SCT230 M21/M25 A3029 RMK CI4 SLP288

CYWG;2009-01-09 21:00;CYWG 092100Z 26005KT 15SM BKN081 M20/M24 A3029 RMK AC6 SLP290

CYWG;2009-01-09 22:00;CYWG 092200Z 23006KT 15SM BKN086 M19/M23 A3029 RMK AC6 SLP290

CYWG;2009-01-09 23:00;CYWG 092300Z 25005KT 15SM OVC078 M19/M23 A3031 RMK AC8 SLP295

CYWG;2009-01-10 00:00;CYWG 100000Z 21004KT 15SM OVC076 M18/M22 A3031 RMK AC8 SLP294

CYWG;2009-01-10 01:00;CYWG 100100Z 21006KT 15SM BKN074 M17/M22 A3030 RMK AC7 SLP291

CYWG;2009-01-10 02:00;CYWG 100200Z 21007KT 15SM BKN068 M18/M22 A3031 RMK AC5 SLP292

CYWG;2009-01-10 03:00;CYWG 100300Z 19007KT 15SM BKN066 M18/M22 A3031 RMK AS5 SLP295

CYWG;2009-01-10 04:00;CYWG 100400Z 19007KT 15SM FEW054 M20/M24 A3030 RMK SC2 SLP290

CYWG;2009-01-10 05:00;CYWG 100500Z 19007KT 15SM FEW089 M20/M29 A3029 RMK AC2 SLP287

CYWG;2009-01-10 06:00;CYWG 100600Z 21007KT 15SM BKN110 OVC220 M19/M23 A3025 RMK AC4CI1 SLP273

CYWG;2009-01-10 07:00;CYWG 100700Z 22008KT 15SM BKN084 OVC220 M18/M22 A3024 RMK AC5CS0 SLP268

CYWG;2009-01-10 08:00;CYWG 100800Z 21006KT 15SM BKN100 BKN220 M18/M21 A3021 RMK AC4CS0 SLP259

CYWG;2009-01-10 09:00;CYWG 100900Z 24009KT 15SM BKN100 OVC220 M16/M20 A3021 RMK AC6CS0 SLP256

CYWG;2009-01-10 10:00;CYWG 101000Z 24007KT 15SM BKN091 OVC220 M16/M20 A3020 RMK AC6CS0 SLP253

CYWG;2009-01-10 11:00;CYWG 101100Z 23008KT 15SM BKN083 BKN220 M16/M20 A3018 RMK AC4CS0 SLP245

CYWG;2009-01-10 12:00;CYWG 101200Z 22008KT 15SM BKN079 M16/M20 A3015 RMK AC2 SLP235

CYWG;2009-01-10 13:00;CYWG 101300Z 21010KT 15SM BKN089 M16/M20 A3012 RMK AC3 SLP223

CYWG;2009-01-10 14:00;CYWG 101400Z 20009KT 15SM BKN110 M17/M21 A3010 RMK AC3 SLP218

CYWG;2009-01-10 15:00;CYWG 101500Z 19009KT 15SM BKN082 M17/M21 A3008 RMK AC5 SLP210

CYWG;2009-01-10 16:00;CYWG 101600Z 19011KT 15SM BKN094 BKN200 M17/M21 A3004 RMK AC6CI2 SLP199

CYWG;2009-01-10 17:00;CYWG 101700Z 20015KT 15SM BKN075 OVC220 M17/M21 A3005 RMK AC6CI2 SLP201

CYWG;2009-01-10 18:00;CYWG 101800Z 19014KT 15SM BKN076 BKN220 M16/M20 A3003 RMK AC5CI2 SLP192

CYWG;2009-01-10 19:00;CYWG 101900Z 19013KT 15SM SCT070 BKN220 M16/M19 A2998 RMK AC3CI3 SLP177

CYWG;2009-01-10 20:00;CYWG 102000Z 19011KT 15SM SCT060 BKN220 M15/M19 A2998 RMK SC3CI3 SLP177

CYWG;2009-01-10 21:00;CYWG 102100Z 18012KT 15SM FEW032 BKN066 BKN220 M15/M19 A2997 RMK SC2AC3CI1 SLP172

CYWG;2009-01-10 22:00;CYWG 102200Z 20009KT 15SM SCT046 BKN077 BKN220 M15/M18 A2996 RMK SC2AC3CI1 SLP171

CYWG;2009-01-10 23:00;CYWG 102300Z 18007KT 15SM BKN044 OVC092 M15/M18 A2997 RMK SC5AC2 SLP174

CYWG;2009-01-10 23:40;CYWG 102340Z 20005KT 15SM -SN OVC047 M15/ RMK SC7

CYWG;2009-01-11 00:00;CYWG 110000Z 20005KT 15SM -SN OVC047 M14/M17 A2999 RMK SC7 SLP178

CYWG;2009-01-11 00:45;CYWG 110045Z 22003KT 3SM -SN OVC015 M14/ RMK SC8

CYWG;2009-01-11 01:00;CYWG 110100Z 23002KT 2SM -SN OVC011 M14/M16 A3000 RMK SN3SC5 SLP182

CYWG;2009-01-11 01:12;CYWG 110112Z 21002KT 1SM R13/P6000FT/U R36/P6000FT/U -SN OVC020 M14/ RMK SN3SC5

CYWG;2009-01-11 02:00;CYWG 110200Z 00000KT 1SM R13/P6000FT/N R36/P6000FT/N -SN VV004 M14/M16 A3001 RMK SN8 SLP184

CYWG;2009-01-11 03:00;CYWG 110300Z 32004KT 1SM R13/P6000FT/N R36/P6000FT/D -SN VV010 M13/M15 A3001 RMK SN8 /S03/ SLP186

CYWG;2009-01-11 03:30;CYWG 110330Z 32005KT 10SM -SN BKN045 OVC084 M13/ RMK SC6AC2

CYWG;2009-01-11 04:00;CYWG 110400Z 33008KT 15SM BKN032 BKN095 M14/M16 A3004 RMK SC5AS2 SLP194

CYWG;2009-01-11 05:00;CYWG 110500Z 34008KT 15SM BKN055 M15/M17 A3006 RMK SC6 SLP200

CYWG;2009-01-11 06:00;CYWG 110600Z 36007KT 15SM BKN070 M15/M19 A3008 RMK AC6 SLP209

CYWG;2009-01-11 07:00;CYWG 110700Z 35006KT 15SM SCT065 M19/M22 A3010 RMK SC3 SLP218

CYWG;2009-01-11 08:00;CYWG 110800Z 33009KT 15SM FEW065 M23/M26 A3011 RMK SC1 SLP220

CYWG;2009-01-11 09:00;CYWG 110900Z 33006KT 15SM FEW073 M23/M26 A3013 RMK AC2 SLP231

CYWG;2009-01-11 10:00;CYWG 111000Z 31009KT 15SM FEW075 M24/M27 A3016 RMK AC1 SLP241

CYWG;2009-01-11 11:00;CYWG 111100Z 30010KT 15SM FEW095 M24/M28 A3017 RMK AC1 SLP244

CYWG;2009-01-11 12:00;CYWG 111200Z 32009KT 12SM BCFG SKC M25/M29 A3017 RMK SLP245

CYWG;2009-01-11 13:00;CYWG 111300Z 29008KT 12SM BCFG BKN002 M25/M29 A3017 RMK SF2 SLP244

CYWG;2009-01-11 13:12;CYWG 111312Z 29008KT 6SM BR OVC002 M23/ RMK SF6

CYWG;2009-01-11 13:26;CYWG 111326Z 28007KT 4SM BR OVC003 M23/ RMK SF7

CYWG;2009-01-11 13:41;CYWG 111341Z 30005KT 1 1/2SM BR OVC003 M22/ RMK SF8

CYWG;2009-01-11 14:00;CYWG 111400Z 30004KT 2SM BR OVC002 M22/M26 A3016 RMK SF8 SLP242

CYWG;2009-01-11 14:38;CYWG 111438Z 29003KT 2SM BR OVC004 M22/ RMK SF8

CYWG;2009-01-11 15:00;CYWG 111500Z 27003KT 2SM BR OVC002 M22/M26 A3016 RMK SF8 SLP239

CYWG;2009-01-11 15:10;CYWG 111510Z 25004KT 4SM BR BKN002 BKN150 OVC220 M22/ RMK SF3AC2CI1

CYWG;2009-01-11 16:00;CYWG 111600Z 27004KT 12SM FEW002 BKN057 BKN150 M19/M22 A3015 RMK SF1SC5AC1 SLP234

CYWG;2009-01-11 17:00;CYWG 111700Z 29004KT 15SM BKN042 M18/M21 A3016 RMK SC7 SLP237

CYWG;2009-01-11 18:00;CYWG 111800Z 31002KT 15SM BKN066 M17/M19 A3013 RMK AC6 SLP226

CYWG;2009-01-11 19:00;CYWG 111900Z 34004KT 15SM SCT058 BKN150 BKN220 M18/M21 A3012 RMK SC4AC1CI0 SLP224

CYWG;2009-01-11 20:00;CYWG 112000Z 34002KT 15SM SCT019 BKN061 OVC093 M16/M19 A3009 RMK SC3SC3AC2 SLP215

CYWG;2009-01-11 20:10;CYWG 112010Z 34004KT 8SM -SN BKN017 OVC093 M16/ RMK SC6AC2

CYWG;2009-01-11 21:00;CYWG 112100Z 36002KT 10SM -SN BKN019 OVC093 M16/M20 A3009 RMK SC6AC2 SLP218

CYWG;2009-01-11 21:12;CYWG 112112Z 34002KT 15SM BKN019 BKN031 OVC093 M16/ RMK SC5SC2AC2

CYWG;2009-01-11 22:00;CYWG 112200Z 27002KT 15SM BKN020 BKN089 M16/M19 A3010 RMK SC5AC2 SLP219

CYWG;2009-01-11 23:00;CYWG 112300Z 00000KT 15SM SCT044 BKN086 M17/M20 A3007 RMK SC3AC3 SLP211

CYWG;2009-01-12 00:00;CYWG 120000Z 23002KT 15SM FEW020 SCT044 BKN084 M16/M19 A3006 RMK SC2SC2AC3 SLP206

CYWG;2009-01-12 01:00;CYWG 120100Z 18003KT 15SM FEW020 OVC084 M16/M19 A3005 RMK SC2AC6 SLP202

CYWG;2009-01-12 02:00;CYWG 120200Z 00000KT 15SM BKN031 OVC084 M16/M19 A3005 RMK SC5AC3 SLP203

CYWG;2009-01-12 03:00;CYWG 120300Z 03005KT 15SM BKN031 OVC081 M16/M19 A3005 RMK SC6AC2 SLP202

CYWG;2009-01-12 04:00;CYWG 120400Z 06004KT 15SM SCT031 OVC080 M16/M19 A3004 RMK SC3AC5 SLP200

CYWG;2009-01-12 05:00;CYWG 120500Z CCA 06006KT 9SM -SN OVC041 M16/M19 A3006 RMK SC8 SLP205

CYWG;2009-01-12 05:25;CYWG 120525Z 05011KT 2 1/2SM -SN OVC024 M16/ RMK SC7

CYWG;2009-01-12 06:00;CYWG 120600Z 05012KT 2SM -SN VV011 M16/M20 A3008 RMK SN8 SLP209

CYWG;2009-01-12 06:28;CYWG 120628Z 05013KT 1 3/4SM -SN VV009 M17/ RMK SN8

CYWG;2009-01-12 07:00;CYWG 120700Z 04010KT 1 3/4SM -SN VV011 M17/M20 A3010 RMK SN8 SLP216

CYWG;2009-01-12 07:25;CYWG 120725Z 04011KT 1 1/2SM -SN VV008 M17/ RMK SN8

CYWG;2009-01-12 08:00;CYWG 120800Z 04015KT 2 1/2SM -SN SKC M17/M21 A3012 RMK SN6 SLP222

CYWG;2009-01-12 09:00;CYWG 120900Z 03017KT 2 1/2SM -SN SKC M18/M22 A3015 RMK SN7 SLP235

CYWG;2009-01-12 09:20;CYWG 120920Z 03015KT 4SM -SN FEW009 SCT090 M19/ RMK SF2AC2

CYWG;2009-01-12 10:00;CYWG 121000Z 02016KT 9SM DRSN SCT014 BKN070 M19/M23 A3018 RMK SF2AC2 SLP243

CYWG;2009-01-12 11:00;CYWG 121100Z CCA 01011KT 15SM DRSN FEW043 SCT083 M20/M24 A3022 RMK SC1AC1 SLP257

CYWG;2009-01-12 12:00;CYWG 121200Z 36013KT 15SM DRSN SCT085 BKN260 M21/M26 A3026 RMK AC2CI0 SLP273

CYWG;2009-01-12 13:00;CYWG 121300Z 36009KT 15SM DRSN SCT086 SCT260 M24/M28 A3030 RMK AC1CI0 SLP287

CYWG;2009-01-12 14:00;CYWG 121400Z 34011KT 15SM FEW086 FEW260 M25/M29 A3033 RMK AC1CI0 SLP297

CYWG;2009-01-12 15:00;CYWG 121500Z 32008KT 15SM FEW086 SCT260 M27/M31 A3037 RMK AC0CI0 SLP313

CYWG;2009-01-12 16:00;CYWG 121600Z 34013KT 15SM DRSN FEW260 M25/M30 A3040 RMK CI0 SLP324

CYWG;2009-01-12 17:00;CYWG 121700Z 34014KT 15SM DRSN FEW260 M25/M30 A3044 RMK CI0 SLP335

CYWG;2009-01-12 18:00;CYWG 121800Z 33014KT 15SM DRSN FEW260 M24/M29 A3045 RMK CI1 SLP340

CYWG;2009-01-12 19:00;CYWG 121900Z 31012KT 15SM DRSN FEW260 M24/M29 A3045 RMK CI1 SLP340

CYWG;2009-01-12 20:00;CYWG 122000Z 33016KT 15SM DRSN FEW260 M24/M30 A3046 RMK CI1 SLP342

CYWG;2009-01-12 21:00;CYWG 122100Z 31008KT 15SM SKC M25/M31 A3046 RMK SLP345

CYWG;2009-01-12 22:00;CYWG 122200Z 32011KT 15SM DRSN SKC M26/M32 A3047 RMK SLP347

CYWG;2009-01-12 23:00;CYWG 122300Z 31010KT 15SM DRSN SKC M28/M33 A3047 RMK SLP348

CYWG;2009-01-13 00:00;CYWG 130000Z 31011KT 15SM DRSN SKC M29/M34 A3047 RMK SLP349

CYWG;2009-01-13 01:00;CYWG 130100Z 32006KT 15SM SKC M29/M35 A3046 RMK SLP347

CYWG;2009-01-13 02:00;CYWG 130200Z 30005KT 15SM SKC M29/M34 A3045 RMK SLP343

CYWG;2009-01-13 03:00;CYWG 130300Z 29007KT 15SM SKC M31/M36 A3044 RMK SLP344

CYWG;2009-01-13 04:00;CYWG 130400Z 30009KT 15SM SKC M34/M38 A3044 RMK SLP343

CYWG;2009-01-13 05:00;CYWG 130500Z 29007KT 15SM SKC M32/M36 A3043 RMK SLP339

CYWG;2009-01-13 06:00;CYWG 130600Z 29009KT 15SM SKC M33/M37 A3042 RMK SLP338

CYWG;2009-01-13 07:00;CYWG 130700Z 29008KT 15SM SKC M34/M38 A3039 RMK SLP328

CYWG;2009-01-13 08:00;CYWG 130800Z 28006KT 15SM SKC M34/M38 A3038 RMK SLP325

CYWG;2009-01-13 09:00;CYWG 130900Z 29006KT 15SM SKC M33/M36 A3038 RMK FROIN SLP321

CYWG;2009-01-13 10:00;CYWG 131000Z 28007KT 3SM BR SKC M33/M37 A3037 RMK FROIN SLP320

CYWG;2009-01-13 11:00;CYWG 131100Z 29007KT 3SM BR SKC M33/M38 A3034 RMK FROIN SLP308

CYWG;2009-01-13 12:00;CYWG 131200Z 00000KT 2SM BR SKC M35/M40 A3032 RMK FROIN SLP305

CYWG;2009-01-13 12:24;CYWG 131224Z 00000KT 5SM BR SKC M36/

CYWG;2009-01-13 13:00;CYWG 131300Z 22002KT 10SM SKC M36/M41 A3029 RMK SLP297

CYWG;2009-01-13 14:00;CYWG 131400Z 17004KT 6SM MIFG FEW220 M35/M38 A3027 RMK CI0 SLP290

CYWG;2009-01-13 15:00;CYWG 131500Z 19006KT 5SM MIFG BKN220 M33/M38 A3026 RMK CI2 SLP286

CYWG;2009-01-13 16:00;CYWG 131600Z 17005KT 10SM OVC220 M32/M36 A3026 RMK CI2 SLP284

CYWG;2009-01-13 17:00;CYWG 131700Z 19005KT 10SM OVC220 M30/M34 A3025 RMK CS2 SLP280

CYWG;2009-01-13 18:00;CYWG 131800Z 16004KT 10SM OVC220 M28/M31 A3022 RMK CS2 SLP268

CYWG;2009-01-13 19:00;CYWG 131900Z 18004KT 15SM OVC220 M25/M29 A3020 RMK CS2 SLP262

CYWG;2009-01-13 20:00;CYWG 132000Z 16006KT 15SM OVC220 M25/M30 A3019 RMK CS2 SLP258

CYWG;2009-01-13 21:00;CYWG 132100Z 00000KT 15SM BKN220 M25/M31 A3017 RMK CI2 SLP252

CYWG;2009-01-13 22:00;CYWG 132200Z 03006KT 15SM BKN220 M30/M34 A3020 RMK CI2 SLP262

CYWG;2009-01-13 23:00;CYWG 132300Z 03005KT 15SM BKN220 M32/M37 A3024 RMK CI2 SLP273

CYWG;2009-01-14 00:00;CYWG 140000Z 05005KT 15SM FEW079 OVC220 M29/M33 A3024 RMK AC2CI2 SLP278

CYWG;2009-01-14 01:00;CYWG 140100Z 35003KT 15SM BKN079 OVC220 M28/M33 A3027 RMK AC5CI2 SLP289

CYWG;2009-01-14 02:00;CYWG 140200Z 35005KT 15SM SCT079 OVC220 M29/M33 A3029 RMK AC3CI2 SLP296

CYWG;2009-01-14 03:00;CYWG 140300Z 33006KT 15SM FEW080 SCT220 M31/M36 A3032 RMK AC1CI1 SLP306

CYWG;2009-01-14 04:00;CYWG 140400Z 34004KT 15SM SKC M34/M39 A3034 RMK SLP311

CYWG;2009-01-14 05:00;CYWG 140500Z 32007KT 15SM SKC M34/M37 A3035 RMK SLP315

CYWG;2009-01-14 06:00;CYWG 140600Z 34009KT 15SM SKC M37/M40 A3038 RMK SLP326

CYWG;2009-01-14 07:00;CYWG 140700Z 30008KT 15SM SKC M35/M39 A3039 RMK SLP331

CYWG;2009-01-14 08:00;CYWG 140800Z 28008KT 15SM SKC M33/M37 A3041 RMK SLP335

CYWG;2009-01-14 09:00;CYWG 140900Z 29013KT 15SM SKC M34/M39 A3043 RMK SLP341

CYWG;2009-01-14 10:00;CYWG 141000Z 29010KT 15SM SKC M35/M40 A3046 RMK SLP350

CYWG;2009-01-14 11:00;CYWG 141100Z 28009KT 15SM SKC M35/M39 A3048 RMK SLP358

CYWG;2009-01-14 12:00;CYWG 141200Z 28010KT 10SM SKC M34/M38 A3051 RMK BR SLP369

CYWG;2009-01-14 13:00;CYWG 141300Z 29012KT 10SM SKC M34/M39 A3053 RMK BR SLP376

CYWG;2009-01-14 14:00;CYWG 141400Z 30010KT 15SM SKC M36/M40 A3054 RMK VIS E 6 BR SLP380

CYWG;2009-01-14 15:00;CYWG 141500Z 28007KT 15SM SKC M34/M38 A3055 RMK VIS 5 E BR SLP385

CYWG;2009-01-14 16:00;CYWG 141600Z 29006KT 8SM SKC M33/M37 A3057 RMK BR SLP390

CYWG;2009-01-14 17:00;CYWG 141700Z CCA 27005KT 8SM SKC M31/M36 A3058 RMK IC SLP396

CYWG;2009-01-14 18:00;CYWG 141800Z 28004KT 15SM SKC M29/M34 A3058 RMK IC SLP397

CYWG;2009-01-14 18:22;CYWG 141822Z 29006KT 15SM SKC M29/

CYWG;2009-01-14 19:00;CYWG 141900Z 30006KT 15SM SKC M28/M33 A3058 RMK SLP397

CYWG;2009-01-14 20:00;CYWG 142000Z 30009KT 15SM SKC M28/M32 A3059 RMK SLP398

CYWG;2009-01-14 21:00;CYWG 142100Z 30009KT 15SM SKC M27/M32 A3059 RMK SLP396

CYWG;2009-01-14 22:00;CYWG 142200Z 31011KT 15SM SKC M27/M32 A3060 RMK SLP400

CYWG;2009-01-14 23:00;CYWG 142300Z 30008KT 15SM SKC M29/M33 A3061 RMK SLP403

CYWG;2009-01-15 00:00;CYWG 150000Z 31010KT 15SM SKC M30/M35 A3062 RMK SLP408

CYWG;2009-01-15 01:00;CYWG 150100Z 30007KT 15SM SKC M30/M35 A3062 RMK SLP409

CYWG;2009-01-15 02:00;CYWG 150200Z 28009KT 15SM SKC M29/M33 A3063 RMK SLP412

CYWG;2009-01-15 03:00;CYWG 150300Z 28009KT 15SM SKC M30/M34 A3064 RMK SLP413

CYWG;2009-01-15 04:00;CYWG 150400Z 30014KT 15SM SKC M29/M34 A3063 RMK SLP411

CYWG;2009-01-15 05:00;CYWG 150500Z 29014KT 15SM SKC M29/M34 A3062 RMK SLP408

CYWG;2009-01-15 06:00;CYWG 150600Z 29014KT 15SM SKC M29/M33 A3063 RMK SLP409

CYWG;2009-01-15 07:00;CYWG 150700Z 28013KT 15SM FEW092 M28/M32 A3062 RMK AC1 SLP406

CYWG;2009-01-15 08:00;CYWG 150800Z 28009KT 15SM FEW088 M30/M35 A3063 RMK AC1 SLP408

CYWG;2009-01-15 09:00;CYWG 150900Z 29010KT 15SM FEW088 M31/M36 A3063 RMK AC1 TR AC SLP408

CYWG;2009-01-15 10:00;CYWG 151000Z 28014KT 15SM SCT082 M30/M35 A3062 RMK AC2 SLP406

CYWG;2009-01-15 11:00;CYWG 151100Z 27008KT 15SM FEW087 M31/M36 A3062 RMK AC1 SLP405

CYWG;2009-01-15 12:00;CYWG 151200Z 27010KT 15SM FEW084 M31/M36 A3062 RMK AC1 SLP406

CYWG;2009-01-15 13:00;CYWG 151300Z 27007KT 15SM FEW210 M32/M37 A3062 RMK CI0 SLP406

CYWG;2009-01-15 14:00;CYWG 151400Z 27007KT 15SM SCT210 M32/M37 A3061 RMK CI1 SLP404

CYWG;2009-01-15 15:00;CYWG 151500Z 27010KT 15SM FEW210 M31/M36 A3061 RMK CI0 SLP401

CYWG;2009-01-15 16:00;CYWG 151600Z 28009KT 15SM SKC M30/M35 A3062 RMK SLP405

CYWG;2009-01-15 17:00;CYWG 151700Z 27008KT 15SM SKC M28/M35 A3061 RMK SLP404

CYWG;2009-01-15 18:00;CYWG 151800Z 27005KT 15SM FEW210 M27/M34 A3061 RMK CI0 SLP399

CYWG;2009-01-15 19:00;CYWG 151900Z 27005KT 15SM FEW210 M27/M34 A3059 RMK CI0 SLP394

CYWG;2009-01-15 20:00;CYWG 152000Z 26007KT 15SM FEW210 M25/M33 A3058 RMK CI1 SLP389

CYWG;2009-01-15 21:00;CYWG 152100Z 25004KT 15SM FEW210 M23/M32 A3055 RMK CI1 SLP381

CYWG;2009-01-15 22:00;CYWG 152200Z 23007KT 15SM FEW210 M25/M32 A3055 RMK CI1 SLP380

CYWG;2009-01-15 23:00;CYWG 152300Z 21004KT 15SM FEW210 M26/M32 A3054 RMK CI1 SLP376

CYWG;2009-01-16 00:00;CYWG 160000Z 21004KT 15SM SKC M27/M32 A3052 RMK SLP372

CYWG;2009-01-16 01:00;CYWG 160100Z 21004KT 15SM SKC M29/M33 A3051 RMK SLP368

CYWG;2009-01-16 02:00;CYWG 160200Z 19006KT 15SM SKC M30/M33 A3049 RMK SLP362

CYWG;2009-01-16 03:00;CYWG 160300Z 18008KT 15SM SKC M31/M35 A3047 RMK SLP354

CYWG;2009-01-16 04:00;CYWG 160400Z 19007KT 15SM SKC M30/M34 A3046 RMK SLP351

CYWG;2009-01-16 05:00;CYWG 160500Z 18007KT 15SM FEW220 M32/M36 A3043 RMK CI1 SLP343

CYWG;2009-01-16 06:00;CYWG 160600Z 18008KT 15SM FEW220 M31/M36 A3042 RMK CI1 SLP336

CYWG;2009-01-16 07:00;CYWG 160700Z 18012KT 15SM FEW110 SCT220 M30/M35 A3039 RMK AC2CI1 SLP327

CYWG;2009-01-16 08:00;CYWG 160800Z 18013KT 15SM FEW110 SCT220 M30/M35 A3036 RMK AC1CI1 SLP317

CYWG;2009-01-16 09:00;CYWG 160900Z 18012KT 15SM FEW220 M30/M35 A3034 RMK CI0 SLP307

CYWG;2009-01-16 10:00;CYWG 161000Z 18013KT 15SM FEW220 M30/M35 A3032 RMK CI0 SLP299

CYWG;2009-01-16 11:00;CYWG 161100Z 18012G17KT 15SM SKC M29/M35 A3029 RMK SLP291

CYWG;2009-01-16 12:00;CYWG 161200Z 18013KT 15SM SCT210 M30/M35 A3027 RMK CI1 SLP284

CYWG;2009-01-16 13:00;CYWG 161300Z 19012KT 15SM SCT210 M30/M35 A3027 RMK CI1 SLP284

CYWG;2009-01-16 14:00;CYWG 161400Z 18014KT 15SM BKN210 M29/M34 A3023 RMK CI2 SLP272

CYWG;2009-01-16 15:00;CYWG 161500Z 19013KT 15SM FEW140 BKN210 M28/M33 A3021 RMK AC1CI2 SLP264

CYWG;2009-01-16 16:00;CYWG 161600Z 18015KT 15SM FEW140 BKN210 M27/M32 A3016 RMK AC1CI2 SLP250

CYWG;2009-01-16 17:00;CYWG 161700Z 18018KT 15SM BKN210 M25/M30 A3014 RMK CI2 SLP242

CYWG;2009-01-16 18:00;CYWG 161800Z 19015KT 15SM BKN080 BKN210 M24/M28 A3010 RMK AC6CI0 SLP226

CYWG;2009-01-16 18:41;CYWG 161841Z 18016KT 15SM BKN023 BKN085 OVC210 M24/ RMK SC6AC1CI1

CYWG;2009-01-16 19:00;CYWG 161900Z 18017KT 15SM OVC023 OVC085 M23/M27 A3005 RMK SC7AC1 SLP209

CYWG;2009-01-16 20:00;CYWG 162000Z 18018KT 15SM BKN021 OVC077 M22/M26 A3000 RMK SC6AC2 SLP194

CYWG;2009-01-16 21:00;CYWG 162100Z 18018KT 15SM DRSN BKN017 OVC075 M20/M24 A2995 RMK SC6AC2 SLP173

CYWG;2009-01-16 21:45;CYWG 162145Z 18018KT 10SM -SN DRSN OVC013 M19/ RMK SC8

CYWG;2009-01-16 22:00;CYWG 162200Z 18017G26KT 10SM -SN DRSN BKN013 OVC045 M19/M23 A2990 RMK SC6SC2 SLP156

CYWG;2009-01-16 22:25;CYWG 162225Z 19021KT 2 1/2SM -SN DRSN OVC013 M19/ RMK ST8

CYWG;2009-01-16 23:00;CYWG 162300Z 18019G26KT 2SM -SN DRSN OVC013 M18/M22 A2983 RMK ST8 SLP135

CYWG;2009-01-16 23:47;CYWG 162347Z 18023G28KT 1SM R13/P6000FT/D R36/P6000FT/N -SN BLSN OVC011 M18/ RMK ST8

CYWG;2009-01-17 00:00;CYWG 170000Z 19020G26KT 1SM R13/P6000FT/U R36/P6000FT/U -SN BLSN OVC011 M18/M21 A2978 RMK ST8 /S01/ PRESFR SLP115

CYWG;2009-01-17 01:00;CYWG 170100Z 19015G20KT 2SM -SN BLSN OVC009 M17/M20 A2977 RMK ST8 SLP112

CYWG;2009-01-17 02:00;CYWG 170200Z 18016G21KT 2 1/2SM -SN BLSN OVC008 M17/M20 A2972 RMK ST8 SLP095

CYWG;2009-01-17 03:00;CYWG 170300Z 19016G21KT 3SM -SN BLSN BKN008 OVC020 M16/M19 A2969 RMK ST5SC3 SLP081

CYWG;2009-01-17 03:51;CYWG 170351Z 19012KT 3SM -SN DRSN FEW005 OVC014 M16/ RMK SF2SC6

CYWG;2009-01-17 04:00;CYWG 170400Z 20011KT 5SM DRSN BR OVC014 M16/M19 A2968 RMK SC8 SLP078

CYWG;2009-01-17 04:40;CYWG 170440Z 18008KT 6SM -SN BR OVC014 RMK SC8

CYWG;2009-01-17 05:00;CYWG 170500Z 19007KT 12SM -SN OVC014 M15/M18 A2968 RMK SC8 SLP077

CYWG;2009-01-17 06:00;CYWG 170600Z 30005KT 12SM -SN OVC012 M15/M17 A2970 RMK SC8 SLP082

CYWG;2009-01-17 06:45;CYWG 170645Z 33015KT 10SM -SN OVC009 M15/ RMK SC8

CYWG;2009-01-17 07:00;CYWG 170700Z 33016KT 10SM -SN OVC009 M15/M17 A2973 RMK SC8 SLP092

CYWG;2009-01-17 07:37;CYWG 170737Z 33018KT 10SM -SN DRSN OVC010 M14/ RMK SC8

CYWG;2009-01-17 08:00;CYWG 170800Z 33020KT 6SM -SN DRSN OVC012 M14/M16 A2975 RMK SC8 SLP099

CYWG;2009-01-17 09:00;CYWG 170900Z 35014G19KT 5SM -SN DRSN OVC010 M13/M15 A2979 RMK SC8 SLP111

CYWG;2009-01-17 09:41;CYWG 170941Z 35014KT 2 1/2SM -SN DRSN VV006 M13/ RMK SN8

CYWG;2009-01-17 10:00;CYWG 171000Z 34012KT 2SM -SN DRSN OVC010 M13/M14 A2980 RMK SC8 SLP116

CYWG;2009-01-17 11:00;CYWG 171100Z 34013KT 2SM -SN DRSN OVC020 M12/M14 A2983 RMK SC8 /S01/ SLP124

CYWG;2009-01-17 11:45;CYWG 171145Z 34013KT 3SM -SN OVC021 M11/ RMK SC8

CYWG;2009-01-17 12:00;CYWG 171200Z 34012KT 3SM -SN OVC023 M11/M13 A2985 RMK SC8 SLP130

CYWG;2009-01-17 13:00;CYWG 171300Z 34012KT 8SM -SN OVC025 M11/M13 A2987 RMK SC8 SLP135

CYWG;2009-01-17 14:00;CYWG 171400Z 34008KT 3SM -SN OVC025 M11/M13 A2987 RMK SC8 SLP137

CYWG;2009-01-17 15:00;CYWG 171500Z 33007KT 5SM -SN OVC023 M12/M14 A2988 RMK SC8 SLP140

CYWG;2009-01-17 16:00;CYWG 171600Z 33006KT 4SM -SN BKN023 OVC120 M11/M12 A2991 RMK SC7AC1 SLP150

CYWG;2009-01-17 17:00;CYWG 171700Z 00000KT 12SM -SN OVC017 M10/M11 A2989 RMK SC8 SLP144

CYWG;2009-01-17 17:46;CYWG 171746Z 26002KT 15SM OVC017 M09/ RMK SC8

CYWG;2009-01-17 18:00;CYWG 171800Z 25003KT 15SM OVC017 M09/M11 A2988 RMK SC8 SLP139

CYWG;2009-01-17 18:39;CYWG 171839Z 26006KT 6SM -SN OVC015 M08/ RMK SC8

CYWG;2009-01-17 19:00;CYWG 171900Z 24005KT 10SM -SN OVC015 M08/M10 A2987 RMK SC8 SLP134

CYWG;2009-01-17 20:00;CYWG 172000Z 22005KT 15SM -SN BKN015 BKN090 M07/M10 A2983 RMK SC6AC1 SLP124

CYWG;2009-01-17 21:00;CYWG 172100Z 20003KT 15SM FEW015 BKN082 M07/M09 A2982 RMK SC2AC3 SLP117

CYWG;2009-01-17 22:00;CYWG 172200Z 21005KT 15SM FEW036 SCT093 M07/M10 A2982 RMK SC2AC1 SLP118

CYWG;2009-01-17 23:00;CYWG 172300Z 18006KT 15SM FEW030 M10/M12 A2983 RMK SC2 SLP120

CYWG;2009-01-18 00:00;CYWG 180000Z 16005KT 15SM SCT028 M11/M12 A2983 RMK SC3 SLP123

CYWG;2009-01-18 01:00;CYWG 180100Z 20005KT 15SM FEW033 M11/M12 A2984 RMK SC2 SLP125

CYWG;2009-01-18 02:00;CYWG 180200Z 21007KT 15SM BKN033 M10/M11 A2984 RMK SC6 SLP126

CYWG;2009-01-18 03:00;CYWG 180300Z 25004KT 15SM BKN031 M08/M09 A2984 RMK SC6 SLP125

CYWG;2009-01-18 04:00;CYWG 180400Z 29009KT 15SM BKN031 M08/M09 A2985 RMK SC6 SLP126

CYWG;2009-01-18 05:00;CYWG 180500Z 30010KT 15SM BKN034 M07/M08 A2986 RMK SC6 SLP130

CYWG;2009-01-18 06:00;CYWG 180600Z 30012KT 15SM BKN030 M08/M09 A2986 RMK SC7 SLP130

CYWG;2009-01-18 07:00;CYWG 180700Z 30010KT 15SM BKN033 M08/M09 A2986 RMK SC6 SLP129

CYWG;2009-01-18 08:00;CYWG 180800Z 31011KT 15SM BKN033 M06/M08 A2985 RMK SC7 SLP126

CYWG;2009-01-18 09:00;CYWG 180900Z 31009KT 15SM OVC033 M06/M07 A2987 RMK SC8 SLP131

CYWG;2009-01-18 10:00;CYWG 181000Z 32007KT 15SM OVC032 M05/M07 A2985 RMK SC8 SLP126

CYWG;2009-01-18 11:00;CYWG 181100Z 32006KT 15SM OVC029 M05/M06 A2985 RMK SC8 SLP126

CYWG;2009-01-18 12:00;CYWG 181200Z CCA 34008KT 15SM FEW012 OVC030 M04/M06 A2988 RMK SF1SC7 SLP136

CYWG;2009-01-18 13:00;CYWG 181300Z 03010KT 15SM -SN OVC014 M05/M06 A2990 RMK SC8 SLP141

CYWG;2009-01-18 13:21;CYWG 181321Z 03009KT 15SM OVC014 M05/ RMK SC8

CYWG;2009-01-18 14:00;CYWG 181400Z 04012KT 15SM -SN OVC019 M05/M07 A2991 RMK SC8 SLP146

CYWG;2009-01-18 15:00;CYWG 181500Z 04009G15KT 15SM -SN OVC019 M06/M08 A2993 RMK SC8 SLP153

CYWG;2009-01-18 16:00;CYWG 181600Z 02009KT 10SM -SN OVC015 M06/M07 A2996 RMK SC8 SLP163

CYWG;2009-01-18 17:00;CYWG 181700Z 01011KT 15SM OVC020 M06/M09 A2999 RMK SC8 SLP173

CYWG;2009-01-18 17:39;CYWG 181739Z 01010G15KT 15SM -SN OVC020 M06/ RMK SC8

CYWG;2009-01-18 18:00;CYWG 181800Z 36011KT 15SM -SN OVC020 M06/M09 A3000 RMK SC8 SLP177

CYWG;2009-01-18 19:00;CYWG 181900Z 35012KT 15SM OVC018 M06/M08 A2999 RMK SC8 SLP174

CYWG;2009-01-18 20:00;CYWG 182000Z 03008KT 15SM -SN OVC018 M06/M09 A3001 RMK SC8 SLP178

CYWG;2009-01-18 21:00;CYWG 182100Z 03011KT 8SM -SN OVC022 M07/M09 A3004 RMK SC8 SLP190

CYWG;2009-01-18 22:00;CYWG 182200Z 01006KT 10SM -SN OVC022 M08/M10 A3006 RMK SC8 SLP197

CYWG;2009-01-18 23:00;CYWG 182300Z 02005KT 10SM -SN OVC022 M08/M10 A3009 RMK SC8 SLP204

CYWG;2009-01-19 00:00;CYWG 190000Z 02007KT 10SM -SN OVC020 M09/M11 A3010 RMK SC8 SLP209

CYWG;2009-01-19 01:00;CYWG 190100Z 33007KT 15SM SCT020 M14/M15 A3009 RMK SC3 SLP208

CYWG;2009-01-19 02:00;CYWG 190200Z 31005KT 15SM FEW020 M15/M16 A3009 RMK SC2 SLP208

CYWG;2009-01-19 03:00;CYWG 190300Z 01002KT 15SM SCT020 M15/M16 A3009 RMK SC3 SLP210

CYWG;2009-01-19 04:00;CYWG 190400Z 19002KT 15SM FEW220 M15/M16 A3007 RMK CI1 SLP202

CYWG;2009-01-19 05:00;CYWG 190500Z 21003KT 15SM FEW014 SCT220 M18/M20 A3005 RMK SC2CI1 SLP197

CYWG;2009-01-19 05:49;CYWG 190549Z 22002KT 15SM BKN010 M15/ RMK SC6

CYWG;2009-01-19 06:00;CYWG 190600Z 21003KT 15SM BKN010 M16/M17 A3002 RMK SC6 PRESFR SLP184

CYWG;2009-01-19 06:20;CYWG 190620Z 00000KT 15SM SCT010 BKN220 M16/ RMK SC3CI1

CYWG;2009-01-19 07:00;CYWG 190700Z 00000KT 15SM FEW010 FEW220 M17/M18 A3002 RMK SC1CI0 SLP186

CYWG;2009-01-19 08:00;CYWG 190800Z 22004KT 15SM FEW220 M16/M18 A2999 RMK CI0 SLP177

CYWG;2009-01-19 08:33;CYWG 190833Z 24003KT 15SM SCT006 M16/ RMK SF3

CYWG;2009-01-19 09:00;CYWG 190900Z 00000KT 15SM BKN003 BKN019 M17/M19 A2999 RMK SF5SC1 SLP177

CYWG;2009-01-19 10:00;CYWG 191000Z 22003KT 12SM BKN002 OVC016 M13/M14 A2996 RMK SF3SC5 SLP167

CYWG;2009-01-19 10:23;CYWG 191023Z 23003KT 6SM BR BKN002 OVC014 M12/ RMK SF6SC2

CYWG;2009-01-19 11:00;CYWG 191100Z 23003KT 6SM BR OVC002 M11/M12 A2996 RMK SF8 SLP165

CYWG;2009-01-19 11:09;CYWG 191109Z 25003KT 8SM OVC003 M11/ RMK SF8 BR

CYWG;2009-01-19 12:00;CYWG 191200Z 29006KT 8SM OVC005 M10/M11 A2997 RMK SF8 BR SLP167

CYWG;2009-01-19 13:00;CYWG 191300Z 31009KT 10SM OVC010 M09/M10 A2999 RMK SF8 BR SLP173

CYWG;2009-01-19 14:00;CYWG 191400Z 33013KT 6SM BR OVC007 M08/M09 A3002 RMK SF8 SLP184

CYWG;2009-01-19 14:20;CYWG 191420Z 34013KT 3SM BR OVC005 M08/ RMK SF8

CYWG;2009-01-19 14:53;CYWG 191453Z 36014KT 6SM -SN OVC006 M07/ RMK SF8

CYWG;2009-01-19 15:00;CYWG 191500Z 36015KT 8SM -SN OVC006 M07/M08 A3005 RMK SF8 SLP196

CYWG;2009-01-19 16:00;CYWG 191600Z 33010KT 6SM -SN OVC007 M07/M08 A3007 RMK SF8 CIG RAG SLP203

CYWG;2009-01-19 16:52;CYWG 191652Z 33011KT 10SM OVC007 M06/ RMK SF8 CIG RAG BR

CYWG;2009-01-19 17:00;CYWG 191700Z 33013KT 10SM OVC007 M05/M06 A3008 RMK SF8 CIG RAG BR SLP205

CYWG;2009-01-19 18:00;CYWG 191800Z 34014KT 12SM OVC008 M04/M05 A3008 RMK SF8 CIG RAG SLP205

CYWG;2009-01-19 18:47;CYWG 191847Z 34019KT 15SM DRSN OVC010 M03/ RMK SC8

CYWG;2009-01-19 19:00;CYWG 191900Z 34020KT 15SM DRSN OVC010 M03/M05 A3008 RMK SC8 SLP206

CYWG;2009-01-19 20:00;CYWG 192000Z 35018KT 15SM DRSN OVC012 M03/M04 A3009 RMK SC8 SLP209

CYWG;2009-01-19 21:00;CYWG 192100Z 01016KT 15SM DRSN OVC014 M02/M04 A3012 RMK SC8 SLP221

CYWG;2009-01-19 22:00;CYWG 192200Z 04012KT 10SM DRSN OVC012 M03/M05 A3016 RMK SC8 SLP233

CYWG;2009-01-19 23:00;CYWG 192300Z 03014KT 15SM OVC014 M03/M05 A3018 RMK SC8 SLP238

CYWG;2009-01-20 00:00;CYWG 200000Z 04014KT 15SM OVC014 M05/M07 A3021 RMK SC8 SLP247

CYWG;2009-01-20 01:00;CYWG 200100Z 04011KT 15SM OVC012 M06/M08 A3022 RMK SC8 SLP253

CYWG;2009-01-20 02:00;CYWG 200200Z 07003KT 15SM BKN070 M08/M09 A3024 RMK AC7 SLP258

CYWG;2009-01-20 03:00;CYWG 200300Z 00000KT 15SM SCT130 M08/M09 A3023 RMK AC4 SLP256

CYWG;2009-01-20 04:00;CYWG 200400Z 29004KT 15SM FEW012 BKN090 M09/M10 A3023 RMK SF1AC5 SLP256

CYWG;2009-01-20 05:00;CYWG 200500Z 25004KT 15SM FEW012 SCT090 BKN130 M09/M10 A3022 RMK SF1AC3AC2 SLP251

CYWG;2009-01-20 06:00;CYWG 200600Z 18005KT 15SM BKN090 M10/M11 A3021 RMK AC4 SLP249

CYWG;2009-01-20 07:00;CYWG 200700Z 20006KT 15SM BKN090 M09/M10 A3019 RMK AC4 SLP243

CYWG;2009-01-20 08:00;CYWG 200800Z 18007KT 15SM BKN100 M08/M09 A3018 RMK AC7 SLP239

CYWG;2009-01-20 09:00;CYWG 200900Z 17009KT 15SM SCT100 M10/M11 A3017 RMK AC2 SLP234

CYWG;2009-01-20 09:29;CYWG 200929Z 19011KT 15SM BKN005 M09/ RMK SF3

CYWG;2009-01-20 09:53;CYWG 200953Z 19012KT 15SM SCT004 M09/ RMK SF3

CYWG;2009-01-20 10:00;CYWG 201000Z CCA 20013KT 15SM BKN003 M09/M10 A3012 RMK SF5 SLP218

CYWG;2009-01-20 10:33;CYWG 201033Z 18012KT 4SM BR OVC002 M09/ RMK SF8

CYWG;2009-01-20 11:00;CYWG 201100Z 18013KT 1 3/4SM BR OVC002 M09/M10 A3008 RMK SF8 FROIN SLP203

CYWG;2009-01-20 11:13;CYWG 201113Z 18015KT 5/8SM R13/P6000FT/D R36/P6000FT/D BR OVC002 M09/ RMK SF8 FROIN

CYWG;2009-01-20 11:24;CYWG 201124Z 19013KT 3/4SM R13/P6000FT/U R36/P6000FT/N -FZDZ BR OVC002 M09/ RMK SF8

CYWG;2009-01-20 12:00;CYWG 201200Z 21014KT 1SM R13/P6000FT/N R36/P6000FT/N -FZDZ BR BKN002 OVC005 M09/M10 A3005 RMK SF6SF2 SLP192

CYWG;2009-01-20 12:10;CYWG 201210Z 20014KT 1 1/2SM -FZDZ BR BKN005 OVC010 M09/ RMK SF6SC2

CYWG;2009-01-20 12:38;CYWG 201238Z 19015KT 3SM -FZDZ BR BKN004 OVC010 M08/ RMK SF6SC2 CIG RAG

CYWG;2009-01-20 13:00;CYWG 201300Z 19016G21KT 3SM -FZDZ BR BKN004 BKN010 M09/M10 A3000 RMK SF5SC2 CIG RAG PRESFR SLP178

CYWG;2009-01-20 13:20;CYWG 201320Z 18016KT 10SM FEW004 SCT010 BKN100 M09/ RMK SF2SC1AC2 BR

CYWG;2009-01-20 14:00;CYWG 201400Z 19014KT 10SM FEW004 FEW076 BKN120 M09/M10 A2997 RMK SF2AC1AC1 BR SLP167

CYWG;2009-01-20 15:00;CYWG 201500Z 18017KT 15SM FEW094 BKN250 M09/M10 A2993 RMK AC2CI2 SLP153

CYWG;2009-01-20 16:00;CYWG 201600Z 19018G24KT 15SM SCT250 M07/M09 A2988 RMK CI2 PRESFR SLP137

CYWG;2009-01-20 17:00;CYWG 201700Z 20015KT 15SM SCT250 M06/M08 A2988 RMK CI2 SLP138

CYWG;2009-01-20 18:00;CYWG 201800Z 21014G19KT 15SM BKN250 M05/M07 A2984 RMK CI4 SLP123

CYWG;2009-01-20 19:00;CYWG 201900Z 22010G15KT 15SM BKN250 M04/M07 A2982 RMK CI4 SLP115

CYWG;2009-01-20 20:00;CYWG 202000Z 24009KT 15SM BKN250 M04/M07 A2980 RMK CI4 SLP108

CYWG;2009-01-20 21:00;CYWG 202100Z 27010KT 15SM BKN250 M05/M08 A2980 RMK CI5 SLP109

CYWG;2009-01-20 22:00;CYWG 202200Z 29008KT 15SM FEW090 BKN250 M06/M09 A2980 RMK AC2CI2 SLP110

CYWG;2009-01-20 23:00;CYWG 202300Z 29009KT 15SM FEW090 BKN250 M07/M10 A2981 RMK AC2CI3 SLP112

CYWG;2009-01-21 00:00;CYWG 210000Z 31007KT 15SM SCT250 M09/M11 A2982 RMK CI2 SLP115

CYWG;2009-01-21 01:00;CYWG 210100Z 30009KT 15SM FEW120 FEW250 M08/M10 A2983 RMK AC2CI0 SLP118

CYWG;2009-01-21 02:00;CYWG 210200Z 31009KT 15SM FEW120 M10/M12 A2983 RMK AC2 SLP119

CYWG;2009-01-21 03:00;CYWG 210300Z 30008KT 15SM BKN120 M10/M12 A2983 RMK AC6 SLP121

CYWG;2009-01-21 04:00;CYWG 210400Z 30005KT 15SM BKN120 M09/M11 A2983 RMK AC6 SLP120

CYWG;2009-01-21 05:00;CYWG 210500Z 32006KT 15SM BKN120 M11/M12 A2983 RMK AC5 SLP121

CYWG;2009-01-21 06:00;CYWG 210600Z 34010KT 15SM FEW120 M13/M14 A2985 RMK AC2 SLP125

CYWG;2009-01-21 07:00;CYWG 210700Z 32005KT 15SM SKC M12/M13 A2985 RMK SLP127

CYWG;2009-01-21 08:00;CYWG 210800Z 31005KT 15SM FEW005 M11/M12 A2986 RMK ST2 SLP128

CYWG;2009-01-21 08:16;CYWG 210816Z 30003KT 15SM BKN004 M13/ RMK ST6

CYWG;2009-01-21 09:00;CYWG 210900Z 29005KT 10SM OVC002 M10/M11 A2986 RMK ST8 SLP128

CYWG;2009-01-21 09:18;CYWG 210918Z 30004KT 1/2SM R13/2800VP6000FT/D R36/3000VP6000FT/D FZFG VV001 M09/ RMK FG8 VIS NE 3/4

CYWG;2009-01-21 09:38;CYWG 210938Z 28003KT 1/4SM R13/1800FT/N R36/2600FT/N FZFG VV000 M08/ RMK FG8

CYWG;2009-01-21 10:00;CYWG 211000Z 28005KT 1/4SM R13/1600FT/N R36/2600FT/N FZFG VV000 M08/M09 A2984 RMK FG8 SLP123

CYWG;2009-01-21 11:00;CYWG 211100Z 29004KT 1/4SM R13/1600FT/N R36/1600FT/N FZFG VV000 M08/M09 A2985 RMK FG8 SLP126

CYWG;2009-01-21 12:00;CYWG 211200Z 27004KT 1/8SM R13/2000FT/N R36/1600FT/N FZFG VV000 M08/M09 A2985 RMK FG8 SLP125

CYWG;2009-01-21 12:33;CYWG 211233Z 00000KT 1/4SM R13/2000FT/U R36/2000FT/N FZFG VV001 RMK FG8

CYWG;2009-01-21 13:00;CYWG 211300Z 22003KT 1/4SM R13/3000FT/N R36/3500FT/U FZFG VV001 M08/M09 A2983 RMK FG8 SLP118

CYWG;2009-01-21 13:37;CYWG 211337Z 20004KT 1/2SM R13/3500V5000FT/U R36/3500V5000FT/U FZFG SKC M08/ RMK FG7

CYWG;2009-01-21 14:00;CYWG 211400Z 20002KT 1/2SM R13/P6000FT/D R36/P6000FT/U FZDZ FZFG OVC002 M09/M10 A2983 RMK FG6ST2 SLP121

CYWG;2009-01-21 14:06;CYWG 211406Z 21005KT 1SM R13/3000VP6000FT/U R36/P6000FT/U -FZDZ BR OVC002 M09/ RMK FG6ST2

CYWG;2009-01-21 14:18;CYWG 211418Z 21006KT 1 1/2SM BR OVC002 M09/ RMK FG6ST2

CYWG;2009-01-21 14:29;CYWG 211429Z 20005KT 3/4SM R13/P6000FT/D R36/P6000FT/D BR VV002 M09/ RMK FG8

CYWG;2009-01-21 14:39;CYWG 211439Z 19006KT 1/2SM R13/3000VP6000FT/D R36/2200FT/N FZFG VV001 M09/ RMK FG8

CYWG;2009-01-21 15:00;CYWG 211500Z 19006KT 1/2SM R13/3000FT/N R36/2600V4000FT/N FZFG OVC250 M09/M10 A2981 RMK FG6CI0 SLP114

CYWG;2009-01-21 15:25;CYWG 211525Z 19003KT 1SM R13/P6000FT/U R36/P6000FT/U BR BKN250 M10/ RMK FG4CI1

CYWG;2009-01-21 15:47;CYWG 211547Z 00000KT 2SM BR BKN250 M09/ RMK FG1CI1

CYWG;2009-01-21 16:00;CYWG 211600Z 22002KT 4SM BR BKN250 M09/M10 A2982 RMK FG1CI1 SLP116

CYWG;2009-01-21 17:00;CYWG 211700Z 16002KT 10SM SCT250 M09/M09 A2981 RMK CI1 BR SLP113

CYWG;2009-01-21 18:00;CYWG 211800Z 15002KT 10SM SCT250 M07/M08 A2979 RMK CI1 BR SLP106

CYWG;2009-01-21 19:00;CYWG 211900Z 00000KT 15SM SCT250 M08/M09 A2978 RMK CI0 SLP102

CYWG;2009-01-21 20:00;CYWG 212000Z 29004KT 15SM SCT250 M07/M09 A2978 RMK CI2 SLP102

CYWG;2009-01-21 21:00;CYWG 212100Z 29005KT 15SM SCT250 M08/M10 A2978 RMK CI2 SLP103

CYWG;2009-01-21 22:00;CYWG 212200Z 29006KT 15SM BKN250 M10/M11 A2978 RMK CI2 SLP104

CYWG;2009-01-21 23:00;CYWG 212300Z 26002KT 15SM BKN250 M10/M11 A2980 RMK CI2 SLP108

CYWG;2009-01-22 00:00;CYWG 220000Z 28003KT 15SM BKN250 M13/M14 A2980 RMK CI2 SLP109

CYWG;2009-01-22 01:00;CYWG 220100Z 00000KT 15SM -SN FEW250 M13/M13 A2981 RMK CI1 SLP114

CYWG;2009-01-22 01:30;CYWG 220130Z 00000KT 15SM BKN010 M13/ RMK ST6

CYWG;2009-01-22 02:00;CYWG 220200Z 32002KT 15SM BKN015 M13/M14 A2982 RMK ST7 SLP117

CYWG;2009-01-22 03:00;CYWG 220300Z 05004KT 15SM OVC013 M11/M12 A2983 RMK ST8 SLP119

CYWG;2009-01-22 03:21;CYWG 220321Z 01003KT 15SM OVC010 M10/ RMK ST8

CYWG;2009-01-22 04:00;CYWG 220400Z 00000KT 9SM OVC008 M10/M10 A2983 RMK ST8 BR SLP120

CYWG;2009-01-22 05:00;CYWG 220500Z 32004KT 9SM OVC008 M09/M10 A2983 RMK ST8 BR SLP122

CYWG;2009-01-22 05:37;CYWG 220537Z 31005KT 9SM OVC012 M08/ RMK ST8 BR

CYWG;2009-01-22 06:00;CYWG 220600Z 01002KT 15SM OVC007 M08/M09 A2985 RMK ST8 SLP126

CYWG;2009-01-22 06:20;CYWG 220620Z 00000KT 15SM OVC004 M08/ RMK ST8

CYWG;2009-01-22 06:45;CYWG 220645Z 35002KT 6SM -SN BKN003 OVC012 M08/ RMK ST7SC1

CYWG;2009-01-22 07:00;CYWG 220700Z 36002KT 6SM -SN OVC003 M08/M08 A2985 RMK ST8 SLP125

CYWG;2009-01-22 07:45;CYWG 220745Z 00000KT 6SM -SN OVC012 M07/ RMK ST8

CYWG;2009-01-22 08:00;CYWG 220800Z 00000KT 15SM -SN BKN006 OVC010 M07/M08 A2985 RMK ST6SC2 SLP124

CYWG;2009-01-22 09:00;CYWG 220900Z 04003KT 6SM -SN FEW009 BKN014 OVC020 M07/M07 A2985 RMK SF2SC5SC1 SLP126

CYWG;2009-01-22 09:19;CYWG 220919Z 05003KT 6SM -SN BKN004 OVC016 M07/ RMK ST6SC2

CYWG;2009-01-22 10:00;CYWG 221000Z 00000KT 9SM -SN SCT005 BKN016 OVC020 M07/M07 A2984 RMK SF3SC4SC1 SLP122

CYWG;2009-01-22 11:00;CYWG 221100Z 00000KT 6SM -SN FEW005 OVC016 M07/M07 A2983 RMK SF2SC6 SLP119

CYWG;2009-01-22 12:00;CYWG 221200Z 04002KT 6SM -SN FEW005 OVC016 M06/M06 A2983 RMK SF1SC7 SLP119

CYWG;2009-01-22 13:00;CYWG 221300Z 06002KT 6SM -SN FEW006 OVC016 M06/M06 A2983 RMK SF1SC7 SLP121

CYWG;2009-01-22 14:00;CYWG 221400Z 16002KT 5SM -SN BR BKN007 OVC016 M06/M06 A2982 RMK SF5SC3 SLP116

CYWG;2009-01-22 14:39;CYWG 221439Z 17004KT 6SM -SN BR OVC016 M06/ RMK SC8

CYWG;2009-01-22 15:00;CYWG 221500Z CCA 15004KT 5SM -SN BR OVC016 M06/M06 A2982 RMK SC8 SLP115

CYWG;2009-01-22 16:00;CYWG 221600Z 15004KT 6SM -SN BR OVC014 M05/M06 A2982 RMK SC8 SLP115

CYWG;2009-01-22 17:00;CYWG 221700Z 16007KT 15SM -SN OVC009 M05/M06 A2981 RMK SF8 SLP114

CYWG;2009-01-22 18:00;CYWG 221800Z 10006KT 15SM -SN OVC012 M05/M06 A2980 RMK SF8 SLP107

CYWG;2009-01-22 19:00;CYWG 221900Z 10005KT 15SM -SN FEW009 OVC016 M04/M06 A2979 RMK SF2SC6 SLP105

CYWG;2009-01-22 20:00;CYWG 222000Z 12002KT 15SM -SN BKN015 OVC090 M04/M06 A2980 RMK SC6AC2 SLP106

CYWG;2009-01-22 20:31;CYWG 222031Z 09005KT 15SM BKN013 OVC090 M04/ RMK SC7AC1

CYWG;2009-01-22 21:00;CYWG 222100Z 02007KT 15SM BKN010 OVC093 M05/M06 A2980 RMK SC6AC2 SLP106

CYWG;2009-01-22 21:19;CYWG 222119Z 02008KT 10SM -SN BKN007 BKN022 OVC093 M05/ RMK SC5SC2AC2

CYWG;2009-01-22 22:00;CYWG 222200Z 02016KT 2SM -FZDZ BR BKN007 OVC022 M06/M07 A2980 RMK SC7SC1 SLP107

CYWG;2009-01-22 22:10;CYWG 222210Z 02015KT 1SM R31/P6000FT/D R36/P6000FT/N DRSN -FZDZ BR FEW003 OVC008 M06/ RMK SF2SC6 CIG RAG

CYWG;2009-01-22 22:36;CYWG 222236Z 02018KT 1SM R31/P6000FT/U R36/P6000FT/U -SN DRSN FEW003 OVC012 M07/ RMK SF2SC6 CIG RAG

CYWG;2009-01-22 23:00;CYWG 222300Z 03016KT 1SM R31/P6000FT/D R36/P6000FT/D -SN DRSN SCT003 OVC011 M08/M08 A2983 RMK SF4SC4 CIG RAG SLP118

CYWG;2009-01-22 23:13;CYWG 222313Z 03018KT 3SM -SN DRSN SCT004 BKN011 OVC093 M08/ RMK SF3SC4AC1

CYWG;2009-01-22 23:33;CYWG 222333Z 03017KT 2SM -SN DRSN OVC008 M09/ RMK SF8 CIG RAG

CYWG;2009-01-22 23:48;CYWG 222348Z 03017G22KT 3SM -SN DRSN SCT008 OVC051 M09/ RMK SF4SC4

CYWG;2009-01-23 00:00;CYWG 230000Z 03018KT 3SM -SN DRSN FEW008 OVC051 M10/M10 A2985 RMK SF2SC6 SLP127

CYWG;2009-01-23 00:39;CYWG 230039Z 02023KT 1 1/2SM -SN DRSN OVC015 M11/ RMK SC8

CYWG;2009-01-23 01:00;CYWG 230100Z 01021KT 2SM -SN DRSN BKN015 OVC050 M12/M13 A2989 RMK SC6SC2 SLP140

CYWG;2009-01-23 01:25;CYWG 230125Z 01022KT 1 1/2SM R36/4500VP6000FT/U -SN DRSN OVC012 M12/ RMK SC8

CYWG;2009-01-23 02:00;CYWG 230200Z 36018KT 1 1/2SM R36/4500VP6000FT/D -SN DRSN OVC010 M12/M13 A2994 RMK SC8 PRESRR SLP156

CYWG;2009-01-23 02:31;CYWG 230231Z 01016G21KT 1SM R31/3500VP6000FT/U R36/3500VP6000FT/U -SN DRSN OVC009 M13/ RMK SC8

CYWG;2009-01-23 03:00;CYWG 230300Z 36020KT 1SM R31/P6000FT/D R36/5500FT/D -SN DRSN VV005 M13/M14 A2998 RMK SN8 /S01/ SLP171

CYWG;2009-01-23 03:49;CYWG 230349Z 36018KT 2SM -SN DRSN OVC012 M14/ RMK SN3SC5

CYWG;2009-01-23 04:00;CYWG 230400Z 01021KT 2SM -SN BLSN OVC014 M14/M16 A3001 RMK SN3SC5 SLP182

CYWG;2009-01-23 04:18;CYWG 230418Z 01018G24KT 1SM R31/P6000FT/D R36/P6000FT/D -SN BLSN OVC016 M15/ RMK SN5SC3

CYWG;2009-01-23 04:41;CYWG 230441Z 36018KT 2SM -SN BLSN OVC016 M15/ RMK SN3SC5

CYWG;2009-01-23 05:00;CYWG 230500Z 01015G22KT 3SM -SN DRSN BKN016 M16/M17 A3005 RMK SC6 SLP193

CYWG;2009-01-23 05:41;CYWG 230541Z 36017G24KT 6SM DRSN BKN022 OVC090 M16/ RMK SC5AC3

CYWG;2009-01-23 06:00;CYWG 230600Z 36018KT 6SM DRSN BKN020 OVC090 M17/M18 A3010 RMK SC5AC3 SLP213

CYWG;2009-01-23 07:00;CYWG 230700Z 36013G19KT 5SM BLSN SCT017 OVC090 M18/M20 A3015 RMK SC4AC4 SLP230

CYWG;2009-01-23 08:00;CYWG 230800Z 36017KT 10SM DRSN SCT025 BKN092 M19/M21 A3020 RMK SC3AC4 SLP245

CYWG;2009-01-23 09:00;CYWG 230900Z 36017KT 15SM DRSN FEW090 M20/M21 A3025 RMK AC2 SLP265

CYWG;2009-01-23 10:00;CYWG 231000Z 35013KT 15SM SKC M21/M22 A3028 RMK SLP275

CYWG;2009-01-23 11:00;CYWG 231100Z 34012KT 15SM SKC M22/M23 A3030 RMK SLP283

CYWG;2009-01-23 12:00;CYWG 231200Z 34011KT 15SM FEW025 M23/M24 A3034 RMK SC1 SLP300

CYWG;2009-01-23 13:00;CYWG 231300Z 32011KT 15SM FEW082 M24/M25 A3038 RMK AC1 SLP312

CYWG;2009-01-23 14:00;CYWG 231400Z 34013KT 15SM FEW025 M23/M29 A3041 RMK SC1 SLP323

CYWG;2009-01-23 15:00;CYWG 231500Z 32010KT 15SM FEW025 M25/M30 A3045 RMK SC1 SLP339

CYWG;2009-01-23 16:00;CYWG 231600Z 32010KT 15SM OVC200 M24/M29 A3048 RMK CI1 SLP348

CYWG;2009-01-23 17:00;CYWG 231700Z 33016KT 15SM FEW025 OVC200 M23/M28 A3051 RMK SC1CI1 SLP357

CYWG;2009-01-23 18:00;CYWG 231800Z 33016KT 15SM FEW025 OVC200 M23/M28 A3051 RMK SC1CI1 SLP361

CYWG;2009-01-23 19:00;CYWG 231900Z 33013KT 15SM FEW025 OVC200 M23/M28 A3051 RMK SC1CI1 SLP361

CYWG;2009-01-23 20:00;CYWG 232000Z 31013KT 15SM BKN210 M23/M28 A3051 RMK CI1 SLP359

CYWG;2009-01-23 21:00;CYWG 232100Z 32012KT 15SM SCT210 M23/M27 A3051 RMK CI1 SLP362

CYWG;2009-01-23 22:00;CYWG 232200Z 32013KT 15SM FEW210 M22/M27 A3051 RMK CI1 SLP362

CYWG;2009-01-23 23:00;CYWG 232300Z 30009KT 15SM SKC M24/M28 A3052 RMK SLP365

CYWG;2009-01-24 00:00;CYWG 240000Z 28007KT 15SM SKC M25/M29 A3052 RMK SLP366

CYWG;2009-01-24 01:00;CYWG 240100Z 27008KT 15SM SKC M24/M29 A3051 RMK SLP363

CYWG;2009-01-24 02:00;CYWG 240200Z 27010KT 15SM SKC M24/M28 A3048 RMK SLP355

CYWG;2009-01-24 03:00;CYWG 240300Z 27012KT 15SM SKC M24/M29 A3046 RMK SLP347

CYWG;2009-01-24 04:00;CYWG 240400Z 27009KT 15SM SKC M25/M30 A3046 RMK SLP347

CYWG;2009-01-24 05:00;CYWG 240500Z 27010KT 15SM SKC M25/M30 A3045 RMK SLP344

CYWG;2009-01-24 06:00;CYWG 240600Z 27012KT 15SM SKC M25/M30 A3045 RMK SLP341

CYWG;2009-01-24 07:00;CYWG 240700Z 27012KT 15SM SKC M25/M30 A3043 RMK SLP336

CYWG;2009-01-24 08:00;CYWG 240800Z 27013G18KT 15SM SKC M24/M30 A3041 RMK SLP331

CYWG;2009-01-24 09:00;CYWG 240900Z 27011KT 15SM SKC M25/M30 A3040 RMK SLP325

CYWG;2009-01-24 10:00;CYWG 241000Z 27016KT 15SM SKC M24/M30 A3038 RMK SLP317

CYWG;2009-01-24 11:00;CYWG 241100Z 27014G19KT 15SM SKC M25/M30 A3035 RMK SLP310

CYWG;2009-01-24 12:00;CYWG 241200Z 27016KT 15SM SKC M25/M30 A3034 RMK SLP305

CYWG;2009-01-24 13:00;CYWG 241300Z 27013KT 15SM SKC M25/M30 A3032 RMK SLP299

CYWG;2009-01-24 14:00;CYWG 241400Z 28017KT 15SM SKC M25/M30 A3031 RMK SLP295

CYWG;2009-01-24 15:00;CYWG 241500Z 28014KT 15SM SKC M25/M31 A3031 RMK SLP294

CYWG;2009-01-24 16:00;CYWG 241600Z 28014G19KT 15SM SKC M25/M30 A3031 RMK SLP294

CYWG;2009-01-24 17:00;CYWG 241700Z 28016KT 15SM SKC M23/M29 A3030 RMK SLP293

CYWG;2009-01-24 18:00;CYWG 241800Z 28016G21KT 15SM SKC M22/M28 A3030 RMK SLP290

CYWG;2009-01-24 19:00;CYWG 241900Z 28013KT 15SM SKC M21/M27 A3027 RMK SLP281

CYWG;2009-01-24 20:00;CYWG 242000Z 28016KT 15SM SKC M20/M26 A3026 RMK SLP277

CYWG;2009-01-24 21:00;CYWG 242100Z 28016KT 15SM SKC M20/M26 A3025 RMK SLP272

CYWG;2009-01-24 22:00;CYWG 242200Z 28016KT 15SM SKC M20/M26 A3023 RMK SLP268

CYWG;2009-01-24 23:00;CYWG 242300Z 28012KT 15SM FEW100 M21/M27 A3022 RMK AC1 SLP264

CYWG;2009-01-25 00:00;CYWG 250000Z 27008KT 15SM SKC M23/M28 A3021 RMK SLP260

CYWG;2009-01-25 01:00;CYWG 250100Z 29011KT 15SM FEW100 M23/M28 A3020 RMK AC1 SLP257

CYWG;2009-01-25 02:00;CYWG 250200Z 30013KT 15SM SKC M23/M28 A3020 RMK SLP257

CYWG;2009-01-25 03:00;CYWG 250300Z 30012KT 15SM SKC M24/M29 A3021 RMK SLP262

CYWG;2009-01-25 04:00;CYWG 250400Z 30012KT 15SM SKC M24/M29 A3022 RMK SLP265

CYWG;2009-01-25 05:00;CYWG 250500Z 29009KT 15SM SKC M26/M30 A3023 RMK SLP269

CYWG;2009-01-25 06:00;CYWG 250600Z 27007KT 15SM SKC M25/M30 A3025 RMK SLP273

CYWG;2009-01-25 07:00;CYWG 250700Z 29010KT 15SM SKC M26/M31 A3025 RMK SLP274

CYWG;2009-01-25 08:00;CYWG 250800Z 28009KT 15SM SKC M26/M31 A3025 RMK SLP275

CYWG;2009-01-25 09:00;CYWG 250900Z 28009KT 15SM SKC M26/M31 A3026 RMK SLP276

CYWG;2009-01-25 10:00;CYWG 251000Z 28010KT 15SM SKC M27/M31 A3025 RMK SLP274

CYWG;2009-01-25 11:00;CYWG 251100Z 28010KT 15SM SKC M27/M32 A3024 RMK SLP271

CYWG;2009-01-25 12:00;CYWG 251200Z 27007KT 15SM SKC M27/M32 A3024 RMK SLP272

CYWG;2009-01-25 13:00;CYWG 251300Z 27010KT 15SM SKC M28/M32 A3024 RMK SLP272

CYWG;2009-01-25 14:00;CYWG 251400Z 27008KT 15SM SKC M28/M33 A3025 RMK SLP275

CYWG;2009-01-25 15:00;CYWG 251500Z 27009KT 15SM SKC M28/M33 A3025 RMK SLP275

CYWG;2009-01-25 16:00;CYWG 251600Z 27009KT 15SM SKC M27/M32 A3025 RMK SLP277

CYWG;2009-01-25 17:00;CYWG 251700Z 27009KT 15SM SKC M26/M31 A3026 RMK SLP279

CYWG;2009-01-25 18:00;CYWG 251800Z 27010KT 15SM SKC M25/M30 A3026 RMK SLP278

CYWG;2009-01-25 19:00;CYWG 251900Z 27011KT 15SM SKC M24/M29 A3025 RMK SLP275

CYWG;2009-01-25 20:00;CYWG 252000Z 28011KT 15SM SKC M23/M28 A3024 RMK SLP272

CYWG;2009-01-25 21:00;CYWG 252100Z 28009KT 15SM SKC M22/M28 A3024 RMK SLP272

CYWG;2009-01-25 22:00;CYWG 252200Z 28008KT 15SM SKC M22/M28 A3025 RMK SLP273

CYWG;2009-01-25 23:00;CYWG 252300Z 26007KT 15SM SKC M23/M29 A3024 RMK SLP271

CYWG;2009-01-26 00:00;CYWG 260000Z 27007KT 15SM SKC M24/M29 A3024 RMK SLP271

CYWG;2009-01-26 01:00;CYWG 260100Z 27008KT 15SM SKC M25/M30 A3024 RMK SLP272

CYWG;2009-01-26 02:00;CYWG 260200Z 27007KT 15SM SKC M26/M31 A3025 RMK SLP274

CYWG;2009-01-26 03:00;CYWG 260300Z 28008KT 15SM SKC M27/M32 A3025 RMK SLP277

CYWG;2009-01-26 04:00;CYWG 260400Z 26010KT 15SM SKC M26/M30 A3026 RMK SLP281

CYWG;2009-01-26 05:00;CYWG 260500Z 27009KT 15SM SKC M26/M31 A3027 RMK SLP284

CYWG;2009-01-26 06:00;CYWG 260600Z 28008KT 15SM SKC M28/M32 A3028 RMK SLP286

CYWG;2009-01-26 07:00;CYWG 260700Z 29007KT 15SM SKC M30/M34 A3029 RMK SLP289

CYWG;2009-01-26 08:00;CYWG 260800Z 27007KT 15SM SKC M28/M33 A3029 RMK SLP291

CYWG;2009-01-26 09:00;CYWG 260900Z 28006KT 15SM SKC M30/M34 A3031 RMK SLP296

CYWG;2009-01-26 10:00;CYWG 261000Z 27008KT 15SM SKC M28/M34 A3031 RMK SLP296

CYWG;2009-01-26 11:00;CYWG 261100Z 27009KT 15SM SKC M28/M33 A3030 RMK SLP294

CYWG;2009-01-26 12:00;CYWG 261200Z 27008KT 15SM FEW230 M28/M33 A3030 RMK CI0 SLP293

CYWG;2009-01-26 13:00;CYWG 261300Z 27007KT 15SM FEW230 M29/M34 A3031 RMK CI1 SLP296

CYWG;2009-01-26 14:00;CYWG 261400Z 25008KT 15SM FEW230 M28/M33 A3031 RMK CI1 SLP295

CYWG;2009-01-26 15:00;CYWG 261500Z 24005KT 15SM FEW240 M28/M33 A3031 RMK CI1 SLP298

CYWG;2009-01-26 16:00;CYWG 261600Z 25009KT 15SM FEW240 M26/M32 A3032 RMK CI2 SLP299

CYWG;2009-01-26 17:00;CYWG 261700Z 25009KT 15SM FEW240 M25/M31 A3032 RMK CI2 SLP299

CYWG;2009-01-26 18:00;CYWG 261800Z 23008KT 15SM FEW240 M24/M30 A3031 RMK CI2 SLP295

CYWG;2009-01-26 19:00;CYWG 261900Z 23007KT 15SM R36/4000VP6000FT/U SKC M23/M29 A3029 RMK SLP291

CYWG;2009-01-26 20:00;CYWG 262000Z 23006KT 15SM SKC M22/M28 A3029 RMK SLP291

CYWG;2009-01-26 21:00;CYWG 262100Z 21008KT 15SM SKC M21/M27 A3030 RMK SLP292

CYWG;2009-01-26 22:00;CYWG 262200Z 22008KT 15SM SKC M20/M27 A3030 RMK SLP292

CYWG;2009-01-26 23:00;CYWG 262300Z 21007KT 15SM SKC M21/M27 A3030 RMK SLP292

CYWG;2009-01-27 00:00;CYWG 270000Z 21006KT 15SM SKC M21/M27 A3029 RMK SLP288

CYWG;2009-01-27 01:00;CYWG 270100Z 21008KT 15SM SKC M21/M27 A3029 RMK SLP289

CYWG;2009-01-27 02:00;CYWG 270200Z 23009KT 15SM SKC M22/M28 A3028 RMK SLP284

CYWG;2009-01-27 03:00;CYWG 270300Z 22007KT 15SM SKC M23/M28 A3028 RMK SLP284

CYWG;2009-01-27 04:00;CYWG 270400Z 23010KT 15SM SKC M23/M28 A3027 RMK SLP283

CYWG;2009-01-27 05:00;CYWG 270500Z 22008KT 15SM SKC M23/M28 A3026 RMK SLP278

CYWG;2009-01-27 06:00;CYWG 270600Z 22010KT 15SM SKC M23/M28 A3026 RMK SLP276

CYWG;2009-01-27 07:00;CYWG 270700Z 22009KT 15SM SKC M23/M28 A3025 RMK SLP274

CYWG;2009-01-27 08:00;CYWG 270800Z 19009KT 15SM FEW092 M25/M29 A3024 RMK AC2 SLP271

CYWG;2009-01-27 09:00;CYWG 270900Z 20008KT 15SM SKC M24/M29 A3022 RMK SLP264

CYWG;2009-01-27 10:00;CYWG 271000Z 22008KT 15SM SKC M24/M29 A3020 RMK SLP256

CYWG;2009-01-27 11:00;CYWG 271100Z 21011KT 15SM SKC M23/M29 A3019 RMK SLP251

CYWG;2009-01-27 12:00;CYWG 271200Z 20010KT 15SM SKC M24/M29 A3017 RMK SLP245

CYWG;2009-01-27 13:00;CYWG 271300Z 21015KT 15SM SKC M25/M30 A3014 RMK SLP236

CYWG;2009-01-27 14:00;CYWG 271400Z 21015KT 15SM FEW220 M25/M30 A3014 RMK CI1 SLP237

CYWG;2009-01-27 15:00;CYWG 271500Z 20013KT 15SM FEW220 M24/M30 A3013 RMK CI1 SLP232

CYWG;2009-01-27 16:00;CYWG 271600Z 20015KT 15SM FEW090 FEW220 M23/M29 A3011 RMK AC1CI1 SLP226

CYWG;2009-01-27 17:00;CYWG 271700Z 20012G17KT 15SM FEW220 M21/M28 A3009 RMK CI0 SLP218

CYWG;2009-01-27 18:00;CYWG 271800Z 20016KT 15SM FEW220 M20/M27 A3006 RMK CI0 SLP208

CYWG;2009-01-27 19:00;CYWG 271900Z 20018KT 15SM FEW220 M19/M26 A3001 RMK CI0 SLP191

CYWG;2009-01-27 20:00;CYWG 272000Z 19020KT 15SM SCT220 M19/M25 A2996 RMK CI1 SLP176

CYWG;2009-01-27 21:00;CYWG 272100Z 18020KT 15SM SCT220 M19/M25 A2993 RMK CI1 SLP162

CYWG;2009-01-27 22:00;CYWG 272200Z 19020G26KT 15SM BKN220 M20/M24 A2990 RMK CI2 SLP154

CYWG;2009-01-27 23:00;CYWG 272300Z 19021G27KT 15SM OVC220 M20/M25 A2987 RMK CI2 SLP144

CYWG;2009-01-28 00:00;CYWG 280000Z 19023G29KT 15SM BKN220 M20/M24 A2984 RMK CI1 SLP134

CYWG;2009-01-28 01:00;CYWG 280100Z 19022G29KT 15SM BKN220 M20/M24 A2981 RMK CI2 SLP124

CYWG;2009-01-28 02:00;CYWG 280200Z 19022G29KT 15SM OVC220 M20/M24 A2977 RMK CI2 SLP110

CYWG;2009-01-28 03:00;CYWG 280300Z 19022G28KT 15SM FEW100 OVC220 M19/M23 A2974 RMK AC2CI2 SLP097

CYWG;2009-01-28 04:00;CYWG 280400Z 19021KT 15SM BKN120 OVC220 M19/M23 A2971 RMK AC6CI2 SLP089

CYWG;2009-01-28 05:00;CYWG 280500Z 19022G28KT 15SM OVC120 M18/M21 A2966 RMK AC8 SLP073

CYWG;2009-01-28 06:00;CYWG 280600Z 19019G29KT 15SM OVC120 M18/M21 A2963 RMK AC7 SLP060

CYWG;2009-01-28 07:00;CYWG 280700Z 18018KT 15SM BKN081 M17/M21 A2960 RMK AC6 SLP050

CYWG;2009-01-28 08:00;CYWG 280800Z 19016KT 15SM BKN058 M16/M19 A2957 RMK SC7 SLP041

CYWG;2009-01-28 09:00;CYWG 280900Z 19016KT 15SM FEW056 SCT083 M16/M19 A2956 RMK SC2AC2 SLP033

CYWG;2009-01-28 10:00;CYWG 281000Z 19016KT 15SM BKN075 OVC099 M16/M19 A2954 RMK AC6AC2 SLP029

CYWG;2009-01-28 11:00;CYWG 281100Z 19013KT 15SM FEW052 BKN075 M16/M19 A2952 RMK SC2AC3 SLP022

CYWG;2009-01-28 12:00;CYWG 281200Z 19011KT 15SM SCT052 BKN097 M15/M17 A2952 RMK SC3AC4 SLP021

CYWG;2009-01-28 13:00;CYWG 281300Z 21009KT 15SM OVC091 M14/M16 A2952 RMK AC8 SLP020

CYWG;2009-01-28 14:00;CYWG 281400Z 19007KT 15SM BKN091 M13/M15 A2953 RMK AC7 SLP023

CYWG;2009-01-28 15:00;CYWG 281500Z 25003KT 15SM BKN095 BKN210 M13/M15 A2954 RMK AC5CI2 SLP027

CYWG;2009-01-28 16:00;CYWG 281600Z 28004KT 15SM FEW095 SCT210 M13/M17 A2957 RMK AC1CI2 SLP035

CYWG;2009-01-28 16:49;CYWG 281649Z 33005KT 10SM -SN BKN022 BKN095 BKN210 M12/ RMK SC5AC1CI1

CYWG;2009-01-28 17:00;CYWG 281700Z 34009KT 15SM -SN BKN046 BKN095 BKN210 M12/M14 A2959 RMK SC6AC1CI1 SLP041

CYWG;2009-01-28 17:39;CYWG 281739Z 34009KT 15SM BKN032 OVC055 M12/ RMK SC6SC2

CYWG;2009-01-28 18:00;CYWG 281800Z 34008KT 15SM FEW032 BKN055 BKN078 M12/M14 A2960 RMK SC2SC4AC1 SLP046

CYWG;2009-01-28 19:00;CYWG 281900Z 32010KT 15SM -SN FEW025 SCT037 OVC062 M11/M14 A2961 RMK SC2SC2SC5 SLP048

CYWG;2009-01-28 19:22;CYWG 281922Z 33009KT 15SM FEW037 SCT049 OVC062 M11/ RMK SC2SC2SC5

CYWG;2009-01-28 20:00;CYWG 282000Z 33010KT 15SM FEW041 OVC065 M11/M14 A2962 RMK SC2SC6 SLP052

CYWG;2009-01-28 21:00;CYWG 282100Z 33013KT 15SM SCT037 OVC057 M10/M14 A2964 RMK SC3SC5 SLP059

CYWG;2009-01-28 22:00;CYWG 282200Z 33014KT 15SM FEW044 OVC053 M11/M14 A2967 RMK SC2SC6 SLP069

CYWG;2009-01-28 23:00;CYWG 282300Z 35011KT 15SM BKN047 BKN250 M11/M15 A2971 RMK SC6CI1 SLP081

CYWG;2009-01-29 00:00;CYWG 290000Z 34014KT 15SM BKN053 BKN079 M12/M15 A2974 RMK SC5AC2 SLP093

CYWG;2009-01-29 01:00;CYWG 290100Z 33013KT 15SM FEW050 FEW250 M15/M17 A2977 RMK SC1CI0 SLP103

CYWG;2009-01-29 02:00;CYWG 290200Z 34009KT 15SM FEW250 M17/M19 A2980 RMK CI0 SLP111

CYWG;2009-01-29 03:00;CYWG 290300Z 32007KT 15SM SKC M20/M21 A2982 RMK SLP120

CYWG;2009-01-29 04:00;CYWG 290400Z 34010KT 15SM SKC M21/M22 A2985 RMK SLP130

CYWG;2009-01-29 05:00;CYWG 290500Z 36005KT 15SM SKC M22/M22 A2986 RMK SLP134

CYWG;2009-01-29 06:00;CYWG 290600Z 34011KT 15SM SKC M21/M23 A2989 RMK SLP144

CYWG;2009-01-29 07:00;CYWG 290700Z 33011KT 15SM BKN120 M20/M22 A2989 RMK AC5 SLP145

CYWG;2009-01-29 08:00;CYWG 290800Z 33012KT 15SM FEW088 BKN120 M21/M32 A2991 RMK AC2AC3 SLP152

CYWG;2009-01-29 09:00;CYWG 290900Z 32010KT 15SM BKN090 BKN120 M21/M27 A2994 RMK AC5AC2 SLP163

CYWG;2009-01-29 10:00;CYWG 291000Z 31010KT 15SM FEW090 M23/M28 A2996 RMK AC2 SLP167

CYWG;2009-01-29 11:00;CYWG 291100Z 32008KT 15SM FEW071 M23/M28 A2996 RMK AC2 SLP170

CYWG;2009-01-29 12:00;CYWG 291200Z 32009KT 15SM FEW058 BKN091 M24/M28 A2997 RMK SC2AC4 SLP175

CYWG;2009-01-29 13:00;CYWG 291300Z 32007KT 15SM FEW060 SCT090 M24/M28 A2999 RMK SC2AC2 SLP179

CYWG;2009-01-29 14:00;CYWG 291400Z 32009KT 15SM FEW060 FEW090 M25/M29 A3000 RMK SC1AC2 SLP185

CYWG;2009-01-29 15:00;CYWG 291500Z 32004KT 15SM FEW090 SCT250 M25/M29 A3003 RMK AC1CI1 SLP198

CYWG;2009-01-29 16:00;CYWG 291600Z 33004KT 15SM FEW090 FEW250 M25/M29 A3005 RMK AC1CI0 SLP203

CYWG;2009-01-29 17:00;CYWG 291700Z 34007KT 15SM FEW250 M23/M27 A3006 RMK CI0 SLP206

CYWG;2009-01-29 18:00;CYWG 291800Z 34006KT 15SM FEW250 M21/M26 A3006 RMK CI0 SLP207

CYWG;2009-01-29 19:00;CYWG 291900Z 02003KT 15SM FEW220 M20/M26 A3006 RMK CI1 SLP206

CYWG;2009-01-29 20:00;CYWG 292000Z 31004KT 15SM FEW220 M20/M25 A3005 RMK CI1 SLP203

CYWG;2009-01-29 21:00;CYWG 292100Z 34002KT 15SM FEW220 M20/M25 A3005 RMK CI1 SLP204

CYWG;2009-01-29 22:00;CYWG 292200Z 00000KT 15SM SKC M19/M25 A3006 RMK SLP206

CYWG;2009-01-29 23:00;CYWG 292300Z 00000KT 15SM SKC M20/M26 A3006 RMK SLP207

CYWG;2009-01-30 00:00;CYWG 300000Z 25003KT 15SM FEW220 M22/M26 A3006 RMK CI1 SLP207

CYWG;2009-01-30 01:00;CYWG 300100Z 21003KT 15SM SKC M22/M26 A3004 RMK SLP202

CYWG;2009-01-30 02:00;CYWG 300200Z 22004KT 15SM SKC M22/M26 A3004 RMK SLP202

CYWG;2009-01-30 03:00;CYWG 300300Z 19005KT 15SM SKC M24/M28 A3003 RMK SLP198

CYWG;2009-01-30 04:00;CYWG 300400Z 21007KT 15SM SKC M23/M26 A3001 RMK SLP193

CYWG;2009-01-30 05:00;CYWG 300500Z 19007KT 15SM FEW220 M23/M26 A3000 RMK CI2 SLP190

CYWG;2009-01-30 06:00;CYWG 300600Z 16007KT 15SM FEW030 SCT220 M24/M27 A2999 RMK SC2CI1 SLP185

CYWG;2009-01-30 07:00;CYWG 300700Z 18010KT 15SM BKN028 M23/M27 A2997 RMK SC6 SLP178

CYWG;2009-01-30 08:00;CYWG 300800Z 18012KT 15SM BKN030 M22/M25 A2994 RMK SC5 SLP168

CYWG;2009-01-30 09:00;CYWG 300900Z 18013KT 15SM OVC034 M21/M24 A2993 RMK SC8 SLP161

CYWG;2009-01-30 10:00;CYWG 301000Z 19013KT 15SM SCT035 OVC068 M21/M24 A2991 RMK SC3AC5 SLP156

CYWG;2009-01-30 11:00;CYWG 301100Z 19012KT 15SM FEW075 M21/M24 A2992 RMK AC2 SLP158

CYWG;2009-01-30 12:00;CYWG 301200Z 19012KT 15SM BKN023 OVC075 M21/M24 A2990 RMK SC6AC2 SLP151

CYWG;2009-01-30 12:46;CYWG 301246Z 19010KT 10SM -SN BKN020 OVC075 M20/ RMK SC6AC2

CYWG;2009-01-30 13:00;CYWG 301300Z 19010KT 8SM -SN OVC018 M20/M22 A2989 RMK SC8 SLP149

CYWG;2009-01-30 14:00;CYWG 301400Z 18010KT 12SM OVC016 M18/M21 A2987 RMK SC8 SLP143

CYWG;2009-01-30 15:00;CYWG 301500Z 20013KT 15SM BKN017 OVC074 M16/M19 A2987 RMK SC5AC3 SLP140

CYWG;2009-01-30 16:00;CYWG 301600Z 21010KT 15SM BKN042 BKN093 M14/M16 A2985 RMK SC5AC2 SLP136

CYWG;2009-01-30 17:00;CYWG 301700Z 21009KT 15SM BKN015 BKN061 M12/M15 A2987 RMK SC5AC2 SLP140

CYWG;2009-01-30 18:00;CYWG 301800Z 21007KT 15SM OVC015 M11/M14 A2985 RMK SC8 SLP133

CYWG;2009-01-30 19:00;CYWG 301900Z 22006KT 15SM OVC019 M10/M12 A2983 RMK SC8 SLP127

CYWG;2009-01-30 20:00;CYWG 302000Z 22005KT 15SM OVC019 M08/M10 A2982 RMK SC8 SLP123

CYWG;2009-01-30 21:00;CYWG 302100Z 22006KT 15SM OVC017 M07/M09 A2982 RMK SC8 SLP119

CYWG;2009-01-30 22:00;CYWG 302200Z 22008KT 15SM SCT017 BKN100 BKN140 M08/M10 A2981 RMK SC3AC2AC2 SLP117

CYWG;2009-01-30 23:00;CYWG 302300Z 22006KT 15SM FEW017 BKN095 BKN140 M08/M09 A2980 RMK SC1AC4AC2 SLP114

CYWG;2009-01-31 00:00;CYWG 310000Z 18007KT 15SM FEW065 BKN099 M09/M10 A2975 RMK SC2AC6 SLP098

CYWG;2009-01-31 01:00;CYWG 310100Z 18008KT 15SM OVC059 M09/M10 A2973 RMK SC8 SLP090

CYWG;2009-01-31 02:00;CYWG 310200Z 17008KT 15SM OVC046 M08/M09 A2969 RMK SC8 SLP076

CYWG;2009-01-31 03:00;CYWG 310300Z 18012KT 1 1/2SM -SN OVC018 M08/M09 A2965 RMK SN3SC5 SLP062

CYWG;2009-01-31 03:18;CYWG 310318Z 18012KT 1 1/2SM -SN VV013 M08/ RMK SN8

CYWG;2009-01-31 04:00;CYWG 310400Z 18012KT 2SM -SN OVC013 M07/M08 A2960 RMK SN4SC4 SLP044

CYWG;2009-01-31 04:20;CYWG 310420Z 18012KT 15SM -SN OVC024 M07/ RMK SC8

CYWG;2009-01-31 05:00;CYWG 310500Z 19013KT 15SM OVC016 M07/M07 A2956 RMK SC8 SLP030

CYWG;2009-01-31 06:00;CYWG 310600Z 18015KT 15SM BKN023 M07/M08 A2951 RMK SC6 SLP010

CYWG;2009-01-31 07:00;CYWG 310700Z 19014KT 15SM BKN120 M08/M08 A2947 RMK AC6 SLP997

CYWG;2009-01-31 08:00;CYWG 310800Z 19011KT 15SM BKN120 M08/M09 A2944 RMK AC6 SLP987

CYWG;2009-01-31 09:00;CYWG 310900Z 18010KT 15SM OVC080 M09/M10 A2941 RMK AC8 SLP975

CYWG;2009-01-31 10:00;CYWG 311000Z 17009KT 15SM OVC120 M09/M10 A2936 RMK AC8 SLP959

CYWG;2009-01-31 11:00;CYWG 311100Z 16007KT 15SM OVC120 M09/M10 A2931 RMK AC8 SLP943

CYWG;2009-01-31 12:00;CYWG 311200Z 17010KT 15SM SCT075 M10/M10 A2929 RMK AC3 SLP937

CYWG;2009-01-31 13:00;CYWG 311300Z 18007KT 15SM SCT080 M10/M11 A2924 RMK AC3 SLP918

CYWG;2009-01-31 14:00;CYWG 311400Z 18009KT 15SM FEW080 FEW094 M10/M11 A2920 RMK AC2AC1 SLP906

CYWG;2009-01-31 15:00;CYWG 311500Z 18008KT 15SM FEW091 M09/M10 A2917 RMK AC2 SLP893

CYWG;2009-01-31 16:00;CYWG 311600Z 18014KT 15SM FEW090 M06/M07 A2910 RMK AC2 SLP872

CYWG;2009-01-31 17:00;CYWG 311700Z 20012KT 15SM SKC M03/M06 A2906 RMK SLP856

CYWG;2009-01-31 18:00;CYWG 311800Z 27019G25KT 15SM FEW050 03/M01 A2903 RMK SC2 SLP843

CYWG;2009-01-31 18:21;CYWG 311821Z 29029G34KT 8SM -SHSN FEW007 OVC034 02/ RMK SF2SC6 TCU EMBD

CYWG;2009-01-31 18:26;CYWG 311826Z 29030G35KT 2 1/2SM -SHSN OVC034 01/ RMK SN3SC5 TCU EMBD

CYWG;2009-01-31 18:46;CYWG 311846Z 28024G31KT 2 1/2SM -SN OVC007 01/ RMK SN5SC3 TCU EMBDD

CYWG;2009-01-31 19:00;CYWG 311900Z 28023G29KT 6SM -SHSN FEW006 OVC038 01/01 A2905 RMK SF2SC6 SLP841

CYWG;2009-01-31 19:44;CYWG 311944Z 28023G29KT 10SM FEW006 OVC038 01/ RMK SF2SC6

CYWG;2009-01-31 20:00;CYWG 312000Z 31035G42KT 15SM FEW006 BKN035 OVC060 RMK SF2SC5SC2 ALTM 29.10 PRESRR ALTM MISG

CYWG;2009-01-31 21:00;CYWG 312100Z 30035G48KT 15SM FEW006 BKN035 BKN060 01/M02 A2917 RMK SF1SC5SC1 PRESRR SLP891

CYWG;2009-01-31 21:09;CYWG 312109Z 30035G48KT 12SM R36/4500VP6000FT/N DRSN FEW006 BKN035 BKN060 01/ RMK SF1SC5SC1 OCNL BLSN

CYWG;2009-01-31 22:00;CYWG 312200Z 32043G54KT 5SM R31/3000VP6000FT/D BLSN SCT025 BKN041 M03/M04 A2924 RMK SC3SC2 PRESRR SLP913

CYWG;2009-01-31 23:00;CYWG 312300Z 32029G36KT 10SM DRSN FEW025 OVC038 M03/M05 A2931 RMK SF1SC6 OCNL BLSN PRESRR SLP938

CYWG;2009-01-31 23:20;CYWG 312320Z 32028G35KT 1 1/2SM -SN BLSN OVC038 M03/ RMK SN5SC3

CYWG;2009-01-31 23:33;CYWG 312333Z 32029G35KT 1/2SM R31/P6000FT/D R36/P6000FT/D -SN BLSN VV005 M03/ RMK SN8

CYWG;2009-01-31 23:52;CYWG 312352Z 32029G34KT 1SM R31/P6000FT/N R36/P6000FT/U -SN BLSN OVC038 M04/ RMK SN6SC2

CYWG;2009-02-01 01:00;CYWG 010100Z 32027G33KT 10SM -SN DRSN BKN039 BKN051 M04/M06 A2939 RMK SC5SC2 OCNL BLSN SLP968

CYWG;2009-02-01 01:44;CYWG 010144Z 31022KT 15SM DRSN FEW051 M05/ RMK SC2

CYWG;2009-02-01 02:00;CYWG 010200Z 32018KT 15SM DRSN FEW057 M05/M07 A2941 RMK SC2 SLP974

CYWG;2009-02-01 03:00;CYWG 010300Z 31019KT 15SM SCT021 BKN059 M05/M07 A2943 RMK SC4SC2 SLP981

CYWG;2009-02-01 03:19;CYWG 010319Z 32019KT 15SM -SN DRSN BKN018 BKN047 M05/ RMK SC5SC2

CYWG;2009-02-01 03:48;CYWG 010348Z 32014KT 10SM -SN DRSN BKN007 BKN018 M06/ RMK SF5SC2 VIS LWR E

CYWG;2009-02-01 04:00;CYWG 010400Z 32013KT 3/4SM R31/P6000FT/D R36/P6000FT/D -SN DRSN VV003 M06/M06 A2945 RMK SN8 SLP990

CYWG;2009-02-01 05:00;CYWG 010500Z 30015KT 10SM -SN DRSN SCT003 BKN015 M06/M06 A2947 RMK SF3SC4 SLP994

CYWG;2009-02-01 06:00;CYWG 010600Z 29016KT 15SM DRSN BKN027 M07/M08 A2950 RMK SC6 SLP001

CYWG;2009-02-01 07:00;CYWG 010700Z 29019KT 15SM -SN DRSN OVC021 M06/M06 A2953 RMK SC8 SLP012

CYWG;2009-02-01 08:00;CYWG 010800Z 30013KT 15SM OVC029 M06/M08 A2956 RMK SC8 SLP021

CYWG;2009-02-01 09:00;CYWG 010900Z 30015KT 15SM -SN OVC026 M05/M07 A2959 RMK SC8 SLP033

CYWG;2009-02-01 10:00;CYWG 011000Z 30013KT 15SM -SN OVC029 M07/M08 A2961 RMK SC8 SLP040

CYWG;2009-02-01 11:00;CYWG 011100Z 30012KT 15SM FEW030 M10/M11 A2964 RMK SC2 SLP050

CYWG;2009-02-01 12:00;CYWG 011200Z 32007KT 15SM FEW030 M12/M13 A2968 RMK SC1 SLP068

CYWG;2009-02-01 13:00;CYWG 011300Z 31003KT 15SM SCT068 M12/M12 A2970 RMK AC3 SLP073

CYWG;2009-02-01 14:00;CYWG 011400Z 28007KT 15SM FEW031 BKN065 M12/M13 A2973 RMK SC1SC4 SLP083

CYWG;2009-02-01 15:00;CYWG 011500Z 27005KT 15SM SCT014 BKN054 M12/M12 A2974 RMK SC3SC2 SLP088

CYWG;2009-02-01 16:00;CYWG 011600Z 28005KT 15SM BKN026 BKN050 M11/M12 A2976 RMK SC5SC2 SLP094

CYWG;2009-02-01 17:00;CYWG 011700Z 24003KT 15SM BKN030 BKN044 M08/M09 A2975 RMK SC5SC1 SLP091

CYWG;2009-02-01 18:00;CYWG 011800Z 24007KT 15SM FEW048 FEW250 M07/M10 A2973 RMK SC2CI1 SLP085

CYWG;2009-02-01 19:00;CYWG 011900Z 27011KT 15SM BKN032 BKN079 M06/M10 A2973 RMK SC6AC1 SLP085

CYWG;2009-02-01 19:22;CYWG 011922Z 29017KT 5SM -SN SCT009 BKN032 OVC049 M06/ RMK SF3SC3SC2

CYWG;2009-02-01 20:00;CYWG 012000Z 29014KT 3SM -SN OVC016 M06/M07 A2974 RMK SC8 SLP088

CYWG;2009-02-01 21:00;CYWG 012100Z 32017G22KT 10SM -SN DRSN FEW003 BKN037 OVC200 M08/M10 A2976 RMK SF2SC6CI1 SLP094

CYWG;2009-02-01 21:20;CYWG 012120Z 30020KT 1 1/2SM -SN DRSN OVC012 M09/ RMK SC8

CYWG;2009-02-01 21:31;CYWG 012131Z 29019KT 6SM -SN DRSN BKN013 OVC045 M10/ RMK SC5SC2

CYWG;2009-02-01 22:00;CYWG 012200Z 01025G32KT 1/8SM R31/1400V2000FT/N -SN +BLSN VV002 M12/M12 A2979 RMK SN8 SLP105

CYWG;2009-02-01 22:30;CYWG 012230Z 36021G27KT 3/4SM R31/3500FT/U -SN BLSN OVC004 M12/ RMK SC8

CYWG;2009-02-01 22:50;CYWG 012250Z 34018KT 3SM -SN BLSN OVC008 M12/ RMK SC8

CYWG;2009-02-01 23:00;CYWG 012300Z 33027KT 1/4SM R31/3000VP6000FT/D -SN +BLSN VV002 M13/M14 A2987 RMK SN8 SLP129

CYWG;2009-02-01 23:45;CYWG 012345Z 32023KT 1/2SM R31/3500VP6000FT/U -SN BLSN VV004 M15/ RMK SN8

CYWG;2009-02-02 00:00;CYWG 020000Z 32023G28KT 3/4SM R36/P6000FT/N -SN BLSN VV007 M16/M17 A2993 RMK SN8 PRESRR SLP158

CYWG;2009-02-02 01:00;CYWG 020100Z 33020G26KT 2SM -SN BLSN FEW007 OVC052 M18/M19 A2997 RMK SF2SC6 SLP171

CYWG;2009-02-02 01:43;CYWG 020143Z 33022KT 3SM -SN BLSN FEW007 OVC050 M19/ RMK SF2SC6

CYWG;2009-02-02 02:00;CYWG 020200Z 33022KT 6SM -SN BLSN OVC032 M19/M20 A3000 RMK SC8 SLP182

CYWG;2009-02-02 03:00;CYWG 020300Z 34020G25KT 3SM -SN BLSN VV013 M20/M22 A3002 RMK SN8 SLP188

CYWG;2009-02-02 03:51;CYWG 020351Z 33015KT 15SM SCT039 M21/ RMK SC4

CYWG;2009-02-02 04:00;CYWG 020400Z 34014KT 15SM SCT039 M21/M27 A3005 RMK SC3 SLP198

CYWG;2009-02-02 05:00;CYWG 020500Z 32011KT 15SM FEW040 M22/M27 A3007 RMK SC2 SLP206

CYWG;2009-02-02 06:00;CYWG 020600Z 32010KT 15SM FEW040 M23/M28 A3007 RMK SC2 SLP206

CYWG;2009-02-02 07:00;CYWG 020700Z 32013KT 15SM SKC M23/M28 A3008 RMK SLP208

CYWG;2009-02-02 08:00;CYWG 020800Z 30012KT 15SM SKC M25/M30 A3009 RMK SLP213

CYWG;2009-02-02 09:00;CYWG 020900Z 31012KT 15SM SKC M24/M29 A3011 RMK SLP220

CYWG;2009-02-02 10:00;CYWG 021000Z 31012KT 15SM SKC M25/M29 A3012 RMK SLP224

CYWG;2009-02-02 11:00;CYWG 021100Z 32012KT 15SM SKC M25/M29 A3014 RMK SLP230

CYWG;2009-02-02 12:00;CYWG 021200Z 32011KT 15SM BKN064 M25/M29 A3015 RMK SC4 SLP238

CYWG;2009-02-02 13:00;CYWG 021300Z 32014KT 12SM BKN025 OVC056 M24/M28 A3018 RMK SC6SC2 SLP246

CYWG;2009-02-02 13:12;CYWG 021312Z 32014KT 6SM -SN SCT025 OVC066 M24/ RMK SC4AC4

CYWG;2009-02-02 14:00;CYWG 021400Z 33016KT 5SM -SN DRSN BKN023 BKN073 M23/M27 A3020 RMK SC5AC2 SLP253

CYWG;2009-02-02 15:00;CYWG 021500Z 32014KT 15SM -SN DRSN SCT021 BKN079 M22/M26 A3022 RMK SC4AC3 SLP261

CYWG;2009-02-02 16:00;CYWG 021600Z 33016KT 15SM -SN DRSN SCT012 BKN077 M21/M25 A3024 RMK SC4AC3 SLP267

CYWG;2009-02-02 17:00;CYWG 021700Z 34015KT 4SM -SN DRSN SCT017 OVC038 M20/M23 A3026 RMK SC3SC4 SLP276

CYWG;2009-02-02 18:00;CYWG 021800Z 34017KT 8SM -SN DRSN FEW014 BKN050 OVC087 M19/M23 A3028 RMK SC2SC2AC1 SLP281

CYWG;2009-02-02 19:00;CYWG 021900Z 33016KT 15SM DRSN FEW014 FEW250 M20/M23 A3029 RMK SC1CI0 SLP284

CYWG;2009-02-02 20:00;CYWG 022000Z 35009KT 15SM FEW020 M18/M23 A3029 RMK SC2 SLP285

CYWG;2009-02-02 21:00;CYWG 022100Z 36008KT 15SM FEW220 M18/M23 A3032 RMK CI0 SLP295

CYWG;2009-02-02 22:00;CYWG 022200Z 31008KT 15SM SKC M19/M23 A3034 RMK SLP301

CYWG;2009-02-02 23:00;CYWG 022300Z 32011KT 15SM SKC M21/M25 A3036 RMK SLP310

CYWG;2009-02-03 00:00;CYWG 030000Z 32013KT 15SM SKC M22/M26 A3039 RMK SLP321

CYWG;2009-02-03 01:00;CYWG 030100Z 32008KT 15SM SKC M24/M28 A3040 RMK SLP325

CYWG;2009-02-03 02:00;CYWG 030200Z 32004KT 15SM SKC M25/M29 A3039 RMK SLP323

CYWG;2009-02-03 03:00;CYWG 030300Z 28008KT 15SM SKC M25/M29 A3042 RMK SLP331

CYWG;2009-02-03 04:00;CYWG 030400Z 31007KT 15SM SKC M28/M31 A3043 RMK SLP336

CYWG;2009-02-03 05:00;CYWG 030500Z 32004KT 15SM SKC M28/M32 A3045 RMK SLP340

CYWG;2009-02-03 06:00;CYWG 030600Z 32004KT 15SM SKC M28/M32 A3045 RMK SLP342

CYWG;2009-02-03 07:00;CYWG 030700Z 30006KT 15SM SKC M29/M33 A3046 RMK SLP347

CYWG;2009-02-03 08:00;CYWG 030800Z 32004KT 15SM SKC M29/M33 A3047 RMK SLP349

CYWG;2009-02-03 09:00;CYWG 030900Z 34002KT 15SM SKC M30/M33 A3048 RMK SLP353

CYWG;2009-02-03 10:00;CYWG 031000Z 00000KT 15SM SKC M30/M34 A3050 RMK SLP359

CYWG;2009-02-03 11:00;CYWG 031100Z 32002KT 15SM SKC M29/M32 A3050 RMK SLP359

CYWG;2009-02-03 12:00;CYWG 031200Z 29004KT 15SM SKC M31/M35 A3051 RMK SLP364

CYWG;2009-02-03 13:00;CYWG 031300Z 31002KT 3SM BR FEW250 M32/M35 A3052 RMK CI1 SLP370

CYWG;2009-02-03 14:00;CYWG 031400Z 00000KT 15SM BKN250 M31/M35 A3051 RMK CI2 SLP365

CYWG;2009-02-03 15:00;CYWG 031500Z 21003KT 15SM FEW120 BKN250 M30/M33 A3052 RMK AC1CI2 SLP370

CYWG;2009-02-03 15:20;CYWG 031520Z 00000KT 15SM FEW120 BKN250 M29/ RMK AC1CI1

CYWG;2009-02-03 16:00;CYWG 031600Z 22002KT 15SM BKN250 M27/M31 A3055 RMK CI2 SLP380

CYWG;2009-02-03 17:00;CYWG 031700Z 00000KT 15SM FEW250 M25/M29 A3055 RMK CI1 SLP381

CYWG;2009-02-03 18:00;CYWG 031800Z 15004KT 15SM BKN250 M20/M23 A3054 RMK CI2 SLP373

CYWG;2009-02-03 19:00;CYWG 031900Z 16004KT 15SM FEW120 BKN250 M19/M23 A3053 RMK AC1CI4 SLP369

CYWG;2009-02-03 20:00;CYWG 032000Z 18005KT 15SM FEW077 SCT120 BKN250 M18/M22 A3052 RMK AC2AC2CI2 SLP367

CYWG;2009-02-03 21:00;CYWG 032100Z 18007KT 15SM FEW069 BKN120 OVC250 M18/M23 A3052 RMK AC2AC2CI3 SLP366

CYWG;2009-02-03 22:00;CYWG 032200Z 19007KT 15SM FEW062 SCT092 BKN250 M18/M22 A3051 RMK SC2AC2CI2 SLP365

CYWG;2009-02-03 23:00;CYWG 032300Z 18007KT 15SM FEW062 SCT090 BKN250 M19/M23 A3053 RMK SC1AC3CI1 SLP369

CYWG;2009-02-04 00:00;CYWG 040000Z 18007KT 15SM FEW062 BKN082 M18/M22 A3051 RMK SC1AC3 SLP363

CYWG;2009-02-04 01:00;CYWG 040100Z 16010KT 15SM SKC M19/M23 A3049 RMK SLP357

CYWG;2009-02-04 02:00;CYWG 040200Z 18010KT 15SM SKC M19/M23 A3048 RMK SLP353

CYWG;2009-02-04 03:00;CYWG 040300Z 18011KT 15SM SKC M20/M24 A3047 RMK SLP350

CYWG;2009-02-04 04:00;CYWG 040400Z 18010KT 15SM SKC M21/M24 A3047 RMK SLP351

CYWG;2009-02-04 05:00;CYWG 040500Z 18010KT 15SM SKC M21/M25 A3046 RMK SLP348

CYWG;2009-02-04 06:00;CYWG 040600Z 18011KT 15SM FEW210 M21/M25 A3046 RMK CS0 SLP343

CYWG;2009-02-04 07:00;CYWG 040700Z 18013KT 15SM SCT090 M21/M24 A3044 RMK AC1 SLP336

CYWG;2009-02-04 08:00;CYWG 040800Z 18013KT 15SM FEW090 M21/M25 A3043 RMK AC0 SLP334

CYWG;2009-02-04 09:00;CYWG 040900Z 18013KT 15SM FEW100 M21/M24 A3041 RMK AC0 SLP326

CYWG;2009-02-04 10:00;CYWG 041000Z 18016KT 15SM SKC M21/M24 A3039 RMK SLP320

CYWG;2009-02-04 11:00;CYWG 041100Z 18018KT 15SM SKC M21/M24 A3037 RMK SLP312

CYWG;2009-02-04 12:00;CYWG 041200Z 19020KT 15SM SKC M21/M24 A3036 RMK SLP308

CYWG;2009-02-04 13:00;CYWG 041300Z 18017KT 15SM BKN025 M20/M24 A3033 RMK SC6 SLP300

CYWG;2009-02-04 14:00;CYWG 041400Z 18018KT 15SM BKN023 M20/M23 A3031 RMK SC7 SLP292

CYWG;2009-02-04 15:00;CYWG 041500Z 18020G27KT 15SM BKN021 M19/M23 A3029 RMK SC7 PRESFR SLP283

CYWG;2009-02-04 16:00;CYWG 041600Z 18020KT 15SM OVC017 M18/M21 A3027 RMK SC8 SLP277

CYWG;2009-02-04 16:51;CYWG 041651Z 18022KT 10SM -SN DRSN OVC017 M18/ RMK SC8

CYWG;2009-02-04 17:00;CYWG 041700Z 18024KT 6SM -SN DRSN OVC017 M18/M20 A3023 RMK SC8 PRESFR SLP265

CYWG;2009-02-04 18:00;CYWG 041800Z 18022KT 4SM -SN DRSN OVC015 M16/M18 A3018 RMK SC8 SLP245

CYWG;2009-02-04 18:09;CYWG 041809Z 18022G28KT 1 1/2SM -SN BLSN OVC013 M16/ RMK SC8

CYWG;2009-02-04 19:00;CYWG 041900Z 18022G33KT 2SM -SN BLSN OVC010 M15/M16 A3012 RMK SC8 PRESFR SLP228

CYWG;2009-02-04 19:09;CYWG 041909Z 18025G31KT 2SM -SN BLSN OVC006 M14/ RMK SC8

CYWG;2009-02-04 19:30;CYWG 041930Z 18023G29KT 4SM -SN BLSN OVC010 M13/ RMK SC8 VIS NW 2

CYWG;2009-02-04 19:51;CYWG 041951Z 18023G30KT 4SM BLSN BKN009 OVC100 M13/ RMK SC6AS2 VIS NW 2 PRESFR

CYWG;2009-02-04 20:00;CYWG 042000Z CCA 18029KT 2SM BLSN BKN009 OVC100 M13/M16 A3006 RMK SC6AS2 PRESFR SLP208

CYWG;2009-02-04 20:18;CYWG 042018Z 18027G33KT 1 1/2SM BLSN BKN009 BKN100 M12/ RMK SC6AS2

CYWG;2009-02-04 21:00;CYWG 042100Z 18029G37KT 1 1/2SM BLSN BKN008 M12/M13 A3003 RMK SC7 SLP191

CYWG;2009-02-04 21:47;CYWG 042147Z 18028G38KT 1SM R13/P6000FT/N R36/P6000FT/N BLSN BKN009 M12/ RMK BLSN4SC3

CYWG;2009-02-04 22:00;CYWG 042200Z 17031G38KT 3/4SM R13/P6000FT/D R36/P6000FT/D BLSN BKN100 M12/M13 A2998 RMK BLSN6AS2 SLP175

CYWG;2009-02-04 23:00;CYWG 042300Z 18032G38KT 3/4SM R13/P6000FT/U R36/P6000FT/U BLSN BKN009 BKN100 M11/M12 A2993 RMK BLSN5SC2AS1 SLP161

CYWG;2009-02-04 23:15;CYWG 042315Z 18033G40KT 1/2SM R13/P6000FT/D R36/P6000FT/D BLSN BKN010 OVC100 M11/ RMK BLSN5SC2AS1

CYWG;2009-02-04 23:28;CYWG 042328Z 18031G40KT 3/4SM R13/P6000FT/U R36/P6000FT/U BLSN BKN009 BKN100 M11/ RMK BLSN4SC2AS1

CYWG;2009-02-05 00:00;CYWG 050000Z 18028G35KT 3/4SM R13/P6000FT/U R36/P6000FT/D BLSN BKN010 BKN100 M10/M11 A2992 RMK BLSN4SC2AS1 SLP154

CYWG;2009-02-05 00:21;CYWG 050021Z 19030G39KT 1SM R13/P6000FT/D R36/P6000FT/D BLSN BKN009 BKN100 M11/ RMK BLSN4SC2AS1

CYWG;2009-02-05 00:38;CYWG 050038Z 19025G37KT 3SM BLSN SCT008 BKN100 M10/ RMK BLSN2SC2AS2

CYWG;2009-02-05 01:00;CYWG 050100Z 19025G34KT 4SM BLSN SCT009 BKN100 M10/M11 A2989 RMK BLSN2SF2AS2 SLP145

CYWG;2009-02-05 02:00;CYWG 050200Z 20023G31KT 8SM DRSN FEW012 BKN100 M11/M11 A2988 RMK SF2AC3 SLP143

CYWG;2009-02-05 03:00;CYWG 050300Z 19022G31KT 15SM DRSN FEW012 FEW100 M11/M12 A2985 RMK SF1AC2 SLP131

CYWG;2009-02-05 04:00;CYWG 050400Z 19024G30KT 15SM DRSN FEW093 M12/M12 A2983 RMK AC1 SLP125

CYWG;2009-02-05 05:00;CYWG 050500Z 19020G28KT 15SM DRSN FEW092 M12/M13 A2982 RMK AC0 SLP120

CYWG;2009-02-05 06:00;CYWG 050600Z 19014KT 15SM DRSN SKC M12/M13 A2982 RMK SLP119

CYWG;2009-02-05 07:00;CYWG 050700Z 19008KT 15SM SKC M13/M14 A2984 RMK SLP128

CYWG;2009-02-05 08:00;CYWG 050800Z 20008KT 15SM SKC M13/M14 A2984 RMK FROIN SLP128

CYWG;2009-02-05 09:00;CYWG 050900Z 19008KT 15SM SKC M14/M15 A2984 RMK FROIN SLP127

CYWG;2009-02-05 10:00;CYWG 051000Z 21007KT 15SM SKC M14/M15 A2987 RMK SLP135

CYWG;2009-02-05 11:00;CYWG 051100Z 22002KT 15SM SKC M15/M16 A2988 RMK FROIN SLP140

CYWG;2009-02-05 12:00;CYWG 051200Z 27005KT 15SM SKC M16/M16 A2990 RMK SLP147

CYWG;2009-02-05 13:00;CYWG 051300Z 21002KT 15SM FEW090 M16/M17 A2990 RMK AC2 SLP146

CYWG;2009-02-05 14:00;CYWG 051400Z 00000KT 15SM FEW090 FEW250 M17/M17 A2992 RMK AC1CI1 SLP153

CYWG;2009-02-05 15:00;CYWG 051500Z 22003KT 15SM SCT250 M15/M15 A2994 RMK CI1 SLP159

CYWG;2009-02-05 16:00;CYWG 051600Z 20003KT 15SM SCT250 M13/M14 A2996 RMK CI1 SLP165

CYWG;2009-02-05 17:00;CYWG 051700Z 17002KT 15SM FEW250 M09/M11 A2996 RMK CI1 SLP166

CYWG;2009-02-05 18:00;CYWG 051800Z 00000KT 15SM FEW250 M08/M10 A2995 RMK CI1 SLP162

CYWG;2009-02-05 19:00;CYWG 051900Z 15006KT 15SM SCT250 M05/M08 A2994 RMK CI1 SLP157

CYWG;2009-02-05 20:00;CYWG 052000Z 18006KT 15SM SCT250 M04/M06 A2992 RMK CI1 SLP152

CYWG;2009-02-05 21:00;CYWG 052100Z 17006KT 15SM BKN250 M04/M06 A2992 RMK CI1 SLP151

CYWG;2009-02-05 22:00;CYWG 052200Z 20011KT 15SM SCT250 M05/M07 A2993 RMK CI2 SLP152

CYWG;2009-02-05 23:00;CYWG 052300Z 17010KT 15SM SCT250 M06/M08 A2990 RMK CI2 SLP142

CYWG;2009-02-06 00:00;CYWG 060000Z 17011KT 15SM FEW250 M06/M08 A2987 RMK CI1 SLP136

CYWG;2009-02-06 01:00;CYWG 060100Z 16011KT 15SM SKC M07/M09 A2985 RMK SLP129

CYWG;2009-02-06 02:00;CYWG 060200Z 17010KT 15SM SKC M08/M09 A2983 RMK SLP122

CYWG;2009-02-06 03:00;CYWG 060300Z 18010KT 15SM SKC M08/M09 A2980 RMK SLP111

CYWG;2009-02-06 04:00;CYWG 060400Z 18017KT 15SM SKC M07/M09 A2978 RMK SLP104

CYWG;2009-02-06 05:00;CYWG 060500Z 18019KT 15SM SKC M06/M08 A2976 RMK SLP096

CYWG;2009-02-06 06:00;CYWG 060600Z 19017KT 15SM BKN090 M06/M08 A2974 RMK AC1 SLP087

CYWG;2009-02-06 07:00;CYWG 060700Z 19013KT 15SM SKC M07/M09 A2972 RMK SLP081

CYWG;2009-02-06 08:00;CYWG 060800Z 19013KT 15SM SKC M08/M10 A2970 RMK SLP076

CYWG;2009-02-06 09:00;CYWG 060900Z 20012G17KT 9SM SKC M08/M09 A2969 RMK HZ SLP069

CYWG;2009-02-06 10:00;CYWG 061000Z 19012KT 9SM BKN100 M09/M10 A2967 RMK AC0 HZ/BR SLP064

CYWG;2009-02-06 11:00;CYWG 061100Z 18010KT 9SM BKN140 M10/M11 A2967 RMK AC1 HZ/BR SLP064

CYWG;2009-02-06 12:00;CYWG 061200Z 18010KT 7SM SCT140 OVC220 M10/M10 A2966 RMK AC2CI1 BR SLP060

CYWG;2009-02-06 13:00;CYWG 061300Z CCA 19008KT 7SM SCT140 OVC220 M10/M11 A2964 RMK AC2CI2 BR SLP056

CYWG;2009-02-06 14:00;CYWG 061400Z 17006KT 6SM BR SCT093 OVC220 M10/M11 A2964 RMK AC2CI2 SLP054

CYWG;2009-02-06 15:00;CYWG 061500Z 16003KT 6SM BR SCT088 OVC220 M09/M10 A2965 RMK AC3CI2 SLP057

CYWG;2009-02-06 16:00;CYWG 061600Z 16004KT 6SM BR SCT095 OVC210 M08/M09 A2965 RMK AC2CI4 SLP059

CYWG;2009-02-06 17:00;CYWG 061700Z 10007KT 7SM SCT092 OVC210 M06/M08 A2961 RMK AC3CI2 BR SLP043

CYWG;2009-02-06 18:00;CYWG 061800Z 11006KT 8SM SCT095 OVC200 M05/M07 A2959 RMK AC3CI2 BR SLP037

CYWG;2009-02-06 19:00;CYWG 061900Z 09006KT 10SM SCT084 OVC210 M04/M07 A2957 RMK AC3CI3 BR SLP029

CYWG;2009-02-06 20:00;CYWG 062000Z 08007KT 10SM FEW085 OVC210 M04/M06 A2955 RMK AC2CI4 BR SLP024

CYWG;2009-02-06 21:00;CYWG 062100Z 04010KT 10SM FEW078 BKN210 M04/M05 A2955 RMK AC2CI4 BR SLP023

CYWG;2009-02-06 22:00;CYWG 062200Z 03012KT 10SM SCT095 BKN220 M05/M06 A2955 RMK AC4CI3 BR SLP021

CYWG;2009-02-06 23:00;CYWG 062300Z 04012KT 10SM FEW095 BKN220 M06/M07 A2955 RMK AC2CI5 BR SLP023

CYWG;2009-02-07 00:00;CYWG 070000Z 03008KT 10SM OVC100 M06/M07 A2955 RMK AC8 BR SLP022

CYWG;2009-02-07 01:00;CYWG 070100Z 02008KT 12SM OVC100 M06/M07 A2956 RMK AC6 SLP027

CYWG;2009-02-07 02:00;CYWG 070200Z 02014KT 12SM OVC100 M05/M06 A2956 RMK AC6 SLP026

CYWG;2009-02-07 03:00;CYWG 070300Z 03015KT 12SM OVC100 M04/M06 A2955 RMK AC6 SLP024

CYWG;2009-02-07 04:00;CYWG 070400Z 02013KT 15SM OVC110 M04/M06 A2956 RMK AS5 SLP027

CYWG;2009-02-07 05:00;CYWG 070500Z 02014KT 13SM OVC110 M04/M06 A2959 RMK AC4 SLP035

CYWG;2009-02-07 06:00;CYWG 070600Z 03014G19KT 15SM OVC097 M04/M06 A2961 RMK AC6 SLP043

CYWG;2009-02-07 07:00;CYWG 070700Z 04019KT 15SM OVC100 M03/M07 A2962 RMK AC6 SLP046

CYWG;2009-02-07 08:00;CYWG 070800Z 02021G27KT 15SM -SN OVC087 M04/M08 A2967 RMK AC6 SLP061

CYWG;2009-02-07 09:00;CYWG 070900Z 02024G30KT 15SM -SN OVC077 M04/M08 A2970 RMK AC3 SLP073

CYWG;2009-02-07 10:00;CYWG 071000Z 01023G29KT 15SM -SN SCT063 M06/M08 A2974 RMK SC2 SLP085

CYWG;2009-02-07 10:14;CYWG 071014Z 01021G29KT 15SM SCT050 M06/ RMK SC2

CYWG;2009-02-07 11:00;CYWG 071100Z 03021G27KT 15SM SCT050 BKN085 M07/M09 A2977 RMK SC3AC1 SLP096

CYWG;2009-02-07 12:00;CYWG 071200Z 01017G24KT 15SM OVC067 M07/M09 A2982 RMK AC8 SLP115

CYWG;2009-02-07 13:00;CYWG 071300Z 01015G20KT 15SM OVC059 M07/M09 A2987 RMK SC8 SLP131

CYWG;2009-02-07 14:00;CYWG 071400Z 36015KT 15SM BKN055 OVC087 M08/M11 A2993 RMK SC7AC1 SLP149

CYWG;2009-02-07 15:00;CYWG 071500Z 36017KT 15SM OVC033 M09/M12 A2997 RMK SC8 SLP166

CYWG;2009-02-07 16:00;CYWG 071600Z 36011KT 15SM OVC034 M09/M13 A3001 RMK SC8 SLP180

CYWG;2009-02-07 17:00;CYWG 071700Z 34011KT 15SM BKN038 OVC091 M09/M13 A3006 RMK SC6AC2 SLP194

CYWG;2009-02-07 18:00;CYWG 071800Z 34012KT 15SM FEW045 SCT093 OVC250 M09/M13 A3009 RMK SC2AC2CI3 SLP205

CYWG;2009-02-07 19:00;CYWG 071900Z 34015KT 15SM FEW054 FEW093 BKN250 M09/M14 A3012 RMK SC1AC2CI1 SLP215

CYWG;2009-02-07 20:00;CYWG 072000Z 31009KT 15SM FEW061 M09/M12 A3012 RMK SC2 SLP216

CYWG;2009-02-07 21:00;CYWG 072100Z 30008KT 15SM FEW100 M09/M13 A3013 RMK AC1 SLP222

CYWG;2009-02-07 22:00;CYWG 072200Z 29006KT 15SM BKN036 M09/M13 A3013 RMK SC6 SLP222

CYWG;2009-02-07 23:00;CYWG 072300Z 25005KT 15SM OVC038 M09/M12 A3013 RMK SC8 SLP220

CYWG;2009-02-08 00:00;CYWG 080000Z 22010KT 15SM BKN036 M09/M11 A3012 RMK SC6 SLP216

CYWG;2009-02-08 01:00;CYWG 080100Z 22013G20KT 15SM BKN038 M08/M11 A3011 RMK SC6 SLP213

CYWG;2009-02-08 02:00;CYWG 080200Z 22011KT 15SM BKN038 M07/M09 A3010 RMK SC6 SLP211

CYWG;2009-02-08 03:00;CYWG 080300Z 22010KT 15SM FEW080 BKN200 M07/M10 A3009 RMK AC2CI1 SLP206

CYWG;2009-02-08 04:00;CYWG 080400Z 23012KT 15SM BKN070 M07/M10 A3008 RMK AC4 SLP203

CYWG;2009-02-08 05:00;CYWG 080500Z 23015KT 15SM BKN080 M07/M09 A3007 RMK AC6 SLP200

CYWG;2009-02-08 06:00;CYWG 080600Z 22012G18KT 15SM BKN080 M07/M09 A3006 RMK AC5 SLP196

CYWG;2009-02-08 07:00;CYWG 080700Z 21013KT 15SM BKN070 M06/M08 A3004 RMK AC4 SLP192

CYWG;2009-02-08 08:00;CYWG 080800Z 22010KT 15SM BKN080 M06/M08 A3003 RMK AC6 SLP189

CYWG;2009-02-08 09:00;CYWG 080900Z 21012KT 15SM FEW080 BKN120 M06/M08 A3000 RMK AC1AC3 SLP178

CYWG;2009-02-08 10:00;CYWG 081000Z 21013KT 15SM BKN090 M06/M08 A3000 RMK AC6 SLP176

CYWG;2009-02-08 11:00;CYWG 081100Z 21012KT 15SM SCT090 BKN210 M07/M08 A3000 RMK AC2CI0 SLP176

CYWG;2009-02-08 12:00;CYWG 081200Z 21011KT 15SM FEW120 SCT220 M08/M09 A3001 RMK AC2CI2 SLP179

CYWG;2009-02-08 13:00;CYWG 081300Z 21008KT 15SM FEW120 SCT220 M09/M10 A3001 RMK AC1CI3 SLP181

CYWG;2009-02-08 14:00;CYWG 081400Z 20004KT 15SM FEW120 SCT220 M10/M11 A3003 RMK AC1CI2 SLP186

CYWG;2009-02-08 15:00;CYWG 081500Z 20005KT 15SM SCT220 M09/M11 A3005 RMK CI2 SLP195

CYWG;2009-02-08 16:00;CYWG 081600Z 17004KT 15SM FEW120 FEW220 M08/M10 A3005 RMK AC1CI1 SLP195

CYWG;2009-02-08 17:00;CYWG 081700Z 20008KT 15SM FEW120 FEW220 M06/M09 A3007 RMK AC1CI1 SLP202

CYWG;2009-02-08 18:00;CYWG 081800Z 00000KT 15SM BKN074 BKN220 M05/M08 A3008 RMK AC5CI1 SLP201

CYWG;2009-02-08 19:00;CYWG 081900Z 19004KT 15SM BKN120 M03/M07 A3007 RMK AC5 SLP198

CYWG;2009-02-08 20:00;CYWG 082000Z 16006KT 15SM FEW075 SCT250 M03/M07 A3004 RMK AC2CI0 SLP190

CYWG;2009-02-08 21:00;CYWG 082100Z 18009KT 15SM FEW080 SCT250 M03/M06 A3005 RMK AC1CI0 SLP190

CYWG;2009-02-08 22:00;CYWG 082200Z 18008KT 15SM FEW080 SCT250 M04/M07 A3005 RMK AC1CI0 SLP191

CYWG;2009-02-08 23:00;CYWG 082300Z 19008KT 15SM FEW080 SCT250 M04/M07 A3006 RMK AC1CI0 SLP196

CYWG;2009-02-09 00:00;CYWG 090000Z CCA 18009KT 15SM FEW080 FEW250 M06/M08 A3005 RMK AC1CI0 SLP192

CYWG;2009-02-09 01:00;CYWG 090100Z CCA 15007KT 15SM FEW250 M07/M09 A3004 RMK CI0 SLP190

CYWG;2009-02-09 02:00;CYWG 090200Z 15007KT 15SM FEW250 M08/M09 A3002 RMK CI0 SLP182

CYWG;2009-02-09 03:00;CYWG 090300Z 14009KT 15SM FEW250 M07/M09 A2998 RMK CI0 SLP170

CYWG;2009-02-09 04:00;CYWG 090400Z 16012KT 15SM FEW090 SCT250 M06/M08 A2998 RMK AC1CI0 SLP169

CYWG;2009-02-09 05:00;CYWG 090500Z 17011KT 13SM FEW090 SCT250 M07/M09 A2996 RMK AC1CI1 SLP164

CYWG;2009-02-09 06:00;CYWG 090600Z 16011KT 12SM FEW090 BKN250 M07/M08 A2993 RMK AC1CI2 BR SLP151

CYWG;2009-02-09 07:00;CYWG 090700Z 15013KT 12SM BKN095 OVC250 M05/M07 A2991 RMK AS5CI0 BR SLP145

CYWG;2009-02-09 08:00;CYWG 090800Z 15010KT 12SM OVC092 M04/M05 A2988 RMK AS7 BR SLP134

CYWG;2009-02-09 09:00;CYWG 090900Z 14014KT 12SM SCT030 BKN100 OVC250 M03/M04 A2985 RMK SC3AC3CI2 BR SLP122

CYWG;2009-02-09 09:13;CYWG 090913Z 13014KT 10SM -FZRA SCT026 BKN062 OVC250 M02/ RMK SC4SC3CI1

CYWG;2009-02-09 09:38;CYWG 090938Z 13014KT 6SM FZRA BR OVC032 M01/ RMK SC8

CYWG;2009-02-09 09:46;CYWG 090946Z 14012KT 5SM -PL FZRA BR OVC027 M01/ RMK SC8

CYWG;2009-02-09 10:00;CYWG 091000Z 15012KT 5SM -PL FZRA BR OVC027 M01/M01 A2980 RMK SC8 SLP106

CYWG;2009-02-09 10:38;CYWG 091038Z 14010G15KT 3SM -PL FZRA BR BKN007 OVC025 00/ RMK SC6SC2

CYWG;2009-02-09 10:49;CYWG 091049Z 14011KT 2 1/2SM -FZRA BR OVC006 00/ REFZRA RMK SC8

CYWG;2009-02-09 11:00;CYWG 091100Z 13009KT 2 1/2SM -FZRA BR BKN005 OVC015 00/00 A2977 REFZRA RMK SF6SC2 SLP094

CYWG;2009-02-09 11:07;CYWG 091107Z 13010KT 2 1/2SM -RA BR BKN005 OVC015 01/ REFZRA RMK SF6SC2

CYWG;2009-02-09 11:27;CYWG 091127Z 12011KT 4SM -RA BR BKN005 OVC022 01/ REFZRA RMK SF3SC5

CYWG;2009-02-09 12:00;CYWG 091200Z 12012KT 4SM -RA BR SCT005 OVC020 01/01 A2972 RMK SF3SC5 REFRZA SLP078

CYWG;2009-02-09 12:42;CYWG 091242Z 13015KT 6SM -RA BR SCT008 OVC014 02/ RMK SF3ST5

CYWG;2009-02-09 13:00;CYWG 091300Z 13015KT 6SM -RA BR BKN007 OVC020 01/01 A2968 RMK SF3SC5 SLP064

CYWG;2009-02-09 13:26;CYWG 091326Z 14014KT 10SM -RA BKN007 OVC014 01/ RMK SF6SC2

CYWG;2009-02-09 14:00;CYWG 091400Z 14013KT 6SM -RA OVC014 01/01 A2965 RMK SF8 SLP056

CYWG;2009-02-09 14:39;CYWG 091439Z 15011KT 6SM -RA OVC007 01/ RMK SF8

CYWG;2009-02-09 15:00;CYWG 091500Z 14013KT 4SM -RA BR OVC008 02/01 A2964 RMK ST8 SLP050

CYWG;2009-02-09 15:47;CYWG 091547Z 16010KT 2 1/2SM -RA BR OVC006 01/ RMK SF8

CYWG;2009-02-09 16:00;CYWG 091600Z 15011KT 5SM -RA BR OVC006 01/01 A2962 RMK SF8 SLP045

CYWG;2009-02-09 17:00;CYWG 091700Z 15013KT 3SM -DZ BR OVC006 01/01 A2959 RMK SF8 SLP035

CYWG;2009-02-09 17:21;CYWG 091721Z 15013KT 2SM -DZ BR OVC005 01/ RMK SF8

CYWG;2009-02-09 18:00;CYWG 091800Z 14012KT 2 1/2SM -DZ BR OVC005 01/01 A2956 RMK SF8 /R02/ SLP023

CYWG;2009-02-09 19:00;CYWG 091900Z 15013KT 2 1/2SM -DZ BR OVC005 01/01 A2952 RMK SF8 SLP009

CYWG;2009-02-09 19:21;CYWG 091921Z 15015KT 5SM -DZ BR OVC006 02/ RMK SF8

CYWG;2009-02-09 20:00;CYWG 092000Z 14014KT 5SM -DZ BR OVC007 02/02 A2948 RMK ST8 SLP998

CYWG;2009-02-09 20:08;CYWG 092008Z 15013KT 5SM -RA BR OVC006 02/ RMK ST8

CYWG;2009-02-09 20:35;CYWG 092035Z 14013KT 5SM -DZ BR OVC006 02/ RMK ST8

CYWG;2009-02-09 21:00;CYWG 092100Z 14012KT 5SM -RA BR OVC006 02/02 A2946 RMK ST8 SLP987

CYWG;2009-02-09 22:00;CYWG 092200Z 13011KT 5SM -RA BR OVC006 02/02 A2944 RMK ST8 SLP982

CYWG;2009-02-09 22:27;CYWG 092227Z 12011KT 2SM -RA BR OVC004 02/ RMK ST8

CYWG;2009-02-09 23:00;CYWG 092300Z 13010G15KT 2SM -RA BR OVC003 01/01 A2942 RMK ST8 SLP974

CYWG;2009-02-10 00:00;CYWG 100000Z 12010KT 2SM -RA BR OVC003 01/01 A2939 RMK ST8 SLP962

CYWG;2009-02-10 00:20;CYWG 100020Z 12009KT 4SM RA BR OVC004 01/ RMK SF8

CYWG;2009-02-10 00:39;CYWG 100039Z 11010KT 5SM -RA BR OVC005 01/ RMK SF8

CYWG;2009-02-10 01:00;CYWG 100100Z 12010KT 6SM -RA BR OVC006 01/01 A2937 RMK SF8 SLP956

CYWG;2009-02-10 02:00;CYWG 100200Z 11010KT 5SM -RA BR OVC005 01/01 A2935 RMK SF8 SLP950

CYWG;2009-02-10 03:00;CYWG 100300Z 11010KT 5SM -RA BR OVC005 01/01 A2934 RMK SF8 SLP944

CYWG;2009-02-10 03:53;CYWG 100353Z 10009KT 3SM -RA BR OVC004 01/ RMK ST8

CYWG;2009-02-10 04:00;CYWG 100400Z 11009KT 3SM -RA BR OVC004 02/02 A2931 RMK SF8 SLP935

CYWG;2009-02-10 04:23;CYWG 100423Z 10008KT 3SM -RA OVC003 02/ RMK SF8

CYWG;2009-02-10 04:38;CYWG 100438Z 10008KT 2SM -RA BR OVC004 02/ RMK SF8

CYWG;2009-02-10 05:00;CYWG 100500Z 10009KT 3SM -RA BR OVC003 02/02 A2928 RMK SF8 SLP926

CYWG;2009-02-10 05:18;CYWG 100518Z 10009KT 3SM -RA BR OVC004 02/ RMK SF8

CYWG;2009-02-10 06:00;CYWG 100600Z 10009KT 3SM -RA BR OVC004 02/02 A2927 RMK SF8 SLP921

CYWG;2009-02-10 06:45;CYWG 100645Z 11010KT 4SM -RA BR OVC005 02/ RMK SF8

CYWG;2009-02-10 07:00;CYWG 100700Z 11009KT 4SM -RA BR OVC005 02/02 A2925 RMK SF8 SLP914

CYWG;2009-02-10 07:51;CYWG 100751Z 09007KT 4SM BR OVC006 02/ RMK SF8

CYWG;2009-02-10 08:00;CYWG 100800Z 09007KT 4SM BR OVC006 02/02 A2923 RMK SF8 SLP908

CYWG;2009-02-10 08:11;CYWG 100811Z 08005KT 5SM BR OVC005 02/ RMK SF8

CYWG;2009-02-10 08:27;CYWG 100827Z 08005KT 5SM BR OVC004 02/ RMK SF8

CYWG;2009-02-10 09:00;CYWG 100900Z 07005KT 5SM BR OVC004 02/02 A2922 RMK SF8 SLP903

CYWG;2009-02-10 09:20;CYWG 100920Z 07005KT 2SM -RA BR OVC003 02/ RMK SF8

CYWG;2009-02-10 09:28;CYWG 100928Z 08006KT 2SM -RA BR OVC002 02/ RMK SF8

CYWG;2009-02-10 09:41;CYWG 100941Z 07006KT 1 1/2SM -RA BR OVC002 01/ RMK SF8

CYWG;2009-02-10 10:00;CYWG 101000Z 07006KT 1 1/2SM -RA BR OVC002 01/01 A2920 RMK SF8 SLP898

CYWG;2009-02-10 10:11;CYWG 101011Z 05005KT 1SM R13/P6000FT/D R36/P6000FT/D -DZ BR OVC002 01/ RMK SF8

CYWG;2009-02-10 10:25;CYWG 101025Z 05005KT 3/4SM R13/5500FT/D R36/P6000FT/D -DZ BR OVC002 01/ RMK SF8

CYWG;2009-02-10 10:34;CYWG 101034Z 05005KT 1/2SM R13/3500V4500FT/D R36/4500VP6000FT/D -DZ FG OVC002 01/ RMK FG5SF3

CYWG;2009-02-10 10:44;CYWG 101044Z 05006KT 1/4SM R13/4000FT/N R36/3000V5000FT/D FG VV001 01/ RMK FG8

CYWG;2009-02-10 11:00;CYWG 101100Z 04007KT 1/8SM R13/2800FT/N R36/3000FT/D FG VV001 01/01 A2919 RMK FG8 SLP896

CYWG;2009-02-10 12:00;CYWG 101200Z 04007KT 1/4SM R13/2400FT/N R36/2400FT/N FG VV001 01/01 A2919 RMK FG8 SLP894

CYWG;2009-02-10 13:00;CYWG 101300Z 03009KT 1/4SM R13/3500FT/U R36/4000V5000FT/U FG VV001 01/01 A2918 RMK FG8 SLP891

CYWG;2009-02-10 13:13;CYWG 101313Z 04010KT 1/2SM R13/5000FT/N R36/6000FT/U -DZ FG OVC001 01/ RMK FG5ST3

CYWG;2009-02-10 13:48;CYWG 101348Z 03009KT 1/2SM R13/P6000FT/U R36/P6000FT/N -DZ FG VV002 01/ RMK DZ8

CYWG;2009-02-10 14:00;CYWG 101400Z 03008KT 1/2SM R13/P6000FT/N R36/P6000FT/U -DZ FG VV001 01/01 A2919 RMK DZ8 SLP894

CYWG;2009-02-10 14:28;CYWG 101428Z 04007KT 1SM R13/P6000FT/U R36/P6000FT/D BR OVC002 01/ RMK ST8

CYWG;2009-02-10 15:00;CYWG 101500Z 02007KT 3/4SM R13/3000FT/N R36/3500VP6000FT/D -DZ BR OVC002 01/01 A2920 RMK ST8 SLP898

CYWG;2009-02-10 15:08;CYWG 101508Z 01007KT 1/2SM R13/3000FT/N R36/3000FT/N -DZ FG VV002 01/ RMK FG8

CYWG;2009-02-10 16:00;CYWG 101600Z 01008KT 1/2SM R13/3000V4500FT/D R36/2600FT/N -DZ FG VV001 01/01 A2921 RMK FG8 SLP902

CYWG;2009-02-10 17:00;CYWG 101700Z 01008KT 1/2SM R13/5500FT/N R36/4500FT/N -DZ FG VV002 01/01 A2923 RMK FG8 SLP907

CYWG;2009-02-10 18:00;CYWG 101800Z 36008KT 1/2SM R13/3000FT/N R36/3500FT/N -DZ FG VV002 01/01 A2924 RMK FG8 SLP913

CYWG;2009-02-10 19:00;CYWG 101900Z 35008KT 1/2SM R13/2000FT/N R36/2200FT/N FG VV001 01/01 A2925 RMK FG8 SLP915

CYWG;2009-02-10 19:42;CYWG 101942Z 33007KT 1/2SM R13/2400FT/N R36/2600FT/N FG BKN002 OVC013 01/ RMK ST7ST1

CYWG;2009-02-10 19:58;CYWG 101958Z 33011KT 1 1/2SM R13/3500VP6000FT/U R36/4000VP6000FT/U BR BKN002 BKN013 OVC031 01/ RMK ST6ST1ST1

CYWG;2009-02-10 20:00;CYWG 102000Z 33010KT 1 1/2SM R13/4500VP6000FT/U BR BKN002 BKN013 OVC031 01/01 A2927 RMK ST6ST1ST1 SLP921

CYWG;2009-02-10 20:05;CYWG 102005Z 33010KT 3SM BR SCT003 BKN013 OVC031 01/ RMK ST3ST4ST1 VIS LWR E QUAD

CYWG;2009-02-10 20:32;CYWG 102032Z 31006KT 8SM SCT004 BKN015 OVC023 00/ RMK ST2ST4ST2 VIS E QUAD 6 CIG OVR DOWNTOWN LWR

CYWG;2009-02-10 20:58;CYWG 102058Z 32009KT 8SM BKN005 OVC023 01/ RMK ST6ST2

CYWG;2009-02-10 21:00;CYWG 102100Z 32009KT 8SM OVC005 01/01 A2929 RMK ST8 SLP930

CYWG;2009-02-10 22:00;CYWG 102200Z 31010KT 8SM OVC005 01/01 A2933 RMK ST8 SLP942

CYWG;2009-02-10 22:45;CYWG 102245Z 32009KT 8SM OVC004 01/ RMK ST8

CYWG;2009-02-10 23:00;CYWG 102300Z 32008KT 8SM OVC003 01/01 A2936 RMK ST8 SLP952

CYWG;2009-02-10 23:24;CYWG 102324Z 30007KT 8SM OVC004 01/ RMK ST8 DFUS CIG

CYWG;2009-02-10 23:52;CYWG 102352Z 31008KT 8SM FEW004 BKN006 OVC019 01/ RMK ST2ST4ST2

CYWG;2009-02-11 00:00;CYWG 110000Z 30008KT 8SM BKN005 OVC019 01/01 A2939 RMK ST6ST2 SLP964

CYWG;2009-02-11 01:00;CYWG 110100Z 30006KT 10SM BKN005 OVC019 01/01 A2942 RMK ST6ST2 SLP974

CYWG;2009-02-11 02:00;CYWG 110200Z 30008KT 10SM OVC005 01/01 A2945 RMK ST8 SLP983

CYWG;2009-02-11 02:13;CYWG 110213Z 30008KT 10SM -RA OVC004 01/ RMK ST8

CYWG;2009-02-11 03:00;CYWG 110300Z 30009KT 10SM -RA OVC004 01/01 A2948 RMK ST8 SLP994

CYWG;2009-02-11 03:54;CYWG 110354Z 31010KT 10SM -DZ OVC006 01/ RMK ST8

CYWG;2009-02-11 04:00;CYWG 110400Z 31011KT 10SM -DZ OVC006 01/01 A2950 RMK ST8 SLP999

CYWG;2009-02-11 04:46;CYWG 110446Z 31010KT 12SM OVC004 01/ RMK ST8

CYWG;2009-02-11 05:00;CYWG 110500Z 31010KT 12SM OVC004 01/01 A2952 RMK ST8 SLP006

CYWG;2009-02-11 05:53;CYWG 110553Z 31010KT 12SM FEW004 BKN008 OVC050 01/ RMK ST2ST4SC2

CYWG;2009-02-11 06:00;CYWG 110600Z 31010KT 12SM FEW004 BKN008 OVC050 01/01 A2954 RMK ST2ST4SC2 SLP013

CYWG;2009-02-11 06:44;CYWG 110644Z 31010KT 12SM BKN006 OVC055 01/ RMK ST6SC2

CYWG;2009-02-11 07:00;CYWG 110700Z 31011KT 12SM OVC007 00/00 A2955 RMK ST7 SLP018

CYWG;2009-02-11 08:00;CYWG 110800Z 32010KT 15SM BKN007 OVC034 00/00 A2955 RMK ST6SC2 SLP018

CYWG;2009-02-11 09:00;CYWG 110900Z 32008KT 15SM OVC007 00/00 A2955 RMK ST7 SLP019

CYWG;2009-02-11 10:00;CYWG 111000Z 32010KT 15SM OVC007 00/M00 A2954 RMK ST7 SLP016

CYWG;2009-02-11 11:00;CYWG 111100Z 31008KT 15SM OVC008 00/M00 A2958 RMK ST8 SLP029

CYWG;2009-02-11 11:37;CYWG 111137Z 30007KT 15SM OVC010 00/ RMK ST8

CYWG;2009-02-11 11:48;CYWG 111148Z 29007KT 12SM -SN OVC012 M00/ RMK ST8

CYWG;2009-02-11 12:00;CYWG 111200Z 29008KT 12SM -SN BKN012 OVC026 M00/M00 A2961 RMK SF6SC2 SLP040

CYWG;2009-02-11 13:00;CYWG 111300Z 31010KT 12SM -SN SCT012 OVC048 M00/M00 A2961 RMK SF2SC6 SLP037

CYWG;2009-02-11 13:26;CYWG 111326Z 31010KT 12SM -SN SCT006 BKN011 OVC048 M00/ RMK SF4SC2SC2

CYWG;2009-02-11 14:00;CYWG 111400Z 31011KT 12SM -SN SCT006 BKN048 OVC084 M00/M01 A2961 RMK SF3SC2AC2 SLP040

CYWG;2009-02-11 15:00;CYWG 111500Z 31010KT 12SM -SN SCT007 BKN012 OVC048 M01/M01 A2961 RMK SF2SC2SC3 SLP040

CYWG;2009-02-11 15:11;CYWG 111511Z 32011KT 12SM -SN BKN006 OVC024 M01/ RMK SF6SC2

CYWG;2009-02-11 16:00;CYWG 111600Z 31010KT 15SM BKN006 OVC024 M01/M01 A2961 RMK SF6SC2 SLP040

CYWG;2009-02-11 17:00;CYWG 111700Z 32009KT 15SM BKN007 OVC029 M01/M01 A2962 RMK SF6SC2 SLP043

CYWG;2009-02-11 18:00;CYWG 111800Z 33011KT 15SM BKN009 OVC027 M01/M02 A2961 RMK SF6SC2 SLP040

CYWG;2009-02-11 18:44;CYWG 111844Z 33011KT 15SM BKN010 OVC027 M01/ RMK SC6SC2

CYWG;2009-02-11 19:00;CYWG 111900Z 32011KT 15SM BKN010 OVC049 M01/M02 A2960 RMK SC6SC2 SLP036

CYWG;2009-02-11 19:34;CYWG 111934Z 33012KT 12SM -SN OVC010 M01/ RMK SC8

CYWG;2009-02-11 20:00;CYWG 112000Z 33012KT 6SM -SN OVC009 M01/M02 A2960 RMK SC8 SLP035

CYWG;2009-02-11 20:40;CYWG 112040Z 32011KT 2 1/2SM -SN OVC008 M01/ RMK SC8

CYWG;2009-02-11 21:00;CYWG 112100Z 31013KT 2SM -SN OVC009 M01/M02 A2961 RMK SN2SC6 SLP038

CYWG;2009-02-11 21:15;CYWG 112115Z 31014KT 3SM -SN BKN009 OVC035 M01/ RMK SC6SC2

CYWG;2009-02-11 22:00;CYWG 112200Z 32013KT 12SM -SN FEW009 BKN013 OVC030 M02/M02 A2962 RMK SC2SC4SC2 SLP042

CYWG;2009-02-11 23:00;CYWG 112300Z 32014KT 4SM -SN FEW013 SCT033 OVC047 M02/M03 A2963 RMK SC1SC3SC4 SLP045

CYWG;2009-02-12 00:00;CYWG 120000Z 32014KT 4SM -SN BKN019 OVC033 M02/M03 A2965 RMK SC5SC3 SLP054

CYWG;2009-02-12 01:00;CYWG 120100Z 31014KT 5SM -SN OVC040 M03/M04 A2966 RMK SC8 SLP056

CYWG;2009-02-12 02:00;CYWG 120200Z 31016KT 10SM -SN OVC020 M03/M04 A2967 RMK SC8 SLP059

CYWG;2009-02-12 02:25;CYWG 120225Z 31014KT 4SM -SN OVC019 M03/ RMK SC8

CYWG;2009-02-12 03:00;CYWG 120300Z 31015KT 4SM -SN OVC019 M04/M05 A2968 RMK SC8 SLP064

CYWG;2009-02-12 03:51;CYWG 120351Z 31015KT 3SM -SN DRSN OVC027 M04/ RMK SC8

CYWG;2009-02-12 04:00;CYWG 120400Z 31015KT 2 1/2SM -SN DRSN OVC027 M04/M06 A2969 RMK SC8 SLP067

CYWG;2009-02-12 05:00;CYWG 120500Z 31013KT 3SM -SN DRSN OVC019 M05/M06 A2970 RMK SC8 SLP072

CYWG;2009-02-12 05:25;CYWG 120525Z 31016KT 5SM -SN DRSN OVC025 M05/ RMK SC8

CYWG;2009-02-12 06:00;CYWG 120600Z 31014KT 5SM -SN DRSN OVC030 M05/M07 A2971 RMK SC8 SLP076

CYWG;2009-02-12 07:00;CYWG 120700Z 31016KT 4SM -SN DRSN BKN042 OVC075 M06/M07 A2972 RMK SC6AC2 SLP079

CYWG;2009-02-12 07:36;CYWG 120736Z 32017KT 8SM DRSN BKN042 OVC075 M06/ RMK SC6AC2

CYWG;2009-02-12 08:00;CYWG 120800Z 31016KT 8SM DRSN BKN042 OVC075 M06/M07 A2974 RMK SC6AC2 SLP083

CYWG;2009-02-12 08:22;CYWG 120822Z 32017KT 8SM -SN DRSN BKN042 OVC075 M06/ RMK SC6AC2

CYWG;2009-02-12 09:00;CYWG 120900Z 32015KT 15SM DRSN FEW013 BKN040 OVC082 M06/M07 A2975 RMK SF2SC4AC2 SLP089

CYWG;2009-02-12 09:27;CYWG 120927Z 32017KT 10SM -SN DRSN SCT013 BKN040 OVC082 M06/ RMK SC4SC2AC2

CYWG;2009-02-12 10:00;CYWG 121000Z 31015KT 10SM DRSN SCT013 BKN040 OVC082 M06/M07 A2977 RMK SC4SC2AC2 SLP095

CYWG;2009-02-12 11:00;CYWG 121100Z 32016KT 15SM DRSN FEW013 OVC031 M06/M08 A2979 RMK SC1SC7 SLP100

CYWG;2009-02-12 11:25;CYWG 121125Z 32016KT 15SM -SN DRSN OVC031 M06/ RMK SC8

CYWG;2009-02-12 12:00;CYWG 121200Z 31015KT 15SM -SN DRSN FEW013 OVC031 M06/M08 A2981 RMK SC1SC7 SLP111

CYWG;2009-02-12 12:33;CYWG 121233Z 31016KT 1 1/2SM -SN DRSN OVC031 M06/ RMK SN2SC6

CYWG;2009-02-12 13:00;CYWG 121300Z 31015KT 3SM -SN DRSN OVC031 M06/M07 A2984 RMK SC8 SLP119

CYWG;2009-02-12 14:00;CYWG 121400Z 32016KT 3SM -SN DRSN OVC035 M06/M08 A2986 RMK SC8 SLP126

CYWG;2009-02-12 14:36;CYWG 121436Z 31015KT 2SM -SN DRSN FEW013 OVC037 M07/ RMK SN1SC2SC6

CYWG;2009-02-12 14:54;CYWG 121454Z 32017KT 2SM -SN DRSN BKN010 OVC037 M07/ RMK SN1SC5SC2

CYWG;2009-02-12 15:00;CYWG 121500Z 32014G19KT 2SM -SN DRSN BKN010 OVC037 M07/M08 A2988 RMK SN1SC5SC2 SLP135

CYWG;2009-02-12 15:29;CYWG 121529Z 32015KT 3SM -SN DRSN FEW010 OVC037 M07/ RMK SC2SC6

CYWG;2009-02-12 16:00;CYWG 121600Z 31015KT 5SM -SN DRSN SCT012 BKN037 OVC065 M07/M08 A2991 RMK SC3SC4SC1 SLP144

CYWG;2009-02-12 16:18;CYWG 121618Z 32018KT 6SM -SN DRSN BKN012 OVC037 M07/ RMK SC6SC2

CYWG;2009-02-12 17:00;CYWG 121700Z 31015KT 8SM -SN DRSN BKN014 OVC060 M07/M08 A2993 RMK SC6SC2 SLP150

CYWG;2009-02-12 18:00;CYWG 121800Z 32015KT 8SM -SN DRSN SCT014 BKN023 OVC060 M07/M08 A2995 RMK SC3SC3SC2 SLP157

CYWG;2009-02-12 18:19;CYWG 121819Z 32015KT 4SM -SN DRSN BKN014 OVC054 M06/ RMK SC6SC2

CYWG;2009-02-12 19:00;CYWG 121900Z 32014KT 4SM -SN DRSN BKN014 OVC050 M06/M08 A2996 RMK SC6SC2 SLP162

CYWG;2009-02-12 20:00;CYWG 122000Z 31017KT 3SM -SN DRSN BKN010 OVC046 M06/M08 A2997 RMK SC6SC2 SLP166

CYWG;2009-02-12 21:00;CYWG 122100Z 31014KT 10SM -SN DRSN SCT015 OVC072 M06/M08 A2999 RMK SC4AC4 SLP174

CYWG;2009-02-12 22:00;CYWG 122200Z 30016KT 6SM -SN DRSN FEW013 OVC060 M06/M08 A3002 RMK SC2SC6 SLP181

CYWG;2009-02-12 23:00;CYWG 122300Z 32013KT 12SM -SN DRSN FEW026 BKN090 M07/M09 A3004 RMK SC2AC2 SLP188

CYWG;2009-02-12 23:55;CYWG 122355Z 31008KT 15SM DRSN FEW030 BKN090 M08/ RMK SC2AC1

CYWG;2009-02-13 00:00;CYWG 130000Z 31007KT 15SM DRSN FEW030 BKN090 M08/M10 A3005 RMK SC2AC1 SLP194

CYWG;2009-02-13 01:00;CYWG 130100Z 30008KT 15SM FEW035 FEW098 M09/M11 A3006 RMK SC1AC1 SLP196

CYWG;2009-02-13 02:00;CYWG 130200Z 29009KT 15SM FEW064 M11/M12 A3008 RMK SC1 SLP204

CYWG;2009-02-13 03:00;CYWG 130300Z 30008KT 15SM FEW030 M12/M14 A3010 RMK SC2 SLP212

CYWG;2009-02-13 04:00;CYWG 130400Z 29009KT 15SM SKC M13/M14 A3012 RMK SLP217

CYWG;2009-02-13 05:00;CYWG 130500Z 30009KT 15SM FEW090 M14/M15 A3013 RMK AC2 SLP222

CYWG;2009-02-13 06:00;CYWG 130600Z 30009KT 15SM SCT094 M14/M15 A3015 RMK AC3 SLP229

CYWG;2009-02-13 07:00;CYWG 130700Z 31007KT 15SM BKN034 M12/M14 A3017 RMK SC7 SLP237

CYWG;2009-02-13 08:00;CYWG 130800Z 30008KT 15SM OVC032 M11/M12 A3019 RMK SC8 SLP243

CYWG;2009-02-13 09:00;CYWG 130900Z 29007KT 15SM -SN OVC032 M11/M12 A3021 RMK SC8 SLP247

CYWG;2009-02-13 10:00;CYWG 131000Z 30009KT 5SM -SN OVC032 M10/M11 A3021 RMK SC8 SLP249

CYWG;2009-02-13 11:00;CYWG 131100Z 29009KT 10SM -SN OVC030 M11/M12 A3022 RMK SC8 SLP252

CYWG;2009-02-13 11:32;CYWG 131132Z 28009KT 15SM OVC018 M13/ RMK SC8

CYWG;2009-02-13 12:00;CYWG 131200Z 28009KT 15SM SCT018 BKN110 M15/M16 A3022 RMK SC4AC2 SLP256

CYWG;2009-02-13 13:00;CYWG 131300Z 29010KT 15SM OVC029 M15/M17 A3023 RMK SC8 SLP257

CYWG;2009-02-13 14:00;CYWG 131400Z 29010KT 15SM FEW021 BKN140 M16/M18 A3024 RMK SC2AC3 SLP261

CYWG;2009-02-13 15:00;CYWG 131500Z 28008KT 15SM SCT140 BKN210 M16/M18 A3026 RMK AC3CI3 SLP269

CYWG;2009-02-13 16:00;CYWG 131600Z 28007KT 15SM SCT093 BKN210 M16/M18 A3028 RMK AC4CI3 SLP276

CYWG;2009-02-13 17:00;CYWG 131700Z 29007KT 15SM FEW088 BKN210 M16/M18 A3028 RMK AC2CI4 SLP276

CYWG;2009-02-13 18:00;CYWG 131800Z 27007KT 15SM FEW090 SCT210 M15/M17 A3028 RMK AC1CI2 SLP276

CYWG;2009-02-13 19:00;CYWG 131900Z 28007KT 15SM FEW090 BKN210 M13/M16 A3025 RMK AC1CI2 SLP267

CYWG;2009-02-13 20:00;CYWG 132000Z 29010KT 15SM FEW090 BKN210 M12/M15 A3024 RMK AC1CI4 SLP263

CYWG;2009-02-13 21:00;CYWG 132100Z 30010KT 15SM BKN210 M12/M15 A3023 RMK CI3 SLP257

CYWG;2009-02-13 22:00;CYWG 132200Z 29008KT 15SM BKN210 M12/M15 A3022 RMK CI3 SLP256

CYWG;2009-02-13 23:00;CYWG 132300Z 29005KT 15SM FEW140 BKN210 M12/M15 A3023 RMK AC1CI3 SLP259

CYWG;2009-02-14 00:00;CYWG 140000Z 27005KT 15SM SCT026 SCT100 BKN210 M12/M15 A3024 RMK SC3AC1CI2 SLP262

CYWG;2009-02-14 01:00;CYWG 140100Z 29006KT 15SM OVC028 M12/M15 A3023 RMK SC8 SLP261

CYWG;2009-02-14 02:00;CYWG 140200Z 29009KT 15SM OVC028 M12/M15 A3023 RMK SC8 SLP259

CYWG;2009-02-14 03:00;CYWG 140300Z 27005KT 15SM BKN028 M13/M16 A3022 RMK SC7 SLP258

CYWG;2009-02-14 04:00;CYWG 140400Z 28006KT 15SM BKN028 M14/M16 A3023 RMK SC6 SLP260

CYWG;2009-02-14 05:00;CYWG 140500Z 28007KT 15SM SCT030 M16/M18 A3023 RMK SC4 SLP261

CYWG;2009-02-14 06:00;CYWG 140600Z 28007KT 15SM FEW030 M18/M19 A3023 RMK SC2 SLP261

CYWG;2009-02-14 07:00;CYWG 140700Z 29007KT 15SM FEW030 M19/M20 A3023 RMK SC1 SLP262

CYWG;2009-02-14 08:00;CYWG 140800Z 29004KT 15SM SKC M19/M20 A3024 RMK SLP263

CYWG;2009-02-14 09:00;CYWG 140900Z 31006KT 15SM FEW092 M20/M21 A3024 RMK AC1 SLP265

CYWG;2009-02-14 10:00;CYWG 141000Z 27007KT 15SM FEW026 M20/M21 A3025 RMK SC1 SLP266

CYWG;2009-02-14 11:00;CYWG 141100Z 28009KT 15SM FEW094 M21/M22 A3025 RMK AC1 SLP269

CYWG;2009-02-14 12:00;CYWG 141200Z 28008KT 15SM FEW090 M21/M22 A3026 RMK AC1 SLP272

CYWG;2009-02-14 13:00;CYWG 141300Z 28010KT 15SM FEW090 M21/M23 A3027 RMK AC1 SLP274

CYWG;2009-02-14 14:00;CYWG 141400Z 28008KT 15SM FEW090 M22/M23 A3027 RMK AC1 SLP275

CYWG;2009-02-14 15:00;CYWG 141500Z 28007KT 15SM SKC M21/M27 A3029 RMK SLP281

CYWG;2009-02-14 16:00;CYWG 141600Z 28006KT 15SM SKC M20/M25 A3029 RMK SLP283

CYWG;2009-02-14 17:00;CYWG 141700Z 30008KT 15SM SKC M19/M24 A3029 RMK SLP284

CYWG;2009-02-14 18:00;CYWG 141800Z 28005KT 15SM SKC M17/M23 A3030 RMK SLP285

CYWG;2009-02-14 19:00;CYWG 141900Z 30006KT 15SM SKC M17/M22 A3030 RMK SLP285

CYWG;2009-02-14 20:00;CYWG 142000Z 29005KT 15SM SKC M16/M21 A3029 RMK SLP283

CYWG;2009-02-14 21:00;CYWG 142100Z 28006KT 15SM SKC M15/M20 A3030 RMK SLP286

CYWG;2009-02-14 22:00;CYWG 142200Z 28007KT 15SM SKC M15/M20 A3031 RMK SLP288

CYWG;2009-02-14 23:00;CYWG 142300Z 27005KT 15SM FEW030 M16/M21 A3032 RMK SC1 SLP291

CYWG;2009-02-15 00:00;CYWG 150000Z 26005KT 15SM FEW030 M17/M21 A3033 RMK SC1 SLP297

CYWG;2009-02-15 01:00;CYWG 150100Z 26004KT 15SM FEW030 M18/M22 A3034 RMK SC1 SLP302

CYWG;2009-02-15 02:00;CYWG 150200Z 25002KT 15SM FEW030 M19/M22 A3034 RMK SC1 SLP301

CYWG;2009-02-15 03:00;CYWG 150300Z 22003KT 15SM FEW030 FEW080 M18/M21 A3035 RMK SC1AC1 SLP303

CYWG;2009-02-15 04:00;CYWG 150400Z 28004KT 15SM FEW080 M18/M21 A3035 RMK AC1 SLP306

CYWG;2009-02-15 05:00;CYWG 150500Z 25004KT 15SM BKN030 M18/M21 A3037 RMK SC5 SLP310

CYWG;2009-02-15 06:00;CYWG 150600Z 28005KT 15SM BKN030 M18/M22 A3037 RMK SC6 SLP311

CYWG;2009-02-15 07:00;CYWG 150700Z 27005KT 15SM FEW095 M20/M23 A3038 RMK AC1 SLP315

CYWG;2009-02-15 08:00;CYWG 150800Z 27005KT 15SM SKC M21/M24 A3040 RMK SLP319

CYWG;2009-02-15 09:00;CYWG 150900Z 28007KT 15SM SKC M22/M25 A3040 RMK SLP322

CYWG;2009-02-15 10:00;CYWG 151000Z 27004KT 15SM SKC M23/M27 A3041 RMK SLP324

CYWG;2009-02-15 11:00;CYWG 151100Z 30004KT 15SM SKC M24/M27 A3041 RMK SLP324

CYWG;2009-02-15 12:00;CYWG 151200Z 25004KT 15SM FEW085 M24/M27 A3040 RMK AC2 SLP323

CYWG;2009-02-15 13:00;CYWG 151300Z 28006KT 15SM SKC M23/M27 A3040 RMK SLP321

CYWG;2009-02-15 14:00;CYWG 151400Z 23002KT 15SM FEW092 M22/M26 A3041 RMK AC1 SLP326

CYWG;2009-02-15 15:00;CYWG 151500Z 22002KT 15SM FEW250 M21/M25 A3042 RMK CI1 SLP328

CYWG;2009-02-15 16:00;CYWG 151600Z 22002KT 15SM FEW250 M20/M24 A3042 RMK CI2 SLP328

CYWG;2009-02-15 17:00;CYWG 151700Z 16002KT 15SM FEW250 M17/M23 A3040 RMK CI2 SLP323

CYWG;2009-02-15 18:00;CYWG 151800Z 21006KT 15SM FEW250 M17/M22 A3039 RMK CI2 SLP318

CYWG;2009-02-15 19:00;CYWG 151900Z 23005KT 15SM BKN250 M16/M21 A3038 RMK CI3 SLP313

CYWG;2009-02-15 20:00;CYWG 152000Z 22007KT 15SM FEW094 BKN250 M15/M20 A3036 RMK AC1CI2 SLP307

CYWG;2009-02-15 21:00;CYWG 152100Z 24004KT 15SM FEW094 BKN250 M14/M20 A3035 RMK AC2CI3 SLP302

CYWG;2009-02-15 22:00;CYWG 152200Z 20006KT 15SM FEW070 BKN095 OVC250 M14/M18 A3034 RMK AC1AC4CI2 SLP300

CYWG;2009-02-15 23:00;CYWG 152300Z 20008KT 15SM FEW038 FEW071 SCT095 BKN210 M14/M18 A3032 RMK SC1AC2AC2CI2 SLP294

CYWG;2009-02-16 00:00;CYWG 160000Z 21009KT 15SM SCT041 BKN095 OVC210 M14/M17 A3032 RMK SC3AC3CI2 SLP292

CYWG;2009-02-16 01:00;CYWG 160100Z 21007KT 8SM -SN BKN039 OVC095 M14/M16 A3031 RMK SC6AC2 SLP290

CYWG;2009-02-16 01:21;CYWG 160121Z 21006KT 3SM -SN OVC025 RMK SN3SC5

CYWG;2009-02-16 02:00;CYWG 160200Z 21007KT 2SM -SN OVC015 M14/M16 A3029 RMK SN4SC4 SLP284

CYWG;2009-02-16 02:21;CYWG 160221Z 21007KT 3SM -SN OVC020 M14/ RMK SN4SC4

CYWG;2009-02-16 03:00;CYWG 160300Z 20006KT 8SM -SN SCT035 BKN095 M14/M16 A3027 RMK SC3AC2 SLP277

CYWG;2009-02-16 04:00;CYWG 160400Z 20002KT 10SM -SN SCT030 BKN080 M15/M17 A3027 RMK SC3AC3 SLP275

CYWG;2009-02-16 05:00;CYWG 160500Z 17002KT 10SM FEW030 FEW080 SCT210 M16/M18 A3025 RMK SC1AC1CI1 SLP271

CYWG;2009-02-16 06:00;CYWG 160600Z 00000KT 10SM FEW045 SCT210 M18/M20 A3025 RMK SC2CI1 SLP267

CYWG;2009-02-16 07:00;CYWG 160700Z 00000KT 10SM FEW030 SCT210 M17/M19 A3025 RMK SC2CI0 SLP267

CYWG;2009-02-16 08:00;CYWG 160800Z 00000KT 10SM SCT210 M21/M24 A3023 RMK CI1 SLP261

CYWG;2009-02-16 09:00;CYWG 160900Z 00000KT 10SM R13/3500VP6000FT/U BCFG FEW210 M20/M22 A3022 RMK CI1 SLP257

CYWG;2009-02-16 10:00;CYWG 161000Z 00000KT 15SM FEW210 M21/M23 A3021 RMK CI1 SLP255

CYWG;2009-02-16 11:00;CYWG 161100Z 00000KT 10SM R36/2800VP6000FT/D BCFG FEW005 SCT250 M23/M26 A3020 RMK ST2CI0 SLP253

CYWG;2009-02-16 11:10;CYWG 161110Z 31002KT 2SM R13/3000FT/N R36/2200FT/N BR SCT005 M23/ RMK FG1SF2

CYWG;2009-02-16 11:25;CYWG 161125Z 29002KT 1SM R13/P6000FT/N R36/3000VP6000FT/N BR SCT002 M23/ RMK FG2ST2

CYWG;2009-02-16 11:55;CYWG 161155Z 34003KT 1/2SM R13/2000FT/N R36/3000FT/N FZFG SCT001 M22/ RMK FG2ST1

CYWG;2009-02-16 12:00;CYWG 161200Z 34002KT 1/2SM R13/1400V1800FT/N R36/2200FT/N FZFG SCT001 M22/M25 A3020 RMK FG2ST1 SLP254

CYWG;2009-02-16 12:21;CYWG 161221Z CCA 00000KT 1/4SM R13/1600FT/N R36/1400FT/N FZFG SCT001 M21/ RMK FG2ST1

CYWG;2009-02-16 12:47;CYWG 161247Z 00000KT 1/8SM R13/1200FT/N R36/1200FT/N FZFG BKN001 M21/ RMK FG2ST1

CYWG;2009-02-16 12:56;CYWG 161256Z 00000KT 1/2SM R13/1400FT/N R36/1200FT/N FZFG BKN001 M21/ RMK FG2ST1

CYWG;2009-02-16 13:00;CYWG 161300Z 00000KT 1/2SM R13/1400FT/N R36/1200FT/N FZFG BKN001 M21/M23 A3020 RMK FG2ST1 SLP253

CYWG;2009-02-16 13:06;CYWG 161306Z 00000KT 1/8SM R13/1400FT/N R36/1200FT/N FZFG BKN001 M21/ RMK FG2ST1

CYWG;2009-02-16 13:26;CYWG 161326Z 33002KT 1/8SM R13/1200V1800FT/D R36/1400FT/N FZFG VV001 M20/ RMK FG8

CYWG;2009-02-16 13:35;CYWG 161335Z 00000KT 1/4SM R13/1200FT/N R36/1400FT/N FZFG VV001 M20/ RMK FG8

CYWG;2009-02-16 13:53;CYWG 161353Z 02002KT 1/2SM R13/1000FT/N R36/1400FT/N FZFG VV001 M20/ RMK FG8

CYWG;2009-02-16 14:00;CYWG 161400Z 00000KT 1/4SM R13/1200FT/U R36/2800VP6000FT/N FZFG VV001 M20/M22 A3020 RMK FG8 SLP252

CYWG;2009-02-16 14:11;CYWG 161411Z 00000KT 1/8SM R13/1400V2200FT/U R36/4500VP6000FT/U FZFG VV001 M20/ RMK FG8

CYWG;2009-02-16 14:38;CYWG 161438Z 00000KT 1/2SM R13/1400FT/N R36/2200FT/N FZFG VV001 M19/ RMK FG8

CYWG;2009-02-16 14:52;CYWG 161452Z 00000KT 3/4SM R13/1400FT/N R36/2000FT/N BR VV001 M19/ RMK FG8

CYWG;2009-02-16 15:00;CYWG 161500Z 00000KT 3/4SM R13/1200FT/N R36/1400V2000FT/N BR VV001 M19/M21 A3020 RMK FG8 SLP250

CYWG;2009-02-16 15:29;CYWG 161529Z 27002KT 1/2SM R13/1200FT/N R36/2600FT/N FZFG BKN001 M18/ RMK FG2ST1

CYWG;2009-02-16 15:51;CYWG 161551Z 00000KT 3/4SM R13/P6000FT/U R36/4500VP6000FT/U BR SCT005 BKN210 M18/ RMK FG2ST2CI1

CYWG;2009-02-16 16:00;CYWG 161600Z 00000KT 3/4SM R13/P6000FT/N R36/P6000FT/N BR SCT006 BKN210 M18/M20 A3019 RMK FG2ST2CI0 SLP249

CYWG;2009-02-16 16:16;CYWG 161616Z 00000KT 1SM R13/P6000FT/N R36/P6000FT/N BR SCT006 BKN210 M17/ RMK ST2CI1

CYWG;2009-02-16 17:00;CYWG 161700Z 15003KT 1SM R31/P6000FT/N R36/3500VP6000FT/U BR SCT006 BKN210 M16/M17 A3018 RMK ST2CI1 SLP244

CYWG;2009-02-16 17:38;CYWG 161738Z 16002KT 2SM BR SCT006 BKN210 M15/ RMK ST2CI1

CYWG;2009-02-16 18:00;CYWG 161800Z 33002KT 2SM BR SCT007 BKN210 M16/M17 A3018 RMK ST3CI1 SLP243

CYWG;2009-02-16 18:18;CYWG 161818Z 35002KT 2SM IC SCT002 SCT007 BKN210 M16/ RMK ST2SC2CI1

CYWG;2009-02-16 19:00;CYWG 161900Z 00000KT 6SM -SN FEW002 FEW007 SCT210 M15/M15 A3016 RMK ST1SC2CI0 SLP237

CYWG;2009-02-16 20:00;CYWG 162000Z 30005KT 6SM -SN FEW002 FEW010 SCT210 M16/M17 A3015 RMK ST1SC2CI0 SLP233

CYWG;2009-02-16 21:00;CYWG 162100Z 25002KT 10SM FEW003 FEW210 M14/M15 A3012 RMK ST2CI0 BR SLP224

CYWG;2009-02-16 22:00;CYWG 162200Z 31004KT 12SM FEW003 FEW210 M15/M17 A3010 RMK ST2CI0 BR SLP218

CYWG;2009-02-16 23:00;CYWG 162300Z 34004KT 15SM FEW091 M17/M18 A3008 RMK AC2 SLP212

CYWG;2009-02-17 00:00;CYWG 170000Z 35003KT 15SM FEW090 M18/M19 A3007 RMK AC1 SLP211

CYWG;2009-02-17 01:00;CYWG 170100Z 04003KT 15SM SCT120 M19/M20 A3006 RMK AC2 SLP206

CYWG;2009-02-17 02:00;CYWG 170200Z 03002KT 10SM BKN120 M18/M19 A3005 RMK AC3 BR SLP202

CYWG;2009-02-17 02:42;CYWG 170242Z 33002KT 2SM BR BKN095 M18/ RMK AC3 VSBY W 6

CYWG;2009-02-17 03:00;CYWG 170300Z 32002KT 6SM BR SCT095 M18/M19 A3004 RMK AC2 SLP197

CYWG;2009-02-17 04:00;CYWG 170400Z 05003KT 6SM BR FEW002 SCT095 M20/M20 A3003 RMK SF1AC2 SLP194

CYWG;2009-02-17 05:00;CYWG 170500Z 07002KT 6SM BR FEW005 SCT088 M19/M19 A3001 RMK SF1AC2 SLP188

CYWG;2009-02-17 06:00;CYWG 170600Z 06003KT 10SM BKN073 M16/M17 A2999 RMK AC4 SLP180

CYWG;2009-02-17 07:00;CYWG 170700Z 08005KT 15SM BKN068 M15/M16 A2996 RMK AC7 SLP169

CYWG;2009-02-17 08:00;CYWG 170800Z 07005KT 15SM OVC042 M15/M16 A2993 RMK SC8 SLP159

CYWG;2009-02-17 09:00;CYWG 170900Z 05005KT 15SM OVC043 M15/M16 A2990 RMK SC8 SLP149

CYWG;2009-02-17 10:00;CYWG 171000Z 08007KT 15SM OVC050 M14/M16 A2989 RMK SC8 SLP144

CYWG;2009-02-17 10:47;CYWG 171047Z 09005KT 10SM -SN BKN031 OVC084 M14/ RMK SC6AC2

CYWG;2009-02-17 11:00;CYWG 171100Z 08005KT 3SM -SN OVC031 M14/M16 A2989 RMK SC8 SLP144

CYWG;2009-02-17 12:00;CYWG 171200Z 08005KT 6SM -SN OVC033 M14/M15 A2988 RMK SC8 SLP140

CYWG;2009-02-17 13:00;CYWG 171300Z 09007KT 4SM -SN OVC030 M14/M15 A2986 RMK SC8 SLP135

CYWG;2009-02-17 14:00;CYWG 171400Z 08006KT 6SM -SN OVC038 M13/M14 A2986 RMK SC8 SLP134

CYWG;2009-02-17 15:00;CYWG 171500Z 08006KT 10SM -SN OVC024 M13/M14 A2984 RMK SC8 SLP129

CYWG;2009-02-17 15:22;CYWG 171522Z 09006KT 2 1/2SM -SN VV013 M12/ RMK SN8

CYWG;2009-02-17 15:31;CYWG 171531Z 08005KT 4SM -SN OVC025 M12/ RMK SN2SC6

CYWG;2009-02-17 16:00;CYWG 171600Z 07006KT 10SM -SN OVC016 M12/M13 A2984 RMK SC6 SLP127

CYWG;2009-02-17 17:00;CYWG 171700Z 08009KT 10SM -SN FEW016 BKN038 OVC250 M11/M13 A2982 RMK SC2SC3CI1 SLP122

CYWG;2009-02-17 18:00;CYWG 171800Z 03012KT 8SM -SN FEW008 BKN025 BKN150 OVC250 M13/M14 A2983 RMK SF1SC4AC1CI1 SLP123

CYWG;2009-02-17 19:00;CYWG 171900Z 02013KT 15SM SCT035 BKN150 BKN250 M13/M15 A2982 RMK SC3AC2CI1 SLP121

CYWG;2009-02-17 20:00;CYWG 172000Z 03014KT 15SM FEW037 BKN090 BKN250 M12/M14 A2982 RMK SC1AC2CI0 SLP119

CYWG;2009-02-17 21:00;CYWG 172100Z 04015KT 15SM FEW040 FEW090 SCT250 M12/M14 A2982 RMK SC1AC1CI0 SLP119

CYWG;2009-02-17 22:00;CYWG 172200Z 03015KT 15SM FEW070 FEW140 FEW250 M12/M14 A2983 RMK AC1AC1CI0 SLP121

CYWG;2009-02-17 23:00;CYWG 172300Z 03015KT 15SM FEW086 FEW140 SCT250 M12/M15 A2984 RMK AC1AC1CI0 SLP125

CYWG;2009-02-18 00:00;CYWG 180000Z 03011KT 15SM FEW120 M14/M16 A2986 RMK AC1 SLP132

CYWG;2009-02-18 01:00;CYWG 180100Z 03013KT 15SM FEW120 M13/M16 A2988 RMK AC1 SLP139

CYWG;2009-02-18 02:00;CYWG 180200Z 03012KT 15SM FEW120 M14/M17 A2990 RMK AC1 SLP145

CYWG;2009-02-18 02:32;CYWG 180232Z 03015KT 15SM -SN SCT120 M14/ RMK AC2

CYWG;2009-02-18 02:43;CYWG 180243Z 03014KT 15SM FEW053 SCT120 M15/ RMK SC1AC1

CYWG;2009-02-18 03:00;CYWG 180300Z 03011KT 15SM FEW120 M15/M17 A2991 RMK AC1 SLP152

CYWG;2009-02-18 04:00;CYWG 180400Z 03011KT 15SM FEW080 M16/M18 A2993 RMK AC1 SLP157

CYWG;2009-02-18 05:00;CYWG 180500Z 03010KT 15SM SKC M17/M18 A2994 RMK SLP161

CYWG;2009-02-18 06:00;CYWG 180600Z 02009KT 15SM SKC M18/M19 A2996 RMK SLP167

CYWG;2009-02-18 07:00;CYWG 180700Z 02013KT 15SM SKC M18/M19 A2997 RMK SLP172

CYWG;2009-02-18 08:00;CYWG 180800Z 02010KT 15SM SKC M19/M20 A2999 RMK SLP177

CYWG;2009-02-18 09:00;CYWG 180900Z 02010KT 15SM SKC M20/M20 A3000 RMK SLP183

CYWG;2009-02-18 10:00;CYWG 181000Z 01012KT 15SM SKC M20/M21 A3003 RMK SLP192

CYWG;2009-02-18 11:00;CYWG 181100Z 01012KT 15SM SKC M20/M21 A3005 RMK SLP199

CYWG;2009-02-18 12:00;CYWG 181200Z 02012KT 15SM SKC M21/M22 A3008 RMK SLP211

CYWG;2009-02-18 13:00;CYWG 181300Z 03011KT 15SM SKC M22/M23 A3010 RMK SLP217

CYWG;2009-02-18 14:00;CYWG 181400Z 01009KT 15SM SKC M23/M23 A3013 RMK SLP228

CYWG;2009-02-18 15:00;CYWG 181500Z 03011KT 15SM SKC M22/M23 A3015 RMK SLP236

CYWG;2009-02-18 16:00;CYWG 181600Z 02010KT 15SM SKC M22/M29 A3018 RMK SLP246

CYWG;2009-02-18 17:00;CYWG 181700Z 02011KT 15SM SKC M21/M26 A3019 RMK SLP250

CYWG;2009-02-18 18:00;CYWG 181800Z 02008KT 15SM SKC M20/M25 A3020 RMK SLP252

CYWG;2009-02-18 19:00;CYWG 181900Z 36006KT 15SM SKC M18/M23 A3020 RMK SLP254

CYWG;2009-02-18 20:00;CYWG 182000Z 36008KT 15SM SKC M17/M22 A3020 RMK SLP254

CYWG;2009-02-18 21:00;CYWG 182100Z 02007KT 15SM FEW210 M16/M22 A3020 RMK CI0 SLP254

CYWG;2009-02-18 22:00;CYWG 182200Z 04005KT 15SM FEW210 M16/M22 A3020 RMK CI0 SLP254

CYWG;2009-02-18 23:00;CYWG 182300Z 02005KT 15SM SCT210 M18/M22 A3022 RMK CI2 SLP259

CYWG;2009-02-19 00:00;CYWG 190000Z 00000KT 15SM BKN210 M19/M23 A3022 RMK CI2 SLP259

CYWG;2009-02-19 01:00;CYWG 190100Z 28003KT 15SM FEW094 M20/M24 A3022 RMK AC2 SLP260

CYWG;2009-02-19 02:00;CYWG 190200Z 27004KT 15SM SKC M20/M24 A3022 RMK SLP259

CYWG;2009-02-19 03:00;CYWG 190300Z 28007KT 15SM FEW091 M21/M25 A3022 RMK AC2 SLP262

CYWG;2009-02-19 04:00;CYWG 190400Z 27005KT 15SM FEW090 M21/M24 A3021 RMK AC2 SLP260

CYWG;2009-02-19 05:00;CYWG 190500Z 28004KT 15SM FEW080 M20/M23 A3020 RMK AC2 SLP256

CYWG;2009-02-19 06:00;CYWG 190600Z 26004KT 15SM FEW090 M22/M26 A3020 RMK AC1 SLP254

CYWG;2009-02-19 07:00;CYWG 190700Z 22002KT 15SM FEW090 M21/M24 A3019 RMK AC1 SLP251

CYWG;2009-02-19 08:00;CYWG 190800Z 20003KT 15SM SKC M22/M25 A3019 RMK SLP250

CYWG;2009-02-19 09:00;CYWG 190900Z 21002KT 15SM SKC M22/M25 A3017 RMK SLP244

CYWG;2009-02-19 10:00;CYWG 191000Z 20005KT 15SM SKC M21/M25 A3016 RMK SLP240

CYWG;2009-02-19 11:00;CYWG 191100Z 19005KT 15SM SKC M23/M27 A3017 RMK SLP242

CYWG;2009-02-19 12:00;CYWG 191200Z 19006KT 15SM SKC M24/M27 A3016 RMK SLP242

CYWG;2009-02-19 13:00;CYWG 191300Z 19005KT 15SM SKC M24/M26 A3015 RMK SLP238

CYWG;2009-02-19 14:00;CYWG 191400Z 19007KT 15SM FEW015 SCT240 M22/M26 A3015 RMK SC1CI0 SLP239

CYWG;2009-02-19 15:00;CYWG 191500Z 18007KT 15SM FEW240 M22/M25 A3015 RMK CI0 SLP239

CYWG;2009-02-19 15:47;CYWG 191547Z 18007KT 15SM FEW240 M19/ RMK CI0

CYWG;2009-02-19 16:00;CYWG 191600Z 19007KT 15SM FEW240 M19/M22 A3015 RMK CI0 SLP238

CYWG;2009-02-19 17:00;CYWG 191700Z 19005KT 15SM FEW240 M17/M21 A3016 RMK CI0 SLP243

CYWG;2009-02-19 18:00;CYWG 191800Z 22006KT 15SM SKC M15/M19 A3016 RMK SLP241

CYWG;2009-02-19 19:00;CYWG 191900Z 23004KT 15SM SKC M15/M19 A3015 RMK SLP237

CYWG;2009-02-19 20:00;CYWG 192000Z 21006KT 15SM SKC M14/M18 A3014 RMK SLP234

CYWG;2009-02-19 21:00;CYWG 192100Z 22008KT 15SM SKC M14/M17 A3014 RMK SLP231

CYWG;2009-02-19 22:00;CYWG 192200Z 22007KT 15SM SKC M14/M17 A3013 RMK SLP229

CYWG;2009-02-19 23:00;CYWG 192300Z 21008KT 15SM SKC M14/M17 A3012 RMK SLP225

CYWG;2009-02-20 00:00;CYWG 200000Z 18006KT 15SM SKC M16/M19 A3012 RMK SLP226

CYWG;2009-02-20 01:00;CYWG 200100Z 20006KT 15SM SKC M16/M19 A3011 RMK SLP224

CYWG;2009-02-20 02:00;CYWG 200200Z 18006KT 15SM SKC M17/M20 A3009 RMK SLP218

CYWG;2009-02-20 03:00;CYWG 200300Z 19009KT 15SM SCT092 M17/M20 A3006 RMK AC2 SLP207

CYWG;2009-02-20 04:00;CYWG 200400Z 19007KT 15SM BKN100 M17/M20 A3004 RMK AC6 SLP200

CYWG;2009-02-20 05:00;CYWG 200500Z 19007KT 15SM SCT074 OVC210 M18/M20 A3002 RMK AC4CI2 SLP193

CYWG;2009-02-20 06:00;CYWG 200600Z 19006KT 15SM OVC069 M17/M20 A3001 RMK AC8 SLP187

CYWG;2009-02-20 07:00;CYWG 200700Z 18006KT 15SM OVC050 M17/M19 A2999 RMK SC8 SLP181

CYWG;2009-02-20 08:00;CYWG 200800Z 17006KT 15SM OVC044 M17/M19 A2998 RMK SC8 SLP177

CYWG;2009-02-20 09:00;CYWG 200900Z 17006KT 5SM -SN OVC037 M16/M18 A2996 RMK SC8 SLP168

CYWG;2009-02-20 10:00;CYWG 201000Z 19005KT 10SM -SN OVC035 M16/M19 A2996 RMK SC8 SLP167

CYWG;2009-02-20 10:38;CYWG 201038Z 17006KT 15SM BKN021 OVC077 M16/ RMK SC6AC2

CYWG;2009-02-20 11:00;CYWG 201100Z 17005KT 15SM SCT077 M17/M19 A2994 RMK AC3 SLP163

CYWG;2009-02-20 12:00;CYWG 201200Z 17006KT 15SM SCT063 BKN086 M17/M20 A2994 RMK SC3AC3 SLP163

CYWG;2009-02-20 13:00;CYWG 201300Z 15005KT 15SM FEW058 BKN084 M17/M19 A2994 RMK SC2AC3 SLP162

CYWG;2009-02-20 14:00;CYWG 201400Z 14004KT 15SM BKN076 BKN250 M16/M18 A2995 RMK AC5CI1 SLP166

CYWG;2009-02-20 15:00;CYWG 201500Z 15003KT 15SM BKN076 BKN260 M16/M18 A2996 RMK AC5CI1 SLP171

CYWG;2009-02-20 16:00;CYWG 201600Z 35004KT 15SM SCT082 BKN250 M17/M20 A2998 RMK AC3CI1 SLP177

CYWG;2009-02-20 16:43;CYWG 201643Z 02006KT 8SM BKN250 M16/ RMK CI3 IC

CYWG;2009-02-20 17:00;CYWG 201700Z 01006KT 10SM BKN250 M15/M18 A3000 RMK CI3 IC SLP184

CYWG;2009-02-20 18:00;CYWG 201800Z 03009KT 12SM SCT250 M14/M17 A3002 RMK CI2 IC SLP188

CYWG;2009-02-20 19:00;CYWG 201900Z 02007KT 15SM SCT250 M14/M16 A3003 RMK CI2 SLP192

CYWG;2009-02-20 20:00;CYWG 202000Z 02007KT 15SM FEW250 M13/M16 A3003 RMK CI1 SLP194

CYWG;2009-02-20 21:00;CYWG 202100Z 03007KT 15SM FEW023 FEW250 M12/M15 A3004 RMK CU1CI0 CU TR SLP194

CYWG;2009-02-20 22:00;CYWG 202200Z 33004KT 15SM FEW024 FEW100 BKN250 M12/M16 A3006 RMK CU1AC2CI1 SLP201

CYWG;2009-02-20 23:00;CYWG 202300Z 32003KT 15SM FEW030 FEW090 BKN250 M12/M15 A3008 RMK SC1AC2CI1 SLP208

CYWG;2009-02-21 00:00;CYWG 210000Z 33002KT 15SM FEW025 FEW075 BKN240 M13/M15 A3010 RMK SC1AC2CI1 SLP217

CYWG;2009-02-21 01:00;CYWG 210100Z 36007KT 10SM -SN SCT022 BKN066 BKN240 M14/M16 A3013 RMK SC4AC2CI0 SLP227

CYWG;2009-02-21 01:34;CYWG 210134Z 01009KT 15SM FEW025 SCT068 BKN240 M13/ RMK SC2AC2CI0

CYWG;2009-02-21 02:00;CYWG 210200Z 36007KT 15SM FEW025 FEW070 FEW240 M15/M17 A3015 RMK SC1AC1CI0 SLP233

CYWG;2009-02-21 03:00;CYWG 210300Z 34009KT 15SM FEW029 FEW061 FEW240 M16/M17 A3016 RMK SC1AC1CI0 SLP239

CYWG;2009-02-21 04:00;CYWG 210400Z 36010KT 15SM FEW027 SCT070 M15/M17 A3017 RMK SC2AC1 SLP242

CYWG;2009-02-21 05:00;CYWG 210500Z 36005KT 15SM FEW026 BKN070 M16/M18 A3017 RMK SC1AC1 SLP242

CYWG;2009-02-21 06:00;CYWG 210600Z 33006KT 15SM FEW070 M19/M20 A3018 RMK AC0 SLP243

CYWG;2009-02-21 07:00;CYWG 210700Z 32004KT 15SM FEW070 M20/M21 A3018 RMK AC1 SLP245

CYWG;2009-02-21 08:00;CYWG 210800Z 30005KT 15SM FEW020 FEW090 M20/M21 A3019 RMK SC1AC1 SLP249

CYWG;2009-02-21 09:00;CYWG 210900Z 29007KT 15SM OVC090 M19/M20 A3019 RMK AC8 SLP247

CYWG;2009-02-21 10:00;CYWG 211000Z 32008KT 15SM FEW040 BKN070 M18/M19 A3019 RMK SC1AC6 SLP248

CYWG;2009-02-21 11:00;CYWG 211100Z 30006KT 15SM BKN080 M18/M19 A3019 RMK AC5 SLP247

CYWG;2009-02-21 12:00;CYWG 211200Z 30006KT 15SM BKN069 M18/M19 A3020 RMK AC5 SLP249

CYWG;2009-02-21 13:00;CYWG 211300Z 29006KT 15SM FEW017 BKN069 M18/M19 A3021 RMK SC2AC3 SLP252

CYWG;2009-02-21 14:00;CYWG 211400Z 30005KT 10SM FEW070 FEW240 M19/M20 A3022 RMK AC1CI0 BR SLP258

CYWG;2009-02-21 15:00;CYWG 211500Z 29004KT 12SM FEW070 FEW240 M18/M19 A3023 RMK AC1CI0 BR AC TR SLP261

CYWG;2009-02-21 16:00;CYWG 211600Z 29005KT 15SM FEW240 M17/M18 A3024 RMK CI0 SLP265

CYWG;2009-02-21 17:00;CYWG 211700Z 31004KT 15SM BKN079 M15/M16 A3024 RMK AC2 SLP266

CYWG;2009-02-21 18:00;CYWG 211800Z 30007KT 12SM BKN030 M13/M15 A3024 RMK SC5 SLP265

CYWG;2009-02-21 19:00;CYWG 211900Z 30008KT 15SM SCT032 OVC080 M13/M14 A3024 RMK SC2AC2 SLP264

CYWG;2009-02-21 20:00;CYWG 212000Z 30007KT 15SM FEW024 M12/M14 A3023 RMK CU1 SLP261

CYWG;2009-02-21 21:00;CYWG 212100Z 30008KT 15SM FEW024 M12/M14 A3024 RMK CU1 SLP264

CYWG;2009-02-21 22:00;CYWG 212200Z 29008KT 15SM FEW024 FEW087 M12/M14 A3025 RMK CU1AC1 CU TR SLP266

CYWG;2009-02-21 23:00;CYWG 212300Z 30008KT 15SM FEW020 BKN054 M12/M14 A3025 RMK CU1SC6 CU TR SLP269

CYWG;2009-02-22 00:00;CYWG 220000Z 30007KT 15SM OVC048 M12/M14 A3027 RMK SC8 SLP273

CYWG;2009-02-22 01:00;CYWG 220100Z 31009KT 15SM OVC042 M12/M15 A3029 RMK SC8 SLP280

CYWG;2009-02-22 02:00;CYWG 220200Z 31008KT 15SM OVC040 M12/M14 A3030 RMK SC8 SLP285

CYWG;2009-02-22 03:00;CYWG 220300Z 34010KT 15SM OVC034 M12/M14 A3032 RMK SC8 SLP292

CYWG;2009-02-22 04:00;CYWG 220400Z 35014KT 15SM OVC036 M12/M14 A3035 RMK SC8 SLP299

CYWG;2009-02-22 05:00;CYWG 220500Z 36009KT 15SM FEW011 SCT088 M15/M17 A3036 RMK ST2AC2 SLP305

CYWG;2009-02-22 06:00;CYWG 220600Z 31009KT 15SM FEW042 M17/M18 A3039 RMK SC2 SLP314

CYWG;2009-02-22 07:00;CYWG 220700Z 31010KT 15SM FEW095 M18/M18 A3040 RMK AC2 SLP319

CYWG;2009-02-22 08:00;CYWG 220800Z 30009KT 15SM FEW086 M19/M20 A3042 RMK AC2 SLP325

CYWG;2009-02-22 09:00;CYWG 220900Z 30010KT 15SM OVC037 M16/M17 A3043 RMK SC8 SLP328

CYWG;2009-02-22 10:00;CYWG 221000Z 32010KT 15SM OVC035 M14/M16 A3044 RMK SC8 SLP331

CYWG;2009-02-22 11:00;CYWG 221100Z 32008KT 15SM OVC037 M13/M15 A3045 RMK SC8 SLP336

CYWG;2009-02-22 12:00;CYWG 221200Z 31010KT 15SM OVC037 M13/M15 A3047 RMK SC8 SLP341

CYWG;2009-02-22 13:00;CYWG 221300Z 31012KT 15SM BKN037 M13/M15 A3049 RMK SC6 SLP347

CYWG;2009-02-22 14:00;CYWG 221400Z 30010KT 15SM FEW037 FEW250 M16/M17 A3051 RMK SC1CI1 SLP355

CYWG;2009-02-22 15:00;CYWG 221500Z 30009KT 15SM FEW250 M17/M18 A3053 RMK CI1 SLP363

CYWG;2009-02-22 16:00;CYWG 221600Z 32011KT 15SM BKN250 M16/M17 A3055 RMK CI2 SLP368

CYWG;2009-02-22 17:00;CYWG 221700Z 33012KT 15SM BKN064 M14/M16 A3056 RMK SC7 SLP373

CYWG;2009-02-22 18:00;CYWG 221800Z 33011KT 15SM FEW076 BKN250 M13/M16 A3057 RMK AC1CS3 SLP376

CYWG;2009-02-22 19:00;CYWG 221900Z 33008KT 15SM FEW021 BKN250 M12/M16 A3056 RMK CF1CS2 SLP372

CYWG;2009-02-22 20:00;CYWG 222000Z 36008KT 15SM FEW022 BKN250 M12/M16 A3056 RMK SC1CS1 SLP373

CYWG;2009-02-22 21:00;CYWG 222100Z 31010KT 15SM FEW022 BKN250 M12/M15 A3056 RMK CF1CS1 SLP373

CYWG;2009-02-22 22:00;CYWG 222200Z 31011KT 15SM FEW022 FEW250 M13/M16 A3058 RMK CF1CI0 SLP379

CYWG;2009-02-22 23:00;CYWG 222300Z 32009KT 15SM FEW250 M14/M16 A3060 RMK CI0 SLP384

CYWG;2009-02-23 00:00;CYWG 230000Z 34007KT 15SM FEW250 M16/M18 A3059 RMK CI1 SLP382

CYWG;2009-02-23 01:00;CYWG 230100Z 32005KT 15SM SKC M19/M20 A3060 RMK SLP385

CYWG;2009-02-23 02:00;CYWG 230200Z 30005KT 15SM SKC M18/M19 A3060 RMK SLP385

CYWG;2009-02-23 03:00;CYWG 230300Z 32004KT 15SM SKC M19/M20 A3059 RMK SLP386

CYWG;2009-02-23 04:00;CYWG 230400Z 00000KT 15SM SKC M19/M19 A3060 RMK SLP387

CYWG;2009-02-23 05:00;CYWG 230500Z 00000KT 15SM SKC M20/M20 A3058 RMK SLP382

CYWG;2009-02-23 06:00;CYWG 230600Z 14002KT 15SM SKC M19/M20 A3057 RMK SLP376

CYWG;2009-02-23 07:00;CYWG 230700Z 00000KT 15SM SKC M22/M22 A3057 RMK SLP377

CYWG;2009-02-23 08:00;CYWG 230800Z 16004KT 15SM SKC M20/M20 A3055 RMK SLP371

CYWG;2009-02-23 09:00;CYWG 230900Z 18005KT 15SM SKC M19/M19 A3054 RMK SLP368

CYWG;2009-02-23 10:00;CYWG 231000Z 18008KT 15SM SKC M20/M20 A3053 RMK SLP362

CYWG;2009-02-23 11:00;CYWG 231100Z 18007KT 15SM SKC M21/M21 A3050 RMK SLP353

CYWG;2009-02-23 12:00;CYWG 231200Z 16005KT 15SM SKC M21/M21 A3048 RMK FROIN SLP349

CYWG;2009-02-23 13:00;CYWG 231300Z 19008KT 15SM FEW084 FEW260 M20/M20 A3047 RMK AC1CI0 FROIN SLP346

CYWG;2009-02-23 14:00;CYWG 231400Z 18008KT 15SM BKN072 BKN260 M19/M19 A3045 RMK AC5CI1 FROIN SLP339

CYWG;2009-02-23 15:00;CYWG 231500Z 18014KT 15SM BKN097 OVC260 M16/M17 A3041 RMK AC7CI0 SLP326

CYWG;2009-02-23 16:00;CYWG 231600Z 19012KT 15SM BKN093 OVC260 M15/M16 A3039 RMK AC6CI1 SLP318

CYWG;2009-02-23 17:00;CYWG 231700Z 19014G21KT 15SM BKN096 OVC260 M14/M16 A3036 RMK AC6CI1 SLP308

CYWG;2009-02-23 18:00;CYWG 231800Z 18020G26KT 15SM BKN092 OVC260 M12/M14 A3030 RMK AS6CI2 SLP286

CYWG;2009-02-23 19:00;CYWG 231900Z 18020G27KT 15SM DRSN SCT096 BKN110 OVC260 M11/M13 A3029 RMK AC3AS4CI1 SLP280

CYWG;2009-02-23 20:00;CYWG 232000Z 17023KT 15SM DRSN SCT088 BKN110 OVC250 M10/M13 A3022 RMK AC3AS2CI2 PRESFR SLP257

CYWG;2009-02-23 21:00;CYWG 232100Z 18025KT 15SM DRSN FEW025 SCT073 OVC250 M10/M13 A3019 RMK SC2AC2CI3 SLP246

CYWG;2009-02-23 22:00;CYWG 232200Z 18019G27KT 15SM DRSN FEW075 BKN250 M09/M12 A3015 RMK AC2CI2 SLP233

CYWG;2009-02-23 23:00;CYWG 232300Z 18014KT 15SM FEW080 SCT110 BKN250 M08/M13 A3011 RMK AC2AC2CI2 SLP218

CYWG;2009-02-24 00:00;CYWG 240000Z 16011KT 15SM BKN094 OVC250 M08/M13 A3008 RMK AC6CI2 SLP207

CYWG;2009-02-24 01:00;CYWG 240100Z 18012KT 15SM BKN063 BKN072 M07/M12 A3007 RMK SC5AC2 SLP204

CYWG;2009-02-24 02:00;CYWG 240200Z 18012KT 15SM FEW063 BKN092 M08/M13 A3005 RMK SC2AC2 SLP197

CYWG;2009-02-24 03:00;CYWG 240300Z 18017KT 15SM BKN076 M08/M12 A3002 RMK AC5 SLP186

CYWG;2009-02-24 04:00;CYWG 240400Z 19017KT 15SM OVC080 M08/M11 A3000 RMK AC8 SLP179

CYWG;2009-02-24 05:00;CYWG 240500Z 19014KT 15SM BKN035 OVC078 M08/M10 A2998 RMK SC6AC2 SLP173

CYWG;2009-02-24 05:19;CYWG 240519Z 19014KT 10SM -SN OVC035 M08/ RMK SC8

CYWG;2009-02-24 06:00;CYWG 240600Z 20013KT 15SM -SN BKN019 OVC029 M08/M10 A2997 RMK ST6SC2 SLP167

CYWG;2009-02-24 07:00;CYWG 240700Z 20014KT 15SM SCT017 OVC025 M08/M10 A2994 RMK ST3SC5 SLP159

CYWG;2009-02-24 08:00;CYWG 240800Z 20012KT 15SM OVC023 M07/M09 A2993 RMK SC8 SLP154

CYWG;2009-02-24 09:00;CYWG 240900Z 20010KT 15SM OVC021 M07/M09 A2991 RMK SC8 SLP148

CYWG;2009-02-24 10:00;CYWG 241000Z 21008KT 15SM OVC019 M07/M09 A2991 RMK SC8 SLP148

CYWG;2009-02-24 11:00;CYWG 241100Z 24006KT 15SM BKN019 OVC032 M07/M09 A2990 RMK ST6SC2 SLP144

CYWG;2009-02-24 11:14;CYWG 241114Z 23004KT 15SM -SN OVC030 M09/ RMK SC8

CYWG;2009-02-24 12:00;CYWG 241200Z 28006KT 15SM -SN OVC028 M07/M09 A2992 RMK SC8 SLP148

CYWG;2009-02-24 13:00;CYWG 241300Z 31005KT 13SM -SN OVC023 M08/M09 A2992 RMK SC8 SLP149

CYWG;2009-02-24 13:20;CYWG 241320Z 33006KT 15SM OVC020 M08/ RMK SC8

CYWG;2009-02-24 14:00;CYWG 241400Z 35007KT 15SM SCT022 BKN045 M08/M10 A2993 RMK SC3SC2 SLP151

CYWG;2009-02-24 15:00;CYWG 241500Z 34005KT 15SM FEW020 BKN029 OVC140 M08/M09 A2994 RMK SC1SC5AC1 SLP156

CYWG;2009-02-24 16:00;CYWG 241600Z 03009KT 15SM FEW015 BKN033 BKN077 M07/M09 A2993 RMK SC1SC4AC1 SLP153

CYWG;2009-02-24 17:00;CYWG 241700Z 02008KT 15SM SCT012 BKN034 OVC080 M07/M09 A2993 RMK SC2SC3AC2 SLP154

CYWG;2009-02-24 18:00;CYWG 241800Z 04011KT 15SM FEW012 BKN032 M07/M09 A2991 RMK SC2SC5 SLP147

CYWG;2009-02-24 18:48;CYWG 241848Z 04007KT 15SM BKN012 OVC032 M07/ RMK SC5SC3

CYWG;2009-02-24 19:00;CYWG 241900Z 03008KT 15SM BKN012 OVC032 M07/M09 A2990 RMK SC5SC3 SLP144

CYWG;2009-02-24 20:00;CYWG 242000Z 04008KT 10SM -SN SCT018 OVC030 M07/M08 A2988 RMK SC4SC4 SLP135

CYWG;2009-02-24 20:20;CYWG 242020Z 05008KT 2SM -SN OVC015 M07/ RMK SN5SC3

CYWG;2009-02-24 20:40;CYWG 242040Z 03007KT 1SM R31/P6000FT/N R36/P6000FT/N -SN VV010 M07/ RMK SN8

CYWG;2009-02-24 21:00;CYWG 242100Z 03008KT 3/4SM R31/4500VP6000FT/D R36/3500VP6000FT/D -SN VV008 M07/M08 A2987 RMK SN8 SLP132

CYWG;2009-02-24 22:00;CYWG 242200Z 01011KT 3/4SM R31/5000FT/U R36/3000FT/N -SN VV008 M08/M08 A2989 RMK SN8 SLP138

CYWG;2009-02-24 22:08;CYWG 242208Z 36011KT 1/2SM R31/3000V6000FT/D R36/2000FT/N SN VV005 RMK SN8

CYWG;2009-02-24 22:36;CYWG 242236Z 01012KT 3/4SM R31/3500V5000FT/U R36/2800FT/N -SN VV008 M08/ RMK SN8

CYWG;2009-02-24 22:44;CYWG 242244Z 01012KT 1/2SM R31/3500V5000FT/D R36/2400FT/N SN DRSN VV005 M08/ RMK SN8

CYWG;2009-02-24 22:52;CYWG 242252Z 02013KT 1/4SM R31/2800V4000FT/D R36/2000FT/N +SN DRSN VV004 M08/ RMK SN8

CYWG;2009-02-24 23:00;CYWG 242300Z 02013KT 1/4SM R31/3000FT/N R36/1600FT/N +SN DRSN VV003 M08/M09 A2990 RMK SN8 SLP140

CYWG;2009-02-24 23:31;CYWG 242331Z 03018KT 1/2SM R31/3000V5500FT/U R36/2800FT/N SN DRSN VV005 M09/ RMK SN8

CYWG;2009-02-24 23:34;CYWG 242334Z 03016KT 3/4SM R31/3000VP6000FT/U R36/2600V4000FT/N -SN DRSN VV008 M09/ RMK SN8

CYWG;2009-02-25 00:00;CYWG 250000Z 04016KT 1/2SM R31/4500FT/U R36/2800FT/N SN DRSN VV005 M09/M10 A2989 RMK SN8 SLP139

CYWG;2009-02-25 00:31;CYWG 250031Z 04010G18KT 3/4SM R31/6000FT/N R36/3500FT/N -SN DRSN VV008 M09/ RMK SN8

CYWG;2009-02-25 01:00;CYWG 250100Z 04010KT 3/4SM R31/P6000FT/N R36/4500FT/D -SN DRSN VV008 M09/M10 A2988 RMK SN8 SLP137

CYWG;2009-02-25 01:16;CYWG 250116Z 03009KT 1 1/2SM R36/6000FT/U -SN OVC015 M09/ RMK SN4SC4

CYWG;2009-02-25 01:41;CYWG 250141Z 02010KT 3SM -SN OVC025 M09/ RMK SC8

CYWG;2009-02-25 02:00;CYWG 250200Z 02009KT 3SM -SN OVC025 M09/M10 A2989 RMK SC8 SLP138

CYWG;2009-02-25 03:00;CYWG 250300Z 01009KT 10SM -SN FEW020 OVC042 M09/M10 A2989 RMK SC2SC6 SLP139

CYWG;2009-02-25 03:16;CYWG 250316Z 01009KT 10SM -FZDZ SCT007 OVC042 M09/ RMK SF4SC4

CYWG;2009-02-25 03:24;CYWG 250324Z 36011KT 6SM -FZDZ BR BKN007 OVC042 M09/ RMK SF6SC2

CYWG;2009-02-25 04:00;CYWG 250400Z 34014KT 2 1/2SM -FZDZ BR BKN002 OVC007 M10/M11 A2990 RMK ST6ST2 SLP141

CYWG;2009-02-25 04:14;CYWG 250414Z 35015KT 1 1/2SM -SN -FZDZ BR OVC002 M11/ RMK ST8

CYWG;2009-02-25 04:35;CYWG 250435Z 35013KT 3SM -SN BR SCT002 OVC010 M12/ RMK ST2ST6

CYWG;2009-02-25 05:00;CYWG 250500Z 34015KT 4SM -SN BR OVC012 M12/M13 A2990 RMK ST8 SLP143

CYWG;2009-02-25 06:00;CYWG 250600Z 33013KT 6SM -SN BR SCT014 BKN028 OVC035 M13/M14 A2992 RMK ST2SC3SC2 SLP150

CYWG;2009-02-25 07:00;CYWG 250700Z 32014KT 3SM -SN BR SCT008 OVC014 M13/M14 A2994 RMK SF2ST6 SLP158

CYWG;2009-02-25 07:52;CYWG 250752Z 33016KT 3SM -SN BR OVC016 M13/ RMK SC8

CYWG;2009-02-25 08:00;CYWG 250800Z 32016KT 3SM -SN BR OVC016 M13/M15 A2996 RMK SC8 SLP165

CYWG;2009-02-25 09:00;CYWG 250900Z 34014KT 5SM -SN BR OVC018 M13/M14 A2998 RMK SC8 SLP170

CYWG;2009-02-25 09:50;CYWG 250950Z 35017KT 5SM -SN BLSN BR SCT017 BKN021 OVC046 M14/ RMK SF2SC3SC2

CYWG;2009-02-25 10:00;CYWG 251000Z 36017KT 4SM -SN BLSN BR BKN019 OVC046 M14/M16 A3001 RMK SC5SC3 SLP180

CYWG;2009-02-25 10:38;CYWG 251038Z 34017KT 2 1/2SM -SHSN BLSN VV009 M16/ RMK SN8

CYWG;2009-02-25 10:45;CYWG 251045Z 34018KT 1 1/2SM -SHSN BLSN BR VV009 M16/ RMK SN8 VIS VRBL 1-2

CYWG;2009-02-25 11:00;CYWG 251100Z 34020KT 2SM -SHSN BLSN BR VV009 M16/M17 A3004 RMK SN8 VIS VRBL 11/2-21/2 SLP192

CYWG;2009-02-25 11:41;CYWG 251141Z 34017KT 6SM -SN BLSN OVC021 M16/ RMK SC8

CYWG;2009-02-25 12:00;CYWG 251200Z 35017KT 8SM -SN SCT029 OVC071 M16/M18 A3007 RMK SC4AC4 SLP205

CYWG;2009-02-25 13:00;CYWG 251300Z 35016KT 10SM FEW077 M18/M20 A3011 RMK AC2 IC SLP217

CYWG;2009-02-25 14:00;CYWG 251400Z 34014KT 15SM DRSN SKC M20/M21 A3015 RMK IC SLP231

CYWG;2009-02-25 15:00;CYWG 251500Z 35016G21KT 15SM DRSN SKC M20/M26 A3017 RMK IC SLP240

CYWG;2009-02-25 16:00;CYWG 251600Z 36014KT 15SM DRSN FEW250 M20/M26 A3019 RMK CI1 IC SLP247

CYWG;2009-02-25 17:00;CYWG 251700Z 33013KT 15SM DRSN FEW250 M20/M26 A3023 RMK CI0 SLP259

CYWG;2009-02-25 18:00;CYWG 251800Z 33015KT 15SM DRSN FEW250 M20/M25 A3025 RMK CI0 SLP267

CYWG;2009-02-25 19:00;CYWG 251900Z 34015KT 15SM FEW250 M19/M25 A3025 RMK CI1 SLP269

CYWG;2009-02-25 20:00;CYWG 252000Z 34013KT 15SM SKC M19/M24 A3026 RMK SLP272

CYWG;2009-02-25 21:00;CYWG 252100Z 34011KT 15SM DRSN SKC M18/M24 A3026 RMK SLP270

CYWG;2009-02-25 22:00;CYWG 252200Z 03009KT 15SM FEW250 M18/M23 A3029 RMK CI0 SLP279

CYWG;2009-02-25 23:00;CYWG 252300Z 03010KT 15SM FEW250 M18/M23 A3029 RMK CI0 SLP282

CYWG;2009-02-26 00:00;CYWG 260000Z 02010KT 15SM FEW100 M19/M25 A3032 RMK AC1 SLP292

CYWG;2009-02-26 01:00;CYWG 260100Z 01012KT 15SM FEW100 M19/M25 A3034 RMK AC2 SLP299

CYWG;2009-02-26 02:00;CYWG 260200Z 01013KT 15SM BKN080 M20/M25 A3034 RMK AC6 SLP301

CYWG;2009-02-26 03:00;CYWG 260300Z 02013KT 15SM BKN080 M21/M27 A3035 RMK AC5 SLP306

CYWG;2009-02-26 04:00;CYWG 260400Z 01014KT 15SM -SN OVC071 M21/M26 A3038 RMK AC8 SLP317

CYWG;2009-02-26 04:47;CYWG 260447Z 01013KT 15SM OVC051 M21/ RMK SC8

CYWG;2009-02-26 05:00;CYWG 260500Z 01012KT 15SM BKN051 M21/M26 A3038 RMK SC7 SLP316

CYWG;2009-02-26 06:00;CYWG 260600Z 03012G18KT 15SM SCT066 M22/M27 A3039 RMK AC3 SLP319

CYWG;2009-02-26 07:00;CYWG 260700Z 01010KT 15SM -SN OVC058 M22/M27 A3039 RMK SC8 SLP321

CYWG;2009-02-26 08:00;CYWG 260800Z 01014KT 15SM -SN OVC044 M22/M27 A3041 RMK SC8 SLP327

CYWG;2009-02-26 09:00;CYWG 260900Z 01011KT 15SM -SN OVC043 M23/M27 A3042 RMK SC8 SLP329

CYWG;2009-02-26 09:49;CYWG 260949Z 02014KT 15SM -SN BKN012 OVC046 RMK SC5SC3

CYWG;2009-02-26 10:00;CYWG 261000Z 01014KT 15SM -SN SCT012 OVC046 M23/M28 A3042 RMK SC4SC4 SLP331

CYWG;2009-02-26 11:00;CYWG 261100Z 02015KT 15SM -SN OVC039 M23/M28 A3041 RMK SC8 SLP325

CYWG;2009-02-26 12:00;CYWG 261200Z 02013KT 6SM -SN BKN040 OVC100 M23/M28 A3042 RMK SC6AC2 SLP331

CYWG;2009-02-26 13:00;CYWG 261300Z 03012KT 10SM -SN BKN040 OVC090 M24/M28 A3044 RMK SC5AC3 SLP337

CYWG;2009-02-26 14:00;CYWG 261400Z 01012KT 6SM -SN SCT040 OVC090 M24/M28 A3045 RMK SC3AC5 SLP338

CYWG;2009-02-26 15:00;CYWG 261500Z 02015KT 15SM -SN DRSN FEW040 BKN084 M24/M28 A3044 RMK SC2AC6 SLP339

CYWG;2009-02-26 15:48;CYWG 261548Z 02017KT 15SM DRSN BKN084 BKN250 M24/ RMK AC6CI1

CYWG;2009-02-26 16:00;CYWG 261600Z 03016KT 15SM DRSN SCT085 BKN250 M24/M30 A3044 RMK AC4CI1 SLP338

CYWG;2009-02-26 17:00;CYWG 261700Z 02016KT 15SM DRSN FEW085 BKN250 M24/M29 A3045 RMK AC2CI2 SLP340

CYWG;2009-02-26 18:00;CYWG 261800Z 02015KT 15SM DRSN FEW085 BKN250 M22/M28 A3045 RMK AC2CI2 SLP342

CYWG;2009-02-26 19:00;CYWG 261900Z 02015KT 15SM DRSN SCT090 BKN250 M22/M28 A3044 RMK AC4CI2 SLP338

CYWG;2009-02-26 20:00;CYWG 262000Z 02015KT 15SM DRSN FEW090 BKN250 M22/M28 A3043 RMK AC2CI2 SLP334

CYWG;2009-02-26 21:00;CYWG 262100Z 01013KT 15SM DRSN FEW250 M22/M28 A3042 RMK CI0 SLP332

CYWG;2009-02-26 22:00;CYWG 262200Z 03011KT 15SM FEW250 M22/M28 A3042 RMK CI1 SLP331

CYWG;2009-02-26 23:00;CYWG 262300Z 02010KT 15SM SKC M22/M29 A3042 RMK SLP330

CYWG;2009-02-27 00:00;CYWG 270000Z 01006KT 15SM SKC M24/M29 A3043 RMK SLP334

CYWG;2009-02-27 01:00;CYWG 270100Z 02006KT 15SM SKC M25/M30 A3044 RMK SLP338

CYWG;2009-02-27 02:00;CYWG 270200Z 04005KT 15SM SKC M27/M31 A3045 RMK SLP342

CYWG;2009-02-27 03:00;CYWG 270300Z 03008KT 15SM SKC M27/M32 A3046 RMK SLP347

CYWG;2009-02-27 04:00;CYWG 270400Z 03009KT 15SM SKC M28/M33 A3046 RMK SLP347

CYWG;2009-02-27 05:00;CYWG 270500Z 01005KT 15SM SCT090 M30/M34 A3046 RMK AC1 SLP347

CYWG;2009-02-27 06:00;CYWG 270600Z 36007KT 15SM SKC M30/M35 A3048 RMK SLP353

CYWG;2009-02-27 07:00;CYWG 270700Z 35005KT 15SM SKC M31/M36 A3049 RMK SLP359

CYWG;2009-02-27 08:00;CYWG 270800Z 03008KT 15SM SKC M28/M34 A3049 RMK SLP357

CYWG;2009-02-27 09:00;CYWG 270900Z 02004KT 15SM SKC M30/M35 A3048 RMK SLP355

CYWG;2009-02-27 10:00;CYWG 271000Z 06004KT 15SM SKC M29/M34 A3048 RMK SLP354

CYWG;2009-02-27 11:00;CYWG 271100Z 04004KT 15SM SKC M31/M36 A3048 RMK SLP356

CYWG;2009-02-27 12:00;CYWG 271200Z 36004KT 15SM SKC M31/M35 A3050 RMK SLP362

CYWG;2009-02-27 13:00;CYWG 271300Z 27005KT 15SM SCT250 M33/M38 A3051 RMK CI1 SLP368

CYWG;2009-02-27 14:00;CYWG 271400Z 36002KT 15SM BKN250 M32/M36 A3054 RMK CI2 SLP375

CYWG;2009-02-27 15:00;CYWG 271500Z 32004KT 15SM BKN250 M30/M34 A3055 RMK CI2 SLP381

CYWG;2009-02-27 16:00;CYWG 271600Z 31003KT 15SM BKN250 M27/M32 A3056 RMK CI1 SLP384

CYWG;2009-02-27 17:00;CYWG 271700Z 33004KT 15SM SCT250 M25/M30 A3057 RMK CI1 SLP386

CYWG;2009-02-27 18:00;CYWG 271800Z 29007KT 15SM FEW250 M23/M30 A3057 RMK CI1 SLP385

CYWG;2009-02-27 19:00;CYWG 271900Z 29006KT 15SM SCT250 M22/M29 A3056 RMK CI1 SLP382

CYWG;2009-02-27 20:00;CYWG 272000Z 30005KT 15SM FEW250 M21/M28 A3055 RMK CI0 SLP379

CYWG;2009-02-27 21:00;CYWG 272100Z 28007KT 15SM SKC M21/M27 A3054 RMK SLP375

CYWG;2009-02-27 22:00;CYWG 272200Z 23007KT 15SM SKC M20/M28 A3054 RMK SLP375

CYWG;2009-02-27 23:00;CYWG 272300Z 23007KT 15SM SKC M21/M28 A3053 RMK SLP371

CYWG;2009-02-28 00:00;CYWG 280000Z 21007KT 15SM SKC M21/M28 A3052 RMK SLP369

CYWG;2009-02-28 01:00;CYWG 280100Z 19007KT 15SM SKC M23/M28 A3051 RMK SLP366

CYWG;2009-02-28 02:00;CYWG 280200Z 19009KT 15SM SKC M23/M28 A3050 RMK SLP361

CYWG;2009-02-28 03:00;CYWG 280300Z 19011KT 15SM SKC M22/M27 A3046 RMK SLP349

CYWG;2009-02-28 04:00;CYWG 280400Z 20014KT 15SM FEW060 SCT097 M21/M27 A3044 RMK SC1AC3 SLP342

CYWG;2009-02-28 05:00;CYWG 280500Z 21012KT 15SM BKN061 M21/M26 A3044 RMK SC6 SLP340

CYWG;2009-02-28 06:00;CYWG 280600Z 21011KT 15SM OVC049 M21/M26 A3042 RMK SC8 SLP332

CYWG;2009-02-28 07:00;CYWG 280700Z 21014KT 15SM OVC052 M20/M25 A3040 RMK SC8 SLP324

CYWG;2009-02-28 08:00;CYWG 280800Z 21013KT 15SM OVC051 M20/M25 A3038 RMK SC8 SLP317

CYWG;2009-02-28 09:00;CYWG 280900Z 21011KT 15SM SCT048 BKN094 M19/M23 A3036 RMK SC4AC3 SLP310

CYWG;2009-02-28 10:00;CYWG 281000Z 23008KT 15SM SCT089 M19/M23 A3036 RMK AC4 SLP309

CYWG;2009-02-28 11:00;CYWG 281100Z 25005KT 15SM FEW091 M19/M23 A3036 RMK AC2 SLP310

CYWG;2009-02-28 12:00;CYWG 281200Z 28008KT 15SM SKC M21/M25 A3038 RMK SLP316

CYWG;2009-02-28 13:00;CYWG 281300Z 29010KT 15SM FEW094 M21/M25 A3039 RMK AC1 SLP321

CYWG;2009-02-28 14:00;CYWG 281400Z 30011KT 15SM SCT240 M22/M26 A3041 RMK CI3 SLP328

CYWG;2009-02-28 15:00;CYWG 281500Z 30011KT 15SM SCT240 M20/M24 A3044 RMK CI3 SLP338

CYWG;2009-02-28 16:00;CYWG 281600Z 31013KT 15SM FEW240 M18/M23 A3046 RMK CI2 SLP345

CYWG;2009-02-28 17:00;CYWG 281700Z 31013KT 15SM SCT240 M17/M22 A3048 RMK CI4 SLP352

CYWG;2009-02-28 18:00;CYWG 281800Z 32017KT 15SM SCT240 M16/M20 A3050 RMK CI2 SLP355

CYWG;2009-02-28 19:00;CYWG 281900Z 32016KT 15SM SCT240 M15/M20 A3052 RMK CI2 SLP361

CYWG;2009-02-28 20:00;CYWG 282000Z 33018KT 15SM FEW030 FEW240 M15/M20 A3054 RMK CF1CI1 SLP367

CYWG;2009-02-28 21:00;CYWG 282100Z 33017KT 15SM FEW030 FEW210 M15/M20 A3055 RMK CF1CI1 SLP373

CYWG;2009-02-28 22:00;CYWG 282200Z 31013KT 15SM FEW030 FEW210 M16/M20 A3058 RMK CF1CI1 SLP382

CYWG;2009-02-28 23:00;CYWG 282300Z 31013KT 15SM FEW030 M16/M21 A3060 RMK CF1 SLP388

CYWG;2009-03-01 01:00;CYWG 010100Z 32010KT 15SM SKC M19/M24 A3065 RMK SLP408

CYWG;2009-03-01 02:00;CYWG 010200Z 31006KT 15SM SKC M22/M26 A3066 RMK SLP411

CYWG;2009-03-01 03:00;CYWG 010300Z 32006KT 15SM SKC M24/M28 A3068 RMK SLP419

CYWG;2009-03-01 04:00;CYWG 010400Z 32006KT 15SM SKC M25/M29 A3070 RMK SLP425

CYWG;2009-03-01 05:00;CYWG 010500Z 32006KT 15SM SKC M26/M30 A3072 RMK SLP433

CYWG;2009-03-01 06:00;CYWG 010600Z 31004KT 15SM SKC M26/M29 A3072 RMK SLP433

CYWG;2009-03-01 07:00;CYWG 010700Z 30007KT 15SM SKC M24/M28 A3074 RMK SLP438

CYWG;2009-03-01 08:00;CYWG 010800Z 28005KT 15SM SKC M28/M32 A3074 RMK SLP438

CYWG;2009-03-01 09:00;CYWG 010900Z 28007KT 15SM SKC M25/M28 A3074 RMK SLP439

CYWG;2009-03-01 10:00;CYWG 011000Z 29004KT 15SM SKC M28/M31 A3072 RMK SLP433

CYWG;2009-03-01 11:00;CYWG 011100Z 28005KT 15SM SKC M26/M30 A3073 RMK SLP434

CYWG;2009-03-01 12:00;CYWG 011200Z 27004KT 15SM SKC M28/M32 A3073 RMK SLP436

CYWG;2009-03-01 13:00;CYWG 011300Z 25002KT 15SM FEW240 M28/M32 A3072 RMK CI0 SLP434

CYWG;2009-03-01 14:00;CYWG 011400Z 17002KT 15SM FEW240 M25/M28 A3072 RMK CI1 SLP433

CYWG;2009-03-01 15:00;CYWG 011500Z 18003KT 15SM FEW240 M22/M25 A3072 RMK CI2 SLP434

CYWG;2009-03-01 16:00;CYWG 011600Z 18006KT 15SM BKN240 M18/M23 A3070 RMK CI5 SLP427

CYWG;2009-03-01 17:00;CYWG 011700Z 21008KT 15SM FEW120 OVC240 M17/M23 A3068 RMK AC2CI5 SLP422

CYWG;2009-03-01 18:00;CYWG 011800Z 19008KT 15SM SCT120 OVC240 M16/M23 A3066 RMK AC3CI5 SLP412

CYWG;2009-03-01 19:00;CYWG 011900Z 18009KT 15SM SCT120 OVC240 M16/M22 A3064 RMK AC4CI4 SLP405

CYWG;2009-03-01 20:00;CYWG 012000Z 18011KT 15SM FEW120 OVC220 M15/M22 A3062 RMK AC1CI5 SLP398

CYWG;2009-03-01 21:00;CYWG 012100Z 19010KT 15SM BKN220 M15/M21 A3060 RMK CI2 SLP391

CYWG;2009-03-01 22:00;CYWG 012200Z 18013KT 15SM FEW220 M15/M21 A3057 RMK CI1 SLP381

CYWG;2009-03-01 23:00;CYWG 012300Z 17013KT 15SM FEW100 FEW220 M15/M21 A3056 RMK AC1CI0 SLP378

CYWG;2009-03-02 00:00;CYWG 020000Z 19016KT 15SM FEW100 FEW220 M16/M21 A3055 RMK AC1CI0 SLP375

CYWG;2009-03-02 01:00;CYWG 020100Z 18014KT 15SM FEW100 FEW220 M16/M22 A3052 RMK AC1CI0 SLP365

CYWG;2009-03-02 02:00;CYWG 020200Z 17014KT 15SM SKC M17/M22 A3048 RMK SLP354

CYWG;2009-03-02 03:00;CYWG 020300Z 17012KT 15SM SKC M17/M22 A3048 RMK SLP347

CYWG;2009-03-02 04:00;CYWG 020400Z 18014KT 15SM SKC M17/M23 A3048 RMK SLP347

CYWG;2009-03-02 05:00;CYWG 020500Z 18013KT 15SM SKC M17/M22 A3046 RMK SLP342

CYWG;2009-03-02 06:00;CYWG 020600Z 17013KT 15SM SKC M17/M22 A3045 RMK SLP337

CYWG;2009-03-02 07:00;CYWG 020700Z 17012KT 15SM SKC M17/M22 A3045 RMK SLP338

CYWG;2009-03-02 08:00;CYWG 020800Z 15011KT 15SM SKC M19/M23 A3045 RMK SLP337

CYWG;2009-03-02 09:00;CYWG 020900Z 17012KT 15SM SKC M19/M23 A3043 RMK SLP331

CYWG;2009-03-02 10:00;CYWG 021000Z 17011KT 15SM SKC M18/M22 A3042 RMK SLP327

CYWG;2009-03-02 11:00;CYWG 021100Z 16009KT 15SM SKC M19/M23 A3042 RMK SLP327

CYWG;2009-03-02 12:00;CYWG 021200Z 16008KT 15SM SKC M19/M23 A3042 RMK SLP328

CYWG;2009-03-02 13:00;CYWG 021300Z 16011KT 15SM SKC M18/M22 A3042 RMK SLP327

CYWG;2009-03-02 14:00;CYWG 021400Z 16009KT 15SM FEW240 M17/M22 A3042 RMK CI0 SLP327

CYWG;2009-03-02 15:00;CYWG 021500Z 18016KT 15SM FEW240 M15/M21 A3042 RMK CI1 SLP326

CYWG;2009-03-02 16:00;CYWG 021600Z 18018KT 15SM FEW240 M14/M20 A3042 RMK CI1 SLP326

CYWG;2009-03-02 17:00;CYWG 021700Z 18017G22KT 15SM FEW240 M13/M17 A3042 RMK CI1 SLP326

CYWG;2009-03-02 18:00;CYWG 021800Z 18017G22KT 15SM FEW240 M12/M16 A3040 RMK CI1 SLP318

CYWG;2009-03-02 19:00;CYWG 021900Z 18017G25KT 15SM FEW240 M11/M15 A3039 RMK CI1 SLP315

CYWG;2009-03-02 20:00;CYWG 022000Z 19018KT 15SM SCT240 M10/M15 A3037 RMK CI2 SLP309

CYWG;2009-03-02 21:00;CYWG 022100Z 18018KT 15SM BKN240 M10/M14 A3036 RMK CI3 SLP303

CYWG;2009-03-02 22:00;CYWG 022200Z 19014G19KT 15SM SCT095 SCT240 M09/M13 A3036 RMK AC2CI0 SLP303

CYWG;2009-03-02 23:00;CYWG 022300Z 18015KT 15SM FEW100 M09/M13 A3035 RMK AC2 SLP299

CYWG;2009-03-03 00:00;CYWG 030000Z 18010KT 15SM SCT120 BKN170 M09/M14 A3032 RMK AC3AC1 SLP292

CYWG;2009-03-03 01:00;CYWG 030100Z 18007KT 15SM BKN080 M09/M13 A3032 RMK AC6 SLP291

CYWG;2009-03-03 02:00;CYWG 030200Z 16013KT 15SM SCT080 BKN150 M09/M14 A3029 RMK AC3AS2 SLP280

CYWG;2009-03-03 03:00;CYWG 030300Z 16016KT 15SM BKN150 M08/M15 A3026 RMK AS5 SLP268

CYWG;2009-03-03 04:00;CYWG 030400Z 18015KT 15SM OVC150 M08/M14 A3025 RMK AC8 SLP266

CYWG;2009-03-03 05:00;CYWG 030500Z 18016KT 15SM OVC150 M08/M13 A3024 RMK AC8 SLP262

CYWG;2009-03-03 06:00;CYWG 030600Z 18020KT 15SM OVC120 M08/M12 A3021 RMK AC8 SLP250

CYWG;2009-03-03 07:00;CYWG 030700Z 18022G27KT 15SM OVC120 M08/M11 A3019 RMK AC8 SLP243

CYWG;2009-03-03 08:00;CYWG 030800Z 18016G22KT 15SM OVC120 M08/M11 A3019 RMK AC8 SLP241

CYWG;2009-03-03 09:00;CYWG 030900Z 18018KT 15SM OVC067 M07/M10 A3016 RMK AC8 SLP233

CYWG;2009-03-03 10:00;CYWG 031000Z 18022G27KT 15SM BKN073 M08/M10 A3012 RMK AC6 SLP218

CYWG;2009-03-03 11:00;CYWG 031100Z 18018G24KT 15SM BKN086 M07/M10 A3009 RMK AC6 SLP210

CYWG;2009-03-03 12:00;CYWG 031200Z 18018KT 15SM BKN071 OVC120 M07/M09 A3008 RMK AC6AC2 SLP205

CYWG;2009-03-03 13:00;CYWG 031300Z 19015G21KT 15SM BKN073 BKN120 M06/M09 A3006 RMK AC5AC2 SLP198

CYWG;2009-03-03 14:00;CYWG 031400Z 18016G22KT 15SM SCT070 BKN090 M06/M09 A3005 RMK AC4AC3 SLP193

CYWG;2009-03-03 15:00;CYWG 031500Z 18017KT 15SM SCT080 OVC110 M05/M08 A3003 RMK AC3AC5 SLP185

CYWG;2009-03-03 16:00;CYWG 031600Z 19019G24KT 15SM FEW090 BKN120 M05/M08 A3002 RMK AC2AC3 SLP184

CYWG;2009-03-03 17:00;CYWG 031700Z 18019G30KT 15SM DRSN BKN120 M04/M07 A3001 RMK AC7 SLP180

CYWG;2009-03-03 18:00;CYWG 031800Z 18020G30KT 15SM DRSN BKN120 M04/M07 A2999 RMK AC6 SLP170

CYWG;2009-03-03 18:16;CYWG 031816Z 18019G25KT 15SM DRSN BKN120 M04/ RMK AC4 CK OBS

CYWG;2009-03-03 19:00;CYWG 031900Z 18022G28KT 15SM SCT120 M03/M07 A2998 RMK AC3 SLP169

CYWG;2009-03-03 20:00;CYWG 032000Z 18018G26KT 15SM BKN120 M03/M06 A2997 RMK AC6 SLP164

CYWG;2009-03-03 21:00;CYWG 032100Z 19016KT 15SM BKN120 M02/M06 A2995 RMK AC6 SLP158

CYWG;2009-03-03 22:00;CYWG 032200Z 18018KT 15SM BKN120 BKN210 M01/M05 A2994 RMK AC5CI2 SLP154

CYWG;2009-03-03 23:00;CYWG 032300Z 18018KT 15SM FEW120 BKN210 M02/M06 A2994 RMK AC2CI4 SLP154

CYWG;2009-03-04 00:00;CYWG 040000Z 18016KT 15SM FEW120 BKN210 M02/M06 A2993 RMK AC1CI5 SLP152

CYWG;2009-03-04 01:00;CYWG 040100Z 17014KT 15SM FEW092 BKN210 M02/M06 A2993 RMK AC2CI4 SLP151

CYWG;2009-03-04 02:00;CYWG 040200Z 18014KT 15SM SCT210 M03/M06 A2994 RMK CI4 SLP154

CYWG;2009-03-04 03:00;CYWG 040300Z 19016KT 15SM SCT085 BKN210 M03/M06 A2993 RMK AC3CI3 SLP149

CYWG;2009-03-04 04:00;CYWG 040400Z 18012G17KT 15SM SCT082 BKN210 M04/M06 A2991 RMK AC3CI2 SLP143

CYWG;2009-03-04 05:00;CYWG 040500Z 19017G22KT 15SM SCT085 BKN210 M03/M06 A2990 RMK AC3CI3 SLP142

CYWG;2009-03-04 06:00;CYWG 040600Z 18018G24KT 15SM BKN100 OVC210 M03/M06 A2989 RMK AC6CI2 SLP135

CYWG;2009-03-04 07:00;CYWG 040700Z 19020G25KT 15SM OVC076 M03/M06 A2989 RMK AC8 SLP137

CYWG;2009-03-04 08:00;CYWG 040800Z 18021G26KT 15SM OVC080 M04/M06 A2986 RMK AC8 SLP127

CYWG;2009-03-04 09:00;CYWG 040900Z 18020KT 15SM OVC093 M04/M06 A2984 RMK AC8 SLP118

CYWG;2009-03-04 10:00;CYWG 041000Z 18019G24KT 15SM SCT095 BKN250 M04/M06 A2983 RMK AC4CI2 SLP117

CYWG;2009-03-04 11:00;CYWG 041100Z 19014G20KT 15SM SCT095 BKN250 M05/M07 A2985 RMK AC4CI2 SLP121

CYWG;2009-03-04 12:00;CYWG 041200Z 18014KT 15SM BKN095 M06/M08 A2983 RMK AC6 SLP115

CYWG;2009-03-04 13:00;CYWG 041300Z 19016KT 10SM SCT020 BKN095 OVC250 M06/M08 A2983 RMK SC3AC3CI1 BR SLP116

CYWG;2009-03-04 14:00;CYWG 041400Z 19016KT 10SM SCT020 BKN072 BKN250 M06/M07 A2981 RMK SC3AC3CI0 BR SLP111

CYWG;2009-03-04 15:00;CYWG 041500Z 19013G19KT 10SM FEW020 BKN070 OVC250 M06/M08 A2982 RMK SC2AC3CI1 BR SLP112

CYWG;2009-03-04 16:00;CYWG 041600Z 19013KT 10SM BKN078 OVC250 M05/M07 A2981 RMK AC5CI1 BR SLP109

CYWG;2009-03-04 17:00;CYWG 041700Z 18019KT 15SM BKN092 BKN250 M04/M06 A2980 RMK AC6CI1 BR SLP108

CYWG;2009-03-04 18:00;CYWG 041800Z 18011KT 10SM SCT090 OVC250 M04/M06 A2980 RMK AC4CI2 BR SLP105

CYWG;2009-03-04 19:00;CYWG 041900Z 19015KT 10SM BKN250 M03/M05 A2977 RMK CI5 BR SLP096

CYWG;2009-03-04 20:00;CYWG 042000Z 18017KT 12SM BKN250 M02/M04 A2974 RMK CI5 BR SLP087

CYWG;2009-03-04 21:00;CYWG 042100Z 18015KT 10SM BKN250 M02/M05 A2974 RMK CI6 SLP086

CYWG;2009-03-04 22:00;CYWG 042200Z 18014KT 10SM FEW080 OVC250 M02/M04 A2973 RMK AC2CI5 BR SLP082

CYWG;2009-03-04 23:00;CYWG 042300Z 19014KT 10SM FEW080 OVC230 M02/M04 A2973 RMK AC1CI6 BR SLP082

CYWG;2009-03-05 00:00;CYWG 050000Z 18013KT 10SM FEW080 OVC230 M03/M04 A2973 RMK AC1CI6 BR SLP082

CYWG;2009-03-05 01:00;CYWG 050100Z 18013KT 10SM FEW150 BKN230 M03/M04 A2972 RMK AC1CI2 BR SLP079

CYWG;2009-03-05 02:00;CYWG 050200Z 18012KT 10SM OVC220 M03/M04 A2971 RMK CS3 BR HALO SLP077

CYWG;2009-03-05 03:00;CYWG 050300Z 18013KT 10SM OVC220 M03/M05 A2970 RMK CS3 BR HALO SLP074

CYWG;2009-03-05 04:00;CYWG 050400Z 19011KT 10SM BKN078 M03/M04 A2971 RMK AC6 BR SLP077

CYWG;2009-03-05 05:00;CYWG 050500Z 18011KT 10SM BKN074 M03/M04 A2967 RMK AC5 BR SLP063

CYWG;2009-03-05 06:00;CYWG 050600Z 16009KT 6SM BR BKN068 M03/M04 A2964 RMK AC6 SLP050

CYWG;2009-03-05 07:00;CYWG 050700Z 19007KT 6SM BR FEW073 BKN220 M03/M04 A2964 RMK AC2CI0 SLP052

CYWG;2009-03-05 08:00;CYWG 050800Z 18010KT 6SM BR BKN067 BKN220 M04/M05 A2962 RMK AC5CI0 SLP045

CYWG;2009-03-05 09:00;CYWG 050900Z 18010KT 10SM SCT064 BKN220 M03/M04 A2961 RMK SC3CI0 BR SLP039

CYWG;2009-03-05 10:00;CYWG 051000Z 17006KT 10SM FEW068 BKN220 M05/M06 A2959 RMK AC2CI0 BR SLP033

CYWG;2009-03-05 11:00;CYWG 051100Z 19009KT 10SM SCT070 BKN220 M04/M05 A2959 RMK AC3CI2 BR SLP033

CYWG;2009-03-05 12:00;CYWG 051200Z 17004KT 6SM BR SCT060 SCT100 OVC220 M05/M06 A2958 RMK SC3AC1CI2 SLP031

CYWG;2009-03-05 13:00;CYWG 051300Z 18005KT 4SM BR BKN055 OVC100 M04/M04 A2958 RMK SC6AC2 SLP030

CYWG;2009-03-05 14:00;CYWG 051400Z 17005KT 6SM BR SCT053 BKN088 OVC220 M03/M04 A2956 RMK SC3AC3CI2 SLP024

CYWG;2009-03-05 15:00;CYWG 051500Z 19006KT 6SM BR SCT051 BKN087 OVC220 M02/M03 A2956 RMK SC3AC3CI2 SLP022

CYWG;2009-03-05 16:00;CYWG 051600Z 16004KT 6SM BR BKN051 OVC100 M01/M02 A2955 RMK SC5AC3 SLP020

CYWG;2009-03-05 17:00;CYWG 051700Z 17005KT 6SM BR BKN051 BKN092 OVC220 M00/M01 A2954 RMK SC5AC2CI1 SLP016

CYWG;2009-03-05 17:30;CYWG 051730Z 17004KT 6SM BR BKN009 BKN063 OVC092 00/ RMK SF5SC2AC1

CYWG;2009-03-05 17:37;CYWG 051737Z 17006KT 6SM -RA BR BKN009 BKN063 OVC092 00/ RMK SF5SC2AC2

CYWG;2009-03-05 18:00;CYWG 051800Z 20006KT 6SM -RA BR BKN008 OVC060 01/M01 A2954 RMK SF6SC2 SLP015

CYWG;2009-03-05 19:00;CYWG 051900Z 17005KT 6SM BR OVC008 01/M00 A2953 RMK SF8 SLP011

CYWG;2009-03-05 19:57;CYWG 051957Z CCA 22006KT 4SM -RA OVC009 01/ RMK ST8

CYWG;2009-03-05 20:00;CYWG 052000Z 22007KT 4SM -RA BR BKN009 BKN016 OVC084 01/M00 A2953 RMK ST6SC1AC1 SLP011

CYWG;2009-03-05 20:42;CYWG 052042Z 23003KT 3SM -RAPL BR BKN008 OVC016 01/ RMK ST6SC2

CYWG;2009-03-05 21:00;CYWG 052100Z 21004KT 2 1/2SM -SNPL BR BKN006 BKN016 OVC033 01/00 A2953 RMK ST6SC2SC1 SLP011

CYWG;2009-03-05 21:24;CYWG 052124Z 18004KT 2SM -SHRA BR BKN005 OVC017 01/ RMK ST6SC2

CYWG;2009-03-05 22:00;CYWG 052200Z 18004KT 2SM -SHRA BR OVC004 01/01 A2953 RMK ST8 SLP011

CYWG;2009-03-05 22:27;CYWG 052227Z 23005KT 2SM BR OVC005 01/ RMK ST8

CYWG;2009-03-05 22:58;CYWG 052258Z 25006KT 2SM -SHSN BR BKN004 OVC032 01/ RMK ST7SC1

CYWG;2009-03-05 23:00;CYWG 052300Z CCA 26005KT 2SM -SHSN BR BKN004 OVC032 01/01 A2955 RMK ST7SC1 SLP018

CYWG;2009-03-05 23:24;CYWG 052324Z 26005KT 1SM R31/P6000FT/U R36/P6000FT/U -SHSN BR VV003 01/ RMK SN8

CYWG;2009-03-05 23:49;CYWG 052349Z 28009KT 1SM R31/P6000FT/U R36/P6000FT/U -SN BR OVC002 00/ RMK SF8

CYWG;2009-03-06 00:00;CYWG 060000Z 30007KT 1 1/2SM -SHRASN BR BKN003 OVC010 M00/M00 A2955 RMK SF6SC2 CIG RGD VIS VRBL 1-2 SLP021

CYWG;2009-03-06 00:13;CYWG 060013Z 30007KT 1/2SM R31/P6000FT/D R36/P6000FT/D SHSN FZFG VV003 M00/ RMK SN8 VIS VRBL 1/4-3/4

CYWG;2009-03-06 00:37;CYWG 060037Z 29004KT 1/2SM R31/P6000FT/U R36/P6000FT/U SHSN FZFG VV002 M00/ RMK SN8 VIS VRBL 1/4-3/4

CYWG;2009-03-06 00:59;CYWG 060059Z 29005KT 1/2SM R31/P6000FT/U R36/P6000FT/U SHSN FZFG VV005 M00/ RMK SN8 VIS VRBL 1/4-3/4

CYWG;2009-03-06 01:00;CYWG 060100Z 30005KT 3/4SM R31/P6000FT/N R36/P6000FT/N -SHSN BR VV005 M00/M00 A2956 RMK SN8 VIS VRBL 1/2-1 SLP023

CYWG;2009-03-06 01:21;CYWG 060121Z 31007KT 1 1/2SM BR SCT006 BKN039 BKN073 M01/ RMK SF4SC2AC1

CYWG;2009-03-06 02:00;CYWG 060200Z 32005KT 2SM BR FEW003 FEW053 SCT073 M04/M04 A2957 RMK FG1SF1SC1AC1 SLP025

CYWG;2009-03-06 02:28;CYWG 060228Z 28007KT 1SM R31/P6000FT/U R36/P6000FT/N BR FEW053 SCT073 M03/ RMK FG1SC1AC1

CYWG;2009-03-06 03:00;CYWG 060300Z 29008KT 1SM R31/P6000FT/N R36/P6000FT/N BR VV004 M02/M02 A2958 RMK FG8 SLP030

CYWG;2009-03-06 03:41;CYWG 060341Z 29009KT 2SM BR BKN006 OVC015 M02/ RMK ST6SC2

CYWG;2009-03-06 04:00;CYWG 060400Z 29010KT 3SM BR SCT006 OVC015 M02/M02 A2960 RMK SF3SC4 SLP035

CYWG;2009-03-06 04:33;CYWG 060433Z 30012KT 2 1/2SM BR SCT006 OVC013 M02/ RMK SF3SC5

CYWG;2009-03-06 05:00;CYWG 060500Z 29008KT 2SM BR BKN005 OVC013 M02/M02 A2961 RMK SF5SC3 SLP041

CYWG;2009-03-06 06:00;CYWG 060600Z 29009KT 2 1/2SM BR BKN007 OVC015 M02/M02 A2963 RMK SF6SC2 SLP044

CYWG;2009-03-06 07:00;CYWG 060700Z 29006KT 2SM BR BKN007 M02/M02 A2963 RMK SF7 SLP045

CYWG;2009-03-06 08:00;CYWG 060800Z 27010KT 2 1/2SM BR OVC009 M03/M03 A2964 RMK ST8 CIG RGD SLP048

CYWG;2009-03-06 09:00;CYWG 060900Z 26007KT 3SM BR BKN009 OVC019 M03/M04 A2965 RMK SF4SC4 SLP054

CYWG;2009-03-06 10:00;CYWG 061000Z 27011KT 5SM BR OVC021 M02/M03 A2966 RMK SC8 SLP056

CYWG;2009-03-06 11:00;CYWG 061100Z 28015KT 15SM OVC021 M02/M04 A2968 RMK SC8 SLP064

CYWG;2009-03-06 12:00;CYWG 061200Z 28017KT 15SM OVC021 M03/M05 A2970 RMK SC8 SLP070

CYWG;2009-03-06 12:51;CYWG 061251Z 28019KT 15SM OVC013 M04/ RMK SC8

CYWG;2009-03-06 13:00;CYWG 061300Z 28016G22KT 15SM OVC013 M05/M06 A2972 RMK SC8 SLP078

CYWG;2009-03-06 13:49;CYWG 061349Z 28018KT 15SM OVC009 M06/ RMK SC8

CYWG;2009-03-06 14:00;CYWG 061400Z 28019KT 15SM OVC008 M06/M07 A2975 RMK SC8 SLP088

CYWG;2009-03-06 14:52;CYWG 061452Z 29021KT 15SM OVC011 M06/ RMK SC8

CYWG;2009-03-06 15:00;CYWG 061500Z 29015G24KT 10SM OVC011 M06/M07 A2977 RMK SC8 SLP095

CYWG;2009-03-06 15:28;CYWG 061528Z 27013G20KT 10SM OVC009 M06/ RMK SC8

CYWG;2009-03-06 16:00;CYWG 061600Z 28017KT 10SM OVC007 M06/M07 A2981 RMK SC8 SLP108

CYWG;2009-03-06 16:54;CYWG 061654Z 29015KT 15SM BKN010 OVC030 M06/ RMK SC6SC2

CYWG;2009-03-06 17:00;CYWG 061700Z 29016KT 15SM BKN010 OVC031 M05/M06 A2982 RMK SC6SC2 SLP111

CYWG;2009-03-06 17:31;CYWG 061731Z 28017KT 15SM OVC009 M05/ RMK SC8

CYWG;2009-03-06 17:53;CYWG 061753Z 30018KT 8SM -SN OVC008 M05/ RMK SC8

CYWG;2009-03-06 18:00;CYWG 061800Z 30019KT 8SM -SN OVC009 M06/M07 A2986 RMK SC8 SLP125

CYWG;2009-03-06 18:37;CYWG 061837Z 31020KT 10SM -SN SCT009 OVC017 M07/ RMK SC4SC4

CYWG;2009-03-06 19:00;CYWG 061900Z 32018KT 10SM FEW010 BKN017 OVC030 M07/M09 A2989 RMK SF2SC3SC3 SLP135

CYWG;2009-03-06 20:00;CYWG 062000Z 31017KT 15SM FEW014 BKN019 OVC032 M08/M10 A2991 RMK SC2SC5SC1 SLP144

CYWG;2009-03-06 21:00;CYWG 062100Z 32016KT 15SM -SN FEW016 OVC032 M09/M11 A2994 RMK SC2SC6 SLP155

CYWG;2009-03-06 22:00;CYWG 062200Z 32013KT 15SM -SN FEW015 OVC032 M10/M12 A2997 RMK SC2SC6 SLP166

CYWG;2009-03-06 23:00;CYWG 062300Z 32016KT 10SM -SN FEW015 SCT034 OVC062 M11/M13 A2999 RMK SF1SC3SC5 SLP170

CYWG;2009-03-07 00:00;CYWG 070000Z 31010KT 15SM SCT040 BKN090 M11/M13 A2999 RMK SC4AC2 SLP174

CYWG;2009-03-07 01:00;CYWG 070100Z 30008KT 15SM FEW040 SCT210 M12/M14 A3002 RMK SC2CI1 SLP182

CYWG;2009-03-07 02:00;CYWG 070200Z 30007KT 15SM BKN029 BKN075 M14/M15 A3004 RMK SC5AC1 SLP189

CYWG;2009-03-07 03:00;CYWG 070300Z 30009KT 15SM SCT039 BKN085 M15/M16 A3006 RMK SC3AC1 SLP199

CYWG;2009-03-07 04:00;CYWG 070400Z 29007KT 15SM SCT085 M15/M17 A3008 RMK AC2 SLP206

CYWG;2009-03-07 05:00;CYWG 070500Z 30005KT 15SM FEW120 M17/M19 A3009 RMK AC2 SLP208

CYWG;2009-03-07 06:00;CYWG 070600Z 29005KT 15SM FEW240 M17/M19 A3009 RMK CI2 SLP208

CYWG;2009-03-07 07:00;CYWG 070700Z 28006KT 15SM FEW240 M18/M19 A3009 RMK CI2 SLP210

CYWG;2009-03-07 08:00;CYWG 070800Z 30006KT 15SM FEW240 M20/M21 A3009 RMK CI1 SLP211

CYWG;2009-03-07 09:00;CYWG 070900Z 32005KT 15SM FEW240 M21/M21 A3009 RMK CI1 SLP212

CYWG;2009-03-07 10:00;CYWG 071000Z 30005KT 15SM FEW240 M21/M22 A3009 RMK CI1 SLP214

CYWG;2009-03-07 11:00;CYWG 071100Z 27005KT 15SM FEW240 M21/M22 A3010 RMK CI2 SLP216

CYWG;2009-03-07 12:00;CYWG 071200Z 28002KT 15SM FEW076 M21/M21 A3010 RMK AC1 SLP218

CYWG;2009-03-07 13:00;CYWG 071300Z 27002KT 15SM FEW200 M22/M22 A3011 RMK CI1 SLP220

CYWG;2009-03-07 14:00;CYWG 071400Z 29004KT 15SM FEW200 M20/M21 A3012 RMK CI1 SLP222

CYWG;2009-03-07 15:00;CYWG 071500Z 29003KT 15SM FEW200 M20/M21 A3012 RMK CI1 SLP224

CYWG;2009-03-07 16:00;CYWG 071600Z 34003KT 8SM R31/4000VP6000FT/D FEW200 M19/M19 A3012 RMK CI1 SLP223

CYWG;2009-03-07 17:00;CYWG 071700Z 32002KT 15SM FEW090 M17/M18 A3012 RMK AC1 SLP225

CYWG;2009-03-07 18:00;CYWG 071800Z 36004KT 15SM FEW090 M15/M18 A3012 RMK AC1 SLP222

CYWG;2009-03-07 19:00;CYWG 071900Z 30004KT 15SM FEW090 M14/M17 A3010 RMK AC1 SLP218

CYWG;2009-03-07 20:00;CYWG 072000Z 18007KT 15SM FEW090 M13/M17 A3009 RMK AC1 SHSN DSTNT N QUAD SLP212

CYWG;2009-03-07 21:00;CYWG 072100Z 17008KT 15SM FEW020 M12/M17 A3007 RMK SC1 TR SC SLP208

CYWG;2009-03-07 22:00;CYWG 072200Z 19008KT 15SM SKC M12/M16 A3007 RMK SLP206

CYWG;2009-03-07 23:00;CYWG 072300Z 18009KT 15SM SKC M12/M16 A3006 RMK COTRA SLP202

CYWG;2009-03-08 00:00;CYWG 080000Z 18008KT 15SM FEW150 M13/M16 A3004 RMK AS1 COTRA SLP196

CYWG;2009-03-08 01:00;CYWG 080100Z 18008KT 15SM FEW150 M14/M16 A3003 RMK AS1 SLP195

CYWG;2009-03-08 02:00;CYWG 080200Z 16006KT 15SM FEW150 M15/M17 A3003 RMK AS0 SLP192

CYWG;2009-03-08 03:00;CYWG 080300Z 18006KT 15SM SKC M15/M17 A3002 RMK SLP192

CYWG;2009-03-08 04:00;CYWG 080400Z 16009KT 15SM SKC M15/M17 A3000 RMK SLP186

CYWG;2009-03-08 05:00;CYWG 080500Z 16008KT 15SM SKC M15/M17 A3000 RMK SLP184

CYWG;2009-03-08 06:00;CYWG 080600Z 17009KT 15SM SKC M15/M17 A2998 RMK SLP176

CYWG;2009-03-08 07:00;CYWG 080700Z 17010KT 15SM SKC M15/M17 A2997 RMK SLP172

CYWG;2009-03-08 08:00;CYWG 080800Z 17011KT 15SM SKC M15/M17 A2996 RMK SLP167

CYWG;2009-03-08 09:00;CYWG 080900Z 18010KT 15SM FEW090 M15/M17 A2994 RMK AC1 SLP161

CYWG;2009-03-08 10:00;CYWG 081000Z CCA 17013KT 15SM SCT090 M14/M17 A2991 RMK AC1 SLP151

CYWG;2009-03-08 11:00;CYWG 081100Z 18011KT 15SM FEW210 M14/M17 A2991 RMK CI1 SLP151

CYWG;2009-03-08 12:00;CYWG 081200Z 18011KT 15SM FEW210 M14/M17 A2991 RMK CI1 SLP150

CYWG;2009-03-08 13:00;CYWG 081300Z 19010KT 15SM FEW080 FEW210 M14/M17 A2992 RMK AC1CI2 SLP152

CYWG;2009-03-08 14:00;CYWG 081400Z 18014KT 15SM FEW030 FEW086 FEW210 M13/M16 A2992 RMK SC1AC1CI1 SLP153

CYWG;2009-03-08 15:00;CYWG 081500Z 18013KT 15SM FEW022 FEW085 SCT210 M13/M16 A2990 RMK SC1AC1CI1 SLP146

CYWG;2009-03-08 16:00;CYWG 081600Z 18017KT 15SM FEW084 BKN210 M10/M14 A2988 RMK AC1CI4 SLP140

CYWG;2009-03-08 17:00;CYWG 081700Z 19015KT 15SM BKN018 M09/M13 A2987 RMK SC7 SLP136

CYWG;2009-03-08 17:29;CYWG 081729Z 18013KT 15SM BKN009 BKN014 M09/ RMK ST5SC2

CYWG;2009-03-08 18:00;CYWG 081800Z 19010KT 15SM OVC012 M08/M12 A2987 RMK ST8 SLP133

CYWG;2009-03-08 19:00;CYWG 081900Z 18012G18KT 15SM BKN012 OVC020 M07/M11 A2986 RMK SC7SC1 SLP131

CYWG;2009-03-08 19:29;CYWG 081929Z 20011KT 15SM OVC015 M07/ RMK SC8

CYWG;2009-03-08 20:00;CYWG 082000Z 18014KT 15SM OVC013 M07/M10 A2985 RMK SC8 SLP127

CYWG;2009-03-08 21:00;CYWG 082100Z 20010KT 15SM OVC013 M06/M09 A2986 RMK SC8 SLP132

CYWG;2009-03-08 21:47;CYWG 082147Z 18012KT 15SM OVC015 M06/ RMK SC8

CYWG;2009-03-08 22:00;CYWG 082200Z 18012KT 15SM OVC017 M06/M09 A2986 RMK SC8 SLP132

CYWG;2009-03-08 23:00;CYWG 082300Z 18012KT 15SM OVC017 M06/M08 A2986 RMK SC8 SLP131

CYWG;2009-03-09 00:00;CYWG 090000Z 20009KT 15SM OVC017 M06/M08 A2987 RMK SC8 SLP134

CYWG;2009-03-09 01:00;CYWG 090100Z 18008KT 15SM OVC024 M06/M08 A2988 RMK SC7 SLP136

CYWG;2009-03-09 02:00;CYWG 090200Z 20007KT 15SM OVC022 M06/M08 A2990 RMK SC8 SLP143

CYWG;2009-03-09 03:00;CYWG 090300Z 19008KT 15SM OVC017 M07/M09 A2991 RMK SC8 SLP148

CYWG;2009-03-09 04:00;CYWG 090400Z 18005KT 15SM OVC015 M06/M08 A2992 RMK SC8 SLP151

CYWG;2009-03-09 05:00;CYWG 090500Z 22006KT 15SM OVC017 M06/M08 A2993 RMK SC8 SLP155

CYWG;2009-03-09 06:00;CYWG 090600Z 22004KT 15SM OVC017 M06/M07 A2995 RMK SC8 SLP158

CYWG;2009-03-09 06:35;CYWG 090635Z 23005KT 3SM -SN OVC008 M06/ RMK SC8

CYWG;2009-03-09 06:41;CYWG 090641Z 25004KT 1 1/2SM -SN OVC008 M06/ RMK SC8

CYWG;2009-03-09 07:00;CYWG 090700Z 27006KT 1 1/2SM -SN OVC007 M06/M06 A2996 RMK SC8 SLP162

CYWG;2009-03-09 07:37;CYWG 090737Z 28008KT 3SM -SN OVC010 M06/ RMK SC8

CYWG;2009-03-09 08:00;CYWG 090800Z 30009KT 3SM -SN OVC010 M06/M07 A2998 RMK SC8 SLP170

CYWG;2009-03-09 08:07;CYWG 090807Z 31010KT 3SM -SN OVC020 M06/ RMK SC8

CYWG;2009-03-09 08:31;CYWG 090831Z 32011KT 2SM -SN OVC022 M06/ RMK SC8

CYWG;2009-03-09 09:00;CYWG 090900Z 32010KT 2SM -SN OVC014 M06/M07 A3003 RMK SC8 SLP185

CYWG;2009-03-09 10:00;CYWG 091000Z 32014KT 2 1/2SM -SN OVC012 M07/M08 A3003 RMK SC8 SLP185

CYWG;2009-03-09 10:21;CYWG 091021Z 32014KT 3SM -SN OVC014 M08/ RMK SC7

CYWG;2009-03-09 10:47;CYWG 091047Z 32012KT 15SM BKN016 OVC030 M08/ RMK SC7SC1

CYWG;2009-03-09 11:00;CYWG 091100Z 32013KT 15SM BKN016 OVC030 M08/M09 A3006 RMK SC7SC1 SLP194

CYWG;2009-03-09 12:00;CYWG 091200Z 32015KT 15SM FEW016 OVC028 M09/M11 A3010 RMK SC2SC6 SLP211

CYWG;2009-03-09 13:00;CYWG 091300Z 32017KT 15SM FEW016 BKN030 OVC080 M10/M12 A3011 RMK SC1SC5AC2 SLP214

CYWG;2009-03-09 13:49;CYWG 091349Z 32015KT 15SM -SN FEW016 BKN030 OVC080 M12/ RMK SC1SC5AC2

CYWG;2009-03-09 14:00;CYWG 091400Z 32016KT 15SM -SN FEW016 BKN030 OVC080 M12/M13 A3014 RMK SC1SC6AC2 SLP225

CYWG;2009-03-09 15:00;CYWG 091500Z 32018KT 15SM -SN DRSN BKN019 BKN080 OVC250 M13/M15 A3018 RMK SC5AC1CI0 SLP239

CYWG;2009-03-09 16:00;CYWG 091600Z 32017KT 15SM DRSN BKN022 BKN057 OVC250 M13/M15 A3021 RMK SC5SC1CI0 SLP249

CYWG;2009-03-09 17:00;CYWG 091700Z 33019KT 15SM DRSN FEW025 SCT094 BKN250 M12/M14 A3023 RMK SC2AC2CI1 SLP255

CYWG;2009-03-09 18:00;CYWG 091800Z 34012KT 15SM R36/3000VP6000FT/N DRSN FEW027 SCT076 BKN250 M12/M15 A3025 RMK SC2AC2CI1 SLP263

CYWG;2009-03-09 19:00;CYWG 091900Z 32014KT 15SM DRSN FEW028 SCT086 BKN250 M12/M15 A3025 RMK SC1AC2CI1 SLP264

CYWG;2009-03-09 20:00;CYWG 092000Z 33014KT 15SM DRSN FEW019 SCT083 BKN250 M12/M15 A3026 RMK SC2AC2CI2 SLP266

CYWG;2009-03-09 21:00;CYWG 092100Z 34016KT 15SM DRSN SCT014 BKN091 OVC250 M12/M15 A3027 RMK SC3AC2CI2 SLP271

CYWG;2009-03-09 22:00;CYWG 092200Z 33014KT 15SM DRSN SCT019 BKN090 OVC250 M13/M16 A3030 RMK SC4AC2CI2 SLP279

CYWG;2009-03-09 23:00;CYWG 092300Z 34015KT 15SM DRSN FEW016 SCT079 OVC250 M14/M17 A3031 RMK SC2AC2CI2 SLP284

CYWG;2009-03-10 00:00;CYWG 100000Z 34015KT 15SM DRSN FEW020 SCT095 OVC250 M15/M18 A3032 RMK SC2AC2CI2 SLP289

CYWG;2009-03-10 01:00;CYWG 100100Z 35012KT 15SM DRSN FEW020 SCT092 BKN250 M15/M19 A3035 RMK SC1AC2CI1 SLP298

CYWG;2009-03-10 02:00;CYWG 100200Z 04011KT 15SM SCT090 BKN250 M17/M19 A3038 RMK AC2CI1 SLP307

CYWG;2009-03-10 03:00;CYWG 100300Z 03013KT 15SM BKN090 M18/M21 A3041 RMK AC3 SLP321

CYWG;2009-03-10 04:00;CYWG 100400Z 04014KT 15SM BKN100 M20/M22 A3043 RMK AC5 SLP330

CYWG;2009-03-10 05:00;CYWG 100500Z 04016KT 15SM FEW100 M21/M23 A3043 RMK AC2 SLP329

CYWG;2009-03-10 06:00;CYWG 100600Z 03018KT 15SM BKN100 M22/M24 A3042 RMK AC4 SLP328

CYWG;2009-03-10 07:00;CYWG 100700Z 02013KT 15SM SKC M23/M25 A3042 RMK SLP328

CYWG;2009-03-10 08:00;CYWG 100800Z 02014KT 15SM SKC M23/M26 A3041 RMK SLP322

CYWG;2009-03-10 09:00;CYWG 100900Z 01017KT 15SM FEW100 M24/M26 A3038 RMK AC1 SLP313

CYWG;2009-03-10 10:00;CYWG 101000Z 02015KT 15SM BKN100 M24/M26 A3038 RMK AC3 SLP315

CYWG;2009-03-10 11:00;CYWG 101100Z 02017KT 15SM DRSN BKN100 M24/M26 A3038 RMK AC6 SLP312

CYWG;2009-03-10 12:00;CYWG 101200Z 01017KT 15SM DRSN BKN087 M24/M32 A3041 RMK AC7 SLP325

CYWG;2009-03-10 13:00;CYWG 101300Z 02018KT 15SM DRSN OVC088 M24/M30 A3042 RMK AC8 SLP328

CYWG;2009-03-10 14:00;CYWG 101400Z 01016KT 15SM DRSN OVC084 M24/M29 A3041 RMK AS8 SLP327

CYWG;2009-03-10 15:00;CYWG 101500Z 01017KT 15SM DRSN OVC078 M23/M29 A3039 RMK AS8 SLP319

CYWG;2009-03-10 16:00;CYWG 101600Z 01021KT 8SM DRSN OVC065 M23/M28 A3036 RMK SC8 OCNL BLSN SLP311

CYWG;2009-03-10 17:00;CYWG 101700Z CCA 02021KT 8SM DRSN OVC061 M22/M28 A3036 RMK SC8 OCNL BLSN SLP311

CYWG;2009-03-10 18:00;CYWG 101800Z 02022KT 8SM DRSN OVC045 M22/M27 A3035 RMK SC8 OCNL BLSN SLP306

CYWG;2009-03-10 19:00;CYWG 101900Z 02025KT 5SM BLSN FEW010 BKN045 BKN072 M22/M27 A3031 RMK SC2SC5AC1 SLP292

CYWG;2009-03-10 20:00;CYWG 102000Z 01023KT 6SM BLSN BKN047 OVC072 M21/M27 A3028 RMK SC6AC2 OCNL DRSN SLP284

CYWG;2009-03-10 21:00;CYWG 102100Z 36020KT 6SM BLSN BKN047 OVC070 M21/M27 A3026 RMK SC5AC3 OCNL DRSN SLP276

CYWG;2009-03-10 22:00;CYWG 102200Z 02021G28KT 6SM BLSN BKN041 OVC079 M21/M27 A3025 RMK SC5AC3 SLP274

CYWG;2009-03-10 23:00;CYWG 102300Z 36022G27KT 6SM BLSN OVC042 M21/M27 A3027 RMK SC8 SLP279

CYWG;2009-03-11 00:00;CYWG 110000Z 36021G29KT 8SM DRSN OVC044 M21/M27 A3028 RMK SC8 SLP282

CYWG;2009-03-11 01:00;CYWG 110100Z 35018KT 8SM DRSN OVC046 M21/M27 A3029 RMK SC8 SLP288

CYWG;2009-03-11 02:00;CYWG 110200Z 36019G26KT 10SM DRSN OVC052 M22/M28 A3030 RMK SC8 SLP291

CYWG;2009-03-11 03:00;CYWG 110300Z 35020KT 12SM DRSN OVC048 M22/M28 A3031 RMK SC7 SLP293

CYWG;2009-03-11 04:00;CYWG 110400Z 35020G25KT 15SM DRSN OVC044 M22/M29 A3032 RMK SC6 SLP295

CYWG;2009-03-11 05:00;CYWG 110500Z 34018KT 15SM DRSN OVC049 M22/M29 A3032 RMK SC6 SLP297

CYWG;2009-03-11 06:00;CYWG 110600Z 34018KT 15SM DRSN BKN051 BKN120 M22/M30 A3033 RMK SC6AC1 SLP300

CYWG;2009-03-11 07:00;CYWG 110700Z 34017KT 15SM DRSN BKN051 BKN120 M23/M30 A3034 RMK SC5AC2 SLP303

CYWG;2009-03-11 08:00;CYWG 110800Z 34017KT 15SM DRSN BKN060 BKN120 M23/M30 A3036 RMK SC5AC2 SLP310

CYWG;2009-03-11 09:00;CYWG 110900Z 33018KT 15SM DRSN FEW060 FEW120 BKN250 M24/M30 A3037 RMK SC1AC1CI1 SLP315

CYWG;2009-03-11 10:00;CYWG 111000Z 33016KT 15SM DRSN FEW120 BKN250 M24/M31 A3040 RMK AC1CI2 SLP323

CYWG;2009-03-11 11:00;CYWG 111100Z 34012KT 15SM DRSN FEW120 BKN250 M24/M30 A3041 RMK AC2CI1 SLP328

CYWG;2009-03-11 12:00;CYWG 111200Z 32010KT 15SM DRSN FEW120 BKN250 M25/M31 A3045 RMK AC2CI1 SLP342

CYWG;2009-03-11 13:00;CYWG 111300Z 31011KT 15SM DRSN FEW120 BKN250 M25/M30 A3047 RMK AC1CI1 SLP348

CYWG;2009-03-11 14:00;CYWG 111400Z 31008KT 15SM BKN250 M25/M29 A3049 RMK CI1 SLP355

CYWG;2009-03-11 15:00;CYWG 111500Z 31011KT 15SM OVC250 M23/M29 A3051 RMK CS1 SLP361

CYWG;2009-03-11 16:00;CYWG 111600Z 30013KT 15SM FEW250 M22/M28 A3053 RMK CS0 SLP368

CYWG;2009-03-11 17:00;CYWG 111700Z 30013KT 15SM FEW250 M21/M27 A3054 RMK CS0 SLP374

CYWG;2009-03-11 18:00;CYWG 111800Z 29012KT 15SM FEW250 M21/M26 A3054 RMK CS1 SLP373

CYWG;2009-03-11 19:00;CYWG 111900Z 28011KT 15SM FEW026 FEW230 M20/M27 A3055 RMK CF1CI0 SLP375

CYWG;2009-03-11 20:00;CYWG 112000Z 28010G15KT 15SM FEW026 FEW230 M19/M26 A3054 RMK CF2CI0 SLP371

CYWG;2009-03-11 21:00;CYWG 112100Z 28014KT 15SM FEW028 FEW230 M19/M27 A3053 RMK CF1CI0 SLP369

CYWG;2009-03-11 22:00;CYWG 112200Z CCA 28012KT 15SM SKC M19/M27 A3054 RMK SLP370

CYWG;2009-03-11 23:00;CYWG 112300Z 28011KT 15SM SKC M19/M27 A3053 RMK SLP367

CYWG;2009-03-12 00:00;CYWG 120000Z 28007KT 15SM SKC M20/M27 A3052 RMK SLP366

CYWG;2009-03-12 01:00;CYWG 120100Z 25006KT 15SM SKC M21/M28 A3053 RMK SLP367

CYWG;2009-03-12 02:00;CYWG 120200Z 24010KT 15SM SKC M21/M27 A3053 RMK SLP367

CYWG;2009-03-12 03:00;CYWG 120300Z 25012KT 15SM SKC M21/M28 A3052 RMK SLP366

CYWG;2009-03-12 04:00;CYWG 120400Z 25011KT 15SM SKC M22/M28 A3052 RMK SLP366

CYWG;2009-03-12 05:00;CYWG 120500Z 24010KT 15SM SKC M22/M28 A3052 RMK SLP364

CYWG;2009-03-12 06:00;CYWG 120600Z 23009KT 15SM SKC M23/M28 A3051 RMK SLP363

CYWG;2009-03-12 07:00;CYWG 120700Z 22009KT 15SM SKC M23/M29 A3051 RMK SLP360

CYWG;2009-03-12 08:00;CYWG 120800Z 21010KT 15SM SKC M23/M28 A3050 RMK SLP359

CYWG;2009-03-12 09:00;CYWG 120900Z 21012KT 15SM FEW100 M23/M28 A3048 RMK AC1 SLP349

CYWG;2009-03-12 10:00;CYWG 121000Z 21013KT 15SM FEW100 FEW230 M23/M28 A3046 RMK AC1CI0 SLP343

CYWG;2009-03-12 11:00;CYWG 121100Z 20011KT 15SM SCT230 M23/M28 A3043 RMK CI1 SLP335

CYWG;2009-03-12 12:00;CYWG 121200Z 20011KT 15SM BKN230 M23/M27 A3041 RMK CI2 SLP327

CYWG;2009-03-12 13:00;CYWG 121300Z 21011KT 15SM BKN230 M22/M27 A3040 RMK CI1 SLP324

CYWG;2009-03-12 14:00;CYWG 121400Z 21013KT 15SM FEW230 M22/M27 A3040 RMK CI0 SLP324

CYWG;2009-03-12 15:00;CYWG 121500Z 20014KT 15SM FEW230 M21/M26 A3041 RMK CI0 SLP325

CYWG;2009-03-12 16:00;CYWG 121600Z 19012KT 15SM FEW230 M19/M24 A3040 RMK CI1 SLP322

CYWG;2009-03-12 17:00;CYWG 121700Z 20014KT 15SM SKC M17/M22 A3039 RMK SLP319

CYWG;2009-03-12 18:00;CYWG 121800Z 21016KT 15SM SKC M15/M20 A3038 RMK SLP313

CYWG;2009-03-12 19:00;CYWG 121900Z 21016G21KT 15SM FEW230 M14/M18 A3035 RMK CI0 SLP305

CYWG;2009-03-12 20:00;CYWG 122000Z 21013G18KT 15SM FEW230 M12/M15 A3034 RMK CI0 SLP300

CYWG;2009-03-12 21:00;CYWG 122100Z 22013KT 15SM SKC M10/M16 A3032 RMK SLP294

CYWG;2009-03-12 22:00;CYWG 122200Z 22014KT 15SM SCT230 M09/M16 A3031 RMK CI1 SLP289

CYWG;2009-03-12 23:00;CYWG 122300Z 23012KT 15SM SCT230 M09/M15 A3029 RMK CI1 SLP283

CYWG;2009-03-13 00:00;CYWG 130000Z 21011KT 15SM BKN230 M09/M14 A3028 RMK CI2 SLP277

CYWG;2009-03-13 01:00;CYWG 130100Z 20013KT 15SM BKN230 M11/M15 A3026 RMK CI2 SLP272

CYWG;2009-03-13 02:00;CYWG 130200Z 20013KT 15SM SCT230 M11/M15 A3025 RMK CI2 SLP267

CYWG;2009-03-13 03:00;CYWG 130300Z 21014KT 15SM FEW084 M12/M15 A3023 RMK AC2 SLP262

CYWG;2009-03-13 04:00;CYWG 130400Z 21015KT 15SM FEW084 SCT240 M13/M16 A3022 RMK AC2CI0 SLP259

CYWG;2009-03-13 05:00;CYWG 130500Z 21013KT 15SM SKC M13/M16 A3021 RMK SLP255

CYWG;2009-03-13 06:00;CYWG 130600Z 21012KT 15SM SKC M14/M16 A3019 RMK SLP245

CYWG;2009-03-13 07:00;CYWG 130700Z 21011KT 15SM SKC M15/M17 A3016 RMK SLP238

CYWG;2009-03-13 08:00;CYWG 130800Z 19011KT 15SM SKC M16/M17 A3014 RMK SLP231

CYWG;2009-03-13 09:00;CYWG 130900Z 20012KT 15SM SKC M16/M18 A3012 RMK SLP221

CYWG;2009-03-13 10:00;CYWG 131000Z 20007KT 15SM SKC M16/M18 A3009 RMK SLP212

CYWG;2009-03-13 11:00;CYWG 131100Z 20007KT 15SM SKC M17/M18 A3007 RMK SLP204

CYWG;2009-03-13 12:00;CYWG 131200Z 19009KT 15SM SKC M17/M18 A3004 RMK SLP193

CYWG;2009-03-13 13:00;CYWG 131300Z 20013KT 15SM SKC M16/M18 A3002 RMK SLP186

CYWG;2009-03-13 14:00;CYWG 131400Z 20012KT 15SM BKN250 M16/M18 A3000 RMK CI0 SLP180

CYWG;2009-03-13 15:00;CYWG 131500Z 20011KT 15SM FEW250 M14/M17 A2998 RMK CI0 SLP175

CYWG;2009-03-13 16:00;CYWG 131600Z 20011KT 15SM BKN250 M10/M15 A2996 RMK CI0 SLP168

CYWG;2009-03-13 17:00;CYWG 131700Z 22013KT 15SM BKN250 M08/M12 A2994 RMK CI0 SLP162

CYWG;2009-03-13 18:00;CYWG 131800Z 24012KT 15SM BKN250 M05/M10 A2993 RMK CI0 SLP155

CYWG;2009-03-13 19:00;CYWG 131900Z 26014KT 15SM FEW100 BKN250 M03/M09 A2993 RMK AC1CI1 SLP156

CYWG;2009-03-13 20:00;CYWG 132000Z 25010KT 15SM BKN072 BKN250 M02/M09 A2991 RMK AC6CI1 SLP149

CYWG;2009-03-13 21:00;CYWG 132100Z 23008KT 15SM BKN072 OVC250 M01/M07 A2990 RMK AC6CI1 SLP143

CYWG;2009-03-13 22:00;CYWG 132200Z 22008KT 15SM OVC070 M01/M06 A2989 RMK AC8 SLP140

CYWG;2009-03-13 23:00;CYWG 132300Z 21009KT 15SM SCT056 BKN073 M00/M05 A2987 RMK SC3AC4 SLP134

CYWG;2009-03-14 00:00;CYWG 140000Z 20010KT 15SM BKN068 M01/M04 A2986 RMK AC7 SLP130

CYWG;2009-03-14 01:00;CYWG 140100Z 20011KT 15SM SCT059 BKN092 M02/M05 A2984 RMK SC4AC3 SLP123

CYWG;2009-03-14 02:00;CYWG 140200Z 20011KT 15SM BKN056 BKN090 M02/M05 A2982 RMK SC5AC1 SLP116

CYWG;2009-03-14 03:00;CYWG 140300Z 20012KT 15SM SCT053 BKN074 M02/M05 A2980 RMK SC4AC3 SLP109

CYWG;2009-03-14 04:00;CYWG 140400Z 21014KT 15SM BKN063 M01/M04 A2978 RMK SC7 SLP103

CYWG;2009-03-14 05:00;CYWG 140500Z 21016KT 15SM BKN057 M01/M04 A2977 RMK SC7 SLP099

CYWG;2009-03-14 06:00;CYWG 140600Z 21013KT 15SM BKN053 M00/M04 A2977 RMK SC7 SLP094

CYWG;2009-03-14 07:00;CYWG 140700Z 20013KT 15SM FEW053 SCT085 M02/M04 A2975 RMK SC2AC2 SLP088

CYWG;2009-03-14 08:00;CYWG 140800Z 20014KT 15SM FEW085 M03/M05 A2974 RMK AC2 SLP083

CYWG;2009-03-14 09:00;CYWG 140900Z 20018KT 15SM SCT086 M04/M06 A2972 RMK AC3 SLP078

CYWG;2009-03-14 10:00;CYWG 141000Z 17003KT 15SM FEW087 M05/M07 A2973 RMK AC2 SLP081

CYWG;2009-03-14 11:00;CYWG 141100Z 18008KT 15SM SKC M06/M08 A2973 RMK SLP081

CYWG;2009-03-14 12:00;CYWG 141200Z 18010KT 15SM FEW250 M07/M08 A2972 RMK CI2 SLP079

CYWG;2009-03-14 13:00;CYWG 141300Z 19011KT 15SM SCT250 M07/M09 A2971 RMK CI1 SLP076

CYWG;2009-03-14 14:00;CYWG 141400Z 18009KT 15SM FEW250 M07/M08 A2970 RMK CI1 SLP074

CYWG;2009-03-14 15:00;CYWG 141500Z 20008KT 15SM BKN250 M04/M07 A2972 RMK CI1 SLP078

CYWG;2009-03-14 16:00;CYWG 141600Z 20006KT 15SM BKN250 M03/M06 A2973 RMK CI1 SLP080

CYWG;2009-03-14 17:00;CYWG 141700Z 17004KT 15SM BKN250 M02/M06 A2973 RMK CI2 SLP082

CYWG;2009-03-14 18:00;CYWG 141800Z 16004KT 15SM BKN250 M01/M05 A2972 RMK CI2 SLP075

CYWG;2009-03-14 19:00;CYWG 141900Z 20003KT 15SM BKN250 02/M04 A2972 RMK CI3 SLP077

CYWG;2009-03-14 20:00;CYWG 142000Z 18005KT 15SM FEW250 01/M04 A2972 RMK CI1 SLP075

CYWG;2009-03-14 21:00;CYWG 142100Z 20004KT 15SM FEW250 02/M04 A2971 RMK CI0 SLP073

CYWG;2009-03-14 22:00;CYWG 142200Z 19005KT 15SM FEW250 02/M03 A2971 RMK CI0 SLP072

CYWG;2009-03-14 23:00;CYWG 142300Z 18008KT 15SM FEW250 01/M03 A2971 RMK CI0 SLP074

CYWG;2009-03-15 00:00;CYWG 150000Z 18007KT 15SM FEW250 M00/M03 A2972 RMK CI0 SLP077

CYWG;2009-03-15 01:00;CYWG 150100Z 17002KT 15SM FEW070 M01/M03 A2972 RMK AC1 SLP079

CYWG;2009-03-15 02:00;CYWG 150200Z 19005KT 15SM FEW070 M02/M03 A2972 RMK AC1 SLP079

CYWG;2009-03-15 03:00;CYWG 150300Z 19007KT 15SM SKC M02/M03 A2972 RMK SLP079

CYWG;2009-03-15 04:00;CYWG 150400Z 17002KT 15SM SKC M03/M03 A2972 RMK SLP079

CYWG;2009-03-15 05:00;CYWG 150500Z 16004KT 15SM SKC M04/M04 A2972 RMK SLP078

CYWG;2009-03-15 06:00;CYWG 150600Z 16004KT 15SM SKC M05/M05 A2972 RMK SLP079

CYWG;2009-03-15 07:00;CYWG 150700Z 13005KT 15SM SKC M06/M06 A2972 RMK SLP077

CYWG;2009-03-15 08:00;CYWG 150800Z 10004KT 15SM SKC M06/M06 A2972 RMK SLP078

CYWG;2009-03-15 09:00;CYWG 150900Z 14005KT 10SM SKC M07/M07 A2971 RMK SLP075

CYWG;2009-03-15 10:00;CYWG 151000Z 15003KT 10SM SKC M06/M06 A2971 RMK SLP075

CYWG;2009-03-15 11:00;CYWG 151100Z 13003KT 15SM SKC M07/M07 A2971 RMK SLP074

CYWG;2009-03-15 11:09;CYWG 151109Z 12005KT 6SM BR FEW003 M07/ RMK SF2

CYWG;2009-03-15 12:00;CYWG 151200Z 12004KT 6SM BR FEW003 M08/M08 A2971 RMK SF2 SLP075

CYWG;2009-03-15 12:24;CYWG 151224Z 11003KT 2SM BR FEW003 SCT250 M07/ RMK SF2CI0

CYWG;2009-03-15 13:00;CYWG 151300Z 11005KT 2SM BR FEW003 BKN250 M07/M07 A2971 RMK SF2CI1 VIS N 1 SLP075

CYWG;2009-03-15 14:00;CYWG 151400Z 11005KT 2SM BR FEW003 BKN250 M07/M07 A2970 RMK SF2CI0 VIS N 1 SLP071

CYWG;2009-03-15 14:54;CYWG 151454Z 15004KT 5SM BR BKN250 M03/ RMK CI2

CYWG;2009-03-15 15:00;CYWG 151500Z 15004KT 5SM BR BKN250 M03/M03 A2971 RMK CI2 SLP074

CYWG;2009-03-15 16:00;CYWG 151600Z 12007KT 10SM BKN250 M01/M03 A2969 RMK CI3 HZ SLP068

CYWG;2009-03-15 17:00;CYWG 151700Z 13009KT 12SM BKN250 00/M02 A2969 RMK CI3 SLP067

CYWG;2009-03-15 18:00;CYWG 151800Z 14007KT 15SM BKN250 02/M00 A2967 RMK CI2 SLP061

CYWG;2009-03-15 19:00;CYWG 151900Z 14010KT 15SM BKN250 04/00 A2967 RMK CI4 SLP058

CYWG;2009-03-15 20:00;CYWG 152000Z 15014KT 15SM BKN250 05/M00 A2964 RMK CI4 SLP050

CYWG;2009-03-15 21:00;CYWG 152100Z 14014G19KT 15SM BKN250 06/M00 A2961 RMK CI4 SLP038

CYWG;2009-03-15 22:00;CYWG 152200Z 16015G20KT 15SM BKN250 06/M00 A2960 RMK CI4 SLP035

CYWG;2009-03-15 23:00;CYWG 152300Z 16012KT 15SM BKN250 05/00 A2961 RMK CI3 SLP038

CYWG;2009-03-16 00:00;CYWG 160000Z 18016KT 15SM SCT080 BKN250 06/01 A2961 RMK AC3CI2 SLP040

CYWG;2009-03-16 01:00;CYWG 160100Z 18013KT 15SM SCT080 BKN250 04/01 A2960 RMK AC4CI2 SLP036

CYWG;2009-03-16 02:00;CYWG 160200Z 19011KT 15SM SCT090 BKN250 03/01 A2960 RMK AC3CI2 SLP035

CYWG;2009-03-16 03:00;CYWG 160300Z 20012KT 15SM SCT090 BKN250 03/02 A2960 RMK AC3CI2 SLP036

CYWG;2009-03-16 04:00;CYWG 160400Z 20011KT 15SM SCT090 02/01 A2961 RMK AC2 SLP038

CYWG;2009-03-16 05:00;CYWG 160500Z 21008KT 15SM SCT240 01/01 A2962 RMK CI1 SLP041

CYWG;2009-03-16 06:00;CYWG 160600Z 23009KT 15SM SKC 00/M00 A2964 RMK SLP048

CYWG;2009-03-16 07:00;CYWG 160700Z 24007KT 15SM SKC M01/M01 A2967 RMK SLP056

CYWG;2009-03-16 08:00;CYWG 160800Z 26007KT 15SM SKC M02/M03 A2970 RMK SLP068

CYWG;2009-03-16 09:00;CYWG 160900Z 26005KT 15SM SKC M04/M04 A2971 RMK SLP071

CYWG;2009-03-16 10:00;CYWG 161000Z 22005KT 15SM SKC M04/M04 A2971 RMK SLP072

CYWG;2009-03-16 11:00;CYWG 161100Z 18006KT 4SM BR FEW093 M05/M05 A2971 RMK AC1 SLP072

CYWG;2009-03-16 12:00;CYWG 161200Z 18006KT 4SM BR FEW093 BKN240 M04/M05 A2972 RMK AC2CI1 FROIN SLP076

CYWG;2009-03-16 13:00;CYWG 161300Z 18009KT 6SM BR FEW040 SCT089 BKN240 M03/M04 A2972 RMK SC1AC2CI1 SLP075

CYWG;2009-03-16 14:00;CYWG 161400Z 18014KT 15SM FEW040 FEW089 BKN240 M01/M02 A2971 RMK SC1AC1CI2 SLP073

CYWG;2009-03-16 15:00;CYWG 161500Z 18016G21KT 15SM FEW040 BKN100 BKN240 02/M01 A2970 RMK SC2AC4CI0 SLP070

CYWG;2009-03-16 16:00;CYWG 161600Z 18017KT 15SM FEW100 SCT140 BKN240 03/M00 A2969 RMK AC1AC2CI1 SLP065

CYWG;2009-03-16 17:00;CYWG 161700Z 20016G21KT 15SM BKN090 BKN140 BKN240 04/M00 A2969 RMK AC5AC1CI1 SLP066

CYWG;2009-03-16 18:00;CYWG 161800Z 20018KT 15SM FEW030 BKN073 BKN240 04/M00 A2969 RMK SC2AC2CI0 SLP066

CYWG;2009-03-16 19:00;CYWG 161900Z 21015G20KT 15SM FEW073 SCT093 BKN210 06/M00 A2970 RMK AC2AC2CI2 SLP070

CYWG;2009-03-16 20:00;CYWG 162000Z 22016KT 15SM BKN093 BKN210 06/00 A2972 RMK AC5CI1 SLP074

CYWG;2009-03-16 21:00;CYWG 162100Z 22012KT 15SM FEW093 BKN210 06/01 A2974 RMK AC1CI2 SLP080

CYWG;2009-03-16 22:00;CYWG 162200Z 23010KT 15SM BKN098 BKN210 06/00 A2974 RMK AC6CI1 SLP083

CYWG;2009-03-16 23:00;CYWG 162300Z 20012KT 15SM SCT086 BKN210 05/01 A2974 RMK AC3CI2 SLP080

CYWG;2009-03-17 00:00;CYWG 170000Z 23011KT 15SM SCT086 BKN210 05/M01 A2977 RMK AC3CI2 SLP093

CYWG;2009-03-17 01:00;CYWG 170100Z 23011KT 15SM FEW086 BKN210 04/M01 A2978 RMK AC2CI1 SLP097

CYWG;2009-03-17 02:00;CYWG 170200Z 24009KT 15SM FEW086 BKN210 03/M02 A2978 RMK AC2CI1 SLP095

CYWG;2009-03-17 03:00;CYWG 170300Z 23014KT 15SM SCT090 BKN240 04/M02 A2978 RMK AC2CI0 SLP094

CYWG;2009-03-17 04:00;CYWG 170400Z 24014KT 15SM BKN087 04/M02 A2979 RMK AC6 SLP099

CYWG;2009-03-17 05:00;CYWG 170500Z 25009KT 15SM BKN079 03/M01 A2978 RMK AC6 SLP096

CYWG;2009-03-17 06:00;CYWG 170600Z 25008KT 15SM OVC075 03/M01 A2983 RMK AC8 SLP113

CYWG;2009-03-17 07:00;CYWG 170700Z 28006KT 15SM OVC055 02/M00 A2985 RMK SC8 SLP117

CYWG;2009-03-17 08:00;CYWG 170800Z 27007KT 15SM OVC058 02/M00 A2986 RMK SC8 SLP120

CYWG;2009-03-17 09:00;CYWG 170900Z 28009KT 15SM BKN061 02/M00 A2983 RMK SC7 SLP113

CYWG;2009-03-17 10:00;CYWG 171000Z 28012KT 15SM SKC 01/M02 A2983 RMK SLP113

CYWG;2009-03-17 11:00;CYWG 171100Z 28010KT 15SM SKC M01/M03 A2985 RMK SLP118

CYWG;2009-03-17 12:00;CYWG 171200Z 29007KT 15SM FEW050 M03/M05 A2986 RMK SC1 SLP123

CYWG;2009-03-17 13:00;CYWG 171300Z 30009KT 15SM FEW050 FEW230 M04/M06 A2988 RMK SC1CI0 SLP130

CYWG;2009-03-17 14:00;CYWG 171400Z 30010KT 15SM FEW230 M05/M07 A2992 RMK CI1 SLP143

CYWG;2009-03-17 15:00;CYWG 171500Z 30012KT 15SM FEW230 M04/M08 A2994 RMK CI1 SLP151

CYWG;2009-03-17 16:00;CYWG 171600Z 31012KT 15SM SKC M04/M07 A2996 RMK SLP158

CYWG;2009-03-17 17:00;CYWG 171700Z 31010KT 15SM SKC M04/M07 A2997 RMK SLP160

CYWG;2009-03-17 18:00;CYWG 171800Z 30012KT 15SM SKC M03/M06 A2998 RMK SLP165

CYWG;2009-03-17 19:00;CYWG 171900Z 28012KT 15SM SKC M02/M07 A2999 RMK SLP167

CYWG;2009-03-17 20:00;CYWG 172000Z 27015KT 15SM SKC M01/M07 A2998 RMK SLP164

CYWG;2009-03-17 21:00;CYWG 172100Z 28016KT 15SM SKC M01/M07 A2998 RMK SLP163

CYWG;2009-03-17 22:00;CYWG 172200Z 29016G21KT 15SM SKC M01/M07 A2998 RMK SLP165

CYWG;2009-03-17 23:00;CYWG 172300Z 28019KT 15SM SKC M02/M07 A2998 RMK SLP165

CYWG;2009-03-18 00:00;CYWG 180000Z 28012KT 15SM SKC M02/M07 A2999 RMK SLP171

CYWG;2009-03-18 01:00;CYWG 180100Z 28011KT 15SM SKC M04/M07 A3000 RMK SLP174

CYWG;2009-03-18 02:00;CYWG 180200Z 28011KT 15SM SKC M04/M07 A3002 RMK SLP179

CYWG;2009-03-18 03:00;CYWG 180300Z 29012KT 15SM SKC M04/M08 A3003 RMK SLP186

CYWG;2009-03-18 04:00;CYWG 180400Z 29012KT 15SM SKC M05/M08 A3005 RMK SLP192

CYWG;2009-03-18 05:00;CYWG 180500Z 31014KT 15SM SKC M06/M09 A3007 RMK SLP198

CYWG;2009-03-18 06:00;CYWG 180600Z 32009KT 15SM SKC M07/M09 A3008 RMK SLP203

CYWG;2009-03-18 07:00;CYWG 180700Z 31011KT 15SM SKC M08/M11 A3011 RMK SLP211

CYWG;2009-03-18 08:00;CYWG 180800Z 32011KT 15SM SKC M09/M12 A3014 RMK SLP221

CYWG;2009-03-18 09:00;CYWG 180900Z 32010KT 15SM SKC M10/M13 A3015 RMK SLP226

CYWG;2009-03-18 10:00;CYWG 181000Z 04006KT 15SM SKC M12/M14 A3017 RMK SLP233

CYWG;2009-03-18 11:00;CYWG 181100Z 33002KT 15SM SKC M12/M14 A3020 RMK SLP243

CYWG;2009-03-18 12:00;CYWG 181200Z 33007KT 15SM FEW090 FEW230 M12/M14 A3024 RMK AC1CI0 SLP258

CYWG;2009-03-18 13:00;CYWG 181300Z 32007KT 15SM FEW090 M13/M15 A3026 RMK AC1 SLP265

CYWG;2009-03-18 14:00;CYWG 181400Z 32010KT 15SM FEW095 M13/M15 A3029 RMK AC1 SLP273

CYWG;2009-03-18 15:00;CYWG 181500Z 33015KT 15SM FEW095 M12/M15 A3032 RMK AC1 SLP284

CYWG;2009-03-18 16:00;CYWG 181600Z 33015KT 15SM FEW020 M12/M15 A3034 RMK CF1 SLP291

CYWG;2009-03-18 17:00;CYWG 181700Z 31015KT 15SM FEW025 M11/M15 A3035 RMK CU1 SLP296

CYWG;2009-03-18 18:00;CYWG 181800Z 32017KT 15SM FEW025 M11/M15 A3036 RMK CU1 SLP301

CYWG;2009-03-18 19:00;CYWG 181900Z 32016KT 15SM FEW025 M11/M15 A3037 RMK SC1 SLP304

CYWG;2009-03-18 20:00;CYWG 182000Z 32015G24KT 15SM FEW025 M11/M15 A3038 RMK SC1 SLP306

CYWG;2009-03-18 21:00;CYWG 182100Z 32017KT 15SM FEW025 M10/M15 A3038 RMK SC1 SLP309

CYWG;2009-03-18 22:00;CYWG 182200Z 32015KT 15SM FEW035 M10/M15 A3040 RMK SC1 SLP314

CYWG;2009-03-18 23:00;CYWG 182300Z 33015KT 15SM FEW025 FEW098 M10/M15 A3041 RMK SC1AC1 SLP318

CYWG;2009-03-19 00:00;CYWG 190000Z 32011KT 15SM SKC M10/M15 A3042 RMK SLP322

CYWG;2009-03-19 01:00;CYWG 190100Z 32008KT 15SM SKC M11/M15 A3043 RMK SLP326

CYWG;2009-03-19 02:00;CYWG 190200Z 31007KT 15SM SKC M12/M15 A3044 RMK SLP329

CYWG;2009-03-19 03:00;CYWG 190300Z 32006KT 15SM SKC M12/M15 A3045 RMK SLP332

CYWG;2009-03-19 04:00;CYWG 190400Z 28005KT 15SM SKC M13/M15 A3045 RMK SLP335

CYWG;2009-03-19 05:00;CYWG 190500Z 31005KT 15SM SKC M14/M15 A3046 RMK SLP338

CYWG;2009-03-19 06:00;CYWG 190600Z 30003KT 15SM SKC M14/M15 A3048 RMK SLP342

CYWG;2009-03-19 07:00;CYWG 190700Z 27003KT 15SM SKC M15/M16 A3048 RMK SLP345

CYWG;2009-03-19 08:00;CYWG 190800Z 28003KT 15SM SKC M15/M16 A3049 RMK SLP348

CYWG;2009-03-19 09:00;CYWG 190900Z 31003KT 15SM SKC M15/M16 A3050 RMK SLP350

CYWG;2009-03-19 10:00;CYWG 191000Z 34002KT 15SM SKC M16/M16 A3049 RMK SLP349

CYWG;2009-03-19 11:00;CYWG 191100Z 00000KT 15SM SKC M15/M16 A3050 RMK SLP351

CYWG;2009-03-19 12:00;CYWG 191200Z 00000KT 15SM FEW260 M15/M16 A3051 RMK CI1 SLP356

CYWG;2009-03-19 13:00;CYWG 191300Z 18003KT 15SM FEW260 M15/M16 A3051 RMK CI1 SLP355

CYWG;2009-03-19 14:00;CYWG 191400Z 18005KT 15SM SKC M13/M15 A3050 RMK SLP352

CYWG;2009-03-19 15:00;CYWG 191500Z 20007KT 15SM SKC M10/M15 A3050 RMK SLP349

CYWG;2009-03-19 16:00;CYWG 191600Z 20010KT 15SM SKC M09/M15 A3049 RMK SLP348

CYWG;2009-03-19 17:00;CYWG 191700Z 18013KT 15SM SKC M08/M13 A3048 RMK SLP342

CYWG;2009-03-19 18:00;CYWG 191800Z 21011KT 15SM SKC M07/M13 A3046 RMK SLP336

CYWG;2009-03-19 19:00;CYWG 191900Z 18011KT 15SM FEW210 M06/M11 A3043 RMK CI0 SLP327

CYWG;2009-03-19 20:00;CYWG 192000Z 18013KT 15SM FEW210 M05/M10 A3041 RMK CI0 SLP319

CYWG;2009-03-19 21:00;CYWG 192100Z 18015KT 15SM FEW210 M05/M09 A3039 RMK CI0 SLP313

CYWG;2009-03-19 22:00;CYWG 192200Z 19015G21KT 15SM FEW210 M04/M09 A3037 RMK CI1 SLP306

CYWG;2009-03-19 23:00;CYWG 192300Z 19015KT 15SM SCT210 M05/M08 A3035 RMK CI2 SLP300

CYWG;2009-03-20 00:00;CYWG 200000Z 18016KT 15SM BKN210 M05/M09 A3032 RMK CI3 SLP287

CYWG;2009-03-20 01:00;CYWG 200100Z 18013KT 15SM BKN210 M05/M09 A3029 RMK CI3 SLP279

CYWG;2009-03-20 02:00;CYWG 200200Z 18011KT 15SM BKN210 M05/M08 A3028 RMK CI2 SLP275

CYWG;2009-03-20 03:00;CYWG 200300Z 17012KT 15SM FEW080 FEW210 M05/M08 A3026 RMK AC1CI0 SLP265

CYWG;2009-03-20 04:00;CYWG 200400Z 16012KT 15SM FEW080 M05/M08 A3023 RMK AC1 SLP256

CYWG;2009-03-20 05:00;CYWG 200500Z 18013KT 15SM SCT080 M05/M08 A3021 RMK AC2 SLP248

CYWG;2009-03-20 06:00;CYWG 200600Z 18014KT 15SM BKN080 M05/M07 A3018 RMK AC3 SLP237

CYWG;2009-03-20 07:00;CYWG 200700Z 18013KT 15SM SCT080 M04/M07 A3016 RMK AC2 SLP231

CYWG;2009-03-20 08:00;CYWG 200800Z 18015KT 15SM SCT070 BKN210 M04/M07 A3013 RMK AC2CI0 SLP221

CYWG;2009-03-20 09:00;CYWG 200900Z 18013KT 15SM FEW070 BKN210 M04/M06 A3010 RMK AC1CI0 SLP210

CYWG;2009-03-20 10:00;CYWG 201000Z 18015KT 15SM SCT060 BKN090 M03/M06 A3008 RMK SC2AC2 SLP201

CYWG;2009-03-20 11:00;CYWG 201100Z 18014KT 15SM BKN051 BKN095 M02/M05 A3005 RMK SC5AC2 SLP193

CYWG;2009-03-20 12:00;CYWG 201200Z 18016KT 15SM BKN051 BKN094 M01/M04 A3004 RMK SC5AC2 SLP186

CYWG;2009-03-20 13:00;CYWG 201300Z 17014KT 15SM BKN053 OVC094 M00/M03 A3002 RMK SC6AC2 SLP181

CYWG;2009-03-20 14:00;CYWG 201400Z 18014G20KT 15SM OVC053 00/M02 A3000 RMK SC8 SLP175

CYWG;2009-03-20 14:31;CYWG 201431Z 18014KT 15SM -SHRA BKN055 OVC092 01/ RMK SC5AC2

CYWG;2009-03-20 15:00;CYWG 201500Z 18016KT 15SM -SHRA BKN057 OVC098 01/M02 A3001 RMK SC6AC2 SLP175

CYWG;2009-03-20 16:00;CYWG 201600Z 20015KT 15SM -SHRA BKN059 OVC094 02/M01 A3000 RMK SC6AC2 SLP173

CYWG;2009-03-20 17:00;CYWG 201700Z 20011G17KT 15SM -SHRA SCT022 OVC062 01/00 A3000 RMK SC4SC4 SLP173

CYWG;2009-03-20 18:00;CYWG 201800Z 20010G16KT 15SM -SHRA FEW013 BKN026 OVC063 03/01 A3000 RMK CF2SC3SC1 SLP171

CYWG;2009-03-20 18:09;CYWG 201809Z 21013KT 15SM FEW013 BKN026 OVC063 02/ RMK CF2SC3SC1

CYWG;2009-03-20 19:00;CYWG 201900Z 20013KT 15SM FEW015 BKN021 OVC094 03/01 A3000 RMK CF2SC3AC2 SLP171

CYWG;2009-03-20 20:00;CYWG 202000Z 20009KT 15SM SCT014 OVC031 03/01 A2999 RMK SC4SC4 SLP168

CYWG;2009-03-20 21:00;CYWG 202100Z 22007KT 15SM OVC019 03/01 A2999 RMK SC8 SLP168

CYWG;2009-03-20 22:00;CYWG 202200Z 28005KT 15SM OVC018 03/01 A3001 RMK SC8 SLP176

CYWG;2009-03-20 23:00;CYWG 202300Z 32004KT 15SM OVC018 01/01 A3003 RMK SC8 SLP181

CYWG;2009-03-21 00:00;CYWG 210000Z 02004KT 15SM OVC018 01/01 A3005 RMK SC8 SLP188

CYWG;2009-03-21 01:00;CYWG 210100Z 00000KT 15SM OVC018 01/01 A3007 RMK SC8 SLP194

CYWG;2009-03-21 02:00;CYWG 210200Z 34004KT 10SM OVC018 01/01 A3009 RMK SC8 BR SLP202

CYWG;2009-03-21 03:00;CYWG 210300Z 35005KT 10SM BKN018 OVC031 01/00 A3010 RMK SC7SC1 BR SLP206

CYWG;2009-03-21 04:00;CYWG 210400Z 05005KT 15SM OVC018 01/00 A3011 RMK SC8 SLP207

CYWG;2009-03-21 05:00;CYWG 210500Z 01006KT 15SM BKN016 01/00 A3014 RMK SC7 SLP217

CYWG;2009-03-21 06:00;CYWG 210600Z 04011KT 15SM FEW011 OVC016 00/M01 A3015 RMK SC2SC6 SLP221

CYWG;2009-03-21 07:00;CYWG 210700Z 04011KT 10SM OVC016 M00/M02 A3016 RMK SC8 BR SLP226

CYWG;2009-03-21 08:00;CYWG 210800Z 04007KT 15SM OVC016 M01/M02 A3019 RMK SC8 SLP233

CYWG;2009-03-21 09:00;CYWG 210900Z 04003KT 15SM OVC016 M01/M02 A3019 RMK SC8 SLP237

CYWG;2009-03-21 10:00;CYWG 211000Z 01004KT 10SM OVC016 M01/M02 A3021 RMK SC8 BR SLP242

CYWG;2009-03-21 11:00;CYWG 211100Z 02009KT 15SM OVC016 M02/M03 A3023 RMK SC8 SLP249

CYWG;2009-03-21 12:00;CYWG 211200Z 05006KT 15SM OVC018 M02/M03 A3024 RMK SC8 SLP254

CYWG;2009-03-21 13:00;CYWG 211300Z 04007KT 10SM OVC018 M02/M03 A3025 RMK SC8 BR SLP258

CYWG;2009-03-21 14:00;CYWG 211400Z 07005KT 15SM OVC020 M01/M02 A3027 RMK SC8 SLP264

CYWG;2009-03-21 15:00;CYWG 211500Z 07006KT 10SM OVC020 M01/M02 A3028 RMK SC8 BR SLP266

CYWG;2009-03-21 16:00;CYWG 211600Z 08005KT 15SM OVC022 01/M01 A3029 RMK SC8 SLP271

CYWG;2009-03-21 17:00;CYWG 211700Z 10005KT 15SM OVC024 02/M00 A3031 RMK SC8 SLP275

CYWG;2009-03-21 18:00;CYWG 211800Z 10011KT 15SM OVC024 03/M00 A3030 RMK SC8 SLP272

CYWG;2009-03-21 19:00;CYWG 211900Z 11009KT 15SM OVC026 04/00 A3029 RMK SC8 SLP269

CYWG;2009-03-21 20:00;CYWG 212000Z 11010KT 15SM BKN026 05/00 A3028 RMK SC7 SLP267

CYWG;2009-03-21 21:00;CYWG 212100Z 14012KT 15SM FEW028 SCT250 06/00 A3027 RMK SC2CI0 SLP263

CYWG;2009-03-21 22:00;CYWG 212200Z 17016KT 15SM FEW028 SCT250 05/00 A3028 RMK SC1CI0 SLP264

CYWG;2009-03-21 23:00;CYWG 212300Z 16014KT 15SM FEW028 BKN250 05/01 A3028 RMK SC1CI0 SLP265

CYWG;2009-03-22 00:00;CYWG 220000Z 16011KT 15SM FEW028 OVC250 04/01 A3029 RMK SC2CI0 SLP269

CYWG;2009-03-22 01:00;CYWG 220100Z 14012KT 15SM BKN027 OVC250 04/01 A3028 RMK SC6CI0 SLP265

CYWG;2009-03-22 02:00;CYWG 220200Z 13008KT 15SM FEW027 BKN090 03/00 A3028 RMK SC2AC2 SLP265

CYWG;2009-03-22 03:00;CYWG 220300Z 14012KT 15SM BKN090 OVC130 04/00 A3026 RMK AC6AC2 SLP260

CYWG;2009-03-22 04:00;CYWG 220400Z 14014KT 15SM BKN085 OVC130 04/00 A3025 RMK AC6AC2 SLP255

CYWG;2009-03-22 05:00;CYWG 220500Z 14013KT 15SM OVC080 03/00 A3024 RMK AC8 SLP253

CYWG;2009-03-22 05:23;CYWG 220523Z 13011KT 9SM -SHRA OVC067 03/ RMK AC8

CYWG;2009-03-22 06:00;CYWG 220600Z 14012KT 9SM -SHRA SCT048 OVC060 03/01 A3024 RMK SC3SC5 SLP250

CYWG;2009-03-22 07:00;CYWG 220700Z 14013KT 15SM BKN073 OVC120 03/01 A3022 RMK AC6AC2 SLP244

CYWG;2009-03-22 07:53;CYWG 220753Z 14015KT 9SM -SHRA OVC070 03/ RMK AC8

CYWG;2009-03-22 08:00;CYWG 220800Z 14013G18KT 9SM -SHRA BKN074 OVC100 03/01 A3022 RMK AC6AC2 SLP244

CYWG;2009-03-22 08:38;CYWG 220838Z 14008KT 15SM BKN061 BKN100 03/ RMK SC6AC2

CYWG;2009-03-22 09:00;CYWG 220900Z 13008KT 15SM FEW019 OVC060 03/01 A3022 RMK SC2SC6 SLP243

CYWG;2009-03-22 10:00;CYWG 221000Z 12011KT 15SM FEW019 SCT028 OVC100 02/01 A3018 RMK SC2SC2AC4 SLP231

CYWG;2009-03-22 11:00;CYWG 221100Z 13013KT 15SM FEW025 FEW120 02/01 A3016 RMK SC2AC1 SLP222

CYWG;2009-03-22 12:00;CYWG 221200Z 13014KT 15SM BKN120 02/01 A3015 RMK AC7 SLP220

CYWG;2009-03-22 13:00;CYWG 221300Z 14015G20KT 15SM BKN120 02/01 A3012 RMK AC7 SLP212

CYWG;2009-03-22 14:00;CYWG 221400Z 12019G26KT 15SM BKN120 OVC220 02/01 A3009 RMK AC6CI2 SLP200

CYWG;2009-03-22 15:00;CYWG 221500Z 13020G26KT 15SM BKN095 OVC220 02/00 A3006 RMK AC6CI2 PRESFR SLP192

CYWG;2009-03-22 16:00;CYWG 221600Z 13019G27KT 15SM SCT095 OVC220 03/00 A3003 RMK AC4CI2 SLP181

CYWG;2009-03-22 17:00;CYWG 221700Z 13020G27KT 15SM SCT087 OVC220 04/00 A3003 RMK AC4CI3 SLP179

CYWG;2009-03-22 18:00;CYWG 221800Z 13019G27KT 15SM SCT058 BKN120 OVC220 05/01 A3000 RMK SC3AC2CI2 SLP170

CYWG;2009-03-22 19:00;CYWG 221900Z 13020G27KT 15SM SCT058 BKN120 OVC240 05/01 A2998 RMK SC3AC2CI2 SLP162

CYWG;2009-03-22 20:00;CYWG 222000Z 13023G30KT 15SM FEW055 BKN120 OVC240 06/01 A2996 RMK SC2AC4CI2 SLP156

CYWG;2009-03-22 21:00;CYWG 222100Z 12029G35KT 15SM FEW055 BKN120 OVC240 06/01 A2991 RMK SC2AC3CI3 SLP137

CYWG;2009-03-22 22:00;CYWG 222200Z 12024G31KT 15SM FEW055 SCT084 OVC220 07/01 A2988 RMK SC2AC2CI3 SLP127

CYWG;2009-03-22 23:00;CYWG 222300Z 13027G33KT 15SM SCT045 BKN085 OVC220 07/00 A2986 RMK SC3AC2CI2 SLP121

CYWG;2009-03-23 00:00;CYWG 230000Z 13026G35KT 15SM BKN038 OVC085 07/M00 A2986 RMK SC6AC2 SLP121

CYWG;2009-03-23 00:21;CYWG 230021Z 14022G33KT 15SM -SHRA BKN038 OVC092 06/ RMK SC6AC2 ACC EMBD

CYWG;2009-03-23 01:00;CYWG 230100Z CCA 13023G28KT 6SM -SHRA BR BKN033 OVC090 04/01 A2986 RMK SC6AC2 CVCTV CLD EMBD RESHRA SLP122

CYWG;2009-03-23 02:00;CYWG 230200Z 13022G30KT 8SM -SHRA OVC036 04/01 A2985 RMK SC8 CVCTV CLD EMBD RESHRA SLP119

CYWG;2009-03-23 03:00;CYWG 230300Z 14023G30KT 15SM -SHRA OVC040 04/01 A2985 RMK SC8 CVCTV CLD EMBD SLP117

CYWG;2009-03-23 04:00;CYWG 230400Z 13021G28KT 6SM -SHRA OVC034 03/02 A2983 RMK SC8 CVCTV CLD EMBD SLP112

CYWG;2009-03-23 05:00;CYWG 230500Z 14019G27KT 6SM -SHRA OVC028 02/02 A2982 RMK SC8 CVCTV CLD EMBD SLP107

CYWG;2009-03-23 05:32;CYWG 230532Z 14022G28KT 6SM -SHRA BKN013 OVC020 02/ RMK ST5SC3

CYWG;2009-03-23 06:00;CYWG 230600Z 14021G27KT 6SM -SHRA OVC019 02/02 A2980 RMK SC8 CVCTV CLD EMBD SLP103

CYWG;2009-03-23 07:00;CYWG 230700Z 14019G28KT 6SM -RA OVC015 02/02 A2978 RMK SC8 SLP096

CYWG;2009-03-23 07:30;CYWG 230730Z 15017G22KT 2SM -RA BR OVC013 02/ RMK ST8

CYWG;2009-03-23 07:48;CYWG 230748Z 14019KT 2SM -RA BR OVC009 02/ RMK ST8

CYWG;2009-03-23 08:00;CYWG 230800Z 14019G25KT 2SM -RA BR OVC007 02/02 A2976 RMK ST8 SLP089

CYWG;2009-03-23 08:21;CYWG 230821Z 14018G25KT 2SM -DZ BR OVC009 02/ RMK ST8

CYWG;2009-03-23 09:00;CYWG 230900Z 14019G25KT 2SM -DZ BR OVC008 02/02 A2974 RMK ST8 SLP079

CYWG;2009-03-23 10:00;CYWG 231000Z 14020KT 2SM -DZ BR OVC006 02/02 A2973 RMK ST8 SLP076

CYWG;2009-03-23 11:00;CYWG 231100Z 14016G25KT 10SM OVC006 02/02 A2971 RMK ST8 BR SLP072

CYWG;2009-03-23 12:00;CYWG 231200Z 15019KT 10SM -DZ OVC008 03/03 A2972 RMK ST8 BR SLP073

CYWG;2009-03-23 12:32;CYWG 231232Z 15017G22KT 3SM -DZ BR OVC009 03/ RMK ST8

CYWG;2009-03-23 13:00;CYWG 231300Z 15018G25KT 2 1/2SM -DZ BR OVC008 03/03 A2971 RMK ST8 SLP069

CYWG;2009-03-23 14:00;CYWG 231400Z 16018KT 3SM -DZ BR OVC007 03/03 A2970 RMK ST8 CIG RAG SLP067

CYWG;2009-03-23 14:25;CYWG 231425Z 16018G24KT 5SM -DZ BR OVC006 03/ RMK ST8 CIG RAG

CYWG;2009-03-23 15:00;CYWG 231500Z 16016G21KT 6SM -DZ BR OVC007 03/03 A2971 RMK ST8 CIG RAG SLP070

CYWG;2009-03-23 15:39;CYWG 231539Z 16017KT 2SM -DZ BR OVC006 03/ RMK ST8

CYWG;2009-03-23 16:00;CYWG 231600Z 16015KT 2SM -DZ BR OVC006 03/03 A2972 RMK ST8 SLP073

CYWG;2009-03-23 17:00;CYWG 231700Z 16015KT 2SM -DZ BR OVC005 04/04 A2972 RMK ST8 SLP074

CYWG;2009-03-23 18:00;CYWG 231800Z 16010KT 4SM -DZ BR OVC005 04/04 A2973 RMK ST8 CIG RAG SLP076

CYWG;2009-03-23 19:00;CYWG 231900Z 17009KT 3SM -DZ BR OVC004 04/04 A2973 RMK ST8 SLP077

CYWG;2009-03-23 19:33;CYWG 231933Z 17006KT 2SM -DZ BR OVC004 04/ RMK ST8 CIG RAG

CYWG;2009-03-23 19:56;CYWG 231956Z 23003KT 1 1/2SM -DZ BR OVC002 04/ RMK ST8

CYWG;2009-03-23 20:00;CYWG 232000Z 25003KT 1 1/2SM -DZ BR OVC002 04/04 A2974 RMK ST8 SLP080

CYWG;2009-03-23 21:00;CYWG 232100Z 00000KT 1 1/2SM -DZ BR OVC002 03/03 A2973 RMK ST8 SLP078

CYWG;2009-03-23 21:09;CYWG 232109Z 17003KT 1 1/2SM -DZ BR OVC003 04/ RMK ST8

CYWG;2009-03-23 22:00;CYWG 232200Z 15003KT 1 1/4SM -DZ BR OVC002 04/04 A2973 RMK ST8 SLP077

CYWG;2009-03-23 22:23;CYWG 232223Z 17004KT 3/4SM R31/P6000FT/N R36/P6000FT/N -DZ BR OVC002 04/ RMK ST8

CYWG;2009-03-23 22:38;CYWG 232238Z 19003KT 1SM R31/P6000FT/U R36/P6000FT/D -DZ BR OVC002 04/ RMK ST8

CYWG;2009-03-23 22:52;CYWG 232252Z 00000KT 3/4SM R31/P6000FT/N R36/5500FT/D -DZ BR OVC002 04/ RMK ST8

CYWG;2009-03-23 23:00;CYWG 232300Z 00000KT 3/4SM R31/P6000FT/D R36/4500VP6000FT/U -DZ BR OVC002 04/04 A2975 RMK ST8 SLP085

CYWG;2009-03-23 23:52;CYWG 232352Z 30003KT 1/2SM R31/4000V6000FT/D R36/4500VP6000FT/U -DZ FG VV001 03/ RMK FG8

CYWG;2009-03-24 00:00;CYWG 240000Z 31003KT 1/2SM R31/2400FT/N R36/6000FT/D -DZ FG VV001 03/03 A2976 RMK FG8 SLP088

CYWG;2009-03-24 01:00;CYWG 240100Z 36004KT 1/2SM R31/5500FT/D R36/4500FT/D -DZ FG VV001 02/02 A2977 RMK FG8 SLP093

CYWG;2009-03-24 02:00;CYWG 240200Z 02005KT 3/4SM R31/6000FT/U R36/3500V4500FT/U -DZ BR OVC002 02/02 A2978 RMK FG4ST4 SLP096

CYWG;2009-03-24 02:49;CYWG 240249Z 03006KT 3/4SM R31/P6000FT/N R36/4000V5500FT/D -DZ BR VV001 02/ RMK FG8

CYWG;2009-03-24 03:00;CYWG 240300Z 04006KT 3/4SM R31/P6000FT/D R36/5000FT/N -DZ BR OVC001 02/02 A2979 RMK ST8 SLP098

CYWG;2009-03-24 04:00;CYWG 240400Z 02005KT 3/4SM R31/P6000FT/N R36/4500FT/N -DZ BR OVC001 01/01 A2979 RMK ST8 SLP098

CYWG;2009-03-24 04:31;CYWG 240431Z 03006KT 3/8SM R31/3500FT/D R36/3500FT/N -DZ FG VV001 01/ RMK FG8

CYWG;2009-03-24 04:56;CYWG 240456Z 02007KT 1/2SM R31/5000FT/D R36/3000FT/N -DZ FG VV001 01/ RMK FG8

CYWG;2009-03-24 05:00;CYWG 240500Z 02006KT 1/2SM R31/5000FT/N R36/3000V4000FT/N -DZ FG VV001 01/01 A2979 RMK FG8 SLP099

CYWG;2009-03-24 05:31;CYWG 240531Z 03009KT 1SM R31/6000FT/U R36/4500FT/N -RA BR OVC002 02/ RMK ST8

CYWG;2009-03-24 06:00;CYWG 240600Z 03008KT 1SM R31/P6000FT/U R36/P6000FT/U -RA BR OVC002 02/02 A2980 RMK SF8 SLP100

CYWG;2009-03-24 06:10;CYWG 240610Z 03010KT 1 1/2SM -RA BR OVC002 02/ RMK SF8

CYWG;2009-03-24 07:00;CYWG 240700Z 02015KT 2 1/2SM -RA BR OVC002 02/02 A2978 RMK SF8 SLP094

CYWG;2009-03-24 07:45;CYWG 240745Z 02019KT 3SM -RA BR OVC002 01/ RMK SF8

CYWG;2009-03-24 08:00;CYWG 240800Z 03019G24KT 6SM -RA BR OVC003 01/01 A2976 RMK SF8 SLP089

CYWG;2009-03-24 09:00;CYWG 240900Z 04014KT 8SM -RA OVC004 01/01 A2979 RMK SF8 BR SLP098

CYWG;2009-03-24 09:50;CYWG 240950Z 04019G30KT 4SM -RA BR OVC003 01/ RMK SF8

CYWG;2009-03-24 10:00;CYWG 241000Z 04022KT 4SM -RA BR OVC004 01/01 A2976 RMK SF8 SLP089

CYWG;2009-03-24 10:10;CYWG 241010Z 04021G27KT 6SM -RA BR OVC005 01/ RMK SF8

CYWG;2009-03-24 11:00;CYWG 241100Z 03021G28KT 6SM -RA BR OVC004 00/00 A2976 RMK SF8 SLP088

CYWG;2009-03-24 12:00;CYWG 241200Z 03018G26KT 5SM -RAPL BR OVC006 00/00 A2977 RMK SF8 SLP091

CYWG;2009-03-24 13:00;CYWG 241300Z 03018KT 1 1/2SM -SN VV004 00/00 A2977 REPL RMK SN8 SLP091

CYWG;2009-03-24 14:00;CYWG 241400Z 03021G26KT 2SM -PL BR OVC005 M01/M01 A2977 RMK SF8 SLP091

CYWG;2009-03-24 14:06;CYWG 241406Z 03020G26KT 2SM -PLSN BR OVC005 RMK SF8

CYWG;2009-03-24 14:36;CYWG 241436Z 03020G26KT 1 1/2SM -SN BLSN VV006 M01/ RMK SN8

CYWG;2009-03-24 14:42;CYWG 241442Z 03021G26KT 1/2SM R31/3000V5500FT/D R36/3500VP6000FT/D SN BLSN VV003 M01/ RMK SN8

CYWG;2009-03-24 15:00;CYWG 241500Z 02022KT 1 1/2SM -SN BLSN VV002 M02/M02 A2977 RMK SN8 /S02/ SLP091

CYWG;2009-03-24 15:08;CYWG 241508Z 02019G25KT 6SM -SN OVC006 RMK ST8

CYWG;2009-03-24 15:33;CYWG 241533Z 02024KT 10SM OVC007 M02/ RMK ST8 BR

CYWG;2009-03-24 16:00;CYWG 241600Z 02017G28KT 10SM OVC008 M02/M03 A2978 RMK ST8 BR SLP095

CYWG;2009-03-24 17:00;CYWG 241700Z 02019G24KT 10SM OVC008 M03/M03 A2979 RMK ST8 BR SLP100

CYWG;2009-03-24 18:00;CYWG 241800Z 02022G27KT 10SM OVC010 M04/M05 A2978 RMK ST8 BR SLP097

CYWG;2009-03-24 18:28;CYWG 241828Z 02022KT 3SM -FZDZ BR OVC009 M04/ RMK ST8

CYWG;2009-03-24 19:00;CYWG 241900Z 02022G27KT 4SM -FZDZ BR OVC009 M04/M05 A2976 RMK SF8 SLP091

CYWG;2009-03-24 20:00;CYWG 242000Z 02021G26KT 6SM -FZDZ BR OVC008 M04/M05 A2975 RMK SF8 SLP086

CYWG;2009-03-24 20:40;CYWG 242040Z 02019G26KT 6SM BR OVC008 M04/ RMK SF8

CYWG;2009-03-24 20:41;CYWG 242041Z CCA 02019G26KT 6SM BR OVC008 M04/ RMK SF8 REFZDZ

CYWG;2009-03-24 21:00;CYWG 242100Z 03023G30KT 6SM BR OVC008 M04/M05 A2974 RMK SF8 REFZDZ SLP085

CYWG;2009-03-24 22:00;CYWG 242200Z 02022G27KT 8SM OVC008 M04/M05 A2974 RMK SF8 BR SLP083

CYWG;2009-03-24 23:00;CYWG 242300Z 02017G24KT 5SM BR OVC008 M04/M05 A2977 RMK SF8 SLP093

CYWG;2009-03-24 23:19;CYWG 242319Z 01015G24KT 2 1/2SM -FZDZ BR OVC008 M04/ RMK SF8

CYWG;2009-03-25 00:00;CYWG 250000Z 01018G24KT 2 1/2SM -FZDZ BR OVC007 M04/M05 A2977 RMK SF8 SLP093

CYWG;2009-03-25 01:00;CYWG 250100Z 01019G24KT 4SM -FZDZ BR OVC006 M04/M05 A2975 RMK SF8 SLP088

CYWG;2009-03-25 02:00;CYWG 250200Z 02020G27KT 4SM -FZDZ BR OVC006 M04/M05 A2973 RMK SF8 SLP082

CYWG;2009-03-25 03:00;CYWG 250300Z 02023KT 4SM -FZDZ BR OVC006 M05/M05 A2972 RMK ST8 SLP077

CYWG;2009-03-25 04:00;CYWG 250400Z 02023G29KT 2SM -SN -FZDZ OVC006 M05/M05 A2971 RMK ST8 SLP075

CYWG;2009-03-25 05:00;CYWG 250500Z 02022G27KT 4SM -FZDZ OVC007 M05/M06 A2969 RMK ST8 SLP069

CYWG;2009-03-25 05:43;CYWG 250543Z 02023G29KT 2SM -SN -FZDZ OVC007 M06/ RMK ST8

CYWG;2009-03-25 06:00;CYWG 250600Z 02022G31KT 1 1/2SM -SN -FZDZ OVC008 M06/M07 A2966 RMK SN2ST6 SLP060

CYWG;2009-03-25 06:34;CYWG 250634Z CCA 02022G30KT 2SM -SN DRSN OVC032 M06/ RMK SN2SC6 REFZDZ

CYWG;2009-03-25 07:00;CYWG 250700Z 03026KT 1 1/2SM -SN DRSN SCT009 OVC032 M06/M07 A2964 RMK SF3SC5 SLP053

CYWG;2009-03-25 07:46;CYWG 250746Z 03021G26KT 1SM R31/P6000FT/N R36/P6000FT/U -SN DRSN VV007 M06/ RMK SN8

CYWG;2009-03-25 08:00;CYWG 250800Z 03024G32KT 1SM R31/P6000FT/N R36/P6000FT/U -SN DRSN VV008 M06/M07 A2962 RMK SN8 SLP046

CYWG;2009-03-25 08:18;CYWG 250818Z 03024G29KT 1/2SM R31/P6000FT/D R36/4500VP6000FT/U SN DRSN VV006 M07/ RMK SN8

CYWG;2009-03-25 09:00;CYWG 250900Z 03021G30KT 1/2SM R31/P6000FT/N R36/P6000FT/N SN DRSN VV005 M07/M08 A2959 RMK SN8 SLP035

CYWG;2009-03-25 09:44;CYWG 250944Z 02025G31KT 2SM -SN DRSN OVC043 M07/ RMK SC8

CYWG;2009-03-25 09:53;CYWG 250953Z 02022G28KT 2SM -SN DRSN OVC012 M07/ RMK ST8

CYWG;2009-03-25 10:00;CYWG 251000Z 03025KT 15SM -SN DRSN OVC012 M07/M08 A2957 RMK ST8 SLP030

CYWG;2009-03-25 10:07;CYWG 251007Z 03025KT 3/4SM R31/P6000FT/D R36/P6000FT/D -SN DRSN VV006 M07/ RMK SN8

CYWG;2009-03-25 10:36;CYWG 251036Z 03020G28KT 3/4SM R31/P6000FT/U R36/3500VP6000FT/U -SN BLSN VV004 M07/ RMK SN8

CYWG;2009-03-25 11:00;CYWG 251100Z 03026KT 3/4SM R31/3500VP6000FT/D R36/3000VP6000FT/N -SN VV004 M08/M08 A2957 RMK SN8 SLP029

CYWG;2009-03-25 12:00;CYWG 251200Z 02024KT 3/4SM R31/2600V6000FT/N R36/2600V5000FT/U -SN BLSN VV003 M08/M09 A2957 RMK SN8 SLP028

CYWG;2009-03-25 12:15;CYWG 251215Z 02023KT 1/2SM R31/4000FT/N R36/4500FT/D -SN BLSN VV003 RMK SN8

CYWG;2009-03-25 13:00;CYWG 251300Z 01019G28KT 1/2SM R31/3000FT/N R36/3500FT/N -SN BLSN VV003 M08/M09 A2956 RMK SN8 SLP025

CYWG;2009-03-25 13:47;CYWG 251347Z 01021KT 3/4SM R31/5000FT/U R36/5000FT/U -SN BLSN VV003 M08/ RMK SN8

CYWG;2009-03-25 14:00;CYWG 251400Z 01021G26KT 3/4SM R31/5000FT/N R36/5500FT/N -SN BLSN VV004 M08/M09 A2955 RMK SN8 SLP023

CYWG;2009-03-25 14:23;CYWG 251423Z 01019G25KT 1/2SM R31/3500FT/U R36/3500V5000FT/U -SN BLSN VV003 M08/ RMK SN8

CYWG;2009-03-25 14:44;CYWG 251444Z 01017G25KT 3/4SM R31/4500FT/N R36/5000FT/N -SN BLSN VV004 M08/ RMK SN8

CYWG;2009-03-25 15:00;CYWG 251500Z 01018G24KT 3/4SM R31/4500FT/D R36/4500FT/D -SN BLSN VV004 M08/M09 A2955 RMK SN8 SLP023

CYWG;2009-03-25 15:29;CYWG 251529Z 01019G24KT 1SM R31/4000FT/N R36/5500FT/N -SN BLSN OVC090 M09/ RMK SN6AC2

CYWG;2009-03-25 16:00;CYWG 251600Z 36019G24KT 1SM R31/6000FT/U R36/P6000FT/U -SN BLSN OVC090 M09/M10 A2954 RMK SN5AC3 SLP021

CYWG;2009-03-25 16:42;CYWG 251642Z 01019G26KT 2 1/2SM -SN BLSN BKN011 OVC090 M09/ RMK SN3SC3AC2

CYWG;2009-03-25 17:00;CYWG 251700Z 36019G25KT 4SM -SN BLSN BKN011 OVC070 M08/M11 A2955 RMK SC6AC2 SLP022

CYWG;2009-03-25 18:00;CYWG 251800Z 36019G24KT 6SM -SN BLSN SCT016 BKN031 OVC070 M08/M11 A2956 RMK SC3SC3AC2 SLP025

CYWG;2009-03-25 18:26;CYWG 251826Z 01018KT 1 1/2SM R31/5500FT/N R36/4500VP6000FT/D -SN BLSN OVC035 M09/ RMK SN4SC4

CYWG;2009-03-25 19:00;CYWG 251900Z 36017KT 1 3/4SM -SN BLSN OVC025 M08/M09 A2956 RMK SN6SC2 SUN DMLY VISBL SLP026

CYWG;2009-03-25 19:29;CYWG 251929Z 01016G22KT 1SM R31/3000VP6000FT/D R36/4000VP6000FT/D -SN BLSN OVC026 M08/ RMK SN6SC2

CYWG;2009-03-25 20:00;CYWG 252000Z 36016KT 1SM R31/5000FT/N R36/3500VP6000FT/N -SN BLSN OVC026 M08/M09 A2957 RMK SN7SC1 SUN DMLY VISBL SLP029

CYWG;2009-03-25 20:10;CYWG 252010Z 36019KT 3/4SM R31/3000V5500FT/D R36/5000FT/D -SN BLSN VV003 M08/ RMK SN8

CYWG;2009-03-25 20:11;CYWG 252011Z CCA 36019KT 3/4SM R31/3000V5000FT/D R36/5000FT/D -SN BLSN VV004 M08/ RMK SN8

CYWG;2009-03-25 20:17;CYWG 252017Z 01017KT 3/4SM R31/2800FT/N R36/5000FT/N -SN BLSN VV002 M08/ RMK SN8

CYWG;2009-03-25 20:32;CYWG 252032Z 35017KT 1 3/4SM -SN BLSN VV002 M08/ RMK SN8

CYWG;2009-03-25 20:45;CYWG 252045Z 35020KT 1 3/4SM -SN BLSN VV007 M08/ RMK SN8

CYWG;2009-03-25 21:00;CYWG 252100Z 35015G21KT 1 3/4SM R31/3000VP6000FT/U -SN BLSN VV008 M08/M09 A2958 RMK SN8 SLP034

CYWG;2009-03-25 21:48;CYWG 252148Z 36018KT 1SM R31/4000V5500FT/N R36/P6000FT/U -SN BLSN VV008 M08/ RMK SN8

CYWG;2009-03-25 22:00;CYWG 252200Z 36018KT 4SM -SN BLSN VV008 M08/M11 A2960 RMK SN8 SLP039

CYWG;2009-03-25 23:00;CYWG 252300Z 36016KT 2 1/2SM -SN BLSN VV009 M08/M11 A2962 RMK SN8 SLP047

CYWG;2009-03-26 00:00;CYWG 260000Z 35015KT 1 3/4SM -SN BLSN VV011 M09/M11 A2965 RMK SN8 SLP058

CYWG;2009-03-26 00:05;CYWG 260005Z 35015KT 1 3/4SM -SN BLSN VV008 M09/ RMK SN8

CYWG;2009-03-26 01:00;CYWG 260100Z 34014G20KT 1 3/4SM -SN BLSN VV007 M09/M10 A2966 RMK SN8 SLP062

CYWG;2009-03-26 01:27;CYWG 260127Z 34016KT 4SM -SN BLSN OVC007 M09/ RMK SN6SF2

CYWG;2009-03-26 01:38;CYWG 260138Z 34017KT 4SM -SN BLSN OVC011 M09/ RMK SN6SF2

CYWG;2009-03-26 02:00;CYWG 260200Z 35015KT 4SM -SN BLSN BKN010 OVC026 M09/M11 A2967 RMK SF5SC3 SLP066

CYWG;2009-03-26 02:13;CYWG 260213Z 35016KT 1 3/4SM -SN BLSN VV008 M09/ RMK SN8

CYWG;2009-03-26 03:00;CYWG 260300Z 36015G21KT 1 3/4SM -SN BLSN VV009 M10/M11 A2969 RMK SN8 SLP073

CYWG;2009-03-26 03:41;CYWG 260341Z 36016KT 3SM -SN BLSN OVC007 M10/ RMK SN4SF4

CYWG;2009-03-26 04:00;CYWG 260400Z 35014G20KT 3SM -SN DRSN VV011 M10/M12 A2970 RMK SN8 SLP077

CYWG;2009-03-26 04:49;CYWG 260449Z 35015KT 7SM DRSN BKN011 OVC200 M10/ RMK SF5CI2

CYWG;2009-03-26 05:00;CYWG 260500Z 35015KT 6SM -SN DRSN BKN013 OVC200 M10/M12 A2972 RMK SF6CI2 SLP081

CYWG;2009-03-26 05:17;CYWG 260517Z 35014KT 6SM -SN DRSN FEW013 BKN026 OVC200 M10/ RMK SF2SC3CI1

CYWG;2009-03-26 06:00;CYWG 260600Z 35014KT 4SM -SN DRSN OVC024 M10/M11 A2973 RMK SC8 SLP085

CYWG;2009-03-26 07:00;CYWG 260700Z 36015KT 6SM -SN DRSN OVC034 M10/M11 A2974 RMK SC8 SLP089

CYWG;2009-03-26 07:26;CYWG 260726Z 36013KT 3SM -SN DRSN OVC014 M09/ RMK SN4SC4

CYWG;2009-03-26 08:00;CYWG 260800Z 36014KT 2SM -SN DRSN VV012 M10/M11 A2975 RMK SN8 SLP093

CYWG;2009-03-26 09:00;CYWG 260900Z 36014KT 1 1/2SM -SN DRSN VV012 M09/M11 A2977 RMK SN8 SLP099

CYWG;2009-03-26 09:22;CYWG 260922Z 36012G17KT 1 1/2SM -SN DRSN VV009 M09/ RMK SN8

CYWG;2009-03-26 09:46;CYWG 260946Z 36014KT 4SM -SN DRSN VV009 M09/ RMK SN8

CYWG;2009-03-26 10:00;CYWG 261000Z 01017KT 3SM -SN DRSN VV011 M09/M11 A2979 RMK SN8 SLP105

CYWG;2009-03-26 10:17;CYWG 261017Z 01015KT 1 1/2SM -SN VV012 M09/ RMK SN8

CYWG;2009-03-26 10:26;CYWG 261026Z 36015KT 1 1/2SM -SN DRSN VV009 M09/ RMK SN8

CYWG;2009-03-26 11:00;CYWG 261100Z 36015KT 3SM -SN DRSN SCT009 OVC015 M09/M11 A2981 RMK SF4SC4 SLP113

CYWG;2009-03-26 12:00;CYWG 261200Z 01016KT 2SM -SN DRSN SCT012 OVC030 M09/M11 A2984 RMK SC4SC4 SLP122

CYWG;2009-03-26 13:00;CYWG 261300Z 01021KT 2 1/2SM -SN DRSN SCT015 OVC030 M09/M11 A2987 RMK SC3SC4 SLP132

CYWG;2009-03-26 13:10;CYWG 261310Z 01021KT 4SM -SN DRSN FEW015 BKN030 OVC070 M09/ RMK SF2SC3AC2

CYWG;2009-03-26 14:00;CYWG 261400Z 01019G24KT 3SM -SN BLSN OVC016 M09/M11 A2990 RMK SC8 SLP143

CYWG;2009-03-26 14:18;CYWG 261418Z 01021KT 1SM R31/P6000FT/D R36/P6000FT/D -SN BLSN VV008 M09/ RMK SN8

CYWG;2009-03-26 14:48;CYWG 261448Z 01026KT 1 1/2SM -SN BLSN SCT010 OVC060 M10/ RMK BLSN2SF2SC3

CYWG;2009-03-26 15:00;CYWG 261500Z 01023G28KT 1SM R31/P6000FT/D R36/3500VP6000FT/U -SN BLSN SCT010 OVC060 M10/M11 A2993 RMK BLSN2SF2SC2 SLP153

CYWG;2009-03-26 15:30;CYWG 261530Z 02023G30KT 1 1/2SM -SN BLSN SCT010 BKN066 M10/ RMK BLSN1SF2AC3 VIS VRB 1-2

CYWG;2009-03-26 16:00;CYWG 261600Z 01023G28KT 1 1/2SM -SN BLSN SCT010 OVC066 M09/M12 A2995 RMK BLSN1SF2AC4 VIS VRB 1-2 SLP162

CYWG;2009-03-26 16:25;CYWG 261625Z 01023G29KT 3SM -SN BLSN SCT010 BKN066 M09/ RMK SF3AC3

CYWG;2009-03-26 17:00;CYWG 261700Z 02022G28KT 3SM -SN BLSN SCT015 BKN070 M09/M11 A2998 RMK SF3AC2 SLP172

CYWG;2009-03-26 17:53;CYWG 261753Z 01023KT 2SM -SN BLSN OVC015 M09/ RMK SF8

CYWG;2009-03-26 18:00;CYWG 261800Z 01022KT 2SM -SN BLSN OVC015 M09/M11 A3000 RMK SF8 SLP178

CYWG;2009-03-26 19:00;CYWG 261900Z 01021KT 2SM -SN BLSN BKN015 OVC080 M08/M10 A3003 RMK SF6AC2 SLP186

CYWG;2009-03-26 20:00;CYWG 262000Z 01019G25KT 2 1/2SM -SN BLSN BKN015 BKN080 OVC210 M08/M10 A3004 RMK SF5AC2CI1 SLP191

CYWG;2009-03-26 20:30;CYWG 262030Z 01021G26KT 6SM BLSN FEW015 SCT080 BKN210 M08/ RMK SF2AC2CI1

CYWG;2009-03-26 21:00;CYWG 262100Z 02022KT 4SM BLSN FEW019 SCT074 BKN210 M08/M10 A3007 RMK SF2AC2CI1 SLP200

CYWG;2009-03-26 21:31;CYWG 262131Z 36018G26KT 2SM -SN BLSN BKN013 BKN074 OVC210 M08/ RMK SC5AC1CI1

CYWG;2009-03-26 22:00;CYWG 262200Z 36021G28KT 2 1/2SM -SN BLSN SCT014 BKN075 BKN210 M09/M11 A3009 RMK SC3AC1CI1 SLP209

CYWG;2009-03-26 22:20;CYWG 262220Z 36022G27KT 3SM BLSN FEW019 SCT075 M09/ RMK SC2AC1

CYWG;2009-03-26 23:00;CYWG 262300Z 36021G26KT 6SM BLSN FEW015 SCT075 M09/M12 A3012 RMK SC1AC1 SLP218

CYWG;2009-03-27 00:00;CYWG 270000Z 36019G25KT 7SM -SN DRSN SCT024 BKN080 M09/M12 A3015 RMK SC3AC1 SLP228

CYWG;2009-03-27 00:35;CYWG 270035Z 36017KT 12SM DRSN SCT024 BKN080 M09/ RMK SC3AC1

CYWG;2009-03-27 01:00;CYWG 270100Z 36017KT 15SM DRSN SCT028 BKN080 M10/M13 A3017 RMK SC3AC1 SLP237

CYWG;2009-03-27 02:00;CYWG 270200Z 35015KT 15SM DRSN BKN028 M10/M13 A3019 RMK SC5 SLP244

CYWG;2009-03-27 03:00;CYWG 270300Z CCA 36016KT 15SM DRSN BKN025 M11/M14 A3021 RMK SC7 SLP251

CYWG;2009-03-27 04:00;CYWG 270400Z 35012KT 15SM BKN028 M11/M15 A3023 RMK SC6 SLP256

CYWG;2009-03-27 05:00;CYWG 270500Z 36009KT 15SM BKN028 M12/M15 A3023 RMK SC6 SLP258

CYWG;2009-03-27 06:00;CYWG 270600Z 36011KT 15SM BKN019 M12/M16 A3023 RMK SC6 SLP258

CYWG;2009-03-27 07:00;CYWG 270700Z 36009KT 15SM SKC M13/M16 A3024 RMK SLP261

CYWG;2009-03-27 08:00;CYWG 270800Z 34009KT 15SM FEW094 M15/M17 A3025 RMK AC2 SLP264

CYWG;2009-03-27 09:00;CYWG 270900Z 35008KT 15SM SKC M15/M17 A3025 RMK SLP264

CYWG;2009-03-27 10:00;CYWG 271000Z 34009KT 15SM SKC M16/M18 A3026 RMK SLP267

CYWG;2009-03-27 11:00;CYWG 271100Z 02007KT 15SM SKC M17/M18 A3025 RMK SLP264

CYWG;2009-03-27 12:00;CYWG 271200Z 03007KT 15SM SKC M17/M18 A3025 RMK SLP265

CYWG;2009-03-27 13:00;CYWG 271300Z 36004KT 15SM SKC M17/M18 A3025 RMK SLP266

CYWG;2009-03-27 14:00;CYWG 271400Z 01006KT 15SM SKC M17/M19 A3025 RMK SLP266

CYWG;2009-03-27 15:00;CYWG 271500Z 04005KT 15SM FEW210 M16/M18 A3025 RMK CI1 SLP265

CYWG;2009-03-27 16:00;CYWG 271600Z 34005KT 15SM FEW210 M15/M20 A3025 RMK CI1 SLP266

CYWG;2009-03-27 17:00;CYWG 271700Z 35002KT 15SM FEW020 FEW210 M14/M18 A3025 RMK CF1CI0 SLP265

CYWG;2009-03-27 18:00;CYWG 271800Z 34006KT 15SM FEW020 FEW210 M13/M17 A3024 RMK SC1CI1 SLP261

CYWG;2009-03-27 19:00;CYWG 271900Z 33003KT 15SM FEW020 FEW210 M12/M17 A3023 RMK SC1CI1 SLP259

CYWG;2009-03-27 20:00;CYWG 272000Z 34004KT 15SM FEW210 M12/M16 A3020 RMK CI1 SLP249

CYWG;2009-03-27 21:00;CYWG 272100Z 33005KT 15SM FEW020 FEW210 M11/M15 A3018 RMK SC1CI1 SLP243

CYWG;2009-03-27 22:00;CYWG 272200Z 34004KT 15SM FEW020 FEW210 M11/M14 A3016 RMK SC1CI1 SLP235

CYWG;2009-03-27 23:00;CYWG 272300Z 32005KT 15SM FEW020 FEW210 M11/M15 A3014 RMK SC1CI1 SLP230

CYWG;2009-03-28 00:00;CYWG 280000Z 30005KT 15SM SKC M12/M15 A3014 RMK SLP229

CYWG;2009-03-28 01:00;CYWG 280100Z 29004KT 15SM FEW210 M13/M15 A3013 RMK CI1 SLP227

CYWG;2009-03-28 02:00;CYWG 280200Z 28002KT 15SM SKC M14/M16 A3013 RMK SLP226

CYWG;2009-03-28 03:00;CYWG 280300Z 00000KT 15SM SKC M14/M16 A3013 RMK SLP227

CYWG;2009-03-28 04:00;CYWG 280400Z 18004KT 15SM SKC M14/M16 A3012 RMK SLP222

CYWG;2009-03-28 05:00;CYWG 280500Z 19005KT 15SM SKC M14/M15 A3011 RMK SLP219

CYWG;2009-03-28 06:00;CYWG 280600Z 18004KT 15SM SKC M14/M15 A3009 RMK SLP213

CYWG;2009-03-28 07:00;CYWG 280700Z 16005KT 15SM SKC M15/M16 A3008 RMK SLP209

CYWG;2009-03-28 08:00;CYWG 280800Z 17006KT 15SM SCT250 M16/M16 A3007 RMK CI0 SLP205

CYWG;2009-03-28 09:00;CYWG 280900Z 17005KT 15SM FEW250 M15/M16 A3006 RMK CI0 SLP203

CYWG;2009-03-28 10:00;CYWG 281000Z 17005KT 15SM FEW085 M16/M16 A3006 RMK AC1 SLP200

CYWG;2009-03-28 11:00;CYWG 281100Z 17007KT 15SM SCT250 M16/M17 A3005 RMK CI2 SLP198

CYWG;2009-03-28 12:00;CYWG 281200Z 17008KT 15SM BKN250 M15/M15 A3004 RMK CI2 SLP194

CYWG;2009-03-28 13:00;CYWG 281300Z 16007KT 15SM FEW090 BKN250 M15/M16 A3003 RMK AC2CI2 SLP190

CYWG;2009-03-28 14:00;CYWG 281400Z 18007KT 15SM FEW090 BKN250 M13/M14 A3003 RMK AC2CI2 SLP189

CYWG;2009-03-28 15:00;CYWG 281500Z 18011KT 15SM FEW015 FEW120 BKN250 M11/M12 A3001 RMK SC1AC1CI2 SLP184

CYWG;2009-03-28 16:00;CYWG 281600Z 18014KT 15SM FEW015 FEW120 BKN250 M10/M12 A3000 RMK SC1AC1CI2 SLP181

CYWG;2009-03-28 17:00;CYWG 281700Z 18012KT 15SM FEW096 OVC250 M09/M12 A2999 RMK AC2CS2 SLP175

CYWG;2009-03-28 18:00;CYWG 281800Z 17012KT 15SM FEW015 OVC250 M08/M12 A2998 RMK SC1CS4 SLP172

CYWG;2009-03-28 19:00;CYWG 281900Z 17011KT 15SM BKN250 M07/M12 A2996 RMK CI5 SLP167

CYWG;2009-03-28 20:00;CYWG 282000Z 18011KT 15SM BKN250 M06/M14 A2995 RMK CI6 SLP161

CYWG;2009-03-28 21:00;CYWG 282100Z 18013KT 15SM BKN250 M05/M14 A2993 RMK CI3 SLP155

CYWG;2009-03-28 22:00;CYWG 282200Z 18010KT 15SM FEW250 M05/M14 A2991 RMK CI2 SLP149

CYWG;2009-03-28 23:00;CYWG 282300Z 18008KT 15SM FEW015 FEW250 M05/M16 A2990 RMK CF1CI1 SLP146

CYWG;2009-03-29 00:00;CYWG 290000Z 19007KT 15SM SKC M06/M13 A2989 RMK SLP142

CYWG;2009-03-29 01:00;CYWG 290100Z 18006KT 15SM FEW250 M08/M14 A2989 RMK CI1 SLP140

CYWG;2009-03-29 02:00;CYWG 290200Z 19006KT 15SM SKC M08/M13 A2989 RMK SLP142

CYWG;2009-03-29 03:00;CYWG 290300Z 20006KT 15SM SKC M09/M12 A2989 RMK SLP140

CYWG;2009-03-29 04:00;CYWG 290400Z 20005KT 15SM SKC M10/M12 A2988 RMK SLP138

CYWG;2009-03-29 05:00;CYWG 290500Z 18006KT 15SM SKC M10/M12 A2987 RMK SLP135

CYWG;2009-03-29 06:00;CYWG 290600Z 17005KT 15SM SKC M11/M12 A2986 RMK SLP130

CYWG;2009-03-29 07:00;CYWG 290700Z 18005KT 15SM FEW059 M11/M12 A2984 RMK SC1 SLP125

CYWG;2009-03-29 08:00;CYWG 290800Z 18005KT 15SM SKC M11/M11 A2983 RMK SLP120

CYWG;2009-03-29 09:00;CYWG 290900Z 17006KT 15SM SKC M12/M12 A2982 RMK SLP117

CYWG;2009-03-29 10:00;CYWG 291000Z 16006KT 15SM FEW076 M12/M13 A2981 RMK AC2 SLP113

CYWG;2009-03-29 11:00;CYWG 291100Z 18007KT 10SM FEW076 M12/M12 A2981 RMK AC1 SLP112

CYWG;2009-03-29 12:00;CYWG 291200Z 18007KT 8SM FEW095 M12/M13 A2981 RMK AC1 FROIN SLP113

CYWG;2009-03-29 13:00;CYWG 291300Z 18004KT 8SM SCT020 BKN093 M12/M12 A2982 RMK SC2AC2 FROIN SLP115

CYWG;2009-03-29 13:16;CYWG 291316Z 17004KT 8SM BKN012 M12/ RMK SC5

CYWG;2009-03-29 13:39;CYWG 291339Z 18005KT 8SM BKN009 M10/ RMK SC7

CYWG;2009-03-29 14:00;CYWG 291400Z 18006KT 8SM OVC008 M09/M10 A2981 RMK SC8 SLP114

CYWG;2009-03-29 15:00;CYWG 291500Z 17004KT 8SM OVC006 M07/M08 A2983 RMK ST8 SLP117

CYWG;2009-03-29 16:00;CYWG 291600Z 16004KT 8SM OVC007 M06/M07 A2983 RMK ST8 SLP120

CYWG;2009-03-29 17:00;CYWG 291700Z 19005KT 8SM OVC009 M04/M05 A2984 RMK ST8 SLP123

CYWG;2009-03-29 17:25;CYWG 291725Z 19007KT 10SM OVC010 M03/ RMK SC8

CYWG;2009-03-29 18:00;CYWG 291800Z 25004KT 10SM BKN012 M03/M05 A2985 RMK SC7 SLP126

CYWG;2009-03-29 19:00;CYWG 291900Z 15004KT 12SM BKN014 M02/M05 A2984 RMK SC6 SLP123

CYWG;2009-03-29 20:00;CYWG 292000Z 14003KT 15SM SCT016 M01/M05 A2983 RMK SC4 SLP118

CYWG;2009-03-29 21:00;CYWG 292100Z 00000KT 15SM FEW018 00/M05 A2984 RMK SC2 SLP122

CYWG;2009-03-29 22:00;CYWG 292200Z 30006KT 15SM FEW020 M01/M04 A2986 RMK SC2 SLP126

CYWG;2009-03-29 23:00;CYWG 292300Z 31005KT 15SM BKN020 M01/M04 A2988 RMK SC5 SLP133

CYWG;2009-03-30 00:00;CYWG 300000Z 31004KT 15SM FEW020 BKN240 M02/M04 A2991 RMK SC2CI0 SLP146

CYWG;2009-03-30 01:00;CYWG 300100Z 32003KT 15SM BKN240 M04/M04 A2991 RMK CI2 SLP147

CYWG;2009-03-30 02:00;CYWG 300200Z 00000KT 15SM BKN240 M05/M05 A2993 RMK CI2 SLP153

CYWG;2009-03-30 03:00;CYWG 300300Z 32002KT 15SM BKN240 M05/M05 A2995 RMK CI1 SLP158

CYWG;2009-03-30 04:00;CYWG 300400Z 31005KT 15SM MIFG BKN240 M09/M09 A2996 RMK CI1 SLP163

CYWG;2009-03-30 05:00;CYWG 300500Z 32005KT 15SM PRFG FEW100 SCT240 M08/M08 A2998 RMK AC1CI0 FG BANK N-NNE SLP167

CYWG;2009-03-30 06:00;CYWG 300600Z 00000KT 15SM FEW011 SCT051 M06/M07 A2999 RMK SF1SC3 SLP171

CYWG;2009-03-30 07:00;CYWG 300700Z 30006KT 15SM FEW011 BKN047 M07/M08 A3001 RMK SF1SC6 SLP177

CYWG;2009-03-30 08:00;CYWG 300800Z 27005KT 15SM SCT045 M07/M07 A3002 RMK SC4 SLP181

CYWG;2009-03-30 09:00;CYWG 300900Z 32006KT 15SM FEW045 SCT250 M09/M09 A3002 RMK SC1CI1 SLP182

CYWG;2009-03-30 10:00;CYWG 301000Z 32003KT 8SM FEW043 M09/M09 A3004 RMK SC2 BR FROIN SLP187

CYWG;2009-03-30 11:00;CYWG 301100Z 34006KT 8SM FEW041 M09/M10 A3006 RMK SC2 BR SLP193

CYWG;2009-03-30 12:00;CYWG 301200Z 03007KT 8SM FEW041 SCT240 M08/M08 A3006 RMK SC2CI1 BR SLP194

CYWG;2009-03-30 13:00;CYWG 301300Z 03004KT 10SM FEW040 SCT087 BKN220 M07/M08 A3009 RMK SC1AC2CI2 BR SLP204

CYWG;2009-03-30 14:00;CYWG 301400Z 05003KT 12SM FEW092 BKN220 M06/M07 A3010 RMK AC1CI2 SLP209

CYWG;2009-03-30 15:00;CYWG 301500Z 04007KT 15SM FEW090 OVC220 M05/M06 A3011 RMK AC1CI2 SLP211

CYWG;2009-03-30 16:00;CYWG 301600Z 02005KT 15SM SCT073 OVC220 M04/M05 A3012 RMK AC2CI3 SLP217

CYWG;2009-03-30 17:00;CYWG 301700Z 01004KT 15SM SCT098 OVC220 M04/M05 A3012 RMK AC2CI4 SLP217

CYWG;2009-03-30 18:00;CYWG 301800Z 01007KT 15SM SCT092 OVC220 M03/M05 A3011 RMK AC2CI3 SLP212

CYWG;2009-03-30 19:00;CYWG 301900Z 01005KT 15SM BKN120 OVC250 M01/M05 A3011 RMK AC5CI2 SLP211

CYWG;2009-03-30 20:00;CYWG 302000Z 35004KT 10SM BKN120 M01/M06 A3010 RMK AC6 SLP209

CYWG;2009-03-30 21:00;CYWG 302100Z 02008KT 15SM OVC120 M00/M06 A3008 RMK AC8 SLP200

CYWG;2009-03-30 22:00;CYWG 302200Z 01006KT 15SM BKN070 M00/M05 A3008 RMK AC7 SLP201

CYWG;2009-03-30 23:00;CYWG 302300Z 36005KT 15SM OVC090 00/M04 A3007 RMK AC8 SLP197

CYWG;2009-03-31 00:00;CYWG 310000Z 01006KT 15SM OVC080 M00/M05 A3006 RMK AC8 SLP193

CYWG;2009-03-31 01:00;CYWG 310100Z 01003KT 15SM OVC120 M02/M05 A3006 RMK AC8 SLP195

CYWG;2009-03-31 02:00;CYWG 310200Z 32005KT 15SM OVC120 M03/M06 A3007 RMK AC8 SLP199

CYWG;2009-03-31 03:00;CYWG 310300Z 35006KT 15SM OVC120 M03/M05 A3006 RMK AS8 SLP196

CYWG;2009-03-31 04:00;CYWG 310400Z 34004KT 15SM OVC120 M04/M05 A3006 RMK AS8 SLP195

CYWG;2009-03-31 05:00;CYWG 310500Z 34003KT 15SM OVC120 M05/M06 A3005 RMK AS8 SLP192

CYWG;2009-03-31 06:00;CYWG 310600Z 01003KT 15SM OVC120 M05/M06 A3003 RMK AS8 SLP186

CYWG;2009-03-31 07:00;CYWG 310700Z 03003KT 15SM OVC120 M05/M06 A3003 RMK AS4 SLP183

CYWG;2009-03-31 08:00;CYWG 310800Z 02004KT 15SM OVC120 M06/M07 A3000 RMK AS4 SLP175

CYWG;2009-03-31 09:00;CYWG 310900Z 04008KT 15SM OVC120 M05/M07 A2998 RMK AS5 SLP165

CYWG;2009-03-31 10:00;CYWG 311000Z 04008KT 15SM OVC077 M05/M07 A2996 RMK AS6 SLP161

CYWG;2009-03-31 11:00;CYWG 311100Z 06003KT 15SM BKN080 OVC220 M06/M08 A2996 RMK AS5CI1 SLP159

CYWG;2009-03-31 12:00;CYWG 311200Z 04009KT 15SM SCT080 OVC210 M06/M08 A2992 RMK AC3CI2 SLP147

CYWG;2009-03-31 13:00;CYWG 311300Z 04007KT 15SM SCT090 OVC210 M06/M08 A2992 RMK AC3CI2 SLP145

CYWG;2009-03-31 14:00;CYWG 311400Z 05005KT 15SM SCT079 OVC210 M04/M07 A2990 RMK AC3CI2 SLP139

CYWG;2009-03-31 15:00;CYWG 311500Z 04007KT 15SM SCT079 OVC210 M03/M06 A2987 RMK AS4CI2 SLP129

CYWG;2009-03-31 16:00;CYWG 311600Z 03009KT 15SM BKN092 OVC210 M02/M05 A2985 RMK AS6CI2 SLP121

CYWG;2009-03-31 17:00;CYWG 311700Z 03012KT 15SM BKN100 OVC210 M01/M05 A2981 RMK AS6CI2 SLP110

CYWG;2009-03-31 18:00;CYWG 311800Z 02012KT 15SM SCT056 OVC100 M00/M04 A2978 RMK SC3AS5 SLP097

CYWG;2009-03-31 19:00;CYWG 311900Z 03015G20KT 15SM SCT032 OVC100 01/M04 A2974 RMK SC3AS5 SLP085

CYWG;2009-03-31 20:00;CYWG 312000Z 08017G25KT 15SM FEW014 SCT050 OVC100 02/M04 A2972 RMK SC2SC2AS4 SHSN NE SLP078

CYWG;2009-03-31 20:25;CYWG 312025Z 05024G30KT 5SM -SHSN BKN015 OVC100 01/ RMK SC5AC3

CYWG;2009-03-31 20:37;CYWG 312037Z 06018G26KT 2 1/2SM -SHSN BKN009 OVC100 01/ RMK SC6AC2

CYWG;2009-03-31 21:00;CYWG 312100Z 05017KT 2SM -SHSN BKN008 OVC029 00/M01 A2970 RMK SF6SC2 SLP069

CYWG;2009-03-31 21:16;CYWG 312116Z 05016KT 1SM R13/P6000FT/U R36/P6000FT/U -SHSN OVC007 00/ RMK SF8

CYWG;2009-03-31 22:00;CYWG 312200Z 05016KT 2 1/2SM -SHSN OVC008 00/M01 A2967 RMK SF8 SLP062

CYWG;2009-03-31 22:51;CYWG 312251Z 04015KT 1 1/2SM -SHSN OVC005 M00/ RMK SF8

CYWG;2009-03-31 23:00;CYWG 312300Z 04015KT 1 1/2SM -SHSN OVC005 M00/M00 A2966 RMK SF8 SLP058

CYWG;2009-03-31 23:35;CYWG 312335Z 04014KT 1SM R13/P6000FT/U R36/P6000FT/U -SN OVC006 M00/ RMK SF8

CYWG;2009-04-01 01:00;CYWG 010100Z 05019KT 1SM R13/P6000FT/U R36/P6000FT/U -SN BKN006 OVC029 M00/M00 A2962 RMK SF7SC1 SLP044

CYWG;2009-04-01 02:00;CYWG 010200Z 05015G20KT 1/2SM R13/P6000FT/D R36/3000VP6000FT/D SN -FZRA VV003 M01/M01 A2961 RMK SN8 SLP040

CYWG;2009-04-01 02:25;CYWG 010225Z 04015KT 3/4SM R13/3000VP6000FT/U R36/2800VP6000FT/N -SN -FZRA VV002 M01/ RMK SN8

CYWG;2009-04-01 02:42;CYWG 010242Z 05015KT 3/4SM R13/P6000FT/D R36/P6000FT/D -SN VV003 M01/ REFZRA RMK SN8

CYWG;2009-04-01 03:00;CYWG 010300Z CCA 05014KT 1 3/4SM R36/2800VP6000FT/U -SN VV003 M01/M01 A2959 REFZRA RMK SN8 SLP032

CYWG;2009-04-01 03:20;CYWG 010320Z 04013KT 1 3/4SM -SN OVC004 M01/ RMK SF8

CYWG;2009-04-01 03:47;CYWG 010347Z 05015G20KT 2SM -SN OVC006 M01/ RMK SF8

CYWG;2009-04-01 04:00;CYWG 010400Z 04013KT 2SM -SN OVC006 M01/M01 A2957 RMK SF8 SLP025

CYWG;2009-04-01 05:00;CYWG 010500Z 04015KT 1 3/4SM -SN OVC006 M01/M01 A2954 RMK SF8 SLP015

CYWG;2009-04-01 05:41;CYWG 010541Z CCA 03014KT 3/4SM R13/P6000FT/U R36/P6000FT/N -SN VV004 M01/ RMK SN8

CYWG;2009-04-01 06:00;CYWG 010600Z 03014KT 4SM -SN OVC004 M01/M01 A2951 RMK SF8 SLP006

CYWG;2009-04-01 06:27;CYWG 010627Z 03014KT 1SM R13/P6000FT/D R36/P6000FT/D -SN VV004 M01/ RMK SN8

CYWG;2009-04-01 06:39;CYWG 010639Z 03014KT 3/4SM R13/P6000FT/U R36/3500VP6000FT/D -SN VV003 M01/ RMK SN8

CYWG;2009-04-01 07:00;CYWG 010700Z 03015KT 3/4SM R13/4000VP6000FT/D R36/4500VP6000FT/D -SN VV004 M01/M01 A2950 RMK SN8 SLP002

CYWG;2009-04-01 07:31;CYWG 010731Z 03014KT 1SM R13/P6000FT/N R36/P6000FT/U -SN VV005 M02/ RMK SN8

CYWG;2009-04-01 08:00;CYWG 010800Z CCA 03016KT 1 3/4SM -SN VV006 M02/M02 A2948 RMK SN8 OBS+6 SLP994

CYWG;2009-04-01 08:37;CYWG 010837Z 03018KT 2SM -SN DRSN VV006 M02/ RMK SN8

CYWG;2009-04-01 09:00;CYWG 010900Z 03018KT 1 3/4SM -SN DRSN VV005 M02/M02 A2946 RMK SN8 SLP989

CYWG;2009-04-01 10:00;CYWG 011000Z 03016KT 1 3/4SM -SN DRSN VV005 M02/M02 A2945 RMK SN8 SLP986

CYWG;2009-04-01 10:27;CYWG 011027Z 03018KT 3/4SM R13/P6000FT/U R36/P6000FT/D -SN DRSN VV005 M02/ RMK SN8

CYWG;2009-04-01 11:00;CYWG 011100Z 03017KT 3/4SM R13/P6000FT/U R36/4500VP6000FT/D -SN DRSN VV005 M02/M02 A2945 RMK SN8 SLP985

CYWG;2009-04-01 11:24;CYWG 011124Z 03015KT 1SM R13/P6000FT/D R36/P6000FT/D -SN DRSN BR VV006 M02/ RMK SN8 VIS VRBL 3/4-11/4

CYWG;2009-04-01 11:53;CYWG 011153Z 03017KT 1SM R13/P6000FT/U R36/P6000FT/D -SN DRSN BR VV005 M02/ RMK SN8 VIS VRBL 3/4-11/4

CYWG;2009-04-01 12:00;CYWG 011200Z 03017KT 1SM R13/P6000FT/U R36/P6000FT/D -SN DRSN BR VV005 M02/M02 A2944 RMK SN8 SLP982

CYWG;2009-04-01 12:47;CYWG 011247Z 03017KT 2SM -SN DRSN BR VV007 M02/ RMK SN8

CYWG;2009-04-01 13:00;CYWG 011300Z 02016KT 2 1/2SM -SN DRSN BR SCT006 OVC016 M02/M02 A2944 RMK SF3SC5 SLP982

CYWG;2009-04-01 13:54;CYWG 011354Z 03015KT 4SM -SN DRSN BR BKN006 OVC053 M02/ RMK SF5SC3

CYWG;2009-04-01 14:00;CYWG 011400Z 03016KT 4SM -SN DRSN BR SCT006 BKN014 OVC053 M02/M02 A2945 RMK SF3SF2SC2 SLP984

CYWG;2009-04-01 15:00;CYWG 011500Z 02016KT 4SM -SN DRSN BR SCT006 OVC032 M01/M02 A2944 RMK SF4SC4 SLP983

CYWG;2009-04-01 15:18;CYWG 011518Z 03014G19KT 3SM -SN DRSN BR OVC007 M01/ RMK SC8

CYWG;2009-04-01 16:00;CYWG 011600Z 02015KT 4SM -SN BR BKN007 BKN024 OVC038 M01/M02 A2945 RMK SF5SC2SC2 SLP984

CYWG;2009-04-01 17:00;CYWG 011700Z 02014KT 3SM -SN DRSN BR BKN007 OVC038 M01/M01 A2945 RMK SF6SC2 SLP985

CYWG;2009-04-01 18:00;CYWG 011800Z 03014KT 4SM -SN DRSN BR BKN008 OVC061 M01/M02 A2946 RMK SF6SC2 SLP989

CYWG;2009-04-01 19:00;CYWG 011900Z 03012KT 4SM -SN BR BKN008 OVC038 M00/M02 A2947 RMK SF6SC2 SLP991

CYWG;2009-04-01 20:00;CYWG 012000Z 35010KT 2SM -SN BR BKN006 OVC044 M01/M01 A2948 RMK SF6SC2 SLP994

CYWG;2009-04-01 20:40;CYWG 012040Z 36011KT 3SM -SN BR SCT006 BKN022 OVC047 M01/ RMK SF3SC2SC2

CYWG;2009-04-01 21:00;CYWG 012100Z 36011KT 3SM -SN BR FEW006 BKN022 OVC044 M01/M02 A2949 RMK SF2SC3SC3 SLP997

CYWG;2009-04-01 22:00;CYWG 012200Z 36010KT 15SM FEW006 SCT021 BKN044 OVC100 M00/M03 A2950 RMK SF1SC2SC2AC3 SLP002

CYWG;2009-04-01 23:00;CYWG 012300Z 36008KT 15SM FEW006 BKN021 OVC052 M00/M02 A2952 RMK SF1SC6SC2 SLP007

CYWG;2009-04-01 23:36;CYWG 012336Z 35008KT 6SM -SN BKN018 OVC052 M01/ RMK SC6SC2

CYWG;2009-04-02 00:00;CYWG 020000Z 33006KT 6SM -SN FEW006 OVC016 M01/M01 A2954 RMK SF2SC6 SLP015

CYWG;2009-04-02 00:31;CYWG 020031Z 34004KT 6SM -SN BKN007 OVC035 M01/ RMK SF6SC2

CYWG;2009-04-02 01:00;CYWG 020100Z 32003KT 6SM -SN BKN007 OVC018 M01/M01 A2956 RMK SF5SC3 SLP021

CYWG;2009-04-02 01:33;CYWG 020133Z 32004KT 3SM -SN FEW007 OVC029 M01/ RMK SF2SC6

CYWG;2009-04-02 02:00;CYWG 020200Z 32005KT 3SM -SN FEW007 OVC014 M01/M01 A2957 RMK SF2SC6 SLP025

CYWG;2009-04-02 03:00;CYWG 020300Z 34009KT 4SM -SN BKN014 OVC021 M01/M01 A2958 RMK SC6SC2 SLP030

CYWG;2009-04-02 04:00;CYWG 020400Z 33011KT 10SM -SN FEW014 BKN033 OVC070 M02/M02 A2958 RMK SC2SC5AC2 SLP031

CYWG;2009-04-02 05:00;CYWG 020500Z 31006KT 10SM -SN FEW015 BKN032 OVC070 M02/M02 A2960 RMK SC2SC5AC2 SLP035

CYWG;2009-04-02 06:00;CYWG 020600Z 30006KT 15SM -SN FEW015 BKN027 OVC070 M02/M03 A2961 RMK SC1SC5AC2 SLP038

CYWG;2009-04-02 07:00;CYWG 020700Z 31007KT 15SM SCT034 BKN050 OVC078 M03/M03 A2961 RMK SC3SC3AC2 SLP039

CYWG;2009-04-02 08:00;CYWG 020800Z 31007KT 15SM SCT038 BKN048 OVC080 M02/M02 A2961 RMK SC3SC3AC2 SLP041

CYWG;2009-04-02 09:00;CYWG 020900Z 31008KT 15SM SCT033 BKN048 OVC080 M03/M03 A2962 RMK SC3SC3AC2 SLP044

CYWG;2009-04-02 10:00;CYWG 021000Z 31007KT 15SM FEW015 BKN050 OVC078 M02/M02 A2963 RMK SC2SC4AC2 SLP046

CYWG;2009-04-02 11:00;CYWG 021100Z 30007KT 15SM FEW010 BKN026 OVC050 M02/M02 A2964 RMK SC2SC3SC3 SLP050

CYWG;2009-04-02 11:34;CYWG 021134Z 30009KT 15SM BKN009 OVC030 M02/ RMK SC6SC2

CYWG;2009-04-02 12:00;CYWG 021200Z 31007KT 15SM BKN008 OVC030 M02/M02 A2965 RMK SC6SC2 SLP053

CYWG;2009-04-02 12:41;CYWG 021241Z 32010KT 10SM -SN BKN008 OVC029 M02/ RMK SC6SC2

CYWG;2009-04-02 13:00;CYWG 021300Z 32010KT 12SM -SN BKN008 OVC019 M02/M02 A2966 RMK SC6SC2 SLP057

CYWG;2009-04-02 13:37;CYWG 021337Z 32009KT 12SM -SN SCT012 OVC017 M02/ RMK SC4SC4

CYWG;2009-04-02 14:00;CYWG 021400Z 31010KT 10SM -SN FEW012 OVC019 M02/M02 A2967 RMK SC2SC6 SLP059

CYWG;2009-04-02 14:26;CYWG 021426Z 31010KT 10SM -SN BKN010 OVC019 M02/ RMK SC5SC3

CYWG;2009-04-02 15:00;CYWG 021500Z 32011KT 12SM -SN SCT010 OVC021 M02/M02 A2968 RMK SC3SC5 SLP063

CYWG;2009-04-02 16:00;CYWG 021600Z 32009KT 12SM -SN FEW012 BKN021 OVC052 M01/M02 A2969 RMK SC2SC4SC2 SLP066

CYWG;2009-04-02 17:00;CYWG 021700Z 31009KT 12SM -SN FEW012 BKN023 OVC059 M01/M02 A2970 RMK SC2SC5SC2 SLP069

CYWG;2009-04-02 18:00;CYWG 021800Z 29011KT 6SM -SN SCT008 BKN025 OVC060 M01/M01 A2970 RMK SF3SC3SC2 SLP072

CYWG;2009-04-02 18:34;CYWG 021834Z 30012KT 6SM -SN BKN009 OVC027 M00/ RMK SF5SC3

CYWG;2009-04-02 18:45;CYWG 021845Z 30011KT 6SM BR SCT012 BKN027 OVC068 M00/ RMK SF3SC3SC2

CYWG;2009-04-02 19:00;CYWG 021900Z 30010KT 6SM BR SCT010 BKN027 OVC068 M00/M01 A2971 RMK SF3SC3SC2 SLP075

CYWG;2009-04-02 19:26;CYWG 021926Z 30009KT 6SM -SN BR SCT012 OVC025 M00/ RMK SF3SC5

CYWG;2009-04-02 20:00;CYWG 022000Z 30009KT 10SM -SN FEW012 BKN025 BKN082 M00/M01 A2971 RMK SF2SC3SC2 SLP073

CYWG;2009-04-02 20:42;CYWG 022042Z 30008KT 10SM FEW012 BKN030 BKN082 00/ RMK SF2SC4SC2

CYWG;2009-04-02 21:00;CYWG 022100Z 30010KT 10SM FEW012 BKN030 OVC082 00/M02 A2971 RMK SF2SC4AC2 SLP074

CYWG;2009-04-02 22:00;CYWG 022200Z 31010KT 15SM FEW012 BKN026 00/M02 A2972 RMK SF1SC6 SLP076

CYWG;2009-04-02 23:00;CYWG 022300Z 31008KT 15SM FEW012 OVC033 00/M02 A2973 RMK SF1SC7 SLP079

CYWG;2009-04-02 23:06;CYWG 022306Z 30009KT 10SM -SN FEW012 OVC033 M00/ RMK SF1SC7

CYWG;2009-04-03 00:00;CYWG 030000Z 29006KT 10SM -SN OVC026 M00/M01 A2974 RMK SC8 SLP084

CYWG;2009-04-03 01:00;CYWG 030100Z 32006KT 10SM -SN OVC019 M00/M01 A2975 RMK SC8 SLP086

CYWG;2009-04-03 02:00;CYWG 030200Z 32004KT 10SM -SN BKN013 OVC027 M01/M01 A2976 RMK SC5SC3 SLP090

CYWG;2009-04-03 02:09;CYWG 030209Z 32004KT 6SM -SN BKN010 OVC027 M01/ RMK SC6SC2

CYWG;2009-04-03 02:46;CYWG 030246Z 34005KT 6SM -SN SCT010 OVC029 M01/ RMK SF2SC6

CYWG;2009-04-03 03:00;CYWG 030300Z 34005KT 6SM -SN FEW010 BKN024 OVC037 M01/M01 A2977 RMK SF2SC2SC4 SLP092

CYWG;2009-04-03 04:00;CYWG 030400Z 33004KT 4SM -SN FEW010 OVC031 M01/M01 A2977 RMK SF2SC6 SLP094

CYWG;2009-04-03 05:00;CYWG 030500Z 05003KT 4SM -SN FEW010 OVC028 M01/M01 A2977 RMK SF1SC7 SLP094

CYWG;2009-04-03 06:00;CYWG 030600Z 32003KT 4SM -SN OVC032 M01/M01 A2977 RMK SC8 SLP095

CYWG;2009-04-03 06:35;CYWG 030635Z 32004KT 4SM -SN OVC011 M01/ RMK SC8

CYWG;2009-04-03 07:00;CYWG 030700Z 34003KT 6SM -SN FEW006 BKN009 OVC031 M02/M02 A2977 RMK SF1SC6SC1 SLP095

CYWG;2009-04-03 07:15;CYWG 030715Z 33003KT 9SM -SN BKN012 OVC031 M02/ RMK SC6SC2

CYWG;2009-04-03 08:00;CYWG 030800Z 34006KT 9SM -SN FEW011 BKN016 OVC040 M02/M02 A2978 RMK SF1SC6SC1 SLP096

CYWG;2009-04-03 08:16;CYWG 030816Z 34006KT 9SM -SN BKN009 OVC016 M02/ RMK SC7SC1

CYWG;2009-04-03 09:00;CYWG 030900Z 35005KT 15SM SCT011 BKN019 OVC042 M02/M03 A2978 RMK SF4SC2SC2 SLP097

CYWG;2009-04-03 09:23;CYWG 030923Z 36005KT 15SM BKN010 BKN019 OVC042 M02/ RMK SF6SC1SC2

CYWG;2009-04-03 10:00;CYWG 031000Z 34003KT 9SM -SN FEW011 BKN020 OVC042 M02/M03 A2979 RMK SF2SC6SC1 SLP099

CYWG;2009-04-03 11:00;CYWG 031100Z 32005KT 10SM -SN BKN012 OVC042 M02/M03 A2979 RMK SC5SC3 SLP100

CYWG;2009-04-03 12:00;CYWG 031200Z 33006KT 6SM -SN BR FEW012 OVC042 M03/M03 A2980 RMK SC2SC6 SLP104

CYWG;2009-04-03 12:48;CYWG 031248Z 33006KT 8SM -SN BKN008 OVC046 M03/ RMK SF6SC2 BR

CYWG;2009-04-03 13:00;CYWG 031300Z 34006KT 15SM -SN BKN008 OVC046 M02/M03 A2981 RMK SF7SC1 SLP108

CYWG;2009-04-03 14:00;CYWG 031400Z 33006KT 12SM -SN BKN009 OVC039 M02/M03 A2983 RMK SF6SC2 SLP116

CYWG;2009-04-03 15:00;CYWG 031500Z 36003KT 4SM -SN BR BKN006 OVC032 M02/M02 A2985 RMK SF6SC2 SLP122

CYWG;2009-04-03 16:00;CYWG 031600Z 35004KT 10SM -SN BKN006 OVC037 M01/M02 A2987 RMK SF5SC3 BR SLP127

CYWG;2009-04-03 17:00;CYWG 031700Z 02005KT 15SM -SN SCT009 OVC041 M01/M02 A2988 RMK SF4SC4 SLP131

CYWG;2009-04-03 17:17;CYWG 031717Z 03004KT 15SM -SN BKN010 OVC041 M01/ RMK SF6SC2

CYWG;2009-04-03 18:00;CYWG 031800Z 02005KT 15SM -SN BKN012 OVC029 M01/M03 A2989 RMK SF5SC2 SLP134

CYWG;2009-04-03 18:16;CYWG 031816Z 03005KT 15SM SCT013 OVC033 M01/ RMK SF3SC4

CYWG;2009-04-03 19:00;CYWG 031900Z 02005KT 15SM FEW010 BKN026 BKN042 M00/M03 A2989 RMK SF2SC3SC2 SLP134

CYWG;2009-04-03 20:00;CYWG 032000Z 03005KT 15SM BKN023 BKN090 M00/M03 A2990 RMK SC5AC2 SLP138

CYWG;2009-04-03 21:00;CYWG 032100Z 02006KT 15SM FEW015 BKN027 M00/M04 A2992 RMK SF1SC6 SLP144

CYWG;2009-04-03 22:00;CYWG 032200Z 01005KT 15SM BKN032 M01/M04 A2994 RMK SC7 SLP151

CYWG;2009-04-03 23:00;CYWG 032300Z 33003KT 15SM BKN034 M01/M04 A2995 RMK SC6 SLP155

CYWG;2009-04-04 00:00;CYWG 040000Z 34005KT 15SM BKN029 M01/M03 A2996 RMK SC7 SLP160

CYWG;2009-04-04 01:00;CYWG 040100Z 34005KT 15SM BKN032 M01/M03 A2998 RMK SC7 SLP167

CYWG;2009-04-04 02:00;CYWG 040200Z 34005KT 15SM OVC032 M01/M03 A3001 RMK SC8 SLP177

CYWG;2009-04-04 03:00;CYWG 040300Z 33005KT 15SM OVC032 M01/M03 A3005 RMK SC8 SLP188

CYWG;2009-04-04 04:00;CYWG 040400Z 36005KT 15SM OVC033 M01/M04 A3006 RMK SC8 SLP194

CYWG;2009-04-04 05:00;CYWG 040500Z 36004KT 15SM OVC033 M01/M03 A3007 RMK SC8 SLP197

CYWG;2009-04-04 06:00;CYWG 040600Z 35005KT 15SM OVC033 M01/M06 A3009 RMK SC8 SLP201

CYWG;2009-04-04 07:00;CYWG 040700Z 33008KT 15SM OVC033 M02/M04 A3009 RMK SC8 SLP202

CYWG;2009-04-04 08:00;CYWG 040800Z 33005KT 15SM OVC037 M02/M04 A3011 RMK SC8 SLP209

CYWG;2009-04-04 09:00;CYWG 040900Z 33005KT 15SM OVC037 M02/M05 A3012 RMK SC8 SLP215

CYWG;2009-04-04 10:00;CYWG 041000Z 33007KT 15SM OVC037 M03/M05 A3013 RMK SC8 SLP217

CYWG;2009-04-04 11:00;CYWG 041100Z 33006KT 15SM BKN037 M04/M07 A3015 RMK SC5 SLP224

CYWG;2009-04-04 12:00;CYWG 041200Z 31006KT 15SM FEW037 M08/M10 A3017 RMK SC1 SLP231

CYWG;2009-04-04 13:00;CYWG 041300Z 28007KT 15SM FEW037 M09/M10 A3020 RMK SC1 SLP241

CYWG;2009-04-04 14:00;CYWG 041400Z 30006KT 15SM FEW037 M08/M10 A3022 RMK SC1 TR SC SLP250

CYWG;2009-04-04 15:00;CYWG 041500Z 30006KT 15SM FEW075 M07/M09 A3023 RMK AC1 TR AC SLP252

CYWG;2009-04-04 16:00;CYWG 041600Z 30004KT 15SM FEW075 M05/M08 A3023 RMK AC1 TR AC SLP253

CYWG;2009-04-04 17:00;CYWG 041700Z 30006KT 15SM FEW075 M04/M07 A3024 RMK AC1 SLP256

CYWG;2009-04-04 18:00;CYWG 041800Z 30006KT 15SM FEW075 FEW190 M02/M05 A3024 RMK AC1CI2 TR AC SLP255

CYWG;2009-04-04 19:00;CYWG 041900Z 35005KT 15SM FEW260 M01/M05 A3024 RMK CI1 SLP254

CYWG;2009-04-04 20:00;CYWG 042000Z 03011KT 15SM FEW260 M01/M07 A3024 RMK CI1 SLP255

CYWG;2009-04-04 21:00;CYWG 042100Z 03012KT 15SM FEW250 M00/M07 A3024 RMK CI1 SLP253

CYWG;2009-04-04 22:00;CYWG 042200Z 03010KT 15SM FEW260 M00/M08 A3024 RMK CI1 SLP253

CYWG;2009-04-04 23:00;CYWG 042300Z 02007KT 15SM FEW260 M01/M05 A3024 RMK CI1 SLP254

CYWG;2009-04-05 00:00;CYWG 050000Z 02008KT 15SM FEW250 M01/M06 A3025 RMK CI1 SLP260

CYWG;2009-04-05 01:00;CYWG 050100Z 36009KT 15SM SKC M03/M07 A3025 RMK SLP261

CYWG;2009-04-05 02:00;CYWG 050200Z 36012KT 15SM SKC M03/M08 A3028 RMK SLP268

CYWG;2009-04-05 03:00;CYWG 050300Z 35008KT 15SM SKC M05/M08 A3029 RMK SLP276

CYWG;2009-04-05 04:00;CYWG 050400Z 35007KT 15SM SKC M06/M09 A3031 RMK SLP282

CYWG;2009-04-05 05:00;CYWG 050500Z 34005KT 15SM SKC M07/M10 A3032 RMK SLP286

CYWG;2009-04-05 06:00;CYWG 050600Z 01006KT 15SM SKC M09/M11 A3033 RMK SLP287

CYWG;2009-04-05 07:00;CYWG 050700Z 36006KT 15SM SKC M11/M11 A3032 RMK SLP286

CYWG;2009-04-05 08:00;CYWG 050800Z 35005KT 15SM SKC M09/M12 A3032 RMK SLP284

CYWG;2009-04-05 09:00;CYWG 050900Z 01009KT 15SM SKC M08/M11 A3032 RMK SLP283

CYWG;2009-04-05 10:00;CYWG 051000Z 02011KT 15SM SKC M08/M11 A3033 RMK SLP286

CYWG;2009-04-05 11:00;CYWG 051100Z 01011KT 15SM SKC M08/M12 A3035 RMK SLP292

CYWG;2009-04-05 12:00;CYWG 051200Z 01010KT 15SM FEW210 M09/M12 A3036 RMK CI1 SLP298

CYWG;2009-04-05 13:00;CYWG 051300Z 01012G17KT 15SM FEW210 M09/M12 A3038 RMK CI0 SLP303

CYWG;2009-04-05 14:00;CYWG 051400Z 03013KT 15SM FEW250 M08/M11 A3040 RMK CI1 SLP312

CYWG;2009-04-05 15:00;CYWG 051500Z 02015KT 15SM FEW210 M08/M11 A3041 RMK CI1 SLP315

CYWG;2009-04-05 16:00;CYWG 051600Z 02013KT 15SM FEW210 M07/M10 A3042 RMK CI1 SLP319

CYWG;2009-04-05 17:00;CYWG 051700Z 01014KT 15SM BKN210 M05/M10 A3042 RMK CI1 SLP318

CYWG;2009-04-05 18:00;CYWG 051800Z 01017KT 15SM BKN210 M04/M09 A3041 RMK CI1 SLP315

CYWG;2009-04-05 19:00;CYWG 051900Z 03020KT 15SM BKN210 M04/M09 A3040 RMK CI1 SLP313

CYWG;2009-04-05 20:00;CYWG 052000Z 02019KT 15SM BKN210 M03/M09 A3039 RMK CI2 SLP310

CYWG;2009-04-05 21:00;CYWG 052100Z 01020KT 15SM SCT210 M03/M09 A3039 RMK CI1 SLP308

CYWG;2009-04-05 22:00;CYWG 052200Z 01018KT 15SM SCT210 M02/M08 A3039 RMK CI1 SLP309

CYWG;2009-04-05 23:00;CYWG 052300Z 01015KT 15SM SCT210 M01/M09 A3039 RMK CI1 SLP307

CYWG;2009-04-06 00:00;CYWG 060000Z 01014KT 15SM FEW210 M01/M08 A3039 RMK CI1 SLP308

CYWG;2009-04-06 01:00;CYWG 060100Z 36011KT 15SM FEW210 M02/M08 A3040 RMK CI1 SLP310

CYWG;2009-04-06 02:00;CYWG 060200Z 35013KT 15SM FEW210 M03/M07 A3041 RMK CI1 SLP315

CYWG;2009-04-06 03:00;CYWG 060300Z 36013KT 15SM SKC M03/M07 A3042 RMK SLP320

CYWG;2009-04-06 04:00;CYWG 060400Z 01011KT 15SM SKC M03/M07 A3044 RMK SLP324

CYWG;2009-04-06 05:00;CYWG 060500Z 36010KT 15SM SKC M05/M08 A3045 RMK SLP327

CYWG;2009-04-06 06:00;CYWG 060600Z 35010KT 15SM SKC M06/M08 A3045 RMK SLP328

CYWG;2009-04-06 07:00;CYWG 060700Z 34007KT 15SM SKC M09/M11 A3045 RMK SLP330

CYWG;2009-04-06 08:00;CYWG 060800Z 34009KT 15SM SKC M09/M11 A3045 RMK SLP330

CYWG;2009-04-06 09:00;CYWG 060900Z 34010KT 15SM SKC M10/M11 A3046 RMK SLP332

CYWG;2009-04-06 10:00;CYWG 061000Z 33010KT 15SM FEW087 M10/M11 A3046 RMK AC1 TR AC SLP332

CYWG;2009-04-06 11:00;CYWG 061100Z 34010KT 15SM SKC M09/M11 A3046 RMK SLP332

CYWG;2009-04-06 12:00;CYWG 061200Z 34009KT 15SM SKC M10/M11 A3046 RMK SLP331

CYWG;2009-04-06 13:00;CYWG 061300Z 34010KT 15SM SKC M08/M10 A3046 RMK SLP332

CYWG;2009-04-06 14:00;CYWG 061400Z 34010KT 15SM SKC M06/M09 A3046 RMK SLP331

CYWG;2009-04-06 15:00;CYWG 061500Z 01008KT 15SM SKC M04/M08 A3045 RMK SLP328

CYWG;2009-04-06 16:00;CYWG 061600Z 33009KT 15SM SKC M02/M06 A3045 RMK SLP327

CYWG;2009-04-06 17:00;CYWG 061700Z 32007KT 15SM SKC M01/M05 A3043 RMK SLP320

CYWG;2009-04-06 18:00;CYWG 061800Z 32012KT 15SM SKC 01/M04 A3041 RMK SLP311

CYWG;2009-04-06 19:00;CYWG 061900Z 33011KT 15SM SKC 02/M04 A3038 RMK SLP301

CYWG;2009-04-06 20:00;CYWG 062000Z 32011KT 15SM SKC 02/M04 A3036 RMK SLP295

CYWG;2009-04-06 21:00;CYWG 062100Z 32012KT 15SM SKC 02/M04 A3033 RMK SLP288

CYWG;2009-04-06 22:00;CYWG 062200Z 32011KT 15SM SKC 02/M04 A3032 RMK SLP283

CYWG;2009-04-06 23:00;CYWG 062300Z 31009KT 15SM FEW220 01/M04 A3029 RMK CI1 SLP275

CYWG;2009-04-07 00:00;CYWG 070000Z 30007KT 15SM FEW220 M00/M04 A3027 RMK CI1 SLP267

CYWG;2009-04-07 01:00;CYWG 070100Z 29006KT 15SM FEW220 M02/M05 A3025 RMK CI1 SLP259

CYWG;2009-04-07 02:00;CYWG 070200Z 28004KT 15SM FEW220 M03/M06 A3021 RMK CI1 SLP248

CYWG;2009-04-07 03:00;CYWG 070300Z 27005KT 15SM FEW220 M02/M07 A3019 RMK CI1 SLP237

CYWG;2009-04-07 04:00;CYWG 070400Z 27005KT 15SM FEW220 M02/M07 A3016 RMK CI1 SLP230

CYWG;2009-04-07 05:00;CYWG 070500Z 26005KT 15SM SCT220 M03/M08 A3014 RMK CI1 SLP223

CYWG;2009-04-07 06:00;CYWG 070600Z 19003KT 15SM BKN220 M04/M07 A3012 RMK CI1 SLP212

CYWG;2009-04-07 07:00;CYWG 070700Z 23007KT 15SM OVC220 M03/M07 A3009 RMK CI2 SLP205

CYWG;2009-04-07 08:00;CYWG 070800Z 22006KT 15SM OVC220 M03/M06 A3006 RMK CS2 SLP194

CYWG;2009-04-07 09:00;CYWG 070900Z 21008KT 15SM OVC220 M04/M07 A3003 RMK CS2 SLP182

CYWG;2009-04-07 10:00;CYWG 071000Z 18006KT 15SM FEW100 OVC220 M05/M07 A3000 RMK AC2CI1 SLP174

CYWG;2009-04-07 11:00;CYWG 071100Z 20007KT 15SM FEW100 BKN220 M05/M07 A2999 RMK AC2CI2 SLP168

CYWG;2009-04-07 12:00;CYWG 071200Z 20006KT 15SM FEW100 SCT220 M05/M07 A2998 RMK AC2CI1 SLP166

CYWG;2009-04-07 13:00;CYWG 071300Z 21007KT 15SM FEW100 FEW220 M05/M07 A2996 RMK AC1CI1 SLP158

CYWG;2009-04-07 14:00;CYWG 071400Z 21009KT 15SM FEW100 FEW220 M03/M07 A2993 RMK AC1CI1 SLP151

CYWG;2009-04-07 15:00;CYWG 071500Z 20010KT 15SM FEW100 FEW220 M01/M07 A2991 RMK AC1CI1 SLP143

CYWG;2009-04-07 16:00;CYWG 071600Z 19011KT 15SM FEW220 M00/M05 A2989 RMK CI1 SLP135

CYWG;2009-04-07 17:00;CYWG 071700Z 21013KT 15SM SCT250 00/M04 A2988 RMK CI2 SLP131

CYWG;2009-04-07 18:00;CYWG 071800Z 22012KT 15SM FEW110 BKN250 01/M04 A2987 RMK AC2CI2 SLP129

CYWG;2009-04-07 19:00;CYWG 071900Z 20012KT 15SM BKN250 01/M04 A2985 RMK CI3 SLP120

CYWG;2009-04-07 20:00;CYWG 072000Z 21011KT 15SM BKN073 BKN260 02/M04 A2983 RMK AC5CI1 SLP113

CYWG;2009-04-07 21:00;CYWG 072100Z 21011G16KT 15SM BKN070 01/M03 A2981 RMK AC5 SLP109

CYWG;2009-04-07 22:00;CYWG 072200Z 24010KT 15SM FEW025 FEW260 02/M03 A2981 RMK CU1CI2 SLP108

CYWG;2009-04-07 23:00;CYWG 072300Z 27009KT 15SM SCT110 02/M03 A2980 RMK AC3 SLP106

CYWG;2009-04-08 00:00;CYWG 080000Z 27005KT 15SM SCT110 02/M03 A2979 RMK AC3 SLP101

CYWG;2009-04-08 01:00;CYWG 080100Z 26005KT 15SM FEW260 01/M03 A2978 RMK CI2 SLP097

CYWG;2009-04-08 02:00;CYWG 080200Z 25003KT 15SM FEW260 M00/M03 A2977 RMK CI1 SLP096

CYWG;2009-04-08 03:00;CYWG 080300Z 29004KT 15SM FEW260 M04/M05 A2978 RMK CI1 TR CI SLP098

CYWG;2009-04-08 04:00;CYWG 080400Z 30007KT 15SM FEW095 M04/M05 A2977 RMK AC1 SLP095

CYWG;2009-04-08 05:00;CYWG 080500Z 30005KT 15SM BKN110 M03/M05 A2977 RMK AC5 SLP095

CYWG;2009-04-08 06:00;CYWG 080600Z 30006KT 15SM FEW110 M04/M06 A2976 RMK AC1 TR AC SLP092

CYWG;2009-04-08 07:00;CYWG 080700Z 31007KT 15SM FEW088 M05/M06 A2976 RMK AC1 SLP092

CYWG;2009-04-08 08:00;CYWG 080800Z 32009KT 15SM BKN048 BKN090 M04/M05 A2977 RMK SC5AC2 SLP093

CYWG;2009-04-08 09:00;CYWG 080900Z 33011KT 15SM OVC046 M02/M03 A2977 RMK ST8 SLP095

CYWG;2009-04-08 10:00;CYWG 081000Z 32009KT 15SM OVC046 M01/M03 A2979 RMK SC8 SLP099

CYWG;2009-04-08 11:00;CYWG 081100Z 32012KT 15SM SCT035 BKN068 M01/M03 A2980 RMK SC3AC2 SLP105

CYWG;2009-04-08 12:00;CYWG 081200Z 32013KT 15SM FEW035 SCT046 BKN062 M00/M01 A2982 RMK SC1SC2AC2 SLP111

CYWG;2009-04-08 13:00;CYWG 081300Z 32009KT 15SM FEW046 BKN062 00/M00 A2983 RMK SC2AC5 SLP114

CYWG;2009-04-08 13:30;CYWG 081330Z 32011KT 15SM BKN012 OVC060 01/ RMK SC6SC2

CYWG;2009-04-08 14:00;CYWG 081400Z 33013KT 15SM BKN014 OVC058 01/01 A2984 RMK SC5SC2 SLP116

CYWG;2009-04-08 15:00;CYWG 081500Z 34011KT 15SM BKN013 OVC061 02/01 A2985 RMK SC6SC1 SLP121

CYWG;2009-04-08 15:40;CYWG 081540Z 34011KT 15SM FEW013 SCT061 02/ RMK SC2SC1

CYWG;2009-04-08 16:00;CYWG 081600Z 33010KT 15SM FEW016 FEW061 02/01 A2986 RMK SC2SC1 SLP124

CYWG;2009-04-08 17:00;CYWG 081700Z 33010KT 15SM FEW020 03/01 A2987 RMK SC1 SLP127

CYWG;2009-04-08 18:00;CYWG 081800Z 33012KT 15SM SCT027 BKN080 04/01 A2988 RMK SC3AC1 SLP130

CYWG;2009-04-08 19:00;CYWG 081900Z 32013KT 15SM FEW033 SCT081 03/01 A2987 RMK SC2AC1 SLP129

CYWG;2009-04-08 20:00;CYWG 082000Z 31014KT 15SM SCT036 SCT099 03/00 A2987 RMK SC3AC1 SLP128

CYWG;2009-04-08 21:00;CYWG 082100Z 31014KT 15SM FEW036 03/M00 A2987 RMK SC2 SLP125

CYWG;2009-04-08 22:00;CYWG 082200Z 31012KT 15SM FEW030 03/M00 A2986 RMK CU1 SLP124

CYWG;2009-04-08 23:00;CYWG 082300Z 32011KT 15SM FEW025 03/M01 A2987 RMK CU1 SLP125

CYWG;2009-04-08 23:10;CYWG 082310Z 33009KT 15SM FEW025 02/ RMK CU1

CYWG;2009-04-09 00:00;CYWG 090000Z 34004KT 15SM FEW025 02/M01 A2987 RMK CU1 CU TR SLP125

CYWG;2009-04-09 01:00;CYWG 090100Z 32005KT 15SM FEW025 00/M02 A2986 RMK SC1 SLP124

CYWG;2009-04-09 02:00;CYWG 090200Z 32007KT 15SM FEW025 M00/M03 A2987 RMK SC1 SLP127

CYWG;2009-04-09 03:00;CYWG 090300Z 32005KT 15SM FEW025 M02/M03 A2989 RMK SC1 SLP133

CYWG;2009-04-09 04:00;CYWG 090400Z 04003KT 15SM FEW025 M01/M03 A2991 RMK SC1 SLP141

CYWG;2009-04-09 05:00;CYWG 090500Z 05003KT 15SM SKC M02/M03 A2992 RMK SLP144

CYWG;2009-04-09 06:00;CYWG 090600Z 02005KT 15SM SKC M02/M05 A2993 RMK SLP147

CYWG;2009-04-09 07:00;CYWG 090700Z 28006KT 15SM SKC M04/M05 A2993 RMK SLP149

CYWG;2009-04-09 08:00;CYWG 090800Z 31006KT 15SM SKC M04/M05 A2993 RMK SLP149

CYWG;2009-04-09 09:00;CYWG 090900Z 33009KT 15SM SKC M04/M06 A2994 RMK SLP151

CYWG;2009-04-09 10:00;CYWG 091000Z 32009KT 15SM FEW025 M04/M07 A2995 RMK SC1 SLP155

CYWG;2009-04-09 11:00;CYWG 091100Z 35009KT 15SM FEW025 M04/M06 A2997 RMK SC1 SLP161

CYWG;2009-04-09 12:00;CYWG 091200Z 36006KT 15SM FEW090 M04/M07 A2999 RMK AC1 SLP169

CYWG;2009-04-09 13:00;CYWG 091300Z 01007KT 15SM SKC M04/M06 A3002 RMK SLP177

CYWG;2009-04-09 14:00;CYWG 091400Z 02009KT 15SM SKC M02/M05 A3004 RMK SLP185

CYWG;2009-04-09 15:00;CYWG 091500Z 02009KT 15SM SKC M02/M05 A3006 RMK SLP193

CYWG;2009-04-09 16:00;CYWG 091600Z 02009KT 15SM FEW013 M01/M04 A3008 RMK CF1 SLP199

CYWG;2009-04-09 17:00;CYWG 091700Z 02008KT 15SM FEW020 M00/M05 A3009 RMK CU2 SLP203

CYWG;2009-04-09 18:00;CYWG 091800Z 02008KT 15SM FEW028 00/M05 A3010 RMK CU1 SLP206

CYWG;2009-04-09 19:00;CYWG 091900Z 34008KT 15SM FEW024 01/M05 A3011 RMK CU1 SLP209

CYWG;2009-04-09 20:00;CYWG 092000Z 02007KT 15SM FEW025 01/M05 A3011 RMK CU1 SLP209

CYWG;2009-04-09 21:00;CYWG 092100Z 02005KT 15SM FEW025 FEW250 01/M05 A3011 RMK CU1CI1 SLP210

CYWG;2009-04-09 22:00;CYWG 092200Z 02005KT 15SM FEW250 02/M04 A3011 RMK CI1 SLP211

CYWG;2009-04-09 23:00;CYWG 092300Z 03007KT 15SM FEW250 01/M04 A3012 RMK CI1 SLP212

CYWG;2009-04-10 00:00;CYWG 100000Z 03006KT 15SM FEW250 01/M04 A3012 RMK CI1 SLP214

CYWG;2009-04-10 01:00;CYWG 100100Z 35003KT 15SM FEW250 M01/M03 A3013 RMK CI1 SLP216

CYWG;2009-04-10 02:00;CYWG 100200Z 00000KT 15SM FEW250 M02/M04 A3014 RMK CI1 SLP221

CYWG;2009-04-10 03:00;CYWG 100300Z 30002KT 15SM SKC M02/M04 A3016 RMK SLP227

CYWG;2009-04-10 04:00;CYWG 100400Z 30004KT 15SM SKC M03/M04 A3017 RMK SLP232

CYWG;2009-04-10 05:00;CYWG 100500Z 30005KT 15SM FEW250 M04/M05 A3018 RMK CI1 SLP234

CYWG;2009-04-10 06:00;CYWG 100600Z 35005KT 15SM SKC M04/M04 A3018 RMK SLP235

CYWG;2009-04-10 07:00;CYWG 100700Z 36005KT 15SM SKC M04/M05 A3020 RMK SLP241

CYWG;2009-04-10 08:00;CYWG 100800Z 03006KT 15SM FEW250 M04/M06 A3020 RMK CI1 SLP242

CYWG;2009-04-10 09:00;CYWG 100900Z 05006KT 15SM SKC M04/M06 A3021 RMK FROIN SLP243

CYWG;2009-04-10 10:00;CYWG 101000Z 05006KT 15SM SKC M05/M06 A3021 RMK SLP244

CYWG;2009-04-10 11:00;CYWG 101100Z 05003KT 15SM SKC M05/M07 A3022 RMK SLP248

CYWG;2009-04-10 12:00;CYWG 101200Z 06003KT 15SM FEW250 M05/M07 A3024 RMK CI1 SLP253

CYWG;2009-04-10 13:00;CYWG 101300Z 05002KT 15SM SKC M04/M07 A3025 RMK SLP258

CYWG;2009-04-10 14:00;CYWG 101400Z 00000KT 15SM SKC M03/M06 A3027 RMK SLP263

CYWG;2009-04-10 15:00;CYWG 101500Z 34003KT 15SM SKC M02/M05 A3029 RMK SLP271

CYWG;2009-04-10 16:00;CYWG 101600Z 34002KT 15SM SKC M00/M06 A3029 RMK SLP273

CYWG;2009-04-10 17:00;CYWG 101700Z 33004KT 15SM SKC 01/M05 A3030 RMK SLP275

CYWG;2009-04-10 18:00;CYWG 101800Z 32004KT 15SM SKC 02/M07 A3030 RMK SLP273

CYWG;2009-04-10 19:00;CYWG 101900Z 36004KT 15SM SKC 03/M06 A3029 RMK SLP270

CYWG;2009-04-10 20:00;CYWG 102000Z 03007KT 15SM SKC 04/M08 A3028 RMK SLP268

CYWG;2009-04-10 21:00;CYWG 102100Z 36005KT 15SM SCT270 04/M06 A3028 RMK CI0 SLP266

CYWG;2009-04-10 22:00;CYWG 102200Z 03005KT 15SM SCT270 04/M05 A3027 RMK CI0 SLP264

CYWG;2009-04-10 23:00;CYWG 102300Z 04007KT 15SM SCT270 04/M05 A3026 RMK CI0 SLP261

CYWG;2009-04-11 00:00;CYWG 110000Z 03008KT 15SM BKN270 03/M04 A3026 RMK CI1 SLP262

CYWG;2009-04-11 01:00;CYWG 110100Z 04007KT 15SM BKN270 01/M04 A3026 RMK CI1 SLP261

CYWG;2009-04-11 02:00;CYWG 110200Z 04003KT 15SM SCT270 M00/M04 A3026 RMK CI1 SLP261

CYWG;2009-04-11 03:00;CYWG 110300Z 07004KT 15SM BKN270 M01/M04 A3026 RMK CI1 SLP261

CYWG;2009-04-11 04:00;CYWG 110400Z 09003KT 15SM BKN250 M00/M05 A3026 RMK CI2 SLP261

CYWG;2009-04-11 05:00;CYWG 110500Z 12004KT 15SM OVC250 00/M05 A3026 RMK CI2 SLP262

CYWG;2009-04-11 06:00;CYWG 110600Z 13004KT 15SM OVC250 M01/M04 A3026 RMK CI2 SLP259

CYWG;2009-04-11 07:00;CYWG 110700Z 14003KT 15SM BKN250 M00/M05 A3026 RMK CI2 SLP259

CYWG;2009-04-11 08:00;CYWG 110800Z 13007KT 15SM BKN250 M01/M06 A3025 RMK CI1 SLP258

CYWG;2009-04-11 09:00;CYWG 110900Z 15005KT 15SM BKN250 M01/M06 A3025 RMK CI1 SLP255

CYWG;2009-04-11 10:00;CYWG 111000Z 15007KT 15SM SCT250 M02/M05 A3025 RMK CI1 SLP256

CYWG;2009-04-11 11:00;CYWG 111100Z 16007KT 15SM SCT250 M02/M05 A3026 RMK CI0 SLP258

CYWG;2009-04-11 12:00;CYWG 111200Z 16008KT 15SM FEW120 BKN250 M01/M04 A3025 RMK AC1CI0 SLP258

CYWG;2009-04-11 13:00;CYWG 111300Z 16006KT 15SM FEW120 BKN250 01/M03 A3025 RMK AC1CI0 SLP258

CYWG;2009-04-11 14:00;CYWG 111400Z 17010KT 15SM SCT250 03/M05 A3025 RMK CI0 SLP257

CYWG;2009-04-11 15:00;CYWG 111500Z 18013KT 15SM SCT250 05/M04 A3025 RMK CI0 SLP255

CYWG;2009-04-11 16:00;CYWG 111600Z 19013KT 15SM BKN250 05/M04 A3025 RMK CI2 SLP255

CYWG;2009-04-11 17:00;CYWG 111700Z 17015KT 15SM BKN250 07/M03 A3024 RMK CI2 SLP251

CYWG;2009-04-11 18:00;CYWG 111800Z 18015G20KT 15SM BKN250 08/M02 A3022 RMK CI2 SLP245

CYWG;2009-04-11 19:00;CYWG 111900Z 18017KT 15SM BKN250 09/M00 A3020 RMK CI2 SLP239

CYWG;2009-04-11 20:00;CYWG 112000Z 18015KT 15SM BKN120 BKN250 09/M00 A3019 RMK AC6CI1 SLP235

CYWG;2009-04-11 21:00;CYWG 112100Z 18015G21KT 15SM SCT120 BKN250 10/01 A3018 RMK AC3CI1 SLP229

CYWG;2009-04-11 22:00;CYWG 112200Z 18013G18KT 15SM FEW120 SCT250 10/02 A3016 RMK AC1CI1 SLP224

CYWG;2009-04-11 23:00;CYWG 112300Z 18011G16KT 15SM BKN099 09/03 A3015 RMK AC6 SLP219

CYWG;2009-04-12 00:00;CYWG 120000Z 18012KT 15SM BKN094 08/03 A3013 RMK AC7 SLP213

CYWG;2009-04-12 01:00;CYWG 120100Z 17011KT 15SM BKN096 07/03 A3011 RMK AC7 SLP208

CYWG;2009-04-12 02:00;CYWG 120200Z 16006KT 15SM BKN088 06/02 A3011 RMK AC7 SLP207

CYWG;2009-04-12 03:00;CYWG 120300Z 16010KT 15SM BKN088 07/02 A3010 RMK AC6 SLP201

CYWG;2009-04-12 04:00;CYWG 120400Z 16010KT 15SM BKN100 06/02 A3009 RMK AC6 SLP199

CYWG;2009-04-12 05:00;CYWG 120500Z 16010KT 15SM BKN100 06/01 A3009 RMK AC7 VIRGA SLP200

CYWG;2009-04-12 06:00;CYWG 120600Z 16010KT 15SM BKN070 06/00 A3009 RMK AC4 VIRGA E-SE SLP200

CYWG;2009-04-12 07:00;CYWG 120700Z 17012KT 9SM -SHRA BKN073 OVC100 06/00 A3008 RMK AC5AC3 SLP196

CYWG;2009-04-12 07:19;CYWG 120719Z 17014KT 15SM BKN070 OVC100 06/ RMK AC6AC2 VIRGA/SH N-E

CYWG;2009-04-12 08:00;CYWG 120800Z 18014KT 15SM BKN070 OVC100 06/M00 A3007 RMK AC6AC2 SLP192

CYWG;2009-04-12 09:00;CYWG 120900Z 18019G24KT 9SM -SHRA OVC065 07/M01 A3006 RMK SC8 SLP186

CYWG;2009-04-12 09:42;CYWG 120942Z 18017KT 15SM OVC065 06/ RMK SC8 VIRGA

CYWG;2009-04-12 10:00;CYWG 121000Z CCA 18019KT 15SM OVC065 06/M01 A3006 RMK SC8 VIRGA SLP185

CYWG;2009-04-12 11:00;CYWG 121100Z 17014G20KT 15SM BKN071 BKN084 06/M01 A3005 RMK AC6AC2 SLP182

CYWG;2009-04-12 12:00;CYWG 121200Z 18016KT 15SM SCT071 BKN092 06/M02 A3004 RMK AC3AC3 SLP181

CYWG;2009-04-12 13:00;CYWG 121300Z 18014G19KT 15SM BKN071 BKN092 06/M01 A3004 RMK AC5AC2 SLP182

CYWG;2009-04-12 14:00;CYWG 121400Z 19016G21KT 15SM SCT071 BKN110 BKN240 06/M01 A3005 RMK AC3AC2CI0 SLP184

CYWG;2009-04-12 15:00;CYWG 121500Z 18020G25KT 15SM FEW071 BKN110 BKN240 06/00 A3005 RMK AC2AC3CI1 SLP185

CYWG;2009-04-12 16:00;CYWG 121600Z 19017KT 15SM FEW071 BKN094 OVC120 06/01 A3006 RMK AC1AS6AC1 SLP186

CYWG;2009-04-12 17:00;CYWG 121700Z 18016KT 15SM FEW084 OVC093 06/02 A3006 RMK AC2AS6 SLP187

CYWG;2009-04-12 18:00;CYWG 121800Z 18012KT 15SM FEW046 BKN059 BKN071 OVC095 06/03 A3004 RMK SC2SC3AC2AS2 SLP183

CYWG;2009-04-12 19:00;CYWG 121900Z 18014KT 15SM SCT071 OVC093 08/04 A3002 RMK AC3AS5 HZ SLP176

CYWG;2009-04-12 20:00;CYWG 122000Z 17014KT 15SM SCT070 OVC100 11/06 A2999 RMK AC3AS5 HZ SLP167

CYWG;2009-04-12 20:55;CYWG 122055Z 18016KT 10SM -RA BKN044 OVC086 10/ RMK SC6AS2 HZ

CYWG;2009-04-12 21:00;CYWG 122100Z 19014KT 10SM -RA BKN044 OVC086 10/07 A2999 RMK SC6AS2 HZ SLP164

CYWG;2009-04-12 22:00;CYWG 122200Z 17012KT 10SM -RA SCT039 BKN045 OVC073 09/08 A2996 RMK SC3SC3AS2 HZ SLP155

CYWG;2009-04-12 23:00;CYWG 122300Z 18018G24KT 6SM -RA BR SCT016 OVC032 09/08 A2996 RMK SF3SC5 SLP153

CYWG;2009-04-13 00:00;CYWG 130000Z 17017KT 4SM -RA BR OVC024 08/08 A2995 RMK SC8 SLP150

CYWG;2009-04-13 01:00;CYWG 130100Z 18020G27KT 4SM -RA BR SCT024 OVC032 08/08 A2994 RMK SC3SC5 SLP147

CYWG;2009-04-13 02:00;CYWG 130200Z 17022G31KT 5SM -RA BR SCT010 OVC022 07/07 A2993 RMK ST3SC5 SLP145

CYWG;2009-04-13 02:07;CYWG 130207Z 18023G29KT 5SM -RA BR BKN009 OVC020 07/ RMK ST6SC2

CYWG;2009-04-13 03:00;CYWG 130300Z 17024KT 5SM -RA BR OVC009 07/07 A2992 RMK SF8 SLP140

CYWG;2009-04-13 04:00;CYWG 130400Z 17021G28KT 15SM -RA SCT010 OVC022 07/07 A2990 RMK SF3SC5 SLP133

CYWG;2009-04-13 05:00;CYWG 130500Z 18022G28KT 15SM -RA OVC011 07/06 A2988 RMK SF8 SLP127

CYWG;2009-04-13 06:00;CYWG 130600Z 19020G27KT 5SM -RA BR OVC009 07/07 A2987 RMK SF8 SLP124

CYWG;2009-04-13 07:00;CYWG 130700Z 19019G27KT 4SM -RA BR OVC006 06/06 A2986 RMK SF8 SLP121

CYWG;2009-04-13 08:00;CYWG 130800Z 20016G24KT 4SM -RA BR OVC004 07/07 A2985 RMK SF8 SLP117

CYWG;2009-04-13 09:00;CYWG 130900Z 19019KT 5SM BR OVC005 06/06 A2984 RMK SF8 SLP111

CYWG;2009-04-13 10:00;CYWG 131000Z 19016G21KT 15SM OVC005 06/06 A2983 RMK SF8 SLP107

CYWG;2009-04-13 11:00;CYWG 131100Z 19015G21KT 10SM OVC007 06/06 A2982 RMK SF8 SLP105

CYWG;2009-04-13 12:00;CYWG 131200Z 18013KT 7SM OVC006 06/06 A2982 RMK SF8 SLP105

CYWG;2009-04-13 13:00;CYWG 131300Z 18015KT 8SM OVC007 06/06 A2982 RMK SF8 SLP106

CYWG;2009-04-13 14:00;CYWG 131400Z 19015KT 10SM OVC009 06/06 A2982 RMK SF8 SLP105

CYWG;2009-04-13 14:33;CYWG 131433Z 18013G18KT 10SM OVC010 06/ RMK SF8

CYWG;2009-04-13 15:00;CYWG 131500Z 19013KT 12SM OVC009 07/06 A2981 RMK SF8 SLP102

CYWG;2009-04-13 16:00;CYWG 131600Z 18014KT 12SM BKN008 OVC081 07/06 A2980 RMK SF6AC2 SLP101

CYWG;2009-04-13 17:00;CYWG 131700Z 18016KT 7SM -RA OVC007 07/07 A2980 RMK SF8 SLP101

CYWG;2009-04-13 18:00;CYWG 131800Z 18013G19KT 6SM RA OVC006 06/06 A2981 RMK SF8 SLP102

CYWG;2009-04-13 19:00;CYWG 131900Z 18016KT 10SM -RA OVC008 07/07 A2980 RMK SF8 SLP100

CYWG;2009-04-13 19:24;CYWG 131924Z 18016G21KT 10SM -DZ OVC008 08/ RMK SF8

CYWG;2009-04-13 19:37;CYWG 131937Z 19014G19KT 12SM OVC010 08/ RMK SF8

CYWG;2009-04-13 20:00;CYWG 132000Z 19014G20KT 12SM -DZ BKN010 OVC021 07/07 A2980 RMK SF6SC2 SLP101

CYWG;2009-04-13 21:00;CYWG 132100Z 19012KT 12SM -DZ BKN010 OVC019 08/07 A2980 RMK SF6SC2 SLP098

CYWG;2009-04-13 21:12;CYWG 132112Z 19014KT 12SM OVC009 08/ RMK SF8

CYWG;2009-04-13 22:00;CYWG 132200Z 20008KT 12SM BKN009 OVC026 08/07 A2981 RMK SF6SC2 SLP102

CYWG;2009-04-13 23:00;CYWG 132300Z 19013KT 7SM OVC012 08/07 A2981 RMK SF8 SLP103

CYWG;2009-04-14 00:00;CYWG 140000Z 19008KT 6SM BR BKN008 OVC039 07/07 A2983 RMK SF6SC2 SLP109

CYWG;2009-04-14 01:00;CYWG 140100Z 16007KT 5SM BR BKN010 OVC044 07/07 A2983 RMK SF7SC1 SLP110

CYWG;2009-04-14 02:00;CYWG 140200Z 17006KT 5SM BR OVC008 07/07 A2984 RMK SF8 SLP114

CYWG;2009-04-14 02:35;CYWG 140235Z 18005KT 6SM BR OVC013 07/ RMK SF8

CYWG;2009-04-14 03:00;CYWG 140300Z 16008KT 15SM FEW011 OVC014 07/07 A2985 RMK SF2SF6 SLP116

CYWG;2009-04-14 04:00;CYWG 140400Z 16011KT 6SM BR OVC016 07/06 A2985 RMK SF8 SLP115

CYWG;2009-04-14 05:00;CYWG 140500Z 17010KT 6SM BR OVC016 07/05 A2984 RMK SF8 SLP114

CYWG;2009-04-14 05:39;CYWG 140539Z CCA 18007KT 9SM OVC012 07/ RMK SF8 BR

CYWG;2009-04-14 06:00;CYWG 140600Z 18007KT 9SM OVC012 07/05 A2984 RMK SF8 BR SLP114

CYWG;2009-04-14 06:39;CYWG 140639Z 18007KT 9SM OVC009 06/ RMK SF8 BR

CYWG;2009-04-14 07:00;CYWG 140700Z 17007KT 9SM OVC008 06/05 A2985 RMK SF8 BR SLP116

CYWG;2009-04-14 08:00;CYWG 140800Z 16005KT 15SM OVC008 06/05 A2985 RMK SC8 BR SLP117

CYWG;2009-04-14 09:00;CYWG 140900Z CCA 16005KT 15SM OVC007 06/05 A2986 RMK SC8 SLP118

CYWG;2009-04-14 10:00;CYWG 141000Z 17002KT 15SM SCT005 BKN014 05/05 A2987 RMK SF2SC2 SLP121

CYWG;2009-04-14 10:44;CYWG 141044Z 13002KT 15SM BKN008 OVC014 05/ RMK SF6SC2

CYWG;2009-04-14 11:00;CYWG 141100Z 12003KT 15SM OVC011 05/05 A2987 RMK SF8 SLP122

CYWG;2009-04-14 11:42;CYWG 141142Z 14006KT 15SM SCT014 BKN100 BKN250 04/ RMK SC3AC2CI1

CYWG;2009-04-14 12:00;CYWG 141200Z 16006KT 10SM FEW016 SCT100 BKN250 04/03 A2988 RMK SC2AC1CI1 BR SLP126

CYWG;2009-04-14 13:00;CYWG 141300Z 15005KT 10SM FEW016 FEW250 06/04 A2988 RMK SC1CI0 BR SLP127

CYWG;2009-04-14 14:00;CYWG 141400Z 18008KT 15SM FEW016 FEW250 07/03 A2989 RMK SC1CI0 SLP131

CYWG;2009-04-14 15:00;CYWG 141500Z 17009KT 15SM FEW020 FEW250 09/04 A2990 RMK SC1CI0 SLP131

CYWG;2009-04-14 16:00;CYWG 141600Z 16009KT 15SM FEW250 10/05 A2989 RMK CI1 SLP130

CYWG;2009-04-14 17:00;CYWG 141700Z 16008KT 15SM FEW250 11/06 A2990 RMK CI0 SLP132

CYWG;2009-04-14 18:00;CYWG 141800Z 19009KT 15SM FEW250 12/07 A2990 RMK CI0 SLP132

CYWG;2009-04-14 19:00;CYWG 141900Z 18011KT 15SM BKN250 14/08 A2990 RMK CI2 SLP131

CYWG;2009-04-14 20:00;CYWG 142000Z 17009KT 15SM BKN250 15/08 A2990 RMK CI2 SLP132

CYWG;2009-04-14 21:00;CYWG 142100Z 16010KT 15SM SCT250 16/08 A2990 RMK CI1 SLP129

CYWG;2009-04-14 22:00;CYWG 142200Z 16011KT 15SM BKN250 16/08 A2990 RMK CI2 SLP129

CYWG;2009-04-14 23:00;CYWG 142300Z 16012KT 15SM FEW100 SCT250 16/08 A2990 RMK AC1CI1 SLP130

CYWG;2009-04-15 00:00;CYWG 150000Z 18012KT 15SM FEW100 SCT250 14/10 A2991 RMK ACC2CI1 VIRGA SW SLP136

CYWG;2009-04-15 01:00;CYWG 150100Z 15008KT 15SM FEW100 SCT250 13/10 A2991 RMK AC2CI1 ACC ASOCTD VIRGA W SLP137

CYWG;2009-04-15 02:00;CYWG 150200Z 15008KT 15SM SCT100 BKN250 13/10 A2993 RMK AC3CI1 SLP142

CYWG;2009-04-15 03:00;CYWG 150300Z 16010KT 15SM SCT120 12/10 A2995 RMK AC3 SLP147

CYWG;2009-04-15 04:00;CYWG 150400Z 18014KT 15SM FEW120 11/09 A2996 RMK AC2 SLP151

CYWG;2009-04-15 05:00;CYWG 150500Z 18015KT 15SM SKC 11/08 A2996 RMK SLP152

CYWG;2009-04-15 06:00;CYWG 150600Z 19014KT 15SM SKC 10/07 A2997 RMK SLP156

CYWG;2009-04-15 07:00;CYWG 150700Z 18012KT 15SM SKC 09/06 A2998 RMK SLP158

CYWG;2009-04-15 08:00;CYWG 150800Z 19011KT 15SM SKC 09/05 A3000 RMK SLP165

CYWG;2009-04-15 09:00;CYWG 150900Z 18012KT 15SM SKC 08/04 A3001 RMK SLP168

CYWG;2009-04-15 10:00;CYWG 151000Z 18012KT 15SM SKC 07/04 A3003 RMK SLP175

CYWG;2009-04-15 11:00;CYWG 151100Z 18012KT 15SM FEW250 07/03 A3004 RMK CI1 SLP179

CYWG;2009-04-15 12:00;CYWG 151200Z 18012KT 15SM FEW086 BKN250 07/02 A3006 RMK AC1CI1 SLP185

CYWG;2009-04-15 13:00;CYWG 151300Z 18014KT 15SM FEW090 BKN250 08/02 A3007 RMK AC1CI1 SLP189

CYWG;2009-04-15 14:00;CYWG 151400Z 18015KT 15SM FEW090 BKN250 09/02 A3009 RMK AC1CI1 SLP194

CYWG;2009-04-15 15:00;CYWG 151500Z 19018KT 15SM FEW090 BKN270 11/02 A3009 RMK AC1CI1 SLP196

CYWG;2009-04-15 16:00;CYWG 151600Z 18018KT 15SM FEW075 BKN270 12/03 A3010 RMK AC1CI2 SLP199

CYWG;2009-04-15 17:00;CYWG 151700Z 18020G25KT 15SM FEW087 BKN270 13/03 A3010 RMK AC1CI1 SLP199

CYWG;2009-04-15 18:00;CYWG 151800Z 18022G28KT 15SM FEW092 BKN270 15/03 A3010 RMK AC1CI1 SLP197

CYWG;2009-04-15 19:00;CYWG 151900Z 18016G26KT 15SM FEW092 BKN270 17/05 A3009 RMK AC1CI1 SLP196

CYWG;2009-04-15 20:00;CYWG 152000Z 18023G28KT 15SM FEW090 BKN270 17/03 A3009 RMK AC1CI1 SLP194

CYWG;2009-04-15 21:00;CYWG 152100Z 18019G28KT 15SM FEW090 OVC270 18/03 A3008 RMK AC1CI2 SLP192

CYWG;2009-04-15 22:00;CYWG 152200Z 18017KT 15SM FEW087 OVC270 18/05 A3008 RMK AC1CI2 SLP190

CYWG;2009-04-15 23:00;CYWG 152300Z 18014KT 15SM FEW096 OVC270 17/06 A3008 RMK AC2CI2 SLP190

CYWG;2009-04-16 00:00;CYWG 160000Z 18012KT 15SM FEW095 OVC270 17/06 A3007 RMK AC1CI2 SLP189

CYWG;2009-04-16 01:00;CYWG 160100Z 18009KT 15SM FEW090 OVC270 14/07 A3008 RMK AC1CI1 SLP191

CYWG;2009-04-16 02:00;CYWG 160200Z 18007KT 15SM FEW090 OVC270 11/06 A3009 RMK AC1CI1 SLP196

CYWG;2009-04-16 03:00;CYWG 160300Z 15006KT 15SM SKC 10/06 A3011 RMK SLP203

CYWG;2009-04-16 04:00;CYWG 160400Z 16009KT 15SM SKC 09/04 A3011 RMK SLP204

CYWG;2009-04-16 05:00;CYWG 160500Z 16011KT 15SM SKC 10/02 A3012 RMK SLP206

CYWG;2009-04-16 06:00;CYWG 160600Z 16012KT 15SM SKC 09/01 A3012 RMK SLP204

CYWG;2009-04-16 07:00;CYWG 160700Z 16011KT 15SM BKN260 08/01 A3012 RMK CI0 SLP204

CYWG;2009-04-16 08:00;CYWG 160800Z 17013KT 15SM BKN260 10/M01 A3012 RMK CI0 SLP206

CYWG;2009-04-16 09:00;CYWG 160900Z 19015G20KT 15SM BKN120 10/M00 A3013 RMK AC5 SLP209

CYWG;2009-04-16 10:00;CYWG 161000Z 19017KT 15SM BKN120 09/00 A3015 RMK AC5 SLP213

CYWG;2009-04-16 11:00;CYWG 161100Z 19015KT 15SM BKN074 OVC090 09/01 A3016 RMK AC6AC2 SLP216

CYWG;2009-04-16 12:00;CYWG 161200Z 17011G16KT 15SM -RA BKN070 08/02 A3016 RMK AC7 SLP220

CYWG;2009-04-16 13:00;CYWG 161300Z 17013KT 15SM -RA BKN063 09/01 A3017 RMK SC7 SLP223

CYWG;2009-04-16 13:30;CYWG 161330Z 17014KT 15SM BKN063 OVC087 09/ RMK SC6AC2

CYWG;2009-04-16 14:00;CYWG 161400Z 17013KT 15SM SCT049 OVC065 09/02 A3016 RMK SC3SC5 OBS TAKEN +10 SLP219

CYWG;2009-04-16 15:00;CYWG 161500Z 17014KT 15SM BKN041 OVC062 10/01 A3016 RMK SC5SC3 SLP220

CYWG;2009-04-16 16:00;CYWG 161600Z 18016KT 15SM -SHRA BKN051 OVC093 11/02 A3016 RMK SC6AC2 SLP220

CYWG;2009-04-16 17:00;CYWG 161700Z 18017G22KT 15SM BKN060 BKN087 BKN240 14/04 A3016 RMK SC5AC1CI0 SLP218

CYWG;2009-04-16 18:00;CYWG 161800Z 17012G20KT 15SM BKN072 OVC096 13/03 A3014 RMK AC6AC2 SLP213

CYWG;2009-04-16 19:00;CYWG 161900Z 17010G15KT 15SM BKN081 OVC120 14/06 A3012 RMK AC6AC2 SLP207

CYWG;2009-04-16 20:00;CYWG 162000Z 20017G25KT 15SM BKN080 OVC120 15/08 A3012 RMK AC6AC2 SLP206

CYWG;2009-04-16 21:00;CYWG 162100Z 19019G24KT 15SM -SHRA SCT067 BKN077 OVC120 14/08 A3012 RMK AC3AC3AC2 SLP205

CYWG;2009-04-16 21:48;CYWG 162148Z 19016KT 15SM BKN061 OVC080 13/ RMK SC6AC2

CYWG;2009-04-16 22:00;CYWG 162200Z 19014KT 15SM BKN061 OVC080 13/08 A3012 RMK SC6AC2 SLP205

CYWG;2009-04-16 23:00;CYWG 162300Z 19015G20KT 15SM SCT039 BKN053 OVC087 13/08 A3011 RMK SC3SC2AC2 SLP202

CYWG;2009-04-17 00:00;CYWG 170000Z 19013G19KT 15SM FEW039 OVC071 13/09 A3011 RMK SC2AC6 SLP201

CYWG;2009-04-17 01:00;CYWG 170100Z 19011KT 15SM FEW040 BKN072 OVC093 13/09 A3009 RMK SC2AC4AC2 SLP197

CYWG;2009-04-17 02:00;CYWG 170200Z 22011KT 15SM SCT033 OVC058 13/10 A3011 RMK SC3SC5 SLP203

CYWG;2009-04-17 03:00;CYWG 170300Z 21009KT 15SM BKN033 OVC056 12/10 A3012 RMK SC5SC3 SLP206

CYWG;2009-04-17 04:00;CYWG 170400Z 21011KT 15SM BKN030 OVC056 12/10 A3012 RMK SC6SC2 SLP204

CYWG;2009-04-17 05:00;CYWG 170500Z 22009KT 15SM OVC029 12/10 A3012 RMK SC8 SLP204

CYWG;2009-04-17 06:00;CYWG 170600Z 22011G16KT 15SM FEW037 10/09 A3012 RMK SC2 SLP205

CYWG;2009-04-17 07:00;CYWG 170700Z 27009G16KT 15SM SCT021 OVC049 09/08 A3013 RMK SC4SC4 SLP208

CYWG;2009-04-17 07:46;CYWG 170746Z 28010KT 10SM SCT004 OVC024 06/ RMK SF4SC4

CYWG;2009-04-17 08:00;CYWG 170800Z 29011KT 10SM BKN004 OVC024 06/05 A3014 RMK SF5SC3 SLP212

CYWG;2009-04-17 09:00;CYWG 170900Z 29011KT 10SM BKN004 OVC024 05/05 A3015 RMK SF6SC2 SLP217

CYWG;2009-04-17 09:40;CYWG 170940Z 29013KT 10SM BKN003 OVC039 04/ RMK SF6SC2

CYWG;2009-04-17 10:00;CYWG 171000Z 30010KT 5SM BR OVC002 04/04 A3016 RMK ST8 SLP220

CYWG;2009-04-17 10:17;CYWG 171017Z 29011KT 3SM -DZ BR OVC002 04/ RMK ST8

CYWG;2009-04-17 11:00;CYWG 171100Z 31010KT 3SM -DZ BR OVC002 04/04 A3017 RMK ST8 SLP225

CYWG;2009-04-17 11:15;CYWG 171115Z 31013KT 3SM BR OVC002 03/ RMK ST8

CYWG;2009-04-17 11:36;CYWG 171136Z 32011KT 10SM OVC003 03/ RMK ST8

CYWG;2009-04-17 12:00;CYWG 171200Z 31010KT 10SM OVC004 03/03 A3018 RMK ST8 SLP228

CYWG;2009-04-17 13:00;CYWG 171300Z 29009KT 10SM OVC005 03/03 A3020 RMK ST8 SLP234

CYWG;2009-04-17 14:00;CYWG 171400Z 29011KT 10SM OVC006 03/03 A3021 RMK ST8 SLP238

CYWG;2009-04-17 15:00;CYWG 171500Z 28012KT 10SM OVC006 03/03 A3022 RMK ST8 SLP241

CYWG;2009-04-17 16:00;CYWG 171600Z 30015G21KT 10SM BKN004 OVC014 04/03 A3023 RMK ST6ST2 SLP246

CYWG;2009-04-17 16:43;CYWG 171643Z 31018KT 10SM OVC006 03/ RMK ST8

CYWG;2009-04-17 17:00;CYWG 171700Z 31017KT 15SM OVC007 03/02 A3025 RMK ST8 SLP250

CYWG;2009-04-17 18:00;CYWG 171800Z 31016KT 15SM OVC009 04/02 A3026 RMK ST8 SLP255

CYWG;2009-04-17 18:28;CYWG 171828Z 30014KT 15SM OVC010 04/ RMK ST8

CYWG;2009-04-17 19:00;CYWG 171900Z 32015KT 15SM OVC010 04/02 A3026 RMK ST8 SLP256

CYWG;2009-04-17 20:00;CYWG 172000Z 32014KT 15SM OVC012 04/02 A3027 RMK SC8 SLP258

CYWG;2009-04-17 21:00;CYWG 172100Z 32016KT 15SM OVC014 04/02 A3027 RMK SC8 SLP261

CYWG;2009-04-17 22:00;CYWG 172200Z 32014KT 15SM OVC010 04/02 A3027 RMK SC8 SLP262

CYWG;2009-04-17 22:07;CYWG 172207Z 32014KT 15SM OVC009 04/ RMK SC8

CYWG;2009-04-17 23:00;CYWG 172300Z 32013KT 15SM OVC007 03/02 A3028 RMK ST8 SLP263

CYWG;2009-04-18 00:00;CYWG 180000Z 31012KT 15SM BKN009 OVC020 03/02 A3028 RMK ST7SC1 SLP264

CYWG;2009-04-18 00:05;CYWG 180005Z 31011KT 15SM BKN010 OVC020 03/ RMK ST7SC1

CYWG;2009-04-18 00:51;CYWG 180051Z 31013KT 15SM OVC014 02/ RMK SC8

CYWG;2009-04-18 01:00;CYWG 180100Z 32012KT 15SM OVC014 02/01 A3028 RMK SC8 SLP265

CYWG;2009-04-18 02:00;CYWG 180200Z 35011KT 15SM OVC014 02/00 A3028 RMK SC8 SLP265

CYWG;2009-04-18 02:32;CYWG 180232Z 35012KT 15SM OVC017 02/ RMK SC8

CYWG;2009-04-18 03:00;CYWG 180300Z 34010KT 15SM OVC019 02/M01 A3029 RMK SC8 SLP268

CYWG;2009-04-18 03:28;CYWG 180328Z 35010KT 15SM -SN OVC021 01/ RMK SC8

CYWG;2009-04-18 04:00;CYWG 180400Z 35010KT 15SM FEW017 OVC034 01/M00 A3030 RMK SF2SC6 SLP272

CYWG;2009-04-18 04:16;CYWG 180416Z 34010KT 6SM -SN FEW008 SCT017 OVC034 01/ RMK SF2SC2SC4

CYWG;2009-04-18 05:00;CYWG 180500Z CCA 32010KT 15SM FEW009 OVC036 00/00 A3031 RMK SF2SC6 OBS TAKEN +07 WND ESTD VIA YBR FSS SLP278

CYWG;2009-04-18 06:00;CYWG 180600Z CCA 32010KT 15SM FEW009 OVC036 00/00 A3031 RMK SF2SC6 OBS TAKEN +07 WND ESTD VIA YBR FSS SLP278

CYWG;2009-04-18 07:00;CYWG 180700Z 36010KT 15SM OVC030 01/M01 A3030 RMK SC8 WND ESTD VIA YBR SLP275

CYWG;2009-04-18 08:00;CYWG 180800Z 01013KT 15SM BKN019 OVC033 M00/M02 A3029 RMK SC5SC3 SLP269

CYWG;2009-04-18 09:00;CYWG 180900Z 01013G18KT 15SM OVC016 M01/M03 A3029 RMK SC8 SLP267

CYWG;2009-04-18 09:18;CYWG 180918Z 01012G17KT 15SM OVC014 M00/ RMK SC8

CYWG;2009-04-18 10:00;CYWG 181000Z 02012KT 15SM OVC014 M01/M02 A3030 RMK SC8 SLP271

CYWG;2009-04-18 11:00;CYWG 181100Z 04012KT 15SM OVC012 M01/M03 A3032 RMK SC8 SLP278

CYWG;2009-04-18 12:00;CYWG 181200Z 04008KT 15SM OVC010 M01/M03 A3033 RMK SC8 SLP283

CYWG;2009-04-18 12:41;CYWG 181241Z 01012KT 15SM OVC009 M01/ RMK SC8

CYWG;2009-04-18 13:00;CYWG 181300Z 03013KT 15SM OVC008 M01/M03 A3033 RMK SC8 SLP285

CYWG;2009-04-18 14:00;CYWG 181400Z 03015KT 15SM OVC009 M01/M03 A3033 RMK SC8 SLP284

CYWG;2009-04-18 14:20;CYWG 181420Z 03011G17KT 15SM OVC010 M01/ RMK SC8

CYWG;2009-04-18 15:00;CYWG 181500Z 02011KT 15SM OVC012 M00/M03 A3032 RMK SC8 SLP282

CYWG;2009-04-18 16:00;CYWG 181600Z 03011KT 15SM OVC012 M00/M02 A3032 RMK SC8 SLP280

CYWG;2009-04-18 17:00;CYWG 181700Z 02012KT 15SM OVC012 01/M02 A3031 RMK SC8 SLP278

CYWG;2009-04-18 18:00;CYWG 181800Z 04011G16KT 15SM OVC014 01/M02 A3030 RMK SC8 SLP273

CYWG;2009-04-18 19:00;CYWG 181900Z 04012KT 15SM OVC016 02/M02 A3029 RMK SC8 SLP270

CYWG;2009-04-18 20:00;CYWG 182000Z 04009KT 15SM OVC016 02/M01 A3029 RMK SC8 SLP268

CYWG;2009-04-18 21:00;CYWG 182100Z 02011KT 15SM OVC014 02/M01 A3028 RMK SC8 SLP265

CYWG;2009-04-18 22:00;CYWG 182200Z 03011KT 15SM OVC015 02/M01 A3026 RMK SC8 SLP259

CYWG;2009-04-18 23:00;CYWG 182300Z 03008KT 15SM OVC015 02/M01 A3025 RMK SC8 SLP257

CYWG;2009-04-19 00:00;CYWG 190000Z 03007KT 15SM BKN023 OVC060 02/M00 A3025 RMK SC6SC2 SLP255

CYWG;2009-04-19 01:00;CYWG 190100Z 02010KT 15SM SCT016 OVC030 02/M01 A3025 RMK SC3SC5 SLP256

CYWG;2009-04-19 02:00;CYWG 190200Z 02007KT 15SM OVC030 02/M00 A3025 RMK SC8 SLP257

CYWG;2009-04-19 03:00;CYWG 190300Z 02006KT 15SM BKN026 OVC060 02/M00 A3025 RMK SC6SC2 SLP257

CYWG;2009-04-19 04:00;CYWG 190400Z 04007KT 15SM FEW016 BKN028 OVC060 02/00 A3024 RMK SF1SC6SC2 SLP253

CYWG;2009-04-19 05:00;CYWG 190500Z 05005KT 15SM FEW016 BKN035 OVC060 01/00 A3022 RMK SF1SC6SC2 SLP247

CYWG;2009-04-19 06:00;CYWG 190600Z 05002KT 15SM FEW016 BKN039 OVC060 01/00 A3021 RMK SF1SC6SC2 SLP242

CYWG;2009-04-19 07:00;CYWG 190700Z 02003KT 15SM BKN039 OVC078 01/00 A3020 RMK SC6AC2 SLP240

CYWG;2009-04-19 08:00;CYWG 190800Z 34003KT 15SM SCT028 BKN035 OVC080 00/00 A3019 RMK SC4SC2AC2 SLP235

CYWG;2009-04-19 09:00;CYWG 190900Z 04004KT 15SM OVC037 00/00 A3017 RMK SC8 SLP228

CYWG;2009-04-19 10:00;CYWG 191000Z 00000KT 15SM OVC035 00/M00 A3016 RMK SC8 SLP225

CYWG;2009-04-19 11:00;CYWG 191100Z CCA 10002KT 15SM OVC035 00/M00 A3014 RMK SC8 OBS TAKEN +5 SLP220

CYWG;2009-04-19 12:00;CYWG 191200Z 14003KT 15SM OVC035 01/M00 A3013 RMK SC8 SLP214

CYWG;2009-04-19 13:00;CYWG 191300Z 14004KT 15SM OVC033 02/M00 A3012 RMK SC7 SLP210

CYWG;2009-04-19 14:00;CYWG 191400Z 17004KT 15SM OVC033 03/01 A3011 RMK SC7 SLP207

CYWG;2009-04-19 15:00;CYWG 191500Z 15005KT 15SM FEW020 BKN033 BKN090 05/01 A3009 RMK CF2SC4AC1 SLP199

CYWG;2009-04-19 16:00;CYWG 191600Z 22008KT 15SM BKN019 OVC033 05/01 A3008 RMK SC6SC2 SLP198

CYWG;2009-04-19 17:00;CYWG 191700Z 24006KT 15SM FEW016 BKN026 OVC090 04/01 A3007 RMK SC2SC4AC2 SLP194

CYWG;2009-04-19 18:00;CYWG 191800Z 25003KT 15SM FEW020 BKN026 OVC046 04/00 A3006 RMK CF2SC5SC1 SLP190

CYWG;2009-04-19 19:00;CYWG 191900Z 26004KT 15SM -SHRA BKN020 OVC058 05/00 A3004 RMK SC7SC1 SLP185

CYWG;2009-04-19 20:00;CYWG 192000Z 19003KT 15SM -SHRA OVC020 05/01 A3003 RMK SC8 SLP180

CYWG;2009-04-19 21:00;CYWG 192100Z 17002KT 15SM -SHRA OVC022 05/01 A3002 RMK SC8 SLP175

CYWG;2009-04-19 22:00;CYWG 192200Z 29004KT 15SM -SHRA OVC020 04/02 A3002 RMK SC8 SLP175

CYWG;2009-04-19 23:00;CYWG 192300Z 31006KT 10SM -SHRA BKN008 OVC018 03/03 A3002 RMK SF6SC2 BR SLP177

CYWG;2009-04-20 00:00;CYWG 200000Z 34008KT 12SM -SHRA OVC008 03/03 A3003 RMK SF8 BR CIG RAG SLP181

CYWG;2009-04-20 00:37;CYWG 200037Z 35007KT 15SM -SHRA SCT010 BKN021 OVC088 03/ RMK SF4SC3AC1

CYWG;2009-04-20 01:00;CYWG 200100Z 02009KT 15SM -SHRA BKN010 OVC021 03/02 A3004 RMK SF6SC2 SLP183

CYWG;2009-04-20 01:48;CYWG 200148Z 35008KT 15SM -SHRA FEW010 BKN036 OVC065 03/ RMK SF1SC6SC2

CYWG;2009-04-20 02:00;CYWG 200200Z 35008KT 15SM -SHRA FEW010 BKN036 OVC065 02/02 A3004 RMK SF1SC6SC2 SLP185

CYWG;2009-04-20 03:00;CYWG 200300Z 35007KT 15SM -DZ FEW010 OVC038 02/02 A3005 RMK SF2SC6 SLP187

CYWG;2009-04-20 04:00;CYWG 200400Z 33008KT 15SM -DZ FEW010 OVC043 02/02 A3005 RMK SF2SC6 SLP187

CYWG;2009-04-20 05:00;CYWG 200500Z 34009KT 15SM -DZ BKN027 OVC056 02/02 A3006 RMK SC4SC4 SLP188

CYWG;2009-04-20 05:42;CYWG 200542Z 34009KT 12SM -DZ BKN006 OVC060 02/ RMK SF6SC2

CYWG;2009-04-20 06:00;CYWG 200600Z 35009KT 12SM -DZ BKN006 OVC061 02/02 A3005 RMK SF6SC2 SLP186

CYWG;2009-04-20 07:00;CYWG 200700Z 34011KT 12SM -DZ BKN008 OVC034 01/01 A3005 RMK SF4SC4 SLP185

CYWG;2009-04-20 07:44;CYWG 200744Z 34008KT 15SM -DZ FEW008 OVC041 01/ RMK SF2SC6

CYWG;2009-04-20 08:00;CYWG 200800Z 33009KT 15SM -DZ FEW008 OVC043 01/01 A3004 RMK SF2SC6 SLP182

CYWG;2009-04-20 08:49;CYWG 200849Z 33009KT 12SM -DZ SCT007 OVC011 01/ RMK SF3ST5

CYWG;2009-04-20 09:00;CYWG 200900Z 33011KT 12SM -DZ BKN007 OVC027 01/01 A3004 RMK SF6SC2 SLP182

CYWG;2009-04-20 09:37;CYWG 200937Z 34011KT 12SM -DZ SCT007 OVC016 01/ RMK SF3ST5

CYWG;2009-04-20 10:00;CYWG 201000Z 33011KT 15SM -DZ SCT007 OVC030 01/01 A3004 RMK SF3SC5 SLP183

CYWG;2009-04-20 10:46;CYWG 201046Z 33012KT 15SM FEW007 OVC030 01/ RMK SF2SC6

CYWG;2009-04-20 11:00;CYWG 201100Z 33011KT 15SM FEW007 OVC030 01/01 A3004 RMK SF1SC7 SLP184

CYWG;2009-04-20 11:34;CYWG 201134Z 33012KT 12SM -RA OVC026 01/ RMK SC8 VIS E 5

CYWG;2009-04-20 11:55;CYWG 201155Z 33013KT 15SM SCT009 OVC020 01/ RMK SF3SC5 VIS E 8

CYWG;2009-04-20 12:00;CYWG 201200Z 34012G17KT 15SM SCT009 OVC020 01/01 A3006 RMK SF4SC4 VIS E 6 SLP190

CYWG;2009-04-20 12:19;CYWG 201219Z CCA 34011KT 10SM -RASN FEW009 OVC017 01/ RMK SF2SC6 VIS E 3

CYWG;2009-04-20 12:32;CYWG 201232Z 33013KT 10SM -RASN FEW009 BKN014 OVC030 01/ RMK SF2SC6SC1 VIS E 5

CYWG;2009-04-20 12:34;CYWG 201234Z 34012KT 10SM -RASN FEW009 BKN014 OVC030 02/ RMK SF2SC6SC1 VIS E 5

CYWG;2009-04-20 12:46;CYWG 201246Z 34011KT 15SM FEW009 BKN017 BKN040 02/ RMK SF2SC3SC2

CYWG;2009-04-20 13:00;CYWG 201300Z 34013KT 15SM FEW009 BKN022 BKN050 02/01 A3007 RMK SF2SC4SC2 SLP193

CYWG;2009-04-20 13:14;CYWG 201314Z 35015KT 15SM BKN010 OVC024 02/ RMK SC6SC2

CYWG;2009-04-20 13:39;CYWG 201339Z 36012KT 15SM BKN009 OVC032 02/ RMK SC6SC2

CYWG;2009-04-20 14:00;CYWG 201400Z 36014KT 15SM OVC010 02/01 A3007 RMK SC8 SLP195

CYWG;2009-04-20 15:00;CYWG 201500Z 01012KT 15SM BKN014 03/00 A3008 RMK SC7 SLP196

CYWG;2009-04-20 15:18;CYWG 201518Z 01012KT 15SM BKN014 03/ RMK SC6

CYWG;2009-04-20 16:00;CYWG 201600Z 36013KT 15SM BKN019 05/01 A3006 RMK SC7 SLP190

CYWG;2009-04-20 17:00;CYWG 201700Z 01013KT 15SM BKN024 05/00 A3006 RMK SC7 SLP189

CYWG;2009-04-20 18:00;CYWG 201800Z 36011KT 15SM BKN026 06/01 A3005 RMK SC7 SLP186

CYWG;2009-04-20 19:00;CYWG 201900Z 36013KT 15SM BKN029 07/01 A3004 RMK SC7 SLP182

CYWG;2009-04-20 20:00;CYWG 202000Z 34010G16KT 15SM BKN031 08/02 A3003 RMK SC6 SLP178

CYWG;2009-04-20 21:00;CYWG 202100Z 33010G15KT 15SM SCT033 10/03 A3001 RMK SC4 SLP172

CYWG;2009-04-20 22:00;CYWG 202200Z 36009G17KT 15SM SCT036 10/02 A3000 RMK SC3 SLP167

CYWG;2009-04-20 23:00;CYWG 202300Z 04007KT 15SM SCT040 11/01 A3000 RMK SC3 SLP168

CYWG;2009-04-21 00:00;CYWG 210000Z 02004KT 15SM FEW040 10/02 A3000 RMK SC2 SLP169

CYWG;2009-04-21 01:00;CYWG 210100Z 05003KT 15SM FEW040 09/02 A3000 RMK SC1 SLP168

CYWG;2009-04-21 02:00;CYWG 210200Z 00000KT 15SM FEW250 06/02 A2999 RMK CI1 SLP167

CYWG;2009-04-21 03:00;CYWG 210300Z 00000KT 15SM FEW250 04/02 A2999 RMK CI1 SLP165

CYWG;2009-04-21 04:00;CYWG 210400Z 00000KT 15SM FEW250 02/01 A2998 RMK CI1 SLP161

CYWG;2009-04-21 05:00;CYWG 210500Z 00000KT 15SM FEW250 02/01 A2997 RMK CI1 SLP159

CYWG;2009-04-21 06:00;CYWG 210600Z 00000KT 15SM FEW250 M00/M00 A2996 RMK CI1 SLP155

CYWG;2009-04-21 07:00;CYWG 210700Z 26004KT 15SM FEW250 01/00 A2995 RMK CI1 SLP153

CYWG;2009-04-21 08:00;CYWG 210800Z 27005KT 15SM FEW120 01/01 A2994 RMK AC1 SLP149

CYWG;2009-04-21 09:00;CYWG 210900Z 28004KT 15SM FEW120 01/00 A2993 RMK AC1 SLP143

CYWG;2009-04-21 10:00;CYWG 211000Z 27005KT 15SM FEW120 02/00 A2991 RMK AC1 SLP138

CYWG;2009-04-21 11:00;CYWG 211100Z 24005KT 15SM FEW089 FEW250 M01/M01 A2990 RMK AC1CI1 SLP133

CYWG;2009-04-21 12:00;CYWG 211200Z 23003KT 13SM FEW090 FEW250 M00/M01 A2989 RMK AC1CI1 BR SLP131

CYWG;2009-04-21 13:00;CYWG 211300Z 25004KT 15SM FEW090 04/02 A2987 RMK AC1 SLP126

CYWG;2009-04-21 14:00;CYWG 211400Z 27008KT 15SM FEW090 07/02 A2986 RMK AC1 SLP122

CYWG;2009-04-21 15:00;CYWG 211500Z 29007KT 15SM FEW100 FEW260 08/03 A2985 RMK AC1CI0 SLP115

CYWG;2009-04-21 16:00;CYWG 211600Z 30008KT 15SM FEW100 FEW260 10/05 A2984 RMK AC1CC0 SLP113

CYWG;2009-04-21 17:00;CYWG 211700Z 30009KT 15SM FEW040 SCT087 BKN260 13/05 A2983 RMK SC1AC2CI1 SLP111

CYWG;2009-04-21 18:00;CYWG 211800Z 34018KT 15SM FEW050 BKN084 BKN260 14/00 A2983 RMK SC2AC2CI1 CU ASOCTD SLP111

CYWG;2009-04-21 19:00;CYWG 211900Z 35017G24KT 15SM FEW050 SCT094 16/01 A2982 RMK CU2AC2 SLP106

CYWG;2009-04-21 20:00;CYWG 212000Z 34019G27KT 15SM FEW067 14/M01 A2983 RMK AC2 SLP108

CYWG;2009-04-21 21:00;CYWG 212100Z 34022KT 15SM FEW090 14/M01 A2983 RMK AC1 SLP108

CYWG;2009-04-21 22:00;CYWG 212200Z 03017G29KT 15SM FEW066 12/02 A2984 RMK AC1 SLP114

CYWG;2009-04-21 23:00;CYWG 212300Z 04019G24KT 15SM FEW053 11/01 A2985 RMK SC1 SLP116

CYWG;2009-04-22 00:00;CYWG 220000Z 03017KT 15SM FEW051 09/01 A2987 RMK SC1 SLP126

CYWG;2009-04-22 01:00;CYWG 220100Z 02015KT 15SM FEW086 07/M00 A2989 RMK AC1 SLP130

CYWG;2009-04-22 02:00;CYWG 220200Z 01016KT 15SM SKC 05/M03 A2990 RMK SLP136

CYWG;2009-04-22 03:00;CYWG 220300Z 36012KT 15SM SKC 04/M03 A2992 RMK SLP139

CYWG;2009-04-22 03:42;CYWG 220342Z 36008KT 15SM SKC 01/

CYWG;2009-04-22 04:00;CYWG 220400Z 01012KT 15SM SKC 02/M03 A2992 RMK SLP141

CYWG;2009-04-22 04:36;CYWG 220436Z 36007KT 15SM SKC 01/

CYWG;2009-04-22 05:00;CYWG 220500Z 35006KT 15SM SKC 01/M03 A2993 RMK SLP143

CYWG;2009-04-22 06:00;CYWG 220600Z 34006KT 15SM SKC M02/M04 A2993 RMK SLP144

CYWG;2009-04-22 07:00;CYWG 220700Z 36006KT 15SM SKC M02/M04 A2993 RMK SLP142

CYWG;2009-04-22 08:00;CYWG 220800Z 32005KT 15SM SKC M04/M05 A2993 RMK SLP144

CYWG;2009-04-22 09:00;CYWG 220900Z 34003KT 15SM SKC M03/M04 A2993 RMK SLP145

CYWG;2009-04-22 10:00;CYWG 221000Z 02006KT 15SM FEW250 M03/M04 A2993 RMK CI0 SLP146

CYWG;2009-04-22 11:00;CYWG 221100Z 03002KT 15SM FEW250 M04/M05 A2994 RMK CI1 SLP149

CYWG;2009-04-22 12:00;CYWG 221200Z 29004KT 15SM FEW250 M04/M05 A2996 RMK CI0 SLP156

CYWG;2009-04-22 13:00;CYWG 221300Z 02002KT 15SM FEW120 FEW250 M00/M02 A2996 RMK AC1CI1 SLP157

CYWG;2009-04-22 14:00;CYWG 221400Z 10006KT 15SM FEW120 SCT250 03/M02 A2995 RMK AC1CI1 SLP152

CYWG;2009-04-22 15:00;CYWG 221500Z 15004KT 15SM FEW120 SCT250 04/M03 A2994 RMK AC2CI1 SLP149

CYWG;2009-04-22 16:00;CYWG 221600Z 00000KT 15SM FEW025 FEW120 BKN250 06/M03 A2992 RMK CF1AC1CI2 SLP143

CYWG;2009-04-22 17:00;CYWG 221700Z 16006KT 15SM FEW120 BKN250 06/M03 A2990 RMK AC1CI3 SLP137

CYWG;2009-04-22 18:00;CYWG 221800Z 14008KT 15SM FEW120 BKN250 07/M02 A2987 RMK AC1CI3 SLP127

CYWG;2009-04-22 19:00;CYWG 221900Z 18010KT 15SM FEW120 BKN250 08/M01 A2986 RMK AC1CI2 SLP121

CYWG;2009-04-22 20:00;CYWG 222000Z 16011KT 15SM FEW120 OVC250 09/M00 A2984 RMK AC1CI2 SLP115

CYWG;2009-04-22 21:00;CYWG 222100Z 16013KT 15SM SCT120 OVC250 10/M01 A2981 RMK AC3CI1 SLP104

CYWG;2009-04-22 22:00;CYWG 222200Z 17013KT 15SM BKN120 BKN250 10/M00 A2979 RMK AC5CI1 SLP098

CYWG;2009-04-22 23:00;CYWG 222300Z 17012G17KT 15SM BKN092 10/M01 A2977 RMK AC7 SLP090

CYWG;2009-04-22 23:28;CYWG 222328Z 19010KT 15SM -SHRA OVC088 RMK AC8

CYWG;2009-04-22 23:55;CYWG 222355Z 19010KT 15SM OVC084 RMK AC8

CYWG;2009-04-23 00:00;CYWG 230000Z 18008KT 15SM BKN084 09/03 A2975 RMK AC7 SLP086

CYWG;2009-04-23 01:00;CYWG 230100Z 18008KT 15SM BKN087 OVC250 09/03 A2972 RMK AC6CI0 SLP076

CYWG;2009-04-23 02:00;CYWG 230200Z 16013KT 15SM SCT250 08/01 A2969 RMK CI2 SLP065

CYWG;2009-04-23 03:00;CYWG 230300Z 16014KT 15SM FEW250 08/00 A2967 RMK CI1 SLP055

CYWG;2009-04-23 04:00;CYWG 230400Z 16015KT 15SM SKC 07/01 A2965 RMK SLP048

CYWG;2009-04-23 05:00;CYWG 230500Z 15014KT 15SM SKC 06/M00 A2962 RMK SLP038

CYWG;2009-04-23 06:00;CYWG 230600Z 15014KT 15SM FEW100 06/M01 A2959 RMK AC2 SLP029

CYWG;2009-04-23 07:00;CYWG 230700Z 16015KT 15SM SCT100 07/M01 A2956 RMK AC3 SLP017

CYWG;2009-04-23 07:20;CYWG 230720Z 16014G19KT 15SM -SHRA SCT085 08/ RMK AC4

CYWG;2009-04-23 08:00;CYWG 230800Z 18019G24KT 15SM -SHRA FEW028 SCT085 08/M01 A2952 RMK SC2AC2 SLP005

CYWG;2009-04-23 08:17;CYWG 230817Z 18019KT 15SM SCT092 08/ RMK AC3

CYWG;2009-04-23 09:00;CYWG 230900Z 18020G25KT 15SM FEW094 07/M01 A2951 RMK AC2 SLP999

CYWG;2009-04-23 10:00;CYWG 231000Z 19018KT 15SM FEW100 08/M01 A2950 RMK AC2 SLP995

CYWG;2009-04-23 11:00;CYWG 231100Z 19012KT 15SM FEW100 SCT240 06/00 A2951 RMK AC2CI1 SLP999

CYWG;2009-04-23 12:00;CYWG 231200Z 21010KT 15SM FEW090 BKN240 07/01 A2953 RMK AC2CI1 SLP007

CYWG;2009-04-23 13:00;CYWG 231300Z 19010KT 15SM FEW095 BKN240 07/01 A2952 RMK AC2CI1 SLP002

CYWG;2009-04-23 14:00;CYWG 231400Z 21014KT 15SM FEW095 BKN240 09/03 A2951 RMK AC2CI1 SLP001

CYWG;2009-04-23 15:00;CYWG 231500Z 23010KT 15SM FEW094 BKN240 11/03 A2950 RMK AC2CI1 SLP996

CYWG;2009-04-23 16:00;CYWG 231600Z 30008KT 15SM SCT082 OVC240 11/04 A2951 RMK AC2CI1 SLP997

CYWG;2009-04-23 17:00;CYWG 231700Z 33011KT 15SM SCT085 OVC240 12/06 A2951 RMK AC3CI2 SLP997

CYWG;2009-04-23 18:00;CYWG 231800Z 34017KT 15SM SCT080 OVC240 13/06 A2954 RMK AC2CI2 SLP009

CYWG;2009-04-23 19:00;CYWG 231900Z 36013G19KT 15SM FEW050 OVC240 13/06 A2954 RMK SC2CI5 SLP010

CYWG;2009-04-23 20:00;CYWG 232000Z 02020G26KT 15SM BKN075 BKN097 OVC240 12/04 A2957 RMK AC6AC2CI1 SLP018

CYWG;2009-04-23 21:00;CYWG 232100Z 06014G19KT 15SM BKN088 OVC240 11/05 A2958 RMK AC6CI1 SLP023

CYWG;2009-04-23 22:00;CYWG 232200Z 05013KT 15SM BKN088 OVC120 10/03 A2962 RMK AC5AC3 SLP036

CYWG;2009-04-23 23:00;CYWG 232300Z 03014G20KT 15SM FEW077 OVC120 09/03 A2963 RMK AC2AC6 SLP040

CYWG;2009-04-24 00:00;CYWG 240000Z 05010KT 15SM FEW066 OVC093 08/03 A2965 RMK AC2AC6 SLP049

CYWG;2009-04-24 00:48;CYWG 240048Z 02012G18KT 15SM -SHRA BKN056 OVC093 07/ RMK SC6AC2

CYWG;2009-04-24 01:00;CYWG 240100Z 01013G19KT 15SM -SHRA BKN056 OVC083 06/02 A2967 RMK SC6AC2 SLP053

CYWG;2009-04-24 02:00;CYWG 240200Z 34003KT 15SM BKN076 05/03 A2968 RMK AC7 SLP059

CYWG;2009-04-24 03:00;CYWG 240300Z 35004KT 15SM OVC086 04/03 A2970 RMK AC8 SLP063

CYWG;2009-04-24 04:00;CYWG 240400Z 35005KT 15SM OVC094 04/03 A2968 RMK AC8 SLP059

CYWG;2009-04-24 05:00;CYWG 240500Z 31005KT 15SM BKN090 OVC230 03/02 A2970 RMK AC6CI2 SLP065

CYWG;2009-04-24 06:00;CYWG 240600Z 27005KT 15SM BKN094 OVC230 03/02 A2970 RMK AC6CI2 SLP066

CYWG;2009-04-24 07:00;CYWG 240700Z 32008KT 15SM BKN120 OVC230 03/01 A2972 RMK AC6CI2 SLP072

CYWG;2009-04-24 08:00;CYWG 240800Z 02017G25KT 15SM BKN120 03/M01 A2975 RMK AC6 SLP081

CYWG;2009-04-24 09:00;CYWG 240900Z 02011KT 15SM BKN120 02/M03 A2978 RMK AC4 SLP092

CYWG;2009-04-24 10:00;CYWG 241000Z 01009KT 15SM OVC120 01/M04 A2981 RMK AC8 SLP102

CYWG;2009-04-24 11:00;CYWG 241100Z 36009KT 15SM BKN120 00/M04 A2984 RMK AC6 SLP112

CYWG;2009-04-24 12:00;CYWG 241200Z 36011KT 15SM SCT086 BKN120 00/M05 A2986 RMK AC3AC3 SLP122

CYWG;2009-04-24 13:00;CYWG 241300Z 01009KT 15SM SCT086 BKN120 01/M05 A2989 RMK AC3AC3 SLP130

CYWG;2009-04-24 14:00;CYWG 241400Z 02009KT 15SM SCT069 BKN120 02/M05 A2989 RMK AC3SC2 SLP132

CYWG;2009-04-24 15:00;CYWG 241500Z 01013G18KT 15SM FEW070 BKN120 BKN220 02/M06 A2989 RMK AC2AC2CI1 SLP133

CYWG;2009-04-24 16:00;CYWG 241600Z 35015KT 15SM FEW030 BKN095 BKN230 03/M05 A2991 RMK SC1AC3CI2 SLP140

CYWG;2009-04-24 17:00;CYWG 241700Z 34016G22KT 15SM FEW037 BKN095 OVC230 03/M06 A2992 RMK SC2AC4CI2 SLP142

CYWG;2009-04-24 18:00;CYWG 241800Z 36012G18KT 15SM SCT041 OVC100 03/M06 A2994 RMK SC3AC5 SLP148

CYWG;2009-04-24 19:00;CYWG 241900Z 34015KT 15SM BKN041 OVC100 04/M06 A2994 RMK SC6AC2 SLP149

CYWG;2009-04-24 20:00;CYWG 242000Z 34011G20KT 15SM BKN039 BKN100 03/M07 A2994 RMK SC5AC2 SLP148

CYWG;2009-04-24 21:00;CYWG 242100Z 33017KT 15SM BKN046 OVC100 04/M07 A2994 RMK SC6AC2 SLP149

CYWG;2009-04-24 22:00;CYWG 242200Z 32014KT 15SM BKN050 OVC100 04/M06 A2994 RMK SC5AC2 SLP149

CYWG;2009-04-24 23:00;CYWG 242300Z 31010G17KT 15SM SCT046 BKN100 04/M06 A2995 RMK CU4AC2 SLP152

CYWG;2009-04-25 00:00;CYWG 250000Z 32013KT 15SM FEW043 FEW100 BKN250 04/M05 A2996 RMK CU2AC1CI2 SLP156

CYWG;2009-04-25 01:00;CYWG 250100Z 33007KT 15SM FEW250 02/M05 A2996 RMK CI1 SLP155

CYWG;2009-04-25 02:00;CYWG 250200Z 34005KT 15SM SKC M03/M06 A2996 RMK SLP158

CYWG;2009-04-25 03:00;CYWG 250300Z 30002KT 15SM SKC M01/M05 A2998 RMK SLP164

CYWG;2009-04-25 04:00;CYWG 250400Z 00000KT 15SM SKC M02/M05 A2997 RMK SLP161

CYWG;2009-04-25 05:00;CYWG 250500Z 20004KT 15SM SKC M02/M07 A2996 RMK SLP158

CYWG;2009-04-25 06:00;CYWG 250600Z 19006KT 15SM SKC M03/M07 A2996 RMK SLP158

CYWG;2009-04-25 07:00;CYWG 250700Z 19006KT 15SM SKC M02/M06 A2998 RMK SLP164

CYWG;2009-04-25 08:00;CYWG 250800Z 18007KT 15SM SKC M04/M06 A2997 RMK SLP161

CYWG;2009-04-25 09:00;CYWG 250900Z 17008KT 15SM SKC M04/M05 A2998 RMK SLP163

CYWG;2009-04-25 10:00;CYWG 251000Z 19012KT 15SM SKC M01/M05 A2997 RMK SLP162

CYWG;2009-04-25 11:00;CYWG 251100Z 19015KT 15SM SCT075 M01/M05 A2997 RMK AC4 SLP161

CYWG;2009-04-25 12:00;CYWG 251200Z 19010KT 15SM SCT075 M01/M04 A2998 RMK AC3 SLP165

CYWG;2009-04-25 13:00;CYWG 251300Z 19015KT 15SM SCT050 BKN075 BKN250 02/M02 A2998 RMK SC3AC2CI1 ACC EMBD VIRGA W SLP165

CYWG;2009-04-25 13:11;CYWG 251311Z 20016G22KT 15SM -SHSN FEW025 SCT050 BKN075 BKN250 03/ RMK SF1SC3AC2CI1 ACC EMBD

CYWG;2009-04-25 13:34;CYWG 251334Z 22015KT 1SM R13/P6000FT/D R36/P6000FT/U -SHSN VV010 02/ RMK SN8

CYWG;2009-04-25 13:50;CYWG 251350Z 18013G18KT 3SM -SHSN OVC026 01/ RMK SC8

CYWG;2009-04-25 14:00;CYWG 251400Z 19010G18KT 10SM -SHSN OVC034 02/M00 A2999 RMK SC8 SLP169

CYWG;2009-04-25 14:23;CYWG 251423Z 22013G19KT 15SM OVC039 03/ RMK SC8 SH N-NE-E

CYWG;2009-04-25 15:00;CYWG 251500Z 22012G18KT 15SM VCSH OVC039 04/M00 A3001 RMK SC7 SLP173

CYWG;2009-04-25 16:00;CYWG 251600Z 22015KT 15SM FEW040 SCT080 BKN250 07/M00 A3001 RMK CU2AC2CI1 SLP175

CYWG;2009-04-25 17:00;CYWG 251700Z 27012G17KT 15SM BKN030 08/M02 A3002 RMK CU6 SLP178

CYWG;2009-04-25 18:00;CYWG 251800Z 32014G20KT 15SM BKN045 09/M05 A3003 RMK CU5 SLP181

CYWG;2009-04-25 19:00;CYWG 251900Z 28013G18KT 15SM BKN057 10/M05 A3004 RMK CU5 SLP183

CYWG;2009-04-25 20:00;CYWG 252000Z 29012G20KT 15SM BKN057 10/M05 A3006 RMK CU5 SLP188

CYWG;2009-04-25 21:00;CYWG 252100Z 28012KT 15SM SCT064 11/M05 A3006 RMK CU4 SLP190

CYWG;2009-04-25 22:00;CYWG 252200Z 32008G15KT 15SM FEW067 11/M06 A3006 RMK CU2 SLP189

CYWG;2009-04-25 23:00;CYWG 252300Z 36011KT 15SM FEW065 10/M04 A3006 RMK SC1 SLP189

CYWG;2009-04-26 00:00;CYWG 260000Z 36006KT 15SM FEW065 09/M05 A3007 RMK SC1 SLP194

CYWG;2009-04-26 01:00;CYWG 260100Z 02006KT 15SM FEW065 07/M05 A3009 RMK SC1 SLP201

CYWG;2009-04-26 02:00;CYWG 260200Z 07008KT 15SM FEW240 03/M05 A3010 RMK CI1 SLP204

CYWG;2009-04-26 03:00;CYWG 260300Z 10006KT 15SM SKC 03/M05 A3011 RMK SLP208

CYWG;2009-04-26 04:00;CYWG 260400Z 11006KT 15SM BKN110 03/M04 A3012 RMK AC5 SLP212

CYWG;2009-04-26 05:00;CYWG 260500Z 10004KT 15SM FEW110 02/M05 A3012 RMK AC2 SLP209

CYWG;2009-04-26 06:00;CYWG 260600Z 12005KT 15SM SKC 01/M05 A3012 RMK SLP208

CYWG;2009-04-26 07:00;CYWG 260700Z 13007KT 15SM SKC 02/M04 A3012 RMK SLP209

CYWG;2009-04-26 08:00;CYWG 260800Z 14005KT 15SM SKC 00/M05 A3011 RMK SLP206

CYWG;2009-04-26 09:00;CYWG 260900Z 15008KT 15SM SKC 00/M04 A3010 RMK SLP203

CYWG;2009-04-26 10:00;CYWG 261000Z 16008KT 15SM SKC M00/M04 A3010 RMK SLP203

CYWG;2009-04-26 11:00;CYWG 261100Z 17004KT 15SM SCT110 BKN220 00/M03 A3010 RMK AC3CI2 SLP201

CYWG;2009-04-26 12:00;CYWG 261200Z 13003KT 15SM FEW085 BKN220 01/M02 A3009 RMK AC2CI1 SLP201

CYWG;2009-04-26 13:00;CYWG 261300Z 16006KT 15SM FEW079 BKN220 04/M00 A3012 RMK AC2CI1 SLP208

CYWG;2009-04-26 14:00;CYWG 261400Z 15006KT 15SM SCT079 BKN220 06/M01 A3012 RMK AC3CI2 SLP210

CYWG;2009-04-26 15:00;CYWG 261500Z 13005KT 15SM SCT080 OVC220 09/M03 A3010 RMK AC3CI2 SLP203

CYWG;2009-04-26 16:00;CYWG 261600Z 14007KT 15SM SCT062 OVC220 10/M04 A3010 RMK SC3CI3 SLP201

CYWG;2009-04-26 17:00;CYWG 261700Z 12005KT 15SM BKN100 OVC220 11/M04 A3008 RMK AC5CI2 SLP194

CYWG;2009-04-26 18:00;CYWG 261800Z 11009KT 15SM BKN110 OVC240 11/M05 A3004 RMK AC6CI1 SLP182

CYWG;2009-04-26 19:00;CYWG 261900Z 10010KT 15SM SCT090 OVC240 11/M06 A3002 RMK AC4CI4 SLP173

CYWG;2009-04-26 20:00;CYWG 262000Z CCA 09009KT 15SM SCT080 OVC220 11/M06 A3001 RMK AC4SC4 SLP170

CYWG;2009-04-26 21:00;CYWG 262100Z 12016G21KT 15SM BKN046 OVC090 09/M02 A3003 RMK SC5AC3 SLP178

CYWG;2009-04-26 21:21;CYWG 262121Z 13012G18KT 15SM -RA BKN031 OVC090 09/ RMK SC6AC2

CYWG;2009-04-26 22:00;CYWG 262200Z 06013KT 15SM BKN016 BKN062 10/M01 A3000 RMK SC5AC2 SLP169

CYWG;2009-04-26 23:00;CYWG 262300Z 05012KT 15SM FEW016 SCT090 BKN220 09/M01 A2998 RMK SC2AC2CI3 SLP163

CYWG;2009-04-27 00:00;CYWG 270000Z 08009G16KT 15SM SCT048 BKN083 08/M02 A2996 RMK SC3AC4 SLP157

CYWG;2009-04-27 01:00;CYWG 270100Z 11004KT 15SM FEW044 OVC095 07/M01 A2998 RMK SC2AC6 SLP162

CYWG;2009-04-27 02:00;CYWG 270200Z 35006KT 15SM OVC041 06/00 A2999 RMK SC8 SLP167

CYWG;2009-04-27 02:51;CYWG 270251Z 06008KT 9SM -SHRA OVC039 07/ RMK SC8

CYWG;2009-04-27 03:00;CYWG 270300Z 06005KT 9SM -SHRA OVC034 07/M01 A3002 RMK SC8 SLP172

CYWG;2009-04-27 04:00;CYWG 270400Z 08008KT 9SM -SHRA OVC023 05/01 A3002 RMK SC8 SLP172

CYWG;2009-04-27 05:00;CYWG 270500Z 03005KT 9SM -SHRA BKN026 OVC080 04/02 A3000 RMK SC5AC3 SLP166

CYWG;2009-04-27 06:00;CYWG 270600Z 34005KT 9SM -SHRA OVC028 03/02 A2999 RMK SC8 SLP163

CYWG;2009-04-27 07:00;CYWG 270700Z 36006KT 9SM -RA OVC028 04/02 A3001 RMK SC8 SLP169

CYWG;2009-04-27 08:00;CYWG 270800Z 03002KT 9SM -RA BKN024 OVC080 03/02 A3000 RMK SC6AC2 SLP167

CYWG;2009-04-27 09:00;CYWG 270900Z 33005KT 9SM -RA BKN013 OVC036 03/03 A2999 RMK SC6SC2 SLP166

CYWG;2009-04-27 09:24;CYWG 270924Z 33007KT 6SM -RA BR BKN008 OVC013 03/ RMK SF6SC2

CYWG;2009-04-27 09:46;CYWG 270946Z 35008KT 9SM -RA OVC018 04/ RMK SC8

CYWG;2009-04-27 10:00;CYWG 271000Z 35008KT 6SM -RA BR OVC034 03/03 A2999 RMK SC8 SLP165

CYWG;2009-04-27 11:00;CYWG 271100Z 33006KT 10SM -RA SCT014 OVC045 03/03 A3000 RMK SC4SC4 SLP169

CYWG;2009-04-27 11:48;CYWG 271148Z 31006KT 12SM BKN022 OVC250 03/ RMK SC7CI1

CYWG;2009-04-27 12:00;CYWG 271200Z 32006KT 12SM BKN029 OVC250 04/04 A3003 RMK SC7CI1 SLP178

CYWG;2009-04-27 13:00;CYWG 271300Z 32009KT 15SM SCT039 BKN080 BKN250 03/02 A3005 RMK SC4AC2CI1 SLP185

CYWG;2009-04-27 14:00;CYWG 271400Z 33010KT 15SM BKN034 BKN080 04/02 A3007 RMK SC6AC1 SLP193

CYWG;2009-04-27 15:00;CYWG 271500Z 33013KT 15SM SCT039 BKN080 05/01 A3010 RMK SC4AC3 SLP201

CYWG;2009-04-27 16:00;CYWG 271600Z 35012G17KT 15SM FEW037 BKN089 06/01 A3012 RMK SC2AC4 SLP208

CYWG;2009-04-27 17:00;CYWG 271700Z 01019G24KT 15SM FEW031 SCT090 SCT250 10/M02 A3015 RMK CU2AC1CI0 SLP217

CYWG;2009-04-27 18:00;CYWG 271800Z 02015G21KT 15SM SCT044 SCT250 11/M02 A3016 RMK CU3CI1 SLP221

CYWG;2009-04-27 19:00;CYWG 271900Z 03013G18KT 15SM BKN055 BKN250 11/M05 A3018 RMK CU5CI1 SLP227

CYWG;2009-04-27 20:00;CYWG 272000Z 03012G17KT 15SM BKN065 11/M06 A3019 RMK CU5 SLP233

CYWG;2009-04-27 21:00;CYWG 272100Z 02010G16KT 15SM FEW068 11/M06 A3020 RMK CU2 SLP237

CYWG;2009-04-27 22:00;CYWG 272200Z 31015G20KT 15SM FEW070 12/M05 A3022 RMK CU2 SLP241

CYWG;2009-04-27 23:00;CYWG 272300Z 33011G16KT 15SM FEW070 11/M05 A3022 RMK CU2 SLP243

CYWG;2009-04-28 00:00;CYWG 280000Z 34015KT 15SM FEW060 10/M05 A3025 RMK CU2 SLP251

CYWG;2009-04-28 01:00;CYWG 280100Z 04010KT 15SM FEW150 08/M04 A3027 RMK AC1 SLP258

CYWG;2009-04-28 02:00;CYWG 280200Z 06007KT 15SM SKC 03/M04 A3029 RMK SLP265

CYWG;2009-04-28 03:00;CYWG 280300Z 06007KT 15SM SKC 01/M03 A3033 RMK SLP282

CYWG;2009-04-28 04:00;CYWG 280400Z 09005KT 15SM SKC 00/M04 A3035 RMK SLP289

CYWG;2009-04-28 05:00;CYWG 280500Z 09008KT 15SM SKC 02/M06 A3037 RMK SLP295

CYWG;2009-04-28 06:00;CYWG 280600Z 08005KT 15SM SKC M00/M06 A3038 RMK SLP298

CYWG;2009-04-28 07:00;CYWG 280700Z 09005KT 15SM SKC M01/M06 A3039 RMK SLP301

CYWG;2009-04-28 08:00;CYWG 280800Z 09006KT 15SM SKC M01/M07 A3040 RMK SLP303

CYWG;2009-04-28 09:00;CYWG 280900Z 07006KT 15SM SKC M02/M07 A3040 RMK SLP305

CYWG;2009-04-28 10:00;CYWG 281000Z 08005KT 15SM SKC M03/M07 A3040 RMK SLP305

CYWG;2009-04-28 11:00;CYWG 281100Z 08005KT 15SM FEW250 M03/M07 A3041 RMK CI1 SLP308

CYWG;2009-04-28 12:00;CYWG 281200Z 10005KT 15SM FEW140 BKN250 M01/M06 A3042 RMK AC2CI0 SLP313

CYWG;2009-04-28 13:00;CYWG 281300Z 11006KT 15SM SCT140 OVC250 03/M05 A3045 RMK AC3CI2 SLP321

CYWG;2009-04-28 14:00;CYWG 281400Z 13009KT 15SM FEW095 BKN140 OVC250 05/M08 A3046 RMK AC2AC3CI2 CS ASOCTD SLP326

CYWG;2009-04-28 15:00;CYWG 281500Z 12011KT 15SM FEW095 BKN140 OVC250 07/M07 A3046 RMK AC2AC3CI3 SLP327

CYWG;2009-04-28 16:00;CYWG 281600Z 12012KT 15SM SCT140 OVC250 08/M06 A3046 RMK AC3CS5 SLP325

CYWG;2009-04-28 17:00;CYWG 281700Z 14012G18KT 15SM FEW040 OVC250 11/M06 A3045 RMK CU1CS8 SLP322

CYWG;2009-04-28 18:00;CYWG 281800Z 19009G16KT 15SM FEW040 OVC250 11/M05 A3044 RMK CU1CI5 SLP318

CYWG;2009-04-28 19:00;CYWG 281900Z 14013KT 15SM FEW060 BKN250 12/M06 A3042 RMK CU1CI2 SLP313

CYWG;2009-04-28 20:00;CYWG 282000Z 18016KT 15SM FEW060 BKN250 13/M06 A3041 RMK CU1CI2 SLP309

CYWG;2009-04-28 21:00;CYWG 282100Z 15013G18KT 15SM FEW060 BKN250 13/M04 A3040 RMK CU1CI2 SLP303

CYWG;2009-04-28 22:00;CYWG 282200Z 15012KT 15SM FEW068 BKN250 13/M02 A3038 RMK AC2CI2 SLP299

CYWG;2009-04-28 23:00;CYWG 282300Z 15012KT 15SM BKN068 BKN250 13/M01 A3038 RMK AC5CI2 SLP297

CYWG;2009-04-29 00:00;CYWG 290000Z 18006KT 15SM BKN066 BKN250 12/M00 A3038 RMK AC6CI2 SLP296

CYWG;2009-04-29 01:00;CYWG 290100Z 23004KT 15SM BKN066 BKN250 11/01 A3038 RMK AC5CI2 SLP297

CYWG;2009-04-29 02:00;CYWG 290200Z 02006KT 15SM BKN076 BKN250 09/02 A3038 RMK AC6CI2 SLP296

CYWG;2009-04-29 03:00;CYWG 290300Z 09009KT 15SM BKN080 09/M03 A3038 RMK AC3 SLP298

CYWG;2009-04-29 04:00;CYWG 290400Z 10009KT 15SM BKN080 BKN250 09/M03 A3038 RMK AC3CS2 SLP297

CYWG;2009-04-29 05:00;CYWG 290500Z 09007KT 15SM BKN080 BKN250 08/M03 A3038 RMK AC3CS2 SLP296

CYWG;2009-04-29 06:00;CYWG 290600Z 09008KT 15SM OVC070 08/M04 A3038 RMK AC8 SLP294

CYWG;2009-04-29 07:00;CYWG 290700Z 09010KT 15SM BKN060 OVC080 09/M04 A3038 RMK SC6AC2 SLP294

CYWG;2009-04-29 08:00;CYWG 290800Z 09008KT 15SM OVC056 08/M04 A3037 RMK SC8 SLP291

CYWG;2009-04-29 09:00;CYWG 290900Z 10009KT 15SM FEW056 BKN072 07/M03 A3035 RMK SC2AC5 SLP284

CYWG;2009-04-29 10:00;CYWG 291000Z 10007KT 15SM BKN070 BKN100 06/M03 A3033 RMK AC5AC2 SLP277

CYWG;2009-04-29 11:00;CYWG 291100Z 09006KT 15SM BKN086 06/M03 A3031 RMK AC7 SLP270

CYWG;2009-04-29 12:00;CYWG 291200Z 10009KT 15SM OVC110 06/M02 A3029 RMK AC8 SLP265

CYWG;2009-04-29 13:00;CYWG 291300Z 11007KT 15SM OVC086 07/M02 A3029 RMK AC8 SLP265

CYWG;2009-04-29 14:00;CYWG 291400Z 09007KT 15SM FEW083 BKN091 08/M02 A3027 RMK AC1AC6 SLP258

CYWG;2009-04-29 15:00;CYWG 291500Z 11011KT 15SM BKN090 11/00 A3026 RMK AC7 SLP253

CYWG;2009-04-29 16:00;CYWG 291600Z 09010KT 15SM OVC090 13/00 A3025 RMK AC8 SLP250

CYWG;2009-04-29 17:00;CYWG 291700Z 06015KT 15SM SCT090 OVC120 14/M00 A3022 RMK AC3AC5 SLP239

CYWG;2009-04-29 18:00;CYWG 291800Z 07014G19KT 15SM OVC120 16/M02 A3017 RMK AC8 PRESFR SLP222

CYWG;2009-04-29 19:00;CYWG 291900Z 11017KT 15SM FEW055 BKN120 OVC240 15/01 A3014 RMK CU1AC6CI1 SLP211

CYWG;2009-04-29 20:00;CYWG 292000Z 11015G21KT 15SM SCT061 OVC120 14/01 A3012 RMK SC3AC5 SLP205

CYWG;2009-04-29 20:25;CYWG 292025Z 11015KT 15SM -RA SCT051 OVC120 14/ RMK SC3AC5

CYWG;2009-04-29 21:00;CYWG 292100Z 10015G22KT 15SM -RA SCT016 BKN034 OVC110 13/00 A3011 RMK SC3SC2AC2 SLP204

CYWG;2009-04-29 22:00;CYWG 292200Z 11006G16KT 15SM -RA BKN018 OVC056 11/01 A3012 RMK SC5SC3 SLP205

CYWG;2009-04-29 23:00;CYWG 292300Z 11011G26KT 15SM -SHRA BKN023 OVC049 11/01 A3009 RMK SC7SC1 SLP197

CYWG;2009-04-29 23:15;CYWG 292315Z 12020G26KT 10SM -RA SCT008 OVC017 09/ RMK SF3SC5

CYWG;2009-04-30 00:00;CYWG 300000Z 12020G25KT 12SM -SHRA FEW008 OVC019 10/02 A3007 RMK SF2SC6 SLP191

CYWG;2009-04-30 01:00;CYWG 300100Z 10012G20KT 15SM -SHRA BKN024 OVC058 08/04 A3006 RMK SC6SC2 SLP187

CYWG;2009-04-30 02:00;CYWG 300200Z 13010KT 15SM -SHRA BKN021 OVC048 07/05 A3006 RMK SC7SC1 SLP186

CYWG;2009-04-30 03:00;CYWG 300300Z 07008KT 15SM -SHRA OVC030 06/05 A3003 RMK SC8 SLP178

CYWG;2009-04-30 04:00;CYWG 300400Z 07009KT 15SM -SHRA OVC031 06/05 A3000 RMK SC8 SLP166

CYWG;2009-04-30 05:00;CYWG 300500Z 06007KT 5SM -RA BR OVC021 06/06 A2997 RMK SC8 SLP157

CYWG;2009-04-30 06:00;CYWG 300600Z 06010KT 4SM -RA BR OVC027 06/06 A2994 RMK SC8 SLP144

CYWG;2009-04-30 06:35;CYWG 300635Z 07012KT 3SM -RA BR SCT006 OVC021 06/ RMK SF3SC5

CYWG;2009-04-30 07:00;CYWG 300700Z 07010G16KT 2SM RA BR BKN005 OVC015 06/06 A2991 RMK SF6SC2 SLP134

CYWG;2009-04-30 07:34;CYWG 300734Z 07010KT 4SM -RA BR BKN005 OVC020 06/ RMK SF5SC3

CYWG;2009-04-30 08:00;CYWG 300800Z 06011KT 4SM -RA BR BKN005 OVC017 06/06 A2988 RMK SF5SC3 SLP126

CYWG;2009-04-30 09:00;CYWG 300900Z 06013KT 3SM -RA BR BKN004 OVC025 06/06 A2986 RMK SF6SC2 SLP119

CYWG;2009-04-30 10:00;CYWG 301000Z 05013KT 6SM -RA BR BKN006 OVC020 06/06 A2983 RMK SF6SC2 SLP109

CYWG;2009-04-30 10:30;CYWG 301030Z 05013G18KT 8SM -RA BKN009 OVC025 RMK SF6SC2

CYWG;2009-04-30 11:00;CYWG 301100Z 05016KT 10SM -DZ BKN008 OVC012 06/05 A2981 RMK SF6ST2 SLP103

CYWG;2009-04-30 12:00;CYWG 301200Z 03010KT 12SM -DZ BKN004 OVC016 05/05 A2982 RMK ST6ST2 SLP104

CYWG;2009-04-30 13:00;CYWG 301300Z 02017KT 12SM -DZ OVC005 04/04 A2983 RMK ST8 SLP107

CYWG;2009-04-30 14:00;CYWG 301400Z 03016G22KT 12SM -DZ SCT005 OVC016 04/03 A2982 RMK SF4SC4 SLP106

CYWG;2009-04-30 14:33;CYWG 301433Z 03024KT 15SM -SHRA FEW005 BKN021 OVC090 05/ RMK SF2SC4AC2 CVCTV CLD EMBDD

CYWG;2009-04-30 15:00;CYWG 301500Z 03018G26KT 15SM -SHRA FEW010 BKN023 OVC096 05/05 A2982 RMK SF2SC4AC2 CVCTV CLD ASCTD SLP108

CYWG;2009-04-30 16:00;CYWG 301600Z 03019G26KT 15SM -SHRA SCT010 OVC021 05/04 A2984 RMK SF3SC5 CVCTV CLD ASOCTD SLP113

CYWG;2009-04-30 16:29;CYWG 301629Z 02019G26KT 15SM -SHRA BKN010 OVC023 05/ RMK SF6SC2 CVCTV CLD ASOCTD

CYWG;2009-04-30 17:00;CYWG 301700Z 02019G25KT 15SM -SHRA BKN015 OVC026 05/04 A2985 RMK SF5SC3 CVCTV CLD ASOCTD SLP117

CYWG;2009-04-30 18:00;CYWG 301800Z 02015KT 15SM OVC024 07/03 A2985 RMK SC8 SLP116

CYWG;2009-04-30 19:00;CYWG 301900Z 02017G26KT 15SM SCT034 BKN072 BKN250 11/03 A2985 RMK SC4AC2CI1 SLP115

CYWG;2009-04-30 20:00;CYWG 302000Z 01021G28KT 15SM SCT046 BKN074 BKN250 11/M02 A2986 RMK SC3AC2CI1 SLP120

CYWG;2009-04-30 21:00;CYWG 302100Z 36018G25KT 15SM FEW046 BKN076 BKN260 11/M04 A2987 RMK SC1AC4CI2 SLP123

CYWG;2009-04-30 22:00;CYWG 302200Z 01021G27KT 15SM FEW076 BKN250 11/M08 A2989 RMK AC2CI2 SLP127

CYWG;2009-04-30 23:00;CYWG 302300Z 36019G27KT 15SM FEW075 SCT250 11/M02 A2990 RMK AC1CI2 SLP131

CYWG;2009-05-01 01:00;CYWG 010100Z 33008KT 15SM FEW062 SCT250 08/M01 A2992 RMK SC2CI2 SLP140

CYWG;2009-05-01 02:00;CYWG 010200Z 36011KT 15SM SCT081 SCT250 06/M02 A2995 RMK AC3CI1 SLP148

CYWG;2009-05-01 03:00;CYWG 010300Z 03008KT 15SM BKN070 06/M00 A2997 RMK AC6 SLP159

CYWG;2009-05-01 04:00;CYWG 010400Z 03009KT 15SM BKN070 05/M01 A2999 RMK AC4 SLP163

CYWG;2009-05-01 05:00;CYWG 010500Z 01004KT 15SM BKN084 03/M00 A2999 RMK AC7 SLP165

CYWG;2009-05-01 06:00;CYWG 010600Z 36008KT 15SM SCT090 03/M02 A3000 RMK AC1 SLP168

CYWG;2009-05-01 07:00;CYWG 010700Z 29007KT 15SM BKN070 M01/M02 A3000 RMK AC4 SLP170

CYWG;2009-05-01 08:00;CYWG 010800Z 31005KT 15SM FEW038 FEW070 M02/M03 A3000 RMK SC1AC1 SLP168

CYWG;2009-05-01 09:00;CYWG 010900Z 30006KT 15SM BKN044 M00/M01 A3000 RMK SC7 SLP169

CYWG;2009-05-01 10:00;CYWG 011000Z 30005KT 15SM BKN044 01/M01 A3001 RMK SC7 SLP172

CYWG;2009-05-01 11:00;CYWG 011100Z 29005KT 15SM BKN044 00/M01 A3001 RMK SC6 SLP170

CYWG;2009-05-01 12:00;CYWG 011200Z 28005KT 15SM BKN044 01/M01 A3001 RMK SC6 SLP171

CYWG;2009-05-01 13:00;CYWG 011300Z 30006KT 15SM BKN040 02/M00 A3001 RMK SC7 SLP173

CYWG;2009-05-01 14:00;CYWG 011400Z 30007KT 15SM OVC031 03/00 A3001 RMK SC8 SLP171

CYWG;2009-05-01 15:00;CYWG 011500Z 33010KT 15SM BKN030 BKN070 05/M02 A3000 RMK CU5AC2 SLP168

CYWG;2009-05-01 16:00;CYWG 011600Z 32011KT 15SM BKN042 BKN070 07/M03 A2998 RMK SC5AC1 SLP163

CYWG;2009-05-01 17:00;CYWG 011700Z 32008G19KT 15SM OVC042 07/M04 A2997 RMK SC8 SLP158

CYWG;2009-05-01 18:00;CYWG 011800Z 30014KT 15SM BKN051 08/M04 A2995 RMK SC7 SLP152

CYWG;2009-05-01 19:00;CYWG 011900Z 32011G17KT 15SM BKN049 08/M04 A2994 RMK SC6 SLP147

CYWG;2009-05-01 20:00;CYWG 012000Z 32010G15KT 15SM BKN049 08/M04 A2993 RMK SC6 SLP143

CYWG;2009-05-01 21:00;CYWG 012100Z 31012KT 15SM BKN046 BKN230 10/M03 A2990 RMK SC5CI0 SLP136

CYWG;2009-05-01 22:00;CYWG 012200Z 31012G19KT 15SM BKN050 10/M03 A2989 RMK CU5 SLP130

CYWG;2009-05-01 23:00;CYWG 012300Z 31013KT 15SM FEW054 SCT230 10/M02 A2987 RMK CU2CI1 SLP124

CYWG;2009-05-02 00:00;CYWG 020000Z 32010KT 15SM FEW040 SCT230 09/M03 A2986 RMK CU1CI1 SLP119

CYWG;2009-05-02 01:00;CYWG 020100Z 35008KT 15SM FEW100 BKN230 08/M03 A2984 RMK AC2CI1 SLP115

CYWG;2009-05-02 02:00;CYWG 020200Z 02003KT 15SM BKN073 BKN230 06/M02 A2984 RMK AC5CI1 SLP115

CYWG;2009-05-02 03:00;CYWG 020300Z 00000KT 15SM BKN068 BKN230 05/M01 A2985 RMK AC5CI1 SLP118

CYWG;2009-05-02 04:00;CYWG 020400Z 30004KT 15SM SCT072 BKN230 05/M02 A2985 RMK AC3CI2 SLP117

CYWG;2009-05-02 05:00;CYWG 020500Z 29007KT 15SM FEW230 02/M03 A2984 RMK CI0 SLP115

CYWG;2009-05-02 06:00;CYWG 020600Z 29009KT 15SM SKC M01/M04 A2984 RMK SLP116

CYWG;2009-05-02 07:00;CYWG 020700Z 28007KT 15SM FEW083 M02/M05 A2984 RMK AC2 SLP115

CYWG;2009-05-02 08:00;CYWG 020800Z 29008KT 15SM BKN073 M02/M04 A2984 RMK AC4 SLP115

CYWG;2009-05-02 09:00;CYWG 020900Z 30005KT 15SM BKN073 M01/M04 A2984 RMK AC4 SLP115

CYWG;2009-05-02 10:00;CYWG 021000Z 28007KT 15SM SCT070 M01/M04 A2984 RMK AC2 SLP115

CYWG;2009-05-02 11:00;CYWG 021100Z 28006KT 15SM BKN063 M01/M04 A2984 RMK SC5 SLP116

CYWG;2009-05-02 12:00;CYWG 021200Z 29004KT 15SM BKN067 M00/M03 A2985 RMK AC6 SLP118

CYWG;2009-05-02 13:00;CYWG 021300Z 30003KT 15SM SCT075 01/M02 A2986 RMK AC4 SLP120

CYWG;2009-05-02 14:00;CYWG 021400Z 03009KT 15SM FEW081 FEW250 05/M05 A2985 RMK AC1CI1 SLP118

CYWG;2009-05-02 15:00;CYWG 021500Z 02010KT 15SM FEW080 FEW250 06/M08 A2985 RMK AC1CI1 SLP117

CYWG;2009-05-02 16:00;CYWG 021600Z 03008KT 15SM FEW100 FEW250 07/M08 A2984 RMK AC1CI1 SLP114

CYWG;2009-05-02 17:00;CYWG 021700Z 01006KT 15SM FEW250 08/M08 A2983 RMK CI1 SLP112

CYWG;2009-05-02 18:00;CYWG 021800Z 34010G16KT 15SM FEW093 FEW250 09/M07 A2983 RMK AC2CI1 SLP109

CYWG;2009-05-02 19:00;CYWG 021900Z 31010G17KT 15SM FEW060 FEW089 BKN250 10/M07 A2982 RMK CU1AC1CI1 SLP106

CYWG;2009-05-02 20:00;CYWG 022000Z 31017G24KT 15SM FEW060 FEW090 BKN250 10/M08 A2981 RMK CU1AC1CI2 SLP104

CYWG;2009-05-02 21:00;CYWG 022100Z 32015G20KT 15SM FEW055 FEW091 BKN250 10/M09 A2980 RMK CU1AC2CI1 SLP102

CYWG;2009-05-02 22:00;CYWG 022200Z 32016KT 15SM FEW090 BKN240 11/M07 A2979 RMK AC1CI1 SLP097

CYWG;2009-05-02 23:00;CYWG 022300Z 31011KT 15SM FEW095 SCT240 11/M07 A2978 RMK AC1CI1 SLP093

CYWG;2009-05-03 00:00;CYWG 030000Z 35010G15KT 15SM FEW089 SCT230 10/M07 A2977 RMK AC2CI1 SLP091

CYWG;2009-05-03 01:00;CYWG 030100Z 35007KT 15SM FEW087 SCT230 09/M06 A2976 RMK AC2CI0 SLP087

CYWG;2009-05-03 02:00;CYWG 030200Z 36003KT 15SM FEW090 FEW230 07/M06 A2976 RMK AC1CI0 SLP087

CYWG;2009-05-03 03:00;CYWG 030300Z 35002KT 15SM SKC 05/M07 A2977 RMK SLP090

CYWG;2009-05-03 04:00;CYWG 030400Z 29003KT 15SM SKC 01/M06 A2978 RMK SLP092

CYWG;2009-05-03 05:00;CYWG 030500Z 27004KT 15SM SKC 00/M06 A2978 RMK SLP094

CYWG;2009-05-03 06:00;CYWG 030600Z 25005KT 15SM SKC M01/M07 A2979 RMK SLP097

CYWG;2009-05-03 07:00;CYWG 030700Z 24007KT 15SM SKC 01/M06 A2979 RMK SLP098

CYWG;2009-05-03 08:00;CYWG 030800Z 27005KT 15SM SKC M01/M06 A2980 RMK SLP100

CYWG;2009-05-03 09:00;CYWG 030900Z 30008KT 15SM BKN076 M00/M04 A2983 RMK AC7 SLP109

CYWG;2009-05-03 10:00;CYWG 031000Z 27007KT 15SM FEW076 01/M04 A2983 RMK AC1 SLP109

CYWG;2009-05-03 11:00;CYWG 031100Z 29010KT 15SM FEW073 FEW250 M02/M05 A2985 RMK AC2CI0 SLP117

CYWG;2009-05-03 12:00;CYWG 031200Z 30008KT 15SM FEW071 FEW083 SCT250 M01/M03 A2987 RMK AC2AC1CI2 SLP125

CYWG;2009-05-03 13:00;CYWG 031300Z 30006KT 15SM FEW071 BKN083 03/M00 A2989 RMK AC2AC3 SLP132

CYWG;2009-05-03 14:00;CYWG 031400Z 32008KT 15SM FEW061 FEW080 BKN250 07/00 A2989 RMK SC1AC2CI1 SLP132

CYWG;2009-05-03 15:00;CYWG 031500Z 34010KT 15SM FEW067 SCT098 BKN250 09/M01 A2990 RMK AC1AC2CI2 SLP133

CYWG;2009-05-03 16:00;CYWG 031600Z 34010KT 15SM FEW065 FEW093 BKN250 10/M02 A2992 RMK SC1AC1CS3 HALO SLP139

CYWG;2009-05-03 17:00;CYWG 031700Z 31010G15KT 15SM FEW050 SCT210 BKN250 12/M01 A2992 RMK CF2CS2CI1 SLP141

CYWG;2009-05-03 18:00;CYWG 031800Z 31015G21KT 15SM FEW056 BKN250 13/M01 A2993 RMK CF1CI2 SLP142

CYWG;2009-05-03 19:00;CYWG 031900Z 34013G21KT 15SM FEW058 BKN250 14/M02 A2993 RMK CU1CI1 SLP142

CYWG;2009-05-03 20:00;CYWG 032000Z 35008KT 15SM FEW060 BKN250 14/M02 A2993 RMK CU1CI1 SLP142

CYWG;2009-05-03 21:00;CYWG 032100Z 32011G18KT 15SM FEW068 BKN250 15/M01 A2993 RMK CF2CI1 SLP144

CYWG;2009-05-03 22:00;CYWG 032200Z 31011G17KT 15SM FEW068 BKN250 15/M01 A2993 RMK CF2CI1 SLP142

CYWG;2009-05-03 23:00;CYWG 032300Z 34011G20KT 15SM FEW065 SCT250 15/M01 A2992 RMK CF1CI1 SLP141

CYWG;2009-05-04 00:00;CYWG 040000Z 31009KT 15SM FEW250 15/M01 A2991 RMK CI1 SLP138

CYWG;2009-05-04 01:00;CYWG 040100Z 36004KT 15SM FEW250 14/00 A2991 RMK CI1 SLP136

CYWG;2009-05-04 02:00;CYWG 040200Z 14002KT 15SM FEW250 11/M00 A2990 RMK CI1 SLP135

CYWG;2009-05-04 03:00;CYWG 040300Z 20007KT 15SM SKC 10/M00 A2992 RMK SLP137

CYWG;2009-05-04 04:00;CYWG 040400Z 22008KT 15SM SKC 09/M00 A2992 RMK SLP138

CYWG;2009-05-04 05:00;CYWG 040500Z 21010KT 15SM SKC 09/M00 A2991 RMK SLP136

CYWG;2009-05-04 06:00;CYWG 040600Z 21010KT 15SM SKC 08/M00 A2992 RMK SLP137

CYWG;2009-05-04 07:00;CYWG 040700Z 22011KT 15SM SKC 08/03 A2991 RMK SLP136

CYWG;2009-05-04 08:00;CYWG 040800Z 22012KT 15SM SKC 07/02 A2992 RMK SLP138

CYWG;2009-05-04 09:00;CYWG 040900Z 22012KT 15SM SKC 07/02 A2992 RMK SLP136

CYWG;2009-05-04 10:00;CYWG 041000Z 21010KT 15SM SKC 07/01 A2992 RMK SLP137

CYWG;2009-05-04 11:00;CYWG 041100Z 20010KT 15SM SKC 06/01 A2992 RMK SLP138

CYWG;2009-05-04 12:00;CYWG 041200Z 20011KT 15SM SKC 08/01 A2993 RMK SLP140

CYWG;2009-05-04 13:00;CYWG 041300Z 20011KT 15SM SKC 09/03 A2993 RMK SLP142

CYWG;2009-05-04 14:00;CYWG 041400Z 20013KT 15SM SKC 13/02 A2993 RMK SLP141

CYWG;2009-05-04 15:00;CYWG 041500Z 21016G21KT 15SM FEW250 15/02 A2992 RMK CI1 SLP137

CYWG;2009-05-04 16:00;CYWG 041600Z 20017KT 15SM SCT250 17/01 A2991 RMK CI1 SLP133

CYWG;2009-05-04 17:00;CYWG 041700Z 19019G25KT 15SM SCT250 17/M00 A2989 RMK CI1 SLP127

CYWG;2009-05-04 18:00;CYWG 041800Z 19021KT 15SM BKN250 18/01 A2988 RMK CI2 SLP122

CYWG;2009-05-04 19:00;CYWG 041900Z 17022G27KT 15SM BKN250 19/02 A2985 RMK CI2 SLP114

CYWG;2009-05-04 20:00;CYWG 042000Z 19019G26KT 15SM OVC250 19/00 A2983 RMK CI2 SLP108

CYWG;2009-05-04 21:00;CYWG 042100Z 19015G25KT 15SM OVC250 19/01 A2981 RMK CI2 SLP098

CYWG;2009-05-04 22:00;CYWG 042200Z 20016G21KT 15SM FEW120 OVC250 19/03 A2979 RMK AC1CI2 SLP091

CYWG;2009-05-04 23:00;CYWG 042300Z 19016KT 15SM FEW065 OVC250 18/04 A2977 RMK SC1CI2 SLP087

CYWG;2009-05-05 00:00;CYWG 050000Z 17016KT 15SM FEW065 OVC250 18/01 A2977 RMK SC1CI3 SLP084

CYWG;2009-05-05 01:00;CYWG 050100Z 18012KT 15SM SCT100 OVC250 16/01 A2976 RMK AC3CI2 SLP081

CYWG;2009-05-05 02:00;CYWG 050200Z 17007KT 15SM BKN250 13/02 A2974 RMK CI2 SLP077

CYWG;2009-05-05 03:00;CYWG 050300Z 15009KT 15SM BKN250 13/02 A2972 RMK CI2 SLP068

CYWG;2009-05-05 04:00;CYWG 050400Z 14010KT 15SM FEW090 FEW250 13/01 A2970 RMK AC1CI0 SLP061

CYWG;2009-05-05 05:00;CYWG 050500Z 14011KT 15SM BKN083 13/01 A2967 RMK AC5 SLP053

CYWG;2009-05-05 06:00;CYWG 050600Z 14012KT 15SM SCT085 13/01 A2966 RMK AC4 SLP045

CYWG;2009-05-05 07:00;CYWG 050700Z 14015KT 15SM SCT250 12/01 A2964 RMK CI1 SLP038

CYWG;2009-05-05 08:00;CYWG 050800Z 15010KT 15SM FEW085 SCT250 10/01 A2961 RMK AC1CI0 SLP030

CYWG;2009-05-05 09:00;CYWG 050900Z 14007KT 15SM SCT085 BKN250 10/02 A2959 RMK AC3CI0 SLP024

CYWG;2009-05-05 10:00;CYWG 051000Z 14008KT 15SM BKN097 10/03 A2959 RMK AC6 SLP022

CYWG;2009-05-05 11:00;CYWG 051100Z 16010KT 15SM FEW053 OVC095 11/04 A2957 RMK SC2AC6 SLP018

CYWG;2009-05-05 12:00;CYWG 051200Z 16009KT 15SM BKN025 OVC075 12/07 A2957 RMK SC5AC3 SLP017

CYWG;2009-05-05 13:00;CYWG 051300Z 16013KT 15SM FEW045 BKN200 12/08 A2957 RMK SC1CI4 SLP016

CYWG;2009-05-05 14:00;CYWG 051400Z 16013KT 15SM FEW045 FEW200 13/09 A2957 RMK SC1CI1 SLP015

CYWG;2009-05-05 15:00;CYWG 051500Z 18013KT 15SM BKN022 15/09 A2957 RMK SC6 SLP017

CYWG;2009-05-05 16:00;CYWG 051600Z 16014KT 15SM BKN028 BKN056 15/08 A2956 RMK SC5SC2 SLP015

CYWG;2009-05-05 17:00;CYWG 051700Z 17012G17KT 15SM FEW030 BKN056 BKN120 15/07 A2955 RMK SC2SC2AC1 SLP012

CYWG;2009-05-05 18:00;CYWG 051800Z 17017G24KT 15SM FEW030 SCT058 16/08 A2954 RMK SC2SC2 SLP007

CYWG;2009-05-05 19:00;CYWG 051900Z 19010G18KT 15SM BKN035 17/08 A2953 RMK SC6 SLP003

CYWG;2009-05-05 20:00;CYWG 052000Z 15005KT 15SM BKN037 17/08 A2952 RMK SC5 SLP001

CYWG;2009-05-05 21:00;CYWG 052100Z 22013KT 15SM SCT041 BKN076 18/08 A2952 RMK SC3AC2 SLP000

CYWG;2009-05-05 22:00;CYWG 052200Z 17005KT 15SM SCT040 BKN065 18/09 A2951 RMK SC3SC2 SLP997

CYWG;2009-05-05 23:00;CYWG 052300Z 10003KT 15SM FEW044 SCT065 BKN230 18/07 A2951 RMK CU2SC2CI1 SLP998

CYWG;2009-05-06 00:00;CYWG 060000Z 17003KT 15SM FEW050 FEW065 SCT230 17/06 A2951 RMK CU1SC2CI1 SLP997

CYWG;2009-05-06 01:00;CYWG 060100Z 18003KT 15SM FEW050 FEW070 BKN230 15/06 A2951 RMK CU1AC1CI2 TCU SLP998

CYWG;2009-05-06 02:00;CYWG 060200Z 16006KT 15SM FEW075 BKN230 13/07 A2952 RMK AC2CI2 SLP001

CYWG;2009-05-06 03:00;CYWG 060300Z 17006KT 15SM SCT230 11/07 A2953 RMK CI2 SLP005

CYWG;2009-05-06 04:00;CYWG 060400Z 19006KT 15SM SCT230 11/08 A2953 RMK CI1 SLP005

CYWG;2009-05-06 05:00;CYWG 060500Z 18007KT 15SM FEW230 10/07 A2953 RMK CI0 SLP004

CYWG;2009-05-06 06:00;CYWG 060600Z 19005KT 15SM SKC 09/06 A2954 RMK SLP007

CYWG;2009-05-06 07:00;CYWG 060700Z 19004KT 15SM SKC 09/07 A2953 RMK SLP004

CYWG;2009-05-06 08:00;CYWG 060800Z 18005KT 15SM SKC 08/07 A2953 RMK SLP005

CYWG;2009-05-06 09:00;CYWG 060900Z 18003KT 15SM SKC 08/07 A2953 RMK SLP003

CYWG;2009-05-06 10:00;CYWG 061000Z 16005KT 15SM SKC 06/06 A2953 RMK SLP003

CYWG;2009-05-06 11:00;CYWG 061100Z 17004KT 15SM MIFG FEW120 FEW250 06/06 A2952 RMK AC1CI1 SLP001

CYWG;2009-05-06 12:00;CYWG 061200Z 17005KT 15SM FEW120 FEW250 07/06 A2952 RMK AC1CI1 SLP000

CYWG;2009-05-06 13:00;CYWG 061300Z 17005KT 15SM FEW120 FEW250 10/09 A2953 RMK AC1CI1 SLP004

CYWG;2009-05-06 14:00;CYWG 061400Z 18006KT 15SM FEW120 SCT250 15/10 A2953 RMK AC1CI1 SLP003

CYWG;2009-05-06 15:00;CYWG 061500Z 17006KT 15SM FEW080 FEW120 BKN250 17/10 A2952 RMK AC1AC1CI1 SLP999

CYWG;2009-05-06 16:00;CYWG 061600Z 15006KT 15SM FEW100 BKN250 18/09 A2951 RMK AC1CI2 SLP998

CYWG;2009-05-06 17:00;CYWG 061700Z 16004KT 15SM FEW055 BKN075 BKN250 20/06 A2950 RMK CU1AC4CI1 SLP994

CYWG;2009-05-06 18:00;CYWG 061800Z 30019G27KT 15SM FEW055 BKN100 BKN250 19/05 A2951 RMK CU1AC6CI1 SLP996

CYWG;2009-05-06 19:00;CYWG 061900Z 31016KT 15SM FEW055 OVC100 18/05 A2952 RMK CU1AC7 VIRGA ALQDS SLP000

CYWG;2009-05-06 19:24;CYWG 061924Z 29017KT 15SM -SHRA FEW055 BKN100 OVC250 RMK CU1AC6CI1

CYWG;2009-05-06 20:00;CYWG 062000Z 26007KT 15SM FEW055 BKN100 OVC250 18/06 A2954 RMK CU2AC2CI2 SLP005

CYWG;2009-05-06 21:00;CYWG 062100Z 17003KT 15SM FEW055 BKN096 BKN250 19/05 A2951 RMK CU2AC3CI2 SLP995

CYWG;2009-05-06 22:00;CYWG 062200Z 00000KT 15SM FEW055 SCT096 BKN250 20/05 A2949 RMK CU1AC2CI2 SLP989

CYWG;2009-05-06 23:00;CYWG 062300Z 25015G20KT 15SM SCT082 BKN093 BKN250 18/02 A2949 RMK AC3AC3CI0 SLP989

CYWG;2009-05-07 00:00;CYWG 070000Z 32013G28KT 15SM -SHRA BKN064 BKN087 15/07 A2951 RMK SC6AC1 SLP996

CYWG;2009-05-07 00:31;CYWG 070031Z CCA 10002KT 15SM FEW028 BKN055 BKN087 15/ RMK SC2SC4AC1 CVCTV CLD EMBD VIRGA

CYWG;2009-05-07 01:00;CYWG 070100Z 35004KT 15SM FEW028 BKN055 BKN091 14/06 A2949 RMK SC2SC3AC1 SLP992

CYWG;2009-05-07 02:00;CYWG 070200Z 09002KT 15SM FEW030 BKN073 OVC250 13/06 A2949 RMK SC2AC5CI0 SLP990

CYWG;2009-05-07 03:00;CYWG 070300Z 36003KT 15SM BKN078 BKN250 10/06 A2949 RMK AC6CI0 ACC ASOCTD VIRGA OVRHD SLP989

CYWG;2009-05-07 04:00;CYWG 070400Z 21008KT 15SM BKN070 12/06 A2949 RMK AC6 ACC ASOCTD VIRGA OVRHD SLP991

CYWG;2009-05-07 05:00;CYWG 070500Z 10004KT 15SM BKN082 10/06 A2947 RMK AS5 SLP984

CYWG;2009-05-07 06:00;CYWG 070600Z 29007KT 15SM FEW082 07/05 A2946 RMK AS2 SLP981

CYWG;2009-05-07 07:00;CYWG 070700Z 24005KT 15SM FEW082 08/04 A2946 RMK AC1 SLP981

CYWG;2009-05-07 08:00;CYWG 070800Z 26010KT 15SM FEW090 09/06 A2946 RMK AC1 SLP981

CYWG;2009-05-07 09:00;CYWG 070900Z 27010KT 15SM FEW090 08/06 A2947 RMK AC1 SLP984

CYWG;2009-05-07 09:40;CYWG 070940Z 30019KT 15SM OVC006 07/ RMK SF8

CYWG;2009-05-07 10:00;CYWG 071000Z 30018KT 15SM OVC006 06/06 A2949 RMK SF8 SLP989

CYWG;2009-05-07 11:00;CYWG 071100Z 29020G26KT 15SM OVC005 05/04 A2950 RMK ST8 SLP993

CYWG;2009-05-07 11:22;CYWG 071122Z 30019G26KT 15SM OVC004 04/ RMK ST8

CYWG;2009-05-07 11:45;CYWG 071145Z 30019G27KT 15SM -RA OVC003 04/ RMK SF8

CYWG;2009-05-07 12:00;CYWG 071200Z 30021G27KT 5SM RA OVC003 03/03 A2951 RMK SF8 SLP998

CYWG;2009-05-07 12:24;CYWG 071224Z 30019G28KT 10SM -SHRA OVC006 03/ RMK SF8 CVCTV CLD EMBD

CYWG;2009-05-07 13:00;CYWG 071300Z 30017G24KT 8SM -SHRA OVC006 03/03 A2953 RMK SF8 CVCTV CLD EMBD SLP006

CYWG;2009-05-07 13:21;CYWG 071321Z 31021KT 2 1/2SM -SHRA OVC006 03/ RMK SF8 CVCTV CLD EMBD

CYWG;2009-05-07 13:33;CYWG 071333Z 31019G24KT 5SM -SHRA OVC007 03/ RMK SF8 CVCTV CLD EMBD

CYWG;2009-05-07 14:00;CYWG 071400Z 31017G22KT 12SM OVC007 03/03 A2956 RMK SF8 CVCTV CLD EMBD SLP015

CYWG;2009-05-07 15:00;CYWG 071500Z 31021KT 15SM OVC008 04/03 A2957 RMK ST8 SLP021

CYWG;2009-05-07 15:49;CYWG 071549Z 31017KT 15SM -SHRA OVC008 04/ RMK SC8

CYWG;2009-05-07 16:00;CYWG 071600Z 31015G21KT 15SM -SHRA OVC008 03/03 A2961 RMK SC8 SLP034

CYWG;2009-05-07 16:13;CYWG 071613Z 31017G22KT 15SM OVC008 03/ RMK SC8

CYWG;2009-05-07 17:00;CYWG 071700Z 31017G25KT 15SM OVC006 03/02 A2964 RMK SC8 SLP042

CYWG;2009-05-07 17:07;CYWG 071707Z 31020KT 12SM -DZ OVC006 03/ RMK ST8

CYWG;2009-05-07 17:35;CYWG 071735Z 31020KT 8SM -DZ OVC004 02/ RMK ST8

CYWG;2009-05-07 18:00;CYWG 071800Z 31018KT 12SM OVC004 02/02 A2966 RMK ST8 SLP054

CYWG;2009-05-07 18:54;CYWG 071854Z 32018KT 12SM OVC005 02/ RMK ST8

CYWG;2009-05-07 19:00;CYWG 071900Z 31018KT 12SM OVC005 02/02 A2967 RMK ST8 SLP058

CYWG;2009-05-07 20:00;CYWG 072000Z 32017KT 9SM -DZ OVC007 03/03 A2970 RMK ST8 SLP066

CYWG;2009-05-07 20:36;CYWG 072036Z 33018KT 12SM OVC009 03/ RMK SC8

CYWG;2009-05-07 21:00;CYWG 072100Z 32019G25KT 15SM OVC010 03/01 A2972 RMK SC8 SLP072

CYWG;2009-05-07 22:00;CYWG 072200Z 34017KT 9SM OVC012 03/01 A2973 RMK SC8 SLP075

CYWG;2009-05-07 23:00;CYWG 072300Z 34014KT 9SM OVC010 03/02 A2975 RMK SC8 SLP083

CYWG;2009-05-08 00:00;CYWG 080000Z 33014KT 8SM OVC009 03/02 A2977 RMK SC8 SLP090

CYWG;2009-05-08 00:31;CYWG 080031Z 33013KT 5SM -DZ OVC006 03/ RMK ST8

CYWG;2009-05-08 01:00;CYWG 080100Z 32012KT 8SM -DZ OVC010 02/01 A2979 RMK SC8 SLP097

CYWG;2009-05-08 02:00;CYWG 080200Z 30012KT 10SM OVC012 02/01 A2979 RMK SC8 SLP098

CYWG;2009-05-08 03:00;CYWG 080300Z 35012KT 10SM OVC014 02/M00 A2981 RMK SC8 SLP105

CYWG;2009-05-08 04:00;CYWG 080400Z 36012KT 15SM OVC020 02/M01 A2982 RMK SC8 CIG RGD SLP108

CYWG;2009-05-08 04:30;CYWG 080430Z 35014KT 15SM -DZ OVC013 01/ RMK ST8

CYWG;2009-05-08 05:00;CYWG 080500Z 35010KT 15SM BKN010 OVC024 01/M00 A2983 RMK ST6SC2 SLP110

CYWG;2009-05-08 06:00;CYWG 080600Z 35010KT 15SM OVC022 01/M01 A2983 RMK SC8 SLP114

CYWG;2009-05-08 07:00;CYWG 080700Z 36012KT 15SM OVC024 00/M01 A2983 RMK SC8 SLP111

CYWG;2009-05-08 08:00;CYWG 080800Z 34008KT 15SM OVC014 00/M02 A2984 RMK SC8 CIG RGD SLP116

CYWG;2009-05-08 09:00;CYWG 080900Z 33010KT 15SM OVC029 00/M02 A2984 RMK SC8 SLP117

CYWG;2009-05-08 10:00;CYWG 081000Z 33010KT 15SM BKN018 OVC049 00/M02 A2985 RMK SC6SC2 SLP119

CYWG;2009-05-08 11:00;CYWG 081100Z 32010KT 15SM BKN014 OVC042 00/M01 A2985 RMK SC7SC1 SLP119

CYWG;2009-05-08 12:00;CYWG 081200Z 33011KT 15SM OVC014 00/M01 A2986 RMK SC8 SLP122

CYWG;2009-05-08 12:12;CYWG 081212Z 34010KT 15SM -SN OVC014 00/ RMK SC8

CYWG;2009-05-08 13:00;CYWG 081300Z 35010KT 15SM -SN BKN014 OVC040 01/M01 A2987 RMK SC7SC1 SLP125

CYWG;2009-05-08 14:00;CYWG 081400Z 35012KT 15SM BKN012 OVC041 01/M00 A2988 RMK SC5SC3 SLP128

CYWG;2009-05-08 14:43;CYWG 081443Z 36012KT 15SM SCT012 OVC039 02/ RMK SC4SC4

CYWG;2009-05-08 15:00;CYWG 081500Z 01012KT 15SM BKN012 OVC039 02/M00 A2989 RMK SC6SC2 SLP131

CYWG;2009-05-08 16:00;CYWG 081600Z 02012KT 15SM BKN014 OVC039 03/00 A2989 RMK SC7SC1 SLP131

CYWG;2009-05-08 17:00;CYWG 081700Z 02011KT 15SM OVC014 04/01 A2991 RMK SC8 SLP139

CYWG;2009-05-08 18:00;CYWG 081800Z 01012KT 15SM OVC012 04/01 A2993 RMK SC8 SLP145

CYWG;2009-05-08 19:00;CYWG 081900Z 01013KT 15SM OVC014 04/00 A2993 RMK SC8 SLP146

CYWG;2009-05-08 20:00;CYWG 082000Z 01013KT 15SM OVC020 05/00 A2993 RMK SC8 SLP145

CYWG;2009-05-08 21:00;CYWG 082100Z 36012KT 15SM OVC020 05/01 A2993 RMK SC8 SLP148

CYWG;2009-05-08 22:00;CYWG 082200Z 03014KT 15SM OVC016 04/01 A2994 RMK SC8 SLP150

CYWG;2009-05-08 23:00;CYWG 082300Z 02011G16KT 15SM OVC016 04/01 A2996 RMK SC8 SLP157

CYWG;2009-05-09 00:00;CYWG 090000Z 03015KT 15SM OVC016 03/00 A2997 RMK SC8 SLP161

CYWG;2009-05-09 01:00;CYWG 090100Z 03015KT 15SM SCT014 OVC031 02/M00 A2999 RMK SC4SC4 SLP167

CYWG;2009-05-09 02:00;CYWG 090200Z 03011G16KT 15SM BKN014 OVC033 02/M01 A3001 RMK SC5SC3 SLP174

CYWG;2009-05-09 03:00;CYWG 090300Z 03012KT 15SM BKN013 OVC036 02/M01 A3003 RMK SC6SC2 SLP180

CYWG;2009-05-09 04:00;CYWG 090400Z 02010KT 15SM SCT013 OVC044 01/M01 A3004 RMK SC3SC5 SLP183

CYWG;2009-05-09 05:00;CYWG 090500Z 36008KT 15SM FEW013 OVC030 01/M01 A3004 RMK SC2SC6 SLP185

CYWG;2009-05-09 06:00;CYWG 090600Z 35007KT 15SM BKN012 OVC030 01/M01 A3005 RMK SC6SC2 SLP187

CYWG;2009-05-09 06:06;CYWG 090606Z 35007KT 15SM -SN OVC012 01/ RMK SC8

CYWG;2009-05-09 07:00;CYWG 090700Z 35008KT 6SM -SN BKN012 OVC025 01/M01 A3005 RMK SC6SC2 SLP186

CYWG;2009-05-09 08:00;CYWG 090800Z 36007KT 15SM SCT014 OVC022 01/M01 A3004 RMK SC3SC5 SLP183

CYWG;2009-05-09 09:00;CYWG 090900Z 36007KT 15SM FEW013 OVC020 01/M01 A3004 RMK SC2SC6 SLP183

CYWG;2009-05-09 10:00;CYWG 091000Z 36006KT 15SM BKN010 OVC024 00/M01 A3005 RMK SC6SC2 SLP186

CYWG;2009-05-09 11:00;CYWG 091100Z 36005KT 15SM BKN012 OVC032 00/M01 A3005 RMK SC6SC2 SLP187

CYWG;2009-05-09 11:15;CYWG 091115Z 36006KT 8SM -SN BKN012 OVC032 00/ RMK SC5SC3

CYWG;2009-05-09 11:37;CYWG 091137Z 01006KT 2SM -SN BKN010 OVC032 00/ RMK SC6SC2

CYWG;2009-05-09 12:00;CYWG 091200Z 36008KT 2 1/2SM -SN FEW007 OVC017 00/M00 A3006 RMK SF2SC6 SLP192

CYWG;2009-05-09 12:24;CYWG 091224Z 36007KT 6SM -SN OVC006 00/ RMK SF8

CYWG;2009-05-09 12:54;CYWG 091254Z 36007KT 4SM -SN OVC004 00/ RMK SF8

CYWG;2009-05-09 13:00;CYWG 091300Z 01007KT 4SM -SN OVC005 00/00 A3008 RMK SF8 SLP196

CYWG;2009-05-09 13:13;CYWG 091313Z 01008KT 2SM -SN VV004 00/ RMK SN8

CYWG;2009-05-09 14:00;CYWG 091400Z 01009KT 2SM -SN OVC004 01/00 A3009 RMK SF8 SLP199

CYWG;2009-05-09 14:11;CYWG 091411Z 03009KT 2SM -SN OVC005 RMK SF8

CYWG;2009-05-09 15:00;CYWG 091500Z 04007KT 4SM -SN OVC006 01/01 A3009 RMK SF8 SLP203

CYWG;2009-05-09 16:00;CYWG 091600Z 03010KT 10SM -SN OVC010 02/01 A3010 RMK SF8 SLP206

CYWG;2009-05-09 17:00;CYWG 091700Z 07006KT 12SM OVC013 04/00 A3011 RMK SC8 SLP209

CYWG;2009-05-09 18:00;CYWG 091800Z 07013KT 15SM SCT015 OVC024 05/M02 A3012 RMK SC4SC4 SLP210

CYWG;2009-05-09 19:00;CYWG 091900Z 07010KT 15SM BKN036 OVC056 07/M02 A3012 RMK SC6SC2 SLP209

CYWG;2009-05-09 20:00;CYWG 092000Z 02005KT 15SM FEW036 BKN053 07/M05 A3012 RMK SC2SC5 SLP209

CYWG;2009-05-09 21:00;CYWG 092100Z 09007KT 15SM FEW035 BKN055 07/M05 A3012 RMK SC2SC6 SLP208

CYWG;2009-05-09 22:00;CYWG 092200Z 35003KT 15SM FEW035 FEW070 BKN250 09/M05 A3011 RMK SC1AC1CS1 SLP206

CYWG;2009-05-09 23:00;CYWG 092300Z 23004KT 15SM FEW050 FEW090 BKN250 10/M03 A3010 RMK SC2AC1CS0 SLP204

CYWG;2009-05-10 00:00;CYWG 100000Z 30007KT 15SM FEW060 SCT100 BKN250 09/M02 A3010 RMK SC2AC1CS0 SLP204

CYWG;2009-05-10 01:00;CYWG 100100Z 33010KT 15SM FEW054 FEW097 BKN250 07/M03 A3012 RMK SC1AC1CS0 SLP208

CYWG;2009-05-10 02:00;CYWG 100200Z 32008KT 15SM SCT120 BKN250 06/M03 A3012 RMK AC2CI0 SLP209

CYWG;2009-05-10 03:00;CYWG 100300Z 29009KT 15SM FEW120 FEW250 01/M05 A3013 RMK AC1CI0 SLP215

CYWG;2009-05-10 04:00;CYWG 100400Z 29006KT 15SM FEW250 M01/M05 A3015 RMK CI0 SLP220

CYWG;2009-05-10 05:00;CYWG 100500Z 36005KT 15SM FEW085 M02/M05 A3016 RMK AC0 SLP226

CYWG;2009-05-10 06:00;CYWG 100600Z 04007KT 15SM SKC M00/M04 A3017 RMK SLP229

CYWG;2009-05-10 07:00;CYWG 100700Z 02002KT 15SM SKC M01/M05 A3018 RMK SLP231

CYWG;2009-05-10 08:00;CYWG 100800Z 00000KT 15SM SKC M01/M05 A3018 RMK SLP232

CYWG;2009-05-10 09:00;CYWG 100900Z 30005KT 15SM SKC M04/M06 A3019 RMK SLP234

CYWG;2009-05-10 10:00;CYWG 101000Z 28005KT 15SM FEW250 M03/M05 A3019 RMK CI0 SLP235

CYWG;2009-05-10 11:00;CYWG 101100Z 28007KT 15SM SCT250 M04/M06 A3019 RMK CI1 SLP237

CYWG;2009-05-10 12:00;CYWG 101200Z 29004KT 15SM SCT250 M02/M03 A3021 RMK CI1 SLP240

CYWG;2009-05-10 13:00;CYWG 101300Z 29004KT 15SM FEW250 03/M01 A3021 RMK CI0 SLP241

CYWG;2009-05-10 14:00;CYWG 101400Z 30003KT 15SM FEW250 07/M03 A3021 RMK CI0 SLP241

CYWG;2009-05-10 15:00;CYWG 101500Z 30005KT 15SM FEW250 08/M07 A3021 RMK CI1 SLP240

CYWG;2009-05-10 16:00;CYWG 101600Z 29004KT 15SM FEW210 10/M10 A3021 RMK CI1 SLP239

CYWG;2009-05-10 17:00;CYWG 101700Z 00000KT 15SM FEW060 SCT210 11/M10 A3019 RMK CU1CI2 SLP235

CYWG;2009-05-10 18:00;CYWG 101800Z 31007KT 15SM FEW060 FEW140 SCT210 12/M06 A3019 RMK CU1AC1CI2 SLP231

CYWG;2009-05-10 19:00;CYWG 101900Z 26006KT 15SM FEW060 SCT096 BKN240 13/M04 A3017 RMK CU1AC2CI0 SLP225

CYWG;2009-05-10 20:00;CYWG 102000Z 32009KT 15SM FEW060 FEW098 BKN240 13/M02 A3016 RMK CU2AC1CI1 SLP221

CYWG;2009-05-10 21:00;CYWG 102100Z 27010KT 15SM SCT062 BKN092 BKN240 14/M02 A3014 RMK CU4AC1CI0 SLP216

CYWG;2009-05-10 22:00;CYWG 102200Z 27006KT 15SM BKN066 14/M01 A3013 RMK CU5 SLP214

CYWG;2009-05-10 23:00;CYWG 102300Z 31007KT 15SM SCT064 BKN081 14/M02 A3012 RMK CU4AC2 SLP211

CYWG;2009-05-11 00:00;CYWG 110000Z 33002KT 15SM BKN068 14/M01 A3012 RMK CU5 SLP207

CYWG;2009-05-11 01:00;CYWG 110100Z 07003KT 15SM FEW068 13/00 A3011 RMK SC1 SLP206

CYWG;2009-05-11 02:00;CYWG 110200Z 08004KT 15SM SKC 10/M00 A3012 RMK SLP207

CYWG;2009-05-11 03:00;CYWG 110300Z 19002KT 15SM SKC 07/M00 A3013 RMK SLP210

CYWG;2009-05-11 04:00;CYWG 110400Z 17002KT 15SM SKC 05/M01 A3012 RMK SLP209

CYWG;2009-05-11 05:00;CYWG 110500Z 18005KT 15SM SKC 07/M01 A3012 RMK SLP207

CYWG;2009-05-11 06:00;CYWG 110600Z 19004KT 15SM SKC 06/M00 A3012 RMK SLP206

CYWG;2009-05-11 07:00;CYWG 110700Z 17005KT 15SM SKC 05/00 A3011 RMK SLP205

CYWG;2009-05-11 08:00;CYWG 110800Z 16004KT 15SM SKC 03/M00 A3011 RMK SLP204

CYWG;2009-05-11 09:00;CYWG 110900Z 17004KT 15SM SKC 04/00 A3011 RMK SLP202

CYWG;2009-05-11 10:00;CYWG 111000Z 18005KT 15SM SKC 02/M00 A3010 RMK SLP200

CYWG;2009-05-11 11:00;CYWG 111100Z 18005KT 10SM SKC 02/00 A3009 RMK BR SLP197

CYWG;2009-05-11 11:06;CYWG 111106Z 18006KT 10SM SKC 01/ RMK BR

CYWG;2009-05-11 12:00;CYWG 111200Z 18006KT 10SM SKC 04/02 A3009 RMK BR SLP196

CYWG;2009-05-11 13:00;CYWG 111300Z 18005KT 15SM SKC 07/04 A3009 RMK SLP195

CYWG;2009-05-11 14:00;CYWG 111400Z 19005KT 15SM SKC 10/02 A3008 RMK SLP192

CYWG;2009-05-11 15:00;CYWG 111500Z 19006KT 15SM SKC 13/03 A3006 RMK SLP185

CYWG;2009-05-11 16:00;CYWG 111600Z 17008KT 15SM SKC 15/01 A3004 RMK SLP179

CYWG;2009-05-11 17:00;CYWG 111700Z 16008KT 15SM FEW060 16/00 A3003 RMK CF1 SLP174

CYWG;2009-05-11 18:00;CYWG 111800Z 20011KT 15SM FEW068 18/01 A3000 RMK CF1 SLP165

CYWG;2009-05-11 19:00;CYWG 111900Z 23012G17KT 15SM FEW076 19/M01 A2997 RMK CU1 SLP156

CYWG;2009-05-11 20:00;CYWG 112000Z 22011G18KT 15SM FEW076 18/M01 A2996 RMK CU1 SLP151

CYWG;2009-05-11 21:00;CYWG 112100Z 20012KT 15SM FEW080 19/M02 A2994 RMK CU1 SLP144

CYWG;2009-05-11 22:00;CYWG 112200Z 17005G15KT 15SM FEW080 19/M00 A2991 RMK CU1 SLP134

CYWG;2009-05-11 23:00;CYWG 112300Z 18009G15KT 15SM FEW075 19/02 A2990 RMK CU1 SLP129

CYWG;2009-05-12 00:00;CYWG 120000Z 19012KT 15SM FEW060 FEW099 18/03 A2988 RMK CF1AC1 CF TR SLP123

CYWG;2009-05-12 01:00;CYWG 120100Z 22013G24KT 15SM SCT060 SCT095 15/06 A2987 RMK CU3AC1 SLP120

CYWG;2009-05-12 02:00;CYWG 120200Z 20006KT 15SM FEW095 13/04 A2985 RMK AC2 SLP115

CYWG;2009-05-12 03:00;CYWG 120300Z 16007KT 15SM FEW091 11/04 A2986 RMK AC1 SLP115

CYWG;2009-05-12 04:00;CYWG 120400Z 19014G19KT 15SM FEW094 13/07 A2986 RMK AC1 SLP115

CYWG;2009-05-12 05:00;CYWG 120500Z 19014KT 15SM FEW094 12/07 A2984 RMK AC1 SLP111

CYWG;2009-05-12 06:00;CYWG 120600Z 19013KT 15SM FEW094 10/07 A2984 RMK AC1 SLP109

CYWG;2009-05-12 07:00;CYWG 120700Z 18009KT 15SM FEW230 09/07 A2983 RMK CI0 SLP104

CYWG;2009-05-12 08:00;CYWG 120800Z 18011KT 15SM FEW100 SCT230 09/07 A2980 RMK AC1CI1 SLP096

CYWG;2009-05-12 09:00;CYWG 120900Z 18010KT 15SM FEW100 BKN230 09/06 A2979 RMK AC2CI1 SLP090

CYWG;2009-05-12 10:00;CYWG 121000Z 15008KT 15SM FEW100 BKN230 07/05 A2978 RMK AC2CI2 SLP089

CYWG;2009-05-12 11:00;CYWG 121100Z 15008KT 15SM FEW100 BKN230 07/05 A2976 RMK AC2CI1 SLP082

CYWG;2009-05-12 12:00;CYWG 121200Z 16010KT 15SM SCT100 BKN230 09/06 A2975 RMK AC3CI2 SLP078

CYWG;2009-05-12 13:00;CYWG 121300Z 14009KT 15SM BKN070 BKN230 10/07 A2973 RMK AC5CI1 SLP071

CYWG;2009-05-12 14:00;CYWG 121400Z 17010KT 15SM FEW070 BKN230 13/08 A2972 RMK AC2CI2 SLP067

CYWG;2009-05-12 15:00;CYWG 121500Z 17012KT 15SM FEW070 BKN230 15/09 A2970 RMK AC2CI2 SLP060

CYWG;2009-05-12 16:00;CYWG 121600Z 16011G16KT 15SM FEW056 SCT080 BKN230 16/10 A2967 RMK CU2AC2CI1 SLP052

CYWG;2009-05-12 17:00;CYWG 121700Z 16013KT 15SM SCT079 BKN230 17/10 A2965 RMK AC3CI1 SLP044

CYWG;2009-05-12 18:00;CYWG 121800Z CCA 16012KT 15SM SCT065 BKN090 BKN230 15/10 A2964 RMK CU3AC2CI1 SLP040

CYWG;2009-05-12 19:00;CYWG 121900Z 15014KT 15SM FEW028 SCT065 SCT095 BKN210 18/10 A2959 RMK CU1SC2AC1CI1 SLP026

CYWG;2009-05-12 20:00;CYWG 122000Z 15016KT 15SM FEW034 BKN068 BKN090 17/10 A2958 RMK CU1AC5AC1 SLP021

CYWG;2009-05-12 21:00;CYWG 122100Z 14018KT 15SM BKN024 OVC058 16/10 A2955 RMK SC7SC1 SLP012

CYWG;2009-05-12 22:00;CYWG 122200Z 14015KT 12SM OVC019 15/11 A2953 RMK SC8 SLP005

CYWG;2009-05-12 23:00;CYWG 122300Z 14015KT 12SM BKN021 BKN054 15/11 A2950 RMK SC6SC2 K SLP993

CYWG;2009-05-13 00:00;CYWG 130000Z 15011G18KT 12SM SCT031 BKN051 BKN090 15/12 A2948 RMK SC4SC2AC2 K SLP989

CYWG;2009-05-13 01:00;CYWG 130100Z 13013KT 12SM SCT019 BKN046 BKN090 15/11 A2945 RMK SC3SC2AC2 K SLP979

CYWG;2009-05-13 02:00;CYWG 130200Z 12009KT 12SM SCT025 OVC085 13/11 A2943 RMK SC3AC5 K SLP972

CYWG;2009-05-13 03:00;CYWG 130300Z CCA 13011G17KT 12SM BKN026 OVC085 14/11 A2943 RMK SC6AC2 K SLP968

CYWG;2009-05-13 04:00;CYWG 130400Z 12013KT 15SM BKN026 OVC042 13/11 A2940 RMK SC6SC2 SLP958

CYWG;2009-05-13 05:00;CYWG 130500Z 12014KT 15SM SCT029 OVC042 13/11 A2934 RMK SC4SC4 SLP939

CYWG;2009-05-13 06:00;CYWG 130600Z 13015KT 15SM -SHRA BKN028 BKN039 OVC077 12/11 A2928 RMK SC5SC2ACC2 PRESFR SLP919

CYWG;2009-05-13 06:28;CYWG 130628Z 12016KT 15SM -SHRA BKN010 OVC030 12/ RMK SC6SC2 CVCTV CLD EMBDD

CYWG;2009-05-13 06:46;CYWG 130646Z 12015KT 15SM BKN008 OVC016 12/ RMK SF6SC2 OCNL -SHRA CVCTV CLD EMBDD

CYWG;2009-05-13 07:00;CYWG 130700Z CCA 12013G19KT 15SM -SHRA OVC009 12/11 A2921 RMK ST8 CIG RAG CVCTV CLD EMBD OBS TAKEN +11 SLP896

CYWG;2009-05-13 08:00;CYWG 130800Z 13012KT 6SM -SHRA BR OVC006 12/12 A2915 RMK ST8 CIG RAG CVCTV CLD EMBD SLP877

CYWG;2009-05-13 09:00;CYWG 130900Z CCA 09008KT 3SM TSRA BR OVC005 12/12 A2909 RMK ST8 CIG RAG CB EMBD LTGIC SE SLP854

CYWG;2009-05-13 09:22;CYWG 130922Z 11009KT 3SM -SHRA BR BKN006 OVC056 RMK SF6SC2 CVCTV CLD EMBD RETS RERA

CYWG;2009-05-13 09:51;CYWG 130951Z 10007KT 15SM SCT005 BKN012 OVC047 12/ RETSRA RMK SF4SC2SC2 CVCTV CLD EMBD

CYWG;2009-05-13 10:00;CYWG 131000Z 11006KT 15SM SCT005 BKN015 BKN045 12/12 A2904 RETSRA RMK SF3SC2SC2 SLP836

CYWG;2009-05-13 11:00;CYWG 131100Z 19009KT 15SM FEW006 SCT013 BKN044 12/12 A2898 RMK SF2SC2SC3 SLP818

CYWG;2009-05-13 11:15;CYWG 131115Z 18009KT 8SM BKN006 BKN013 BKN039 12/ RMK SF3SC2SC2 BR

CYWG;2009-05-13 11:26;CYWG 131126Z 22008KT 8SM OVC005 12/ RMK SF8 BR

CYWG;2009-05-13 11:41;CYWG 131141Z 31018KT 4SM -RA BR BKN004 OVC035 11/ RMK SF7SC1

CYWG;2009-05-13 12:00;CYWG 131200Z 29019KT 3SM -RA BR BKN004 OVC035 11/11 A2898 RMK SF6SC2 SLP816

CYWG;2009-05-13 13:00;CYWG 131300Z 29024KT 2 1/2SM -SHRA BR BKN004 OVC012 10/10 A2899 RMK SF6SC2 RERA SLP821

CYWG;2009-05-13 14:00;CYWG 131400Z 30029G36KT 4SM SHRA BR OVC006 10/10 A2905 RMK SF8 RERA SLP838

CYWG;2009-05-13 15:00;CYWG 131500Z 30026G33KT 6SM -SHRA BR BKN006 OVC018 10/10 A2909 RMK SF6SC2 RERA SLP853

CYWG;2009-05-13 16:00;CYWG 131600Z 30025G30KT 6SM -SHRA BR BKN007 OVC016 10/10 A2914 RMK SF6SC2 SLP871

CYWG;2009-05-13 17:00;CYWG 131700Z 30026G31KT 6SM -SHRA BR BKN007 OVC016 10/10 A2919 RMK SF6SC2 SLP886

CYWG;2009-05-13 18:00;CYWG 131800Z 31027G33KT 6SM -SHRA BR BKN008 OVC016 07/07 A2925 RMK SF6SC2 SLP912

CYWG;2009-05-13 19:00;CYWG 131900Z 31025G32KT 5SM -RA BR BKN008 OVC017 05/05 A2932 RMK SF6SC2 SLP933

CYWG;2009-05-13 20:00;CYWG 132000Z 31024G32KT 6SM -RA BR BKN008 OVC025 04/03 A2938 RMK SF6SC2 SLP952

CYWG;2009-05-13 21:00;CYWG 132100Z 32021G28KT 4SM -RA BR OVC007 04/03 A2943 RMK SF8 SLP971

CYWG;2009-05-13 22:00;CYWG 132200Z 32021KT 4SM -RA BR OVC007 02/02 A2948 RMK SF8 SLP990

CYWG;2009-05-13 23:00;CYWG 132300Z 32020G26KT 3SM -RA BR OVC007 02/01 A2953 RMK SF8 SLP004

CYWG;2009-05-13 23:33;CYWG 132333Z 32023G30KT 3SM -DZ BR OVC008 01/ RMK SF8

CYWG;2009-05-14 00:00;CYWG 140000Z 32023G29KT 6SM -DZ BR OVC010 01/00 A2958 RMK ST8 SLP025

CYWG;2009-05-14 01:00;CYWG 140100Z 32025G32KT 12SM OVC013 00/M02 A2963 RMK SC8 SLP041

CYWG;2009-05-14 02:00;CYWG 140200Z 34019G30KT 15SM OVC013 M01/M03 A2968 RMK SC8 SLP057

CYWG;2009-05-14 03:00;CYWG 140300Z 34019G32KT 15SM OVC017 M01/M04 A2973 RMK SC8 VIRGA N SLP077

CYWG;2009-05-14 04:00;CYWG 140400Z 34020G28KT 15SM OVC015 M02/M04 A2977 RMK SC8 SLP088

CYWG;2009-05-14 04:42;CYWG 140442Z 34020G26KT 15SM OVC013 M02/ RMK SC8

CYWG;2009-05-14 05:00;CYWG 140500Z 34022G27KT 15SM OVC013 M02/M04 A2979 RMK SC8 VIRGA ALQDS SLP096

CYWG;2009-05-14 06:00;CYWG 140600Z 34020G28KT 15SM BKN011 OVC019 M02/M05 A2983 RMK SC6SC2 SLP111

CYWG;2009-05-14 07:00;CYWG 140700Z 33021G28KT 15SM OVC017 M02/M05 A2985 RMK SC8 SLP119

CYWG;2009-05-14 08:00;CYWG 140800Z 35018G25KT 15SM OVC015 M02/M05 A2987 RMK SC8 SLP126

CYWG;2009-05-14 08:20;CYWG 140820Z 34022KT 9SM -SHSN OVC015 M02/ RMK SC8

CYWG;2009-05-14 08:41;CYWG 140841Z 34023KT 15SM OVC015 M02/ RMK SC8

CYWG;2009-05-14 09:00;CYWG 140900Z 34020G26KT 15SM OVC017 M02/M06 A2990 RMK SC8 SLP136

CYWG;2009-05-14 10:00;CYWG 141000Z 34017G24KT 15SM BKN019 OVC036 M03/M06 A2991 RMK SC6SC2 SLP141

CYWG;2009-05-14 11:00;CYWG 141100Z 33017KT 15SM OVC021 M03/M07 A2994 RMK SC8 SLP151

CYWG;2009-05-14 12:00;CYWG 141200Z 36012KT 15SM BKN023 M03/M07 A2996 RMK SC7 SLP158

CYWG;2009-05-14 13:00;CYWG 141300Z 34013KT 15SM BKN021 M03/M07 A2997 RMK SC7 SLP163

CYWG;2009-05-14 14:00;CYWG 141400Z 35010KT 15SM BKN021 M03/M07 A3000 RMK SC6 SLP172

CYWG;2009-05-14 15:00;CYWG 141500Z 34012KT 15SM BKN021 M02/M07 A3002 RMK SC6 SLP179

CYWG;2009-05-14 16:00;CYWG 141600Z 32009KT 15SM BKN021 M00/M05 A3002 RMK SC6 SLP179

CYWG;2009-05-14 17:00;CYWG 141700Z 33010KT 15SM BKN023 00/M05 A3003 RMK SC6 SLP181

CYWG;2009-05-14 18:00;CYWG 141800Z 29005KT 15SM BKN023 01/M05 A3004 RMK SC6 SLP184

CYWG;2009-05-14 19:00;CYWG 141900Z 00000KT 15SM BKN027 04/M04 A3004 RMK SC6 SLP186

CYWG;2009-05-14 20:00;CYWG 142000Z 08003KT 15SM BKN029 05/M02 A3003 RMK SC5 SLP182

CYWG;2009-05-14 21:00;CYWG 142100Z 08002KT 15SM SCT031 BKN250 05/M02 A3003 RMK SC4CI1 SLP181

CYWG;2009-05-14 22:00;CYWG 142200Z 17009KT 15SM BKN037 BKN250 06/M03 A3003 RMK SC5CI1 SLP179

CYWG;2009-05-14 23:00;CYWG 142300Z 17008KT 15SM SCT033 BKN090 06/M02 A3001 RMK SC3AC4 SLP175

CYWG;2009-05-15 00:00;CYWG 150000Z 16009KT 15SM FEW030 BKN096 04/M02 A3001 RMK SC2AS5 SLP175

CYWG;2009-05-15 01:00;CYWG 150100Z 15008KT 15SM FEW027 OVC088 04/M02 A3000 RMK SC1AS7 ACC EMBD VIRGA ALQDS SLP173

CYWG;2009-05-15 02:00;CYWG 150200Z 14007KT 15SM FEW030 OVC084 04/M02 A2999 RMK SC1AS8 SLP170

CYWG;2009-05-15 03:00;CYWG 150300Z 11007KT 15SM BKN090 04/M01 A3000 RMK AC7 SLP171

CYWG;2009-05-15 04:00;CYWG 150400Z 09007KT 15SM SCT096 02/M02 A2999 RMK AC3 SLP168

CYWG;2009-05-15 05:00;CYWG 150500Z 09010KT 15SM BKN096 02/M02 A2996 RMK AC4 SLP159

CYWG;2009-05-15 06:00;CYWG 150600Z 10012KT 15SM BKN100 02/M02 A2994 RMK AC4 SLP151

CYWG;2009-05-15 07:00;CYWG 150700Z 11010KT 15SM SCT100 02/M01 A2993 RMK AC3 SLP146

CYWG;2009-05-15 08:00;CYWG 150800Z 11014G20KT 15SM BKN100 02/M01 A2990 RMK AC6 SLP138

CYWG;2009-05-15 09:00;CYWG 150900Z 10013KT 15SM BKN045 OVC100 02/M01 A2987 RMK SC6AC2 SLP126

CYWG;2009-05-15 09:10;CYWG 150910Z 11015KT 15SM -SHRA BKN042 OVC074 02/ RMK SC6AC2

CYWG;2009-05-15 10:00;CYWG 151000Z 09014G19KT 10SM -SHRA OVC036 02/00 A2984 RMK SC8 CVCTV CLD EMBD SLP116

CYWG;2009-05-15 11:00;CYWG 151100Z 09012G18KT 10SM -SHRA FEW006 OVC036 02/01 A2980 RMK SF1SC7 SLP102

CYWG;2009-05-15 12:00;CYWG 151200Z 08011KT 15SM FEW006 OVC049 02/01 A2980 RMK SF1SC7 SLP100

CYWG;2009-05-15 13:00;CYWG 151300Z 07011KT 15SM BKN010 OVC053 02/01 A2981 RMK SF5SC3 SLP106

CYWG;2009-05-15 13:05;CYWG 151305Z 06012KT 12SM -RA BKN010 OVC048 02/ RMK SF6SC2

CYWG;2009-05-15 13:19;CYWG 151319Z 08012KT 8SM -RA BKN008 OVC048 02/ RMK SF6SC2

CYWG;2009-05-15 14:00;CYWG 151400Z 06010KT 8SM -RA BKN006 OVC020 02/02 A2980 RMK SF6SC2 SLP100

CYWG;2009-05-15 15:00;CYWG 151500Z 06014KT 12SM -RA OVC008 03/02 A2979 RMK SF8 SLP097

CYWG;2009-05-15 15:16;CYWG 151516Z 05013KT 12SM OVC007 03/ RMK SF8

CYWG;2009-05-15 16:00;CYWG 151600Z 03013KT 15SM OVC007 03/02 A2980 RMK SF8 SLP103

CYWG;2009-05-15 17:00;CYWG 151700Z 02019KT 15SM OVC005 02/02 A2984 RMK SF8 SLP114

CYWG;2009-05-15 18:00;CYWG 151800Z 02022KT 10SM OVC006 02/01 A2987 RMK SF8 SLP125

CYWG;2009-05-15 18:45;CYWG 151845Z 01022G27KT 3SM -DZ OVC006 02/ RMK ST8

CYWG;2009-05-15 19:00;CYWG 151900Z 01023G29KT 4SM -DZ OVC006 01/01 A2990 RMK ST8 SLP137

CYWG;2009-05-15 19:23;CYWG 151923Z 01021G27KT 6SM -DZ OVC008 02/ RMK ST8

CYWG;2009-05-15 20:00;CYWG 152000Z 01022G27KT 15SM -DZ OVC010 02/01 A2993 RMK SC8 CIG RGD SLP146

CYWG;2009-05-15 20:33;CYWG 152033Z 01020G27KT 10SM -SN OVC012 02/ RMK SC8

CYWG;2009-05-15 20:38;CYWG 152038Z CCA 01020G27KT 10SM -DZSN OVC012 02/ RMK SC8

CYWG;2009-05-15 20:44;CYWG 152044Z 01018G25KT 10SM -DZSN BKN008 OVC029 02/ RMK ST6SC2

CYWG;2009-05-15 21:00;CYWG 152100Z 36023G28KT 10SM -DZSN OVC012 03/01 A2998 RMK SC8 SLP163

CYWG;2009-05-15 21:49;CYWG 152149Z 36019G26KT 15SM OVC018 03/ RMK SC8

CYWG;2009-05-15 22:00;CYWG 152200Z 01021G28KT 15SM OVC018 03/00 A3000 RMK SC8 SLP171

CYWG;2009-05-15 22:21;CYWG 152221Z 01019G25KT 10SM -DZ BKN012 OVC027 02/ RMK SC6SC2

CYWG;2009-05-15 22:28;CYWG 152228Z 02021KT 3SM -DZ OVC010 02/ RMK ST8

CYWG;2009-05-15 23:00;CYWG 152300Z 01019KT 15SM -DZ OVC012 02/01 A3003 RMK ST8 CIG RGD SLP179

CYWG;2009-05-15 23:27;CYWG 152327Z 01018G27KT 12SM -RA OVC012 03/ RMK ST8

CYWG;2009-05-16 00:00;CYWG 160000Z 36023G31KT 15SM -RA BKN015 BKN092 04/00 A3005 RMK SC6AC2 SLP186

CYWG;2009-05-16 01:00;CYWG 160100Z 36017G25KT 15SM BKN022 02/M01 A3008 RMK SC6 SLP196

CYWG;2009-05-16 02:00;CYWG 160200Z 35017G22KT 15SM BKN026 02/M01 A3011 RMK SC6 SLP207

CYWG;2009-05-16 03:00;CYWG 160300Z 36015KT 15SM BKN033 BKN093 01/M01 A3013 RMK SC6AC1 SLP215

CYWG;2009-05-16 04:00;CYWG 160400Z 36014KT 15SM FEW012 BKN040 BKN080 01/M01 A3015 RMK SF2SC3AC1 SLP221

CYWG;2009-05-16 05:00;CYWG 160500Z 36013G20KT 15SM FEW025 FEW051 01/M02 A3016 RMK SC1SC1 SLP225

CYWG;2009-05-16 06:00;CYWG 160600Z 34010KT 15SM SKC M00/M03 A3017 RMK SLP229

CYWG;2009-05-16 07:00;CYWG 160700Z 32008KT 15SM SKC M02/M04 A3018 RMK SLP231

CYWG;2009-05-16 08:00;CYWG 160800Z 31008KT 15SM SKC M02/M04 A3018 RMK SLP231

CYWG;2009-05-16 09:00;CYWG 160900Z 33010KT 15SM SKC M02/M04 A3018 RMK SLP233

CYWG;2009-05-16 10:00;CYWG 161000Z 31011KT 15SM FEW094 M01/M02 A3019 RMK AC1 SLP236

CYWG;2009-05-16 11:00;CYWG 161100Z 31008KT 15SM FEW094 M02/M03 A3021 RMK AC1 SLP241

CYWG;2009-05-16 12:00;CYWG 161200Z 32009KT 15SM SKC 00/M02 A3022 RMK SLP247

CYWG;2009-05-16 13:00;CYWG 161300Z 32012KT 15SM SKC 02/M01 A3023 RMK SLP249

CYWG;2009-05-16 14:00;CYWG 161400Z 32010G15KT 15SM SKC 04/M01 A3024 RMK SLP251

CYWG;2009-05-16 15:00;CYWG 161500Z 31012KT 15SM SKC 06/M02 A3025 RMK SLP253

CYWG;2009-05-16 16:00;CYWG 161600Z 30011G17KT 15SM SKC 07/M04 A3025 RMK SLP254

CYWG;2009-05-16 17:00;CYWG 161700Z 31011G16KT 15SM FEW080 08/M04 A3024 RMK AC1 SLP250

CYWG;2009-05-16 18:00;CYWG 161800Z 32012G19KT 15SM FEW048 FEW080 10/M03 A3022 RMK CU1AC1 SLP245

CYWG;2009-05-16 19:00;CYWG 161900Z 30018KT 15SM FEW048 FEW080 12/M00 A3021 RMK CU1AC1 SLP241

CYWG;2009-05-16 20:00;CYWG 162000Z 31015G22KT 15SM FEW050 SCT080 12/M02 A3021 RMK CU1AC2 SLP241

CYWG;2009-05-16 21:00;CYWG 162100Z 31012G20KT 15SM FEW050 SCT080 13/M01 A3020 RMK CU1AC2 SLP235

CYWG;2009-05-16 22:00;CYWG 162200Z 31010G15KT 15SM FEW055 FEW090 13/M01 A3019 RMK CU1AC1 SLP231

CYWG;2009-05-16 23:00;CYWG 162300Z 31011G17KT 15SM FEW060 FEW220 14/M00 A3017 RMK CU1CI1 SLP227

CYWG;2009-05-17 00:00;CYWG 170000Z 31011KT 15SM FEW060 BKN230 13/01 A3017 RMK CU1CI2 SLP224

CYWG;2009-05-17 01:00;CYWG 170100Z 35006KT 15SM FEW050 BKN230 11/03 A3016 RMK SC1CI2 SLP223

CYWG;2009-05-17 02:00;CYWG 170200Z 35004KT 15SM FEW050 BKN230 09/03 A3016 RMK SC1CI2 SLP221

CYWG;2009-05-17 03:00;CYWG 170300Z 00000KT 15SM FEW250 07/01 A3016 RMK CI0 SLP224

CYWG;2009-05-17 04:00;CYWG 170400Z 15003KT 15SM SKC 05/01 A3016 RMK SLP224

CYWG;2009-05-17 05:00;CYWG 170500Z 19005KT 15SM FEW090 06/00 A3017 RMK AC1 SLP225

CYWG;2009-05-17 06:00;CYWG 170600Z 23006KT 15SM FEW090 04/00 A3018 RMK AC1 SLP227

CYWG;2009-05-17 07:00;CYWG 170700Z 00000KT 15SM SKC 03/M00 A3018 RMK SLP227

CYWG;2009-05-17 07:48;CYWG 170748Z 04003KT 15SM SKC 02/

CYWG;2009-05-17 08:00;CYWG 170800Z 06003KT 15SM SKC 04/M00 A3018 RMK SLP227

CYWG;2009-05-17 09:00;CYWG 170900Z 13005KT 15SM SKC 03/M00 A3017 RMK SLP226

CYWG;2009-05-17 10:00;CYWG 171000Z 16006KT 15SM FEW230 03/M00 A3017 RMK CI1 SLP226

CYWG;2009-05-17 10:20;CYWG 171020Z 16006KT 15SM FEW230 02/ RMK CI1

CYWG;2009-05-17 11:00;CYWG 171100Z 18006KT 15SM FEW230 02/M01 A3018 RMK CI1 SLP227

CYWG;2009-05-17 12:00;CYWG 171200Z 19005KT 15SM FEW120 04/02 A3017 RMK AC1 SLP225

CYWG;2009-05-17 13:00;CYWG 171300Z 18009KT 15SM FEW120 FEW230 08/02 A3017 RMK AC1CI0 SLP223

CYWG;2009-05-17 14:00;CYWG 171400Z 20009KT 15SM FEW120 FEW230 10/01 A3016 RMK AC1CI0 SLP219

CYWG;2009-05-17 15:00;CYWG 171500Z 19013KT 15SM FEW120 BKN230 BKN270 13/03 A3013 RMK AC1CI0CI2 SLP210

CYWG;2009-05-17 16:00;CYWG 171600Z 21015G20KT 15SM FEW120 BKN230 BKN270 16/05 A3011 RMK AC1CI1CI2 SLP202

CYWG;2009-05-17 17:00;CYWG 171700Z 23022KT 15SM BKN083 BKN230 17/01 A3009 RMK AC2CI2 SLP195

CYWG;2009-05-17 18:00;CYWG 171800Z 22021G30KT 15SM SCT075 BKN230 18/M01 A3006 RMK AC2CI2 SLP187

CYWG;2009-05-17 19:00;CYWG 171900Z 20023G29KT 15SM FEW067 BKN090 19/00 A3005 RMK AC2AC2 SLP181

CYWG;2009-05-17 20:00;CYWG 172000Z 20023G28KT 15SM SCT070 OVC120 18/00 A3002 RMK AC3AC4 SLP173

CYWG;2009-05-17 21:00;CYWG 172100Z 19021G26KT 25SM SCT067 BKN095 18/01 A2999 RMK AC3AC3 SLP161

CYWG;2009-05-17 22:00;CYWG 172200Z 19020G26KT 15SM SCT067 BKN093 18/02 A2996 RMK AC3AC3 SLP152

CYWG;2009-05-17 23:00;CYWG 172300Z 19022G28KT 15SM BKN083 19/02 A2993 RMK AC6 SLP140

CYWG;2009-05-18 00:00;CYWG 180000Z 21018KT 15SM BKN090 19/02 A2991 RMK AC6 SLP133

CYWG;2009-05-18 01:00;CYWG 180100Z 18014KT 15SM BKN094 17/05 A2988 RMK AC6 SLP124

CYWG;2009-05-18 02:00;CYWG 180200Z 19018G24KT 15SM BKN089 16/04 A2985 RMK AC7 SLP115

CYWG;2009-05-18 03:00;CYWG 180300Z 19020KT 15SM BKN044 BKN088 15/04 A2983 RMK SC6AC1 SLP105

CYWG;2009-05-18 04:00;CYWG 180400Z 20019G25KT 15SM FEW068 SCT094 15/04 A2980 RMK AC2AC2 SLP096

CYWG;2009-05-18 05:00;CYWG 180500Z 20021G26KT 15SM SCT096 14/05 A2979 RMK AC4 SLP091

CYWG;2009-05-18 06:00;CYWG 180600Z 20018KT 15SM BKN098 14/06 A2977 RMK AC5 SLP082

CYWG;2009-05-18 07:00;CYWG 180700Z 20018G24KT 15SM BKN100 13/06 A2974 RMK AC5 SLP074

CYWG;2009-05-18 08:00;CYWG 180800Z 20017KT 15SM SCT098 12/07 A2972 RMK AC3 SLP068

CYWG;2009-05-18 09:00;CYWG 180900Z 20017G24KT 15SM SCT100 12/07 A2972 RMK AC2 SLP066

CYWG;2009-05-18 10:00;CYWG 181000Z 21015KT 15SM FEW100 11/07 A2973 RMK AC2 SLP070

CYWG;2009-05-18 11:00;CYWG 181100Z 22012KT 15SM FEW100 SCT250 10/07 A2974 RMK AC2CI1 SLP073

CYWG;2009-05-18 12:00;CYWG 181200Z 27006KT 15SM FEW100 BKN250 11/07 A2976 RMK AC2CI1 SLP081

CYWG;2009-05-18 13:00;CYWG 181300Z 36012KT 15SM FEW100 BKN250 13/08 A2980 RMK AC2CI2 SLP096

CYWG;2009-05-18 14:00;CYWG 181400Z 02025G30KT 15SM FEW016 SCT100 BKN250 09/05 A2990 RMK SC2AC2CI2 PRESRR SLP127

CYWG;2009-05-18 14:07;CYWG 181407Z 02023G32KT 15SM BKN014 BKN100 BKN250 07/ RMK SC5AC1CI1

CYWG;2009-05-18 15:00;CYWG 181500Z 01021G29KT 15SM BKN014 OVC025 06/02 A2997 RMK SC6SC2 PRESRR SLP154

CYWG;2009-05-18 16:00;CYWG 181600Z 36020G29KT 15SM BKN020 BKN075 06/02 A3001 RMK SC6AC2 SLP167

CYWG;2009-05-18 17:00;CYWG 181700Z 03026KT 15SM SCT023 BKN096 BKN250 08/01 A3003 RMK SC3AC2CI0 SLP176

CYWG;2009-05-18 18:00;CYWG 181800Z 01019G29KT 15SM FEW028 SCT090 BKN250 08/00 A3006 RMK SC2AC2CI1 SLP185

CYWG;2009-05-18 19:00;CYWG 181900Z 01019G25KT 15SM FEW031 SCT090 BKN250 07/M01 A3009 RMK SC2AC2CI1 SLP196

CYWG;2009-05-18 20:00;CYWG 182000Z 02022G28KT 15SM SCT079 BKN250 07/M04 A3012 RMK AC2CI2 SLP204

CYWG;2009-05-18 21:00;CYWG 182100Z 01017G26KT 15SM BKN096 BKN250 07/M04 A3013 RMK AC5CI1 SLP210

CYWG;2009-05-18 22:00;CYWG 182200Z 02022KT 15SM BKN100 BKN250 06/M05 A3014 RMK AC6CI1 SLP215

CYWG;2009-05-18 23:00;CYWG 182300Z 02019G24KT 15SM BKN081 OVC250 05/M06 A3017 RMK AC7CI0 SLP223

CYWG;2009-05-19 00:00;CYWG 190000Z 02017G22KT 15SM BKN058 OVC098 05/M05 A3019 RMK SC6AC2 ACC EMBD SLP230

CYWG;2009-05-19 01:00;CYWG 190100Z 02016KT 15SM BKN064 OVC086 04/M06 A3020 RMK SC6AC2 ACC EMBD SLP235

CYWG;2009-05-19 02:00;CYWG 190200Z 02013KT 15SM SCT071 BKN094 OVC120 04/M06 A3021 RMK AC3AC3AC2 SLP237

CYWG;2009-05-19 03:00;CYWG 190300Z 02010G16KT 15SM BKN110 OVC260 03/M06 A3022 RMK AC6CI1 SLP242

CYWG;2009-05-19 04:00;CYWG 190400Z 03012KT 15SM OVC099 03/M06 A3024 RMK AC8 SLP250

CYWG;2009-05-19 04:17;CYWG 190417Z 02014KT 15SM OVC099 02/ RMK AC8

CYWG;2009-05-19 05:00;CYWG 190500Z 02012KT 15SM OVC100 02/M05 A3024 RMK AC8 SLP250

CYWG;2009-05-19 06:00;CYWG 190600Z 04012KT 15SM BKN099 OVC260 02/M05 A3024 RMK AC7CI1 SLP250

CYWG;2009-05-19 07:00;CYWG 190700Z 04013KT 15SM BKN099 OVC260 01/M07 A3025 RMK AC7CI1 SLP254

CYWG;2009-05-19 08:00;CYWG 190800Z 03010KT 15SM BKN095 OVC260 01/M06 A3025 RMK AC7CI1 SLP255

CYWG;2009-05-19 09:00;CYWG 190900Z 03009KT 15SM BKN093 OVC280 00/M06 A3026 RMK AC6CI1 SLP258

CYWG;2009-05-19 10:00;CYWG 191000Z 04008KT 15SM FEW091 SCT120 M00/M05 A3025 RMK AC2AC0 SLP254

CYWG;2009-05-19 11:00;CYWG 191100Z 05006KT 15SM BKN093 BKN120 00/M03 A3027 RMK AC6AC1 SLP261

CYWG;2009-05-19 12:00;CYWG 191200Z 09007KT 15SM BKN091 BKN120 01/M04 A3025 RMK AC5AC1 SLP256

CYWG;2009-05-19 13:00;CYWG 191300Z 09009KT 15SM FEW089 SCT250 03/M05 A3026 RMK AC2CI1 SLP259

CYWG;2009-05-19 14:00;CYWG 191400Z 10009KT 15SM FEW095 SCT250 05/M04 A3025 RMK AC2CI1 SLP253

CYWG;2009-05-19 15:00;CYWG 191500Z 10009KT 15SM FEW095 SCT250 07/M06 A3022 RMK AC2CI0 SLP243

CYWG;2009-05-19 16:00;CYWG 191600Z 09013G18KT 15SM FEW095 SCT250 07/M05 A3016 RMK AC2CI1 PRESFR SLP224

CYWG;2009-05-19 17:00;CYWG 191700Z 10008KT 15SM BKN090 BKN250 08/M05 A3015 RMK AC6CI1 SLP220

CYWG;2009-05-19 18:00;CYWG 191800Z 10012KT 15SM BKN100 BKN150 BKN250 08/M07 A3010 RMK AC6AC1CI1 SLP204

CYWG;2009-05-19 18:38;CYWG 191838Z 09012KT 15SM -SHRA FEW013 BKN074 OVC250 07/ RMK SC1AC5CI2

CYWG;2009-05-19 19:00;CYWG 191900Z 09011KT 15SM -SHRA FEW019 BKN071 OVC250 07/M02 A3005 RMK SC1AC6CI1 SLP185

CYWG;2009-05-19 20:00;CYWG 192000Z 12013KT 15SM -SHRA FEW015 SCT050 BKN075 07/M02 A3004 RMK SC1SC3AC3 SLP183

CYWG;2009-05-19 20:19;CYWG 192019Z 12014G19KT 15SM FEW026 SCT074 BKN210 08/ RMK SC1AC2CI2 -SHRA N TO SE MOVG E

CYWG;2009-05-19 21:00;CYWG 192100Z 12016G22KT 15SM FEW026 SCT074 BKN210 09/M02 A3001 RMK SC1AC3CI2 SLP171

CYWG;2009-05-19 22:00;CYWG 192200Z 10015G24KT 15SM FEW050 SCT075 BKN210 10/M03 A2998 RMK CU1AC2CI2 SLP162

CYWG;2009-05-19 23:00;CYWG 192300Z 10016G22KT 15SM FEW075 FEW100 BKN210 10/M03 A2996 RMK AC1AC2CI2 SLP154

CYWG;2009-05-20 00:00;CYWG 200000Z 10016KT 15SM FEW080 FEW100 BKN210 10/M03 A2993 RMK AC1AC1CI2 SLP144

CYWG;2009-05-20 01:00;CYWG 200100Z 10019G26KT 15SM FEW095 BKN210 09/M03 A2984 RMK AC2CI2 PRESFR SLP116

CYWG;2009-05-20 02:00;CYWG 200200Z 12019KT 15SM SCT095 BKN210 09/M02 A2980 RMK AC3CI2 SLP102

CYWG;2009-05-20 03:00;CYWG 200300Z 10010G17KT 15SM FEW088 07/M02 A2982 RMK AC2 SLP105

CYWG;2009-05-20 04:00;CYWG 200400Z 10013KT 15SM FEW210 07/M01 A2978 RMK CI1 SLP092

CYWG;2009-05-20 05:00;CYWG 200500Z 10013KT 15SM SKC 06/M01 A2972 RMK SLP074

CYWG;2009-05-20 06:00;CYWG 200600Z 03007KT 15SM SCT230 05/M00 A2977 RMK CI1 SLP088

CYWG;2009-05-20 07:00;CYWG 200700Z 08008KT 15SM SCT230 06/00 A2970 RMK CI2 SLP067

CYWG;2009-05-20 08:00;CYWG 200800Z 10012KT 15SM SCT093 BKN230 06/01 A2967 RMK AC3CI2 SLP058

CYWG;2009-05-20 09:00;CYWG 200900Z 13011KT 15SM FEW100 BKN230 07/01 A2969 RMK AC2CI2 SLP061

CYWG;2009-05-20 10:00;CYWG 201000Z 13007KT 15SM FEW100 OVC230 06/01 A2967 RMK AC2CI1 SLP056

CYWG;2009-05-20 11:00;CYWG 201100Z 08010KT 15SM FEW050 SCT100 OVC230 06/01 A2959 RMK SC2AC1CI1 PRESFR SLP029

CYWG;2009-05-20 12:00;CYWG 201200Z 00000KT 15SM FEW050 SCT100 OVC230 06/02 A2967 RMK SC1AC2CI2 PRESRR SLP055

CYWG;2009-05-20 13:00;CYWG 201300Z 20004KT 15SM FEW050 FEW100 OVC250 08/02 A2971 RMK SC1AC1CI2 CB TOP W SLP069

CYWG;2009-05-20 14:00;CYWG 201400Z 12003KT 15SM FEW100 BKN250 10/03 A2964 RMK AC2CI1 PRESFR SLP046

CYWG;2009-05-20 15:00;CYWG 201500Z 35006KT 15SM FEW086 SCT120 BKN250 11/03 A2966 RMK AC1AC2CI1 SLP050

CYWG;2009-05-20 16:00;CYWG 201600Z 33011KT 15SM -SHRA FEW065 BKN086 BKN250 11/04 A2962 RMK SC2AC2CI1 CVCTV CLD EMBD SLP036

CYWG;2009-05-20 17:00;CYWG 201700Z 32011KT 9SM -SHRA BKN018 OVC081 10/07 A2965 RMK SC5AC3 CVCTV CLD EMBD SLP047

CYWG;2009-05-20 18:00;CYWG 201800Z 35006KT 12SM -SHRA FEW018 OVC083 10/08 A2965 RMK SC2AC6 CVCTV CLD EMBD SLP049

CYWG;2009-05-20 18:29;CYWG 201829Z 33004KT 15SM FEW018 BKN071 OVC093 10/ RMK SC1AC5AC2

CYWG;2009-05-20 19:00;CYWG 201900Z 12004KT 15SM -SHRA FEW013 BKN069 OVC092 10/07 A2966 RMK SC2AC5AC2 SLP052

CYWG;2009-05-20 20:00;CYWG 202000Z 28003KT 15SM FEW013 OVC078 10/06 A2972 RMK SC1AC7 SLP070

CYWG;2009-05-20 21:00;CYWG 202100Z 30004KT 15SM BKN093 BKN250 12/07 A2973 RMK AC5CI1 SLP073

CYWG;2009-05-20 22:00;CYWG 202200Z 34008KT 15SM FEW053 BKN093 BKN250 13/08 A2975 RMK CU2AC2CI1 SLP080

CYWG;2009-05-20 23:00;CYWG 202300Z 32008KT 15SM FEW056 BKN100 BKN250 13/07 A2977 RMK CU1AC5CI1 SLP088

CYWG;2009-05-21 00:00;CYWG 210000Z 32008KT 15SM FEW055 FEW086 SCT250 13/07 A2978 RMK CU1AC1CI1 SLP092

CYWG;2009-05-21 01:00;CYWG 210100Z 32007KT 15SM FEW098 FEW250 13/07 A2980 RMK AC2CI1 SLP099

CYWG;2009-05-21 02:00;CYWG 210200Z 34006KT 15SM FEW100 SCT250 09/06 A2982 RMK AC1CI1 SLP105

CYWG;2009-05-21 03:00;CYWG 210300Z 30002KT 15SM FEW090 BKN250 08/06 A2984 RMK AC2CI2 SLP113

CYWG;2009-05-21 04:00;CYWG 210400Z 34009KT 15SM BKN044 BKN090 09/06 A2987 RMK SC5AC2 SLP123

CYWG;2009-05-21 05:00;CYWG 210500Z CCA 33012KT 15SM SCT046 BKN070 08/04 A2992 RMK SC3AC3 OB +19 SLP139

CYWG;2009-05-21 06:00;CYWG 210600Z 33009KT 15SM FEW080 07/03 A2994 RMK AC2 SLP146

CYWG;2009-05-21 07:00;CYWG 210700Z 32005KT 15SM SKC 02/01 A2996 RMK SLP154

CYWG;2009-05-21 08:00;CYWG 210800Z 28006KT 15SM SKC 03/01 A2999 RMK SLP163

CYWG;2009-05-21 09:00;CYWG 210900Z 28008KT 15SM SKC 02/01 A3001 RMK SLP172

CYWG;2009-05-21 10:00;CYWG 211000Z 27007KT 15SM FEW090 02/00 A3003 RMK AC1 SLP177

CYWG;2009-05-21 11:00;CYWG 211100Z 27008KT 15SM FEW090 02/M00 A3005 RMK AC1 SLP184

CYWG;2009-05-21 12:00;CYWG 211200Z 27009KT 15SM FEW098 03/M00 A3009 RMK AC1 SLP196

CYWG;2009-05-21 13:00;CYWG 211300Z 29012KT 15SM SKC 06/01 A3010 RMK SLP202

CYWG;2009-05-21 14:00;CYWG 211400Z 31015G20KT 15SM SKC 08/00 A3012 RMK SLP209

CYWG;2009-05-21 15:00;CYWG 211500Z 32018KT 15SM FEW040 09/M00 A3014 RMK CF1 SLP214

CYWG;2009-05-21 16:00;CYWG 211600Z 31017KT 15SM FEW044 10/M01 A3016 RMK CF1 SLP221

CYWG;2009-05-21 17:00;CYWG 211700Z 30016G26KT 15SM FEW048 12/00 A3018 RMK CF1 SLP226

CYWG;2009-05-21 18:00;CYWG 211800Z 31017G22KT 15SM FEW054 13/M00 A3019 RMK CF1 SLP231

CYWG;2009-05-21 19:00;CYWG 211900Z 32017KT 15SM SKC 13/M02 A3019 RMK SLP230

CYWG;2009-05-21 20:00;CYWG 212000Z 31012G22KT 15SM SKC 15/M02 A3019 RMK SLP232

CYWG;2009-05-21 21:00;CYWG 212100Z 34012G18KT 15SM SKC 14/M02 A3020 RMK SLP234

CYWG;2009-05-21 22:00;CYWG 212200Z 32008KT 15SM SKC 15/M02 A3019 RMK SLP232

CYWG;2009-05-21 23:00;CYWG 212300Z 31006KT 15SM FEW060 14/M02 A3019 RMK CU1 SLP231

CYWG;2009-05-22 00:00;CYWG 220000Z 20003KT 15SM FEW065 15/M02 A3019 RMK CU2 SLP230

CYWG;2009-05-22 01:00;CYWG 220100Z 21005KT 15SM FEW084 15/M01 A3019 RMK AC2 SLP229

CYWG;2009-05-22 02:00;CYWG 220200Z 16009KT 15SM FEW085 11/M00 A3018 RMK AC1 SLP227

CYWG;2009-05-22 03:00;CYWG 220300Z 16009KT 15SM FEW250 09/M00 A3018 RMK CI1 SLP228

CYWG;2009-05-22 04:00;CYWG 220400Z 17010KT 15SM FEW250 09/M01 A3018 RMK CI1 SLP227

CYWG;2009-05-22 05:00;CYWG 220500Z 17010KT 15SM BKN120 10/M01 A3017 RMK AC5 SLP223

CYWG;2009-05-22 06:00;CYWG 220600Z 18011KT 15SM BKN120 11/M01 A3015 RMK AC6 SLP216

CYWG;2009-05-22 07:00;CYWG 220700Z 19008KT 15SM BKN055 OVC092 11/M02 A3017 RMK SC5AC3 SLP221

CYWG;2009-05-22 08:00;CYWG 220800Z 18010G17KT 15SM BKN056 10/M01 A3014 RMK SC6 SLP212

CYWG;2009-05-22 09:00;CYWG 220900Z 18010KT 15SM BKN095 09/M01 A3012 RMK AC6 SLP207

CYWG;2009-05-22 09:50;CYWG 220950Z 22003KT 15SM -SHRA BKN067 RMK AC6

CYWG;2009-05-22 10:00;CYWG 221000Z 18009KT 15SM -SHRA BKN063 BKN095 09/M01 A3013 RMK SC5AC2 SLP208

CYWG;2009-05-22 11:00;CYWG 221100Z 19012KT 15SM -SHRA BKN063 OVC095 09/M00 A3012 RMK SC6AC2 SLP206

CYWG;2009-05-22 12:00;CYWG 221200Z 20008KT 15SM -SHRA BKN021 OVC095 07/04 A3012 RMK SC7AC1 SLP207

CYWG;2009-05-22 13:00;CYWG 221300Z 20005KT 15SM BKN045 OVC089 09/07 A3012 RMK SC6AC2 SLP205

CYWG;2009-05-22 14:00;CYWG 221400Z 21014KT 15SM BKN044 BKN078 BKN250 12/07 A3009 RMK SC5AC1CI1 SLP195

CYWG;2009-05-22 15:00;CYWG 221500Z 19019KT 15SM FEW038 SCT072 BKN250 12/07 A3007 RMK SC2AC2CI0 SLP189

CYWG;2009-05-22 16:00;CYWG 221600Z 21018KT 15SM FEW047 FEW100 14/09 A3006 RMK SC2AC1 SLP185

CYWG;2009-05-22 17:00;CYWG 221700Z 23016G24KT 15SM SCT032 BKN250 16/07 A3004 RMK CU4CI1 SLP179

CYWG;2009-05-22 18:00;CYWG 221800Z 21013KT 15SM FEW032CB SCT090 BKN250 18/09 A3001 RMK CB2AC2CI2 SLP165

CYWG;2009-05-22 19:00;CYWG 221900Z 22014G22KT 15SM TS BKN032CB BKN080 BKN250 17/10 A2999 RMK CB5AC2CI1 LTNG NW CB NW SLP159

CYWG;2009-05-22 19:10;CYWG 221910Z 30025G34KT 10SM -TSRA FEW014 BKN036CB BKN080 BKN250 13/ RMK CF2CB4AC2CI1 CB NW-NE LTNG N

CYWG;2009-05-22 19:31;CYWG 221931Z 28008G16KT 15SM FEW030TCU FEW036CB SCT250 RMK TCU1CB2CI1 RETS CB NE-SE MOVG E

CYWG;2009-05-22 20:00;CYWG 222000Z 28008KT 15SM FEW051CB SCT250 17/07 A2998 RMK CB2CI1 RETS CB TOPS ALQDS SLP157

CYWG;2009-05-22 20:15;CYWG 222015Z 29011KT 15SM -TSRA BKN063CB BKN097 BKN250 16/ RMK CB5ACC1CI1 LTNG W CB OVRHD

CYWG;2009-05-22 20:36;CYWG 222036Z 32016G22KT 15SM FEW017 FEW063CB SCT250 15/ RMK CU1CB2CI2 RETS CB E MOVG E

CYWG;2009-05-22 21:00;CYWG 222100Z 34020G27KT 15SM FEW063CB SCT094 SCT250 16/10 A3002 RMK CB2AC2CI1 RETS CB E MOVG E SLP171

CYWG;2009-05-22 22:00;CYWG 222200Z 36017G22KT 15SM FEW030 SCT041TCU SCT250 14/M03 A3007 RMK CU2TCU2CI1 TCU TOPS SE SLP187

CYWG;2009-05-22 23:00;CYWG 222300Z 35019G24KT 15SM BKN030 13/M07 A3010 RMK CF5 SLP197

CYWG;2009-05-23 00:00;CYWG 230000Z 34020G25KT 15SM FEW025 09/04 A3014 RMK CF2 SLP214

CYWG;2009-05-23 01:00;CYWG 230100Z 01015G20KT 15SM BKN025 08/03 A3017 RMK SC7 SLP225

CYWG;2009-05-23 02:00;CYWG 230200Z 35014KT 15SM BKN031 07/02 A3019 RMK SC5 SLP229

CYWG;2009-05-23 03:00;CYWG 230300Z 35009KT 15SM FEW037 05/01 A3020 RMK CU1 SLP236

CYWG;2009-05-23 04:00;CYWG 230400Z 34005KT 15SM SKC 01/M01 A3022 RMK SLP240

CYWG;2009-05-23 05:00;CYWG 230500Z 31003KT 15SM SKC 01/M00 A3022 RMK SLP242

CYWG;2009-05-23 06:00;CYWG 230600Z 30006KT 15SM SKC M00/M02 A3023 RMK SLP246

CYWG;2009-05-23 07:00;CYWG 230700Z 30006KT 15SM SKC M01/M02 A3024 RMK SLP248

CYWG;2009-05-23 08:00;CYWG 230800Z 30006KT 15SM SKC M02/M02 A3024 RMK SLP249

CYWG;2009-05-23 09:00;CYWG 230900Z 28007KT 15SM SKC M01/M01 A3024 RMK SLP248

CYWG;2009-05-23 10:00;CYWG 231000Z 28007KT 15SM SKC M01/M02 A3024 RMK SLP249

CYWG;2009-05-23 11:00;CYWG 231100Z 28007KT 15SM SKC M02/M02 A3025 RMK FROIN SLP251

CYWG;2009-05-23 12:00;CYWG 231200Z 28007KT 15SM SKC 02/01 A3025 RMK SLP255

CYWG;2009-05-23 13:00;CYWG 231300Z 28005KT 15SM SKC 06/M01 A3026 RMK SLP256

CYWG;2009-05-23 14:00;CYWG 231400Z 29004KT 15SM SKC 08/M01 A3026 RMK SLP257

CYWG;2009-05-23 15:00;CYWG 231500Z 23005KT 15SM SKC 10/M02 A3025 RMK SLP254

CYWG;2009-05-23 16:00;CYWG 231600Z 27009KT 15SM SKC 11/M02 A3024 RMK SLP250

CYWG;2009-05-23 17:00;CYWG 231700Z 26014KT 15SM FEW040 13/M03 A3023 RMK CF1 SLP247

CYWG;2009-05-23 18:00;CYWG 231800Z 00000KT 15SM FEW040 13/M04 A3022 RMK CF1 SLP241

CYWG;2009-05-23 19:00;CYWG 231900Z 25008G18KT 15SM FEW060 14/M02 A3020 RMK CF1 SLP236

CYWG;2009-05-23 20:00;CYWG 232000Z 21005KT 15SM FEW070 15/M03 A3019 RMK CF1 SLP231

CYWG;2009-05-23 21:00;CYWG 232100Z 31009KT 15SM FEW250 16/M03 A3017 RMK CI1 SLP224

CYWG;2009-05-23 22:00;CYWG 232200Z 29006G15KT 15SM SKC 16/M02 A3015 RMK SLP219

CYWG;2009-05-23 23:00;CYWG 232300Z 35009G15KT 15SM SKC 16/M01 A3015 RMK SLP218

CYWG;2009-05-24 00:00;CYWG 240000Z 36008KT 15SM SKC 16/M01 A3014 RMK SLP215

CYWG;2009-05-24 01:00;CYWG 240100Z 03004KT 15SM SKC 15/M00 A3014 RMK SLP214

CYWG;2009-05-24 02:00;CYWG 240200Z 11004KT 15SM SKC 12/00 A3014 RMK SLP213

CYWG;2009-05-24 03:00;CYWG 240300Z 11003KT 15SM SKC 10/M01 A3014 RMK SLP214

CYWG;2009-05-24 04:00;CYWG 240400Z 18005KT 15SM SKC 10/M01 A3014 RMK SLP214

CYWG;2009-05-24 05:00;CYWG 240500Z 19006KT 15SM SKC 09/M01 A3015 RMK SLP215

CYWG;2009-05-24 06:00;CYWG 240600Z 18008KT 15SM SKC 06/M00 A3015 RMK SLP217

CYWG;2009-05-24 07:00;CYWG 240700Z 19009KT 15SM SKC 08/M01 A3015 RMK SLP218

CYWG;2009-05-24 08:00;CYWG 240800Z 21009KT 15SM SKC 08/M01 A3015 RMK SLP216

CYWG;2009-05-24 09:00;CYWG 240900Z 22011KT 15SM SKC 08/M00 A3015 RMK SLP214

CYWG;2009-05-24 10:00;CYWG 241000Z 22010KT 15SM SKC 08/M01 A3015 RMK SLP215

CYWG;2009-05-24 11:00;CYWG 241100Z 21007KT 15SM SKC 08/M01 A3015 RMK SLP216

CYWG;2009-05-24 12:00;CYWG 241200Z 22008KT 15SM SKC 08/00 A3016 RMK SLP218

CYWG;2009-05-24 13:00;CYWG 241300Z 23005KT 15SM SKC 12/01 A3016 RMK SLP220

CYWG;2009-05-24 14:00;CYWG 241400Z 26004KT 15SM FEW250 14/M01 A3017 RMK CI1 SLP221

CYWG;2009-05-24 15:00;CYWG 241500Z 23007KT 15SM SCT250 17/M02 A3016 RMK CI2 SLP217

CYWG;2009-05-24 16:00;CYWG 241600Z 30003KT 15SM SCT250 19/02 A3015 RMK CI2 SLP215

CYWG;2009-05-24 17:00;CYWG 241700Z 24005KT 15SM BKN250 20/M01 A3014 RMK CI2 SLP212

CYWG;2009-05-24 18:00;CYWG 241800Z 13003KT 15SM FEW080 BKN250 20/M01 A3014 RMK CU1CI2 SLP210

CYWG;2009-05-24 19:00;CYWG 241900Z 13002KT 15SM FEW084 SCT250 21/00 A3012 RMK CU1CI1 SLP206

CYWG;2009-05-24 20:00;CYWG 242000Z 17011KT 15SM FEW086 SCT250 22/M07 A3012 RMK AC1CI1 SLP203

CYWG;2009-05-24 21:00;CYWG 242100Z 15003KT 15SM FEW091 SCT250 21/M02 A3010 RMK AC1CI1 SLP197

CYWG;2009-05-24 22:00;CYWG 242200Z 15006KT 15SM FEW094 BKN250 22/02 A3009 RMK AC1CI1 SLP192

CYWG;2009-05-24 23:00;CYWG 242300Z 17006KT 15SM FEW090 BKN250 21/M01 A3007 RMK AC1CI2 SLP188

CYWG;2009-05-25 00:00;CYWG 250000Z 14006KT 15SM BKN250 21/M00 A3006 RMK CI2 SLP182

CYWG;2009-05-25 01:00;CYWG 250100Z 15009KT 15SM BKN250 19/01 A3006 RMK CI2 SLP182

CYWG;2009-05-25 02:00;CYWG 250200Z 16007KT 15SM FEW120 OVC250 16/02 A3006 RMK AC2CI1 SLP184

CYWG;2009-05-25 03:00;CYWG 250300Z 16006KT 15SM BKN120 BKN260 15/02 A3007 RMK AC6CI2 SLP186

CYWG;2009-05-25 04:00;CYWG 250400Z 14005KT 15SM SCT120 14/02 A3006 RMK AC4 SLP184

CYWG;2009-05-25 05:00;CYWG 250500Z 15008KT 15SM BKN120 14/03 A3006 RMK AC7 SLP183

CYWG;2009-05-25 06:00;CYWG 250600Z 15006KT 15SM SCT120 13/03 A3005 RMK AC4 SLP179

CYWG;2009-05-25 08:00;CYWG 250800Z 14008KT 15SM OVC120 13/02 A3004 RMK AC8 SLP175

CYWG;2009-05-25 09:00;CYWG 250900Z 16009KT 15SM OVC120 14/02 A3002 RMK AC8 SLP167

CYWG;2009-05-25 10:00;CYWG 251000Z 14004KT 15SM -RA OVC083 14/02 A3000 RMK AC8 SLP161

CYWG;2009-05-25 11:00;CYWG 251100Z 19020KT 10SM -RA SCT035 BKN057 OVC083 14/06 A3001 RMK SC3SC3AC2 SLP165

CYWG;2009-05-25 12:00;CYWG 251200Z 17006KT 10SM -RA OVC035 11/ A3003 RMK SC8 SLP172

CYWG;2009-05-25 13:00;CYWG 251300Z 14007KT 6SM -RA BR OVC025 11/ A3003 RMK SC8 SLP172

CYWG;2009-05-25 13:29;CYWG 251329Z 12011KT 4SM RA BR OVC013 11/ RMK SF8

CYWG;2009-05-25 14:00;CYWG 251400Z 11010KT 5SM -RA BR BKN013 OVC067 11/ A3002 RMK SF6AC2 SLP168

CYWG;2009-05-25 14:37;CYWG 251437Z 12012KT 6SM -RA BR OVC017 11/ RMK SC8

CYWG;2009-05-25 15:00;CYWG 251500Z 11014KT 6SM -RA BR SCT014 OVC019 11/ A3000 RMK SF3SC5 SLP164

CYWG;2009-05-25 16:00;CYWG 251600Z 11010G15KT 7SM -RA BKN019 OVC032 11/ A3000 RMK SC6SC2 BR SLP164

CYWG;2009-05-25 17:00;CYWG 251700Z 10011G17KT 10SM -RA SCT013 OVC044 11/11 A2999 RMK SF3SC5 SLP159

CYWG;2009-05-25 17:06;CYWG 251706Z 11013KT 10SM -RA BKN009 OVC045 11/ RMK SF6SC2

CYWG;2009-05-25 17:44;CYWG 251744Z 11014G19KT 12SM -RA BKN010 OVC039 11/ RMK SF6SC2

CYWG;2009-05-25 18:00;CYWG 251800Z 10018KT 15SM -RA BKN013 OVC040 11/10 A2997 RMK CF6SC2 SLP154

CYWG;2009-05-25 18:05;CYWG 251805Z 11014G20KT 15SM -RA SCT013 BKN058 OVC081 11/ RMK CF3SC3AC2

CYWG;2009-05-25 18:16;CYWG 251816Z 10014KT 15SM SCT013 OVC058 12/ RMK CF3SC5

CYWG;2009-05-25 19:00;CYWG 251900Z 10015G21KT 15SM BKN016 OVC052 11/08 A2995 RMK SC5SC3 SLP148

CYWG;2009-05-25 20:00;CYWG 252000Z 09013G20KT 15SM BKN014 OVC048 11/07 A2993 RMK SC5SC3 SLP141

CYWG;2009-05-25 21:00;CYWG 252100Z 09012G21KT 15SM BKN014 OVC034 11/03 A2992 RMK SC6SC2 SLP137

CYWG;2009-05-25 21:31;CYWG 252131Z 10015KT 10SM -DZ OVC014 11/ RMK SC8

CYWG;2009-05-25 22:00;CYWG 252200Z 10014G22KT 3SM -DZ BR OVC011 10/10 A2992 RMK SC8 SLP138

CYWG;2009-05-25 22:07;CYWG 252207Z 09015G20KT 2 1/4SM -DZ BR OVC009 10/ RMK SF8

CYWG;2009-05-25 23:00;CYWG 252300Z 09011KT 3SM -DZ BR OVC005 10/09 A2991 RMK SF8 SLP134

CYWG;2009-05-25 23:42;CYWG 252342Z 09010KT 12SM OVC009 10/ RMK SF8

CYWG;2009-05-26 00:00;CYWG 260000Z 09012KT 15SM OVC011 10/07 A2991 RMK SC8 SLP135

CYWG;2009-05-26 00:46;CYWG 260046Z 09010KT 15SM OVC015 10/ RMK SC8

CYWG;2009-05-26 01:00;CYWG 260100Z 08008KT 15SM OVC015 10/07 A2992 RMK SC8 SLP138

CYWG;2009-05-26 02:00;CYWG 260200Z 08010KT 15SM OVC017 10/06 A2992 RMK SC8 SLP137

CYWG;2009-05-26 03:00;CYWG 260300Z 07008G15KT 15SM OVC017 10/06 A2993 RMK SC8 SLP141

CYWG;2009-05-26 04:00;CYWG 260400Z 04009KT 15SM OVC015 09/06 A2993 RMK SC8 SLP142

CYWG;2009-05-26 05:00;CYWG 260500Z 04008KT 15SM OVC015 09/05 A2993 RMK SC8 SLP143

CYWG;2009-05-26 06:00;CYWG 260600Z 04010KT 15SM OVC017 09/05 A2993 RMK SC8 SLP142

CYWG;2009-05-26 07:00;CYWG 260700Z 04010KT 15SM BKN017 OVC033 09/07 A2992 RMK SC6SC2 SLP138

CYWG;2009-05-26 08:00;CYWG 260800Z 04010KT 15SM BKN019 OVC065 08/07 A2992 RMK SC5SC3 SLP138

CYWG;2009-05-26 09:00;CYWG 260900Z 03009KT 15SM BKN018 OVC077 08/07 A2992 RMK SC6AC2 SLP139

CYWG;2009-05-26 10:00;CYWG 261000Z 01009KT 15SM SCT016 BKN077 07/06 A2993 RMK SC3AC1 SLP142

CYWG;2009-05-26 11:00;CYWG 261100Z 01011KT 8SM FEW015 BKN250 07/06 A2996 RMK SC1CI0 FU SLP150

CYWG;2009-05-26 12:00;CYWG 261200Z 01011KT 8SM FEW015 BKN250 07/06 A2997 RMK CF2CI0 FU SLP157

CYWG;2009-05-26 13:00;CYWG 261300Z 01013G19KT 15SM FEW025 FEW094 09/07 A2999 RMK CF2AC1 SLP164

CYWG;2009-05-26 13:18;CYWG 261318Z 01016KT 15SM FEW011 FEW025 SCT094 09/ RMK CF1CF2AC1

CYWG;2009-05-26 14:00;CYWG 261400Z 02018KT 15SM BKN013 10/07 A3000 RMK SC6 SLP166

CYWG;2009-05-26 14:26;CYWG 261426Z 02018KT 15SM BKN017 10/ RMK SC6

CYWG;2009-05-26 15:00;CYWG 261500Z 03020G28KT 15SM SCT017 12/08 A3000 RMK CU3 SLP166

CYWG;2009-05-26 16:00;CYWG 261600Z 04017G24KT 15SM FEW024 FEW250 14/08 A3001 RMK CU1CI1 SLP167

CYWG;2009-05-26 17:00;CYWG 261700Z 03016G21KT 15SM FEW028 FEW250 15/08 A3002 RMK CU1CI1 SLP170

CYWG;2009-05-26 18:00;CYWG 261800Z 03016G25KT 15SM FEW028 FEW250 16/07 A3002 RMK CU1CI0 SLP171

CYWG;2009-05-26 19:00;CYWG 261900Z 04019G27KT 15SM FEW035 17/07 A3002 RMK CU1 SLP171

CYWG;2009-05-26 20:00;CYWG 262000Z 04019G25KT 15SM FEW035 18/07 A3002 RMK CU1 SLP171

CYWG;2009-05-26 21:00;CYWG 262100Z 03013KT 15SM FEW052 18/07 A3001 RMK CU2 SLP168

CYWG;2009-05-26 22:00;CYWG 262200Z 04013G21KT 15SM FEW052 18/07 A3002 RMK CU2 SLP169

CYWG;2009-05-26 23:00;CYWG 262300Z 05013G20KT 15SM FEW050 18/07 A3002 RMK CU2 SLP170

CYWG;2009-05-27 00:00;CYWG 270000Z 05012KT 15SM FEW050 17/07 A3002 RMK CU1 SLP171

CYWG;2009-05-27 01:00;CYWG 270100Z 04009KT 15SM FEW050 16/08 A3003 RMK CU1 SLP174

CYWG;2009-05-27 02:00;CYWG 270200Z 05010KT 15SM SKC 14/08 A3003 RMK SLP175

CYWG;2009-05-27 03:00;CYWG 270300Z 04007KT 15SM SKC 11/07 A3004 RMK SLP177

CYWG;2009-05-27 04:00;CYWG 270400Z 05006KT 15SM SKC 08/06 A3004 RMK SLP179

CYWG;2009-05-27 05:00;CYWG 270500Z 05004KT 15SM SKC 08/06 A3005 RMK SLP180

CYWG;2009-05-27 06:00;CYWG 270600Z 05004KT 15SM SCT055 08/06 A3004 RMK SC2 SLP177

CYWG;2009-05-27 07:00;CYWG 270700Z 10002KT 15SM FEW053 07/06 A3003 RMK SC1 SLP175

CYWG;2009-05-27 08:00;CYWG 270800Z 00000KT 15SM SKC 05/05 A3003 RMK SLP175

CYWG;2009-05-27 09:00;CYWG 270900Z 15006KT 15SM SKC 07/06 A3002 RMK SLP171

CYWG;2009-05-27 10:00;CYWG 271000Z 19006KT 15SM FEW090 06/05 A3002 RMK AC1 SLP170

CYWG;2009-05-27 11:00;CYWG 271100Z 20008KT 15SM FEW110 08/07 A3001 RMK AC1 SLP167

CYWG;2009-05-27 12:00;CYWG 271200Z 21006KT 15SM FEW110 10/08 A3001 RMK AC1 SLP167

CYWG;2009-05-27 13:00;CYWG 271300Z 21007KT 15SM FEW110 FEW260 12/08 A3000 RMK AC1CI1 SLP165

CYWG;2009-05-27 14:00;CYWG 271400Z 20011KT 15SM FEW110 FEW260 14/07 A2999 RMK AC1CI1 SLP162

CYWG;2009-05-27 15:00;CYWG 271500Z 18010KT 15SM FEW260 15/07 A2998 RMK CI1 SLP157

CYWG;2009-05-27 16:00;CYWG 271600Z 18011G16KT 15SM FEW030 FEW260 16/08 A2995 RMK CU1CI1 CU TR SLP148

CYWG;2009-05-27 17:00;CYWG 271700Z 18010G16KT 15SM FEW032 FEW260 18/09 A2993 RMK CU1CI1 CU TR SLP142

CYWG;2009-05-27 18:00;CYWG 271800Z 20013KT 15SM FEW041 SCT260 18/09 A2991 RMK CU1CI1 SLP132

CYWG;2009-05-27 19:00;CYWG 271900Z 19013G19KT 15SM FEW041 SCT260 18/09 A2988 RMK CU1CI1 SLP122

CYWG;2009-05-27 20:00;CYWG 272000Z 18015KT 15SM FEW040 SCT260 19/08 A2986 RMK CU1CI1 CU TR SLP115

CYWG;2009-05-27 21:00;CYWG 272100Z 19017KT 15SM FEW260 19/08 A2982 RMK CI0 SLP103

CYWG;2009-05-27 22:00;CYWG 272200Z 20017KT 15SM FEW260 20/09 A2980 RMK CI0 SLP096

CYWG;2009-05-27 23:00;CYWG 272300Z 21014G21KT 15SM FEW140 FEW250 20/09 A2978 RMK AC1CI0 AC TR SLP088

CYWG;2009-05-28 00:00;CYWG 280000Z 19016G25KT 15SM FEW140 20/10 A2975 RMK AC1 SLP079

CYWG;2009-05-28 01:00;CYWG 280100Z 19017G22KT 15SM FEW140 19/10 A2974 RMK AC1 SLP074

CYWG;2009-05-28 02:00;CYWG 280200Z 19015G20KT 15SM FEW140 17/09 A2972 RMK AC2 SLP068

CYWG;2009-05-28 03:00;CYWG 280300Z 18017KT 15SM BKN094 16/11 A2972 RMK AC5 SLP067

CYWG;2009-05-28 04:00;CYWG 280400Z 19018KT 15SM BKN086 16/10 A2971 RMK AC6 SLP065

CYWG;2009-05-28 05:00;CYWG 280500Z 20014G24KT 15SM BKN077 16/10 A2970 RMK AC6 SLP062

CYWG;2009-05-28 06:00;CYWG 280600Z 20015G20KT 15SM FEW077 FEW120 15/10 A2970 RMK AC1AC2 SLP060

CYWG;2009-05-28 07:00;CYWG 280700Z 22012KT 15SM FEW090 14/10 A2970 RMK AC1 SLP058

CYWG;2009-05-28 08:00;CYWG 280800Z 23007KT 15SM FEW090 12/10 A2970 RMK AC1 SLP059

CYWG;2009-05-28 09:00;CYWG 280900Z 02012KT 15SM FEW090 12/09 A2974 RMK AC1 SLP074

CYWG;2009-05-28 10:00;CYWG 281000Z 36007KT 15SM SKC 10/09 A2978 RMK SLP086

CYWG;2009-05-28 11:00;CYWG 281100Z 01014KT 15SM FEW090 09/07 A2982 RMK AC1 SLP100

CYWG;2009-05-28 12:00;CYWG 281200Z 01012G18KT 15SM SCT050 09/07 A2985 RMK SC3 SLP111

CYWG;2009-05-28 12:15;CYWG 281215Z 01013KT 15SM BKN015 09/ RMK SC5

CYWG;2009-05-28 13:00;CYWG 281300Z 02014KT 15SM BKN015 09/06 A2988 RMK SC7 SLP121

CYWG;2009-05-28 14:00;CYWG 281400Z 36012KT 15SM BKN015 10/06 A2990 RMK SC7 SLP130

CYWG;2009-05-28 15:00;CYWG 281500Z 02014KT 15SM BKN021 11/05 A2992 RMK SC5 SLP135

CYWG;2009-05-28 16:00;CYWG 281600Z 36013G18KT 15SM FEW027 SCT095 12/05 A2993 RMK SC2AC2 SLP139

CYWG;2009-05-28 17:00;CYWG 281700Z 01012G17KT 15SM FEW030 SCT093 13/06 A2993 RMK SC2AC2 SLP140

CYWG;2009-05-28 18:00;CYWG 281800Z 03011KT 15SM SCT033 BKN100 13/05 A2993 RMK SC3AC2 SLP140

CYWG;2009-05-28 19:00;CYWG 281900Z 33015KT 15SM FEW037 BKN100 14/05 A2994 RMK CU2AC2 SLP142

CYWG;2009-05-28 20:00;CYWG 282000Z 34014KT 15SM FEW040 BKN089 14/04 A2993 RMK CF1AC5 SLP141

CYWG;2009-05-28 21:00;CYWG 282100Z 32013KT 15SM FEW040 FEW089 15/04 A2994 RMK CF1AC1 SLP143

CYWG;2009-05-28 22:00;CYWG 282200Z 33012G17KT 15SM FEW040 15/04 A2994 RMK CF1 CF TR SLP142

CYWG;2009-05-28 23:00;CYWG 282300Z 34010KT 15SM FEW040 15/05 A2994 RMK CF1 CF TR SLP143

CYWG;2009-05-29 00:00;CYWG 290000Z 36008KT 15SM SKC 15/04 A2993 RMK SLP142

CYWG;2009-05-29 01:00;CYWG 290100Z 06011KT 15SM SKC 12/04 A2995 RMK SLP146

CYWG;2009-05-29 02:00;CYWG 290200Z 05010KT 15SM FEW090 10/04 A2996 RMK AC1 SLP149

CYWG;2009-05-29 03:00;CYWG 290300Z 04006KT 15SM FEW090 07/03 A2998 RMK AC2 SLP159

CYWG;2009-05-29 04:00;CYWG 290400Z 00000KT 15SM BKN100 06/04 A2999 RMK AC6 SLP161

CYWG;2009-05-29 05:00;CYWG 290500Z 06002KT 15SM SCT100 05/02 A2998 RMK AC2 SLP159

CYWG;2009-05-29 06:00;CYWG 290600Z 09004KT 15SM FEW100 05/03 A2998 RMK AC1 SLP158

CYWG;2009-05-29 07:00;CYWG 290700Z 09006KT 15SM SCT100 04/01 A2997 RMK AC2 SLP156

CYWG;2009-05-29 08:00;CYWG 290800Z 09004KT 15SM BKN140 04/01 A2997 RMK AC6 SLP157

CYWG;2009-05-29 09:00;CYWG 290900Z 12006KT 15SM BKN140 05/01 A2997 RMK AC3 SLP155

CYWG;2009-05-29 10:00;CYWG 291000Z 09004KT 15SM FEW100 04/00 A2997 RMK AC2 SLP156

CYWG;2009-05-29 11:00;CYWG 291100Z 16006KT 15SM FEW050 FEW090 05/M00 A2996 RMK SC2AC1 SLP154

CYWG;2009-05-29 12:00;CYWG 291200Z 13007KT 15SM SCT085 BKN150 07/00 A2996 RMK AC3AC2 SLP152

CYWG;2009-05-29 13:00;CYWG 291300Z 14009KT 15SM BKN089 09/M01 A2995 RMK AC5 SLP148

CYWG;2009-05-29 14:00;CYWG 291400Z 14011KT 15SM SCT089 11/01 A2992 RMK AC3 SLP139

CYWG;2009-05-29 15:00;CYWG 291500Z 17008KT 15SM FEW090 14/05 A2989 RMK AC2 SLP127

CYWG;2009-05-29 16:00;CYWG 291600Z 19009KT 15SM FEW090 16/07 A2986 RMK AC1 SLP117

CYWG;2009-05-29 17:00;CYWG 291700Z 30012G17KT 15SM FEW088 19/06 A2984 RMK AC1 SLP112

CYWG;2009-05-29 18:00;CYWG 291800Z 32022KT 15SM FEW045 20/04 A2983 RMK CU1 SLP107

CYWG;2009-05-29 19:00;CYWG 291900Z 32018G25KT 15SM FEW072 FEW250 21/03 A2982 RMK CU1CI1 SLP102

CYWG;2009-05-29 20:00;CYWG 292000Z 36013G19KT 15SM FEW072 FEW250 21/02 A2978 RMK CU1CI1 SLP091

CYWG;2009-05-29 21:00;CYWG 292100Z 03010KT 15SM FEW080 SCT250 21/02 A2975 RMK AC2CI1 SLP079

CYWG;2009-05-29 22:00;CYWG 292200Z 00000KT 15SM FEW080 FEW250 21/02 A2971 RMK AC1CI1 SLP065

CYWG;2009-05-29 23:00;CYWG 292300Z 00000KT 15SM SCT080 BKN250 22/01 A2971 RMK AC4CI1 SLP065

CYWG;2009-05-29 23:15;CYWG 292315Z 02031G40KT 4SM BLDU BKN095 16/ RMK AC6 VIS 2 N-E

CYWG;2009-05-29 23:34;CYWG 292334Z 04027G38KT 10SM SCT093 BKN250 15/ RMK AC3CI2

CYWG;2009-05-30 00:00;CYWG 300000Z 04017G28KT 15SM BKN079 BKN250 16/07 A2975 RMK AC5CI1 SLP079

CYWG;2009-05-30 01:00;CYWG 300100Z 01014G21KT 15SM FEW078 FEW250 16/07 A2979 RMK AC1CI1 TCU TOPS N SLP092

CYWG;2009-05-30 02:00;CYWG 300200Z 35008KT 15SM FEW035TCU FEW078 14/06 A2980 RMK TCU1AC1 SLP097

CYWG;2009-05-30 03:00;CYWG 300300Z 33009KT 15SM FEW035 FEW050 12/06 A2983 RMK CU1SC2 SLP105

CYWG;2009-05-30 04:00;CYWG 300400Z 01005KT 15SM SCT050 10/07 A2986 RMK SC4 SLP117

CYWG;2009-05-30 05:00;CYWG 300500Z 33006KT 15SM SKC 06/04 A2987 RMK SLP121

CYWG;2009-05-30 06:00;CYWG 300600Z 36009KT 15SM SKC 08/04 A2990 RMK SLP129

CYWG;2009-05-30 07:00;CYWG 300700Z 34008KT 15SM SKC 04/01 A2991 RMK SLP133

CYWG;2009-05-30 08:00;CYWG 300800Z 36008KT 15SM SKC 03/M00 A2993 RMK SLP138

CYWG;2009-05-30 09:00;CYWG 300900Z 36008KT 15SM SKC 04/01 A2995 RMK SLP147

CYWG;2009-05-30 10:00;CYWG 301000Z 35007KT 15SM SKC 01/M00 A2997 RMK SLP155

CYWG;2009-05-30 11:00;CYWG 301100Z 36006KT 15SM FEW250 02/M00 A3000 RMK CI1 SLP164

CYWG;2009-05-30 12:00;CYWG 301200Z 02012KT 15SM FEW100 FEW250 03/M02 A3002 RMK AC1CI1 SLP173

CYWG;2009-05-30 13:00;CYWG 301300Z 02013KT 15SM FEW100 FEW250 04/M03 A3004 RMK AC1CI1 SLP178

CYWG;2009-05-30 14:00;CYWG 301400Z 36009KT 15SM FEW100 FEW250 05/M04 A3004 RMK AC1CI1 SLP180

CYWG;2009-05-30 15:00;CYWG 301500Z 35012G17KT 15SM SKC 07/M04 A3004 RMK SLP180

CYWG;2009-05-30 16:00;CYWG 301600Z 36011G17KT 15SM SKC 09/M05 A3005 RMK SLP181

CYWG;2009-05-30 17:00;CYWG 301700Z 36015KT 15SM SKC 10/M06 A3004 RMK SLP178

CYWG;2009-05-30 18:00;CYWG 301800Z 34010KT 15SM FEW250 11/M05 A3002 RMK CI1 SLP172

CYWG;2009-05-30 19:00;CYWG 301900Z 31007KT 15SM SKC 13/M05 A3000 RMK SLP165

CYWG;2009-05-30 20:00;CYWG 302000Z 34004KT 15SM FEW250 13/M05 A2998 RMK CI1 SLP158

CYWG;2009-05-30 21:00;CYWG 302100Z 31008KT 15SM FEW250 14/M06 A2996 RMK CI0 SLP151

CYWG;2009-05-30 22:00;CYWG 302200Z 35004G15KT 15SM FEW250 14/M06 A2994 RMK CI1 SLP146

CYWG;2009-05-30 23:00;CYWG 302300Z 36005KT 15SM FEW250 15/M02 A2993 RMK CI1 SLP141

CYWG;2009-05-31 00:00;CYWG 310000Z 01002KT 15SM FEW100 FEW250 15/M02 A2992 RMK AC1CI0 SLP139

CYWG;2009-05-31 01:00;CYWG 310100Z 03006KT 15SM FEW110 SCT250 12/M00 A2990 RMK AC2CI1 SLP134

CYWG;2009-05-31 02:00;CYWG 310200Z 09006KT 15SM FEW100 SCT140 BKN250 12/M01 A2988 RMK AC1AC2CI2 SLP127

CYWG;2009-05-31 03:00;CYWG 310300Z 13008KT 15SM BKN080 BKN140 BKN250 13/M02 A2987 RMK ACC5AC1CI0 ACC/VIRGA SE-OVRHD-NW SLP122

CYWG;2009-05-31 04:00;CYWG 310400Z 13010KT 15SM BKN070 BKN090 12/M03 A2987 RMK AC5AC2 SLP120

CYWG;2009-05-31 05:00;CYWG 310500Z CCA 13012KT 15SM BKN110 11/M03 A2985 RMK AC7 OB+17 SLP114

CYWG;2009-05-31 06:00;CYWG 310600Z 13010KT 15SM BKN110 11/M03 A2985 RMK AC6 SLP115

CYWG;2009-05-31 07:00;CYWG 310700Z 14009KT 15SM BKN100 10/M03 A2985 RMK AC7 SLP115

CYWG;2009-05-31 07:55;CYWG 310755Z 13008KT 15SM -SHRA OVC085 10/ RMK AC8

CYWG;2009-05-31 08:00;CYWG 310800Z 13008KT 15SM -SHRA OVC085 10/M03 A2985 RMK AC8 SLP115

CYWG;2009-05-31 09:00;CYWG 310900Z 14013KT 15SM -SHRA OVC030 10/M02 A2979 RMK SC8 SLP093

CYWG;2009-05-31 10:00;CYWG 311000Z 14015G21KT 15SM OVC029 08/01 A2974 RMK SC8 CVCTV CLD EMBD SLP076

CYWG;2009-05-31 10:41;CYWG 311041Z 09012G17KT 15SM -SHRA BKN058 OVC085 07/ RMK SC6AC2

CYWG;2009-05-31 11:00;CYWG 311100Z 12014G19KT 15SM BKN058 BKN085 08/02 A2975 RMK SC5AC2 SLP080

CYWG;2009-05-31 12:00;CYWG 311200Z 13016G22KT 15SM BKN052 BKN085 BKN095 08/02 A2971 RMK SC5AC2AC1 SLP066

CYWG;2009-05-31 13:00;CYWG 311300Z 13017G24KT 15SM FEW058 BKN081 BKN210 09/03 A2967 RMK SC2AC3CI2 SLP051

CYWG;2009-05-31 14:00;CYWG 311400Z 14014KT 15SM SCT075 BKN091 BKN210 11/04 A2969 RMK AC4AC2CI1 SLP059

CYWG;2009-05-31 14:37;CYWG 311437Z 12010KT 15SM -SHRA SCT075 BKN095 BKN230 11/ RMK AC3AC3CI1

CYWG;2009-05-31 14:50;CYWG 311450Z 14013G20KT 15SM SCT075 SCT095 BKN220 RMK AC2AC2CI3

CYWG;2009-05-31 15:00;CYWG 311500Z 15016KT 15SM SCT075 SCT091 OVC220 11/05 A2969 RMK AC3AC1CI4 SLP059

CYWG;2009-05-31 16:00;CYWG 311600Z 13014KT 15SM BKN096 BKN230 11/05 A2961 RMK AC6CI1 PRESFR SLP031

CYWG;2009-05-31 17:00;CYWG 311700Z CCA 07012KT 15SM FEW066 SCT091 BKN250 12/07 A2968 RMK SC2AC2CI3 PRES UNSTDY SLP056

CYWG;2009-05-31 18:00;CYWG 311800Z 04013KT 15SM FEW066 SCT094 BKN250 13/08 A2969 RMK CU1AC2CI2 SLP059

CYWG;2009-05-31 19:00;CYWG 311900Z 05010KT 15SM FEW025 FEW074 BKN250 14/08 A2971 RMK SC1AC1CI1 SLP065

CYWG;2009-05-31 20:00;CYWG 312000Z 02006G15KT 15SM SCT028 BKN250 14/08 A2973 RMK SC4CI0 SLP071

CYWG;2009-05-31 21:00;CYWG 312100Z 04013KT 15SM BKN023 BKN250 13/08 A2975 RMK SC6CI0 SLP079

CYWG;2009-05-31 22:00;CYWG 312200Z 04012G18KT 15SM FEW025 BKN250 14/08 A2977 RMK SC1CI1 SLP084

CYWG;2009-05-31 23:00;CYWG 312300Z 04010KT 15SM BKN250 14/07 A2977 RMK CI1 SLP087

CYWG;2009-06-01 01:00;CYWG 010100Z 06008KT 15SM FEW100 13/07 A2980 RMK AC2 SLP096

CYWG;2009-06-01 02:00;CYWG 010200Z 08008KT 15SM FEW100 12/07 A2980 RMK AC2 SLP098

CYWG;2009-06-01 03:00;CYWG 010300Z 10003KT 15SM FEW090 09/06 A2980 RMK AC1 SLP098

CYWG;2009-06-01 04:00;CYWG 010400Z 14009KT 15SM FEW090 10/06 A2981 RMK AC2 SLP100

CYWG;2009-06-01 05:00;CYWG 010500Z 10007KT 15SM FEW065 SCT083 10/06 A2985 RMK SC2AC2 SLP113

CYWG;2009-06-01 05:02;CYWG 010502Z 09009KT 25SM -SHRA FEW065 BKN083 09/ RMK SC2AC2

CYWG;2009-06-01 06:00;CYWG 010600Z 11005KT 15SM SCT055 BKN073 08/06 A2989 RMK SC3AC3 SLP128

CYWG;2009-06-01 07:00;CYWG 010700Z 09003KT 15SM BKN089 07/06 A2990 RMK AC5 SLP132

CYWG;2009-06-01 08:00;CYWG 010800Z 11004KT 15SM BKN091 07/06 A2992 RMK AC6 SLP136

CYWG;2009-06-01 08:22;CYWG 010822Z 11005KT 15SM -SHRA SCT011 BKN081 07/ RMK SC3AC2

CYWG;2009-06-01 08:53;CYWG 010853Z 18005KT 15SM BKN027 06/ RMK SC6

CYWG;2009-06-01 09:00;CYWG 010900Z 18007KT 15SM FEW027 SCT035 06/05 A2990 RMK SC2SC2 SLP133

CYWG;2009-06-01 10:00;CYWG 011000Z 18007KT 15SM FEW027 FEW250 06/05 A2990 RMK SC1CI0 SLP131

CYWG;2009-06-01 11:00;CYWG 011100Z 18005KT 15SM FEW025 FEW250 06/05 A2992 RMK CF1CI1 TR CF SLP138

CYWG;2009-06-01 12:00;CYWG 011200Z 18005KT 15SM FEW110 FEW250 07/06 A2994 RMK AC1CI1 SLP144

CYWG;2009-06-01 13:00;CYWG 011300Z 18006KT 15SM FEW110 SCT250 09/07 A2995 RMK AC1CI1 SLP147

CYWG;2009-06-01 14:00;CYWG 011400Z 10003KT 15SM FEW025 FEW110 SCT250 11/07 A2996 RMK SC1AC1CI2 TR SC AC SLP152

CYWG;2009-06-01 15:00;CYWG 011500Z 17004KT 15SM FEW025 SCT250 13/08 A2996 RMK SC1CI2 SLP151

CYWG;2009-06-01 16:00;CYWG 011600Z CCA 18003KT 15SM FEW025 FEW120 BKN250 15/08 A2996 RMK SC1AC1CI5 TR SC AC SLP153

CYWG;2009-06-01 17:00;CYWG 011700Z 14005KT 15SM FEW077 SCT250 16/08 A2996 RMK AC1CI2 TR AC SLP152

CYWG;2009-06-01 18:00;CYWG 011800Z 20007KT 15SM FEW077 SCT250 17/08 A2996 RMK CU1CI1 SLP151

CYWG;2009-06-01 19:00;CYWG 011900Z 16006KT 15SM FEW042 BKN250 18/07 A2994 RMK CU2CI1 SLP145

CYWG;2009-06-01 20:00;CYWG 012000Z 21005KT 15SM SCT057 SCT100 BKN250 19/06 A2993 RMK CU3AC1CI0 SLP140

CYWG;2009-06-01 21:00;CYWG 012100Z 23011KT 15SM BKN060 BKN097 BKN250 18/05 A2992 RMK CU5AC2CI0 CB ASOCTD W LTGCG W SLP136

CYWG;2009-06-01 21:06;CYWG 012106Z 22008KT 15SM -TSRA BKN049CB OVC097 18/ RMK CB5AC3

CYWG;2009-06-01 21:50;CYWG 012150Z 06006KT 15SM -SHRA BKN073 BKN250 11/ RMK AC6CI0 CB NE-SE

CYWG;2009-06-01 22:00;CYWG 012200Z 07006KT 15SM BKN073 BKN250 12/10 A2995 RMK AC6CI0 SLP148

CYWG;2009-06-01 23:00;CYWG 012300Z 16005KT 15SM SCT050 BKN094 BKN250 13/12 A2995 RMK CU3AC2CI0 SLP146

CYWG;2009-06-02 00:00;CYWG 020000Z 16005KT 15SM SCT065 BKN099 BKN250 14/10 A2993 RMK CU4AC2CI0 SHWRS DSTNT NW SLP142

CYWG;2009-06-02 00:22;CYWG 020022Z 02020KT 6SM -SHRA FEW012 BKN041TCU BKN062 10/ RMK SF1TCU5SC2

CYWG;2009-06-02 00:35;CYWG 020035Z 04007G16KT 15SM FEW012 SCT041TCU BKN250 10/ RMK SF1TCU3CI1 SHWRS E

CYWG;2009-06-02 01:00;CYWG 020100Z 05013G19KT 15SM SCT040 BKN250 11/09 A2999 RMK CU3CI0 CB TOP NE SLP161

CYWG;2009-06-02 02:00;CYWG 020200Z 36005KT 15SM SCT025 BKN063 BKN250 10/06 A3001 RMK SC3SC1CI0 SLP168

CYWG;2009-06-02 03:00;CYWG 020300Z 33014KT 15SM SCT016 BKN091 09/06 A3005 RMK SC3AC2 SLP182

CYWG;2009-06-02 03:14;CYWG 020314Z 35012G20KT 15SM BKN014 09/ RMK SC6

CYWG;2009-06-02 04:00;CYWG 020400Z 36014G22KT 15SM OVC012 08/03 A3009 RMK SC8 SLP196

CYWG;2009-06-02 05:00;CYWG 020500Z 34012KT 15SM SCT026 BKN041 08/06 A3012 RMK SC3SC3 SLP204

CYWG;2009-06-02 06:00;CYWG 020600Z 34011KT 15SM BKN032 BKN068 07/05 A3014 RMK SC5AC2 SLP212

CYWG;2009-06-02 07:00;CYWG 020700Z 34014KT 15SM FEW040 FEW068 07/04 A3016 RMK SC1AC2 SLP217

CYWG;2009-06-02 08:00;CYWG 020800Z 34009KT 15SM FEW075 06/03 A3017 RMK AC2 SLP223

CYWG;2009-06-02 09:00;CYWG 020900Z 33010KT 15SM FEW052 04/02 A3019 RMK SC2 SLP230

CYWG;2009-06-02 10:00;CYWG 021000Z 34010KT 15SM FEW052 04/02 A3021 RMK SC1 SC TR SLP236

CYWG;2009-06-02 11:00;CYWG 021100Z 34008KT 15SM FEW100 04/02 A3024 RMK AC1 SLP245

CYWG;2009-06-02 12:00;CYWG 021200Z 36009KT 15SM SKC 06/02 A3026 RMK SLP253

CYWG;2009-06-02 13:00;CYWG 021300Z 36012KT 15SM SKC 07/01 A3028 RMK SLP260

CYWG;2009-06-02 14:00;CYWG 021400Z 01012KT 15SM FEW120 09/M00 A3030 RMK AC1 SLP268

CYWG;2009-06-02 15:00;CYWG 021500Z 33012KT 15SM FEW045 10/02 A3031 RMK CU2 SLP271

CYWG;2009-06-02 16:00;CYWG 021600Z 32015KT 15SM FEW045 10/M00 A3031 RMK CU2 SLP271

CYWG;2009-06-02 17:00;CYWG 021700Z 34011KT 15SM SCT045 11/00 A3032 RMK CU3 SLP274

CYWG;2009-06-02 18:00;CYWG 021800Z 35014KT 15SM SCT045 13/01 A3032 RMK CU4 SLP274

CYWG;2009-06-02 19:00;CYWG 021900Z 30008G15KT 15SM BKN050 14/02 A3031 RMK SC5 SLP271

CYWG;2009-06-02 20:00;CYWG 022000Z 33010G17KT 15SM SCT053 13/02 A3031 RMK SC4 SLP270

CYWG;2009-06-02 21:00;CYWG 022100Z 36009KT 15SM SCT053 13/02 A3030 RMK SC4 SLP267

CYWG;2009-06-02 22:00;CYWG 022200Z 02007G15KT 15SM FEW057 14/02 A3029 RMK SC2 SLP264

CYWG;2009-06-02 23:00;CYWG 022300Z 36011KT 15SM FEW057 14/01 A3028 RMK SC1 SLP262

CYWG;2009-06-03 00:00;CYWG 030000Z 35006KT 15SM FEW057 14/02 A3027 RMK SC1 SLP257

CYWG;2009-06-03 01:00;CYWG 030100Z 35008KT 15SM SKC 14/02 A3027 RMK SLP256

CYWG;2009-06-03 02:00;CYWG 030200Z 32003KT 15SM SKC 11/03 A3026 RMK SLP253

CYWG;2009-06-03 03:00;CYWG 030300Z 33002KT 15SM SKC 08/03 A3026 RMK SLP254

CYWG;2009-06-03 04:00;CYWG 030400Z 21003KT 15SM SKC 08/02 A3025 RMK SLP253

CYWG;2009-06-03 05:00;CYWG 030500Z 24005KT 15SM FEW240 06/01 A3025 RMK CI2 SLP251

CYWG;2009-06-03 06:00;CYWG 030600Z 22003KT 15SM FEW240 07/01 A3025 RMK CI2 SLP250

CYWG;2009-06-03 07:00;CYWG 030700Z 22005KT 15SM SCT240 06/01 A3024 RMK CI2 SLP248

CYWG;2009-06-03 08:00;CYWG 030800Z 21004KT 15SM FEW240 04/00 A3023 RMK CI1 SLP245

CYWG;2009-06-03 09:00;CYWG 030900Z 23008KT 15SM FEW240 05/00 A3022 RMK CI1 SLP240

CYWG;2009-06-03 10:00;CYWG 031000Z 22010KT 15SM FEW240 07/01 A3020 RMK CI1 SLP235

CYWG;2009-06-03 11:00;CYWG 031100Z 21011KT 15SM FEW240 08/01 A3019 RMK CI0 SLP231

CYWG;2009-06-03 12:00;CYWG 031200Z 22010KT 15SM FEW240 08/02 A3019 RMK CI0 SLP230

CYWG;2009-06-03 13:00;CYWG 031300Z 25008KT 15SM FEW240 12/02 A3018 RMK CI0 SLP225

CYWG;2009-06-03 14:00;CYWG 031400Z 28011KT 15SM FEW240 15/02 A3016 RMK CI0 SLP219

CYWG;2009-06-03 15:00;CYWG 031500Z 28013KT 15SM FEW240 19/03 A3014 RMK CI0 SLP211

CYWG;2009-06-03 16:00;CYWG 031600Z 30012G20KT 15SM FEW065 FEW260 21/00 A3012 RMK CU1CI1 CU TR H+07 SLP204

CYWG;2009-06-03 17:00;CYWG 031700Z 30006G18KT 15SM FEW070 BKN260 21/M01 A3010 RMK CU2CI1 SLP199

CYWG;2009-06-03 18:00;CYWG 031800Z 29015KT 15SM FEW080 BKN260 22/01 A3009 RMK CU2CI2 SLP192

CYWG;2009-06-03 19:00;CYWG 031900Z 30013G18KT 15SM FEW050 BKN100 BKN250 21/M01 A3006 RMK CU2AC4CI1 SLP183

CYWG;2009-06-03 20:00;CYWG 032000Z 28010G20KT 15SM FEW050 BKN080 OVC140 21/M01 A3004 RMK CU1AC5AS2 SLP178

CYWG;2009-06-03 21:00;CYWG 032100Z 32015G20KT 15SM FEW050 BKN080 BKN140 OVC250 21/02 A3003 RMK CU1AC4AS2CI1 SLP175

CYWG;2009-06-03 22:00;CYWG 032200Z 28013G19KT 15SM SCT080 OVC140 22/02 A3001 RMK AC3AS5 VIRGA S SLP168

CYWG;2009-06-03 23:00;CYWG 032300Z 27009KT 15SM SCT097 BKN140 BKN250 21/00 A2999 RMK AC3AS3CI1 SLP161

CYWG;2009-06-04 00:00;CYWG 040000Z 27009KT 15SM FEW097 FEW140 BKN250 21/00 A2997 RMK AC2AS1CI2 SLP152

CYWG;2009-06-04 01:00;CYWG 040100Z 24005KT 15SM SCT097 BKN250 20/02 A2995 RMK AC4CI2 VIRGA NW-N SLP145

CYWG;2009-06-04 02:00;CYWG 040200Z 23010KT 15SM BKN100 BKN250 20/01 A2993 RMK AC6CI2 VIRGA W-NE SLP138

CYWG;2009-06-04 03:00;CYWG 040300Z 27004KT 15SM SCT097 BKN120 19/01 A2992 RMK AC4AC3 SLP133

CYWG;2009-06-04 04:00;CYWG 040400Z 25003KT 15SM SCT070 BKN087 18/02 A2990 RMK AC3AC4 SLP127

CYWG;2009-06-04 05:00;CYWG 040500Z 22009KT 15SM BKN093 17/02 A2987 RMK AC5 SLP117

CYWG;2009-06-04 06:00;CYWG 040600Z 23009KT 15SM FEW052 BKN093 16/02 A2985 RMK SC2AC3 SLP110

CYWG;2009-06-04 07:00;CYWG 040700Z 27010KT 15SM FEW052 BKN100 16/02 A2985 RMK SC2AC2 SLP109

CYWG;2009-06-04 08:00;CYWG 040800Z 27009KT 15SM FEW050 13/02 A2985 RMK SC1 SLP109

CYWG;2009-06-04 09:00;CYWG 040900Z 30005KT 15SM SKC 09/03 A2985 RMK SLP113

CYWG;2009-06-04 10:00;CYWG 041000Z 29008KT 15SM FEW120 09/05 A2986 RMK AC2 SLP114

CYWG;2009-06-04 11:00;CYWG 041100Z 30007KT 15SM BKN093 BKN230 11/06 A2987 RMK AC5CI1 SLP118

CYWG;2009-06-04 12:00;CYWG 041200Z 30004KT 15SM BKN095 BKN230 11/07 A2987 RMK AC5CI1 SLP116

CYWG;2009-06-04 13:00;CYWG 041300Z 01003KT 15SM SCT095 OVC220 14/08 A2985 RMK AC4CI2 SLP111

CYWG;2009-06-04 13:47;CYWG 041347Z 35004KT 15SM -SHRA SCT049 BKN081 OVC220 13/ RMK SC3AC2CI2 CVCTV CLD EMBD

CYWG;2009-06-04 14:00;CYWG 041400Z 29005KT 15SM -SHRA SCT027 BKN073 OVC120 13/08 A2987 RMK SC3AC2AC2 CVCTV CLD EMBD SLP119

CYWG;2009-06-04 15:00;CYWG 041500Z CCA 31007KT 12SM -SHRA SCT017 OVC076 12/ A2988 RMK SC4AC4 CVCTV CLD EMBD SLP121

CYWG;2009-06-04 16:00;CYWG 041600Z 26004KT 12SM -SHRA FEW032 OVC076 12/10 A2987 RMK SC2AC6 CVCTV CLD EMBD SLP118

CYWG;2009-06-04 16:15;CYWG 041615Z 28006KT 15SM FEW032 OVC071 12/ RMK SC2AC6

CYWG;2009-06-04 16:45;CYWG 041645Z 28004KT 15SM -SHRA FEW022 BKN067 OVC094 12/ RMK SC2AC4AC2 ACC EMBD

CYWG;2009-06-04 17:00;CYWG 041700Z 16002KT 15SM -SHRA FEW022 BKN067 OVC094 12/10 A2983 RMK SC1AC5AC2 ACC EMBD SLP104

CYWG;2009-06-04 17:11;CYWG 041711Z 21004KT 15SM FEW020 BKN067 BKN220 14/ RMK SC1AC4CI1

CYWG;2009-06-04 18:00;CYWG 041800Z 27006KT 15SM -SHRA FEW031 BKN079 OVC220 14/09 A2984 RMK SC1AC5CI2 ACC EMBD SLP108

CYWG;2009-06-04 19:00;CYWG 041900Z 21007KT 15SM -SHRA SCT014 BKN060 OVC120 14/10 A2981 RMK CU3SC2AS3 ACC EMBD SLP099

CYWG;2009-06-04 20:00;CYWG 042000Z 26011G16KT 15SM -SHRA FEW032 BKN062 OVC120 15/11 A2980 RMK CU2SC2AS3 ACC EMBD SLP096

CYWG;2009-06-04 21:00;CYWG 042100Z 34013G19KT 10SM -SHRA BKN022CB BKN054 OVC120 13/11 A2982 RMK CB5SC2AS1 CB NW-NE SLP103

CYWG;2009-06-04 22:00;CYWG 042200Z 28011KT 15SM -SHRA FEW021 FEW054CB BKN120 13/10 A2978 RMK CU1CB2AS5 CB S SLP091

CYWG;2009-06-04 22:50;CYWG 042250Z 29009KT 15SM FEW046TCU FEW078 SCT250 15/ RMK TCU1AC1CI2

CYWG;2009-06-04 23:00;CYWG 042300Z 30011KT 15SM FEW046TCU FEW078 SCT250 15/12 A2978 RMK TCU1AC2CI1 SLP091

CYWG;2009-06-04 23:20;CYWG 042320Z 32012KT 15SM -SHRA SCT036TCU BKN078 BKN250 14/ RMK TCU4AC1CI1 TCU NW-E

CYWG;2009-06-04 23:48;CYWG 042348Z 31013KT 15SM FEW028 BKN053TCU BKN080 13/ RMK CF1TCU4AC2 TCU MOVG SE

CYWG;2009-06-05 00:00;CYWG 050000Z 32010KT 15SM FEW028 FEW053TCU BKN080 14/M04 A2978 RMK CF1TCU1AC3 TCU MOVG SE SLP088

CYWG;2009-06-05 01:00;CYWG 050100Z 03012KT 15SM FEW027 FEW052TCU SCT073 12/10 A2979 RMK CU1TCU1AC2 TCU SE SLP093

CYWG;2009-06-05 02:00;CYWG 050200Z 02007KT 15SM FEW030 FEW073 SCT082 10/09 A2981 RMK CU1ACC1AC2 ACC NW SLP098

CYWG;2009-06-05 03:00;CYWG 050300Z 35003KT 15SM SCT078 07/07 A2982 RMK ACC3 LTGCG DIST NW SLP104

CYWG;2009-06-05 03:20;CYWG 050320Z 27004KT 15SM TS SCT078 08/ RMK ACC4 CB EMBD LTGCG DIST NW

CYWG;2009-06-05 03:31;CYWG 050331Z 33011KT 10SM -TSRA SCT033 BKN078 08/ RMK SC3ACC2 CB EMBD LTGCG N

CYWG;2009-06-05 03:54;CYWG 050354Z 33008G15KT 15SM FEW009 BKN033 BKN092 09/ RETS RMK SF1SC4AC2

CYWG;2009-06-05 04:00;CYWG 050400Z 32010KT 15SM FEW009 BKN033 BKN087 08/07 A2986 RETS RMK SF1SC4AC2 SLP117

CYWG;2009-06-05 05:00;CYWG 050500Z 01009KT 15SM SCT043 BKN066 07/06 A2989 RMK SC3AC3 SLP126

CYWG;2009-06-05 06:00;CYWG 050600Z 35010KT 15SM BKN022 OVC063 07/05 A2990 RMK SC5SC3 SLP132

CYWG;2009-06-05 06:22;CYWG 050622Z 35015G20KT 15SM BKN012 OVC035 06/ RMK SC5SC3

CYWG;2009-06-05 07:00;CYWG 050700Z 34021G29KT 15SM OVC017 05/02 A2993 RMK SC8 SLP140

CYWG;2009-06-05 08:00;CYWG 050800Z 34019KT 15SM FEW021 02/01 A2995 RMK SC2 SLP149

CYWG;2009-06-05 09:00;CYWG 050900Z 34014G20KT 15SM FEW015 02/M01 A2996 RMK SC1 SLP154

CYWG;2009-06-05 10:00;CYWG 051000Z 33014KT 15SM FEW006 FEW014 01/00 A2998 RMK SF1SC1 SF TR SLP159

CYWG;2009-06-05 11:00;CYWG 051100Z 34017KT 15SM VCSH FEW008 FEW014 02/M01 A2999 RMK SF1SC1 SHSN NW SLP164

CYWG;2009-06-05 12:00;CYWG 051200Z 35019KT 15SM FEW015 03/00 A3001 RMK SC2 SLP169

CYWG;2009-06-05 13:00;CYWG 051300Z 35014G22KT 15SM BKN018 04/01 A3003 RMK SC7 SLP178

CYWG;2009-06-05 14:00;CYWG 051400Z 01020G26KT 15SM SCT020 05/M00 A3005 RMK SC4 SLP182

CYWG;2009-06-05 15:00;CYWG 051500Z 36019G25KT 15SM BKN026 06/00 A3006 RMK SC6 SLP188

CYWG;2009-06-05 16:00;CYWG 051600Z 35018KT 15SM BKN027 06/M00 A3008 RMK SC7 SLP194

CYWG;2009-06-05 17:00;CYWG 051700Z 01014G22KT 15SM BKN032 08/01 A3008 RMK SC7 SLP194

CYWG;2009-06-05 18:00;CYWG 051800Z 35012KT 15SM BKN032 07/01 A3009 RMK SC7 SLP198

CYWG;2009-06-05 19:00;CYWG 051900Z 35008G15KT 15SM BKN034 08/00 A3009 RMK SC6 SLP198

CYWG;2009-06-05 20:00;CYWG 052000Z 33009KT 15SM BKN036 09/00 A3009 RMK SC6 SLP197

CYWG;2009-06-05 21:00;CYWG 052100Z 34009G15KT 15SM BKN042 10/M00 A3008 RMK SC6 SLP194

CYWG;2009-06-05 22:00;CYWG 052200Z 34014KT 15SM BKN044 10/00 A3007 RMK SC6 SLP191

CYWG;2009-06-05 23:00;CYWG 052300Z 32010G15KT 15SM BKN044 10/M00 A3007 RMK SC6 SLP191

CYWG;2009-06-06 00:00;CYWG 060000Z 34011G20KT 15SM BKN046 09/M00 A3007 RMK SC5 SLP193

CYWG;2009-06-06 01:00;CYWG 060100Z 35010KT 15SM FEW046 BKN250 09/M01 A3008 RMK SC2CI1 SLP194

CYWG;2009-06-06 02:00;CYWG 060200Z 04009KT 15SM FEW046 SCT250 07/00 A3008 RMK SC2CI0 SLP195

CYWG;2009-06-06 03:00;CYWG 060300Z 05007KT 15SM FEW080 FEW250 03/00 A3009 RMK AC1CI0 SLP198

CYWG;2009-06-06 03:36;CYWG 060336Z 05006KT 15SM FEW080 FEW250 02/ RMK AC1CI1

CYWG;2009-06-06 04:00;CYWG 060400Z 04005KT 15SM FEW090 FEW250 02/M01 A3010 RMK AC1CI1 SLP202

CYWG;2009-06-06 05:00;CYWG 060500Z 01002KT 15SM SKC 01/M01 A3009 RMK SLP201

CYWG;2009-06-06 06:00;CYWG 060600Z 35005KT 15SM SKC M01/M03 A3009 RMK SLP202

CYWG;2009-06-06 07:00;CYWG 060700Z 36003KT 15SM FEW100 M02/M03 A3009 RMK AC1 FROIN SLP200

CYWG;2009-06-06 08:00;CYWG 060800Z CCA 32002KT 15SM FEW100 M02/M03 A3009 RMK AC1 FROIN SLP200

CYWG;2009-06-06 09:00;CYWG 060900Z 30004KT 15SM FEW040 M03/M04 A3009 RMK SC1 FROIN SLP200

CYWG;2009-06-06 10:00;CYWG 061000Z 31006KT 15SM FEW040 M02/M03 A3009 RMK SC1 FROIN SLP199

CYWG;2009-06-06 11:00;CYWG 061100Z 33005KT 15SM FEW032 M04/M05 A3008 RMK SC2 SLP198

CYWG;2009-06-06 12:00;CYWG 061200Z 00000KT 15SM BKN032 M01/M02 A3009 RMK SC6 SLP198

CYWG;2009-06-06 13:00;CYWG 061300Z 00000KT 15SM BKN028 03/01 A3010 RMK SC7 SLP202

CYWG;2009-06-06 14:00;CYWG 061400Z 05005KT 15SM BKN028 06/02 A3010 RMK SC7 SLP202

CYWG;2009-06-06 15:00;CYWG 061500Z 03006KT 15SM BKN026 BKN095 07/02 A3010 RMK SC6AC2 SLP202

CYWG;2009-06-06 16:00;CYWG 061600Z 14003KT 15SM OVC029 09/02 A3009 RMK SC8 SLP200

CYWG;2009-06-06 17:00;CYWG 061700Z 06006KT 15SM OVC031 09/01 A3008 RMK SC8 SLP196

CYWG;2009-06-06 18:00;CYWG 061800Z 13005KT 15SM SCT036 BKN110 BKN250 11/02 A3006 RMK CU3AC1CI1 SLP187

CYWG;2009-06-06 19:00;CYWG 061900Z 10008G16KT 15SM BKN038 BKN250 12/03 A3003 RMK CU5CI1 SLP178

CYWG;2009-06-06 20:00;CYWG 062000Z 07012KT 15SM SCT046 OVC240 13/02 A3001 RMK SC4CS2 SLP172

CYWG;2009-06-06 21:00;CYWG 062100Z 05010G15KT 15SM BKN045 BKN100 OVC240 13/04 A3001 RMK SC5AC1CS1 SLP172

CYWG;2009-06-06 22:00;CYWG 062200Z 05012G17KT 15SM SCT047 OVC240 13/04 A3001 RMK SC4CS2 SLP173

CYWG;2009-06-06 23:00;CYWG 062300Z 04013KT 15SM FEW047 BKN082 OVC240 12/03 A3002 RMK SC2AS2CS2 SLP174

CYWG;2009-06-07 00:00;CYWG 070000Z 05013KT 15SM FEW045 SCT080 OVC240 12/03 A3002 RMK SC2AS2CS4 SLP176

CYWG;2009-06-07 01:00;CYWG 070100Z 04014KT 15SM FEW045 SCT100 OVC220 11/04 A3003 RMK SC2AS2CS2 SLP179

CYWG;2009-06-07 02:00;CYWG 070200Z 05012KT 15SM FEW045 BKN097 OVC220 11/04 A3004 RMK SC1AS5CS2 SLP181

CYWG;2009-06-07 03:00;CYWG 070300Z 05010KT 15SM FEW100 OVC220 10/05 A3005 RMK AS2CS5 SLP183

CYWG;2009-06-07 04:00;CYWG 070400Z 05006KT 15SM SCT060 OVC110 09/05 A3006 RMK SC4AC4 SLP188

CYWG;2009-06-07 05:00;CYWG 070500Z 06006KT 15SM SCT060 OVC110 08/05 A3007 RMK SC4AC4 SLP189

CYWG;2009-06-07 06:00;CYWG 070600Z 06006KT 15SM BKN060 OVC110 09/04 A3007 RMK SC5AC3 SLP189

CYWG;2009-06-07 07:00;CYWG 070700Z 06007KT 15SM SCT056 OVC110 09/03 A3007 RMK SC4AC4 SLP189

CYWG;2009-06-07 08:00;CYWG 070800Z 07006KT 15SM SCT056 OVC110 08/03 A3007 RMK SC4AC4 SLP190

CYWG;2009-06-07 09:00;CYWG 070900Z 07005KT 15SM BKN056 OVC110 08/04 A3007 RMK SC5AC3 SLP188

CYWG;2009-06-07 10:00;CYWG 071000Z 06006KT 15SM BKN063 OVC110 08/04 A3007 RMK SC6AC2 SLP189

CYWG;2009-06-07 11:00;CYWG 071100Z 07005KT 15SM SCT065 BKN110 08/04 A3007 RMK SC3AC4 SLP188

CYWG;2009-06-07 12:00;CYWG 071200Z 08007KT 15SM FEW065 BKN110 09/04 A3007 RMK SC2AC6 SLP189

CYWG;2009-06-07 13:00;CYWG 071300Z 10008KT 15SM BKN110 10/04 A3009 RMK AC7 SLP194

CYWG;2009-06-07 14:00;CYWG 071400Z 09011KT 15SM BKN110 11/03 A3008 RMK AC7 SLP192

CYWG;2009-06-07 15:00;CYWG 071500Z 11008KT 15SM FEW040 BKN110 12/03 A3010 RMK CU1AC6 SLP198

CYWG;2009-06-07 16:00;CYWG 071600Z 09007KT 15SM FEW066 OVC110 13/03 A3009 RMK CU1AC7 SLP197

CYWG;2009-06-07 17:00;CYWG 071700Z 11010KT 15SM SCT050 OVC100 14/01 A3009 RMK CU3AC5 SLP197

CYWG;2009-06-07 18:00;CYWG 071800Z 12008KT 15SM BKN054 OVC100 14/02 A3009 RMK SC6AC2 SLP195

CYWG;2009-06-07 19:00;CYWG 071900Z 13010KT 15SM BKN056 OVC092 15/03 A3008 RMK SC6AC2 SLP192

CYWG;2009-06-07 20:00;CYWG 072000Z 10008KT 15SM BKN056 OVC090 15/03 A3008 RMK SC7AC1 SLP191

CYWG;2009-06-07 21:00;CYWG 072100Z 08011KT 15SM BKN056 BKN090 16/04 A3007 RMK SC6AC2 SLP187

CYWG;2009-06-07 22:00;CYWG 072200Z 05013KT 15SM BKN058 OVC099 16/03 A3006 RMK SC6AC2 SLP184

CYWG;2009-06-07 23:00;CYWG 072300Z 08011KT 15SM BKN065 BKN090 15/03 A3006 RMK SC5AC2 SLP184

CYWG;2009-06-08 00:00;CYWG 080000Z 05011KT 15SM BKN061 OVC095 15/03 A3006 RMK SC5AC3 SLP185

CYWG;2009-06-08 01:00;CYWG 080100Z 04014KT 15SM BKN066 OVC099 13/05 A3006 RMK AC6AC2 SLP185

CYWG;2009-06-08 01:27;CYWG 080127Z 04012KT 15SM -RA OVC060 13/ RMK SC8

CYWG;2009-06-08 02:00;CYWG 080200Z 04010KT 15SM -RA BKN038 OVC090 12/06 A3007 RMK SC6AC2 SLP189

CYWG;2009-06-08 02:20;CYWG 080220Z 04012KT 15SM BKN038 OVC090 12/ RMK SC6AC2

CYWG;2009-06-08 03:00;CYWG 080300Z 05009KT 15SM BKN054 BKN090 OVC260 12/06 A3007 RMK SC5AC2CI0 SLP188

CYWG;2009-06-08 04:00;CYWG 080400Z 07008KT 15SM BKN054 OVC090 12/05 A3008 RMK SC5AC2 SLP190

CYWG;2009-06-08 05:00;CYWG 080500Z 08007KT 15SM OVC059 12/05 A3007 RMK SC8 SLP188

CYWG;2009-06-08 06:00;CYWG 080600Z 06009KT 15SM BKN063 OVC090 11/05 A3005 RMK SC6AC2 SLP180

CYWG;2009-06-08 07:00;CYWG 080700Z 06008KT 15SM BKN064 OVC110 11/04 A3003 RMK SC6AC2 SLP174

CYWG;2009-06-08 08:00;CYWG 080800Z 05007KT 15SM OVC060 10/04 A3002 RMK SC8 SLP172

CYWG;2009-06-08 08:36;CYWG 080836Z 06007KT 15SM -RA OVC056 10/ RMK SC8

CYWG;2009-06-08 08:51;CYWG 080851Z 07007KT 15SM BKN056 OVC090 10/ RMK SC6AC2

CYWG;2009-06-08 09:00;CYWG 080900Z 08006KT 15SM BKN056 OVC090 10/04 A3001 RMK SC6AC2 SLP168

CYWG;2009-06-08 09:44;CYWG 080944Z 07007KT 15SM -RA BKN054 OVC090 10/ RMK SC7AC1

CYWG;2009-06-08 10:00;CYWG 081000Z 07008KT 15SM -RA BKN054 OVC090 10/04 A3000 RMK SC7AC1 SLP164

CYWG;2009-06-08 10:10;CYWG 081010Z 07008KT 15SM BKN054 OVC090 10/ RMK SC7AC1

CYWG;2009-06-08 11:00;CYWG 081100Z 07008KT 15SM FEW040 BKN056 OVC090 10/04 A3000 RMK SC1SC7AC1 SLP163

CYWG;2009-06-08 11:12;CYWG 081112Z 07008KT 15SM -SHRA FEW040 OVC056 10/ RMK SC1SC7

CYWG;2009-06-08 12:00;CYWG 081200Z 08009KT 15SM -SHRA SCT036 OVC056 10/05 A3000 RMK SC4SC4 SLP165

CYWG;2009-06-08 13:00;CYWG 081300Z 09006KT 15SM -SHRA FEW021 OVC047 10/06 A2999 RMK SC2SC6 SLP161

CYWG;2009-06-08 14:00;CYWG 081400Z 10005KT 9SM -SHRA BKN029 OVC043 10/07 A2999 RMK SC6SC2 BR SLP161

CYWG;2009-06-08 15:00;CYWG 081500Z 05006KT 9SM -SHRA BKN028 OVC036 10/07 A2999 RMK SC6SC2 BR SLP161

CYWG;2009-06-08 16:00;CYWG 081600Z 08006KT 8SM -SHRA BKN026 OVC076 10/08 A2999 RMK SC6AC2 BR SLP162

CYWG;2009-06-08 17:00;CYWG 081700Z 09006KT 6SM -SHRA BR OVC023 09/08 A2999 RMK SC8 SLP161

CYWG;2009-06-08 18:00;CYWG 081800Z 07011KT 6SM -SHRA BR BKN010 OVC021 10/09 A2997 RMK ST6SC2 CIG RAG SLP155

CYWG;2009-06-08 18:08;CYWG 081808Z 07009KT 6SM -SHRA BR BKN009 OVC021 10/ RMK ST7SC1 CIG RAG

CYWG;2009-06-08 18:26;CYWG 081826Z 06011G16KT 8SM -SHRA OVC011 10/ RMK ST8 BR CIG RAG

CYWG;2009-06-08 19:00;CYWG 081900Z 06010KT 7SM -RA BKN010 OVC040 10/09 A2995 RMK ST7SC1 BR SLP149

CYWG;2009-06-08 20:00;CYWG 082000Z 05011KT 7SM -RA OVC015 09/08 A2995 RMK ST8 BR SLP147

CYWG;2009-06-08 20:27;CYWG 082027Z 06011KT 6SM -RA OVC008 09/ RMK ST8 BR

CYWG;2009-06-08 20:48;CYWG 082048Z 06009KT 5SM -RA OVC014 09/ RMK ST8 BR

CYWG;2009-06-08 21:00;CYWG 082100Z 06013KT 4SM -RA OVC009 09/08 A2994 RMK ST8 BR SLP145

CYWG;2009-06-08 21:21;CYWG 082121Z 06014KT 4SM -RA OVC022 09/ RMK ST8 BR

CYWG;2009-06-08 22:00;CYWG 082200Z 07010KT 9SM -RA SCT009 OVC023 10/09 A2993 RMK SF4SC4 BR SLP143

CYWG;2009-06-08 23:00;CYWG 082300Z 08010KT 5SM -RA OVC009 09/08 A2992 RMK SF8 BR SLP139

CYWG;2009-06-09 00:00;CYWG 090000Z 08010KT 9SM -RA BKN010 OVC038 09/08 A2992 RMK SF7SC1 BR SLP137

CYWG;2009-06-09 00:41;CYWG 090041Z 08009KT 12SM -RA BKN009 OVC046 09/ RMK SF7SC1

CYWG;2009-06-09 01:00;CYWG 090100Z 09009KT 4SM -RA OVC008 09/08 A2992 RMK ST8 SLP137

CYWG;2009-06-09 01:14;CYWG 090114Z 09009KT 2SM -RA OVC008 09/ RMK ST8 BR

CYWG;2009-06-09 02:00;CYWG 090200Z 08008KT 2 1/2SM -RA OVC006 08/08 A2991 RMK ST8 BR SLP136

CYWG;2009-06-09 02:24;CYWG 090224Z 08009KT 7SM -RA BKN007 OVC023 08/ RMK ST7SC1 BR

CYWG;2009-06-09 03:00;CYWG 090300Z 08009KT 5SM -DZ BR BKN007 OVC021 08/08 A2991 RMK ST7SC1 SLP135

CYWG;2009-06-09 04:00;CYWG 090400Z 09006KT 6SM -DZ BR BKN005 OVC025 08/08 A2990 RMK ST7SC1 SLP133

CYWG;2009-06-09 04:22;CYWG 090422Z 08006KT 5SM -RA BR OVC004 08/ RMK ST8

CYWG;2009-06-09 04:50;CYWG 090450Z 09006KT 5SM -RA BR OVC006 08/ RMK ST8

CYWG;2009-06-09 05:00;CYWG 090500Z 09006KT 5SM -RA BR OVC005 08/08 A2990 RMK ST8 SLP130

CYWG;2009-06-09 06:00;CYWG 090600Z 09005KT 5SM -RA BR OVC005 08/08 A2989 RMK ST8 SLP127

CYWG;2009-06-09 07:00;CYWG 090700Z 08002KT 10SM OVC004 08/08 A2988 RMK ST8 SLP126

CYWG;2009-06-09 08:00;CYWG 090800Z 01003KT 10SM OVC003 08/08 A2988 RMK ST8 SLP124

CYWG;2009-06-09 09:00;CYWG 090900Z 34004KT 5SM BR OVC002 08/08 A2988 RMK ST8 SLP125

CYWG;2009-06-09 10:00;CYWG 091000Z 32004KT 5SM BR OVC002 08/08 A2988 RMK ST8 SLP124

CYWG;2009-06-09 11:00;CYWG 091100Z 31005KT 6SM BR OVC002 08/08 A2989 RMK ST8 SLP127

CYWG;2009-06-09 11:31;CYWG 091131Z 31006KT 3SM -DZ BR OVC002 RMK ST8

CYWG;2009-06-09 11:52;CYWG 091152Z 31008KT 6SM BR OVC003 08/ RMK ST7

CYWG;2009-06-09 12:00;CYWG 091200Z 31007KT 6SM BR OVC003 08/08 A2990 RMK ST8 SLP131

CYWG;2009-06-09 12:31;CYWG 091231Z 31007KT 12SM BKN006 RMK ST6 BR

CYWG;2009-06-09 13:00;CYWG 091300Z 32007KT 15SM BKN005 BKN078 09/08 A2990 RMK ST6AC1 SLP133

CYWG;2009-06-09 13:46;CYWG 091346Z 32009KT 15SM BKN010 10/ RMK ST7

CYWG;2009-06-09 14:00;CYWG 091400Z 34008KT 15SM OVC009 10/08 A2992 RMK SC7 SLP138

CYWG;2009-06-09 14:22;CYWG 091422Z 33008KT 15SM SCT011 OVC018 10/ RMK SC3SC4

CYWG;2009-06-09 14:45;CYWG 091445Z 32007KT 15SM BKN012 BKN035 10/ RMK SC5SC2

CYWG;2009-06-09 15:00;CYWG 091500Z 32009KT 15SM -SHRA BKN010 OVC027 10/08 A2992 RMK SC6SC2 CVCTV CLD EMBD SLP139

CYWG;2009-06-09 16:00;CYWG 091600Z 33010KT 15SM -SHRA BKN020 12/08 A2992 RMK SC7 CVCTV CLD EMBD SLP138

CYWG;2009-06-09 17:00;CYWG 091700Z 32008KT 15SM -SHRA OVC018 11/08 A2993 RMK SC7 CU ASOCTD SHRA VRY LGT SLP143

CYWG;2009-06-09 18:00;CYWG 091800Z 33010KT 15SM -SHRA BKN019 OVC042 13/07 A2994 RMK SC6SC2 CU ASOCTD SHRA VRY LGT SLP144

CYWG;2009-06-09 18:49;CYWG 091849Z 32015KT 15SM SCT016 BKN042 13/ RMK CU4SC2 SH NW - NE

CYWG;2009-06-09 19:00;CYWG 091900Z 32011G17KT 15SM SCT019 BKN046 13/08 A2993 RMK CU3SC2 SH N - NE SLP142

CYWG;2009-06-09 20:00;CYWG 092000Z 34013KT 15SM BKN026 13/08 A2993 RMK CU6 SLP142

CYWG;2009-06-09 21:00;CYWG 092100Z 31013KT 15SM BKN031 14/06 A2993 RMK CU6 SLP140

CYWG;2009-06-09 22:00;CYWG 092200Z 31009KT 15SM BKN038 13/07 A2993 RMK SC6 SLP141

CYWG;2009-06-09 23:00;CYWG 092300Z 34008KT 15SM FEW026 BKN052 13/07 A2993 RMK CU2SC3 SLP142

CYWG;2009-06-10 00:00;CYWG 100000Z 32010KT 15SM FEW031 BKN048 13/07 A2994 RMK CU2SC3 SLP144

CYWG;2009-06-10 01:00;CYWG 100100Z 34009KT 15SM FEW025 SCT053 BKN220 13/06 A2995 RMK CU2SC2CI1 SLP147

CYWG;2009-06-10 02:00;CYWG 100200Z 32005KT 15SM SCT047 BKN083 BKN220 12/07 A2994 RMK SC3AC2CI1 SLP144

CYWG;2009-06-10 03:00;CYWG 100300Z 32007KT 15SM FEW045 SCT085 BKN220 08/06 A2995 RMK SC1AC2CI0 SLP148

CYWG;2009-06-10 04:00;CYWG 100400Z 30005KT 15SM SCT025 BKN100 BKN220 07/06 A2996 RMK SC3AC2CI1 SLP152

CYWG;2009-06-10 05:00;CYWG 100500Z 28005KT 15SM FEW025 BKN100 BKN220 07/06 A2995 RMK SC2AC3CI1 SLP150

CYWG;2009-06-10 06:00;CYWG 100600Z 30006KT 15SM FEW100 BKN220 05/04 A2995 RMK AC2CI0 SLP148

CYWG;2009-06-10 07:00;CYWG 100700Z 32002KT 15SM FEW110 BKN220 04/03 A2994 RMK AC2CI1 SLP147

CYWG;2009-06-10 08:00;CYWG 100800Z 28005KT 15SM SCT070 BKN220 04/04 A2994 RMK AC4CI1 SLP147

CYWG;2009-06-10 09:00;CYWG 100900Z 29005KT 15SM FEW062 SCT099 05/04 A2994 RMK SC2AC2 SLP146

CYWG;2009-06-10 10:00;CYWG 101000Z 29006KT 15SM FEW058 SCT099 05/04 A2993 RMK SC2AC1 SLP144

CYWG;2009-06-10 11:00;CYWG 101100Z 30003KT 15SM BKN051 BKN092 06/06 A2994 RMK SC6AC1 SLP146

CYWG;2009-06-10 12:00;CYWG 101200Z 27002KT 15SM BKN033 BKN090 07/07 A2994 RMK SC6AC1 SLP146

CYWG;2009-06-10 13:00;CYWG 101300Z 29004KT 15SM BKN043 OVC090 09/08 A2995 RMK SC7AC1 SLP149

CYWG;2009-06-10 13:24;CYWG 101324Z 30004KT 15SM -SHRA FEW024 BKN052 BKN090 10/ RMK SF2SC5AC1

CYWG;2009-06-10 14:00;CYWG 101400Z 32011KT 15SM FEW016 OVC026 10/07 A2996 RMK SF2SC6 OBS TKN +07 SLP151

CYWG;2009-06-10 15:00;CYWG 101500Z 31006KT 15SM -SHRA OVC035 11/08 A2996 RMK SC8 SLP152

CYWG;2009-06-10 16:00;CYWG 101600Z 31007KT 15SM -SHRA SCT012 BKN056 11/08 A2995 RMK CF3SC4 SLP148

CYWG;2009-06-10 16:42;CYWG 101642Z 30006KT 15SM BKN019 12/ RMK SC7

CYWG;2009-06-10 17:00;CYWG 101700Z 31012KT 15SM BKN021 12/07 A2993 RMK SC7 SLP144

CYWG;2009-06-10 17:07;CYWG 101707Z 30013G19KT 15SM -SHRA SCT015 BKN026 12/ RMK SC3SC4 CVCTV CLD EMBD

CYWG;2009-06-10 17:48;CYWG 101748Z 32007G15KT 15SM BKN034 14/ RMK SC6

CYWG;2009-06-10 18:00;CYWG 101800Z 30009KT 15SM BKN031 13/06 A2992 RMK SC6 SLP139

CYWG;2009-06-10 19:00;CYWG 101900Z 30013KT 15SM VCSH BKN036 15/07 A2991 RMK CU6 SLP137

CYWG;2009-06-10 20:00;CYWG 102000Z 34015G21KT 15SM VCSH BKN036 13/08 A2992 RMK CU6 SLP140

CYWG;2009-06-10 21:00;CYWG 102100Z 34013G19KT 15SM VCSH BKN035 14/06 A2992 RMK CU6 SLP138

CYWG;2009-06-10 22:00;CYWG 102200Z 03013KT 15SM VCSH BKN032 15/08 A2993 RMK CU6 SLP142

CYWG;2009-06-10 22:20;CYWG 102220Z 03010G15KT 15SM -SHRA BKN032 11/ RMK CU6 TCU ASOCTD

CYWG;2009-06-10 23:00;CYWG 102300Z 04010KT 15SM -SHRA FEW018 BKN032 12/10 A2993 RMK SC2CU5 SLP143

CYWG;2009-06-10 23:49;CYWG 102349Z 04010KT 15SM VCSH BKN038 13/ RMK CU6

CYWG;2009-06-11 00:00;CYWG 110000Z 05009KT 15SM VCSH SCT038 BKN054 13/08 A2993 RMK CU4SC2 SLP142

CYWG;2009-06-11 01:00;CYWG 110100Z 01004KT 15SM SCT038 BKN051 12/09 A2994 RMK SC2SC3 SLP145

CYWG;2009-06-11 02:00;CYWG 110200Z 03003KT 15SM BKN065 11/09 A2995 RMK SC4 SLP147

CYWG;2009-06-11 03:00;CYWG 110300Z 03003KT 15SM SCT065 11/09 A2996 RMK SC4 SLP151

CYWG;2009-06-11 04:00;CYWG 110400Z 03005KT 15SM FEW062 08/07 A2996 RMK SC2 SLP152

CYWG;2009-06-11 05:00;CYWG 110500Z 00000KT 15SM FEW069 07/07 A2996 RMK AC1 SLP153

CYWG;2009-06-11 06:00;CYWG 110600Z 29004KT 15SM SKC 04/M01 A2996 RMK SLP153

CYWG;2009-06-11 07:00;CYWG 110700Z 25005KT 15SM SKC 06/06 A2997 RMK SLP155

CYWG;2009-06-11 08:00;CYWG 110800Z 30002KT 15SM BKN067 07/07 A2997 RMK AC6 SLP157

CYWG;2009-06-11 09:00;CYWG 110900Z 27004KT 15SM BKN059 07/07 A2996 RMK SC7 SLP153

CYWG;2009-06-11 10:00;CYWG 111000Z 30004KT 15SM SCT059 04/04 A2997 RMK SC4 SLP154

CYWG;2009-06-11 11:00;CYWG 111100Z 30005KT 15SM FEW070 BKN230 05/05 A2997 RMK AC2CI1 SLP154

CYWG;2009-06-11 12:00;CYWG 111200Z 00000KT 15SM FEW070 SCT230 08/06 A2998 RMK AC2CI1 SLP158

CYWG;2009-06-11 13:00;CYWG 111300Z CCA 00000KT 15SM FEW070 SCT230 10/07 A2998 RMK AC1CI2 SLP159

CYWG;2009-06-11 14:00;CYWG 111400Z CCA 00000KT 15SM FEW070 SCT230 13/08 A2998 RMK AC1CI1 ACC ASOCTD SLP159

CYWG;2009-06-11 15:00;CYWG 111500Z 00000KT 15SM FEW035 SCT230 14/07 A2997 RMK CU2CI1 SLP154

CYWG;2009-06-11 16:00;CYWG 111600Z 30003KT 15SM BKN037 15/05 A2996 RMK CU6 SLP150

CYWG;2009-06-11 17:00;CYWG 111700Z 30002KT 15SM BKN040 15/06 A2995 RMK CU6 SH E SLP147

CYWG;2009-06-11 18:00;CYWG 111800Z 11005KT 15SM BKN048 16/04 A2994 RMK CU6 SLP145

CYWG;2009-06-11 19:00;CYWG 111900Z 03002KT 15SM BKN054 17/03 A2993 RMK CU6 SLP140

CYWG;2009-06-11 20:00;CYWG 112000Z 00000KT 15SM BKN057 17/03 A2992 RMK CU7 SLP138

CYWG;2009-06-11 21:00;CYWG 112100Z 22008KT 15SM BKN060 BKN230 18/05 A2990 RMK CU6CI0 SLP132

CYWG;2009-06-11 22:00;CYWG 112200Z 27004KT 15SM VCSH BKN060 BKN230 18/04 A2990 RMK CU6CI0 SH S-SW SLP129

CYWG;2009-06-11 23:00;CYWG 112300Z 21010KT 15SM VCSH SCT063 BKN084 BKN230 18/06 A2989 RMK CU2AC2CI0 SH SE-SW SLP127

CYWG;2009-06-12 00:00;CYWG 120000Z 19007KT 15SM SCT095 SCT250 18/07 A2988 RMK AC1CI1 SLP123

CYWG;2009-06-12 01:00;CYWG 120100Z 18005KT 15SM VCSH SCT082 BKN250 16/07 A2987 RMK AC2CI3 SH S W SLP121

CYWG;2009-06-12 01:32;CYWG 120132Z 29008KT 15SM -SHRA SCT045 BKN085 BKN250 14/ RMK SC2AC3CI1

CYWG;2009-06-12 02:00;CYWG 120200Z 29007KT 12SM -SHRA FEW040 SCT078 BKN095 BKN250 13/10 A2989 RMK CF1AC2AC3CI1 SLP125

CYWG;2009-06-12 02:40;CYWG 120240Z 33004KT 15SM SCT038 BKN095 12/ RMK CU2AC2

CYWG;2009-06-12 03:00;CYWG 120300Z 36002KT 15SM SCT041 BKN096 12/09 A2987 RMK CU3AC1 SLP121

CYWG;2009-06-12 04:00;CYWG 120400Z 20005KT 15SM BKN090 11/10 A2988 RMK AC6 SLP122

CYWG;2009-06-12 05:00;CYWG 120500Z 27003KT 15SM BKN061 11/09 A2989 RMK SC6 SLP126

CYWG;2009-06-12 06:00;CYWG 120600Z 24003KT 15SM FEW060 09/09 A2988 RMK SC2 SLP124

CYWG;2009-06-12 07:00;CYWG 120700Z 18004KT 15SM SKC 08/07 A2987 RMK SLP120

CYWG;2009-06-12 08:00;CYWG 120800Z 19004KT 15SM MIFG FEW090 07/07 A2986 RMK AC1 SLP116

CYWG;2009-06-12 09:00;CYWG 120900Z 22005KT 5/8SM R13/P6000FT/N R36/1800FT/N BR SKC 08/08 A2986 RMK FG1 SLP115

CYWG;2009-06-12 10:00;CYWG 121000Z 18005KT 5/8SM R13/P6000FT/D R36/1200V2000FT/U BR FEW080 06/05 A2985 RMK FG1AC1 SLP113

CYWG;2009-06-12 10:34;CYWG 121034Z 18005KT 3/4SM R13/4000V5500FT/N R36/1200FT/N BR FEW080 06/ RMK FG1AC1

CYWG;2009-06-12 10:46;CYWG 121046Z 19005KT 1SM R13/P6000FT/U R36/1600FT/N BR FEW080 06/ RMK FG1AC1

CYWG;2009-06-12 11:00;CYWG 121100Z 18005KT 1SM R13/P6000FT/N R36/1400FT/N BR FEW080 06/06 A2985 RMK FG1AC1 SLP114

CYWG;2009-06-12 11:43;CYWG 121143Z 18005KT 2SM R36/3000VP6000FT/U BR FEW080 FEW250 07/ RMK FG1AC1CI1

CYWG;2009-06-12 12:00;CYWG 121200Z 20004KT 3SM BR FEW080 FEW250 09/09 A2985 RMK FG1AC1CI1 SLP114

CYWG;2009-06-12 13:00;CYWG 121300Z 21004KT 10SM BKN080 11/10 A2986 RMK AC6 BR SLP115

CYWG;2009-06-12 14:00;CYWG 121400Z 19002KT 15SM BKN093 13/09 A2986 RMK AC6 SLP116

CYWG;2009-06-12 15:00;CYWG 121500Z 18007KT 15SM BKN083 14/10 A2985 RMK AC7 SLP113

CYWG;2009-06-12 16:00;CYWG 121600Z 18011KT 15SM BKN079 16/10 A2983 RMK AC6 SLP105

CYWG;2009-06-12 17:00;CYWG 121700Z 18014KT 15SM SCT098 19/09 A2981 RMK AC3 SLP100

CYWG;2009-06-12 18:00;CYWG 121800Z 19015G20KT 15SM FEW032 SCT078 21/09 A2979 RMK CU1AC2 SLP091

CYWG;2009-06-12 18:45;CYWG 121845Z 25013G19KT 15SM -SHRA SCT064 BKN081 21/ RMK SC3AC4

CYWG;2009-06-12 19:00;CYWG 121900Z 25008G16KT 15SM FEW007 BKN060 BKN095 21/10 A2978 RMK CF1SC5AC2 OCNL -SHRA SLP088

CYWG;2009-06-12 19:14;CYWG 121914Z 24013G19KT 15SM VCSH FEW007 SCT060 BKN096 RMK CF1SC2AC2 TR CF SH E

CYWG;2009-06-12 20:00;CYWG 122000Z CCA 27015KT 15SM VCSH FEW041 SCT060 BKN230 24/10 A2977 RMK CU1SC2CI2 CB EMBD SE SLP083

CYWG;2009-06-12 21:00;CYWG 122100Z 28013G21KT 15SM FEW060 BKN110 BKN250 23/09 A2977 RMK CU2AC3CI1 TR CI CB EMBD SE SLP083

CYWG;2009-06-12 22:00;CYWG 122200Z 31015KT 15SM -SHRA BKN072 BKN093 BKN250 21/07 A2979 RMK AC5AC1CI0 SLP091

CYWG;2009-06-12 22:21;CYWG 122221Z 31019KT 15SM VCSH BKN072 BKN093 BKN250 17/ RMK AC5AC1CI0 SH N

CYWG;2009-06-12 23:00;CYWG 122300Z 35011KT 15SM FEW071 FEW090 SCT250 21/10 A2980 RMK AC1AC2CI1 CB EMBD DIST SW SLP093

CYWG;2009-06-13 00:00;CYWG 130000Z 31007KT 15SM FEW070 BKN120 BKN250 20/09 A2980 RMK AC2AC3CI1 SLP094

CYWG;2009-06-13 01:00;CYWG 130100Z 29010KT 15SM -SHRA FEW085 BKN120 BKN250 18/09 A2982 RMK AC2AC4CI1 SLP101

CYWG;2009-06-13 01:54;CYWG 130154Z 30009KT 15SM VCSH BKN087 BKN250 17/ RMK AC5CI1 SH E

CYWG;2009-06-13 02:00;CYWG 130200Z 30008KT 15SM VCSH BKN087 BKN250 17/10 A2982 RMK AC5CI1 SH E SLP102

CYWG;2009-06-13 03:00;CYWG 130300Z 30008KT 15SM BKN100 16/10 A2983 RMK AC6 SLP106

CYWG;2009-06-13 04:00;CYWG 130400Z 30008KT 15SM SCT100 12/09 A2984 RMK AC4 SLP109

CYWG;2009-06-13 05:00;CYWG 130500Z 30008KT 15SM SCT100 12/09 A2986 RMK AC3 SLP113

CYWG;2009-06-13 06:00;CYWG 130600Z 34006KT 15SM SCT100 12/09 A2986 RMK AC4 SLP115

CYWG;2009-06-13 07:00;CYWG 130700Z 03005KT 15SM SCT100 12/09 A2987 RMK AC4 SLP119

CYWG;2009-06-13 08:00;CYWG 130800Z 02003KT 15SM BKN100 10/07 A2989 RMK AC6 SLP124

CYWG;2009-06-13 09:00;CYWG 130900Z 03007KT 15SM BKN100 10/07 A2990 RMK AC6 SLP126

CYWG;2009-06-13 10:00;CYWG 131000Z 01004KT 15SM BKN100 09/08 A2991 RMK AC5 SLP132

CYWG;2009-06-13 11:00;CYWG 131100Z 00000KT 15SM FEW100 08/07 A2993 RMK AC1 SLP138

CYWG;2009-06-13 12:00;CYWG 131200Z 35002KT 15SM FEW100 10/09 A2995 RMK ACC1 SLP147

CYWG;2009-06-13 12:44;CYWG 131244Z 04007KT 15SM FEW003 FEW078 12/ RMK ST1AC2

CYWG;2009-06-13 13:00;CYWG 131300Z 04008KT 15SM FEW005 SCT078 12/10 A2996 RMK ST1AC3 SLP151

CYWG;2009-06-13 13:27;CYWG 131327Z 03008KT 15SM BKN004 BKN078 10/ RMK SF6AC1

CYWG;2009-06-13 14:00;CYWG 131400Z 03004KT 15SM BKN006 BKN090 12/10 A2998 RMK SF3AC2 SLP155

CYWG;2009-06-13 14:42;CYWG 131442Z 05005KT 15SM FEW011 SCT067 13/ RMK SF1AC2

CYWG;2009-06-13 15:00;CYWG 131500Z 04007KT 15SM FEW012 FEW067 14/10 A2998 RMK CF1AC2 SLP157

CYWG;2009-06-13 16:00;CYWG 131600Z 03006KT 15SM FEW022 15/10 A2998 RMK SC2 SLP157

CYWG;2009-06-13 17:00;CYWG 131700Z 01005KT 15SM FEW029 16/09 A2998 RMK CU1 SLP156

CYWG;2009-06-13 18:00;CYWG 131800Z 03008KT 15SM FEW035 18/09 A2998 RMK CU1 SLP156

CYWG;2009-06-13 19:00;CYWG 131900Z 33012G17KT 15SM FEW053 19/07 A2998 RMK CU2 SLP155

CYWG;2009-06-13 20:00;CYWG 132000Z 35007G15KT 15SM FEW048 20/08 A2996 RMK CU2 SLP149

CYWG;2009-06-13 21:00;CYWG 132100Z 30009G16KT 15SM FEW060 20/01 A2995 RMK CU1 SLP146

CYWG;2009-06-13 22:00;CYWG 132200Z 34013G19KT 15SM FEW060 20/06 A2996 RMK SC1 SLP149

CYWG;2009-06-13 23:00;CYWG 132300Z 31011KT 15SM FEW060 20/03 A2995 RMK SC1 SLP147

CYWG;2009-06-14 00:00;CYWG 140000Z 35011KT 15SM SKC 19/04 A2995 RMK SLP146

CYWG;2009-06-14 01:00;CYWG 140100Z 05009KT 15SM SKC 18/09 A2995 RMK SLP147

CYWG;2009-06-14 02:00;CYWG 140200Z 06008KT 15SM SKC 15/09 A2996 RMK SLP149

CYWG;2009-06-14 03:00;CYWG 140300Z 08006KT 15SM SKC 12/07 A2997 RMK SLP153

CYWG;2009-06-14 04:00;CYWG 140400Z 05003KT 15SM SKC 10/07 A2997 RMK SLP155

CYWG;2009-06-14 05:00;CYWG 140500Z 08003KT 15SM SKC 09/07 A2998 RMK SLP156

CYWG;2009-06-14 06:00;CYWG 140600Z 08004KT 15SM SKC 09/07 A2998 RMK SLP157

CYWG;2009-06-14 07:00;CYWG 140700Z 09003KT 15SM SKC 07/06 A2998 RMK SLP158

CYWG;2009-06-14 08:00;CYWG 140800Z 00000KT 15SM SKC 06/05 A2998 RMK SLP157

CYWG;2009-06-14 09:00;CYWG 140900Z 10004KT 15SM SKC 04/03 A2998 RMK SLP157

CYWG;2009-06-14 10:00;CYWG 141000Z 23005KT 15SM SKC 04/04 A3000 RMK SLP163

CYWG;2009-06-14 11:00;CYWG 141100Z 20005KT 15SM SKC 07/05 A3003 RMK SLP172

CYWG;2009-06-14 12:00;CYWG 141200Z 12002KT 15SM SKC 10/08 A3001 RMK SLP167

CYWG;2009-06-14 13:00;CYWG 141300Z 15005KT 15SM SKC 13/08 A3002 RMK SLP170

CYWG;2009-06-14 14:00;CYWG 141400Z 16003KT 15SM SKC 16/08 A3002 RMK SLP168

CYWG;2009-06-14 15:00;CYWG 141500Z 12005KT 15SM SKC 18/06 A3001 RMK SLP166

CYWG;2009-06-14 16:00;CYWG 141600Z 00000KT 15SM SKC 19/07 A3001 RMK SLP165

CYWG;2009-06-14 17:00;CYWG 141700Z 12002KT 15SM SKC 21/07 A2999 RMK SLP161

CYWG;2009-06-14 18:00;CYWG 141800Z 16004KT 15SM SKC 22/02 A2998 RMK SLP157

CYWG;2009-06-14 19:00;CYWG 141900Z 34005KT 15SM SKC 23/08 A2997 RMK SLP154

CYWG;2009-06-14 20:00;CYWG 142000Z 09004KT 15SM FEW150 23/05 A2996 RMK AC1 SLP151

CYWG;2009-06-14 21:00;CYWG 142100Z 00000KT 15SM FEW150 24/06 A2995 RMK AC1 SLP146

CYWG;2009-06-14 22:00;CYWG 142200Z 17007KT 15SM FEW150 25/08 A2993 RMK AC1 SLP140

CYWG;2009-06-14 23:00;CYWG 142300Z 13007KT 15SM FEW140 25/07 A2991 RMK AC1 SLP132

CYWG;2009-06-15 00:00;CYWG 150000Z 18005KT 15SM SKC 25/08 A2990 RMK SLP127

CYWG;2009-06-15 01:00;CYWG 150100Z 16007KT 15SM SKC 24/08 A2989 RMK SLP124

CYWG;2009-06-15 02:00;CYWG 150200Z 16009KT 15SM SKC 21/08 A2989 RMK SLP123

CYWG;2009-06-15 03:00;CYWG 150300Z 16009KT 15SM FEW150 19/08 A2989 RMK AC1 SLP124

CYWG;2009-06-15 04:00;CYWG 150400Z 16007KT 15SM FEW150 17/08 A2990 RMK AC1 SLP125

CYWG;2009-06-15 05:00;CYWG 150500Z 17007KT 15SM FEW150 16/08 A2990 RMK AC1 SLP128

CYWG;2009-06-15 06:00;CYWG 150600Z 18009KT 15SM SKC 15/08 A2990 RMK SLP127

CYWG;2009-06-15 07:00;CYWG 150700Z 18008KT 15SM FEW150 15/07 A2991 RMK AC1 SLP129

CYWG;2009-06-15 08:00;CYWG 150800Z 18009KT 15SM FEW230 15/07 A2990 RMK CI0 SLP126

CYWG;2009-06-15 09:00;CYWG 150900Z 19009KT 15SM FEW150 FEW230 15/07 A2990 RMK AC1CI0 SLP126

CYWG;2009-06-15 10:00;CYWG 151000Z 19010KT 15SM FEW230 14/07 A2989 RMK CI1 SLP124

CYWG;2009-06-15 11:00;CYWG 151100Z 19007KT 15SM FEW120 FEW230 14/08 A2989 RMK AC1CI1 SLP122

CYWG;2009-06-15 12:00;CYWG 151200Z 19010KT 15SM FEW091 FEW230 16/08 A2989 RMK AC1CI1 SLP121

CYWG;2009-06-15 13:00;CYWG 151300Z 18006KT 15SM FEW090 FEW230 18/10 A2989 RMK AC1CI1 SLP121

CYWG;2009-06-15 14:00;CYWG 151400Z 19006KT 15SM FEW090 FEW230 21/11 A2988 RMK AC1CI1 SLP120

CYWG;2009-06-15 15:00;CYWG 151500Z 19009KT 15SM FEW093 FEW230 23/13 A2989 RMK AC1CI1 SLP123

CYWG;2009-06-15 16:00;CYWG 151600Z 19010KT 15SM FEW095 FEW230 26/12 A2988 RMK AC1CI1 SLP120

CYWG;2009-06-15 17:00;CYWG 151700Z 19014KT 15SM FEW060 SCT230 28/13 A2987 RMK CU2CI2 SLP117

CYWG;2009-06-15 18:00;CYWG 151800Z 18014G20KT 15SM FEW070 BKN230 28/10 A2987 RMK CU2CI2 SLP113

CYWG;2009-06-15 19:00;CYWG 151900Z 20015KT 15SM FEW082 BKN230 29/10 A2986 RMK CU2CI3 SLP110

CYWG;2009-06-15 20:00;CYWG 152000Z 20013G22KT 15SM FEW077 SCT130 BKN230 28/12 A2986 RMK CU2AC2CI3 SLP111

CYWG;2009-06-15 21:00;CYWG 152100Z 18013G21KT 15SM FEW077 BKN210 29/10 A2985 RMK CU1CI5 SLP107

CYWG;2009-06-15 22:00;CYWG 152200Z 18014G20KT 15SM FEW074 BKN220 28/11 A2984 RMK CU1CI5 SLP105

CYWG;2009-06-15 23:00;CYWG 152300Z 19012KT 15SM FEW083 FEW140 BKN230 28/12 A2983 RMK CU1AC1CI4 SLP103

CYWG;2009-06-16 00:00;CYWG 160000Z 23010KT 15SM FEW070 FEW140 BKN230 26/13 A2984 RMK CU1AC1CI4 SLP106

CYWG;2009-06-16 01:00;CYWG 160100Z 23010G15KT 15SM FEW070 FEW140 BKN230 A2986 RMK AC1AC1CI3 OBS TAKEN +14 SLP112

CYWG;2009-06-16 02:00;CYWG 160200Z 23005KT 15SM FEW070 FEW140 BKN230 23/12 A2985 RMK AC1AC1CI2 TCU DIST SE SLP110

CYWG;2009-06-16 03:00;CYWG 160300Z 00000KT 15SM FEW070 FEW140 BKN230 18/12 A2987 RMK AC1AC2CI1 TCU DIST SE SLP114

CYWG;2009-06-16 04:00;CYWG 160400Z 15006KT 15SM FEW065 SCT140 BKN230 18/11 A2987 RMK SC2AC2CI1 SLP117

CYWG;2009-06-16 05:00;CYWG 160500Z 17003KT 15SM FEW140 BKN230 19/11 A2987 RMK AC2CI1 SLP115

CYWG;2009-06-16 06:00;CYWG 160600Z 15003KT 15SM FEW140 BKN230 18/11 A2987 RMK AC2CI1 SLP114

CYWG;2009-06-16 07:00;CYWG 160700Z 15007KT 15SM FEW140 FEW250 16/12 A2986 RMK AC1CI1 SLP112

CYWG;2009-06-16 08:00;CYWG 160800Z 15006KT 15SM SCT130 BKN250 16/12 A2986 RMK AC3CI1 SLP111

CYWG;2009-06-16 09:00;CYWG 160900Z 11005KT 15SM FEW033 BKN094 17/13 A2987 RMK SC2AC6 SLP113

CYWG;2009-06-16 10:00;CYWG 161000Z 12006KT 15SM FEW065 BKN078 16/13 A2987 RMK SC2AC6 SLP113

CYWG;2009-06-16 11:00;CYWG 161100Z 16005KT 15SM SCT065 BKN072 17/13 A2988 RMK SC3AC4 SLP118

CYWG;2009-06-16 12:00;CYWG 161200Z 14004KT 15SM FEW065 BKN110 17/13 A2988 RMK SC2AC4 SLP118

CYWG;2009-06-16 13:00;CYWG 161300Z 12005KT 15SM FEW080 FEW140 20/14 A2988 RMK AC2AC1 SLP117

CYWG;2009-06-16 14:00;CYWG 161400Z 13009KT 15SM FEW093 SCT140 22/15 A2988 RMK AC2AC2 SLP118

CYWG;2009-06-16 15:00;CYWG 161500Z 14010KT 15SM FEW140 FEW230 25/14 A2987 RMK AC1CI1 SLP115

CYWG;2009-06-16 16:00;CYWG 161600Z 17009G16KT 15SM FEW048 FEW230 26/14 A2987 RMK CU1CI1 SLP113

CYWG;2009-06-16 17:00;CYWG 161700Z 16014KT 15SM FEW056 SCT230 27/13 A2985 RMK CU2CI0 SLP108

CYWG;2009-06-16 18:00;CYWG 161800Z 16016KT 15SM FEW065 SCT230 27/12 A2985 RMK CU2CI0 SLP107

CYWG;2009-06-16 19:00;CYWG 161900Z 16014KT 15SM SCT064 SCT230 28/13 A2983 RMK CU3CI0 SLP103

CYWG;2009-06-16 20:00;CYWG 162000Z 17013G24KT 15SM SCT066 SCT230 28/14 A2982 RMK CU3CI0 SLP099

CYWG;2009-06-16 21:00;CYWG 162100Z 16014G19KT 15SM BKN066 28/14 A2981 RMK CU6 SLP094

CYWG;2009-06-16 21:12;CYWG 162112Z 16017KT 15SM -SHRA BKN063 26/ RMK CU6 TCU ASOCTD

CYWG;2009-06-16 21:36;CYWG 162136Z CCA 16011G17KT 15SM BKN067 BKN230 24/ RMK CU6CI0

CYWG;2009-06-16 22:00;CYWG 162200Z 18019KT 15SM BKN063 BKN230 24/14 A2982 RMK CU5CI1 SHWRS DIST NW SLP097

CYWG;2009-06-16 23:00;CYWG 162300Z 16017G25KT 15SM SCT065 BKN230 24/14 A2983 RMK CU4CI0 SLP100

CYWG;2009-06-17 00:00;CYWG 170000Z 17018G24KT 15SM FEW060 FEW088 BKN230 22/13 A2984 RMK CU1AC2CI2 SLP106

CYWG;2009-06-17 01:00;CYWG 170100Z 15015KT 15SM FEW090 BKN230 21/13 A2985 RMK AC2CI1 SLP109

CYWG;2009-06-17 02:00;CYWG 170200Z 14015KT 15SM BKN046 19/13 A2985 RMK SC6 SLP109

CYWG;2009-06-17 03:00;CYWG 170300Z 15012G17KT 15SM OVC029 19/13 A2985 RMK SC8 SLP107

CYWG;2009-06-17 04:00;CYWG 170400Z 15012G20KT 15SM FEW029 BKN084 BKN230 18/14 A2983 RMK SC2AC2CI0 SLP102

CYWG;2009-06-17 05:00;CYWG 170500Z 15009KT 15SM SKC 17/13 A2983 RMK SLP103

CYWG;2009-06-17 06:00;CYWG 170600Z 14009KT 15SM FEW046 17/14 A2983 RMK SC2 SLP102

CYWG;2009-06-17 07:00;CYWG 170700Z 13007KT 15SM SCT050 16/13 A2982 RMK SC2 SLP099

CYWG;2009-06-17 08:00;CYWG 170800Z 14008KT 15SM SCT050 BKN063 17/14 A2982 RMK SC3SC2 SLP097

CYWG;2009-06-17 09:00;CYWG 170900Z 16009KT 15SM SCT050 OVC072 17/14 A2981 RMK SC3AC4 SLP096

CYWG;2009-06-17 10:00;CYWG 171000Z 16009KT 15SM SCT049 OVC075 17/14 A2980 RMK SC4AC2 SLP093

CYWG;2009-06-17 11:00;CYWG 171100Z 16009KT 15SM SCT034 OVC051 17/15 A2980 RMK SC4SC2 SLP093

CYWG;2009-06-17 12:00;CYWG 171200Z 16006KT 15SM BKN036 OVC050 17/15 A2981 RMK SC6SC1 SLP096

CYWG;2009-06-17 13:00;CYWG 171300Z 17007KT 15SM OVC036 18/16 A2982 RMK SC7 SLP098

CYWG;2009-06-17 14:00;CYWG 171400Z 19011KT 10SM SCT014 OVC038 19/16 A2981 RMK SC4SC4 HZ SLP096

CYWG;2009-06-17 15:00;CYWG 171500Z 17008KT 10SM FEW018 BKN055 OVC094 20/17 A2980 RMK SC2SC4AC1 HZ SLP093

CYWG;2009-06-17 16:00;CYWG 171600Z 17010G15KT 10SM BKN016 OVC055 20/16 A2981 RMK SC6SC2 HZ SLP095

CYWG;2009-06-17 17:00;CYWG 171700Z 17010KT 10SM BKN016 OVC066 20/16 A2980 RMK SC6AC2 HZ SLP092

CYWG;2009-06-17 18:00;CYWG 171800Z 16010KT 10SM BKN016 OVC068 21/17 A2979 RMK SC6AC2 HZ SLP089

CYWG;2009-06-17 19:00;CYWG 171900Z 16011KT 10SM BKN022 BKN063 24/15 A2977 RMK SC5SC2 HZ SLP082

CYWG;2009-06-17 20:00;CYWG 172000Z 17010KT 12SM BKN029 BKN066 24/15 A2976 RMK CU6AC1 HZ SLP078

CYWG;2009-06-17 21:00;CYWG 172100Z 17007G15KT 15SM BKN038 BKN060 24/14 A2974 RMK CU6SC1 FEW TCU SLP073

CYWG;2009-06-17 22:00;CYWG 172200Z 15011KT 15SM BKN041 BKN100 26/15 A2973 RMK CU5AC0 FEW TCU SLP067

CYWG;2009-06-17 23:00;CYWG 172300Z 19011KT 15SM BKN043 24/14 A2971 RMK CU6 FEW TCU SLP062

CYWG;2009-06-18 00:00;CYWG 180000Z 17012KT 15SM SCT045 BKN083 23/15 A2971 RMK CU3AC2 SLP061

CYWG;2009-06-18 01:00;CYWG 180100Z 16012KT 15SM FEW034 SCT071 BKN250 22/15 A2970 RMK CU2AC2CI0 SLP057

CYWG;2009-06-18 02:00;CYWG 180200Z 17008KT 15SM FEW080 SCT250 21/15 A2970 RMK AC2CI0 SLP060

CYWG;2009-06-18 03:00;CYWG 180300Z 15009KT 15SM FEW090 SCT250 20/15 A2970 RMK AC2CI0 SLP059

CYWG;2009-06-18 04:00;CYWG 180400Z 16008KT 15SM FEW090 SCT250 18/15 A2970 RMK AC2CI0 SLP059

CYWG;2009-06-18 05:00;CYWG 180500Z 16008KT 15SM FEW090 FEW250 18/15 A2968 RMK AC2CI0 SLP053

CYWG;2009-06-18 06:00;CYWG 180600Z 17007KT 15SM FEW090 FEW250 17/15 A2968 RMK AC1CI0 SLP053

CYWG;2009-06-18 07:00;CYWG 180700Z 17007KT 10SM FEW090 FEW250 17/15 A2966 RMK AC1CI0 SLP044

CYWG;2009-06-18 08:00;CYWG 180800Z 19010KT 10SM FEW090 FEW250 17/15 A2965 RMK AC1CI0 SLP042

CYWG;2009-06-18 09:00;CYWG 180900Z 18005KT 8SM FEW090 FEW250 16/14 A2964 RMK AC1CI0 SLP039

CYWG;2009-06-18 09:41;CYWG 180941Z 17006KT 4SM BR FEW005 16/ RMK ST2

CYWG;2009-06-18 10:00;CYWG 181000Z 17007KT 3SM BR SCT004 16/14 A2964 RMK SC3 SLP039

CYWG;2009-06-18 10:12;CYWG 181012Z 17006KT 3SM BR BKN004 16/ RMK SC6

CYWG;2009-06-18 10:43;CYWG 181043Z 16006KT 3SM BR SCT005 BKN250 16/ RMK SF3CI1

CYWG;2009-06-18 11:00;CYWG 181100Z 15006KT 3SM BR FEW004 BKN250 16/15 A2964 RMK SF2CI1 SLP036

CYWG;2009-06-18 12:00;CYWG 181200Z 16005KT 3SM BR FEW003 BKN250 17/15 A2963 RMK SF2CI0 SLP033

CYWG;2009-06-18 13:00;CYWG 181300Z 17008KT 4SM BR FEW250 19/16 A2964 RMK CI0 SLP037

CYWG;2009-06-18 14:00;CYWG 181400Z 18008KT 6SM HZ FEW250 22/16 A2963 RMK CI1 SLP034

CYWG;2009-06-18 15:00;CYWG 181500Z 18011KT 10SM FEW250 24/06 A2963 RMK CI1 SLP032

CYWG;2009-06-18 16:00;CYWG 181600Z 18008KT 15SM FEW025 BKN250 25/17 A2962 RMK CU1CI0 SLP029

CYWG;2009-06-18 17:00;CYWG 181700Z 17010G17KT 15SM FEW038 BKN250 27/10 A2960 RMK CU2CI1 SLP023

CYWG;2009-06-18 18:00;CYWG 181800Z 15007KT 15SM FEW046 FEW140 BKN250 27/17 A2959 RMK CU2AC1CI1 SLP018

CYWG;2009-06-18 19:00;CYWG 181900Z 17008KT 15SM FEW054 FEW250 29/17 A2958 RMK CU2CI1 SLP015

CYWG;2009-06-18 20:00;CYWG 182000Z 13007KT 15SM SCT056 SCT250 29/16 A2956 RMK CU3CI1 SLP008

CYWG;2009-06-18 21:00;CYWG 182100Z 16008KT 15SM FEW060 SCT250 29/16 A2953 RMK CU2CI1 TCU DIST S SLP998

CYWG;2009-06-18 22:00;CYWG 182200Z 18009KT 15SM SCT062 BKN250 29/16 A2952 RMK CU3CI1 CB DIST S SLP997

CYWG;2009-06-18 23:00;CYWG 182300Z 18018KT 15SM SCT063 BKN250 25/18 A2952 RMK CU4CI2 CB DIST NW SLP997

CYWG;2009-06-19 00:00;CYWG 190000Z 20015KT 15SM FEW063 SCT160 BKN250 24/14 A2954 RMK CU1AC3CI3 SLP005

CYWG;2009-06-19 01:00;CYWG 190100Z 20009KT 15SM FEW060 BKN095 OVC250 22/15 A2954 RMK CU1AC3CI4 SLP005

CYWG;2009-06-19 02:00;CYWG 190200Z 20009KT 15SM FEW050 SCT110 OVC250 21/15 A2955 RMK CU1AC2CI5 SLP007

CYWG;2009-06-19 03:00;CYWG 190300Z 21011KT 15SM SCT082 OVC250 20/15 A2956 RMK AC4CI3 SLP009

CYWG;2009-06-19 04:00;CYWG 190400Z 23007KT 15SM FEW080 BKN250 19/14 A2957 RMK AC2CI2 SLP011

CYWG;2009-06-19 05:00;CYWG 190500Z 24004KT 15SM FEW080 BKN250 17/14 A2955 RMK AC2CI2 SLP005

CYWG;2009-06-19 06:00;CYWG 190600Z 23004KT 15SM FEW080 SCT250 18/14 A2953 RMK AC1CI2 SLP000

CYWG;2009-06-19 07:00;CYWG 190700Z 19005KT 15SM FEW250 15/13 A2954 RMK CI1 SLP001

CYWG;2009-06-19 08:00;CYWG 190800Z 19006KT 15SM FEW250 16/13 A2953 RMK CI1 SLP998

CYWG;2009-06-19 09:00;CYWG 190900Z 22006KT 15SM FEW080 SCT250 16/13 A2953 RMK AC1CI1 SLP998

CYWG;2009-06-19 10:00;CYWG 191000Z 22005KT 15SM FEW080 BKN250 15/13 A2953 RMK AC2CI2 SLP998

CYWG;2009-06-19 11:00;CYWG 191100Z 23005KT 15SM FEW120 BKN270 15/13 A2953 RMK AC2CI2 SLP000

CYWG;2009-06-19 12:00;CYWG 191200Z 25003KT 15SM FEW120 BKN270 18/14 A2951 RMK AC1CI2 SLP995

CYWG;2009-06-19 13:00;CYWG 191300Z 21003KT 15SM FEW091 FEW120 BKN270 18/14 A2953 RMK AC1AC2CI3 SLP001

CYWG;2009-06-19 14:00;CYWG 191400Z 21003KT 15SM FEW090 BKN120 BKN270 20/15 A2955 RMK AC2AC3CI1 SLP006

CYWG;2009-06-19 15:00;CYWG 191500Z 19004KT 15SM FEW120 SCT240 BKN270 22/16 A2953 RMK AC2CC2CI2 SLP001

CYWG;2009-06-19 16:00;CYWG 191600Z 21006KT 15SM FEW120 SCT240 BKN270 23/17 A2953 RMK AC2CC1CI1 SLP999

CYWG;2009-06-19 17:00;CYWG 191700Z 21007KT 15SM FEW074 SCT120 BKN270 26/16 A2951 RMK AC1AC2CI1 SLP994

CYWG;2009-06-19 18:00;CYWG 191800Z 27013KT 15SM FEW042 SCT120 BKN270 27/16 A2950 RMK CU1AC2CI1 SLP989

CYWG;2009-06-19 19:00;CYWG 191900Z 30008KT 15SM SCT043 BKN120 BKN270 26/17 A2950 RMK CU3AC2CI0 SLP988

CYWG;2009-06-19 20:00;CYWG 192000Z 31014KT 15SM SCT041TCU BKN120 BKN270 26/17 A2950 RMK TCU3AC2CI0 CB TOP W SLP990

CYWG;2009-06-19 20:26;CYWG 192026Z 31013G18KT 15SM TS VCSH SCT040CB BKN120 BKN270 25/ RMK CB3AC2CI0 CB SW-W

CYWG;2009-06-19 20:49;CYWG 192049Z 31013KT 15SM -TSRA SCT060CB BKN120 BKN270 24/ RMK CB4AC2CI0 HVIER SHWRS S

CYWG;2009-06-19 21:00;CYWG 192100Z 32013KT 15SM -TSRA SCT060CB BKN120 BKN270 23/17 A2951 RMK CB4AC2CI0 HVIER SHWRS S SLP995

CYWG;2009-06-19 21:35;CYWG 192135Z 33010G15KT 15SM TS SCT067CB BKN120 BKN270 23/ RMK CB3AC2CI0 CB NE-SE

CYWG;2009-06-19 21:51;CYWG 192151Z CCA 32010KT 15SM SCT067TCU BKN120 BKN270 23/ RMK TCU3AC2CI0 CB EMDB S-SE RETS

CYWG;2009-06-19 22:00;CYWG 192200Z 32010KT 15SM SCT067TCU BKN120 BKN270 23/16 A2953 RMK TCU3AC2CI0 CB EMBD E-SE RETS SLP999

CYWG;2009-06-19 23:00;CYWG 192300Z 33007KT 15SM FEW060TCU SCT096 BKN270 24/17 A2953 RMK TCU2AC2CI1 CB TOPS E-SE SLP001

CYWG;2009-06-20 00:00;CYWG 200000Z 31010G15KT 15SM FEW067 SCT082 BKN270 25/14 A2954 RMK CU2AC1CI0 TCU ASOCTD NW SLP003

CYWG;2009-06-20 01:00;CYWG 200100Z 33007KT 15SM FEW060 SCT100 BKN270 24/15 A2955 RMK CU2AC1CI0 SLP006

CYWG;2009-06-20 02:00;CYWG 200200Z 35010KT 15SM VCSH FEW052TCU BKN270 22/15 A2957 RMK TCU2CI1 SLP013

CYWG;2009-06-20 03:00;CYWG 200300Z 33003KT 15SM SCT060TCU BKN270 19/14 A2959 RMK TCU3CI0 SLP020

CYWG;2009-06-20 04:00;CYWG 200400Z 30005KT 15SM SCT066 BKN270 19/14 A2961 RMK AC3CI0 SLP027

CYWG;2009-06-20 05:00;CYWG 200500Z 32007KT 15SM SKC 17/13 A2964 RMK SLP036

CYWG;2009-06-20 06:00;CYWG 200600Z 32006KT 15SM SKC 15/13 A2965 RMK SLP041

CYWG;2009-06-20 07:00;CYWG 200700Z 28006KT 15SM SKC 14/13 A2966 RMK SLP045

CYWG;2009-06-20 08:00;CYWG 200800Z 30006KT 15SM SKC 14/13 A2968 RMK SLP051

CYWG;2009-06-20 09:00;CYWG 200900Z 31006KT 15SM SKC 14/14 A2969 RMK SLP056

CYWG;2009-06-20 10:00;CYWG 201000Z 31004KT 15SM FEW060 13/12 A2971 RMK SC1 SLP061

CYWG;2009-06-20 11:00;CYWG 201100Z 27003KT 15SM R13/2000FT/N BCFG SKC 11/11 A2972 RMK VSB N 1 SLP066

CYWG;2009-06-20 12:00;CYWG 201200Z 31002KT 12SM SKC 15/15 A2974 RMK HZ SLP073

CYWG;2009-06-20 13:00;CYWG 201300Z 29004KT 15SM FEW010 18/16 A2977 RMK CF1 SLP083

CYWG;2009-06-20 14:00;CYWG 201400Z 36004KT 15SM FEW016 19/15 A2980 RMK CU1 SLP091

CYWG;2009-06-20 15:00;CYWG 201500Z 35004KT 15SM SCT020 21/16 A2981 RMK SC4 SLP096

CYWG;2009-06-20 16:00;CYWG 201600Z 33002KT 15SM SCT025 22/15 A2981 RMK CU4 SLP096

CYWG;2009-06-20 17:00;CYWG 201700Z 28002KT 15SM BKN032 23/15 A2981 RMK CU6 SLP097

CYWG;2009-06-20 18:00;CYWG 201800Z 04002KT 15SM BKN040 25/15 A2980 RMK CU5 SLP093

CYWG;2009-06-20 19:00;CYWG 201900Z 00000KT 15SM SCT045 25/15 A2980 RMK CU4 SLP091

CYWG;2009-06-20 20:00;CYWG 202000Z 10003KT 15SM SCT054 25/14 A2979 RMK CU3 SLP089

CYWG;2009-06-20 21:00;CYWG 202100Z 15004KT 15SM FEW054 27/13 A2979 RMK CU2 SLP088

CYWG;2009-06-20 22:00;CYWG 202200Z 00000KT 15SM FEW060 28/12 A2978 RMK CU1 SLP086

CYWG;2009-06-20 23:00;CYWG 202300Z 12006KT 15SM FEW060 28/13 A2978 RMK CU1 SLP085

CYWG;2009-06-21 00:00;CYWG 210000Z 14005KT 15SM FEW060 27/13 A2977 RMK CU1 SLP083

CYWG;2009-06-21 01:00;CYWG 210100Z 16009KT 15SM FEW230 26/14 A2977 RMK CI1 SLP082

CYWG;2009-06-21 02:00;CYWG 210200Z 15006KT 15SM FEW230 24/14 A2977 RMK CI1 SLP081

CYWG;2009-06-21 03:00;CYWG 210300Z 13009KT 15SM FEW090 BKN230 23/13 A2978 RMK AC1CI2 SLP085

CYWG;2009-06-21 04:00;CYWG 210400Z 14007KT 15SM SKC 22/14 A2978 RMK SLP083

CYWG;2009-06-21 05:00;CYWG 210500Z 12009KT 15SM SKC 21/14 A2978 RMK SLP083

CYWG;2009-06-21 06:00;CYWG 210600Z 11006KT 15SM SKC 19/13 A2978 RMK SLP084

CYWG;2009-06-21 07:00;CYWG 210700Z 14008KT 15SM SKC 20/13 A2979 RMK SLP088

CYWG;2009-06-21 08:00;CYWG 210800Z 15006KT 15SM SKC 17/13 A2980 RMK SLP091

CYWG;2009-06-21 09:00;CYWG 210900Z 14005KT 15SM SCT230 16/13 A2980 RMK CI1 SLP092

CYWG;2009-06-21 10:00;CYWG 211000Z 16006KT 15SM FEW100 SCT210 17/13 A2980 RMK AC1CI0 SLP091

CYWG;2009-06-21 11:00;CYWG 211100Z 16006KT 15SM FEW100 SCT230 16/13 A2979 RMK AC1CI0 SLP089

CYWG;2009-06-21 12:00;CYWG 211200Z 15008KT 15SM FEW100 SCT230 19/14 A2979 RMK AC1CI1 SLP088

CYWG;2009-06-21 13:00;CYWG 211300Z 14007KT 15SM SCT230 21/14 A2979 RMK CI2 SLP088

CYWG;2009-06-21 14:00;CYWG 211400Z 16009KT 15SM BKN230 24/15 A2979 RMK CI3 SLP087

CYWG;2009-06-21 15:00;CYWG 211500Z 15012KT 15SM SCT230 26/15 A2978 RMK CI2 SLP082

CYWG;2009-06-21 16:00;CYWG 211600Z 18012KT 15SM SCT230 28/14 A2977 RMK CI2 SLP079

CYWG;2009-06-21 17:00;CYWG 211700Z 13013G20KT 15SM FEW055 BKN230 29/14 A2976 RMK CU0CI4 SLP075

CYWG;2009-06-21 18:00;CYWG 211800Z 15013G18KT 15SM FEW060 FEW095 BKN230 28/13 A2974 RMK CU1AC2CI2 SLP070

CYWG;2009-06-21 19:00;CYWG 211900Z 17015KT 15SM SCT069 BKN230 29/14 A2974 RMK AC3CI2 SLP070

CYWG;2009-06-21 20:00;CYWG 212000Z 17012KT 15SM SCT069 OVC230 28/14 A2973 RMK AC3CI2 SLP065

CYWG;2009-06-21 21:00;CYWG 212100Z 15011G16KT 15SM BKN065 OVC230 27/14 A2972 RMK SC5CI2 SLP064

CYWG;2009-06-21 22:00;CYWG 212200Z 12013G18KT 15SM BKN063 OVC230 28/15 A2971 RMK SC5CI2 SLP060

CYWG;2009-06-21 23:00;CYWG 212300Z 14016KT 15SM BKN063 OVC230 27/14 A2971 RMK SC6CI2 SLP060

CYWG;2009-06-22 00:00;CYWG 220000Z 13013G18KT 15SM BKN070 OVC230 26/14 A2970 RMK AC6CI2 SLP057

CYWG;2009-06-22 01:00;CYWG 220100Z 13008KT 15SM BKN090 OVC230 26/14 A2970 RMK AC5CI2 SLP056

CYWG;2009-06-22 02:00;CYWG 220200Z 13007KT 15SM -RA BKN062 OVC230 25/15 A2971 RMK SC6CI2 SLP059

CYWG;2009-06-22 02:44;CYWG 220244Z 16008KT 15SM -SHRA BKN013 OVC057 22/ RMK SC6SC2 CVCTV CLD EMBD

CYWG;2009-06-22 03:00;CYWG 220300Z 20012G24KT 10SM -SHRA BKN013 OVC057 19/18 A2974 RMK SC6SC2 CVCTV CLD EMBD SF ASOCTD SLP070

CYWG;2009-06-22 03:47;CYWG 220347Z 25003KT 15SM FEW013 BKN022 OVC078 18/ RMK SF2SC4AC2 RERA

CYWG;2009-06-22 04:00;CYWG 220400Z 00000KT 15SM FEW013 FEW022 BKN055 OVC095 18/17 A2970 RMK SF1SC2SC3AC2 RERA SLP057

CYWG;2009-06-22 05:00;CYWG 220500Z 17008KT 15SM -SHRA FEW020 BKN051 OVC086 19/18 A2972 RMK SC2SC5AC2 SLP064

CYWG;2009-06-22 06:00;CYWG 220600Z 13005KT 15SM FEW015 BKN028 OVC078 19/18 A2972 RMK SF2SC6AC1 SLP063

CYWG;2009-06-22 06:36;CYWG 220636Z 11009KT 10SM -SHRA FEW015 OVC037 19/ RMK SF2SC6 CVCTV CLD EMBD

CYWG;2009-06-22 07:00;CYWG 220700Z CCA 05005KT 10SM FEW015 OVC029 19/18 A2969 RMK SF2SC6 OCNL -SHRA CVCTV CLD EMBD SLP053

CYWG;2009-06-22 08:00;CYWG 220800Z 14002KT 10SM FEW015 BKN028 OVC046 18/18 A2967 RMK SF2SC6SC1 SLP048

CYWG;2009-06-22 09:00;CYWG 220900Z 14007KT 15SM BKN020 OVC046 19/17 A2968 RMK SC7SC1 SLP049

CYWG;2009-06-22 09:44;CYWG 220944Z 12007KT 5SM -DZ BR BKN009 OVC020 18/ RMK SF6SC2

CYWG;2009-06-22 09:54;CYWG 220954Z 14007KT 2SM -DZ BR BKN005 OVC020 18/ RMK SF6SC2

CYWG;2009-06-22 10:00;CYWG 221000Z 14005KT 1 3/4SM -DZ BR BKN004 OVC019 18/18 A2967 RMK FG1SF6SC2 SLP048

CYWG;2009-06-22 10:43;CYWG 221043Z 15007KT 4SM -DZ BR OVC005 18/ RMK SF8

CYWG;2009-06-22 11:00;CYWG 221100Z 13007KT 4SM -DZ BR BKN005 OVC020 18/18 A2967 RMK SF6SC2 SLP045

CYWG;2009-06-22 11:38;CYWG 221138Z 14008KT 8SM BKN006 OVC010 18/ RMK SF6SC2

CYWG;2009-06-22 12:00;CYWG 221200Z 16005KT 6SM -DZ BR OVC004 18/18 A2966 RMK SF8 SLP044

CYWG;2009-06-22 12:28;CYWG 221228Z 16006KT 4SM -DZ BR OVC005 18/ RMK SF8

CYWG;2009-06-22 13:00;CYWG 221300Z 16006KT 8SM OVC005 19/18 A2965 RMK SF8 BR SLP040

CYWG;2009-06-22 14:00;CYWG 221400Z 21005KT 7SM -DZ OVC006 19/18 A2966 RMK SF8 BR SLP042

CYWG;2009-06-22 14:24;CYWG 221424Z 21008KT 12SM BKN007 OVC015 19/ RMK SF4SC4

CYWG;2009-06-22 14:45;CYWG 221445Z 23006KT 15SM BKN007 OVC015 19/ RMK SF6SC2

CYWG;2009-06-22 15:00;CYWG 221500Z 22007KT 12SM BKN009 OVC014 19/18 A2965 RMK SF5SC3 SLP041

CYWG;2009-06-22 15:27;CYWG 221527Z 23006KT 15SM SCT009 OVC014 19/ RMK SF3SC5

CYWG;2009-06-22 16:00;CYWG 221600Z 24006KT 15SM SCT009 OVC014 20/18 A2965 RMK SF3SC5 SLP042

CYWG;2009-06-22 17:00;CYWG 221700Z 25004KT 12SM FEW009 BKN014 OVC024 20/17 A2965 RMK SF2SC4SC2 SLP042

CYWG;2009-06-22 18:00;CYWG 221800Z 21007KT 15SM FEW009 BKN021 BKN060 22/18 A2966 RMK SF2SC4SC1 SLP044

CYWG;2009-06-22 19:00;CYWG 221900Z 20004KT 15SM BKN022 BKN091 23/18 A2965 RMK SC6AC1 SLP042

CYWG;2009-06-22 20:00;CYWG 222000Z 18007KT 15SM BKN027 BKN082 25/18 A2965 RMK SC5AC1 SLP040

CYWG;2009-06-22 21:00;CYWG 222100Z 20007KT 15SM SCT033 SCT084 26/19 A2964 RMK CU3AC1 SLP038

CYWG;2009-06-22 22:00;CYWG 222200Z 20007KT 15SM SCT035 26/18 A2965 RMK CU4 SLP040

CYWG;2009-06-22 23:00;CYWG 222300Z 22005KT 15SM BKN037 27/19 A2965 RMK CU5 TCU ASOCTD SLP039

CYWG;2009-06-23 00:00;CYWG 230000Z 20008KT 15SM FEW044 28/18 A2964 RMK CU2 SLP037

CYWG;2009-06-23 01:00;CYWG 230100Z 26005KT 15SM FEW048 27/17 A2965 RMK CU2 SLP039

CYWG;2009-06-23 02:00;CYWG 230200Z 25007KT 15SM FEW050 26/15 A2966 RMK CU1 SLP042

CYWG;2009-06-23 03:00;CYWG 230300Z 24006KT 15SM FEW050 FEW100 FEW230 24/14 A2967 RMK CU1AC1CI0 SLP046

CYWG;2009-06-23 04:00;CYWG 230400Z 25006KT 15SM FEW100 23/14 A2969 RMK AC1 SLP052

CYWG;2009-06-23 05:00;CYWG 230500Z 25008KT 15SM SKC 22/14 A2971 RMK SLP059

CYWG;2009-06-23 06:00;CYWG 230600Z 25008KT 15SM SKC 21/14 A2973 RMK SLP067

CYWG;2009-06-23 07:00;CYWG 230700Z 25008KT 15SM SKC 20/14 A2973 RMK SLP068

CYWG;2009-06-23 08:00;CYWG 230800Z 27009KT 15SM SKC 19/13 A2975 RMK SLP074

CYWG;2009-06-23 09:00;CYWG 230900Z 27008KT 15SM SKC 18/12 A2975 RMK SLP075

CYWG;2009-06-23 10:00;CYWG 231000Z 25009KT 15SM SKC 17/11 A2975 RMK SLP073

CYWG;2009-06-23 11:00;CYWG 231100Z 27012KT 15SM SKC 17/11 A2979 RMK SLP087

CYWG;2009-06-23 12:00;CYWG 231200Z 26009KT 15SM FEW120 17/10 A2979 RMK AC1 ACC ASOCTD SLP088

CYWG;2009-06-23 13:00;CYWG 231300Z 26010KT 15SM FEW120 FEW230 19/10 A2981 RMK AC2CI1 ACC ASOCTD VIRGA NW N SLP095

CYWG;2009-06-23 14:00;CYWG 231400Z 29016KT 15SM SCT120 SCT230 22/09 A2981 RMK AC4CI1 ACC ASOCTD VIRGA N SLP094

CYWG;2009-06-23 15:00;CYWG 231500Z 31013KT 15SM SCT120 SCT230 21/08 A2980 RMK AC4CI1 ACC ASOCTD SH DIST N SLP090

CYWG;2009-06-23 16:00;CYWG 231600Z 28009KT 15SM FEW060 BKN120 BKN230 22/08 A2981 RMK CU2AC2CI1 ACC ASOCTD SH DIST W E SLP093

CYWG;2009-06-23 17:00;CYWG 231700Z 26010G17KT 15SM SCT097 BKN120 BKN230 22/09 A2981 RMK AC3AC2CI1 ACC ASOCTD SH W N SLP094

CYWG;2009-06-23 17:39;CYWG 231739Z 26007KT 15SM -SHRA FEW008 BKN085 BKN092 20/ RMK SF1AC5AC2 ACC ASOCTD

CYWG;2009-06-23 18:00;CYWG 231800Z CCA 24008KT 15SM -SHRA FEW053 BKN092 BKN230 18/12 A2982 RMK SC1AC7CI1 ACC ASOCTD SLP099

CYWG;2009-06-23 19:00;CYWG 231900Z 21009KT 15SM BKN052 21/13 A2980 RMK SC6 SLP094

CYWG;2009-06-23 20:00;CYWG 232000Z 23014G19KT 15SM SCT050 23/10 A2980 RMK CU4 SLP092

CYWG;2009-06-23 21:00;CYWG 232100Z 25015KT 15SM FEW050 24/10 A2977 RMK CU1 SLP082

CYWG;2009-06-23 22:00;CYWG 232200Z 25018G24KT 15SM FEW260 25/08 A2976 RMK CI1 SLP078

CYWG;2009-06-23 23:00;CYWG 232300Z 25016G24KT 15SM SKC 25/08 A2975 RMK SLP076

CYWG;2009-06-24 00:00;CYWG 240000Z 26013G21KT 25SM SKC 25/08 A2976 RMK SLP077

CYWG;2009-06-24 01:00;CYWG 240100Z 27011KT 15SM SKC 24/10 A2976 RMK SLP079

CYWG;2009-06-24 02:00;CYWG 240200Z 25008KT 15SM FEW250 22/10 A2977 RMK CI1 SLP081

CYWG;2009-06-24 03:00;CYWG 240300Z 23007KT 15SM FEW250 21/10 A2978 RMK CI0 SLP084

CYWG;2009-06-24 04:00;CYWG 240400Z 24009KT 15SM FEW250 20/10 A2979 RMK CI0 SLP089

CYWG;2009-06-24 05:00;CYWG 240500Z 24011G16KT 15SM FEW250 20/10 A2980 RMK CI1 SLP091

CYWG;2009-06-24 06:00;CYWG 240600Z 25011KT 15SM FEW250 19/10 A2981 RMK CI0 SLP096

CYWG;2009-06-24 07:00;CYWG 240700Z 25010KT 15SM SKC 18/11 A2982 RMK SLP098

CYWG;2009-06-24 08:00;CYWG 240800Z 25009KT 15SM SKC 17/11 A2983 RMK SLP102

CYWG;2009-06-24 09:00;CYWG 240900Z 24009KT 15SM SKC 16/11 A2983 RMK SLP104

CYWG;2009-06-24 10:00;CYWG 241000Z 24008KT 15SM FEW250 15/11 A2983 RMK CI1 SLP104

CYWG;2009-06-24 11:00;CYWG 241100Z 25011KT 15SM FEW090 FEW250 16/11 A2984 RMK AC1CI1 SLP106

CYWG;2009-06-24 12:00;CYWG 241200Z 25009KT 15SM FEW090 18/11 A2984 RMK AC1 SLP105

CYWG;2009-06-24 13:00;CYWG 241300Z 28008KT 15SM FEW090 20/12 A2985 RMK AC1 SLP107

CYWG;2009-06-24 14:00;CYWG 241400Z 26010KT 15SM FEW090 21/13 A2984 RMK AC1 SLP104

CYWG;2009-06-24 15:00;CYWG 241500Z 26009KT 15SM SKC 24/13 A2983 RMK SLP103

CYWG;2009-06-24 16:00;CYWG 241600Z 30010KT 15SM FEW250 26/12 A2984 RMK CI1 SLP106

CYWG;2009-06-24 17:00;CYWG 241700Z 29012G19KT 15SM FEW040 FEW250 27/12 A2984 RMK CU1CI1 CI TR SLP106

CYWG;2009-06-24 18:00;CYWG 241800Z 27014G20KT 15SM FEW070 28/08 A2984 RMK CU1 SLP104

CYWG;2009-06-24 19:00;CYWG 241900Z 30017G24KT 15SM FEW080 28/07 A2983 RMK CU1 SLP101

CYWG;2009-06-24 20:00;CYWG 242000Z 29018KT 15SM FEW080 29/08 A2982 RMK CU1 SLP096

CYWG;2009-06-24 21:00;CYWG 242100Z 27008G20KT 15SM FEW080 FEW270 29/08 A2981 RMK CU1CI1 SLP095

CYWG;2009-06-24 22:00;CYWG 242200Z 29012G18KT 15SM FEW080 FEW270 29/10 A2979 RMK CU1CI1 SLP088

CYWG;2009-06-24 23:00;CYWG 242300Z 23008KT 15SM FEW080 FEW270 29/09 A2976 RMK CU1CI1 SLP077

CYWG;2009-06-25 00:00;CYWG 250000Z 24008KT 15SM SCT093 BKN270 27/09 A2974 RMK AC4CI2 SLP071

CYWG;2009-06-25 00:37;CYWG 250037Z 31032G37KT 10SM -SHRA BKN066 BKN270 20/ RMK SC6CI2 CVCTV CLD EMBD

CYWG;2009-06-25 01:00;CYWG 250100Z 33019G25KT 12SM BKN062 18/15 A2982 RMK SC7 CVCTV CLD EMBD FROPA PRESRR SLP097

CYWG;2009-06-25 01:10;CYWG 250110Z 32022KT 8SM -SHRA BKN062 18/ RMK SC7 CVCTV CLD EMBD

CYWG;2009-06-25 02:00;CYWG 250200Z 27011G22KT 6SM -SHRA BKN022 BKN093 17/14 A2983 RMK SC5AC2 CVCTV CLD EMBD SLP101

CYWG;2009-06-25 02:14;CYWG 250214Z 20008KT 12SM FEW010 SCT022 BKN093 17/ RMK SF1SC2AC4

CYWG;2009-06-25 03:00;CYWG 250300Z 19002KT 15SM -SHRA SCT065 BKN087 17/16 A2982 RMK SC4AC3 SLP098

CYWG;2009-06-25 03:51;CYWG 250351Z 24008KT 15SM BKN031 18/ RMK SC7

CYWG;2009-06-25 04:00;CYWG 250400Z 26005KT 15SM BKN046 18/14 A2980 RMK SC6 SLP093

CYWG;2009-06-25 05:00;CYWG 250500Z 18002KT 15SM SCT082 17/14 A2979 RMK AC4 SLP089

CYWG;2009-06-25 06:00;CYWG 250600Z 26007KT 15SM FEW092 17/14 A2980 RMK AC2 SLP093

CYWG;2009-06-25 07:00;CYWG 250700Z 26007KT 15SM FEW098 15/14 A2981 RMK AC1 SLP096

CYWG;2009-06-25 08:00;CYWG 250800Z 27007KT 15SM SKC 14/13 A2982 RMK SLP099

CYWG;2009-06-25 09:00;CYWG 250900Z 29004KT 15SM SKC 12/12 A2984 RMK SLP106

CYWG;2009-06-25 10:00;CYWG 251000Z 29008KT 15SM FEW250 13/13 A2985 RMK CI0 SLP110

CYWG;2009-06-25 11:00;CYWG 251100Z 30006KT 15SM FEW250 13/12 A2987 RMK CI0 SLP114

CYWG;2009-06-25 12:00;CYWG 251200Z 34007KT 15SM FEW250 15/14 A2987 RMK CI0 SLP116

CYWG;2009-06-25 13:00;CYWG 251300Z 34006KT 15SM FEW250 18/14 A2990 RMK CI0 SLP124

CYWG;2009-06-25 14:00;CYWG 251400Z 31008KT 15SM FEW250 20/15 A2991 RMK CI0 SLP129

CYWG;2009-06-25 15:00;CYWG 251500Z 29010KT 15SM FEW250 22/15 A2991 RMK CI0 SLP131

CYWG;2009-06-25 16:00;CYWG 251600Z 31012KT 15SM FEW044 FEW250 23/12 A2991 RMK CU1CI0 SLP129

CYWG;2009-06-25 17:00;CYWG 251700Z 31012KT 15SM FEW045 24/13 A2991 RMK CU1 SLP129

CYWG;2009-06-25 18:00;CYWG 251800Z 32010G16KT 15SM FEW050 25/13 A2991 RMK CU1 SLP129

CYWG;2009-06-25 19:00;CYWG 251900Z 33015KT 15SM FEW056 25/10 A2991 RMK CU1 SLP129

CYWG;2009-06-25 20:00;CYWG 252000Z 33009G18KT 15SM FEW056 26/11 A2990 RMK CU1 SLP127

CYWG;2009-06-25 21:00;CYWG 252100Z 35014KT 15SM FEW060 26/10 A2990 RMK CU1 SLP127

CYWG;2009-06-25 22:00;CYWG 252200Z 01010KT 15SM FEW055 26/11 A2990 RMK CU1 SLP126

CYWG;2009-06-25 23:00;CYWG 252300Z 02007KT 15SM FEW050 26/11 A2988 RMK CU1 SLP121

CYWG;2009-06-26 00:00;CYWG 260000Z 03008KT 15SM SKC 25/11 A2987 RMK SLP116

CYWG;2009-06-26 01:00;CYWG 260100Z 10007KT 15SM FEW210 24/13 A2986 RMK CI1 SLP112

CYWG;2009-06-26 02:00;CYWG 260200Z 09007KT 15SM FEW210 22/13 A2985 RMK CI1 SLP110

CYWG;2009-06-26 03:00;CYWG 260300Z 10007KT 15SM FEW190 19/13 A2986 RMK AC1 SLP111

CYWG;2009-06-26 04:00;CYWG 260400Z 12008KT 15SM FEW190 19/12 A2986 RMK AC1 SLP112

CYWG;2009-06-26 05:00;CYWG 260500Z 14007KT 15SM SKC 18/12 A2986 RMK SLP113

CYWG;2009-06-26 06:00;CYWG 260600Z 15007KT 15SM SKC 17/11 A2987 RMK SLP116

CYWG;2009-06-26 07:00;CYWG 260700Z 16008KT 15SM SKC 17/11 A2986 RMK SLP112

CYWG;2009-06-26 08:00;CYWG 260800Z 14009KT 15SM BKN190 17/11 A2985 RMK AC7 SLP109

CYWG;2009-06-26 09:00;CYWG 260900Z 15010KT 15SM FEW190 17/11 A2983 RMK AC2 SLP101

CYWG;2009-06-26 10:00;CYWG 261000Z 17012KT 15SM FEW079 BKN190 17/10 A2982 RMK AC2AC1 SLP097

CYWG;2009-06-26 11:00;CYWG 261100Z 18007KT 15SM FEW080 BKN120 17/11 A2984 RMK AC2AC2 SLP105

CYWG;2009-06-26 12:00;CYWG 261200Z 19012KT 15SM FEW090 FEW120 SCT280 18/11 A2983 RMK AC2AC1CI1 SLP102

CYWG;2009-06-26 13:00;CYWG 261300Z 18014KT 15SM FEW090 FEW120 BKN280 21/12 A2982 RMK AC1AC1CI2 SLP099

CYWG;2009-06-26 14:00;CYWG 261400Z 19014KT 15SM SCT060 BKN280 22/13 A2982 RMK SC3CI2 SLP097

CYWG;2009-06-26 15:00;CYWG 261500Z 18016KT 15SM FEW069 SCT091 BKN280 23/13 A2981 RMK SC1AC2CI2 SLP094

CYWG;2009-06-26 16:00;CYWG 261600Z 22014KT 15SM SCT090 BKN280 25/13 A2982 RMK AC3CI3 SLP098

CYWG;2009-06-26 17:00;CYWG 261700Z 20011KT 15SM SCT081 OVC280 25/14 A2981 RMK AC4CI3 ACC EMBDD VIRGA W-NW SLP095

CYWG;2009-06-26 17:07;CYWG 261707Z 21009G16KT 15SM -SHRA SCT081 OVC280 RMK AC4CI3 ACC EMBDD

CYWG;2009-06-26 18:00;CYWG 261800Z 25008KT 12SM -SHRA FEW011 BKN090 OVC280 22/15 A2985 RMK CF1ACC6CI1 SLP109

CYWG;2009-06-26 19:00;CYWG 261900Z 18012G18KT 15SM SCT020 BKN075 BKN250 22/18 A2977 RMK SC3AC3CI1 SLP084

CYWG;2009-06-26 19:51;CYWG 261951Z 21012KT 10SM -SHRA FEW015 BKN030 OVC075 RMK SF1SC4AC3

CYWG;2009-06-26 20:00;CYWG 262000Z 20013KT 10SM -SHRA BKN008 OVC030 21/18 A2983 RMK SF6SC2 SLP101

CYWG;2009-06-26 21:00;CYWG 262100Z 19011KT 10SM -SHRA OVC012 20/18 A2983 RMK SF8 SLP102

CYWG;2009-06-26 22:00;CYWG 262200Z 18007KT 10SM -SHRA OVC011 20/19 A2980 RMK SF8 SLP095

CYWG;2009-06-26 22:36;CYWG 262236Z CCA 18007KT 10SM -SHRA OVC008 20/ RMK SF8

CYWG;2009-06-26 23:00;CYWG 262300Z 19010KT 10SM -SHRA OVC008 20/18 A2977 RMK SF8 CIG RAG SLP084

CYWG;2009-06-26 23:12;CYWG 262312Z 18013KT 10SM -SHRA BKN011 OVC055 20/ RMK SF5SC3 TCU EMBD

CYWG;2009-06-27 00:00;CYWG 270000Z 16017KT 10SM -SHRA OVC009 19/17 A2975 RMK SF8 SLP076

CYWG;2009-06-27 00:15;CYWG 270015Z 16015G20KT 10SM -SHRA OVC014 19/ RMK SF8

CYWG;2009-06-27 01:00;CYWG 270100Z 16019G25KT 10SM -SHRA OVC014 19/17 A2976 RMK SF8 SLP080

CYWG;2009-06-27 02:00;CYWG 270200Z 14008KT 10SM -SHRA FEW010 OVC018 19/17 A2977 RMK SF2SC6 SLP081

CYWG;2009-06-27 03:00;CYWG 270300Z 00000KT 10SM -SHRA BKN020 OVC062 18/17 A2978 RMK SC5SC3 SLP085

CYWG;2009-06-27 04:00;CYWG 270400Z 09008KT 10SM -SHRA FEW020 OVC068 18/16 A2974 RMK SC2AC6 PRESFR SLP073

CYWG;2009-06-27 05:00;CYWG 270500Z 07006KT 12SM -SHRA OVC062 18/17 A2974 RMK SC8 SLP071

CYWG;2009-06-27 06:00;CYWG 270600Z 05010KT 8SM -SHRA OVC031 17/16 A2970 RMK SC8 SLP057

CYWG;2009-06-27 07:00;CYWG 270700Z 06011KT 8SM -SHRA BKN018 OVC047 17/16 A2967 RMK SC6SC2 SLP047

CYWG;2009-06-27 08:00;CYWG 270800Z 06013KT 8SM -SHRA SCT007 OVC015 17/16 A2962 RMK SF3SC5 SLP033

CYWG;2009-06-27 08:03;CYWG 270803Z 06012KT 8SM -SHRA SCT007 OVC010 17/ RMK SF3SC5

CYWG;2009-06-27 08:50;CYWG 270850Z 10012KT 6SM -SHRA BKN005 OVC016 17/ RMK SF6SC2

CYWG;2009-06-27 09:00;CYWG 270900Z 10016KT 6SM -SHRA BKN005 OVC016 17/16 A2957 RMK SF6SC2 SLP016

CYWG;2009-06-27 09:35;CYWG 270935Z 08013KT 6SM -SHRA SCT009 OVC013 17/ RMK SF4SC4

CYWG;2009-06-27 10:00;CYWG 271000Z 07011G17KT 8SM -SHRA SCT005 OVC036 16/16 A2955 RMK SF3SC5 SLP007

CYWG;2009-06-27 11:00;CYWG 271100Z 06016G21KT 7SM -RA SCT005 OVC026 16/16 A2950 RMK SF4SC4 PRESFR SLP990

CYWG;2009-06-27 11:42;CYWG 271142Z 04016G27KT 7SM -RA BKN006 OVC026 16/ RMK SC6SC2

CYWG;2009-06-27 12:00;CYWG 271200Z 03018KT 7SM -RA BKN005 OVC026 16/16 A2947 RMK SC6SC2 SLP980

CYWG;2009-06-27 12:21;CYWG 271221Z 02016G21KT 2SM -RA OVC005 16/ RMK SC8

CYWG;2009-06-27 12:26;CYWG 271226Z 01016KT 2SM -RA BR BKN004 OVC019 16/ RMK SC7SC1

CYWG;2009-06-27 13:00;CYWG 271300Z 01017G25KT 2SM -RA BR BKN004 OVC016 16/16 A2945 RMK SC6SC2 SLP975

CYWG;2009-06-27 13:41;CYWG 271341Z 36019G26KT 3SM -RA BR BKN005 OVC016 16/ RMK SC6SC2

CYWG;2009-06-27 14:00;CYWG 271400Z CCA 35021G28KT 3SM -DZ BR BKN006 OVC016 17/16 A2945 RMK SC6SC2 OBS TAKEN +9 SLP975

CYWG;2009-06-27 15:00;CYWG 271500Z 34020G28KT 3SM -DZ BR BKN008 OVC026 17/16 A2946 RMK SC6SC2 VIS N 2 SLP977

CYWG;2009-06-27 16:00;CYWG 271600Z 35029G34KT 7SM BKN008 BKN019 OVC039 16/15 A2948 RMK SC5SC2SC2 SLP983

CYWG;2009-06-27 17:00;CYWG 271700Z 35022G31KT 4SM -SHRA BR BKN008 OVC027 16/15 A2950 RMK SC5SC3 SLP989

CYWG;2009-06-27 18:00;CYWG 271800Z 34026G32KT 3SM -SHRA BR BKN008 OVC024 15/15 A2953 RMK SC5SC3 SLP002

CYWG;2009-06-27 19:00;CYWG 271900Z 33021G31KT 10SM OVC013 16/15 A2956 RMK SF8 SLP011

CYWG;2009-06-27 20:00;CYWG 272000Z 31020G26KT 5SM -SHRA BR OVC008 16/15 A2956 RMK SF8 SLP011

CYWG;2009-06-27 21:00;CYWG 272100Z 33023G29KT 10SM -SHRA OVC008 15/13 A2957 RMK ST8 SLP018

CYWG;2009-06-27 21:36;CYWG 272136Z 32018G26KT 6SM -SHRA BR FEW006 OVC013 15/ RMK SF1ST7

CYWG;2009-06-27 22:00;CYWG 272200Z 33019G27KT 6SM -SHRA BR FEW007 OVC013 15/13 A2960 RMK SF1ST7 SLP025

CYWG;2009-06-27 23:00;CYWG 272300Z 32016G22KT 10SM -SHRA FEW007 OVC013 15/13 A2960 RMK SF1SC8 SLP027

CYWG;2009-06-28 00:00;CYWG 280000Z 31016G21KT 15SM -SHRA OVC012 15/13 A2961 RMK SF8 SLP030

CYWG;2009-06-28 01:00;CYWG 280100Z 31014KT 15SM -SHRA OVC019 15/13 A2962 RMK SC8 SLP034

CYWG;2009-06-28 02:00;CYWG 280200Z 32014G21KT 15SM -SHRA OVC025 14/13 A2962 RMK SC8 SLP032

CYWG;2009-06-28 02:31;CYWG 280231Z 31013KT 15SM FEW027 BKN077 OVC094 14/ RMK SC1AC4AC3

CYWG;2009-06-28 03:00;CYWG 280300Z 30012KT 15SM BKN057 OVC079 14/13 A2962 RMK SC4AC4 SLP034

CYWG;2009-06-28 04:00;CYWG 280400Z 29012KT 15SM SCT047 BKN080 14/13 A2961 RMK SC3AC4 SLP029

CYWG;2009-06-28 05:00;CYWG 280500Z CCA 30011KT 15SM BKN042 15/13 A2961 RMK SC6 SLP029

CYWG;2009-06-28 05:49;CYWG 280549Z 31016KT 9SM SHRA OVC016 15/ RMK SC8

CYWG;2009-06-28 06:00;CYWG 280600Z CCA 34013G19KT 15SM BKN020 OVC062 15/13 A2962 RERA RMK SC6SC2 SLP034

CYWG;2009-06-28 07:00;CYWG 280700Z 32016KT 15SM BKN071 OVC100 15/13 A2961 RMK AC6AC2 SLP029

CYWG;2009-06-28 08:00;CYWG 280800Z 31015KT 15SM SCT090 15/12 A2961 RMK AC2 SLP028

CYWG;2009-06-28 09:00;CYWG 280900Z CCA 31013KT 15SM FEW044 BKN090 BKN210 14/13 A2961 RMK SC2AC1CI1 SLP032

CYWG;2009-06-28 10:00;CYWG 281000Z 30018KT 15SM FEW030 SCT080 SCT210 14/13 A2961 RMK SC1AC1CI0 SLP032

CYWG;2009-06-28 11:00;CYWG 281100Z 31017G26KT 15SM SCT023 BKN076 BKN230 16/14 A2964 RMK SC3AC2CI1 SLP041

CYWG;2009-06-28 12:00;CYWG 281200Z 31016KT 15SM FEW023 FEW075 SCT230 15/14 A2965 RMK SC2AC1CI0 SLP045

CYWG;2009-06-28 13:00;CYWG 281300Z 32022G28KT 15SM FEW025 FEW075 FEW230 18/14 A2966 RMK SC1AC1CI0 SLP048

CYWG;2009-06-28 14:00;CYWG 281400Z 33023G33KT 15SM FEW024 SCT080 18/14 A2967 RMK CU2AC1 SLP051

CYWG;2009-06-28 15:00;CYWG 281500Z 32018G31KT 15SM FEW023 SCT090 19/15 A2967 RMK CU2AC1 SLP051

CYWG;2009-06-28 16:00;CYWG 281600Z 33024G32KT 15SM SCT026 19/14 A2968 RMK CU4 SLP054

CYWG;2009-06-28 17:00;CYWG 281700Z 32020G34KT 15SM BKN029 19/14 A2969 RMK CU5 SLP055

CYWG;2009-06-28 18:00;CYWG 281800Z 33020G30KT 15SM BKN029 19/14 A2970 RMK SC6 SLP061

CYWG;2009-06-28 19:00;CYWG 281900Z 32023G31KT 15SM BKN027 BKN230 19/14 A2971 RMK CU6CI1 SLP062

CYWG;2009-06-28 20:00;CYWG 282000Z 32025G34KT 15SM BKN028 19/14 A2972 RMK CU7 SLP065

CYWG;2009-06-28 21:00;CYWG 282100Z 32022G30KT 15SM BKN025 BKN070 19/14 A2972 RMK CU6AC1 SLP068

CYWG;2009-06-28 22:00;CYWG 282200Z 32020G27KT 15SM BKN027 19/14 A2974 RMK SC7 SLP074

CYWG;2009-06-28 23:00;CYWG 282300Z 33019G30KT 15SM BKN025 18/14 A2975 RMK SC7 SLP077

CYWG;2009-06-28 23:40;CYWG 282340Z 33019G25KT 15SM -SHRA BKN024 17/ RMK SC7 CVCTV CLD EMBD VIS E 6

CYWG;2009-06-29 00:00;CYWG 290000Z 36014G19KT 5SM -SHRA BR OVC016 16/14 A2977 RMK SC8 CVCTV CLD EMBD SLP086

CYWG;2009-06-29 00:26;CYWG 290026Z 36011G18KT 6SM -DZ BR OVC014 15/ RMK SF8

CYWG;2009-06-29 00:52;CYWG 290052Z 35017KT 12SM FEW011 BKN015 BKN087 15/ RMK SF1SC6AC1

CYWG;2009-06-29 01:00;CYWG 290100Z 36015G21KT 15SM FEW011 BKN020 BKN087 15/13 A2979 RMK SF1SC6AC1 SLP091

CYWG;2009-06-29 01:46;CYWG 290146Z 36016KT 15SM BKN014 OVC080 14/ RMK SC7AC1

CYWG;2009-06-29 02:00;CYWG 290200Z 36015G21KT 15SM BKN012 OVC050 14/12 A2981 RMK SF5SC3 SLP097

CYWG;2009-06-29 02:18;CYWG 290218Z 35015KT 15SM BKN016 BKN050 14/ RMK SF5SC2

CYWG;2009-06-29 03:00;CYWG 290300Z 35018KT 15SM OVC019 13/11 A2983 RMK SC8 SLP103

CYWG;2009-06-29 04:00;CYWG 290400Z 34014KT 15SM FEW010 BKN014 OVC065 13/11 A2983 RMK SF1SC6SC2 SLP103

CYWG;2009-06-29 04:18;CYWG 290418Z 35012G18KT 15SM -DZ BKN012 OVC065 13/ RMK SC6SC2

CYWG;2009-06-29 05:00;CYWG 290500Z 35011G16KT 12SM -DZ OVC010 12/12 A2983 RMK SF8 SLP105

CYWG;2009-06-29 05:25;CYWG 290525Z 34011G18KT 12SM -DZ OVC008 12/ RMK SF8

CYWG;2009-06-29 05:52;CYWG 290552Z 35012KT 15SM OVC012 12/ RMK SF8

CYWG;2009-06-29 06:00;CYWG 290600Z 35012KT 15SM OVC012 12/12 A2984 RMK SF8 SLP108

CYWG;2009-06-29 07:00;CYWG 290700Z 35011KT 15SM OVC010 13/12 A2983 RMK SF8 SLP106

CYWG;2009-06-29 08:00;CYWG 290800Z 36010G15KT 15SM FEW013 OVC021 12/11 A2984 RMK SF2SC6 SLP107

CYWG;2009-06-29 09:00;CYWG 290900Z 36009G18KT 15SM OVC016 13/11 A2984 RMK SC8 SLP109

CYWG;2009-06-29 10:00;CYWG 291000Z 36009KT 15SM OVC014 12/11 A2986 RMK SC8 SLP114

CYWG;2009-06-29 11:00;CYWG 291100Z 01010KT 15SM OVC014 12/10 A2988 RMK SC8 SLP120

CYWG;2009-06-29 12:00;CYWG 291200Z 36013KT 15SM OVC012 12/10 A2989 RMK SC8 SLP127

CYWG;2009-06-29 13:00;CYWG 291300Z 01009KT 15SM OVC010 12/11 A2990 RMK SC8 SLP130

CYWG;2009-06-29 13:13;CYWG 291313Z 36010KT 15SM OVC008 12/ RMK SC8

CYWG;2009-06-29 14:00;CYWG 291400Z 36010G15KT 15SM OVC010 13/11 A2991 RMK SC8 SLP132

CYWG;2009-06-29 15:00;CYWG 291500Z 02011KT 15SM OVC012 14/12 A2991 RMK SC8 SLP134

CYWG;2009-06-29 16:00;CYWG 291600Z 36011KT 15SM OVC014 15/13 A2992 RMK SC8 SLP136

CYWG;2009-06-29 16:28;CYWG 291628Z 36015KT 15SM BKN017 16/ RMK SC7

CYWG;2009-06-29 17:00;CYWG 291700Z 35013KT 15SM BKN017 17/12 A2991 RMK SC6 SLP134

CYWG;2009-06-29 18:00;CYWG 291800Z 02015KT 15SM BKN021 17/13 A2992 RMK SC6 SLP136

CYWG;2009-06-29 19:00;CYWG 291900Z 36014G20KT 15SM BKN023 19/13 A2993 RMK SC6 SLP137

CYWG;2009-06-29 20:00;CYWG 292000Z 01012G18KT 15SM BKN027 19/13 A2993 RMK SC6 SLP137

CYWG;2009-06-29 21:00;CYWG 292100Z 04015KT 15SM BKN029 19/14 A2993 RMK SC7 SLP138

CYWG;2009-06-29 22:00;CYWG 292200Z 03014KT 15SM BKN028 19/14 A2993 RMK SC6 SLP140

CYWG;2009-06-29 23:00;CYWG 292300Z 04018G24KT 15SM FEW028 SCT058 20/14 A2995 RMK SC2AC1 SLP144

CYWG;2009-06-30 00:00;CYWG 300000Z 04014G21KT 15SM FEW030 FEW090 19/13 A2995 RMK SC2AC1 SLP144

CYWG;2009-06-30 01:00;CYWG 300100Z 04016KT 15SM FEW090 18/12 A2996 RMK AC2 SLP148

CYWG;2009-06-30 02:00;CYWG 300200Z 03010G16KT 15SM FEW090 16/11 A2996 RMK AC2 SLP149

CYWG;2009-06-30 03:00;CYWG 300300Z 02008KT 15SM FEW097 SCT250 14/11 A2997 RMK AC1CI0 SLP153

CYWG;2009-06-30 04:00;CYWG 300400Z 01008KT 15SM SCT250 14/11 A2997 RMK CI1 SLP153

CYWG;2009-06-30 05:00;CYWG 300500Z 36007KT 15SM SKC 13/11 A2998 RMK SLP156

CYWG;2009-06-30 06:00;CYWG 300600Z 01007KT 15SM SKC 12/11 A2998 RMK SLP157

CYWG;2009-06-30 07:00;CYWG 300700Z 02007KT 15SM SKC 11/11 A2999 RMK SLP159

CYWG;2009-06-30 08:00;CYWG 300800Z 04006KT 15SM SKC 10/09 A2999 RMK SLP160

CYWG;2009-06-30 09:00;CYWG 300900Z 04006KT 15SM SKC 09/07 A3000 RMK SLP164

CYWG;2009-06-30 10:00;CYWG 301000Z 33006KT 15SM FEW073 07/06 A3001 RMK AC1 SLP167

CYWG;2009-06-30 11:00;CYWG 301100Z 34006KT 15SM BKN250 07/07 A3002 RMK CI1 SLP169

CYWG;2009-06-30 12:00;CYWG 301200Z 36008KT 15SM SCT250 11/09 A3002 RMK CI1 SLP169

CYWG;2009-06-30 13:00;CYWG 301300Z 01011KT 15SM FEW250 13/09 A3003 RMK CI1 SLP172

CYWG;2009-06-30 14:00;CYWG 301400Z 01011G16KT 15SM FEW250 14/09 A3003 RMK CI1 SLP172

CYWG;2009-06-30 15:00;CYWG 301500Z 02012KT 15SM FEW250 16/09 A3002 RMK CI1 SLP168

CYWG;2009-06-30 16:00;CYWG 301600Z 01012G17KT 15SM FEW250 17/09 A3001 RMK CI1 SLP167

CYWG;2009-06-30 17:00;CYWG 301700Z 01014KT 15SM FEW090 SCT250 18/09 A3001 RMK AC1CI1 SLP166

CYWG;2009-06-30 18:00;CYWG 301800Z 03013G20KT 15SM FEW078 SCT250 19/08 A3000 RMK AC1CI1 SLP162

CYWG;2009-06-30 19:00;CYWG 301900Z 03014G22KT 15SM FEW028 FEW080 BKN270 20/13 A2999 RMK CU1AC1CI1 SLP161

CYWG;2009-06-30 20:00;CYWG 302000Z 04014G19KT 15SM FEW030 FEW080 BKN270 20/13 A2999 RMK CU1AC1CI1 SLP160

CYWG;2009-06-30 21:00;CYWG 302100Z 05012KT 15SM FEW033 FEW080 BKN270 20/13 A2999 RMK CU1AC1CI0 SLP160

CYWG;2009-06-30 22:00;CYWG 302200Z 04015KT 15SM FEW035 BKN270 20/13 A2998 RMK CU1CI0 SLP155

CYWG;2009-06-30 23:00;CYWG 302300Z 03015KT 15SM FEW030 BKN270 20/13 A2997 RMK CU1CI1 SLP154

CYWG;2009-07-01 01:00;CYWG 010100Z 04013KT 15SM BKN270 19/08 A2996 RMK CI0 SLP150

CYWG;2009-07-01 02:00;CYWG 010200Z 04010KT 15SM SCT270 17/06 A2994 RMK CI0 SLP142

CYWG;2009-07-01 03:00;CYWG 010300Z 01005KT 15SM FEW090 FEW270 14/08 A2997 RMK AC1CI0 SLP154

CYWG;2009-07-01 04:00;CYWG 010400Z 05007KT 15SM FEW090 FEW270 12/08 A2999 RMK AC1CI0 SLP159

CYWG;2009-07-01 05:00;CYWG 010500Z 07007KT 15SM FEW070 13/08 A2999 RMK AC0 SLP158

CYWG;2009-07-01 06:00;CYWG 010600Z 07008KT 15SM SKC 13/07 A2998 RMK SLP156

CYWG;2009-07-01 07:00;CYWG 010700Z 05005KT 15SM SKC 12/07 A3001 RMK SLP164

CYWG;2009-07-01 08:00;CYWG 010800Z 34005KT 15SM SKC 08/07 A3000 RMK SLP163

CYWG;2009-07-01 09:00;CYWG 010900Z 04004KT 15SM SKC 08/06 A2999 RMK SLP160

CYWG;2009-07-01 10:00;CYWG 011000Z 02004KT 15SM SCT140 08/07 A2999 RMK AC2 SLP160

CYWG;2009-07-01 11:00;CYWG 011100Z 03005KT 15SM FEW140 BKN240 08/07 A3000 RMK AC2CI1 SLP164

CYWG;2009-07-01 12:00;CYWG 011200Z 05005KT 15SM FEW140 SCT240 10/08 A3001 RMK AC1CI1 SLP166

CYWG;2009-07-01 13:00;CYWG 011300Z 06007KT 15SM FEW240 13/07 A3002 RMK CI1 SLP168

CYWG;2009-07-01 14:00;CYWG 011400Z 02006KT 15SM FEW240 14/07 A3002 RMK CI1 SLP170

CYWG;2009-07-01 15:00;CYWG 011500Z 02008KT 15SM FEW240 16/08 A3002 RMK CI1 SLP168

CYWG;2009-07-01 16:00;CYWG 011600Z 04011KT 15SM FEW240 18/10 A3000 RMK CI0 SLP163

CYWG;2009-07-01 17:00;CYWG 011700Z 03009G15KT 15SM FEW240 18/10 A2999 RMK CI0 SLP161

CYWG;2009-07-01 18:00;CYWG 011800Z 03013KT 15SM FEW240 19/09 A2999 RMK CI1 SLP159

CYWG;2009-07-01 19:00;CYWG 011900Z 03012KT 15SM FEW240 20/11 A2999 RMK CI1 SLP158

CYWG;2009-07-01 20:00;CYWG 012000Z 03010G15KT 15SM FEW240 21/11 A2999 RMK CI1 SLP158

CYWG;2009-07-01 21:00;CYWG 012100Z 03011KT 15SM FEW240 22/12 A2998 RMK CI1 SLP155

CYWG;2009-07-01 22:00;CYWG 012200Z 03011KT 15SM SKC 22/13 A2998 RMK SLP157

CYWG;2009-07-01 23:00;CYWG 012300Z 03010G15KT 15SM SKC 22/13 A2998 RMK SLP156

CYWG;2009-07-02 00:00;CYWG 020000Z 02009KT 15SM SKC 22/14 A2999 RMK SLP157

CYWG;2009-07-02 01:00;CYWG 020100Z 02008KT 15SM SKC 21/14 A2999 RMK SLP160

CYWG;2009-07-02 02:00;CYWG 020200Z 02006KT 15SM SKC 19/14 A3000 RMK SLP161

CYWG;2009-07-02 03:00;CYWG 020300Z 02007KT 15SM FEW120 FEW250 16/14 A3001 RMK AC1CI0 SLP165

CYWG;2009-07-02 04:00;CYWG 020400Z 02005KT 15SM FEW120 FEW250 14/13 A3000 RMK AC1CI0 SLP164

CYWG;2009-07-02 05:00;CYWG 020500Z 31005KT 15SM SKC 13/12 A3001 RMK SLP166

CYWG;2009-07-02 06:00;CYWG 020600Z 05004KT 15SM SKC 14/13 A3001 RMK SLP165

CYWG;2009-07-02 07:00;CYWG 020700Z 06002KT 15SM SKC 14/13 A3002 RMK SLP167

CYWG;2009-07-02 08:00;CYWG 020800Z 06005KT 15SM SKC 12/11 A3003 RMK SLP171

CYWG;2009-07-02 09:00;CYWG 020900Z 03005KT 15SM SKC 12/12 A3003 RMK SLP173

CYWG;2009-07-02 10:00;CYWG 021000Z 07005KT 15SM FEW120 FEW250 11/10 A3004 RMK AC1CI0 SLP175

CYWG;2009-07-02 11:00;CYWG 021100Z 06005KT 15SM FEW120 FEW250 11/11 A3006 RMK AC1CI0 SLP182

CYWG;2009-07-02 12:00;CYWG 021200Z 06005KT 15SM FEW100 FEW240 13/12 A3008 RMK AC1CI0 SLP189

CYWG;2009-07-02 13:00;CYWG 021300Z 05004KT 15SM FEW100 FEW240 15/13 A3009 RMK AC2CI0 SLP194

CYWG;2009-07-02 14:00;CYWG 021400Z 05005KT 15SM FEW100 17/14 A3009 RMK AC2 SLP191

CYWG;2009-07-02 15:00;CYWG 021500Z 03008KT 15SM FEW057 SCT081 17/14 A3009 RMK SC2AC2 SLP193

CYWG;2009-07-02 16:00;CYWG 021600Z 03010KT 15SM FEW060 SCT081 18/14 A3008 RMK SC2AC2 ACC ASOCTD SH NW SLP190

CYWG;2009-07-02 17:00;CYWG 021700Z 03008KT 15SM FEW020 FEW085 20/15 A3009 RMK CU1ACC1 SLP192

CYWG;2009-07-02 18:00;CYWG 021800Z 02012G17KT 15SM FEW028 FEW074 20/13 A3009 RMK CU1ACC1 SLP194

CYWG;2009-07-02 19:00;CYWG 021900Z 05008KT 15SM FEW030 SCT075 21/13 A3009 RMK CU2AC2 SLP194

CYWG;2009-07-02 20:00;CYWG 022000Z 02008KT 15SM FEW030 SCT086 21/14 A3009 RMK CU1AC2 SLP194

CYWG;2009-07-02 21:00;CYWG 022100Z 01009KT 15SM FEW030 BKN084 21/14 A3010 RMK CU2AC4 SLP195

CYWG;2009-07-02 22:00;CYWG 022200Z 01009KT 15SM SCT085 21/12 A3009 RMK AC4 SLP194

CYWG;2009-07-02 23:00;CYWG 022300Z 02010KT 15SM SCT085 21/11 A3010 RMK AC4 SLP195

CYWG;2009-07-03 00:00;CYWG 030000Z 03011KT 15SM FEW030 SCT085 SCT240 21/11 A3010 RMK CU1AC2CI1 SLP195

CYWG;2009-07-03 01:00;CYWG 030100Z 06007KT 15SM FEW096 SCT250 20/09 A3010 RMK AC2CI1 SLP196

CYWG;2009-07-03 02:00;CYWG 030200Z 06006KT 15SM FEW096 FEW250 18/10 A3011 RMK AC2CI1 SLP198

CYWG;2009-07-03 03:00;CYWG 030300Z 05005KT 15SM FEW100 FEW250 15/10 A3012 RMK AC1CI0 SLP204

CYWG;2009-07-03 04:00;CYWG 030400Z 01003KT 15SM FEW100 13/10 A3012 RMK AC1 SLP205

CYWG;2009-07-03 05:00;CYWG 030500Z 33002KT 15SM SKC 11/09 A3014 RMK SLP210

CYWG;2009-07-03 06:00;CYWG 030600Z 35005KT 15SM FEW100 10/09 A3014 RMK AC0 SLP212

CYWG;2009-07-03 07:00;CYWG 030700Z 04004KT 15SM FEW100 10/09 A3015 RMK AC0 SLP213

CYWG;2009-07-03 08:00;CYWG 030800Z 00000KT 15SM SKC 10/09 A3015 RMK SLP215

CYWG;2009-07-03 09:00;CYWG 030900Z 35002KT 15SM FEW100 09/08 A3016 RMK AC1 SLP218

CYWG;2009-07-03 10:00;CYWG 031000Z 31005KT 15SM FEW100 SCT250 07/07 A3016 RMK AC2CI1 SLP219

CYWG;2009-07-03 11:00;CYWG 031100Z 32003KT 15SM FEW080 FEW250 07/07 A3017 RMK AC1CI0 SLP222

CYWG;2009-07-03 12:00;CYWG 031200Z 00000KT 15SM SCT034 SCT250 10/10 A3019 RMK SC3CI0 SLP226

CYWG;2009-07-03 13:00;CYWG 031300Z 01002KT 15SM FEW035 16/13 A3019 RMK SC1 SLP226

CYWG;2009-07-03 14:00;CYWG 031400Z 10002KT 15SM FEW025 18/11 A3018 RMK CU1 CU TR SLP223

CYWG;2009-07-03 15:00;CYWG 031500Z 02004KT 15SM FEW025 19/11 A3019 RMK CU1 CU TR SLP225

CYWG;2009-07-03 16:00;CYWG 031600Z 03006KT 15SM FEW035 20/12 A3018 RMK CU1 SLP224

CYWG;2009-07-03 17:00;CYWG 031700Z 36002KT 15SM SCT042 21/12 A3018 RMK CU3 SLP222

CYWG;2009-07-03 18:00;CYWG 031800Z 05005KT 15SM SCT042 22/12 A3017 RMK CU3 SLP219

CYWG;2009-07-03 19:00;CYWG 031900Z 06007KT 15SM FEW049 22/11 A3015 RMK CU2 SLP213

CYWG;2009-07-03 20:00;CYWG 032000Z 05006KT 15SM FEW052 FEW120 23/11 A3014 RMK CU1AC1 SLP210

CYWG;2009-07-03 21:00;CYWG 032100Z 01006KT 15SM FEW050 FEW120 24/12 A3014 RMK CU1AC1 SLP209

CYWG;2009-07-03 22:00;CYWG 032200Z 03009KT 15SM FEW087 FEW120 23/11 A3013 RMK AC1AC1 TR AC TOP LYR SLP207

CYWG;2009-07-03 23:00;CYWG 032300Z 36007KT 15SM FEW061 FEW230 23/10 A3012 RMK CU1CI1 TR CI SLP205

CYWG;2009-07-04 00:00;CYWG 040000Z 36004KT 15SM FEW061 FEW098 FEW240 23/10 A3011 RMK CU1AC1CI1 TR CI SLP199

CYWG;2009-07-04 01:00;CYWG 040100Z 34006KT 15SM FEW058 SCT100 SCT240 21/11 A3011 RMK CU1AC1CI1 SLP198

CYWG;2009-07-04 02:00;CYWG 040200Z 06005KT 15SM FEW054 SCT100 SCT240 19/12 A3012 RMK CU1AC2CI1 SLP202

CYWG;2009-07-04 03:00;CYWG 040300Z 08003KT 15SM FEW100 SCT240 17/11 A3011 RMK AC2CI0 SLP199

CYWG;2009-07-04 04:00;CYWG 040400Z 00000KT 15SM FEW100 FEW240 16/11 A3011 RMK AC2CI0 SLP199

CYWG;2009-07-04 05:00;CYWG 040500Z 00000KT 15SM FEW100 FEW240 14/11 A3012 RMK AC2CI0 SLP200

CYWG;2009-07-04 06:00;CYWG 040600Z 00000KT 15SM FEW100 FEW240 12/10 A3010 RMK AC1CI0 SLP196

CYWG;2009-07-04 07:00;CYWG 040700Z 34003KT 15SM FEW091 SCT240 11/09 A3011 RMK AC2CI1 SLP198

CYWG;2009-07-04 08:00;CYWG 040800Z 36003KT 15SM FEW090 SCT240 11/10 A3009 RMK AC2CI1 SLP194

CYWG;2009-07-04 09:00;CYWG 040900Z 00000KT 15SM FEW092 SCT240 11/11 A3009 RMK AC2CI1 SLP191

CYWG;2009-07-04 10:00;CYWG 041000Z 00000KT 15SM FEW092 SCT240 11/10 A3008 RMK AC2CI1 SLP188

CYWG;2009-07-04 11:00;CYWG 041100Z 27005KT 15SM BKN120 BKN260 11/11 A3009 RMK AC5CI1 SLP192

CYWG;2009-07-04 12:00;CYWG 041200Z 00000KT 15SM BKN120 12/11 A3009 RMK AC5 SLP191

CYWG;2009-07-04 13:00;CYWG 041300Z 00000KT 15SM BKN130 BKN250 15/13 A3008 RMK AC5CI2 SLP189

CYWG;2009-07-04 14:00;CYWG 041400Z 28006KT 15SM BKN110 17/14 A3010 RMK AC6 SLP196

CYWG;2009-07-04 15:00;CYWG 041500Z 33013KT 15SM OVC110 17/12 A3012 RMK AC8 SLP203

CYWG;2009-07-04 15:47;CYWG 041547Z 36011KT 15SM -SHRA OVC089 17/ RMK AC8

CYWG;2009-07-04 16:00;CYWG 041600Z 01009KT 15SM -SHRA BKN088 17/14 A3010 RMK AC6 SLP197

CYWG;2009-07-04 16:18;CYWG 041618Z 04011KT 15SM BKN110 18/ RMK AC6

CYWG;2009-07-04 17:00;CYWG 041700Z 07005KT 15SM BKN086 19/14 A3009 RMK AC6 SLP193

CYWG;2009-07-04 18:00;CYWG 041800Z CCA 07003KT 15SM SCT082 21/13 A3008 RMK AC4 SLP188

CYWG;2009-07-04 19:00;CYWG 041900Z 25004KT 15SM SCT039 SCT082 22/13 A3006 RMK CU4AC1 SLP183

CYWG;2009-07-04 20:00;CYWG 042000Z 26003KT 15SM BKN041 BKN075 22/12 A3005 RMK CU5AC1 SLP178

CYWG;2009-07-04 21:00;CYWG 042100Z 26008G15KT 15SM BKN050 24/12 A3003 RMK CU6 TCU ASOCTD SH N-NE SLP172

CYWG;2009-07-04 22:00;CYWG 042200Z 26006KT 15SM BKN046 22/13 A3003 RMK CU6 TCU ASOCTD SH NE SLP170

CYWG;2009-07-04 22:45;CYWG 042245Z 05013KT 15SM -SHRA BKN043TCU 20/ RMK TCU6

CYWG;2009-07-04 23:00;CYWG 042300Z 08008KT 15SM BKN043TCU BKN089 BKN210 20/15 A3003 RMK TCU6AC1CI1 OCNL -SHRA SLP170

CYWG;2009-07-04 23:22;CYWG 042322Z 13002KT 15SM BKN043 BKN089 BKN210 20/ RMK CU5AC1CI1 TCU ASOCTD

CYWG;2009-07-05 00:00;CYWG 050000Z 08003KT 15SM SCT056 SCT083 BKN210 21/15 A3001 RMK CU3AC1CI1 TCU ASOCTD SLP167

CYWG;2009-07-05 01:00;CYWG 050100Z 04003KT 15SM FEW056 FEW210 21/14 A3001 RMK SC1CI1 TCU S SLP165

CYWG;2009-07-05 02:00;CYWG 050200Z 00000KT 15SM FEW050 FEW120 BKN210 19/15 A3001 RMK SC1AC1CI2 SLP166

CYWG;2009-07-05 03:00;CYWG 050300Z CCA 05006KT 15SM FEW120 FEW210 16/14 A3001 RMK AC1CI2 SLP165

CYWG;2009-07-05 04:00;CYWG 050400Z 05004KT 15SM FEW120 FEW210 15/13 A3001 RMK AC1CI1 SLP166

CYWG;2009-07-05 05:00;CYWG 050500Z 00000KT 15SM FEW120 13/12 A3003 RMK AC1 SLP171

CYWG;2009-07-05 06:00;CYWG 050600Z 05003KT 15SM SKC 13/12 A3003 RMK SLP172

CYWG;2009-07-05 07:00;CYWG 050700Z 00000KT 15SM FEW120 12/12 A3004 RMK AC1 SLP174

CYWG;2009-07-05 08:00;CYWG 050800Z 31003KT 15SM FEW120 10/09 A3004 RMK AC1 SLP176

CYWG;2009-07-05 09:00;CYWG 050900Z 30003KT 15SM FEW090 10/10 A3004 RMK AC2 SLP176

CYWG;2009-07-05 10:00;CYWG 051000Z 02003KT 15SM MIFG FEW083 SCT230 09/09 A3004 RMK AC2CI0 SLP176

CYWG;2009-07-05 11:00;CYWG 051100Z 00000KT 15SM FEW083 SCT250 10/10 A3004 RMK AC1CI1 SLP176

CYWG;2009-07-05 12:00;CYWG 051200Z 00000KT 15SM FEW080 SCT250 13/13 A3004 RMK AC1CI1 SLP176

CYWG;2009-07-05 13:00;CYWG 051300Z 05004KT 15SM FEW093 SCT250 16/14 A3006 RMK AC2CI1 SLP182

CYWG;2009-07-05 14:00;CYWG 051400Z 06004KT 15SM FEW032 FEW090 SCT250 19/13 A3006 RMK SC1AC1CI1 SLP181

CYWG;2009-07-05 15:00;CYWG 051500Z 35003KT 15SM FEW024 FEW080 SCT250 19/14 A3005 RMK CU2AC1CI1 SLP179

CYWG;2009-07-05 16:00;CYWG 051600Z 07005KT 15SM SCT030 BKN250 21/14 A3004 RMK CU3CI1 SLP176

CYWG;2009-07-05 17:00;CYWG 051700Z 01004KT 15SM BKN035 BKN250 21/14 A3004 RMK CU5CI2 TCU ASOCTD SLP175

CYWG;2009-07-05 18:00;CYWG 051800Z CCA 36003KT 15SM BKN037 BKN250 22/14 A3003 RMK CU6CI1 TCU ASOCTD SLP173

CYWG;2009-07-05 19:00;CYWG 051900Z 35005KT 15SM BKN037 BKN250 23/14 A3003 RMK CU5CI2 SLP170

CYWG;2009-07-05 20:00;CYWG 052000Z 01005KT 15SM BKN044 BKN250 22/13 A3001 RMK CU5CI1 TCU ASOCTD SLP166

CYWG;2009-07-05 21:00;CYWG 052100Z 33004KT 15SM SCT049 BKN250 23/14 A3000 RMK CU3CI1 TCU TOP N SLP163

CYWG;2009-07-05 22:00;CYWG 052200Z 35010KT 15SM SCT049 SCT090 BKN250 23/13 A2999 RMK CU3AC1CI1 TCU ASOCTD SLP159

CYWG;2009-07-05 23:00;CYWG 052300Z 04011KT 15SM FEW049 FEW100 BKN250 23/14 A2999 RMK CU2AC1CI0 SLP157

CYWG;2009-07-06 00:00;CYWG 060000Z 04006KT 15SM FEW046 FEW100 22/14 A2998 RMK CU1AC1 SLP153

CYWG;2009-07-06 01:00;CYWG 060100Z 01006KT 15SM FEW045 FEW096 21/14 A2997 RMK CU1AC1 SLP152

CYWG;2009-07-06 02:00;CYWG 060200Z 05006KT 15SM FEW044 19/14 A2998 RMK SC2 SLP154

CYWG;2009-07-06 03:00;CYWG 060300Z 07005KT 15SM FEW070 FEW250 17/12 A2998 RMK AC1CI0 SLP155

CYWG;2009-07-06 04:00;CYWG 060400Z 08002KT 15SM FEW070 15/12 A2999 RMK AC1 SLP158

CYWG;2009-07-06 05:00;CYWG 060500Z 32003KT 15SM FEW070 13/11 A2999 RMK AC1 SLP158

CYWG;2009-07-06 06:00;CYWG 060600Z 31004KT 15SM FEW110 12/11 A2999 RMK AC1 SLP158

CYWG;2009-07-06 07:00;CYWG 060700Z 00000KT 15SM SKC 12/11 A2998 RMK SLP155

CYWG;2009-07-06 08:00;CYWG 060800Z 29004KT 15SM FEW110 11/10 A2998 RMK AC1 SLP154

CYWG;2009-07-06 09:00;CYWG 060900Z 30002KT 15SM SCT070 10/09 A2998 RMK AC2 SLP155

CYWG;2009-07-06 10:00;CYWG 061000Z 28004KT 15SM BKN110 11/11 A2998 RMK AC3 SLP156

CYWG;2009-07-06 11:00;CYWG 061100Z 30004KT 15SM SCT070 BKN110 12/12 A2998 RMK AC3AC3 ACC N VIRGA NW-N SLP155

CYWG;2009-07-06 12:00;CYWG 061200Z 00000KT 15SM SCT092 15/14 A2998 RMK AC3 SLP154

CYWG;2009-07-06 13:00;CYWG 061300Z 35003KT 15SM FEW087 18/14 A2999 RMK AC2 SLP156

CYWG;2009-07-06 14:00;CYWG 061400Z 36008KT 15SM FEW087 FEW120 20/14 A2999 RMK AC1AC1 SLP156

CYWG;2009-07-06 15:00;CYWG 061500Z 35006KT 15SM FEW030 FEW090 SCT250 21/14 A2999 RMK CU1AC1CI1 SLP157

CYWG;2009-07-06 16:00;CYWG 061600Z 01005KT 15SM SCT040 22/12 A2998 RMK CU3 SLP153

CYWG;2009-07-06 17:00;CYWG 061700Z 02008KT 15SM SCT043 23/13 A2998 RMK CU4 SLP153

CYWG;2009-07-06 18:00;CYWG 061800Z 36007KT 15SM BKN045 23/13 A2998 RMK CU5 SLP153

CYWG;2009-07-06 19:00;CYWG 061900Z 30006KT 15SM FEW047 24/13 A2997 RMK CU2 SLP150

CYWG;2009-07-06 20:00;CYWG 062000Z 32004KT 15SM FEW053 24/13 A2995 RMK CU2 TCU ASOCTD E-SE SLP145

CYWG;2009-07-06 21:00;CYWG 062100Z 04005KT 15SM SCT056 25/12 A2995 RMK CU3 SLP144

CYWG;2009-07-06 22:00;CYWG 062200Z 01005KT 15SM FEW056 SCT250 24/12 A2994 RMK CU2CI0 SLP141

CYWG;2009-07-06 23:00;CYWG 062300Z 32008KT 15SM FEW058 SCT250 24/11 A2993 RMK CU2CI1 CB N MOVG SE SLP136

CYWG;2009-07-06 23:46;CYWG 062346Z 03022G28KT 15SM VCSH FEW002 FEW058CB SCT250 18/ RMK SF1CB2CI1 SH N-SE WSHFT 2333

CYWG;2009-07-07 00:00;CYWG 070000Z 05016G24KT 15SM VCSH FEW059CB BKN250 18/14 A2996 RMK CB2CI1 SH N-SE PRESRR SLP150

CYWG;2009-07-07 01:00;CYWG 070100Z 06008KT 15SM FEW059TCU SCT250 19/11 A2995 RMK TCU2CI1 SH E-SE SLP144

CYWG;2009-07-07 02:00;CYWG 070200Z 05002KT 15SM FEW080 19/12 A2993 RMK AC1 SLP140

CYWG;2009-07-07 03:00;CYWG 070300Z 35002KT 15SM FEW080 FEW250 15/12 A2995 RMK AC1CI1 SLP145

CYWG;2009-07-07 04:00;CYWG 070400Z 01005KT 15SM FEW250 13/12 A2995 RMK CI2 SLP145

CYWG;2009-07-07 05:00;CYWG 070500Z 01004KT 15SM FEW250 11/11 A2997 RMK CI1 SLP151

CYWG;2009-07-07 06:00;CYWG 070600Z 01005KT 15SM FEW250 11/10 A2997 RMK CI2 SLP151

CYWG;2009-07-07 07:00;CYWG 070700Z 03007KT 15SM FEW250 13/11 A2996 RMK CI2 SLP149

CYWG;2009-07-07 08:00;CYWG 070800Z 03008KT 15SM FEW091 SCT250 13/12 A2996 RMK AC2CI1 SLP147

CYWG;2009-07-07 09:00;CYWG 070900Z 04007KT 15SM SCT250 13/12 A2996 RMK CI2 SLP146

CYWG;2009-07-07 10:00;CYWG 071000Z 04006KT 15SM SCT250 11/11 A2995 RMK CI2 SLP145

CYWG;2009-07-07 11:00;CYWG 071100Z 02003KT 15SM BKN250 10/09 A2996 RMK CI1 SLP148

CYWG;2009-07-07 12:00;CYWG 071200Z 08003KT 15SM BKN250 14/12 A2996 RMK CI2 SLP150

CYWG;2009-07-07 13:00;CYWG 071300Z 10010KT 15SM BKN086 BKN270 15/11 A2997 RMK AC4CI1 SLP152

CYWG;2009-07-07 14:00;CYWG 071400Z 09008KT 15SM BKN098 BKN270 16/12 A2997 RMK AC3CI2 SLP153

CYWG;2009-07-07 15:00;CYWG 071500Z 06013KT 15SM BKN097 BKN270 17/12 A2998 RMK AC3CI2 SLP154

CYWG;2009-07-07 16:00;CYWG 071600Z 07012G17KT 15SM SCT068 BKN270 19/10 A2997 RMK AC2CI1 SLP152

CYWG;2009-07-07 17:00;CYWG 071700Z 07014KT 15SM FEW045 FEW098 BKN270 20/09 A2997 RMK CU1AC1CI1 SLP152

CYWG;2009-07-07 18:00;CYWG 071800Z 04008G15KT 15SM FEW050 FEW100 BKN270 21/08 A2997 RMK CU1AC1CI1 SLP153

CYWG;2009-07-07 19:00;CYWG 071900Z 06012KT 15SM FEW060 SCT260 22/08 A2997 RMK CU2CI1 SLP151

CYWG;2009-07-07 20:00;CYWG 072000Z 08006KT 15SM FEW060 SCT260 22/08 A2996 RMK CU1CI1 SLP150

CYWG;2009-07-07 21:00;CYWG 072100Z 07005KT 15SM FEW050 SCT110 BKN260 22/10 A2996 RMK CU1AC2CI1 SLP146

CYWG;2009-07-07 22:00;CYWG 072200Z 04011KT 15SM FEW050 FEW090 BKN250 21/09 A2996 RMK CU1AC1CI2 SLP146

CYWG;2009-07-07 23:00;CYWG 072300Z 04011G16KT 15SM SCT070 BKN260 21/10 A2995 RMK AC3CI1 SLP143

CYWG;2009-07-08 00:00;CYWG 080000Z 04012KT 15SM BKN260 20/09 A2994 RMK CI3 SLP141

CYWG;2009-07-08 01:00;CYWG 080100Z 05011KT 15SM SCT120 BKN260 19/09 A2995 RMK AC4CI1 SLP144

CYWG;2009-07-08 02:00;CYWG 080200Z 05007KT 15SM FEW070 BKN260 18/10 A2995 RMK AC2CI2 SLP145

CYWG;2009-07-08 03:00;CYWG 080300Z 04007KT 15SM FEW120 BKN260 15/10 A2996 RMK AC2CI1 SLP150

CYWG;2009-07-08 04:00;CYWG 080400Z 03004KT 15SM FEW120 BKN250 11/09 A2997 RMK AC2CI2 SLP152

CYWG;2009-07-08 05:00;CYWG 080500Z 05004KT 15SM FEW120 BKN250 11/09 A2998 RMK AC2CI0 SLP154

CYWG;2009-07-08 06:00;CYWG 080600Z 05004KT 15SM FEW120 FEW250 11/09 A2998 RMK AC2CI0 SLP154

CYWG;2009-07-08 07:00;CYWG 080700Z 09005KT 15SM FEW120 10/09 A2997 RMK AC1 SLP153

CYWG;2009-07-08 08:00;CYWG 080800Z 13007KT 15SM SKC 13/09 A2997 RMK SLP152

CYWG;2009-07-08 09:00;CYWG 080900Z 13007KT 15SM FEW120 12/08 A2997 RMK AC1 SLP153

CYWG;2009-07-08 10:00;CYWG 081000Z 16006KT 15SM FEW120 FEW250 11/08 A2998 RMK AC1CI0 SLP156

CYWG;2009-07-08 11:00;CYWG 081100Z 17004KT 15SM FEW120 SCT270 11/08 A2999 RMK AC1CI0 SLP157

CYWG;2009-07-08 12:00;CYWG 081200Z 14004KT 15SM BKN270 14/10 A2998 RMK CI1 SLP156

CYWG;2009-07-08 13:00;CYWG 081300Z 14004KT 15SM FEW270 17/11 A2999 RMK CI0 SLP158

CYWG;2009-07-08 14:00;CYWG 081400Z 13007KT 15SM FEW270 19/10 A2999 RMK CI1 SLP157

CYWG;2009-07-08 15:00;CYWG 081500Z 11005KT 15SM FEW270 21/10 A2998 RMK CI0 SLP153

CYWG;2009-07-08 16:00;CYWG 081600Z 10007KT 15SM BKN270 22/11 A2995 RMK CI1 SLP145

CYWG;2009-07-08 17:00;CYWG 081700Z 14004KT 15SM BKN270 22/11 A2995 RMK CI1 SLP143

CYWG;2009-07-08 18:00;CYWG 081800Z 14006KT 15SM FEW048 BKN270 24/12 A2993 RMK CF1CI1 SLP138

CYWG;2009-07-08 19:00;CYWG 081900Z 15009KT 15SM FEW050 BKN270 25/11 A2992 RMK CU1CI3 SLP133

CYWG;2009-07-08 20:00;CYWG 082000Z 11009KT 15SM FEW050 BKN270 24/10 A2990 RMK CU1CI3 SLP129

CYWG;2009-07-08 21:00;CYWG 082100Z 17004KT 15SM FEW060 BKN270 24/11 A2990 RMK CU2CI2 SLP125

CYWG;2009-07-08 22:00;CYWG 082200Z 18009KT 15SM FEW060 BKN270 25/12 A2988 RMK CU2CI2 SLP121

CYWG;2009-07-08 23:00;CYWG 082300Z 17009KT 15SM FEW060 BKN270 25/13 A2987 RMK SC2CI2 SLP118

CYWG;2009-07-09 00:00;CYWG 090000Z 16008KT 15SM FEW060 FEW120 BKN270 25/13 A2986 RMK SC2AC1CI2 SLP112

CYWG;2009-07-09 01:00;CYWG 090100Z 14009KT 15SM FEW060 SCT081 OVC270 24/14 A2983 RMK SC2AC2CI2 SLP102

CYWG;2009-07-09 02:00;CYWG 090200Z 15011KT 15SM FEW080 BKN120 BKN270 24/13 A2982 RMK AC2AC2CI1 SLP099

CYWG;2009-07-09 03:00;CYWG 090300Z 14009KT 15SM FEW080 BKN120 22/14 A2983 RMK AC1AC6 SLP101

CYWG;2009-07-09 04:00;CYWG 090400Z 15013KT 15SM BKN069 22/14 A2981 RMK AC7 SLP096

CYWG;2009-07-09 05:00;CYWG 090500Z 16014KT 15SM FEW067 OVC110 22/13 A2980 RMK AC1AC7 SLP090

CYWG;2009-07-09 06:00;CYWG 090600Z 16015KT 15SM FEW067 OVC080 22/13 A2977 RMK AC1AC7 SLP081

CYWG;2009-07-09 07:00;CYWG 090700Z 18014G22KT 15SM OVC110 21/13 A2977 RMK AC8 SLP079

CYWG;2009-07-09 08:00;CYWG 090800Z 17020G27KT 15SM BKN050 OVC080 21/13 A2976 RMK SC5AC3 SLP076

CYWG;2009-07-09 08:43;CYWG 090843Z 17018G25KT 15SM -SHRA BKN050 OVC080 20/ RMK SC6AC2

CYWG;2009-07-09 09:00;CYWG 090900Z 17016G24KT 15SM -SHRA BKN022 OVC050 19/14 A2972 RMK SC6SC2 SLP064

CYWG;2009-07-09 09:28;CYWG 090928Z 19013G18KT 9SM TSRA SCT014 OVC022CB 17/ RMK SF3CB5 LTGCGCC ALL QUADS

CYWG;2009-07-09 10:00;CYWG 091000Z 15017KT 15SM -TSRA BKN008 BKN022CB 17/17 A2969 RERA RMK SF5CB2 LTGIC E CB MOVG NE SLP055

CYWG;2009-07-09 10:15;CYWG 091015Z 17017G22KT 15SM -SHRA BKN008 BKN022 BKN080 18/ RETS RMK SF6SC1AC1

CYWG;2009-07-09 10:32;CYWG 091032Z 16016G25KT 10SM -SHRA BKN011 BKN022 OVC080 17/ RETS RMK SF6SC1AC1 BR

CYWG;2009-07-09 11:00;CYWG 091100Z 16012G19KT 12SM -SHRA FEW011 BKN039TCU OVC069 17/16 A2968 RETS RMK SF2TCU3AC3 SLP052

CYWG;2009-07-09 12:00;CYWG 091200Z 19013G19KT 12SM -SHRA BKN016 OVC078 17/16 A2967 RMK SF6AC2 SLP048

CYWG;2009-07-09 12:31;CYWG 091231Z 17021G28KT 12SM -SHRA BKN009 OVC090 17/ RMK SF5AC3

CYWG;2009-07-09 13:00;CYWG 091300Z 18020G25KT 12SM -SHRA BKN009 OVC085 18/17 A2962 RMK SF5AC3 TCU/ACC ASOCTD SLP030

CYWG;2009-07-09 13:33;CYWG 091333Z 18019G27KT 6SM TSRA BKN009 OVC052CB 18/ RMK SF5CB3 LTGIC SW-W

CYWG;2009-07-09 14:00;CYWG 091400Z 15019KT 12SM -TSRA BKN007 OVC052CB 18/17 A2958 RMK SF5CB3 LTGICCG W SLP019

CYWG;2009-07-09 14:08;CYWG 091408Z 16016G24KT 5SM +TSRA BKN007 OVC052CB RMK SF5CB3 LTGICCG W

CYWG;2009-07-09 14:15;CYWG 091415Z 27019G24KT 1/2SM R31/3000VP6000FT/D R36/2800FT/N +TSRA OVC007 16/ RMK RA3SF5 CB OVRHD

CYWG;2009-07-09 14:31;CYWG 091431Z 20010G29KT 2SM TSRA OVC052CB 14/ RMK RA2CB6

CYWG;2009-07-09 15:00;CYWG 091500Z CCA 23013G22KT 6SM -TSRA BKN006 OVC049CB 16/15 A2963 RERA RMK SF5CB3 SLP035

CYWG;2009-07-09 15:24;CYWG 091524Z 22010KT 15SM BKN020 BKN062CB BKN086 RETS RMK SC5CB2AC0 CB+SHWRS NE

CYWG;2009-07-09 16:00;CYWG 091600Z 24012KT 15SM FEW037 SCT091 BKN250 20/18 A2963 RETS RMK CU2AC2CI0 CB TOPS NE SLP034

CYWG;2009-07-09 17:00;CYWG 091700Z 26011G18KT 15SM FEW023 SCT090 22/17 A2964 RMK CF2AC1 SLP038

CYWG;2009-07-09 18:00;CYWG 091800Z 25010G16KT 15SM SCT027 23/17 A2965 RMK CU3 SLP041

CYWG;2009-07-09 19:00;CYWG 091900Z 24015G20KT 15SM FEW033 BKN049 BKN056TCU 25/17 A2966 RMK CF2CU2TCU1 TCU NW SLP042

CYWG;2009-07-09 20:00;CYWG 092000Z CCA 24017G25KT 15SM FEW040 SCT047 SCT067CB 26/14 A2965 RMK CF2CU2CB1 CB NNE + SSE SLP040

CYWG;2009-07-09 21:00;CYWG 092100Z 24013G20KT 15SM FEW055 FEW061CB 26/14 A2965 RMK CF1CB2 CB N+SE SLP039

CYWG;2009-07-09 22:00;CYWG 092200Z 25017G22KT 15SM FEW055TCU SCT061CB 26/13 A2963 RMK TCU1CB2 TCU N CB + -SHRA SE SLP034

CYWG;2009-07-09 23:00;CYWG 092300Z 25017G26KT 15SM FEW055 FEW062TCU FEW250 25/13 A2963 RMK CU1TCU1CI1 TCU E SLP034

CYWG;2009-07-10 00:00;CYWG 100000Z 25013G19KT 15SM FEW045TCU FEW065CB BKN250 23/14 A2965 RMK TCU1CB2CI1 CB N+W TCU E SLP041

CYWG;2009-07-10 00:39;CYWG 100039Z 25011G20KT 15SM TS FEW045TCU BKN075CB 22/ RMK TCU1CB6 LGTCG SW-W -SHRA SW-N

CYWG;2009-07-10 00:45;CYWG 100045Z 28030G38KT 15SM -TSRA FEW044TCU BKN053CB 20/ RMK TCU1CB6 LGTCG SE-SW MAMATUS

CYWG;2009-07-10 01:00;CYWG 100100Z 24010G24KT 15SM -TSRA FEW013 BKN044CB 17/15 A2969 RMK SF1CB6 LTGCG E VIS E 5 SLP054

CYWG;2009-07-10 01:13;CYWG 100113Z 23005KT 15SM FEW013 BKN081 BKN250 17/ RMK SF2AC4CI1 -SHRA E-S CB EMBDD RETS RERA

CYWG;2009-07-10 02:00;CYWG 100200Z 21010G15KT 15SM SCT066CB SCT090 BKN250 17/15 A2968 RETS RMK CB3AC1CI1 CB E LTGCG E MAMATUS SLP050

CYWG;2009-07-10 03:00;CYWG 100300Z 22009KT 15SM FEW050 SCT090 17/14 A2968 RMK CU2AC2 SLP054

CYWG;2009-07-10 04:00;CYWG 100400Z 24010KT 15SM FEW080 FEW250 17/14 A2970 RMK AC1CI2 SLP058

CYWG;2009-07-10 05:00;CYWG 100500Z 23009KT 15SM BKN093 17/14 A2970 RMK AC6 SLP058

CYWG;2009-07-10 06:00;CYWG 100600Z 24013G19KT 15SM FEW080 17/13 A2970 RMK AC2 SLP060

CYWG;2009-07-10 07:00;CYWG 100700Z 25011KT 15SM FEW120 16/13 A2972 RMK AC1 SLP065

CYWG;2009-07-10 08:00;CYWG 100800Z 27011G17KT 15SM FEW080 15/13 A2974 RMK AC2 SLP072

CYWG;2009-07-10 09:00;CYWG 100900Z 27012G18KT 15SM FEW040 15/13 A2977 RMK SC2 SLP080

CYWG;2009-07-10 10:00;CYWG 101000Z 27011KT 15SM SCT044 14/13 A2979 RMK SC3 SLP089

CYWG;2009-07-10 11:00;CYWG 101100Z 28011KT 15SM FEW044 14/13 A2981 RMK SC2 TCU ASOCTD N SLP095

CYWG;2009-07-10 12:00;CYWG 101200Z 26010KT 15SM FEW040 14/13 A2983 RMK SC2 SLP105

CYWG;2009-07-10 13:00;CYWG 101300Z 29015KT 15SM FEW025 15/12 A2986 RMK SC2 SLP113

CYWG;2009-07-10 14:00;CYWG 101400Z 30017G24KT 15SM SCT025 15/10 A2989 RMK SC4 SLP122

CYWG;2009-07-10 15:00;CYWG 101500Z 30016KT 15SM SCT025 16/10 A2990 RMK SC3 SLP127

CYWG;2009-07-10 16:00;CYWG 101600Z 30019G24KT 15SM BKN027 BKN230 16/11 A2991 RMK SC6CI1 CI TR SLP132

CYWG;2009-07-10 17:00;CYWG 101700Z 29013G19KT 15SM BKN027 BKN230 17/11 A2992 RMK SC6CI0 SLP135

CYWG;2009-07-10 18:00;CYWG 101800Z 29015G20KT 15SM BKN034 18/10 A2992 RMK SC6 SLP134

CYWG;2009-07-10 19:00;CYWG 101900Z 30012G18KT 15SM BKN034 17/11 A2993 RMK SC6 SLP137

CYWG;2009-07-10 20:00;CYWG 102000Z 28018KT 15SM BKN042 BKN240 20/11 A2993 RMK SC5CI1 SLP138

CYWG;2009-07-10 21:00;CYWG 102100Z 30011KT 15SM SCT040 BKN240 19/11 A2994 RMK SC3CI2 SLP143

CYWG;2009-07-10 22:00;CYWG 102200Z 32011KT 15SM SCT043 BKN084 BKN230 18/11 A2996 RMK SC3AC3CI1 SLP147

CYWG;2009-07-10 23:00;CYWG 102300Z 29011G16KT 15SM SCT043 BKN085 BKN230 18/10 A2996 RMK SC3AC2CI2 SLP149

CYWG;2009-07-11 00:00;CYWG 110000Z 31011G16KT 15SM FEW041 SCT080 BKN210 17/09 A2997 RMK SC2AC2CI1 SLP152

CYWG;2009-07-11 01:00;CYWG 110100Z 31008KT 15SM FEW058 FEW210 16/09 A2998 RMK SC2CI1 TR CI SLP155

CYWG;2009-07-11 02:00;CYWG 110200Z 30007KT 15SM FEW049 14/08 A2999 RMK SC1 TR SC SLP159

CYWG;2009-07-11 03:00;CYWG 110300Z 27006KT 15SM SCT060 13/09 A3001 RMK SC3 SLP165

CYWG;2009-07-11 04:00;CYWG 110400Z 28006KT 15SM SCT058 11/09 A3003 RMK SC3 SLP171

CYWG;2009-07-11 05:00;CYWG 110500Z 28005KT 15SM FEW056 10/09 A3004 RMK SC2 SLP175

CYWG;2009-07-11 06:00;CYWG 110600Z 33007KT 15SM FEW054 10/08 A3005 RMK SC2 SLP181

CYWG;2009-07-11 07:00;CYWG 110700Z 25006KT 15SM FEW054 10/07 A3005 RMK SC2 SLP181

CYWG;2009-07-11 08:00;CYWG 110800Z 26007KT 15SM FEW054 08/06 A3006 RMK SC1 SLP183

CYWG;2009-07-11 09:00;CYWG 110900Z 27008KT 15SM SKC 07/06 A3007 RMK SLP188

CYWG;2009-07-11 10:00;CYWG 111000Z 27008KT 15SM FEW020 06/05 A3008 RMK SC1 SC TR SLP190

CYWG;2009-07-11 11:00;CYWG 111100Z 27009KT 15SM FEW020 FEW250 07/05 A3009 RMK SC1CI1 SLP194

CYWG;2009-07-11 12:00;CYWG 111200Z 28008KT 15SM FEW250 09/07 A3009 RMK CI0 SLP196

CYWG;2009-07-11 13:00;CYWG 111300Z 28011KT 15SM FEW250 12/09 A3011 RMK CI1 SLP200

CYWG;2009-07-11 14:00;CYWG 111400Z 30011KT 15SM FEW016 SCT250 15/10 A3012 RMK CF1CI1 SLP205

CYWG;2009-07-11 15:00;CYWG 111500Z 33014G21KT 15SM FEW045 FEW250 16/04 A3013 RMK CU1CI0 SLP209

CYWG;2009-07-11 16:00;CYWG 111600Z 31011G19KT 15SM FEW052 FEW250 17/06 A3014 RMK CU2CI0 SLP210

CYWG;2009-07-11 17:00;CYWG 111700Z 31015KT 15SM FEW054 17/04 A3013 RMK CU2 SLP209

CYWG;2009-07-11 18:00;CYWG 111800Z 31014G20KT 15SM FEW055 SCT250 18/06 A3014 RMK CU2CI1 SLP211

CYWG;2009-07-11 19:00;CYWG 111900Z 32017G22KT 15SM FEW055 FEW093 FEW230 18/06 A3015 RMK CU1AC1CI0 SLP213

CYWG;2009-07-11 20:00;CYWG 112000Z 33012G19KT 15SM FEW050 SCT090 BKN250 19/07 A3015 RMK CU2AC2CI0 SLP213

CYWG;2009-07-11 21:00;CYWG 112100Z 32013KT 15SM FEW050 BKN120 BKN250 17/06 A3014 RMK SC1AC5CI1 SLP213

CYWG;2009-07-11 22:00;CYWG 112200Z 31011KT 15SM BKN120 BKN250 18/07 A3013 RMK AC6CI0 SLP210

CYWG;2009-07-11 23:00;CYWG 112300Z 31009KT 15SM FEW030 SCT078 BKN120 BKN250 18/08 A3013 RMK SC1AC2AC2CI0 SLP209

CYWG;2009-07-12 00:00;CYWG 120000Z 32006KT 15SM SCT080 BKN150 BKN250 17/08 A3012 RMK AC2AC3CI1 SLP204

CYWG;2009-07-12 01:00;CYWG 120100Z 30005KT 15SM BKN087 BKN150 16/08 A3012 RMK AC5AC2 SLP203

CYWG;2009-07-12 02:00;CYWG 120200Z 31004KT 15SM FEW069 BKN095 BKN150 15/10 A3012 RMK AC2AC3AC2 SLP204

CYWG;2009-07-12 03:00;CYWG 120300Z 28003KT 15SM FEW067 BKN089 BKN150 14/11 A3012 RMK AC2AC3AC1 SLP204

CYWG;2009-07-12 04:00;CYWG 120400Z 27004KT 15SM FEW069 SCT089 11/09 A3012 RMK AC2AC2 SLP204

CYWG;2009-07-12 05:00;CYWG 120500Z 29004KT 15SM SCT120 10/09 A3012 RMK AC3 SLP205

CYWG;2009-07-12 06:00;CYWG 120600Z 31002KT 15SM BKN120 09/08 A3013 RMK AC3 SLP208

CYWG;2009-07-12 07:00;CYWG 120700Z 28003KT 15SM FEW120 08/07 A3013 RMK AC2 SLP207

CYWG;2009-07-12 08:00;CYWG 120800Z 28005KT 15SM SCT089 07/06 A3014 RMK AC2 SLP210

CYWG;2009-07-12 09:00;CYWG 120900Z 28003KT 15SM FEW079 07/07 A3014 RMK AC1 SLP213

CYWG;2009-07-12 10:00;CYWG 121000Z 28004KT 15SM SKC 05/05 A3015 RMK SLP215

CYWG;2009-07-12 11:00;CYWG 121100Z 28005KT 15SM FEW270 07/06 A3015 RMK CI0 SLP216

CYWG;2009-07-12 12:00;CYWG 121200Z 31003KT 15SM FEW100 FEW270 09/08 A3016 RMK AC1CI0 SLP220

CYWG;2009-07-12 13:00;CYWG 121300Z 30003KT 15SM FEW100 FEW270 13/11 A3018 RMK AC1CI1 SLP224

CYWG;2009-07-12 14:00;CYWG 121400Z 35006KT 15SM FEW270 15/10 A3019 RMK CI0 SLP227

CYWG;2009-07-12 15:00;CYWG 121500Z 35006KT 15SM FEW030 FEW270 17/09 A3019 RMK CU1CI0 SLP229

CYWG;2009-07-12 16:00;CYWG 121600Z 32002KT 15SM FEW037 FEW270 18/08 A3020 RMK CU1CI0 SLP230

CYWG;2009-07-12 17:00;CYWG 121700Z 27004KT 15SM FEW043 19/08 A3019 RMK CU1 SLP228

CYWG;2009-07-12 18:00;CYWG 121800Z 36009KT 15SM FEW050 20/08 A3019 RMK CU1 SLP226

CYWG;2009-07-12 19:00;CYWG 121900Z 35006KT 15SM FEW050 20/06 A3018 RMK CF1 SLP223

CYWG;2009-07-12 20:00;CYWG 122000Z 33008G16KT 15SM FEW050 21/08 A3016 RMK CF1 SLP219

CYWG;2009-07-12 21:00;CYWG 122100Z 33008KT 15SM FEW095 21/08 A3016 RMK AC2 SLP219

CYWG;2009-07-12 22:00;CYWG 122200Z 33009G15KT 15SM FEW059 22/10 A3016 RMK CU2 SLP218

CYWG;2009-07-12 23:00;CYWG 122300Z 33009KT 15SM FEW059 21/09 A3016 RMK CF2 SLP216

CYWG;2009-07-13 00:00;CYWG 130000Z 32009KT 15SM FEW060 21/09 A3015 RMK SC1 SLP215

CYWG;2009-07-13 01:00;CYWG 130100Z 31008KT 15SM FEW060 20/10 A3015 RMK SC1 SLP214

CYWG;2009-07-13 02:00;CYWG 130200Z 30005KT 15SM SCT250 16/11 A3014 RMK CI0 SLP210

CYWG;2009-07-13 03:00;CYWG 130300Z 27005KT 15SM SKC 13/10 A3015 RMK SLP213

CYWG;2009-07-13 04:00;CYWG 130400Z 27006KT 15SM SKC 13/09 A3015 RMK SLP214

CYWG;2009-07-13 05:00;CYWG 130500Z 27006KT 15SM SKC 13/09 A3016 RMK SLP217

CYWG;2009-07-13 06:00;CYWG 130600Z 27006KT 15SM SKC 12/09 A3017 RMK SLP220

CYWG;2009-07-13 07:00;CYWG 130700Z 28006KT 15SM SKC 10/08 A3016 RMK SLP218

CYWG;2009-07-13 08:00;CYWG 130800Z 28004KT 15SM SKC 08/07 A3016 RMK SLP215

CYWG;2009-07-13 09:00;CYWG 130900Z 27006KT 15SM SKC 10/08 A3016 RMK SLP217

CYWG;2009-07-13 10:00;CYWG 131000Z 28004KT 15SM SKC 07/06 A3016 RMK SLP216

CYWG;2009-07-13 11:00;CYWG 131100Z 28003KT 15SM FEW240 07/06 A3017 RMK CI1 SLP219

CYWG;2009-07-13 12:00;CYWG 131200Z 00000KT 15SM FEW240 10/09 A3016 RMK CI1 SLP218

CYWG;2009-07-13 13:00;CYWG 131300Z 00000KT 15SM SCT240 14/11 A3016 RMK CI1 SLP218

CYWG;2009-07-13 14:00;CYWG 131400Z 00000KT 15SM BKN240 17/12 A3016 RMK CI1 SLP215

CYWG;2009-07-13 15:00;CYWG 131500Z 16002KT 15SM OVC240 20/11 A3016 RMK CI2 SLP215

CYWG;2009-07-13 16:00;CYWG 131600Z 00000KT 15SM OVC240 21/09 A3014 RMK CI2 SLP210

CYWG;2009-07-13 17:00;CYWG 131700Z 22008KT 15SM FEW048 OVC240 22/10 A3013 RMK CU1CI2 CU TR SLP206

CYWG;2009-07-13 18:00;CYWG 131800Z 18005KT 15SM FEW048 BKN240 22/10 A3011 RMK CU1CI1 CU TR SLP200

CYWG;2009-07-13 19:00;CYWG 131900Z 21005KT 15SM FEW048 BKN240 22/10 A3009 RMK CU1CI1 SLP194

CYWG;2009-07-13 20:00;CYWG 132000Z 21006KT 15SM FEW052 BKN240 23/09 A3008 RMK CU1CI1 SLP188

CYWG;2009-07-13 21:00;CYWG 132100Z 22006KT 15SM BKN240 23/09 A3006 RMK CI1 SLP183

CYWG;2009-07-13 22:00;CYWG 132200Z 19010KT 15SM BKN240 24/10 A3004 RMK CI1 SLP175

CYWG;2009-07-13 23:00;CYWG 132300Z 17007G15KT 15SM SCT240 23/10 A3002 RMK CI1 SLP169

CYWG;2009-07-14 00:00;CYWG 140000Z 20009KT 15SM SCT240 23/08 A3000 RMK CI2 SLP163

CYWG;2009-07-14 01:00;CYWG 140100Z 17009KT 15SM FEW120 BKN240 22/10 A2999 RMK AC1CI1 SLP159

CYWG;2009-07-14 02:00;CYWG 140200Z 20007KT 15SM FEW120 BKN240 21/10 A2998 RMK AC1CI1 SLP155

CYWG;2009-07-14 03:00;CYWG 140300Z 19006KT 15SM FEW120 SCT240 18/12 A2997 RMK AC1CI0 SLP152

CYWG;2009-07-14 04:00;CYWG 140400Z 18005KT 15SM FEW120 SCT240 16/12 A2997 RMK AC1CI1 SLP151

CYWG;2009-07-14 05:00;CYWG 140500Z 17003KT 15SM FEW120 SCT240 16/11 A2997 RMK AC1CI1 SLP150

CYWG;2009-07-14 06:00;CYWG 140600Z 14005KT 15SM FEW120 SCT240 14/11 A2994 RMK AC2CI1 SLP140

CYWG;2009-07-14 07:00;CYWG 140700Z 17007KT 15SM BKN120 15/11 A2993 RMK AC4 SLP139

CYWG;2009-07-14 08:00;CYWG 140800Z 13008KT 15SM BKN120 16/11 A2991 RMK AC5 SLP132

CYWG;2009-07-14 09:00;CYWG 140900Z 13008KT 15SM BKN120 17/10 A2987 RMK AC5 SLP115

CYWG;2009-07-14 10:00;CYWG 141000Z 14009KT 15SM BKN067 BKN120 17/10 A2984 RMK AC5AC2 SLP107

CYWG;2009-07-14 11:00;CYWG 141100Z 13011KT 15SM BKN075 BKN120 OVC250 17/10 A2983 RMK AC6AC2CI0 SLP104

CYWG;2009-07-14 12:00;CYWG 141200Z 13015KT 15SM FEW059 BKN080 OVC250 17/10 A2981 RMK SC2AC4CI0 SLP095

CYWG;2009-07-14 12:10;CYWG 141210Z 12011KT 15SM -SHRA SCT059 BKN083 OVC250 17/ RMK SC3AC3CI0

CYWG;2009-07-14 12:40;CYWG 141240Z 13011KT 15SM FEW045 BKN083 OVC250 17/ RMK SC2AC4CI1

CYWG;2009-07-14 13:00;CYWG 141300Z 14012G17KT 15SM FEW045 BKN083 OVC250 18/11 A2977 RMK SC2AC5CI0 SLP083

CYWG;2009-07-14 13:54;CYWG 141354Z 15014KT 15SM -SHRA SCT038 BKN070 OVC098 18/ RMK SC3AC2AC2 CVCTV CLD EMBD

CYWG;2009-07-14 14:00;CYWG 141400Z 14014KT 15SM -SHRA SCT038 BKN070 OVC098 18/11 A2975 RMK SC3AC2AC2 CVCTV CLD EMBD SLP077

CYWG;2009-07-14 15:00;CYWG 141500Z 12014KT 15SM SCT038 BKN070 BKN250 18/14 A2970 RERA RMK SC3AC2CI0 ACC ASOCTD SLP059

CYWG;2009-07-14 16:00;CYWG 141600Z 16014KT 15SM BKN026 OVC079 19/14 A2970 RMK SC5AC3 SLP059

CYWG;2009-07-14 16:36;CYWG 141636Z 18008KT 15SM -SHRA BKN026 OVC079 19/ RMK SC6AC2 HVY SH SW - NW

CYWG;2009-07-14 17:00;CYWG 141700Z 18006KT 15SM -SHRA BKN026 OVC036 19/15 A2968 RMK SC6SC2 CVCTV CLD EMBD SLP054

CYWG;2009-07-14 18:00;CYWG 141800Z 17003KT 3SM -SHRA BR BKN024 OVC080 18/17 A2967 RMK SC6AC2 CVCTV CLD EMBD SLP050

CYWG;2009-07-14 19:00;CYWG 141900Z 16007KT 3SM -TSRA BR BKN020CB OVC080 18/17 A2964 RMK CB6AC2 SLP038

CYWG;2009-07-14 19:11;CYWG 141911Z 16007KT 2SM -TSRA BR BKN014 BKN020CB OVC080 18/ RMK SF5CB2AC1 LTNG OVRHD

CYWG;2009-07-14 19:19;CYWG 141919Z 16008KT 1 1/2SM -TSRA BR BKN007 OVC020CB 17/ RMK SF6CB2 LTNG OVRHD

CYWG;2009-07-14 19:31;CYWG 141931Z 14007KT 3SM -TSRA BR SCT004 OVC020CB 17/ RMK SF4CB4 LTNG NE

CYWG;2009-07-14 20:00;CYWG 142000Z 13009KT 3SM -TSRA BR BKN007 BKN020CB OVC080 18/18 A2960 RMK SF5CB2AC1 PRESFR SLP027

CYWG;2009-07-14 20:30;CYWG 142030Z 12008KT 5SM -SHRA BR FEW007 BKN010 OVC080 18/ RMK SF2SC4AC2 RETS

CYWG;2009-07-14 21:00;CYWG 142100Z 17008KT 10SM -SHRA SCT006 BKN036 OVC071 19/19 A2960 RMK SF3SC4AC1 BR RETS SLP024

CYWG;2009-07-14 21:38;CYWG 142138Z 17010KT 12SM FEW006 SCT013 BKN050 BKN094 20/ RMK SF2SC2SC3AC1 BR

CYWG;2009-07-14 22:00;CYWG 142200Z 16007KT 15SM FEW006 BKN015 BKN094 20/20 A2959 RMK SF2SC2AC2 SLP021

CYWG;2009-07-14 23:00;CYWG 142300Z 17012KT 15SM FEW006 BKN018 BKN090 21/18 A2955 RMK SF2SC5AC1 SLP009

CYWG;2009-07-14 23:35;CYWG 142335Z 14010G15KT 15SM -TSRA BKN043CB OVC081 RMK CB5AC3

CYWG;2009-07-14 23:49;CYWG 142349Z 14012KT 1/2SM R13/P6000FT/U TSRA OVC039CB 20/ RMK CB8 LTNG OVRHD

CYWG;2009-07-15 00:00;CYWG 150000Z 16016KT 3SM R13/2800VP6000FT/D -TSRA BR FEW002 BKN039CB OVC090 18/18 A2954 RMK SF2CB5AC2 LTNG OVRHD RERA SLP004

CYWG;2009-07-15 00:08;CYWG 150008Z 26011G19KT 1 1/2SM R13/2600VP6000FT/N -TSRA BR FEW001 OVC039CB 18/ RMK SF2CB6 LTNGCG N

CYWG;2009-07-15 00:34;CYWG 150034Z 28005KT 3SM -TSRA BR BKN006 OVC045CB 16/ RMK SF6CB2 LTNGCG N

CYWG;2009-07-15 01:00;CYWG 150100Z 23006KT 3SM -TSRA BR BKN008 OVC066CB 17/16 A2954 RMK SF6CB2 LTNGCG SLP004

CYWG;2009-07-15 01:19;CYWG 150119Z 00000KT 6SM -TSRA BR FEW008 OVC017CB 17/ RMK SF2CB6

CYWG;2009-07-15 01:45;CYWG 150145Z 21009KT 10SM -SHRA OVC013 17/ RMK SC8 BR

CYWG;2009-07-15 02:00;CYWG 150200Z 20005KT 12SM OVC013 17/17 A2954 RMK SC8 BR SLP005

CYWG;2009-07-15 02:23;CYWG 150223Z 21007KT 10SM -SHRA OVC026 17/ RMK SC8 BR

CYWG;2009-07-15 03:00;CYWG 150300Z 19006KT 15SM -SHRA SCT034 OVC066 17/17 A2955 RMK SC4AC4 SLP008

CYWG;2009-07-15 04:00;CYWG 150400Z 22007KT 15SM -SHRA FEW009 SCT030 OVC089 17/17 A2954 RMK SF1SC3AC4 LTGIC S-SW SLP006

CYWG;2009-07-15 04:42;CYWG 150442Z 25008KT 15SM -SHRA BKN019 OVC047 17/ RMK SC6SC2

CYWG;2009-07-15 05:00;CYWG 150500Z 25008KT 15SM -SHRA BKN022 OVC068 16/16 A2954 RMK SC6AC2 SLP007

CYWG;2009-07-15 06:00;CYWG 150600Z 23007KT 10SM -SHRA OVC025 17/16 A2953 RMK SC8 SLP002

CYWG;2009-07-15 06:33;CYWG 150633Z 23009KT 15SM BKN025 OVC060 16/ RMK SC6SC2

CYWG;2009-07-15 07:00;CYWG 150700Z 25009KT 15SM SCT027 OVC065 17/16 A2953 RMK SC3SC5 SLP002

CYWG;2009-07-15 07:22;CYWG 150722Z 28023G29KT 15SM SCT011 BKN033 OVC065 16/ RMK SC3SC3SC2

CYWG;2009-07-15 08:00;CYWG 150800Z 27018KT 15SM FEW011 SCT024 15/14 A2954 RMK SC1SC2 SLP006

CYWG;2009-07-15 09:00;CYWG 150900Z 27016G25KT 15SM OVC020 15/14 A2955 RMK SC8 SLP009

CYWG;2009-07-15 10:00;CYWG 151000Z 29019KT 15SM SCT016 OVC020 15/14 A2957 RMK SC4SC4 SLP014

CYWG;2009-07-15 10:08;CYWG 151008Z 28018KT 15SM -RA SCT009 OVC020 14/ RMK SF3SC5

CYWG;2009-07-15 11:00;CYWG 151100Z 29017G22KT 6SM -RA BR BKN006 OVC027 15/15 A2958 RMK SF5SC3 SLP020

CYWG;2009-07-15 12:00;CYWG 151200Z 29016G22KT 10SM -RA BKN009 OVC023 15/14 A2962 RMK SF5SC3 BR SLP032

CYWG;2009-07-15 12:16;CYWG 151216Z 29019G25KT 6SM -DZ BR OVC013 14/ RMK SF8

CYWG;2009-07-15 12:45;CYWG 151245Z 28016G24KT 12SM OVC013 15/ RMK SC8 BR

CYWG;2009-07-15 13:00;CYWG 151300Z 29019G27KT 12SM SCT013 OVC021 15/13 A2964 RMK SC4SC4 BR SLP041

CYWG;2009-07-15 14:00;CYWG 151400Z 29018G26KT 15SM OVC019 14/13 A2967 RMK SC8 SLP050

CYWG;2009-07-15 15:00;CYWG 151500Z 30019G25KT 15SM OVC021 15/12 A2970 RMK SC8 SLP061

CYWG;2009-07-15 16:00;CYWG 151600Z 29017G25KT 15SM BKN022 17/14 A2972 RMK SC7 SLP066

CYWG;2009-07-15 17:00;CYWG 151700Z 30018G28KT 15SM OVC024 16/12 A2974 RMK SC8 SLP075

CYWG;2009-07-15 18:00;CYWG 151800Z 29020KT 15SM BKN024 OVC045 16/12 A2975 RMK SC6SC2 SLP078

CYWG;2009-07-15 19:00;CYWG 151900Z 29020G28KT 15SM OVC027 15/11 A2977 RMK SC8 SLP085

CYWG;2009-07-15 20:00;CYWG 152000Z 30015G20KT 15SM OVC025 16/11 A2980 RMK SC8 SLP092

CYWG;2009-07-15 21:00;CYWG 152100Z 30012G17KT 15SM OVC031 15/11 A2981 RMK SC8 SLP099

CYWG;2009-07-15 22:00;CYWG 152200Z 30011G21KT 15SM OVC029 15/11 A2983 RMK SC8 SLP105

CYWG;2009-07-15 23:00;CYWG 152300Z 30014KT 15SM OVC027 15/10 A2984 RMK SC8 SLP108

CYWG;2009-07-16 00:00;CYWG 160000Z 32019KT 15SM BKN032 BKN048 15/10 A2985 RMK SC5SC2 SLP111

CYWG;2009-07-16 01:00;CYWG 160100Z 32012G17KT 15SM BKN036 OVC078 14/11 A2987 RMK SC5AC3 SLP117

CYWG;2009-07-16 02:00;CYWG 160200Z 32014G19KT 15SM BKN033 12/11 A2988 RMK SC7 SLP122

CYWG;2009-07-16 02:20;CYWG 160220Z 31012G20KT 6SM -DZ SCT009 OVC029 11/ RMK ST3SC5

CYWG;2009-07-16 02:47;CYWG 160247Z 30011KT 10SM FEW009 OVC024 11/ RMK SF2SC6

CYWG;2009-07-16 03:00;CYWG 160300Z 30011KT 10SM BKN017 OVC043 11/10 A2990 RMK SC5SC3 SLP129

CYWG;2009-07-16 04:00;CYWG 160400Z 30012G21KT 10SM -DZ OVC022 11/10 A2990 RMK SC8 SLP128

CYWG;2009-07-16 04:13;CYWG 160413Z 30007KT 15SM OVC022 11/ RMK SC8

CYWG;2009-07-16 04:46;CYWG 160446Z 29015KT 6SM -DZ OVC020 11/ RMK SC8

CYWG;2009-07-16 05:00;CYWG 160500Z 30017G22KT 10SM -DZ OVC020 10/10 A2990 RMK SC8 SLP128

CYWG;2009-07-16 06:00;CYWG 160600Z 30015G21KT 10SM -DZ OVC019 10/10 A2989 RMK SC8 SLP125

CYWG;2009-07-16 06:35;CYWG 160635Z 30013G21KT 3SM -DZ OVC013 10/ RMK SF8

CYWG;2009-07-16 07:00;CYWG 160700Z 30013KT 3SM -DZ BR OVC009 10/10 A2989 RMK ST8 SLP125

CYWG;2009-07-16 07:20;CYWG 160720Z 30011G16KT 2SM -RA BR OVC009 10/ RMK ST8

CYWG;2009-07-16 08:00;CYWG 160800Z 30015KT 3SM -DZ BR SCT006 OVC014 10/09 A2989 RMK SF3SC5 SLP125

CYWG;2009-07-16 09:00;CYWG 160900Z 30013KT 3SM -DZ BR BKN007 OVC037 10/10 A2988 RMK SF6SC2 SLP123

CYWG;2009-07-16 09:42;CYWG 160942Z 30015KT 2 1/2SM -DZ BR OVC004 10/ RMK SF8

CYWG;2009-07-16 10:00;CYWG 161000Z 30015KT 10SM -DZ OVC004 10/10 A2988 RMK SF8 BR SLP123

CYWG;2009-07-16 10:12;CYWG 161012Z 32015KT 10SM -DZ SCT006 OVC009 10/ RMK SF4SC4

CYWG;2009-07-16 11:00;CYWG 161100Z 32015G20KT 10SM -RA SCT008 OVC013 09/08 A2990 RMK SF3SC5 SLP129

CYWG;2009-07-16 11:39;CYWG 161139Z 31012G17KT 15SM -RA OVC015 09/ RMK SC8

CYWG;2009-07-16 12:00;CYWG 161200Z 32016KT 15SM -RA BKN018 OVC033 09/09 A2990 RMK SC6SC2 SLP131

CYWG;2009-07-16 13:00;CYWG 161300Z 31011G16KT 15SM BKN033 OVC070 11/09 A2989 RMK SC5AC3 SLP128

CYWG;2009-07-16 14:00;CYWG 161400Z 31014G24KT 15SM BKN027 13/10 A2988 RMK SC7 SLP125

CYWG;2009-07-16 15:00;CYWG 161500Z 32019G30KT 15SM BKN027 BKN070 14/10 A2988 RMK SC6AC2 SLP124

CYWG;2009-07-16 16:00;CYWG 161600Z 31018G24KT 15SM BKN027 15/10 A2989 RMK SC7 SLP125

CYWG;2009-07-16 17:00;CYWG 161700Z 32019G29KT 15SM OVC031 16/11 A2990 RMK SC8 SLP129

CYWG;2009-07-16 18:00;CYWG 161800Z 33020G29KT 15SM OVC033 16/10 A2991 RMK SC8 SLP132

CYWG;2009-07-16 19:00;CYWG 161900Z 33020G27KT 15SM OVC033 16/10 A2993 RMK SC8 SLP139

CYWG;2009-07-16 20:00;CYWG 162000Z 33022G31KT 15SM BKN033 OVC090 16/11 A2995 RMK SC7AC1 SLP145

CYWG;2009-07-16 21:00;CYWG 162100Z 34026G33KT 15SM OVC024 16/11 A2996 RMK SC8 SLP151

CYWG;2009-07-16 22:00;CYWG 162200Z 33025G31KT 15SM OVC024 15/11 A2999 RMK SC8 SLP161

CYWG;2009-07-16 23:00;CYWG 162300Z 34021G30KT 15SM OVC024 15/11 A3000 RMK SC8 SLP165

CYWG;2009-07-17 00:00;CYWG 170000Z 35018G25KT 15SM OVC030 15/11 A3001 RMK SC8 SLP168

CYWG;2009-07-17 01:00;CYWG 170100Z 34016KT 15SM BKN033 15/10 A3002 RMK SC7 SLP172

CYWG;2009-07-17 02:00;CYWG 170200Z 36012G18KT 15SM BKN043 BKN080 15/10 A3003 RMK SC6AC1 SLP175

CYWG;2009-07-17 03:00;CYWG 170300Z 32008KT 15SM BKN040 13/11 A3004 RMK SC6 SLP178

CYWG;2009-07-17 04:00;CYWG 170400Z 32009KT 15SM BKN058 12/10 A3005 RMK SC5 SLP179

CYWG;2009-07-17 05:00;CYWG 170500Z 32007KT 15SM BKN070 11/10 A3005 RMK AC5 SLP180

CYWG;2009-07-17 06:00;CYWG 170600Z 33007KT 15SM BKN073 11/10 A3005 RMK AC7 SLP181

CYWG;2009-07-17 07:00;CYWG 170700Z 33008KT 15SM BKN067 BKN090 11/10 A3006 RMK AC5AC1 SLP183

CYWG;2009-07-17 07:42;CYWG 170742Z 34009KT 15SM -SHRA OVC070 12/ RMK AC8

CYWG;2009-07-17 08:00;CYWG 170800Z 35009KT 15SM -SHRA OVC070 12/10 A3007 RMK AC8 SLP186

CYWG;2009-07-17 09:00;CYWG 170900Z 36009KT 15SM BKN054 12/10 A3007 RMK SC6 SLP186

CYWG;2009-07-17 10:00;CYWG 171000Z 33007KT 15SM FEW090 BKN190 10/10 A3008 RMK AC2AC2 SLP189

CYWG;2009-07-17 11:00;CYWG 171100Z 32006KT 15SM SCT021 SCT090 BKN250 09/09 A3009 RMK SC3AC1CI1 SLP193

CYWG;2009-07-17 12:00;CYWG 171200Z 33007KT 15SM FEW020 FEW090 SCT270 09/09 A3010 RMK SC1AC1CI1 SLP197

CYWG;2009-07-17 13:00;CYWG 171300Z 35011KT 15SM FEW020 FEW090 SCT270 12/09 A3011 RMK SC1AC1CI0 SLP201

CYWG;2009-07-17 14:00;CYWG 171400Z 34013KT 15SM FEW020 FEW090 FEW270 13/09 A3012 RMK CF1AC1CI0 SLP205

CYWG;2009-07-17 15:00;CYWG 171500Z 35014KT 15SM FEW020 FEW120 FEW270 15/09 A3014 RMK CF1AC1CI0 SLP211

CYWG;2009-07-17 16:00;CYWG 171600Z 34014KT 15SM FEW031 FEW120 FEW270 16/09 A3014 RMK CF1AC1CI0 SLP211

CYWG;2009-07-17 17:00;CYWG 171700Z 35010G17KT 15SM FEW036 FEW120 FEW270 17/10 A3014 RMK CU1AC1CI0 SLP212

CYWG;2009-07-17 18:00;CYWG 171800Z 35012KT 15SM FEW037 FEW270 17/09 A3015 RMK CU1CI1 SLP214

CYWG;2009-07-17 19:00;CYWG 171900Z 35012KT 15SM FEW032 FEW270 19/10 A3014 RMK CU1CI0 SLP212

CYWG;2009-07-17 20:00;CYWG 172000Z 01012G18KT 15SM BKN040 BKN270 19/12 A3014 RMK CU5CI0 SLP212

CYWG;2009-07-17 21:00;CYWG 172100Z 05012G17KT 15SM BKN033 BKN095 18/13 A3014 RMK SC6AC1 SLP212

CYWG;2009-07-17 22:00;CYWG 172200Z 05012KT 15SM SCT049 BKN095 18/12 A3014 RMK SC3AC2 SLP212

CYWG;2009-07-17 23:00;CYWG 172300Z 03010KT 15SM BKN036 BKN100 18/12 A3015 RMK SC5AC1 SLP214

CYWG;2009-07-18 00:00;CYWG 180000Z 05011KT 15SM FEW040 FEW092 18/12 A3015 RMK SC2AC1 SLP214

CYWG;2009-07-18 01:00;CYWG 180100Z 04007KT 15SM BKN049 16/11 A3015 RMK SC5 OBS TAKEN +22MINS SLP214

CYWG;2009-07-18 02:00;CYWG 180200Z 04007KT 15SM BKN042 BKN270 16/11 A3015 RMK SC6CI0 SLP214

CYWG;2009-07-18 03:00;CYWG 180300Z 06004KT 15SM FEW042 BKN270 13/11 A3016 RMK SC1CI1 SLP217

CYWG;2009-07-18 04:00;CYWG 180400Z 01002KT 15SM SCT270 12/11 A3016 RMK CI1 SLP219

CYWG;2009-07-18 05:00;CYWG 180500Z 30004KT 15SM SKC 10/10 A3017 RMK SLP220

CYWG;2009-07-18 06:00;CYWG 180600Z 29006KT 15SM SKC 09/09 A3017 RMK SLP221

CYWG;2009-07-18 07:00;CYWG 180700Z 29005KT 15SM SKC 08/08 A3017 RMK SLP222

CYWG;2009-07-18 08:00;CYWG 180800Z 28006KT 15SM SKC 08/08 A3016 RMK SLP220

CYWG;2009-07-18 09:00;CYWG 180900Z 31003KT 15SM FEW260 07/07 A3017 RMK CI0 SLP222

CYWG;2009-07-18 10:00;CYWG 181000Z 29006KT 15SM FEW260 08/08 A3017 RMK CI0 SLP222

CYWG;2009-07-18 11:00;CYWG 181100Z 29006KT 15SM MIFG FEW100 FEW260 07/07 A3018 RMK AC1CI0 MIFG W-NW SLP224

CYWG;2009-07-18 12:00;CYWG 181200Z 29004KT 15SM FEW100 FEW260 09/09 A3018 RMK AC1CI0 SLP226

CYWG;2009-07-18 13:00;CYWG 181300Z 34004KT 15SM FEW080 FEW260 13/12 A3019 RMK AC1CI0 SLP228

CYWG;2009-07-18 14:00;CYWG 181400Z 01006KT 15SM FEW040 FEW260 15/12 A3019 RMK SC1CI0 SLP228

CYWG;2009-07-18 15:00;CYWG 181500Z 36005KT 15SM FEW015 FEW250 16/13 A3019 RMK CU1CI0 SLP227

CYWG;2009-07-18 16:00;CYWG 181600Z 05004KT 15SM BKN017 17/13 A3019 RMK CU6 SLP228

CYWG;2009-07-18 17:00;CYWG 181700Z 36005KT 15SM BKN019 17/13 A3019 RMK SC6 SLP228

CYWG;2009-07-18 18:00;CYWG 181800Z 03006KT 15SM BKN024 18/13 A3018 RMK CU5 SLP224

CYWG;2009-07-18 19:00;CYWG 181900Z 32004KT 15SM BKN026 19/14 A3017 RMK CU6 SLP222

CYWG;2009-07-18 20:00;CYWG 182000Z 02007KT 15SM BKN033 20/13 A3016 RMK CU6 SLP219

CYWG;2009-07-18 21:00;CYWG 182100Z 35006KT 15SM FEW035 SCT250 20/13 A3015 RMK CU2CI0 SLP215

CYWG;2009-07-18 22:00;CYWG 182200Z 33002KT 15SM FEW037 BKN250 21/13 A3014 RMK SC2CI1 SLP211

CYWG;2009-07-18 23:00;CYWG 182300Z 03002KT 15SM FEW082 BKN250 20/13 A3013 RMK AC1CI2 SLP208

CYWG;2009-07-19 00:00;CYWG 190000Z 05003KT 15SM BKN250 20/13 A3012 RMK CI2 SLP204

CYWG;2009-07-19 01:00;CYWG 190100Z 01004KT 15SM BKN250 19/13 A3012 RMK CI2 SLP203

CYWG;2009-07-19 02:00;CYWG 190200Z 03003KT 15SM BKN250 17/13 A3012 RMK CI1 SLP202

CYWG;2009-07-19 03:00;CYWG 190300Z 03003KT 15SM FEW250 14/12 A3012 RMK CI0 SLP205

CYWG;2009-07-19 04:00;CYWG 190400Z 14003KT 15SM FEW250 13/11 A3011 RMK CI0 SLP200

CYWG;2009-07-19 05:00;CYWG 190500Z 15003KT 15SM SKC 12/11 A3010 RMK SLP197

CYWG;2009-07-19 06:00;CYWG 190600Z 18003KT 15SM SKC 12/11 A3009 RMK SLP194

CYWG;2009-07-19 07:00;CYWG 190700Z 17003KT 15SM SKC 12/11 A3008 RMK SLP191

CYWG;2009-07-19 08:00;CYWG 190800Z 16005KT 15SM SKC 11/10 A3008 RMK SLP189

CYWG;2009-07-19 09:00;CYWG 190900Z 18007KT 15SM SKC 11/10 A3007 RMK SLP188

CYWG;2009-07-19 10:00;CYWG 191000Z 17006KT 15SM FEW250 10/09 A3007 RMK CI0 SLP186

CYWG;2009-07-19 11:00;CYWG 191100Z 18007KT 15SM SCT270 11/11 A3007 RMK CI0 SLP186

CYWG;2009-07-19 12:00;CYWG 191200Z 18008KT 15SM BKN270 13/11 A3006 RMK CI0 SLP184

CYWG;2009-07-19 13:00;CYWG 191300Z 18009KT 15SM BKN270 16/13 A3005 RMK CI0 SLP180

CYWG;2009-07-19 14:00;CYWG 191400Z 18009KT 15SM BKN270 17/14 A3004 RMK CI0 SLP176

CYWG;2009-07-19 15:00;CYWG 191500Z 18011KT 15SM BKN270 20/14 A3002 RMK CI0 SLP168

CYWG;2009-07-19 16:00;CYWG 191600Z 18011KT 15SM BKN270 22/14 A3000 RMK CI1 SLP161

CYWG;2009-07-19 17:00;CYWG 191700Z 17011KT 15SM BKN270 23/15 A2998 RMK CI2 SLP155

CYWG;2009-07-19 18:00;CYWG 191800Z 19017KT 15SM SCT270 24/14 A2996 RMK CI1 SLP146

CYWG;2009-07-19 19:00;CYWG 191900Z 19016KT 15SM FEW040 FEW270 25/14 A2994 RMK CU1CI1 SLP140

CYWG;2009-07-19 20:00;CYWG 192000Z 17017KT 15SM FEW045 FEW270 25/14 A2992 RMK CU1CI1 SLP133

CYWG;2009-07-19 21:00;CYWG 192100Z 17018KT 15SM FEW045 FEW270 26/15 A2990 RMK CU1CI0 SLP127

CYWG;2009-07-19 22:00;CYWG 192200Z 17019G24KT 15SM FEW045 FEW270 26/16 A2987 RMK CU1CI0 SLP116

CYWG;2009-07-19 23:00;CYWG 192300Z 18018KT 15SM FEW045 FEW150 FEW250 26/15 A2985 RMK CU1AC1CI0 SLP110

CYWG;2009-07-20 00:00;CYWG 200000Z 18016G25KT 15SM FEW090 FEW250 25/16 A2983 RMK AC1CI0 SLP103

CYWG;2009-07-20 01:00;CYWG 200100Z 16016G21KT 15SM FEW090 FEW250 24/16 A2981 RMK AC1CI0 SLP097

CYWG;2009-07-20 02:00;CYWG 200200Z 16016G21KT 15SM FEW090 FEW250 23/15 A2980 RMK AC1CI0 SLP092

CYWG;2009-07-20 03:00;CYWG 200300Z 17021G27KT 15SM FEW090 FEW250 22/15 A2979 RMK AC1CI1 SLP088

CYWG;2009-07-20 04:00;CYWG 200400Z 17017G22KT 15SM FEW074 FEW250 21/14 A2981 RMK AC1CI2 SLP094

CYWG;2009-07-20 05:00;CYWG 200500Z 18017G26KT 15SM FEW074 FEW250 21/13 A2979 RMK AC1CI2 SLP089

CYWG;2009-07-20 06:00;CYWG 200600Z 17017KT 15SM FEW074 FEW120 SCT250 20/13 A2977 RMK AC1AC2CI2 LTNG DIST W SLP080

CYWG;2009-07-20 06:52;CYWG 200652Z 18017G24KT 15SM -TSRA BKN079CB 20/ RMK CB6 LTGIC W

CYWG;2009-07-20 07:00;CYWG 200700Z 18020G25KT 15SM -TSRA FEW013 BKN079CB 19/14 A2974 RMK SF2CB5 LTGIC S-W SLP070

CYWG;2009-07-20 07:23;CYWG 200723Z 18021G27KT 4SM -TSRA BKN010CB OVC079 17/ RMK CB6AC2 RERA CVCTV CLD EMBD LTNG OVRHD

CYWG;2009-07-20 07:41;CYWG 200741Z 18020G26KT 15SM TS BKN010CB OVC092 16/ RERA RMK CB5AC3 LTNG NE-S

CYWG;2009-07-20 08:00;CYWG 200800Z 18020G26KT 15SM TS SCT014 BKN094 18/15 A2974 RERA RMK SC3AC3 CVCTV CLD EMBD LTNG E-S SLP069

CYWG;2009-07-20 08:04;CYWG 200804Z 18023G28KT 15SM SCT024 BKN094 18/ RETS RMK SC3AC2 CVCTV CLD EMBD LTNG DIST E-S

CYWG;2009-07-20 09:00;CYWG 200900Z 18015G21KT 15SM BKN060 BKN089 18/14 A2974 RETS RMK SC5AC2 LTNG DIST E-SE SLP069

CYWG;2009-07-20 10:00;CYWG 201000Z 17009G15KT 15SM OVC048 17/16 A2972 RMK SC7 LTGCGIC DIST SE SLP064

CYWG;2009-07-20 10:32;CYWG 201032Z 20018G24KT 15SM TS BKN040CB OVC090 20/ RMK CB5AC2 LTGCC NW-N

CYWG;2009-07-20 10:40;CYWG 201040Z 19019G24KT 15SM -TSRA BKN021CB OVC090 19/ RMK CB5AC2 LTGCC SH NW-N

CYWG;2009-07-20 11:00;CYWG 201100Z 20016KT 15SM -TSRA BKN021CB BKN270 18/16 A2970 RMK CB5CI1 SH NW-NE CIG LWR N SLP058

CYWG;2009-07-20 11:08;CYWG 201108Z 20015KT 15SM SCT021CB BKN270 18/ RETS RMK CB3CI2 SH N-NE CIG LWR N-NE

CYWG;2009-07-20 12:00;CYWG 201200Z 20014KT 15SM BKN032 BKN094 BKN270 17/15 A2974 RETS RMK SC5AC1CI1 SLP069

CYWG;2009-07-20 13:00;CYWG 201300Z 21012KT 15SM FEW085 18/15 A2974 RMK AC2 SLP071

CYWG;2009-07-20 14:00;CYWG 201400Z 27011KT 15SM FEW085 FEW270 21/16 A2975 RMK AC2CI1 SLP073

CYWG;2009-07-20 15:00;CYWG 201500Z 26008KT 15SM FEW110 SCT270 22/17 A2975 RMK AC2CI1 SLP073

CYWG;2009-07-20 16:00;CYWG 201600Z 28010KT 15SM FEW110 SCT270 22/15 A2976 RMK AC1CI2 SLP076

CYWG;2009-07-20 17:00;CYWG 201700Z 26011KT 15SM FEW045 SCT270 23/14 A2977 RMK CU1CI2 SLP079

CYWG;2009-07-20 18:00;CYWG 201800Z 26014KT 15SM FEW055 BKN270 23/14 A2978 RMK CU1CI2 SLP085

CYWG;2009-07-20 19:00;CYWG 201900Z 26012KT 15SM FEW055 SCT086 24/15 A2978 RMK CU1AC2 SLP086

CYWG;2009-07-20 20:00;CYWG 202000Z 26011G18KT 15SM FEW048 FEW091 FEW270 25/15 A2979 RMK CU1AC1CI0 SLP087

CYWG;2009-07-20 21:00;CYWG 202100Z 26012G17KT 15SM FEW048 FEW091 FEW270 25/14 A2977 RMK CU1AC1CI0 SLP082

CYWG;2009-07-20 22:00;CYWG 202200Z 26012G17KT 15SM FEW045 SCT270 24/15 A2977 RMK CU2CI1 SLP081

CYWG;2009-07-20 23:00;CYWG 202300Z 27009KT 15SM SCT045 BKN270 24/15 A2978 RMK CU4CI0 SLP085

CYWG;2009-07-21 00:00;CYWG 210000Z 28006KT 15SM BKN047TCU 23/16 A2979 RMK TCU5 SLP090

CYWG;2009-07-21 01:00;CYWG 210100Z 27007KT 15SM FEW048 FEW060TCU 23/15 A2979 RMK SC1TCU2 SLP088

CYWG;2009-07-21 02:00;CYWG 210200Z 25005KT 15SM FEW045 FEW060TCU FEW084 21/15 A2980 RMK SC1TCU1AC1 AC TR SLP091

CYWG;2009-07-21 03:00;CYWG 210300Z 25006KT 15SM FEW045 FEW088 19/14 A2980 RMK SC1AC1 SLP092

CYWG;2009-07-21 04:00;CYWG 210400Z 24007KT 15SM FEW045 FEW090 19/14 A2980 RMK SC1AC1 SLP091

CYWG;2009-07-21 05:00;CYWG 210500Z 25008KT 15SM FEW045 18/14 A2980 RMK SC2 SLP091

CYWG;2009-07-21 06:00;CYWG 210600Z 26008KT 15SM FEW090 17/13 A2979 RMK AC1 SLP089

CYWG;2009-07-21 07:00;CYWG 210700Z 25008KT 15SM FEW090 16/13 A2979 RMK AC1 SLP088

CYWG;2009-07-21 08:00;CYWG 210800Z 26007KT 15SM FEW100 15/13 A2979 RMK AC2 SLP087

CYWG;2009-07-21 09:00;CYWG 210900Z 25008KT 15SM SCT100 15/13 A2979 RMK AC3 SLP090

CYWG;2009-07-21 10:00;CYWG 211000Z 23007KT 15SM FEW100 15/13 A2979 RMK AC2 SLP090

CYWG;2009-07-21 11:00;CYWG 211100Z 24007KT 15SM FEW100 FEW250 14/13 A2980 RMK AC1CI0 SLP093

CYWG;2009-07-21 12:00;CYWG 211200Z 25008KT 15SM FEW090 FEW250 14/13 A2981 RMK AC1CI0 SLP095

CYWG;2009-07-21 13:00;CYWG 211300Z 27009KT 15SM FEW036 FEW090 FEW250 15/13 A2981 RMK SC1AC1CI0 SLP096

CYWG;2009-07-21 14:00;CYWG 211400Z 27012KT 15SM FEW040 FEW090 FEW250 18/14 A2981 RMK SC1AC1CI0 SLP096

CYWG;2009-07-21 15:00;CYWG 211500Z 29015KT 15SM FEW025 FEW090 19/13 A2981 RMK CU2AC1 SLP097

CYWG;2009-07-21 16:00;CYWG 211600Z 28014KT 15SM FEW025 FEW055 SCT250 20/15 A2981 RMK CU2SC1CI0 SLP096

CYWG;2009-07-21 17:00;CYWG 211700Z 28014KT 15SM SCT026 SCT051 BKN250 21/14 A2982 RMK CU3SC1CI0 SLP099

CYWG;2009-07-21 18:00;CYWG 211800Z 28010G15KT 15SM BKN029 BKN250 21/15 A2982 RMK CU5CI0 SLP099

CYWG;2009-07-21 19:00;CYWG 211900Z 30012G17KT 15SM BKN033 BKN089 22/14 A2982 RMK CU5AC2 SLP098

CYWG;2009-07-21 20:00;CYWG 212000Z 30010G15KT 15SM BKN040 23/13 A2981 RMK CU6 SLP095

CYWG;2009-07-21 21:00;CYWG 212100Z 31008G15KT 15SM FEW049 FEW084 24/14 A2981 RMK CU2AC1 OBS TAKEN 0+03 SLP096

CYWG;2009-07-21 22:00;CYWG 212200Z 30011G16KT 15SM FEW054 FEW270 25/13 A2980 RMK CU2CI0 TCU TOPS E-SE SLP093

CYWG;2009-07-21 23:00;CYWG 212300Z 31009KT 15SM FEW061 FEW270 24/12 A2980 RMK CU1CI0 CB TOPS DIST E-SE SLP094

CYWG;2009-07-22 00:00;CYWG 220000Z 32009KT 15SM FEW060 FEW270 24/13 A2981 RMK CU1CI0 CB TOP DIST SE SLP095

CYWG;2009-07-22 01:00;CYWG 220100Z 31004KT 15SM FEW060 22/14 A2982 RMK SC1 SLP098

CYWG;2009-07-22 02:00;CYWG 220200Z 26004KT 15SM FEW045 FEW270 19/14 A2982 RMK SC1CI0 SLP100

CYWG;2009-07-22 03:00;CYWG 220300Z 26002KT 15SM FEW050 FEW270 17/13 A2984 RMK SC1CI0 SLP106

CYWG;2009-07-22 04:00;CYWG 220400Z 36003KT 15SM FEW082 SCT270 15/13 A2986 RMK AC2CI1 SLP112

CYWG;2009-07-22 05:00;CYWG 220500Z 08002KT 15SM BKN080 BKN270 15/13 A2986 RMK AC4CI2 SLP114

CYWG;2009-07-22 05:51;CYWG 220551Z 29008KT 15SM -SHRA BKN069 OVC100 15/ RMK AC6AC2

CYWG;2009-07-22 06:00;CYWG 220600Z 27006KT 15SM -SHRA BKN057 OVC100 15/15 A2988 RMK SC6AC2 SLP121

CYWG;2009-07-22 06:39;CYWG 220639Z 13005KT 15SM OVC031 17/ RMK SC8

CYWG;2009-07-22 07:00;CYWG 220700Z 13003KT 15SM BKN037 BKN270 17/15 A2985 RMK SC4CI0 SLP110

CYWG;2009-07-22 08:00;CYWG 220800Z 19002KT 15SM SCT040 BKN099 15/14 A2985 RMK SC2AC3 SLP110

CYWG;2009-07-22 09:00;CYWG 220900Z 36002KT 15SM BKN075 14/14 A2986 RMK AC6 SLP112

CYWG;2009-07-22 10:00;CYWG 221000Z 23007KT 15SM BKN075 15/14 A2985 RMK AC6 SLP111

CYWG;2009-07-22 11:00;CYWG 221100Z 23006KT 15SM BKN090 15/13 A2986 RMK AC7 VIRGA SLP114

CYWG;2009-07-22 12:00;CYWG 221200Z 23005KT 15SM BKN092 BKN130 16/13 A2987 RMK AC6AC1 SLP116

CYWG;2009-07-22 13:00;CYWG 221300Z 23007KT 15SM FEW090 SCT130 17/13 A2988 RMK AC2AC1 SLP119

CYWG;2009-07-22 14:00;CYWG 221400Z 27008KT 15SM FEW100 FEW150 18/14 A2988 RMK AC1AC1 SLP120

CYWG;2009-07-22 15:00;CYWG 221500Z 25008KT 15SM SCT100 21/15 A2989 RMK AC2 SLP122

CYWG;2009-07-22 16:00;CYWG 221600Z 25008KT 15SM FEW070 SCT100 22/15 A2989 RMK AC1AC2 SLP122

CYWG;2009-07-22 17:00;CYWG 221700Z 27007KT 15SM FEW120 SCT270 24/15 A2989 RMK AC2CI1 SLP123

CYWG;2009-07-22 18:00;CYWG 221800Z 26009KT 15SM FEW110 SCT270 25/14 A2988 RMK AC2CI1 SLP120

CYWG;2009-07-22 19:00;CYWG 221900Z 23006KT 15SM FEW047 SCT093 BKN270 25/14 A2988 RMK CU2AC1CI2 TCU ASCTD SLP118

CYWG;2009-07-22 20:00;CYWG 222000Z 27011KT 15SM SCT047 SCT088 BKN270 27/14 A2987 RMK CU3AC1CI2 CB W-NW SLP115

CYWG;2009-07-22 21:00;CYWG 222100Z 25011KT 15SM SCT050TCU BKN270 27/14 A2987 RMK TCU4CI2 SLP114

CYWG;2009-07-22 22:00;CYWG 222200Z 26019G25KT 15SM BKN054TCU BKN079 BKN270 21/13 A2988 RMK TCU5AC1CI1 CB + SHWRS E SLP119

CYWG;2009-07-22 23:00;CYWG 222300Z 24011G16KT 15SM FEW050TCU BKN270 23/12 A2986 RMK TCU2CI2 CB NW+E SLP111

CYWG;2009-07-23 00:00;CYWG 230000Z 26009KT 15SM SCT092 BKN270 22/14 A2986 RMK AC3CI2 CB NW-N SHWRS N SLP113

CYWG;2009-07-23 01:00;CYWG 230100Z 25006KT 15SM BKN089 BKN270 21/15 A2987 RMK AC5CI1 SHWRS NE SLP117

CYWG;2009-07-23 02:00;CYWG 230200Z 24005KT 15SM FEW095 BKN270 19/14 A2986 RMK AC2CI1 CB W SLP114

CYWG;2009-07-23 03:00;CYWG 230300Z 22005KT 15SM FEW095 SCT270 17/13 A2987 RMK ACC1CI2 SLP117

CYWG;2009-07-23 04:00;CYWG 230400Z 21003KT 15SM FEW081 SCT270 17/14 A2987 RMK AC1CI1 SLP116

CYWG;2009-07-23 05:00;CYWG 230500Z 18007KT 15SM FEW080 16/14 A2987 RMK AC1 SLP115

CYWG;2009-07-23 06:00;CYWG 230600Z 17007KT 15SM FEW090 15/14 A2986 RMK AC2 SLP112

CYWG;2009-07-23 07:00;CYWG 230700Z 20008KT 15SM SCT090 16/14 A2985 RMK AC3 SLP110

CYWG;2009-07-23 08:00;CYWG 230800Z 20005KT 15SM FEW090 16/14 A2985 RMK AC2 SLP109

CYWG;2009-07-23 09:00;CYWG 230900Z 20008KT 15SM SCT100 16/13 A2984 RMK AC4 SLP105

CYWG;2009-07-23 10:00;CYWG 231000Z 20008KT 15SM BKN100 16/13 A2984 RMK AC6 SLP105

CYWG;2009-07-23 11:00;CYWG 231100Z 19009KT 15SM BKN100 BKN250 16/13 A2984 RMK AC6CI0 SLP104

CYWG;2009-07-23 12:00;CYWG 231200Z 19009KT 15SM BKN100 OVC250 17/13 A2982 RMK AC6CI1 SLP100

CYWG;2009-07-23 13:00;CYWG 231300Z 22009KT 15SM BKN089 OVC250 17/14 A2982 RMK AC6CI0 SLP099

CYWG;2009-07-23 13:37;CYWG 231337Z 23006KT 15SM -RA FEW019 BKN065 OVC087 18/ RMK SC2SC3AC3

CYWG;2009-07-23 14:00;CYWG 231400Z 24006KT 15SM -RA FEW015 BKN065 OVC087 18/15 A2982 RMK SC2SC4AC2 SLP100

CYWG;2009-07-23 15:00;CYWG 231500Z 28009KT 15SM -RA FEW009 BKN060 OVC090 18/16 A2983 RMK ST2SC4AC2 SLP105

CYWG;2009-07-23 16:00;CYWG 231600Z 19008KT 15SM -RA BKN023 OVC090 19/17 A2977 RMK SC6AC2 SLP082

CYWG;2009-07-23 17:00;CYWG 231700Z 16010KT 15SM BKN033 OVC099 21/18 A2974 RMK SC6AC2 SLP072

CYWG;2009-07-23 18:00;CYWG 231800Z 18015KT 15SM SCT075 OVC250 23/17 A2970 RMK AC3CI3 SLP060

CYWG;2009-07-23 19:00;CYWG 231900Z 19017G24KT 15SM BKN100 OVC250 23/17 A2971 RMK AC5CI2 SLP062

CYWG;2009-07-23 20:00;CYWG 232000Z 19015G24KT 15SM SCT090 OVC250 24/17 A2970 RMK AC3CI2 SLP058

CYWG;2009-07-23 21:00;CYWG 232100Z 21012G20KT 15SM FEW090 OVC250 25/19 A2967 RMK AC2CI3 SLP048

CYWG;2009-07-23 22:00;CYWG 232200Z 21009G15KT 15SM FEW074 OVC240 26/20 A2963 RMK AC2CI4 SLP033

CYWG;2009-07-23 23:00;CYWG 232300Z 26010G16KT 15SM VCSH SCT031TCU BKN080 OVC240 25/21 A2964 RMK TCU3AC2CI2 SH N - NE SLP038

CYWG;2009-07-24 00:00;CYWG 240000Z 28010KT 15SM FEW035TCU BKN081 BKN240 24/19 A2965 RMK TCU1AC5CI1 CB TOP DIST NW SLP040

CYWG;2009-07-24 01:00;CYWG 240100Z 29008KT 15SM FEW035TCU FEW080 BKN260 24/20 A2965 RMK TCU1AC2CI1 CB TOPS NW NE SLP040

CYWG;2009-07-24 01:50;CYWG 240150Z 32005KT 15SM TS FEW035CB SCT080 BKN280 21/ RMK CB2AC2CI1 LTGICCG SW

CYWG;2009-07-24 02:00;CYWG 240200Z 32008KT 15SM TS FEW030CB SCT080 BKN280 21/20 A2967 RMK CB2AC2CI1 LTGICCG SW SLP046

CYWG;2009-07-24 02:07;CYWG 240207Z 33010KT 15SM -TSRA FEW030CB SCT051 BKN260 22/ RMK CB2SC2CI1 LTGCG S - SW

CYWG;2009-07-24 02:49;CYWG 240249Z 32010KT 15SM BKN083 20/ RETSRA RMK AC6 LTGIC E

CYWG;2009-07-24 03:00;CYWG 240300Z 33008KT 15SM BKN083 20/17 A2969 RETSRA RMK AC6 SLP054

CYWG;2009-07-24 04:00;CYWG 240400Z 30008KT 15SM SCT076 SCT120 18/17 A2969 RMK AC3AC1 SLP056

CYWG;2009-07-24 05:00;CYWG 240500Z 31009KT 15SM SKC 17/16 A2970 RMK SLP057

CYWG;2009-07-24 06:00;CYWG 240600Z 30008KT 15SM SKC 16/14 A2970 RMK SLP058

CYWG;2009-07-24 07:00;CYWG 240700Z 29009KT 15SM SKC 15/14 A2970 RMK SLP057

CYWG;2009-07-24 08:00;CYWG 240800Z 31007KT 15SM SKC 13/13 A2970 RMK SLP058

CYWG;2009-07-24 09:00;CYWG 240900Z 31006KT 15SM SKC 13/13 A2971 RMK SLP063

CYWG;2009-07-24 10:00;CYWG 241000Z 28007KT 15SM FEW090 12/12 A2973 RMK AC1 SLP068

CYWG;2009-07-24 11:00;CYWG 241100Z 30008KT 15SM FEW015 FEW090 14/13 A2974 RMK SC1AC1 SLP072

CYWG;2009-07-24 12:00;CYWG 241200Z 31009KT 15SM FEW015 15/14 A2975 RMK SC1 SLP075

CYWG;2009-07-24 13:00;CYWG 241300Z 31010KT 15SM FEW020 16/15 A2977 RMK SC1 SLP080

CYWG;2009-07-24 14:00;CYWG 241400Z 32014KT 15SM FEW010 FEW020TCU 18/15 A2977 RMK CF1TCU1 TCU W SLP082

CYWG;2009-07-24 15:00;CYWG 241500Z 33015G21KT 15SM SCT023 SCT100 20/16 A2977 RMK CU3AC1 TCU EMBD SLP081

CYWG;2009-07-24 16:00;CYWG 241600Z 32014G24KT 15SM BKN021 19/16 A2976 RMK CU6 TCU ASOCTD SLP079

CYWG;2009-07-24 17:00;CYWG 241700Z 32016KT 15SM SCT023TCU BKN035 21/16 A2977 RMK TCU4SC2 SLP080

CYWG;2009-07-24 17:33;CYWG 241733Z 32018G26KT 15SM -SHRA SCT023TCU BKN045 RMK TCU4SC2

CYWG;2009-07-24 18:00;CYWG 241800Z 33017G22KT 15SM VCSH SCT027TCU BKN044 22/16 A2977 RMK TCU3SC2 SLP083

CYWG;2009-07-24 19:00;CYWG 241900Z 31016G22KT 15SM VCSH SCT034TCU BKN068 22/15 A2977 RMK TCU4AC1 SLP081

CYWG;2009-07-24 20:00;CYWG 242000Z 31014G20KT 15SM VCSH SCT031TCU BKN058 22/17 A2977 RMK TCU4SC2 CF ASOCTD SLP083

CYWG;2009-07-24 20:30;CYWG 242030Z CCA 34017G25KT 10SM -SHRA FEW016 BKN031TCU BKN054 18/ RMK CF1TCU5SC2

CYWG;2009-07-24 21:00;CYWG 242100Z 32012G17KT 15SM VCSH FEW020 SCT031TCU BKN054 20/17 A2979 RMK CF1TCU3SC2 SLP089

CYWG;2009-07-24 22:00;CYWG 242200Z 33018KT 15SM FEW025TCU SCT057 BKN092 22/17 A2979 RMK TCU2SC2AC2 SLP090

CYWG;2009-07-24 23:00;CYWG 242300Z 35012G22KT 15SM SCT032TCU BKN090 21/16 A2980 RMK TCU3AC2 SLP092

CYWG;2009-07-25 00:00;CYWG 250000Z 35017G22KT 15SM SCT030 22/15 A2980 RMK SC4 CU/TCU ASOCTD SLP095

CYWG;2009-07-25 01:00;CYWG 250100Z 34012KT 15SM FEW040 21/14 A2980 RMK SC2 CU ASOCTD SLP095

CYWG;2009-07-25 02:00;CYWG 250200Z 34008KT 15SM FEW051 FEW270 18/15 A2981 RMK SC1CI0 SLP098

CYWG;2009-07-25 03:00;CYWG 250300Z 33008KT 15SM FEW080 FEW270 16/14 A2982 RMK AC1CI0 SLP100

CYWG;2009-07-25 04:00;CYWG 250400Z 30005KT 15SM FEW020 FEW080 FEW270 14/14 A2982 RMK SC1AC1CI0 SLP101

CYWG;2009-07-25 05:00;CYWG 250500Z 30008KT 15SM FEW080 15/14 A2982 RMK AC1 SLP101

CYWG;2009-07-25 06:00;CYWG 250600Z 30007KT 15SM FEW080 14/14 A2983 RMK AC1 SLP104

CYWG;2009-07-25 07:00;CYWG 250700Z 29008KT 15SM FEW042 14/14 A2983 RMK SC1 SLP105

CYWG;2009-07-25 08:00;CYWG 250800Z 31008KT 15SM FEW042 14/14 A2984 RMK SC2 SLP106

CYWG;2009-07-25 09:00;CYWG 250900Z 30009KT 15SM SCT080 15/14 A2985 RMK AC4 SLP109

CYWG;2009-07-25 10:00;CYWG 251000Z 33007KT 15SM FEW049 BKN090 15/15 A2986 RMK SC1AC5 SLP113

CYWG;2009-07-25 11:00;CYWG 251100Z 31007KT 15SM FEW053 FEW090 14/14 A2987 RMK SC1AC2 BR VSBY LWR E SLP116

CYWG;2009-07-25 12:00;CYWG 251200Z 31007KT 6SM BR FEW054 15/15 A2989 RMK SC2 SLP123

CYWG;2009-07-25 13:00;CYWG 251300Z 31009KT 6SM BR FEW030 FEW050 16/16 A2990 RMK SC2SC1 SLP127

CYWG;2009-07-25 13:34;CYWG 251334Z 32011KT 6SM BR BKN007 17/ RMK SC5

CYWG;2009-07-25 14:00;CYWG 251400Z 33010G15KT 6SM BR SCT010 19/17 A2991 RMK SC4 SLP130

CYWG;2009-07-25 15:00;CYWG 251500Z 33012G17KT 10SM FEW010 20/17 A2992 RMK SC2 BR SLP134

CYWG;2009-07-25 16:00;CYWG 251600Z 33014G19KT 15SM BKN020 22/17 A2992 RMK SC6 SLP135

CYWG;2009-07-25 17:00;CYWG 251700Z 33013KT 15SM BKN026 22/17 A2992 RMK SC6 SLP134

CYWG;2009-07-25 18:00;CYWG 251800Z 33011G17KT 15SM BKN034 24/17 A2993 RMK SC6 SLP136

CYWG;2009-07-25 19:00;CYWG 251900Z 35013KT 15SM SCT033 24/17 A2993 RMK CU4 SLP135

CYWG;2009-07-25 20:00;CYWG 252000Z 33010KT 15SM SCT035 23/17 A2993 RMK CU4 SLP135

CYWG;2009-07-25 21:00;CYWG 252100Z 33011KT 15SM SCT038 SCT100 25/15 A2992 RMK CU3AC1 SLP133

CYWG;2009-07-25 22:00;CYWG 252200Z 31013KT 15SM FEW040 SCT100 25/17 A2992 RMK CU2AC1 SLP134

CYWG;2009-07-25 23:00;CYWG 252300Z 33012KT 15SM FEW040 FEW100 24/16 A2992 RMK CU2AC1 SLP134

CYWG;2009-07-26 00:00;CYWG 260000Z 31009KT 15SM FEW040 FEW120 24/16 A2991 RMK CU1AC1 AC TR SLP131

CYWG;2009-07-26 01:00;CYWG 260100Z 30006KT 15SM FEW040 FEW120 23/16 A2991 RMK CU1AC1 SLP129

CYWG;2009-07-26 02:00;CYWG 260200Z 29007KT 15SM FEW040 FEW120 FEW250 19/15 A2991 RMK CU1AC1CI1 SLP129

CYWG;2009-07-26 03:00;CYWG 260300Z 30006KT 15SM FEW250 16/14 A2992 RMK CI0 SLP134

CYWG;2009-07-26 04:00;CYWG 260400Z 29005KT 15SM FEW250 15/14 A2992 RMK CI1 SLP135

CYWG;2009-07-26 05:00;CYWG 260500Z 30006KT 15SM SKC 15/14 A2993 RMK SLP136

CYWG;2009-07-26 06:00;CYWG 260600Z 28004KT 15SM SKC 14/13 A2992 RMK SLP134

CYWG;2009-07-26 07:00;CYWG 260700Z 29003KT 15SM SKC 13/13 A2993 RMK SLP135

CYWG;2009-07-26 08:00;CYWG 260800Z 25002KT 15SM SKC 13/13 A2993 RMK SLP137

CYWG;2009-07-26 09:00;CYWG 260900Z 28005KT 15SM SKC 12/12 A2993 RMK SLP138

CYWG;2009-07-26 10:00;CYWG 261000Z 31004KT 15SM FEW100 FEW250 13/13 A2993 RMK AC1CI0 SLP138

CYWG;2009-07-26 11:00;CYWG 261100Z 28002KT 15SM SCT100 BKN250 12/12 A2993 RMK AC4CI0 ACC ASOCTD SLP136

CYWG;2009-07-26 12:00;CYWG 261200Z 30003KT 15SM BKN095 BKN250 16/16 A2993 RMK AC6CI1 SLP136

CYWG;2009-07-26 13:00;CYWG 261300Z 02004KT 15SM BKN099 BKN250 17/17 A2994 RMK AC6CI0 SLP139

CYWG;2009-07-26 14:00;CYWG 261400Z 34002KT 15SM -RA BKN095 18/17 A2994 RMK AC7 SLP140

CYWG;2009-07-26 14:49;CYWG 261449Z 32002KT 15SM BKN092 19/ RMK AC7

CYWG;2009-07-26 15:00;CYWG 261500Z 31003KT 15SM BKN092 19/17 A2994 RMK AC6 SLP141

CYWG;2009-07-26 16:00;CYWG 261600Z 32002KT 15SM FEW027 BKN097 20/18 A2993 RMK SC2AC4 SLP139

CYWG;2009-07-26 17:00;CYWG 261700Z 35006KT 15SM FEW056 SCT100 22/17 A2993 RMK SC2AC2 SLP139

CYWG;2009-07-26 18:00;CYWG 261800Z 04006KT 15SM FEW038 SCT100 24/16 A2993 RMK CU2AC2 SLP138

CYWG;2009-07-26 19:00;CYWG 261900Z 01006KT 15SM SCT040 25/16 A2993 RMK CU3 SLP135

CYWG;2009-07-26 20:00;CYWG 262000Z 01004KT 15SM SCT045 SCT250 26/15 A2991 RMK CU3CI0 SLP131

CYWG;2009-07-26 21:00;CYWG 262100Z 36007KT 15SM SCT047 SCT250 26/16 A2990 RMK CU3CI0 SLP127

CYWG;2009-07-26 22:00;CYWG 262200Z 32007KT 15SM FEW050 SCT250 26/15 A2989 RMK CU2CI0 SLP124

CYWG;2009-07-26 23:00;CYWG 262300Z 31007KT 15SM FEW049 SCT085 BKN250 26/15 A2988 RMK CU2AC1CI0 SLP120

CYWG;2009-07-27 00:00;CYWG 270000Z 32010KT 15SM SCT049 BKN250 25/17 A2987 RMK CU3CI0 SLP117

CYWG;2009-07-27 01:00;CYWG 270100Z 33005KT 15SM FEW050 SCT089 BKN250 23/18 A2987 RMK CU2AC2CI0 SLP117

CYWG;2009-07-27 02:00;CYWG 270200Z 33002KT 15SM FEW040 SCT095 BKN250 20/18 A2987 RMK CU1AC2CI0 SLP115

CYWG;2009-07-27 03:00;CYWG 270300Z 26004KT 15SM FEW095 SCT250 19/17 A2987 RMK AC2CI1 SLP117

CYWG;2009-07-27 04:00;CYWG 270400Z 26004KT 15SM FEW050 BKN095 19/16 A2986 RMK SC2AC3 SLP113

CYWG;2009-07-27 05:00;CYWG 270500Z 30004KT 15SM OVC095 18/17 A2984 RMK AC8 SLP107

CYWG;2009-07-27 06:00;CYWG 270600Z 27005KT 15SM BKN076 OVC100 18/16 A2983 RMK AC5AC3 SLP101

CYWG;2009-07-27 07:00;CYWG 270700Z 25005KT 15SM OVC080 18/16 A2982 RMK AC8 SLP098

CYWG;2009-07-27 08:00;CYWG 270800Z 28006KT 15SM BKN061 OVC100 18/17 A2982 RMK SC5AC3 SLP098

CYWG;2009-07-27 09:00;CYWG 270900Z 29007KT 15SM FEW025 SCT072 17/17 A2981 RMK SC1AC4 SLP096

CYWG;2009-07-27 10:00;CYWG 271000Z 29008KT 15SM SCT072 17/17 A2981 RMK AC4 SLP096

CYWG;2009-07-27 11:00;CYWG 271100Z 29006KT 15SM FEW070 SCT100 16/16 A2980 RMK AC2AC1 SLP093

CYWG;2009-07-27 12:00;CYWG 271200Z 29007KT 15SM FEW075 SCT100 16/16 A2981 RMK AC2AC1 SLP096

CYWG;2009-07-27 13:00;CYWG 271300Z 31011G16KT 15SM FEW010 FEW080 18/16 A2981 RMK CF1AC1 SLP096

CYWG;2009-07-27 14:00;CYWG 271400Z 32017KT 15SM SCT018 19/16 A2982 RMK CU4 SLP099

CYWG;2009-07-27 15:00;CYWG 271500Z 32018G24KT 15SM SCT024 20/15 A2982 RMK CU4 SLP100

CYWG;2009-07-27 16:00;CYWG 271600Z 32017G22KT 15SM BKN024 21/15 A2982 RMK CU5 SLP099

CYWG;2009-07-27 17:00;CYWG 271700Z 31015G24KT 15SM BKN026 21/15 A2982 RMK CU5 TCU ASOCTD SLP099

CYWG;2009-07-27 18:00;CYWG 271800Z 30016G21KT 25SM BKN028 21/15 A2981 RMK CU6 TCU ASOCTD SLP095

CYWG;2009-07-27 19:00;CYWG 271900Z 30019G25KT 15SM BKN028 22/15 A2980 RMK SC6 SLP093

CYWG;2009-07-27 20:00;CYWG 272000Z 30021G29KT 15SM BKN036 23/14 A2980 RMK SC6 CVCTV CLD EMBD SLP093

CYWG;2009-07-27 20:14;CYWG 272014Z CCA 35012G22KT 15SM -TSRA BKN036 BKN050CB 17/ RMK SC5CB2 LTGIC N-NE CB MOVG SE

CYWG;2009-07-27 20:46;CYWG 272046Z 34021G26KT 15SM -SHRA SCT036 BKN053TCU BKN090 19/ RETSRA RMK SC3TCU2AC1 CB TOPS SW

CYWG;2009-07-27 21:00;CYWG 272100Z 33019G26KT 15SM FEW025 SCT045 SCT090 BKN250 19/13 A2982 RETSRA RMK CF1CU3AC1CI2 SLP101

CYWG;2009-07-27 22:00;CYWG 272200Z 32018KT 15SM BKN040 20/13 A2981 RMK CU6 SLP098

CYWG;2009-07-27 23:00;CYWG 272300Z 32018G24KT 15SM FEW040 FEW090 SCT250 20/13 A2982 RMK CU2AC1CI1 SLP099

CYWG;2009-07-28 00:00;CYWG 280000Z 32014KT 15SM SCT045 19/13 A2981 RMK CU4 SLP097

CYWG;2009-07-28 01:00;CYWG 280100Z 34017G22KT 15SM BKN037 BKN070 17/12 A2982 RMK CU5AC1 CVCTV CLD EMBD SLP101

CYWG;2009-07-28 02:00;CYWG 280200Z 30010KT 15SM FEW020 BKN040 15/14 A2983 RMK CF2CU3 SLP105

CYWG;2009-07-28 03:00;CYWG 280300Z 31008KT 15SM FEW020 FEW040 SCT250 15/14 A2985 RMK SC2SC1CI0 SLP109

CYWG;2009-07-28 04:00;CYWG 280400Z 30009KT 15SM FEW020 FEW080 FEW250 14/13 A2985 RMK SC1AC1CI0 SLP109

CYWG;2009-07-28 05:00;CYWG 280500Z 31008KT 15SM FEW090 13/12 A2985 RMK AC1 SLP109

CYWG;2009-07-28 06:00;CYWG 280600Z 31010KT 15SM SCT085 12/11 A2986 RMK AC3 SLP113

CYWG;2009-07-28 07:00;CYWG 280700Z 31011KT 15SM SCT083 13/11 A2986 RMK AC4 SLP113

CYWG;2009-07-28 08:00;CYWG 280800Z 29011KT 15SM FEW095 11/10 A2986 RMK AC2 SLP114

CYWG;2009-07-28 09:00;CYWG 280900Z 29008KT 15SM FEW070 11/10 A2986 RMK AC1 SLP116

CYWG;2009-07-28 10:00;CYWG 281000Z 28007KT 15SM SCT079 SCT250 12/12 A2985 RMK AC3CI0 SLP112

CYWG;2009-07-28 11:00;CYWG 281100Z 28010KT 15SM FEW082 12/12 A2984 RMK AC2 SLP110

CYWG;2009-07-28 12:00;CYWG 281200Z 29010KT 15SM FEW086 13/12 A2985 RMK AC2 SLP110

CYWG;2009-07-28 13:00;CYWG 281300Z 29009KT 15SM FEW061 SCT086 14/14 A2985 RMK SC1AC2 SLP111

CYWG;2009-07-28 14:00;CYWG 281400Z 32011G17KT 15SM FEW059 FEW080 17/14 A2985 RMK SC1AC1 SLP110

CYWG;2009-07-28 15:00;CYWG 281500Z 33015KT 15SM FEW024TCU FEW080 SCT110 19/13 A2984 RMK TCU2AC1AC2 SLP109

CYWG;2009-07-28 16:00;CYWG 281600Z 32015G20KT 15SM FEW025TCU SCT062 BKN110 18/12 A2985 RMK TCU1SC2AC2 SLP110

CYWG;2009-07-28 17:00;CYWG 281700Z 32015KT 15SM FEW030 FEW062 BKN110 18/11 A2984 RMK CU1SC2AC2 TCU ASOCTD SLP108

CYWG;2009-07-28 18:00;CYWG 281800Z 32014G19KT 15SM SCT034 BKN062 BKN069 18/12 A2984 RMK CU4SC2AC1 TCU ASOCTD SLP107

CYWG;2009-07-28 19:00;CYWG 281900Z 31012KT 15SM SCT038 BKN050 BKN250 20/13 A2983 RMK SC4SC2CI0 SLP105

CYWG;2009-07-28 20:00;CYWG 282000Z 32018G26KT 15SM BKN048 BKN070 BKN250 21/10 A2983 RMK CU5AC1CI0 SLP103

CYWG;2009-07-28 21:00;CYWG 282100Z 31019G25KT 15SM BKN052 BKN250 21/10 A2983 RMK CU5CI1 SLP103

CYWG;2009-07-28 22:00;CYWG 282200Z 34012G18KT 15SM SCT058 BKN080 BKN260 20/11 A2983 RMK CU3AC2CI1 SLP103

CYWG;2009-07-28 23:00;CYWG 282300Z 35010G15KT 15SM FEW050 SCT075 BKN250 18/11 A2983 RMK CU1AC2CI2 SLP104

CYWG;2009-07-29 00:00;CYWG 290000Z 34006KT 15SM FEW055 SCT080 BKN260 18/12 A2982 RMK CU1AC2CI2 SLP101

CYWG;2009-07-29 01:00;CYWG 290100Z 36011KT 15SM FEW050 FEW080 SCT260 18/12 A2983 RMK CU1AC2CI2 SLP103

CYWG;2009-07-29 02:00;CYWG 290200Z 33006KT 15SM SCT080 15/12 A2982 RMK AC3 SLP102

CYWG;2009-07-29 03:00;CYWG 290300Z 29005KT 15SM FEW050 BKN086 13/11 A2983 RMK SC1AC3 SLP106

CYWG;2009-07-29 04:00;CYWG 290400Z 28006KT 15SM FEW050 SCT086 13/12 A2983 RMK SC1AC2 SLP105

CYWG;2009-07-29 05:00;CYWG 290500Z 27006KT 15SM SCT082 13/12 A2983 RMK AC3 SLP103

CYWG;2009-07-29 06:00;CYWG 290600Z 29005KT 15SM SCT082 12/11 A2983 RMK AC4 SLP103

CYWG;2009-07-29 07:00;CYWG 290700Z 28007KT 15SM FEW082 10/10 A2981 RMK AC1 SLP099

CYWG;2009-07-29 08:00;CYWG 290800Z 28006KT 15SM FEW069 10/10 A2981 RMK AC1 SLP099

CYWG;2009-07-29 09:00;CYWG 290900Z 26006KT 15SM FEW043 11/11 A2981 RMK SC1 SLP097

CYWG;2009-07-29 10:00;CYWG 291000Z 27005KT 15SM BKN036 BKN055 12/12 A2981 RMK SC5SC2 SLP098

CYWG;2009-07-29 11:00;CYWG 291100Z 26007KT 15SM FEW003 SCT021 BKN064 13/13 A2981 RMK SF2SC2SC3 SLP098

CYWG;2009-07-29 12:00;CYWG 291200Z 28005KT 15SM SCT020 BKN035 13/13 A2981 RMK SC3SC2 SLP098

CYWG;2009-07-29 12:41;CYWG 291241Z 27006KT 15SM -SHRA FEW004 SCT016 BKN035 14/ RMK SF1SC3SC2

CYWG;2009-07-29 13:00;CYWG 291300Z 28008KT 15SM FEW004 SCT016 OVC032 14/14 A2982 RMK SF1SC3SC3 SLP100

CYWG;2009-07-29 13:14;CYWG 291314Z 28010KT 10SM -SHRA FEW004 BKN016 OVC032 14/ RMK SF2SC3SC2

CYWG;2009-07-29 13:22;CYWG 291322Z CCA 28011KT 9SM -SHRA BKN004 OVC019 14/ RMK SF5SC3 VIS S-NW 4 BR

CYWG;2009-07-29 13:30;CYWG 291330Z 28008KT 2 1/2SM -SHRA BR BKN003 OVC019 14/ RMK SF7SC1

CYWG;2009-07-29 14:00;CYWG 291400Z 28012KT 15SM SCT005 OVC018 15/15 A2981 RMK SF3SC5 SLP099

CYWG;2009-07-29 14:12;CYWG 291412Z 29010KT 12SM -SHRA SCT006 OVC038 15/ RMK SF4SC4

CYWG;2009-07-29 15:00;CYWG 291500Z 28011KT 15SM SCT006 OVC019 16/15 A2981 RMK SF3SC5 SLP099

CYWG;2009-07-29 15:44;CYWG 291544Z 28010KT 15SM -SHRA BKN007 OVC019 16/ RMK SF5SC2

CYWG;2009-07-29 16:00;CYWG 291600Z 28013KT 15SM BKN007 OVC019 16/15 A2981 RMK SF5SC2 SLP099

CYWG;2009-07-29 16:26;CYWG 291626Z 30011G16KT 3SM -SHRA BR BKN005 OVC020 15/ RMK SF6SC2

CYWG;2009-07-29 17:00;CYWG 291700Z 30010G15KT 15SM -SHRA FEW005 BKN011 BKN030 17/16 A2981 RMK SF2SC4SC2 SLP099

CYWG;2009-07-29 17:23;CYWG 291723Z 31014KT 15SM BKN011 BKN044 18/ RMK SF5SC1

CYWG;2009-07-29 18:00;CYWG 291800Z 30017KT 15SM BKN017 BKN032 BKN250 19/15 A2980 RMK SC5SC1CI1 SLP095

CYWG;2009-07-29 19:00;CYWG 291900Z 30015KT 15SM VCSH BKN017 OVC300 20/15 A2979 RMK CU6CI0 SH ALQDS SLP091

CYWG;2009-07-29 20:00;CYWG 292000Z 30017KT 15SM VCSH SCT021TCU BKN077 BKN300 19/15 A2979 RMK TCU4AC1CI0 CB N+E MOVG SE SLP091

CYWG;2009-07-29 21:00;CYWG 292100Z 36015G20KT 15SM VCSH BKN021CB BKN071 BKN300 17/15 A2980 RMK CB5AC1CI0 VIS N-E 3 SLP097

CYWG;2009-07-29 21:02;CYWG 292102Z 34018KT 15SM -SHRA BKN021CB BKN071 BKN300 18/ RMK CB5AC1CI0 VIS NE-E 3

CYWG;2009-07-29 21:39;CYWG 292139Z 33012KT 15SM BKN030CB BKN091 BKN300 17/ RMK CB5AC1CI0

CYWG;2009-07-29 22:00;CYWG 292200Z 32009KT 15SM BKN019TCU BKN098 BKN300 19/16 A2980 RMK TCU5AC1CI0 CB NE-E MOVG SE SLP096

CYWG;2009-07-29 23:00;CYWG 292300Z 31009KT 15SM VCSH BKN021TCU BKN100 BKN300 19/16 A2980 RMK TCU5AC1CI0 CB N MOVG S SLP094

CYWG;2009-07-29 23:05;CYWG 292305Z 35011KT 15SM -SHRA BKN021CB BKN100 BKN300 19/ RMK CB6AC1CI1

CYWG;2009-07-29 23:14;CYWG 292314Z 01011KT 15SM -SHRA BKN013CB BKN100 OVC300 17/ RMK CB6AC2CI0 VIS NW-NE 3

CYWG;2009-07-30 00:00;CYWG 300000Z CCA 26002KT 15SM -SHRA SCT015 BKN064 BKN250 16/16 A2980 RERA RMK SC3SC2CI1 CB SE MOVG S SLP094

CYWG;2009-07-30 00:45;CYWG 300045Z 23003KT 15SM FC BKN014 BKN081 BKN250 17/ RMK SC5AC2CI0 FUNNEL CLOUD W MOVG S OCNL SHRA CB ASOCTD

CYWG;2009-07-30 01:00;CYWG 300100Z 33005KT 15SM VCSH SCT015 BKN038TCU BKN081 BKN250 17/16 A2980 REFC RMK SC3TCU2AC1CI0 CB ASOCTD SLP094

CYWG;2009-07-30 01:24;CYWG 300124Z 36008G16KT 15SM -SHRA BKN022TCU BKN081 BKN250 16/ RMK TCU5AC2CI0

CYWG;2009-07-30 02:00;CYWG 300200Z 31004KT 15SM -SHRA FEW014 BKN035TCU BKN081 BKN250 16/15 A2982 RMK SC2TCU3AC2CI0 SLP100

CYWG;2009-07-30 02:49;CYWG 300249Z 32004KT 15SM BKN042 OVC083 15/ RMK SC6AC2

CYWG;2009-07-30 03:00;CYWG 300300Z 33005KT 15SM BKN042 OVC083 15/15 A2983 RMK SC6AC2 SLP106

CYWG;2009-07-30 04:00;CYWG 300400Z 33006KT 15SM SCT035 BKN061 BKN081 15/15 A2984 RMK SC3SC2AC2 SLP107

CYWG;2009-07-30 05:00;CYWG 300500Z 33007KT 15SM -RA OVC049 15/14 A2984 RMK SC8 SLP108

CYWG;2009-07-30 05:25;CYWG 300525Z 33006KT 15SM BKN049 OVC076 15/ RMK SC6AC2

CYWG;2009-07-30 06:00;CYWG 300600Z 32006KT 15SM BKN049 BKN079 15/14 A2983 RMK SC6AC2 SLP104

CYWG;2009-07-30 07:00;CYWG 300700Z 32005KT 15SM SCT049 13/13 A2983 RMK SC4 SLP104

CYWG;2009-07-30 08:00;CYWG 300800Z 33005KT 15SM BKN037 14/14 A2983 RMK SC5 SLP105

CYWG;2009-07-30 09:00;CYWG 300900Z 33006KT 15SM FEW048 13/13 A2984 RMK SC2 SLP107

CYWG;2009-07-30 10:00;CYWG 301000Z 33008KT 15SM BKN250 12/12 A2984 RMK CI2 SLP108

CYWG;2009-07-30 11:00;CYWG 301100Z 33007KT 10SM FEW006 FEW080 BKN250 12/12 A2985 RMK SF1ACC1CI1 BR SLP112

CYWG;2009-07-30 12:00;CYWG 301200Z 33006KT 6SM BR FEW004 FEW080 BKN250 13/13 A2986 RMK SF1AC1CI1 SLP116

CYWG;2009-07-30 12:08;CYWG 301208Z 34008KT 2SM BR BKN002 OVC250 13/ RMK SF6CI1

CYWG;2009-07-30 12:18;CYWG 301218Z 34006KT 3/8SM R31/P6000FT/D R36/2400FT/N FG OVC001 13/ RMK FG3SF5 VIS E 4

CYWG;2009-07-30 12:22;CYWG 301222Z 34005KT 1/8SM R31/2400FT/N R36/2200FT/N FG VV001 13/ RMK FG8

CYWG;2009-07-30 12:35;CYWG 301235Z 34006KT 1/4SM R31/2400FT/N R36/2400FT/N FG VV001 13/ RMK FG8

CYWG;2009-07-30 12:52;CYWG 301252Z 33004KT 1SM R31/4500VP6000FT/U R36/P6000FT/U BR OVC001 14/ RMK FG5SF3

CYWG;2009-07-30 13:00;CYWG 301300Z 33005KT 1 1/2SM BR OVC001 14/14 A2987 RMK FG2SF6 SLP119

CYWG;2009-07-30 13:09;CYWG 301309Z 34005KT 3SM BR OVC002 14/ RMK SF8

CYWG;2009-07-30 13:13;CYWG 301313Z 34005KT 8SM OVC003 14/ RMK SF8 BR

CYWG;2009-07-30 13:41;CYWG 301341Z 33005KT 12SM OVC004 14/ RMK SF8 BR

CYWG;2009-07-30 14:00;CYWG 301400Z 33005KT 12SM BKN005 OVC053 15/15 A2988 RMK SF6SC2 BR SLP121

CYWG;2009-07-30 14:35;CYWG 301435Z 35006KT 15SM SCT007 BKN049 16/ RMK SF2SC2

CYWG;2009-07-30 15:00;CYWG 301500Z 35004KT 15SM SCT008 BKN049 17/16 A2988 RMK CU4SC2 SLP121

CYWG;2009-07-30 16:00;CYWG 301600Z 27007KT 15SM VCSH BKN016 BKN054 17/15 A2989 RMK CU6SC1 SH SW - NW TCU ASOCTD SLP123

CYWG;2009-07-30 16:03;CYWG 301603Z 27012KT 15SM -SHRA BKN016 BKN054 17/ RMK CU6SC1 TCU ASOCTD

CYWG;2009-07-30 16:50;CYWG 301650Z 30008KT 15SM BKN024TCU BKN068 19/ RMK TCU5AC2 RERA

CYWG;2009-07-30 17:00;CYWG 301700Z 29017G22KT 15SM -SHRA BKN016TCU BKN070 17/16 A2987 RMK TCU5AC2 RERA SLP119

CYWG;2009-07-30 17:17;CYWG 301717Z 29009KT 8SM -SHRA SCT003 BKN016TCU 16/ RMK SC3TCU4 RERA

CYWG;2009-07-30 18:00;CYWG 301800Z 28007KT 15SM SCT022 BKN250 19/16 A2986 RERA RMK CU3CI1 TCU ASOCTD SLP115

CYWG;2009-07-30 19:00;CYWG 301900Z 28008KT 15SM BKN028TCU BKN250 21/14 A2985 RMK TCU5CI1 SH NNE SLP112

CYWG;2009-07-30 19:30;CYWG 301930Z 35008G15KT 15SM -SHRA BKN015TCU BKN250 19/ RMK TCU6CI1

CYWG;2009-07-30 19:36;CYWG 301936Z 34009KT 15SM VCSH BKN015TCU BKN250 19/ RMK TCU6CI1

CYWG;2009-07-30 20:00;CYWG 302000Z 26008KT 15SM -SHRA BKN015TCU BKN250 18/16 A2985 RMK TCU7CI1 VIS 6 S SLP112

CYWG;2009-07-30 21:00;CYWG 302100Z 21006KT 15SM -SHRA BKN015TCU BKN250 18/16 A2984 RMK TCU7CI1 SLP109

CYWG;2009-07-30 21:19;CYWG 302119Z 25006KT 15SM BKN021TCU BKN250 20/ RMK TCU6CI1

CYWG;2009-07-30 21:39;CYWG 302139Z 29011KT 15SM -SHRA BKN024TCU BKN092 BKN250 20/ RMK TCU6AC1CI0 CB SE

CYWG;2009-07-30 22:00;CYWG 302200Z 30012KT 15SM BKN031TCU BKN092 BKN250 20/15 A2983 RMK TCU6AC1CI0 OCNL -SHRA SLP106

CYWG;2009-07-30 22:37;CYWG 302237Z 36011KT 15SM SCT029TCU BKN078 BKN250 19/ RMK TCU4AC2CI0

CYWG;2009-07-30 23:00;CYWG 302300Z 36010KT 15SM FEW031TCU SCT093 BKN250 20/14 A2984 RMK TCU2AC1CI0 SLP109

CYWG;2009-07-31 00:00;CYWG 310000Z 33006KT 15SM FEW031TCU BKN084 BKN250 18/14 A2984 RMK TCU1AC3CI1 SLP107

CYWG;2009-07-31 01:00;CYWG 310100Z 34003KT 15SM FEW035 FEW094 BKN250 18/14 A2983 RMK SC1AC1CI1 TCU DIST NE-E SLP105

CYWG;2009-07-31 02:00;CYWG 310200Z 05003KT 15SM FEW030 FEW090 OVC250 15/14 A2983 RMK SC1AC1CI2 SLP104

CYWG;2009-07-31 03:00;CYWG 310300Z 00000KT 15SM FEW030 BKN090 BKN250 14/14 A2984 RMK SC1AC6CI1 SLP107

CYWG;2009-07-31 04:00;CYWG 310400Z 30002KT 15SM OVC090 13/13 A2983 RMK AC8 SLP106

CYWG;2009-07-31 05:00;CYWG 310500Z 00000KT 15SM SCT090 BKN250 13/13 A2982 RMK AC3CI1 SLP102

CYWG;2009-07-31 06:00;CYWG 310600Z 25003KT 15SM FEW090 SCT250 13/13 A2982 RMK AC2CI0 SLP102

CYWG;2009-07-31 07:00;CYWG 310700Z 24004KT 15SM SCT100 BKN250 12/12 A2980 RMK AC2CI0 SLP096

CYWG;2009-07-31 08:00;CYWG 310800Z 00000KT 15SM BKN084 14/13 A2979 RMK AC6 SLP090

CYWG;2009-07-31 09:00;CYWG 310900Z 18003KT 15SM SCT080 BKN110 14/13 A2977 RMK AC4AC2 SLP082

CYWG;2009-07-31 10:00;CYWG 311000Z 00000KT 15SM BKN110 BKN250 13/13 A2976 RMK AC6CI1 SLP079

CYWG;2009-07-31 10:54;CYWG 311054Z 18005KT 15SM -RA SCT065 OVC093 14/ RMK SC3AC5

CYWG;2009-07-31 11:00;CYWG 311100Z 17005KT 15SM -RA SCT065 OVC093 14/14 A2975 RMK SC3AC5 SLP078

CYWG;2009-07-31 12:00;CYWG 311200Z 17006KT 6SM -RA BR BKN023 OVC077 14/14 A2975 RMK SC5AC3 SLP077

CYWG;2009-07-31 13:00;CYWG 311300Z 15006KT 12SM -RA BKN033 OVC076 14/14 A2972 RMK SC5AC3 SLP068

CYWG;2009-07-31 14:00;CYWG 311400Z 15006KT 12SM -RA FEW025 BKN046 OVC080 15/15 A2971 RMK SC2SC3AC2 SLP064

CYWG;2009-07-31 15:00;CYWG 311500Z 18007KT 10SM -RA SCT014 BKN044 OVC059 15/15 A2970 RMK SC3SC2SC2 BR SLP060

CYWG;2009-07-31 16:00;CYWG 311600Z 15012KT 10SM -RA FEW009 OVC046 15/15 A2966 RMK SC2SC6 BR SLP047

CYWG;2009-07-31 17:00;CYWG 311700Z 22008KT 12SM -RA SCT009 BKN024 OVC087 16/15 A2966 RMK SF2SC3AC2 SLP048

CYWG;2009-07-31 18:00;CYWG 311800Z 23005KT 10SM -RA SCT008 BKN034 OVC085 16/16 A2966 RMK SF2SC4AC2 BR SLP048

CYWG;2009-07-31 19:00;CYWG 311900Z 21007KT 10SM -RA FEW014 BKN052 OVC085 17/16 A2965 RMK SC2SC4AC2 SLP043

CYWG;2009-07-31 19:23;CYWG 311923Z 25006KT 8SM -RA BKN010 BKN021TCU OVC030 16/ RMK SF5TCU2SC1

CYWG;2009-07-31 19:36;CYWG 311936Z 25003KT 3SM -SHRA BR BKN006 OVC021TCU 16/ RMK SF6TCU2

CYWG;2009-07-31 20:00;CYWG 312000Z 27002KT 3SM R31/3500VP6000FT/U SHRA BR BKN008 BKN021TCU OVC052 16/16 A2964 RMK SF5TCU2SC2 SLP042

CYWG;2009-07-31 21:00;CYWG 312100Z 23006KT 3SM SHRA BR SCT008 OVC014TCU 15/15 A2964 RMK SF3TCU5 SLP039

CYWG;2009-07-31 21:30;CYWG 312130Z 28007KT 6SM -SHRA BR BKN003 BKN014TCU OVC064 15/ RERA RMK SF5TCU2SC1

CYWG;2009-07-31 21:43;CYWG 312143Z 28007KT 8SM -SHRA SCT004 BKN016TCU OVC064 15/ RERA RMK SF3TCU4SC1

CYWG;2009-07-31 22:00;CYWG 312200Z 28005KT 10SM -SHRA FEW004 BKN011TCU OVC076 15/15 A2963 RERA RMK SF2TCU5AC2 VIS E 4 SLP038

CYWG;2009-07-31 22:22;CYWG 312222Z 28005KT 15SM FEW011TCU BKN024 OVC076 16/ RMK TCU2SC2AC3

CYWG;2009-07-31 22:39;CYWG 312239Z 30006KT 15SM VCSH FEW006 BKN010TCU OVC078 16/ RMK SF2TCU5AC2

CYWG;2009-07-31 22:46;CYWG 312246Z 32011KT 15SM -SHRA FEW006 BKN012TCU OVC078 16/ RMK SF2TCU5AC2

CYWG;2009-07-31 23:00;CYWG 312300Z 34014KT 15SM -SHRA FEW006 BKN012TCU OVC078 16/15 A2964 RMK SF1TCU6AC2 SLP041

CYWG;2009-07-31 23:26;CYWG 312326Z 35013G18KT 15SM -RA FEW013TCU BKN025 OVC082 14/ RMK TCU2SC3AC2

CYWG;2009-07-31 23:44;CYWG 312344Z 34017KT 15SM -RA BKN014 BKN028 OVC082 15/ RMK SC5SC2AC2

CYWG;2009-08-01 01:00;CYWG 010100Z 35014KT 15SM FEW012 BKN031 BKN085 BKN250 14/13 A2970 RMK SC2SC4AC1CI0 SLP059

CYWG;2009-08-01 01:56;CYWG 010156Z 36010KT 3SM SHRA BR OVC010TCU 13/ RMK TCU8

CYWG;2009-08-01 02:00;CYWG 010200Z 36015KT 3SM SHRA BR OVC010TCU 13/13 A2973 RMK TCU8 SLP069

CYWG;2009-08-01 02:15;CYWG 010215Z 36011G18KT 15SM -SHRA SCT013TCU BKN040 OVC096 13/ RERA RMK TCU3SC3AC2

CYWG;2009-08-01 02:27;CYWG 010227Z 34011G16KT 15SM FEW018 BKN040 OVC095 13/ RERA RMK SC2SC6AC1

CYWG;2009-08-01 03:00;CYWG 010300Z 33013KT 15SM SCT034 BKN065 13/13 A2974 RMK SF3SC3 SLP074

CYWG;2009-08-01 04:00;CYWG 010400Z 33012KT 15SM FEW040 BKN077 13/12 A2974 RMK SC2AC2 SLP076

CYWG;2009-08-01 05:00;CYWG 010500Z 32011KT 15SM SKC 12/11 A2976 RMK SLP080

CYWG;2009-08-01 06:00;CYWG 010600Z 30008KT 15SM SKC 11/11 A2976 RMK SLP080

CYWG;2009-08-01 07:00;CYWG 010700Z 31011KT 15SM SKC 11/10 A2975 RMK SLP078

CYWG;2009-08-01 08:00;CYWG 010800Z 31010KT 15SM FEW091 11/10 A2974 RMK AC1 SLP075

CYWG;2009-08-01 09:00;CYWG 010900Z 31010KT 15SM SKC 10/09 A2975 RMK SLP078

CYWG;2009-08-01 10:00;CYWG 011000Z 30007KT 15SM FEW071 09/09 A2976 RMK AC1 SLP082

CYWG;2009-08-01 11:00;CYWG 011100Z 29007KT 15SM FEW071 08/08 A2977 RMK AC1 SLP084

CYWG;2009-08-01 12:00;CYWG 011200Z 31008KT 15SM FEW100 11/10 A2977 RMK AC1 TVU TP DIST W SLP087

CYWG;2009-08-01 13:00;CYWG 011300Z CCB 32010KT 15SM FEW100 13/11 A2980 RMK AC1 CB TPS DIST SW-W SLP094

CYWG;2009-08-01 14:00;CYWG 011400Z 33016KT 15SM FEW030 FEW083 14/11 A2979 RMK CF1AC1 CB TP DIST SW SLP093

CYWG;2009-08-01 15:00;CYWG 011500Z 33015G26KT 15SM SCT022 16/12 A2980 RMK CU4 SLP094

CYWG;2009-08-01 16:00;CYWG 011600Z 32020KT 15SM FEW032 16/09 A2981 RMK CU2 SLP097

CYWG;2009-08-01 17:00;CYWG 011700Z 31017G22KT 15SM SCT038 17/09 A2980 RMK CU3 SLP095

CYWG;2009-08-01 18:00;CYWG 011800Z 32016KT 15SM FEW038 18/09 A2980 RMK CU2 SLP093

CYWG;2009-08-01 19:00;CYWG 011900Z 30016G22KT 15SM SCT041 19/10 A2980 RMK CU4 SH E SLP094

CYWG;2009-08-01 20:00;CYWG 012000Z 31018G24KT 15SM SCT044 18/09 A2980 RMK CU4 SLP095

CYWG;2009-08-01 21:00;CYWG 012100Z 32019KT 15SM SCT050 19/09 A2980 RMK CU3 SLP095

CYWG;2009-08-01 22:00;CYWG 012200Z 31017G25KT 15SM SCT050 19/08 A2980 RMK CU3 SLP096

CYWG;2009-08-01 23:00;CYWG 012300Z 32017KT 15SM FEW054 SCT250 19/07 A2980 RMK CU2CI2 SLP096

CYWG;2009-08-02 00:00;CYWG 020000Z 33013KT 15SM FEW054 SCT250 19/07 A2980 RMK CU1CI2 SLP094

CYWG;2009-08-02 01:00;CYWG 020100Z 29005KT 15SM FEW050 FEW090 SCT250 15/10 A2979 RMK CU1AC1CI2 SLP090

CYWG;2009-08-02 02:00;CYWG 020200Z 27004KT 15SM FEW050 BKN250 13/11 A2978 RMK CU1CI2 SLP087

CYWG;2009-08-02 03:00;CYWG 020300Z 26006KT 15SM FEW090 SCT250 13/10 A2979 RMK AC2CI0 SLP090

CYWG;2009-08-02 04:00;CYWG 020400Z 25006KT 15SM BKN130 11/09 A2978 RMK AC5 SLP087

CYWG;2009-08-02 05:00;CYWG 020500Z 25005KT 15SM SCT060 BKN130 12/10 A2977 RMK SC4AC2 SLP085

CYWG;2009-08-02 06:00;CYWG 020600Z 25004KT 15SM SCT060 OVC130 12/10 A2977 RMK SC4AC4 SLP086

CYWG;2009-08-02 07:00;CYWG 020700Z 25007KT 15SM BKN058 OVC077 13/10 A2976 RMK SC3AC5 SLP082

CYWG;2009-08-02 08:00;CYWG 020800Z 22006KT 15SM BKN070 OVC100 13/10 A2974 RMK AC5AC3 SLP074

CYWG;2009-08-02 09:00;CYWG 020900Z 00000KT 15SM OVC085 13/12 A2974 RMK AC8 SLP073

CYWG;2009-08-02 10:00;CYWG 021000Z 18004KT 15SM BKN080 13/11 A2975 RMK AC7 SLP076

CYWG;2009-08-02 11:00;CYWG 021100Z 17004KT 15SM BKN070 13/11 A2974 RMK AC7 SLP072

CYWG;2009-08-02 12:00;CYWG 021200Z 15003KT 15SM FEW070 BKN140 13/11 A2973 RMK AC2AC2 SLP069

CYWG;2009-08-02 13:00;CYWG 021300Z 18004KT 15SM FEW070 SCT130 15/12 A2971 RMK AC1AC2 SLP065

CYWG;2009-08-02 14:00;CYWG 021400Z 12004KT 15SM FEW130 FEW270 16/11 A2970 RMK AC1CI1 SLP061

CYWG;2009-08-02 15:00;CYWG 021500Z 10006KT 15SM FEW120 SCT270 18/12 A2969 RMK AC1CI1 SLP056

CYWG;2009-08-02 16:00;CYWG 021600Z 13008KT 15SM FEW120 SCT270 20/12 A2968 RMK AC1CI1 SLP054

CYWG;2009-08-02 17:00;CYWG 021700Z 11006KT 15SM FEW035 FEW100 BKN270 20/12 A2968 RMK CU1AC1CI1 CU TR SLP055

CYWG;2009-08-02 18:00;CYWG 021800Z 11006KT 15SM FEW045 FEW100 BKN270 21/11 A2968 RMK CU1AC1CI1 SLP054

CYWG;2009-08-02 19:00;CYWG 021900Z 12007KT 15SM SCT051 BKN100 22/12 A2968 RMK CU3AC2 SLP052

CYWG;2009-08-02 20:00;CYWG 022000Z 00000KT 15SM BKN051 BKN095 22/11 A2967 RMK CU5AC1 SLP050

CYWG;2009-08-02 21:00;CYWG 022100Z 03002KT 15SM BKN053 BKN097 22/11 A2967 RMK CU6AC1 SLP050

CYWG;2009-08-02 22:00;CYWG 022200Z 23005KT 15SM BKN055 BKN095 22/14 A2968 RMK CU6AC1 SLP053

CYWG;2009-08-02 23:00;CYWG 022300Z 25003KT 15SM SCT055 SCT095 23/12 A2968 RMK CU3AC1 SLP052

CYWG;2009-08-03 00:00;CYWG 030000Z 27002KT 15SM SCT050 BKN095 22/12 A2969 RMK CU4AC2 SLP055

CYWG;2009-08-03 01:00;CYWG 030100Z 29003KT 15SM FEW066 FEW120 21/15 A2967 RMK CU2AC1 SLP051

CYWG;2009-08-03 02:00;CYWG 030200Z 28004KT 15SM FEW086 BKN230 18/14 A2968 RMK AC2CI2 SLP053

CYWG;2009-08-03 03:00;CYWG 030300Z 00000KT 15SM BKN100 BKN230 15/14 A2969 RMK AC5CI1 SLP056

CYWG;2009-08-03 04:00;CYWG 030400Z 00000KT 15SM BKN230 14/14 A2969 RMK CI2 SLP056

CYWG;2009-08-03 05:00;CYWG 030500Z 20003KT 15SM SCT230 14/13 A2967 RMK CI2 SLP051

CYWG;2009-08-03 06:00;CYWG 030600Z 19002KT 15SM FEW100 OVC230 15/14 A2967 RMK AC1CI2 SLP047

CYWG;2009-08-03 07:00;CYWG 030700Z 20005KT 15SM FEW230 14/13 A2964 RMK CI1 SLP040

CYWG;2009-08-03 08:00;CYWG 030800Z 20006KT 15SM FEW044 BKN230 15/13 A2962 RMK SC2CI1 SLP033

CYWG;2009-08-03 09:00;CYWG 030900Z 21009KT 15SM BKN100 16/14 A2962 RMK AC6 SLP030

CYWG;2009-08-03 10:00;CYWG 031000Z 22007KT 15SM BKN061 OVC085 15/14 A2961 RMK SC6AC2 SLP026

CYWG;2009-08-03 11:00;CYWG 031100Z 19006KT 15SM VCSH BKN055 OVC089 15/14 A2958 RMK SC6AC2 SHWRS W-NE SLP018

CYWG;2009-08-03 11:13;CYWG 031113Z 21006KT 15SM -SHRA OVC048 15/ RMK SC8 CVCTV CLD ASOCTD

CYWG;2009-08-03 12:00;CYWG 031200Z 23003KT 6SM -SHRA SCT015 OVC032 15/15 A2960 RMK SC3SC5 CVCTV CLD EMBD SLP023

CYWG;2009-08-03 12:40;CYWG 031240Z 18004KT 12SM -SHRA FEW009 SCT035 OVC076 15/ RMK ST2SC2AC4

CYWG;2009-08-03 13:00;CYWG 031300Z 16004KT 15SM -SHRA FEW015 BKN057 OVC077 15/15 A2957 RMK ST2SC3AC2 SLP015

CYWG;2009-08-03 13:25;CYWG 031325Z 18006KT 15SM FEW015 BKN045 OVC074 15/ RMK ST2SC3AC2

CYWG;2009-08-03 14:00;CYWG 031400Z 21007KT 15SM FEW015 BKN043 BKN074 16/15 A2956 RMK SF1SC5AC2 SLP012

CYWG;2009-08-03 15:00;CYWG 031500Z 27008KT 15SM BKN016 OVC077 18/16 A2957 RMK SC6AC2 SLP017

CYWG;2009-08-03 16:00;CYWG 031600Z 34015G20KT 15SM SCT014 BKN033 19/15 A2961 RMK SC2SC3 SLP027

CYWG;2009-08-03 17:00;CYWG 031700Z 32020G26KT 15SM BKN019 20/15 A2963 RMK CU6 SLP034

CYWG;2009-08-03 18:00;CYWG 031800Z 30018G24KT 15SM BKN026 BKN250 21/14 A2964 RMK CU6CI0 SLP038

CYWG;2009-08-03 19:00;CYWG 031900Z 32021G31KT 15SM FEW032 BKN074 BKN250 20/14 A2966 RMK CU2AC2CI0 SLP045

CYWG;2009-08-03 20:00;CYWG 032000Z 31024G34KT 15SM FEW032 BKN074 BKN250 20/13 A2969 RMK CU2AC2CI0 SLP054

CYWG;2009-08-03 21:00;CYWG 032100Z 33015KT 15SM SCT033 SCT070 BKN250 20/13 A2970 RMK CU3AC1CI0 SLP061

CYWG;2009-08-03 22:00;CYWG 032200Z 32019KT 15SM FEW028 BKN044 BKN066 18/13 A2974 RMK CU2SC2AC1 SLP071

CYWG;2009-08-03 23:00;CYWG 032300Z 34016G25KT 15SM FEW034 BKN054 17/12 A2977 RMK CU1SC6 SLP082

CYWG;2009-08-04 00:00;CYWG 040000Z 34014KT 15SM FEW033 BKN042 BKN100 17/12 A2980 RMK CU2SC3AC1 SLP096

CYWG;2009-08-04 01:00;CYWG 040100Z 34010KT 15SM FEW033 FEW042 FEW070 17/12 A2982 RMK CU1SC1AC1 SLP102

CYWG;2009-08-04 02:00;CYWG 040200Z 32007KT 15SM FEW033 FEW077 FEW210 14/12 A2984 RMK SC1AC1CI0 SLP109

CYWG;2009-08-04 03:00;CYWG 040300Z 31007KT 15SM FEW080 11/11 A2987 RMK AC1 SLP119

CYWG;2009-08-04 04:00;CYWG 040400Z 30007KT 15SM FEW080 11/11 A2990 RMK AC1 SLP127

CYWG;2009-08-04 05:00;CYWG 040500Z 31006KT 15SM SKC 10/10 A2991 RMK SLP131

CYWG;2009-08-04 06:00;CYWG 040600Z 31005KT 15SM SKC 09/09 A2992 RMK SLP134

CYWG;2009-08-04 07:00;CYWG 040700Z 29007KT 15SM SKC 09/09 A2992 RMK SLP135

CYWG;2009-08-04 08:00;CYWG 040800Z CCA 27007KT 15SM SKC 09/09 A2994 RMK SLP144

CYWG;2009-08-04 09:00;CYWG 040900Z 32003KT 15SM FEW025 09/09 A2994 RMK SC1 SLP144

CYWG;2009-08-04 10:00;CYWG 041000Z 28006KT 15SM FEW025 08/08 A2995 RMK SC1 SLP147

CYWG;2009-08-04 11:00;CYWG 041100Z 27006KT 15SM FEW025 FEW090 09/09 A2996 RMK SC1AC1 SLP151

CYWG;2009-08-04 12:00;CYWG 041200Z 28007KT 15SM FEW025 FEW090 11/11 A2999 RMK SC1AC1 SLP159

CYWG;2009-08-04 13:00;CYWG 041300Z 31009KT 15SM FEW010 FEW250 13/13 A2999 RMK CF1CI0 SLP161

CYWG;2009-08-04 14:00;CYWG 041400Z 30009KT 15SM FEW010 SCT250 15/13 A3001 RMK SC1CI1 SLP166

CYWG;2009-08-04 15:00;CYWG 041500Z 31010KT 15SM SCT021 BKN250 17/13 A3001 RMK CU4CI1 SLP167

CYWG;2009-08-04 16:00;CYWG 041600Z 31013KT 15SM SCT021 SCT060 BKN250 18/14 A3001 RMK CU3SC1CI1 TCU ASOCTD SLP168

CYWG;2009-08-04 17:00;CYWG 041700Z 32014G19KT 15SM SCT032 BKN250 19/11 A3002 RMK CU3CI1 SLP170

CYWG;2009-08-04 18:00;CYWG 041800Z 31012G18KT 15SM SCT040 BKN250 20/11 A3002 RMK CU3CI1 SLP168

CYWG;2009-08-04 19:00;CYWG 041900Z 30014G19KT 15SM FEW040 SCT270 20/10 A3002 RMK CU2CI0 SLP169

CYWG;2009-08-04 20:00;CYWG 042000Z 32013G18KT 15SM FEW048 SCT270 20/10 A3003 RMK CU2CI0 SLP173

CYWG;2009-08-04 21:00;CYWG 042100Z 30015KT 15SM FEW050 SCT270 21/09 A3003 RMK CU2CI0 SLP174

CYWG;2009-08-04 22:00;CYWG 042200Z 32012G17KT 15SM FEW050 FEW095 SCT270 21/09 A3003 RMK CU1AC1CI0 OBS TAKEN 0+03 SLP171

CYWG;2009-08-04 23:00;CYWG 042300Z 31012KT 15SM FEW050 FEW095 BKN270 20/09 A3003 RMK SC1AC1CI1 AC TR SLP172

CYWG;2009-08-05 00:00;CYWG 050000Z 31008KT 15SM FEW050 FEW098 BKN270 19/10 A3003 RMK SC1AC1CI4 SLP173

CYWG;2009-08-05 01:00;CYWG 050100Z 29006KT 15SM FEW050 FEW098 BKN270 17/12 A3003 RMK SC1AC1CI2 SLP175

CYWG;2009-08-05 02:00;CYWG 050200Z 28005KT 15SM FEW098 BKN270 14/12 A3004 RMK AC1CI2 SLP176

CYWG;2009-08-05 03:00;CYWG 050300Z 31005KT 15SM FEW100 SCT270 12/11 A3005 RMK AC1CI1 SLP180

CYWG;2009-08-05 04:00;CYWG 050400Z 28006KT 15SM SCT100 BKN270 11/11 A3006 RMK AC3CI0 SLP182

CYWG;2009-08-05 05:00;CYWG 050500Z 29005KT 15SM SCT100 BKN270 12/11 A3006 RMK AC4CI0 SLP183

CYWG;2009-08-05 06:00;CYWG 050600Z 27005KT 15SM BKN100 BKN270 13/11 A3007 RMK AC5CI1 SLP186

CYWG;2009-08-05 07:00;CYWG 050700Z 26007KT 15SM BKN100 14/12 A3007 RMK AC6 SLP186

CYWG;2009-08-05 08:00;CYWG 050800Z 28004KT 15SM BKN100 13/12 A3007 RMK AC6 SLP185

CYWG;2009-08-05 09:00;CYWG 050900Z 28005KT 15SM BKN089 13/12 A3006 RMK AC5 SLP184

CYWG;2009-08-05 10:00;CYWG 051000Z 27005KT 15SM BKN089 13/12 A3006 RMK AC6 SLP184

CYWG;2009-08-05 11:00;CYWG 051100Z 27005KT 15SM SCT080 BKN120 13/11 A3007 RMK AC3AC2 SLP185

CYWG;2009-08-05 12:00;CYWG 051200Z 26005KT 15SM FEW040 BKN083 12/11 A3008 RMK SC1AC4 SLP189

CYWG;2009-08-05 13:00;CYWG 051300Z 26006KT 15SM FEW040 BKN094 15/13 A3008 RMK SC1AC4 SLP190

CYWG;2009-08-05 14:00;CYWG 051400Z 28007KT 15SM FEW015 BKN087 16/14 A3009 RMK CU1AC6 ACC EMBD VIRGA NW-N SLP192

CYWG;2009-08-05 15:00;CYWG 051500Z 28008KT 15SM FEW015 BKN081 17/13 A3009 RMK CU1AC4 ACC EMBD SH NE SLP195

CYWG;2009-08-05 16:00;CYWG 051600Z 26008KT 15SM FEW020 SCT090 19/14 A3009 RMK CU1AC2 SLP193

CYWG;2009-08-05 17:00;CYWG 051700Z 30012G17KT 15SM SCT030 BKN090 20/13 A3009 RMK CU4AC1 TCU ASOCTD SLP193

CYWG;2009-08-05 18:00;CYWG 051800Z 28016KT 15SM SCT035TCU 21/14 A3009 RMK TCU4 SH DIST NW-E SLP192

CYWG;2009-08-05 19:00;CYWG 051900Z 31013G22KT 15SM FEW041TCU SCT270 21/12 A3008 RMK TCU2CI0 SLP190

CYWG;2009-08-05 20:00;CYWG 052000Z 32014G19KT 15SM FEW046TCU SCT270 21/11 A3009 RMK TCU2CI1 SLP192

CYWG;2009-08-05 21:00;CYWG 052100Z 30014G19KT 15SM FEW048TCU FEW057 22/11 A3009 RMK TCU2SC1 SLP193

CYWG;2009-08-05 22:00;CYWG 052200Z 32014G19KT 15SM FEW050TCU SCT064 22/11 A3008 RMK TCU2SC1 SLP190

CYWG;2009-08-05 23:00;CYWG 052300Z 32012G17KT 15SM FEW050TCU FEW064 21/12 A3008 RMK TCU2SC1 SLP190

CYWG;2009-08-06 00:00;CYWG 060000Z 32010KT 15SM FEW050 FEW064 21/11 A3009 RMK CU1SC1 SLP191

CYWG;2009-08-06 01:00;CYWG 060100Z 01007KT 15SM FEW050 FEW092 18/13 A3009 RMK CU1AC1 CU AC TR SLP192

CYWG;2009-08-06 02:00;CYWG 060200Z 33003KT 15SM FEW079 16/13 A3009 RMK AC1 AC TR SLP193

CYWG;2009-08-06 03:00;CYWG 060300Z 32006KT 15SM FEW080 12/11 A3010 RMK AC1 SLP198

CYWG;2009-08-06 04:00;CYWG 060400Z 30004KT 15SM SKC 11/11 A3011 RMK SLP200

CYWG;2009-08-06 05:00;CYWG 060500Z 28003KT 15SM SKC 11/10 A3012 RMK SLP203

CYWG;2009-08-06 06:00;CYWG 060600Z 28006KT 15SM SKC 11/11 A3013 RMK SLP206

CYWG;2009-08-06 07:00;CYWG 060700Z 30005KT 15SM SKC 10/10 A3012 RMK AURBO SLP204

CYWG;2009-08-06 08:00;CYWG 060800Z 28006KT 15SM SKC 10/10 A3012 RMK SLP204

CYWG;2009-08-06 09:00;CYWG 060900Z 28005KT 15SM SKC 10/10 A3012 RMK SLP205

CYWG;2009-08-06 10:00;CYWG 061000Z 28005KT 15SM FEW130 09/09 A3013 RMK AC1 SLP206

CYWG;2009-08-06 11:00;CYWG 061100Z 27004KT 15SM FEW130 08/08 A3013 RMK AC1 SLP208

CYWG;2009-08-06 12:00;CYWG 061200Z 26003KT 15SM SKC 09/09 A3014 RMK SLP209

CYWG;2009-08-06 13:00;CYWG 061300Z 27003KT 15SM SKC 14/13 A3014 RMK SLP210

CYWG;2009-08-06 14:00;CYWG 061400Z 28003KT 15SM SKC 16/14 A3014 RMK SLP211

CYWG;2009-08-06 15:00;CYWG 061500Z 00000KT 15SM FEW015 FEW230 18/15 A3012 RMK CU2CI1 SLP205

CYWG;2009-08-06 16:00;CYWG 061600Z 00000KT 15SM BKN024 BKN230 19/14 A3012 RMK CU5CI1 SLP204

CYWG;2009-08-06 17:00;CYWG 061700Z 22007KT 15SM BKN032 BKN230 21/13 A3014 RMK CU6CI1 SLP209

CYWG;2009-08-06 18:00;CYWG 061800Z 31003KT 15SM SCT066 BKN230 21/12 A3011 RMK CU3CI1 SLP201

CYWG;2009-08-06 19:00;CYWG 061900Z 00000KT 15SM FEW046 BKN270 21/11 A3009 RMK CU2CI1 SLP195

CYWG;2009-08-06 20:00;CYWG 062000Z 00000KT 15SM FEW048 BKN270 22/11 A3008 RMK CU2CI1 SLP189

CYWG;2009-08-06 21:00;CYWG 062100Z 22007KT 15SM FEW049 BKN270 22/12 A3006 RMK CU2CI2 SLP184

CYWG;2009-08-06 22:00;CYWG 062200Z 00000KT 15SM FEW051 OVC270 22/11 A3005 RMK CU1CI2 SLP178

CYWG;2009-08-06 23:00;CYWG 062300Z 20006KT 15SM FEW051 OVC270 22/12 A3004 RMK CU1CI2 SLP175

CYWG;2009-08-07 00:00;CYWG 070000Z 19007KT 15SM FEW050 FEW120 BKN270 22/13 A3003 RMK CU1AC1CI2 SLP173

CYWG;2009-08-07 01:00;CYWG 070100Z 18005KT 15SM BKN270 20/13 A3002 RMK CI1 SLP168

CYWG;2009-08-07 02:00;CYWG 070200Z 15007KT 15SM FEW270 18/12 A3001 RMK CI1 SLP166

CYWG;2009-08-07 03:00;CYWG 070300Z 12006KT 15SM FEW120 BKN270 17/12 A3000 RMK AC2CI2 SLP162

CYWG;2009-08-07 04:00;CYWG 070400Z 13007KT 15SM SCT069 BKN120 OVC270 18/12 A3000 RMK AC3AC2CI1 SLP162

CYWG;2009-08-07 05:00;CYWG 070500Z 14007KT 15SM SCT070 BKN120 OVC270 18/12 A2999 RMK AC3AC2CI1 SLP160

CYWG;2009-08-07 06:00;CYWG 070600Z 13008KT 15SM FEW070 SCT120 BKN270 17/12 A2999 RMK AC2AC2CI1 SLP157

CYWG;2009-08-07 07:00;CYWG 070700Z 14007KT 15SM FEW070 BKN120 BKN270 17/12 A2999 RMK AC2AC2CI1 SLP159

CYWG;2009-08-07 08:00;CYWG 070800Z 14008KT 15SM BKN100 OVC270 17/12 A2998 RMK AC6CI1 SLP154

CYWG;2009-08-07 09:00;CYWG 070900Z 12007KT 15SM FEW051 BKN094 OVC270 17/12 A2996 RMK SC2AC4CI1 SLP145

CYWG;2009-08-07 10:00;CYWG 071000Z 14010KT 15SM FEW053 BKN100 OVC270 17/12 A2994 RMK SC2AC4CI1 SLP139

CYWG;2009-08-07 10:29;CYWG 071029Z 13008KT 15SM -SHRA SCT076 BKN100 OVC270 17/ RMK AC3AC3CI1

CYWG;2009-08-07 11:00;CYWG 071100Z 14011KT 15SM BKN074 OVC250 16/12 A2992 RMK AC6CI2 SLP132

CYWG;2009-08-07 12:00;CYWG 071200Z 14008KT 15SM FEW044 BKN064 OVC110 17/12 A2990 RMK CU2SC4AC2 SLP128

CYWG;2009-08-07 12:12;CYWG 071212Z 14009KT 15SM -SHRA FEW044 BKN064 OVC110 16/ RMK CU2SC4AC2

CYWG;2009-08-07 13:00;CYWG 071300Z 12007KT 15SM -SHRA FEW044 BKN054 OVC110 16/13 A2990 RMK CU2SC3AC3 SLP126

CYWG;2009-08-07 13:39;CYWG 071339Z 12007KT 15SM SCT052 BKN067 OVC120 16/ RMK SC3AC2AC2

CYWG;2009-08-07 14:00;CYWG 071400Z 14007KT 15SM -SHRA FEW020 SCT052 BKN061 OVC120 16/14 A2989 RMK SC1SC2SC2AC2 SLP124

CYWG;2009-08-07 15:00;CYWG 071500Z 13009KT 15SM -SHRA SCT025 BKN070 OVC120 17/14 A2989 RMK SC3AC2AC2 SLP123

CYWG;2009-08-07 16:00;CYWG 071600Z 15011KT 4SM -SHRA BR BKN023 BKN070 OVC120 16/15 A2988 RMK SC6AC1AC2 SLP121

CYWG;2009-08-07 17:00;CYWG 071700Z 12011KT 15SM -SHRA FEW020 BKN081 OVC120 16/15 A2987 RMK SC1AC5AC2 SLP116

CYWG;2009-08-07 18:00;CYWG 071800Z 11012KT 15SM FEW037 BKN079 OVC120 17/15 A2984 RMK SC1AC4AC3 SLP108

CYWG;2009-08-07 18:43;CYWG 071843Z 11010G15KT 15SM -SHRA BKN049 OVC075 17/ RMK SC5AC3 ACC EMBD

CYWG;2009-08-07 19:00;CYWG 071900Z 12009KT 15SM -SHRA BKN043 OVC075 17/15 A2983 RMK SC5AC3 ACC EMBD SLP102

CYWG;2009-08-07 20:00;CYWG 072000Z 12011KT 15SM BKN035 OVC078 18/16 A2981 RMK SC6AC2 SLP096

CYWG;2009-08-07 21:00;CYWG 072100Z 13008KT 15SM FEW029 FEW047 OVC070 19/16 A2980 RMK SC1SC1AC6 SLP093

CYWG;2009-08-07 21:54;CYWG 072154Z 12010KT 10SM -DZ BKN023 OVC066 19/ RMK SC7SC1

CYWG;2009-08-07 22:00;CYWG 072200Z 12010KT 10SM -DZ BKN023 OVC065 19/16 A2978 RMK SC7SC1 SLP088

CYWG;2009-08-07 22:48;CYWG 072248Z 13009KT 15SM BKN021 OVC089 19/ RMK SC7AC1

CYWG;2009-08-07 23:00;CYWG 072300Z 12008KT 15SM BKN021 BKN035 OVC089 19/17 A2977 RMK SC6SC1AC1 SLP085

CYWG;2009-08-08 00:00;CYWG 080000Z 15009KT 15SM BKN024 OVC084 19/17 A2977 RMK SC6AC2 SLP081

CYWG;2009-08-08 00:20;CYWG 080020Z 15010KT 15SM -SHRA BKN020 OVC070 20/ RMK SC5AC3 ACC EMBD

CYWG;2009-08-08 01:00;CYWG 080100Z 16006KT 15SM BKN020 OVC073 19/18 A2976 RMK SC7AC1 SLP080

CYWG;2009-08-08 02:00;CYWG 080200Z 17005KT 10SM OVC016 19/18 A2976 RMK SC8 BR SLP079

CYWG;2009-08-08 02:34;CYWG 080234Z 18010KT 9SM BKN014 OVC020 19/ RMK SC6SC2

CYWG;2009-08-08 03:00;CYWG 080300Z 17010KT 15SM SCT017 BKN060 19/18 A2976 RMK SC3SC4 SLP080

CYWG;2009-08-08 04:00;CYWG 080400Z 18010KT 15SM OVC018 19/18 A2977 RMK SC8 SLP082

CYWG;2009-08-08 05:00;CYWG 080500Z 19010KT 15SM OVC016 19/18 A2977 RMK SC8 SLP083

CYWG;2009-08-08 05:43;CYWG 080543Z 19011KT 15SM SCT007 OVC026 19/ RMK SF2SC6

CYWG;2009-08-08 06:00;CYWG 080600Z 18010KT 15SM SCT007 OVC024 19/18 A2976 RMK SF2SC6 SLP079

CYWG;2009-08-08 07:00;CYWG 080700Z 19009KT 15SM SCT006 OVC020 19/18 A2975 RMK SF4SC4 SLP075

CYWG;2009-08-08 07:11;CYWG 080711Z 19008KT 15SM BKN006 OVC020 19/ RMK SF6SC2

CYWG;2009-08-08 07:29;CYWG 080729Z 19009KT 6SM -DZ OVC005 18/ RMK ST8 CIG RAG

CYWG;2009-08-08 08:00;CYWG 080800Z 20009KT 4SM -DZ OVC004 18/18 A2974 RMK ST8 SLP074

CYWG;2009-08-08 09:00;CYWG 080900Z 22006KT 4SM -DZ OVC003 18/18 A2975 RMK ST8 SLP075

CYWG;2009-08-08 09:36;CYWG 080936Z 23003KT 1 3/4SM -DZ OVC002 18/ RMK ST8

CYWG;2009-08-08 10:00;CYWG 081000Z 23002KT 1 3/4SM -DZ OVC002 18/18 A2974 RMK ST8 SLP074

CYWG;2009-08-08 10:21;CYWG 081021Z 23002KT 2 1/2SM BR OVC002 18/ RMK ST8

CYWG;2009-08-08 10:30;CYWG 081030Z 25003KT 2SM -DZ BR OVC002 18/ RMK ST8

CYWG;2009-08-08 10:53;CYWG 081053Z 36004KT 2 1/2SM BR OVC002 18/ RMK FG2ST6

CYWG;2009-08-08 11:00;CYWG 081100Z 36005KT 2 1/2SM BR OVC004 18/18 A2974 RMK FG2ST6 SLP073

CYWG;2009-08-08 11:10;CYWG 081110Z 36002KT 5SM BR BKN004 OVC007 18/ RMK ST5SF2 VIS 21/2 NE-S

CYWG;2009-08-08 11:30;CYWG 081130Z 32002KT 8SM FEW002 BKN005 OVC013 18/ RMK ST2SF5SC1 VIS 3 NE-SE

CYWG;2009-08-08 12:00;CYWG 081200Z 00000KT 8SM -DZ BKN004 BKN016 OVC220 18/18 A2978 RMK ST6SC1CI1 SLP085

CYWG;2009-08-08 12:37;CYWG 081237Z 33005KT 10SM -DZ FEW004 BKN013 OVC220 18/ RMK ST2SC6CI0

CYWG;2009-08-08 13:00;CYWG 081300Z 33005KT 12SM SCT004 BKN006 OVC015 17/17 A2977 RMK ST3SF4SC1 SLP084

CYWG;2009-08-08 13:47;CYWG 081347Z 34010KT 15SM BKN004 OVC015 17/ RMK ST6SC2

CYWG;2009-08-08 14:00;CYWG 081400Z 34007KT 15SM OVC003 17/17 A2977 RMK SF8 CIG RAG SLP084

CYWG;2009-08-08 15:00;CYWG 081500Z 33009KT 15SM OVC004 17/17 A2978 RMK SF8 CIG RAG SLP085

CYWG;2009-08-08 16:00;CYWG 081600Z 34007KT 15SM OVC004 17/17 A2980 RMK SF8 SLP091

CYWG;2009-08-08 16:05;CYWG 081605Z 34008KT 15SM OVC005 17/ RMK SF8

CYWG;2009-08-08 16:28;CYWG 081628Z 34007KT 15SM OVC003 17/ RMK SF8

CYWG;2009-08-08 16:35;CYWG 081635Z 35007KT 15SM OVC004 18/ RMK SF8 CIG VRB 3-5

CYWG;2009-08-08 16:45;CYWG 081645Z 34007KT 15SM BKN006 OVC086 18/ RMK SF7AC1

CYWG;2009-08-08 17:00;CYWG 081700Z 33008KT 15SM BKN007 OVC086 18/17 A2980 RMK SF7AC1 SLP091

CYWG;2009-08-08 18:00;CYWG 081800Z 31007KT 15SM OVC010 18/17 A2979 RMK SC8 SLP089

CYWG;2009-08-08 18:36;CYWG 081836Z 36004KT 15SM OVC009 18/ RMK SC8

CYWG;2009-08-08 18:44;CYWG 081844Z 35007KT 15SM OVC011 18/ RMK SC8

CYWG;2009-08-08 19:00;CYWG 081900Z 34006KT 15SM OVC011 19/17 A2979 RMK SC8 SLP090

CYWG;2009-08-08 20:00;CYWG 082000Z 31005KT 15SM OVC015 20/17 A2980 RMK SC8 SLP092

CYWG;2009-08-08 20:46;CYWG 082046Z 33006KT 15SM OVC014 20/ RMK SC8

CYWG;2009-08-08 21:00;CYWG 082100Z 31006KT 15SM OVC014 20/17 A2980 RMK SC8 SLP091

CYWG;2009-08-08 22:00;CYWG 082200Z 31005KT 15SM OVC012 19/17 A2980 RMK SC8 SLP091

CYWG;2009-08-08 22:40;CYWG 082240Z 32007KT 15SM FEW013 OVC021 19/ RMK SF2SC6

CYWG;2009-08-08 23:00;CYWG 082300Z 33008KT 15SM FEW013 OVC023 19/17 A2979 RMK SF2SC6 SLP088

CYWG;2009-08-08 23:42;CYWG 082342Z 32007KT 10SM -DZ SCT008 OVC018 18/ RMK SF4SC4 VIS W 4

CYWG;2009-08-08 23:55;CYWG 082355Z 30005KT 3SM -DZ BR BKN008 OVC018 18/ RMK SF6SC2

CYWG;2009-08-09 00:00;CYWG 090000Z 31004KT 3SM -DZ BR OVC008 18/18 A2981 RMK SF8 SLP097

CYWG;2009-08-09 00:04;CYWG 090004Z 32003KT 2SM -DZ BR OVC004 18/ RMK SF8

CYWG;2009-08-09 00:27;CYWG 090027Z 34006KT 3SM -DZ BR BKN007 OVC012 17/ RMK SF7SC1

CYWG;2009-08-09 00:39;CYWG 090039Z 33007KT 6SM -RA BR SCT004 BKN012 OVC020 17/ RMK SF3SC2SC3

CYWG;2009-08-09 01:00;CYWG 090100Z 32007KT 6SM -RA BR FEW004 BKN011 OVC020 17/17 A2980 RMK SF2SC2SC3 SLP095

CYWG;2009-08-09 01:26;CYWG 090126Z 32006KT 10SM -RA BKN009 OVC018 17/ RMK SC6SC2

CYWG;2009-08-09 02:00;CYWG 090200Z 31006KT 15SM BKN007 OVC019 17/17 A2981 RMK SC7SC1 SLP096

CYWG;2009-08-09 02:52;CYWG 090252Z 02005KT 12SM SCT007 BKN011 OVC036 17/ RMK SF2SC3SC2

CYWG;2009-08-09 03:00;CYWG 090300Z 36003KT 15SM SCT008 BKN011 OVC036 16/16 A2980 RMK SF2SC4SC2 SLP095

CYWG;2009-08-09 03:22;CYWG 090322Z 26006KT 12SM BKN007 OVC011 17/ RMK SC6SC2

CYWG;2009-08-09 04:00;CYWG 090400Z 27005KT 12SM FEW003 OVC007 17/17 A2982 RMK SF2SC6 SLP100

CYWG;2009-08-09 04:14;CYWG 090414Z 29005KT 10SM -RA FEW003 OVC007 17/ RMK SF2SC6

CYWG;2009-08-09 05:00;CYWG 090500Z 29008KT 8SM -RA SCT004 OVC007 17/17 A2983 RMK SF2SC6 BR SLP102

CYWG;2009-08-09 05:22;CYWG 090522Z 30007KT 6SM -RA BR BKN004 OVC007 17/ RMK SF5SC3

CYWG;2009-08-09 06:00;CYWG 090600Z 00000KT 12SM SCT005 BKN011 17/17 A2982 RMK SF2SC4 SLP099

CYWG;2009-08-09 06:41;CYWG 090641Z 29006KT 12SM FEW005 OVC017 16/ RMK SF1SC6

CYWG;2009-08-09 07:00;CYWG 090700Z 28007KT 12SM SCT007 SCT012 OVC017 17/17 A2982 RMK SF2SC2SC4 SLP100

CYWG;2009-08-09 08:00;CYWG 090800Z 27005KT 15SM FEW007 OVC019 17/17 A2982 RMK SF2SC6 SLP099

CYWG;2009-08-09 09:00;CYWG 090900Z 30005KT 15SM SCT003 OVC025 17/17 A2983 RMK SF2SC6 SLP103

CYWG;2009-08-09 10:00;CYWG 091000Z 32006KT 15SM FEW006 OVC024 17/16 A2983 RMK SF2SC6 SLP105

CYWG;2009-08-09 11:00;CYWG 091100Z 33006KT 15SM FEW008 BKN024 BKN100 16/16 A2984 RMK SF1SC4AC1 SLP106

CYWG;2009-08-09 12:00;CYWG 091200Z 28006KT 15SM FEW025 FEW080 15/15 A2986 RMK SC1AC1 SLP115

CYWG;2009-08-09 13:00;CYWG 091300Z 32008KT 15SM SCT057 17/16 A2986 RMK SC3 SLP114

CYWG;2009-08-09 14:00;CYWG 091400Z 33005KT 15SM FEW008 FEW040 FEW100 18/16 A2987 RMK CF1SC1AC1 CF TR SLP119

CYWG;2009-08-09 15:00;CYWG 091500Z 34009KT 15SM FEW014 FEW120 20/17 A2988 RMK CU1AC2 SLP120

CYWG;2009-08-09 16:00;CYWG 091600Z 01009KT 15SM FEW020 FEW120 21/16 A2989 RMK CU2AC1 SLP124

CYWG;2009-08-09 17:00;CYWG 091700Z 36008KT 15SM SCT024 SCT100 22/17 A2991 RMK CU3AC1 SLP129

CYWG;2009-08-09 18:00;CYWG 091800Z 04005KT 15SM BKN029TCU 22/17 A2990 RMK TCU5 SLP128

CYWG;2009-08-09 19:00;CYWG 091900Z 01003KT 15SM SCT031TCU BKN053 22/17 A2990 RMK TCU3SC2 SLP127

CYWG;2009-08-09 20:00;CYWG 092000Z 33004KT 15SM SCT033TCU BKN088 23/16 A2990 RMK TCU3AC2 SLP127

CYWG;2009-08-09 21:00;CYWG 092100Z 01013KT 15SM VCSH BKN035TCU BKN065 21/16 A2991 RMK TCU5SC2 SLP129

CYWG;2009-08-09 21:20;CYWG 092120Z 03014KT 15SM -SHRA BKN035TCU BKN053 19/ RMK TCU6SC2

CYWG;2009-08-09 21:47;CYWG 092147Z 04004KT 15SM BKN031TCU BKN045 21/ RMK TCU5SC2

CYWG;2009-08-09 22:00;CYWG 092200Z 05005KT 15SM FEW031TCU BKN048 23/15 A2990 RMK TCU2SC4 SLP127

CYWG;2009-08-09 23:00;CYWG 092300Z 00000KT 15SM FEW055 BKN095 22/15 A2989 RMK SC2AC2 SLP123

CYWG;2009-08-10 00:00;CYWG 100000Z 35002KT 15SM FEW085 22/15 A2989 RMK AC1 SLP124

CYWG;2009-08-10 01:00;CYWG 100100Z 01002KT 15SM FEW085 21/16 A2989 RMK AC1 SLP124

CYWG;2009-08-10 02:00;CYWG 100200Z 32002KT 15SM SKC 17/15 A2989 RMK SLP123

CYWG;2009-08-10 03:00;CYWG 100300Z 25002KT 15SM SKC 16/15 A2990 RMK SLP127

CYWG;2009-08-10 04:00;CYWG 100400Z 27003KT 15SM SKC 14/14 A2991 RMK SLP130

CYWG;2009-08-10 05:00;CYWG 100500Z 31004KT 15SM SKC 13/13 A2992 RMK SLP133

CYWG;2009-08-10 06:00;CYWG 100600Z 00000KT 15SM SKC 12/12 A2993 RMK SLP137

CYWG;2009-08-10 07:00;CYWG 100700Z 23003KT 15SM SKC 13/13 A2994 RMK SLP140

CYWG;2009-08-10 08:00;CYWG 100800Z 00000KT 15SM SKC 13/13 A2993 RMK SLP138

CYWG;2009-08-10 09:00;CYWG 100900Z 00000KT 6SM BR SKC 11/11 A2994 RMK SLP141

CYWG;2009-08-10 10:00;CYWG 101000Z 22002KT 10SM SKC 11/11 A2993 RMK BR SLP138

CYWG;2009-08-10 11:00;CYWG 101100Z 18004KT 6SM R36/3500VP6000FT/D BR SKC 11/11 A2993 RMK SLP138

CYWG;2009-08-10 12:00;CYWG 101200Z 17002KT 10SM SKC 12/12 A2993 RMK SLP138

CYWG;2009-08-10 13:00;CYWG 101300Z 00000KT 12SM SKC 15/14 A2994 RMK SLP141

CYWG;2009-08-10 14:00;CYWG 101400Z 23003KT 15SM SKC 18/15 A2995 RMK SLP145

CYWG;2009-08-10 15:00;CYWG 101500Z 22003KT 15SM SKC 21/15 A2996 RMK SLP146

CYWG;2009-08-10 16:00;CYWG 101600Z 22007KT 15SM SKC 23/14 A2996 RMK SLP148

CYWG;2009-08-10 17:00;CYWG 101700Z 21007KT 15SM SKC 24/15 A2996 RMK SLP147

CYWG;2009-08-10 18:00;CYWG 101800Z 20009KT 15SM SKC 25/16 A2995 RMK SLP145

CYWG;2009-08-10 19:00;CYWG 101900Z 24005KT 12SM SKC 26/17 A2995 RMK HZ SLP144

CYWG;2009-08-10 20:00;CYWG 102000Z 24007KT 12SM FEW040 27/16 A2995 RMK CU1 HZ SLP143

CYWG;2009-08-10 21:00;CYWG 102100Z 28009KT 15SM FEW045 27/15 A2995 RMK CU2 SLP142

CYWG;2009-08-10 22:00;CYWG 102200Z 29005KT 15SM FEW044 27/16 A2994 RMK CU1 SLP139

CYWG;2009-08-10 23:00;CYWG 102300Z 26006KT 15SM FEW045 27/16 A2993 RMK CU1 SLP137

CYWG;2009-08-11 00:00;CYWG 110000Z 25003KT 15SM SKC 26/16 A2993 RMK SLP136

CYWG;2009-08-11 01:00;CYWG 110100Z 21004KT 15SM SKC 24/16 A2993 RMK SLP136

CYWG;2009-08-11 02:00;CYWG 110200Z 19006KT 15SM FEW250 21/17 A2993 RMK CI0 SLP135

CYWG;2009-08-11 03:00;CYWG 110300Z 19007KT 15SM FEW250 21/16 A2993 RMK CI0 SLP137

CYWG;2009-08-11 04:00;CYWG 110400Z 20007KT 15SM SKC 21/17 A2994 RMK SLP139

CYWG;2009-08-11 05:00;CYWG 110500Z 22008KT 15SM SKC 21/16 A2994 RMK SLP140

CYWG;2009-08-11 06:00;CYWG 110600Z 22010KT 15SM SKC 19/15 A2994 RMK SLP140

CYWG;2009-08-11 07:00;CYWG 110700Z 22010KT 15SM SKC 19/14 A2994 RMK SLP140

CYWG;2009-08-11 08:00;CYWG 110800Z 22008KT 15SM SKC 18/13 A2995 RMK SLP142

CYWG;2009-08-11 09:00;CYWG 110900Z 22010KT 15SM FEW071 18/13 A2995 RMK AC2 SLP141

CYWG;2009-08-11 10:00;CYWG 111000Z 21010KT 15SM FEW070 17/13 A2995 RMK AC2 SLP142

CYWG;2009-08-11 11:00;CYWG 111100Z 21011KT 15SM FEW080 18/13 A2995 RMK AC2 SLP142

CYWG;2009-08-11 12:00;CYWG 111200Z 20010KT 12SM FEW087 17/13 A2996 RMK AC2 HZ SLP144

CYWG;2009-08-11 13:00;CYWG 111300Z 20010KT 12SM FEW085 FEW220 18/14 A2996 RMK AC1CI1 HZ TR AC SLP144

CYWG;2009-08-11 14:00;CYWG 111400Z 20013KT 12SM FEW230 20/14 A2996 RMK CI1 HZ SLP144

CYWG;2009-08-11 15:00;CYWG 111500Z 20011G16KT 12SM SKC 23/16 A2995 RMK HZ SLP142

CYWG;2009-08-11 16:00;CYWG 111600Z 20011KT 12SM FEW230 25/16 A2994 RMK CI1 HZ SLP139

CYWG;2009-08-11 17:00;CYWG 111700Z 19013KT 12SM FEW090 SCT230 27/18 A2993 RMK AC1CI2 HZ SLP135

CYWG;2009-08-11 18:00;CYWG 111800Z 19013G18KT 12SM BKN250 29/19 A2990 RMK CI3 HZ SLP126

CYWG;2009-08-11 19:00;CYWG 111900Z 19016KT 15SM BKN250 29/19 A2989 RMK CI3 HZ SLP121

CYWG;2009-08-11 20:00;CYWG 112000Z 19016KT 15SM SCT250 30/19 A2988 RMK CI2 HZ SLP118

CYWG;2009-08-11 21:00;CYWG 112100Z 20018KT 15SM SCT250 30/16 A2987 RMK CI2 SLP112

CYWG;2009-08-11 22:00;CYWG 112200Z 20015G21KT 15SM SCT250 30/18 A2985 RMK CI2 SLP108

CYWG;2009-08-11 23:00;CYWG 112300Z 18015KT 15SM SKC 30/18 A2984 RMK HZ SLP103

CYWG;2009-08-12 00:00;CYWG 120000Z CCA 19012G18KT 15SM SKC 28/19 A2983 RMK SLP100

CYWG;2009-08-12 01:00;CYWG 120100Z 18013KT 15SM SKC 27/20 A2982 RMK SLP096

CYWG;2009-08-12 02:00;CYWG 120200Z 18012KT 15SM FEW250 25/19 A2981 RMK CI1 SLP093

CYWG;2009-08-12 03:00;CYWG 120300Z 18012G17KT 15SM SKC 24/19 A2981 RMK SLP093

CYWG;2009-08-12 04:00;CYWG 120400Z 18014KT 15SM SKC 23/18 A2980 RMK SLP091

CYWG;2009-08-12 05:00;CYWG 120500Z 19014KT 15SM SKC 23/18 A2979 RMK SLP088

CYWG;2009-08-12 06:00;CYWG 120600Z 20010KT 15SM SKC 21/18 A2980 RMK SLP089

CYWG;2009-08-12 07:00;CYWG 120700Z 20003KT 15SM SKC 18/17 A2980 RMK SLP090

CYWG;2009-08-12 08:00;CYWG 120800Z 18007KT 15SM SKC 18/17 A2979 RMK SLP087

CYWG;2009-08-12 09:00;CYWG 120900Z 18008KT 15SM SKC 18/17 A2978 RMK SLP084

CYWG;2009-08-12 10:00;CYWG 121000Z 18008KT 15SM SKC 18/17 A2978 RMK SLP083

CYWG;2009-08-12 11:00;CYWG 121100Z 19009KT 15SM SKC 18/17 A2978 RMK SLP082

CYWG;2009-08-12 12:00;CYWG 121200Z 19009KT 15SM SKC 18/17 A2978 RMK SLP085

CYWG;2009-08-12 13:00;CYWG 121300Z 22006KT 15SM FEW100 19/17 A2980 RMK ACC1 SLP090

CYWG;2009-08-12 14:00;CYWG 121400Z 20011KT 15SM FEW100 22/17 A2979 RMK ACC1 SLP086

CYWG;2009-08-12 15:00;CYWG 121500Z 20006KT 15SM FEW250 24/18 A2979 RMK CI1 SLP085

CYWG;2009-08-12 16:00;CYWG 121600Z 21010KT 15SM FEW250 27/18 A2978 RMK CI1 SLP083

CYWG;2009-08-12 17:00;CYWG 121700Z 21011KT 15SM FEW270 28/18 A2978 RMK CI1 SLP082

CYWG;2009-08-12 18:00;CYWG 121800Z 25010KT 15SM FEW270 29/19 A2980 RMK CI1 SLP089

CYWG;2009-08-12 19:00;CYWG 121900Z 28009KT 15SM FEW270 29/19 A2980 RMK CI1 SLP089

CYWG;2009-08-12 20:00;CYWG 122000Z 27006KT 15SM FEW075 FEW270 30/20 A2980 RMK AC1CI0 SLP089

CYWG;2009-08-12 21:00;CYWG 122100Z 29006KT 15SM BKN078 30/18 A2980 RMK AC6 SLP090

CYWG;2009-08-12 22:00;CYWG 122200Z 30006KT 15SM BKN110 29/21 A2982 RMK AC6 ACC ASOCTD VIRGA W SLP096

CYWG;2009-08-12 23:00;CYWG 122300Z 10002KT 15SM BKN093 BKN270 30/20 A2979 RMK AC6CI0 ACC ASOCTD VIRGA SLP087

CYWG;2009-08-13 00:00;CYWG 130000Z 33004KT 15SM BKN080 BKN270 29/20 A2982 RMK AC5CI0 ACC ASOCTD VIRGA SLP096

CYWG;2009-08-13 01:00;CYWG 130100Z CCA 27006KT 15SM -TSRA BKN080CB BKN093 BKN270 26/22 A2983 RMK CB5AC2CI0 LTNG W SLP100

CYWG;2009-08-13 01:10;CYWG 130110Z 26005KT 15SM TS BKN080CB BKN093 BKN270 25/ RMK CB5AC2CI0

CYWG;2009-08-13 02:00;CYWG 130200Z 14004KT 15SM BKN080CB BKN094 24/21 A2983 RMK CB5AC2 RETS-SHRA SLP102

CYWG;2009-08-13 02:17;CYWG 130217Z 36004KT 15SM TS BKN080CB BKN094 23/ RMK CB5AC2 LTNG S-SW

CYWG;2009-08-13 03:00;CYWG 130300Z 10009KT 15SM TS BKN060CB BKN094 25/21 A2980 RMK CB6AC1 LTNG W-S SLP091

CYWG;2009-08-13 03:20;CYWG 130320Z 09008KT 15SM -TSRA OVC060CB 25/ RMK CB8 LTNGICCCCG

CYWG;2009-08-13 04:00;CYWG 130400Z 31003KT 12SM -TSRA SCT019 BKN060CB 23/20 A2981 RMK SC3CB5 LTNGIC SLP092

CYWG;2009-08-13 04:42;CYWG 130442Z 00000KT 15SM SCT042CB BKN098 22/ RMK CB3AC2 LTNG N

CYWG;2009-08-13 05:00;CYWG 130500Z 00000KT 15SM FEW043CB BKN087 21/19 A2980 RMK CB2AC4 LTNG N-E SLP088

CYWG;2009-08-13 06:00;CYWG 130600Z 24003KT 15SM FEW043CB BKN087 20/18 A2982 RMK CB1AC4 CB AND LTNG S SLP098

CYWG;2009-08-13 07:00;CYWG 130700Z 36007KT 15SM BKN062 BKN080 19/17 A2981 RMK SC5AC2 LTNG DSTNT SE SLP094

CYWG;2009-08-13 08:00;CYWG 130800Z 30002KT 15SM -TSRA BKN051CB BKN080 20/18 A2981 RMK CB5AC2 LTNG N SLP093

CYWG;2009-08-13 09:00;CYWG 130900Z 34010KT 15SM -TSRA FEW020 BKN050CB OVC080 20/19 A2983 RMK SC2CB4AC2 LTNG NW-N-E SLP102

CYWG;2009-08-13 10:00;CYWG 131000Z 33021G26KT 15SM -TSRA BKN027 OVC050CB 21/19 A2989 RMK SC5CB3 LTNGICCCCG SLP119

CYWG;2009-08-13 10:50;CYWG 131050Z 06011KT 15SM FEW019 BKN050 BKN080 20/ RMK SC1SC6AC1 CVCTV CLD EMBD SH N-W

CYWG;2009-08-13 11:00;CYWG 131100Z 07012KT 15SM FEW019 BKN050 BKN080 20/18 A2982 RMK SC1SC6AC1 CVCTV CLD EMBD SH N-W SLP097

CYWG;2009-08-13 12:00;CYWG 131200Z 31007KT 10SM -SHRA FEW012 BKN046 OVC089 19/19 A2988 RMK SF1SC6AC2 CVCTV CLD EMBD SLP116

CYWG;2009-08-13 13:00;CYWG 131300Z 22003KT 10SM -SHRA FEW012 BKN040 BKN090 20/19 A2983 RMK SF1SC6AC1 CVCTV CLD EMBD SLP100

CYWG;2009-08-13 14:00;CYWG 131400Z 14012KT 15SM -SHRA FEW008 BKN040 BKN075 20/18 A2983 RMK SF1SC5AC2 CVCTV CLD EMBD SLP099

CYWG;2009-08-13 14:22;CYWG 131422Z 15007KT 15SM FEW008 BKN046 BKN270 20/ RMK SC1SC7CI1

CYWG;2009-08-13 15:00;CYWG 131500Z 31004KT 15SM FEW040 FEW085 SCT120 BKN270 21/19 A2985 RMK SC1AC2AC1CI1 SLP108

CYWG;2009-08-13 16:00;CYWG 131600Z 20008KT 15SM FEW020 FEW091 SCT270 23/19 A2988 RMK CU1AC1CI0 SLP117

CYWG;2009-08-13 17:00;CYWG 131700Z 23005KT 15SM FEW020 FEW270 24/19 A2989 RMK CU1CI1 SLP122

CYWG;2009-08-13 18:00;CYWG 131800Z 25006KT 15SM FEW020 FEW100 FEW270 25/20 A2990 RMK CU1AC1CI1 SLP123

CYWG;2009-08-13 19:00;CYWG 131900Z 28004KT 15SM FEW024 FEW270 27/20 A2988 RMK CU1CI0 SLP118

CYWG;2009-08-13 20:00;CYWG 132000Z 28005KT 15SM FEW028 FEW090 FEW270 27/20 A2987 RMK CU1AC1CI0 SLP116

CYWG;2009-08-13 21:00;CYWG 132100Z 31005KT 15SM FEW034 FEW090 SCT270 28/19 A2988 RMK CU1AC1CI1 SLP117

CYWG;2009-08-13 22:00;CYWG 132200Z 00000KT 15SM FEW036 FEW090 SCT270 28/19 A2986 RMK CU1AC1CI1 SLP110

CYWG;2009-08-13 23:00;CYWG 132300Z 32005KT 15SM FEW032 FEW090 28/20 A2986 RMK CU1AC1 SLP111

CYWG;2009-08-14 00:00;CYWG 140000Z 36004KT 15SM SCT085 27/20 A2986 RMK AC2 SLP110

CYWG;2009-08-14 01:00;CYWG 140100Z 02006KT 15SM SCT066 25/21 A2985 RMK AC3 SLP109

CYWG;2009-08-14 02:00;CYWG 140200Z 04007KT 15SM SCT068 23/21 A2986 RMK AC3 SLP112

CYWG;2009-08-14 03:00;CYWG 140300Z 05006KT 15SM BKN039 23/20 A2987 RMK SC5 SLP116

CYWG;2009-08-14 04:00;CYWG 140400Z 04004KT 15SM BKN042 22/19 A2987 RMK SC5 SLP114

CYWG;2009-08-14 05:00;CYWG 140500Z 05005KT 15SM BKN042 22/20 A2986 RMK SC6 SLP112

CYWG;2009-08-14 06:00;CYWG 140600Z 01005KT 15SM BKN042 20/19 A2984 RMK SC5 SLP106

CYWG;2009-08-14 07:00;CYWG 140700Z 03006KT 15SM BKN040 20/19 A2983 RMK SC6 SLP103

CYWG;2009-08-14 07:37;CYWG 140737Z 04006KT 15SM TS FEW030CB BKN040 21/ RMK CB2SC5 LTGIC SE-SW

CYWG;2009-08-14 08:00;CYWG 140800Z CCA 06006KT 5SM TSRA BR SCT030CB BKN040 20/19 A2983 RMK CB3SC3 LTGIC SW-E BC MOVG E SLP103

CYWG;2009-08-14 08:13;CYWG 140813Z CCA 01005KT 5SM -TSRA BR SCT002 BKN030CB 20/ RETS RMK SF3CB4 LTG ALQDS CB MOVG E

CYWG;2009-08-14 08:29;CYWG 140829Z 01006KT 15SM TS FEW002 SCT020 BKN030CB 20/ RERA RMK SF1SC2CB2 LTGIC S-E CB MOVG E

CYWG;2009-08-14 09:00;CYWG 140900Z 07004KT 15SM -TSRA BKN039CB BKN060 20/19 A2983 RERA RMK CB5SC2 LTGIC W-SE-NE CB MOVG ENE SLP099

CYWG;2009-08-14 10:00;CYWG 141000Z 03010KT 15SM -TSRA FEW005 BKN029CB OVC060 20/18 A2982 RMK SF1CB4SC3 LTGICCGCC SW-SE-NE CB MOVG ENE SLP097

CYWG;2009-08-14 11:00;CYWG 141100Z 06010KT 15SM -TSRA BKN016CB BKN093 OVC210 19/19 A2982 RMK CB5AC2CI2 LTGCG E-S SLP098

CYWG;2009-08-14 12:00;CYWG 141200Z 23002G15KT 15SM -TSRA FEW021 BKN066CB OVC210 19/18 A2986 RMK ST1CB6CI2 LTGCC SE SLP111

CYWG;2009-08-14 13:00;CYWG 141300Z 02005KT 15SM -TSRA FEW021 BKN062CB OVC210 19/18 A2985 RMK SC2CB5CI2 LTGCG SW SLP108

CYWG;2009-08-14 13:30;CYWG 141330Z CCB 31002KT 15SM -SHRA SCT010 BKN082 OVC210 18/ RETS RMK SC3AC4CI1

CYWG;2009-08-14 14:00;CYWG 141400Z 32008KT 15SM -SHRA FEW010 FEW060CB BKN120 OVC210 18/17 A2990 RETS RMK SF1CB2AS5CI1 CB SE SLP123

CYWG;2009-08-14 14:05;CYWG 141405Z 31007KT 15SM FEW034 BKN068 OVC120 18/ RMK SC2AC2AS3

CYWG;2009-08-14 14:34;CYWG 141434Z 30004KT 15SM -SHRA FEW030 BKN058 OVC120 18/ RMK SC2SC4AS2

CYWG;2009-08-14 15:00;CYWG 141500Z 31005KT 15SM -SHRA FEW030 BKN058 OVC093 18/17 A2992 RMK SC2SC4AS2 SLP132

CYWG;2009-08-14 15:53;CYWG 141553Z 03008G16KT 15SM BKN056 BKN093 OVC210 18/ RMK SC5AC2CI2

CYWG;2009-08-14 16:00;CYWG 141600Z 02011KT 15SM SCT056 OVC210 19/17 A2982 RMK SC3CS5 PRESFR SLP101

CYWG;2009-08-14 17:00;CYWG 141700Z 36008KT 15SM FEW040TCU FEW080 BKN210 20/17 A2986 RMK TCU1AC2CS3 SLP112

CYWG;2009-08-14 18:00;CYWG 141800Z 36006KT 15SM FEW040 BKN093 BKN210 22/19 A2988 RMK CF1AC4CI1 SLP118

CYWG;2009-08-14 19:00;CYWG 141900Z 36013KT 15SM SCT015 BKN081 21/18 A2989 RMK CF3AC4 SLP122

CYWG;2009-08-14 20:00;CYWG 142000Z 02018KT 15SM FEW040 SCT081 BKN210 20/16 A2988 RMK CU1ACC2CI3 ACC SW SLP118

CYWG;2009-08-14 21:00;CYWG 142100Z 03015KT 15SM SCT080 BKN210 21/18 A2987 RMK AC4CI2 SLP114

CYWG;2009-08-14 22:00;CYWG 142200Z 04016G21KT 15SM FEW050 BKN070 BKN210 22/19 A2985 RMK CU2AC4CI2 SLP110

CYWG;2009-08-14 23:00;CYWG 142300Z 03013KT 15SM FEW016 SCT050 BKN070 21/18 A2989 RMK CF2CU2AC4 SLP121

CYWG;2009-08-15 00:00;CYWG 150000Z 02015KT 15SM FEW016 OVC055 20/17 A2991 RMK CU2SC6 SLP130

CYWG;2009-08-15 01:00;CYWG 150100Z 01013G18KT 15SM FEW013 SCT059 BKN077 OVC210 18/14 A2990 RMK CU2SC2AC2CI1 SLP125

CYWG;2009-08-15 02:00;CYWG 150200Z 01013KT 15SM SCT057 BKN092 BKN210 18/10 A2990 RMK SC3AC2CI2 CB DIST S SLP127

CYWG;2009-08-15 03:00;CYWG 150300Z 02011KT 15SM BKN052 18/11 A2990 RMK SC6 SLP129

CYWG;2009-08-15 04:00;CYWG 150400Z 02010KT 15SM SCT052 17/11 A2988 RMK CF3 SLP120

CYWG;2009-08-15 05:00;CYWG 150500Z 03006KT 15SM FEW025 17/10 A2990 RMK CF2 SLP126

CYWG;2009-08-15 06:00;CYWG 150600Z 04009KT 15SM OVC009 18/10 A2988 RMK SF6 SLP119

CYWG;2009-08-15 06:28;CYWG 150628Z 04012G17KT 15SM OVC007 17/17 RMK SF6 DEW POINT CORRECTION FR PAST HOUR OBS

CYWG;2009-08-15 07:00;CYWG 150700Z 05008KT 15SM OVC006 18/16 A2987 RMK SF7 SLP115

CYWG;2009-08-15 08:00;CYWG 150800Z 04011KT 15SM OVC007 18/16 A2985 RMK SF8 SLP109

CYWG;2009-08-15 09:00;CYWG 150900Z 04011KT 15SM OVC008 17/17 A2982 RMK SF7 SLP100

CYWG;2009-08-15 10:00;CYWG 151000Z 05010KT 15SM OVC006 18/17 A2983 RMK SF7 SLP101

CYWG;2009-08-15 11:00;CYWG 151100Z 06011KT 15SM BKN007 OVC015 18/17 A2982 RMK SF7SC1 SLP098

CYWG;2009-08-15 11:39;CYWG 151139Z 07006KT 13SM -SHRA OVC007 18/ RMK SC8

CYWG;2009-08-15 12:00;CYWG 151200Z 05008KT 12SM -SHRA OVC007 18/17 A2981 RMK SF8 SLP095

CYWG;2009-08-15 13:00;CYWG 151300Z 10008KT 2SM TSRA BR OVC006 18/18 A2981 RMK SF8 CB EMBDD LTGIC S VIS E-SW 1/2 SLP095

CYWG;2009-08-15 13:05;CYWG 151305Z 09006KT 1SM R13/P6000FT/D R36/4500VP6000FT/D TSRA BR OVC005 18/ RMK SF8 LTGIC OVRHD CB EMBD

CYWG;2009-08-15 13:12;CYWG 151312Z 07006KT 2SM R36/4000VP6000FT/U TSRA BR SCT002 OVC004 18/ RMK SF3SF5 CB EMBD LTGIC OVRHD

CYWG;2009-08-15 13:20;CYWG 151320Z 01003KT 4SM -TSRA BR SCT002 OVC005 18/ RERA RMK SF3SF5 LTGIC NE CB EMBD

CYWG;2009-08-15 13:35;CYWG 151335Z 03012KT 3SM SHRA BR FEW002 OVC004 18/ RETS RMK SF2SF6 CB EMBD

CYWG;2009-08-15 14:00;CYWG 151400Z CCA 05009KT 4SM -SHRA BR FEW002 OVC004 18/18 A2978 RETSRA RMK SF2SF6 SLP086

CYWG;2009-08-15 15:00;CYWG 151500Z 09011KT 12SM -SHRA BKN004 OVC024 19/18 A2975 RMK SF6SC2 SLP076

CYWG;2009-08-15 16:00;CYWG 151600Z 10009KT 12SM -SHRA OVC005 19/18 A2974 RMK SF8 SLP073

CYWG;2009-08-15 16:50;CYWG 151650Z 08007KT 12SM -SHRA OVC004 20/ RMK SF8

CYWG;2009-08-15 17:00;CYWG 151700Z 09009KT 12SM -SHRA OVC004 20/19 A2973 RMK SF8 SLP068

CYWG;2009-08-15 18:00;CYWG 151800Z 03006KT 10SM -SHRA OVC004 20/19 A2970 RMK SF8 SLP059

CYWG;2009-08-15 18:26;CYWG 151826Z 03007KT 12SM -SHRA OVC006 20/ RMK SF8

CYWG;2009-08-15 19:00;CYWG 151900Z 04006KT 4SM -SHRA BR BKN005 OVC009 20/18 A2968 RMK SF6SF2 CIG RAG SLP052

CYWG;2009-08-15 19:11;CYWG 151911Z 04008KT 5SM -SHRA BR BKN006 OVC009 20/ RMK SF6SF2 CIG RAG

CYWG;2009-08-15 19:43;CYWG 151943Z 04005KT 5SM -SHRA BR BKN004 OVC009 20/ RMK SF5SF3 CIG RAG

CYWG;2009-08-15 20:00;CYWG 152000Z 05006KT 1 1/2SM R31/4000VP6000FT/D R36/3500VP6000FT/D -SHRA BR BKN002 OVC009 20/20 A2964 RMK SF7SF1 SLP040

CYWG;2009-08-15 20:24;CYWG 152024Z 10004KT 5SM -SHRA BR BKN003 OVC020 20/ RMK SF6SC2 VIS 21/2 NW-E

CYWG;2009-08-15 20:44;CYWG 152044Z 15003KT 12SM BKN005 OVC020 21/ RMK SF6SC2

CYWG;2009-08-15 21:00;CYWG 152100Z 23003KT 15SM -SHRA BKN005 BKN022 21/20 A2964 RMK SF6SC2 SLP036

CYWG;2009-08-15 21:27;CYWG 152127Z 28008KT 15SM BKN007 OVC022 21/ RMK SF6SC2

CYWG;2009-08-15 22:00;CYWG 152200Z 30006KT 15SM BKN007 OVC035 21/20 A2964 RMK SF6SC2 SLP036

CYWG;2009-08-15 23:00;CYWG 152300Z 29008KT 15SM BKN009 BKN035 BKN210 21/19 A2964 RMK SF5SC2CI1 SLP036

CYWG;2009-08-15 23:18;CYWG 152318Z 26005KT 15SM SCT008 BKN017 BKN068 BKN210 21/ RMK SF4SC2AC2CI1

CYWG;2009-08-16 00:00;CYWG 160000Z 27006KT 15SM FEW010 FEW068 BKN210 21/19 A2964 RMK SC2AC1CI1 SLP037

CYWG;2009-08-16 00:47;CYWG 160047Z 28006KT 15SM BKN012 BKN210 20/ RMK SC5CI1

CYWG;2009-08-16 01:00;CYWG 160100Z 27006KT 15SM SCT010 SCT100 20/19 A2964 RMK SC3AC1 TCU TOPS SE SLP038

CYWG;2009-08-16 02:00;CYWG 160200Z 28005KT 15SM FEW014 18/17 A2965 RMK SC2 SLP041

CYWG;2009-08-16 03:00;CYWG 160300Z 27004KT 15SM SCT020 18/18 A2967 RMK SC4 SLP047

CYWG;2009-08-16 04:00;CYWG 160400Z 28004KT 15SM SKC 16/16 A2967 RMK SLP047

CYWG;2009-08-16 05:00;CYWG 160500Z 28004KT 1/2SM R31/2800VP6000FT/D R36/3500VP6000FT/D FG SKC 15/15 A2965 RMK FG6 SLP043

CYWG;2009-08-16 05:18;CYWG 160518Z 28004KT 15SM OVC003 15/ RMK SF6

CYWG;2009-08-16 05:29;CYWG 160529Z 00000KT 15SM OVC002 16/ RMK SF8

CYWG;2009-08-16 05:34;CYWG 160534Z 34002KT 15SM OVC001 16/ RMK SF8

CYWG;2009-08-16 05:42;CYWG 160542Z 00000KT 1/2SM R31/P6000FT/N R36/4500VP6000FT/D FG VV001 16/ RMK FG8

CYWG;2009-08-16 05:50;CYWG 160550Z 00000KT 1/4SM R31/2600VP6000FT/D R36/2800FT/N FG VV001 16/ RMK FG8

CYWG;2009-08-16 06:00;CYWG 160600Z 32002KT 1/8SM R13/1400V1800FT/N R36/1200V1800FT/N FG VV001 16/16 A2968 RMK FG8 SLP051

CYWG;2009-08-16 06:39;CYWG 160639Z 00000KT 3/4SM R13/4000V5500FT/U R36/P6000FT/N BR OVC002 16/ RMK SF8

CYWG;2009-08-16 07:00;CYWG 160700Z 32002KT 3/4SM R13/3500VP6000FT/D R36/P6000FT/N BR OVC001 16/16 A2967 RMK SF8 SLP048

CYWG;2009-08-16 07:11;CYWG 160711Z 00000KT 1/2SM R13/3500FT/N R36/3000FT/N FG VV002 15/ RMK FG8

CYWG;2009-08-16 08:00;CYWG 160800Z 00000KT 1/2SM R13/1600FT/N R36/3000FT/N FG VV001 16/16 A2965 RMK FG8 SLP041

CYWG;2009-08-16 08:40;CYWG 160840Z 01002KT 1/4SM R13/1800FT/N R36/1800FT/N FG VV001 16/ RMK FG8

CYWG;2009-08-16 09:00;CYWG 160900Z 33002KT 1/4SM R13/1200V2000FT/U R36/1400FT/N FG VV001 15/15 A2964 RMK FG8 SLP040

CYWG;2009-08-16 09:23;CYWG 160923Z 00000KT 1/2SM R13/3500FT/N R36/5500FT/D FG VV001 14/ RMK FG8

CYWG;2009-08-16 10:00;CYWG 161000Z 00000KT 10SM OVC005 15/15 A2964 RMK SF8 CIG RAG SLP037

CYWG;2009-08-16 10:39;CYWG 161039Z 00000KT 10SM OVC009 16/ RMK ST8 CIG RAG

CYWG;2009-08-16 11:00;CYWG 161100Z 14002KT 15SM OVC009 16/16 A2964 RMK ST8 SLP039

CYWG;2009-08-16 12:00;CYWG 161200Z 21004KT 4SM BR BKN004 OVC009 17/17 A2965 RMK ST6SC2 SLP042

CYWG;2009-08-16 12:29;CYWG 161229Z 21007KT 1SM R13/P6000FT/N R36/P6000FT/D -DZ BR OVC008 17/ RMK FG3ST5

CYWG;2009-08-16 12:41;CYWG 161241Z 22004KT 3/4SM R13/P6000FT/N R36/P6000FT/D -DZ BR OVC002 RMK FG4ST4

CYWG;2009-08-16 13:00;CYWG 161300Z 23006KT 1 1/2SM BR OVC002 17/17 A2965 RMK FG4ST4 SLP042

CYWG;2009-08-16 13:19;CYWG 161319Z 25006KT 3/4SM R31/P6000FT/D R36/P6000FT/D BR OVC002 17/ RMK FG4ST4

CYWG;2009-08-16 14:00;CYWG 161400Z 26004KT 3SM BR OVC004 16/16 A2964 RMK ST8 SLP038

CYWG;2009-08-16 14:42;CYWG 161442Z 28007KT 2SM -DZ BR OVC003 17/ RMK FG4ST4

CYWG;2009-08-16 15:00;CYWG 161500Z 28008KT 1 1/2SM -DZ BR OVC004 17/17 A2962 RMK FG4ST4 SLP031

CYWG;2009-08-16 15:35;CYWG 161535Z 27007KT 3SM BR OVC004 17/ RMK ST8

CYWG;2009-08-16 16:00;CYWG 161600Z 27009KT 2SM BR OVC005 18/17 A2962 RMK ST8 SLP032

CYWG;2009-08-16 16:12;CYWG 161612Z 27010KT 1 1/2SM -DZ BR OVC004 17/ RMK FG4ST4

CYWG;2009-08-16 17:00;CYWG 161700Z 25009KT 6SM -DZ OVC005 17/17 A2962 RMK ST8 SLP033

CYWG;2009-08-16 17:08;CYWG 161708Z 27009KT 10SM -SHRA OVC006 17/ RMK SC8 CVCTV CLD EMBD

CYWG;2009-08-16 17:28;CYWG 161728Z 26007KT 12SM -SHRA FEW006 BKN010 OVC034 17/ RMK SC2SC3SC2 CVCTV CLD EMBD

CYWG;2009-08-16 17:40;CYWG 161740Z 26006KT 6SM -SHRA BR BKN008 OVC020 17/ RMK SC6SC2 CVCTV CLD EMBD

CYWG;2009-08-16 18:00;CYWG 161800Z 25010KT 10SM -SHRA BKN007 OVC078 17/17 A2963 RMK SC6AC2 CVCTV CLD EMBD BR SLP036

CYWG;2009-08-16 19:00;CYWG 161900Z 25008KT 6SM -SHRA BR SCT008 BKN015 OVC056 17/16 A2963 RMK SF3SC4SC1 SLP036

CYWG;2009-08-16 20:00;CYWG 162000Z 24005KT 15SM BKN006 BKN043 BKN094 17/17 A2964 RMK SF6SC1AC1 SLP039

CYWG;2009-08-16 20:48;CYWG 162048Z 26010G15KT 15SM SCT009 BKN031 BKN097 18/ RMK SF2SC2AC1

CYWG;2009-08-16 21:00;CYWG 162100Z 27008KT 15SM SCT009 SCT031 BKN097 19/17 A2964 RMK SF2SC2AC1 SLP039

CYWG;2009-08-16 22:00;CYWG 162200Z 27009KT 15SM FEW023 FEW100 21/16 A2964 RMK SC2AC1 SLP039

CYWG;2009-08-16 23:00;CYWG 162300Z 25014G19KT 15SM FEW038 FEW100 21/14 A2964 RMK SC2AC1 SLP039

CYWG;2009-08-17 00:00;CYWG 170000Z 25009KT 15SM FEW045 21/13 A2965 RMK CU1 SLP041

CYWG;2009-08-17 01:00;CYWG 170100Z 23011G16KT 15SM FEW045 18/12 A2967 RMK SC1 SLP047

CYWG;2009-08-17 02:00;CYWG 170200Z 23008KT 15SM FEW040 16/12 A2967 RMK SC1 SLP050

CYWG;2009-08-17 03:00;CYWG 170300Z 20007KT 15SM FEW040 16/12 A2968 RMK SC1 SLP053

CYWG;2009-08-17 04:00;CYWG 170400Z 20008KT 15SM FEW030 15/12 A2968 RMK SC1 SLP052

CYWG;2009-08-17 05:00;CYWG 170500Z 21008KT 15SM FEW040 15/12 A2967 RMK SC1 SLP051

CYWG;2009-08-17 06:00;CYWG 170600Z 20009KT 15SM SKC 14/12 A2967 RMK SLP049

CYWG;2009-08-17 07:00;CYWG 170700Z 21009KT 15SM SKC 13/12 A2967 RMK SLP049

CYWG;2009-08-17 08:00;CYWG 170800Z 22008KT 15SM SKC 12/12 A2966 RMK SLP048

CYWG;2009-08-17 09:00;CYWG 170900Z 23007KT 15SM SKC 12/12 A2966 RMK SLP048

CYWG;2009-08-17 10:00;CYWG 171000Z 22007KT 15SM SKC 12/11 A2967 RMK SLP051

CYWG;2009-08-17 11:00;CYWG 171100Z 23008KT 15SM FEW030 FEW250 11/11 A2968 RMK SC1CI1 CI TR SLP054

CYWG;2009-08-17 12:00;CYWG 171200Z 21009KT 15SM FEW026 FEW250 11/10 A2969 RMK SC1CI1 CI TR SLP058

CYWG;2009-08-17 13:00;CYWG 171300Z 22010KT 15SM FEW029 SCT250 12/10 A2969 RMK SC2CI1 SLP057

CYWG;2009-08-17 14:00;CYWG 171400Z 21011G16KT 15SM FEW015 BKN026 13/11 A2968 RMK SC1SC6 SLP054

CYWG;2009-08-17 15:00;CYWG 171500Z 22013KT 15SM BKN017 OVC030 14/11 A2968 RMK SC6SC2 CIG RAG SH W SLP053

CYWG;2009-08-17 16:00;CYWG 171600Z 20012G17KT 15SM OVC017 14/11 A2968 RMK SC8 CIG RAG SLP055

CYWG;2009-08-17 16:25;CYWG 171625Z CCA 19011KT 15SM -SHRA SCT008 OVC019 14/ RMK SF3SC5 CVCTV CLD EMBD

CYWG;2009-08-17 17:00;CYWG 171700Z 20011KT 15SM -SHRA BKN013 OVC039 14/12 A2968 RMK ST6SC2 CIG RAG SF ASOCTD CVCTV CLD EMBD SLP055

CYWG;2009-08-17 17:10;CYWG 171710Z 26006KT 12SM -SHRA BKN008 OVC039 13/ RMK ST6SC2 CIG RAG CVCTV CLD EMBD

CYWG;2009-08-17 18:00;CYWG 171800Z 24010KT 12SM -SHRA BKN009 OVC034 13/13 A2969 RMK ST6SC2 CIG RAG SF ASOCTD CVCTV CLD EMBD SLP059

CYWG;2009-08-17 19:00;CYWG 171900Z 25008KT 15SM -SHRA BKN008 OVC036 14/13 A2970 RMK ST6SC2 CIG RAG SLP062

CYWG;2009-08-17 20:00;CYWG 172000Z 25009KT 12SM -SHRA BKN009 OVC021 14/14 A2971 RMK ST6SC2 CIG RAG SLP064

CYWG;2009-08-17 20:28;CYWG 172028Z 24008KT 15SM BKN012 OVC020 15/ RMK ST6SC2

CYWG;2009-08-17 21:00;CYWG 172100Z 24009KT 15SM BKN014 OVC024 16/14 A2971 RMK SC5SC3 SLP065

CYWG;2009-08-17 22:00;CYWG 172200Z 27011KT 15SM FEW015 SCT045 BKN120 16/13 A2972 RMK SC2SC2AC2 SLP067

CYWG;2009-08-17 22:48;CYWG 172248Z 30012KT 12SM -SHRA BKN011 OVC043 15/ RMK SC6SC2

CYWG;2009-08-17 23:00;CYWG 172300Z 29015KT 6SM -SHRA BR FEW007 OVC011 14/14 A2973 RMK SF2SC6 SLP072

CYWG;2009-08-17 23:45;CYWG 172345Z 31011G16KT 15SM -SHRA FEW007 BKN021 BKN088 14/ RMK SF2SC3AC2

CYWG;2009-08-18 00:00;CYWG 180000Z 31014KT 15SM -SHRA FEW007 BKN021 BKN073 14/14 A2975 RMK SF2SC3AC1 SLP078

CYWG;2009-08-18 00:17;CYWG 180017Z 30012KT 15SM FEW007 SCT028 BKN096 15/ RMK SF2SC2AC2

CYWG;2009-08-18 01:00;CYWG 180100Z 30014KT 15SM FEW026 BKN041 BKN096 14/13 A2976 RMK SC2SC2AC1 SLP082

CYWG;2009-08-18 02:00;CYWG 180200Z 30012KT 15SM FEW026 FEW041 BKN076 13/12 A2978 RMK SC1SC2AC2 SLP089

CYWG;2009-08-18 03:00;CYWG 180300Z 30011KT 15SM FEW034 BKN050 13/12 A2980 RMK CF1SC6 SLP095

CYWG;2009-08-18 04:00;CYWG 180400Z 29011KT 15SM FEW030 OVC041 12/12 A2981 RMK SC2SC6 SLP098

CYWG;2009-08-18 05:00;CYWG 180500Z 29010KT 15SM OVC039 11/11 A2981 RMK SC8 SLP100

CYWG;2009-08-18 06:00;CYWG 180600Z 30008KT 15SM SCT023 11/10 A2983 RMK SC4 SLP105

CYWG;2009-08-18 07:00;CYWG 180700Z 28008KT 15SM OVC020 10/10 A2983 RMK SC8 SLP105

CYWG;2009-08-18 08:00;CYWG 180800Z 28011KT 15SM OVC018 11/11 A2983 RMK SC8 SLP105

CYWG;2009-08-18 08:05;CYWG 180805Z 28012KT 10SM OVC014 11/ RMK SC8

CYWG;2009-08-18 08:11;CYWG 180811Z 28013KT 6SM -DZ FEW010 OVC014 11/ RMK SF2SC6

CYWG;2009-08-18 09:00;CYWG 180900Z 29008KT 15SM OVC021 10/10 A2983 RMK SC8 SLP108

CYWG;2009-08-18 10:00;CYWG 181000Z 28008KT 15SM SCT027 10/10 A2983 RMK SC4 SLP107

CYWG;2009-08-18 11:00;CYWG 181100Z 28007KT 15SM SCT020 10/10 A2984 RMK SC2 SLP109

CYWG;2009-08-18 11:49;CYWG 181149Z 27007KT 15SM -DZ BKN020 10/ RMK SC5

CYWG;2009-08-18 12:00;CYWG 181200Z 27006KT 15SM -DZ BKN023 10/10 A2985 RMK SC5 SLP112

CYWG;2009-08-18 13:00;CYWG 181300Z 26007KT 7SM -DZ BKN021 10/10 A2986 RMK ST7 BR SLP115

CYWG;2009-08-18 13:16;CYWG 181316Z 26007KT 4SM -DZ BR SCT004 BKN019 11/ RMK ST3ST4

CYWG;2009-08-18 14:00;CYWG 181400Z 28006KT 10SM FEW004 BKN014 12/11 A2986 RMK ST2SC2 SLP117

CYWG;2009-08-18 15:00;CYWG 181500Z 28006KT 15SM FEW010 SCT023 BKN098 14/12 A2986 RMK SC2SC2AC1 SLP115

CYWG;2009-08-18 16:00;CYWG 181600Z 25008KT 15SM BKN016 BKN098 15/12 A2985 RMK SC6AC1 SLP114

CYWG;2009-08-18 17:00;CYWG 181700Z 26008KT 15SM BKN021 BKN098 16/12 A2984 RMK SC7AC1 SLP111

CYWG;2009-08-18 18:00;CYWG 181800Z 26008KT 15SM SCT025 18/12 A2983 RMK SC3 SLP104

CYWG;2009-08-18 19:00;CYWG 181900Z 28004KT 15SM FEW025 FEW250 19/13 A2981 RMK CU2CI0 SLP100

CYWG;2009-08-18 20:00;CYWG 182000Z 24010KT 15SM FEW028 SCT250 20/13 A2980 RMK CU2CI0 SLP094

CYWG;2009-08-18 21:00;CYWG 182100Z 26005KT 15SM FEW035 SCT250 21/13 A2978 RMK CU2CI0 SLP088

CYWG;2009-08-18 22:00;CYWG 182200Z 25006KT 15SM FEW036 BKN250 22/13 A2977 RMK CU1CI1 SLP084

CYWG;2009-08-18 23:00;CYWG 182300Z 19006KT 15SM FEW035 BKN250 22/13 A2975 RMK CU1CI2 SLP078

CYWG;2009-08-19 00:00;CYWG 190000Z 16006KT 15SM FEW083 BKN250 22/13 A2974 RMK AC1CI2 SLP072

CYWG;2009-08-19 01:00;CYWG 190100Z 14008KT 15SM FEW083 BKN250 20/13 A2971 RMK AC1CI1 SLP065

CYWG;2009-08-19 02:00;CYWG 190200Z 14007KT 15SM FEW089 SCT250 18/13 A2970 RMK AC2CI0 SLP060

CYWG;2009-08-19 03:00;CYWG 190300Z 14008KT 15SM SCT110 18/13 A2969 RMK AC4 SLP057

CYWG;2009-08-19 04:00;CYWG 190400Z 16009KT 15SM SCT110 17/13 A2968 RMK AC3 SLP055

CYWG;2009-08-19 05:00;CYWG 190500Z 16008KT 15SM FEW110 17/13 A2967 RMK AC2 SLP050

CYWG;2009-08-19 06:00;CYWG 190600Z 17010KT 15SM BKN110 18/13 A2964 RMK AC6 SLP040

CYWG;2009-08-19 07:00;CYWG 190700Z 18013KT 15SM OVC064 18/12 A2964 RMK SC8 SLP037

CYWG;2009-08-19 08:00;CYWG 190800Z 18010KT 15SM OVC080 16/13 A2962 RMK AC8 SLP033

CYWG;2009-08-19 09:00;CYWG 190900Z 17012KT 15SM OVC077 16/13 A2961 RMK AC8 SLP028

CYWG;2009-08-19 10:00;CYWG 191000Z 17012KT 15SM BKN080 16/13 A2959 RMK AC6 SLP021

CYWG;2009-08-19 11:00;CYWG 191100Z 18009KT 15SM BKN110 OVC150 15/13 A2958 RMK AC6AC2 SLP019

CYWG;2009-08-19 11:36;CYWG 191136Z 17009G15KT 15SM -SHRA BKN098 OVC150 15/ RMK AC6AC2

CYWG;2009-08-19 12:00;CYWG 191200Z 17009KT 15SM -SHRA BKN058 OVC098 15/13 A2958 RMK SC5AC3 SLP019

CYWG;2009-08-19 12:17;CYWG 191217Z 18011KT 12SM -TSRA BKN042 OVC094 15/ RMK SC6AC2 LGTIC SE CB EMBD

CYWG;2009-08-19 12:32;CYWG 191232Z 17012KT 15SM -SHRA BKN042 OVC092 15/ RETS RMK SC5AC3 CVCTV CLD EMBD

CYWG;2009-08-19 13:00;CYWG 191300Z 20010KT 15SM -SHRA SCT019 OVC076 15/14 A2960 RETS RMK SC4AC4 CVCTV CLD EMBD SLP023

CYWG;2009-08-19 14:00;CYWG 191400Z 23012KT 10SM -SHRA BKN016 OVC072 16/15 A2960 RMK SC6AC2 CVCTV CLD EMBD SLP023

CYWG;2009-08-19 14:35;CYWG 191435Z 24006KT 15SM -SHRA BKN011 OVC072 16/ RMK SC6AC2 CVCTV CLD EMBD

CYWG;2009-08-19 15:00;CYWG 191500Z 23010KT 15SM -SHRA SCT011 BKN043 OVC081 17/15 A2958 RMK SC4SC3AC1 CVCTV CLD EMBD SLP019

CYWG;2009-08-19 15:24;CYWG 191524Z 23008KT 15SM FEW011 BKN028 OVC051 17/ RMK SC2SC3SC2

CYWG;2009-08-19 15:42;CYWG 191542Z 19007KT 15SM -SHRA FEW028 BKN051 OVC082 17/ RMK SC2SC4AC2 CVCTV CLD EMBD

CYWG;2009-08-19 16:00;CYWG 191600Z 18007KT 15SM -SHRA FEW051 OVC082 17/16 A2958 RMK SC2AC6 CVCTV CLD EMBD SLP020

CYWG;2009-08-19 16:48;CYWG 191648Z 15002KT 15SM BKN080 18/ RMK AC7

CYWG;2009-08-19 17:00;CYWG 191700Z 15006KT 15SM FEW020 BKN080 19/17 A2957 RMK SC1AC6 SLP015

CYWG;2009-08-19 17:05;CYWG 191705Z 15008KT 15SM -SHRA FEW020 BKN080 19/ RMK SC1AC6

CYWG;2009-08-19 18:00;CYWG 191800Z 14010KT 15SM FEW006 FEW020 BKN090 BKN210 18/17 A2956 RMK SF1SC2AC4CI1 SLP011

CYWG;2009-08-19 19:00;CYWG 191900Z 17012KT 15SM BKN018 BKN250 21/11 A2956 RMK SC6CI1 SLP011

CYWG;2009-08-19 20:00;CYWG 192000Z 16007KT 15SM BKN027TCU BKN095 BKN250 21/12 A2955 RMK TCU5AC1CI0 LTNG W SLP009

CYWG;2009-08-19 20:29;CYWG 192029Z 15007KT 15SM -SHRA SCT027TCU BKN073 BKN250 21/ RMK TCU3AC2CI1

CYWG;2009-08-19 21:00;CYWG 192100Z CCA 16010KT 15SM -RA FEW007 BKN073 BKN250 19/14 A2954 RMK SF2AC5CI0 CVCTV CLD EMBD SLP003

CYWG;2009-08-19 21:26;CYWG 192126Z 15007KT 15SM BKN074 OVC087 20/ RMK AC6AC2 CVCTV CLD EMBD

CYWG;2009-08-19 22:00;CYWG 192200Z 00000KT 15SM SCT016 BKN042TCU OVC067 20/17 A2956 RMK SC3TCU2AC2 SLP011

CYWG;2009-08-19 22:43;CYWG 192243Z 25005KT 15SM -SHRA BKN020TCU OVC067 17/ RMK TCU5AC3

CYWG;2009-08-19 23:00;CYWG 192300Z 23004KT 15SM -SHRA FEW014 BKN058 OVC079 17/16 A2957 RMK SF2SC3AC2 CVCTV CLD EMBD SLP016

CYWG;2009-08-20 00:00;CYWG 200000Z 25002KT 15SM -SHRA FEW008 BKN079 OVC250 18/17 A2957 RMK SF2AC4CI2 CVCTV CLD EMBD SLP015

CYWG;2009-08-20 00:26;CYWG 200026Z 00000KT 15SM FEW006 BKN093 BKN250 18/ RMK SF1AC4CI0

CYWG;2009-08-20 01:00;CYWG 200100Z 10005KT 15SM BKN091 BKN250 18/16 A2957 RMK AC6CI0 SLP015

CYWG;2009-08-20 02:00;CYWG 200200Z 10003KT 15SM BKN070 BKN250 17/16 A2959 RMK AC6CI1 TCU ASOCTD SLP021

CYWG;2009-08-20 03:00;CYWG 200300Z 00000KT 15SM SCT070 BKN092 16/16 A2959 RMK AC3AC2 SLP022

CYWG;2009-08-20 04:00;CYWG 200400Z 34004KT 15SM BKN082 15/15 A2959 RMK AC6 SLP021

CYWG;2009-08-20 05:00;CYWG 200500Z 00000KT 15SM FEW007 BKN087 16/16 A2959 RMK SF2AC5 SLP023

CYWG;2009-08-20 06:00;CYWG 200600Z 34003KT 15SM BKN098 15/15 A2960 RMK AC5 SLP025

CYWG;2009-08-20 07:00;CYWG 200700Z 01006KT 15SM FEW023 SCT098 14/14 A2960 RMK SC1AC2 SLP025

CYWG;2009-08-20 08:00;CYWG 200800Z 34004KT 15SM FEW029 FEW073 13/13 A2960 RMK SC1AC2 SLP025

CYWG;2009-08-20 09:00;CYWG 200900Z 32008KT 15SM FEW028 SCT091 13/13 A2961 RMK SC2AC2 SLP028

CYWG;2009-08-20 10:00;CYWG 201000Z 31002KT 15SM FEW028 BKN088 14/14 A2961 RMK SC2AC3 SLP031

CYWG;2009-08-20 11:00;CYWG 201100Z 31005KT 15SM FEW028 SCT047 BKN230 13/13 A2963 RMK CU2SC2CI1 SLP035

CYWG;2009-08-20 11:43;CYWG 201143Z 33004KT 15SM BKN005 BKN034 14/ RMK SF4SC3

CYWG;2009-08-20 12:00;CYWG 201200Z 35005KT 15SM BKN004 OVC034 14/14 A2964 RMK SF6SC2 SLP040

CYWG;2009-08-20 12:22;CYWG 201222Z 34005KT 15SM BKN005 OVC034 14/ RMK SF6SC2

CYWG;2009-08-20 12:40;CYWG 201240Z 36006KT 4SM BR OVC004 15/ RMK SF8

CYWG;2009-08-20 12:45;CYWG 201245Z 02007KT 1SM R13/P6000FT/D R36/P6000FT/D BR OVC002 15/ RMK SF8

CYWG;2009-08-20 12:52;CYWG 201252Z 02009KT 1/2SM R13/3000VP6000FT/D R36/P6000FT/D FG VV001 15/ RMK FG8

CYWG;2009-08-20 13:00;CYWG 201300Z 02008KT 1/4SM R13/2000FT/N R36/2200FT/N FG VV001 15/15 A2966 RMK FG8 SLP046

CYWG;2009-08-20 13:27;CYWG 201327Z 05007KT 3/4SM R13/2600V4500FT/N R36/2600V4500FT/N BR VV001 16/ RMK FG8

CYWG;2009-08-20 13:34;CYWG 201334Z 06008KT 1SM R13/3000VP6000FT/U R36/4000VP6000FT/U BR OVC001 RMK SF8

CYWG;2009-08-20 13:53;CYWG 201353Z 05006KT 2 1/2SM BR OVC002 16/ RMK SF8

CYWG;2009-08-20 14:00;CYWG 201400Z 05005KT 4SM BR OVC002 16/16 A2967 RMK SF8 SLP051

CYWG;2009-08-20 14:24;CYWG 201424Z 03004KT 12SM BKN004 BKN027 16/ RMK SF5SC2

CYWG;2009-08-20 14:50;CYWG 201450Z 03006KT 15SM SCT006 BKN027 BKN070 17/ RMK SF4SC2AC1

CYWG;2009-08-20 15:00;CYWG 201500Z 01005KT 15SM BKN007 BKN027 18/16 A2969 RMK SF6SC2 SLP056

CYWG;2009-08-20 15:43;CYWG 201543Z 02006KT 15SM BKN010 OVC030 18/ RMK SC6SC2

CYWG;2009-08-20 16:00;CYWG 201600Z 02008KT 15SM BKN010 BKN030 19/16 A2970 RMK SC6SC1 TCU W SLP061

CYWG;2009-08-20 17:00;CYWG 201700Z 01008KT 15SM BKN017 BKN029 BKN250 20/16 A2972 RMK SC6SC1CI1 SLP065

CYWG;2009-08-20 18:00;CYWG 201800Z 01008KT 15SM BKN030 BKN067 BKN250 20/16 A2972 RMK SC6AC1CI1 SLP067

CYWG;2009-08-20 19:00;CYWG 201900Z 03009G15KT 15SM BKN031 BKN075 22/15 A2972 RMK SC6AC2 SLP066

CYWG;2009-08-20 20:00;CYWG 202000Z 05011KT 15SM BKN033 BKN077 BKN094 BKN240 22/16 A2973 RMK SC6AC1AC1CI1 SLP068

CYWG;2009-08-20 21:00;CYWG 202100Z 03011KT 15SM BKN033 BKN087 OVC240 21/16 A2972 RMK SC5AC2CI0 SLP067

CYWG;2009-08-20 22:00;CYWG 202200Z 32011KT 15SM BKN035 BKN083 OVC240 19/17 A2976 RMK SC6AC2CI0 SLP080

CYWG;2009-08-20 22:53;CYWG 202253Z 35011KT 15SM -SHRA FEW019 BKN032 BKN086 18/ RMK SC2SC3AC2

CYWG;2009-08-20 23:00;CYWG 202300Z 36010G15KT 15SM -SHRA SCT017 BKN032 BKN086 17/16 A2977 RMK SC3SC2AC2 SLP083

CYWG;2009-08-21 00:00;CYWG 210000Z 01009G16KT 3SM -SHRA BKN010 OVC035 17/17 A2980 RMK SC6SC2 SLP094

CYWG;2009-08-21 01:00;CYWG 210100Z 36012G19KT 10SM -SHRA BKN017 OVC027 17/16 A2982 RMK SC6SC2 SLP101

CYWG;2009-08-21 02:00;CYWG 210200Z 35014KT 10SM -SHRA OVC014 16/15 A2985 RMK SC8 SLP110

CYWG;2009-08-21 03:00;CYWG 210300Z 35012KT 10SM -SHRA OVC012 15/14 A2987 RMK SC8 SLP117

CYWG;2009-08-21 04:00;CYWG 210400Z 35013G20KT 10SM -SHRA OVC013 14/13 A2989 RMK SC8 SLP124

CYWG;2009-08-21 05:00;CYWG 210500Z 33010KT 15SM -SHRA OVC024 14/13 A2989 RMK SC8 SLP124

CYWG;2009-08-21 06:00;CYWG 210600Z 33011KT 15SM OVC019 14/13 A2990 RMK SC8 SLP129

CYWG;2009-08-21 06:15;CYWG 210615Z 34009KT 15SM -SHRA OVC019 14/ RMK SC8

CYWG;2009-08-21 07:00;CYWG 210700Z 34009KT 15SM -SHRA OVC019 14/13 A2991 RMK SC8 SLP130

CYWG;2009-08-21 07:25;CYWG 210725Z 33010KT 15SM OVC023 14/ RMK SC8

CYWG;2009-08-21 08:00;CYWG 210800Z 33008KT 15SM FEW016 BKN023 BKN033 14/07 A2992 RMK SC2SC2SC2 SLP133

CYWG;2009-08-21 09:00;CYWG 210900Z 33009KT 15SM SCT014 BKN029 BKN081 14/12 A2993 RMK SC4SC2AC1 SLP138

CYWG;2009-08-21 10:00;CYWG 211000Z 32007KT 15SM FEW016 BKN095 13/13 A2994 RMK SC2AC3 SLP142

CYWG;2009-08-21 10:36;CYWG 211036Z 34010KT 15SM BKN009 OVC045 14/ RMK ST6SC2

CYWG;2009-08-21 11:00;CYWG 211100Z 35009KT 15SM OVC009 14/13 A2996 RMK ST8 SLP146

CYWG;2009-08-21 12:00;CYWG 211200Z 35011KT 15SM OVC008 14/14 A2997 RMK ST8 SLP154

CYWG;2009-08-21 13:00;CYWG 211300Z 34013KT 15SM OVC009 14/14 A2999 RMK ST8 SLP160

CYWG;2009-08-21 14:00;CYWG 211400Z 34014KT 15SM OVC007 15/14 A3001 RMK ST8 SLP165

CYWG;2009-08-21 15:00;CYWG 211500Z 35014KT 15SM OVC007 15/14 A3002 RMK ST8 SLP169

CYWG;2009-08-21 16:00;CYWG 211600Z 35013KT 15SM OVC010 16/14 A3003 RMK SC8 SLP171

CYWG;2009-08-21 17:00;CYWG 211700Z 36011G16KT 15SM OVC010 16/13 A3005 RMK SC8 SLP178

CYWG;2009-08-21 18:00;CYWG 211800Z 35012KT 15SM OVC010 16/08 A3006 RMK SC8 SLP183

CYWG;2009-08-21 19:00;CYWG 211900Z 33010KT 15SM BKN012 17/14 A3006 RMK SC7 SLP184

CYWG;2009-08-21 20:00;CYWG 212000Z 02008KT 15SM BKN021 BKN090 19/14 A3006 RMK SC5AC1 SLP182

CYWG;2009-08-21 21:00;CYWG 212100Z 32009KT 15SM BKN028 19/12 A3006 RMK SC6 SLP183

CYWG;2009-08-21 22:00;CYWG 212200Z 35007KT 15SM BKN032 19/13 A3006 RMK SC6 SLP183

CYWG;2009-08-21 23:00;CYWG 212300Z 36007KT 15SM BKN043 20/12 A3006 RMK SC5 SLP182

CYWG;2009-08-22 00:00;CYWG 220000Z 03005KT 15SM FEW043 SCT270 18/13 A3006 RMK SC2CI0 SLP181

CYWG;2009-08-22 01:00;CYWG 220100Z 05005KT 15SM FEW070 BKN270 16/12 A3006 RMK AC1CI1 SLP182

CYWG;2009-08-22 02:00;CYWG 220200Z 29006KT 15SM FEW270 13/12 A3006 RMK CI1 SLP183

CYWG;2009-08-22 03:00;CYWG 220300Z 30004KT 15SM SKC 12/11 A3007 RMK SLP189

CYWG;2009-08-22 04:00;CYWG 220400Z 30005KT 15SM SKC 12/12 A3007 RMK SLP189

CYWG;2009-08-22 05:00;CYWG 220500Z 30002KT 15SM FEW270 11/11 A3008 RMK CI0 SLP190

CYWG;2009-08-22 06:00;CYWG 220600Z 30005KT 15SM SKC 10/10 A3009 RMK SLP195

CYWG;2009-08-22 07:00;CYWG 220700Z 28002KT 15SM MIFG SKC 08/08 A3010 RMK SLP197

CYWG;2009-08-22 08:00;CYWG 220800Z 00000KT 10SM R13/5500FT/N BCFG SKC 08/08 A3009 RMK SLP195

CYWG;2009-08-22 09:00;CYWG 220900Z 29002KT 15SM SKC 07/07 A3009 RMK SLP195

CYWG;2009-08-22 10:00;CYWG 221000Z 00000KT 15SM MIFG SKC 06/06 A3009 RMK SLP196

CYWG;2009-08-22 11:00;CYWG 221100Z 00000KT 15SM FEW100 07/07 A3009 RMK AC1 SLP196

CYWG;2009-08-22 12:00;CYWG 221200Z 18003KT 15SM MIFG FEW035 FEW100 08/08 A3009 RMK SC1AC1 SLP195

CYWG;2009-08-22 13:00;CYWG 221300Z 16003KT 15SM FEW035 FEW250 11/11 A3009 RMK SC1CI0 SLP194

CYWG;2009-08-22 14:00;CYWG 221400Z 17006KT 15SM FEW035 FEW080 SCT250 15/13 A3009 RMK SC1AC1CI1 SLP193

CYWG;2009-08-22 15:00;CYWG 221500Z 18008KT 15SM FEW035 SCT250 17/13 A3008 RMK SC1CI2 SLP190

CYWG;2009-08-22 16:00;CYWG 221600Z 18008KT 15SM FEW020 FEW035 SCT250 18/13 A3007 RMK CU1SC1CI1 SLP186

CYWG;2009-08-22 17:00;CYWG 221700Z 19010G15KT 15SM FEW031 SCT250 20/13 A3005 RMK CU2CI1 SLP181

CYWG;2009-08-22 18:00;CYWG 221800Z 19013KT 15SM SCT033 BKN250 20/13 A3003 RMK CU4CI1 SLP172

CYWG;2009-08-22 19:00;CYWG 221900Z 18012G17KT 15SM BKN035 20/13 A3003 RMK SC7 SLP172

CYWG;2009-08-22 20:00;CYWG 222000Z 18013KT 15SM BKN033 20/14 A3001 RMK SC7 SLP165

CYWG;2009-08-22 21:00;CYWG 222100Z 16016KT 15SM SCT037 BKN089 BKN250 21/14 A2996 RMK SC3AC2CI1 SLP148

CYWG;2009-08-22 22:00;CYWG 222200Z 17013KT 15SM SCT035 BKN090 BKN250 20/14 A2995 RMK SC4AC2CI0 SLP146

CYWG;2009-08-22 23:00;CYWG 222300Z 18016G21KT 15SM FEW040 SCT090 BKN250 20/14 A2993 RMK SC2AC2CI2 SLP141

CYWG;2009-08-23 00:00;CYWG 230000Z 16014KT 15SM FEW040 FEW072 BKN250 20/15 A2993 RMK SC1AC2CI2 SLP138

CYWG;2009-08-23 01:00;CYWG 230100Z 16010G15KT 15SM SCT090 BKN250 18/14 A2991 RMK AC3CI1 ACC ASOCTD OBS TAKEN +15 SLP134

CYWG;2009-08-23 01:43;CYWG 230143Z 16013KT 15SM TS BKN082CB 18/ RMK CB6

CYWG;2009-08-23 02:00;CYWG 230200Z 16012KT 15SM FEW035 BKN076CB 18/14 A2991 RMK SC2CB5 SLP132

CYWG;2009-08-23 03:00;CYWG 230300Z 17014G19KT 15SM FEW025 SCT076 18/14 A2990 RMK SC2AC2 SLP126

CYWG;2009-08-23 04:00;CYWG 230400Z 17014KT 15SM FEW020 17/14 A2988 RMK SC2 SLP122

CYWG;2009-08-23 05:00;CYWG 230500Z 18012G19KT 15SM FEW020 17/15 A2987 RMK SC2 SLP118

CYWG;2009-08-23 06:00;CYWG 230600Z 18015KT 15SM FEW020 17/15 A2986 RMK SC2 SLP113

CYWG;2009-08-23 07:00;CYWG 230700Z 18014KT 15SM SKC 17/15 A2985 RMK SLP110

CYWG;2009-08-23 08:00;CYWG 230800Z 18013KT 15SM SKC 16/15 A2984 RMK SLP106

CYWG;2009-08-23 09:00;CYWG 230900Z 19010KT 15SM SKC 16/15 A2984 RMK SLP106

CYWG;2009-08-23 10:00;CYWG 231000Z 20012KT 15SM SKC 16/15 A2983 RMK SLP102

CYWG;2009-08-23 11:00;CYWG 231100Z 20010KT 15SM SKC 15/15 A2983 RMK SLP103

CYWG;2009-08-23 12:00;CYWG 231200Z 22008KT 15SM FEW250 15/14 A2984 RMK CI1 SLP107

CYWG;2009-08-23 13:00;CYWG 231300Z 24007KT 15SM FEW250 16/15 A2986 RMK CI2 SLP112

CYWG;2009-08-23 14:00;CYWG 231400Z 29007KT 15SM FEW009 FEW250 18/16 A2986 RMK SF1CI1 SLP114

CYWG;2009-08-23 15:00;CYWG 231500Z 32006KT 15SM FEW012 FEW250 20/16 A2987 RMK CU1CI1 SLP115

CYWG;2009-08-23 16:00;CYWG 231600Z 29007KT 15SM FEW016 FEW250 21/17 A2987 RMK CU1CI0 SLP117

CYWG;2009-08-23 17:00;CYWG 231700Z 29008KT 15SM FEW250 22/14 A2988 RMK CI0 SLP119

CYWG;2009-08-23 18:00;CYWG 231800Z 30008KT 15SM FEW025 23/17 A2988 RMK CU1 SLP120

CYWG;2009-08-23 19:00;CYWG 231900Z 30008KT 15SM -RA FEW040 FEW250 24/11 A2988 RMK SC1CI0 SLP120

CYWG;2009-08-23 20:00;CYWG 232000Z 32008KT 15SM FEW040 FEW250 24/13 A2989 RMK SC1CI0 SLP121

CYWG;2009-08-23 21:00;CYWG 232100Z 35006KT 15SM FEW040 BKN250 25/11 A2987 RMK SC1CI1 SLP117

CYWG;2009-08-23 22:00;CYWG 232200Z 01005KT 15SM FEW080 BKN250 25/19 A2987 RMK AC1CI2 SLP117

CYWG;2009-08-23 23:00;CYWG 232300Z 01005KT 15SM FEW077 BKN250 25/16 A2988 RMK AC1CI2 SLP118

CYWG;2009-08-24 00:00;CYWG 240000Z 34004KT 15SM FEW090 BKN250 24/18 A2989 RMK AC2CI2 SLP122

CYWG;2009-08-24 01:00;CYWG 240100Z 06006KT 15SM FEW100 BKN250 22/16 A2988 RMK AC1CI2 SLP120

CYWG;2009-08-24 02:00;CYWG 240200Z 08008KT 15SM BKN250 20/16 A2987 RMK CI2 SLP118

CYWG;2009-08-24 03:00;CYWG 240300Z 08006KT 15SM SCT250 17/15 A2990 RMK CI2 SLP125

CYWG;2009-08-24 04:00;CYWG 240400Z 10006KT 15SM FEW120 SCT250 18/15 A2989 RMK AC2CI1 SLP124

CYWG;2009-08-24 05:00;CYWG 240500Z 10004KT 15SM SCT080 17/15 A2991 RMK AC3 SLP129

CYWG;2009-08-24 06:00;CYWG 240600Z 09006KT 15SM FEW080 FEW120 SCT250 15/14 A2989 RMK AC1AC2CI1 SLP123

CYWG;2009-08-24 07:00;CYWG 240700Z 09009KT 15SM BKN120 17/15 A2985 RMK AC6 SLP111

CYWG;2009-08-24 08:00;CYWG 240800Z 11005KT 15SM OVC120 18/16 A2984 RMK AC8 SLP108

CYWG;2009-08-24 09:00;CYWG 240900Z 11007KT 15SM FEW036 OVC120 18/16 A2984 RMK SC2AC6 SLP106

CYWG;2009-08-24 10:00;CYWG 241000Z 09008KT 15SM FEW030 OVC095 18/16 A2983 RMK SC2AC6 SLP100

CYWG;2009-08-24 10:21;CYWG 241021Z 09009KT 15SM -SHRA FEW034 OVC095 17/ RMK SC2AC6

CYWG;2009-08-24 11:00;CYWG 241100Z 08011KT 15SM -SHRA BKN029 BKN095 18/16 A2979 RMK SC5AC2 SLP089

CYWG;2009-08-24 12:00;CYWG 241200Z 11008KT 15SM -SHRA BKN017 OVC095 17/16 A2977 RMK SC6AC2 PRES UNSTDY SLP080

CYWG;2009-08-24 12:09;CYWG 241209Z 09009KT 15SM -TSRA BKN017 OVC067CB 17/ RMK SC6CB2 PRES UNSTDY

CYWG;2009-08-24 12:23;CYWG 241223Z 09013KT 15SM -TSRA BKN017 OVC067CB 17/ RMK SC6CB2 PRES UNSTDY LTGIC W

CYWG;2009-08-24 13:00;CYWG 241300Z 13005KT 15SM -TSRA FEW008 OVC017CB 18/14 A2976 RMK SF2CB6 PRES UNSTDY LTGIC W-N SLP077

CYWG;2009-08-24 13:09;CYWG 241309Z 10023KT 1SM R13/P6000FT/D R36/4000VP6000FT/D -TSRA OVC007 17/ RMK SF8 PRESFR LTG OVRHD CB EMBDD

CYWG;2009-08-24 13:20;CYWG 241320Z 11026G32KT 2SM -TSRA SCT002 OVC017CB 17/ RMK SF3CB5 PRESFR LTG OVRHD

CYWG;2009-08-24 13:31;CYWG 241331Z 11019G32KT 3SM -TSRA SCT003 OVC046CB 17/ RMK SF4CB4 PRESFR LTG OVRHD

CYWG;2009-08-24 14:00;CYWG 241400Z 14014G20KT 10SM BKN007 OVC039 19/17 A2964 RMK SF5SC3 PRESRR BR SLP040

CYWG;2009-08-24 15:00;CYWG 241500Z 16010G15KT 12SM FEW010 BKN048 BKN095 20/19 A2961 RMK SF2SC3AC2 BR SLP028

CYWG;2009-08-24 16:00;CYWG 241600Z 19008KT 15SM BKN018 OVC095 21/19 A2966 RMK SC6AC2 SLP044

CYWG;2009-08-24 17:00;CYWG 241700Z 22004KT 15SM BKN016 OVC100 21/19 A2965 RMK SC6AC2 SLP040

CYWG;2009-08-24 17:47;CYWG 241747Z 18006KT 15SM OVC014 21/ RMK SC8

CYWG;2009-08-24 18:00;CYWG 241800Z 20006KT 15SM BKN014 OVC100 21/19 A2964 RMK SC7AC1 SLP039

CYWG;2009-08-24 19:00;CYWG 241900Z 24003KT 15SM OVC014 21/19 A2964 RMK SC8 SLP040

CYWG;2009-08-24 19:21;CYWG 241921Z 35006KT 15SM BKN010 OVC024 20/ RMK SC5SC3

CYWG;2009-08-24 20:00;CYWG 242000Z 03002KT 15SM BKN015 OVC032 20/19 A2965 RMK SC6SC2 SLP043

CYWG;2009-08-24 20:48;CYWG 242048Z 31014KT 15SM SCT004 BKN014 OVC032 19/ RMK SF3SC2SC3

CYWG;2009-08-24 20:54;CYWG 242054Z 32014KT 12SM -DZ SCT004 OVC014 19/ RMK SF4SC4

CYWG;2009-08-24 21:00;CYWG 242100Z 32014KT 8SM -DZ SCT003 OVC014 18/18 A2967 RMK SF4SC4 VSBY LWR NE-E SLP049

CYWG;2009-08-24 21:20;CYWG 242120Z 32014KT 8SM -DZ OVC004 18/ RMK SF8 VSBY LWR NE-E

CYWG;2009-08-24 22:00;CYWG 242200Z 33015KT 10SM OVC006 18/16 A2971 RMK SF8 SLP062

CYWG;2009-08-24 23:00;CYWG 242300Z 33018G25KT 12SM OVC008 16/14 A2974 RMK SC8 SLP071

CYWG;2009-08-24 23:41;CYWG 242341Z 33016KT 12SM OVC010 17/ RMK SC8

CYWG;2009-08-25 00:00;CYWG 250000Z 33013G19KT 15SM OVC010 16/15 A2976 RMK SC8 SLP081

CYWG;2009-08-25 01:00;CYWG 250100Z 32012G19KT 15SM BKN012 17/15 A2978 RMK SC7 SLP087

CYWG;2009-08-25 01:44;CYWG 250144Z 33015KT 15SM BKN018 16/ RMK SC7

CYWG;2009-08-25 02:00;CYWG 250200Z 33014KT 15SM BKN018 16/14 A2981 RMK SC7 SLP096

CYWG;2009-08-25 03:00;CYWG 250300Z 33011KT 15SM BKN017 BKN025 16/11 A2983 RMK SC6SC2 SLP103

CYWG;2009-08-25 04:00;CYWG 250400Z 31006KT 15SM BKN019 15/14 A2985 RMK SC6 SLP111

CYWG;2009-08-25 05:00;CYWG 250500Z 30008KT 15SM FEW020 13/13 A2987 RMK SC1 SLP118

CYWG;2009-08-25 06:00;CYWG 250600Z 28006KT 15SM FEW020 12/12 A2989 RMK SC2 SLP125

CYWG;2009-08-25 07:00;CYWG 250700Z 28006KT 15SM FEW030 11/11 A2990 RMK SC1 SLP128

CYWG;2009-08-25 08:00;CYWG 250800Z 27005KT 15SM FEW030 12/12 A2990 RMK SC1 SLP129

CYWG;2009-08-25 09:00;CYWG 250900Z 26005KT 12SM FEW059 12/12 A2992 RMK SC2 BR SLP134

CYWG;2009-08-25 09:40;CYWG 250940Z 26006KT 10SM R13/2600V4000FT/D FEW006 FEW056 12/ RMK ST1SC1 VIS W 1

CYWG;2009-08-25 09:46;CYWG 250946Z 26007KT 1/2SM R31/4000VP6000FT/D R36/P6000FT/N FG VV001 12/ RMK FG8

CYWG;2009-08-25 10:00;CYWG 251000Z 26006KT 3/8SM R31/2400FT/N R36/P6000FT/N FG VV001 12/12 A2992 RMK FG8 SLP136

CYWG;2009-08-25 10:07;CYWG 251007Z 26005KT 1/2SM R31/2600V5500FT/U R36/P6000FT/N FG SKC 12/ RMK FG6

CYWG;2009-08-25 10:27;CYWG 251027Z 25006KT 3/8SM R31/3500V5500FT/D R36/P6000FT/N FG SKC 12/ RMK FG7

CYWG;2009-08-25 10:50;CYWG 251050Z 25006KT 1/4SM R31/3000FT/N R36/3500V5000FT/U FG SKC 12/ RMK FG7

CYWG;2009-08-25 11:00;CYWG 251100Z 25005KT 1/4SM R31/3000FT/N R36/5000FT/N FG VV001 12/12 A2993 RMK FG8 SLP140

CYWG;2009-08-25 11:32;CYWG 251132Z 24006KT 9SM R31/4000VP6000FT/U SKC 12/ RMK FG3 VIS NE-SE 1

CYWG;2009-08-25 12:00;CYWG 251200Z 23005KT 10SM FEW002 12/12 A2994 RMK SF2 BR SLP144

CYWG;2009-08-25 13:00;CYWG 251300Z 27007KT 15SM SKC 13/13 A2995 RMK SLP146

CYWG;2009-08-25 14:00;CYWG 251400Z 27008KT 15SM SKC 16/14 A2995 RMK SLP147

CYWG;2009-08-25 15:00;CYWG 251500Z 28009KT 15SM SKC 18/15 A2996 RMK SLP149

CYWG;2009-08-25 16:00;CYWG 251600Z 28011KT 15SM SKC 20/15 A2998 RMK SLP154

CYWG;2009-08-25 17:00;CYWG 251700Z 27010KT 15SM SKC 22/15 A2998 RMK SLP156

CYWG;2009-08-25 18:00;CYWG 251800Z 29012KT 15SM FEW030 23/12 A2998 RMK CU1 SLP155

CYWG;2009-08-25 19:00;CYWG 251900Z 31012G17KT 15SM FEW050 23/11 A2999 RMK CF1 SLP158

CYWG;2009-08-25 20:00;CYWG 252000Z 30014KT 15SM FEW055 24/12 A3000 RMK CF2 SLP160

CYWG;2009-08-25 21:00;CYWG 252100Z 31013KT 15SM FEW055 24/11 A2999 RMK CF2 SLP159

CYWG;2009-08-25 22:00;CYWG 252200Z 32008KT 15SM FEW050 25/12 A3000 RMK CF1 SLP160

CYWG;2009-08-25 23:00;CYWG 252300Z 28005KT 15SM FEW045 24/13 A3000 RMK CF1 SLP160

CYWG;2009-08-26 00:00;CYWG 260000Z 00000KT 15SM SKC 24/14 A2999 RMK SLP159

CYWG;2009-08-26 01:00;CYWG 260100Z 24002KT 15SM SKC 21/14 A2999 RMK SLP158

CYWG;2009-08-26 02:00;CYWG 260200Z 19004KT 15SM FEW120 19/13 A3000 RMK AC1 SLP162

CYWG;2009-08-26 03:00;CYWG 260300Z 20007KT 15SM SKC 17/14 A3002 RMK SLP169

CYWG;2009-08-26 04:00;CYWG 260400Z 20009KT 15SM SKC 18/13 A3003 RMK SLP170

CYWG;2009-08-26 05:00;CYWG 260500Z 20009KT 15SM SKC 17/12 A3003 RMK SLP170

CYWG;2009-08-26 06:00;CYWG 260600Z 20009KT 15SM FEW090 17/12 A3003 RMK AC1 SLP170

CYWG;2009-08-26 07:00;CYWG 260700Z 20011G16KT 15SM FEW090 17/11 A3003 RMK AC2 SLP172

CYWG;2009-08-26 08:00;CYWG 260800Z 19008KT 15SM FEW090 15/11 A3004 RMK AC2 SLP173

CYWG;2009-08-26 09:00;CYWG 260900Z 19008KT 15SM FEW090 15/11 A3004 RMK AC2 SLP174

CYWG;2009-08-26 10:00;CYWG 261000Z 18006KT 15SM FEW090 13/11 A3005 RMK AC1 SLP177

CYWG;2009-08-26 11:00;CYWG 261100Z 18002KT 15SM FEW079 11/10 A3006 RMK AC1 SLP182

CYWG;2009-08-26 12:00;CYWG 261200Z 15004KT 15SM FEW080 12/11 A3007 RMK AC2 SLP186

CYWG;2009-08-26 13:00;CYWG 261300Z 17004KT 15SM SKC 14/12 A3008 RMK SLP188

CYWG;2009-08-26 14:00;CYWG 261400Z 18006KT 15SM SKC 17/12 A3008 RMK SLP188

CYWG;2009-08-26 15:00;CYWG 261500Z 18008KT 15SM SKC 19/14 A3008 RMK SLP188

CYWG;2009-08-26 16:00;CYWG 261600Z 17006KT 15SM FEW270 21/15 A3008 RMK CI1 SLP188

CYWG;2009-08-26 17:00;CYWG 261700Z 19006KT 15SM FEW270 23/16 A3008 RMK CI1 SLP189

CYWG;2009-08-26 18:00;CYWG 261800Z 21009KT 15SM SCT270 24/13 A3007 RMK CI1 SLP184

CYWG;2009-08-26 19:00;CYWG 261900Z 16012KT 15SM FEW290 26/19 A3005 RMK CI0 SLP176

CYWG;2009-08-26 20:00;CYWG 262000Z 19010G16KT 15SM SKC 28/19 A3003 RMK SLP172

CYWG;2009-08-26 21:00;CYWG 262100Z 19014G20KT 15SM FEW040 28/18 A3002 RMK CU1 SLP167

CYWG;2009-08-26 22:00;CYWG 262200Z 19015KT 15SM FEW050 28/18 A3001 RMK CU1 SLP164

CYWG;2009-08-26 23:00;CYWG 262300Z 19014KT 15SM FEW290 27/17 A3001 RMK CI1 SLP162

CYWG;2009-08-27 00:00;CYWG 270000Z 19016KT 15SM FEW250 26/16 A3000 RMK CI1 SLP161

CYWG;2009-08-27 01:00;CYWG 270100Z 18012KT 15SM FEW070 FEW250 24/16 A2999 RMK AC2CI1 SLP159

CYWG;2009-08-27 02:00;CYWG 270200Z 19014KT 15SM SCT070 23/15 A3000 RMK AC3 SLP160

CYWG;2009-08-27 03:00;CYWG 270300Z 19015KT 15SM FEW070 22/15 A2999 RMK AC1 SLP158

CYWG;2009-08-27 04:00;CYWG 270400Z 19020G29KT 15SM FEW130 21/12 A2995 RMK AC2 PRESFR SLP144

CYWG;2009-08-27 05:00;CYWG 270500Z 20017KT 15SM BKN130 21/14 A2996 RMK AC4 SLP146

CYWG;2009-08-27 06:00;CYWG 270600Z 20017KT 15SM SCT130 BKN240 20/14 A2995 RMK AC4CI1 SLP143

CYWG;2009-08-27 07:00;CYWG 270700Z 20014G20KT 15SM BKN076 BKN240 20/14 A2995 RMK AC6CI0 SLP143

CYWG;2009-08-27 08:00;CYWG 270800Z 32009G17KT 15SM SCT075 BKN240 17/14 A2999 RMK AC3CI1 LTGIC SE PRESRR SLP156

CYWG;2009-08-27 09:00;CYWG 270900Z 17008KT 15SM FEW093 FEW240 16/14 A2997 RMK AC1CI0 SLP150

CYWG;2009-08-27 10:00;CYWG 271000Z 19008KT 15SM FEW076 17/14 A2997 RMK AC1 SLP149

CYWG;2009-08-27 11:00;CYWG 271100Z 20008KT 15SM SCT076 BKN240 18/15 A2997 RMK AC2CI2 ACC EMBDD LWR LYR SLP150

CYWG;2009-08-27 12:00;CYWG 271200Z 23011KT 15SM VCSH FEW012 BKN097 BKN250 18/15 A2997 RMK ST1AC4CI1 CVCTV CLD EMBDD SHWRS SW SLP149

CYWG;2009-08-27 12:24;CYWG 271224Z 28005KT 15SM VCSH FEW012 BKN096 BKN250 17/ RMK ST1AC5CI1 INTMT -RW SHWRS S QUAD

CYWG;2009-08-27 13:00;CYWG 271300Z 28008KT 15SM SCT003 BKN080 OVC250 17/17 A2998 RMK ST4AC3CI1 SLP152

CYWG;2009-08-27 13:12;CYWG 271312Z 27007KT 15SM BKN003 OVC080 17/ RMK ST7AC1 VIS NW 8 BR

CYWG;2009-08-27 13:21;CYWG 271321Z 28008KT 10SM BKN002 OVC080 17/ RMK ST7AC1 BR

CYWG;2009-08-27 13:48;CYWG 271348Z 29006KT 10SM OVC004 18/ RMK ST8

CYWG;2009-08-27 14:00;CYWG 271400Z 31007KT 10SM OVC004 18/17 A2998 RMK ST8 BR SLP153

CYWG;2009-08-27 15:00;CYWG 271500Z 36010G16KT 10SM OVC003 18/14 A2999 RMK ST8 BR SLP158

CYWG;2009-08-27 15:27;CYWG 271527Z 36009KT 10SM OVC006 18/ RMK ST7

CYWG;2009-08-27 15:56;CYWG 271556Z 02008KT 10SM OVC010 19/ RMK ST7

CYWG;2009-08-27 16:00;CYWG 271600Z 02010KT 15SM OVC010 19/15 A3001 RMK ST7 SLP164

CYWG;2009-08-27 16:25;CYWG 271625Z 01011KT 15SM OVC009 18/ RMK SC7

CYWG;2009-08-27 17:00;CYWG 271700Z 01013KT 15SM OVC008 18/14 A3003 RMK SC8 SLP171

CYWG;2009-08-27 17:26;CYWG 271726Z 02011KT 15SM OVC012 18/ RMK SC8

CYWG;2009-08-27 18:00;CYWG 271800Z 01012KT 15SM OVC012 18/16 A3005 RMK SC8 OBS TAKEN +07 SLP178

CYWG;2009-08-27 19:00;CYWG 271900Z 01014KT 15SM OVC012 18/15 A3006 RMK SC8 SLP182

CYWG;2009-08-27 20:00;CYWG 272000Z 01017KT 15SM OVC009 18/15 A3007 RMK SF8 SLP185

CYWG;2009-08-27 20:16;CYWG 272016Z 01013G19KT 15SM OVC010 18/ RMK SF8

CYWG;2009-08-27 20:42;CYWG 272042Z 01011KT 15SM OVC009 18/ RMK SF8

CYWG;2009-08-27 21:00;CYWG 272100Z 01011KT 15SM OVC009 18/12 A3008 RMK SF8 SLP189

CYWG;2009-08-27 21:34;CYWG 272134Z 36013KT 15SM OVC010 18/ RMK SF8

CYWG;2009-08-27 22:00;CYWG 272200Z 01012G17KT 15SM OVC010 18/11 A3009 RMK SF8 SLP192

CYWG;2009-08-27 23:00;CYWG 272300Z 01013KT 15SM OVC012 18/12 A3010 RMK SF8 SLP195

CYWG;2009-08-28 00:00;CYWG 280000Z 01010G16KT 15SM OVC014 17/15 A3011 RMK SC8 SLP200

CYWG;2009-08-28 01:00;CYWG 280100Z 01016KT 15SM OVC014 17/10 A3013 RMK SC8 SLP205

CYWG;2009-08-28 02:00;CYWG 280200Z 01010KT 15SM OVC018 16/14 A3015 RMK SC8 SLP211

CYWG;2009-08-28 03:00;CYWG 280300Z 36009KT 15SM OVC019 16/11 A3016 RMK SC8 SLP218

CYWG;2009-08-28 04:00;CYWG 280400Z 36010KT 15SM OVC018 OVC030 16/03 A3017 RMK SC7SC1 SLP221

CYWG;2009-08-28 05:00;CYWG 280500Z 36009KT 15SM OVC017 16/12 A3017 RMK SC8 SLP220

CYWG;2009-08-28 06:00;CYWG 280600Z 36008KT 15SM OVC017 15/13 A3017 RMK SC8 SLP220

CYWG;2009-08-28 07:00;CYWG 280700Z 34007KT 15SM BKN015 OVC030 15/13 A3018 RMK SC6SC2 SLP223

CYWG;2009-08-28 08:00;CYWG 280800Z 36007KT 15SM BKN013 OVC030 15/13 A3017 RMK SF6SC2 SLP219

CYWG;2009-08-28 09:00;CYWG 280900Z 01006KT 15SM BKN015 OVC030 14/13 A3017 RMK SF6SC2 SLP220

CYWG;2009-08-28 10:00;CYWG 281000Z 01008KT 15SM OVC012 14/13 A3018 RMK SF8 SLP224

CYWG;2009-08-28 10:51;CYWG 281051Z 36006KT 15SM BKN009 OVC021 RMK ST6SC2 SF ASOCTD CIG RAG

CYWG;2009-08-28 11:00;CYWG 281100Z 01007KT 15SM BKN009 OVC021 14/13 A3019 RMK ST6SC2 SF ASOCTD CIG RAG SLP227

CYWG;2009-08-28 11:19;CYWG 281119Z 04009KT 15SM -DZ BKN009 OVC021 14/ RMK ST6SC2 SF ASOCTD CIG RAG

CYWG;2009-08-28 11:46;CYWG 281146Z 03007KT 15SM SCT009 OVC015 14/ RMK SF2SC6

CYWG;2009-08-28 12:00;CYWG 281200Z 02005KT 15SM SCT009 OVC019 13/11 A3020 RMK SF2SC6 SLP231

CYWG;2009-08-28 13:00;CYWG 281300Z 05005KT 15SM FEW010 BKN023 14/12 A3021 RMK SF1SC6 SLP233

CYWG;2009-08-28 14:00;CYWG 281400Z 01009KT 15SM BKN018 15/12 A3021 RMK SC6 CU ASOCTD SLP234

CYWG;2009-08-28 15:00;CYWG 281500Z 04010KT 15SM BKN021 16/13 A3021 RMK SC5 CU ASOCTD SLP233

CYWG;2009-08-28 16:00;CYWG 281600Z 36011KT 15SM SCT022 17/13 A3022 RMK SC4 CU ASOCTD SLP235

CYWG;2009-08-28 17:00;CYWG 281700Z 01013G18KT 15SM FEW030 18/12 A3022 RMK SC2 CU ASOCTD SLP235

CYWG;2009-08-28 18:00;CYWG 281800Z 04012G17KT 15SM FEW039 FEW250 18/11 A3021 RMK SC2CI1 CU ASOCTD SLP233

CYWG;2009-08-28 19:00;CYWG 281900Z 01011KT 15SM FEW039 19/10 A3020 RMK SC2 SLP230

CYWG;2009-08-28 20:00;CYWG 282000Z 03009KT 15SM FEW046 19/09 A3019 RMK CU2 SLP227

CYWG;2009-08-28 21:00;CYWG 282100Z 36008G15KT 15SM SCT044 19/08 A3018 RMK CU3 SLP224

CYWG;2009-08-28 22:00;CYWG 282200Z 36008KT 15SM FEW044 20/12 A3017 RMK CU2 SLP221

CYWG;2009-08-28 23:00;CYWG 282300Z 34006KT 15SM FEW042 20/12 A3017 RMK CU2 SLP219

CYWG;2009-08-29 00:00;CYWG 290000Z 34004KT 15SM FEW040 19/13 A3016 RMK CU1 SLP216

CYWG;2009-08-29 01:00;CYWG 290100Z 30004KT 15SM FEW040 16/14 A3015 RMK CU1 CU TR SLP213

CYWG;2009-08-29 02:00;CYWG 290200Z 32004KT 15SM SKC 14/12 A3015 RMK SLP213

CYWG;2009-08-29 03:00;CYWG 290300Z 29002KT 15SM FEW040 13/12 A3015 RMK SC1 SLP213

CYWG;2009-08-29 04:00;CYWG 290400Z 22002KT 15SM FEW040 FEW090 11/10 A3014 RMK SC1AC1 SLP212

CYWG;2009-08-29 05:00;CYWG 290500Z 23002KT 15SM SCT083 12/12 A3013 RMK AC3 SLP208

CYWG;2009-08-29 06:00;CYWG 290600Z 23004KT 15SM BKN073 13/12 A3011 RMK AC5 LTNG DIST NW SLP201

CYWG;2009-08-29 06:43;CYWG 290643Z 28006KT 10SM -SHRA SCT027 BKN090 13/ RMK SC3AC3 ACC EMBD

CYWG;2009-08-29 07:00;CYWG 290700Z 30017KT 10SM -SHRA BKN027 OVC090 13/12 A3014 RMK SC6AC2 ACC EMBDD SLP209

CYWG;2009-08-29 08:00;CYWG 290800Z 36003KT 10SM -SHRA SCT011 BKN025 OVC090 13/13 A3013 RMK SF3SC2AC2 ACC EMBD RERA SLP207

CYWG;2009-08-29 08:18;CYWG 290818Z 02006KT 8SM -SHRA OVC008 13/ RMK SF8

CYWG;2009-08-29 08:46;CYWG 290846Z 10007KT 15SM -SHRA FEW008 BKN058 BKN090 13/ RMK SF2SC2AC2

CYWG;2009-08-29 09:00;CYWG 290900Z 09011KT 15SM FEW008 BKN050 BKN090 13/13 A3013 RMK SF1SC4AC2 SLP207

CYWG;2009-08-29 10:00;CYWG 291000Z 11002KT 15SM SCT052 BKN090 12/12 A3013 RMK SC4AC2 SLP208

CYWG;2009-08-29 11:00;CYWG 291100Z 36006KT 15SM FEW067 09/09 A3016 RMK AC2 SLP216

CYWG;2009-08-29 12:00;CYWG 291200Z 01005KT 15SM R13/3500V6000FT/D FEW003 FEW072 10/10 A3018 RMK SF1AC1 SLP224

CYWG;2009-08-29 13:00;CYWG 291300Z 03002KT 8SM FEW003 FEW070 12/12 A3019 RMK SF1AC1 SLP227

CYWG;2009-08-29 14:00;CYWG 291400Z 04006KT 15SM SCT003 SCT090 13/13 A3021 RMK SF3AC1 SLP233

CYWG;2009-08-29 15:00;CYWG 291500Z 04008KT 12SM SCT011 16/14 A3022 RMK CU4 SLP237

CYWG;2009-08-29 16:00;CYWG 291600Z 12010KT 15SM FEW020 17/10 A3022 RMK CU1 OBS TAKEN +10 SLP240

CYWG;2009-08-29 17:00;CYWG 291700Z 05007KT 15SM FEW035 17/09 A3023 RMK CU1 SLP242

CYWG;2009-08-29 18:00;CYWG 291800Z 07006KT 15SM FEW035 19/09 A3023 RMK CF1 SLP241

CYWG;2009-08-29 19:00;CYWG 291900Z 06006KT 15SM FEW040 FEW250 18/09 A3023 RMK CU1CI1 SLP240

CYWG;2009-08-29 20:00;CYWG 292000Z 07009G18KT 15SM FEW040 FEW250 19/09 A3022 RMK CU1CI0 SLP238

CYWG;2009-08-29 21:00;CYWG 292100Z 03007KT 15SM FEW040 BKN250 19/08 A3022 RMK CU1CI0 SLP239

CYWG;2009-08-29 22:00;CYWG 292200Z 04007KT 15SM FEW040 BKN250 19/08 A3022 RMK CU1CI1 SLP239

CYWG;2009-08-29 23:00;CYWG 292300Z 36004KT 15SM FEW040 BKN250 19/07 A3022 RMK CU1CI1 SLP239

CYWG;2009-08-30 00:00;CYWG 300000Z 01007KT 15SM BKN250 17/10 A3023 RMK CI1 SLP242

CYWG;2009-08-30 01:00;CYWG 300100Z 36005KT 15SM SCT250 14/11 A3022 RMK CI1 SLP240

CYWG;2009-08-30 02:00;CYWG 300200Z 03005KT 15SM SCT250 12/09 A3023 RMK CI1 SLP242

CYWG;2009-08-30 03:00;CYWG 300300Z 00000KT 15SM FEW075 10/09 A3024 RMK AC1 SLP245

CYWG;2009-08-30 04:00;CYWG 300400Z 00000KT 15SM SKC 08/08 A3023 RMK SLP244

CYWG;2009-08-30 05:00;CYWG 300500Z 00000KT 15SM SKC 08/08 A3023 RMK SLP244

CYWG;2009-08-30 06:00;CYWG 300600Z 30003KT 15SM SKC 07/07 A3024 RMK SLP247

CYWG;2009-08-30 07:00;CYWG 300700Z 27002KT 15SM SKC 08/08 A3024 RMK SLP246

CYWG;2009-08-30 08:00;CYWG 300800Z 28004KT 15SM SKC 05/05 A3025 RMK SLP249

CYWG;2009-08-30 09:00;CYWG 300900Z 27002KT 15SM MIFG FEW250 05/05 A3025 RMK CI0 SLP250

CYWG;2009-08-30 10:00;CYWG 301000Z 23002KT 15SM FEW230 05/05 A3025 RMK CI0 SLP250

CYWG;2009-08-30 11:00;CYWG 301100Z 00000KT 15SM MIFG FEW230 05/05 A3025 RMK CI1 SLP249

CYWG;2009-08-30 12:00;CYWG 301200Z 25002KT 15SM MIFG SCT230 05/05 A3025 RMK CI1 SLP250

CYWG;2009-08-30 13:00;CYWG 301300Z 00000KT 15SM BKN230 08/08 A3026 RMK CI2 CONTRAILS SLP253

CYWG;2009-08-30 14:00;CYWG 301400Z 22002KT 15SM BKN230 13/10 A3026 RMK CI1 CONTRAILS SLP253

CYWG;2009-08-30 15:00;CYWG 301500Z 25006KT 15SM FEW120 BKN230 16/10 A3025 RMK AC1CI1 CONTRAILS SLP249

CYWG;2009-08-30 16:00;CYWG 301600Z 22006KT 15SM BKN230 17/10 A3024 RMK CI1 CONTRAILS SLP246

CYWG;2009-08-30 17:00;CYWG 301700Z 23005KT 15SM FEW040 BKN230 19/11 A3023 RMK CU1CI1 CONTRAILS SLP243

CYWG;2009-08-30 18:00;CYWG 301800Z 26006KT 15SM FEW040 BKN230 20/10 A3021 RMK CU1CI1 CONTRAILS SLP235

CYWG;2009-08-30 19:00;CYWG 301900Z 26003KT 15SM FEW040 BKN270 20/11 A3019 RMK CU1CI0 SLP229

CYWG;2009-08-30 20:00;CYWG 302000Z 28004KT 15SM FEW044 BKN270 21/12 A3018 RMK CU2CI0 SLP224

CYWG;2009-08-30 21:00;CYWG 302100Z 21003KT 15SM FEW049 BKN270 21/12 A3016 RMK CU2CI1 SLP219

CYWG;2009-08-30 22:00;CYWG 302200Z 24003KT 15SM FEW046 BKN270 21/12 A3015 RMK CU2CI1 SLP216

CYWG;2009-08-30 23:00;CYWG 302300Z 24007KT 15SM FEW048 BKN270 21/13 A3014 RMK CU1CI1 SLP211

CYWG;2009-08-31 00:00;CYWG 310000Z 23005KT 15SM FEW055 BKN270 19/13 A3013 RMK CF1CI2 CF TR SLP209

CYWG;2009-08-31 01:00;CYWG 310100Z 19006KT 15SM FEW120 BKN270 18/12 A3012 RMK AC1CI1 SLP206

CYWG;2009-08-31 02:00;CYWG 310200Z 19006KT 15SM FEW120 BKN240 16/12 A3012 RMK AC2CI1 SLP205

CYWG;2009-08-31 03:00;CYWG 310300Z 19007KT 15SM SCT078 BKN250 16/12 A3012 RMK AC4CI1 SLP205

CYWG;2009-08-31 04:00;CYWG 310400Z 20011KT 15SM FEW080 SCT120 BKN250 16/11 A3012 RMK AC2AC2CI1 SLP205

CYWG;2009-08-31 05:00;CYWG 310500Z 20009KT 15SM SCT120 15/10 A3012 RMK AC3 SLP204

CYWG;2009-08-31 06:00;CYWG 310600Z 20009KT 15SM FEW120 14/10 A3012 RMK AC2 SLP203

CYWG;2009-08-31 07:00;CYWG 310700Z 21007KT 15SM FEW120 13/10 A3012 RMK AC1 SLP201

CYWG;2009-08-31 08:00;CYWG 310800Z 19008KT 15SM FEW120 12/10 A3012 RMK AC2 SLP201

CYWG;2009-08-31 09:00;CYWG 310900Z 19007KT 15SM SKC 11/10 A3012 RMK SLP201

CYWG;2009-08-31 10:00;CYWG 311000Z 21008KT 15SM SKC 11/09 A3012 RMK SLP202

CYWG;2009-08-31 11:00;CYWG 311100Z 20007KT 15SM SKC 11/09 A3012 RMK SLP202

CYWG;2009-08-31 12:00;CYWG 311200Z 19005KT 15SM SCT250 10/09 A3012 RMK CI1 SLP205

CYWG;2009-08-31 13:00;CYWG 311300Z 18004KT 15SM SKC 11/09 A3013 RMK SLP208

CYWG;2009-08-31 14:00;CYWG 311400Z 18006KT 15SM SKC 13/10 A3013 RMK SLP208

CYWG;2009-08-31 15:00;CYWG 311500Z 20004KT 15SM SKC 16/11 A3013 RMK SLP208

CYWG;2009-08-31 16:00;CYWG 311600Z 20006KT 15SM SKC 18/13 A3013 RMK SLP208

CYWG;2009-08-31 17:00;CYWG 311700Z 18006KT 15SM SKC 20/14 A3013 RMK SLP206

CYWG;2009-08-31 18:00;CYWG 311800Z 19007KT 15SM SKC 22/14 A3012 RMK SLP201

CYWG;2009-08-31 19:00;CYWG 311900Z 19012KT 15SM FEW045 23/12 A3011 RMK CF1 SLP198

CYWG;2009-08-31 20:00;CYWG 312000Z 21008G16KT 15SM SKC 23/13 A3009 RMK SLP194

CYWG;2009-08-31 21:00;CYWG 312100Z 21010KT 15SM SKC 23/12 A3008 RMK SLP189

CYWG;2009-08-31 22:00;CYWG 312200Z 18010KT 15SM SKC 23/13 A3006 RMK SLP184

CYWG;2009-08-31 23:00;CYWG 312300Z 17010KT 15SM SKC 22/13 A3006 RMK SLP182

CYWG;2009-09-01 01:00;CYWG 010100Z 16006KT 15SM FEW250 19/13 A3004 RMK CI0 SLP176

CYWG;2009-09-01 02:00;CYWG 010200Z 16007KT 15SM FEW250 16/13 A3005 RMK CI1 SLP178

CYWG;2009-09-01 03:00;CYWG 010300Z 18009KT 15SM SKC 18/14 A3006 RMK SLP180

CYWG;2009-09-01 04:00;CYWG 010400Z 19012KT 15SM SKC 17/14 A3006 RMK SLP181

CYWG;2009-09-01 05:00;CYWG 010500Z 18011KT 15SM SKC 16/13 A3006 RMK SLP180

CYWG;2009-09-01 06:00;CYWG 010600Z 19012KT 15SM SKC 16/13 A3006 RMK SLP182

CYWG;2009-09-01 07:00;CYWG 010700Z 19010G15KT 15SM SKC 15/13 A3006 RMK SLP182

CYWG;2009-09-01 08:00;CYWG 010800Z 18011KT 15SM SKC 14/13 A3006 RMK SLP181

CYWG;2009-09-01 09:00;CYWG 010900Z 18010KT 15SM SKC 14/12 A3006 RMK SLP181

CYWG;2009-09-01 10:00;CYWG 011000Z 18010KT 15SM SKC 13/12 A3006 RMK SLP183

CYWG;2009-09-01 11:00;CYWG 011100Z 18012KT 15SM SKC 13/11 A3007 RMK SLP184

CYWG;2009-09-01 12:00;CYWG 011200Z 18011KT 15SM SKC 12/11 A3007 RMK SLP186

CYWG;2009-09-01 13:00;CYWG 011300Z 18010KT 15SM SKC 13/11 A3007 RMK SLP186

CYWG;2009-09-01 14:00;CYWG 011400Z 18011KT 15SM SKC 15/12 A3007 RMK SLP187

CYWG;2009-09-01 15:00;CYWG 011500Z 18010KT 15SM SKC 17/13 A3007 RMK SLP184

CYWG;2009-09-01 16:00;CYWG 011600Z 18013KT 15SM SKC 19/13 A3006 RMK SLP183

CYWG;2009-09-01 17:00;CYWG 011700Z 19013KT 15SM SKC 21/15 A3006 RMK SLP182

CYWG;2009-09-01 18:00;CYWG 011800Z 17012KT 15SM SKC 22/15 A3006 RMK SLP183

CYWG;2009-09-01 19:00;CYWG 011900Z 18014KT 15SM SKC 23/15 A3006 RMK SLP181

CYWG;2009-09-01 20:00;CYWG 012000Z 18012G19KT 15SM SKC 24/15 A3005 RMK SLP177

CYWG;2009-09-01 21:00;CYWG 012100Z 20011G17KT 15SM SKC 24/15 A3004 RMK SLP173

CYWG;2009-09-01 22:00;CYWG 012200Z 19014KT 15SM SKC 24/16 A3002 RMK SLP168

CYWG;2009-09-01 23:00;CYWG 012300Z 18012G18KT 15SM SKC 24/15 A3002 RMK SLP166

CYWG;2009-09-02 00:00;CYWG 020000Z 18012KT 15SM SKC 23/14 A3001 RMK SLP164

CYWG;2009-09-02 01:00;CYWG 020100Z 18009KT 15SM SKC 21/14 A3001 RMK SLP164

CYWG;2009-09-02 02:00;CYWG 020200Z 18010KT 15SM SKC 20/09 A3002 RMK SLP168

CYWG;2009-09-02 03:00;CYWG 020300Z 18011KT 15SM SKC 19/14 A3003 RMK SLP171

CYWG;2009-09-02 04:00;CYWG 020400Z 18013KT 15SM SKC 18/13 A3004 RMK SLP174

CYWG;2009-09-02 05:00;CYWG 020500Z 18012KT 15SM BKN057 17/13 A3004 RMK SC3 SLP175

CYWG;2009-09-02 06:00;CYWG 020600Z 18011KT 15SM FEW057 16/13 A3004 RMK SC2 SLP173

CYWG;2009-09-02 07:00;CYWG 020700Z 19011KT 15SM FEW059 16/13 A3004 RMK SC2 SLP173

CYWG;2009-09-02 08:00;CYWG 020800Z 18008KT 15SM FEW061 15/13 A3003 RMK SC2 SLP171

CYWG;2009-09-02 09:00;CYWG 020900Z 18009KT 15SM FEW061 14/13 A3003 RMK SC1 SLP171

CYWG;2009-09-02 10:00;CYWG 021000Z 18010KT 15SM FEW058 FEW100 14/12 A3004 RMK SC1AC1 SLP174

CYWG;2009-09-02 11:00;CYWG 021100Z 18008KT 15SM FEW060 FEW100 14/12 A3005 RMK SC1AC1 SLP176

CYWG;2009-09-02 12:00;CYWG 021200Z 18007KT 15SM BKN071 13/12 A3005 RMK AC5 SLP179

CYWG;2009-09-02 13:00;CYWG 021300Z 18008KT 15SM BKN068 14/13 A3006 RMK AC5 SLP181

CYWG;2009-09-02 14:00;CYWG 021400Z 18008KT 15SM SCT073 16/13 A3006 RMK AC2 SLP181

CYWG;2009-09-02 15:00;CYWG 021500Z 18009KT 15SM FEW250 18/15 A3006 RMK CI1 SLP181

CYWG;2009-09-02 16:00;CYWG 021600Z 17006KT 15SM SKC 20/15 A3006 RMK SLP183

CYWG;2009-09-02 17:00;CYWG 021700Z 17007KT 15SM FEW100 FEW250 22/16 A3007 RMK AC1CI1 SLP186

CYWG;2009-09-02 18:00;CYWG 021800Z 17009KT 15SM SCT250 23/16 A3007 RMK CI2 SLP183

CYWG;2009-09-02 19:00;CYWG 021900Z 18008KT 15SM SCT250 24/16 A3006 RMK CI1 SLP181

CYWG;2009-09-02 20:00;CYWG 022000Z 17009KT 15SM FEW250 25/17 A3005 RMK CI1 SLP178

CYWG;2009-09-02 21:00;CYWG 022100Z 19007KT 15SM SKC 25/17 A3005 RMK SLP177

CYWG;2009-09-02 22:00;CYWG 022200Z 18009KT 15SM SKC 25/17 A3005 RMK SLP176

CYWG;2009-09-02 23:00;CYWG 022300Z 19008KT 15SM SKC 25/17 A3004 RMK SLP175

CYWG;2009-09-03 00:00;CYWG 030000Z 17007KT 15SM FEW250 24/17 A3004 RMK CI0 SLP175

CYWG;2009-09-03 01:00;CYWG 030100Z 18006KT 15SM FEW250 21/17 A3005 RMK CI0 SLP177

CYWG;2009-09-03 02:00;CYWG 030200Z 18005KT 15SM FEW250 20/16 A3005 RMK CI0 SLP179

CYWG;2009-09-03 03:00;CYWG 030300Z 18006KT 15SM FEW250 19/16 A3006 RMK CI0 SLP183

CYWG;2009-09-03 04:00;CYWG 030400Z 19006KT 15SM SKC 19/16 A3008 RMK SLP187

CYWG;2009-09-03 05:00;CYWG 030500Z 21008KT 15SM SKC 19/16 A3008 RMK SLP188

CYWG;2009-09-03 06:00;CYWG 030600Z 22008KT 15SM SKC 18/15 A3009 RMK SLP189

CYWG;2009-09-03 07:00;CYWG 030700Z 22009KT 15SM SKC 18/15 A3009 RMK SLP191

CYWG;2009-09-03 08:00;CYWG 030800Z 22006KT 15SM SKC 16/15 A3009 RMK SLP192

CYWG;2009-09-03 09:00;CYWG 030900Z 20004KT 15SM SKC 15/14 A3010 RMK SLP194

CYWG;2009-09-03 10:00;CYWG 031000Z 23005KT 15SM SKC 14/14 A3010 RMK SLP195

CYWG;2009-09-03 11:00;CYWG 031100Z 21003KT 15SM SKC 14/13 A3011 RMK SLP196

CYWG;2009-09-03 12:00;CYWG 031200Z 19004KT 7SM SKC 13/13 A3011 RMK SLP197

CYWG;2009-09-03 13:00;CYWG 031300Z 19002KT 8SM SKC 15/15 A3012 RMK SLP201

CYWG;2009-09-03 14:00;CYWG 031400Z 20003KT 10SM SKC 17/15 A3013 RMK SLP204

CYWG;2009-09-03 15:00;CYWG 031500Z 00000KT 10SM SKC 20/16 A3012 RMK SLP203

CYWG;2009-09-03 16:00;CYWG 031600Z 14003KT 12SM FEW075 22/13 A3013 RMK AC1 SLP206

CYWG;2009-09-03 17:00;CYWG 031700Z 21006KT 12SM FEW075 23/18 A3014 RMK AC2 SLP207

CYWG;2009-09-03 18:00;CYWG 031800Z 18004KT 15SM FEW080 25/19 A3013 RMK AC1 SLP203

CYWG;2009-09-03 19:00;CYWG 031900Z 17002KT 15SM FEW034 25/18 A3012 RMK CU2 SLP200

CYWG;2009-09-03 20:00;CYWG 032000Z 24004KT 15SM SCT036 BKN075 26/18 A3011 RMK CU4AC2 SLP196

CYWG;2009-09-03 21:00;CYWG 032100Z 25004KT 15SM FEW042 BKN083 27/18 A3010 RMK CU2AC2 SLP193

CYWG;2009-09-03 22:00;CYWG 032200Z 18005KT 15SM FEW046 SCT075 26/16 A3008 RMK CU2AC2 SLP188

CYWG;2009-09-03 23:00;CYWG 032300Z 19007KT 15SM FEW075 SCT250 26/18 A3007 RMK AC1CI0 SLP184

CYWG;2009-09-04 00:00;CYWG 040000Z 17006KT 15SM SCT250 24/18 A3006 RMK CI0 SLP182

CYWG;2009-09-04 01:00;CYWG 040100Z 17004KT 15SM FEW250 22/17 A3006 RMK CI0 SLP181

CYWG;2009-09-04 02:00;CYWG 040200Z 17004KT 15SM FEW250 21/17 A3006 RMK CI0 SLP181

CYWG;2009-09-04 03:00;CYWG 040300Z 15004KT 15SM SKC 20/17 A3006 RMK SLP182

CYWG;2009-09-04 04:00;CYWG 040400Z 15005KT 15SM FEW080 19/17 A3007 RMK AC1 SLP184

CYWG;2009-09-04 05:00;CYWG 040500Z 16006KT 15SM SKC 18/16 A3006 RMK SLP182

CYWG;2009-09-04 06:00;CYWG 040600Z 19008KT 15SM FEW270 19/16 A3006 RMK CI1 SLP181

CYWG;2009-09-04 07:00;CYWG 040700Z 19007KT 15SM FEW270 18/16 A3006 RMK CI1 SLP181

CYWG;2009-09-04 08:00;CYWG 040800Z 18008KT 15SM SKC 17/15 A3006 RMK SLP181

CYWG;2009-09-04 09:00;CYWG 040900Z 18007KT 15SM SKC 16/15 A3006 RMK SLP181

CYWG;2009-09-04 10:00;CYWG 041000Z 18007KT 15SM SKC 16/15 A3006 RMK SLP179

CYWG;2009-09-04 11:00;CYWG 041100Z 17006KT 15SM SKC 15/15 A3006 RMK SLP178

CYWG;2009-09-04 12:00;CYWG 041200Z 17008KT 8SM SKC 16/15 A3005 RMK SLP178

CYWG;2009-09-04 13:00;CYWG 041300Z 17009KT 7SM BKN040 17/16 A3006 RMK SC6 SLP180

CYWG;2009-09-04 14:00;CYWG 041400Z 17010KT 12SM SCT042 BKN078 17/16 A3006 RMK SC4AC2 SLP179

CYWG;2009-09-04 15:00;CYWG 041500Z 18010KT 15SM BKN042 19/17 A3006 RMK SC6 SLP180

CYWG;2009-09-04 16:00;CYWG 041600Z 17008KT 15SM BKN044 20/17 A3006 RMK SC7 SLP182

CYWG;2009-09-04 17:00;CYWG 041700Z 18009KT 15SM BKN046 22/17 A3006 RMK SC6 SLP180

CYWG;2009-09-04 18:00;CYWG 041800Z 18013G18KT 15SM SCT082 24/17 A3004 RMK AC4 SLP173

CYWG;2009-09-04 19:00;CYWG 041900Z 17015KT 15SM FEW032 BKN250 25/17 A3002 RMK CU2CI1 SLP167

CYWG;2009-09-04 20:00;CYWG 042000Z 19015G20KT 15SM FEW040 BKN250 25/17 A3002 RMK CU2CI1 SLP165

CYWG;2009-09-04 21:00;CYWG 042100Z 18019KT 15SM FEW041 BKN250 26/16 A3000 RMK CU2CI2 SLP159

CYWG;2009-09-04 22:00;CYWG 042200Z 19020KT 15SM FEW043 SCT250 25/16 A2999 RMK CU1CI1 SLP156

CYWG;2009-09-04 23:00;CYWG 042300Z 18018KT 15SM FEW045 FEW160 SCT250 25/16 A2998 RMK CU1AC1CI0 SLP154

CYWG;2009-09-05 00:00;CYWG 050000Z 17011KT 15SM FEW160 SCT250 23/16 A2998 RMK AC2CI1 SLP152

CYWG;2009-09-05 01:00;CYWG 050100Z 17011KT 15SM FEW160 SCT250 22/15 A2998 RMK AC2CI1 SLP152

CYWG;2009-09-05 02:00;CYWG 050200Z 18013KT 15SM FEW160 SCT250 21/14 A2998 RMK AC2CI0 SLP153

CYWG;2009-09-05 03:00;CYWG 050300Z 18011KT 15SM FEW160 FEW250 20/14 A2999 RMK AC1CI1 SLP157

CYWG;2009-09-05 04:00;CYWG 050400Z 18012KT 15SM FEW075 20/13 A2999 RMK AC1 SLP159

CYWG;2009-09-05 05:00;CYWG 050500Z 18011KT 15SM SKC 18/13 A3000 RMK SLP160

CYWG;2009-09-05 06:00;CYWG 050600Z 18011KT 15SM SKC 17/13 A2999 RMK SLP157

CYWG;2009-09-05 07:00;CYWG 050700Z 18010KT 15SM SKC 17/13 A2999 RMK SLP155

CYWG;2009-09-05 08:00;CYWG 050800Z 18010KT 15SM FEW100 16/14 A2999 RMK AC1 SLP156

CYWG;2009-09-05 09:00;CYWG 050900Z 18011KT 15SM FEW100 16/12 A2998 RMK AC1 SLP153

CYWG;2009-09-05 10:00;CYWG 051000Z 18013KT 15SM FEW100 16/13 A2997 RMK AC2 SLP150

CYWG;2009-09-05 11:00;CYWG 051100Z 18014G19KT 15SM BKN120 16/12 A2997 RMK AC4 SLP149

CYWG;2009-09-05 12:00;CYWG 051200Z 18016KT 15SM BKN120 16/07 A2996 RMK AC6 SLP148

CYWG;2009-09-05 13:00;CYWG 051300Z 18014G19KT 15SM BKN120 16/08 A2996 RMK AC6 SLP148

CYWG;2009-09-05 14:00;CYWG 051400Z 18015KT 15SM FEW076 SCT120 BKN240 16/08 A2997 RMK AC2AC2CC1 SLP150

CYWG;2009-09-05 15:00;CYWG 051500Z 18012KT 15SM FEW083 FEW240 SCT270 18/09 A2996 RMK AC1CC1CI0 SLP149

CYWG;2009-09-05 16:00;CYWG 051600Z 19017KT 15SM FEW270 20/15 A2996 RMK CI1 SLP147

CYWG;2009-09-05 17:00;CYWG 051700Z 18016KT 15SM FEW270 22/16 A2996 RMK CI0 SLP148

CYWG;2009-09-05 18:00;CYWG 051800Z 19014KT 15SM FEW270 24/17 A2996 RMK CI0 SLP145

CYWG;2009-09-05 19:00;CYWG 051900Z 19018KT 15SM SCT250 26/17 A2994 RMK CI1 SLP140

CYWG;2009-09-05 20:00;CYWG 052000Z 21016KT 15SM SCT250 27/11 A2993 RMK CI1 SLP138

CYWG;2009-09-05 21:00;CYWG 052100Z 18016KT 15SM FEW040 SCT250 28/18 A2993 RMK CU1CI1 SLP135

CYWG;2009-09-05 22:00;CYWG 052200Z 18014G20KT 15SM FEW060 SCT250 28/11 A2992 RMK CU1CI1 SLP131

CYWG;2009-09-05 23:00;CYWG 052300Z 18013G18KT 15SM FEW060 SCT250 27/18 A2991 RMK CU1CI1 SLP129

CYWG;2009-09-06 00:00;CYWG 060000Z 18013KT 15SM FEW250 26/18 A2991 RMK CI1 SLP128

CYWG;2009-09-06 01:00;CYWG 060100Z 18012KT 15SM FEW250 24/16 A2991 RMK CI0 SLP128

CYWG;2009-09-06 02:00;CYWG 060200Z 18011KT 15SM FEW250 23/16 A2992 RMK CI0 SLP131

CYWG;2009-09-06 03:00;CYWG 060300Z 19013KT 15SM FEW059 22/16 A2992 RMK SC2 SLP133

CYWG;2009-09-06 04:00;CYWG 060400Z 18012KT 15SM SCT061 22/17 A2993 RMK SC4 SLP135

CYWG;2009-09-06 05:00;CYWG 060500Z 19011KT 15SM SKC 21/14 A2993 RMK SLP138

CYWG;2009-09-06 06:00;CYWG 060600Z 20011KT 15SM SKC 20/16 A2994 RMK SLP139

CYWG;2009-09-06 07:00;CYWG 060700Z 20010KT 15SM SKC 19/15 A2994 RMK SLP140

CYWG;2009-09-06 08:00;CYWG 060800Z 19007KT 15SM FEW270 18/10 A2995 RMK CI0 SLP141

CYWG;2009-09-06 09:00;CYWG 060900Z 19005KT 15SM FEW270 16/16 A2995 RMK CI0 SLP143

CYWG;2009-09-06 10:00;CYWG 061000Z 18005KT 15SM FEW270 16/15 A2996 RMK CI0 SLP147

CYWG;2009-09-06 11:00;CYWG 061100Z 18004KT 15SM SKC 15/10 A2997 RMK SLP150

CYWG;2009-09-06 12:00;CYWG 061200Z 17006KT 5SM BR FEW250 14/13 A2998 RMK CI1 SLP153

CYWG;2009-09-06 13:00;CYWG 061300Z 18004KT 5SM BR FEW250 16/13 A2999 RMK CI1 SLP156

CYWG;2009-09-06 14:00;CYWG 061400Z 17007KT 9SM SKC 18/15 A3000 RMK BR SLP159

CYWG;2009-09-06 15:00;CYWG 061500Z 17005KT 9SM SKC 20/18 A3000 RMK BR SLP160

CYWG;2009-09-06 16:00;CYWG 061600Z 16003KT 9SM SKC 23/18 A3001 RMK SLP163

CYWG;2009-09-06 17:00;CYWG 061700Z 18005KT 15SM FEW250 24/18 A3001 RMK CI1 SLP163

CYWG;2009-09-06 18:00;CYWG 061800Z CCA 14006KT 15SM SKC 25/19 A3000 RMK SLP160

CYWG;2009-09-06 19:00;CYWG 061900Z 13003KT 15SM SKC 26/19 A3000 RMK SLP158

CYWG;2009-09-06 20:00;CYWG 062000Z 13007KT 15SM SKC 27/20 A2999 RMK SLP154

CYWG;2009-09-06 21:00;CYWG 062100Z 19005KT 15SM SKC 28/20 A2997 RMK SLP150

CYWG;2009-09-06 22:00;CYWG 062200Z 14007KT 15SM SKC 28/20 A2996 RMK SLP147

CYWG;2009-09-06 23:00;CYWG 062300Z 16006KT 15SM SKC 28/20 A2996 RMK SLP144

CYWG;2009-09-07 00:00;CYWG 070000Z 16007KT 15SM FEW094 27/19 A2996 RMK AC2 SLP145

CYWG;2009-09-07 01:00;CYWG 070100Z 15009KT 15SM FEW090 24/18 A2996 RMK AC2 SLP145

CYWG;2009-09-07 02:00;CYWG 070200Z 16007KT 15SM FEW090 23/18 A2996 RMK AC2 SLP147

CYWG;2009-09-07 03:00;CYWG 070300Z 17011KT 15SM FEW090 23/18 A2997 RMK AC1 SLP148

CYWG;2009-09-07 04:00;CYWG 070400Z 18011KT 15SM SKC 22/17 A2997 RMK SLP150

CYWG;2009-09-07 05:00;CYWG 070500Z 18009KT 15SM SKC 20/15 A2997 RMK SLP150

CYWG;2009-09-07 06:00;CYWG 070600Z 18011KT 15SM SKC 20/14 A2997 RMK SLP149

CYWG;2009-09-07 07:00;CYWG 070700Z 18009KT 15SM SKC 19/15 A2997 RMK SLP150

CYWG;2009-09-07 08:00;CYWG 070800Z 18011KT 15SM SKC 18/14 A2997 RMK SLP149

CYWG;2009-09-07 09:00;CYWG 070900Z 18010KT 15SM SKC 18/15 A2996 RMK SLP147

CYWG;2009-09-07 10:00;CYWG 071000Z 17011KT 15SM SKC 17/15 A2996 RMK SLP146

CYWG;2009-09-07 11:00;CYWG 071100Z 17011KT 15SM SKC 17/15 A2996 RMK SLP144

CYWG;2009-09-07 12:00;CYWG 071200Z 17010G15KT 15SM SKC 17/15 A2996 RMK SLP146

CYWG;2009-09-07 13:00;CYWG 071300Z 17013KT 12SM SKC 18/15 A2996 RMK HZ SLP146

CYWG;2009-09-07 14:00;CYWG 071400Z 17015KT 8SM SKC 19/16 A2996 RMK HZ SLP144

CYWG;2009-09-07 15:00;CYWG 071500Z 17015KT 12SM SKC 21/16 A2995 RMK HZ SLP143

CYWG;2009-09-07 16:00;CYWG 071600Z 18015G20KT 12SM SKC 22/15 A2995 RMK HZ SLP143

CYWG;2009-09-07 17:00;CYWG 071700Z 17018KT 12SM SKC 24/15 A2994 RMK HZ SLP138

CYWG;2009-09-07 18:00;CYWG 071800Z 19019G25KT 12SM FEW040 26/16 A2993 RMK CF1 HZ SLP134

CYWG;2009-09-07 19:00;CYWG 071900Z 18019G26KT 15SM FEW040 27/16 A2991 RMK CF1 SLP128

CYWG;2009-09-07 20:00;CYWG 072000Z 18020G28KT 15SM FEW040 27/10 A2990 RMK CF1 SLP123

CYWG;2009-09-07 21:00;CYWG 072100Z 18020G26KT 15SM SKC 27/12 A2988 RMK SLP119

CYWG;2009-09-07 22:00;CYWG 072200Z 18014G21KT 15SM FEW060 SCT250 26/10 A2988 RMK SC2CI1 SLP119

CYWG;2009-09-07 23:00;CYWG 072300Z 15015KT 15SM BKN058 26/10 A2987 RMK SC5 SLP115

CYWG;2009-09-08 00:00;CYWG 080000Z 16012G21KT 15SM BKN058 BKN250 24/10 A2987 RMK SC5CI1 SLP116

CYWG;2009-09-08 01:00;CYWG 080100Z 15013KT 12SM OVC058 24/09 A2987 RMK SC8 HZ SLP115

CYWG;2009-09-08 02:00;CYWG 080200Z 16012G18KT 12SM BKN058 BKN250 23/09 A2987 RMK SC5CI1 HZ SLP116

CYWG;2009-09-08 03:00;CYWG 080300Z 16011KT 15SM BKN058 22/09 A2987 RMK SC6 SLP117

CYWG;2009-09-08 04:00;CYWG 080400Z 15012KT 15SM BKN062 22/09 A2988 RMK SC6 SLP118

CYWG;2009-09-08 05:00;CYWG 080500Z 17014KT 15SM BKN072 22/10 A2987 RMK AC6 SLP115

CYWG;2009-09-08 06:00;CYWG 080600Z 17013G18KT 15SM BKN096 22/09 A2987 RMK AC6 SLP114

CYWG;2009-09-08 07:00;CYWG 080700Z 17015KT 15SM BKN058 22/10 A2987 RMK SC6 SLP113

CYWG;2009-09-08 08:00;CYWG 080800Z 16013G18KT 15SM OVC058 22/10 A2985 RMK SC8 SLP107

CYWG;2009-09-08 09:00;CYWG 080900Z 16013KT 15SM OVC058 22/14 A2983 RMK SC8 SLP100

CYWG;2009-09-08 10:00;CYWG 081000Z 16012KT 15SM OVC058 21/12 A2982 RMK SC8 SLP098

CYWG;2009-09-08 11:00;CYWG 081100Z 17014KT 15SM OVC056 21/12 A2981 RMK SC8 SLP095

CYWG;2009-09-08 12:00;CYWG 081200Z 15015G20KT 12SM SCT051 BKN250 20/12 A2979 RMK SC4CI2 HZ SLP087

CYWG;2009-09-08 13:00;CYWG 081300Z 16015KT 15SM BKN047 BKN250 20/12 A2978 RMK SC6CI2 SLP084

CYWG;2009-09-08 14:00;CYWG 081400Z 16017KT 15SM BKN055 OVC090 20/16 A2978 RMK SC6AC2 SLP085

CYWG;2009-09-08 14:17;CYWG 081417Z 17013G18KT 15SM -SHRA BKN042 OVC090 20/ RMK SC7AC1

CYWG;2009-09-08 14:28;CYWG 081428Z 17015KT 2SM SHRA FEW025 OVC042 19/ RMK SC2SC6

CYWG;2009-09-08 14:36;CYWG 081436Z 16016G29KT 1 1/2SM TSRA SCT025 OVC042 18/ RMK SC4SC4 CB EMBD

CYWG;2009-09-08 14:48;CYWG 081448Z 15017G22KT 5SM -TSRA SCT025 OVC042CB 18/ RMK SC4CB4

CYWG;2009-09-08 15:00;CYWG 081500Z 13018KT 4SM -TSRA BR OVC025 18/17 A2973 RMK SC8 CB EMBD PRESFR SLP068

CYWG;2009-09-08 15:21;CYWG 081521Z 18019KT 4SM -SHRA BR OVC025 19/ RMK SC8

CYWG;2009-09-08 16:00;CYWG 081600Z 18017KT 5SM -SHRA BR BKN008 OVC025 18/17 A2977 RMK SF6SC2 SLP082

CYWG;2009-09-08 16:28;CYWG 081628Z 19015G24KT 8SM OVC008 19/ RMK SF8 BR

CYWG;2009-09-08 17:00;CYWG 081700Z 18017G22KT 10SM BKN009 OVC033 19/11 A2980 RMK SF7SC1 BR SLP090

CYWG;2009-09-08 17:42;CYWG 081742Z 18014G20KT 15SM FEW010 SCT033 BKN100 20/ RMK SF2SC2AS3 SUN DIMLY VISBL

CYWG;2009-09-08 18:00;CYWG 081800Z 18015G20KT 15SM BKN010 OVC085 20/18 A2980 RMK SC7AC1 SLP091

CYWG;2009-09-08 19:00;CYWG 081900Z 19013G20KT 8SM BKN010 OVC085 20/19 A2980 RMK SF7AC1 BR SLP092

CYWG;2009-09-08 19:34;CYWG 081934Z 20014KT 3SM BR OVC007 20/ RMK SF8

CYWG;2009-09-08 19:45;CYWG 081945Z 20010KT 2SM BR OVC005 20/ RMK SF8

CYWG;2009-09-08 20:00;CYWG 082000Z 20011G17KT 2SM BR BKN006 OVC027 20/20 A2980 RMK SF6SC2 SLP093

CYWG;2009-09-08 20:15;CYWG 082015Z 20010G15KT 6SM BR BKN007 OVC023 20/ RMK SF6SC2

CYWG;2009-09-08 21:00;CYWG 082100Z 20013G18KT 10SM BKN012 OVC032 21/20 A2980 RMK SC6SC2 BR SLP093

CYWG;2009-09-08 22:00;CYWG 082200Z 21012KT 12SM BKN012 OVC036 21/20 A2982 RMK SC6SC2 BR SLP098

CYWG;2009-09-08 23:00;CYWG 082300Z 36004KT 15SM SCT019 BKN065 OVC084 19/18 A2979 RMK SC3SC3AC2 PRESFR SLP087

CYWG;2009-09-09 00:00;CYWG 090000Z 28003KT 15SM FEW012 BKN026 OVC077 19/18 A2981 RMK SC2SC5AC2 SLP097

CYWG;2009-09-09 01:00;CYWG 090100Z 27006KT 15SM FEW012 BKN044 OVC077 18/18 A2981 RMK SC2SC4AC2 SLP096

CYWG;2009-09-09 01:24;CYWG 090124Z 31005KT 15SM -SHRA OVC048 18/ RMK SC8 CVCTV CLD EMB

CYWG;2009-09-09 02:00;CYWG 090200Z 27002KT 15SM -SHRA OVC020 18/18 A2984 RMK SC8 CVCTV CLD EMB SLP105

CYWG;2009-09-09 03:00;CYWG 090300Z 24002KT 15SM -SHRA OVC050 17/17 A2983 RMK SC8 SLP105

CYWG;2009-09-09 04:00;CYWG 090400Z 24006KT 15SM SCT047 OVC078 17/17 A2987 RMK SC4AC4 SLP115

CYWG;2009-09-09 05:00;CYWG 090500Z 23008KT 15SM SCT053 OVC093 16/15 A2988 RMK SC3AC5 SLP119

CYWG;2009-09-09 06:00;CYWG 090600Z 26009KT 15SM FEW080 15/14 A2990 RMK AC2 SLP127

CYWG;2009-09-09 07:00;CYWG 090700Z 24007KT 15SM FEW250 14/13 A2992 RMK CI0 SLP133

CYWG;2009-09-09 08:00;CYWG 090800Z 23006KT 15SM FEW250 12/11 A2992 RMK CI0 SLP134

CYWG;2009-09-09 09:00;CYWG 090900Z 23008KT 15SM FEW250 12/11 A2994 RMK CI1 SLP141

CYWG;2009-09-09 10:00;CYWG 091000Z 22008KT 15SM SKC 12/11 A2995 RMK SLP144

CYWG;2009-09-09 11:00;CYWG 091100Z 21009KT 15SM SKC 12/10 A2996 RMK SLP147

CYWG;2009-09-09 12:00;CYWG 091200Z 22010KT 15SM FEW090 12/09 A2997 RMK AC1 AC TR SLP153

CYWG;2009-09-09 13:00;CYWG 091300Z 23011KT 15SM SKC 13/10 A2999 RMK SLP158

CYWG;2009-09-09 14:00;CYWG 091400Z 23010KT 15SM SKC 15/10 A2999 RMK SLP161

CYWG;2009-09-09 15:00;CYWG 091500Z 23010KT 15SM SKC 18/12 A3001 RMK SLP164

CYWG;2009-09-09 16:00;CYWG 091600Z 23008KT 15SM SKC 20/13 A3001 RMK SLP166

CYWG;2009-09-09 17:00;CYWG 091700Z 22009KT 15SM SKC 22/13 A3002 RMK SLP167

CYWG;2009-09-09 18:00;CYWG 091800Z 22010G15KT 15SM SKC 24/13 A3001 RMK SLP164

CYWG;2009-09-09 19:00;CYWG 091900Z 23015KT 15SM SKC 25/10 A3000 RMK SLP160

CYWG;2009-09-09 20:00;CYWG 092000Z 20017KT 15SM SKC 26/09 A2999 RMK SLP156

CYWG;2009-09-09 21:00;CYWG 092100Z 20018G25KT 15SM SKC 26/08 A2998 RMK SLP153

CYWG;2009-09-09 22:00;CYWG 092200Z 19018G24KT 15SM FEW250 25/10 A2997 RMK CI1 SLP151

CYWG;2009-09-09 23:00;CYWG 092300Z 19016G25KT 15SM FEW250 24/11 A2997 RMK CI0 SLP150

CYWG;2009-09-10 00:00;CYWG 100000Z 19014KT 15SM SCT250 23/11 A2997 RMK CI0 SLP151

CYWG;2009-09-10 01:00;CYWG 100100Z 19013KT 15SM BKN250 21/11 A2997 RMK CI1 SLP151

CYWG;2009-09-10 02:00;CYWG 100200Z 19012KT 15SM FEW140 BKN250 20/11 A2997 RMK AC2CI1 SLP153

CYWG;2009-09-10 03:00;CYWG 100300Z 19014KT 15SM BKN090 20/11 A2998 RMK AC6 OBS TAKEN +10 SLP155

CYWG;2009-09-10 04:00;CYWG 100400Z 19013KT 15SM BKN110 19/11 A2999 RMK AC7 SLP157

CYWG;2009-09-10 05:00;CYWG 100500Z 19011G16KT 15SM BKN100 BKN230 18/11 A2999 RMK AC5CI1 SLP156

CYWG;2009-09-10 06:00;CYWG 100600Z 19013KT 15SM SCT230 17/11 A2999 RMK CI2 SLP156

CYWG;2009-09-10 07:00;CYWG 100700Z 19011KT 15SM BKN230 16/12 A2999 RMK CI2 SLP156

CYWG;2009-09-10 08:00;CYWG 100800Z 19010KT 15SM FEW230 15/12 A2999 RMK CI1 SLP155

CYWG;2009-09-10 09:00;CYWG 100900Z 19008KT 15SM FEW230 14/12 A2999 RMK CI1 SLP156

CYWG;2009-09-10 10:00;CYWG 101000Z 18008KT 15SM FEW087 13/11 A3000 RMK AC2 SLP160

CYWG;2009-09-10 11:00;CYWG 101100Z 17007KT 15SM FEW250 12/11 A3002 RMK CI0 SLP165

CYWG;2009-09-10 12:00;CYWG 101200Z 17008KT 15SM FEW250 11/10 A3002 RMK CI0 SLP169

CYWG;2009-09-10 13:00;CYWG 101300Z 17009KT 15SM FEW250 12/11 A3002 RMK CI1 SLP169

CYWG;2009-09-10 14:00;CYWG 101400Z 18010KT 15SM FEW250 15/12 A3002 RMK CI1 SLP167

CYWG;2009-09-10 15:00;CYWG 101500Z 18011G16KT 15SM SCT250 17/13 A3001 RMK CI1 SLP164

CYWG;2009-09-10 16:00;CYWG 101600Z 17014KT 15SM BKN250 19/15 A3000 RMK CI1 SLP161

CYWG;2009-09-10 17:00;CYWG 101700Z 18013KT 15SM FEW120 BKN250 22/16 A3000 RMK AC1CI1 SLP160

CYWG;2009-09-10 18:00;CYWG 101800Z 18012KT 15SM FEW120 BKN250 24/16 A2999 RMK AC1CI2 SLP158

CYWG;2009-09-10 19:00;CYWG 101900Z 17015G20KT 15SM FEW120 BKN250 26/15 A2998 RMK AC1CI2 SLP152

CYWG;2009-09-10 20:00;CYWG 102000Z 19015KT 15SM FEW120 BKN250 27/17 A2998 RMK AC1CI1 SLP152

CYWG;2009-09-10 21:00;CYWG 102100Z 18014KT 15SM FEW120 BKN250 27/18 A2997 RMK AC1CI1 SLP151

CYWG;2009-09-10 22:00;CYWG 102200Z 18015KT 15SM FEW110 BKN250 27/19 A2997 RMK AC1CI1 SLP150

CYWG;2009-09-10 23:00;CYWG 102300Z 17010G15KT 15SM FEW024 BKN250 26/20 A2997 RMK CU1CI1 TCU ASOCTD SLP150

CYWG;2009-09-11 00:00;CYWG 110000Z 17009KT 15SM FEW024 FEW090 BKN250 25/20 A2997 RMK CU1AC1CI1 TCU ASOCTD SLP151

CYWG;2009-09-11 01:00;CYWG 110100Z 15007KT 15SM FEW090 BKN250 23/20 A2997 RMK AC2CI2 CB DIST SW SLP151

CYWG;2009-09-11 02:00;CYWG 110200Z CCA 15007KT 15SM FEW025CB SCT090 OVC250 23/20 A2998 RMK CB2AC1CI2 OCNL LTGIC SW SLP153

CYWG;2009-09-11 03:00;CYWG 110300Z 19014KT 15SM TS FEW025CB BKN094 OVC250 24/20 A2997 RMK CB2AC2CI4 CB/NMRS LTGIC S QUAD SLP151

CYWG;2009-09-11 04:00;CYWG 110400Z 24005KT 15SM TS FEW025CB BKN090 OVC250 22/17 A2996 RMK CB2AC3CI2 CB/NMRS LTGIC S QUAD AND DSNT NE SLP148

CYWG;2009-09-11 05:00;CYWG 110500Z 22008KT 15SM -TSRA SCT045CB BKN092 OVC250 21/14 A2999 RMK CB3AC4CI1 NMRS LTGIC E-SW AND DSNT NE SLP155

CYWG;2009-09-11 06:00;CYWG 110600Z 20007KT 15SM FEW027 SCT053CB OVC086 18/13 A2998 RMK CF2CB2AC4 LTGIC DSNT S AND NE SLP153

CYWG;2009-09-11 07:00;CYWG 110700Z 25008KT 15SM FEW027 OVC076 18/14 A3001 RMK CF2AC6 LTGIC DSNT NE SLP164

CYWG;2009-09-11 07:29;CYWG 110729Z 24011KT 15SM -SHRA FEW027 OVC076 18/ RMK CF2AC6

CYWG;2009-09-11 08:00;CYWG 110800Z 24007KT 15SM -SHRA FEW027 OVC078 18/14 A3002 RMK CF2AC6 SLP165

CYWG;2009-09-11 09:00;CYWG 110900Z 22014KT 15SM SHRA BKN020 OVC070 17/15 A3001 RMK SC6AC2 SLP164

CYWG;2009-09-11 10:00;CYWG 111000Z 07008KT 10SM SHRA FEW010 OVC020 16/15 A3004 RMK SF2SC6 SLP172

CYWG;2009-09-11 11:00;CYWG 111100Z CCA 05002KT 10SM -SHRA FEW010 OVC020 16/16 A3004 RMK SF2SC6 RERA SLP174

CYWG;2009-09-11 11:40;CYWG 111140Z 00000KT 8SM -SHRA FEW008 BKN023 OVC035 15/ RMK SF2SC6SC1

CYWG;2009-09-11 12:00;CYWG 111200Z 09002KT 15SM -SHRA BKN023 BKN070 OVC250 16/15 A3002 RMK SC5AC2CI1 SLP168

CYWG;2009-09-11 12:28;CYWG 111228Z 33004KT 15SM BKN027 BKN070 OVC250 15/ RMK SC5AC2CI2

CYWG;2009-09-11 13:00;CYWG 111300Z 01002KT 15SM BKN070 OVC250 16/16 A3002 RMK AC6CI2 SLP166

CYWG;2009-09-11 13:45;CYWG 111345Z 34002KT 12SM -SHRA FEW030 BKN070 OVC250 16/ RMK SC2AC4CI2

CYWG;2009-09-11 14:00;CYWG 111400Z 34003KT 12SM -SHRA FEW030 BKN070 OVC250 16/16 A3002 RMK SC2AC5CI1 SLP166

CYWG;2009-09-11 15:00;CYWG 111500Z 36006KT 15SM -SHRA FEW025 OVC065 17/17 A3003 RMK SC2SC6 SLP170

CYWG;2009-09-11 16:00;CYWG 111600Z 03011KT 15SM FEW030 BKN075 OVC120 18/17 A3002 RMK SC2AC5AC2 SLP168

CYWG;2009-09-11 17:00;CYWG 111700Z 03013KT 15SM FEW020 BKN040 OVC080 18/17 A3003 RMK SF1SC4AC3 SLP172

CYWG;2009-09-11 17:23;CYWG 111723Z 04013KT 6SM -SHRA FEW015 BKN040 OVC070 19/ RMK SF2SC4AC2

CYWG;2009-09-11 18:00;CYWG 111800Z 03012KT 5SM -SHRA BR FEW009 OVC030 18/17 A3004 RMK SF2SC6 SLP174

CYWG;2009-09-11 18:28;CYWG 111828Z 03010G15KT 3SM SHRA BR OVC008 18/ RMK SC8

CYWG;2009-09-11 19:00;CYWG 111900Z 04011KT 3SM -SHRA BR BKN011 OVC032 18/18 A3004 RMK SC6SC2 RERA CIG RAG SLP176

CYWG;2009-09-11 19:42;CYWG 111942Z 04013G18KT 6SM -SHRA BR FEW008 BKN025 OVC059 18/ RMK SF2SC3SC2

CYWG;2009-09-11 20:00;CYWG 112000Z 03012G17KT 6SM -SHRA BR FEW008 BKN025 BKN059 OVC073 18/17 A3005 RMK SF2SC3SC2AC2 SLP178

CYWG;2009-09-11 20:36;CYWG 112036Z 04015KT 2SM -SHRA BR FEW008 BKN012 OVC047 18/ RMK SF2SF3SC3

CYWG;2009-09-11 21:00;CYWG 112100Z 03010G16KT 9SM -SHRA FEW008 BKN012 OVC044 18/17 A3005 RMK SF1SF5SC3 SLP179

CYWG;2009-09-11 21:18;CYWG 112118Z 02011KT 15SM FEW008 BKN014 OVC060 19/ RMK SF1SC4SC3

CYWG;2009-09-11 22:00;CYWG 112200Z 03011KT 15SM FEW008 OVC014 19/18 A3006 RMK SF2SF6 SLP181

CYWG;2009-09-11 22:42;CYWG 112242Z 02007KT 10SM -SHRA FEW014 OVC032 19/ RMK SF1SC7

CYWG;2009-09-11 23:00;CYWG 112300Z 01007KT 10SM -SHRA OVC032 19/18 A3006 RMK SC8 SLP183

CYWG;2009-09-12 00:00;CYWG 120000Z 01008KT 15SM -SHRA BKN022 BKN076 18/17 A3008 RMK SC6AC1 SLP189

CYWG;2009-09-12 00:16;CYWG 120016Z 01007KT 15SM BKN022 OVC070 18/ RMK SC6AC2

CYWG;2009-09-12 01:00;CYWG 120100Z 01006KT 15SM BKN029 OVC070 18/17 A3009 RMK SC6AC2 SLP192

CYWG;2009-09-12 02:00;CYWG 120200Z 01007KT 15SM BKN024 OVC070 18/17 A3010 RMK SC6AC2 SLP195

CYWG;2009-09-12 03:00;CYWG 120300Z 36009KT 15SM BKN027 OVC070 18/15 A3011 RMK SC6AC2 SLP199

CYWG;2009-09-12 03:14;CYWG 120314Z 36013KT 15SM -SHRA BKN027 OVC060 18/ RMK SC6SC2

CYWG;2009-09-12 04:00;CYWG 120400Z 02009KT 15SM -SHRA BKN027 OVC065 17/15 A3012 RMK SC5AC3 SLP202

CYWG;2009-09-12 05:00;CYWG 120500Z 36013KT 15SM SCT027 OVC042 17/15 A3012 RMK SC4SC4 SLP203

CYWG;2009-09-12 06:00;CYWG 120600Z 02010KT 15SM SCT029 OVC054 16/15 A3013 RMK SC4SC4 SLP206

CYWG;2009-09-12 07:00;CYWG 120700Z 02006KT 15SM SCT034 BKN049 OVC074 16/15 A3013 RMK SC3SC2AC2 SLP207

CYWG;2009-09-12 08:00;CYWG 120800Z 01008KT 15SM BKN016 OVC056 16/15 A3013 RMK SC6SC2 SLP206

CYWG;2009-09-12 09:00;CYWG 120900Z 01009KT 15SM OVC016 16/15 A3014 RMK SC8 CIG RAG SLP209

CYWG;2009-09-12 09:35;CYWG 120935Z 01007KT 15SM OVC014 16/ RMK SC8 CIG RAG

CYWG;2009-09-12 10:00;CYWG 121000Z 01008KT 15SM OVC012 16/15 A3016 RMK SC8 CIG RAG SLP215

CYWG;2009-09-12 11:00;CYWG 121100Z 02007KT 15SM OVC009 15/15 A3017 RMK SC8 CIG RAG SLP218

CYWG;2009-09-12 11:33;CYWG 121133Z 03004KT 15SM OVC010 15/ RMK SC8 CIG RAG

CYWG;2009-09-12 12:00;CYWG 121200Z 02006KT 15SM OVC004 16/15 A3017 RMK SF8 CIG RAG SLP221

CYWG;2009-09-12 12:41;CYWG 121241Z 01005KT 15SM OVC008 16/ RMK SF8 CIG RAG

CYWG;2009-09-12 13:00;CYWG 121300Z 36008KT 15SM OVC009 16/15 A3017 RMK SF8 CIG RAG SLP221

CYWG;2009-09-12 13:38;CYWG 121338Z 02009KT 15SM BKN010 16/ RMK SF6

CYWG;2009-09-12 14:00;CYWG 121400Z 02008KT 15SM BKN007 16/16 A3018 RMK SF7 SLP223

CYWG;2009-09-12 15:00;CYWG 121500Z 03009KT 15SM OVC007 18/17 A3019 RMK SF8 SLP224

CYWG;2009-09-12 16:00;CYWG 121600Z 02007KT 15SM BKN009 18/17 A3019 RMK SF7 SLP225

CYWG;2009-09-12 16:34;CYWG 121634Z 06005KT 15SM BKN010 BKN039 20/ RMK SC5SC2

CYWG;2009-09-12 17:00;CYWG 121700Z 06007KT 15SM SCT016 BKN039 20/17 A3019 RMK SC3SC4 SLP225

CYWG;2009-09-12 18:00;CYWG 121800Z 05005KT 15SM SCT024 BKN039 21/18 A3018 RMK SC3SC4 SLP223

CYWG;2009-09-12 19:00;CYWG 121900Z 05007KT 15SM SCT025 BKN039 21/17 A3017 RMK SC3SC4 SLP219

CYWG;2009-09-12 20:00;CYWG 122000Z 06004KT 15SM SCT026 BKN041 21/17 A3017 RMK SC3SC4 SLP218

CYWG;2009-09-12 21:00;CYWG 122100Z 05003KT 15SM FEW026 BKN041 21/18 A3016 RMK SC2SC5 SLP216

CYWG;2009-09-12 22:00;CYWG 122200Z 11005KT 15SM FEW028 BKN045 21/17 A3016 RMK SC2SC4 SLP214

CYWG;2009-09-12 23:00;CYWG 122300Z 16005KT 15SM FEW030 BKN051 21/18 A3015 RMK CU2SC4 SLP213

CYWG;2009-09-13 00:00;CYWG 130000Z 18003KT 15SM FEW051 BKN086 20/18 A3015 RMK SC2AC3 SLP213

CYWG;2009-09-13 01:00;CYWG 130100Z 17003KT 15SM FEW051 BKN085 BKN250 19/17 A3014 RMK SC2AC3CI0 SLP210

CYWG;2009-09-13 02:00;CYWG 130200Z 11003KT 15SM SCT040 BKN085 BKN250 18/18 A3014 RMK SC3AC2CI0 SLP210

CYWG;2009-09-13 03:00;CYWG 130300Z 00000KT 15SM SCT049 BKN091 15/15 A3015 RMK SC2AC2 SLP212

CYWG;2009-09-13 03:34;CYWG 130334Z 12003KT 8SM BKN011 BKN049 17/ RMK ST5SC1 BR

CYWG;2009-09-13 04:00;CYWG 130400Z 17003KT 10SM SCT010 BKN051 17/17 A3015 RMK ST3SC2 BR SLP214

CYWG;2009-09-13 05:00;CYWG 130500Z CCA 16003KT 6SM R36/2000FT/N BCFG FEW005 FEW024 16/16 A3015 RMK SF1SC1 SLP213

CYWG;2009-09-13 05:35;CYWG 130535Z 16003KT 2SM R13/1800V2200FT/N R36/1200V1800FT/N BCFG SKC 16/ RMK FG2 VSBY W QUAD 1/2

CYWG;2009-09-13 05:47;CYWG 130547Z 17003KT 1SM R13/1100V1800FT/N R36/1000V1600FT/N BCFG SCT001 16/ RMK FG1SF1 VSBY W QUAD 1/2 OVR THR RWY 36 1/8 N-E 2

CYWG;2009-09-13 06:00;CYWG 130600Z 17003KT 3/4SM R13/1200FT/N R36/1000FT/N BR SCT001 16/16 A3015 RMK FG2SF1 VSBY W QUAD 1/4 NE QUAD 2 VSBY DTRTG RPDLY FM W SLP212

CYWG;2009-09-13 06:09;CYWG 130609Z 18003KT 1/4SM R13/1200FT/N R36/1400FT/N FG BKN001 15/ RMK FG2SF1 VSBY NE QUAD 5/8

CYWG;2009-09-13 06:23;CYWG 130623Z 19003KT 1/8SM R13/1600FT/N R36/1100FT/N FG BKN001 15/ RMK FG3SF2 VSBY NE QUAD 1/4

CYWG;2009-09-13 07:00;CYWG 130700Z 19002KT 1/8SM R13/1200V2000FT/U R36/1200FT/N FG BKN001 15/15 A3015 RMK FG6SF1 SLP213

CYWG;2009-09-13 08:00;CYWG 130800Z 17003KT 1/4SM R13/1800FT/N R36/1200FT/N FG BKN001 14/14 A3014 RMK FG5SF1 SLP210

CYWG;2009-09-13 08:30;CYWG 130830Z 20002KT 1/2SM R13/3000FT/N R36/5000FT/N FG BKN001 15/ RMK FG3SF2

CYWG;2009-09-13 09:00;CYWG 130900Z 17003KT 5/8SM R13/P6000FT/D R36/4000V5500FT/U BR OVC002 16/16 A3014 RMK FG3SF5 VSBY NE 3/4 SLP209

CYWG;2009-09-13 09:28;CYWG 130928Z 17003KT 1SM R13/P6000FT/U R36/P6000FT/U BR OVC002 16/ RMK FG2SF6 VSBY W 3/4

CYWG;2009-09-13 10:00;CYWG 131000Z 17004KT 1/2SM R13/P6000FT/D R36/3500VP6000FT/D FG BKN001 15/15 A3014 RMK FG3SF2 VSBY NE QUAD 1/4 NW 1 SLP208

CYWG;2009-09-13 10:10;CYWG 131010Z 17004KT 1/4SM R13/3000VP6000FT/D R36/2600V4000FT/D FG BKN001 15/ RMK FG5SF1

CYWG;2009-09-13 11:00;CYWG 131100Z 19004KT 1/4SM R13/2600FT/N R36/2000FT/D FG BKN007 15/15 A3014 RMK FG4SF1 SLP209

CYWG;2009-09-13 11:13;CYWG 131113Z 19003KT 1/8SM R13/1800FT/N R36/1800FT/N FG SKC 15/ RMK FG5

CYWG;2009-09-13 12:00;CYWG 131200Z 21003KT 1/8SM R13/1600FT/N R36/1400FT/N FG SKC 14/14 A3015 RMK FG6 SLP211

CYWG;2009-09-13 13:00;CYWG 131300Z 18003KT 1/8SM R13/1200FT/N R36/0900FT/N FG SKC 14/14 A3015 RMK FG6 SLP211

CYWG;2009-09-13 14:00;CYWG 131400Z 20002KT 1/8SM R13/1400V2200FT/N R36/1400FT/N FG SKC 15/15 A3015 RMK FG7 SLP213

CYWG;2009-09-13 14:36;CYWG 131436Z 21002KT 1/4SM R13/2800V4500FT/U R36/1400V2200FT/U FG SKC 16/ RMK FG6

CYWG;2009-09-13 14:47;CYWG 131447Z 20003KT 1/2SM R13/4500VP6000FT/U R36/3500FT/N FG SKC 16/ RMK FG6

CYWG;2009-09-13 14:54;CYWG 131454Z 21003KT 3/4SM R13/P6000FT/U R36/3500VP6000FT/U BR BKN002 16/ RMK FG3SF3

CYWG;2009-09-13 15:00;CYWG 131500Z 20004KT 1 3/4SM BR BKN002 16/16 A3016 RMK FG1SF6 SLP215

CYWG;2009-09-13 15:07;CYWG 131507Z 21004KT 3SM BR BKN002 16/ RMK SF5

CYWG;2009-09-13 15:22;CYWG 131522Z 19003KT 7SM BKN003 16/ RMK SF6

CYWG;2009-09-13 15:43;CYWG 131543Z 18003KT 10SM BKN004 17/ RMK SF3 BR

CYWG;2009-09-13 16:00;CYWG 131600Z 21003KT 13SM SCT006 17/17 A3015 RMK SC2 BR SLP213

CYWG;2009-09-13 17:00;CYWG 131700Z 18005KT 15SM FEW013 21/17 A3014 RMK SC1 SLP209

CYWG;2009-09-13 18:00;CYWG 131800Z 23004KT 15SM SCT023 22/17 A3012 RMK CU4 SLP201

CYWG;2009-09-13 19:00;CYWG 131900Z 26004KT 15SM SCT033 23/17 A3010 RMK CU4 SLP196

CYWG;2009-09-13 20:00;CYWG 132000Z 20011KT 15SM SCT036 24/17 A3008 RMK CU3 SLP189

CYWG;2009-09-13 21:00;CYWG 132100Z 24003KT 15SM FEW041 25/16 A3006 RMK CU2 SLP182

CYWG;2009-09-13 22:00;CYWG 132200Z 23006KT 15SM FEW048 25/15 A3005 RMK CU2 SLP177

CYWG;2009-09-13 23:00;CYWG 132300Z 21007KT 15SM FEW056 24/15 A3004 RMK CU1 SLP174

CYWG;2009-09-14 00:00;CYWG 140000Z 18006KT 15SM FEW055 22/17 A3003 RMK CU1 SLP172

CYWG;2009-09-14 01:00;CYWG 140100Z 16005KT 15SM FEW250 20/16 A3003 RMK CI0 SLP171

CYWG;2009-09-14 02:00;CYWG 140200Z 15005KT 15SM FEW250 18/15 A3003 RMK CI0 SLP171

CYWG;2009-09-14 03:00;CYWG 140300Z 17005KT 15SM SKC 17/15 A3003 RMK SLP170

CYWG;2009-09-14 04:00;CYWG 140400Z 18007KT 15SM SKC 17/15 A3003 RMK SLP170

CYWG;2009-09-14 05:00;CYWG 140500Z 18007KT 15SM SKC 17/15 A3002 RMK SLP169

CYWG;2009-09-14 06:00;CYWG 140600Z 18007KT 15SM SKC 17/15 A3002 RMK SLP168

CYWG;2009-09-14 07:00;CYWG 140700Z 18006KT 15SM SCT200 16/14 A3003 RMK CI2 SLP170

CYWG;2009-09-14 08:00;CYWG 140800Z 18006KT 15SM FEW200 16/14 A3003 RMK CI2 SLP169

CYWG;2009-09-14 09:00;CYWG 140900Z 19007KT 15SM SKC 16/14 A3002 RMK SLP167

CYWG;2009-09-14 10:00;CYWG 141000Z 17007KT 15SM FEW200 15/14 A3002 RMK CI1 TR CI SLP168

CYWG;2009-09-14 11:00;CYWG 141100Z 17005KT 15SM FEW100 FEW250 14/13 A3002 RMK AC2CI0 SLP167

CYWG;2009-09-14 12:00;CYWG 141200Z 14005KT 15SM FEW100 FEW250 14/13 A3003 RMK AC1CI1 SLP170

CYWG;2009-09-14 13:00;CYWG 141300Z 13007KT 15SM FEW100 FEW250 16/14 A3003 RMK AC1CI1 SLP170

CYWG;2009-09-14 14:00;CYWG 141400Z 14005KT 15SM FEW100 FEW250 18/15 A3003 RMK AC1CI1 SLP173

CYWG;2009-09-14 15:00;CYWG 141500Z 12008KT 15SM FEW020 FEW250 20/16 A3003 RMK CF1CI1 SLP169

CYWG;2009-09-14 16:00;CYWG 141600Z 13007KT 15SM SCT250 22/17 A3003 RMK CI1 SLP169

CYWG;2009-09-14 17:00;CYWG 141700Z 14012KT 15SM FEW250 24/18 A3001 RMK CI1 SLP165

CYWG;2009-09-14 18:00;CYWG 141800Z 14010KT 15SM FEW250 25/19 A3000 RMK CI1 SLP161

CYWG;2009-09-14 19:00;CYWG 141900Z 18011KT 15SM FEW038 FEW250 26/18 A3000 RMK CU1CI1 TR CU SLP159

CYWG;2009-09-14 20:00;CYWG 142000Z 20012KT 15SM FEW040 SCT250 27/18 A3000 RMK CU2CI1 SLP159

CYWG;2009-09-14 21:00;CYWG 142100Z 17009KT 15SM FEW043 SCT250 26/18 A2999 RMK CU2CI1 SLP155

CYWG;2009-09-14 22:00;CYWG 142200Z 15008KT 15SM FEW045 SCT250 26/18 A2998 RMK CU1CI2 SLP154

CYWG;2009-09-14 23:00;CYWG 142300Z 16007KT 15SM FEW045 SCT250 25/18 A2998 RMK CU1CI1 SLP154

CYWG;2009-09-15 00:00;CYWG 150000Z 14009KT 15SM FEW250 24/18 A2998 RMK CI1 SLP155

CYWG;2009-09-15 01:00;CYWG 150100Z 15007KT 15SM SCT250 21/17 A2999 RMK CI1 SLP156

CYWG;2009-09-15 02:00;CYWG 150200Z 14007KT 15SM SCT250 21/17 A2999 RMK CI1 SLP159

CYWG;2009-09-15 03:00;CYWG 150300Z 14007KT 15SM SCT250 20/17 A3000 RMK CI1 SLP159

CYWG;2009-09-15 04:00;CYWG 150400Z 15006KT 15SM FEW250 20/17 A3001 RMK CI1 SLP164

CYWG;2009-09-15 05:00;CYWG 150500Z 15006KT 15SM FEW250 19/17 A3003 RMK CI1 SLP168

CYWG;2009-09-15 06:00;CYWG 150600Z 14006KT 15SM SCT250 18/16 A3003 RMK CI1 SLP170

CYWG;2009-09-15 07:00;CYWG 150700Z 15005KT 15SM FEW100 SCT250 18/16 A3005 RMK AC2CI1 SLP175

CYWG;2009-09-15 08:00;CYWG 150800Z 14005KT 15SM FEW074 SCT250 17/16 A3006 RMK AC2CI1 SLP179

CYWG;2009-09-15 09:00;CYWG 150900Z 15006KT 15SM SCT074 BKN240 17/16 A3006 RMK AC3CI1 SLP180

CYWG;2009-09-15 10:00;CYWG 151000Z 15006KT 15SM BKN075 BKN240 17/16 A3007 RMK AC5CI1 SLP182

CYWG;2009-09-15 11:00;CYWG 151100Z 15007KT 15SM BKN100 17/16 A3007 RMK AC6 SLP184

CYWG;2009-09-15 12:00;CYWG 151200Z 14007KT 10SM SCT100 16/15 A3008 RMK AC3 BR SLP188

CYWG;2009-09-15 13:00;CYWG 151300Z 16007KT 10SM FEW100 17/15 A3009 RMK AC1 BR SLP192

CYWG;2009-09-15 14:00;CYWG 151400Z 16008KT 15SM FEW100 18/16 A3010 RMK AC1 SLP194

CYWG;2009-09-15 15:00;CYWG 151500Z 16006KT 15SM FEW250 21/17 A3012 RMK CI0 SLP199

CYWG;2009-09-15 16:00;CYWG 151600Z 18006KT 15SM FEW250 22/17 A3012 RMK CI1 SLP202

CYWG;2009-09-15 17:00;CYWG 151700Z 17006KT 15SM FEW250 24/18 A3013 RMK CI1 SLP203

CYWG;2009-09-15 18:00;CYWG 151800Z 16012KT 15SM FEW032 FEW250 26/18 A3012 RMK CU1CI1 SLP199

CYWG;2009-09-15 19:00;CYWG 151900Z 18014KT 15SM FEW043 FEW250 26/17 A3011 RMK CF1CI0 SLP198

CYWG;2009-09-15 20:00;CYWG 152000Z 17013KT 15SM FEW043 FEW250 26/17 A3011 RMK CF1CI1 CF TR SLP196

CYWG;2009-09-15 21:00;CYWG 152100Z 18011KT 15SM FEW250 26/17 A3011 RMK CI0 SLP197

CYWG;2009-09-15 22:00;CYWG 152200Z 16010KT 15SM FEW250 26/17 A3012 RMK CI0 SLP199

CYWG;2009-09-15 23:00;CYWG 152300Z 18009KT 15SM FEW250 26/17 A3012 RMK CI0 SLP199

CYWG;2009-09-16 00:00;CYWG 160000Z 17007KT 15SM SKC 24/17 A3012 RMK SLP201

CYWG;2009-09-16 01:00;CYWG 160100Z 18006KT 15SM SKC 21/17 A3013 RMK SLP204

CYWG;2009-09-16 02:00;CYWG 160200Z 17007KT 15SM SKC 20/17 A3014 RMK SLP207

CYWG;2009-09-16 03:00;CYWG 160300Z 17008KT 15SM SKC 20/17 A3014 RMK SLP207

CYWG;2009-09-16 04:00;CYWG 160400Z 18008KT 15SM SKC 21/17 A3014 RMK SLP208

CYWG;2009-09-16 05:00;CYWG 160500Z 18007KT 15SM SKC 19/16 A3014 RMK SLP208

CYWG;2009-09-16 06:00;CYWG 160600Z 19008KT 15SM SKC 19/16 A3014 RMK SLP207

CYWG;2009-09-16 07:00;CYWG 160700Z 18008KT 15SM SKC 18/16 A3014 RMK SLP208

CYWG;2009-09-16 08:00;CYWG 160800Z 19008KT 15SM FEW200 18/16 A3015 RMK CI0 SLP209

CYWG;2009-09-16 09:00;CYWG 160900Z 19007KT 15SM SKC 18/15 A3015 RMK SLP209

CYWG;2009-09-16 10:00;CYWG 161000Z 19009KT 15SM SKC 17/15 A3014 RMK SLP206

CYWG;2009-09-16 11:00;CYWG 161100Z 19009KT 10SM SKC 17/15 A3014 RMK BR SLP208

CYWG;2009-09-16 12:00;CYWG 161200Z 19008KT 6SM BR BKN250 17/15 A3014 RMK CI3 SLP209

CYWG;2009-09-16 13:00;CYWG 161300Z CCA 20008KT 6SM BR SCT250 17/15 A3014 RMK CI2 SLP208

CYWG;2009-09-16 14:00;CYWG 161400Z 21008KT 10SM FEW250 18/16 A3014 RMK CI1 BR SLP207

CYWG;2009-09-16 15:00;CYWG 161500Z 24006KT 12SM FEW080 SCT250 20/16 A3015 RMK AC2CI0 BR SLP210

CYWG;2009-09-16 16:00;CYWG 161600Z 25004KT 15SM BKN057 BKN250 21/17 A3015 RMK SC5CI0 SLP210

CYWG;2009-09-16 17:00;CYWG 161700Z 23003KT 15SM BKN057 22/18 A3015 RMK SC6 SLP210

CYWG;2009-09-16 18:00;CYWG 161800Z 00000KT 15SM FEW057 SCT250 24/17 A3014 RMK SC2CI1 SLP208

CYWG;2009-09-16 19:00;CYWG 161900Z 31008KT 15SM FEW094 FEW250 26/17 A3012 RMK AC1CI1 SLP202

CYWG;2009-09-16 20:00;CYWG 162000Z 31010KT 15SM FEW080 FEW250 27/15 A3012 RMK AC1CI1 SLP200

CYWG;2009-09-16 21:00;CYWG 162100Z 31011KT 15SM FEW093 FEW250 27/15 A3011 RMK AC1CI1 SLP196

CYWG;2009-09-16 22:00;CYWG 162200Z 32013KT 15SM FEW072 FEW250 26/14 A3011 RMK AC1CI0 SLP197

CYWG;2009-09-16 23:00;CYWG 162300Z 32008KT 15SM FEW075 FEW250 25/15 A3011 RMK AC1CI0 SLP196

CYWG;2009-09-17 00:00;CYWG 170000Z 33008KT 15SM FEW250 22/16 A3012 RMK CI0 SLP200

CYWG;2009-09-17 01:00;CYWG 170100Z 30005KT 15SM FEW250 19/15 A3011 RMK CI0 SLP198

CYWG;2009-09-17 02:00;CYWG 170200Z 28006KT 15SM FEW250 19/15 A3011 RMK CI0 SLP198

CYWG;2009-09-17 03:00;CYWG 170300Z 30006KT 15SM SKC 16/14 A3011 RMK SLP200

CYWG;2009-09-17 04:00;CYWG 170400Z 33005KT 15SM SKC 16/14 A3012 RMK SLP201

CYWG;2009-09-17 05:00;CYWG 170500Z 35004KT 15SM SKC 14/13 A3011 RMK SLP200

CYWG;2009-09-17 06:00;CYWG 170600Z 00000KT 15SM FEW076 BKN240 15/14 A3012 RMK AC2CI1 SLP201

CYWG;2009-09-17 07:00;CYWG 170700Z 00000KT 15SM FEW075 BKN240 13/13 A3012 RMK AC2CI1 SLP202

CYWG;2009-09-17 08:00;CYWG 170800Z 25002KT 15SM FEW075 BKN240 12/12 A3013 RMK AC2CI2 SLP205

CYWG;2009-09-17 09:00;CYWG 170900Z 27004KT 15SM FEW075 BKN240 12/12 A3013 RMK AC1CI2 SLP206

CYWG;2009-09-17 10:00;CYWG 171000Z 32005KT 15SM FEW084 SCT240 11/11 A3014 RMK AC1CI1 SLP209

CYWG;2009-09-17 11:00;CYWG 171100Z 35003KT 15SM FEW240 11/11 A3014 RMK CI0 SLP209

CYWG;2009-09-17 12:00;CYWG 171200Z 00000KT 15SM FEW120 SCT240 11/11 A3015 RMK AC2CI0 SLP213

CYWG;2009-09-17 13:00;CYWG 171300Z 00000KT 15SM FEW069 FEW120 BKN240 13/13 A3016 RMK AC1AC1CI0 SLP215

CYWG;2009-09-17 14:00;CYWG 171400Z 00000KT 15SM FEW062 SCT240 17/16 A3016 RMK SC2CI0 SLP215

CYWG;2009-09-17 15:00;CYWG 171500Z 07002KT 15SM SCT060 BKN240 21/16 A3017 RMK SC3CI0 SLP218

CYWG;2009-09-17 16:00;CYWG 171600Z 08002KT 15SM FEW060 FEW120 FEW240 23/17 A3016 RMK SC1AC1CI0 SC TR SLP217

CYWG;2009-09-17 17:00;CYWG 171700Z 19004KT 15SM FEW120 FEW240 24/16 A3016 RMK AC1CI0 AC TR SLP216

CYWG;2009-09-17 18:00;CYWG 171800Z 17002KT 15SM FEW120 FEW240 25/16 A3015 RMK AC1CI0 AC TR SLP210

CYWG;2009-09-17 19:00;CYWG 171900Z 14004KT 15SM FEW072 FEW240 25/16 A3013 RMK AC2CI0 SLP206

CYWG;2009-09-17 20:00;CYWG 172000Z 13003KT 15SM FEW076 FEW240 26/17 A3012 RMK AC2CI0 SLP202

CYWG;2009-09-17 21:00;CYWG 172100Z 00000KT 15SM SCT071 BKN240 27/15 A3012 RMK AC4CI0 SLP200

CYWG;2009-09-17 22:00;CYWG 172200Z 00000KT 15SM SCT070 BKN240 26/15 A3010 RMK AC4CI0 SLP196

CYWG;2009-09-17 23:00;CYWG 172300Z 10004KT 15SM FEW071 FEW240 25/17 A3010 RMK AC2CI0 SLP194

CYWG;2009-09-18 00:00;CYWG 180000Z 10006KT 15SM FEW071 FEW240 23/16 A3011 RMK AC2CI0 SLP198

CYWG;2009-09-18 01:00;CYWG 180100Z 09008KT 15SM BKN065 BKN240 22/16 A3011 RMK SC6CI0 SLP199

CYWG;2009-09-18 02:00;CYWG 180200Z 08006KT 15SM FEW065 21/16 A3012 RMK SC2 SLP201

CYWG;2009-09-18 03:00;CYWG 180300Z 10006KT 15SM FEW077 19/16 A3012 RMK AC1 SLP200

CYWG;2009-09-18 04:00;CYWG 180400Z 12005KT 15SM FEW073 18/15 A3012 RMK AC1 SLP200

CYWG;2009-09-18 05:00;CYWG 180500Z 12008KT 15SM FEW076 19/15 A3012 RMK AC1 SLP200

CYWG;2009-09-18 06:00;CYWG 180600Z 14007KT 15SM FEW066 18/16 A3012 RMK AC1 SLP200

CYWG;2009-09-18 07:00;CYWG 180700Z 16007KT 15SM FEW066 18/15 A3012 RMK AC1 SLP201

CYWG;2009-09-18 08:00;CYWG 180800Z 15007KT 15SM FEW067 17/15 A3012 RMK AC1 SLP201

CYWG;2009-09-18 09:00;CYWG 180900Z 15007KT 15SM FEW071 16/15 A3012 RMK AC1 SLP200

CYWG;2009-09-18 10:00;CYWG 181000Z 16005KT 15SM FEW070 15/14 A3012 RMK AC1 SLP201

CYWG;2009-09-18 11:00;CYWG 181100Z 17006KT 15SM SKC 15/14 A3012 RMK SLP201

CYWG;2009-09-18 12:00;CYWG 181200Z 16007KT 10SM FEW073 15/14 A3011 RMK AC1 TR AC SLP199

CYWG;2009-09-18 13:00;CYWG 181300Z 16007KT 15SM FEW073 FEW250 16/15 A3012 RMK AC1CI1 TR AC CI SLP203

CYWG;2009-09-18 14:00;CYWG 181400Z 17010G16KT 15SM FEW094 18/15 A3012 RMK AC1 SLP200

CYWG;2009-09-18 15:00;CYWG 181500Z 17011KT 15SM FEW071 20/16 A3011 RMK AC1 SLP199

CYWG;2009-09-18 16:00;CYWG 181600Z 17016KT 15SM FEW071 22/15 A3011 RMK AC1 SLP197

CYWG;2009-09-18 17:00;CYWG 181700Z 17013G18KT 15SM SKC 24/16 A3009 RMK SLP193

CYWG;2009-09-18 18:00;CYWG 181800Z 17016KT 15SM SKC 25/16 A3008 RMK SLP185

CYWG;2009-09-18 19:00;CYWG 181900Z 17019KT 15SM FEW250 26/16 A3006 RMK CI1 SLP180

CYWG;2009-09-18 20:00;CYWG 182000Z 17017KT 15SM FEW250 27/16 A3005 RMK CI1 SLP175

CYWG;2009-09-18 21:00;CYWG 182100Z 18014G21KT 15SM FEW250 28/17 A3002 RMK CI1 SLP167

CYWG;2009-09-18 22:00;CYWG 182200Z 19016KT 15SM FEW250 28/16 A3001 RMK CI1 SLP164

CYWG;2009-09-18 23:00;CYWG 182300Z 18013KT 15SM FEW250 27/16 A3001 RMK CI1 SLP162

CYWG;2009-09-19 00:00;CYWG 190000Z 17009KT 15SM FEW250 24/17 A3000 RMK CI1 SLP162

CYWG;2009-09-19 01:00;CYWG 190100Z 16008KT 15SM FEW250 22/16 A3001 RMK CI1 SLP164

CYWG;2009-09-19 02:00;CYWG 190200Z 16009KT 15SM FEW250 21/17 A3001 RMK CI1 SLP164

CYWG;2009-09-19 03:00;CYWG 190300Z 18010KT 15SM FEW250 21/17 A3000 RMK CI1 SLP160

CYWG;2009-09-19 04:00;CYWG 190400Z 17010KT 15SM FEW250 20/16 A3000 RMK CI2 SLP160

CYWG;2009-09-19 05:00;CYWG 190500Z 17012KT 15SM FEW250 20/16 A2998 RMK CI2 SLP154

CYWG;2009-09-19 06:00;CYWG 190600Z 18012KT 15SM FEW250 20/16 A2998 RMK CI2 SLP151

CYWG;2009-09-19 07:00;CYWG 190700Z 18011KT 15SM FEW250 19/16 A2997 RMK CI1 SLP149

CYWG;2009-09-19 08:00;CYWG 190800Z 18011KT 15SM FEW250 18/15 A2996 RMK CI1 SLP146

CYWG;2009-09-19 09:00;CYWG 190900Z 18009KT 15SM FEW070 17/15 A2996 RMK AC2 SLP146

CYWG;2009-09-19 10:00;CYWG 191000Z 18009KT 15SM SKC 17/15 A2996 RMK SLP146

CYWG;2009-09-19 11:00;CYWG 191100Z 18009KT 15SM SKC 16/14 A2995 RMK SLP142

CYWG;2009-09-19 12:00;CYWG 191200Z 18009KT 15SM FEW075 FEW250 15/14 A2995 RMK AC1CI1 SLP142

CYWG;2009-09-19 13:00;CYWG 191300Z 18009KT 15SM FEW250 16/14 A2995 RMK CI0 SLP143

CYWG;2009-09-19 14:00;CYWG 191400Z 19012KT 15SM FEW250 17/15 A2994 RMK CI0 SLP141

CYWG;2009-09-19 15:00;CYWG 191500Z 20011KT 15SM SKC 19/15 A2994 RMK SLP141

CYWG;2009-09-19 16:00;CYWG 191600Z 20010KT 15SM SKC 22/15 A2994 RMK SLP141

CYWG;2009-09-19 17:00;CYWG 191700Z 19011KT 15SM SKC 24/16 A2993 RMK SLP138

CYWG;2009-09-19 18:00;CYWG 191800Z 18011KT 15SM SKC 26/17 A2992 RMK SLP130

CYWG;2009-09-19 19:00;CYWG 191900Z CCA 19014KT 12SM SCT250 27/16 A2990 RMK CI0 HZ SLP125

CYWG;2009-09-19 20:00;CYWG 192000Z 18013KT 15SM FEW250 29/16 A2988 RMK CI0 HZ SLP119

CYWG;2009-09-19 21:00;CYWG 192100Z 19013KT 15SM SKC 30/15 A2987 RMK SLP112

CYWG;2009-09-19 22:00;CYWG 192200Z 20014G19KT 15SM SKC 30/13 A2986 RMK SLP109

CYWG;2009-09-19 23:00;CYWG 192300Z 19012KT 15SM SKC 29/13 A2985 RMK SLP107

CYWG;2009-09-20 00:00;CYWG 200000Z 19012KT 15SM FEW250 26/13 A2985 RMK CI0 SLP108

CYWG;2009-09-20 01:00;CYWG 200100Z 19011G16KT 15SM FEW250 24/13 A2984 RMK CI1 SLP107

CYWG;2009-09-20 02:00;CYWG 200200Z 18012KT 15SM SKC 23/13 A2985 RMK SLP109

CYWG;2009-09-20 03:00;CYWG 200300Z 19013KT 15SM SKC 22/15 A2985 RMK SLP108

CYWG;2009-09-20 04:00;CYWG 200400Z 18012KT 15SM SKC 21/15 A2986 RMK SLP111

CYWG;2009-09-20 05:00;CYWG 200500Z 18010G16KT 15SM SKC 20/15 A2985 RMK SLP109

CYWG;2009-09-20 06:00;CYWG 200600Z 19012G17KT 15SM SKC 20/14 A2985 RMK SLP108

CYWG;2009-09-20 07:00;CYWG 200700Z 19014KT 15SM SKC 19/13 A2984 RMK SLP105

CYWG;2009-09-20 08:00;CYWG 200800Z 19013KT 15SM SKC 18/13 A2983 RMK SLP103

CYWG;2009-09-20 09:00;CYWG 200900Z 18010KT 15SM SKC 16/13 A2982 RMK SLP098

CYWG;2009-09-20 10:00;CYWG 201000Z 18011KT 15SM SKC 16/13 A2981 RMK SLP094

CYWG;2009-09-20 11:00;CYWG 201100Z 18012KT 15SM SKC 16/13 A2980 RMK SLP090

CYWG;2009-09-20 12:00;CYWG 201200Z 17014KT 15SM SKC 15/12 A2979 RMK SLP089

CYWG;2009-09-20 13:00;CYWG 201300Z 18015KT 15SM FEW260 16/12 A2979 RMK CI1 SLP087

CYWG;2009-09-20 14:00;CYWG 201400Z 18016G21KT 15SM FEW260 17/13 A2978 RMK CI1 SLP085

CYWG;2009-09-20 15:00;CYWG 201500Z 18017G24KT 15SM FEW260 19/13 A2977 RMK CI1 SLP082

CYWG;2009-09-20 16:00;CYWG 201600Z 18021KT 15SM FEW260 21/12 A2976 RMK CI1 SLP078

CYWG;2009-09-20 17:00;CYWG 201700Z 18021G29KT 15SM FEW260 23/12 A2974 RMK CI1 SLP073

CYWG;2009-09-20 18:00;CYWG 201800Z 18023G31KT 10SM SCT260 24/11 A2974 RMK CI2 SLP069

CYWG;2009-09-20 19:00;CYWG 201900Z 17028KT 15SM FEW140 BKN260 24/11 A2970 RMK AC1CI2 SLP058

CYWG;2009-09-20 20:00;CYWG 202000Z 18022G33KT 15SM FEW140 BKN260 25/11 A2969 RMK AC1CI2 SLP053

CYWG;2009-09-20 21:00;CYWG 202100Z 17022G32KT 15SM BKN260 25/10 A2967 RMK CI2 SLP047

CYWG;2009-09-20 22:00;CYWG 202200Z 17017G29KT 15SM BKN260 24/10 A2966 RMK CI2 SLP045

CYWG;2009-09-20 23:00;CYWG 202300Z 17014G21KT 15SM BKN260 23/11 A2966 RMK CI2 SLP045

CYWG;2009-09-21 00:00;CYWG 210000Z 17013KT 15SM BKN260 22/11 A2967 RMK CI2 SLP047

CYWG;2009-09-21 01:00;CYWG 210100Z 16015KT 15SM FEW080 BKN260 21/12 A2966 RMK AC1CI2 SLP045

CYWG;2009-09-21 02:00;CYWG 210200Z 17015G21KT 15SM FEW080 BKN260 21/12 A2966 RMK AC1CI2 SLP045

CYWG;2009-09-21 03:00;CYWG 210300Z 17014KT 15SM FEW071 BKN260 20/13 A2965 RMK AC2CI2 SLP043

CYWG;2009-09-21 04:00;CYWG 210400Z 18015KT 15SM FEW071 BKN260 20/12 A2965 RMK AC2CI2 SLP042

CYWG;2009-09-21 05:00;CYWG 210500Z 18017KT 15SM SCT059 19/12 A2965 RMK SC2 SLP041

CYWG;2009-09-21 06:00;CYWG 210600Z 19016KT 15SM SCT063 19/12 A2965 RMK SC2 SLP039

CYWG;2009-09-21 07:00;CYWG 210700Z 20011KT 15SM FEW085 18/13 A2965 RMK AC2 SLP039

CYWG;2009-09-21 08:00;CYWG 210800Z 20011KT 15SM FEW250 17/13 A2966 RMK CI1 SLP042

CYWG;2009-09-21 09:00;CYWG 210900Z 21004KT 15SM FEW250 15/12 A2964 RMK CI1 SLP038

CYWG;2009-09-21 10:00;CYWG 211000Z 22007KT 15SM FEW011 BKN028 15/13 A2967 RMK SC2SC3 SLP048

CYWG;2009-09-21 10:42;CYWG 211042Z 25006KT 15SM BKN011 16/ RMK SC6

CYWG;2009-09-21 11:00;CYWG 211100Z 24007KT 15SM BKN011 16/14 A2968 RMK SC7 SLP052

CYWG;2009-09-21 12:00;CYWG 211200Z 27003KT 15SM OVC010 16/15 A2968 RMK SC8 SLP053

CYWG;2009-09-21 13:00;CYWG 211300Z 34007KT 10SM BKN015 BKN095 16/15 A2970 RMK SC5AS2 SLP060

CYWG;2009-09-21 14:00;CYWG 211400Z 35007KT 10SM BKN010 OVC089 16/15 A2972 RMK SC6AS2 SLP066

CYWG;2009-09-21 15:00;CYWG 211500Z 34013KT 10SM OVC012 17/15 A2974 RMK SC8 SLP074

CYWG;2009-09-21 16:00;CYWG 211600Z 35013G19KT 10SM OVC012 16/14 A2977 RMK SC8 SLP081

CYWG;2009-09-21 16:51;CYWG 211651Z 34011G19KT 10SM -SHRA OVC012 16/ RMK SC8 CVCTV CLD EMBD

CYWG;2009-09-21 17:00;CYWG 211700Z 34015KT 8SM -SHRA OVC012 16/14 A2980 RMK SC8 CVCTV CLD EMBD SLP091

CYWG;2009-09-21 18:00;CYWG 211800Z 34012KT 10SM -SHRA OVC012 16/15 A2983 RMK SC8 CVCTV CLD EMBD SLP102

CYWG;2009-09-21 19:00;CYWG 211900Z 34014KT 10SM -SHRA FEW007 OVC012 16/15 A2983 RMK SF2SC6 SLP105

CYWG;2009-09-21 19:22;CYWG 211922Z 34014KT 15SM OVC012 16/ RMK SC8

CYWG;2009-09-21 20:00;CYWG 212000Z 35013KT 15SM OVC009 16/15 A2985 RMK SC8 SLP110

CYWG;2009-09-21 21:00;CYWG 212100Z 35012G19KT 15SM OVC013 16/14 A2987 RMK SC8 SLP119

CYWG;2009-09-21 22:00;CYWG 212200Z 35010G15KT 15SM FEW013 OVC021 16/14 A2990 RMK SF2SC6 SLP127

CYWG;2009-09-21 23:00;CYWG 212300Z 35015KT 15SM OVC019 16/13 A2992 RMK SC8 SLP134

CYWG;2009-09-22 00:00;CYWG 220000Z 34015KT 15SM OVC017 15/13 A2995 RMK SC8 SLP145

CYWG;2009-09-22 01:00;CYWG 220100Z 35014KT 15SM OVC015 14/13 A2997 RMK SC8 SLP151

CYWG;2009-09-22 02:00;CYWG 220200Z 35013KT 15SM OVC024 14/12 A2999 RMK SC8 SLP160

CYWG;2009-09-22 03:00;CYWG 220300Z 35013G18KT 15SM OVC033 15/11 A3001 RMK SC8 SLP165

CYWG;2009-09-22 04:00;CYWG 220400Z 34012KT 15SM OVC034 14/11 A3002 RMK SC8 SLP168

CYWG;2009-09-22 05:00;CYWG 220500Z 34011G16KT 15SM OVC036 14/11 A3003 RMK SC8 SLP173

CYWG;2009-09-22 06:00;CYWG 220600Z 35010KT 15SM OVC033 14/11 A3004 RMK SC8 SLP177

CYWG;2009-09-22 07:00;CYWG 220700Z 33011KT 15SM OVC037 14/10 A3006 RMK SC8 SLP182

CYWG;2009-09-22 08:00;CYWG 220800Z 34009KT 15SM OVC035 13/10 A3006 RMK SC8 SLP181

CYWG;2009-09-22 09:00;CYWG 220900Z 34009KT 15SM BKN040 12/09 A3006 RMK SC6 SLP183

CYWG;2009-09-22 10:00;CYWG 221000Z 33004KT 15SM FEW040 08/08 A3008 RMK SC2 SLP190

CYWG;2009-09-22 11:00;CYWG 221100Z 34005KT 15SM SKC 08/07 A3009 RMK SLP192

CYWG;2009-09-22 12:00;CYWG 221200Z 33007KT 15SM FEW070 07/06 A3009 RMK AC1 SLP196

CYWG;2009-09-22 13:00;CYWG 221300Z 33006KT 15SM FEW070 FEW260 07/07 A3010 RMK AC1CI1 SLP200

CYWG;2009-09-22 14:00;CYWG 221400Z 32005KT 15SM BKN260 11/09 A3012 RMK CI1 SLP204

CYWG;2009-09-22 15:00;CYWG 221500Z 33009KT 15SM BKN260 14/09 A3012 RMK CI2 SLP202

CYWG;2009-09-22 16:00;CYWG 221600Z 31009KT 15SM FEW040 BKN260 16/11 A3012 RMK CU1CI2 SLP205

CYWG;2009-09-22 17:00;CYWG 221700Z 28007KT 15SM FEW020 BKN260 17/09 A3010 RMK CU1CI2 SLP197

CYWG;2009-09-22 18:00;CYWG 221800Z 29008KT 15SM BKN260 18/08 A3009 RMK CI2 SLP191

CYWG;2009-09-22 19:00;CYWG 221900Z 31007KT 15SM BKN260 20/08 A3007 RMK CI1 SLP187

CYWG;2009-09-22 20:00;CYWG 222000Z 27010KT 15SM BKN260 21/08 A3005 RMK CI1 SLP180

CYWG;2009-09-22 21:00;CYWG 222100Z 28012KT 15SM BKN260 22/08 A3005 RMK CI1 SLP178

CYWG;2009-09-22 22:00;CYWG 222200Z 30011KT 15SM BKN260 22/07 A3004 RMK CI1 SLP176

CYWG;2009-09-22 23:00;CYWG 222300Z 33012KT 15SM BKN260 21/07 A3005 RMK CI1 SLP178

CYWG;2009-09-23 00:00;CYWG 230000Z 34010KT 15SM BKN260 18/09 A3007 RMK CI1 SLP187

CYWG;2009-09-23 01:00;CYWG 230100Z 33007KT 15SM BKN260 11/08 A3008 RMK CI0 SLP192

CYWG;2009-09-23 02:00;CYWG 230200Z 32007KT 15SM SCT260 10/08 A3010 RMK CI0 SLP198

CYWG;2009-09-23 03:00;CYWG 230300Z 32005KT 15SM FEW260 10/07 A3010 RMK CI0 SLP200

CYWG;2009-09-23 04:00;CYWG 230400Z 31002KT 15SM SKC 09/07 A3011 RMK SLP202

CYWG;2009-09-23 05:00;CYWG 230500Z 00000KT 15SM SKC 09/07 A3011 RMK SLP203

CYWG;2009-09-23 06:00;CYWG 230600Z 00000KT 15SM SKC 07/06 A3012 RMK SLP204

CYWG;2009-09-23 07:00;CYWG 230700Z 28004KT 15SM SKC 07/06 A3013 RMK SLP208

CYWG;2009-09-23 08:00;CYWG 230800Z 25003KT 15SM SKC 07/06 A3013 RMK SLP209

CYWG;2009-09-23 09:00;CYWG 230900Z 27004KT 15SM SKC 09/08 A3014 RMK SLP210

CYWG;2009-09-23 10:00;CYWG 231000Z 24002KT 15SM SKC 08/08 A3015 RMK SLP213

CYWG;2009-09-23 11:00;CYWG 231100Z 21002KT 15SM SKC 08/07 A3015 RMK SLP214

CYWG;2009-09-23 12:00;CYWG 231200Z 19003KT 15SM FEW240 08/07 A3017 RMK CI0 SLP223

CYWG;2009-09-23 13:00;CYWG 231300Z 23003KT 15SM FEW240 08/08 A3018 RMK CI1 SLP225

CYWG;2009-09-23 14:00;CYWG 231400Z 21005KT 15SM FEW240 13/10 A3017 RMK CI0 SLP223

CYWG;2009-09-23 15:00;CYWG 231500Z 21008KT 15SM FEW240 16/10 A3017 RMK CI0 SLP223

CYWG;2009-09-23 16:00;CYWG 231600Z 20009KT 15SM FEW240 19/09 A3016 RMK CI0 SLP220

CYWG;2009-09-23 17:00;CYWG 231700Z 21011KT 15SM FEW240 21/09 A3015 RMK CI0 SLP216

CYWG;2009-09-23 18:00;CYWG 231800Z 20015KT 15SM FEW240 22/09 A3013 RMK CI0 SLP208

CYWG;2009-09-23 19:00;CYWG 231900Z 21012KT 15SM FEW240 24/10 A3011 RMK CI0 SLP200

CYWG;2009-09-23 20:00;CYWG 232000Z 21011G17KT 15SM FEW240 25/10 A3009 RMK CI0 SLP193

CYWG;2009-09-23 21:00;CYWG 232100Z 21013G18KT 15SM FEW240 26/10 A3007 RMK CI0 SLP187

CYWG;2009-09-23 22:00;CYWG 232200Z 22011KT 15SM FEW240 26/11 A3006 RMK CI0 SLP182

CYWG;2009-09-23 23:00;CYWG 232300Z 20007KT 15SM FEW240 25/13 A3004 RMK CI1 SLP177

CYWG;2009-09-24 00:00;CYWG 240000Z 19004KT 15SM SKC 22/13 A3004 RMK SLP176

CYWG;2009-09-24 01:00;CYWG 240100Z 28003KT 15SM FEW240 18/13 A3006 RMK CI1 SLP181

CYWG;2009-09-24 02:00;CYWG 240200Z 32006KT 15SM SKC 15/11 A3006 RMK SLP184

CYWG;2009-09-24 03:00;CYWG 240300Z 31005KT 15SM SKC 16/12 A3007 RMK SLP186

CYWG;2009-09-24 04:00;CYWG 240400Z 30006KT 15SM SKC 14/11 A3007 RMK SLP186

CYWG;2009-09-24 05:00;CYWG 240500Z 32006KT 15SM SKC 13/11 A3008 RMK SLP188

CYWG;2009-09-24 06:00;CYWG 240600Z 33004KT 15SM SKC 13/10 A3009 RMK SLP191

CYWG;2009-09-24 07:00;CYWG 240700Z 00000KT 15SM SKC 12/10 A3009 RMK SLP192

CYWG;2009-09-24 08:00;CYWG 240800Z 00000KT 15SM SKC 12/11 A3009 RMK SLP193

CYWG;2009-09-24 09:00;CYWG 240900Z 16002KT 15SM SKC 10/09 A3010 RMK SLP194

CYWG;2009-09-24 10:00;CYWG 241000Z 00000KT 15SM MIFG SKC 08/08 A3010 RMK SLP196

CYWG;2009-09-24 11:00;CYWG 241100Z 00000KT 15SM MIFG SKC 08/08 A3011 RMK SLP199

CYWG;2009-09-24 12:00;CYWG 241200Z 00000KT 15SM SKC 09/09 A3012 RMK SLP205

CYWG;2009-09-24 13:00;CYWG 241300Z 00000KT 15SM SKC 09/09 A3014 RMK SLP209

CYWG;2009-09-24 14:00;CYWG 241400Z 00000KT 10SM SKC 15/13 A3014 RMK BR SLP210

CYWG;2009-09-24 15:00;CYWG 241500Z 09006KT 15SM SKC 19/14 A3015 RMK SLP211

CYWG;2009-09-24 16:00;CYWG 241600Z 10007KT 15SM SKC 22/13 A3015 RMK SLP211

CYWG;2009-09-24 17:00;CYWG 241700Z 11007KT 15SM SKC 23/12 A3013 RMK SLP207

CYWG;2009-09-24 18:00;CYWG 241800Z 13005KT 15SM SKC 25/14 A3012 RMK SLP202

CYWG;2009-09-24 19:00;CYWG 241900Z 16003KT 15SM SKC 26/14 A3011 RMK SLP198

CYWG;2009-09-24 20:00;CYWG 242000Z 17004KT 15SM SKC 26/13 A3010 RMK SLP194

CYWG;2009-09-24 21:00;CYWG 242100Z 16004KT 15SM SKC 27/14 A3008 RMK SLP189

CYWG;2009-09-24 22:00;CYWG 242200Z 16005KT 15SM SKC 27/14 A3007 RMK SLP184

CYWG;2009-09-24 23:00;CYWG 242300Z 14006KT 15SM SKC 25/14 A3006 RMK SLP182

CYWG;2009-09-25 00:00;CYWG 250000Z 14007KT 15SM SKC 22/14 A3006 RMK SLP182

CYWG;2009-09-25 01:00;CYWG 250100Z 15008KT 15SM SKC 19/13 A3006 RMK SLP181

CYWG;2009-09-25 02:00;CYWG 250200Z 16007KT 15SM SKC 18/13 A3006 RMK SLP184

CYWG;2009-09-25 03:00;CYWG 250300Z 16007KT 15SM SKC 17/13 A3006 RMK SLP183

CYWG;2009-09-25 04:00;CYWG 250400Z 17009KT 15SM SKC 18/13 A3006 RMK SLP182

CYWG;2009-09-25 05:00;CYWG 250500Z 17009KT 15SM SKC 17/13 A3006 RMK SLP180

CYWG;2009-09-25 06:00;CYWG 250600Z 18011KT 15SM SKC 17/13 A3005 RMK SLP176

CYWG;2009-09-25 07:00;CYWG 250700Z 19009KT 15SM SKC 16/12 A3005 RMK SLP177

CYWG;2009-09-25 08:00;CYWG 250800Z 19007KT 15SM SKC 14/12 A3005 RMK SLP177

CYWG;2009-09-25 09:00;CYWG 250900Z 20010KT 15SM SKC 15/11 A3004 RMK SLP173

CYWG;2009-09-25 10:00;CYWG 251000Z 19008KT 15SM SKC 13/11 A3003 RMK SLP170

CYWG;2009-09-25 11:00;CYWG 251100Z 18007KT 15SM SKC 12/11 A3003 RMK SLP169

CYWG;2009-09-25 12:00;CYWG 251200Z 19009KT 15SM SKC 12/11 A3003 RMK OBS TAKEN 0+02 SLP172

CYWG;2009-09-25 13:00;CYWG 251300Z 19008KT 15SM SKC 13/11 A3003 RMK SLP171

CYWG;2009-09-25 14:00;CYWG 251400Z 20009KT 15SM SKC 15/13 A3003 RMK SLP170

CYWG;2009-09-25 15:00;CYWG 251500Z 21007KT 15SM SKC 18/14 A3002 RMK SLP167

CYWG;2009-09-25 16:00;CYWG 251600Z 20010KT 15SM SKC 21/14 A3001 RMK SLP164

CYWG;2009-09-25 17:00;CYWG 251700Z 20012KT 15SM SKC 23/15 A3000 RMK SLP162

CYWG;2009-09-25 18:00;CYWG 251800Z 21010KT 15SM SKC 25/15 A2999 RMK SLP157

CYWG;2009-09-25 19:00;CYWG 251900Z 19013KT 15SM FEW045 26/14 A2997 RMK CU1 CU TR SLP150

CYWG;2009-09-25 20:00;CYWG 252000Z 20014G19KT 15SM FEW050 26/14 A2995 RMK CU1 CU TR SLP142

CYWG;2009-09-25 21:00;CYWG 252100Z 21014KT 15SM FEW050 27/14 A2993 RMK CU1 CU TR SLP135

CYWG;2009-09-25 22:00;CYWG 252200Z 20012KT 15SM FEW050 FEW090 26/14 A2991 RMK CU1AC1 CU AND AC TR SLP130

CYWG;2009-09-25 23:00;CYWG 252300Z 20010KT 15SM FEW090 FEW260 26/15 A2990 RMK AC1CI0 SLP127

CYWG;2009-09-26 00:00;CYWG 260000Z 19008KT 15SM FEW090 23/15 A2990 RMK AC1 SLP126

CYWG;2009-09-26 01:00;CYWG 260100Z 18007KT 15SM FEW090 21/15 A2989 RMK AC1 SLP125

CYWG;2009-09-26 02:00;CYWG 260200Z 19009KT 15SM SKC 21/14 A2989 RMK SLP125

CYWG;2009-09-26 03:00;CYWG 260300Z 19010KT 15SM SKC 20/14 A2988 RMK SLP120

CYWG;2009-09-26 04:00;CYWG 260400Z 20012KT 15SM FEW090 19/14 A2986 RMK AC1 SLP114

CYWG;2009-09-26 05:00;CYWG 260500Z 19009KT 15SM SKC 18/14 A2985 RMK SLP110

CYWG;2009-09-26 06:00;CYWG 260600Z 22007KT 15SM SKC 16/14 A2984 RMK SLP107

CYWG;2009-09-26 07:00;CYWG 260700Z 21008KT 9SM SKC 16/14 A2982 RMK BR SLP099

CYWG;2009-09-26 08:00;CYWG 260800Z 20008KT 9SM SKC 15/13 A2981 RMK BR SLP095

CYWG;2009-09-26 09:00;CYWG 260900Z 23004KT 9SM SKC 13/13 A2980 RMK BR SLP093

CYWG;2009-09-26 10:00;CYWG 261000Z 23003KT 15SM SKC 13/12 A2979 RMK BR SLP090

CYWG;2009-09-26 11:00;CYWG 261100Z 00000KT 9SM FEW001 10/10 A2978 RMK ST0 BR SLP085

CYWG;2009-09-26 12:00;CYWG 261200Z 33003KT 1/2SM R13/1600FT/N R36/P6000FT/N FG FEW001 SCT096 08/08 A2977 RMK ST1AC2 SLP084

CYWG;2009-09-26 12:06;CYWG 261206Z 34002KT 3SM R13/1600FT/N BR BKN096 08/ RMK AC5

CYWG;2009-09-26 12:17;CYWG 261217Z 00000KT 1/2SM R13/1400V2000FT/U R36/1800FT/N FG BKN096 08/ RMK FG2AC3 VIS 3 S

CYWG;2009-09-26 12:34;CYWG 261234Z 00000KT 3SM R36/4500VP6000FT/U BR BKN096 09/ RMK AC6

CYWG;2009-09-26 12:54;CYWG 261254Z 00000KT 1/4SM R31/P6000FT/N R36/P6000FT/N FG BKN096 09/ RMK FG2AC4

CYWG;2009-09-26 13:00;CYWG 261300Z 15002KT 1/4SM R31/2200FT/N R36/2600V5500FT/N FG OVC096 10/10 A2975 RMK FG5AC3 SLP079

CYWG;2009-09-26 14:00;CYWG 261400Z 00000KT 1/4SM R31/1400V2000FT/N R36/1400V1800FT/N FG OVC096 12/12 A2975 RMK FG6AC2 SLP077

CYWG;2009-09-26 14:22;CYWG 261422Z 13002KT 1/2SM R31/3500V5000FT/D R36/2400FT/N FG OVC096 12/ RMK FG6AC2

CYWG;2009-09-26 14:37;CYWG 261437Z 00000KT 1 1/2SM R36/3000VP6000FT/U BR VV001 12/ RMK FG8

CYWG;2009-09-26 14:47;CYWG 261447Z 00000KT 3SM BR OVC001 13/ RMK ST8

CYWG;2009-09-26 15:00;CYWG 261500Z 00000KT 3SM BR OVC001 13/13 A2974 RMK ST8 SLP072

CYWG;2009-09-26 15:29;CYWG 261529Z 15004KT 12SM FEW005 BKN240 13/ RMK ST1CI2 BR

CYWG;2009-09-26 16:00;CYWG 261600Z 19004KT 15SM FEW062 BKN100 BKN240 15/13 A2972 RMK SC1AC4CI1 SLP067

CYWG;2009-09-26 17:00;CYWG 261700Z 16005KT 15SM FEW016 BKN240 17/14 A2968 RMK ST2CI3 SLP055

CYWG;2009-09-26 18:00;CYWG 261800Z 19006KT 15SM FEW020 BKN240 18/13 A2967 RMK SC2CI3 SLP049

CYWG;2009-09-26 19:00;CYWG 261900Z 22003KT 15SM FEW025 BKN210 18/13 A2963 RMK CU2CI3 SLP036

CYWG;2009-09-26 20:00;CYWG 262000Z 32002KT 15SM FEW025 BKN210 20/13 A2961 RMK CU2CI3 SLP028

CYWG;2009-09-26 21:00;CYWG 262100Z 00000KT 15SM FEW025 SCT088 BKN210 20/14 A2958 RMK CU1ACC2CI2 VIRGA W SLP019

CYWG;2009-09-26 22:00;CYWG 262200Z 00000KT 15SM FEW025 SCT100 BKN210 20/14 A2955 RMK CU1AC3CI3 SLP010

CYWG;2009-09-26 23:00;CYWG 262300Z 00000KT 15SM BKN100 BKN210 19/14 A2952 RMK AC5CI2 VIRGA NE SLP999

CYWG;2009-09-27 00:00;CYWG 270000Z 17006KT 15SM BKN094 BKN210 18/14 A2950 RMK AC5CI1 SLP995

CYWG;2009-09-27 01:00;CYWG 270100Z CCA 15002KT 15SM BKN094 17/14 A2949 RMK AC7 SLP990

CYWG;2009-09-27 02:00;CYWG 270200Z 15004KT 15SM OVC088 16/14 A2946 RMK AC8 SLP982

CYWG;2009-09-27 03:00;CYWG 270300Z 14005KT 15SM OVC110 17/13 A2942 RMK AC8 SLP965

CYWG;2009-09-27 04:00;CYWG 270400Z 10006KT 15SM BKN110 16/13 A2939 RMK AC7 SLP955

CYWG;2009-09-27 04:20;CYWG 270420Z 13005KT 10SM -SHRA OVC110 16/ RMK AC8

CYWG;2009-09-27 05:00;CYWG 270500Z 09003KT 15SM BKN074 16/14 A2937 RMK AC6 SLP949

CYWG;2009-09-27 06:00;CYWG 270600Z 00000KT 15SM BKN081 13/13 A2936 RMK AC7 SLP943

CYWG;2009-09-27 07:00;CYWG 270700Z 34006KT 15SM -SHRA FEW049 OVC070 14/14 A2935 RMK SC2AC6 SLP939

CYWG;2009-09-27 07:05;CYWG 270705Z 31007KT 15SM -TSRA FEW026 FEW046CB OVC070 14/ RMK SC1CB1AC6 LTGIC SW

CYWG;2009-09-27 07:38;CYWG 270738Z 32007KT 15SM -TSRA FEW014 BKN025 BKN040CB BKN070 14/ RMK SF1SC4CB1AC2 LTGIC SE CB MOVG E

CYWG;2009-09-27 08:00;CYWG 270800Z 29005KT 15SM TS FEW014 FEW025 SCT040CB BKN070 13/13 A2934 RMK SF1SC2CB1AC3 LTGIC SE SLP937

CYWG;2009-09-27 08:38;CYWG 270838Z 31011KT 15SM SCT070 13/ RETS RMK AC3

CYWG;2009-09-27 09:00;CYWG 270900Z 31011KT 15SM FEW030 SCT070 13/11 A2934 RETS RMK SC1AC3 SLP937

CYWG;2009-09-27 10:00;CYWG 271000Z 32014KT 15SM FEW070 12/11 A2935 RMK AC1 SLP940

CYWG;2009-09-27 11:00;CYWG 271100Z 31014KT 15SM FEW015 11/10 A2939 RMK SC1 SLP953

CYWG;2009-09-27 12:00;CYWG 271200Z 31011KT 15SM FEW030TCU FEW120 10/09 A2941 RMK TCU1AC1 TR TCU NE SLP961

CYWG;2009-09-27 13:00;CYWG 271300Z 30010KT 15SM FEW030TCU SCT073 SCT250 10/09 A2943 RMK TCU1AC2CI0 TR TCU N E SLP968

CYWG;2009-09-27 14:00;CYWG 271400Z 30013KT 15SM FEW030TCU FEW075 BKN110 BKN250 13/11 A2943 RMK TCU1AC1AC1CI0 TR TCU NE SLP968

CYWG;2009-09-27 15:00;CYWG 271500Z CCA 31014KT 15SM FEW020 BKN062 BKN110 BKN250 14/11 A2943 RMK SC1SC3AC2CI0 ACC ASOCTD SLP968

CYWG;2009-09-27 16:00;CYWG 271600Z 32014G19KT 15SM FEW022 SCT062 BKN110 BKN250 15/11 A2944 RMK SC1SC3AC2CI0 TCU ASOCTD NE-SE SLP971

CYWG;2009-09-27 17:00;CYWG 271700Z 31015G25KT 15SM BKN024 BKN110 OVC250 15/10 A2945 RMK SC5AC2CI0 TCU ASOCTD SLP976

CYWG;2009-09-27 18:00;CYWG 271800Z 30020G27KT 15SM BKN026 OVC096 15/09 A2946 RMK SC6AC2 SLP978

CYWG;2009-09-27 18:27;CYWG 271827Z 31021G28KT 15SM -SHRA BKN026 OVC096 14/ RMK SC6AC2 CVCTV CLD EMBD

CYWG;2009-09-27 19:00;CYWG 271900Z 31024G29KT 15SM -SHRA OVC023 OVC095 14/09 A2946 RMK SC6AC2 CVCTV CLD EMBD SLP980

CYWG;2009-09-27 20:00;CYWG 272000Z 32022G29KT 15SM VCSH SCT028 BKN048 OVC097 14/08 A2947 RMK SC3SC2AC2 SLP983

CYWG;2009-09-27 20:09;CYWG 272009Z 32025G32KT 15SM -SHRA BKN032 OVC065 13/ RMK SC5AC3 CVCTV CLD ASOCTD

CYWG;2009-09-27 21:00;CYWG 272100Z 31019G26KT 15SM -SHRA BKN027 OVC065 11/10 A2950 RMK SC5AC3 CVCTV CLD EMBD SLP995

CYWG;2009-09-27 22:00;CYWG 272200Z 30018KT 15SM SCT043 BKN096 OVC240 13/10 A2951 RMK SC3AC2CI2 SLP999

CYWG;2009-09-27 23:00;CYWG 272300Z 31019G25KT 15SM SCT021 BKN092 OVC250 14/09 A2954 RMK SC3AC2CI2 SLP008

CYWG;2009-09-28 00:00;CYWG 280000Z 30010KT 15SM FEW048TCU SCT092 BKN250 12/09 A2956 RMK TCU2AC1CI2 SHWRS ALQDS SLP016

CYWG;2009-09-28 01:00;CYWG 280100Z 31011G16KT 15SM SCT037TCU BKN085 11/09 A2959 RMK TCU3AC2 SLP025

CYWG;2009-09-28 02:00;CYWG 280200Z 31014KT 15SM BKN062 10/08 A2961 RMK SC3 SLP031

CYWG;2009-09-28 03:00;CYWG 280300Z 32012KT 15SM FEW060 09/07 A2963 RMK SC2 SLP037

CYWG;2009-09-28 04:00;CYWG 280400Z 33016KT 15SM BKN057 10/08 A2965 RMK SC5 SLP046

CYWG;2009-09-28 05:00;CYWG 280500Z 32019G24KT 15SM BKN057 09/07 A2967 RMK SC6 SLP052

CYWG;2009-09-28 05:25;CYWG 280525Z 32015KT 15SM BKN019 09/ RMK SC7

CYWG;2009-09-28 06:00;CYWG 280600Z 32020G26KT 15SM BKN021 OVC053 10/07 A2969 RMK SC7SC1 SLP060

CYWG;2009-09-28 06:39;CYWG 280639Z 32021G27KT 15SM -SHRA OVC021 09/ RMK SC8

CYWG;2009-09-28 07:00;CYWG 280700Z 32020G31KT 15SM FEW021 OVC034 08/07 A2972 RMK SC2SC6 SLP068

CYWG;2009-09-28 08:00;CYWG 280800Z 32020KT 15SM -SHRA OVC049 08/06 A2975 RMK SC8 SLP079

CYWG;2009-09-28 08:46;CYWG 280846Z 33023G29KT 15SM OVC043 08/ RMK SC8

CYWG;2009-09-28 09:00;CYWG 280900Z 32021G28KT 15SM SCT022 OVC043 08/05 A2977 RMK SC3SC5 SLP089

CYWG;2009-09-28 10:00;CYWG 281000Z 32021G29KT 15SM FEW020 BKN049 08/05 A2980 RMK SC2SC6 SLP099

CYWG;2009-09-28 11:00;CYWG 281100Z 32021G26KT 15SM SCT021 BKN051 OVC100 08/05 A2984 RMK SC3SC3AC2 SLP112

CYWG;2009-09-28 12:00;CYWG 281200Z 32022G29KT 15SM FEW025 BKN063 OVC100 08/05 A2987 RMK SC2SC5AC1 SLP123

CYWG;2009-09-28 13:00;CYWG 281300Z 33018G24KT 15SM FEW020 BKN063 OVC100 08/05 A2991 RMK SC2SC3AC1 SLP134

CYWG;2009-09-28 14:00;CYWG 281400Z 33019G29KT 15SM SCT016 BKN040 BKN120 08/06 A2994 RMK SC2SC3AC1 SLP146

CYWG;2009-09-28 14:36;CYWG 281436Z 33022KT 15SM BKN014 BKN040 BKN088 08/ RMK SC5SC2AC1

CYWG;2009-09-28 15:00;CYWG 281500Z 35022G29KT 15SM SCT014 BKN035 BKN088 09/06 A2998 RMK SC3SC3AC1 SLP158

CYWG;2009-09-28 15:31;CYWG 281531Z 35018G27KT 15SM BKN014 BKN035 RMK SC6SC2

CYWG;2009-09-28 16:00;CYWG 281600Z 34020KT 15SM BKN014 OVC047 09/07 A3000 RMK SC6SC2 SLP166

CYWG;2009-09-28 16:53;CYWG 281653Z 34019G24KT 15SM SCT016 BKN045 10/ RMK SC3SC2

CYWG;2009-09-28 17:00;CYWG 281700Z 34015G24KT 15SM SCT016 BKN045 11/08 A3004 RMK SC3SC2 SLP178

CYWG;2009-09-28 18:00;CYWG 281800Z 36016G24KT 15SM BKN023 13/07 A3004 RMK SC5 SLP180

CYWG;2009-09-28 19:00;CYWG 281900Z 36014G19KT 15SM BKN029 13/07 A3007 RMK SC7 SLP188

CYWG;2009-09-28 20:00;CYWG 282000Z 01011G16KT 15SM BKN033 13/06 A3008 RMK SC6 SLP193

CYWG;2009-09-28 21:00;CYWG 282100Z 02014KT 15SM SCT035 14/06 A3010 RMK SC4 SLP200

CYWG;2009-09-28 22:00;CYWG 282200Z 02017KT 15SM FEW039 13/05 A3012 RMK SC2 SLP204

CYWG;2009-09-28 23:00;CYWG 282300Z 01013G18KT 15SM BKN035 13/06 A3013 RMK SC6 SLP209

CYWG;2009-09-29 00:00;CYWG 290000Z 02008KT 15SM FEW033 10/05 A3015 RMK SC1 SLP218

CYWG;2009-09-29 01:00;CYWG 290100Z 36008KT 15SM FEW036 08/05 A3016 RMK SC1 SLP221

CYWG;2009-09-29 02:00;CYWG 290200Z 35009KT 15SM BKN036 08/05 A3018 RMK SC7 SLP226

CYWG;2009-09-29 03:00;CYWG 290300Z 03011KT 15SM BKN034 09/05 A3020 RMK SC7 SLP233

CYWG;2009-09-29 04:00;CYWG 290400Z 07012KT 15SM BKN032 08/01 A3021 RMK SC7 SLP238

CYWG;2009-09-29 05:00;CYWG 290500Z 07008KT 15SM BKN032 07/01 A3022 RMK SC7 SLP241

CYWG;2009-09-29 06:00;CYWG 290600Z 05006KT 15SM FEW032 04/01 A3023 RMK SC2 SLP244

CYWG;2009-09-29 07:00;CYWG 290700Z 04005KT 15SM SKC 01/M00 A3024 RMK SLP248

CYWG;2009-09-29 08:00;CYWG 290800Z 05004KT 15SM SKC M00/M01 A3025 RMK SLP250

CYWG;2009-09-29 09:00;CYWG 290900Z 06007KT 15SM SKC 00/M01 A3025 RMK SLP252

CYWG;2009-09-29 10:00;CYWG 291000Z 07004KT 15SM SKC M00/M01 A3025 RMK SLP254

CYWG;2009-09-29 11:00;CYWG 291100Z 03002KT 15SM SKC M01/M02 A3026 RMK SLP257

CYWG;2009-09-29 12:00;CYWG 291200Z 04004KT 15SM FEW020 M02/M03 A3027 RMK SC1 SLP261

CYWG;2009-09-29 13:00;CYWG 291300Z 09009KT 15SM FEW020 FEW140 01/M01 A3026 RMK SC1AC1 SLP257

CYWG;2009-09-29 14:00;CYWG 291400Z 11010KT 15SM FEW020 FEW250 03/01 A3027 RMK SC1CI0 SLP260

CYWG;2009-09-29 15:00;CYWG 291500Z 12009KT 15SM FEW018 FEW250 05/01 A3027 RMK CF1CI1 SLP258

CYWG;2009-09-29 16:00;CYWG 291600Z 12008KT 15SM FEW020 SCT250 06/01 A3026 RMK CF1CI1 SLP256

CYWG;2009-09-29 17:00;CYWG 291700Z 12009KT 15SM FEW024 SCT250 08/02 A3025 RMK CF1CI1 SLP252

CYWG;2009-09-29 18:00;CYWG 291800Z 13006KT 15SM FEW250 09/01 A3023 RMK CI1 SLP245

CYWG;2009-09-29 19:00;CYWG 291900Z 12008KT 15SM FEW250 10/02 A3020 RMK CI1 SLP237

CYWG;2009-09-29 20:00;CYWG 292000Z 12008KT 15SM BKN250 11/03 A3018 RMK CI1 SLP229

CYWG;2009-09-29 21:00;CYWG 292100Z 12008KT 15SM BKN250 11/03 A3016 RMK CI1 SLP224

CYWG;2009-09-29 22:00;CYWG 292200Z 12010KT 15SM BKN250 12/03 A3014 RMK CI1 SLP216

CYWG;2009-09-29 23:00;CYWG 292300Z 12010KT 15SM BKN250 11/02 A3013 RMK CI1 SLP214

CYWG;2009-09-30 00:00;CYWG 300000Z 11007KT 15SM BKN250 09/03 A3012 RMK CI1 SLP211

CYWG;2009-09-30 01:00;CYWG 300100Z 11011KT 15SM BKN250 10/02 A3011 RMK CI1 SLP208

CYWG;2009-09-30 02:00;CYWG 300200Z 12014G19KT 15SM SCT250 09/01 A3012 RMK CI1 SLP209

CYWG;2009-09-30 03:00;CYWG 300300Z 12012G17KT 15SM SKC 08/01 A3011 RMK SLP205

CYWG;2009-09-30 04:00;CYWG 300400Z 12013KT 15SM SKC 08/02 A3011 RMK SLP204

CYWG;2009-09-30 05:00;CYWG 300500Z 13014KT 15SM SKC 07/01 A3009 RMK SLP200

CYWG;2009-09-30 06:00;CYWG 300600Z 14012G17KT 15SM SKC 06/01 A3009 RMK SLP199

CYWG;2009-09-30 07:00;CYWG 300700Z 14013KT 15SM SKC 06/01 A3009 RMK SLP197

CYWG;2009-09-30 08:00;CYWG 300800Z 13012KT 15SM SKC 05/01 A3008 RMK SLP193

CYWG;2009-09-30 09:00;CYWG 300900Z 13013KT 15SM SKC 05/01 A3006 RMK SLP187

CYWG;2009-09-30 10:00;CYWG 301000Z 13013KT 15SM SKC 05/01 A3006 RMK SLP186

CYWG;2009-09-30 11:00;CYWG 301100Z 13013G18KT 15SM SKC 04/01 A3005 RMK SLP182

CYWG;2009-09-30 12:00;CYWG 301200Z 13015G20KT 15SM FEW230 04/01 A3003 RMK CI1 SLP179

CYWG;2009-09-30 13:00;CYWG 301300Z 13013G19KT 15SM FEW230 04/01 A3003 RMK CI1 SLP176

CYWG;2009-09-30 14:00;CYWG 301400Z 13015KT 15SM FEW230 06/02 A3002 RMK CI1 SLP173

CYWG;2009-09-30 15:00;CYWG 301500Z 14015G22KT 15SM FEW230 08/03 A3000 RMK CI1 SLP168

CYWG;2009-09-30 16:00;CYWG 301600Z 14019G24KT 15SM SCT230 11/04 A2998 RMK CI1 SLP159

CYWG;2009-09-30 17:00;CYWG 301700Z 14017G24KT 15SM BKN230 13/04 A2996 RMK CI2 SLP154

CYWG;2009-09-30 18:00;CYWG 301800Z 14020G25KT 15SM BKN230 14/04 A2993 RMK CI2 SLP143

CYWG;2009-09-30 19:00;CYWG 301900Z 13020G26KT 15SM FEW160 BKN230 16/03 A2990 RMK AC1CI2 CC ASOCTD SLP132

CYWG;2009-09-30 20:00;CYWG 302000Z 14016G25KT 15SM FEW190 BKN250 16/03 A2988 RMK CI1CI2 SLP125

CYWG;2009-09-30 21:00;CYWG 302100Z 12017G24KT 15SM FEW170 BKN250 16/04 A2987 RMK AC2CI4 SLP121

CYWG;2009-09-30 22:00;CYWG 302200Z 13016G21KT 15SM FEW160 BKN250 15/03 A2986 RMK AC2CI3 SLP118

CYWG;2009-09-30 23:00;CYWG 302300Z 12017G24KT 15SM FEW160 BKN250 14/03 A2985 RMK AC2CI3 SLP115

CYWG;2009-10-01 01:00;CYWG 010100Z 12016G25KT 15SM BKN200 12/03 A2986 RMK CI6 SLP119

CYWG;2009-10-01 02:00;CYWG 010200Z 12017KT 15SM OVC200 12/03 A2988 RMK CI5 SLP124

CYWG;2009-10-01 03:00;CYWG 010300Z 13020KT 15SM BKN200 11/03 A2987 RMK CI4 SLP120

CYWG;2009-10-01 04:00;CYWG 010400Z 13016G22KT 15SM FEW096 BKN200 11/03 A2987 RMK AC2CI2 SLP122

CYWG;2009-10-01 05:00;CYWG 010500Z 14015KT 15SM FEW096 BKN200 10/02 A2987 RMK AC2CI2 SLP122

CYWG;2009-10-01 06:00;CYWG 010600Z 14015G20KT 15SM SCT096 BKN200 10/01 A2986 RMK AC3CI2 SLP115

CYWG;2009-10-01 07:00;CYWG 010700Z 14014KT 15SM FEW096 BKN200 09/02 A2984 RMK AC2CI2 OBS TAKEN 0+09 SLP110

CYWG;2009-10-01 08:00;CYWG 010800Z 12011G16KT 15SM FEW200 08/02 A2983 RMK CI1 SLP106

CYWG;2009-10-01 09:00;CYWG 010900Z 11011KT 15SM FEW200 07/02 A2981 RMK CI1 SLP100

CYWG;2009-10-01 10:00;CYWG 011000Z 11011G16KT 15SM FEW200 07/02 A2980 RMK CI1 SLP095

CYWG;2009-10-01 11:00;CYWG 011100Z 12016G22KT 15SM SCT200 07/02 A2979 RMK CI1 SLP093

CYWG;2009-10-01 12:00;CYWG 011200Z 13016G22KT 15SM BKN220 07/02 A2980 RMK CI2 SLP096

CYWG;2009-10-01 13:00;CYWG 011300Z 12015G20KT 15SM FEW025 SCT075 OVC220 07/03 A2978 RMK SC1AC3CI1 SLP090

CYWG;2009-10-01 14:00;CYWG 011400Z 12015KT 15SM FEW025 SCT084 OVC220 08/03 A2976 RMK SC2AC2CI2 SLP084

CYWG;2009-10-01 15:00;CYWG 011500Z 14016G25KT 15SM SCT030 BKN085 OVC220 10/03 A2977 RMK SC3AC2CI2 SLP086

CYWG;2009-10-01 16:00;CYWG 011600Z 12020G25KT 15SM FEW042 BKN085 OVC220 11/04 A2974 RMK SC2AC2CI2 SLP077

CYWG;2009-10-01 17:00;CYWG 011700Z 13016G26KT 15SM SCT028 BKN042 OVC085 11/05 A2974 RMK SC3SC2AC3 SLP076

CYWG;2009-10-01 17:07;CYWG 011707Z 12016G21KT 15SM -SHRA SCT028 BKN042 OVC085 11/ RMK SC3SC2AC2 CVCTV CLD EMBD

CYWG;2009-10-01 18:00;CYWG 011800Z CCA 13018KT 12SM -SHRA BKN026 OVC040 10/07 A2973 RMK SC6SC2 CVCTV CLD EMBD SLP074

CYWG;2009-10-01 19:00;CYWG 011900Z 12015KT 10SM -SHRA BKN020 OVC040 09/08 A2973 RMK SC6SC2 CVCTV CLD EMBD BR SLP072

CYWG;2009-10-01 19:18;CYWG 011918Z 12013G18KT 3SM -SHRA BR BKN009 OVC040 09/ RMK SC7SC1 CVCTV CLD EMBD

CYWG;2009-10-01 20:00;CYWG 012000Z 12015KT 4SM -SHRA BR BKN009 OVC021 09/08 A2973 RMK SC6SC2 CVCTV CLD EMBD SLP072

CYWG;2009-10-01 20:21;CYWG 012021Z 12012KT 4SM -SHRA BR SCT009 BKN025 OVC096 09/ RMK SC3SC3AC2 CVCTV CLD EMBD

CYWG;2009-10-01 21:00;CYWG 012100Z 12010G15KT 10SM -SHRA BKN029 OVC096 10/09 A2971 RMK SC6AC2 CVCTV CLD EMBD BR SLP068

CYWG;2009-10-01 21:45;CYWG 012145Z 10006KT 15SM BKN038 OVC096 10/ RMK SC5AC3

CYWG;2009-10-01 22:00;CYWG 012200Z 09007KT 15SM BKN042 OVC095 11/09 A2971 RMK SC5AC3 SLP069

CYWG;2009-10-01 23:00;CYWG 012300Z 12011KT 15SM FEW037 BKN065 BKN091 11/07 A2972 RMK SC2SC3AC2 SLP072

CYWG;2009-10-01 23:14;CYWG 012314Z 12009KT 15SM -SHRA BKN030 BKN067 BKN083 11/ RMK SC5AC2AC1

CYWG;2009-10-02 00:00;CYWG 020000Z 10010KT 15SM -SHRA SCT035 BKN065 BKN099 11/06 A2972 RMK SC4SC2AC2 SLP071

CYWG;2009-10-02 01:00;CYWG 020100Z 10011G16KT 15SM FEW035 BKN063 OVC085 11/05 A2972 RMK SC2SC3AC2 SLP071

CYWG;2009-10-02 02:00;CYWG 020200Z 08010KT 15SM SCT065 BKN094 10/04 A2973 RMK SC3AC2 SLP073

CYWG;2009-10-02 03:00;CYWG 020300Z 09013G20KT 15SM FEW065 SCT092 10/03 A2973 RMK SC1AC2 SLP073

CYWG;2009-10-02 04:00;CYWG 020400Z 09012G18KT 15SM FEW092 10/02 A2974 RMK AC2 SLP075

CYWG;2009-10-02 05:00;CYWG 020500Z 09012G18KT 15SM FEW090 SCT240 09/02 A2974 RMK AC2CI0 SLP075

CYWG;2009-10-02 06:00;CYWG 020600Z 09012KT 15SM FEW090 FEW240 08/01 A2974 RMK AC1CI0 SLP077

CYWG;2009-10-02 07:00;CYWG 020700Z 08008KT 15SM FEW092 FEW240 07/01 A2974 RMK AC1CI0 SLP076

CYWG;2009-10-02 08:00;CYWG 020800Z 06008KT 15SM FEW092 FEW240 04/01 A2974 RMK AC1CI0 SLP077

CYWG;2009-10-02 09:00;CYWG 020900Z 04007KT 15SM FEW092 FEW240 01/M01 A2975 RMK AC1CI0 SLP082

CYWG;2009-10-02 10:00;CYWG 021000Z 05007KT 15SM FEW090 01/M01 A2976 RMK AC1 SLP086

CYWG;2009-10-02 11:00;CYWG 021100Z 06006KT 15SM SKC 00/M01 A2978 RMK SLP092

CYWG;2009-10-02 12:00;CYWG 021200Z 08007KT 15SM FEW250 02/M00 A2979 RMK CI1 SLP097

CYWG;2009-10-02 13:00;CYWG 021300Z 04005KT 15SM FEW030 FEW250 01/M00 A2982 RMK SC1CI1 SLP105

CYWG;2009-10-02 14:00;CYWG 021400Z 04005KT 15SM FEW021 03/01 A2983 RMK SC1 SLP110

CYWG;2009-10-02 15:00;CYWG 021500Z 05007KT 15SM FEW025 06/02 A2984 RMK SC1 SLP112

CYWG;2009-10-02 16:00;CYWG 021600Z 05008KT 15SM FEW025 07/02 A2984 RMK SC2 SLP111

CYWG;2009-10-02 17:00;CYWG 021700Z 07013KT 15SM BKN024 07/02 A2984 RMK SC7 SLP112

CYWG;2009-10-02 18:00;CYWG 021800Z 07009KT 15SM OVC020 07/03 A2985 RMK SC8 SLP117

CYWG;2009-10-02 19:00;CYWG 021900Z 07009KT 15SM BKN019 08/03 A2985 RMK SC7 SLP117

CYWG;2009-10-02 20:00;CYWG 022000Z 06011KT 15SM OVC027 08/03 A2987 RMK SC8 SLP123

CYWG;2009-10-02 21:00;CYWG 022100Z 05008KT 15SM OVC022 08/04 A2988 RMK SC8 SLP129

CYWG;2009-10-02 22:00;CYWG 022200Z 06008KT 15SM -DZ BKN018 OVC069 08/05 A2990 RMK ST6AC2 SLP134

CYWG;2009-10-02 22:57;CYWG 022257Z 08004KT 15SM BKN018 BKN090 08/ RMK SC5AC2

CYWG;2009-10-02 23:00;CYWG 022300Z 08004KT 15SM BKN018 BKN090 08/06 A2991 RMK SC5AC2 SLP138

CYWG;2009-10-02 23:11;CYWG 022311Z 09006KT 15SM -SHRA BKN019 OVC090 08/ RMK SC6AC2

CYWG;2009-10-02 23:38;CYWG 022338Z 07002KT 15SM OVC023 07/ RMK SC8

CYWG;2009-10-03 00:00;CYWG 030000Z 03002KT 15SM BKN031 07/06 A2992 RMK SC7 SLP141

CYWG;2009-10-03 01:00;CYWG 030100Z 04005KT 15SM OVC029 07/05 A2993 RMK SC8 SLP145

CYWG;2009-10-03 02:00;CYWG 030200Z 03005KT 15SM OVC033 07/05 A2993 RMK SC8 SLP146

CYWG;2009-10-03 03:00;CYWG 030300Z 36003KT 15SM OVC035 07/05 A2994 RMK SC8 SLP146

CYWG;2009-10-03 04:00;CYWG 030400Z 03005KT 15SM OVC033 07/05 A2994 RMK SC8 SLP147

CYWG;2009-10-03 05:00;CYWG 030500Z 08004KT 15SM OVC033 08/04 A2994 RMK SC8 SLP146

CYWG;2009-10-03 06:00;CYWG 030600Z 35004KT 15SM OVC033 07/05 A2994 RMK SC8 SLP147

CYWG;2009-10-03 07:00;CYWG 030700Z 01004KT 15SM OVC031 07/05 A2995 RMK SC8 SLP149

CYWG;2009-10-03 08:00;CYWG 030800Z 01002KT 15SM OVC033 06/05 A2993 RMK SC8 SLP145

CYWG;2009-10-03 09:00;CYWG 030900Z 01005KT 15SM OVC033 07/05 A2994 RMK SC8 SLP146

CYWG;2009-10-03 10:00;CYWG 031000Z 05006KT 15SM OVC031 06/05 A2993 RMK SC8 SLP145

CYWG;2009-10-03 11:00;CYWG 031100Z 04005KT 15SM OVC029 06/04 A2994 RMK SC8 SLP146

CYWG;2009-10-03 12:00;CYWG 031200Z 36005KT 15SM OVC027 06/05 A2994 RMK SC8 SLP146

CYWG;2009-10-03 13:00;CYWG 031300Z 06004KT 15SM OVC025 06/04 A2994 RMK SC8 SLP148

CYWG;2009-10-03 14:00;CYWG 031400Z 05006KT 15SM BKN025 BKN060 07/04 A2994 RMK SC6SC1 VIRGA N SLP148

CYWG;2009-10-03 15:00;CYWG 031500Z 06007KT 15SM FEW012 SCT035 BKN065 07/04 A2996 RMK CF1SC3SC2 SLP152

CYWG;2009-10-03 16:00;CYWG 031600Z 06009KT 15SM SCT016 BKN040 OVC061 08/04 A2996 RMK CU3SC3SC2 SLP153

CYWG;2009-10-03 17:00;CYWG 031700Z 05007KT 15SM FEW018 BKN039 09/05 A2995 RMK CF2SC6 SLP151

CYWG;2009-10-03 18:00;CYWG 031800Z 03010KT 15SM SCT023 BKN037 10/05 A2995 RMK CU3SC4 SLP150

CYWG;2009-10-03 19:00;CYWG 031900Z 04010KT 15SM OVC023 10/06 A2994 RMK SC8 SLP147

CYWG;2009-10-03 20:00;CYWG 032000Z 03008KT 15SM OVC023 10/06 A2995 RMK SC8 SLP149

CYWG;2009-10-03 21:00;CYWG 032100Z 03009KT 15SM OVC023 10/06 A2996 RMK SC8 SLP151

CYWG;2009-10-03 22:00;CYWG 032200Z 04008KT 15SM OVC024 10/05 A2997 RMK SC8 SLP155

CYWG;2009-10-03 23:00;CYWG 032300Z 03009KT 15SM OVC030 10/06 A2997 RMK SC8 SLP157

CYWG;2009-10-04 00:00;CYWG 040000Z 01008KT 15SM OVC020 09/06 A2998 RMK SC8 SLP161

CYWG;2009-10-04 01:00;CYWG 040100Z 35006KT 15SM BKN026 OVC096 09/06 A2999 RMK SC6AC2 SLP163

CYWG;2009-10-04 02:00;CYWG 040200Z 35004KT 15SM BKN023 BKN095 08/07 A2999 RMK SC6AC2 SLP165

CYWG;2009-10-04 03:00;CYWG 040300Z 01004KT 15SM OVC024 08/06 A3000 RMK SC8 SLP168

CYWG;2009-10-04 03:51;CYWG 040351Z 03007KT 15SM -SHRA OVC018 08/ RMK SC8

CYWG;2009-10-04 04:00;CYWG 040400Z 02006KT 12SM -SHRA BKN018 OVC042 08/07 A3001 RMK SC6SC2 SLP171

CYWG;2009-10-04 05:00;CYWG 040500Z 01006KT 15SM OVC024 08/07 A3001 RMK SC8 SLP170

CYWG;2009-10-04 06:00;CYWG 040600Z 01005KT 15SM OVC027 08/07 A3002 RMK SC8 SLP172

CYWG;2009-10-04 07:00;CYWG 040700Z 02003KT 15SM OVC025 07/06 A3002 RMK SC8 SLP174

CYWG;2009-10-04 08:00;CYWG 040800Z 35004KT 15SM OVC025 07/07 A3003 RMK SC8 SLP175

CYWG;2009-10-04 09:00;CYWG 040900Z 02003KT 15SM FEW007 OVC011 07/06 A3003 RMK SF2SC6 SLP176

CYWG;2009-10-04 09:24;CYWG 040924Z 01005KT 12SM -DZ SCT005 OVC014 07/ RMK SF3SC5

CYWG;2009-10-04 10:00;CYWG 041000Z 36003KT 3SM -DZ BR SCT005 OVC010 07/07 A3003 RMK SF4ST4 SLP177

CYWG;2009-10-04 10:26;CYWG 041026Z 03004KT 1 1/2SM -DZ BR BKN002 OVC007 07/ RMK SF6ST2

CYWG;2009-10-04 10:45;CYWG 041045Z 05005KT 2 1/2SM -DZ BR OVC003 07/ RMK SF8

CYWG;2009-10-04 11:00;CYWG 041100Z 03008KT 4SM -DZ BR BKN004 OVC008 07/07 A3004 RMK SF5ST3 SLP181

CYWG;2009-10-04 12:00;CYWG 041200Z 03007KT 2 1/2SM -DZ BR BKN003 OVC024 06/06 A3005 RMK SF6ST2 SLP185

CYWG;2009-10-04 12:20;CYWG 041220Z 03005KT 8SM -DZ BKN004 OVC019 06/ RMK SF6SC2 BR

CYWG;2009-10-04 13:00;CYWG 041300Z 02010KT 8SM -DZ OVC006 06/06 A3006 RMK ST8 VIS 2 N-E BR SLP187

CYWG;2009-10-04 13:45;CYWG 041345Z 04006KT 12SM BKN005 OVC010 06/ RMK SF6SC1

CYWG;2009-10-04 14:00;CYWG 041400Z 01009KT 15SM BKN005 OVC022 06/05 A3007 RMK SF6SC1 SLP192

CYWG;2009-10-04 14:33;CYWG 041433Z 01011KT 15SM -DZ BKN011 OVC031 06/ RMK ST5SC3 VIS 4 N-E

CYWG;2009-10-04 14:50;CYWG 041450Z 01010KT 3SM -DZ BR BKN005 OVC010 06/ RMK SF6ST2

CYWG;2009-10-04 15:00;CYWG 041500Z 03011KT 2SM -DZ BR OVC005 06/06 A3008 RMK ST8 SLP194

CYWG;2009-10-04 15:42;CYWG 041542Z 03003KT 3SM -DZ BR OVC005 06/ RMK ST8

CYWG;2009-10-04 16:00;CYWG 041600Z 04004KT 10SM BKN006 OVC014 06/06 A3008 RMK SF6SC2 VIS 3 N-E SLP193

CYWG;2009-10-04 17:00;CYWG 041700Z 06006KT 6SM -DZ OVC006 07/06 A3008 RMK SF8 VIS N-NE 2 BR SLP193

CYWG;2009-10-04 18:00;CYWG 041800Z 03010KT 10SM -DZ BKN005 OVC008 08/07 A3008 RMK SF6SF2 VIS 4 N-NE BR SLP194

CYWG;2009-10-04 18:12;CYWG 041812Z 02011KT 15SM BKN009 09/ RMK SF6 SHWRS N-E

CYWG;2009-10-04 18:20;CYWG 041820Z 02012KT 15SM BKN011 08/ RMK SC7 SHWRS N-NE

CYWG;2009-10-04 18:33;CYWG 041833Z 03008G15KT 8SM -DZ OVC011 08/ RMK ST8

CYWG;2009-10-04 19:00;CYWG 041900Z 04007KT 15SM SCT012 BKN023 09/07 A3007 RMK ST3SC4 SLP191

CYWG;2009-10-04 19:24;CYWG 041924Z 04010KT 15SM BKN013 BKN020 08/ RMK SC5SC2

CYWG;2009-10-04 19:44;CYWG 041944Z 04007KT 12SM -DZ BKN011 OVC020 08/ RMK SF6SC2 VIS E 6

CYWG;2009-10-04 20:00;CYWG 042000Z 02008KT 15SM BKN013 OVC020 08/07 A3007 RMK SF6SC2 SLP192

CYWG;2009-10-04 20:41;CYWG 042041Z 04008KT 15SM BKN017 OVC030 08/ RMK SC6SC2

CYWG;2009-10-04 21:00;CYWG 042100Z 04010KT 15SM BKN020 BKN040 09/05 A3007 RMK SC6SC1 SLP190

CYWG;2009-10-04 22:00;CYWG 042200Z 05006KT 15SM BKN021 08/05 A3008 RMK SC7 SLP193

CYWG;2009-10-04 23:00;CYWG 042300Z 03008KT 15SM BKN021 08/05 A3009 RMK SC7 SLP196

CYWG;2009-10-05 00:00;CYWG 050000Z 03005KT 15SM BKN021 BKN090 07/05 A3010 RMK SC6AC1 SLP202

CYWG;2009-10-05 01:00;CYWG 050100Z 01007KT 15SM BKN024 BKN070 06/03 A3010 RMK SC6AC1 SLP203

CYWG;2009-10-05 02:00;CYWG 050200Z 35008KT 15SM OVC024 06/03 A3011 RMK SC8 SLP205

CYWG;2009-10-05 03:00;CYWG 050300Z 01006KT 15SM OVC020 06/03 A3012 RMK SC8 SLP207

CYWG;2009-10-05 04:00;CYWG 050400Z 36005KT 15SM SCT022 05/03 A3012 RMK SC3 SLP207

CYWG;2009-10-05 05:00;CYWG 050500Z 29004KT 15SM SCT020 02/01 A3012 RMK SC2 SLP210

CYWG;2009-10-05 06:00;CYWG 050600Z 30006KT 15SM FEW025 SCT080 00/M00 A3012 RMK SC1AC2 SLP212

CYWG;2009-10-05 07:00;CYWG 050700Z 32006KT 15SM FEW085 M01/M02 A3012 RMK AC2 SLP210

CYWG;2009-10-05 08:00;CYWG 050800Z 32006KT 15SM FEW085 M02/M03 A3011 RMK AC2 SLP208

CYWG;2009-10-05 09:00;CYWG 050900Z 28008KT 15SM FEW085 M01/M01 A3011 RMK AC1 SLP208

CYWG;2009-10-05 10:00;CYWG 051000Z 28007KT 15SM FEW090 M01/M01 A3012 RMK AC1 SLP210

CYWG;2009-10-05 10:53;CYWG 051053Z 33004KT 15SM FEW005 M02/ RMK SF1

CYWG;2009-10-05 11:00;CYWG 051100Z 31003KT 15SM FEW005 M03/M03 A3012 RMK SF1 SLP209

CYWG;2009-10-05 12:00;CYWG 051200Z 34003KT 15SM FEW005 FEW090 M02/M02 A3011 RMK SF1AC1 SLP207

CYWG;2009-10-05 13:00;CYWG 051300Z 00000KT 15SM SCT089 M01/M02 A3012 RMK AC3 SLP209

CYWG;2009-10-05 14:00;CYWG 051400Z 24005KT 15SM BKN046 00/00 A3012 RMK SC5 SLP212

CYWG;2009-10-05 15:00;CYWG 051500Z 30005KT 15SM SCT046 BKN250 04/03 A3012 RMK SC4CI1 SLP211

CYWG;2009-10-05 16:00;CYWG 051600Z 33009KT 15SM FEW015 BKN046 BKN250 07/04 A3012 RMK CU1SC5CI1 SLP209

CYWG;2009-10-05 17:00;CYWG 051700Z 32010KT 15SM BKN020 BKN044 08/04 A3010 RMK SC5SC2 SLP203

CYWG;2009-10-05 18:00;CYWG 051800Z 34011KT 15SM BKN024 BKN057 10/04 A3007 RMK SC6SC1 SLP191

CYWG;2009-10-05 19:00;CYWG 051900Z 36005KT 15SM BKN026 BKN057 09/03 A3005 RMK SC6SC1 SLP185

CYWG;2009-10-05 20:00;CYWG 052000Z 32004KT 15SM BKN028 OVC057 09/03 A3005 RMK SC7SC1 SLP184

CYWG;2009-10-05 21:00;CYWG 052100Z 33008KT 15SM BKN034 OVC045 09/02 A3003 RMK SC7SC1 SLP177

CYWG;2009-10-05 21:48;CYWG 052148Z 28009KT 15SM -SHRA OVC028 08/ RMK SC8

CYWG;2009-10-05 22:00;CYWG 052200Z 28008KT 15SM -SHRA BKN028 OVC095 08/05 A3002 RMK SC7AC1 SLP174

CYWG;2009-10-05 23:00;CYWG 052300Z 02005KT 15SM BKN030 OVC075 08/04 A2999 RMK SC6AC2 SLP166

CYWG;2009-10-06 00:00;CYWG 060000Z 05005KT 15SM BKN028 OVC071 07/05 A2999 RMK SC6AC2 SLP167

CYWG;2009-10-06 00:53;CYWG 060053Z 10002KT 15SM -SHRA OVC022 07/ RMK SC8

CYWG;2009-10-06 01:00;CYWG 060100Z 00000KT 15SM -SHRA OVC022 07/05 A3003 RMK SC8 SLP179

CYWG;2009-10-06 02:00;CYWG 060200Z 29004KT 15SM -SHRA BKN020 06/06 A3003 RMK SC7 SLP178

CYWG;2009-10-06 03:00;CYWG 060300Z 00000KT 15SM -SHRA BKN015 BKN027 05/05 A3002 RMK SC5SC2 SLP175

CYWG;2009-10-06 03:18;CYWG 060318Z 28005KT 15SM SCT015 BKN023 06/ RMK SC4SC2

CYWG;2009-10-06 04:00;CYWG 060400Z 01009KT 15SM OVC009 06/05 A2997 RMK SC8 SLP160

CYWG;2009-10-06 05:00;CYWG 060500Z 32002KT 15SM OVC015 05/05 A3000 RMK SC8 SLP168

CYWG;2009-10-06 06:00;CYWG 060600Z 01003KT 15SM OVC022 05/04 A2996 RMK SC8 SLP154

CYWG;2009-10-06 07:00;CYWG 060700Z 30004KT 15SM OVC030 05/05 A2997 RMK SC8 SLP157

CYWG;2009-10-06 08:00;CYWG 060800Z 32004KT 15SM FEW030 OVC052 04/04 A2994 RMK SC2SC6 SLP146

CYWG;2009-10-06 09:00;CYWG 060900Z 33005KT 15SM FEW030 OVC058 03/03 A2992 RMK SC2SC6 SLP141

CYWG;2009-10-06 10:00;CYWG 061000Z 00000KT 15SM FEW030 SCT060 BKN250 02/01 A2991 RMK SC2SC2CI0 SLP136

CYWG;2009-10-06 11:00;CYWG 061100Z 33006KT 15SM SCT060 BKN250 M00/M00 A2989 RMK SC4CI1 SLP129

CYWG;2009-10-06 12:00;CYWG 061200Z 04005KT 15SM BKN029 BKN060 03/02 A2987 RMK SC5SC2 SLP124

CYWG;2009-10-06 13:00;CYWG 061300Z 32006KT 15SM BKN029 OVC070 04/04 A2986 RMK SC6AC2 SLP119

CYWG;2009-10-06 14:00;CYWG 061400Z 32005KT 15SM FEW010 BKN029 BKN070 05/05 A2987 RMK SF1SC5AC2 SLP122

CYWG;2009-10-06 15:00;CYWG 061500Z 35007KT 15SM SCT012 BKN029 06/03 A2983 RMK SF4SC3 SLP111

CYWG;2009-10-06 16:00;CYWG 061600Z 01005KT 15SM BKN022 07/03 A2981 RMK SC7 SLP103

CYWG;2009-10-06 17:00;CYWG 061700Z 35005KT 15SM OVC024 07/02 A2979 RMK SC8 SLP098

CYWG;2009-10-06 18:00;CYWG 061800Z 28007KT 15SM OVC024 07/03 A2978 RMK SC8 SLP093

CYWG;2009-10-06 19:00;CYWG 061900Z 30004KT 15SM OVC018 07/04 A2975 RMK SC8 SLP084

CYWG;2009-10-06 20:00;CYWG 062000Z 28004KT 15SM BKN012 OVC057 07/04 A2973 RMK SC6SC2 SLP075

CYWG;2009-10-06 21:00;CYWG 062100Z 30006KT 15SM BKN017 OVC057 07/04 A2970 RMK SC7SC1 SLP068

CYWG;2009-10-06 22:00;CYWG 062200Z 29005KT 15SM FEW024 BKN055 OVC093 07/03 A2969 RMK SC2SC5AC2 SLP064

CYWG;2009-10-06 23:00;CYWG 062300Z 00000KT 15SM FEW057 BKN086 07/03 A2968 RMK SF1AC6 SLP061

CYWG;2009-10-07 00:00;CYWG 070000Z 18002KT 15SM BKN053 06/03 A2967 RMK SC6 SLP056

CYWG;2009-10-07 01:00;CYWG 070100Z 18004KT 15SM BKN053 06/04 A2966 RMK SC6 SLP054

CYWG;2009-10-07 02:00;CYWG 070200Z 19005KT 15SM OVC053 06/04 A2966 RMK SC8 SLP052

CYWG;2009-10-07 03:00;CYWG 070300Z 19007KT 15SM BKN055 06/04 A2965 RMK SC6 SLP048

CYWG;2009-10-07 04:00;CYWG 070400Z 20008KT 15SM SCT059 06/03 A2964 RMK SC4 SLP046

CYWG;2009-10-07 05:00;CYWG 070500Z 20007KT 15SM SCT071 BKN250 05/03 A2963 RMK AC3CI1 SLP041

CYWG;2009-10-07 06:00;CYWG 070600Z 19008KT 15SM SCT070 BKN250 05/02 A2960 RMK AC3CI1 SLP031

CYWG;2009-10-07 07:00;CYWG 070700Z 20009KT 15SM OVC071 05/02 A2959 RMK AC8 SLP027

CYWG;2009-10-07 08:00;CYWG 070800Z 18009KT 15SM SCT054 OVC094 05/03 A2957 RMK SC4AC4 SLP022

CYWG;2009-10-07 08:27;CYWG 070827Z 17010KT 15SM -SHRA BKN049 OVC084 05/ RMK SC5AC3

CYWG;2009-10-07 09:00;CYWG 070900Z 16010KT 15SM -SHRA OVC041 05/03 A2955 RMK SC8 SLP014

CYWG;2009-10-07 10:00;CYWG 071000Z 17012KT 15SM -SHRA OVC041 06/03 A2953 RMK SC8 SLP007

CYWG;2009-10-07 10:08;CYWG 071008Z 17014KT 15SM OVC041 06/ RMK SC8

CYWG;2009-10-07 11:00;CYWG 071100Z 16010G16KT 15SM OVC043 06/03 A2951 RMK SC8 SLP001

CYWG;2009-10-07 12:00;CYWG 071200Z 17016KT 15SM BKN048 06/03 A2948 RMK SC6 SLP992

CYWG;2009-10-07 13:00;CYWG 071300Z 17012G17KT 15SM BKN056 BKN069 05/03 A2946 RMK SC5AC1 SLP985

CYWG;2009-10-07 14:00;CYWG 071400Z 18017KT 15SM BKN051 BKN067 06/04 A2944 RMK SC5AC2 SLP979

CYWG;2009-10-07 14:14;CYWG 071414Z 18016KT 15SM -SHRA BKN043 BKN067 06/ RMK SC5AC2

CYWG;2009-10-07 15:00;CYWG 071500Z 18013KT 15SM -SHRA SCT023 BKN041 OVC061 06/05 A2944 RMK SC3SC2SC2 SLP976

CYWG;2009-10-07 16:00;CYWG 071600Z 19013KT 5SM -SHRA BKN014 OVC040 06/06 A2942 RMK ST5SC3 SLP972

CYWG;2009-10-07 16:29;CYWG 071629Z 20012KT 10SM -SHRA BKN007 OVC023 07/ RMK ST7SC1

CYWG;2009-10-07 17:00;CYWG 071700Z 21011KT 15SM BKN007 BKN019 OVC044 08/08 A2942 RMK ST3SC2SC1 SLP970

CYWG;2009-10-07 18:00;CYWG 071800Z 25014G19KT 15SM SCT008 OVC016 09/07 A2942 RMK ST3SC5 SLP970

CYWG;2009-10-07 19:00;CYWG 071900Z 26015G20KT 15SM OVC021 09/06 A2942 RMK SC8 SLP970

CYWG;2009-10-07 20:00;CYWG 072000Z 26017G25KT 15SM BKN022 OVC051 09/05 A2943 RMK SC6SC2 SLP972

CYWG;2009-10-07 21:00;CYWG 072100Z 27022G30KT 15SM BKN022 OVC091 08/04 A2945 RMK SC7AC1 SLP979

CYWG;2009-10-07 22:00;CYWG 072200Z 26017G24KT 15SM OVC027 08/03 A2946 RMK SC8 SLP984

CYWG;2009-10-07 22:55;CYWG 072255Z 27018KT 15SM -RA BKN020 OVC078 07/ RMK SC6AC2

CYWG;2009-10-07 23:00;CYWG 072300Z 28021KT 15SM -RA BKN020 OVC078 07/04 A2948 RMK SC6AC2 SLP991

CYWG;2009-10-07 23:40;CYWG 072340Z 28020G25KT 15SM BKN022 OVC093 07/ RMK SC7AC1

CYWG;2009-10-08 00:00;CYWG 080000Z 29023G29KT 15SM BKN018 OVC093 05/04 A2952 RMK SC7AC1 OBS TAKEN +8 SLP005

CYWG;2009-10-08 00:18;CYWG 080018Z 28023G30KT 10SM -RA BKN013 OVC093 05/ RMK SC7AC1

CYWG;2009-10-08 01:00;CYWG 080100Z 28023G28KT 15SM -RA BKN015 OVC021 05/03 A2954 RMK SC6SC2 SLP011

CYWG;2009-10-08 02:00;CYWG 080200Z 29020G29KT 6SM -RA OVC011 05/04 A2957 RMK SC8 SLP021

CYWG;2009-10-08 03:00;CYWG 080300Z 29019G26KT 10SM -RA OVC011 05/04 A2960 RMK SC8 SLP032

CYWG;2009-10-08 04:00;CYWG 080400Z 29021G26KT 6SM -DZ OVC010 04/04 A2964 RMK SC8 SLP044

CYWG;2009-10-08 05:00;CYWG 080500Z 28022G28KT 6SM -DZ OVC012 04/04 A2965 RMK SC8 SLP050

CYWG;2009-10-08 06:00;CYWG 080600Z 29019G26KT 6SM -DZ OVC009 04/04 A2968 RMK ST8 SLP060

CYWG;2009-10-08 07:00;CYWG 080700Z 29015KT 6SM -DZ OVC007 04/04 A2971 RMK ST8 SLP069

CYWG;2009-10-08 07:23;CYWG 080723Z 30012G17KT 10SM -DZ OVC010 05/ RMK ST8

CYWG;2009-10-08 08:00;CYWG 080800Z 31016KT 12SM -DZ OVC014 05/03 A2974 RMK ST8 SLP080

CYWG;2009-10-08 08:15;CYWG 080815Z 31012G19KT 15SM OVC018 05/ RMK SC8 CIG RGD

CYWG;2009-10-08 09:00;CYWG 080900Z 31016KT 15SM BKN023 04/03 A2977 RMK SC7 SLP089

CYWG;2009-10-08 10:00;CYWG 081000Z 30012KT 15SM BKN024 BKN080 03/02 A2980 RMK SC5AC2 SLP100

CYWG;2009-10-08 11:00;CYWG 081100Z 30011KT 15SM -SHRA BKN015 BKN051 03/02 A2982 RMK SC5SC2 SLP105

CYWG;2009-10-08 11:36;CYWG 081136Z 31013KT 15SM SCT023 02/ RMK SC4

CYWG;2009-10-08 12:00;CYWG 081200Z 31011KT 15SM BKN029 03/01 A2985 RMK SC6 SLP117

CYWG;2009-10-08 13:00;CYWG 081300Z 27007KT 15SM BKN048 BKN090 01/00 A2987 RMK SC5AC1 SLP123

CYWG;2009-10-08 13:51;CYWG 081351Z 29015KT 15SM BKN009 BKN028 03/ RMK SC6SC2

CYWG;2009-10-08 14:00;CYWG 081400Z 29014KT 15SM -DZ BKN013 BKN040 03/03 A2987 RMK SF6SC2 SLP126

CYWG;2009-10-08 14:12;CYWG 081412Z 29014G19KT 15SM -SHRA BKN008 BKN037 03/ RMK SF6SC1

CYWG;2009-10-08 15:00;CYWG 081500Z 30013KT 15SM -SHRA BKN012 04/03 A2989 RMK SC7 SLP132

CYWG;2009-10-08 15:26;CYWG 081526Z 30016KT 15SM BKN012 04/ RMK SC7

CYWG;2009-10-08 16:00;CYWG 081600Z 28017KT 15SM OVC015 05/03 A2990 RMK SC7 SLP134

CYWG;2009-10-08 17:00;CYWG 081700Z 29016KT 15SM -SHRA OVC014 05/02 A2991 RMK SC7 TCU ASOCTD SLP138

CYWG;2009-10-08 18:00;CYWG 081800Z 30018G24KT 12SM -SHRA OVC013 04/02 A2993 RMK SC8 TCU ASOCTD SLP144

CYWG;2009-10-08 18:11;CYWG 081811Z 30019G24KT 6SM -SHRASN OVC008 03/ RMK SC8 TCU ASOCTD

CYWG;2009-10-08 19:00;CYWG 081900Z 30020KT 10SM -SHRASN OVC007 03/02 A2993 RMK SC8 TCU EMBD SLP147

CYWG;2009-10-08 19:22;CYWG 081922Z 31016G25KT 12SM -SHRA BKN008 OVC023 03/ RMK SC6SC2 TCU EMBD

CYWG;2009-10-08 20:00;CYWG 082000Z 31018G24KT 15SM -SHRA BKN012 OVC035 04/03 A2995 RMK SC6SC2 TCU ASOCTD SLP153

CYWG;2009-10-08 20:20;CYWG 082020Z 30016G21KT 10SM -SHRASN BKN010 OVC035 02/ RMK SC6SC2 TCU ASOCTD

CYWG;2009-10-08 21:00;CYWG 082100Z 31018G24KT 12SM -SHRASN BKN012 BKN039 OVC073 02/01 A2997 RMK SC5SC2AC1 TCU ASOCTD SLP159

CYWG;2009-10-08 21:22;CYWG 082122Z 31015G20KT 15SM SCT012 BKN039 BKN070 03/ RMK SC3SC2AC1 TCU ASOCTD

CYWG;2009-10-08 22:00;CYWG 082200Z 32013G19KT 15SM FEW017 FEW039 BKN070 04/01 A2997 RMK SC2SC1AC1 SLP158

CYWG;2009-10-08 23:00;CYWG 082300Z 31007KT 15SM FEW012 SCT070 03/M00 A2998 RMK SC2AC1 SLP162

CYWG;2009-10-09 00:00;CYWG 090000Z 28005KT 15SM FEW015 00/M02 A3000 RMK SC2 SLP170

CYWG;2009-10-09 01:00;CYWG 090100Z 26005KT 15SM FEW015 SCT043 01/M01 A3001 RMK SC2SC2 SLP175

CYWG;2009-10-09 02:00;CYWG 090200Z 29008KT 15SM SCT043 M00/M03 A3003 RMK SC3 SLP181

CYWG;2009-10-09 03:00;CYWG 090300Z 28005KT 15SM FEW082 M02/M03 A3003 RMK AC2 SLP181

CYWG;2009-10-09 04:00;CYWG 090400Z 28002KT 15SM SKC M02/M03 A3002 RMK SLP178

CYWG;2009-10-09 05:00;CYWG 090500Z 26003KT 15SM SKC M04/M05 A3002 RMK FROIN SLP177

CYWG;2009-10-09 06:00;CYWG 090600Z 22002KT 15SM SKC M04/M05 A3001 RMK FROIN SLP175

CYWG;2009-10-09 07:00;CYWG 090700Z 19003KT 15SM SKC M05/M06 A3000 RMK FROIN SLP171

CYWG;2009-10-09 08:00;CYWG 090800Z 21003KT 15SM SKC M05/M06 A3000 RMK FROIN SLP172

CYWG;2009-10-09 09:00;CYWG 090900Z 20004KT 15SM SKC M04/M06 A2999 RMK SLP170

CYWG;2009-10-09 10:00;CYWG 091000Z 17005KT 15SM FEW076 M06/M07 A2999 RMK AC1 AC TR SLP169

CYWG;2009-10-09 11:00;CYWG 091100Z 15005KT 15SM BKN068 BKN092 M04/M05 A2999 RMK AC5AC1 SLP167

CYWG;2009-10-09 12:00;CYWG 091200Z 16006KT 15SM BKN059 BKN090 M04/M06 A2996 RMK SC5AC1 SLP161

CYWG;2009-10-09 13:00;CYWG 091300Z 16009KT 15SM BKN053 OVC090 M02/M05 A2994 RMK SC6AC2 SLP153

CYWG;2009-10-09 14:00;CYWG 091400Z 18011KT 15SM BKN055 OVC090 M01/M05 A2993 RMK SC6AC2 SLP149

CYWG;2009-10-09 15:00;CYWG 091500Z 20011KT 15SM BKN062 BKN075 00/M03 A2992 RMK SC5AC2 SLP144

CYWG;2009-10-09 16:00;CYWG 091600Z 21010G15KT 12SM -SHSN FEW015 BKN037 BKN081 02/M02 A2991 RMK SC2SC3AC2 SLP141

CYWG;2009-10-09 16:30;CYWG 091630Z 24009KT 15SM FEW015 BKN034 BKN068 RMK SC1SC5AC2

CYWG;2009-10-09 17:00;CYWG 091700Z 25009KT 15SM SCT022 BKN060 04/M01 A2991 RMK SF3SC4 SLP140

CYWG;2009-10-09 17:52;CYWG 091752Z 24010G15KT 10SM -SHRASN BKN020 OVC070 03/ RMK SC6AC2

CYWG;2009-10-09 18:00;CYWG 091800Z 25012G17KT 10SM -SHRASN BKN020 OVC070 03/M00 A2990 RMK SC6AC2 SLP139

CYWG;2009-10-09 18:40;CYWG 091840Z 25014G19KT 2 1/2SM -SHSN VV008 01/ RMK SN8

CYWG;2009-10-09 18:50;CYWG 091850Z 26014KT 5SM -SHSN OVC020 01/ RMK SN2SC6

CYWG;2009-10-09 19:00;CYWG 091900Z 26013G20KT 5SM -SHSN SCT009 OVC034 01/M01 A2990 RMK SC4SC4 SLP139

CYWG;2009-10-09 19:27;CYWG 091927Z 26016G27KT 10SM BKN012 OVC030 00/ RMK SC6SC2

CYWG;2009-10-09 19:51;CYWG 091951Z 26020G26KT 10SM -SHSN BKN012 OVC037 M00/ RMK SC6SC2

CYWG;2009-10-09 20:00;CYWG 092000Z 27017G26KT 5SM -SHSN BKN012 OVC023 M01/M02 A2991 RMK SN2SC3SC2 SLP142

CYWG;2009-10-09 20:03;CYWG 092003Z 27018G26KT 1 1/2SM -SHSN VV008 M01/ RMK SN8

CYWG;2009-10-09 20:07;CYWG 092007Z 26018G24KT 1SM R31/P6000FT/D R36/P6000FT/D -SHSN VV004 M01/ RMK SN8

CYWG;2009-10-09 21:00;CYWG 092100Z 27017G22KT 1 1/2SM -SHSN VV007 M01/M02 A2992 RMK SN8 SLP146

CYWG;2009-10-09 21:26;CYWG 092126Z 27016G25KT 4SM -SHSN BKN007 OVC032 M00/ RMK SN2SC3SC2

CYWG;2009-10-09 22:00;CYWG 092200Z 27018G27KT 3SM -SHSN BKN009 OVC032 M01/M02 A2992 RMK SN2SC3SC2 SLP147

CYWG;2009-10-09 22:12;CYWG 092212Z 27020G29KT 1 1/2SM -SHSN BKN009 OVC037 M01/ RMK SN3SC2SC2

CYWG;2009-10-09 23:00;CYWG 092300Z 27018G24KT 3/4SM R31/P6000FT/D R36/P6000FT/D -SHSN VV005 M01/M02 A2993 RMK SN8 SLP150

CYWG;2009-10-10 00:00;CYWG 100000Z 28015G21KT 1/2SM R31/6000FT/U R36/6000FT/U SHSN VV003 M02/M03 A2995 RMK SN8 SLP155

CYWG;2009-10-10 00:18;CYWG 100018Z 27014KT 1SM R31/P6000FT/U R36/P6000FT/U -SHSN VV003 M02/ RMK SN8

CYWG;2009-10-10 00:47;CYWG 100047Z 27014KT 2SM -SHSN VV007 M02/ RMK SN8

CYWG;2009-10-10 01:00;CYWG 100100Z 27012KT 2 1/2SM -SHSN OVC013 M02/M03 A2995 RMK SC8 SLP156

CYWG;2009-10-10 01:11;CYWG 100111Z 27011KT 1SM R31/P6000FT/D R36/P6000FT/D -SHSN VV005 M02/ RMK SN8

CYWG;2009-10-10 01:22;CYWG 100122Z 27010KT 1/2SM R31/4000VP6000FT/D R36/3000VP6000FT/D SHSN VV002 M02/ RMK SN8

CYWG;2009-10-10 01:31;CYWG 100131Z 28015KT 1SM R31/3000VP6000FT/U R36/3500VP6000FT/U -SHSN VV002 M02/ RMK SN8

CYWG;2009-10-10 01:42;CYWG 100142Z 28011KT 1/2SM R31/4000VP6000FT/D R36/4000VP6000FT/D SHSN VV001 M02/ RMK SN8

CYWG;2009-10-10 02:00;CYWG 100200Z 28016KT 1/2SM R31/2800V4500FT/D R36/3000FT/N SHSN VV001 M02/M02 A2994 RMK SN8 SLP152

CYWG;2009-10-10 03:00;CYWG 100300Z CCA 29011G18KT 1/2SM R31/4000FT/N R36/4500FT/U SHSN VV001 M02/M03 A2994 RMK SN8 /S06/ R31 4000N R36 4500U SLP152

CYWG;2009-10-10 03:08;CYWG 100308Z CCA 29011KT 3/4SM R31/4500VP6000FT/U R36/P6000FT/U -SHSN VV002 M02/ RMK SN8

CYWG;2009-10-10 03:11;CYWG 100311Z 29011KT 3/4SM R31/4500VP6000FT/U R36/P6000FT/U -SHSN VV002 RMK SN8 R31 4500VP6000U R36 P6000U

CYWG;2009-10-10 03:16;CYWG 100316Z 28015KT 1 1/2SM -SHSN OVC006 M02/ RMK SN4ST4

CYWG;2009-10-10 03:50;CYWG 100350Z 27019G24KT 3/4SM R31/P6000FT/D R36/P6000FT/D -SHSN BLSN VV004 M02/ RMK SN8

CYWG;2009-10-10 04:00;CYWG 100400Z 27021G27KT 3/4SM R31/P6000FT/U R36/P6000FT/N -SHSN BLSN VV004 M02/M03 A2992 RMK SN8 SLP146

CYWG;2009-10-10 04:45;CYWG 100445Z 27018G25KT 1 1/2SM -SHSN BLSN BKN003 OVC044 M02/ RMK SN2ST4SC2

CYWG;2009-10-10 05:00;CYWG 100500Z 27019G25KT 15SM DRSN FEW003 BKN058 OVC096 M02/M04 A2992 RMK SF2SC4AC2 SLP145

CYWG;2009-10-10 06:00;CYWG 100600Z 27018G24KT 15SM DRSN FEW003 BKN044 OVC096 M02/M06 A2992 RMK SF1SC4AC2 SLP143

CYWG;2009-10-10 07:00;CYWG 100700Z 27018G24KT 15SM DRSN BKN037 OVC095 M03/M06 A2991 RMK SC6AC2 SLP142

CYWG;2009-10-10 08:00;CYWG 100800Z 27018KT 15SM BKN039 BKN092 M03/M05 A2990 RMK SC5AC2 SLP139

CYWG;2009-10-10 09:00;CYWG 100900Z 28016G22KT 15SM DRSN FEW026 SCT039 BKN065 M03/M05 A2990 RMK SC1SC3SC3 SLP140

CYWG;2009-10-10 10:00;CYWG 101000Z 28018KT 15SM DRSN OVC028 M03/M05 A2991 RMK SC8 SLP141

CYWG;2009-10-10 11:00;CYWG 101100Z 27016G22KT 15SM OVC024 M02/M05 A2991 RMK SC8 SLP143

CYWG;2009-10-10 12:00;CYWG 101200Z 27019KT 15SM OVC024 M02/M05 A2992 RMK SC8 SLP146

CYWG;2009-10-10 13:00;CYWG 101300Z 28018KT 15SM BKN022 OVC110 M02/M05 A2993 RMK SC7AC1 SLP149

CYWG;2009-10-10 14:00;CYWG 101400Z 28019G24KT 15SM BKN024 BKN055 M02/M05 A2994 RMK SC6SC1 SLP152

CYWG;2009-10-10 15:00;CYWG 101500Z 28017KT 15SM SCT024 BKN055 M02/M05 A2995 RMK SC4SC1 SLP156

CYWG;2009-10-10 16:00;CYWG 101600Z 28017KT 15SM SCT027 BKN062 M01/M04 A2995 RMK SC4SC1 SLP157

CYWG;2009-10-10 16:39;CYWG 101639Z 28019KT 15SM -SHSN FEW024 BKN062 M01/ RMK SC2SC1

CYWG;2009-10-10 17:00;CYWG 101700Z 28018G25KT 15SM FEW024 FEW062 SCT110 M00/M04 A2996 RMK SC2SC1AC0 SLP160

CYWG;2009-10-10 18:00;CYWG 101800Z 28021KT 15SM BKN030 BKN040 M00/M04 A2998 RMK SC5SC2 SLP164

CYWG;2009-10-10 19:00;CYWG 101900Z 28017G22KT 15SM BKN030 BKN068 01/M04 A2998 RMK SC5AC2 SLP166

CYWG;2009-10-10 20:00;CYWG 102000Z 28018KT 15SM BKN022 01/M03 A2999 RMK SC7 SLP168

CYWG;2009-10-10 21:00;CYWG 102100Z 29017KT 15SM BKN024 01/M03 A3000 RMK SC7 SLP172

CYWG;2009-10-10 22:00;CYWG 102200Z 28012KT 15SM BKN024 01/M03 A3001 RMK SC7 SLP175

CYWG;2009-10-10 23:00;CYWG 102300Z 28013KT 15SM BKN029 BKN077 01/M02 A3002 RMK SC5AC2 SLP179

CYWG;2009-10-11 00:00;CYWG 110000Z 27011KT 15SM BKN034 BKN060 01/M02 A3003 RMK SC5SC2 SLP184

CYWG;2009-10-11 01:00;CYWG 110100Z 27010KT 15SM BKN033 BKN060 01/M02 A3005 RMK SC6SC2 SLP189

CYWG;2009-10-11 01:48;CYWG 110148Z 26008KT 15SM -SN BKN028 01/ RMK SC7

CYWG;2009-10-11 02:00;CYWG 110200Z 26007KT 15SM -SN BKN028 01/M02 A3006 RMK SC7 SLP193

CYWG;2009-10-11 03:00;CYWG 110300Z 28014KT 15SM BKN021 OVC082 01/M02 A3007 RMK SC6AC2 SLP196

CYWG;2009-10-11 04:00;CYWG 110400Z 28009KT 15SM SCT024 BKN075 00/M02 A3008 RMK SC3AC2 SLP200

CYWG;2009-10-11 04:45;CYWG 110445Z 28011KT 15SM -SN BKN015 BKN075 00/ RMK SC6AC2

CYWG;2009-10-11 05:00;CYWG 110500Z 28009KT 8SM -SN BKN020 BKN074 00/M01 A3009 RMK SC6AC1 SLP204

CYWG;2009-10-11 06:00;CYWG 110600Z 27009KT 15SM FEW012 SCT029 BKN091 M00/M01 A3010 RMK SF2SC2AC2 SLP207

CYWG;2009-10-11 06:25;CYWG 110625Z 27011KT 8SM -SHSN FEW009 BKN036 BKN094 RMK SF1SC5AC2

CYWG;2009-10-11 07:00;CYWG 110700Z 26007KT 15SM FEW008 BKN036 BKN087 00/M01 A3011 RMK SF1SC4AC2 SHWRS E SLP209

CYWG;2009-10-11 08:00;CYWG 110800Z 27008KT 15SM FEW019 FEW052 M01/M02 A3012 RMK SC1SC2 SLP211

CYWG;2009-10-11 09:00;CYWG 110900Z 27008KT 15SM FEW041 SCT071 M01/M02 A3012 RMK SC2AC2 SLP213

CYWG;2009-10-11 10:00;CYWG 111000Z 26008KT 15SM BKN035 M00/M01 A3013 RMK SC7 SLP217

CYWG;2009-10-11 11:00;CYWG 111100Z 26008KT 15SM BKN039 BKN070 M01/M02 A3015 RMK SC5AC2 SLP221

CYWG;2009-10-11 12:00;CYWG 111200Z 26008KT 15SM SCT027 BKN070 M01/M02 A3016 RMK SC3AC4 SLP224

CYWG;2009-10-11 13:00;CYWG 111300Z 26006KT 15SM BKN024 BKN079 M02/M03 A3017 RMK SC5AC2 SLP228

CYWG;2009-10-11 14:00;CYWG 111400Z 26007KT 15SM SCT051 BKN071 M01/M02 A3018 RMK SC3AC3 SLP233

CYWG;2009-10-11 15:00;CYWG 111500Z 26010KT 15SM SCT049 BKN078 00/M01 A3019 RMK SC3AC4 SLP235

CYWG;2009-10-11 16:00;CYWG 111600Z 27008KT 15SM SCT024 BKN052 01/M01 A3019 RMK SC3SC3 SLP237

CYWG;2009-10-11 17:00;CYWG 111700Z 27008KT 15SM FEW024 BKN054 02/M01 A3019 RMK SC2SC5 SLP237

CYWG;2009-10-11 18:00;CYWG 111800Z 29008KT 15SM BKN052 03/M01 A3019 RMK SC7 SLP236

CYWG;2009-10-11 19:00;CYWG 111900Z 30005KT 15SM FEW027 BKN052 03/M02 A3019 RMK SC2SC5 SLP234

CYWG;2009-10-11 20:00;CYWG 112000Z 30003KT 15SM FEW037 OVC052 02/M02 A3018 RMK SC2SC6 SLP233

CYWG;2009-10-11 21:00;CYWG 112100Z 30004KT 15SM FEW025 OVC037 02/M02 A3018 RMK SC2SC6 SLP232

CYWG;2009-10-11 21:05;CYWG 112105Z 29005KT 15SM -SHSN FEW025 OVC036 02/ RMK SC2SC6

CYWG;2009-10-11 22:00;CYWG 112200Z 00000KT 15SM -SHSN FEW025 OVC039 02/M02 A3018 RMK SC2SC6 SLP231

CYWG;2009-10-11 23:00;CYWG 112300Z 17005KT 15SM FEW042 OVC050 02/M02 A3017 RMK SC2SC6 SLP230

CYWG;2009-10-12 00:00;CYWG 120000Z 18003KT 15SM FEW040 OVC061 01/M01 A3017 RMK SC2SC6 SLP230

CYWG;2009-10-12 01:00;CYWG 120100Z 19003KT 15SM FEW032 OVC072 01/M02 A3018 RMK SC2AC6 SLP231

CYWG;2009-10-12 02:00;CYWG 120200Z 18003KT 15SM FEW035 BKN072 01/M01 A3018 RMK SC2AC5 SLP232

CYWG;2009-10-12 03:00;CYWG 120300Z 20005KT 15SM FEW035 BKN067 01/M02 A3018 RMK SC2AC6 SLP232

CYWG;2009-10-12 04:00;CYWG 120400Z 21005KT 15SM VCSH SCT037 BKN072 01/M02 A3019 RMK SC3AC3 -SHSN E SLP235

CYWG;2009-10-12 05:00;CYWG 120500Z 23003KT 15SM FEW044 BKN080 00/M02 A3019 RMK SC2AC6 SLP237

CYWG;2009-10-12 06:00;CYWG 120600Z 22003KT 15SM OVC080 00/M02 A3019 RMK AC8 SLP234

CYWG;2009-10-12 07:00;CYWG 120700Z 00000KT 15SM OVC080 M00/M02 A3018 RMK AC8 SLP231

CYWG;2009-10-12 08:00;CYWG 120800Z 19002KT 15SM OVC080 M01/M02 A3017 RMK AC8 SLP230

CYWG;2009-10-12 09:00;CYWG 120900Z 18004KT 15SM OVC090 M01/M02 A3016 RMK AC8 SLP226

CYWG;2009-10-12 10:00;CYWG 121000Z 17004KT 15SM OVC086 M01/M02 A3016 RMK AC8 SLP227

CYWG;2009-10-12 11:00;CYWG 121100Z 00000KT 15SM OVC088 M01/M02 A3016 RMK AC8 SLP225

CYWG;2009-10-12 12:00;CYWG 121200Z 16005KT 15SM SCT090 BKN210 M02/M03 A3016 RMK AC3CI4 SLP227

CYWG;2009-10-12 13:00;CYWG 121300Z 18005KT 15SM FEW027 BKN091 BKN210 M02/M02 A3016 RMK SC2AC2CI2 SLP227

CYWG;2009-10-12 14:00;CYWG 121400Z 20002KT 15SM BKN053 BKN093 M01/M02 A3017 RMK SC6AC2 SLP230

CYWG;2009-10-12 15:00;CYWG 121500Z 00000KT 15SM FEW035 BKN068 BKN210 00/M01 A3017 RMK SC2AC2CI2 SLP229

CYWG;2009-10-12 16:00;CYWG 121600Z 00000KT 15SM FEW011 BKN049 BKN210 02/M01 A3018 RMK SC2SC3CI1 SLP231

CYWG;2009-10-12 17:00;CYWG 121700Z 30003KT 15SM BKN015 BKN094 03/M01 A3018 RMK SC6AC1 SLP232

CYWG;2009-10-12 17:54;CYWG 121754Z 03002KT 4SM -SN OVC029 02/ RMK SC8

CYWG;2009-10-12 18:00;CYWG 121800Z 02002KT 6SM -SN BKN029 02/M01 A3018 RMK SC7 SLP233

CYWG;2009-10-12 18:05;CYWG 121805Z 01002KT 3SM -SHGS BKN027 BKN078 02/ RMK SC6AC1

CYWG;2009-10-12 18:40;CYWG 121840Z 00000KT 10SM -SHSN BKN022 BKN078 02/ RMK SC6AC2 TCU ASOCTD

CYWG;2009-10-12 19:00;CYWG 121900Z 06004KT 10SM -SHSN SCT025 BKN055TCU 03/M04 A3018 RMK SC3TCU3 SLP231

CYWG;2009-10-12 19:19;CYWG 121919Z 08002KT 10SM FEW030 BKN055TCU 04/ RMK SC2TCU4 -SHSN ALQDS

CYWG;2009-10-12 20:00;CYWG 122000Z 29007KT 10SM -SHSN FEW029 BKN052TCU 02/M02 A3018 RMK SC2TCU4 SLP231

CYWG;2009-10-12 20:30;CYWG 122030Z 28005KT 15SM SCT044TCU BKN080 01/ RMK TCU3AC1

CYWG;2009-10-12 21:00;CYWG 122100Z 25004KT 15SM SCT051TCU 03/M01 A3018 RMK TCU4 SLP232

CYWG;2009-10-12 22:00;CYWG 122200Z 34004KT 15SM SCT050TCU 02/M03 A3019 RMK TCU4 SLP235

CYWG;2009-10-12 23:00;CYWG 122300Z 00000KT 15SM SCT050 02/M01 A3021 RMK CU4 SLP241

CYWG;2009-10-13 00:00;CYWG 130000Z 32002KT 15SM FEW060 M00/M03 A3022 RMK SC2 VIRGA NE SLP249

CYWG;2009-10-13 01:00;CYWG 130100Z 00000KT 15SM FEW070 M01/M03 A3024 RMK AC1 SLP255

CYWG;2009-10-13 02:00;CYWG 130200Z 26005KT 15SM FEW070 M02/M03 A3026 RMK AC1 SLP260

CYWG;2009-10-13 03:00;CYWG 130300Z 25006KT 15SM FEW075 M03/M04 A3028 RMK AC1 AC TR SLP266

CYWG;2009-10-13 04:00;CYWG 130400Z 26006KT 15SM FEW075 M03/M04 A3030 RMK AC1 AC TR SLP273

CYWG;2009-10-13 05:00;CYWG 130500Z 27005KT 15SM FEW091 M04/M06 A3031 RMK AC1 SLP278

CYWG;2009-10-13 06:00;CYWG 130600Z 28005KT 15SM FEW082 M06/M06 A3033 RMK AC1 SLP285

CYWG;2009-10-13 07:00;CYWG 130700Z CCA 27003KT 15SM FEW082 M05/M07 A3035 RMK AC1 SLP292

CYWG;2009-10-13 08:00;CYWG 130800Z 26004KT 15SM FEW086 M06/M07 A3036 RMK AC1 SLP295

CYWG;2009-10-13 09:00;CYWG 130900Z 26003KT 15SM SKC M06/M07 A3037 RMK SLP300

CYWG;2009-10-13 10:00;CYWG 131000Z 26003KT 15SM SKC M07/M08 A3039 RMK SLP305

CYWG;2009-10-13 11:00;CYWG 131100Z 00000KT 15SM SKC M08/M09 A3040 RMK SLP309

CYWG;2009-10-13 12:00;CYWG 131200Z 28004KT 15SM SKC M08/M09 A3041 RMK SLP315

CYWG;2009-10-13 13:00;CYWG 131300Z 24002KT 15SM SKC M07/M08 A3043 RMK SLP322

CYWG;2009-10-13 14:00;CYWG 131400Z 28002KT 15SM SKC M05/M06 A3045 RMK SLP327

CYWG;2009-10-13 15:00;CYWG 131500Z 27003KT 15SM SKC M03/M05 A3046 RMK SLP330

CYWG;2009-10-13 16:00;CYWG 131600Z 00000KT 15SM FEW070 M00/M02 A3046 RMK AC1 SLP330

CYWG;2009-10-13 17:00;CYWG 131700Z 28002KT 15SM SCT015 02/M01 A3046 RMK SC4 SLP331

CYWG;2009-10-13 18:00;CYWG 131800Z 00000KT 15SM BKN023 03/M03 A3046 RMK SC6 SLP329

CYWG;2009-10-13 19:00;CYWG 131900Z 23003KT 15SM SCT030 03/M04 A3045 RMK SC3 SLP326

CYWG;2009-10-13 20:00;CYWG 132000Z 23005KT 15SM SCT030 SCT230 04/M05 A3045 RMK SC3CI0 SLP325

CYWG;2009-10-13 21:00;CYWG 132100Z 28004KT 15SM FEW035 SCT230 04/M07 A3044 RMK SC2CI0 SLP321

CYWG;2009-10-13 22:00;CYWG 132200Z 28002KT 15SM FEW040 SCT230 03/M06 A3043 RMK SC2CI0 SLP319

CYWG;2009-10-13 23:00;CYWG 132300Z 31002KT 15SM FEW080 FEW230 02/M06 A3042 RMK AC1CI0 SLP316

CYWG;2009-10-14 00:00;CYWG 140000Z 32002KT 15SM FEW080 FEW230 M01/M06 A3041 RMK AC1CI0 SLP316

CYWG;2009-10-14 01:00;CYWG 140100Z 02002KT 15SM SKC M03/M06 A3042 RMK SLP317

CYWG;2009-10-14 02:00;CYWG 140200Z 34002KT 15SM FEW080 M03/M07 A3042 RMK AC1 SLP317

CYWG;2009-10-14 03:00;CYWG 140300Z 06003KT 15SM BKN057 M03/M06 A3041 RMK SC6 SLP315

CYWG;2009-10-14 04:00;CYWG 140400Z 00000KT 15SM BKN057 M02/M05 A3041 RMK SC7 SLP315

CYWG;2009-10-14 05:00;CYWG 140500Z 01002KT 15SM BKN057 M02/M04 A3041 RMK SC7 SLP314

CYWG;2009-10-14 06:00;CYWG 140600Z 05003KT 15SM FEW057 BKN080 BKN230 M01/M03 A3039 RMK SC2AC1CI0 SLP303

CYWG;2009-10-14 07:00;CYWG 140700Z 02004KT 15SM FEW057 BKN082 M03/M05 A3037 RMK SC1AC4 SLP298

CYWG;2009-10-14 08:00;CYWG 140800Z 04004KT 15SM SCT082 BKN230 M02/M04 A3036 RMK AC2CI2 SLP294

CYWG;2009-10-14 09:00;CYWG 140900Z 05003KT 15SM FEW055 SCT080 BKN230 M02/M03 A3033 RMK SC2AC1CI2 SLP284

CYWG;2009-10-14 10:00;CYWG 141000Z 08003KT 15SM SCT055 SCT230 M02/M04 A3032 RMK SC3CI0 SLP281

CYWG;2009-10-14 11:00;CYWG 141100Z 12002KT 15SM FEW044 SCT097 BKN230 M01/M04 A3032 RMK SC2AC1CI0 SLP281

CYWG;2009-10-14 12:00;CYWG 141200Z 11004KT 15SM FEW055 SCT091 BKN230 M01/M03 A3030 RMK SC1AC2CI0 SLP275

CYWG;2009-10-14 13:00;CYWG 141300Z 11006KT 15SM FEW055 BKN086 BKN230 M01/M03 A3029 RMK SC1AS3CI0 SLP270

CYWG;2009-10-14 14:00;CYWG 141400Z 13005KT 15SM FEW055 BKN084 OVC230 01/M02 A3027 RMK SC1AS6CI0 SLP263

CYWG;2009-10-14 15:00;CYWG 141500Z 15007KT 15SM FEW055 BKN075 OVC230 01/M02 A3025 RMK SC1AS6CI1 SLP259

CYWG;2009-10-14 16:00;CYWG 141600Z 16006KT 15SM FEW035 BKN068 OVC230 03/M02 A3025 RMK SC1AS6CI1 SLP256

CYWG;2009-10-14 16:48;CYWG 141648Z 15009KT 9SM -SN SCT017 OVC090 03/ RMK SC3AC5

CYWG;2009-10-14 17:00;CYWG 141700Z 16008KT 9SM -SN FEW007 SCT017 OVC059 03/M03 A3024 RMK SC1SC3SC4 SLP253

CYWG;2009-10-14 18:00;CYWG 141800Z 14007KT 9SM -SN SCT022 BKN038 OVC059 03/M02 A3022 RMK SC3SC3SC2 SLP247

CYWG;2009-10-14 18:43;CYWG 141843Z 14006KT 9SM -SN OVC014 03/ RMK SC8

CYWG;2009-10-14 19:00;CYWG 141900Z 16006KT 6SM -SN OVC014 03/M00 A3020 RMK SC8 SLP240

CYWG;2009-10-14 20:00;CYWG 142000Z 15006KT 3SM -SN OVC012 02/01 A3019 RMK SC8 SLP236

CYWG;2009-10-14 20:05;CYWG 142005Z 14006KT 6SM -SN BKN009 OVC029 02/ RMK SC6SC2

CYWG;2009-10-14 20:23;CYWG 142023Z 13006KT 6SM -DZ BKN009 OVC022 03/ RMK SC6SC2 CIG RAG

CYWG;2009-10-14 21:00;CYWG 142100Z 14007KT 6SM -DZ BKN009 OVC035 02/01 A3018 RMK ST6SC2 SLP232

CYWG;2009-10-14 22:00;CYWG 142200Z 13007KT 6SM -DZ BKN007 OVC022 02/01 A3016 RMK ST6SC2 SLP227

CYWG;2009-10-14 23:00;CYWG 142300Z 11007KT 6SM -DZ OVC009 02/01 A3015 RMK ST8 SLP222

CYWG;2009-10-15 00:00;CYWG 150000Z 09005KT 6SM -DZ OVC007 01/01 A3013 RMK ST8 SLP217

CYWG;2009-10-15 01:00;CYWG 150100Z 08006KT 6SM -DZ OVC006 01/01 A3013 RMK ST8 SLP216

CYWG;2009-10-15 02:00;CYWG 150200Z 09005KT 6SM -DZ BKN005 OVC024 01/01 A3013 RMK ST6SC2 SLP216

CYWG;2009-10-15 02:20;CYWG 150220Z 07004KT 6SM -DZ OVC004 01/ RMK ST8

CYWG;2009-10-15 03:00;CYWG 150300Z 07005KT 6SM -DZ OVC004 01/01 A3013 RMK ST8 SLP214

CYWG;2009-10-15 04:00;CYWG 150400Z 09006KT 8SM -DZ BKN006 OVC028 01/01 A3013 RMK SF6SC2 SLP215

CYWG;2009-10-15 05:00;CYWG 150500Z 10007KT 10SM -DZ BKN005 OVC022 01/01 A3013 RMK SF6SC2 SLP216

CYWG;2009-10-15 05:32;CYWG 150532Z 08005KT 8SM -DZ BKN004 OVC018 01/ RMK SF6SC2

CYWG;2009-10-15 06:00;CYWG 150600Z 08005KT 10SM -DZ BKN004 OVC038 01/01 A3013 RMK SF6SC2 SLP215

CYWG;2009-10-15 07:00;CYWG 150700Z 06006KT 8SM -DZ BKN004 OVC018 01/01 A3013 RMK SF6SC2 SLP215

CYWG;2009-10-15 08:00;CYWG 150800Z 09006KT 10SM -DZ BKN005 OVC028 01/01 A3012 RMK SF6SC2 SLP213

CYWG;2009-10-15 09:00;CYWG 150900Z 09006KT 12SM -DZ BKN004 BKN030 OVC038 01/01 A3012 RMK SF5SC2SC1 SLP210

CYWG;2009-10-15 10:00;CYWG 151000Z 08006KT 12SM -DZ BKN004 BKN016 OVC037 01/01 A3012 RMK SF5SC2SC2 SLP210

CYWG;2009-10-15 11:00;CYWG 151100Z 08005KT 15SM BKN004 OVC016 01/01 A3013 RMK SF6SC2 SLP214

CYWG;2009-10-15 12:00;CYWG 151200Z 08005KT 15SM BKN005 OVC016 01/01 A3014 RMK SF6SC2 SLP217

CYWG;2009-10-15 13:00;CYWG 151300Z 06005KT 9SM BKN004 OVC031 01/01 A3014 RMK SF7SC1 SLP219

CYWG;2009-10-15 14:00;CYWG 151400Z 07005KT 9SM OVC004 02/01 A3016 RMK SF8 SLP223

CYWG;2009-10-15 15:00;CYWG 151500Z 08005KT 9SM OVC005 02/02 A3016 RMK SF8 SLP227

CYWG;2009-10-15 15:35;CYWG 151535Z 09005KT 15SM OVC006 02/ RMK SF8

CYWG;2009-10-15 16:00;CYWG 151600Z 08004KT 15SM OVC006 03/02 A3017 RMK SF8 SLP229

CYWG;2009-10-15 17:00;CYWG 151700Z 06006KT 15SM OVC007 03/02 A3017 RMK SF8 SLP229

CYWG;2009-10-15 18:00;CYWG 151800Z 05004KT 15SM OVC007 03/01 A3017 RMK SF8 SLP228

CYWG;2009-10-15 18:23;CYWG 151823Z 03005KT 15SM OVC008 03/ RMK SF8

CYWG;2009-10-15 19:00;CYWG 151900Z 09003KT 15SM OVC010 04/02 A3017 RMK SC8 SLP227

CYWG;2009-10-15 20:00;CYWG 152000Z 07003KT 15SM OVC014 04/02 A3016 RMK SC8 SLP225

CYWG;2009-10-15 21:00;CYWG 152100Z 11003KT 15SM OVC016 05/01 A3016 RMK SC8 SLP226

CYWG;2009-10-15 22:00;CYWG 152200Z 03005KT 15SM BKN019 OVC090 05/02 A3017 RMK SC7AC1 SLP228

CYWG;2009-10-15 23:00;CYWG 152300Z 04005KT 15SM BKN016 OVC090 04/02 A3017 RMK SC6AC2 SLP229

CYWG;2009-10-16 00:00;CYWG 160000Z 05004KT 15SM FEW020 BKN036 OVC090 03/02 A3018 RMK SC2SC3AC3 SLP231

CYWG;2009-10-16 01:00;CYWG 160100Z 07003KT 15SM FEW035 OVC088 02/01 A3019 RMK SC2AC6 SLP233

CYWG;2009-10-16 02:00;CYWG 160200Z 34004KT 15SM OVC086 01/00 A3019 RMK AC8 SLP235

CYWG;2009-10-16 03:00;CYWG 160300Z 02003KT 15SM OVC086 01/00 A3020 RMK AC8 SLP239

CYWG;2009-10-16 04:00;CYWG 160400Z 03003KT 15SM OVC086 00/00 A3021 RMK AC8 SLP241

CYWG;2009-10-16 05:00;CYWG 160500Z 00000KT 15SM OVC086 00/00 A3020 RMK AC8 SLP239

CYWG;2009-10-16 06:00;CYWG 160600Z 03002KT 15SM OVC088 00/00 A3020 RMK AC8 SLP239

CYWG;2009-10-16 07:00;CYWG 160700Z 35002KT 15SM OVC088 M00/M00 A3019 RMK AC8 SLP237

CYWG;2009-10-16 08:00;CYWG 160800Z 32002KT 15SM OVC058 00/00 A3020 RMK SC8 SLP239

CYWG;2009-10-16 09:00;CYWG 160900Z 32002KT 15SM OVC058 00/00 A3020 RMK SC8 SLP239

CYWG;2009-10-16 10:00;CYWG 161000Z 03002KT 15SM OVC058 00/00 A3021 RMK SC8 SLP240

CYWG;2009-10-16 11:00;CYWG 161100Z 31002KT 15SM OVC058 M00/M00 A3022 RMK SC8 SLP244

CYWG;2009-10-16 12:00;CYWG 161200Z 28002KT 15SM OVC056 M00/M00 A3023 RMK SC8 SLP248

CYWG;2009-10-16 12:36;CYWG 161236Z 28004KT 15SM -FZRA OVC049 M00/ RMK SC8 PCPN VRY LGT

CYWG;2009-10-16 13:00;CYWG 161300Z 28003KT 15SM -FZRA SCT013 OVC037 M00/M01 A3024 RMK SC4SC4 PCPN VRY LGT SLP252

CYWG;2009-10-16 13:28;CYWG 161328Z 30004KT 15SM -RA BKN019 BKN037 OVC078 00/ RMK SC5SC2AC2

CYWG;2009-10-16 14:00;CYWG 161400Z 30003KT 15SM -RA BKN015 OVC059 01/01 A3025 RMK SC6SC2 SLP257

CYWG;2009-10-16 15:00;CYWG 161500Z 29005KT 15SM -RA FEW006 BKN022 OVC059 03/02 A3026 RMK SF1SC6SC2 SLP259

CYWG;2009-10-16 16:00;CYWG 161600Z 30005KT 15SM -RA BKN008 OVC046 04/03 A3026 RMK SC6SC2 SLP260

CYWG;2009-10-16 16:37;CYWG 161637Z 29006KT 15SM -RA BKN013 BKN041 05/ RMK CU6SC2

CYWG;2009-10-16 17:00;CYWG 161700Z 29006KT 15SM -RA BKN013 OVC037 04/02 A3027 RMK SC6SC2 SLP261

CYWG;2009-10-16 18:00;CYWG 161800Z 30003KT 15SM -RA BKN012 BKN044 04/03 A3028 RMK CU6SC2 SLP264

CYWG;2009-10-16 18:57;CYWG 161857Z 33009KT 15SM SCT013 BKN031 05/ RMK CU4SC3

CYWG;2009-10-16 19:00;CYWG 161900Z 32008KT 15SM SCT013 BKN031 05/02 A3027 RMK CU4SC3 SH NW-E SLP262

CYWG;2009-10-16 20:00;CYWG 162000Z 29008KT 15SM BKN035 05/02 A3027 RMK SC7 TCU EMBD SH ALQDS SLP261

CYWG;2009-10-16 21:00;CYWG 162100Z 30007KT 15SM FEW020 BKN030 05/02 A3027 RMK SC2SC5 TCU EMBD SH NE-S SLP262

CYWG;2009-10-16 22:00;CYWG 162200Z 31008KT 15SM FEW020 OVC030 05/02 A3029 RMK SC2SC6 CU EMBD SLP267

CYWG;2009-10-16 23:00;CYWG 162300Z 30006KT 15SM FEW023 OVC039 05/02 A3030 RMK SC2SC6 SLP271

CYWG;2009-10-17 00:00;CYWG 170000Z 31007KT 15SM FEW025 OVC037 04/01 A3031 RMK SC1SC7 SLP276

CYWG;2009-10-17 01:00;CYWG 170100Z 28006KT 15SM OVC037 03/02 A3032 RMK SC7 SLP278

CYWG;2009-10-17 02:00;CYWG 170200Z 28006KT 15SM OVC039 03/01 A3032 RMK SC8 SLP281

CYWG;2009-10-17 03:00;CYWG 170300Z 27007KT 15SM BKN036 BKN066 03/01 A3032 RMK SC6AC2 SLP279

CYWG;2009-10-17 04:00;CYWG 170400Z 27005KT 15SM OVC032 03/02 A3033 RMK SC8 SLP283

CYWG;2009-10-17 05:00;CYWG 170500Z 25004KT 15SM OVC028 03/01 A3033 RMK SC8 SLP283

CYWG;2009-10-17 06:00;CYWG 170600Z 26006KT 15SM OVC026 03/01 A3034 RMK SC8 SLP284

CYWG;2009-10-17 07:00;CYWG 170700Z 26006KT 15SM OVC026 02/00 A3035 RMK SC8 SLP287

CYWG;2009-10-17 08:00;CYWG 170800Z 23006KT 15SM OVC022 03/M01 A3032 RMK SC8 SLP280

CYWG;2009-10-17 09:00;CYWG 170900Z 23007KT 15SM OVC020 02/M01 A3031 RMK SC8 SLP274

CYWG;2009-10-17 10:00;CYWG 171000Z 22008KT 15SM OVC018 02/M00 A3032 RMK SC8 SLP277

CYWG;2009-10-17 11:00;CYWG 171100Z 21007KT 15SM OVC020 02/M01 A3029 RMK SC8 SLP269

CYWG;2009-10-17 12:00;CYWG 171200Z 20009KT 15SM OVC025 02/M01 A3028 RMK SC8 SLP265

CYWG;2009-10-17 13:00;CYWG 171300Z 19010KT 15SM OVC027 02/M01 A3023 RMK SC8 SLP249

CYWG;2009-10-17 14:00;CYWG 171400Z 21011G18KT 15SM OVC025 03/M01 A3023 RMK SC8 SLP249

CYWG;2009-10-17 15:00;CYWG 171500Z 21012G17KT 15SM OVC021 03/M00 A3023 RMK SC8 SLP248

CYWG;2009-10-17 16:00;CYWG 171600Z 19016G24KT 15SM SCT030 OVC100 04/00 A3019 RMK SC3AC3 SLP235

CYWG;2009-10-17 17:00;CYWG 171700Z 19015G22KT 15SM FEW025 BKN084 OVC220 04/01 A3016 RMK SC2AC4CI1 SLP225

CYWG;2009-10-17 18:00;CYWG 171800Z 19020G27KT 15SM FEW022 BKN095 OVC220 06/01 A3012 RMK SC2AC3CI1 SLP209

CYWG;2009-10-17 19:00;CYWG 171900Z 19020G27KT 15SM FEW022 OVC093 07/02 A3008 RMK SC2AC4 SLP197

CYWG;2009-10-17 20:00;CYWG 172000Z 19023KT 15SM FEW022 SCT095 OVC220 07/02 A3003 RMK SC2AC2CI2 SLP179

CYWG;2009-10-17 21:00;CYWG 172100Z 19023G31KT 15SM FEW020 FEW095 BKN220 08/02 A2999 RMK SC1AC2CI1 SLP167

CYWG;2009-10-17 22:00;CYWG 172200Z 18021G29KT 15SM FEW020 FEW095 BKN220 08/03 A2997 RMK SC1AC2CI1 SLP158

CYWG;2009-10-17 23:00;CYWG 172300Z 18017G26KT 15SM FEW090 BKN220 07/03 A2995 RMK AC2CI1 SLP151

CYWG;2009-10-18 00:00;CYWG 180000Z 18018G26KT 15SM FEW097 BKN220 06/03 A2993 RMK AC2CI2 SLP147

CYWG;2009-10-18 01:00;CYWG 180100Z 18019G26KT 15SM SCT100 BKN220 06/03 A2992 RMK AC3CI2 SLP141

CYWG;2009-10-18 02:00;CYWG 180200Z 18021G26KT 15SM SCT100 BKN220 06/03 A2987 RMK AC3CI2 SLP127

CYWG;2009-10-18 03:00;CYWG 180300Z 18020G28KT 15SM BKN100 OVC220 05/03 A2986 RMK AC5CI3 SLP120

CYWG;2009-10-18 04:00;CYWG 180400Z 18019G24KT 15SM FEW094 05/03 A2983 RMK AC2 SLP111

CYWG;2009-10-18 05:00;CYWG 180500Z 18017G24KT 15SM FEW094 SCT220 04/03 A2980 RMK AC2CI2 SLP100

CYWG;2009-10-18 06:00;CYWG 180600Z 18016KT 15SM FEW088 SCT220 04/03 A2977 RMK AC2CI2 SLP091

CYWG;2009-10-18 07:00;CYWG 180700Z 18016KT 15SM BKN100 OVC220 04/03 A2976 RMK AC6CI2 SLP086

CYWG;2009-10-18 08:00;CYWG 180800Z 18012KT 15SM BKN092 OVC220 05/03 A2975 RMK AC6CI2 SLP083

CYWG;2009-10-18 09:00;CYWG 180900Z 18010KT 15SM BKN100 04/03 A2974 RMK AC6 SLP079

CYWG;2009-10-18 10:00;CYWG 181000Z 17011KT 15SM BKN090 04/03 A2972 RMK AC6 SLP072

CYWG;2009-10-18 11:00;CYWG 181100Z 18012KT 15SM FEW079 04/03 A2971 RMK AC1 SLP070

CYWG;2009-10-18 12:00;CYWG 181200Z 17012G17KT 15SM SCT079 04/03 A2969 RMK AC4 SLP064

CYWG;2009-10-18 13:00;CYWG 181300Z 17012KT 15SM FEW080 BKN250 03/02 A2967 RMK AC2CI1 SLP058

CYWG;2009-10-18 14:00;CYWG 181400Z 18014G19KT 15SM FEW110 BKN250 03/02 A2965 RMK ACC1CI2 SLP050

CYWG;2009-10-18 15:00;CYWG 181500Z 17013KT 15SM FEW091 SCT250 05/03 A2963 RMK ACC1CI1 SLP043

CYWG;2009-10-18 16:00;CYWG 181600Z 17014KT 15SM FEW095 BKN250 07/04 A2962 RMK AC1CI2 SLP040

CYWG;2009-10-18 17:00;CYWG 181700Z 16013KT 15SM FEW095 BKN250 09/05 A2959 RMK AC2CI2 SLP030

CYWG;2009-10-18 18:00;CYWG 181800Z 17012KT 15SM SCT085 BKN250 10/05 A2958 RMK AC3CI2 SLP024

CYWG;2009-10-18 19:00;CYWG 181900Z 17014KT 15SM SCT090 BKN250 12/06 A2953 RMK AC3CI3 SLP008

CYWG;2009-10-18 20:00;CYWG 182000Z 19008KT 15SM FEW062 SCT096 BKN250 13/07 A2953 RMK SC1AC3CI2 SLP008

CYWG;2009-10-18 21:00;CYWG 182100Z 18007KT 15SM FEW060 SCT090 BKN250 15/08 A2952 RMK SC1AC3CI2 SH NE TCU ASOCTD SLP002

CYWG;2009-10-18 22:00;CYWG 182200Z 20013KT 15SM SCT110 BKN250 16/08 A2950 RMK AC3CI1 SLP996

CYWG;2009-10-18 23:00;CYWG 182300Z 18006KT 15SM FEW090 BKN250 15/08 A2950 RMK AC2CI2 SLP994

CYWG;2009-10-19 00:00;CYWG 190000Z 18008KT 15SM FEW090 BKN250 11/08 A2948 RMK AC2CI2 SLP990

CYWG;2009-10-19 01:00;CYWG 190100Z 21007KT 15SM FEW230 11/08 A2949 RMK CI1 SLP994

CYWG;2009-10-19 02:00;CYWG 190200Z 24005KT 15SM SKC 09/07 A2950 RMK SLP995

CYWG;2009-10-19 03:00;CYWG 190300Z 28005KT 15SM FEW078 05/05 A2951 RMK AC1 SLP001

CYWG;2009-10-19 04:00;CYWG 190400Z 30007KT 15SM SKC 03/03 A2954 RMK SLP012

CYWG;2009-10-19 05:00;CYWG 190500Z 31006KT 15SM BKN073 05/05 A2957 RMK AC6 SLP022

CYWG;2009-10-19 06:00;CYWG 190600Z 31009KT 15SM SCT022 BKN058 06/05 A2961 RMK SC4SC3 SLP034

CYWG;2009-10-19 06:49;CYWG 190649Z 32013G18KT 15SM BKN007 OVC019 07/ RMK ST6SC2

CYWG;2009-10-19 07:00;CYWG 190700Z 32014KT 15SM BKN008 OVC019 07/07 A2965 RMK ST6SC2 SLP046

CYWG;2009-10-19 08:00;CYWG 190800Z 35020G26KT 15SM OVC010 08/06 A2970 RMK ST8 SLP064

CYWG;2009-10-19 09:00;CYWG 190900Z 34017KT 15SM BKN011 OVC027 07/06 A2976 RMK ST6SC2 SLP082

CYWG;2009-10-19 10:00;CYWG 191000Z 33013KT 15SM FEW023 SCT068 06/05 A2979 RMK SC2AC2 SLP092

CYWG;2009-10-19 11:00;CYWG 191100Z 33016G21KT 15SM SCT013 06/05 A2982 RMK SC3 SLP103

CYWG;2009-10-19 11:45;CYWG 191145Z 33011KT 15SM BKN013 06/ RMK SC6

CYWG;2009-10-19 12:00;CYWG 191200Z 32008KT 15SM BKN013 06/05 A2986 RMK SC7 SLP118

CYWG;2009-10-19 12:32;CYWG 191232Z 33005KT 15SM BKN008 05/ RMK SC7

CYWG;2009-10-19 13:00;CYWG 191300Z 31005KT 15SM BKN007 OVC011 05/04 A2989 RMK SC6SC2 SLP128

CYWG;2009-10-19 13:22;CYWG 191322Z 32011KT 15SM SCT007 BKN018 06/ RMK SC3SC4

CYWG;2009-10-19 14:00;CYWG 191400Z 31010KT 15SM FEW007 BKN017 07/06 A2991 RMK SC2SC5 SLP134

CYWG;2009-10-19 15:00;CYWG 191500Z 32010G15KT 15SM SCT011 BKN020 07/05 A2993 RMK SC3SC4 SLP144

CYWG;2009-10-19 15:47;CYWG 191547Z 34010KT 15SM BKN012 OVC020 08/ RMK SC6SC2

CYWG;2009-10-19 16:00;CYWG 191600Z 34009KT 15SM BKN012 OVC020 08/06 A2994 RMK SC5SC3 SLP147

CYWG;2009-10-19 16:37;CYWG 191637Z 33009KT 15SM SCT012 BKN020 08/ RMK SC3SC3

CYWG;2009-10-19 17:00;CYWG 191700Z 32009KT 15SM SCT012 BKN018 08/06 A2995 RMK SC3SC4 SLP149

CYWG;2009-10-19 18:00;CYWG 191800Z 31008KT 15SM SCT017 BKN025 OVC070 09/05 A2996 RMK SC3SC3AC2 SLP155

CYWG;2009-10-19 19:00;CYWG 191900Z 30010KT 15SM SCT018 BKN025 08/05 A2997 RMK SC4CU3 SLP156

CYWG;2009-10-19 20:00;CYWG 192000Z 31009KT 15SM BKN026 BKN052 08/05 A2997 RMK SC6CU2 SLP158

CYWG;2009-10-19 21:00;CYWG 192100Z 31010KT 15SM FEW022 BKN038 BKN210 09/05 A2999 RMK SC2SC4CI1 CU ASOCTD SLP162

CYWG;2009-10-19 22:00;CYWG 192200Z 31008KT 15SM BKN038 BKN050 BKN210 08/05 A2999 RMK SC6SC1CI1 CU ASOCTD SLP165

CYWG;2009-10-19 23:00;CYWG 192300Z 32005KT 15SM -SHRA SCT020 BKN047 OVC210 07/05 A3001 RMK SC3SC4CI1 CVCTV CLD EMBD SLP170

CYWG;2009-10-20 00:00;CYWG 200000Z 35002KT 15SM -SHRA BKN014 OVC031 07/06 A3003 RMK SC6SC2 CVCTV CLD EMBD SLP176

CYWG;2009-10-20 00:39;CYWG 200039Z 04005KT 15SM BKN018 OVC051 07/ RMK SC6SC2

CYWG;2009-10-20 01:00;CYWG 200100Z 03003KT 15SM -SHRA BKN020 OVC048 06/05 A3005 RMK SC6SC2 CVCTV CLD EMBD SLP183

CYWG;2009-10-20 01:32;CYWG 200132Z 03005KT 15SM BKN028 OVC051 06/ RMK SC6SC2

CYWG;2009-10-20 02:00;CYWG 200200Z 04005KT 15SM SCT028 OVC051 06/05 A3005 RMK SC4SC4 SLP185

CYWG;2009-10-20 03:00;CYWG 200300Z 04006KT 15SM SCT040 BKN053 OVC071 06/05 A3005 RMK SC3SC3AC2 SLP184

CYWG;2009-10-20 03:15;CYWG 200315Z 05008KT 15SM -RA BKN045 OVC068 06/ RMK SC6AC2

CYWG;2009-10-20 04:00;CYWG 200400Z 04007KT 15SM BKN045 OVC068 05/04 A3006 RMK SC6AC2 SLP187

CYWG;2009-10-20 04:24;CYWG 200424Z 04006KT 15SM -RA OVC037 05/ RMK SC8

CYWG;2009-10-20 05:00;CYWG 200500Z 05008KT 15SM OVC035 05/04 A3006 RMK SC8 SLP188

CYWG;2009-10-20 06:00;CYWG 200600Z 07005KT 15SM BKN043 OVC090 05/03 A3009 RMK SC6AC2 SLP197

CYWG;2009-10-20 07:00;CYWG 200700Z 07005KT 15SM BKN043 OVC055 05/03 A3010 RMK SC6SC2 SLP203

CYWG;2009-10-20 08:00;CYWG 200800Z 07006KT 15SM OVC055 05/03 A3011 RMK SC8 SLP206

CYWG;2009-10-20 09:00;CYWG 200900Z 06005KT 15SM OVC057 04/02 A3012 RMK SC8 SLP207

CYWG;2009-10-20 10:00;CYWG 201000Z 08004KT 15SM BKN042 OVC057 04/02 A3012 RMK SC6SC2 SLP209

CYWG;2009-10-20 11:00;CYWG 201100Z 08004KT 15SM OVC044 04/02 A3014 RMK SC8 SLP214

CYWG;2009-10-20 12:00;CYWG 201200Z 04004KT 15SM OVC051 04/02 A3015 RMK SC8 SLP219

CYWG;2009-10-20 13:00;CYWG 201300Z 04003KT 15SM OVC053 03/02 A3016 RMK SC8 SLP221

CYWG;2009-10-20 14:00;CYWG 201400Z 04005KT 15SM OVC051 04/02 A3017 RMK SC7 SLP225

CYWG;2009-10-20 15:00;CYWG 201500Z 06004KT 15SM OVC051 04/03 A3017 RMK SC8 SLP226

CYWG;2009-10-20 16:00;CYWG 201600Z 06004KT 15SM BKN048 OVC081 06/03 A3018 RMK SC6AC2 SLP228

CYWG;2009-10-20 17:00;CYWG 201700Z 05005KT 15SM BKN054 OVC097 06/03 A3019 RMK SC6AC2 SLP232

CYWG;2009-10-20 18:00;CYWG 201800Z 05007KT 15SM BKN054 OVC090 07/03 A3019 RMK SC6AC2 SLP233

CYWG;2009-10-20 19:00;CYWG 201900Z 05009KT 15SM BKN054 BKN089 07/02 A3019 RMK SC5AC2 SLP231

CYWG;2009-10-20 20:00;CYWG 202000Z 03007KT 15SM FEW020 BKN054 BKN080 07/01 A3019 RMK SC1SC6AC2 SLP234

CYWG;2009-10-20 21:00;CYWG 202100Z 01008KT 15SM FEW050 BKN064 BKN097 07/00 A3021 RMK SC1SC5AC2 SLP238

CYWG;2009-10-20 22:00;CYWG 202200Z 01010KT 15SM BKN070 06/00 A3022 RMK AC7 SLP241

CYWG;2009-10-20 23:00;CYWG 202300Z 02006KT 15SM BKN070 BKN100 05/00 A3022 RMK AC5AC2 SLP244

CYWG;2009-10-21 00:00;CYWG 210000Z 01005KT 15SM SCT070 BKN100 04/M00 A3023 RMK AC3AC4 SLP249

CYWG;2009-10-21 01:00;CYWG 210100Z 02005KT 15SM SCT100 01/M01 A3024 RMK AC3 SLP252

CYWG;2009-10-21 02:00;CYWG 210200Z 01003KT 15SM SCT090 M01/M02 A3025 RMK AC3 SLP255

CYWG;2009-10-21 03:00;CYWG 210300Z 35004KT 15SM FEW094 M02/M03 A3025 RMK AC2 SLP257

CYWG;2009-10-21 04:00;CYWG 210400Z 02002KT 15SM SKC M02/M03 A3026 RMK SLP260

CYWG;2009-10-21 05:00;CYWG 210500Z 00000KT 15SM SKC M01/M01 A3029 RMK SLP268

CYWG;2009-10-21 06:00;CYWG 210600Z 02004KT 15SM FEW091 M03/M03 A3028 RMK AC2 SLP265

CYWG;2009-10-21 07:00;CYWG 210700Z 33005KT 15SM FEW084 M04/M05 A3029 RMK AC2 OBS +18 MINS SLP268

CYWG;2009-10-21 08:00;CYWG 210800Z 32005KT 15SM SKC M04/M05 A3030 RMK SLP271

CYWG;2009-10-21 09:00;CYWG 210900Z 32003KT 15SM SKC M04/M05 A3029 RMK SLP269

CYWG;2009-10-21 10:00;CYWG 211000Z 32005KT 15SM SKC M05/M05 A3028 RMK SLP267

CYWG;2009-10-21 11:00;CYWG 211100Z 33003KT 15SM SKC M04/M05 A3029 RMK FROIN SLP268

CYWG;2009-10-21 12:00;CYWG 211200Z 32003KT 15SM FEW080 M05/M05 A3029 RMK AC1 FROIN SLP270

CYWG;2009-10-21 13:00;CYWG 211300Z 32003KT 15SM BKN025 BKN090 M03/M03 A3029 RMK SC6AC1 SLP270

CYWG;2009-10-21 14:00;CYWG 211400Z 00000KT 15SM BKN024 BKN089 M03/M04 A3029 RMK SC5AC1 SLP270

CYWG;2009-10-21 15:00;CYWG 211500Z 00000KT 15SM FEW089 FEW250 M01/M01 A3028 RMK AC1CI1 SLP269

CYWG;2009-10-21 16:00;CYWG 211600Z 03002KT 15SM FEW089 FEW250 04/01 A3029 RMK AC1CI0 SLP270

CYWG;2009-10-21 17:00;CYWG 211700Z 06005KT 15SM SCT021 SCT092 SCT250 06/03 A3028 RMK SC3AC1CI1 SLP269

CYWG;2009-10-21 18:00;CYWG 211800Z 06004KT 15SM BKN023 07/02 A3028 RMK SC6 SLP264

CYWG;2009-10-21 19:00;CYWG 211900Z 35004KT 15SM BKN029 07/01 A3026 RMK SC7 SLP258

CYWG;2009-10-21 20:00;CYWG 212000Z 02004KT 15SM BKN032 07/01 A3024 RMK SC7 SLP252

CYWG;2009-10-21 21:00;CYWG 212100Z 36004KT 15SM BKN036 07/01 A3023 RMK SC6 SLP248

CYWG;2009-10-21 22:00;CYWG 212200Z 03006KT 15SM BKN034 07/01 A3023 RMK SC5 SLP248

CYWG;2009-10-21 23:00;CYWG 212300Z 04003KT 15SM FEW038 FEW068 03/01 A3022 RMK SC2AC1 SLP244

CYWG;2009-10-22 00:00;CYWG 220000Z 00000KT 15SM FEW090 02/M00 A3022 RMK AC1 SLP248

CYWG;2009-10-22 01:00;CYWG 220100Z 00000KT 15SM FEW086 M01/M01 A3023 RMK AC1 SLP250

CYWG;2009-10-22 02:00;CYWG 220200Z 00000KT 15SM SKC M01/M01 A3023 RMK SLP250

CYWG;2009-10-22 03:00;CYWG 220300Z 33004KT 15SM SKC M03/M03 A3023 RMK SLP252

CYWG;2009-10-22 04:00;CYWG 220400Z 00000KT 15SM SKC M04/M04 A3024 RMK SLP253

CYWG;2009-10-22 05:00;CYWG 220500Z 15004KT 15SM SKC M03/M03 A3022 RMK SLP248

CYWG;2009-10-22 06:00;CYWG 220600Z 00000KT 15SM SKC M05/M05 A3023 RMK SLP251

CYWG;2009-10-22 07:00;CYWG 220700Z 00000KT 15SM SKC M05/M05 A3024 RMK SLP253

CYWG;2009-10-22 08:00;CYWG 220800Z 00000KT 15SM SKC M05/M06 A3023 RMK SLP251

CYWG;2009-10-22 09:00;CYWG 220900Z 25002KT 15SM SKC M05/M05 A3024 RMK FROIN SLP252

CYWG;2009-10-22 10:00;CYWG 221000Z 18003KT 15SM SKC M06/M06 A3023 RMK FROIN SLP248

CYWG;2009-10-22 11:00;CYWG 221100Z 19003KT 15SM SKC M05/M05 A3023 RMK FROIN SLP250

CYWG;2009-10-22 12:00;CYWG 221200Z 00000KT 15SM MIFG SKC M06/M06 A3024 RMK FROIN SLP253

CYWG;2009-10-22 13:00;CYWG 221300Z 17002KT 10SM MIFG FEW270 M06/M06 A3023 RMK CI0 BR FROIN SLP252

CYWG;2009-10-22 14:00;CYWG 221400Z 16003KT 8SM FEW270 M03/M03 A3024 RMK CI0 BR SLP255

CYWG;2009-10-22 15:00;CYWG 221500Z 19002KT 10SM FEW270 01/01 A3025 RMK CI0 BR SLP259

CYWG;2009-10-22 16:00;CYWG 221600Z 19003KT 15SM FEW270 05/02 A3025 RMK CI0 SLP259

CYWG;2009-10-22 17:00;CYWG 221700Z 17004KT 15SM FEW270 07/01 A3025 RMK CI0 SLP258

CYWG;2009-10-22 18:00;CYWG 221800Z 17006KT 15SM FEW270 08/01 A3023 RMK CI0 SLP249

CYWG;2009-10-22 19:00;CYWG 221900Z 19005KT 15SM FEW270 09/00 A3020 RMK CI0 OBS TAKEN +08 SLP238

CYWG;2009-10-22 20:00;CYWG 222000Z 17007KT 15SM FEW250 09/M00 A3018 RMK CI1 CC ASOCTD SLP231

CYWG;2009-10-22 21:00;CYWG 222100Z 19007KT 15SM FEW240 09/00 A3015 RMK CI1 DIST FU S QUAD SLP221

CYWG;2009-10-22 22:00;CYWG 222200Z 15005KT 15SM FEW240 08/00 A3014 RMK CI1 SLP217

CYWG;2009-10-22 23:00;CYWG 222300Z 18007KT 15SM FEW240 05/M00 A3013 RMK CI1 FU SE-S-W SLP214

CYWG;2009-10-23 00:00;CYWG 230000Z 19003KT 15SM FEW240 04/M01 A3013 RMK CI1 SLP216

CYWG;2009-10-23 01:00;CYWG 230100Z 16003KT 15SM FEW240 01/M01 A3011 RMK CI1 SLP211

CYWG;2009-10-23 02:00;CYWG 230200Z 18004KT 15SM SCT240 03/M01 A3010 RMK CI1 SLP206

CYWG;2009-10-23 03:00;CYWG 230300Z 19007KT 15SM FEW240 01/M01 A3010 RMK CI1 SLP204

CYWG;2009-10-23 04:00;CYWG 230400Z 17006KT 15SM SKC M01/M02 A3009 RMK SLP203

CYWG;2009-10-23 05:00;CYWG 230500Z 16005KT 15SM SKC M01/M02 A3008 RMK SLP198

CYWG;2009-10-23 06:00;CYWG 230600Z 17006KT 15SM SKC M01/M02 A3006 RMK SLP190

CYWG;2009-10-23 07:00;CYWG 230700Z 18007KT 15SM SKC M00/M01 A3004 RMK SLP182

CYWG;2009-10-23 08:00;CYWG 230800Z 17006KT 15SM SKC M02/M03 A3002 RMK SLP176

CYWG;2009-10-23 09:00;CYWG 230900Z 16006KT 15SM SKC M03/M03 A3000 RMK SLP169

CYWG;2009-10-23 10:00;CYWG 231000Z 17007KT 15SM SKC M03/M03 A2997 RMK SLP161

CYWG;2009-10-23 11:00;CYWG 231100Z 17008KT 15SM SKC M02/M03 A2996 RMK SLP157

CYWG;2009-10-23 12:00;CYWG 231200Z 18010KT 15SM SCT250 M01/M02 A2994 RMK CI1 SLP151

CYWG;2009-10-23 13:00;CYWG 231300Z 18011KT 15SM BKN250 M02/M03 A2993 RMK CI3 SLP145

CYWG;2009-10-23 14:00;CYWG 231400Z 17010KT 15SM BKN250 M01/M01 A2990 RMK CI5 SLP138

CYWG;2009-10-23 15:00;CYWG 231500Z 18014KT 15SM FEW100 OVC250 01/M00 A2988 RMK AC2CI5 SLP129

CYWG;2009-10-23 16:00;CYWG 231600Z 18014KT 15SM FEW090 SCT140 OVC250 03/01 A2984 RMK AC2AC2CI4 SLP118

CYWG;2009-10-23 17:00;CYWG 231700Z 17017KT 15SM FEW055 SCT090 BKN140 OVC250 04/01 A2981 RMK SC2AC2AC2CI2 SLP108

CYWG;2009-10-23 18:00;CYWG 231800Z 18011G16KT 15SM BKN020 BKN051 OVC250 06/02 A2979 RMK SC5SC2CI1 SLP099

CYWG;2009-10-23 19:00;CYWG 231900Z 19012G18KT 15SM OVC018 06/02 A2977 RMK SC8 SLP092

CYWG;2009-10-23 19:52;CYWG 231952Z 18014G19KT 15SM FEW018 OVC046 06/ RMK SC2SC6

CYWG;2009-10-23 20:00;CYWG 232000Z 18014KT 15SM FEW018 BKN048 06/02 A2973 RMK SC2SC6 SLP079

CYWG;2009-10-23 21:00;CYWG 232100Z 19011KT 15SM BKN051 06/03 A2971 RMK SC7 SLP071

CYWG;2009-10-23 22:00;CYWG 232200Z 17009KT 15SM BKN041 OVC071 06/03 A2968 RMK SC6AC2 SLP061

CYWG;2009-10-23 23:00;CYWG 232300Z 17008KT 15SM BKN035 OVC061 06/03 A2965 RMK SC6SC2 OBS TAKEN 0+02 SLP053

CYWG;2009-10-24 00:00;CYWG 240000Z 18006KT 15SM OVC028 06/03 A2965 RMK SC8 SLP051

CYWG;2009-10-24 01:00;CYWG 240100Z 17004KT 15SM SCT024 BKN088 06/03 A2964 RMK SC3AC4 SLP048

CYWG;2009-10-24 02:00;CYWG 240200Z 17003KT 15SM BKN040 03/03 A2963 RMK SC7 SLP045

CYWG;2009-10-24 03:00;CYWG 240300Z 31003KT 15SM BKN040 05/04 A2962 RMK SC7 SLP039

CYWG;2009-10-24 04:00;CYWG 240400Z 32003KT 15SM BKN033 04/04 A2961 RMK SC7 SLP035

CYWG;2009-10-24 05:00;CYWG 240500Z 30005KT 15SM OVC039 04/04 A2959 RMK SC8 SLP030

CYWG;2009-10-24 06:00;CYWG 240600Z 31004KT 15SM BKN030 OVC070 05/04 A2957 RMK SC6AC2 SLP022

CYWG;2009-10-24 07:00;CYWG 240700Z 32004KT 15SM FEW019 OVC030 04/04 A2957 RMK SC2SC6 SLP020

CYWG;2009-10-24 08:00;CYWG 240800Z 34005KT 15SM FEW019 OVC034 04/04 A2956 RMK SC2SC6 SLP018

CYWG;2009-10-24 09:00;CYWG 240900Z 30004KT 15SM OVC030 04/04 A2956 RMK SC8 SLP017

CYWG;2009-10-24 10:00;CYWG 241000Z 31004KT 15SM FEW018 OVC030 04/04 A2956 RMK SC2SC6 SLP018

CYWG;2009-10-24 11:00;CYWG 241100Z 32005KT 15SM FEW020 BKN030 04/04 A2956 RMK SC2SC4 SLP017

CYWG;2009-10-24 12:00;CYWG 241200Z 30004KT 15SM FEW025 BKN042 M01/M01 A2956 RMK SC1SC4 SLP020

CYWG;2009-10-24 13:00;CYWG 241300Z 31006KT 15SM FEW025 BKN040 M00/M00 A2956 RMK SC2SC4 SLP020

CYWG;2009-10-24 14:00;CYWG 241400Z 31004KT 15SM SCT021 BKN038 06/04 A2956 RMK SC3SC4 SLP021

CYWG;2009-10-24 15:00;CYWG 241500Z 32006KT 15SM SCT005 OVC030 06/04 A2957 RMK SC3SC5 SLP023

CYWG;2009-10-24 15:21;CYWG 241521Z 33006KT 15SM BKN006 OVC040 06/ RMK SC6SC2

CYWG;2009-10-24 16:00;CYWG 241600Z 36006KT 15SM BKN009 OVC068 06/05 A2958 RMK SC6AC2 SLP024

CYWG;2009-10-24 16:48;CYWG 241648Z 35008KT 15SM BKN014 OVC068 07/ RMK SC6AC2

CYWG;2009-10-24 17:00;CYWG 241700Z 34008KT 15SM BKN014 OVC070 06/04 A2958 RMK SC6AC2 SLP026

CYWG;2009-10-24 17:36;CYWG 241736Z 34008KT 15SM BKN016 BKN070 06/ RMK SC5AC2

CYWG;2009-10-24 18:00;CYWG 241800Z 32009KT 15SM FEW016 BKN038 BKN070 07/02 A2959 RMK SC2SC3AC2 SLP027

CYWG;2009-10-24 19:00;CYWG 241900Z 34008KT 15SM SCT038 BKN060 07/02 A2959 RMK SC3SC4 SLP027

CYWG;2009-10-24 20:00;CYWG 242000Z 32005KT 15SM BKN025 OVC045 07/02 A2959 RMK SC6SC2 SLP028

CYWG;2009-10-24 21:00;CYWG 242100Z 30005KT 15SM OVC025 07/02 A2961 RMK SC8 SLP034

CYWG;2009-10-24 22:00;CYWG 242200Z 29007KT 15SM OVC030 06/02 A2963 RMK SC8 SLP042

CYWG;2009-10-24 23:00;CYWG 242300Z 31007KT 15SM OVC028 06/02 A2965 RMK SC8 SLP050

CYWG;2009-10-25 00:00;CYWG 250000Z 32006KT 15SM BKN030 05/03 A2968 RMK SC6 SLP060

CYWG;2009-10-25 01:00;CYWG 250100Z 32005KT 15SM SCT028 BKN053 05/03 A2970 RMK SC4SC2 SLP068

CYWG;2009-10-25 02:00;CYWG 250200Z 33002KT 15SM OVC028 04/03 A2972 RMK SC8 SLP073

CYWG;2009-10-25 02:34;CYWG 250234Z CCA 35002KT 15SM -RA OVC024 04/ RMK SC8

CYWG;2009-10-25 03:00;CYWG 250300Z 00000KT 10SM -RA OVC024 04/04 A2974 RMK SC8 SLP078

CYWG;2009-10-25 03:43;CYWG 250343Z 27003KT 10SM OVC024 04/ RMK SC8

CYWG;2009-10-25 04:00;CYWG 250400Z 28004KT 15SM OVC024 04/04 A2976 RMK SC8 SLP085

CYWG;2009-10-25 05:00;CYWG 250500Z 32004KT 15SM BKN028 OVC070 04/04 A2977 RMK SC6AC2 SLP091

CYWG;2009-10-25 06:00;CYWG 250600Z 31004KT 15SM -RA OVC030 04/04 A2979 RMK SC8 SLP096

CYWG;2009-10-25 07:00;CYWG 250700Z 33004KT 10SM -RA OVC034 03/03 A2981 RMK SC8 SLP103

CYWG;2009-10-25 08:00;CYWG 250800Z 32004KT 10SM -RA BKN029 OVC060 03/03 A2983 RMK SC6SC2 SLP110

CYWG;2009-10-25 09:00;CYWG 250900Z 28003KT 10SM -RA SCT005 OVC038 03/03 A2985 RMK SC4SC4 SLP116

CYWG;2009-10-25 09:11;CYWG 250911Z 28004KT 10SM -RA BKN004 OVC038 03/ RMK SC5SC3

CYWG;2009-10-25 10:00;CYWG 251000Z 31004KT 10SM -RA BKN002 OVC033 03/03 A2986 RMK ST6SC2 SLP121

CYWG;2009-10-25 11:00;CYWG 251100Z 30004KT 10SM -RA BKN004 OVC020 03/03 A2989 RMK SF6SC2 BR SLP130

CYWG;2009-10-25 11:22;CYWG 251122Z 29003KT 15SM BKN005 BKN053 03/ RMK SF6SC2

CYWG;2009-10-25 12:00;CYWG 251200Z 30006KT 15SM -RA BKN003 BKN020 03/03 A2990 RMK SF5SC2 SLP136

CYWG;2009-10-25 12:42;CYWG 251242Z 30004KT 15SM -RA BKN005 OVC022 04/ RMK SF6SC2

CYWG;2009-10-25 13:00;CYWG 251300Z 29004KT 12SM -SHRA BKN004 OVC022 04/04 A2992 RMK SF6SC2 SLP142

CYWG;2009-10-25 14:00;CYWG 251400Z 30006KT 12SM -SHRA BKN004 OVC020 03/03 A2995 RMK SF7SC1 SLP152

CYWG;2009-10-25 15:00;CYWG 251500Z 32006KT 15SM -SHRA BKN007 04/04 A2997 RMK SF7 SLP160

CYWG;2009-10-25 16:00;CYWG 251600Z 32006KT 15SM OVC007 05/05 A2999 RMK SF8 CIG RAG SLP164

CYWG;2009-10-25 16:42;CYWG 251642Z 33006KT 15SM OVC010 05/ RMK SC8

CYWG;2009-10-25 17:00;CYWG 251700Z 30005KT 15SM OVC012 05/04 A3001 RMK SC8 SLP171

CYWG;2009-10-25 18:00;CYWG 251800Z 36003KT 15SM OVC014 06/04 A3002 RMK SC8 SLP174

CYWG;2009-10-25 19:00;CYWG 251900Z 36005KT 15SM BKN020 07/04 A3002 RMK SC7 SLP174

CYWG;2009-10-25 20:00;CYWG 252000Z 02002KT 15SM R31/3000VP6000FT/D OVC020 07/03 A3002 RMK SC8 SLP175

CYWG;2009-10-25 21:00;CYWG 252100Z 00000KT 15SM OVC024 07/03 A3003 RMK SC8 SLP180

CYWG;2009-10-25 22:00;CYWG 252200Z 25004KT 15SM OVC028 07/03 A3005 RMK SC8 SLP185

CYWG;2009-10-25 23:00;CYWG 252300Z 27003KT 15SM BKN033 06/04 A3005 RMK SC7 SLP186

CYWG;2009-10-26 00:00;CYWG 260000Z 00000KT 15SM OVC039 05/03 A3006 RMK SC8 SLP190

CYWG;2009-10-26 01:00;CYWG 260100Z 12002KT 15SM OVC039 05/03 A3007 RMK SC8 SLP194

CYWG;2009-10-26 02:00;CYWG 260200Z 22002KT 15SM OVC039 05/03 A3008 RMK SC8 SLP196

CYWG;2009-10-26 03:00;CYWG 260300Z 00000KT 15SM BKN039 BKN087 04/03 A3009 RMK SC5AC2 SLP198

CYWG;2009-10-26 04:00;CYWG 260400Z 15005KT 15SM BKN042 BKN090 04/03 A3009 RMK SC5AC2 SLP198

CYWG;2009-10-26 05:00;CYWG 260500Z 17005KT 15SM BKN044 04/04 A3008 RMK SC7 SLP196

CYWG;2009-10-26 06:00;CYWG 260600Z 19007KT 15SM OVC041 05/04 A3007 RMK SC8 SLP193

CYWG;2009-10-26 07:00;CYWG 260700Z 17006KT 15SM OVC046 04/04 A3006 RMK SC8 SLP189

CYWG;2009-10-26 08:00;CYWG 260800Z 18005KT 15SM BKN046 04/04 A3005 RMK SC6 SLP186

CYWG;2009-10-26 09:00;CYWG 260900Z 18005KT 15SM BKN048 04/03 A3004 RMK SC6 SLP182

CYWG;2009-10-26 10:00;CYWG 261000Z 16007KT 15SM BKN050 03/03 A3003 RMK SC6 SLP178

CYWG;2009-10-26 11:00;CYWG 261100Z 17006KT 15SM BKN048 BKN100 03/03 A3003 RMK SC6AC2 SLP177

CYWG;2009-10-26 12:00;CYWG 261200Z 17007KT 15SM BKN032 BKN100 03/03 A3003 RMK SC6AC1 SLP179

CYWG;2009-10-26 12:28;CYWG 261228Z 17010KT 15SM -RA OVC032 03/ RMK SC8

CYWG;2009-10-26 13:00;CYWG 261300Z 16007KT 15SM -RA BKN037 OVC100 03/03 A3003 RMK SC7AC1 SLP178

CYWG;2009-10-26 14:00;CYWG 261400Z 15010KT 15SM FEW008 SCT025 BKN055 BKN100 03/03 A3001 RMK SF2SC2SC2AC1 SLP173

CYWG;2009-10-26 15:00;CYWG 261500Z 17008KT 15SM SCT008 BKN027 BKN100 04/04 A2999 RMK SF3SC3AC1 SLP167

CYWG;2009-10-26 16:00;CYWG 261600Z 18012KT 15SM SCT009 BKN020 BKN098 05/04 A2998 RMK SF3SC3AC1 SLP163

CYWG;2009-10-26 17:00;CYWG 261700Z 18014KT 15SM SCT010 OVC017 05/04 A2996 RMK SF3SC5 SLP154

CYWG;2009-10-26 18:00;CYWG 261800Z 17015KT 15SM BKN012 BKN034 07/04 A2994 RMK SC6SC2 SLP147

CYWG;2009-10-26 19:00;CYWG 261900Z 18015KT 15SM OVC012 06/05 A2990 RMK SC8 SLP135

CYWG;2009-10-26 20:00;CYWG 262000Z 17017KT 15SM SCT012 BKN038 BKN240 08/05 A2986 RMK SC3SC2CI1 SLP120

CYWG;2009-10-26 21:00;CYWG 262100Z 18015KT 15SM FEW019 SCT038 BKN240 08/04 A2984 RMK SC2SC2CI0 SLP114

CYWG;2009-10-26 22:00;CYWG 262200Z 17014G19KT 15SM FEW023 FEW037 BKN240 08/04 A2981 RMK SC1SC2CI2 SC TR SLP104

CYWG;2009-10-26 23:00;CYWG 262300Z 16010G17KT 15SM FEW097 OVC240 07/04 A2978 RMK AC2CI1 SLP093

CYWG;2009-10-27 00:00;CYWG 270000Z 16014KT 15SM BKN094 06/04 A2976 RMK AC4 SLP086

CYWG;2009-10-27 01:00;CYWG 270100Z 16015G22KT 15SM BKN094 06/04 A2972 RMK AC4 SLP075

CYWG;2009-10-27 02:00;CYWG 270200Z 16017G24KT 15SM SCT100 BKN240 06/04 A2969 RMK AC4CI2 SLP065

CYWG;2009-10-27 03:00;CYWG 270300Z 16018KT 15SM BKN100 OVC240 06/03 A2966 RMK AC5CI2 SLP053

CYWG;2009-10-27 04:00;CYWG 270400Z 17019G25KT 15SM BKN100 OVC240 06/02 A2963 RMK AC6CI0 SLP043

CYWG;2009-10-27 05:00;CYWG 270500Z 17018G26KT 15SM BKN120 OVC240 07/02 A2960 RMK AC6CI1 SLP031

CYWG;2009-10-27 06:00;CYWG 270600Z 17019G27KT 15SM BKN099 OVC240 07/01 A2957 RMK AC6CI1 SLP021

CYWG;2009-10-27 07:00;CYWG 270700Z 17022G32KT 15SM BKN099 OVC240 08/01 A2954 RMK AC6CI1 SLP011

CYWG;2009-10-27 08:00;CYWG 270800Z 17023G28KT 15SM OVC087 07/01 A2953 RMK AC8 SLP006

CYWG;2009-10-27 09:00;CYWG 270900Z 18019G27KT 15SM OVC078 07/01 A2951 RMK AC8 SLP999

CYWG;2009-10-27 10:00;CYWG 271000Z 17020G27KT 15SM OVC080 06/01 A2950 RMK AC8 SLP996

CYWG;2009-10-27 11:00;CYWG 271100Z 18016G21KT 15SM BKN072 OVC083 06/01 A2949 RMK AC6AC2 SLP993

CYWG;2009-10-27 12:00;CYWG 271200Z 17017KT 15SM BKN061 OVC096 06/01 A2947 RMK SC5AC3 SLP987

CYWG;2009-10-27 13:00;CYWG 271300Z 16015G22KT 15SM BKN071 OVC210 06/01 A2943 RMK AC4CI3 SLP975

CYWG;2009-10-27 14:00;CYWG 271400Z 17019KT 15SM BKN069 BKN120 OVC210 07/01 A2943 RMK AC3AC2CI2 SLP975

CYWG;2009-10-27 15:00;CYWG 271500Z 18018G25KT 15SM SCT060 BKN120 OVC210 07/01 A2944 RMK SC3AC2CI2 SLP978

CYWG;2009-10-27 16:00;CYWG 271600Z 17015G24KT 15SM SCT072 BKN120 OVC210 07/02 A2944 RMK AC4AC2CI1 SLP977

CYWG;2009-10-27 17:00;CYWG 271700Z 17019KT 15SM FEW070 SCT120 OVC210 08/02 A2944 RMK AC2AC2CI3 SLP975

CYWG;2009-10-27 18:00;CYWG 271800Z 17020KT 15SM BKN075 BKN120 OVC210 09/03 A2944 RMK AC5AC1CI2 SLP975

CYWG;2009-10-27 19:00;CYWG 271900Z 16019G25KT 15SM FEW075 BKN098 09/03 A2942 RMK AC2AC6 SLP970

CYWG;2009-10-27 20:00;CYWG 272000Z 17016KT 15SM BKN098 BKN120 10/03 A2943 RMK AC5AC2 VIRGA N SLP971

CYWG;2009-10-27 21:00;CYWG 272100Z 17018G24KT 15SM OVC092 09/03 A2944 RMK AC8 VIRGA NW SLP978

CYWG;2009-10-27 22:00;CYWG 272200Z 17013G19KT 15SM -SHRA BKN072 OVC090 09/03 A2945 RMK AC5AC3 SLP981

CYWG;2009-10-27 22:40;CYWG 272240Z 16014KT 15SM VCSH FEW052 BKN072 OVC090 09/ RMK SC2AC2AC2

CYWG;2009-10-27 23:00;CYWG 272300Z 17015KT 15SM VCSH FEW056 BKN074 OVC082 09/03 A2947 RMK SC2AC3AC2 SLP985

CYWG;2009-10-28 00:00;CYWG 280000Z 17007KT 15SM OVC091 09/03 A2948 RMK AC8 SLP991

CYWG;2009-10-28 01:00;CYWG 280100Z 15005KT 15SM SCT079 OVC091 09/04 A2950 RMK AC4AC4 SLP995

CYWG;2009-10-28 02:00;CYWG 280200Z 14007KT 15SM BKN096 09/04 A2950 RMK AC6 SLP996

CYWG;2009-10-28 03:00;CYWG 280300Z 14007KT 15SM SCT094 OVC230 09/04 A2951 RMK AC4CI2 SLP999

CYWG;2009-10-28 04:00;CYWG 280400Z 15010KT 15SM SCT095 OVC220 09/03 A2951 RMK AC3CI2 SLP000

CYWG;2009-10-28 05:00;CYWG 280500Z 17014KT 15SM FEW095 OVC220 10/03 A2952 RMK AC2CI2 SLP003

CYWG;2009-10-28 06:00;CYWG 280600Z 17012KT 15SM SCT073 OVC220 10/03 A2953 RMK AC3CI2 SLP005

CYWG;2009-10-28 07:00;CYWG 280700Z 17016KT 15SM SCT070 OVC220 10/03 A2953 RMK AC4CI2 SLP005

CYWG;2009-10-28 08:00;CYWG 280800Z 17012G18KT 15SM SCT093 OVC220 09/03 A2954 RMK AC4CI2 SLP010

CYWG;2009-10-28 09:00;CYWG 280900Z 17013KT 15SM SCT082 OVC220 09/04 A2954 RMK AC4CI2 SLP011

CYWG;2009-10-28 10:00;CYWG 281000Z 18010KT 15SM SCT082 OVC220 08/04 A2956 RMK AC4CI3 SLP016

CYWG;2009-10-28 11:00;CYWG 281100Z 17011KT 15SM BKN100 OVC240 08/04 A2957 RMK AC5CI2 SLP021

CYWG;2009-10-28 12:00;CYWG 281200Z 17012KT 15SM BKN100 OVC240 08/04 A2960 RMK AC6CI2 SLP030

CYWG;2009-10-28 13:00;CYWG 281300Z 17011KT 15SM BKN091 OVC140 07/04 A2961 RMK AC6AC2 SLP033

CYWG;2009-10-28 14:00;CYWG 281400Z 17011G17KT 15SM BKN089 OVC140 07/05 A2962 RMK AC6AC2 SLP037

CYWG;2009-10-28 15:00;CYWG 281500Z 19013KT 15SM BKN078 OVC090 07/05 A2965 RMK AC6AC2 SLP048

CYWG;2009-10-28 15:21;CYWG 281521Z 19013KT 15SM -SHRA FEW037 BKN070 OVC120 07/ RMK SC1AC5AC2

CYWG;2009-10-28 16:00;CYWG 281600Z 21007KT 15SM -SHRA FEW020 FEW050 BKN070 OVC120 06/06 A2967 RMK SC1SC2AC3AC2 SLP056

CYWG;2009-10-28 16:19;CYWG 281619Z 21006KT 15SM FEW013 FEW050 BKN070 OVC120 07/ RMK SC1SC2AC3AC2

CYWG;2009-10-28 17:00;CYWG 281700Z 24005KT 15SM -RA SCT010 OVC030 07/06 A2969 RMK SC4SC4 SLP062

CYWG;2009-10-28 17:32;CYWG 281732Z 23005KT 10SM -RA OVC010 06/ RMK SC8

CYWG;2009-10-28 18:00;CYWG 281800Z 22005KT 6SM -RA BR OVC009 07/07 A2971 RMK SC8 SLP069

CYWG;2009-10-28 18:26;CYWG 281826Z 20007KT 4SM -RA BR OVC006 OVC012 07/ RMK SF6SC2

CYWG;2009-10-28 19:00;CYWG 281900Z 18007KT 6SM -RA BR BKN006 OVC032 07/07 A2972 RMK SF6SC2 SLP071

CYWG;2009-10-28 19:41;CYWG 281941Z 18008KT 6SM -DZ BR BKN006 OVC032 08/ RMK SF6SC2

CYWG;2009-10-28 20:00;CYWG 282000Z 18009KT 6SM -DZ BR OVC006 08/08 A2973 RMK SF8 SLP074

CYWG;2009-10-28 20:09;CYWG 282009Z 19009KT 6SM -RA BR OVC006 07/ RMK SF8

CYWG;2009-10-28 21:00;CYWG 282100Z 18011KT 6SM -RA BR BKN008 OVC043 07/07 A2976 RMK SF6SC2 SLP084

CYWG;2009-10-28 22:00;CYWG 282200Z 19012KT 6SM -RA BR BKN008 OVC035 07/07 A2978 RMK SF5SC3 SLP091

CYWG;2009-10-28 23:00;CYWG 282300Z 20008KT 10SM -RA BKN007 OVC040 07/07 A2978 RMK SF4SC4 BR SLP092

CYWG;2009-10-28 23:36;CYWG 282336Z 19010KT 15SM BKN008 BKN047 OVC069 07/ RMK SF3SC3AC2

CYWG;2009-10-28 23:52;CYWG 282352Z 20009KT 10SM -RA BKN008 OVC040 07/ RMK SF4SC4

CYWG;2009-10-29 00:00;CYWG 290000Z 20008KT 10SM -RA BKN008 OVC040 07/07 A2981 RMK SF3SC5 SLP104

CYWG;2009-10-29 01:00;CYWG 290100Z 21008KT 15SM SCT008 BKN040 06/06 A2983 RMK SF2SC5 SLP110

CYWG;2009-10-29 02:00;CYWG 290200Z 21008KT 15SM FEW021 BKN035 BKN071 07/07 A2984 RMK SC2SC2AC2 SLP114

CYWG;2009-10-29 03:00;CYWG 290300Z 21005KT 15SM SCT043 BKN220 05/05 A2984 RMK SC4CI1 SLP115

CYWG;2009-10-29 04:00;CYWG 290400Z 18008KT 15SM FEW040 BKN078 BKN220 04/04 A2987 RMK SC2AC2CI0 SLP124

CYWG;2009-10-29 05:00;CYWG 290500Z 19008KT 15SM BKN024 05/05 A2990 RMK SC7 SLP132

CYWG;2009-10-29 06:00;CYWG 290600Z 21006KT 15SM BKN029 OVC076 05/05 A2991 RMK SC5AC3 SLP137

CYWG;2009-10-29 07:00;CYWG 290700Z 25004KT 15SM SCT025 OVC076 04/04 A2988 RMK SC4AC4 SLP127

CYWG;2009-10-29 08:00;CYWG 290800Z 17005KT 15SM BKN026 OVC066 02/02 A2990 RMK SC5AC3 SLP133

CYWG;2009-10-29 09:00;CYWG 290900Z 18003KT 15SM BKN026 OVC066 04/04 A2991 RMK SC6AC2 SLP138

CYWG;2009-10-29 10:00;CYWG 291000Z 16003KT 15SM BKN026 OVC076 04/04 A2993 RMK SC6AC2 SLP143

CYWG;2009-10-29 11:00;CYWG 291100Z 17003KT 15SM OVC055 04/04 A2993 RMK SC8 SLP143

CYWG;2009-10-29 12:00;CYWG 291200Z 16003KT 15SM BKN067 03/03 A2991 RMK AC7 SLP137

CYWG;2009-10-29 13:00;CYWG 291300Z 28002KT 15SM BKN073 BKN250 03/03 A2993 RMK AC6CI0 SLP143

CYWG;2009-10-29 14:00;CYWG 291400Z 32005KT 10SM BKN063 OVC082 03/03 A2993 RMK SC6AS2 HZ SLP145

CYWG;2009-10-29 15:00;CYWG 291500Z 36005KT 10SM FEW010 BKN057 OVC071 04/04 A2993 RMK SF1SC6AS2 HZ SLP143

CYWG;2009-10-29 15:27;CYWG 291527Z 01006KT 6SM BR FEW003 SCT010 OVC037 05/ RMK SF2SF2SC5 VIS CIG LWR NW

CYWG;2009-10-29 16:00;CYWG 291600Z 02008KT 6SM BR OVC003 05/05 A2993 RMK SF8 SLP143

CYWG;2009-10-29 16:27;CYWG 291627Z 03008KT 2SM BR OVC003 05/ RMK ST8

CYWG;2009-10-29 16:51;CYWG 291651Z 02008KT 2SM -DZ BR OVC001 05/ RMK ST8

CYWG;2009-10-29 17:00;CYWG 291700Z 02008KT 2SM -DZ BR OVC001 05/05 A2991 RMK ST8 SLP138

CYWG;2009-10-29 17:19;CYWG 291719Z 03010KT 2SM R31/4000VP6000FT/U R36/4000VP6000FT/U -DZ BR OVC002 05/ RMK ST8

CYWG;2009-10-29 17:34;CYWG 291734Z 02009KT 1/2SM R31/4500VP6000FT/D R36/P6000FT/D -RA FG OVC002 05/ RMK ST8

CYWG;2009-10-29 17:52;CYWG 291752Z 02009KT 2SM -RA BR OVC002 05/ RMK ST8

CYWG;2009-10-29 18:00;CYWG 291800Z 02009KT 3/4SM R31/P6000FT/D R36/P6000FT/D -RA BR OVC002 05/05 A2988 RMK ST8 SLP129

CYWG;2009-10-29 18:21;CYWG 291821Z 01009KT 2SM -RA BR OVC002 RMK ST8 5.1

CYWG;2009-10-29 18:55;CYWG 291855Z 01008KT 10SM -RA OVC004 05/ RMK ST8 BR

CYWG;2009-10-29 19:00;CYWG 291900Z 01009KT 8SM -RA OVC005 05/05 A2987 RMK ST8 BR SLP125

CYWG;2009-10-29 19:31;CYWG 291931Z 36011KT 10SM -RA OVC004 05/ RMK ST8 BR

CYWG;2009-10-29 19:50;CYWG 291950Z 01010G15KT 10SM -RA OVC005 05/ RMK ST8 CIG RGD BR

CYWG;2009-10-29 20:00;CYWG 292000Z 36013KT 10SM -RA OVC006 05/05 A2984 RMK ST8 CIG RGD BR SLP114

CYWG;2009-10-29 20:46;CYWG 292046Z 36009KT 10SM -RA BKN005 OVC030 05/ RMK ST6SC2 CIG RGD BR

CYWG;2009-10-29 21:00;CYWG 292100Z 36013KT 8SM -RA OVC006 04/04 A2983 RMK ST8 SLP110

CYWG;2009-10-29 22:00;CYWG 292200Z 01012KT 8SM -RA BKN009 OVC015 04/04 A2981 RMK ST6SC2 CIG RGD BR SLP106

CYWG;2009-10-29 23:00;CYWG 292300Z 35011KT 8SM -RA BKN006 OVC019 03/03 A2981 RMK ST6SC2 CIG RGD BR SLP104

CYWG;2009-10-30 00:00;CYWG 300000Z 36008KT 6SM RA BR OVC006 03/03 A2978 RMK ST8 CIG RAG SLP094

CYWG;2009-10-30 01:00;CYWG 300100Z 35012KT 8SM -RA BKN006 OVC025 03/03 A2976 RMK ST6SC2 CIG RAG BR RERA SLP088

CYWG;2009-10-30 02:00;CYWG 300200Z 33010KT 8SM -RA BKN006 OVC027 02/02 A2974 RMK ST6SC2 CIG RAG BR SLP083

CYWG;2009-10-30 03:00;CYWG 300300Z 34011KT 6SM -RA BKN005 OVC025 02/02 A2972 RMK ST6SC2 SLP075

CYWG;2009-10-30 04:00;CYWG 300400Z 34011G16KT 6SM -RASN OVC005 01/01 A2970 RMK ST8 SLP066

CYWG;2009-10-30 05:00;CYWG 300500Z 33012KT 6SM -RASN OVC006 02/02 A2967 RMK ST8 SLP056

CYWG;2009-10-30 05:43;CYWG 300543Z 34012KT 6SM -RA BKN006 OVC016 02/ RMK ST6SC2

CYWG;2009-10-30 06:00;CYWG 300600Z 34011KT 6SM -RA BKN006 OVC016 02/02 A2964 RMK ST6SC2 SLP047

CYWG;2009-10-30 06:33;CYWG 300633Z 34009G15KT 6SM -DZ BKN006 OVC026 02/ RMK ST6SC2

CYWG;2009-10-30 07:00;CYWG 300700Z 35010KT 6SM -DZ BKN007 OVC026 02/02 A2962 RMK ST6SC2 SLP040

CYWG;2009-10-30 08:00;CYWG 300800Z 34009KT 10SM -DZ BKN008 OVC029 02/02 A2961 RMK ST5SC3 SLP035

CYWG;2009-10-30 09:00;CYWG 300900Z 34011KT 10SM -DZ BKN007 OVC030 02/02 A2958 RMK ST6SC2 SLP026

CYWG;2009-10-30 10:00;CYWG 301000Z 34012KT 12SM -DZ BKN008 OVC038 01/01 A2954 RMK ST5SC3 SLP013

CYWG;2009-10-30 10:14;CYWG 301014Z 34011KT 12SM SCT008 OVC038 01/ RMK ST4SC4

CYWG;2009-10-30 11:00;CYWG 301100Z 34011KT 12SM SCT010 OVC047 01/01 A2953 RMK SF3SC5 SLP010

CYWG;2009-10-30 12:00;CYWG 301200Z 34009KT 12SM FEW010 OVC024 01/01 A2952 RMK SF2SC6 SLP007

CYWG;2009-10-30 13:00;CYWG 301300Z 34013KT 15SM BKN024 01/01 A2948 RMK SC7 SLP995

CYWG;2009-10-30 14:00;CYWG 301400Z 34016KT 15SM BKN026 01/M00 A2945 RMK SC7 SLP985

CYWG;2009-10-30 15:00;CYWG 301500Z 33013G18KT 15SM BKN026 BKN070 01/M00 A2945 RMK SC5AC2 SLP983

CYWG;2009-10-30 16:00;CYWG 301600Z 34018KT 15SM BKN028 02/M00 A2943 RMK SC6 SLP976

CYWG;2009-10-30 17:00;CYWG 301700Z 36015KT 15SM FEW010 BKN032 02/00 A2941 RMK SF1SC6 SLP971

CYWG;2009-10-30 18:00;CYWG 301800Z 35016KT 15SM FEW017 OVC032 03/00 A2938 RMK SC2SC6 SLP960

CYWG;2009-10-30 19:00;CYWG 301900Z 35018G27KT 15SM FEW015 OVC026 04/M01 A2935 RMK SC2SC6 SLP950

CYWG;2009-10-30 20:00;CYWG 302000Z 35019G27KT 15SM OVC027 04/M01 A2935 RMK SC8 SLP948

CYWG;2009-10-30 21:00;CYWG 302100Z 34017KT 15SM BKN030 OVC059 04/M01 A2935 RMK SC6SC2 SLP949

CYWG;2009-10-30 22:00;CYWG 302200Z 34020G26KT 15SM OVC032 03/M02 A2936 RMK SC8 SLP951

CYWG;2009-10-30 23:00;CYWG 302300Z 34020G26KT 15SM OVC030 02/M03 A2938 RMK SC8 SLP959

CYWG;2009-10-31 00:00;CYWG 310000Z 34015G20KT 15SM OVC026 02/M02 A2940 RMK SC8 SLP966

CYWG;2009-10-31 01:00;CYWG 310100Z 32014KT 15SM BKN037 OVC071 01/M03 A2940 RMK SC6AC2 SLP967

CYWG;2009-10-31 02:00;CYWG 310200Z 32020G27KT 15SM FEW015 BKN044 OVC071 01/M02 A2940 RMK SC2SC5AC2 SLP967

CYWG;2009-10-31 03:00;CYWG 310300Z 33020G29KT 15SM OVC049 01/M02 A2941 RMK SC6 SLP971

CYWG;2009-10-31 04:00;CYWG 310400Z 32020G27KT 15SM OVC051 01/M02 A2942 RMK SC6 SLP974

CYWG;2009-10-31 05:00;CYWG 310500Z 32020G26KT 15SM BKN056 OVC069 01/M02 A2944 RMK SC5AC2 SLP980

CYWG;2009-10-31 06:00;CYWG 310600Z 32021KT 15SM -SN OVC054 01/M01 A2945 RMK SC7 SLP984

CYWG;2009-10-31 06:08;CYWG 310608Z 32020G25KT 15SM -SHSN OVC054 01/ RMK SC7

CYWG;2009-10-31 07:00;CYWG 310700Z 32019G26KT 15SM -SHSN OVC054 01/M02 A2948 RMK SC8 SLP992

CYWG;2009-10-31 08:00;CYWG 310800Z 31014G24KT 15SM -SHSN SCT023 OVC070 01/M01 A2950 RMK SC4AC4 SLP998

CYWG;2009-10-31 08:42;CYWG 310842Z 31016G22KT 15SM SCT023 OVC064 01/ RMK SC4SC4

CYWG;2009-10-31 09:00;CYWG 310900Z 31014G20KT 15SM OVC023 OVC064 01/M01 A2952 RMK SC5SC3 SLP006

CYWG;2009-10-31 10:00;CYWG 311000Z 31016KT 15SM SCT020 OVC073 01/M02 A2954 RMK SC3AC5 SLP015

CYWG;2009-10-31 11:00;CYWG 311100Z 32018KT 15SM OVC048 01/M02 A2957 RMK SC8 SLP025

CYWG;2009-10-31 12:00;CYWG 311200Z 32016G21KT 15SM FEW012 OVC052 01/M02 A2960 RMK CF1SC8 SLP033

CYWG;2009-10-31 13:00;CYWG 311300Z 32013G18KT 15SM FEW010 BKN063 01/M01 A2961 RMK SF1SC7 SLP039

CYWG;2009-10-31 14:00;CYWG 311400Z 31015KT 15SM FEW012 BKN065 01/M02 A2964 RMK SC1SC7 SLP049

CYWG;2009-10-31 15:00;CYWG 311500Z 32017KT 15SM FEW012 BKN044 01/M02 A2968 RMK SC1SC6 SLP061

CYWG;2009-10-31 16:00;CYWG 311600Z 31014KT 15SM FEW012 BKN048 02/M02 A2971 RMK SF1SC7 SF TR SLP071

CYWG;2009-10-31 17:00;CYWG 311700Z 33013KT 15SM FEW020 BKN048 03/M02 A2972 RMK CU1SC4 SLP076

CYWG;2009-10-31 18:00;CYWG 311800Z 33016KT 15SM SCT025 BKN050 03/M03 A2974 RMK CU3SC2 SLP083

CYWG;2009-10-31 19:00;CYWG 311900Z 29014KT 15SM BKN022 03/M02 A2975 RMK SC6 SLP085

CYWG;2009-10-31 20:00;CYWG 312000Z 30013KT 15SM BKN019 03/M01 A2977 RMK SC7 SLP093

CYWG;2009-10-31 21:00;CYWG 312100Z 30010G15KT 15SM BKN024 02/M01 A2980 RMK SC6 SLP104

CYWG;2009-10-31 22:00;CYWG 312200Z 30009KT 15SM BKN021 02/M02 A2983 RMK SC7 SLP112

CYWG;2009-10-31 23:00;CYWG 312300Z 32007KT 15SM BKN021 BKN070 BKN250 01/M03 A2983 RMK SC5AC1CI1 SLP112

CYWG;2009-11-01 01:00;CYWG 010100Z 17002KT 15SM BKN120 M00/M03 A2986 RMK AC5 SLP123

CYWG;2009-11-01 02:00;CYWG 010200Z 18005KT 15SM FEW037 BKN090 BKN250 M01/M03 A2987 RMK SC2AC3CI2 SLP128

CYWG;2009-11-01 03:00;CYWG 010300Z 17005KT 15SM BKN095 M00/M02 A2988 RMK AC6 SLP129

CYWG;2009-11-01 04:00;CYWG 010400Z 15006KT 15SM BKN071 01/M01 A2988 RMK AC6 SLP129

CYWG;2009-11-01 05:00;CYWG 010500Z 14007KT 15SM OVC060 01/M02 A2987 RMK SC8 SLP127

CYWG;2009-11-01 06:00;CYWG 010600Z 15009KT 15SM BKN031 OVC060 02/M01 A2987 RMK SC5SC3 SLP126

CYWG;2009-11-01 07:00;CYWG 010700Z 16008KT 15SM BKN036 OVC060 02/M01 A2988 RMK SC6SC2 SLP128

CYWG;2009-11-01 08:00;CYWG 010800Z 15012KT 15SM OVC052 01/M00 A2985 RMK SC8 SLP119

CYWG;2009-11-01 09:00;CYWG 010900Z 13009KT 15SM OVC050 02/M01 A2983 RMK SC8 SLP114

CYWG;2009-11-01 10:00;CYWG 011000Z 13010KT 15SM OVC048 02/M00 A2983 RMK SC8 SLP111

CYWG;2009-11-01 10:37;CYWG 011037Z 10005KT 10SM -SHSN SCT018 OVC042 01/ RMK SC4SC4 CVCTV CLD EMBD

CYWG;2009-11-01 11:00;CYWG 011100Z 10010KT 12SM -SHSN OVC018 01/01 A2982 RMK SC8 CVCTV CLD EMBD SLP109

CYWG;2009-11-01 12:00;CYWG 011200Z 11011G16KT 12SM FEW018 OVC042 01/01 A2981 RMK SF2SC6 OCNL -SHSN SLP107

CYWG;2009-11-01 12:18;CYWG 011218Z 11014KT 15SM FEW018 OVC042 01/ RMK SF2SC6

CYWG;2009-11-01 13:00;CYWG 011300Z 11013KT 15SM OVC042 01/01 A2979 RMK SC8 SLP099

CYWG;2009-11-01 14:00;CYWG 011400Z 12009KT 15SM FEW015 OVC027 02/01 A2980 RMK SF2SC6 SLP105

CYWG;2009-11-01 15:00;CYWG 011500Z 12008KT 15SM FEW010 OVC022 02/01 A2980 RMK SF1SC7 SLP104

CYWG;2009-11-01 16:00;CYWG 011600Z 12006KT 15SM FEW010 OVC017 03/01 A2981 RMK SF1SC7 SLP105

CYWG;2009-11-01 17:00;CYWG 011700Z 11003KT 5SM BR OVC013 03/02 A2982 RMK SC8 SLP109

CYWG;2009-11-01 18:00;CYWG 011800Z 29003KT 5SM BR OVC007 03/02 A2983 RMK SC8 SLP112

CYWG;2009-11-01 19:00;CYWG 011900Z 31007KT 5SM BR OVC007 03/03 A2984 RMK SC8 SLP117

CYWG;2009-11-01 19:50;CYWG 011950Z 31009KT 15SM OVC011 03/ RMK SC8

CYWG;2009-11-01 20:00;CYWG 012000Z 31011G16KT 15SM OVC011 03/02 A2987 RMK SC8 SLP126

CYWG;2009-11-01 21:00;CYWG 012100Z 30012G17KT 15SM OVC014 03/01 A2990 RMK SC8 SLP135

CYWG;2009-11-01 21:38;CYWG 012138Z 31011G16KT 15SM OVC017 03/ RMK SC8

CYWG;2009-11-01 22:00;CYWG 012200Z 32011G16KT 15SM OVC017 03/02 A2993 RMK SC8 SLP145

CYWG;2009-11-01 23:00;CYWG 012300Z 31012G17KT 15SM OVC015 03/02 A2994 RMK SC8 SLP150

CYWG;2009-11-02 00:00;CYWG 020000Z 30005KT 15SM BKN023 03/01 A2997 RMK SC7 SLP159

CYWG;2009-11-02 01:00;CYWG 020100Z 29005KT 15SM SCT023 01/01 A2999 RMK SC4 SLP166

CYWG;2009-11-02 02:00;CYWG 020200Z 22004KT 15SM FEW025 M00/M00 A2998 RMK SC2 SLP164

CYWG;2009-11-02 03:00;CYWG 020300Z 18005KT 15SM SCT046 01/00 A2998 RMK SC3 SLP164

CYWG;2009-11-02 04:00;CYWG 020400Z 22007KT 15SM FEW055 M00/M01 A2998 RMK SC2 SLP163

CYWG;2009-11-02 05:00;CYWG 020500Z 25008KT 15SM FEW058 00/M01 A2996 RMK AC2 SLP159

CYWG;2009-11-02 06:00;CYWG 020600Z 28009KT 15SM FEW059 01/M02 A2997 RMK SC2 SLP160

CYWG;2009-11-02 07:00;CYWG 020700Z 28012KT 15SM FEW059 00/M02 A2999 RMK SC2 SLP165

CYWG;2009-11-02 08:00;CYWG 020800Z 27012KT 15SM FEW082 M01/M03 A3000 RMK AC2 SLP169

CYWG;2009-11-02 09:00;CYWG 020900Z 28013KT 15SM SCT042 00/M03 A3001 RMK SC2 SLP174

CYWG;2009-11-02 10:00;CYWG 021000Z 28012G18KT 15SM BKN034 00/M03 A3003 RMK SC5 SLP180

CYWG;2009-11-02 11:00;CYWG 021100Z 28013KT 15SM OVC050 M00/M03 A3005 RMK SC8 SLP186

CYWG;2009-11-02 12:00;CYWG 021200Z 29014KT 15SM OVC039 00/M04 A3006 RMK SC8 SLP191

CYWG;2009-11-02 13:00;CYWG 021300Z 31011KT 15SM BKN035 OVC052 00/M04 A3009 RMK SC6SC2 SLP201

CYWG;2009-11-02 14:00;CYWG 021400Z 31018G25KT 15SM BKN033 BKN051 00/M05 A3012 RMK SC6SC2 SLP210

CYWG;2009-11-02 15:00;CYWG 021500Z 30015KT 15SM BKN031 BKN087 00/M05 A3014 RMK SC5AC2 SLP219

CYWG;2009-11-02 16:00;CYWG 021600Z 31018G24KT 15SM BKN029 BKN082 00/M05 A3016 RMK SC5AC2 SLP227

CYWG;2009-11-02 17:00;CYWG 021700Z 31021KT 15SM BKN027 00/M05 A3020 RMK SC7 SLP240

CYWG;2009-11-02 18:00;CYWG 021800Z 30018G25KT 15SM BKN025 00/M04 A3021 RMK SC7 SLP243

CYWG;2009-11-02 19:00;CYWG 021900Z 31016G24KT 15SM BKN025 01/M05 A3023 RMK SC6 SLP250

CYWG;2009-11-02 20:00;CYWG 022000Z 30018G24KT 15SM BKN025 M00/M05 A3024 RMK SC7 SLP254

CYWG;2009-11-02 21:00;CYWG 022100Z 32016G22KT 15SM BKN027 M01/M06 A3025 RMK SC6 SLP259

CYWG;2009-11-02 22:00;CYWG 022200Z 33014KT 15SM FEW027 M01/M06 A3026 RMK SC2 SLP262

CYWG;2009-11-02 23:00;CYWG 022300Z 33007KT 15SM FEW027 M03/M06 A3028 RMK SC1 SLP267

CYWG;2009-11-03 00:00;CYWG 030000Z 31004KT 15SM FEW030 M06/M07 A3028 RMK SC1 SLP269

CYWG;2009-11-03 01:00;CYWG 030100Z 32003KT 15SM SKC M06/M08 A3028 RMK SLP269

CYWG;2009-11-03 02:00;CYWG 030200Z 32003KT 15SM SKC M06/M08 A3029 RMK SLP271

CYWG;2009-11-03 03:00;CYWG 030300Z 31002KT 15SM FEW210 M06/M08 A3029 RMK CI1 SLP271

CYWG;2009-11-03 04:00;CYWG 030400Z 23002KT 15SM FEW095 SCT210 M06/M08 A3028 RMK AC1CI2 SLP270

CYWG;2009-11-03 05:00;CYWG 030500Z 19003KT 15SM SCT120 M06/M08 A3026 RMK AC2 SLP263

CYWG;2009-11-03 06:00;CYWG 030600Z 22004KT 15SM BKN120 M06/M08 A3026 RMK AC4 SLP261

CYWG;2009-11-03 07:00;CYWG 030700Z 18004KT 15SM BKN094 M05/M06 A3024 RMK AC6 SLP256

CYWG;2009-11-03 08:00;CYWG 030800Z 15004KT 15SM BKN093 M05/M06 A3023 RMK AC6 SLP253

CYWG;2009-11-03 09:00;CYWG 030900Z 16006KT 15SM BKN093 M04/M06 A3022 RMK AC7 SLP250

CYWG;2009-11-03 10:00;CYWG 031000Z 15006KT 15SM BKN099 M04/M06 A3021 RMK AC7 SLP244

CYWG;2009-11-03 11:00;CYWG 031100Z 14007KT 15SM BKN065 BKN100 M03/M06 A3019 RMK SC6AC2 SLP238

CYWG;2009-11-03 12:00;CYWG 031200Z 14009KT 15SM BKN063 BKN093 M03/M06 A3017 RMK SC6AC2 SLP231

CYWG;2009-11-03 13:00;CYWG 031300Z 13009KT 15SM BKN069 OVC210 M03/M05 A3015 RMK AC6CI1 SLP225

CYWG;2009-11-03 14:00;CYWG 031400Z 12010KT 15SM BKN076 OVC210 M02/M06 A3013 RMK AC6CI2 SLP218

CYWG;2009-11-03 15:00;CYWG 031500Z 12011KT 15SM BKN084 M01/M05 A3011 RMK AC6 SLP212

CYWG;2009-11-03 16:00;CYWG 031600Z 12014KT 15SM SCT039 BKN084 M00/M05 A3009 RMK SC3AC4 SLP204

CYWG;2009-11-03 17:00;CYWG 031700Z 12011G16KT 15SM BKN039 BKN072 01/M05 A3007 RMK SC5AC2 SLP198

CYWG;2009-11-03 18:00;CYWG 031800Z 13013KT 15SM SCT038 BKN075 OVC210 03/M05 A3004 RMK SC4AC2CI1 CU ASOCTD SLP187

CYWG;2009-11-03 19:00;CYWG 031900Z 13014KT 15SM FEW038 SCT075 OVC210 03/M05 A3001 RMK SC2AC1CI2 SLP176

CYWG;2009-11-03 20:00;CYWG 032000Z 09006KT 15SM SCT048 BKN080 BKN210 04/M04 A3001 RMK SC3AC2CI1 SLP176

CYWG;2009-11-03 21:00;CYWG 032100Z 11008KT 15SM FEW031 SCT052 OVC072 04/M04 A3001 RMK SC2SC2AC4 SH SE ACC EMBD SLP176

CYWG;2009-11-03 22:00;CYWG 032200Z 07012KT 15SM BKN029 BKN070 OVC120 02/M04 A3003 RMK SC6AC2AC1 SLP182

CYWG;2009-11-03 23:00;CYWG 032300Z 07008KT 15SM SCT031 BKN041 BKN095 00/M04 A3005 RMK SC3SC2AC2 SLP188

CYWG;2009-11-04 00:00;CYWG 040000Z 04010KT 15SM FEW010 OVC032 M01/M02 A3008 RMK CF2SC6 SLP200

CYWG;2009-11-04 00:19;CYWG 040019Z 04011KT 15SM SCT009 OVC032 M01/ RMK CF3SC5

CYWG;2009-11-04 01:00;CYWG 040100Z 04006KT 15SM SCT009 OVC032 M00/M01 A3010 RMK CF3SC5 SLP207

CYWG;2009-11-04 02:00;CYWG 040200Z 02009KT 15SM SCT008 OVC032 M02/M02 A3012 RMK ST4SC4 SLP215

CYWG;2009-11-04 02:23;CYWG 040223Z 03007KT 15SM BKN005 OVC039 M01/ RMK ST6SC2

CYWG;2009-11-04 02:39;CYWG 040239Z 03009KT 10SM BKN004 OVC041 M02/ RMK ST6SC2

CYWG;2009-11-04 03:00;CYWG 040300Z 04012KT 10SM OVC004 M02/M02 A3014 RMK ST8 SLP220

CYWG;2009-11-04 03:13;CYWG 040313Z 05008KT 10SM OVC005 M01/ RMK ST8

CYWG;2009-11-04 04:00;CYWG 040400Z 06009KT 15SM OVC008 M01/M02 A3015 RMK ST8 SLP222

CYWG;2009-11-04 04:14;CYWG 040414Z 05010KT 15SM OVC010 M01/ RMK ST8

CYWG;2009-11-04 05:00;CYWG 040500Z 02007KT 15SM BKN010 OVC022 M01/M02 A3016 RMK ST6SC1 SLP228

CYWG;2009-11-04 05:23;CYWG 040523Z 02006KT 15SM BKN008 OVC022 M01/ RMK ST7SC1 MOON DMLY VISBL

CYWG;2009-11-04 05:54;CYWG 040554Z 01004KT 15SM FEW009 SCT013 BKN022 M02/ RMK SF2SF2SC2

CYWG;2009-11-04 06:00;CYWG 040600Z 36004KT 15SM FEW009 SCT015 BKN020 M02/M02 A3017 RMK SF1SF2SC2 SLP228

CYWG;2009-11-04 06:34;CYWG 040634Z 01002KT 9SM -SHSN FEW009 OVC015 M01/ RMK SF2SC6

CYWG;2009-11-04 07:00;CYWG 040700Z 01002KT 15SM BKN010 OVC015 M01/M02 A3016 RMK ST6SC2 SLP225

CYWG;2009-11-04 08:00;CYWG 040800Z 32005KT 15SM OVC006 M01/M01 A3017 RMK ST8 SLP228

CYWG;2009-11-04 08:21;CYWG 040821Z 32006KT 15SM OVC015 M01/ RMK ST8

CYWG;2009-11-04 08:37;CYWG 040837Z 30007KT 15SM OVC013 M01/ RMK ST8

CYWG;2009-11-04 09:00;CYWG 040900Z 31007KT 15SM OVC015 M01/M02 A3018 RMK ST8 SLP233

CYWG;2009-11-04 10:00;CYWG 041000Z 30007KT 15SM FEW009 OVC017 M01/M03 A3018 RMK SF1ST7 SLP231

CYWG;2009-11-04 11:00;CYWG 041100Z 30008KT 15SM FEW009 OVC017 M01/M03 A3019 RMK SF1ST7 SLP235

CYWG;2009-11-04 12:00;CYWG 041200Z 23004KT 15SM OVC017 M01/M03 A3018 RMK SC8 SLP233

CYWG;2009-11-04 13:00;CYWG 041300Z 20006KT 15SM FEW015 M02/M04 A3015 RMK SC2 SLP223

CYWG;2009-11-04 14:00;CYWG 041400Z 22007KT 15SM FEW020 FEW070 M02/M03 A3016 RMK SC1AC1 SLP227

CYWG;2009-11-04 15:00;CYWG 041500Z 21011G16KT 15SM FEW075 M01/M03 A3013 RMK AC2 SLP218

CYWG;2009-11-04 16:00;CYWG 041600Z 24011KT 15SM SCT042 01/M03 A3012 RMK SC2 SLP215

CYWG;2009-11-04 17:00;CYWG 041700Z 26013KT 15SM FEW040 03/M01 A3013 RMK SC1 SLP216

CYWG;2009-11-04 18:00;CYWG 041800Z 28012KT 15SM FEW040 05/M00 A3011 RMK SC1 SLP207

CYWG;2009-11-04 19:00;CYWG 041900Z 28014G19KT 15SM FEW040 FEW090 06/00 A3010 RMK SC1AC1 SLP206

CYWG;2009-11-04 20:00;CYWG 042000Z 30014G19KT 15SM FEW020 SCT096 06/M01 A3011 RMK SC1AC2 SLP207

CYWG;2009-11-04 21:00;CYWG 042100Z 32010G16KT 15SM FEW020 FEW096 06/M01 A3011 RMK SC1AC2 SLP208

CYWG;2009-11-04 22:00;CYWG 042200Z 31010KT 15SM FEW025 FEW095 05/M00 A3012 RMK SC1AC1 SLP210

CYWG;2009-11-04 23:00;CYWG 042300Z 31006KT 15SM FEW025 FEW095 00/M03 A3015 RMK SC1AC1 SC TR SLP219

CYWG;2009-11-05 00:00;CYWG 050000Z 29008KT 15SM FEW078 M03/M05 A3016 RMK AC1 AC TR SLP226

CYWG;2009-11-05 01:00;CYWG 050100Z 33007KT 15SM SKC M05/M06 A3017 RMK SLP231

CYWG;2009-11-05 02:00;CYWG 050200Z 29005KT 15SM SKC M04/M06 A3018 RMK SLP235

CYWG;2009-11-05 03:00;CYWG 050300Z 29005KT 15SM SKC M04/M06 A3020 RMK SLP240

CYWG;2009-11-05 04:00;CYWG 050400Z 29006KT 15SM SKC M06/M08 A3022 RMK SLP247

CYWG;2009-11-05 05:00;CYWG 050500Z 36006KT 15SM SKC M08/M08 A3023 RMK SLP251

CYWG;2009-11-05 06:00;CYWG 050600Z 36003KT 15SM SKC M07/M08 A3025 RMK SLP256

CYWG;2009-11-05 07:00;CYWG 050700Z 35002KT 15SM SKC M05/M07 A3025 RMK SLP256

CYWG;2009-11-05 08:00;CYWG 050800Z 00000KT 15SM FEW077 M08/M10 A3024 RMK AC1 SLP254

CYWG;2009-11-05 09:00;CYWG 050900Z 00000KT 15SM FEW089 M10/M10 A3024 RMK AC1 SLP253

CYWG;2009-11-05 10:00;CYWG 051000Z 00000KT 15SM FEW089 M09/M10 A3025 RMK AC2 SLP256

CYWG;2009-11-05 11:00;CYWG 051100Z 25002KT 15SM FEW091 M10/M12 A3025 RMK AC1 SLP258

CYWG;2009-11-05 12:00;CYWG 051200Z 00000KT 15SM SCT075 M11/M11 A3025 RMK AC3 SLP263

CYWG;2009-11-05 13:00;CYWG 051300Z 05002KT 15SM FEW100 SCT210 M09/M10 A3025 RMK AC1CI1 SLP261

CYWG;2009-11-05 14:00;CYWG 051400Z 11003KT 15SM FEW091 BKN210 M07/M08 A3024 RMK AC1CI2 SLP259

CYWG;2009-11-05 15:00;CYWG 051500Z 12003KT 15SM FEW087 BKN210 M03/M05 A3024 RMK AC2CI3 SLP256

CYWG;2009-11-05 16:00;CYWG 051600Z 14008KT 15SM FEW082 BKN210 M02/M05 A3023 RMK AC1CI2 SLP254

CYWG;2009-11-05 17:00;CYWG 051700Z 15009KT 15SM FEW098 BKN210 M00/M05 A3023 RMK AC1CI1 SLP254

CYWG;2009-11-05 18:00;CYWG 051800Z 15013KT 15SM BKN210 02/M05 A3020 RMK CI2 SLP243

CYWG;2009-11-05 19:00;CYWG 051900Z 12011KT 15SM BKN210 02/M05 A3015 RMK CI4 SLP225

CYWG;2009-11-05 20:00;CYWG 052000Z 15014KT 15SM FEW093 BKN210 03/M05 A3012 RMK AC1CI3 SLP215

CYWG;2009-11-05 21:00;CYWG 052100Z 15014KT 15SM SCT078 BKN210 03/M05 A3007 RMK AC3CI3 SLP199

CYWG;2009-11-05 22:00;CYWG 052200Z 14011G16KT 15SM SCT140 BKN210 03/M05 A3004 RMK AC4CI2 SLP187

CYWG;2009-11-05 23:00;CYWG 052300Z 14014KT 15SM FEW140 BKN210 02/M04 A3000 RMK AC2CI2 SLP176

CYWG;2009-11-06 00:00;CYWG 060000Z 14014G19KT 15SM FEW140 BKN210 01/M04 A2997 RMK AC2CI2 SLP165

CYWG;2009-11-06 01:00;CYWG 060100Z 15014G19KT 15SM FEW090 SCT210 01/M04 A2993 RMK AC1CI1 SLP153

CYWG;2009-11-06 02:00;CYWG 060200Z 15017G22KT 15SM FEW140 BKN210 00/M04 A2989 RMK AC1CI2 SLP137

CYWG;2009-11-06 03:00;CYWG 060300Z 15017KT 15SM FEW140 BKN210 01/M04 A2985 RMK AC1CI2 SLP120

CYWG;2009-11-06 04:00;CYWG 060400Z 16020G25KT 15SM BKN210 02/M04 A2980 RMK CI2 SLP105

CYWG;2009-11-06 05:00;CYWG 060500Z 16016KT 15SM BKN210 02/M03 A2977 RMK CI0 SLP095

CYWG;2009-11-06 06:00;CYWG 060600Z 18016G22KT 15SM SCT210 02/M02 A2972 RMK CI0 SLP076

CYWG;2009-11-06 07:00;CYWG 060700Z 18020KT 15SM FEW210 02/M01 A2967 RMK CI0 SLP060

CYWG;2009-11-06 08:00;CYWG 060800Z 18020G25KT 15SM FEW220 03/00 A2964 RMK CI0 SLP048

CYWG;2009-11-06 09:00;CYWG 060900Z 18020G25KT 15SM SKC 03/01 A2961 RMK SLP035

CYWG;2009-11-06 10:00;CYWG 061000Z 18018G24KT 15SM FEW210 03/01 A2957 RMK CI0 SLP024

CYWG;2009-11-06 11:00;CYWG 061100Z 18014G21KT 15SM BKN210 02/01 A2955 RMK CI2 SLP017

CYWG;2009-11-06 12:00;CYWG 061200Z 18014G19KT 15SM FEW210 02/01 A2952 RMK CI2 SLP006

CYWG;2009-11-06 13:00;CYWG 061300Z 18013G19KT 15SM BKN210 02/01 A2950 RMK CI2 SLP000

CYWG;2009-11-06 14:00;CYWG 061400Z 18014KT 8SM SCT090 BKN210 02/02 A2948 RMK AC3CI0 SLP994

CYWG;2009-11-06 15:00;CYWG 061500Z 18015KT 15SM FEW090 FEW210 03/02 A2946 RMK AC1CI1 SLP985

CYWG;2009-11-06 16:00;CYWG 061600Z 18015G22KT 15SM FEW094 FEW210 05/03 A2942 RMK AC1CI0 SLP972

CYWG;2009-11-06 17:00;CYWG 061700Z 18014G22KT 15SM FEW090 SCT210 07/04 A2942 RMK AC2CI0 SLP974

CYWG;2009-11-06 18:00;CYWG 061800Z 19017KT 15SM FEW097 SCT210 10/04 A2939 RMK AC2CI0 SLP961

CYWG;2009-11-06 19:00;CYWG 061900Z 18013G18KT 15SM FEW210 10/05 A2936 RMK CI2 SLP949

CYWG;2009-11-06 20:00;CYWG 062000Z 20018KT 15SM FEW210 12/05 A2935 RMK CI1 SLP945

CYWG;2009-11-06 21:00;CYWG 062100Z 19015G20KT 15SM FEW210 12/06 A2932 RMK CI2 SLP933

CYWG;2009-11-06 22:00;CYWG 062200Z 18016KT 15SM FEW210 12/06 A2931 RMK CI2 SLP930

CYWG;2009-11-06 23:00;CYWG 062300Z 18015KT 15SM SCT210 10/07 A2930 RMK CI2 SLP929

CYWG;2009-11-07 00:00;CYWG 070000Z 19013KT 15SM BKN095 BKN210 10/07 A2933 RMK AC5CI2 SLP941

CYWG;2009-11-07 01:00;CYWG 070100Z 19013KT 15SM FEW095 BKN210 10/07 A2933 RMK AC2CI2 SLP941

CYWG;2009-11-07 02:00;CYWG 070200Z 19013KT 15SM SCT210 09/07 A2933 RMK CI2 SLP939

CYWG;2009-11-07 03:00;CYWG 070300Z 19012KT 15SM FEW210 08/06 A2933 RMK CI0 SLP939

CYWG;2009-11-07 04:00;CYWG 070400Z 20013KT 15SM BKN210 08/06 A2932 RMK CI6 SLP938

CYWG;2009-11-07 05:00;CYWG 070500Z 23011KT 15SM FEW210 08/05 A2934 RMK CI2 SLP942

CYWG;2009-11-07 06:00;CYWG 070600Z 26010KT 15SM FEW210 09/03 A2936 RMK CI2 SLP948

CYWG;2009-11-07 07:00;CYWG 070700Z 26013G18KT 15SM SKC 10/01 A2939 RMK SLP959

CYWG;2009-11-07 08:00;CYWG 070800Z 26014G19KT 15SM SKC 09/M00 A2942 RMK SLP967

CYWG;2009-11-07 09:00;CYWG 070900Z 26013KT 15SM SKC 08/00 A2943 RMK SLP972

CYWG;2009-11-07 10:00;CYWG 071000Z 24013KT 15SM SKC 07/M00 A2944 RMK SLP975

CYWG;2009-11-07 11:00;CYWG 071100Z 25015KT 15SM SKC 07/M01 A2946 RMK SLP982

CYWG;2009-11-07 12:00;CYWG 071200Z 26013KT 15SM SKC 05/M01 A2949 RMK SLP993

CYWG;2009-11-07 13:00;CYWG 071300Z 26012KT 15SM SKC 04/M02 A2951 RMK SLP000

CYWG;2009-11-07 14:00;CYWG 071400Z 27010KT 15SM SKC 04/M02 A2955 RMK SLP014

CYWG;2009-11-07 15:00;CYWG 071500Z 27012KT 15SM SKC 06/M01 A2959 RMK SLP027

CYWG;2009-11-07 16:00;CYWG 071600Z 27020KT 15SM SKC 08/M01 A2960 RMK SLP032

CYWG;2009-11-07 17:00;CYWG 071700Z 28017KT 15SM SKC 10/M00 A2962 RMK SLP038

CYWG;2009-11-07 18:00;CYWG 071800Z 26017G24KT 15SM SKC 10/M01 A2964 RMK SLP042

CYWG;2009-11-07 19:00;CYWG 071900Z 26015G20KT 15SM SKC 12/M00 A2964 RMK SLP044

CYWG;2009-11-07 20:00;CYWG 072000Z 26014KT 15SM SKC 13/M01 A2965 RMK SLP045

CYWG;2009-11-07 21:00;CYWG 072100Z 27012G20KT 15SM SKC 13/M01 A2966 RMK SLP048

CYWG;2009-11-07 22:00;CYWG 072200Z 25010G15KT 15SM SKC 12/M02 A2968 RMK SLP055

CYWG;2009-11-07 23:00;CYWG 072300Z 24009KT 15SM SKC 10/M02 A2969 RMK SLP058

CYWG;2009-11-08 00:00;CYWG 080000Z 25010KT 15SM SKC 08/M02 A2972 RMK SLP071

CYWG;2009-11-08 01:00;CYWG 080100Z 24009KT 15SM SKC 07/M02 A2974 RMK SLP080

CYWG;2009-11-08 02:00;CYWG 080200Z 23009KT 15SM SKC 04/M03 A2976 RMK SLP084

CYWG;2009-11-08 03:00;CYWG 080300Z 23009KT 15SM SKC 04/M03 A2978 RMK SLP094

CYWG;2009-11-08 04:00;CYWG 080400Z 23009KT 15SM SKC 04/M03 A2980 RMK SLP100

CYWG;2009-11-08 05:00;CYWG 080500Z 21007KT 15SM SKC 02/M04 A2981 RMK SLP105

CYWG;2009-11-08 06:00;CYWG 080600Z 20008KT 15SM SKC 02/M04 A2982 RMK SLP105

CYWG;2009-11-08 07:00;CYWG 080700Z 18008KT 15SM SKC M00/M04 A2982 RMK SLP105

CYWG;2009-11-08 08:00;CYWG 080800Z 20010KT 15SM SKC 01/M04 A2983 RMK SLP109

CYWG;2009-11-08 09:00;CYWG 080900Z 21011KT 15SM SKC 02/M04 A2983 RMK SLP111

CYWG;2009-11-08 10:00;CYWG 081000Z 20011KT 15SM SKC 01/M04 A2984 RMK SLP113

CYWG;2009-11-08 11:00;CYWG 081100Z 20009KT 15SM SKC 01/M04 A2984 RMK SLP112

CYWG;2009-11-08 12:00;CYWG 081200Z 20012KT 15SM FEW260 01/M04 A2986 RMK CI1 SLP121

CYWG;2009-11-08 13:00;CYWG 081300Z 21010KT 15SM FEW100 01/M04 A2986 RMK AC1 SLP120

CYWG;2009-11-08 14:00;CYWG 081400Z 20010KT 15SM FEW110 SCT280 01/M04 A2987 RMK AC1CI0 SLP124

CYWG;2009-11-08 15:00;CYWG 081500Z 20012KT 15SM SCT087 BKN280 03/M03 A2989 RMK AC1CI0 SLP131

CYWG;2009-11-08 16:00;CYWG 081600Z 23009KT 15SM SCT091 BKN280 08/M02 A2989 RMK AC1CI0 SLP133

CYWG;2009-11-08 17:00;CYWG 081700Z 23010KT 15SM FEW092 BKN280 11/M03 A2991 RMK AC1CI0 SLP138

CYWG;2009-11-08 18:00;CYWG 081800Z 22007KT 15SM FEW090 BKN280 12/M01 A2990 RMK AC1CI1 SLP132

CYWG;2009-11-08 19:00;CYWG 081900Z 20007KT 15SM FEW087 BKN280 13/M01 A2987 RMK AC1CI1 SLP122

CYWG;2009-11-08 20:00;CYWG 082000Z 19010KT 15SM FEW082 SCT280 13/00 A2986 RMK AC1CI0 SLP119

CYWG;2009-11-08 21:00;CYWG 082100Z 17008KT 15SM FEW085 FEW280 12/01 A2985 RMK AC1CI0 SLP117

CYWG;2009-11-08 22:00;CYWG 082200Z 18007KT 15SM FEW090 FEW280 11/M00 A2985 RMK AC1CI1 SLP117

CYWG;2009-11-08 23:00;CYWG 082300Z 18008KT 15SM FEW090 FEW280 06/01 A2986 RMK AC1CI1 SLP118

CYWG;2009-11-09 00:00;CYWG 090000Z 18006KT 15SM FEW090 BKN280 07/01 A2988 RMK AC2CI1 SLP128

CYWG;2009-11-09 01:00;CYWG 090100Z 18008KT 15SM SCT110 BKN280 08/01 A2989 RMK AC3CI2 SLP130

CYWG;2009-11-09 02:00;CYWG 090200Z 17008KT 15SM SCT110 BKN280 07/02 A2989 RMK AC3CI2 SLP132

CYWG;2009-11-09 03:00;CYWG 090300Z 19013KT 15SM SCT110 BKN280 07/02 A2989 RMK AC3CI1 SLP130

CYWG;2009-11-09 04:00;CYWG 090400Z 20011KT 15SM SCT110 06/02 A2990 RMK AC3 SLP135

CYWG;2009-11-09 05:00;CYWG 090500Z 21012KT 15SM FEW088 05/02 A2989 RMK AC2 SLP132

CYWG;2009-11-09 06:00;CYWG 090600Z 24010KT 15SM SKC 04/M01 A2990 RMK SLP133

CYWG;2009-11-09 07:00;CYWG 090700Z 25013KT 15SM SKC 04/M02 A2993 RMK SLP141

CYWG;2009-11-09 08:00;CYWG 090800Z 25012KT 15SM SKC 04/M02 A2995 RMK SLP149

CYWG;2009-11-09 09:00;CYWG 090900Z 25012KT 15SM SKC 03/M02 A2998 RMK SLP159

CYWG;2009-11-09 10:00;CYWG 091000Z 26009KT 15SM SKC 01/M02 A3000 RMK SLP167

CYWG;2009-11-09 11:00;CYWG 091100Z 25008KT 15SM SKC M00/M02 A3004 RMK SLP180

CYWG;2009-11-09 12:00;CYWG 091200Z 26010KT 15SM SKC M01/M03 A3007 RMK SLP193

CYWG;2009-11-09 13:00;CYWG 091300Z 26010KT 15SM SKC M01/M03 A3010 RMK SLP203

CYWG;2009-11-09 14:00;CYWG 091400Z 25009KT 15SM SKC M01/M03 A3013 RMK SLP213

CYWG;2009-11-09 15:00;CYWG 091500Z 26010KT 15SM FEW030 00/M03 A3016 RMK SC1 SLP223

CYWG;2009-11-09 16:00;CYWG 091600Z 26006KT 15SM FEW030 03/M02 A3018 RMK SC1 SLP231

CYWG;2009-11-09 17:00;CYWG 091700Z 24010KT 15SM FEW040 07/M02 A3020 RMK SC1 SLP236

CYWG;2009-11-09 18:00;CYWG 091800Z 23010G15KT 15SM FEW088 10/M02 A3019 RMK AC1 SLP233

CYWG;2009-11-09 19:00;CYWG 091900Z 27012KT 15SM SKC 10/M04 A3020 RMK VIS W 2 FU SLP235

CYWG;2009-11-09 20:00;CYWG 092000Z 27013G19KT 15SM FEW250 10/M03 A3021 RMK CI0 SLP239

CYWG;2009-11-09 21:00;CYWG 092100Z 27014KT 15SM FEW250 10/M03 A3022 RMK CI0 SLP243

CYWG;2009-11-09 22:00;CYWG 092200Z 28009KT 15SM FEW250 10/M04 A3024 RMK CI0 LCL FU SLP249

CYWG;2009-11-09 23:00;CYWG 092300Z 24005KT 15SM FEW250 07/M04 A3025 RMK CI0 LCL FU SLP251

CYWG;2009-11-10 00:00;CYWG 100000Z 22006KT 15SM FEW250 04/M05 A3026 RMK CI0 SLP259

CYWG;2009-11-10 02:00;CYWG 100200Z 24008KT 15SM SKC 02/M05 A3029 RMK SLP268

CYWG;2009-11-10 03:00;CYWG 100300Z 25007KT 15SM SKC 02/M05 A3031 RMK SLP275

CYWG;2009-11-10 04:00;CYWG 100400Z 23007KT 15SM SKC 01/M05 A3032 RMK SLP278

CYWG;2009-11-10 05:00;CYWG 100500Z 18003KT 15SM SKC M02/M06 A3032 RMK SLP279

CYWG;2009-11-10 06:00;CYWG 100600Z 18007KT 15SM SKC M03/M06 A3031 RMK SLP276

CYWG;2009-11-10 07:00;CYWG 100700Z 18006KT 15SM SKC M04/M07 A3032 RMK SLP279

CYWG;2009-11-10 08:00;CYWG 100800Z 18006KT 15SM SKC M04/M07 A3032 RMK SLP279

CYWG;2009-11-10 09:00;CYWG 100900Z 18006KT 15SM SKC M04/M06 A3033 RMK SLP281

CYWG;2009-11-10 10:00;CYWG 101000Z 17010KT 15SM SKC M02/M05 A3032 RMK SLP279

CYWG;2009-11-10 11:00;CYWG 101100Z 17010KT 15SM SKC M02/M05 A3031 RMK SLP275

CYWG;2009-11-10 12:00;CYWG 101200Z 18012KT 15SM SKC M01/M04 A3029 RMK SLP270

CYWG;2009-11-10 13:00;CYWG 101300Z 17009KT 15SM SKC M02/M05 A3028 RMK SLP267

CYWG;2009-11-10 14:00;CYWG 101400Z 16012KT 15SM FEW220 01/M04 A3027 RMK CI0 SLP264

CYWG;2009-11-10 15:00;CYWG 101500Z 17013KT 15SM BKN220 02/M02 A3026 RMK CI1 SLP259

CYWG;2009-11-10 16:00;CYWG 101600Z 17016KT 15SM BKN220 04/M00 A3024 RMK CI1 SLP252

CYWG;2009-11-10 17:00;CYWG 101700Z 18019KT 15SM BKN220 07/01 A3022 RMK CI1 SLP246

CYWG;2009-11-10 18:00;CYWG 101800Z 17018KT 15SM BKN220 10/02 A3019 RMK CI1 SLP235

CYWG;2009-11-10 19:00;CYWG 101900Z 18014G20KT 15SM BKN220 12/02 A3016 RMK CI2 SLP225

CYWG;2009-11-10 20:00;CYWG 102000Z 18020G27KT 15SM BKN220 12/02 A3013 RMK CI2 SLP216

CYWG;2009-11-10 21:00;CYWG 102100Z 18015G27KT 15SM BKN220 12/03 A3010 RMK CI4 SLP203

CYWG;2009-11-10 22:00;CYWG 102200Z 18020G27KT 15SM BKN220 11/03 A3007 RMK CI4 SLP193

CYWG;2009-11-10 23:00;CYWG 102300Z 18017G25KT 15SM FEW140 BKN220 10/03 A3006 RMK AC2CI2 SLP190

CYWG;2009-11-11 00:00;CYWG 110000Z 18022G27KT 15SM FEW140 BKN220 10/02 A3005 RMK AC2CI2 SLP185

CYWG;2009-11-11 01:00;CYWG 110100Z 18020G32KT 15SM FEW140 BKN220 10/01 A3005 RMK AC1CI2 SLP185

CYWG;2009-11-11 02:00;CYWG 110200Z 18020G27KT 15SM FEW140 BKN220 10/01 A3003 RMK AC2CI3 SLP177

CYWG;2009-11-11 03:00;CYWG 110300Z 19022G28KT 15SM SCT120 OVC220 10/00 A3001 RMK AC3CI4 SLP171

CYWG;2009-11-11 04:00;CYWG 110400Z 19019G28KT 15SM BKN120 OVC220 10/00 A3000 RMK AC6CI1 SLP168

CYWG;2009-11-11 05:00;CYWG 110500Z 19021G28KT 15SM SCT094 BKN220 10/00 A2999 RMK AC4CI1 SLP166

CYWG;2009-11-11 06:00;CYWG 110600Z 19021G28KT 15SM SCT094 BKN220 10/00 A2998 RMK AC3CI2 SLP160

CYWG;2009-11-11 07:00;CYWG 110700Z 20016G22KT 15SM SCT089 BKN220 09/01 A2998 RMK AC3CI2 SLP159

CYWG;2009-11-11 08:00;CYWG 110800Z 20014KT 15SM FEW089 BKN220 09/01 A2999 RMK AC2CI2 SLP161

CYWG;2009-11-11 09:00;CYWG 110900Z 20011KT 15SM FEW076 SCT220 07/02 A2999 RMK AC2CI0 SLP162

CYWG;2009-11-11 10:00;CYWG 111000Z 20012KT 15SM SKC 06/02 A2998 RMK SLP160

CYWG;2009-11-11 11:00;CYWG 111100Z 21009KT 15SM SKC 05/01 A2999 RMK SLP163

CYWG;2009-11-11 12:00;CYWG 111200Z 22010KT 15SM SKC 04/01 A3000 RMK SLP167

CYWG;2009-11-11 13:00;CYWG 111300Z 21007KT 15SM FEW220 02/M01 A3000 RMK CI0 SLP168

CYWG;2009-11-11 14:00;CYWG 111400Z 24008KT 15SM FEW220 02/M02 A3002 RMK CI0 SLP173

CYWG;2009-11-11 15:00;CYWG 111500Z 25011KT 15SM FEW220 05/M03 A3003 RMK CI0 SLP177

CYWG;2009-11-11 16:00;CYWG 111600Z 27010KT 15SM FEW230 06/M02 A3004 RMK CI0 SLP181

CYWG;2009-11-11 17:00;CYWG 111700Z 27012KT 15SM FEW230 08/M01 A3005 RMK CI1 SLP183

CYWG;2009-11-11 18:00;CYWG 111800Z 27011KT 15SM FEW230 10/M00 A3004 RMK CI1 SLP180

CYWG;2009-11-11 19:00;CYWG 111900Z 26008KT 15SM SCT230 11/00 A3003 RMK CI1 SLP175

CYWG;2009-11-11 20:00;CYWG 112000Z 28006KT 15SM FEW120 BKN230 12/M01 A3002 RMK AC1CI1 SLP173

CYWG;2009-11-11 21:00;CYWG 112100Z 21002KT 15SM BKN094 BKN230 11/M01 A3000 RMK AC5CI2 SLP167

CYWG;2009-11-11 22:00;CYWG 112200Z 21007KT 15SM BKN094 BKN230 10/00 A3002 RMK AC5CI2 SLP172

CYWG;2009-11-11 23:00;CYWG 112300Z 17007KT 15SM FEW040 BKN094 OVC230 08/01 A2999 RMK SC2AC5CI2 SLP164

CYWG;2009-11-12 00:00;CYWG 120000Z 20006KT 15SM OVC052 09/M00 A3000 RMK SC8 SLP167

CYWG;2009-11-12 01:00;CYWG 120100Z 00000KT 15SM OVC053 09/00 A2997 RMK SC8 LCL FU SLP158

CYWG;2009-11-12 02:00;CYWG 120200Z 14007KT 15SM FEW051 BKN065 OVC120 08/00 A2993 RMK SC2SC4AC2 SLP144

CYWG;2009-11-12 03:00;CYWG 120300Z 14010KT 15SM FEW090 BKN230 07/M00 A2990 RMK AC2CI2 SLP134

CYWG;2009-11-12 04:00;CYWG 120400Z 15011KT 15SM FEW090 BKN230 08/00 A2986 RMK AC2CI1 SLP120

CYWG;2009-11-12 05:00;CYWG 120500Z 16014KT 15SM SCT090 BKN230 08/04 A2982 RMK AC3CI1 SLP108

CYWG;2009-11-12 06:00;CYWG 120600Z 17014KT 15SM FEW120 BKN230 07/05 A2978 RMK AC2CI2 SLP092

CYWG;2009-11-12 07:00;CYWG 120700Z 16013G19KT 15SM BKN031 OVC120 07/06 A2973 RMK SC5AC3 SLP075

CYWG;2009-11-12 08:00;CYWG 120800Z 17014G20KT 15SM BKN025 OVC035 09/07 A2969 RMK SC5SC3 SLP061

CYWG;2009-11-12 09:00;CYWG 120900Z 18013G18KT 15SM FEW017 BKN038 08/07 A2966 RMK SC2SC3 SLP051

CYWG;2009-11-12 10:00;CYWG 121000Z 18014G20KT 15SM FEW038 BKN120 08/07 A2962 RMK SC2AC3 SLP038

CYWG;2009-11-12 11:00;CYWG 121100Z 20013KT 15SM OVC120 08/07 A2962 RMK AC8 SLP038

CYWG;2009-11-12 12:00;CYWG 121200Z 20011KT 15SM SCT076 BKN086 OVC120 08/07 A2963 RMK AC3AC2AC2 SLP039

CYWG;2009-11-12 13:00;CYWG 121300Z 18008KT 10SM BKN076 OVC090 07/07 A2960 RMK AC5AC3 BR SLP029

CYWG;2009-11-12 14:00;CYWG 121400Z 17011KT 6SM BR FEW006 BKN075 OVC096 07/07 A2957 RMK SF1AC4AC3 SLP020

CYWG;2009-11-12 14:52;CYWG 121452Z 22008KT 6SM BR OVC006 08/ RMK SF8

CYWG;2009-11-12 15:00;CYWG 121500Z 22009KT 6SM BR OVC006 08/08 A2957 RMK ST8 SLP022

CYWG;2009-11-12 16:00;CYWG 121600Z 22009KT 6SM BR BKN006 OVC030 09/08 A2956 RMK SF6SC2 SLP018

CYWG;2009-11-12 16:53;CYWG 121653Z 23007KT 10SM SCT007 BKN080 OVC095 09/ RMK SF3AC2AC2 BR

CYWG;2009-11-12 17:00;CYWG 121700Z 25005KT 12SM SCT008 BKN080 BKN100 09/08 A2954 RMK SF2AC2AC2 BR SLP012

CYWG;2009-11-12 18:00;CYWG 121800Z 22004KT 15SM FEW010 SCT080 BKN100 10/08 A2953 RMK SF2AC2AC2 SLP005

CYWG;2009-11-12 19:00;CYWG 121900Z 34002KT 15SM FEW012 BKN079 OVC230 11/07 A2951 RMK SF1AC5CI1 SLP998

CYWG;2009-11-12 20:00;CYWG 122000Z 32003KT 15SM SCT060 BKN079 OVC230 11/06 A2950 RMK SC3AC2CI2 SLP996

CYWG;2009-11-12 21:00;CYWG 122100Z 00000KT 15SM FEW060 BKN096 OVC230 10/05 A2950 RMK SC2AC3CI3 SLP995

CYWG;2009-11-12 22:00;CYWG 122200Z 29006KT 15SM BKN090 OVC230 09/04 A2951 RMK AC6CI2 SLP000

CYWG;2009-11-12 23:00;CYWG 122300Z 27003KT 15SM BKN086 OVC230 08/03 A2952 RMK AC6CI2 SLP003

CYWG;2009-11-13 00:00;CYWG 130000Z 23002KT 15SM BKN074 OVC230 07/03 A2954 RMK AC6CI2 SLP010

CYWG;2009-11-13 01:00;CYWG 130100Z 29007KT 15SM BKN045 OVC084 07/03 A2957 RMK SC6AC2 SLP019

CYWG;2009-11-13 02:00;CYWG 130200Z 28006KT 15SM OVC035 06/03 A2957 RMK SC8 SLP020

CYWG;2009-11-13 03:00;CYWG 130300Z 31007KT 15SM OVC040 06/02 A2958 RMK SC8 SLP024

CYWG;2009-11-13 04:00;CYWG 130400Z 31006KT 15SM OVC053 05/01 A2958 RMK SC8 SLP024

CYWG;2009-11-13 05:00;CYWG 130500Z 32008KT 15SM OVC070 04/00 A2959 RMK AC8 SLP029

CYWG;2009-11-13 06:00;CYWG 130600Z 32008KT 15SM OVC080 03/00 A2961 RMK AC8 SLP036

CYWG;2009-11-13 07:00;CYWG 130700Z 33008KT 15SM BKN085 02/M01 A2964 RMK AC6 SLP044

CYWG;2009-11-13 08:00;CYWG 130800Z 31005KT 15SM BKN090 01/M00 A2964 RMK AC6 SLP046

CYWG;2009-11-13 09:00;CYWG 130900Z 31003KT 15SM BKN090 00/M01 A2966 RMK AC7 SLP051

CYWG;2009-11-13 10:00;CYWG 131000Z 32005KT 15SM SCT090 M02/M03 A2965 RMK AC3 SLP049

CYWG;2009-11-13 11:00;CYWG 131100Z 31006KT 15SM FEW090 M04/M05 A2967 RMK AC2 SLP055

CYWG;2009-11-13 12:00;CYWG 131200Z 32005KT 15SM BKN090 M05/M06 A2968 RMK AC5 SLP061

CYWG;2009-11-13 13:00;CYWG 131300Z 23003KT 15SM BKN075 M04/M04 A2970 RMK AC6 SLP067

CYWG;2009-11-13 14:00;CYWG 131400Z 25004KT 15SM BKN075 M03/M04 A2971 RMK AC6 SLP073

CYWG;2009-11-13 15:00;CYWG 131500Z 30005KT 15SM BKN075 M02/M02 A2971 RMK AC6 SLP073

CYWG;2009-11-13 16:00;CYWG 131600Z 32007KT 15SM BKN090 02/00 A2973 RMK AC3 SLP078

CYWG;2009-11-13 17:00;CYWG 131700Z 32004KT 15SM FEW090 FEW270 03/00 A2974 RMK AC1CI1 SLP083

CYWG;2009-11-13 18:00;CYWG 131800Z 31007KT 15SM FEW090 05/M02 A2973 RMK AC1 SLP078

CYWG;2009-11-13 19:00;CYWG 131900Z 34006KT 15SM FEW090 06/M02 A2972 RMK AC1 SLP074

CYWG;2009-11-13 20:00;CYWG 132000Z 33007KT 15SM FEW090 06/M02 A2972 RMK AC1 SLP074

CYWG;2009-11-13 21:00;CYWG 132100Z 33008KT 15SM FEW090 FEW270 07/M02 A2971 RMK AC1CI1 SLP071

CYWG;2009-11-13 22:00;CYWG 132200Z 33004KT 15SM FEW090 FEW270 04/M04 A2972 RMK AC1CI1 FU ALF SLP074

CYWG;2009-11-13 23:00;CYWG 132300Z 31002KT 15SM FEW090 FEW270 02/M04 A2973 RMK AC1CI1 FU ALF SLP078

CYWG;2009-11-14 00:00;CYWG 140000Z 34002KT 15SM FEW090 FEW270 00/M04 A2975 RMK AC1CI1 FU ALF SLP088

CYWG;2009-11-14 01:00;CYWG 140100Z 00000KT 15SM FEW270 M01/M05 A2977 RMK CI1 SLP095

CYWG;2009-11-14 02:00;CYWG 140200Z 00000KT 15SM SKC M05/M07 A2977 RMK SLP096

CYWG;2009-11-14 03:00;CYWG 140300Z 00000KT 15SM FEW270 M05/M07 A2979 RMK CI0 SLP101

CYWG;2009-11-14 04:00;CYWG 140400Z 31002KT 15SM SKC M07/M09 A2980 RMK SLP104

CYWG;2009-11-14 05:00;CYWG 140500Z 00000KT 15SM SKC M07/M08 A2980 RMK SLP104

CYWG;2009-11-14 06:00;CYWG 140600Z 29002KT 15SM SKC M08/M09 A2980 RMK SLP104

CYWG;2009-11-14 07:00;CYWG 140700Z 00000KT 15SM SKC M08/M08 A2980 RMK SLP106

CYWG;2009-11-14 08:00;CYWG 140800Z 00000KT 15SM SKC M07/M08 A2981 RMK SLP108

CYWG;2009-11-14 09:00;CYWG 140900Z 00000KT 15SM SKC M06/M08 A2983 RMK SLP112

CYWG;2009-11-14 10:00;CYWG 141000Z 29003KT 15SM SKC M10/M11 A2983 RMK SLP115

CYWG;2009-11-14 11:00;CYWG 141100Z 28003KT 15SM SCT100 M08/M09 A2985 RMK AC3 SLP119

CYWG;2009-11-14 12:00;CYWG 141200Z 28002KT 15SM SCT100 M09/M10 A2986 RMK AC2 SLP125

CYWG;2009-11-14 13:00;CYWG 141300Z 00000KT 15SM SCT120 M09/M10 A2987 RMK AC2 SLP129

CYWG;2009-11-14 14:00;CYWG 141400Z 29007KT 15SM FEW080 BKN220 M10/M11 A2988 RMK AC2CI1 SLP132

CYWG;2009-11-14 15:00;CYWG 141500Z 28002KT 15SM FEW094 BKN220 M05/M06 A2990 RMK AC1CI2 SLP140

CYWG;2009-11-14 16:00;CYWG 141600Z 30005KT 15SM FEW090 FEW220 M01/M02 A2990 RMK AC1CI1 SLP141

CYWG;2009-11-14 17:00;CYWG 141700Z 30003KT 15SM FEW220 03/M02 A2991 RMK CI1 SLP143

CYWG;2009-11-14 18:00;CYWG 141800Z 29004KT 15SM SCT220 05/M03 A2990 RMK CI1 SLP138

CYWG;2009-11-14 19:00;CYWG 141900Z 25003KT 15SM SCT220 06/M04 A2990 RMK CI1 SLP140

CYWG;2009-11-14 20:00;CYWG 142000Z 26004KT 15SM SCT220 06/M05 A2991 RMK CI1 SLP141

CYWG;2009-11-14 21:00;CYWG 142100Z 24003KT 15SM SCT220 07/M04 A2990 RMK CI1 SLP139

CYWG;2009-11-14 22:00;CYWG 142200Z 22004KT 15SM SCT220 05/M04 A2991 RMK CI1 SLP140

CYWG;2009-11-14 23:00;CYWG 142300Z 18004KT 15SM FEW220 02/M05 A2991 RMK CI1 SLP142

CYWG;2009-11-15 00:00;CYWG 150000Z 19006KT 15SM SKC 00/M05 A2992 RMK SLP146

CYWG;2009-11-15 01:00;CYWG 150100Z 18007KT 15SM SKC M00/M05 A2992 RMK SLP146

CYWG;2009-11-15 02:00;CYWG 150200Z 19008KT 15SM SKC M01/M05 A2992 RMK SLP148

CYWG;2009-11-15 03:00;CYWG 150300Z 18008KT 15SM SKC M03/M06 A2993 RMK SLP150

CYWG;2009-11-15 04:00;CYWG 150400Z 19007KT 15SM SKC M02/M06 A2994 RMK SLP153

CYWG;2009-11-15 05:00;CYWG 150500Z 20002KT 15SM SKC M05/M07 A2994 RMK SLP153

CYWG;2009-11-15 06:00;CYWG 150600Z 18005KT 15SM SKC M06/M08 A2994 RMK SLP153

CYWG;2009-11-15 07:00;CYWG 150700Z 19004KT 15SM SKC M06/M08 A2995 RMK SLP154

CYWG;2009-11-15 08:00;CYWG 150800Z 17004KT 15SM SKC M06/M08 A2995 RMK SLP155

CYWG;2009-11-15 09:00;CYWG 150900Z 19007KT 15SM SKC M05/M06 A2996 RMK SLP158

CYWG;2009-11-15 10:00;CYWG 151000Z 18005KT 15SM SKC M06/M08 A2996 RMK SLP158

CYWG;2009-11-15 11:00;CYWG 151100Z 19006KT 15SM SKC M07/M08 A2997 RMK SLP160

CYWG;2009-11-15 12:00;CYWG 151200Z 19004KT 15SM SKC M07/M09 A2997 RMK SLP163

CYWG;2009-11-15 13:00;CYWG 151300Z 21005KT 15SM FEW077 M06/M08 A2999 RMK AC1 SLP169

CYWG;2009-11-15 14:00;CYWG 151400Z 23006KT 15SM FEW087 M06/M08 A3001 RMK AC1 SLP177

CYWG;2009-11-15 15:00;CYWG 151500Z 27007KT 15SM SKC M05/M07 A3003 RMK SLP184

CYWG;2009-11-15 16:00;CYWG 151600Z 28007KT 15SM SKC M02/M05 A3006 RMK SLP193

CYWG;2009-11-15 17:00;CYWG 151700Z 30009KT 15SM SKC M00/M03 A3007 RMK SLP199

CYWG;2009-11-15 18:00;CYWG 151800Z 30006KT 15SM SKC 03/M02 A3009 RMK SLP202

CYWG;2009-11-15 19:00;CYWG 151900Z 27004KT 15SM SKC 04/M02 A3009 RMK SLP205

CYWG;2009-11-15 20:00;CYWG 152000Z 24007KT 15SM SKC 05/M03 A3009 RMK SLP205

CYWG;2009-11-15 21:00;CYWG 152100Z 27008KT 15SM FEW220 05/M04 A3010 RMK CI1 SLP205

CYWG;2009-11-15 22:00;CYWG 152200Z 25004KT 15SM FEW080 FEW220 03/M05 A3011 RMK AC1CI1 SLP210

CYWG;2009-11-15 23:00;CYWG 152300Z 22004KT 15SM FEW090 FEW220 02/M05 A3012 RMK AC1CI0 SLP211

CYWG;2009-11-16 00:00;CYWG 160000Z 20006KT 15SM FEW090 FEW220 M02/M06 A3012 RMK AC1CI0 SLP216

CYWG;2009-11-16 01:00;CYWG 160100Z 20010KT 15SM FEW090 BKN220 M00/M05 A3012 RMK AC1CI2 SLP215

CYWG;2009-11-16 02:00;CYWG 160200Z 20011KT 15SM FEW090 FEW220 01/M05 A3012 RMK AC1CI1 SLP215

CYWG;2009-11-16 03:00;CYWG 160300Z 21009KT 15SM SKC 00/M05 A3013 RMK SLP219

CYWG;2009-11-16 04:00;CYWG 160400Z 21010KT 15SM SKC M00/M05 A3015 RMK SLP223

CYWG;2009-11-16 05:00;CYWG 160500Z 22010KT 15SM FEW080 M00/M05 A3014 RMK AC1 SLP220

CYWG;2009-11-16 06:00;CYWG 160600Z 22010KT 15SM SKC M00/M05 A3014 RMK SLP219

CYWG;2009-11-16 07:00;CYWG 160700Z 22011G16KT 15SM SKC M00/M05 A3014 RMK SLP219

CYWG;2009-11-16 08:00;CYWG 160800Z 21012KT 15SM SKC M01/M05 A3014 RMK SLP220

CYWG;2009-11-16 09:00;CYWG 160900Z 21011KT 15SM FEW090 M00/M05 A3015 RMK AC1 SLP221

CYWG;2009-11-16 10:00;CYWG 161000Z 20011KT 15SM FEW090 M01/M06 A3013 RMK AC1 SLP216

CYWG;2009-11-16 11:00;CYWG 161100Z 19010KT 15SM SKC M03/M06 A3013 RMK SLP216

CYWG;2009-11-16 12:00;CYWG 161200Z 19011KT 15SM SKC M03/M06 A3012 RMK SLP216

CYWG;2009-11-16 13:00;CYWG 161300Z 19009KT 15SM FEW087 M03/M06 A3012 RMK AC1 SLP216

CYWG;2009-11-16 14:00;CYWG 161400Z 18009KT 15SM FEW087 SCT250 M04/M06 A3013 RMK AC1CI2 SLP218

CYWG;2009-11-16 15:00;CYWG 161500Z 19012KT 15SM BKN250 M02/M06 A3013 RMK CI3 SLP218

CYWG;2009-11-16 16:00;CYWG 161600Z 19013KT 15SM FEW090 BKN250 01/M05 A3013 RMK AC1CI2 SLP217

CYWG;2009-11-16 17:00;CYWG 161700Z 18017KT 15SM FEW090 BKN250 03/M04 A3012 RMK AC1CI2 SLP212

CYWG;2009-11-16 18:00;CYWG 161800Z 19014KT 15SM BKN220 05/M03 A3011 RMK CI1 CC ASOCTD SLP206

CYWG;2009-11-16 19:00;CYWG 161900Z 19015KT 15SM FEW090 08/M02 A3009 RMK AC2 SLP202

CYWG;2009-11-16 20:00;CYWG 162000Z 20017KT 15SM SCT210 10/M03 A3009 RMK CI1 SLP199

CYWG;2009-11-16 21:00;CYWG 162100Z 20014KT 15SM FEW150 SCT210 10/M05 A3009 RMK AC1CI1 SLP198

CYWG;2009-11-16 22:00;CYWG 162200Z 19011G16KT 15SM BKN210 09/M04 A3009 RMK CI2 SLP199

CYWG;2009-11-16 23:00;CYWG 162300Z 18013KT 15SM BKN220 06/M02 A3008 RMK CI2 SLP196

CYWG;2009-11-17 00:00;CYWG 170000Z 18012G17KT 15SM BKN220 06/M03 A3008 RMK CI6 SLP197

CYWG;2009-11-17 01:00;CYWG 170100Z 18013KT 15SM OVC220 05/M04 A3008 RMK CI7 SLP197

CYWG;2009-11-17 02:00;CYWG 170200Z 19016KT 15SM BKN220 05/M04 A3007 RMK CI6 SLP194

CYWG;2009-11-17 03:00;CYWG 170300Z 18015G24KT 15SM BKN220 04/M04 A3006 RMK CI6 SLP190

CYWG;2009-11-17 04:00;CYWG 170400Z 19016G21KT 15SM SCT220 03/M04 A3006 RMK CI1 SLP192

CYWG;2009-11-17 05:00;CYWG 170500Z 18015KT 15SM SKC 02/M04 A3005 RMK SLP187

CYWG;2009-11-17 06:00;CYWG 170600Z 18013KT 15SM SKC 01/M04 A3006 RMK SLP189

CYWG;2009-11-17 07:00;CYWG 170700Z 18014KT 15SM SKC 01/M04 A3005 RMK SLP187

CYWG;2009-11-17 08:00;CYWG 170800Z 18016KT 15SM SKC 01/M04 A3005 RMK SLP186

CYWG;2009-11-17 09:00;CYWG 170900Z 18016KT 15SM SKC 00/M04 A3004 RMK SLP183

CYWG;2009-11-17 10:00;CYWG 171000Z 18015KT 15SM SKC 00/M04 A3003 RMK SLP178

CYWG;2009-11-17 11:00;CYWG 171100Z 19016G22KT 15SM SKC 01/M04 A3001 RMK SLP173

CYWG;2009-11-17 12:00;CYWG 171200Z 18017G22KT 15SM FEW076 00/M04 A3001 RMK AC1 SLP172

CYWG;2009-11-17 13:00;CYWG 171300Z 18017KT 15SM SCT250 M00/M04 A3000 RMK CI0 SLP169

CYWG;2009-11-17 14:00;CYWG 171400Z 18017G22KT 15SM BKN250 M00/M05 A2999 RMK CI1 SLP167

CYWG;2009-11-17 15:00;CYWG 171500Z 18016KT 15SM BKN250 01/M04 A2999 RMK CI0 SLP167

CYWG;2009-11-17 16:00;CYWG 171600Z 19019G25KT 15SM BKN250 03/M04 A2999 RMK CI1 SLP166

CYWG;2009-11-17 17:00;CYWG 171700Z 18018KT 15SM BKN250 06/M04 A2998 RMK CI1 SLP164

CYWG;2009-11-17 18:00;CYWG 171800Z 19015G21KT 15SM BKN250 08/M03 A2996 RMK CI1 SLP155

CYWG;2009-11-17 19:00;CYWG 171900Z 19018G29KT 15SM BKN250 10/M03 A2994 RMK CI1 SLP149

CYWG;2009-11-17 20:00;CYWG 172000Z 18020G26KT 15SM SCT250 11/M03 A2992 RMK CI1 OBS TAKEN 0015 SLP142

CYWG;2009-11-17 21:00;CYWG 172100Z 18021G29KT 15SM SCT250 11/M03 A2992 RMK CI1 SLP140

CYWG;2009-11-17 22:00;CYWG 172200Z 19022G29KT 15SM FEW250 10/M04 A2992 RMK CI1 SLP141

CYWG;2009-11-17 23:00;CYWG 172300Z 18017G24KT 15SM FEW250 08/M04 A2993 RMK CI1 SLP143

CYWG;2009-11-18 00:00;CYWG 180000Z 18021G26KT 15SM FEW250 06/M03 A2993 RMK CI1 SLP145

CYWG;2009-11-18 01:00;CYWG 180100Z 18021G26KT 15SM SKC 06/M02 A2992 RMK SLP143

CYWG;2009-11-18 02:00;CYWG 180200Z 18021KT 15SM SKC 05/M02 A2992 RMK SLP142

CYWG;2009-11-18 03:00;CYWG 180300Z 18019G24KT 15SM SKC 05/M02 A2992 RMK SLP143

CYWG;2009-11-18 04:00;CYWG 180400Z 18019G25KT 15SM SKC 04/M02 A2993 RMK SLP145

CYWG;2009-11-18 05:00;CYWG 180500Z 18017G25KT 15SM SKC 03/M02 A2993 RMK SLP145

CYWG;2009-11-18 06:00;CYWG 180600Z 18017G24KT 15SM SKC 02/M02 A2993 RMK SLP146

CYWG;2009-11-18 07:00;CYWG 180700Z 18018G24KT 15SM SKC 02/M02 A2993 RMK SLP143

CYWG;2009-11-18 08:00;CYWG 180800Z 18017KT 15SM SKC 01/M02 A2993 RMK SLP144

CYWG;2009-11-18 09:00;CYWG 180900Z 18018G24KT 15SM SKC 01/M03 A2993 RMK SLP144

CYWG;2009-11-18 10:00;CYWG 181000Z 18017G22KT 15SM SKC 01/M03 A2993 RMK SLP145

CYWG;2009-11-18 11:00;CYWG 181100Z 18017G22KT 15SM SKC 01/M03 A2993 RMK SLP145

CYWG;2009-11-18 12:00;CYWG 181200Z 18016KT 15SM SKC 00/M03 A2993 RMK SLP145

CYWG;2009-11-18 13:00;CYWG 181300Z 18020KT 15SM SKC M00/M04 A2993 RMK SLP145

CYWG;2009-11-18 14:00;CYWG 181400Z 18016KT 15SM SKC M01/M04 A2994 RMK SLP148

CYWG;2009-11-18 15:00;CYWG 181500Z 18016KT 15SM SKC 01/M04 A2994 RMK SLP150

CYWG;2009-11-18 16:00;CYWG 181600Z 18017G22KT 15SM SKC 02/M04 A2995 RMK SLP153

CYWG;2009-11-18 17:00;CYWG 181700Z 18014KT 15SM SKC 05/M03 A2995 RMK SLP153

CYWG;2009-11-18 18:00;CYWG 181800Z 17013KT 15SM SKC 07/M03 A2993 RMK SLP146

CYWG;2009-11-18 19:00;CYWG 181900Z 17020KT 15SM SKC 08/M03 A2992 RMK SLP141

CYWG;2009-11-18 20:00;CYWG 182000Z 18018G26KT 15SM SKC 09/M03 A2990 RMK SLP136

CYWG;2009-11-18 21:00;CYWG 182100Z 17020G25KT 15SM SKC 09/M03 A2990 RMK SLP134

CYWG;2009-11-18 22:00;CYWG 182200Z 18015G24KT 15SM SKC 08/M04 A2990 RMK SLP134

CYWG;2009-11-18 23:00;CYWG 182300Z 18011KT 15SM SKC 06/M04 A2990 RMK SLP135

CYWG;2009-11-19 00:00;CYWG 190000Z 18013KT 15SM SKC 05/M04 A2990 RMK SLP136

CYWG;2009-11-19 01:00;CYWG 190100Z 18013G19KT 15SM SKC 04/M05 A2990 RMK SLP135

CYWG;2009-11-19 02:00;CYWG 190200Z 18018KT 15SM SKC 05/M04 A2989 RMK SLP133

CYWG;2009-11-19 03:00;CYWG 190300Z 19011KT 15SM SKC 04/M04 A2991 RMK SLP140

CYWG;2009-11-19 04:00;CYWG 190400Z 19008KT 15SM SKC 02/M04 A2993 RMK SLP146

CYWG;2009-11-19 05:00;CYWG 190500Z 18010KT 15SM SKC 01/M03 A2993 RMK SLP145

CYWG;2009-11-19 06:00;CYWG 190600Z 20010G15KT 15SM SKC 01/M03 A2993 RMK SLP145

CYWG;2009-11-19 07:00;CYWG 190700Z 18013KT 15SM SKC 00/M03 A2992 RMK SLP143

CYWG;2009-11-19 08:00;CYWG 190800Z 19011KT 15SM SKC M00/M03 A2991 RMK SLP139

CYWG;2009-11-19 09:00;CYWG 190900Z 18009KT 15SM SKC M02/M03 A2992 RMK SLP142

CYWG;2009-11-19 10:00;CYWG 191000Z 19008KT 15SM SKC M02/M03 A2991 RMK SLP140

CYWG;2009-11-19 11:00;CYWG 191100Z 19008KT 15SM SKC M02/M04 A2991 RMK SLP139

CYWG;2009-11-19 12:00;CYWG 191200Z 19010KT 15SM SKC M03/M04 A2990 RMK SLP138

CYWG;2009-11-19 13:00;CYWG 191300Z 19009KT 15SM FEW092 FEW210 M03/M04 A2992 RMK AC1CI1 SLP143

CYWG;2009-11-19 14:00;CYWG 191400Z 22007KT 15SM FEW086 BKN210 M03/M04 A2994 RMK AC2CI2 FROIN FU SLP150

CYWG;2009-11-19 15:00;CYWG 191500Z 25003KT 15SM FEW086 BKN210 M01/M03 A2995 RMK AC2CI3 FROIN FU SLP153

CYWG;2009-11-19 16:00;CYWG 191600Z 17006KT 15SM FEW064 BKN210 M00/M03 A2995 RMK SC2CI3 FU SLP153

CYWG;2009-11-19 17:00;CYWG 191700Z 25003KT 15SM FEW080 BKN210 00/M03 A2996 RMK AC1CI2 FU SLP158

CYWG;2009-11-19 18:00;CYWG 191800Z 29004KT 15SM BKN081 BKN210 04/M01 A2995 RMK AC5CI2 FU SLP154

CYWG;2009-11-19 19:00;CYWG 191900Z 34005KT 15SM FEW080 BKN210 05/M00 A2995 RMK AC2CI2 FU W SLP154

CYWG;2009-11-19 20:00;CYWG 192000Z 31008KT 15SM FEW083 BKN240 08/01 A2996 RMK AC1CI2 SLP155

CYWG;2009-11-19 21:00;CYWG 192100Z 33007KT 15SM FEW083 BKN240 07/M01 A2996 RMK AC1CI3 SLP157

CYWG;2009-11-19 22:00;CYWG 192200Z 31004KT 15SM FEW088 BKN240 05/M01 A2997 RMK AC2CI2 SLP159

CYWG;2009-11-19 23:00;CYWG 192300Z 29007KT 15SM FEW095 BKN240 03/M02 A2998 RMK AC2CI1 SLP163

CYWG;2009-11-20 00:00;CYWG 200000Z 28008KT 15SM FEW090 BKN240 00/M03 A2999 RMK AC2CI1 SLP171

CYWG;2009-11-20 01:00;CYWG 200100Z 31007KT 15SM SCT240 M03/M05 A3000 RMK CI1 SLP173

CYWG;2009-11-20 02:00;CYWG 200200Z 32006KT 15SM SKC M05/M06 A3001 RMK SLP176

CYWG;2009-11-20 03:00;CYWG 200300Z 33004KT 15SM SKC M05/M07 A3001 RMK SLP178

CYWG;2009-11-20 04:00;CYWG 200400Z 26006KT 15SM SKC M05/M06 A3002 RMK SLP181

CYWG;2009-11-20 05:00;CYWG 200500Z 25003KT 15SM SKC M07/M07 A3002 RMK SLP181

CYWG;2009-11-20 06:00;CYWG 200600Z 24003KT 15SM SKC M03/M05 A3002 RMK SLP179

CYWG;2009-11-20 07:00;CYWG 200700Z 26007KT 15SM SKC M04/M06 A3003 RMK SLP181

CYWG;2009-11-20 08:00;CYWG 200800Z 25002KT 15SM SKC M06/M08 A3004 RMK SLP184

CYWG;2009-11-20 09:00;CYWG 200900Z 23004KT 15SM SKC M06/M07 A3003 RMK SLP180

CYWG;2009-11-20 10:00;CYWG 201000Z 17007KT 15SM SKC M08/M09 A3000 RMK SLP173

CYWG;2009-11-20 11:00;CYWG 201100Z 19006KT 15SM FEW076 M06/M08 A3000 RMK AC1 SLP172

CYWG;2009-11-20 12:00;CYWG 201200Z 20004KT 15SM SKC M09/M10 A3001 RMK SLP178

CYWG;2009-11-20 13:00;CYWG 201300Z 17007KT 15SM SKC M09/M10 A2999 RMK SLP173

CYWG;2009-11-20 14:00;CYWG 201400Z 18006KT 15SM FEW083 M08/M09 A2999 RMK AC1 SLP173

CYWG;2009-11-20 15:00;CYWG 201500Z 19009KT 15SM FEW093 M04/M07 A2999 RMK AC1 SLP173

CYWG;2009-11-20 16:00;CYWG 201600Z 19013KT 15SM SKC 00/M05 A2998 RMK SLP168

CYWG;2009-11-20 17:00;CYWG 201700Z 18012KT 15SM FEW210 03/M04 A2997 RMK CI0 SLP164

CYWG;2009-11-20 18:00;CYWG 201800Z 19013KT 15SM FEW210 06/M04 A2994 RMK CI1 SLP150

CYWG;2009-11-20 19:00;CYWG 201900Z 18014KT 15SM BKN210 08/M04 A2991 RMK CI1 SLP140

CYWG;2009-11-20 20:00;CYWG 202000Z 19013G19KT 15SM SCT250 10/M03 A2990 RMK CI1 SLP137

CYWG;2009-11-20 21:00;CYWG 202100Z 18014KT 13SM BKN250 09/M03 A2989 RMK CI1 FU SLP132

CYWG;2009-11-20 22:00;CYWG 202200Z 18015KT 15SM BKN250 08/M03 A2988 RMK CI1 SLP130

CYWG;2009-11-20 23:00;CYWG 202300Z 18014KT 15SM SCT250 06/M03 A2988 RMK CI1 SLP130

CYWG;2009-11-21 00:00;CYWG 210000Z 18014KT 15SM SCT250 05/M03 A2988 RMK CI1 SLP131

CYWG;2009-11-21 01:00;CYWG 210100Z 18014KT 15SM SCT250 04/M03 A2986 RMK CI1 SLP124

CYWG;2009-11-21 02:00;CYWG 210200Z 18014G21KT 15SM BKN250 04/M03 A2985 RMK CI2 SLP121

CYWG;2009-11-21 03:00;CYWG 210300Z 18016KT 15SM SCT250 03/M03 A2982 RMK CI1 SLP111

CYWG;2009-11-21 03:48;CYWG 210348Z 18015KT 15SM SCT250 02/ RMK CI1

CYWG;2009-11-21 04:00;CYWG 210400Z 18014KT 15SM FEW250 03/M03 A2983 RMK CI1 SLP113

CYWG;2009-11-21 05:00;CYWG 210500Z 17016KT 15SM FEW250 02/M03 A2981 RMK CI1 SLP108

CYWG;2009-11-21 06:00;CYWG 210600Z 17015KT 15SM FEW250 01/M03 A2980 RMK CI1 SLP103

CYWG;2009-11-21 07:00;CYWG 210700Z 18015G20KT 15SM FEW250 02/M02 A2980 RMK CI1 SLP100

CYWG;2009-11-21 08:00;CYWG 210800Z 18016KT 15SM SCT250 02/M03 A2978 RMK CI2 SLP095

CYWG;2009-11-21 09:00;CYWG 210900Z 18017KT 15SM BKN250 02/M02 A2977 RMK CI2 SLP090

CYWG;2009-11-21 10:00;CYWG 211000Z 18016KT 15SM BKN250 02/M03 A2974 RMK CI3 SLP081

CYWG;2009-11-21 11:00;CYWG 211100Z 17016G21KT 15SM SCT240 02/M03 A2972 RMK CI2 SLP074

CYWG;2009-11-21 12:00;CYWG 211200Z 17014KT 15SM SKC 02/M03 A2970 RMK SLP068

CYWG;2009-11-21 13:00;CYWG 211300Z 15012KT 15SM FEW250 01/M03 A2968 RMK CI1 SLP062

CYWG;2009-11-21 14:00;CYWG 211400Z 16015G21KT 15SM SCT250 02/M03 A2967 RMK CI2 SLP057

CYWG;2009-11-21 15:00;CYWG 211500Z 16018KT 15SM BKN250 04/M03 A2963 RMK CI4 SLP044

CYWG;2009-11-21 16:00;CYWG 211600Z 16022KT 15SM FEW076 OVC250 06/M03 A2960 RMK AC2CI4 SLP032

CYWG;2009-11-21 17:00;CYWG 211700Z 16018G26KT 15SM FEW075 OVC250 07/M02 A2957 RMK AC2CI6 SLP024

CYWG;2009-11-21 18:00;CYWG 211800Z 18020G26KT 15SM FEW085 OVC250 10/M01 A2955 RMK AC2CI5 SLP015

CYWG;2009-11-21 19:00;CYWG 211900Z 17023G31KT 15SM FEW081 OVC250 11/M01 A2952 RMK AC2CI5 SLP004

CYWG;2009-11-21 20:00;CYWG 212000Z 18022G33KT 15SM FEW080 OVC250 12/M01 A2948 RMK AC1CI6 SLP990

CYWG;2009-11-21 21:00;CYWG 212100Z 18024G41KT 15SM OVC250 13/M02 A2946 RMK CI7 SLP982

CYWG;2009-11-21 22:00;CYWG 212200Z 18022G29KT 15SM OVC250 12/M01 A2946 RMK CI5 SLP984

CYWG;2009-11-21 23:00;CYWG 212300Z 18024G30KT 15SM OVC250 11/M01 A2948 RMK CI4 SLP988

CYWG;2009-11-22 00:00;CYWG 220000Z 18020G28KT 15SM BKN250 10/00 A2949 RMK CI3 SLP994

CYWG;2009-11-22 01:00;CYWG 220100Z 19016G22KT 15SM BKN250 09/01 A2951 RMK CI6 SLP999

CYWG;2009-11-22 02:00;CYWG 220200Z 19016KT 15SM SCT250 09/01 A2951 RMK CI1 SLP002

CYWG;2009-11-22 03:00;CYWG 220300Z 19017KT 15SM SCT250 08/01 A2954 RMK CI0 SLP010

CYWG;2009-11-22 04:00;CYWG 220400Z 20016KT 15SM FEW250 07/01 A2955 RMK CI1 SLP016

CYWG;2009-11-22 05:00;CYWG 220500Z 19010KT 15SM FEW250 05/M00 A2958 RMK CI1 SLP025

CYWG;2009-11-22 06:00;CYWG 220600Z 21011KT 15SM FEW250 05/M03 A2961 RMK CI1 SLP034

CYWG;2009-11-22 07:00;CYWG 220700Z 19011KT 15SM BKN250 04/M03 A2963 RMK CI2 SLP041

CYWG;2009-11-22 08:00;CYWG 220800Z 21011KT 15SM BKN250 03/M04 A2965 RMK CI2 SLP048

CYWG;2009-11-22 09:00;CYWG 220900Z 22009KT 15SM BKN250 04/M04 A2967 RMK CI2 SLP056

CYWG;2009-11-22 10:00;CYWG 221000Z 21010KT 15SM SCT250 02/M04 A2969 RMK CI2 SLP061

CYWG;2009-11-22 10:35;CYWG 221035Z 20009KT 15SM SCT250 02/ RMK CI2

CYWG;2009-11-22 11:00;CYWG 221100Z 19009KT 15SM SCT250 01/M05 A2970 RMK CI1 SLP066

CYWG;2009-11-22 12:00;CYWG 221200Z 21007KT 15SM FEW250 M00/M05 A2973 RMK CI1 SLP075

CYWG;2009-11-22 13:00;CYWG 221300Z 20009KT 15SM FEW250 00/M04 A2976 RMK CI1 SLP086

CYWG;2009-11-22 14:00;CYWG 221400Z 19008KT 15SM FEW094 SCT250 M01/M04 A2979 RMK AC2CI1 SLP096

CYWG;2009-11-22 15:00;CYWG 221500Z 19007KT 15SM FEW094 SCT250 M01/M03 A2980 RMK AC2CI1 SLP102

CYWG;2009-11-22 16:00;CYWG 221600Z 23007KT 15SM FEW094 SCT250 03/M01 A2982 RMK AC1CI2 SLP107

CYWG;2009-11-22 17:00;CYWG 221700Z 27011G17KT 15SM FEW092 FEW250 04/M01 A2982 RMK AC1CI1 SLP107

CYWG;2009-11-22 18:00;CYWG 221800Z 27011G16KT 15SM FEW075 FEW250 05/M02 A2983 RMK AC1CI1 SLP111

CYWG;2009-11-22 19:00;CYWG 221900Z 26009KT 15SM FEW078 FEW250 06/M02 A2984 RMK AC1CI1 SLP113

CYWG;2009-11-22 20:00;CYWG 222000Z 27010KT 15SM FEW210 07/M02 A2984 RMK CI0 SLP115

CYWG;2009-11-22 21:00;CYWG 222100Z 24008KT 15SM FEW210 07/M03 A2985 RMK CI0 SLP117

CYWG;2009-11-22 22:00;CYWG 222200Z 23006KT 15SM SKC 05/M03 A2988 RMK SLP127

CYWG;2009-11-22 23:00;CYWG 222300Z 21005KT 15SM SKC 02/M04 A2990 RMK SLP132

CYWG;2009-11-23 00:00;CYWG 230000Z 23005KT 15SM SKC 02/M04 A2991 RMK SLP141

CYWG;2009-11-23 01:00;CYWG 230100Z 22006KT 15SM SKC 01/M05 A2993 RMK SLP146

CYWG;2009-11-23 02:00;CYWG 230200Z 21006KT 15SM SKC M01/M05 A2994 RMK SLP152

CYWG;2009-11-23 03:00;CYWG 230300Z 23005KT 15SM SKC M01/M06 A2995 RMK SLP156

CYWG;2009-11-23 04:00;CYWG 230400Z 23005KT 15SM SKC M03/M07 A2996 RMK SLP160

CYWG;2009-11-23 05:00;CYWG 230500Z 20006KT 15SM SKC M03/M07 A2999 RMK SLP167

CYWG;2009-11-23 06:00;CYWG 230600Z 00000KT 15SM FEW230 M04/M07 A3000 RMK CI0 SLP171

CYWG;2009-11-23 07:00;CYWG 230700Z 18003KT 15SM FEW230 M04/M07 A3001 RMK CI0 SLP174

CYWG;2009-11-23 08:00;CYWG 230800Z 17002KT 15SM SKC M05/M08 A3002 RMK SLP176

CYWG;2009-11-23 09:00;CYWG 230900Z 18007KT 15SM SKC M06/M08 A3004 RMK SLP184

CYWG;2009-11-23 10:00;CYWG 231000Z 18005KT 15SM SKC M06/M08 A3004 RMK SLP186

CYWG;2009-11-23 11:00;CYWG 231100Z 16002KT 15SM SKC M07/M08 A3005 RMK SLP188

CYWG;2009-11-23 12:00;CYWG 231200Z 17003KT 15SM SKC M06/M07 A3006 RMK SLP195

CYWG;2009-11-23 13:00;CYWG 231300Z 00000KT 15SM FEW250 M07/M08 A3007 RMK CI1 SLP197

CYWG;2009-11-23 14:00;CYWG 231400Z 00000KT 15SM FEW250 M08/M10 A3009 RMK CI2 SLP203

CYWG;2009-11-23 15:00;CYWG 231500Z 00000KT 15SM FEW250 M06/M07 A3010 RMK CI2 SLP207

CYWG;2009-11-23 16:00;CYWG 231600Z 17003KT 15SM FEW250 M01/M03 A3011 RMK CI2 SLP210

CYWG;2009-11-23 17:00;CYWG 231700Z 00000KT 15SM FEW120 FEW250 02/M02 A3011 RMK AC1CI1 SLP212

CYWG;2009-11-23 18:00;CYWG 231800Z 00000KT 15SM SCT120 SCT250 04/M03 A3010 RMK AC3CI1 SLP206

CYWG;2009-11-23 19:00;CYWG 231900Z 02003KT 15SM SCT120 SCT250 05/M03 A3009 RMK AC3CI1 SLP202

CYWG;2009-11-23 20:00;CYWG 232000Z 04004KT 15SM FEW120 BKN250 07/M03 A3007 RMK AC2CI2 HZ SLP195

CYWG;2009-11-23 21:00;CYWG 232100Z 03007KT 15SM SCT120 BKN250 07/M03 A3006 RMK AC3CI1 HZ SLP190

CYWG;2009-11-23 22:00;CYWG 232200Z 03006KT 15SM FEW070 SCT120 BKN250 04/M03 A3006 RMK AC1AC2CI1 HZ SLP190

CYWG;2009-11-23 23:00;CYWG 232300Z 05004KT 15SM FEW070 BKN096 BKN250 04/M03 A3006 RMK AC2AC3CI1 SLP191

CYWG;2009-11-24 00:00;CYWG 240000Z 03005KT 15SM OVC086 02/M03 A3006 RMK AC8 SLP193

CYWG;2009-11-24 01:00;CYWG 240100Z 04005KT 15SM OVC094 01/M03 A3005 RMK AC8 SLP189

CYWG;2009-11-24 02:00;CYWG 240200Z 07004KT 15SM OVC094 00/M04 A3004 RMK AC8 SLP186

CYWG;2009-11-24 03:00;CYWG 240300Z 00000KT 15SM OVC070 00/M03 A3002 RMK AC8 SLP181

CYWG;2009-11-24 04:00;CYWG 240400Z 08004KT 15SM OVC062 02/M03 A3001 RMK SC8 VIRGA NE-SE SLP177

CYWG;2009-11-24 05:00;CYWG 240500Z 28004KT 15SM OVC070 01/M03 A3001 RMK AC8 SLP177

CYWG;2009-11-24 06:00;CYWG 240600Z 32003KT 15SM OVC077 01/M03 A3000 RMK AC8 SLP171

CYWG;2009-11-24 07:00;CYWG 240700Z 32003KT 15SM FEW050 BKN077 01/M03 A3000 RMK SC1AC6 SLP170

CYWG;2009-11-24 08:00;CYWG 240800Z 05003KT 15SM OVC080 00/M03 A2999 RMK AC8 SLP168

CYWG;2009-11-24 09:00;CYWG 240900Z 00000KT 15SM OVC085 M00/M03 A3000 RMK AC8 SLP169

CYWG;2009-11-24 10:00;CYWG 241000Z 00000KT 15SM OVC090 M01/M03 A2998 RMK AC8 SLP163

CYWG;2009-11-24 11:00;CYWG 241100Z 00000KT 15SM BKN090 M00/M03 A2997 RMK AC6 SLP161

CYWG;2009-11-24 12:00;CYWG 241200Z 27002KT 15SM FEW090 M06/M07 A2999 RMK AC2 SLP168

CYWG;2009-11-24 13:00;CYWG 241300Z 27005KT 15SM SCT090 M08/M09 A2998 RMK AC3 SLP166

CYWG;2009-11-24 14:00;CYWG 241400Z 27004KT 15SM FEW100 M07/M08 A2998 RMK AC2 SLP166

CYWG;2009-11-24 14:16;CYWG 241416Z 27007KT 10SM FEW100 FEW250 M06/ RMK AC2CI1 FROIN

CYWG;2009-11-24 15:00;CYWG 241500Z 00000KT 15SM FEW100 FEW250 M03/M05 A2997 RMK AC2CI1 SLP164

CYWG;2009-11-24 16:00;CYWG 241600Z 26004KT 15SM FEW100 FEW250 M00/M04 A2996 RMK AC1CI0 SLP160

CYWG;2009-11-24 17:00;CYWG 241700Z 22003KT 15SM FEW250 02/M03 A2994 RMK CI0 SLP154

CYWG;2009-11-24 18:00;CYWG 241800Z 20005KT 15SM FEW090 BKN250 04/M03 A2992 RMK AC1CI2 SLP144

CYWG;2009-11-24 19:00;CYWG 241900Z 20005KT 15SM BKN250 06/M03 A2991 RMK CI3 SLP139

CYWG;2009-11-24 20:00;CYWG 242000Z 23007KT 15SM FEW120 BKN250 06/M02 A2990 RMK AC1CI2 SLP135

CYWG;2009-11-24 21:00;CYWG 242100Z 24004KT 15SM FEW120 BKN250 05/M02 A2988 RMK AC1CI2 SLP128

CYWG;2009-11-24 22:00;CYWG 242200Z 27004KT 15SM FEW130 BKN250 03/M03 A2987 RMK AC2CI2 SLP127

CYWG;2009-11-24 22:10;CYWG 242210Z 27004KT 15SM FEW130 BKN250 02/ RMK AC2CI2

CYWG;2009-11-24 23:00;CYWG 242300Z 30002KT 15SM FEW130 BKN250 01/M03 A2987 RMK AC2CI2 SLP126

CYWG;2009-11-25 00:00;CYWG 250000Z 31005KT 15SM SCT130 OVC250 M01/M04 A2987 RMK AC4CI3 SLP129

CYWG;2009-11-25 01:00;CYWG 250100Z 29008KT 15SM FEW005 SCT090 OVC250 M01/M04 A2987 RMK ST2AC2CI3 SLP130

CYWG;2009-11-25 02:00;CYWG 250200Z 34006KT 15SM BKN076 OVC250 M00/M03 A2987 RMK AC6CI2 SLP130

CYWG;2009-11-25 03:00;CYWG 250300Z 33005KT 15SM OVC056 M00/M03 A2987 RMK SC8 SLP129

CYWG;2009-11-25 04:00;CYWG 250400Z 34007KT 15SM OVC065 00/M02 A2988 RMK SC8 SLP132

CYWG;2009-11-25 05:00;CYWG 250500Z 36010KT 15SM OVC061 01/M03 A2990 RMK SC8 SLP137

CYWG;2009-11-25 06:00;CYWG 250600Z 02009KT 15SM OVC042 01/M02 A2992 RMK SC8 SLP141

CYWG;2009-11-25 07:00;CYWG 250700Z 01009KT 5SM -SN OVC033 01/M00 A2993 RMK SC8 SLP145

CYWG;2009-11-25 08:00;CYWG 250800Z 01007KT 8SM -SN FEW009 OVC023 00/00 A2994 RMK SF2SC6 SLP149

CYWG;2009-11-25 09:00;CYWG 250900Z 36007KT 1 1/2SM -SN SCT009 OVC025 00/00 A2996 RMK SN2SF2SC5 SLP156

CYWG;2009-11-25 09:23;CYWG 250923Z CCA 34006KT 5SM -SN OVC003 00/ RMK SF8

CYWG;2009-11-25 10:00;CYWG 251000Z 34009KT 12SM BKN005 OVC028 00/00 A2997 RMK SF6SC2 SLP161

CYWG;2009-11-25 10:28;CYWG 251028Z 34010KT 15SM SCT005 OVC028 00/ RMK SF4SC4

CYWG;2009-11-25 10:48;CYWG 251048Z 33010KT 5SM -SN BKN008 OVC028 M00/ RMK SF6SC2

CYWG;2009-11-25 11:00;CYWG 251100Z 33010KT 8SM -SN BKN008 BKN021 OVC036 M00/M00 A2999 RMK SF5SC2SC2 SLP168

CYWG;2009-11-25 12:00;CYWG 251200Z 35009KT 10SM -SN BKN007 BKN025 OVC076 M00/M01 A2999 RMK SF5SC2AC1 SLP170

CYWG;2009-11-25 12:10;CYWG 251210Z 35008KT 15SM SCT007 BKN025 BKN076 M00/ RMK SF2SC2AC1

CYWG;2009-11-25 13:00;CYWG 251300Z 32009KT 15SM SCT008 BKN025 M03/M03 A3001 RMK SF3SC2 SLP174

CYWG;2009-11-25 13:36;CYWG 251336Z 34010KT 15SM BKN010 BKN025 M01/ RMK SF6SC1

CYWG;2009-11-25 14:00;CYWG 251400Z 34011KT 15SM BKN010 OVC025 M01/M02 A3003 RMK SF6SC1 SLP183

CYWG;2009-11-25 14:44;CYWG 251444Z 33011KT 15SM FEW010 BKN016 OVC076 M00/ RMK SF2SC5AC2

CYWG;2009-11-25 15:00;CYWG 251500Z 33013KT 15SM FEW010 OVC016 M00/M02 A3006 RMK SF2SC6 SLP191

CYWG;2009-11-25 16:00;CYWG 251600Z 36011G16KT 15SM OVC016 M01/M02 A3008 RMK SC8 SLP198

CYWG;2009-11-25 17:00;CYWG 251700Z 33012KT 15SM SCT017 OVC022 M00/M02 A3009 RMK SC3SC5 SLP203

CYWG;2009-11-25 18:00;CYWG 251800Z 34019G24KT 15SM OVC022 M01/M04 A3009 RMK SC7 SLP204

CYWG;2009-11-25 19:00;CYWG 251900Z 34015KT 15SM BKN029 M00/M05 A3010 RMK SC7 SLP205

CYWG;2009-11-25 20:00;CYWG 252000Z 34015KT 15SM OVC035 M00/M05 A3009 RMK SC8 SLP203

CYWG;2009-11-25 21:00;CYWG 252100Z 33011G17KT 15SM OVC032 M01/M05 A3012 RMK SC8 SLP211

CYWG;2009-11-25 22:00;CYWG 252200Z 33011KT 15SM OVC032 M01/M05 A3013 RMK SC8 SLP215

CYWG;2009-11-25 23:00;CYWG 252300Z 33010KT 15SM BKN034 OVC081 M01/M05 A3013 RMK SC6AC2 SLP216

CYWG;2009-11-26 00:00;CYWG 260000Z 32012KT 15SM OVC031 M01/M05 A3014 RMK SC8 SLP221

CYWG;2009-11-26 00:36;CYWG 260036Z 32012KT 15SM -SHSN OVC031 M02/ RMK SC8

CYWG;2009-11-26 01:00;CYWG 260100Z 33012KT 15SM -SHSN OVC034 M02/M05 A3015 RMK SC8 SLP222

CYWG;2009-11-26 02:00;CYWG 260200Z 32009KT 15SM -SHSN BKN036 M05/M07 A3015 RMK SC5 SLP223

CYWG;2009-11-26 02:26;CYWG 260226Z 32007KT 15SM BKN034 M05/ RMK SC5

CYWG;2009-11-26 03:00;CYWG 260300Z 31008KT 15SM SCT034 M08/M10 A3015 RMK SC2 SLP226

CYWG;2009-11-26 04:00;CYWG 260400Z 30007KT 15SM FEW075 M11/M11 A3016 RMK AC1 SLP230

CYWG;2009-11-26 05:00;CYWG 260500Z 31008KT 15SM FEW075 M11/M12 A3015 RMK AC1 SLP226

CYWG;2009-11-26 06:00;CYWG 260600Z 31009KT 15SM FEW080 M11/M12 A3015 RMK AC1 SLP226

CYWG;2009-11-26 07:00;CYWG 260700Z 34006KT 15SM SKC M09/M09 A3014 RMK SLP222

CYWG;2009-11-26 08:00;CYWG 260800Z 30005KT 15SM FEW090 M11/M11 A3015 RMK AC0 SLP225

CYWG;2009-11-26 09:00;CYWG 260900Z 33002KT 15SM FEW090 M11/M11 A3014 RMK AC2 SLP223

CYWG;2009-11-26 10:00;CYWG 261000Z 01005KT 15SM OVC028 M06/M07 A3014 RMK SC8 SLP223

CYWG;2009-11-26 11:00;CYWG 261100Z 33003KT 15SM OVC028 M05/M07 A3013 RMK SC8 SLP220

CYWG;2009-11-26 12:00;CYWG 261200Z 26003KT 15SM OVC026 M05/M06 A3012 RMK SC8 SLP213

CYWG;2009-11-26 13:00;CYWG 261300Z 32002KT 15SM OVC026 M05/M06 A3011 RMK SC8 SLP211

CYWG;2009-11-26 14:00;CYWG 261400Z 25002KT 15SM BKN026 M05/M06 A3011 RMK SC7 SLP212

CYWG;2009-11-26 15:00;CYWG 261500Z 00000KT 15SM BKN026 BKN092 BKN250 M04/M07 A3009 RMK SC5AC2CI1 SLP207

CYWG;2009-11-26 16:00;CYWG 261600Z 00000KT 15SM SCT025 BKN066 BKN095 BKN250 M03/M08 A3008 RMK SC4AC2AC1CI1 SLP203

CYWG;2009-11-26 17:00;CYWG 261700Z 00000KT 15SM FEW025 SCT066 BKN088 BKN250 M03/M08 A3006 RMK SC2AC2AC2CI1 SLP198

CYWG;2009-11-26 18:00;CYWG 261800Z 00000KT 15SM FEW025 BKN120 BKN250 M02/M08 A3005 RMK SC1AC6CI1 SLP193

CYWG;2009-11-26 19:00;CYWG 261900Z 20002KT 15SM FEW025 BKN120 BKN250 M02/M07 A3003 RMK SC2AC4CI2 SLP186

CYWG;2009-11-26 20:00;CYWG 262000Z 16005KT 15SM FEW025 BKN100 BKN250 M01/M07 A3001 RMK SC2AC2CI1 SLP179

CYWG;2009-11-26 21:00;CYWG 262100Z 15006KT 15SM FEW025 SCT091 BKN250 M02/M07 A2999 RMK SC1AC2CI2 SLP173

CYWG;2009-11-26 22:00;CYWG 262200Z 18008KT 15SM FEW100 BKN120 BKN250 M02/M07 A2997 RMK AC2AC4CI1 SLP167

CYWG;2009-11-26 23:00;CYWG 262300Z 18008KT 15SM FEW025 BKN099 BKN120 M02/M06 A2996 RMK SC1AC6AC2 SLP163

CYWG;2009-11-27 00:00;CYWG 270000Z 15011KT 15SM BKN071 BKN120 M02/M06 A2996 RMK AC6AC2 SLP159

CYWG;2009-11-27 01:00;CYWG 270100Z 16010KT 15SM BKN100 M02/M06 A2993 RMK AC7 SLP150

CYWG;2009-11-27 02:00;CYWG 270200Z 16011KT 15SM BKN096 M02/M06 A2992 RMK AC7 SLP146

CYWG;2009-11-27 03:00;CYWG 270300Z 16009KT 15SM BKN096 BKN250 M03/M06 A2990 RMK AC3CI2 SLP140

CYWG;2009-11-27 04:00;CYWG 270400Z 16012KT 15SM FEW120 OVC250 M03/M06 A2988 RMK AC2CI4 SLP133

CYWG;2009-11-27 05:00;CYWG 270500Z 16010KT 15SM BKN120 OVC250 M03/M06 A2987 RMK AC6CI1 SLP129

CYWG;2009-11-27 06:00;CYWG 270600Z 15010G15KT 15SM OVC084 M03/M06 A2986 RMK AC8 SLP124

CYWG;2009-11-27 07:00;CYWG 270700Z 15010KT 15SM SCT084 OVC120 M03/M06 A2984 RMK AC3AC5 SLP119

CYWG;2009-11-27 08:00;CYWG 270800Z 15011KT 15SM SCT077 OVC120 M03/M06 A2981 RMK AC3AC5 SLP110

CYWG;2009-11-27 09:00;CYWG 270900Z 14011KT 15SM FEW073 BKN091 M02/M06 A2980 RMK AC2AC6 SLP105

CYWG;2009-11-27 10:00;CYWG 271000Z 15012KT 15SM BKN095 M03/M06 A2979 RMK AC4 SLP100

CYWG;2009-11-27 11:00;CYWG 271100Z 14011KT 15SM BKN110 M02/M06 A2977 RMK AC5 SLP093

CYWG;2009-11-27 12:00;CYWG 271200Z 15010KT 15SM SCT099 M03/M06 A2977 RMK AC3 SLP094

CYWG;2009-11-27 13:00;CYWG 271300Z 15011KT 15SM FEW082 M04/M06 A2974 RMK AC2 SLP085

CYWG;2009-11-27 14:00;CYWG 271400Z 14008KT 15SM FEW082 FEW240 M03/M06 A2975 RMK AC1CI0 SLP087

CYWG;2009-11-27 15:00;CYWG 271500Z 14012KT 15SM FEW092 SCT240 M03/M06 A2973 RMK AC1CI0 SLP082

CYWG;2009-11-27 16:00;CYWG 271600Z 15012KT 15SM FEW086 SCT240 M02/M05 A2973 RMK AC1CI0 SLP081

CYWG;2009-11-27 17:00;CYWG 271700Z 16011KT 15SM FEW018 FEW086 BKN240 M00/M04 A2973 RMK SC1AC2CI2 SC TR SLP082

CYWG;2009-11-27 18:00;CYWG 271800Z 16009KT 15SM FEW018 BKN240 01/M04 A2971 RMK SC1CI1 SLP073

CYWG;2009-11-27 19:00;CYWG 271900Z 18005KT 15SM BKN018 01/M04 A2973 RMK SC7 SLP079

CYWG;2009-11-27 20:00;CYWG 272000Z 17003KT 15SM OVC018 01/M03 A2971 RMK SC7 SLP075

CYWG;2009-11-27 21:00;CYWG 272100Z 21002KT 15SM OVC020 01/M03 A2973 RMK SC7 SLP079

CYWG;2009-11-27 22:00;CYWG 272200Z 00000KT 15SM OVC020 01/M03 A2974 RMK SC8 SLP085

CYWG;2009-11-27 23:00;CYWG 272300Z 33005KT 15SM OVC022 M01/M04 A2976 RMK SC6 SLP091

CYWG;2009-11-28 00:00;CYWG 280000Z 36004KT 15SM BKN025 BKN095 M01/M04 A2977 RMK SC6AC2 SLP093

CYWG;2009-11-28 01:00;CYWG 280100Z 35004KT 15SM FEW025 FEW099 M05/M07 A2976 RMK SC1AC1 SLP092

CYWG;2009-11-28 02:00;CYWG 280200Z 31006KT 15SM SCT094 M06/M07 A2978 RMK AC2 SLP097

CYWG;2009-11-28 03:00;CYWG 280300Z 33006KT 15SM SCT077 M07/M08 A2978 RMK AC2 SLP099

CYWG;2009-11-28 04:00;CYWG 280400Z 35004KT 6SM BR FEW090 M08/M08 A2978 RMK AC1 SLP099

CYWG;2009-11-28 05:00;CYWG 280500Z 31005KT 6SM BR SCT090 M09/M10 A2981 RMK AC3 SLP109

CYWG;2009-11-28 06:00;CYWG 280600Z 35003KT 6SM BR BKN100 M06/M07 A2982 RMK AC6 SLP112

CYWG;2009-11-28 07:00;CYWG 280700Z 31004KT 6SM BR BKN090 M07/M07 A2982 RMK AC6 SLP112

CYWG;2009-11-28 08:00;CYWG 280800Z 30005KT 6SM BR FEW090 M07/M08 A2983 RMK AC1 SLP114

CYWG;2009-11-28 09:00;CYWG 280900Z 30002KT 6SM BR SCT100 M08/M08 A2983 RMK AC2 SLP115

CYWG;2009-11-28 10:00;CYWG 281000Z 30003KT 15SM BKN090 M08/M08 A2983 RMK AC4 SLP116

CYWG;2009-11-28 11:00;CYWG 281100Z 29002KT 15SM BKN100 M08/M08 A2984 RMK AC3 SLP118

CYWG;2009-11-28 12:00;CYWG 281200Z 28004KT 4SM BR FEW100 M10/M10 A2985 RMK AC2 FROIN SLP124

CYWG;2009-11-28 12:14;CYWG 281214Z 30004KT 4SM BR FEW001 SCT029 M10/ RMK ST1SC2 FROIN

CYWG;2009-11-28 12:34;CYWG 281234Z 28002KT 3SM BR FEW001 FEW007 SCT029 M10/ RMK ST1SF1SC1

CYWG;2009-11-28 12:52;CYWG 281252Z 28005KT 2SM BR FEW001 SCT009 BKN017 M09/ RMK SF2SF1SC2 FROIN

CYWG;2009-11-28 13:00;CYWG 281300Z 28004KT 2 1/2SM BR FEW001 SCT009 BKN017 M09/M09 A2987 RMK ST2SF1SC2 FROIN SLP132

CYWG;2009-11-28 13:26;CYWG 281326Z 32003KT 3SM BR FEW001 BKN027 BKN100 M08/ RMK ST2SC4AC1

CYWG;2009-11-28 14:00;CYWG 281400Z 27002KT 6SM BR FEW006 BKN034 BKN100 M07/M08 A2989 RMK ST1SC6AC1 SLP136

CYWG;2009-11-28 15:00;CYWG 281500Z 27003KT 7SM BKN038 BKN086 OVC280 M05/M05 A2990 RMK SC6AC2CI0 FROIN BR SLP142

CYWG;2009-11-28 16:00;CYWG 281600Z 25002KT 7SM BKN038 OVC093 M03/M03 A2991 RMK SC7AC1 BR SLP144

CYWG;2009-11-28 16:41;CYWG 281641Z 12002KT 7SM -SN BKN038 OVC093 M03/ RMK SC7AC1 BR

CYWG;2009-11-28 17:00;CYWG 281700Z 17002KT 7SM -SN OVC038 M03/M03 A2990 RMK SC8 BR SLP143

CYWG;2009-11-28 17:37;CYWG 281737Z 17002KT 10SM BKN042 OVC097 M02/ RMK SC7AC0 BR

CYWG;2009-11-28 18:00;CYWG 281800Z 17004KT 12SM BKN042 BKN075 M01/M02 A2989 RMK SC6AC1 BR SLP136

CYWG;2009-11-28 18:20;CYWG 281820Z 21003KT 12SM -SN FEW028 BKN046 OVC075 M01/ RMK SC2SC4AC2 BR

CYWG;2009-11-28 18:51;CYWG 281851Z 19003KT 13SM BKN048 BKN084 OVC280 M00/ RMK SC6AC2CI0 BR

CYWG;2009-11-28 19:00;CYWG 281900Z 00000KT 13SM BKN048 BKN084 OVC280 M00/M02 A2988 RMK SC6AC2CI0 BR SLP133

CYWG;2009-11-28 20:00;CYWG 282000Z 18003KT 15SM BKN034 OVC085 01/M02 A2987 RMK SC6AC2 SLP130

CYWG;2009-11-28 21:00;CYWG 282100Z 00000KT 15SM BKN032 OVC090 01/M02 A2988 RMK SC6AC2 SLP133

CYWG;2009-11-28 21:25;CYWG 282125Z 00000KT 12SM -SHSN BKN032 OVC090 01/ RMK SC6AC2

CYWG;2009-11-28 22:00;CYWG 282200Z 06003KT 12SM -SHSN BKN023 OVC090 00/M02 A2989 RMK SC7AC1 SLP136

CYWG;2009-11-28 23:00;CYWG 282300Z 00000KT 10SM -SHSN OVC026 M00/M02 A2989 RMK SC8 SLP137

CYWG;2009-11-28 23:23;CYWG 282323Z 00000KT 2SM -SHSN OVC025 M01/ RMK SC8

CYWG;2009-11-28 23:33;CYWG 282333Z 00000KT 1 1/2SM -SN VV006 M01/ RMK SN8

CYWG;2009-11-29 00:00;CYWG 290000Z 00000KT 1 1/2SM -SN BKN006 OVC038 M01/M01 A2990 RMK SN6SC1SC1 SLP139

CYWG;2009-11-29 00:48;CYWG 290048Z 00000KT 2SM -SN BKN010 OVC057 M01/ RMK SC6SC2

CYWG;2009-11-29 01:00;CYWG 290100Z 00000KT 3SM -SN BKN010 OVC036 M01/M01 A2991 RMK SC6SC2 SLP143

CYWG;2009-11-29 01:15;CYWG 290115Z 30003KT 3SM -SN BKN018 OVC046 M01/ RMK SC6SC2

CYWG;2009-11-29 02:00;CYWG 290200Z 32002KT 3SM BR OVC005 M01/M01 A2991 RMK ST8 SLP144

CYWG;2009-11-29 02:44;CYWG 290244Z 35002KT 3SM BR OVC011 M01/ RMK ST8

CYWG;2009-11-29 03:00;CYWG 290300Z 32002KT 3SM BR BKN010 OVC055 M01/M01 A2992 RMK SF6SC2 SLP145

CYWG;2009-11-29 03:09;CYWG 290309Z 33003KT 3SM -SN BKN009 OVC055 M01/ RMK SF6SC2

CYWG;2009-11-29 04:00;CYWG 290400Z 31004KT 4SM -SN SCT012 OVC034 M01/M01 A2993 RMK ST3SC5 SLP148

CYWG;2009-11-29 04:11;CYWG 290411Z 30004KT 1 1/2SM -SN OVC008 M01/ RMK SN3ST5

CYWG;2009-11-29 04:44;CYWG 290444Z 30004KT 3SM -SN SCT017 OVC027 M01/ RMK ST4SC4

CYWG;2009-11-29 05:00;CYWG 290500Z 31004KT 3SM -SN SCT015 OVC027 M01/M01 A2993 RMK ST4SC4 SLP150

CYWG;2009-11-29 06:00;CYWG 290600Z 28004KT 6SM BR BKN025 OVC052 M02/M02 A2993 RMK SC6SC2 SLP149

CYWG;2009-11-29 07:00;CYWG 290700Z 28005KT 3SM BR BKN025 OVC046 M01/M01 A2993 RMK ST6SC2 SLP149

CYWG;2009-11-29 08:00;CYWG 290800Z 26004KT 2SM BR BKN035 OVC046 M01/M01 A2993 RMK ST6SC2 SLP149

CYWG;2009-11-29 09:00;CYWG 290900Z 26004KT 4SM BR BKN046 M01/M01 A2993 RMK SC7 SLP148

CYWG;2009-11-29 09:49;CYWG 290949Z 27005KT 3SM BR BKN003 BKN046 M02/ RMK ST5SC2

CYWG;2009-11-29 10:00;CYWG 291000Z 27005KT 3SM BR BKN002 BKN046 M01/M01 A2994 RMK ST6SC1 SLP151

CYWG;2009-11-29 10:08;CYWG 291008Z 27006KT 1/4SM R13/1800V2200FT/N R36/3500VP6000FT/D FZFG OVC001 M01/ RMK FG3ST5

CYWG;2009-11-29 11:00;CYWG 291100Z 27003KT 1/4SM R13/1600FT/N R36/P6000FT/D FZFG BKN062 M03/M03 A2994 RMK FG5SC2 SLP151

CYWG;2009-11-29 11:29;CYWG 291129Z 26002KT 3SM R13/2800FT/N R36/4000VP6000FT/D BR BKN062 M04/ RMK SC6

CYWG;2009-11-29 12:00;CYWG 291200Z 24003KT 6SM R13/2600VP6000FT/N BR BKN060 M05/M05 A2994 RMK SC6 VIS N 1 SLP152

CYWG;2009-11-29 13:00;CYWG 291300Z 25004KT 15SM BKN056 M02/M02 A2993 RMK SC6 SLP151

CYWG;2009-11-29 14:00;CYWG 291400Z 22005KT 15SM FEW056 M04/M05 A2993 RMK SC1 SLP149

CYWG;2009-11-29 15:00;CYWG 291500Z 24005KT 15SM FEW055 M03/M04 A2993 RMK SC1 SLP150

CYWG;2009-11-29 16:00;CYWG 291600Z 26007KT 15SM FEW055 M03/M04 A2993 RMK SC1 SLP150

CYWG;2009-11-29 17:00;CYWG 291700Z 28008KT 15SM FEW090 M02/M04 A2993 RMK AC1 SLP149

CYWG;2009-11-29 18:00;CYWG 291800Z 26007KT 15SM FEW090 M01/M03 A2991 RMK AC1 SLP141

CYWG;2009-11-29 19:00;CYWG 291900Z 24008KT 15SM FEW077 M01/M03 A2990 RMK AC1 SLP138

CYWG;2009-11-29 20:00;CYWG 292000Z 28010KT 15SM FEW087 FEW250 M00/M03 A2989 RMK AC1CI1 SLP134

CYWG;2009-11-29 21:00;CYWG 292100Z 30006KT 15SM FEW090 FEW250 M00/M03 A2987 RMK AC1CI1 SLP129

CYWG;2009-11-29 22:00;CYWG 292200Z 28005KT 15SM FEW250 M02/M04 A2988 RMK CI1 SLP130

CYWG;2009-11-29 23:00;CYWG 292300Z 28004KT 15SM FEW250 M04/M06 A2988 RMK CI1 SLP132

CYWG;2009-11-30 00:00;CYWG 300000Z 25005KT 15SM FEW250 M05/M07 A2987 RMK CI0 SLP130

CYWG;2009-11-30 01:00;CYWG 300100Z 25006KT 15SM SKC M05/M07 A2986 RMK SLP127

CYWG;2009-11-30 02:00;CYWG 300200Z 23005KT 15SM SKC M06/M08 A2985 RMK SLP123

CYWG;2009-11-30 03:00;CYWG 300300Z 25008KT 15SM SKC M06/M07 A2983 RMK SLP115

CYWG;2009-11-30 04:00;CYWG 300400Z 22006KT 15SM SKC M07/M09 A2981 RMK SLP111

CYWG;2009-11-30 05:00;CYWG 300500Z 22005KT 15SM SKC M07/M09 A2979 RMK SLP104

CYWG;2009-11-30 06:00;CYWG 300600Z 23006KT 15SM BKN077 M06/M08 A2978 RMK AC2 SLP099

CYWG;2009-11-30 07:00;CYWG 300700Z 21006KT 15SM FEW015 BKN070 M06/M07 A2976 RMK SC0AC3 SLP091

CYWG;2009-11-30 08:00;CYWG 300800Z 21006KT 15SM BKN069 M05/M07 A2974 RMK AC6 SLP084

CYWG;2009-11-30 09:00;CYWG 300900Z 21009KT 15SM BKN070 M04/M06 A2972 RMK AC7 SLP076

CYWG;2009-11-30 10:00;CYWG 301000Z 22007KT 15SM BKN056 BKN090 M03/M05 A2967 RMK SC5AC2 SLP062

CYWG;2009-11-30 11:00;CYWG 301100Z 22006KT 15SM BKN066 M03/M05 A2965 RMK AC5 SLP054

CYWG;2009-11-30 12:00;CYWG 301200Z 23008KT 15SM BKN085 M02/M04 A2964 RMK AC6 SLP051

CYWG;2009-11-30 13:00;CYWG 301300Z 23006KT 15SM BKN083 M02/M03 A2962 RMK AC6 SLP046

CYWG;2009-11-30 14:00;CYWG 301400Z 27006KT 15SM OVC087 M01/M03 A2961 RMK AC8 SLP043

CYWG;2009-11-30 15:00;CYWG 301500Z 29004KT 15SM BKN076 M01/M03 A2960 RMK AC6 SLP038

CYWG;2009-11-30 16:00;CYWG 301600Z 28013KT 15SM BKN070 01/M01 A2961 RMK AC6 SLP042

CYWG;2009-11-30 17:00;CYWG 301700Z 30013G18KT 15SM FEW070 02/M00 A2963 RMK AC1 SLP046

CYWG;2009-11-30 18:00;CYWG 301800Z 32018G25KT 15SM FEW030 FEW070 04/M00 A2963 RMK CF1AC1 AC TR SLP047

CYWG;2009-11-30 19:00;CYWG 301900Z 33016G21KT 15SM FEW027 04/M01 A2964 RMK SC2 SLP048

CYWG;2009-11-30 20:00;CYWG 302000Z 34015KT 15SM BKN025 BKN079 03/M02 A2965 RMK SC5AC1 SLP052

CYWG;2009-11-30 21:00;CYWG 302100Z 32007KT 15SM FEW025 FEW076 BKN250 01/M02 A2966 RMK SC1AC1CI4 SLP057

CYWG;2009-11-30 22:00;CYWG 302200Z 33005KT 15SM FEW086 BKN250 M01/M03 A2967 RMK AC1CI2 SLP059

CYWG;2009-11-30 23:00;CYWG 302300Z 27005KT 15SM FEW089 FEW250 M02/M04 A2968 RMK AC1CI2 SLP064

CYWG;2009-12-01 01:00;CYWG 010100Z 26004KT 15SM FEW070 M05/M05 A2968 RMK AC0 SLP065

CYWG;2009-12-01 02:00;CYWG 010200Z 25002KT 15SM BKN092 M07/M07 A2968 RMK AS0 SLP064

CYWG;2009-12-01 03:00;CYWG 010300Z 23003KT 15SM BKN072 M05/M06 A2967 RMK AS0 SLP063

CYWG;2009-12-01 04:00;CYWG 010400Z 27003KT 15SM OVC079 M06/M06 A2968 RMK AC6 SLP066

CYWG;2009-12-01 05:00;CYWG 010500Z 00000KT 15SM OVC100 M05/M05 A2968 RMK AC5 SLP065

CYWG;2009-12-01 06:00;CYWG 010600Z 11004KT 15SM OVC098 M03/M04 A2966 RMK AC6 SLP054

CYWG;2009-12-01 07:00;CYWG 010700Z 00000KT 15SM OVC093 M03/M04 A2968 RMK AC6 SLP061

CYWG;2009-12-01 08:00;CYWG 010800Z 18004KT 15SM OVC092 M03/M04 A2967 RMK AC6 SLP060

CYWG;2009-12-01 09:00;CYWG 010900Z 07002KT 15SM BKN027 OVC082 M03/M04 A2967 RMK SC5AC2 SLP060

CYWG;2009-12-01 10:00;CYWG 011000Z 09004KT 15SM OVC077 M03/M03 A2965 RMK AC6 SLP052

CYWG;2009-12-01 11:00;CYWG 011100Z 06002KT 15SM OVC075 M03/M04 A2965 RMK AC8 SLP054

CYWG;2009-12-01 12:00;CYWG 011200Z 08005KT 15SM OVC041 M03/M04 A2966 RMK SC8 SLP058

CYWG;2009-12-01 13:00;CYWG 011300Z 11003KT 15SM BKN007 OVC040 M02/M03 A2967 RMK SF6SC2 SLP059

CYWG;2009-12-01 13:08;CYWG 011308Z 10004KT 12SM -SN BKN007 OVC040 M02/ RMK SF7SC1

CYWG;2009-12-01 13:24;CYWG 011324Z 05004KT 12SM -SN SCT008 OVC065 M03/ RMK SF4SC4

CYWG;2009-12-01 13:52;CYWG 011352Z 05003KT 12SM BKN011 OVC065 M03/ RMK SC5SC3

CYWG;2009-12-01 14:00;CYWG 011400Z 02004KT 12SM BKN011 OVC065 M03/M04 A2968 RMK SC5SC3 SLP064

CYWG;2009-12-01 14:41;CYWG 011441Z 04003KT 6SM -SN OVC011 M03/ RMK SC8

CYWG;2009-12-01 15:00;CYWG 011500Z 02004KT 3SM -SN OVC017 M03/M03 A2970 RMK SC8 SLP070

CYWG;2009-12-01 16:00;CYWG 011600Z 03005KT 3SM -SN OVC014 M03/M03 A2971 RMK SC8 SLP075

CYWG;2009-12-01 16:40;CYWG 011640Z 03006KT 8SM SCT014 OVC046 M02/ RMK SC3SC5 BR

CYWG;2009-12-01 17:00;CYWG 011700Z 03006KT 8SM FEW014 OVC046 M02/M03 A2972 RMK SC2SC6 BR SLP078

CYWG;2009-12-01 18:00;CYWG 011800Z 02007KT 12SM BKN031 OVC074 M02/M03 A2972 RMK SC5AS3 SLP077

CYWG;2009-12-01 19:00;CYWG 011900Z 03006KT 15SM FEW025 FEW053 SCT062 OVC092 M01/M03 A2973 RMK ST1SC2SC2AS4 SLP080

CYWG;2009-12-01 20:00;CYWG 012000Z 02008KT 15SM FEW015 OVC046 M01/M03 A2973 RMK SF2SC6 SLP082

CYWG;2009-12-01 21:00;CYWG 012100Z 02009KT 15SM FEW013 OVC057 M01/M03 A2975 RMK SF2SC6 SLP089

CYWG;2009-12-01 22:00;CYWG 012200Z 36007KT 15SM BKN013 OVC057 M01/M03 A2978 RMK SF5SC3 SLP099

CYWG;2009-12-01 23:00;CYWG 012300Z 35005KT 15SM OVC016 M01/M03 A2981 RMK SC8 SLP108

CYWG;2009-12-01 23:32;CYWG 012332Z 35006KT 15SM -SHSN OVC018 M01/ RMK SC8

CYWG;2009-12-02 00:00;CYWG 020000Z 35005KT 15SM -SHSN OVC018 M02/M03 A2983 RMK SC8 SLP115

CYWG;2009-12-02 00:32;CYWG 020032Z 01004KT 15SM OVC018 M01/ RMK SC8

CYWG;2009-12-02 01:00;CYWG 020100Z 01008KT 15SM OVC014 M02/M03 A2984 RMK SC8 SLP118

CYWG;2009-12-02 02:00;CYWG 020200Z 02010KT 15SM BKN022 OVC082 M02/M04 A2985 RMK SC6AC2 SLP121

CYWG;2009-12-02 03:00;CYWG 020300Z 01008KT 15SM SCT026 OVC075 M03/M04 A2987 RMK SC4AC4 SLP129

CYWG;2009-12-02 04:00;CYWG 020400Z 01006KT 15SM BKN024 OVC070 M03/M04 A2989 RMK SC6AC2 SLP134

CYWG;2009-12-02 05:00;CYWG 020500Z 01008KT 15SM OVC017 M03/M05 A2991 RMK SC8 SLP141

CYWG;2009-12-02 06:00;CYWG 020600Z 35006KT 15SM OVC013 M03/M05 A2992 RMK SC8 SLP146

CYWG;2009-12-02 07:00;CYWG 020700Z 33006KT 15SM OVC013 M04/M05 A2994 RMK SC8 SLP152

CYWG;2009-12-02 07:52;CYWG 020752Z 34008KT 8SM -SHSN OVC013 M04/ RMK SC8

CYWG;2009-12-02 08:00;CYWG 020800Z 33008KT 15SM -SHSN OVC013 M04/M05 A2995 RMK SC8 SLP157

CYWG;2009-12-02 09:00;CYWG 020900Z 36008KT 15SM -SHSN OVC013 M04/M06 A2997 RMK SC8 SLP163

CYWG;2009-12-02 10:00;CYWG 021000Z 01009KT 15SM -SHSN SCT006 OVC013 M05/M05 A2998 RMK SC3SC5 OBS TKN +20 SLP167

CYWG;2009-12-02 10:56;CYWG 021056Z 01007KT 15SM BKN004 OVC012 M05/ RMK ST5SC3

CYWG;2009-12-02 11:00;CYWG 021100Z 01009KT 15SM BKN004 OVC012 M05/M05 A2999 RMK ST5SC3 SLP169

CYWG;2009-12-02 12:00;CYWG 021200Z 02008KT 15SM OVC006 M05/M06 A3000 RMK ST8 SLP174

CYWG;2009-12-02 13:00;CYWG 021300Z 01009KT 15SM -SHSN BKN008 OVC013 M05/M06 A3002 RMK ST5SC3 SLP180

CYWG;2009-12-02 13:31;CYWG 021331Z 01010KT 15SM -SHSN OVC010 M05/ RMK ST8

CYWG;2009-12-02 14:00;CYWG 021400Z 01012KT 10SM -SHSN OVC010 M06/M06 A3004 RMK ST8 SLP186

CYWG;2009-12-02 14:46;CYWG 021446Z 36010KT 12SM -SHSN BKN009 OVC023 M06/ RMK ST5SC3

CYWG;2009-12-02 15:00;CYWG 021500Z 36008KT 12SM -SHSN BKN011 OVC054 M06/M08 A3005 RMK ST6SC2 SLP190

CYWG;2009-12-02 16:00;CYWG 021600Z 36010KT 12SM -SHSN OVC013 M06/M08 A3006 RMK ST8 SLP195

CYWG;2009-12-02 17:00;CYWG 021700Z 35011KT 15SM -SHSN OVC013 M06/M08 A3007 RMK ST8 SLP198

CYWG;2009-12-02 18:00;CYWG 021800Z 36012KT 15SM -SHSN OVC013 M06/M08 A3007 RMK ST8 SLP200

CYWG;2009-12-02 19:00;CYWG 021900Z 36013KT 15SM -SHSN OVC015 M05/M08 A3007 RMK SC8 SLP200

CYWG;2009-12-02 20:00;CYWG 022000Z 36010KT 5SM -SHSN OVC017 M05/M08 A3008 RMK SC8 CVCTV CLD EMBD SLP203

CYWG;2009-12-02 20:49;CYWG 022049Z 36014KT 2 1/2SM -SHSN OVC023 M05/ RMK SN3SC5 CVCTV CLD EMBD

CYWG;2009-12-02 21:00;CYWG 022100Z 36012KT 3SM -SHSN OVC023 M05/M08 A3009 RMK SN3SC5 CVCTV CLD EMBD VIS LWR N-NE SLP205

CYWG;2009-12-02 22:00;CYWG 022200Z 36010KT 9SM -SHSN OVC032 M06/M09 A3010 RMK SC8 SLP208

CYWG;2009-12-02 23:00;CYWG 022300Z 34008KT 10SM -SHSN OVC042 M06/M08 A3011 RMK SC8 SLP211

CYWG;2009-12-03 00:00;CYWG 030000Z 34006KT 10SM -SHSN OVC033 M06/M08 A3011 RMK SC8 SLP213

CYWG;2009-12-03 01:00;CYWG 030100Z 33009KT 10SM -SHSN OVC033 M07/M08 A3011 RMK SC8 SLP213

CYWG;2009-12-03 02:00;CYWG 030200Z 33009KT 10SM -SHSN BKN019 OVC051 M07/M09 A3012 RMK SC6SC2 SLP217

CYWG;2009-12-03 03:00;CYWG 030300Z 34010KT 15SM OVC021 M08/M10 A3012 RMK SC8 SLP218

CYWG;2009-12-03 03:51;CYWG 030351Z 33007KT 8SM -SHSN OVC017 M10/ RMK SC8

CYWG;2009-12-03 04:00;CYWG 030400Z 33007KT 15SM SCT017 M10/M11 A3012 RMK SC2 SLP219

CYWG;2009-12-03 05:00;CYWG 030500Z 32007KT 10SM -SHSN BKN017 OVC047 M09/M10 A3012 RMK SC6SC2 SLP219

CYWG;2009-12-03 06:00;CYWG 030600Z 30006KT 15SM -SHSN BKN017 OVC039 M10/M11 A3012 RMK SC6SC2 SLP216

CYWG;2009-12-03 06:20;CYWG 030620Z 30006KT 15SM SCT017 BKN039 M11/ RMK SC2SC1

CYWG;2009-12-03 07:00;CYWG 030700Z 30007KT 15SM FEW039 SCT073 M14/M15 A3011 RMK SC1AC2 SLP215

CYWG;2009-12-03 08:00;CYWG 030800Z 30006KT 15SM OVC015 M11/M12 A3012 RMK SC8 SLP216

CYWG;2009-12-03 09:00;CYWG 030900Z 31004KT 15SM -SHSN SCT022 BKN039 M13/M14 A3012 RMK SC1SC2 SLP218

CYWG;2009-12-03 10:00;CYWG 031000Z 31005KT 15SM -SHSN BKN029 OVC051 M11/M12 A3012 RMK SC5SC3 SLP217

CYWG;2009-12-03 11:00;CYWG 031100Z 35007KT 15SM -SHSN OVC033 M10/M11 A3012 RMK SC7 SLP217

CYWG;2009-12-03 12:00;CYWG 031200Z 34007KT 15SM FEW028 FEW100 FEW250 M12/M13 A3013 RMK SC1AC1CI0 SLP221

CYWG;2009-12-03 13:00;CYWG 031300Z 33009KT 15SM FEW030 FEW080 SCT250 M13/M15 A3013 RMK SC1AC1CI0 SLP222

CYWG;2009-12-03 14:00;CYWG 031400Z 33010KT 15SM FEW030 FEW100 SCT250 M14/M15 A3014 RMK SC1AC1CI0 SLP225

CYWG;2009-12-03 15:00;CYWG 031500Z 34009KT 15SM SCT024 BKN076 M11/M12 A3015 RMK SC3AC2 SLP228

CYWG;2009-12-03 15:50;CYWG 031550Z 34010KT 12SM -SN FEW006 SCT028 BKN096 M11/ RMK SF1SC3AC1

CYWG;2009-12-03 16:00;CYWG 031600Z 33011KT 12SM -SN FEW008 SCT028 BKN096 M11/M12 A3016 RMK SF1SC3AC2 SLP232

CYWG;2009-12-03 17:00;CYWG 031700Z 32011KT 8SM -SN SCT009 OVC064 M09/M11 A3016 RMK SF3SC4 SLP233

CYWG;2009-12-03 17:45;CYWG 031745Z 32012KT 2SM -SN OVC041 M08/ RMK SN3SC5 SUN DIMLY VISBL

CYWG;2009-12-03 18:00;CYWG 031800Z 34011KT 8SM -SN FEW009 OVC041 M08/M11 A3015 RMK SF2SC6 SUN DIMLY VISBL SLP227

CYWG;2009-12-03 19:00;CYWG 031900Z 32011KT 10SM -SN FEW009 BKN040 M08/M10 A3013 RMK SF1SC6 SLP221

CYWG;2009-12-03 19:23;CYWG 031923Z 32012KT 2SM -SN FEW009 BKN040 M08/ RMK SF1SC6

CYWG;2009-12-03 19:51;CYWG 031951Z 31011KT 6SM -SN FEW013 OVC130 M08/ RMK SF2AS1

CYWG;2009-12-03 20:00;CYWG 032000Z 31013KT 12SM -SN FEW013 OVC130 M07/M09 A3011 RMK SF2AS1 SLP216

CYWG;2009-12-03 20:25;CYWG 032025Z 32013KT 4SM -SN FEW011 OVC094 M07/ RMK SF2AS6

CYWG;2009-12-03 21:00;CYWG 032100Z 32012KT 15SM -SN FEW010 SCT035 BKN094 BKN250 M08/M10 A3011 RMK SF1SC2AS2CI1 SLP217

CYWG;2009-12-03 21:17;CYWG 032117Z 32012G17KT 15SM FEW015 BKN031 BKN094 M08/ RMK SF2SC3AS1

CYWG;2009-12-03 21:49;CYWG 032149Z 32015KT 8SM -SN OVC015 M08/ RMK SC8

CYWG;2009-12-03 22:00;CYWG 032200Z 32013G18KT 5SM -SN OVC015 M08/M10 A3012 RMK SC8 SLP219

CYWG;2009-12-03 22:07;CYWG 032207Z 33013KT 2 1/2SM -SN OVC015 M08/ RMK SC8

CYWG;2009-12-03 22:46;CYWG 032246Z 32011G19KT 6SM -SN OVC021 M08/ RMK SC8

CYWG;2009-12-03 23:00;CYWG 032300Z 31015KT 5SM -SN OVC019 M08/M10 A3012 RMK SC8 SLP218

CYWG;2009-12-04 00:00;CYWG 040000Z 32015KT 4SM -SN OVC016 M09/M11 A3012 RMK SC8 SLP219

CYWG;2009-12-04 01:00;CYWG 040100Z 32015KT 5SM -SN OVC020 M09/M11 A3011 RMK SC8 SLP216

CYWG;2009-12-04 02:00;CYWG 040200Z 31014G19KT 6SM -SN OVC037 M10/M11 A3010 RMK SC8 SLP212

CYWG;2009-12-04 03:00;CYWG 040300Z 31013KT 6SM -SN BKN023 OVC100 M10/M11 A3008 RMK SC5AS1 SLP207

CYWG;2009-12-04 04:00;CYWG 040400Z 31012KT 15SM BKN021 M10/M12 A3006 RMK SC7 SLP201

CYWG;2009-12-04 05:00;CYWG 040500Z 31010KT 15SM BKN019 BKN030 M10/M11 A3006 RMK SC6SC1 SLP198

CYWG;2009-12-04 05:14;CYWG 040514Z 31010KT 9SM -SHSN BKN019 M10/ RMK SC7

CYWG;2009-12-04 06:00;CYWG 040600Z 31011KT 6SM -SHSN OVC021 M10/M11 A3004 RMK SC8 SLP191

CYWG;2009-12-04 07:00;CYWG 040700Z 32011KT 9SM -SHSN FEW011 OVC023 M09/M11 A3003 RMK SF1SC6 SLP187

CYWG;2009-12-04 08:00;CYWG 040800Z 31009KT 9SM -SHSN FEW011 OVC023 M10/M11 A3001 RMK SF1SC7 SLP182

CYWG;2009-12-04 09:00;CYWG 040900Z 31015KT 9SM -SHSN FEW010 OVC021 M11/M13 A3001 RMK SF2SC6 SLP180

CYWG;2009-12-04 09:45;CYWG 040945Z 31010G15KT 15SM OVC021 M12/ RMK SC8

CYWG;2009-12-04 10:00;CYWG 041000Z 30010KT 15SM OVC021 M12/M14 A2999 RMK SC8 MOON DMLY VISBL SLP175

CYWG;2009-12-04 11:00;CYWG 041100Z 27008KT 15SM FEW023 SCT053 BKN080 M13/M14 A2998 RMK SC2SC1AC0 SLP170

CYWG;2009-12-04 11:14;CYWG 041114Z 27008KT 15SM FEW004 FEW023 M14/ RMK SF2SC1

CYWG;2009-12-04 12:00;CYWG 041200Z 27010KT 15SM SCT006 OVC018 M13/M14 A2996 RMK SF4SC4 SLP164

CYWG;2009-12-04 12:44;CYWG 041244Z 27009KT 15SM -SHSN BKN006 OVC020 M13/ RMK SF5SC3

CYWG;2009-12-04 13:00;CYWG 041300Z 28009KT 15SM -SHSN SCT006 OVC018 M13/M14 A2995 RMK SF4SC4 SLP162

CYWG;2009-12-04 14:00;CYWG 041400Z 30008KT 10SM -SHSN BKN010 OVC020 M12/M13 A2994 RMK SF5SC3 SLP159

CYWG;2009-12-04 15:00;CYWG 041500Z 29010KT 15SM -SHSN OVC018 M12/M13 A2993 RMK SC8 SLP155

CYWG;2009-12-04 16:00;CYWG 041600Z 31009KT 10SM -SHSN OVC014 M11/M12 A2993 RMK SC8 SLP154

CYWG;2009-12-04 17:00;CYWG 041700Z 28010KT 15SM OVC025 M11/M12 A2992 RMK SC8 SLP150

CYWG;2009-12-04 18:00;CYWG 041800Z 28010KT 15SM -SHSN OVC037 M10/M12 A2989 RMK SC8 SLP140

CYWG;2009-12-04 19:00;CYWG 041900Z 27008KT 15SM -SHSN OVC028 M10/M12 A2988 RMK SC8 SLP136

CYWG;2009-12-04 20:00;CYWG 042000Z 28010KT 15SM -SHSN OVC030 M09/M11 A2986 RMK SC8 SLP129

CYWG;2009-12-04 20:26;CYWG 042026Z 28009KT 15SM SCT008 OVC024 M09/ RMK SF4SC4

CYWG;2009-12-04 21:00;CYWG 042100Z 28007KT 15SM SCT010 OVC024 M10/M12 A2985 RMK SF3SC5 SLP128

CYWG;2009-12-04 22:00;CYWG 042200Z 28008KT 15SM FEW010 OVC029 M10/M12 A2986 RMK SF2SC6 SLP130

CYWG;2009-12-04 23:00;CYWG 042300Z 28007KT 15SM FEW010 OVC033 M11/M13 A2986 RMK SF1SC7 SLP131

CYWG;2009-12-05 00:00;CYWG 050000Z 26006KT 15SM OVC048 M12/M14 A2987 RMK SC8 SLP134

CYWG;2009-12-05 01:00;CYWG 050100Z 26004KT 15SM OVC034 M12/M15 A2987 RMK SC8 SLP135

CYWG;2009-12-05 02:00;CYWG 050200Z 26005KT 15SM OVC028 M13/M15 A2987 RMK SC8 SLP134

CYWG;2009-12-05 03:00;CYWG 050300Z 24004KT 15SM -SN BKN021 M13/M15 A2987 RMK SC6 SLP134

CYWG;2009-12-05 04:00;CYWG 050400Z 22003KT 15SM -SN BKN012 BKN098 M15/M16 A2987 RMK SC6AC1 SLP136

CYWG;2009-12-05 04:19;CYWG 050419Z 23003KT 15SM FEW012 SCT090 SCT098 M15/ RMK SC1AC1AC1

CYWG;2009-12-05 05:00;CYWG 050500Z 24004KT 15SM SCT079 SCT240 M16/M17 A2989 RMK AC2CI1 SLP141

CYWG;2009-12-05 06:00;CYWG 050600Z 26004KT 15SM FEW071 SCT090 M16/M17 A2989 RMK AC1AC2 SLP143

CYWG;2009-12-05 07:00;CYWG 050700Z 27006KT 15SM FEW080 SCT240 M17/M18 A2989 RMK AC1CI1 SLP143

CYWG;2009-12-05 08:00;CYWG 050800Z 27003KT 15SM FEW068 FEW080 M18/M18 A2990 RMK AC1AC1 TR AC LWR LYR SLP147

CYWG;2009-12-05 09:00;CYWG 050900Z 29003KT 15SM SKC M19/M19 A2992 RMK SLP154

CYWG;2009-12-05 10:00;CYWG 051000Z 29004KT 10SM SKC M18/M19 A2993 RMK IC SLP157

CYWG;2009-12-05 11:00;CYWG 051100Z 29004KT 15SM FEW002 M19/M20 A2994 RMK ST1 SLP160

CYWG;2009-12-05 12:00;CYWG 051200Z 28006KT 15SM SKC M19/M20 A2994 RMK SLP163

CYWG;2009-12-05 13:00;CYWG 051300Z 28006KT 15SM SKC M19/M20 A2996 RMK SLP169

CYWG;2009-12-05 14:00;CYWG 051400Z 30004KT 15SM FEW086 M20/M21 A2998 RMK AC1 SLP176

CYWG;2009-12-05 15:00;CYWG 051500Z 28002KT 15SM FEW086 M17/M18 A3001 RMK AC1 SLP185

CYWG;2009-12-05 16:00;CYWG 051600Z 00000KT 15SM SKC M14/M15 A3003 RMK SLP192

CYWG;2009-12-05 17:00;CYWG 051700Z 32004KT 15SM FEW100 M11/M12 A3003 RMK AC1 SLP194

CYWG;2009-12-05 18:00;CYWG 051800Z 36006KT 15SM FEW013 FEW080 M09/M11 A3004 RMK CF1AC1 SLP194

CYWG;2009-12-05 18:12;CYWG 051812Z CCB 34007KT 15SM FEW007 SCT013 M09/ RMK SF2SC2

CYWG;2009-12-05 18:25;CYWG 051825Z CCA 34007KT 15SM FEW007 SCT013 M09/ RMK SF2SC2

CYWG;2009-12-05 18:45;CYWG 051845Z 33006KT 15SM BKN009 BKN024 M08/ RMK SF5SC2

CYWG;2009-12-05 19:00;CYWG 051900Z 34006KT 15SM BKN011 BKN069 M08/M10 A3005 RMK SC6AC1 SLP198

CYWG;2009-12-05 19:17;CYWG 051917Z 36009KT 15SM -SN BKN011 OVC069 M08/ RMK SC7AC1

CYWG;2009-12-05 20:00;CYWG 052000Z 01009KT 15SM -SN BKN013 M08/M10 A3006 RMK SC7 SLP201

CYWG;2009-12-05 20:18;CYWG 052018Z 01006KT 15SM -SN BKN017 M07/ RMK SC7

CYWG;2009-12-05 21:00;CYWG 052100Z 34006KT 15SM -SN BKN014 M08/M10 A3009 RMK SC7 SLP210

CYWG;2009-12-05 22:00;CYWG 052200Z 35007KT 15SM BKN016 M09/M12 A3011 RMK SC4 SLP217

CYWG;2009-12-05 23:00;CYWG 052300Z 36006KT 15SM BKN020 M09/M12 A3012 RMK SC7 SLP223

CYWG;2009-12-06 00:00;CYWG 060000Z 36009KT 4SM -SN OVC012 M09/M11 A3014 RMK SC8 SLP229

CYWG;2009-12-06 01:00;CYWG 060100Z 36008KT 5SM -SN OVC012 M09/M11 A3016 RMK SC8 SLP235

CYWG;2009-12-06 02:00;CYWG 060200Z 36009KT 10SM -SN OVC010 M09/M10 A3017 RMK SC8 SLP238

CYWG;2009-12-06 02:18;CYWG 060218Z 36007KT 12SM -SN OVC009 M09/ RMK SC8

CYWG;2009-12-06 03:00;CYWG 060300Z 35009KT 12SM -SN OVC010 M08/M09 A3018 RMK SC8 SLP240

CYWG;2009-12-06 03:21;CYWG 060321Z 34008KT 15SM OVC009 M08/ RMK SC8

CYWG;2009-12-06 03:44;CYWG 060344Z 01010G15KT 5SM -SN OVC009 M08/ RMK SC8

CYWG;2009-12-06 04:00;CYWG 060400Z 36010KT 6SM -SN -FZDZ OVC007 M08/M09 A3019 RMK SF8 SLP246

CYWG;2009-12-06 04:32;CYWG 060432Z 36007KT 4SM -SN -FZDZ BR OVC004 M08/ RMK SF8

CYWG;2009-12-06 05:00;CYWG 060500Z 01009KT 4SM -SN -FZDZ BR OVC004 M08/M09 A3021 RMK ST8 SLP252

CYWG;2009-12-06 05:43;CYWG 060543Z 01008KT 7SM -SN OVC006 M09/ REFZDZ RMK SF7 BR

CYWG;2009-12-06 06:00;CYWG 060600Z 01009KT 6SM -SN BR OVC005 M08/M09 A3023 REFZDZ RMK SF7 SLP256

CYWG;2009-12-06 06:09;CYWG 060609Z 01009KT 6SM -SN -FZDZ BR OVC005 M09/ RMK SF7

CYWG;2009-12-06 06:26;CYWG 060626Z 02008KT 5SM -SN -FZDZ BR OVC004 M09/ RMK ST8

CYWG;2009-12-06 07:00;CYWG 060700Z 02005KT 3SM -SN -FZDZ BR OVC004 M09/M09 A3024 RMK ST6 SLP260

CYWG;2009-12-06 07:29;CYWG 060729Z 02005KT 3SM -SN -FZDZ BR OVC003 M08/ RMK ST6

CYWG;2009-12-06 08:00;CYWG 060800Z 36003KT 4SM -SN -FZDZ BR OVC004 M08/M09 A3025 RMK ST6 SLP263

CYWG;2009-12-06 08:28;CYWG 060828Z 35003KT 4SM -SN BR OVC003 M08/ REFZDZ RMK ST7

CYWG;2009-12-06 08:45;CYWG 060845Z 00000KT 2 1/2SM -SN BR OVC003 M08/ REFZDZ RMK SN1ST7 FROIN

CYWG;2009-12-06 09:00;CYWG 060900Z 34008KT 2SM -SN BR OVC003 M08/M08 A3026 REFZDZ RMK SN1ST7 FROIN SLP267

CYWG;2009-12-06 09:16;CYWG 060916Z 33011KT 3SM -SN BR OVC006 M08/ RMK ST8 FROIN

CYWG;2009-12-06 09:38;CYWG 060938Z 33011KT 6SM -SN BR SCT006 OVC011 M08/ RMK SF3ST5

CYWG;2009-12-06 10:00;CYWG 061000Z 32010KT 10SM -SN FEW006 OVC013 M08/M09 A3027 RMK SF2SC5 SLP268

CYWG;2009-12-06 11:00;CYWG 061100Z 31009KT 12SM -SN OVC010 M09/M10 A3028 RMK SC8 SLP271

CYWG;2009-12-06 11:21;CYWG 061121Z 31009KT 15SM -SN OVC008 M09/ RMK SC6

CYWG;2009-12-06 12:00;CYWG 061200Z 30008KT 10SM -SN BKN011 M11/M12 A3029 RMK SC6 SLP277

CYWG;2009-12-06 12:34;CYWG 061234Z 28006KT 15SM -SN SCT009 BKN034 M12/ RMK SC3SC2

CYWG;2009-12-06 13:00;CYWG 061300Z 29006KT 15SM -SN SCT014 BKN034 M11/M11 A3029 RMK SC3SC2 SLP278

CYWG;2009-12-06 14:00;CYWG 061400Z 32008KT 15SM -SN FEW012 OVC041 M10/M11 A3029 RMK SC2SC6 SLP279

CYWG;2009-12-06 15:00;CYWG 061500Z 33007KT 15SM FEW012 OVC041 M09/M11 A3032 RMK SC1SC6 SLP285

CYWG;2009-12-06 16:00;CYWG 061600Z 30006KT 15SM -SN FEW018 OVC041 M09/M10 A3033 RMK SC2SC6 SLP291

CYWG;2009-12-06 17:00;CYWG 061700Z 30009KT 4SM -SN FEW010 OVC045 M08/M09 A3035 RMK SC2SC6 SLP295

CYWG;2009-12-06 18:00;CYWG 061800Z 32008KT 10SM -SN SCT012 OVC024 M08/M10 A3033 RMK SC2SC4 SLP290

CYWG;2009-12-06 19:00;CYWG 061900Z 32009KT 6SM -SN SCT010 OVC050 M08/M09 A3032 RMK SC2SC5 SLP287

CYWG;2009-12-06 20:00;CYWG 062000Z 32010KT 10SM BKN012 OVC047 M08/M09 A3031 RMK SC6SC2 SLP283

CYWG;2009-12-06 21:00;CYWG 062100Z 32012KT 15SM BKN014 BKN052 M08/M11 A3032 RMK SC6SC1 SLP286

CYWG;2009-12-06 22:00;CYWG 062200Z 31007KT 15SM FEW054 SCT074 BKN210 M10/M12 A3033 RMK SC2AC2CI0 SLP289

CYWG;2009-12-06 23:00;CYWG 062300Z 30007KT 15SM BKN054 OVC078 M11/M12 A3035 RMK SC6AC2 SLP294

CYWG;2009-12-06 23:44;CYWG 062344Z 31009KT 6SM -SN BKN031 OVC084 M12/ RMK SC6AC2

CYWG;2009-12-07 00:00;CYWG 070000Z 31010KT 6SM -SN BKN031 OVC084 M12/M13 A3035 RMK SC6AC2 SLP299

CYWG;2009-12-07 01:00;CYWG 070100Z 32011KT 4SM -SN OVC030 M12/M14 A3035 RMK SC8 SLP300

CYWG;2009-12-07 02:00;CYWG 070200Z 33009KT 15SM BKN052 M12/M15 A3036 RMK SC7 SLP303

CYWG;2009-12-07 03:00;CYWG 070300Z 33006KT 4SM -SN OVC027 M14/M16 A3035 RMK SC8 SLP299

CYWG;2009-12-07 03:09;CYWG 070309Z 32005KT 15SM OVC027 M15/ RMK SC8

CYWG;2009-12-07 04:00;CYWG 070400Z 30006KT 15SM FEW027 BKN080 M16/M17 A3035 RMK SC2AC0 SLP300

CYWG;2009-12-07 05:00;CYWG 070500Z 30003KT 15SM BKN027 OVC049 M15/M16 A3036 RMK SC5SC3 MOON DMLY VISBL SLP301

CYWG;2009-12-07 06:00;CYWG 070600Z 31007KT 15SM FEW030 BKN045 M15/M17 A3037 RMK SC2SC5 SLP305

CYWG;2009-12-07 07:00;CYWG 070700Z 31005KT 15SM SCT077 M17/M19 A3036 RMK AC2 SLP303

CYWG;2009-12-07 08:00;CYWG 070800Z 29006KT 15SM SKC M19/M20 A3036 RMK SLP303

CYWG;2009-12-07 09:00;CYWG 070900Z 27006KT 15SM SKC M19/M19 A3036 RMK SLP304

CYWG;2009-12-07 10:00;CYWG 071000Z 27007KT 15SM SKC M19/M20 A3035 RMK SLP302

CYWG;2009-12-07 11:00;CYWG 071100Z 27006KT 15SM FEW020 SCT050 M20/M21 A3035 RMK SC1SC1 SLP300

CYWG;2009-12-07 12:00;CYWG 071200Z 27006KT 15SM SCT017 BKN049 M20/M21 A3034 RMK SC3SC2 SLP299

CYWG;2009-12-07 13:00;CYWG 071300Z 27006KT 15SM SCT020 M20/M21 A3034 RMK SC2 SLP298

CYWG;2009-12-07 14:00;CYWG 071400Z 26007KT 15SM FEW020 SCT230 M20/M21 A3034 RMK SC1CI1 SLP297

CYWG;2009-12-07 15:00;CYWG 071500Z 27007KT 15SM FEW020 SCT230 M19/M20 A3034 RMK SC1CI1 SLP299

CYWG;2009-12-07 16:00;CYWG 071600Z 28007KT 15SM BKN230 M17/M18 A3035 RMK CI2 SLP303

CYWG;2009-12-07 17:00;CYWG 071700Z 30007KT 15SM BKN220 M15/M17 A3035 RMK CI2 SLP303

CYWG;2009-12-07 18:00;CYWG 071800Z 28007KT 15SM FEW014 BKN220 M15/M17 A3034 RMK SF1CI1 SLP299

CYWG;2009-12-07 19:00;CYWG 071900Z 28008KT 15SM FEW012 BKN220 M14/M16 A3033 RMK SF1CI1 SLP295

CYWG;2009-12-07 20:00;CYWG 072000Z 28008KT 15SM SCT016 SCT220 M14/M17 A3032 RMK SF3CI1 SLP291

CYWG;2009-12-07 21:00;CYWG 072100Z 26006KT 15SM FEW017 SCT220 M14/M17 A3032 RMK SF2CI2 SLP291

CYWG;2009-12-07 22:00;CYWG 072200Z 27005KT 15SM FEW017 BKN220 M16/M18 A3032 RMK SF2CI2 SLP292

CYWG;2009-12-07 23:00;CYWG 072300Z 26005KT 15SM FEW017 BKN220 M18/M19 A3032 RMK SF1CI2 SLP293

CYWG;2009-12-08 00:00;CYWG 080000Z 26005KT 15SM SCT016 BKN026 M18/M19 A3032 RMK SF3SC4 SLP293

CYWG;2009-12-08 01:00;CYWG 080100Z 26007KT 15SM OVC030 M18/M20 A3032 RMK SC8 SLP292

CYWG;2009-12-08 02:00;CYWG 080200Z 27006KT 6SM -SG BR OVC028 M19/M20 A3032 RMK SC8 SLP294

CYWG;2009-12-08 03:00;CYWG 080300Z 30006KT 6SM -SG BR OVC028 M18/M20 A3032 RMK SC8 SLP293

CYWG;2009-12-08 04:00;CYWG 080400Z 30005KT 10SM -SN OVC032 M19/M20 A3031 RMK SC8 SLP291

CYWG;2009-12-08 05:00;CYWG 080500Z 28006KT 10SM -SN OVC030 M19/M21 A3032 RMK SC8 SLP294

CYWG;2009-12-08 06:00;CYWG 080600Z 30004KT 10SM -SN OVC030 M20/M21 A3032 RMK SC8 SLP291

CYWG;2009-12-08 07:00;CYWG 080700Z 30003KT 10SM -SN OVC030 M22/M23 A3032 RMK SC8 SLP291

CYWG;2009-12-08 08:00;CYWG 080800Z 28003KT 12SM -SN OVC030 M21/M22 A3032 RMK SC6 SLP291

CYWG;2009-12-08 09:00;CYWG 080900Z 28004KT 12SM -SN BKN029 M22/M23 A3032 RMK SC5 SLP294

CYWG;2009-12-08 10:00;CYWG 081000Z 26004KT 15SM FEW030 M22/M23 A3032 RMK SC2 SLP293

CYWG;2009-12-08 11:00;CYWG 081100Z 28004KT 15SM FEW044 M24/M24 A3030 RMK SC2 SLP288

CYWG;2009-12-08 12:00;CYWG 081200Z 28004KT 15SM FEW040 M25/M25 A3031 RMK SC2 SLP291

CYWG;2009-12-08 13:00;CYWG 081300Z 26003KT 15SM FEW025 M25/M26 A3031 RMK SC1 SLP292

CYWG;2009-12-08 14:00;CYWG 081400Z 27005KT 15SM FEW020 M25/M26 A3031 RMK SC1 SLP292

CYWG;2009-12-08 15:00;CYWG 081500Z 00000KT 15SM FEW220 M25/M26 A3031 RMK CI1 SLP294

CYWG;2009-12-08 16:00;CYWG 081600Z 29003KT 15SM FEW220 M23/M24 A3032 RMK CI1 SLP295

CYWG;2009-12-08 17:00;CYWG 081700Z 32003KT 15SM FEW220 M21/M22 A3032 RMK CI1 SLP297

CYWG;2009-12-08 18:00;CYWG 081800Z 30003KT 15SM FEW220 M19/M21 A3030 RMK CI1 SLP288

CYWG;2009-12-08 19:00;CYWG 081900Z 29005KT 15SM BKN220 M19/M21 A3028 RMK CI1 SLP281

CYWG;2009-12-08 20:00;CYWG 082000Z 30007KT 15SM BKN220 M19/M21 A3027 RMK CI1 SLP277

CYWG;2009-12-08 21:00;CYWG 082100Z 32005KT 15SM BKN220 M19/M21 A3025 RMK CI2 SLP273

CYWG;2009-12-08 22:00;CYWG 082200Z 28005KT 15SM BKN220 M20/M21 A3026 RMK CI1 SLP275

CYWG;2009-12-08 23:00;CYWG 082300Z 28006KT 15SM SCT220 M23/M24 A3026 RMK CI1 SLP274

CYWG;2009-12-09 00:00;CYWG 090000Z 27006KT 15SM SCT220 M23/M24 A3025 RMK CI1 SLP273

CYWG;2009-12-09 01:00;CYWG 090100Z 30005KT 15SM FEW080 SCT220 M24/M25 A3022 RMK AC1CI1 SLP264

CYWG;2009-12-09 02:00;CYWG 090200Z 31005KT 15SM BKN220 M24/M25 A3020 RMK CI1 SLP259

CYWG;2009-12-09 03:00;CYWG 090300Z 31004KT 15SM FEW220 M25/M25 A3019 RMK CI1 SLP255

CYWG;2009-12-09 04:00;CYWG 090400Z 27002KT 15SM FEW220 M25/M26 A3018 RMK CI1 SLP252

CYWG;2009-12-09 05:00;CYWG 090500Z 25003KT 15SM SCT220 M25/M25 A3018 RMK CI1 SLP251

CYWG;2009-12-09 06:00;CYWG 090600Z 29005KT 15SM SCT220 M25/M26 A3016 RMK CI1 SLP241

CYWG;2009-12-09 07:00;CYWG 090700Z 30006KT 15SM SCT230 M26/M27 A3013 RMK CI1 SLP233

CYWG;2009-12-09 08:00;CYWG 090800Z 33006KT 15SM SCT230 M26/M26 A3010 RMK CI1 SLP224

CYWG;2009-12-09 09:00;CYWG 090900Z 32003KT 15SM SCT230 M26/M26 A3009 RMK CI1 SLP217

CYWG;2009-12-09 10:00;CYWG 091000Z 28005KT 15SM SCT230 M27/M27 A3006 RMK CI1 SLP210

CYWG;2009-12-09 11:00;CYWG 091100Z 28006KT 15SM SCT230 M27/M28 A3005 RMK CI1 SLP205

CYWG;2009-12-09 12:00;CYWG 091200Z 28005KT 15SM SCT230 M28/M28 A3003 RMK CI1 SLP199

CYWG;2009-12-09 13:00;CYWG 091300Z 29005KT 15SM SCT230 M28/M35 A3000 RMK CI1 SLP191

CYWG;2009-12-09 14:00;CYWG 091400Z 27003KT 15SM SCT230 M28/M34 A2999 RMK CI1 SLP189

CYWG;2009-12-09 15:00;CYWG 091500Z CCA 26004KT 10SM SCT230 M28/M33 A2999 RMK CI1 IC VIS LWR OVR CITY VC RWYS SLP190

CYWG;2009-12-09 16:00;CYWG 091600Z 29005KT 12SM FEW230 M27/M31 A2998 RMK CI1 IC VIS E 4 SLP186

CYWG;2009-12-09 17:00;CYWG 091700Z 29004KT 12SM FEW230 M24/M27 A2996 RMK CI1 IC VIS E 6 SLP179

CYWG;2009-12-09 18:00;CYWG 091800Z 30005KT 15SM BKN230 M21/M25 A2992 RMK CI2 SLP162

CYWG;2009-12-09 18:43;CYWG 091843Z 29005KT 15SM FEW002 BKN230 M20/ RMK SF1CI1 IC

CYWG;2009-12-09 19:00;CYWG 091900Z 31004KT 12SM FEW005 BKN230 M21/M24 A2988 RMK SF1CI1 IC SLP149

CYWG;2009-12-09 20:00;CYWG 092000Z 28004KT 15SM BKN230 M20/M23 A2987 RMK CI2 SLP143

CYWG;2009-12-09 21:00;CYWG 092100Z 29004KT 15SM OVC230 M21/M24 A2986 RMK CI2 SLP140

CYWG;2009-12-09 22:00;CYWG 092200Z 30005KT 15SM BKN230 M21/M25 A2986 RMK CI1 SLP140

CYWG;2009-12-09 23:00;CYWG 092300Z 27006KT 15SM BKN230 M24/M27 A2985 RMK CI1 SLP138

CYWG;2009-12-10 00:00;CYWG 100000Z 25005KT 15SM BKN230 M24/M27 A2984 RMK CI1 SLP136

CYWG;2009-12-10 01:00;CYWG 100100Z 25004KT 15SM BKN230 M25/M29 A2983 RMK CI1 SLP131

CYWG;2009-12-10 02:00;CYWG 100200Z 24002KT 15SM BKN230 M25/M29 A2981 RMK CI1 SLP127

CYWG;2009-12-10 03:00;CYWG 100300Z 22003KT 15SM FEW230 M25/M30 A2980 RMK CI0 SLP122

CYWG;2009-12-10 04:00;CYWG 100400Z 23004KT 15SM FEW230 M26/M30 A2977 RMK CI0 SLP115

CYWG;2009-12-10 05:00;CYWG 100500Z 21003KT 15SM FEW230 M26/M30 A2978 RMK CI0 SLP116

CYWG;2009-12-10 06:00;CYWG 100600Z 19004KT 15SM FEW077 M26/M31 A2976 RMK AC2 SLP108

CYWG;2009-12-10 07:00;CYWG 100700Z 17003KT 15SM FEW093 M27/M31 A2975 RMK AC2 SLP104

CYWG;2009-12-10 08:00;CYWG 100800Z 16005KT 15SM FEW090 M27/M31 A2975 RMK AC2 SLP103

CYWG;2009-12-10 09:00;CYWG 100900Z 17005KT 15SM FEW090 M27/M31 A2974 RMK AC2 SLP101

CYWG;2009-12-10 10:00;CYWG 101000Z 19004KT 15SM FEW090 M26/M30 A2973 RMK AC2 SLP096

CYWG;2009-12-10 11:00;CYWG 101100Z 22004KT 15SM FEW088 M25/M29 A2972 RMK AC1 SLP093

CYWG;2009-12-10 12:00;CYWG 101200Z 21005KT 15SM BKN050 M24/M28 A2971 RMK SC4 SLP091

CYWG;2009-12-10 13:00;CYWG 101300Z 21005KT 15SM BKN045 M25/M29 A2971 RMK SC2 SLP091

CYWG;2009-12-10 14:00;CYWG 101400Z 22004KT 15SM FEW049 BKN200 M25/M29 A2971 RMK SC2CI1 SLP090

CYWG;2009-12-10 15:00;CYWG 101500Z 20003KT 15SM FEW057 OVC200 M24/M28 A2971 RMK SC2CI2 SLP092

CYWG;2009-12-10 16:00;CYWG 101600Z 27007KT 15SM FEW044 BKN074 OVC200 M23/M27 A2972 RMK SC1AS4CI0 SLP095

CYWG;2009-12-10 17:00;CYWG 101700Z 26007KT 10SM FEW045 OVC200 M21/M25 A2973 RMK SC2CS2 SLP096

CYWG;2009-12-10 18:00;CYWG 101800Z 28005KT 10SM OVC200 M20/M24 A2971 RMK CS2 SLP091

CYWG;2009-12-10 19:00;CYWG 101900Z 30009KT 10SM OVC200 M19/M22 A2971 RMK CS2 SLP089

CYWG;2009-12-10 20:00;CYWG 102000Z 27010KT 12SM FEW011 OVC200 M18/M22 A2971 RMK SF1CS3 SLP090

CYWG;2009-12-10 21:00;CYWG 102100Z 27009KT 12SM FEW009 BKN200 M19/M23 A2974 RMK SF1CS4 SLP098

CYWG;2009-12-10 22:00;CYWG 102200Z 27012KT 12SM BKN200 M20/M24 A2976 RMK CI4 SLP104

CYWG;2009-12-10 23:00;CYWG 102300Z 27008KT 15SM FEW065 BKN200 M21/M25 A2978 RMK SC1CI2 SLP112

CYWG;2009-12-11 00:00;CYWG 110000Z 26007KT 15SM FEW012 BKN200 M22/M26 A2979 RMK SF2CI2 SLP116

CYWG;2009-12-11 01:00;CYWG 110100Z 25005KT 15SM BKN200 M23/M27 A2980 RMK CI3 SLP118

CYWG;2009-12-11 02:00;CYWG 110200Z 25009KT 15SM BKN200 M23/M27 A2980 RMK CI2 SLP118

CYWG;2009-12-11 03:00;CYWG 110300Z 26007KT 15SM SCT200 M24/M28 A2980 RMK CI1 SLP122

CYWG;2009-12-11 04:00;CYWG 110400Z 25005KT 15SM FEW200 M24/M28 A2981 RMK CI1 SLP123

CYWG;2009-12-11 05:00;CYWG 110500Z 25005KT 15SM FEW200 M24/M28 A2982 RMK CI1 SLP127

CYWG;2009-12-11 06:00;CYWG 110600Z 21006KT 15SM SKC M24/M28 A2983 RMK SLP129

CYWG;2009-12-11 07:00;CYWG 110700Z 25007KT 15SM SKC M24/M28 A2983 RMK SLP131

CYWG;2009-12-11 08:00;CYWG 110800Z 25009KT 15SM SKC M24/M28 A2984 RMK SLP133

CYWG;2009-12-11 09:00;CYWG 110900Z 25008KT 15SM SKC M24/M28 A2985 RMK SLP137

CYWG;2009-12-11 10:00;CYWG 111000Z 26007KT 15SM SKC M25/M29 A2985 RMK SLP136

CYWG;2009-12-11 11:00;CYWG 111100Z 26007KT 15SM SKC M24/M29 A2985 RMK SLP137

CYWG;2009-12-11 12:00;CYWG 111200Z 25007KT 15SM SKC M25/M29 A2987 RMK SLP142

CYWG;2009-12-11 13:00;CYWG 111300Z 23006KT 15SM FEW080 M25/M29 A2988 RMK AC1 SLP146

CYWG;2009-12-11 14:00;CYWG 111400Z 20005KT 15SM FEW250 M26/M30 A2987 RMK CI1 SLP145

CYWG;2009-12-11 15:00;CYWG 111500Z 19005KT 15SM SCT250 M24/M28 A2988 RMK CI2 SLP149

CYWG;2009-12-11 16:00;CYWG 111600Z 20006KT 15SM SCT250 M23/M27 A2990 RMK CI2 SLP155

CYWG;2009-12-11 17:00;CYWG 111700Z 22006KT 15SM FEW250 M21/M25 A2990 RMK CI2 SLP154

CYWG;2009-12-11 18:00;CYWG 111800Z 20009KT 15SM SCT250 M21/M26 A2990 RMK CI2 SLP152

CYWG;2009-12-11 19:00;CYWG 111900Z 18007KT 15SM SCT050 BKN250 M19/M24 A2987 RMK SC3CI2 SLP143

CYWG;2009-12-11 20:00;CYWG 112000Z 19009KT 15SM SCT085 BKN250 M19/M24 A2986 RMK AC3CI3 SLP141

CYWG;2009-12-11 21:00;CYWG 112100Z 18009KT 15SM SCT090 BKN250 M18/M22 A2986 RMK AC3CI3 SLP138

CYWG;2009-12-11 22:00;CYWG 112200Z 17009KT 15SM FEW025 BKN090 BKN250 M18/M22 A2986 RMK SC1AC5CI2 SLP139

CYWG;2009-12-11 23:00;CYWG 112300Z 18009KT 15SM OVC091 M18/M21 A2985 RMK AC8 SLP136

CYWG;2009-12-12 00:00;CYWG 120000Z 18009KT 15SM BKN084 OVC250 M17/M20 A2984 RMK AC6CI1 SLP132

CYWG;2009-12-12 00:28;CYWG 120028Z 18007KT 10SM -SN OVC080 M17/ RMK AC8

CYWG;2009-12-12 01:00;CYWG 120100Z 18009KT 12SM -SN OVC076 M16/M19 A2984 RMK AC8 SLP131

CYWG;2009-12-12 02:00;CYWG 120200Z 19008KT 15SM -SN SCT042 OVC076 M16/M18 A2984 RMK SC3AC5 SLP132

CYWG;2009-12-12 03:00;CYWG 120300Z 21008KT 15SM SCT047 BKN080 OVC250 M15/M18 A2983 RMK SC3AC3CI1 SLP129

CYWG;2009-12-12 04:00;CYWG 120400Z 27004KT 15SM OVC040 M15/M18 A2984 RMK SC8 SLP131

CYWG;2009-12-12 05:00;CYWG 120500Z 29006KT 15SM BKN044 M16/M19 A2986 RMK SC6 SLP138

CYWG;2009-12-12 06:00;CYWG 120600Z 28005KT 15SM SCT042 M18/M21 A2988 RMK SC2 SLP143

CYWG;2009-12-12 07:00;CYWG 120700Z 29006KT 15SM FEW093 M20/M23 A2990 RMK AC2 SLP150

CYWG;2009-12-12 08:00;CYWG 120800Z 33004KT 15SM FEW091 M22/M25 A2991 RMK AC2 SLP154

CYWG;2009-12-12 09:00;CYWG 120900Z 35005KT 15SM SCT093 M20/M23 A2993 RMK AC2 SLP161

CYWG;2009-12-12 10:00;CYWG 121000Z 01009KT 15SM FEW078 M19/M22 A2996 RMK AC1 SLP171

CYWG;2009-12-12 11:00;CYWG 121100Z 02009KT 15SM FEW071 M21/M24 A2998 RMK AC2 SLP178

CYWG;2009-12-12 12:00;CYWG 121200Z 02013KT 15SM OVC036 M21/M26 A2997 RMK SC8 SLP175

CYWG;2009-12-12 12:45;CYWG 121245Z 02011KT 6SM -SN OVC025 M22/ RMK SC8

CYWG;2009-12-12 13:00;CYWG 121300Z 02011KT 3SM -SN BKN019 OVC094 M22/M27 A3000 RMK SC6AC2 SLP184

CYWG;2009-12-12 14:00;CYWG 121400Z 02010KT 3SM -SN BKN013 OVC095 M22/M27 A3000 RMK SC6AC2 SLP184

CYWG;2009-12-12 14:43;CYWG 121443Z 03009KT 15SM OVC013 M22/ RMK SC8

CYWG;2009-12-12 15:00;CYWG 121500Z 01009KT 15SM BKN013 OVC092 M22/M28 A3001 RMK SC6AC2 SLP187

CYWG;2009-12-12 15:20;CYWG 121520Z 02007KT 15SM BKN018 OVC092 M22/ RMK SC5AC2

CYWG;2009-12-12 16:00;CYWG 121600Z 01007KT 15SM SCT026 SCT099 BKN250 M22/M28 A3002 RMK SC3AC1CI1 SLP192

CYWG;2009-12-12 17:00;CYWG 121700Z 01008KT 15SM FEW020 SCT095 BKN250 M22/M27 A3004 RMK SC2AC2CI2 SLP198

CYWG;2009-12-12 18:00;CYWG 121800Z 01008KT 15SM FEW016 SCT095 BKN250 M22/M27 A3003 RMK SC1AC2CI2 SLP194

CYWG;2009-12-12 18:48;CYWG 121848Z 34009KT 3SM -SN SCT015 BKN078 OVC250 M22/ RMK SC3AC2CI1

CYWG;2009-12-12 19:00;CYWG 121900Z 35012KT 3SM -SN SCT010 BKN078 OVC250 M22/M27 A3000 RMK SC4AC2CI2 SLP187

CYWG;2009-12-12 20:00;CYWG 122000Z 34010KT 6SM -SN SCT022 BKN076 OVC250 M21/M28 A3000 RMK SC3AC2CI2 SLP187

CYWG;2009-12-12 21:00;CYWG 122100Z 34011KT 10SM -SN BKN021 BKN088 M22/M28 A2999 RMK SC5AC2 SLP185

CYWG;2009-12-12 21:46;CYWG 122146Z 33013KT 2 1/2SM -SN BKN033 OVC088 M22/ RMK SC6AC2

CYWG;2009-12-12 22:00;CYWG 122200Z 34012KT 2 1/2SM -SN OVC033 M22/M27 A3000 RMK SC8 SLP186

CYWG;2009-12-12 22:26;CYWG 122226Z 34011KT 8SM -SN BKN017 M22/ RMK SC7

CYWG;2009-12-12 23:00;CYWG 122300Z 34007KT 15SM -SN FEW013 SCT094 BKN250 M23/M28 A3002 RMK SC2AC2CI2 SLP192

CYWG;2009-12-13 00:00;CYWG 130000Z 32006KT 15SM FEW079 BKN250 M25/M30 A3002 RMK AC2CI2 SLP196

CYWG;2009-12-13 01:00;CYWG 130100Z 30005KT 15SM SCT250 M27/M31 A3003 RMK CI2 SLP198

CYWG;2009-12-13 02:00;CYWG 130200Z 28005KT 15SM SCT250 M27/M32 A3004 RMK CI2 SLP201

CYWG;2009-12-13 03:00;CYWG 130300Z 28006KT 15SM SCT250 M28/M32 A3003 RMK CI2 SLP202

CYWG;2009-12-13 04:00;CYWG 130400Z 27007KT 15SM FEW230 M27/M32 A3004 RMK CI1 SLP204

CYWG;2009-12-13 05:00;CYWG 130500Z 29009KT 15SM FEW230 M27/M33 A3006 RMK CI1 SLP209

CYWG;2009-12-13 06:00;CYWG 130600Z 29014KT 15SM FEW230 M26/M33 A3006 RMK CI1 SLP210

CYWG;2009-12-13 07:00;CYWG 130700Z 29013KT 15SM FEW230 M27/M34 A3007 RMK CI1 SLP214

CYWG;2009-12-13 08:00;CYWG 130800Z 29013KT 15SM FEW230 M27/M34 A3007 RMK CI1 SLP214

CYWG;2009-12-13 09:00;CYWG 130900Z 28010KT 15SM FEW230 M28/M34 A3008 RMK CI1 SLP218

CYWG;2009-12-13 10:00;CYWG 131000Z 26007KT 15SM FEW230 M29/M35 A3009 RMK CI1 SLP219

CYWG;2009-12-13 11:00;CYWG 131100Z 27007KT 15SM SKC M29/M35 A3008 RMK SLP216

CYWG;2009-12-13 12:00;CYWG 131200Z 26005KT 15SM SKC M29/M35 A3008 RMK SLP220

CYWG;2009-12-13 13:00;CYWG 131300Z 25006KT 15SM SKC M29/M34 A3007 RMK SLP216

CYWG;2009-12-13 14:00;CYWG 131400Z 25010KT 15SM FEW270 M28/M34 A3009 RMK CI0 SLP221

CYWG;2009-12-13 15:00;CYWG 131500Z 26010KT 15SM FEW270 M28/M34 A3009 RMK CI0 SLP222

CYWG;2009-12-13 16:00;CYWG 131600Z 26009KT 15SM FEW270 M26/M33 A3010 RMK CI0 SLP226

CYWG;2009-12-13 17:00;CYWG 131700Z 26012KT 15SM SCT270 M26/M32 A3012 RMK CI0 SLP232

CYWG;2009-12-13 18:00;CYWG 131800Z 27010KT 15SM FEW270 M25/M31 A3009 RMK CI0 SLP221

CYWG;2009-12-13 19:00;CYWG 131900Z 26008KT 15SM FEW270 M24/M31 A3008 RMK CI0 SLP217

CYWG;2009-12-13 20:00;CYWG 132000Z 26007KT 15SM FEW270 M23/M30 A3008 RMK CI1 SLP217

CYWG;2009-12-13 21:00;CYWG 132100Z 22007KT 15SM FEW270 M23/M30 A3009 RMK CI1 SLP220

CYWG;2009-12-13 22:00;CYWG 132200Z 21007KT 15SM SCT270 M24/M30 A3008 RMK CI1 SLP218

CYWG;2009-12-13 23:00;CYWG 132300Z 23009KT 15SM FEW270 M25/M30 A3007 RMK CI1 SLP214

CYWG;2009-12-14 00:00;CYWG 140000Z 23006KT 15SM FEW270 M25/M30 A3006 RMK CI1 SLP210

CYWG;2009-12-14 01:00;CYWG 140100Z 25008KT 15SM FEW270 M25/M31 A3004 RMK CI1 SLP206

CYWG;2009-12-14 02:00;CYWG 140200Z 25007KT 15SM FEW270 M26/M31 A3004 RMK CI1 SLP206

CYWG;2009-12-14 03:00;CYWG 140300Z 25006KT 15SM SKC M26/M32 A3005 RMK SLP208

CYWG;2009-12-14 04:00;CYWG 140400Z 23006KT 15SM SKC M26/M31 A3006 RMK SLP212

CYWG;2009-12-14 05:00;CYWG 140500Z 26005KT 15SM SKC M26/M32 A3007 RMK SLP215

CYWG;2009-12-14 06:00;CYWG 140600Z 25007KT 15SM SKC M26/M31 A3008 RMK SLP216

CYWG;2009-12-14 07:00;CYWG 140700Z 24005KT 15SM SKC M27/M32 A3008 RMK SLP217

CYWG;2009-12-14 08:00;CYWG 140800Z 28007KT 15SM SKC M28/M32 A3009 RMK SLP220

CYWG;2009-12-14 09:00;CYWG 140900Z 23005KT 15SM SKC M27/M32 A3011 RMK SLP226

CYWG;2009-12-14 10:00;CYWG 141000Z 27006KT 15SM SKC M27/M32 A3011 RMK SLP228

CYWG;2009-12-14 11:00;CYWG 141100Z 30007KT 15SM SKC M27/M32 A3011 RMK SLP226

CYWG;2009-12-14 12:00;CYWG 141200Z 27006KT 15SM BKN220 M26/M31 A3013 RMK CI4 SLP236

CYWG;2009-12-14 13:00;CYWG 141300Z 27008KT 15SM BKN220 M26/M31 A3013 RMK CI4 SLP236

CYWG;2009-12-14 14:00;CYWG 141400Z 29007KT 15SM BKN083 BKN220 M25/M30 A3013 RMK AC5CI2 SLP235

CYWG;2009-12-14 15:00;CYWG 141500Z 29008KT 15SM SCT068 BKN076 M24/M30 A3015 RMK AC3AC4 SLP240

CYWG;2009-12-14 16:00;CYWG 141600Z 27007KT 15SM BKN078 M23/M29 A3017 RMK AC7 SLP248

CYWG;2009-12-14 17:00;CYWG 141700Z 25007KT 15SM SCT038 OVC065 M22/M28 A3017 RMK SC3AC5 SLP249

CYWG;2009-12-14 18:00;CYWG 141800Z 25007KT 15SM SCT050 OVC061 M21/M27 A3016 RMK SC3AC5 SLP243

CYWG;2009-12-14 19:00;CYWG 141900Z 27007KT 15SM SCT044 OVC067 M20/M27 A3016 RMK SC3AC5 SLP244

CYWG;2009-12-14 20:00;CYWG 142000Z 25009KT 15SM FEW028 OVC120 M20/M26 A3017 RMK SC2AS6 SLP246

CYWG;2009-12-14 21:00;CYWG 142100Z 27010KT 15SM FEW051 BKN120 OVC250 M19/M26 A3016 RMK SC2AC4CI1 SLP243

CYWG;2009-12-14 22:00;CYWG 142200Z 27011KT 15SM FEW058 FEW120 BKN250 M19/M26 A3015 RMK SC1AC2CI3 SLP239

CYWG;2009-12-14 23:00;CYWG 142300Z 23007KT 15SM FEW093 BKN250 M20/M25 A3015 RMK AC1CI2 SLP240

CYWG;2009-12-15 00:00;CYWG 150000Z 23009KT 15SM SCT250 M21/M26 A3016 RMK CI2 SLP242

CYWG;2009-12-15 01:00;CYWG 150100Z 25012KT 15SM FEW074 SCT250 M22/M27 A3016 RMK AC1CI1 SLP245

CYWG;2009-12-15 02:00;CYWG 150200Z 27012KT 15SM FEW250 M23/M28 A3016 RMK CI1 SLP245

CYWG;2009-12-15 03:00;CYWG 150300Z 28013G18KT 15SM FEW250 M23/M28 A3017 RMK CI1 SLP246

CYWG;2009-12-15 04:00;CYWG 150400Z 29013KT 15SM FEW250 M23/M28 A3018 RMK CI1 SLP251

CYWG;2009-12-15 05:00;CYWG 150500Z 28012KT 15SM FEW250 M24/M29 A3019 RMK CI1 SLP255

CYWG;2009-12-15 06:00;CYWG 150600Z 28013KT 15SM FEW250 M25/M30 A3022 RMK CI1 SLP262

CYWG;2009-12-15 07:00;CYWG 150700Z 27007KT 15SM SKC M26/M31 A3022 RMK SLP265

CYWG;2009-12-15 08:00;CYWG 150800Z 26008KT 15SM SKC M26/M31 A3023 RMK SLP267

CYWG;2009-12-15 09:00;CYWG 150900Z 27009KT 15SM SKC M26/M31 A3026 RMK SLP276

CYWG;2009-12-15 10:00;CYWG 151000Z 27007KT 15SM SKC M27/M31 A3026 RMK SLP278

CYWG;2009-12-15 11:00;CYWG 151100Z 28009KT 15SM SKC M26/M31 A3027 RMK SLP280

CYWG;2009-12-15 12:00;CYWG 151200Z 29009KT 15SM FEW093 M26/M31 A3028 RMK AC1 SLP284

CYWG;2009-12-15 13:00;CYWG 151300Z 28008KT 15SM FEW075 M27/M32 A3029 RMK AC1 SLP287

CYWG;2009-12-15 14:00;CYWG 151400Z 26007KT 15SM FEW075 M27/M32 A3029 RMK AC1 SLP289

CYWG;2009-12-15 15:00;CYWG 151500Z 27008KT 15SM FEW090 M27/M32 A3032 RMK AC1 SLP298

CYWG;2009-12-15 16:00;CYWG 151600Z 27009KT 15SM FEW090 M25/M31 A3034 RMK AC1 SLP305

CYWG;2009-12-15 17:00;CYWG 151700Z 25008KT 15SM FEW240 M24/M30 A3034 RMK CI1 SLP306

CYWG;2009-12-15 18:00;CYWG 151800Z 23007KT 15SM FEW240 M22/M29 A3034 RMK CI1 SLP304

CYWG;2009-12-15 19:00;CYWG 151900Z 24007KT 15SM FEW240 M21/M29 A3033 RMK CI1 SLP302

CYWG;2009-12-15 20:00;CYWG 152000Z 21007KT 15SM FEW240 M21/M29 A3034 RMK CI1 SLP303

CYWG;2009-12-15 21:00;CYWG 152100Z 20008KT 15SM FEW240 M22/M29 A3034 RMK CI1 SLP306

CYWG;2009-12-15 22:00;CYWG 152200Z 20008KT 15SM BKN240 M23/M29 A3035 RMK CI2 SLP308

CYWG;2009-12-15 23:00;CYWG 152300Z 20007KT 15SM BKN240 M23/M30 A3035 RMK CI2 SLP310

CYWG;2009-12-16 00:00;CYWG 160000Z 21006KT 15SM OVC240 M23/M29 A3034 RMK CI3 SLP305

CYWG;2009-12-16 01:00;CYWG 160100Z 21006KT 15SM BKN240 M23/M28 A3035 RMK CI3 SLP307

CYWG;2009-12-16 02:00;CYWG 160200Z 18009KT 15SM BKN085 OVC240 M22/M28 A3032 RMK AC5CI2 SLP297

CYWG;2009-12-16 03:00;CYWG 160300Z 20011KT 15SM OVC240 M22/M28 A3033 RMK CI7 SLP303

CYWG;2009-12-16 04:00;CYWG 160400Z 16007KT 15SM OVC240 M23/M28 A3032 RMK CI6 SLP300

CYWG;2009-12-16 05:00;CYWG 160500Z 17008KT 15SM BKN240 M23/M27 A3031 RMK CI3 SLP296

CYWG;2009-12-16 06:00;CYWG 160600Z 16006KT 15SM BKN240 M23/M27 A3031 RMK CI2 SLP294

CYWG;2009-12-16 07:00;CYWG 160700Z 17007KT 15SM SCT066 BKN240 M22/M26 A3031 RMK AC2CI2 SLP292

CYWG;2009-12-16 08:00;CYWG 160800Z 15005KT 15SM SCT066 BKN240 M22/M26 A3030 RMK AC3CI1 SLP290

CYWG;2009-12-16 09:00;CYWG 160900Z 14006KT 15SM BKN056 OVC240 M21/M24 A3030 RMK SC5CI1 SLP290

CYWG;2009-12-16 10:00;CYWG 161000Z 15006KT 15SM BKN055 OVC240 M20/M24 A3030 RMK SC6CI1 SLP290

CYWG;2009-12-16 11:00;CYWG 161100Z 11006KT 15SM BKN050 OVC240 M19/M24 A3030 RMK SC6CI1 SLP288

CYWG;2009-12-16 11:27;CYWG 161127Z 16006KT 12SM -SN BKN050 OVC240 M19/ RMK SC6CI2

CYWG;2009-12-16 12:00;CYWG 161200Z 15007KT 13SM -SN BKN045 OVC240 M19/M23 A3030 RMK SC6CI2 SLP290

CYWG;2009-12-16 13:00;CYWG 161300Z 15007KT 15SM -SN BKN045 OVC240 M18/M23 A3030 RMK SC6CI2 SLP290

CYWG;2009-12-16 13:13;CYWG 161313Z 14006KT 15SM BKN045 OVC240 M18/ RMK SC6CI2

CYWG;2009-12-16 14:00;CYWG 161400Z 15006KT 15SM BKN055 M18/M22 A3031 RMK SC5 SLP292

CYWG;2009-12-16 15:00;CYWG 161500Z 15007KT 15SM FEW060 FEW100 M18/M22 A3032 RMK SC1AC1 SLP295

CYWG;2009-12-16 16:00;CYWG 161600Z 15009KT 15SM FEW100 BKN260 M17/M21 A3032 RMK AC1CI0 SLP297

CYWG;2009-12-16 17:00;CYWG 161700Z 17008KT 15SM OVC260 M16/M20 A3032 RMK CI2 SLP296

CYWG;2009-12-16 18:00;CYWG 161800Z 17010KT 15SM OVC260 M15/M20 A3030 RMK CI2 SLP288

CYWG;2009-12-16 19:00;CYWG 161900Z 18009KT 15SM OVC220 M15/M21 A3029 RMK CI2 SLP282

CYWG;2009-12-16 20:00;CYWG 162000Z 17011G16KT 15SM BKN220 M14/M20 A3028 RMK CI2 SLP279

CYWG;2009-12-16 21:00;CYWG 162100Z 18008KT 15SM BKN220 M15/M20 A3025 RMK CI2 SLP271

CYWG;2009-12-16 22:00;CYWG 162200Z 16008KT 15SM SCT160 BKN220 M15/M20 A3025 RMK AC2CI1 SLP270

CYWG;2009-12-16 23:00;CYWG 162300Z 17006KT 15SM BKN120 BKN220 M15/M20 A3025 RMK AC6CI0 SLP269

CYWG;2009-12-17 00:00;CYWG 170000Z 17008KT 15SM BKN120 M14/M19 A3023 RMK AC7 SLP263

CYWG;2009-12-17 01:00;CYWG 170100Z 15009KT 15SM OVC120 M14/M19 A3021 RMK AC8 SLP256

CYWG;2009-12-17 02:00;CYWG 170200Z 15009KT 15SM OVC120 M13/M18 A3018 RMK AC8 SLP245

CYWG;2009-12-17 03:00;CYWG 170300Z 16013KT 15SM SCT073 OVC100 M12/M17 A3016 RMK AC3AC5 SLP238

CYWG;2009-12-17 04:00;CYWG 170400Z 17013G18KT 15SM OVC073 M12/M16 A3013 RMK AC8 SLP227

CYWG;2009-12-17 05:00;CYWG 170500Z 17015G22KT 15SM OVC076 M12/M16 A3011 RMK AC8 SLP221

CYWG;2009-12-17 06:00;CYWG 170600Z 17018G24KT 15SM OVC076 M12/M15 A3009 RMK AC8 SLP211

CYWG;2009-12-17 07:00;CYWG 170700Z 18012G19KT 15SM -SN BKN072 M11/M14 A3009 RMK AC5 SLP211

CYWG;2009-12-17 08:00;CYWG 170800Z 18017KT 15SM BKN069 M11/M14 A3006 RMK AC5 SLP203

CYWG;2009-12-17 08:44;CYWG 170844Z 17014KT 8SM -SN BKN048 OVC094 M11/ RMK SC6AC2

CYWG;2009-12-17 09:00;CYWG 170900Z 17017G22KT 12SM -SN SCT048 BKN090 M11/M14 A3005 RMK SC3AC2 SLP197

CYWG;2009-12-17 09:20;CYWG 170920Z 17014KT 10SM FEW048 SCT090 RMK SC2AC1

CYWG;2009-12-17 10:00;CYWG 171000Z 18011KT 10SM FEW048 M11/M13 A3006 RMK SC2 SLP199

CYWG;2009-12-17 11:00;CYWG 171100Z 17009KT 10SM SKC M12/M13 A3003 RMK SLP191

CYWG;2009-12-17 12:00;CYWG 171200Z 17011KT 15SM SKC M12/M13 A3002 RMK SLP188

CYWG;2009-12-17 13:00;CYWG 171300Z 17009KT 10SM SKC M12/M13 A3002 RMK SLP188

CYWG;2009-12-17 14:00;CYWG 171400Z 18008KT 6SM BR SKC M13/M14 A3003 RMK SLP190

CYWG;2009-12-17 15:00;CYWG 171500Z CCA 17009KT 8SM SKC M12/M13 A3004 RMK BR FROIN SLP193

CYWG;2009-12-17 16:00;CYWG 171600Z 18009KT 10SM SKC M11/M12 A3004 RMK BR SLP195

CYWG;2009-12-17 17:00;CYWG 171700Z 18007KT 10SM SKC M10/M12 A3005 RMK BR SLP198

CYWG;2009-12-17 18:00;CYWG 171800Z 19003KT 10SM SKC M09/M12 A3005 RMK BR SLP196

CYWG;2009-12-17 19:00;CYWG 171900Z 16004KT 10SM SKC M08/M11 A3005 RMK BR SLP194

CYWG;2009-12-17 20:00;CYWG 172000Z 13003KT 12SM SKC M08/M11 A3004 RMK SLP193

CYWG;2009-12-17 21:00;CYWG 172100Z 18003KT 12SM SKC M07/M11 A3005 RMK SLP196

CYWG;2009-12-17 22:00;CYWG 172200Z 18004KT 10SM SKC M09/M12 A3007 RMK SLP202

CYWG;2009-12-17 23:00;CYWG 172300Z 23003KT 10SM FEW230 M10/M12 A3010 RMK CI1 SLP211

CYWG;2009-12-18 00:00;CYWG 180000Z 00000KT 12SM SKC M14/M14 A3012 RMK SLP220

CYWG;2009-12-18 01:00;CYWG 180100Z 32002KT 10SM SKC M15/M15 A3013 RMK SLP224

CYWG;2009-12-18 02:00;CYWG 180200Z 03002KT 10SM SKC M16/M16 A3012 RMK SLP222

CYWG;2009-12-18 03:00;CYWG 180300Z 03003KT 8SM SKC M16/M16 A3012 RMK SLP222

CYWG;2009-12-18 04:00;CYWG 180400Z 05003KT 8SM SKC M16/M16 A3012 RMK BR SLP221

CYWG;2009-12-18 05:00;CYWG 180500Z 01006KT 8SM SKC M15/M16 A3014 RMK BR SLP228

CYWG;2009-12-18 06:00;CYWG 180600Z 02004KT 8SM SKC M16/M17 A3014 RMK BR SLP229

CYWG;2009-12-18 07:00;CYWG 180700Z 04004KT 8SM SKC M16/M16 A3015 RMK BR SLP231

CYWG;2009-12-18 08:00;CYWG 180800Z 03005KT 10SM SKC M16/M16 A3017 RMK BR SLP237

CYWG;2009-12-18 09:00;CYWG 180900Z 04005KT 8SM BKN020 M14/M15 A3018 RMK SC4 BR SLP239

CYWG;2009-12-18 10:00;CYWG 181000Z 05003KT 10SM SCT020 M13/M14 A3019 RMK SC2 BR SLP242

CYWG;2009-12-18 11:00;CYWG 181100Z 02004KT 10SM FEW020 SCT240 M15/M15 A3020 RMK SC2CI1 BR SLP246

CYWG;2009-12-18 12:00;CYWG 181200Z 03003KT 10SM SCT012 OVC017 M12/M13 A3020 RMK ST3SC5 BR SLP249

CYWG;2009-12-18 12:06;CYWG 181206Z 02003KT 10SM OVC010 M12/ RMK ST8 BR

CYWG;2009-12-18 12:35;CYWG 181235Z 01004KT 10SM OVC008 M11/ RMK ST8 BR

CYWG;2009-12-18 13:00;CYWG 181300Z 01004KT 10SM OVC007 M11/M12 A3022 RMK ST8 BR SLP254

CYWG;2009-12-18 13:36;CYWG 181336Z 02003KT 10SM OVC004 M11/ RMK ST8 BR

CYWG;2009-12-18 14:00;CYWG 181400Z 36002KT 6SM BR OVC004 M11/M11 A3022 RMK ST8 SLP254

CYWG;2009-12-18 15:00;CYWG 181500Z 01003KT 3SM BR OVC003 M10/M10 A3022 RMK ST8 SLP257

CYWG;2009-12-18 15:35;CYWG 181535Z 36004KT 4SM BR OVC004 M09/ RMK ST8

CYWG;2009-12-18 16:00;CYWG 181600Z 01004KT 3SM BR OVC004 M09/M09 A3024 RMK ST8 VIS N 1 SLP261

CYWG;2009-12-18 16:12;CYWG 181612Z 36006KT 2 1/2SM -SN BR OVC004 M09/ RMK ST8

CYWG;2009-12-18 17:00;CYWG 181700Z 36007KT 3SM -SN BR OVC005 M08/M09 A3024 RMK ST8 SLP263

CYWG;2009-12-18 18:00;CYWG 181800Z 01006KT 6SM -SN BR OVC006 M08/M09 A3024 RMK ST8 SLP263

CYWG;2009-12-18 19:00;CYWG 181900Z 34005KT 10SM -SN OVC009 M08/M08 A3023 RMK SC8 SLP259

CYWG;2009-12-18 20:00;CYWG 182000Z 34005KT 10SM OVC012 M08/M10 A3022 RMK SF8 VIS LWR E SLP257

CYWG;2009-12-18 21:00;CYWG 182100Z 35005KT 10SM OVC012 M08/M10 A3023 RMK SF8 VIS LWR W SLP259

CYWG;2009-12-18 22:00;CYWG 182200Z 01005KT 10SM OVC012 M08/M10 A3025 RMK SF8 SLP264

CYWG;2009-12-18 23:00;CYWG 182300Z 03006KT 15SM OVC012 M08/M10 A3025 RMK SC8 SLP263

CYWG;2009-12-19 00:00;CYWG 190000Z 05004KT 15SM FEW008 OVC012 M09/M10 A3024 RMK SF1SC7 SLP259

CYWG;2009-12-19 01:00;CYWG 190100Z 06003KT 15SM OVC014 M09/M10 A3024 RMK SC8 SLP261

CYWG;2009-12-19 02:00;CYWG 190200Z 02005KT 15SM OVC014 M09/M11 A3025 RMK SC8 SLP263

CYWG;2009-12-19 03:00;CYWG 190300Z 03005KT 15SM OVC010 M09/M11 A3025 RMK SF8 SLP262

CYWG;2009-12-19 04:00;CYWG 190400Z 02003KT 15SM BKN012 OVC063 M10/M11 A3024 RMK SC6SC2 SLP260

CYWG;2009-12-19 05:00;CYWG 190500Z 01007KT 15SM BKN012 OVC063 M10/M11 A3024 RMK SC6SC2 SLP259

CYWG;2009-12-19 06:00;CYWG 190600Z 01005KT 15SM BKN012 OVC063 M10/M12 A3023 RMK SC6SC2 SLP256

CYWG;2009-12-19 07:00;CYWG 190700Z 34002KT 15SM BKN012 BKN079 M13/M14 A3022 RMK SC5AC2 SLP254

CYWG;2009-12-19 08:00;CYWG 190800Z 31004KT 15SM BKN014 BKN062 M12/M12 A3023 RMK SC6SC1 SLP257

CYWG;2009-12-19 09:00;CYWG 190900Z 34003KT 15SM BKN014 OVC078 M11/M12 A3023 RMK SC5AC3 SLP256

CYWG;2009-12-19 10:00;CYWG 191000Z 01002KT 15SM BKN013 BKN078 M10/M11 A3022 RMK SC5AC2 SLP251

CYWG;2009-12-19 10:42;CYWG 191042Z 03003KT 15SM SCT013 BKN051 OVC083 M10/ RMK SC3SC3AC2

CYWG;2009-12-19 11:00;CYWG 191100Z 04003KT 15SM FEW013 BKN051 BKN083 M10/M11 A3021 RMK SC2SC2AC2 SLP248

CYWG;2009-12-19 12:00;CYWG 191200Z 06005KT 15SM SCT008 OVC015 M10/M11 A3020 RMK SF3SC5 SLP245

CYWG;2009-12-19 13:00;CYWG 191300Z 09005KT 15SM FEW008 BKN016 OVC049 M09/M11 A3019 RMK SF1SC4SC3 SLP241

CYWG;2009-12-19 14:00;CYWG 191400Z 07003KT 15SM BKN010 OVC049 M09/M11 A3019 RMK ST6SC2 SLP243

CYWG;2009-12-19 14:48;CYWG 191448Z 16003KT 15SM FEW010 OVC044 M09/ RMK SF2SC6

CYWG;2009-12-19 15:00;CYWG 191500Z 16004KT 15SM FEW010 OVC044 M09/M10 A3016 RMK SF1SC6 SLP233

CYWG;2009-12-19 16:00;CYWG 191600Z 18002KT 15SM FEW012 OVC048 M09/M10 A3017 RMK SF2SC6 SLP236

CYWG;2009-12-19 17:00;CYWG 191700Z 13003KT 15SM BKN010 OVC048 M08/M10 A3016 RMK SC6SC2 SLP231

CYWG;2009-12-19 18:00;CYWG 191800Z 17005KT 15SM OVC010 M08/M10 A3014 RMK SC8 SLP224

CYWG;2009-12-19 19:00;CYWG 191900Z 19006KT 15SM OVC009 M08/M10 A3012 RMK SC8 SLP217

CYWG;2009-12-19 19:22;CYWG 191922Z 19004KT 15SM OVC010 M08/ RMK SC8

CYWG;2009-12-19 20:00;CYWG 192000Z 19007KT 8SM OVC008 M08/M10 A3009 RMK SC8 SLP209

CYWG;2009-12-19 21:00;CYWG 192100Z 16007KT 10SM SCT010 BKN052 BKN200 M08/M10 A3007 RMK SF4SC1CI1 SLP203

CYWG;2009-12-19 22:00;CYWG 192200Z 19007KT 8SM BKN013 OVC050 M09/M11 A3007 RMK SF6SC2 SLP202

CYWG;2009-12-19 23:00;CYWG 192300Z 15005KT 10SM SCT010 OVC018 M09/M10 A3006 RMK SF3SC5 SLP199

CYWG;2009-12-20 00:00;CYWG 200000Z 21002KT 8SM OVC010 M09/M10 A3006 RMK SC8 SLP200

CYWG;2009-12-20 01:00;CYWG 200100Z 18002KT 7SM OVC010 M08/M10 A3004 RMK SC8 SLP193

CYWG;2009-12-20 02:00;CYWG 200200Z 15004KT 10SM OVC009 M08/M09 A3003 RMK ST8 SLP188

CYWG;2009-12-20 02:44;CYWG 200244Z 17003KT 12SM OVC010 M08/ RMK ST8

CYWG;2009-12-20 03:00;CYWG 200300Z 15004KT 6SM -SN OVC010 M08/M09 A3003 RMK ST8 SLP186

CYWG;2009-12-20 03:14;CYWG 200314Z 18003KT 2SM -SN OVC010 M08/ RMK SN3SC5

CYWG;2009-12-20 03:38;CYWG 200338Z 00000KT 1 1/2SM -SN OVC008 M08/ RMK SN4SC4

CYWG;2009-12-20 04:00;CYWG 200400Z 00000KT 1 1/2SM -SN OVC008 M08/M09 A3001 RMK SN4SC4 SLP180

CYWG;2009-12-20 04:24;CYWG 200424Z 00000KT 1 1/2SM -SN OVC012 M08/ RMK SN3SC5

CYWG;2009-12-20 05:00;CYWG 200500Z 12002KT 1 1/2SM -SN OVC014 M08/M09 A3001 RMK SN3SC5 SLP181

CYWG;2009-12-20 06:00;CYWG 200600Z 11005KT 3SM -SN OVC009 M09/M10 A3001 RMK SN2SC6 SLP181

CYWG;2009-12-20 06:12;CYWG 200612Z 11004KT 10SM -SN OVC029 M09/ RMK SC8

CYWG;2009-12-20 07:00;CYWG 200700Z 10005KT 10SM -SN OVC018 M10/M11 A3001 RMK SC8 SLP181

CYWG;2009-12-20 08:00;CYWG 200800Z 10004KT 10SM -SN OVC018 M11/M12 A3002 RMK SC8 SLP183

CYWG;2009-12-20 09:00;CYWG 200900Z 15003KT 15SM OVC014 M11/M11 A3002 RMK SC8 SLP184

CYWG;2009-12-20 10:00;CYWG 201000Z 17003KT 15SM OVC012 M10/M10 A3001 RMK SC8 SLP181

CYWG;2009-12-20 11:00;CYWG 201100Z 17002KT 15SM OVC010 M09/M10 A3001 RMK SC8 SLP180

CYWG;2009-12-20 12:00;CYWG 201200Z 24003KT 15SM OVC010 M09/M10 A3003 RMK SC8 SLP186

CYWG;2009-12-20 13:00;CYWG 201300Z 16003KT 15SM BKN015 OVC031 M09/M10 A3003 RMK SC6SC2 SLP187

CYWG;2009-12-20 13:42;CYWG 201342Z 19003KT 15SM BKN010 OVC029 09/ RMK SC6SC2

CYWG;2009-12-20 14:00;CYWG 201400Z 21005KT 15SM BKN010 OVC029 M09/M10 A3002 RMK SC6SC2 SLP184

CYWG;2009-12-20 14:27;CYWG 201427Z 19005KT 15SM -SN BKN009 OVC027 M09/ RMK SC6SC2

CYWG;2009-12-20 15:00;CYWG 201500Z 21005KT 12SM -SN BKN009 OVC027 M09/M10 A3000 RMK SC5SC3 SLP177

CYWG;2009-12-20 15:19;CYWG 201519Z 22005KT 15SM FEW009 OVC027 M08/ RMK SC2SC6

CYWG;2009-12-20 16:00;CYWG 201600Z 21007KT 9SM FEW008 OVC022 M08/M09 A3000 RMK SC2SC6 BR SLP177

CYWG;2009-12-20 17:00;CYWG 201700Z 22006KT 6SM BR FEW010 OVC023 M07/M09 A3000 RMK SC2SC6 SLP177

CYWG;2009-12-20 18:00;CYWG 201800Z 24007KT 6SM BR SCT011 OVC025 M07/M08 A2999 RMK SC3SC5 SLP175

CYWG;2009-12-20 19:00;CYWG 201900Z 23007KT 6SM BR FEW011 OVC023 M06/M08 A2997 RMK SC2SC6 SLP166

CYWG;2009-12-20 19:49;CYWG 201949Z 25006KT 5SM -SHSN OVC014 M05/ RMK SN2SC6

CYWG;2009-12-20 20:00;CYWG 202000Z 25006KT 2 1/2SM -SHSN VV010 M06/M08 A2995 RMK SN8 SLP160

CYWG;2009-12-20 20:06;CYWG 202006Z 24007KT 2SM -SHSN VV007 M06/ RMK SN8

CYWG;2009-12-20 20:28;CYWG 202028Z 24006KT 1 1/2SM -SHSN VV007 M06/ RMK SN8

CYWG;2009-12-20 21:00;CYWG 202100Z 26007KT 2SM -SHSN VV010 M06/M07 A2994 RMK SN8 SLP158

CYWG;2009-12-20 21:17;CYWG 202117Z 25008KT 1SM R31/P6000FT/U R36/P6000FT/U -SHSN VV011 M06/ RMK SN8

CYWG;2009-12-20 22:00;CYWG 202200Z 24008KT 1SM R31/P6000FT/D R36/P6000FT/D -SHSN OVC014 M06/M07 A2994 RMK SN6SC2 SLP157

CYWG;2009-12-20 23:00;CYWG 202300Z 23008KT 1SM R31/P6000FT/U R36/P6000FT/U -SHSN VV012 M06/M07 A2994 RMK SN8 SLP156

CYWG;2009-12-20 23:25;CYWG 202325Z 23007KT 10SM OVC012 M06/ RMK SC8 VIS LWR E

CYWG;2009-12-21 00:00;CYWG 210000Z 24007KT 15SM BKN025 M07/M08 A2993 RMK SC5 SLP154

CYWG;2009-12-21 01:00;CYWG 210100Z 25009KT 15SM FEW030 M07/M08 A2992 RMK SC2 SLP151

CYWG;2009-12-21 02:00;CYWG 210200Z 26009KT 15SM SKC M09/M10 A2993 RMK SLP154

CYWG;2009-12-21 03:00;CYWG 210300Z 28009KT 15SM SKC M10/M11 A2994 RMK SLP156

CYWG;2009-12-21 04:00;CYWG 210400Z 30009KT 15SM SKC M11/M13 A2994 RMK SLP157

CYWG;2009-12-21 05:00;CYWG 210500Z 31010KT 15SM SKC M11/M13 A2996 RMK SLP164

CYWG;2009-12-21 06:00;CYWG 210600Z 31009KT 15SM SKC M13/M14 A2998 RMK SLP172

CYWG;2009-12-21 07:00;CYWG 210700Z 29009KT 15SM SKC M15/M16 A2999 RMK SLP173

CYWG;2009-12-21 08:00;CYWG 210800Z 28008KT 15SM SKC M16/M17 A3001 RMK SLP180

CYWG;2009-12-21 09:00;CYWG 210900Z 27009KT 15SM BKN017 M15/M16 A3003 RMK SC5 SLP188

CYWG;2009-12-21 10:00;CYWG 211000Z 29006KT 15SM SCT047 M15/M16 A3004 RMK SC4 SLP192

CYWG;2009-12-21 11:00;CYWG 211100Z 32005KT 15SM FEW045 M18/M19 A3005 RMK SC2 SLP194

CYWG;2009-12-21 12:00;CYWG 211200Z 32007KT 15SM FEW040 M19/M20 A3006 RMK SC2 SLP200

CYWG;2009-12-21 13:00;CYWG 211300Z 31006KT 15SM FEW040 M19/M19 A3007 RMK SC1 SLP204

CYWG;2009-12-21 14:00;CYWG 211400Z 28007KT 15SM FEW030 M18/M19 A3009 RMK SC1 SLP212

CYWG;2009-12-21 15:00;CYWG 211500Z 27003KT 15SM FEW030 FEW230 M20/M20 A3010 RMK SC1CI0 IC SLP216

CYWG;2009-12-21 16:00;CYWG 211600Z 30004KT 15SM SCT014 BKN230 M16/M16 A3013 RMK SC2CI1 IC SLP225

CYWG;2009-12-21 17:00;CYWG 211700Z 28002KT 15SM FEW015 SCT230 M14/M14 A3014 RMK SC1CI1 IC SLP228

CYWG;2009-12-21 18:00;CYWG 211800Z 29004KT 15SM FEW020 FEW230 M13/M14 A3014 RMK SC1CI0 SLP227

CYWG;2009-12-21 19:00;CYWG 211900Z 29004KT 15SM FEW020 SCT230 M12/M13 A3014 RMK SC1CI1 SLP229

CYWG;2009-12-21 20:00;CYWG 212000Z 30004KT 15SM SCT020 BKN230 M12/M13 A3015 RMK SC1CI1 SLP230

CYWG;2009-12-21 21:00;CYWG 212100Z 31003KT 15SM FEW020 SCT230 M12/M13 A3016 RMK SC1CI1 SLP234

CYWG;2009-12-21 22:00;CYWG 212200Z 22003KT 15SM FEW020 FEW250 M14/M15 A3017 RMK SC1CI1 SLP239

CYWG;2009-12-21 23:00;CYWG 212300Z 01002KT 15SM FEW010 FEW250 M15/M15 A3017 RMK ST1CI1 SLP239

CYWG;2009-12-22 00:00;CYWG 220000Z 00000KT 15SM FEW010 FEW250 M17/M18 A3018 RMK ST1CI1 SLP246

CYWG;2009-12-22 01:00;CYWG 220100Z 07003KT 15SM FEW010 FEW250 M20/M20 A3019 RMK ST1CI1 SLP249

CYWG;2009-12-22 02:00;CYWG 220200Z 00000KT 15SM FEW250 M21/M21 A3021 RMK CI1 SLP254

CYWG;2009-12-22 03:00;CYWG 220300Z 25003KT 15SM FEW250 M20/M22 A3023 RMK CI1 SLP263

CYWG;2009-12-22 03:22;CYWG 220322Z 22003KT 12SM SCT002 BKN010 M21/ RMK ST3ST3

CYWG;2009-12-22 03:35;CYWG 220335Z 22002KT 1/2SM R13/P6000FT/N R36/P6000FT/N FZFG VV001 M21/ RMK FG8

CYWG;2009-12-22 03:49;CYWG 220349Z 00000KT 1/4SM R13/3000FT/N R36/P6000FT/D FZFG VV001 M20/ RMK FG8

CYWG;2009-12-22 04:00;CYWG 220400Z 00000KT 1/2SM R13/2400FT/N R36/P6000FT/U FZFG SKC M21/M21 A3024 RMK FG4 SLP266

CYWG;2009-12-22 04:49;CYWG 220449Z 00000KT 1SM R13/1800V2200FT/N R36/P6000FT/U BR SKC M21/ RMK FG3

CYWG;2009-12-22 05:00;CYWG 220500Z 00000KT 3SM R13/1800V2200FT/U BR SKC M21/M21 A3025 RMK FG3 SLP269

CYWG;2009-12-22 06:00;CYWG 220600Z 12002KT 5SM BR FEW001 M23/M23 A3025 RMK SF1 SLP268

CYWG;2009-12-22 07:00;CYWG 220700Z 01002KT 3SM BR SCT002 M23/M23 A3025 RMK SF3 SLP270

CYWG;2009-12-22 07:43;CYWG 220743Z 03004KT 1SM R13/2600FT/N R36/P6000FT/N BR SKC M23/ RMK FG4

CYWG;2009-12-22 08:00;CYWG 220800Z 04004KT 3SM BR SKC M21/M22 A3025 RMK FG2 SLP271

CYWG;2009-12-22 09:00;CYWG 220900Z 07002KT 5SM R13/2800VP6000FT/N BR FEW001 SCT006 M19/M20 A3027 RMK SF1SC2 SLP275

CYWG;2009-12-22 10:00;CYWG 221000Z 07002KT 3SM BR FEW002 SCT012 M19/M19 A3027 RMK SF2SC2 SLP276

CYWG;2009-12-22 11:00;CYWG 221100Z 10002KT 2SM BR BKN008 M19/M19 A3027 RMK FG2SC3 SLP276

CYWG;2009-12-22 12:00;CYWG 221200Z 07003KT 2 1/2SM BR SCT002 BKN007 M20/M21 A3028 RMK SF2SC3 SLP279

CYWG;2009-12-22 12:15;CYWG 221215Z 08002KT 4SM BR SCT003 BKN010 M20/ RMK SF2SC3

CYWG;2009-12-22 13:00;CYWG 221300Z 06003KT 6SM BR SCT002 BKN016 M21/M21 A3028 RMK SF2SC3 SLP281

CYWG;2009-12-22 13:50;CYWG 221350Z 08003KT 7SM SCT002 BKN016 M17/ RMK SF2SC4 IC

CYWG;2009-12-22 14:00;CYWG 221400Z CCA 08002KT 6SM -SN BR FEW002 BKN018 M17/M18 A3030 RMK SF1SC6 SLP286

CYWG;2009-12-22 15:00;CYWG 221500Z 14002KT 6SM -SN BR FEW004 OVC018 M15/M16 A3030 RMK SF2SC6 SLP287

CYWG;2009-12-22 16:00;CYWG 221600Z 00000KT 8SM -SN OVC020 M13/M14 A3032 RMK SC7 SLP293

CYWG;2009-12-22 17:00;CYWG 221700Z 10003KT 6SM -SN OVC020 M12/M12 A3032 RMK SC7 SLP293

CYWG;2009-12-22 18:00;CYWG 221800Z 08003KT 6SM -SN BKN020 M11/M11 A3031 RMK SC7 SLP290

CYWG;2009-12-22 19:00;CYWG 221900Z 12004KT 8SM -SN OVC020 M10/M10 A3030 RMK SC8 SLP286

CYWG;2009-12-22 20:00;CYWG 222000Z 12006KT 12SM BKN022 M09/M10 A3029 RMK SC7 SLP281

CYWG;2009-12-22 21:00;CYWG 222100Z 12007KT 15SM FEW022 BKN200 M09/M10 A3029 RMK SC2CI3 SLP280

CYWG;2009-12-22 22:00;CYWG 222200Z 09006KT 15SM FEW020 BKN080 M08/M10 A3030 RMK SC1AC6 SLP282

CYWG;2009-12-22 23:00;CYWG 222300Z 08006KT 15SM BKN080 M09/M10 A3032 RMK AC6 SLP289

CYWG;2009-12-23 00:00;CYWG 230000Z 06005KT 15SM BKN084 M10/M11 A3033 RMK AC5 SLP294

CYWG;2009-12-23 01:00;CYWG 230100Z 09006KT 15SM SCT084 M11/M12 A3033 RMK AC3 SLP296

CYWG;2009-12-23 02:00;CYWG 230200Z 11006KT 15SM SCT080 M10/M11 A3034 RMK AC4 SLP298

CYWG;2009-12-23 03:00;CYWG 230300Z 13010KT 15SM BKN076 M08/M10 A3034 RMK AC6 SLP295

CYWG;2009-12-23 04:00;CYWG 230400Z 12011KT 15SM BKN076 M08/M10 A3033 RMK AC6 SLP291

CYWG;2009-12-23 05:00;CYWG 230500Z 12008KT 15SM OVC080 M08/M10 A3034 RMK AC8 SLP294

CYWG;2009-12-23 06:00;CYWG 230600Z 13009KT 15SM OVC075 M08/M11 A3033 RMK AC8 SLP292

CYWG;2009-12-23 07:00;CYWG 230700Z 12008KT 15SM OVC072 M08/M11 A3032 RMK AC8 SLP289

CYWG;2009-12-23 08:00;CYWG 230800Z 13010KT 15SM OVC070 M08/M11 A3032 RMK AC8 SLP289

CYWG;2009-12-23 09:00;CYWG 230900Z 12008KT 15SM OVC070 M09/M11 A3034 RMK AC8 SLP293

CYWG;2009-12-23 10:00;CYWG 231000Z 12006KT 15SM OVC070 M09/M11 A3033 RMK AC8 SLP291

CYWG;2009-12-23 11:00;CYWG 231100Z 12007KT 15SM OVC067 M09/M11 A3033 RMK AC8 SLP289

CYWG;2009-12-23 12:00;CYWG 231200Z 11007KT 15SM OVC067 M09/M11 A3032 RMK AC8 SLP288

CYWG;2009-12-23 13:00;CYWG 231300Z 10006KT 15SM OVC067 M09/M11 A3032 RMK AC8 SLP286

CYWG;2009-12-23 14:00;CYWG 231400Z 11005KT 15SM BKN022 OVC066 M09/M10 A3031 RMK SC5AC3 SLP285

CYWG;2009-12-23 15:00;CYWG 231500Z 11006KT 15SM FEW024 OVC066 M08/M10 A3030 RMK SC2AC6 SLP280

CYWG;2009-12-23 16:00;CYWG 231600Z 12007KT 15SM BKN020 OVC062 M07/M10 A3030 RMK SC5SC3 SLP278

CYWG;2009-12-23 17:00;CYWG 231700Z 13008KT 15SM BKN020 OVC062 M07/M10 A3029 RMK SC6SC2 SLP276

CYWG;2009-12-23 18:00;CYWG 231800Z 14007KT 15SM OVC018 M06/M09 A3027 RMK SC8 SLP269

CYWG;2009-12-23 19:00;CYWG 231900Z 12007KT 15SM BKN018 OVC063 M05/M09 A3025 RMK SC5SC3 SLP262

CYWG;2009-12-23 20:00;CYWG 232000Z 14007KT 15SM BKN020 OVC047 M05/M08 A3023 RMK SC5SC3 SLP256

CYWG;2009-12-23 21:00;CYWG 232100Z 13006KT 15SM SCT019 BKN047 OVC100 M04/M08 A3023 RMK SC3SC2AC2 SLP254

CYWG;2009-12-23 22:00;CYWG 232200Z 12007KT 15SM FEW019 BKN051 OVC081 M04/M07 A3024 RMK SC2SC3AC3 SLP256

CYWG;2009-12-23 23:00;CYWG 232300Z 12006KT 15SM BKN040 OVC085 M04/M07 A3024 RMK SC5AC3 SLP256

CYWG;2009-12-24 00:00;CYWG 240000Z 12010KT 15SM BKN043 OVC085 M03/M07 A3023 RMK SC5AC3 SLP255

CYWG;2009-12-24 01:00;CYWG 240100Z 12007KT 15SM BKN047 BKN085 M04/M07 A3023 RMK SC5AC2 SLP254

CYWG;2009-12-24 02:00;CYWG 240200Z 11006KT 15SM SCT062 BKN077 M05/M07 A3022 RMK SC3AC2 SLP251

CYWG;2009-12-24 03:00;CYWG 240300Z 12007KT 15SM FEW066 BKN099 M04/M07 A3022 RMK SC2AC3 SLP250

CYWG;2009-12-24 04:00;CYWG 240400Z 12006KT 15SM BKN038 OVC061 M04/M07 A3021 RMK SC6SC2 SLP246

CYWG;2009-12-24 04:29;CYWG 240429Z 12006KT 9SM -SHSN BKN027 OVC035 M04/ RMK SC5SC3

CYWG;2009-12-24 05:00;CYWG 240500Z 14006KT 4SM -SHSN OVC021 M04/M06 A3020 RMK SN4SC4 SLP245

CYWG;2009-12-24 06:00;CYWG 240600Z 12009KT 2 1/2SM -SHSN OVC018 M04/M05 A3020 RMK SN6SC2 SLP242

CYWG;2009-12-24 06:48;CYWG 240648Z 12009KT 4SM -SN OVC018 M04/ RMK SC8

CYWG;2009-12-24 07:00;CYWG 240700Z 12008KT 2SM -SN VV016 M04/M05 A3018 RMK SN8 SLP237

CYWG;2009-12-24 07:27;CYWG 240727Z 12008KT 2SM -SN VV014 M04/ RMK SN8

CYWG;2009-12-24 07:45;CYWG 240745Z 11009KT 1 1/2SM -SN VV012 M04/ RMK SN8

CYWG;2009-12-24 08:00;CYWG 240800Z 11007KT 1 1/2SM -SN VV012 M04/M05 A3018 RMK SN8 SLP236

CYWG;2009-12-24 08:17;CYWG 240817Z 11009KT 1 1/2SM -SN VV009 M04/ RMK SN8

CYWG;2009-12-24 09:00;CYWG 240900Z 10007KT 1 3/4SM -SN VV009 M04/M05 A3018 RMK SN8 SLP236

CYWG;2009-12-24 10:00;CYWG 241000Z 10009KT 4SM -SN FEW009 BKN013 OVC030 M04/M05 A3017 RMK SF2SC4SC2 SLP232

CYWG;2009-12-24 10:40;CYWG 241040Z 10010KT 2SM -SN SCT009 OVC019 M04/ RMK SF4SC4

CYWG;2009-12-24 11:00;CYWG 241100Z 10009KT 4SM -SN DRSN FEW009 OVC019 M04/M05 A3015 RMK SF2SC6 SLP226

CYWG;2009-12-24 12:00;CYWG 241200Z 11010KT 3SM -SN DRSN OVC020 M04/M05 A3014 RMK SC8 /S02/ SLP222

CYWG;2009-12-24 12:37;CYWG 241237Z 11009KT 2SM -SN DRSN OVC027 M04/ RMK SN2SC6

CYWG;2009-12-24 13:00;CYWG 241300Z 11013KT 2SM -SN DRSN OVC027 M04/M05 A3014 RMK SN2SC6 SLP222

CYWG;2009-12-24 14:00;CYWG 241400Z 10010G15KT 1SM R13/P6000FT/D R36/P6000FT/D -SN DRSN OVC012 M04/M05 A3013 RMK SN3ST5 SLP219

CYWG;2009-12-24 14:29;CYWG 241429Z 10011KT 2SM -SN DRSN OVC010 M04/ RMK SN3ST5

CYWG;2009-12-24 15:00;CYWG 241500Z 10009KT 3SM -SN BKN010 OVC021 M04/M05 A3013 RMK ST3SC5 SLP218

CYWG;2009-12-24 16:00;CYWG 241600Z CCA 10008G15KT 3SM -SN OVC026 M04/M05 A3012 RMK SC8 SLP216

CYWG;2009-12-24 16:25;CYWG 241625Z 10008KT 1SM R13/P6000FT/N R36/P6000FT/D -SN OVC010 M04/ RMK SN3ST5

CYWG;2009-12-24 16:52;CYWG 241652Z 09008KT 3SM -SN OVC010 M04/ RMK ST8

CYWG;2009-12-24 17:00;CYWG 241700Z 09008KT 2SM -SN OVC010 M04/M05 A3011 RMK ST8 SLP212

CYWG;2009-12-24 17:12;CYWG 241712Z 09008KT 1SM R13/P6000FT/N R36/P6000FT/U -SN VV008 M04/ RMK SN8

CYWG;2009-12-24 18:00;CYWG 241800Z 08008KT 1 1/2SM -SN OVC010 M04/M05 A3009 RMK SN3ST5 /S02/ SLP204

CYWG;2009-12-24 19:00;CYWG 241900Z 07008KT 1SM R13/P6000FT/N R36/P6000FT/N -SN VV007 M04/M05 A3006 RMK SN8 SLP196

CYWG;2009-12-24 20:00;CYWG 242000Z 08009KT 1 1/2SM -SN VV008 M04/M06 A3006 RMK SN8 /S01/ SLP193

CYWG;2009-12-24 20:23;CYWG 242023Z 07008KT 1SM R13/P6000FT/D R36/6000FT/U -SN VV007 RMK SN8

CYWG;2009-12-24 20:42;CYWG 242042Z 06008KT 2SM -SN OVC034 M05/ RMK SN4SC4

CYWG;2009-12-24 21:00;CYWG 242100Z 06008KT 3SM -SN SCT009 OVC065 M05/M06 A3006 RMK SN1SF3SC4 VIS NW 11/2 S 10 IMPRG RPDLY FM S SLP194

CYWG;2009-12-24 22:00;CYWG 242200Z 06009KT 10SM -SN BKN011 OVC021 M05/M06 A3006 RMK SF6SC2 SLP196

CYWG;2009-12-24 22:37;CYWG 242237Z 05008KT 10SM -SN SCT011 BKN021 OVC048 M05/ RMK SF3SC3SC2

CYWG;2009-12-24 23:00;CYWG 242300Z 06008KT 15SM -SN SCT011 BKN029 OVC043 M05/M06 A3007 RMK SF3SC3SC2 SLP199

CYWG;2009-12-25 00:00;CYWG 250000Z 06007KT 6SM -SN FEW011 OVC027 M05/M06 A3009 RMK SF2SC6 /S02/ SLP206

CYWG;2009-12-25 01:00;CYWG 250100Z 04008KT 10SM -SN FEW010 BKN031 OVC087 M06/M07 A3006 RMK SF2SC4AC2 SLP196

CYWG;2009-12-25 01:49;CYWG 250149Z 05006KT 15SM FEW010 SCT046 BKN075 M06/ RMK SF2SC2AC2

CYWG;2009-12-25 02:00;CYWG 250200Z 05007KT 15SM FEW015 SCT046 BKN075 M06/M07 A3007 RMK SF2SC2AC2 SLP200

CYWG;2009-12-25 03:00;CYWG 250300Z 04007KT 15SM BKN018 OVC068 M06/M07 A3006 RMK SC6AC2 SLP194

CYWG;2009-12-25 04:00;CYWG 250400Z 03008KT 15SM BKN014 OVC068 M06/M07 A3005 RMK SC6AC2 SLP193

CYWG;2009-12-25 05:00;CYWG 250500Z 02010KT 15SM OVC014 M06/M07 A3006 RMK SC8 SLP196

CYWG;2009-12-25 05:26;CYWG 250526Z 03009KT 10SM -SN OVC014 M06/ RMK SC8

CYWG;2009-12-25 06:00;CYWG 250600Z 03009KT 8SM -SN OVC014 M06/M07 A3007 RMK SC8 SLP199

CYWG;2009-12-25 07:00;CYWG 250700Z 02012KT 10SM -SN OVC014 M06/M07 A3005 RMK SC8 SLP193

CYWG;2009-12-25 07:35;CYWG 250735Z 02012KT 12SM -SN SCT015 OVC049 M06/ RMK SC4SC4

CYWG;2009-12-25 08:00;CYWG 250800Z 03011KT 10SM -SN FEW015 OVC024 M06/M07 A3007 RMK SF2SC6 SLP199

CYWG;2009-12-25 08:25;CYWG 250825Z 02013KT 2SM -SN OVC013 M07/ RMK SN2SC6

CYWG;2009-12-25 09:00;CYWG 250900Z 01016G21KT 2SM -SN OVC010 M07/M08 A3004 RMK SN2SC6 SLP190

CYWG;2009-12-25 09:46;CYWG 250946Z 01016G21KT 3SM -SN DRSN OVC013 M07/ RMK SC8

CYWG;2009-12-25 10:00;CYWG 251000Z 01021KT 4SM -SN DRSN OVC013 M07/M08 A3002 RMK SC8 SLP183

CYWG;2009-12-25 11:00;CYWG 251100Z 03017KT 6SM -SN DRSN BKN010 OVC040 M07/M08 A3003 RMK SC6SC2 SLP184

CYWG;2009-12-25 11:23;CYWG 251123Z 03019G27KT 6SM -SN DRSN BKN008 OVC040 M07/ RMK SC6SC2

CYWG;2009-12-25 12:00;CYWG 251200Z 02018G25KT 12SM -SN DRSN OVC008 M07/M08 A3002 RMK SC8 SLP183

CYWG;2009-12-25 13:00;CYWG 251300Z 02022KT 10SM -SN DRSN OVC008 M07/M08 A3000 RMK SC8 SLP177

CYWG;2009-12-25 14:00;CYWG 251400Z 03018G25KT 12SM -SN DRSN OVC008 M07/M08 A3001 RMK SC8 SLP178

CYWG;2009-12-25 15:00;CYWG 251500Z 02021G29KT 3SM -SN DRSN OVC010 M07/M08 A3000 RMK SC8 SLP176

CYWG;2009-12-25 15:04;CYWG 251504Z 02020G25KT 2SM -SN DRSN OVC010 M07/ RMK SC8

CYWG;2009-12-25 15:22;CYWG 251522Z 03024G29KT 1 1/2SM -SN DRSN OVC007 M07/ RMK SN2SC6

CYWG;2009-12-25 15:27;CYWG 251527Z 03022G29KT 3/4SM R13/P6000FT/N R36/P6000FT/D -SN DRSN OVC007 M07/ RMK SN4SC4

CYWG;2009-12-25 15:41;CYWG 251541Z 03022G29KT 1SM R13/P6000FT/U R36/P6000FT/U -SN DRSN OVC007 M07/ RMK SN4SC4

CYWG;2009-12-25 16:00;CYWG 251600Z 02022G27KT 1 3/4SM -SN DRSN OVC008 M07/M09 A2999 RMK SN3SC5 SLP173

CYWG;2009-12-25 16:31;CYWG 251631Z 03023G28KT 1SM R13/P6000FT/D R36/P6000FT/D -SN DRSN OVC010 M07/ RMK SN4SC4

CYWG;2009-12-25 17:00;CYWG 251700Z 02022KT 1SM R13/P6000FT/D R36/P6000FT/D -SN DRSN OVC012 M07/M08 A2999 RMK SN4SC4 SLP174

CYWG;2009-12-25 17:13;CYWG 251713Z 02020G29KT 3/4SM R13/6000FT/N R36/5000FT/N -SN DRSN VV008 M07/ RMK SN8

CYWG;2009-12-25 17:31;CYWG 251731Z 02021G27KT 1 1/2SM -SN DRSN OVC035 M07/ RMK SN5SC3

CYWG;2009-12-25 17:51;CYWG 251751Z 03025KT 3/4SM R13/P6000FT/D R36/P6000FT/N -SN DRSN VV008 M07/ RMK SN8

CYWG;2009-12-25 18:00;CYWG 251800Z 02024KT 3/4SM R13/P6000FT/N R36/P6000FT/D -SN DRSN VV007 M07/M08 A2997 RMK SN8 SLP166

CYWG;2009-12-25 18:43;CYWG 251843Z 02020G30KT 2SM -SN DRSN OVC058 M07/ RMK SN6SC2

CYWG;2009-12-25 19:00;CYWG 251900Z 02024G31KT 2SM -SN DRSN OVC020 M07/M08 A2994 RMK SN6SC2 SLP156

CYWG;2009-12-25 20:00;CYWG 252000Z 02021G30KT 1 1/2SM R36/6000FT/U -SN BLSN VV013 M06/M07 A2993 RMK SN8 SLP154

CYWG;2009-12-25 21:00;CYWG 252100Z 02025G31KT 1 1/2SM -SN BLSN VV012 M06/M07 A2993 RMK SN8 SLP153

CYWG;2009-12-25 21:10;CYWG 252110Z 02023G28KT 1SM R13/P6000FT/N R36/P6000FT/D -SN BLSN VV009 M06/ RMK SN8

CYWG;2009-12-25 22:00;CYWG 252200Z 02024KT 1SM R13/P6000FT/D R36/P6000FT/D -SN BLSN VV009 M06/M07 A2995 RMK SN8 SLP157

CYWG;2009-12-25 23:00;CYWG 252300Z 02022G29KT 1 1/2SM -SN BLSN VV010 M05/M06 A2995 RMK SN8 SLP158

CYWG;2009-12-26 00:00;CYWG 260000Z 02024G30KT 2SM -SN BLSN VV013 M05/M06 A2995 RMK SN8 SLP157

CYWG;2009-12-26 00:41;CYWG 260041Z 02024G30KT 4SM -SN DRSN OVC017 M06/ RMK SN5SC3

CYWG;2009-12-26 01:00;CYWG 260100Z 02025G30KT 3SM -SN DRSN OVC017 M06/M07 A2995 RMK SN5SC3 SLP159

CYWG;2009-12-26 02:00;CYWG 260200Z 02026G31KT 4SM -SN DRSN OVC017 M06/M07 A2995 RMK SN3SC5 SLP159

CYWG;2009-12-26 03:00;CYWG 260300Z 02028G34KT 4SM -SN DRSN OVC012 M06/M07 A2995 RMK SN5SC3 SLP160

CYWG;2009-12-26 04:00;CYWG 260400Z 02024G31KT 5SM -SN DRSN OVC012 M06/M07 A2995 RMK SC8 SLP160

CYWG;2009-12-26 05:00;CYWG 260500Z 01024G32KT 5SM -SN DRSN FEW012 OVC025 M06/M07 A2995 RMK SC2SC6 SLP158

CYWG;2009-12-26 05:36;CYWG 260536Z 02026G31KT 3SM R36/4500VP6000FT/D -SNSG DRSN BKN012 OVC030 M06/ RMK SC6SC2

CYWG;2009-12-26 06:00;CYWG 260600Z 02023G30KT 2SM -SNSG DRSN OVC010 M06/M07 A2996 RMK SC8 SLP161

CYWG;2009-12-26 06:27;CYWG 260627Z 02023G28KT 2SM -SNPL DRSN OVC009 RMK SC8

CYWG;2009-12-26 07:00;CYWG 260700Z 01025G31KT 1 1/2SM -SNPL DRSN VV008 M07/M08 A2995 RMK SN8 SLP158

CYWG;2009-12-26 08:00;CYWG 260800Z 01022G30KT 1 1/2SM -SNPL DRSN VV008 M07/M08 A2996 RMK SN8 SLP162

CYWG;2009-12-26 08:39;CYWG 260839Z 01021G27KT 4SM -SNSG DRSN OVC013 M07/ RMK SC8

CYWG;2009-12-26 09:00;CYWG 260900Z 01021G28KT 4SM -SNSG DRSN OVC013 M07/M08 A2996 RMK SC8 SLP164

CYWG;2009-12-26 10:00;CYWG 261000Z 01021G28KT 4SM -SNSG DRSN OVC011 M07/M08 A2997 RMK SC8 SLP166

CYWG;2009-12-26 11:00;CYWG 261100Z 01023G29KT 5SM -SN DRSN OVC011 M07/M09 A2998 RMK SC8 SLP169

CYWG;2009-12-26 11:54;CYWG 261154Z 01022G27KT 2 1/2SM -SNSG DRSN OVC011 RMK SC8

CYWG;2009-12-26 12:00;CYWG 261200Z 01020G27KT 3SM -SNSG DRSN OVC011 M08/M09 A2998 RMK SC8 SLP170

CYWG;2009-12-26 12:23;CYWG 261223Z 01018G25KT 3SM -SN DRSN OVC012 M08/ RMK SC8

CYWG;2009-12-26 13:00;CYWG 261300Z 01024KT 3SM -SN DRSN OVC010 M08/M09 A2999 RMK SC8 SLP173

CYWG;2009-12-26 13:30;CYWG 261330Z 01020G28KT 4SM DRSN OVC009 RMK SC8 OCNL BLSN

CYWG;2009-12-26 14:00;CYWG 261400Z 01021G27KT 5SM DRSN SCT008 OVC012 M08/M10 A3000 RMK SC4SC4 OCNL BLSN SLP176

CYWG;2009-12-26 14:48;CYWG 261448Z 01019G24KT 4SM -SN DRSN OVC013 RMK SC8 OCNL BLSN

CYWG;2009-12-26 14:51;CYWG 261451Z 01018G24KT 2SM -SN DRSN OVC013 RMK SC8 OCNL BLSN

CYWG;2009-12-26 15:00;CYWG 261500Z 01018G26KT 1 1/2SM -SN DRSN OVC013 M08/M09 A3000 RMK SC8 OCNL BLSN SLP175

CYWG;2009-12-26 15:16;CYWG 261516Z 36017G22KT 2 1/2SM -SN DRSN OVC011 RMK SC8 OCNL BLSN

CYWG;2009-12-26 16:00;CYWG 261600Z 01017KT 3SM -SN DRSN BKN015 OVC029 M08/M10 A3000 RMK SC6SC2 OCNL BLSN SLP177

CYWG;2009-12-26 16:40;CYWG 261640Z 36018G24KT 2SM -SN DRSN BKN015 OVC025 RMK SC6SC2 OCNL BLSN

CYWG;2009-12-26 16:51;CYWG 261651Z 01016G25KT 2SM -SN DRSN BKN012 OVC025 M08/ RMK SN2SC4SC2 OCNL BLSN

CYWG;2009-12-26 17:00;CYWG 261700Z 01019KT 3SM -SN DRSN BKN012 OVC025 M08/M09 A2999 RMK SN2SC4SC2 OCNL BLSN SLP172

CYWG;2009-12-26 18:00;CYWG 261800Z 01017G22KT 5SM -SN DRSN OVC025 M07/M08 A2997 RMK SC8 SLP167

CYWG;2009-12-26 18:37;CYWG 261837Z 01018KT 3SM -SN DRSN OVC013 M06/ RMK SC8

CYWG;2009-12-26 19:00;CYWG 261900Z CCA 01022KT 6SM -SN DRSN BKN013 OVC025 M06/M08 A2996 RMK SC5SC3 SLP162

CYWG;2009-12-26 20:00;CYWG 262000Z 01017G24KT 8SM -SN DRSN OVC013 M06/M07 A2996 RMK SC8 SLP164

CYWG;2009-12-26 20:42;CYWG 262042Z 01018KT 10SM -SN DRSN FEW013 SCT028 OVC045 M05/ RMK SF1SC2SC5

CYWG;2009-12-26 21:00;CYWG 262100Z 01015G20KT 10SM -SN DRSN FEW013 SCT033 OVC045 M05/M07 A2997 RMK SF1SC2SC5 SLP164

CYWG;2009-12-26 22:00;CYWG 262200Z 01019KT 15SM DRSN BKN029 OVC041 M04/M06 A2998 RMK SC5SC3 SLP168

CYWG;2009-12-26 22:43;CYWG 262243Z 01018KT 5SM -SN DRSN OVC027 M04/ RMK SC8

CYWG;2009-12-26 23:00;CYWG 262300Z 01016G21KT 5SM -SN DRSN OVC027 M04/M06 A2999 RMK SC6 SLP171

CYWG;2009-12-27 00:00;CYWG 270000Z 01020G27KT 10SM -SN DRSN OVC027 M04/M07 A3000 RMK SC8 SLP177

CYWG;2009-12-27 00:36;CYWG 270036Z 01015G22KT 10SM DRSN SCT031 OVC047 M05/ RMK SC3SC4

CYWG;2009-12-27 01:00;CYWG 270100Z 01017KT 10SM DRSN OVC047 M05/M07 A3002 RMK SC7 SLP181

CYWG;2009-12-27 01:13;CYWG 270113Z 01017KT 8SM -SN DRSN BKN023 OVC047 M05/ RMK SC5SC3

CYWG;2009-12-27 02:00;CYWG 270200Z 36014G20KT 10SM -SN DRSN SCT020 OVC047 M05/M07 A3003 RMK SC4SC3 SLP185

CYWG;2009-12-27 02:39;CYWG 270239Z 01012G17KT 15SM DRSN SCT020 BKN054 M05/ RMK SC3SC2

CYWG;2009-12-27 03:00;CYWG 270300Z 36011KT 15SM FEW020 BKN060 M06/M07 A3004 RMK SC2SC3 SLP191

CYWG;2009-12-27 04:00;CYWG 270400Z 36009G16KT 15SM SCT012 BKN060 M07/M08 A3005 RMK SC4SC2 SLP194

CYWG;2009-12-27 05:00;CYWG 270500Z 35009KT 15SM FEW015 BKN055 M07/M08 A3004 RMK SC2SC4 SLP191

CYWG;2009-12-27 05:50;CYWG 270550Z 34013KT 15SM BKN007 M07/ RMK SC6

CYWG;2009-12-27 06:00;CYWG 270600Z 34012KT 15SM BKN007 M07/M08 A3004 RMK SC6 SLP189

CYWG;2009-12-27 07:00;CYWG 270700Z 34011KT 15SM OVC008 M07/M08 A3004 RMK ST8 SLP190

CYWG;2009-12-27 08:00;CYWG 270800Z 34012KT 15SM OVC009 M08/M09 A3005 RMK ST8 SLP192

CYWG;2009-12-27 09:00;CYWG 270900Z 35013KT 15SM OVC006 M08/M09 A3005 RMK ST8 SLP194

CYWG;2009-12-27 10:00;CYWG 271000Z 36013KT 15SM OVC006 M08/M09 A3006 RMK ST8 SLP195

CYWG;2009-12-27 11:00;CYWG 271100Z 33009KT 15SM SCT006 M11/M11 A3006 RMK ST3 SLP197

CYWG;2009-12-27 12:00;CYWG 271200Z 34006KT 15SM BKN005 M12/M12 A3006 RMK ST4 SLP197

CYWG;2009-12-27 12:19;CYWG 271219Z 33005KT 15SM BKN004 M12/ RMK ST5

CYWG;2009-12-27 12:38;CYWG 271238Z 32008KT 15SM BKN006 M12/ RMK ST6

CYWG;2009-12-27 13:00;CYWG 271300Z 32007KT 15SM OVC005 M12/M12 A3006 RMK ST6 SLP199

CYWG;2009-12-27 13:21;CYWG 271321Z 32008KT 15SM OVC003 M10/ RMK ST7

CYWG;2009-12-27 14:00;CYWG 271400Z 32010KT 15SM OVC004 M10/M10 A3007 RMK ST7 SLP201

CYWG;2009-12-27 14:31;CYWG 271431Z 32011KT 1 1/2SM BR OVC002 M10/ RMK ST8

CYWG;2009-12-27 15:00;CYWG 271500Z 32013KT 1SM R31/P6000FT/D R36/P6000FT/D BR OVC002 M10/M10 A3006 RMK ST8 VIS W 3 SLP199

CYWG;2009-12-27 15:27;CYWG 271527Z 32010KT 3SM BR OVC004 M10/ RMK ST8 VIS W 10

CYWG;2009-12-27 16:00;CYWG 271600Z 31007KT 10SM OVC004 M11/M12 A3006 RMK ST8 VIS E 3BR SLP198

CYWG;2009-12-27 16:34;CYWG 271634Z 30007KT 15SM BKN005 OVC019 M11/ RMK ST6SC2 VIS E 3BR

CYWG;2009-12-27 16:45;CYWG 271645Z 30007KT 15SM SCT006 OVC016 M11/ RMK ST4SC4

CYWG;2009-12-27 17:00;CYWG 271700Z 30006KT 15SM FEW010 BKN016 M10/M11 A3006 RMK ST2SC5 SLP196

CYWG;2009-12-27 18:00;CYWG 271800Z 30007KT 15SM BKN018 BKN100 M10/M12 A3004 RMK SC5AC2 SLP190

CYWG;2009-12-27 19:00;CYWG 271900Z 28007KT 15SM SCT018 BKN100 M09/M11 A3000 RMK SC4AC2 SLP179

CYWG;2009-12-27 20:00;CYWG 272000Z 30010KT 15SM SCT018 BKN087 M08/M11 A2998 RMK SC3AC4 SLP172

CYWG;2009-12-27 21:00;CYWG 272100Z 29011KT 15SM FEW020 BKN079 M07/M10 A2998 RMK SC2AC6 SLP170

CYWG;2009-12-27 22:00;CYWG 272200Z 29012KT 15SM BKN079 M07/M10 A2997 RMK AC6 SLP168

CYWG;2009-12-27 23:00;CYWG 272300Z 30013KT 15SM SCT081 M08/M11 A2999 RMK AC3 SLP174

CYWG;2009-12-28 00:00;CYWG 280000Z 32013KT 15SM FEW080 M10/M12 A3001 RMK AC2 SLP181

CYWG;2009-12-28 01:00;CYWG 280100Z 31010KT 15SM BKN045 M09/M11 A3003 RMK SC6 SLP189

CYWG;2009-12-28 02:00;CYWG 280200Z 33014KT 15SM BKN041 M08/M10 A3004 RMK SC7 SLP193

CYWG;2009-12-28 03:00;CYWG 280300Z 01018KT 15SM BKN017 OVC025 M08/M10 A3007 RMK SC5SC3 SLP200

CYWG;2009-12-28 03:44;CYWG 280344Z 36019G27KT 15SM -SN OVC015 M08/ RMK SC7

CYWG;2009-12-28 04:00;CYWG 280400Z 36018G26KT 10SM -SN OVC015 M08/M11 A3011 RMK SC8 SLP214

CYWG;2009-12-28 05:00;CYWG 280500Z 36018KT 8SM -SN BKN015 OVC024 M09/M11 A3014 RMK SC6SC2 SLP223

CYWG;2009-12-28 06:00;CYWG 280600Z 36014KT 15SM SCT029 M10/M12 A3018 RMK SC1 SLP238

CYWG;2009-12-28 07:00;CYWG 280700Z 34011KT 15SM -SN BKN015 M10/M13 A3020 RMK SC3 SLP245

CYWG;2009-12-28 08:00;CYWG 280800Z 34008KT 5SM -SN BKN021 M10/M12 A3022 RMK SC6 SLP251

CYWG;2009-12-28 09:00;CYWG 280900Z 36010G16KT 15SM FEW015 M11/M13 A3025 RMK SC2 SLP263

CYWG;2009-12-28 10:00;CYWG 281000Z 36009G16KT 15SM BKN010 M13/M15 A3029 RMK SC4 SLP276

CYWG;2009-12-28 11:00;CYWG 281100Z 36019G24KT 15SM SCT009 M15/M17 A3032 RMK SC2 SLP286

CYWG;2009-12-28 12:00;CYWG 281200Z 35009KT 15SM FEW007 M17/M18 A3035 RMK ST1 SLP301

CYWG;2009-12-28 13:00;CYWG 281300Z 35011KT 15SM FEW004 M18/M19 A3038 RMK ST1 SLP311

CYWG;2009-12-28 14:00;CYWG 281400Z 32007KT 15SM FEW007 M20/M21 A3041 RMK ST1 IC SLP320

CYWG;2009-12-28 15:00;CYWG 281500Z 35012KT 15SM FEW010 M19/M21 A3044 RMK ST1 IC SLP329

CYWG;2009-12-28 16:00;CYWG 281600Z 36010KT 15SM SKC M19/M21 A3046 RMK IC SLP337

CYWG;2009-12-28 17:00;CYWG 281700Z 35011KT 15SM SKC M19/M21 A3048 RMK IC SLP345

CYWG;2009-12-28 18:00;CYWG 281800Z 34011KT 15SM SKC M18/M20 A3047 RMK IC SLP342

CYWG;2009-12-28 19:00;CYWG 281900Z 35007KT 15SM SKC M18/M20 A3046 RMK IC SLP337

CYWG;2009-12-28 20:00;CYWG 282000Z 31005KT 15SM SKC M17/M20 A3046 RMK SLP337

CYWG;2009-12-28 21:00;CYWG 282100Z 30008KT 15SM FEW240 M18/M21 A3047 RMK CI0 SLP340

CYWG;2009-12-28 22:00;CYWG 282200Z 28006KT 15SM FEW100 FEW240 M19/M21 A3046 RMK AC1CI0 AC TR SLP337

CYWG;2009-12-28 23:00;CYWG 282300Z 26004KT 15SM FEW100 FEW240 M19/M22 A3045 RMK AC1CI0 SLP336

CYWG;2009-12-29 00:00;CYWG 290000Z 27005KT 15SM SKC M20/M22 A3044 RMK SLP336

CYWG;2009-12-29 01:00;CYWG 290100Z 28006KT 15SM SKC M21/M21 A3044 RMK SLP335

CYWG;2009-12-29 02:00;CYWG 290200Z 27002KT 15SM SKC M22/M22 A3043 RMK SLP331

CYWG;2009-12-29 03:00;CYWG 290300Z 25006KT 15SM SKC M21/M22 A3042 RMK SLP331

CYWG;2009-12-29 04:00;CYWG 290400Z 00000KT 15SM SKC M22/M22 A3040 RMK SLP324

CYWG;2009-12-29 05:00;CYWG 290500Z 23005KT 15SM SCT220 M24/M24 A3040 RMK CI0 SLP324

CYWG;2009-12-29 06:00;CYWG 290600Z 21005KT 15SM FEW120 BKN220 M21/M22 A3038 RMK AC2CI1 SLP317

CYWG;2009-12-29 07:00;CYWG 290700Z 20004KT 15SM BKN220 M20/M21 A3037 RMK CI2 SLP311

CYWG;2009-12-29 08:00;CYWG 290800Z 18005KT 15SM BKN220 M21/M21 A3035 RMK CI0 SLP304

CYWG;2009-12-29 09:00;CYWG 290900Z 17007KT 15SM BKN220 M21/M22 A3032 RMK CI0 SLP293

CYWG;2009-12-29 10:00;CYWG 291000Z 18010KT 15SM SCT220 M20/M21 A3029 RMK CI0 SLP285

CYWG;2009-12-29 11:00;CYWG 291100Z 18012KT 15SM OVC220 M20/M20 A3026 RMK CI5 SLP276

CYWG;2009-12-29 12:00;CYWG 291200Z 17009KT 15SM FEW120 OVC220 M20/M21 A3023 RMK AC1CI4 SLP265

CYWG;2009-12-29 13:00;CYWG 291300Z 17011KT 15SM FEW120 OVC220 M19/M20 A3021 RMK AC2CI4 SLP257

CYWG;2009-12-29 14:00;CYWG 291400Z 16012KT 15SM FEW120 BKN220 M19/M20 A3016 RMK AC2CI3 SLP243

CYWG;2009-12-29 15:00;CYWG 291500Z 16017KT 15SM FEW120 BKN220 M18/M19 A3012 RMK AC2CI2 SLP227

CYWG;2009-12-29 16:00;CYWG 291600Z 16014G21KT 15SM BKN025 BKN051 OVC120 M17/M18 A3010 RMK SC6SC2AC1 SLP219

CYWG;2009-12-29 17:00;CYWG 291700Z 17017G24KT 15SM SCT021 BKN042 OVC120 M15/M17 A3006 RMK SC3SC2AC3 SLP205

CYWG;2009-12-29 18:00;CYWG 291800Z 18022KT 15SM SCT021 BKN064 BKN120 M14/M16 A3001 RMK SC3SC2AC2 SLP188

CYWG;2009-12-29 19:00;CYWG 291900Z 18016G25KT 15SM BKN062 OVC120 M13/M15 A2997 RMK SC7AC1 SLP174

CYWG;2009-12-29 20:00;CYWG 292000Z 18019G24KT 10SM FEW069 M13/M15 A2993 RMK AC2 SLP160

CYWG;2009-12-29 21:00;CYWG 292100Z 18017KT 4SM BR FEW240 M14/M15 A2990 RMK CI0 SLP149

CYWG;2009-12-29 22:00;CYWG 292200Z 18018KT 8SM FEW240 M14/M16 A2988 RMK CI1 SLP142

CYWG;2009-12-29 23:00;CYWG 292300Z 18020KT 6SM BR FEW240 M15/M16 A2987 RMK CI1 SLP138

CYWG;2009-12-30 00:00;CYWG 300000Z 18014G19KT 6SM BR FEW240 M15/M16 A2984 RMK CI1 SLP128

CYWG;2009-12-30 01:00;CYWG 300100Z 18016KT 10SM SKC M15/M17 A2982 RMK SLP122

CYWG;2009-12-30 02:00;CYWG 300200Z 18016KT 15SM SKC M15/M17 A2980 RMK SLP117

CYWG;2009-12-30 03:00;CYWG 300300Z 19014KT 15SM SKC M15/M17 A2979 RMK SLP110

CYWG;2009-12-30 04:00;CYWG 300400Z 19013KT 15SM SCT230 M16/M17 A2977 RMK CI0 SLP105

CYWG;2009-12-30 05:00;CYWG 300500Z 19011KT 15SM SKC M16/M17 A2977 RMK SLP104

CYWG;2009-12-30 06:00;CYWG 300600Z 20010KT 15SM SKC M16/M17 A2976 RMK SLP100

CYWG;2009-12-30 07:00;CYWG 300700Z 21008KT 15SM SKC M16/M17 A2975 RMK SLP096

CYWG;2009-12-30 08:00;CYWG 300800Z 25009KT 15SM SKC M16/M17 A2974 RMK SLP095

CYWG;2009-12-30 09:00;CYWG 300900Z 27008KT 10SM -SN OVC024 M15/M16 A2975 RMK SC8 SLP097

CYWG;2009-12-30 10:00;CYWG 301000Z 29013KT 5SM -SN OVC018 M13/M15 A2976 RMK SC8 SLP100

CYWG;2009-12-30 11:00;CYWG 301100Z 30011KT 8SM -SN OVC010 M14/M15 A2976 RMK SC7 SLP099

CYWG;2009-12-30 11:32;CYWG 301132Z 31015KT 10SM -SN OVC019 M14/ RMK SC8

CYWG;2009-12-30 12:00;CYWG 301200Z 31014G19KT 10SM -SN OVC017 M14/M15 A2977 RMK SC8 SLP101

CYWG;2009-12-30 13:00;CYWG 301300Z 31011KT 10SM -SN SCT023 OVC031 M13/M15 A2977 RMK SC4SC4 SLP104

CYWG;2009-12-30 14:00;CYWG 301400Z 31010G16KT 5SM -SN SCT021 OVC035 M13/M15 A2978 RMK SC3SC5 SLP107

CYWG;2009-12-30 14:40;CYWG 301440Z 31011KT 1 3/4SM -SN SCT015 OVC037 M13/ RMK SN2SC2SC4

CYWG;2009-12-30 15:00;CYWG 301500Z 31010KT 2SM -SN SCT015 OVC035 M13/M14 A2980 RMK SN2SC2SC4 SLP112

CYWG;2009-12-30 16:00;CYWG 301600Z 30012KT 1 3/4SM -SN BKN017 OVC035 M13/M14 A2981 RMK SN2SC5SC2 SLP116

CYWG;2009-12-30 17:00;CYWG 301700Z 30014KT 2SM -SN BR SCT017 OVC030 M13/M14 A2982 RMK FG2SC2SC4 VBY N 11/2 SLP119

CYWG;2009-12-30 18:00;CYWG 301800Z 30013KT 2SM -SN BR SCT017 OVC036 M13/M14 A2982 RMK FG1SC2SC4 VBY N 11/2 SLP119

CYWG;2009-12-30 19:00;CYWG 301900Z 31014KT 4SM -SN BR FEW015 OVC036 M12/M14 A2981 RMK SC2SC5 SLP118

CYWG;2009-12-30 20:00;CYWG 302000Z 30016KT 8SM -SN FEW015 OVC041 M12/M14 A2981 RMK SF2SC6 SLP118

CYWG;2009-12-30 21:00;CYWG 302100Z 31014KT 8SM -SN OVC043 M12/M14 A2983 RMK SC8 SLP121

CYWG;2009-12-30 22:00;CYWG 302200Z CCA 31013KT 8SM -SN OVC043 M12/M14 A2984 RMK SC8 SLP127

CYWG;2009-12-30 23:00;CYWG 302300Z 31014KT 10SM -SN OVC045 M13/M15 A2986 RMK SC8 SLP131

CYWG;2009-12-31 00:00;CYWG 310000Z 32014KT 12SM -SN FEW015 OVC045 M13/M15 A2987 RMK SF1SC7 SLP138

CYWG;2009-12-31 01:00;CYWG 310100Z 32015KT 8SM -SN OVC045 M13/M15 A2990 RMK SC8 SLP146

CYWG;2009-12-31 02:00;CYWG 310200Z 33017KT 8SM -SN FEW020 OVC051 M14/M16 A2992 RMK SC2SC6 SLP153

CYWG;2009-12-31 03:00;CYWG 310300Z 35014KT 8SM -SN FEW020 OVC055 M15/M17 A2994 RMK SF1SC7 SLP160

CYWG;2009-12-31 04:00;CYWG 310400Z 34012KT 6SM -SN FEW020 OVC063 M15/M17 A2996 RMK SF1SC7 SLP168

CYWG;2009-12-31 05:00;CYWG 310500Z 34014KT 15SM -SN OVC067 M16/M18 A2999 RMK AC8 SLP176

CYWG;2009-12-31 06:00;CYWG 310600Z 34013KT 15SM SCT067 M19/M21 A3003 RMK AC2 SLP192

CYWG;2009-12-31 07:00;CYWG 310700Z 32015KT 15SM FEW070 M20/M21 A3005 RMK AC2 SLP199

CYWG;2009-12-31 08:00;CYWG 310800Z 33011KT 15SM SKC M21/M22 A3007 RMK SLP207

CYWG;2009-12-31 09:00;CYWG 310900Z 33007KT 15SM SKC M22/M23 A3011 RMK SLP221

CYWG;2009-12-31 10:00;CYWG 311000Z 32010KT 15SM SKC M23/M24 A3012 RMK SLP225

CYWG;2009-12-31 11:00;CYWG 311100Z 30009KT 15SM SKC M24/M25 A3015 RMK SLP235

CYWG;2009-12-31 12:00;CYWG 311200Z 31006KT 15SM SKC M25/M26 A3018 RMK SLP246

CYWG;2009-12-31 13:00;CYWG 311300Z 31010KT 15SM SKC M26/M27 A3020 RMK SLP254

CYWG;2009-12-31 14:00;CYWG 311400Z 30007KT 15SM FEW230 M28/M28 A3022 RMK CI0 SLP259

CYWG;2009-12-31 15:00;CYWG 311500Z 30006KT 15SM FEW230 M27/M28 A3023 RMK CI0 SLP266

CYWG;2009-12-31 16:00;CYWG 311600Z 30007KT 15SM SCT230 M25/M26 A3026 RMK CI0 SLP275

CYWG;2009-12-31 17:00;CYWG 311700Z 28004KT 15SM BKN230 M24/M25 A3028 RMK CI1 SLP281

CYWG;2009-12-31 18:00;CYWG 311800Z 29008KT 15SM SCT230 M22/M24 A3028 RMK CI1 SLP281

CYWG;2009-12-31 19:00;CYWG 311900Z 29006KT 15SM BKN230 M21/M23 A3028 RMK CI1 SLP280

CYWG;2009-12-31 20:00;CYWG 312000Z 28007KT 15SM BKN230 M20/M22 A3028 RMK CI3 CC ASOCTD SLP281

CYWG;2009-12-31 21:00;CYWG 312100Z 28007KT 15SM BKN200 M20/M22 A3029 RMK CI5 SLP285

CYWG;2009-12-31 22:00;CYWG 312200Z 26006KT 15SM BKN080 OVC200 M20/M22 A3029 RMK AS2CI4 SLP287

CYWG;2009-12-31 23:00;CYWG 312300Z 26005KT 15SM SCT080 BKN210 M21/M22 A3031 RMK AC3CI3 SLP291

