CYWG;2007-01-01 01:00;CYWG 010100Z 30010KT 15SM SKC M16/M18 A2999 RMK SLP175

CYWG;2007-01-01 02:00;CYWG 010200Z 29007KT 15SM SKC M14/M16 A3000 RMK SLP179

CYWG;2007-01-01 03:00;CYWG 010300Z 28011KT 15SM SKC M14/M16 A2999 RMK SLP176

CYWG;2007-01-01 04:00;CYWG 010400Z 28010KT 15SM SKC M15/M17 A3000 RMK SLP178

CYWG;2007-01-01 05:00;CYWG 010500Z 28013KT 15SM SKC M14/M15 A3001 RMK SLP181

CYWG;2007-01-01 06:00;CYWG 010600Z 29011KT 15SM SKC M16/M17 A3001 RMK SLP185

CYWG;2007-01-01 07:00;CYWG 010700Z 28008KT 15SM SKC M17/M19 A3002 RMK SLP186

CYWG;2007-01-01 08:00;CYWG 010800Z 28008KT 15SM SKC M19/M20 A3003 RMK SLP190

CYWG;2007-01-01 09:00;CYWG 010900Z 28009KT 15SM SKC M18/M19 A3005 RMK SLP197

CYWG;2007-01-01 10:00;CYWG 011000Z 27006KT 15SM SKC M18/M20 A3005 RMK SLP198

CYWG;2007-01-01 11:00;CYWG 011100Z 27006KT 15SM SKC M18/M19 A3005 RMK SLP199

CYWG;2007-01-01 12:00;CYWG 011200Z 27006KT 15SM SKC M15/M16 A3006 RMK SLP201

CYWG;2007-01-01 13:00;CYWG 011300Z 25004KT 15SM SKC M15/M17 A3006 RMK SLP203

CYWG;2007-01-01 14:00;CYWG 011400Z 22005KT 15SM SKC M15/M18 A3006 RMK SLP203

CYWG;2007-01-01 15:00;CYWG 011500Z 18007KT 15SM FEW210 M18/M21 A3007 RMK CI0 SLP206

CYWG;2007-01-01 16:00;CYWG 011600Z 19004KT 15SM FEW210 M16/M20 A3008 RMK CI1 SLP209

CYWG;2007-01-01 17:00;CYWG 011700Z 21007KT 15SM FEW210 M14/M18 A3008 RMK CI1 SLP210

CYWG;2007-01-01 18:00;CYWG 011800Z 21006KT 15SM FEW210 M11/M15 A3006 RMK CI1 SLP201

CYWG;2007-01-01 19:00;CYWG 011900Z 21006KT 15SM FEW210 M11/M15 A3006 RMK CI0 SLP200

CYWG;2007-01-01 20:00;CYWG 012000Z 20009KT 15SM FEW210 M10/M14 A3005 RMK CI0 SLP199

CYWG;2007-01-01 21:00;CYWG 012100Z 19009KT 15SM FEW210 M09/M14 A3005 RMK CI1 SLP198

CYWG;2007-01-01 22:00;CYWG 012200Z 19008KT 15SM FEW210 M11/M14 A3005 RMK CI1 SLP197

CYWG;2007-01-01 23:00;CYWG 012300Z 19008KT 15SM FEW210 M13/M16 A3006 RMK CI1 SLP201

CYWG;2007-01-02 00:00;CYWG 020000Z 18008KT 15SM SKC M15/M17 A3004 RMK SLP194

CYWG;2007-01-02 01:00;CYWG 020100Z 20010KT 15SM SKC M13/M16 A3003 RMK SLP192

CYWG;2007-01-02 02:00;CYWG 020200Z 18008KT 15SM SKC M15/M17 A3002 RMK SLP189

CYWG;2007-01-02 03:00;CYWG 020300Z 19011KT 15SM SKC M13/M16 A3000 RMK SLP182

CYWG;2007-01-02 04:00;CYWG 020400Z 18008KT 15SM SKC M14/M16 A2999 RMK SLP178

CYWG;2007-01-02 05:00;CYWG 020500Z 19009KT 15SM SKC M14/M16 A2998 RMK SLP177

CYWG;2007-01-02 06:00;CYWG 020600Z 19012KT 15SM SKC M14/M16 A2995 RMK SLP163

CYWG;2007-01-02 07:00;CYWG 020700Z 19013KT 15SM SKC M14/M16 A2993 RMK SLP157

CYWG;2007-01-02 08:00;CYWG 020800Z 18013KT 15SM SKC M14/M16 A2990 RMK SLP145

CYWG;2007-01-02 09:00;CYWG 020900Z 19014KT 15SM SKC M13/M15 A2989 RMK SLP141

CYWG;2007-01-02 10:00;CYWG 021000Z 18013KT 15SM SKC M13/M15 A2987 RMK SLP133

CYWG;2007-01-02 11:00;CYWG 021100Z 19017KT 15SM BKN240 M12/M14 A2984 RMK CI3 SLP124

CYWG;2007-01-02 12:00;CYWG 021200Z 19018KT 15SM DRSN FEW100 BKN240 M12/M14 A2979 RMK AC2CI2 SLP108

CYWG;2007-01-02 13:00;CYWG 021300Z 18018G24KT 15SM DRSN SCT100 BKN240 M11/M13 A2975 RMK AC3CI2 SLP095

CYWG;2007-01-02 14:00;CYWG 021400Z 19021G26KT 15SM DRSN SCT100 BKN240 M11/M13 A2971 RMK AC3CI2 SLP084

CYWG;2007-01-02 15:00;CYWG 021500Z 19020KT 15SM DRSN SCT100 BKN240 M10/M12 A2969 RMK AC3CI2 SLP073

CYWG;2007-01-02 16:00;CYWG 021600Z 19019KT 15SM DRSN SCT100 BKN240 M10/M12 A2969 RMK AC3CI2 SLP075

CYWG;2007-01-02 17:00;CYWG 021700Z 19017G22KT 15SM DRSN FEW100 BKN240 M09/M12 A2966 RMK AC2CI1 SLP063

CYWG;2007-01-02 18:00;CYWG 021800Z 20017KT 15SM DRSN SCT100 BKN240 M07/M10 A2963 RMK AC3CI2 SLP052

CYWG;2007-01-02 19:00;CYWG 021900Z 21020G25KT 15SM DRSN SCT100 BKN240 M06/M09 A2957 RMK AC3CI2 PRESFR SLP032

CYWG;2007-01-02 20:00;CYWG 022000Z 20017KT 15SM DRSN SCT075 BKN095 BKN240 M06/M09 A2956 RMK AC4AC2CI1 SLP028

CYWG;2007-01-02 20:53;CYWG 022053Z 20011G16KT 15SM DRSN -FZRA BKN033 OVC071 M05/ RMK SC5AC3

CYWG;2007-01-02 21:00;CYWG 022100Z 20011G16KT 15SM DRSN -FZRA BKN033 OVC071 M05/M08 A2957 RMK SC5AC3 SLP029

CYWG;2007-01-02 21:50;CYWG 022150Z 20013KT 15SM SCT031 BKN094 BKN240 M03/ REFZRA RMK SC3AC2CI2

CYWG;2007-01-02 22:00;CYWG 022200Z 20011G17KT 15SM FEW020 BKN094 BKN110 M03/M06 A2955 RMK SC1AC4AC2 REFZRA SLP024

CYWG;2007-01-02 23:00;CYWG 022300Z 20009KT 15SM SCT053 BKN087 M03/M06 A2956 RMK SC2AC5 SLP027

CYWG;2007-01-03 00:00;CYWG 030000Z 20011KT 15SM BKN085 M04/M06 A2956 RMK AC6 SLP025

CYWG;2007-01-03 01:00;CYWG 030100Z 19009KT 15SM BKN085 M04/M06 A2954 RMK AC4 SLP019

CYWG;2007-01-03 02:00;CYWG 030200Z 20011KT 15SM SCT085 M05/M07 A2954 RMK AC2 SLP019

CYWG;2007-01-03 03:00;CYWG 030300Z 18009KT 15SM FEW085 M06/M08 A2952 RMK AC1 SLP013

CYWG;2007-01-03 04:00;CYWG 030400Z 20012KT 15SM SKC M05/M07 A2951 RMK SLP011

CYWG;2007-01-03 05:00;CYWG 030500Z 19009KT 15SM SCT240 M06/M08 A2951 RMK CI2 SLP009

CYWG;2007-01-03 06:00;CYWG 030600Z 18010KT 15SM SCT240 M06/M08 A2950 RMK CI2 SLP004

CYWG;2007-01-03 07:00;CYWG 030700Z 19013KT 15SM FEW100 BKN240 M05/M07 A2948 RMK AC2CI1 SLP998

CYWG;2007-01-03 08:00;CYWG 030800Z 19012KT 15SM SCT100 BKN240 M04/M06 A2948 RMK AC3CI1 SLP998

CYWG;2007-01-03 09:00;CYWG 030900Z 19010KT 15SM SCT100 BKN240 M04/M06 A2945 RMK AC3CI1 SLP988

CYWG;2007-01-03 10:00;CYWG 031000Z 18015KT 15SM SCT100 BKN240 M04/M06 A2941 RMK AC3CI2 SLP975

CYWG;2007-01-03 11:00;CYWG 031100Z 18017KT 15SM SCT100 BKN240 M03/M05 A2939 RMK AC3CI2 SLP966

CYWG;2007-01-03 12:00;CYWG 031200Z 19018KT 15SM DRSN BKN091 OVC200 M02/M04 A2937 RMK AC6CI2 SLP960

CYWG;2007-01-03 13:00;CYWG 031300Z 18018KT 15SM DRSN SCT068 OVC200 M02/M04 A2934 RMK AC4CS4 MOON DMLY VSBL SLP948

CYWG;2007-01-03 14:00;CYWG 031400Z CCA 19017KT 15SM DRSN FEW068 SCT096 BKN200 M01/M03 A2931 RMK AC2AC2CS3 MOON DMLY VSBL SLP940

CYWG;2007-01-03 15:00;CYWG 031500Z 20017KT 15SM DRSN FEW068 SCT096 BKN200 M01/M03 A2930 RMK AC2AC2CI2 SLP935

CYWG;2007-01-03 16:00;CYWG 031600Z 20017G24KT 15SM SCT090 BKN200 M01/M03 A2930 RMK AC3CI1 SLP936

CYWG;2007-01-03 17:00;CYWG 031700Z 20017KT 15SM DRSN FEW090 BKN230 M00/M03 A2931 RMK AC2CI1 SLP939

CYWG;2007-01-03 17:48;CYWG 031748Z 21013KT 15SM FEW090 BKN230 01/ RMK AC2CI1

CYWG;2007-01-03 18:00;CYWG 031800Z 21012KT 15SM FEW090 SCT250 01/M02 A2928 RMK AC2CI1 SLP927

CYWG;2007-01-03 19:00;CYWG 031900Z 22015KT 15SM FEW100 BKN250 04/M00 A2925 RMK AC1CI2 SLP918

CYWG;2007-01-03 20:00;CYWG 032000Z 22014KT 15SM FEW120 FEW220 05/00 A2925 RMK AC1CI1 SLP919

CYWG;2007-01-03 21:00;CYWG 032100Z 23015KT 15SM FEW120 FEW220 06/00 A2924 RMK AC1CI1 SLP913

CYWG;2007-01-03 22:00;CYWG 032200Z 22018KT 15SM FEW120 FEW220 04/M00 A2925 RMK AC1CI1 SLP917

CYWG;2007-01-03 23:00;CYWG 032300Z 23012KT 15SM FEW220 04/M00 A2928 RMK CI1 SLP927

CYWG;2007-01-04 00:00;CYWG 040000Z 22013KT 15SM FEW220 03/M01 A2931 RMK CI1 SLP935

CYWG;2007-01-04 01:00;CYWG 040100Z 21009KT 15SM FEW220 02/M01 A2932 RMK CI1 SLP938

CYWG;2007-01-04 02:00;CYWG 040200Z 21009KT 15SM FEW220 01/M02 A2932 RMK CI0 SLP939

CYWG;2007-01-04 03:00;CYWG 040300Z 20012KT 15SM FEW210 M00/M03 A2932 RMK CI2 SLP938

CYWG;2007-01-04 04:00;CYWG 040400Z 22016KT 15SM BKN150 01/M02 A2932 RMK AC3 SLP940

CYWG;2007-01-04 05:00;CYWG 040500Z 22016KT 15SM SCT150 BKN240 02/M02 A2932 RMK AC3CI1 SLP941

CYWG;2007-01-04 06:00;CYWG 040600Z 23012KT 15SM SCT150 BKN240 02/M02 A2932 RMK AC3CI2 SLP940

CYWG;2007-01-04 07:00;CYWG 040700Z 23011KT 15SM FEW120 BKN240 02/M02 A2932 RMK AC2CI3 SLP938

CYWG;2007-01-04 08:00;CYWG 040800Z 22011KT 15SM FEW120 BKN240 02/M02 A2932 RMK AC2CI3 SLP938

CYWG;2007-01-04 09:00;CYWG 040900Z 23013KT 15SM FEW120 BKN240 02/M02 A2932 RMK AC2CI2 SLP936

CYWG;2007-01-04 10:00;CYWG 041000Z 24012KT 15SM BKN240 02/M02 A2929 RMK CI2 SLP929

CYWG;2007-01-04 11:00;CYWG 041100Z 25012KT 15SM SCT240 02/M02 A2927 RMK CI2 SLP921

CYWG;2007-01-04 12:00;CYWG 041200Z 24011KT 15SM BKN240 01/M03 A2928 RMK CI2 SLP925

CYWG;2007-01-04 13:00;CYWG 041300Z 24012KT 15SM BKN240 00/M03 A2928 RMK CI4 SLP926

CYWG;2007-01-04 14:00;CYWG 041400Z 25012KT 15SM BKN240 M00/M04 A2929 RMK CI2 SLP927

CYWG;2007-01-04 15:00;CYWG 041500Z 26012KT 15SM FEW240 M00/M04 A2929 RMK CI1 SLP929

CYWG;2007-01-04 16:00;CYWG 041600Z 26012KT 15SM FEW240 M01/M05 A2932 RMK CI0 SLP938

CYWG;2007-01-04 17:00;CYWG 041700Z 27013KT 15SM FEW240 M00/M04 A2932 RMK CI1 SLP939

CYWG;2007-01-04 18:00;CYWG 041800Z 27012KT 15SM FEW170 00/M04 A2932 RMK AC1 SLP938

CYWG;2007-01-04 19:00;CYWG 041900Z 25009KT 15SM FEW170 00/M03 A2932 RMK AC1 SLP937

CYWG;2007-01-04 20:00;CYWG 042000Z 25010KT 15SM SKC 00/M03 A2932 RMK SLP938

CYWG;2007-01-04 21:00;CYWG 042100Z 24007KT 15SM BKN080 01/M03 A2933 RMK AC3 SLP941

CYWG;2007-01-04 22:00;CYWG 042200Z 26007KT 15SM FEW080 M00/M03 A2935 RMK AC2 SLP948

CYWG;2007-01-04 23:00;CYWG 042300Z 24006KT 15SM FEW026 BKN070 M01/M04 A2936 RMK SC2AC2 SLP953

CYWG;2007-01-05 00:00;CYWG 050000Z 25006KT 15SM BKN026 BKN070 00/M02 A2937 RMK SC6AC2 SLP957

CYWG;2007-01-05 01:00;CYWG 050100Z 24006KT 15SM BKN030 00/M02 A2938 RMK SC7 SLP958

CYWG;2007-01-05 02:00;CYWG 050200Z 24007KT 15SM OVC026 01/M01 A2938 RMK SC8 SLP959

CYWG;2007-01-05 03:00;CYWG 050300Z 25008KT 15SM OVC024 01/M01 A2939 RMK SC8 SLP962

CYWG;2007-01-05 04:00;CYWG 050400Z 30009KT 15SM BKN010 OVC030 01/M01 A2940 RMK SC6SC2 SLP967

CYWG;2007-01-05 04:27;CYWG 050427Z 35007KT 15SM -SN OVC014 RMK SC8

CYWG;2007-01-05 05:00;CYWG 050500Z 35003KT 15SM -SN OVC019 00/M01 A2942 RMK SC8 SLP974

CYWG;2007-01-05 05:16;CYWG 050516Z 35002KT 15SM BKN019 OVC038 RMK SC5SC3

CYWG;2007-01-05 06:00;CYWG 050600Z 28005KT 15SM OVC033 M00/M02 A2944 RMK SC8 SLP979

CYWG;2007-01-05 07:00;CYWG 050700Z 30008KT 15SM OVC035 M01/M03 A2945 RMK SC8 SLP984

CYWG;2007-01-05 08:00;CYWG 050800Z 31006KT 15SM FEW027 BKN035 M01/M03 A2948 RMK SC2SC5 SLP992

CYWG;2007-01-05 09:00;CYWG 050900Z 32007KT 15SM SCT023 BKN033 M01/M03 A2950 RMK SC3SC3 SLP001

CYWG;2007-01-05 10:00;CYWG 051000Z 34008KT 15SM BKN026 BKN095 M02/M04 A2952 RMK SC5AC2 SLP007

CYWG;2007-01-05 11:00;CYWG 051100Z 30006KT 15SM SCT027 OVC032 M02/M04 A2954 RMK SC3SC5 SLP013

CYWG;2007-01-05 12:00;CYWG 051200Z 30007KT 15SM -SN OVC022 M02/M04 A2956 RMK SC7 SLP022

CYWG;2007-01-05 13:00;CYWG 051300Z 31006KT 8SM -SN OVC024 M03/M04 A2958 RMK SC8 SLP030

CYWG;2007-01-05 14:00;CYWG 051400Z 30005KT 15SM OVC024 M03/M05 A2959 RMK SC8 SLP033

CYWG;2007-01-05 15:00;CYWG 051500Z 27006KT 15SM BKN017 OVC040 M03/M04 A2963 RMK SC6SC2 SLP045

CYWG;2007-01-05 16:00;CYWG 051600Z 27006KT 15SM BKN015 OVC028 M03/M04 A2965 RMK SC6SC2 SLP054

CYWG;2007-01-05 16:14;CYWG 051614Z 27007KT 15SM FEW008 OVC013 M02/ RMK CF1SC7

CYWG;2007-01-05 16:38;CYWG 051638Z 27005KT 15SM FEW008 SCT013 OVC023 M02/ RMK CF1SC3SC4

CYWG;2007-01-05 17:00;CYWG 051700Z 29005KT 15SM FEW008 SCT014 OVC030 M02/M04 A2967 RMK CF1SC3SC5 SLP059

CYWG;2007-01-05 18:00;CYWG 051800Z 26004KT 15SM FEW008 SCT011 OVC023 M02/M04 A2967 RMK CF1SC2SC5 SLP059

CYWG;2007-01-05 18:17;CYWG 051817Z 26006KT 15SM -SG -FZDZ SCT011 OVC023 M02/ RMK SF3SC5

CYWG;2007-01-05 19:00;CYWG 051900Z 28007KT 15SM -SG -FZDZ FEW008 FEW011 OVC025 M02/M03 A2967 RMK SF1SC2SC6 SLP059

CYWG;2007-01-05 19:28;CYWG 051928Z 29009KT 15SM SCT008 OVC025 M02/ RMK SF3SC5

CYWG;2007-01-05 19:38;CYWG 051938Z CCA 29009KT 15SM SCT008 OVC025 M02/ RMK SF3SC5 REFZDZ

CYWG;2007-01-05 20:00;CYWG 052000Z 30008KT 15SM FEW008 OVC027 M02/M04 A2968 RMK SC2SC6 SLP063

CYWG;2007-01-05 21:00;CYWG 052100Z 31009KT 15SM -SN FEW008 OVC021 M02/M05 A2970 RMK SF1SC7 SLP070

CYWG;2007-01-05 21:49;CYWG 052149Z CCA 31008KT 15SM BKN019 OVC094 M02/ RMK SC6AC2

CYWG;2007-01-05 22:00;CYWG 052200Z 31009KT 15SM BKN019 OVC094 M03/M05 A2973 RMK SC6AC2 SLP079

CYWG;2007-01-05 23:00;CYWG 052300Z 32007KT 15SM BKN027 OVC095 M03/M05 A2975 RMK SC7AC1 SLP088

CYWG;2007-01-06 00:00;CYWG 060000Z 28007KT 15SM BKN027 OVC095 M03/M05 A2976 RMK SC6AC2 SLP091

CYWG;2007-01-06 01:00;CYWG 060100Z 33004KT 15SM BKN023 OVC095 M04/M05 A2977 RMK SC6AC2 SLP096

CYWG;2007-01-06 02:00;CYWG 060200Z 28004KT 15SM BKN025 OVC095 M04/M05 A2979 RMK SC7AC1 SLP100

CYWG;2007-01-06 03:00;CYWG 060300Z 25005KT 15SM BKN021 OVC095 M03/M05 A2978 RMK SC7AC1 SLP099

CYWG;2007-01-06 04:00;CYWG 060400Z 23005KT 15SM BKN024 M03/M05 A2978 RMK SC7 SLP098

CYWG;2007-01-06 05:00;CYWG 060500Z 22007KT 15SM FEW016 SCT030 M03/M05 A2977 RMK SC2SC2 SLP097

CYWG;2007-01-06 06:00;CYWG 060600Z 26007KT 15SM SKC M05/M07 A2977 RMK SLP095

CYWG;2007-01-06 07:00;CYWG 060700Z 25009KT 15SM SKC M07/M09 A2976 RMK SLP091

CYWG;2007-01-06 08:00;CYWG 060800Z 26009KT 15SM SKC M09/M11 A2974 RMK SLP085

CYWG;2007-01-06 09:00;CYWG 060900Z 26008KT 15SM SKC M10/M12 A2974 RMK SLP087

CYWG;2007-01-06 10:00;CYWG 061000Z 25006KT 15SM SKC M11/M13 A2973 RMK SLP083

CYWG;2007-01-06 11:00;CYWG 061100Z 20005KT 15SM SKC M11/M14 A2971 RMK SLP076

CYWG;2007-01-06 12:00;CYWG 061200Z CCA 17011KT 15SM SKC M15/M16 A2969 RMK SLP072

CYWG;2007-01-06 13:00;CYWG 061300Z 18009KT 15SM SKC M15/M17 A2967 RMK SLP065

CYWG;2007-01-06 14:00;CYWG 061400Z 19014KT 15SM SKC M13/M16 A2964 RMK SLP057

CYWG;2007-01-06 15:00;CYWG 061500Z 18013KT 15SM FEW100 FEW260 M12/M15 A2963 RMK AC1CI1 SLP049

CYWG;2007-01-06 16:00;CYWG 061600Z 19017KT 15SM FEW260 M12/M15 A2961 RMK CI1 SLP045

CYWG;2007-01-06 17:00;CYWG 061700Z 18018KT 15SM FEW260 M11/M14 A2960 RMK CI1 SLP040

CYWG;2007-01-06 18:00;CYWG 061800Z 18021KT 15SM FEW260 M09/M12 A2957 RMK CI1 SLP028

CYWG;2007-01-06 19:00;CYWG 061900Z 18020G26KT 15SM SCT260 M08/M11 A2954 RMK CI2 SLP019

CYWG;2007-01-06 20:00;CYWG 062000Z 18021G27KT 15SM BKN260 M07/M09 A2951 RMK CI1 SLP011

CYWG;2007-01-06 21:00;CYWG 062100Z 18022G28KT 15SM FEW090 SCT120 BKN210 M06/M09 A2952 RMK AC1AS4CS3 SLP012

CYWG;2007-01-06 22:00;CYWG 062200Z 18024G29KT 15SM FEW070 BKN090 M06/M09 A2952 RMK AC2AS4 SLP014

CYWG;2007-01-06 23:00;CYWG 062300Z 18021G26KT 15SM OVC070 M06/M08 A2953 RMK AS8 SLP016

CYWG;2007-01-07 00:00;CYWG 070000Z 18022G27KT 15SM OVC062 M05/M08 A2952 RMK SC8 VIRGA ALQDS SLP014

CYWG;2007-01-07 01:00;CYWG 070100Z 18019G24KT 15SM -SN OVC031 M05/M08 A2953 RMK SC8 SLP017

CYWG;2007-01-07 02:00;CYWG 070200Z 19017KT 15SM -SN OVC025 M05/M08 A2954 RMK SC8 SLP021

CYWG;2007-01-07 02:36;CYWG 070236Z 18016KT 15SM OVC023 M04/ RMK SC8 VIRGA ALQDS

CYWG;2007-01-07 03:00;CYWG 070300Z 19019G24KT 6SM -SN OVC016 M04/M07 A2952 RMK SC8 SLP014

CYWG;2007-01-07 03:07;CYWG 070307Z 19019G24KT 2 1/2SM -SN VV006 M04/ RMK SN8

CYWG;2007-01-07 03:12;CYWG 070312Z 19020KT 1SM R13/P6000FT/D R36/P6000FT/D -SN DRSN VV005 M05/ RMK SN8

CYWG;2007-01-07 03:26;CYWG 070326Z 18018G24KT 3/4SM R13/P6000FT/U R36/P6000FT -SN DRSN VV005 M05/ RMK SN8

CYWG;2007-01-07 04:00;CYWG 070400Z 19017KT 1SM R13/P6000FT/D R36/P6000FT/D -SN VV007 M04/M06 A2952 RMK SN8 SLP012

CYWG;2007-01-07 04:33;CYWG 070433Z 18020KT 3SM -SN DRSN BKN011 OVC095 RMK SN2SC3AC2

CYWG;2007-01-07 05:00;CYWG 070500Z 20016G24KT 6SM -SN DRSN FEW013 SCT023 OVC086 M04/M05 A2952 RMK SF1SC3AC3 SLP012

CYWG;2007-01-07 06:00;CYWG 070600Z 20015KT 15SM -SN BKN063 BKN090 M04/M05 A2952 RMK SC5AC2 SLP013

CYWG;2007-01-07 06:22;CYWG 070622Z 19013G19KT 15SM BKN063 BKN098 RMK SC5AC2

CYWG;2007-01-07 07:00;CYWG 070700Z 19011KT 15SM SCT063 BKN097 M04/M05 A2952 RMK SC3AC3 SLP013

CYWG;2007-01-07 08:00;CYWG 070800Z 21009KT 15SM SCT021 BKN060 BKN079 M04/M05 A2954 RMK SC4SC2AC2 SLP020

CYWG;2007-01-07 09:00;CYWG 070900Z 27008KT 15SM -SN OVC019 M04/M06 A2957 RMK SC8 SLP030

CYWG;2007-01-07 10:00;CYWG 071000Z 31016KT 15SM BKN030 OVC061 M05/M06 A2961 RMK SC5SC3 SLP042

CYWG;2007-01-07 11:00;CYWG 071100Z 31022G27KT 15SM DRSN FEW005 OVC041 M06/M07 A2964 RMK SF1SC7 SLP052

CYWG;2007-01-07 11:15;CYWG 071115Z 31023KT 3SM -SN DRSN OVC046 RMK SC8

CYWG;2007-01-07 11:31;CYWG 071131Z 32021G29KT 2SM -SN BLSN OVC043 RMK SC8

CYWG;2007-01-07 12:00;CYWG 071200Z 32021G26KT 2SM -SN BLSN FEW012 OVC043 M07/M08 A2968 RMK SF2SC6 SLP065

CYWG;2007-01-07 12:25;CYWG 071225Z 31020G25KT 4SM -SN DRSN FEW012 OVC045 M07/ RMK SF2SC6

CYWG;2007-01-07 13:00;CYWG 071300Z 31018KT 4SM -SN DRSN SCT015 OVC041 M07/M09 A2970 RMK SF4SC4 SLP074

CYWG;2007-01-07 13:36;CYWG 071336Z 32020G25KT 5SM -SN DRSN SCT017 OVC041 M08/ RMK SC4SC4

CYWG;2007-01-07 14:00;CYWG 071400Z 32023KT 15SM DRSN FEW017 OVC032 M08/M10 A2973 RMK SF2SC6 SLP081

CYWG;2007-01-07 15:00;CYWG 071500Z 32019G24KT 15SM BKN041 M07/M10 A2974 RMK SC7 SLP087

CYWG;2007-01-07 16:00;CYWG 071600Z 31020KT 15SM FEW015 BKN061 M07/M10 A2977 RMK SC2SC4 SLP096

CYWG;2007-01-07 17:00;CYWG 071700Z 32016KT 15SM SCT017 BKN250 M07/M09 A2977 RMK SC3CI0 SLP096

CYWG;2007-01-07 18:00;CYWG 071800Z 31016KT 15SM SCT018 BKN250 M06/M09 A2977 RMK SC3CI1 SLP096

CYWG;2007-01-07 19:00;CYWG 071900Z 31014KT 15SM FEW025 BKN250 M06/M10 A2976 RMK SC2CI2 SLP093

CYWG;2007-01-07 20:00;CYWG 072000Z 30011KT 15SM BKN250 M07/M11 A2975 RMK CI2 SLP089

CYWG;2007-01-07 21:00;CYWG 072100Z 31011KT 15SM FEW250 M07/M11 A2975 RMK CI0 SLP091

CYWG;2007-01-07 22:00;CYWG 072200Z 28008KT 15SM FEW250 M10/M13 A2977 RMK CI0 SLP096

CYWG;2007-01-07 23:00;CYWG 072300Z 28007KT 15SM BKN049 M11/M14 A2977 RMK SC6 SLP095

CYWG;2007-01-08 00:00;CYWG 080000Z 27005KT 15SM FEW045 M10/M12 A2975 RMK SC1 SLP092

CYWG;2007-01-08 01:00;CYWG 080100Z 27008KT 15SM SKC M10/M12 A2974 RMK SLP088

CYWG;2007-01-08 02:00;CYWG 080200Z 27007KT 15SM FEW110 M11/M13 A2972 RMK AC1 SLP082

CYWG;2007-01-08 03:00;CYWG 080300Z 26008KT 15SM FEW110 M11/M13 A2970 RMK AC1 SLP077

CYWG;2007-01-08 04:00;CYWG 080400Z 28007KT 15SM FEW110 M13/M14 A2970 RMK AC1 SLP075

CYWG;2007-01-08 05:00;CYWG 080500Z 28009KT 15SM FEW098 M17/M18 A2970 RMK AC1 SLP076

CYWG;2007-01-08 06:00;CYWG 080600Z 30004KT 12SM BKN110 M18/M19 A2968 RMK AC2 SLP071

CYWG;2007-01-08 07:00;CYWG 080700Z 27003KT 12SM FEW110 M19/M21 A2968 RMK AC0 SLP070

CYWG;2007-01-08 07:32;CYWG 080732Z 29003KT 8SM FEW110 M19/ RMK AC0 BR FROIN

CYWG;2007-01-08 08:00;CYWG 080800Z 30002KT 8SM MIFG FEW110 M20/M21 A2968 RMK AC0 FROIN SLP072

CYWG;2007-01-08 09:00;CYWG 080900Z 02002KT 8SM R13/2400FT/N PRFG SKC M21/M22 A2970 RMK FROIN PRFG DUE EXHAUST SLP078

CYWG;2007-01-08 10:00;CYWG 081000Z 00000KT 7SM PRFG FEW005 M20/M22 A2970 RMK SF1 IC FROIN FG DUE ARPT VEHICLES SLP081

CYWG;2007-01-08 10:50;CYWG 081050Z 01002KT 3SM BR BKN002 M23/ RMK SF2 IC

CYWG;2007-01-08 11:00;CYWG 081100Z 02002KT 3SM R13/3000VP6000FT/D BR BKN001 M23/M24 A2971 RMK SF2 FROIN IC SLP084

CYWG;2007-01-08 11:15;CYWG 081115Z 04002KT 1SM R13/1200V1800FT/N R36/2400FT/N BR BKN001 M21/ RMK SF3 IC FROIN

CYWG;2007-01-08 12:00;CYWG 081200Z CCA 03004KT 1SM R13/2600FT/N R36/2800VP6000FT/U IC BR SKC M20/M21 A2973 RMK FG6 FROIN SLP089

CYWG;2007-01-08 13:00;CYWG 081300Z 03002KT 1SM R13/2000FT/N R36/2600FT/N IC BR BKN002 BKN030 M19/M20 A2975 RMK FG4ST1SC2 FROIN SLP097

CYWG;2007-01-08 13:25;CYWG 081325Z 00000KT 2 1/2SM R13/2000FT/N IC BR BKN004 BKN030 M20/ RMK FG2ST3SC1

CYWG;2007-01-08 14:00;CYWG 081400Z 32002KT 2 1/2SM IC BR BKN004 BKN026 M21/M25 A2977 RMK FG2ST4SC1 SLP103

CYWG;2007-01-08 14:33;CYWG 081433Z 30002KT 2SM IC BR OVC002 M19/ RMK FG3ST5 VIS 3/4 NW-NE

CYWG;2007-01-08 15:00;CYWG 081500Z 00000KT 2SM IC BR BKN001 BKN025 M19/M23 A2979 RMK FG2ST3SC2 FROIN VIS 3/4 NW-NE SLP110

CYWG;2007-01-08 15:34;CYWG 081534Z 30002KT 1 1/2SM R13/2800VP6000FT/N R36/3000VP6000FT/N -SN BR BKN002 OVC025 M17/ RMK FG2ST3SC2

CYWG;2007-01-08 16:00;CYWG 081600Z 28005KT 4SM -SN BR FEW002 BKN024 M16/M19 A2982 RMK FG2ST1SC4 FROIN VIS LWR NW-NE BARO +12 SLP120

CYWG;2007-01-08 17:00;CYWG 081700Z 27006KT 3SM -SN BR BKN024 M16/M19 A2984 RMK FG2SC6 VIS LWR NW-NE SLP128

CYWG;2007-01-08 18:00;CYWG 081800Z 26004KT 6SM IC BR BKN025 M16/M18 A2986 RMK FG1SC3 VIS LWR NE-SE SLP134

CYWG;2007-01-08 19:00;CYWG 081900Z CCA 30006KT 6SM IC BR BKN035 BKN230 M15/M18 A2987 RMK SC4CI1 VIS LWR NE-SE SLP139

CYWG;2007-01-08 20:00;CYWG 082000Z 30005KT 6SM R36/3500FT/N -SN BR FEW005 BKN022 OVC230 M14/M16 A2989 RMK SF2SC3CI1 SLP145

CYWG;2007-01-08 21:00;CYWG 082100Z 28007KT 15SM FEW005 FEW022 SCT090 BKN230 M14/M17 A2992 RMK SF1SC1AC2CI0 SLP157

CYWG;2007-01-08 22:00;CYWG 082200Z 29007KT 15SM FEW005 FEW022 FEW090 BKN210 M15/M18 A2994 RMK SF1SC1AC2CI0 SLP165

CYWG;2007-01-08 23:00;CYWG 082300Z 27005KT 15SM FEW090 OVC210 M17/M19 A2996 RMK AC1CI0 SLP172

CYWG;2007-01-09 00:00;CYWG 090000Z 28010KT 10SM BKN210 M16/M19 A2998 RMK CI4 BR SLP176

CYWG;2007-01-09 01:00;CYWG 090100Z 28009KT 15SM SCT210 M16/M19 A2999 RMK CI2 SLP180

CYWG;2007-01-09 02:00;CYWG 090200Z 28011KT 15SM FEW210 M16/M19 A3000 RMK CI0 FROIN SLP184

CYWG;2007-01-09 03:00;CYWG 090300Z 30013KT 15SM OVC070 M15/M18 A3003 RMK AC8 FROIN SLP194

CYWG;2007-01-09 04:00;CYWG 090400Z 31014KT 15SM OVC070 M12/M15 A3006 RMK AC8 SLP202

CYWG;2007-01-09 05:00;CYWG 090500Z 34012KT 15SM SCT050 M13/M15 A3009 RMK SC4 SLP214

CYWG;2007-01-09 06:00;CYWG 090600Z 33008KT 15SM SKC M17/M18 A3012 RMK SLP222

CYWG;2007-01-09 07:00;CYWG 090700Z 29007KT 15SM SKC M18/M20 A3012 RMK SLP224

CYWG;2007-01-09 08:00;CYWG 090800Z 29010KT 15SM SKC M20/M21 A3013 RMK SLP228

CYWG;2007-01-09 09:00;CYWG 090900Z 30010KT 15SM SKC M21/M22 A3016 RMK SLP237

CYWG;2007-01-09 10:00;CYWG 091000Z 30011KT 15SM BKN027 M21/M22 A3017 RMK SC3 SLP243

CYWG;2007-01-09 11:00;CYWG 091100Z 28008KT 15SM FEW029 M20/M22 A3018 RMK SC1 SLP244

CYWG;2007-01-09 12:00;CYWG 091200Z 30012KT 15SM SKC M21/M22 A3017 RMK SLP243

CYWG;2007-01-09 13:00;CYWG 091300Z 29008KT 15SM SKC M21/M23 A3019 RMK SLP250

CYWG;2007-01-09 14:00;CYWG 091400Z 29010KT 15SM SKC M23/M24 A3019 RMK SLP251

CYWG;2007-01-09 15:00;CYWG 091500Z 29009KT 15SM FEW100 M23/M24 A3020 RMK AC1 SLP254

CYWG;2007-01-09 16:00;CYWG 091600Z 30007KT 15SM FEW100 M21/M23 A3022 RMK AC1 SLP259

CYWG;2007-01-09 17:00;CYWG 091700Z 31006KT 15SM FEW100 FEW210 M21/M23 A3024 RMK AC1CI0 SLP265

CYWG;2007-01-09 18:00;CYWG 091800Z 27006KT 15SM FEW210 M18/M20 A3024 RMK CI0 SLP264

CYWG;2007-01-09 19:00;CYWG 091900Z 28007KT 15SM FEW210 M17/M18 A3023 RMK CI0 SLP262

CYWG;2007-01-09 20:00;CYWG 092000Z 28005KT 15SM FEW210 M16/M18 A3022 RMK CI0 SLP257

CYWG;2007-01-09 21:00;CYWG 092100Z 27005KT 15SM FEW210 M16/M18 A3022 RMK CI1 SLP259

CYWG;2007-01-09 22:00;CYWG 092200Z 27004KT 15SM FEW210 M15/M18 A3022 RMK CI1 SLP261

CYWG;2007-01-09 23:00;CYWG 092300Z 27004KT 15SM FEW210 M16/M21 A3022 RMK CI1 SLP261

CYWG;2007-01-10 00:00;CYWG 100000Z 22005KT 15SM FEW210 M17/M21 A3022 RMK CI1 SLP259

CYWG;2007-01-10 01:00;CYWG 100100Z 21003KT 15SM FEW210 M18/M22 A3021 RMK CI2 SLP256

CYWG;2007-01-10 02:00;CYWG 100200Z 00000KT 15SM FEW210 M20/M23 A3019 RMK CI2 SLP251

CYWG;2007-01-10 03:00;CYWG 100300Z 17005KT 15SM SKC M20/M24 A3017 RMK SLP244

CYWG;2007-01-10 04:00;CYWG 100400Z 19005KT 15SM BKN200 M19/M23 A3017 RMK CI2 SLP244

CYWG;2007-01-10 05:00;CYWG 100500Z 15004KT 15SM BKN200 M18/M22 A3016 RMK CI3 FROIN SLP242

CYWG;2007-01-10 06:00;CYWG 100600Z 13003KT 15SM OVC200 M18/M21 A3013 RMK CI7 SLP229

CYWG;2007-01-10 07:00;CYWG 100700Z 12006KT 15SM OVC180 M17/M20 A3011 RMK AC8 SLP222

CYWG;2007-01-10 08:00;CYWG 100800Z 12005KT 15SM OVC160 M16/M19 A3009 RMK AC8 SLP214

CYWG;2007-01-10 09:00;CYWG 100900Z 11008KT 15SM OVC079 M15/M19 A3006 RMK AC8 SLP204

CYWG;2007-01-10 10:00;CYWG 101000Z 11008KT 15SM OVC065 M15/M19 A3002 RMK SC8 SLP189

CYWG;2007-01-10 11:00;CYWG 101100Z 12011KT 15SM OVC040 M14/M18 A2999 RMK SC8 SLP180

CYWG;2007-01-10 11:19;CYWG 101119Z 11013KT 15SM -SN OVC029 M14/ RMK SC8

CYWG;2007-01-10 11:52;CYWG 101152Z 12012KT 1 1/2SM -SN VV010 M14/ RMK SN8

CYWG;2007-01-10 12:00;CYWG 101200Z 12013KT 1 1/2SM -SN BLSN VV009 M14/M17 A2994 RMK SN8 SLP163

CYWG;2007-01-10 13:00;CYWG 101300Z 12014G19KT 1 1/2SM -SN BLSN VV010 M14/M16 A2991 RMK SN8 SLP153

CYWG;2007-01-10 13:23;CYWG 101323Z 11014KT 1SM R13/P6000FT/N R36/P6000FT/N -SN BLSN VV005 M14/ RMK SN8

CYWG;2007-01-10 14:00;CYWG 101400Z 11017KT 1 1/2SM -SN BLSN VV007 M13/M16 A2986 RMK SN8 /S01/ SLP136

CYWG;2007-01-10 14:37;CYWG 101437Z 11019KT 3/4SM R13/P6000FT/D R36/P6000FT/D -SN BLSN VV007 M13/ RMK SN8

CYWG;2007-01-10 15:00;CYWG 101500Z 11021KT 3/4SM R13/P6000FT/D R36/P6000FT/D -SN BLSN VV005 M13/M15 A2982 RMK SN8 SLP120

CYWG;2007-01-10 15:31;CYWG 101531Z 10018G24KT 1/2SM R13/5500FT/D R36/5000FT/D SN VV004 M13/ RMK SN8

CYWG;2007-01-10 16:00;CYWG 101600Z 10021KT 3/4SM R13/P6000FT/U R36/P6000FT/U -SN BLSN VV004 M12/M15 A2977 RESN RMK SN8 /S02/ SLP106

CYWG;2007-01-10 16:29;CYWG 101629Z 10021KT 7SM DRSN OVC007 M12/ RMK SC8 CIG RAG

CYWG;2007-01-10 17:00;CYWG 101700Z 10020G25KT 7SM DRSN OVC007 M12/M14 A2975 RMK SC8 CIG RAG SLP097

CYWG;2007-01-10 17:24;CYWG 101724Z 09019G25KT 7SM DRSN OVC085 M11/ RMK AC8

CYWG;2007-01-10 18:00;CYWG 101800Z 10021G26KT 7SM DRSN FEW025 OVC079 M11/M13 A2970 RMK SC1AC7 SLP081

CYWG;2007-01-10 19:00;CYWG 101900Z 10020KT 12SM DRSN OVC091 M10/M13 A2968 RMK AC8 SLP073

CYWG;2007-01-10 20:00;CYWG 102000Z 10020KT 12SM DRSN SCT091 OVC220 M10/M12 A2963 RMK AC3CI1 SLP056

CYWG;2007-01-10 21:00;CYWG 102100Z 10016G21KT 15SM DRSN OVC070 M09/M12 A2962 RMK AC8 SLP049

CYWG;2007-01-10 22:00;CYWG 102200Z 09017G22KT 15SM DRSN OVC048 M09/M12 A2962 RMK SC8 SLP049

CYWG;2007-01-10 23:00;CYWG 102300Z 10015KT 15SM DRSN OVC045 M08/M11 A2964 RMK SC8 SLP058

CYWG;2007-01-10 23:09;CYWG 102309Z 10017KT 15SM DRSN OVC027 M08/ RMK SC8 UA/OV CYWG /TM 2302 /FLDURD /TP SW4 /IC LGT-MDT RIME A040-A035

CYWG;2007-01-11 00:00;CYWG 110000Z 10016KT 15SM DRSN OVC027 M08/M11 A2964 RMK SC8 SLP058

CYWG;2007-01-11 01:00;CYWG 110100Z 10011G20KT 15SM DRSN OVC027 M08/M11 A2964 RMK SC8 SLP057

CYWG;2007-01-11 02:00;CYWG 110200Z 08008KT 15SM DRSN OVC027 M08/M11 A2965 RMK SC8 SLP059

CYWG;2007-01-11 03:00;CYWG 110300Z 09008KT 15SM DRSN OVC025 M08/M11 A2962 RMK SC8 SLP049

CYWG;2007-01-11 03:17;CYWG 110317Z 09010KT 6SM -SN DRSN OVC018 RMK SC8

CYWG;2007-01-11 03:27;CYWG 110327Z 10012KT 1 1/2SM -SN DRSN VV007 M08/ RMK SN8

CYWG;2007-01-11 03:34;CYWG 110334Z 10012KT 1SM R13/P6000FT/D R36/P6000FT/D -SN DRSN VV006 M08/ RMK SN8

CYWG;2007-01-11 03:42;CYWG 110342Z 10013KT 3/4SM R13/P6000FT/D R36/P6000FT/D -SN DRSN VV002 M08/ RMK SN8

CYWG;2007-01-11 04:00;CYWG 110400Z 11010G16KT 2SM -SN DRSN BKN045 OVC078 M08/M10 A2959 RMK SC6AC2 SLP040

CYWG;2007-01-11 04:34;CYWG 110434Z 36008KT 4SM -SN OVC016 M09/ RMK SC8

CYWG;2007-01-11 04:55;CYWG 110455Z 02011KT 15SM OVC016 M09/ RMK SC8

CYWG;2007-01-11 05:00;CYWG 110500Z 02011KT 15SM OVC016 M09/M11 A2967 RMK SC8 SLP065

CYWG;2007-01-11 05:53;CYWG 110553Z 01014KT 4SM -SN DRSN OVC014 M10/ RMK SC8

CYWG;2007-01-11 06:00;CYWG 110600Z 35015KT 4SM -SN DRSN OVC014 M10/M12 A2969 RMK SC8 SLP074

CYWG;2007-01-11 06:54;CYWG 110654Z 02016KT 15SM DRSN OVC014 M11/ RMK SC8

CYWG;2007-01-11 07:00;CYWG 110700Z 02016KT 15SM DRSN OVC014 M11/M13 A2968 RMK SC8 SLP070

CYWG;2007-01-11 08:00;CYWG 110800Z 02012KT 15SM DRSN OVC014 M11/M13 A2969 RMK SC8 SLP073

CYWG;2007-01-11 08:46;CYWG 110846Z 01013KT 6SM -SN DRSN OVC014 M12/ RMK SC8

CYWG;2007-01-11 09:00;CYWG 110900Z 36013KT 3SM -SN DRSN OVC014 M12/M13 A2973 RMK SC8 SLP086

CYWG;2007-01-11 09:17;CYWG 110917Z 36011KT 2SM -SN DRSN BKN005 OVC014 M12/ RMK SN2SF4SC2

CYWG;2007-01-11 09:43;CYWG 110943Z 36015KT 1SM R13/P6000FT/N R36/P6000FT/N -SN DRSN OVC011 M12/ RMK SN3SC5

CYWG;2007-01-11 09:51;CYWG 110951Z 36014G19KT 3/4SM R13/P6000FT/N R36/P6000FT/U -SN BLSN VV008 M12/ RMK SN8

CYWG;2007-01-11 10:00;CYWG 111000Z 36013KT 3/4SM R13/P6000FT/U R36/P6000FT/U -SN BLSN VV008 M12/M14 A2977 RMK SN8 SLP099

CYWG;2007-01-11 10:18;CYWG 111018Z 36012G17KT 3/4SM R13/P6000FT/D R36/P6000FT/D -SN BLSN VV005 M13/ RMK SN8

CYWG;2007-01-11 10:55;CYWG 111055Z 34020KT 3/4SM R13/P6000FT/U -SN BLSN VV006 M14/ RMK SN8

CYWG;2007-01-11 11:00;CYWG 111100Z 34017G22KT 3/4SM R13/P6000FT/U -SN BLSN VV006 M14/M16 A2981 RMK SN8 SLP113

CYWG;2007-01-11 12:00;CYWG 111200Z 33019KT 1 1/2SM -SN BLSN OVC024 M15/M17 A2985 RMK SN2SC6 SLP129

CYWG;2007-01-11 12:32;CYWG 111232Z 33020G25KT 1SM R13/P6000FT/U R36/P6000FT/U -SN BLSN OVC021 M16/ RMK SN3SC5

CYWG;2007-01-11 13:00;CYWG 111300Z 34020KT 1SM R13/P6000FT/D R36/P6000FT/D -SN BLSN OVC021 M16/M18 A2990 RMK SN2SC6 SLP146

CYWG;2007-01-11 14:00;CYWG 111400Z 35021KT 1SM R13/6000FT/D R36/P6000FT/U -SN BLSN OVC035 M17/M19 A2995 RMK SN2SC6 SLP162

CYWG;2007-01-11 14:35;CYWG 111435Z 34022G27KT 3/4SM R31/3500V5000FT/U R36/P6000FT/U -SN BLSN OVC026 RMK SN2SC6

CYWG;2007-01-11 14:38;CYWG 111438Z CCA 34022G27KT 3/4SM R31/3500V5000FT/U R36/P6000FT/U -SN BLSN OVC026 M19/ RMK SN2SC6

CYWG;2007-01-11 15:00;CYWG 111500Z 34022KT 2SM R31/5000FT/U BLSN BKN048 M20/M22 A3002 RMK SN2SC6 VIS HIER E SLP187

CYWG;2007-01-11 15:14;CYWG 111514Z 35021G27KT 1 1/2SM R31/4500VP6000FT/D BLSN BKN048 M21/ RMK SN2SC5

CYWG;2007-01-11 15:37;CYWG 111537Z 35021KT 7SM DRSN SCT050 M21/ RMK SC3 VIS LWR E

CYWG;2007-01-11 16:00;CYWG 111600Z 35019G24KT 12SM DRSN FEW050 SCT210 M21/M27 A3007 RMK SC2CI0 SLP205

CYWG;2007-01-11 17:00;CYWG 111700Z 34022KT 2SM BLSN FEW120 SCT200 M23/M28 A3013 RMK SN2AC1CI1 SLP225

CYWG;2007-01-11 17:44;CYWG 111744Z 34019KT 5SM BLSN FEW120 M23/ RMK AC1

CYWG;2007-01-11 18:00;CYWG 111800Z 35024KT 5SM BLSN SKC M23/M29 A3012 RMK SN2 SLP223

CYWG;2007-01-11 19:00;CYWG 111900Z 36020KT 5SM BLSN FEW210 M23/M29 A3013 RMK SN1CI0 SLP227

CYWG;2007-01-11 20:00;CYWG 112000Z 01016KT 5SM BLSN SCT210 M24/M30 A3016 RMK SN1CI1 SLP238

CYWG;2007-01-11 21:00;CYWG 112100Z 35016KT 10SM DRSN BKN210 M24/M30 A3021 RMK CI2 SLP256

CYWG;2007-01-11 22:00;CYWG 112200Z 35011KT 15SM DRSN BKN210 M25/M30 A3025 RMK CI2 SLP270

CYWG;2007-01-11 23:00;CYWG 112300Z 34011KT 15SM DRSN BKN200 M25/M31 A3028 RMK CI2 SLP280

CYWG;2007-01-12 00:00;CYWG 120000Z 34015KT 15SM DRSN FEW094 BKN200 M26/M32 A3032 RMK AC2CI2 SLP295

CYWG;2007-01-12 01:00;CYWG 120100Z 34014KT 15SM DRSN FEW090 BKN200 M27/M33 A3036 RMK AC1CI1 SLP308

CYWG;2007-01-12 02:00;CYWG 120200Z 35017KT 15SM DRSN FEW200 M28/M33 A3036 RMK CI1 SLP309

CYWG;2007-01-12 03:00;CYWG 120300Z 35015KT 15SM DRSN FEW200 M29/M34 A3038 RMK CI0 SLP320

CYWG;2007-01-12 04:00;CYWG 120400Z 34011KT 15SM SKC M30/M35 A3041 RMK SLP329

CYWG;2007-01-12 05:00;CYWG 120500Z 34011KT 15SM FEW095 M30/M35 A3044 RMK AC1 IC SLP338

CYWG;2007-01-12 06:00;CYWG 120600Z 33009KT 15SM FEW088 M30/M35 A3046 RMK AC0 IC SLP349

CYWG;2007-01-12 07:00;CYWG 120700Z 32010KT 15SM SCT220 M30/M35 A3048 RMK CI1 IC SLP354

CYWG;2007-01-12 08:00;CYWG 120800Z 32011KT 15SM SCT220 M31/M36 A3049 RMK CI2 IC SLP359

CYWG;2007-01-12 09:00;CYWG 120900Z 32011KT 15SM FEW009 M33/M38 A3050 RMK SC1 IC SLP363

CYWG;2007-01-12 10:00;CYWG 121000Z 32008KT 15SM FEW009 M34/M38 A3051 RMK SC1 IC SLP367

CYWG;2007-01-12 10:34;CYWG 121034Z 31007KT 15SM SKC M35/ RMK IC

CYWG;2007-01-12 11:00;CYWG 121100Z 31009KT 15SM FEW033 M35/M40 A3053 RMK SC1 IC SLP374

CYWG;2007-01-12 12:00;CYWG 121200Z 32009KT 15SM FEW033 M35/M40 A3054 RMK SC1 SLP379

CYWG;2007-01-12 13:00;CYWG 121300Z 32007KT 15SM SKC M36/M40 A3055 RMK IC SLP382

CYWG;2007-01-12 14:00;CYWG 121400Z 32004KT 15SM FEW030 FEW200 M37/M41 A3058 RMK SC1CI0 IC SLP391

CYWG;2007-01-12 15:00;CYWG 121500Z 27003KT 15SM FEW030 M36/M40 A3060 RMK SC1 IC SLP400

CYWG;2007-01-12 16:00;CYWG 121600Z 28005KT 15SM FEW020 M35/M39 A3061 RMK SC1 IC SLP405

CYWG;2007-01-12 17:00;CYWG 121700Z 27003KT 15SM R31/3500VP6000FT/N FEW020 M33/M38 A3062 RMK SC1 IC SLP407

CYWG;2007-01-12 18:00;CYWG 121800Z 30003KT 15SM SKC M32/M37 A3061 RMK VSBY E 4SM BR SLP402

CYWG;2007-01-12 19:00;CYWG 121900Z 29004KT 15SM FEW200 M31/M36 A3058 RMK CI0 SLP394

CYWG;2007-01-12 20:00;CYWG 122000Z 28003KT 15SM SKC M30/M35 A3057 RMK SLP389

CYWG;2007-01-12 21:00;CYWG 122100Z 22005KT 15SM SKC M28/M34 A3056 RMK IC SLP386

CYWG;2007-01-12 22:00;CYWG 122200Z 18008KT 15SM SKC M29/M35 A3057 RMK IC SLP389

CYWG;2007-01-12 23:00;CYWG 122300Z 18010KT 15SM SKC M31/M36 A3055 RMK SLP384

CYWG;2007-01-13 00:00;CYWG 130000Z 18011KT 15SM SKC M31/M36 A3055 RMK SLP384

CYWG;2007-01-13 01:00;CYWG 130100Z 18011KT 15SM SKC M31/M36 A3053 RMK SLP378

CYWG;2007-01-13 02:00;CYWG 130200Z 19010KT 15SM SKC M30/M35 A3052 RMK SLP374

CYWG;2007-01-13 03:00;CYWG 130300Z 20013KT 15SM SKC M30/M35 A3051 RMK SLP370

CYWG;2007-01-13 04:00;CYWG 130400Z 19012KT 15SM SKC M29/M34 A3049 RMK SLP364

CYWG;2007-01-13 05:00;CYWG 130500Z 19012KT 15SM SKC M29/M34 A3047 RMK SLP357

CYWG;2007-01-13 06:00;CYWG 130600Z 19014KT 15SM SKC M30/M35 A3045 RMK SLP347

CYWG;2007-01-13 07:00;CYWG 130700Z 19015KT 15SM SKC M28/M34 A3042 RMK SLP339

CYWG;2007-01-13 08:00;CYWG 130800Z 20018KT 15SM SKC M27/M33 A3038 RMK SLP327

CYWG;2007-01-13 09:00;CYWG 130900Z 20015G20KT 15SM SKC M27/M32 A3037 RMK SLP318

CYWG;2007-01-13 10:00;CYWG 131000Z 19014KT 15SM SKC M27/M33 A3035 RMK SLP310

CYWG;2007-01-13 11:00;CYWG 131100Z 19015KT 15SM SKC M26/M32 A3031 RMK SLP297

CYWG;2007-01-13 12:00;CYWG 131200Z 20015G20KT 15SM SKC M26/M31 A3030 RMK SLP295

CYWG;2007-01-13 13:00;CYWG 131300Z 20017KT 15SM SKC M25/M31 A3028 RMK SLP288

CYWG;2007-01-13 14:00;CYWG 131400Z 20017KT 15SM SKC M25/M30 A3026 RMK SLP282

CYWG;2007-01-13 15:00;CYWG 131500Z 20019KT 15SM SKC M24/M30 A3024 RMK SLP272

CYWG;2007-01-13 16:00;CYWG 131600Z 20017KT 15SM SKC M22/M27 A3023 RMK SLP270

CYWG;2007-01-13 17:00;CYWG 131700Z 20017G22KT 15SM SKC M21/M27 A3022 RMK SLP267

CYWG;2007-01-13 18:00;CYWG 131800Z 20018KT 15SM SKC M20/M26 A3019 RMK SLP253

CYWG;2007-01-13 19:00;CYWG 131900Z 21015G21KT 15SM SKC M18/M24 A3016 RMK SLP244

CYWG;2007-01-13 20:00;CYWG 132000Z 21014KT 15SM FEW180 M17/M23 A3015 RMK AC1 SLP241

CYWG;2007-01-13 21:00;CYWG 132100Z 21008KT 15SM FEW120 M16/M22 A3018 RMK AC1 SLP249

CYWG;2007-01-13 22:00;CYWG 132200Z 27007KT 15SM FEW120 M15/M22 A3022 RMK AC1 SLP260

CYWG;2007-01-13 23:00;CYWG 132300Z 30009KT 15SM FEW120 M19/M24 A3025 RMK AC2 SLP270

CYWG;2007-01-13 23:52;CYWG 132352Z 29007KT 15SM -SN SCT059 RMK SC3

CYWG;2007-01-14 00:00;CYWG 140000Z 29007KT 15SM -SN SCT059 M19/M23 A3029 RMK SC4 SLP286

CYWG;2007-01-14 00:29;CYWG 140029Z 04014KT 3SM -SN OVC022 M17/ RMK SN2SC6

CYWG;2007-01-14 01:00;CYWG 140100Z 04013G18KT 6SM DRSN FEW022 OVC067 M17/M21 A3034 RMK SC1AC6 IC SLP303

CYWG;2007-01-14 01:36;CYWG 140136Z 04010KT 15SM FEW022 BKN077 M19/ RMK SC1AC5

CYWG;2007-01-14 02:00;CYWG 140200Z 04008KT 15SM FEW029 BKN092 M19/M24 A3037 RMK SC1AC3 SLP314

CYWG;2007-01-14 03:00;CYWG 140300Z 02016KT 15SM BKN056 M19/M24 A3040 RMK SC4 SLP322

CYWG;2007-01-14 04:00;CYWG 140400Z CCA 03016KT 15SM BKN083 M22/M28 A3045 RMK AC5 PRESRR SLP338

CYWG;2007-01-14 05:00;CYWG 140500Z 03020KT 15SM OVC100 M24/M30 A3049 RMK AC6 PRESRR SLP353

CYWG;2007-01-14 06:00;CYWG 140600Z 03013KT 15SM BKN100 M25/M32 A3051 RMK AC6 SLP364

CYWG;2007-01-14 07:00;CYWG 140700Z 01011KT 15SM BKN100 M26/M33 A3054 RMK AC5 OBS TAKEN +15 SLP371

CYWG;2007-01-14 08:00;CYWG 140800Z 36009KT 15SM SCT100 M26/M33 A3054 RMK AC3 SLP373

CYWG;2007-01-14 09:00;CYWG 140900Z 36011KT 15SM FEW100 SCT240 M27/M33 A3057 RMK AC2CI0 SLP380

CYWG;2007-01-14 10:00;CYWG 141000Z 35009KT 15SM BKN100 BKN240 M27/M33 A3058 RMK AC5CI2 SLP385

CYWG;2007-01-14 11:00;CYWG 141100Z 35009KT 15SM SCT100 BKN240 M26/M32 A3059 RMK AC4CI2 SLP389

CYWG;2007-01-14 12:00;CYWG 141200Z 35009KT 15SM OVC110 M26/M33 A3061 RMK AC8 SLP394

CYWG;2007-01-14 13:00;CYWG 141300Z 35006KT 15SM BKN110 OVC240 M26/M32 A3062 RMK AC7CI0 SLP400

CYWG;2007-01-14 14:00;CYWG 141400Z 34008KT 15SM BKN110 M27/M33 A3063 RMK AC6 SLP402

CYWG;2007-01-14 15:00;CYWG 141500Z 32004KT 15SM FEW110 BKN210 M27/M33 A3064 RMK AC2CI0 SLP408

CYWG;2007-01-14 16:00;CYWG 141600Z 29004KT 15SM BKN210 M27/M33 A3065 RMK CI2 SLP410

CYWG;2007-01-14 17:00;CYWG 141700Z 32004KT 15SM BKN210 M26/M32 A3066 RMK CI5 SLP413

CYWG;2007-01-14 18:00;CYWG 141800Z 31007KT 15SM FEW090 BKN210 M26/M32 A3066 RMK AC2CI4 SLP415

CYWG;2007-01-14 19:00;CYWG 141900Z 30007KT 15SM BKN210 M26/M32 A3064 RMK CI2 SLP410

CYWG;2007-01-14 20:00;CYWG 142000Z 28006KT 15SM BKN210 M26/M32 A3063 RMK CI3 SLP405

CYWG;2007-01-14 21:00;CYWG 142100Z 30006KT 15SM BKN210 M25/M31 A3061 RMK CI3 SLP401

CYWG;2007-01-14 22:00;CYWG 142200Z 27005KT 15SM SCT210 M26/M33 A3061 RMK CI2 SLP400

CYWG;2007-01-14 23:00;CYWG 142300Z 25005KT 15SM SCT210 M26/M32 A3062 RMK CI2 SLP404

CYWG;2007-01-15 00:00;CYWG 150000Z 25004KT 15SM BKN210 M26/M33 A3062 RMK CI3 SLP404

CYWG;2007-01-15 01:00;CYWG 150100Z 27003KT 15SM SKC M29/M34 A3060 RMK SLP397

CYWG;2007-01-15 02:00;CYWG 150200Z 27004KT 15SM SKC M30/M36 A3059 RMK SLP392

CYWG;2007-01-15 03:00;CYWG 150300Z 23003KT 15SM SKC M29/M34 A3058 RMK SLP389

CYWG;2007-01-15 04:00;CYWG 150400Z 23002KT 15SM SKC M28/M32 A3056 RMK SLP385

CYWG;2007-01-15 05:00;CYWG 150500Z 26003KT 15SM SKC M31/M35 A3055 RMK SLP380

CYWG;2007-01-15 06:00;CYWG 150600Z 23003KT 15SM SKC M29/M33 A3055 RMK SLP379

CYWG;2007-01-15 07:00;CYWG 150700Z 21003KT 15SM SKC M28/M33 A3053 RMK SLP373

CYWG;2007-01-15 08:00;CYWG 150800Z 23004KT 15SM SKC M30/M35 A3052 RMK SLP371

CYWG;2007-01-15 09:00;CYWG 150900Z 22004KT 15SM SKC M30/M35 A3051 RMK SLP368

CYWG;2007-01-15 10:00;CYWG 151000Z 22003KT 15SM SKC M29/M34 A3051 RMK SLP365

CYWG;2007-01-15 11:00;CYWG 151100Z 20002KT 15SM SKC M30/M35 A3050 RMK SLP362

CYWG;2007-01-15 12:00;CYWG 151200Z 19002KT 15SM SKC M31/M36 A3050 RMK SLP362

CYWG;2007-01-15 13:00;CYWG 151300Z 24005KT 15SM SKC M32/M36 A3050 RMK SLP362

CYWG;2007-01-15 14:00;CYWG 151400Z 23003KT 15SM SKC M31/M36 A3049 RMK SLP360

CYWG;2007-01-15 15:00;CYWG 151500Z 23005KT 15SM SKC M31/M35 A3049 RMK SLP363

CYWG;2007-01-15 16:00;CYWG 151600Z 00000KT 15SM SKC M28/M33 A3050 RMK SLP365

CYWG;2007-01-15 17:00;CYWG 151700Z 19003KT 15SM SKC M26/M31 A3050 RMK SLP364

CYWG;2007-01-15 18:00;CYWG 151800Z 21004KT 15SM SKC M24/M30 A3048 RMK SLP356

CYWG;2007-01-15 19:00;CYWG 151900Z 23005KT 15SM SKC M24/M30 A3047 RMK SLP351

CYWG;2007-01-15 20:00;CYWG 152000Z 22003KT 15SM SKC M23/M30 A3046 RMK SLP348

CYWG;2007-01-15 21:00;CYWG 152100Z 29002KT 15SM SKC M24/M30 A3046 RMK SLP348

CYWG;2007-01-15 22:00;CYWG 152200Z 22005KT 15SM SKC M23/M29 A3047 RMK SLP352

CYWG;2007-01-15 23:00;CYWG 152300Z 19005KT 15SM SKC M25/M31 A3048 RMK SLP354

CYWG;2007-01-16 00:00;CYWG 160000Z 18005KT 15SM SKC M27/M32 A3048 RMK SLP356

CYWG;2007-01-16 01:00;CYWG 160100Z 19006KT 15SM SKC M27/M33 A3046 RMK SLP351

CYWG;2007-01-16 02:00;CYWG 160200Z 20008KT 15SM SKC M26/M31 A3046 RMK SLP351

CYWG;2007-01-16 03:00;CYWG 160300Z 18004KT 15SM SKC M29/M34 A3045 RMK SLP349

CYWG;2007-01-16 04:00;CYWG 160400Z 19005KT 15SM SKC M29/M34 A3045 RMK SLP348

CYWG;2007-01-16 05:00;CYWG 160500Z 19007KT 15SM SKC M30/M34 A3044 RMK SLP345

CYWG;2007-01-16 06:00;CYWG 160600Z CCA 19006KT 15SM SKC M30/M35 A3045 RMK FROIN SLP344

CYWG;2007-01-16 07:00;CYWG 160700Z 19008KT 15SM SKC M30/M35 A3044 RMK SLP342

CYWG;2007-01-16 08:00;CYWG 160800Z 19004KT 15SM SKC M28/M32 A3045 RMK SLP344

CYWG;2007-01-16 09:00;CYWG 160900Z 19007KT 15SM SKC M30/M35 A3043 RMK SLP340

CYWG;2007-01-16 10:00;CYWG 161000Z 18008KT 15SM SKC M30/M35 A3043 RMK FROIN SLP339

CYWG;2007-01-16 11:00;CYWG 161100Z 18008KT 15SM SKC M30/M34 A3041 RMK FROIN SLP333

CYWG;2007-01-16 12:00;CYWG 161200Z 18008KT 15SM SKC M31/M35 A3040 RMK SLP331

CYWG;2007-01-16 13:00;CYWG 161300Z 18011KT 15SM SKC M29/M34 A3038 RMK SLP323

CYWG;2007-01-16 14:00;CYWG 161400Z 18009KT 15SM SKC M27/M31 A3035 RMK SLP312

CYWG;2007-01-16 15:00;CYWG 161500Z 18012KT 15SM SKC M26/M31 A3033 RMK SLP305

CYWG;2007-01-16 15:38;CYWG 161538Z CCA 18016KT 15SM SKC M25/ RMK IC

CYWG;2007-01-16 16:00;CYWG 161600Z 18015KT 15SM SCT210 M24/M29 A3031 RMK CI2 CC SLP299

CYWG;2007-01-16 17:00;CYWG 161700Z 18017KT 15SM BKN093 OVC210 M22/M27 A3029 RMK AC7CI0 IC SLP290

CYWG;2007-01-16 18:00;CYWG 161800Z 18015KT 15SM OVC085 M21/M25 A3026 RMK AC8 SLP279

CYWG;2007-01-16 19:00;CYWG 161900Z 18019KT 15SM OVC079 M18/M23 A3020 RMK AC8 SLP258

CYWG;2007-01-16 20:00;CYWG 162000Z 18022G27KT 3SM BR OVC070 M17/M21 A3016 RMK AC6 VIS LWR W SLP246

CYWG;2007-01-16 20:09;CYWG 162009Z 18020G26KT 3SM BLSN OVC070 M17/ RMK AC6 VIS LWR W

CYWG;2007-01-16 21:00;CYWG 162100Z 18023G29KT 3SM -SN DRSN OVC061 M17/M20 A3013 RMK SN2SC5 REBLSN SLP233

CYWG;2007-01-16 21:41;CYWG 162141Z 18022G31KT 1 1/2SM BLSN OVC035 M16/ RMK BLSN2SC6

CYWG;2007-01-16 22:00;CYWG 162200Z 18028G33KT 1 1/2SM BLSN OVC039 M16/M19 A3011 RMK BLSN2SC6 SLP225

CYWG;2007-01-16 22:44;CYWG 162244Z 18026KT 4SM BLSN BKN044 OVC075 M15/ RMK BLSN1SC6AC2

CYWG;2007-01-16 23:00;CYWG 162300Z 18025G30KT 6SM BLSN SCT044 OVC070 M15/M18 A3009 RMK SC3AC4 VIS LWR NW SLP218

CYWG;2007-01-17 00:00;CYWG 170000Z 18022G31KT 10SM DRSN BKN078 M15/M17 A3007 RMK AC6 REBLSN SLP213

CYWG;2007-01-17 01:00;CYWG 170100Z 18022G28KT 12SM DRSN OVC093 M14/M17 A3005 RMK AC8 VIS LWR E SLP205

CYWG;2007-01-17 02:00;CYWG 170200Z 19021G28KT 12SM DRSN BKN120 M13/M16 A3003 RMK AC7 SLP200

CYWG;2007-01-17 03:00;CYWG 170300Z 19022G28KT 12SM DRSN OVC090 M12/M15 A3002 RMK AC8 SLP190

CYWG;2007-01-17 04:00;CYWG 170400Z 19021G26KT 15SM DRSN BKN097 M11/M13 A2998 RMK AC7 SLP178

CYWG;2007-01-17 05:00;CYWG 170500Z 19019KT 15SM DRSN BKN097 M11/M13 A2997 RMK AC3 SLP175

CYWG;2007-01-17 06:00;CYWG 170600Z 19021G26KT 15SM DRSN SKC M12/M14 A2995 RMK SLP167

CYWG;2007-01-17 07:00;CYWG 170700Z 19017KT 15SM DRSN SKC M12/M14 A2993 RMK SLP161

CYWG;2007-01-17 08:00;CYWG 170800Z 19019G24KT 15SM DRSN SKC M13/M15 A2991 RMK SLP153

CYWG;2007-01-17 09:00;CYWG 170900Z 19015KT 15SM SKC M13/M15 A2991 RMK SLP151

CYWG;2007-01-17 10:00;CYWG 171000Z 19015KT 15SM SKC M12/M14 A2989 RMK SLP143

CYWG;2007-01-17 11:00;CYWG 171100Z 19014KT 15SM SKC M12/M14 A2987 RMK SLP136

CYWG;2007-01-17 12:00;CYWG 171200Z 19013G19KT 15SM FEW210 M12/M14 A2988 RMK CI0 SLP139

CYWG;2007-01-17 13:00;CYWG 171300Z 19011KT 15SM SKC M12/M15 A2987 RMK SLP136

CYWG;2007-01-17 14:00;CYWG 171400Z 19012KT 15SM FEW210 M13/M14 A2986 RMK CI1 SLP132

CYWG;2007-01-17 15:00;CYWG 171500Z 20014KT 15SM FEW100 BKN210 M11/M14 A2984 RMK AC1CI2 SLP124

CYWG;2007-01-17 16:00;CYWG 171600Z 19010KT 15SM FEW110 BKN210 M11/M13 A2985 RMK AC2CI2 SLP128

CYWG;2007-01-17 17:00;CYWG 171700Z 19012KT 15SM FEW110 OVC210 M10/M13 A2984 RMK AC2CI3 SLP125

CYWG;2007-01-17 18:00;CYWG 171800Z 19012KT 15SM FEW090 OVC210 M09/M12 A2982 RMK AC1CI7 SLP118

CYWG;2007-01-17 19:00;CYWG 171900Z 20009KT 15SM FEW090 OVC210 M08/M11 A2982 RMK AC1CI6 SLP116

CYWG;2007-01-17 20:00;CYWG 172000Z 19007KT 15SM FEW070 OVC210 M07/M10 A2980 RMK AC1CI7 SLP110

CYWG;2007-01-17 21:00;CYWG 172100Z 19011KT 15SM FEW100 OVC210 M08/M11 A2980 RMK AC1CI5 SLP110

CYWG;2007-01-17 22:00;CYWG 172200Z 17004KT 15SM FEW100 OVC210 M08/M11 A2981 RMK AC1CI5 SLP115

CYWG;2007-01-17 23:00;CYWG 172300Z 18008KT 15SM FEW100 OVC210 M09/M11 A2982 RMK AC2CI3 SLP117

CYWG;2007-01-18 00:00;CYWG 180000Z 18007KT 15SM FEW100 BKN210 M09/M12 A2983 RMK AC2CI5 SLP119

CYWG;2007-01-18 01:00;CYWG 180100Z 19007KT 15SM BKN210 M10/M12 A2983 RMK CI6 SLP120

CYWG;2007-01-18 02:00;CYWG 180200Z 21006KT 15SM BKN210 M10/M12 A2982 RMK CI7 SLP118

CYWG;2007-01-18 03:00;CYWG 180300Z 00000KT 15SM OVC210 M10/M12 A2983 RMK CI8 SLP119

CYWG;2007-01-18 04:00;CYWG 180400Z 25002KT 10SM SCT025 OVC080 M12/M13 A2983 RMK SC4AC1 SLP120

CYWG;2007-01-18 05:00;CYWG 180500Z 31005KT 10SM FEW025 OVC081 M11/M13 A2984 RMK SC1AC6 SLP123

CYWG;2007-01-18 06:00;CYWG 180600Z 33005KT 10SM BKN087 M12/M14 A2985 RMK AC5 SLP127

CYWG;2007-01-18 07:00;CYWG 180700Z 30006KT 15SM FEW093 M14/M15 A2986 RMK AC2 SLP129

CYWG;2007-01-18 08:00;CYWG 180800Z 30006KT 15SM OVC034 M11/M13 A2987 RMK SC7 SLP135

CYWG;2007-01-18 09:00;CYWG 180900Z 33007KT 15SM OVC032 M09/M11 A2990 RMK SC7 SLP143

CYWG;2007-01-18 10:00;CYWG 181000Z 03010KT 15SM OVC025 M08/M10 A2992 RMK SC8 SLP148

CYWG;2007-01-18 10:36;CYWG 181036Z 03007KT 7SM -SN OVC025 M08/ RMK SC8

CYWG;2007-01-18 11:00;CYWG 181100Z 02005KT 10SM -SN BKN019 OVC034 M08/M10 A2993 RMK SC7SC1 SLP154

CYWG;2007-01-18 11:49;CYWG 181149Z 02008KT 15SM -SN OVC013 M08/ RMK SC8

CYWG;2007-01-18 12:00;CYWG 181200Z 02009KT 15SM -SN OVC013 M08/M11 A2996 RMK SC8 SLP163

CYWG;2007-01-18 12:12;CYWG 181212Z 03008KT 15SM -SN OVC019 M08/ RMK SC8

CYWG;2007-01-18 13:00;CYWG 181300Z 02005KT 8SM -SN BKN017 OVC024 M09/M11 A2998 RMK SC7SC1 SLP171

CYWG;2007-01-18 13:06;CYWG 181306Z 03006KT 4SM -SHSN OVC017 M09/ RMK SC8 CVCTV CLD EMBD

CYWG;2007-01-18 14:00;CYWG 181400Z 04011KT 2SM -SHSN OVC017 M09/M11 A3000 RMK SN2SC6 CVCTV CLD EMBD SLP176

CYWG;2007-01-18 14:22;CYWG 181422Z 04011KT 4SM -SN OVC015 M10/ RMK SC8

CYWG;2007-01-18 15:00;CYWG 181500Z 34007KT 12SM -SN SCT015 OVC028 M10/M14 A3003 RMK SC4SC4 SLP189

CYWG;2007-01-18 16:00;CYWG 181600Z 32005KT 10SM -SN OVC028 M10/M14 A3004 RMK SC8 VIS E 5 SLP192

CYWG;2007-01-18 17:00;CYWG 181700Z 33006KT 10SM -SN OVC030 M10/M13 A3006 RMK SC8 SLP197

CYWG;2007-01-18 18:00;CYWG 181800Z 34010KT 12SM -SN OVC034 M11/M15 A3006 RMK SC8 VIS E 6 SLP199

CYWG;2007-01-18 19:00;CYWG 181900Z 34008KT 6SM -SN FEW028 OVC038 M11/M14 A3005 RMK SC2SC6 SLP195

CYWG;2007-01-18 20:00;CYWG 182000Z 32009KT 6SM -SN FEW026 OVC040 M11/M14 A3005 RMK SC2SC6 SLP196

CYWG;2007-01-18 21:00;CYWG 182100Z 31007KT 6SM -SN OVC038 M11/M14 A3005 RMK SC8 SLP196

CYWG;2007-01-18 22:00;CYWG 182200Z 34007KT 6SM -SN OVC034 M12/M15 A3006 RMK SC8 SLP199

CYWG;2007-01-18 23:00;CYWG 182300Z 34010KT 6SM -SN OVC033 M12/M15 A3009 RMK SC8 SLP207

CYWG;2007-01-19 00:00;CYWG 190000Z 34011KT 10SM -SN BKN032 BKN100 M13/M16 A3011 RMK SC5AC1 SLP215

CYWG;2007-01-19 00:45;CYWG 190045Z 32012KT 15SM FEW035 SCT100 M16/ RMK SC2AC1

CYWG;2007-01-19 01:00;CYWG 190100Z 32012KT 15SM FEW035 SCT100 M16/M18 A3012 RMK SC2AC1 SLP220

CYWG;2007-01-19 02:00;CYWG 190200Z 32010KT 15SM SKC M19/M22 A3013 RMK SLP223

CYWG;2007-01-19 03:00;CYWG 190300Z 31011KT 15SM SKC M20/M23 A3014 RMK SLP231

CYWG;2007-01-19 04:00;CYWG 190400Z 32009KT 15SM FEW035 M23/M25 A3015 RMK SC1 SLP234

CYWG;2007-01-19 05:00;CYWG 190500Z 30008KT 15SM SKC M24/M26 A3017 RMK SLP241

CYWG;2007-01-19 06:00;CYWG 190600Z 30011KT 15SM FEW055 M24/M31 A3019 RMK SC1 SLP248

CYWG;2007-01-19 07:00;CYWG 190700Z 29008KT 15SM BKN057 M26/M31 A3020 RMK SC5 SLP252

CYWG;2007-01-19 08:00;CYWG 190800Z 28007KT 15SM FEW055 M25/M30 A3021 RMK SC2 SLP255

CYWG;2007-01-19 09:00;CYWG 190900Z 28006KT 15SM FEW055 M26/M31 A3023 RMK SC1 SLP263

CYWG;2007-01-19 10:00;CYWG 191000Z 30007KT 15SM SKC M28/M32 A3023 RMK SLP265

CYWG;2007-01-19 11:00;CYWG 191100Z 31007KT 15SM SKC M30/M34 A3024 RMK SLP268

CYWG;2007-01-19 12:00;CYWG 191200Z 32005KT 15SM SKC M28/M33 A3024 RMK SLP269

CYWG;2007-01-19 13:00;CYWG 191300Z 00000KT 15SM BKN078 M29/M34 A3025 RMK AC4 SLP271

CYWG;2007-01-19 14:00;CYWG 191400Z 10002KT 15SM BKN069 BKN088 M24/M28 A3025 RMK AC5AC2 SLP272

CYWG;2007-01-19 14:09;CYWG 191409Z 00000KT 15SM BKN069 BKN088 M24/ RMK AC5AC2

CYWG;2007-01-19 15:00;CYWG 191500Z 25003KT 15SM BKN085 M22/M26 A3027 RMK AC7 SLP278

CYWG;2007-01-19 16:00;CYWG 191600Z 18005KT 15SM SCT057 OVC085 M21/M25 A3028 RMK SC3AC5 SLP283

CYWG;2007-01-19 17:00;CYWG 191700Z 17006KT 15SM SCT044 OVC090 M20/M25 A3029 RMK SC3AC4 SLP285

CYWG;2007-01-19 18:00;CYWG 191800Z 19009KT 15SM SCT044 OVC082 M19/M25 A3029 RMK SC4AC4 SLP286

CYWG;2007-01-19 19:00;CYWG 191900Z 18009KT 15SM SCT044 OVC069 M19/M24 A3027 RMK SC3AC4 SLP279

CYWG;2007-01-19 20:00;CYWG 192000Z 17008KT 15SM SCT046 OVC072 M18/M23 A3024 RMK SC3AC4 SLP270

CYWG;2007-01-19 21:00;CYWG 192100Z 17010KT 15SM BKN051 BKN072 M17/M22 A3023 RMK SC6AC1 SLP267

CYWG;2007-01-19 22:00;CYWG 192200Z 16011KT 15SM BKN047 BKN072 M16/M22 A3023 RMK SC6AC1 SLP266

CYWG;2007-01-19 23:00;CYWG 192300Z 17012KT 15SM SCT041 BKN072 M16/M22 A3022 RMK SC3AC2 SLP263

CYWG;2007-01-20 00:00;CYWG 200000Z 17015KT 15SM FEW052 BKN075 M16/M21 A3021 RMK SC2AC2 SLP259

CYWG;2007-01-20 01:00;CYWG 200100Z 18014KT 15SM FEW059 M16/M21 A3020 RMK SC2 SLP255

CYWG;2007-01-20 02:00;CYWG 200200Z 18014KT 15SM FEW055 M16/M21 A3018 RMK SC1 SLP250

CYWG;2007-01-20 03:00;CYWG 200300Z 18016KT 15SM FEW055 M16/M20 A3017 RMK SC1 SLP242

CYWG;2007-01-20 04:00;CYWG 200400Z 18016KT 15SM FEW055 M16/M20 A3015 RMK SC1 SLP235

CYWG;2007-01-20 05:00;CYWG 200500Z 18016KT 15SM SCT220 M16/M20 A3013 RMK CI1 SLP230

CYWG;2007-01-20 06:00;CYWG 200600Z 18014KT 15SM BKN220 M16/M19 A3011 RMK CI2 SLP222

CYWG;2007-01-20 07:00;CYWG 200700Z 18015KT 15SM OVC220 M15/M19 A3008 RMK CI3 SLP211

CYWG;2007-01-20 08:00;CYWG 200800Z 18014G19KT 15SM OVC220 M15/M18 A3007 RMK CI6 SLP207

CYWG;2007-01-20 09:00;CYWG 200900Z 18016KT 15SM FEW090 OVC220 M14/M18 A3006 RMK AC2CI5 SLP201

CYWG;2007-01-20 10:00;CYWG 201000Z 17018KT 15SM FEW100 OVC230 M14/M17 A3003 RMK AC2CI3 SLP193

CYWG;2007-01-20 11:00;CYWG 201100Z 17017KT 15SM SCT100 OVC230 M13/M16 A2999 RMK AC3CI2 SLP181

CYWG;2007-01-20 12:00;CYWG 201200Z 17017KT 15SM BKN061 OVC230 M12/M15 A2995 RMK SC6CI1 SLP164

CYWG;2007-01-20 13:00;CYWG 201300Z 18017G22KT 15SM OVC047 M10/M14 A2993 RMK SC8 SLP159

CYWG;2007-01-20 14:00;CYWG 201400Z 17018KT 15SM OVC042 M09/M12 A2991 RMK SC8 SLP151

CYWG;2007-01-20 14:10;CYWG 201410Z 17015G20KT 2SM -SN OVC025 M09/ RMK SC8

CYWG;2007-01-20 14:37;CYWG 201437Z CCA 18014KT 5/8SM R13/P6000FT/D R36/P6000FT/D -SN DRSN VV005 M09/ RMK SN8

CYWG;2007-01-20 15:00;CYWG 201500Z 17016KT 5/8SM R13/4000V5500FT/D R36/3500V5500FT/D -SN DRSN VV003 M08/M10 A2990 RMK SN8 /S01/ SLP144

CYWG;2007-01-20 15:36;CYWG 201536Z 18017KT 3SM -SN DRSN OVC028 M07/ RMK SC8

CYWG;2007-01-20 16:00;CYWG 201600Z 18018G24KT 10SM -SN DRSN BKN013 OVC095 M07/M09 A2988 RMK SF6SC2 SLP140

CYWG;2007-01-20 16:46;CYWG 201646Z 18021G27KT 12SM -SN DRSN SCT025 BKN040 OVC071 M07/ RMK SC3SC2AC2

CYWG;2007-01-20 17:00;CYWG 201700Z 17019G26KT 15SM -SN DRSN FEW025 BKN044 OVC071 M07/M09 A2987 RMK SC2SC5AC2 SLP136

CYWG;2007-01-20 17:25;CYWG 201725Z 18018KT 15SM BKN044 OVC067 M06/ RMK SC5AC3

CYWG;2007-01-20 18:00;CYWG 201800Z 18017G25KT 15SM DRSN FEW059 BKN084 BKN230 M06/M09 A2986 RMK SC2AC2CI0 SLP131

CYWG;2007-01-20 19:00;CYWG 201900Z 18015KT 15SM BKN070 BKN230 M06/M09 A2984 RMK AC5CI0 SLP126

CYWG;2007-01-20 20:00;CYWG 202000Z 18014KT 15SM DRSN FEW070 SCT230 M05/M09 A2983 RMK AC1CI1 SLP123

CYWG;2007-01-20 21:00;CYWG 202100Z 20011KT 15SM FEW070 SCT230 M05/M09 A2984 RMK AC1CI0 SLP125

CYWG;2007-01-20 22:00;CYWG 202200Z 20007KT 15SM FEW110 SCT230 M06/M09 A2987 RMK AC2CI0 SLP132

CYWG;2007-01-20 23:00;CYWG 202300Z 26002KT 15SM FEW040 SCT230 M07/M10 A2989 RMK SC2CI0 SLP141

CYWG;2007-01-21 00:00;CYWG 210000Z 01003KT 15SM FEW040 M13/M14 A2990 RMK SC2 SLP145

CYWG;2007-01-21 01:00;CYWG 210100Z 04004KT 15SM SKC M13/M14 A2992 RMK SLP153

CYWG;2007-01-21 02:00;CYWG 210200Z 03006KT 15SM SKC M15/M16 A2995 RMK SLP161

CYWG;2007-01-21 03:00;CYWG 210300Z 31006KT 15SM SCT017 M16/M17 A2996 RMK SC2 SLP168

CYWG;2007-01-21 04:00;CYWG 210400Z 33007KT 10SM OVC013 M11/M12 A2998 RMK SC8 SLP172

CYWG;2007-01-21 05:00;CYWG 210500Z 32004KT 12SM OVC015 M10/M11 A2999 RMK SC8 SLP178

CYWG;2007-01-21 06:00;CYWG 210600Z 35007KT 12SM OVC015 M08/M09 A3001 RMK SC8 SLP180

CYWG;2007-01-21 07:00;CYWG 210700Z 36008KT 10SM OVC007 M08/M09 A3003 RMK ST8 SLP185

CYWG;2007-01-21 08:00;CYWG 210800Z 34004KT 15SM FEW007 M12/M13 A3004 RMK SF2 SLP191

CYWG;2007-01-21 09:00;CYWG 210900Z 32004KT 8SM OVC020 M13/M14 A3006 RMK SC8 SLP198

CYWG;2007-01-21 10:00;CYWG 211000Z 28005KT 6SM BR OVC018 M11/M13 A3008 RMK SC8 SLP204

CYWG;2007-01-21 11:00;CYWG 211100Z 28005KT 6SM BR OVC016 M10/M12 A3008 RMK SC8 SLP205

CYWG;2007-01-21 12:00;CYWG 211200Z CCA 29004KT 8SM OVC016 M10/M11 A3008 RMK SC8 VIS 4NM E BR SLP206

CYWG;2007-01-21 12:12;CYWG 211212Z 31006KT 8SM -SN OVC016 M09/ RMK SC8 VIS E 4

CYWG;2007-01-21 13:00;CYWG 211300Z 34006KT 8SM -SN OVC016 M09/M10 A3009 RMK SC8 VIS 4 E SLP211

CYWG;2007-01-21 14:00;CYWG 211400Z 33005KT 8SM -SN OVC016 M09/M10 A3009 RMK SC8 SLP211

CYWG;2007-01-21 14:29;CYWG 211429Z 32003KT 10SM OVC016 M09/ RMK SC8

CYWG;2007-01-21 15:00;CYWG 211500Z 28004KT 10SM OVC016 M08/M10 A3010 RMK SC8 SLP215

CYWG;2007-01-21 16:00;CYWG 211600Z 29005KT 8SM -SN OVC016 M08/M10 A3012 RMK SC8 SLP219

CYWG;2007-01-21 17:00;CYWG 211700Z 27005KT 10SM OVC016 M08/M10 A3012 RMK SC8 SLP219

CYWG;2007-01-21 18:00;CYWG 211800Z 27005KT 10SM OVC016 M07/M10 A3010 RMK SC8 SLP212

CYWG;2007-01-21 19:00;CYWG 211900Z 27004KT 12SM BKN016 M06/M09 A3009 RMK SC7 SLP206

CYWG;2007-01-21 20:00;CYWG 212000Z 27006KT 15SM FEW016 FEW250 M06/M09 A3006 RMK SC1CI1 SLP197

CYWG;2007-01-21 21:00;CYWG 212100Z 23008KT 15SM FEW250 M06/M10 A3005 RMK CI2 SLP193

CYWG;2007-01-21 22:00;CYWG 212200Z 21011KT 15SM FEW250 M06/M10 A3004 RMK CI2 SLP190

CYWG;2007-01-21 23:00;CYWG 212300Z 21010KT 15SM SCT250 SCT270 M07/M10 A3003 RMK CI2CI1 SLP188

CYWG;2007-01-22 00:00;CYWG 220000Z 21009KT 15SM SCT250 M08/M11 A3002 RMK CI2 SLP184

CYWG;2007-01-22 01:00;CYWG 220100Z 20009KT 15SM FEW250 M10/M12 A3000 RMK CI2 SLP177

CYWG;2007-01-22 02:00;CYWG 220200Z 20009KT 15SM FEW250 M11/M13 A2999 RMK CI1 SLP175

CYWG;2007-01-22 03:00;CYWG 220300Z 22008KT 15SM FEW250 M11/M13 A2998 RMK CI1 SLP172

CYWG;2007-01-22 04:00;CYWG 220400Z 21006KT 15SM SKC M12/M14 A2997 RMK SLP169

CYWG;2007-01-22 05:00;CYWG 220500Z 20006KT 15SM SKC M13/M15 A2996 RMK SLP166

CYWG;2007-01-22 06:00;CYWG 220600Z 20005KT 15SM SKC M15/M17 A2996 RMK SLP164

CYWG;2007-01-22 07:00;CYWG 220700Z 21005KT 15SM SKC M16/M17 A2995 RMK SLP163

CYWG;2007-01-22 08:00;CYWG 220800Z 22004KT 15SM SKC M16/M18 A2994 RMK SLP159

CYWG;2007-01-22 09:00;CYWG 220900Z 21005KT 15SM SKC M16/M18 A2993 RMK SLP155

CYWG;2007-01-22 10:00;CYWG 221000Z 19006KT 15SM SCT230 M17/M19 A2991 RMK CI1 SLP149

CYWG;2007-01-22 11:00;CYWG 221100Z 19006KT 15SM BKN230 M17/M19 A2989 RMK CI2 SLP142

CYWG;2007-01-22 12:00;CYWG 221200Z 18007KT 15SM BKN230 M17/M19 A2987 RMK CI3 SLP136

CYWG;2007-01-22 13:00;CYWG 221300Z 18007KT 15SM BKN120 OVC230 M14/M16 A2984 RMK AC5CI1 SLP125

CYWG;2007-01-22 14:00;CYWG 221400Z 19008KT 15SM BKN110 OVC230 M13/M14 A2981 RMK AC6CI1 SLP116

CYWG;2007-01-22 15:00;CYWG 221500Z 19010KT 15SM BKN110 OVC230 M11/M13 A2977 RMK AC6CI0 SLP100

CYWG;2007-01-22 16:00;CYWG 221600Z 19013KT 15SM BKN099 M10/M13 A2974 RMK AC7 SLP092

CYWG;2007-01-22 17:00;CYWG 221700Z 19011KT 15SM FEW100 BKN230 M10/M13 A2972 RMK AC1CI1 CC SLP084

CYWG;2007-01-22 18:00;CYWG 221800Z 20014KT 15SM BKN100 M08/M11 A2968 RMK AC6 SLP071

CYWG;2007-01-22 19:00;CYWG 221900Z 21012KT 15SM BKN098 M06/M09 A2964 RMK AC7 SLP058

CYWG;2007-01-22 20:00;CYWG 222000Z 23007KT 15SM BKN094 BKN240 M05/M08 A2963 RMK AC5CI1 SLP053

CYWG;2007-01-22 21:00;CYWG 222100Z 29006KT 15SM BKN072 BKN092 BKN240 M05/M08 A2964 RMK AC5AC2CI1 SLP056

CYWG;2007-01-22 22:00;CYWG 222200Z 30011KT 15SM FEW070 FEW092 M07/M10 A2964 RMK AC0AC2 SLP057

CYWG;2007-01-22 23:00;CYWG 222300Z 30009KT 15SM BKN061 BKN090 M07/M10 A2966 RMK SC6AC1 SLP062

CYWG;2007-01-23 00:00;CYWG 230000Z 32011KT 15SM BKN061 BKN090 M07/M09 A2968 RMK SC6AC1 SLP071

CYWG;2007-01-23 01:00;CYWG 230100Z 31009KT 15SM BKN067 M10/M12 A2970 RMK SC5 SLP078

CYWG;2007-01-23 02:00;CYWG 230200Z 33010KT 15SM FEW090 FEW240 M12/M14 A2974 RMK AC1CI1 SLP089

CYWG;2007-01-23 03:00;CYWG 230300Z 35006KT 15SM BKN019 OVC088 M13/M14 A2976 RMK SC6AC2 SLP097

CYWG;2007-01-23 04:00;CYWG 230400Z 34005KT 15SM OVC021 M10/M12 A2978 RMK SC8 SLP105

CYWG;2007-01-23 05:00;CYWG 230500Z 36011KT 15SM BKN021 M09/M12 A2982 RMK SC6 SLP118

CYWG;2007-01-23 06:00;CYWG 230600Z 36009KT 15SM FEW020 M11/M14 A2984 RMK SC2 SLP124

CYWG;2007-01-23 07:00;CYWG 230700Z 33011KT 15SM SKC M16/M17 A2987 RMK SLP135

CYWG;2007-01-23 08:00;CYWG 230800Z 34008KT 15SM SKC M17/M19 A2990 RMK SLP144

CYWG;2007-01-23 09:00;CYWG 230900Z 36008KT 15SM SKC M17/M18 A2992 RMK SLP150

CYWG;2007-01-23 10:00;CYWG 231000Z 34006KT 15SM SKC M20/M21 A2993 RMK SLP155

CYWG;2007-01-23 11:00;CYWG 231100Z 31005KT 15SM FEW029 SCT210 M20/M21 A2996 RMK ST1CI1 SLP165

CYWG;2007-01-23 11:48;CYWG 231148Z 01004KT 15SM -SN BKN027 M21/ RMK SC6

CYWG;2007-01-23 12:00;CYWG 231200Z 05002KT 15SM -SN OVC027 M21/M25 A2998 RMK SC8 SLP174

CYWG;2007-01-23 13:00;CYWG 231300Z 34007KT 15SM -SN OVC027 M17/M20 A3002 RMK SC8 SLP186

CYWG;2007-01-23 14:00;CYWG 231400Z 00000KT 15SM OVC027 M16/M19 A3003 RMK SC8 SLP191

CYWG;2007-01-23 15:00;CYWG 231500Z 34003KT 15SM -SN BKN022 M15/M18 A3004 RMK SC7 SLP194

CYWG;2007-01-23 16:00;CYWG 231600Z 36003KT 8SM -SN FEW010 OVC022 M15/M18 A3006 RMK SF2SC6 /S01/ SLP201

CYWG;2007-01-23 17:00;CYWG 231700Z 05003KT 10SM -SN FEW010 OVC024 M15/M18 A3005 RMK SF2SC6 SLP199

CYWG;2007-01-23 18:00;CYWG 231800Z 02003KT 10SM -SN OVC026 M15/M18 A3006 RMK SC8 SLP201

CYWG;2007-01-23 19:00;CYWG 231900Z 02004KT 10SM -SN OVC028 M15/M18 A3004 RMK SC8 SLP196

CYWG;2007-01-23 20:00;CYWG 232000Z 03003KT 15SM -SN FEW012 OVC030 M14/M18 A3004 RMK SF2SC6 SLP194

CYWG;2007-01-23 20:20;CYWG 232020Z 04003KT 15SM FEW012 FEW030 BKN130 OVC210 M14/ RMK SF1SC2AC2CI2

CYWG;2007-01-23 21:00;CYWG 232100Z 01003KT 15SM -SN FEW015 FEW130 BKN210 M14/M18 A3003 RMK SF1AC1CI0 SLP194

CYWG;2007-01-23 22:00;CYWG 232200Z 03003KT 15SM FEW012 FEW030 BKN210 M15/M19 A3003 RMK SF1SC1CI1 SLP192

CYWG;2007-01-23 23:00;CYWG 232300Z 06003KT 15SM FEW031 BKN210 M16/M19 A3004 RMK SC2CI0 SLP195

CYWG;2007-01-24 00:00;CYWG 240000Z 12002KT 15SM BKN033 BKN210 M16/M20 A3005 RMK SC5CI1 SLP202

CYWG;2007-01-24 01:00;CYWG 240100Z 18005KT 15SM OVC033 M14/M17 A3004 RMK SC8 SLP198

CYWG;2007-01-24 02:00;CYWG 240200Z 18005KT 15SM OVC031 OVC040 M14/M17 A3005 RMK SC6SC2 SLP200

CYWG;2007-01-24 03:00;CYWG 240300Z 20005KT 15SM OVC033 M13/M16 A3004 RMK SC8 SLP196

CYWG;2007-01-24 04:00;CYWG 240400Z 18006KT 15SM OVC033 M13/M16 A3003 RMK SC8 SLP190

CYWG;2007-01-24 05:00;CYWG 240500Z 18006KT 15SM OVC031 M13/M16 A3003 RMK SC8 SLP191

CYWG;2007-01-24 06:00;CYWG 240600Z 19004KT 15SM OVC029 M13/M15 A3004 RMK SC8 SLP196

CYWG;2007-01-24 07:00;CYWG 240700Z 21004KT 15SM OVC025 M12/M14 A3005 RMK SC8 SLP198

CYWG;2007-01-24 08:00;CYWG 240800Z 22007KT 15SM BKN009 OVC037 M11/M13 A3004 RMK SC5SC3 SLP196

CYWG;2007-01-24 08:49;CYWG 240849Z 24007KT 12SM -SN OVC012 M11/ RMK SC8

CYWG;2007-01-24 09:00;CYWG 240900Z 25007KT 12SM -SN OVC012 M10/M12 A3006 RMK SC8 SLP200

CYWG;2007-01-24 10:00;CYWG 241000Z 28008KT 15SM SCT014 OVC020 M10/M12 A3007 RMK SC3SC5 SLP205

CYWG;2007-01-24 11:00;CYWG 241100Z 31011KT 15SM FEW012 BKN029 OVC090 M10/M12 A3009 RMK SC2SC4AC2 SLP210

CYWG;2007-01-24 12:00;CYWG 241200Z 32008KT 15SM -SN BKN029 OVC090 M10/M12 A3011 RMK SC6AC2 SLP217

CYWG;2007-01-24 13:00;CYWG 241300Z 34007KT 15SM -SN OVC029 M10/M12 A3013 RMK SC8 SLP226

CYWG;2007-01-24 14:00;CYWG 241400Z 30006KT 7SM -SN OVC025 M09/M11 A3014 RMK SC8 SLP227

CYWG;2007-01-24 15:00;CYWG 241500Z 30005KT 2 1/2SM -SN OVC025 M09/M11 A3016 RMK SN2SC6 SLP233

CYWG;2007-01-24 15:49;CYWG 241549Z 32005KT 2SM -SN OVC020 RMK SN2SC6

CYWG;2007-01-24 15:50;CYWG 241550Z CCA 32005KT 2SM -SN OVC020 M09/ RMK SN2SC6

CYWG;2007-01-24 16:00;CYWG 241600Z 32005KT 2SM -SN OVC020 M09/M10 A3018 RMK SN2SC6 SLP239

CYWG;2007-01-24 17:00;CYWG 241700Z 30007KT 15SM FEW020 FEW030 BKN210 M11/M12 A3020 RMK CF1SC2CI1 SLP248

CYWG;2007-01-24 18:00;CYWG 241800Z 32008KT 15SM FEW024 M10/M12 A3022 RMK SC2 SLP253

CYWG;2007-01-24 19:00;CYWG 241900Z 35006KT 15SM FEW024 SCT210 M10/M12 A3023 RMK SC2CI1 SLP257

CYWG;2007-01-24 20:00;CYWG 242000Z 04012KT 15SM FEW009 M11/M14 A3024 RMK SF1 SLP260

CYWG;2007-01-24 21:00;CYWG 242100Z 04010KT 15SM FEW017 M12/M15 A3025 RMK SC2 SLP265

CYWG;2007-01-24 22:00;CYWG 242200Z 04013KT 15SM FEW012 M12/M16 A3028 RMK SC1 SLP274

CYWG;2007-01-24 23:00;CYWG 242300Z 03010KT 15SM SKC M14/M17 A3029 RMK SLP279

CYWG;2007-01-25 00:00;CYWG 250000Z 01009KT 15SM SKC M17/M19 A3032 RMK SLP288

CYWG;2007-01-25 01:00;CYWG 250100Z 03007KT 15SM SKC M18/M23 A3032 RMK SLP291

CYWG;2007-01-25 02:00;CYWG 250200Z 06004KT 15SM SKC M20/M24 A3033 RMK SLP292

CYWG;2007-01-25 03:00;CYWG 250300Z 02002KT 15SM SKC M23/M27 A3035 RMK SLP301

CYWG;2007-01-25 04:00;CYWG 250400Z 06003KT 15SM SKC M21/M24 A3034 RMK SLP299

CYWG;2007-01-25 05:00;CYWG 250500Z 00000KT 15SM SKC M24/M28 A3034 RMK SLP300

CYWG;2007-01-25 06:00;CYWG 250600Z 29004KT 15SM SKC M23/M28 A3035 RMK SLP304

CYWG;2007-01-25 07:00;CYWG 250700Z 24002KT 15SM FEW210 M22/M26 A3034 RMK CI1 SLP300

CYWG;2007-01-25 08:00;CYWG 250800Z 16003KT 15SM FEW210 M24/M28 A3032 RMK CI1 SLP291

CYWG;2007-01-25 08:52;CYWG 250852Z 20003KT 15SM BKN014 BKN026 M21/ RMK ST6SC1

CYWG;2007-01-25 09:00;CYWG 250900Z 22003KT 15SM BKN014 BKN026 M21/M24 A3032 RMK ST6SC1 SLP293

CYWG;2007-01-25 10:00;CYWG 251000Z 18006KT 15SM SCT012 BKN095 M17/M20 A3029 RMK ST3AC4 SLP283

CYWG;2007-01-25 11:00;CYWG 251100Z 16008KT 15SM OVC090 M17/M20 A3026 RMK AC8 SLP274

CYWG;2007-01-25 12:00;CYWG 251200Z 18007KT 15SM BKN076 OVC280 M16/M19 A3025 RMK AC6CI2 SLP267

CYWG;2007-01-25 12:45;CYWG 251245Z 18008KT 15SM -SN OVC059 M15/ RMK SC8

CYWG;2007-01-25 13:00;CYWG 251300Z 17007KT 15SM -SN OVC059 M15/M19 A3022 RMK SC8 SLP258

CYWG;2007-01-25 14:00;CYWG 251400Z 18012KT 15SM -SN OVC061 M15/M18 A3018 RMK SC8 SLP246

CYWG;2007-01-25 14:23;CYWG 251423Z 17009KT 15SM OVC057 M14/ RMK SC8

CYWG;2007-01-25 15:00;CYWG 251500Z CCA 18012KT 15SM BKN057 OVC096 M13/M17 A3017 RMK SC7AC1 SLP242

CYWG;2007-01-25 15:25;CYWG 251525Z 18013KT 15SM -SHGS BKN039 BKN095 M13/ RMK SC6AC1 CVCTV CLD EMBD

CYWG;2007-01-25 15:34;CYWG 251534Z 17013KT 15SM -SHSN BKN039 BKN095 M13/ RMK SC6AC1 CVCTV CLD EMBD

CYWG;2007-01-25 16:00;CYWG 251600Z 17012KT 15SM -SHSN BKN039 BKN088 M13/M16 A3014 RMK SC5AC2 CVCTV CLD EMBD SLP232

CYWG;2007-01-25 16:35;CYWG 251635Z 17014G19KT 15SM SCT040 BKN088 M12/ RMK SC3AC4

CYWG;2007-01-25 17:00;CYWG 251700Z 18012G17KT 15SM BKN096 BKN240 M11/M15 A3010 RMK AC6CI1 SLP220

CYWG;2007-01-25 18:00;CYWG 251800Z 17021G26KT 15SM FEW099 BKN240 M10/M13 A3002 RMK AC2CI1 SLP189

CYWG;2007-01-25 19:00;CYWG 251900Z 18024KT 15SM FEW090 OVC170 M09/M11 A2997 RMK AC2AC1 SLP174

CYWG;2007-01-25 20:00;CYWG 252000Z 19019G24KT 15SM BKN013 OVC090 M09/M11 A2995 RMK SC6AC2 SLP166

CYWG;2007-01-25 21:00;CYWG 252100Z 19022G28KT 12SM SCT011 BKN090 OVC120 M08/M10 A2988 RMK SC3AC3AC2 PRESFR SLP141

CYWG;2007-01-25 22:00;CYWG 252200Z 18020G26KT 12SM SCT013 BKN090 M07/M09 A2984 RMK SC3AC4 PRESFR SLP129

CYWG;2007-01-25 23:00;CYWG 252300Z 18021KT 12SM BKN011 BKN100 M07/M09 A2980 RMK SC6AC1 SLP116

CYWG;2007-01-26 00:00;CYWG 260000Z 18019G25KT 15SM FEW008 BKN011 M06/M08 A2975 RMK SF1SC6 SLP093

CYWG;2007-01-26 01:00;CYWG 260100Z 18022KT 15SM BKN006 OVC011 M06/M07 A2969 RMK SC6SC2 PRESFR SLP073

CYWG;2007-01-26 02:00;CYWG 260200Z 18021G29KT 7SM BKN006 OVC011 M06/M07 A2963 RMK SC5SC2 PRESFR SLP053

CYWG;2007-01-26 03:00;CYWG 260300Z 18020G26KT 3SM BR BKN006 M05/M06 A2957 RMK SC6 PRESFR SLP033

CYWG;2007-01-26 04:00;CYWG 260400Z 18017KT 12SM FEW006 FEW022 BKN090 M04/M06 A2954 RMK SF1SC2AC3 PRESFR SLP022

CYWG;2007-01-26 05:00;CYWG 260500Z CCA 20009KT 6SM BR BKN030 M03/M05 A2951 RMK SC7 PRESFR SLP012

CYWG;2007-01-26 06:00;CYWG 260600Z 21005KT 6SM BR BKN030 M04/M05 A2951 RMK SC6 SLP009

CYWG;2007-01-26 07:00;CYWG 260700Z 28013KT 15SM BKN090 M03/M05 A2951 RMK AC6 SLP008

CYWG;2007-01-26 08:00;CYWG 260800Z 31012KT 15SM BKN090 M03/M06 A2951 RMK AC7 SLP008

CYWG;2007-01-26 09:00;CYWG 260900Z 34011KT 15SM SKC M05/M08 A2951 RMK SLP009

CYWG;2007-01-26 10:00;CYWG 261000Z 32010KT 15SM SKC M08/M09 A2951 RMK SLP010

CYWG;2007-01-26 11:00;CYWG 261100Z 30007KT 15SM FEW210 M09/M11 A2953 RMK CI1 SLP014

CYWG;2007-01-26 12:00;CYWG 261200Z 31008KT 15SM -SN SKC M11/M13 A2954 RMK SLP019

CYWG;2007-01-26 13:00;CYWG 261300Z 29005KT 15SM SCT040 BKN090 M09/M11 A2954 RMK SC4AC3 SLP019

CYWG;2007-01-26 14:00;CYWG 261400Z 27010KT 15SM SCT040 BKN090 M08/M10 A2956 RMK SC4AC3 SLP026

CYWG;2007-01-26 15:00;CYWG 261500Z 30011KT 15SM BKN050 BKN090 M06/M08 A2958 RMK SC5AC2 SLP031

CYWG;2007-01-26 16:00;CYWG 261600Z 31007KT 15SM BKN050 OVC110 M05/M07 A2959 RMK SC5AS3 SLP036

CYWG;2007-01-26 17:00;CYWG 261700Z 29008KT 15SM BKN023 OVC080 M05/M07 A2961 RMK SC5AC3 SLP040

CYWG;2007-01-26 17:19;CYWG 261719Z 32007KT 12SM -SN BKN023 OVC080 RMK SC5AC3

CYWG;2007-01-26 18:00;CYWG 261800Z 30005KT 10SM -SN BKN023 OVC080 M04/M06 A2961 RMK SC6AC2 SLP042

CYWG;2007-01-26 19:00;CYWG 261900Z 32013KT 8SM -SN BKN020 OVC080 M04/M05 A2961 RMK SC6AC2 SLP043

CYWG;2007-01-26 20:00;CYWG 262000Z 33015KT 12SM BKN035 OVC080 M03/M06 A2964 RMK SC6AC2 SLP050

CYWG;2007-01-26 21:00;CYWG 262100Z 34012KT 15SM SCT040 BKN080 M03/M07 A2966 RMK SC3AC3 SLP057

CYWG;2007-01-26 22:00;CYWG 262200Z 32007KT 15SM SCT029 BKN050 OVC080 M04/M07 A2968 RMK SF2SC4AC2 SLP064

CYWG;2007-01-26 23:00;CYWG 262300Z CCB 30009KT 15SM FEW030 BKN048 OVC080 M05/M07 A2970 RMK SF2SC4AC2 SLP073

CYWG;2007-01-26 23:45;CYWG 262345Z 31010KT 6SM -SN OVC040 M05/ RMK SC8

CYWG;2007-01-27 00:00;CYWG 270000Z 06012KT 5SM -SN FEW015 OVC041 M06/M09 A2974 RMK SF2SC6 SLP089

CYWG;2007-01-27 01:00;CYWG 270100Z 04012KT 5SM -SN SCT017 OVC040 M08/M10 A2977 RMK SF4SC4 SLP097

CYWG;2007-01-27 01:43;CYWG 270143Z 03018G24KT 1 1/2SM -SN BKN019 OVC040 M11/ RMK SC6SC2

CYWG;2007-01-27 01:50;CYWG 270150Z 02021KT 1SM R31/P6000FT/D R36/4000VP6000FT/D -SN OVC018 M11/ RMK SN3SC5

CYWG;2007-01-27 02:00;CYWG 270200Z 02023KT 1SM R31/4500VP6000FT/U R36/3000VP6000FT/D -SN OVC012 M12/M14 A2982 RMK SN3SC5 SLP116

CYWG;2007-01-27 02:28;CYWG 270228Z 02017G28KT 1 1/2SM R36/4000VP6000FT/U -SN DRSN OVC014 M13/ RMK SN3SC5 VIS E 6

CYWG;2007-01-27 02:35;CYWG 270235Z CCA 01015G21KT 6SM -SN DRSN OVC014 M13/ RMK SC8

CYWG;2007-01-27 03:00;CYWG 270300Z 01016KT 10SM -SN DRSN FEW020 BKN040 M14/M16 A2986 RMK SC2SC6 SLP131

CYWG;2007-01-27 04:00;CYWG 270400Z 36022G28KT 8SM -SN DRSN SCT051 M16/M19 A2991 RMK SC4 OCNL BLSN SLP147

CYWG;2007-01-27 04:35;CYWG 270435Z 36017G22KT 10SM DRSN SCT073 RMK AC3

CYWG;2007-01-27 05:00;CYWG 270500Z 34012KT 15SM DRSN FEW073 M18/M21 A2993 RMK AC1 SLP154

CYWG;2007-01-27 06:00;CYWG 270600Z 33011KT 15SM FEW070 M20/M22 A2996 RMK AC2 SLP165

CYWG;2007-01-27 07:00;CYWG 270700Z 35015KT 12SM -SN DRSN BKN031 OVC061 M17/M20 A2997 RMK SC6SC2 SLP171

CYWG;2007-01-27 08:00;CYWG 270800Z 36023KT 2SM -SN DRSN FEW021 OVC060 M18/M20 A3002 RMK SC2SC6 SLP186

CYWG;2007-01-27 09:00;CYWG 270900Z 36021KT 10SM R31/4500VP6000FT/D -SN DRSN FEW021 BKN058 M19/M22 A3006 RMK SC2SC4 OCNL BLSN SLP199

CYWG;2007-01-27 09:27;CYWG 270927Z 35018KT 12SM DRSN FEW021 BKN065 RMK SC2SC2

CYWG;2007-01-27 10:00;CYWG 271000Z 36020KT 12SM DRSN FEW025 SCT053 M20/M23 A3009 RMK SC2SC2 SLP209

CYWG;2007-01-27 11:00;CYWG 271100Z 34015KT 15SM DRSN BKN024 M20/M23 A3012 RMK SC6 SLP219

CYWG;2007-01-27 12:00;CYWG 271200Z 34019KT 8SM DRSN BKN022 BKN035 M21/M24 A3016 RMK SC6SC2 SLP237

CYWG;2007-01-27 13:00;CYWG 271300Z 35018KT 15SM DRSN FEW020 M22/M25 A3019 RMK SC2 SLP247

CYWG;2007-01-27 14:00;CYWG 271400Z 35016KT 15SM DRSN FEW020 M23/M26 A3023 RMK SC1 SLP259

CYWG;2007-01-27 15:00;CYWG 271500Z 35016KT 15SM DRSN FEW020 M23/M26 A3026 RMK SC1 SLP274

CYWG;2007-01-27 16:00;CYWG 271600Z 36015KT 15SM DRSN SKC M22/M31 A3031 RMK SLP288

CYWG;2007-01-27 17:00;CYWG 271700Z 36014KT 15SM SKC M22/M29 A3032 RMK SLP294

CYWG;2007-01-27 18:00;CYWG 271800Z 36012KT 15SM SKC M21/M28 A3033 RMK SLP300

CYWG;2007-01-27 19:00;CYWG 271900Z 36013KT 15SM SKC M20/M28 A3034 RMK SLP302

CYWG;2007-01-27 20:00;CYWG 272000Z 34013KT 15SM SKC M19/M27 A3034 RMK SLP301

CYWG;2007-01-27 21:00;CYWG 272100Z 34014KT 15SM SKC M19/M27 A3034 RMK SLP301

CYWG;2007-01-27 22:00;CYWG 272200Z 33010KT 15SM SKC M20/M26 A3035 RMK SLP305

CYWG;2007-01-27 23:00;CYWG 272300Z 31010KT 15SM SKC M22/M27 A3038 RMK SLP314

CYWG;2007-01-28 00:00;CYWG 280000Z 32012KT 15SM SKC M23/M28 A3039 RMK SLP321

CYWG;2007-01-28 01:00;CYWG 280100Z 30010KT 15SM SKC M26/M31 A3039 RMK SLP320

CYWG;2007-01-28 02:00;CYWG 280200Z 31007KT 15SM SKC M28/M32 A3038 RMK SLP319

CYWG;2007-01-28 03:00;CYWG 280300Z 30006KT 15SM SKC M26/M31 A3036 RMK SLP311

CYWG;2007-01-28 04:00;CYWG 280400Z 28007KT 15SM SKC M27/M31 A3034 RMK SLP305

CYWG;2007-01-28 05:00;CYWG 280500Z 27005KT 15SM SKC M27/M32 A3032 RMK SLP298

CYWG;2007-01-28 06:00;CYWG 280600Z 24004KT 15SM SKC M26/M30 A3030 RMK SLP291

CYWG;2007-01-28 07:00;CYWG 280700Z 26007KT 15SM SKC M26/M30 A3029 RMK SLP287

CYWG;2007-01-28 08:00;CYWG 280800Z 26006KT 15SM SKC M27/M30 A3028 RMK SLP283

CYWG;2007-01-28 09:00;CYWG 280900Z 21005KT 15SM SKC M25/M30 A3024 RMK SLP269

CYWG;2007-01-28 10:00;CYWG 281000Z 19005KT 15SM SKC M28/M32 A3021 RMK SLP259

CYWG;2007-01-28 11:00;CYWG 281100Z 18007KT 15SM SKC M27/M31 A3016 RMK SLP242

CYWG;2007-01-28 12:00;CYWG 281200Z 19008KT 15SM SKC M27/M31 A3012 RMK SLP232

CYWG;2007-01-28 13:00;CYWG 281300Z 18011KT 15SM SKC M26/M31 A3007 RMK SLP216

CYWG;2007-01-28 14:00;CYWG 281400Z 18012KT 15SM OVC110 M25/M29 A3003 RMK AC8 SLP201

CYWG;2007-01-28 15:00;CYWG 281500Z 18011KT 15SM OVC110 M24/M28 A3000 RMK AC8 SLP191

CYWG;2007-01-28 16:00;CYWG 281600Z 18016KT 15SM OVC084 M22/M27 A2996 RMK AC8 SLP175

CYWG;2007-01-28 17:00;CYWG 281700Z 18015KT 15SM OVC074 M21/M26 A2992 RMK AC8 SLP164

CYWG;2007-01-28 18:00;CYWG 281800Z 18017KT 15SM BKN061 OVC085 M20/M24 A2988 RMK SC6AC2 SLP146

CYWG;2007-01-28 19:00;CYWG 281900Z 18017KT 15SM SCT031 OVC063 M19/M23 A2984 RMK SC3AC5 SLP135

CYWG;2007-01-28 19:25;CYWG 281925Z 18018G24KT 2SM -SN DRSN BKN015 OVC030 M18/ RMK SC6SC2

CYWG;2007-01-28 19:48;CYWG 281948Z 18020KT 3/4SM R13/P6000FT/N R36/4500VP6000FT/D -SN BLSN OVC015 M18/ RMK BLSN4SC4

CYWG;2007-01-28 20:00;CYWG 282000Z 18022KT 3/4SM R13/4500VP6000FT/D R36/4500VP6000FT/N -SN BLSN OVC011 M18/M22 A2980 RMK BLSN4SC4 SLP120

CYWG;2007-01-28 20:49;CYWG 282049Z 18022KT 2SM -SN BLSN BKN011 OVC070 M17/ RMK SN2SC5AC2

CYWG;2007-01-28 21:00;CYWG 282100Z 18024KT 3/4SM R13/P6000FT/U R36/P6000FT/D -SN BLSN OVC011 M17/M20 A2977 RMK SN4SC4 SLP110

CYWG;2007-01-28 21:09;CYWG 282109Z 18021G26KT 5/8SM R13/3500V5500FT/N R36/3500V6000FT/D -SN BLSN OVC011 M17/ RMK SN4SC4

CYWG;2007-01-28 21:25;CYWG 282125Z 19019G25KT 1 1/2SM -SN BLSN OVC013 M17/ RMK SN2SC6

CYWG;2007-01-28 21:35;CYWG 282135Z 18020G26KT 1SM R13/P6000FT/D R36/6000FT/D -SN BLSN OVC013 M17/ RMK SN2SC6 VIS VRB 3/4-11/2

CYWG;2007-01-28 22:00;CYWG 282200Z 18019KT 1SM R13/P6000FT/U R36/5500FT/U -SN BLSN OVC015 M16/M20 A2976 RMK SN2SC6 VIS VRB 3/4-1 1/2 SLP105

CYWG;2007-01-28 22:42;CYWG 282242Z 18018KT 5/8SM R13/6000FT/N R36/5000FT/N -SN BLSN VV007 M16/ RMK SN8

CYWG;2007-01-28 23:00;CYWG 282300Z 18015G21KT 1SM R13/P6000FT/U R36/P6000FT/U -SN BLSN OVC012 M16/M19 A2975 RMK SN2SC6 VIS VRB 3/4-1 1/2 SLP101

CYWG;2007-01-29 00:00;CYWG 290000Z 18012KT 1SM R13/P6000FT/U R36/P6000FT/U -SN DRSN OVC013 M16/M19 A2975 RMK SN2SC5 VIS VRB 3/4-1 1/2 SLP101

CYWG;2007-01-29 00:25;CYWG 290025Z 19010KT 3SM -SN DRSN OVC013 M16/ RMK SN2SC4

CYWG;2007-01-29 01:00;CYWG 290100Z 18007KT 3SM -SN OVC020 M16/M18 A2975 RMK SN2SC5 SLP102

CYWG;2007-01-29 02:00;CYWG 290200Z 21002KT 5SM -SN OVC054 M15/M17 A2974 RMK SN1SC7 SLP099

CYWG;2007-01-29 03:00;CYWG 290300Z 32008KT 8SM -SN OVC031 M15/M17 A2974 RMK SC8 SLP098

CYWG;2007-01-29 04:00;CYWG 290400Z 32010KT 10SM -SN BKN057 OVC076 M15/M17 A2975 RMK SC6AC2 SLP099

CYWG;2007-01-29 05:00;CYWG 290500Z 33012KT 8SM -SN SCT062 OVC080 M15/M17 A2976 RMK SC3AC5 SLP102

CYWG;2007-01-29 06:00;CYWG 290600Z 34011KT 8SM -SN BKN062 OVC090 M15/M17 A2977 RMK SC6AC2 SLP104

CYWG;2007-01-29 07:00;CYWG 290700Z 35013KT 8SM -SN DRSN BKN068 OVC097 M15/M18 A2979 RMK AC6AC2 SLP110

CYWG;2007-01-29 08:00;CYWG 290800Z 35015KT 6SM -SN BLSN FEW019 BKN049 OVC097 M15/M18 A2981 RMK SC1SC6AC2 SLP117

CYWG;2007-01-29 09:00;CYWG 290900Z 36012KT 6SM -SN BLSN BKN021 OVC077 M16/M19 A2983 RMK SC6AC2 SLP123

CYWG;2007-01-29 10:00;CYWG 291000Z 36015KT 5SM -SN BLSN SCT024 OVC047 M16/M20 A2985 RMK SC3SC5 SLP130

CYWG;2007-01-29 11:00;CYWG 291100Z 35015G21KT 5SM -SN BLSN SCT022 BKN082 OVC098 M17/M20 A2988 RMK SC3AC3AC2 SLP140

CYWG;2007-01-29 12:00;CYWG 291200Z CCA 35016KT 5SM -SN BLSN OVC027 M17/M21 A2991 RMK SC8 SLP151

CYWG;2007-01-29 13:00;CYWG 291300Z 36015KT 4SM -SN BLSN OVC030 M17/M21 A2994 RMK SC8 SLP162

CYWG;2007-01-29 14:00;CYWG 291400Z 36014KT 5SM -SN BLSN BKN031 OVC230 M18/M22 A2998 RMK SC5CI2 SLP175

CYWG;2007-01-29 15:00;CYWG 291500Z 36013KT 10SM FEW021 FEW120 BKN230 M18/M22 A3000 RMK SF1AC1CI0 BLSN SLP183

CYWG;2007-01-29 16:00;CYWG 291600Z 35017KT 12SM DRSN FEW024 BKN230 M18/M22 A3004 RMK SF1CI1 SLP197

CYWG;2007-01-29 17:00;CYWG 291700Z 35017KT 6SM -SN BLSN FEW013 BKN230 M18/M22 A3007 RMK SN1SF1CI1 SLP206

CYWG;2007-01-29 18:00;CYWG 291800Z 36016KT 6SM -SN BLSN OVC022 M18/M22 A3010 RMK SC8 SLP216

CYWG;2007-01-29 19:00;CYWG 291900Z 36017KT 6SM -SN BLSN FEW007 SCT048 BKN230 M18/M22 A3012 RMK SF1SC2CI0 SLP222

CYWG;2007-01-29 20:00;CYWG 292000Z 36015KT 6SM DRSN SCT028 BKN230 M17/M22 A3013 RMK SC3CI1 SLP227

CYWG;2007-01-29 21:00;CYWG 292100Z 36018G25KT 5SM BLSN SCT025 BKN230 M17/M22 A3016 RMK SC3CI1 SLP236

CYWG;2007-01-29 22:00;CYWG 292200Z 36014KT 15SM DRSN FEW025 SCT230 M17/M22 A3019 RMK SC1CI2 SLP246

CYWG;2007-01-29 23:00;CYWG 292300Z 36013KT 15SM DRSN FEW230 M18/M23 A3022 RMK CI1 SLP256

CYWG;2007-01-30 00:00;CYWG 300000Z 36011KT 15SM DRSN SKC M19/M25 A3024 RMK SLP265

CYWG;2007-01-30 01:00;CYWG 300100Z 36009KT 15SM SKC M22/M27 A3026 RMK SLP274

CYWG;2007-01-30 02:00;CYWG 300200Z 33008KT 15SM SKC M25/M30 A3029 RMK SLP281

CYWG;2007-01-30 03:00;CYWG 300300Z 35009KT 15SM SKC M24/M29 A3030 RMK SLP288

CYWG;2007-01-30 04:00;CYWG 300400Z 32007KT 15SM SKC M28/M32 A3031 RMK SLP292

CYWG;2007-01-30 05:00;CYWG 300500Z 30008KT 15SM SKC M28/M31 A3031 RMK SLP292

CYWG;2007-01-30 06:00;CYWG 300600Z 29008KT 15SM SKC M27/M31 A3031 RMK SLP293

CYWG;2007-01-30 07:00;CYWG 300700Z 28011KT 15SM SKC M27/M32 A3031 RMK SLP294

CYWG;2007-01-30 08:00;CYWG 300800Z 27008KT 15SM SKC M25/M29 A3030 RMK SLP289

CYWG;2007-01-30 09:00;CYWG 300900Z 27007KT 15SM SKC M26/M30 A3029 RMK SLP284

CYWG;2007-01-30 10:00;CYWG 301000Z 26007KT 15SM SKC M25/M29 A3027 RMK SLP280

CYWG;2007-01-30 12:00;CYWG 301200Z 26009KT 15SM SKC M25/M29 A3023 RMK SLP265

CYWG;2007-01-30 13:00;CYWG 301300Z 25008KT 15SM FEW250 M25/M29 A3020 RMK CI1 SLP255

CYWG;2007-01-30 14:00;CYWG 301400Z 23006KT 15SM FEW100 SCT250 M25/M29 A3017 RMK AC1CI2 SLP247

CYWG;2007-01-30 15:00;CYWG 301500Z 21005KT 15SM R36/2800VP6000FT/D FEW100 BKN250 M25/M29 A3015 RMK AC1CI3 SLP241

CYWG;2007-01-30 16:00;CYWG 301600Z 22007KT 15SM BKN250 M22/M26 A3011 RMK CI4 SLP228

CYWG;2007-01-30 17:00;CYWG 301700Z 20007KT 15SM OVC250 M21/M26 A3010 RMK CI6 SLP224

CYWG;2007-01-30 18:00;CYWG 301800Z 20009KT 15SM OVC250 M20/M25 A3007 RMK CI6 SLP213

CYWG;2007-01-30 19:00;CYWG 301900Z 21010KT 15SM OVC250 M18/M24 A3003 RMK CI6 SLP199

CYWG;2007-01-30 20:00;CYWG 302000Z 20008KT 15SM OVC250 M16/M22 A3000 RMK CI5 SLP189

CYWG;2007-01-30 21:00;CYWG 302100Z 20012KT 15SM FEW090 OVC250 M15/M21 A2997 RMK AS2CI3 SLP175

CYWG;2007-01-30 22:00;CYWG 302200Z 20013KT 15SM BKN090 BKN250 M15/M20 A2995 RMK AS6CI1 SLP168

CYWG;2007-01-30 23:00;CYWG 302300Z 19014KT 15SM BKN130 M14/M20 A2992 RMK AS7 SLP158

CYWG;2007-01-31 00:00;CYWG 310000Z 18014KT 15SM FEW130 BKN250 M16/M21 A2990 RMK AS2CI2 SLP151

CYWG;2007-01-31 01:00;CYWG 310100Z 19012KT 15SM BKN250 M16/M21 A2988 RMK CI2 SLP146

CYWG;2007-01-31 02:00;CYWG 310200Z 20012KT 15SM BKN250 M16/M21 A2987 RMK CI2 SLP141

CYWG;2007-01-31 03:00;CYWG 310300Z 20009KT 15SM FEW080 BKN250 M16/M21 A2986 RMK AC2CI2 SLP137

CYWG;2007-01-31 04:00;CYWG 310400Z 18007KT 15SM BKN250 M17/M21 A2984 RMK CI5 SLP133

CYWG;2007-01-31 05:00;CYWG 310500Z 18008KT 15SM BKN250 M16/M20 A2984 RMK CI6 SLP132

CYWG;2007-01-31 06:00;CYWG 310600Z 14005KT 15SM BKN089 OVC250 M16/M20 A2984 RMK AC6CI2 SLP131

CYWG;2007-01-31 07:00;CYWG 310700Z 17003KT 15SM BKN083 M16/M19 A2985 RMK AC7 SLP132

CYWG;2007-01-31 08:00;CYWG 310800Z 05007KT 15SM OVC083 M16/M20 A2985 RMK AC8 SLP132

CYWG;2007-01-31 09:00;CYWG 310900Z 03008KT 15SM BKN075 M17/M21 A2986 RMK AC7 SLP133

CYWG;2007-01-31 10:00;CYWG 311000Z 02011KT 15SM BKN075 M18/M22 A2987 RMK AC6 SLP137

CYWG;2007-01-31 11:00;CYWG 311100Z 02014KT 15SM BKN074 M18/M22 A2988 RMK AC7 SLP142

CYWG;2007-01-31 12:00;CYWG 311200Z 02016KT 15SM BKN074 M20/M24 A2990 RMK AC6 SLP149

CYWG;2007-01-31 13:00;CYWG 311300Z 01019KT 15SM BKN074 M20/M25 A2991 RMK AC6 SLP154

CYWG;2007-01-31 14:00;CYWG 311400Z 01014KT 15SM SCT075 M20/M24 A2992 RMK AC2 SLP155

CYWG;2007-01-31 15:00;CYWG 311500Z 35009KT 15SM FEW075 M22/M26 A2992 RMK AC2 SLP157

CYWG;2007-01-31 16:00;CYWG 311600Z 34009KT 15SM SKC M22/M27 A2992 RMK SLP157

CYWG;2007-01-31 17:00;CYWG 311700Z 33011KT 15SM FEW250 M22/M26 A2993 RMK CI1 SLP160

CYWG;2007-01-31 18:00;CYWG 311800Z 33012KT 15SM SCT250 M21/M25 A2991 RMK CI2 SLP154

CYWG;2007-01-31 19:00;CYWG 311900Z 32010KT 15SM FEW250 M20/M24 A2990 RMK CI1 SLP151

CYWG;2007-01-31 20:00;CYWG 312000Z 30010KT 15SM FEW250 M19/M24 A2987 RMK CI1 SLP141

CYWG;2007-01-31 21:00;CYWG 312100Z 30010KT 15SM FEW250 M19/M24 A2984 RMK CI1 SLP129

CYWG;2007-01-31 22:00;CYWG 312200Z 27008KT 15SM SCT250 M20/M24 A2981 RMK CI1 SLP121

CYWG;2007-01-31 23:00;CYWG 312300Z 23007KT 15SM SCT250 M20/M24 A2977 RMK CI2 SLP108

CYWG;2007-02-01 01:00;CYWG 010100Z 23009KT 15SM OVC240 M19/M24 A2970 RMK CI3 SLP084

CYWG;2007-02-01 02:00;CYWG 010200Z 23006KT 15SM SCT037 OVC240 M19/M24 A2967 RMK SC3CI1 SLP074

CYWG;2007-02-01 02:40;CYWG 010240Z 25005KT 10SM -SN BKN027 OVC240 M18/ RMK SC5CI1

CYWG;2007-02-01 03:00;CYWG 010300Z 26004KT 3SM -SN BKN023 OVC230 M18/M22 A2965 RMK SC6CI1 SLP065

CYWG;2007-02-01 03:05;CYWG 010305Z 25004KT 2SM -SN BKN021 OVC230 M17/ RMK SC6CI1

CYWG;2007-02-01 04:00;CYWG 010400Z 27009KT 1 1/2SM -SN OVC014 M15/M18 A2963 RMK SN5SC3 SLP059

CYWG;2007-02-01 04:10;CYWG 010410Z 28010KT 1SM R31/P6000FT/D R36/P6000FT/D -SN OVC012 M15/ RMK SN6ST2

CYWG;2007-02-01 05:00;CYWG 010500Z 29010KT 1SM R31/P6000FT/N R36/P6000FT/N -SN OVC010 M15/M18 A2962 RMK SN6ST2 SLP055

CYWG;2007-02-01 05:42;CYWG 010542Z 28008KT 1 1/2SM -SN OVC016 M15/ RMK SN6ST2 MOON DMLY VIS

CYWG;2007-02-01 06:00;CYWG 010600Z 29009KT 2SM -SN OVC016 M15/M18 A2961 RMK ST8 SLP052

CYWG;2007-02-01 06:40;CYWG 010640Z 29007KT 1SM R31/P6000FT/N R36/P6000FT/N -SN OVC014 M15/ RMK SN6ST2

CYWG;2007-02-01 07:00;CYWG 010700Z 29006KT 2SM -SN OVC014 M15/M18 A2961 RMK ST8 SLP051

CYWG;2007-02-01 08:00;CYWG 010800Z 36009KT 2SM -SN OVC016 M14/M17 A2962 RMK ST8 SLP055

CYWG;2007-02-01 09:00;CYWG 010900Z 01008KT 3SM -SN OVC016 M14/M17 A2964 RMK ST8 SLP061

CYWG;2007-02-01 09:39;CYWG 010939Z 01011KT 1SM R31/P6000FT/N R36/P6000FT/D -SN OVC007 M14/ RMK SN6ST2 MOON VISBL

CYWG;2007-02-01 10:00;CYWG 011000Z 01016KT 2SM -SN OVC012 M15/M18 A2967 RMK SN6ST2 SLP072

CYWG;2007-02-01 10:51;CYWG 011051Z 01018KT 4SM -SN DRSN OVC022 M16/ RMK ST8

CYWG;2007-02-01 11:00;CYWG 011100Z 01015G20KT 4SM -SN DRSN OVC017 M16/M20 A2971 RMK ST8 SLP083

CYWG;2007-02-01 11:29;CYWG 011129Z 02015KT 12SM DRSN BKN074 M16/ RMK AC7

CYWG;2007-02-01 11:47;CYWG 011147Z 01015KT 15SM DRSN SCT007 BKN075 M16/ RMK SF3AC4

CYWG;2007-02-01 12:00;CYWG 011200Z 02017KT 12SM DRSN FEW007 BKN075 M17/M21 A2973 RMK SF2AC6 SLP093

CYWG;2007-02-01 13:00;CYWG 011300Z 01011KT 12SM DRSN FEW020 SCT063 M19/M24 A2977 RMK SF2AC2 SLP105

CYWG;2007-02-01 13:34;CYWG 011334Z 01017KT 12SM DRSN FEW006 SCT020 BKN075 M21/ RMK SF2SC2AC2

CYWG;2007-02-01 14:00;CYWG 011400Z 01012KT 15SM DRSN FEW007 FEW080 FEW210 M21/M26 A2982 RMK SF1AC1CI0 SLP123

CYWG;2007-02-01 15:00;CYWG 011500Z 35012KT 15SM DRSN FEW006 FEW210 M23/M27 A2986 RMK SF1CI0 SLP137

CYWG;2007-02-01 16:00;CYWG 011600Z 36016G21KT 15SM DRSN SKC M23/M28 A2989 RMK SLP147

CYWG;2007-02-01 17:00;CYWG 011700Z 34011KT 15SM DRSN SKC M23/M28 A2991 RMK SLP156

CYWG;2007-02-01 18:00;CYWG 011800Z 33013KT 15SM DRSN FEW009 M22/M28 A2992 RMK SF1 SLP156

CYWG;2007-02-01 19:00;CYWG 011900Z 32012KT 15SM FEW010 M22/M28 A2991 RMK SF1 SLP153

CYWG;2007-02-01 20:00;CYWG 012000Z 30013KT 15SM FEW030 M22/M27 A2989 RMK SF1 SLP147

CYWG;2007-02-01 21:00;CYWG 012100Z 31012KT 15SM FEW030 M22/M27 A2987 RMK SF1 SLP140

CYWG;2007-02-01 22:00;CYWG 012200Z 28011KT 15SM FEW080 M21/M27 A2986 RMK AC1 SLP135

CYWG;2007-02-01 23:00;CYWG 012300Z 26007KT 15SM FEW080 M22/M28 A2983 RMK AC1 SLP128

CYWG;2007-02-02 00:00;CYWG 020000Z 23006KT 15SM FEW080 SCT240 M23/M28 A2982 RMK AC1CI1 SLP123

CYWG;2007-02-02 01:00;CYWG 020100Z 23009KT 15SM BKN076 M22/M28 A2978 RMK AC2 SLP112

CYWG;2007-02-02 02:00;CYWG 020200Z 23007KT 15SM FEW027 BKN076 M22/M27 A2975 RMK ST2AC2 SLP100

CYWG;2007-02-02 03:00;CYWG 020300Z 28010KT 3SM -SN BKN012 OVC076 M20/M25 A2973 RMK SN2ST1AC2 SLP095

CYWG;2007-02-02 03:19;CYWG 020319Z 29015KT 2SM -SN BLSN OVC076 M19/ RMK SN2AC2

CYWG;2007-02-02 04:00;CYWG 020400Z 30013KT 6SM IC DRSN BKN098 OVC210 M19/M23 A2971 RMK AC5CI2 SLP087

CYWG;2007-02-02 05:00;CYWG 020500Z 29010KT 6SM IC DRSN FEW021 BKN084 M20/M24 A2970 RMK SF2AC4 SLP084

CYWG;2007-02-02 06:00;CYWG 020600Z 29012KT 12SM FEW029 FEW045 BKN075 M21/M26 A2969 RMK SF1SC2AC2 SLP081

CYWG;2007-02-02 06:30;CYWG 020630Z 29010KT 4SM IC FEW012 BKN063 M21/ RMK SF1AC4

CYWG;2007-02-02 07:00;CYWG 020700Z 29011KT 12SM FEW035 BKN210 M23/M27 A2967 RMK SF1CI3 SLP075

CYWG;2007-02-02 07:45;CYWG 020745Z 28010KT 15SM BKN210 M24/ RMK CI2

CYWG;2007-02-02 08:00;CYWG 020800Z 28010KT 15SM FEW210 M24/M29 A2966 RMK CI1 SLP071

CYWG;2007-02-02 09:00;CYWG 020900Z 27007KT 15SM FEW025 M24/M28 A2965 RMK SC2 SLP068

CYWG;2007-02-02 10:00;CYWG 021000Z 27005KT 15SM FEW021 M26/M30 A2963 RMK SC2 SLP062

CYWG;2007-02-02 11:00;CYWG 021100Z 28005KT 15SM FEW034 FEW078 M26/M31 A2961 RMK SC1AC2 SLP057

CYWG;2007-02-02 12:00;CYWG 021200Z 28006KT 15SM BKN071 M29/M32 A2960 RMK AC6 SLP054

CYWG;2007-02-02 13:00;CYWG 021300Z 29007KT 15SM BKN024 BKN094 M28/M32 A2961 RMK SC5AC2 SLP056

CYWG;2007-02-02 14:00;CYWG 021400Z 30005KT 15SM SCT042 BKN094 M29/M33 A2961 RMK SC3AC1 SLP055

CYWG;2007-02-02 15:00;CYWG 021500Z 34008KT 15SM FEW042 FEW075 BKN250 M31/M35 A2961 RMK SC2AC1CI1 SLP059

CYWG;2007-02-02 16:00;CYWG 021600Z 34006KT 15SM FEW075 SCT250 M30/M33 A2963 RMK AC1CI1 SLP063

CYWG;2007-02-02 17:00;CYWG 021700Z 34007KT 15SM FEW030 BKN250 M26/M31 A2964 RMK SC1CI1 SLP069

CYWG;2007-02-02 18:00;CYWG 021800Z 32004KT 15SM FEW030 BKN250 M25/M29 A2965 RMK SC1CS2 SLP069

CYWG;2007-02-02 19:00;CYWG 021900Z 30009KT 15SM BKN250 M24/M28 A2966 RMK CI2 SLP071

CYWG;2007-02-02 20:00;CYWG 022000Z 31016KT 15SM DRSN SCT250 M23/M28 A2967 RMK CI2 SLP076

CYWG;2007-02-02 21:00;CYWG 022100Z 32016G21KT 15SM DRSN BKN250 M23/M28 A2969 RMK CI2 SLP082

CYWG;2007-02-02 22:00;CYWG 022200Z 32016KT 8SM DRSN FEW030 OVC250 M24/M29 A2972 RMK SC1CI3 SLP093

CYWG;2007-02-02 22:37;CYWG 022237Z 32015KT 6SM -SN BLSN OVC250 M23/ RMK SN3CI3 VIS 1 1/2 NE-SE

CYWG;2007-02-02 22:51;CYWG 022251Z 32015KT 1 1/2SM -SN BLSN OVC250 M23/ RMK SN6CI2

CYWG;2007-02-02 23:00;CYWG 022300Z 32019KT 1 1/2SM -SN BLSN OVC250 M23/M28 A2976 RMK SN6CI2 SLP105

CYWG;2007-02-02 23:40;CYWG 022340Z 36016G22KT 4SM BLSN FEW030 OVC250 M24/ RMK SC2CI2

CYWG;2007-02-03 00:00;CYWG 030000Z 36013G19KT 10SM DRSN FEW030 BKN250 M25/M32 A2980 REBLSN RMK SC2CI3 SLP124

CYWG;2007-02-03 01:00;CYWG 030100Z 35011KT 15SM DRSN SCT250 M27/M33 A2983 RMK CI2 SLP133

CYWG;2007-02-03 02:00;CYWG 030200Z 35013KT 15SM DRSN SCT250 M27/M33 A2985 RMK CI4 SLP141

CYWG;2007-02-03 03:00;CYWG 030300Z 36008KT 15SM DRSN FEW250 M29/M34 A2987 RMK CI2 SLP148

CYWG;2007-02-03 04:00;CYWG 030400Z CCA 35009KT 15SM DRSN FEW250 M31/M37 A2989 RMK CI1 SLP155

CYWG;2007-02-03 05:00;CYWG 030500Z 34009KT 15SM DRSN FEW250 M32/M37 A2990 RMK CI1 SLP158

CYWG;2007-02-03 06:00;CYWG 030600Z 32008KT 5SM IC DRSN SCT250 M32/M37 A2991 RMK CI2 SLP162

CYWG;2007-02-03 07:00;CYWG 030700Z 30010KT 15SM FEW250 M34/M40 A2992 RMK CI0 SLP165

CYWG;2007-02-03 08:00;CYWG 030800Z 31009KT 15SM SKC M36/M41 A2993 RMK SLP168

CYWG;2007-02-03 09:00;CYWG 030900Z 30008KT 15SM SKC M37/M41 A2994 RMK SLP175

CYWG;2007-02-03 10:00;CYWG 031000Z 31008KT 15SM SKC M37/M42 A2995 RMK SLP178

CYWG;2007-02-03 11:00;CYWG 031100Z 29008KT 15SM FEW210 M37/M41 A2996 RMK CI0 SLP182

CYWG;2007-02-03 12:00;CYWG 031200Z 28006KT 8SM FEW210 M37/M41 A2997 RMK CI1 SLP184

CYWG;2007-02-03 13:00;CYWG 031300Z 28005KT 10SM FEW210 M37/M42 A2997 RMK CI2 SLP185

CYWG;2007-02-03 14:00;CYWG 031400Z 27006KT 15SM FEW096 SCT210 M36/M40 A2998 RMK AC1CI2 SLP189

CYWG;2007-02-03 15:00;CYWG 031500Z 27008KT 15SM FEW034 FEW096 FEW210 M34/M38 A2999 RMK SC1AC1CI1 IC SLP194

CYWG;2007-02-03 16:00;CYWG 031600Z 28006KT 15SM FEW018 SCT100 OVC210 M33/M38 A3001 RMK SC2AC2CI0 IC SLP198

CYWG;2007-02-03 17:00;CYWG 031700Z 28005KT 6SM IC SCT015 SCT043 OVC210 M30/M35 A3000 RMK SC3SC1CI2 SLP197

CYWG;2007-02-03 18:00;CYWG 031800Z 27008KT 5SM IC FEW015 OVC084 M29/M34 A3000 RMK SC2AS5 SLP195

CYWG;2007-02-03 19:00;CYWG 031900Z 27008KT 10SM FEW027 SCT058 OVC090 M28/M33 A3000 RMK SC2SC2AS1 IC SLP194

CYWG;2007-02-03 20:00;CYWG 032000Z 27006KT 10SM OVC230 M27/M33 A3000 RMK CI4 IC SLP195

CYWG;2007-02-03 21:00;CYWG 032100Z 29008KT 15SM OVC230 M27/M33 A3000 RMK CI6 SLP196

CYWG;2007-02-03 22:00;CYWG 032200Z 32011KT 7SM OVC230 M26/M33 A3003 RMK CI3 IC SLP205

CYWG;2007-02-03 23:00;CYWG 032300Z 30009KT 15SM SCT230 M28/M34 A3004 RMK CI3 SLP210

CYWG;2007-02-04 00:00;CYWG 040000Z 30008KT 15SM FEW230 M31/M37 A3006 RMK CI2 SLP220

CYWG;2007-02-04 01:00;CYWG 040100Z 30010KT 15SM FEW230 M33/M38 A3009 RMK CI2 SLP228

CYWG;2007-02-04 02:00;CYWG 040200Z 31007KT 15SM FEW230 M35/M40 A3011 RMK CI1 SLP235

CYWG;2007-02-04 03:00;CYWG 040300Z 30007KT 15SM FEW230 M36/M41 A3013 RMK CI2 SLP243

CYWG;2007-02-04 04:00;CYWG 040400Z 29008KT 15SM FEW210 M35/M39 A3015 RMK CI1 SLP249

CYWG;2007-02-04 05:00;CYWG 040500Z 32006KT 15SM SKC M38/M43 A3017 RMK SLP256

CYWG;2007-02-04 06:00;CYWG 040600Z 31005KT 15SM SKC M37/M42 A3019 RMK SLP261

CYWG;2007-02-04 07:00;CYWG 040700Z 30008KT 15SM SKC M37/M41 A3020 RMK SLP266

CYWG;2007-02-04 08:00;CYWG 040800Z 29008KT 15SM SKC M38/M42 A3022 RMK SLP270

CYWG;2007-02-04 09:00;CYWG 040900Z 30008KT 15SM SKC M39/M43 A3024 RMK SLP280

CYWG;2007-02-04 10:00;CYWG 041000Z 30007KT 15SM SKC M39/M43 A3027 RMK SLP288

CYWG;2007-02-04 11:00;CYWG 041100Z 29006KT 15SM SKC M38/M43 A3028 RMK SLP292

CYWG;2007-02-04 12:00;CYWG 041200Z 30008KT 15SM SKC M37/M42 A3030 RMK SLP300

CYWG;2007-02-04 13:00;CYWG 041300Z 29005KT 3SM BR SKC M37/M41 A3032 RMK SLP309

CYWG;2007-02-04 13:46;CYWG 041346Z 30007KT 1 1/2SM BR SKC M38/ RMK VIS NW 10

CYWG;2007-02-04 14:00;CYWG 041400Z 29005KT 1SM R31/P6000FT/D R36/P6000FT/D BR SKC M38/M42 A3033 RMK VIS NW 4 VIS S 1/2 SLP312

CYWG;2007-02-04 15:00;CYWG 041500Z 27006KT 1SM R31/4000VP6000FT/D R36/P6000FT/N BR SKC M37/M41 A3036 RMK VIS W 1/2 SLP322

CYWG;2007-02-04 15:21;CYWG 041521Z 28008KT 5SM R31/6000FT/D IC BR SKC M35/ RMK VIS NE-E 3/4

CYWG;2007-02-04 16:00;CYWG 041600Z 28005KT 15SM SKC M33/M37 A3038 RMK VIS NE-E 2 BR SLP331

CYWG;2007-02-04 17:00;CYWG 041700Z 29005KT 15SM SKC M34/M38 A3040 RMK IC SLP335

CYWG;2007-02-04 18:00;CYWG 041800Z 29006KT 15SM SKC M31/M35 A3041 RMK SLP340

CYWG;2007-02-04 19:00;CYWG 041900Z 29005KT 15SM SKC M30/M34 A3043 RMK SLP346

CYWG;2007-02-04 20:00;CYWG 042000Z 31002KT 15SM SKC M29/M34 A3044 RMK SLP347

CYWG;2007-02-04 21:00;CYWG 042100Z 29004KT 15SM SKC M28/M33 A3045 RMK SLP349

CYWG;2007-02-04 22:00;CYWG 042200Z 27004KT 15SM SKC M27/M33 A3046 RMK SLP354

CYWG;2007-02-04 23:00;CYWG 042300Z 27004KT 15SM SKC M28/M34 A3048 RMK SLP359

CYWG;2007-02-05 00:00;CYWG 050000Z 25004KT 15SM SKC M29/M34 A3048 RMK SLP362

CYWG;2007-02-05 01:00;CYWG 050100Z 26006KT 15SM SKC M31/M36 A3050 RMK SLP368

CYWG;2007-02-05 02:00;CYWG 050200Z 27005KT 15SM SKC M31/M35 A3051 RMK SLP369

CYWG;2007-02-05 03:00;CYWG 050300Z 28007KT 15SM SKC M34/M37 A3052 RMK SLP378

CYWG;2007-02-05 04:00;CYWG 050400Z 30006KT 15SM SKC M38/M42 A3054 RMK SLP384

CYWG;2007-02-05 05:00;CYWG 050500Z 31005KT 15SM SKC M36/M41 A3054 RMK SLP385

CYWG;2007-02-05 06:00;CYWG 050600Z 28006KT 15SM SKC M36/M40 A3056 RMK SLP389

CYWG;2007-02-05 07:00;CYWG 050700Z 30008KT 15SM SKC M34/M38 A3058 RMK SLP394

CYWG;2007-02-05 08:00;CYWG 050800Z 27006KT 4SM BR SKC M35/M39 A3059 RMK SLP399

CYWG;2007-02-05 09:00;CYWG 050900Z 31005KT 15SM SKC M37/M40 A3059 RMK SLP398

CYWG;2007-02-05 10:00;CYWG 051000Z 30005KT 15SM SKC M39/M43 A3059 RMK SLP397

CYWG;2007-02-05 11:00;CYWG 051100Z 28006KT 15SM SKC M38/M44 A3060 RMK SLP401

CYWG;2007-02-05 12:00;CYWG 051200Z 28003KT 15SM SKC M39/M45 A3061 RMK SLP405

CYWG;2007-02-05 13:00;CYWG 051300Z 30003KT 15SM SKC M40/M45 A3061 RMK SLP406

CYWG;2007-02-05 14:00;CYWG 051400Z 24002KT 15SM SKC M40/M45 A3061 RMK SLP407

CYWG;2007-02-05 15:00;CYWG 051500Z 25002KT 15SM SKC M38/M43 A3062 RMK SLP411

CYWG;2007-02-05 16:00;CYWG 051600Z 00000KT 15SM SKC M33/M39 A3062 RMK SLP412

CYWG;2007-02-05 17:00;CYWG 051700Z 32002KT 15SM SKC M33/M37 A3061 RMK SLP410

CYWG;2007-02-05 18:00;CYWG 051800Z 27004KT 15SM SKC M30/M34 A3059 RMK SLP399

CYWG;2007-02-05 19:00;CYWG 051900Z 31002KT 15SM SKC M27/M32 A3059 RMK SLP397

CYWG;2007-02-05 20:00;CYWG 052000Z 21004KT 15SM SKC M25/M30 A3057 RMK SLP390

CYWG;2007-02-05 21:00;CYWG 052100Z 21005KT 15SM SKC M25/M31 A3055 RMK SLP382

CYWG;2007-02-05 22:00;CYWG 052200Z 18005KT 15SM FEW200 M26/M32 A3053 RMK CI1 SLP377

CYWG;2007-02-05 23:00;CYWG 052300Z 20005KT 15SM FEW200 M26/M33 A3051 RMK CI1 SLP368

CYWG;2007-02-06 00:00;CYWG 060000Z 18007KT 15SM FEW200 M29/M35 A3048 RMK CI1 SLP362

CYWG;2007-02-06 01:00;CYWG 060100Z 19007KT 15SM SKC M29/M34 A3046 RMK SLP355

CYWG;2007-02-06 02:00;CYWG 060200Z 18006KT 15SM SKC M30/M35 A3043 RMK SLP346

CYWG;2007-02-06 03:00;CYWG 060300Z 18004KT 15SM SCT200 M30/M35 A3040 RMK CI2 SLP335

CYWG;2007-02-06 04:00;CYWG 060400Z 18007KT 15SM SCT200 M29/M34 A3039 RMK CI2 SLP331

CYWG;2007-02-06 05:00;CYWG 060500Z 18006KT 15SM BKN210 M29/M33 A3035 RMK CI2 SLP318

CYWG;2007-02-06 06:00;CYWG 060600Z 17006KT 15SM BKN210 M28/M32 A3033 RMK CI3 SLP307

CYWG;2007-02-06 07:00;CYWG 060700Z 17005KT 15SM BKN210 M28/M33 A3032 RMK CI4 SLP303

CYWG;2007-02-06 08:00;CYWG 060800Z 16005KT 15SM FEW210 M28/M33 A3031 RMK CI2 SLP299

CYWG;2007-02-06 09:00;CYWG 060900Z 12006KT 15SM FEW210 M30/M34 A3028 RMK CI1 SLP288

CYWG;2007-02-06 10:00;CYWG 061000Z 10004KT 15SM SCT210 M30/M35 A3027 RMK CI2 SLP284

CYWG;2007-02-06 11:00;CYWG 061100Z 07005KT 4SM BR SCT210 M30/M34 A3028 RMK CI2 SLP287

CYWG;2007-02-06 12:00;CYWG 061200Z 06005KT 10SM SCT210 M30/M34 A3029 RMK CI2 SLP291

CYWG;2007-02-06 13:00;CYWG 061300Z 05004KT 10SM BKN210 M31/M36 A3029 RMK CI2 SLP292

CYWG;2007-02-06 14:00;CYWG 061400Z 03006KT 8SM FEW120 M34/M38 A3030 RMK AC1 SLP296

CYWG;2007-02-06 15:00;CYWG 061500Z 03008KT 2SM R31/3500V5500FT/D BR SKC M34/M38 A3031 RMK FG1 SLP303

CYWG;2007-02-06 15:14;CYWG 061514Z 03008KT 3SM R31/3500VP6000FT/U BR SKC M33/ RMK FG1

CYWG;2007-02-06 16:00;CYWG 061600Z 01004KT 3SM BR SKC M33/M37 A3035 RMK SLP314

CYWG;2007-02-06 17:00;CYWG 061700Z 35003KT 6SM BR SKC M31/M35 A3036 RMK SLP320

CYWG;2007-02-06 18:00;CYWG 061800Z 36004KT 10SM SKC M28/M33 A3038 RMK SLP321

CYWG;2007-02-06 19:00;CYWG 061900Z 30003KT 15SM SKC M27/M32 A3037 RMK IC SLP320

CYWG;2007-02-06 20:00;CYWG 062000Z 31003KT 15SM SKC M26/M31 A3037 RMK SLP319

CYWG;2007-02-06 21:00;CYWG 062100Z 29006KT 15SM SKC M25/M31 A3038 RMK SLP321

CYWG;2007-02-06 22:00;CYWG 062200Z 27007KT 15SM SKC M24/M30 A3038 RMK SLP321

CYWG;2007-02-06 23:00;CYWG 062300Z 28008KT 15SM SKC M26/M31 A3038 RMK SLP323

CYWG;2007-02-07 00:00;CYWG 070000Z 29009KT 15SM SKC M28/M33 A3038 RMK SLP322

CYWG;2007-02-07 01:00;CYWG 070100Z 28009KT 15SM SKC M28/M33 A3038 RMK SLP323

CYWG;2007-02-07 02:00;CYWG 070200Z 29008KT 15SM SKC M30/M34 A3038 RMK SLP324

CYWG;2007-02-07 03:00;CYWG 070300Z 29006KT 15SM SKC M30/M33 A3039 RMK SLP328

CYWG;2007-02-07 04:00;CYWG 070400Z 27008KT 15SM SKC M30/M35 A3039 RMK SLP328

CYWG;2007-02-07 05:00;CYWG 070500Z 28011KT 15SM SKC M30/M35 A3038 RMK SLP326

CYWG;2007-02-07 06:00;CYWG 070600Z 31004KT 15SM SKC M32/M36 A3039 RMK SLP328

CYWG;2007-02-07 07:00;CYWG 070700Z 29010KT 15SM SKC M31/M36 A3039 RMK SLP327

CYWG;2007-02-07 08:00;CYWG 070800Z 30009KT 15SM SKC M32/M36 A3039 RMK SLP328

CYWG;2007-02-07 09:00;CYWG 070900Z 29015KT 15SM SKC M31/M36 A3040 RMK SLP330

CYWG;2007-02-07 10:00;CYWG 071000Z 30013KT 15SM SKC M31/M36 A3040 RMK SLP328

CYWG;2007-02-07 11:00;CYWG 071100Z 28013KT 15SM SKC M30/M35 A3040 RMK SLP328

CYWG;2007-02-07 12:00;CYWG 071200Z 28011KT 15SM SKC M30/M35 A3039 RMK SLP326

CYWG;2007-02-07 13:00;CYWG 071300Z 27011KT 15SM SKC M29/M34 A3038 RMK SLP324

CYWG;2007-02-07 14:00;CYWG 071400Z 27010KT 15SM SKC M28/M35 A3038 RMK SLP323

CYWG;2007-02-07 15:00;CYWG 071500Z 29013KT 15SM SKC M27/M32 A3038 RMK SLP322

CYWG;2007-02-07 16:00;CYWG 071600Z 30014KT 15SM SKC M25/M31 A3038 RMK SLP322

CYWG;2007-02-07 17:00;CYWG 071700Z 29012KT 15SM SKC M24/M30 A3038 RMK SLP324

CYWG;2007-02-07 18:00;CYWG 071800Z 31017KT 15SM SKC M22/M28 A3039 RMK SLP325

CYWG;2007-02-07 19:00;CYWG 071900Z 31017KT 15SM SKC M21/M27 A3038 RMK SLP320

CYWG;2007-02-07 20:00;CYWG 072000Z 29015KT 15SM DRSN SKC M20/M26 A3038 RMK SLP320

CYWG;2007-02-07 21:00;CYWG 072100Z CCA 29014KT 15SM DRSN SKC M20/M26 A3037 RMK SLP317

CYWG;2007-02-07 22:00;CYWG 072200Z 31017KT 15SM DRSN SKC M19/M26 A3037 RMK SLP317

CYWG;2007-02-07 23:00;CYWG 072300Z 31015KT 15SM DRSN SKC M20/M27 A3037 RMK SLP316

CYWG;2007-02-08 00:00;CYWG 080000Z 29011KT 15SM SKC M22/M29 A3038 RMK SLP320

CYWG;2007-02-08 01:00;CYWG 080100Z 29012KT 15SM SKC M23/M30 A3038 RMK SLP320

CYWG;2007-02-08 02:00;CYWG 080200Z 28010KT 15SM SKC M24/M30 A3038 RMK SLP320

CYWG;2007-02-08 03:00;CYWG 080300Z 28009KT 15SM SKC M24/M30 A3038 RMK SLP320

CYWG;2007-02-08 04:00;CYWG 080400Z 28011KT 15SM SKC M26/M32 A3038 RMK SLP322

CYWG;2007-02-08 05:00;CYWG 080500Z 28011KT 15SM SKC M26/M32 A3038 RMK SLP322

CYWG;2007-02-08 06:00;CYWG 080600Z 27011KT 15SM SKC M24/M31 A3038 RMK SLP317

CYWG;2007-02-08 07:00;CYWG 080700Z 28014KT 15SM SKC M24/M30 A3038 RMK SLP317

CYWG;2007-02-08 08:00;CYWG 080800Z 28011KT 15SM SKC M25/M31 A3038 RMK SLP317

CYWG;2007-02-08 09:00;CYWG 080900Z 29015KT 15SM SKC M25/M32 A3036 RMK SLP312

CYWG;2007-02-08 10:00;CYWG 081000Z 27012KT 15SM SKC M25/M32 A3036 RMK SLP310

CYWG;2007-02-08 11:00;CYWG 081100Z 27011KT 15SM SKC M26/M33 A3035 RMK SLP309

CYWG;2007-02-08 12:00;CYWG 081200Z 27010KT 15SM SKC M27/M34 A3035 RMK SLP311

CYWG;2007-02-08 13:00;CYWG 081300Z 27010KT 15SM SKC M28/M34 A3035 RMK SLP310

CYWG;2007-02-08 14:00;CYWG 081400Z 27008KT 15SM SKC M29/M35 A3035 RMK SLP310

CYWG;2007-02-08 15:00;CYWG 081500Z 28012KT 15SM SKC M27/M34 A3035 RMK SLP308

CYWG;2007-02-08 16:00;CYWG 081600Z 29008KT 15SM SKC M26/M33 A3036 RMK SLP314

CYWG;2007-02-08 17:00;CYWG 081700Z 28010KT 15SM SKC M25/M31 A3037 RMK SLP317

CYWG;2007-02-08 18:00;CYWG 081800Z 28010KT 15SM SKC M23/M29 A3037 RMK SLP315

CYWG;2007-02-08 19:00;CYWG 081900Z 31010KT 15SM SKC M20/M27 A3037 RMK SLP314

CYWG;2007-02-08 20:00;CYWG 082000Z 31010KT 15SM SKC M20/M27 A3038 RMK SLP317

CYWG;2007-02-08 21:00;CYWG 082100Z 31010KT 15SM SKC M20/M26 A3037 RMK SLP314

CYWG;2007-02-08 22:00;CYWG 082200Z 31009KT 15SM SKC M20/M26 A3038 RMK SLP317

CYWG;2007-02-08 23:00;CYWG 082300Z 33008KT 15SM FEW230 M22/M28 A3039 RMK CI1 SLP321

CYWG;2007-02-09 00:00;CYWG 090000Z 33004KT 15SM FEW230 M25/M29 A3040 RMK CI0 SLP326

CYWG;2007-02-09 01:00;CYWG 090100Z 32006KT 15SM FEW230 M23/M29 A3041 RMK CI0 SLP331

CYWG;2007-02-09 02:00;CYWG 090200Z 31008KT 15SM SKC M26/M30 A3042 RMK SLP334

CYWG;2007-02-09 03:00;CYWG 090300Z 29007KT 15SM SKC M29/M34 A3042 RMK SLP337

CYWG;2007-02-09 04:00;CYWG 090400Z 32006KT 15SM SKC M31/M35 A3043 RMK SLP340

CYWG;2007-02-09 05:00;CYWG 090500Z 28008KT 15SM SKC M28/M31 A3044 RMK SLP342

CYWG;2007-02-09 06:00;CYWG 090600Z 31006KT 15SM SKC M29/M33 A3045 RMK SLP346

CYWG;2007-02-09 07:00;CYWG 090700Z 28008KT 15SM SKC M30/M35 A3046 RMK SLP349

CYWG;2007-02-09 08:00;CYWG 090800Z 31007KT 15SM SKC M32/M37 A3046 RMK SLP349

CYWG;2007-02-09 09:00;CYWG 090900Z 31007KT 15SM SKC M32/M37 A3046 RMK SLP348

CYWG;2007-02-09 10:00;CYWG 091000Z 30012KT 15SM SKC M31/M35 A3045 RMK SLP346

CYWG;2007-02-09 11:00;CYWG 091100Z 30010KT 15SM SKC M32/M37 A3045 RMK SLP345

CYWG;2007-02-09 12:00;CYWG 091200Z 31009KT 15SM SKC M32/M36 A3045 RMK SLP345

CYWG;2007-02-09 13:00;CYWG 091300Z 30008KT 15SM FEW038 M32/M36 A3045 RMK SC2 SLP345

CYWG;2007-02-09 14:00;CYWG 091400Z 31007KT 15SM SKC M32/M37 A3045 RMK SLP347

CYWG;2007-02-09 15:00;CYWG 091500Z 30008KT 15SM SKC M31/M35 A3046 RMK SLP350

CYWG;2007-02-09 16:00;CYWG 091600Z 28009KT 15SM SKC M28/M32 A3047 RMK SLP353

CYWG;2007-02-09 17:00;CYWG 091700Z 30008KT 15SM SKC M26/M30 A3046 RMK SLP352

CYWG;2007-02-09 18:00;CYWG 091800Z 30008KT 15SM SKC M24/M29 A3046 RMK SLP347

CYWG;2007-02-09 19:00;CYWG 091900Z 30010KT 15SM SKC M23/M28 A3044 RMK SLP341

CYWG;2007-02-09 20:00;CYWG 092000Z 30010KT 15SM SKC M22/M27 A3042 RMK SLP335

CYWG;2007-02-09 21:00;CYWG 092100Z 31010KT 15SM SKC M21/M27 A3041 RMK SLP330

CYWG;2007-02-09 22:00;CYWG 092200Z 31011KT 15SM SKC M20/M26 A3039 RMK SLP326

CYWG;2007-02-09 23:00;CYWG 092300Z 29010KT 15SM SKC M22/M27 A3039 RMK SLP326

CYWG;2007-02-10 00:00;CYWG 100000Z 27010KT 15SM SKC M22/M28 A3038 RMK SLP323

CYWG;2007-02-10 01:00;CYWG 100100Z 27007KT 15SM SKC M24/M29 A3038 RMK SLP322

CYWG;2007-02-10 02:00;CYWG 100200Z 27008KT 15SM FEW250 M24/M29 A3038 RMK CI0 SLP320

CYWG;2007-02-10 03:00;CYWG 100300Z 27008KT 15SM FEW250 M25/M30 A3036 RMK CI0 SLP316

CYWG;2007-02-10 04:00;CYWG 100400Z 27008KT 15SM SKC M27/M32 A3035 RMK SLP314

CYWG;2007-02-10 05:00;CYWG 100500Z 28005KT 15SM SKC M27/M31 A3035 RMK SLP314

CYWG;2007-02-10 06:00;CYWG 100600Z 26007KT 15SM SKC M27/M31 A3034 RMK SLP307

CYWG;2007-02-10 07:00;CYWG 100700Z 27007KT 15SM SKC M28/M33 A3033 RMK SLP303

CYWG;2007-02-10 08:00;CYWG 100800Z 27009KT 15SM SKC M27/M32 A3032 RMK SLP300

CYWG;2007-02-10 09:00;CYWG 100900Z 27009KT 15SM SKC M27/M32 A3031 RMK SLP293

CYWG;2007-02-10 10:00;CYWG 101000Z 27010KT 15SM SKC M26/M31 A3028 RMK SLP285

CYWG;2007-02-10 11:00;CYWG 101100Z 27008KT 15SM SKC M28/M32 A3026 RMK SLP278

CYWG;2007-02-10 12:00;CYWG 101200Z 26008KT 15SM SKC M28/M32 A3024 RMK SLP271

CYWG;2007-02-10 13:00;CYWG 101300Z 22003KT 15SM FEW120 M29/M33 A3021 RMK AC1 AC TR SLP263

CYWG;2007-02-10 14:00;CYWG 101400Z 25004KT 15SM FEW120 M29/M34 A3019 RMK AC1 AC TR SLP256

CYWG;2007-02-10 15:00;CYWG 101500Z CCA 23005KT 15SM FEW260 M28/M33 A3018 RMK CI1 IC SLP254

CYWG;2007-02-10 16:00;CYWG 101600Z 27007KT 15SM FEW260 M26/M32 A3016 RMK CI1 IC SLP247

CYWG;2007-02-10 16:12;CYWG 101612Z 26008KT 15SM FEW260 M26/ RMK CI1

CYWG;2007-02-10 17:00;CYWG 101700Z 26008KT 15SM FEW260 M25/M30 A3016 RMK CI0 SLP245

CYWG;2007-02-10 18:00;CYWG 101800Z 25008KT 15SM FEW260 M23/M29 A3013 RMK CI0 SLP235

CYWG;2007-02-10 19:00;CYWG 101900Z 25006KT 15SM FEW260 M21/M28 A3010 RMK CI1 SLP223

CYWG;2007-02-10 20:00;CYWG 102000Z 23007KT 15SM FEW260 M19/M26 A3006 RMK CI1 SLP211

CYWG;2007-02-10 21:00;CYWG 102100Z 22006KT 15SM FEW260 M17/M24 A3003 RMK CI1 SLP198

CYWG;2007-02-10 22:00;CYWG 102200Z 23005KT 15SM FEW100 FEW260 M17/M24 A3003 RMK AC1CI1 SLP197

CYWG;2007-02-10 23:00;CYWG 102300Z 19004KT 15SM BKN100 BKN260 M18/M24 A3001 RMK AC3CI1 SLP192

CYWG;2007-02-11 00:00;CYWG 110000Z 23004KT 15SM BKN110 M17/M23 A2999 RMK AC7 SLP186

CYWG;2007-02-11 01:00;CYWG 110100Z 22006KT 15SM SCT110 M18/M23 A2998 RMK AC1 SLP180

CYWG;2007-02-11 02:00;CYWG 110200Z 23007KT 15SM FEW110 FEW260 M18/M24 A2995 RMK AC1CI0 SLP172

CYWG;2007-02-11 03:00;CYWG 110300Z 25007KT 15SM SKC M18/M23 A2995 RMK SLP170

CYWG;2007-02-11 04:00;CYWG 110400Z 27008KT 15SM SKC M19/M24 A2994 RMK SLP169

CYWG;2007-02-11 05:00;CYWG 110500Z 28010KT 15SM SKC M22/M27 A2995 RMK SLP172

CYWG;2007-02-11 06:00;CYWG 110600Z 30009KT 15SM SKC M26/M30 A2995 RMK SLP173

CYWG;2007-02-11 07:00;CYWG 110700Z 28011KT 15SM SKC M22/M27 A2995 RMK SLP173

CYWG;2007-02-11 08:00;CYWG 110800Z 29010KT 15SM SKC M25/M30 A2996 RMK SLP175

CYWG;2007-02-11 09:00;CYWG 110900Z 28010KT 15SM SKC M25/M29 A2998 RMK SLP179

CYWG;2007-02-11 10:00;CYWG 111000Z 28010KT 15SM SKC M26/M31 A2999 RMK SLP185

CYWG;2007-02-11 11:00;CYWG 111100Z 28008KT 15SM SKC M26/M30 A3000 RMK SLP187

CYWG;2007-02-11 12:00;CYWG 111200Z 29007KT 15SM SKC M27/M31 A3003 RMK SLP198

CYWG;2007-02-11 13:00;CYWG 111300Z 27005KT 15SM FEW100 SCT250 M26/M31 A3005 RMK AC2CI1 SLP204

CYWG;2007-02-11 14:00;CYWG 111400Z 29006KT 15SM BKN100 BKN250 M26/M30 A3006 RMK AC5CI1 SLP208

CYWG;2007-02-11 15:00;CYWG 111500Z 31006KT 15SM SCT100 BKN250 M26/M31 A3009 RMK AC3CI2 SLP218

CYWG;2007-02-11 16:00;CYWG 111600Z 34004KT 15SM FEW100 BKN250 M26/M31 A3011 RMK AC2CI2 SLP225

CYWG;2007-02-11 17:00;CYWG 111700Z 02003KT 15SM FEW100 BKN250 M21/M27 A3013 RMK AC1CI2 SLP233

CYWG;2007-02-11 18:00;CYWG 111800Z 04007KT 15SM FEW100 BKN250 M21/M27 A3016 RMK AC1CI2 SLP242

CYWG;2007-02-11 19:00;CYWG 111900Z 02006KT 15SM BKN250 M20/M26 A3016 RMK CI2 SLP243

CYWG;2007-02-11 20:00;CYWG 112000Z 03003KT 15SM FEW250 M20/M26 A3018 RMK CI1 SLP248

CYWG;2007-02-11 21:00;CYWG 112100Z 01003KT 15SM FEW250 M19/M26 A3019 RMK CI0 SLP252

CYWG;2007-02-11 22:00;CYWG 112200Z 03005KT 15SM BKN250 M20/M26 A3021 RMK CI1 SLP259

CYWG;2007-02-11 23:00;CYWG 112300Z 04005KT 15SM SCT250 M21/M28 A3022 RMK CI1 SLP261

CYWG;2007-02-12 00:00;CYWG 120000Z 01003KT 15SM FEW250 M25/M31 A3022 RMK CI1 SLP267

CYWG;2007-02-12 01:00;CYWG 120100Z 30004KT 15SM FEW250 M25/M30 A3025 RMK CI1 SLP275

CYWG;2007-02-12 02:00;CYWG 120200Z 01005KT 15SM SKC M29/M33 A3028 RMK SLP284

CYWG;2007-02-12 03:00;CYWG 120300Z 05003KT 15SM SKC M28/M33 A3029 RMK SLP292

CYWG;2007-02-12 04:00;CYWG 120400Z 29003KT 15SM SKC M29/M33 A3032 RMK SLP300

CYWG;2007-02-12 05:00;CYWG 120500Z 33002KT 15SM SKC M31/M35 A3034 RMK SLP306

CYWG;2007-02-12 06:00;CYWG 120600Z 32004KT 15SM SKC M31/M35 A3035 RMK SLP312

CYWG;2007-02-12 07:00;CYWG 120700Z 31006KT 15SM SKC M30/M35 A3037 RMK SLP318

CYWG;2007-02-12 08:00;CYWG 120800Z 30007KT 15SM SKC M31/M36 A3039 RMK SLP324

CYWG;2007-02-12 09:00;CYWG 120900Z 30006KT 15SM SKC M32/M37 A3040 RMK SLP328

CYWG;2007-02-12 10:00;CYWG 121000Z 29007KT 15SM SKC M31/M35 A3041 RMK SLP332

CYWG;2007-02-12 11:00;CYWG 121100Z 31006KT 15SM SKC M35/M39 A3043 RMK SLP336

CYWG;2007-02-12 12:00;CYWG 121200Z 30003KT 15SM SKC M33/M37 A3045 RMK SLP348

CYWG;2007-02-12 13:00;CYWG 121300Z 30003KT 15SM SKC M35/M40 A3047 RMK SLP353

CYWG;2007-02-12 14:00;CYWG 121400Z 30004KT 15SM FEW230 M35/M39 A3049 RMK CI0 SLP362

CYWG;2007-02-12 15:00;CYWG 121500Z 31005KT 15SM FEW230 M34/M39 A3051 RMK CI0 SLP371

CYWG;2007-02-12 16:00;CYWG 121600Z 33007KT 15SM FEW230 M31/M36 A3053 RMK CI0 SLP375

CYWG;2007-02-12 17:00;CYWG 121700Z 28004KT 15SM BKN230 M28/M33 A3055 RMK CI3 SLP384

CYWG;2007-02-12 18:00;CYWG 121800Z 29004KT 15SM FEW230 M26/M31 A3056 RMK CI1 SLP385

CYWG;2007-02-12 19:00;CYWG 121900Z 31007KT 15SM SCT230 M25/M29 A3057 RMK CI1 SLP387

CYWG;2007-02-12 20:00;CYWG 122000Z 31006KT 15SM SCT230 M23/M29 A3057 RMK CI1 SLP388

CYWG;2007-02-12 21:00;CYWG 122100Z 30007KT 15SM FEW230 M23/M29 A3057 RMK CI0 SLP385

CYWG;2007-02-12 22:00;CYWG 122200Z 30008KT 15SM FEW230 M23/M29 A3058 RMK CI0 SLP390

CYWG;2007-02-12 23:00;CYWG 122300Z 30009KT 15SM FEW230 M24/M30 A3060 RMK CI0 SLP395

CYWG;2007-02-13 00:00;CYWG 130000Z 31007KT 15SM FEW230 M27/M33 A3061 RMK CI0 SLP401

CYWG;2007-02-13 01:00;CYWG 130100Z 32007KT 15SM FEW230 M29/M34 A3063 RMK CI0 SLP408

CYWG;2007-02-13 02:00;CYWG 130200Z 32007KT 15SM SKC M30/M35 A3064 RMK SLP412

CYWG;2007-02-13 03:00;CYWG 130300Z 34009KT 15SM SKC M31/M36 A3064 RMK SLP417

CYWG;2007-02-13 04:00;CYWG 130400Z 35007KT 15SM SKC M31/M36 A3065 RMK SLP418

CYWG;2007-02-13 05:00;CYWG 130500Z 34007KT 15SM SKC M31/M36 A3066 RMK SLP421

CYWG;2007-02-13 06:00;CYWG 130600Z 32006KT 15SM SKC M30/M35 A3067 RMK SLP420

CYWG;2007-02-13 07:00;CYWG 130700Z 29006KT 15SM SKC M30/M35 A3067 RMK SLP423

CYWG;2007-02-13 08:00;CYWG 130800Z 30008KT 15SM SKC M32/M36 A3068 RMK SLP424

CYWG;2007-02-13 09:00;CYWG 130900Z 31005KT 15SM SKC M34/M38 A3069 RMK SLP427

CYWG;2007-02-13 10:00;CYWG 131000Z 30004KT 15SM SKC M33/M38 A3068 RMK SLP426

CYWG;2007-02-13 11:00;CYWG 131100Z 31005KT 15SM SKC M34/M39 A3069 RMK SLP428

CYWG;2007-02-13 12:00;CYWG 131200Z 30005KT 15SM SKC M34/M38 A3069 RMK SLP431

CYWG;2007-02-13 13:00;CYWG 131300Z 29003KT 15SM SKC M34/M38 A3069 RMK SLP430

CYWG;2007-02-13 14:00;CYWG 131400Z 29006KT 15SM FEW230 M35/M40 A3070 RMK CI0 SLP432

CYWG;2007-02-13 15:00;CYWG 131500Z 27002KT 15SM FEW230 M31/M35 A3070 RMK CI0 SLP434

CYWG;2007-02-13 16:00;CYWG 131600Z 27005KT 15SM FEW230 M30/M35 A3070 RMK CI0 SLP433

CYWG;2007-02-13 17:00;CYWG 131700Z 31005KT 15SM SKC M28/M33 A3070 RMK SLP435

CYWG;2007-02-13 18:00;CYWG 131800Z 27003KT 15SM SKC M26/M31 A3068 RMK SLP426

CYWG;2007-02-13 19:00;CYWG 131900Z 29003KT 15SM SKC M23/M28 A3067 RMK SLP423

CYWG;2007-02-13 20:00;CYWG 132000Z 28006KT 15SM SKC M22/M27 A3066 RMK SLP419

CYWG;2007-02-13 21:00;CYWG 132100Z 27006KT 15SM SKC M21/M27 A3064 RMK SLP412

CYWG;2007-02-13 22:00;CYWG 132200Z 27006KT 15SM SKC M21/M26 A3063 RMK SLP408

CYWG;2007-02-13 23:00;CYWG 132300Z 28009KT 15SM SKC M22/M27 A3062 RMK SLP405

CYWG;2007-02-14 00:00;CYWG 140000Z 28008KT 15SM SKC M24/M29 A3061 RMK SLP403

CYWG;2007-02-14 01:00;CYWG 140100Z 30007KT 15SM SKC M25/M29 A3062 RMK SLP404

CYWG;2007-02-14 02:00;CYWG 140200Z 29007KT 15SM SKC M25/M29 A3061 RMK SLP402

CYWG;2007-02-14 03:00;CYWG 140300Z 29007KT 15SM SKC M27/M31 A3061 RMK SLP400

CYWG;2007-02-14 04:00;CYWG 140400Z 28008KT 15SM SCT043 M25/M29 A3060 RMK SC3 SLP397

CYWG;2007-02-14 05:00;CYWG 140500Z 30005KT 15SM BKN041 M26/M30 A3060 RMK SC5 SLP399

CYWG;2007-02-14 06:00;CYWG 140600Z 29008KT 15SM SCT039 M28/M33 A3060 RMK SC2 SLP396

CYWG;2007-02-14 07:00;CYWG 140700Z 30006KT 15SM FEW040 M29/M33 A3060 RMK SC1 SLP397

CYWG;2007-02-14 08:00;CYWG 140800Z 31009KT 15SM FEW040 M29/M34 A3060 RMK SC1 SLP395

CYWG;2007-02-14 09:00;CYWG 140900Z 30008KT 15SM FEW040 M30/M34 A3059 RMK SC1 SLP393

CYWG;2007-02-14 10:00;CYWG 141000Z 29006KT 15SM FEW040 M29/M34 A3059 RMK SC1 SLP392

CYWG;2007-02-14 11:00;CYWG 141100Z 28006KT 15SM SKC M30/M35 A3059 RMK SLP392

CYWG;2007-02-14 12:00;CYWG 141200Z 29005KT 15SM SKC M32/M35 A3060 RMK SLP397

CYWG;2007-02-14 13:00;CYWG 141300Z 27004KT 15SM SKC M32/M38 A3060 RMK SLP396

CYWG;2007-02-14 13:29;CYWG 141329Z 28003KT 15SM SKC M32/ RMK FG1 VIS N-E 1/2-1 FZFG

CYWG;2007-02-14 14:00;CYWG 141400Z 29006KT 15SM SKC M31/M35 A3060 RMK FG OVR CITY SLP397

CYWG;2007-02-14 15:00;CYWG 141500Z 29007KT 15SM SKC M31/M35 A3061 RMK SLP403

CYWG;2007-02-14 16:00;CYWG 141600Z 27003KT 15SM SKC M28/M33 A3062 RMK SLP404

CYWG;2007-02-14 17:00;CYWG 141700Z 28006KT 15SM SKC M25/M29 A3061 RMK SLP400

CYWG;2007-02-14 18:00;CYWG 141800Z 29006KT 15SM SKC M24/M27 A3060 RMK SLP395

CYWG;2007-02-14 19:00;CYWG 141900Z 30007KT 15SM SKC M22/M26 A3059 RMK SLP391

CYWG;2007-02-14 20:00;CYWG 142000Z 28007KT 15SM SKC M21/M25 A3057 RMK SLP385

CYWG;2007-02-14 21:00;CYWG 142100Z 28005KT 15SM SKC M20/M24 A3055 RMK SLP377

CYWG;2007-02-14 22:00;CYWG 142200Z 27006KT 15SM SKC M19/M24 A3054 RMK SLP373

CYWG;2007-02-14 23:00;CYWG 142300Z 27007KT 15SM SKC M19/M25 A3053 RMK SLP370

CYWG;2007-02-15 00:00;CYWG 150000Z 27007KT 15SM SKC M21/M26 A3052 RMK SLP369

CYWG;2007-02-15 01:00;CYWG 150100Z 26007KT 15SM SKC M21/M26 A3050 RMK SLP363

CYWG;2007-02-15 02:00;CYWG 150200Z 26006KT 15SM SKC M22/M26 A3050 RMK SLP361

CYWG;2007-02-15 03:00;CYWG 150300Z 26007KT 15SM SKC M21/M26 A3048 RMK SLP355

CYWG;2007-02-15 04:00;CYWG 150400Z 26008KT 15SM SKC M22/M27 A3046 RMK SLP349

CYWG;2007-02-15 05:00;CYWG 150500Z 26008KT 15SM SKC M22/M27 A3044 RMK SLP340

CYWG;2007-02-15 06:00;CYWG 150600Z 23006KT 15SM SKC M23/M28 A3041 RMK SLP327

CYWG;2007-02-15 07:00;CYWG 150700Z 22006KT 15SM SKC M24/M29 A3038 RMK SLP319

CYWG;2007-02-15 08:00;CYWG 150800Z 24006KT 15SM SKC M25/M30 A3037 RMK SLP316

CYWG;2007-02-15 09:00;CYWG 150900Z 22006KT 15SM SKC M25/M30 A3035 RMK SLP309

CYWG;2007-02-15 10:00;CYWG 151000Z 20005KT 15SM SKC M26/M30 A3032 RMK SLP298

CYWG;2007-02-15 11:00;CYWG 151100Z 22006KT 15SM SKC M26/M30 A3032 RMK SLP296

CYWG;2007-02-15 12:00;CYWG 151200Z 21007KT 15SM SKC M25/M31 A3029 RMK SLP287

CYWG;2007-02-15 13:00;CYWG 151300Z 20009KT 15SM FEW250 M26/M31 A3025 RMK CI0 SLP274

CYWG;2007-02-15 14:00;CYWG 151400Z 19010KT 15SM BKN250 M26/M30 A3022 RMK CI0 SLP263

CYWG;2007-02-15 15:00;CYWG 151500Z 19011KT 15SM BKN250 M24/M29 A3018 RMK CI2 SLP250

CYWG;2007-02-15 16:00;CYWG 151600Z 20016KT 15SM BKN250 M22/M28 A3015 RMK CI2 SLP239

CYWG;2007-02-15 17:00;CYWG 151700Z 19014G22KT 15SM OVC250 M21/M27 A3011 RMK CI3 SLP227

CYWG;2007-02-15 18:00;CYWG 151800Z 19013G18KT 15SM OVC250 M19/M25 A3008 RMK CI4 SLP215

CYWG;2007-02-15 19:00;CYWG 151900Z 18018KT 15SM OVC250 M19/M24 A3003 RMK CI7 SLP196

CYWG;2007-02-15 20:00;CYWG 152000Z 18020G26KT 15SM DRSN BKN250 M18/M23 A2997 RMK CI4 SLP178

CYWG;2007-02-15 21:00;CYWG 152100Z 18023G30KT 15SM DRSN FEW120 BKN250 M17/M21 A2990 RMK AC1CI3 PRESFR SLP153

CYWG;2007-02-15 22:00;CYWG 152200Z 18025G30KT 15SM DRSN FEW120 BKN250 M16/M20 A2985 RMK AC1CI3 SLP137

CYWG;2007-02-15 23:00;CYWG 152300Z 18027KT 15SM DRSN BKN075 BKN120 M15/M19 A2978 RMK AC6AC2 PRESFR VCBLSN VSBY N 3 MI SLP113

CYWG;2007-02-16 00:00;CYWG 160000Z 19022KT 15SM DRSN BKN037 OVC097 M14/M18 A2974 RMK SC6AC2 VCBLSN VIS N 2 MI SLP098

CYWG;2007-02-16 00:38;CYWG 160038Z 19024G31KT 2SM R36/3500VP6000FT/D -SN DRSN BKN023 BKN097 M14/ RMK SC6AC2

CYWG;2007-02-16 01:00;CYWG 160100Z 19023G29KT 15SM DRSN SCT023 BKN100 M14/M17 A2970 RMK SC3AC2 VCBLSN VIS N 2 MI SLP085

CYWG;2007-02-16 02:00;CYWG 160200Z 19021G28KT 15SM DRSN BKN048 BKN085 M13/M16 A2967 RMK SC5AC2 SLP072

CYWG;2007-02-16 02:26;CYWG 160226Z 20018G25KT 6SM -SN DRSN BKN026 BKN085 M13/ RMK SC6AC2

CYWG;2007-02-16 03:00;CYWG 160300Z 20017G22KT 12SM -SN DRSN BKN026 BKN086 M12/M15 A2962 RMK SC5AC2 SLP056

CYWG;2007-02-16 03:16;CYWG 160316Z 19017G25KT 15SM DRSN SCT026 BKN085 M12/ RMK SC3AC2

CYWG;2007-02-16 04:00;CYWG 160400Z 20016G22KT 15SM DRSN SCT023 BKN050 M12/M14 A2958 RMK SC3SC2 SLP042

CYWG;2007-02-16 05:00;CYWG 160500Z 20011KT 15SM OVC023 M11/M14 A2957 RMK SC8 SLP037

CYWG;2007-02-16 06:00;CYWG 160600Z 19010KT 15SM OVC023 M11/M13 A2954 RMK SC8 SLP026

CYWG;2007-02-16 07:00;CYWG 160700Z 19011KT 15SM OVC017 M11/M14 A2953 RMK SC8 SLP020

CYWG;2007-02-16 08:00;CYWG 160800Z 19009KT 15SM OVC015 M11/M13 A2951 RMK SC8 SLP014

CYWG;2007-02-16 09:00;CYWG 160900Z 18006KT 15SM OVC013 M11/M13 A2949 RMK SC8 SLP006

CYWG;2007-02-16 10:00;CYWG 161000Z 19008KT 15SM OVC015 M12/M14 A2947 RMK SC8 SLP000

CYWG;2007-02-16 11:00;CYWG 161100Z 20006KT 15SM OVC019 M12/M14 A2948 RMK SC8 SLP003

CYWG;2007-02-16 12:00;CYWG 161200Z 19003KT 15SM OVC019 M12/M14 A2949 RMK SC8 SLP007

CYWG;2007-02-16 13:00;CYWG 161300Z 17003KT 15SM OVC021 M12/M14 A2950 RMK SC8 SLP011

CYWG;2007-02-16 14:00;CYWG 161400Z 00000KT 15SM -SN OVC019 M11/M14 A2953 RMK SC8 SLP019

CYWG;2007-02-16 15:00;CYWG 161500Z 26004KT 12SM -SN OVC023 M10/M12 A2954 RMK SC8 SLP024

CYWG;2007-02-16 16:00;CYWG 161600Z 29005KT 6SM -SN OVC025 M09/M11 A2957 RMK SC8 SLP032

CYWG;2007-02-16 17:00;CYWG 161700Z 36013KT 6SM -SN OVC018 M07/M11 A2961 RMK SC8 SLP047

CYWG;2007-02-16 18:00;CYWG 161800Z 35015KT 15SM -SN BKN020 BKN250 M08/M11 A2964 RMK SC5CI1 SLP056

CYWG;2007-02-16 18:46;CYWG 161846Z 01013KT 15SM FEW020 BKN250 M07/ RMK SC2CI2

CYWG;2007-02-16 19:00;CYWG 161900Z 36010KT 15SM FEW018 BKN250 M07/M11 A2966 RMK SC2CI1 SLP062

CYWG;2007-02-16 20:00;CYWG 162000Z 35010KT 15SM BKN035 M06/M11 A2968 RMK SC7 SLP069

CYWG;2007-02-16 21:00;CYWG 162100Z 33014KT 15SM FEW020 BKN035 OVC054 M06/M10 A2971 RMK SC1SC6SC1 SLP078

CYWG;2007-02-16 22:00;CYWG 162200Z 31015KT 15SM FEW020 BKN033 M06/M10 A2974 RMK SC1SC6 SLP089

CYWG;2007-02-16 23:00;CYWG 162300Z 32015KT 15SM BKN033 BKN055 M07/M10 A2978 RMK SC6SC1 SLP101

CYWG;2007-02-17 00:00;CYWG 170000Z 31012KT 15SM BKN033 M06/M10 A2982 RMK SC7 SLP115

CYWG;2007-02-17 01:00;CYWG 170100Z 31010KT 15SM BKN039 BKN076 M08/M11 A2985 RMK SC4AC2 SLP125

CYWG;2007-02-17 02:00;CYWG 170200Z 31014KT 15SM BKN036 M09/M12 A2987 RMK SC4 SLP132

CYWG;2007-02-17 03:00;CYWG 170300Z 34011KT 15SM FEW030 M11/M14 A2990 RMK SC2 SLP144

CYWG;2007-02-17 03:44;CYWG 170344Z 34009KT 15SM BKN011 M12/ RMK SC6

CYWG;2007-02-17 03:51;CYWG 170351Z 33008KT 15SM -SN BKN013 M12/ RMK SC6

CYWG;2007-02-17 04:00;CYWG 170400Z 33009KT 10SM -SN BKN013 M11/M14 A2992 RMK SC6 SLP152

CYWG;2007-02-17 05:00;CYWG 170500Z 32007KT 10SM -SN OVC017 M11/M13 A2995 RMK SC8 SLP162

CYWG;2007-02-17 06:00;CYWG 170600Z 31008KT 12SM -SN BKN019 M12/M14 A2998 RMK SC7 SLP170

CYWG;2007-02-17 07:00;CYWG 170700Z 33011KT 10SM -SN BKN024 M12/M14 A3000 RMK SC7 SLP177

CYWG;2007-02-17 08:00;CYWG 170800Z 31007KT 15SM FEW020 M16/M18 A3003 RMK SC2 SLP186

CYWG;2007-02-17 09:00;CYWG 170900Z 33008KT 15SM FEW020 M20/M22 A3005 RMK SC1 SLP197

CYWG;2007-02-17 10:00;CYWG 171000Z 35008KT 15SM BKN090 M17/M18 A3007 RMK AC6 SLP205

CYWG;2007-02-17 11:00;CYWG 171100Z 35008KT 15SM BKN083 M15/M18 A3009 RMK AC7 SLP212

CYWG;2007-02-17 12:00;CYWG 171200Z 36010KT 15SM BKN042 OVC080 M15/M19 A3012 RMK SC6AC2 SLP219

CYWG;2007-02-17 13:00;CYWG 171300Z 35007KT 15SM BKN080 M16/M20 A3012 RMK AC6 SLP221

CYWG;2007-02-17 14:00;CYWG 171400Z 35005KT 15SM FEW080 M21/M23 A3014 RMK AC1 SLP227

CYWG;2007-02-17 15:00;CYWG 171500Z 36006KT 15SM FEW080 M21/M24 A3016 RMK AC1 SLP237

CYWG;2007-02-17 16:00;CYWG 171600Z 36005KT 15SM BKN080 M17/M22 A3018 RMK AC6 SLP243

CYWG;2007-02-17 17:00;CYWG 171700Z 02005KT 15SM BKN080 M17/M22 A3018 RMK AC2 SLP243

CYWG;2007-02-17 18:00;CYWG 171800Z 03003KT 15SM FEW080 M16/M24 A3018 RMK AC1 SLP241

CYWG;2007-02-17 19:00;CYWG 171900Z 34002KT 15SM FEW080 M16/M23 A3018 RMK AC1 SLP241

CYWG;2007-02-17 20:00;CYWG 172000Z 28002KT 15SM SCT075 BKN120 BKN250 M15/M23 A3018 RMK AC3AC2CI1 SLP241

CYWG;2007-02-17 21:00;CYWG 172100Z 30009KT 15SM FEW075 BKN120 BKN250 M15/M21 A3015 RMK AC2AC4CI1 SLP234

CYWG;2007-02-17 22:00;CYWG 172200Z 29007KT 15SM FEW075 BKN089 OVC210 M15/M20 A3015 RMK AC2AC6CI1 SLP234

CYWG;2007-02-17 23:00;CYWG 172300Z 30006KT 15SM OVC077 M15/M20 A3015 RMK AC8 SLP235

CYWG;2007-02-18 00:00;CYWG 180000Z 31006KT 15SM BKN036 OVC087 M15/M20 A3016 RMK SC6AC2 SLP237

CYWG;2007-02-18 01:00;CYWG 180100Z 30007KT 15SM OVC034 M15/M20 A3016 RMK SC8 SLP237

CYWG;2007-02-18 02:00;CYWG 180200Z 33007KT 15SM BKN032 OVC078 M16/M20 A3016 RMK SC6AC2 SLP238

CYWG;2007-02-18 03:00;CYWG 180300Z 35003KT 15SM SCT032 BKN092 M16/M21 A3016 RMK SC4AC2 SLP240

CYWG;2007-02-18 04:00;CYWG 180400Z 03004KT 15SM FEW100 M18/M23 A3015 RMK AC2 SLP237

CYWG;2007-02-18 05:00;CYWG 180500Z 34002KT 15SM SKC M20/M24 A3016 RMK SLP238

CYWG;2007-02-18 06:00;CYWG 180600Z 30002KT 15SM SKC M21/M25 A3016 RMK SLP241

CYWG;2007-02-18 07:00;CYWG 180700Z 00000KT 15SM SKC M24/M28 A3016 RMK SLP240

CYWG;2007-02-18 08:00;CYWG 180800Z 09003KT 15SM SKC M24/M27 A3013 RMK SLP231

CYWG;2007-02-18 09:00;CYWG 180900Z 18003KT 15SM SKC M23/M27 A3013 RMK SLP231

CYWG;2007-02-18 10:00;CYWG 181000Z 14003KT 15SM SKC M23/M25 A3012 RMK SLP226

CYWG;2007-02-18 11:00;CYWG 181100Z 17005KT 15SM SKC M21/M25 A3012 RMK SLP228

CYWG;2007-02-18 12:00;CYWG 181200Z CCA 16005KT 15SM BKN120 M21/M24 A3009 RMK AC6 SLP216

CYWG;2007-02-18 13:00;CYWG 181300Z 15008KT 15SM BKN120 OVC230 M19/M23 A3007 RMK AC7CI1 SLP209

CYWG;2007-02-18 14:00;CYWG 181400Z 15011KT 15SM BKN120 OVC230 M18/M23 A3005 RMK AC7CI1 SLP201

CYWG;2007-02-18 15:00;CYWG 181500Z 16012KT 15SM BKN095 OVC230 M17/M22 A3003 RMK AS7CI1 SLP194

CYWG;2007-02-18 16:00;CYWG 181600Z 16013KT 15SM OVC080 M17/M23 A2999 RMK AS8 SLP180

CYWG;2007-02-18 17:00;CYWG 181700Z 16014G19KT 15SM OVC097 M16/M22 A2991 RMK AS8 SLP154

CYWG;2007-02-18 18:00;CYWG 181800Z 15017KT 7SM -SN DRSN OVC095 M15/M21 A2987 RMK AS8 SLP138

CYWG;2007-02-18 18:23;CYWG 181823Z 15017KT 10SM DRSN OVC095 M14/ RMK AS8

CYWG;2007-02-18 19:00;CYWG 181900Z 15017G22KT 15SM DRSN OVC097 M13/M20 A2980 RMK AS8 PRESFR SLP115

CYWG;2007-02-18 20:00;CYWG 182000Z 15020KT 15SM DRSN OVC023 M12/M20 A2974 RMK SC8 PRESFR SLP095

CYWG;2007-02-18 21:00;CYWG 182100Z 14021G26KT 15SM DRSN OVC019 M12/M19 A2967 RMK SC8 SLP071

CYWG;2007-02-18 22:00;CYWG 182200Z 15019G27KT 15SM DRSN OVC015 M11/M17 A2960 RMK ST8 PRESFR SLP048

CYWG;2007-02-18 23:00;CYWG 182300Z 16020G25KT 15SM DRSN OVC017 M10/M15 A2954 RMK ST8 SLP030

CYWG;2007-02-19 00:00;CYWG 190000Z 16020G27KT 15SM DRSN OVC017 M09/M13 A2949 RMK ST8 SLP009

CYWG;2007-02-19 01:00;CYWG 190100Z 15017G22KT 15SM DRSN OVC017 M09/M12 A2947 RMK ST8 SLP001

CYWG;2007-02-19 02:00;CYWG 190200Z 15016KT 15SM OVC015 M09/M12 A2944 RMK ST8 SLP992

CYWG;2007-02-19 03:00;CYWG 190300Z 15015KT 15SM OVC013 M08/M12 A2940 RMK ST8 SLP975

CYWG;2007-02-19 04:00;CYWG 190400Z 15014KT 15SM OVC010 M08/M11 A2936 RMK ST8 SLP963

CYWG;2007-02-19 04:38;CYWG 190438Z 16015KT 15SM OVC009 M07/ RMK ST8

CYWG;2007-02-19 05:00;CYWG 190500Z 17013KT 15SM OVC008 M07/M09 A2932 RMK ST8 SLP950

CYWG;2007-02-19 06:00;CYWG 190600Z 18015KT 6SM BR OVC007 M06/M07 A2929 RMK ST8 SLP936

CYWG;2007-02-19 07:00;CYWG 190700Z 18012KT 6SM BR OVC007 M05/M07 A2930 RMK ST8 SLP940

CYWG;2007-02-19 08:00;CYWG 190800Z 17010KT 6SM BR OVC007 M06/M07 A2928 RMK ST8 SLP931

CYWG;2007-02-19 09:00;CYWG 190900Z 17002KT 6SM BR BKN007 OVC025 M06/M07 A2928 RMK ST7SC1 SLP932

CYWG;2007-02-19 10:00;CYWG 191000Z 05007KT 6SM BR OVC007 M07/M09 A2928 RMK ST8 SLP930

CYWG;2007-02-19 11:00;CYWG 191100Z 36007KT 10SM OVC008 M07/M09 A2932 RMK ST8 BR SLP945

CYWG;2007-02-19 11:38;CYWG 191138Z 35011KT 10SM -SN OVC008 M08/ RMK ST8

CYWG;2007-02-19 12:00;CYWG 191200Z 34014KT 10SM -SN OVC007 M08/M10 A2935 RMK ST8 SLP955

CYWG;2007-02-19 12:26;CYWG 191226Z 33012KT 10SM OVC008 M08/ RMK ST8 BR

CYWG;2007-02-19 13:00;CYWG 191300Z 32016KT 10SM OVC009 M09/M11 A2938 RMK ST8 BR SLP965

CYWG;2007-02-19 14:00;CYWG 191400Z 32013KT 15SM SCT008 BKN220 M11/M14 A2941 RMK SC3CI2 SLP974

CYWG;2007-02-19 15:00;CYWG 191500Z 32010KT 15SM FEW008 SCT025 BKN120 BKN220 M12/M15 A2943 RMK SF2SC2AC1CI1 SLP984

CYWG;2007-02-19 16:00;CYWG 191600Z 32013KT 15SM BKN025 OVC120 M11/M13 A2947 RMK SC6AC2 SLP997

CYWG;2007-02-19 17:00;CYWG 191700Z 32012KT 15SM BKN025 OVC087 M11/M13 A2949 RMK SC6AC2 SLP004

CYWG;2007-02-19 18:00;CYWG 191800Z 31013KT 15SM BKN021 OVC085 M10/M13 A2951 RMK SC6AC2 SLP008

CYWG;2007-02-19 19:00;CYWG 191900Z 28005KT 15SM BKN038 OVC085 M09/M13 A2949 RMK SC7AC1 SLP003

CYWG;2007-02-19 20:00;CYWG 192000Z 29010KT 15SM OVC021 M09/M12 A2951 RMK SC8 SLP010

CYWG;2007-02-19 21:00;CYWG 192100Z 28007KT 15SM OVC029 M08/M11 A2952 RMK SC8 SLP012

CYWG;2007-02-19 22:00;CYWG 192200Z 28005KT 15SM FEW090 M08/M12 A2954 RMK AC2 SLP018

CYWG;2007-02-19 23:00;CYWG 192300Z 29005KT 15SM FEW030 M10/M13 A2955 RMK SC2 SLP024

CYWG;2007-02-20 00:00;CYWG 200000Z 27004KT 15SM OVC024 M09/M12 A2957 RMK SC8 SLP030

CYWG;2007-02-20 01:00;CYWG 200100Z 27006KT 15SM BKN024 M10/M12 A2959 RMK SC6 SLP037

CYWG;2007-02-20 02:00;CYWG 200200Z 28006KT 15SM SCT026 M13/M15 A2960 RMK SC4 SLP041

CYWG;2007-02-20 03:00;CYWG 200300Z 31006KT 15SM FEW025 M15/M16 A2960 RMK SC2 SLP044

CYWG;2007-02-20 04:00;CYWG 200400Z 29005KT 15SM FEW024 SCT085 M15/M17 A2961 RMK SC2AC1 SLP047

CYWG;2007-02-20 05:00;CYWG 200500Z 29004KT 10SM -SN BKN056 M15/M16 A2961 RMK SC7 VSBY S 1 SLP048

CYWG;2007-02-20 06:00;CYWG 200600Z 00000KT 2SM -SN OVC021 M14/M16 A2961 RMK SC8 SLP045

CYWG;2007-02-20 06:25;CYWG 200625Z 00000KT 3/4SM R13/P6000FT/D R36/P6000FT/D -SN OVC014 M13/ RMK SN3SC5

CYWG;2007-02-20 07:00;CYWG 200700Z 07003KT 3/4SM R13/P6000FT/D R36/P6000FT/N -SN BR OVC003 M12/M14 A2960 RMK SN3ST5 SLP042

CYWG;2007-02-20 07:35;CYWG 200735Z 06003KT 2SM -SN BR OVC015 M12/ RMK SC8

CYWG;2007-02-20 08:00;CYWG 200800Z 07005KT 3/4SM R13/P6000FT/U R36/P6000FT/U -SN BR VV003 M11/M13 A2959 RMK SN8 SLP041

CYWG;2007-02-20 08:34;CYWG 200834Z 10007KT 1/2SM R31/4500VP6000FT/D R36/4000VP6000FT/D SN VV002 M11/ RMK SN8

CYWG;2007-02-20 09:00;CYWG 200900Z 08005KT 3/4SM R13/P6000FT/U R36/P6000FT/D -SN VV002 M11/M12 A2957 RMK SN8 SLP033

CYWG;2007-02-20 09:29;CYWG 200929Z 10006KT 1 1/2SM -SN OVC006 M11/ RMK SN3ST5

CYWG;2007-02-20 10:00;CYWG 201000Z 09005KT 1SM R13/P6000FT/N R36/P6000FT/D -SN OVC007 M11/M12 A2957 RMK SN3ST5 SLP032

CYWG;2007-02-20 10:22;CYWG 201022Z 08006KT 4SM -SN FEW007 OVC037 M11/ RMK ST2SC6

CYWG;2007-02-20 11:00;CYWG 201100Z 08007KT 6SM -SN OVC029 M11/M13 A2957 RMK SC8 SLP031

CYWG;2007-02-20 12:00;CYWG 201200Z 08008KT 8SM -SN OVC027 M11/M12 A2956 RMK SC8 SLP028

CYWG;2007-02-20 13:00;CYWG 201300Z 09007KT 10SM -SN OVC026 M10/M12 A2956 RMK SC8 SLP027

CYWG;2007-02-20 14:00;CYWG 201400Z 08008KT 12SM -SN OVC031 M10/M12 A2956 RMK SC8 SLP027

CYWG;2007-02-20 15:00;CYWG 201500Z 06009KT 15SM -SN OVC024 M10/M12 A2955 RMK SC8 SLP027

CYWG;2007-02-20 16:00;CYWG 201600Z 08008KT 15SM -SN OVC024 M09/M12 A2955 RMK SC8 SLP026

CYWG;2007-02-20 17:00;CYWG 201700Z 08012KT 15SM -SN OVC024 M08/M11 A2954 RMK SC8 SLP024

CYWG;2007-02-20 18:00;CYWG 201800Z 07011KT 15SM -SN OVC022 M08/M11 A2954 RMK SC8 SLP022

CYWG;2007-02-20 19:00;CYWG 201900Z 03005KT 15SM OVC024 M08/M11 A2956 RMK SC8 SLP027

CYWG;2007-02-20 20:00;CYWG 202000Z 06012KT 15SM SCT022 BKN220 M08/M11 A2951 RMK SC2CI2 SLP011

CYWG;2007-02-20 21:00;CYWG 202100Z 05010KT 15SM FEW022 OVC095 M07/M11 A2950 RMK SC2AC4 SLP008

CYWG;2007-02-20 22:00;CYWG 202200Z 04010KT 15SM BKN020 OVC080 M07/M10 A2951 RMK SC5AC2 SLP010

CYWG;2007-02-20 22:30;CYWG 202230Z 04010KT 15SM -SN BKN020 OVC080 RMK SC6AC2 VIA YBR

CYWG;2007-02-20 23:00;CYWG 202300Z 05010KT 6SM -SN BKN016 OVC080 A2951 RMK SC6AC2 VIA YBR FSS SLP010

CYWG;2007-02-20 23:17;CYWG 202317Z 05015KT 1 1/2SM -SN DRSN OVC015 RMK SC8 VIA YBR FSS

CYWG;2007-02-21 00:00;CYWG 210000Z 05009KT 1SM R13/P6000FT/D R36/P6000FT/N -SN DRSN OVC016 M08/M10 A2951 RMK SN2SC6 SLP009

CYWG;2007-02-21 00:21;CYWG 210021Z 05009KT 3/4SM R13/P6000FT/D R36/P6000FT/D -SN DRSN VV008 M08/ RMK SN8

CYWG;2007-02-21 01:00;CYWG 210100Z 04008KT 1SM R31/P6000FT/N R36/P6000FT/U -SN VV008 M08/M10 A2952 RMK SN8 SLP013

CYWG;2007-02-21 01:15;CYWG 210115Z 05009KT 2SM -SN OVC009 M08/ RMK SC8

CYWG;2007-02-21 01:45;CYWG 210145Z 05008KT 4SM -SN OVC030 M08/ RMK SC8

CYWG;2007-02-21 02:00;CYWG 210200Z 18028G37KT 15SM FEW110 BKN250 03/M01 A2964 RMK AC2CI2 PRESFR SLP051

CYWG;2007-02-21 03:00;CYWG 210300Z 04008KT 12SM -SN BKN010 OVC035 M08/M10 A2951 RMK ST6SC2 SLP012

CYWG;2007-02-21 03:49;CYWG 210349Z 05013KT 15SM BKN016 OVC068 M08/ RMK ST6AC2

CYWG;2007-02-21 04:00;CYWG 210400Z 05013KT 15SM BKN016 OVC068 M08/M10 A2952 RMK ST6AC2 SLP013

CYWG;2007-02-21 04:22;CYWG 210422Z 05010KT 15SM BKN013 OVC068 M08/ RMK ST6AC2

CYWG;2007-02-21 05:00;CYWG 210500Z 06011KT 15SM BKN011 OVC068 M08/M09 A2950 RMK ST7AC1 SLP008

CYWG;2007-02-21 06:00;CYWG 210600Z 04008KT 15SM OVC013 M08/M09 A2953 RMK ST8 SLP015

CYWG;2007-02-21 07:00;CYWG 210700Z 05006KT 15SM OVC010 M08/M10 A2953 RMK ST8 SLP015

CYWG;2007-02-21 07:46;CYWG 210746Z 04012KT 15SM OVC008 M08/ RMK ST8

CYWG;2007-02-21 08:00;CYWG 210800Z 04010KT 15SM OVC008 M08/M10 A2952 RMK ST8 SLP012

CYWG;2007-02-21 09:00;CYWG 210900Z 04012KT 15SM OVC008 M09/M11 A2951 RMK ST8 SLP009

CYWG;2007-02-21 10:00;CYWG 211000Z 04008KT 15SM OVC007 M09/M11 A2953 RMK ST8 SLP017

CYWG;2007-02-21 11:00;CYWG 211100Z 05011KT 15SM OVC007 M09/M11 A2951 RMK ST8 SLP008

CYWG;2007-02-21 12:00;CYWG 211200Z 05008KT 15SM OVC006 M09/M11 A2950 RMK ST8 SLP006

CYWG;2007-02-21 12:13;CYWG 211213Z 05009KT 15SM -SHGS OVC007 M08/ RMK ST8

CYWG;2007-02-21 13:00;CYWG 211300Z 04009KT 15SM -SHGS OVC009 M08/M10 A2951 RMK ST8 SLP011

CYWG;2007-02-21 13:15;CYWG 211315Z 06007KT 3/4SM R31/P6000FT/D R36/P6000FT/D -SN OVC009 M08/ RMK ST8

CYWG;2007-02-21 13:31;CYWG 211331Z 07009KT 3/4SM R31/P6000FT/U R36/P6000FT/U -SN VV004 M08/ RMK SN8

CYWG;2007-02-21 13:39;CYWG 211339Z 06009KT 1 1/2SM -SN VV004 M08/ RMK SN8

CYWG;2007-02-21 13:52;CYWG 211352Z 05010KT 3SM -SN SCT004 OVC042 M08/ RMK SF4SC4

CYWG;2007-02-21 14:00;CYWG 211400Z 05011KT 4SM -SN SCT004 OVC042 M08/M10 A2948 RMK SF3SC5 SLP001

CYWG;2007-02-21 14:20;CYWG 211420Z 04012KT 10SM -SN BKN012 OVC042 M08/ RMK ST6SC2

CYWG;2007-02-21 15:00;CYWG 211500Z 03013KT 15SM -SN DRSN OVC012 M08/M10 A2951 RMK SC8 PRES UNSTDY SLP011

CYWG;2007-02-21 16:00;CYWG 211600Z 02019KT 5SM -SN DRSN OVC015 M08/M10 A2953 RMK SC8 SLP017

CYWG;2007-02-21 16:11;CYWG 211611Z CCA 02018KT 3/4SM R31/P6000FT/N R36/P6000FT/N -SHGS BLSN OVC009 M08/ RMK SC8

CYWG;2007-02-21 17:00;CYWG 211700Z 02020G25KT 3/4SM R31/6000FT/D R36/5000FT/D -SHGS BLSN OVC016 M09/M11 A2956 RMK SC8 SLP026

CYWG;2007-02-21 17:37;CYWG 211737Z 02024KT 3/4SM R31/4000VP6000FT/U R36/3500VP6000FT/U -SN BLSN OVC019 RMK SC8

CYWG;2007-02-21 18:00;CYWG 211800Z 01023G29KT 3/4SM R31/P6000FT/D R36/3500VP6000FT/D -SN BLSN OVC019 M09/M11 A2959 RMK SC8 SLP036

CYWG;2007-02-21 18:14;CYWG 211814Z 01024KT 1/2SM R31/2600V5500FT/D R36/2800V4000FT/D SN BLSN VV005 M09/ RMK SN8

CYWG;2007-02-21 19:00;CYWG 211900Z 36019KT 3/4SM R31/3000V4500FT/U -SN BLSN VV007 M09/M11 A2962 RMK SN8 RESN SLP048

CYWG;2007-02-21 19:51;CYWG 211951Z 34021G27KT 1SM R31/P6000FT/U -SN BLSN VV009 RMK SN8

CYWG;2007-02-21 19:53;CYWG 211953Z 34021G27KT 1SM R31/P6000FT/U -SN BLSN VV009 M09/ RMK SN8

CYWG;2007-02-21 20:00;CYWG 212000Z 34022G27KT 1SM R31/P6000FT/D R36/P6000FT/N -SN BLSN VV011 M09/M11 A2967 RMK SN8 SLP065

CYWG;2007-02-21 20:14;CYWG 212014Z 34022KT 2 1/2SM -SN DRSN OVC036 RMK SN2SC6

CYWG;2007-02-21 20:17;CYWG 212017Z CCA 34022KT 2 1/2SM -SN DRSN OVC036 M09/ RMK SN2SC6

CYWG;2007-02-21 20:32;CYWG 212032Z 33023KT 5SM -SN BLSN FEW017 OVC036 M09/ RMK SN1SC2SC6

CYWG;2007-02-21 21:00;CYWG 212100Z 33020KT 15SM DRSN FEW035 BKN250 M09/M12 A2972 RMK SC2CI2 SLP083

CYWG;2007-02-21 22:00;CYWG 212200Z 32017KT 15SM DRSN FEW030 SCT090 BKN250 M10/M13 A2978 RMK SC1AC3CI2 PRESRR SLP103

CYWG;2007-02-21 23:00;CYWG 212300Z 32020KT 15SM DRSN FEW030 BKN110 OVC250 M10/M13 A2984 RMK SC1AC6CI1 SLP123

CYWG;2007-02-22 00:00;CYWG 220000Z 32019KT 15SM DRSN SCT110 OVC250 M11/M14 A2990 RMK AC3CI2 SLP144

CYWG;2007-02-22 01:00;CYWG 220100Z 32016KT 15SM DRSN FEW110 BKN250 M12/M16 A2995 RMK AC2CI1 SLP160

CYWG;2007-02-22 02:00;CYWG 220200Z 32016KT 15SM DRSN FEW110 BKN250 M13/M16 A2999 RMK AC2CI2 SLP174

CYWG;2007-02-22 03:00;CYWG 220300Z 32015KT 15SM DRSN FEW072 BKN250 M13/M17 A3003 RMK AC2CI2 SLP188

CYWG;2007-02-22 04:00;CYWG 220400Z 32014KT 15SM DRSN FEW066 BKN250 M14/M17 A3006 RMK AC2CI1 SLP200

CYWG;2007-02-22 05:00;CYWG 220500Z 33013KT 15SM OVC065 M13/M16 A3009 RMK AC6 SLP210

CYWG;2007-02-22 06:00;CYWG 220600Z 33013KT 15SM OVC063 M13/M16 A3012 RMK SC6 SLP221

CYWG;2007-02-22 07:00;CYWG 220700Z 31009KT 15SM BKN053 M13/M16 A3016 RMK SC6 SLP233

CYWG;2007-02-22 08:00;CYWG 220800Z 30011KT 15SM FEW051 M16/M19 A3019 RMK SC2 SLP243

CYWG;2007-02-22 09:00;CYWG 220900Z 31005KT 15SM SKC M18/M20 A3021 RMK SLP251

CYWG;2007-02-22 10:00;CYWG 221000Z 31006KT 15SM SKC M19/M21 A3023 RMK SLP258

CYWG;2007-02-22 11:00;CYWG 221100Z 29005KT 15SM SKC M21/M23 A3023 RMK SLP259

CYWG;2007-02-22 12:00;CYWG 221200Z 27002KT 15SM SCT047 M21/M22 A3026 RMK SC3 SLP273

CYWG;2007-02-22 13:00;CYWG 221300Z 26005KT 15SM BKN043 M18/M20 A3028 RMK SC7 SLP279

CYWG;2007-02-22 14:00;CYWG 221400Z 28006KT 15SM BKN037 M16/M18 A3031 RMK SC7 SLP288

CYWG;2007-02-22 15:00;CYWG 221500Z 27004KT 15SM OVC039 M15/M18 A3033 RMK SC8 SLP293

CYWG;2007-02-22 16:00;CYWG 221600Z 00000KT 15SM OVC043 M14/M17 A3033 RMK SC8 SLP294

CYWG;2007-02-22 17:00;CYWG 221700Z 00000KT 15SM BKN043 M13/M16 A3034 RMK SC7 SLP298

CYWG;2007-02-22 18:00;CYWG 221800Z 00000KT 15SM BKN043 M10/M15 A3036 RMK SC5 SLP301

CYWG;2007-02-22 19:00;CYWG 221900Z 00000KT 15SM BKN043 M10/M15 A3036 RMK SC5 SLP301

CYWG;2007-02-22 20:00;CYWG 222000Z 18006KT 15SM BKN039 M10/M15 A3035 RMK SC7 SLP297

CYWG;2007-02-22 21:00;CYWG 222100Z 15005KT 15SM BKN035 M10/M15 A3033 RMK SC7 SLP295

CYWG;2007-02-22 22:00;CYWG 222200Z 19004KT 15SM BKN033 M10/M15 A3034 RMK SC6 SLP298

CYWG;2007-02-22 23:00;CYWG 222300Z 14004KT 15SM FEW033 FEW087 M10/M14 A3033 RMK SC2AC1 TR AC SLP294

CYWG;2007-02-23 00:00;CYWG 230000Z 00000KT 15SM FEW033 FEW200 M12/M16 A3034 RMK SC1CI1 TR CI SLP298

CYWG;2007-02-23 01:00;CYWG 230100Z 19004KT 15SM SCT034 BKN078 BKN098 M13/M17 A3035 RMK SC2AC2AC1 TR AC TOP LYR SLP302

CYWG;2007-02-23 02:00;CYWG 230200Z 12004KT 15SM OVC032 M12/M15 A3035 RMK SC8 MOON DMLY VSBL SLP302

CYWG;2007-02-23 03:00;CYWG 230300Z 07005KT 15SM BKN032 M11/M15 A3035 RMK SC6 SLP299

CYWG;2007-02-23 04:00;CYWG 230400Z 18007KT 15SM FEW017 FEW094 M01/M02 A2987 RMK SC1AC1 SLP127

CYWG;2007-02-23 05:00;CYWG 230500Z 09006KT 15SM FEW032 M13/M16 A3034 RMK SC1 SLP298

CYWG;2007-02-23 06:00;CYWG 230600Z 10009KT 15SM SKC M12/M15 A3033 RMK SLP291

CYWG;2007-02-23 07:00;CYWG 230700Z 10008KT 15SM SCT030 M12/M15 A3032 RMK SC2 SLP289

CYWG;2007-02-23 08:00;CYWG 230800Z 11006KT 15SM SCT030 OVC100 M12/M15 A3032 RMK SC3AC5 SLP288

CYWG;2007-02-23 09:00;CYWG 230900Z 10008KT 15SM BKN025 OVC100 M11/M14 A3029 RMK SC6AC2 SLP278

CYWG;2007-02-23 10:00;CYWG 231000Z 12013KT 15SM BKN025 OVC100 M10/M14 A3026 RMK SC6AC2 SLP269

CYWG;2007-02-23 11:00;CYWG 231100Z 11013KT 15SM SCT025 OVC099 M10/M14 A3025 RMK SC3AC5 SLP266

CYWG;2007-02-23 12:00;CYWG 231200Z 11016KT 15SM OVC087 M09/M13 A3022 RMK AC8 SLP256

CYWG;2007-02-23 12:41;CYWG 231241Z 11014G20KT 15SM -SN OVC078 M09/ RMK AC8

CYWG;2007-02-23 13:00;CYWG 231300Z 11016KT 15SM -SN OVC070 M09/M13 A3021 RMK AC8 SLP251

CYWG;2007-02-23 13:13;CYWG 231313Z 11016KT 15SM BKN062 M09/ RMK SC7

CYWG;2007-02-23 14:00;CYWG 231400Z 12016KT 15SM BKN033 OVC080 M09/M13 A3020 RMK SC5AC3 SLP247

CYWG;2007-02-23 15:00;CYWG 231500Z 12017G22KT 15SM -SN BKN026 OVC048 M08/M12 A3017 RMK SC6SC2 SLP237

CYWG;2007-02-23 16:00;CYWG 231600Z 12017KT 15SM -SN OVC026 M08/M12 A3015 RMK SC8 SLP229

CYWG;2007-02-23 16:33;CYWG 231633Z CCA 11017KT 2SM -SN OVC044 M07/ RMK SN2SC6

CYWG;2007-02-23 16:54;CYWG 231654Z 11018KT 1SM R13/P6000FT/D R36/P6000FT/N -SN VV007 M07/ RMK SN8

CYWG;2007-02-23 17:00;CYWG 231700Z CCA 11020G25KT 1SM R13/P6000FT/U R36/P6000FT/U -SN VV007 M07/M10 A3012 RMK SN8 SLP220

CYWG;2007-02-23 17:20;CYWG 231720Z CCA 12018KT 2SM -SN OVC008 M07/ RMK SN3ST5

CYWG;2007-02-23 17:25;CYWG 231725Z 12017G22KT 1 1/2SM -SN OVC008 M07/ RMK SN5ST3

CYWG;2007-02-23 17:32;CYWG 231732Z CCA 12017KT 3/4SM R13/P6000FT/D R36/P6000FT/D -SN BLSN VV007 M07/ RMK SN8

CYWG;2007-02-23 18:00;CYWG 231800Z 12018KT 3/4SM R13/P6000FT/U R36/P6000FT/U -SN BLSN VV005 M06/M08 A3011 RMK SN8 SLP214

CYWG;2007-02-23 19:00;CYWG 231900Z 12021KT 3/4SM R13/P6000FT/D R36/P6000FT/N -SN BLSN VV006 M05/M07 A3007 RMK SN8 SLP203

CYWG;2007-02-23 19:18;CYWG 231918Z 11022KT 1SM R13/P6000FT/N R36/P6000FT/N -SN BLSN VV004 M05/ RMK SN8

CYWG;2007-02-23 19:35;CYWG 231935Z 11019G24KT 3SM -SN BLSN FEW008 OVC059 M05/ RMK SF2SC6

CYWG;2007-02-23 20:00;CYWG 232000Z 11021KT 6SM BLSN SCT010 OVC059 M05/M07 A3004 RMK SF2SC6 SLP191

CYWG;2007-02-23 20:39;CYWG 232039Z 13020G26KT 10SM DRSN BKN010 OVC059 M04/ RMK SC5SC3 OCNL BLSN

CYWG;2007-02-23 21:00;CYWG 232100Z 11023G28KT 12SM DRSN BKN010 BKN056 OVC087 M04/M06 A3003 RMK SC5SC2AC2 SLP185

CYWG;2007-02-23 21:36;CYWG 232136Z 10022G29KT 15SM DRSN FEW012 SCT060 OVC087 M04/ RMK SC2SC2AC4

CYWG;2007-02-23 22:00;CYWG 232200Z 10021KT 12SM DRSN SCT060 OVC091 M04/M06 A3001 RMK SC3AC5 SLP180

CYWG;2007-02-23 23:00;CYWG 232300Z 11023G31KT 12SM DRSN FEW060 OVC091 M04/M07 A3000 RMK SC2AC6 SLP176

CYWG;2007-02-24 00:00;CYWG 240000Z 11024G29KT 15SM DRSN OVC089 M04/M07 A2998 RMK AC8 SLP170

CYWG;2007-02-24 00:46;CYWG 240046Z 25002KT 4SM -RA BR SCT007 OVC020 02/ RMK SF4SC4

CYWG;2007-02-24 01:00;CYWG 240100Z 11021G33KT 10SM DRSN OVC089 M04/M07 A2999 RMK AC8 OCNL BLSN SLP173

CYWG;2007-02-24 02:00;CYWG 240200Z CCA 14015G21KT 15SM DRSN FEW020 OVC080 M04/M07 A3002 RMK SC2AC6 SLP183

CYWG;2007-02-24 03:00;CYWG 240300Z 13019G27KT 12SM DRSN FEW020 OVC074 M04/M07 A3002 RMK SC2AC6 SLP183

CYWG;2007-02-24 04:00;CYWG 240400Z 02005KT 1SM R13/P6000FT/D R36/P6000FT/U -DZ BR OVC026 01/01 A2992 RMK FG4SC4 SLP144

CYWG;2007-02-24 04:28;CYWG 240428Z 36007KT 1 1/2SM BR OVC004 RMK ST8

CYWG;2007-02-24 05:00;CYWG 240500Z 13017G24KT 15SM DRSN FEW020 OVC064 M04/M07 A3002 RMK SC2SC6 SLP182

CYWG;2007-02-24 06:00;CYWG 240600Z 13018G24KT 15SM DRSN OVC064 M04/M07 A3001 RMK SC8 SLP179

CYWG;2007-02-24 07:00;CYWG 240700Z 13020KT 15SM DRSN OVC024 M05/M07 A3001 RMK SC8 SLP178

CYWG;2007-02-24 08:00;CYWG 240800Z 12021KT 15SM DRSN FEW013 OVC023 M05/M07 A3000 RMK SF2SC6 SLP174

CYWG;2007-02-24 09:00;CYWG 240900Z 12021KT 15SM DRSN FEW013 OVC024 M05/M08 A2998 RMK SF2SC6 SLP169

CYWG;2007-02-24 10:00;CYWG 241000Z 12017KT 15SM DRSN OVC013 M05/M08 A2999 RMK SC8 SLP170

CYWG;2007-02-24 11:00;CYWG 241100Z 12018KT 15SM DRSN SCT013 OVC024 M05/M08 A2998 RMK SC3SC5 SLP168

CYWG;2007-02-24 11:49;CYWG 241149Z 12017KT 3SM DRSN -FZDZ OVC011 M05/ RMK ST8

CYWG;2007-02-24 12:00;CYWG 241200Z 12017G22KT 3SM DRSN -FZDZ OVC009 M05/M07 A2999 RMK ST8 SLP171

CYWG;2007-02-24 12:23;CYWG 241223Z 12017KT 12SM DRSN BKN009 OVC023 M05/ RMK ST6SC2 REFZDZ

CYWG;2007-02-24 12:45;CYWG 241245Z 12015KT 15SM DRSN SCT012 OVC023 M05/ RMK ST3SC5

CYWG;2007-02-24 13:00;CYWG 241300Z 12016KT 15SM DRSN SCT012 BKN025 M05/M08 A3000 RMK ST3SC3 SLP174

CYWG;2007-02-24 14:00;CYWG 241400Z 12015KT 15SM BKN014 OVC025 M05/M08 A3000 RMK ST6SC2 SLP176

CYWG;2007-02-24 15:00;CYWG 241500Z 12013G18KT 15SM BKN012 OVC021 M05/M08 A3001 RMK ST5SC3 SLP177

CYWG;2007-02-24 16:00;CYWG 241600Z 12013KT 4SM -SN DRSN BKN008 OVC021 M05/M07 A3001 RMK ST6SC2 SLP178

CYWG;2007-02-24 17:00;CYWG 241700Z 13013G18KT 15SM -SN DRSN BKN010 OVC021 M05/M07 A3001 RMK ST6SC2 SLP177

CYWG;2007-02-24 18:00;CYWG 241800Z 13014KT 15SM -SN OVC021 M04/M07 A3000 RMK SC8 SLP175

CYWG;2007-02-24 19:00;CYWG 241900Z 12012KT 4SM -SN OVC021 M04/M07 A2999 RMK SC8 SLP171

CYWG;2007-02-24 20:00;CYWG 242000Z 13011KT 6SM -SN FEW008 OVC027 M04/M07 A2998 RMK SF1SC7 SLP169

CYWG;2007-02-24 21:00;CYWG 242100Z 12014KT 2SM -SN FEW011 OVC027 M04/M06 A2999 RMK SF2SC6 VIS N 4 SLP170

CYWG;2007-02-24 21:08;CYWG 242108Z 12012G17KT 4SM -SN FEW011 OVC018 M04/ RMK SF2SF6

CYWG;2007-02-24 22:00;CYWG 242200Z 12011KT 6SM -SN SCT015 OVC034 M04/M06 A2998 RMK SF2SC6 SLP168

CYWG;2007-02-24 23:00;CYWG 242300Z 11010KT 6SM -SN SCT013 OVC028 M04/M07 A2997 RMK SF2SC6 SLP165

CYWG;2007-02-25 00:00;CYWG 250000Z 12010KT 6SM -SN SCT026 OVC070 M04/M07 A2999 RMK SC4AC4 SLP170

CYWG;2007-02-25 00:50;CYWG 250050Z 08005KT 4SM -SN BR OVC011 RMK SF8

CYWG;2007-02-25 01:00;CYWG 250100Z 09004KT 4SM -SN BR OVC011 M04/M06 A2999 RMK SF8 SLP171

CYWG;2007-02-25 01:22;CYWG 250122Z 07004KT 2 1/2SM -SN BR OVC014 M05/ RMK SF8

CYWG;2007-02-25 01:48;CYWG 250148Z 08005KT 4SM -SN BR OVC008 M04/ RMK SF8

CYWG;2007-02-25 02:00;CYWG 250200Z 09006KT 4SM -SN BR OVC008 M04/M06 A2998 RMK SF8 SLP167

CYWG;2007-02-25 02:12;CYWG 250212Z 09004KT 4SM -SN BR OVC010 M04/ RMK SF8

CYWG;2007-02-25 02:31;CYWG 250231Z 09006KT 1 3/4SM -SN BR VV007 M04/ RMK SN8

CYWG;2007-02-25 02:45;CYWG 250245Z 10006KT 6SM -SN BR SCT010 OVC030 M04/ RMK SN1SF2SC5

CYWG;2007-02-25 03:00;CYWG 250300Z 12009KT 6SM -SN BKN009 OVC030 M04/M06 A2996 RMK SF6SC2 /S01/ SLP161

CYWG;2007-02-25 03:23;CYWG 250323Z 13008KT 3SM -SN OVC012 M04/ RMK SF8

CYWG;2007-02-25 04:00;CYWG 250400Z 08004KT 1 3/4SM -SN BR OVC011 M05/M06 A2994 RMK SN2SF6 /S02/ SLP155

CYWG;2007-02-25 04:30;CYWG 250430Z 09006KT 3/4SM R13/P6000FT/D R36/P6000FT/D -SN BR VV009 M05/ RMK SN8

CYWG;2007-02-25 05:00;CYWG 250500Z CCA 09006KT 1SM R13/P6000FT/U R36/P6000FT/U -SN OVC009 M05/M06 A2993 RMK SN4SF4 SLP153

CYWG;2007-02-25 05:21;CYWG 250521Z 09006KT 2SM -SN BKN010 OVC079 M05/ RMK SF6AC2

CYWG;2007-02-25 06:00;CYWG 250600Z 10005KT 1 1/2SM -SN BKN015 OVC079 M05/M06 A2993 RMK SN2SF6AC1 SLP149

CYWG;2007-02-25 06:38;CYWG 250638Z 08005KT 10SM -SN FEW012 BKN028 OVC083 M05/ RMK SF1SC5AC2

CYWG;2007-02-25 07:00;CYWG 250700Z 09004KT 12SM -SN FEW005 SCT011 OVC022 M05/M06 A2992 RMK SF1SF3SC4 SLP146

CYWG;2007-02-25 07:35;CYWG 250735Z 10006KT 5SM -SN BKN009 OVC020 M05/ RMK SF5SC3

CYWG;2007-02-25 08:00;CYWG 250800Z CCA 09005KT 4SM -SN SCT010 OVC019 M05/M06 A2991 RMK SF4SC4 /SO1/ SLP145

CYWG;2007-02-25 08:48;CYWG 250848Z 09004KT 2SM -SN FEW010 OVC027 M05/ RMK SF2SC6

CYWG;2007-02-25 09:00;CYWG 250900Z 09004KT 1 1/2SM -SN OVC015 M05/M06 A2990 RMK SN2SC6 VSBY VRBL 1-2 SLP140

CYWG;2007-02-25 09:09;CYWG 250909Z 09005KT 1SM R13/P6000FT/D R36/P6000FT/D -SN VV006 M05/ RMK SN8 VSBY VRBL 3/4-2

CYWG;2007-02-25 10:00;CYWG 251000Z 06005KT 2SM -SN OVC009 M05/M06 A2988 RMK SN1SC7 /S02/ VSBY VRBL 1-3 SLP134

CYWG;2007-02-25 11:00;CYWG 251100Z 07005KT 2SM -SN OVC012 M05/M06 A2988 RMK SC8 VSBY VRBL 1-3 SLP134

CYWG;2007-02-25 11:52;CYWG 251152Z 08005KT 6SM -SN OVC014 M05/ RMK SC8

CYWG;2007-02-25 12:00;CYWG 251200Z 09005KT 6SM -SN OVC017 M05/M07 A2988 RMK SC8 SLP134

CYWG;2007-02-25 12:24;CYWG 251224Z 08006KT 2SM -SN FEW009 OVC016 M05/ RMK SF2SC6

CYWG;2007-02-25 13:00;CYWG 251300Z 07006KT 1 1/2SM -SN VV014 M05/M07 A2987 RMK SN8 SLP131

CYWG;2007-02-25 13:46;CYWG 251346Z 06006KT 3SM -SN FEW009 OVC012 M05/ RMK SF2SC6

CYWG;2007-02-25 14:00;CYWG 251400Z 07007KT 6SM -SN FEW009 OVC014 M05/M07 A2986 RMK SF2SC6 SLP128

CYWG;2007-02-25 14:34;CYWG 251434Z CCA 08006KT 10SM -SN SCT009 BKN016 OVC026 M05/ RMK SF3SC2SC2

CYWG;2007-02-25 15:00;CYWG 251500Z 06006KT 3SM -SN OVC014 M05/M07 A2986 RMK SC8 SLP127

CYWG;2007-02-25 16:00;CYWG 251600Z 04009KT 2SM -SN OVC014 M05/M07 A2985 RMK SN2SC6 SLP123

CYWG;2007-02-25 16:35;CYWG 251635Z 05009KT 1 1/2SM -SN VV009 M05/ RMK SN8

CYWG;2007-02-25 17:00;CYWG 251700Z 05008KT 2 1/2SM -SN OVC008 M05/M07 A2984 RMK ST8 /S01/ SLP121

CYWG;2007-02-25 18:00;CYWG 251800Z 05010KT 2 1/2SM -SN OVC008 M05/M07 A2983 RMK ST8 SLP116

CYWG;2007-02-25 19:00;CYWG 251900Z 03008KT 4SM -SN BKN008 OVC041 M05/M06 A2980 RMK SF6SC2 SLP107

CYWG;2007-02-25 19:49;CYWG 251949Z 04010KT 12SM BKN008 OVC041 M04/ RMK SF6SC2

CYWG;2007-02-25 20:00;CYWG 252000Z 04010KT 12SM BKN009 OVC042 M04/M06 A2979 RMK SF6SC2 SLP102

CYWG;2007-02-25 20:37;CYWG 252037Z 03011KT 12SM BKN012 OVC031 M04/ RMK SF5SC3

CYWG;2007-02-25 21:00;CYWG 252100Z 04010KT 12SM BKN012 OVC031 M04/M06 A2978 RMK SF6SC2 SLP098

CYWG;2007-02-25 22:00;CYWG 252200Z 04011KT 12SM -SN BKN012 OVC030 M04/M06 A2977 RMK SC6SC2 SLP096

CYWG;2007-02-25 23:00;CYWG 252300Z 05010KT 6SM -SN BKN014 OVC030 M04/M07 A2977 RMK SC6SC2 SLP097

CYWG;2007-02-26 00:00;CYWG 260000Z 18012KT 1/8SM R13/1400FT/N R36/1000FT/N FG VV001 06/06 A2957 RMK FG8 SLP024

CYWG;2007-02-26 00:33;CYWG 260033Z CCA 19011KT 1/4SM R13/2800FT/N R36/2000FT/N FG VV001 05/ RMK FG8

CYWG;2007-02-26 01:00;CYWG 260100Z 20010KT 1/4SM R13/P6000FT/N R36/3500FT/U FG VV001 05/05 A2960 RMK FG8 SLP032

CYWG;2007-02-26 01:39;CYWG 260139Z 07010KT 12SM -SN OVC024 M05/ RMK SC8

CYWG;2007-02-26 02:00;CYWG 260200Z 07010KT 12SM -SN OVC024 M05/M07 A2980 RMK SC8 SLP105

CYWG;2007-02-26 03:00;CYWG 260300Z 07009KT 12SM -SN OVC033 M05/M07 A2980 RMK SC8 SLP107

CYWG;2007-02-26 04:00;CYWG 260400Z 19007KT 1/8SM R13/1400FT/N R36/1400FT/N FG VV001 03/03 A2962 RMK FG8 SLP038

CYWG;2007-02-26 05:00;CYWG 260500Z 09006KT 12SM -SN OVC025 M05/M08 A2980 RMK SC8 SLP108

CYWG;2007-02-26 06:00;CYWG 260600Z 07006KT 12SM -SN OVC025 M05/M08 A2981 RMK SC8 SLP110

CYWG;2007-02-26 07:00;CYWG 260700Z 08006KT 12SM -SN OVC025 M05/M08 A2982 RMK SC8 SLP112

CYWG;2007-02-26 07:24;CYWG 260724Z 07006KT 15SM OVC025 M05/ RMK SC8

CYWG;2007-02-26 08:00;CYWG 260800Z 07004KT 15SM OVC025 M06/M08 A2981 RMK SC8 SLP111

CYWG;2007-02-26 09:00;CYWG 260900Z 06006KT 15SM OVC025 M06/M08 A2981 RMK SC8 SLP111

CYWG;2007-02-26 10:00;CYWG 261000Z 04007KT 15SM OVC025 M06/M08 A2982 RMK SC8 SLP112

CYWG;2007-02-26 11:00;CYWG 261100Z 04007KT 15SM OVC025 M06/M08 A2982 RMK SC8 SLP114

CYWG;2007-02-26 11:13;CYWG 261113Z 04007KT 12SM -SN OVC025 M06/ RMK SC8

CYWG;2007-02-26 12:00;CYWG 261200Z 04009KT 10SM -SN OVC015 M06/M08 A2983 RMK SC8 SLP116

CYWG;2007-02-26 12:15;CYWG 261215Z 05008KT 12SM -SN OVC022 M06/ RMK SC8

CYWG;2007-02-26 13:00;CYWG 261300Z 05007KT 10SM -SN OVC020 M06/M08 A2984 RMK SC8 SLP119

CYWG;2007-02-26 13:27;CYWG 261327Z 07007KT 1 3/4SM -SN OVC020 M06/ RMK SN2SC6

CYWG;2007-02-26 13:36;CYWG 261336Z 07007KT 6SM -SN OVC020 M06/ RMK SC8

CYWG;2007-02-26 13:46;CYWG 261346Z 07006KT 2SM -SN OVC020 M06/ RMK SC8

CYWG;2007-02-26 14:00;CYWG 261400Z 07007KT 2SM -SN OVC020 M06/M08 A2984 RMK SN2SC6 SLP121

CYWG;2007-02-26 14:19;CYWG 261419Z 06006KT 6SM -SN FEW010 OVC018 M06/ RMK SF1SC7

CYWG;2007-02-26 15:00;CYWG 261500Z 08007KT 3SM -SN SCT010 OVC020 M06/M08 A2985 RMK SF3SC3 SLP123

CYWG;2007-02-26 16:00;CYWG 261600Z 09006KT 3SM -SN SCT020 BKN080 M06/M08 A2985 RMK SC3AS2 SLP124

CYWG;2007-02-26 16:30;CYWG 261630Z 08008KT 1 1/2SM -SN OVC020 M06/ RMK SN5SC3

CYWG;2007-02-26 17:00;CYWG 261700Z 09007KT 2SM -SN SCT015 OVC080 M06/M08 A2986 RMK SC3AC2 /S01/ SLP127

CYWG;2007-02-26 17:12;CYWG 261712Z 09009KT 3SM -SN BKN015 BKN080 M06/ RMK SC5AC1

CYWG;2007-02-26 18:00;CYWG 261800Z 09006KT 10SM -SN BKN020 M05/M08 A2987 RMK SC6 SLP129

CYWG;2007-02-26 18:39;CYWG 261839Z 09006KT 15SM BKN025 M05/ RMK SC7

CYWG;2007-02-26 18:55;CYWG 261855Z 09006KT 15SM -SN OVC025 M05/ RMK SC7

CYWG;2007-02-26 19:00;CYWG 261900Z 10006KT 15SM -SN OVC025 M05/M09 A2986 RMK SC7 SLP127

CYWG;2007-02-26 20:00;CYWG 262000Z 11005KT 15SM -SN OVC025 M05/M08 A2986 RMK SC7 SLP128

CYWG;2007-02-26 21:00;CYWG 262100Z 09005KT 10SM -SN OVC025 M05/M08 A2987 RMK SC8 SLP131

CYWG;2007-02-26 22:00;CYWG 262200Z 04009KT 12SM -SN BKN025 OVC080 M05/M08 A2988 RMK SC5AC3 SLP134

CYWG;2007-02-26 23:00;CYWG 262300Z 03007KT 12SM -SN BKN025 OVC080 M05/M08 A2989 RMK SC5AC3 SLP138

CYWG;2007-02-27 00:00;CYWG 270000Z 05008KT 15SM -SN BKN025 OVC090 M06/M08 A2990 RMK SC5AC2 SLP143

CYWG;2007-02-27 01:00;CYWG 270100Z 05007KT 10SM -SN BKN015 OVC090 M06/M08 A2992 RMK SC5AC2 SLP147

CYWG;2007-02-27 02:00;CYWG 270200Z 06005KT 6SM -SN BKN015 OVC080 M06/M08 A2993 RMK SC5AC2 SLP150

CYWG;2007-02-27 02:48;CYWG 270248Z 07004KT 2SM -SN BKN012 OVC080 M06/ RMK SC5AC2

CYWG;2007-02-27 03:00;CYWG 270300Z 07003KT 3SM -SN BKN012 OVC080 M06/M08 A2993 RMK SC5AC2 SLP153

CYWG;2007-02-27 04:00;CYWG 270400Z 06006KT 10SM -SN BKN020 BKN080 M07/M08 A2994 RMK SC5AC2 SLP154

CYWG;2007-02-27 05:00;CYWG 270500Z 06005KT 10SM -SN BKN020 OVC080 M07/M09 A2994 RMK SC6AC2 SLP154

CYWG;2007-02-27 06:00;CYWG 270600Z 07003KT 12SM -SN BKN030 OVC080 M07/M09 A2993 RMK SC6AC2 SLP153

CYWG;2007-02-27 07:00;CYWG 270700Z 05006KT 12SM -SN BKN030 OVC080 M08/M10 A2994 RMK SC6AC1 SLP154

CYWG;2007-02-27 08:00;CYWG 270800Z 00000KT 8SM -SN OVC030 M08/M09 A2994 RMK SC7 SLP156

CYWG;2007-02-27 09:00;CYWG 270900Z 08002KT 3SM -SN OVC030 M08/M09 A2994 RMK SC7 SLP155

CYWG;2007-02-27 10:00;CYWG 271000Z 00000KT 3SM -SN OVC030 M07/M09 A2993 RMK SC8 SLP153

CYWG;2007-02-27 11:00;CYWG 271100Z 13004KT 10SM -SN OVC030 M08/M09 A2994 RMK SC8 SLP154

CYWG;2007-02-27 12:00;CYWG 271200Z 14003KT 15SM BKN030 OVC080 M08/M10 A2995 RMK SC5AC3 SLP158

CYWG;2007-02-27 13:00;CYWG 271300Z 10004KT 15SM SCT030 BKN080 OVC250 M10/M11 A2995 RMK SC3AC2CI2 SLP160

CYWG;2007-02-27 14:00;CYWG 271400Z 12004KT 15SM SCT035 BKN080 OVC250 M10/M13 A2997 RMK SC4AC1CI2 SLP165

CYWG;2007-02-27 14:51;CYWG 271451Z CCA 11006KT 15SM BKN012 OVC250 M08/ RMK SC6CI2

CYWG;2007-02-27 14:52;CYWG 271452Z 11006KT 15SM BKN012 OVC250 08/ RMK SC6CI2

CYWG;2007-02-27 15:00;CYWG 271500Z 13007KT 15SM BKN012 OVC250 M08/M11 A2997 RMK SC6CI2 SLP165

CYWG;2007-02-27 16:00;CYWG 271600Z 12008KT 15SM SCT012 BKN080 OVC250 M07/M11 A2997 RMK SC4AC1CI2 SLP166

CYWG;2007-02-27 17:00;CYWG 271700Z CCA 14007KT 15SM BKN015 BKN250 M06/M10 A2999 RMK SC5CI2 SLP171

CYWG;2007-02-27 17:45;CYWG 271745Z 13006KT 10SM -SN OVC013 M05/ RMK SC8

CYWG;2007-02-27 18:00;CYWG 271800Z 15008KT 12SM -SN BKN015 OVC250 M05/M08 A2999 RMK SC6CI2 SLP172

CYWG;2007-02-27 19:00;CYWG 271900Z 17007KT 10SM -SN OVC015 M04/M08 A2999 RMK SC8 SLP172

CYWG;2007-02-27 19:36;CYWG 271936Z 14006KT 2SM -SN OVC015 RMK SN3SC5

CYWG;2007-02-27 20:00;CYWG 272000Z 16005KT 6SM -SN OVC015 M04/M07 A2999 RMK SC8 SLP171

CYWG;2007-02-27 21:00;CYWG 272100Z 11008KT 8SM -SN SCT015 BKN030 M05/M07 A2998 RMK SC3SC3 SLP169

CYWG;2007-02-27 21:45;CYWG 272145Z 12005KT 2SM -SN OVC014 M04/ RMK SN3SC5

CYWG;2007-02-27 22:00;CYWG 272200Z 13006KT 2SM -SN OVC014 M04/M06 A2999 RMK SN3SC5 SLP172

CYWG;2007-02-27 23:00;CYWG 272300Z 12007KT 1 1/2SM -SN OVC014 M04/M06 A3000 RMK SN3SC5 SLP176

CYWG;2007-02-28 00:00;CYWG 280000Z 10013G24KT 15SM FEW080 BKN220 08/M03 A3026 RMK AC2CI2 SLP259

CYWG;2007-02-28 01:00;CYWG 280100Z 12007KT 3SM -SN SCT010 BKN070 M04/M06 A3001 RMK SC4AC3 FROIN SLP179

CYWG;2007-02-28 02:00;CYWG 280200Z 13009KT 3SM -SN BKN010 OVC070 M04/M06 A3001 RMK SC5AC2 SLP180

CYWG;2007-02-28 03:00;CYWG 280300Z 13012KT 3SM -SN SCT010 OVC065 M04/M06 A3001 RMK SC4SC3 SLP180

CYWG;2007-02-28 04:00;CYWG 280400Z 13011G16KT 10SM -SN BKN012 BKN030 M05/M07 A3002 RMK SF5SC2 SLP181

CYWG;2007-02-28 04:39;CYWG 280439Z 14011G16KT 15SM FEW012 BKN030 M05/ RMK SF1SC6

CYWG;2007-02-28 05:00;CYWG 280500Z 14010G15KT 15SM FEW012 OVC030 M05/M07 A3002 RMK SF1SC7 SLP182

CYWG;2007-02-28 05:35;CYWG 280535Z 15010KT 12SM -SN OVC020 M05/ RMK SC8

CYWG;2007-02-28 06:00;CYWG 280600Z 15010KT 12SM -SN OVC020 M05/M08 A3003 RMK SC8 SLP186

CYWG;2007-02-28 07:00;CYWG 280700Z 15008KT 12SM -SN OVC020 M06/M08 A3003 RMK SC8 SLP186

CYWG;2007-02-28 08:00;CYWG 280800Z 14007KT 12SM -SN BKN020 OVC080 M06/M08 A3003 RMK SC6AC2 SLP184

CYWG;2007-02-28 09:00;CYWG 280900Z 14008KT 12SM -SN FEW012 OVC020 M05/M07 A3003 RMK SF1SC7 SLP184

CYWG;2007-02-28 10:00;CYWG 281000Z 13007KT 12SM -SN OVC020 M06/M07 A3003 RMK SC8 SLP183

CYWG;2007-02-28 11:00;CYWG 281100Z 13007KT 12SM -SN OVC020 M06/M08 A3003 RMK SC8 SLP184

CYWG;2007-02-28 12:00;CYWG 281200Z 12008KT 15SM -SN OVC020 M06/M08 A3002 RMK SC8 SLP182

CYWG;2007-02-28 13:00;CYWG 281300Z 12008KT 15SM FEW020 OVC038 M06/M08 A3003 RMK SC2SC6 SLP183

CYWG;2007-02-28 14:00;CYWG 281400Z 12009KT 15SM -SN OVC035 M06/M08 A3003 RMK SC8 SLP183

CYWG;2007-02-28 15:00;CYWG 281500Z 11009KT 15SM -SN OVC030 M05/M08 A3001 RMK SC8 SLP178

CYWG;2007-02-28 16:00;CYWG 281600Z 12012KT 15SM FEW015 BKN030 M05/M07 A3000 RMK SC1SC6 SLP174

CYWG;2007-02-28 16:36;CYWG 281636Z 12013KT 15SM SCT035 BKN250 M04/ RMK SC4CI1

CYWG;2007-02-28 17:00;CYWG 281700Z 12012KT 15SM FEW035 SCT110 OVC250 M04/M07 A2999 RMK SC1AC2CI2 SLP170

CYWG;2007-02-28 18:00;CYWG 281800Z 11011KT 15SM FEW110 BKN250 M03/M07 A2998 RMK AC2CI2 SLP166

CYWG;2007-02-28 19:00;CYWG 281900Z 11014KT 15SM FEW020 OVC250 M02/M06 A2995 RMK SC1CI4 SLP156

CYWG;2007-02-28 20:00;CYWG 282000Z 11015KT 15SM FEW020 SCT100 BKN250 M02/M06 A2993 RMK SC2AC2CI2 SLP150

CYWG;2007-02-28 21:00;CYWG 282100Z 11013KT 15SM SCT036 BKN086 OVC230 M01/M06 A2991 RMK SC3AC2CI2 SLP144

CYWG;2007-02-28 22:00;CYWG 282200Z 10015KT 15SM SCT038 OVC081 M01/M06 A2989 RMK SC3AC5 SLP137

CYWG;2007-02-28 23:00;CYWG 282300Z 13012KT 15SM BKN036 OVC073 M01/M06 A2989 RMK SC5AC3 SLP137

CYWG;2007-03-01 01:00;CYWG 010100Z 10014KT 15SM SCT035 OVC060 M02/M06 A2989 RMK SC3SC3 SLP137

CYWG;2007-03-01 02:00;CYWG 010200Z 05007KT 12SM OVC009 03/01 A2978 RMK SC8 CIG RGD SLP097

CYWG;2007-03-01 03:00;CYWG 010300Z 11015G21KT 15SM DRSN OVC029 M01/M05 A2988 RMK SC7 SLP134

CYWG;2007-03-01 03:15;CYWG 010315Z 12016KT 10SM -SN DRSN OVC031 M01/ RMK SC7

CYWG;2007-03-01 04:00;CYWG 010400Z 03006KT 12SM -RA FEW010 OVC019 02/01 A2974 RMK SC2SC6 SLP080

CYWG;2007-03-01 05:00;CYWG 010500Z 11014KT 12SM -SN DRSN OVC023 M01/M05 A2986 RMK SC7 SLP126

CYWG;2007-03-01 06:00;CYWG 010600Z 12014KT 4SM -SN OVC017 M02/M04 A2985 RMK SC7 SLP123

CYWG;2007-03-01 06:42;CYWG 010642Z 12013KT 2SM -SN OVC016 M02/ RMK SC8

CYWG;2007-03-01 07:00;CYWG 010700Z 12013KT 2SM -SN VV014 M02/M04 A2984 RMK SN8 SLP118

CYWG;2007-03-01 08:00;CYWG 010800Z 11011KT 3SM -SN OVC012 M02/M04 A2982 RMK SC7 SLP113

CYWG;2007-03-01 08:37;CYWG 010837Z 09009KT 2SM -SN FEW006 VV010 M02/ RMK SF1SN7

CYWG;2007-03-01 09:00;CYWG 010900Z 09009KT 2SM -SN FEW006 VV010 M03/M04 A2981 RMK SF1SN7 SLP108

CYWG;2007-03-01 10:00;CYWG 011000Z 09009KT 2SM -SN FEW015 OVC046 M03/M04 A2980 RMK SF2SC6 SLP104

CYWG;2007-03-01 10:47;CYWG 011047Z 09012KT 2SM -SN BKN015 OVC046 M03/ RMK SC5SC3

CYWG;2007-03-01 11:00;CYWG 011100Z 09011KT 2SM -SN BKN015 OVC046 M03/M04 A2979 RMK SC6SC2 SLP101

CYWG;2007-03-01 11:14;CYWG 011114Z 09012KT 2SM -SN BKN009 OVC050 M03/ RMK SC6SC2

CYWG;2007-03-01 11:28;CYWG 011128Z 09012KT 1 1/2SM -SN OVC007 M03/ RMK SC8

CYWG;2007-03-01 12:00;CYWG 011200Z 09013KT 1 1/2SM -SN OVC008 M03/M05 A2979 RMK SC8 /S01/ SLP100

CYWG;2007-03-01 13:00;CYWG 011300Z 09012KT 1SM R13/P6000FT/D R36/P6000FT/D -SN VV005 M03/M05 A2978 RMK SN8 SLP097

CYWG;2007-03-01 13:19;CYWG 011319Z 09010KT 1 1/2SM -SN OVC006 M03/ RMK SN6SC2

CYWG;2007-03-01 13:34;CYWG 011334Z 09013KT 4SM -SN OVC008 M04/ RMK SN2SC6

CYWG;2007-03-01 14:00;CYWG 011400Z 09014KT 4SM -SN OVC011 M04/M06 A2976 RMK SC8 SLP092

CYWG;2007-03-01 14:39;CYWG 011439Z 09014G20KT 4SM -SN DRSN OVC009 M04/ RMK SC8

CYWG;2007-03-01 15:00;CYWG 011500Z 09015KT 4SM -SN DRSN BKN009 OVC021 M04/M06 A2975 RMK SF5SC3 SLP088

CYWG;2007-03-01 16:00;CYWG 011600Z 09014KT 4SM -SN DRSN FEW015 OVC035 M04/M07 A2974 RMK SF2SC6 SLP086

CYWG;2007-03-01 16:20;CYWG 011620Z 10016KT 2SM -SN DRSN SCT010 OVC035 RMK SN2SF2SC4

CYWG;2007-03-01 17:00;CYWG 011700Z CCA 10013G18KT 2SM -SN DRSN OVC012 M04/M06 A2974 RMK SC8 SLP085

CYWG;2007-03-01 17:20;CYWG 011720Z 10013KT 1SM R13/P6000FT/N R36/P6000FT/D -SN DRSN VV005 RMK SN8

CYWG;2007-03-01 17:45;CYWG 011745Z CCA 10013KT 1SM R13/P6000FT/N R36/P6000FT/D -SN DRSN VV005 M03/ RMK SN8

CYWG;2007-03-01 18:00;CYWG 011800Z 09013KT 1SM R13/P6000FT/D R36/P6000FT/D -SN DRSN VV006 M03/M06 A2973 RMK SN8 /S02/ SLP080

CYWG;2007-03-01 19:00;CYWG 011900Z 08012G17KT 1SM R13/6000FT/N R36/5500FT/U -SN DRSN VV004 M03/M05 A2970 RMK SN8 SLP071

CYWG;2007-03-01 19:10;CYWG 011910Z CCA 08015KT 3/4SM R13/4500VP6000FT/D R36/4500VP6000FT/D -SN DRSN VV004 M03/ RMK SN8

CYWG;2007-03-01 19:50;CYWG 011950Z 07010KT 1SM R13/P6000FT/N R36/P6000FT/N -SN DRSN SCT003 BKN036 OVC041 M03/ RMK SN2SC2SC2SC2

CYWG;2007-03-01 20:00;CYWG 012000Z 08012KT 1 1/2SM -SN DRSN BKN011 OVC036 M03/M05 A2968 RMK SC5SC3 SLP065

CYWG;2007-03-01 20:18;CYWG 012018Z 07012KT 8SM -SN DRSN SCT011 SCT028 OVC036 M03/ RMK SC2SC2SC4

CYWG;2007-03-01 21:00;CYWG 012100Z 08009KT 7SM -SHSN BKN030 OVC041 M02/M06 A2967 RMK SC6SC2 SLP062

CYWG;2007-03-01 21:42;CYWG 012142Z 08012KT 3SM -SHSN VV009 M03/ RMK SN8

CYWG;2007-03-01 21:49;CYWG 012149Z 08009KT 2SM -SHSN VV007 M03/ RMK SN8

CYWG;2007-03-01 22:00;CYWG 012200Z 07014KT 1 1/2SM -SHSN DRSN VV007 M03/M07 A2967 RMK SN8 SLP062

CYWG;2007-03-01 22:13;CYWG 012213Z 06008KT 1SM R13/P6000FT/N R36/P6000FT/N -SHSN DRSN VV005 M03/ RMK SN8

CYWG;2007-03-01 22:31;CYWG 012231Z CCA 04010KT 2SM -SHSN DRSN BKN006 BKN032 OVC074 M03/ RMK SN2SC2SC2AC1 VIS VRBL 1 1/2-2 1/2

CYWG;2007-03-01 23:00;CYWG 012300Z 05010G17KT 1 3/4SM -SHSN DRSN VV007 M03/M06 A2968 RMK SN8 VIS VRBL 1 - 2 1/2 SLP064

CYWG;2007-03-02 00:00;CYWG 020000Z 04011KT 2 1/2SM -SHSN DRSN VV009 M03/M08 A2968 RMK SN8 VIS VRBL 2-3 SLP065

CYWG;2007-03-02 00:24;CYWG 020024Z 03011KT 12SM -SN SCT012 OVC040 M03/ RMK SF3SC5

CYWG;2007-03-02 00:47;CYWG 020047Z 04011KT 15SM BKN019 OVC081 M03/ RMK SC6AC2

CYWG;2007-03-02 01:00;CYWG 020100Z 04012KT 15SM OVC021 M03/M09 A2968 RMK SC8 SLP066

CYWG;2007-03-02 02:00;CYWG 020200Z 05013KT 15SM OVC020 M03/M10 A2969 RMK SC8 SLP069

CYWG;2007-03-02 03:00;CYWG 020300Z 04011KT 15SM OVC021 M03/M10 A2969 RMK SC8 SLP068

CYWG;2007-03-02 04:00;CYWG 020400Z 05009KT 15SM BKN097 M06/M13 A2969 RMK AC4 SLP068

CYWG;2007-03-02 05:00;CYWG 020500Z 04010KT 15SM FEW095 BKN250 M09/M15 A2969 RMK AC2CS0 SLP067

CYWG;2007-03-02 06:00;CYWG 020600Z 04011KT 15SM BKN089 M10/M16 A2967 RMK AC5 SLP065

CYWG;2007-03-02 07:00;CYWG 020700Z 04013KT 15SM OVC022 M08/M14 A2966 RMK SC8 SLP061

CYWG;2007-03-02 08:00;CYWG 020800Z 03013KT 15SM OVC030 M08/M14 A2964 RMK SC8 SLP055

CYWG;2007-03-02 09:00;CYWG 020900Z 04018KT 15SM SCT058 BKN095 BKN250 M08/M14 A2963 RMK SC3AC2CS0 SLP048

CYWG;2007-03-02 10:00;CYWG 021000Z 03019G27KT 15SM DRSN BKN054 M08/M14 A2963 RMK SC6 SLP047

CYWG;2007-03-02 11:00;CYWG 021100Z 03018G26KT 15SM DRSN FEW054 BKN095 M10/M15 A2963 RMK SC2AC4 SLP049

CYWG;2007-03-02 12:00;CYWG 021200Z 02019KT 15SM BKN110 M11/M16 A2964 RMK AC6 SLP053

CYWG;2007-03-02 13:00;CYWG 021300Z 02020KT 15SM DRSN SCT110 BKN250 M12/M17 A2966 RMK AC2CI1 SLP060

CYWG;2007-03-02 14:00;CYWG 021400Z 02019KT 15SM DRSN FEW110 BKN250 M13/M18 A2967 RMK AC1CI2 SLP065

CYWG;2007-03-02 15:00;CYWG 021500Z 02022KT 15SM DRSN FEW110 BKN250 M13/M18 A2969 RMK AC1CI2 SLP071

CYWG;2007-03-02 16:00;CYWG 021600Z 02021G26KT 15SM DRSN OVC250 M12/M18 A2972 RMK CI3 SLP080

CYWG;2007-03-02 17:00;CYWG 021700Z 02024KT 15SM DRSN FEW130 OVC250 M12/M17 A2973 RMK AC1CI2 SLP083

CYWG;2007-03-02 18:00;CYWG 021800Z 02021G26KT 15SM DRSN BKN250 M11/M16 A2974 RMK CI3 SLP090

CYWG;2007-03-02 19:00;CYWG 021900Z 01025KT 15SM DRSN OVC250 M09/M15 A2975 RMK CI2 SLP094

CYWG;2007-03-02 20:00;CYWG 022000Z 01025KT 15SM DRSN BKN250 M08/M14 A2975 RMK CI2 SLP094

CYWG;2007-03-02 21:00;CYWG 022100Z CCA 01024G29KT 15SM DRSN BKN250 M07/M14 A2977 RMK CI2 SLP098

CYWG;2007-03-02 22:00;CYWG 022200Z 36019G25KT 15SM DRSN FEW097 BKN250 M06/M13 A2979 RMK AC2CI2 SLP105

CYWG;2007-03-02 23:00;CYWG 022300Z 36017KT 15SM DRSN FEW100 BKN250 M07/M14 A2982 RMK AC1CI2 SLP113

CYWG;2007-03-03 00:00;CYWG 030000Z 35019KT 15SM DRSN FEW100 BKN250 M08/M15 A2985 RMK AC1CI2 SLP127

CYWG;2007-03-03 01:00;CYWG 030100Z 34016KT 15SM FEW100 BKN250 M10/M16 A2989 RMK AC1CI2 SLP139

CYWG;2007-03-03 02:00;CYWG 030200Z 36016KT 15SM DRSN BKN250 M10/M16 A2990 RMK CI2 SLP145

CYWG;2007-03-03 03:00;CYWG 030300Z 01019G24KT 15SM DRSN SCT250 M09/M16 A2993 RMK CI1 SLP154

CYWG;2007-03-03 04:00;CYWG 030400Z 02018KT 15SM DRSN FEW100 M10/M16 A2995 RMK AC2 SLP162

CYWG;2007-03-03 05:00;CYWG 030500Z 33016KT 15SM DRSN FEW250 M13/M18 A2998 RMK CI1 SLP170

CYWG;2007-03-03 05:47;CYWG 030547Z 34014KT 15SM SKC M13/

CYWG;2007-03-03 06:00;CYWG 030600Z 34013KT 15SM SKC M13/M18 A2999 RMK SLP176

CYWG;2007-03-03 07:00;CYWG 030700Z 36013KT 15SM SKC M13/M18 A3001 RMK SLP184

CYWG;2007-03-03 08:00;CYWG 030800Z 33012KT 15SM SKC M17/M21 A3003 RMK SLP191

CYWG;2007-03-03 09:00;CYWG 030900Z 33013KT 15SM SKC M18/M21 A3005 RMK SLP198

CYWG;2007-03-03 10:00;CYWG 031000Z 34013KT 15SM FEW091 M18/M22 A3007 RMK AC2 SLP205

CYWG;2007-03-03 11:00;CYWG 031100Z 34010KT 15SM FEW100 M19/M25 A3010 RMK AC1 SLP213

CYWG;2007-03-03 12:00;CYWG 031200Z 32009KT 15SM FEW100 M22/M27 A3012 RMK AC1 SLP225

CYWG;2007-03-03 13:00;CYWG 031300Z 32010KT 15SM FEW100 M23/M28 A3014 RMK AC1 SLP230

CYWG;2007-03-03 14:00;CYWG 031400Z 30005KT 15SM SCT230 M21/M27 A3016 RMK CI0 SLP237

CYWG;2007-03-03 15:00;CYWG 031500Z 30007KT 15SM SCT230 M21/M27 A3017 RMK CI0 SLP240

CYWG;2007-03-03 16:00;CYWG 031600Z 31008KT 15SM FEW110 M19/M24 A3019 RMK AC1 SLP246

CYWG;2007-03-03 17:00;CYWG 031700Z 30006KT 15SM SKC M17/M23 A3020 RMK SLP249

CYWG;2007-03-03 18:00;CYWG 031800Z 29008KT 15SM FEW140 M15/M22 A3019 RMK AC1 SLP248

CYWG;2007-03-03 19:00;CYWG 031900Z 29007KT 15SM FEW140 FEW230 M13/M20 A3017 RMK AC1CI0 SLP241

CYWG;2007-03-03 20:00;CYWG 032000Z 28006KT 15SM FEW230 M11/M18 A3014 RMK CI0 PRESFR SLP230

CYWG;2007-03-03 21:00;CYWG 032100Z 27007KT 15SM BKN230 M11/M17 A3012 RMK CI3 SLP223

CYWG;2007-03-03 22:00;CYWG 032200Z 25007KT 15SM BKN230 M11/M17 A3011 RMK CI5 HALO SLP218

CYWG;2007-03-03 23:00;CYWG 032300Z 25005KT 15SM FEW100 BKN230 M11/M18 A3010 RMK AC2CI3 SLP215

CYWG;2007-03-04 00:00;CYWG 040000Z 20007KT 15SM FEW120 BKN230 M10/M17 A3007 RMK AC2CI3 SLP206

CYWG;2007-03-04 01:00;CYWG 040100Z 20010KT 15SM FEW120 BKN230 M10/M16 A3006 RMK AC2CI3 SLP202

CYWG;2007-03-04 02:00;CYWG 040200Z 21010KT 15SM SCT120 BKN230 M09/M15 A3002 RMK AC3CI2 PRESFR SLP188

CYWG;2007-03-04 03:00;CYWG 040300Z 20011KT 15SM BKN120 M09/M14 A2996 RMK AC6 PRESFR SLP167

CYWG;2007-03-04 04:00;CYWG 040400Z 21013KT 15SM SCT120 M10/M14 A2992 RMK AC4 SLP155

CYWG;2007-03-04 05:00;CYWG 040500Z 21016KT 15SM BKN084 BKN230 M09/M13 A2989 RMK AC5CI1 SLP144

CYWG;2007-03-04 06:00;CYWG 040600Z 22015KT 15SM BKN081 M08/M12 A2984 RMK AC6 SLP126

CYWG;2007-03-04 07:00;CYWG 040700Z 23010KT 15SM BKN047 OVC096 M07/M11 A2985 RMK SC5AC2 SLP127

CYWG;2007-03-04 08:00;CYWG 040800Z 27010KT 15SM BKN031 OVC074 M06/M10 A2986 RMK SC6AC2 SLP131

CYWG;2007-03-04 09:00;CYWG 040900Z 30013KT 15SM BKN031 OVC066 M06/M09 A2987 RMK SC6AC2 SLP133

CYWG;2007-03-04 10:00;CYWG 041000Z 30013KT 15SM OVC027 M05/M09 A2989 RMK SC8 SLP139

CYWG;2007-03-04 11:00;CYWG 041100Z 31012KT 15SM OVC025 M04/M07 A2991 RMK SC8 SLP146

CYWG;2007-03-04 12:00;CYWG 041200Z 31012KT 15SM OVC025 M04/M07 A2993 RMK SC8 SLP151

CYWG;2007-03-04 13:00;CYWG 041300Z 34012G17KT 15SM OVC028 M03/M07 A2995 RMK SC8 SLP159

CYWG;2007-03-04 14:00;CYWG 041400Z 29005KT 15SM OVC030 M04/M07 A2997 RMK SC8 SLP164

CYWG;2007-03-04 15:00;CYWG 041500Z 28009KT 15SM OVC029 M04/M06 A2999 RMK SC8 SLP174

CYWG;2007-03-04 16:00;CYWG 041600Z 28009KT 15SM BKN034 OVC100 M03/M06 A3000 RMK SC7AC1 SLP177

CYWG;2007-03-04 17:00;CYWG 041700Z 30011KT 15SM BKN023 OVC065 M04/M06 A3004 RMK SC5SC2 SLP188

CYWG;2007-03-04 18:00;CYWG 041800Z 33027KT 15SM SCT014 BKN030 BKN100 M04/M07 A3007 RMK CF3SC2AC1 SLP201

CYWG;2007-03-04 19:00;CYWG 041900Z 33023G29KT 15SM FEW018 SCT030 BKN090 M07/M12 A3011 RMK CF1SC2AC2 SLP214

CYWG;2007-03-04 20:00;CYWG 042000Z 34023KT 15SM BKN092 BKN200 M08/M13 A3015 RMK AC6CI1 SLP227

CYWG;2007-03-04 21:00;CYWG 042100Z 33023KT 15SM FEW050 OVC090 M11/M15 A3019 RMK SC1AC7 SLP242

CYWG;2007-03-04 22:00;CYWG 042200Z 02019G24KT 15SM FEW018 SCT048 OVC087 M13/M16 A3024 RMK SC1SC2AC5 SLP259

CYWG;2007-03-04 23:00;CYWG 042300Z 02020G25KT 15SM FEW056 BKN075 M14/M18 A3026 RMK SC2AC6 SLP266

CYWG;2007-03-05 00:00;CYWG 050000Z 02016G21KT 15SM FEW056 BKN087 M16/M20 A3031 RMK SC2AC4 SLP283

CYWG;2007-03-05 01:00;CYWG 050100Z 01015KT 15SM BKN096 M17/M22 A3035 RMK AC7 SLP297

CYWG;2007-03-05 02:00;CYWG 050200Z 36013KT 15SM FEW100 M19/M24 A3038 RMK AC1 SLP308

CYWG;2007-03-05 03:00;CYWG 050300Z 36012KT 15SM FEW100 M20/M27 A3041 RMK AC0 SLP321

CYWG;2007-03-05 04:00;CYWG 050400Z 01010KT 15SM FEW100 M21/M28 A3046 RMK AC0 SLP335

CYWG;2007-03-05 05:00;CYWG 050500Z 35009KT 15SM FEW100 M22/M29 A3048 RMK AC0 SLP343

CYWG;2007-03-05 06:00;CYWG 050600Z 36007KT 15SM SKC M24/M30 A3050 RMK SLP352

CYWG;2007-03-05 07:00;CYWG 050700Z 36006KT 15SM SKC M24/M30 A3053 RMK SLP360

CYWG;2007-03-05 08:00;CYWG 050800Z 36006KT 15SM SKC M25/M31 A3055 RMK SLP367

CYWG;2007-03-05 09:00;CYWG 050900Z 36006KT 15SM SKC M25/M31 A3056 RMK SLP374

CYWG;2007-03-05 10:00;CYWG 051000Z 34003KT 15SM SKC M28/M34 A3057 RMK SLP379

CYWG;2007-03-05 11:00;CYWG 051100Z 31004KT 15SM SKC M28/M34 A3059 RMK SLP385

CYWG;2007-03-05 12:00;CYWG 051200Z 31005KT 15SM SKC M30/M34 A3061 RMK SLP396

CYWG;2007-03-05 13:00;CYWG 051300Z 33006KT 15SM FEW110 M30/M36 A3064 RMK AC1 SLP406

CYWG;2007-03-05 14:00;CYWG 051400Z 32005KT 15SM FEW110 FEW230 M30/M35 A3067 RMK AC1CI1 SLP415

CYWG;2007-03-05 15:00;CYWG 051500Z 36003KT 15SM FEW110 SCT230 M27/M33 A3068 RMK AC1CI1 SLP420

CYWG;2007-03-05 16:00;CYWG 051600Z 35002KT 15SM FEW110 BKN230 M24/M29 A3070 RMK AC1CI2 SLP427

CYWG;2007-03-05 17:00;CYWG 051700Z 02004KT 15SM FEW140 BKN230 M22/M29 A3071 RMK AC1CI2 SLP429

CYWG;2007-03-05 18:00;CYWG 051800Z 01002KT 15SM FEW140 BKN230 M21/M29 A3070 RMK AC1CI2 SLP427

CYWG;2007-03-05 19:00;CYWG 051900Z 34004KT 15SM FEW120 BKN230 M21/M28 A3069 RMK AC2CI2 SLP424

CYWG;2007-03-05 20:00;CYWG 052000Z 33004KT 15SM FEW120 BKN230 M20/M28 A3069 RMK AC2CI2 SLP422

CYWG;2007-03-05 21:00;CYWG 052100Z 01005KT 15SM FEW120 BKN230 M19/M28 A3067 RMK AC1CI1 SLP416

CYWG;2007-03-05 22:00;CYWG 052200Z 03007KT 15SM FEW100 BKN230 M19/M29 A3066 RMK AC2CI1 SLP413

CYWG;2007-03-05 23:00;CYWG 052300Z 01006KT 15SM BKN082 BKN230 M19/M28 A3065 RMK AC5CI0 SLP409

CYWG;2007-03-06 00:00;CYWG 060000Z 01004KT 15SM BKN070 BKN230 M19/M27 A3064 RMK AC5CI0 SLP406

CYWG;2007-03-06 01:00;CYWG 060100Z 04006KT 15SM FEW070 BKN090 OVC230 M19/M27 A3063 RMK AC2AC5CI0 SLP403

CYWG;2007-03-06 02:00;CYWG 060200Z 06003KT 15SM OVC059 M19/M27 A3062 RMK SC7 SLP401

CYWG;2007-03-06 03:00;CYWG 060300Z 20005KT 15SM OVC057 M18/M26 A3061 RMK SC7 SLP396

CYWG;2007-03-06 04:00;CYWG 060400Z 18006KT 15SM SCT055 BKN069 M18/M25 A3058 RMK SC4AC2 SLP387

CYWG;2007-03-06 05:00;CYWG 060500Z 16007KT 15SM BKN067 BKN092 M18/M27 A3056 RMK AC6AC2 SLP380

CYWG;2007-03-06 06:00;CYWG 060600Z 15007KT 15SM SCT042 BKN089 M18/M26 A3053 RMK SC4AC3 SLP367

CYWG;2007-03-06 07:00;CYWG 060700Z 15007KT 15SM BKN040 OVC089 M17/M26 A3051 RMK SC5AC3 SLP360

CYWG;2007-03-06 08:00;CYWG 060800Z 15008KT 15SM OVC038 M17/M26 A3049 RMK SC8 SLP353

CYWG;2007-03-06 09:00;CYWG 060900Z 15009KT 15SM OVC034 M17/M25 A3045 RMK SC8 SLP339

CYWG;2007-03-06 10:00;CYWG 061000Z 15009KT 15SM OVC032 M16/M24 A3043 RMK SC8 SLP331

CYWG;2007-03-06 11:00;CYWG 061100Z 14010KT 15SM OVC036 M16/M23 A3043 RMK SC8 SLP331

CYWG;2007-03-06 12:00;CYWG 061200Z 13009KT 15SM OVC038 M16/M23 A3040 RMK SC8 SLP321

CYWG;2007-03-06 13:00;CYWG 061300Z 13010KT 15SM OVC032 M15/M23 A3038 RMK SC8 SLP313

CYWG;2007-03-06 14:00;CYWG 061400Z 12010KT 15SM OVC032 M15/M23 A3037 RMK SC8 SLP310

CYWG;2007-03-06 15:00;CYWG 061500Z 12012KT 5SM -SN OVC025 M15/M22 A3036 RMK SC8 SLP305

CYWG;2007-03-06 16:00;CYWG 061600Z 12013KT 2 1/2SM -SN OVC018 M14/M20 A3035 RMK SN2SC6 SLP302

CYWG;2007-03-06 17:00;CYWG 061700Z 13010KT 4SM -SN OVC018 M14/M18 A3035 RMK SN2SC6 SLP301

CYWG;2007-03-06 18:00;CYWG 061800Z 14008KT 4SM -SN OVC033 M13/M17 A3035 RMK SN2SC6 SLP301

CYWG;2007-03-06 18:42;CYWG 061842Z 13009KT 10SM -SN OVC031 M12/ RMK SC8 VIS LWR E

CYWG;2007-03-06 19:00;CYWG 061900Z 15010KT 10SM -SN OVC031 M12/M17 A3033 RMK SC8 SLP295

CYWG;2007-03-06 20:00;CYWG 062000Z 11006KT 6SM -SN OVC029 M12/M16 A3032 RMK SC8 SLP293

CYWG;2007-03-06 21:00;CYWG 062100Z 09004KT 10SM -SN OVC031 M11/M16 A3033 RMK SC8 SLP293

CYWG;2007-03-06 22:00;CYWG 062200Z 03004KT 10SM -SN OVC023 M11/M15 A3034 RMK SC8 SLP297

CYWG;2007-03-06 23:00;CYWG 062300Z 03007KT 10SM -SN OVC034 M12/M15 A3035 RMK SC8 SLP300

CYWG;2007-03-07 00:00;CYWG 070000Z 02007KT 12SM -SN OVC034 M12/M15 A3036 RMK SC8 SLP304

CYWG;2007-03-07 01:00;CYWG 070100Z 01008KT 12SM -SN OVC035 M12/M15 A3038 RMK SC8 SLP310

CYWG;2007-03-07 02:00;CYWG 070200Z 02008KT 15SM -SN OVC043 M12/M15 A3040 RMK SC8 SLP316

CYWG;2007-03-07 03:00;CYWG 070300Z 02005KT 15SM -SN OVC043 M13/M15 A3040 RMK SC8 SLP319

CYWG;2007-03-07 04:00;CYWG 070400Z 04005KT 15SM BKN041 M14/M16 A3041 RMK SC6 SLP322

CYWG;2007-03-07 05:00;CYWG 070500Z 02003KT 15SM OVC039 M14/M16 A3042 RMK SC8 SLP324

CYWG;2007-03-07 06:00;CYWG 070600Z 00000KT 15SM BKN037 BKN100 M15/M17 A3041 RMK SC5AC2 SLP323

CYWG;2007-03-07 07:00;CYWG 070700Z 36002KT 15SM FEW030 SCT100 M17/M19 A3041 RMK SC2AC2 SLP322

CYWG;2007-03-07 08:00;CYWG 070800Z 31002KT 15SM FEW025 FEW100 M17/M18 A3041 RMK SC1AC1 SLP321

CYWG;2007-03-07 09:00;CYWG 070900Z 34003KT 15SM FEW025 M20/M21 A3041 RMK SC2 SLP321

CYWG;2007-03-07 10:00;CYWG 071000Z 34004KT 15SM BKN032 M19/M20 A3040 RMK SC7 SLP320

CYWG;2007-03-07 10:25;CYWG 071025Z 36006KT 10SM -SN OVC032 M18/ RMK SC8

CYWG;2007-03-07 11:00;CYWG 071100Z 02003KT 15SM -SN OVC032 M17/M18 A3041 RMK SC8 SLP321

CYWG;2007-03-07 12:00;CYWG 071200Z 00000KT 10SM -SN OVC032 M16/M17 A3038 RMK SC8 SLP310

CYWG;2007-03-07 13:00;CYWG 071300Z 09002KT 15SM -SN OVC030 M15/M17 A3039 RMK SC8 SLP315

CYWG;2007-03-07 14:00;CYWG 071400Z 16003KT 15SM -SN OVC030 M14/M16 A3038 RMK SC8 SLP310

CYWG;2007-03-07 15:00;CYWG 071500Z 21005KT 15SM -SN OVC028 M13/M15 A3037 RMK SC8 SLP307

CYWG;2007-03-07 16:00;CYWG 071600Z 20006KT 10SM -SN OVC032 M12/M15 A3037 RMK SC6 SLP307

CYWG;2007-03-07 16:45;CYWG 071645Z 19005KT 15SM FEW092 SCT250 M11/ RMK AC2CI2

CYWG;2007-03-07 17:00;CYWG 071700Z 18008KT 15SM FEW092 SCT250 M11/M15 A3034 RMK AC2CI1 SLP298

CYWG;2007-03-07 18:00;CYWG 071800Z 18011KT 15SM BKN052 BKN092 M10/M14 A3032 RMK SC5AC1 SLP291

CYWG;2007-03-07 19:00;CYWG 071900Z 19013KT 15SM FEW052 FEW092 M10/M14 A3029 RMK SC1AC2 SLP279

CYWG;2007-03-07 20:00;CYWG 072000Z 19016KT 15SM FEW090 FEW250 M09/M13 A3025 RMK AC1CI2 SLP266

CYWG;2007-03-07 21:00;CYWG 072100Z 20017KT 15SM FEW015 FEW090 BKN250 M09/M13 A3022 RMK CF1AC1CI1 SLP257

CYWG;2007-03-07 22:00;CYWG 072200Z 18019KT 15SM FEW015 BKN090 BKN250 M09/M12 A3019 RMK CF1AC4CI1 SLP246

CYWG;2007-03-07 23:00;CYWG 072300Z 18015G20KT 15SM FEW015 BKN086 M09/M12 A3016 RMK CF1AC6 SLP235

CYWG;2007-03-08 00:00;CYWG 080000Z 20015KT 15SM FEW015 BKN100 M09/M12 A3014 RMK CU1AC6 SLP229

CYWG;2007-03-08 01:00;CYWG 080100Z 18016KT 15SM BKN100 M10/M13 A3011 RMK AC5 SLP219

CYWG;2007-03-08 02:00;CYWG 080200Z 18016KT 15SM FEW100 M10/M13 A3008 RMK AC2 SLP207

CYWG;2007-03-08 03:00;CYWG 080300Z 18015KT 15SM FEW095 M10/M13 A3005 RMK AC1 SLP195

CYWG;2007-03-08 04:00;CYWG 080400Z 18016KT 15SM SCT009 BKN095 M11/M13 A3002 RMK SF4AC2 SLP187

CYWG;2007-03-08 04:15;CYWG 080415Z 18016KT 15SM BKN009 M10/ RMK SF7

CYWG;2007-03-08 05:00;CYWG 080500Z 18017KT 15SM OVC009 M10/M12 A2999 RMK SF8 SLP176

CYWG;2007-03-08 06:00;CYWG 080600Z 18017KT 15SM OVC010 M09/M11 A2995 RMK SF8 SLP160

CYWG;2007-03-08 07:00;CYWG 080700Z 18016KT 15SM OVC011 M08/M10 A2992 RMK SC8 SLP150

CYWG;2007-03-08 08:00;CYWG 080800Z 18015KT 15SM OVC013 M08/M10 A2988 RMK SC8 SLP139

CYWG;2007-03-08 08:36;CYWG 080836Z 18019G24KT 15SM OVC008 M08/ RMK SC8

CYWG;2007-03-08 09:00;CYWG 080900Z 18017KT 10SM OVC007 M08/M10 A2985 RMK SC8 SLP127

CYWG;2007-03-08 10:00;CYWG 081000Z 18019G27KT 8SM -SN DRSN OVC007 M07/M08 A2982 RMK SC8 SLP115

CYWG;2007-03-08 11:00;CYWG 081100Z 18025KT 6SM -SN DRSN OVC007 M06/M08 A2978 RMK SC8 SLP104

CYWG;2007-03-08 11:48;CYWG 081148Z 18019G27KT 4SM DRSN BR OVC006 M06/ RMK SC8

CYWG;2007-03-08 12:00;CYWG 081200Z 18021KT 4SM DRSN BR OVC006 M06/M07 A2977 RMK SC8 SLP098

CYWG;2007-03-08 12:36;CYWG 081236Z 18021G27KT 4SM BR OVC006 M06/ RMK SC8

CYWG;2007-03-08 13:00;CYWG 081300Z 18020G26KT 2SM BR OVC006 M06/M07 A2975 RMK SC8 SLP090

CYWG;2007-03-08 14:00;CYWG 081400Z 18020G30KT 2SM DRSN BR OVC006 M05/M06 A2973 RMK SC8 SLP085

CYWG;2007-03-08 15:00;CYWG 081500Z 18024G30KT 2SM DRSN BR OVC007 M05/M06 A2971 RMK SC8 SLP077

CYWG;2007-03-08 16:00;CYWG 081600Z 18024G32KT 2SM DRSN BR OVC007 M04/M06 A2970 RMK SC8 SLP073

CYWG;2007-03-08 17:00;CYWG 081700Z 18027G34KT 2SM -SN DRSN BR OVC007 M04/M05 A2967 RMK SC8 SLP064

CYWG;2007-03-08 17:34;CYWG 081734Z 18024G29KT 2SM DRSN BR OVC007 M03/ RMK SC8

CYWG;2007-03-08 18:00;CYWG 081800Z 18023G29KT 3SM DRSN BR OVC007 M03/M05 A2968 RMK SC8 SLP066

CYWG;2007-03-08 19:00;CYWG 081900Z 18025G31KT 3SM BR OVC007 M03/M04 A2965 RMK SC8 SLP058

CYWG;2007-03-08 20:00;CYWG 082000Z 18026KT 3SM BR OVC007 M02/M04 A2964 RMK SC8 SLP052

CYWG;2007-03-08 21:00;CYWG 082100Z 18022G30KT 3SM BR OVC006 M02/M04 A2964 RMK SC8 SLP050

CYWG;2007-03-08 22:00;CYWG 082200Z 18026G32KT 3SM BR OVC006 M02/M03 A2962 RMK SC8 SLP045

CYWG;2007-03-08 23:00;CYWG 082300Z 18022G28KT 3SM BR OVC004 M02/M03 A2962 RMK SC8 SLP046

CYWG;2007-03-09 00:00;CYWG 090000Z 18024G29KT 2 1/2SM BR OVC004 M01/M03 A2961 RMK ST8 SLP041

CYWG;2007-03-09 01:00;CYWG 090100Z 19019G28KT 2SM BR OVC003 M01/M02 A2962 RMK ST8 SLP044

CYWG;2007-03-09 02:00;CYWG 090200Z 19023G29KT 2SM BR OVC003 M01/M02 A2961 RMK ST8 SLP041

CYWG;2007-03-09 03:00;CYWG 090300Z 19019G24KT 2SM BR OVC003 M00/M01 A2961 RMK ST8 SLP040

CYWG;2007-03-09 04:00;CYWG 090400Z 19019G25KT 2SM BR OVC003 M00/M01 A2959 RMK SF8 SLP034

CYWG;2007-03-09 04:27;CYWG 090427Z 19019G25KT 3SM BR OVC004 M00/ RMK SF8

CYWG;2007-03-09 05:00;CYWG 090500Z 19018KT 3SM BR BKN005 OVC025 M01/M02 A2958 RMK SF6SC2 SLP030

CYWG;2007-03-09 05:32;CYWG 090532Z 19017KT 5SM BR SCT005 BKN025 RMK SF3SC2

CYWG;2007-03-09 06:00;CYWG 090600Z 19015G20KT 6SM BR FEW005 M01/M02 A2958 RMK SF2 SLP029

CYWG;2007-03-09 07:00;CYWG 090700Z 20012KT 6SM BR FEW025 FEW250 M01/M02 A2956 RMK SC1CI0 SLP022

CYWG;2007-03-09 08:00;CYWG 090800Z 21013KT 10SM FEW025 SCT250 00/M02 A2956 RMK SC1CI0 SLP024

CYWG;2007-03-09 09:00;CYWG 090900Z 23010KT 12SM FEW024 SCT250 M00/M02 A2956 RMK SC1CI0 SLP022

CYWG;2007-03-09 10:00;CYWG 091000Z 26010KT 12SM FEW025 SCT250 00/M02 A2957 RMK SC2CI0 SLP024

CYWG;2007-03-09 11:00;CYWG 091100Z 28015KT 15SM BKN028 01/M01 A2957 RMK SC6 SLP027

CYWG;2007-03-09 12:00;CYWG 091200Z 29017KT 12SM BKN022 01/M01 A2960 RMK SC6 SLP035

CYWG;2007-03-09 13:00;CYWG 091300Z 30020G26KT 5SM BR SCT014 OVC017 01/M01 A2964 RMK SC3SC5 PRESRR SLP049

CYWG;2007-03-09 14:00;CYWG 091400Z 31015KT 12SM BKN020 OVC030 M01/M04 A2967 RMK SC6SC2 SLP059

CYWG;2007-03-09 14:39;CYWG 091439Z 31013KT 12SM -SN BKN026 OVC057 M01/ RMK SC6SC2

CYWG;2007-03-09 15:00;CYWG 091500Z 31013KT 12SM -SN BKN030 OVC057 M01/M04 A2969 RMK SC6SC2 SN VRY LGT SLP067

CYWG;2007-03-09 16:00;CYWG 091600Z 32011KT 15SM BKN030 OVC097 M01/M04 A2972 RMK SC5AC3 SLP075

CYWG;2007-03-09 17:00;CYWG 091700Z 32007KT 15SM BKN026 BKN041 OVC097 M01/M03 A2972 RMK SC5SC2AC2 SLP077

CYWG;2007-03-09 18:00;CYWG 091800Z 30011G16KT 15SM BKN028 BKN043 OVC095 01/M02 A2975 RMK SC5SC2AC2 SLP085

CYWG;2007-03-09 19:00;CYWG 091900Z 31010KT 15SM FEW020 BKN026 OVC086 01/M02 A2976 RMK CF1SC5AC3 SLP089

CYWG;2007-03-09 20:00;CYWG 092000Z 29010KT 15SM SCT026 BKN086 01/M02 A2977 RMK SC4AC3 SLP091

CYWG;2007-03-09 21:00;CYWG 092100Z 32012KT 15SM OVC027 01/M02 A2978 RMK SC8 SLP095

CYWG;2007-03-09 22:00;CYWG 092200Z 29006KT 15SM BKN027 BKN090 01/M02 A2980 RMK SC6AC1 SLP101

CYWG;2007-03-09 23:00;CYWG 092300Z 28006KT 15SM SCT029 BKN250 01/M02 A2981 RMK SC3CI1 SLP105

CYWG;2007-03-10 00:00;CYWG 100000Z 29005KT 15SM SCT035 BKN100 BKN250 00/M02 A2984 RMK SC3AC2CI1 SLP116

CYWG;2007-03-10 01:00;CYWG 100100Z 31008KT 15SM FEW035 SCT120 BKN250 M01/M03 A2987 RMK SC2AC2CI2 SLP126

CYWG;2007-03-10 02:00;CYWG 100200Z 30006KT 15SM FEW120 BKN250 M03/M05 A2989 RMK AC1CI2 SLP132

CYWG;2007-03-10 03:00;CYWG 100300Z 31004KT 15SM SCT250 M05/M07 A2990 RMK CI2 SLP139

CYWG;2007-03-10 04:00;CYWG 100400Z 32006KT 15SM FEW250 M07/M09 A2991 RMK CI1 SLP143

CYWG;2007-03-10 05:00;CYWG 100500Z 28006KT 15SM FEW250 M07/M08 A2993 RMK CI0 SLP150

CYWG;2007-03-10 06:00;CYWG 100600Z 01004KT 15SM SKC M08/M09 A2996 RMK SLP160

CYWG;2007-03-10 07:00;CYWG 100700Z 02003KT 15SM SKC M11/M12 A2998 RMK SLP166

CYWG;2007-03-10 08:00;CYWG 100800Z 00000KT 15SM SKC M09/M11 A3000 RMK SLP174

CYWG;2007-03-10 09:00;CYWG 100900Z 10002KT 15SM SKC M12/M14 A3001 RMK SLP178

CYWG;2007-03-10 10:00;CYWG 101000Z 10002KT 15SM SKC M10/M11 A3003 RMK SLP183

CYWG;2007-03-10 11:00;CYWG 101100Z 18003KT 15SM SKC M12/M13 A3005 RMK SLP192

CYWG;2007-03-10 12:00;CYWG 101200Z 15004KT 15SM SKC M12/M14 A3006 RMK SLP194

CYWG;2007-03-10 13:00;CYWG 101300Z 16007KT 15SM SKC M11/M12 A3006 RMK SLP196

CYWG;2007-03-10 14:00;CYWG 101400Z 14007KT 15SM SKC M10/M11 A3007 RMK SLP200

CYWG;2007-03-10 15:00;CYWG 101500Z 16008KT 15SM SKC M07/M09 A3008 RMK SLP203

CYWG;2007-03-10 16:00;CYWG 101600Z 16009KT 15SM SKC M06/M08 A3009 RMK SLP208

CYWG;2007-03-10 17:00;CYWG 101700Z 18010KT 15SM SKC M03/M06 A3009 RMK SLP206

CYWG;2007-03-10 18:00;CYWG 101800Z 18011KT 15SM SKC M02/M05 A3008 RMK SLP203

CYWG;2007-03-10 19:00;CYWG 101900Z 19012KT 15SM SKC 00/M03 A3008 RMK SLP201

CYWG;2007-03-10 20:00;CYWG 102000Z 19012KT 15SM SKC 01/M03 A3007 RMK SLP199

CYWG;2007-03-10 21:00;CYWG 102100Z 20011KT 15SM SKC 02/M02 A3007 RMK SLP199

CYWG;2007-03-10 22:00;CYWG 102200Z 20014KT 15SM SKC 03/M02 A3007 RMK SLP200

CYWG;2007-03-10 23:00;CYWG 102300Z 20011KT 15SM SKC 02/M01 A3007 RMK SLP199

CYWG;2007-03-11 00:00;CYWG 110000Z 20012KT 15SM SKC 02/M01 A3007 RMK SLP200

CYWG;2007-03-11 01:00;CYWG 110100Z 19008KT 15SM FEW200 00/M02 A3007 RMK CI1 CI TR SLP200

CYWG;2007-03-11 02:00;CYWG 110200Z 19009KT 15SM FEW093 M00/M03 A3007 RMK AC1 SLP199

CYWG;2007-03-11 03:00;CYWG 110300Z 20011KT 15SM SKC M01/M03 A3007 RMK SLP198

CYWG;2007-03-11 04:00;CYWG 110400Z 21012KT 15SM SKC M01/M04 A3009 RMK SLP203

CYWG;2007-03-11 05:00;CYWG 110500Z 21012KT 15SM SKC M01/M04 A3008 RMK SLP201

CYWG;2007-03-11 06:00;CYWG 110600Z 21014KT 15SM SKC M02/M05 A3007 RMK SLP196

CYWG;2007-03-11 07:00;CYWG 110700Z 19012KT 15SM SKC M03/M05 A3006 RMK SLP193

CYWG;2007-03-11 08:00;CYWG 110800Z 20013KT 15SM SKC M03/M06 A3006 RMK SLP192

CYWG;2007-03-11 09:00;CYWG 110900Z 20014KT 15SM SKC M04/M06 A3004 RMK SLP187

CYWG;2007-03-11 10:00;CYWG 111000Z 18007KT 15SM FEW250 M06/M08 A3003 RMK CI0 SLP181

CYWG;2007-03-11 11:00;CYWG 111100Z 18010KT 10SM SCT250 M05/M07 A3000 RMK CI0 BR SLP174

CYWG;2007-03-11 12:00;CYWG 111200Z 19011KT 12SM FEW090 BKN250 M05/M07 A3000 RMK AC2CI0 BR SLP172

CYWG;2007-03-11 13:00;CYWG 111300Z 18009KT 15SM BKN100 OVC250 M05/M07 A2999 RMK AC5CI2 SLP169

CYWG;2007-03-11 14:00;CYWG 111400Z 19009KT 15SM SCT100 BKN250 M03/M06 A2999 RMK AC3CI2 SLP169

CYWG;2007-03-11 15:00;CYWG 111500Z 18008KT 15SM BKN093 OVC250 M02/M05 A2998 RMK AC5CI2 SLP167

CYWG;2007-03-11 16:00;CYWG 111600Z 18010KT 15SM BKN093 OVC250 M01/M04 A2996 RMK AC7CI1 SLP159

CYWG;2007-03-11 17:00;CYWG 111700Z 19010KT 15SM OVC071 00/M03 A2995 RMK AC8 SLP156

CYWG;2007-03-11 18:00;CYWG 111800Z 15012KT 15SM FEW030 SCT057 OVC073 01/M02 A2990 RMK SC1SC2AC5 PRESFR SLP138

CYWG;2007-03-11 19:00;CYWG 111900Z 18005KT 15SM SCT075 OVC083 02/M02 A2991 RMK AC3AC5 SLP140

CYWG;2007-03-11 20:00;CYWG 112000Z 18006KT 15SM SCT074 OVC086 03/M01 A2988 RMK AC3AC5 SLP132

CYWG;2007-03-11 21:00;CYWG 112100Z 16009KT 15SM BKN074 03/M00 A2984 RMK AC7 SLP117

CYWG;2007-03-11 22:00;CYWG 112200Z 15009KT 15SM BKN090 03/M00 A2984 RMK AC7 SLP117

CYWG;2007-03-11 23:00;CYWG 112300Z 16006KT 15SM SCT090 03/M00 A2984 RMK AC3 SLP116

CYWG;2007-03-12 00:00;CYWG 120000Z 20004KT 15SM FEW090 02/M00 A2985 RMK AC2 SLP122

CYWG;2007-03-12 01:00;CYWG 120100Z 03009KT 15SM FEW090 00/M02 A2986 RMK AC2 SLP125

CYWG;2007-03-12 02:00;CYWG 120200Z 35007KT 15SM FEW090 M02/M03 A2987 RMK AC1 SLP129

CYWG;2007-03-12 03:00;CYWG 120300Z 35008KT 15SM FEW090 M04/M05 A2990 RMK AC1 SLP138

CYWG;2007-03-12 04:00;CYWG 120400Z 34007KT 15SM FEW090 M04/M06 A2990 RMK AC1 SLP141

CYWG;2007-03-12 05:00;CYWG 120500Z 35005KT 10SM SCT002 M05/M06 A2991 RMK ST4 BR SLP142

CYWG;2007-03-12 05:06;CYWG 120506Z 32003KT 2 1/2SM BR OVC001 M05/ RMK ST8 TWR VIS 1/2

CYWG;2007-03-12 05:15;CYWG 120515Z 32004KT 1/2SM R13/4000VP6000FT/U R36/3500VP6000FT/D FZFG VV001 M03/ RMK FG8

CYWG;2007-03-12 05:20;CYWG 120520Z 29005KT 3/8SM R13/P6000FT/D R36/2400V6000FT/D FZFG VV001 M04/ RMK FG8

CYWG;2007-03-12 05:41;CYWG 120541Z 36006KT 1/4SM R13/1600FT/N R36/1800FT/N FZFG VV001 M02/ RMK FG8

CYWG;2007-03-12 06:00;CYWG 120600Z 36006KT 1/4SM R13/1600FT/N R36/1600FT/N FZFG VV001 M02/M03 A2992 RMK FG8 FROIN SLP144

CYWG;2007-03-12 07:00;CYWG 120700Z 35004KT 1/4SM R13/1400FT/N R36/1400FT/N FZFG VV001 M01/M02 A2991 RMK FG8 FROIN SLP140

CYWG;2007-03-12 08:00;CYWG 120800Z 33007KT 1/4SM R13/2000FT/N R36/2000FT/N FZFG VV001 M01/M01 A2992 RMK FG8 FROIN SLP144

CYWG;2007-03-12 09:00;CYWG 120900Z 34006KT 3/8SM R13/2600FT/N R36/2800FT/N FZFG VV001 M00/M01 A2991 RMK FG8 FROIN SLP140

CYWG;2007-03-12 09:47;CYWG 120947Z 02005KT 1/2SM R13/3500FT/N R36/2800V4000FT/U FZFG VV001 RMK FG8 FROIN

CYWG;2007-03-12 10:00;CYWG 121000Z 03006KT 1/2SM R13/4500FT/D R36/3000VP6000FT/U FZFG VV001 M00/M01 A2989 RMK FG8 FROIN SLP133

CYWG;2007-03-12 10:19;CYWG 121019Z 03005KT 5/8SM R13/5500FT/N R36/3500V5000FT/U -FZDZ BR VV001 M00/ RMK FG8

CYWG;2007-03-12 11:00;CYWG 121100Z 00000KT 1/2SM R13/3500FT/N R36/3000V4500FT/U FZDZ FZFG VV001 M00/M00 A2990 RMK FG8 SLP135

CYWG;2007-03-12 12:00;CYWG 121200Z 21003KT 1/2SM R13/3000FT/N R36/3000V5500FT/D FZDZ FZFG VV001 M00/M01 A2990 RMK FG8 RIME ON INDICATOR SLP137

CYWG;2007-03-12 13:00;CYWG 121300Z 20005KT 1/4SM R13/3000FT/N R36/2400FT/N FZDZ FZFG VV001 M00/M01 A2988 RMK FG8 RIME ON INDICATOR SLP129

CYWG;2007-03-12 14:00;CYWG 121400Z 19007KT 1/2SM R13/2800VP6000FT/U R36/2800VP6000FT/U FZFG VV001 M01/M01 A2984 RMK FG8 RIME ON INDICATOR REFZDZ SLP117

CYWG;2007-03-12 15:00;CYWG 121500Z 18010KT 1/2SM R13/P6000FT/D R36/2600V6000FT/U FZFG VV002 M01/M01 A2980 RMK FG8 RIME ON INDICATOR SLP106

CYWG;2007-03-12 15:39;CYWG 121539Z 16013KT 2SM R13/3000VP6000FT/D R36/2800VP6000FT/U BR OVC002 M01/ RMK ST8

CYWG;2007-03-12 15:47;CYWG 121547Z 16011KT 3SM R13/4000VP6000FT/U BR OVC002 RMK ST8

CYWG;2007-03-12 16:00;CYWG 121600Z 17012KT 6SM BR OVC003 M01/M01 A2974 RMK ST8 PRESFR SLP083

CYWG;2007-03-12 16:22;CYWG 121622Z 17018KT 6SM BR BKN004 OVC074 M01/ RMK ST7AC1

CYWG;2007-03-12 17:00;CYWG 121700Z 17016KT 10SM BKN004 OVC074 M01/M01 A2970 RMK ST7AC1 BR SLP070

CYWG;2007-03-12 17:11;CYWG 121711Z 18017KT 10SM BKN005 OVC074 M01/ RMK SF7AC1 BR

CYWG;2007-03-12 17:39;CYWG 121739Z 18019G24KT 15SM FEW007 BKN074 M00/ RMK SF1AC6

CYWG;2007-03-12 18:00;CYWG 121800Z 17022G31KT 15SM FEW009 SCT074 BKN210 M00/M01 A2962 RMK SF1AC3CI2 PRESFR SLP044

CYWG;2007-03-12 19:00;CYWG 121900Z 18027G33KT 15SM FEW100 BKN250 01/M01 A2955 RMK AC1CI1 SLP020

CYWG;2007-03-12 20:00;CYWG 122000Z 19021G28KT 15SM FEW110 BKN250 02/M00 A2951 RMK AC1CI1 SLP008

CYWG;2007-03-12 21:00;CYWG 122100Z 19020G26KT 15SM FEW110 SCT250 03/00 A2948 RMK AC1CI1 SLP994

CYWG;2007-03-12 22:00;CYWG 122200Z 19017G22KT 15SM FEW110 FEW250 04/00 A2945 RMK AC1CI0 SLP985

CYWG;2007-03-12 23:00;CYWG 122300Z 20016G22KT 15SM FEW110 BKN250 04/01 A2943 RMK AC1CI0 SLP977

CYWG;2007-03-13 00:00;CYWG 130000Z 21015KT 15SM FEW100 BKN250 05/01 A2941 RMK AC1CI0 SLP967

CYWG;2007-03-13 01:00;CYWG 130100Z 23015KT 15SM FEW090 SCT250 06/02 A2942 RMK AC1CI0 SLP971

CYWG;2007-03-13 02:00;CYWG 130200Z 24014KT 15SM FEW100 FEW250 07/02 A2941 RMK AC2CI0 SLP967

CYWG;2007-03-13 03:00;CYWG 130300Z 24013KT 15SM FEW100 SCT250 06/02 A2941 RMK AC2CI0 SLP970

CYWG;2007-03-13 04:00;CYWG 130400Z 23010KT 15SM FEW100 05/02 A2943 RMK AC2 SLP974

CYWG;2007-03-13 05:00;CYWG 130500Z 23010KT 15SM FEW100 05/01 A2942 RMK AC2 SLP971

CYWG;2007-03-13 06:00;CYWG 130600Z 21010KT 15SM FEW100 04/01 A2943 RMK AC2 SLP975

CYWG;2007-03-13 07:00;CYWG 130700Z 23008KT 15SM SKC 04/01 A2945 RMK SLP983

CYWG;2007-03-13 08:00;CYWG 130800Z 26008KT 15SM SKC 04/01 A2946 RMK SLP987

CYWG;2007-03-13 09:00;CYWG 130900Z 31012KT 15SM SCT030 03/01 A2951 RMK SC3 SLP001

CYWG;2007-03-13 10:00;CYWG 131000Z 34013KT 15SM BKN070 02/00 A2955 RMK AC5 PRESRR SLP015

CYWG;2007-03-13 11:00;CYWG 131100Z 32013KT 15SM SCT073 02/M00 A2958 RMK AC2 SLP026

CYWG;2007-03-13 12:00;CYWG 131200Z 34019KT 15SM BKN078 BKN250 02/M02 A2967 RMK AC3CI1 PRESRR SLP055

CYWG;2007-03-13 13:00;CYWG 131300Z 34011KT 15SM BKN078 BKN250 01/M03 A2969 RMK AC6CI0 SLP063

CYWG;2007-03-13 14:00;CYWG 131400Z 36010G17KT 15SM FEW078 FEW250 M01/M05 A2974 RMK AC1CI0 SLP078

CYWG;2007-03-13 15:00;CYWG 131500Z 01011KT 15SM FEW080 FEW250 M01/M05 A2976 RMK AC1CI0 SLP089

CYWG;2007-03-13 16:00;CYWG 131600Z 01010KT 15SM BKN031 BKN080 M00/M05 A2978 RMK SC5AC2 SLP096

CYWG;2007-03-13 17:00;CYWG 131700Z 03010KT 15SM BKN028 BKN080 M01/M05 A2980 RMK SC6AC2 SLP103

CYWG;2007-03-13 18:00;CYWG 131800Z 02004KT 15SM BKN026 OVC070 M01/M05 A2982 RMK SC6AC2 SLP109

CYWG;2007-03-13 19:00;CYWG 131900Z 01003KT 15SM BKN037 M00/M05 A2982 RMK SC5 SLP108

CYWG;2007-03-13 20:00;CYWG 132000Z 30006KT 15SM FEW037 SCT075 BKN250 00/M04 A2982 RMK SC1AC2CI1 SLP109

CYWG;2007-03-13 21:00;CYWG 132100Z 29007KT 15SM FEW075 FEW250 00/M04 A2981 RMK AC1CI0 SLP107

CYWG;2007-03-13 22:00;CYWG 132200Z 28007KT 15SM FEW075 FEW250 00/M04 A2982 RMK AC1CI1 SLP108

CYWG;2007-03-13 23:00;CYWG 132300Z 29005KT 15SM FEW075 BKN250 M00/M04 A2982 RMK AC1CI2 SLP110

CYWG;2007-03-14 00:00;CYWG 140000Z 25003KT 15SM SCT120 BKN250 M01/M05 A2983 RMK AC2CI1 SLP113

CYWG;2007-03-14 01:00;CYWG 140100Z 23006KT 15SM FEW110 SCT250 M02/M05 A2985 RMK AC1CI1 SLP121

CYWG;2007-03-14 02:00;CYWG 140200Z 23006KT 15SM BKN110 BKN250 M02/M05 A2986 RMK AC3CI0 SLP124

CYWG;2007-03-14 03:00;CYWG 140300Z 24008KT 15SM SCT110 BKN250 M02/M06 A2985 RMK AC3CI0 SLP122

CYWG;2007-03-14 04:00;CYWG 140400Z 27010KT 15SM FEW250 M03/M08 A2986 RMK CI2 SLP124

CYWG;2007-03-14 05:00;CYWG 140500Z 27010KT 15SM FEW250 M04/M08 A2985 RMK CI1 SLP122

CYWG;2007-03-14 06:00;CYWG 140600Z 26012KT 15SM SKC M03/M09 A2987 RMK SLP127

CYWG;2007-03-14 07:00;CYWG 140700Z 25013G18KT 15SM SKC M02/M09 A2987 RMK SLP128

CYWG;2007-03-14 08:00;CYWG 140800Z 26013KT 15SM SKC M03/M08 A2988 RMK SLP132

CYWG;2007-03-14 09:00;CYWG 140900Z 27011KT 15SM SKC M04/M09 A2989 RMK SLP136

CYWG;2007-03-14 10:00;CYWG 141000Z 27012KT 15SM SKC M05/M09 A2991 RMK SLP141

CYWG;2007-03-14 11:00;CYWG 141100Z 28011KT 15SM SKC M05/M09 A2994 RMK SLP151

CYWG;2007-03-14 12:00;CYWG 141200Z 30010KT 15SM FEW020 M07/M10 A2997 RMK SC1 SLP165

CYWG;2007-03-14 12:46;CYWG 141246Z 05018G25KT 15SM FEW020 FEW100 M12/ RMK SC1AC1

CYWG;2007-03-14 13:00;CYWG 141300Z 05018KT 15SM FEW020 FEW100 M13/M16 A3006 RMK SC1AC1 PRESRR SLP193

CYWG;2007-03-14 14:00;CYWG 141400Z 02021G27KT 15SM BKN022 M13/M17 A3013 RMK SC6 SLP217

CYWG;2007-03-14 15:00;CYWG 141500Z 01022KT 15SM BKN030 M14/M19 A3019 RMK SC4 PRESRR SLP240

CYWG;2007-03-14 16:00;CYWG 141600Z 01017KT 15SM FEW030 M15/M21 A3023 RMK SC1 SLP256

CYWG;2007-03-14 17:00;CYWG 141700Z 04014KT 15SM SKC M16/M22 A3027 RMK SLP269

CYWG;2007-03-14 18:00;CYWG 141800Z 01011KT 15SM SKC M15/M24 A3030 RMK SLP279

CYWG;2007-03-14 19:00;CYWG 141900Z 03012KT 15SM SKC M15/M22 A3029 RMK SLP278

CYWG;2007-03-14 20:00;CYWG 142000Z 03011KT 15SM SKC M15/M22 A3029 RMK SLP278

CYWG;2007-03-14 21:00;CYWG 142100Z 01009KT 15SM FEW250 M14/M22 A3029 RMK CI1 SLP275

CYWG;2007-03-14 22:00;CYWG 142200Z 03010KT 15SM FEW250 M14/M21 A3029 RMK CI0 SLP276

CYWG;2007-03-14 23:00;CYWG 142300Z 05010KT 15SM SCT250 M14/M22 A3030 RMK CI1 SLP280

CYWG;2007-03-15 00:00;CYWG 150000Z 04008KT 15SM FEW120 SCT250 M15/M22 A3031 RMK AC1CI0 SLP285

CYWG;2007-03-15 01:00;CYWG 150100Z 04007KT 15SM FEW120 BKN250 M15/M22 A3032 RMK AC2CI0 SLP289

CYWG;2007-03-15 02:00;CYWG 150200Z 03010KT 15SM FEW120 FEW250 M16/M22 A3034 RMK AC1CI0 SLP295

CYWG;2007-03-15 03:00;CYWG 150300Z 05010KT 15SM FEW095 FEW250 M16/M22 A3033 RMK AC2CI0 SLP296

CYWG;2007-03-15 04:00;CYWG 150400Z 04010KT 15SM OVC095 M16/M22 A3035 RMK AC8 SLP303

CYWG;2007-03-15 05:00;CYWG 150500Z 06013KT 15SM OVC088 M16/M22 A3034 RMK AC8 SLP299

CYWG;2007-03-15 06:00;CYWG 150600Z 06009KT 15SM OVC088 M16/M22 A3035 RMK AC8 SLP303

CYWG;2007-03-15 07:00;CYWG 150700Z 06007KT 15SM OVC100 M15/M22 A3035 RMK AC8 SLP303

CYWG;2007-03-15 08:00;CYWG 150800Z 05006KT 15SM OVC091 M16/M21 A3036 RMK AC8 SLP306

CYWG;2007-03-15 09:00;CYWG 150900Z 05011KT 15SM OVC076 M16/M21 A3035 RMK AC8 SLP302

CYWG;2007-03-15 10:00;CYWG 151000Z 05006KT 15SM OVC060 M16/M21 A3035 RMK SC8 SLP303

CYWG;2007-03-15 11:00;CYWG 151100Z 04007KT 15SM OVC053 M16/M21 A3037 RMK SC8 SLP308

CYWG;2007-03-15 12:00;CYWG 151200Z 04006KT 15SM OVC044 M16/M20 A3038 RMK SC8 SLP313

CYWG;2007-03-15 13:00;CYWG 151300Z 04009KT 12SM OVC022 M15/M20 A3039 RMK SC8 SLP316

CYWG;2007-03-15 13:12;CYWG 151312Z 04010KT 6SM -SN OVC020 M16/ RMK SC8

CYWG;2007-03-15 14:00;CYWG 151400Z 04011KT 2SM -SN OVC013 M15/M20 A3041 RMK SC8 SLP320

CYWG;2007-03-15 14:39;CYWG 151439Z 03011KT 1 1/2SM -SN VV008 M15/ RMK SN8

CYWG;2007-03-15 15:00;CYWG 151500Z 03013KT 2SM -SN VV008 M15/M19 A3042 RMK SN8 SLP326

CYWG;2007-03-15 16:00;CYWG 151600Z 03010KT 1 1/2SM -SN VV007 M14/M18 A3045 RMK SN8 SLP334

CYWG;2007-03-15 16:17;CYWG 151617Z 03010KT 12SM OVC020 RMK SC8

CYWG;2007-03-15 17:00;CYWG 151700Z 03011KT 15SM SCT037 BKN250 M14/M19 A3045 RMK SC2CI2 SLP337

CYWG;2007-03-15 18:00;CYWG 151800Z 02010KT 15SM BKN250 M12/M18 A3046 RMK CI2 SLP338

CYWG;2007-03-15 19:00;CYWG 151900Z 01011KT 15SM FEW170 FEW250 M10/M18 A3047 RMK AC1CI1 TR CI SLP340

CYWG;2007-03-15 20:00;CYWG 152000Z 36012KT 15SM FEW250 M10/M19 A3047 RMK CI1 TR CI SLP342

CYWG;2007-03-15 21:00;CYWG 152100Z 02009KT 15SM SKC M09/M19 A3047 RMK SLP341

CYWG;2007-03-15 22:00;CYWG 152200Z 02007KT 15SM SKC M09/M18 A3048 RMK SLP343

CYWG;2007-03-15 23:00;CYWG 152300Z 34003KT 15SM SKC M09/M18 A3048 RMK SLP345

CYWG;2007-03-16 00:00;CYWG 160000Z 30008KT 15SM FEW080 FEW210 M12/M17 A3049 RMK AC1CI1 TR AC TR CI SLP348

CYWG;2007-03-16 01:00;CYWG 160100Z 29006KT 15SM FEW080 FEW210 M15/M20 A3050 RMK AC1CI1 TR CI SLP350

CYWG;2007-03-16 02:00;CYWG 160200Z 28006KT 15SM FEW080 M15/M21 A3049 RMK AC1 TR AC SLP348

CYWG;2007-03-16 03:00;CYWG 160300Z 27006KT 15SM SKC M16/M22 A3049 RMK SLP349

CYWG;2007-03-16 04:00;CYWG 160400Z 26006KT 15SM FEW100 M15/M22 A3048 RMK AC2 SLP348

CYWG;2007-03-16 05:00;CYWG 160500Z 25005KT 15SM FEW100 M16/M23 A3048 RMK AC2 SLP348

CYWG;2007-03-16 06:00;CYWG 160600Z 23007KT 15SM SCT240 M15/M22 A3047 RMK CI1 SLP342

CYWG;2007-03-16 07:00;CYWG 160700Z 23007KT 15SM SCT240 M16/M20 A3046 RMK CI1 SLP337

CYWG;2007-03-16 08:00;CYWG 160800Z 21006KT 15SM SCT240 M16/M20 A3044 RMK CI1 SLP330

CYWG;2007-03-16 09:00;CYWG 160900Z 20006KT 15SM SKC M16/M21 A3042 RMK SLP324

CYWG;2007-03-16 10:00;CYWG 161000Z 19007KT 15SM SKC M16/M21 A3042 RMK SLP324

CYWG;2007-03-16 11:00;CYWG 161100Z 19008KT 15SM BKN096 M16/M20 A3041 RMK AC6 SLP322

CYWG;2007-03-16 12:00;CYWG 161200Z 20007KT 15SM BKN099 M16/M20 A3041 RMK AC6 SLP320

CYWG;2007-03-16 13:00;CYWG 161300Z 19007KT 15SM BKN095 M17/M21 A3040 RMK AC6 FROIN SLP317

CYWG;2007-03-16 13:48;CYWG 161348Z 18010KT 15SM -SN BKN034 M16/ RMK SC7

CYWG;2007-03-16 14:00;CYWG 161400Z 18009KT 10SM -SN BKN034 M16/M20 A3039 RMK SC7 SLP314

CYWG;2007-03-16 15:00;CYWG 161500Z 20009KT 10SM -SN FEW031 FEW230 M14/M18 A3038 RMK SC2CI1 SLP312

CYWG;2007-03-16 15:45;CYWG 161545Z 19012KT 15SM FEW050 FEW230 M12/ RMK SC2CI1

CYWG;2007-03-16 16:00;CYWG 161600Z 20012KT 15SM FEW110 SCT230 M12/M17 A3037 RMK AC2CI2 SLP308

CYWG;2007-03-16 17:00;CYWG 161700Z 20012KT 15SM FEW027 SCT078 M10/M15 A3035 RMK SC2AC2 SLP302

CYWG;2007-03-16 18:00;CYWG 161800Z 20012KT 15SM BKN032 BKN075 M09/M14 A3034 RMK SC5AC1 SLP297

CYWG;2007-03-16 19:00;CYWG 161900Z 19010KT 15SM SCT056 BKN075 M08/M12 A3033 RMK SC3AC1 SLP294

CYWG;2007-03-16 20:00;CYWG 162000Z 20008KT 15SM FEW045 M07/M11 A3032 RMK SC2 SLP288

CYWG;2007-03-16 21:00;CYWG 162100Z 21008KT 15SM FEW045 FEW230 M06/M11 A3030 RMK SC1CI1 TR SC SLP282

CYWG;2007-03-16 22:00;CYWG 162200Z 23008KT 15SM FEW045 FEW230 M06/M11 A3030 RMK SC1CI1 SLP282

CYWG;2007-03-16 23:00;CYWG 162300Z 22006KT 15SM FEW031 M06/M10 A3030 RMK SC2 SLP282

CYWG;2007-03-17 00:00;CYWG 170000Z 22004KT 15SM FEW031 M07/M11 A3030 RMK SC0 SLP283

CYWG;2007-03-17 01:00;CYWG 170100Z 19006KT 15SM FEW250 M08/M11 A3029 RMK CS0 COTRA SLP280

CYWG;2007-03-17 02:00;CYWG 170200Z 20003KT 15SM SKC M09/M11 A3029 RMK SLP280

CYWG;2007-03-17 03:00;CYWG 170300Z 18002KT 15SM SKC M10/M12 A3029 RMK SLP279

CYWG;2007-03-17 04:00;CYWG 170400Z 12002KT 15SM SKC M12/M13 A3029 RMK SLP279

CYWG;2007-03-17 05:00;CYWG 170500Z 20003KT 15SM SKC M12/M13 A3029 RMK SLP279

CYWG;2007-03-17 06:00;CYWG 170600Z 18004KT 10SM FEW250 M11/M12 A3029 RMK CI0 BR SLP277

CYWG;2007-03-17 07:00;CYWG 170700Z 16002KT 15SM FEW086 M12/M14 A3030 RMK AC2 BR SLP281

CYWG;2007-03-17 08:00;CYWG 170800Z 19002KT 10SM SKC M15/M16 A3030 RMK BR SLP282

CYWG;2007-03-17 09:00;CYWG 170900Z 10002KT 10SM SKC M15/M17 A3030 RMK BR SLP280

CYWG;2007-03-17 09:42;CYWG 170942Z 09004KT 10SM FEW002 M16/ RMK SF1 BR

CYWG;2007-03-17 10:00;CYWG 171000Z 08003KT 10SM FEW002 M14/M16 A3030 RMK SF1 BR SLP280

CYWG;2007-03-17 11:00;CYWG 171100Z 12002KT 5SM BR SCT002 M15/M16 A3029 RMK SF1 SLP276

CYWG;2007-03-17 12:00;CYWG 171200Z 17004KT 10SM FEW002 SCT240 M14/M15 A3030 RMK SF1CI1 BR SLP280

CYWG;2007-03-17 13:00;CYWG 171300Z 17004KT 6SM BR SCT002 BKN240 M14/M16 A3031 RMK SF1CI1 FROIN SLP283

CYWG;2007-03-17 13:44;CYWG 171344Z 17004KT 1 1/2SM BR BKN001 M13/ RMK SF2

CYWG;2007-03-17 14:00;CYWG 171400Z 15004KT 2 1/2SM BR SCT001 M12/M14 A3032 RMK SF2 FROIN SLP286

CYWG;2007-03-17 14:11;CYWG 171411Z CCA 14002KT 3SM BR SCT001 M12/ RMK SF1 VIS E 11/2

CYWG;2007-03-17 15:00;CYWG 171500Z 14004KT 6SM BR FEW002 M09/M11 A3032 RMK SF1 SLP288

CYWG;2007-03-17 16:00;CYWG 171600Z 16005KT 10SM FEW240 M07/M09 A3033 RMK CI1 BR SLP290

CYWG;2007-03-17 17:00;CYWG 171700Z 15007KT 12SM FEW240 M05/M09 A3032 RMK CI1 SLP286

CYWG;2007-03-17 18:00;CYWG 171800Z 17009KT 15SM SKC M04/M09 A3030 RMK SLP279

CYWG;2007-03-17 19:00;CYWG 171900Z 18008KT 15SM FEW240 M03/M09 A3029 RMK CI1 SLP275

CYWG;2007-03-17 20:00;CYWG 172000Z 22008KT 15SM FEW240 M04/M08 A3027 RMK CI1 SLP269

CYWG;2007-03-17 21:00;CYWG 172100Z 17006KT 15SM SCT240 M03/M08 A3025 RMK CS2 SLP262

CYWG;2007-03-17 22:00;CYWG 172200Z 18008KT 15SM BKN240 M02/M07 A3023 RMK CS4 SLP256

CYWG;2007-03-17 23:00;CYWG 172300Z 19006KT 15SM SCT095 OVC240 M03/M07 A3022 RMK AC3CS4 SLP251

CYWG;2007-03-18 00:00;CYWG 180000Z 19008KT 15SM FEW110 OVC240 M03/M07 A3021 RMK AC2CS5 SLP249

CYWG;2007-03-18 01:00;CYWG 180100Z 17007KT 15SM SCT096 OVC240 M04/M07 A3019 RMK AC3CS5 SLP243

CYWG;2007-03-18 02:00;CYWG 180200Z 17009KT 15SM SCT091 OVC240 M04/M06 A3018 RMK AC3CS5 SLP238

CYWG;2007-03-18 03:00;CYWG 180300Z 17010KT 15SM OVC078 M04/M06 A3015 RMK AC8 SLP228

CYWG;2007-03-18 04:00;CYWG 180400Z 15011KT 15SM OVC080 M04/M06 A3012 RMK AC8 SLP219

CYWG;2007-03-18 05:00;CYWG 180500Z 16009KT 15SM OVC059 M03/M06 A3010 RMK SC8 SLP212

CYWG;2007-03-18 06:00;CYWG 180600Z 15011KT 15SM OVC059 M03/M06 A3007 RMK SC8 SLP199

CYWG;2007-03-18 07:00;CYWG 180700Z 16012KT 15SM OVC054 M02/M06 A3005 RMK SC8 SLP192

CYWG;2007-03-18 08:00;CYWG 180800Z 15013KT 15SM OVC052 M02/M07 A3003 RMK SC8 SLP183

CYWG;2007-03-18 08:48;CYWG 180848Z 16014KT 12SM -SHSN BKN040 OVC092 M01/ RMK SC5AC3

CYWG;2007-03-18 09:00;CYWG 180900Z 16014G19KT 12SM -SHSN OVC040 M02/M06 A2998 RMK SC8 SLP166

CYWG;2007-03-18 10:00;CYWG 181000Z 15014KT 15SM -SHSN OVC056 M01/M06 A2994 RMK SC8 SLP152

CYWG;2007-03-18 11:00;CYWG 181100Z 16017KT 15SM OVC051 M01/M06 A2990 RMK SC8 SLP140

CYWG;2007-03-18 12:00;CYWG 181200Z 15017KT 15SM SCT040 OVC055 M01/M05 A2987 RMK SC3SC5 SLP128

CYWG;2007-03-18 12:42;CYWG 181242Z 15017KT 8SM -SN BKN007 OVC058 M01/ RMK ST5SC3

CYWG;2007-03-18 13:00;CYWG 181300Z 15018G24KT 10SM -SN SCT007 OVC058 M01/M05 A2983 RMK ST3SC5 SLP114

CYWG;2007-03-18 13:41;CYWG 181341Z 16018G24KT 3SM -SN BKN012 OVC042 M00/ RMK ST5SC3

CYWG;2007-03-18 13:51;CYWG 181351Z 17021G26KT 2SM -SN BKN008 OVC045 M01/ RMK SN2ST4SC2

CYWG;2007-03-18 14:00;CYWG 181400Z 16021G26KT 2SM -SN BKN008 OVC042 M00/M03 A2979 RMK SN2ST4SC2 SLP102

CYWG;2007-03-18 14:26;CYWG 181426Z 16021KT 3SM -SN FEW008 OVC042 M00/ RMK ST2SC6

CYWG;2007-03-18 14:48;CYWG 181448Z 16020G26KT 3SM -SN -FZRA BKN007 OVC043 M00/ RMK ST6SC2

CYWG;2007-03-18 15:00;CYWG 181500Z 17020G25KT 4SM -SN -FZRA BKN007 OVC043 00/M02 A2975 RMK ST6SC2 SLP089

CYWG;2007-03-18 15:10;CYWG 181510Z 17019G26KT 10SM -RA SCT007 OVC021 00/ RMK ST3SC5

CYWG;2007-03-18 16:00;CYWG 181600Z 18024G32KT 12SM -RA FEW007 BKN019 OVC051 01/01 A2972 RMK SF1SC6SC2 SLP077

CYWG;2007-03-18 16:39;CYWG 181639Z 18028G38KT 7SM -RA FEW007 BKN012 OVC060 01/ RMK SF1SC5SC2

CYWG;2007-03-18 17:00;CYWG 181700Z 18031G40KT 12SM SCT015 BKN060 OVC100 01/ A2966 RMK SC4SC2AC2 SLP059

CYWG;2007-03-18 17:44;CYWG 181744Z 18023G32KT 12SM BKN012 OVC060 01/ RMK SC6SC2

CYWG;2007-03-18 18:00;CYWG 181800Z 18019G30KT 15SM BKN012 OVC064 01/ A2967 RMK SC6SC2 SLP058

CYWG;2007-03-18 18:15;CYWG 181815Z 19018KT 10SM -RA OVC010 01/ RMK SC8

CYWG;2007-03-18 19:00;CYWG 181900Z 19014G19KT 8SM -RA OVC007 01/ A2965 RMK SC8 SLP054

CYWG;2007-03-18 20:00;CYWG 182000Z 19013KT 3SM -RASNPL OVC007 01/00 A2965 RMK SC8 SLP053

CYWG;2007-03-18 20:05;CYWG 182005Z 19014G20KT 2SM -RASNPL OVC006 RMK SC8

CYWG;2007-03-18 20:18;CYWG 182018Z 19014KT 1SM R13/4500VP6000FT/D R36/4000VP6000FT/D -SN OVC006 01/ RMK SN2SC6

CYWG;2007-03-18 20:53;CYWG 182053Z 19015KT 1SM R13/5500FT/U R36/4500FT/N -SN OVC004 01/ RMK SN2SC6

CYWG;2007-03-18 21:00;CYWG 182100Z 19014KT 1SM R13/6000FT/D R36/4000V5500FT/U -SN OVC004 01/ A2963 RMK SN2SC6 SLP044

CYWG;2007-03-18 21:25;CYWG 182125Z 19014KT 2SM -SN OVC004 RMK SC8

CYWG;2007-03-18 21:48;CYWG 182148Z 20013KT 1SM R13/6000FT/D R36/5000FT/N -SN OVC004 01/ RMK SN2SC6

CYWG;2007-03-18 22:00;CYWG 182200Z 20013KT 3/4SM R13/4500FT/N R36/4500FT/D -SN OVC004 01/ A2963 RMK SN4SC4 /S01/ SLP044

CYWG;2007-03-18 22:39;CYWG 182239Z 21011KT 1SM R13/4500VP6000FT/U R36/5000FT/N -PLSN OVC003 01/ RMK SN6SF2

CYWG;2007-03-18 23:00;CYWG 182300Z 21009KT 1 1/2SM -SNPL OVC003 01/01 A2963 RMK ST8 SLP045

CYWG;2007-03-18 23:13;CYWG 182313Z 23008KT 2SM -RAPL OVC003 01/ RMK ST8

CYWG;2007-03-18 23:42;CYWG 182342Z 27008KT 3SM -SN BR OVC004 01/ RMK ST8 REPL

CYWG;2007-03-19 00:00;CYWG 190000Z 28010KT 3SM -SN BR OVC003 01/ A2966 RMK ST8 REPL SLP056

CYWG;2007-03-19 00:28;CYWG 190028Z 32015KT 3SM BR OVC004 01/ RMK ST8

CYWG;2007-03-19 00:48;CYWG 190048Z 34013KT 5SM BR SCT005 OVC009 01/ RMK SF4SC4

CYWG;2007-03-19 01:00;CYWG 190100Z 33014KT 6SM BR FEW005 BKN009 OVC026 01/ A2970 RMK SF2SC3SC3 SLP069

CYWG;2007-03-19 01:34;CYWG 190134Z CCA 33017KT 6SM BR BKN012 OVC024 01/ RMK SC6SC2

CYWG;2007-03-19 02:00;CYWG 190200Z 32016KT 10SM BKN014 OVC035 01/ A2974 RMK SC6SC2 BR SLP084

CYWG;2007-03-19 02:55;CYWG 190255Z 32015KT 12SM BKN024 OVC035 01/ RMK SC6SC2

CYWG;2007-03-19 03:00;CYWG 190300Z 32015KT 15SM BKN024 OVC035 01/ A2977 RMK SC6SC2 SLP094

CYWG;2007-03-19 04:00;CYWG 190400Z 30010KT 10SM SKC M01/ A2979 RMK SLP100

CYWG;2007-03-19 05:00;CYWG 190500Z 29011KT 10SM BKN027 M02/ A2980 RMK SC5 BR SLP102

CYWG;2007-03-19 06:00;CYWG 190600Z 31021G26KT 10SM FEW027 M01/M01 A2982 RMK SC2 SLP110

CYWG;2007-03-19 07:00;CYWG 190700Z 34023G31KT 15SM FEW027 M05/M05 A2989 RMK SC2 SLP132

CYWG;2007-03-19 08:00;CYWG 190800Z 34020G28KT 15SM FEW025 FEW120 M07/M07 A2994 RMK SC1AC1 SLP149

CYWG;2007-03-19 09:00;CYWG 190900Z 33018G25KT 15SM FEW036 FEW120 M08/M08 A2999 RMK SC1AC1 SLP169

CYWG;2007-03-19 10:00;CYWG 191000Z 34017KT 15SM FEW019 FEW120 M10/M10 A3003 RMK SC2AC1 SLP182

CYWG;2007-03-19 11:00;CYWG 191100Z 33018G24KT 15SM FEW016 M12/M12 A3008 RMK SC1 SLP199

CYWG;2007-03-19 12:00;CYWG 191200Z 33022G27KT 15SM FEW016 M13/M14 A3014 RMK SC1 PRESRR SLP222

CYWG;2007-03-19 13:00;CYWG 191300Z 33023G29KT 15SM FEW016 M15/M15 A3018 RMK SC1 SLP235

CYWG;2007-03-19 14:00;CYWG 191400Z 33024G32KT 15SM FEW016 M16/M16 A3021 RMK SC1 SLP247

CYWG;2007-03-19 15:00;CYWG 191500Z 02016KT 10SM -SN BKN013 M17/M18 A3027 RMK SC2 PRESRR SLP268

CYWG;2007-03-19 15:24;CYWG 191524Z 34015KT 12SM SCT013 M17/ RMK SC2

CYWG;2007-03-19 15:39;CYWG 191539Z 36014KT 10SM -SN BKN013 M17/ RMK SN2SC3 VSBY NW 2

CYWG;2007-03-19 16:00;CYWG 191600Z 36013KT 4SM -SN BKN013 M17/M18 A3031 RMK SN3SF4 PRESRR SLP283

CYWG;2007-03-19 16:33;CYWG 191633Z 34016KT 12SM -SN BKN013 M17/ RMK SF2 VSBY E 3

CYWG;2007-03-19 16:49;CYWG 191649Z 33017G22KT 12SM SCT019 M17/ RMK SF2 VSBY E 3

CYWG;2007-03-19 17:00;CYWG 191700Z 34016KT 12SM BKN019 M17/M18 A3034 RMK SC3 SLP291

CYWG;2007-03-19 18:00;CYWG 191800Z 34014G19KT 15SM FEW022 M17/M17 A3035 RMK SC2 SLP298

CYWG;2007-03-19 19:00;CYWG 191900Z 34011G16KT 15SM FEW020 M16/M17 A3038 RMK SC2 SLP306

CYWG;2007-03-19 20:00;CYWG 192000Z 03008KT 15SM FEW020 M16/M17 A3037 RMK SC1 SLP305

CYWG;2007-03-19 21:00;CYWG 192100Z 02007KT 15SM FEW020 FEW270 M16/M16 A3038 RMK SC1CI1 SLP309

CYWG;2007-03-19 22:00;CYWG 192200Z 06004KT 15SM SCT270 M16/M16 A3039 RMK CI1 SLP313

CYWG;2007-03-19 23:00;CYWG 192300Z 05004KT 15SM FEW270 M16/ A3040 RMK CI0 SLP315

CYWG;2007-03-20 00:00;CYWG 200000Z 07007KT 15SM FEW270 M16/ A3039 RMK CI0 SLP314

CYWG;2007-03-20 01:00;CYWG 200100Z CCA 07005KT 15SM FEW270 M17/ A3039 RMK CI0 SLP314

CYWG;2007-03-20 02:00;CYWG 200200Z 16007KT 15SM FEW270 M17/ A3040 RMK CI0 SLP318

CYWG;2007-03-20 03:00;CYWG 200300Z 16006KT 15SM FEW250 M18/M18 A3040 RMK CI0 SLP319

CYWG;2007-03-20 04:00;CYWG 200400Z 17006KT 15SM FEW250 M17/M18 A3040 RMK CI0 SLP321

CYWG;2007-03-20 05:00;CYWG 200500Z 15008KT 15SM SCT250 M18/M19 A3038 RMK CI1 SLP315

CYWG;2007-03-20 06:00;CYWG 200600Z 17007KT 15SM SCT250 M18/M19 A3038 RMK CI1 SLP313

CYWG;2007-03-20 07:00;CYWG 200700Z 17009KT 15SM FEW140 SCT250 M17/M19 A3036 RMK AC1CI1 SLP306

CYWG;2007-03-20 08:00;CYWG 200800Z 16005KT 15SM SCT072 SCT140 BKN250 M17/M18 A3035 RMK AC3AC1CI1 SLP303

CYWG;2007-03-20 09:00;CYWG 200900Z 14010KT 15SM SCT072 BKN140 BKN250 M16/M18 A3030 RMK AC4AC2CI1 SLP286

CYWG;2007-03-20 10:00;CYWG 201000Z 13012KT 15SM BKN071 BKN140 M15/M16 A3024 RMK AC6AC2 PRESFR SLP264

CYWG;2007-03-20 11:00;CYWG 201100Z 16014KT 15SM BKN069 BKN120 M14/M15 A3020 RMK AC5AC2 SLP253

CYWG;2007-03-20 12:00;CYWG 201200Z 15015KT 15SM SCT062 OVC076 M12/M13 A3016 RMK SC4AC3 SLP234

CYWG;2007-03-20 13:00;CYWG 201300Z 14015G20KT 15SM OVC070 M11/M15 A3011 RMK AC8 SLP220

CYWG;2007-03-20 14:00;CYWG 201400Z 14015KT 15SM OVC079 M10/M14 A3008 RMK AC8 SLP208

CYWG;2007-03-20 15:00;CYWG 201500Z 14015KT 15SM OVC081 M09/M13 A3005 RMK AC8 SLP198

CYWG;2007-03-20 16:00;CYWG 201600Z 15022KT 15SM BKN074 M07/M12 A3000 RMK AC6 SLP180

CYWG;2007-03-20 17:00;CYWG 201700Z 15026KT 15SM FEW075 BKN250 M04/M08 A2995 RMK AC2CI1 SLP164

CYWG;2007-03-20 18:00;CYWG 201800Z 17019G26KT 15SM FEW080 BKN250 M02/M07 A2992 RMK AC1CI2 SLP150

CYWG;2007-03-20 19:00;CYWG 201900Z 17020KT 15SM FEW089 BKN250 M01/M06 A2988 RMK AC1CI2 SLP139

CYWG;2007-03-20 20:00;CYWG 202000Z CCA 18026G34KT 15SM FEW089 BKN250 01/M05 A2984 RMK AC1CI2 PRESFR SLP124

CYWG;2007-03-20 21:00;CYWG 202100Z 18025G35KT 15SM SCT250 01/M05 A2981 RMK CI2 PRESFR SLP111

CYWG;2007-03-20 22:00;CYWG 202200Z 18027G33KT 15SM FEW110 SCT250 02/M05 A2977 RMK AC1CI1 PRESFR SLP099

CYWG;2007-03-20 23:00;CYWG 202300Z 18027G34KT 15SM FEW110 BKN250 02/M04 A2973 RMK AC1CI2 PRESFR SLP084

CYWG;2007-03-21 00:00;CYWG 210000Z 18022G31KT 15SM FEW110 BKN250 02/M03 A2969 RMK AC2CI2 PRESFR SLP070

CYWG;2007-03-21 01:00;CYWG 210100Z 18027G33KT 15SM FEW110 BKN250 03/M02 A2967 RMK AC2CI2 SLP063

CYWG;2007-03-21 03:00;CYWG 210300Z 18031G39KT 15SM FEW110 BKN250 02/M00 A2962 RMK AC2CI2 SLP043

CYWG;2007-03-21 04:00;CYWG 210400Z 18029G35KT 15SM FEW110 BKN250 02/00 A2961 RMK AC2CI2 SLP040

CYWG;2007-03-21 05:00;CYWG 210500Z 18028G34KT 15SM FEW110 SCT250 02/00 A2958 RMK AC2CI1 SLP032

CYWG;2007-03-21 06:00;CYWG 210600Z 18025G31KT 15SM FEW110 SCT250 02/01 A2956 RMK AC2CI1 SLP021

CYWG;2007-03-21 07:00;CYWG 210700Z 18022G29KT 15SM FEW110 SCT250 02/01 A2955 RMK AC2CI1 SLP018

CYWG;2007-03-21 08:00;CYWG 210800Z 19020G26KT 10SM BKN094 02/01 A2954 RMK AC5 BR SLP016

CYWG;2007-03-21 09:00;CYWG 210900Z 20019G26KT 10SM BKN076 02/01 A2959 RMK AC6 BR SLP031

CYWG;2007-03-21 10:00;CYWG 211000Z 20016G22KT 10SM SCT076 BKN250 02/01 A2957 RMK AC4CI1 BR SLP023

CYWG;2007-03-21 11:00;CYWG 211100Z 18013KT 6SM BR SCT075 BKN250 02/01 A2956 RMK AC4CI2 SLP020

CYWG;2007-03-21 12:00;CYWG 211200Z 18014KT 6SM BR FEW075 BKN120 OVC250 02/01 A2956 RMK AC2AC5CI0 SLP019

CYWG;2007-03-21 13:00;CYWG 211300Z 22009KT 6SM BR SCT075 OVC120 02/01 A2956 RMK AC3AC5 SLP021

CYWG;2007-03-21 13:48;CYWG 211348Z 21008KT 6SM -SHRA BR FEW059 BKN067 OVC097 02/ RMK SC2AC3AC2 CVCTV CLD EMBD

CYWG;2007-03-21 14:00;CYWG 211400Z 21008KT 6SM -SHRA BR SCT059 OVC097 02/01 A2959 RMK SC4AC4 CVCTV CLD EMBD SLP029

CYWG;2007-03-21 14:25;CYWG 211425Z 25003KT 10SM BKN057 OVC097 03/ RMK SC6AC2 BR

CYWG;2007-03-21 15:00;CYWG 211500Z 25008KT 12SM SCT057 OVC120 04/01 A2958 RMK SC3AC5 SLP028

CYWG;2007-03-21 16:00;CYWG 211600Z 26010KT 15SM SCT090 OVC250 04/01 A2960 RMK AC4CI2 SLP034

CYWG;2007-03-21 17:00;CYWG 211700Z 30011KT 15SM FEW100 OVC250 02/01 A2962 RMK AC2CI2 SLP041

CYWG;2007-03-21 18:00;CYWG 211800Z 31013KT 15SM FEW100 OVC250 02/M00 A2965 RMK AC2CI2 SLP051

CYWG;2007-03-21 19:00;CYWG 211900Z 31012KT 15SM SCT100 BKN250 02/M01 A2968 RMK AC3CI1 SLP061

CYWG;2007-03-21 20:00;CYWG 212000Z 33014KT 15SM OVC022 02/M02 A2969 RMK SC8 SLP065

CYWG;2007-03-21 21:00;CYWG 212100Z 33011KT 15SM OVC022 01/M02 A2971 RMK SC8 SLP072

CYWG;2007-03-21 22:00;CYWG 212200Z 33013KT 15SM OVC024 01/M02 A2974 RMK SC8 SLP081

CYWG;2007-03-21 23:00;CYWG 212300Z 32010KT 15SM BKN026 OVC099 00/M02 A2976 RMK SC6AC2 SLP088

CYWG;2007-03-22 00:00;CYWG 220000Z 32014KT 15SM SCT034 BKN110 M00/M04 A2979 RMK SC3AC3 SLP098

CYWG;2007-03-22 01:00;CYWG 220100Z 31014KT 15SM FEW022 FEW066 M01/M05 A2980 RMK SF1AC1 SLP104

CYWG;2007-03-22 02:00;CYWG 220200Z 31009KT 15SM FEW100 M03/M05 A2984 RMK AC1 SLP115

CYWG;2007-03-22 03:00;CYWG 220300Z 29009KT 15SM FEW100 M04/M06 A2986 RMK AC1 SLP124

CYWG;2007-03-22 04:00;CYWG 220400Z 30006KT 15SM FEW100 M06/M07 A2987 RMK AC1 SLP128

CYWG;2007-03-22 05:00;CYWG 220500Z 27006KT 15SM FEW100 M06/M08 A2988 RMK AC0 SLP131

CYWG;2007-03-22 06:00;CYWG 220600Z 25004KT 15SM SKC M06/M08 A2989 RMK SLP134

CYWG;2007-03-22 07:00;CYWG 220700Z 26007KT 15SM SKC M06/M08 A2989 RMK SLP134

CYWG;2007-03-22 08:00;CYWG 220800Z 27008KT 15SM SKC M06/M09 A2989 RMK SLP135

CYWG;2007-03-22 09:00;CYWG 220900Z 26010KT 15SM SKC M06/M09 A2990 RMK SLP138

CYWG;2007-03-22 10:00;CYWG 221000Z 27007KT 15SM SKC M07/M09 A2990 RMK SLP137

CYWG;2007-03-22 11:00;CYWG 221100Z 26006KT 15SM OVC120 M06/M09 A2991 RMK AC8 SLP141

CYWG;2007-03-22 12:00;CYWG 221200Z 26007KT 15SM SCT120 BKN250 M06/M09 A2991 RMK AC3CI2 SLP144

CYWG;2007-03-22 13:00;CYWG 221300Z 24006KT 15SM FEW120 SCT250 M07/M09 A2992 RMK AC1CI2 SLP146

CYWG;2007-03-22 14:00;CYWG 221400Z 23006KT 15SM BKN250 M05/M08 A2991 RMK CI2 SLP142

CYWG;2007-03-22 15:00;CYWG 221500Z 23007KT 15SM FEW120 BKN250 M02/M08 A2990 RMK AC2CI2 SLP140

CYWG;2007-03-22 16:00;CYWG 221600Z 18007KT 15SM SCT120 OVC250 M02/M07 A2988 RMK AC4CI4 SLP132

CYWG;2007-03-22 17:00;CYWG 221700Z 19013KT 15SM SCT097 OVC250 M01/M07 A2990 RMK AC4CI4 SLP138

CYWG;2007-03-22 18:00;CYWG 221800Z 18013KT 15SM SCT027 OVC048 M00/M06 A2991 RMK SC3SC5 SLP142

CYWG;2007-03-22 18:55;CYWG 221855Z 18012KT 15SM -SN BKN034 OVC098 00/ RMK SC6AC2

CYWG;2007-03-22 19:00;CYWG 221900Z 19013KT 15SM -SN BKN034 OVC098 00/M06 A2988 RMK SC6AC2 SLP133

CYWG;2007-03-22 19:20;CYWG 221920Z 16009KT 15SM BKN019 OVC059 01/ RMK SC7SC1

CYWG;2007-03-22 20:00;CYWG 222000Z 17010KT 15SM SCT026 BKN031 OVC071 02/M04 A2984 RMK SC3SC2AC2 SLP121

CYWG;2007-03-22 20:24;CYWG 222024Z 17017KT 15SM -SN OVC031 01/ RMK SC8

CYWG;2007-03-22 20:50;CYWG 222050Z 18014KT 2 1/2SM -SHSN OVC017 01/ RMK SC8

CYWG;2007-03-22 21:00;CYWG 222100Z 18011G16KT 2 1/2SM -SHSN OVC017 01/M02 A2983 RMK SC8 SLP117

CYWG;2007-03-22 21:13;CYWG 222113Z 18011KT 1 1/2SM -SHSN BR OVC015 01/ RMK FG2SC6

CYWG;2007-03-22 21:27;CYWG 222127Z 18013KT 3/4SM R13/P6000FT/D R36/P6000FT/D -SHSN BR OVC015 00/ RMK SN3SC5

CYWG;2007-03-22 21:36;CYWG 222136Z 18009G16KT 1SM R13/P6000FT/U R36/P6000FT/U -SHSN BR OVC008 00/ RMK SN2SC6

CYWG;2007-03-22 21:52;CYWG 222152Z 18010KT 2SM -SN BR OVC007 00/ RMK SC8

CYWG;2007-03-22 22:00;CYWG 222200Z 18011KT 2SM -SN BR OVC008 00/M01 A2984 RMK SC8 SLP119

CYWG;2007-03-22 22:19;CYWG 222219Z 18010KT 1 1/2SM -SN BR OVC006 00/ RMK SC8

CYWG;2007-03-22 22:28;CYWG 222228Z 18010KT 2 1/2SM -SN BR BKN006 OVC018 00/ RMK SC6SC2

CYWG;2007-03-22 22:52;CYWG 222252Z 19007KT 4SM -SN BR OVC006 00/ RMK SC8

CYWG;2007-03-22 23:00;CYWG 222300Z 19006KT 6SM -SN BR OVC006 01/M00 A2986 RMK SC8 SLP124

CYWG;2007-03-22 23:49;CYWG 222349Z 17010KT 8SM BKN005 OVC010 00/ RMK SF6SC2 BR

CYWG;2007-03-23 00:00;CYWG 230000Z 18009KT 8SM BKN005 OVC010 00/M00 A2984 RMK SF6SC2 BR SLP119

CYWG;2007-03-23 00:18;CYWG 230018Z 19008KT 13SM SCT006 BKN011 OVC095 01/ RMK SF3SC4AC1

CYWG;2007-03-23 02:00;CYWG 230200Z 18006KT 15SM BKN013 OVC021 01/M00 A2985 RMK SC5SC3 SLP123

CYWG;2007-03-23 03:00;CYWG 230300Z 19004KT 15SM FEW017 M01/M02 A2987 RMK SC1 SLP128

CYWG;2007-03-23 04:00;CYWG 230400Z 18007KT 15SM FEW017 FEW094 M01/M02 A2987 RMK SC1AC1 SLP127

CYWG;2007-03-23 05:00;CYWG 230500Z 18007KT 15SM FEW094 M02/M03 A2985 RMK AC1 SLP122

CYWG;2007-03-23 06:00;CYWG 230600Z 18008KT 15SM FEW094 M02/M03 A2984 RMK AC0 SLP118

CYWG;2007-03-23 07:00;CYWG 230700Z 18009KT 15SM SKC M01/M03 A2984 RMK FROIN SLP118

CYWG;2007-03-23 08:00;CYWG 230800Z 19009KT 15SM SKC M01/M03 A2984 RMK SLP117

CYWG;2007-03-23 09:00;CYWG 230900Z 20013KT 15SM SKC M01/M03 A2984 RMK SLP116

CYWG;2007-03-23 10:00;CYWG 231000Z 18007KT 15SM SKC M03/M04 A2984 RMK SLP118

CYWG;2007-03-23 11:00;CYWG 231100Z 20008KT 15SM SKC M03/M04 A2986 RMK SLP124

CYWG;2007-03-23 12:00;CYWG 231200Z 20008KT 15SM SCT250 M03/M05 A2987 RMK CI2 SLP129

CYWG;2007-03-23 13:00;CYWG 231300Z 21007KT 15SM BKN250 M03/M05 A2989 RMK CI3 SLP133

CYWG;2007-03-23 14:00;CYWG 231400Z 19003KT 15SM FEW091 BKN250 M01/M03 A2989 RMK AC2CI2 SLP135

CYWG;2007-03-23 15:00;CYWG 231500Z 18007KT 15SM SCT090 OVC250 00/M02 A2991 RMK AC3CI2 SLP140

CYWG;2007-03-23 16:00;CYWG 231600Z 19007KT 15SM SCT100 OVC250 02/M01 A2992 RMK AC3CI3 SLP144

CYWG;2007-03-23 17:00;CYWG 231700Z 17007KT 15SM SCT100 OVC250 02/M01 A2992 RMK AC3CI4 SLP145

CYWG;2007-03-23 18:00;CYWG 231800Z 16007KT 15SM BKN100 OVC250 03/M00 A2991 RMK AS5CI3 SLP142

CYWG;2007-03-23 19:00;CYWG 231900Z 23007KT 15SM OVC100 04/M00 A2992 RMK AS8 SLP145

CYWG;2007-03-23 20:00;CYWG 232000Z 18007KT 15SM OVC100 05/00 A2992 RMK AS8 SLP143

CYWG;2007-03-23 21:00;CYWG 232100Z 17006KT 15SM SCT068 OVC100 05/00 A2989 RMK AC3AS5 SLP134

CYWG;2007-03-23 21:46;CYWG 232146Z 17004KT 15SM -SHRA FEW023 BKN059 OVC100 05/ RMK SF1SC6AS2

CYWG;2007-03-23 22:00;CYWG 232200Z 20004KT 15SM -RA SCT023 OVC048 04/01 A2990 RMK SF3SC5 SLP137

CYWG;2007-03-23 23:00;CYWG 232300Z 16005KT 6SM -RA OVC025 03/01 A2990 RMK SC8 SLP135

CYWG;2007-03-24 00:00;CYWG 240000Z 06004KT 5SM -RA BR BKN026 OVC048 02/01 A2989 RMK SC7SC1 SLP133

CYWG;2007-03-24 00:46;CYWG 240046Z 25002KT 4SM -RA BR SCT007 OVC020 02/ RMK SF4SC4

CYWG;2007-03-24 01:37;CYWG 240137Z 07006KT 2SM -RA BR SCT006 OVC011 02/ RMK SF4SC4

CYWG;2007-03-24 03:00;CYWG 240300Z 01003KT 1SM R31/P6000FT/D R36/P6000FT/D -DZ BR OVC010 01/01 A2991 RMK FG4SF4 SLP139

CYWG;2007-03-24 04:00;CYWG 240400Z 02005KT 1SM R13/P6000FT/D R36/P6000FT/U -DZ BR OVC026 01/01 A2992 RMK FG4SC4 SLP144

CYWG;2007-03-24 04:28;CYWG 240428Z 36007KT 1 1/2SM BR OVC004 RMK ST8

CYWG;2007-03-24 05:00;CYWG 240500Z 35010KT 3/8SM R13/2000FT/N R36/3000VP6000FT/D FG VV003 01/01 A2995 RMK FG8 SLP153

CYWG;2007-03-24 05:42;CYWG 240542Z 27004KT 1/8SM R13/1600FT/N R36/1600FT/N FG VV005 00/ RMK FG8

CYWG;2007-03-24 06:00;CYWG 240600Z 28004KT 1/8SM R13/1100V1600FT/N R36/4500VP6000FT/D FG VV001 00/00 A2996 RMK FG8 SLP157

CYWG;2007-03-24 06:16;CYWG 240616Z 28006KT 1/2SM R13/2600VP6000FT/N R36/2000FT/N FZFG SKC M00/ RMK FG4

CYWG;2007-03-24 06:30;CYWG 240630Z 27006KT 1SM R13/P6000FT/N R36/3000VP6000FT/U BR SKC M00/ RMK FG3

CYWG;2007-03-24 07:00;CYWG 240700Z 28007KT 1SM R13/4500FT/D R36/P6000FT/N BR SKC M01/M01 A2999 RMK FG6 SLP167

CYWG;2007-03-24 07:50;CYWG 240750Z 30006KT 5SM BR SKC RMK FG2

CYWG;2007-03-24 08:00;CYWG 240800Z 30008KT 5SM BR SKC M01/M02 A3001 RMK FG2 SLP172

CYWG;2007-03-24 09:00;CYWG 240900Z 31003KT 10SM SKC M03/M03 A3002 RMK FG1 VIS NE 2 BR SLP177

CYWG;2007-03-24 10:00;CYWG 241000Z 32002KT 10SM SKC M03/M04 A3001 RMK BR SLP174

CYWG;2007-03-24 10:50;CYWG 241050Z 00000KT 2SM R13/1400FT/N R36/1800V2200FT/N BR SKC M04/ RMK FG2 VIS E 4

CYWG;2007-03-24 11:00;CYWG 241100Z 00000KT 2SM R13/2000FT/N R36/2000FT/N BR SKC M04/M04 A3001 RMK FG1 VIS W - NW 3/4 SLP173

CYWG;2007-03-24 11:54;CYWG 241154Z 20006KT 1SM R13/P6000FT/N R36/P6000FT/D BR SKC M02/ RMK FG2 VIS E - SE 1/2

CYWG;2007-03-24 12:00;CYWG 241200Z 19007KT 1/8SM R13/P6000FT/D R36/2400FT/N FZFG SKC M02/M02 A3003 RMK FG6 SLP180

CYWG;2007-03-24 13:00;CYWG 241300Z 18007KT 1/8SM R13/1100FT/N R36/0900FT/N FZFG VV001 M02/M03 A3006 RMK FG8 SLP190

CYWG;2007-03-24 13:16;CYWG 241316Z 19008KT 1/4SM R13/1600FT/N R36/1200FT/N FZFG VV001 M02/ RMK FG8

CYWG;2007-03-24 14:00;CYWG 241400Z 19009KT 1/8SM R13/1200V1800FT/N R36/1200FT/N FZFG VV001 M02/M02 A3008 RMK FG8 SLP197

CYWG;2007-03-24 15:00;CYWG 241500Z 18010KT 1/8SM R13/1600FT/N R36/1200FT/N FZFG VV001 M00/M00 A3006 RMK FG8 SLP192

CYWG;2007-03-24 15:19;CYWG 241519Z 19012KT 1/4SM R13/1600FT/N R36/1600FT/N FZFG VV001 M00/ RMK FG8

CYWG;2007-03-24 16:00;CYWG 241600Z 17013KT 1/4SM R13/1600FT/N R36/1600FT/N FG VV001 00/00 A3003 RMK FG8 SLP182

CYWG;2007-03-24 17:00;CYWG 241700Z 18013KT 3/8SM R13/2000FT/N R36/2200FT/N FG VV001 01/01 A3004 RMK FG8 SLP184

CYWG;2007-03-24 17:46;CYWG 241746Z 18019KT 5/8SM R13/3500V6000FT/U R36/3000FT/N BR OVC001 01/ RMK FG3SF5

CYWG;2007-03-24 18:00;CYWG 241800Z 18019G26KT 5/8SM R13/4000V6000FT/D R36/3500V5000FT/U BR OVC002 01/01 A3002 RMK FG3SF5 SLP178

CYWG;2007-03-24 19:00;CYWG 241900Z 18021G26KT 5/8SM R13/P6000FT/U R36/3000VP6000FT/U BR VV002 01/01 A3000 RMK FG8 SLP173

CYWG;2007-03-24 19:33;CYWG 241933Z 18021KT 5SM BR BKN002 01/ RMK SF6

CYWG;2007-03-24 20:00;CYWG 242000Z 18019KT 10SM BKN002 02/01 A2998 RMK SF6 OBS TKN 00+10 SLP164

CYWG;2007-03-24 21:00;CYWG 242100Z 18019KT 15SM BKN003 02/01 A2996 RMK SF6 SLP158

CYWG;2007-03-24 22:00;CYWG 242200Z 18019KT 10SM BKN002 01/01 A2995 RMK SF7 VSBY W 11/2 SLP155

CYWG;2007-03-24 22:39;CYWG 242239Z 19016KT 15SM FEW003 BKN120 02/ RMK SF2AC3 VSBY W 2

CYWG;2007-03-24 23:00;CYWG 242300Z 18017KT 15SM FEW003 BKN120 03/02 A2993 RMK SF1AC2 SLP149

CYWG;2007-03-25 00:00;CYWG 250000Z 18017G22KT 15SM FEW120 03/02 A2991 RMK AC2 SLP142

CYWG;2007-03-25 01:00;CYWG 250100Z 18015G20KT 15SM BKN120 04/02 A2990 RMK AC2 SLP138

CYWG;2007-03-25 02:00;CYWG 250200Z 18019KT 15SM FEW120 04/03 A2991 RMK AC2 SLP140

CYWG;2007-03-25 03:00;CYWG 250300Z 18017KT 15SM SKC 05/04 A2989 RMK SLP132

CYWG;2007-03-25 04:00;CYWG 250400Z 18014KT 15SM SKC 05/04 A2988 RMK SLP130

CYWG;2007-03-25 05:00;CYWG 250500Z 19014KT 15SM FEW220 05/03 A2987 RMK CI1 SLP127

CYWG;2007-03-25 06:00;CYWG 250600Z 19014KT 15SM FEW220 04/03 A2986 RMK CI1 SLP122

CYWG;2007-03-25 07:00;CYWG 250700Z 19013KT 15SM FEW220 05/03 A2984 RMK CI0 SLP116

CYWG;2007-03-25 08:00;CYWG 250800Z 18013KT 15SM FEW220 04/03 A2982 RMK CI1 SLP109

CYWG;2007-03-25 09:00;CYWG 250900Z 18015KT 15SM FEW220 04/02 A2979 RMK CI0 SLP099

CYWG;2007-03-25 10:00;CYWG 251000Z 18015KT 15SM FEW091 FEW220 05/02 A2977 RMK AC1CI0 SLP092

CYWG;2007-03-25 11:00;CYWG 251100Z 18014KT 15SM FEW090 SCT220 04/02 A2975 RMK AC2CI0 SLP086

CYWG;2007-03-25 12:00;CYWG 251200Z 18012KT 15SM FEW029 FEW086 BKN230 03/02 A2974 RMK SC1AC1CI2 SLP079

CYWG;2007-03-25 13:00;CYWG 251300Z 17007KT 15SM SCT089 OVC230 04/03 A2972 RMK AC2CI1 SLP075

CYWG;2007-03-25 14:00;CYWG 251400Z 18010KT 15SM FEW030 SCT090 OVC230 05/04 A2970 RMK SC1AC2CI1 SLP067

CYWG;2007-03-25 14:07;CYWG 251407Z 18010KT 15SM SCT003 OVC230 06/ RMK SF2CI2 SF INVDNG FM SE

CYWG;2007-03-25 14:12;CYWG 251412Z 17011KT 15SM BKN002 OVC230 06/ RMK SF6CI0

CYWG;2007-03-25 14:19;CYWG 251419Z 18011KT 5/8SM R13/P6000FT/N R36/2400FT/N BR OVC002 05/ RMK FG5SF3

CYWG;2007-03-25 14:24;CYWG 251424Z 17011KT 3/8SM R13/2400FT/N R36/2200FT/N FG VV001 05/ RMK FG8

CYWG;2007-03-25 14:30;CYWG 251430Z 17012KT 1/8SM R13/1100V1800FT/N R36/1100V1800FT/N FG VV001 06/ RMK FG8

CYWG;2007-03-25 14:43;CYWG 251443Z 17010KT 1 1/2SM R13/3000FT/N R36/2800VP6000FT/N BR BKN001 OVC230 06/ RMK SF6CI1

CYWG;2007-03-25 15:00;CYWG 251500Z 18011KT 2 1/2SM BR SCT002 BKN007 OVC230 06/06 A2970 RMK SF2ST4CI1 SLP065

CYWG;2007-03-25 15:12;CYWG 251512Z 18009KT 5SM BR FEW002 OVC006 06/ RMK SF1ST7

CYWG;2007-03-25 16:00;CYWG 251600Z 19009KT 12SM BKN006 OVC230 07/06 A2968 RMK ST7CI1 SLP060

CYWG;2007-03-25 17:00;CYWG 251700Z 17009KT 10SM OVC004 07/06 A2967 RMK ST8 BR SLP056

CYWG;2007-03-25 17:33;CYWG 251733Z 17010KT 4SM BR OVC003 RMK ST8

CYWG;2007-03-25 18:00;CYWG 251800Z 17009KT 3SM BR OVC003 07/06 A2965 RMK ST8 SLP048

CYWG;2007-03-25 18:24;CYWG 251824Z 17009KT 2SM R36/2600FT/N BR OVC002 07/ RMK ST8

CYWG;2007-03-25 18:29;CYWG 251829Z 17011KT 3/4SM R13/P6000FT/D R36/3000FT/N BR OVC001 07/ RMK FG2ST6

CYWG;2007-03-25 19:00;CYWG 251900Z 18010KT 1/2SM R13/P6000FT/D R36/4000FT/N FG OVC002 07/07 A2962 RMK ST8 SLP038

CYWG;2007-03-25 20:00;CYWG 252000Z 19010KT 1/2SM R13/4000V5500FT/N R36/1400V2000FT/N FG OVC002 08/08 A2961 RMK ST8 SLP035

CYWG;2007-03-25 20:43;CYWG 252043Z 18011KT 3/4SM R13/P6000FT/U R36/4000VP6000FT/D BR OVC002 08/ RMK ST8

CYWG;2007-03-25 21:00;CYWG 252100Z 17011KT 3/4SM R13/P6000FT/D R36/4500VP6000FT/U BR OVC002 08/08 A2959 RMK ST8 SLP027

CYWG;2007-03-25 21:22;CYWG 252122Z 19011KT 1/2SM R13/4500VP6000FT/D R36/2400FT/N FG VV002 08/ RMK FG8

CYWG;2007-03-25 22:00;CYWG 252200Z 18010KT 1/4SM R13/1600V2000FT/N R36/1400FT/N FG VV001 07/07 A2959 RMK FG8 SLP028

CYWG;2007-03-25 23:00;CYWG 252300Z 18008KT 1/4SM R13/3000FT/N R36/1100FT/N FG VV001 07/07 A2958 RMK FG8 SLP025

CYWG;2007-03-26 00:00;CYWG 260000Z 18012KT 1/8SM R13/1400FT/N R36/1000FT/N FG VV001 06/06 A2957 RMK FG8 SLP024

CYWG;2007-03-26 00:33;CYWG 260033Z 19011KT 1/4SM R13/2800FT/N R36/2000FT/N FG VV001 RMK FG8

CYWG;2007-03-26 01:00;CYWG 260100Z 20010KT 1/4SM R13/P6000FT/N R36/3500FT/U FG VV001 05/05 A2960 RMK FG8 SLP032

CYWG;2007-03-26 02:00;CYWG 260200Z 19011KT 1/4SM R13/2200FT/N R36/1800FT/N FG VV001 04/04 A2960 RMK FG8 SLP031

CYWG;2007-03-26 03:00;CYWG 260300Z 19010KT 1/8SM R13/1800FT/N R36/1800FT/N FG VV001 04/04 A2961 RMK FG8 SLP036

CYWG;2007-03-26 04:00;CYWG 260400Z 19007KT 1/8SM R13/1400FT/N R36/1400FT/N FG VV001 03/03 A2962 RMK FG8 SLP038

CYWG;2007-03-26 05:00;CYWG 260500Z 19006KT 1/8SM R13/2000FT/N R36/1600FT/N FG VV001 03/03 A2963 RMK FG8 SLP042

CYWG;2007-03-26 06:00;CYWG 260600Z 20004KT 1/8SM R13/1600FT/N R36/1600FT/N FG VV001 03/03 A2964 RMK FG8 SLP045

CYWG;2007-03-26 06:43;CYWG 260643Z 20003KT 1/8SM R13/1600FT/N R36/1400V1800FT/N FG VV001 02/ RMK FG8

CYWG;2007-03-26 07:00;CYWG 260700Z 19004KT 1/4SM R13/1800FT/N R36/1400FT/N FG VV001 02/02 A2965 RMK FG8 SLP049

CYWG;2007-03-26 08:00;CYWG 260800Z 20003KT 1/4SM R13/2600FT/N R36/2200FT/N FG VV001 02/02 A2967 RMK FG8 SLP055

CYWG;2007-03-26 08:53;CYWG 260853Z 20002KT 1/2SM R13/3000V5500FT/U R36/2600V4500FT/N FG SKC 01/ RMK FG5

CYWG;2007-03-26 09:00;CYWG 260900Z 20002KT 1/2SM R13/5000FT/N R36/3000VP6000FT/U FG SKC 01/01 A2968 RMK FG5 SLP059

CYWG;2007-03-26 09:19;CYWG 260919Z 27003KT 2SM BR FEW092 01/ RMK AC2

CYWG;2007-03-26 09:35;CYWG 260935Z 30004KT 4SM BR FEW092 00/ RMK AC2

CYWG;2007-03-26 10:00;CYWG 261000Z 28007KT 6SM BR SCT100 01/00 A2971 RMK AC2 SLP071

CYWG;2007-03-26 11:00;CYWG 261100Z 33010KT 12SM FEW100 02/01 A2974 RMK AC1 PRESRR SLP081

CYWG;2007-03-26 12:00;CYWG 261200Z 32008KT 15SM BKN092 03/01 A2979 RMK AC6 SLP098

CYWG;2007-03-26 13:00;CYWG 261300Z 34012KT 15SM SCT076 BKN092 03/01 A2983 RMK AC4AC3 PRESRR SLP111

CYWG;2007-03-26 14:00;CYWG 261400Z CCA 34013KT 15SM -RA BKN076 BKN095 03/01 A2985 RMK AC6AC2 RA VRY LGT SLP118

CYWG;2007-03-26 14:24;CYWG 261424Z 36010KT 3SM -RA BR BKN018 OVC076 03/ RMK SC5AC3

CYWG;2007-03-26 15:00;CYWG 261500Z 02006KT 6SM -RA SCT015 OVC076 04/03 A2986 RMK SC4AC4 SLP122

CYWG;2007-03-26 15:34;CYWG 261534Z 35002KT 12SM SCT023 BKN060 03/ RMK SC3SC4

CYWG;2007-03-26 16:00;CYWG 261600Z 36003KT 15SM BKN035 BKN060 03/02 A2990 RMK SC5SC2 SLP133

CYWG;2007-03-26 17:00;CYWG 261700Z 31007KT 15SM FEW035 FEW055 SCT076 BKN250 04/03 A2994 RMK SC1SC2AC1CI1 PRESRR SLP148

CYWG;2007-03-26 18:00;CYWG 261800Z 33009KT 15SM FEW030 FEW091 BKN250 06/03 A2995 RMK SC1AC1CI2 SLP153

CYWG;2007-03-26 19:00;CYWG 261900Z 33013KT 15SM FEW030 FEW091 FEW250 06/03 A2997 RMK SC1AC1CI1 TR SC SLP159

CYWG;2007-03-26 20:00;CYWG 262000Z 32012KT 15SM FEW030 FEW091 FEW250 06/02 A2999 RMK SC1AC1CI1 TR SC TR CI SLP166

CYWG;2007-03-26 21:00;CYWG 262100Z 33014G21KT 15SM FEW030 FEW091 FEW250 06/02 A3003 RMK SC1AC1CI1 TR CLD ALL LYRS SLP180

CYWG;2007-03-26 22:00;CYWG 262200Z 31010KT 15SM FEW030 FEW250 05/02 A3006 RMK SC1CI0 SLP191

CYWG;2007-03-26 23:00;CYWG 262300Z 30010KT 15SM FEW030 FEW250 05/02 A3009 RMK SC1CI1 TR CI SLP200

CYWG;2007-03-27 00:00;CYWG 270000Z 31007KT 15SM FEW030 FEW250 04/01 A3011 RMK SC1CI1 TR CI SLP207

CYWG;2007-03-27 01:00;CYWG 270100Z 32005KT 15SM FEW030 01/M00 A3013 RMK SC1 TR SC SLP215

CYWG;2007-03-27 02:00;CYWG 270200Z 33006KT 15SM FEW030 M01/M02 A3016 RMK SC1 SLP225

CYWG;2007-03-27 03:00;CYWG 270300Z 29005KT 15SM SKC M00/M02 A3019 RMK SLP235

CYWG;2007-03-27 04:00;CYWG 270400Z 34005KT 15SM SKC M00/M01 A3019 RMK SLP237

CYWG;2007-03-27 05:00;CYWG 270500Z 30005KT 15SM SKC M01/M03 A3022 RMK SLP244

CYWG;2007-03-27 06:00;CYWG 270600Z 32002KT 15SM SKC M02/M03 A3023 RMK SLP249

CYWG;2007-03-27 07:00;CYWG 270700Z 29002KT 15SM SKC M02/M03 A3024 RMK SLP253

CYWG;2007-03-27 08:00;CYWG 270800Z 30003KT 15SM SKC M03/M04 A3026 RMK SLP259

CYWG;2007-03-27 09:00;CYWG 270900Z 00000KT 15SM SKC M03/M04 A3026 RMK SLP261

CYWG;2007-03-27 10:00;CYWG 271000Z 02004KT 15SM SKC M03/M04 A3027 RMK FROIN SLP263

CYWG;2007-03-27 11:00;CYWG 271100Z 00000KT 15SM FEW097 M03/M03 A3029 RMK AC1 FROIN SLP271

CYWG;2007-03-27 12:00;CYWG 271200Z 10003KT 6SM BR FEW097 M02/M03 A3032 RMK AC1 FROIN SLP278

CYWG;2007-03-27 13:00;CYWG 271300Z 14002KT 8SM FEW250 M02/M02 A3033 RMK CI1 SLP282

CYWG;2007-03-27 14:00;CYWG 271400Z 11005KT 15SM BKN220 03/00 A3033 RMK CI2 OBS TKN +19 SLP284

CYWG;2007-03-27 15:00;CYWG 271500Z 13010KT 15SM BKN220 04/00 A3034 RMK CI2 SLP286

CYWG;2007-03-27 16:00;CYWG 271600Z 13010KT 15SM FEW025 BKN220 05/M00 A3035 RMK CF1CI2 SLP289

CYWG;2007-03-27 17:00;CYWG 271700Z 12007KT 15SM FEW025 FEW080 BKN220 05/00 A3036 RMK CF1AC2CI1 SLP292

CYWG;2007-03-27 18:00;CYWG 271800Z 13008KT 15SM FEW025 FEW080 BKN220 07/01 A3035 RMK CF1AC2CI2 SLP289

CYWG;2007-03-27 19:00;CYWG 271900Z 13012KT 15SM FEW025 FEW080 BKN220 07/02 A3033 RMK CF1AC2CI2 SLP283

CYWG;2007-03-27 20:00;CYWG 272000Z 10010KT 15SM FEW080 BKN220 08/01 A3031 RMK AC2CI3 SLP277

CYWG;2007-03-27 21:00;CYWG 272100Z 11016KT 15SM FEW080 BKN220 08/00 A3029 RMK AC2CI3 SLP269

CYWG;2007-03-27 22:00;CYWG 272200Z 10016G25KT 15SM SCT080 BKN220 09/M03 A3028 RMK AC3CI2 SLP265

CYWG;2007-03-27 23:00;CYWG 272300Z 11015G21KT 15SM FEW080 BKN220 09/M01 A3028 RMK AC2CI2 SLP264

CYWG;2007-03-28 01:00;CYWG 280100Z 09016KT 15SM SCT120 BKN220 06/M04 A3024 RMK AC4CI2 SLP253

CYWG;2007-03-28 02:00;CYWG 280200Z 10014KT 15SM SCT120 BKN220 06/M03 A3025 RMK AC4CI2 SLP255

CYWG;2007-03-28 03:00;CYWG 280300Z 11017KT 15SM SCT120 BKN220 06/M04 A3023 RMK AC3CI2 SLP248

CYWG;2007-03-28 04:00;CYWG 280400Z 11016KT 15SM BKN120 BKN220 05/M04 A3023 RMK AC5CI1 SLP248

CYWG;2007-03-28 05:00;CYWG 280500Z 10015KT 15SM FEW120 FEW220 04/M04 A3023 RMK AC2CI0 SLP246

CYWG;2007-03-28 06:00;CYWG 280600Z 11016G22KT 15SM BKN120 BKN220 05/M04 A3022 RMK AC5CI0 SLP244

CYWG;2007-03-28 07:00;CYWG 280700Z 12013KT 15SM BKN120 04/M04 A3022 RMK AC7 SLP242

CYWG;2007-03-28 08:00;CYWG 280800Z 11017KT 15SM BKN120 05/M04 A3019 RMK AC7 SLP233

CYWG;2007-03-28 09:00;CYWG 280900Z 13018G24KT 15SM SCT049 OVC100 05/M03 A3018 RMK SC3AC5 SLP227

CYWG;2007-03-28 10:00;CYWG 281000Z 13014G26KT 15SM SCT025 OVC044 05/M04 A3019 RMK SC4SC4 SLP230

CYWG;2007-03-28 11:00;CYWG 281100Z 13017KT 15SM OVC029 05/M03 A3018 RMK SC8 SLP228

CYWG;2007-03-28 12:00;CYWG 281200Z 14019G25KT 15SM OVC031 04/M02 A3018 RMK SC8 SLP229

CYWG;2007-03-28 13:00;CYWG 281300Z 13019G24KT 15SM OVC035 03/M01 A3017 RMK SC8 SLP226

CYWG;2007-03-28 13:21;CYWG 281321Z 13020G25KT 15SM -RA OVC033 03/ RMK SC8

CYWG;2007-03-28 14:00;CYWG 281400Z 13018G25KT 12SM -RA OVC028 03/00 A3017 RMK SC8 SLP225

CYWG;2007-03-28 14:18;CYWG 281418Z 12019G26KT 2 1/2SM -RA BR OVC028 02/ RMK SC8

CYWG;2007-03-28 14:40;CYWG 281440Z 13019G24KT 6SM -RA BR OVC028 RMK SC8

CYWG;2007-03-28 15:00;CYWG 281500Z 13017G26KT 12SM -RA OVC026 02/01 A3016 RMK SC8 SLP222

CYWG;2007-03-28 16:00;CYWG 281600Z 14017G22KT 15SM -RA OVC026 03/01 A3015 RMK SC8 SLP221

CYWG;2007-03-28 17:00;CYWG 281700Z 14020G25KT 12SM -RA BKN021 OVC066 04/01 A3014 RMK SC6AC2 SLP218

CYWG;2007-03-28 18:00;CYWG 281800Z 13020G28KT 12SM -RA BKN023 OVC070 04/02 A3013 RMK SC6AC2 SLP212

CYWG;2007-03-28 19:00;CYWG 281900Z 14017G22KT 12SM -RA BKN021 OVC098 04/03 A3013 RMK SC6AC2 SLP213

CYWG;2007-03-28 20:00;CYWG 282000Z 13016KT 15SM -RA OVC019 05/03 A3011 RMK SC8 SLP205

CYWG;2007-03-28 20:15;CYWG 282015Z 14017KT 15SM OVC019 05/ RMK SC8

CYWG;2007-03-28 21:00;CYWG 282100Z 14016KT 15SM OVC019 06/04 A3009 RMK SC8 SLP198

CYWG;2007-03-28 22:00;CYWG 282200Z 15016G21KT 15SM OVC019 06/03 A3010 RMK SC8 SLP201

CYWG;2007-03-28 23:00;CYWG 282300Z 15020G26KT 15SM OVC019 07/03 A3009 RMK SC8 SLP197

CYWG;2007-03-29 00:00;CYWG 290000Z 15017KT 15SM OVC017 06/03 A3010 RMK SC8 SLP203

CYWG;2007-03-29 01:00;CYWG 290100Z 16016G21KT 12SM OVC015 06/03 A3010 RMK SC8 SLP203

CYWG;2007-03-29 01:29;CYWG 290129Z 15016KT 12SM OVC013 05/ RMK SC8

CYWG;2007-03-29 02:00;CYWG 290200Z 15016G25KT 15SM OVC011 05/03 A3009 RMK SC8 SLP201

CYWG;2007-03-29 02:38;CYWG 290238Z 15015G21KT 15SM -RA OVC009 05/ RMK SC8

CYWG;2007-03-29 03:00;CYWG 290300Z 15013KT 15SM OVC009 04/03 A3011 RMK SC8 INTMT -RA SLP206

CYWG;2007-03-29 03:18;CYWG 290318Z 15013KT 15SM OVC009 04/ RMK SC8

CYWG;2007-03-29 04:00;CYWG 290400Z 15009KT 15SM OVC010 04/03 A3012 RMK SC8 SLP212

CYWG;2007-03-29 04:36;CYWG 290436Z 15008KT 8SM -SHRA OVC010 04/ RMK SC8 CVCTV CLD EMBD

CYWG;2007-03-29 05:00;CYWG 290500Z 16004KT 10SM -SHRA OVC008 04/03 A3015 RMK SC8 CVCTV CLD EMBD SLP219

CYWG;2007-03-29 05:36;CYWG 290536Z 14007KT 2 1/2SM -RA BR OVC007 RMK SC8

CYWG;2007-03-29 06:00;CYWG 290600Z 13005KT 2 1/2SM -RA BR BKN004 OVC007 04/03 A3012 RMK SF5SC3 SLP212

CYWG;2007-03-29 06:17;CYWG 290617Z 12005KT 5SM -RA BR OVC004 04/ RMK ST8

CYWG;2007-03-29 06:40;CYWG 290640Z 11003KT 4SM -RA BR OVC005 04/ RMK ST8

CYWG;2007-03-29 07:00;CYWG 290700Z 29007KT 1SM R13/P6000FT/U R36/P6000FT/U +SHRA BR OVC005 04/03 A3021 RMK ST8 CVCTV CLD EMBD PRESRR SLP239

CYWG;2007-03-29 07:11;CYWG 290711Z 30006KT 1 1/2SM SHRA BR OVC003 03/ RERA RMK ST8 CVCTV CLD EMBDD

CYWG;2007-03-29 07:27;CYWG 290727Z 01002KT 1 1/2SM SHRA BR OVC001 03/ RERA RMK ST8 CVCTV CLD EMBD

CYWG;2007-03-29 07:47;CYWG 290747Z 05006KT 1 1/4SM SHRA BR BKN002 OVC010 03/ RERA RMK SF5ST3 CVCTV CLD EMBD

CYWG;2007-03-29 08:00;CYWG 290800Z 06002KT 1 1/4SM SHRA BR BKN002 OVC012 03/03 A3018 RMK SF5ST3 CVCTV CLD EMBD /R11/ SLP231

CYWG;2007-03-29 08:52;CYWG 290852Z 18002KT 2 1/2SM -SHRA BR BKN002 OVC010 03/ RERA RMK SF5ST3 CVCTV CLD EMBD

CYWG;2007-03-29 09:00;CYWG 290900Z 20002KT 4SM -RA BR SCT002 BKN005 OVC010 03/03 A3019 RERA RMK SF3SF2ST2 SLP234

CYWG;2007-03-29 09:41;CYWG 290941Z 34004KT 2SM -RA BR BKN005 OVC015 03/ RMK SF6SC2

CYWG;2007-03-29 10:00;CYWG 291000Z 33006KT 3/4SM R13/P6000FT/D R36/P6000FT/D -RA BR OVC006 03/02 A3022 RMK FG2SF6 SLP243

CYWG;2007-03-29 10:12;CYWG 291012Z 34010KT 5/8SM R13/P6000FT/U R36/P6000FT/N -RA BR VV001 03/ RMK FG8

CYWG;2007-03-29 10:18;CYWG 291018Z 33010KT 3/4SM R13/P6000FT/U R36/P6000FT/U -RA BR OVC002 03/ RMK FG6SF2

CYWG;2007-03-29 10:21;CYWG 291021Z 33010KT 1 1/2SM -RA BR OVC002 03/ RMK SF8

CYWG;2007-03-29 10:44;CYWG 291044Z 34013KT 2 1/2SM -RA BR OVC002 02/ RMK SF8

CYWG;2007-03-29 11:00;CYWG 291100Z 35015KT 5SM -RA BR OVC004 02/02 A3024 RMK SF8 SLP250

CYWG;2007-03-29 11:41;CYWG 291141Z 36013G20KT 8SM -RA BKN007 OVC035 01/ RMK SF6SC2

CYWG;2007-03-29 12:00;CYWG 291200Z CCA 36013G20KT 6SM -RAPL BKN009 OVC040 01/00 A3031 RMK SF6SC2 PRESRR SLP274

CYWG;2007-03-29 12:35;CYWG 291235Z 36013KT 4SM -RASN BKN009 OVC040 01/ RMK SF7SC1 PRESRR

CYWG;2007-03-29 12:46;CYWG 291246Z 36011KT 2 1/2SM -SN OVC010 01/ RMK SF8

CYWG;2007-03-29 13:00;CYWG 291300Z 01012KT 1 1/2SM -SN OVC010 01/M00 A3035 RMK SF8 SLP290

CYWG;2007-03-29 13:13;CYWG 291313Z 01010KT 3/4SM R13/P6000FT/D R36/P6000FT/D -SN VV005 01/ RMK SN8

CYWG;2007-03-29 13:35;CYWG 291335Z 01012KT 1SM R13/P6000FT/U R36/P6000FT/U -SN OVC009 RMK SN3SF5

CYWG;2007-03-29 14:00;CYWG 291400Z 01012KT 5SM -SN OVC010 01/M00 A3038 RMK SF8 SLP297

CYWG;2007-03-29 14:26;CYWG 291426Z 01012G19KT 12SM OVC012 01/ RMK SF8

CYWG;2007-03-29 15:00;CYWG 291500Z 01018KT 15SM OVC012 01/M00 A3040 RMK SF8 SLP306

CYWG;2007-03-29 16:00;CYWG 291600Z 36015G20KT 15SM OVC010 01/M00 A3045 RMK SF8 SLP323

CYWG;2007-03-29 17:00;CYWG 291700Z 36015KT 15SM OVC010 01/M01 A3051 RMK SF8 PRESRR SLP342

CYWG;2007-03-29 18:00;CYWG 291800Z 01023G29KT 15SM OVC010 01/M01 A3049 RMK SF7 SLP338

CYWG;2007-03-29 19:00;CYWG 291900Z 02018KT 15SM OVC010 01/M02 A3057 RMK SC8 SLP362

CYWG;2007-03-29 20:00;CYWG 292000Z 02018KT 15SM OVC010 00/M02 A3056 RMK SC8 SLP359

CYWG;2007-03-29 21:00;CYWG 292100Z 02019G24KT 15SM OVC012 00/M02 A3058 RMK SC8 SLP367

CYWG;2007-03-29 22:00;CYWG 292200Z 03022KT 15SM BKN015 BKN110 01/M03 A3060 RMK SC5AC2 SLP374

CYWG;2007-03-29 23:00;CYWG 292300Z 03018G24KT 15SM SCT018 BKN086 BKN210 01/M02 A3061 RMK SC3AC2CI1 SLP377

CYWG;2007-03-30 00:00;CYWG 300000Z 02020G25KT 15SM FEW018 FEW080 BKN210 M00/M04 A3065 RMK SF1AC2CI2 PRESRR SLP393

CYWG;2007-03-30 01:00;CYWG 300100Z 02017G26KT 15SM FEW210 M01/M04 A3067 RMK CI2 SLP399

CYWG;2007-03-30 02:00;CYWG 300200Z 02017G26KT 15SM FEW210 M01/M04 A3070 RMK CI1 SLP409

CYWG;2007-03-30 03:00;CYWG 300300Z 03017G25KT 15SM FEW210 M02/M05 A3072 RMK CI1 SLP416

CYWG;2007-03-30 04:00;CYWG 300400Z 04017KT 15SM BKN210 M02/M05 A3071 RMK CI2 SLP414

CYWG;2007-03-30 05:00;CYWG 300500Z 04014KT 15SM SCT210 M03/M05 A3071 RMK CI1 SLP412

CYWG;2007-03-30 06:00;CYWG 300600Z 05011KT 15SM FEW210 M03/M06 A3070 RMK CI0 SLP410

CYWG;2007-03-30 07:00;CYWG 300700Z 06010KT 15SM BKN220 M03/M06 A3070 RMK CS2 SLP410

CYWG;2007-03-30 08:00;CYWG 300800Z 07009KT 15SM BKN220 M03/M06 A3067 RMK CS2 SLP402

CYWG;2007-03-30 09:00;CYWG 300900Z 08009KT 15SM BKN240 M04/M07 A3062 RMK CI2 SLP385

CYWG;2007-03-30 10:00;CYWG 301000Z 07009KT 15SM FEW100 SCT240 M04/M07 A3060 RMK AC1CI1 SLP377

CYWG;2007-03-30 11:00;CYWG 301100Z 08008KT 15SM FEW100 SCT240 M05/M07 A3058 RMK AC1CI1 SLP372

CYWG;2007-03-30 12:00;CYWG 301200Z 10008KT 15SM FEW088 SCT240 M05/M08 A3058 RMK AC1CI1 SLP369

CYWG;2007-03-30 13:00;CYWG 301300Z 10013KT 15SM FEW110 BKN240 M04/M08 A3055 RMK AC1CI1 SLP361

CYWG;2007-03-30 14:00;CYWG 301400Z 11011KT 15SM FEW110 OVC240 M03/M07 A3053 RMK AC1CI2 SLP354

CYWG;2007-03-30 15:00;CYWG 301500Z 09011KT 15SM FEW098 BKN240 M02/M07 A3050 RMK AC1CI2 SLP344

CYWG;2007-03-30 16:00;CYWG 301600Z 10011KT 15SM FEW093 BKN240 M01/M07 A3047 RMK AC2CI1 SLP332

CYWG;2007-03-30 17:00;CYWG 301700Z 10009KT 15SM FEW100 BKN240 01/M06 A3044 RMK AC1CI1 SLP323

CYWG;2007-03-30 18:00;CYWG 301800Z 10010KT 15SM FEW100 BKN240 03/M06 A3040 RMK AC1CI1 PRESFR SLP309

CYWG;2007-03-30 19:00;CYWG 301900Z 08008KT 15SM FEW100 BKN240 04/M05 A3038 RMK AC1CI1 SLP301

CYWG;2007-03-30 20:00;CYWG 302000Z 09009KT 15SM FEW100 BKN240 06/M05 A3034 RMK AC1CI2 SLP288

CYWG;2007-03-30 21:00;CYWG 302100Z 11008KT 15SM FEW020 FEW080 BKN210 BKN240 07/M05 A3030 RMK SC1AC1CS2CI1 SLP274

CYWG;2007-03-30 22:00;CYWG 302200Z 08008KT 15SM SCT080 BKN210 BKN240 07/M05 A3027 RMK AC3CS1CI1 SLP263

CYWG;2007-03-30 23:00;CYWG 302300Z 10007KT 15SM BKN034 07/M03 A3025 RMK SC7 SLP256

CYWG;2007-03-31 00:00;CYWG 310000Z 18009KT 15SM BKN038 06/M01 A3023 RMK SC7 SLP250

CYWG;2007-03-31 01:00;CYWG 310100Z 17005KT 15SM BKN035 04/M00 A3021 RMK SC7 SLP243

CYWG;2007-03-31 01:13;CYWG 310113Z 14007KT 15SM -RA BKN033 04/ RMK SC7

CYWG;2007-03-31 02:00;CYWG 310200Z 16007KT 15SM -RA OVC030 03/M00 A3022 RMK SC8 SLP247

CYWG;2007-03-31 03:00;CYWG 310300Z 18011KT 15SM -RA OVC032 03/00 A3024 RMK SC8 SLP253

CYWG;2007-03-31 03:55;CYWG 310355Z 13004KT 6SM -RAPL BR OVC026 01/ RMK SC8

CYWG;2007-03-31 04:00;CYWG 310400Z 12004KT 6SM PLRA BR OVC026 01/M00 A3021 RMK SC8 SLP243

CYWG;2007-03-31 04:27;CYWG 310427Z 12005KT 5SM RA BR OVC019 01/ RMK SC8

CYWG;2007-03-31 05:00;CYWG 310500Z 13008KT 8SM -RA FEW008 OVC020 01/M00 A3019 RERA RMK SF1SC8 SLP235

CYWG;2007-03-31 05:14;CYWG 310514Z 12008KT 8SM -RAPL FEW008 BKN017 OVC032 01/ RMK SF1SC6SC2

CYWG;2007-03-31 05:35;CYWG 310535Z 13008KT 10SM -RA FEW008 BKN019 OVC040 RMK SF1SC6SC2

CYWG;2007-03-31 06:00;CYWG 310600Z 11006KT 15SM -RA BKN009 OVC020 01/00 A3015 RMK SF5SC3 SLP221

CYWG;2007-03-31 06:21;CYWG 310621Z 12008KT 15SM BKN009 OVC020 01/ RMK ST6SC2

CYWG;2007-03-31 07:00;CYWG 310700Z 12008KT 15SM OVC011 01/M00 A3012 RMK ST8 SLP210

CYWG;2007-03-31 07:21;CYWG 310721Z 13009KT 15SM FEW005 OVC009 01/ RMK SF1ST8

CYWG;2007-03-31 08:00;CYWG 310800Z 14008KT 15SM OVC008 01/M00 A3010 RMK ST8 SLP204

CYWG;2007-03-31 09:00;CYWG 310900Z 15007KT 8SM OVC005 01/M00 A3009 RMK ST8 SLP201

CYWG;2007-03-31 09:46;CYWG 310946Z 17007KT 8SM OVC004 01/ RMK ST8

CYWG;2007-03-31 10:00;CYWG 311000Z 17007KT 8SM OVC004 01/00 A3008 RMK ST8 CIG LWR NW SLP195

CYWG;2007-03-31 10:15;CYWG 311015Z 16005KT 6SM BR OVC003 01/ RMK ST8

CYWG;2007-03-31 10:28;CYWG 311028Z 17004KT 6SM BR OVC002 01/ RMK ST8

CYWG;2007-03-31 10:40;CYWG 311040Z 17003KT 2SM BR OVC002 01/ RMK ST8

CYWG;2007-03-31 11:00;CYWG 311100Z 17004KT 1SM R13/P6000FT/D R36/P6000FT/D BR OVC001 01/00 A3006 RMK FG3ST5 SLP188

CYWG;2007-03-31 11:36;CYWG 311136Z 15004KT 1/2SM R13/4000FT/N R36/4500FT/N FG OVC001 01/ RMK FG6ST2

CYWG;2007-03-31 12:00;CYWG 311200Z 14005KT 3/8SM R13/3000FT/N R36/3500FT/N FG VV001 01/01 A3004 RMK FG8 SLP182

CYWG;2007-03-31 13:00;CYWG 311300Z 12005KT 3/8SM R13/3500V5500FT/N R36/3500FT/N FG VV001 01/01 A3003 RMK FG8 SLP179

CYWG;2007-03-31 14:00;CYWG 311400Z 12007KT 1SM R13/P6000FT/U R36/3500VP6000FT/U BR OVC001 01/01 A3002 RMK FG2ST6 SLP177

CYWG;2007-03-31 14:27;CYWG 311427Z 12007KT 1 1/2SM BR OVC002 01/ RMK ST8

CYWG;2007-03-31 15:00;CYWG 311500Z 12008KT 3SM BR OVC002 01/01 A3001 RMK ST8 SLP174

CYWG;2007-03-31 15:42;CYWG 311542Z 11005KT 10SM OVC004 02/ RMK ST8

CYWG;2007-03-31 16:00;CYWG 311600Z 10003KT 10SM OVC004 02/01 A2999 RMK ST8 SLP166

CYWG;2007-03-31 16:23;CYWG 311623Z 09003KT 12SM OVC005 02/ RMK SC8

CYWG;2007-03-31 17:00;CYWG 311700Z 11004KT 15SM OVC008 03/01 A2998 RMK SC8 SLP164

CYWG;2007-03-31 18:00;CYWG 311800Z 10005KT 12SM OVC009 03/01 A2996 RMK SC8 SLP156

CYWG;2007-03-31 19:00;CYWG 311900Z 08006KT 12SM OVC010 03/01 A2993 RMK SC8 SLP148

CYWG;2007-03-31 19:31;CYWG 311931Z 06006KT 12SM OVC008 03/ RMK SC8

CYWG;2007-03-31 20:00;CYWG 312000Z 06006KT 12SM OVC009 03/02 A2990 RMK SC8 SLP138

CYWG;2007-03-31 21:00;CYWG 312100Z 03010KT 12SM OVC009 04/02 A2987 RMK SC8 SLP126

CYWG;2007-03-31 21:20;CYWG 312120Z 05011KT 12SM OVC010 04/ RMK SC8

CYWG;2007-03-31 22:00;CYWG 312200Z 05009KT 12SM OVC009 04/02 A2984 RMK SC8 SLP117

CYWG;2007-03-31 23:00;CYWG 312300Z 06011KT 12SM OVC009 04/02 A2983 RMK SC8 SLP112

CYWG;2007-04-01 05:00;CYWG 010500Z 01009KT 12SM -RA FEW010 OVC019 02/01 A2970 RMK SC2SC6 SLP068

CYWG;2007-04-01 06:00;CYWG 010600Z 03010KT 12SM -RA FEW010 OVC019 02/01 A2967 RMK SC1SC7 SLP057

CYWG;2007-04-01 07:00;CYWG 010700Z 02010KT 6SM -RA BR SCT005 OVC017 01/01 A2965 RMK SF3SC5 SLP051

CYWG;2007-04-01 08:00;CYWG 010800Z 01012KT 6SM -RA BR SCT006 OVC015 01/01 A2963 RMK SF3SC5 SLP044

CYWG;2007-04-01 09:00;CYWG 010900Z 01014KT 6SM -RA BR SCT005 OVC014 01/01 A2960 RMK SF3SC5 SLP033

CYWG;2007-04-01 09:34;CYWG 010934Z 01013G18KT 6SM -RA BR BKN005 OVC013 01/ RMK SF6SC2

CYWG;2007-04-01 09:51;CYWG 010951Z 02012G17KT 6SM -RA BR OVC004 01/ RMK SF8

CYWG;2007-04-01 10:00;CYWG 011000Z 01014KT 6SM -RAPL BR BKN004 OVC012 01/01 A2958 RMK SF7SC1 SLP028

CYWG;2007-04-01 11:00;CYWG 011100Z CCA 02014KT 6SM -RASN BR BKN004 OVC017 01/00 A2957 RMK SF7SC1 SLP024

CYWG;2007-04-01 11:42;CYWG 011142Z 01011KT 2SM -SN BKN003 OVC013 01/ RMK SF7SC1

CYWG;2007-04-01 12:00;CYWG 011200Z 01010KT 2SM -SN OVC003 00/00 A2956 RMK SF8 SLP020

CYWG;2007-04-01 13:00;CYWG 011300Z 36012KT 2SM -SN OVC003 00/M00 A2955 RMK SF8 SLP016

CYWG;2007-04-01 14:00;CYWG 011400Z 34011KT 1 1/2SM -SN OVC003 00/M00 A2954 RMK SF8 SLP012

CYWG;2007-04-01 15:00;CYWG 011500Z 35010KT 2SM -SN OVC004 01/00 A2952 RMK SF8 SLP008

CYWG;2007-04-01 16:00;CYWG 011600Z 34012KT 8SM -SN BKN006 OVC017 01/00 A2953 RMK SF6SC2 SLP009

CYWG;2007-04-01 17:00;CYWG 011700Z 34011KT 10SM -SN OVC007 01/00 A2953 RMK SF8 SLP010

CYWG;2007-04-01 18:00;CYWG 011800Z 35011KT 6SM -SN OVC008 OVC040 01/01 A2953 RMK SF7SC1 SLP011

CYWG;2007-04-01 19:00;CYWG 011900Z 34010KT 5SM -SN OVC006 01/01 A2954 RMK SF8 SLP012

CYWG;2007-04-01 19:46;CYWG 011946Z 33014KT 10SM -RA BKN007 OVC020 03/ RMK SF6SC2

CYWG;2007-04-01 20:00;CYWG 012000Z 34017KT 10SM -RA BKN007 OVC020 03/02 A2954 RMK SF6SC2 SLP013

CYWG;2007-04-01 20:30;CYWG 012030Z 33017KT 10SM -RA BKN011 BKN028 OVC044 03/ RMK SF6SC1SC1

CYWG;2007-04-01 21:00;CYWG 012100Z 33018KT 10SM -RA BKN013 OVC044 03/01 A2955 RMK SF7SC1 SLP018

CYWG;2007-04-01 22:00;CYWG 012200Z 33016G21KT 15SM BKN014 OVC082 03/01 A2957 RMK SC7AC1 SLP025

CYWG;2007-04-01 23:00;CYWG 012300Z 33018G24KT 15SM BKN014 OVC082 03/01 A2961 RMK SC7AC1 SLP035

CYWG;2007-04-01 23:14;CYWG 012314Z 33019KT 15SM BKN020 OVC071 03/ RMK SC7AC1

CYWG;2007-04-02 00:00;CYWG 020000Z 34022KT 15SM BKN026 BKN051 OVC071 02/00 A2963 RMK SC5SC2AC1 SLP045

CYWG;2007-04-02 01:00;CYWG 020100Z 34018G25KT 15SM BKN018 OVC051 02/M00 A2967 RMK SC7SC1 SLP056

CYWG;2007-04-02 02:00;CYWG 020200Z 34018KT 15SM BKN014 OVC051 01/M01 A2969 RMK SF3SC5 SLP065

CYWG;2007-04-02 03:00;CYWG 020300Z 34020G28KT 15SM SCT015 BKN030 OVC051 00/M02 A2973 RMK SF3SC3SC2 SLP080

CYWG;2007-04-02 04:00;CYWG 020400Z 33023G29KT 15SM BKN009 OVC018 M00/M02 A2974 RMK SF6SC2 SLP084

CYWG;2007-04-02 04:31;CYWG 020431Z 34020G26KT 15SM BKN010 OVC018 M01/ RMK SF6SC2

CYWG;2007-04-02 05:00;CYWG 020500Z 33021G28KT 15SM OVC010 M01/M03 A2978 RMK SF8 SLP095

CYWG;2007-04-02 05:21;CYWG 020521Z 32019G28KT 15SM OVC008 M02/ RMK SF8

CYWG;2007-04-02 06:00;CYWG 020600Z 33019G28KT 15SM OVC010 M02/M04 A2980 RMK SF8 SLP105

CYWG;2007-04-02 07:00;CYWG 020700Z 34021G26KT 15SM OVC010 M02/M05 A2983 RMK SF8 SLP113

CYWG;2007-04-02 08:00;CYWG 020800Z 33019G24KT 15SM OVC010 M03/M05 A2986 RMK SF8 SLP122

CYWG;2007-04-02 09:00;CYWG 020900Z 33024G29KT 15SM OVC010 M03/M05 A2989 RMK SF8 SLP133

CYWG;2007-04-02 10:00;CYWG 021000Z 33022KT 15SM SCT010 OVC014 M03/M06 A2990 RMK SF3SC5 SLP138

CYWG;2007-04-02 11:00;CYWG 021100Z 35020KT 15SM OVC014 M03/M07 A2993 RMK SC8 SLP146

CYWG;2007-04-02 11:24;CYWG 021124Z 34019G24KT 15SM OVC017 M04/ RMK SC8

CYWG;2007-04-02 12:00;CYWG 021200Z 34019G25KT 15SM OVC019 M04/M08 A2996 RMK SC8 SLP157

CYWG;2007-04-02 13:00;CYWG 021300Z 34017G22KT 10SM -SN OVC019 M05/M09 A2997 RMK SC8 SLP163

CYWG;2007-04-02 14:00;CYWG 021400Z 34016G21KT 3SM -SN OVC019 M06/M09 A3000 RMK SC8 SLP173

CYWG;2007-04-02 15:00;CYWG 021500Z 34018KT 5SM -SN OVC017 M06/M10 A3002 RMK SC7 SLP181

CYWG;2007-04-02 16:00;CYWG 021600Z 34016KT 6SM -SN OVC017 M06/M10 A3004 RMK SC7 SLP188

CYWG;2007-04-02 17:00;CYWG 021700Z 34013G18KT 10SM -SN OVC017 M05/M09 A3005 RMK SC7 SLP191

CYWG;2007-04-02 18:00;CYWG 021800Z 01012KT 12SM -SN BKN021 BKN095 M05/M10 A3007 RMK SC5AC2 SLP197

CYWG;2007-04-02 19:00;CYWG 021900Z 01014KT 12SM -SN OVC024 M05/M10 A3008 RMK SC8 SLP200

CYWG;2007-04-02 20:00;CYWG 022000Z 36013KT 10SM -SN OVC024 M04/M09 A3008 RMK SC8 SLP202

CYWG;2007-04-02 21:00;CYWG 022100Z 02012KT 10SM -SN OVC024 M05/M10 A3010 RMK SC8 SLP208

CYWG;2007-04-02 22:00;CYWG 022200Z 36011G16KT 10SM -SN OVC026 M04/M10 A3014 RMK SC8 SLP221

CYWG;2007-04-02 23:00;CYWG 022300Z 35013KT 10SM -SN OVC024 M05/M10 A3014 RMK SC8 SLP222

CYWG;2007-04-02 23:50;CYWG 022350Z 36013KT 10SM -SN OVC024 M06/ RMK SN2SC6 VIS 4 NW-E

CYWG;2007-04-03 00:00;CYWG 030000Z 03016KT 4SM -SN OVC019 M06/M09 A3017 RMK SN2SC6 SLP234

CYWG;2007-04-03 01:00;CYWG 030100Z 01015KT 10SM -SN OVC021 M06/M11 A3019 RMK SC8 SLP240

CYWG;2007-04-03 02:00;CYWG 030200Z 01017G22KT 10SM -SN OVC025 M07/M11 A3022 RMK SC8 SLP251

CYWG;2007-04-03 03:00;CYWG 030300Z 36015G20KT 15SM OVC025 M07/M12 A3024 RMK SC7 SLP259

CYWG;2007-04-03 03:53;CYWG 030353Z 01017KT 15SM -SN OVC025 M07/ RMK SC7

CYWG;2007-04-03 04:00;CYWG 030400Z 01017KT 15SM -SN OVC025 M07/M12 A3025 RMK SC7 SLP262

CYWG;2007-04-03 05:00;CYWG 030500Z 01016KT 8SM -SN OVC021 M08/M11 A3025 RMK SC8 SLP263

CYWG;2007-04-03 05:33;CYWG 030533Z 04021KT 15SM OVC017 M08/ RMK SC8

CYWG;2007-04-03 05:46;CYWG 030546Z 03017G24KT 8SM -SN OVC017 M08/ RMK SC7

CYWG;2007-04-03 06:00;CYWG 030600Z 03018KT 15SM BKN017 OVC100 M08/M14 A3027 RMK SC6AS1 SLP269

CYWG;2007-04-03 07:00;CYWG 030700Z 02021G26KT 15SM -SN BKN013 OVC100 M09/M13 A3028 RMK SC6AS2 SLP272

CYWG;2007-04-03 08:00;CYWG 030800Z 03020KT 10SM -SN BKN016 OVC100 M10/M13 A3030 RMK SC7AS1 SLP278

CYWG;2007-04-03 08:35;CYWG 030835Z 03016G24KT 10SM -SN OVC013 M11/ RMK SC8

CYWG;2007-04-03 09:00;CYWG 030900Z 02019KT 10SM -SN BKN011 OVC016 M11/M15 A3031 RMK SC6SC2 SLP281

CYWG;2007-04-03 09:32;CYWG 030932Z 02020G25KT 10SM -SN OVC016 M11/ RMK SC8

CYWG;2007-04-03 10:00;CYWG 031000Z 01018G24KT 10SM -SN OVC016 M11/M14 A3031 RMK SC7 SLP282

CYWG;2007-04-03 10:23;CYWG 031023Z 02018KT 15SM OVC016 M11/ RMK SC7

CYWG;2007-04-03 11:00;CYWG 031100Z 02020G25KT 15SM OVC016 M12/M14 A3032 RMK SC7 SLP284

CYWG;2007-04-03 11:21;CYWG 031121Z 02022KT 10SM -SHSN OVC016 M12/ RMK SC7

CYWG;2007-04-03 12:00;CYWG 031200Z 03022G27KT 10SM -SHSN BKN010 OVC025 M12/M15 A3034 RMK ST5SC2 SLP292

CYWG;2007-04-03 13:00;CYWG 031300Z 03016G26KT 10SM -SHSN BKN015 OVC035 M12/M15 A3037 RMK SC6SC2 SLP303

CYWG;2007-04-03 14:00;CYWG 031400Z 02019G26KT 10SM -SHSN BKN017 M12/M15 A3038 RMK SC7 VSBY NW 6 SLP306

CYWG;2007-04-03 14:45;CYWG 031445Z 36019G25KT 5SM -SHSN BKN012 BKN035 M12/ RMK SC5SC2

CYWG;2007-04-03 15:00;CYWG 031500Z 36021KT 5SM -SN DRSN BKN012 M12/M15 A3038 RMK SC7 SLP309

CYWG;2007-04-03 16:00;CYWG 031600Z 02021G28KT 5SM -SHSN DRSN BKN010 BKN220 M11/M15 A3039 RMK SC6CI1 SLP311

CYWG;2007-04-03 16:36;CYWG 031636Z 01021G30KT 10SM -SHSN BKN019 BKN220 M11/ RMK SC6CI0

CYWG;2007-04-03 17:00;CYWG 031700Z 01025G30KT 12SM -SHSN BKN023 BKN096 BKN220 M10/M16 A3038 RMK SC5AC1CI0 SLP308

CYWG;2007-04-03 17:31;CYWG 031731Z 36019G25KT 10SM -SHSN BKN012 BKN096 M10/ RMK SC5AC1

CYWG;2007-04-03 18:00;CYWG 031800Z 01021G27KT 12SM -SHSN BKN016 BKN220 M10/M15 A3038 RMK SC6CI0 SLP307

CYWG;2007-04-03 19:00;CYWG 031900Z 03022G30KT 12SM -SHSN OVC017 M09/M15 A3037 RMK SC8 SLP304

CYWG;2007-04-03 19:45;CYWG 031945Z 03024G30KT 15SM BKN025 OVC220 RMK SC6CI2

CYWG;2007-04-03 20:00;CYWG 032000Z 03024G31KT 15SM BKN022 BKN220 M08/M15 A3037 RMK SC5CI2 SLP305

CYWG;2007-04-03 21:00;CYWG 032100Z 03026G31KT 15SM BKN025 M08/M14 A3037 RMK SC7 SLP305

CYWG;2007-04-03 22:00;CYWG 032200Z 03024G32KT 15SM OVC030 M08/M14 A3038 RMK SC8 SLP308

CYWG;2007-04-03 23:00;CYWG 032300Z 03022G32KT 15SM OVC030 M07/M13 A3040 RMK SC8 SLP313

CYWG;2007-04-04 00:00;CYWG 040000Z 03021G29KT 15SM BKN028 OVC073 M07/M13 A3041 RMK SC6AC2 SLP318

CYWG;2007-04-04 01:00;CYWG 040100Z 02021G27KT 15SM OVC028 M07/M13 A3042 RMK SC8 SLP322

CYWG;2007-04-04 02:00;CYWG 040200Z 03023G29KT 15SM BKN028 OVC076 M07/M13 A3045 RMK SC6AC2 SLP329

CYWG;2007-04-04 03:00;CYWG 040300Z 03025KT 12SM -SHSN OVC026 M07/M12 A3046 RMK SC8 SLP336

CYWG;2007-04-04 04:00;CYWG 040400Z 02017G22KT 6SM -SHSN OVC022 M08/M11 A3047 RMK SC7 VSBY NW-SW 1 SLP338

CYWG;2007-04-04 05:00;CYWG 040500Z 02022KT 15SM OVC025 M08/M14 A3048 RMK SC8 SLP343

CYWG;2007-04-04 06:00;CYWG 040600Z 03017G26KT 15SM BKN018 M09/M14 A3050 RMK SC6 SLP347

CYWG;2007-04-04 06:41;CYWG 040641Z 02015G25KT 12SM -SHSN OVC017 M10/ RMK SC7

CYWG;2007-04-04 07:00;CYWG 040700Z 01019G24KT 12SM -SHSN BKN017 M10/M14 A3051 RMK SC6 SLP352

CYWG;2007-04-04 07:34;CYWG 040734Z 02018G24KT 15SM BKN017 M11/ RMK SC6

CYWG;2007-04-04 08:00;CYWG 040800Z 01018G24KT 15SM BKN019 M11/M15 A3051 RMK SC6 SLP353

CYWG;2007-04-04 09:00;CYWG 040900Z 01020KT 15SM BKN015 M12/M15 A3052 RMK SC6 SLP357

CYWG;2007-04-04 10:00;CYWG 041000Z 01016G21KT 15SM BKN019 M12/M16 A3054 RMK SC6 SLP362

CYWG;2007-04-04 11:00;CYWG 041100Z 36015KT 15SM BKN019 M12/M16 A3056 RMK SC7 SLP368

CYWG;2007-04-04 12:00;CYWG 041200Z 01012G19KT 15SM BKN019 M13/M16 A3057 RMK SC7 SLP372

CYWG;2007-04-04 12:44;CYWG 041244Z 36017KT 8SM -SN BKN017 RMK SC6

CYWG;2007-04-04 13:00;CYWG 041300Z 01018KT 10SM -SN BKN017 M13/M16 A3059 RMK SC6 SLP379

CYWG;2007-04-04 14:00;CYWG 041400Z 02017KT 12SM -SN BKN013 M13/M16 A3061 RMK SC5 SLP384

CYWG;2007-04-04 14:14;CYWG 041414Z 01016KT 15SM SCT013 RMK SC2

CYWG;2007-04-04 15:00;CYWG 041500Z 36013G19KT 15SM FEW015 M11/M16 A3061 RMK SC2 SLP386

CYWG;2007-04-04 16:00;CYWG 041600Z 03018KT 15SM FEW015 M10/M15 A3061 RMK SC1 SLP385

CYWG;2007-04-04 17:00;CYWG 041700Z 01018KT 15SM SKC M08/M16 A3061 RMK SLP386

CYWG;2007-04-04 18:00;CYWG 041800Z 01018G24KT 15SM SKC M07/M16 A3061 RMK SLP384

CYWG;2007-04-04 19:00;CYWG 041900Z 03017KT 15SM FEW048 M06/M18 A3060 RMK SC1 TR SC DSTNT SW QUAD SLP381

CYWG;2007-04-04 20:00;CYWG 042000Z 02018KT 15SM FEW048 M06/M18 A3060 RMK SC1 TR SC DSTNT SW QUAD SLP382

CYWG;2007-04-04 21:00;CYWG 042100Z 02017KT 15SM FEW045 M05/M16 A3060 RMK SC1 TR SC DSTNT SW QUAD SLP380

CYWG;2007-04-04 22:00;CYWG 042200Z 03018KT 15SM FEW042 M05/M16 A3059 RMK SC1 TR SC DSTNT SW QUAD SLP378

CYWG;2007-04-04 23:00;CYWG 042300Z 03015KT 15SM SKC M05/M17 A3058 RMK SLP374

CYWG;2007-04-05 00:00;CYWG 050000Z 02017KT 15SM SKC M06/M17 A3058 RMK SLP376

CYWG;2007-04-05 01:00;CYWG 050100Z 03013KT 15SM SKC M07/M17 A3058 RMK SLP376

CYWG;2007-04-05 02:00;CYWG 050200Z 03013KT 15SM SKC M08/M18 A3060 RMK SLP381

CYWG;2007-04-05 03:00;CYWG 050300Z 01009KT 15SM SKC M09/M17 A3060 RMK SLP382

CYWG;2007-04-05 04:00;CYWG 050400Z 02011KT 15SM SKC M09/M18 A3060 RMK SLP384

CYWG;2007-04-05 05:00;CYWG 050500Z 01009KT 15SM SKC M10/M17 A3061 RMK SLP386

CYWG;2007-04-05 06:00;CYWG 050600Z 01008KT 15SM SKC M11/M18 A3062 RMK SLP388

CYWG;2007-04-05 07:00;CYWG 050700Z 01010KT 15SM SKC M12/M17 A3062 RMK SLP389

CYWG;2007-04-05 08:00;CYWG 050800Z 01009KT 15SM FEW100 M12/M17 A3062 RMK AC0 SLP388

CYWG;2007-04-05 09:00;CYWG 050900Z 36008KT 15SM FEW100 M13/M17 A3062 RMK AC0 SLP389

CYWG;2007-04-05 10:00;CYWG 051000Z 36007KT 15SM FEW100 M13/M17 A3062 RMK AC0 SLP389

CYWG;2007-04-05 11:00;CYWG 051100Z 36008KT 15SM FEW100 M13/M17 A3063 RMK AC1 SLP391

CYWG;2007-04-05 12:00;CYWG 051200Z 36007KT 15SM FEW240 M13/M18 A3063 RMK CI1 SLP394

CYWG;2007-04-05 13:00;CYWG 051300Z 01008KT 15SM FEW240 M13/M17 A3065 RMK CI1 SLP399

CYWG;2007-04-05 14:00;CYWG 051400Z 01008KT 15SM BKN240 M11/M18 A3064 RMK CI1 SLP398

CYWG;2007-04-05 15:00;CYWG 051500Z 02011KT 15SM FEW240 M10/M20 A3064 RMK CI1 SLP398

CYWG;2007-04-05 16:00;CYWG 051600Z 01010G19KT 15SM FEW036 FEW240 M09/M18 A3064 RMK CF1CI1 CF TR SLP397

CYWG;2007-04-05 17:00;CYWG 051700Z 36015KT 15SM FEW035 M07/M17 A3064 RMK SC1 SLP396

CYWG;2007-04-05 18:00;CYWG 051800Z 03010G18KT 15SM SCT037 M07/M18 A3061 RMK SC3 SLP387

CYWG;2007-04-05 19:00;CYWG 051900Z 35016KT 15SM SCT038 M06/M17 A3060 RMK SC3 SLP383

CYWG;2007-04-05 20:00;CYWG 052000Z 35012G19KT 15SM SCT048 M05/M17 A3058 RMK SC4 SLP374

CYWG;2007-04-05 21:00;CYWG 052100Z 36017KT 15SM SCT048 SCT240 M04/M17 A3056 RMK SC3CI1 SLP368

CYWG;2007-04-05 22:00;CYWG 052200Z 05010G15KT 15SM FEW046 BKN250 M04/M14 A3054 RMK SC2CI1 SLP363

CYWG;2007-04-05 23:00;CYWG 052300Z 04012KT 15SM FEW044 BKN250 M05/M13 A3054 RMK SC1CI2 SLP360

CYWG;2007-04-06 00:00;CYWG 060000Z 03012G17KT 15SM FEW040 SCT090 BKN250 M06/M13 A3054 RMK SC1AC2CI1 SLP361

CYWG;2007-04-06 01:00;CYWG 060100Z 05012KT 15SM FEW024 SCT054 BKN250 M07/M13 A3054 RMK SC1SC2CI1 SLP362

CYWG;2007-04-06 02:00;CYWG 060200Z 36017KT 15SM FEW055 BKN250 M08/M15 A3056 RMK SC2CI2 SLP368

CYWG;2007-04-06 03:00;CYWG 060300Z 35019KT 15SM SKC M09/M16 A3058 RMK SLP374

CYWG;2007-04-06 04:00;CYWG 060400Z 36011G17KT 15SM SKC M09/M16 A3057 RMK SLP373

CYWG;2007-04-06 05:00;CYWG 060500Z 36012KT 15SM SKC M10/M16 A3057 RMK SLP372

CYWG;2007-04-06 06:00;CYWG 060600Z 36010G16KT 15SM SKC M10/M16 A3057 RMK SLP371

CYWG;2007-04-06 07:00;CYWG 060700Z 36012KT 15SM SKC M11/M16 A3057 RMK SLP372

CYWG;2007-04-06 08:00;CYWG 060800Z 36011KT 15SM SKC M11/M15 A3057 RMK SLP372

CYWG;2007-04-06 09:00;CYWG 060900Z 36011KT 15SM SKC M12/M15 A3058 RMK SLP374

CYWG;2007-04-06 10:00;CYWG 061000Z 36011KT 15SM SKC M12/M16 A3058 RMK SLP376

CYWG;2007-04-06 11:00;CYWG 061100Z 35011KT 15SM SKC M13/M16 A3060 RMK SLP381

CYWG;2007-04-06 12:00;CYWG 061200Z 35012KT 15SM FEW008 M13/M17 A3061 RMK SF1 SLP385

CYWG;2007-04-06 13:00;CYWG 061300Z 36013G18KT 15SM FEW008 M13/M18 A3062 RMK SF1 SLP389

CYWG;2007-04-06 14:00;CYWG 061400Z 01014G20KT 15SM FEW012 M12/M19 A3063 RMK SF1 SLP392

CYWG;2007-04-06 15:00;CYWG 061500Z 36017KT 15SM FEW020 M11/M19 A3063 RMK SF1 SLP393

CYWG;2007-04-06 16:00;CYWG 061600Z 35013G21KT 15SM FEW035 M10/M23 A3062 RMK SC2 SLP390

CYWG;2007-04-06 17:00;CYWG 061700Z 01016G26KT 15SM SCT033 M09/M19 A3061 RMK SC4 SLP388

CYWG;2007-04-06 18:00;CYWG 061800Z 01018G25KT 15SM SCT033 M07/M17 A3059 RMK SC4 SLP379

CYWG;2007-04-06 19:00;CYWG 061900Z 36019G25KT 15SM FEW038 SCT250 M06/M17 A3057 RMK SC2CI0 SLP371

CYWG;2007-04-06 20:00;CYWG 062000Z 35022G27KT 15SM FEW044 M05/M16 A3055 RMK SC2 SLP367

CYWG;2007-04-06 21:00;CYWG 062100Z 01019G24KT 15SM SCT046 M04/M17 A3054 RMK SC3 SLP360

CYWG;2007-04-06 22:00;CYWG 062200Z 01022KT 15SM BKN250 M04/M19 A3053 RMK CI3 SLP358

CYWG;2007-04-06 23:00;CYWG 062300Z 01021G28KT 15SM BKN250 M05/M20 A3053 RMK CI3 SLP357

CYWG;2007-04-07 00:00;CYWG 070000Z 01021G26KT 15SM BKN250 M05/M18 A3053 RMK CI3 SLP357

CYWG;2007-04-07 01:00;CYWG 070100Z 36021G26KT 15SM FEW097 BKN250 M07/M17 A3053 RMK AC2CI2 SLP358

CYWG;2007-04-07 02:00;CYWG 070200Z 36016G21KT 15SM FEW100 BKN250 M07/M17 A3053 RMK AC2CI2 SLP359

CYWG;2007-04-07 03:00;CYWG 070300Z 36018KT 15SM BKN250 M08/M18 A3053 RMK CI2 SLP358

CYWG;2007-04-07 04:00;CYWG 070400Z 35017KT 15SM SCT250 M09/M18 A3052 RMK CI0 SLP356

CYWG;2007-04-07 05:00;CYWG 070500Z 35012KT 15SM FEW250 M09/M17 A3051 RMK CI0 SLP353

CYWG;2007-04-07 06:00;CYWG 070600Z 35011KT 15SM SKC M10/M16 A3051 RMK SLP350

CYWG;2007-04-07 07:00;CYWG 070700Z 36013KT 15SM FEW250 M10/M17 A3050 RMK CI0 SLP346

CYWG;2007-04-07 08:00;CYWG 070800Z 01012KT 15SM FEW250 M10/M17 A3049 RMK CI0 SLP343

CYWG;2007-04-07 09:00;CYWG 070900Z 36012KT 15SM FEW250 M10/M18 A3048 RMK CI0 SLP338

CYWG;2007-04-07 10:00;CYWG 071000Z 01012KT 15SM FEW250 M11/M18 A3048 RMK CI0 SLP340

CYWG;2007-04-07 11:00;CYWG 071100Z 02015KT 15SM FEW250 M11/M19 A3048 RMK CI0 SLP340

CYWG;2007-04-07 12:00;CYWG 071200Z 01014KT 15SM FEW110 FEW250 M12/M19 A3048 RMK AC1CI1 SLP340

CYWG;2007-04-07 13:00;CYWG 071300Z 02016KT 15SM SCT250 M11/M19 A3048 RMK CI1 SLP342

CYWG;2007-04-07 14:00;CYWG 071400Z 03016G21KT 15SM FEW250 M09/M19 A3048 RMK CI0 SLP341

CYWG;2007-04-07 15:00;CYWG 071500Z 01015G20KT 15SM SCT250 M08/M19 A3047 RMK CI0 SLP338

CYWG;2007-04-07 16:00;CYWG 071600Z 01017KT 15SM BKN250 M07/M19 A3047 RMK CI1 SLP336

CYWG;2007-04-07 17:00;CYWG 071700Z 01019KT 15SM SCT250 M05/M19 A3045 RMK CI2 SLP332

CYWG;2007-04-07 18:00;CYWG 071800Z 02017KT 15SM SCT250 M04/M18 A3043 RMK CI2 SLP324

CYWG;2007-04-07 19:00;CYWG 071900Z 35015G20KT 15SM FEW090 SCT250 M03/M18 A3041 RMK AC1CI1 SLP318

CYWG;2007-04-07 20:00;CYWG 072000Z 01017G22KT 15SM FEW090 SCT250 M02/M17 A3040 RMK AC1CI1 SLP314

CYWG;2007-04-07 21:00;CYWG 072100Z 02015G20KT 15SM SCT250 M01/M17 A3038 RMK CI2 SLP305

CYWG;2007-04-07 22:00;CYWG 072200Z 02016G22KT 15SM SCT250 M01/M16 A3036 RMK CI2 SLP299

CYWG;2007-04-07 23:00;CYWG 072300Z 36014G19KT 15SM SCT250 M01/M14 A3035 RMK CI1 SLP296

CYWG;2007-04-08 00:00;CYWG 080000Z 03012G19KT 15SM FEW250 M02/M13 A3034 RMK CI1 SLP293

CYWG;2007-04-08 01:00;CYWG 080100Z 03010KT 15SM FEW060 FEW250 M04/M14 A3033 RMK SC1CI0 SLP289

CYWG;2007-04-08 02:00;CYWG 080200Z 01007KT 15SM FEW240 M06/M12 A3032 RMK CI0 SLP286

CYWG;2007-04-08 03:00;CYWG 080300Z 01006KT 15SM SKC M07/M12 A3032 RMK SLP284

CYWG;2007-04-08 04:00;CYWG 080400Z 36006KT 15SM SKC M07/M12 A3031 RMK SLP283

CYWG;2007-04-08 05:00;CYWG 080500Z 36006KT 15SM SKC M08/M12 A3031 RMK SLP282

CYWG;2007-04-08 06:00;CYWG 080600Z 02005KT 15SM SKC M10/M12 A3031 RMK SLP280

CYWG;2007-04-08 07:00;CYWG 080700Z 01004KT 15SM SKC M10/M13 A3030 RMK SLP278

CYWG;2007-04-08 08:00;CYWG 080800Z 03006KT 15SM SKC M10/M13 A3029 RMK SLP276

CYWG;2007-04-08 09:00;CYWG 080900Z 35004KT 15SM SKC M12/M14 A3030 RMK SLP277

CYWG;2007-04-08 10:00;CYWG 081000Z 36003KT 15SM SKC M12/M14 A3029 RMK SLP276

CYWG;2007-04-08 11:00;CYWG 081100Z 05002KT 15SM SKC M12/M14 A3029 RMK SLP276

CYWG;2007-04-08 12:00;CYWG 081200Z 01002KT 15SM SKC M13/M15 A3030 RMK SLP279

CYWG;2007-04-08 13:00;CYWG 081300Z 05003KT 15SM SKC M10/M13 A3029 RMK SLP276

CYWG;2007-04-08 14:00;CYWG 081400Z 05003KT 15SM SKC M08/M13 A3029 RMK SLP274

CYWG;2007-04-08 15:00;CYWG 081500Z 00000KT 15SM SKC M06/M12 A3027 RMK SLP269

CYWG;2007-04-08 16:00;CYWG 081600Z 01003KT 15SM SKC M04/M13 A3027 RMK SLP267

CYWG;2007-04-08 17:00;CYWG 081700Z 05006KT 15SM SKC M02/M13 A3026 RMK SLP264

CYWG;2007-04-08 18:00;CYWG 081800Z 02009KT 15SM FEW044 M02/M13 A3024 RMK SC1 TR SC SLP258

CYWG;2007-04-08 19:00;CYWG 081900Z 02004KT 15SM FEW045 M01/M13 A3022 RMK SC1 SLP252

CYWG;2007-04-08 20:00;CYWG 082000Z 02007KT 15SM FEW045 M00/M12 A3021 RMK CF1 SLP246

CYWG;2007-04-08 21:00;CYWG 082100Z 36005KT 15SM FEW043 M01/M12 A3019 RMK CF1 SLP240

CYWG;2007-04-08 22:00;CYWG 082200Z 03004KT 15SM FEW044 M00/M12 A3017 RMK CF1 SLP234

CYWG;2007-04-08 23:00;CYWG 082300Z 04006KT 15SM FEW044 M01/M12 A3016 RMK SC1 SLP232

CYWG;2007-04-09 00:00;CYWG 090000Z 05008KT 15SM FEW045 M01/M11 A3016 RMK SC1 SLP231

CYWG;2007-04-09 01:00;CYWG 090100Z 04007KT 15SM FEW045 M03/M10 A3016 RMK SC1 SLP229

CYWG;2007-04-09 02:00;CYWG 090200Z 04006KT 15SM FEW045 M05/M11 A3015 RMK SC1 SLP228

CYWG;2007-04-09 03:00;CYWG 090300Z 03005KT 15SM SKC M05/M11 A3015 RMK SLP226

CYWG;2007-04-09 04:00;CYWG 090400Z 04005KT 15SM SKC M06/M10 A3015 RMK SLP226

CYWG;2007-04-09 05:00;CYWG 090500Z 07004KT 15SM SKC M07/M11 A3014 RMK SLP224

CYWG;2007-04-09 06:00;CYWG 090600Z 09002KT 15SM SKC M07/M11 A3014 RMK SLP222

CYWG;2007-04-09 07:00;CYWG 090700Z 08002KT 15SM SKC M08/M11 A3013 RMK SLP220

CYWG;2007-04-09 08:00;CYWG 090800Z 08002KT 15SM SKC M08/M12 A3012 RMK SLP217

CYWG;2007-04-09 09:00;CYWG 090900Z 05003KT 15SM SKC M09/M12 A3012 RMK SLP214

CYWG;2007-04-09 10:00;CYWG 091000Z 00000KT 15SM FEW087 M08/M11 A3011 RMK AC1 SLP213

CYWG;2007-04-09 11:00;CYWG 091100Z 00000KT 15SM FEW260 M09/M12 A3012 RMK CI1 SLP214

CYWG;2007-04-09 12:00;CYWG 091200Z 05002KT 15SM SKC M11/M13 A3011 RMK OBS TKN +07 SLP214

CYWG;2007-04-09 13:00;CYWG 091300Z 00000KT 15SM FEW260 M07/M09 A3012 RMK CI1 SLP216

CYWG;2007-04-09 14:00;CYWG 091400Z 06002KT 15SM SKC M04/M10 A3011 RMK SLP214

CYWG;2007-04-09 15:00;CYWG 091500Z 03004KT 15SM SKC M02/M12 A3011 RMK SLP211

CYWG;2007-04-09 16:00;CYWG 091600Z 00000KT 15SM FEW030 M01/M13 A3010 RMK CU1 SLP209

CYWG;2007-04-09 17:00;CYWG 091700Z 09004KT 15SM FEW030 00/M13 A3009 RMK CU1 SLP204

CYWG;2007-04-09 18:00;CYWG 091800Z 15007KT 15SM FEW035 01/M13 A3007 RMK CU1 SLP197

CYWG;2007-04-09 19:00;CYWG 091900Z 18008KT 15SM SCT047 02/M12 A3006 RMK CU3 SLP192

CYWG;2007-04-09 20:00;CYWG 092000Z 18007KT 15SM SCT045 02/M13 A3004 RMK CU4 SLP188

CYWG;2007-04-09 21:00;CYWG 092100Z 11007KT 15SM BKN054 03/M11 A3002 RMK CU6 SLP181

CYWG;2007-04-09 22:00;CYWG 092200Z 18005KT 15SM BKN056 03/M13 A3001 RMK SC5 SLP178

CYWG;2007-04-09 23:00;CYWG 092300Z 20007KT 15SM SCT052 02/M11 A3000 RMK SC3 SLP174

CYWG;2007-04-10 00:00;CYWG 100000Z 18004KT 15SM FEW057 01/M11 A3000 RMK SC2 SLP175

CYWG;2007-04-10 01:00;CYWG 100100Z 19004KT 15SM FEW062 00/M12 A3000 RMK SC1 SLP176

CYWG;2007-04-10 02:00;CYWG 100200Z 10005KT 15SM FEW060 M02/M11 A3000 RMK SC1 SLP175

CYWG;2007-04-10 03:00;CYWG 100300Z 06006KT 15SM SKC M04/M09 A3001 RMK SLP176

CYWG;2007-04-10 04:00;CYWG 100400Z 07007KT 15SM SKC M05/M10 A3000 RMK SLP175

CYWG;2007-04-10 05:00;CYWG 100500Z 05003KT 15SM SKC M05/M11 A3000 RMK SLP174

CYWG;2007-04-10 06:00;CYWG 100600Z 12004KT 15SM SKC M05/M11 A3000 RMK SLP174

CYWG;2007-04-10 07:00;CYWG 100700Z 13006KT 15SM SKC M05/M10 A3000 RMK SLP173

CYWG;2007-04-10 08:00;CYWG 100800Z 09004KT 15SM SKC M05/M10 A2999 RMK SLP169

CYWG;2007-04-10 09:00;CYWG 100900Z 10006KT 15SM SKC M07/M12 A2999 RMK SLP169

CYWG;2007-04-10 10:00;CYWG 101000Z 09007KT 15SM SKC M06/M12 A2999 RMK SLP168

CYWG;2007-04-10 11:00;CYWG 101100Z 09008KT 15SM FEW250 M06/M13 A2998 RMK CI1 SLP165

CYWG;2007-04-10 12:00;CYWG 101200Z 09007KT 15SM FEW100 FEW250 M07/M12 A2997 RMK AC1CI0 SLP164

CYWG;2007-04-10 13:00;CYWG 101300Z 10009KT 15SM FEW100 SCT250 M03/M12 A2997 RMK AC1CI1 SLP164

CYWG;2007-04-10 14:00;CYWG 101400Z 09008KT 15SM FEW100 SCT250 M01/M13 A2997 RMK AC1CI2 SLP162

CYWG;2007-04-10 15:00;CYWG 101500Z 11012KT 15SM SCT250 01/M12 A2996 RMK CI2 SLP159

CYWG;2007-04-10 16:00;CYWG 101600Z 10011KT 15SM FEW120 SCT250 03/M12 A2996 RMK AC1CI1 SLP158

CYWG;2007-04-10 17:00;CYWG 101700Z 10014KT 15SM BKN250 04/M13 A2996 RMK CI2 SLP157

CYWG;2007-04-10 18:00;CYWG 101800Z 12011G18KT 15SM BKN250 05/M13 A2995 RMK CI2 SLP155

CYWG;2007-04-10 19:00;CYWG 101900Z 10015G22KT 15SM BKN250 06/M12 A2994 RMK CI2 SLP152

CYWG;2007-04-10 20:00;CYWG 102000Z 08013KT 15SM BKN250 07/M11 A2994 RMK CI2 SLP151

CYWG;2007-04-10 21:00;CYWG 102100Z 07012KT 15SM BKN250 07/M12 A2993 RMK CI2 SLP147

CYWG;2007-04-10 22:00;CYWG 102200Z 15010G15KT 15SM BKN250 07/M12 A2992 RMK CI2 SLP145

CYWG;2007-04-10 23:00;CYWG 102300Z 14009KT 15SM BKN250 06/M13 A2993 RMK CI2 SLP148

CYWG;2007-04-11 00:00;CYWG 110000Z 13009KT 15SM BKN250 05/M12 A2994 RMK CI2 SLP151

CYWG;2007-04-11 01:00;CYWG 110100Z 10008KT 15SM BKN250 03/M10 A2996 RMK CI2 SLP157

CYWG;2007-04-11 02:00;CYWG 110200Z 09008KT 15SM BKN250 02/M10 A2998 RMK CI2 SLP164

CYWG;2007-04-11 03:00;CYWG 110300Z 08007KT 15SM BKN250 M00/M09 A2999 RMK CI2 SLP168

CYWG;2007-04-11 04:00;CYWG 110400Z 09005KT 15SM FEW088 BKN250 M01/M10 A2999 RMK AC2CI2 SLP169

CYWG;2007-04-11 05:00;CYWG 110500Z 07007KT 15SM FEW250 M02/M08 A3000 RMK CI1 SLP170

CYWG;2007-04-11 06:00;CYWG 110600Z 09011KT 15SM SKC M00/M11 A3000 RMK SLP169

CYWG;2007-04-11 07:00;CYWG 110700Z 09008KT 15SM SKC M01/M11 A3000 RMK SLP169

CYWG;2007-04-11 08:00;CYWG 110800Z 09007KT 15SM SKC M02/M11 A3000 RMK SLP169

CYWG;2007-04-11 09:00;CYWG 110900Z 09007KT 15SM FEW093 M02/M12 A3000 RMK AC2 SLP170

CYWG;2007-04-11 10:00;CYWG 111000Z 09006KT 14SM FEW090 SCT250 M03/M11 A3000 RMK AC1CI2 SLP171

CYWG;2007-04-11 11:00;CYWG 111100Z 09005KT 15SM SCT250 M04/M11 A3001 RMK CI1 SLP173

CYWG;2007-04-11 12:00;CYWG 111200Z 08003KT 15SM SCT250 M06/M11 A3002 RMK CI1 SLP178

CYWG;2007-04-11 13:00;CYWG 111300Z 06006KT 15SM SCT250 M02/M10 A3003 RMK CI1 SLP182

CYWG;2007-04-11 14:00;CYWG 111400Z 09007KT 15SM SCT250 01/M11 A3003 RMK CI1 SLP183

CYWG;2007-04-11 15:00;CYWG 111500Z 09006KT 15SM FEW250 03/M12 A3003 RMK CI1 SLP181

CYWG;2007-04-11 16:00;CYWG 111600Z 10009KT 15SM BKN250 05/M12 A3003 RMK CI1 SLP181

CYWG;2007-04-11 17:00;CYWG 111700Z 09009KT 15SM SCT250 06/M12 A3003 RMK CI1 SLP180

CYWG;2007-04-11 18:00;CYWG 111800Z 09012KT 15SM FEW020 SCT250 07/M11 A3002 RMK CF1CI1 CF TR SLP177

CYWG;2007-04-11 19:00;CYWG 111900Z 06013KT 15SM FEW020 SCT250 07/M11 A3001 RMK CF1CI0 SLP173

CYWG;2007-04-11 20:00;CYWG 112000Z 07010G16KT 15SM FEW055 SCT250 07/M12 A3000 RMK CF1CI0 SLP170

CYWG;2007-04-11 21:00;CYWG 112100Z 05010KT 15SM FEW071 SCT250 07/M10 A2999 RMK AC1CI1 SLP166

CYWG;2007-04-11 22:00;CYWG 112200Z 08006KT 15SM FEW068 SCT250 07/M11 A2998 RMK AC1CI1 SLP163

CYWG;2007-04-11 23:00;CYWG 112300Z 02011KT 15SM FEW072 BKN250 06/M11 A2998 RMK AC1CI2 SLP164

CYWG;2007-04-12 00:00;CYWG 120000Z 04008KT 15SM FEW072 BKN250 05/M11 A2999 RMK AC1CI2 SLP168

CYWG;2007-04-12 01:00;CYWG 120100Z 03007KT 15SM BKN250 03/M10 A2999 RMK CI2 SLP167

CYWG;2007-04-12 02:00;CYWG 120200Z 04006KT 15SM BKN250 M00/M07 A2999 RMK CI1 SLP170

CYWG;2007-04-12 03:00;CYWG 120300Z 03005KT 15SM FEW250 M01/M07 A3000 RMK CI2 SLP170

CYWG;2007-04-12 04:00;CYWG 120400Z 03003KT 15SM FEW250 M02/M06 A2999 RMK CI0 SLP169

CYWG;2007-04-12 05:00;CYWG 120500Z 03006KT 15SM BKN250 M02/M06 A2999 RMK CI2 SLP167

CYWG;2007-04-12 06:00;CYWG 120600Z 02006KT 15SM BKN250 M02/M06 A2999 RMK CI2 SLP166

CYWG;2007-04-12 07:00;CYWG 120700Z 01006KT 15SM BKN250 M02/M07 A2998 RMK CI2 SLP164

CYWG;2007-04-12 08:00;CYWG 120800Z 03004KT 15SM BKN250 M03/M09 A2998 RMK CI2 SLP162

CYWG;2007-04-12 09:00;CYWG 120900Z 03004KT 15SM SCT250 M04/M08 A2997 RMK CI1 SLP162

CYWG;2007-04-12 10:00;CYWG 121000Z 03003KT 15SM SCT096 BKN250 M04/M08 A2997 RMK AC3CI1 SLP162

CYWG;2007-04-12 11:00;CYWG 121100Z 01003KT 15SM FEW096 SCT250 M05/M08 A2997 RMK AC2CI1 SLP161

CYWG;2007-04-12 12:00;CYWG 121200Z 05002KT 15SM SCT096 BKN250 M05/M08 A2998 RMK AC3CI1 SLP165

CYWG;2007-04-12 13:00;CYWG 121300Z 29004KT 15SM FEW095 BKN250 M03/M06 A2999 RMK AC2CI2 SLP170

CYWG;2007-04-12 14:00;CYWG 121400Z 33004KT 10SM BKN250 M00/M08 A3000 RMK CI3 SLP173

CYWG;2007-04-12 15:00;CYWG 121500Z 33005KT 10SM BKN250 01/M08 A3001 RMK CI3 SLP175

CYWG;2007-04-12 16:00;CYWG 121600Z 33004KT 15SM FEW091 BKN250 03/M07 A3001 RMK AC2CI2 SLP175

CYWG;2007-04-12 17:00;CYWG 121700Z 33008KT 15SM SCT250 05/M08 A3001 RMK CI2 SLP175

CYWG;2007-04-12 18:00;CYWG 121800Z 33009KT 15SM SCT250 07/M10 A3000 RMK CI2 SLP169

CYWG;2007-04-12 19:00;CYWG 121900Z 34007KT 15SM FEW060 BKN250 07/M12 A2999 RMK CF1CI1 SLP165

CYWG;2007-04-12 20:00;CYWG 122000Z 32010KT 15SM FEW065 SCT250 08/M11 A2998 RMK CU1CI1 SLP164

CYWG;2007-04-12 21:00;CYWG 122100Z 28008KT 15SM FEW070 SCT250 08/M11 A2998 RMK CU1CI0 SLP163

CYWG;2007-04-12 22:00;CYWG 122200Z 30009KT 15SM FEW070 FEW250 08/M11 A2998 RMK CU1CI0 SLP163

CYWG;2007-04-12 23:00;CYWG 122300Z 30011KT 15SM FEW070 07/M11 A2999 RMK CU1 SLP165

CYWG;2007-04-13 00:00;CYWG 130000Z CCA 32008KT 15SM FEW070 06/M12 A2999 RMK AC1 TR CLD SLP169

CYWG;2007-04-13 01:00;CYWG 130100Z 32004KT 15SM FEW250 03/M08 A3000 RMK CI0 SLP170

CYWG;2007-04-13 02:00;CYWG 130200Z 14002KT 15SM FEW100 FEW250 03/M11 A3000 RMK AC1CI0 TR AC SLP171

CYWG;2007-04-13 03:00;CYWG 130300Z 19005KT 15SM FEW100 FEW250 01/M11 A3001 RMK AC1CI1 SLP173

CYWG;2007-04-13 04:00;CYWG 130400Z 21005KT 15SM FEW100 SCT250 01/M10 A3001 RMK AC1CI2 SLP174

CYWG;2007-04-13 05:00;CYWG 130500Z 22009KT 15SM FEW250 00/M09 A3002 RMK CI0 SLP176

CYWG;2007-04-13 06:00;CYWG 130600Z 21007KT 15SM SKC 01/M09 A3002 RMK SLP177

CYWG;2007-04-13 07:00;CYWG 130700Z 20010KT 15SM SKC 01/M07 A3002 RMK SLP176

CYWG;2007-04-13 08:00;CYWG 130800Z 21010KT 15SM BKN250 00/M06 A3002 RMK CI2 SLP176

CYWG;2007-04-13 09:00;CYWG 130900Z 23008KT 15SM FEW064 SCT250 M01/M05 A3003 RMK SC2CI0 SLP178

CYWG;2007-04-13 10:00;CYWG 131000Z 23008KT 15SM FEW096 SCT250 M01/M05 A3003 RMK AC2CI0 SLP179

CYWG;2007-04-13 11:00;CYWG 131100Z 23008KT 15SM FEW091 BKN250 01/M05 A3003 RMK AC2CI1 SLP179

CYWG;2007-04-13 12:00;CYWG 131200Z 23009KT 15SM SCT082 BKN250 01/M04 A3003 RMK AC2CI1 SLP179

CYWG;2007-04-13 13:00;CYWG 131300Z 22010KT 15SM FEW080 BKN250 02/M04 A3003 RMK AC2CI1 SLP181

CYWG;2007-04-13 14:00;CYWG 131400Z 22013KT 15SM FEW086 BKN250 04/M04 A3003 RMK AC2CI1 SLP180

CYWG;2007-04-13 15:00;CYWG 131500Z 23011G19KT 15SM FEW086 BKN250 05/M04 A3003 RMK AC2CI1 SLP178

CYWG;2007-04-13 16:00;CYWG 131600Z 23015KT 15SM FEW087 BKN250 07/M03 A3001 RMK AC2CI1 ACC ASOCTD N - NE SLP172

CYWG;2007-04-13 17:00;CYWG 131700Z 23016KT 15SM SCT077 BKN250 08/M02 A2999 RMK AC2CI1 ACC ASOCTD SLP168

CYWG;2007-04-13 18:00;CYWG 131800Z CCA 23013G21KT 15SM SCT090 BKN250 11/M02 A2999 RMK AC2CI1 OBS TAKEN AT 1807 SLP165

CYWG;2007-04-13 19:00;CYWG 131900Z 23014KT 15SM SCT049 SCT090 12/M01 A2997 RMK CU3AC1 SLP157

CYWG;2007-04-13 20:00;CYWG 132000Z 25013KT 15SM BKN049 BKN085 11/M01 A2995 RMK CU5AC1 TCU ASOCTD SHWRS NE SW SLP152

CYWG;2007-04-13 21:00;CYWG 132100Z 22009KT 15SM BKN049 BKN084 11/M01 A2994 RMK CU6AC1 TCU ASOCTD SHWRS NE SE-SW SLP148

CYWG;2007-04-13 22:00;CYWG 132200Z 34008KT 15SM BKN051 BKN073 12/01 A2993 RMK SC5AC2 TCU ASOCTD SLP146

CYWG;2007-04-13 23:00;CYWG 132300Z 35008KT 15SM SCT053 SCT072 11/00 A2995 RMK CU3AC1 TCU ASOCTD SHWRS SE SLP151

CYWG;2007-04-14 00:00;CYWG 140000Z 33012KT 15SM SCT061 11/01 A2996 RMK CU3 TCU ASOCTD SHWRS E-SE SLP154

CYWG;2007-04-14 01:00;CYWG 140100Z 34008KT 15SM FEW064 07/00 A2997 RMK SC1 SLP158

CYWG;2007-04-14 02:00;CYWG 140200Z 32008KT 15SM FEW060 01/M04 A2997 RMK SC1 SLP159

CYWG;2007-04-14 03:00;CYWG 140300Z 02007KT 15SM SKC 00/M03 A2999 RMK SLP167

CYWG;2007-04-14 04:00;CYWG 140400Z 36003KT 15SM SKC M02/M04 A2999 RMK SLP168

CYWG;2007-04-14 05:00;CYWG 140500Z 34006KT 15SM SKC M03/M05 A3000 RMK SLP169

CYWG;2007-04-14 06:00;CYWG 140600Z 33004KT 15SM SKC M03/M04 A3000 RMK SLP168

CYWG;2007-04-14 07:00;CYWG 140700Z 33005KT 15SM SKC M02/M04 A3000 RMK SLP168

CYWG;2007-04-14 08:00;CYWG 140800Z 33003KT 15SM SKC M02/M03 A3000 RMK SLP169

CYWG;2007-04-14 09:00;CYWG 140900Z 32003KT 15SM SKC M03/M04 A3000 RMK MIFG SLP170

CYWG;2007-04-14 10:00;CYWG 141000Z 32005KT 15SM SKC M03/M04 A3001 RMK MIFG SLP172

CYWG;2007-04-14 11:00;CYWG 141100Z 29004KT 5SM BR SKC M04/M05 A3001 RMK FROIN VSBY NW 3 BR SLP173

CYWG;2007-04-14 12:00;CYWG 141200Z 31002KT 5SM BR SKC M05/M06 A3003 RMK FROIN MIFG N OF TWR SLP178

CYWG;2007-04-14 13:00;CYWG 141300Z 00000KT 10SM SKC M02/M02 A3003 RMK BR SLP179

CYWG;2007-04-14 14:00;CYWG 141400Z 36004KT 10SM SKC 03/M01 A3003 RMK BR SLP180

CYWG;2007-04-14 15:00;CYWG 141500Z 01005KT 15SM SKC 05/M01 A3002 RMK SLP177

CYWG;2007-04-14 16:00;CYWG 141600Z 05006KT 15SM FEW044 07/M02 A3002 RMK CU1 SLP175

CYWG;2007-04-14 17:00;CYWG 141700Z 04005KT 15SM FEW044 08/M02 A3001 RMK CU1 SLP174

CYWG;2007-04-14 18:00;CYWG 141800Z 07005KT 15SM FEW044 09/M02 A3000 RMK CU1 SLP169

CYWG;2007-04-14 19:00;CYWG 141900Z 36003KT 15SM FEW040 10/M02 A2999 RMK CU1 SLP165

CYWG;2007-04-14 20:00;CYWG 142000Z 35005KT 15SM FEW040 11/M02 A2997 RMK CU1 SLP160

CYWG;2007-04-14 21:00;CYWG 142100Z 06003KT 15SM FEW240 11/M03 A2996 RMK CI1 SLP156

CYWG;2007-04-14 22:00;CYWG 142200Z 34002KT 15SM FEW240 11/M04 A2996 RMK CI1 SLP154

CYWG;2007-04-14 23:00;CYWG 142300Z 07004KT 15SM FEW240 12/M05 A2995 RMK CI1 SLP152

CYWG;2007-04-15 00:00;CYWG 150000Z 06003KT 15SM FEW240 11/M04 A2995 RMK CI1 SLP151

CYWG;2007-04-15 01:00;CYWG 150100Z 03005KT 15SM FEW240 09/M03 A2994 RMK CI0 SLP150

CYWG;2007-04-15 02:00;CYWG 150200Z 13007KT 15SM FEW240 05/M00 A2994 RMK CI0 SLP150

CYWG;2007-04-15 03:00;CYWG 150300Z 16003KT 15SM FEW250 03/M02 A2995 RMK CI1 SLP152

CYWG;2007-04-15 04:00;CYWG 150400Z 14007KT 15SM FEW250 04/M02 A2995 RMK CI0 SLP152

CYWG;2007-04-15 05:00;CYWG 150500Z 12008KT 15SM SKC 02/M02 A2994 RMK SLP148

CYWG;2007-04-15 06:00;CYWG 150600Z 14008KT 15SM SKC 02/M03 A2994 RMK SLP149

CYWG;2007-04-15 07:00;CYWG 150700Z 17010KT 15SM SKC 03/M02 A2995 RMK SLP151

CYWG;2007-04-15 08:00;CYWG 150800Z 17007KT 15SM SKC 01/M04 A2994 RMK SLP149

CYWG;2007-04-15 09:00;CYWG 150900Z 18008KT 15SM SKC 02/M03 A2995 RMK SLP149

CYWG;2007-04-15 10:00;CYWG 151000Z 18009KT 15SM SKC 02/M03 A2995 RMK SLP149

CYWG;2007-04-15 11:00;CYWG 151100Z 17011KT 15SM FEW250 03/M03 A2993 RMK CI1 SLP143

CYWG;2007-04-15 12:00;CYWG 151200Z 17010KT 15SM FEW250 02/M03 A2994 RMK CI1 SLP148

CYWG;2007-04-15 13:00;CYWG 151300Z 17012KT 15SM FEW250 04/M02 A2995 RMK CI1 SLP150

CYWG;2007-04-15 14:00;CYWG 151400Z 17014KT 15SM FEW250 07/M02 A2994 RMK CI1 SLP147

CYWG;2007-04-15 15:00;CYWG 151500Z 18017KT 15SM FEW250 09/M01 A2993 RMK CI0 SLP145

CYWG;2007-04-15 16:00;CYWG 151600Z 18016G25KT 15SM FEW250 12/01 A2993 RMK CI1 SLP142

CYWG;2007-04-15 17:00;CYWG 151700Z 17020KT 15SM BKN250 14/02 A2992 RMK CI1 SLP139

CYWG;2007-04-15 18:00;CYWG 151800Z 17019G24KT 15SM BKN250 15/03 A2991 RMK CI2 SLP136

CYWG;2007-04-15 19:00;CYWG 151900Z 17019G25KT 15SM BKN250 16/03 A2990 RMK CI2 SLP132

CYWG;2007-04-15 20:00;CYWG 152000Z 18018G24KT 15SM BKN250 18/03 A2988 RMK CI2 SLP127

CYWG;2007-04-15 21:00;CYWG 152100Z 18019G25KT 15SM SCT100 OVC250 18/03 A2987 RMK AC3CI1 SLP122

CYWG;2007-04-15 22:00;CYWG 152200Z 18020KT 15SM BKN100 OVC250 18/03 A2987 RMK AC6CI1 SLP121

CYWG;2007-04-15 23:00;CYWG 152300Z 18017KT 15SM SCT100 OVC250 17/02 A2986 RMK AC4CI2 SLP117

CYWG;2007-04-16 00:00;CYWG 160000Z 18018KT 15SM SCT100 OVC220 16/04 A2986 RMK AC4CI2 SLP117

CYWG;2007-04-16 01:00;CYWG 160100Z 18015KT 15SM SCT100 OVC220 15/05 A2986 RMK AC3CI1 SLP117

CYWG;2007-04-16 02:00;CYWG 160200Z 18015KT 15SM SCT100 OVC220 13/04 A2985 RMK AC3CI0 SLP116

CYWG;2007-04-16 03:00;CYWG 160300Z 18016G24KT 15SM SCT100 BKN220 12/04 A2985 RMK AC3CI0 SLP115

CYWG;2007-04-16 04:00;CYWG 160400Z 18017KT 15SM OVC100 12/04 A2985 RMK AC8 SLP113

CYWG;2007-04-16 05:00;CYWG 160500Z 19018KT 15SM BKN100 BKN220 12/04 A2984 RMK AC5CI1 SLP112

CYWG;2007-04-16 06:00;CYWG 160600Z 19013KT 15SM BKN100 OVC220 11/03 A2985 RMK AC6CI1 SLP114

CYWG;2007-04-16 07:00;CYWG 160700Z 20015G20KT 15SM OVC100 11/03 A2986 RMK AC8 SLP116

CYWG;2007-04-16 08:00;CYWG 160800Z 24007KT 15SM SCT100 BKN220 10/04 A2988 RMK AC3CI1 SLP123

CYWG;2007-04-16 09:00;CYWG 160900Z 19006KT 15SM BKN089 10/04 A2987 RMK AC6 SLP118

CYWG;2007-04-16 10:00;CYWG 161000Z 29009KT 15SM OVC087 08/04 A2989 RMK AC8 SLP124

CYWG;2007-04-16 11:00;CYWG 161100Z 32006KT 15SM FEW050 BKN089 06/04 A2990 RMK SC1AC6 SLP130

CYWG;2007-04-16 12:00;CYWG 161200Z 34006KT 15SM -SHRA FEW042 OVC096 07/05 A2992 RMK SC1AC7 SLP136

CYWG;2007-04-16 12:43;CYWG 161243Z 28004KT 15SM -SHRA FEW008 BKN012 OVC062 07/ RMK SF1SC6SC1

CYWG;2007-04-16 13:00;CYWG 161300Z 32004KT 8SM -SHRA FEW008 OVC012 07/06 A2996 RMK SF1SC7 SLP149

CYWG;2007-04-16 13:51;CYWG 161351Z 35004KT 8SM -SHRA FEW008 FEW012 OVC032 07/ RMK SF1SC2SC6 RERA

CYWG;2007-04-16 14:00;CYWG 161400Z 01005KT 10SM -SHRA FEW008 FEW012 OVC037 07/07 A2997 RMK SF1SC2SC6 RERA SLP154

CYWG;2007-04-16 15:00;CYWG 161500Z 33012KT 10SM -SHRA BKN006 BKN038 08/07 A3001 RMK SF5SC2 CLRG RPDLY FM W SLP170

CYWG;2007-04-16 15:13;CYWG 161513Z 34012G17KT 10SM -SHRA SCT006 BKN038 08/ RMK SF3SC4

CYWG;2007-04-16 16:00;CYWG 161600Z 02007KT 10SM FEW006 BKN059 10/08 A3001 RMK SF2SC5 SLP169

CYWG;2007-04-16 17:00;CYWG 161700Z 36008KT 15SM FEW008 SCT075 12/07 A3003 RMK CF1AC3 SLP177

CYWG;2007-04-16 18:00;CYWG 161800Z 36008KT 15SM FEW020 FEW075 13/06 A3004 RMK CU1AC1 SLP179

CYWG;2007-04-16 19:00;CYWG 161900Z 33009G16KT 15SM SCT038 SCT065 14/03 A3004 RMK CU3SC1 SLP179

CYWG;2007-04-16 20:00;CYWG 162000Z 04008G15KT 15SM SCT056 SCT070 15/01 A3006 RMK CU3AC1 SLP183

CYWG;2007-04-16 21:00;CYWG 162100Z 04008KT 15SM FEW052 15/02 A3006 RMK CU2 SLP185

CYWG;2007-04-16 22:00;CYWG 162200Z 05007KT 15SM FEW058 16/02 A3006 RMK CU2 SLP186

CYWG;2007-04-16 23:00;CYWG 162300Z 04012G17KT 15SM FEW053 14/03 A3009 RMK CU1 SLP193

CYWG;2007-04-17 00:00;CYWG 170000Z 04011KT 15SM FEW044 12/01 A3010 RMK SC1 SLP201

CYWG;2007-04-17 01:00;CYWG 170100Z 04008KT 15SM FEW070 09/M00 A3012 RMK AC1 SLP205

CYWG;2007-04-17 02:00;CYWG 170200Z 04007KT 15SM FEW070 06/M01 A3014 RMK AC1 SLP212

CYWG;2007-04-17 03:00;CYWG 170300Z 04007KT 15SM SKC 02/M02 A3016 RMK SLP222

CYWG;2007-04-17 04:00;CYWG 170400Z 03003KT 15SM SKC 01/M04 A3016 RMK SLP223

CYWG;2007-04-17 05:00;CYWG 170500Z 04002KT 15SM SKC 02/M04 A3016 RMK SLP224

CYWG;2007-04-17 06:00;CYWG 170600Z 00000KT 15SM SKC 00/M04 A3016 RMK SLP222

CYWG;2007-04-17 07:00;CYWG 170700Z 03003KT 15SM SKC M00/M03 A3018 RMK SLP227

CYWG;2007-04-17 08:00;CYWG 170800Z 34003KT 15SM SKC M02/M05 A3018 RMK SLP229

CYWG;2007-04-17 09:00;CYWG 170900Z 00000KT 15SM SKC M04/M06 A3019 RMK SLP231

CYWG;2007-04-17 10:00;CYWG 171000Z 00000KT 15SM SKC M03/M05 A3019 RMK SLP231

CYWG;2007-04-17 11:00;CYWG 171100Z 02002KT 15SM SKC M04/M05 A3019 RMK SLP232

CYWG;2007-04-17 12:00;CYWG 171200Z 00000KT 15SM FEW250 M04/M06 A3020 RMK CI1 SLP237

CYWG;2007-04-17 13:00;CYWG 171300Z 29002KT 15SM SCT250 M00/M03 A3022 RMK CI1 SLP242

CYWG;2007-04-17 14:00;CYWG 171400Z 15005KT 15SM SCT250 06/M04 A3022 RMK CI1 SLP243

CYWG;2007-04-17 15:00;CYWG 171500Z 15008KT 15SM FEW094 BKN250 08/M04 A3022 RMK AC1CI2 SLP242

CYWG;2007-04-17 16:00;CYWG 171600Z 16008KT 15SM FEW097 BKN250 11/M03 A3022 RMK AC0CI2 SLP244

CYWG;2007-04-17 17:00;CYWG 171700Z 21009KT 15SM SCT250 12/M04 A3021 RMK CI2 SLP241

CYWG;2007-04-17 18:00;CYWG 171800Z 17010KT 15SM SCT250 13/M05 A3019 RMK CI1 SLP233

CYWG;2007-04-17 19:00;CYWG 171900Z 19006KT 15SM SCT250 14/M06 A3018 RMK CI2 SLP228

CYWG;2007-04-17 20:00;CYWG 172000Z 18008KT 15SM BKN250 15/M05 A3016 RMK CI2 SLP224

CYWG;2007-04-17 21:00;CYWG 172100Z 16011KT 15SM SCT250 16/M04 A3013 RMK CI2 SLP213

CYWG;2007-04-17 22:00;CYWG 172200Z 16010KT 15SM SCT250 17/M04 A3011 RMK CI1 SLP205

CYWG;2007-04-17 23:00;CYWG 172300Z 15011KT 15SM BKN250 16/M06 A3009 RMK CI2 SLP200

CYWG;2007-04-18 00:00;CYWG 180000Z 16010G15KT 15SM BKN250 14/M07 A3009 RMK CI2 SLP198

CYWG;2007-04-18 01:00;CYWG 180100Z 18006KT 15SM BKN250 12/M06 A3008 RMK CI2 SLP196

CYWG;2007-04-18 02:00;CYWG 180200Z 19008KT 15SM BKN250 10/M04 A3008 RMK CI2 SLP196

CYWG;2007-04-18 03:00;CYWG 180300Z 19004KT 15SM BKN250 08/M05 A3010 RMK CI1 SLP200

CYWG;2007-04-18 04:00;CYWG 180400Z 12003KT 15SM BKN250 05/M04 A3011 RMK CI1 SLP203

CYWG;2007-04-18 05:00;CYWG 180500Z 16007KT 15SM SCT250 06/M06 A3011 RMK CI1 SLP205

CYWG;2007-04-18 06:00;CYWG 180600Z 17007KT 15SM SCT250 04/M06 A3012 RMK CI1 SLP206

CYWG;2007-04-18 07:00;CYWG 180700Z 16009KT 15SM FEW250 03/M06 A3012 RMK CI1 SLP206

CYWG;2007-04-18 08:00;CYWG 180800Z 16008KT 15SM FEW250 02/M06 A3012 RMK CI1 SLP206

CYWG;2007-04-18 09:00;CYWG 180900Z 16007KT 15SM FEW250 02/M06 A3012 RMK CI1 SLP207

CYWG;2007-04-18 10:00;CYWG 181000Z 17005KT 15SM FEW250 03/M05 A3012 RMK CI1 SLP208

CYWG;2007-04-18 11:00;CYWG 181100Z 15007KT 15SM FEW250 01/M05 A3012 RMK CI0 SLP207

CYWG;2007-04-18 12:00;CYWG 181200Z 15008KT 15SM FEW250 01/M04 A3012 RMK CI0 SLP208

CYWG;2007-04-18 13:00;CYWG 181300Z 14007KT 15SM SKC 05/M03 A3013 RMK SLP211

CYWG;2007-04-18 14:00;CYWG 181400Z 16012KT 15SM SKC 09/M03 A3012 RMK SLP209

CYWG;2007-04-18 15:00;CYWG 181500Z 15009KT 15SM SKC 10/M02 A3012 RMK SLP207

CYWG;2007-04-18 16:00;CYWG 181600Z 15009KT 15SM FEW250 13/M01 A3011 RMK CI1 SLP204

CYWG;2007-04-18 17:00;CYWG 181700Z 16009KT 15SM SKC 15/M02 A3011 RMK SLP203

CYWG;2007-04-18 18:00;CYWG 181800Z 16014KT 15SM SKC 17/M03 A3009 RMK SLP197

CYWG;2007-04-18 19:00;CYWG 181900Z 15012KT 15SM SKC 18/M00 A3008 RMK SLP193

CYWG;2007-04-18 20:00;CYWG 182000Z 17015KT 15SM SKC 19/00 A3007 RMK SLP189

CYWG;2007-04-18 21:00;CYWG 182100Z 17012G17KT 15SM FEW250 19/M01 A3005 RMK CI1 SLP182

CYWG;2007-04-18 22:00;CYWG 182200Z 15011G16KT 15SM FEW250 20/M01 A3004 RMK CI1 SLP178

CYWG;2007-04-18 23:00;CYWG 182300Z 13013G18KT 15SM FEW250 19/M01 A3002 RMK CI1 SLP173

CYWG;2007-04-19 00:00;CYWG 190000Z 15012KT 15SM SKC 18/M02 A3001 RMK SLP169

CYWG;2007-04-19 01:00;CYWG 190100Z 16007KT 15SM SKC 14/M01 A3001 RMK SLP170

CYWG;2007-04-19 02:00;CYWG 190200Z 13010KT 15SM SKC 13/M04 A3003 RMK SLP174

CYWG;2007-04-19 03:00;CYWG 190300Z 14013KT 15SM SKC 12/M07 A3003 RMK SLP176

CYWG;2007-04-19 04:00;CYWG 190400Z 14011KT 15SM SKC 11/M05 A3004 RMK SLP177

CYWG;2007-04-19 05:00;CYWG 190500Z 12008KT 15SM SKC 06/M04 A3004 RMK SLP179

CYWG;2007-04-19 06:00;CYWG 190600Z 13010KT 15SM SKC 08/M04 A3006 RMK SLP185

CYWG;2007-04-19 07:00;CYWG 190700Z 14009KT 15SM SKC 07/M04 A3006 RMK SLP186

CYWG;2007-04-19 08:00;CYWG 190800Z 13007KT 15SM SKC 05/M04 A3006 RMK SLP184

CYWG;2007-04-19 09:00;CYWG 190900Z 11008KT 15SM SKC 05/M04 A3006 RMK SLP185

CYWG;2007-04-19 10:00;CYWG 191000Z 16010KT 15SM SKC 05/M03 A3008 RMK SLP192

CYWG;2007-04-19 11:00;CYWG 191100Z 15008KT 15SM FEW087 02/M04 A3009 RMK AC1 SLP194

CYWG;2007-04-19 12:00;CYWG 191200Z 15007KT 15SM FEW087 03/M03 A3010 RMK AC1 OBS TAKEN +5 SLP201

CYWG;2007-04-19 13:00;CYWG 191300Z 14007KT 15SM FEW087 07/M02 A3011 RMK AC1 SLP204

CYWG;2007-04-19 14:00;CYWG 191400Z 16009KT 15SM FEW270 10/M02 A3011 RMK CI1 SLP203

CYWG;2007-04-19 15:00;CYWG 191500Z 14011KT 15SM SCT270 12/M01 A3010 RMK CI2 SLP200

CYWG;2007-04-19 16:00;CYWG 191600Z 14012KT 15SM BKN270 14/M00 A3010 RMK CI2 SLP200

CYWG;2007-04-19 17:00;CYWG 191700Z 12016KT 15SM SCT270 16/00 A3008 RMK CI2 SLP192

CYWG;2007-04-19 18:00;CYWG 191800Z 12018G24KT 15SM SCT270 17/01 A3006 RMK CI1 SLP185

CYWG;2007-04-19 19:00;CYWG 191900Z 12015G22KT 15SM FEW250 18/00 A3005 RMK CI1 SLP181

CYWG;2007-04-19 20:00;CYWG 192000Z 11014G24KT 15SM FEW060 FEW250 18/02 A3003 RMK CU1CI1 SLP175

CYWG;2007-04-19 21:00;CYWG 192100Z 12018G27KT 15SM FEW060 FEW250 18/03 A3001 RMK CU1CI1 SLP169

CYWG;2007-04-19 22:00;CYWG 192200Z 14011G22KT 15SM FEW060 FEW250 18/03 A3000 RMK CU1CI1 SLP165

CYWG;2007-04-19 23:00;CYWG 192300Z 13015G21KT 15SM FEW060 17/03 A2999 RMK CU1 SLP162

CYWG;2007-04-20 00:00;CYWG 200000Z 11017G22KT 15SM FEW120 FEW250 17/03 A2998 RMK AC1CI1 SLP159

CYWG;2007-04-20 01:00;CYWG 200100Z 12014G19KT 15SM FEW120 FEW250 16/03 A2997 RMK AC1CI1 SLP156

CYWG;2007-04-20 02:00;CYWG 200200Z 11011KT 15SM FEW120 FEW250 14/03 A2998 RMK AC1CI1 SLP159

CYWG;2007-04-20 03:00;CYWG 200300Z 11012G18KT 15SM FEW120 SCT250 13/03 A2999 RMK AC1CI1 SLP159

CYWG;2007-04-20 04:00;CYWG 200400Z 11013KT 15SM FEW120 SCT250 12/03 A2998 RMK AC1CI1 SLP156

CYWG;2007-04-20 05:00;CYWG 200500Z 12014KT 15SM SCT071 BKN250 12/03 A2998 RMK AC3CI1 SLP156

CYWG;2007-04-20 06:00;CYWG 200600Z 13010KT 15SM SCT071 BKN250 11/03 A2997 RMK AC4CI1 SLP152

CYWG;2007-04-20 07:00;CYWG 200700Z 13012G17KT 15SM BKN062 OVC250 12/03 A2996 RMK SC6CI1 SLP150

CYWG;2007-04-20 08:00;CYWG 200800Z 16011KT 15SM BKN058 OVC080 12/04 A2997 RMK SC6AC2 SLP152

CYWG;2007-04-20 08:50;CYWG 200850Z 14013KT 15SM -SHRA BKN036 OVC098 RMK SC6AC2 CVCTV CLD EMBDD

CYWG;2007-04-20 09:00;CYWG 200900Z 14013KT 15SM -SHRA BKN036 OVC098 10/07 A2996 RMK SC6AC2 SLP148

CYWG;2007-04-20 09:49;CYWG 200949Z 13015KT 15SM BKN042 BKN087 OVC250 RMK SC5AC2CI1

CYWG;2007-04-20 10:00;CYWG 201000Z 13015G22KT 15SM SCT042 BKN087 BKN250 10/06 A2993 RMK SC3AC2CI0 SLP139

CYWG;2007-04-20 11:00;CYWG 201100Z 13017KT 15SM BKN045 BKN073 BKN250 10/05 A2993 RMK SC5AC1CI1 SLP140

CYWG;2007-04-20 12:00;CYWG 201200Z 14017G22KT 15SM BKN033 BKN057 BKN250 10/05 A2993 RMK SC6SC1CI0 SLP141

CYWG;2007-04-20 13:00;CYWG 201300Z 16020G26KT 15SM BKN027 BKN096 10/05 A2994 RMK SC5AC1 SLP142

CYWG;2007-04-20 14:00;CYWG 201400Z 18022G30KT 15SM FEW024 SCT240 11/06 A2993 RMK CF2CI0 SLP141

CYWG;2007-04-20 15:00;CYWG 201500Z 18021G26KT 15SM FEW240 13/06 A2994 RMK CI1 SLP143

CYWG;2007-04-20 16:00;CYWG 201600Z 19017G22KT 15SM FEW070 FEW240 16/05 A2994 RMK AC1CI1 TR AC SLP145

CYWG;2007-04-20 17:00;CYWG 201700Z 19020G25KT 15SM FEW100 FEW240 18/04 A2994 RMK AC1CI0 SLP143

CYWG;2007-04-20 18:00;CYWG 201800Z 19015G28KT 15SM FEW040 FEW100 FEW240 19/03 A2993 RMK CF1AC1CI0 SLP138

CYWG;2007-04-20 19:00;CYWG 201900Z 17015G24KT 15SM FEW036 SCT240 21/03 A2991 RMK CU1CI1 SLP133

CYWG;2007-04-20 20:00;CYWG 202000Z 18021G29KT 15SM FEW040 FEW240 BKN280 21/02 A2990 RMK CU2CI1CS0 HALO SLP128

CYWG;2007-04-20 21:00;CYWG 202100Z 19023G31KT 15SM FEW040 SCT240 BKN280 22/01 A2988 RMK CU2CI2CS0 SLP121

CYWG;2007-04-20 22:00;CYWG 202200Z 19023G31KT 15SM FEW040 SCT210 BKN280 21/01 A2985 RMK CU2CC2CI1 SLP112

CYWG;2007-04-20 23:00;CYWG 202300Z 19019G27KT 15SM FEW040 SCT210 22/02 A2984 RMK CU1CI2 SLP109

CYWG;2007-04-21 00:00;CYWG 210000Z 18023G28KT 15SM FEW040 BKN210 21/06 A2983 RMK CU1CI6 SLP106

CYWG;2007-04-21 01:00;CYWG 210100Z 19017G26KT 15SM FEW040TCU FEW095 SCT210 19/07 A2983 RMK TCU1AC1CI2 SLP105

CYWG;2007-04-21 02:00;CYWG 210200Z 18014G19KT 15SM FEW040TCU FEW095 BKN210 18/08 A2983 RMK TCU1ACC1CI2 SLP105

CYWG;2007-04-21 03:00;CYWG 210300Z 18009KT 15SM FEW040TCU FEW100 SCT210 16/09 A2983 RMK TCU1ACC1CI1 SLP107

CYWG;2007-04-21 04:00;CYWG 210400Z 20019G25KT 15SM -SHRA SCT047TCU BKN100 BKN220 16/08 A2985 RMK TCU3AC2CI1 SLP111

CYWG;2007-04-21 05:00;CYWG 210500Z 18013KT 15SM -SHRA BKN064TCU BKN100 BKN230 14/10 A2984 RMK TCU5AC1CI1 SLP108

CYWG;2007-04-21 05:06;CYWG 210506Z 18011KT 15SM SCT064TCU BKN090 BKN230 RMK TCU3AC2CI0

CYWG;2007-04-21 06:00;CYWG 210600Z 18014KT 15SM SCT043 BKN098 OVC230 13/09 A2986 RMK SC3AC3CI1 SLP113

CYWG;2007-04-21 07:00;CYWG 210700Z 20013G18KT 15SM BKN043 BKN090 14/10 A2985 RMK SC5AC2 SLP112

CYWG;2007-04-21 08:00;CYWG 210800Z 23010G16KT 15SM BKN054 BKN100 13/10 A2987 RMK SC5AC2 SLP117

CYWG;2007-04-21 09:00;CYWG 210900Z 23007KT 15SM FEW050 BKN074 11/08 A2987 RMK SC2AC2 SLP116

CYWG;2007-04-21 10:00;CYWG 211000Z 21005KT 15SM FEW045 SCT075 09/08 A2986 RMK SC2AC1 SLP114

CYWG;2007-04-21 11:00;CYWG 211100Z 22003KT 15SM FEW045 SCT200 09/08 A2985 RMK SC2CI1 SLP111

CYWG;2007-04-21 12:00;CYWG 211200Z 17004KT 12SM PRFG FEW045 BKN200 06/05 A2985 RMK SC2CI2 VSBY E LWR SLP114

CYWG;2007-04-21 13:00;CYWG 211300Z 16003KT 12SM FEW120 BKN200 11/10 A2984 RMK AC1CI2 VSBY E LWR SLP109

CYWG;2007-04-21 14:00;CYWG 211400Z 20005KT 8SM FEW120 BKN240 14/10 A2983 RMK AC1CI2 BR SLP107

CYWG;2007-04-21 15:00;CYWG 211500Z 22002KT 12SM FEW120 BKN240 15/10 A2981 RMK AC1CI2 SLP099

CYWG;2007-04-21 16:00;CYWG 211600Z 30003KT 12SM FEW050 FEW120 BKN240 17/05 A2980 RMK CU1AC1CI3 SLP096

CYWG;2007-04-21 17:00;CYWG 211700Z 17002KT 12SM FEW050 FEW120 BKN240 18/05 A2980 RMK CU1AC1CI4 SLP094

CYWG;2007-04-21 18:00;CYWG 211800Z 13005KT 12SM FEW050 FEW120 OVC240 19/05 A2976 RMK CU1AC1CI5 SLP080

CYWG;2007-04-21 19:00;CYWG 211900Z 00000KT 12SM FEW040 FEW120 OVC240 20/M02 A2975 RMK CU1AC1CI5 SLP078

CYWG;2007-04-21 20:00;CYWG 212000Z 34003KT 12SM FEW078 FEW098 OVC240 20/M00 A2976 RMK AC1AC1CS6 SLP080

CYWG;2007-04-21 21:00;CYWG 212100Z 29002KT 15SM SCT084 BKN240 21/M02 A2974 RMK AC3CS3 SLP072

CYWG;2007-04-21 22:00;CYWG 212200Z 34010KT 15SM BKN088 BKN240 18/00 A2974 RMK AC6CI1 SLP073

CYWG;2007-04-21 22:29;CYWG 212229Z 33010KT 15SM -SHRA SCT038 BKN075 15/ RMK SC3ACC4

CYWG;2007-04-21 23:00;CYWG 212300Z 31007G18KT 15SM -RA BKN029 BKN078 14/05 A2976 RMK SC5ACC2 SLP081

CYWG;2007-04-21 23:15;CYWG 212315Z 12003KT 15SM -RA BKN014 BKN077 15/ RMK SC5AC1

CYWG;2007-04-21 23:43;CYWG 212343Z 26003KT 15SM SCT014 BKN077 16/ RMK SC4AC1

CYWG;2007-04-22 01:00;CYWG 220100Z 00000KT 15SM SCT092 BKN240 16/08 A2974 RMK AC3CI1 SLP076

CYWG;2007-04-22 02:00;CYWG 220200Z 16007KT 15SM FEW100 BKN240 11/05 A2974 RMK AC2CI2 SLP078

CYWG;2007-04-22 03:00;CYWG 220300Z 17003KT 15SM FEW100 BKN240 11/06 A2974 RMK AC2CI1 SLP075

CYWG;2007-04-22 04:00;CYWG 220400Z 18003KT 15SM FEW100 BKN240 08/04 A2973 RMK AC1CI1 SLP073

CYWG;2007-04-22 05:00;CYWG 220500Z 18003KT 15SM FEW100 BKN240 09/04 A2973 RMK AC2CI1 SLP073

CYWG;2007-04-22 06:00;CYWG 220600Z 29004KT 15SM FEW100 BKN240 05/03 A2972 RMK AC2CI1 SLP070

CYWG;2007-04-22 07:00;CYWG 220700Z 28007KT 15SM FEW120 BKN240 06/02 A2974 RMK AC1CI1 SLP075

CYWG;2007-04-22 08:00;CYWG 220800Z 27002KT 15SM SCT250 04/02 A2974 RMK CI1 SLP074

CYWG;2007-04-22 09:00;CYWG 220900Z 31002KT 15SM SCT230 02/00 A2974 RMK CI1 SLP076

CYWG;2007-04-22 10:00;CYWG 221000Z 35005KT 15SM SCT230 01/M01 A2974 RMK CI1 SLP077

CYWG;2007-04-22 11:00;CYWG 221100Z 01004KT 15SM SCT230 03/M00 A2975 RMK CI1 SLP080

CYWG;2007-04-22 12:00;CYWG 221200Z 01004KT 15SM FEW100 BKN240 03/M00 A2977 RMK AC1CI1 SLP087

CYWG;2007-04-22 13:00;CYWG 221300Z 35004KT 15SM FEW070 BKN240 05/03 A2978 RMK AC2CI1 SLP092

CYWG;2007-04-22 14:00;CYWG 221400Z 03004KT 15SM FEW093 SCT240 09/04 A2979 RMK AC1CI2 SLP094

CYWG;2007-04-22 15:00;CYWG 221500Z 04006KT 15SM FEW240 12/05 A2981 RMK CI2 SLP099

CYWG;2007-04-22 16:00;CYWG 221600Z 34005KT 15SM FEW240 14/05 A2981 RMK CI1 SLP099

CYWG;2007-04-22 17:00;CYWG 221700Z 33004KT 15SM FEW047 SCT240 16/04 A2981 RMK CU2CI0 SLP100

CYWG;2007-04-22 18:00;CYWG 221800Z 33008G15KT 15SM SCT050 SCT240 17/04 A2981 RMK CU3CI1 SLP100

CYWG;2007-04-22 19:00;CYWG 221900Z 32013G18KT 15SM BKN050 16/04 A2980 RMK CU6 SLP098

CYWG;2007-04-22 20:00;CYWG 222000Z 32010KT 15SM BKN057 16/03 A2980 RMK CU6 SLP095

CYWG;2007-04-22 21:00;CYWG 222100Z 35014G20KT 15SM BKN058 BKN250 16/04 A2980 RMK CU6CI1 SLP096

CYWG;2007-04-22 21:51;CYWG 222151Z 01013G18KT 15SM -SHRA BKN055 BKN250 15/ RMK SC6CI1 CU ASOCTD

CYWG;2007-04-22 22:00;CYWG 222200Z 01012G17KT 15SM -SHRA BKN055 BKN250 14/05 A2982 RMK SC6CI1 SLP103

CYWG;2007-04-22 22:34;CYWG 222234Z 03012KT 15SM BKN053 BKN110 BKN250 14/ RMK SC6AC1CI1 CU ASOCTD

CYWG;2007-04-22 23:00;CYWG 222300Z 03016KT 15SM BKN053 BKN100 13/05 A2983 RMK SC6AC1 CU ASOCTD SLP109

CYWG;2007-04-23 00:00;CYWG 230000Z 04014KT 15SM FEW050 FEW086 12/05 A2984 RMK CU1AC2 CU TR SLP113

CYWG;2007-04-23 01:00;CYWG 230100Z 05014KT 15SM FEW086 FEW260 09/03 A2986 RMK AC1CI1 SLP119

CYWG;2007-04-23 02:00;CYWG 230200Z 03011KT 15SM FEW085 FEW260 06/02 A2988 RMK AC1CI1 SLP125

CYWG;2007-04-23 03:00;CYWG 230300Z 03011KT 15SM FEW085 05/02 A2990 RMK AC1 SLP132

CYWG;2007-04-23 04:00;CYWG 230400Z 04009KT 15SM SKC 04/01 A2992 RMK SLP139

CYWG;2007-04-23 04:39;CYWG 230439Z 04005KT 15SM SKC 02/

CYWG;2007-04-23 05:00;CYWG 230500Z 04008KT 15SM SKC 02/00 A2992 RMK SLP140

CYWG;2007-04-23 06:00;CYWG 230600Z 36007KT 15SM SKC 00/M02 A2994 RMK SLP145

CYWG;2007-04-23 07:00;CYWG 230700Z 30004KT 15SM SKC M01/M03 A2995 RMK SLP149

CYWG;2007-04-23 08:00;CYWG 230800Z 31005KT 15SM SKC M04/M05 A2996 RMK SLP153

CYWG;2007-04-23 09:00;CYWG 230900Z 33008KT 15SM SKC M04/M06 A2998 RMK SLP161

CYWG;2007-04-23 10:00;CYWG 231000Z 33005KT 15SM SKC M03/M05 A3000 RMK SLP169

CYWG;2007-04-23 11:00;CYWG 231100Z 31005KT 15SM FEW080 FEW250 M04/M06 A3003 RMK AC1CI1 TR AC TR CI SLP177

CYWG;2007-04-23 12:00;CYWG 231200Z 30006KT 15SM FEW080 M03/M05 A3005 RMK AC1 SLP186

CYWG;2007-04-23 13:00;CYWG 231300Z 35003KT 15SM FEW060 FEW080 02/M00 A3007 RMK SC1AC1 SLP194

CYWG;2007-04-23 14:00;CYWG 231400Z 02006KT 15SM FEW060 06/M01 A3009 RMK SC1 SLP199

CYWG;2007-04-23 15:00;CYWG 231500Z 36005KT 15SM FEW060 FEW250 08/M02 A3011 RMK SC1CI1 CI TR SLP204

CYWG;2007-04-23 16:00;CYWG 231600Z 33012KT 15SM FEW050 FEW100 FEW250 11/M04 A3011 RMK CU1AC1CI1 TR CU TR AC SLP204

CYWG;2007-04-23 17:00;CYWG 231700Z 34010G16KT 15SM FEW100 FEW250 12/M05 A3011 RMK AC1CI1 TR AC SLP206

CYWG;2007-04-23 18:00;CYWG 231800Z 34012KT 15SM FEW100 FEW250 13/M07 A3012 RMK AC1CI1 SLP208

CYWG;2007-04-23 19:00;CYWG 231900Z 03009KT 15SM FEW045 FEW100 FEW250 13/M07 A3012 RMK CU1AC1CI1 SLP208

CYWG;2007-04-23 20:00;CYWG 232000Z 34010G15KT 15SM FEW045 FEW100 FEW250 14/M07 A3012 RMK CU1AC1CI1 SLP209

CYWG;2007-04-23 21:00;CYWG 232100Z 33005KT 15SM FEW045 FEW100 FEW250 14/M08 A3012 RMK CU1AC1CI1 SLP208

CYWG;2007-04-23 22:00;CYWG 232200Z 33006KT 15SM FEW100 BKN250 15/M07 A3012 RMK AC1CI1 SLP209

CYWG;2007-04-23 23:00;CYWG 232300Z 34009G16KT 15SM FEW100 FEW250 15/M07 A3012 RMK AC1CI1 SLP210

CYWG;2007-04-24 00:00;CYWG 240000Z 31008KT 15SM FEW100 SCT250 14/M07 A3012 RMK AC1CI1 SLP210

CYWG;2007-04-24 01:00;CYWG 240100Z 05011KT 15SM FEW100 BKN250 11/M05 A3013 RMK AC1CI1 SLP214

CYWG;2007-04-24 02:00;CYWG 240200Z 04006KT 15SM FEW100 SCT250 07/M05 A3015 RMK AC1CI1 SLP218

CYWG;2007-04-24 03:00;CYWG 240300Z 02009KT 15SM SCT250 05/M04 A3016 RMK CI0 SLP222

CYWG;2007-04-24 04:00;CYWG 240400Z 05008KT 15SM FEW250 04/M04 A3017 RMK CI0 SLP226

CYWG;2007-04-24 05:00;CYWG 240500Z 05009KT 15SM FEW250 04/M07 A3019 RMK CI0 SLP230

CYWG;2007-04-24 06:00;CYWG 240600Z 06005KT 15SM FEW120 SCT250 03/M08 A3019 RMK AC2CI0 SLP233

CYWG;2007-04-24 06:17;CYWG 240617Z 05006KT 15SM FEW120 SCT250 02/ RMK AC2CI0

CYWG;2007-04-24 07:00;CYWG 240700Z 06006KT 15SM BKN120 03/M07 A3020 RMK AC6 SLP236

CYWG;2007-04-24 08:00;CYWG 240800Z 06007KT 15SM BKN077 03/M06 A3020 RMK AC7 SLP236

CYWG;2007-04-24 09:00;CYWG 240900Z 05007KT 15SM OVC071 03/M05 A3020 RMK AC8 SLP235

CYWG;2007-04-24 10:00;CYWG 241000Z 04008KT 15SM OVC059 03/M05 A3020 RMK SC8 SLP235

CYWG;2007-04-24 11:00;CYWG 241100Z 04007KT 15SM BKN059 03/M05 A3022 RMK SC6 SLP242

CYWG;2007-04-24 12:00;CYWG 241200Z 05005KT 15SM BKN042 OVC079 03/M04 A3023 RMK SC6AC2 CIG RGD SLP244

CYWG;2007-04-24 13:00;CYWG 241300Z 12004KT 15SM OVC052 04/M04 A3024 RMK SC8 SLP248

CYWG;2007-04-24 14:00;CYWG 241400Z 14004KT 15SM BKN050 OVC066 06/M04 A3024 RMK SC5AC3 SLP249

CYWG;2007-04-24 15:00;CYWG 241500Z 14005KT 15SM BKN050 BKN084 07/M02 A3023 RMK SC6AC1 SLP247

CYWG;2007-04-24 16:00;CYWG 241600Z 15003KT 15SM FEW064 SCT090 10/M03 A3023 RMK SC2AC2 SLP246

CYWG;2007-04-24 17:00;CYWG 241700Z 12004KT 15SM FEW094 11/M01 A3022 RMK AC2 SLP241

CYWG;2007-04-24 18:00;CYWG 241800Z 09007KT 15SM FEW048 FEW098 12/M01 A3021 RMK CU1AC2 SLP238

CYWG;2007-04-24 19:00;CYWG 241900Z 35004KT 15SM FEW048 FEW098 13/M01 A3019 RMK CU1AC2 SLP233

CYWG;2007-04-24 20:00;CYWG 242000Z 05004KT 15SM FEW064 FEW120 13/M02 A3019 RMK CU1AC1 SLP230

CYWG;2007-04-24 21:00;CYWG 242100Z 05006KT 15SM FEW064 FEW120 15/M03 A3017 RMK CU1AC1 SLP223

CYWG;2007-04-24 22:00;CYWG 242200Z 32004KT 15SM FEW064 FEW120 15/M03 A3016 RMK CU1AC1 SLP220

CYWG;2007-04-24 23:00;CYWG 242300Z 05010G15KT 15SM FEW064 FEW120 14/M04 A3015 RMK CU1AC1 SLP218

CYWG;2007-04-25 00:00;CYWG 250000Z 04012KT 15SM FEW064 13/M05 A3014 RMK CU1 SLP215

CYWG;2007-04-25 01:00;CYWG 250100Z 04010KT 15SM SKC 10/M06 A3015 RMK SLP216

CYWG;2007-04-25 02:00;CYWG 250200Z 07005KT 15SM FEW200 07/M07 A3014 RMK CI1 SLP215

CYWG;2007-04-25 03:00;CYWG 250300Z 05002KT 15SM FEW200 05/M07 A3015 RMK CI0 SLP218

CYWG;2007-04-25 04:00;CYWG 250400Z 04006KT 15SM SKC 03/M05 A3015 RMK SLP218

CYWG;2007-04-25 05:00;CYWG 250500Z 03003KT 15SM SKC 03/M06 A3015 RMK SLP217

CYWG;2007-04-25 06:00;CYWG 250600Z 10002KT 15SM SKC M01/M07 A3015 RMK SLP218

CYWG;2007-04-25 07:00;CYWG 250700Z 14004KT 15SM SKC M01/M06 A3014 RMK SLP217

CYWG;2007-04-25 08:00;CYWG 250800Z 14005KT 15SM SKC 03/M06 A3014 RMK SLP215

CYWG;2007-04-25 08:38;CYWG 250838Z 15004KT 15SM SKC 02/

CYWG;2007-04-25 09:00;CYWG 250900Z 18004KT 15SM SKC 02/M07 A3012 RMK SLP207

CYWG;2007-04-25 10:00;CYWG 251000Z 17006KT 15SM SKC 00/M06 A3011 RMK SLP203

CYWG;2007-04-25 11:00;CYWG 251100Z 17004KT 15SM FEW250 M01/M06 A3009 RMK CI1 SLP199

CYWG;2007-04-25 12:00;CYWG 251200Z 16004KT 10SM FEW090 01/M03 A3009 RMK AC1 SLP200

CYWG;2007-04-25 13:00;CYWG 251300Z 17005KT 10SM FEW090 06/02 A3008 RMK AC1 SLP196

CYWG;2007-04-25 14:00;CYWG 251400Z 17009KT 12SM FEW090 10/01 A3006 RMK AC1 SLP188

CYWG;2007-04-25 15:00;CYWG 251500Z 17012KT 15SM FEW079 12/02 A3003 RMK AC1 ACC ASOCTD N SLP178

CYWG;2007-04-25 16:00;CYWG 251600Z 18010G16KT 15SM FEW080 15/03 A3002 RMK AC1 CONTRAILS SLP172

CYWG;2007-04-25 17:00;CYWG 251700Z 19015G20KT 15SM FEW200 17/03 A3000 RMK CI0 SLP166

CYWG;2007-04-25 18:00;CYWG 251800Z 19016KT 15SM SCT200 18/04 A2997 RMK CI0 SLP156

CYWG;2007-04-25 19:00;CYWG 251900Z 18015G21KT 15SM BKN230 20/05 A2995 RMK CI0 SLP149

CYWG;2007-04-25 20:00;CYWG 252000Z 19013G20KT 15SM FEW045 BKN230 21/05 A2991 RMK CU1CI1 SLP136

CYWG;2007-04-25 21:00;CYWG 252100Z 18013G20KT 15SM FEW045 BKN230 23/05 A2987 RMK CU1CI1 SLP118

CYWG;2007-04-25 22:00;CYWG 252200Z 21015G21KT 15SM FEW080 BKN250 23/05 A2984 RMK CU1CI1 SLP109

CYWG;2007-04-25 23:00;CYWG 252300Z 20014KT 15SM FEW078 BKN250 23/04 A2982 RMK CU1CI2 SLP103

CYWG;2007-04-26 00:00;CYWG 260000Z 20016KT 15SM FEW078 BKN250 22/03 A2980 RMK AC1CI2 SLP096

CYWG;2007-04-26 01:00;CYWG 260100Z 19015KT 15SM FEW080 BKN250 21/04 A2979 RMK AC2CI1 SLP093

CYWG;2007-04-26 02:00;CYWG 260200Z 18014KT 15SM FEW080 BKN250 18/04 A2979 RMK AC1CI1 SLP092

CYWG;2007-04-26 03:00;CYWG 260300Z 19018KT 15SM FEW250 18/05 A2978 RMK CI2 SLP088

CYWG;2007-04-26 04:00;CYWG 260400Z 19018G26KT 15SM FEW120 17/05 A2977 RMK AC2 SLP086

CYWG;2007-04-26 05:00;CYWG 260500Z 19018G24KT 15SM FEW120 16/05 A2977 RMK AC2 SLP083

CYWG;2007-04-26 06:00;CYWG 260600Z 20016KT 15SM BKN120 15/06 A2975 RMK AC5 SLP078

CYWG;2007-04-26 07:00;CYWG 260700Z 20013KT 15SM FEW120 13/06 A2974 RMK AC2 SLP075

CYWG;2007-04-26 08:00;CYWG 260800Z 22010KT 15SM FEW120 12/05 A2974 RMK AC2 SLP075

CYWG;2007-04-26 09:00;CYWG 260900Z 21006KT 15SM FEW120 10/04 A2974 RMK AC1 SLP074

CYWG;2007-04-26 10:00;CYWG 261000Z 24005KT 15SM FEW120 FEW250 08/03 A2974 RMK AC1CI0 SLP075

CYWG;2007-04-26 11:00;CYWG 261100Z 30007KT 15SM FEW120 FEW250 04/01 A2975 RMK AC1CI0 SLP076

CYWG;2007-04-26 12:00;CYWG 261200Z 00000KT 15SM FEW120 BKN250 05/01 A2976 RMK AC1CI0 SLP082

CYWG;2007-04-26 13:00;CYWG 261300Z 00000KT 15SM FEW120 BKN250 10/03 A2977 RMK AC1CI0 SLP086

CYWG;2007-04-26 14:00;CYWG 261400Z 03004KT 15SM FEW120 BKN250 15/04 A2977 RMK AC1CI0 SLP085

CYWG;2007-04-26 15:00;CYWG 261500Z 03009KT 15SM FEW120 BKN250 18/04 A2977 RMK AC1CI0 SLP083

CYWG;2007-04-26 16:00;CYWG 261600Z 03006KT 15SM BKN250 20/04 A2976 RMK CI0 SLP080

CYWG;2007-04-26 17:00;CYWG 261700Z 06009KT 15SM BKN250 21/03 A2976 RMK CI0 SLP078

CYWG;2007-04-26 18:00;CYWG 261800Z 04010KT 15SM FEW100 BKN250 23/03 A2975 RMK AC1CI0 SLP076

CYWG;2007-04-26 19:00;CYWG 261900Z 03008KT 15SM FEW060 FEW100 BKN250 23/02 A2973 RMK CU1AC1CI1 SLP070

CYWG;2007-04-26 20:00;CYWG 262000Z 04007KT 15SM FEW060 FEW100 BKN250 23/02 A2973 RMK CU1AC1CI1 SLP068

CYWG;2007-04-26 21:00;CYWG 262100Z 04009KT 15SM FEW060 FEW100 BKN250 23/02 A2971 RMK CU1AC1CI1 SLP063

CYWG;2007-04-26 22:00;CYWG 262200Z 05010KT 15SM FEW060 FEW100 BKN250 23/01 A2970 RMK CU1AC1CI1 SLP060

CYWG;2007-04-26 23:00;CYWG 262300Z 08008KT 15SM FEW060 FEW100 SCT250 22/01 A2970 RMK CU1AC1CI0 SLP058

CYWG;2007-04-27 00:00;CYWG 270000Z 03014KT 15SM FEW060 FEW100 SCT250 21/01 A2970 RMK CU1AC1CI0 SLP061

CYWG;2007-04-27 01:00;CYWG 270100Z 05012G17KT 15SM FEW100 BKN250 18/00 A2970 RMK AC2CI0 SLP061

CYWG;2007-04-27 02:00;CYWG 270200Z 05014KT 15SM BKN100 BKN250 16/M00 A2971 RMK AC4CI0 SLP064

CYWG;2007-04-27 03:00;CYWG 270300Z 05016KT 15SM BKN090 14/M05 A2971 RMK AC6 SLP064

CYWG;2007-04-27 04:00;CYWG 270400Z 05011KT 15SM BKN099 13/M04 A2970 RMK AC5 SLP060

CYWG;2007-04-27 05:00;CYWG 270500Z 04008KT 15SM BKN100 12/M03 A2969 RMK AC5 SLP056

CYWG;2007-04-27 06:00;CYWG 270600Z 04006KT 15SM BKN094 11/M02 A2967 RMK AC7 SLP051

CYWG;2007-04-27 07:00;CYWG 270700Z 31010KT 15SM OVC091 10/M02 A2970 RMK AC8 SLP059

CYWG;2007-04-27 08:00;CYWG 270800Z 03011G16KT 15SM OVC088 12/M05 A2967 RMK AC8 SLP051

CYWG;2007-04-27 09:00;CYWG 270900Z 36013G18KT 15SM SCT055 OVC080 12/M03 A2970 RMK SC3AC5 SLP058

CYWG;2007-04-27 10:00;CYWG 271000Z 03019KT 15SM OVC055 12/M02 A2968 RMK SC8 SLP054

CYWG;2007-04-27 11:00;CYWG 271100Z 03014KT 15SM FEW055 BKN087 OVC210 11/M02 A2968 RMK SC2AC3CI2 SLP052

CYWG;2007-04-27 12:00;CYWG 271200Z 04014KT 15SM FEW055 BKN100 OVC210 11/01 A2969 RMK CU1AC4CI3 SLP056

CYWG;2007-04-27 13:00;CYWG 271300Z 04020KT 15SM FEW055 BKN100 BKN210 10/02 A2970 RMK CU1AC4CI2 SLP059

CYWG;2007-04-27 14:00;CYWG 271400Z 02017KT 15SM FEW084 SCT100 SCT250 11/03 A2973 RMK ACC1AC2CC1 SLP070

CYWG;2007-04-27 15:00;CYWG 271500Z 02019G27KT 15SM FEW084 FEW100 SCT250 15/05 A2974 RMK ACC1AC2CI1 SLP075

CYWG;2007-04-27 16:00;CYWG 271600Z 30005KT 15SM BKN100 14/M01 A2975 RMK AC6 ACC ASOCTD VIRGA SLP080

CYWG;2007-04-27 17:00;CYWG 271700Z 01017KT 15SM BKN079 BKN250 17/06 A2975 RMK AC4CI0 SLP078

CYWG;2007-04-27 18:00;CYWG 271800Z 03013KT 15SM FEW048 BKN071 BKN250 17/06 A2976 RMK CU1AC2CI1 SLP080

CYWG;2007-04-27 19:00;CYWG 271900Z 03011G19KT 15SM FEW052 BKN073 BKN250 17/04 A2976 RMK CU2AC3CI0 SLP081

CYWG;2007-04-27 20:00;CYWG 272000Z 33014KT 15SM SCT054 BKN078 BKN250 18/04 A2976 RMK SC3AC2CI1 SLP082

CYWG;2007-04-27 21:00;CYWG 272100Z 32013KT 15SM SCT056 BKN093 BKN250 19/05 A2977 RMK SC3AC3CI1 SLP083

CYWG;2007-04-27 22:00;CYWG 272200Z 32014KT 15SM FEW056 SCT095 BKN250 18/04 A2978 RMK SC2AC2CI3 SLP087

CYWG;2007-04-27 23:00;CYWG 272300Z 31012G18KT 15SM FEW058 FEW095 BKN250 18/04 A2979 RMK SC2AC1CI1 SLP090

CYWG;2007-04-28 00:00;CYWG 280000Z 32012KT 15SM FEW058 SCT250 18/03 A2980 RMK SC2CI0 SLP093

CYWG;2007-04-28 01:00;CYWG 280100Z 31010KT 15SM FEW086 FEW250 16/M01 A2981 RMK AC1CI0 SLP098

CYWG;2007-04-28 02:00;CYWG 280200Z 03005KT 15SM FEW086 FEW250 12/01 A2982 RMK AC1CI1 SLP101

CYWG;2007-04-28 03:00;CYWG 280300Z 10002KT 15SM FEW085 FEW250 08/00 A2983 RMK AC1CI0 SLP105

CYWG;2007-04-28 04:00;CYWG 280400Z 26003KT 15SM FEW085 FEW250 07/01 A2983 RMK AC1CI0 SLP107

CYWG;2007-04-28 05:00;CYWG 280500Z 23005KT 15SM FEW085 FEW250 10/01 A2983 RMK AC2CI0 SLP108

CYWG;2007-04-28 06:00;CYWG 280600Z 23003KT 15SM FEW090 FEW250 07/00 A2983 RMK AC1CI0 SLP108

CYWG;2007-04-28 07:00;CYWG 280700Z 23005KT 15SM FEW090 07/00 A2983 RMK AC1 SLP107

CYWG;2007-04-28 08:00;CYWG 280800Z 23008KT 15SM SKC 09/01 A2983 RMK SLP108

CYWG;2007-04-28 09:00;CYWG 280900Z 24006KT 15SM BKN087 09/02 A2984 RMK AC5 SLP108

CYWG;2007-04-28 10:00;CYWG 281000Z 00000KT 15SM BKN079 08/01 A2985 RMK AC6 VIRGA NE SLP111

CYWG;2007-04-28 11:00;CYWG 281100Z 20006KT 15SM SCT088 07/01 A2984 RMK AC4 VIRGA SLP110

CYWG;2007-04-28 12:00;CYWG 281200Z 21007KT 15SM FEW088 07/01 A2984 RMK AC2 SLP111

CYWG;2007-04-28 13:00;CYWG 281300Z 22007KT 15SM FEW090 11/03 A2985 RMK AC1 SLP112

CYWG;2007-04-28 14:00;CYWG 281400Z 21007KT 15SM FEW100 FEW240 15/04 A2985 RMK AC1CI0 SLP113

CYWG;2007-04-28 15:00;CYWG 281500Z 24010KT 15SM FEW240 18/03 A2985 RMK CI1 SLP112

CYWG;2007-04-28 16:00;CYWG 281600Z 22007KT 15SM FEW240 19/02 A2984 RMK CI1 SLP111

CYWG;2007-04-28 17:00;CYWG 281700Z 29002KT 15SM SCT240 21/02 A2983 RMK CI1 SLP106

CYWG;2007-04-28 18:00;CYWG 281800Z 29006G16KT 15SM FEW048 FEW095 FEW240 22/M00 A2981 RMK CU1AC1CI1 SLP098

CYWG;2007-04-28 19:00;CYWG 281900Z 28008KT 15SM FEW048 FEW095 FEW240 24/M02 A2979 RMK CU1AC1CI1 SLP090

CYWG;2007-04-28 20:00;CYWG 282000Z 24006KT 15SM SCT060 BKN240 24/M03 A2977 RMK SC2CI1 SLP084

CYWG;2007-04-28 21:00;CYWG 282100Z 21008G17KT 15SM FEW083 BKN240 24/M01 A2974 RMK AC1CI2 SLP075

CYWG;2007-04-28 22:00;CYWG 282200Z 21011KT 15SM FEW092 SCT150 BKN240 25/01 A2970 RMK CU2AC1CI2 SLP060

CYWG;2007-04-28 23:00;CYWG 282300Z 19010G15KT 15SM FEW092 SCT150 BKN240 26/02 A2966 RMK CU2AC2CI2 SLP048

CYWG;2007-04-29 00:00;CYWG 290000Z 22008KT 15SM SCT046 SCT150 BKN240 24/02 A2965 RMK CU4AC1CI2 TCU ASOCTD W-NW SLP043

CYWG;2007-04-29 01:00;CYWG 290100Z 20006KT 15SM SCT046TCU SCT095 BKN240 23/03 A2962 RMK TCU3AC1CI2 SLP035

CYWG;2007-04-29 02:00;CYWG 290200Z 21007KT 15SM FEW095 SCT240 19/03 A2961 RMK AC2CI1 SLP030

CYWG;2007-04-29 03:00;CYWG 290300Z 23009KT 15SM FEW095 SCT240 19/02 A2961 RMK AC2CI1 SLP027

CYWG;2007-04-29 04:00;CYWG 290400Z 23010KT 15SM FEW095 BKN240 18/02 A2960 RMK AC2CI2 SLP025

CYWG;2007-04-29 05:00;CYWG 290500Z 25012KT 15SM FEW095 SCT240 19/01 A2960 RMK AC1CI1 SLP025

CYWG;2007-04-29 06:00;CYWG 290600Z 26011KT 15SM FEW090 BKN240 16/02 A2962 RMK AC2CI1 SLP030

CYWG;2007-04-29 07:00;CYWG 290700Z 29012KT 15SM FEW090 FEW240 14/02 A2964 RMK AC1CI0 SLP037

CYWG;2007-04-29 08:00;CYWG 290800Z 29010KT 15SM FEW090 FEW240 09/02 A2967 RMK AC1CI0 SLP047

CYWG;2007-04-29 09:00;CYWG 290900Z 32014KT 15SM FEW240 09/02 A2971 RMK CI0 SLP065

CYWG;2007-04-29 10:00;CYWG 291000Z 31007KT 15SM FEW090 FEW250 05/01 A2976 RMK AC1CI0 SLP080

CYWG;2007-04-29 11:00;CYWG 291100Z 32008KT 15SM FEW090 FEW250 06/02 A2981 RMK AC1CI0 SLP097

CYWG;2007-04-29 12:00;CYWG 291200Z 25007KT 15SM FEW090 FEW250 06/03 A2987 RMK AC1CI1 SLP118

CYWG;2007-04-29 13:00;CYWG 291300Z 30010KT 15SM FEW250 09/04 A2991 RMK CI0 SLP133

CYWG;2007-04-29 14:00;CYWG 291400Z 32011KT 15SM FEW250 12/05 A2994 RMK CI0 SLP142

CYWG;2007-04-29 15:00;CYWG 291500Z 33017KT 15SM FEW250 14/04 A2996 RMK CI0 SLP150

CYWG;2007-04-29 16:00;CYWG 291600Z 32014G19KT 15SM FEW035 FEW250 16/03 A2997 RMK CF1CI0 SLP153

CYWG;2007-04-29 17:00;CYWG 291700Z 34016G21KT 15SM FEW050 FEW250 17/01 A2998 RMK CF1CI0 SLP155

CYWG;2007-04-29 18:00;CYWG 291800Z 35016G25KT 15SM FEW060 FEW250 18/M01 A2998 RMK CU1CI0 SLP156

CYWG;2007-04-29 19:00;CYWG 291900Z 33017G26KT 15SM FEW060 FEW250 19/M02 A2998 RMK CU1CI0 SLP154

CYWG;2007-04-29 20:00;CYWG 292000Z 32018G26KT 15SM FEW080 FEW250 19/M05 A2998 RMK AC1CI1 SLP154

CYWG;2007-04-29 21:00;CYWG 292100Z 35015G21KT 15SM FEW080 FEW250 20/M03 A2997 RMK AC1CI0 SLP153

CYWG;2007-04-29 22:00;CYWG 292200Z 33020G27KT 15SM FEW065 19/M02 A2996 RMK CU1 SLP151

CYWG;2007-04-29 23:00;CYWG 292300Z 33014KT 15SM FEW065 FEW250 19/M01 A2996 RMK CU1CI0 SLP150

CYWG;2007-04-30 00:00;CYWG 300000Z 33007KT 15SM FEW065 SCT250 18/M01 A2995 RMK CU1CI2 SLP148

CYWG;2007-04-30 01:00;CYWG 300100Z 36005KT 15SM BKN250 16/M00 A2994 RMK CI3 CC ASOCTD SLP145

CYWG;2007-04-30 02:00;CYWG 300200Z 05006KT 15SM FEW220 BKN250 14/M01 A2994 RMK CI1CI2 SLP145

CYWG;2007-04-30 03:00;CYWG 300300Z 10007KT 15SM FEW120 BKN250 12/M03 A2995 RMK AC2CI3 SLP146

CYWG;2007-04-30 04:00;CYWG 300400Z 11006KT 15SM FEW120 BKN250 11/M03 A2994 RMK AC2CI5 SLP143

CYWG;2007-04-30 05:00;CYWG 300500Z 13004KT 15SM FEW120 OVC250 11/M03 A2994 RMK AC2CI5 SLP143

CYWG;2007-04-30 06:00;CYWG 300600Z 14004KT 15SM FEW100 OVC250 11/M03 A2994 RMK AC2CI5 SLP144

CYWG;2007-04-30 07:00;CYWG 300700Z 15005KT 15SM BKN100 OVC250 11/M03 A2995 RMK AC5CI2 SLP145

CYWG;2007-04-30 08:00;CYWG 300800Z 16007KT 15SM BKN097 OVC250 10/M03 A2995 RMK AC6CI2 SLP147

CYWG;2007-04-30 09:00;CYWG 300900Z 15008KT 15SM BKN086 OVC250 11/M03 A2993 RMK AC6CI2 SLP140

CYWG;2007-04-30 10:00;CYWG 301000Z 15010KT 15SM BKN094 OVC250 11/M03 A2990 RMK AC6CI2 SLP129

CYWG;2007-04-30 11:00;CYWG 301100Z 17009KT 15SM SCT096 OVC280 11/M03 A2987 RMK AC4CI3 SLP120

CYWG;2007-04-30 12:00;CYWG 301200Z 18012KT 15SM SCT095 OVC280 12/M03 A2987 RMK AC4CS4 SLP119

CYWG;2007-04-30 13:00;CYWG 301300Z 18015KT 15SM BKN100 OVC280 12/M02 A2987 RMK AC6CS2 SLP118

CYWG;2007-04-30 14:00;CYWG 301400Z 20015KT 15SM BKN110 OVC280 13/02 A2985 RMK AC5CS3 SLP113

CYWG;2007-04-30 14:31;CYWG 301431Z 19019KT 15SM -RA FEW035 BKN100 OVC280 13/ RMK SC2AC3CS3

CYWG;2007-04-30 15:00;CYWG 301500Z 19014G19KT 15SM -RA BKN042 OVC100 13/05 A2983 RMK SC6AC2 SLP105

CYWG;2007-04-30 16:00;CYWG 301600Z 20011KT 10SM -RA FEW025 OVC066 12/08 A2983 RMK SC2AC6 BR SLP107

CYWG;2007-04-30 17:00;CYWG 301700Z 20004KT 12SM -RA BKN023 OVC068 13/08 A2983 RMK SC7AC1 BR SLP107

CYWG;2007-04-30 18:00;CYWG 301800Z 07006KT 5SM -RA BR OVC026 12/10 A2985 RMK SC8 SLP114

CYWG;2007-04-30 18:18;CYWG 301818Z 11007KT 8SM -RA BKN014 OVC070 12/ RMK SC6AC2

CYWG;2007-04-30 18:27;CYWG 301827Z 13008KT 13SM -RA FEW004 BKN014 BKN070 13/ RMK SF1SC5AC2 SF TR

CYWG;2007-04-30 19:00;CYWG 301900Z 16008KT 6SM -RA FEW014 BKN046 13/10 A2981 RMK SC2SC6 SLP100

CYWG;2007-04-30 19:47;CYWG 301947Z 16007KT 12SM FEW039 BKN063 13/ RMK SC2SC6

CYWG;2007-04-30 20:00;CYWG 302000Z 16009KT 12SM FEW043 BKN063 13/08 A2978 RMK SC2SC6 SLP091

CYWG;2007-04-30 21:00;CYWG 302100Z 16013KT 15SM FEW046 SCT076 SCT098 15/09 A2976 RMK SC2AC2ACC1 SLP081

CYWG;2007-04-30 22:00;CYWG 302200Z 16013KT 15SM FEW046 FEW095 17/09 A2971 RMK CU2AC1 SLP066

CYWG;2007-04-30 23:00;CYWG 302300Z 13014KT 15SM FEW053 FEW200 18/10 A2967 RMK CU2CI1 SLP053

CYWG;2007-04-30 23:37;CYWG 302337Z CCA 30024G32KT 15SM SCT053TCU SCT200 20/ RMK TCU3CI1 WSHFT 2327

CYWG;2007-05-01 01:00;CYWG 010100Z 32019G28KT 15SM FEW064TCU BKN200 15/08 A2972 RMK TCU1CI2 SLP068

CYWG;2007-05-01 02:00;CYWG 010200Z 32025G36KT 15SM FEW120 BKN200 09/04 A2979 RMK AC1CI2 SLP089

CYWG;2007-05-01 03:00;CYWG 010300Z 32022G30KT 15SM FEW100 BKN200 07/04 A2982 RMK AC2CI3 SLP105

CYWG;2007-05-01 03:55;CYWG 010355Z 31015G20KT 15SM BKN017 BKN100 07/ RMK SC6AC1

CYWG;2007-05-01 04:00;CYWG 010400Z 31014G19KT 15SM BKN017 BKN100 07/05 A2985 RMK SC6AC1 SLP113

CYWG;2007-05-01 05:00;CYWG 010500Z 33019G26KT 15SM OVC019 07/03 A2988 RMK SC8 SLP125

CYWG;2007-05-01 06:00;CYWG 010600Z 33021G28KT 15SM BKN021 OVC039 07/02 A2991 RMK SC7SC1 SLP134

CYWG;2007-05-01 07:00;CYWG 010700Z 32012G20KT 15SM BKN023 OVC093 07/03 A2993 RMK SC7AC1 SLP140

CYWG;2007-05-01 08:00;CYWG 010800Z 32015KT 15SM BKN023 07/03 A2993 RMK SC7 SLP143

CYWG;2007-05-01 09:00;CYWG 010900Z 32015KT 15SM BKN020 OVC050 07/03 A2995 RMK SC7SC1 SLP148

CYWG;2007-05-01 10:00;CYWG 011000Z 35019G24KT 15SM OVC023 07/03 A2997 RMK SC8 SLP155

CYWG;2007-05-01 11:00;CYWG 011100Z 34014G22KT 15SM OVC026 07/03 A2999 RMK SC8 SLP162

CYWG;2007-05-01 12:00;CYWG 011200Z 31013KT 15SM OVC021 07/03 A3003 RMK SC8 SLP174

CYWG;2007-05-01 13:00;CYWG 011300Z 31014KT 15SM BKN019 07/03 A3006 RMK SC7 SLP183

CYWG;2007-05-01 14:00;CYWG 011400Z 33019KT 15SM BKN018 08/03 A3007 RMK SC7 SLP188

CYWG;2007-05-01 15:00;CYWG 011500Z 35018G26KT 15SM BKN022 10/03 A3008 RMK SC6 SLP194

CYWG;2007-05-01 16:00;CYWG 011600Z 35022KT 15SM BKN029 12/03 A3009 RMK SC6 SLP198

CYWG;2007-05-01 17:00;CYWG 011700Z 02019KT 15SM SCT036 14/04 A3009 RMK SC4 SLP198

CYWG;2007-05-01 18:00;CYWG 011800Z 02015G24KT 15SM SCT042 14/03 A3010 RMK CU3 SLP199

CYWG;2007-05-01 19:00;CYWG 011900Z 36016KT 15SM SCT050 15/02 A3010 RMK CF2 SLP199

CYWG;2007-05-01 20:00;CYWG 012000Z 01014G20KT 15SM SCT050 16/02 A3010 RMK CF2 SLP199

CYWG;2007-05-01 21:00;CYWG 012100Z 03012G18KT 15SM FEW047 15/04 A3011 RMK CF2 SLP201

CYWG;2007-05-01 22:00;CYWG 012200Z 03009G18KT 15SM FEW052 FEW250 15/03 A3012 RMK CF2CI0 SLP206

CYWG;2007-05-01 23:00;CYWG 012300Z 03012KT 15SM FEW050 FEW250 15/02 A3012 RMK CF1CI0 SLP207

CYWG;2007-05-02 00:00;CYWG 020000Z 05015KT 15SM FEW050 FEW250 14/01 A3013 RMK CF1CI0 SLP210

CYWG;2007-05-02 01:00;CYWG 020100Z 06012KT 15SM FEW250 13/M00 A3013 RMK CI1 SLP210

CYWG;2007-05-02 02:00;CYWG 020200Z 06006KT 15SM FEW250 09/M00 A3014 RMK CI0 SLP212

CYWG;2007-05-02 03:00;CYWG 020300Z 07005KT 15SM FEW250 07/00 A3015 RMK CI0 SLP218

CYWG;2007-05-02 04:00;CYWG 020400Z 08007KT 15SM SKC 07/01 A3016 RMK SLP221

CYWG;2007-05-02 05:00;CYWG 020500Z 10008KT 15SM SKC 07/02 A3017 RMK SLP225

CYWG;2007-05-02 06:00;CYWG 020600Z 13008KT 15SM SKC 06/02 A3019 RMK SLP229

CYWG;2007-05-02 07:00;CYWG 020700Z 14007KT 15SM SKC 06/02 A3020 RMK SLP234

CYWG;2007-05-02 08:00;CYWG 020800Z 16007KT 15SM SKC 04/00 A3022 RMK SLP238

CYWG;2007-05-02 09:00;CYWG 020900Z 14004KT 15SM FEW120 03/00 A3022 RMK AC2 SLP239

CYWG;2007-05-02 10:00;CYWG 021000Z 14002KT 15SM SCT120 03/01 A3022 RMK AC4 SLP242

CYWG;2007-05-02 11:00;CYWG 021100Z 12003KT 15SM BKN120 03/01 A3022 RMK AC6 SLP242

CYWG;2007-05-02 12:00;CYWG 021200Z 12005KT 15SM BKN120 04/02 A3024 RMK AC6 SLP248

CYWG;2007-05-02 13:00;CYWG 021300Z 14007KT 15SM FEW120 BKN250 07/02 A3024 RMK AC2CI1 SLP249

CYWG;2007-05-02 14:00;CYWG 021400Z 12009KT 15SM FEW120 BKN250 09/02 A3024 RMK AC1CI1 SLP249

CYWG;2007-05-02 15:00;CYWG 021500Z 15008G15KT 15SM FEW120 SCT250 10/02 A3023 RMK AC1CI0 SLP244

CYWG;2007-05-02 16:00;CYWG 021600Z 13009KT 15SM FEW120 12/03 A3022 RMK AC1 SLP242

CYWG;2007-05-02 17:00;CYWG 021700Z 13012KT 15SM FEW120 13/03 A3021 RMK AC1 SLP237

CYWG;2007-05-02 18:00;CYWG 021800Z 13009G18KT 15SM FEW120 14/03 A3019 RMK AC1 SLP231

CYWG;2007-05-02 19:00;CYWG 021900Z 13010G18KT 15SM FEW120 15/02 A3017 RMK AC1 SLP223

CYWG;2007-05-02 20:00;CYWG 022000Z 14013KT 15SM FEW120 16/03 A3015 RMK AC1 SLP216

CYWG;2007-05-02 21:00;CYWG 022100Z 14012G17KT 15SM FEW120 17/02 A3012 RMK AC1 SLP206

CYWG;2007-05-02 22:00;CYWG 022200Z 12013G20KT 15SM FEW250 17/01 A3010 RMK CI0 SLP200

CYWG;2007-05-02 23:00;CYWG 022300Z 14016KT 15SM FEW250 17/01 A3008 RMK CI0 SLP192

CYWG;2007-05-03 00:00;CYWG 030000Z 11016KT 15SM FEW250 16/02 A3007 RMK CI1 SLP189

CYWG;2007-05-03 01:00;CYWG 030100Z 13017KT 15SM FEW120 BKN250 15/02 A3007 RMK AC1CI0 SLP188

CYWG;2007-05-03 02:00;CYWG 030200Z 12016KT 15SM FEW120 BKN250 14/02 A3006 RMK AC2CI0 ACC ASOCTD SLP187

CYWG;2007-05-03 03:00;CYWG 030300Z 12017G22KT 15SM SCT120 13/02 A3007 RMK AC2 SLP189

CYWG;2007-05-03 04:00;CYWG 030400Z 12014G19KT 15SM FEW100 12/02 A3007 RMK AC2 SLP189

CYWG;2007-05-03 05:00;CYWG 030500Z 13016KT 15SM SCT100 11/02 A3006 RMK AC4 SLP186

CYWG;2007-05-03 06:00;CYWG 030600Z 12013KT 15SM SCT100 11/02 A3006 RMK AC4 SLP184

CYWG;2007-05-03 07:00;CYWG 030700Z 14016KT 15SM BKN100 11/02 A3007 RMK AC6 SLP187

CYWG;2007-05-03 08:00;CYWG 030800Z 14016KT 15SM BKN100 11/02 A3006 RMK AC6 SLP184

CYWG;2007-05-03 09:00;CYWG 030900Z 14013G18KT 15SM SCT100 11/02 A3005 RMK AC4 SLP181

CYWG;2007-05-03 10:00;CYWG 031000Z 15012G19KT 15SM FEW100 10/02 A3006 RMK AC2 SLP183

CYWG;2007-05-03 11:00;CYWG 031100Z 14016KT 15SM FEW100 SCT280 09/02 A3006 RMK AC2CI1 SLP182

CYWG;2007-05-03 12:00;CYWG 031200Z 14014KT 15SM FEW100 SCT280 09/02 A3006 RMK AC1CI1 SLP183

CYWG;2007-05-03 13:00;CYWG 031300Z 15015KT 15SM FEW100 BKN280 10/03 A3005 RMK AC1CI2 SLP181

CYWG;2007-05-03 14:00;CYWG 031400Z 15016KT 15SM FEW100 BKN280 13/04 A3003 RMK AC1CI2 OBS TAKEN +7 SLP176

CYWG;2007-05-03 15:00;CYWG 031500Z 16014KT 15SM BKN280 15/04 A3003 RMK CI3 SLP173

CYWG;2007-05-03 16:00;CYWG 031600Z 15016G21KT 15SM FEW120 BKN280 17/05 A3002 RMK AC1CI2 SLP170

CYWG;2007-05-03 17:00;CYWG 031700Z 16015G22KT 15SM FEW120 BKN280 20/06 A3000 RMK AC1CI2 SLP164

CYWG;2007-05-03 18:00;CYWG 031800Z 16018G26KT 15SM FEW120 BKN250 21/05 A2999 RMK AC1CI2 SLP158

CYWG;2007-05-03 19:00;CYWG 031900Z 16018G25KT 15SM FEW120 BKN280 22/05 A2996 RMK AC1CI2 SLP150

CYWG;2007-05-03 20:00;CYWG 032000Z 16018G28KT 15SM BKN280 24/05 A2994 RMK CI2 SLP144

CYWG;2007-05-03 21:00;CYWG 032100Z 14018G27KT 15SM BKN280 22/05 A2993 RMK CI2 SLP137

CYWG;2007-05-03 22:00;CYWG 032200Z 15016G25KT 15SM BKN280 23/05 A2991 RMK CI3 SLP132

CYWG;2007-05-03 23:00;CYWG 032300Z 16021KT 15SM FEW060 SCT120 BKN280 22/03 A2990 RMK FU1AC2CI1 SLP128

CYWG;2007-05-04 00:00;CYWG 040000Z 15021G26KT 15SM SCT090 BKN280 21/02 A2989 RMK FU1CI2 SLP125

CYWG;2007-05-04 01:00;CYWG 040100Z 15017G27KT 15SM FEW090 OVC280 20/01 A2989 RMK FU1CI2 SLP124

CYWG;2007-05-04 02:00;CYWG 040200Z 14018KT 15SM FEW090 OVC280 20/01 A2988 RMK FU1CI2 SLP121

CYWG;2007-05-04 03:00;CYWG 040300Z 14018G24KT 15SM FEW090 BKN280 19/01 A2988 RMK AC2CI2 SLP122

CYWG;2007-05-04 04:00;CYWG 040400Z 14015KT 15SM SCT280 18/01 A2989 RMK CI1 SLP124

CYWG;2007-05-04 05:00;CYWG 040500Z 13014KT 15SM SKC 16/02 A2990 RMK SLP127

CYWG;2007-05-04 06:00;CYWG 040600Z 13011KT 15SM SKC 14/03 A2991 RMK SLP132

CYWG;2007-05-04 07:00;CYWG 040700Z 13011KT 15SM SKC 13/03 A2991 RMK SLP131

CYWG;2007-05-04 08:00;CYWG 040800Z 14014KT 15SM SKC 13/03 A2991 RMK SLP131

CYWG;2007-05-04 09:00;CYWG 040900Z 14016G21KT 15SM SKC 14/04 A2989 RMK SLP122

CYWG;2007-05-04 10:00;CYWG 041000Z 13017G22KT 15SM SKC 13/03 A2989 RMK SLP122

CYWG;2007-05-04 11:00;CYWG 041100Z 13015KT 15SM FEW100 FEW250 11/03 A2990 RMK AC1CI1 SLP125

CYWG;2007-05-04 12:00;CYWG 041200Z 13016KT 15SM BKN070 11/03 A2990 RMK AC6 SLP126

CYWG;2007-05-04 13:00;CYWG 041300Z 13017KT 15SM BKN092 12/03 A2989 RMK AC6 SLP125

CYWG;2007-05-04 14:00;CYWG 041400Z 13016KT 15SM VCSH BKN067 13/03 A2989 RMK AC7 SLP124

CYWG;2007-05-04 14:52;CYWG 041452Z 15019KT 15SM -SHRA OVC064 15/ RMK AC8

CYWG;2007-05-04 15:00;CYWG 041500Z 14014G21KT 15SM -SHRA FEW032 OVC063 15/04 A2989 RMK SC2AC6 SLP125

CYWG;2007-05-04 16:00;CYWG 041600Z 13015KT 15SM VCSH SCT033 OVC072 12/06 A2989 RMK SC3AC5 SLP123

CYWG;2007-05-04 17:00;CYWG 041700Z 12014KT 15SM -SHRA OVC033 13/06 A2988 RMK SC8 SLP120

CYWG;2007-05-04 18:00;CYWG 041800Z 13015KT 3SM RA OVC029 11/08 A2989 RMK SC8 SLP127

CYWG;2007-05-04 19:00;CYWG 041900Z 13013G18KT 5SM -RA BR OVC025 11/09 A2990 RMK SC8 RERA SLP128

CYWG;2007-05-04 20:00;CYWG 042000Z 13013KT 3SM -RA SCT007 OVC027 11/09 A2990 RMK ST3SC5 SLP130

CYWG;2007-05-04 21:00;CYWG 042100Z 14012KT 5SM -RA FEW007 OVC023 11/10 A2991 RMK SF2SC6 SLP132

CYWG;2007-05-04 22:00;CYWG 042200Z 14015KT 5SM -RA SCT008 BKN023 OVC062 12/11 A2989 RMK SF2SC4SC2 SLP126

CYWG;2007-05-04 23:00;CYWG 042300Z CCA 15013KT 6SM -RA BR FEW008 BKN022 OVC066 13/11 A2990 RMK SF2SC3AC3 SLP130

CYWG;2007-05-04 23:41;CYWG 042341Z 15011KT 6SM -RA BR BKN009 OVC025 RMK SF5SC3

CYWG;2007-05-04 23:42;CYWG 042342Z CCA 15011KT 6SM -RA BR BKN009 OVC025 13/ RMK SF5SC3

CYWG;2007-05-05 00:00;CYWG 050000Z 15010KT 5SM -RA BR SCT008 BKN014 OVC020 13/11 A2990 RMK SF3SF3SC2 SLP132

CYWG;2007-05-05 01:00;CYWG 050100Z 14011KT 5SM -RA BR SCT013 OVC027 13/11 A2991 RMK SF3SC5 SLP133

CYWG;2007-05-05 02:00;CYWG 050200Z 14012KT 5SM -RA BR FEW010 OVC024 13/11 A2992 RMK SF2SC6 SLP137

CYWG;2007-05-05 03:00;CYWG 050300Z 14013KT 10SM -RA FEW010 OVC026 12/11 A2993 RMK SF1SC8 SLP140

CYWG;2007-05-05 04:00;CYWG 050400Z 15010KT 12SM OVC030 12/11 A2994 RMK SC8 SLP143

CYWG;2007-05-05 05:00;CYWG 050500Z 15010KT 12SM FEW024 OVC040 12/11 A2996 RMK SF2SC6 SLP148

CYWG;2007-05-05 06:00;CYWG 050600Z 15014KT 10SM -RA FEW024 BKN036 OVC061 12/10 A2996 RMK SF2SC6SC1 SLP149

CYWG;2007-05-05 07:00;CYWG 050700Z 15015KT 6SM -RA BR FEW015 BKN027 OVC095 11/10 A2997 RMK SF2SC6AC1 SLP154

CYWG;2007-05-05 08:00;CYWG 050800Z 13010KT 4SM -RA BR SCT009 OVC027 11/10 A2997 RMK SF3SC5 SLP153

CYWG;2007-05-05 08:15;CYWG 050815Z 13009KT 4SM -RA BR BKN007 BKN018 OVC055 11/ RMK SF5SC2SC1

CYWG;2007-05-05 08:31;CYWG 050831Z 12011KT 6SM -RA BKN008 OVC018 RMK SC5SC3

CYWG;2007-05-05 09:00;CYWG 050900Z 12010G15KT 6SM -RA BKN009 BKN018 OVC053 11/09 A2996 RMK SC5SC2SC1 SLP151

CYWG;2007-05-05 09:11;CYWG 050911Z 10013KT 6SM -RA BKN006 OVC053 10/ RMK SC5SC3

CYWG;2007-05-05 10:00;CYWG 051000Z 11012KT 10SM -RA BKN008 OVC053 10/09 A2996 RMK SC6SC2 RN VRY LGT SLP150

CYWG;2007-05-05 10:16;CYWG 051016Z 12016G21KT 10SM -RA BKN006 OVC053 10/ RMK SC5SC3

CYWG;2007-05-05 10:24;CYWG 051024Z 12014G20KT 5SM -RA BR BKN006 OVC053 10/ RMK SC6SC2

CYWG;2007-05-05 11:00;CYWG 051100Z 12018KT 8SM -RA BKN008 OVC023 10/08 A2995 RMK SC7SC1 SLP147

CYWG;2007-05-05 11:16;CYWG 051116Z 12015G21KT 4SM BR BKN007 OVC023 10/ RMK SC7SC1

CYWG;2007-05-05 12:00;CYWG 051200Z 12012G18KT 10SM OVC007 10/08 A2995 RMK SC8 SLP149

CYWG;2007-05-05 13:00;CYWG 051300Z 13016KT 12SM OVC009 09/08 A2996 RMK SC8 SLP152

CYWG;2007-05-05 14:00;CYWG 051400Z 12013KT 12SM OVC009 10/08 A2996 RMK SC8 SLP152

CYWG;2007-05-05 15:00;CYWG 051500Z 13013G18KT 12SM OVC010 10/08 A2998 RMK SC8 SLP157

CYWG;2007-05-05 15:02;CYWG 051502Z 13014KT 12SM -RA OVC010 10/ RMK SC8

CYWG;2007-05-05 16:00;CYWG 051600Z 12014G20KT 4SM -RA BR OVC010 10/08 A2999 RMK SC8 SLP160

CYWG;2007-05-05 16:09;CYWG 051609Z 13017KT 5SM -RA BR OVC007 10/ RMK SC8

CYWG;2007-05-05 17:00;CYWG 051700Z 12014G19KT 5SM -RA BR OVC007 10/09 A2998 RMK SC8 SLP159

CYWG;2007-05-05 17:15;CYWG 051715Z 12016KT 6SM BR OVC008 10/ RMK SC8

CYWG;2007-05-05 18:00;CYWG 051800Z 13016KT 10SM OVC008 10/09 A2999 RMK SC8 SLP160

CYWG;2007-05-05 18:35;CYWG 051835Z 12016KT 3SM -RA BR OVC007 10/ RMK SC8

CYWG;2007-05-05 19:00;CYWG 051900Z 12012KT 3SM -RA BR OVC007 10/09 A2999 RMK SC8 VIS VRB 2-4 SLP163

CYWG;2007-05-05 19:21;CYWG 051921Z 12011KT 5SM BR OVC009 11/ RMK SC8

CYWG;2007-05-05 19:31;CYWG 051931Z 12011KT 6SM -RA BR OVC010 11/ RMK SC8

CYWG;2007-05-05 20:00;CYWG 052000Z 12014KT 6SM BR OVC012 11/10 A2998 RMK SC8 SLP157

CYWG;2007-05-05 20:20;CYWG 052020Z 12015KT 8SM OVC017 12/ RMK SC8

CYWG;2007-05-05 21:00;CYWG 052100Z 12013KT 10SM OVC019 13/10 A2996 RMK SC8 SLP150

CYWG;2007-05-05 22:00;CYWG 052200Z 14013KT 15SM FEW019 BKN040 OVC067 14/10 A2995 RMK SC1SC6AC2 SLP146

CYWG;2007-05-05 22:22;CYWG 052222Z 15015G20KT 15SM -SHRA OVC031 15/ RMK SC8

CYWG;2007-05-05 23:00;CYWG 052300Z 14012G17KT 15SM OVC037 15/10 A2996 RMK SC8 OCNL -SHRA SLP149

CYWG;2007-05-06 00:00;CYWG 060000Z 14011G16KT 15SM -SHRA BKN039 OVC094 15/10 A2996 RMK SC6AC2 SLP150

CYWG;2007-05-06 01:00;CYWG 060100Z 14016KT 6SM -SHRA OVC037 12/10 A2998 RMK SC8 SLP158

CYWG;2007-05-06 02:00;CYWG 060200Z 12014G20KT 6SM -SHRA FEW015 OVC038 11/10 A2998 RMK SF2SC6 SLP158

CYWG;2007-05-06 02:42;CYWG 060242Z 12016G21KT 10SM FEW015 OVC038 11/ RMK SF1SC7

CYWG;2007-05-06 03:00;CYWG 060300Z 12017KT 15SM BKN038 OVC095 11/08 A2997 RMK SC6AC2 SLP155

CYWG;2007-05-06 04:00;CYWG 060400Z 13021G27KT 15SM BKN044 OVC085 11/07 A2995 RMK SC5AC3 SLP149

CYWG;2007-05-06 04:14;CYWG 060414Z 14022G29KT 8SM -RA BKN044 OVC085 11/ RMK SC5AC3

CYWG;2007-05-06 05:00;CYWG 060500Z 13017G25KT 6SM -RA BR OVC031 10/07 A2996 RMK SC8 SLP150

CYWG;2007-05-06 06:00;CYWG 060600Z 13012KT 8SM -RA OVC036 10/06 A2995 RMK SC8 SLP147

CYWG;2007-05-06 07:00;CYWG 060700Z 12021G26KT 10SM -RA OVC028 10/06 A2989 RMK SC8 PRESFR SLP127

CYWG;2007-05-06 08:00;CYWG 060800Z 13028G37KT 10SM -RA OVC025 10/06 A2982 RMK SC8 PRESFR SLP105

CYWG;2007-05-06 09:00;CYWG 060900Z 17012G22KT 15SM BKN043 OVC090 11/06 A2984 RMK SC5AC3 SLP111

CYWG;2007-05-06 10:00;CYWG 061000Z 15012KT 15SM BKN038 OVC086 10/06 A2987 RMK SC5AC3 SLP118

CYWG;2007-05-06 11:00;CYWG 061100Z 15012KT 15SM SCT034 BKN120 OVC250 11/07 A2988 RMK SC3AC2CI2 SLP122

CYWG;2007-05-06 12:00;CYWG 061200Z 15010KT 15SM FEW040 OVC120 11/07 A2990 RMK SC2AC6 SLP128

CYWG;2007-05-06 13:00;CYWG 061300Z 15009KT 15SM BKN029 OVC120 12/07 A2989 RMK SC6AC2 SLP125

CYWG;2007-05-06 14:00;CYWG 061400Z 15011KT 15SM BKN029 OVC072 13/08 A2989 RMK SC5AC3 SLP125

CYWG;2007-05-06 15:00;CYWG 061500Z 15012G17KT 15SM FEW030 SCT047 BKN069 OVC250 13/08 A2987 RMK SC2SC2AC3CI1 SLP118

CYWG;2007-05-06 16:00;CYWG 061600Z 16015KT 15SM SCT035 BKN078 OVC250 14/08 A2988 RMK SC3AC3CI2 SLP123

CYWG;2007-05-06 16:37;CYWG 061637Z 14012KT 15SM -RA SCT035 OVC078 RMK SC3AC5

CYWG;2007-05-06 17:00;CYWG 061700Z 15012KT 15SM -RA FEW031 BKN078 OVC250 14/10 A2987 RMK SC2AC4CI2 SLP119

CYWG;2007-05-06 18:00;CYWG 061800Z 14010G15KT 15SM -RA FEW060 BKN085 OVC120 14/10 A2985 RMK SC2AC4AC2 SLP113

CYWG;2007-05-06 19:00;CYWG 061900Z 14012KT 15SM BKN036 OVC081 15/09 A2983 RMK SC5AC3 SLP107

CYWG;2007-05-06 20:00;CYWG 062000Z 14012G19KT 15SM OVC038 17/09 A2980 RMK SC8 SLP097

CYWG;2007-05-06 21:00;CYWG 062100Z 17014G19KT 15SM OVC029 17/11 A2978 RMK SC8 SLP088

CYWG;2007-05-06 22:00;CYWG 062200Z 18019G26KT 15SM BKN030 OVC095 17/12 A2976 RMK SC6AC2 SLP081

CYWG;2007-05-06 23:00;CYWG 062300Z 17021G30KT 15SM SCT026 OVC057 17/12 A2973 RMK SC4SC4 SLP071

CYWG;2007-05-07 00:00;CYWG 070000Z 18019G25KT 15SM BKN025 OVC039 17/12 A2973 RMK SC6SC2 SLP070

CYWG;2007-05-07 01:00;CYWG 070100Z 18015G20KT 15SM BKN019 OVC036 17/13 A2971 RMK SC6SC2 SLP064

CYWG;2007-05-07 02:00;CYWG 070200Z 18009KT 15SM OVC021 17/14 A2968 RMK SC8 SLP055

CYWG;2007-05-07 03:00;CYWG 070300Z 18009KT 15SM BKN023 BKN034 17/14 A2968 RMK SC6SC2 SLP054

CYWG;2007-05-07 04:00;CYWG 070400Z 18017G22KT 15SM FEW095 17/14 A2966 RMK AC2 SLP046

CYWG;2007-05-07 05:00;CYWG 070500Z 19020G29KT 15SM BKN032 BKN095 17/14 A2966 RMK SC5AC2 SLP046

CYWG;2007-05-07 05:25;CYWG 070525Z 23013G20KT 15SM BKN012 OVC025 17/ RMK SC6SC2

CYWG;2007-05-07 05:45;CYWG 070545Z 23011KT 15SM BKN009 BKN091 16/ RMK SC5AC2

CYWG;2007-05-07 06:00;CYWG 070600Z 25015G21KT 15SM BKN009 BKN090 14/11 A2967 RMK SC5AC2 SLP051

CYWG;2007-05-07 06:13;CYWG 070613Z 23010KT 15SM FEW014 SCT030 13/ RMK SF2SC2

CYWG;2007-05-07 06:36;CYWG 070636Z 25016G21KT 15SM BKN014 BKN030 13/ RMK SC5SC1

CYWG;2007-05-07 07:00;CYWG 070700Z 24011G16KT 15SM OVC012 12/10 A2969 RMK SC8 SLP057

CYWG;2007-05-07 07:24;CYWG 070724Z 24013KT 15SM OVC009 12/ RMK SC8

CYWG;2007-05-07 07:52;CYWG 070752Z 27017KT 8SM OVC004 12/ RMK ST8

CYWG;2007-05-07 08:00;CYWG 070800Z 28018KT 8SM OVC004 11/10 A2972 RMK ST8 SLP066

CYWG;2007-05-07 08:22;CYWG 070822Z 28014KT 4SM -DZ BR OVC004 11/ RMK ST8

CYWG;2007-05-07 08:45;CYWG 070845Z 29018KT 6SM -DZ BR OVC005 11/ RMK ST8

CYWG;2007-05-07 09:00;CYWG 070900Z 29018G24KT 8SM OVC006 11/09 A2974 RMK ST8 SLP076

CYWG;2007-05-07 10:00;CYWG 071000Z 29016KT 10SM OVC007 10/09 A2978 RMK ST8 SLP088

CYWG;2007-05-07 11:00;CYWG 071100Z 30015G21KT 15SM BKN008 OVC024 10/08 A2983 RMK ST7SC1 SLP103

CYWG;2007-05-07 12:00;CYWG 071200Z 31015KT 15SM BKN008 10/08 A2984 RMK SC7 SLP110

CYWG;2007-05-07 13:00;CYWG 071300Z 31011KT 15SM BKN008 10/08 A2987 RMK SC7 SLP117

CYWG;2007-05-07 13:33;CYWG 071333Z 29009KT 15SM SCT009 BKN250 12/ RMK SC4CI1

CYWG;2007-05-07 14:00;CYWG 071400Z 29009KT 15SM FEW009 FEW250 13/09 A2987 RMK CF1CI1 SLP119

CYWG;2007-05-07 15:00;CYWG 071500Z 27010KT 15SM FEW250 15/09 A2987 RMK CI1 SLP117

CYWG;2007-05-07 16:00;CYWG 071600Z 27007KT 15SM SCT250 17/10 A2987 RMK CI2 SLP117

CYWG;2007-05-07 17:00;CYWG 071700Z 24009KT 15SM BKN250 20/10 A2985 RMK CI2 SLP112

CYWG;2007-05-07 18:00;CYWG 071800Z 26012G19KT 15SM FEW050 BKN250 21/08 A2986 RMK CF1CI2 SLP112

CYWG;2007-05-07 19:00;CYWG 071900Z 29018KT 15SM FEW050 BKN250 23/05 A2983 RMK CU2CI1 SLP105

CYWG;2007-05-07 20:00;CYWG 072000Z 29018G24KT 15SM FEW050 BKN250 23/04 A2982 RMK CU1CI1 SLP101

CYWG;2007-05-07 21:00;CYWG 072100Z 27012G22KT 15SM FEW050 FEW250 24/03 A2982 RMK CU1CI1 CU TR SLP100

CYWG;2007-05-07 22:00;CYWG 072200Z 26012G18KT 15SM FEW250 24/04 A2979 RMK CI1 SLP091

CYWG;2007-05-07 23:00;CYWG 072300Z 30012G18KT 15SM FEW250 24/03 A2979 RMK CI1 SLP089

CYWG;2007-05-08 00:00;CYWG 080000Z 28016KT 15SM FEW250 24/03 A2980 RMK CI1 SLP092

CYWG;2007-05-08 01:00;CYWG 080100Z 27009KT 15SM FEW080 22/04 A2980 RMK AC1 SLP095

CYWG;2007-05-08 02:00;CYWG 080200Z 25008KT 15SM FEW080 20/03 A2980 RMK AC1 SLP094

CYWG;2007-05-08 03:00;CYWG 080300Z 24008KT 15SM FEW080 19/04 A2981 RMK AC1 SLP098

CYWG;2007-05-08 03:06;CYWG 080306Z 33013KT 15SM FEW080 17/ RMK AC1 WND SHFT 0301

CYWG;2007-05-08 04:00;CYWG 080400Z 25007KT 15SM FEW080 17/04 A2984 RMK AC1 SLP106

CYWG;2007-05-08 05:00;CYWG 080500Z 26007KT 15SM SKC 15/05 A2985 RMK SLP110

CYWG;2007-05-08 06:00;CYWG 080600Z 25007KT 15SM SKC 14/05 A2986 RMK SLP112

CYWG;2007-05-08 07:00;CYWG 080700Z 26007KT 15SM SKC 13/05 A2987 RMK SLP116

CYWG;2007-05-08 08:00;CYWG 080800Z 26006KT 15SM SKC 12/05 A2987 RMK SLP117

CYWG;2007-05-08 09:00;CYWG 080900Z 26008KT 15SM SKC 12/05 A2988 RMK SLP122

CYWG;2007-05-08 10:00;CYWG 081000Z 26009KT 15SM FEW090 FEW250 12/05 A2989 RMK AC1CI0 SLP125

CYWG;2007-05-08 11:00;CYWG 081100Z 27007KT 15SM FEW250 11/05 A2990 RMK CI0 SLP129

CYWG;2007-05-08 12:00;CYWG 081200Z 27007KT 15SM FEW250 13/05 A2993 RMK CI1 SLP136

CYWG;2007-05-08 13:00;CYWG 081300Z 27005KT 15SM FEW250 16/06 A2994 RMK CI1 SLP141

CYWG;2007-05-08 14:00;CYWG 081400Z 29003KT 15SM SCT250 19/06 A2995 RMK CI1 SLP143

CYWG;2007-05-08 15:00;CYWG 081500Z 20004KT 15SM BKN250 21/06 A2996 RMK CI1 SLP145

CYWG;2007-05-08 16:00;CYWG 081600Z 16004KT 15SM BKN250 23/07 A2995 RMK CI2 SLP142

CYWG;2007-05-08 17:00;CYWG 081700Z 23008KT 15SM BKN250 24/06 A2993 RMK CI2 SLP137

CYWG;2007-05-08 18:00;CYWG 081800Z CCA 21012G19KT 15SM FEW250 26/07 A2990 RMK CI1 SLP128

CYWG;2007-05-08 19:00;CYWG 081900Z 19011G16KT 15SM FEW080 FEW250 27/07 A2989 RMK AC1CI1 SLP122

CYWG;2007-05-08 20:00;CYWG 082000Z 23012G17KT 15SM FEW099 FEW250 28/07 A2986 RMK AC1CI1 SLP114

CYWG;2007-05-08 21:00;CYWG 082100Z 23010G17KT 15SM BKN099 BKN250 28/06 A2983 RMK AC6CI0 SLP104

CYWG;2007-05-08 22:00;CYWG 082200Z 23014G20KT 15SM BKN100 BKN250 28/05 A2981 RMK AC6CI0 SLP097

CYWG;2007-05-08 23:00;CYWG 082300Z 24017KT 15SM SCT100 SCT250 28/04 A2980 RMK AC3CI0 SLP091

CYWG;2007-05-09 00:00;CYWG 090000Z 21015G22KT 15SM FEW100 28/04 A2978 RMK AC2 SLP086

CYWG;2007-05-09 01:00;CYWG 090100Z 23011KT 15SM FEW100 SCT250 26/04 A2977 RMK AC2CI0 SLP083

CYWG;2007-05-09 02:00;CYWG 090200Z 23010KT 15SM FEW100 SCT250 24/03 A2977 RMK AC2CI0 SLP082

CYWG;2007-05-09 03:00;CYWG 090300Z 21012KT 15SM FEW100 SCT250 22/04 A2977 RMK AC1CI1 SLP081

CYWG;2007-05-09 04:00;CYWG 090400Z 21018KT 15SM SCT100 BKN250 22/05 A2977 RMK AC4CI0 SLP081

CYWG;2007-05-09 05:00;CYWG 090500Z 21016G22KT 15SM FEW100 21/05 A2976 RMK AC2 SLP078

CYWG;2007-05-09 06:00;CYWG 090600Z 21016G21KT 15SM FEW100 20/06 A2976 RMK AC2 SLP077

CYWG;2007-05-09 07:00;CYWG 090700Z 21014KT 15SM FEW100 SCT250 18/06 A2976 RMK AC2CI0 SLP078

CYWG;2007-05-09 08:00;CYWG 090800Z 21014KT 15SM FEW100 SCT250 17/06 A2977 RMK AC1CI0 SLP079

CYWG;2007-05-09 09:00;CYWG 090900Z 22013KT 15SM FEW100 SCT250 16/06 A2977 RMK AC1CI0 SLP079

CYWG;2007-05-09 10:00;CYWG 091000Z 22010G15KT 15SM FEW250 15/07 A2977 RMK CI0 SLP081

CYWG;2007-05-09 11:00;CYWG 091100Z 22011KT 15SM FEW250 14/07 A2977 RMK CI1 SLP082

CYWG;2007-05-09 12:00;CYWG 091200Z 21008KT 15SM FEW250 14/08 A2979 RMK CI0 SLP087

CYWG;2007-05-09 13:00;CYWG 091300Z 21006KT 15SM FEW250 16/09 A2980 RMK CI0 COTRA SLP090

CYWG;2007-05-09 14:00;CYWG 091400Z 22007KT 15SM FEW250 19/10 A2980 RMK CI0 COTRA SLP093

CYWG;2007-05-09 15:00;CYWG 091500Z 20007KT 15SM SKC 22/11 A2979 RMK SLP088

CYWG;2007-05-09 16:00;CYWG 091600Z 21008KT 15SM SKC 26/11 A2978 RMK SLP083

CYWG;2007-05-09 17:00;CYWG 091700Z 19009KT 15SM SKC 28/11 A2976 RMK SLP078

CYWG;2007-05-09 18:00;CYWG 091800Z 21010G17KT 15SM SKC 30/08 A2974 RMK SLP071

CYWG;2007-05-09 19:00;CYWG 091900Z 19019G25KT 15SM FEW090 FEW250 30/07 A2973 RMK AC1CI1 AC TR CI TR SLP065

CYWG;2007-05-09 20:00;CYWG 092000Z 21017G22KT 15SM FEW090 FEW250 31/07 A2971 RMK AC1CI1 AC TR CI TR SLP060

CYWG;2007-05-09 21:00;CYWG 092100Z 21019KT 15SM FEW090 FEW250 31/07 A2969 RMK AC1CI1 AC TR CI TR SLP053

CYWG;2007-05-09 22:00;CYWG 092200Z 23013G21KT 15SM FEW090 FEW250 31/06 A2967 RMK AC1CI1 AC TR CI TR SLP048

CYWG;2007-05-09 23:00;CYWG 092300Z 22015KT 15SM FEW090 FEW250 31/06 A2966 RMK AC1CI1 AC TR CI TR SLP043

CYWG;2007-05-10 00:00;CYWG 100000Z 23013G21KT 15SM FEW090 FEW250 30/07 A2964 RMK AC1CI1 AC TR CI TR SLP038

CYWG;2007-05-10 01:00;CYWG 100100Z 23011G17KT 15SM FEW090 FEW250 29/06 A2964 RMK AC1CI1 AC TR CI TR SLP036

CYWG;2007-05-10 02:00;CYWG 100200Z 23012KT 15SM FEW090 FEW250 27/07 A2965 RMK AC1CI0 SLP039

CYWG;2007-05-10 03:00;CYWG 100300Z 22009KT 15SM FEW090 23/06 A2966 RMK AC1 SLP044

CYWG;2007-05-10 04:00;CYWG 100400Z 22013KT 15SM FEW090 24/08 A2967 RMK AC1 SLP046

CYWG;2007-05-10 05:00;CYWG 100500Z 23015KT 15SM FEW100 23/07 A2968 RMK AC2 SLP051

CYWG;2007-05-10 06:00;CYWG 100600Z 30009KT 15SM BKN100 20/07 A2973 RMK AC5 SLP065

CYWG;2007-05-10 07:00;CYWG 100700Z 31014G19KT 15SM FEW100 18/05 A2977 RMK AC2 SLP080

CYWG;2007-05-10 08:00;CYWG 100800Z 32015G20KT 15SM FEW100 16/06 A2982 RMK AC2 SLP095

CYWG;2007-05-10 09:00;CYWG 100900Z 32022G28KT 15SM FEW100 14/07 A2987 RMK AC1 SLP114

CYWG;2007-05-10 10:00;CYWG 101000Z 32018G26KT 15SM FEW100 09/04 A2993 RMK AC1 PRESRR SLP136

CYWG;2007-05-10 11:00;CYWG 101100Z 32014KT 15SM FEW023 07/03 A2997 RMK SC2 SLP149

CYWG;2007-05-10 12:00;CYWG 101200Z 35018G26KT 15SM SCT023 08/02 A3003 RMK SC3 SLP170

CYWG;2007-05-10 13:00;CYWG 101300Z 35018KT 15SM BKN026 09/02 A3007 RMK SC6 SLP183

CYWG;2007-05-10 14:00;CYWG 101400Z 01014G25KT 15SM BKN028 10/03 A3009 RMK SC5 SLP191

CYWG;2007-05-10 15:00;CYWG 101500Z 36017KT 15SM BKN030 11/03 A3011 RMK SC6 SLP200

CYWG;2007-05-10 16:00;CYWG 101600Z 34016G21KT 15SM BKN034 12/03 A3014 RMK SC5 SLP210

CYWG;2007-05-10 17:00;CYWG 101700Z 36015G21KT 15SM FEW037 13/04 A3015 RMK SC2 SLP211

CYWG;2007-05-10 18:00;CYWG 101800Z 01010G21KT 15SM SCT041 14/04 A3016 RMK SC3 SLP217

CYWG;2007-05-10 19:00;CYWG 101900Z 36011G18KT 15SM FEW043 FEW080 SCT240 15/04 A3018 RMK SC1AC1CI1 TR AC SLP221

CYWG;2007-05-10 20:00;CYWG 102000Z 02011G17KT 15SM FEW047 FEW080 FEW250 15/03 A3019 RMK SC1AC1CI1 TR AC SLP224

CYWG;2007-05-10 21:00;CYWG 102100Z 01016KT 15SM FEW047 FEW250 15/04 A3019 RMK SC1CI2 TR SC SLP227

CYWG;2007-05-10 22:00;CYWG 102200Z 03015G20KT 15SM FEW047 FEW250 14/04 A3020 RMK SC1CI1 TR SC SLP230

CYWG;2007-05-10 23:00;CYWG 102300Z 36014KT 15SM FEW047 SCT220 14/03 A3021 RMK SC1CI3 TR SC SLP234

CYWG;2007-05-11 00:00;CYWG 110000Z 05014KT 15SM FEW060 SCT097 BKN210 12/03 A3022 RMK SC1AC3CI2 TR SC SLP241

CYWG;2007-05-11 01:00;CYWG 110100Z 04012KT 15SM FEW060 BKN120 BKN200 11/02 A3024 RMK SC1AC5CI1 TR SC SLP246

CYWG;2007-05-11 02:00;CYWG 110200Z 04010KT 15SM BKN120 BKN200 10/02 A3025 RMK AC5CI1 SLP251

CYWG;2007-05-11 03:00;CYWG 110300Z 05007KT 15SM FEW120 SCT200 08/01 A3025 RMK AC2CI1 SLP250

CYWG;2007-05-11 04:00;CYWG 110400Z 03007KT 15SM SCT120 06/02 A3028 RMK AC2 SLP261

CYWG;2007-05-11 05:00;CYWG 110500Z 01006KT 15SM FEW120 05/02 A3029 RMK AC2 SLP264

CYWG;2007-05-11 06:00;CYWG 110600Z 02006KT 15SM BKN120 06/01 A3029 RMK AC6 SLP266

CYWG;2007-05-11 07:00;CYWG 110700Z 03009KT 15SM BKN110 06/01 A3028 RMK AC5 SLP261

CYWG;2007-05-11 08:00;CYWG 110800Z 04010KT 15SM BKN110 06/01 A3029 RMK AC7 SLP264

CYWG;2007-05-11 09:00;CYWG 110900Z 05008KT 15SM OVC100 06/02 A3029 RMK AC8 SLP264

CYWG;2007-05-11 10:00;CYWG 111000Z 05004KT 15SM BKN093 06/03 A3031 RMK AC7 SLP270

CYWG;2007-05-11 11:00;CYWG 111100Z 02004KT 15SM BKN072 06/03 A3033 RMK AC6 SLP278

CYWG;2007-05-11 12:00;CYWG 111200Z 05004KT 15SM BKN085 07/03 A3034 RMK AC6 SLP282

CYWG;2007-05-11 13:00;CYWG 111300Z 08004KT 15SM BKN096 07/03 A3035 RMK AC7 ACC ASOCTD SLP285

CYWG;2007-05-11 14:00;CYWG 111400Z 12005KT 15SM OVC082 09/02 A3035 RMK AC7 ACC ASOCTD SLP286

CYWG;2007-05-11 15:00;CYWG 111500Z 09004KT 15SM OVC099 10/03 A3035 RMK AC8 ACC ASOCTD SLP286

CYWG;2007-05-11 16:00;CYWG 111600Z 10004KT 15SM OVC096 10/03 A3035 RMK AC8 ACC ASOCTD SLP286

CYWG;2007-05-11 17:00;CYWG 111700Z 10004KT 15SM FEW030 OVC094 11/02 A3036 RMK CU1AC7 SLP288

CYWG;2007-05-11 18:00;CYWG 111800Z 09003KT 15SM FEW030 OVC092 12/02 A3035 RMK CU2AC6 ACC ASOCTD SLP284

CYWG;2007-05-11 19:00;CYWG 111900Z 10004KT 15SM FEW040 OVC097 12/01 A3033 RMK CU2AC6 SLP279

CYWG;2007-05-11 20:00;CYWG 112000Z 13004KT 15SM FEW040 BKN072 OVC120 13/03 A3032 RMK CU2AC3AC3 SLP274

CYWG;2007-05-11 21:00;CYWG 112100Z 20002KT 15SM SCT046 BKN077 OVC120 13/03 A3031 RMK CU3AC2AC2 SLP270

CYWG;2007-05-11 22:00;CYWG 112200Z 04004KT 15SM FEW049 BKN120 OVC250 14/04 A3029 RMK SC2AC3CI2 SLP266

CYWG;2007-05-11 23:00;CYWG 112300Z 05006KT 15SM FEW051 BKN120 BKN250 13/03 A3029 RMK SC2AC2CI2 SLP264

CYWG;2007-05-12 00:00;CYWG 120000Z 36004KT 15SM FEW050 SCT085 BKN250 13/02 A3028 RMK SC2AC1CI2 SLP262

CYWG;2007-05-12 01:00;CYWG 120100Z 35008KT 15SM FEW050 SCT085 BKN250 12/02 A3028 RMK SC2AC1CI1 SLP261

CYWG;2007-05-12 02:00;CYWG 120200Z 36005KT 15SM FEW050 FEW085 SCT250 08/01 A3029 RMK SC2AC1CI0 SLP263

CYWG;2007-05-12 03:00;CYWG 120300Z 01002KT 15SM FEW052 SCT085 SCT250 08/00 A3030 RMK SC2AC1CI0 SLP268

CYWG;2007-05-12 04:00;CYWG 120400Z 09002KT 15SM FEW052 FEW085 06/00 A3029 RMK SC2AC0 SLP267

CYWG;2007-05-12 05:00;CYWG 120500Z 04002KT 15SM FEW052 05/M00 A3029 RMK SC1 SLP267

CYWG;2007-05-12 06:00;CYWG 120600Z 12002KT 15SM SKC 04/00 A3029 RMK SLP267

CYWG;2007-05-12 07:00;CYWG 120700Z 10002KT 15SM SKC 05/01 A3029 RMK SLP267

CYWG;2007-05-12 08:00;CYWG 120800Z 00000KT 15SM SKC 03/M00 A3029 RMK SLP265

CYWG;2007-05-12 09:00;CYWG 120900Z 05002KT 15SM SKC 02/00 A3029 RMK SLP266

CYWG;2007-05-12 10:00;CYWG 121000Z 08002KT 15SM FEW250 02/00 A3028 RMK CI1 SLP263

CYWG;2007-05-12 11:00;CYWG 121100Z 00000KT 15SM FEW250 02/00 A3029 RMK CI1 SLP265

CYWG;2007-05-12 12:00;CYWG 121200Z 00000KT 15SM FEW250 03/01 A3029 RMK CI1 SLP267

CYWG;2007-05-12 13:00;CYWG 121300Z 14005KT 15SM FEW250 10/02 A3029 RMK CI1 SLP267

CYWG;2007-05-12 14:00;CYWG 121400Z 14004KT 15SM FEW250 12/02 A3029 RMK CI0 SLP264

CYWG;2007-05-12 15:00;CYWG 121500Z 12008KT 15SM FEW250 14/02 A3028 RMK CI0 SLP259

CYWG;2007-05-12 16:00;CYWG 121600Z 16009KT 15SM FEW250 16/03 A3027 RMK CI0 SLP256

CYWG;2007-05-12 17:00;CYWG 121700Z 16007KT 15SM FEW250 17/02 A3025 RMK CI0 SLP251

CYWG;2007-05-12 18:00;CYWG 121800Z 12005G15KT 15SM SCT250 17/02 A3022 RMK CI0 SLP242

CYWG;2007-05-12 19:00;CYWG 121900Z 11008G15KT 15SM BKN250 18/03 A3019 RMK CI0 SLP232

CYWG;2007-05-12 20:00;CYWG 122000Z 14008KT 15SM BKN250 19/03 A3017 RMK CI2 SLP225

CYWG;2007-05-12 21:00;CYWG 122100Z 20007KT 15SM BKN250 20/04 A3015 RMK CI2 SLP215

CYWG;2007-05-12 22:00;CYWG 122200Z 16011KT 15SM BKN250 20/04 A3012 RMK CI2 SLP208

CYWG;2007-05-12 23:00;CYWG 122300Z 17012KT 15SM BKN250 20/04 A3011 RMK CI2 SLP202

CYWG;2007-05-13 00:00;CYWG 130000Z 15009G15KT 12SM BKN250 20/04 A3008 RMK CI3 FU SLP193

CYWG;2007-05-13 01:00;CYWG 130100Z 15009KT 12SM BKN250 19/04 A3006 RMK CI2 FU SLP185

CYWG;2007-05-13 02:00;CYWG 130200Z 14009KT 15SM FEW140 BKN250 17/03 A3005 RMK AC1CI2 FU SLP181

CYWG;2007-05-13 03:00;CYWG 130300Z 13009KT 15SM FEW140 FEW250 15/03 A3004 RMK AC1CI0 SLP178

CYWG;2007-05-13 04:00;CYWG 130400Z 14008KT 15SM FEW250 15/03 A3004 RMK CI0 SLP176

CYWG;2007-05-13 05:00;CYWG 130500Z 15012KT 15SM FEW120 FEW250 15/03 A3002 RMK AC1CI1 SLP171

CYWG;2007-05-13 06:00;CYWG 130600Z 15012KT 15SM SCT120 BKN250 15/03 A3001 RMK AC3CI2 SLP165

CYWG;2007-05-13 07:00;CYWG 130700Z 16013KT 15SM SCT120 BKN250 14/03 A3000 RMK AC3CI2 SLP164

CYWG;2007-05-13 08:00;CYWG 130800Z 16007KT 15SM FEW120 BKN250 11/03 A3001 RMK AC2CI2 SLP167

CYWG;2007-05-13 09:00;CYWG 130900Z 16009KT 15SM FEW120 BKN250 12/03 A2999 RMK AC2CI2 SLP157

CYWG;2007-05-13 10:00;CYWG 131000Z 16012KT 15SM FEW120 BKN250 12/03 A2995 RMK AC2CI2 OBS TAKEN +10 SLP145

CYWG;2007-05-13 11:00;CYWG 131100Z 15008KT 15SM BKN120 BKN250 12/04 A2995 RMK AC6CI0 SLP146

CYWG;2007-05-13 12:00;CYWG 131200Z 16011KT 15SM BKN120 BKN250 12/04 A2994 RMK AC6CI0 SLP141

CYWG;2007-05-13 13:00;CYWG 131300Z 15010KT 15SM BKN120 BKN250 14/05 A2992 RMK AC5CI2 SLP135

CYWG;2007-05-13 14:00;CYWG 131400Z 16009KT 15SM FEW120 BKN150 OVC250 16/06 A2989 RMK AC2AS2CS2 SLP125

CYWG;2007-05-13 15:00;CYWG 131500Z 17008KT 15SM FEW120 BKN150 OVC250 18/07 A2989 RMK AC2AS2CS2 SLP123

CYWG;2007-05-13 16:00;CYWG 131600Z 19008KT 15SM BKN120 OVC250 19/08 A2990 RMK AC6CI1 SLP126

CYWG;2007-05-13 17:00;CYWG 131700Z 16003KT 15SM OVC120 19/08 A2989 RMK AC7 SLP124

CYWG;2007-05-13 18:00;CYWG 131800Z 06006KT 15SM OVC120 20/09 A2986 RMK AC8 SLP112

CYWG;2007-05-13 19:00;CYWG 131900Z 09006KT 15SM OVC120 21/09 A2983 RMK AC7 SLP105

CYWG;2007-05-13 20:00;CYWG 132000Z 10003KT 15SM FEW089 OVC120 21/09 A2984 RMK AC2AC6 SLP108

CYWG;2007-05-13 21:00;CYWG 132100Z 10011KT 15SM FEW090 BKN120 BKN270 22/09 A2981 RMK AC2AC3CI2 SLP097

CYWG;2007-05-13 22:00;CYWG 132200Z 13009KT 15SM FEW090 SCT120 BKN270 23/10 A2981 RMK AC2AC2CI2 SLP096

CYWG;2007-05-13 23:00;CYWG 132300Z 13007KT 15SM FEW120 BKN270 23/10 A2981 RMK AC1CI2 SLP096

CYWG;2007-05-14 00:00;CYWG 140000Z 10005KT 15SM FEW120 BKN270 22/10 A2980 RMK AC1CI1 SLP095

CYWG;2007-05-14 01:00;CYWG 140100Z 06006KT 15SM FEW096 BKN270 19/10 A2981 RMK AC1CI1 SLP098

CYWG;2007-05-14 02:00;CYWG 140200Z 06007KT 15SM FEW130 BKN270 17/09 A2981 RMK AC1CI1 SLP097

CYWG;2007-05-14 03:00;CYWG 140300Z 07008KT 15SM SCT270 16/09 A2981 RMK CI0 SLP096

CYWG;2007-05-14 04:00;CYWG 140400Z 02008KT 15SM SKC 13/08 A2982 RMK SLP099

CYWG;2007-05-14 05:00;CYWG 140500Z 03008KT 15SM SKC 12/08 A2980 RMK SLP094

CYWG;2007-05-14 06:00;CYWG 140600Z 03011KT 15SM SCT260 13/07 A2980 RMK CI0 SLP094

CYWG;2007-05-14 07:00;CYWG 140700Z 03012KT 15SM BKN260 12/06 A2979 RMK CI2 SLP091

CYWG;2007-05-14 08:00;CYWG 140800Z 02008KT 15SM OVC260 10/05 A2978 RMK CI2 SLP088

CYWG;2007-05-14 09:00;CYWG 140900Z 03012KT 15SM OVC260 10/04 A2976 RMK CI2 SLP080

CYWG;2007-05-14 10:00;CYWG 141000Z 03009KT 15SM OVC260 10/05 A2978 RMK CI3 SLP086

CYWG;2007-05-14 11:00;CYWG 141100Z 02010KT 15SM BKN061 BKN097 OVC260 11/05 A2977 RMK SC5AC2CI1 SLP085

CYWG;2007-05-14 12:00;CYWG 141200Z 03014KT 15SM BKN061 BKN094 OVC210 11/06 A2975 RMK SC5AC2CI1 SLP077

CYWG;2007-05-14 12:51;CYWG 141251Z 03014KT 15SM -RA BKN061 BKN085 OVC210 12/ RMK SC6AC2CI1

CYWG;2007-05-14 13:00;CYWG 141300Z 03013KT 15SM -RA BKN061 OVC085 12/08 A2975 RMK SC6AC2 SLP076

CYWG;2007-05-14 14:00;CYWG 141400Z 01017KT 15SM -RA BKN061 OVC092 12/09 A2975 RMK SC6AC2 SLP077

CYWG;2007-05-14 15:00;CYWG 141500Z 02014KT 6SM -RA BR OVC057 11/08 A2980 RMK SC8 SLP097

CYWG;2007-05-14 16:00;CYWG 141600Z 03017KT 10SM -RA SCT018 BKN057 OVC210 11/09 A2982 RMK SC3SC3CI2 SLP103

CYWG;2007-05-14 17:00;CYWG 141700Z 02022G27KT 10SM -RA SCT022 BKN055 OVC078 10/08 A2985 RMK SC3SC4AC1 SLP112

CYWG;2007-05-14 18:00;CYWG 141800Z 03018G24KT 15SM -RA SCT030 BKN056 OVC097 10/07 A2987 RMK SC3SC2AC2 SLP122

CYWG;2007-05-14 18:42;CYWG 141842Z 04013G19KT 15SM OVC042 11/ RMK SC8

CYWG;2007-05-14 19:00;CYWG 141900Z 03015G20KT 15SM OVC048 11/07 A2990 RMK SC8 SLP129

CYWG;2007-05-14 19:46;CYWG 141946Z 03021G27KT 15SM -RA OVC052 12/ RMK SC8

CYWG;2007-05-14 20:00;CYWG 142000Z 03022KT 15SM -RA FEW030 OVC052 12/05 A2993 RMK SC1SC7 SLP140

CYWG;2007-05-14 20:23;CYWG 142023Z 03016G25KT 15SM FEW030 OVC054 13/ RMK SC1SC7

CYWG;2007-05-14 21:00;CYWG 142100Z 03021G30KT 15SM -SHRA FEW040 OVC054 11/06 A2996 RMK SC2SC6 SLP150

CYWG;2007-05-14 22:00;CYWG 142200Z 03009KT 15SM -SHRA FEW045 OVC060 10/07 A2998 RMK SC2SC6 SLP158

CYWG;2007-05-14 22:26;CYWG 142226Z 05009KT 15SM FEW045 OVC057 10/ RMK SC2SC6

CYWG;2007-05-14 23:00;CYWG 142300Z 04007KT 15SM OVC057 11/06 A2999 RMK SC8 SLP160

CYWG;2007-05-15 00:00;CYWG 150000Z 06006KT 15SM -SHRA BKN050 OVC093 11/06 A3001 RMK SC6AC2 SLP169

CYWG;2007-05-15 00:26;CYWG 150026Z 33005KT 15SM BKN050 OVC110 11/ RMK SC7AC1

CYWG;2007-05-15 01:00;CYWG 150100Z 29006KT 15SM OVC050 10/07 A3005 RMK SC8 SLP180

CYWG;2007-05-15 02:00;CYWG 150200Z 31006KT 15SM -SHRA OVC064 10/06 A3007 RMK SC8 SLP188

CYWG;2007-05-15 03:00;CYWG 150300Z 16004KT 15SM -SHRA BKN030 OVC094 10/06 A3008 RMK SC6AC2 SLP193

CYWG;2007-05-15 03:38;CYWG 150338Z 19005KT 15SM FEW015 BKN036 OVC090 RMK SF2SC5AC2

CYWG;2007-05-15 04:00;CYWG 150400Z 19008KT 15SM -SHRA FEW015 BKN040 BKN090 09/06 A3008 RMK SF1SC6AC1 SLP192

CYWG;2007-05-15 04:33;CYWG 150433Z 22007KT 15SM BKN050 BKN090 RMK SC6AC1

CYWG;2007-05-15 05:00;CYWG 150500Z 23004KT 15SM SCT059 OVC079 08/05 A3008 RMK SC4AC4 SLP193

CYWG;2007-05-15 06:00;CYWG 150600Z 27002KT 15SM BKN058 BKN080 08/05 A3008 RMK SC4AC2 SLP193

CYWG;2007-05-15 07:00;CYWG 150700Z 28007KT 15SM FEW058 05/03 A3008 RMK SC2 SLP194

CYWG;2007-05-15 08:00;CYWG 150800Z 26006KT 15SM FEW050 06/04 A3009 RMK SC1 SLP195

CYWG;2007-05-15 09:00;CYWG 150900Z 26007KT 15SM SKC 06/04 A3009 RMK SLP198

CYWG;2007-05-15 10:00;CYWG 151000Z 25006KT 15SM FEW050 FEW080 05/03 A3009 RMK SC1AC1 SLP196

CYWG;2007-05-15 11:00;CYWG 151100Z 27006KT 15SM FEW050 05/03 A3009 RMK SC2 SLP196

CYWG;2007-05-15 12:00;CYWG 151200Z 26008KT 15SM FEW100 06/05 A3009 RMK AC2 SLP197

CYWG;2007-05-15 13:00;CYWG 151300Z 27008KT 15SM SCT100 09/07 A3009 RMK AC3 SLP198

CYWG;2007-05-15 14:00;CYWG 151400Z 31010KT 15SM FEW099 11/08 A3009 RMK AC2 SLP198

CYWG;2007-05-15 14:23;CYWG 151423Z 30012KT 15SM BKN014 12/ RMK SC6

CYWG;2007-05-15 15:00;CYWG 151500Z 34010KT 15SM BKN016 12/08 A3010 RMK SC7 SLP198

CYWG;2007-05-15 16:00;CYWG 151600Z 36010KT 15SM SCT022 14/08 A3009 RMK SC4 SLP195

CYWG;2007-05-15 17:00;CYWG 151700Z 34014KT 15SM SCT037 15/05 A3009 RMK CU4 SLP196

CYWG;2007-05-15 18:00;CYWG 151800Z 32007KT 15SM SCT053 15/03 A3008 RMK CU4 SLP192

CYWG;2007-05-15 19:00;CYWG 151900Z 32017KT 15SM SCT055 16/03 A3009 RMK CU3 SLP195

CYWG;2007-05-15 20:00;CYWG 152000Z 34020G25KT 15SM SCT058 15/02 A3009 RMK CU4 SLP194

CYWG;2007-05-15 21:00;CYWG 152100Z 33019G26KT 15SM SCT050 13/01 A3009 RMK SC4 SLP198

CYWG;2007-05-15 22:00;CYWG 152200Z 34022G28KT 15SM SCT061 13/M01 A3009 RMK SC3 SLP198

CYWG;2007-05-15 23:00;CYWG 152300Z 33025G30KT 15SM SCT061 12/01 A3012 RMK SC4 SLP207

CYWG;2007-05-16 00:00;CYWG 160000Z 33020G27KT 15SM SCT057 10/M01 A3012 RMK SC4 SHWRS N SLP209

CYWG;2007-05-16 01:00;CYWG 160100Z 33022KT 15SM SCT040 BKN095 08/M00 A3013 RMK SC4AC1 SLP212

CYWG;2007-05-16 02:00;CYWG 160200Z 34013G18KT 15SM FEW030 BKN057 06/00 A3015 RMK SC2SC4 SLP218

CYWG;2007-05-16 03:00;CYWG 160300Z 35014G19KT 15SM FEW030 05/M01 A3016 RMK SC2 SLP222

CYWG;2007-05-16 04:00;CYWG 160400Z 35017KT 15SM BKN030 05/M01 A3018 RMK SC6 SLP226

CYWG;2007-05-16 05:00;CYWG 160500Z 34013KT 15SM BKN020 05/00 A3019 RMK SC6 SLP229

CYWG;2007-05-16 06:00;CYWG 160600Z 35013G18KT 15SM BKN022 05/00 A3019 RMK SC6 SLP229

CYWG;2007-05-16 07:00;CYWG 160700Z 34012G17KT 15SM BKN024 04/00 A3018 RMK SC5 SLP226

CYWG;2007-05-16 08:00;CYWG 160800Z 32011KT 15SM FEW032 03/M01 A3018 RMK SC2 SLP227

CYWG;2007-05-16 09:00;CYWG 160900Z 32005KT 15SM FEW036 M00/M02 A3019 RMK SC1 SLP232

CYWG;2007-05-16 10:00;CYWG 161000Z 33006KT 15SM FEW080 M01/M03 A3020 RMK AC1 SLP235

CYWG;2007-05-16 11:00;CYWG 161100Z 34006KT 15SM FEW100 FEW250 M00/M02 A3021 RMK AC1CI1 SLP238

CYWG;2007-05-16 12:00;CYWG 161200Z 33007KT 15SM FEW250 02/M00 A3023 RMK CI0 SLP245

CYWG;2007-05-16 13:00;CYWG 161300Z 35011KT 15SM FEW020 FEW250 05/01 A3025 RMK CU1CI0 CU TR SLP251

CYWG;2007-05-16 14:00;CYWG 161400Z 35012KT 15SM FEW024 FEW250 07/01 A3026 RMK CU1CI0 SLP255

CYWG;2007-05-16 15:00;CYWG 161500Z 36010G16KT 15SM SCT034 08/00 A3027 RMK CU3 SLP260

CYWG;2007-05-16 16:00;CYWG 161600Z 34009G15KT 15SM FEW034 09/00 A3027 RMK CU1 SLP259

CYWG;2007-05-16 17:00;CYWG 161700Z 34012KT 15SM FEW034 11/01 A3027 RMK CU1 SLP259

CYWG;2007-05-16 18:00;CYWG 161800Z 33007G16KT 15SM SKC 12/M01 A3026 RMK SLP254

CYWG;2007-05-16 19:00;CYWG 161900Z 31005KT 15SM FEW034 13/M00 A3024 RMK CU1 SLP249

CYWG;2007-05-16 20:00;CYWG 162000Z 32011KT 15SM FEW034 15/M01 A3023 RMK CU1 SLP246

CYWG;2007-05-16 21:00;CYWG 162100Z 32009KT 15SM SKC 15/M01 A3022 RMK SLP242

CYWG;2007-05-16 22:00;CYWG 162200Z 35008KT 15SM SKC 16/01 A3021 RMK SLP239

CYWG;2007-05-16 23:00;CYWG 162300Z 34004KT 15SM SKC 16/M01 A3021 RMK SLP238

CYWG;2007-05-17 00:00;CYWG 170000Z 32004KT 15SM SKC 15/M01 A3020 RMK SLP236

CYWG;2007-05-17 01:00;CYWG 170100Z 29004KT 15SM SKC 14/M02 A3020 RMK SLP234

CYWG;2007-05-17 02:00;CYWG 170200Z 02002KT 15SM SKC 10/M01 A3019 RMK SLP232

CYWG;2007-05-17 03:00;CYWG 170300Z 16005KT 15SM FEW100 10/M04 A3019 RMK AC1 SLP230

CYWG;2007-05-17 04:00;CYWG 170400Z 18006KT 15SM SKC 08/M02 A3018 RMK SLP228

CYWG;2007-05-17 05:00;CYWG 170500Z 18008KT 15SM SKC 07/M01 A3017 RMK SLP225

CYWG;2007-05-17 06:00;CYWG 170600Z 18006KT 15SM SKC 07/M03 A3017 RMK SLP224

CYWG;2007-05-17 07:00;CYWG 170700Z 20009KT 15SM SKC 08/M02 A3016 RMK SLP220

CYWG;2007-05-17 08:00;CYWG 170800Z 20010KT 15SM SKC 08/M02 A3015 RMK SLP218

CYWG;2007-05-17 09:00;CYWG 170900Z 20011KT 15SM SKC 07/M01 A3014 RMK SLP213

CYWG;2007-05-17 10:00;CYWG 171000Z 20010KT 15SM FEW140 06/M01 A3013 RMK AC2 SLP211

CYWG;2007-05-17 11:00;CYWG 171100Z 20010KT 15SM FEW140 BKN280 06/M00 A3013 RMK AC1CI1 SLP209

CYWG;2007-05-17 12:00;CYWG 171200Z 20010G15KT 15SM SCT280 07/00 A3013 RMK CI1 SLP210

CYWG;2007-05-17 13:00;CYWG 171300Z 21013KT 15SM FEW280 10/01 A3012 RMK CI0 SLP207

CYWG;2007-05-17 14:00;CYWG 171400Z 21017G25KT 15SM FEW280 14/02 A3009 RMK CI0 SLP198

CYWG;2007-05-17 15:00;CYWG 171500Z 22015G22KT 15SM SCT280 17/03 A3006 RMK CI1 SLP186

CYWG;2007-05-17 16:00;CYWG 171600Z 22024G32KT 15SM OVC280 18/02 A3003 RMK CI2 SLP175

CYWG;2007-05-17 17:00;CYWG 171700Z 21022G28KT 15SM BKN280 20/03 A3001 RMK CI2 SLP168

CYWG;2007-05-17 18:00;CYWG 171800Z 20020G31KT 15SM SCT280 21/03 A2998 RMK CI1 SLP156

CYWG;2007-05-17 19:00;CYWG 171900Z 20019G31KT 15SM BKN280 22/03 A2994 RMK CI1 SLP144

CYWG;2007-05-17 20:00;CYWG 172000Z 20020G26KT 15SM BKN280 24/03 A2992 RMK CI2 SLP135

CYWG;2007-05-17 21:00;CYWG 172100Z 19021G33KT 15SM BKN260 24/04 A2989 RMK CI2 SLP125

CYWG;2007-05-17 22:00;CYWG 172200Z 21022G32KT 15SM FEW220 BKN270 25/04 A2987 RMK CI1CI1 SLP117

CYWG;2007-05-17 23:00;CYWG 172300Z 21020G26KT 15SM BKN270 25/05 A2985 RMK CI2 SLP112

CYWG;2007-05-18 00:00;CYWG 180000Z 20018G26KT 15SM BKN270 25/06 A2983 RMK CI2 SLP103

CYWG;2007-05-18 01:00;CYWG 180100Z 20018KT 15SM BKN270 24/06 A2981 RMK CI2 SLP097

CYWG;2007-05-18 02:00;CYWG 180200Z 19015KT 15SM FEW090 BKN250 22/05 A2980 RMK AC1CI2 SLP096

CYWG;2007-05-18 03:00;CYWG 180300Z 19016KT 15SM FEW090 BKN250 21/05 A2980 RMK AC2CI3 SLP094

CYWG;2007-05-18 04:00;CYWG 180400Z 19015G22KT 15SM BKN120 20/05 A2980 RMK AC6 SLP093

CYWG;2007-05-18 05:00;CYWG 180500Z 19018G25KT 15SM FEW060 OVC120 19/06 A2979 RMK CU2AC6 LTGIC DSTNT W SLP089

CYWG;2007-05-18 05:25;CYWG 180525Z 22008G17KT 15SM -TSRA SCT028CB OVC087 19/ RMK CB4AC4

CYWG;2007-05-18 06:00;CYWG 180600Z 19011KT 15SM TS OVC028CB 17/09 A2982 RMK CB8 SLP098

CYWG;2007-05-18 06:28;CYWG 180628Z 18010KT 15SM BKN036 16/ RMK SC7

CYWG;2007-05-18 07:00;CYWG 180700Z 18010KT 15SM -SHRA BKN074 OVC100 17/09 A2980 RMK AC6AC2 SLP091

CYWG;2007-05-18 08:00;CYWG 180800Z 18007KT 15SM BKN065 OVC120 16/09 A2981 RMK SC6AC2 SLP095

CYWG;2007-05-18 09:00;CYWG 180900Z 12004KT 15SM OVC120 15/09 A2979 RMK AC8 SLP089

CYWG;2007-05-18 10:00;CYWG 181000Z 08005KT 15SM BKN120 12/09 A2980 RMK AC5 SLP092

CYWG;2007-05-18 11:00;CYWG 181100Z 11005KT 15SM FEW120 BKN260 12/09 A2979 RMK AC2CI3 SLP088

CYWG;2007-05-18 12:00;CYWG 181200Z 17005KT 15SM FEW120 OVC280 15/11 A2980 RMK AC1CS4 SLP094

CYWG;2007-05-18 13:00;CYWG 181300Z 04009KT 15SM FEW120 BKN280 15/11 A2981 RMK AC1CI3 FU OBS TAKEN H+08 SLP096

CYWG;2007-05-18 14:00;CYWG 181400Z 05014KT 15SM FEW100 BKN280 15/11 A2982 RMK AC1CI2 FU SLP100

CYWG;2007-05-18 15:00;CYWG 181500Z 02016KT 15SM FEW010 FEW100 BKN280 14/10 A2986 RMK SC2AC1CI2 AC TR SLP114

CYWG;2007-05-18 15:34;CYWG 181534Z 01023G28KT 15SM BKN009 OVC280 12/ RMK SC6CI0

CYWG;2007-05-18 16:00;CYWG 181600Z 01018G24KT 15SM BKN008 OVC280 11/08 A2989 RMK SC7CI0 PRESRR SLP123

CYWG;2007-05-18 16:49;CYWG 181649Z 01019G25KT 15SM BKN011 OVC280 12/ RMK SC6CI1

CYWG;2007-05-18 17:00;CYWG 181700Z 01019G26KT 15SM BKN013 BKN080 BKN280 12/08 A2990 RMK SC5AC1CI0 SLP126

CYWG;2007-05-18 17:12;CYWG 181712Z 03017G25KT 15SM SCT013 BKN080 BKN280 13/ RMK SC2AC2CI0

CYWG;2007-05-18 18:00;CYWG 181800Z 03021KT 15SM FEW014 SCT080 BKN280 13/07 A2991 RMK SC1AC2CI1 SLP131

CYWG;2007-05-18 19:00;CYWG 181900Z 01017G25KT 15SM FEW015 BKN100 BKN280 13/07 A2992 RMK SC1AC4CI0 CB EMBDD SE SLP136

CYWG;2007-05-18 20:00;CYWG 182000Z 03021G27KT 15SM BKN120 BKN280 14/07 A2990 RMK AC4CI0 ACC ASOCTD SLP129

CYWG;2007-05-18 21:00;CYWG 182100Z 03021G26KT 15SM BKN120 BKN280 13/06 A2991 RMK AC5CI0 SLP134

CYWG;2007-05-18 22:00;CYWG 182200Z 02017G24KT 15SM SCT099 BKN280 13/06 A2992 RMK AC3CI0 SLP135

CYWG;2007-05-18 23:00;CYWG 182300Z 03021G28KT 15SM SCT099 BKN280 12/05 A2992 RMK AC2CI1 SLP137

CYWG;2007-05-19 00:00;CYWG 190000Z 02025G31KT 15SM FEW020 FEW280 11/04 A2994 RMK SC1CI0 SLP143

CYWG;2007-05-19 01:00;CYWG 190100Z 02028G33KT 15SM FEW020 SCT280 08/04 A2995 RMK SC1CI0 SLP147

CYWG;2007-05-19 02:00;CYWG 190200Z 03027G33KT 15SM OVC024 07/04 A2997 RMK SC8 SLP154

CYWG;2007-05-19 03:00;CYWG 190300Z 04022G28KT 15SM OVC017 07/03 A3002 RMK SC8 PRESRR SLP172

CYWG;2007-05-19 04:00;CYWG 190400Z 04022G30KT 15SM OVC015 05/02 A3002 RMK SC8 SLP171

CYWG;2007-05-19 05:00;CYWG 190500Z 03014G19KT 15SM BKN015 OVC028 04/01 A3007 RMK SC7SC1 PRESRR SLP188

CYWG;2007-05-19 05:42;CYWG 190542Z 03017G22KT 15SM -SHRA OVC015 04/ RMK SC8

CYWG;2007-05-19 06:00;CYWG 190600Z 03018KT 15SM SHRA OVC015 04/02 A3006 RMK SC8 SLP185

CYWG;2007-05-19 06:26;CYWG 190626Z 04016G22KT 15SM OVC015 04/ RERA RMK SC8

CYWG;2007-05-19 07:00;CYWG 190700Z 04014G21KT 15SM OVC017 04/01 A3008 RMK SC8 SLP193

CYWG;2007-05-19 08:00;CYWG 190800Z 04016G21KT 15SM OVC017 04/01 A3009 RMK SC8 SLP198

CYWG;2007-05-19 09:00;CYWG 190900Z 05016G24KT 15SM OVC017 04/01 A3012 RMK SC8 SLP206

CYWG;2007-05-19 10:00;CYWG 191000Z 03016KT 15SM OVC015 04/01 A3014 RMK SC8 SLP213

CYWG;2007-05-19 11:00;CYWG 191100Z 03018KT 15SM OVC013 03/00 A3016 RMK SC8 SLP221

CYWG;2007-05-19 12:00;CYWG 191200Z 05016G22KT 15SM OVC013 03/00 A3020 RMK SC8 SLP235

CYWG;2007-05-19 12:41;CYWG 191241Z 04017G22KT 15SM BKN015 BKN025 OVC038 03/ RMK SC6SC1SC2

CYWG;2007-05-19 13:00;CYWG 191300Z 05016G22KT 15SM BKN017 OVC038 03/M01 A3022 RMK SC5SC3 SLP243

CYWG;2007-05-19 14:00;CYWG 191400Z 05013G19KT 15SM BKN019 OVC040 04/M01 A3025 RMK SC5SC3 SLP250

CYWG;2007-05-19 15:00;CYWG 191500Z 04015KT 15SM BKN021 OVC038 05/M00 A3025 RMK SC5SC3 SLP253

CYWG;2007-05-19 16:00;CYWG 191600Z 05014KT 15SM SCT021 OVC034 06/M00 A3025 RMK SC4SC4 SLP252

CYWG;2007-05-19 17:00;CYWG 191700Z 05012G24KT 15SM SCT026 OVC036 07/00 A3024 RMK SC3SC4 SLP251

CYWG;2007-05-19 18:00;CYWG 191800Z 05012G19KT 15SM FEW028 SCT038 BKN100 BKN210 09/02 A3025 RMK SC1SC2AC2CI0 SLP251

CYWG;2007-05-19 19:00;CYWG 191900Z 04014G19KT 15SM BKN032 10/02 A3024 RMK SC6 SLP248

CYWG;2007-05-19 20:00;CYWG 192000Z 04015KT 15SM BKN034 11/02 A3023 RMK SC5 SLP246

CYWG;2007-05-19 21:00;CYWG 192100Z 04013G22KT 15SM SCT038 12/02 A3022 RMK SC3 SLP241

CYWG;2007-05-19 22:00;CYWG 192200Z 07012G19KT 15SM FEW040 13/02 A3022 RMK SC2 SLP240

CYWG;2007-05-19 23:00;CYWG 192300Z 08012KT 15SM FEW280 12/02 A3020 RMK CI0 SLP234

CYWG;2007-05-20 00:00;CYWG 200000Z 08011KT 15SM FEW280 12/02 A3019 RMK CI0 SLP233

CYWG;2007-05-20 01:00;CYWG 200100Z 07013KT 15SM SCT280 11/01 A3019 RMK CI0 SLP230

CYWG;2007-05-20 02:00;CYWG 200200Z 09009G16KT 15SM SCT280 09/01 A3019 RMK CI1 SLP230

CYWG;2007-05-20 03:00;CYWG 200300Z 09010G15KT 15SM FEW250 08/00 A3019 RMK CI1 SLP234

CYWG;2007-05-20 04:00;CYWG 200400Z 10011KT 15SM SKC 07/00 A3019 RMK SLP232

CYWG;2007-05-20 05:00;CYWG 200500Z 11013KT 15SM SKC 06/00 A3017 RMK SLP226

CYWG;2007-05-20 06:00;CYWG 200600Z 13011KT 15SM SKC 05/00 A3018 RMK SLP228

CYWG;2007-05-20 07:00;CYWG 200700Z 12011G16KT 15SM SCT100 04/M00 A3018 RMK AC3 SLP227

CYWG;2007-05-20 08:00;CYWG 200800Z 12013KT 15SM SCT100 04/M00 A3018 RMK AC3 SLP227

CYWG;2007-05-20 09:00;CYWG 200900Z 10008KT 15SM SCT100 04/00 A3018 RMK AC4 SLP229

CYWG;2007-05-20 10:00;CYWG 201000Z 12013KT 15SM SCT060 BKN120 05/00 A3014 RMK SC3AC3 SLP215

CYWG;2007-05-20 10:56;CYWG 201056Z 15007KT 15SM -SHRA SCT023 BKN058 BKN120 05/ RMK SC3SC2AC1

CYWG;2007-05-20 11:00;CYWG 201100Z 15006KT 15SM -SHRA SCT023 BKN058 BKN120 05/01 A3015 RMK SC4SC2AC1 SLP219

CYWG;2007-05-20 11:38;CYWG 201138Z 16007KT 15SM BKN028 OVC058 05/ RMK SC5SC3

CYWG;2007-05-20 12:00;CYWG 201200Z 15007KT 15SM BKN021 05/01 A3015 RMK SC7 SLP217

CYWG;2007-05-20 13:00;CYWG 201300Z 16009KT 15SM BKN019 BKN043 06/01 A3014 RMK SC6SC2 SLP213

CYWG;2007-05-20 14:00;CYWG 201400Z 14014KT 15SM OVC019 06/01 A3011 RMK SC8 SLP205

CYWG;2007-05-20 15:00;CYWG 201500Z 13015KT 15SM OVC019 06/01 A3009 RMK SC8 SLP199

CYWG;2007-05-20 16:00;CYWG 201600Z 14013KT 15SM BKN021 OVC032 07/01 A3010 RMK SC6SC2 SLP201

CYWG;2007-05-20 17:00;CYWG 201700Z 15010KT 15SM BKN025 OVC050 08/01 A3007 RMK SC6SC2 SLP192

CYWG;2007-05-20 18:00;CYWG 201800Z 15015KT 15SM SCT025 OVC120 08/01 A3003 RMK SC3AC5 PRESFR SLP177

CYWG;2007-05-20 18:27;CYWG 201827Z 17011G17KT 15SM -SHRA SCT029 BKN040 OVC067 08/ RMK SC3SC2AC2

CYWG;2007-05-20 19:00;CYWG 201900Z 16009KT 10SM -SHRA FEW017 BKN060 OVC080 07/04 A3003 RMK SC2SC6AC1 SLP176

CYWG;2007-05-20 19:38;CYWG 201938Z 16007KT 8SM -SHRA BKN013 OVC074 07/ RMK SC6AC2

CYWG;2007-05-20 20:00;CYWG 202000Z 16008KT 10SM -SHRA BKN013 OVC074 08/04 A3000 RMK SC6AC2 SLP169

CYWG;2007-05-20 21:00;CYWG 202100Z 19006KT 15SM SCT013 BKN030 OVC065 09/05 A3001 RMK SC3SC3SC2 SLP171

CYWG;2007-05-20 22:00;CYWG 202200Z 17007KT 15SM FEW013 BKN024 BKN099 OVC220 10/06 A2998 RMK SC2SC3AC2CI0 SLP162

CYWG;2007-05-20 23:00;CYWG 202300Z 10006KT 15SM FEW013 BKN031 OVC100 10/05 A2997 RMK SC2SC6AC1 SLP157

CYWG;2007-05-20 23:30;CYWG 202330Z 10008KT 15SM -SHRA BKN031 OVC094 10/ RMK SC7AC1

CYWG;2007-05-21 00:00;CYWG 210000Z 11013KT 6SM -SHRA BKN022 OVC092 09/06 A2990 RMK SC7AC1 PRESFR SLP135

CYWG;2007-05-21 00:48;CYWG 210048Z 10008KT 15SM FEW011 BKN031 BKN099 OVC220 09/ RMK SF2SC4AC2CI0

CYWG;2007-05-21 01:00;CYWG 210100Z 10009KT 15SM FEW011 BKN036 BKN099 OVC220 09/07 A2988 RMK SF2SC4AC2CI0 SLP127

CYWG;2007-05-21 02:00;CYWG 210200Z 08005KT 15SM BKN036 OVC092 09/07 A2989 RMK SC6AC2 SLP131

CYWG;2007-05-21 03:00;CYWG 210300Z 08007KT 15SM OVC034 09/07 A2989 RMK SC8 SLP130

CYWG;2007-05-21 04:00;CYWG 210400Z 11006KT 15SM BKN032 OVC100 09/07 A2987 RMK SC5AC3 SLP124

CYWG;2007-05-21 05:00;CYWG 210500Z 10005KT 15SM BKN030 OVC100 09/07 A2987 RMK SC6AC2 SLP124

CYWG;2007-05-21 06:00;CYWG 210600Z 13006KT 15SM BKN032 OVC066 10/08 A2986 RMK SC6SC2 SLP118

CYWG;2007-05-21 07:00;CYWG 210700Z 16007KT 15SM OVC032 10/07 A2986 RMK SC8 SLP118

CYWG;2007-05-21 08:00;CYWG 210800Z 15008KT 15SM OVC032 10/07 A2986 RMK SC8 SLP117

CYWG;2007-05-21 09:00;CYWG 210900Z 14010KT 15SM BKN023 OVC060 10/07 A2983 RMK SC5SC3 SLP106

CYWG;2007-05-21 10:00;CYWG 211000Z 12011KT 15SM BKN019 OVC060 10/06 A2980 RMK SC5SC3 SLP096

CYWG;2007-05-21 11:00;CYWG 211100Z 14008KT 15SM OVC023 10/06 A2981 RMK SC8 SLP102

CYWG;2007-05-21 12:00;CYWG 211200Z 14009KT 15SM OVC029 10/06 A2980 RMK SC8 SLP099

CYWG;2007-05-21 12:05;CYWG 211205Z 14009KT 15SM -SHRA OVC031 10/ RMK SC8

CYWG;2007-05-21 12:16;CYWG 211216Z 15008KT 15SM TS BKN033 OVC073 10/ RMK SC6AC2 CB EMBDD

CYWG;2007-05-21 12:25;CYWG 211225Z 19007KT 15SM -TSRA BKN028 OVC073 10/ RMK SC6AC2 CB EMBDD HVY SHWRS N

CYWG;2007-05-21 13:00;CYWG 211300Z 13008KT 15SM -TSRA BKN021 OVC077 09/07 A2980 RMK SC6AC2 CB EMBDD SLP099

CYWG;2007-05-21 13:41;CYWG 211341Z 11025G30KT 15SM -SHRA BKN017 OVC080 RMK SC6AC2

CYWG;2007-05-21 14:00;CYWG 211400Z 12016KT 15SM -SHRA FEW015 BKN041 OVC080 09/07 A2973 RMK SF2SC4AC2 PRESFR SLP074

CYWG;2007-05-21 14:31;CYWG 211431Z 14010KT 15SM FEW015 BKN040 OVC090 09/ RMK SF1SC4AC3

CYWG;2007-05-21 15:00;CYWG 211500Z 12008KT 15SM FEW015 BKN025 OVC090 10/07 A2975 RMK SF2SC5AC2 SLP082

CYWG;2007-05-21 16:00;CYWG 211600Z 10006KT 15SM BKN015 OVC047 11/08 A2971 RMK SC6SC2 SLP069

CYWG;2007-05-21 17:00;CYWG 211700Z 11009KT 15SM OVC019 13/09 A2970 RMK SC8 SLP066

CYWG;2007-05-21 18:00;CYWG 211800Z 11011KT 15SM OVC025 15/09 A2967 RMK SC8 SLP053

CYWG;2007-05-21 19:00;CYWG 211900Z 10011G16KT 15SM SCT027 BKN090 18/11 A2967 RMK SC4AC1 FEW TCU E SLP052

CYWG;2007-05-21 20:00;CYWG 212000Z 13008KT 15SM SCT030 SCT090 20/11 A2966 RMK SC3AC0 CB TOP ESE SLP049

CYWG;2007-05-21 21:00;CYWG 212100Z 15012KT 15SM SCT090 22/13 A2963 RMK AC3 SLP037

CYWG;2007-05-21 22:00;CYWG 212200Z 13010KT 15SM FEW090 22/13 A2962 RMK AC2 SLP032

CYWG;2007-05-21 23:00;CYWG 212300Z 11014KT 15SM SCT120 SCT280 22/14 A2961 RMK AC2CI0 SLP029

CYWG;2007-05-22 00:00;CYWG 220000Z 09008KT 15SM FEW120 21/13 A2960 RMK AC2 SLP025

CYWG;2007-05-22 01:00;CYWG 220100Z 07009KT 15SM FEW056 SCT120 BKN280 20/13 A2958 RMK CU2AC2CI1 SLP021

CYWG;2007-05-22 02:00;CYWG 220200Z 05008KT 15SM FEW059 SCT120 OVC280 19/13 A2957 RMK CU2AC2CI2 SLP016

CYWG;2007-05-22 03:00;CYWG 220300Z 05010KT 15SM SCT052 OVC120 16/12 A2958 RMK CU3AC5 SLP021

CYWG;2007-05-22 04:00;CYWG 220400Z 05007KT 15SM BKN048 OVC120 14/12 A2957 RMK SC5AC3 SLP018

CYWG;2007-05-22 05:00;CYWG 220500Z 05008KT 15SM SCT048 OVC120 15/13 A2957 RMK SC3AC5 LGT DSNT S SLP018

CYWG;2007-05-22 05:55;CYWG 220555Z 02005KT 15SM -RA BKN080 OVC120 15/ RMK AC6AC2

CYWG;2007-05-22 06:00;CYWG 220600Z 03008KT 15SM -TSRA BKN049CB OVC087 15/13 A2957 RMK CB5AC3 SLP017

CYWG;2007-05-22 06:35;CYWG 220635Z 02006KT 6SM TSRA SCT012 OVC018CB RMK ST3CB5 LTNGCCCG ALL QUAD

CYWG;2007-05-22 07:00;CYWG 220700Z 04007KT 4SM TSRA OVC012 15/14 A2957 RMK ST8 CB EMBDD SLP018

CYWG;2007-05-22 07:40;CYWG 220740Z 09004KT 6SM RA BKN017 OVC080 15/ RMK ST5AC3

CYWG;2007-05-22 08:00;CYWG 220800Z 32008KT 3SM RA BR BKN004 OVC017 14/14 A2957 RMK ST6SC2 SLP015

CYWG;2007-05-22 09:00;CYWG 220900Z 05004KT 3SM RA BR OVC007 14/13 A2959 RMK ST8 SLP023

CYWG;2007-05-22 09:41;CYWG 220941Z 10008KT 3SM -RA BR BKN002 OVC088 15/ RMK ST6AC2 RERA

CYWG;2007-05-22 10:00;CYWG 221000Z 10011KT 4SM -RA BR BKN004 OVC088 16/15 A2952 RMK ST6AC2 SLP000

CYWG;2007-05-22 10:16;CYWG 221016Z 10011KT 6SM BR BKN004 OVC088 16/ RMK ST6AC2

CYWG;2007-05-22 11:00;CYWG 221100Z 13012KT 5SM BR OVC005 16/15 A2950 RMK ST8 SLP991

CYWG;2007-05-22 12:00;CYWG 221200Z 18004KT 6SM BR BKN006 BKN080 OVC250 16/15 A2951 RMK ST6AC2CI1 ACC EMBD SLP995

CYWG;2007-05-22 12:41;CYWG 221241Z 29005KT 6SM BR OVC005 17/ RMK ST8

CYWG;2007-05-22 13:00;CYWG 221300Z 30004KT 15SM OVC005 16/15 A2955 RMK ST8 SLP006

CYWG;2007-05-22 13:21;CYWG 221321Z 31005KT 4SM BR OVC004 16/ RMK ST8

CYWG;2007-05-22 13:41;CYWG 221341Z 31007KT 3SM BR OVC003 16/ RMK ST8

CYWG;2007-05-22 14:00;CYWG 221400Z 32007KT 3SM BR OVC003 16/15 A2956 RMK ST8 SLP010

CYWG;2007-05-22 14:24;CYWG 221424Z 30009KT 2 1/2SM BR OVC002 RMK ST8

CYWG;2007-05-22 14:39;CYWG 221439Z 29009KT 1SM R31/P6000FT/U BR OVC002 RMK ST8

CYWG;2007-05-22 15:00;CYWG 221500Z 29006KT 1 1/2SM BR OVC002 14/13 A2957 RMK ST8 SLP016

CYWG;2007-05-22 15:28;CYWG 221528Z 31007KT 1SM R31/P6000FT/D BR OVC002 14/ RMK ST8

CYWG;2007-05-22 16:00;CYWG 221600Z 30005KT 2 1/2SM BR OVC002 16/14 A2957 RMK ST8 SLP017

CYWG;2007-05-22 16:26;CYWG 221626Z 31004KT 5SM BR OVC003 RMK ST8

CYWG;2007-05-22 17:00;CYWG 221700Z 32004KT 5SM BR OVC004 16/15 A2957 RMK ST8 SLP018

CYWG;2007-05-22 17:15;CYWG 221715Z 33004KT 5SM BR OVC005 17/ RMK ST8

CYWG;2007-05-22 18:00;CYWG 221800Z 34002KT 5SM BR BKN012 OVC043 17/15 A2958 RMK ST6SC2 SLP019

CYWG;2007-05-22 19:00;CYWG 221900Z 34004KT 12SM SCT010 OVC038 18/16 A2956 RMK SF4SC4 BR SLP012

CYWG;2007-05-22 19:15;CYWG 221915Z 35006KT 8SM -SHRA SCT010 OVC034 18/ RMK SF4SC4 BR CVCTV CLD EMBDD

CYWG;2007-05-22 19:45;CYWG 221945Z 34009KT 10SM SCT011 OVC046 18/ RMK SF3SC5 BR VSBY 4 NW

CYWG;2007-05-22 20:00;CYWG 222000Z 34006KT 10SM -SHRA BKN013 OVC046 18/16 A2955 RMK SC6SC2 SLP008

CYWG;2007-05-22 20:28;CYWG 222028Z 32013KT 3SM -SHRA BR BKN005 OVC033 16/ RMK SF6SC2

CYWG;2007-05-22 21:00;CYWG 222100Z 32012KT 2 1/2SM -SHRA BR BKN004 OVC017 15/14 A2955 RMK SF6SC2 SLP011

CYWG;2007-05-22 21:29;CYWG 222129Z 34011KT 5SM -SHRA BR BKN003 OVC015 15/ RMK SF7SC1

CYWG;2007-05-22 22:00;CYWG 222200Z 35007KT 5SM -SHRA BR BKN003 OVC013 15/14 A2954 RMK SF6SC2 SLP007

CYWG;2007-05-22 23:00;CYWG 222300Z 02010KT 4SM SHRA BR OVC004 16/15 A2953 RMK SF8 SLP002

CYWG;2007-05-23 00:00;CYWG 230000Z 36017KT 6SM -RA OVC005 15/14 A2950 RMK SF8 SLP992

CYWG;2007-05-23 01:00;CYWG 230100Z 35010KT 3SM -DZ OVC004 14/13 A2951 RMK ST8 SLP995

CYWG;2007-05-23 02:00;CYWG 230200Z 33013G18KT 5SM -DZ OVC004 13/12 A2954 RMK ST8 SLP007

CYWG;2007-05-23 03:00;CYWG 230300Z 31010G15KT 6SM -DZ OVC006 12/11 A2958 RMK ST8 SLP021

CYWG;2007-05-23 03:40;CYWG 230340Z 30014KT 3SM -DZ OVC004 11/ RMK ST8

CYWG;2007-05-23 04:00;CYWG 230400Z 30013KT 4SM -DZ OVC005 11/10 A2961 RMK ST8 SLP032

CYWG;2007-05-23 04:11;CYWG 230411Z 30015KT 12SM OVC004 11/ RMK ST8

CYWG;2007-05-23 05:00;CYWG 230500Z 30014KT 12SM OVC004 10/09 A2964 RMK ST8 SLP039

CYWG;2007-05-23 06:00;CYWG 230600Z 30010KT 12SM OVC004 10/09 A2965 RMK ST8 SLP044

CYWG;2007-05-23 07:00;CYWG 230700Z 32010KT 12SM BKN004 OVC013 10/09 A2965 RMK ST6SC2 SLP043

CYWG;2007-05-23 08:00;CYWG 230800Z 32005KT 12SM OVC004 10/09 A2964 RMK ST8 SLP041

CYWG;2007-05-23 08:54;CYWG 230854Z 32004KT 1/2SM R31/P6000FT/U FG OVC002 09/ RMK FG3ST5

CYWG;2007-05-23 09:00;CYWG 230900Z 31004KT 3/4SM R31/P6000FT/U -DZ BR OVC002 09/09 A2965 RMK FG3ST5 SLP045

CYWG;2007-05-23 10:00;CYWG 231000Z 32002KT 3/4SM R31/4000FT/D -DZ BR OVC002 09/09 A2966 RMK FG4ST4 SLP047

CYWG;2007-05-23 11:00;CYWG 231100Z 00000KT 1/2SM R31/3500FT/D -DZ FG OVC002 09/09 A2965 RMK FG4ST4 SLP046

CYWG;2007-05-23 11:32;CYWG 231132Z 00000KT 1/2SM R31/3000FT/N -DZ FG VV001 10/ RMK FG8

CYWG;2007-05-23 11:48;CYWG 231148Z 32002KT 3/4SM R31/3000FT/N -DZ BR VV002 10/ RMK FG8

CYWG;2007-05-23 12:00;CYWG 231200Z 00000KT 1/2SM R31/3500FT/N -DZ FG VV001 10/09 A2964 RMK FG8 SLP043

CYWG;2007-05-23 12:29;CYWG 231229Z 00000KT 3/4SM R31/3500FT/D -DZ BR VV002 10/ RMK FG8

CYWG;2007-05-23 13:00;CYWG 231300Z 04003KT 3/4SM R31/5000FT/U -DZ BR VV002 10/09 A2965 RMK FG8 SLP046

CYWG;2007-05-23 13:11;CYWG 231311Z 09002KT 1SM R31/P6000FT/U -DZ BR VV002 10/ RMK FG8

CYWG;2007-05-23 14:00;CYWG 231400Z 08002KT 1SM R31/P6000FT/U -DZ BR OVC002 10/10 A2965 RMK ST8 SLP044

CYWG;2007-05-23 14:21;CYWG 231421Z 10002KT 5SM -RA BR OVC002 RMK ST8

CYWG;2007-05-23 14:22;CYWG 231422Z CCA 10002KT 5SM -RA BR OVC002 10/ RMK ST8

CYWG;2007-05-23 14:50;CYWG 231450Z 02002KT 2SM -RA BR OVC002 10/ RMK ST8

CYWG;2007-05-23 15:00;CYWG 231500Z 00000KT 2 1/2SM -RA BR OVC003 10/10 A2965 RMK ST8 SLP046

CYWG;2007-05-23 15:30;CYWG 231530Z 24006KT 5SM -RA BR OVC006 11/ RMK ST8

CYWG;2007-05-23 16:00;CYWG 231600Z 27002KT 3SM -RA BR BKN005 OVC011 11/10 A2966 RMK SF6SC2 SLP048

CYWG;2007-05-23 17:00;CYWG 231700Z 25007KT 5SM -RA BR BKN007 OVC021 11/10 A2967 RMK SF7SC1 SLP053

CYWG;2007-05-23 18:00;CYWG 231800Z 26007KT 10SM BKN009 OVC039 12/11 A2968 RMK SF6SC2 SLP055

CYWG;2007-05-23 18:41;CYWG 231841Z 26008KT 15SM BKN014 OVC034 14/ RMK SC7SC1

CYWG;2007-05-23 19:00;CYWG 231900Z 24010KT 15SM OVC014 14/11 A2970 RMK SC8 SLP062

CYWG;2007-05-23 20:00;CYWG 232000Z 25009KT 15SM OVC014 14/10 A2970 RMK SC8 SLP064

CYWG;2007-05-23 20:17;CYWG 232017Z 23006KT 15SM OVC016 14/ RMK SC8

CYWG;2007-05-23 21:00;CYWG 232100Z 25006KT 15SM BKN019 BKN030 15/11 A2970 RMK SC6SC1 SLP063

CYWG;2007-05-23 22:00;CYWG 232200Z 09002KT 15SM BKN021 16/11 A2970 RMK CU6 SLP061

CYWG;2007-05-23 23:00;CYWG 232300Z 12007KT 15SM SCT023 SCT220 18/12 A2968 RMK CU3CI1 TCU ASCTD SLP055

CYWG;2007-05-23 23:36;CYWG 232336Z 08010KT 15SM TS BKN062CB BKN220 17/ RMK CB5CI2 SHRA S-SW LTGCG S

CYWG;2007-05-23 23:45;CYWG 232345Z 11008KT 10SM -TSRA BKN054CB BKN220 17/ RMK CB6CI2 LTGICCG SE-SW

CYWG;2007-05-24 00:00;CYWG 240000Z 13011KT 10SM -TSRA FEW023 BKN052CB BKN220 17/11 A2965 RMK CF2CB5CI1 SLP045

CYWG;2007-05-24 00:15;CYWG 240015Z 23014G21KT 10SM TS FEW015 BKN050CB 16/ RMK CF2CB4 LTGICCC W

CYWG;2007-05-24 01:00;CYWG 240100Z 27003KT 15SM FEW045 BKN060CB 16/11 A2965 RMK CU2CB2 CB NW-NE SLP045

CYWG;2007-05-24 02:00;CYWG 240200Z 19006KT 15SM SCT057 SCT073 15/11 A2966 RMK CU3AC1 SLP049

CYWG;2007-05-24 03:00;CYWG 240300Z 21007KT 15SM FEW050 SCT079 14/09 A2967 RMK CU2ACC1 SLP052

CYWG;2007-05-24 04:00;CYWG 240400Z 21007KT 15SM FEW053 SCT086 13/09 A2968 RMK CU2AC2 SLP055

CYWG;2007-05-24 05:00;CYWG 240500Z 20012KT 15SM FEW048 12/09 A2969 RMK CU2 SLP057

CYWG;2007-05-24 06:00;CYWG 240600Z 23007KT 15SM SCT038 11/09 A2968 RMK SC3 SLP055

CYWG;2007-05-24 07:00;CYWG 240700Z 20007KT 15SM FEW038 SCT087 11/09 A2969 RMK SC2AC2 SLP058

CYWG;2007-05-24 08:00;CYWG 240800Z 21008KT 15SM SCT025 BKN076 10/09 A2971 RMK SC3AC3 SLP065

CYWG;2007-05-24 08:21;CYWG 240821Z 24006KT 15SM BKN008 OVC026 10/ RMK ST6SC2

CYWG;2007-05-24 09:00;CYWG 240900Z 27008KT 12SM BKN003 OVC013 10/09 A2972 RMK ST7SC1 CIG RGD SLP070

CYWG;2007-05-24 10:00;CYWG 241000Z 30013KT 12SM BKN007 OVC016 08/07 A2977 RMK ST6SC2 CIG RGD SLP085

CYWG;2007-05-24 11:00;CYWG 241100Z 30014KT 2SM -DZ BR BKN004 OVC018 07/06 A2980 RMK ST6SC2 SLP094

CYWG;2007-05-24 11:26;CYWG 241126Z 31013G19KT 4SM -DZ BR BKN007 OVC018 07/ RMK SF6SC2

CYWG;2007-05-24 12:00;CYWG 241200Z 30014KT 8SM -DZ BKN007 OVC049 07/05 A2985 RMK SF7SC1 SLP113

CYWG;2007-05-24 13:00;CYWG 241300Z 30017G22KT 12SM -DZ BKN009 OVC036 07/05 A2985 RMK SF7SC1 SLP114

CYWG;2007-05-24 14:00;CYWG 241400Z 28016KT 12SM BKN004 OVC041 07/05 A2989 RMK SF7SC1 SLP125

CYWG;2007-05-24 14:21;CYWG 241421Z 28018KT 15SM BKN009 OVC041 07/ RMK SF7SC1

CYWG;2007-05-24 15:00;CYWG 241500Z 29016G22KT 15SM BKN009 BKN041 08/05 A2993 RMK SF6SC1 SLP139

CYWG;2007-05-24 15:40;CYWG 241540Z 30017G25KT 15SM BKN012 08/ RMK SC7

CYWG;2007-05-24 16:00;CYWG 241600Z 30015G22KT 10SM BKN012 08/06 A2992 RMK SC7 BR SLP137

CYWG;2007-05-24 17:37;CYWG 241737Z 31015G22KT 15SM BKN017 09/ RMK SC7

CYWG;2007-05-24 18:00;CYWG 241800Z 32016G24KT 15SM BKN021 09/03 A2994 RMK SC7 SLP145

CYWG;2007-05-24 19:00;CYWG 241900Z 31017G24KT 15SM BKN022 09/04 A2994 RMK SC7 SLP146

CYWG;2007-05-24 20:00;CYWG 242000Z 31018KT 10SM -DZ BKN022 BKN048 09/05 A2995 RMK SC6SC1 BR SLP147

CYWG;2007-05-24 20:32;CYWG 242032Z 30018G24KT 15SM BKN022 10/ RMK SC7

CYWG;2007-05-24 21:00;CYWG 242100Z 32018KT 15SM BKN024 BKN093 10/04 A2996 RMK SC6AC1 SLP150

CYWG;2007-05-24 22:00;CYWG 242200Z 31016KT 15SM BKN022 BKN086 09/04 A2997 RMK SC6AC1 SLP155

CYWG;2007-05-24 23:00;CYWG 242300Z 31018KT 15SM BKN023 OVC090 08/03 A2998 RMK SC6AC2 SLP159

CYWG;2007-05-25 00:00;CYWG 250000Z 30017KT 15SM FEW012 BKN019 OVC065 07/04 A3000 RMK SF2SC6SC1 SLP168

CYWG;2007-05-25 01:00;CYWG 250100Z 32014G20KT 15SM -DZ SCT019 BKN036 OVC065 06/03 A3002 RMK SC3SC3SC2 SLP175

CYWG;2007-05-25 01:25;CYWG 250125Z 33013G18KT 12SM -RA BKN017 BKN066 OVC091 06/ RMK SC5SC2AC1

CYWG;2007-05-25 02:00;CYWG 250200Z 32012KT 15SM SCT017 BKN076 BKN091 06/03 A3004 RMK SC3AC2AC1 SLP182

CYWG;2007-05-25 03:00;CYWG 250300Z 31010KT 15SM SCT033 BKN089 05/02 A3006 RMK SC3AC2 SLP187

CYWG;2007-05-25 04:00;CYWG 250400Z 30012KT 15SM -DZ BKN022 05/02 A3007 RMK SC6 SLP191

CYWG;2007-05-25 05:00;CYWG 250500Z 29010KT 12SM -DZ BKN022 OVC057 04/03 A3009 RMK SC6SC2 SLP196

CYWG;2007-05-25 05:13;CYWG 250513Z 29012KT 12SM -RA OVC022 04/ RMK SC8

CYWG;2007-05-25 06:00;CYWG 250600Z 31010KT 12SM -RA BKN018 OVC044 04/02 A3009 RMK SC6SC2 SLP200

CYWG;2007-05-25 07:00;CYWG 250700Z 29008KT 12SM -RA BKN029 OVC052 04/02 A3012 RMK SC6SC2 SLP207

CYWG;2007-05-25 07:17;CYWG 250717Z 30009KT 15SM BKN029 04/ RMK SC6

CYWG;2007-05-25 08:00;CYWG 250800Z 30009KT 15SM BKN026 OVC063 03/01 A3013 RMK SC6SC2 SLP212

CYWG;2007-05-25 09:00;CYWG 250900Z 31006KT 15SM BKN023 03/01 A3014 RMK SC6 SLP215

CYWG;2007-05-25 10:00;CYWG 251000Z 32007KT 15SM BKN019 03/01 A3014 RMK SC7 CIG RGD SLP216

CYWG;2007-05-25 11:00;CYWG 251100Z 31006KT 15SM BKN020 02/00 A3017 RMK SC6 SLP224

CYWG;2007-05-25 12:00;CYWG 251200Z 29006KT 15SM BKN028 03/M00 A3019 RMK SC7 SLP235

CYWG;2007-05-25 12:46;CYWG 251246Z 30005KT 15SM -SN BKN023 03/ RMK SC7

CYWG;2007-05-25 13:00;CYWG 251300Z 27007KT 15SM -SN OVC023 03/01 A3021 RMK SC8 SLP240

CYWG;2007-05-25 13:44;CYWG 251344Z 25006KT 12SM -DZ OVC021 03/ RMK SC8

CYWG;2007-05-25 14:00;CYWG 251400Z 25006KT 15SM -DZ SCT007 OVC024 03/01 A3022 RMK SF2SC6 SLP245

CYWG;2007-05-25 14:29;CYWG 251429Z 27005KT 15SM SCT010 BKN026 04/ RMK SF2SC5

CYWG;2007-05-25 15:00;CYWG 251500Z 28008KT 15SM SCT012 BKN027 05/02 A3022 RMK SF2SC6 SLP244

CYWG;2007-05-25 16:00;CYWG 251600Z 31007KT 15SM OVC018 06/01 A3023 RMK SC8 SLP248

CYWG;2007-05-25 17:00;CYWG 251700Z 34011KT 15SM OVC028 07/M00 A3024 RMK SC8 SLP251

CYWG;2007-05-25 18:00;CYWG 251800Z 33007KT 15SM OVC030 08/00 A3025 RMK SC8 SLP253

CYWG;2007-05-25 19:00;CYWG 251900Z 36009G15KT 15SM OVC032 08/01 A3025 RMK SC8 SLP252

CYWG;2007-05-25 20:00;CYWG 252000Z 36009KT 15SM BKN032 09/01 A3024 RMK SC7 SLP251

CYWG;2007-05-25 21:00;CYWG 252100Z 02004KT 15SM BKN034 BKN071 08/01 A3024 RMK SC6AC1 SLP251

CYWG;2007-05-25 22:00;CYWG 252200Z 03005KT 15SM BKN036 BKN071 09/01 A3023 RMK SC6AC2 SLP247

CYWG;2007-05-25 23:00;CYWG 252300Z 36005KT 15SM BKN038 BKN070 10/01 A3022 RMK SC6AC2 SLP243

CYWG;2007-05-26 00:00;CYWG 260000Z 06004KT 15SM BKN039 BKN070 BKN210 09/01 A3022 RMK SC5AC1CI1 SLP242

CYWG;2007-05-26 01:00;CYWG 260100Z 04008KT 15SM BKN039 BKN070 BKN210 08/01 A3022 RMK SC6AC1CI1 SLP242

CYWG;2007-05-26 02:00;CYWG 260200Z 05011KT 15SM BKN041 BKN070 07/01 A3022 RMK SC5AC2 SLP244

CYWG;2007-05-26 03:00;CYWG 260300Z 06007KT 15SM SCT043 05/01 A3025 RMK SC3 SLP253

CYWG;2007-05-26 04:00;CYWG 260400Z 06007KT 15SM FEW043 BKN240 04/01 A3025 RMK SC1CI2 SLP253

CYWG;2007-05-26 05:00;CYWG 260500Z 05007KT 15SM FEW040 SCT080 BKN240 04/01 A3024 RMK SC1AC3CI2 SLP249

CYWG;2007-05-26 06:00;CYWG 260600Z 04006KT 15SM SCT080 BKN240 03/01 A3022 RMK AC3CI2 SLP243

CYWG;2007-05-26 07:00;CYWG 260700Z 05005KT 15SM FEW080 BKN240 02/00 A3019 RMK AC1CI2 SLP235

CYWG;2007-05-26 08:00;CYWG 260800Z 06007KT 15SM FEW080 BKN240 03/01 A3018 RMK AC2CI2 SLP230

CYWG;2007-05-26 09:00;CYWG 260900Z 05007KT 15SM FEW010 BKN092 BKN240 04/01 A3016 RMK SF1AC6CI0 SLP223

CYWG;2007-05-26 10:00;CYWG 261000Z 05011KT 15SM FEW010 BKN075 BKN120 BKN240 04/01 A3015 RMK SF1AC4AC2CI0 SLP219

CYWG;2007-05-26 11:00;CYWG 261100Z 06009KT 15SM BKN064 BKN120 BKN260 05/01 A3012 RMK SC5AC2CI0 SLP211

CYWG;2007-05-26 11:33;CYWG 261133Z 07010KT 15SM -RA BKN060 BKN095 BKN260 05/ RMK SC6AC2CI1

CYWG;2007-05-26 12:00;CYWG 261200Z CCA 05009KT 15SM -RA BKN045 BKN095 BKN260 05/02 A3012 RMK SC6AC1CI1 SLP207

CYWG;2007-05-26 13:00;CYWG 261300Z 04010KT 15SM -RA BKN033 OVC260 05/03 A3010 RMK SC7CI0 SLP201

CYWG;2007-05-26 14:00;CYWG 261400Z 05010KT 15SM -RA FEW014 BKN041 OVC260 05/03 A3009 RMK SF2SC6CI0 SLP197

CYWG;2007-05-26 14:45;CYWG 261445Z 05011KT 10SM -RA FEW005 BKN011 OVC040 05/ RMK SF1SC6SC1

CYWG;2007-05-26 15:00;CYWG 261500Z 04010G16KT 8SM -RA FEW005 OVC010 05/04 A3007 RMK SF2SC6 SLP193

CYWG;2007-05-26 16:00;CYWG 261600Z 03017KT 8SM -RA BKN014 OVC043 06/04 A3005 RMK SF6SC2 SLP185

CYWG;2007-05-26 17:00;CYWG 261700Z 03020G25KT 8SM -RA BKN012 OVC037 06/04 A3002 RMK SF2SC6 SLP176

CYWG;2007-05-26 17:38;CYWG 261738Z 03020G25KT 12SM -RA BKN015 OVC039 06/ RMK SF5SC3

CYWG;2007-05-26 18:00;CYWG 261800Z 03018G24KT 12SM -RA BKN013 OVC039 06/05 A3001 RMK SF5SC3 SLP173

CYWG;2007-05-26 19:00;CYWG 261900Z 03018G26KT 12SM -RA BKN015 OVC037 06/05 A3000 RMK SF6SC2 SLP169

CYWG;2007-05-26 20:00;CYWG 262000Z 02023KT 12SM -RA BKN014 OVC027 06/05 A2999 RMK SF6SC2 SLP166

CYWG;2007-05-26 21:00;CYWG 262100Z 01019G26KT 10SM -RA BKN013 OVC038 07/05 A2998 RMK SC7SC1 SLP161

CYWG;2007-05-26 22:00;CYWG 262200Z 01019G26KT 10SM -RA SCT013 OVC048 07/05 A2997 RMK SF4SC4 SLP159

CYWG;2007-05-26 23:00;CYWG 262300Z 02016G22KT 12SM -RA FEW017 BKN032 OVC140 07/05 A2997 RMK SF2SC5AC2 SLP159

CYWG;2007-05-27 00:00;CYWG 270000Z 01014G19KT 15SM -RA SCT030 BKN056 OVC094 07/05 A2996 RMK SC3SC3AC2 SLP155

CYWG;2007-05-27 01:00;CYWG 270100Z 01011G17KT 15SM -RA FEW030 SCT045 OVC100 07/05 A2996 RMK SC2SC2AC4 SLP153

CYWG;2007-05-27 02:00;CYWG 270200Z 36006KT 15SM BKN046 BKN100 07/05 A2996 RMK SC6AC2 SLP153

CYWG;2007-05-27 03:00;CYWG 270300Z 33005KT 15SM BKN042 BKN090 BKN250 07/05 A2996 RMK SC5AC2CI1 SLP156

CYWG;2007-05-27 04:00;CYWG 270400Z 33008KT 15SM BKN060 BKN250 07/05 A2997 RMK SC6CI2 SLP157

CYWG;2007-05-27 05:00;CYWG 270500Z 33008KT 15SM FEW066 BKN250 05/03 A2996 RMK AC2CI1 SLP156

CYWG;2007-05-27 06:00;CYWG 270600Z 32008KT 15SM FEW066 FEW110 BKN250 04/02 A2996 RMK AC1AC2CI1 SLP155

CYWG;2007-05-27 07:00;CYWG 270700Z 32007KT 15SM FEW056 BKN250 03/02 A2996 RMK SC2CI0 SLP155

CYWG;2007-05-27 08:00;CYWG 270800Z 32008KT 15SM SCT250 03/02 A2996 RMK CI2 SLP156

CYWG;2007-05-27 09:00;CYWG 270900Z 33008KT 15SM SCT250 02/01 A2997 RMK CI2 SLP159

CYWG;2007-05-27 10:00;CYWG 271000Z 30007KT 15SM FEW250 01/M00 A2998 RMK CI1 SLP161

CYWG;2007-05-27 11:00;CYWG 271100Z 28006KT 15SM FEW250 00/M01 A2999 RMK CI1 SLP166

CYWG;2007-05-27 12:00;CYWG 271200Z 29005KT 15SM FEW250 02/01 A3000 RMK CI1 SLP170

CYWG;2007-05-27 13:00;CYWG 271300Z 28005KT 15SM FEW250 06/03 A3002 RMK CI0 SLP174

CYWG;2007-05-27 14:00;CYWG 271400Z 31005KT 15SM FEW250 09/04 A3003 RMK CI0 SLP177

CYWG;2007-05-27 15:00;CYWG 271500Z 32005KT 15SM SKC 11/04 A3003 RMK SLP175

CYWG;2007-05-27 16:00;CYWG 271600Z 00000KT 15SM FEW030 12/03 A3002 RMK CF1 SLP172

CYWG;2007-05-27 17:00;CYWG 271700Z 23003KT 15SM SKC 14/04 A3002 RMK SLP174

CYWG;2007-05-27 18:00;CYWG 271800Z 05002KT 15SM SKC 14/03 A3002 RMK SLP173

CYWG;2007-05-27 19:00;CYWG 271900Z 23003KT 15SM FEW250 15/02 A3000 RMK CI1 SLP168

CYWG;2007-05-27 20:00;CYWG 272000Z 33003KT 15SM FEW250 17/05 A2999 RMK CI1 SLP165

CYWG;2007-05-27 21:00;CYWG 272100Z 21005KT 15SM FEW250 17/02 A2999 RMK CI1 ODS TKN +05 SLP161

CYWG;2007-05-27 22:00;CYWG 272200Z 21004KT 15SM FEW250 18/04 A2998 RMK CI1 SLP158

CYWG;2007-05-27 23:00;CYWG 272300Z 19004KT 15SM FEW120 FEW250 17/03 A2997 RMK AC1CI1 SLP155

CYWG;2007-05-28 00:00;CYWG 280000Z 20003KT 15SM FEW140 SCT250 17/02 A2996 RMK AC1CI2 SLP151

CYWG;2007-05-28 01:00;CYWG 280100Z 17008KT 15SM FEW140 SCT250 16/04 A2995 RMK AC1CI2 SLP150

CYWG;2007-05-28 02:00;CYWG 280200Z 17008KT 15SM FEW140 BKN250 13/05 A2994 RMK AC1CI1 SLP147

CYWG;2007-05-28 03:00;CYWG 280300Z 16007KT 15SM FEW140 SCT250 11/04 A2995 RMK AC1CI1 SLP147

CYWG;2007-05-28 04:00;CYWG 280400Z 17008KT 15SM SCT250 09/04 A2994 RMK CI1 SLP146

CYWG;2007-05-28 05:00;CYWG 280500Z 18009KT 15SM FEW250 10/04 A2994 RMK CI0 SLP146

CYWG;2007-05-28 06:00;CYWG 280600Z 18008KT 15SM FEW250 10/03 A2994 RMK CI0 SLP144

CYWG;2007-05-28 07:00;CYWG 280700Z 18010KT 15SM FEW250 10/03 A2993 RMK CI0 SLP141

CYWG;2007-05-28 08:00;CYWG 280800Z 18009KT 15SM FEW250 10/03 A2993 RMK CI0 SLP139

CYWG;2007-05-28 09:00;CYWG 280900Z 17008KT 15SM FEW250 08/03 A2992 RMK CI0 SLP138

CYWG;2007-05-28 10:00;CYWG 281000Z 18008KT 15SM SCT250 08/03 A2992 RMK CI1 SLP136

CYWG;2007-05-28 11:00;CYWG 281100Z 16007KT 15SM FEW120 BKN250 07/03 A2991 RMK AC1CI1 SLP135

CYWG;2007-05-28 12:00;CYWG 281200Z 17009KT 15SM SCT072 BKN250 10/04 A2991 RMK AC4CI2 SLP134

CYWG;2007-05-28 13:00;CYWG 281300Z 18012G17KT 15SM SCT074 BKN250 13/04 A2990 RMK AC4CI1 SLP128

CYWG;2007-05-28 14:00;CYWG 281400Z 16015KT 15SM FEW064 BKN250 15/05 A2987 RMK AC1CI1 SLP118

CYWG;2007-05-28 15:00;CYWG 281500Z 14016KT 15SM FEW070 BKN270 17/05 A2985 RMK AC2CI2 SLP111

CYWG;2007-05-28 16:00;CYWG 281600Z 15014KT 15SM SCT070 BKN270 17/05 A2983 RMK AC3CI2 SLP107

CYWG;2007-05-28 17:00;CYWG 281700Z 14013G21KT 15SM -SHRA FEW040 BKN064 BKN270 17/05 A2981 RMK SC2AC4CI2 SLP098

CYWG;2007-05-28 17:43;CYWG 281743Z 13011G16KT 15SM SCT040 OVC100 18/ RMK SC3AC5

CYWG;2007-05-28 18:00;CYWG 281800Z 12013KT 15SM BKN060 OVC100 18/06 A2977 RMK SC6AC2 SLP086

CYWG;2007-05-28 19:00;CYWG 281900Z 12010KT 15SM -SHRA SCT028 OVC100 19/06 A2978 RMK SC4AC4 SLP089

CYWG;2007-05-28 20:00;CYWG 282000Z 12008KT 15SM BKN036 OVC096 18/09 A2979 RMK SC6AC2 SLP090

CYWG;2007-05-28 21:00;CYWG 282100Z 11010KT 15SM BKN030 OVC090 19/09 A2977 RMK SC6AC2 SLP084

CYWG;2007-05-28 21:05;CYWG 282105Z 12010KT 15SM -SHRA BKN030 OVC090 19/ RMK SC6AC2

CYWG;2007-05-28 21:25;CYWG 282125Z 11010KT 15SM OVC032 19/ RMK SC8

CYWG;2007-05-28 22:00;CYWG 282200Z 11009KT 15SM BKN033 OVC061 19/10 A2976 RMK SC6SC2 SLP083

CYWG;2007-05-28 23:00;CYWG 282300Z 11010G15KT 15SM -SHRA BKN047 OVC079 20/11 A2972 RMK SC6AC2 SLP069

CYWG;2007-05-28 23:30;CYWG 282330Z 10009KT 15SM -TSRA BKN037 OVC080 19/ RMK SC7AC1 CB SE

CYWG;2007-05-28 23:46;CYWG 282346Z 11010KT 15SM TS BKN037 OVC080 19/ RMK SC7AC1 CB ENE

CYWG;2007-05-28 23:50;CYWG 282350Z 11012KT 15SM -SHRA BKN037 OVC080 RMK SC6AC2 RETS CVCTV CLD EMBDD

CYWG;2007-05-29 00:00;CYWG 290000Z 11011KT 15SM -SHRA BKN037 OVC080 18/13 A2970 RMK SC6AC2 RETS CVCTV CLD EMBDD SLP062

CYWG;2007-05-29 00:08;CYWG 290008Z 12011KT 15SM -TSRA BKN037 OVC080 18/ RMK SC6AC2 CB ENE VSBY 2 NE

CYWG;2007-05-29 00:33;CYWG 290033Z 09010KT 15SM -SHRA BKN037 OVC100 17/ RETS RMK SC6AC2 CVCTV CLD EMBDD

CYWG;2007-05-29 00:46;CYWG 290046Z 08009KT 15SM BKN037 OVC100 17/ RETS RMK SC6AC2 CVCTV CLD EMBDD

CYWG;2007-05-29 01:00;CYWG 290100Z 08007KT 15SM OVC037 17/14 A2969 RETS RMK SC8 SLP059

CYWG;2007-05-29 01:10;CYWG 290110Z 05006KT 15SM -SHRA OVC037 16/ RMK SC7

CYWG;2007-05-29 01:12;CYWG 290112Z CCA 05006KT 15SM -SHRA OVC037 16/ RMK SC7 CVCTV CLD EMBDD

CYWG;2007-05-29 01:49;CYWG 290149Z 09012KT 15SM BKN041 16/ RMK SC6 CVCTV CLD EMBDD

CYWG;2007-05-29 02:00;CYWG 290200Z 07011KT 15SM BKN041 16/14 A2968 RMK SC6 CVCTV CLD EMBDD SLP056

CYWG;2007-05-29 03:00;CYWG 290300Z 08010KT 15SM SCT043 BKN073 15/13 A2969 RMK SC3AC1 CB TOPS SE-S FQT LGTNG SLP056

CYWG;2007-05-29 04:00;CYWG 290400Z 08009KT 15SM FEW050 15/12 A2969 RMK SC2 CB TOPS SE-E LTNG SE SLP055

CYWG;2007-05-29 05:00;CYWG 290500Z 05006KT 15SM SCT039 14/12 A2970 RMK SC3 CB TOPS LTNG SE SLP060

CYWG;2007-05-29 06:00;CYWG 290600Z 05005KT 15SM FEW037 BKN230 13/12 A2970 RMK SC2CI0 SLP059

CYWG;2007-05-29 07:00;CYWG 290700Z 34006KT 15SM BKN230 11/10 A2969 RMK CI1 HZ SLP057

CYWG;2007-05-29 08:00;CYWG 290800Z 34005KT 12SM FEW140 BKN230 10/10 A2969 RMK AC1CI1 HZ SLP057

CYWG;2007-05-29 08:44;CYWG 290844Z 36003KT 4SM BR SCT003 SCT140 BKN230 11/ RMK SF2AC1CI1

CYWG;2007-05-29 09:00;CYWG 290900Z 36004KT 4SM BR BKN005 12/11 A2971 RMK SF4 SLP063

CYWG;2007-05-29 09:16;CYWG 290916Z 36006KT 1 1/2SM BR VV001 12/ RMK FG8

CYWG;2007-05-29 09:20;CYWG 290920Z 01005KT 1/2SM R13/3000VP6000FT/D FG VV001 12/ RMK FG8

CYWG;2007-05-29 10:00;CYWG 291000Z 32003KT 1/4SM R31/2000FT/N FG VV001 12/12 A2972 RMK FG8 SLP066

CYWG;2007-05-29 11:00;CYWG 291100Z 31006KT 1/4SM R31/1600FT/N FG VV001 12/12 A2974 RMK FG8 SLP075

CYWG;2007-05-29 12:00;CYWG 291200Z 33007KT 3/8SM R31/4000FT/D FG VV001 13/12 A2975 RMK FG8 SLP077

CYWG;2007-05-29 12:32;CYWG 291232Z CCA 27005KT 3/8SM R31/3000V4500FT/U -SHRA FG VV001 13/ RMK FG8 CVCTV CLD EMBD

CYWG;2007-05-29 13:00;CYWG 291300Z 35017G22KT 3/8SM R31/2200FT/U -SHRA FG VV001 13/13 A2967 RMK FG8 CVCTV CLD EMBD PRESFR SLP051

CYWG;2007-05-29 13:17;CYWG 291317Z CCA 03012KT 1/2SM R31/3000VP6000FT/U FG OVC001 13/ RMK FG5ST3

CYWG;2007-05-29 13:44;CYWG 291344Z 35008KT 1 1/2SM BR BKN002 OVC012 14/ RMK SF6SC2

CYWG;2007-05-29 13:56;CYWG 291356Z 02009KT 3SM BR BKN002 OVC012 14/ RMK SF6SC2

CYWG;2007-05-29 14:00;CYWG 291400Z 03007KT 5SM BR BKN002 OVC012 14/14 A2971 RMK SF6SC2 SLP065

CYWG;2007-05-29 14:50;CYWG 291450Z 08009KT 6SM BR BKN003 OVC012 14/ RMK ST6SC2

CYWG;2007-05-29 15:00;CYWG 291500Z 11007KT 6SM -SHRA BR BKN003 OVC010 14/14 A2975 RMK SF6SC2 SLP077

CYWG;2007-05-29 15:34;CYWG 291534Z 28004KT 10SM OVC004 15/ RMK SF8 BR

CYWG;2007-05-29 15:50;CYWG 291550Z 27006KT 4SM -SHRA BR OVC004 15/ RMK SF8

CYWG;2007-05-29 16:00;CYWG 291600Z 28005KT 6SM -SHRA BR OVC004 15/14 A2978 RMK SF8 SLP088

CYWG;2007-05-29 16:35;CYWG 291635Z 29009KT 6SM -SHRA BR OVC005 15/ RMK SF8

CYWG;2007-05-29 17:00;CYWG 291700Z 31005KT 7SM -SHRA SCT006 OVC011 15/14 A2981 RMK SF4SC4 BR SLP098

CYWG;2007-05-29 18:00;CYWG 291800Z 31010KT 12SM -SHRA SCT005 OVC015 16/15 A2980 RMK SF3SC5 SLP094

CYWG;2007-05-29 18:21;CYWG 291821Z 32013KT 15SM BKN006 OVC017 18/ RMK SC6SC2

CYWG;2007-05-29 19:00;CYWG 291900Z 32012G17KT 15SM OVC010 19/16 A2979 RMK SC8 SLP092

CYWG;2007-05-29 20:00;CYWG 292000Z 36008KT 15SM OVC014 18/15 A2981 RMK SC8 SLP098

CYWG;2007-05-29 21:00;CYWG 292100Z 03006KT 15SM OVC014 18/15 A2983 RMK SC8 SLP104

CYWG;2007-05-29 22:00;CYWG 292200Z 01009KT 15SM OVC014 18/15 A2984 RMK SC8 SLP109

CYWG;2007-05-29 22:39;CYWG 292239Z 35007KT 15SM OVC017 18/ RMK SC8

CYWG;2007-05-29 23:00;CYWG 292300Z 34009KT 15SM BKN017 OVC024 18/15 A2985 RMK SC6SC2 SLP112

CYWG;2007-05-30 00:00;CYWG 300000Z 36011KT 15SM OVC015 17/14 A2987 RMK SC8 SLP119

CYWG;2007-05-30 00:32;CYWG 300032Z 36012G17KT 4SM -RA BR OVC013 16/ RMK SC8

CYWG;2007-05-30 00:44;CYWG 300044Z 36011KT 3SM -RA BR OVC009 15/ RMK SC8

CYWG;2007-05-30 01:00;CYWG 300100Z 36010G16KT 3SM -RA BR OVC009 15/13 A2989 RMK SC8 SLP125

CYWG;2007-05-30 01:09;CYWG 300109Z 36016KT 2SM -RA BR OVC010 15/ RMK SC8

CYWG;2007-05-30 01:18;CYWG 300118Z 36014KT 2SM -RA BR OVC006 14/ RMK ST8

CYWG;2007-05-30 02:00;CYWG 300200Z 01014KT 2SM -RA BR OVC005 13/12 A2990 RMK ST8 SLP128

CYWG;2007-05-30 02:10;CYWG 300210Z 01011G18KT 1SM R31/P6000FT/U -RA BR OVC004 13/ RMK ST8

CYWG;2007-05-30 02:49;CYWG 300249Z 35013KT 4SM -RA BR OVC005 12/ RMK ST8

CYWG;2007-05-30 03:00;CYWG 300300Z 35011KT 4SM -RA BR OVC005 12/11 A2992 RMK ST8 SLP135

CYWG;2007-05-30 04:00;CYWG 300400Z 36013KT 3SM -RA BR OVC004 12/11 A2992 RMK ST8 SLP136

CYWG;2007-05-30 04:18;CYWG 300418Z 36010G15KT 1 1/2SM -RA BR OVC004 11/ RMK ST8

CYWG;2007-05-30 04:34;CYWG 300434Z 01014KT 1 1/2SM -RA BR OVC003 11/ RMK ST8

CYWG;2007-05-30 05:00;CYWG 300500Z 01013KT 4SM -RA BR OVC006 11/10 A2992 RMK ST8 SLP136

CYWG;2007-05-30 05:17;CYWG 300517Z 01014KT 6SM BR OVC006 11/ RMK SF8

CYWG;2007-05-30 06:00;CYWG 300600Z 01013KT 8SM OVC007 11/10 A2993 RMK SF8 BR SLP139

CYWG;2007-05-30 07:00;CYWG 300700Z 01013KT 5SM BR OVC007 11/10 A2993 RMK SF8 SLP140

CYWG;2007-05-30 07:18;CYWG 300718Z 01012KT 3SM -DZ BR OVC005 10/ RMK SF8

CYWG;2007-05-30 07:31;CYWG 300731Z 01013KT 2SM -DZ BR OVC004 10/ RMK SF8

CYWG;2007-05-30 08:00;CYWG 300800Z 01011G16KT 3SM -DZ BR OVC004 10/09 A2994 RMK SF8 SLP142

CYWG;2007-05-30 09:00;CYWG 300900Z 01012KT 2 1/2SM -DZ BR OVC003 10/09 A2995 RMK SF8 SLP146

CYWG;2007-05-30 09:43;CYWG 300943Z 02013G19KT 4SM -DZ BR OVC004 10/ RMK SF8

CYWG;2007-05-30 10:00;CYWG 301000Z 02013G18KT 4SM -DZ BR OVC004 10/09 A2995 RMK SF8 SLP147

CYWG;2007-05-30 11:00;CYWG 301100Z 03012KT 5SM -DZ BR OVC004 10/09 A2995 RMK ST8 SLP147

CYWG;2007-05-30 12:00;CYWG 301200Z 03013KT 12SM OVC004 10/09 A2996 RMK ST8 SLP148

CYWG;2007-05-30 13:00;CYWG 301300Z 03012KT 15SM OVC004 10/10 A2996 RMK SC8 SLP149

CYWG;2007-05-30 14:00;CYWG 301400Z 02010G15KT 15SM OVC005 11/10 A2996 RMK SC8 SLP150

CYWG;2007-05-30 15:00;CYWG 301500Z 01011KT 10SM -DZ OVC004 12/11 A2995 RMK SC8 SLP147

CYWG;2007-05-30 16:00;CYWG 301600Z 02013G18KT 10SM -DZ OVC006 12/11 A2994 RMK SC8 SLP145

CYWG;2007-05-30 17:00;CYWG 301700Z 03014KT 7SM -DZ OVC008 13/11 A2995 RMK SF8 SLP148

CYWG;2007-05-30 18:00;CYWG 301800Z 03017KT 8SM OVC009 13/11 A2995 RMK SC8 SLP147

CYWG;2007-05-30 18:51;CYWG 301851Z 03015G20KT 15SM OVC012 14/ RMK SC8

CYWG;2007-05-30 19:00;CYWG 301900Z 03016KT 15SM OVC012 13/11 A2995 RMK SC8 SLP147

CYWG;2007-05-30 20:00;CYWG 302000Z 04014KT 15SM OVC012 14/11 A2995 RMK SC8 SLP146

CYWG;2007-05-30 21:00;CYWG 302100Z 03017KT 15SM OVC012 14/11 A2994 RMK SC8 SLP143

CYWG;2007-05-30 22:00;CYWG 302200Z 04017KT 15SM OVC012 14/11 A2993 RMK SC8 SLP140

CYWG;2007-05-30 23:00;CYWG 302300Z 04016KT 15SM OVC012 14/11 A2991 RMK SC8 SLP135

CYWG;2007-05-31 00:00;CYWG 310000Z 05016G21KT 15SM OVC012 14/11 A2990 RMK SC8 SLP131

CYWG;2007-05-31 01:00;CYWG 310100Z 05015G20KT 15SM OVC012 14/11 A2990 RMK SC8 SLP132

CYWG;2007-05-31 02:00;CYWG 310200Z 04018KT 15SM OVC014 13/11 A2990 RMK SC8 SLP130

CYWG;2007-05-31 03:00;CYWG 310300Z 05017KT 15SM OVC012 13/11 A2989 RMK SC8 SLP125

CYWG;2007-05-31 04:00;CYWG 310400Z 06010G17KT 15SM OVC010 13/11 A2989 RMK SC8 SLP126

CYWG;2007-05-31 04:07;CYWG 310407Z 06015KT 15SM OVC009 13/ RMK SC8

CYWG;2007-05-31 04:50;CYWG 310450Z 05018KT 15SM -SHRA OVC007 12/ RMK SC8

CYWG;2007-05-31 05:00;CYWG 310500Z 05017G22KT 15SM -SHRA OVC006 12/11 A2986 RMK SC8 SLP117

CYWG;2007-05-31 06:00;CYWG 310600Z 06015KT 15SM -SHRA OVC006 12/11 A2986 RMK SC8 SLP115

CYWG;2007-05-31 07:00;CYWG 310700Z 05014KT 15SM -SHRA OVC005 12/11 A2984 RMK SF8 SLP109

CYWG;2007-05-31 07:11;CYWG 310711Z 06012KT 12SM -SHRA OVC004 12/ RMK SF8

CYWG;2007-05-31 07:44;CYWG 310744Z 06013KT 12SM -SHRA OVC005 12/ RMK SF8

CYWG;2007-05-31 08:00;CYWG 310800Z 06013KT 15SM OVC005 12/11 A2983 RMK SF8 SLP107

CYWG;2007-05-31 09:00;CYWG 310900Z 07010KT 15SM OVC005 12/11 A2984 RMK SF8 SLP109

CYWG;2007-05-31 10:00;CYWG 311000Z 06013KT 15SM OVC005 12/11 A2983 RMK SF8 SLP105

CYWG;2007-05-31 11:00;CYWG 311100Z 06011KT 15SM OVC006 12/11 A2983 RMK SF8 SLP105

CYWG;2007-05-31 12:00;CYWG 311200Z 07010KT 15SM OVC007 12/11 A2984 RMK SF8 SLP109

CYWG;2007-05-31 13:00;CYWG 311300Z 09006KT 15SM OVC007 12/11 A2985 RMK SF8 SLP112

CYWG;2007-05-31 13:48;CYWG 311348Z 09006KT 2SM BR OVC007 12/ RMK SF8

CYWG;2007-05-31 14:00;CYWG 311400Z 08006KT 2SM -DZ BR OVC006 12/11 A2986 RMK SF8 SLP115

CYWG;2007-05-31 14:28;CYWG 311428Z 07007KT 2SM -DZ BR OVC004 12/ RMK SF8

CYWG;2007-05-31 14:55;CYWG 311455Z 08005KT 1 1/2SM -RA BR OVC004 12/ RMK SF8

CYWG;2007-05-31 15:00;CYWG 311500Z 10005KT 1 1/2SM -RA BR OVC004 12/11 A2987 RMK SF8 SLP119

CYWG;2007-05-31 15:28;CYWG 311528Z 10006KT 1SM R13/P6000FT/U -RA BR OVC003 13/ RMK SF8

CYWG;2007-05-31 15:54;CYWG 311554Z 12003KT 1SM R13/P6000FT/D -RA BR OVC002 13/ RMK SF8

CYWG;2007-05-31 16:00;CYWG 311600Z 11004KT 1SM R13/P6000FT/U -RA BR OVC002 13/12 A2987 RMK SF8 SLP121

CYWG;2007-05-31 16:23;CYWG 311623Z 14002KT 6SM BR OVC002 13/ RMK SF8

CYWG;2007-05-31 16:47;CYWG 311647Z 20005KT 6SM BR SCT002 OVC009 14/ RMK SF4SC4

CYWG;2007-05-31 17:00;CYWG 311700Z 19006KT 6SM BR SCT003 OVC011 15/12 A2988 RMK SF4SC4 SLP123

CYWG;2007-05-31 17:49;CYWG 311749Z 18009KT 10SM FEW006 OVC015 15/ RMK SF2SC6 BR

CYWG;2007-05-31 20:00;CYWG 312000Z 16007KT 15SM BKN023 BKN140 18/13 A2990 RMK SC5AC2 SLP129

CYWG;2007-05-31 21:00;CYWG 312100Z 16004KT 15SM FEW025 BKN140 BKN250 19/13 A2990 RMK SC2AC3CI1 SLP128

CYWG;2007-05-31 22:00;CYWG 312200Z 21002KT 15SM FEW029 BKN120 BKN250 19/12 A2990 RMK SC2AC3CI1 SLP127

CYWG;2007-05-31 23:00;CYWG 312300Z 00000KT 15SM SCT034 BKN086 BKN250 19/12 A2990 RMK SC2AC3CI1 SLP129

CYWG;2007-06-01 01:00;CYWG 010100Z 05008KT 15SM FEW035 BKN140 BKN250 17/14 A2992 RMK SC1AC5CI2 SLP134

CYWG;2007-06-01 02:00;CYWG 010200Z 07006KT 15SM BKN140 BKN250 16/14 A2992 RMK AC6CI1 SLP136

CYWG;2007-06-01 03:00;CYWG 010300Z 07005KT 15SM BKN140 BKN250 15/13 A2993 RMK AC6CI1 SLP138

CYWG;2007-06-01 04:00;CYWG 010400Z 08004KT 15SM BKN140 14/13 A2994 RMK AC6 SLP143

CYWG;2007-06-01 05:00;CYWG 010500Z 03005KT 15SM BKN140 13/12 A2994 RMK AC6 SLP142

CYWG;2007-06-01 06:00;CYWG 010600Z 04007KT 15SM BKN120 12/12 A2994 RMK AC5 SLP142

CYWG;2007-06-01 07:00;CYWG 010700Z 06003KT 12SM BKN120 11/11 A2993 RMK AC5 SLP139

CYWG;2007-06-01 08:00;CYWG 010800Z 07003KT 12SM BKN120 11/11 A2992 RMK AC5 SLP137

CYWG;2007-06-01 09:00;CYWG 010900Z 04004KT 12SM BKN120 11/11 A2992 RMK AC6 SLP135

CYWG;2007-06-01 10:00;CYWG 011000Z 03007KT 12SM BKN120 11/11 A2991 RMK AS6 SLP133

CYWG;2007-06-01 10:18;CYWG 011018Z 04006KT 10SM R13/3000FT/N PRFG BKN120 11/ RMK AS6 VSBY NW QUAD 3/4

CYWG;2007-06-01 10:32;CYWG 011032Z 04006KT 3/4SM R13/3500FT/N BR BKN001 M11/ RMK FG6ST1

CYWG;2007-06-01 10:47;CYWG 011047Z 05004KT 1/2SM R13/2800FT/N FG BKN020 11/ RMK FG6SC1

CYWG;2007-06-01 11:00;CYWG 011100Z 04004KT 1SM R13/2400FT/N BR SCT120 BKN250 11/11 A2992 RMK FG2AC1CI2 SLP134

CYWG;2007-06-01 11:07;CYWG 011107Z 05004KT 3SM R13/2200FT/N BR BKN120 BKN250 RMK FG1AC4CI0 VIS W 1

CYWG;2007-06-01 11:24;CYWG 011124Z 05003KT 7SM R13/3500VP6000FT/U BCFG BKN120 BKN250 11/ RMK AC5CI0

CYWG;2007-06-01 12:00;CYWG 011200Z 08002KT 12SM BKN120 BKN250 13/13 A2992 RMK AC5CI0 SLP136

CYWG;2007-06-01 13:00;CYWG 011300Z 06004KT 15SM FEW120 BKN240 15/14 A2993 RMK AC2CI3 SLP139

CYWG;2007-06-01 14:00;CYWG 011400Z 06003KT 15SM FEW120 SCT240 18/15 A2993 RMK AC1CI1 SLP139

CYWG;2007-06-01 15:00;CYWG 011500Z 04004KT 15SM FEW120 FEW240 20/15 A2993 RMK AC1CI1 SLP137

CYWG;2007-06-01 16:00;CYWG 011600Z 06007KT 15SM FEW032 FEW120 FEW240 22/13 A2991 RMK CF1AC1CI1 SLP131

CYWG;2007-06-01 17:00;CYWG 011700Z 05005KT 15SM FEW040 BKN250 23/14 A2990 RMK CU1CI1 SLP127

CYWG;2007-06-01 18:00;CYWG 011800Z 07006KT 15SM FEW044 FEW098 BKN250 24/14 A2989 RMK CU1AC1CI2 SLP124

CYWG;2007-06-01 19:00;CYWG 011900Z 07003KT 15SM SCT052 BKN098 BKN250 24/14 A2988 RMK CU4AC1CI1 SLP120

CYWG;2007-06-01 20:00;CYWG 012000Z 03004KT 15SM FEW052 SCT098 SCT250 25/14 A2987 RMK CU2AC1CI1 SLP117

CYWG;2007-06-01 21:00;CYWG 012100Z 05007KT 15SM SCT043 SCT096 BKN250 25/16 A2986 RMK CU3AC1CI1 TCU TOP SE SLP112

CYWG;2007-06-01 22:00;CYWG 012200Z 02008KT 15SM SCT043TCU SCT096 BKN250 25/15 A2985 RMK TCU3AC1CI2 SHRA SE TO S SLP109

CYWG;2007-06-01 23:00;CYWG 012300Z 04009KT 15SM FEW044 FEW052CB SCT250 24/14 A2984 RMK CU1CB2CI1 SLP107

CYWG;2007-06-02 00:00;CYWG 020000Z 06009KT 15SM FEW030 SCT052CB SCT250 24/13 A2984 RMK CU1CB2CI1 CB SE TO SW SLP108

CYWG;2007-06-02 00:38;CYWG 020038Z 20010G15KT 15SM SCT055CB BKN089 BKN250 RMK CB4AC2CI1 WSHFT 0038

CYWG;2007-06-02 01:00;CYWG 020100Z 22009G15KT 15SM SCT055CB BKN080 BKN250 20/14 A2988 RMK CB3AC3CI1 PRESRR SHRA SE TO SW SLP120

CYWG;2007-06-02 02:00;CYWG 020200Z 21006KT 15SM FEW059CB BKN078 BKN210 19/14 A2987 RMK CB2AC5CI1 SHRA S TO SW SLP116

CYWG;2007-06-02 03:00;CYWG 020300Z 00000KT 15SM SCT076TCU BKN090 BKN250 17/14 A2987 RMK TCU3AC2CI2 SLP118

CYWG;2007-06-02 04:00;CYWG 020400Z 04005KT 15SM BKN090 16/13 A2987 RMK AC5 SLP117

CYWG;2007-06-02 05:00;CYWG 020500Z 34007KT 15SM FEW090 15/13 A2986 RMK AC2 SLP114

CYWG;2007-06-02 06:00;CYWG 020600Z 00000KT 15SM FEW090 FEW250 14/12 A2986 RMK AC2CI1 SLP114

CYWG;2007-06-02 07:00;CYWG 020700Z 18002KT 15SM FEW096 13/12 A2986 RMK AC2 SLP113

CYWG;2007-06-02 08:00;CYWG 020800Z 05005KT 15SM SCT085 12/11 A2985 RMK AC4 SLP110

CYWG;2007-06-02 09:00;CYWG 020900Z 00000KT 15SM SCT093 13/12 A2984 RMK AC4 SLP106

CYWG;2007-06-02 10:00;CYWG 021000Z 34003KT 15SM SCT099 12/11 A2984 RMK AC4 SLP105

CYWG;2007-06-02 11:00;CYWG 021100Z 33004KT 15SM FEW100 SCT250 12/11 A2983 RMK AC2CI0 SLP104

CYWG;2007-06-02 12:00;CYWG 021200Z 32003KT 15SM FEW096 SCT250 15/13 A2984 RMK AC1CI2 SLP105

CYWG;2007-06-02 13:00;CYWG 021300Z 06004KT 15SM FEW096 FEW250 19/14 A2983 RMK AC1CI2 SLP103

CYWG;2007-06-02 14:00;CYWG 021400Z 06004KT 15SM FEW095 FEW250 21/15 A2983 RMK AC1CI1 SLP104

CYWG;2007-06-02 15:00;CYWG 021500Z 03006KT 15SM FEW025 FEW095 SCT250 22/15 A2983 RMK CU1AC1CI1 SLP104

CYWG;2007-06-02 16:00;CYWG 021600Z 02008KT 15SM FEW034 SCT250 23/16 A2983 RMK CU2CI1 SLP103

CYWG;2007-06-02 17:00;CYWG 021700Z 04009KT 15SM SCT034 BKN110 BKN250 23/15 A2983 RMK CU4AC1CI1 SLP101

CYWG;2007-06-02 18:00;CYWG 021800Z 01012KT 15SM SCT035 BKN052 BKN250 23/15 A2982 RMK CU4SC2CI1 SLP098

CYWG;2007-06-02 19:00;CYWG 021900Z 02009KT 15SM SCT036 BKN066 23/16 A2981 RMK CU3AC4 SLP096

CYWG;2007-06-02 20:00;CYWG 022000Z 35009KT 15SM SCT034 BKN088 22/15 A2980 RMK CU3AC4 SLP094

CYWG;2007-06-02 21:00;CYWG 022100Z 34007KT 15SM SCT032 BKN070 BKN250 23/14 A2980 RMK CU3AC3CI1 SLP092

CYWG;2007-06-02 22:00;CYWG 022200Z 03014KT 15SM SCT039 BKN084 22/16 A2980 RMK CU4AC2 SLP092

CYWG;2007-06-02 23:00;CYWG 022300Z 02012KT 15SM SCT027 BKN056 BKN250 22/15 A2979 RMK CU3SC2CI1 SLP091

CYWG;2007-06-03 00:00;CYWG 030000Z CCA 03012KT 15SM FEW027 SCT082 BKN250 21/15 A2979 RMK CU2AC1CI0 CB TOPS E-SE SLP089

CYWG;2007-06-03 01:00;CYWG 030100Z 03012G17KT 15SM FEW087 SCT250 20/15 A2980 RMK AC2CI0 SLP093

CYWG;2007-06-03 02:00;CYWG 030200Z 04009KT 15SM FEW085 FEW250 18/13 A2980 RMK AC1CI1 SLP094

CYWG;2007-06-03 03:00;CYWG 030300Z 02005KT 15SM FEW085 FEW250 16/13 A2981 RMK AC1CI1 SLP097

CYWG;2007-06-03 04:00;CYWG 030400Z 36006KT 15SM FEW085 13/12 A2982 RMK AC2 SLP100

CYWG;2007-06-03 05:00;CYWG 030500Z 31004KT 15SM FEW085 12/11 A2983 RMK AC2 SLP101

CYWG;2007-06-03 06:00;CYWG 030600Z 32002KT 15SM FEW085 11/11 A2983 RMK AC1 SLP103

CYWG;2007-06-03 07:00;CYWG 030700Z 32006KT 15SM FEW085 11/11 A2982 RMK AC1 SLP101

CYWG;2007-06-03 08:00;CYWG 030800Z 30007KT 15SM SKC 10/10 A2982 RMK SLP100

CYWG;2007-06-03 09:00;CYWG 030900Z 31007KT 15SM SKC 10/09 A2981 RMK SLP099

CYWG;2007-06-03 10:00;CYWG 031000Z 31004KT 15SM FEW095 10/10 A2983 RMK AC2 SLP103

CYWG;2007-06-03 11:00;CYWG 031100Z 29005KT 15SM FEW095 11/11 A2983 RMK AC1 AC TR SLP106

CYWG;2007-06-03 12:00;CYWG 031200Z 31002KT 15SM SKC 14/13 A2984 RMK SLP107

CYWG;2007-06-03 13:00;CYWG 031300Z 00000KT 15SM FEW210 18/15 A2984 RMK CI1 SLP107

CYWG;2007-06-03 14:00;CYWG 031400Z 34004KT 15SM FEW210 20/15 A2985 RMK CI0 SLP109

CYWG;2007-06-03 15:00;CYWG 031500Z 03004KT 15SM FEW210 22/15 A2985 RMK CI1 SLP109

CYWG;2007-06-03 16:00;CYWG 031600Z 04006KT 15SM FEW210 23/15 A2983 RMK CI0 SLP105

CYWG;2007-06-03 17:00;CYWG 031700Z 35005KT 15SM FEW210 24/15 A2984 RMK CI1 SLP107

CYWG;2007-06-03 18:00;CYWG 031800Z 02004KT 15SM FEW100 25/15 A2983 RMK AC1 SLP102

CYWG;2007-06-03 19:00;CYWG 031900Z 35008KT 15SM FEW045 FEW100 SCT250 25/15 A2982 RMK CU1AC1CI1 SLP101

CYWG;2007-06-03 20:00;CYWG 032000Z 01006KT 15SM FEW051 FEW100 BKN250 26/14 A2981 RMK CU2AC1CI1 SLP097

CYWG;2007-06-03 20:48;CYWG 032048Z 34010G15KT 15SM -SHRA FEW015 SCT051 BKN100 BKN250 RMK SF1CU3AC1CI1 CB EMBDD

CYWG;2007-06-03 21:00;CYWG 032100Z 32009KT 15SM -SHRA SCT028 BKN100 26/14 A2980 RMK CU4AC2 CB + HVR SHWRS SW SLP095

CYWG;2007-06-03 21:14;CYWG 032114Z 35008KT 15SM SCT031 BKN100 24/ RMK CU3AC2 SHWRS SW

CYWG;2007-06-03 22:00;CYWG 032200Z 34006KT 15SM SCT044 BKN100 26/14 A2979 RMK CU4AC2 CVCTV CLD EMBDD SHWRS N SLP089

CYWG;2007-06-03 22:04;CYWG 032204Z 35008KT 15SM -SHRA BKN044 BKN100 25/ RMK CU5AC2 CVCTV CLD EMBDD

CYWG;2007-06-03 22:15;CYWG 032215Z 35019G33KT 6SM SHRA FEW007 BKN044CB BKN100 19/ RMK SF1CB4AC2

CYWG;2007-06-03 22:39;CYWG 032239Z 30011G17KT 15SM BKN056TCU BKN100 20/ RMK TCU5AC2 CB EMBDD SHWRS S

CYWG;2007-06-03 23:00;CYWG 032300Z 31008KT 15SM FEW056TCU SCT100 BKN250 24/16 A2979 RMK TCU2AC2CI1 CB N+S SHWRS S SLP089

CYWG;2007-06-04 00:00;CYWG 040000Z 03016G21KT 15SM FEW040 FEW082 BKN250 24/13 A2980 RMK CU2AC1CI1 CB TOPS S SLP092

CYWG;2007-06-04 01:00;CYWG 040100Z 03018KT 15SM FEW082 BKN250 22/12 A2982 RMK AC1CI1 SLP098

CYWG;2007-06-04 02:00;CYWG 040200Z 03013KT 15SM FEW140 BKN250 20/13 A2983 RMK AC1CI2 SLP102

CYWG;2007-06-04 03:00;CYWG 040300Z 02008KT 15SM FEW140 BKN250 18/13 A2984 RMK AC2CI0 SLP106

CYWG;2007-06-04 04:00;CYWG 040400Z 01010KT 15SM BKN075 18/13 A2984 RMK AC6 SLP107

CYWG;2007-06-04 05:00;CYWG 040500Z 36009KT 15SM OVC053 18/09 A2984 RMK SC8 SLP107

CYWG;2007-06-04 06:00;CYWG 040600Z 36009KT 15SM OVC083 17/08 A2985 RMK AC8 SLP110

CYWG;2007-06-04 07:00;CYWG 040700Z 33009KT 15SM OVC084 15/10 A2987 RMK AC8 SLP114

CYWG;2007-06-04 08:00;CYWG 040800Z 34007KT 15SM SCT082 13/10 A2987 RMK AC3 SLP117

CYWG;2007-06-04 09:00;CYWG 040900Z 34008KT 15SM FEW097 13/10 A2988 RMK AC2 SLP121

CYWG;2007-06-04 10:00;CYWG 041000Z 34008KT 15SM FEW097 11/09 A2990 RMK AC1 SLP125

CYWG;2007-06-04 11:00;CYWG 041100Z 35007KT 15SM FEW097 10/09 A2990 RMK AC1 SLP127

CYWG;2007-06-04 12:00;CYWG 041200Z 35009KT 15SM FEW100 11/10 A2991 RMK AC1 SLP132

CYWG;2007-06-04 13:00;CYWG 041300Z 01010KT 15SM FEW100 14/10 A2993 RMK AC1 SLP139

CYWG;2007-06-04 14:00;CYWG 041400Z 02013KT 15SM FEW030 15/08 A2994 RMK CF1 SLP142

CYWG;2007-06-04 15:00;CYWG 041500Z 02011G18KT 15SM FEW063 16/06 A2994 RMK SC2 SLP141

CYWG;2007-06-04 16:00;CYWG 041600Z 03010KT 15SM FEW056 FEW090 17/06 A2994 RMK SC2AC1 SLP141

CYWG;2007-06-04 17:00;CYWG 041700Z 35013KT 15SM BKN055 BKN081 17/06 A2994 RMK CU5AC1 SLP140

CYWG;2007-06-04 18:00;CYWG 041800Z 36009G15KT 15SM BKN050 BKN088 16/07 A2994 RMK CU5AC1 SHWRS NW SLP142

CYWG;2007-06-04 18:38;CYWG 041838Z 02013KT 15SM -SHRA BKN046 BKN077 14/ RMK CU6AC2

CYWG;2007-06-04 19:00;CYWG 041900Z 01012G17KT 15SM -SHRA BKN046 BKN077 14/09 A2996 RMK CU5AC2 TCU EMBDD SLP148

CYWG;2007-06-04 19:22;CYWG 041922Z 03012KT 15SM SCT046 BKN080 16/ RMK CU3AC2

CYWG;2007-06-04 20:00;CYWG 042000Z 03015G22KT 15SM BKN038 16/08 A2995 RMK CU5 SLP145

CYWG;2007-06-04 21:00;CYWG 042100Z 01018KT 15SM FEW036 17/04 A2996 RMK CU2 SLP149

CYWG;2007-06-04 22:00;CYWG 042200Z 01020G27KT 15SM FEW035 16/02 A2996 RMK CU1 SLP150

CYWG;2007-06-04 23:00;CYWG 042300Z 36019G27KT 15SM FEW035 15/M01 A2997 RMK SC1 SLP153

CYWG;2007-06-05 00:00;CYWG 050000Z 01021KT 15SM FEW035 14/00 A2997 RMK SC1 SLP155

CYWG;2007-06-05 01:00;CYWG 050100Z 01015G22KT 15SM FEW250 13/01 A2997 RMK CI1 SLP154

CYWG;2007-06-05 02:00;CYWG 050200Z 01012G18KT 15SM FEW035 11/01 A2997 RMK SC1 SLP155

CYWG;2007-06-05 03:00;CYWG 050300Z 36009KT 15SM SKC 09/01 A2998 RMK SLP157

CYWG;2007-06-05 04:00;CYWG 050400Z 35008KT 15SM SKC 05/01 A2998 RMK SLP157

CYWG;2007-06-05 05:00;CYWG 050500Z 34007KT 15SM SKC 03/00 A2998 RMK SLP156

CYWG;2007-06-05 06:00;CYWG 050600Z 35006KT 15SM SKC 03/01 A2996 RMK SLP154

CYWG;2007-06-05 07:00;CYWG 050700Z 32006KT 15SM SKC 01/M01 A2996 RMK SLP153

CYWG;2007-06-05 08:00;CYWG 050800Z 35004KT 15SM SKC 01/M01 A2996 RMK SLP151

CYWG;2007-06-05 09:00;CYWG 050900Z 34004KT 15SM FEW250 M00/M02 A2996 RMK CI0 SLP152

CYWG;2007-06-05 10:00;CYWG 051000Z 36003KT 15SM FEW250 00/M01 A2996 RMK CI0 SLP151

CYWG;2007-06-05 11:00;CYWG 051100Z 00000KT 15SM FEW100 SCT250 00/M01 A2994 RMK AC1CI1 SLP147

CYWG;2007-06-05 12:00;CYWG 051200Z 30002KT 15SM SCT095 BKN250 02/01 A2994 RMK AC3CI2 SLP146

CYWG;2007-06-05 13:00;CYWG 051300Z 36002KT 15SM FEW095 BKN250 06/03 A2993 RMK AC2CI3 SLP141

CYWG;2007-06-05 14:00;CYWG 051400Z 02002KT 15SM FEW100 BKN250 09/03 A2991 RMK AC1CI1 SLP135

CYWG;2007-06-05 15:00;CYWG 051500Z 30002KT 15SM FEW095 BKN270 11/02 A2990 RMK AC2CI1 SLP130

CYWG;2007-06-05 16:00;CYWG 051600Z 00000KT 15SM FEW035 FEW095 OVC270 12/03 A2986 RMK CU1AC1CI2 SLP119

CYWG;2007-06-05 17:00;CYWG 051700Z 28007KT 15SM FEW035 FEW093 OVC270 13/04 A2984 RMK CU1AC1CI3 SLP112

CYWG;2007-06-05 18:00;CYWG 051800Z 00000KT 15SM FEW040 OVC270 13/04 A2981 RMK CU1CI5 SLP103

CYWG;2007-06-05 19:00;CYWG 051900Z 23003KT 15SM FEW044 OVC280 15/05 A2979 RMK CU1CS6 TR CU SLP094

CYWG;2007-06-05 20:00;CYWG 052000Z 30003KT 15SM FEW044 OVC280 16/05 A2976 RMK CU1CS5 TR CU OBS TKN +08 SLP085

CYWG;2007-06-05 21:00;CYWG 052100Z 00000KT 15SM FEW044 FEW140 SCT240 BKN290 17/05 A2974 RMK CU1AC1CI2CS2 SLP076

CYWG;2007-06-05 22:00;CYWG 052200Z 19004KT 15SM FEW052 FEW140 SCT250 18/05 A2971 RMK CU1AC1CI2 SLP067

CYWG;2007-06-05 23:00;CYWG 052300Z 00000KT 15SM FEW052 FEW140 SCT250 18/05 A2968 RMK CU1AC1CI1 TR CU SLP059

CYWG;2007-06-06 00:00;CYWG 060000Z 16004KT 15SM FEW140 FEW250 18/06 A2966 RMK AC1CI1 SLP049

CYWG;2007-06-06 01:00;CYWG 060100Z 14009KT 15SM FEW140 FEW250 17/06 A2963 RMK AC1CI1 TR AC SLP041

CYWG;2007-06-06 02:00;CYWG 060200Z 14011KT 15SM FEW045 FEW140 FEW250 16/05 A2961 RMK SC1AC1CI1 TR SC SLP035

CYWG;2007-06-06 03:00;CYWG 060300Z 14013KT 15SM FEW100 SCT240 15/05 A2960 RMK AC1CI1 SLP026

CYWG;2007-06-06 04:00;CYWG 060400Z 14013KT 15SM OVC077 15/05 A2958 RMK AC8 SLP022

CYWG;2007-06-06 05:00;CYWG 060500Z 15015KT 15SM OVC075 15/04 A2955 RMK AC8 SLP010

CYWG;2007-06-06 06:00;CYWG 060600Z 15013KT 15SM OVC070 15/05 A2954 RMK AC8 SLP005

CYWG;2007-06-06 07:00;CYWG 060700Z 14008KT 15SM OVC068 15/05 A2951 RMK AC8 SLP997

CYWG;2007-06-06 08:00;CYWG 060800Z 16012KT 15SM OVC079 16/05 A2947 RMK AC8 SLP984

CYWG;2007-06-06 09:00;CYWG 060900Z 17012KT 15SM OVC084 15/07 A2945 RMK AC8 SLP975

CYWG;2007-06-06 10:00;CYWG 061000Z 17012KT 15SM BKN088 14/08 A2944 RMK AC7 SLP973

CYWG;2007-06-06 11:00;CYWG 061100Z 16007KT 15SM OVC088 13/09 A2945 RMK AC8 SLP975

CYWG;2007-06-06 12:00;CYWG 061200Z 15008KT 15SM OVC090 14/09 A2945 RMK AC8 SLP974

CYWG;2007-06-06 13:00;CYWG 061300Z 14007KT 15SM BKN090 OVC270 15/09 A2944 RMK AC6CI1 SLP971

CYWG;2007-06-06 14:00;CYWG 061400Z 10008KT 15SM FEW090 OVC270 15/10 A2942 RMK AC2CI4 SLP966

CYWG;2007-06-06 15:00;CYWG 061500Z 11008KT 15SM SCT090 BKN120 OVC270 17/10 A2941 RMK AC3AC3CI2 SLP960

CYWG;2007-06-06 16:00;CYWG 061600Z 13005KT 15SM BKN100 OVC270 18/11 A2939 RMK AC6CI2 SLP956

CYWG;2007-06-06 17:00;CYWG 061700Z 15008KT 15SM BKN038 OVC100 19/12 A2938 RMK SC6AC2 SLP950

CYWG;2007-06-06 17:50;CYWG 061750Z 17011KT 15SM -SHRA BKN038 OVC100 18/ RMK SC6AC2

CYWG;2007-06-06 18:00;CYWG 061800Z 16009KT 15SM -SHRA BKN028 BKN047 OVC100 18/13 A2936 RMK SC5SC2AC2 SLP945

CYWG;2007-06-06 19:00;CYWG 061900Z 15007KT 15SM -SHRA SCT011 BKN034 OVC065 17/14 A2937 RMK SC4SC2AC2 SLP946

CYWG;2007-06-06 19:13;CYWG 061913Z 15007KT 12SM -RA BKN007 OVC065 17/ RMK SF6SC2

CYWG;2007-06-06 20:00;CYWG 062000Z 13008KT 10SM -RA BKN008 OVC084 16/14 A2937 RMK SF6AC2 SLP947

CYWG;2007-06-06 20:29;CYWG 062029Z 13009KT 4SM -RA FEW008 OVC014 16/ RMK SF2SC6

CYWG;2007-06-06 20:49;CYWG 062049Z 11008KT 4SM -RA OVC009 RMK SF8 15.5

CYWG;2007-06-06 21:00;CYWG 062100Z 12009KT 5SM -RA BR BKN009 OVC089 16/14 A2936 RMK SF7AC1 SLP946

CYWG;2007-06-06 22:00;CYWG 062200Z 09008KT 4SM -RA BR OVC007 15/14 A2936 RMK SC8 SLP946

CYWG;2007-06-06 22:10;CYWG 062210Z 10007KT 3SM RA BR OVC005 15/ RMK SF8

CYWG;2007-06-06 23:00;CYWG 062300Z 10011KT 8SM -RA BKN004 OVC052 15/14 A2935 RMK SF7SC1 BR SLP940

CYWG;2007-06-06 23:08;CYWG 062308Z 10011KT 8SM -RA BKN007 OVC040 15/ RMK SF7SC1 BR

CYWG;2007-06-07 00:00;CYWG 070000Z 09008KT 8SM -RA BKN008 OVC028 15/14 A2936 RMK SF5SC3 BR SLP945

CYWG;2007-06-07 00:40;CYWG 070040Z 09008KT 10SM BKN008 OVC050 15/ RMK SF5SC3 BR

CYWG;2007-06-07 01:00;CYWG 070100Z 07009KT 10SM OVC008 15/13 A2936 RMK SC8 BR SLP944

CYWG;2007-06-07 01:25;CYWG 070125Z 07008KT 12SM BKN011 BKN025 OVC051 15/ RMK SF5SC2SC2 BR

CYWG;2007-06-07 01:48;CYWG 070148Z 08010KT 12SM BKN009 OVC025 15/ RMK SF5SC3 BR

CYWG;2007-06-07 02:00;CYWG 070200Z 08008KT 12SM BKN009 BKN025 OVC051 15/13 A2935 RMK SF5SC2SC2 BR SLP942

CYWG;2007-06-07 02:11;CYWG 070211Z 08010KT 15SM SCT010 BKN025 OVC048 15/ RMK SF3SC3SC2

CYWG;2007-06-07 03:00;CYWG 070300Z 06008KT 15SM BKN011 OVC046 14/13 A2936 RMK SF5SC3 SLP944

CYWG;2007-06-07 04:00;CYWG 070400Z 04009KT 15SM BKN010 OVC045 14/13 A2934 RMK SF6SC2 SLP938

CYWG;2007-06-07 04:21;CYWG 070421Z 03012KT 12SM BKN004 OVC012 14/ RMK SF5SF3

CYWG;2007-06-07 05:00;CYWG 070500Z 02013G18KT 12SM OVC003 13/12 A2932 RMK SF8 SLP933

CYWG;2007-06-07 06:00;CYWG 070600Z 05015KT 6SM -RA OVC003 13/12 A2931 RMK SF8 SLP927

CYWG;2007-06-07 07:00;CYWG 070700Z 04016KT 10SM -RA OVC004 12/11 A2927 RMK SF8 SLP914

CYWG;2007-06-07 07:19;CYWG 070719Z 05013G19KT 15SM OVC004 12/ RMK SF8

CYWG;2007-06-07 08:00;CYWG 070800Z 03012KT 12SM -RA OVC005 12/11 A2930 RMK SF8 SLP923

CYWG;2007-06-07 08:46;CYWG 070846Z 04014KT 15SM OVC004 12/ RMK SF8

CYWG;2007-06-07 09:00;CYWG 070900Z 04011G20KT 15SM OVC004 12/11 A2928 RMK SF8 SLP920

CYWG;2007-06-07 10:00;CYWG 071000Z 03015G21KT 15SM OVC004 12/11 A2926 RMK SF8 SLP911

CYWG;2007-06-07 10:43;CYWG 071043Z 02018G24KT 15SM -DZ OVC005 12/ RMK SF8

CYWG;2007-06-07 11:00;CYWG 071100Z 02015G27KT 5SM -DZ BR OVC005 11/11 A2925 RMK SF8 SLP910

CYWG;2007-06-07 11:47;CYWG 071147Z 03014G21KT 4SM -DZ BR OVC004 11/ RMK SF8

CYWG;2007-06-07 12:00;CYWG 071200Z 03018G26KT 4SM -DZ BR OVC005 11/10 A2926 RMK SF8 SLP912

CYWG;2007-06-07 12:10;CYWG 071210Z 03018G24KT 3SM -RA BR OVC004 11/ RMK SF8

CYWG;2007-06-07 12:23;CYWG 071223Z 03018KT 2 1/2SM -RA BR OVC005 11/ RMK SF8

CYWG;2007-06-07 13:00;CYWG 071300Z 03019KT 2 1/2SM -RA BR OVC004 11/10 A2926 RMK SF8 SLP911

CYWG;2007-06-07 13:25;CYWG 071325Z 02018G25KT 4SM -RA BR OVC005 11/ RMK SF8

CYWG;2007-06-07 14:00;CYWG 071400Z 02020G26KT 5SM -RA BR OVC006 11/10 A2925 RMK SF8 SLP907

CYWG;2007-06-07 15:00;CYWG 071500Z 02023G30KT 12SM -RA OVC006 11/10 A2923 RMK SF8 SLP901

CYWG;2007-06-07 16:00;CYWG 071600Z 01022G30KT 12SM -RA BKN006 OVC010 11/09 A2924 RMK SF6SC2 SLP906

CYWG;2007-06-07 16:17;CYWG 071617Z 01020G28KT 15SM -RA SCT006 OVC014 11/ RMK SF3SC5

CYWG;2007-06-07 17:00;CYWG 071700Z 36021G28KT 10SM -RA FEW010 OVC018 11/09 A2926 RMK SF2SC6 SLP912

CYWG;2007-06-07 18:00;CYWG 071800Z 36016G22KT 15SM -RA FEW020 OVC045 10/08 A2929 RMK SC2SC6 SLP922

CYWG;2007-06-07 19:00;CYWG 071900Z 36019G26KT 8SM -RA OVC047 10/08 A2930 RMK SC8 SLP927

CYWG;2007-06-07 20:00;CYWG 072000Z 36019G27KT 12SM -RA FEW020 BKN057 OVC098 11/09 A2932 RMK SC2SC3AC3 SLP931

CYWG;2007-06-07 21:00;CYWG 072100Z CCA 36019G27KT 15SM -RA FEW020 SCT045 OVC092 13/08 A2933 RMK CU1SC3AC3 SLP935

CYWG;2007-06-07 22:00;CYWG 072200Z 35017G25KT 15SM -RA FEW020 SCT043 OVC071 13/06 A2935 RMK CU1SC3AC4 SLP944

CYWG;2007-06-07 23:00;CYWG 072300Z 36015G22KT 15SM BKN049 OVC070 14/06 A2938 RMK SC6AC2 SLP952

CYWG;2007-06-08 00:00;CYWG 080000Z 35016G28KT 15SM BKN051 BKN077 13/04 A2940 RMK SC5AC2 SLP961

CYWG;2007-06-08 01:00;CYWG 080100Z 34014KT 15SM BKN064 BKN088 14/05 A2944 RMK SC6AC1 SLP974

CYWG;2007-06-08 02:00;CYWG 080200Z 33017KT 15SM FEW071 12/04 A2947 RMK AC2 SLP983

CYWG;2007-06-08 03:00;CYWG 080300Z 31009KT 15SM FEW080 09/04 A2951 RMK AC2 SLP998

CYWG;2007-06-08 04:00;CYWG 080400Z 31010KT 15SM FEW080 09/02 A2954 RMK AC1 SLP008

CYWG;2007-06-08 05:00;CYWG 080500Z 31010KT 15SM SKC 07/02 A2956 RMK SLP015

CYWG;2007-06-08 06:00;CYWG 080600Z 29009KT 15SM SKC 06/03 A2958 RMK SLP023

CYWG;2007-06-08 07:00;CYWG 080700Z 29008KT 15SM SKC 05/04 A2959 RMK SLP028

CYWG;2007-06-08 08:00;CYWG 080800Z 29010KT 15SM SKC 06/04 A2961 RMK SLP033

CYWG;2007-06-08 09:00;CYWG 080900Z 27009KT 15SM SKC 05/02 A2963 RMK SLP041

CYWG;2007-06-08 10:00;CYWG 081000Z 27008KT 15SM SKC 05/02 A2964 RMK SLP045

CYWG;2007-06-08 11:00;CYWG 081100Z 26009KT 15SM FEW270 05/02 A2966 RMK CI0 SLP051

CYWG;2007-06-08 12:00;CYWG 081200Z 26010KT 15SM FEW270 07/03 A2968 RMK CI1 SLP056

CYWG;2007-06-08 13:00;CYWG 081300Z 27008KT 15SM FEW270 10/04 A2969 RMK CI1 SLP061

CYWG;2007-06-08 14:00;CYWG 081400Z 26008KT 15SM FEW270 13/06 A2970 RMK CI0 SLP063

CYWG;2007-06-08 15:00;CYWG 081500Z 25010KT 15SM FEW270 15/06 A2970 RMK CI0 SLP062

CYWG;2007-06-08 16:00;CYWG 081600Z 25014KT 15SM FEW270 17/07 A2969 RMK CI0 SLP058

CYWG;2007-06-08 17:00;CYWG 081700Z 25014G19KT 15SM FEW270 18/06 A2969 RMK CI1 SLP058

CYWG;2007-06-08 18:00;CYWG 081800Z 23014G21KT 15SM FEW094 FEW270 19/04 A2968 RMK AC1CI0 SLP055

CYWG;2007-06-08 19:00;CYWG 081900Z 24016G24KT 15SM FEW095 FEW270 21/05 A2967 RMK AC1CI0 SLP050

CYWG;2007-06-08 20:00;CYWG 082000Z 23020G26KT 15SM FEW064 21/05 A2965 RMK CU2 SLP046

CYWG;2007-06-08 21:00;CYWG 082100Z 23019G28KT 15SM SCT060 22/07 A2964 RMK CU3 SLP040

CYWG;2007-06-08 22:00;CYWG 082200Z 27017G24KT 15SM FEW068 22/05 A2964 RMK CU2 SLP039

CYWG;2007-06-08 23:00;CYWG 082300Z 27015KT 15SM FEW064 22/06 A2963 RMK CU2 SLP037

CYWG;2007-06-09 00:00;CYWG 090000Z 25010KT 15SM FEW060 FEW250 23/08 A2963 RMK CU2CI0 SLP035

CYWG;2007-06-09 01:00;CYWG 090100Z 25009G15KT 15SM FEW060 FEW250 22/09 A2962 RMK SC2CI0 SLP034

CYWG;2007-06-09 02:00;CYWG 090200Z 23009KT 15SM FEW060 FEW090 SCT250 19/11 A2963 RMK SC1AC2CI0 SLP035

CYWG;2007-06-09 03:00;CYWG 090300Z 22009KT 15SM BKN090 18/11 A2963 RMK AC5 SLP036

CYWG;2007-06-09 04:00;CYWG 090400Z 23008KT 15SM BKN094 18/11 A2964 RMK AC5 SLP039

CYWG;2007-06-09 05:00;CYWG 090500Z 23008KT 15SM BKN094 17/11 A2964 RMK AC6 SLP038

CYWG;2007-06-09 06:00;CYWG 090600Z 25008KT 15SM BKN087 16/10 A2964 RMK AC6 SLP039

CYWG;2007-06-09 07:00;CYWG 090700Z 25009KT 15SM FEW085 15/09 A2964 RMK AC2 SLP039

CYWG;2007-06-09 08:00;CYWG 090800Z 24008KT 15SM SCT090 15/09 A2965 RMK AC3 SLP042

CYWG;2007-06-09 09:00;CYWG 090900Z 24006KT 15SM SCT090 14/09 A2966 RMK AC2 SLP046

CYWG;2007-06-09 10:00;CYWG 091000Z 25009KT 15SM FEW100 14/09 A2967 RMK AC2 SLP049

CYWG;2007-06-09 11:00;CYWG 091100Z 26008KT 15SM FEW100 SCT210 13/09 A2969 RMK AC1CI0 SLP054

CYWG;2007-06-09 12:00;CYWG 091200Z 26009KT 15SM BKN070 BKN100 15/09 A2970 RMK AC2AC1 SLP060

CYWG;2007-06-09 13:00;CYWG 091300Z 28007KT 15SM BKN090 BKN110 15/11 A2972 RMK AC2AC2 SLP065

CYWG;2007-06-09 14:00;CYWG 091400Z 28012KT 15SM BKN100 BKN210 18/11 A2974 RMK AC2CI0 SLP071

CYWG;2007-06-09 15:00;CYWG 091500Z 30009KT 15SM BKN100 19/12 A2975 RMK AC2 SLP076

CYWG;2007-06-09 16:00;CYWG 091600Z 29010KT 15SM FEW100 SCT210 21/12 A2977 RMK AC1CI0 SLP082

CYWG;2007-06-09 17:00;CYWG 091700Z 31009KT 15SM FEW048 FEW090 FEW210 21/10 A2978 RMK CF1AC1CI0 SLP085

CYWG;2007-06-09 18:00;CYWG 091800Z 32007KT 15SM FEW090 BKN210 22/11 A2979 RMK AC1CI0 SLP088

CYWG;2007-06-09 19:00;CYWG 091900Z 03010KT 15SM FEW052 FEW083 SCT210 22/12 A2980 RMK CU1AC1CI1 SLP093

CYWG;2007-06-09 20:00;CYWG 092000Z 02008KT 15SM FEW057 FEW092 BKN210 21/11 A2981 RMK CU1AC1CI2 SLP096

CYWG;2007-06-09 21:00;CYWG 092100Z 32010G16KT 15SM FEW057 FEW092 FEW210 23/08 A2981 RMK CU1AC1CI1 OBS TKN +08 SLP097

CYWG;2007-06-09 22:00;CYWG 092200Z 30006KT 15SM FEW057 FEW095 23/07 A2981 RMK CU1AC1 SLP095

CYWG;2007-06-09 23:00;CYWG 092300Z 02004KT 15SM FEW070 FEW160 SCT210 23/10 A2981 RMK AC1AC1CI1 TCU TOPS DSTNT SE SLP095

CYWG;2007-06-10 00:00;CYWG 100000Z 01002KT 15SM SCT160 SCT210 21/12 A2980 RMK AC2CI1 SLP094

CYWG;2007-06-10 01:00;CYWG 100100Z 07002KT 15SM BKN120 BKN180 BKN210 20/13 A2980 RMK AC5AC1CI1 TCU TOPS DSTNT SW SLP093

CYWG;2007-06-10 01:28;CYWG 100128Z 34003KT 15SM -RA BKN070 BKN120 19/ RMK AC5AC2

CYWG;2007-06-10 02:00;CYWG 100200Z 14005KT 15SM -RA SCT030TCU BKN090 BKN120 18/12 A2980 RMK TCU3AC3AC1 VIRGA SLP095

CYWG;2007-06-10 03:00;CYWG 100300Z 18007KT 15SM -SHRA BKN023 17/13 A2982 RMK SC7 TCU EMBDD SLP101

CYWG;2007-06-10 03:33;CYWG 100333Z 00000KT 15SM BKN034 BKN099 BKN250 16/ RMK SC5AC1CI0 TCU ASOCTD

CYWG;2007-06-10 04:00;CYWG 100400Z 17003KT 15SM SCT044 BKN099 BKN250 18/12 A2982 RMK SC3AC2CI0 SLP101

CYWG;2007-06-10 05:00;CYWG 100500Z 18008KT 15SM BKN093 BKN250 16/12 A2983 RMK AC5CI1 SLP102

CYWG;2007-06-10 06:00;CYWG 100600Z 18010KT 15SM FEW090 BKN250 15/12 A2982 RMK AC2CI2 SLP099

CYWG;2007-06-10 07:00;CYWG 100700Z 16009KT 15SM FEW250 15/10 A2982 RMK CI2 SLP098

CYWG;2007-06-10 08:00;CYWG 100800Z 15010KT 15SM FEW250 14/10 A2981 RMK CI1 SLP096

CYWG;2007-06-10 09:00;CYWG 100900Z 16008KT 15SM FEW250 13/09 A2982 RMK CI1 SLP099

CYWG;2007-06-10 10:00;CYWG 101000Z 15008KT 15SM FEW250 13/10 A2982 RMK CI1 SLP099

CYWG;2007-06-10 11:00;CYWG 101100Z 16006KT 15SM FEW110 FEW250 12/10 A2983 RMK AC2CI0 SLP103

CYWG;2007-06-10 12:00;CYWG 101200Z 16005KT 15SM FEW110 FEW250 14/11 A2984 RMK AC2CI0 SLP106

CYWG;2007-06-10 13:00;CYWG 101300Z 15005KT 15SM SCT100 SCT250 16/12 A2983 RMK AC3CI0 ACC ASOCTD W SLP104

CYWG;2007-06-10 14:00;CYWG 101400Z 19007KT 15SM FEW060 SCT100 SCT250 17/13 A2983 RMK SC1AC2CI0 SLP102

CYWG;2007-06-10 15:00;CYWG 101500Z 17007KT 15SM FEW020 BKN085 BKN250 19/15 A2983 RMK CU2AC2CI1 SLP103

CYWG;2007-06-10 16:00;CYWG 101600Z 20003KT 15SM FEW020 BKN095 BKN250 20/14 A2981 RMK CU2AC3CI2 SLP098

CYWG;2007-06-10 17:00;CYWG 101700Z 14006KT 15SM FEW020 SCT095 BKN250 22/15 A2980 RMK CU2AC2CI3 SLP095

CYWG;2007-06-10 18:00;CYWG 101800Z 05004KT 15SM FEW030 FEW095 BKN240 23/15 A2980 RMK CU1AC2CS4 SLP093

CYWG;2007-06-10 19:00;CYWG 101900Z 16006KT 15SM FEW039 BKN081 OVC240 24/16 A2978 RMK CU2AC5CS0 SLP087

CYWG;2007-06-10 20:00;CYWG 102000Z 16010KT 15SM FEW040 FEW080 BKN240 25/16 A2977 RMK CU1AC2CI2 SLP083

CYWG;2007-06-10 21:00;CYWG 102100Z 16009KT 15SM FEW046 SCT080 BKN240 26/17 A2975 RMK CU2AC2CI1 SLP076

CYWG;2007-06-10 22:00;CYWG 102200Z 15006KT 15SM -RA SCT044 BKN100 BKN240 25/17 A2977 RMK CU3AC2CI1 SLP082

CYWG;2007-06-10 22:26;CYWG 102226Z 28003KT 15SM -TSRA SCT014CB BKN092 RMK CB3AC3

CYWG;2007-06-10 22:45;CYWG 102245Z 34015G22KT 1/2SM R31/4500VP6000FT/D +TSRA OVC002 RMK ST8 CB EMBDD

CYWG;2007-06-10 22:52;CYWG 102252Z 01014G21KT 3SM R31/4500VP6000FT/U -TSRA BKN002 OVC092 RMK SF5AC3 CB EMBDD

CYWG;2007-06-10 23:00;CYWG 102300Z 03013G21KT 6SM -TSRA FEW002 BKN088CB OVC240 18/15 A2979 RMK SF1CB4CI3 SLP087

CYWG;2007-06-10 23:24;CYWG 102324Z 07008KT 15SM FEW002 OVC088 18/ RMK SF2AC6 RETS

CYWG;2007-06-11 00:00;CYWG 110000Z 10007KT 15SM FEW030 BKN071 BKN100 19/16 A2978 RETS RMK SF2AC3AC2 SLP087

CYWG;2007-06-11 01:00;CYWG 110100Z 12008KT 15SM BKN084 BKN240 20/16 A2978 RMK AC6CI0 SLP087

CYWG;2007-06-11 02:00;CYWG 110200Z 12006KT 15SM BKN084 OVC240 18/15 A2977 RMK AC6CI1 SLP085

CYWG;2007-06-11 03:00;CYWG 110300Z 07004KT 15SM BKN088 BKN140 BKN240 17/15 A2978 RMK AC5AC1CI0 SLP087

CYWG;2007-06-11 04:00;CYWG 110400Z 09007KT 15SM FEW088 BKN240 17/15 A2978 RMK AC2CI1 SLP085

CYWG;2007-06-11 05:00;CYWG 110500Z 10008KT 15SM FEW090 SCT240 17/14 A2977 RMK AC2CI1 LTG DSTNT NW+NE SLP082

CYWG;2007-06-11 06:00;CYWG 110600Z 10009KT 15SM FEW090 BKN240 17/14 A2977 RMK AC2CI1 LTG DSTNT NW-NE SLP082

CYWG;2007-06-11 07:00;CYWG 110700Z 10008KT 15SM OVC120 17/15 A2978 RMK AC8 SLP086

CYWG;2007-06-11 08:00;CYWG 110800Z 11007KT 15SM FEW120 BKN250 17/15 A2979 RMK AC2CI2 SLP087

CYWG;2007-06-11 09:00;CYWG 110900Z 13008KT 15SM FEW120 BKN250 17/14 A2980 RMK AC2CI1 SLP092

CYWG;2007-06-11 10:00;CYWG 111000Z 13008KT 15SM BKN120 BKN250 17/14 A2982 RMK AC5CI0 SLP097

CYWG;2007-06-11 11:00;CYWG 111100Z 09004KT 15SM BKN120 BKN270 17/14 A2982 RMK AC6CI1 SLP097

CYWG;2007-06-11 12:00;CYWG 111200Z 13009KT 15SM SCT120 BKN270 17/14 A2981 RMK AC3CI2 SLP095

CYWG;2007-06-11 13:00;CYWG 111300Z 15007KT 15SM FEW120 SCT270 19/15 A2981 RMK AC2CI1 SLP095

CYWG;2007-06-11 14:00;CYWG 111400Z 15010KT 15SM FEW120 BKN270 20/16 A2981 RMK AC1CI3 SLP097

CYWG;2007-06-11 15:00;CYWG 111500Z 17014G19KT 15SM BKN270 23/17 A2982 RMK CI2 SLP098

CYWG;2007-06-11 16:00;CYWG 111600Z 18014G21KT 15SM BKN270 24/17 A2982 RMK CI5 SLP098

CYWG;2007-06-11 17:00;CYWG 111700Z 16013KT 15SM FEW099 BKN270 25/19 A2981 RMK AC2CI2 SLP096

CYWG;2007-06-11 18:00;CYWG 111800Z 15015KT 15SM FEW099 BKN270 27/20 A2981 RMK AC1CI2 SLP094

CYWG;2007-06-11 19:00;CYWG 111900Z 16010G15KT 15SM FEW030 BKN270 28/21 A2981 RMK CF1CI5 SLP094

CYWG;2007-06-11 20:00;CYWG 112000Z 16015KT 15SM FEW030 FEW100 BKN270 28/20 A2982 RMK CF1AC1CS4 SLP097

CYWG;2007-06-11 21:00;CYWG 112100Z 15016G21KT 15SM FEW035 BKN270 29/20 A2982 RMK CF1CS4 SLP098

CYWG;2007-06-11 22:00;CYWG 112200Z 15012G17KT 15SM FEW040 BKN270 29/21 A2982 RMK CU1CS4 SLP097

CYWG;2007-06-11 23:00;CYWG 112300Z 16012G18KT 15SM FEW042 BKN270 28/20 A2981 RMK CU1CS4 SLP094

CYWG;2007-06-12 00:00;CYWG 120000Z 18015KT 15SM FEW040 BKN270 28/19 A2982 RMK CU1CI2 SLP098

CYWG;2007-06-12 01:00;CYWG 120100Z 16010KT 15SM FEW040 BKN270 28/20 A2981 RMK CU1CI2 SLP093

CYWG;2007-06-12 02:00;CYWG 120200Z 14008KT 15SM FEW044 SCT270 27/20 A2980 RMK SC2CI1 SLP090

CYWG;2007-06-12 03:00;CYWG 120300Z 13008KT 15SM FEW100 26/20 A2981 RMK AC2 SLP094

CYWG;2007-06-12 04:00;CYWG 120400Z 14011KT 15SM FEW270 26/20 A2981 RMK CI2 SLP095

CYWG;2007-06-12 05:00;CYWG 120500Z 15011KT 15SM FEW270 25/20 A2981 RMK CI2 SLP094

CYWG;2007-06-12 06:00;CYWG 120600Z 15009KT 15SM FEW270 24/21 A2980 RMK CI2 SLP090

CYWG;2007-06-12 07:00;CYWG 120700Z 16012KT 15SM FEW068 FEW250 25/20 A2978 RMK AC0CI2 SLP084

CYWG;2007-06-12 08:00;CYWG 120800Z 18012KT 15SM BKN074 25/20 A2980 RMK AC3 SLP089

CYWG;2007-06-12 09:00;CYWG 120900Z 18014KT 15SM BKN078 24/19 A2979 RMK AC4 CB SW-W LTGICCG SW-W SLP086

CYWG;2007-06-12 09:51;CYWG 120951Z 19013KT 15SM TS BKN082TCU BKN120 BKN250 24/ RMK TCU5AC1CI0 CB SW-NW LTGICCG W

CYWG;2007-06-12 10:00;CYWG 121000Z 19015KT 15SM TS BKN088TCU BKN250 23/18 A2980 RMK TCU6CI0 CB SW-NW LTGICCG W-NW SLP087

CYWG;2007-06-12 10:52;CYWG 121052Z 22006KT 15SM BKN035 BKN093 BKN260 23/ RETS RMK SC5ACC2CI0 TCU ASOCTD

CYWG;2007-06-12 11:00;CYWG 121100Z 23007KT 15SM BKN033 BKN093 BKN260 23/19 A2988 RETS RMK SC6ACC1CI0 TCU ASOCTD PRESRR SLP114

CYWG;2007-06-12 12:00;CYWG 121200Z 16009KT 15SM FEW030 SCT090 BKN120 BKN260 22/19 A2988 RMK SC2ACC1AC2CI0 SLP117

CYWG;2007-06-12 13:00;CYWG 121300Z 16004KT 15SM FEW030 FEW090 BKN120 BKN260 23/20 A2988 RMK SC1AC2AS2CI1 ACC ASOCTD SLP118

CYWG;2007-06-12 14:00;CYWG 121400Z 17010KT 15SM FEW030 FEW092 SCT120 BKN260 24/20 A2989 RMK SC2AC1AS2CI1 TCU ASOCTD SLP119

CYWG;2007-06-12 15:00;CYWG 121500Z 20016KT 15SM FEW020 FEW098 BKN280 25/20 A2991 RMK CU2AC1CI1 TCU ASOCTD SLP126

CYWG;2007-06-12 16:00;CYWG 121600Z 20013KT 15SM FEW020 FEW100 BKN280 27/21 A2990 RMK CF1AC1CI1 SLP123

CYWG;2007-06-12 17:00;CYWG 121700Z 19015G20KT 15SM FEW028 FEW100 SCT280 28/21 A2989 RMK CU1AC1CI1 CU AC TR SLP119

CYWG;2007-06-12 18:00;CYWG 121800Z 18017KT 15SM FEW027 FEW092 BKN280 29/22 A2990 RMK CU2AC1CI1 AC TR SLP121

CYWG;2007-06-12 19:00;CYWG 121900Z 19016KT 15SM FEW028 BKN280 30/22 A2989 RMK CU2CI1 SLP120

CYWG;2007-06-12 20:00;CYWG 122000Z 18016G22KT 15SM FEW033 BKN280 30/22 A2989 RMK CU1CI2 SLP119

CYWG;2007-06-12 21:00;CYWG 122100Z 19013G22KT 15SM FEW034 BKN096 OVC280 30/22 A2988 RMK CU1AS5CI1 SLP115

CYWG;2007-06-12 22:00;CYWG 122200Z 18016G22KT 15SM FEW043 BKN096 OVC280 30/21 A2987 RMK CU2AS2CI2 SLP113

CYWG;2007-06-12 23:00;CYWG 122300Z 19018G25KT 15SM FEW040 BKN100 OVC280 29/20 A2987 RMK CU1AS4CI2 SLP113

CYWG;2007-06-13 00:00;CYWG 130000Z 18014G19KT 15SM FEW030TCU BKN100 OVC280 28/20 A2988 RMK TCU1AS6CI1 SLP116

CYWG;2007-06-13 01:00;CYWG 130100Z 18017KT 15SM FEW070 OVC098 28/19 A2989 RMK ACC1AS7 ACC W SLP119

CYWG;2007-06-13 02:00;CYWG 130200Z 29012G19KT 15SM FEW042 OVC084 23/18 A2992 RMK CU2AS6 WSHFT 0143 SLP129

CYWG;2007-06-13 03:00;CYWG 130300Z 33003KT 15SM FEW053 OVC078 20/17 A2993 RMK CU2AS6 ACC ASOCTD SLP134

CYWG;2007-06-13 04:00;CYWG 130400Z 27005KT 15SM BKN058 OVC080 19/17 A2995 RMK CU5AC3 TCU ASOCTD SLP140

CYWG;2007-06-13 04:45;CYWG 130445Z 28006KT 15SM -SHRA FEW014 OVC080 19/ RMK ST2AC6

CYWG;2007-06-13 05:00;CYWG 130500Z 25004KT 15SM -SHRA BKN014 OVC080 19/17 A2996 RMK SC5AC3 SLP144

CYWG;2007-06-13 06:00;CYWG 130600Z 11003KT 15SM -SHRA BKN017 OVC080 19/18 A2993 RMK SC5AC3 SLP134

CYWG;2007-06-13 06:37;CYWG 130637Z 13004KT 15SM FEW032 BKN056 OVC095 20/ RMK SC2SC3AC2

CYWG;2007-06-13 07:00;CYWG 130700Z 26004KT 15SM -SHRA OVC066 19/18 A2993 RMK AC8 SLP133

CYWG;2007-06-13 08:00;CYWG 130800Z 18009KT 10SM -SHRA OVC016 19/18 A2993 RMK ST8 SLP135

CYWG;2007-06-13 08:45;CYWG 130845Z 24006KT 6SM -RA OVC009 RMK ST8

CYWG;2007-06-13 09:00;CYWG 130900Z CCA 22009KT 5SM -RA BKN009 OVC017 19/18 A2995 RMK ST6ST2 SLP142

CYWG;2007-06-13 10:00;CYWG 131000Z 23002KT 6SM -RA BKN004 OVC020 19/18 A2993 RMK SF5ST3 SLP135

CYWG;2007-06-13 10:33;CYWG 131033Z 23005KT 8SM -RA SCT004 BKN041 OVC074 19/ RMK SF3SC2AC2

CYWG;2007-06-13 11:00;CYWG 131100Z 24003KT 10SM -RA SCT004 BKN014 OVC058 19/18 A2996 RMK SF3SC2SC3 SLP144

CYWG;2007-06-13 11:11;CYWG 131111Z 29005KT 10SM -RA BKN003 OVC023 18/ RMK SF6SC2

CYWG;2007-06-13 11:49;CYWG 131149Z 30004KT 4SM -RA BR BKN004 OVC020 18/ RMK SF6SC2

CYWG;2007-06-13 12:00;CYWG 131200Z 28004KT 5SM -RA BR BKN006 OVC020 18/17 A2999 RMK SF6SC2 SLP154

CYWG;2007-06-13 13:00;CYWG 131300Z 00000KT 6SM -RA BR BKN008 OVC067 18/17 A2997 RMK SF6AC2 SLP148

CYWG;2007-06-13 13:29;CYWG 131329Z 24003KT 10SM -RA FEW008 BKN022 OVC067 18/ RMK SF2SC4AC2

CYWG;2007-06-13 13:48;CYWG 131348Z 26002KT 12SM FEW003 SCT025 OVC078 18/ RMK SF2SC2AC4

CYWG;2007-06-13 14:00;CYWG 131400Z 27002KT 12SM -RA FEW004 SCT025 OVC078 18/17 A2998 RMK SF2SC2AC5 SLP153

CYWG;2007-06-13 14:52;CYWG 131452Z 27005KT 15SM FEW006 BKN067 OVC085 19/ RMK SF2AC4AC2

CYWG;2007-06-13 15:00;CYWG 131500Z 27004KT 15SM SCT006 BKN067 OVC085 19/18 A2999 RMK SF3AC2AC2 SLP158

CYWG;2007-06-13 16:00;CYWG 131600Z 27005KT 15SM SCT008 OVC070 20/17 A2999 RMK CU4AC4 SLP156

CYWG;2007-06-13 17:00;CYWG 131700Z 24004KT 15SM SCT015 OVC090 21/16 A2999 RMK CU4AC3 SLP158

CYWG;2007-06-13 18:00;CYWG 131800Z 24004KT 15SM SCT025 OVC096 22/15 A2999 RMK CU4AC2 SLP158

CYWG;2007-06-13 19:00;CYWG 131900Z 20002KT 15SM SCT027 OVC095 23/16 A2999 RMK CU3AC3 SLP158

CYWG;2007-06-13 20:00;CYWG 132000Z 22003KT 15SM FEW030 SCT100 OVC290 23/16 A2998 RMK CU2AC2CI0 SLP154

CYWG;2007-06-13 21:00;CYWG 132100Z 23007KT 15SM FEW030 SCT100 OVC290 24/17 A2998 RMK CU2AC2CI1 SLP152

CYWG;2007-06-13 22:00;CYWG 132200Z 20005KT 15SM FEW030 OVC290 24/17 A2997 RMK CU2CI2 SLP150

CYWG;2007-06-13 23:00;CYWG 132300Z 18007KT 15SM FEW030TCU SCT100 OVC290 23/18 A2996 RMK TCU1AC2CI1 SLP148

CYWG;2007-06-14 00:00;CYWG 140000Z 18006KT 15SM FEW035TCU SCT100 OVC290 23/18 A2996 RMK TCU2AC2CI0 SLP148

CYWG;2007-06-14 01:00;CYWG 140100Z 19007KT 15SM FEW048TCU BKN065 OVC100 22/17 A2997 RMK TCU1SC6AC1 SLP149

CYWG;2007-06-14 02:00;CYWG 140200Z 22008KT 15SM FEW044 SCT087 OVC250 22/18 A2997 RMK CU2AC2CI1 SLP151

CYWG;2007-06-14 03:00;CYWG 140300Z 21007KT 15SM FEW045 SCT080 OVC250 21/17 A2998 RMK CU2AC2CI2 SLP152

CYWG;2007-06-14 04:00;CYWG 140400Z 20006KT 15SM FEW045 BKN067 BKN250 20/18 A2998 RMK CU1AC4CI1 SLP153

CYWG;2007-06-14 05:00;CYWG 140500Z 23006KT 15SM SCT070 BKN250 19/17 A2998 RMK AC3CI1 SLP154

CYWG;2007-06-14 06:00;CYWG 140600Z 24004KT 15SM BKN250 18/16 A2997 RMK CI3 SLP150

CYWG;2007-06-14 07:00;CYWG 140700Z 26003KT 15SM BKN250 16/15 A2997 RMK CI3 SLP150

CYWG;2007-06-14 08:00;CYWG 140800Z 28003KT 15SM MIFG BKN250 14/14 A2997 RMK CI3 SLP150

CYWG;2007-06-14 09:00;CYWG 140900Z 29005KT 15SM MIFG BKN250 13/13 A2996 RMK CI3 SLP149

CYWG;2007-06-14 10:00;CYWG 141000Z 00000KT 15SM BKN250 13/12 A2996 RMK CI3 SLP149

CYWG;2007-06-14 11:00;CYWG 141100Z 08002KT 15SM BKN250 12/11 A2996 RMK CI6 SLP149

CYWG;2007-06-14 12:00;CYWG 141200Z 10003KT 15SM BKN092 BKN250 14/13 A2996 RMK AC6CI2 SLP146

CYWG;2007-06-14 13:00;CYWG 141300Z 00000KT 10SM BKN084 BKN250 18/16 A2996 RMK AC5CI2 HZ SLP147

CYWG;2007-06-14 14:00;CYWG 141400Z 11003KT 15SM SCT090 BKN250 20/15 A2996 RMK AC4CI2 SLP147

CYWG;2007-06-14 15:00;CYWG 141500Z CCA 15005KT 15SM SCT090 BKN250 22/14 A2995 RMK AC3CI3 OBS TAKEN +7 SLP142

CYWG;2007-06-14 16:00;CYWG 141600Z 18006KT 15SM FEW030 SCT210 BKN280 23/16 A2994 RMK CU1CS1CI3 SLP138

CYWG;2007-06-14 17:00;CYWG 141700Z 18005KT 15SM SCT027 BKN210 BKN280 24/17 A2993 RMK CU3CS1CI2 SLP136

CYWG;2007-06-14 18:00;CYWG 141800Z 19006KT 15SM SCT027 BKN210 24/17 A2992 RMK CU3CS1 OBS TAKEN +8 SLP132

CYWG;2007-06-14 19:00;CYWG 141900Z 16005KT 15SM BKN035 OVC210 25/16 A2991 RMK CU5CI2 SLP130

CYWG;2007-06-14 20:00;CYWG 142000Z 14006KT 15SM BKN033 OVC210 25/17 A2990 RMK CU5CI2 SLP124

CYWG;2007-06-14 21:00;CYWG 142100Z 18009KT 15SM SCT039 BKN210 26/17 A2988 RMK CU4CI2 SLP118

CYWG;2007-06-14 22:00;CYWG 142200Z 12006KT 15SM SCT038 BKN210 26/16 A2987 RMK CU4CI2 SLP114

CYWG;2007-06-14 23:00;CYWG 142300Z 15006KT 15SM FEW051 SCT062TCU BKN210 26/17 A2985 RMK CU2TCU2CI2 SLP109

CYWG;2007-06-14 23:36;CYWG 142336Z CCA 16004KT 15SM -SHRA FEW043 BKN067TCU BKN210 25/ RMK CU2TCU3CI1

CYWG;2007-06-15 00:00;CYWG 150000Z 16005KT 15SM -SHRA FEW040 BKN062TCU BKN210 23/18 A2984 RMK CU2TCU4CI1 SLP106

CYWG;2007-06-15 00:07;CYWG 150007Z 18005KT 15SM FEW040 BKN062TCU BKN210 24/ RMK CU2TCU3CI1

CYWG;2007-06-15 00:25;CYWG 150025Z 16006KT 15SM -SHRA FEW033 BKN062TCU BKN210 24/ RMK CU1TCU5CI1

CYWG;2007-06-15 00:52;CYWG 150052Z 17007KT 15SM FEW028 BKN060TCU BKN210 23/ RMK CF2TCU3CI1

CYWG;2007-06-15 01:00;CYWG 150100Z 17008KT 15SM FEW026 BKN060TCU BKN210 23/19 A2983 RMK CF2TCU3CI1 SLP104

CYWG;2007-06-15 02:00;CYWG 150200Z 18007KT 15SM FEW026 FEW060TCU SCT075 BKN210 22/19 A2982 RMK CF2TCU1AC2CI1 SLP099

CYWG;2007-06-15 03:00;CYWG 150300Z 15007KT 15SM FEW028 SCT070 BKN090 BKN210 21/18 A2981 RMK CF2AC2AC2CI1 SLP096

CYWG;2007-06-15 04:00;CYWG 150400Z 16008KT 15SM SCT025 BKN067 BKN090 21/17 A2980 RMK SC3AC2AC2 SLP093

CYWG;2007-06-15 05:00;CYWG 150500Z 15008KT 15SM FEW017 BKN027 21/18 A2978 RMK SC2SC5 SLP084

CYWG;2007-06-15 06:00;CYWG 150600Z 17010KT 15SM BKN011 OVC038 20/18 A2976 RMK SC5SC3 SLP077

CYWG;2007-06-15 06:40;CYWG 150640Z 17008KT 15SM BKN009 OVC051 20/ RMK SC5SC3

CYWG;2007-06-15 07:00;CYWG 150700Z 17008KT 15SM -SHRA BKN007 OVC051 20/18 A2974 RMK SC5SC3 SLP071

CYWG;2007-06-15 07:34;CYWG 150734Z 19010KT 15SM BKN006 OVC016 20/ RMK SC5SC3

CYWG;2007-06-15 08:00;CYWG 150800Z 20013KT 15SM BKN006 OVC016 21/19 A2974 RMK SC5SC3 SLP072

CYWG;2007-06-15 08:33;CYWG 150833Z 21011G17KT 15SM -SHRA BKN007 OVC020 RMK SC5SC3 CVCTV CLD EMBD

CYWG;2007-06-15 09:00;CYWG 150900Z 23011KT 15SM -SHRA FEW005 BKN008 BKN038 20/19 A2972 RMK SF2SC2SC2 CVCTV CLD EMBD SLP064

CYWG;2007-06-15 09:30;CYWG 150930Z 22011KT 15SM BKN007 BKN038 RMK SC5SC2

CYWG;2007-06-15 10:00;CYWG 151000Z 23006KT 15SM SCT007 BKN038 BKN069 19/17 A2972 RMK SF3SC2AC1 SLP063

CYWG;2007-06-15 11:00;CYWG 151100Z 27011G17KT 15SM FEW007 FEW040 SCT080 BKN270 17/15 A2974 RMK SF1SC2AC1CI1 CVCTV CLD EMBDD SLP070

CYWG;2007-06-15 12:00;CYWG 151200Z 26012KT 15SM FEW040 FEW088 FEW270 17/14 A2977 RMK SC1AC1CI0 SLP081

CYWG;2007-06-15 13:00;CYWG 151300Z 26008KT 15SM FEW012 FEW080 FEW270 18/14 A2978 RMK CF1AC1CI0 SLP085

CYWG;2007-06-15 14:00;CYWG 151400Z 26012G18KT 15SM FEW020 FEW080 19/14 A2978 RMK CF1AC1 SLP085

CYWG;2007-06-15 15:00;CYWG 151500Z 27016G22KT 15SM FEW030 FEW080 20/14 A2980 RMK CU1ACC1 SLP090

CYWG;2007-06-15 16:00;CYWG 151600Z 27019G24KT 15SM FEW026 21/14 A2981 RMK CU2 SLP096

CYWG;2007-06-15 17:00;CYWG 151700Z 29014G25KT 15SM FEW022 21/15 A2983 RMK CU2 SLP101

CYWG;2007-06-15 18:00;CYWG 151800Z 28015G22KT 15SM FEW029 22/14 A2984 RMK CU2 SLP104

CYWG;2007-06-15 19:00;CYWG 151900Z 29018KT 15SM BKN036 BKN051 23/14 A2985 RMK CU6SC1 SLP107

CYWG;2007-06-15 20:00;CYWG 152000Z 29015G21KT 15SM BKN039 23/14 A2985 RMK CU6 SLP107

CYWG;2007-06-15 21:00;CYWG 152100Z 33017G22KT 15SM SCT036 SCT240 22/14 A2987 RMK CU3CI1 SLP117

CYWG;2007-06-15 22:00;CYWG 152200Z CCA 32016G21KT 15SM SCT034 BKN240 22/13 A2989 RMK CU3CI2 SLP121

CYWG;2007-06-15 23:00;CYWG 152300Z 31015G21KT 15SM FEW037 BKN240 21/13 A2990 RMK CU2CI1 SLP126

CYWG;2007-06-16 00:00;CYWG 160000Z 30013KT 15SM FEW040 SCT240 21/13 A2991 RMK CU2CI2 SLP130

CYWG;2007-06-16 01:00;CYWG 160100Z 30009KT 15SM FEW095 SCT240 20/13 A2992 RMK AC2CI1 SLP134

CYWG;2007-06-16 02:00;CYWG 160200Z 03007KT 15SM FEW095 SCT240 18/13 A2993 RMK AC1CI2 SLP138

CYWG;2007-06-16 03:00;CYWG 160300Z 09004KT 15SM FEW095 FEW240 16/13 A2996 RMK AC1CI1 SLP146

CYWG;2007-06-16 04:00;CYWG 160400Z 07005KT 15SM FEW085 SCT240 14/12 A2996 RMK AC2CI1 SLP149

CYWG;2007-06-16 05:00;CYWG 160500Z 01004KT 15SM SCT069 BKN091 15/12 A2998 RMK AC3AC2 SLP155

CYWG;2007-06-16 06:00;CYWG 160600Z 00000KT 15SM BKN074 15/12 A2997 RMK AC5 SLP152

CYWG;2007-06-16 07:00;CYWG 160700Z 30003KT 15SM BKN078 13/12 A2998 RMK AC6 SLP153

CYWG;2007-06-16 08:00;CYWG 160800Z 29003KT 15SM FEW078 12/11 A2998 RMK AC2 SLP155

CYWG;2007-06-16 09:00;CYWG 160900Z 32003KT 15SM FEW075 11/11 A2999 RMK AC1 SLP159

CYWG;2007-06-16 10:00;CYWG 161000Z 29003KT 15SM MIFG FEW030 FEW080 11/10 A3000 RMK SC1AC2 SC TR SLP163

CYWG;2007-06-16 11:00;CYWG 161100Z 00000KT 15SM FEW045 SCT080 BKN280 11/10 A3002 RMK SC2AC2CI0 SLP168

CYWG;2007-06-16 12:00;CYWG 161200Z 00000KT 15SM FEW044 FEW100 SCT280 14/13 A3003 RMK SC2AC1CI0 SLP171

CYWG;2007-06-16 13:00;CYWG 161300Z 25002KT 15SM FEW044 FEW100 SCT280 16/14 A3004 RMK SC2AC1CI0 SLP175

CYWG;2007-06-16 14:00;CYWG 161400Z 18002KT 15SM FEW020 FEW110 18/13 A3005 RMK CU1AC1 CU AC TR SLP177

CYWG;2007-06-16 15:00;CYWG 161500Z 18006KT 15SM FEW025 FEW110 20/13 A3004 RMK CU1AC1 AC TR SLP175

CYWG;2007-06-16 16:00;CYWG 161600Z 20003KT 15SM SCT030 SCT280 21/12 A3004 RMK CU3CI1 SLP175

CYWG;2007-06-16 17:00;CYWG 161700Z 29003KT 15SM SCT034 21/13 A3004 RMK CU4 SLP174

CYWG;2007-06-16 18:00;CYWG 161800Z 30006KT 15SM SCT038 21/13 A3004 RMK CU3 SLP175

CYWG;2007-06-16 19:00;CYWG 161900Z 24007KT 15SM SCT040TCU 23/13 A3004 RMK TCU4 SLP174

CYWG;2007-06-16 20:00;CYWG 162000Z 27006KT 15SM SCT048 23/12 A3003 RMK CU3 TCU ASOCTD SLP170

CYWG;2007-06-16 21:00;CYWG 162100Z 29008KT 15SM SCT051 SCT100 24/13 A3002 RMK CU3AC1 TCU ASOCTD SLP168

CYWG;2007-06-16 22:00;CYWG 162200Z 27003KT 15SM FEW048TCU FEW100 24/13 A3001 RMK TCU2AC1 SLP164

CYWG;2007-06-16 23:00;CYWG 162300Z 31005KT 15SM SCT055TCU SCT070 BKN240 24/12 A2999 RMK TCU3AC1CI0 SLP159

CYWG;2007-06-17 00:00;CYWG 170000Z 26005KT 15SM FEW057TCU SCT070 SCT240 23/12 A2998 RMK TCU2AC1CI0 SLP154

CYWG;2007-06-17 01:00;CYWG 170100Z 01003KT 15SM FEW057TCU FEW100 SCT240 22/13 A2998 RMK TCU1AC2CI0 SLP155

CYWG;2007-06-17 02:00;CYWG 170200Z 03004KT 15SM FEW100 SCT240 20/13 A2996 RMK AC2CI1 SLP148

CYWG;2007-06-17 03:00;CYWG 170300Z 07005KT 15SM FEW100 FEW240 16/11 A2997 RMK AC1CI0 SLP150

CYWG;2007-06-17 04:00;CYWG 170400Z 09004KT 15SM FEW100 FEW240 17/10 A2997 RMK AC1CI0 SLP151

CYWG;2007-06-17 05:00;CYWG 170500Z 10004KT 15SM FEW100 FEW240 15/10 A2997 RMK AC1CI0 SLP150

CYWG;2007-06-17 06:00;CYWG 170600Z 14003KT 15SM SCT100 BKN240 16/10 A2996 RMK AC3CI0 SLP148

CYWG;2007-06-17 07:00;CYWG 170700Z 10003KT 15SM SCT100 BKN240 16/10 A2994 RMK AC4CI0 SLP142

CYWG;2007-06-17 08:00;CYWG 170800Z 06008KT 15SM FEW100 SCT240 15/11 A2989 RMK AC2CI0 SLP123

CYWG;2007-06-17 09:00;CYWG 170900Z 12005KT 15SM SCT060 BKN100 BKN240 16/12 A2990 RMK SC3AC2CI0 SLP125

CYWG;2007-06-17 10:00;CYWG 171000Z 10005KT 15SM FEW070 SCT100 BKN220 16/12 A2988 RMK ACC1AC2CS3 SLP121

CYWG;2007-06-17 11:00;CYWG 171100Z 10005KT 15SM FEW070 BKN100 OVC240 16/12 A2987 RMK ACC2AC3CS2 SLP115

CYWG;2007-06-17 12:00;CYWG 171200Z 08006KT 15SM BKN100 OVC240 16/12 A2984 RMK AC5CS3 ACC EMBDD SLP105

CYWG;2007-06-17 13:00;CYWG 171300Z 09006KT 15SM SCT098 OVC240 18/13 A2982 RMK AC3CS5 SLP100

CYWG;2007-06-17 14:00;CYWG 171400Z 12006KT 15SM SCT100 OVC240 19/13 A2981 RMK AC3CS5 SLP095

CYWG;2007-06-17 15:00;CYWG 171500Z 15006KT 15SM BKN084 OVC240 19/14 A2980 RMK AC6CS2 SLP094

CYWG;2007-06-17 16:00;CYWG 171600Z 13007KT 15SM FEW050 BKN080 OVC240 19/14 A2978 RMK SC2AC6CI1 SLP086

CYWG;2007-06-17 17:00;CYWG 171700Z 10012KT 15SM FEW060 OVC240 20/15 A2971 RMK SC2CS6 PRESFR SLP065

CYWG;2007-06-17 18:00;CYWG 171800Z 10008KT 15SM FEW023 SCT058 BKN097 OVC240 20/15 A2972 RMK CU2SC2AC3CS1 SLP067

CYWG;2007-06-17 18:40;CYWG 171840Z 14009KT 12SM -SHRA SCT025 OVC058 19/ RMK CU3SC5

CYWG;2007-06-17 19:00;CYWG 171900Z 11015KT 5SM -SHRA BR SCT013 OVC058 19/16 A2969 RMK SF2SC6 SLP055

CYWG;2007-06-17 19:31;CYWG 171931Z 09012KT 15SM FEW012 FEW015 BKN045 BKN100 OVC240 20/ RMK SF1CU1SC5AC1CI0

CYWG;2007-06-17 20:00;CYWG 172000Z 10016KT 15SM SCT012 SCT016 SCT045 BKN100 BKN240 21/17 A2967 RMK SF0CU3SC1AC1CI0 SLP048

CYWG;2007-06-17 21:00;CYWG 172100Z 09016KT 15SM OVC022 20/16 A2964 RMK SC8 SLP039

CYWG;2007-06-17 22:00;CYWG 172200Z 12018G25KT 15SM OVC022 20/15 A2963 RMK SC8 SLP035

CYWG;2007-06-17 23:00;CYWG 172300Z 10015G28KT 15SM OVC022 20/15 A2957 RMK SC8 SLP014

CYWG;2007-06-18 00:00;CYWG 180000Z 11016KT 15SM OVC020 20/15 A2958 RMK SC8 SLP018

CYWG;2007-06-18 01:00;CYWG 180100Z 10013G21KT 15SM OVC020 19/15 A2955 RMK SC8 SLP009

CYWG;2007-06-18 02:00;CYWG 180200Z 11016KT 15SM OVC018 19/15 A2951 RMK SC8 SLP995

CYWG;2007-06-18 02:36;CYWG 180236Z 10011G17KT 15SM -SHRA OVC016 19/ RMK SC8

CYWG;2007-06-18 03:00;CYWG 180300Z 10014KT 15SM OVC016 18/15 A2947 RMK SC8 SLP981

CYWG;2007-06-18 04:00;CYWG 180400Z 10017KT 15SM BKN021 OVC050 18/15 A2941 RMK SC5SC3 PRESFR SLP959

CYWG;2007-06-18 04:54;CYWG 180454Z 12010G16KT 15SM -SHRA OVC014 18/ RMK SC8

CYWG;2007-06-18 05:00;CYWG 180500Z 11008KT 15SM -SHRA OVC014 18/15 A2940 RMK SC8 SLP958

CYWG;2007-06-18 05:19;CYWG 180519Z 10009KT 15SM -TSRA OVC012 18/ RMK SC8 CB EMBD LTGIC NW/NE

CYWG;2007-06-18 05:42;CYWG 180542Z 12018G25KT 1SM R13/P6000FT/D +TSRA BR OVC001 17/ RMK SF8 CB EMBD LTGICCG

CYWG;2007-06-18 05:51;CYWG 180551Z 12015G25KT 2 1/2SM TSRA BR BKN001 OVC012CB 17/ RERA RMK SF5CB3 LTGIC ALQDS

CYWG;2007-06-18 06:00;CYWG 180600Z 13012KT 4SM TSRA BR BKN001 BKN015CB OVC060 17/16 A2936 RERA RMK SF5CB2SC2 LTGIC ALQDS /R10/ SLP943

CYWG;2007-06-18 06:08;CYWG 180608Z 14010KT 4SM TSRA BR BKN004 OVC015CB 18/ RMK SF5CB3 LTGIC

CYWG;2007-06-18 06:17;CYWG 180617Z 22013G18KT 3SM TSRA BR BKN008 OVC015CB 17/ RMK SF6CB2 LTGICCC

CYWG;2007-06-18 06:19;CYWG 180619Z 25018G28KT 2SM +TSRA BR BKN005 OVC015CB 17/ RMK SF6CB2 LTGIC

CYWG;2007-06-18 06:42;CYWG 180642Z 02011KT 3SM TSRA BR OVC003 17/ RERA RMK SF8 CB EMBD LTGICCC

CYWG;2007-06-18 07:00;CYWG 180700Z CCA 09009KT 6SM -TSRA BR OVC004 17/16 A2932 RERA RMK SF8 CB EMBD LTGIC N-NE /R15/ SLP929

CYWG;2007-06-18 07:27;CYWG 180727Z 11007KT 15SM SCT004 OVC016 17/ RETS RMK SF3SC5 CB AND LTNG NE

CYWG;2007-06-18 08:00;CYWG 180800Z 26003KT 15SM FEW004 FEW040 OVC120 16/16 A2933 RETS RMK SF1SC2AC6 SLP932

CYWG;2007-06-18 08:10;CYWG 180810Z 27005KT 10SM BKN002 BKN013 OVC120 17/ RMK SF5SC2AC2

CYWG;2007-06-18 08:43;CYWG 180843Z 22005KT 15SM OVC004 17/ RMK SF8

CYWG;2007-06-18 09:00;CYWG 180900Z 23007KT 15SM OVC004 17/16 A2935 RMK ST8 SLP941

CYWG;2007-06-18 09:07;CYWG 180907Z 25007KT 15SM OVC003 17/ RMK ST8

CYWG;2007-06-18 09:20;CYWG 180920Z 23007KT 10SM OVC002 17/ RMK ST8

CYWG;2007-06-18 09:43;CYWG 180943Z 23010KT 15SM BKN003 BKN055 17/ RMK SF6SC2

CYWG;2007-06-18 10:00;CYWG 181000Z 24009KT 6SM BR OVC002 17/16 A2935 RMK ST8 SLP941

CYWG;2007-06-18 10:40;CYWG 181040Z 25011KT 15SM FEW003 FEW007 SCT066 BKN240 17/ RMK SF1ST2AC2CI0

CYWG;2007-06-18 11:00;CYWG 181100Z 25012G17KT 15SM FEW012 FEW067 SCT240 17/15 A2936 RMK SF1AC2CI0 SLP943

CYWG;2007-06-18 12:00;CYWG 181200Z 26012KT 15SM FEW067 FEW240 16/13 A2935 RMK AC2CI0 SLP941

CYWG;2007-06-18 13:00;CYWG 181300Z 25009G15KT 15SM FEW078 FEW240 17/12 A2937 RMK AC1CI1 SLP945

CYWG;2007-06-18 14:00;CYWG 181400Z 26012G18KT 15SM SCT240 18/11 A2937 RMK CI2 SLP945

CYWG;2007-06-18 15:00;CYWG 181500Z 23010KT 15SM FEW096 BKN240 18/10 A2936 RMK AC2CI1 SLP942

CYWG;2007-06-18 16:00;CYWG 181600Z 21011KT 15SM FEW035 SCT100 BKN240 20/11 A2934 RMK CU1AC2CI1 SLP936

CYWG;2007-06-18 17:00;CYWG 181700Z 21017G22KT 15SM FEW040 BKN081 BKN240 20/10 A2932 RMK CU2AC5CI1 SLP930

CYWG;2007-06-18 17:42;CYWG 181742Z 21012G20KT 15SM -RA BKN031 OVC058 17/ RMK SC6SC2

CYWG;2007-06-18 18:00;CYWG 181800Z 21013G22KT 15SM -RA BKN011 BKN071 16/13 A2931 RMK SC5AC2 SLP927

CYWG;2007-06-18 18:05;CYWG 181805Z 19011KT 15SM FEW011 BKN093 17/ RMK SC2AC4

CYWG;2007-06-18 19:00;CYWG 181900Z 23016G25KT 15SM BKN038 BKN049 17/10 A2930 RMK CU5SC2 SLP924

CYWG;2007-06-18 20:00;CYWG 182000Z 22019G26KT 15SM BKN031 BKN051 BKN090 18/11 A2928 RMK CU6SC1AC1 SLP918

CYWG;2007-06-18 21:00;CYWG 182100Z 23013G24KT 15SM VCSH SCT029TCU OVC048 16/10 A2928 RMK TCU3SC5 SLP916

CYWG;2007-06-18 22:00;CYWG 182200Z 23013G21KT 15SM SCT030TCU BKN051 18/11 A2927 RMK TCU3SC2 SHWR DST NW SLP912

CYWG;2007-06-18 23:00;CYWG 182300Z 24015KT 15SM -SHRA BKN036CB BKN070 18/11 A2926 RMK CB6AC2 SLP910

CYWG;2007-06-18 23:36;CYWG 182336Z 26009KT 15SM FEW008 SCT036CB 17/ RMK CF1CB2 SHWR DST NW-E

CYWG;2007-06-19 00:00;CYWG 190000Z 29020G25KT 15SM VCSH FEW013 SCT036CB BKN240 16/12 A2928 RMK CF1CB3CI0 SLP918

CYWG;2007-06-19 00:23;CYWG 190023Z 33016KT 15SM VCSH SCT007 BKN039CB BKN058 15/ RMK CF2CB4SC1 RNBW

CYWG;2007-06-19 00:35;CYWG 190035Z 30013G22KT 7SM -SHRA SCT007 BKN015CB BKN058 14/ RMK CF2CB5SC1 RNBW

CYWG;2007-06-19 00:49;CYWG 190049Z 29008G15KT 15SM VCSH SCT015CB BKN057 BKN240 14/ RMK CB4SC2CI0 RNBW

CYWG;2007-06-19 01:00;CYWG 190100Z 28008KT 15SM VCSH FEW015CB BKN057 BKN240 15/12 A2930 RMK CB2SC4CI0 RNBW SLP925

CYWG;2007-06-19 02:00;CYWG 190200Z 29019G26KT 15SM SCT008 BKN019 BKN075 14/11 A2934 RMK CF2SC3AC1 CVCTV CLD EMBD SLP937

CYWG;2007-06-19 03:00;CYWG 190300Z 29021G27KT 15SM OVC021 13/10 A2938 RMK SC8 SLP952

CYWG;2007-06-19 03:45;CYWG 190345Z 28023KT 5SM -RA BR OVC014 12/ RMK SC8

CYWG;2007-06-19 03:53;CYWG 190353Z 29025G33KT 3SM -RA BR OVC008 11/ RMK SC8

CYWG;2007-06-19 04:00;CYWG 190400Z 28022G33KT 3SM -RA BR OVC008 11/10 A2942 RMK FG2SC6 SLP966

CYWG;2007-06-19 04:12;CYWG 190412Z 28022G30KT 4SM -RA BR SCT008 OVC013 11/ RMK SF3SC5

CYWG;2007-06-19 04:51;CYWG 190451Z 30018G27KT 6SM -RA BR OVC008 11/ RMK SC8

CYWG;2007-06-19 05:00;CYWG 190500Z 30019G26KT 6SM -RA BR SCT008 OVC013 11/10 A2946 RMK SF4SC4 SLP979

CYWG;2007-06-19 05:24;CYWG 190524Z 30017G22KT 8SM -RA BKN013 OVC021 11/ RMK SC5SC3

CYWG;2007-06-19 05:50;CYWG 190550Z 31017G25KT 8SM -RA OVC031 RMK SC8

CYWG;2007-06-19 06:00;CYWG 190600Z 31021G27KT 8SM -RA OVC033 11/10 A2949 RMK SC8 SLP990

CYWG;2007-06-19 06:29;CYWG 190629Z 31013G18KT 5SM -RA BR BKN010 BKN030 OVC070 RMK SF5SC2AC1

CYWG;2007-06-19 06:39;CYWG 190639Z 32012G18KT 4SM -RA BR SCT006 BKN010 OVC030 RMK SF3SF3SC2

CYWG;2007-06-19 07:00;CYWG 190700Z 30018KT 12SM -RA FEW007 SCT011 BKN027 OVC070 12/10 A2951 RMK SF1SC2SC2AC2 SLP996

CYWG;2007-06-19 07:30;CYWG 190730Z 30015G22KT 15SM FEW012 BKN024 OVC085 12/ RMK SF2SC4AC2

CYWG;2007-06-19 07:51;CYWG 190751Z 30016G21KT 6SM -RA BR FEW008 OVC021 12/ RMK SF2SC6

CYWG;2007-06-19 08:00;CYWG 190800Z 31017KT 6SM -RA BR FEW008 OVC015 11/10 A2954 RMK SF1SC7 SLP006

CYWG;2007-06-19 09:00;CYWG 190900Z 32015G20KT 15SM -RA BKN020 BKN050 12/10 A2958 RMK SC6SC2 SLP020

CYWG;2007-06-19 09:11;CYWG 190911Z 32019G28KT 15SM BKN020 BKN050 12/ RMK SC6SC1

CYWG;2007-06-19 10:00;CYWG 191000Z 31014KT 15SM SCT025 BKN050 12/10 A2963 RMK SC3SC2 SLP035

CYWG;2007-06-19 11:00;CYWG 191100Z 32014G19KT 10SM -RA FEW010 BKN020 BKN095 12/10 A2968 RMK SF2SC4AC1 SLP052

CYWG;2007-06-19 11:22;CYWG 191122Z 32012KT 15SM FEW011 BKN022 BKN095 12/ RMK SF2SC5AC1

CYWG;2007-06-19 12:00;CYWG 191200Z 32019G26KT 15SM FEW015 BKN030 BKN100 12/09 A2973 RMK SF1SC4AC2 SLP071

CYWG;2007-06-19 13:00;CYWG 191300Z 32018KT 15SM SCT030 BKN270 14/09 A2977 RMK CU3CI0 SLP085

CYWG;2007-06-19 14:00;CYWG 191400Z 33019G27KT 15SM SCT035 14/08 A2980 RMK CU3 SLP096

CYWG;2007-06-19 15:00;CYWG 191500Z 33017KT 15SM SCT035 15/07 A2984 RMK CU4 SLP108

CYWG;2007-06-19 16:00;CYWG 191600Z 32013G20KT 15SM SCT040 16/07 A2987 RMK CU4 SLP119

CYWG;2007-06-19 17:00;CYWG 191700Z 31015G20KT 15SM SCT045 16/09 A2990 RMK CU4 SLP127

CYWG;2007-06-19 18:00;CYWG 191800Z 32015G21KT 15SM BKN041 17/08 A2991 RMK CU5 SLP132

CYWG;2007-06-19 19:00;CYWG 191900Z 30014G22KT 15SM FEW046 FEW280 18/09 A2991 RMK CU2CI0 SLP134

CYWG;2007-06-19 20:00;CYWG 192000Z 30010G15KT 15SM FEW046 BKN280 19/08 A2992 RMK CU1CI0 SLP137

CYWG;2007-06-19 21:00;CYWG 192100Z 28008KT 15SM FEW045 FEW280 19/08 A2992 RMK CU1CI0 SLP135

CYWG;2007-06-19 22:00;CYWG 192200Z 27007KT 15SM FEW045 FEW280 20/06 A2991 RMK CU1CI1 CU CI TR SLP133

CYWG;2007-06-19 23:00;CYWG 192300Z 25007KT 15SM FEW045 SCT280 20/07 A2990 RMK CU1CI2 CU TR SLP127

CYWG;2007-06-20 00:00;CYWG 200000Z 20011KT 15SM FEW045 FEW160 BKN280 20/08 A2987 RMK CU1AC1CI1 CU TR SLP117

CYWG;2007-06-20 01:00;CYWG 200100Z 18011KT 15SM FEW100 SCT160 OVC280 19/08 A2983 RMK AC1AC2CI1 SLP106

CYWG;2007-06-20 02:38;CYWG 200238Z 19013G18KT 15SM -TSRA SCT070 BKN100 OVC280 18/ RMK AC4AC3CI0 LTGICCG CB EMBDD W-NE

CYWG;2007-06-20 03:00;CYWG 200300Z 20016KT 12SM -TSRA BKN050CB OVC070 17/10 A2978 RMK CB6AC2 SLP088

CYWG;2007-06-20 03:09;CYWG 200309Z 31024G32KT 3/4SM R31/P6000FT/D +TSRA OVC052CB 13/ RMK RA2CB6 LTGICCG ALQUADS

CYWG;2007-06-20 03:39;CYWG 200339Z 23005KT 8SM -TSRA FEW003 BKN050CB OVC280 12/ RMK CF2CB5CI0 LTGIC E

CYWG;2007-06-20 04:00;CYWG 200400Z 21007KT 15SM -SHRA SCT013 BKN050CB OVC280 13/12 A2982 RMK CF3CB4CI0 LTGIC SE RETSRA SLP100

CYWG;2007-06-20 04:25;CYWG 200425Z 22006KT 15SM SCT033 BKN280 13/ RMK CU4CI0

CYWG;2007-06-20 05:00;CYWG 200500Z 22007KT 15SM FEW033 SCT072 BKN280 13/12 A2983 RMK CU2AC2CI0 SLP104

CYWG;2007-06-20 06:00;CYWG 200600Z 22008KT 15SM SKC 13/12 A2984 RMK SLP109

CYWG;2007-06-20 07:00;CYWG 200700Z 23007KT 15SM SKC 13/12 A2984 RMK SLP108

CYWG;2007-06-20 08:00;CYWG 200800Z 24010KT 15SM SKC 14/11 A2985 RMK SLP110

CYWG;2007-06-20 09:00;CYWG 200900Z 26011KT 15SM FEW250 13/10 A2986 RMK CI1 SLP114

CYWG;2007-06-20 10:00;CYWG 201000Z 27010KT 15SM FEW250 12/10 A2988 RMK CI1 SLP121

CYWG;2007-06-20 11:00;CYWG 201100Z 28009KT 15SM FEW250 12/10 A2990 RMK CI1 SLP129

CYWG;2007-06-20 12:00;CYWG 201200Z 30009KT 15SM FEW250 13/11 A2993 RMK CI1 SLP139

CYWG;2007-06-20 13:00;CYWG 201300Z 32009KT 15SM FEW015 14/11 A2995 RMK CF1 SLP146

CYWG;2007-06-20 14:00;CYWG 201400Z 34013KT 15SM FEW022 15/10 A2998 RMK CU2 SLP154

CYWG;2007-06-20 15:00;CYWG 201500Z 31010G16KT 15SM FEW023 16/11 A2999 RMK CU2 SLP160

CYWG;2007-06-20 16:00;CYWG 201600Z 32009G15KT 15SM FEW025 16/10 A3002 RMK CU2 SLP169

CYWG;2007-06-20 17:00;CYWG 201700Z 31010KT 15SM FEW027 FEW100 FEW280 17/11 A3003 RMK CU1AC1CI0 SLP171

CYWG;2007-06-20 18:00;CYWG 201800Z 30007KT 15SM FEW029 BKN280 18/11 A3005 RMK CU1CS1 SLP178

CYWG;2007-06-20 19:00;CYWG 201900Z 30005KT 15SM FEW032 FEW120 SCT280 19/12 A3004 RMK CU1AC2CI0 CU TR SLP176

CYWG;2007-06-20 20:00;CYWG 202000Z 32009KT 15SM FEW040 SCT120 20/09 A3004 RMK CF1AC3 CF TR SLP175

CYWG;2007-06-20 21:00;CYWG 202100Z 30010KT 15SM SCT096 SCT120 20/08 A3003 RMK AC3AC1 SLP171

CYWG;2007-06-20 22:00;CYWG 202200Z 29004KT 15SM FEW097 SCT300 20/08 A3003 RMK AC1CI0 SLP171

CYWG;2007-06-20 23:00;CYWG 202300Z 25005KT 15SM FEW100 SCT300 21/10 A3002 RMK AC1CI0 AC TR SLP168

CYWG;2007-06-21 00:00;CYWG 210000Z 00000KT 15SM FEW088 FEW100 FEW300 21/09 A3000 RMK AC1AC1CI0 AC TR SLP163

CYWG;2007-06-21 01:00;CYWG 210100Z 00000KT 15SM FEW093 SCT300 20/10 A2999 RMK AC1CI0 SLP160

CYWG;2007-06-21 02:00;CYWG 210200Z 04002KT 15SM FEW090 SCT270 19/11 A2999 RMK AC1CI1 SLP160

CYWG;2007-06-21 03:00;CYWG 210300Z 18003KT 15SM BKN100 17/11 A3000 RMK AC4 SLP163

CYWG;2007-06-21 04:00;CYWG 210400Z 14002KT 15SM FEW088 16/11 A3001 RMK AC2 SLP165

CYWG;2007-06-21 05:00;CYWG 210500Z 17002KT 15SM FEW088 15/10 A3002 RMK AC1 SLP167

CYWG;2007-06-21 06:00;CYWG 210600Z 17005KT 15SM BKN082 15/11 A3002 RMK AC6 SLP167

CYWG;2007-06-21 07:00;CYWG 210700Z 14005KT 15SM BKN073 15/12 A3002 RMK AC6 SLP167

CYWG;2007-06-21 08:00;CYWG 210800Z 11004KT 15SM SCT061 BKN073 14/11 A3003 RMK SC3AC2 SLP173

CYWG;2007-06-21 09:00;CYWG 210900Z 17007KT 15SM BKN059 15/11 A3003 RMK SC6 SLP173

CYWG;2007-06-21 09:25;CYWG 210925Z 18004KT 15SM -SHRA BKN051 16/ RMK SC6

CYWG;2007-06-21 09:42;CYWG 210942Z 15007KT 15SM BKN051 16/ RMK SC7

CYWG;2007-06-21 10:00;CYWG 211000Z 14007KT 15SM BKN051 OVC250 16/11 A3003 RMK CU6CI0 SHRA W - N SLP172

CYWG;2007-06-21 11:00;CYWG 211100Z 17007KT 15SM BKN054 BKN085 16/11 A3004 RMK CU5AC2 ACC ASOCTD SLP175

CYWG;2007-06-21 12:00;CYWG 211200Z 13007KT 15SM FEW054 BKN097 BKN250 16/11 A3005 RMK SC2AC3CI0 SLP179

CYWG;2007-06-21 13:00;CYWG 211300Z 14009KT 15SM SCT058 BKN250 18/11 A3006 RMK SC3CI1 SLP181

CYWG;2007-06-21 14:00;CYWG 211400Z 15011KT 15SM FEW060 BKN250 20/11 A3006 RMK SC2CI0 SLP182

CYWG;2007-06-21 15:00;CYWG 211500Z 14009KT 15SM FEW090 FEW250 21/12 A3005 RMK AC1CI1 SLP178

CYWG;2007-06-21 16:00;CYWG 211600Z 14006KT 15SM FEW040 FEW250 22/12 A3006 RMK CF1CI0 SLP180

CYWG;2007-06-21 17:00;CYWG 211700Z 14005KT 15SM FEW040 23/12 A3006 RMK CF2 SLP182

CYWG;2007-06-21 18:00;CYWG 211800Z 07004KT 15SM FEW047 23/13 A3005 RMK CF2 SLP178

CYWG;2007-06-21 19:00;CYWG 211900Z 09005KT 15SM FEW044 24/13 A3004 RMK CU1 SLP175

CYWG;2007-06-21 20:00;CYWG 212000Z 15004KT 15SM FEW051 24/14 A3004 RMK CU2 SLP173

CYWG;2007-06-21 21:00;CYWG 212100Z 05011KT 15SM FEW053 24/14 A3003 RMK CU2 SLP170

CYWG;2007-06-21 22:00;CYWG 212200Z 03013KT 15SM FEW055 23/14 A3004 RMK CU1 SLP173

CYWG;2007-06-21 23:00;CYWG 212300Z 04012KT 15SM FEW055 23/14 A3004 RMK CU1 SLP175

CYWG;2007-06-22 00:00;CYWG 220000Z 03010KT 15SM FEW055 22/14 A3005 RMK CU1 TR CU SLP176

CYWG;2007-06-22 01:00;CYWG 220100Z 03008KT 15SM FEW055 21/13 A3005 RMK CU1 TCU DSTNT SE QUAD SLP177

CYWG;2007-06-22 02:00;CYWG 220200Z 04007KT 15SM FEW120 18/12 A3004 RMK AC1 TR AC DSTNT SE QUAD SLP174

CYWG;2007-06-22 03:00;CYWG 220300Z 03005KT 15SM FEW120 16/12 A3004 RMK AC1 AC TR SLP175

CYWG;2007-06-22 04:00;CYWG 220400Z 04007KT 15SM FEW120 15/12 A3003 RMK AC1 SLP173

CYWG;2007-06-22 05:00;CYWG 220500Z 04007KT 15SM FEW120 14/12 A3002 RMK AC1 SLP169

CYWG;2007-06-22 06:00;CYWG 220600Z 07003KT 15SM FEW120 13/11 A3001 RMK AC1 SLP164

CYWG;2007-06-22 07:00;CYWG 220700Z 12006KT 15SM SCT120 15/12 A2999 RMK AC2 SLP157

CYWG;2007-06-22 08:00;CYWG 220800Z 14006KT 15SM SCT120 15/12 A2999 RMK AC2 SLP156

CYWG;2007-06-22 09:00;CYWG 220900Z 16006KT 15SM SCT120 BKN280 15/13 A2998 RMK AC3CI0 SLP153

CYWG;2007-06-22 10:00;CYWG 221000Z 17005KT 15SM FEW120 BKN280 15/13 A2994 RMK AC2CI1 OBS TAKEN +12 SLP141

CYWG;2007-06-22 11:00;CYWG 221100Z 15004KT 15SM FEW120 SCT280 15/13 A2994 RMK AC1CI0 SLP139

CYWG;2007-06-22 12:00;CYWG 221200Z 19007KT 15SM FEW120 BKN280 17/15 A2994 RMK AC2CI0 SLP141

CYWG;2007-06-22 13:00;CYWG 221300Z 21007KT 15SM SCT120 BKN280 18/15 A2995 RMK AC3CS4 SLP143

CYWG;2007-06-22 14:00;CYWG 221400Z 18009KT 15SM FEW038 BKN069 OVC280 19/16 A2991 RMK SC2AC3CI1 SLP130

CYWG;2007-06-22 15:00;CYWG 221500Z 25006KT 15SM BKN040TCU BKN080 OVC280 21/16 A2994 RMK TCU5AC2CI1 SHWRS N SLP142

CYWG;2007-06-22 16:00;CYWG 221600Z 18011KT 15SM FEW025 BKN046 22/17 A2990 RMK SC2SC4 SLP129

CYWG;2007-06-22 17:00;CYWG 221700Z 18015KT 15SM FEW029 SCT092 22/18 A2988 RMK SC2AC1 SLP120

CYWG;2007-06-22 17:04;CYWG 221704Z 18015KT 15SM -SHRA FEW008 BKN064TCU 22/ RMK SF2TCU3

CYWG;2007-06-22 17:22;CYWG 221722Z 19013KT 15SM SCT064TCU RMK TCU3 SHWRS SE

CYWG;2007-06-22 18:00;CYWG 221800Z 18017G24KT 15SM FEW087 25/19 A2985 RMK ACC2 SLP109

CYWG;2007-06-22 19:00;CYWG 221900Z 19020KT 15SM FEW087 27/18 A2982 RMK ACC2 SH WSW SLP099

CYWG;2007-06-22 20:00;CYWG 222000Z 18014KT 15SM FEW040CB FEW082 SCT280 28/19 A2980 RMK CB2ACC1CI0 CB SW AND N SLP091

CYWG;2007-06-22 21:00;CYWG 222100Z 21019G24KT 15SM FEW044CB FEW085 29/17 A2979 RMK CB1ACC1 CB N + E - SE SLP089

CYWG;2007-06-22 22:00;CYWG 222200Z 21017G22KT 15SM FEW044CB FEW090 29/18 A2978 RMK CB1ACC1 CB W + N SLP085

CYWG;2007-06-22 23:00;CYWG 222300Z 20015KT 15SM FEW044CB FEW090 SCT290 28/19 A2976 RMK CB2ACC1CI0 CB W - NW SLP078

CYWG;2007-06-22 23:08;CYWG 222308Z CCA 19010KT 15SM TS VCSH FEW040CB SCT090 BKN300 28/ RMK CB2ACC1CI1 CB W - NW HVY SH NW

CYWG;2007-06-22 23:32;CYWG 222332Z 16007KT 15SM -TSRA SCT045CB BKN090 BKN300 27/ RMK CB3ACC2CI0

CYWG;2007-06-23 00:00;CYWG 230000Z 16008KT 15SM -TSRA FEW025 BKN045CB BKN300 25/20 A2975 RMK CF2CB3CI1 LTGICCG SLP076

CYWG;2007-06-23 01:00;CYWG 230100Z 22019KT 15SM -TSRA FEW026 BKN047CB BKN300 25/20 A2975 RMK CF2CB3CI1 LTGICCG W - SE SLP075

CYWG;2007-06-23 02:00;CYWG 230200Z 19009G16KT 15SM -SHRA FEW019 BKN045CB BKN300 20/16 A2979 RMK CF2CB3CI1 SLP087

CYWG;2007-06-23 02:20;CYWG 230220Z 20015G20KT 15SM FEW009 SCT045CB BKN076 BKN300 20/ RMK CF1CB2AC2CI1

CYWG;2007-06-23 03:00;CYWG 230300Z 22011G16KT 15SM FEW054CB SCT075 BKN300 21/16 A2977 RMK CB2ACC1CI2 SLP083

CYWG;2007-06-23 04:00;CYWG 230400Z 24006KT 15SM FEW050CB BKN300 20/17 A2976 RMK CB2CI2 ACC TOPS W SLP079

CYWG;2007-06-23 05:00;CYWG 230500Z 32002KT 15SM FEW300 18/16 A2978 RMK CI2 SLP084

CYWG;2007-06-23 06:00;CYWG 230600Z 35004KT 15SM SKC 17/15 A2979 RMK SLP087

CYWG;2007-06-23 07:00;CYWG 230700Z 13002KT 15SM FEW100 18/15 A2981 RMK AC2 SLP095

CYWG;2007-06-23 08:00;CYWG 230800Z 16002KT 15SM FEW100 17/15 A2980 RMK AC1 SLP093

CYWG;2007-06-23 09:00;CYWG 230900Z 00000KT 15SM FEW100 15/14 A2980 RMK AC1 AC TR SLP093

CYWG;2007-06-23 10:00;CYWG 231000Z 08003KT 15SM FEW100 14/14 A2980 RMK AC1 AC TR MIFG SLP093

CYWG;2007-06-23 11:00;CYWG 231100Z 10006KT 15SM FEW100 16/15 A2980 RMK AC1 SLP091

CYWG;2007-06-23 12:00;CYWG 231200Z 06002KT 15SM SKC 19/17 A2981 RMK SLP094

CYWG;2007-06-23 13:00;CYWG 231300Z 12004KT 15SM SKC 20/17 A2979 RMK SLP088

CYWG;2007-06-23 14:00;CYWG 231400Z 14007KT 15SM SKC 21/17 A2977 RMK SLP081

CYWG;2007-06-23 15:00;CYWG 231500Z 20003KT 15SM FEW280 23/18 A2977 RMK CI0 SLP082

CYWG;2007-06-23 16:00;CYWG 231600Z 11004KT 15SM FEW280 24/18 A2978 RMK CI0 SLP084

CYWG;2007-06-23 17:00;CYWG 231700Z 03004KT 15SM BKN280 25/19 A2980 RMK CI2 SLP090

CYWG;2007-06-23 18:00;CYWG 231800Z 03004KT 15SM OVC092 26/21 A2977 RMK AS8 SLP083

CYWG;2007-06-23 19:00;CYWG 231900Z 03003KT 15SM FEW024 BKN095 OVC280 27/21 A2976 RMK CU1AS5CS1 SLP079

CYWG;2007-06-23 20:00;CYWG 232000Z 32008KT 15SM FEW024 BKN073 OVC280 27/21 A2977 RMK CU1AC5CI1 SLP083

CYWG;2007-06-23 21:00;CYWG 232100Z 03008KT 15SM FEW022 BKN093 OVC290 25/21 A2976 RMK CU1AC5CI0 ACC ASOCTD VIRGA NW SLP077

CYWG;2007-06-23 22:00;CYWG 232200Z 05006KT 15SM FEW025 BKN100 BKN280 26/21 A2974 RMK CU1AC4CI1 ACC EMBDD SLP071

CYWG;2007-06-23 23:00;CYWG 232300Z 07008KT 15SM FEW020 BKN100 BKN280 25/21 A2973 RMK CU1AC4CI1 SLP069

CYWG;2007-06-24 00:00;CYWG 240000Z 11007KT 15SM FEW022 BKN100 BKN280 27/21 A2969 RMK CU1AC5CI1 ACC ASOCTD SLP052

CYWG;2007-06-24 01:00;CYWG 240100Z 09007KT 15SM FEW030CB SCT090 BKN280 26/21 A2967 RMK CB1AC3CI2 CB E SLP046

CYWG;2007-06-24 02:00;CYWG 240200Z 11007KT 15SM SCT058 BKN078 OVC280 25/21 A2966 RMK SC3AC3CI1 CB EMBD LTGICCCCG N-NW SLP042

CYWG;2007-06-24 02:08;CYWG 240208Z 11008KT 15SM TS BKN058CB BKN078 OVC280 25/ RMK CB5AC2CI1 LTGICCCCG NW-N

CYWG;2007-06-24 02:40;CYWG 240240Z 01028G40KT 10SM -TSRA SCT014 BKN057CB OVC084 20/ RMK CF3CB3AC2 LTGICCCCG W-N

CYWG;2007-06-24 03:00;CYWG 240300Z 01034G43KT 1/2SM R31/P6000FT/N TSRAGR SCT014 OVC057CB 18/16 A2976 RMK CF3CB5 FC APRX 1 W LTGICCCCG ALQUADS PRESRR SLP077

CYWG;2007-06-24 03:08;CYWG 240308Z 33032G58KT 1/2SM R31/1100V2000FT/N TSRAGR OVC057CB 17/ RMK RA2CB6 LTGICCCCG ALQUADS

CYWG;2007-06-24 03:28;CYWG 240328Z 08012G18KT 8SM +TSRA FEW001 BKN057CB 17/ RMK CF2CB5 LTGICCCCG ALQUADS

CYWG;2007-06-24 03:38;CYWG 240338Z 09006KT 10SM TSRA FEW002 BKN057CB 17/ RMK SF2CB5 LTGICCCCG ALQUADS

CYWG;2007-06-24 04:00;CYWG 240400Z 13009KT 10SM -TSRA SCT019 BKN057CB 18/ A2970 RMK CF3CB4 LTGICCC N-E-S PRESFR SLP058

CYWG;2007-06-24 04:42;CYWG 240442Z 17015G32KT 15SM -SHRA BKN013 BKN057CB 23/ RMK CU5CB2 LTGICCCCG NE-S

CYWG;2007-06-24 05:00;CYWG 240500Z 05004G19KT 15SM BKN013 BKN057CB 19/ A2967 RMK CU5CB2 LTGICCC NE-S SLP048

CYWG;2007-06-24 06:00;CYWG 240600Z 20015KT 15SM SCT020 BKN060CB BKN280 21/21 A2962 RMK CU3CB2CI1 LTGICCCCG E-SE LTGIC W SLP028

CYWG;2007-06-24 07:00;CYWG 240700Z 20014KT 15SM -SHRA BKN052 BKN082 21/ A2963 RMK CU5AC1 SLP033

CYWG;2007-06-24 07:20;CYWG 240720Z 19015KT 15SM BKN052 BKN082 21/ RMK CU5AC1

CYWG;2007-06-24 08:00;CYWG 240800Z 18017G22KT 15SM BKN054 21/21 A2964 RMK CU6 CB W LTGICCC W SLP035

CYWG;2007-06-24 08:40;CYWG 240840Z 18012G19KT 15SM TS SCT020CB OVC050 21/ RMK CB3CU5

CYWG;2007-06-24 09:00;CYWG 240900Z 18010KT 15SM TS BKN020CB OVC075 21/16 A2965 RMK CB5AC3 LTGICCCCG W-N SLP039

CYWG;2007-06-24 10:00;CYWG 241000Z 20008KT 15SM FEW020CB BKN049 BKN082 22/18 A2965 RMK CB2CU4AC2 OBS TAKEN +05 LTGIC E RETS SLP040

CYWG;2007-06-24 11:00;CYWG 241100Z 19011KT 15SM BKN051TCU OVC100 22/19 A2965 RMK TCU6ACC2 SLP041

CYWG;2007-06-24 12:00;CYWG 241200Z 18009KT 15SM FEW058 SCT100 22/19 A2964 RMK SC2AC2 CVCTV CLD EMBDD SLP035

CYWG;2007-06-24 13:00;CYWG 241300Z 19012KT 15SM BKN027 BKN060 23/19 A2967 RMK SC5SC2 SLP045

CYWG;2007-06-24 14:00;CYWG 241400Z 20010KT 15SM FEW027 BKN053 BKN097 23/20 A2968 RMK SC2SC3AC2 SLP048

CYWG;2007-06-24 15:00;CYWG 241500Z 26007KT 15SM SCT019 OVC050 24/21 A2970 RMK SC3SC5 SLP056

CYWG;2007-06-24 16:00;CYWG 241600Z 31006KT 15SM FEW013 BKN060 25/21 A2970 RMK CU2SC3 SLP057

CYWG;2007-06-24 17:00;CYWG 241700Z 25002KT 15SM FEW015 SCT060 26/21 A2970 RMK CU2SC2 SLP057

CYWG;2007-06-24 18:00;CYWG 241800Z 30012KT 15SM BKN019 25/21 A2974 RMK CU7 SLP070

CYWG;2007-06-24 19:00;CYWG 241900Z 32009KT 15SM FEW025 26/21 A2975 RMK CU2 SLP075

CYWG;2007-06-24 20:00;CYWG 242000Z 31008KT 15SM FEW026 27/21 A2977 RMK CU2 SLP079

CYWG;2007-06-24 21:00;CYWG 242100Z 32009G15KT 15SM SCT026 SCT092 27/21 A2977 RMK CU3AC1 SLP079

CYWG;2007-06-24 22:00;CYWG 242200Z 32007KT 15SM FEW024 FEW090 27/21 A2980 RMK CU2AC1 SLP089

CYWG;2007-06-24 23:00;CYWG 242300Z 28008KT 15SM FEW026 26/21 A2981 RMK CU2 SLP092

CYWG;2007-06-25 00:00;CYWG 250000Z 30009KT 15SM FEW030 25/19 A2981 RMK CU1 SLP095

CYWG;2007-06-25 01:00;CYWG 250100Z 31006KT 15SM FEW030 24/19 A2983 RMK CU1 SLP100

CYWG;2007-06-25 02:00;CYWG 250200Z 34008KT 15SM FEW025 23/19 A2982 RMK CU1 CB TOP DIST SE SLP097

CYWG;2007-06-25 03:00;CYWG 250300Z 02010KT 15SM FEW100 BKN250 21/19 A2983 RMK ACC2CI0 SLP102

CYWG;2007-06-25 04:00;CYWG 250400Z 05010KT 15SM BKN079 20/17 A2985 RMK AC6 ACC ASOCTD VIRGA NW SLP108

CYWG;2007-06-25 05:00;CYWG 250500Z 06013KT 15SM BKN069 19/15 A2986 RMK AC6 SLP112

CYWG;2007-06-25 06:00;CYWG 250600Z 05015KT 15SM BKN069 19/14 A2986 RMK AC6 LTNG SW SLP110

CYWG;2007-06-25 06:46;CYWG 250646Z 05014KT 15SM TS FEW063CB BKN083 19/ RMK CB2AC6 LTNGCC S-SW

CYWG;2007-06-25 06:51;CYWG 250651Z 05012G17KT 15SM -TSRA FEW063CB OVC083 19/ RMK CB2AC6 LTNGCC

CYWG;2007-06-25 07:00;CYWG 250700Z 04011G16KT 15SM -TSRA FEW063CB OVC083 18/14 A2986 RMK CB2AC6 LGTIC SLP111

CYWG;2007-06-25 07:05;CYWG 250705Z 01006KT 6SM TSRA BKN035CB OVC079 18/ RMK CB5AC3 LGTICCCCG ALL QUAD

CYWG;2007-06-25 07:08;CYWG 250708Z CCA 01006KT 6SM TSRA BKN035CB OVC079 18/ RMK CB5AC3 LGTICCCCG ALL QUAD

CYWG;2007-06-25 08:00;CYWG 250800Z 04012KT 6SM -TSRA BKN009 OVC062CB 17/15 A2990 RMK ST5CB3 LGTICCCCG ALQD SLP124

CYWG;2007-06-25 09:00;CYWG 250900Z 08020G25KT 6SM TSRA OVC012 16/14 A2990 RMK ST8 CB EMBDD SLP125

CYWG;2007-06-25 09:40;CYWG 250940Z 03020KT 6SM -SHRA OVC013 16/ RMK ST8 CVCTV CLD EMBDD

CYWG;2007-06-25 10:00;CYWG 251000Z 06017G24KT 12SM -SHRA OVC013 16/14 A2988 RMK ST8 CVCTV CLD EMBDD RERA SLP118

CYWG;2007-06-25 10:52;CYWG 251052Z 04015G24KT 12SM -SHRA FEW013 BKN019 OVC100 16/ RMK ST1SC6AC1 CVCTV CLD EMBDD

CYWG;2007-06-25 11:00;CYWG 251100Z 13010G21KT 15SM -SHRA FEW013 BKN019 OVC100 16/14 A2982 RMK SF1SC6AS2 CVCTV CLD EMBD PRESRR SLP100

CYWG;2007-06-25 11:26;CYWG 251126Z 17008G16KT 15SM -SHRA SCT009 BKN016 OVC120 16/ RMK SF3SC3AC2 CVCTV CLD EMBD PRESRR

CYWG;2007-06-25 12:00;CYWG 251200Z 30005KT 15SM -SHRA FEW009 BKN021 OVC120 16/15 A2990 RMK SF2SC4AC2 CVCTV CLD EMBD PRESRR SLP126

CYWG;2007-06-25 12:27;CYWG 251227Z CCA 01004KT 8SM TSRA FEW010 OVC018 16/ RMK SF2SC6 CB EMBD LTGIC

CYWG;2007-06-25 12:48;CYWG 251248Z 06006KT 10SM -SHRA OVC018 16/ RMK SC8 RETS RESHRA

CYWG;2007-06-25 13:00;CYWG 251300Z CCA 11002KT 10SM -SHRA OVC018 16/15 A2990 RMK SC8 RETS RESHRA PRESRR CVCTV CLD EMBD SLP126

CYWG;2007-06-25 13:05;CYWG 251305Z 27002KT 10SM -TSRA OVC018 16/ RMK SC8 CB EMBD PRESRR LTGIC

CYWG;2007-06-25 13:45;CYWG 251345Z 28004KT 3SM SHRA BR OVC019 16/ RMK SC8 RETS CVCTV CLD EMBD

CYWG;2007-06-25 14:00;CYWG 251400Z 03010KT 3SM SHRA BR FEW010 BKN019 OVC100 16/15 A2987 RMK SF1SC6AC1 RETS PRESFR CVCTV CLD EMBD SLP115

CYWG;2007-06-25 14:14;CYWG 251414Z 05007KT 8SM -SHRA FEW003 BKN011 BKN100 OVC260 16/ RMK SF2SC4AC1CI1 RESHRA PRESFR CVCTV CLD EMBD

CYWG;2007-06-25 14:29;CYWG 251429Z 01009KT 10SM FEW003 BKN011 BKN100 OVC260 16/ RMK SF2SC2AS3CI1 RESHRA PRESRR

CYWG;2007-06-25 14:42;CYWG 251442Z 04011G16KT 15SM FEW004 SCT018 BKN110 OVC260 16/ RMK SF1SC2AS3CI1 RESHRA PRES UNSTDY

CYWG;2007-06-25 15:00;CYWG 251500Z 05013KT 15SM FEW006 FEW018 SCT110 BKN260 17/16 A2985 RMK SF2SC1AC2CI3 RESHRA SLP110

CYWG;2007-06-25 15:43;CYWG 251543Z 04013KT 15SM BKN007 BKN110 BKN260 18/ RMK SF4AC2CI1

CYWG;2007-06-25 16:00;CYWG 251600Z 04016KT 15SM BKN007 BKN110 BKN260 18/16 A2987 RMK SC5AC1CI1 SLP116

CYWG;2007-06-25 16:51;CYWG 251651Z 06012KT 15SM SCT010 SCT040 BKN110 BKN260 RMK SC2SC1AC2CI1

CYWG;2007-06-25 17:00;CYWG 251700Z 04013KT 15SM SCT010 SCT065 BKN110 BKN260 20/18 A2985 RMK SC2SC1AC2CI1 SLP110

CYWG;2007-06-25 18:00;CYWG 251800Z 06009KT 15SM FEW013 BKN050 OVC280 21/18 A2985 RMK SC1SC6CI0 SLP109

CYWG;2007-06-25 19:00;CYWG 251900Z 05008KT 15SM FEW015 OVC032 21/18 A2985 RMK SF1SC6 SLP110

CYWG;2007-06-25 20:00;CYWG 252000Z 06010KT 15SM OVC024 22/18 A2983 RMK SC8 SLP104

CYWG;2007-06-25 21:00;CYWG 252100Z 08008KT 15SM OVC026 22/19 A2984 RMK SC8 SLP106

CYWG;2007-06-25 21:48;CYWG 252148Z 03006KT 6SM -RA BR OVC016 21/ RMK SC8

CYWG;2007-06-25 22:00;CYWG 252200Z 04006KT 6SM -RA BR OVC016 22/20 A2986 RMK SC8 SLP111

CYWG;2007-06-25 23:00;CYWG 252300Z 07011KT 12SM FEW016 OVC028 22/20 A2981 RMK SF2SC6 SLP095

CYWG;2007-06-26 00:00;CYWG 260000Z 07006KT 15SM FEW018 OVC028 23/20 A2985 RMK SF1SC7 SLP108

CYWG;2007-06-26 01:00;CYWG 260100Z 06008KT 15SM OVC026 23/19 A2985 RMK SC8 SLP108

CYWG;2007-06-26 02:00;CYWG 260200Z 06012KT 15SM BKN027 OVC060 22/19 A2986 RMK SC6SC2 SLP111

CYWG;2007-06-26 03:00;CYWG 260300Z 05008KT 15SM BKN039 21/18 A2984 RMK SC7 CVCTC CLD EMBD SLP105

CYWG;2007-06-26 03:12;CYWG 260312Z CCA 05008KT 15SM -RA BKN039 21/ RMK SC7 CVCTV CLD EMBD

CYWG;2007-06-26 03:44;CYWG 260344Z 06009KT 15SM BKN028 OVC039 21/ RMK SC6SC2

CYWG;2007-06-26 04:00;CYWG 260400Z 05010KT 15SM TS OVC030 21/17 A2985 RMK SC8 CB EMBD SLP108

CYWG;2007-06-26 04:41;CYWG 260441Z 08007G17KT 15SM OVC032 20/ RMK SC8

CYWG;2007-06-26 05:00;CYWG 260500Z 05009KT 15SM SCT014 OVC032 20/17 A2983 RMK ST3SC5 LGTNG SW SLP102

CYWG;2007-06-26 06:00;CYWG 260600Z 05008KT 15SM -RA FEW010 OVC040 19/17 A2982 RMK ST2SC6 SLP099

CYWG;2007-06-26 07:00;CYWG 260700Z 09010KT 15SM BKN006 OVC055 19/18 A2976 RMK SF5SC3 SLP079

CYWG;2007-06-26 07:32;CYWG 260732Z 09008KT 15SM FEW007 OVC051 19/ RMK SF2SC6

CYWG;2007-06-26 08:00;CYWG 260800Z 07007KT 15SM SCT010 OVC064 19/18 A2974 RMK SF3SC5 SLP074

CYWG;2007-06-26 08:12;CYWG 260812Z 08008KT 15SM BKN007 OVC029 19/ RMK ST6SC2

CYWG;2007-06-26 08:25;CYWG 260825Z 09008KT 15SM -SHRA BKN007 OVC029 19/ RMK SF6SC2 CVCTV CLD EMBD

CYWG;2007-06-26 08:35;CYWG 260835Z 09009KT 15SM -TSRA BKN007 OVC027 19/ RMK SF6SC2 CB EMBD

CYWG;2007-06-26 09:00;CYWG 260900Z 08011KT 15SM -TSRA FEW007 OVC027 19/18 A2966 RMK SF2SC6 CB EMBD SLP045

CYWG;2007-06-26 09:36;CYWG 260936Z 16009KT 15SM TSRA SCT010 OVC016 19/ RMK SF3SC5 CB EMBD

CYWG;2007-06-26 10:00;CYWG 261000Z 16006G26KT 15SM R13/4000VP6000FT/U TSRA BKN009 OVC016CB 20/18 A2974 RMK SF6CB2 SLP070

CYWG;2007-06-26 10:12;CYWG 261012Z 19006KT 15SM -RA BKN002 OVC090 20/ RMK ST6AC2 RETS RERA LGTNG N-NE

CYWG;2007-06-26 10:26;CYWG 261026Z 23005KT 15SM BKN014 OVC052 20/ RMK ST6SC2 RETS RERA LGTNG N-NE

CYWG;2007-06-26 10:47;CYWG 261047Z 28019G25KT 15SM BKN005 BKN060 OVC090 19/ RMK SF6SC2AC1 WND SHFT

CYWG;2007-06-26 11:00;CYWG 261100Z 30012G21KT 15SM SCT005 BKN030 OVC090 19/17 A2976 RMK SF4SC2AC2 SLP077

CYWG;2007-06-26 11:28;CYWG 261128Z 28018KT 15SM BKN006 OVC018 19/ RMK SF6SC2

CYWG;2007-06-26 12:00;CYWG 261200Z 30018G24KT 15SM OVC008 18/17 A2977 RMK SF8 SLP083

CYWG;2007-06-26 13:00;CYWG 261300Z 30016KT 15SM BKN007 18/16 A2983 RMK SF7 SLP101

CYWG;2007-06-26 13:24;CYWG 261324Z 29021G27KT 15SM FEW010 SCT100 18/ RMK SF2AC1

CYWG;2007-06-26 14:00;CYWG 261400Z 28021KT 15SM FEW021 FEW100 19/14 A2987 RMK CF1AC1 SLP113

CYWG;2007-06-26 15:00;CYWG 261500Z 28016G21KT 15SM FEW020 FEW100 19/13 A2988 RMK SF1AC1 SLP119

CYWG;2007-06-26 16:00;CYWG 261600Z 26016G24KT 15SM FEW030 20/12 A2990 RMK CF1 SLP126

CYWG;2007-06-26 17:00;CYWG 261700Z 26017G24KT 15SM FEW030 20/11 A2990 RMK CF1 SLP127

CYWG;2007-06-26 18:00;CYWG 261800Z 27016KT 15SM FEW039 20/12 A2992 RMK CU2 SLP134

CYWG;2007-06-26 19:00;CYWG 261900Z 27015KT 15SM BKN039 21/12 A2993 RMK CU5 SLP136

CYWG;2007-06-26 20:00;CYWG 262000Z 27015KT 15SM BKN039 21/12 A2993 RMK CU5 SLP138

CYWG;2007-06-26 21:00;CYWG 262100Z 27012G17KT 15SM BKN042 BKN065 21/12 A2994 RMK CU5SC1 SLP140

CYWG;2007-06-26 22:00;CYWG 262200Z 25011G16KT 15SM BKN049 BKN065 21/13 A2993 RMK CU6SC1 SLP138

CYWG;2007-06-26 23:00;CYWG 262300Z 26009G16KT 15SM SCT047 BKN070 21/13 A2993 RMK CU3AC3 SLP135

CYWG;2007-06-27 00:00;CYWG 270000Z 25011KT 15SM SCT050 BKN070 BKN093 20/12 A2992 RMK CU3AC2AC2 SLP132

CYWG;2007-06-27 01:00;CYWG 270100Z 27017G24KT 15SM FEW050 SCT070 19/11 A2993 RMK CU1AC2 SLP135

CYWG;2007-06-27 02:00;CYWG 270200Z CCA 28014G20KT 15SM FEW050 SCT068 18/09 A2994 RMK CU1AC2 SLP141

CYWG;2007-06-27 03:00;CYWG 270300Z 28014KT 15SM FEW065 FEW110 16/09 A2996 RMK SC1AC2 SLP149

CYWG;2007-06-27 04:00;CYWG 270400Z 29011KT 15SM SCT049 14/10 A2999 RMK SC3 SLP158

CYWG;2007-06-27 05:00;CYWG 270500Z 32013KT 15SM FEW023 BKN054 14/10 A3002 RMK SC2SC4 SLP166

CYWG;2007-06-27 06:00;CYWG 270600Z 32011G18KT 15SM -DZ BKN024 13/10 A3003 RMK SC7 SLP170

CYWG;2007-06-27 06:22;CYWG 270622Z 31010G16KT 15SM FEW015 BKN024 12/ RMK SF1SC6

CYWG;2007-06-27 07:00;CYWG 270700Z 32015G20KT 15SM FEW015 BKN024 OVC059 12/09 A3004 RMK SF1SC6SC2 SLP176

CYWG;2007-06-27 08:00;CYWG 270800Z 31012KT 15SM OVC027 12/08 A3005 RMK SC8 SLP178

CYWG;2007-06-27 09:00;CYWG 270900Z 32011KT 15SM SCT027 OVC094 11/08 A3007 RMK SC3AC5 SLP185

CYWG;2007-06-27 10:00;CYWG 271000Z 32012KT 15SM SCT027 BKN050 10/07 A3008 RMK ST3SC4 SLP190

CYWG;2007-06-27 11:00;CYWG 271100Z 29009KT 15SM FEW023 BKN050 10/07 A3010 RMK SF2SC5 SLP197

CYWG;2007-06-27 11:16;CYWG 271116Z 30012KT 15SM -DZ BKN015 BKN050 09/ RMK ST5SC2

CYWG;2007-06-27 11:36;CYWG 271136Z 30011KT 15SM FEW015 BKN021 BKN050 09/ RMK SF2ST3SC2

CYWG;2007-06-27 12:00;CYWG 271200Z 30013KT 15SM FEW015 BKN033 09/07 A3012 RMK SF2SC5 SLP202

CYWG;2007-06-27 13:00;CYWG 271300Z 32013G18KT 15SM SCT012 BKN041 11/08 A3013 RMK SC4SC2 SLP208

CYWG;2007-06-27 14:00;CYWG 271400Z 33016KT 15SM BKN020 BKN041 12/07 A3015 RMK SC5SC2 SLP214

CYWG;2007-06-27 15:00;CYWG 271500Z 32014G22KT 15SM BKN021 BKN044 13/08 A3016 RMK SC5SC1 SLP219

CYWG;2007-06-27 16:00;CYWG 271600Z 34013G21KT 15SM BKN025 14/08 A3018 RMK SC6 SLP224

CYWG;2007-06-27 17:00;CYWG 271700Z 34013G19KT 15SM BKN025 14/09 A3019 RMK SC7 SLP228

CYWG;2007-06-27 18:00;CYWG 271800Z 33014KT 15SM BKN023 14/09 A3021 RMK SC7 SLP234

CYWG;2007-06-27 19:00;CYWG 271900Z 01013KT 15SM BKN024 15/10 A3022 RMK SC7 SLP238

CYWG;2007-06-27 20:00;CYWG 272000Z 02008G15KT 15SM -DZ BKN026 14/10 A3023 RMK SC7 SLP242

CYWG;2007-06-27 20:15;CYWG 272015Z 01013KT 15SM BKN026 15/ RMK SC7

CYWG;2007-06-27 21:00;CYWG 272100Z 02014KT 15SM OVC026 15/09 A3024 RMK SC8 SLP247

CYWG;2007-06-27 21:42;CYWG 272142Z 35010G15KT 15SM -RA OVC024 14/ RMK SC8

CYWG;2007-06-27 22:00;CYWG 272200Z 36009KT 15SM OVC027 14/09 A3025 RMK SC8 SLP248

CYWG;2007-06-27 23:00;CYWG 272300Z 02009KT 15SM BKN024 14/10 A3025 RMK SC7 SLP251

CYWG;2007-06-28 00:00;CYWG 280000Z 01013KT 15SM OVC026 14/09 A3026 RMK SC8 SLP252

CYWG;2007-06-28 01:00;CYWG 280100Z 02010KT 15SM OVC043 14/09 A3026 RMK SC8 SLP254

CYWG;2007-06-28 02:00;CYWG 280200Z 36006KT 15SM BKN045 13/09 A3027 RMK SC7 SLP255

CYWG;2007-06-28 03:00;CYWG 280300Z 35006KT 15SM BKN039 13/10 A3028 RMK SC7 SLP258

CYWG;2007-06-28 04:00;CYWG 280400Z 35004KT 15SM BKN033 13/10 A3029 RMK SC6 SLP263

CYWG;2007-06-28 05:00;CYWG 280500Z 01003KT 15SM SCT037 BKN110 12/10 A3030 RMK SC3AC3 SLP265

CYWG;2007-06-28 06:00;CYWG 280600Z 35005KT 15SM FEW041 09/08 A3030 RMK SC1 SLP268

CYWG;2007-06-28 07:00;CYWG 280700Z 35005KT 15SM FEW100 08/07 A3031 RMK AC1 SLP269

CYWG;2007-06-28 08:00;CYWG 280800Z 02002KT 15SM SKC 07/06 A3031 RMK SLP270

CYWG;2007-06-28 09:00;CYWG 280900Z 35003KT 15SM SKC 07/06 A3031 RMK SLP270

CYWG;2007-06-28 10:00;CYWG 281000Z 00000KT 15SM FEW100 07/06 A3031 RMK AC2 SLP269

CYWG;2007-06-28 11:00;CYWG 281100Z 00000KT 15SM MIFG FEW100 FEW240 06/06 A3031 RMK AC1CI1 TR AC SLP270

CYWG;2007-06-28 12:00;CYWG 281200Z 00000KT 15SM FEW100 FEW240 10/09 A3032 RMK AC1CI1 TR AC SLP273

CYWG;2007-06-28 13:00;CYWG 281300Z 07002KT 15SM FEW100 FEW250 13/11 A3033 RMK AC1CI1 TR AC CI SLP276

CYWG;2007-06-28 14:00;CYWG 281400Z 21003KT 15SM FEW028 FEW100 FEW250 15/09 A3033 RMK CU1AC1CI1 TR AC CI SLP276

CYWG;2007-06-28 15:00;CYWG 281500Z 11002KT 15SM FEW028 16/09 A3032 RMK SC2 SLP272

CYWG;2007-06-28 16:00;CYWG 281600Z 10002KT 15SM SCT036 17/08 A3031 RMK SC4 SLP269

CYWG;2007-06-28 17:00;CYWG 281700Z 27002KT 15SM BKN036 17/09 A3031 RMK SC6 SLP268

CYWG;2007-06-28 18:00;CYWG 281800Z 22003KT 15SM BKN040 BKN250 18/09 A3030 RMK SC5CI1 COTRA SLP265

CYWG;2007-06-28 19:00;CYWG 281900Z 14002KT 15SM BKN038 BKN250 18/09 A3028 RMK CU6CI0 SLP260

CYWG;2007-06-28 20:00;CYWG 282000Z 29006KT 15SM BKN040 BKN250 19/10 A3027 RMK CU5CI0 SLP256

CYWG;2007-06-28 21:00;CYWG 282100Z 36003KT 15SM BKN040 BKN250 19/10 A3025 RMK CU5CI0 SLP249

CYWG;2007-06-28 22:00;CYWG 282200Z 00000KT 15SM BKN042 19/10 A3024 RMK CU5 SLP246

CYWG;2007-06-28 23:00;CYWG 282300Z 30004KT 15SM BKN042 BKN250 19/10 A3022 RMK CU6CI1 CI TR SLP241

CYWG;2007-06-29 00:00;CYWG 290000Z 32003KT 15SM SCT042 19/11 A3022 RMK CU4 SLP237

CYWG;2007-06-29 01:00;CYWG 290100Z 30004KT 15SM FEW044 19/11 A3021 RMK CU2 SLP235

CYWG;2007-06-29 02:00;CYWG 290200Z 29005KT 15SM FEW040 17/11 A3021 RMK SC1 SLP234

CYWG;2007-06-29 03:00;CYWG 290300Z 29004KT 15SM FEW040 14/11 A3022 RMK SC1 TR SC SLP236

CYWG;2007-06-29 04:00;CYWG 290400Z 29004KT 15SM SKC 13/10 A3022 RMK SLP237

CYWG;2007-06-29 05:00;CYWG 290500Z 26004KT 15SM SKC 11/10 A3022 RMK SLP238

CYWG;2007-06-29 06:00;CYWG 290600Z 28005KT 15SM SKC 11/09 A3022 RMK SLP238

CYWG;2007-06-29 07:00;CYWG 290700Z 27005KT 15SM FEW100 10/09 A3022 RMK AC1 SLP238

CYWG;2007-06-29 08:00;CYWG 290800Z 28003KT 15SM FEW250 09/09 A3022 RMK CI1 SLP237

CYWG;2007-06-29 09:00;CYWG 290900Z 29002KT 15SM FEW250 08/08 A3022 RMK CI1 SLP237

CYWG;2007-06-29 10:00;CYWG 291000Z 00000KT 15SM MIFG FEW250 08/08 A3022 RMK CI0 SLP237

CYWG;2007-06-29 11:00;CYWG 291100Z 29002KT 15SM FEW250 09/08 A3023 RMK CI0 SLP241

CYWG;2007-06-29 12:00;CYWG 291200Z 00000KT 15SM FEW100 FEW250 11/10 A3023 RMK AC1CI0 SLP242

CYWG;2007-06-29 13:00;CYWG 291300Z 04004KT 15SM FEW100 FEW250 15/12 A3023 RMK AC1CI0 SLP242

CYWG;2007-06-29 14:00;CYWG 291400Z 06002KT 15SM SCT250 17/12 A3023 RMK CC1 SLP242

CYWG;2007-06-29 15:00;CYWG 291500Z 10005KT 15SM FEW100 BKN250 19/11 A3022 RMK AC1CI1 SLP235

CYWG;2007-06-29 16:00;CYWG 291600Z 16004KT 15SM FEW035 FEW094 BKN250 20/12 A3022 RMK CU1AC2CI0 SLP238

CYWG;2007-06-29 17:00;CYWG 291700Z 11004KT 15SM FEW035 FEW100 BKN270 21/11 A3022 RMK CU1AC1CI1 SLP236

CYWG;2007-06-29 18:00;CYWG 291800Z 10005KT 15SM FEW041 SCT092 BKN270 20/11 A3021 RMK CU2AC2CI1 SLP234

CYWG;2007-06-29 19:00;CYWG 291900Z 11007KT 15SM FEW046 SCT090 BKN270 22/12 A3019 RMK CU1AC2CI1 SLP228

CYWG;2007-06-29 20:00;CYWG 292000Z 10005KT 15SM FEW046 FEW090 BKN270 22/12 A3018 RMK CU1AC1CI1 SLP223

CYWG;2007-06-29 21:00;CYWG 292100Z 18005KT 15SM FEW046 BKN270 22/12 A3018 RMK CU1CI2 SLP223

CYWG;2007-06-29 22:00;CYWG 292200Z 13004KT 15SM FEW048 FEW100 BKN260 22/11 A3016 RMK CU1AC2CI0 SLP217

CYWG;2007-06-29 23:00;CYWG 292300Z 10006KT 15SM FEW051 SCT100 BKN260 23/12 A3014 RMK CU1AC2CI1 SLP210

CYWG;2007-06-30 00:00;CYWG 300000Z 17006KT 15SM FEW051 FEW100 FEW260 23/12 A3013 RMK CU1AC1CI0 SLP207

CYWG;2007-06-30 01:00;CYWG 300100Z 15005KT 15SM FEW040 FEW100 FEW250 22/12 A3014 RMK CF1AC1CI0 SLP208

CYWG;2007-06-30 02:00;CYWG 300200Z 17003KT 15SM FEW032 FEW100 FEW250 20/13 A3013 RMK CF1AC1CI0 SLP206

CYWG;2007-06-30 03:00;CYWG 300300Z 03004KT 15SM FEW100 FEW250 18/14 A3014 RMK AC1CI0 SLP207

CYWG;2007-06-30 04:00;CYWG 300400Z 07006KT 15SM FEW100 17/14 A3015 RMK AC1 SLP211

CYWG;2007-06-30 05:00;CYWG 300500Z 07005KT 15SM FEW100 15/12 A3016 RMK AC1 SLP213

CYWG;2007-06-30 06:00;CYWG 300600Z 00000KT 15SM FEW100 15/12 A3015 RMK AC1 SLP213

CYWG;2007-06-30 07:00;CYWG 300700Z 05005KT 15SM FEW100 13/12 A3015 RMK AC1 SLP211

CYWG;2007-06-30 08:00;CYWG 300800Z 09006KT 15SM FEW100 15/12 A3013 RMK AC1 SLP205

CYWG;2007-06-30 09:00;CYWG 300900Z 09007KT 15SM SCT090 15/12 A3012 RMK AC3 SLP203

CYWG;2007-06-30 10:00;CYWG 301000Z 10010KT 15SM BKN086 16/12 A3013 RMK AC6 SLP206

CYWG;2007-06-30 11:00;CYWG 301100Z 09008KT 15SM OVC076 16/12 A3014 RMK AC8 SLP209

CYWG;2007-06-30 12:00;CYWG 301200Z 11010KT 15SM OVC074 16/12 A3014 RMK AC8 SLP208

CYWG;2007-06-30 13:00;CYWG 301300Z 11010KT 15SM OVC074 16/12 A3016 RMK AC8 SLP214

CYWG;2007-06-30 14:00;CYWG 301400Z 09007KT 15SM OVC074 17/13 A3017 RMK AC8 SLP218

CYWG;2007-06-30 15:00;CYWG 301500Z 12010KT 15SM SCT076 BKN098 OVC250 19/13 A3015 RMK AC3AC2CI0 SLP211

CYWG;2007-06-30 16:00;CYWG 301600Z 14009KT 15SM FEW070 BKN100 OVC250 20/14 A3015 RMK AC2AC4CI1 SLP211

CYWG;2007-06-30 17:00;CYWG 301700Z 09009KT 15SM SCT070 OVC095 21/15 A3016 RMK AC3AS5 SLP214

CYWG;2007-06-30 18:00;CYWG 301800Z 10012KT 15SM BKN072 OVC095 22/15 A3014 RMK AC5AS3 SLP209

CYWG;2007-06-30 19:00;CYWG 301900Z 11011KT 15SM FEW025 OVC068 22/15 A3013 RMK SC2AC6 SLP205

CYWG;2007-06-30 20:00;CYWG 302000Z 12010G17KT 15SM FEW035 BKN068 22/15 A3012 RMK SC1AC6 SLP204

CYWG;2007-06-30 21:00;CYWG 302100Z 13013KT 15SM BKN065 BKN250 23/15 A3009 RMK SC5CI2 SLP190

CYWG;2007-06-30 22:00;CYWG 302200Z 11011G17KT 15SM BKN067 OVC250 23/15 A3009 RMK AC6CI2 SLP193

CYWG;2007-06-30 23:00;CYWG 302300Z 11015KT 15SM SCT064 BKN250 24/14 A3009 RMK SC4CI3 SLP190

CYWG;2007-07-01 01:00;CYWG 010100Z 11016KT 15SM SCT065 BKN110 BKN250 22/14 A3008 RMK SC3AC2CI2 SLP187

CYWG;2007-07-01 02:00;CYWG 010200Z 11014G19KT 15SM FEW065 BKN094 BKN250 21/13 A3009 RMK SC2AC3CI2 SLP191

CYWG;2007-07-01 03:00;CYWG 010300Z 11011G18KT 15SM FEW065 BKN090 21/12 A3011 RMK SC2AC6 SLP198

CYWG;2007-07-01 04:00;CYWG 010400Z 11017G22KT 15SM BKN061 21/12 A3011 RMK SC7 SLP199

CYWG;2007-07-01 05:00;CYWG 010500Z 12015KT 15SM SCT060 BKN085 20/12 A3011 RMK SC4AC3 SLP198

CYWG;2007-07-01 06:00;CYWG 010600Z 13016G22KT 15SM SCT063 BKN093 20/12 A3009 RMK SC4AC3 SLP192

CYWG;2007-07-01 07:00;CYWG 010700Z 13011G16KT 15SM SCT060 BKN095 19/12 A3009 RMK SC3AC3 SLP192

CYWG;2007-07-01 08:00;CYWG 010800Z 14014KT 15SM BKN060 BKN100 19/12 A3008 RMK SC5AC2 SLP188

CYWG;2007-07-01 08:39;CYWG 010839Z 15014KT 15SM -SHRA FEW020 BKN080 19/ RMK SF2AC6

CYWG;2007-07-01 09:00;CYWG 010900Z 14014KT 15SM FEW020 OVC070 18/13 A3006 RMK SF2AC6 SLP179

CYWG;2007-07-01 10:00;CYWG 011000Z 15013KT 15SM FEW025 BKN080 OVC260 18/13 A3005 RMK SF1AC6CI1 SLP178

CYWG;2007-07-01 11:00;CYWG 011100Z 15011G18KT 15SM FEW038 BKN094 BKN260 19/13 A3006 RMK SC2AC4CI1 SLP180

CYWG;2007-07-01 12:00;CYWG 011200Z 15012G18KT 15SM SCT051 BKN120 OVC260 19/14 A3006 RMK SC3AC4CI1 SLP180

CYWG;2007-07-01 12:30;CYWG 011230Z 16011KT 15SM -SHRA SCT051 SCT076 OVC120 19/ RMK SC3AC1AC4

CYWG;2007-07-01 13:00;CYWG 011300Z 15013KT 15SM BKN051 BKN096 OVC230 18/14 A3007 RMK SC5AC1CI2 SLP182

CYWG;2007-07-01 14:00;CYWG 011400Z 16012KT 15SM SCT057 BKN097 OVC230 19/15 A3005 RMK SC4AC1CI3 SLP177

CYWG;2007-07-01 15:00;CYWG 011500Z 17015G21KT 15SM FEW057 BKN100 OVC230 20/14 A3004 RMK SC2AC3CI2 SLP173

CYWG;2007-07-01 16:00;CYWG 011600Z 17011KT 15SM FEW055 BKN095 OVC230 20/15 A3003 RMK SC2AC5CI1 SLP172

CYWG;2007-07-01 16:53;CYWG 011653Z 14011KT 15SM -SHRA SCT075 BKN091 OVC230 20/ RMK AC4AC3CI1

CYWG;2007-07-01 17:00;CYWG 011700Z 13010G15KT 15SM -SHRA SCT075 BKN091 OVC230 21/15 A3001 RMK AC4AC3CI1 SLP165

CYWG;2007-07-01 17:35;CYWG 011735Z 15013G18KT 15SM FEW075 BKN091 OVC230 RMK AC2AC4CI2

CYWG;2007-07-01 18:00;CYWG 011800Z 14011KT 15SM FEW030 FEW075 BKN091 OVC230 21/15 A3003 RMK CU1AC2AC4CI2 SLP169

CYWG;2007-07-01 19:00;CYWG 011900Z 14011KT 15SM FEW036 BKN096 OVC230 22/16 A3002 RMK CU2AC4CI2 SLP165

CYWG;2007-07-01 19:17;CYWG 011917Z 14011G16KT 15SM -SHRA SCT036 BKN081 OVC230 RMK CU3AC3CI2 TCU EMBD

CYWG;2007-07-01 20:00;CYWG 012000Z 12010G15KT 15SM -SHRA FEW036 BKN044 OVC079 21/17 A3002 RMK CU1SC5AC2 SLP165

CYWG;2007-07-01 20:27;CYWG 012027Z 13007KT 15SM FEW044 BKN079 OVC230 21/ RMK SC2AC5CI1

CYWG;2007-07-01 20:45;CYWG 012045Z 13008KT 15SM -SHRA SCT046 BKN079 OVC230 21/ RMK SC3AC3CI2

CYWG;2007-07-01 21:00;CYWG 012100Z 12009KT 15SM -SHRA BKN046 BKN079 OVC230 22/17 A3002 RMK SC5AC2CI1 SLP168

CYWG;2007-07-01 22:00;CYWG 012200Z 14012G20KT 15SM -SHRA FEW019 SCT050 BKN110 20/17 A2998 RMK CF1SC3AC3 HVR SHWR W SLP155

CYWG;2007-07-01 22:27;CYWG 012227Z 15013KT 15SM -TSRA FEW019 SCT050 BKN110 OVC230 20/ RMK CF1SC2AC4CI1 CB + LTNG W

CYWG;2007-07-01 23:00;CYWG 012300Z 19016G22KT 5SM TSRA BKN017 OVC076 19/18 A2999 RMK SC6AC2 CB EMBD LTGICCG SLP159

CYWG;2007-07-02 00:00;CYWG 020000Z 17022G30KT 15SM TS FEW012 BKN075CB BKN230 21/18 A2993 RMK SF1CB4CI1 CB SW SLP138

CYWG;2007-07-02 00:13;CYWG 020013Z 16016G26KT 15SM SCT075CB BKN140 BKN230 21/ RMK CB3AC2CI1 CB SE

CYWG;2007-07-02 00:21;CYWG 020021Z CCA 16016G26KT 15SM SCT075CB BKN140 BKN230 21/ RMK CB3AC2CI1 CB SE RETS

CYWG;2007-07-02 01:00;CYWG 020100Z 16016KT 15SM FEW062 BKN140 BKN230 22/17 A2995 RMK SC2AC2CI0 CB TOPS N-SE + S RETS SLP142

CYWG;2007-07-02 02:00;CYWG 020200Z 15011G16KT 15SM BKN049 BKN084 BKN230 21/17 A2995 RMK SC5AC2CI0 CB SE SLP142

CYWG;2007-07-02 03:00;CYWG 020300Z 15013KT 15SM BKN044 BKN086 20/17 A2993 RMK SC5AC2 SLP136

CYWG;2007-07-02 04:00;CYWG 020400Z 14011KT 15SM BKN044 BKN079 21/17 A2994 RMK SC5AC2 SLP141

CYWG;2007-07-02 05:00;CYWG 020500Z 15010G15KT 15SM BKN044 21/17 A2994 RMK SC5 SLP140

CYWG;2007-07-02 06:00;CYWG 020600Z 14007KT 15SM BKN044 20/17 A2993 RMK SC6 SLP135

CYWG;2007-07-02 07:00;CYWG 020700Z 16004KT 15SM FEW046 FEW250 19/17 A2992 RMK SC1CI0 SLP132

CYWG;2007-07-02 08:00;CYWG 020800Z 00000KT 15SM FEW110 17/16 A2991 RMK AC1 SLP130

CYWG;2007-07-02 09:00;CYWG 020900Z 18005KT 15SM SKC 17/16 A2990 RMK SLP128

CYWG;2007-07-02 10:00;CYWG 021000Z 24002KT 15SM MIFG FEW110 FEW250 16/15 A2991 RMK AC1CI0 SLP129

CYWG;2007-07-02 11:00;CYWG 021100Z 30003KT 8SM R13/1800FT/N MIFG FEW001 FEW100 14/13 A2992 RMK SF1AC1 VIS NW 2 SLP132

CYWG;2007-07-02 11:09;CYWG 021109Z 00000KT 1SM R13/1200FT/N R36/3500VP6000FT/D BR FEW001 FEW100 14/ RMK FG2SF1AC1 VIS LWR NW

CYWG;2007-07-02 11:23;CYWG 021123Z CCA 00000KT 3/8SM R13/1600FT/N R36/1600FT/N FG SCT001 SCT100 15/ RMK FG2SF1AC1 VIS SW-SE 5

CYWG;2007-07-02 11:29;CYWG 021129Z 00000KT 1/4SM R13/1400FT/N R36/1400V2400FT/N FG BKN001 15/ RMK FG6SF1 VIS SW-SE 3

CYWG;2007-07-02 12:00;CYWG 021200Z 35003KT 1/4SM R13/1600FT/N R36/1200V2000FT/U FG VV001 15/15 A2993 RMK FG8 SLP138

CYWG;2007-07-02 13:00;CYWG 021300Z 23002KT 5/8SM R13/1200V1800FT/U R36/3000VP6000FT/U BR OVC004 17/16 A2995 RMK FG6ST2 VIS SE 2 SLP145

CYWG;2007-07-02 13:15;CYWG 021315Z 31003KT 1 1/2SM BR SCT001 OVC004 17/ RMK FG3SF1ST4

CYWG;2007-07-02 13:40;CYWG 021340Z 32004KT 2 1/2SM BR OVC002 18/ RMK SF8

CYWG;2007-07-02 14:00;CYWG 021400Z 33004KT 5SM BR OVC002 18/17 A2996 RMK ST8 SLP149

CYWG;2007-07-02 14:26;CYWG 021426Z CCA 32004KT 6SM BR OVC005 19/ RMK ST8

CYWG;2007-07-02 15:00;CYWG 021500Z 32005KT 10SM OVC006 20/18 A2996 RMK ST8 SLP148

CYWG;2007-07-02 16:00;CYWG 021600Z 03008KT 10SM BKN010 21/19 A2997 RMK SC7 SLP149

CYWG;2007-07-02 16:36;CYWG 021636Z 02004KT 15SM FEW015 BKN280 23/ RMK CU2CI1

CYWG;2007-07-02 17:00;CYWG 021700Z 01003KT 15SM SCT017 BKN280 23/19 A2997 RMK CU3CI1 SLP150

CYWG;2007-07-02 18:00;CYWG 021800Z 28002KT 15SM FEW018 BKN280 24/20 A2996 RMK CU1CI2 SLP147

CYWG;2007-07-02 19:00;CYWG 021900Z 35003KT 15SM FEW023 BKN280 26/20 A2995 RMK CU1CI2 CB TOP DIST NW SLP142

CYWG;2007-07-02 20:00;CYWG 022000Z 36004KT 15SM FEW030 BKN280 26/18 A2995 RMK CU1CI2 SLP143

CYWG;2007-07-02 21:00;CYWG 022100Z 05003KT 15SM FEW035 BKN280 27/17 A2995 RMK CU1CI1 SLP141

CYWG;2007-07-02 22:00;CYWG 022200Z 33006KT 15SM FEW035 SCT280 28/18 A2995 RMK CU1CI1 SLP142

CYWG;2007-07-02 23:00;CYWG 022300Z 29003KT 15SM FEW035 OVC280 28/19 A2995 RMK CU1CI2 TCU ASOCTD WNW SLP141

CYWG;2007-07-03 00:00;CYWG 030000Z 30007KT 15SM FEW035TCU FEW075 OVC280 27/18 A2995 RMK TCU1AC1CI2 CC ASOCTD SLP142

CYWG;2007-07-03 01:00;CYWG 030100Z 27004KT 15SM FEW035 OVC250 26/18 A2995 RMK SC1CI4 SLP141

CYWG;2007-07-03 02:00;CYWG 030200Z 25004KT 15SM FEW080 OVC250 23/18 A2995 RMK ACC1CI6 SLP142

CYWG;2007-07-03 03:00;CYWG 030300Z 20003KT 15SM FEW035TCU FEW110 OVC250 22/17 A2994 RMK TCU1AC1CI3 SLP139

CYWG;2007-07-03 04:00;CYWG 030400Z 16004KT 15SM FEW100 BKN250 21/17 A2994 RMK AC2CI1 SLP138

CYWG;2007-07-03 05:00;CYWG 030500Z 18006KT 15SM FEW065 BKN250 20/16 A2994 RMK SC2CI1 SLP138

CYWG;2007-07-03 06:00;CYWG 030600Z 17007KT 15SM BKN059 20/16 A2993 RMK SC6 SLP135

CYWG;2007-07-03 07:00;CYWG 030700Z 18006KT 15SM FEW100 BKN250 20/15 A2991 RMK AC1CI2 SLP129

CYWG;2007-07-03 08:00;CYWG 030800Z 20010KT 15SM BKN250 21/14 A2990 RMK CI2 SLP126

CYWG;2007-07-03 09:00;CYWG 030900Z 21010KT 15SM SCT060 BKN072 21/15 A2988 RMK SC3AC2 SLP119

CYWG;2007-07-03 09:28;CYWG 030928Z 21010G15KT 15SM -RA BKN018 19/ RMK SC7 LTNG NE

CYWG;2007-07-03 09:52;CYWG 030952Z 24008KT 15SM BKN018 20/ RMK SC7

CYWG;2007-07-03 10:00;CYWG 031000Z 23008KT 15SM BKN018 OVC110 20/16 A2990 RMK SC5AC3 ACC ASOCTD SLP125

CYWG;2007-07-03 10:42;CYWG 031042Z CCA 20007KT 10SM -SHRA BKN018 OVC110 20/ RMK SC5AC3 ACC ASOCTD

CYWG;2007-07-03 11:00;CYWG 031100Z 18008KT 15SM VCSH SCT018 BKN110 OVC250 20/17 A2990 RMK SC3AC4CI1 SHWRS NE+SW SLP123

CYWG;2007-07-03 11:13;CYWG 031113Z 20008KT 12SM -SHRA BKN018 OVC110 20/ RMK SC5AC3 ACC ASOCTD

CYWG;2007-07-03 11:44;CYWG 031144Z 20011KT 15SM BKN039 OVC110 21/ RMK SC5AC3 ACC ASOCTD

CYWG;2007-07-03 12:00;CYWG 031200Z 19010KT 15SM BKN039 OVC110 20/16 A2990 RMK SC5AC3 SLP126

CYWG;2007-07-03 13:00;CYWG 031300Z 23002KT 15SM VCSH BKN052 OVC110 20/17 A2991 RMK SC5AC3 SLP127

CYWG;2007-07-03 14:00;CYWG 031400Z 16006KT 15SM BKN059 BKN095 BKN280 21/18 A2990 RMK SC5AC2CI1 SLP126

CYWG;2007-07-03 15:00;CYWG 031500Z 16008KT 15SM SCT110 BKN280 23/19 A2990 RMK AC4CI1 SLP124

CYWG;2007-07-03 16:00;CYWG 031600Z 20008KT 15SM BKN110 BKN280 24/18 A2989 RMK AC6CI1 SLP122

CYWG;2007-07-03 17:00;CYWG 031700Z 25005KT 15SM BKN094 25/19 A2990 RMK AC7 SLP123

CYWG;2007-07-03 18:00;CYWG 031800Z 27007KT 15SM SCT094 BKN280 26/19 A2990 RMK AC3CI1 SLP123

CYWG;2007-07-03 19:00;CYWG 031900Z 29004KT 15SM FEW032 FEW099 SCT280 27/19 A2989 RMK CU1AC1CI1 TR CU SLP121

CYWG;2007-07-03 20:00;CYWG 032000Z 28007KT 15SM FEW036 FEW100 SCT290 28/20 A2988 RMK CU1AC1CI1 TR AC SLP119

CYWG;2007-07-03 21:00;CYWG 032100Z 34011KT 15SM FEW036TCU SCT080 SCT300 28/18 A2988 RMK TCU2AC1CI1 SLP117

CYWG;2007-07-03 22:00;CYWG 032200Z 32006KT 15SM FEW040TCU FEW100 SCT300 28/18 A2988 RMK TCU2AC1CI1 SLP118

CYWG;2007-07-03 23:00;CYWG 032300Z 32010KT 15SM FEW040TCU FEW100 FEW300 28/19 A2989 RMK TCU1AC1CI1 TR AC SLP119

CYWG;2007-07-04 00:00;CYWG 040000Z 31009KT 15SM FEW040TCU FEW100 FEW300 27/18 A2987 RMK TCU1AC1CI1 TR AC CB NE+SE QUAD ACSL ASOCTD S QUAD SLP115

CYWG;2007-07-04 01:00;CYWG 040100Z 29006KT 15SM FEW030TCU FEW300 26/19 A2987 RMK TCU1CI0 CB TOPS DSTNT SE QUAD SLP114

CYWG;2007-07-04 02:00;CYWG 040200Z 29006KT 15SM FEW040 FEW300 23/18 A2989 RMK CU1CI1 TR CU CI CB TOPS DSTNT E+S QUADS SLP120

CYWG;2007-07-04 03:00;CYWG 040300Z 32004KT 15SM FEW100 FEW300 20/18 A2990 RMK AC1CI0 SLP127

CYWG;2007-07-04 04:00;CYWG 040400Z 30006KT 15SM FEW300 18/17 A2992 RMK CI0 SLP133

CYWG;2007-07-04 05:00;CYWG 040500Z 30006KT 15SM SKC 17/16 A2993 RMK SLP136

CYWG;2007-07-04 06:00;CYWG 040600Z 29005KT 15SM SKC 17/16 A2993 RMK SLP134

CYWG;2007-07-04 07:00;CYWG 040700Z 28004KT 15SM SKC 16/15 A2992 RMK SLP132

CYWG;2007-07-04 08:00;CYWG 040800Z 27005KT 15SM SKC 16/15 A2992 RMK SLP133

CYWG;2007-07-04 09:00;CYWG 040900Z 27007KT 15SM SKC 16/15 A2993 RMK SLP135

CYWG;2007-07-04 10:00;CYWG 041000Z 27007KT 15SM FEW100 FEW300 16/15 A2992 RMK AC1CI0 SLP133

CYWG;2007-07-04 11:00;CYWG 041100Z 31002KT 15SM FEW100 FEW240 15/14 A2993 RMK AC1CI1 SLP136

CYWG;2007-07-04 12:00;CYWG 041200Z 26003KT 15SM FEW100 17/15 A2993 RMK AC1 SLP137

CYWG;2007-07-04 13:00;CYWG 041300Z 27006KT 15SM FEW240 19/16 A2994 RMK CI1 SLP138

CYWG;2007-07-04 14:00;CYWG 041400Z 30009KT 15SM FEW240 21/17 A2993 RMK CI1 SLP137

CYWG;2007-07-04 15:00;CYWG 041500Z 28011KT 15SM FEW240 24/18 A2994 RMK CI2 SLP140

CYWG;2007-07-04 16:00;CYWG 041600Z 27011KT 15SM FEW092 BKN240 24/18 A2995 RMK AC1CI2 ACC ASOCTD SLP141

CYWG;2007-07-04 17:00;CYWG 041700Z 29011KT 15SM SCT096 BKN240 24/17 A2995 RMK AC3CI4 SLP142

CYWG;2007-07-04 18:00;CYWG 041800Z 29012KT 15SM FEW060 SCT094 BKN240 25/18 A2996 RMK CU2AC2CI3 TCU ACC ASOCTD SLP146

CYWG;2007-07-04 19:00;CYWG 041900Z 31016KT 15SM FEW060 BKN095 BKN240 26/17 A2996 RMK CU2AC3CI2 TCU ACC ASOCTD SLP148

CYWG;2007-07-04 20:00;CYWG 042000Z 33012KT 15SM BKN095 BKN240 25/16 A2996 RMK AC6CI2 ACC ASOCTD SLP148

CYWG;2007-07-04 21:00;CYWG 042100Z 34011G16KT 15SM SCT095 BKN240 25/17 A2997 RMK AC4CI2 ACC ASOCTD SLP150

CYWG;2007-07-04 22:00;CYWG 042200Z 36006KT 15SM SCT095 BKN240 24/15 A2996 RMK AC4CI2 ACC ASOCTD SLP145

CYWG;2007-07-04 23:00;CYWG 042300Z 32002KT 15SM FEW093 BKN240 24/15 A2994 RMK AC2CI2 CB TOP W SLP141

CYWG;2007-07-05 00:00;CYWG 050000Z 28003KT 15SM FEW060 BKN093 BKN240 23/17 A2994 RMK CU2AC3CI2 CB TOP W-S SLP141

CYWG;2007-07-05 01:00;CYWG 050100Z 26004KT 15SM FEW018 BKN051CB BKN081 BKN240 22/17 A2994 RMK SC1CB4AC1CI1 SLP141

CYWG;2007-07-05 02:00;CYWG 050200Z 26005KT 15SM FEW049 BKN076 BKN240 21/17 A2993 RMK SC2AC3CI1 CB TOP S SLP135

CYWG;2007-07-05 03:00;CYWG 050300Z 27004KT 15SM FEW100 FEW240 18/16 A2994 RMK AC1CI0 SLP140

CYWG;2007-07-05 04:00;CYWG 050400Z 29005KT 15SM FEW100 16/14 A2996 RMK AC1 SLP145

CYWG;2007-07-05 05:00;CYWG 050500Z 26006KT 15SM FEW100 SCT240 17/15 A2997 RMK AC2CI1 SLP148

CYWG;2007-07-05 06:00;CYWG 050600Z 34005KT 15SM FEW100 FEW250 16/14 A2999 RMK AC1CI1 SLP156

CYWG;2007-07-05 07:00;CYWG 050700Z 29004KT 15SM FEW100 15/14 A2999 RMK AC2 SLP155

CYWG;2007-07-05 08:00;CYWG 050800Z 28006KT 15SM SKC 15/14 A2999 RMK SLP156

CYWG;2007-07-05 09:00;CYWG 050900Z 28005KT 15SM FEW100 14/13 A2999 RMK AC1 SLP159

CYWG;2007-07-05 10:00;CYWG 051000Z 30006KT 15SM FEW100 14/13 A3001 RMK ACC1 SLP163

CYWG;2007-07-05 11:00;CYWG 051100Z 30005KT 15SM FEW100 13/13 A3002 RMK AC1 SLP168

CYWG;2007-07-05 12:00;CYWG 051200Z 31005KT 15SM SKC 16/15 A3004 RMK SLP174

CYWG;2007-07-05 13:00;CYWG 051300Z 33006KT 15SM SKC 19/17 A3006 RMK SLP180

CYWG;2007-07-05 14:00;CYWG 051400Z 33008KT 15SM FEW018 21/16 A3007 RMK CU1 SLP185

CYWG;2007-07-05 15:00;CYWG 051500Z 31008KT 15SM FEW022 22/17 A3007 RMK CU1 SLP185

CYWG;2007-07-05 16:00;CYWG 051600Z 33009G15KT 15SM FEW030 23/16 A3008 RMK CU1 SLP187

CYWG;2007-07-05 17:00;CYWG 051700Z 36010KT 15SM FEW035 24/15 A3009 RMK CU2 SLP191

CYWG;2007-07-05 18:00;CYWG 051800Z 34006KT 15SM SCT040 24/15 A3009 RMK CU3 SLP192

CYWG;2007-07-05 19:00;CYWG 051900Z 36010KT 15SM FEW042 25/15 A3010 RMK CU2 SLP194

CYWG;2007-07-05 20:00;CYWG 052000Z 32010KT 15SM FEW039 25/17 A3010 RMK CU2 SLP193

CYWG;2007-07-05 21:00;CYWG 052100Z 32009KT 15SM SCT039 25/16 A3009 RMK CU3 SLP190

CYWG;2007-07-05 22:00;CYWG 052200Z 29010G15KT 15SM FEW039 26/16 A3009 RMK CU2 TCU ASOCTD N-SE SLP190

CYWG;2007-07-05 23:00;CYWG 052300Z 30011KT 15SM FEW043TCU 25/15 A3008 RMK TCU2 SLP188

CYWG;2007-07-06 00:00;CYWG 060000Z 31009KT 15SM FEW045TCU 25/15 A3008 RMK TCU1 SLP187

CYWG;2007-07-06 01:00;CYWG 060100Z 32005KT 15SM FEW045TCU 24/15 A3008 RMK TCU1 SLP186

CYWG;2007-07-06 02:00;CYWG 060200Z 28006KT 15SM FEW045 21/16 A3008 RMK CU1 SLP186

CYWG;2007-07-06 03:00;CYWG 060300Z 28008KT 15SM SKC 17/15 A3008 RMK SLP188

CYWG;2007-07-06 04:00;CYWG 060400Z 27006KT 15SM SKC 17/15 A3009 RMK SLP189

CYWG;2007-07-06 05:00;CYWG 060500Z 27006KT 15SM SKC 17/14 A3009 RMK SLP189

CYWG;2007-07-06 06:00;CYWG 060600Z 27006KT 15SM SKC 16/14 A3009 RMK SLP189

CYWG;2007-07-06 07:00;CYWG 060700Z 26006KT 15SM SKC 16/14 A3009 RMK SLP189

CYWG;2007-07-06 08:00;CYWG 060800Z 24007KT 15SM SKC 17/15 A3009 RMK SLP189

CYWG;2007-07-06 09:00;CYWG 060900Z 24004KT 15SM SKC 15/14 A3008 RMK SLP187

CYWG;2007-07-06 10:00;CYWG 061000Z 24004KT 15SM FEW270 16/13 A3008 RMK CI1 SLP186

CYWG;2007-07-06 11:00;CYWG 061100Z 23007KT 15SM FEW270 16/14 A3006 RMK CI1 SLP182

CYWG;2007-07-06 12:00;CYWG 061200Z 23006KT 15SM FEW270 19/15 A3006 RMK CI1 SLP181

CYWG;2007-07-06 13:00;CYWG 061300Z 23007KT 15SM FEW270 20/16 A3006 RMK CI0 SLP178

CYWG;2007-07-06 14:00;CYWG 061400Z 23008KT 15SM FEW270 23/16 A3005 RMK CI1 SLP175

CYWG;2007-07-06 15:00;CYWG 061500Z 21010KT 15SM FEW270 24/17 A3002 RMK CI2 SLP165

CYWG;2007-07-06 16:00;CYWG 061600Z 22008KT 15SM BKN270 26/17 A3000 RMK CI2 SLP161

CYWG;2007-07-06 17:00;CYWG 061700Z 20012KT 15SM BKN270 26/17 A2998 RMK CI2 SLP153

CYWG;2007-07-06 18:00;CYWG 061800Z 20011KT 15SM FEW270 28/17 A2996 RMK CI1 SLP146

CYWG;2007-07-06 19:00;CYWG 061900Z 21011G18KT 15SM FEW048 SCT290 28/17 A2994 RMK CU1CI0 SLP140

CYWG;2007-07-06 20:00;CYWG 062000Z 21014KT 15SM FEW048 FEW120 FEW290 29/17 A2992 RMK CU1AC1CI0 CU AC TR SLP133

CYWG;2007-07-06 21:00;CYWG 062100Z 21016G22KT 15SM FEW048 FEW290 29/17 A2989 RMK CU1CI1 CU TR SLP120

CYWG;2007-07-06 22:00;CYWG 062200Z 22013G22KT 15SM SCT260 29/17 A2986 RMK CI1 SLP112

CYWG;2007-07-06 23:00;CYWG 062300Z 21018KT 15SM FEW260 29/16 A2984 RMK CI1 SLP105

CYWG;2007-07-07 00:00;CYWG 070000Z 21014KT 15SM FEW280 29/18 A2982 RMK CI1 SLP098

CYWG;2007-07-07 01:00;CYWG 070100Z 21014G19KT 15SM FEW090 SCT280 28/18 A2980 RMK AC1CI1 AC TR SLP092

CYWG;2007-07-07 02:00;CYWG 070200Z 19009KT 15SM FEW090 SCT280 26/17 A2978 RMK AC1CI0 SLP084

CYWG;2007-07-07 03:00;CYWG 070300Z 20009KT 15SM FEW090 SCT280 25/18 A2977 RMK AC1CI0 SLP080

CYWG;2007-07-07 04:00;CYWG 070400Z 20012KT 15SM FEW090 SCT280 24/17 A2975 RMK AC1CI1 SLP073

CYWG;2007-07-07 05:00;CYWG 070500Z 19010KT 15SM FEW280 22/17 A2974 RMK CI1 SLP068

CYWG;2007-07-07 06:00;CYWG 070600Z 20014KT 15SM FEW090 FEW280 23/17 A2972 RMK AC1CI0 SLP061

CYWG;2007-07-07 07:00;CYWG 070700Z 19013KT 15SM FEW110 SCT280 22/17 A2970 RMK AC2CI0 SLP055

CYWG;2007-07-07 08:00;CYWG 070800Z 20012KT 15SM FEW110 FEW280 21/16 A2969 RMK AC2CI0 SLP052

CYWG;2007-07-07 09:00;CYWG 070900Z 19012KT 15SM FEW110 FEW280 21/16 A2966 RMK AC2CI0 SLP042

CYWG;2007-07-07 10:00;CYWG 071000Z 19011G16KT 15SM FEW110 BKN280 21/16 A2964 RMK AC2CI2 CVCTV CLD EMBD SHWRS NE SLP037

CYWG;2007-07-07 11:00;CYWG 071100Z 19009KT 15SM FEW110 BKN280 20/16 A2963 RMK AC2CI2 SLP031

CYWG;2007-07-07 12:00;CYWG 071200Z 19012KT 15SM FEW110 BKN280 21/16 A2961 RMK AC1CI3 SLP026

CYWG;2007-07-07 13:00;CYWG 071300Z 20011KT 15SM FEW120 BKN280 22/17 A2960 RMK AC2CI2 SLP023

CYWG;2007-07-07 14:00;CYWG 071400Z 20012KT 15SM SCT090 BKN280 23/18 A2958 RMK AC2CI2 SLP017

CYWG;2007-07-07 15:00;CYWG 071500Z 23010KT 15SM -SHRA BKN090 BKN280 23/18 A2963 RMK AC6CI1 PRESRR CVCTV CLD EMBD SLP032

CYWG;2007-07-07 15:24;CYWG 071524Z 21002KT 15SM BKN094 BKN280 23/ RMK AC6CI1

CYWG;2007-07-07 16:00;CYWG 071600Z 10007KT 15SM SCT094 BKN280 25/19 A2953 RMK AC4CI2 PRESFR SLP999

CYWG;2007-07-07 17:00;CYWG 071700Z 29007G16KT 15SM FEW040 SCT095 BKN280 25/20 A2959 RMK CU2AC2CI2 PRESRR SLP019

CYWG;2007-07-07 18:00;CYWG 071800Z 06006KT 15SM FEW040 SCT095 BKN280 26/21 A2958 RMK CU1AC2CI2 SLP016

CYWG;2007-07-07 19:00;CYWG 071900Z 11005KT 10SM FEW095 BKN280 28/21 A2956 RMK AC1CI4 HZ SLP007

CYWG;2007-07-07 20:00;CYWG 072000Z 16006KT 15SM FEW095 BKN280 29/21 A2954 RMK ACC2CI2 SLP000

CYWG;2007-07-07 21:00;CYWG 072100Z 01011KT 15SM SCT032 SCT080 BKN280 28/22 A2956 RMK SC3AC1CI2 CU ASOCTD SLP008

CYWG;2007-07-07 22:00;CYWG 072200Z 02012G17KT 15SM BKN035 BKN092 BKN280 25/21 A2957 RMK SC5ACC1CI2 SLP010

CYWG;2007-07-07 23:00;CYWG 072300Z 01007KT 15SM BKN032 BKN092 OVC280 26/21 A2958 RMK SC6ACC1CI1 SLP016

CYWG;2007-07-08 00:00;CYWG 080000Z 02011KT 15SM FEW045 FEW086 OVC280 27/22 A2958 RMK SC1AC1CI2 SLP016

CYWG;2007-07-08 01:00;CYWG 080100Z CCA 02012KT 15SM FEW085 BKN280 25/21 A2959 RMK AC1CI2 TCU TOP SSE SLP019

CYWG;2007-07-08 02:00;CYWG 080200Z 01013KT 15SM FEW080 BKN280 25/20 A2960 RMK AC2CI2 TCU TOP SSE SLP023

CYWG;2007-07-08 03:00;CYWG 080300Z 36009KT 15SM FEW080 BKN280 23/19 A2962 RMK AC1CI2 SLP031

CYWG;2007-07-08 04:00;CYWG 080400Z 01008KT 15SM BKN280 21/18 A2964 RMK CI2 SLP036

CYWG;2007-07-08 05:00;CYWG 080500Z 01006KT 15SM BKN280 19/17 A2964 RMK CI2 SLP037

CYWG;2007-07-08 06:00;CYWG 080600Z 35006KT 15SM BKN280 17/16 A2966 RMK CI1 SLP042

CYWG;2007-07-08 07:00;CYWG 080700Z 36004KT 15SM BKN280 17/14 A2967 RMK CI0 SLP047

CYWG;2007-07-08 08:00;CYWG 080800Z 34006KT 15SM BKN280 15/14 A2968 RMK CI0 SLP050

CYWG;2007-07-08 09:00;CYWG 080900Z 32004KT 15SM SCT280 15/14 A2968 RMK CI0 SLP052

CYWG;2007-07-08 10:00;CYWG 081000Z 32005KT 15SM SCT280 14/13 A2970 RMK CI1 SLP056

CYWG;2007-07-08 11:00;CYWG 081100Z 36004KT 12SM BKN280 14/13 A2972 RMK CI1 BR SLP063

CYWG;2007-07-08 12:00;CYWG 081200Z 30004KT 15SM BKN280 16/15 A2975 RMK CI1 SLP074

CYWG;2007-07-08 13:00;CYWG 081300Z 34006KT 12SM FEW240 BKN280 19/17 A2976 RMK CC2CI0 BR SLP078

CYWG;2007-07-08 14:00;CYWG 081400Z 35008KT 12SM BKN280 21/16 A2977 RMK CI1 HZ SLP081

CYWG;2007-07-08 15:00;CYWG 081500Z 34007KT 12SM FEW030 BKN280 23/16 A2977 RMK CU1CI0 HZ SLP080

CYWG;2007-07-08 16:00;CYWG 081600Z 35008KT 15SM FEW040 BKN280 24/15 A2977 RMK CU2CI0 SLP082

CYWG;2007-07-08 17:00;CYWG 081700Z 33009KT 15SM FEW037 BKN280 24/16 A2977 RMK CF2CI2 SLP082

CYWG;2007-07-08 18:00;CYWG 081800Z 31012KT 15SM SCT040 BKN280 25/16 A2978 RMK CU3CI1 SLP085

CYWG;2007-07-08 19:00;CYWG 081900Z 32014G19KT 15SM SCT038 BKN280 25/16 A2979 RMK CU3CI1 TCU ASOCTD NE-E SLP087

CYWG;2007-07-08 20:00;CYWG 082000Z 32014KT 15SM FEW038TCU SCT140 BKN280 25/13 A2980 RMK TCU2AC1CI2 SLP090

CYWG;2007-07-08 21:00;CYWG 082100Z 31015KT 15SM FEW040TCU FEW093 BKN280 25/11 A2980 RMK TCU1AC2CI1 SLP093

CYWG;2007-07-08 22:00;CYWG 082200Z 32011G20KT 15SM FEW040TCU FEW095 FEW280 25/13 A2980 RMK TCU1AC1CI1 SLP093

CYWG;2007-07-08 23:00;CYWG 082300Z 34013G18KT 15SM FEW050 FEW100 FEW280 24/11 A2980 RMK CU1AC1CI1 TCU ASOCTD N-E SLP093

CYWG;2007-07-09 00:00;CYWG 090000Z 36014G19KT 15SM FEW050 FEW080 FEW280 23/11 A2980 RMK CU1AC1CI1 TCU ASOCTD N-E SLP094

CYWG;2007-07-09 01:00;CYWG 090100Z 34008KT 15SM FEW050 FEW080 BKN280 21/11 A2982 RMK CU1AC1CI2 CU TR SLP098

CYWG;2007-07-09 02:00;CYWG 090200Z 32007KT 15SM FEW050 FEW080 OVC280 19/12 A2983 RMK CU1AC2CI2 CU TR SLP101

CYWG;2007-07-09 03:00;CYWG 090300Z 36004KT 15SM FEW073 BKN280 17/12 A2985 RMK AC1CI2 SLP108

CYWG;2007-07-09 04:00;CYWG 090400Z 32004KT 15SM FEW070 BKN280 14/12 A2986 RMK AC1CI2 SLP112

CYWG;2007-07-09 05:00;CYWG 090500Z 35006KT 15SM BKN280 13/11 A2988 RMK CI2 SLP118

CYWG;2007-07-09 06:00;CYWG 090600Z 31004KT 15SM BKN280 12/11 A2989 RMK CI1 SLP123

CYWG;2007-07-09 07:00;CYWG 090700Z 30004KT 15SM FEW012 BKN280 11/10 A2990 RMK SF1CI1 SLP127

CYWG;2007-07-09 08:00;CYWG 090800Z 31004KT 15SM SCT280 10/09 A2990 RMK CI0 SLP128

CYWG;2007-07-09 09:00;CYWG 090900Z 32003KT 15SM SCT280 09/08 A2990 RMK CI0 SLP129

CYWG;2007-07-09 10:00;CYWG 091000Z 31004KT 15SM SCT280 08/08 A2991 RMK CI0 TCU TOPS DSNT NE SLP131

CYWG;2007-07-09 11:00;CYWG 091100Z 32003KT 15SM FEW014 FEW080 FEW270 09/08 A2992 RMK CU1AC1CI0 SLP134

CYWG;2007-07-09 12:00;CYWG 091200Z 33003KT 15SM SCT270 11/10 A2993 RMK CI0 TCU TOPS DST NE-NW SLP137

CYWG;2007-07-09 13:00;CYWG 091300Z 01002KT 15SM BKN270 15/12 A2994 RMK CI1 TCU TOPS DST NE AND NW SLP142

CYWG;2007-07-09 14:00;CYWG 091400Z 36005KT 15SM FEW018TCU FEW080 BKN270 17/12 A2997 RMK TCU1AC1CI2 TCU TOPS DST NE SLP150

CYWG;2007-07-09 15:00;CYWG 091500Z 01004KT 15SM FEW024 BKN270 18/12 A2995 RMK CU1CI2 SLP144

CYWG;2007-07-09 16:00;CYWG 091600Z 31002KT 15SM FEW028 SCT090 BKN270 19/12 A2995 RMK CU2AC1CI0 SLP144

CYWG;2007-07-09 17:00;CYWG 091700Z 36004KT 15SM FEW028 SCT090 BKN270 20/13 A2994 RMK CU2AC2CI1 SLP142

CYWG;2007-07-09 18:00;CYWG 091800Z 32002KT 15SM SCT034 BKN095 BKN270 20/12 A2993 RMK CU3AC2CI1 SLP137

CYWG;2007-07-09 19:00;CYWG 091900Z 00000KT 15SM SCT038 BKN098 BKN280 21/12 A2991 RMK CU4AC1CI1 SLP132

CYWG;2007-07-09 20:00;CYWG 092000Z 33004KT 15SM FEW042 BKN110 OVC280 21/12 A2990 RMK CU2AS4CI1 SLP129

CYWG;2007-07-09 21:00;CYWG 092100Z 36006KT 15SM FEW046 BKN120 OVC280 21/11 A2988 RMK CU1AS6CI1 VIRGA SLP123

CYWG;2007-07-09 22:00;CYWG 092200Z 03006KT 15SM FEW046 BKN120 OVC280 20/12 A2986 RMK CU1AC6CI1 TR CU SLP116

CYWG;2007-07-09 23:00;CYWG 092300Z 03004KT 15SM FEW068 OVC091 19/12 A2985 RMK AC2AC6 SLP111

CYWG;2007-07-09 23:05;CYWG 092305Z 04004KT 15SM -SHRA FEW068 OVC089 19/ RMK AC2AC6

CYWG;2007-07-09 23:56;CYWG 092356Z 10009KT 15SM FEW046 SCT068 OVC120 19/ RMK SC2AC2AS5

CYWG;2007-07-10 00:00;CYWG 100000Z 10009KT 15SM FEW046 SCT071 OVC120 19/12 A2982 RMK SC2AC2AS5 VIRGA SLP102

CYWG;2007-07-10 01:00;CYWG 100100Z 09005KT 15SM -RA BKN071 OVC088 18/12 A2982 RMK AC7AC1 SLP102

CYWG;2007-07-10 02:00;CYWG 100200Z 07005KT 15SM -RA BKN060 OVC073 17/13 A2982 RMK SC6AC2 SLP101

CYWG;2007-07-10 03:00;CYWG 100300Z 06003KT 10SM -RA OVC054 16/14 A2982 RMK SC8 SLP099

CYWG;2007-07-10 04:00;CYWG 100400Z 09006KT 10SM -RA OVC030 15/13 A2981 RMK SC8 SLP097

CYWG;2007-07-10 05:00;CYWG 100500Z 08005KT 10SM RA OVC019 15/13 A2979 RMK SC8 SLP091

CYWG;2007-07-10 06:00;CYWG 100600Z 09006KT 12SM RA OVC023 14/13 A2977 RMK SC8 SLP082

CYWG;2007-07-10 07:00;CYWG 100700Z 05009KT 12SM -RA OVC026 13/12 A2974 RMK SC8 SLP074

CYWG;2007-07-10 08:00;CYWG 100800Z 05010KT 10SM -RA OVC030 13/12 A2973 RMK SC8 SLP071

CYWG;2007-07-10 09:00;CYWG 100900Z 03010KT 10SM -RA OVC024 13/12 A2972 RMK SC8 SLP067

CYWG;2007-07-10 10:00;CYWG 101000Z 01008KT 15SM -RA OVC056 13/12 A2973 RMK SC8 SLP069

CYWG;2007-07-10 11:00;CYWG 101100Z 34008KT 15SM FEW030 OVC061 13/12 A2973 RMK SC2AC6 SLP070

CYWG;2007-07-10 12:00;CYWG 101200Z 36011KT 15SM SCT036 OVC060 14/13 A2974 RMK SC3AC5 SLP075

CYWG;2007-07-10 13:00;CYWG 101300Z 35013KT 15SM SCT034 OVC053 14/13 A2977 RMK SC3AC5 SLP085

CYWG;2007-07-10 14:00;CYWG 101400Z 34013KT 15SM FEW034 OVC056 15/13 A2980 RMK SC2AC6 SHRA N SLP094

CYWG;2007-07-10 15:00;CYWG 101500Z 34011KT 15SM FEW035TCU OVC056 16/13 A2982 RMK TCU1AC7 SLP102

CYWG;2007-07-10 16:00;CYWG 101600Z 35014G22KT 15SM FEW019 BKN081 18/14 A2984 RMK CU2AC5 SLP108

CYWG;2007-07-10 17:00;CYWG 101700Z 36016KT 15SM SCT033 SCT260 20/12 A2986 RMK CU2CI1 TCU EMBDD W AND S QUADS SLP115

CYWG;2007-07-10 18:00;CYWG 101800Z 01016KT 15SM FEW043 SCT260 21/10 A2987 RMK CU2CI2 SLP117

CYWG;2007-07-10 19:00;CYWG 101900Z 34014KT 15SM FEW050 SCT060CB BKN250 22/11 A2986 RMK CU2CB2CI2 CB W -SHRA W TO N SLP114

CYWG;2007-07-10 19:28;CYWG 101928Z 34012G22KT 15SM -SHRA FEW040 BKN050CB BKN250 17/ RMK CU2CB3CI2 CB MOVG SE

CYWG;2007-07-10 20:00;CYWG 102000Z 34016KT 15SM FEW021 SCT040CB BKN250 21/12 A2988 RMK CF1CB3CI2 -SHRA ALQDS SLP121

CYWG;2007-07-10 20:20;CYWG 102020Z 33011G20KT 15SM -SHRA FEW021 BKN040CB BKN250 17/ RMK CF2CB4CI2 -SHRA ALQDS

CYWG;2007-07-10 21:00;CYWG 102100Z 32012KT 15SM -SHRA FEW015 BKN050TCU 17/12 A2991 RMK CU1TCU6 -SHRA ALQDS SLP133

CYWG;2007-07-10 22:00;CYWG 102200Z 32014KT 15SM FEW051TCU SCT078 BKN250 18/13 A2991 RMK TCU1AC2CI2 -SHRA SW CB TOP NE SLP133

CYWG;2007-07-10 23:00;CYWG 102300Z 32012G18KT 15SM FEW051TCU SCT100 BKN250 18/11 A2992 RMK TCU1AC3CI1 CB TOP NE SLP135

CYWG;2007-07-11 00:00;CYWG 110000Z 32007KT 15SM FEW051 BKN083 17/12 A2994 RMK CU1AC6 CB NE SLP143

CYWG;2007-07-11 00:40;CYWG 110040Z 32004KT 15SM -SHRA FEW042 BKN086 BKN250 17/ RMK CU1ACC4CI2

CYWG;2007-07-11 01:00;CYWG 110100Z 33007KT 15SM FEW042 FEW086 SCT250 18/11 A2993 RMK CU1ACC2CI1 -SHRA SE SLP140

CYWG;2007-07-11 02:00;CYWG 110200Z 29007KT 15SM FEW050TCU FEW072 SCT091 SCT250 14/12 A2994 RMK TCU1ACC1AC2CI1 TCU NE SLP142

CYWG;2007-07-11 03:00;CYWG 110300Z 28006KT 15SM FEW050TCU FEW090 SCT250 12/11 A2995 RMK TCU1AC1CI1 TCU NE SLP146

CYWG;2007-07-11 04:00;CYWG 110400Z 29007KT 15SM FEW050TCU FEW090 FEW250 12/11 A2996 RMK TCU1AC1CI0 TCU N SLP148

CYWG;2007-07-11 05:00;CYWG 110500Z 28007KT 15SM FEW090 12/11 A2996 RMK AC1 SLP148

CYWG;2007-07-11 06:00;CYWG 110600Z 29007KT 15SM SKC 11/11 A2994 RMK SLP143

CYWG;2007-07-11 07:00;CYWG 110700Z 27006KT 15SM SKC 11/10 A2994 RMK SLP143

CYWG;2007-07-11 08:00;CYWG 110800Z 27009KT 15SM SKC 11/10 A2993 RMK SLP140

CYWG;2007-07-11 09:00;CYWG 110900Z 27007KT 15SM SKC 10/09 A2993 RMK SLP140

CYWG;2007-07-11 10:00;CYWG 111000Z 27005KT 15SM FEW050 FEW090 09/09 A2993 RMK SC1AC1 SLP141

CYWG;2007-07-11 11:00;CYWG 111100Z 27006KT 15SM FEW029TCU FEW058 FEW080 10/09 A2993 RMK TCU1SC1AC1 SLP140

CYWG;2007-07-11 12:00;CYWG 111200Z 27007KT 15SM FEW029 FEW120 11/10 A2993 RMK CF1AC1 SLP141

CYWG;2007-07-11 13:00;CYWG 111300Z 28006KT 15SM SCT140 BKN240 13/12 A2993 RMK AC2CI0 SLP140

CYWG;2007-07-11 14:00;CYWG 111400Z 29012KT 15SM SCT020TCU BKN100 BKN240 16/13 A2993 RMK TCU3AC2CI0 SLP139

CYWG;2007-07-11 15:00;CYWG 111500Z 28013KT 15SM TS VCSH FEW014 SCT052CB BKN090 15/12 A2992 RMK CF1CB3AC3 LTGCG N SLP136

CYWG;2007-07-11 15:28;CYWG 111528Z 28015KT 15SM SCT050CB BKN080 BKN240 16/ RETS RMK CB3AC2CI0 SH DST E

CYWG;2007-07-11 15:54;CYWG 111554Z 28011KT 15SM TSRA FEW022 BKN061CB BKN240 17/ RMK SF1CB4CI1 LGTCG

CYWG;2007-07-11 16:00;CYWG 111600Z 28009KT 15SM -TSRA FEW022 BKN060CB BKN240 18/13 A2991 RMK SF1CB5CI1 LTGCG SLP133

CYWG;2007-07-11 16:18;CYWG 111618Z 31015G20KT 15SM FEW060CB FEW100 BKN240 19/ RETS RMK CB2AC1CI0

CYWG;2007-07-11 17:00;CYWG 111700Z 31016KT 15SM SCT045CB BKN080 BKN240 18/11 A2990 RETS RMK CB4AC2CI0 SLP131

CYWG;2007-07-11 18:00;CYWG 111800Z 35013G24KT 15SM BKN057CB BKN240 17/11 A2991 RMK CB6CI0 SH DST E SLP133

CYWG;2007-07-11 18:13;CYWG 111813Z 31015G20KT 15SM -SHRA BKN065CB BKN240 16/ RMK CB5CI0

CYWG;2007-07-11 18:37;CYWG 111837Z 32022G28KT 15SM BKN030 BKN054CB 17/ RMK CU5CB2

CYWG;2007-07-11 19:00;CYWG 111900Z 33015KT 15SM BKN027 BKN074 19/12 A2990 RMK CU5AC1 SH N SE SLP130

CYWG;2007-07-11 19:09;CYWG 111909Z 34024G30KT 15SM -SHRA SCT027 BKN051TCU BKN069 16/ RMK CU3TCU2AC2 CVCTV CLD EMBD

CYWG;2007-07-11 19:18;CYWG 111918Z 35016G28KT 15SM BKN027 BKN061TCU BKN074 15/ RMK CU5TCU1AC1 SH SE

CYWG;2007-07-11 20:00;CYWG 112000Z 34014G19KT 15SM BKN042 BKN075 19/12 A2990 RMK CU5AC2 SLP131

CYWG;2007-07-11 21:00;CYWG 112100Z 32021G28KT 15SM SCT051 BKN250 20/08 A2991 RMK SC4CI2 SLP132

CYWG;2007-07-11 22:00;CYWG 112200Z 32019G30KT 15SM SCT053 BKN250 20/08 A2991 RMK SC3CI1 SLP131

CYWG;2007-07-11 23:00;CYWG 112300Z 32020G27KT 15SM FEW053 20/09 A2991 RMK SC2 SLP133

CYWG;2007-07-12 00:00;CYWG 120000Z 32015G24KT 15SM FEW051 19/09 A2991 RMK SC2 SLP133

CYWG;2007-07-12 01:00;CYWG 120100Z 32012KT 15SM FEW045 18/09 A2992 RMK SC1 SLP134

CYWG;2007-07-12 02:00;CYWG 120200Z 31008KT 15SM FEW045 16/09 A2992 RMK SC1 SLP135

CYWG;2007-07-12 03:00;CYWG 120300Z 30006KT 15SM FEW090 12/09 A2992 RMK AC1 SLP137

CYWG;2007-07-12 04:00;CYWG 120400Z 30007KT 15SM SKC 11/09 A2993 RMK SLP140

CYWG;2007-07-12 05:00;CYWG 120500Z 29007KT 15SM SKC 11/09 A2993 RMK SLP141

CYWG;2007-07-12 06:00;CYWG 120600Z 29008KT 15SM SKC 11/09 A2993 RMK SLP140

CYWG;2007-07-12 07:00;CYWG 120700Z 28008KT 15SM FEW075 11/09 A2992 RMK AC1 SLP137

CYWG;2007-07-12 08:00;CYWG 120800Z 29010KT 15SM FEW080 12/10 A2992 RMK AC2 SLP137

CYWG;2007-07-12 09:00;CYWG 120900Z 29011KT 15SM FEW080 12/10 A2992 RMK AC2 SLP135

CYWG;2007-07-12 10:00;CYWG 121000Z 29010KT 15SM FEW080 FEW240 11/10 A2993 RMK AC1CI0 SLP139

CYWG;2007-07-12 11:00;CYWG 121100Z 29009KT 15SM FEW080 FEW240 11/10 A2995 RMK AC1CI1 SLP144

CYWG;2007-07-12 12:00;CYWG 121200Z 30008KT 15SM FEW240 13/11 A2996 RMK CI1 SLP149

CYWG;2007-07-12 13:00;CYWG 121300Z 33009KT 15SM FEW030 FEW080 FEW240 16/12 A2998 RMK CU1AC1CI1 TR CU AC SLP155

CYWG;2007-07-12 14:00;CYWG 121400Z 35010G17KT 15SM FEW030 FEW240 18/12 A2999 RMK CU1CI1 SLP160

CYWG;2007-07-12 15:00;CYWG 121500Z 36015KT 15SM FEW030 FEW240 18/11 A3002 RMK CU2CI1 SLP169

CYWG;2007-07-12 16:00;CYWG 121600Z 35016KT 15SM FEW030 FEW240 19/11 A3003 RMK CU2CI1 SLP173

CYWG;2007-07-12 17:00;CYWG 121700Z 36014G20KT 15SM FEW039 FEW240 20/11 A3004 RMK CU2CI1 SLP176

CYWG;2007-07-12 18:00;CYWG 121800Z 35013KT 15SM FEW043 SCT240 21/10 A3004 RMK CU2CI1 SLP177

CYWG;2007-07-12 19:00;CYWG 121900Z 34009KT 15SM BKN047 21/11 A3004 RMK CU5 SLP177

CYWG;2007-07-12 20:00;CYWG 122000Z 34010KT 15SM BKN049 22/11 A3004 RMK CU5 SLP177

CYWG;2007-07-12 21:00;CYWG 122100Z 34013KT 15SM BKN051 23/11 A3005 RMK CU6 SLP177

CYWG;2007-07-12 22:00;CYWG 122200Z 01010G16KT 15SM SCT053 SCT250 23/09 A3005 RMK CU3CI0 SLP177

CYWG;2007-07-12 23:00;CYWG 122300Z 34008KT 15SM FEW059 BKN250 23/09 A3004 RMK CU2CI1 SLP175

CYWG;2007-07-13 00:00;CYWG 130000Z 01006KT 15SM FEW061 BKN250 22/11 A3003 RMK SC2CI1 SLP173

CYWG;2007-07-13 01:00;CYWG 130100Z 31005KT 15SM FEW049 BKN250 21/13 A3003 RMK SC2CI2 SLP172

CYWG;2007-07-13 02:00;CYWG 130200Z 36003KT 15SM FEW062 BKN250 17/14 A3003 RMK SC1CI2 SLP171

CYWG;2007-07-13 03:00;CYWG 130300Z 29002KT 15SM BKN250 18/13 A3003 RMK CI1 SLP172

CYWG;2007-07-13 04:00;CYWG 130400Z 26005KT 15SM SCT250 15/12 A3002 RMK CI1 SLP169

CYWG;2007-07-13 05:00;CYWG 130500Z 24005KT 15SM FEW250 15/11 A3002 RMK CI0 SLP167

CYWG;2007-07-13 06:00;CYWG 130600Z 24006KT 15SM FEW250 14/11 A3000 RMK CI0 SLP163

CYWG;2007-07-13 07:00;CYWG 130700Z 23007KT 15SM FEW100 14/10 A2998 RMK AC2 SLP156

CYWG;2007-07-13 08:00;CYWG 130800Z 23009KT 15SM BKN070 16/11 A2997 RMK AC5 SLP151

CYWG;2007-07-13 09:00;CYWG 130900Z 23009KT 15SM BKN090 16/11 A2996 RMK AC6 SLP146

CYWG;2007-07-13 10:00;CYWG 131000Z 23009KT 15SM -SHRA FEW065 OVC085 16/11 A2995 RMK SC2AC6 SLP142

CYWG;2007-07-13 11:00;CYWG 131100Z 22008KT 15SM -RA OVC062 15/12 A2992 RMK SC8 SLP133

CYWG;2007-07-13 12:00;CYWG 131200Z 23009KT 15SM -RA SCT030 OVC099 15/12 A2990 RMK SC3AC5 SLP127

CYWG;2007-07-13 13:00;CYWG 131300Z 25009KT 8SM -RA SCT022 OVC069 14/12 A2990 RMK SC3AC5 SLP126

CYWG;2007-07-13 13:20;CYWG 131320Z 25010KT 5SM RA BR OVC069 14/ RMK AC8

CYWG;2007-07-13 14:00;CYWG 131400Z 27014KT 5SM RA BR FEW018 OVC069 14/13 A2988 RMK CF1AC7 SLP120

CYWG;2007-07-13 14:30;CYWG 131430Z 24014KT 10SM -RA OVC069 15/ RMK AC8

CYWG;2007-07-13 15:00;CYWG 131500Z 24014G20KT 8SM -RA OVC077 15/13 A2981 RMK AC8 RERA SLP098

CYWG;2007-07-13 16:00;CYWG 131600Z 25012KT 10SM -RA FEW014 OVC073 16/13 A2980 RMK SC1AC7 SLP092

CYWG;2007-07-13 16:13;CYWG 131613Z 25012KT 10SM -RA BKN015 OVC073 16/ RMK SC5AC3

CYWG;2007-07-13 16:33;CYWG 131633Z 25011KT 15SM FEW043 BKN065 17/ RMK SC2AC6

CYWG;2007-07-13 17:00;CYWG 131700Z 24011KT 15SM FEW047 BKN071 17/14 A2977 RMK SC1AC6 SLP083

CYWG;2007-07-13 18:00;CYWG 131800Z 24011KT 15SM FEW073 BKN250 20/16 A2975 RMK AC2CI2 SLP076

CYWG;2007-07-13 19:00;CYWG 131900Z 30017KT 15SM FEW025 FEW065TCU FEW090 BKN250 24/17 A2974 RMK CU1TCU1AC1CI1 TCU DSTNT NE + SE SLP071

CYWG;2007-07-13 20:00;CYWG 132000Z 31014G22KT 15SM FEW025 FEW098 BKN250 25/17 A2972 RMK CU1AC1CI2 SLP067

CYWG;2007-07-13 21:00;CYWG 132100Z 31021G28KT 15SM FEW034 FEW055TCU BKN250 25/16 A2973 RMK CU1TCU1CI1 TCU NE SLP067

CYWG;2007-07-13 22:00;CYWG 132200Z 32020G29KT 15SM FEW044TCU BKN250 25/16 A2973 RMK TCU2CI1 SLP068

CYWG;2007-07-13 23:00;CYWG 132300Z 36010KT 15SM BKN035TCU BKN250 23/16 A2973 RMK TCU5CI0 SLP069

CYWG;2007-07-13 23:17;CYWG 132317Z 33020G32KT 1/2SM R13/3000FT/N R36/2600VP6000FT/D +RA OVC002TCU 16/ RMK TCU6

CYWG;2007-07-13 23:23;CYWG 132323Z 33012G32KT 8SM -RA BKN028TCU 17/ RMK TCU5 RERA

CYWG;2007-07-14 00:00;CYWG 140000Z 34010KT 10SM FEW028TCU BKN250 19/ A2974 RMK TCU1CI1 SLP072

CYWG;2007-07-14 01:00;CYWG 140100Z 33006KT 15SM FEW030 BKN280 21/ A2976 RMK CU1CI0 SLP079

CYWG;2007-07-14 02:00;CYWG 140200Z 36009KT 13SM FEW030 BKN280 19/16 A2977 RMK CU1CI1 SLP084

CYWG;2007-07-14 03:00;CYWG 140300Z 36009KT 15SM FEW280 17/15 A2980 RMK CI0 SLP094

CYWG;2007-07-14 04:00;CYWG 140400Z 33006KT 15SM FEW280 14/12 A2981 RMK CI0 SLP098

CYWG;2007-07-14 05:00;CYWG 140500Z 34005KT 15SM FEW280 13/12 A2982 RMK CI0 SLP102

CYWG;2007-07-14 06:00;CYWG 140600Z 34006KT 15SM FEW100 FEW280 13/12 A2983 RMK AC1CI0 SLP103

CYWG;2007-07-14 07:00;CYWG 140700Z 30006KT 15SM FEW100 13/12 A2982 RMK AC1 SLP101

CYWG;2007-07-14 08:00;CYWG 140800Z 34004KT 15SM SKC 12/11 A2982 RMK SLP099

CYWG;2007-07-14 09:00;CYWG 140900Z 28006KT 15SM FEW045 12/11 A2983 RMK SC1 SLP102

CYWG;2007-07-14 10:00;CYWG 141000Z 31005KT 15SM SCT080 11/11 A2984 RMK AC3 SLP107

CYWG;2007-07-14 10:49;CYWG 141049Z 35004KT 15SM -SHRA BKN034 BKN064 13/ RMK SC5SC2

CYWG;2007-07-14 11:00;CYWG 141100Z 31003KT 15SM -SHRA BKN034 BKN062 14/13 A2985 RMK SC5SC2 SLP111

CYWG;2007-07-14 11:18;CYWG 141118Z 32004KT 15SM SCT034 BKN062 14/ RMK SC3SC2

CYWG;2007-07-14 12:00;CYWG 141200Z 34004KT 15SM FEW038 BKN063 15/14 A2986 RMK SC2SC3 SLP115

CYWG;2007-07-14 13:00;CYWG 141300Z 35003KT 15SM FEW036 SCT057 16/15 A2987 RMK SC2SC2 SLP118

CYWG;2007-07-14 14:00;CYWG 141400Z 33005KT 15SM SCT038 18/15 A2987 RMK SC4 SLP119

CYWG;2007-07-14 15:00;CYWG 141500Z 32006KT 15SM SCT038 20/15 A2988 RMK SC3 SLP120

CYWG;2007-07-14 16:00;CYWG 141600Z 36006KT 15SM BKN024 20/15 A2989 RMK CU5 TCU ASOCTD SLP124

CYWG;2007-07-14 17:00;CYWG 141700Z 01008KT 15SM SCT043 22/15 A2990 RMK CU3 TCU ASOCTD SLP125

CYWG;2007-07-14 18:00;CYWG 141800Z 33007KT 15SM FEW029 22/16 A2989 RMK CU2 TCU ASOCTD SLP124

CYWG;2007-07-14 19:00;CYWG 141900Z 33008KT 15SM SCT035 BKN074 BKN250 23/15 A2988 RMK CU4AC1CI0 TCU ASOCTD SLP121

CYWG;2007-07-14 20:00;CYWG 142000Z 31009KT 15SM FEW044 BKN250 23/14 A2987 RMK CU2CI1 SLP116

CYWG;2007-07-14 21:00;CYWG 142100Z 29007KT 15SM SCT039TCU BKN092 BKN250 23/14 A2987 RMK TCU4AC2CI0 SHRA NW SLP116

CYWG;2007-07-14 21:10;CYWG 142110Z 31008KT 15SM -SHRA SCT039TCU BKN092 BKN250 21/ RMK TCU4AC2CI0

CYWG;2007-07-14 21:14;CYWG 142114Z 34015G21KT 2SM +SHRA BKN036TCU BKN098 OVC250 19/ RMK TCU6AC2CI0 VSBY HGHR E

CYWG;2007-07-14 21:40;CYWG 142140Z 02015G20KT 3SM -SHRA BKN036TCU OVC098 17/ RMK TCU6AC1

CYWG;2007-07-14 22:00;CYWG 142200Z 03005KT 15SM BKN036TCU BKN098 OVC250 18/16 A2989 RMK TCU5AC2CI0 SHRA SE SLP123

CYWG;2007-07-14 23:00;CYWG 142300Z 31008KT 15SM FEW036TCU BKN085 22/16 A2987 RMK TCU2AC3 SLP118

CYWG;2007-07-15 00:00;CYWG 150000Z 33007KT 15SM FEW036TCU FEW085 FEW250 22/16 A2987 RMK TCU1AC1CI1 AC TR SLP118

CYWG;2007-07-15 01:00;CYWG 150100Z 34006KT 15SM FEW036 SCT250 21/15 A2988 RMK CU2CI1 TCU ASOCTD SLP120

CYWG;2007-07-15 02:00;CYWG 150200Z 36006KT 15SM FEW036 SCT250 19/15 A2988 RMK CU2CI1 TCU ASOCTD SLP120

CYWG;2007-07-15 03:00;CYWG 150300Z 32002KT 15SM FEW040 FEW250 16/14 A2989 RMK SC1CI0 SLP122

CYWG;2007-07-15 04:00;CYWG 150400Z 00000KT 15SM FEW090 FEW250 15/14 A2989 RMK AC1CI0 SLP123

CYWG;2007-07-15 05:00;CYWG 150500Z 32002KT 15SM FEW090 13/12 A2990 RMK AC1 SLP127

CYWG;2007-07-15 06:00;CYWG 150600Z 28005KT 15SM FEW060 14/13 A2990 RMK SC2 SLP127

CYWG;2007-07-15 07:00;CYWG 150700Z 27006KT 15SM FEW060 13/12 A2990 RMK SC1 SLP126

CYWG;2007-07-15 08:00;CYWG 150800Z 27005KT 15SM SKC 12/11 A2988 RMK SLP121

CYWG;2007-07-15 09:00;CYWG 150900Z 28007KT 15SM SKC 12/11 A2990 RMK SLP127

CYWG;2007-07-15 10:00;CYWG 151000Z 27002KT 15SM FEW055 SCT270 11/10 A2990 RMK SC1CI0 SLP128

CYWG;2007-07-15 11:00;CYWG 151100Z 33002KT 15SM FEW040 BKN110 BKN280 11/10 A2992 RMK CU1AC3CI2 TR CU SLP133

CYWG;2007-07-15 12:00;CYWG 151200Z 36002KT 15SM FEW040 SCT110 BKN280 12/12 A2991 RMK SC1AC2CI2 TR SC SLP132

CYWG;2007-07-15 13:00;CYWG 151300Z 36002KT 15SM BKN100 OVC280 16/14 A2992 RMK AC5CI2 SLP134

CYWG;2007-07-15 14:00;CYWG 151400Z 00000KT 15SM BKN100 OVC280 17/14 A2993 RMK AC6CI2 SLP137

CYWG;2007-07-15 15:00;CYWG 151500Z 00000KT 15SM BKN100 OVC280 18/12 A2993 RMK AC6CI2 SLP139

CYWG;2007-07-15 16:00;CYWG 151600Z 06002KT 15SM FEW035 BKN092 OVC280 18/15 A2993 RMK SC1AC6CI2 TR SC SLP138

CYWG;2007-07-15 17:00;CYWG 151700Z 19003KT 15SM FEW030 BKN090 OVC280 19/13 A2993 RMK SC1AC6CI2 TR SC SLP139

CYWG;2007-07-15 17:19;CYWG 151719Z 24006KT 15SM -RA FEW030 SCT068 BKN090 OVC280 19/ RMK SC1AC3AC3CI2 TR SC

CYWG;2007-07-15 18:00;CYWG 151800Z CCA 28006KT 15SM -RA FEW024 SCT068 BKN096 OVC280 20/14 A2993 RMK SC1AC2AC3CI2 SLP137

CYWG;2007-07-15 19:00;CYWG 151900Z 26007KT 15SM SCT024 BKN073 OVC099 20/14 A2993 RMK SC3AC3AC2 SLP137

CYWG;2007-07-15 20:00;CYWG 152000Z 26008KT 15SM FEW029 SCT110 BKN270 21/14 A2991 RMK SC2AC2CI2 SLP132

CYWG;2007-07-15 21:00;CYWG 152100Z 24005KT 15SM FEW029 BKN110 OVC270 21/13 A2991 RMK SC2AC3CI2 SLP131

CYWG;2007-07-15 22:00;CYWG 152200Z 21003KT 15SM FEW027 SCT097 OVC270 21/15 A2990 RMK SC2AC2CI4 SLP128

CYWG;2007-07-15 23:00;CYWG 152300Z 28005KT 15SM FEW027 SCT090 BKN270 20/15 A2990 RMK SC1AC3CI2 SLP128

CYWG;2007-07-16 00:00;CYWG 160000Z 26003KT 15SM FEW027 SCT099 BKN170 BKN270 20/14 A2990 RMK SC1AC2AC2CI0 SLP128

CYWG;2007-07-16 01:00;CYWG 160100Z 29002KT 15SM FEW100 BKN170 BKN270 19/15 A2988 RMK AC2AC2CI2 SLP122

CYWG;2007-07-16 02:00;CYWG 160200Z 33002KT 15SM FEW170 BKN270 18/15 A2987 RMK AC2CI1 SLP120

CYWG;2007-07-16 03:00;CYWG 160300Z 01004KT 15SM FEW170 BKN270 15/14 A2989 RMK AC2CI1 SLP125

CYWG;2007-07-16 04:00;CYWG 160400Z 02002KT 15SM FEW170 FEW270 14/13 A2990 RMK AC1CI0 SLP129

CYWG;2007-07-16 05:00;CYWG 160500Z 35002KT 15SM FEW170 12/12 A2991 RMK AC1 SLP131

CYWG;2007-07-16 06:00;CYWG 160600Z 29003KT 15SM FEW170 10/10 A2992 RMK AC1 SLP135

CYWG;2007-07-16 07:00;CYWG 160700Z 27002KT 12SM R13/3000VP6000FT/D MIFG SKC 10/09 A2993 RMK SLP137

CYWG;2007-07-16 08:00;CYWG 160800Z 00000KT 10SM R13/2800VP6000FT/D MIFG SKC 09/09 A2993 RMK SLP138

CYWG;2007-07-16 09:00;CYWG 160900Z 25002KT 15SM MIFG FEW120 09/09 A2993 RMK AC1 SLP138

CYWG;2007-07-16 10:00;CYWG 161000Z 28003KT 15SM R13/4000VP6000FT/D FEW120 08/08 A2994 RMK AC1 TR AC SLP141

CYWG;2007-07-16 11:00;CYWG 161100Z 30002KT 10SM R13/1200FT/N R36/3000V6000FT/N PRFG FEW250 08/08 A2994 RMK CI0 VIS W-NE 2 SLP143

CYWG;2007-07-16 11:30;CYWG 161130Z 35002KT 2SM R13/1200V1800FT/N R36/2600V6000FT/N PRFG FEW250 09/ RMK FG1CI0 VIS W-NE 1/4

CYWG;2007-07-16 11:44;CYWG 161144Z 00000KT 1/2SM R13/1100V1800FT/N R36/2600FT/N FG SCT250 09/ RMK FG2CI0 VIS E + SW 4

CYWG;2007-07-16 11:53;CYWG 161153Z 00000KT 1/8SM R13/1100V1600FT/N R36/1200V1800FT/N FG SCT250 10/ RMK FG2CI0

CYWG;2007-07-16 12:00;CYWG 161200Z 00000KT 1/8SM R13/1200FT/N R36/1100FT/N FG SCT250 10/10 A2993 RMK FG3CI0 SLP139

CYWG;2007-07-16 12:25;CYWG 161225Z 00000KT 1/4SM R13/2600FT/N R36/1200V1800FT/N FG SCT280 RMK FG1CI1 VIS E 4

CYWG;2007-07-16 12:31;CYWG 161231Z 03002KT 5SM R13/2600V6000FT/N R36/1400FT/N PRFG SCT280 12/ RMK FG1CI1 VIS SW-N 3/8

CYWG;2007-07-16 13:00;CYWG 161300Z 00000KT 10SM FEW002 BKN280 14/14 A2995 RMK SF1CI2 HZ SLP146

CYWG;2007-07-16 14:00;CYWG 161400Z 04002KT 10SM BKN280 18/14 A2995 RMK CI1 HZ SLP145

CYWG;2007-07-16 15:00;CYWG 161500Z 00000KT 12SM BKN280 20/14 A2995 RMK CI1 HZ SLP145

CYWG;2007-07-16 16:00;CYWG 161600Z 03002KT 15SM FEW030 OVC280 21/13 A2995 RMK CU1CI2 SLP143

CYWG;2007-07-16 17:00;CYWG 161700Z 19002KT 15SM FEW030 OVC280 23/14 A2994 RMK CU1CI2 SLP142

CYWG;2007-07-16 18:00;CYWG 161800Z 28002KT 15SM FEW041 OVC280 24/14 A2994 RMK CU1CI2 SLP140

CYWG;2007-07-16 19:00;CYWG 161900Z 11002KT 15SM FEW040 BKN280 24/12 A2993 RMK CU2CI2 SLP136

CYWG;2007-07-16 20:00;CYWG 162000Z 13002KT 15SM FEW051 OVC280 24/13 A2991 RMK CU1CI2 SLP131

CYWG;2007-07-16 21:00;CYWG 162100Z 00000KT 15SM FEW055 OVC280 25/13 A2991 RMK CU1CI2 SLP130

CYWG;2007-07-16 22:00;CYWG 162200Z 25004KT 15SM FEW055 OVC280 25/13 A2991 RMK CU1CI2 SLP130

CYWG;2007-07-16 23:00;CYWG 162300Z 22004KT 15SM FEW055 OVC280 25/13 A2990 RMK CU1CI2 CU TR SLP129

CYWG;2007-07-17 00:00;CYWG 170000Z 27002KT 15SM FEW055 OVC280 25/13 A2989 RMK CU1CI3 CU TR SLP124

CYWG;2007-07-17 01:00;CYWG 170100Z 27003KT 15SM FEW087 OVC280 23/15 A2989 RMK AC2CI2 SLP125

CYWG;2007-07-17 02:00;CYWG 170200Z 32002KT 15SM SCT087 OVC280 21/17 A2990 RMK AC3CI2 SLP126

CYWG;2007-07-17 03:00;CYWG 170300Z 00000KT 15SM BKN090 BKN260 19/17 A2990 RMK AC3CI4 SLP126

CYWG;2007-07-17 04:00;CYWG 170400Z 00000KT 15SM SCT090 BKN260 18/15 A2990 RMK AC2CI2 SLP125

CYWG;2007-07-17 05:00;CYWG 170500Z 05002KT 15SM BKN100 BKN260 17/15 A2990 RMK AC4CI2 SLP126

CYWG;2007-07-17 06:00;CYWG 170600Z 00000KT 15SM BKN100 BKN260 17/15 A2990 RMK AC6CI2 SLP126

CYWG;2007-07-17 07:00;CYWG 170700Z 00000KT 15SM SCT100 BKN220 17/15 A2990 RMK AC3CI1 SLP124

CYWG;2007-07-17 08:00;CYWG 170800Z 00000KT 15SM BKN100 BKN210 16/15 A2989 RMK AC6CI2 SLP122

CYWG;2007-07-17 09:00;CYWG 170900Z 35002KT 15SM BKN100 BKN210 16/15 A2990 RMK AC5CI2 SLP126

CYWG;2007-07-17 10:00;CYWG 171000Z 36002KT 15SM OVC070 16/15 A2990 RMK AC8 SLP127

CYWG;2007-07-17 11:00;CYWG 171100Z 00000KT 15SM BKN076 17/15 A2990 RMK AC7 SLP127

CYWG;2007-07-17 12:00;CYWG 171200Z 24002KT 15SM FEW075 BKN097 BKN280 18/16 A2991 RMK AC1AC5CI0 SLP128

CYWG;2007-07-17 13:00;CYWG 171300Z 27002KT 5SM HZ FEW100 SCT280 20/15 A2991 RMK AC1CI0 SLP129

CYWG;2007-07-17 14:00;CYWG 171400Z 00000KT 8SM FEW100 FEW280 22/15 A2991 RMK AC1CI0 HZ SLP129

CYWG;2007-07-17 15:00;CYWG 171500Z 29002KT 8SM FEW032 FEW280 23/15 A2991 RMK CU1CI1 HZ SLP130

CYWG;2007-07-17 16:00;CYWG 171600Z 33002KT 8SM FEW036 FEW100 FEW280 24/14 A2991 RMK CU1AC1CI1 HZ SLP129

CYWG;2007-07-17 17:00;CYWG 171700Z 36004KT 12SM FEW036 FEW100 BKN280 25/15 A2992 RMK CU1AC1CI1 HZ CC ASOCTD SLP131

CYWG;2007-07-17 18:00;CYWG 171800Z 20004KT 12SM FEW045 FEW091 BKN280 26/15 A2991 RMK CU1AC1CI1 HZ SLP128

CYWG;2007-07-17 19:00;CYWG 171900Z 28006KT 15SM FEW048 SCT280 26/14 A2991 RMK CU2CI1 SLP128

CYWG;2007-07-17 20:00;CYWG 172000Z 28006KT 15SM FEW048 FEW085 FEW290 26/14 A2990 RMK CU1AC1CI0 TR AC SLP125

CYWG;2007-07-17 21:00;CYWG 172100Z 27005KT 15SM FEW048 FEW090 FEW300 27/15 A2988 RMK CU1AS0CI0 SLP120

CYWG;2007-07-17 22:00;CYWG 172200Z 29005KT 15SM FEW100 BKN300 26/14 A2988 RMK AC1CS5 SLP120

CYWG;2007-07-17 23:00;CYWG 172300Z 32005KT 15SM FEW066 FEW110 BKN300 25/16 A2988 RMK CU1AC1CS4 ACC ASOCTD SLP119

CYWG;2007-07-18 00:00;CYWG 180000Z 30005KT 15SM FEW065 FEW110 BKN300 25/17 A2988 RMK CU1AC1CS3 ACC ASOCTD SLP120

CYWG;2007-07-18 01:00;CYWG 180100Z 31002KT 15SM FEW110 SCT280 24/17 A2987 RMK AC2CI1 SLP117

CYWG;2007-07-18 02:00;CYWG 180200Z 34002KT 15SM FEW110 22/18 A2988 RMK AC2 SLP119

CYWG;2007-07-18 03:00;CYWG 180300Z 30003KT 15SM SCT110 20/16 A2989 RMK AC2 SLP122

CYWG;2007-07-18 04:00;CYWG 180400Z 30003KT 15SM FEW110 18/16 A2989 RMK AC1 SLP123

CYWG;2007-07-18 05:00;CYWG 180500Z 04003KT 15SM FEW110 17/15 A2990 RMK AC1 SLP124

CYWG;2007-07-18 06:00;CYWG 180600Z 00000KT 15SM SKC 17/15 A2989 RMK SLP121

CYWG;2007-07-18 07:00;CYWG 180700Z 00000KT 15SM FEW110 17/15 A2990 RMK AC1 SLP124

CYWG;2007-07-18 08:00;CYWG 180800Z 29004KT 15SM BKN055 17/15 A2991 RMK SC4 SLP128

CYWG;2007-07-18 09:00;CYWG 180900Z 33002KT 15SM SCT044 17/15 A2990 RMK SC3 SLP126

CYWG;2007-07-18 10:00;CYWG 181000Z 30003KT 15SM FEW040 SCT070 16/15 A2990 RMK SC2AC1 SLP126

CYWG;2007-07-18 11:00;CYWG 181100Z 35002KT 15SM FEW040 BKN080 15/14 A2990 RMK SC2AC2 SLP127

CYWG;2007-07-18 12:00;CYWG 181200Z 00000KT 15SM FEW040 BKN089 BKN200 18/16 A2992 RMK SC1AC1CI1 SLP131

CYWG;2007-07-18 13:00;CYWG 181300Z 00000KT 15SM FEW094 21/17 A2995 RMK AC2 SLP142

CYWG;2007-07-18 14:00;CYWG 181400Z 34002KT 15SM FEW100 23/18 A2996 RMK AC1 SLP146

CYWG;2007-07-18 15:00;CYWG 181500Z 04003KT 15SM FEW110 24/18 A2996 RMK AC1 SLP146

CYWG;2007-07-18 16:00;CYWG 181600Z 33004KT 15SM FEW030 FEW110 25/17 A2996 RMK CU1AC1 SLP145

CYWG;2007-07-18 17:00;CYWG 181700Z 31004KT 15SM FEW030 26/16 A2996 RMK CU1 SLP146

CYWG;2007-07-18 18:00;CYWG 181800Z 34005KT 15SM FEW044 27/16 A2996 RMK CU1 SLP146

CYWG;2007-07-18 19:00;CYWG 181900Z 33007KT 15SM SCT060 28/16 A2995 RMK CU3 SLP143

CYWG;2007-07-18 20:00;CYWG 182000Z 33010KT 15SM FEW060 28/15 A2995 RMK CU2 SLP142

CYWG;2007-07-18 21:00;CYWG 182100Z 32010G15KT 15SM SCT060 BKN280 28/14 A2994 RMK CU4CI0 TCU ASOCTD SLP139

CYWG;2007-07-18 21:35;CYWG 182135Z 33013G21KT 15SM -SHRA BKN061 BKN280 23/ RMK CU6CI0 TCU ASOCTD

CYWG;2007-07-18 22:00;CYWG 182200Z 32013G20KT 15SM BKN061 BKN070 BKN280 24/15 A2997 RMK CU5AC1CI0 TCU ASOCTD SHRA S-W SLP148

CYWG;2007-07-18 23:00;CYWG 182300Z 31006KT 15SM SCT060 BKN080 23/17 A2997 RMK CU4AC2 TCU ASOCTD SHRA SE SLP148

CYWG;2007-07-19 00:00;CYWG 190000Z 03008KT 15SM FEW060 FEW280 26/16 A2997 RMK CF1CI0 HZ SLP149

CYWG;2007-07-19 01:00;CYWG 190100Z 04010KT 15SM FEW280 23/14 A2999 RMK CI0 HZ SLP154

CYWG;2007-07-19 02:00;CYWG 190200Z 02008KT 15SM SCT280 21/14 A3001 RMK CI2 HZ SLP161

CYWG;2007-07-19 03:00;CYWG 190300Z 36007KT 15SM FEW260 18/12 A3003 RMK CI0 SLP169

CYWG;2007-07-19 04:00;CYWG 190400Z 36007KT 15SM FEW260 17/11 A3005 RMK CI0 SLP176

CYWG;2007-07-19 05:00;CYWG 190500Z 01009KT 15SM SKC 16/11 A3006 RMK SLP179

CYWG;2007-07-19 06:00;CYWG 190600Z 02008KT 15SM SKC 14/11 A3007 RMK SLP185

CYWG;2007-07-19 07:00;CYWG 190700Z 01007KT 15SM SKC 13/11 A3009 RMK SLP191

CYWG;2007-07-19 08:00;CYWG 190800Z 03008KT 15SM SKC 13/10 A3010 RMK SLP195

CYWG;2007-07-19 09:00;CYWG 190900Z 04008KT 15SM SKC 12/10 A3011 RMK SLP198

CYWG;2007-07-19 10:00;CYWG 191000Z 04007KT 15SM FEW240 10/08 A3013 RMK CI0 SLP203

CYWG;2007-07-19 11:00;CYWG 191100Z 04007KT 15SM FEW260 10/08 A3014 RMK CI0 SLP207

CYWG;2007-07-19 12:00;CYWG 191200Z 04004KT 15SM FEW260 12/09 A3018 RMK CI0 SLP221

CYWG;2007-07-19 13:00;CYWG 191300Z 06004KT 15SM FEW260 16/11 A3020 RMK CI0 SLP228

CYWG;2007-07-19 14:00;CYWG 191400Z 08005KT 15SM FEW260 18/10 A3021 RMK CI0 SLP233

CYWG;2007-07-19 15:00;CYWG 191500Z 07004KT 15SM FEW260 19/11 A3022 RMK CI0 SLP234

CYWG;2007-07-19 16:00;CYWG 191600Z 10004KT 15SM FEW260 21/10 A3021 RMK CI1 SLP232

CYWG;2007-07-19 17:00;CYWG 191700Z 06003KT 15SM FEW045 FEW280 21/09 A3019 RMK CU1CI0 CU TR SLP227

CYWG;2007-07-19 18:00;CYWG 191800Z 01006KT 15SM FEW048 FEW280 22/09 A3019 RMK CU1CI1 SLP226

CYWG;2007-07-19 19:00;CYWG 191900Z 00000KT 15SM FEW052 FEW280 22/09 A3018 RMK CU1CI1 SLP223

CYWG;2007-07-19 20:00;CYWG 192000Z 01005KT 15SM FEW052 FEW280 23/10 A3018 RMK CU1CI1 SLP221

CYWG;2007-07-19 21:00;CYWG 192100Z 05005KT 15SM FEW280 23/10 A3016 RMK CI1 SLP217

CYWG;2007-07-19 22:00;CYWG 192200Z CCA 36007KT 15SM FEW052 FEW280 23/10 A3015 RMK CU1CI1 SLP213

CYWG;2007-07-19 23:00;CYWG 192300Z 06007KT 15SM FEW280 24/10 A3014 RMK CI1 SLP208

CYWG;2007-07-20 00:00;CYWG 200000Z 11006KT 15SM FEW280 23/09 A3012 RMK CI1 SLP202

CYWG;2007-07-20 01:00;CYWG 200100Z 11005KT 15SM FEW280 22/09 A3011 RMK CI1 SLP200

CYWG;2007-07-20 02:00;CYWG 200200Z 12004KT 15SM FEW280 20/10 A3011 RMK CI1 SLP199

CYWG;2007-07-20 03:00;CYWG 200300Z 08004KT 15SM FEW260 16/10 A3012 RMK CI0 SLP201

CYWG;2007-07-20 04:00;CYWG 200400Z 09005KT 15SM FEW260 16/11 A3012 RMK CI0 SLP203

CYWG;2007-07-20 05:00;CYWG 200500Z 09003KT 15SM SKC 15/11 A3012 RMK SLP204

CYWG;2007-07-20 06:00;CYWG 200600Z 10006KT 15SM SKC 14/11 A3012 RMK SLP204

CYWG;2007-07-20 07:00;CYWG 200700Z 18006KT 15SM SKC 14/11 A3014 RMK SLP209

CYWG;2007-07-20 08:00;CYWG 200800Z 18007KT 15SM SKC 14/11 A3015 RMK SLP212

CYWG;2007-07-20 09:00;CYWG 200900Z 18007KT 15SM FEW110 14/11 A3014 RMK AC1 SLP209

CYWG;2007-07-20 10:00;CYWG 201000Z 15007KT 15SM FEW240 12/10 A3014 RMK CI0 SLP210

CYWG;2007-07-20 11:00;CYWG 201100Z 16005KT 15SM FEW240 12/09 A3014 RMK CI1 SLP210

CYWG;2007-07-20 12:00;CYWG 201200Z 16005KT 15SM FEW250 14/11 A3015 RMK CI1 SLP211

CYWG;2007-07-20 13:00;CYWG 201300Z 17008KT 15SM FEW250 17/11 A3014 RMK CI1 SLP208

CYWG;2007-07-20 14:00;CYWG 201400Z 19010KT 15SM FEW250 19/12 A3013 RMK CI1 SLP206

CYWG;2007-07-20 15:00;CYWG 201500Z 19008KT 15SM FEW250 21/13 A3013 RMK CI1 SLP205

CYWG;2007-07-20 16:00;CYWG 201600Z 18013KT 15SM FEW250 23/13 A3011 RMK CI1 SLP199

CYWG;2007-07-20 17:00;CYWG 201700Z 18011G16KT 15SM FEW250 24/13 A3011 RMK CI0 SLP198

CYWG;2007-07-20 18:00;CYWG 201800Z 19008G16KT 15SM FEW250 25/13 A3010 RMK CI0 SLP194

CYWG;2007-07-20 19:00;CYWG 201900Z 17014KT 15SM BKN250 25/12 A3008 RMK CI2 SLP188

CYWG;2007-07-20 20:00;CYWG 202000Z 15012G18KT 15SM BKN250 26/12 A3006 RMK CI2 SLP183

CYWG;2007-07-20 21:00;CYWG 202100Z 18015KT 15SM BKN250 27/13 A3005 RMK CI1 SLP177

CYWG;2007-07-20 22:00;CYWG 202200Z 17011G19KT 15SM BKN250 27/13 A3004 RMK CI2 SLP174

CYWG;2007-07-20 23:00;CYWG 202300Z 16013KT 15SM BKN250 27/13 A3002 RMK CI2 SLP167

CYWG;2007-07-21 00:00;CYWG 210000Z 19011G16KT 15SM BKN250 26/14 A3001 RMK CI2 SLP165

CYWG;2007-07-21 01:00;CYWG 210100Z 18010KT 15SM BKN250 25/14 A3001 RMK CI2 SLP163

CYWG;2007-07-21 02:00;CYWG 210200Z 17008KT 15SM BKN250 23/14 A3001 RMK CI2 SLP163

CYWG;2007-07-21 03:00;CYWG 210300Z 17011KT 15SM FEW250 22/14 A3000 RMK CI0 SLP161

CYWG;2007-07-21 04:00;CYWG 210400Z 18013KT 15SM FEW250 22/13 A3000 RMK CI0 SLP160

CYWG;2007-07-21 05:00;CYWG 210500Z 18012KT 15SM SKC 20/13 A3000 RMK SLP159

CYWG;2007-07-21 06:00;CYWG 210600Z 18013KT 15SM SKC 19/13 A3000 RMK SLP158

CYWG;2007-07-21 07:00;CYWG 210700Z 18013KT 15SM SCT250 18/13 A3000 RMK CI0 SLP158

CYWG;2007-07-21 08:00;CYWG 210800Z 19011KT 15SM BKN250 17/12 A3001 RMK CI1 SLP161

CYWG;2007-07-21 09:00;CYWG 210900Z 18010KT 15SM SCT250 17/12 A3001 RMK CI0 SLP163

CYWG;2007-07-21 10:00;CYWG 211000Z 18010KT 15SM BKN250 16/12 A3001 RMK CI0 SLP162

CYWG;2007-07-21 11:00;CYWG 211100Z 18012KT 15SM BKN250 17/12 A3001 RMK CI3 SLP162

CYWG;2007-07-21 12:00;CYWG 211200Z 18013KT 15SM SCT083 BKN250 17/12 A3001 RMK AC3CI2 SLP163

CYWG;2007-07-21 13:00;CYWG 211300Z 18012G17KT 15SM FEW085 BKN250 18/13 A3000 RMK AC2CI2 SLP159

CYWG;2007-07-21 14:00;CYWG 211400Z 17013KT 15SM FEW085 BKN250 20/14 A2999 RMK AC1CI2 SLP156

CYWG;2007-07-21 15:00;CYWG 211500Z 18016G22KT 15SM FEW250 22/14 A2998 RMK CI1 SLP152

CYWG;2007-07-21 16:00;CYWG 211600Z 18017G22KT 15SM FEW250 24/16 A2996 RMK CI0 SLP146

CYWG;2007-07-21 17:00;CYWG 211700Z 17017G24KT 15SM FEW250 26/17 A2995 RMK CI0 SLP141

CYWG;2007-07-21 18:00;CYWG 211800Z 18016G25KT 15SM FEW250 27/18 A2993 RMK CI0 SLP134

CYWG;2007-07-21 19:00;CYWG 211900Z 18015G21KT 15SM SCT120 BKN250 28/19 A2994 RMK AC2CI1 SLP137

CYWG;2007-07-21 20:00;CYWG 212000Z 17019KT 15SM BKN250 28/19 A2992 RMK CI3 SLP132

CYWG;2007-07-21 21:00;CYWG 212100Z 16019G25KT 15SM FEW040 OVC250 28/19 A2991 RMK CU1CI3 SLP127

CYWG;2007-07-21 22:00;CYWG 212200Z 18016G21KT 15SM BKN047 BKN089 OVC250 28/19 A2990 RMK SC5AC1CI0 SLP126

CYWG;2007-07-21 23:00;CYWG 212300Z 18013G18KT 15SM BKN042 BKN250 28/19 A2991 RMK SC5CI0 SLP129

CYWG;2007-07-22 00:00;CYWG 220000Z CCA 16014KT 15SM BKN040 28/19 A2991 RMK SC6 SLP127

CYWG;2007-07-22 01:00;CYWG 220100Z 17008KT 15SM SCT040 27/20 A2993 RMK SC4 SLP133

CYWG;2007-07-22 02:00;CYWG 220200Z 16008KT 15SM FEW051 BKN250 26/20 A2990 RMK SC2CI1 SLP125

CYWG;2007-07-22 03:00;CYWG 220300Z 15010G15KT 15SM FEW047 SCT250 25/20 A2988 RMK SC2CI0 SLP117

CYWG;2007-07-22 04:00;CYWG 220400Z 17014KT 15SM FEW250 25/20 A2985 RMK CI1 SLP108

CYWG;2007-07-22 05:00;CYWG 220500Z 18014G19KT 15SM FEW250 24/19 A2985 RMK CI1 SLP108

CYWG;2007-07-22 06:00;CYWG 220600Z 18010KT 15SM FEW250 24/19 A2986 RMK CI1 SLP111

CYWG;2007-07-22 07:00;CYWG 220700Z 16006KT 15SM FEW100 FEW250 23/20 A2988 RMK AC1CI0 SLP116

CYWG;2007-07-22 08:00;CYWG 220800Z 17010KT 15SM SCT046 24/20 A2986 RMK SC4 SLP111

CYWG;2007-07-22 09:00;CYWG 220900Z 17008KT 15SM BKN046 24/20 A2985 RMK SC6 SLP106

CYWG;2007-07-22 10:00;CYWG 221000Z 17006KT 15SM OVC044 23/20 A2986 RMK SC8 SLP110

CYWG;2007-07-22 10:35;CYWG 221035Z 18006KT 10SM -SHRA OVC042 23/ RMK SC8

CYWG;2007-07-22 10:54;CYWG 221054Z 20007KT 10SM SCT032 OVC280 22/ RMK SC3CI1 BR

CYWG;2007-07-22 11:00;CYWG 221100Z 19005KT 10SM BKN032 OVC280 22/20 A2989 RMK SC5CI0 BR SLP120

CYWG;2007-07-22 12:00;CYWG 221200Z 15003KT 15SM BKN040 OVC280 23/20 A2990 RMK SC7CI1 SLP122

CYWG;2007-07-22 13:00;CYWG 221300Z 17005KT 10SM FEW024 FEW087 BKN280 24/20 A2989 RMK SC1AC2CI1 HZ SLP121

CYWG;2007-07-22 14:00;CYWG 221400Z 23009KT 10SM FEW090 SCT280 24/20 A2987 RMK AC1CI1 HZ SLP112

CYWG;2007-07-22 15:00;CYWG 221500Z 29009KT 10SM SCT015 BKN280 25/21 A2989 RMK SC4CI0 HZ SLP121

CYWG;2007-07-22 16:00;CYWG 221600Z 32004KT 10SM FEW084 FEW280 28/23 A2990 RMK AC2CI1 HZ SLP122

CYWG;2007-07-22 17:00;CYWG 221700Z 36006KT 15SM FEW025 FEW280 30/23 A2991 RMK CU1CI1 HZ SLP126

CYWG;2007-07-22 18:00;CYWG 221800Z 01004KT 15SM FEW028 SCT280 30/22 A2992 RMK CU2CI1 SLP130

CYWG;2007-07-22 19:00;CYWG 221900Z 34005KT 15SM FEW031 SCT280 31/22 A2992 RMK CU2CI0 SLP129

CYWG;2007-07-22 20:00;CYWG 222000Z 32007KT 15SM SCT037 BKN280 32/23 A2992 RMK CU3CI0 SLP129

CYWG;2007-07-22 21:00;CYWG 222100Z 30009KT 15SM FEW042 BKN280 32/22 A2993 RMK CU2CI1 SLP131

CYWG;2007-07-22 22:00;CYWG 222200Z 31010KT 15SM FEW040 FEW092 BKN280 31/19 A2993 RMK CU1AC2CI1 SLP133

CYWG;2007-07-22 23:00;CYWG 222300Z 30009KT 15SM FEW040 FEW092 BKN280 30/18 A2993 RMK CU1AC2CI1 SLP134

CYWG;2007-07-23 00:00;CYWG 230000Z 29005KT 15SM FEW040 FEW090 BKN280 28/20 A2994 RMK CF1AC1CI2 SLP137

CYWG;2007-07-23 01:00;CYWG 230100Z 32005KT 15SM FEW090 BKN280 27/21 A2995 RMK AC1CI2 SLP139

CYWG;2007-07-23 02:00;CYWG 230200Z 31002KT 15SM FEW090 BKN280 25/21 A2995 RMK AC1CI2 SLP141

CYWG;2007-07-23 03:00;CYWG 230300Z 00000KT 15SM SCT280 23/20 A2997 RMK CI1 SLP147

CYWG;2007-07-23 04:00;CYWG 230400Z 30004KT 15SM FEW280 20/18 A2997 RMK CI1 SLP149

CYWG;2007-07-23 05:00;CYWG 230500Z 20002KT 15SM FEW280 18/17 A2998 RMK CI1 SLP150

CYWG;2007-07-23 06:00;CYWG 230600Z 20002KT 15SM FEW280 18/16 A2997 RMK CI1 SLP149

CYWG;2007-07-23 07:00;CYWG 230700Z 23003KT 15SM SCT280 18/17 A2998 RMK CI1 SLP151

CYWG;2007-07-23 08:00;CYWG 230800Z 15002KT 15SM SKC 18/17 A2998 RMK SLP150

CYWG;2007-07-23 09:00;CYWG 230900Z 18004KT 15SM SKC 19/17 A2997 RMK SLP148

CYWG;2007-07-23 10:00;CYWG 231000Z 18005KT 15SM SKC 19/17 A2997 RMK SLP147

CYWG;2007-07-23 11:00;CYWG 231100Z 21005KT 15SM FEW085 SCT250 20/18 A2998 RMK AC2CI1 SLP150

CYWG;2007-07-23 12:00;CYWG 231200Z 16004KT 15SM FEW090 SCT250 21/19 A2998 RMK AC2CI1 SLP151

CYWG;2007-07-23 13:00;CYWG 231300Z 21008KT 15SM SCT092 BKN250 24/19 A2999 RMK AC3CI2 SLP156

CYWG;2007-07-23 14:00;CYWG 231400Z 20006KT 15SM FEW090 BKN250 25/19 A3000 RMK AC2CI3 SLP159

CYWG;2007-07-23 15:00;CYWG 231500Z 20007KT 15SM FEW090 OVC250 28/21 A3000 RMK AC2CI4 SLP159

CYWG;2007-07-23 16:00;CYWG 231600Z 17009KT 15SM OVC250 29/21 A2999 RMK CI5 SLP153

CYWG;2007-07-23 17:00;CYWG 231700Z 18009KT 15SM BKN250 30/22 A2997 RMK CI3 SLP149

CYWG;2007-07-23 18:00;CYWG 231800Z 18011KT 15SM BKN250 32/22 A2996 RMK CI4 SLP144

CYWG;2007-07-23 19:00;CYWG 231900Z 17013KT 15SM BKN250 31/20 A2994 RMK CI4 SLP138

CYWG;2007-07-23 20:00;CYWG 232000Z 21014KT 15SM FEW140 BKN250 33/20 A2994 RMK AC1CI3 SLP139

CYWG;2007-07-23 21:00;CYWG 232100Z 18014KT 15SM BKN250 33/21 A2993 RMK CI2 SLP135

CYWG;2007-07-23 22:00;CYWG 232200Z 21012G17KT 15SM FEW140 BKN250 32/21 A2993 RMK AC1CI2 SLP132

CYWG;2007-07-23 23:00;CYWG 232300Z 22009KT 15SM SCT120 BKN250 33/23 A2991 RMK AC3CI1 SLP127

CYWG;2007-07-24 00:00;CYWG 240000Z 18006KT 15SM SCT120 BKN250 31/23 A2990 RMK AC3CI1 SLP125

CYWG;2007-07-24 01:00;CYWG 240100Z 18008KT 15SM SCT078 BKN120 BKN250 30/22 A2989 RMK AC3AC2CI1 SLP119

CYWG;2007-07-24 02:00;CYWG 240200Z 20008KT 15SM FEW080 SCT120 BKN250 29/21 A2988 RMK AC2AC2CI2 SLP118

CYWG;2007-07-24 03:00;CYWG 240300Z 17006KT 15SM SCT120 BKN250 28/21 A2989 RMK AC2CI1 SLP119

CYWG;2007-07-24 04:00;CYWG 240400Z 19006KT 15SM FEW120 SCT250 26/21 A2989 RMK AC1CI1 SLP119

CYWG;2007-07-24 05:00;CYWG 240500Z 19006KT 15SM FEW120 SCT250 26/21 A2988 RMK AC1CI1 SLP116

CYWG;2007-07-24 06:00;CYWG 240600Z 19008KT 15SM FEW250 26/21 A2987 RMK CI1 LTGIC DIST SW SLP111

CYWG;2007-07-24 07:00;CYWG 240700Z 18008KT 15SM FEW100 SCT250 26/20 A2988 RMK AC1CI2 SLP114

CYWG;2007-07-24 08:00;CYWG 240800Z 19010KT 15SM FEW100 SCT250 26/20 A2989 RMK AC2CI1 SLP118

CYWG;2007-07-24 09:00;CYWG 240900Z 18009KT 15SM FEW100 SCT250 24/20 A2985 RMK AC2CI1 SLP106

CYWG;2007-07-24 10:00;CYWG 241000Z 21011KT 15SM FEW100 BKN250 24/20 A2985 RMK AC2CI1 SLP106

CYWG;2007-07-24 11:00;CYWG 241100Z 18005KT 15SM FEW100 BKN260 24/19 A2984 RMK ACC1CI2 SLP102

CYWG;2007-07-24 12:00;CYWG 241200Z 17009KT 15SM FEW100 BKN260 24/20 A2984 RMK ACC1CI2 SLP101

CYWG;2007-07-24 13:00;CYWG 241300Z 18008KT 15SM FEW100 SCT270 27/20 A2983 RMK ACC1CI1 SLP100

CYWG;2007-07-24 14:00;CYWG 241400Z 19008KT 15SM FEW100 SCT270 28/20 A2984 RMK ACC2CI1 SLP101

CYWG;2007-07-24 15:00;CYWG 241500Z 20007KT 15SM FEW100 FEW270 29/21 A2984 RMK ACC1CI1 SLP102

CYWG;2007-07-24 16:00;CYWG 241600Z 18010KT 15SM FEW270 31/19 A2983 RMK CI1 SLP097

CYWG;2007-07-24 17:00;CYWG 241700Z 19011KT 15SM FEW270 31/19 A2982 RMK CI1 SLP094

CYWG;2007-07-24 18:00;CYWG 241800Z 17011KT 15SM SKC 33/20 A2980 RMK HZ SLP088

CYWG;2007-07-24 19:00;CYWG 241900Z 18012KT 15SM SKC 34/20 A2978 RMK SLP081

CYWG;2007-07-24 20:00;CYWG 242000Z 18015KT 15SM SKC 34/21 A2978 RMK SLP080

CYWG;2007-07-24 21:00;CYWG 242100Z 18016G24KT 15SM SKC 34/21 A2977 RMK SLP076

CYWG;2007-07-24 22:00;CYWG 242200Z 19017G25KT 15SM SKC 34/21 A2976 RMK SLP074

CYWG;2007-07-24 23:00;CYWG 242300Z 18019G29KT 15SM SKC 33/22 A2975 RMK SLP071

CYWG;2007-07-25 00:00;CYWG 250000Z 18018G24KT 15SM SKC 32/22 A2974 RMK SLP066

CYWG;2007-07-25 01:00;CYWG 250100Z 18014G21KT 15SM FEW130 31/23 A2973 RMK AC1 SLP065

CYWG;2007-07-25 02:00;CYWG 250200Z 18015KT 15SM FEW130 30/23 A2973 RMK AC2 SLP064

CYWG;2007-07-25 03:00;CYWG 250300Z 18017KT 15SM FEW130 29/23 A2973 RMK AC2 SLP065

CYWG;2007-07-25 04:00;CYWG 250400Z 18015G24KT 15SM FEW130 28/23 A2973 RMK AC1 SLP064

CYWG;2007-07-25 05:00;CYWG 250500Z 18018KT 15SM SKC 27/22 A2972 RMK SLP062

CYWG;2007-07-25 06:00;CYWG 250600Z 18017G22KT 15SM SKC 26/22 A2973 RMK SLP063

CYWG;2007-07-25 07:00;CYWG 250700Z 18015KT 15SM SKC 25/22 A2973 RMK SLP062

CYWG;2007-07-25 08:00;CYWG 250800Z 18016KT 15SM SKC 25/22 A2972 RMK SLP061

CYWG;2007-07-25 09:00;CYWG 250900Z 18015KT 15SM SKC 24/22 A2972 RMK SLP061

CYWG;2007-07-25 10:00;CYWG 251000Z 18013G18KT 15SM SKC 24/22 A2971 RMK SLP058

CYWG;2007-07-25 11:00;CYWG 251100Z 18015KT 12SM FEW060 24/22 A2971 RMK SC1 BR SLP058

CYWG;2007-07-25 11:49;CYWG 251149Z 18008KT 12SM BKN007 BKN060 24/ RMK ST3SC1 BR

CYWG;2007-07-25 12:00;CYWG 251200Z 19007KT 12SM BKN008 24/22 A2975 RMK ST6 PRESRR BR SLP071

CYWG;2007-07-25 13:00;CYWG 251300Z 17010KT 15SM BKN008 25/23 A2976 RMK SF6 SLP074

CYWG;2007-07-25 14:00;CYWG 251400Z 17014KT 15SM BKN009 26/23 A2974 RMK SF3 SLP066

CYWG;2007-07-25 14:35;CYWG 251435Z 17014KT 15SM FEW012 27/ RMK SF1

CYWG;2007-07-25 15:00;CYWG 251500Z 19009G18KT 15SM FEW014 28/24 A2975 RMK CU1 SLP070

CYWG;2007-07-25 16:00;CYWG 251600Z 18017KT 15SM FEW040 29/24 A2972 RMK CF1 CF TR SLP062

CYWG;2007-07-25 17:00;CYWG 251700Z 20012G17KT 15SM FEW150 32/25 A2971 RMK AC1 SLP059

CYWG;2007-07-25 18:00;CYWG 251800Z 18016G21KT 15SM FEW040 FEW150 33/25 A2971 RMK CU1AC1 CU/AC TR SLP057

CYWG;2007-07-25 19:00;CYWG 251900Z 21014KT 15SM FEW040 34/25 A2970 RMK CU1 SLP054

CYWG;2007-07-25 20:00;CYWG 252000Z 21014G20KT 15SM FEW040 FEW120 FEW300 35/25 A2970 RMK CU1AC1CI0 SLP054

CYWG;2007-07-25 21:00;CYWG 252100Z 21007G17KT 15SM BKN038 34/25 A2971 RMK CU6 SLP056

CYWG;2007-07-25 22:00;CYWG 252200Z 32008KT 15SM BKN034 OVC057 29/25 A2973 RMK CU6SC2 CVCTV CLD EMBD SLP062

CYWG;2007-07-25 22:05;CYWG 252205Z 30011KT 15SM -TSRA OVC034 29/ RMK CU8 CB EMBD

CYWG;2007-07-25 22:12;CYWG 252212Z 25023G29KT 6SM TSRA BKN012CB OVC032 28/ RMK CB5CU3

CYWG;2007-07-25 22:16;CYWG 252216Z 25030G37KT 1 1/2SM TSRA BR BKN012CB OVC025 24/ RMK FG2CB4CU2

CYWG;2007-07-25 22:39;CYWG 252239Z 09008KT 3SM TSRA BR BKN070CB OVC098 23/ RMK FG2CB3AC3

CYWG;2007-07-25 22:47;CYWG 252247Z 06004KT 15SM -TSRA BKN065TCU OVC091 23/ RMK TCU5AC3 CB EMBD

CYWG;2007-07-25 23:00;CYWG 252300Z 35008KT 15SM SCT068TCU BKN091 23/21 A2974 RMK TCU4AC3 CB E SLP067

CYWG;2007-07-25 23:12;CYWG 252312Z 36011G17KT 15SM TS SCT014 BKN068 24/ RMK SC4AC3 TCU ASOTD CB E

CYWG;2007-07-25 23:50;CYWG 252350Z 02015G21KT 15SM BKN026 OVC110 24/ RMK SC6AC2

CYWG;2007-07-26 00:00;CYWG 260000Z 02021KT 15SM BKN032 OVC110 24/19 A2977 RMK SC6AC2 SLP081

CYWG;2007-07-26 01:00;CYWG 260100Z 02009KT 15SM BKN051 OVC110 23/20 A2977 RMK SC6AC2 SLP081

CYWG;2007-07-26 02:00;CYWG 260200Z 02015KT 15SM BKN096 OVC250 22/18 A2981 RMK AC5CI3 SLP092

CYWG;2007-07-26 02:31;CYWG 260231Z 04012KT 15SM -SHRA FEW050CB BKN100 OVC250 22/ RMK CB2AC4CI2 CB S

CYWG;2007-07-26 02:46;CYWG 260246Z 03007KT 15SM -TSRA FEW050CB BKN090 OVC250 22/ RMK CB2AC3CI2 LTGICCG S

CYWG;2007-07-26 03:00;CYWG 260300Z 03007KT 12SM -TSRA FEW060CB BKN090 BKN250 21/19 A2987 RMK CB2AC3CI2 LTGIC S-E VIS 6 E PRESRR SLP113

CYWG;2007-07-26 04:00;CYWG 260400Z 01008KT 12SM -TSRA FEW018 BKN058CB OVC090 21/19 A2985 RMK SC2CB3AC2 LTGICCG NE AND W SLP108

CYWG;2007-07-26 04:43;CYWG 260443Z 36009KT 15SM -SHRA SCT024 BKN055 OVC095 20/ RMK SC3SC2AC2 LTGIC DIST NE-E RETS

CYWG;2007-07-26 05:00;CYWG 260500Z 01010KT 12SM -SHRA SCT024 OVC055 20/19 A2985 RMK SC3SC5 RETS SLP107

CYWG;2007-07-26 05:12;CYWG 260512Z 01010KT 5SM -TSRA SCT024 BKN044CB OVC055 20/ RMK SC3CB2SC3 LTGIC

CYWG;2007-07-26 05:20;CYWG 260520Z CCA 03011KT 2 1/2SM -TSRA BKN024 OVC044CB 20/ RMK SC5CB3 LTGIC

CYWG;2007-07-26 05:37;CYWG 260537Z 03011KT 10SM -SHRA SCT024 OVC044 20/ RMK SC4SC4 RETS

CYWG;2007-07-26 06:00;CYWG 260600Z 02012KT 12SM SCT020 OVC063 20/19 A2983 RMK SC3SC5 RETS SLP101

CYWG;2007-07-26 07:00;CYWG 260700Z 01008KT 15SM -SHRA SCT071 OVC098 20/19 A2983 RMK AC3AC5 CVCTV CLD EMBD SLP099

CYWG;2007-07-26 07:32;CYWG 260732Z 34006KT 15SM FEW071 OVC098 20/ RMK AC2AC6

CYWG;2007-07-26 08:00;CYWG 260800Z 34006KT 15SM BKN068 OVC098 20/19 A2986 RMK AC5AC3 SLP108

CYWG;2007-07-26 09:00;CYWG 260900Z 33007KT 15SM FEW030 BKN074 19/19 A2987 RMK SC2AC6 SLP111

CYWG;2007-07-26 10:00;CYWG 261000Z 33007KT 15SM SCT025 BKN074 19/18 A2988 RMK SC4AC3 SLP115

CYWG;2007-07-26 11:00;CYWG 261100Z 33004KT 15SM SCT075 BKN100 19/18 A2989 RMK AC4AC2 SLP119

CYWG;2007-07-26 12:00;CYWG 261200Z 34007KT 15SM SCT075 BKN100 19/18 A2989 RMK AC4AC2 SLP121

CYWG;2007-07-26 13:00;CYWG 261300Z 35008KT 15SM FEW075 BKN120 BKN250 20/19 A2990 RMK AC2AC3CI1 SLP125

CYWG;2007-07-26 14:00;CYWG 261400Z 35012KT 15SM FEW080 SCT120 BKN250 22/19 A2990 RMK AC1AC2CI1 SLP126

CYWG;2007-07-26 15:00;CYWG 261500Z 35010KT 15SM FEW080 FEW120 SCT250 24/19 A2990 RMK AC1AC2CI1 SLP126

CYWG;2007-07-26 16:00;CYWG 261600Z 34010KT 15SM FEW025 FEW120 SCT250 25/18 A2992 RMK CF1AC2CI1 SLP130

CYWG;2007-07-26 17:00;CYWG 261700Z 35010KT 15SM FEW035 FEW120 27/19 A2992 RMK CU1AC2 SLP130

CYWG;2007-07-26 18:00;CYWG 261800Z 33011G16KT 15SM FEW043 SCT120 28/17 A2993 RMK CU2AC1 SLP133

CYWG;2007-07-26 19:00;CYWG 261900Z 01012KT 15SM FEW050 FEW120 28/15 A2993 RMK CU2ACC1 ACC TR SLP136

CYWG;2007-07-26 20:00;CYWG 262000Z 32012G17KT 15SM FEW056 28/14 A2993 RMK CU2 SLP135

CYWG;2007-07-26 21:00;CYWG 262100Z 33016KT 15SM FEW056 28/14 A2993 RMK CU1 SLP136

CYWG;2007-07-26 22:00;CYWG 262200Z 34010G16KT 15SM FEW056 28/14 A2993 RMK CU1 SLP136

CYWG;2007-07-26 23:00;CYWG 262300Z 33012KT 15SM FEW055 28/14 A2994 RMK CU1 SLP137

CYWG;2007-07-27 00:00;CYWG 270000Z 32014G19KT 15SM FEW048 26/14 A2995 RMK SC1 SLP142

CYWG;2007-07-27 01:00;CYWG 270100Z 32011KT 15SM FEW045 24/15 A2996 RMK SC1 SLP144

CYWG;2007-07-27 02:00;CYWG 270200Z 32007KT 15SM FEW030 21/15 A2996 RMK SC1 SLP145

CYWG;2007-07-27 03:00;CYWG 270300Z 33007KT 15SM FEW030 19/14 A2997 RMK SC1 SLP150

CYWG;2007-07-27 04:00;CYWG 270400Z 33007KT 15SM SKC 16/14 A2999 RMK SLP156

CYWG;2007-07-27 05:00;CYWG 270500Z 01003KT 15SM SKC 15/13 A2999 RMK SLP157

CYWG;2007-07-27 06:00;CYWG 270600Z 00000KT 15SM SKC 16/13 A3001 RMK SLP162

CYWG;2007-07-27 07:00;CYWG 270700Z 30004KT 15SM SKC 14/12 A3002 RMK SLP167

CYWG;2007-07-27 08:00;CYWG 270800Z 29007KT 15SM SKC 14/12 A3003 RMK SLP169

CYWG;2007-07-27 09:00;CYWG 270900Z 28006KT 15SM SKC 12/11 A3003 RMK SLP172

CYWG;2007-07-27 10:00;CYWG 271000Z 29007KT 15SM SKC 12/11 A3004 RMK SLP173

CYWG;2007-07-27 11:00;CYWG 271100Z 31006KT 15SM FEW100 11/10 A3005 RMK AC1 SLP178

CYWG;2007-07-27 12:00;CYWG 271200Z 31004KT 15SM SKC 13/12 A3006 RMK SLP181

CYWG;2007-07-27 13:00;CYWG 271300Z 32005KT 15SM SKC 17/14 A3007 RMK SLP184

CYWG;2007-07-27 14:00;CYWG 271400Z 35007KT 15SM SKC 21/15 A3008 RMK SLP186

CYWG;2007-07-27 15:00;CYWG 271500Z 01005KT 15SM FEW280 23/14 A3009 RMK CI0 SLP189

CYWG;2007-07-27 16:00;CYWG 271600Z 03006KT 15SM FEW045 FEW280 24/12 A3009 RMK CF1CI0 TR CF SLP189

CYWG;2007-07-27 17:00;CYWG 271700Z 01006KT 15SM FEW055 BKN280 25/11 A3008 RMK CF1CI1 TR CF SLP188

CYWG;2007-07-27 18:00;CYWG 271800Z 03005G15KT 15SM FEW055 SCT280 26/10 A3007 RMK CF1CI0 TR CF SLP184

CYWG;2007-07-27 19:00;CYWG 271900Z 08004KT 15SM FEW060 SCT280 26/11 A3007 RMK CU1CI1 SLP183

CYWG;2007-07-27 20:00;CYWG 272000Z 06005KT 15SM FEW060 SCT280 27/12 A3006 RMK CU2CI1 SLP181

CYWG;2007-07-27 21:00;CYWG 272100Z 02007KT 15SM FEW060 SCT280 27/12 A3005 RMK CU2CI1 SLP178

CYWG;2007-07-27 22:00;CYWG 272200Z 08003KT 15SM FEW064 SCT280 27/12 A3004 RMK CU2CI1 SLP174

CYWG;2007-07-27 23:00;CYWG 272300Z 33005KT 15SM FEW060 SCT280 27/11 A3003 RMK CU1CI1 SLP171

CYWG;2007-07-28 00:00;CYWG 280000Z 33003KT 15SM FEW060 FEW280 27/13 A3003 RMK SC1CI1 SLP170

CYWG;2007-07-28 01:00;CYWG 280100Z 35004KT 15SM FEW050 FEW280 25/14 A3003 RMK SC1CI1 SLP171

CYWG;2007-07-28 02:00;CYWG 280200Z 36002KT 15SM FEW045 23/15 A3003 RMK SC1 SLP169

CYWG;2007-07-28 03:00;CYWG 280300Z 00000KT 15SM FEW030 FEW280 19/14 A3003 RMK SC1CI1 SLP170

CYWG;2007-07-28 04:00;CYWG 280400Z 18002KT 15SM FEW030 19/13 A3003 RMK SC1 SLP170

CYWG;2007-07-28 05:00;CYWG 280500Z 20003KT 15SM FEW030 18/13 A3003 RMK SC1 SLP170

CYWG;2007-07-28 06:00;CYWG 280600Z 22005KT 15SM FEW030 18/13 A3003 RMK SC1 SLP168

CYWG;2007-07-28 07:00;CYWG 280700Z 00000KT 15SM FEW030 16/12 A3003 RMK SC2 SLP168

CYWG;2007-07-28 08:00;CYWG 280800Z 22003KT 15SM FEW030 FEW070 17/13 A3002 RMK SC1AC2 SLP167

CYWG;2007-07-28 09:00;CYWG 280900Z 00000KT 15SM FEW075 16/12 A3002 RMK AC1 SLP165

CYWG;2007-07-28 10:00;CYWG 281000Z 16002KT 15SM FEW075 15/12 A3002 RMK ACC1 SLP167

CYWG;2007-07-28 11:00;CYWG 281100Z 16006KT 15SM FEW088 FEW200 15/12 A3003 RMK AC2CI1 SLP170

CYWG;2007-07-28 12:00;CYWG 281200Z 18005KT 15SM FEW088 FEW200 17/14 A3003 RMK AC2CI1 SLP168

CYWG;2007-07-28 13:00;CYWG 281300Z 19006KT 15SM FEW060 FEW088 FEW200 21/14 A3003 RMK CU2AC1CI1 SLP170

CYWG;2007-07-28 14:00;CYWG 281400Z 20007KT 15SM FEW060 FEW200 22/14 A3003 RMK CU2CI1 SLP169

CYWG;2007-07-28 15:00;CYWG 281500Z 22011KT 15SM FEW060 SCT200 24/14 A3002 RMK CU1CI1 SLP167

CYWG;2007-07-28 16:00;CYWG 281600Z 21010KT 15SM FEW060 FEW100 FEW200 26/14 A3002 RMK CU1AC1CI1 SLP165

CYWG;2007-07-28 17:00;CYWG 281700Z 19012KT 15SM FEW100 FEW200 27/14 A3001 RMK AC1CI1 SLP163

CYWG;2007-07-28 18:00;CYWG 281800Z 19013KT 15SM FEW045 FEW120 SCT200 28/14 A2999 RMK CU1AC1CI2 SLP156

CYWG;2007-07-28 19:00;CYWG 281900Z 19012KT 15SM FEW055 FEW120 BKN250 28/14 A2997 RMK CU1AC1CI2 SLP149

CYWG;2007-07-28 20:00;CYWG 282000Z 21013G18KT 15SM FEW055 FEW120 BKN250 28/14 A2996 RMK CU1AC1CI3 SLP145

CYWG;2007-07-28 21:00;CYWG 282100Z 21011G19KT 15SM FEW120 BKN250 29/14 A2993 RMK AC2CI3 SLP135

CYWG;2007-07-28 22:00;CYWG 282200Z 20013KT 15SM SCT120 BKN250 28/14 A2992 RMK AC3CI3 SLP130

CYWG;2007-07-28 23:00;CYWG 282300Z 21009G15KT 15SM BKN120 BKN250 28/15 A2991 RMK AC5CI1 SLP127

CYWG;2007-07-29 00:00;CYWG 290000Z 19009KT 15SM FEW120 BKN250 27/14 A2990 RMK AC2CI2 SLP126

CYWG;2007-07-29 01:00;CYWG 290100Z 20011KT 15SM FEW120 SCT250 27/15 A2988 RMK AC2CI0 SLP118

CYWG;2007-07-29 02:00;CYWG 290200Z 19008KT 15SM FEW080 FEW120 FEW250 25/16 A2987 RMK ACC1AC1CI1 SLP116

CYWG;2007-07-29 03:00;CYWG 290300Z 20010KT 15SM FEW120 FEW250 24/16 A2987 RMK AC1CI0 SLP115

CYWG;2007-07-29 04:00;CYWG 290400Z 20009KT 15SM FEW120 FEW250 22/16 A2988 RMK AC1CI0 SLP117

CYWG;2007-07-29 05:00;CYWG 290500Z 18009KT 15SM SKC 21/16 A2987 RMK SLP113

CYWG;2007-07-29 06:00;CYWG 290600Z 19011KT 15SM SKC 21/16 A2985 RMK SLP108

CYWG;2007-07-29 07:00;CYWG 290700Z 20013KT 15SM SKC 20/16 A2985 RMK SLP108

CYWG;2007-07-29 08:00;CYWG 290800Z 21012KT 15SM SKC 20/15 A2985 RMK SLP106

CYWG;2007-07-29 09:00;CYWG 290900Z 19010KT 15SM FEW100 19/15 A2984 RMK AC1 SLP105

CYWG;2007-07-29 10:00;CYWG 291000Z 19010KT 15SM FEW100 FEW250 19/15 A2983 RMK AC2CI0 SLP101

CYWG;2007-07-29 11:00;CYWG 291100Z 21010KT 15SM FEW100 BKN280 19/14 A2984 RMK AC1CI2 SLP103

CYWG;2007-07-29 12:00;CYWG 291200Z 19012KT 15SM FEW100 BKN280 19/14 A2983 RMK AC2CI2 SLP100

CYWG;2007-07-29 13:00;CYWG 291300Z 20010KT 15SM VCSH BKN100 BKN280 20/15 A2983 RMK AC6CI2 ACC ASOCTD SLP102

CYWG;2007-07-29 14:00;CYWG 291400Z 22014KT 15SM VCSH BKN068 BKN280 22/16 A2982 RMK AC6CI2 ACC ASOCTD SLP098

CYWG;2007-07-29 15:00;CYWG 291500Z 18008KT 15SM SCT080 BKN280 24/17 A2981 RMK AC4CI2 SLP094

CYWG;2007-07-29 16:00;CYWG 291600Z 20010KT 15SM FEW100 SCT280 26/18 A2982 RMK AC2CI0 SLP097

CYWG;2007-07-29 17:00;CYWG 291700Z 20011KT 15SM FEW100 FEW280 28/19 A2982 RMK AC2CI1 SLP098

CYWG;2007-07-29 18:00;CYWG 291800Z 19008KT 15SM FEW100 30/20 A2981 RMK AC1 SLP092

CYWG;2007-07-29 19:00;CYWG 291900Z 19011G16KT 15SM FEW100 32/21 A2979 RMK AC1 SLP087

CYWG;2007-07-29 20:00;CYWG 292000Z 21013KT 15SM FEW100 34/20 A2978 RMK AC1 SLP083

CYWG;2007-07-29 21:00;CYWG 292100Z 21014G19KT 15SM SKC 35/20 A2977 RMK SLP078

CYWG;2007-07-29 22:00;CYWG 292200Z 23013G22KT 15SM FEW045 35/18 A2977 RMK CU1 SLP080

CYWG;2007-07-29 23:00;CYWG 292300Z 22013G20KT 15SM FEW100 34/21 A2977 RMK AC1 SLP079

CYWG;2007-07-30 00:00;CYWG 300000Z 21011KT 15SM SKC 33/21 A2977 RMK LYR FU ALF S AND W QUADS SLP078

CYWG;2007-07-30 01:00;CYWG 300100Z 22011KT 15SM FEW080 32/21 A2977 RMK AC1 TR AC LYR FU ALF SLP080

CYWG;2007-07-30 02:00;CYWG 300200Z 24006KT 15SM FEW080CB 29/22 A2978 RMK CB1 CB TOP DSTNT NE QUAD LYR FU ALF SLP083

CYWG;2007-07-30 03:00;CYWG 300300Z 02004KT 15SM FEW280 24/21 A2980 RMK CI1 CB TOP DSTNT NE SLP089

CYWG;2007-07-30 04:00;CYWG 300400Z 03006KT 15SM SKC 24/19 A2981 RMK SLP092

CYWG;2007-07-30 05:00;CYWG 300500Z 04004KT 15SM SKC 22/19 A2982 RMK LTGIC DSTNT NE SLP095

CYWG;2007-07-30 06:00;CYWG 300600Z 04006KT 15SM SKC 22/19 A2983 RMK SLP098

CYWG;2007-07-30 07:00;CYWG 300700Z 05003KT 15SM FEW130 22/19 A2983 RMK AC1 AC TR SLP100

CYWG;2007-07-30 08:00;CYWG 300800Z 16002KT 15SM FEW130 21/19 A2983 RMK AC1 LTGICCG DSTNT NW SLP098

CYWG;2007-07-30 09:00;CYWG 300900Z 20011KT 15SM FEW130 22/19 A2983 RMK AC2 SLP098

CYWG;2007-07-30 10:00;CYWG 301000Z 19012KT 15SM FEW060 SCT130 22/19 A2983 RMK CU1AC2 LTGIC N SLP097

CYWG;2007-07-30 11:00;CYWG 301100Z 19007KT 15SM FEW040CB SCT130 22/19 A2985 RMK CB2AC2 LTGCG NE SLP105

CYWG;2007-07-30 12:00;CYWG 301200Z 20009KT 15SM SCT080 SCT150 BKN250 22/18 A2985 RMK AC3AC1CI2 CB TOP NE SLP106

CYWG;2007-07-30 13:00;CYWG 301300Z 20008KT 15SM FEW050CB BKN150 BKN250 22/18 A2986 RMK CB2AC3CI1 LTGCG NE SLP109

CYWG;2007-07-30 14:00;CYWG 301400Z 20010KT 15SM SCT120 BKN250 24/18 A2986 RMK AC4CI2 SLP110

CYWG;2007-07-30 15:00;CYWG 301500Z 20012KT 15SM FEW120 SCT250 26/18 A2986 RMK AC2CI1 HZ SLP111

CYWG;2007-07-30 16:00;CYWG 301600Z 20013KT 12SM SKC 28/19 A2986 RMK HZ SLP110

CYWG;2007-07-30 17:00;CYWG 301700Z 20015KT 12SM SKC 30/19 A2986 RMK HZ SLP110

CYWG;2007-07-30 18:00;CYWG 301800Z 20015KT 12SM SKC 31/20 A2986 RMK HZ SLP108

CYWG;2007-07-30 19:00;CYWG 301900Z 21016KT 12SM SKC 33/20 A2985 RMK HZ SLP105

CYWG;2007-07-30 20:00;CYWG 302000Z 20016G21KT 12SM SKC 34/19 A2983 RMK HZ SLP101

CYWG;2007-07-30 21:00;CYWG 302100Z 21016G22KT 12SM FEW096 33/19 A2983 RMK AC1 HZ SLP098

CYWG;2007-07-30 22:00;CYWG 302200Z 20018G24KT 12SM FEW090 33/19 A2982 RMK AC1 HZ SLP096

CYWG;2007-07-30 23:00;CYWG 302300Z 20018KT 12SM SKC 32/19 A2982 RMK HZ SLP095

CYWG;2007-07-31 00:00;CYWG 310000Z 20015KT 12SM FEW300 31/19 A2982 RMK CI0 HZ SLP095

CYWG;2007-07-31 01:00;CYWG 310100Z 20014KT 12SM BKN300 30/19 A2982 RMK CI1 HZ SLP095

CYWG;2007-07-31 02:00;CYWG 310200Z 19014KT 12SM OVC300 29/19 A2983 RMK CI2 HZ SLP098

CYWG;2007-07-31 03:00;CYWG 310300Z 19013G20KT 15SM SCT300 27/19 A2983 RMK CI2 SLP100

CYWG;2007-07-31 04:00;CYWG 310400Z 19014KT 15SM SKC 25/19 A2983 RMK SLP098

CYWG;2007-07-31 05:00;CYWG 310500Z 19013KT 15SM SKC 25/19 A2983 RMK SLP098

CYWG;2007-07-31 06:00;CYWG 310600Z 19012G18KT 15SM SKC 24/19 A2983 RMK SLP097

CYWG;2007-07-31 07:00;CYWG 310700Z 19014KT 15SM SKC 24/19 A2982 RMK SLP095

CYWG;2007-07-31 08:00;CYWG 310800Z 19014KT 15SM SKC 24/20 A2981 RMK SLP093

CYWG;2007-07-31 09:00;CYWG 310900Z 19012KT 15SM SKC 23/19 A2981 RMK SLP093

CYWG;2007-07-31 10:00;CYWG 311000Z 19013KT 15SM FEW280 22/19 A2981 RMK CI2 SLP091

CYWG;2007-07-31 11:00;CYWG 311100Z 19014KT 15SM FEW120 SCT280 22/19 A2980 RMK AC2CI1 SLP088

CYWG;2007-07-31 12:00;CYWG 311200Z 19013KT 15SM FEW120 SCT280 22/19 A2980 RMK AC1CI1 HZ SLP087

CYWG;2007-07-31 13:00;CYWG 311300Z 19014KT 10SM FEW280 24/19 A2978 RMK CI0 HZ SLP083

CYWG;2007-07-31 14:00;CYWG 311400Z 20013G18KT 10SM BKN280 26/20 A2978 RMK CI0 HZ SLP083

CYWG;2007-07-31 15:00;CYWG 311500Z 20013G19KT 10SM BKN280 28/21 A2977 RMK CI2 HZ SLP080

CYWG;2007-07-31 16:00;CYWG 311600Z 19014KT 10SM BKN280 29/22 A2977 RMK CI2 HZ SLP079

CYWG;2007-07-31 17:00;CYWG 311700Z 20015KT 12SM SCT280 31/22 A2976 RMK CI1 HZ SLP075

CYWG;2007-07-31 18:00;CYWG 311800Z 18017KT 15SM FEW280 32/23 A2976 RMK CI1 SLP073

CYWG;2007-07-31 19:00;CYWG 311900Z 18017KT 15SM FEW280 33/22 A2974 RMK CI1 SLP068

CYWG;2007-07-31 20:00;CYWG 312000Z 18018G25KT 12SM FEW050 FEW300 34/22 A2973 RMK CU1CI2 HZ TR CU SLP063

CYWG;2007-07-31 21:00;CYWG 312100Z 21016G24KT 12SM FEW047 FEW300 34/22 A2973 RMK CU1CI1 HZ SLP063

CYWG;2007-07-31 22:00;CYWG 312200Z 21011G25KT 12SM SCT049 SCT300 34/22 A2972 RMK CU2CI1 HZ SLP062

CYWG;2007-07-31 23:00;CYWG 312300Z 20014G21KT 12SM FEW051TCU SCT300 34/22 A2970 RMK TCU2CI2 HZ CB TOP N SLP054

CYWG;2007-08-01 01:00;CYWG 010100Z 18013G18KT 12SM FEW050TCU BKN300 31/22 A2965 RMK TCU2CI2 HZ CB TOPS W AND N QUADS SLP039

CYWG;2007-08-01 02:00;CYWG 010200Z 18012KT 12SM FEW045 SCT260 30/22 A2966 RMK CU1CI2 HZ CB TOP DSTNT SW SLP042

CYWG;2007-08-01 03:00;CYWG 010300Z 17014G19KT 12SM BKN079 30/22 A2969 RMK AC6 SLP052

CYWG;2007-08-01 04:00;CYWG 010400Z 18018KT 15SM FEW080 BKN110 BKN300 29/22 A2966 RMK AC2AC5CI1 LGTCCCG W SLP041

CYWG;2007-08-01 04:52;CYWG 010452Z 18019G26KT 15SM -RA BKN110 28/ RMK AC6

CYWG;2007-08-01 05:00;CYWG 010500Z 18018G24KT 15SM -RA BKN092 BKN300 28/21 A2961 RMK AC6CI1 SLP024

CYWG;2007-08-01 06:00;CYWG 010600Z 20022G29KT 15SM FEW051 BKN071 OVC300 28/20 A2958 RMK SC2AC3CI2 SLP012

CYWG;2007-08-01 07:00;CYWG 010700Z 21022G28KT 15SM SCT100 OVC300 27/18 A2959 RMK AC3CI1 SLP015

CYWG;2007-08-01 08:00;CYWG 010800Z 23014G21KT 15SM BKN098 BKN300 26/16 A2958 RMK AC5CI0 SLP013

CYWG;2007-08-01 08:09;CYWG 010809Z 24014G19KT 15SM TS BKN088 OVC300 26/ RMK AC6CI0 CB EMBD

CYWG;2007-08-01 08:13;CYWG 010813Z 24015G20KT 15SM -TSRA BKN088CB OVC300 26/ RMK CB5CI2

CYWG;2007-08-01 08:33;CYWG 010833Z 25015G24KT 15SM BKN079 OVC300 26/ RMK AC5CI2 LTNG SE RETS

CYWG;2007-08-01 09:00;CYWG 010900Z 25014G24KT 15SM BKN071 27/15 A2963 RMK AC6 RETS SLP029

CYWG;2007-08-01 10:00;CYWG 011000Z 25011G16KT 15SM BKN048 25/16 A2965 RMK SC5 SLP037

CYWG;2007-08-01 11:00;CYWG 011100Z 30014KT 15SM FEW024 SCT069 23/19 A2969 RMK SC2AC2 TCU EMBD SLP050

CYWG;2007-08-01 12:00;CYWG 011200Z 32017G25KT 15SM SCT015 BKN087 22/18 A2972 RMK SC4AC2 TCU EMBD SLP062

CYWG;2007-08-01 13:00;CYWG 011300Z 32017KT 15SM SCT019 BKN250 21/17 A2977 RMK SC4CI0 SLP077

CYWG;2007-08-01 14:00;CYWG 011400Z 32022G27KT 15SM BKN026 BKN250 22/16 A2981 RMK SC6CI1 SLP090

CYWG;2007-08-01 15:00;CYWG 011500Z 31017G24KT 15SM FEW026 23/15 A2982 RMK SC1 SLP096

CYWG;2007-08-01 16:00;CYWG 011600Z 32020G26KT 15SM FEW026 23/12 A2983 RMK SC1 SLP101

CYWG;2007-08-01 17:00;CYWG 011700Z 32020G28KT 15SM FEW026 25/09 A2986 RMK SC1 SLP108

CYWG;2007-08-01 18:00;CYWG 011800Z 30020G31KT 15SM FEW030 26/09 A2986 RMK SC1 SLP110

CYWG;2007-08-01 19:00;CYWG 011900Z 28019G24KT 15SM FEW030 26/08 A2987 RMK CU1 SLP111

CYWG;2007-08-01 20:00;CYWG 012000Z 30018G24KT 15SM FEW035 26/09 A2987 RMK CU1 SLP114

CYWG;2007-08-01 21:00;CYWG 012100Z 30018G24KT 15SM FEW035 26/09 A2987 RMK CU1 SLP114

CYWG;2007-08-01 22:00;CYWG 012200Z 29016G24KT 15SM FEW035 26/08 A2988 RMK SC1 SLP116

CYWG;2007-08-01 23:00;CYWG 012300Z 28016G21KT 15SM FEW035 25/08 A2988 RMK SC1 SLP115

CYWG;2007-08-02 00:00;CYWG 020000Z 28016G24KT 15SM FEW035 24/08 A2987 RMK SC1 SLP116

CYWG;2007-08-02 01:00;CYWG 020100Z 29015G20KT 15SM FEW035 23/08 A2987 RMK SC1 SLP116

CYWG;2007-08-02 02:00;CYWG 020200Z 28008KT 15SM FEW035 20/09 A2988 RMK SC1 SLP117

CYWG;2007-08-02 03:00;CYWG 020300Z 26007KT 15SM FEW035 18/09 A2988 RMK SC1 SLP120

CYWG;2007-08-02 04:00;CYWG 020400Z 27009KT 15SM FEW035 18/10 A2988 RMK SC1 SLP120

CYWG;2007-08-02 05:00;CYWG 020500Z 28010KT 15SM SKC 17/10 A2988 RMK SLP119

CYWG;2007-08-02 06:00;CYWG 020600Z 27010KT 15SM SKC 15/10 A2989 RMK SLP121

CYWG;2007-08-02 07:00;CYWG 020700Z 26009KT 15SM SKC 14/10 A2989 RMK SLP122

CYWG;2007-08-02 08:00;CYWG 020800Z 27010G17KT 15SM SKC 14/11 A2989 RMK SLP121

CYWG;2007-08-02 09:00;CYWG 020900Z 26009KT 15SM SKC 14/11 A2989 RMK SLP121

CYWG;2007-08-02 10:00;CYWG 021000Z 27009KT 15SM SKC 14/11 A2990 RMK SLP125

CYWG;2007-08-02 11:00;CYWG 021100Z 26010KT 15SM FEW030 14/11 A2990 RMK SC1 SLP126

CYWG;2007-08-02 12:00;CYWG 021200Z 26010KT 15SM SKC 14/11 A2991 RMK SLP131

CYWG;2007-08-02 13:00;CYWG 021300Z 27008KT 15SM FEW250 16/12 A2993 RMK CI1 SLP137

CYWG;2007-08-02 14:00;CYWG 021400Z 29014G19KT 15SM FEW250 20/12 A2993 RMK CI1 SLP135

CYWG;2007-08-02 15:00;CYWG 021500Z 31019G25KT 15SM FEW030 FEW250 22/11 A2993 RMK CU1CI1 SLP137

CYWG;2007-08-02 16:00;CYWG 021600Z 30022G30KT 15SM FEW035 23/09 A2994 RMK CU1 SLP139

CYWG;2007-08-02 17:00;CYWG 021700Z 30020G31KT 15SM FEW040 24/09 A2993 RMK CU1 SLP137

CYWG;2007-08-02 18:00;CYWG 021800Z 30020G25KT 15SM FEW062 26/10 A2993 RMK CF1 SLP135

CYWG;2007-08-02 19:00;CYWG 021900Z 33021G30KT 15SM SKC 26/08 A2993 RMK SLP137

CYWG;2007-08-02 20:00;CYWG 022000Z 32026G31KT 15SM SKC 26/07 A2995 RMK SLP142

CYWG;2007-08-02 21:00;CYWG 022100Z 31021G27KT 15SM SKC 27/07 A2995 RMK SLP142

CYWG;2007-08-02 22:00;CYWG 022200Z 32019G28KT 15SM SKC 27/08 A2995 RMK SLP144

CYWG;2007-08-02 23:00;CYWG 022300Z 32018G25KT 15SM SKC 26/07 A2996 RMK SLP146

CYWG;2007-08-03 00:00;CYWG 030000Z 33013KT 15SM SKC 25/08 A2996 RMK SLP147

CYWG;2007-08-03 01:00;CYWG 030100Z 34009KT 15SM SKC 24/08 A2996 RMK SLP148

CYWG;2007-08-03 02:00;CYWG 030200Z 36007KT 15SM SKC 19/09 A2998 RMK SLP152

CYWG;2007-08-03 03:00;CYWG 030300Z 36008KT 15SM SKC 16/07 A2999 RMK SLP157

CYWG;2007-08-03 04:00;CYWG 030400Z 35006KT 15SM SKC 14/07 A2999 RMK SLP159

CYWG;2007-08-03 05:00;CYWG 030500Z 08003KT 15SM SKC 14/09 A3003 RMK SLP169

CYWG;2007-08-03 06:00;CYWG 030600Z 02002KT 15SM SKC 11/08 A3004 RMK SLP175

CYWG;2007-08-03 07:00;CYWG 030700Z 01002KT 15SM SKC 11/08 A3005 RMK SLP179

CYWG;2007-08-03 08:00;CYWG 030800Z 00000KT 15SM SKC 10/08 A3006 RMK SLP181

CYWG;2007-08-03 09:00;CYWG 030900Z 07003KT 15SM SKC 09/07 A3006 RMK SLP180

CYWG;2007-08-03 10:00;CYWG 031000Z 25002KT 15SM SKC 08/07 A3006 RMK SLP182

CYWG;2007-08-03 11:00;CYWG 031100Z 00000KT 15SM FEW250 07/06 A3007 RMK CI1 SLP185

CYWG;2007-08-03 12:00;CYWG 031200Z 20003KT 15SM FEW250 10/09 A3008 RMK CI1 SLP189

CYWG;2007-08-03 13:00;CYWG 031300Z 19008KT 15SM FEW250 16/11 A3010 RMK CI1 SLP195

CYWG;2007-08-03 14:00;CYWG 031400Z 18006KT 15SM FEW250 18/10 A3009 RMK CI1 SLP193

CYWG;2007-08-03 15:00;CYWG 031500Z 17006KT 15SM FEW250 21/09 A3010 RMK CI1 SLP194

CYWG;2007-08-03 16:00;CYWG 031600Z 19006KT 15SM FEW250 22/10 A3009 RMK CI1 SLP191

CYWG;2007-08-03 17:00;CYWG 031700Z 12002KT 15SM FEW250 24/09 A3008 RMK CI1 SLP187

CYWG;2007-08-03 18:00;CYWG 031800Z 05002KT 15SM FEW250 24/08 A3006 RMK CI1 SLP181

CYWG;2007-08-03 19:00;CYWG 031900Z 12004KT 15SM FEW060 FEW250 26/09 A3004 RMK CF1CI1 SLP176

CYWG;2007-08-03 20:00;CYWG 032000Z 18005KT 15SM FEW250 26/10 A3003 RMK CI1 SLP170

CYWG;2007-08-03 21:00;CYWG 032100Z 11003KT 15SM FEW250 26/09 A3001 RMK CI1 SLP166

CYWG;2007-08-03 22:00;CYWG 032200Z 17006KT 15SM FEW120 FEW250 27/09 A3000 RMK AC1CI2 SLP161

CYWG;2007-08-03 23:00;CYWG 032300Z 14007KT 15SM FEW250 27/10 A2999 RMK CI2 SLP158

CYWG;2007-08-04 00:00;CYWG 040000Z 13008KT 15SM FEW250 26/11 A2997 RMK CI2 SLP150

CYWG;2007-08-04 01:00;CYWG 040100Z 15008KT 15SM FEW120 BKN250 25/11 A2996 RMK AC1CI2 SLP147

CYWG;2007-08-04 02:00;CYWG 040200Z 14009KT 15SM FEW120 BKN250 24/10 A2996 RMK ACC1CI2 SLP148

CYWG;2007-08-04 03:00;CYWG 040300Z 11007KT 15SM FEW120 SCT250 21/11 A2996 RMK ACC2CI1 SLP147

CYWG;2007-08-04 04:00;CYWG 040400Z 11007KT 15SM FEW065 FEW120 BKN250 21/10 A2997 RMK SC1AC2CI1 SLP149

CYWG;2007-08-04 05:00;CYWG 040500Z 10009KT 15SM BKN058 BKN250 20/10 A2995 RMK SC4CI1 SLP144

CYWG;2007-08-04 06:00;CYWG 040600Z 12006KT 12SM SCT061 OVC250 20/11 A2993 RMK SC3CI4 FU SLP137

CYWG;2007-08-04 07:00;CYWG 040700Z 13008KT 6SM FU OVC250 21/11 A2992 RMK CI2 SLP131

CYWG;2007-08-04 08:00;CYWG 040800Z 13009KT 6SM FU OVC250 21/12 A2991 RMK FU3CI3 SLP129

CYWG;2007-08-04 09:00;CYWG 040900Z 14008KT 10SM BKN120 OVC250 20/12 A2990 RMK AC5CI2 FU SLP125

CYWG;2007-08-04 10:00;CYWG 041000Z 15006KT 15SM BKN120 BKN250 19/12 A2990 RMK AC5CI1 FU SLP123

CYWG;2007-08-04 11:00;CYWG 041100Z 14006KT 15SM BKN120 OVC250 19/12 A2987 RMK AC6CI1 SLP116

CYWG;2007-08-04 12:00;CYWG 041200Z 17009KT 15SM BKN120 BKN250 19/13 A2987 RMK AC6CI1 SLP115

CYWG;2007-08-04 13:00;CYWG 041300Z 18011KT 15SM SCT120 BKN250 19/14 A2988 RMK AC3CI1 SLP119

CYWG;2007-08-04 14:00;CYWG 041400Z 19009KT 15SM SCT095 BKN250 22/16 A2988 RMK AC3CI1 SLP119

CYWG;2007-08-04 15:00;CYWG 041500Z 20013KT 15SM SCT100 BKN250 23/15 A2987 RMK AC4CI1 SLP116

CYWG;2007-08-04 16:00;CYWG 041600Z 19011G16KT 15SM FEW100 SCT250 24/16 A2986 RMK AC2CI1 SLP112

CYWG;2007-08-04 17:00;CYWG 041700Z 18016G22KT 15SM FEW100 FEW250 27/16 A2984 RMK AC1CI1 SLP104

CYWG;2007-08-04 18:00;CYWG 041800Z 20017G25KT 15SM FEW044 SCT100 BKN250 27/16 A2986 RMK CU2AC1CI1 SLP109

CYWG;2007-08-04 19:00;CYWG 041900Z 20020KT 15SM FEW045 FEW110 BKN250 28/16 A2984 RMK CU1AC2CI1 ACC ASOCTD SLP103

CYWG;2007-08-04 20:00;CYWG 042000Z 21018KT 15SM FEW048 FEW110 BKN250 28/16 A2982 RMK CU2AC1CI2 SLP098

CYWG;2007-08-04 21:00;CYWG 042100Z 19018KT 15SM SCT045 SCT110 BKN250 29/18 A2980 RMK CU3AC1CI1 SLP092

CYWG;2007-08-04 23:00;CYWG 042300Z 20018KT 15SM SCT043 BKN270 27/17 A2979 RMK SC3CI2 SLP087

CYWG;2007-08-05 00:00;CYWG 050000Z 18017G25KT 15SM FEW041 SCT110 BKN270 26/17 A2976 RMK SC2AC2CI1 SLP078

CYWG;2007-08-05 01:00;CYWG 050100Z 21013G20KT 15SM FEW040 FEW110 BKN270 25/17 A2976 RMK SC2AC1CI1 SLP076

CYWG;2007-08-05 02:00;CYWG 050200Z 21015G21KT 15SM FEW110 BKN270 23/16 A2975 RMK AC2CI2 SLP074

CYWG;2007-08-05 03:00;CYWG 050300Z 20015KT 15SM SCT270 22/16 A2975 RMK CI2 SLP075

CYWG;2007-08-05 04:00;CYWG 050400Z 21012G24KT 15SM SCT270 22/16 A2976 RMK CI2 SLP076

CYWG;2007-08-05 05:00;CYWG 050500Z 21018KT 15SM FEW120 SCT270 21/16 A2975 RMK AC2CI1 SLP074

CYWG;2007-08-05 06:00;CYWG 050600Z 21021G30KT 15SM SCT090 BKN270 21/15 A2973 RMK AC3CI0 SLP065

CYWG;2007-08-05 07:00;CYWG 050700Z 21016KT 15SM FEW090 20/16 A2971 RMK AC2 SLP061

CYWG;2007-08-05 08:00;CYWG 050800Z 21013G21KT 15SM FEW025 19/16 A2972 RMK SC2 SLP063

CYWG;2007-08-05 09:00;CYWG 050900Z 20012KT 15SM FEW025 FEW270 18/15 A2972 RMK SC1CI1 SLP064

CYWG;2007-08-05 10:00;CYWG 051000Z 20011KT 15SM SCT270 18/15 A2970 RMK CI2 SLP057

CYWG;2007-08-05 11:00;CYWG 051100Z 20010G15KT 15SM BKN270 17/15 A2969 RMK CI2 SLP053

CYWG;2007-08-05 12:00;CYWG 051200Z 20011G16KT 15SM BKN270 17/15 A2969 RMK CI2 SLP053

CYWG;2007-08-05 13:00;CYWG 051300Z 20012KT 15SM FEW040 SCT270 18/16 A2967 RMK SC1CI2 SLP048

CYWG;2007-08-05 14:00;CYWG 051400Z 21013KT 15SM SCT270 20/16 A2965 RMK CI2 SLP041

CYWG;2007-08-05 15:00;CYWG 051500Z 25011KT 15SM OVC270 22/17 A2965 RMK CI2 SLP041

CYWG;2007-08-05 16:00;CYWG 051600Z 25012KT 15SM BKN270 24/16 A2964 RMK CI2 SLP038

CYWG;2007-08-05 17:00;CYWG 051700Z 27015KT 14SM FEW040 SCT270 26/14 A2965 RMK SC1CI2 SLP041

CYWG;2007-08-05 18:00;CYWG 051800Z 30013G24KT 15SM FEW040 FEW096 BKN270 26/13 A2966 RMK SC1AC1CI2 SLP044

CYWG;2007-08-05 19:00;CYWG 051900Z 29013G22KT 15SM SCT040 BKN270 28/12 A2967 RMK SC3CI1 SLP045

CYWG;2007-08-05 20:00;CYWG 052000Z 31021KT 15SM FEW062 SCT270 28/12 A2968 RMK SC2CI1 SLP051

CYWG;2007-08-05 21:00;CYWG 052100Z 32021G30KT 15SM BKN059 27/13 A2971 RMK SC6 SLP060

CYWG;2007-08-05 22:00;CYWG 052200Z 33022G28KT 15SM SCT051 25/13 A2973 RMK SC3 SLP066

CYWG;2007-08-05 23:00;CYWG 052300Z 33022KT 15SM FEW053 25/12 A2975 RMK SC2 SLP073

CYWG;2007-08-06 00:00;CYWG 060000Z 33014G27KT 15SM FEW053 23/12 A2977 RMK SC2 SLP080

CYWG;2007-08-06 01:00;CYWG 060100Z 35013G18KT 15SM FEW050 22/12 A2978 RMK SC2 SLP084

CYWG;2007-08-06 02:00;CYWG 060200Z 35007KT 15SM FEW050 18/12 A2979 RMK SC1 SLP087

CYWG;2007-08-06 03:00;CYWG 060300Z 33006KT 15SM FEW050 15/12 A2982 RMK SC1 SLP099

CYWG;2007-08-06 04:00;CYWG 060400Z 33008KT 15SM SKC 13/11 A2984 RMK SLP106

CYWG;2007-08-06 05:00;CYWG 060500Z 35007KT 15SM SKC 14/12 A2986 RMK SLP113

CYWG;2007-08-06 06:00;CYWG 060600Z 34002KT 15SM SKC 12/11 A2988 RMK SLP119

CYWG;2007-08-06 07:00;CYWG 060700Z 32004KT 15SM SKC 11/10 A2989 RMK SLP122

CYWG;2007-08-06 08:00;CYWG 060800Z 33004KT 15SM SCT250 10/09 A2989 RMK CI1 SLP124

CYWG;2007-08-06 09:00;CYWG 060900Z 33004KT 15SM FEW250 09/09 A2988 RMK CI1 SLP121

CYWG;2007-08-06 10:00;CYWG 061000Z 36005KT 15SM BKN250 10/09 A2988 RMK CI2 SLP120

CYWG;2007-08-06 11:00;CYWG 061100Z 05004KT 15SM FEW060 SCT120 BKN250 11/10 A2987 RMK SC1AC1CI2 SLP118

CYWG;2007-08-06 12:00;CYWG 061200Z 00000KT 15SM SCT120 BKN250 12/11 A2990 RMK AC3CI3 SLP128

CYWG;2007-08-06 13:00;CYWG 061300Z 36002KT 15SM FEW060 SCT120 OVC250 13/12 A2990 RMK SC1AC3CI3 SLP129

CYWG;2007-08-06 14:00;CYWG 061400Z 00000KT 15SM SCT087 OVC250 14/13 A2991 RMK AC4CI3 SLP130

CYWG;2007-08-06 15:00;CYWG 061500Z 17006KT 15SM SCT092 OVC250 16/12 A2990 RMK AC4CI4 SLP127

CYWG;2007-08-06 16:00;CYWG 061600Z 19009KT 15SM FEW092 OVC250 17/12 A2991 RMK AC2CI6 SLP132

CYWG;2007-08-06 17:00;CYWG 061700Z 14004KT 15SM FEW025 FEW092 OVC250 18/12 A2988 RMK CU1AC2CI5 SLP123

CYWG;2007-08-06 18:00;CYWG 061800Z 24004KT 15SM FEW027 SCT092 OVC250 19/12 A2988 RMK CU2AC2CI4 SLP122

CYWG;2007-08-06 19:00;CYWG 061900Z 00000KT 15SM FEW027 BKN072 OVC250 19/12 A2986 RMK CU2AC3CI2 SLP114

CYWG;2007-08-06 20:00;CYWG 062000Z 07002KT 15SM FEW030 OVC092 18/13 A2985 RMK CF2AC6 SLP111

CYWG;2007-08-06 20:08;CYWG 062008Z 04002KT 15SM -SHRA FEW030 OVC092 19/ RMK CF2AC6

CYWG;2007-08-06 21:00;CYWG 062100Z 07005KT 15SM -SHRA FEW020 OVC066 18/13 A2983 RMK CF2AC6 SLP107

CYWG;2007-08-06 22:00;CYWG 062200Z 09006KT 15SM -SHRA FEW020 OVC082 18/13 A2983 RMK CF2AC6 SLP107

CYWG;2007-08-06 23:00;CYWG 062300Z 08007KT 15SM -SHRA FEW020 SCT049 OVC080 17/13 A2980 RMK CF1SC2AC5 SLP097

CYWG;2007-08-06 23:15;CYWG 062315Z 09007KT 15SM SCT049 OVC080 17/ RMK SC3AC5

CYWG;2007-08-07 00:00;CYWG 070000Z 07006KT 15SM OVC085 17/12 A2979 RMK AC8 SLP090

CYWG;2007-08-07 01:00;CYWG 070100Z 08007KT 15SM FEW058 BKN075 17/12 A2974 RMK SC2AC5 SLP076

CYWG;2007-08-07 02:00;CYWG 070200Z 09005KT 15SM OVC066 16/12 A2974 RMK AC8 SLP075

CYWG;2007-08-07 02:51;CYWG 070251Z 09005KT 15SM -RA OVC054 17/ RMK SC8

CYWG;2007-08-07 03:00;CYWG 070300Z 09005KT 15SM OVC054 16/13 A2975 RMK SC8 SLP077

CYWG;2007-08-07 03:15;CYWG 070315Z 07004KT 15SM OVC054 16/ RMK SC8

CYWG;2007-08-07 03:37;CYWG 070337Z 09005KT 15SM -SHRA OVC048 16/ RMK SC8

CYWG;2007-08-07 04:00;CYWG 070400Z 09006KT 15SM OVC048 16/13 A2973 RMK SC8 OCNL -SHRA SLP071

CYWG;2007-08-07 05:00;CYWG 070500Z 04008KT 15SM -RA FEW025 OVC046 15/14 A2972 RMK SF2SC6 SLP068

CYWG;2007-08-07 06:00;CYWG 070600Z 05008KT 15SM -SHRA SCT022 OVC046 15/14 A2971 RMK SF3SC5 SLP063

CYWG;2007-08-07 07:00;CYWG 070700Z 06004KT 15SM BKN035 OVC068 15/14 A2969 RMK SC5AC3 SLP056

CYWG;2007-08-07 08:00;CYWG 070800Z 36003KT 15SM FEW008 FEW025 SCT050 14/13 A2968 RMK SF1SC2SC1 SLP052

CYWG;2007-08-07 09:00;CYWG 070900Z 36005KT 15SM FEW008 SCT070 13/12 A2968 RMK SF1AC2 SLP053

CYWG;2007-08-07 10:00;CYWG 071000Z 33006KT 15SM MIFG FEW250 11/11 A2968 RMK CI1 SLP054

CYWG;2007-08-07 11:00;CYWG 071100Z 32005KT 13SM MIFG FEW020 FEW250 10/10 A2970 RMK SC1CI1 BR SLP062

CYWG;2007-08-07 12:00;CYWG 071200Z 31005KT 15SM FEW020 FEW250 11/11 A2974 RMK SC1CI1 BR SLP075

CYWG;2007-08-07 13:00;CYWG 071300Z 28005KT 15SM FEW010 FEW020 FEW250 13/13 A2976 RMK SF1SC1CI1 SF TR BR SLP082

CYWG;2007-08-07 14:00;CYWG 071400Z 32005KT 15SM FEW010 FEW020 FEW250 16/13 A2977 RMK SF1SC1CI1 BR SF TR SLP084

CYWG;2007-08-07 15:00;CYWG 071500Z 31007KT 15SM FEW015 18/14 A2977 RMK SC2 SLP082

CYWG;2007-08-07 16:00;CYWG 071600Z 31005KT 15SM FEW022 20/12 A2975 RMK SC1 SLP078

CYWG;2007-08-07 17:00;CYWG 071700Z 30005KT 15SM FEW030 22/13 A2976 RMK CU1 CU TR SLP079

CYWG;2007-08-07 18:00;CYWG 071800Z 28007KT 15SM FEW035 23/13 A2975 RMK CU1 CU TR SLP076

CYWG;2007-08-07 19:00;CYWG 071900Z 22006KT 15SM FEW035 25/13 A2974 RMK CU1 CU TR SLP073

CYWG;2007-08-07 20:00;CYWG 072000Z 25006KT 15SM FEW053 26/13 A2975 RMK CU1 SLP074

CYWG;2007-08-07 21:00;CYWG 072100Z 24007KT 15SM FEW053 27/14 A2974 RMK CU1 SLP073

CYWG;2007-08-07 22:00;CYWG 072200Z 22005KT 15SM FEW050 27/13 A2974 RMK CU1 SLP072

CYWG;2007-08-07 23:00;CYWG 072300Z 24007KT 15SM SKC 28/14 A2974 RMK SLP070

CYWG;2007-08-08 00:00;CYWG 080000Z 22008KT 15SM SKC 27/14 A2973 RMK FU SLP068

CYWG;2007-08-08 01:00;CYWG 080100Z 18007KT 15SM FEW270 26/14 A2972 RMK CI0 SLP066

CYWG;2007-08-08 02:00;CYWG 080200Z 18008KT 15SM SCT270 23/15 A2974 RMK CI1 SLP070

CYWG;2007-08-08 03:00;CYWG 080300Z 18008KT 15SM SCT270 22/15 A2975 RMK CI2 SLP074

CYWG;2007-08-08 04:00;CYWG 080400Z 18009KT 15SM SCT250 21/15 A2975 RMK CI2 SLP074

CYWG;2007-08-08 05:00;CYWG 080500Z 19011KT 15SM SCT270 21/15 A2974 RMK CI2 SLP070

CYWG;2007-08-08 06:00;CYWG 080600Z 19013KT 15SM BKN270 20/15 A2973 RMK CI2 SLP067

CYWG;2007-08-08 07:00;CYWG 080700Z 18012KT 15SM BKN250 20/15 A2971 RMK CI2 SLP062

CYWG;2007-08-08 08:00;CYWG 080800Z 18013KT 15SM OVC250 20/15 A2970 RMK CI2 SLP057

CYWG;2007-08-08 09:00;CYWG 080900Z 18014KT 15SM BKN250 20/15 A2969 RMK CI2 SLP053

CYWG;2007-08-08 10:00;CYWG 081000Z 19013G18KT 15SM FEW120 BKN250 20/15 A2968 RMK AC2CI1 SLP051

CYWG;2007-08-08 11:00;CYWG 081100Z 18015KT 15SM BKN120 BKN250 19/15 A2967 RMK AC5CI2 SLP047

CYWG;2007-08-08 12:00;CYWG 081200Z 18016KT 15SM BKN120 BKN250 20/15 A2966 RMK AC5CI2 ACC ASOCTD W SLP044

CYWG;2007-08-08 12:38;CYWG 081238Z 19015KT 15SM -SHRA BKN086 OVC250 20/ RMK AC7CI1 ACC EMBD

CYWG;2007-08-08 13:00;CYWG 081300Z 18017G24KT 15SM -SHRA FEW029 BKN086 OVC250 20/16 A2967 RMK SC1AC6CI1 ACC EMBD SLP048

CYWG;2007-08-08 14:00;CYWG 081400Z 18013KT 15SM -SHRA BKN026CB BKN085 OVC250 20/16 A2969 RMK CB5AC2CI1 CB HVY SHWRS LTNG SE SLP054

CYWG;2007-08-08 14:28;CYWG 081428Z CCA 18021KT 1 1/2SM R13/2400FT/N R36/2800VP6000FT/D +SHRA BR BKN010CB BKN085 OVC250 19/ RMK CB6AC2CI1 CB OVRHD

CYWG;2007-08-08 14:32;CYWG 081432Z 17023G28KT 1 1/2SM R13/2800VP6000FT/N R36/2800VP6000FT/D +TSRA BR FEW004 BKN026CB OVC085 18/ RMK SF1CB6AC1

CYWG;2007-08-08 14:38;CYWG 081438Z 17014G28KT 8SM R13/2800VP6000FT/U R36/3500VP6000FT/U +TSRA FEW004 BKN026CB OVC085 18/ RMK SF1CB5AC2 CB VIS NE-E 3

CYWG;2007-08-08 15:00;CYWG 081500Z 17013KT 15SM FEW026CB BKN064 BKN250 19/17 A2969 RETSRA RMK CB2SC4CI2 CB NE MOVG NE SLP054

CYWG;2007-08-08 15:23;CYWG 081523Z 18012KT 15SM -SHRA FEW025 BKN064 BKN250 20/ RMK SC2SC3CI2 ACC EMBD

CYWG;2007-08-08 16:00;CYWG 081600Z 18015G22KT 15SM SCT067 BKN250 22/17 A2970 RMK AC3CI2 SLP056

CYWG;2007-08-08 17:00;CYWG 081700Z 19015KT 15SM FEW060 BKN098 OVC250 23/17 A2970 RMK SC2AC4CI1 SLP057

CYWG;2007-08-08 18:00;CYWG 081800Z 19020G26KT 15SM SCT060 BKN092 OVC250 23/17 A2971 RMK SC3AC4CI1 SLP062

CYWG;2007-08-08 19:00;CYWG 081900Z 19014KT 15SM FEW060 BKN089 OVC250 22/18 A2970 RMK SC1AC6CI1 SLP059

CYWG;2007-08-08 19:15;CYWG 081915Z 20015G21KT 15SM -SHRA FEW060 BKN089 OVC250 23/ RMK SC1AC6CI1

CYWG;2007-08-08 20:00;CYWG 082000Z 20015KT 15SM FEW033 BKN083 OVC250 22/18 A2972 RMK SC2AC5CI1 ACC ASOCTD SLP064

CYWG;2007-08-08 20:50;CYWG 082050Z 22010G17KT 15SM -SHRA FEW047 BKN083 OVC250 23/ RMK SC2AC5CI1 CVCTV CLD EMBDD

CYWG;2007-08-08 21:00;CYWG 082100Z 22010KT 15SM FEW047 BKN083 OVC250 23/17 A2969 RMK SC2AC5CI1 CVCTV CLD EMBD SLP054

CYWG;2007-08-08 22:00;CYWG 082200Z 19011KT 15SM FEW055 BKN080 OVC250 24/19 A2971 RMK SC2AC6CI1 SLP060

CYWG;2007-08-08 23:00;CYWG 082300Z 20012G18KT 15SM FEW050 BKN085 BKN250 24/18 A2971 RMK SC2AC5CI1 SLP060

CYWG;2007-08-09 00:00;CYWG 090000Z 18014KT 15SM SCT085 BKN110 BKN250 22/17 A2971 RMK AC3AC3CI1 SLP060

CYWG;2007-08-09 01:00;CYWG 090100Z 18014KT 15SM SCT083 BKN110 OVC250 22/18 A2972 RMK AC3AC4CI1 SLP064

CYWG;2007-08-09 02:00;CYWG 090200Z 17013KT 15SM OVC088 21/18 A2971 RMK AC8 SLP060

CYWG;2007-08-09 02:05;CYWG 090205Z 18011KT 15SM -SHRA OVC090 21/ RMK AC8 CVTV CLD EMBD

CYWG;2007-08-09 03:00;CYWG 090300Z 18012KT 15SM OVC028 21/18 A2972 RMK SC8 SLP066

CYWG;2007-08-09 04:00;CYWG 090400Z 19013KT 15SM OVC090 21/18 A2974 RMK AC8 SLP070

CYWG;2007-08-09 05:00;CYWG 090500Z 20012KT 12SM -SHRA FEW055 OVC070 20/17 A2973 RMK SF2AC6 SLP069

CYWG;2007-08-09 06:00;CYWG 090600Z 19013KT 15SM FEW043 OVC070 20/18 A2972 RMK SF2AC6 SLP065

CYWG;2007-08-09 07:00;CYWG 090700Z 19007KT 15SM OVC070 19/17 A2973 RMK AC8 SLP068

CYWG;2007-08-09 08:00;CYWG 090800Z 19008KT 15SM OVC100 19/17 A2973 RMK AC8 SLP066

CYWG;2007-08-09 09:00;CYWG 090900Z 22010KT 15SM BKN100 20/16 A2972 RMK AC5 SLP065

CYWG;2007-08-09 10:00;CYWG 091000Z 22006KT 15SM SCT100 BKN250 19/16 A2973 RMK AC3CI2 SLP068

CYWG;2007-08-09 11:00;CYWG 091100Z 19006KT 15SM FEW100 SCT250 18/16 A2974 RMK AC2CI1 SLP070

CYWG;2007-08-09 12:00;CYWG 091200Z 18006KT 15SM FEW100 FEW250 17/16 A2975 RMK AC1CI0 SLP075

CYWG;2007-08-09 13:00;CYWG 091300Z 21004KT 15SM SKC 18/16 A2977 RMK SLP080

CYWG;2007-08-09 14:00;CYWG 091400Z 29004KT 15SM FEW250 20/17 A2979 RMK CI1 HZ SLP088

CYWG;2007-08-09 15:00;CYWG 091500Z 03002KT 15SM SKC 22/18 A2980 RMK HZ SLP091

CYWG;2007-08-09 16:00;CYWG 091600Z 05002KT 15SM FEW024 FEW260 24/19 A2982 RMK CU1CI0 HZ SLP099

CYWG;2007-08-09 17:00;CYWG 091700Z 34005KT 15SM FEW028 FEW260 26/19 A2983 RMK CU1CI0 HZ SLP102

CYWG;2007-08-09 18:00;CYWG 091800Z 05003KT 15SM FEW032 28/19 A2983 RMK CU1 HZ SLP101

CYWG;2007-08-09 19:00;CYWG 091900Z 30006KT 15SM FEW037 30/20 A2983 RMK CU2 HZ SLP102

CYWG;2007-08-09 20:00;CYWG 092000Z 03004KT 15SM SCT044 29/18 A2983 RMK CU3 SLP102

CYWG;2007-08-09 21:00;CYWG 092100Z 01005KT 15SM SCT049TCU 30/18 A2983 RMK TCU4 CB N SLP102

CYWG;2007-08-09 22:00;CYWG 092200Z 07011KT 15SM SCT057TCU BKN270 28/16 A2986 RMK TCU3CI0 CB NE SLP110

CYWG;2007-08-09 23:00;CYWG 092300Z 08009KT 15SM FEW050TCU SCT270 28/19 A2986 RMK TCU2CI0 CB TOPS E-SE SLP111

CYWG;2007-08-10 00:00;CYWG 100000Z 07007KT 15SM FEW050 27/20 A2987 RMK CU2 SLP113

CYWG;2007-08-10 01:00;CYWG 100100Z 08006KT 15SM FEW050 26/18 A2987 RMK CU1 SLP114

CYWG;2007-08-10 02:00;CYWG 100200Z 05006KT 10SM FEW250 22/17 A2986 RMK CI1 HZ SLP112

CYWG;2007-08-10 03:00;CYWG 100300Z 05006KT 10SM FEW100 SCT250 21/17 A2987 RMK AC1CI1 HZ SLP116

CYWG;2007-08-10 04:00;CYWG 100400Z 08005KT 10SM FEW100 SCT250 21/18 A2987 RMK AC2CI1 HZ LTGIC DISTANT NW SLP116

CYWG;2007-08-10 05:00;CYWG 100500Z 08007KT 10SM SCT100 BKN250 21/19 A2987 RMK AC4CI1 HZ LTGIC DISTANT NW-N SLP116

CYWG;2007-08-10 05:43;CYWG 100543Z 10009KT 10SM TS SCT025CB BKN090 OVC250 22/ RMK CB3AC4CI1 LTGCGIC NW-NE

CYWG;2007-08-10 06:00;CYWG 100600Z 02006KT 10SM TS SCT025 BKN043CB OVC090 22/19 A2994 RMK SC3CB3AC2 LTGCGIC PRESRR SLP138

CYWG;2007-08-10 06:07;CYWG 100607Z 32033G46KT 6SM TSRA SCT014 OVC052CB 20/ RMK SF3CB5

CYWG;2007-08-10 06:10;CYWG 100610Z 33027G48KT 1 1/2SM R13/1200V2000FT/N R36/1200FT/N TS SCT014 OVC038CB RMK SF4CB4

CYWG;2007-08-10 07:00;CYWG 100700Z 36020KT 15SM TS FEW015 OVC040CB A2997 RMK SF2CB6 LTGICCCCG E-SE AND NW WND ESTD

CYWG;2007-08-10 08:00;CYWG 100800Z 10011KT 15SM FEW020 OVC086 19/16 A2993 RMK SF1AC7 SLP135

CYWG;2007-08-10 09:00;CYWG 100900Z 12008KT 15SM FEW030 OVC250 19/17 A2993 RMK SC2CI6 LTG DIST N SLP134

CYWG;2007-08-10 10:00;CYWG 101000Z 15011KT 15SM FEW053 BKN250 18/16 A2993 RMK SC2CI2 SLP133

CYWG;2007-08-10 11:00;CYWG 101100Z 15011G16KT 15SM FEW050 BKN260 18/15 A2991 RMK SC2CI2 SLP128

CYWG;2007-08-10 12:00;CYWG 101200Z 16011KT 15SM FEW050TCU FEW080 FEW260 SCT280 18/14 A2990 RMK TCU1AC1CI1CI0 CB TOPS SW SLP125

CYWG;2007-08-10 13:00;CYWG 101300Z 04003KT 15SM FEW040TCU SCT060 SCT280 20/14 A2991 RMK TCU1SC2CI0 CB TOPS S SLP127

CYWG;2007-08-10 14:00;CYWG 101400Z 03012KT 15SM FEW070 SCT280 20/16 A2993 RMK AC2CI1 ACC ASOCTD CB TOP DIST S SLP136

CYWG;2007-08-10 15:00;CYWG 101500Z 05003KT 15SM BKN038 BKN084 BKN280 20/16 A2998 RMK SC5AC1CI0 SLP153

CYWG;2007-08-10 16:00;CYWG 101600Z 09007KT 15SM FEW028 FEW100 BKN280 22/16 A2995 RMK SC2AC1CI2 CB TOP NE SLP144

CYWG;2007-08-10 17:00;CYWG 101700Z 10004KT 15SM FEW030 FEW100 BKN280 23/16 A2993 RMK SC1AC1CS4 SLP136

CYWG;2007-08-10 18:00;CYWG 101800Z 00000KT 15SM FEW029 FEW100 OVC280 25/17 A2991 RMK SC2AC1CS5 SLP129

CYWG;2007-08-10 19:00;CYWG 101900Z 07003KT 15SM SCT071 OVC250 25/18 A2990 RMK AC3CS4 SLP123

CYWG;2007-08-10 20:00;CYWG 102000Z 18002KT 15SM FEW071 SCT140 OVC220 25/18 A2987 RMK AC1AS2CS5 SLP115

CYWG;2007-08-10 21:00;CYWG 102100Z 17002KT 15SM FEW070 BKN120 OVC220 25/18 A2989 RMK AC2AS3CS3 SLP121

CYWG;2007-08-10 22:00;CYWG 102200Z 14008KT 15SM FEW035 BKN120 OVC220 24/19 A2987 RMK SC2AS4CS2 SLP115

CYWG;2007-08-10 22:19;CYWG 102219Z CCA 15007KT 15SM -SHRA FEW070 BKN100 OVC220 24/ RMK AC2AC5CS2 ACC EMBD

CYWG;2007-08-10 23:00;CYWG 102300Z 18010KT 12SM -SHRA BKN015 BKN075 OVC220 23/20 A2987 RMK SC5AC2CS2 ACC EMBD VIS E 6 SLP116

CYWG;2007-08-11 00:00;CYWG 110000Z 17004KT 15SM -SHRA FEW015 SCT071 BKN083 22/19 A2985 RMK SC1AC3AC3 ACC EMBD SLP110

CYWG;2007-08-11 00:22;CYWG 110022Z 18004KT 15SM FEW070 FEW085 BKN120 22/ RMK AC2AC1AC5

CYWG;2007-08-11 01:00;CYWG 110100Z 16005KT 15SM FEW085 BKN240 22/18 A2985 RMK AC2CI2 SLP109

CYWG;2007-08-11 02:00;CYWG 110200Z 14004KT 15SM FEW100 BKN240 19/17 A2984 RMK AC1CI2 SLP107

CYWG;2007-08-11 03:00;CYWG 110300Z 12006KT 15SM SCT089 BKN240 19/17 A2984 RMK AC3CI1 SLP106

CYWG;2007-08-11 04:00;CYWG 110400Z 11005KT 15SM FEW090 BKN240 19/16 A2983 RMK AC2CI1 SLP104

CYWG;2007-08-11 05:00;CYWG 110500Z 12006KT 15SM FEW090 BKN250 18/15 A2981 RMK AC2CI2 SLP097

CYWG;2007-08-11 06:00;CYWG 110600Z 13008KT 15SM FEW090 BKN250 19/17 A2977 RMK AC2CI2 SLP082

CYWG;2007-08-11 07:00;CYWG 110700Z 12004KT 15SM FEW095 OVC260 19/17 A2976 RMK AC2CI2 SLP078

CYWG;2007-08-11 08:00;CYWG 110800Z 07004KT 15SM FEW095 OVC260 19/17 A2973 RMK AC2CI2 SLP068

CYWG;2007-08-11 09:00;CYWG 110900Z 07002KT 15SM SCT069 BKN095 OVC260 19/17 A2971 RMK AC3AC2CI1 SLP061

CYWG;2007-08-11 09:39;CYWG 110939Z 25006KT 12SM -TSRA SCT049CB BKN092 OVC260 19/ RMK CB3AC2CI1 LTGICCG SW + NW

CYWG;2007-08-11 10:00;CYWG 111000Z CCA 33006KT 6SM TS BR FEW008 BKN049CB OVC092 18/17 A2974 RMK SF2CB2AC3 LTGIC N + S SLP071

CYWG;2007-08-11 10:19;CYWG 111019Z CCA 00000KT 6SM BR FEW010 SCT049CB BKN075 BKN260 17/ RMK SF2CB2AC2CI1 LTGIC NE RETS

CYWG;2007-08-11 11:00;CYWG 111100Z 13005KT 5SM BR FEW014 BKN100 17/16 A2971 RMK SF2AC6 SLP061

CYWG;2007-08-11 12:00;CYWG 111200Z 21004KT 6SM BR FEW020TCU BKN080 17/16 A2971 RMK TCU1AC4 SLP062

CYWG;2007-08-11 13:00;CYWG 111300Z 23012KT 4SM BR SCT003 BKN080 18/17 A2972 RMK FG2SF2AC3 SLP065

CYWG;2007-08-11 13:18;CYWG 111318Z 24010G15KT 7SM BKN003 BKN080 18/ RMK SF5AC2

CYWG;2007-08-11 13:49;CYWG 111349Z 23010G15KT 7SM BKN005 BKN080 RMK SF5AC2

CYWG;2007-08-11 13:50;CYWG 111350Z CCA 23010G15KT 7SM BKN005 BKN080 19/ RMK SF5AC2

CYWG;2007-08-11 14:00;CYWG 111400Z 23007KT 9SM BKN005 BKN080 19/17 A2975 RMK SF5AC2 SLP074

CYWG;2007-08-11 15:00;CYWG 111500Z 22011KT 10SM FEW005 FEW014 BKN018 21/18 A2976 RMK SF1SC2SC3 SLP078

CYWG;2007-08-11 16:00;CYWG 111600Z 27013G18KT 15SM FEW014 FEW110 23/17 A2976 RMK SF1AC1 SLP077

CYWG;2007-08-11 17:00;CYWG 111700Z 29022KT 15SM FEW020 FEW120 25/15 A2977 RMK SF1AC1 SLP080

CYWG;2007-08-11 18:00;CYWG 111800Z 30019G25KT 15SM FEW150 27/14 A2979 RMK AC1 SLP086

CYWG;2007-08-11 19:00;CYWG 111900Z 29023G31KT 15SM FEW150 26/12 A2981 RMK AC1 SLP094

CYWG;2007-08-11 20:00;CYWG 112000Z 29023G28KT 15SM FEW040 26/12 A2983 RMK CF1 SLP102

CYWG;2007-08-11 21:00;CYWG 112100Z 29022G30KT 15SM FEW049 24/12 A2987 RMK SC2 SLP116

CYWG;2007-08-11 22:00;CYWG 112200Z 30019G26KT 15SM SCT042 22/12 A2990 RMK SC3 SLP126

CYWG;2007-08-11 23:00;CYWG 112300Z 30021G30KT 15SM SCT044 22/11 A2993 RMK SC2 SLP137

CYWG;2007-08-12 00:00;CYWG 120000Z 30021KT 15SM SCT044 21/11 A2996 RMK SC2 SLP146

CYWG;2007-08-12 01:00;CYWG 120100Z 32016G26KT 15SM FEW037 SCT068 20/12 A2999 RMK SC2AC2 SLP158

CYWG;2007-08-12 02:00;CYWG 120200Z 33014G20KT 15SM FEW046 17/12 A3004 RMK SC2 SLP172

CYWG;2007-08-12 03:00;CYWG 120300Z 34010KT 15SM FEW050 15/11 A3008 RMK SC1 SLP188

CYWG;2007-08-12 04:00;CYWG 120400Z 33008KT 15SM SKC 14/10 A3011 RMK SLP198

CYWG;2007-08-12 05:00;CYWG 120500Z 34007KT 15SM SKC 12/10 A3013 RMK SLP205

CYWG;2007-08-12 06:00;CYWG 120600Z 33007KT 15SM SKC 12/10 A3015 RMK SLP211

CYWG;2007-08-12 07:00;CYWG 120700Z 34007KT 15SM SKC 10/08 A3016 RMK SLP216

CYWG;2007-08-12 08:00;CYWG 120800Z 31004KT 15SM SKC 09/08 A3018 RMK SLP220

CYWG;2007-08-12 09:00;CYWG 120900Z 28005KT 15SM SKC 09/08 A3020 RMK SLP229

CYWG;2007-08-12 10:00;CYWG 121000Z 27005KT 15SM SKC 08/07 A3020 RMK SLP231

CYWG;2007-08-12 11:00;CYWG 121100Z 27006KT 15SM SKC 08/08 A3021 RMK SLP233

CYWG;2007-08-12 12:00;CYWG 121200Z 28006KT 15SM FEW280 10/09 A3023 RMK CI1 SLP242

CYWG;2007-08-12 13:00;CYWG 121300Z 27006KT 15SM FEW280 12/10 A3028 RMK CI1 SLP256

CYWG;2007-08-12 14:00;CYWG 121400Z 26007KT 15SM FEW100 FEW280 16/11 A3030 RMK ACC1CI2 TR ACC NW SLP264

CYWG;2007-08-12 15:00;CYWG 121500Z 33007KT 15SM FEW030 FEW280 18/11 A3028 RMK CU1CI2 TR CU SLP258

CYWG;2007-08-12 16:00;CYWG 121600Z 03003KT 15SM FEW030 FEW280 19/11 A3027 RMK CU1CI2 TR CU SLP254

CYWG;2007-08-12 17:00;CYWG 121700Z 33006KT 15SM FEW040 FEW280 21/10 A3026 RMK CU1CI1 SLP250

CYWG;2007-08-12 18:00;CYWG 121800Z 15005KT 15SM FEW044 FEW280 21/10 A3025 RMK CU1CI1 SLP248

CYWG;2007-08-12 19:00;CYWG 121900Z 21005KT 15SM FEW052 FEW280 23/09 A3023 RMK CU1CI1 SLP241

CYWG;2007-08-12 20:00;CYWG 122000Z 17004KT 15SM FEW052 FEW280 23/09 A3021 RMK CU1CI1 SLP233

CYWG;2007-08-12 21:00;CYWG 122100Z 10006KT 15SM FEW052 23/08 A3019 RMK CU1 SLP228

CYWG;2007-08-12 22:00;CYWG 122200Z 00000KT 15SM FEW052 FEW120 FEW280 24/09 A3018 RMK CU1AC1CI1 SLP224

CYWG;2007-08-12 23:00;CYWG 122300Z 11002KT 15SM FEW120 FEW280 23/08 A3017 RMK AC1CI1 SLP220

CYWG;2007-08-13 00:00;CYWG 130000Z 18006KT 15SM FEW250 23/09 A3016 RMK CI1 SLP218

CYWG;2007-08-13 01:00;CYWG 130100Z 17008KT 15SM FEW120 SCT280 21/10 A3015 RMK AC2CI1 SLP212

CYWG;2007-08-13 02:00;CYWG 130200Z 18010KT 15SM SCT120 BKN280 20/10 A3015 RMK AC3CI2 SLP213

CYWG;2007-08-13 03:00;CYWG 130300Z 17008KT 15SM FEW120 SCT280 18/10 A3013 RMK AC2CI1 SLP206

CYWG;2007-08-13 04:00;CYWG 130400Z 16004KT 15SM FEW120 SCT280 17/11 A3014 RMK AC2CI1 SLP208

CYWG;2007-08-13 05:00;CYWG 130500Z 16005KT 15SM FEW120 SCT280 16/11 A3015 RMK AC2CI1 SLP213

CYWG;2007-08-13 06:00;CYWG 130600Z 16006KT 15SM FEW120 SCT280 16/11 A3012 RMK AC2CI1 SLP202

CYWG;2007-08-13 07:00;CYWG 130700Z 16008KT 15SM FEW120 SCT270 16/11 A3011 RMK AC2CI1 SLP199

CYWG;2007-08-13 08:00;CYWG 130800Z 16007KT 15SM FEW120 SCT260 15/10 A3011 RMK AC2CI1 SLP197

CYWG;2007-08-13 09:00;CYWG 130900Z 16007KT 15SM FEW120 BKN260 16/11 A3010 RMK AC2CI1 SLP196

CYWG;2007-08-13 10:00;CYWG 131000Z 15006KT 15SM FEW120 SCT260 14/11 A3009 RMK AC2CI1 SLP191

CYWG;2007-08-13 11:00;CYWG 131100Z 15008KT 15SM FEW080 BKN270 14/11 A3007 RMK AC2CI2 SLP186

CYWG;2007-08-13 12:00;CYWG 131200Z 16007KT 15SM FEW080 BKN270 14/11 A3008 RMK AC1CI4 SLP189

CYWG;2007-08-13 13:00;CYWG 131300Z 14010KT 15SM FEW060 BKN090 BKN250 16/11 A3005 RMK SC2AC3CI2 SLP178

CYWG;2007-08-13 14:00;CYWG 131400Z 16006KT 15SM FEW050 BKN090 OVC250 16/11 A3004 RMK SC2AC4CI2 SLP176

CYWG;2007-08-13 15:00;CYWG 131500Z 15010KT 15SM FEW045 BKN100 BKN250 17/12 A2999 RMK SC2AC4CI2 SLP157

CYWG;2007-08-13 16:00;CYWG 131600Z 16009KT 15SM FEW040 BKN100 OVC250 17/12 A2999 RMK SC2AC5CI2 SLP158

CYWG;2007-08-13 17:00;CYWG 131700Z 17011G16KT 15SM FEW040 BKN091 OVC250 19/13 A2997 RMK SC2AC5CI2 SLP153

CYWG;2007-08-13 18:00;CYWG 131800Z 16015G20KT 15SM BKN093 OVC250 21/14 A2990 RMK AC6CI2 SLP125

CYWG;2007-08-13 19:00;CYWG 131900Z 17018G24KT 15SM BKN092 OVC250 23/14 A2987 RMK AC5CI2 TCU ASOCTD SLP117

CYWG;2007-08-13 20:00;CYWG 132000Z 19017G22KT 15SM FEW093 BKN250 27/16 A2984 RMK AC2CI2 SLP107

CYWG;2007-08-13 21:00;CYWG 132100Z 18015KT 15SM FEW037 FEW097 BKN250 27/16 A2984 RMK CU1AC2CI2 SLP106

CYWG;2007-08-13 22:00;CYWG 132200Z 20017G25KT 15SM FEW040 FEW097 OVC250 26/17 A2980 RMK CU2AC1CI2 SLP093

CYWG;2007-08-13 23:00;CYWG 132300Z 19014G19KT 15SM FEW040 FEW089 BKN250 26/17 A2980 RMK CU1AC1CI2 SLP090

CYWG;2007-08-14 00:00;CYWG 140000Z 20014G19KT 15SM FEW051 FEW091 BKN250 25/17 A2978 RMK CU1AC1CI1 SLP086

CYWG;2007-08-14 01:00;CYWG 140100Z 20016KT 15SM FEW049 FEW091 SCT250 24/18 A2978 RMK CU1AC1CI1 SLP085

CYWG;2007-08-14 02:00;CYWG 140200Z 23006KT 15SM SCT040 BKN250 23/18 A2980 RMK SC4CI1 SLP091

CYWG;2007-08-14 03:00;CYWG 140300Z 36014G20KT 15SM FEW040 22/16 A2984 RMK SC2 SLP106

CYWG;2007-08-14 04:00;CYWG 140400Z 33011KT 15SM FEW040 20/16 A2987 RMK SC2 SLP114

CYWG;2007-08-14 05:00;CYWG 140500Z 35010KT 15SM FEW040 18/14 A2989 RMK SC1 SLP121

CYWG;2007-08-14 06:00;CYWG 140600Z 33009KT 15SM SKC 16/14 A2991 RMK SLP131

CYWG;2007-08-14 07:00;CYWG 140700Z 31008KT 15SM SKC 15/13 A2993 RMK SLP136

CYWG;2007-08-14 08:00;CYWG 140800Z 32008KT 15SM SKC 14/13 A2994 RMK SLP141

CYWG;2007-08-14 09:00;CYWG 140900Z 31005KT 15SM SKC 13/12 A2996 RMK SLP147

CYWG;2007-08-14 10:00;CYWG 141000Z 29007KT 15SM SKC 12/12 A2997 RMK SLP151

CYWG;2007-08-14 11:00;CYWG 141100Z 28007KT 15SM SKC 12/11 A2999 RMK SLP158

CYWG;2007-08-14 12:00;CYWG 141200Z 34007KT 15SM SKC 13/12 A3001 RMK SLP164

CYWG;2007-08-14 13:00;CYWG 141300Z 30004KT 15SM FEW080 16/14 A3003 RMK AC1 SLP169

CYWG;2007-08-14 14:00;CYWG 141400Z 32003KT 15SM FEW035 SCT080 17/15 A3002 RMK SC2AC2 SLP168

CYWG;2007-08-14 15:00;CYWG 141500Z 36008KT 15SM BKN020 BKN080 18/14 A3003 RMK SC6AC2 SLP171

CYWG;2007-08-14 16:00;CYWG 141600Z 35009KT 15SM BKN022 BKN060 OVC090 18/12 A3004 RMK SC6SC1AC1 SLP173

CYWG;2007-08-14 17:00;CYWG 141700Z 34007KT 15SM BKN032 BKN090 19/12 A3003 RMK SC6AC1 SLP172

CYWG;2007-08-14 18:00;CYWG 141800Z 35008KT 15SM BKN036 BKN090 20/11 A3003 RMK CU5AC1 SLP171

CYWG;2007-08-14 19:00;CYWG 141900Z 01005KT 15SM SCT040 SCT090 20/11 A3002 RMK CU3AC1 SLP167

CYWG;2007-08-14 20:00;CYWG 142000Z 33013KT 15SM FEW046 BKN060 BKN210 23/11 A3002 RMK CU2SC3CI0 SLP167

CYWG;2007-08-14 21:00;CYWG 142100Z 33012G17KT 15SM FEW046 BKN062 21/08 A3002 RMK CU1SC6 SLP167

CYWG;2007-08-14 22:00;CYWG 142200Z 30010G16KT 15SM FEW046 SCT060 BKN100 21/07 A3002 RMK CU1SC2AC3 SLP167

CYWG;2007-08-14 23:00;CYWG 142300Z 32008KT 15SM SCT060 BKN110 20/08 A3000 RMK SC3AC2 SLP161

CYWG;2007-08-15 00:00;CYWG 150000Z 36006KT 15SM BKN100 18/09 A2998 RMK AC7 SLP154

CYWG;2007-08-15 01:00;CYWG 150100Z 36006KT 15SM -SHRA BKN100 17/10 A2997 RMK AC7 SLP153

CYWG;2007-08-15 02:00;CYWG 150200Z 01002KT 15SM -SHRA BKN058 16/11 A2996 RMK SC7 SLP148

CYWG;2007-08-15 03:00;CYWG 150300Z 00000KT 15SM -SHRA BKN039 15/12 A2995 RMK SC7 SLP146

CYWG;2007-08-15 03:42;CYWG 150342Z 00000KT 15SM BKN059 15/ RMK SC6

CYWG;2007-08-15 04:00;CYWG 150400Z 00000KT 15SM BKN059 16/11 A2995 RMK SC6 SLP144

CYWG;2007-08-15 05:00;CYWG 150500Z 22004KT 15SM SCT060 BKN120 15/11 A2994 RMK SC3AC3 SLP143

CYWG;2007-08-15 06:00;CYWG 150600Z 22004KT 15SM FEW060 BKN120 15/11 A2993 RMK SC2AC4 SLP139

CYWG;2007-08-15 07:00;CYWG 150700Z 22007KT 15SM BKN091 15/11 A2993 RMK AC4 SLP137

CYWG;2007-08-15 08:00;CYWG 150800Z 22007KT 15SM SCT079 BKN250 15/11 A2993 RMK AC3CI3 SLP136

CYWG;2007-08-15 08:27;CYWG 150827Z 23007KT 15SM -SHRA FEW032 BKN086 OVC250 14/ RMK SC2AC3CI3

CYWG;2007-08-15 09:00;CYWG 150900Z 23006KT 15SM -SHRA BKN027 OVC086 14/12 A2990 RMK SC6AC2 SLP129

CYWG;2007-08-15 10:00;CYWG 151000Z 21006KT 10SM -SHRA BKN019 OVC086 14/13 A2988 RMK SC6AC2 BR SLP122

CYWG;2007-08-15 11:00;CYWG 151100Z 19005KT 15SM FEW004 BKN016 OVC080 14/13 A2986 RMK SF1SC6AC2 VIA CYBR FSS SLP115

CYWG;2007-08-15 12:00;CYWG 151200Z CCA 16003KT 12SM SCT003 BKN016 BKN080 14/13 A2984 RMK SF2SC2AC2 TCU EMBD VIA CYBR FSS SLP108

CYWG;2007-08-15 12:42;CYWG 151242Z 00000KT 12SM BKN004 BKN026 OVC075 14/ RMK SF5SC2AC1

CYWG;2007-08-15 12:50;CYWG 151250Z 32018KT 12SM -SHRA BKN004 OVC026 14/ RMK SF6SC2

CYWG;2007-08-15 13:00;CYWG 151300Z 32008G20KT 12SM -SHRA BKN004 OVC012 14/13 A2986 RMK SF7SC1 SLP115

CYWG;2007-08-15 13:20;CYWG 151320Z 32005KT 12SM SCT006 OVC015 14/ RMK SF3SC5

CYWG;2007-08-15 14:00;CYWG 151400Z 31003KT 15SM OVC015 15/13 A2985 RMK SC8 SHWRS N-NE SLP110

CYWG;2007-08-15 14:38;CYWG 151438Z 23004KT 15SM -SHRA SCT015 BKN035 OVC120 15/ RMK SC3SC4AC1

CYWG;2007-08-15 15:00;CYWG 151500Z 22005KT 8SM -SHRA FEW015 BKN025 OVC086 15/13 A2983 RMK SC2SC3AC2 TCU EMBDD BR SLP105

CYWG;2007-08-15 15:36;CYWG 151536Z 24008KT 15SM FEW015 BKN026 BKN082 16/ RMK SC1SC6AC1 TCU EMBDD

CYWG;2007-08-15 16:00;CYWG 151600Z 24010KT 15SM FEW010 FEW025 BKN092 17/15 A2982 RMK SC1SC2AC4 SLP101

CYWG;2007-08-15 17:00;CYWG 151700Z 27010KT 15SM BKN017 BKN085 19/14 A2981 RMK CU5AC1 SLP099

CYWG;2007-08-15 18:00;CYWG 151800Z 27011KT 15SM BKN021 21/15 A2981 RMK CU6 SLP096

CYWG;2007-08-15 19:00;CYWG 151900Z 32014KT 15SM FEW045 22/12 A2980 RMK CU2 SLP094

CYWG;2007-08-15 20:00;CYWG 152000Z 32015G20KT 15SM FEW047 23/11 A2979 RMK CU2 SLP091

CYWG;2007-08-15 21:00;CYWG 152100Z 32017G25KT 15SM SCT055 23/10 A2980 RMK CU3 SLP092

CYWG;2007-08-15 22:00;CYWG 152200Z 32017KT 15SM FEW061 FEW085 24/09 A2981 RMK CU2AC1 SLP096

CYWG;2007-08-15 23:00;CYWG 152300Z 34020KT 15SM FEW055 FEW085 22/10 A2984 RMK CU2AC1 SLP107

CYWG;2007-08-16 00:00;CYWG 160000Z 35015G21KT 15SM FEW059 BKN093 19/10 A2988 RMK CU1AC6

CYWG;2007-08-16 01:00;CYWG 160100Z 34012KT 15SM BKN068 17/09 A2990 RMK AC5 SLP129

CYWG;2007-08-16 02:00;CYWG 160200Z 33009KT 15SM FEW068 15/06 A2994 RMK AC2 SLP142

CYWG;2007-08-16 03:00;CYWG 160300Z 32008KT 15SM FEW060 10/06 A2998 RMK SC1 SLP156

CYWG;2007-08-16 04:00;CYWG 160400Z 32006KT 15SM SKC 08/06 A2999 RMK SLP162

CYWG;2007-08-16 05:00;CYWG 160500Z 30008KT 15SM SKC 07/05 A3002 RMK SLP169

CYWG;2007-08-16 06:00;CYWG 160600Z 29006KT 15SM SKC 07/04 A3003 RMK SLP172

CYWG;2007-08-16 07:00;CYWG 160700Z 29007KT 15SM SKC 07/04 A3003 RMK SLP173

CYWG;2007-08-16 08:00;CYWG 160800Z 29006KT 15SM SKC 06/03 A3003 RMK SLP175

CYWG;2007-08-16 09:00;CYWG 160900Z 27008KT 15SM SKC 08/05 A3005 RMK SLP178

CYWG;2007-08-16 10:00;CYWG 161000Z 27007KT 15SM SKC 07/05 A3004 RMK SLP177

CYWG;2007-08-16 11:00;CYWG 161100Z 26007KT 15SM SKC 07/05 A3004 RMK SLP176

CYWG;2007-08-16 12:00;CYWG 161200Z 26007KT 15SM SKC 08/06 A3005 RMK SLP179

CYWG;2007-08-16 13:00;CYWG 161300Z 27009KT 15SM SKC 11/07 A3005 RMK SLP181

CYWG;2007-08-16 14:00;CYWG 161400Z 26008KT 15SM SKC 14/08 A3006 RMK SLP182

CYWG;2007-08-16 15:00;CYWG 161500Z 29012KT 15SM FEW120 17/07 A3006 RMK AC1 SLP184

CYWG;2007-08-16 16:00;CYWG 161600Z 29015G21KT 15SM FEW056 FEW120 19/05 A3006 RMK CU1AC1 SLP184

CYWG;2007-08-16 17:00;CYWG 161700Z 31017G24KT 15SM SCT065 BKN120 19/05 A3006 RMK CU3AC1 SLP184

CYWG;2007-08-16 18:00;CYWG 161800Z 31020KT 15SM FEW065 20/04 A3006 RMK CU2 SLP183

CYWG;2007-08-16 19:00;CYWG 161900Z 32018G24KT 15SM FEW065 19/04 A3006 RMK CU2 SLP183

CYWG;2007-08-16 20:00;CYWG 162000Z 30020G25KT 15SM FEW065 21/04 A3005 RMK CU1 SLP179

CYWG;2007-08-16 21:00;CYWG 162100Z 32016G25KT 15SM FEW065 21/05 A3005 RMK CU1 SLP179

CYWG;2007-08-16 22:00;CYWG 162200Z 32015G27KT 15SM FEW065 21/05 A3005 RMK CU1 SLP179

CYWG;2007-08-16 23:00;CYWG 162300Z 33014G22KT 15SM FEW065 20/05 A3006 RMK CU1 SLP183

CYWG;2007-08-17 00:00;CYWG 170000Z 33015G25KT 15SM FEW065 19/03 A3006 RMK CU1 SLP183

CYWG;2007-08-17 01:00;CYWG 170100Z 35008G15KT 15SM FEW065 18/05 A3006 RMK CU1 SLP184

CYWG;2007-08-17 02:00;CYWG 170200Z 34007KT 15SM FEW065 13/06 A3007 RMK SC1 SLP186

CYWG;2007-08-17 03:00;CYWG 170300Z 33008KT 15SM SKC 11/06 A3009 RMK SLP195

CYWG;2007-08-17 04:00;CYWG 170400Z 33007KT 15SM SKC 10/06 A3011 RMK SLP200

CYWG;2007-08-17 05:00;CYWG 170500Z 31007KT 15SM SKC 08/05 A3012 RMK SLP206

CYWG;2007-08-17 06:00;CYWG 170600Z 31006KT 15SM SKC 07/05 A3014 RMK SLP211

CYWG;2007-08-17 07:00;CYWG 170700Z 31006KT 15SM SKC 06/05 A3016 RMK SLP217

CYWG;2007-08-17 08:00;CYWG 170800Z 33007KT 15SM SKC 06/05 A3016 RMK SLP218

CYWG;2007-08-17 09:00;CYWG 170900Z 29006KT 15SM SKC 07/05 A3017 RMK SLP222

CYWG;2007-08-17 10:00;CYWG 171000Z 30006KT 15SM SKC 06/04 A3019 RMK SLP227

CYWG;2007-08-17 11:00;CYWG 171100Z 32005KT 15SM FEW015 04/03 A3019 RMK SC1 SLP229

CYWG;2007-08-17 12:00;CYWG 171200Z 29004KT 15SM FEW015 06/04 A3022 RMK CU1 SLP238

CYWG;2007-08-17 13:00;CYWG 171300Z 00000KT 15SM FEW015 FEW210 10/08 A3023 RMK CU1CI0 SLP242

CYWG;2007-08-17 14:00;CYWG 171400Z 02004KT 15SM FEW015 13/09 A3025 RMK CU1 TCU TOPS N SLP249

CYWG;2007-08-17 15:00;CYWG 171500Z 04008KT 15SM FEW024 FEW290 16/10 A3026 RMK CU1CI1 SLP251

CYWG;2007-08-17 16:00;CYWG 171600Z 01004KT 15SM BKN026 16/09 A3027 RMK CU6 SLP255

CYWG;2007-08-17 17:00;CYWG 171700Z 03003KT 15SM BKN035 BKN290 18/08 A3026 RMK CU5CI0 CC ASOCTD SLP253

CYWG;2007-08-17 18:00;CYWG 171800Z 05005KT 15SM BKN040 17/08 A3026 RMK CU6 SLP253

CYWG;2007-08-17 19:00;CYWG 171900Z 03004KT 15SM BKN042 18/09 A3025 RMK CU5 SLP250

CYWG;2007-08-17 20:00;CYWG 172000Z 09006KT 15SM SCT041 20/09 A3024 RMK CU4 SLP247

CYWG;2007-08-17 21:00;CYWG 172100Z 11003KT 15SM SCT047 19/08 A3023 RMK CU3 SLP242

CYWG;2007-08-17 22:00;CYWG 172200Z 07004KT 15SM FEW050 FEW250 20/08 A3021 RMK CU2CI1 SLP235

CYWG;2007-08-17 23:00;CYWG 172300Z 09005KT 15SM FEW048 FEW250 20/08 A3019 RMK CU1CI0 SLP229

CYWG;2007-08-18 00:00;CYWG 180000Z 07006KT 15SM FEW050 FEW250 19/08 A3017 RMK CU1CI0 SLP223

CYWG;2007-08-18 01:00;CYWG 180100Z 07008KT 15SM FEW050 FEW250 17/07 A3017 RMK SC1CI0 SLP221

CYWG;2007-08-18 02:00;CYWG 180200Z 08006KT 15SM FEW050 FEW250 14/07 A3017 RMK SC1CI0 SLP221

CYWG;2007-08-18 03:00;CYWG 180300Z 08007KT 15SM FEW250 13/07 A3017 RMK CI0 SLP220

CYWG;2007-08-18 04:00;CYWG 180400Z 09006KT 15SM SKC 12/07 A3018 RMK SLP223

CYWG;2007-08-18 05:00;CYWG 180500Z 10006KT 15SM SKC 12/06 A3017 RMK SLP222

CYWG;2007-08-18 06:00;CYWG 180600Z 11007KT 15SM SKC 11/06 A3018 RMK SLP223

CYWG;2007-08-18 07:00;CYWG 180700Z 13006KT 15SM SKC 11/07 A3017 RMK SLP221

CYWG;2007-08-18 08:00;CYWG 180800Z 16006KT 15SM FEW080 10/07 A3016 RMK AC2 SLP216

CYWG;2007-08-18 09:00;CYWG 180900Z 16007KT 15SM SCT110 11/08 A3012 RMK AC2 SLP205

CYWG;2007-08-18 10:00;CYWG 181000Z 12005KT 15SM FEW110 SCT250 11/07 A3012 RMK AC2CI1 SLP205

CYWG;2007-08-18 11:00;CYWG 181100Z 15006KT 15SM FEW110 SCT250 10/06 A3012 RMK AC2CI1 SLP205

CYWG;2007-08-18 12:00;CYWG 181200Z 15006KT 15SM BKN110 11/07 A3014 RMK AC6 SLP209

CYWG;2007-08-18 13:00;CYWG 181300Z 14005KT 15SM SCT110 BKN250 13/08 A3013 RMK AC4CI1 SLP206

CYWG;2007-08-18 14:00;CYWG 181400Z 14007KT 15SM FEW110 SCT250 16/08 A3011 RMK AC2CI2 SLP199

CYWG;2007-08-18 15:00;CYWG 181500Z 11003KT 15SM FEW250 17/09 A3010 RMK CI1 SLP197

CYWG;2007-08-18 16:00;CYWG 181600Z 13006KT 15SM FEW110 SCT250 20/10 A3009 RMK AC2CI1 FU SW SLP195

CYWG;2007-08-18 17:00;CYWG 181700Z 10002KT 15SM FEW044 FEW110 SCT250 21/09 A3010 RMK CF1AC1CI2 CC ASOCTD SLP196

CYWG;2007-08-18 18:00;CYWG 181800Z 16005KT 15SM FEW048 SCT220 BKN250 22/09 A3009 RMK CF1CC3CI2 SLP191

CYWG;2007-08-18 19:00;CYWG 181900Z 12008KT 15SM FEW110 BKN250 24/10 A3007 RMK AC2CI1 SLP187

CYWG;2007-08-18 20:00;CYWG 182000Z 09006G15KT 15SM SCT096 BKN250 23/09 A3004 RMK AC3CI2 SLP175

CYWG;2007-08-18 21:00;CYWG 182100Z 09009KT 15SM FEW054 FEW100 BKN250 24/10 A3003 RMK CF1AC2CI2 SLP171

CYWG;2007-08-18 22:00;CYWG 182200Z 08011KT 15SM FEW054 FEW100 BKN250 24/10 A3002 RMK CF1AC2CI0 SLP168

CYWG;2007-08-18 23:00;CYWG 182300Z 07012KT 15SM FEW050 FEW100 BKN250 23/11 A3002 RMK SC1AC1CI0 SLP167

CYWG;2007-08-19 00:00;CYWG 190000Z 06013KT 15SM FEW050 FEW100 SCT250 21/11 A3001 RMK SC1AC1CI0 SLP167

CYWG;2007-08-19 01:00;CYWG 190100Z 07013KT 15SM FEW110 BKN250 20/10 A3002 RMK AC2CI1 CC ASOCTD SLP168

CYWG;2007-08-19 02:00;CYWG 190200Z 07010KT 15SM FEW110 BKN250 18/11 A3003 RMK AC2CI1 SLP173

CYWG;2007-08-19 03:00;CYWG 190300Z 08010KT 15SM FEW110 BKN250 17/11 A3006 RMK AC2CI2 SLP181

CYWG;2007-08-19 04:00;CYWG 190400Z 09012KT 15SM SKC 16/10 A3005 RMK SLP180

CYWG;2007-08-19 05:00;CYWG 190500Z 10007KT 15SM SKC 15/10 A3006 RMK SLP184

CYWG;2007-08-19 06:00;CYWG 190600Z 09008KT 15SM SKC 14/10 A3006 RMK SLP180

CYWG;2007-08-19 07:00;CYWG 190700Z 09007KT 15SM SKC 14/10 A3005 RMK SLP178

CYWG;2007-08-19 08:00;CYWG 190800Z 09006KT 15SM SKC 13/10 A3004 RMK SLP174

CYWG;2007-08-19 09:00;CYWG 190900Z 10007KT 15SM SKC 13/10 A3004 RMK SLP175

CYWG;2007-08-19 10:00;CYWG 191000Z 11007KT 15SM SKC 13/10 A3004 RMK SLP176

CYWG;2007-08-19 11:00;CYWG 191100Z 13008KT 15SM BKN250 13/10 A3006 RMK CI5 SLP182

CYWG;2007-08-19 12:00;CYWG 191200Z 14004KT 15SM OVC250 13/10 A3007 RMK CI7 SLP186

CYWG;2007-08-19 13:00;CYWG 191300Z 12004KT 15SM FEW094 BKN250 14/11 A3007 RMK AC2CI5 SLP187

CYWG;2007-08-19 14:00;CYWG 191400Z 14008KT 15SM FEW094 BKN250 15/11 A3006 RMK AC2CI2 SLP181

CYWG;2007-08-19 15:00;CYWG 191500Z 14007KT 15SM FEW120 BKN250 18/12 A3007 RMK AC2CI2 SLP185

CYWG;2007-08-19 16:00;CYWG 191600Z 14008KT 15SM FEW091 OVC250 19/12 A3007 RMK AC2CI5 SLP187

CYWG;2007-08-19 17:00;CYWG 191700Z 14011KT 15SM SCT091 OVC250 20/12 A3007 RMK AC3CI4 SLP185

CYWG;2007-08-19 18:00;CYWG 191800Z 13011KT 15SM FEW090 OVC250 21/12 A3005 RMK AC2CI3 SLP179

CYWG;2007-08-19 19:00;CYWG 191900Z 12011G16KT 15SM OVC250 22/11 A3004 RMK CI6 SLP174

CYWG;2007-08-19 20:00;CYWG 192000Z 12012G17KT 15SM FEW025 OVC250 22/10 A3002 RMK CU1CI6 SLP168

CYWG;2007-08-19 21:00;CYWG 192100Z 10012KT 15SM FEW030 OVC250 23/11 A3001 RMK CU1CI6 SLP164

CYWG;2007-08-19 22:00;CYWG 192200Z 10013G18KT 15SM FEW030 FEW098 OVC250 23/10 A2999 RMK CU1AC2CI4 SLP158

CYWG;2007-08-19 23:00;CYWG 192300Z 14015KT 15SM SCT096 OVC250 22/09 A2998 RMK AC3CI3 SLP156

CYWG;2007-08-20 00:00;CYWG 200000Z 13012G17KT 15SM SCT096 BKN250 21/10 A2997 RMK AC3CI3 SLP152

CYWG;2007-08-20 01:00;CYWG 200100Z 12010G21KT 15SM FEW095 BKN250 20/10 A2997 RMK AC1CI4 SLP151

CYWG;2007-08-20 02:00;CYWG 200200Z 12010KT 15SM BKN250 19/10 A2997 RMK CI3 SLP152

CYWG;2007-08-20 03:00;CYWG 200300Z 10008KT 15SM BKN250 17/10 A2997 RMK CI3 SLP153

CYWG;2007-08-20 04:00;CYWG 200400Z 11012KT 15SM BKN250 18/10 A2995 RMK CI2 SLP146

CYWG;2007-08-20 05:00;CYWG 200500Z 13016KT 15SM SCT250 17/10 A2994 RMK CI1 SLP141

CYWG;2007-08-20 06:00;CYWG 200600Z 13013G18KT 15SM FEW250 16/10 A2993 RMK CI1 SLP138

CYWG;2007-08-20 07:00;CYWG 200700Z 14009KT 15SM SKC 15/10 A2993 RMK SLP136

CYWG;2007-08-20 08:00;CYWG 200800Z 12008KT 15SM SKC 14/10 A2990 RMK SLP128

CYWG;2007-08-20 09:00;CYWG 200900Z 13009KT 15SM SKC 14/09 A2988 RMK SLP121

CYWG;2007-08-20 10:00;CYWG 201000Z 14010KT 15SM BKN043 14/09 A2989 RMK SC6 SLP123

CYWG;2007-08-20 11:00;CYWG 201100Z 13010KT 15SM BKN043 14/09 A2989 RMK SC7 SLP123

CYWG;2007-08-20 12:00;CYWG 201200Z 12012KT 15SM BKN039 14/08 A2986 RMK SC6 SLP113

CYWG;2007-08-20 13:00;CYWG 201300Z 13013KT 15SM BKN039 BKN250 15/08 A2986 RMK SC5CI2 SLP114

CYWG;2007-08-20 14:00;CYWG 201400Z 13011KT 15SM BKN041 BKN250 15/09 A2984 RMK SC6CI1 SLP106

CYWG;2007-08-20 15:00;CYWG 201500Z 14013KT 15SM FEW025 OVC045 16/09 A2983 RMK SC2SC6 SLP103

CYWG;2007-08-20 16:00;CYWG 201600Z 14015KT 15SM BKN045 OVC250 17/11 A2980 RMK SC5CI3 SLP096

CYWG;2007-08-20 17:00;CYWG 201700Z 15015KT 15SM OVC024 17/11 A2980 RMK SC8 SLP095

CYWG;2007-08-20 18:00;CYWG 201800Z 15017KT 15SM OVC022 17/12 A2979 RMK SC8 SLP090

CYWG;2007-08-20 19:00;CYWG 201900Z 16011G18KT 15SM OVC018 17/12 A2980 RMK SC8 SLP092

CYWG;2007-08-20 19:15;CYWG 201915Z 15014KT 15SM -SHRA OVC018 17/ RMK SC8 CVCTV CLD EMBD

CYWG;2007-08-20 20:00;CYWG 202000Z 16013KT 15SM OVC016 17/13 A2979 RMK SC8 SLP091

CYWG;2007-08-20 21:00;CYWG 202100Z 16015KT 15SM OVC016 17/13 A2977 RMK SC8 SLP083

CYWG;2007-08-20 21:03;CYWG 202103Z 15014G19KT 15SM -SHRA OVC016 17/ RMK SC8 CVCTV CLD EMBD

CYWG;2007-08-20 21:37;CYWG 202137Z 15018KT 8SM -DZ OVC014 17/ RMK SF8

CYWG;2007-08-20 22:00;CYWG 202200Z 15012KT 12SM OVC014 17/14 A2975 RMK SC8 SLP077

CYWG;2007-08-20 22:13;CYWG 202213Z 15013KT 10SM -SHRA OVC014 17/ RMK SC8 CVCTV CLD EMBD

CYWG;2007-08-20 22:31;CYWG 202231Z 15010G15KT 5SM -SHRA BR OVC009 16/ RMK SC8

CYWG;2007-08-20 22:54;CYWG 202254Z 16006KT 2SM -SHRA BR OVC007 16/ RMK SC8 CVTCV CLD EMBD

CYWG;2007-08-20 23:00;CYWG 202300Z 17006KT 2SM -SHRA BR OVC005 16/15 A2976 RMK SF8 CVCTV CLD EMBD SLP081

CYWG;2007-08-20 23:12;CYWG 202312Z 15006KT 2SM -TSRA BR OVC007 16/ RMK SF8 CB EMBD LTGIC SW

CYWG;2007-08-20 23:51;CYWG 202351Z CCA 16006KT 2SM -SHRA BR OVC004 16/ RETSRA RMK SF8 CB NW

CYWG;2007-08-21 00:00;CYWG 210000Z 17006KT 2SM -SHRA BR OVC004 16/15 A2975 RETSRA RMK SF8 CVCTV CLD EMBD SLP078

CYWG;2007-08-21 00:34;CYWG 210034Z 18008KT 2SM -DZ BR BKN003 OVC018 16/ RMK SF7SC1

CYWG;2007-08-21 01:00;CYWG 210100Z 17007KT 2 1/2SM -DZ BR BKN004 OVC020 16/16 A2974 RMK SF7SC1 SLP073

CYWG;2007-08-21 01:27;CYWG 210127Z 19007KT 3SM -RA BR OVC003 16/ RMK SF8

CYWG;2007-08-21 02:00;CYWG 210200Z 18007KT 5SM -DZ BR OVC004 17/16 A2973 RMK SF8 SLP070

CYWG;2007-08-21 03:00;CYWG 210300Z 21006KT 5SM -DZ BR OVC004 17/16 A2974 RMK SF8 SLP072

CYWG;2007-08-21 03:40;CYWG 210340Z 20006KT 6SM BR BKN004 OVC020 17/ RMK SF6SC2 CIG RAG

CYWG;2007-08-21 04:00;CYWG 210400Z 18004KT 10SM BKN005 OVC018 17/16 A2973 RMK SF6SC2 CIG RAG BR SLP070

CYWG;2007-08-21 05:00;CYWG 210500Z 19006KT 10SM BKN004 OVC025 17/16 A2971 RMK SF6SC2 BR SLP065

CYWG;2007-08-21 06:00;CYWG 210600Z 22010KT 12SM OVC003 17/16 A2971 RMK SF8 CIG RAG SLP064

CYWG;2007-08-21 07:00;CYWG 210700Z 21009KT 2SM BR OVC002 17/16 A2971 RMK SF8 SLP064

CYWG;2007-08-21 07:48;CYWG 210748Z 20008KT 1SM R13/P6000FT/N R36/P6000FT/N BR OVC002 17/ RMK ST8 CIG RAG

CYWG;2007-08-21 08:00;CYWG 210800Z 19008KT 1SM R13/P6000FT/D R36/P6000FT/U BR OVC001 17/16 A2971 RMK SF8 CIG RAG SLP062

CYWG;2007-08-21 08:30;CYWG 210830Z 22010KT 2SM BR OVC002 17/ RMK SF8 CIG RAG

CYWG;2007-08-21 09:00;CYWG 210900Z 20009KT 1SM R13/5000FT/N R36/4000VP6000FT/D BR OVC001 16/16 A2970 RMK SF8 SLP060

CYWG;2007-08-21 09:08;CYWG 210908Z 21009KT 1/4SM R13/3500V6000FT/N R36/4000FT/D FG VV001 17/ RMK FG8

CYWG;2007-08-21 10:00;CYWG 211000Z 21007KT 1/4SM R13/3500V5000FT/D R36/3500FT/N FG VV001 16/16 A2970 RMK FG8 SLP061

CYWG;2007-08-21 11:00;CYWG 211100Z 19007KT 1/4SM R13/3500FT/N R36/4000FT/N FG VV001 17/16 A2970 RMK FG8 SLP059

CYWG;2007-08-21 12:00;CYWG 211200Z 21008KT 1/4SM R13/2800FT/N R36/3000FT/N FG VV001 17/16 A2970 RMK FG8 SLP059

CYWG;2007-08-21 12:53;CYWG 211253Z 21007KT 1/2SM R13/4500VP6000FT/U R36/3000V5000FT/D FG VV001 17/ RMK FG8

CYWG;2007-08-21 13:00;CYWG 211300Z 21008KT 1/2SM R13/P6000FT/D R36/3000V5000FT/D FG VV001 17/16 A2971 RMK FG8 SLP063

CYWG;2007-08-21 13:17;CYWG 211317Z 21013KT 1SM R13/P6000FT/U R36/4000VP6000FT/U BR VV002 17/ RMK FG8

CYWG;2007-08-21 13:36;CYWG 211336Z 22009G15KT 3SM BR OVC004 17/ RMK SF8 CIG RAG

CYWG;2007-08-21 14:00;CYWG 211400Z 22007KT 5SM BR BKN006 17/17 A2973 RMK SF7 CIG RAG SLP070

CYWG;2007-08-21 14:44;CYWG 211444Z 21008KT 5SM BR SCT008 BKN100 BKN250 19/ RMK SF4AC2CI0

CYWG;2007-08-21 15:00;CYWG 211500Z 21008KT 10SM SCT010 BKN100 BKN250 20/17 A2973 RMK SF4AC2CI0 BR SLP068

CYWG;2007-08-21 16:00;CYWG 211600Z 24009KT 15SM FEW018 BKN094 BKN250 22/16 A2973 RMK CF1AC6CI1 TR CF SLP070

CYWG;2007-08-21 17:00;CYWG 211700Z 22012G17KT 15SM -SHRA BKN083 OVC250 20/15 A2975 RMK AC7CI1 ACC ASOCTD SLP076

CYWG;2007-08-21 17:35;CYWG 211735Z 24006KT 15SM VCSH FEW024 BKN062 OVC250 19/ RMK SC1SC6CI1

CYWG;2007-08-21 18:00;CYWG 211800Z 23003KT 15SM BKN048 OVC072 19/15 A2973 RMK SC6AC2 SLP068

CYWG;2007-08-21 19:00;CYWG 211900Z 17004KT 15SM FEW036 SCT064 BKN080 20/14 A2972 RMK SC2SC2AC3 SLP067

CYWG;2007-08-21 20:00;CYWG 212000Z 21005KT 15SM FEW036 BKN080 22/13 A2972 RMK CU1AC5 SLP066

CYWG;2007-08-21 21:00;CYWG 212100Z 21010KT 15SM FEW045 FEW080 FEW150 BKN250 24/13 A2972 RMK CU1AC1AC1CI1 SLP064

CYWG;2007-08-21 22:00;CYWG 212200Z 22010KT 15SM SCT057TCU SCT150 BKN250 25/12 A2971 RMK TCU3AC1CI1 SLP061

CYWG;2007-08-21 23:00;CYWG 212300Z 24008KT 10SM -SHRA BKN061CB BKN150 BKN250 24/11 A2970 RMK CB5AC1CI1 CB MOVG RPDLY W TO E SLP060

CYWG;2007-08-21 23:30;CYWG 212330Z 18011KT 10SM R13/4500VP6000FT/U -TSRA BKN021CB BKN081 19/ RMK CB5AC1

CYWG;2007-08-21 23:45;CYWG 212345Z 00000KT 15SM BKN081CB 21/ RMK CB5 CB E MOVG RPDLY E

CYWG;2007-08-22 00:00;CYWG 220000Z 17003KT 15SM FEW045 SCT081CB BKN250 21/16 A2970 RMK CU2CB2CI2 CB E MOVG RPDLY E SLP060

CYWG;2007-08-22 01:00;CYWG 220100Z 17006KT 15SM FEW065TCU FEW078 20/15 A2970 RMK TCU1AC1 TCU SE FU NE SLP060

CYWG;2007-08-22 02:00;CYWG 220200Z 19007KT 15SM FEW065TCU FEW080 FEW250 18/14 A2971 RMK TCU1AC1CI1 SLP061

CYWG;2007-08-22 03:00;CYWG 220300Z 19008KT 15SM FEW080 FEW250 17/13 A2971 RMK AC1CI1 SLP064

CYWG;2007-08-22 04:00;CYWG 220400Z 19006KT 15SM SKC 16/13 A2970 RMK SLP061

CYWG;2007-08-22 05:00;CYWG 220500Z 29004G15KT 15SM SKC 15/13 A2972 RMK SLP065

CYWG;2007-08-22 06:00;CYWG 220600Z 19007KT 15SM FEW080 15/13 A2971 RMK AC2 SLP062

CYWG;2007-08-22 07:00;CYWG 220700Z 22008KT 15SM FEW080 16/11 A2971 RMK AC2 SLP062

CYWG;2007-08-22 08:00;CYWG 220800Z 23008KT 15SM SCT091 16/11 A2970 RMK AC3 SLP060

CYWG;2007-08-22 09:00;CYWG 220900Z 24006KT 15SM SCT061 16/11 A2972 RMK SC3 SLP064

CYWG;2007-08-22 10:00;CYWG 221000Z 21007KT 15SM FEW061 15/10 A2971 RMK SC2 SLP063

CYWG;2007-08-22 11:00;CYWG 221100Z 24008KT 15SM FEW090 SCT250 14/09 A2971 RMK AC1CI1 ACC + VIRGA E SLP063

CYWG;2007-08-22 12:00;CYWG 221200Z 24008KT 15SM FEW090 FEW250 14/09 A2971 RMK AC1CI1 SLP064

CYWG;2007-08-22 13:00;CYWG 221300Z 25007KT 15SM FEW090 15/09 A2971 RMK AC2 SLP064

CYWG;2007-08-22 14:00;CYWG 221400Z 25009KT 15SM FEW110 19/11 A2971 RMK AC2 SLP062

CYWG;2007-08-22 15:00;CYWG 221500Z 24011KT 15SM FEW110 FEW230 21/11 A2970 RMK AC1CI1 SLP059

CYWG;2007-08-22 16:00;CYWG 221600Z 26015G20KT 15SM FEW093 23/11 A2971 RMK AC2 SLP062

CYWG;2007-08-22 17:00;CYWG 221700Z 25018G26KT 15SM FEW040 FEW230 23/10 A2971 RMK CF1CI1 SLP061

CYWG;2007-08-22 18:00;CYWG 221800Z 26016KT 15SM FEW040 FEW230 24/11 A2970 RMK CU2CI1 SLP059

CYWG;2007-08-22 19:00;CYWG 221900Z 27017KT 15SM BKN060 BKN230 25/11 A2970 RMK SC5CI0 SLP058

CYWG;2007-08-22 20:00;CYWG 222000Z 27017G24KT 15SM BKN060 25/11 A2970 RMK SC6 SLP060

CYWG;2007-08-22 21:00;CYWG 222100Z 27018KT 15SM BKN060 23/11 A2971 RMK SC7 SLP061

CYWG;2007-08-22 22:00;CYWG 222200Z 27013G21KT 15SM BKN060 24/11 A2972 RMK SC6 SLP064

CYWG;2007-08-22 23:00;CYWG 222300Z 27022G27KT 15SM BKN060 23/10 A2972 RMK SC7 SLP066

CYWG;2007-08-23 00:00;CYWG 230000Z 28016G24KT 15SM BKN062 22/09 A2973 RMK SC7 SLP068

CYWG;2007-08-23 01:00;CYWG 230100Z 27012KT 15SM BKN071 21/10 A2972 RMK AC6 SLP067

CYWG;2007-08-23 02:00;CYWG 230200Z 27007KT 15SM BKN077 19/10 A2973 RMK AC6 SLP070

CYWG;2007-08-23 03:00;CYWG 230300Z 28008KT 15SM FEW079 17/10 A2975 RMK AC2 SLP075

CYWG;2007-08-23 04:00;CYWG 230400Z 27008KT 15SM SKC 16/10 A2977 RMK SLP082

CYWG;2007-08-23 05:00;CYWG 230500Z 27008KT 15SM SKC 15/10 A2976 RMK SLP078

CYWG;2007-08-23 06:00;CYWG 230600Z 27010KT 15SM SKC 14/10 A2975 RMK SLP077

CYWG;2007-08-23 07:00;CYWG 230700Z 26007G15KT 15SM SKC 13/10 A2976 RMK SLP079

CYWG;2007-08-23 08:00;CYWG 230800Z 25007KT 15SM SKC 12/09 A2975 RMK SLP077

CYWG;2007-08-23 09:00;CYWG 230900Z 26008KT 15SM SKC 12/09 A2977 RMK SLP081

CYWG;2007-08-23 10:00;CYWG 231000Z 27007KT 15SM FEW031 11/10 A2977 RMK SC2 SLP081

CYWG;2007-08-23 11:00;CYWG 231100Z 26007KT 15SM FEW030 FEW090 SCT280 11/10 A2978 RMK SC1AC1CI0 SLP087

CYWG;2007-08-23 12:00;CYWG 231200Z 27006KT 15SM FEW025 FEW090 SCT280 11/10 A2978 RMK SC2AC1CI0 SLP086

CYWG;2007-08-23 13:00;CYWG 231300Z 27006KT 15SM FEW027 BKN280 13/10 A2981 RMK SC2CI1 SLP096

CYWG;2007-08-23 14:00;CYWG 231400Z 31008KT 15SM BKN023 15/11 A2981 RMK SC7 SLP097

CYWG;2007-08-23 15:00;CYWG 231500Z 30011KT 15SM OVC023 16/11 A2983 RMK SC8 SLP104

CYWG;2007-08-23 16:00;CYWG 231600Z 29008KT 15SM OVC025 17/11 A2984 RMK SC8 SLP108

CYWG;2007-08-23 17:00;CYWG 231700Z 29010KT 15SM OVC025 17/11 A2983 RMK SC8 SLP105

CYWG;2007-08-23 18:00;CYWG 231800Z 31013KT 15SM BKN029 BKN280 17/10 A2983 RMK SC7CI1 TR CI SLP104

CYWG;2007-08-23 19:00;CYWG 231900Z 32014KT 15SM BKN034 18/10 A2982 RMK SC7 SLP102

CYWG;2007-08-23 20:00;CYWG 232000Z 31012G17KT 15SM BKN036 18/10 A2982 RMK SC7 SLP101

CYWG;2007-08-23 21:00;CYWG 232100Z 33013G18KT 15SM BKN038 18/10 A2983 RMK SC7 SLP103

CYWG;2007-08-23 22:00;CYWG 232200Z 32011G16KT 15SM BKN040 19/10 A2984 RMK SC7 SLP108

CYWG;2007-08-23 23:00;CYWG 232300Z 32011KT 15SM BKN045 18/09 A2985 RMK SC7 SLP110

CYWG;2007-08-24 00:00;CYWG 240000Z 30012KT 15SM BKN047 18/09 A2985 RMK SC7 SLP112

CYWG;2007-08-24 01:00;CYWG 240100Z 35006KT 15SM BKN049 17/10 A2986 RMK SC7 SLP116

CYWG;2007-08-24 02:00;CYWG 240200Z 32005KT 15SM BKN043 15/10 A2988 RMK SC7 SLP121

CYWG;2007-08-24 03:00;CYWG 240300Z 33005KT 15SM OVC052 15/10 A2989 RMK SC8 SLP125

CYWG;2007-08-24 04:00;CYWG 240400Z 33004KT 15SM BKN057 14/11 A2990 RMK SC6 SLP127

CYWG;2007-08-24 05:00;CYWG 240500Z 01005KT 15SM FEW056 11/09 A2989 RMK SC2 SLP125

CYWG;2007-08-24 06:00;CYWG 240600Z 36004KT 15SM FEW056 10/08 A2989 RMK SC1 SLP125

CYWG;2007-08-24 07:00;CYWG 240700Z 34003KT 15SM SCT056 09/07 A2989 RMK SC2 SLP126

CYWG;2007-08-24 08:00;CYWG 240800Z 33004KT 15SM BKN090 09/08 A2990 RMK AC5 SLP129

CYWG;2007-08-24 09:00;CYWG 240900Z 34004KT 15SM SCT043 BKN070 10/09 A2991 RMK SC4AC3 SLP132

CYWG;2007-08-24 10:00;CYWG 241000Z CCA 35005KT 15SM BKN036 BKN100 11/10 A2991 RMK SC5AC2 OB+9 SLP132

CYWG;2007-08-24 11:00;CYWG 241100Z 34004KT 15SM BKN032 BKN100 11/10 A2992 RMK SC6AC2 SLP136

CYWG;2007-08-24 12:00;CYWG 241200Z 35003KT 15SM BKN032 BKN070 12/10 A2994 RMK SC6AC1 SLP141

CYWG;2007-08-24 12:22;CYWG 241222Z 35006KT 15SM -SHRA BKN031 BKN070 12/ RMK SC6AC1 CVCTV CLD EMBD

CYWG;2007-08-24 13:00;CYWG 241300Z CCA 36005KT 15SM -SHRA BKN031 12/10 A2996 RMK SC7 CVCTV CLD EMBD SLP147

CYWG;2007-08-24 14:00;CYWG 241400Z 33005KT 15SM -SHRA BKN030 BKN077 BKN095 13/10 A2996 RMK SC5AC2AC1 CVCTV CLD EMBDD SLP150

CYWG;2007-08-24 15:00;CYWG 241500Z 34006KT 15SM -SHRA FEW015 OVC034 14/10 A2997 RMK SC1SC7 CVCTV CLD EMBD SLP153

CYWG;2007-08-24 16:00;CYWG 241600Z 35006KT 15SM -SHRA SCT012 OVC036 15/10 A2998 RMK CU3SC5 SLP156

CYWG;2007-08-24 17:00;CYWG 241700Z 35004KT 15SM -SHRA SCT026 BKN036 15/09 A2998 RMK SC3SC4 CVCTV CLD EMBD SLP156

CYWG;2007-08-24 18:00;CYWG 241800Z 03003KT 15SM -SHRA BKN030 BKN054 16/09 A2998 RMK SC5SC2 CVCTV CLD EMBD SLP156

CYWG;2007-08-24 19:00;CYWG 241900Z 03002KT 15SM -SHRA BKN035 OVC094 17/08 A2997 RMK SC7AC1 CVCTV CLD EMBD SLP154

CYWG;2007-08-24 19:06;CYWG 241906Z 03002KT 15SM BKN035 OVC094 17/ RMK SC7AC1 CVCTV CLD EMBD

CYWG;2007-08-24 20:00;CYWG 242000Z 03005KT 15SM BKN039 BKN094 17/09 A2996 RMK SC6AC2 SLP151

CYWG;2007-08-24 21:00;CYWG 242100Z 35008KT 15SM BKN039 BKN094 18/09 A2996 RMK SC6AC2 SLP149

CYWG;2007-08-24 22:00;CYWG 242200Z 35009KT 15SM BKN039 BKN067 17/09 A2997 RMK SC6AC2 SLP152

CYWG;2007-08-24 23:00;CYWG 242300Z 32005KT 15SM BKN048 17/08 A2996 RMK SC7 SLP151

CYWG;2007-08-25 00:00;CYWG 250000Z 01006KT 15SM BKN050 BKN080 BKN210 16/08 A2997 RMK SC5AC1CI1 TR AC SLP152

CYWG;2007-08-25 01:00;CYWG 250100Z 36005KT 15SM SCT053 SCT060 BKN200 15/08 A2997 RMK SC2SC1CI2 SLP153

CYWG;2007-08-25 02:00;CYWG 250200Z 31006KT 15SM FEW053 BKN200 12/08 A2999 RMK SC2CI2 SLP159

CYWG;2007-08-25 03:00;CYWG 250300Z 31005KT 15SM FEW053 BKN200 11/08 A3000 RMK SC2CI2 SLP164

CYWG;2007-08-25 04:00;CYWG 250400Z 31005KT 15SM FEW064 FEW200 09/07 A3000 RMK SC2CI0 SLP165

CYWG;2007-08-25 05:00;CYWG 250500Z 32004KT 15SM FEW064 07/06 A3000 RMK SC1 SLP164

CYWG;2007-08-25 06:00;CYWG 250600Z 31004KT 15SM SKC 07/06 A2999 RMK SLP163

CYWG;2007-08-25 07:00;CYWG 250700Z 00000KT 15SM SKC 06/04 A2999 RMK SLP160

CYWG;2007-08-25 08:00;CYWG 250800Z 00000KT 15SM SKC 07/06 A2998 RMK SLP159

CYWG;2007-08-25 09:00;CYWG 250900Z 23002KT 15SM SKC 06/05 A2998 RMK SLP159

CYWG;2007-08-25 10:00;CYWG 251000Z 25003KT 15SM SKC 04/03 A2999 RMK SLP160

CYWG;2007-08-25 11:00;CYWG 251100Z 20002KT 15SM SKC 06/05 A2999 RMK SLP160

CYWG;2007-08-25 12:00;CYWG 251200Z 19002KT 15SM SKC 06/06 A2999 RMK SLP163

CYWG;2007-08-25 13:00;CYWG 251300Z 21006KT 15SM SKC 11/08 A2999 RMK SLP163

CYWG;2007-08-25 14:00;CYWG 251400Z 22008KT 15SM FEW250 14/09 A2999 RMK CI0 SLP162

CYWG;2007-08-25 15:00;CYWG 251500Z 20005KT 15SM FEW250 17/11 A2998 RMK CI0 SLP157

CYWG;2007-08-25 16:00;CYWG 251600Z 22010KT 15SM FEW035 FEW250 18/09 A2998 RMK CU1CI0 SLP156

CYWG;2007-08-25 17:00;CYWG 251700Z 21009KT 15SM FEW035 FEW250 19/09 A2997 RMK CU1CI0 SLP153

CYWG;2007-08-25 18:00;CYWG 251800Z 19011KT 15SM FEW045 FEW250 21/09 A2994 RMK CU1CI0 SLP144

CYWG;2007-08-25 19:00;CYWG 251900Z 24007G16KT 15SM FEW045 SCT250 22/08 A2993 RMK CU1CI1 SLP138

CYWG;2007-08-25 20:00;CYWG 252000Z 23009KT 15SM FEW045 FEW250 23/09 A2991 RMK CU1CI1 SLP133

CYWG;2007-08-25 21:00;CYWG 252100Z 20007KT 15SM FEW045 SCT250 24/09 A2989 RMK CU1CI1 SLP126

CYWG;2007-08-25 22:00;CYWG 252200Z 22008KT 15SM FEW071 SCT250 24/09 A2987 RMK CU1CI1 SLP120

CYWG;2007-08-25 23:00;CYWG 252300Z 19010KT 15SM FEW071 BKN250 24/09 A2986 RMK CU2CI2 SLP115

CYWG;2007-08-26 00:00;CYWG 260000Z 20010KT 15SM FEW074 BKN250 23/09 A2984 RMK CU2CI2 SLP109

CYWG;2007-08-26 01:00;CYWG 260100Z 18008KT 15SM FEW091 BKN250 21/09 A2983 RMK AC1CI2 SLP106

CYWG;2007-08-26 02:00;CYWG 260200Z 18011KT 15SM BKN250 19/08 A2983 RMK CI2 SLP106

CYWG;2007-08-26 03:00;CYWG 260300Z 17008KT 15SM FEW150 SCT250 17/09 A2984 RMK AC0CI0 SLP108

CYWG;2007-08-26 04:00;CYWG 260400Z 18009KT 15SM BKN110 16/09 A2984 RMK AC4 SLP108

CYWG;2007-08-26 05:00;CYWG 260500Z 19010KT 15SM FEW110 SCT250 16/09 A2984 RMK AC1CI0 SLP107

CYWG;2007-08-26 06:00;CYWG 260600Z 18011KT 15SM SCT110 16/08 A2982 RMK AC2 SLP101

CYWG;2007-08-26 07:00;CYWG 260700Z 19011KT 15SM SCT160 15/08 A2981 RMK AC2 SLP096

CYWG;2007-08-26 08:00;CYWG 260800Z 19012KT 15SM FEW160 15/09 A2979 RMK AC1 SLP091

CYWG;2007-08-26 09:00;CYWG 260900Z 18012KT 15SM SKC 13/09 A2977 RMK SLP084

CYWG;2007-08-26 10:00;CYWG 261000Z 18012G17KT 15SM SKC 13/10 A2976 RMK SLP078

CYWG;2007-08-26 11:00;CYWG 261100Z 18014KT 15SM FEW250 14/10 A2974 RMK CI1 SLP073

CYWG;2007-08-26 12:00;CYWG 261200Z 18014KT 15SM FEW120 FEW250 14/10 A2973 RMK AC1CI1 SLP069

CYWG;2007-08-26 13:00;CYWG 261300Z 18018KT 15SM FEW250 15/11 A2971 RMK CI1 SLP062

CYWG;2007-08-26 14:00;CYWG 261400Z 18019KT 15SM FEW250 18/13 A2968 RMK CI2 SLP053

CYWG;2007-08-26 15:00;CYWG 261500Z 19018G28KT 15SM FEW250 21/13 A2966 RMK CI2 SLP044

CYWG;2007-08-26 16:00;CYWG 261600Z 19021G28KT 15SM FEW250 23/15 A2962 RMK CI2 SLP033

CYWG;2007-08-26 17:00;CYWG 261700Z 19021KT 15SM FEW250 25/16 A2961 RMK CI1 SLP028

CYWG;2007-08-26 18:00;CYWG 261800Z 20020KT 15SM SCT250 26/17 A2959 RMK CI2 SLP020

CYWG;2007-08-26 19:00;CYWG 261900Z 20015G26KT 15SM FEW140 BKN250 28/18 A2957 RMK AC2CI2 SLP015

CYWG;2007-08-26 20:00;CYWG 262000Z 19015G24KT 15SM SCT078 BKN250 27/18 A2956 RMK AC3CI3 SLP010

CYWG;2007-08-26 21:00;CYWG 262100Z 19013G18KT 15SM FEW059TCU BKN078 BKN250 28/18 A2954 RMK TCU2ACC2CI2 SLP004

CYWG;2007-08-26 22:00;CYWG 262200Z 19014KT 15SM FEW059TCU BKN110 BKN250 29/19 A2952 RMK TCU2ACC4CI2 VIRGA FU ALF SLP997

CYWG;2007-08-26 23:00;CYWG 262300Z 20006KT 15SM SCT050TCU BKN075 BKN250 29/20 A2953 RMK TCU3ACC2CI2 SLP999

CYWG;2007-08-27 00:00;CYWG 270000Z 28007KT 15SM SCT050TCU BKN082 BKN250 29/19 A2951 RMK TCU4AC2CI1 CB E SLP991

CYWG;2007-08-27 01:00;CYWG 270100Z 33016G22KT 15SM SCT050CB BKN250 26/18 A2949 RMK CB3CI0 CB LINE NE-SW SLP987

CYWG;2007-08-27 02:00;CYWG 270200Z 34011KT 15SM FEW050CB BKN250 22/15 A2957 RMK CB2CI1 CB + LTNG E-S SLP014

CYWG;2007-08-27 03:00;CYWG 270300Z 32011KT 15SM FEW250 19/15 A2964 RMK CI0 PRESRR SLP039

CYWG;2007-08-27 04:00;CYWG 270400Z 34008KT 15SM FEW055 17/14 A2971 RMK SC2 PRESRR SLP061

CYWG;2007-08-27 05:00;CYWG 270500Z 01016KT 15SM OVC016 17/13 A2978 RMK SC8 PRESRR SLP085

CYWG;2007-08-27 06:00;CYWG 270600Z 35013KT 15SM OVC020 16/12 A2980 RMK SC8 SLP092

CYWG;2007-08-27 07:00;CYWG 270700Z 34011KT 15SM SCT022 15/12 A2982 RMK SC2 SLP097

CYWG;2007-08-27 08:00;CYWG 270800Z 34010KT 15SM OVC022 15/12 A2982 RMK SC8 SLP099

CYWG;2007-08-27 09:00;CYWG 270900Z 35011KT 15SM FEW011 OVC022 15/12 A2984 RMK SF2SC6 SLP104

CYWG;2007-08-27 10:00;CYWG 271000Z 34008KT 15SM FEW022 13/11 A2986 RMK SC1 SLP110

CYWG;2007-08-27 11:00;CYWG 271100Z 33007KT 15SM SCT020 11/09 A2989 RMK SC3 SLP121

CYWG;2007-08-27 12:00;CYWG 271200Z 35011KT 15SM SCT030 SCT100 BKN250 11/09 A2990 RMK SC3AC1CI1 SLP126

CYWG;2007-08-27 13:00;CYWG 271300Z 36007KT 15SM BKN083 BKN250 12/09 A2990 RMK AC6CI1 VIRGA CVCTV CLD EMBD SLP127

CYWG;2007-08-27 14:00;CYWG 271400Z 34007KT 15SM FEW080 BKN100 BKN250 13/09 A2995 RMK AC1AC5CI1 VIRGA CVCTV CLD EMBD SLP141

CYWG;2007-08-27 15:00;CYWG 271500Z 04013KT 15SM SCT100 BKN250 15/10 A2990 RMK AC3CI1 SLP127

CYWG;2007-08-27 16:00;CYWG 271600Z 03011G17KT 15SM FEW020 BKN100 OVC250 15/10 A2993 RMK CF1AC6CI1 VIRGA CVCTV CLD EMBD SLP138

CYWG;2007-08-27 17:00;CYWG 271700Z 06011KT 15SM OVC094 15/09 A2995 RMK AC8 SLP143

CYWG;2007-08-27 18:00;CYWG 271800Z 04007KT 15SM FEW030 OVC100 16/07 A3000 RMK SC1AC7 SLP164

CYWG;2007-08-27 19:00;CYWG 271900Z 06011KT 15SM FEW030 BKN093 OVC230 18/07 A2999 RMK SC1AC6CI1 SLP160

CYWG;2007-08-27 20:00;CYWG 272000Z 03009KT 15SM FEW030 SCT093 OVC230 17/06 A3000 RMK SC1AC3CI3 SLP162

CYWG;2007-08-27 21:00;CYWG 272100Z 03011KT 15SM FEW030 BKN120 BKN230 17/07 A2997 RMK SC1AC6CI1 SLP151

CYWG;2007-08-27 22:00;CYWG 272200Z 04010KT 15SM FEW030 BKN098 BKN230 17/08 A2996 RMK SC1AC5CI1 SLP150

CYWG;2007-08-27 23:00;CYWG 272300Z 05008KT 15SM FEW030 SCT089 BKN230 17/08 A2995 RMK SC1AC2CI2 SLP144

CYWG;2007-08-28 00:00;CYWG 280000Z 07006KT 15SM BKN089 BKN230 17/08 A2995 RMK AC5CI1 SLP147

CYWG;2007-08-28 01:00;CYWG 280100Z 05005KT 15SM BKN100 BKN230 16/09 A2996 RMK AC5CI1 SLP149

CYWG;2007-08-28 02:00;CYWG 280200Z 05005KT 15SM SCT100 BKN230 15/09 A2997 RMK AC4CI1 SLP154

CYWG;2007-08-28 03:00;CYWG 280300Z 33004KT 15SM BKN100 11/08 A2999 RMK AC2 SLP160

CYWG;2007-08-28 04:00;CYWG 280400Z 30005KT 15SM FEW100 10/08 A3000 RMK AC1 SLP163

CYWG;2007-08-28 05:00;CYWG 280500Z 35006KT 15SM OVC090 11/09 A3000 RMK AC7 SLP165

CYWG;2007-08-28 06:00;CYWG 280600Z 32005KT 15SM OVC070 12/09 A3002 RMK AC7 SLP169

CYWG;2007-08-28 07:00;CYWG 280700Z 33005KT 15SM BKN100 12/09 A3003 RMK AC6 SLP172

CYWG;2007-08-28 08:00;CYWG 280800Z 07004KT 15SM BKN100 12/09 A3000 RMK AC6 SLP164

CYWG;2007-08-28 09:00;CYWG 280900Z 03003KT 15SM BKN100 12/09 A3001 RMK AC7 SLP166

CYWG;2007-08-28 10:00;CYWG 281000Z 05003KT 15SM BKN100 11/08 A3001 RMK AC6 SLP167

CYWG;2007-08-28 11:00;CYWG 281100Z 01003KT 15SM BKN100 BKN250 09/07 A3001 RMK AC6CI0 SLP167

CYWG;2007-08-28 12:00;CYWG 281200Z 03002KT 15SM SCT097 BKN120 OVC280 10/08 A3002 RMK AC4AC2CI1 SLP171

CYWG;2007-08-28 13:00;CYWG 281300Z 31002KT 15SM BKN120 OVC280 11/09 A3005 RMK AC6CI2 SLP179

CYWG;2007-08-28 14:00;CYWG 281400Z 30003KT 15SM BKN120 OVC280 13/10 A3006 RMK AS6CI2 SLP183

CYWG;2007-08-28 15:00;CYWG 281500Z 28003KT 15SM BKN120 OVC280 15/08 A3007 RMK AS6CI2 SLP188

CYWG;2007-08-28 16:00;CYWG 281600Z 31005KT 15SM BKN078 OVC280 16/06 A3007 RMK AS7CI1 SLP187

CYWG;2007-08-28 17:00;CYWG 281700Z 35003KT 15SM BKN080 BKN280 17/07 A3006 RMK AC5CI2 SLP186

CYWG;2007-08-28 18:00;CYWG 281800Z 30003KT 15SM BKN076 BKN280 18/08 A3006 RMK AC6CI2 SLP182

CYWG;2007-08-28 19:00;CYWG 281900Z 30003KT 15SM FEW035 SCT080 BKN120 18/08 A3006 RMK SC1AC2AC3 SLP184

CYWG;2007-08-28 20:00;CYWG 282000Z 25004KT 15SM FEW044 SCT120 BKN250 19/09 A3006 RMK CU1AC3CI1 VSBY W 6 FU SLP183

CYWG;2007-08-28 21:00;CYWG 282100Z 22006KT 15SM FEW044 FEW120 BKN250 20/09 A3005 RMK CU2AC1CI2 VSBY N 5 FU SLP178

CYWG;2007-08-28 22:00;CYWG 282200Z 22009KT 15SM BKN052 20/09 A3004 RMK CU6 SLP177

CYWG;2007-08-28 23:00;CYWG 282300Z 20010KT 15SM SCT050 SCT250 21/10 A3003 RMK SC3CI1 SLP173

CYWG;2007-08-29 00:00;CYWG 290000Z 21007KT 15SM SCT052 SCT099 BKN250 19/10 A3003 RMK SC3AC1CI1 CB TOPS W-N SLP174

CYWG;2007-08-29 00:28;CYWG 290028Z 21009KT 15SM TS SCT049CB BKN250 19/ RMK CB3CI2 LTNG N SHWRS SW-N

CYWG;2007-08-29 00:34;CYWG 290034Z 30022G29KT 15SM -TSRA BKN043CB BKN250 15/ RMK CB5CI2 LTNG SW-NE

CYWG;2007-08-29 01:00;CYWG 290100Z 04003KT 15SM -TSRA BKN043CB BKN082 13/12 A3005 RMK CB5AC2 RERA LTNG S SLP179

CYWG;2007-08-29 01:23;CYWG 290123Z 20006KT 15SM FEW030 BKN040CB BKN082 13/ RMK SC2CB3AC1 RETSRA SHWRS NE-SW

CYWG;2007-08-29 02:00;CYWG 290200Z 14007KT 15SM SCT042 BKN064CB BKN093 13/12 A3006 RMK SC3CB2AC2 RETS SHWRS NE-S SLP182

CYWG;2007-08-29 03:00;CYWG 290300Z 18005KT 15SM BKN070 13/12 A3006 RMK AC5 SLP184

CYWG;2007-08-29 04:00;CYWG 290400Z 20006KT 15SM FEW060 13/12 A3007 RMK SC2 SLP186

CYWG;2007-08-29 05:00;CYWG 290500Z 24005KT 15SM FEW060 12/11 A3008 RMK SC1 HZ/BR E SLP191

CYWG;2007-08-29 06:00;CYWG 290600Z 24007KT 15SM SCT070 12/11 A3009 RMK AC2 SLP195

CYWG;2007-08-29 07:00;CYWG 290700Z 26009KT 15SM FEW070 11/10 A3011 RMK AC1 SLP200

CYWG;2007-08-29 08:00;CYWG 290800Z 27007KT 15SM SKC 09/08 A3012 RMK SLP203

CYWG;2007-08-29 09:00;CYWG 290900Z 27007KT 15SM SKC 08/07 A3014 RMK SLP210

CYWG;2007-08-29 10:00;CYWG 291000Z 28007KT 15SM SKC 07/06 A3015 RMK SLP215

CYWG;2007-08-29 11:00;CYWG 291100Z 27006KT 15SM SKC 07/06 A3016 RMK SLP219

CYWG;2007-08-29 12:00;CYWG 291200Z 27008KT 15SM SKC 07/06 A3018 RMK SLP226

CYWG;2007-08-29 13:00;CYWG 291300Z 28007KT 15SM SKC 09/08 A3020 RMK SLP233

CYWG;2007-08-29 14:00;CYWG 291400Z 28009KT 15SM SKC 12/10 A3021 RMK SLP236

CYWG;2007-08-29 15:00;CYWG 291500Z 30009KT 15SM FEW014 14/11 A3022 RMK CF1 SLP240

CYWG;2007-08-29 16:00;CYWG 291600Z 28010KT 15SM FEW020 17/11 A3024 RMK CF1 SLP246

CYWG;2007-08-29 17:00;CYWG 291700Z 30008KT 15SM FEW030 18/10 A3024 RMK CF1 SLP244

CYWG;2007-08-29 18:00;CYWG 291800Z 31014KT 15SM FEW041 20/08 A3023 RMK CF1 SLP241

CYWG;2007-08-29 19:00;CYWG 291900Z 27013KT 15SM SCT051 21/08 A3022 RMK SC3 SLP239

CYWG;2007-08-29 20:00;CYWG 292000Z 28011KT 15SM SCT053 22/08 A3021 RMK SC3 SLP234

CYWG;2007-08-29 21:00;CYWG 292100Z 31008KT 15SM FEW061 SCT270 21/08 A3019 RMK SC2CI0 SLP229

CYWG;2007-08-29 22:00;CYWG 292200Z 30008KT 15SM FEW061 BKN270 22/08 A3019 RMK SC2CI1 SLP227

CYWG;2007-08-29 23:00;CYWG 292300Z 33007KT 15SM FEW070 BKN270 22/07 A3018 RMK AC2CI2 SLP225

CYWG;2007-08-30 00:00;CYWG 300000Z 34005KT 15SM FEW070 BKN270 20/07 A3019 RMK AC1CI5 SLP228

CYWG;2007-08-30 01:00;CYWG 300100Z 00000KT 15SM BKN270 18/09 A3019 RMK CI4 SLP227

CYWG;2007-08-30 02:00;CYWG 300200Z 08002KT 15SM FEW120 SCT270 16/08 A3019 RMK AC1CI2 SLP229

CYWG;2007-08-30 03:00;CYWG 300300Z 00000KT 15SM SKC 13/08 A3020 RMK SLP231

CYWG;2007-08-30 04:00;CYWG 300400Z 17006KT 15SM SKC 14/08 A3019 RMK SLP230

CYWG;2007-08-30 05:00;CYWG 300500Z 17006KT 15SM SKC 12/08 A3019 RMK SLP229

CYWG;2007-08-30 06:00;CYWG 300600Z 18007KT 15SM FEW120 12/08 A3018 RMK AC0 SLP224

CYWG;2007-08-30 07:00;CYWG 300700Z 19006KT 15SM FEW120 12/07 A3018 RMK AC1 SLP223

CYWG;2007-08-30 08:00;CYWG 300800Z 22010KT 15SM SCT120 14/06 A3018 RMK AC2 SLP222

CYWG;2007-08-30 09:00;CYWG 300900Z 20006KT 15SM BKN100 13/06 A3018 RMK AC3 SLP221

CYWG;2007-08-30 10:00;CYWG 301000Z 18006KT 15SM OVC100 12/07 A3017 RMK AC7 SLP219

CYWG;2007-08-30 11:00;CYWG 301100Z 18009KT 15SM BKN089 12/07 A3016 RMK AC6 SLP215

CYWG;2007-08-30 12:00;CYWG 301200Z 18009KT 15SM SCT089 BKN140 12/07 A3014 RMK AC3AC2 VIRGA N QUAD SLP211

CYWG;2007-08-30 13:00;CYWG 301300Z 19011KT 15SM FEW090 BKN140 14/08 A3012 RMK AC2AC3 SLP202

CYWG;2007-08-30 14:00;CYWG 301400Z 20012KT 15SM SCT091 BKN140 14/09 A3010 RMK AC3AC2 SLP198

CYWG;2007-08-30 15:00;CYWG 301500Z 20014KT 15SM BKN140 17/11 A3008 RMK AC7 VIRGA N QUAD SLP191

CYWG;2007-08-30 16:00;CYWG 301600Z CCA 21015G20KT 15SM BKN140 23/14 A3006 RMK AC5 OBS TKN +07 SLP183

CYWG;2007-08-30 17:00;CYWG 301700Z 21019G25KT 15SM FEW140 26/14 A3003 RMK AC2 SLP173

CYWG;2007-08-30 18:00;CYWG 301800Z 23021KT 15SM BKN074 27/14 A3000 RMK AC4 RGD BASES ACC EMBBD SLP162

CYWG;2007-08-30 19:00;CYWG 301900Z 24016G26KT 15SM BKN090 29/14 A2998 RMK AC6 SLP155

CYWG;2007-08-30 20:00;CYWG 302000Z 24013G22KT 15SM BKN085 28/14 A2996 RMK AC6 SHRA NE SLP147

CYWG;2007-08-30 20:34;CYWG 302034Z 29012G19KT 3SM SHRA BKN085 24/ RMK AC6

CYWG;2007-08-30 20:38;CYWG 302038Z 36014G19KT 15SM BKN085 24/ RMK AC6 SHRA E-S VIS E 3

CYWG;2007-08-30 21:00;CYWG 302100Z 05017KT 15SM FEW012 SCT081TCU 22/16 A2998 RMK CF1TCU3 SHRA E-SE SLP153

CYWG;2007-08-30 22:00;CYWG 302200Z 03015G21KT 15SM FEW071TCU 21/15 A3001 RMK TCU1 CB EMBD E SLP165

CYWG;2007-08-30 23:00;CYWG 302300Z 04018KT 15SM FEW071TCU 20/14 A3004 RMK TCU1 TCU E SLP173

CYWG;2007-08-31 00:00;CYWG 310000Z 04017KT 15SM FEW070TCU 18/13 A3007 RMK TCU1 TCU DIST E SLP186

CYWG;2007-08-31 01:00;CYWG 310100Z 04013KT 15SM FEW070TCU FEW250 16/13 A3008 RMK TCU1CI0 TCU DIST SE SLP190

CYWG;2007-08-31 02:00;CYWG 310200Z 04010G15KT 15SM SKC 15/13 A3010 RMK SLP197

CYWG;2007-08-31 03:00;CYWG 310300Z 05009KT 15SM SKC 14/13 A3012 RMK SLP203

CYWG;2007-08-31 04:00;CYWG 310400Z 06007KT 15SM SKC 14/13 A3013 RMK SLP208

CYWG;2007-08-31 05:00;CYWG 310500Z 03007KT 15SM SKC 11/10 A3014 RMK SLP211

CYWG;2007-08-31 06:00;CYWG 310600Z 04004KT 15SM R13/3500VP6000FT/D SKC 10/09 A3016 RMK SLP215

CYWG;2007-08-31 07:00;CYWG 310700Z CCA 04002KT 15SM R13/3000FT/N MIFG SKC 09/09 A3016 RMK SLP217

CYWG;2007-08-31 08:00;CYWG 310800Z 36002KT 1SM R13/3000V5000FT/D R36/3500VP6000FT/U BR SKC 07/07 A3017 RMK FG1 SLP219

CYWG;2007-08-31 08:22;CYWG 310822Z 03005KT 6SM R13/2800FT/N BR SKC 08/ RMK FG1 VSB W-N 11/2

CYWG;2007-08-31 09:00;CYWG 310900Z 00000KT 15SM R13/2400FT/N MIFG FEW120 08/08 A3017 RMK AC1 SLP222

CYWG;2007-08-31 10:00;CYWG 311000Z 05003KT 15SM MIFG SKC 07/07 A3017 RMK SLP221

CYWG;2007-08-31 11:00;CYWG 311100Z 09005KT 15SM MIFG FEW080 08/08 A3017 RMK AC1 AC TR SLP221

CYWG;2007-08-31 12:00;CYWG 311200Z 01002KT 15SM R13/2200FT/N MIFG FEW100 06/06 A3019 RMK AC1 SLP231

CYWG;2007-08-31 13:00;CYWG 311300Z 10003KT 15SM FEW120 10/10 A3019 RMK AC1 AC TR SLP231

CYWG;2007-08-31 14:00;CYWG 311400Z 12008KT 15SM FEW120 14/11 A3019 RMK AC1 AC TR SLP229

CYWG;2007-08-31 15:00;CYWG 311500Z 13006KT 15SM FEW120 FEW270 17/11 A3019 RMK AC1CI0 AC TR SLP228

CYWG;2007-08-31 16:00;CYWG 311600Z 14009KT 15SM FEW120 FEW270 18/11 A3019 RMK AC1CI0 SLP226

CYWG;2007-08-31 17:00;CYWG 311700Z 15008KT 15SM FEW120 BKN270 20/10 A3019 RMK AC1CI1 SLP226

CYWG;2007-08-31 18:00;CYWG 311800Z 13009KT 15SM FEW120 SCT270 22/10 A3015 RMK AC1CI0 SLP214

CYWG;2007-08-31 19:00;CYWG 311900Z 12013KT 15SM FEW120 SCT270 23/09 A3013 RMK AC1CI1 SLP208

CYWG;2007-08-31 20:00;CYWG 312000Z 13011G16KT 15SM FEW120 SCT270 24/10 A3012 RMK AC1CI1 SLP202

CYWG;2007-08-31 21:00;CYWG 312100Z 14012KT 15SM FEW120 24/10 A3010 RMK AC2 SLP196

CYWG;2007-08-31 22:00;CYWG 312200Z 16011KT 15SM FEW120 25/10 A3009 RMK AC2 SLP191

CYWG;2007-08-31 23:00;CYWG 312300Z 14012G17KT 15SM FEW270 24/11 A3005 RMK CI1 SLP179

CYWG;2007-09-01 01:00;CYWG 010100Z 15009KT 15SM SCT120 BKN270 21/10 A3002 RMK AC3CI0 SLP170

CYWG;2007-09-01 02:00;CYWG 010200Z 13012KT 15SM SCT120 SCT270 20/09 A3002 RMK AC3CI0 SLP170

CYWG;2007-09-01 03:00;CYWG 010300Z 15013KT 15SM FEW120 SCT270 19/10 A3001 RMK AC2CI1 SLP165

CYWG;2007-09-01 04:00;CYWG 010400Z 15013KT 15SM FEW120 18/10 A2999 RMK AC1 SLP157

CYWG;2007-09-01 05:00;CYWG 010500Z 16012G17KT 15SM FEW120 18/11 A2997 RMK AC2 SLP153

CYWG;2007-09-01 06:00;CYWG 010600Z 16011KT 15SM FEW120 18/11 A2995 RMK AC2 SLP144

CYWG;2007-09-01 07:00;CYWG 010700Z 16010KT 15SM FEW120 18/13 A2994 RMK AC2 SLP139

CYWG;2007-09-01 08:00;CYWG 010800Z 17013KT 15SM FEW120 19/15 A2991 RMK AC2 SLP130

CYWG;2007-09-01 09:00;CYWG 010900Z 18015KT 15SM SCT092 20/16 A2990 RMK AC3 SLP123

CYWG;2007-09-01 10:00;CYWG 011000Z 18011G16KT 15SM FEW090 19/17 A2987 RMK AC2 SLP116

CYWG;2007-09-01 11:00;CYWG 011100Z 18012G17KT 15SM FEW090 FEW250 20/17 A2986 RMK AC1CI0 SLP110

CYWG;2007-09-01 12:00;CYWG 011200Z 17014G19KT 15SM FEW090 BKN250 20/17 A2984 RMK AC1CI2 SLP105

CYWG;2007-09-01 13:00;CYWG 011300Z 18011G16KT 15SM FEW100 BKN250 20/18 A2985 RMK AC2CI2 SLP107

CYWG;2007-09-01 14:00;CYWG 011400Z 18014G20KT 15SM FEW100 BKN250 22/18 A2983 RMK AC2CI2 SLP101

CYWG;2007-09-01 15:00;CYWG 011500Z 17020KT 15SM FEW025 SCT093 BKN250 23/18 A2978 RMK CU1AC2CI2 SLP085

CYWG;2007-09-01 16:00;CYWG 011600Z 18022G28KT 15SM FEW025 FEW093 BKN250 24/18 A2975 RMK CU1AC2CI3 SLP076

CYWG;2007-09-01 17:00;CYWG 011700Z 19018G24KT 15SM FEW023 FEW073 OVC250 25/18 A2974 RMK CU1AC1CI6 SLP071

CYWG;2007-09-01 18:00;CYWG 011800Z 19022G28KT 15SM FEW023 FEW080 OVC250 27/19 A2971 RMK CU1AC2CI5 SLP062

CYWG;2007-09-01 19:00;CYWG 011900Z 19021KT 15SM BKN080 OVC250 27/19 A2970 RMK AC6CI0 SLP057

CYWG;2007-09-01 20:00;CYWG 012000Z 19021G27KT 15SM FEW080 BKN100 OVC250 29/19 A2968 RMK AC1AC2CI0 SLP050

CYWG;2007-09-01 21:00;CYWG 012100Z 19019G25KT 15SM FEW080 BKN100 BKN250 31/20 A2965 RMK AC2AC2CI0 SLP037

CYWG;2007-09-01 22:00;CYWG 012200Z 20018G26KT 15SM BKN090 BKN250 31/19 A2963 RMK AC6CI0 SLP032

CYWG;2007-09-01 23:00;CYWG 012300Z 20022KT 15SM BKN100 30/19 A2963 RMK AC4 SLP030

CYWG;2007-09-02 00:00;CYWG 020000Z 20021G26KT 9SM SCT090 30/19 A2963 RMK AC2 HZ/FU SLP031

CYWG;2007-09-02 01:00;CYWG 020100Z 20015KT 9SM FEW090 FEW250 28/19 A2963 RMK AC1CI0 HZ/FU SLP033

CYWG;2007-09-02 02:00;CYWG 020200Z 21011KT 9SM FEW110 FEW230 27/19 A2966 RMK AC1CI0 HZ/FU SLP042

CYWG;2007-09-02 03:00;CYWG 020300Z 29013KT 15SM FEW090 FEW250 25/16 A2970 RMK AC1CI1 SLP055

CYWG;2007-09-02 04:00;CYWG 020400Z 30014G19KT 15SM FEW250 24/12 A2974 RMK CI1 SLP068

CYWG;2007-09-02 05:00;CYWG 020500Z 32017G24KT 15SM SKC 22/12 A2979 RMK SLP086

CYWG;2007-09-02 06:00;CYWG 020600Z 31012G19KT 15SM SKC 21/12 A2982 RMK SLP096

CYWG;2007-09-02 07:00;CYWG 020700Z 31009KT 15SM SKC 19/12 A2984 RMK SLP104

CYWG;2007-09-02 08:00;CYWG 020800Z 31011KT 15SM SKC 17/12 A2988 RMK SLP116

CYWG;2007-09-02 09:00;CYWG 020900Z 32010KT 15SM SKC 16/11 A2992 RMK SLP130

CYWG;2007-09-02 10:00;CYWG 021000Z 32010KT 15SM FEW030 15/10 A2995 RMK SC1 SLP142

CYWG;2007-09-02 11:00;CYWG 021100Z 33010KT 15SM FEW030 14/10 A2997 RMK CU1 SLP148

CYWG;2007-09-02 12:00;CYWG 021200Z 31006KT 15SM SKC 11/09 A3002 RMK SLP165

CYWG;2007-09-02 13:00;CYWG 021300Z 32005KT 15SM SKC 13/09 A3004 RMK SLP173

CYWG;2007-09-02 14:00;CYWG 021400Z 29008KT 15SM FEW030 16/10 A3006 RMK CU1 SLP180

CYWG;2007-09-02 15:00;CYWG 021500Z 32014KT 15SM FEW030 17/10 A3009 RMK CU2 SLP189

CYWG;2007-09-02 16:00;CYWG 021600Z 33013G18KT 15SM FEW030 19/10 A3009 RMK CU2 SLP191

CYWG;2007-09-02 17:00;CYWG 021700Z 33011KT 15SM FEW040 20/10 A3010 RMK CU2 SLP194

CYWG;2007-09-02 18:00;CYWG 021800Z 30011G17KT 15SM FEW040 20/10 A3010 RMK CU2 SLP193

CYWG;2007-09-02 19:00;CYWG 021900Z 34011KT 15SM FEW040 FEW120 FEW250 21/10 A3009 RMK CU1AC1CI1 TR CLD ALL LVLS SLP190

CYWG;2007-09-02 20:00;CYWG 022000Z 31007KT 15SM FEW040 FEW250 22/10 A3008 RMK CU1CI1 TR CU COTRA SLP188

CYWG;2007-09-02 21:00;CYWG 022100Z 31005KT 15SM FEW120 FEW260 22/09 A3007 RMK AC1CI2 COTRA SLP186

CYWG;2007-09-02 22:00;CYWG 022200Z 30007KT 15SM FEW120 SCT260 23/09 A3008 RMK AC2CI1 VIRGA DSTNT SW QUAD SLP187

CYWG;2007-09-02 23:00;CYWG 022300Z 33006KT 15SM BKN120 BKN260 21/09 A3008 RMK AC5CI1 VIRGA SW QUAD SLP187

CYWG;2007-09-03 00:00;CYWG 030000Z 30007KT 15SM FEW120 SCT260 21/08 A3007 RMK AC2CI0 VIRGA SLP185

CYWG;2007-09-03 01:00;CYWG 030100Z 31005KT 15SM FEW120 BKN240 16/08 A3006 RMK AC2CI1 VIRGA SLP184

CYWG;2007-09-03 02:00;CYWG 030200Z 33006KT 15SM BKN120 BKN230 14/08 A3008 RMK AC6CI1 SLP190

CYWG;2007-09-03 03:00;CYWG 030300Z 30003KT 15SM BKN120 15/09 A3009 RMK AC6 SLP191

CYWG;2007-09-03 04:00;CYWG 030400Z 34002KT 15SM OVC090 15/10 A3009 RMK AC8 VIRGA SLP193

CYWG;2007-09-03 04:14;CYWG 030414Z 00000KT 15SM -SHRA BKN070 15/ RMK AC6

CYWG;2007-09-03 04:42;CYWG 030442Z 00000KT 15SM BKN070 15/ RMK AC4

CYWG;2007-09-03 05:00;CYWG 030500Z 00000KT 15SM BKN064 14/09 A3009 RMK SC6 SLP194

CYWG;2007-09-03 06:00;CYWG 030600Z 17003KT 15SM OVC110 14/09 A3009 RMK AC8 SLP191

CYWG;2007-09-03 07:00;CYWG 030700Z 01002KT 15SM OVC110 14/11 A3010 RMK AC8 SLP195

CYWG;2007-09-03 08:00;CYWG 030800Z 07005KT 15SM BKN110 14/11 A3010 RMK AC6 SLP195

CYWG;2007-09-03 08:22;CYWG 030822Z 09003KT 15SM -SHRA OVC110 15/ RMK AC8

CYWG;2007-09-03 08:54;CYWG 030854Z 09005KT 15SM OVC110 15/ RMK AC8 VIRGA

CYWG;2007-09-03 09:00;CYWG 030900Z 09004KT 15SM OVC110 15/11 A3008 RMK AC8 VIRGA SLP188

CYWG;2007-09-03 10:00;CYWG 031000Z 10006KT 15SM -SHRA OVC110 15/11 A3007 RMK AC8 SLP184

CYWG;2007-09-03 10:23;CYWG 031023Z 10005KT 15SM OVC100 15/ RMK AC8 VIRGA

CYWG;2007-09-03 10:36;CYWG 031036Z 08006KT 15SM -SHRA OVC100 15/ RMK AC8

CYWG;2007-09-03 10:49;CYWG 031049Z 11006KT 15SM OVC097 15/ RMK AC8

CYWG;2007-09-03 11:00;CYWG 031100Z 11004KT 15SM OVC097 15/12 A3008 RMK AC8 CB EMBDD LTGCG W SLP188

CYWG;2007-09-03 11:15;CYWG 031115Z 16002KT 15SM -TSRA BKN064CB OVC097 15/ RMK CB5AC3

CYWG;2007-09-03 11:39;CYWG 031139Z 13009KT 15SM TS FEW024 BKN046CB BKN100 15/ RMK SF2CB3AC2 LTGCG S

CYWG;2007-09-03 11:53;CYWG 031153Z 12007KT 15SM FEW024 SCT046CB BKN100 15/ RMK SC2CB2AC3 RETS

CYWG;2007-09-03 12:00;CYWG 031200Z 11004KT 15SM FEW024 SCT046CB BKN100 15/12 A3007 RMK SC2CB2AC3 RETS SLP186

CYWG;2007-09-03 13:00;CYWG 031300Z 13010KT 15SM TS BKN076CB BKN100 16/11 A3004 RMK CB5AC2 LTGCG W SLP174

CYWG;2007-09-03 13:08;CYWG 031308Z 14009KT 15SM -TSRA BKN046CB OVC076 16/ RMK CB5AC3

CYWG;2007-09-03 14:00;CYWG 031400Z 07007KT 15SM TS BKN046CB BKN093 15/12 A3006 RMK CB5AC2 SLP181

CYWG;2007-09-03 14:20;CYWG 031420Z 12009KT 15SM -TSRA FEW025 BKN046CB BKN093 15/ RMK SF2CB3AC2

CYWG;2007-09-03 14:41;CYWG 031441Z 11009KT 15SM FEW025 OVC072 RMK SC2AC6

CYWG;2007-09-03 15:00;CYWG 031500Z 12010KT 15SM OVC068 16/12 A3006 RMK AC8 RETS SLP181

CYWG;2007-09-03 16:00;CYWG 031600Z 12010KT 15SM OVC064 16/12 A3005 RMK SC8 SLP179

CYWG;2007-09-03 17:00;CYWG 031700Z 13015KT 15SM OVC062 18/11 A3001 RMK SC8 SLP167

CYWG;2007-09-03 18:00;CYWG 031800Z 12013G20KT 15SM OVC060 19/10 A3000 RMK SC8 SLP161

CYWG;2007-09-03 19:00;CYWG 031900Z 11011G17KT 15SM OVC060 19/11 A2999 RMK SC8 SLP158

CYWG;2007-09-03 20:00;CYWG 032000Z 10015KT 15SM OVC058 19/10 A2997 RMK SC8 SLP152

CYWG;2007-09-03 21:00;CYWG 032100Z 08012KT 15SM OVC058 19/11 A2998 RMK SC8 SLP154

CYWG;2007-09-03 22:00;CYWG 032200Z 08012KT 15SM BKN066 18/12 A2997 RMK AC7 SLP152

CYWG;2007-09-03 23:00;CYWG 032300Z 10013KT 15SM SCT099 BKN270 18/12 A2996 RMK AC3CI1 SLP149

CYWG;2007-09-04 00:00;CYWG 040000Z 10015KT 15SM SCT091 BKN270 17/11 A2996 RMK AC3CI1 SLP148

CYWG;2007-09-04 01:00;CYWG 040100Z 10010G16KT 15SM FEW090 BKN270 16/11 A2995 RMK AC1CI1 SLP144

CYWG;2007-09-04 02:00;CYWG 040200Z 11008KT 15SM FEW270 15/11 A2995 RMK CI1 SLP144

CYWG;2007-09-04 03:00;CYWG 040300Z 09006KT 15SM SKC 14/11 A2995 RMK SLP147

CYWG;2007-09-04 04:00;CYWG 040400Z 06004KT 15SM SKC 12/10 A2996 RMK SLP150

CYWG;2007-09-04 05:00;CYWG 040500Z 05006KT 15SM SKC 11/10 A2996 RMK SLP149

CYWG;2007-09-04 06:00;CYWG 040600Z 06005KT 15SM SKC 10/09 A2995 RMK SLP147

CYWG;2007-09-04 07:00;CYWG 040700Z 04005KT 15SM SKC 10/09 A2994 RMK SLP144

CYWG;2007-09-04 08:00;CYWG 040800Z 06004KT 15SM SKC 08/08 A2993 RMK SLP141

CYWG;2007-09-04 09:00;CYWG 040900Z 03005KT 15SM SKC 09/08 A2995 RMK SLP146

CYWG;2007-09-04 10:00;CYWG 041000Z 05005KT 15SM SKC 08/07 A2994 RMK SLP143

CYWG;2007-09-04 11:00;CYWG 041100Z 06005KT 15SM FEW240 08/08 A2994 RMK CI1 SLP143

CYWG;2007-09-04 12:00;CYWG 041200Z 07004KT 15SM FEW240 07/07 A2993 RMK CI1 SLP142

CYWG;2007-09-04 13:00;CYWG 041300Z 05002KT 15SM FEW240 11/11 A2994 RMK CI1 SLP144

CYWG;2007-09-04 14:00;CYWG 041400Z 13004KT 15SM FEW240 15/13 A2995 RMK CI1 SLP146

CYWG;2007-09-04 15:00;CYWG 041500Z 11003KT 15SM FEW240 17/13 A2994 RMK CI1 SLP143

CYWG;2007-09-04 16:00;CYWG 041600Z 19002KT 15SM FEW240 19/13 A2993 RMK CI1 SLP140

CYWG;2007-09-04 17:00;CYWG 041700Z 10006KT 15SM FEW240 20/14 A2992 RMK CI1 SLP134

CYWG;2007-09-04 18:00;CYWG 041800Z 09006KT 15SM FEW240 22/15 A2989 RMK CI1 SLP124

CYWG;2007-09-04 19:00;CYWG 041900Z 10009KT 15SM FEW240 24/15 A2987 RMK CI1 SLP119

CYWG;2007-09-04 20:00;CYWG 042000Z 09006KT 15SM FEW240 25/15 A2986 RMK CI1 SLP115

CYWG;2007-09-04 21:00;CYWG 042100Z 13008KT 15SM FEW100 FEW240 26/16 A2983 RMK AC1CI1 SLP104

CYWG;2007-09-04 22:00;CYWG 042200Z 14009KT 15SM FEW100 SCT240 26/16 A2981 RMK AC1CI0 SLP098

CYWG;2007-09-04 23:00;CYWG 042300Z 11010KT 15SM SCT240 26/16 A2980 RMK CI0 SLP094

CYWG;2007-09-05 00:00;CYWG 050000Z 12014KT 15SM BKN240 24/16 A2977 RMK CI0 SLP085

CYWG;2007-09-05 01:00;CYWG 050100Z 14017KT 15SM BKN240 22/16 A2977 RMK CI2 SLP083

CYWG;2007-09-05 02:00;CYWG 050200Z 14014G19KT 15SM BKN240 19/15 A2979 RMK CI5 SLP090

CYWG;2007-09-05 03:00;CYWG 050300Z 14010G15KT 15SM FEW110 BKN240 18/15 A2979 RMK AC1CI6 SLP089

CYWG;2007-09-05 04:00;CYWG 050400Z 14006KT 15SM SCT240 17/15 A2977 RMK CI3 SLP084

CYWG;2007-09-05 05:00;CYWG 050500Z 14009KT 15SM SCT240 17/15 A2975 RMK CI3 SLP076

CYWG;2007-09-05 06:00;CYWG 050600Z 15009KT 15SM BKN240 17/15 A2971 RMK CI6 SLP062

CYWG;2007-09-05 07:00;CYWG 050700Z 15008KT 15SM OVC240 16/15 A2969 RMK CI7 SLP055

CYWG;2007-09-05 08:00;CYWG 050800Z 16008KT 15SM OVC240 16/15 A2966 RMK CI7 SLP045

CYWG;2007-09-05 08:45;CYWG 050845Z 14008G15KT 15SM FEW013 SCT025 BKN170 RMK SF2SC2AC1 VIA YWG FIC

CYWG;2007-09-05 08:48;CYWG 050848Z CCA 17009KT 15SM OVC240 16/ RMK CI7 PREVIOUS SPECIAL WAS IN ERROR IT WAS CYXL WX

CYWG;2007-09-05 09:00;CYWG 050900Z 17009KT 15SM OVC240 16/15 A2964 RMK CI7 SLP035

CYWG;2007-09-05 10:00;CYWG 051000Z 15009KT 15SM BKN240 16/15 A2959 RMK CI6 SLP020

CYWG;2007-09-05 11:00;CYWG 051100Z 19008KT 15SM BKN120 17/16 A2961 RMK AC6 SLP027

CYWG;2007-09-05 12:00;CYWG 051200Z 31002KT 6SM TSRA BR SCT025CB BKN100 16/16 A2964 RMK CB3AC4 LTGCG SLP036

CYWG;2007-09-05 12:27;CYWG 051227Z 03003KT 6SM BR BKN025 BKN120 OVC240 16/ RMK SC5AC2CI2 RETSRA

CYWG;2007-09-05 13:00;CYWG 051300Z 04004KT 6SM BR SCT033 BKN120 OVC240 17/16 A2963 RMK SC4AC2CI2 RETSRA SLP033

CYWG;2007-09-05 15:00;CYWG 051500Z 19006KT 6SM BR FEW035 BKN095 OVC240 20/18 A2960 RMK CF1AC6CI2 SLP025

CYWG;2007-09-05 16:00;CYWG 051600Z 26007KT 10SM BKN120 OVC240 21/18 A2963 RMK AC6CI2 SLP034

CYWG;2007-09-05 17:00;CYWG 051700Z 29005KT 10SM BKN120 OVC240 21/18 A2960 RMK AC6CI2 SLP025

CYWG;2007-09-05 18:00;CYWG 051800Z 31009KT 15SM BKN120 21/18 A2963 RMK AC7 SLP036

CYWG;2007-09-05 19:00;CYWG 051900Z 32012G17KT 15SM BKN120 23/18 A2966 RMK AC7 SLP044

CYWG;2007-09-05 20:00;CYWG 052000Z 31013KT 15SM OVC120 22/17 A2967 RMK AC8 SLP047

CYWG;2007-09-05 21:00;CYWG 052100Z 34013KT 15SM -RA OVC097 21/14 A2968 RMK AC8 SLP052

CYWG;2007-09-05 21:33;CYWG 052133Z 34011KT 15SM OVC039 20/ RMK SC8

CYWG;2007-09-05 22:00;CYWG 052200Z 34009KT 15SM BKN039 20/14 A2967 RMK SC7 SLP047

CYWG;2007-09-05 23:00;CYWG 052300Z 31006KT 15SM OVC094 19/15 A2970 RMK AC8 SHRA DIST N SLP057

CYWG;2007-09-05 23:20;CYWG 052320Z 32011KT 15SM -SHRA BKN074 18/ RMK AC7

CYWG;2007-09-06 00:00;CYWG 060000Z 30004KT 15SM -SHRA BKN071 18/15 A2970 RMK AC7 SLP059

CYWG;2007-09-06 00:31;CYWG 060031Z 22004KT 15SM BKN071 BKN250 17/ RMK AC6CI1

CYWG;2007-09-06 01:00;CYWG 060100Z 24003KT 15SM BKN090 BKN250 17/14 A2969 RMK AC6CI1 SLP055

CYWG;2007-09-06 02:00;CYWG 060200Z 23006KT 15SM FEW010 BKN120 16/13 A2970 RMK FU1AC6 VIS E 6 SLP060

CYWG;2007-09-06 03:00;CYWG 060300Z 26005KT 6SM FU BKN100 14/12 A2970 RMK AC2 SLP059

CYWG;2007-09-06 04:00;CYWG 060400Z 26007KT 4SM FU BKN100 15/12 A2971 RMK FU1AC2 SLP062

CYWG;2007-09-06 05:00;CYWG 060500Z 29006KT 6SM FU BKN100 13/11 A2970 RMK AC3 VIS W-NW 9 SLP060

CYWG;2007-09-06 06:00;CYWG 060600Z 31006KT 15SM SKC 11/10 A2971 RMK SLP065

CYWG;2007-09-06 07:00;CYWG 060700Z 30006KT 15SM SKC 10/09 A2973 RMK SLP071

CYWG;2007-09-06 08:00;CYWG 060800Z 31004KT 15SM SKC 10/09 A2973 RMK SLP070

CYWG;2007-09-06 09:00;CYWG 060900Z 29006KT 15SM BCFG SKC 09/08 A2974 RMK SLP076

CYWG;2007-09-06 10:00;CYWG 061000Z 30005KT 15SM BCFG SKC 08/08 A2975 RMK SLP079

CYWG;2007-09-06 10:25;CYWG 061025Z 30007KT 15SM BCFG FEW001 08/ RMK SF1

CYWG;2007-09-06 11:00;CYWG 061100Z 30005KT 15SM MIFG FEW001 FEW082 08/08 A2977 RMK SF1AC1 TR SF SLP083

CYWG;2007-09-06 12:00;CYWG 061200Z 27003KT 15SM MIFG FEW001 FEW082 FEW270 07/06 A2977 RMK SF1AC1CI0 TR SF SLP085

CYWG;2007-09-06 13:00;CYWG 061300Z 30002KT 15SM FEW003 FEW270 09/09 A2977 RMK SF1CI0 TR SF SLP087

CYWG;2007-09-06 14:00;CYWG 061400Z 00000KT 12SM BKN270 13/13 A2978 RMK CI1 HZ SLP089

CYWG;2007-09-06 15:00;CYWG 061500Z 00000KT 15SM FEW081 BKN270 17/14 A2979 RMK AC2CS2 SLP091

CYWG;2007-09-06 16:00;CYWG 061600Z 12002KT 15SM FEW093 OVC270 20/14 A2979 RMK AC1CS3 SLP092

CYWG;2007-09-06 17:00;CYWG 061700Z 09004KT 15SM FEW076 OVC270 21/11 A2979 RMK AC1CS5 SLP090

CYWG;2007-09-06 18:00;CYWG 061800Z 13007KT 15SM BKN076 OVC270 22/10 A2978 RMK AC5CS2 SLP087

CYWG;2007-09-06 19:00;CYWG 061900Z 12005KT 15SM SCT080 BKN270 22/10 A2977 RMK AC3CI3 SLP083

CYWG;2007-09-06 20:00;CYWG 062000Z 36003KT 15SM FEW062 OVC270 22/10 A2977 RMK SC2CI4 SLP085

CYWG;2007-09-06 21:00;CYWG 062100Z 03004KT 15SM SCT080 OVC270 21/10 A2977 RMK AC3CI4 SLP083

CYWG;2007-09-06 22:00;CYWG 062200Z 05003KT 15SM SCT093 OVC270 21/10 A2977 RMK AC3CI3 SLP083

CYWG;2007-09-06 23:00;CYWG 062300Z 09005KT 15SM SCT093 OVC270 20/11 A2976 RMK AC3CI3 SLP081

CYWG;2007-09-07 00:00;CYWG 070000Z 10003KT 15SM SCT061 BKN089 OVC270 20/11 A2976 RMK SC3AC2CI2 SLP081

CYWG;2007-09-07 01:00;CYWG 070100Z 11003KT 15SM BKN061 BKN100 OVC270 19/10 A2976 RMK SC5AC1CI2 SLP082

CYWG;2007-09-07 02:00;CYWG 070200Z 00000KT 15SM BKN100 OVC270 17/11 A2979 RMK AC6CI2 SLP091

CYWG;2007-09-07 03:00;CYWG 070300Z 05004KT 15SM FEW060 OVC100 17/12 A2979 RMK SC2AC6 SLP089

CYWG;2007-09-07 04:00;CYWG 070400Z 09003KT 15SM SCT060 OVC100 16/12 A2978 RMK SC3AC5 SLP086

CYWG;2007-09-07 05:00;CYWG 070500Z 00000KT 15SM SCT070 OVC100 16/12 A2976 RMK AC3AC5 SLP081

CYWG;2007-09-07 06:00;CYWG 070600Z 01002KT 15SM FEW070 OVC100 14/12 A2975 RMK AC2AC6 SLP076

CYWG;2007-09-07 07:00;CYWG 070700Z 30003KT 15SM OVC100 14/12 A2974 RMK AC8 SLP074

CYWG;2007-09-07 07:52;CYWG 070752Z 28003KT 15SM -SHRA SCT033 BKN060 OVC100 15/ RMK SF3SC4AC1

CYWG;2007-09-07 08:00;CYWG 070800Z 27005KT 15SM -SHRA FEW033 BKN060 OVC100 15/13 A2975 RMK SC2SC4AC2 SLP075

CYWG;2007-09-07 09:00;CYWG 070900Z 30004KT 15SM -SHRA BKN037 OVC046 14/12 A2974 RMK SC5SC3 SLP074

CYWG;2007-09-07 10:00;CYWG 071000Z 12002KT 9SM -SHRA SCT049 OVC070 14/13 A2974 RMK SC3AC5 SLP073

CYWG;2007-09-07 10:42;CYWG 071042Z 22005KT 15SM OVC066 14/ RMK AC8

CYWG;2007-09-07 11:00;CYWG 071100Z 23003KT 15SM OVC064 14/12 A2974 RMK SC8 SLP072

CYWG;2007-09-07 12:00;CYWG 071200Z 22003KT 10SM -SHRA FEW033 OVC053 14/12 A2974 RMK SC2SC6 CVCTV CLD EMBD SLP074

CYWG;2007-09-07 12:36;CYWG 071236Z 23004KT 15SM FEW036 BKN060 14/ RMK SC2SC5

CYWG;2007-09-07 13:00;CYWG 071300Z 25007KT 8SM -SHRA FEW013 OVC044 15/13 A2974 RMK SF2SC6 SLP072

CYWG;2007-09-07 13:40;CYWG 071340Z 24006KT 12SM BKN011 OVC060 14/ RMK ST5SC3

CYWG;2007-09-07 14:00;CYWG 071400Z 25006KT 15SM OVC010 15/13 A2973 RMK ST8 SLP069

CYWG;2007-09-07 15:00;CYWG 071500Z 28014G19KT 15SM OVC014 15/13 A2973 RMK SC8 SLP071

CYWG;2007-09-07 16:00;CYWG 071600Z 29018G25KT 15SM BKN016 BKN049 16/13 A2975 RMK SC5SC2 SLP077

CYWG;2007-09-07 16:49;CYWG 071649Z 30016G21KT 15SM BKN012 BKN044 15/ RMK SC5SC2

CYWG;2007-09-07 17:00;CYWG 071700Z 30017KT 15SM BKN012 BKN044 16/14 A2977 RMK SC5SC2 SLP083

CYWG;2007-09-07 18:00;CYWG 071800Z 32021G27KT 15SM BKN027 18/11 A2979 RMK SC7 SLP091

CYWG;2007-09-07 19:00;CYWG 071900Z 31025KT 15SM BKN022 BKN067 17/11 A2983 RMK SC6AC1 SLP102

CYWG;2007-09-07 20:00;CYWG 072000Z 34021G30KT 15SM BKN023 BKN050 16/11 A2985 RMK SC6SC1 SLP111

CYWG;2007-09-07 21:00;CYWG 072100Z 34018G26KT 15SM BKN027 BKN054 16/10 A2988 RMK SC6SC1 SLP123

CYWG;2007-09-07 22:00;CYWG 072200Z 33021G27KT 15SM BKN035 17/08 A2990 RMK SC6 SLP129

CYWG;2007-09-07 23:00;CYWG 072300Z 32016G24KT 15SM BKN054 BKN210 17/08 A2991 RMK SC5CI1 SLP131

CYWG;2007-09-08 00:00;CYWG 080000Z 32017KT 15SM SCT049 SCT140 15/08 A2994 RMK SC3AC1 SLP143

CYWG;2007-09-08 01:00;CYWG 080100Z 31007KT 15SM SCT048 13/07 A2996 RMK SC3 SLP150

CYWG;2007-09-08 02:00;CYWG 080200Z 30008KT 15SM FEW110 10/07 A2998 RMK AC2 SLP157

CYWG;2007-09-08 03:00;CYWG 080300Z 31007KT 15SM FEW110 09/06 A3001 RMK AC1 SLP169

CYWG;2007-09-08 04:00;CYWG 080400Z 31004KT 15SM SKC 07/05 A3002 RMK SLP171

CYWG;2007-09-08 05:00;CYWG 080500Z 27007KT 15SM SKC 07/05 A3003 RMK SLP174

CYWG;2007-09-08 06:00;CYWG 080600Z 28005KT 15SM FEW050 06/05 A3004 RMK SC1 SLP177

CYWG;2007-09-08 07:00;CYWG 080700Z 32006KT 15SM FEW059 04/03 A3003 RMK SC2 SLP176

CYWG;2007-09-08 08:00;CYWG 080800Z 28006KT 15SM FEW059 07/06 A3008 RMK SC2 SLP192

CYWG;2007-09-08 09:00;CYWG 080900Z 33006KT 15SM FEW060 04/03 A3007 RMK SC2 SLP190

CYWG;2007-09-08 10:00;CYWG 081000Z 36007KT 15SM BKN060 08/07 A3009 RMK SC5 SLP194

CYWG;2007-09-08 11:00;CYWG 081100Z 35006KT 15SM FEW020 BKN100 07/06 A3011 RMK SC1AC6 SLP203

CYWG;2007-09-08 12:00;CYWG 081200Z 00000KT 15SM FEW030 SCT080 BKN160 06/05 A3016 RMK SC1AC2AC4 SLP220

CYWG;2007-09-08 13:00;CYWG 081300Z 00000KT 15SM FEW027 BKN150 BKN280 07/06 A3018 RMK SC2AC5CI0 SLP226

CYWG;2007-09-08 14:00;CYWG 081400Z 03004KT 15SM SCT025 BKN100 BKN280 08/07 A3019 RMK SC3AC3CI1 SLP229

CYWG;2007-09-08 14:48;CYWG 081448Z 03009KT 15SM BKN011 BKN095 BKN280 10/ RMK SC5AS2CI1

CYWG;2007-09-08 15:00;CYWG 081500Z 02007KT 15SM BKN011 BKN095 BKN280 10/08 A3020 RMK SC5AS2CI1 SLP233

CYWG;2007-09-08 16:00;CYWG 081600Z 02009KT 15SM BKN012 BKN280 10/08 A3021 RMK SC6CI1 SLP236

CYWG;2007-09-08 17:00;CYWG 081700Z 05008KT 15SM BKN014 BKN280 12/08 A3021 RMK SC7CI1 SLP238

CYWG;2007-09-08 18:00;CYWG 081800Z 03008KT 15SM BKN016 12/08 A3022 RMK SC6 SLP239

CYWG;2007-09-08 19:00;CYWG 081900Z 03010KT 15SM BKN024 BKN097 13/08 A3022 RMK SC6AC2 SLP240

CYWG;2007-09-08 20:00;CYWG 082000Z 03005KT 15SM FEW030 SCT087 BKN220 13/06 A3023 RMK SC2AC1CI3 SLP243

CYWG;2007-09-08 21:00;CYWG 082100Z 03009KT 15SM FEW040 SCT075 BKN220 14/03 A3023 RMK SC2AC2CI2 SLP244

CYWG;2007-09-08 22:00;CYWG 082200Z 05009KT 15SM FEW050 FEW090 BKN220 14/02 A3024 RMK CU1AC1CI2 VIRGA S SLP247

CYWG;2007-09-08 23:00;CYWG 082300Z 05005KT 15SM FEW050 FEW090 SCT220 13/01 A3024 RMK CU1AC2CI1 SLP248

CYWG;2007-09-09 00:00;CYWG 090000Z 07006KT 15SM FEW040 FEW083 FEW220 13/02 A3025 RMK SC1AC2CI0 SLP252

CYWG;2007-09-09 01:00;CYWG 090100Z 07006KT 15SM FEW050 FEW220 09/02 A3027 RMK SC2CI0 SLP258

CYWG;2007-09-09 02:00;CYWG 090200Z 09003KT 15SM BKN070 08/02 A3029 RMK AC5 SLP263

CYWG;2007-09-09 03:00;CYWG 090300Z 12002KT 15SM BKN072 09/04 A3029 RMK AC6 SLP264

CYWG;2007-09-09 04:00;CYWG 090400Z 00000KT 15SM OVC070 08/05 A3029 RMK AC7 SLP266

CYWG;2007-09-09 05:00;CYWG 090500Z 19002KT 15SM BKN064 07/05 A3029 RMK SC6 SLP266

CYWG;2007-09-09 06:00;CYWG 090600Z 22003KT 15SM OVC060 08/06 A3029 RMK SC7 SLP266

CYWG;2007-09-09 07:00;CYWG 090700Z 25004KT 15SM OVC070 09/05 A3030 RMK AC7 SLP267

CYWG;2007-09-09 08:00;CYWG 090800Z 21002KT 15SM BKN054 OVC082 09/05 A3029 RMK SC6AC2 SLP266

CYWG;2007-09-09 09:00;CYWG 090900Z 23006KT 15SM BKN054 OVC082 09/05 A3030 RMK SC6AC2 SLP267

CYWG;2007-09-09 10:00;CYWG 091000Z 24005KT 15SM BKN050 OVC068 09/03 A3030 RMK SC5AC3 SLP268

CYWG;2007-09-09 11:00;CYWG 091100Z 22005KT 15SM BKN071 09/03 A3030 RMK AC7 SLP266

CYWG;2007-09-09 12:00;CYWG 091200Z 19004KT 15SM BKN073 08/04 A3030 RMK AC6 SLP267

CYWG;2007-09-09 13:00;CYWG 091300Z 19006KT 15SM FEW073 07/04 A3030 RMK AC2 SLP269

CYWG;2007-09-09 14:00;CYWG 091400Z 21007KT 15SM FEW073 10/05 A3030 RMK AC1 SLP269

CYWG;2007-09-09 15:00;CYWG 091500Z 21004KT 15SM FEW080 13/07 A3030 RMK AC1 SLP268

CYWG;2007-09-09 16:00;CYWG 091600Z 21005KT 15SM FEW080 15/07 A3030 RMK AC2 SLP268

CYWG;2007-09-09 17:00;CYWG 091700Z 18004KT 15SM FEW037 BKN099 16/06 A3029 RMK CU2AC4 SLP265

CYWG;2007-09-09 18:00;CYWG 091800Z 25003KT 15SM FEW044 BKN088 17/05 A3027 RMK CU2AC4 SLP256

CYWG;2007-09-09 19:00;CYWG 091900Z 20007KT 15SM FEW054 BKN078 18/05 A3025 RMK CU2AC3 SLP249

CYWG;2007-09-09 20:00;CYWG 092000Z 19003KT 15SM SCT059 BKN081 18/04 A3022 RMK SC4AC2 SLP241

CYWG;2007-09-09 21:00;CYWG 092100Z 21006KT 15SM SCT062 BKN078 19/04 A3019 RMK SC3AC2 SLP228

CYWG;2007-09-09 22:00;CYWG 092200Z 25006KT 15SM BKN067 BKN096 18/04 A3017 RMK CU6AC1 TCU ASOCTD SHWRS W SLP222

CYWG;2007-09-09 22:24;CYWG 092224Z 31006G15KT 15SM -SHRA BKN063 RMK SC6 TCU ASCTD

CYWG;2007-09-09 22:25;CYWG 092225Z CCA 31006G15KT 15SM -SHRA BKN063 16/ RMK SC6 TCU ASCTD

CYWG;2007-09-09 22:52;CYWG 092252Z 00000KT 15SM BKN063 18/ RMK SC6 TCU ASCTD

CYWG;2007-09-09 23:00;CYWG 092300Z 21003KT 15SM SCT063 BKN084 18/06 A3017 RMK SC4AC2 CB TPS N SHWRS E SLP221

CYWG;2007-09-10 00:00;CYWG 100000Z 26007KT 15SM FEW065 SCT084 BKN250 17/04 A3016 RMK SC2AC2CI1 SHWRS NW CB TOPS NE SLP219

CYWG;2007-09-10 01:00;CYWG 100100Z 36007KT 15SM FEW065 BKN090 BKN250 15/06 A3017 RMK SC2AC2CI1 SHWRS NE TCU ASCTD SLP222

CYWG;2007-09-10 02:00;CYWG 100200Z 20004KT 15SM SCT065 BKN095 11/07 A3017 RMK SC3AC2 SLP221

CYWG;2007-09-10 03:00;CYWG 100300Z 25007KT 15SM FEW064 SCT080 11/06 A3016 RMK SC2AC1 SLP217

CYWG;2007-09-10 04:00;CYWG 100400Z 24007KT 15SM FEW094 11/06 A3014 RMK AC2 SLP212

CYWG;2007-09-10 05:00;CYWG 100500Z 23009KT 15SM FEW094 11/06 A3014 RMK AC1 SLP212

CYWG;2007-09-10 06:00;CYWG 100600Z 24008KT 15SM FEW082 10/05 A3013 RMK AC1 SLP209

CYWG;2007-09-10 07:00;CYWG 100700Z 24007KT 15SM FEW082 09/05 A3013 RMK AC1 SLP207

CYWG;2007-09-10 08:00;CYWG 100800Z 23008KT 15SM SKC 08/05 A3011 RMK SLP201

CYWG;2007-09-10 09:00;CYWG 100900Z 23008KT 15SM SKC 08/05 A3010 RMK SLP199

CYWG;2007-09-10 10:00;CYWG 101000Z 22006KT 15SM SKC 07/04 A3009 RMK SLP193

CYWG;2007-09-10 11:00;CYWG 101100Z 22007KT 15SM FEW250 06/04 A3007 RMK CI1 SLP188

CYWG;2007-09-10 12:00;CYWG 101200Z 19006KT 15SM FEW060 BKN250 07/05 A3005 RMK SC2CI1 TCU EMBDD SLP180

CYWG;2007-09-10 13:00;CYWG 101300Z 18004KT 15SM FEW060 SCT140 BKN250 07/05 A3003 RMK SC2AC2CI2 CU EMBDD SC LYR SLP174

CYWG;2007-09-10 14:00;CYWG 101400Z 20008KT 15SM FEW042 BKN120 BKN250 09/06 A3000 RMK SC2AC2CI2 SLP165

CYWG;2007-09-10 15:00;CYWG 101500Z 19008KT 15SM FEW045 SCT100 BKN250 11/06 A2996 RMK SC2AC2CI2 SLP152

CYWG;2007-09-10 16:00;CYWG 101600Z 21011KT 15SM BKN060 BKN100 OVC250 15/07 A2993 RMK SC6AC2CI1 CVCTV CLD EMBD VIRGA SLP140

CYWG;2007-09-10 16:32;CYWG 101632Z 17007KT 15SM -SHRA FEW010 BKN060 BKN100 OVC250 14/ RMK SF2SC5AC1CI1 CVCTV CLD EMBD

CYWG;2007-09-10 16:48;CYWG 101648Z 20008KT 15SM BKN055 OVC100 RMK SC6AC2 CVCTV CLD EMBD VIRGA ALQDS

CYWG;2007-09-10 17:00;CYWG 101700Z 22009KT 15SM FEW010 BKN055 OVC100 15/09 A2989 RMK SF1SC6AC2 CVCTV CLD EMBD SHWRS ALQDS SLP129

CYWG;2007-09-10 18:00;CYWG 101800Z 25017G26KT 15SM -SHRA OVC040 15/07 A2987 RMK SC8 CVCTV CLD EMBD SLP118

CYWG;2007-09-10 18:52;CYWG 101852Z 23010G15KT 15SM -SHRA BKN014 OVC040 14/ RMK SC5SC3 CNCTV CLD EMBD

CYWG;2007-09-10 19:00;CYWG 101900Z 22010KT 15SM -SHRA BKN012 OVC040 14/09 A2981 RMK SC5SC3 CVCTV CLD EMBD SLP100

CYWG;2007-09-10 19:38;CYWG 101938Z 22012G18KT 15SM -SHRA FEW014 SCT027 OVC056 14/ RMK SC2SC2SC4 CVCTV CLD EMBD

CYWG;2007-09-10 20:00;CYWG 102000Z 24014G21KT 15SM -SHRA SCT017 BKN055 OVC076 13/09 A2977 RMK SC4SC2AC2 CVCTV CLD EMBD SLP088

CYWG;2007-09-10 21:00;CYWG 102100Z 23013KT 15SM -SHRA FEW012 BKN029 OVC070 13/10 A2973 RMK SC2SC4AC2 CVCTV CLD EMBD SLP072

CYWG;2007-09-10 21:10;CYWG 102110Z 23013G18KT 15SM BKN029 OVC082 14/ RMK SC6AC2

CYWG;2007-09-10 21:30;CYWG 102130Z 24014KT 15SM -SHRA BKN044 OVC082 15/ RMK SC6AC2 CVCTV CLD EMBD

CYWG;2007-09-10 22:00;CYWG 102200Z 24010G16KT 15SM BKN050 OVC094 15/09 A2970 RMK SC6AC2 SLP064

CYWG;2007-09-10 23:00;CYWG 102300Z 30025G32KT 15SM -SHRA SCT037 BKN048 OVC088 14/11 A2971 RMK SC3SC2AC2 CVCTV CLD EMBD SLP067

CYWG;2007-09-11 00:00;CYWG 110000Z 31018KT 15SM FEW022 BKN050 BKN090 14/11 A2972 RMK SC2SC3AC1 SH NE - E TCU EMBD SLP071

CYWG;2007-09-11 01:00;CYWG 110100Z 32019G29KT 15SM FEW030 BKN045 13/09 A2975 RMK SC2SC3 SLP079

CYWG;2007-09-11 02:00;CYWG 110200Z 31018G27KT 15SM SCT028 BKN039 12/09 A2977 RMK SC3SC2 SLP087

CYWG;2007-09-11 02:06;CYWG 110206Z 32019G27KT 15SM -SHRA BKN028 BKN039 12/ RMK SC5SC1 TCU EMBD

CYWG;2007-09-11 02:26;CYWG 110226Z CCA 32019G24KT 15SM SCT028 BKN040 11/ RMK SC3SC2 TCU EMBD

CYWG;2007-09-11 03:00;CYWG 110300Z 33024G33KT 15SM FEW035 11/07 A2981 RMK SC2 SLP099

CYWG;2007-09-11 04:00;CYWG 110400Z 32022G27KT 15SM BKN045 11/07 A2983 RMK SC6 SLP108

CYWG;2007-09-11 05:00;CYWG 110500Z 34032G38KT 15SM BKN025 10/03 A2988 RMK SC7 SLP123

CYWG;2007-09-11 06:00;CYWG 110600Z 35025G36KT 15SM BKN026 09/03 A2991 RMK SC7 SLP134

CYWG;2007-09-11 07:00;CYWG 110700Z 33021G30KT 15SM BKN022 07/03 A2994 RMK SC7 SLP145

CYWG;2007-09-11 08:00;CYWG 110800Z 36023G33KT 4SM -DZ BR OVC017 06/03 A2998 RMK SC8 VSBY N 2 SLP157

CYWG;2007-09-11 08:06;CYWG 110806Z 34018G28KT 4SM -DZ BR OVC011 05/ RMK SC8 VSBY N 2

CYWG;2007-09-11 08:50;CYWG 110850Z 35017G30KT 15SM OVC020 05/ RMK SC8

CYWG;2007-09-11 09:00;CYWG 110900Z 34015G21KT 15SM BKN020 05/02 A3000 RMK SC6 SLP165

CYWG;2007-09-11 10:00;CYWG 111000Z 35019G26KT 15SM BKN026 05/01 A3003 RMK SC7 SLP176

CYWG;2007-09-11 11:00;CYWG 111100Z 34019KT 15SM BKN020 05/02 A3005 RMK SC6 SLP183

CYWG;2007-09-11 11:02;CYWG 111102Z 34018G24KT 15SM -SHRA BKN020 05/ RMK SC7

CYWG;2007-09-11 11:47;CYWG 111147Z 34015G22KT 15SM BKN016 04/ RMK SC6

CYWG;2007-09-11 12:00;CYWG 111200Z 34013G19KT 15SM BKN016 04/02 A3008 RMK SC7 SLP193

CYWG;2007-09-11 13:00;CYWG 111300Z 35017KT 15SM FEW014 04/02 A3011 RMK SC2 SLP203

CYWG;2007-09-11 14:00;CYWG 111400Z 36017G25KT 15SM SCT014 06/01 A3013 RMK SC4 SLP210

CYWG;2007-09-11 15:00;CYWG 111500Z 35017G25KT 15SM BKN019 06/01 A3016 RMK SC6 SLP219

CYWG;2007-09-11 16:00;CYWG 111600Z 36019KT 15SM BKN021 06/01 A3018 RMK SC6 SLP226

CYWG;2007-09-11 17:00;CYWG 111700Z 35015G20KT 15SM BKN027 08/01 A3019 RMK SC6 SLP229

CYWG;2007-09-11 18:00;CYWG 111800Z 34011G16KT 15SM BKN034 08/00 A3019 RMK SC6 SLP233

CYWG;2007-09-11 19:00;CYWG 111900Z 34012KT 15SM SCT036 10/M00 A3020 RMK SC3 SLP234

CYWG;2007-09-11 20:00;CYWG 112000Z 34009KT 15SM FEW042 11/M00 A3019 RMK SC2 FU SW-N SLP232

CYWG;2007-09-11 21:00;CYWG 112100Z 03009KT 15SM FEW045 10/M02 A3019 RMK SC1 FU SW-W + N SLP231

CYWG;2007-09-11 22:00;CYWG 112200Z 03009KT 15SM FEW045 11/M01 A3018 RMK SC1 FU S-W + N SLP227

CYWG;2007-09-11 23:00;CYWG 112300Z 03007KT 15SM FEW230 10/M02 A3017 RMK CC1 FU ALF SLP225

CYWG;2007-09-12 00:00;CYWG 120000Z 02006KT 15SM FEW120 SCT230 09/M01 A3016 RMK AC1CI1 FU ALF SLP224

CYWG;2007-09-12 01:00;CYWG 120100Z 08007KT 15SM FEW120 FEW230 06/00 A3016 RMK AC1CI1 SLP222

CYWG;2007-09-12 02:00;CYWG 120200Z 09006KT 15SM SCT120 07/01 A3015 RMK AC4 SLP220

CYWG;2007-09-12 03:00;CYWG 120300Z 10006KT 15SM OVC099 07/00 A3014 RMK AC8 SLP216

CYWG;2007-09-12 04:00;CYWG 120400Z 12006KT 15SM OVC091 07/M00 A3014 RMK AC8 SLP214

CYWG;2007-09-12 05:00;CYWG 120500Z 13007KT 15SM OVC091 07/M00 A3013 RMK AC8 SLP213

CYWG;2007-09-12 06:00;CYWG 120600Z 14008KT 15SM OVC089 07/00 A3012 RMK AC8 SLP207

CYWG;2007-09-12 07:00;CYWG 120700Z 15009KT 15SM OVC089 07/00 A3011 RMK AC8 SLP203

CYWG;2007-09-12 08:00;CYWG 120800Z 15010KT 15SM OVC089 07/00 A3009 RMK AC8 SLP198

CYWG;2007-09-12 09:00;CYWG 120900Z 16010G15KT 15SM OVC089 07/M01 A3008 RMK AC8 SLP192

CYWG;2007-09-12 10:00;CYWG 121000Z 15013KT 15SM OVC099 06/M01 A3004 RMK AC8 SLP179

CYWG;2007-09-12 11:00;CYWG 121100Z 16012KT 15SM BKN094 06/M01 A3003 RMK AC7 SLP178

CYWG;2007-09-12 13:00;CYWG 121300Z 16015KT 15SM FEW050 BKN080 BKN250 06/M00 A3000 RMK SC1AC5CI1 CONTRAILS SLP169

CYWG;2007-09-12 14:00;CYWG 121400Z 16013G19KT 15SM FEW050 BKN076 07/00 A2998 RMK SC2AC5 SLP162

CYWG;2007-09-12 15:00;CYWG 121500Z 17013G21KT 15SM FEW050 BKN074 08/01 A2996 RMK SC2AC5 SLP153

CYWG;2007-09-12 16:00;CYWG 121600Z 16017G22KT 15SM FEW050 BKN074 BKN250 11/02 A2992 RMK SC1AC5CI0 PRESFR SLP141

CYWG;2007-09-12 17:00;CYWG 121700Z 16019G24KT 15SM SCT082 BKN250 12/02 A2990 RMK AC3CI3 SLP132

CYWG;2007-09-12 18:00;CYWG 121800Z 15021G27KT 15SM FEW080 BKN250 15/03 A2985 RMK AC2CI3 SLP115

CYWG;2007-09-12 19:00;CYWG 121900Z 17019G25KT 15SM FEW072 BKN250 15/02 A2981 RMK AC2CI3 SLP101

CYWG;2007-09-12 20:00;CYWG 122000Z 16021G30KT 15SM FEW070 BKN250 17/03 A2977 RMK AC1CI5 SLP088

CYWG;2007-09-12 21:00;CYWG 122100Z 15018G24KT 15SM FEW095 BKN250 17/04 A2975 RMK AC2CI4 SLP078

CYWG;2007-09-12 22:00;CYWG 122200Z 16017G26KT 15SM SCT110 BKN250 17/04 A2970 RMK AC3CI3 SLP064

CYWG;2007-09-12 23:00;CYWG 122300Z 17013KT 15SM SCT110 BKN250 18/05 A2972 RMK AC3CI3 VIRGA SLP069

CYWG;2007-09-13 00:00;CYWG 130000Z 15010KT 15SM FEW110 BKN250 17/05 A2971 RMK AC2CI3 FU ALF W-NW SLP065

CYWG;2007-09-13 01:00;CYWG 130100Z 14013KT 15SM SCT110 BKN250 16/05 A2968 RMK AC3CI2 SLP057

CYWG;2007-09-13 02:00;CYWG 130200Z 14014KT 15SM BKN068 BKN250 16/05 A2966 RMK AC6CI1 SLP049

CYWG;2007-09-13 02:49;CYWG 130249Z 14011KT 15SM -SHRA OVC068 15/ RMK AC8 ACC ASOCTD

CYWG;2007-09-13 03:00;CYWG 130300Z 14012KT 15SM -SHRA OVC068 15/06 A2964 RMK AC8 ACC ASOCTD SLP041

CYWG;2007-09-13 04:00;CYWG 130400Z 16010KT 12SM -SHRA BKN066 OVC120 14/06 A2961 RMK AC6AC2 ACC ASOCTD SLP033

CYWG;2007-09-13 05:00;CYWG 130500Z 25009KT 12SM -SHRA OVC059 13/07 A2962 RMK SC8 ACC ASOCTD SLP034

CYWG;2007-09-13 05:51;CYWG 130551Z 29013KT 12SM -SHRA SCT008 OVC051 12/ RMK SF3SC5 ACC ASOCTD

CYWG;2007-09-13 06:00;CYWG 130600Z 30015KT 12SM -SHRA BKN007 OVC051 11/10 A2960 RMK SF5SC3 ACC ASOCTD SLP028

CYWG;2007-09-13 07:00;CYWG 130700Z 29013G18KT 12SM -SHRA BKN006 OVC042 10/09 A2961 RMK SF6SC2 SLP031

CYWG;2007-09-13 07:23;CYWG 130723Z 29019KT 15SM SCT012 BKN048 OVC071 10/ RMK SF3SC2AC3

CYWG;2007-09-13 08:00;CYWG 130800Z 29016KT 15SM SCT009 OVC050 10/09 A2961 RMK SF4SC4 SLP031

CYWG;2007-09-13 09:00;CYWG 130900Z 29016KT 15SM SCT010 OVC091 10/08 A2961 RMK SF4AC4 SLP030

CYWG;2007-09-13 09:19;CYWG 130919Z 28017KT 15SM BKN009 09/ RMK SF6

CYWG;2007-09-13 10:00;CYWG 131000Z 29015G20KT 15SM FEW012 FEW060 08/07 A2963 RMK SF1SC1 SLP036

CYWG;2007-09-13 11:00;CYWG 131100Z 28013G18KT 15SM -DZ FEW012 OVC028 09/07 A2963 RMK SF1SC7 SLP038

CYWG;2007-09-13 11:22;CYWG 131122Z 28017G22KT 15SM FEW016 OVC028 08/ RMK SF2SC6

CYWG;2007-09-13 12:00;CYWG 131200Z 28013KT 15SM SCT017 BKN039 OVC120 08/06 A2964 RMK SF2SC5AC1 SLP041

CYWG;2007-09-13 13:00;CYWG 131300Z 29015G21KT 15SM FEW020 BKN047 BKN092 09/06 A2964 RMK SC2SC5AC1 SLP042

CYWG;2007-09-13 14:00;CYWG 131400Z 30021G26KT 12SM -DZ BKN016 OVC055 08/05 A2965 RMK SC6SC2 VIS NW-NE 5 SLP044

CYWG;2007-09-13 14:16;CYWG 131416Z 30021G27KT 2SM -DZ BR BKN009 OVC029 08/ RMK ST6SC2 VIS NW-NE 3/4

CYWG;2007-09-13 14:31;CYWG 131431Z 31016G24KT 6SM -DZ BR BKN009 OVC033 08/ RMK ST6SC2 VIS S 2

CYWG;2007-09-13 14:42;CYWG 131442Z 31015G22KT 15SM -RA BKN013 OVC033 08/ RMK ST6SC2 VIS S 7

CYWG;2007-09-13 15:00;CYWG 131500Z 32019G26KT 15SM BKN015 BKN041 BKN260 08/06 A2969 RMK SF4SC2CI1 SLP058

CYWG;2007-09-13 15:24;CYWG 131524Z 32023G29KT 10SM -DZ BKN013 BKN055 08/ RMK SF6SC2

CYWG;2007-09-13 15:52;CYWG 131552Z 32020G25KT 8SM -RA BKN011 OVC055 07/ RMK ST6SC1

CYWG;2007-09-13 16:00;CYWG 131600Z 32018G25KT 8SM -RA BKN011 OVC055 07/06 A2971 RMK ST6SC1 SLP065

CYWG;2007-09-13 17:00;CYWG 131700Z 31022G31KT 12SM -RA BKN012 BKN032 07/05 A2972 RMK SF6SC1 SLP069

CYWG;2007-09-13 17:10;CYWG 131710Z 30023KT 15SM FEW012 SCT045 BKN089 08/ RMK SF2SC2AC1

CYWG;2007-09-13 18:00;CYWG 131800Z 31022G29KT 15SM BKN018 BKN049 08/04 A2974 RMK SC6SC1 SLP077

CYWG;2007-09-13 19:00;CYWG 131900Z 32022G29KT 15SM OVC026 08/03 A2978 RMK SC8 SLP089

CYWG;2007-09-13 19:01;CYWG 131901Z 31025KT 15SM -SHRA OVC024 08/ RMK SC8

CYWG;2007-09-13 19:18;CYWG 131918Z 32024G29KT 15SM OVC024 09/ RMK SC8

CYWG;2007-09-13 20:00;CYWG 132000Z 32017G29KT 15SM -SHRA OVC028 08/03 A2980 RMK SC8 SLP098

CYWG;2007-09-13 21:00;CYWG 132100Z 32022G29KT 15SM -SHRA OVC024 07/03 A2983 RMK SC8 SLP110

CYWG;2007-09-13 22:00;CYWG 132200Z 33019G26KT 15SM -SHRA BKN017 OVC073 06/03 A2987 RMK SC7AC1 SLP120

CYWG;2007-09-13 23:00;CYWG 132300Z 35019G27KT 15SM -SHRA BKN017 OVC043 06/02 A2991 RMK SC6SC2 SLP135

CYWG;2007-09-14 00:00;CYWG 140000Z 34015G21KT 15SM BKN019 OVC035 05/02 A2993 RMK SC5SC3 SLP145

CYWG;2007-09-14 01:00;CYWG 140100Z 35019KT 15SM BKN019 BKN070 05/01 A2997 RMK SC6AC1 SLP158

CYWG;2007-09-14 02:00;CYWG 140200Z 36017KT 15SM SCT019 OVC079 04/00 A3002 RMK SC3AC5 SLP173

CYWG;2007-09-14 03:00;CYWG 140300Z 36017KT 15SM SCT019 BKN049 04/00 A3004 RMK SC3SC3 SLP183

CYWG;2007-09-14 04:00;CYWG 140400Z 01013G18KT 15SM FEW020 BKN049 03/M00 A3007 RMK SC2SC6 SLP193

CYWG;2007-09-14 05:00;CYWG 140500Z 36013G18KT 15SM FEW020 BKN056 03/M00 A3010 RMK SC2SC6 SLP202

CYWG;2007-09-14 06:00;CYWG 140600Z 03009KT 15SM FEW020 BKN063 03/M00 A3012 RMK SC1SC2 SLP210

CYWG;2007-09-14 07:00;CYWG 140700Z 32005KT 15SM FEW060 M01/M03 A3014 RMK SC1 SLP217

CYWG;2007-09-14 08:00;CYWG 140800Z 33006KT 15SM BKN054 M00/M02 A3015 RMK SC2 SLP220

CYWG;2007-09-14 09:00;CYWG 140900Z 32008KT 15SM BKN054 02/M01 A3016 RMK SC6 SLP225

CYWG;2007-09-14 10:00;CYWG 141000Z 32007KT 15SM BKN056 02/M01 A3018 RMK SC7 SLP231

CYWG;2007-09-14 11:00;CYWG 141100Z 30006KT 15SM BKN056 BKN090 02/M00 A3020 RMK SC6AC2 SLP236

CYWG;2007-09-14 12:00;CYWG 141200Z 30006KT 15SM BKN057 BKN087 02/M00 A3021 RMK SC5AC2 SLP242

CYWG;2007-09-14 13:00;CYWG 141300Z 28007KT 15SM BKN049 BKN078 03/02 A3022 RMK SC6AC2 SLP246

CYWG;2007-09-14 14:00;CYWG 141400Z 29007KT 15SM BKN040 BKN078 04/02 A3024 RMK SC6AC2 SLP250

CYWG;2007-09-14 15:00;CYWG 141500Z 30007KT 15SM FEW010 BKN051 BKN078 06/02 A3025 RMK CU1SC6AC1 SLP253

CYWG;2007-09-14 16:00;CYWG 141600Z 36007KT 15SM FEW022 BKN051 08/02 A3025 RMK CU2SC2 SLP255

CYWG;2007-09-14 17:00;CYWG 141700Z 33009KT 15SM FEW020 BKN032 BKN055 09/M01 A3025 RMK CU2SC5SC1 SLP253

CYWG;2007-09-14 18:00;CYWG 141800Z 30012KT 15SM FEW029 BKN040 BKN057 08/01 A3025 RMK CU2SC5SC1 SLP254

CYWG;2007-09-14 19:00;CYWG 141900Z 31007KT 15SM BKN033 BKN090 10/01 A3024 RMK SC6AC1 SLP251

CYWG;2007-09-14 20:00;CYWG 142000Z 31010G15KT 15SM BKN038 10/M01 A3023 RMK SC6 SLP247

CYWG;2007-09-14 21:00;CYWG 142100Z 29011KT 15SM FEW048 11/M01 A3022 RMK SC2 SLP241

CYWG;2007-09-14 22:00;CYWG 142200Z 31008KT 15SM FEW050 11/M01 A3020 RMK SC1 SLP237

CYWG;2007-09-14 23:00;CYWG 142300Z 30008KT 15SM FEW250 11/M01 A3019 RMK CI1 SLP232

CYWG;2007-09-15 00:00;CYWG 150000Z 26005KT 15SM FEW250 11/M01 A3017 RMK CI1 SLP226

CYWG;2007-09-15 01:00;CYWG 150100Z 21005KT 15SM SCT250 08/M01 A3016 RMK CI1 SLP223

CYWG;2007-09-15 02:00;CYWG 150200Z 19006KT 15SM FEW250 05/M01 A3016 RMK CI1 SLP221

CYWG;2007-09-15 03:00;CYWG 150300Z 20006KT 15SM FEW020 05/M01 A3015 RMK SC1 SLP220

CYWG;2007-09-15 04:00;CYWG 150400Z 19007KT 15SM SKC 04/M02 A3015 RMK SLP218

CYWG;2007-09-15 05:00;CYWG 150500Z 20009KT 15SM SCT100 06/M02 A3014 RMK AC3 SLP215

CYWG;2007-09-15 06:00;CYWG 150600Z 20009KT 15SM FEW100 05/M03 A3012 RMK AC2 SLP210

CYWG;2007-09-15 07:00;CYWG 150700Z 21009KT 15SM SKC 04/M03 A3012 RMK SLP207

CYWG;2007-09-15 08:00;CYWG 150800Z 21012KT 15SM SKC 04/M03 A3009 RMK SLP200

CYWG;2007-09-15 09:00;CYWG 150900Z 20011KT 15SM SKC 04/M03 A3006 RMK SLP189

CYWG;2007-09-15 10:00;CYWG 151000Z 20011KT 15SM SKC 03/M02 A3006 RMK SLP187

CYWG;2007-09-15 11:00;CYWG 151100Z 19010KT 15SM FEW100 03/M02 A3005 RMK AC1 SLP183

CYWG;2007-09-15 12:00;CYWG 151200Z 20013KT 15SM BKN100 04/M01 A3002 RMK AC4 SLP174

CYWG;2007-09-15 13:00;CYWG 151300Z 19013KT 15SM BKN100 BKN200 05/M00 A3000 RMK AC3CI2 SLP169

CYWG;2007-09-15 14:00;CYWG 151400Z 20015KT 15SM SCT100 BKN250 07/01 A2998 RMK AC2CI2 SLP160

CYWG;2007-09-15 15:00;CYWG 151500Z 20015G26KT 15SM FEW092 BKN250 10/02 A2996 RMK AC1CI2 SLP153

CYWG;2007-09-15 16:00;CYWG 151600Z 20017KT 15SM FEW092 BKN250 13/03 A2993 RMK AC1CI2 SLP144

CYWG;2007-09-15 17:00;CYWG 151700Z 21016G22KT 15SM FEW092 FEW250 16/03 A2992 RMK AC1CI1 SLP139

CYWG;2007-09-15 18:00;CYWG 151800Z 20017KT 15SM FEW250 19/04 A2988 RMK CI2 SLP122

CYWG;2007-09-15 19:00;CYWG 151900Z 20021G30KT 15SM FEW250 20/04 A2985 RMK CI1 SLP113

CYWG;2007-09-15 20:00;CYWG 152000Z 21019G28KT 15SM SCT250 22/05 A2982 RMK CI2 SLP104

CYWG;2007-09-15 21:00;CYWG 152100Z 21017G26KT 15SM BKN250 21/05 A2981 RMK CI2 SLP101

CYWG;2007-09-15 22:00;CYWG 152200Z 22014G20KT 15SM BKN250 22/05 A2980 RMK CI2 SLP097

CYWG;2007-09-15 23:00;CYWG 152300Z 22011G16KT 15SM BKN250 22/04 A2979 RMK CI2 SLP094

CYWG;2007-09-15 23:15;CYWG 152315Z 33015G20KT 15SM BKN250 22/ RMK CI2 WND SHFT 2313

CYWG;2007-09-16 00:00;CYWG 160000Z 34008KT 15SM BKN250 18/04 A2981 RMK CI2 SLP101

CYWG;2007-09-16 01:00;CYWG 160100Z 05002KT 15SM SCT250 13/05 A2982 RMK CI2 SLP104

CYWG;2007-09-16 02:00;CYWG 160200Z 00000KT 15SM FEW250 13/05 A2983 RMK CI1 SLP109

CYWG;2007-09-16 03:00;CYWG 160300Z 17004KT 15SM SKC 09/05 A2984 RMK SLP110

CYWG;2007-09-16 04:00;CYWG 160400Z 18003KT 15SM SKC 08/04 A2984 RMK SLP110

CYWG;2007-09-16 05:00;CYWG 160500Z 21003KT 15SM SKC 07/04 A2984 RMK SLP111

CYWG;2007-09-16 06:00;CYWG 160600Z 20004KT 15SM SKC 06/03 A2983 RMK SLP107

CYWG;2007-09-16 07:00;CYWG 160700Z 17004KT 15SM SKC 06/03 A2983 RMK SLP106

CYWG;2007-09-16 08:00;CYWG 160800Z 19004KT 15SM SKC 06/03 A2983 RMK SLP105

CYWG;2007-09-16 09:00;CYWG 160900Z 17008KT 15SM SKC 06/04 A2982 RMK SLP101

CYWG;2007-09-16 10:00;CYWG 161000Z 19007KT 15SM SKC 07/04 A2982 RMK SLP101

CYWG;2007-09-16 11:00;CYWG 161100Z 18008KT 15SM FEW120 05/03 A2981 RMK AC1 SLP100

CYWG;2007-09-16 12:00;CYWG 161200Z 18008KT 15SM FEW120 SCT250 06/03 A2981 RMK AC1CI0 SLP101

CYWG;2007-09-16 13:00;CYWG 161300Z 18007KT 15SM FEW120 SCT250 06/04 A2982 RMK AC1CI0 SLP102

CYWG;2007-09-16 14:00;CYWG 161400Z 18009KT 15SM FEW120 SCT250 09/05 A2981 RMK AC1CI1 SLP100

CYWG;2007-09-16 15:00;CYWG 161500Z 18010KT 15SM FEW120 BKN250 13/07 A2980 RMK AC1CI1 SLP096

CYWG;2007-09-16 16:00;CYWG 161600Z 18012KT 15SM SCT250 18/08 A2978 RMK CI0 SLP089

CYWG;2007-09-16 17:00;CYWG 161700Z 19014KT 15SM FEW250 21/08 A2977 RMK CI0 SLP085

CYWG;2007-09-16 18:00;CYWG 161800Z 21013KT 15SM FEW250 25/09 A2974 RMK CI1 SLP074

CYWG;2007-09-16 19:00;CYWG 161900Z 20014G19KT 15SM SCT250 28/10 A2971 RMK CI1 SLP063

CYWG;2007-09-16 20:00;CYWG 162000Z 23012G20KT 15SM BKN250 30/02 A2968 RMK CI2 SLP054

CYWG;2007-09-16 21:00;CYWG 162100Z 23017G25KT 15SM SCT250 30/02 A2967 RMK CI2 SLP049

CYWG;2007-09-16 22:00;CYWG 162200Z 22018KT 15SM FEW250 29/03 A2966 RMK CI1 SLP045

CYWG;2007-09-16 23:00;CYWG 162300Z 23014KT 15SM FEW250 28/04 A2965 RMK CI1 SLP043

CYWG;2007-09-17 00:00;CYWG 170000Z 20015KT 15SM FEW250 26/03 A2965 RMK CI0 SLP044

CYWG;2007-09-17 01:00;CYWG 170100Z 18012KT 15SM FEW250 23/04 A2966 RMK CI0 SLP046

CYWG;2007-09-17 02:00;CYWG 170200Z 19017G24KT 15SM SKC 21/06 A2967 RMK SLP050

CYWG;2007-09-17 03:00;CYWG 170300Z 18015KT 15SM SKC 19/07 A2967 RMK SLP051

CYWG;2007-09-17 04:00;CYWG 170400Z 18013KT 15SM SKC 18/06 A2968 RMK SLP053

CYWG;2007-09-17 05:00;CYWG 170500Z 18014KT 15SM SKC 16/07 A2967 RMK SLP051

CYWG;2007-09-17 06:00;CYWG 170600Z 18013KT 15SM SKC 16/08 A2966 RMK SLP045

CYWG;2007-09-17 07:00;CYWG 170700Z 18014KT 15SM SKC 15/09 A2964 RMK SLP039

CYWG;2007-09-17 08:00;CYWG 170800Z 17012KT 15SM FEW120 15/09 A2963 RMK AC2 SLP034

CYWG;2007-09-17 09:00;CYWG 170900Z 14004KT 15SM FEW120 14/09 A2964 RMK AC2 SLP038

CYWG;2007-09-17 10:00;CYWG 171000Z 12006KT 15SM FEW120 12/09 A2963 RMK AC1 SLP034

CYWG;2007-09-17 11:00;CYWG 171100Z 12007KT 15SM SCT120 12/10 A2961 RMK AC4 SLP027

CYWG;2007-09-17 12:00;CYWG 171200Z 16008KT 15SM FEW120 BKN270 12/10 A2961 RMK AC2CI0 SLP029

CYWG;2007-09-17 13:00;CYWG 171300Z 16007KT 15SM FEW120 SCT270 13/11 A2961 RMK AC1CI1 CB TOPS W-NW SLP029

CYWG;2007-09-17 14:00;CYWG 171400Z 16006KT 15SM FEW120 FEW270 15/12 A2962 RMK ACC1CI1 CB TOP N SLP030

CYWG;2007-09-17 15:00;CYWG 171500Z 16008KT 15SM FEW120 FEW270 18/13 A2961 RMK ACC1CI1 CB TOP N OBS TKN +07 SLP028

CYWG;2007-09-17 16:00;CYWG 171600Z 16007KT 15SM FEW120 FEW270 20/14 A2961 RMK AC1CI1 SLP028

CYWG;2007-09-17 17:00;CYWG 171700Z 15010KT 15SM BKN250 23/15 A2961 RMK CI2 SLP026

CYWG;2007-09-17 18:00;CYWG 171800Z 17009G19KT 15SM FEW084 BKN250 25/16 A2960 RMK AC1CI3 SLP024

CYWG;2007-09-17 19:00;CYWG 171900Z 17011G16KT 15SM FEW084 BKN250 26/16 A2959 RMK AC1CI2 SLP021

CYWG;2007-09-17 20:00;CYWG 172000Z 17011KT 15SM FEW090 BKN250 26/16 A2957 RMK AC1CI2 SLP014

CYWG;2007-09-17 21:00;CYWG 172100Z 18014KT 15SM FEW090 BKN250 26/17 A2957 RMK AC2CI2 SLP012

CYWG;2007-09-17 22:00;CYWG 172200Z 17008KT 15SM FEW032 BKN090 BKN250 24/17 A2960 RMK SC2AC2CI2 SLP022

CYWG;2007-09-17 23:00;CYWG 172300Z 18013KT 15SM BKN029 BKN090 22/16 A2960 RMK SC6AC2 SLP022

CYWG;2007-09-18 00:00;CYWG 180000Z 18011KT 10SM BKN027 OVC090 22/16 A2961 RMK SC7AC1 HZ SLP028

CYWG;2007-09-18 01:00;CYWG 180100Z 20006KT 10SM BKN034 OVC090 21/16 A2961 RMK SC6AC2 HZ SLP030

CYWG;2007-09-18 02:00;CYWG 180200Z 18005KT 10SM FEW030 OVC100 20/17 A2962 RMK SC2AC6 HZ SLP031

CYWG;2007-09-18 03:00;CYWG 180300Z 18006KT 10SM OVC100 20/17 A2961 RMK AC8 SLP029

CYWG;2007-09-18 04:00;CYWG 180400Z 17005KT 10SM FEW024 19/17 A2961 RMK ST2 HZ SLP027

CYWG;2007-09-18 05:00;CYWG 180500Z 15007KT 6SM BR SKC 17/15 A2961 RMK SLP027

CYWG;2007-09-18 06:00;CYWG 180600Z 16006KT 6SM BR SKC 16/15 A2963 RMK SLP034

CYWG;2007-09-18 07:00;CYWG 180700Z 16004KT 4SM BR SKC 15/14 A2962 RMK SLP031

CYWG;2007-09-18 08:00;CYWG 180800Z 17004KT 2SM BR SKC 14/14 A2961 RMK SLP028

CYWG;2007-09-18 08:24;CYWG 180824Z 18005KT 1SM R13/P6000FT/D R36/P6000FT/D BR SKC 15/ RMK FG6

CYWG;2007-09-18 08:35;CYWG 180835Z 19006KT 1/4SM R13/3500V5500FT/D R36/2200FT/N FG VV001 16/ RMK FG8

CYWG;2007-09-18 09:00;CYWG 180900Z 21008KT 1/2SM R13/P6000FT/U R36/3500VP6000FT/U FG VV001 15/15 A2963 RMK FG8 SLP035

CYWG;2007-09-18 09:26;CYWG 180926Z 23004KT 1SM R31/5000FT/D R36/P6000FT/U BR BKN001 14/ RMK FG5ST2

CYWG;2007-09-18 09:54;CYWG 180954Z 28010KT 0SM R31/2200FT/N R36/2200FT/N -DZ FG VV000 13/ RMK FG8

CYWG;2007-09-18 10:00;CYWG 181000Z 29011KT 0SM R31/2000FT/N R36/2200FT/N -DZ FG VV000 13/13 A2964 RMK FG8 SLP039

CYWG;2007-09-18 10:18;CYWG 181018Z 30010KT 1/4SM R31/2000FT/N R36/2400FT/N FG VV001 14/ RMK FG8

CYWG;2007-09-18 10:49;CYWG 181049Z 31013KT 3/4SM R31/P6000FT/U R36/P6000FT/U BR OVC001 13/ RMK ST8

CYWG;2007-09-18 11:00;CYWG 181100Z 31015G20KT 3/4SM R31/P6000FT/D R36/P6000FT/D BR OVC002 12/12 A2968 RMK ST8 SLP052

CYWG;2007-09-18 11:08;CYWG 181108Z 31014KT 1SM R31/P6000FT/U R36/P6000FT/U BR OVC002 12/ RMK ST8

CYWG;2007-09-18 11:19;CYWG 181119Z 31012KT 1 1/2SM BR OVC002 12/ RMK ST8

CYWG;2007-09-18 11:32;CYWG 181132Z 31011KT 1 1/2SM BR OVC002 12/ RMK ST8 VSBY VRBL 1-2

CYWG;2007-09-18 11:44;CYWG 181144Z 31014KT 1SM R31/P6000FT/U R36/P6000FT/D BR OVC002 12/ RMK ST8 VSBY VRBL 1/2-11/2

CYWG;2007-09-18 12:00;CYWG 181200Z 31013G18KT 3/4SM R31/P6000FT/U R36/P6000FT/U -DZ BR OVC002 12/11 A2971 RMK ST8 VSBY VRBL 1/2-1 SLP062

CYWG;2007-09-18 12:43;CYWG 181243Z 31010G15KT 3SM BR OVC002 12/ RMK ST8

CYWG;2007-09-18 13:00;CYWG 181300Z 31016KT 3SM BR OVC002 12/11 A2973 RMK ST8 SLP069

CYWG;2007-09-18 13:10;CYWG 181310Z 31014G20KT 4SM BR OVC003 12/ RMK ST8

CYWG;2007-09-18 13:40;CYWG 181340Z CCA 32015KT 4SM -RA BR OVC003 12/ RMK ST8

CYWG;2007-09-18 14:00;CYWG 181400Z 32012G19KT 3SM -RA BR OVC004 12/11 A2974 RMK ST8 SLP073

CYWG;2007-09-18 15:00;CYWG 181500Z 32014KT 4SM -RA BR OVC005 12/11 A2977 RMK ST8 SLP084

CYWG;2007-09-18 16:00;CYWG 181600Z 32015KT 6SM -RA BR OVC006 12/11 A2979 RMK ST8 SLP089

CYWG;2007-09-18 16:40;CYWG 181640Z 33017KT 8SM OVC009 12/ RMK ST8

CYWG;2007-09-18 17:00;CYWG 181700Z 32015KT 15SM OVC008 12/11 A2981 RMK ST8 SLP096

CYWG;2007-09-18 17:27;CYWG 181727Z 32017KT 15SM OVC010 12/ RMK ST8

CYWG;2007-09-18 18:00;CYWG 181800Z 33014G19KT 15SM OVC010 12/10 A2984 RMK ST8 SLP109

CYWG;2007-09-18 19:00;CYWG 181900Z 34018KT 15SM BKN012 OVC034 13/09 A2986 RMK ST6SC2 SLP115

CYWG;2007-09-18 19:36;CYWG 181936Z 35016G21KT 15SM OVC017 13/ RMK SC8

CYWG;2007-09-18 20:00;CYWG 182000Z 34016G21KT 15SM OVC017 13/08 A2987 RMK SC8 SLP119

CYWG;2007-09-18 21:00;CYWG 182100Z 33018KT 15SM OVC015 12/08 A2991 RMK SC8 SLP132

CYWG;2007-09-18 22:00;CYWG 182200Z 34012KT 15SM OVC021 12/07 A2993 RMK SC8 SLP140

CYWG;2007-09-18 23:00;CYWG 182300Z 33012KT 15SM BKN023 OVC032 11/06 A2995 RMK SC5SC3 SLP147

CYWG;2007-09-19 00:00;CYWG 190000Z 32014KT 15SM OVC021 11/06 A2997 RMK SC8 SLP156

CYWG;2007-09-19 01:00;CYWG 190100Z 31012G17KT 15SM OVC021 10/05 A3000 RMK SC8 SLP164

CYWG;2007-09-19 02:00;CYWG 190200Z 33017KT 15SM OVC025 10/05 A3000 RMK SC8 SLP165

CYWG;2007-09-19 03:00;CYWG 190300Z 34013KT 15SM OVC023 10/05 A3001 RMK SC8 SLP167

CYWG;2007-09-19 04:00;CYWG 190400Z 36012KT 15SM OVC021 10/05 A3002 RMK SC8 SLP171

CYWG;2007-09-19 05:00;CYWG 190500Z 34011KT 15SM OVC025 10/05 A3002 RMK SC8 SLP172

CYWG;2007-09-19 06:00;CYWG 190600Z 34012KT 15SM OVC025 10/05 A3005 RMK SC8 SLP182

CYWG;2007-09-19 07:00;CYWG 190700Z 34010KT 15SM OVC025 10/05 A3005 RMK SC8 SLP183

CYWG;2007-09-19 08:00;CYWG 190800Z 32009KT 15SM OVC025 09/05 A3006 RMK SC8 SLP185

CYWG;2007-09-19 09:00;CYWG 190900Z 31008KT 15SM OVC025 09/05 A3009 RMK SC8 SLP194

CYWG;2007-09-19 10:00;CYWG 191000Z 32009KT 15SM BKN027 09/05 A3010 RMK SC6 SLP200

CYWG;2007-09-19 11:00;CYWG 191100Z 33010KT 15SM BKN029 09/05 A3011 RMK SC7 SLP203

CYWG;2007-09-19 12:00;CYWG 191200Z 31008KT 15SM FEW029 BKN240 07/04 A3014 RMK SC2CI0 SLP214

CYWG;2007-09-19 13:00;CYWG 191300Z 30008KT 15SM FEW029 BKN240 06/04 A3017 RMK SC1CI1 SLP223

CYWG;2007-09-19 14:00;CYWG 191400Z 32009KT 15SM BKN240 08/04 A3019 RMK CI1 SLP229

CYWG;2007-09-19 15:00;CYWG 191500Z 32011KT 15SM FEW240 11/05 A3020 RMK CI1 SLP233

CYWG;2007-09-19 16:00;CYWG 191600Z 35010G16KT 15SM FEW240 13/05 A3022 RMK CI0 SLP238

CYWG;2007-09-19 17:00;CYWG 191700Z 32009KT 15SM SKC 14/05 A3023 RMK SLP242

CYWG;2007-09-19 18:00;CYWG 191800Z 31008KT 15SM SKC 16/05 A3023 RMK SLP243

CYWG;2007-09-19 19:00;CYWG 191900Z 03005KT 15SM FEW042 16/06 A3022 RMK CF1 SLP240

CYWG;2007-09-19 20:00;CYWG 192000Z 36005KT 15SM FEW046 17/06 A3022 RMK CF1 SLP239

CYWG;2007-09-19 21:00;CYWG 192100Z 35006KT 15SM FEW052 FEW240 18/05 A3021 RMK CF1CI0 SLP236

CYWG;2007-09-19 22:00;CYWG 192200Z 17002KT 15SM FEW052 FEW240 18/05 A3021 RMK CF1CI0 SLP235

CYWG;2007-09-19 23:00;CYWG 192300Z 01002KT 15SM FEW052 FEW240 18/05 A3019 RMK CF1CI0 SLP230

CYWG;2007-09-20 00:00;CYWG 200000Z 00000KT 15SM BKN240 17/03 A3018 RMK CI0 HZ/FU E-SW SLP227

CYWG;2007-09-20 01:00;CYWG 200100Z 18002KT 15SM SCT240 13/04 A3020 RMK CI0 SLP233

CYWG;2007-09-20 02:00;CYWG 200200Z 14006KT 15SM SKC 10/04 A3020 RMK SLP233

CYWG;2007-09-20 03:00;CYWG 200300Z 18008KT 15SM FEW250 09/04 A3020 RMK CI1 SLP235

CYWG;2007-09-20 04:00;CYWG 200400Z 17005KT 15SM BKN250 10/04 A3020 RMK CI2 SLP234

CYWG;2007-09-20 05:00;CYWG 200500Z 17006KT 15SM BKN250 11/05 A3020 RMK CI2 SLP234

CYWG;2007-09-20 06:00;CYWG 200600Z 18006KT 15SM BKN092 11/05 A3020 RMK AC6 SLP231

CYWG;2007-09-20 07:00;CYWG 200700Z 17011KT 15SM BKN071 13/05 A3016 RMK AC7 SLP218

CYWG;2007-09-20 08:00;CYWG 200800Z 15010KT 15SM BKN097 13/05 A3012 RMK AC5 SLP207

CYWG;2007-09-20 09:00;CYWG 200900Z 15005KT 15SM BKN074 12/05 A3013 RMK AC7 SLP207

CYWG;2007-09-20 10:00;CYWG 201000Z 14008KT 15SM OVC082 12/05 A3009 RMK AC8 SLP193

CYWG;2007-09-20 11:00;CYWG 201100Z 13011KT 15SM OVC082 12/05 A3004 RMK AC8 SLP177

CYWG;2007-09-20 12:00;CYWG 201200Z 14013G18KT 15SM -SHRA SCT056 OVC064 12/05 A2998 RMK SC3SC5 PRESFR SLP157

CYWG;2007-09-20 13:00;CYWG 201300Z 15014G20KT 15SM -SHRA OVC061 12/06 A2995 RMK SC8 SLP145

CYWG;2007-09-20 14:00;CYWG 201400Z 14005KT 3SM -SHRA BR SCT023 OVC057 10/08 A2995 RMK FG2SC2SC5 SLP147

CYWG;2007-09-20 14:17;CYWG 201417Z 16008KT 4SM -SHRA BR BKN008 OVC057 10/ RMK FG1SF4SC3

CYWG;2007-09-20 14:35;CYWG 201435Z 13013KT 12SM -SHRA FEW008 OVC091 10/ RMK SF2AC6

CYWG;2007-09-20 15:00;CYWG 201500Z 14017KT 15SM -SHRA FEW024 BKN091 11/09 A2987 RMK SC2AC5 PRESFR SLP120

CYWG;2007-09-20 15:38;CYWG 201538Z 15017G22KT 15SM SCT053 BKN087 12/ RMK SC3AC4

CYWG;2007-09-20 16:00;CYWG 201600Z 15012G20KT 15SM FEW023 OVC087 12/09 A2986 RMK SC2AC6 SLP117

CYWG;2007-09-20 16:28;CYWG 201628Z 15013KT 15SM -SHRA SCT021 OVC050 12/ RMK SC3SC5

CYWG;2007-09-20 17:00;CYWG 201700Z 16008KT 15SM BKN023 OVC050 13/09 A2982 RMK SC5SC3 SLP106

CYWG;2007-09-20 17:09;CYWG 201709Z 16005KT 15SM -SHRA BKN020 OVC036 13/ RMK SC6SC2

CYWG;2007-09-20 18:00;CYWG 201800Z 16012G20KT 15SM -SHRA OVC020 13/10 A2975 RMK SC8 SLP080

CYWG;2007-09-20 18:22;CYWG 201822Z 18012KT 15SM OVC018 13/ RMK SC8

CYWG;2007-09-20 19:00;CYWG 201900Z 18008KT 15SM OVC018 13/11 A2973 RMK SC8 SLP073

CYWG;2007-09-20 19:50;CYWG 201950Z 19009KT 3SM -DZ BR OVC016 13/ RMK SC8

CYWG;2007-09-20 20:00;CYWG 202000Z 19008KT 2SM -DZ BR OVC012 13/12 A2971 RMK SC8 SLP067

CYWG;2007-09-20 20:48;CYWG 202048Z 17007KT 2SM -DZ BR OVC003 13/ RMK ST8

CYWG;2007-09-20 21:00;CYWG 202100Z 16007KT 3SM -DZ BR BKN003 OVC022 13/12 A2968 RMK ST7SC1 SLP054

CYWG;2007-09-20 22:00;CYWG 202200Z 17011KT 3SM -DZ BR OVC003 13/13 A2965 RMK ST8 CIG RAG SLP045

CYWG;2007-09-20 23:00;CYWG 202300Z 18008KT 5SM -DZ BR OVC003 13/13 A2964 RMK ST8 CIG RAG SLP040

CYWG;2007-09-21 00:00;CYWG 210000Z 19005KT 6SM BR OVC004 14/13 A2962 RMK ST8 SLP035

CYWG;2007-09-21 01:00;CYWG 210100Z 20004KT 6SM BR OVC003 14/13 A2962 RMK ST8 SLP034

CYWG;2007-09-21 02:00;CYWG 210200Z 23004KT 6SM BR OVC004 14/14 A2962 RMK ST8 SLP035

CYWG;2007-09-21 03:00;CYWG 210300Z 23004KT 4SM BR OVC003 14/14 A2962 RMK ST8 SLP035

CYWG;2007-09-21 04:00;CYWG 210400Z 21004KT 5SM BR OVC004 14/14 A2961 RMK ST8 SLP033

CYWG;2007-09-21 05:00;CYWG 210500Z 18004KT 4SM BR BKN003 OVC030 14/14 A2959 RMK ST6SC2 SLP026

CYWG;2007-09-21 05:34;CYWG 210534Z 18007KT 1/2SM R13/4000VP6000FT/D R36/3500VP6000FT/D FG VV001 14/ RMK FG8

CYWG;2007-09-21 06:00;CYWG 210600Z 17004KT 1/2SM R13/3500FT/U R36/P6000FT/D FG OVC001 14/14 A2958 RMK ST8 SLP020

CYWG;2007-09-21 06:43;CYWG 210643Z 18006KT 1SM R13/P6000FT/U R36/P6000FT/N BR OVC001 14/ RMK ST8

CYWG;2007-09-21 07:00;CYWG 210700Z 19009KT 3SM BR FEW001 OVC010 14/13 A2957 RMK SF1ST7 SLP017

CYWG;2007-09-21 07:50;CYWG 210750Z 21009KT 2SM BR BKN004 OVC012 13/ RMK ST6ST2

CYWG;2007-09-21 08:00;CYWG 210800Z 20008KT 1/4SM R13/P6000FT/D R36/P6000FT/D FG VV001 13/13 A2956 RMK FG8 SLP014

CYWG;2007-09-21 08:33;CYWG 210833Z 24005KT 1SM R13/P6000FT/U R36/P6000FT/U BR OVC001 13/ RMK ST8

CYWG;2007-09-21 09:00;CYWG 210900Z 21004KT 3SM BR OVC002 13/12 A2953 RMK ST8 SLP004

CYWG;2007-09-21 09:19;CYWG 210919Z 17004KT 1/4SM R13/P6000FT/D R36/4500VP6000FT/D FG OVC002 13/ RMK ST8

CYWG;2007-09-21 09:32;CYWG 210932Z 20005KT 1/4SM R13/P6000FT/U R36/4000FT/D FG VV001 12/ RMK FG8

CYWG;2007-09-21 10:00;CYWG 211000Z 17005KT 0SM R13/3000FT/N R36/2400FT/N FG VV000 12/12 A2952 RMK FG8 SLP000

CYWG;2007-09-21 10:19;CYWG 211019Z 20005KT 1/4SM R13/3000FT/N R36/3000FT/N FG VV001 12/ RMK FG8

CYWG;2007-09-21 10:56;CYWG 211056Z 19007KT 1SM R13/P6000FT/U R36/3500VP6000FT/D BR OVC001 12/ RMK ST8

CYWG;2007-09-21 11:00;CYWG 211100Z 18007KT 1SM R13/P6000FT/U R36/3500VP6000FT/D BR OVC001 12/11 A2954 RMK ST8 SLP007

CYWG;2007-09-21 11:10;CYWG 211110Z 18006KT 2SM BR OVC001 11/ RMK ST8

CYWG;2007-09-21 11:40;CYWG 211140Z 23007KT 3SM -RA BR BKN002 BKN020 OVC093 11/ RMK ST5SC2AC1

CYWG;2007-09-21 11:54;CYWG 211154Z 28004KT 5SM -RA BR FEW002 BKN052 OVC093 11/ RMK ST2SC6AC1

CYWG;2007-09-21 12:00;CYWG 211200Z 28004KT 5SM -RA BR FEW002 BKN052 OVC082 11/11 A2952 RMK ST2SC6AC1 SLP002

CYWG;2007-09-21 13:00;CYWG 211300Z 30005KT 6SM -RA BR BKN032 BKN052 OVC089 11/10 A2955 RMK SC5SC2AC2 SLP012

CYWG;2007-09-21 14:00;CYWG 211400Z 31010KT 10SM -RA FEW010 FEW017 BKN048 BKN096 11/10 A2954 RMK SF1SC1SC4AC2 BR SLP007

CYWG;2007-09-21 14:23;CYWG 211423Z 30010G16KT 15SM FEW017 BKN076 BKN200 12/ RMK SC2AC4CI1

CYWG;2007-09-21 14:54;CYWG 211454Z 29011G16KT 15SM -RA FEW009 BKN050 OVC087 RMK SF2SC5AC2

CYWG;2007-09-21 15:00;CYWG 211500Z 29012KT 15SM -RA FEW009 BKN031 OVC085 11/10 A2953 RMK SF2SC3AC3 SLP004

CYWG;2007-09-21 15:25;CYWG 211525Z 27009KT 15SM -RA BKN008 BKN020 OVC080 11/ RMK SF5SC2AC1

CYWG;2007-09-21 15:42;CYWG 211542Z 28009KT 15SM -RA SCT007 BKN018 OVC080 11/ RMK SF3SC3AC2

CYWG;2007-09-21 16:00;CYWG 211600Z 26008KT 15SM -RA SCT007 BKN038 BKN078 11/10 A2954 RMK SF3SC3AC1 SLP006

CYWG;2007-09-21 16:40;CYWG 211640Z 27009KT 15SM FEW008 FEW026 BKN069 BKN093 12/ RMK SF1SC2AC4AC1

CYWG;2007-09-21 17:00;CYWG 211700Z 27011G16KT 15SM FEW008 FEW026 SCT040 BKN063 BKN210 13/11 A2954 RMK SF1CF1SC2SC3CI1 SLP009

CYWG;2007-09-21 18:00;CYWG 211800Z 30020KT 15SM BKN019 BKN032 BKN063 BKN210 14/09 A2955 RMK SC5SC1SC1CI1 SLP011

CYWG;2007-09-21 19:00;CYWG 211900Z 30016KT 15SM FEW025 BKN130 14/09 A2958 RMK CU2AC5 SLP019

CYWG;2007-09-21 20:00;CYWG 212000Z 31022KT 15SM FEW032 FEW130 BKN210 16/09 A2958 RMK CU2AC1CI1 SLP019

CYWG;2007-09-21 21:00;CYWG 212100Z 31017KT 15SM FEW042 FEW210 18/08 A2959 RMK CU2CI1 SLP023

CYWG;2007-09-21 22:00;CYWG 212200Z 31015G24KT 15SM FEW044 18/07 A2961 RMK CU1 SLP029

CYWG;2007-09-21 23:00;CYWG 212300Z 30010KT 15SM FEW044CB 17/06 A2962 RMK CB1 CB TOP DST NW-N SLP032

CYWG;2007-09-22 00:00;CYWG 220000Z 25005KT 15SM BKN068 16/07 A2962 RMK CU5 TCU/CB ASOCTD SH DST NW-NE SLP035

CYWG;2007-09-22 01:00;CYWG 220100Z 31012KT 15SM SCT066 14/06 A2967 RMK AC3 SLP049

CYWG;2007-09-22 02:00;CYWG 220200Z 31008KT 15SM FEW070 11/05 A2970 RMK AC1 SLP061

CYWG;2007-09-22 03:00;CYWG 220300Z 29009KT 15SM FEW072 08/04 A2973 RMK AC1 SLP073

CYWG;2007-09-22 04:00;CYWG 220400Z 27007KT 15SM SKC 07/03 A2974 RMK SLP078

CYWG;2007-09-22 05:00;CYWG 220500Z 27008KT 15SM SKC 08/03 A2977 RMK SLP087

CYWG;2007-09-22 06:00;CYWG 220600Z 26008KT 15SM SKC 07/02 A2979 RMK SLP093

CYWG;2007-09-22 07:00;CYWG 220700Z 27008KT 15SM SKC 05/02 A2980 RMK SLP097

CYWG;2007-09-22 08:00;CYWG 220800Z 25007KT 15SM SKC 05/02 A2982 RMK SLP105

CYWG;2007-09-22 09:00;CYWG 220900Z 27006KT 15SM SKC 05/01 A2982 RMK SLP104

CYWG;2007-09-22 10:00;CYWG 221000Z 25007KT 15SM SKC 04/01 A2983 RMK SLP108

CYWG;2007-09-22 11:00;CYWG 221100Z 24004KT 15SM SKC 04/01 A2985 RMK SLP113

CYWG;2007-09-22 12:00;CYWG 221200Z 21002KT 15SM SKC 04/01 A2986 RMK SLP118

CYWG;2007-09-22 13:00;CYWG 221300Z 17004KT 15SM SKC 03/01 A2986 RMK SLP118

CYWG;2007-09-22 14:00;CYWG 221400Z 16003KT 15SM SKC 07/03 A2987 RMK SLP121

CYWG;2007-09-22 15:00;CYWG 221500Z 18011KT 15SM SKC 11/04 A2987 RMK SLP120

CYWG;2007-09-22 16:00;CYWG 221600Z 18010KT 15SM SKC 15/05 A2985 RMK SLP116

CYWG;2007-09-22 17:00;CYWG 221700Z 15009KT 15SM FEW100 FEW280 17/06 A2983 RMK AC1CI1 SLP107

CYWG;2007-09-22 18:00;CYWG 221800Z 18009KT 15SM FEW100 FEW280 19/07 A2982 RMK AC1CI1 SLP103

CYWG;2007-09-22 19:00;CYWG 221900Z 14013KT 15SM FEW020 SCT280 21/08 A2979 RMK FU1CI0 SLP091

CYWG;2007-09-22 20:00;CYWG 222000Z 16016G21KT 15SM FEW020 SCT280 23/08 A2974 RMK FU1CI0 FU SW-NW SLP077

CYWG;2007-09-22 21:00;CYWG 222100Z 16017KT 15SM FEW100 24/07 A2974 RMK AC1 FU SW-W SLP074

CYWG;2007-09-22 22:00;CYWG 222200Z 17014G21KT 15SM FEW100 25/08 A2972 RMK AC1 TR AC SLP069

CYWG;2007-09-22 23:00;CYWG 222300Z 17014G22KT 15SM FEW280 24/09 A2972 RMK CI1 SLP067

CYWG;2007-09-23 00:00;CYWG 230000Z 17014KT 15SM FEW280 22/09 A2971 RMK CI1 TR CI SLP064

CYWG;2007-09-23 01:00;CYWG 230100Z 17012KT 15SM FEW100 20/10 A2971 RMK AC1 TR AC SLP066

CYWG;2007-09-23 02:00;CYWG 230200Z 14008KT 15SM SKC 18/10 A2972 RMK SLP068

CYWG;2007-09-23 03:00;CYWG 230300Z 15009KT 15SM FEW110 17/10 A2974 RMK AC2 SLP073

CYWG;2007-09-23 04:00;CYWG 230400Z 17009KT 15SM SCT110 16/10 A2973 RMK AC2 SLP070

CYWG;2007-09-23 05:00;CYWG 230500Z 16010KT 15SM FEW120 16/10 A2972 RMK AC1 SLP068

CYWG;2007-09-23 06:00;CYWG 230600Z 16009KT 15SM SCT120 15/10 A2972 RMK AC2 SLP067

CYWG;2007-09-23 07:00;CYWG 230700Z 18012KT 15SM SCT120 17/09 A2972 RMK AC3 SLP067

CYWG;2007-09-23 08:00;CYWG 230800Z 17011KT 15SM FEW120 16/09 A2972 RMK AC1 SLP067

CYWG;2007-09-23 09:00;CYWG 230900Z 18011KT 15SM BKN120 16/09 A2973 RMK AC5 SLP067

CYWG;2007-09-23 10:00;CYWG 231000Z 16006KT 15SM BKN120 15/09 A2972 RMK AC5 SLP065

CYWG;2007-09-23 11:00;CYWG 231100Z 12006KT 15SM BKN100 14/09 A2970 RMK AC7 SLP059

CYWG;2007-09-23 11:37;CYWG 231137Z 14008KT 15SM TS BKN100 14/ RMK AC6 CB EMBDD LTGIC S-W

CYWG;2007-09-23 11:50;CYWG 231150Z 23004KT 15SM -TSRA BKN066CB BKN094 14/ RMK CB5AC2 LGTICCG SE-NW

CYWG;2007-09-23 12:00;CYWG 231200Z 10003KT 15SM -TSRA BKN066CB BKN094 14/10 A2971 RMK CB5AC2 CB OVRHD SLP064

CYWG;2007-09-23 12:08;CYWG 231208Z 15009KT 12SM TSRA BKN060CB BKN090 13/ RMK CB5AC2

CYWG;2007-09-23 12:19;CYWG 231219Z 13009G15KT 15SM -TSRA SCT060CB BKN090 13/ RMK CB4AC2

CYWG;2007-09-23 12:32;CYWG 231232Z 14012KT 15SM FEW011 BKN060TCU 13/ RMK ST1TCU3 CB N-NE

CYWG;2007-09-23 13:00;CYWG 231300Z 13009KT 15SM FEW060TCU SCT120 SCT250 13/10 A2970 RMK TCU2AC1CI0 CB TOP NE SLP058

CYWG;2007-09-23 14:00;CYWG 231400Z 12011KT 15SM SCT120 16/10 A2967 RMK AC2 TCU ASOCTD NE SLP051

CYWG;2007-09-23 15:00;CYWG 231500Z 14010KT 15SM BKN120 BKN250 18/11 A2967 RMK AC3CI1 SLP050

CYWG;2007-09-23 16:00;CYWG 231600Z 14009KT 15SM FEW120 SCT250 20/12 A2965 RMK AC2CI1 SLP044

CYWG;2007-09-23 17:00;CYWG 231700Z 10007KT 15SM FEW120 SCT250 22/13 A2963 RMK AC2CI1 SLP037

CYWG;2007-09-23 18:00;CYWG 231800Z CCA 18007KT 15SM FEW038 SCT120 BKN250 25/15 A2963 RMK SC2AC2CI0 SLP034

CYWG;2007-09-23 19:00;CYWG 231900Z 19008KT 9SM FEW040 BKN120 BKN250 25/16 A2961 RMK SC2AC2CI0 SLP026

CYWG;2007-09-23 20:00;CYWG 232000Z 14008KT 9SM BKN040 BKN250 26/17 A2958 RMK SC6CI0 HZ/FU SLP019

CYWG;2007-09-23 20:39;CYWG 232039Z 04012KT 15SM OVC042 23/ RMK SC8 WSHFT 2018

CYWG;2007-09-23 21:00;CYWG 232100Z 04014KT 15SM BKN044 OVC250 23/15 A2958 RMK SC7CI0 SLP019

CYWG;2007-09-23 22:00;CYWG 232200Z 04016KT 15SM BKN048 OVC120 22/15 A2957 RMK SC3AC4 SLP014

CYWG;2007-09-23 23:00;CYWG 232300Z 05015KT 15SM BKN052 OVC100 20/14 A2956 RMK SC3AC4 SLP011

CYWG;2007-09-24 00:00;CYWG 240000Z 04010KT 15SM BKN055 OVC100 20/15 A2956 RMK SC5AC3 SLP011

CYWG;2007-09-24 01:00;CYWG 240100Z 04008KT 15SM BKN067 OVC240 19/14 A2956 RMK AC6CI1 SLP013

CYWG;2007-09-24 02:00;CYWG 240200Z 02012KT 15SM SCT056CB OVC100 17/13 A2954 RMK CB4AC3 LTGCC NE-SE SLP006

CYWG;2007-09-24 03:00;CYWG 240300Z 36013G18KT 15SM BKN064 OVC092 15/12 A2958 RMK SC5AC2 PRES UNSTDY SLP018

CYWG;2007-09-24 04:00;CYWG 240400Z 01016G21KT 15SM FEW010 SCT092 OVC150 14/12 A2958 RMK CF1AC2AS6 MOON DMLY VSBL SLP020

CYWG;2007-09-24 05:00;CYWG 240500Z 05011G17KT 15SM FEW010 BKN069TCU OVC150 14/12 A2957 RMK CF1TCU4AS3 MOON DMLY VSBL SLP014

CYWG;2007-09-24 05:42;CYWG 240542Z 07011KT 15SM -SHRA BKN008 OVC053 14/ RMK SC6SC2

CYWG;2007-09-24 05:50;CYWG 240550Z 07008KT 15SM -TSRA BKN008 OVC056CB 14/ RMK SC6CB2 LTGIC

CYWG;2007-09-24 06:00;CYWG 240600Z 15010KT 5SM TSRA OVC007 14/12 A2964 RMK SC8 LGTIC PRESRR SLP039

CYWG;2007-09-24 06:12;CYWG 240612Z CCA 05005G15KT 1 1/2SM +TSRA VV006 14/ RMK RA8 LTGIC

CYWG;2007-09-24 06:22;CYWG 240622Z 03004KT 5SM -TSRA BKN005 OVC060CB 13/ RERA RMK SC6CB2 LGTIC

CYWG;2007-09-24 06:43;CYWG 240643Z 25014KT 1 3/4SM +TSRA BR VV005 14/ RMK RA8 LGTIC WND SHFT 0638Z

CYWG;2007-09-24 06:57;CYWG 240657Z 33010G18KT 1 3/4SM -SHRA BR BKN006 OVC069CB 13/ RETSRA RMK SC5CB3

CYWG;2007-09-24 07:00;CYWG 240700Z 32012KT 1 3/4SM -SHRA BR BKN006 OVC069CB 13/13 A2963 RETSRA RMK SC5CB3 SLP033

CYWG;2007-09-24 07:27;CYWG 240727Z 33006G15KT 4SM -SHRA BR BKN004 OVC086 13/ RMK SF5AC3

CYWG;2007-09-24 07:54;CYWG 240754Z 03009KT 6SM -SHRA BR SCT004 OVC011 13/ RMK SF2SC6

CYWG;2007-09-24 08:00;CYWG 240800Z 04009KT 6SM -SHRA BR SCT004 OVC011 13/12 A2957 RMK SF2SC6 PRESFR SLP013

CYWG;2007-09-24 08:11;CYWG 240811Z 06004KT 6SM -SHRA BR BKN004 OVC011 13/ RMK SF5ST3

CYWG;2007-09-24 09:00;CYWG 240900Z 35012KT 6SM -RA BR BKN004 OVC045 13/12 A2959 RMK SF6ST2 SLP021

CYWG;2007-09-24 10:00;CYWG 241000Z 36008KT 6SM -RA BR OVC005 13/12 A2961 RMK ST8 SLP028

CYWG;2007-09-24 10:29;CYWG 241029Z 36005KT 6SM BR OVC004 13/ RMK ST8

CYWG;2007-09-24 11:00;CYWG 241100Z 36008KT 8SM OVC004 12/12 A2962 RMK ST8 BR SLP033

CYWG;2007-09-24 12:00;CYWG 241200Z 02007KT 5SM BR OVC003 12/11 A2965 RMK ST8 SLP043

CYWG;2007-09-24 12:13;CYWG 241213Z 03005KT 3SM BR OVC002 12/ RMK ST8

CYWG;2007-09-24 13:00;CYWG 241300Z 35004KT 2 1/2SM BR OVC002 12/11 A2966 RMK ST8 SLP047

CYWG;2007-09-24 13:32;CYWG 241332Z 01005KT 3SM BR OVC003 12/ RMK ST8

CYWG;2007-09-24 14:00;CYWG 241400Z 35007KT 6SM BR OVC004 12/11 A2966 RMK ST8 SLP047

CYWG;2007-09-24 14:09;CYWG 241409Z 33009KT 6SM BR OVC002 12/ RMK ST8

CYWG;2007-09-24 15:00;CYWG 241500Z 36007KT 3SM BR OVC003 12/11 A2967 RMK ST8 SLP050

CYWG;2007-09-24 15:18;CYWG 241518Z 35007KT 8SM OVC005 12/ RMK ST8 BR

CYWG;2007-09-24 16:00;CYWG 241600Z 33009KT 5SM -RA BR OVC004 12/11 A2968 RMK ST8 SLP056

CYWG;2007-09-24 16:28;CYWG 241628Z 32008KT 5SM -RA BR OVC005 12/ RMK ST8

CYWG;2007-09-24 17:00;CYWG 241700Z 34010KT 5SM -RA BR OVC006 11/11 A2970 RMK ST8 SLP063

CYWG;2007-09-24 18:00;CYWG 241800Z 32010KT 5SM -RA BR OVC004 12/11 A2972 RMK ST8 SLP070

CYWG;2007-09-24 18:16;CYWG 241816Z 34012KT 8SM -RA OVC006 11/ RMK ST8 BR

CYWG;2007-09-24 19:00;CYWG 241900Z 34014KT 10SM -RA OVC006 11/10 A2973 RMK SF8 SLP071

CYWG;2007-09-24 19:08;CYWG 241908Z 34013KT 12SM OVC007 11/ RMK SF8

CYWG;2007-09-24 20:00;CYWG 242000Z 34013G18KT 12SM OVC009 11/09 A2973 RMK SF8 SLP073

CYWG;2007-09-24 20:22;CYWG 242022Z 33014KT 15SM OVC013 11/ RMK SF8

CYWG;2007-09-24 21:00;CYWG 242100Z 34017G22KT 15SM OVC013 11/08 A2975 RMK SF8 SLP079

CYWG;2007-09-24 21:36;CYWG 242136Z 33015KT 6SM -DZ BR OVC005 RMK ST8

CYWG;2007-09-24 21:47;CYWG 242147Z 33015G21KT 2SM -DZ BR OVC004 RMK ST8

CYWG;2007-09-24 22:00;CYWG 242200Z 33013G18KT 2 1/2SM -DZ BR OVC004 09/08 A2979 RMK ST8 SLP092

CYWG;2007-09-24 22:11;CYWG 242211Z 33016G21KT 4SM -DZ BR OVC005 09/ RMK ST8

CYWG;2007-09-24 22:20;CYWG 242220Z 33017G22KT 6SM -DZ BR OVC006 09/ RMK ST8

CYWG;2007-09-24 22:54;CYWG 242254Z 34014KT 10SM OVC010 09/ RMK ST8

CYWG;2007-09-24 23:00;CYWG 242300Z 33015G20KT 12SM OVC009 09/07 A2981 RMK ST8 SLP099

CYWG;2007-09-24 23:16;CYWG 242316Z 33014G21KT 10SM -DZ SCT010 OVC023 08/ RMK SF4ST4

CYWG;2007-09-24 23:25;CYWG 242325Z 33016KT 8SM -DZ BKN006 OVC026 08/ RMK SF6ST2

CYWG;2007-09-24 23:49;CYWG 242349Z 32015G21KT 10SM -RA OVC006 08/ RMK SF8

CYWG;2007-09-25 00:00;CYWG 250000Z 33018KT 12SM -DZ SCT006 OVC009 08/06 A2983 RMK SF4ST4 SLP107

CYWG;2007-09-25 00:34;CYWG 250034Z 34016G21KT 15SM OVC007 07/ RMK SF8

CYWG;2007-09-25 01:00;CYWG 250100Z 34018KT 6SM -DZ OVC007 07/06 A2985 RMK SF8 SLP114

CYWG;2007-09-25 02:00;CYWG 250200Z 32016KT 8SM -DZ OVC008 07/06 A2987 RMK SF8 SLP121

CYWG;2007-09-25 02:22;CYWG 250222Z 32013KT 4SM -DZ OVC004 RMK ST8

CYWG;2007-09-25 02:49;CYWG 250249Z 32012KT 4SM -DZ OVC006 07/ RMK ST8

CYWG;2007-09-25 03:00;CYWG 250300Z 31014KT 4SM -DZ OVC005 07/06 A2989 RMK ST8 SLP129

CYWG;2007-09-25 03:16;CYWG 250316Z 31012KT 4SM -DZ OVC007 07/ RMK ST8 CIG VRBL 006-008

CYWG;2007-09-25 03:44;CYWG 250344Z 32011G16KT 4SM -RA OVC007 07/ RMK ST8 CIG VRBL 006-008

CYWG;2007-09-25 04:00;CYWG 250400Z 32010KT 3SM -RA BR OVC005 07/06 A2990 RMK ST8 SLP133

CYWG;2007-09-25 04:25;CYWG 250425Z 32011G16KT 4SM -RA BR OVC007 07/ RMK ST8 CIG VRBL 005-009

CYWG;2007-09-25 05:00;CYWG 250500Z 31010KT 6SM -RA BR BKN006 OVC035 07/06 A2991 RMK ST6SC2 CIG RGD SLP136

CYWG;2007-09-25 05:37;CYWG 250537Z 32011KT 8SM -DZ BKN007 OVC026 07/ RMK ST6ST2

CYWG;2007-09-25 06:00;CYWG 250600Z 32012KT 7SM -DZ BKN005 OVC026 07/06 A2992 RMK ST6ST2 SLP137

CYWG;2007-09-25 07:00;CYWG 250700Z 32009KT 10SM -DZ BKN007 OVC019 07/06 A2992 RMK ST5ST3 SLP139

CYWG;2007-09-25 08:00;CYWG 250800Z 32011KT 10SM -DZ BKN006 OVC023 07/06 A2993 RMK ST6ST2 SLP143

CYWG;2007-09-25 08:51;CYWG 250851Z 32010KT 8SM -DZ OVC004 07/ RMK ST8

CYWG;2007-09-25 09:00;CYWG 250900Z 32011KT 8SM -RA OVC004 07/06 A2995 RMK ST8 SLP148

CYWG;2007-09-25 09:20;CYWG 250920Z 33012KT 8SM -RA OVC005 07/ RMK ST8

CYWG;2007-09-25 10:00;CYWG 251000Z 33011G17KT 6SM -RA OVC007 07/06 A2996 RMK ST8 SLP151

CYWG;2007-09-25 11:00;CYWG 251100Z 33010KT 10SM -RA OVC012 07/06 A2997 RMK SC8 SLP157

CYWG;2007-09-25 11:19;CYWG 251119Z 33009KT 10SM -DZ OVC009 07/ RMK ST8

CYWG;2007-09-25 11:37;CYWG 251137Z 34008KT 12SM SCT009 OVC016 07/ RMK ST3SC5

CYWG;2007-09-25 12:00;CYWG 251200Z 35011KT 15SM FEW009 BKN016 OVC090 07/05 A2997 RMK SF2SC5AC2 SLP156

CYWG;2007-09-25 13:00;CYWG 251300Z 32008KT 15SM BKN018 OVC250 07/05 A2999 RMK SC6CI1 SLP164

CYWG;2007-09-25 14:00;CYWG 251400Z 31008KT 15SM BKN017 BKN035 BKN250 06/05 A3001 RMK SC5SC1CI1 SLP170

CYWG;2007-09-25 15:00;CYWG 251500Z 35008KT 15SM BKN014 08/05 A3001 RMK SC6 SLP171

CYWG;2007-09-25 16:00;CYWG 251600Z 30009KT 15SM BKN018 BKN040 09/05 A3002 RMK SC6SC2 SLP172

CYWG;2007-09-25 17:00;CYWG 251700Z 29006KT 15SM BKN017 OVC033 09/05 A3002 RMK SC5SC3 SLP172

CYWG;2007-09-25 18:00;CYWG 251800Z 33006KT 15SM SCT019 OVC036 10/05 A3001 RMK SC4SC4 SLP169

CYWG;2007-09-25 19:00;CYWG 251900Z 31005KT 15SM FEW020 BKN032 OVC090 10/04 A2999 RMK SF1SC6AC1 SLP164

CYWG;2007-09-25 20:00;CYWG 252000Z 30002KT 15SM FEW030 BKN039 11/05 A2998 RMK CU1SC6 SLP160

CYWG;2007-09-25 21:00;CYWG 252100Z 23002KT 15SM BKN034 11/05 A2996 RMK SC6 SLP154

CYWG;2007-09-25 22:00;CYWG 252200Z 22005KT 15SM BKN034 12/05 A2996 RMK SC6 SLP151

CYWG;2007-09-25 23:00;CYWG 252300Z 00000KT 15SM SCT040 SCT250 12/05 A2994 RMK SC3CI0 SLP147

CYWG;2007-09-26 00:00;CYWG 260000Z 18006KT 15SM FEW040 FEW250 10/04 A2994 RMK SC1CI0 SLP147

CYWG;2007-09-26 01:00;CYWG 260100Z 17006KT 15SM FEW250 08/04 A2994 RMK CI1 SLP146

CYWG;2007-09-26 02:00;CYWG 260200Z 16006KT 15SM SKC 07/04 A2994 RMK SLP146

CYWG;2007-09-26 03:00;CYWG 260300Z 17007KT 15SM SKC 06/03 A2993 RMK SLP144

CYWG;2007-09-26 04:00;CYWG 260400Z 16007KT 15SM SKC 06/03 A2991 RMK SLP138

CYWG;2007-09-26 05:00;CYWG 260500Z 17008KT 15SM SKC 06/03 A2990 RMK SLP132

CYWG;2007-09-26 06:00;CYWG 260600Z 18010KT 15SM BKN140 07/04 A2988 RMK AC2 SLP126

CYWG;2007-09-26 07:00;CYWG 260700Z 18010KT 15SM OVC150 07/04 A2986 RMK AS3 HALO SLP119

CYWG;2007-09-26 08:00;CYWG 260800Z 18011KT 15SM SCT091 OVC150 06/04 A2984 RMK AC2AS2 HALO SLP113

CYWG;2007-09-26 09:00;CYWG 260900Z 18013KT 15SM SCT091 BKN150 06/04 A2982 RMK AC3AS1 SLP105

CYWG;2007-09-26 10:00;CYWG 261000Z 18014KT 15SM FEW086 OVC150 07/05 A2980 RMK AC2AS2 HALO SLP098

CYWG;2007-09-26 11:00;CYWG 261100Z 18012KT 15SM BKN140 07/05 A2978 RMK AC6 SLP092

CYWG;2007-09-26 12:00;CYWG 261200Z 18012KT 15SM SCT084 BKN140 BKN250 07/05 A2976 RMK AC3AC2CI0 SLP084

CYWG;2007-09-26 13:00;CYWG 261300Z 18009G15KT 15SM BKN087 BKN140 07/05 A2975 RMK AC5AC1 SLP081

CYWG;2007-09-26 14:00;CYWG 261400Z 18011KT 15SM BKN087 08/06 A2975 RMK AC7 SLP080

CYWG;2007-09-26 15:00;CYWG 261500Z 19011KT 15SM BKN089 BKN250 10/07 A2974 RMK AC5CI1 SLP078

CYWG;2007-09-26 16:00;CYWG 261600Z 21010KT 15SM BKN080 BKN250 12/07 A2973 RMK AC5CI0 SLP075

CYWG;2007-09-26 17:00;CYWG 261700Z 23007KT 15SM BKN066 BKN250 13/08 A2973 RMK AC6CI1 OBS TAKEN +3 SLP074

CYWG;2007-09-26 18:00;CYWG 261800Z 26009KT 15SM FEW037 BKN071 BKN250 16/08 A2973 RMK SC2AC3CI0 SLP072

CYWG;2007-09-26 19:00;CYWG 261900Z 28008KT 15SM FEW037 FEW045 BKN250 16/07 A2972 RMK SC1CU2CS2 HALO SLP070

CYWG;2007-09-26 20:00;CYWG 262000Z 28007KT 15SM FEW040 FEW140 BKN250 17/07 A2972 RMK CU1AC1CS2 HALO SLP068

CYWG;2007-09-26 21:00;CYWG 262100Z 28005KT 15SM FEW050 FEW140 BKN250 19/06 A2972 RMK CU1AC1CI1 SLP069

CYWG;2007-09-26 22:00;CYWG 262200Z 29006KT 15SM FEW050TCU SCT250 19/05 A2972 RMK TCU1CI1 -SHRA W SLP070

CYWG;2007-09-26 23:00;CYWG 262300Z 28002KT 15SM FEW045TCU BKN067 BKN250 18/07 A2973 RMK TCU2AC2CI1 -SHRA NW SLP073

CYWG;2007-09-26 23:52;CYWG 262352Z 32012KT 15SM -SHRA BKN037TCU BKN067 BKN250 RMK TCU5AC2CI1

CYWG;2007-09-27 00:00;CYWG 270000Z 33007G19KT 15SM -SHRA BKN037TCU BKN080 14/09 A2974 RMK TCU6AC1 SLP078

CYWG;2007-09-27 00:24;CYWG 270024Z 22003KT 15SM BKN044TCU BKN084 14/ RMK TCU6AC1 -SHRA E-SW

CYWG;2007-09-27 01:00;CYWG 270100Z 18008KT 15SM SCT044TCU BKN050 BKN200 13/09 A2975 RMK TCU3SC2CI1 -SHRA SE-S SLP079

CYWG;2007-09-27 02:00;CYWG 270200Z 19006KT 15SM FEW050 11/07 A2975 RMK SC2 SLP079

CYWG;2007-09-27 03:00;CYWG 270300Z 22007KT 15SM FEW074 11/07 A2975 RMK AC2 SLP080

CYWG;2007-09-27 04:00;CYWG 270400Z 23008KT 15SM FEW074 BKN160 11/07 A2975 RMK AC1AS2 HALO SLP081

CYWG;2007-09-27 05:00;CYWG 270500Z 27007KT 15SM FEW075 SCT160 11/06 A2975 RMK AC1AS2 HALO SLP081

CYWG;2007-09-27 06:00;CYWG 270600Z 27007KT 15SM FEW160 09/05 A2976 RMK AS1 SLP082

CYWG;2007-09-27 07:00;CYWG 270700Z 27007KT 15SM FEW160 08/04 A2977 RMK AS1 SLP084

CYWG;2007-09-27 08:00;CYWG 270800Z 27008KT 15SM BKN094 09/05 A2977 RMK AC5 SLP086

CYWG;2007-09-27 08:52;CYWG 270852Z 27008KT 15SM -RA OVC076 09/ RMK AC8

CYWG;2007-09-27 09:00;CYWG 270900Z 27009KT 15SM -RA OVC076 09/06 A2978 RMK AC8 SLP088

CYWG;2007-09-27 10:00;CYWG 271000Z 25006KT 15SM -RA BKN049 10/07 A2978 RMK SC7 SLP088

CYWG;2007-09-27 10:54;CYWG 271054Z 26006KT 15SM SCT049 BKN083 10/ RMK SC3AC2

CYWG;2007-09-27 11:00;CYWG 271100Z 26006KT 15SM FEW050 SCT083 09/07 A2978 RMK SC2AC2 SLP089

CYWG;2007-09-27 12:00;CYWG 271200Z 26008KT 15SM FEW050 SCT085 09/06 A2980 RMK SC1AC2 SLP097

CYWG;2007-09-27 13:00;CYWG 271300Z 27010KT 15SM FEW085 SCT250 08/06 A2981 RMK AC2CI1 SLP100

CYWG;2007-09-27 14:00;CYWG 271400Z 29012KT 15SM FEW085 FEW250 10/07 A2984 RMK AC1CI1 SLP109

CYWG;2007-09-27 15:00;CYWG 271500Z 29015KT 15SM FEW015 FEW090 12/08 A2986 RMK SC1AC1 SLP116

CYWG;2007-09-27 16:00;CYWG 271600Z 31018G24KT 15SM BKN021 13/08 A2989 RMK SC6 SLP127

CYWG;2007-09-27 17:00;CYWG 271700Z 32016KT 15SM OVC021 12/08 A2991 RMK SC8 SLP133

CYWG;2007-09-27 18:00;CYWG 271800Z 33016KT 15SM OVC021 13/07 A2993 RMK SC8 OBS TKN +13 SLP142

CYWG;2007-09-27 19:00;CYWG 271900Z 32018KT 15SM BKN023 13/07 A2994 RMK SC7 SLP146

CYWG;2007-09-27 20:00;CYWG 272000Z 33019G25KT 15SM BKN028 BKN080 14/07 A2996 RMK SC6AC1 SLP150

CYWG;2007-09-27 21:00;CYWG 272100Z 32017G22KT 15SM BKN037 14/07 A2998 RMK SC7 SLP157

CYWG;2007-09-27 22:00;CYWG 272200Z 32017KT 15SM BKN035 14/07 A2999 RMK SC7 SLP160

CYWG;2007-09-27 23:00;CYWG 272300Z 31017KT 15SM SCT048 SCT250 14/07 A3000 RMK SC3CI1 SLP165

CYWG;2007-09-28 00:00;CYWG 280000Z 31009KT 15SM FEW046 12/06 A3001 RMK SC2 SLP170

CYWG;2007-09-28 01:00;CYWG 280100Z 30007KT 15SM FEW046 FEW250 08/05 A3002 RMK SC1CI1 SLP173

CYWG;2007-09-28 02:00;CYWG 280200Z 30007KT 15SM FEW040 06/04 A3003 RMK SC1 SLP176

CYWG;2007-09-28 03:00;CYWG 280300Z 04002KT 15SM FEW040 04/03 A3005 RMK SC1 SLP183

CYWG;2007-09-28 04:00;CYWG 280400Z 27003KT 15SM SKC 04/03 A3006 RMK SLP187

CYWG;2007-09-28 05:00;CYWG 280500Z 00000KT 15SM SKC 04/03 A3007 RMK SLP190

CYWG;2007-09-28 06:00;CYWG 280600Z 17002KT 15SM SKC 04/03 A3008 RMK SLP192

CYWG;2007-09-28 07:00;CYWG 280700Z 22005KT 15SM SKC 04/03 A3009 RMK SLP195

CYWG;2007-09-28 08:00;CYWG 280800Z 16003KT 15SM SKC 03/02 A3008 RMK SLP194

CYWG;2007-09-28 09:00;CYWG 280900Z CCA 18005KT 15SM SCT250 04/03 A3009 RMK CI1 SLP195

CYWG;2007-09-28 10:00;CYWG 281000Z 18007KT 15SM FEW250 02/01 A3009 RMK CI1 SLP195

CYWG;2007-09-28 11:00;CYWG 281100Z 15005KT 15SM FEW250 02/01 A3008 RMK CI1 SLP193

CYWG;2007-09-28 12:00;CYWG 281200Z 16006KT 15SM FEW120 FEW250 02/01 A3009 RMK AC1CI0 SLP198

CYWG;2007-09-28 13:00;CYWG 281300Z 16007KT 9SM FEW120 BKN250 03/02 A3009 RMK AC1CI0 COTRA BR SLP198

CYWG;2007-09-28 14:00;CYWG 281400Z 18011KT 9SM BKN250 08/05 A3009 RMK CI1 COTRA BR SLP197

CYWG;2007-09-28 15:00;CYWG 281500Z 18011KT 9SM OVC250 10/06 A3008 RMK CI2 COTRA BR SLP195

CYWG;2007-09-28 16:00;CYWG 281600Z 18013G18KT 15SM OVC250 13/07 A3006 RMK CI2 SLP188

CYWG;2007-09-28 17:00;CYWG 281700Z 16012KT 15SM BKN250 15/07 A3004 RMK CI2 SLP181

CYWG;2007-09-28 18:00;CYWG 281800Z 15014G19KT 15SM BKN250 16/07 A3001 RMK CI2 DNS FU ALF S-SW SLP170

CYWG;2007-09-28 19:00;CYWG 281900Z 15015G22KT 15SM BKN250 17/07 A2997 RMK CI2 FU S-SW SLP157

CYWG;2007-09-28 20:00;CYWG 282000Z 14017G22KT 15SM BKN250 18/07 A2993 RMK CI2 FU S-NW SLP141

CYWG;2007-09-28 21:00;CYWG 282100Z 17019KT 15SM FEW250 19/06 A2990 RMK CI1 SLP130

CYWG;2007-09-28 22:00;CYWG 282200Z 15016KT 15SM FEW120 BKN250 19/06 A2986 RMK AC1CI1 SLP118

CYWG;2007-09-28 23:00;CYWG 282300Z 14013G20KT 15SM BKN080 BKN250 18/05 A2985 RMK AC5CI1 SLP113

CYWG;2007-09-29 00:00;CYWG 290000Z 14019KT 15SM BKN076 BKN250 18/05 A2983 RMK AC6CI1 SLP108

CYWG;2007-09-29 01:00;CYWG 290100Z 14018G25KT 15SM BKN070 OVC250 17/05 A2983 RMK AC7CI0 SLP107

CYWG;2007-09-29 02:00;CYWG 290200Z 13012G18KT 15SM SCT070 SCT250 15/06 A2981 RMK AC3CI0 SLP102

CYWG;2007-09-29 03:00;CYWG 290300Z 14014G20KT 15SM FEW250 15/06 A2980 RMK CI1 SLP094

CYWG;2007-09-29 04:00;CYWG 290400Z 14015G22KT 15SM SCT250 15/06 A2977 RMK CI2 SLP086

CYWG;2007-09-29 05:00;CYWG 290500Z 14017G22KT 15SM SCT250 15/06 A2974 RMK CI2 SLP076

CYWG;2007-09-29 06:00;CYWG 290600Z 14016G22KT 15SM BKN250 15/07 A2972 RMK CI2 SLP066

CYWG;2007-09-29 07:00;CYWG 290700Z 14018KT 15SM BKN250 15/07 A2970 RMK CI2 SLP059

CYWG;2007-09-29 08:00;CYWG 290800Z 15015KT 15SM BKN250 15/07 A2967 RMK CI2 SLP050

CYWG;2007-09-29 09:00;CYWG 290900Z 14013KT 15SM BKN250 15/07 A2965 RMK CI3 SLP042

CYWG;2007-09-29 10:00;CYWG 291000Z 14012KT 15SM BKN250 15/07 A2963 RMK CI2 SLP035

CYWG;2007-09-29 11:00;CYWG 291100Z 14014KT 15SM BKN250 15/07 A2961 RMK CS1 SLP031

CYWG;2007-09-29 12:00;CYWG 291200Z 14015KT 15SM SCT250 14/07 A2961 RMK CS1 SLP029

CYWG;2007-09-29 13:00;CYWG 291300Z 14015KT 15SM FEW100 FEW250 15/07 A2960 RMK AC1CS1 TR AC SLP025

CYWG;2007-09-29 14:00;CYWG 291400Z 15014KT 15SM FEW250 16/09 A2959 RMK CS1 SLP022

CYWG;2007-09-29 15:00;CYWG 291500Z 16019KT 15SM FEW250 18/10 A2957 RMK CI1 SLP016

CYWG;2007-09-29 16:00;CYWG 291600Z 17020G26KT 15SM FEW087 FEW250 20/11 A2955 RMK AC1CI1 SLP010

CYWG;2007-09-29 17:00;CYWG 291700Z 17019G27KT 15SM FEW080 SCT250 24/13 A2954 RMK AC2CI2 SLP006

CYWG;2007-09-29 18:00;CYWG 291800Z 18023G31KT 15SM FEW080 BKN230 24/14 A2951 RMK AC2CI2 SLP995

CYWG;2007-09-29 19:00;CYWG 291900Z 19022G32KT 15SM FEW080 BKN200 25/15 A2951 RMK AC2CI3 SLP992

CYWG;2007-09-29 20:00;CYWG 292000Z 18025G30KT 15SM FEW047 BKN100 26/15 A2948 RMK SC2AC3 SLP985

CYWG;2007-09-29 21:00;CYWG 292100Z 18022KT 15SM BKN047 BKN100 26/16 A2947 RMK SC5AC2 SLP980

CYWG;2007-09-29 22:00;CYWG 292200Z 18022G29KT 15SM FEW049 FEW100 SCT230 27/16 A2944 RMK SC2AC1CI1 SLP971

CYWG;2007-09-29 23:00;CYWG 292300Z 18024G32KT 15SM FEW100 FEW230 27/16 A2944 RMK AC1CI2 SLP969

CYWG;2007-09-30 00:00;CYWG 300000Z 18016G21KT 15SM FEW100 BKN230 25/16 A2945 RMK AC1CI2 CONTRAIL SLP972

CYWG;2007-09-30 01:00;CYWG 300100Z 17014G19KT 15SM FEW100 BKN230 24/16 A2946 RMK AC1CI2 SLP976

CYWG;2007-09-30 02:00;CYWG 300200Z 17018G24KT 15SM FEW100 FEW230 23/16 A2946 RMK AC1CI1 SLP976

CYWG;2007-09-30 03:00;CYWG 300300Z 17013G20KT 15SM FEW100 SCT230 22/16 A2946 RMK AC2CI1 SLP977

CYWG;2007-09-30 04:00;CYWG 300400Z 17015KT 15SM BKN230 21/16 A2947 RMK CI2 SLP978

CYWG;2007-09-30 05:00;CYWG 300500Z 18018KT 15SM FEW100 BKN230 21/16 A2946 RMK AC1CI2 SLP976

CYWG;2007-09-30 06:00;CYWG 300600Z 18015KT 15SM FEW100 SCT230 20/16 A2943 RMK AC2CI1 SLP965

CYWG;2007-09-30 07:00;CYWG 300700Z 20012KT 15SM FEW100 19/16 A2946 RMK AC1 SLP975

CYWG;2007-09-30 08:00;CYWG 300800Z 26011KT 15SM FEW100 18/14 A2948 RMK AC1 SLP983

CYWG;2007-09-30 09:00;CYWG 300900Z 30016KT 15SM FEW100 15/12 A2951 RMK AC1 SLP992

CYWG;2007-09-30 10:00;CYWG 301000Z 31015KT 15SM FEW100 BKN250 14/11 A2955 RMK AC2CI1 SLP008

CYWG;2007-09-30 11:00;CYWG 301100Z 32019KT 15SM FEW030 BKN250 13/10 A2959 RMK CF1CI1 SLP020

CYWG;2007-09-30 12:00;CYWG 301200Z 32019G25KT 15SM OVC019 13/10 A2962 RMK SC6 SLP031

CYWG;2007-09-30 13:00;CYWG 301300Z 32016G24KT 15SM OVC017 12/09 A2967 RMK SC8 SLP049

CYWG;2007-09-30 14:00;CYWG 301400Z 32016G22KT 15SM OVC015 12/09 A2971 RMK SC8 SLP061

CYWG;2007-09-30 15:00;CYWG 301500Z 31019KT 15SM OVC015 12/09 A2976 RMK SC8 SLP079

CYWG;2007-09-30 16:00;CYWG 301600Z 32019G25KT 15SM OVC015 12/08 A2980 RMK SC8 SLP095

CYWG;2007-09-30 17:00;CYWG 301700Z 32018G24KT 15SM OVC015 12/08 A2983 RMK SC8 SLP104

CYWG;2007-09-30 18:00;CYWG 301800Z 31015KT 15SM OVC017 13/08 A2984 RMK SC8 SLP109

CYWG;2007-09-30 19:00;CYWG 301900Z 31018G24KT 15SM BKN019 13/08 A2986 RMK SC7 SLP113

CYWG;2007-09-30 20:00;CYWG 302000Z 32017G24KT 15SM BKN019 14/08 A2988 RMK SC6 SLP120

CYWG;2007-09-30 21:00;CYWG 302100Z 32016G21KT 15SM FEW020 14/07 A2991 RMK SC2 SLP132

CYWG;2007-09-30 22:00;CYWG 302200Z 32014G19KT 15SM FEW095 FEW210 14/07 A2993 RMK AC1CI0 SLP140

CYWG;2007-09-30 23:00;CYWG 302300Z 32016G21KT 15SM FEW095 FEW210 14/02 A2995 RMK AC1CI0 SLP147

CYWG;2007-10-01 01:00;CYWG 010100Z 31006KT 15SM FEW250 06/02 A2998 RMK CI1 SLP159

CYWG;2007-10-01 02:00;CYWG 010200Z 33006KT 15SM FEW250 04/02 A3000 RMK CI1 SLP164

CYWG;2007-10-01 03:00;CYWG 010300Z 01005KT 15SM FEW250 03/01 A3000 RMK CI1 SLP167

CYWG;2007-10-01 04:00;CYWG 010400Z 01006KT 15SM SKC 03/01 A3002 RMK SLP174

CYWG;2007-10-01 05:00;CYWG 010500Z 05002KT 15SM SKC 03/01 A3003 RMK SLP177

CYWG;2007-10-01 06:00;CYWG 010600Z 01003KT 15SM SKC 01/01 A3003 RMK SLP179

CYWG;2007-10-01 07:00;CYWG 010700Z 28005KT 15SM SKC M00/M01 A3005 RMK SLP185

CYWG;2007-10-01 08:00;CYWG 010800Z 00000KT 15SM SKC M00/M01 A3007 RMK SLP191

CYWG;2007-10-01 09:00;CYWG 010900Z 15003KT 15SM SKC 02/00 A3007 RMK SLP191

CYWG;2007-10-01 10:00;CYWG 011000Z 16005KT 15SM SKC 03/02 A3007 RMK SLP191

CYWG;2007-10-01 11:00;CYWG 011100Z 14003KT 15SM SKC 03/02 A3007 RMK SLP192

CYWG;2007-10-01 12:00;CYWG 011200Z 16005KT 15SM BKN170 03/03 A3008 RMK AS1 SLP193

CYWG;2007-10-01 13:00;CYWG 011300Z 17006KT 15SM FEW170 OVC220 03/02 A3006 RMK AS1CI3 SLP188

CYWG;2007-10-01 14:00;CYWG 011400Z 18008KT 15SM FEW170 OVC240 06/05 A3006 RMK AS1CI4 SLP189

CYWG;2007-10-01 15:00;CYWG 011500Z 18008KT 15SM BKN240 08/05 A3006 RMK CI2 SLP189

CYWG;2007-10-01 16:00;CYWG 011600Z 17006KT 15SM FEW082 OVC240 11/05 A3004 RMK AS2CI2 SLP182

CYWG;2007-10-01 17:00;CYWG 011700Z 17011KT 15SM FEW082 BKN210 OVC270 15/06 A3000 RMK AS1CS2CI2 SLP170

CYWG;2007-10-01 18:00;CYWG 011800Z 19011G17KT 15SM BKN088 OVC210 17/06 A2998 RMK AS2CS3 SLP160

CYWG;2007-10-01 19:00;CYWG 011900Z 17016KT 15SM FEW090 BKN210 18/05 A2993 RMK AS1CS3 SLP143

CYWG;2007-10-01 20:00;CYWG 012000Z 17014G19KT 15SM FEW090 BKN220 19/04 A2989 RMK AS1CI2 SLP130

CYWG;2007-10-01 21:00;CYWG 012100Z 17015G21KT 15SM FEW090 BKN220 21/05 A2987 RMK AS1CI2 SLP119

CYWG;2007-10-01 22:00;CYWG 012200Z 17019G25KT 15SM FEW090 BKN220 20/06 A2983 RMK AC1CI3 SLP107

CYWG;2007-10-01 23:00;CYWG 012300Z 18021KT 15SM FEW090 FEW220 19/06 A2981 RMK AC1CI1 SLP100

CYWG;2007-10-02 00:00;CYWG 020000Z 16011G16KT 15SM FEW110 BKN220 17/06 A2979 RMK AC1CI2 SLP093

CYWG;2007-10-02 01:00;CYWG 020100Z 15012KT 15SM FEW110 BKN220 16/07 A2977 RMK AC1CI3 SLP086

CYWG;2007-10-02 02:00;CYWG 020200Z 16014KT 15SM FEW110 BKN220 15/07 A2976 RMK AC2CI3 SLP085

CYWG;2007-10-02 03:00;CYWG 020300Z 16014KT 15SM FEW110 BKN220 14/07 A2974 RMK AC2CI3 SLP076

CYWG;2007-10-02 04:00;CYWG 020400Z 16013KT 15SM FEW110 BKN220 13/07 A2972 RMK AC2CI3 SLP069

CYWG;2007-10-02 05:00;CYWG 020500Z 15012KT 15SM FEW110 BKN220 13/06 A2969 RMK AC1CI2 SLP059

CYWG;2007-10-02 06:00;CYWG 020600Z 16011KT 15SM BKN220 13/07 A2966 RMK CI2 SLP047

CYWG;2007-10-02 07:00;CYWG 020700Z 15009KT 15SM FEW140 BKN220 12/07 A2963 RMK AC2CI2 SLP037

CYWG;2007-10-02 08:00;CYWG 020800Z 15006KT 15SM FEW140 BKN220 12/07 A2960 RMK AC2CI2 SLP028

CYWG;2007-10-02 09:00;CYWG 020900Z 15009KT 15SM FEW140 BKN220 12/08 A2957 RMK AC2CI2 SLP014

CYWG;2007-10-02 10:00;CYWG 021000Z 16007KT 15SM FEW140 BKN220 12/09 A2956 RMK AC1CI2 SLP011

CYWG;2007-10-02 11:00;CYWG 021100Z 16007KT 15SM BKN220 12/09 A2953 RMK CI2 SLP003

CYWG;2007-10-02 12:00;CYWG 021200Z 16006KT 15SM FEW140 OVC250 11/09 A2952 RMK AC2CI2 SLP001

CYWG;2007-10-02 13:00;CYWG 021300Z 19002KT 10SM FEW095 BKN250 11/09 A2952 RMK AC2CI2 BR SLP000

CYWG;2007-10-02 14:00;CYWG 021400Z 31005KT 8SM SCT082 BKN250 12/10 A2951 RMK AC3CI1 BR SLP997

CYWG;2007-10-02 15:00;CYWG 021500Z 31007KT 15SM BKN090 OVC250 13/10 A2953 RMK AC7CI1 SLP004

CYWG;2007-10-02 16:00;CYWG 021600Z 32006KT 15SM BKN095 OVC250 14/09 A2953 RMK AC6CI2 SLP003

CYWG;2007-10-02 16:42;CYWG 021642Z 30010KT 15SM -SHRA OVC057 14/ RMK SC8

CYWG;2007-10-02 17:00;CYWG 021700Z 31010KT 6SM -SHRA BR BKN043 OVC074 14/10 A2955 RMK SC5AC3 SLP009

CYWG;2007-10-02 17:31;CYWG 021731Z 30013KT 15SM FEW034 OVC081 15/ RMK SC2AC6

CYWG;2007-10-02 17:47;CYWG 021747Z 30009KT 15SM -SHRA FEW027 OVC072 15/ RMK SC2AC6

CYWG;2007-10-02 18:00;CYWG 021800Z 31008KT 15SM FEW027 SCT085 OVC250 17/10 A2955 RMK SC2AC2CI2 SLP010

CYWG;2007-10-02 19:00;CYWG 021900Z 32016KT 15SM FEW053 BKN080 BKN250 17/07 A2957 RMK SC2AC4CS1 SLP015

CYWG;2007-10-02 20:00;CYWG 022000Z 32020KT 15SM FEW050 SCT080 BKN250 16/07 A2957 RMK SC1AC2CS3 SLP017

CYWG;2007-10-02 21:00;CYWG 022100Z 32019G24KT 15SM FEW093 BKN250 17/07 A2958 RMK AC1CI5 SLP019

CYWG;2007-10-02 22:00;CYWG 022200Z 33016G22KT 15SM FEW048 FEW093 SCT250 17/05 A2960 RMK SC1AC1CI1 SLP027

CYWG;2007-10-02 23:00;CYWG 022300Z 32013G21KT 15SM FEW048 FEW250 16/04 A2961 RMK SC1CI1 TR SC CI SLP031

CYWG;2007-10-03 00:00;CYWG 030000Z 32010KT 15SM FEW250 13/03 A2962 RMK CI1 TR CI SLP036

CYWG;2007-10-03 01:00;CYWG 030100Z 36005KT 15SM SKC 08/02 A2962 RMK SLP036

CYWG;2007-10-03 02:00;CYWG 030200Z 30005KT 15SM SKC 07/02 A2963 RMK SLP038

CYWG;2007-10-03 03:00;CYWG 030300Z 26007KT 15SM SKC 06/02 A2964 RMK SLP045

CYWG;2007-10-03 04:00;CYWG 030400Z 26007KT 15SM SKC 06/02 A2965 RMK SLP046

CYWG;2007-10-03 05:00;CYWG 030500Z 00000KT 15SM SKC 03/01 A2963 RMK SLP041

CYWG;2007-10-03 06:00;CYWG 030600Z 20002KT 15SM SKC 04/02 A2963 RMK SLP039

CYWG;2007-10-03 07:00;CYWG 030700Z 21003KT 15SM SKC 05/02 A2963 RMK SLP038

CYWG;2007-10-03 08:00;CYWG 030800Z 19005KT 15SM SKC 04/01 A2962 RMK SLP035

CYWG;2007-10-03 09:00;CYWG 030900Z 18008KT 15SM SCT120 04/02 A2960 RMK AC2 SLP030

CYWG;2007-10-03 10:00;CYWG 031000Z 18009KT 15SM FEW120 06/03 A2959 RMK AC2 SLP025

CYWG;2007-10-03 11:00;CYWG 031100Z 19011KT 15SM BKN090 08/03 A2958 RMK AC4 SLP023

CYWG;2007-10-03 12:00;CYWG 031200Z 19008KT 15SM BKN094 06/01 A2958 RMK AC4 SLP022

CYWG;2007-10-03 13:00;CYWG 031300Z 19008KT 15SM SCT094 BKN250 06/01 A2957 RMK AC3CI1 SLP021

CYWG;2007-10-03 14:00;CYWG 031400Z 19008KT 15SM FEW100 BKN250 08/02 A2957 RMK AC1CI1 SLP021

CYWG;2007-10-03 15:00;CYWG 031500Z 18010KT 15SM BKN250 10/03 A2956 RMK CI1 SLP018

CYWG;2007-10-03 16:00;CYWG 031600Z 19011KT 15SM BKN250 14/04 A2955 RMK CI1 SLP015

CYWG;2007-10-03 17:00;CYWG 031700Z 19013KT 15SM BKN250 17/05 A2955 RMK CI1 SLP013

CYWG;2007-10-03 18:00;CYWG 031800Z 21013G18KT 15SM BKN250 20/05 A2954 RMK CI2 SLP007

CYWG;2007-10-03 19:00;CYWG 031900Z 20014G20KT 15SM BKN250 19/05 A2953 RMK CI2 SLP004

CYWG;2007-10-03 20:00;CYWG 032000Z 22012G19KT 15SM FEW060 BKN250 22/04 A2950 RMK CF1CI2 SLP995

CYWG;2007-10-03 21:00;CYWG 032100Z 22016KT 15SM FEW060 BKN250 22/03 A2948 RMK CU1CI2 SLP988

CYWG;2007-10-03 22:00;CYWG 032200Z 22013KT 15SM FEW096 BKN250 22/03 A2948 RMK CU2CI1 SLP986

CYWG;2007-10-03 23:00;CYWG 032300Z 21012G17KT 15SM FEW096 BKN250 22/03 A2948 RMK AC2CI2 SLP987

CYWG;2007-10-04 00:00;CYWG 040000Z 25009KT 15SM FEW096 SCT150 BKN250 20/02 A2948 RMK AC2AC2CI1 SLP987

CYWG;2007-10-04 01:00;CYWG 040100Z 21009KT 15SM SCT074 BKN250 18/02 A2951 RMK AC3CI2 SLP995

CYWG;2007-10-04 02:00;CYWG 040200Z 22018KT 15SM -RA OVC076 20/02 A2951 RMK AC8 SLP996

CYWG;2007-10-04 03:00;CYWG 040300Z 25011G16KT 15SM -RA OVC047 18/04 A2953 RMK SC8 SLP004

CYWG;2007-10-04 04:00;CYWG 040400Z 28006KT 15SM OVC086 16/05 A2955 RMK AC8 SLP011

CYWG;2007-10-04 05:00;CYWG 040500Z 27009KT 15SM BKN084 14/05 A2957 RMK AC5 SLP018

CYWG;2007-10-04 06:00;CYWG 040600Z 30009KT 15SM SCT082 12/05 A2961 RMK AC3 SLP029

CYWG;2007-10-04 07:00;CYWG 040700Z 28008KT 15SM FEW080 07/03 A2964 RMK AC2 SLP041

CYWG;2007-10-04 08:00;CYWG 040800Z 28007KT 15SM FEW250 06/03 A2965 RMK CI1 SLP044

CYWG;2007-10-04 09:00;CYWG 040900Z 27007KT 15SM FEW250 07/03 A2968 RMK CI1 SLP053

CYWG;2007-10-04 10:00;CYWG 041000Z 27008KT 15SM FEW250 06/02 A2971 RMK CI1 SLP064

CYWG;2007-10-04 11:00;CYWG 041100Z 27007KT 15SM FEW250 05/02 A2974 RMK CI1 SLP073

CYWG;2007-10-04 12:00;CYWG 041200Z 27008KT 15SM FEW250 04/02 A2977 RMK CI1 SLP084

CYWG;2007-10-04 13:00;CYWG 041300Z 26008KT 15SM FEW100 FEW250 05/02 A2979 RMK AC1CI1 SLP091

CYWG;2007-10-04 14:00;CYWG 041400Z 26010KT 15SM FEW100 07/03 A2982 RMK AC1 SLP102

CYWG;2007-10-04 15:00;CYWG 041500Z 27011KT 15SM FEW100 10/03 A2985 RMK AC1 SLP113

CYWG;2007-10-04 16:00;CYWG 041600Z 29009KT 15SM FEW100 FEW250 14/03 A2987 RMK AC1CI1 SLP118

CYWG;2007-10-04 17:00;CYWG 041700Z 29010KT 15SM FEW100 FEW250 16/02 A2989 RMK AC1CI0 VIS S 5 K SLP124

CYWG;2007-10-04 18:00;CYWG 041800Z 29016KT 15SM FEW036 BKN250 17/01 A2990 RMK CU1CI2 SLP128

CYWG;2007-10-04 19:00;CYWG 041900Z 33014KT 15SM FEW070 BKN250 17/01 A2992 RMK CU1CI2 SLP135

CYWG;2007-10-04 20:00;CYWG 042000Z 34012G17KT 15SM FEW070 FEW150 BKN250 16/01 A2994 RMK AC1AC2CI1 SLP141

CYWG;2007-10-04 21:00;CYWG 042100Z 33011G16KT 15SM FEW070 FEW150 BKN250 17/01 A2996 RMK AC1AC1CI2 SLP149

CYWG;2007-10-04 22:00;CYWG 042200Z 35009KT 15SM FEW070 BKN250 16/01 A2996 RMK AC1CI2 SLP152

CYWG;2007-10-04 23:00;CYWG 042300Z 02006KT 15SM FEW150 BKN250 15/03 A2998 RMK AC1CI2 SLP158

CYWG;2007-10-05 00:00;CYWG 050000Z 06004KT 15SM SCT150 BKN250 11/01 A3001 RMK AC2CI1 SLP171

CYWG;2007-10-05 01:00;CYWG 050100Z 03004KT 15SM FEW150 BKN250 07/01 A3004 RMK AC2CI1 SLP181

CYWG;2007-10-05 02:00;CYWG 050200Z 04008KT 15SM FEW150 BKN250 06/01 A3008 RMK AC1CI1 SLP192

CYWG;2007-10-05 03:00;CYWG 050300Z 04006KT 15SM SCT150 06/01 A3011 RMK AC3 SLP204

CYWG;2007-10-05 04:00;CYWG 050400Z 05006KT 15SM FEW150 BKN250 05/M00 A3014 RMK AC2CI2 SLP215

CYWG;2007-10-05 05:00;CYWG 050500Z 04007KT 15SM FEW150 BKN250 06/03 A3016 RMK AC1CI1 SLP219

CYWG;2007-10-05 06:00;CYWG 050600Z 06009KT 15SM SCT250 06/03 A3016 RMK CI1 SLP219

CYWG;2007-10-05 07:00;CYWG 050700Z 08011KT 15SM BKN110 06/02 A3019 RMK AC2 SLP229

CYWG;2007-10-05 08:00;CYWG 050800Z 07010KT 15SM BKN150 06/02 A3019 RMK AC3 SLP229

CYWG;2007-10-05 09:00;CYWG 050900Z 08010KT 15SM BKN110 06/02 A3019 RMK AC6 SLP229

CYWG;2007-10-05 10:00;CYWG 051000Z 06009KT 15SM BKN110 BKN250 06/02 A3018 RMK AC5CI2 SLP226

CYWG;2007-10-05 11:00;CYWG 051100Z 07008KT 15SM SCT040 BKN110 07/02 A3020 RMK SC3AC3 SLP233

CYWG;2007-10-05 12:00;CYWG 051200Z 08011KT 15SM SCT040 OVC091 07/01 A3021 RMK SC3AC5 SLP238

CYWG;2007-10-05 13:00;CYWG 051300Z 06011KT 15SM BKN073 OVC210 07/01 A3019 RMK AC6CI2 SLP231

CYWG;2007-10-05 14:00;CYWG 051400Z 07008KT 15SM BKN089 OVC110 07/02 A3022 RMK AC4AC4 SLP242

CYWG;2007-10-05 15:00;CYWG 051500Z 05012KT 15SM BKN064 OVC073 07/02 A3019 RMK SC4AC4 SLP234

CYWG;2007-10-05 16:00;CYWG 051600Z 05012KT 15SM SCT064 OVC076 08/03 A3019 RMK SC3AC5 SLP234

CYWG;2007-10-05 17:00;CYWG 051700Z 03017KT 15SM SCT064 OVC120 07/03 A3020 RMK SC2AC6 SLP237

CYWG;2007-10-05 18:00;CYWG 051800Z 05012G20KT 15SM -SHRA BKN091 OVC120 08/03 A3019 RMK AC6AC2 SLP231

CYWG;2007-10-05 18:16;CYWG 051816Z 06013G20KT 15SM OVC090 08/ RMK AC8

CYWG;2007-10-05 19:00;CYWG 051900Z 07014G24KT 15SM OVC087 09/03 A3013 RMK AC8 VIRGA S QUAD SLP212

CYWG;2007-10-05 19:14;CYWG 051914Z 07014G19KT 15SM -SHRA OVC077 09/ RMK AC8

CYWG;2007-10-05 20:00;CYWG 052000Z 06016G21KT 15SM -SHRA FEW050 OVC080 10/04 A3011 RMK SC2AC6 SLP206

CYWG;2007-10-05 21:00;CYWG 052100Z 06015G21KT 15SM OVC068 09/04 A3009 RMK AC8 SLP199

CYWG;2007-10-05 21:23;CYWG 052123Z 05015G21KT 15SM -SHRA OVC068 09/ RMK AC8

CYWG;2007-10-05 22:00;CYWG 052200Z 06017G24KT 15SM -SHRA BKN064 OVC086 09/03 A3010 RMK AC6AC2 SLP201

CYWG;2007-10-05 22:34;CYWG 052234Z 06014G25KT 15SM OVC056 09/ RMK SC8

CYWG;2007-10-05 23:00;CYWG 052300Z 05016KT 15SM OVC050 08/02 A3011 RMK SC8 SLP203

CYWG;2007-10-05 23:48;CYWG 052348Z CCA 05018G24KT 15SM -RA OVC035 08/ RMK SC8

CYWG;2007-10-06 00:00;CYWG 060000Z 05013G18KT 10SM -RA SCT026 OVC038 07/02 A3011 RMK SC3SC5 SLP206

CYWG;2007-10-06 01:00;CYWG 060100Z 06017KT 6SM -RA BKN026 OVC040 05/03 A3011 RMK SC6SC2 SLP204

CYWG;2007-10-06 02:00;CYWG 060200Z 06019G27KT 15SM -RA OVC026 05/02 A3009 RMK SC8 SLP199

CYWG;2007-10-06 02:12;CYWG 060212Z 07022G29KT 15SM OVC026 RMK SC8

CYWG;2007-10-06 03:00;CYWG 060300Z 07020G29KT 15SM FEW013 OVC026 05/02 A3007 RMK SF2SC6 SLP193

CYWG;2007-10-06 04:00;CYWG 060400Z 06014KT 15SM OVC022 06/02 A3008 RMK SC8 SLP196

CYWG;2007-10-06 05:00;CYWG 060500Z 06014G20KT 15SM OVC020 06/02 A3008 RMK SC8 SLP194

CYWG;2007-10-06 06:00;CYWG 060600Z 07016G22KT 15SM OVC018 06/02 A3002 RMK SC8 PRESFR SLP173

CYWG;2007-10-06 07:00;CYWG 060700Z 08012G20KT 15SM OVC016 06/02 A3000 RMK SC8 SLP169

CYWG;2007-10-06 08:00;CYWG 060800Z 06013KT 9SM OVC014 06/03 A3001 RMK ST8 SLP170

CYWG;2007-10-06 09:00;CYWG 060900Z 06011G16KT 9SM OVC014 06/03 A3000 RMK ST8 SLP168

CYWG;2007-10-06 10:00;CYWG 061000Z 07011G16KT 9SM OVC014 06/03 A2997 RMK ST8 SLP158

CYWG;2007-10-06 11:00;CYWG 061100Z 09012G17KT 15SM OVC014 06/04 A2996 RMK SC8 SLP154

CYWG;2007-10-06 12:00;CYWG 061200Z 09010G16KT 15SM BKN012 OVC024 06/04 A2996 RMK SC6SC2 SLP153

CYWG;2007-10-06 13:00;CYWG 061300Z 09012KT 15SM BKN012 OVC022 07/04 A2994 RMK SC6SC2 SLP146

CYWG;2007-10-06 14:00;CYWG 061400Z 08011G16KT 15SM BKN012 OVC020 07/05 A2992 RMK SC6SC2 SLP141

CYWG;2007-10-06 15:00;CYWG 061500Z 08013KT 15SM OVC012 07/05 A2991 RMK SC8 SLP136

CYWG;2007-10-06 16:00;CYWG 061600Z 08013KT 15SM OVC008 07/06 A2989 RMK SC8 SLP129

CYWG;2007-10-06 16:13;CYWG 061613Z 08014KT 5SM BR OVC008 RMK SC8

CYWG;2007-10-06 17:00;CYWG 061700Z 08013KT 4SM -DZ BR OVC006 08/06 A2986 RMK ST8 SLP120

CYWG;2007-10-06 17:47;CYWG 061747Z 09012G17KT 10SM OVC006 08/ RMK ST8

CYWG;2007-10-06 18:00;CYWG 061800Z 09014G19KT 10SM OVC007 09/07 A2981 RMK ST8 SLP104

CYWG;2007-10-06 19:00;CYWG 061900Z 10011G16KT 10SM OVC010 09/07 A2979 RMK ST8 SLP095

CYWG;2007-10-06 19:29;CYWG 061929Z 10018KT 6SM -DZ BR OVC010 09/ RMK ST8

CYWG;2007-10-06 20:00;CYWG 062000Z 09011G18KT 10SM OVC008 09/08 A2976 RMK ST8 SLP086

CYWG;2007-10-06 21:00;CYWG 062100Z 10012KT 10SM OVC008 10/08 A2974 RMK ST8 SLP079

CYWG;2007-10-06 21:39;CYWG 062139Z 10010KT 5SM -DZ BR OVC008 10/ RMK ST8

CYWG;2007-10-06 22:00;CYWG 062200Z 09006KT 5SM -RA BR OVC007 09/08 A2974 RMK ST8 SLP079

CYWG;2007-10-06 22:37;CYWG 062237Z 07008KT 2SM -DZ BR OVC007 09/ RMK ST8

CYWG;2007-10-06 23:00;CYWG 062300Z CCA 08007KT 4SM -DZ BR OVC006 09/09 A2974 RMK ST8 SLP078

CYWG;2007-10-07 00:00;CYWG 070000Z 08004KT 2 1/2SM -DZ BR OVC004 09/09 A2974 RMK ST8 SLP079

CYWG;2007-10-07 00:43;CYWG 070043Z 03005KT 4SM BR OVC003 09/ RMK ST8 CIG RGD

CYWG;2007-10-07 01:00;CYWG 070100Z 01006KT 4SM BR OVC003 09/08 A2975 RMK ST8 CIG RGD SLP081

CYWG;2007-10-07 01:25;CYWG 070125Z 06008KT 6SM BR OVC002 08/ RMK ST8 CIG RGD

CYWG;2007-10-07 02:00;CYWG 070200Z 01006KT 6SM BR OVC003 08/08 A2976 RMK ST8 CIG RGD SLP086

CYWG;2007-10-07 02:32;CYWG 070232Z 02006KT 4SM -DZ BR OVC002 08/ RMK ST8

CYWG;2007-10-07 03:00;CYWG 070300Z 03007KT 2SM -DZ BR OVC002 08/08 A2977 RMK ST8 SLP088

CYWG;2007-10-07 03:09;CYWG 070309Z 03006KT 1SM R13/P6000FT/D R36/P6000FT/D -DZ BR OVC001 08/ RMK ST8

CYWG;2007-10-07 04:00;CYWG 070400Z 03003KT 1 1/2SM R13/6000FT/U -DZ BR OVC002 08/08 A2977 RMK ST8 SLP087

CYWG;2007-10-07 04:22;CYWG 070422Z 01003KT 2SM R13/6000FT/N BR OVC002 08/ RMK ST8

CYWG;2007-10-07 04:34;CYWG 070434Z 36003KT 1 3/4SM R13/5500FT/N R36/6000FT/D BR OVC001 08/ RMK ST8

CYWG;2007-10-07 05:00;CYWG 070500Z CCA 34005KT 1 1/2SM BR OVC002 08/08 A2977 RMK ST8 SLP090

CYWG;2007-10-07 05:31;CYWG 070531Z 32009KT 4SM BR OVC002 08/ RMK ST8

CYWG;2007-10-07 05:54;CYWG 070554Z 34008KT 1 1/4SM BR VV001 08/ RMK FG8

CYWG;2007-10-07 06:00;CYWG 070600Z 34007KT 5/8SM R13/P6000FT/D R36/P6000FT/D BR VV001 08/08 A2977 RMK FG8 SLP089

CYWG;2007-10-07 06:15;CYWG 070615Z 32004KT 1SM R13/P6000FT/N R36/P6000FT/U BR OVC002 08/ RMK ST8

CYWG;2007-10-07 06:28;CYWG 070628Z 31006KT 1SM R13/P6000FT/D R36/P6000FT/D BR OVC001 08/ RMK ST8

CYWG;2007-10-07 06:37;CYWG 070637Z 31006KT 3/4SM R13/P6000FT/U R36/P6000FT/D BR OVC002 08/ RMK ST8

CYWG;2007-10-07 06:51;CYWG 070651Z 32007KT 5/8SM R13/5500FT/D R36/4500VP6000FT/D BR VV001 08/ RMK FG8

CYWG;2007-10-07 07:00;CYWG 070700Z 33008KT 1/2SM R13/3500V5000FT/D R36/4500FT/D FG VV001 08/08 A2978 RMK FG8 SLP092

CYWG;2007-10-07 07:17;CYWG 070717Z 30008KT 3/4SM R13/4500VP6000FT/U R36/P6000FT/U BR OVC001 08/ RMK ST8

CYWG;2007-10-07 07:22;CYWG 070722Z 30009KT 4SM BR OVC002 08/ RMK ST8 VIS N-NE 1 BR NW 6 BR

CYWG;2007-10-07 07:40;CYWG 070740Z 31011KT 6SM BR BKN003 OVC031 08/ RMK ST6SC2

CYWG;2007-10-07 07:50;CYWG 070750Z 31010KT 9SM BKN004 OVC031 08/ RMK ST6SC2 BR

CYWG;2007-10-07 08:00;CYWG 070800Z 29011KT 15SM BKN006 OVC031 08/08 A2986 RMK SF4SC4 PRESRR SLP119

CYWG;2007-10-07 08:18;CYWG 070818Z 28008KT 15SM BKN005 OVC026 08/ RMK SF6SC2 CIG RGD

CYWG;2007-10-07 08:30;CYWG 070830Z 30010KT 6SM -DZ OVC005 08/ RMK ST8

CYWG;2007-10-07 08:40;CYWG 070840Z 31013KT 4SM -DZ OVC004 08/ RMK ST8

CYWG;2007-10-07 08:46;CYWG 070846Z 31012KT 2 1/2SM -DZ OVC003 08/ RMK ST8

CYWG;2007-10-07 09:00;CYWG 070900Z 32012KT 2 1/2SM -DZ OVC003 08/07 A2989 RMK ST8 SLP128

CYWG;2007-10-07 09:05;CYWG 070905Z 33013KT 4SM -DZ OVC003 08/ RMK ST8

CYWG;2007-10-07 09:15;CYWG 070915Z 33012KT 7SM -DZ SCT003 BKN006 OVC033 07/ RMK SF2SF2SC4

CYWG;2007-10-07 09:23;CYWG 070923Z 32013KT 15SM FEW003 SCT007 OVC033 07/ RMK SF1SF2SC6

CYWG;2007-10-07 09:37;CYWG 070937Z 33014KT 15SM BKN007 BKN012 OVC033 07/ RMK SF6SF2SC1

CYWG;2007-10-07 10:00;CYWG 071000Z 33013KT 15SM FEW007 OVC029 07/06 A2987 RMK SF1SC7 SLP123

CYWG;2007-10-07 11:00;CYWG 071100Z 33012KT 15SM FEW007 OVC027 07/06 A2987 RMK SF1SC7 SLP123

CYWG;2007-10-07 12:00;CYWG 071200Z 33011KT 15SM FEW007 BKN033 07/05 A2989 RMK SF1SC6 SLP128

CYWG;2007-10-07 13:00;CYWG 071300Z 33008KT 15SM SCT014 BKN029 06/04 A2991 RMK SC3SC4 SLP136

CYWG;2007-10-07 13:24;CYWG 071324Z 33007KT 15SM BKN012 BKN080 06/ RMK SC5AC1

CYWG;2007-10-07 14:00;CYWG 071400Z 31009KT 15SM BKN010 BKN080 07/05 A2996 RMK SC6AC2 SLP151

CYWG;2007-10-07 14:17;CYWG 071417Z 31008KT 15SM BKN008 BKN080 07/ RMK SC7AC1

CYWG;2007-10-07 15:00;CYWG 071500Z 33011KT 15SM OVC011 07/05 A2999 RMK SC8 CIG RAG SLP165

CYWG;2007-10-07 16:00;CYWG 071600Z 35007KT 15SM OVC013 08/05 A3001 RMK SC8 CIG RAG SLP171

CYWG;2007-10-07 17:00;CYWG 071700Z 33008KT 15SM OVC015 08/05 A3003 RMK SC8 SLP175

CYWG;2007-10-07 18:00;CYWG 071800Z 34009KT 15SM OVC017 09/05 A3005 RMK SC8 SLP182

CYWG;2007-10-07 19:00;CYWG 071900Z 36006KT 15SM OVC017 09/05 A3004 RMK SC8 SLP181

CYWG;2007-10-07 20:00;CYWG 072000Z 02007KT 15SM OVC021 10/05 A3003 RMK SC8 SLP178

CYWG;2007-10-07 21:00;CYWG 072100Z 03010G15KT 15SM OVC021 10/05 A3004 RMK SC8 SLP180

CYWG;2007-10-07 22:00;CYWG 072200Z 03009KT 15SM OVC021 10/05 A3004 RMK SC8 SLP180

CYWG;2007-10-07 23:00;CYWG 072300Z 04009KT 15SM OVC019 09/05 A3005 RMK SC8 SLP183

CYWG;2007-10-08 00:00;CYWG 080000Z 05008KT 15SM OVC021 09/05 A3005 RMK SC8 SLP185

CYWG;2007-10-08 01:00;CYWG 080100Z 05008KT 15SM OVC023 08/04 A3006 RMK SC8 SLP187

CYWG;2007-10-08 02:00;CYWG 080200Z 04007KT 15SM OVC016 08/05 A3006 RMK SC8 SLP187

CYWG;2007-10-08 03:00;CYWG 080300Z 02006KT 15SM BKN016 08/05 A3006 RMK SC7 SLP187

CYWG;2007-10-08 04:00;CYWG 080400Z 01004KT 15SM OVC014 07/05 A3005 RMK SC8 SLP185

CYWG;2007-10-08 05:00;CYWG 080500Z 05011KT 7SM OVC012 07/05 A3003 RMK ST8 BR VIRGA SLP178

CYWG;2007-10-08 06:00;CYWG 080600Z 05009KT 15SM BKN014 BKN059 08/05 A3000 RMK ST6SC2 SLP168

CYWG;2007-10-08 07:00;CYWG 080700Z 05006KT 15SM BKN014 OVC059 08/05 A3001 RMK ST7SC1 SLP169

CYWG;2007-10-08 08:00;CYWG 080800Z 05006KT 15SM BKN016 OVC059 08/06 A2999 RMK SC7SC1 SLP162

CYWG;2007-10-08 09:00;CYWG 080900Z 04006KT 6SM -DZ OVC016 08/06 A2996 RMK ST8 SLP151

CYWG;2007-10-08 09:25;CYWG 080925Z 04008KT 5SM -RA BR OVC017 07/ RMK SC8

CYWG;2007-10-08 10:00;CYWG 081000Z 05006KT 15SM FEW012 OVC022 07/06 A2993 RMK SF1SC7 SLP143

CYWG;2007-10-08 11:00;CYWG 081100Z 02003KT 6SM -DZ BR OVC023 07/06 A2993 RMK SC8 SLP143

CYWG;2007-10-08 11:20;CYWG 081120Z 02006KT 2SM -DZ BR SCT003 OVC021 07/ RMK SF3SC5

CYWG;2007-10-08 11:47;CYWG 081147Z 03007KT 2 1/2SM -DZ BR BKN004 OVC019 07/ RMK SF5SC3

CYWG;2007-10-08 12:00;CYWG 081200Z 03009KT 4SM -DZ BR BKN004 OVC019 07/06 A2989 RMK SF6SC2 SLP129

CYWG;2007-10-08 13:00;CYWG 081300Z 03008KT 2SM -RA BR OVC003 07/06 A2988 RMK ST8 SLP125

CYWG;2007-10-08 13:26;CYWG 081326Z 03008KT 4SM -RA BR OVC002 07/ RMK SF8

CYWG;2007-10-08 14:00;CYWG 081400Z 03009KT 5SM -RA BR OVC003 07/06 A2984 RMK SF8 SLP114

CYWG;2007-10-08 14:16;CYWG 081416Z 02010KT 6SM -RA BR OVC004 07/ RMK SF8

CYWG;2007-10-08 15:00;CYWG 081500Z 04011KT 8SM -RA OVC005 07/06 A2981 RMK SF8 SLP104

CYWG;2007-10-08 15:38;CYWG 081538Z 03013KT 8SM -RA OVC006 07/ RMK SF8

CYWG;2007-10-08 16:00;CYWG 081600Z 04009G16KT 8SM -RA OVC006 07/06 A2979 RMK SF8 SLP097

CYWG;2007-10-08 17:00;CYWG 081700Z 03010KT 8SM -RA OVC007 06/05 A2977 RMK SF8 SLP090

CYWG;2007-10-08 18:00;CYWG 081800Z 02007KT 8SM -RA OVC006 06/05 A2976 RMK SF8 SLP086

CYWG;2007-10-08 19:00;CYWG 081900Z 36009KT 6SM -RA BR OVC008 06/05 A2974 RMK SF8 SLP080

CYWG;2007-10-08 20:00;CYWG 082000Z 01013KT 6SM -RA BR BKN006 OVC056 06/05 A2972 RMK SF6NS2 SLP071

CYWG;2007-10-08 20:06;CYWG 082006Z 36011G16KT 6SM RA BR BKN006 OVC056 06/ RMK SF6NS2

CYWG;2007-10-08 20:37;CYWG 082037Z 34015KT 6SM -RA BR BKN007 BKN019 OVC056 05/ RMK SF6SC1NS2

CYWG;2007-10-08 21:00;CYWG 082100Z 34015KT 6SM -RA BR BKN008 OVC056 05/04 A2972 RMK SF6NS2 SLP072

CYWG;2007-10-08 22:00;CYWG 082200Z 33015KT 6SM -RA BR OVC009 05/04 A2972 RMK SF8 SLP073

CYWG;2007-10-08 22:51;CYWG 082251Z 32015KT 6SM -RA BR OVC011 05/ RMK SF8

CYWG;2007-10-08 23:00;CYWG 082300Z 33015KT 6SM -RA BR OVC013 04/03 A2974 RMK SF8 SLP079

CYWG;2007-10-09 00:00;CYWG 090000Z 32018KT 8SM -RA OVC010 04/02 A2974 RMK SF8 SLP078

CYWG;2007-10-09 00:39;CYWG 090039Z 32016KT 8SM -RA OVC008 03/ RMK SF8

CYWG;2007-10-09 01:00;CYWG 090100Z 32015KT 8SM -RA OVC008 03/02 A2974 RMK SF8 SLP080

CYWG;2007-10-09 02:00;CYWG 090200Z 32016G21KT 8SM -RA OVC008 03/01 A2975 RMK SF8 SLP083

CYWG;2007-10-09 03:00;CYWG 090300Z 33017G22KT 7SM -RA OVC008 02/01 A2977 RMK ST8 SLP089

CYWG;2007-10-09 04:00;CYWG 090400Z 32013G19KT 6SM -RA BR OVC007 02/01 A2978 RMK ST8 SLP094

CYWG;2007-10-09 05:00;CYWG 090500Z 32020KT 6SM -RA BR OVC012 01/00 A2980 RMK ST8 SLP100

CYWG;2007-10-09 05:14;CYWG 090514Z 32020KT 4SM -RA BR OVC008 02/ RMK ST8

CYWG;2007-10-09 06:00;CYWG 090600Z 32021G26KT 4SM -RASN OVC007 02/01 A2981 RMK SF8 SLP105

CYWG;2007-10-09 06:10;CYWG 090610Z 33023G28KT 7SM -RA OVC007 02/ RMK SF8 BR

CYWG;2007-10-09 07:00;CYWG 090700Z 32021G26KT 9SM -RA OVC009 03/01 A2983 RMK SF8 SLP112

CYWG;2007-10-09 07:29;CYWG 090729Z 34021G29KT 9SM -RA BKN010 OVC023 03/ RMK SF6SC2

CYWG;2007-10-09 08:00;CYWG 090800Z 33024KT 15SM BKN012 OVC093 03/01 A2985 RMK SF7AC1 SLP119

CYWG;2007-10-09 09:00;CYWG 090900Z 33020G27KT 15SM -SHRA BKN010 BKN047 OVC070 03/01 A2988 RMK SF5SC2AC1 SLP129

CYWG;2007-10-09 10:00;CYWG 091000Z 32019G25KT 15SM -RA BKN012 BKN053 03/02 A2992 RMK SF6SC2 SLP141

CYWG;2007-10-09 10:16;CYWG 091016Z 32019G27KT 15SM BKN012 BKN053 03/ RMK SF6SC2

CYWG;2007-10-09 11:00;CYWG 091100Z 33023KT 15SM -DZ OVC018 04/02 A2995 RMK SC8 SLP150

CYWG;2007-10-09 11:22;CYWG 091122Z 33026KT 15SM BKN016 OVC051 04/ RMK SC7SC1

CYWG;2007-10-09 12:00;CYWG 091200Z 33021G27KT 15SM BKN016 OVC063 04/02 A2998 RMK SC6AC2 SLP161

CYWG;2007-10-09 13:00;CYWG 091300Z 33023G29KT 15SM BKN014 OVC067 04/02 A3001 RMK SC7AC1 SLP173

CYWG;2007-10-09 14:00;CYWG 091400Z 33022G28KT 15SM OVC012 04/02 A3004 RMK SC8 SLP183

CYWG;2007-10-09 15:00;CYWG 091500Z 33018G27KT 15SM BKN012 OVC082 05/02 A3008 RMK SC7AC1 SLP195

CYWG;2007-10-09 16:00;CYWG 091600Z 34022G28KT 15SM OVC014 05/03 A3011 RMK SC8 SLP206

CYWG;2007-10-09 16:50;CYWG 091650Z 33020G26KT 15SM OVC016 06/ RMK SC8

CYWG;2007-10-09 17:00;CYWG 091700Z 34018G24KT 15SM OVC016 06/03 A3013 RMK SC8 SLP214

CYWG;2007-10-09 18:00;CYWG 091800Z 34021G28KT 15SM OVC018 07/03 A3016 RMK SC8 SLP223

CYWG;2007-10-09 19:00;CYWG 091900Z 33016G25KT 15SM BKN020 OVC070 07/04 A3016 RMK SC7AC1 SLP224

CYWG;2007-10-09 19:09;CYWG 091909Z CCA 33024KT 12SM -DZ BKN017 OVC070 06/ RMK SC7AC1

CYWG;2007-10-09 19:42;CYWG 091942Z 34018G26KT 6SM -DZ OVC013 RMK SC8

CYWG;2007-10-09 20:00;CYWG 092000Z 34016G24KT 4SM -DZ OVC011 06/04 A3018 RMK SC8 SLP231

CYWG;2007-10-09 21:00;CYWG 092100Z 34020KT 12SM -DZ OVC018 08/04 A3019 RMK SC8 SLP235

CYWG;2007-10-09 22:00;CYWG 092200Z 35019G26KT 15SM -DZ OVC021 07/03 A3021 RMK SC8 SLP240

CYWG;2007-10-09 23:00;CYWG 092300Z 36016KT 15SM -DZ BKN018 BKN090 07/04 A3023 RMK SC6AC1 SLP246

CYWG;2007-10-09 23:28;CYWG 092328Z 35020KT 15SM BKN021 07/ RMK SC7

CYWG;2007-10-10 00:00;CYWG 100000Z 35017G24KT 15SM BKN027 06/03 A3025 RMK SC6 SLP254

CYWG;2007-10-10 01:00;CYWG 100100Z 36019KT 15SM BKN023 06/02 A3027 RMK SC5 SLP260

CYWG;2007-10-10 02:00;CYWG 100200Z 36016G21KT 15SM BKN019 06/02 A3028 RMK SC6 SLP264

CYWG;2007-10-10 02:40;CYWG 100240Z 36015KT 12SM -DZ BKN015 OVC030 05/ RMK SC6SC2

CYWG;2007-10-10 03:00;CYWG 100300Z 36012KT 15SM BKN013 OVC032 05/03 A3029 RMK SC6SC2 SLP269

CYWG;2007-10-10 04:00;CYWG 100400Z 35014KT 15SM -DZ BKN011 OVC030 05/03 A3030 RMK SC6SC2 SLP271

CYWG;2007-10-10 04:46;CYWG 100446Z 01018KT 15SM BKN018 OVC030 05/ RMK SC6SC2

CYWG;2007-10-10 05:00;CYWG 100500Z 36010G18KT 15SM OVC018 05/02 A3032 RMK SC8 SLP276

CYWG;2007-10-10 06:00;CYWG 100600Z 01015KT 15SM OVC022 05/02 A3033 RMK SC8 SLP279

CYWG;2007-10-10 07:00;CYWG 100700Z 36011G17KT 15SM OVC020 05/01 A3034 RMK SC8 SLP282

CYWG;2007-10-10 08:00;CYWG 100800Z 01013G18KT 15SM OVC018 04/01 A3035 RMK SC8 SLP286

CYWG;2007-10-10 09:00;CYWG 100900Z 36011G17KT 15SM OVC023 04/01 A3035 RMK SC8 SLP288

CYWG;2007-10-10 10:00;CYWG 101000Z 01013G18KT 15SM OVC017 04/01 A3036 RMK SC8 SLP291

CYWG;2007-10-10 11:00;CYWG 101100Z 36010G15KT 15SM OVC019 03/00 A3037 RMK SC8 SLP295

CYWG;2007-10-10 12:00;CYWG 101200Z 36011KT 15SM OVC015 03/01 A3038 RMK SC8 SLP297

CYWG;2007-10-10 13:00;CYWG 101300Z 36009KT 15SM OVC013 03/01 A3038 RMK SC8 SLP298

CYWG;2007-10-10 14:00;CYWG 101400Z 01009KT 15SM OVC013 03/01 A3038 RMK SC8 SLP300

CYWG;2007-10-10 15:00;CYWG 101500Z 01012KT 15SM OVC011 04/01 A3039 RMK SC8 SLP303

CYWG;2007-10-10 16:00;CYWG 101600Z 01010G15KT 15SM OVC010 04/02 A3039 RMK SC8 SLP303

CYWG;2007-10-10 17:00;CYWG 101700Z 03012KT 15SM OVC012 05/02 A3039 RMK SC8 SLP302

CYWG;2007-10-10 17:46;CYWG 101746Z 05014KT 15SM OVC016 05/ RMK SC8

CYWG;2007-10-10 18:00;CYWG 101800Z 03013KT 15SM BKN016 06/01 A3038 RMK SC7 SLP298

CYWG;2007-10-10 20:00;CYWG 102000Z 03011G16KT 15SM OVC018 06/01 A3037 RMK SC8 SLP295

CYWG;2007-10-10 21:00;CYWG 102100Z 04009KT 15SM OVC020 06/02 A3036 RMK SC8 SLP292

CYWG;2007-10-10 22:00;CYWG 102200Z 04009KT 15SM OVC022 06/02 A3035 RMK SC8 SLP289

CYWG;2007-10-10 23:00;CYWG 102300Z 07009KT 15SM BKN023 07/02 A3034 RMK SC7 SLP285

CYWG;2007-10-11 00:00;CYWG 110000Z 08010KT 15SM BKN023 06/02 A3034 RMK SC7 SLP285

CYWG;2007-10-11 01:00;CYWG 110100Z 08009KT 15SM OVC025 06/02 A3033 RMK SC8 SLP280

CYWG;2007-10-11 02:00;CYWG 110200Z 09009KT 15SM OVC025 06/02 A3032 RMK SC8 SLP278

CYWG;2007-10-11 03:00;CYWG 110300Z 10012KT 15SM OVC023 06/02 A3031 RMK SC8 SLP274

CYWG;2007-10-11 04:00;CYWG 110400Z 10008KT 15SM OVC023 06/02 A3030 RMK SC8 SLP271

CYWG;2007-10-11 05:00;CYWG 110500Z 12010KT 15SM OVC025 06/02 A3030 RMK SC8 SLP270

CYWG;2007-10-11 08:00;CYWG 110800Z 11006KT 15SM OVC024 06/02 A3030 RMK SC8 SLP269

CYWG;2007-10-11 09:00;CYWG 110900Z 12009KT 15SM OVC026 06/02 A3029 RMK SC8 SLP266

CYWG;2007-10-11 10:00;CYWG 111000Z 11009KT 15SM OVC026 06/02 A3028 RMK SC8 SLP264

CYWG;2007-10-11 11:00;CYWG 111100Z 12010KT 15SM OVC026 06/02 A3027 RMK SC8 SLP260

CYWG;2007-10-11 12:00;CYWG 111200Z 10010KT 15SM OVC024 05/02 A3026 RMK SC8 SLP257

CYWG;2007-10-11 13:00;CYWG 111300Z 13014KT 15SM OVC018 05/02 A3025 RMK SC8 SLP253

CYWG;2007-10-11 14:00;CYWG 111400Z 13011KT 15SM OVC012 05/03 A3025 RMK SC8 SLP253

CYWG;2007-10-11 14:29;CYWG 111429Z 14009KT 12SM -DZ OVC010 05/ RMK SC8

CYWG;2007-10-11 15:00;CYWG 111500Z 17010KT 12SM -DZ OVC010 05/03 A3025 RMK SC8 SLP254

CYWG;2007-10-11 15:49;CYWG 111549Z 14011G18KT 12SM -DZ OVC016 06/ RMK SC8

CYWG;2007-10-11 16:00;CYWG 111600Z 15014KT 12SM -DZ OVC016 06/02 A3022 RMK SC8 SLP244

CYWG;2007-10-11 16:40;CYWG 111640Z 15012G18KT 15SM OVC016 06/ RMK SC8

CYWG;2007-10-11 17:00;CYWG 111700Z 17013KT 15SM OVC016 06/02 A3022 RMK SC8 SLP243

CYWG;2007-10-11 18:00;CYWG 111800Z 15012KT 15SM OVC020 06/02 A3019 RMK SC8 SLP234

CYWG;2007-10-11 19:00;CYWG 111900Z 15012G17KT 15SM BKN020 07/02 A3015 RMK SC7 SLP220

CYWG;2007-10-11 20:00;CYWG 112000Z 17009KT 15SM OVC022 07/02 A3015 RMK SC8 SLP219

CYWG;2007-10-11 21:00;CYWG 112100Z 14010KT 15SM OVC022 07/02 A3013 RMK SC8 SLP212

CYWG;2007-10-11 22:00;CYWG 112200Z 16006KT 15SM OVC024 07/02 A3012 RMK SC8 SLP208

CYWG;2007-10-11 23:00;CYWG 112300Z 16007KT 15SM OVC024 07/02 A3009 RMK SC8 SLP200

CYWG;2007-10-12 00:00;CYWG 120000Z 18005KT 15SM OVC024 06/02 A3009 RMK SC8 SLP200

CYWG;2007-10-12 00:02;CYWG 120002Z 18006KT 15SM -SHRA OVC024 06/ RMK SC8 CVCTV CLD EMBDD

CYWG;2007-10-12 01:00;CYWG 120100Z 12008KT 15SM -SHRA OVC026 06/03 A3009 RMK SC8 CVCTV CLD EMBD SLP197

CYWG;2007-10-12 01:17;CYWG 120117Z 13008KT 15SM OVC026 06/ RMK SC8

CYWG;2007-10-12 02:00;CYWG 120200Z 14007KT 15SM OVC030 06/03 A3009 RMK SC8 SLP197

CYWG;2007-10-12 03:00;CYWG 120300Z 15008KT 15SM OVC024 06/03 A3008 RMK SC8 SLP195

CYWG;2007-10-12 04:00;CYWG 120400Z 14009KT 15SM BKN024 OVC092 06/03 A3006 RMK SC7AC1 SLP189

CYWG;2007-10-12 05:00;CYWG 120500Z 15007KT 15SM SCT032 OVC092 06/03 A3005 RMK SC3AC5 SLP186

CYWG;2007-10-12 06:00;CYWG 120600Z 15007KT 15SM SCT030 BKN082 OVC260 06/03 A3004 RMK SC3AC3CI2 SLP183

CYWG;2007-10-12 07:00;CYWG 120700Z 15007KT 15SM FEW034 OVC080 05/03 A3004 RMK SC2AC6 SLP181

CYWG;2007-10-12 08:00;CYWG 120800Z 15006KT 15SM BKN026 OVC080 06/03 A3002 RMK SC6AC2 SLP175

CYWG;2007-10-12 09:00;CYWG 120900Z 15007KT 15SM OVC018 06/03 A3000 RMK SC8 SLP169

CYWG;2007-10-12 10:00;CYWG 121000Z 16007KT 15SM OVC016 06/03 A2999 RMK SC8 SLP165

CYWG;2007-10-12 11:00;CYWG 121100Z 17005KT 15SM OVC018 06/03 A2999 RMK SC8 SLP165

CYWG;2007-10-12 12:00;CYWG 121200Z CCA 00000KT 12SM FEW010 OVC027 05/05 A2994 RMK SF1SC7 BR VIA YWG FIC SLP156

CYWG;2007-10-12 13:00;CYWG 121300Z 16007KT 15SM SCT022 OVC035 06/03 A2998 RMK SC3SC5 SLP160

CYWG;2007-10-12 14:00;CYWG 121400Z 18009KT 15SM BKN022 OVC095 06/04 A2998 RMK SC6AC2 SLP160

CYWG;2007-10-12 15:00;CYWG 121500Z 18009KT 15SM OVC022 07/04 A2998 RMK SC8 SLP160

CYWG;2007-10-12 16:00;CYWG 121600Z 18010KT 15SM BKN028 OVC070 07/04 A2997 RMK SC6AC2 SLP158

CYWG;2007-10-12 17:00;CYWG 121700Z 21008KT 15SM SCT014 BKN028 OVC072 08/05 A2996 RMK SC3SC3AC2 SLP156

CYWG;2007-10-12 18:00;CYWG 121800Z 19008KT 15SM BKN014 OVC050 09/06 A2995 RMK SC6SC2 SLP150

CYWG;2007-10-12 19:00;CYWG 121900Z 17008KT 15SM BKN014 OVC050 09/06 A2995 RMK SC6SC2 SLP149

CYWG;2007-10-12 20:00;CYWG 122000Z 16007KT 15SM BKN016 OVC040 09/06 A2994 RMK SC6SC2 SLP147

CYWG;2007-10-12 21:00;CYWG 122100Z 17006KT 15SM OVC016 10/06 A2993 RMK SC8 SLP143

CYWG;2007-10-12 22:00;CYWG 122200Z 20004KT 15SM OVC016 10/06 A2993 RMK SC8 SLP143

CYWG;2007-10-12 23:00;CYWG 122300Z 19005KT 6SM -DZ OVC016 09/07 A2993 RMK SC8 SLP144

CYWG;2007-10-13 00:00;CYWG 130000Z 17003KT 6SM -DZ OVC015 08/07 A2993 RMK SC8 SLP145

CYWG;2007-10-13 01:00;CYWG 130100Z 18005KT 10SM OVC015 09/07 A2993 RMK SC8 SLP145

CYWG;2007-10-13 02:00;CYWG 130200Z 16002KT 10SM OVC015 08/07 A2994 RMK SC8 SLP147

CYWG;2007-10-13 03:00;CYWG 130300Z 18002KT 10SM OVC015 08/07 A2994 RMK SC8 SLP148

CYWG;2007-10-13 04:00;CYWG 130400Z 19004KT 10SM BKN017 OVC047 08/06 A2995 RMK SC7SC1 SLP149

CYWG;2007-10-13 05:00;CYWG 130500Z 20003KT 15SM BKN017 OVC047 08/06 A2995 RMK SC7SC1 SLP151

CYWG;2007-10-13 06:00;CYWG 130600Z 22003KT 15SM BKN049 OVC071 08/07 A2996 RMK SC7AC1 SLP151

CYWG;2007-10-13 07:00;CYWG 130700Z 24002KT 8SM BKN049 07/06 A2997 RMK SC6 SLP155

CYWG;2007-10-13 08:00;CYWG 130800Z 28003KT 6SM BR FEW050 05/05 A2997 RMK SC2 SLP157

CYWG;2007-10-13 09:00;CYWG 130900Z 00000KT 6SM R13/2000FT/N BR FEW050 04/03 A2998 RMK SC1 VIS 2 NW SLP159

CYWG;2007-10-13 09:27;CYWG 130927Z 30002KT 2 1/2SM R13/1100V1800FT/D R36/1400V2000FT/N BR SKC 03/ RMK FG2 VIS NW-NE 3/4

CYWG;2007-10-13 09:34;CYWG 130934Z 31002KT 1SM R13/1200FT/N R36/1400V2800FT/U BR SKC 03/ RMK FG2

CYWG;2007-10-13 10:00;CYWG 131000Z 30002KT 3/4SM R13/1800FT/N R36/2400VP6000FT/D BR SKC 03/02 A2998 RMK FG2 SLP160

CYWG;2007-10-13 10:10;CYWG 131010Z 30002KT 3/8SM R13/1800FT/N R36/1400V2000FT/N FG SKC 02/ RMK FG4

CYWG;2007-10-13 10:48;CYWG 131048Z 26002KT 1/4SM R13/1600FT/N R36/3500VP6000FT/U FG SKC 01/ RMK FG3

CYWG;2007-10-13 11:00;CYWG 131100Z 27002KT 3/8SM R13/2600FT/N R36/2200FT/N FG SKC 01/01 A2999 RMK FG4 SLP163

CYWG;2007-10-13 11:31;CYWG 131131Z 00000KT 1/4SM R13/2600FT/N R36/2800FT/N FG SKC 00/ RMK FG4

CYWG;2007-10-13 12:00;CYWG 131200Z 00000KT 3/8SM R13/3000FT/N R36/4000V5500FT/N FZFG SKC M01/M01 A3000 RMK FG4 SLP169

CYWG;2007-10-13 12:24;CYWG 131224Z 00000KT 1/8SM R13/2200FT/N R36/1200V2000FT/U FZFG SKC M00/ RMK FG5

CYWG;2007-10-13 12:32;CYWG 131232Z 00000KT 1/4SM R13/2200FT/N R36/2600V4000FT/N FZFG SKC M01/ RMK FG4

CYWG;2007-10-13 13:00;CYWG 131300Z 00000KT 3/8SM R13/1400FT/N R36/1200V2000FT/N FZFG SCT001 BKN220 M01/M01 A3001 RMK FG2ST1CI0 SLP172

CYWG;2007-10-13 13:25;CYWG 131325Z 00000KT 1/4SM R13/2000FT/N R36/1600FT/N FZFG SCT220 M00/ RMK FG3CI0

CYWG;2007-10-13 14:00;CYWG 131400Z 00000KT 1/4SM R13/1600FT/N R36/1600FT/N FG FEW220 02/01 A3002 RMK FG2CI1 SLP176

CYWG;2007-10-13 14:51;CYWG 131451Z 00000KT 1/2SM R13/1400FT/N R36/1400V2800FT/U FG FEW220 04/ RMK FG2CI1

CYWG;2007-10-13 15:00;CYWG 131500Z 00000KT 3/8SM R13/1200FT/N R36/2200FT/N FG FEW220 04/04 A3003 RMK FG2CI1 VSBY 1 NE SLP176

CYWG;2007-10-13 15:11;CYWG 131511Z 00000KT 3SM R13/3000FT/N R36/3000FT/N BR SCT220 05/ RMK FG2CI0 VBSY 1/2 SW-N 5 NE

CYWG;2007-10-13 16:00;CYWG 131600Z 00000KT 15SM FEW001 FEW015 FEW220 08/07 A3003 RMK ST1CU1CI0 SLP177

CYWG;2007-10-13 17:00;CYWG 131700Z 15003KT 15SM FEW015 FEW220 11/07 A3003 RMK CU2CI1 SLP179

CYWG;2007-10-13 18:00;CYWG 131800Z 00000KT 15SM FEW021 FEW220 12/07 A3004 RMK CU1CI1 SLP179

CYWG;2007-10-13 19:00;CYWG 131900Z 21003KT 15SM FEW026 BKN220 14/08 A3003 RMK CF1CI1 SLP177

CYWG;2007-10-13 20:00;CYWG 132000Z 09002KT 15SM FEW028 BKN220 13/07 A3003 RMK CU2CI0 SLP177

CYWG;2007-10-13 21:00;CYWG 132100Z 00000KT 15SM FEW032 BKN220 14/07 A3004 RMK CU2CI0 SLP179

CYWG;2007-10-13 22:00;CYWG 132200Z 03005KT 15SM FEW030 BKN220 14/07 A3004 RMK CU1CI1 SLP180

CYWG;2007-10-13 23:00;CYWG 132300Z 05004KT 15SM BKN220 12/07 A3005 RMK CI1 SLP184

CYWG;2007-10-14 00:00;CYWG 140000Z 09004KT 15SM SCT220 09/05 A3006 RMK CI1 SLP189

CYWG;2007-10-14 01:00;CYWG 140100Z 09002KT 15SM FEW100 FEW220 08/05 A3007 RMK AC1CI0 SLP192

CYWG;2007-10-14 02:00;CYWG 140200Z 16002KT 15SM SCT220 07/05 A3008 RMK CI0 SLP196

CYWG;2007-10-14 03:00;CYWG 140300Z 00000KT 15SM FEW220 05/04 A3009 RMK CI0 SLP199

CYWG;2007-10-14 04:00;CYWG 140400Z 04003KT 15SM FEW220 05/04 A3009 RMK CI0 SLP201

CYWG;2007-10-14 05:00;CYWG 140500Z 06002KT 8SM MIFG SKC 04/03 A3009 RMK SLP201

CYWG;2007-10-14 06:00;CYWG 140600Z 07002KT 8SM MIFG SKC 04/03 A3011 RMK SLP203

CYWG;2007-10-14 07:00;CYWG 140700Z 05002KT 5SM R13/2400FT/N R36/4500VP6000FT/U BR SKC 02/02 A3013 RMK VIS LWR NW SLP211

CYWG;2007-10-14 08:00;CYWG 140800Z 04005KT 4SM R13/1200V2000FT/U R36/2600VP6000FT/U BR SKC 01/00 A3015 RMK VIS NW 1 SLP217

CYWG;2007-10-14 09:00;CYWG 140900Z 07004KT 6SM BR SKC 01/00 A3015 RMK SLP218

CYWG;2007-10-14 10:00;CYWG 141000Z 02003KT 6SM BR SKC 01/00 A3016 RMK SLP220

CYWG;2007-10-14 11:00;CYWG 141100Z 04003KT 4SM R13/2200FT/N BR FEW260 M01/M01 A3016 RMK CI2 VIS W-NW 1 BR SLP221

CYWG;2007-10-14 11:34;CYWG 141134Z 02006KT 1 1/2SM R13/3500FT/N R36/3000V5000FT/U BR FEW260 M01/ RMK CI2

CYWG;2007-10-14 12:00;CYWG 141200Z 05004KT 6SM BR FEW100 FEW260 00/M01 A3017 RMK AC1CI1 VIS W-NW 2 BR SLP226

CYWG;2007-10-14 12:24;CYWG 141224Z 04005KT 6SM BR FEW001 SCT100 01/ RMK SF2AC2 VIS W-NW 1 BR

CYWG;2007-10-14 13:00;CYWG 141300Z 11002KT 5SM BR FEW001 BKN100 01/00 A3018 RMK SF1AC4 SLP229

CYWG;2007-10-14 14:00;CYWG 141400Z 03002KT 6SM BR BKN082 03/03 A3019 RMK AC6 SLP233

CYWG;2007-10-14 15:00;CYWG 141500Z 08002KT 10SM BKN090 05/05 A3020 RMK AC6 BR SLP237

CYWG;2007-10-14 16:00;CYWG 141600Z 15004KT 10SM SCT090 BKN260 07/06 A3021 RMK AC3CI1 BR SLP239

CYWG;2007-10-14 17:00;CYWG 141700Z 00000KT 15SM BKN100 11/07 A3020 RMK AC5 SLP238

CYWG;2007-10-14 18:00;CYWG 141800Z 13002KT 15SM SCT093 13/07 A3020 RMK AC4 SLP235

CYWG;2007-10-14 19:00;CYWG 141900Z 19004KT 15SM SCT099 14/07 A3018 RMK AC4 SLP228

CYWG;2007-10-14 20:00;CYWG 142000Z 16003KT 15SM BKN100 15/07 A3018 RMK AC5 SLP227

CYWG;2007-10-14 21:00;CYWG 142100Z 00000KT 15SM FEW040 BKN100 14/07 A3018 RMK SC2AC3 SLP228

CYWG;2007-10-14 22:00;CYWG 142200Z 00000KT 15SM SCT100 15/07 A3018 RMK AC3 SLP229

CYWG;2007-10-14 23:00;CYWG 142300Z 05003KT 15SM FEW100 13/07 A3018 RMK AC2 SLP229

CYWG;2007-10-15 00:00;CYWG 150000Z 06003KT 15SM FEW100 09/05 A3018 RMK AC1 SLP231

CYWG;2007-10-15 01:00;CYWG 150100Z 05006KT 15SM FEW100 07/04 A3019 RMK AC1 SLP234

CYWG;2007-10-15 02:00;CYWG 150200Z 07004KT 15SM SKC 07/05 A3020 RMK SLP236

CYWG;2007-10-15 03:00;CYWG 150300Z 07003KT 15SM SKC 05/04 A3019 RMK SLP234

CYWG;2007-10-15 04:00;CYWG 150400Z 08002KT 15SM SKC 04/03 A3020 RMK SLP235

CYWG;2007-10-15 06:00;CYWG 150600Z 00000KT 15SM MIFG SKC 02/01 A3019 RMK SLP231

CYWG;2007-10-15 07:00;CYWG 150700Z 04002KT 15SM BCFG SKC 01/M00 A3020 RMK SLP234

CYWG;2007-10-15 08:00;CYWG 150800Z 18004KT 15SM MIFG SKC 02/02 A3022 RMK SLP243

CYWG;2007-10-15 09:00;CYWG 150900Z 35002KT 15SM MIFG SKC M01/M02 A3022 RMK SLP242

CYWG;2007-10-15 10:00;CYWG 151000Z 03007KT 10SM MIFG SKC M01/M02 A3020 RMK SLP237

CYWG;2007-10-15 11:00;CYWG 151100Z 05003KT 10SM MIFG SKC M00/M01 A3020 RMK SLP237

CYWG;2007-10-15 12:00;CYWG 151200Z 00000KT 10SM BCFG SKC M01/M02 A3020 RMK SLP238

CYWG;2007-10-15 13:00;CYWG 151300Z 02003KT 10SM BCFG FEW120 M02/M03 A3021 RMK AC1 SLP241

CYWG;2007-10-15 14:00;CYWG 151400Z 02002KT 15SM FEW120 00/M00 A3022 RMK AC1 SLP242

CYWG;2007-10-15 15:00;CYWG 151500Z 00000KT 10SM FEW120 07/06 A3022 RMK AC1 SLP243

CYWG;2007-10-15 16:00;CYWG 151600Z 08003KT 10SM FEW120 10/07 A3022 RMK AC1 SLP241

CYWG;2007-10-15 17:00;CYWG 151700Z 09005KT 10SM FEW120 13/07 A3020 RMK AC1 SLP235

CYWG;2007-10-15 18:00;CYWG 151800Z 10006KT 10SM FEW120 14/04 A3018 RMK AC1 SLP229

CYWG;2007-10-15 19:00;CYWG 151900Z 08007KT 15SM FEW210 15/04 A3017 RMK CI1 FU W SLP224

CYWG;2007-10-15 20:00;CYWG 152000Z 10008G15KT 15SM FEW210 16/04 A3015 RMK CI1 FU W SLP219

CYWG;2007-10-15 21:00;CYWG 152100Z 10010KT 15SM FEW210 16/03 A3014 RMK CI1 FU NW SLP213

CYWG;2007-10-15 22:00;CYWG 152200Z 10007KT 15SM FEW210 16/02 A3013 RMK CI1 FU ALOFT ALQDS SLP211

CYWG;2007-10-15 23:00;CYWG 152300Z 07009KT 15SM FEW210 14/01 A3012 RMK CI1 FU ALOFT E SLP206

CYWG;2007-10-16 00:00;CYWG 160000Z 06008KT 15SM FEW210 09/00 A3011 RMK CI1 FU ALOFT NW-NE SLP205

CYWG;2007-10-16 01:00;CYWG 160100Z 06008KT 15SM FEW210 06/02 A3010 RMK CI1 FU ALOFT NW-NE SLP203

CYWG;2007-10-16 02:00;CYWG 160200Z 08006KT 15SM FEW210 05/01 A3010 RMK CI1 FU ALOFT NW-NE SLP203

CYWG;2007-10-16 03:00;CYWG 160300Z 10010KT 15SM FEW210 08/01 A3011 RMK CI0 SLP203

CYWG;2007-10-16 04:00;CYWG 160400Z 10010KT 15SM SKC 07/01 A3009 RMK SLP197

CYWG;2007-10-16 05:00;CYWG 160500Z 10008KT 15SM SKC 05/01 A3008 RMK SLP193

CYWG;2007-10-16 06:00;CYWG 160600Z 10008KT 15SM SKC 04/00 A3007 RMK SLP189

CYWG;2007-10-16 07:00;CYWG 160700Z 10008KT 15SM SKC 04/01 A3006 RMK SLP186

CYWG;2007-10-16 08:00;CYWG 160800Z 09008KT 15SM SKC 04/01 A3005 RMK SLP184

CYWG;2007-10-16 09:00;CYWG 160900Z 09007KT 15SM FEW020 03/01 A3004 RMK SC1 SLP180

CYWG;2007-10-16 10:00;CYWG 161000Z 09007KT 15SM BKN220 03/01 A3003 RMK CI2 SLP176

CYWG;2007-10-16 11:00;CYWG 161100Z 07006KT 15SM FEW120 BKN250 01/M00 A3002 RMK AC2CI2 SLP172

CYWG;2007-10-16 12:00;CYWG 161200Z 07006KT 15SM SCT120 BKN250 02/01 A3001 RMK AC3CI2 SLP170

CYWG;2007-10-16 13:00;CYWG 161300Z 07006KT 15SM FEW088 BKN140 BKN250 02/01 A3000 RMK AC2AC3CI1 SLP167

CYWG;2007-10-16 14:00;CYWG 161400Z 08005KT 15SM FEW088 BKN140 BKN250 04/02 A2999 RMK AC2AC3CI1 SLP166

CYWG;2007-10-16 15:00;CYWG 161500Z 08007KT 15SM FEW058 BKN088 BKN140 05/03 A2998 RMK SC1AC6AC2 SC TR SLP160

CYWG;2007-10-16 16:00;CYWG 161600Z 09009KT 15SM SCT045 BKN073 OVC250 06/03 A2996 RMK SC4AC3CI0 SLP154

CYWG;2007-10-16 17:00;CYWG 161700Z 10010KT 15SM BKN040 OVC250 07/04 A2994 RMK SC7CI1 SLP148

CYWG;2007-10-16 18:00;CYWG 161800Z 12009KT 15SM FEW023 BKN027 OVC080 09/04 A2992 RMK CU1SC6AC2 CU TR SLP139

CYWG;2007-10-16 19:00;CYWG 161900Z 12007KT 15SM OVC019 09/05 A2990 RMK SC8 SLP134

CYWG;2007-10-16 20:00;CYWG 162000Z 10009KT 15SM OVC021 09/05 A2989 RMK SC8 SLP129

CYWG;2007-10-16 21:00;CYWG 162100Z 11011KT 15SM OVC019 09/05 A2987 RMK SC8 SLP125

CYWG;2007-10-16 21:49;CYWG 162149Z 11012KT 15SM -RA OVC019 09/ RMK SC8

CYWG;2007-10-16 22:00;CYWG 162200Z 11011G17KT 15SM -RA OVC014 08/06 A2986 RMK SC8 SLP121

CYWG;2007-10-16 23:00;CYWG 162300Z 11008KT 10SM -RA BKN010 OVC020 08/06 A2985 RMK SF5SC3 SLP118

CYWG;2007-10-16 23:39;CYWG 162339Z 11009KT 8SM -RA BKN009 OVC048 07/ RMK SF6SC2

CYWG;2007-10-17 00:00;CYWG 170000Z 11008KT 8SM -RA BKN007 OVC048 07/07 A2984 RMK SF7SC1 SLP113

CYWG;2007-10-17 01:00;CYWG 170100Z 10006KT 7SM -DZ SCT009 OVC017 07/07 A2983 RMK SF4SC4 SLP111

CYWG;2007-10-17 01:37;CYWG 170137Z 10007KT 6SM -RA OVC011 07/ RMK SF8

CYWG;2007-10-17 02:00;CYWG 170200Z 10008KT 6SM -RA OVC015 08/07 A2982 RMK SC8 SLP108

CYWG;2007-10-17 02:25;CYWG 170225Z 12009KT 10SM -RA BKN013 OVC039 08/ RMK SC6SC2

CYWG;2007-10-17 03:00;CYWG 170300Z 12009KT 10SM -RA BKN010 OVC037 08/06 A2981 RMK SC6SC2 SLP103

CYWG;2007-10-17 03:06;CYWG 170306Z 12009KT 8SM -RA BKN009 OVC035 08/ RMK SF6SC2

CYWG;2007-10-17 04:00;CYWG 170400Z 10008KT 10SM -RA OVC006 07/07 A2980 RMK SF8 SLP098

CYWG;2007-10-17 05:00;CYWG 170500Z 12008KT 12SM OVC006 07/06 A2979 RMK SF8 SLP097

CYWG;2007-10-17 06:00;CYWG 170600Z 13008KT 12SM BKN006 OVC017 07/06 A2978 RMK SF7SC1 SLP092

CYWG;2007-10-17 07:00;CYWG 170700Z 12005KT 12SM OVC006 07/07 A2977 RMK SF8 SLP088

CYWG;2007-10-17 07:50;CYWG 170750Z 13005KT 10SM -RA OVC006 08/ RMK SF8

CYWG;2007-10-17 08:00;CYWG 170800Z 13006KT 10SM -RA BKN006 OVC010 08/07 A2976 RMK SF6SC2 SLP084

CYWG;2007-10-17 08:26;CYWG 170826Z 13006KT 8SM BKN006 OVC010 08/ RMK SF6SC2

CYWG;2007-10-17 08:41;CYWG 170841Z 12006KT 8SM -DZ OVC006 08/ RMK SF8

CYWG;2007-10-17 09:00;CYWG 170900Z 12006KT 8SM -DZ OVC005 08/07 A2975 RMK SF8 SLP081

CYWG;2007-10-17 09:33;CYWG 170933Z 12006KT 6SM BR OVC004 08/ RMK ST8

CYWG;2007-10-17 10:00;CYWG 171000Z 12006KT 6SM BR OVC004 08/07 A2973 RMK ST8 SLP075

CYWG;2007-10-17 10:09;CYWG 171009Z 13007KT 6SM BR OVC003 08/ RMK ST8

CYWG;2007-10-17 10:23;CYWG 171023Z 14006KT 3SM BR OVC003 08/ RMK ST8 VIS NW 6

CYWG;2007-10-17 10:48;CYWG 171048Z 13004KT 2SM BR OVC002 07/ RMK ST8

CYWG;2007-10-17 11:00;CYWG 171100Z 12006KT 2SM BR OVC002 07/07 A2972 RMK ST8 SLP072

CYWG;2007-10-17 12:00;CYWG 171200Z 13006KT 2SM BR OVC002 08/07 A2972 RMK ST8 SLP072

CYWG;2007-10-17 12:37;CYWG 171237Z 13006KT 2SM BR OVC003 08/ RMK ST8

CYWG;2007-10-17 13:00;CYWG 171300Z 14006KT 2SM BR OVC003 08/08 A2971 RMK ST8 SLP069

CYWG;2007-10-17 14:00;CYWG 171400Z 15005KT 2SM BR OVC003 08/08 A2971 RMK ST8 SLP069

CYWG;2007-10-17 15:00;CYWG 171500Z 15006KT 1 1/2SM BR OVC002 08/08 A2970 RMK ST8 SLP064

CYWG;2007-10-17 15:48;CYWG 171548Z 15005KT 5SM BR OVC003 09/ RMK ST8

CYWG;2007-10-17 16:00;CYWG 171600Z 15005KT 5SM BR OVC003 09/09 A2969 RMK ST8 SLP061

CYWG;2007-10-17 17:00;CYWG 171700Z 15004KT 5SM BR OVC003 10/09 A2968 RMK ST8 SLP059

CYWG;2007-10-17 18:00;CYWG 171800Z 14005KT 8SM OVC005 10/10 A2967 RMK ST8 BR SLP054

CYWG;2007-10-17 19:00;CYWG 171900Z 15005KT 10SM OVC009 11/09 A2966 RMK SC8 SLP050

CYWG;2007-10-17 20:00;CYWG 172000Z 15008KT 12SM OVC009 12/10 A2965 RMK SC8 SLP048

CYWG;2007-10-17 20:17;CYWG 172017Z 15007KT 12SM OVC010 12/ RMK SC8

CYWG;2007-10-17 21:00;CYWG 172100Z 10008KT 12SM OVC010 12/10 A2964 RMK SC8 SLP043

CYWG;2007-10-17 22:00;CYWG 172200Z 07007KT 15SM BKN010 BKN038 12/10 A2963 RMK SC5SC2 SLP039

CYWG;2007-10-17 23:00;CYWG 172300Z 09008KT 12SM BKN010 OVC036 12/10 A2963 RMK SC5SC3 SLP038

CYWG;2007-10-17 23:48;CYWG 172348Z 09011KT 12SM BKN009 OVC036 11/ RMK SC6SC2

CYWG;2007-10-18 00:00;CYWG 180000Z 09007KT 12SM BKN009 OVC031 11/10 A2963 RMK SC6SC2 SLP038

CYWG;2007-10-18 00:39;CYWG 180039Z 10007KT 6SM -RA BR OVC011 11/ RMK SC8

CYWG;2007-10-18 01:00;CYWG 180100Z 10010KT 10SM BKN010 OVC035 11/10 A2964 RMK SC5SC3 SLP044

CYWG;2007-10-18 01:28;CYWG 180128Z 11009KT 15SM SCT010 OVC031 11/ RMK SF3SC5

CYWG;2007-10-18 02:00;CYWG 180200Z 10009KT 15SM FEW010 OVC031 11/10 A2963 RMK SF2SC6 SLP040

CYWG;2007-10-18 03:00;CYWG 180300Z 10009KT 15SM FEW010 OVC032 11/09 A2962 RMK SF1SC7 SLP037

CYWG;2007-10-18 04:00;CYWG 180400Z 09009KT 15SM OVC029 11/09 A2962 RMK SC8 SLP035

CYWG;2007-10-18 04:54;CYWG 180454Z 10009KT 15SM BKN008 OVC033 10/ RMK ST6SC2

CYWG;2007-10-18 05:00;CYWG 180500Z 09009KT 15SM BKN009 OVC033 10/09 A2960 RMK ST6SC2 SLP030

CYWG;2007-10-18 06:00;CYWG 180600Z 09008KT 15SM FEW009 OVC031 10/09 A2958 RMK SF2SC6 SLP024

CYWG;2007-10-18 07:00;CYWG 180700Z 07006KT 15SM FEW009 OVC031 10/09 A2958 RMK SF1SC7 SLP022

CYWG;2007-10-18 07:24;CYWG 180724Z 08007KT 15SM BKN007 OVC031 10/ RMK ST6SC2

CYWG;2007-10-18 08:00;CYWG 180800Z 07005KT 15SM BKN008 OVC031 10/09 A2956 RMK ST6SC2 SLP016

CYWG;2007-10-18 09:00;CYWG 180900Z 06006KT 6SM BR OVC008 10/09 A2955 RMK ST8 SLP011

CYWG;2007-10-18 09:13;CYWG 180913Z 06008KT 2SM -DZ BR OVC006 10/ RMK ST8

CYWG;2007-10-18 10:00;CYWG 181000Z 05008KT 6SM BR BKN004 OVC011 10/09 A2953 RMK ST6SC2 SLP005

CYWG;2007-10-18 10:37;CYWG 181037Z 05008KT 6SM -RA BR BKN005 OVC013 10/ RMK ST6SC2

CYWG;2007-10-18 11:00;CYWG 181100Z 05009KT 4SM -DZ BR BKN004 OVC015 10/09 A2952 RMK SF7SC1 SLP003

CYWG;2007-10-18 11:23;CYWG 181123Z 05010KT 3SM -RA BR OVC003 10/ RMK SF8

CYWG;2007-10-18 12:00;CYWG 181200Z 05009KT 4SM BR OVC003 10/09 A2951 RMK SF8 SLP998

CYWG;2007-10-18 12:24;CYWG 181224Z 05009KT 4SM -SHRA BR OVC003 10/ RMK SF8

CYWG;2007-10-18 13:00;CYWG 181300Z 04008KT 4SM -SHRA BR OVC003 10/09 A2950 RMK SF8 SLP994

CYWG;2007-10-18 14:00;CYWG 181400Z 05009KT 4SM -SHRA BR OVC003 10/09 A2949 RMK SF8 SLP991

CYWG;2007-10-18 14:30;CYWG 181430Z 04010KT 5SM -SHRA BR OVC004 10/ RMK SF8

CYWG;2007-10-18 15:00;CYWG 181500Z 04011KT 4SM -RA BR OVC003 10/10 A2947 RMK SF8 SLP985

CYWG;2007-10-18 15:42;CYWG 181542Z 03012KT 4SM -RA BR OVC004 10/ RMK SF8

CYWG;2007-10-18 16:00;CYWG 181600Z 03013KT 6SM -RA BR OVC004 10/10 A2945 RMK SF8 SLP978

CYWG;2007-10-18 17:00;CYWG 181700Z 03014KT 6SM -RA BR OVC004 10/10 A2944 RMK SF8 SLP974

CYWG;2007-10-18 17:20;CYWG 181720Z 04014G19KT 6SM -RA BR OVC005 10/ RMK SF8

CYWG;2007-10-18 17:43;CYWG 181743Z 03014KT 6SM -RA BR OVC004 10/ RMK SF8

CYWG;2007-10-18 18:00;CYWG 181800Z 03012G19KT 6SM -RA BR OVC004 10/10 A2942 RMK SF8 SLP968

CYWG;2007-10-18 19:00;CYWG 181900Z 02014G19KT 6SM -RA BR OVC004 10/10 A2940 RMK ST8 SLP962

CYWG;2007-10-18 20:00;CYWG 182000Z 03015G22KT 6SM -RA BR OVC005 10/10 A2939 RMK ST8 SLP957

CYWG;2007-10-18 20:16;CYWG 182016Z 02013G19KT 6SM -RA BR OVC004 10/ RMK ST8

CYWG;2007-10-18 20:39;CYWG 182039Z 02017G22KT 6SM -RA BR OVC005 10/ RMK SF8 CIG RGD

CYWG;2007-10-18 21:00;CYWG 182100Z 02017KT 6SM -RA BR OVC005 10/10 A2938 RMK SF8 CIG RGD SLP955

CYWG;2007-10-18 22:00;CYWG 182200Z 01014G19KT 6SM -RA BR BKN006 BKN022 OVC030 10/09 A2938 RMK SF6ST2ST1 CIG RGD SLP953

CYWG;2007-10-18 23:00;CYWG 182300Z 01014G21KT 6SM -RA BR BKN005 BKN017 OVC032 10/09 A2937 RMK SF5ST2ST1 CIG RGD SLP951

CYWG;2007-10-19 00:00;CYWG 190000Z 01014G21KT 6SM -RA BR BKN007 OVC017 10/09 A2936 RMK SF6ST2 CIG RGD SLP949

CYWG;2007-10-19 01:00;CYWG 190100Z 36016KT 5SM -RA BR BKN006 BKN023 BKN048 OVC060 10/09 A2935 RMK SF5ST1ST1ST2 CIG RGD SLP944

CYWG;2007-10-19 02:00;CYWG 190200Z 36013G18KT 5SM -RA BR BKN006 BKN024 BKN048 OVC057 10/09 A2933 RMK SF5ST1ST1ST2 CIG RGD SLP939

CYWG;2007-10-19 03:00;CYWG 190300Z 35014G19KT 6SM -RA BR BKN007 OVC024 10/09 A2932 RMK SF6SC2 CIG RGD SLP935

CYWG;2007-10-19 04:00;CYWG 190400Z 35016KT 6SM -RA BR BKN007 OVC029 09/09 A2931 RMK SF6SC2 SLP931

CYWG;2007-10-19 05:00;CYWG 190500Z 35013KT 5SM -RA BR BKN007 OVC029 09/09 A2929 RMK SF6SC2 SLP925

CYWG;2007-10-19 06:00;CYWG 190600Z 34015KT 6SM -RA BR OVC005 09/09 A2928 RMK SF8 SLP921

CYWG;2007-10-19 07:00;CYWG 190700Z 34015KT 8SM -RA BKN007 OVC030 09/09 A2928 RMK SF6SC2 SLP919

CYWG;2007-10-19 08:00;CYWG 190800Z 34014KT 6SM -RA BR OVC007 09/09 A2928 RMK SF8 SLP919

CYWG;2007-10-19 09:00;CYWG 190900Z 33014G19KT 6SM -RA BR BKN007 OVC029 09/08 A2927 RMK SF6SC2 SLP917

CYWG;2007-10-19 09:52;CYWG 190952Z 33015G20KT 7SM -RA BKN010 OVC034 RMK SF6SC2 BR

CYWG;2007-10-19 10:00;CYWG 191000Z 33014KT 10SM -RA OVC008 09/09 A2927 RMK SF8 BR CIG RAG SLP916

CYWG;2007-10-19 11:00;CYWG 191100Z 33015KT 10SM -RA OVC008 09/09 A2927 RMK SF8 SLP918

CYWG;2007-10-19 12:00;CYWG 191200Z 32015KT 10SM -RA BKN008 OVC018 09/09 A2927 RMK SF6SC2 SLP917

CYWG;2007-10-19 13:00;CYWG 191300Z 33014G19KT 10SM -RA BKN007 OVC036 09/08 A2926 RMK SF6SC2 SLP914

CYWG;2007-10-19 13:17;CYWG 191317Z 32015KT 6SM BR BKN007 OVC036 09/ RMK SF7SC1

CYWG;2007-10-19 13:45;CYWG 191345Z 32014KT 6SM -RA BR OVC006 09/ RMK SF8

CYWG;2007-10-19 14:00;CYWG 191400Z 32014G19KT 6SM -RA BR OVC008 09/08 A2926 RMK SF8 SLP915

CYWG;2007-10-19 14:35;CYWG 191435Z 32017KT 6SM -DZ BR OVC008 09/ RMK SF8

CYWG;2007-10-19 15:00;CYWG 191500Z 32016KT 6SM -DZ BR OVC009 09/08 A2926 RMK SF8 SLP915

CYWG;2007-10-19 15:37;CYWG 191537Z 31015KT 5SM -DZ BR OVC005 09/ RMK SF8

CYWG;2007-10-19 16:00;CYWG 191600Z 32017KT 6SM BR OVC006 09/09 A2926 RMK SF8 SLP915

CYWG;2007-10-19 17:00;CYWG 191700Z 32019KT 12SM OVC008 10/09 A2927 RMK ST8 SLP916

CYWG;2007-10-19 17:32;CYWG 191732Z 33016G25KT 15SM OVC012 11/ RMK SC8

CYWG;2007-10-19 18:00;CYWG 191800Z 32017KT 15SM OVC012 11/09 A2927 RMK SC8 SLP917

CYWG;2007-10-19 19:00;CYWG 191900Z 32014KT 15SM OVC012 11/09 A2928 RMK SC8 SLP920

CYWG;2007-10-19 20:00;CYWG 192000Z 30018KT 15SM OVC012 11/11 A2928 RMK SC8 SLP921

CYWG;2007-10-19 21:00;CYWG 192100Z 30019KT 15SM BKN014 BKN052 11/10 A2929 RMK SC6SC1 SLP925

CYWG;2007-10-19 21:03;CYWG 192103Z 31018G24KT 15SM SCT015 BKN028 OVC052 11/ RMK SC3SC4SC1

CYWG;2007-10-19 21:30;CYWG 192130Z 31019G24KT 15SM BKN014 OVC058 11/ RMK SC5SC3

CYWG;2007-10-19 22:00;CYWG 192200Z 31014G24KT 15SM BKN019 OVC058 11/10 A2932 RMK SC6SC2 SLP932

CYWG;2007-10-19 23:00;CYWG 192300Z 31014KT 15SM BKN012 BKN050 10/10 A2933 RMK SC5SC2 SLP936

CYWG;2007-10-19 23:44;CYWG 192344Z 31011KT 15SM BKN018 OVC033 10/ RMK SC5SC3

CYWG;2007-10-20 00:00;CYWG 200000Z 31012KT 15SM BKN021 BKN033 10/10 A2934 RMK SC5SC2 SLP940

CYWG;2007-10-20 01:00;CYWG 200100Z 31011KT 15SM BKN032 OVC062 10/10 A2934 RMK SC5SC3 SLP941

CYWG;2007-10-20 02:00;CYWG 200200Z 29009KT 15SM BKN031 OVC064 09/09 A2936 RMK SC6SC2 SLP948

CYWG;2007-10-20 03:00;CYWG 200300Z 28006KT 15SM SCT031 08/08 A2935 RMK SC3 SLP945

CYWG;2007-10-20 04:00;CYWG 200400Z 28005KT 15SM SCT033 08/08 A2936 RMK SC3 SLP947

CYWG;2007-10-20 05:00;CYWG 200500Z 26007KT 15SM SKC 06/06 A2935 RMK SLP946

CYWG;2007-10-20 06:00;CYWG 200600Z 26007KT 15SM SKC 05/05 A2936 RMK SLP949

CYWG;2007-10-20 07:00;CYWG 200700Z 26006KT 15SM FEW040 05/05 A2936 RMK SC2 SLP949

CYWG;2007-10-20 08:00;CYWG 200800Z 26007KT 15SM SKC 04/ A2936 RMK SLP950

CYWG;2007-10-20 09:00;CYWG 200900Z 25006KT 15SM SKC 03/ A2936 RMK SLP948

CYWG;2007-10-20 10:00;CYWG 201000Z 22003KT 15SM FEW090 02/ A2936 RMK AC2 SLP950

CYWG;2007-10-20 11:00;CYWG 201100Z 23003KT 15SM FEW087 04/ A2937 RMK AC2 SLP953

CYWG;2007-10-20 12:00;CYWG 201200Z 00000KT 15SM FEW080 FEW250 02/ A2935 RMK AC2CI0 SLP948

CYWG;2007-10-20 13:00;CYWG 201300Z 14003KT 10SM FEW090 01/ A2936 RMK AC2 BR SLP949

CYWG;2007-10-20 14:00;CYWG 201400Z 13002KT 12SM BKN095 04/ A2936 RMK AC3 BR SLP951

CYWG;2007-10-20 15:00;CYWG 201500Z 10005KT 15SM FEW041 BKN081 06/ A2934 RMK SC2AC2 SLP943

CYWG;2007-10-20 16:00;CYWG 201600Z 10004KT 15SM BKN081 08/ A2935 RMK AC6 VIRGA SLP947

CYWG;2007-10-20 17:00;CYWG 201700Z 09004KT 15SM OVC072 09/ A2935 RMK AC8 VIRGA SLP947

CYWG;2007-10-20 17:22;CYWG 201722Z 07002KT 15SM -SHRA OVC068 09/ RMK AC8 ACC ASOCTD

CYWG;2007-10-20 18:00;CYWG 201800Z 10002KT 12SM -SHRA SCT029 OVC052 09/ A2938 RMK SC3SC5 CVCTV CLD EMBD SLP954

CYWG;2007-10-20 19:00;CYWG 201900Z 04007KT 15SM -SHRA SCT026 BKN049 10/ A2938 RMK SC3SC4 SLP956

CYWG;2007-10-20 19:25;CYWG 201925Z 03006KT 15SM FEW025 BKN052 BKN072 11/ RMK SC2SC3AC2 SHWRS NE CVCTVC CLD EMBD

CYWG;2007-10-20 20:00;CYWG 202000Z 05003KT 15SM FEW012 SCT057 BKN074 11/ A2940 RMK CF1SC3AC3 SHWRS NW-N CVCTV CLD EMBD SLP963

CYWG;2007-10-20 21:00;CYWG 202100Z 35006KT 15SM FEW010 BKN051 OVC080 10/ A2943 RMK CF1SC6AC2 SHWRS N CVCTV CLD EMBD SLP973

CYWG;2007-10-20 22:00;CYWG 202200Z 35005KT 15SM BKN056 BKN080 10/ A2945 RMK SC5AC2 SHWRS N-NE CVCTV CLD EMBD SLP980

CYWG;2007-10-20 23:00;CYWG 202300Z 30006KT 15SM FEW060 BKN080 07/ A2948 RMK SC2AC2 SLP991

CYWG;2007-10-21 00:00;CYWG 210000Z 28006KT 15SM FEW060 SCT100 BKN250 05/ A2950 RMK SC1AC2CI1 SLP000

CYWG;2007-10-21 01:00;CYWG 210100Z 23004KT 15SM FEW100 FEW250 04/ A2952 RMK AC1CI1 SLP007

CYWG;2007-10-21 02:00;CYWG 210200Z 26005KT 15SM FEW250 05/ A2955 RMK CI1 SLP016

CYWG;2007-10-21 03:00;CYWG 210300Z 27006KT 15SM SKC 05/05 A2958 RMK SLP025

CYWG;2007-10-21 04:00;CYWG 210400Z 27006KT 15SM SKC 03/ A2959 RMK SLP028

CYWG;2007-10-21 05:00;CYWG 210500Z 23002KT 15SM SKC 04/ A2962 RMK SLP037

CYWG;2007-10-21 06:00;CYWG 210600Z 29003KT 6SM R13/3000FT/N R36/3000VP6000FT/N BR MIFG SKC M00/ A2963 RMK SLP041

CYWG;2007-10-21 06:22;CYWG 210622Z 34004KT 3/4SM R13/1600FT/N R36/2000FT/N BR SKC M01/ RMK FG2

CYWG;2007-10-21 07:00;CYWG 210700Z 29005KT 3SM R13/2000FT/N BR BCFG SKC 00/ A2965 RMK SLP048

CYWG;2007-10-21 08:00;CYWG 210800Z 29005KT 5SM R13/4000VP6000FT/U BR FEW060 01/ A2967 RMK SC1 SLP054

CYWG;2007-10-21 09:00;CYWG 210900Z 25002KT 5SM R13/1800V2200FT/N BR SCT060 00/ A2970 RMK SC3 SLP065

CYWG;2007-10-21 10:00;CYWG 211000Z 30005KT 6SM BR FEW060 M01/ A2972 RMK SC2 SLP072

CYWG;2007-10-21 11:00;CYWG 211100Z 29005KT 4SM R13/3500VP6000FT/D BR FEW060 M01/ A2973 RMK SC2 SLP077

CYWG;2007-10-21 11:21;CYWG 211121Z 29006KT 2SM R13/1600FT/N BR FEW060 M00/ RMK SC2

CYWG;2007-10-21 12:00;CYWG 211200Z 30005KT 1/4SM R13/1400FT/N R36/2600FT/N FZFG FEW060 M00/M00 A2975 RMK SC2 SLP086

CYWG;2007-10-21 12:12;CYWG 211212Z 31007KT 1/8SM R13/1400FT/N R36/1400V2000FT/U FG SKC 00/

CYWG;2007-10-21 13:00;CYWG 211300Z 30007KT 1/8SM R13/1000FT/N R36/1200FT/N FG SKC 01/01 A2977 RMK FG3 SLP091

CYWG;2007-10-21 14:00;CYWG 211400Z 30003KT 1/2SM R13/3000VP6000FT/U R36/2800VP6000FT/U FG FEW072 BKN250 01/01 A2981 RMK AC2CI1 SLP104

CYWG;2007-10-21 14:06;CYWG 211406Z 30004KT 2SM BR FEW072 BKN250 01/ RMK AC2CI2

CYWG;2007-10-21 15:00;CYWG 211500Z CCA 31006KT 5SM BR FEW095 BKN250 02/ A2983 RMK AC2CI2 SLP113

CYWG;2007-10-21 16:00;CYWG 211600Z 36006KT 8SM FEW097 BKN250 04/04 A2986 RMK AC2CI2 SLP121

CYWG;2007-10-21 17:00;CYWG 211700Z 34007KT 15SM FEW015 SCT091 BKN250 06/06 A2989 RMK SC1AC2CI1 SLP131

CYWG;2007-10-21 18:00;CYWG 211800Z 33011KT 15SM BKN017 08/06 A2990 RMK SC7 SLP134

CYWG;2007-10-21 19:00;CYWG 211900Z 35010KT 15SM BKN017 07/05 A2992 RMK SC7 SLP142

CYWG;2007-10-21 20:00;CYWG 212000Z 32016KT 15SM BKN018 BKN250 08/05 A2993 RMK SC5CI1 SLP147

CYWG;2007-10-21 21:00;CYWG 212100Z 33013KT 15SM FEW028 SCT250 07/02 A2995 RMK SC2CI1 SLP151

CYWG;2007-10-21 22:00;CYWG 212200Z 32010G18KT 15SM FEW025 FEW100 SCT250 07/02 A2996 RMK SC1AC1CI1 SLP156

CYWG;2007-10-21 23:00;CYWG 212300Z 33007KT 15SM FEW025 FEW100 FEW250 05/02 A2999 RMK SC1AC1CI0 SLP164

CYWG;2007-10-22 00:00;CYWG 220000Z 34003KT 15SM FEW025 FEW250 02/01 A3001 RMK SC1CI1 SLP174

CYWG;2007-10-22 01:00;CYWG 220100Z 33002KT 15SM FEW025 FEW250 01/01 A3002 RMK SC1CI1 SLP177

CYWG;2007-10-22 02:00;CYWG 220200Z 24003KT 15SM BKN045 01/01 A3003 RMK SC6 SLP180

CYWG;2007-10-22 03:00;CYWG 220300Z 28008KT 15SM BKN045 03/02 A3004 RMK SC6 SLP183

CYWG;2007-10-22 04:00;CYWG 220400Z 27007KT 15SM BKN047 02/01 A3003 RMK SC5 SLP180

CYWG;2007-10-22 05:00;CYWG 220500Z 26008KT 15SM SKC 01/M00 A3004 RMK SLP184

CYWG;2007-10-22 06:00;CYWG 220600Z 25009KT 15SM SKC 01/M01 A3004 RMK SLP184

CYWG;2007-10-22 07:00;CYWG 220700Z 25009KT 15SM SKC 01/M01 A3004 RMK SLP183

CYWG;2007-10-22 08:00;CYWG 220800Z 25009KT 15SM SKC 01/M01 A3004 RMK SLP182

CYWG;2007-10-22 09:00;CYWG 220900Z 26010KT 15SM SKC 01/M01 A3003 RMK SLP180

CYWG;2007-10-22 10:00;CYWG 221000Z 26009KT 15SM SKC 00/M01 A3003 RMK SLP181

CYWG;2007-10-22 11:00;CYWG 221100Z 26010KT 15SM SKC M00/M01 A3003 RMK SLP181

CYWG;2007-10-22 12:00;CYWG 221200Z 27008KT 15SM SKC M00/M01 A3003 RMK SLP182

CYWG;2007-10-22 13:00;CYWG 221300Z 26010KT 15SM BKN230 M00/M01 A3004 RMK CI2 SLP184

CYWG;2007-10-22 14:00;CYWG 221400Z 26010KT 15SM FEW230 00/M00 A3004 RMK CI1 SLP186

CYWG;2007-10-22 15:00;CYWG 221500Z 26011KT 15SM FEW230 02/01 A3005 RMK CI1 SLP187

CYWG;2007-10-22 16:00;CYWG 221600Z 27012KT 15SM FEW230 06/02 A3005 RMK CI0 SLP187

CYWG;2007-10-22 17:00;CYWG 221700Z 27010KT 15SM FEW230 08/03 A3004 RMK CI0 SLP185

CYWG;2007-10-22 18:00;CYWG 221800Z 27011KT 15SM FEW230 10/02 A3003 RMK CI1 SLP177

CYWG;2007-10-22 19:00;CYWG 221900Z 29011KT 15SM FEW040 FEW230 11/00 A3001 RMK CU1CI1 SLP173

CYWG;2007-10-22 20:00;CYWG 222000Z 28011G20KT 15SM FEW052 SCT230 12/01 A2999 RMK CU2CI1 SLP167

CYWG;2007-10-22 21:00;CYWG 222100Z 28011KT 15SM FEW052 FEW200 11/01 A2999 RMK CU2CI1 SLP164

CYWG;2007-10-22 22:00;CYWG 222200Z 28013KT 15SM FEW052 FEW150 SCT200 11/M01 A2998 RMK CU1AC1CI1 SLP161

CYWG;2007-10-22 23:00;CYWG 222300Z 29004KT 15SM FEW150 SCT200 09/00 A2997 RMK AC1CI1 SLP158

CYWG;2007-10-23 00:00;CYWG 230000Z 26004KT 15SM FEW200 08/M01 A2997 RMK CI1 SLP158

CYWG;2007-10-23 01:00;CYWG 230100Z 23007KT 15SM FEW200 04/M01 A2993 RMK CI1 SLP145

CYWG;2007-10-23 02:00;CYWG 230200Z 22007KT 15SM SCT200 05/00 A2991 RMK CI0 SLP138

CYWG;2007-10-23 03:00;CYWG 230300Z 21007KT 15SM SCT200 05/00 A2989 RMK CS0 SLP133

CYWG;2007-10-23 04:00;CYWG 230400Z 22008KT 15SM BKN120 06/M00 A2988 RMK AS4 SLP130

CYWG;2007-10-23 05:00;CYWG 230500Z 22008KT 15SM OVC120 06/00 A2986 RMK AS7 SLP123

CYWG;2007-10-23 06:00;CYWG 230600Z 22008KT 15SM OVC084 06/01 A2983 RMK AS8 SLP110

CYWG;2007-10-23 07:00;CYWG 230700Z 24011KT 15SM OVC046 06/01 A2983 RMK SC8 SLP109

CYWG;2007-10-23 08:00;CYWG 230800Z 25005KT 15SM OVC040 06/02 A2982 RMK SC8 SLP104

CYWG;2007-10-23 09:00;CYWG 230900Z 24006KT 15SM OVC058 06/02 A2979 RMK SC8 SLP096

CYWG;2007-10-23 10:00;CYWG 231000Z 22006KT 15SM OVC047 06/03 A2975 RMK SC8 SLP082

CYWG;2007-10-23 11:00;CYWG 231100Z 21007KT 15SM OVC083 06/03 A2970 RMK AC8 SLP064

CYWG;2007-10-23 12:00;CYWG 231200Z 25006KT 15SM OVC069 07/03 A2970 RMK AC8 SLP064

CYWG;2007-10-23 13:00;CYWG 231300Z 26004KT 15SM OVC057 06/03 A2969 RMK SC8 SLP060

CYWG;2007-10-23 14:00;CYWG 231400Z 30008KT 15SM FEW035 BKN068 06/03 A2971 RMK SC2AC5 SLP068

CYWG;2007-10-23 15:00;CYWG 231500Z 31008KT 15SM BKN084 07/05 A2974 RMK AC7 SLP080

CYWG;2007-10-23 16:00;CYWG 231600Z 31018KT 15SM FEW061 10/06 A2975 RMK SC2 SLP083

CYWG;2007-10-23 17:00;CYWG 231700Z 32024G33KT 15SM BKN032 BKN063 11/05 A2978 RMK SC6AC1 SLP094

CYWG;2007-10-23 18:00;CYWG 231800Z 32025G33KT 15SM BKN035 11/04 A2983 RMK CU6 SLP109

CYWG;2007-10-23 19:00;CYWG 231900Z 33023G34KT 15SM SCT036 BKN069 10/03 A2988 RMK CU3AC4 PRESRR SLP125

CYWG;2007-10-23 20:00;CYWG 232000Z 32023G29KT 15SM FEW025 BKN037 BKN066 11/04 A2993 RMK CU2SC4AC1 SLP140

CYWG;2007-10-23 21:00;CYWG 232100Z 33027G35KT 15SM FEW025 BKN041 10/01 A2998 RMK CU1CF4 PRESRR SLP161

CYWG;2007-10-23 22:00;CYWG 232200Z 34016G21KT 15SM FEW035 SCT047 10/02 A3002 RMK CF2SC1 SLP173

CYWG;2007-10-23 23:00;CYWG 232300Z 33022G31KT 15SM BKN044 09/01 A3006 RMK SC6 -SHRA NE TO E SLP185

CYWG;2007-10-24 00:00;CYWG 240000Z 35008KT 15SM BKN047 07/04 A3010 RMK SC6 -SHRA NE TO E SLP203

CYWG;2007-10-24 01:00;CYWG 240100Z 35005KT 15SM FEW057 02/01 A3012 RMK SC1 SLP210

CYWG;2007-10-24 02:00;CYWG 240200Z 31006KT 15SM FEW020 FEW057 M01/M01 A3015 RMK CF1SC1 SLP218

CYWG;2007-10-24 03:00;CYWG 240300Z 29005KT 15SM SKC M01/M02 A3016 RMK SLP224

CYWG;2007-10-24 04:00;CYWG 240400Z 31009KT 15SM SKC M02/M02 A3018 RMK SLP231

CYWG;2007-10-24 05:00;CYWG 240500Z 30007KT 15SM SKC M02/M03 A3020 RMK SLP236

CYWG;2007-10-24 06:00;CYWG 240600Z 28008KT 15SM SKC M01/M02 A3022 RMK SLP242

CYWG;2007-10-24 07:00;CYWG 240700Z 27008KT 15SM FEW250 M01/M02 A3023 RMK CI0 SLP246

CYWG;2007-10-24 08:00;CYWG 240800Z 27007KT 15SM FEW250 M01/M01 A3024 RMK CI0 SLP249

CYWG;2007-10-24 09:00;CYWG 240900Z 27003KT 15SM FEW100 M04/M04 A3025 RMK AC1 SLP253

CYWG;2007-10-24 10:00;CYWG 241000Z 25003KT 15SM BKN100 M01/M01 A3024 RMK AC6 SLP251

CYWG;2007-10-24 11:00;CYWG 241100Z 27003KT 15SM OVC100 M01/M01 A3025 RMK AC7 SLP256

CYWG;2007-10-24 12:00;CYWG 241200Z 00000KT 15SM BKN100 M01/M01 A3026 RMK AC6 SLP259

CYWG;2007-10-24 13:00;CYWG 241300Z 18006KT 15SM FEW100 BKN230 M00/M00 A3025 RMK AC2CI1 SLP257

CYWG;2007-10-24 14:00;CYWG 241400Z 18008KT 15SM FEW100 SCT230 00/M00 A3026 RMK AC2CI0 SLP259

CYWG;2007-10-24 15:00;CYWG 241500Z 18009KT 15SM FEW100 SCT230 03/01 A3024 RMK AC1CI0 SLP253

CYWG;2007-10-24 16:00;CYWG 241600Z 17008KT 15SM FEW140 BKN230 06/03 A3023 RMK AC2CI1 SLP251

CYWG;2007-10-24 17:00;CYWG 241700Z 18014KT 15SM SCT140 OVC230 08/03 A3022 RMK AC3CI3 SLP245

CYWG;2007-10-24 18:00;CYWG 241800Z 18016G21KT 15SM SCT140 OVC230 10/03 A3018 RMK AC2CI3 SLP231

CYWG;2007-10-24 19:00;CYWG 241900Z 18016KT 15SM FEW140 OVC230 11/03 A3015 RMK AC1CI4 SLP221

CYWG;2007-10-24 20:00;CYWG 242000Z 18017G22KT 15SM BKN230 11/03 A3012 RMK CI2 SLP210

CYWG;2007-10-24 21:00;CYWG 242100Z 18019G27KT 15SM BKN230 13/04 A3009 RMK CI2 SLP198

CYWG;2007-10-24 22:00;CYWG 242200Z 17019G25KT 15SM SCT230 12/04 A3005 RMK CI1 SLP186

CYWG;2007-10-24 23:00;CYWG 242300Z 17019G26KT 15SM FEW150 BKN250 12/04 A3001 RMK AC2CI2 SLP173

CYWG;2007-10-25 00:00;CYWG 250000Z 17020G25KT 15SM FEW150 SCT250 11/03 A2999 RMK AC1CI2 SLP165

CYWG;2007-10-25 01:00;CYWG 250100Z 17021G27KT 15SM BKN250 10/03 A2996 RMK CI2 SLP156

CYWG;2007-10-25 02:00;CYWG 250200Z 18024G29KT 15SM BKN220 10/03 A2993 RMK CS3 SLP146

CYWG;2007-10-25 03:00;CYWG 250300Z 18022G28KT 15SM BKN220 10/03 A2990 RMK CI0 SLP134

CYWG;2007-10-25 04:00;CYWG 250400Z 18021G28KT 15SM BKN220 09/03 A2987 RMK CS0 SLP124

CYWG;2007-10-25 05:00;CYWG 250500Z 19022G27KT 15SM SCT220 09/03 A2986 RMK CS0 SLP120

CYWG;2007-10-25 06:00;CYWG 250600Z 19023G31KT 15SM SCT220 09/03 A2983 RMK CS0 SLP107

CYWG;2007-10-25 07:00;CYWG 250700Z 18023G29KT 15SM FEW220 08/03 A2981 RMK CS0 SLP101

CYWG;2007-10-25 08:00;CYWG 250800Z 19024G33KT 15SM FEW220 09/04 A2979 RMK CI0 SLP095

CYWG;2007-10-25 09:00;CYWG 250900Z 19024G31KT 15SM FEW220 09/04 A2977 RMK CI0 SLP087

CYWG;2007-10-25 10:00;CYWG 251000Z 19024G29KT 15SM FEW220 08/04 A2976 RMK CI0 SLP082

CYWG;2007-10-25 11:00;CYWG 251100Z 19025G33KT 15SM FEW110 FEW240 08/03 A2975 RMK AC1CI1 SLP081

CYWG;2007-10-25 12:00;CYWG 251200Z 19024G30KT 15SM FEW110 07/03 A2974 RMK AC1 SLP079

CYWG;2007-10-25 13:00;CYWG 251300Z 19022G29KT 15SM FEW110 FEW260 07/03 A2975 RMK AC1CI1 SLP082

CYWG;2007-10-25 14:00;CYWG 251400Z 19019G27KT 15SM FEW260 07/03 A2976 RMK CI1 SLP085

CYWG;2007-10-25 15:00;CYWG 251500Z 19021G27KT 15SM FEW260 09/04 A2977 RMK CI0 SLP087

CYWG;2007-10-25 16:00;CYWG 251600Z 20015G22KT 15SM FEW260 11/06 A2979 RMK CI1 SLP094

CYWG;2007-10-25 17:00;CYWG 251700Z 19019KT 15SM FEW260 13/06 A2980 RMK CI1 SLP096

CYWG;2007-10-25 18:00;CYWG 251800Z 20013KT 15SM FEW260 16/08 A2983 RMK CI1 SLP106

CYWG;2007-10-25 19:00;CYWG 251900Z 20009G15KT 15SM FEW250 18/09 A2983 RMK CI1 SLP105

CYWG;2007-10-25 20:00;CYWG 252000Z 20011KT 15SM FEW250 19/10 A2983 RMK CI1 SLP105

CYWG;2007-10-25 21:00;CYWG 252100Z 20006KT 15SM FEW250 20/10 A2986 RMK CI1 VSB W QUAD 12 FU SLP115

CYWG;2007-10-25 21:32;CYWG 252132Z 33013KT 15SM FEW250 18/ RMK CI1 WSHFT 2122

CYWG;2007-10-25 22:00;CYWG 252200Z 32012KT 15SM FEW250 17/08 A2990 RMK CI1 FU ALF SLP127

CYWG;2007-10-25 23:00;CYWG 252300Z 32007KT 15SM FEW250 14/07 A2991 RMK CI1 FU ALF SLP133

CYWG;2007-10-26 01:00;CYWG 260100Z 32006KT 15SM FEW250 08/06 A2999 RMK CI0 SLP161

CYWG;2007-10-26 02:00;CYWG 260200Z 32016KT 15SM FEW250 10/04 A3003 RMK CI0 SLP174

CYWG;2007-10-26 03:00;CYWG 260300Z 33008KT 15SM FEW250 04/02 A3005 RMK CI0 SLP184

CYWG;2007-10-26 04:00;CYWG 260400Z 30009KT 15SM FEW250 03/01 A3007 RMK CI0 SLP191

CYWG;2007-10-26 04:41;CYWG 260441Z 30007KT 15SM FEW250 02/ RMK CI0

CYWG;2007-10-26 05:00;CYWG 260500Z 30007KT 15SM FEW250 01/00 A3009 RMK CI0 SLP199

CYWG;2007-10-26 06:00;CYWG 260600Z 29008KT 15SM FEW250 00/M01 A3012 RMK CI0 SLP207

CYWG;2007-10-26 07:00;CYWG 260700Z 30007KT 15SM SCT120 01/M01 A3014 RMK AC2 SLP213

CYWG;2007-10-26 08:00;CYWG 260800Z 28008KT 15SM FEW120 FEW250 00/M02 A3016 RMK AC1CI0 SLP219

CYWG;2007-10-26 09:00;CYWG 260900Z 27006KT 15SM BKN120 03/M00 A3017 RMK AC6 SLP222

CYWG;2007-10-26 10:00;CYWG 261000Z 28008KT 15SM BKN120 04/01 A3017 RMK AC7 SLP224

CYWG;2007-10-26 11:00;CYWG 261100Z 26005KT 15SM OVC120 05/00 A3019 RMK AC8 SLP229

CYWG;2007-10-26 12:00;CYWG 261200Z 27006KT 15SM BKN120 05/M00 A3020 RMK AC7 SLP234

CYWG;2007-10-26 13:00;CYWG 261300Z 28008KT 15SM SCT120 BKN230 05/M00 A3021 RMK AC4CI3 SLP237

CYWG;2007-10-26 14:00;CYWG 261400Z 31010KT 15SM BKN140 06/M01 A3022 RMK AC7 SLP242

CYWG;2007-10-26 15:00;CYWG 261500Z 30010KT 15SM BKN140 06/M01 A3025 RMK AC7 SLP252

CYWG;2007-10-26 16:00;CYWG 261600Z 29010KT 15SM OVC140 06/M01 A3026 RMK AC8 SLP258

CYWG;2007-10-26 17:00;CYWG 261700Z 29010KT 15SM OVC100 07/M01 A3027 RMK AC8 SLP260

CYWG;2007-10-26 18:00;CYWG 261800Z 32014KT 15SM OVC100 09/M04 A3027 RMK AC8 SLP262

CYWG;2007-10-26 19:00;CYWG 261900Z 30016KT 15SM BKN100 09/M05 A3027 RMK AC7 SLP260

CYWG;2007-10-26 20:00;CYWG 262000Z 29014KT 15SM BKN100 10/M05 A3026 RMK AC7 SLP258

CYWG;2007-10-26 21:00;CYWG 262100Z 29011KT 15SM BKN100 09/M05 A3025 RMK AC6 SLP255

CYWG;2007-10-26 22:00;CYWG 262200Z 31011KT 15SM SCT100 BKN210 09/M04 A3025 RMK AC3CI2 SLP254

CYWG;2007-10-26 23:00;CYWG 262300Z 31006KT 15SM FEW100 BKN210 07/M03 A3025 RMK AC2CI2 SLP255

CYWG;2007-10-27 00:00;CYWG 270000Z 27003KT 15SM FEW100 SCT210 05/M04 A3026 RMK AC1CI2 SLP258

CYWG;2007-10-27 01:00;CYWG 270100Z 23003KT 15SM FEW210 01/M05 A3028 RMK CI1 SLP262

CYWG;2007-10-27 02:00;CYWG 270200Z 25003KT 15SM SKC M00/M04 A3029 RMK SLP265

CYWG;2007-10-27 03:00;CYWG 270300Z 26004KT 15SM SKC M02/M06 A3029 RMK SLP270

CYWG;2007-10-27 04:00;CYWG 270400Z 26005KT 15SM SKC M02/M07 A3029 RMK SLP271

CYWG;2007-10-27 05:00;CYWG 270500Z 26006KT 15SM SKC M02/M08 A3029 RMK SLP271

CYWG;2007-10-27 06:00;CYWG 270600Z 26008KT 15SM SKC M01/M07 A3031 RMK SLP273

CYWG;2007-10-27 07:00;CYWG 270700Z 27008KT 15SM SKC M02/M08 A3031 RMK SLP274

CYWG;2007-10-27 08:00;CYWG 270800Z 26007KT 15SM SKC M03/M08 A3033 RMK SLP280

CYWG;2007-10-27 09:00;CYWG 270900Z 28007KT 15SM FEW100 M06/M08 A3032 RMK AC2 SLP281

CYWG;2007-10-27 10:00;CYWG 271000Z 28007KT 15SM FEW100 M05/M07 A3034 RMK AC1 SLP286

CYWG;2007-10-27 11:00;CYWG 271100Z 33007KT 15SM FEW067 M05/M07 A3036 RMK AC1 SLP293

CYWG;2007-10-27 12:00;CYWG 271200Z 33007KT 15SM FEW061 M05/M06 A3038 RMK SC1 SLP302

CYWG;2007-10-27 13:00;CYWG 271300Z 32008KT 15SM FEW061 M05/M06 A3041 RMK SC1 SLP311

CYWG;2007-10-27 14:00;CYWG 271400Z 32005KT 15SM FEW060 M04/M05 A3043 RMK SC1 SLP318

CYWG;2007-10-27 15:00;CYWG 271500Z 35009KT 15SM FEW060 00/M03 A3045 RMK SC1 SLP326

CYWG;2007-10-27 16:00;CYWG 271600Z 34013KT 15SM BKN035 02/M03 A3046 RMK SC6 SLP330

CYWG;2007-10-27 17:00;CYWG 271700Z 34014G19KT 15SM SCT033 03/M03 A3046 RMK SC2 SLP329

CYWG;2007-10-27 18:00;CYWG 271800Z 33012KT 15SM FEW033 FEW088 04/M04 A3046 RMK SC1AC1 SLP328

CYWG;2007-10-27 19:00;CYWG 271900Z 35010KT 15SM FEW033 04/M03 A3045 RMK SC2 SLP326

CYWG;2007-10-27 20:00;CYWG 272000Z 36006KT 15SM SCT035 05/M04 A3045 RMK SC3 SLP324

CYWG;2007-10-27 21:00;CYWG 272100Z 35006KT 15SM FEW037 05/M04 A3045 RMK SC2 SLP324

CYWG;2007-10-27 22:00;CYWG 272200Z 28007KT 15SM FEW040 05/M03 A3045 RMK SC1 SLP326

CYWG;2007-10-27 23:00;CYWG 272300Z 29007KT 15SM FEW040 02/M03 A3045 RMK SC1 SLP327

CYWG;2007-10-28 00:00;CYWG 280000Z 29005KT 15SM SKC M01/M04 A3045 RMK SLP328

CYWG;2007-10-28 01:00;CYWG 280100Z 27002KT 15SM SKC M03/M05 A3045 RMK SLP327

CYWG;2007-10-28 02:00;CYWG 280200Z 18003KT 15SM SKC M02/M05 A3045 RMK SLP325

CYWG;2007-10-28 03:00;CYWG 280300Z 18006KT 15SM SKC M03/M05 A3044 RMK SLP322

CYWG;2007-10-28 04:00;CYWG 280400Z 18006KT 15SM SKC M04/M05 A3043 RMK SLP318

CYWG;2007-10-28 05:00;CYWG 280500Z 18007KT 15SM SKC M03/M05 A3042 RMK SLP317

CYWG;2007-10-28 06:00;CYWG 280600Z 20010G15KT 15SM SKC M02/M04 A3041 RMK SLP311

CYWG;2007-10-28 07:00;CYWG 280700Z 20013KT 15SM SKC M03/M05 A3040 RMK SLP308

CYWG;2007-10-28 08:00;CYWG 280800Z 18011KT 15SM SKC M03/M06 A3038 RMK SLP300

CYWG;2007-10-28 09:00;CYWG 280900Z CCA 18014KT 15SM SKC M03/M06 A3035 RMK FROIN SLP292

CYWG;2007-10-28 10:00;CYWG 281000Z 18013KT 15SM SKC M03/M06 A3032 RMK FROIN SLP282

CYWG;2007-10-28 11:00;CYWG 281100Z 18014G19KT 15SM FEW200 M03/M05 A3029 RMK CS0 FROIN SLP272

CYWG;2007-10-28 12:00;CYWG 281200Z 18014G20KT 15SM SCT120 BKN200 M02/M04 A3027 RMK AC2CS2 FROIN SLP266

CYWG;2007-10-28 13:00;CYWG 281300Z 18016KT 15SM SCT120 BKN200 M02/M04 A3023 RMK AC2CI2 SLP251

CYWG;2007-10-28 14:00;CYWG 281400Z 18019G24KT 15SM SCT120 BKN210 M02/M04 A3019 RMK AC2CI2 SLP240

CYWG;2007-10-28 15:00;CYWG 281500Z 18021G26KT 15SM SCT120 BKN220 01/M03 A3016 RMK AC4CI2 SLP226

CYWG;2007-10-28 16:00;CYWG 281600Z 19025G33KT 15SM BKN094 BKN220 03/M02 A3009 RMK AC5CI2 COTRA SLP205

CYWG;2007-10-28 17:00;CYWG 281700Z 19018G32KT 15SM BKN094 OVC220 04/M01 A3007 RMK AC6CI2 SLP196

CYWG;2007-10-28 18:00;CYWG 281800Z 20023G31KT 15SM FEW094 SCT220 07/M00 A3002 RMK AC1CI1 SLP178

CYWG;2007-10-28 19:00;CYWG 281900Z 21021KT 15SM FEW094 SCT220 08/01 A3000 RMK AC2CI0 SLP172

CYWG;2007-10-28 20:00;CYWG 282000Z 19017KT 15SM BKN100 09/01 A2999 RMK AC5 SLP166

CYWG;2007-10-28 21:00;CYWG 282100Z 24009G18KT 15SM FEW100 SCT240 12/01 A2996 RMK AC1CI0 SLP157

CYWG;2007-10-28 22:00;CYWG 282200Z 28010KT 15SM FEW100 SCT240 12/01 A2998 RMK AC1CI0 SLP162

CYWG;2007-10-28 23:00;CYWG 282300Z 25005KT 15SM FEW240 09/M00 A2999 RMK CI1 SLP164

CYWG;2007-10-29 00:00;CYWG 290000Z 27006KT 15SM FEW240 07/M01 A3001 RMK CI0 SLP172

CYWG;2007-10-29 01:00;CYWG 290100Z 25007KT 15SM SKC 07/M01 A3002 RMK SLP175

CYWG;2007-10-29 02:00;CYWG 290200Z 25008KT 15SM SKC 06/M01 A3003 RMK SLP178

CYWG;2007-10-29 03:00;CYWG 290300Z 26010KT 15SM SKC 06/M02 A3003 RMK SLP180

CYWG;2007-10-29 04:00;CYWG 290400Z 27008KT 15SM SCT240 04/M02 A3004 RMK CI2 SLP182

CYWG;2007-10-29 05:00;CYWG 290500Z 26009KT 15SM FEW240 04/M02 A3006 RMK CI1 SLP189

CYWG;2007-10-29 06:00;CYWG 290600Z 26009KT 15SM BKN240 05/M02 A3007 RMK CI2 SLP192

CYWG;2007-10-29 07:00;CYWG 290700Z 27008KT 15SM BKN240 03/M02 A3008 RMK CI2 SLP194

CYWG;2007-10-29 08:00;CYWG 290800Z 27008KT 15SM SCT240 02/M02 A3009 RMK CI2 SLP199

CYWG;2007-10-29 09:00;CYWG 290900Z 27009KT 15SM SKC 02/M02 A3010 RMK SLP202

CYWG;2007-10-29 10:00;CYWG 291000Z 28008KT 15SM SKC M01/M03 A3010 RMK SLP201

CYWG;2007-10-29 11:00;CYWG 291100Z 30007KT 15SM SCT240 M02/M04 A3011 RMK CI1 SLP204

CYWG;2007-10-29 12:00;CYWG 291200Z 27002KT 15SM BKN120 BKN240 M00/M02 A3011 RMK AC5CI1 SLP208

CYWG;2007-10-29 13:00;CYWG 291300Z 00000KT 15SM BKN100 OVC240 00/M01 A3011 RMK AC6CI2 SLP208

CYWG;2007-10-29 14:00;CYWG 291400Z 29002KT 15SM BKN092 BKN240 02/00 A3014 RMK AC6CI2 SLP216

CYWG;2007-10-29 15:00;CYWG 291500Z 00000KT 15SM BKN087 OVC240 04/01 A3014 RMK AC6CI2 SLP217

CYWG;2007-10-29 16:00;CYWG 291600Z 00000KT 15SM FEW090 BKN120 OVC240 06/02 A3015 RMK AC2AC5CI2 SLP219

CYWG;2007-10-29 17:00;CYWG 291700Z 13006KT 15SM FEW100 BKN120 BKN240 08/02 A3012 RMK AC1AC5CI2 SLP211

CYWG;2007-10-29 18:00;CYWG 291800Z 13006KT 15SM BKN120 BKN240 09/02 A3010 RMK AC6CI2 SLP203

CYWG;2007-10-29 19:00;CYWG 291900Z 11007KT 12SM FEW100 BKN120 10/02 A3006 RMK AC2AC5 SLP190

CYWG;2007-10-29 20:00;CYWG 292000Z 14008KT 12SM SCT096 BKN120 11/03 A3005 RMK AC4AC2 SLP184

CYWG;2007-10-29 21:00;CYWG 292100Z 12010KT 15SM BKN120 12/03 A3002 RMK AC6 SLP174

CYWG;2007-10-29 22:00;CYWG 292200Z 12010KT 15SM SCT120 12/03 A2998 RMK AC3 PRESFR SLP161

CYWG;2007-10-29 23:00;CYWG 292300Z 10013KT 15SM SCT120 10/03 A2995 RMK AC3 PRESFR SLP150

CYWG;2007-10-30 00:00;CYWG 300000Z 10008KT 15SM FEW120 08/03 A2994 RMK AC2 SLP149

CYWG;2007-10-30 01:00;CYWG 300100Z 10009KT 15SM FEW120 07/02 A2993 RMK AC2 SLP145

CYWG;2007-10-30 02:00;CYWG 300200Z 11010KT 15SM SKC 06/02 A2990 RMK SLP137

CYWG;2007-10-30 03:00;CYWG 300300Z 12011KT 15SM SKC 06/02 A2987 RMK SLP123

CYWG;2007-10-30 04:00;CYWG 300400Z 12006KT 15SM SKC 04/01 A2984 RMK SLP113

CYWG;2007-10-30 05:00;CYWG 300500Z 14007KT 15SM FEW110 06/02 A2980 RMK AC2 SLP102

CYWG;2007-10-30 06:00;CYWG 300600Z 14006KT 15SM SCT110 05/02 A2979 RMK AC3 SLP095

CYWG;2007-10-30 07:00;CYWG 300700Z 17005KT 15SM BKN110 05/01 A2978 RMK AC5 SLP092

CYWG;2007-10-30 08:00;CYWG 300800Z 18004KT 15SM FEW110 04/01 A2977 RMK AC1 SLP090

CYWG;2007-10-30 09:00;CYWG 300900Z 17006KT 15SM SKC 01/M00 A2974 RMK SLP080

CYWG;2007-10-30 10:00;CYWG 301000Z 19004KT 15SM SKC 02/00 A2972 RMK SLP073

CYWG;2007-10-30 11:00;CYWG 301100Z 19006KT 15SM FEW210 00/M01 A2972 RMK CI1 SLP071

CYWG;2007-10-30 12:00;CYWG 301200Z 19007KT 15SM FEW210 01/M00 A2970 RMK CI0 SLP067

CYWG;2007-10-30 13:00;CYWG 301300Z 19007KT 15SM FEW120 SCT160 BKN210 02/00 A2969 RMK AC2AC1CI0 SLP064

CYWG;2007-10-30 14:00;CYWG 301400Z 20006KT 15SM SCT120 SCT160 BKN210 02/01 A2969 RMK AC2AC1CI0 SLP063

CYWG;2007-10-30 15:00;CYWG 301500Z 19005KT 15SM SCT120 BKN210 04/01 A2969 RMK AC2CI0 SLP062

CYWG;2007-10-30 16:00;CYWG 301600Z 19011KT 15SM FEW120 SCT210 07/03 A2967 RMK AC2CI0 SLP056

CYWG;2007-10-30 17:00;CYWG 301700Z 19008KT 15SM FEW120 BKN210 12/03 A2965 RMK AC1CI0 SLP049

CYWG;2007-10-30 18:00;CYWG 301800Z 23006KT 15SM SCT080 BKN210 15/03 A2963 RMK AC2CI1 SLP039

CYWG;2007-10-30 19:00;CYWG 301900Z 23008KT 15SM SCT090 OVC210 16/04 A2962 RMK AC1CI6 SLP037

CYWG;2007-10-30 20:00;CYWG 302000Z 23008KT 15SM SCT090 OVC160 16/05 A2961 RMK AC2AC6 SLP033

CYWG;2007-10-30 21:00;CYWG 302100Z 23008KT 15SM BKN100 OVC160 17/04 A2961 RMK AC5AC3 SLP034

CYWG;2007-10-30 21:54;CYWG 302154Z 27011KT 15SM -SHRA BKN041 BKN060 OVC080 16/ RMK SC5SC2AC1

CYWG;2007-10-30 22:00;CYWG 302200Z 28013KT 15SM -SHRA SCT041 BKN064 OVC080 16/03 A2962 RMK SC3SC1AC3 SLP036

CYWG;2007-10-30 23:00;CYWG 302300Z 32022G27KT 15SM -SHRA BKN055 OVC090 11/03 A2964 RMK SC6AC2 SLP043

CYWG;2007-10-31 00:00;CYWG 310000Z 31016KT 12SM -RA OVC041 07/06 A2971 RMK SC8 PRESRR SLP070

CYWG;2007-10-31 01:00;CYWG 310100Z 29009KT 15SM -RA OVC033 06/06 A2973 RMK SC8 SLP077

CYWG;2007-10-31 01:33;CYWG 310133Z 30008KT 15SM BKN042 OVC080 06/ RMK SC6AC2

CYWG;2007-10-31 02:00;CYWG 310200Z 29009KT 15SM OVC042 06/05 A2974 RMK SC8 SLP080

CYWG;2007-10-31 03:00;CYWG 310300Z 31014KT 15SM BKN033 OVC063 06/04 A2975 RMK SC6SC2 SLP083

CYWG;2007-10-31 04:00;CYWG 310400Z 29013KT 15SM SCT068 BKN110 05/04 A2975 RMK AC3AC3 SLP083

CYWG;2007-10-31 05:00;CYWG 310500Z 28011KT 15SM OVC038 06/04 A2974 RMK SC8 SLP081

CYWG;2007-10-31 06:00;CYWG 310600Z 29015G20KT 15SM OVC032 06/03 A2974 RMK SC8 SLP078

CYWG;2007-10-31 07:00;CYWG 310700Z 30014G20KT 15SM BKN040 04/03 A2976 RMK SC6 SLP082

CYWG;2007-10-31 08:00;CYWG 310800Z 28016KT 15SM BKN032 04/02 A2976 RMK SC6 SLP084

CYWG;2007-10-31 09:00;CYWG 310900Z 28016KT 15SM BKN030 03/01 A2977 RMK SC6 SLP088

CYWG;2007-10-31 10:00;CYWG 311000Z 29015KT 15SM BKN030 04/01 A2979 RMK SC6 SLP093

CYWG;2007-10-31 11:00;CYWG 311100Z 30017KT 15SM BKN028 04/01 A2981 RMK SC6 SLP101

CYWG;2007-10-31 12:00;CYWG 311200Z CCA 30016KT 15SM -SHRASN OVC031 03/M00 A2983 RMK SC8 SLP112

CYWG;2007-10-31 12:19;CYWG 311219Z 31015KT 1 1/2SM -SHRASN OVC030 01/ RMK SN2SC6

CYWG;2007-10-31 12:31;CYWG 311231Z 30013G19KT 4SM -SHRASN OVC030 01/ RMK SC8

CYWG;2007-10-31 12:41;CYWG 311241Z 30014KT 15SM -SHSN OVC008 02/ RMK SC8

CYWG;2007-10-31 13:00;CYWG 311300Z 31014KT 15SM -SHRASN BKN008 OVC050 02/02 A2986 RMK SF5SC3 VSBY 2 NW SLP119

CYWG;2007-10-31 13:23;CYWG 311323Z 30012KT 15SM BKN009 BKN062 BKN210 02/ RMK SC4SC2CI0

CYWG;2007-10-31 13:40;CYWG 311340Z 30011KT 15SM -SHRA FEW009 BKN024 02/ RMK SF2SC3

CYWG;2007-10-31 14:00;CYWG 311400Z 29009KT 15SM FEW010 BKN024 BKN081 02/02 A2987 RMK SF1SC6AC1 SHWRS NW-N QUAD SLP122

CYWG;2007-10-31 14:20;CYWG 311420Z 31016G24KT 15SM -SHRA BKN024 BKN070 03/ RMK SC6AC2 VSBY 5 N

CYWG;2007-10-31 15:00;CYWG 311500Z 30017KT 15SM -SHRA FEW010 BKN027 BKN068 03/01 A2989 RMK SF1SC6AC1 SHWRS NW SLP131

CYWG;2007-10-31 15:22;CYWG 311522Z 30021KT 15SM BKN033 BKN065 03/ RMK SC6SC2 SHWRS N

CYWG;2007-10-31 15:43;CYWG 311543Z 33016G27KT 8SM -SHGS OVC027 02/ RMK SC8 CIG RAG

CYWG;2007-10-31 16:00;CYWG 311600Z 33019G28KT 12SM -SHRASN BKN022 02/01 A2993 RMK SC7 SLP143

CYWG;2007-10-31 16:30;CYWG 311630Z 32019G25KT 15SM BKN022 BKN055 03/ RMK SC6SC1

CYWG;2007-10-31 17:00;CYWG 311700Z 31018G25KT 15SM BKN024 03/01 A2995 RMK SC7 TCU ASCOTD SLP151

CYWG;2007-10-31 18:00;CYWG 311800Z 32019G26KT 15SM -SHRAGS OVC026 03/00 A2998 RMK SC8 TCU ASCTD SLP162

CYWG;2007-10-31 18:16;CYWG 311816Z 33023G31KT 15SM -SHRA SCT014 OVC054 03/ RMK SC4SC4 TCU ASCTD

CYWG;2007-10-31 18:23;CYWG 311823Z 32020G31KT 12SM -SHSN BKN005 OVC054 02/ RMK SC5SC3 TCU ASCTD

CYWG;2007-10-31 19:00;CYWG 311900Z 32019G24KT 2SM -SHSN OVC009 01/00 A3001 RMK SC8 TCU ASCTD SLP171

CYWG;2007-10-31 19:26;CYWG 311926Z 32017G24KT 10SM -SHSN SCT009 OVC054 02/ RMK SF3SC5

CYWG;2007-10-31 19:41;CYWG 311941Z 32016G21KT 15SM FEW010 BKN027 OVC032 03/ RMK SF2CU3SC3

CYWG;2007-10-31 20:00;CYWG 312000Z 32014G21KT 15SM FEW010 SCT027 BKN036 03/01 A3002 RMK SF2SC2SC3 SLP174

CYWG;2007-10-31 21:00;CYWG 312100Z 32020G29KT 15SM FEW010 SCT030 BKN048 BKN210 03/M01 A3002 RMK SF1SC2SC3CI1 SLP177

CYWG;2007-10-31 22:00;CYWG 312200Z 34015G20KT 15SM FEW044 BKN210 03/M02 A3003 RMK SC1CI3 SLP181

CYWG;2007-10-31 23:00;CYWG 312300Z 34012KT 15SM FEW044 FEW120 BKN210 02/M02 A3005 RMK SC1AC1CI1 SLP186

CYWG;2007-11-01 01:00;CYWG 010100Z 31002KT 15SM FEW120 FEW210 M02/M03 A3007 RMK AC1CI2 SLP196

CYWG;2007-11-01 02:00;CYWG 010200Z 30002KT 15SM FEW120 FEW210 M04/M05 A3008 RMK AC1CI1 SLP197

CYWG;2007-11-01 03:00;CYWG 010300Z 23002KT 15SM FEW210 M04/M05 A3009 RMK CI0 SLP201

CYWG;2007-11-01 04:00;CYWG 010400Z 18003KT 15SM FEW210 M05/M05 A3008 RMK CI0 SLP200

CYWG;2007-11-01 05:00;CYWG 010500Z 18006KT 15SM FEW210 M03/M03 A3008 RMK CI0 SLP198

CYWG;2007-11-01 06:00;CYWG 010600Z 15006KT 15SM FEW080 FEW220 M04/M05 A3007 RMK AC1CI0 SLP195

CYWG;2007-11-01 07:00;CYWG 010700Z 18006KT 15SM SKC M04/M05 A3005 RMK SLP190

CYWG;2007-11-01 08:00;CYWG 010800Z 16007KT 15SM SKC M03/M04 A3003 RMK SLP183

CYWG;2007-11-01 09:00;CYWG 010900Z 17009KT 15SM SKC M02/M03 A3001 RMK SLP173

CYWG;2007-11-01 10:00;CYWG 011000Z 17011KT 15SM SKC M02/M03 A3000 RMK SLP170

CYWG;2007-11-01 11:00;CYWG 011100Z 18009KT 15SM FEW090 M02/M04 A2999 RMK AC2 SLP166

CYWG;2007-11-01 12:00;CYWG 011200Z 17008KT 15SM BKN100 M02/M03 A2996 RMK AC6 SLP159

CYWG;2007-11-01 13:00;CYWG 011300Z 16009KT 15SM BKN100 M01/M03 A2993 RMK AC6 SLP149

CYWG;2007-11-01 14:00;CYWG 011400Z 16010KT 15SM FEW100 BKN260 M00/M03 A2990 RMK AC2CI2 SLP140

CYWG;2007-11-01 15:00;CYWG 011500Z 17015KT 15SM FEW100 BKN260 03/M03 A2988 RMK AC1CI4 SLP130

CYWG;2007-11-01 16:00;CYWG 011600Z 18016KT 15SM FEW100 BKN240 05/M03 A2984 RMK AC1CI5 SLP119

CYWG;2007-11-01 17:00;CYWG 011700Z 18017KT 15SM BKN094 OVC240 05/M02 A2982 RMK AC5CI2 SLP110

CYWG;2007-11-01 18:00;CYWG 011800Z 18015KT 15SM BKN095 OVC240 05/M01 A2977 RMK AC6CI2 SLP093

CYWG;2007-11-01 19:00;CYWG 011900Z 18014G21KT 15SM BKN100 OVC240 06/M00 A2973 RMK AC6CI2 SLP078

CYWG;2007-11-01 20:00;CYWG 012000Z 17017KT 15SM BKN095 OVC240 06/M00 A2970 RMK AC6CI2 SLP068

CYWG;2007-11-01 21:00;CYWG 012100Z 18016G21KT 15SM OVC072 06/00 A2967 RMK AC8 SLP058

CYWG;2007-11-01 22:00;CYWG 012200Z 19010KT 15SM BKN086 OVC240 07/01 A2966 RMK AC7CI1 SLP055

CYWG;2007-11-01 23:00;CYWG 012300Z 20006KT 15SM BKN071 OVC240 06/01 A2965 RMK AC7CI1 SLP051

CYWG;2007-11-02 00:00;CYWG 020000Z 20009KT 15SM OVC059 07/02 A2964 RMK SC8 SLP046

CYWG;2007-11-02 01:00;CYWG 020100Z 20004KT 15SM -RA OVC031 07/02 A2962 RMK SC8 SLP042

CYWG;2007-11-02 01:28;CYWG 020128Z 27005KT 15SM OVC037 07/ RMK SC8

CYWG;2007-11-02 02:00;CYWG 020200Z 23005KT 15SM SCT039 OVC084 07/02 A2962 RMK SC3AC5 SLP042

CYWG;2007-11-02 03:00;CYWG 020300Z 29012KT 15SM BKN083 05/00 A2964 RMK AC6 SLP047

CYWG;2007-11-02 04:00;CYWG 020400Z 28007KT 15SM FEW079 02/M01 A2965 RMK AC1 SLP049

CYWG;2007-11-02 05:00;CYWG 020500Z 27008KT 15SM SKC 01/M01 A2966 RMK SLP053

CYWG;2007-11-02 06:00;CYWG 020600Z 30009KT 15SM SKC 01/M01 A2966 RMK SLP055

CYWG;2007-11-02 07:00;CYWG 020700Z 27010KT 15SM BKN085 02/M01 A2968 RMK AC7 SLP062

CYWG;2007-11-02 08:00;CYWG 020800Z 27010KT 15SM SCT068 OVC087 03/M01 A2970 RMK AC3AC5 SLP069

CYWG;2007-11-02 08:50;CYWG 020850Z 29013G18KT 15SM -RA OVC027 03/ RMK SC8

CYWG;2007-11-02 09:00;CYWG 020900Z 29014KT 15SM -RA OVC021 03/03 A2974 RMK SC8 SLP078

CYWG;2007-11-02 10:00;CYWG 021000Z 25005KT 15SM FEW025 BKN063 03/03 A2973 RMK SC2SC4 SLP077

CYWG;2007-11-02 11:00;CYWG 021100Z 26011KT 15SM SCT065 OVC240 03/02 A2975 RMK SC3CI1 SLP083

CYWG;2007-11-02 12:00;CYWG 021200Z 27011KT 15SM FEW065 BKN240 01/M00 A2977 RMK SC1CI1 SLP091

CYWG;2007-11-02 13:00;CYWG 021300Z 27011KT 15SM FEW065 SCT240 01/M01 A2979 RMK SC1CI1 SLP097

CYWG;2007-11-02 14:00;CYWG 021400Z 28013KT 15SM FEW065 FEW240 00/M02 A2982 RMK SC1CI1 SLP107

CYWG;2007-11-02 15:00;CYWG 021500Z 27013KT 15SM FEW080 FEW240 01/M02 A2984 RMK AC1CI0 SLP114

CYWG;2007-11-02 16:00;CYWG 021600Z 28016KT 15SM FEW080 SCT240 03/M01 A2986 RMK AC1CI1 SLP121

CYWG;2007-11-02 17:00;CYWG 021700Z 28015G21KT 15SM FEW084 BKN240 04/M01 A2987 RMK AC1CI2 SLP125

CYWG;2007-11-02 18:00;CYWG 021800Z 29019KT 15SM FEW059 FEW080 BKN240 06/M00 A2988 RMK SC1AC1CI1 SLP129

CYWG;2007-11-02 19:00;CYWG 021900Z 29022KT 15SM FEW030 BKN053 BKN080 07/01 A2989 RMK CU2SC2AC2 SLP132

CYWG;2007-11-02 20:00;CYWG 022000Z 30016G22KT 15SM BKN030 06/M00 A2990 RMK SC7 SLP135

CYWG;2007-11-02 21:00;CYWG 022100Z 30012G20KT 15SM BKN030 BKN044 06/M00 A2992 RMK SC5SC2 SLP140

CYWG;2007-11-02 22:00;CYWG 022200Z 29010G17KT 15SM BKN036 06/00 A2994 RMK SC7 SLP147

CYWG;2007-11-02 23:00;CYWG 022300Z 28009KT 15SM OVC042 05/M00 A2996 RMK SC8 SLP154

CYWG;2007-11-03 00:00;CYWG 030000Z 30010KT 15SM OVC038 05/01 A2998 RMK SC8 SLP163

CYWG;2007-11-03 00:07;CYWG 030007Z 29009KT 12SM -RA BKN042 OVC063 04/ RMK SC6SC2

CYWG;2007-11-03 00:48;CYWG 030048Z 28008KT 15SM BKN023 BKN060 03/ RMK SC5SC2

CYWG;2007-11-03 01:00;CYWG 030100Z 28007KT 15SM BKN023 BKN060 03/01 A2999 RMK SC5SC2 SLP168

CYWG;2007-11-03 02:00;CYWG 030200Z 27007KT 15SM BKN041 02/M00 A3001 RMK SC5 SLP172

CYWG;2007-11-03 03:00;CYWG 030300Z 26007KT 15SM FEW057 01/M02 A3001 RMK SC1 SLP175

CYWG;2007-11-03 04:00;CYWG 030400Z 26008KT 15SM FEW053 FEW270 00/M03 A3001 RMK SC1CI1 SLP174

CYWG;2007-11-03 05:00;CYWG 030500Z 26007KT 15SM FEW040 01/M02 A3001 RMK SC1 SLP175

CYWG;2007-11-03 06:00;CYWG 030600Z 26008KT 15SM SKC M01/M03 A3002 RMK SLP176

CYWG;2007-11-03 07:00;CYWG 030700Z 25008KT 15SM SKC M02/M04 A3001 RMK SLP172

CYWG;2007-11-03 08:00;CYWG 030800Z 25008KT 15SM SKC M02/M04 A3001 RMK SLP172

CYWG;2007-11-03 09:00;CYWG 030900Z 26007KT 15SM SKC M02/M05 A3001 RMK SLP173

CYWG;2007-11-03 10:00;CYWG 031000Z 26007KT 15SM SKC M02/M05 A3000 RMK SLP170

CYWG;2007-11-03 11:00;CYWG 031100Z 25007KT 15SM SKC M03/M05 A2999 RMK SLP169

CYWG;2007-11-03 12:00;CYWG 031200Z 22006KT 15SM FEW230 M05/M06 A2999 RMK CI2 SLP167

CYWG;2007-11-03 13:00;CYWG 031300Z 19005KT 15SM SCT230 M05/M06 A2997 RMK CI2 SLP161

CYWG;2007-11-03 14:00;CYWG 031400Z 19005KT 15SM FEW120 BKN250 M04/M05 A2996 RMK AC1CI2 SLP160

CYWG;2007-11-03 15:00;CYWG 031500Z 17005KT 15SM FEW120 BKN250 M03/M04 A2996 RMK AC2CI2 SLP159

CYWG;2007-11-03 16:00;CYWG 031600Z 19007KT 15SM FEW120 BKN250 M01/M04 A2995 RMK AC2CI2 SLP156

CYWG;2007-11-03 17:00;CYWG 031700Z 15007KT 15SM FEW080 BKN250 02/M02 A2993 RMK AC2CI2 SLP147

CYWG;2007-11-03 18:00;CYWG 031800Z 17010KT 15SM SCT089 BKN250 04/M01 A2991 RMK AC2CI2 SLP141

CYWG;2007-11-03 19:00;CYWG 031900Z 17010KT 15SM SCT099 OVC250 05/M01 A2988 RMK AC3CI1 SLP131

CYWG;2007-11-03 20:00;CYWG 032000Z 16008KT 15SM BKN093 OVC250 06/M01 A2986 RMK AC6CI2 SLP124

CYWG;2007-11-03 21:00;CYWG 032100Z 18008KT 15SM SCT068 OVC080 06/M02 A2985 RMK AC3AC5 VIRGA W SLP120

CYWG;2007-11-03 22:00;CYWG 032200Z 17008KT 15SM SCT048 BKN088 OVC250 07/M00 A2985 RMK SC4AC2CI1 VIRGA E SLP118

CYWG;2007-11-03 23:00;CYWG 032300Z 15010KT 15SM BKN068 BKN095 06/M00 A2982 RMK AC5AC2 SLP110

CYWG;2007-11-04 00:00;CYWG 040000Z 16007KT 15SM SCT062 BKN084 05/M01 A2983 RMK SC3AC3 SLP114

CYWG;2007-11-04 01:00;CYWG 040100Z 16005KT 15SM SCT055 OVC064 04/M01 A2982 RMK SC3SC5 SLP109

CYWG;2007-11-04 02:00;CYWG 040200Z 17006KT 15SM SCT066 OVC081 03/M01 A2980 RMK AC3AC5 SLP103

CYWG;2007-11-04 03:00;CYWG 040300Z 20005KT 15SM BKN091 03/M02 A2979 RMK AC5 SLP100

CYWG;2007-11-04 04:00;CYWG 040400Z 25004KT 15SM FEW086 01/M03 A2978 RMK AC2 SLP098

CYWG;2007-11-04 05:00;CYWG 040500Z 27008KT 15SM FEW086 M00/M04 A2979 RMK AC1 SLP099

CYWG;2007-11-04 06:00;CYWG 040600Z 27007KT 15SM SKC M01/M05 A2979 RMK SLP098

CYWG;2007-11-04 07:00;CYWG 040700Z 27007KT 15SM SKC M02/M04 A2978 RMK SLP096

CYWG;2007-11-04 08:00;CYWG 040800Z 27007KT 15SM SKC M02/M04 A2978 RMK SLP095

CYWG;2007-11-04 09:00;CYWG 040900Z 27007KT 15SM FEW240 M03/M05 A2979 RMK CI0 SLP098

CYWG;2007-11-04 10:00;CYWG 041000Z 27007KT 15SM FEW095 FEW240 M03/M04 A2977 RMK AC1CI0 SLP094

CYWG;2007-11-04 11:00;CYWG 041100Z 27007KT 15SM FEW095 FEW240 M03/M05 A2978 RMK AC1CI0 SLP095

CYWG;2007-11-04 12:00;CYWG 041200Z 27006KT 15SM SKC M05/M06 A2976 RMK SLP090

CYWG;2007-11-04 13:00;CYWG 041300Z 26008KT 15SM FEW090 FEW240 M04/M05 A2976 RMK AC2CI0 SLP088

CYWG;2007-11-04 14:00;CYWG 041400Z 27009KT 15SM FEW088 SCT210 M03/M05 A2975 RMK AC1CI1 CC ASOCTD SLP086

CYWG;2007-11-04 15:00;CYWG 041500Z 28005KT 15SM FEW100 BKN210 M00/M03 A2974 RMK AC1CI2 SLP083

CYWG;2007-11-04 16:00;CYWG 041600Z 30005KT 15SM FEW100 BKN210 02/M01 A2975 RMK AC1CI5 SLP085

CYWG;2007-11-04 17:00;CYWG 041700Z 25005KT 15SM SCT100 BKN210 03/M00 A2974 RMK AC3CI4 SLP081

CYWG;2007-11-04 18:00;CYWG 041800Z 23003KT 15SM SCT052 BKN080 OVC210 03/M01 A2974 RMK SC3AC3CI2 SLP081

CYWG;2007-11-04 19:00;CYWG 041900Z 30003KT 15SM BKN032 OVC080 03/M00 A2971 RMK SC6AC2 SLP072

CYWG;2007-11-04 20:00;CYWG 042000Z 30003KT 15SM -RASN BKN027 OVC053 04/M00 A2970 RMK SC6SC2 SLP068

CYWG;2007-11-04 20:39;CYWG 042039Z 29004KT 15SM FEW030 OVC053 04/ RMK SC2SC6

CYWG;2007-11-04 21:00;CYWG 042100Z 32005KT 15SM BKN045 OVC070 04/M00 A2970 RMK SC6AC2 SLP071

CYWG;2007-11-04 22:00;CYWG 042200Z 30004KT 15SM -RA BKN026 OVC070 03/00 A2971 RMK SC6AC2 SLP074

CYWG;2007-11-04 23:00;CYWG 042300Z 29004KT 15SM FEW030 OVC052 02/01 A2973 RMK SC2SC6 VIRGA SLP078

CYWG;2007-11-04 23:46;CYWG 042346Z 30004KT 15SM OVC046 02/ RMK SC8

CYWG;2007-11-05 00:00;CYWG 050000Z 29005KT 15SM FEW025 OVC046 02/00 A2973 RMK SC2SC6 SLP081

CYWG;2007-11-05 00:30;CYWG 050030Z 29007KT 10SM -RASN OVC018 02/ RMK SC8

CYWG;2007-11-05 01:00;CYWG 050100Z 30008KT 10SM -RASN OVC018 02/01 A2976 RMK SC8 SLP089

CYWG;2007-11-05 01:53;CYWG 050153Z 28008KT 8SM -RASN OVC015 02/ RMK SN3SC5

CYWG;2007-11-05 02:00;CYWG 050200Z 29007KT 10SM -RASN OVC015 02/02 A2976 RMK SN2SC6 SLP091

CYWG;2007-11-05 03:00;CYWG 050300Z 29008KT 15SM SCT015 OVC055 02/02 A2976 RMK SC2SC6 SLP088

CYWG;2007-11-05 04:00;CYWG 050400Z 30007KT 15SM OVC047 01/01 A2976 RMK SC8 SLP089

CYWG;2007-11-05 05:00;CYWG 050500Z 29005KT 15SM BKN040 OVC074 M00/M00 A2976 RMK SC6AC2 SLP090

CYWG;2007-11-05 06:00;CYWG 050600Z 29008KT 15SM FEW049 FEW074 M00/M00 A2977 RMK SC2AC1 SLP092

CYWG;2007-11-05 07:00;CYWG 050700Z 29008KT 15SM FEW065 M03/M03 A2977 RMK SC1 SLP093

CYWG;2007-11-05 08:00;CYWG 050800Z 31011G16KT 15SM BKN056 00/M00 A2979 RMK SC6 SLP100

CYWG;2007-11-05 08:47;CYWG 050847Z 30009KT 15SM -SN SCT043 OVC082 00/ RMK SC3AC5

CYWG;2007-11-05 09:00;CYWG 050900Z 31008KT 15SM -SN OVC050 00/M00 A2981 RMK SC8 SLP106

CYWG;2007-11-05 09:24;CYWG 050924Z 31013KT 15SM FEW021 OVC050 00/ RMK SC2SC6

CYWG;2007-11-05 10:00;CYWG 051000Z 32014KT 15SM FEW066 M00/M02 A2984 RMK AC1 SLP115

CYWG;2007-11-05 11:00;CYWG 051100Z 32011KT 15SM SCT047 M01/M03 A2986 RMK SC3 SLP121

CYWG;2007-11-05 11:46;CYWG 051146Z 33018G24KT 12SM -SHSN BKN025 BKN067 00/ RMK SC5AC1

CYWG;2007-11-05 12:00;CYWG 051200Z 32015G21KT 15SM -SHSN BKN025 BKN076 M00/M02 A2987 RMK SC5AC1 TCU EMBD SLP128

CYWG;2007-11-05 12:24;CYWG 051224Z 32015KT 15SM BKN035 BKN075 00/ RMK SC5AC2

CYWG;2007-11-05 13:00;CYWG 051300Z 32017KT 15SM BKN029 BKN082 00/M02 A2989 RMK SC5AC2 SLP134

CYWG;2007-11-05 14:00;CYWG 051400Z 32021KT 15SM BKN031 OVC080 01/M03 A2992 RMK SC5AC2 SLP143

CYWG;2007-11-05 14:44;CYWG 051444Z 32019G26KT 12SM -SHSN BKN034 OVC080 01/ RMK SC6AC2 TCU EMBD

CYWG;2007-11-05 15:00;CYWG 051500Z 32018G26KT 12SM -SHSN BKN023 OVC080 01/M02 A2995 RMK SC6AC2 TCU EMBD SLP154

CYWG;2007-11-05 16:00;CYWG 051600Z 32018G28KT 12SM -SHSN BKN019 OVC049 01/M01 A2997 RMK SC6SC2 TCU EMBD SLP161

CYWG;2007-11-05 17:00;CYWG 051700Z 32020G29KT 12SM -SHSN SCT015 OVC020 01/M00 A3000 RMK SC3SC5 TCU EMBD SLP170

CYWG;2007-11-05 17:21;CYWG 051721Z 33019G28KT 15SM BKN015 OVC060 02/ RMK SC5SC3

CYWG;2007-11-05 18:00;CYWG 051800Z 33023G32KT 15SM BKN017 OVC060 02/M00 A3002 RMK SC6SC1 SLP176

CYWG;2007-11-05 19:00;CYWG 051900Z 34023G30KT 15SM BKN017 OVC060 03/M00 A3004 RMK SC6SC1 SLP185

CYWG;2007-11-05 20:00;CYWG 052000Z 34021G29KT 15SM BKN013 02/01 A3008 RMK SC7 SHWRS NW-N SLP197

CYWG;2007-11-05 21:00;CYWG 052100Z 34024KT 15SM VCSH SCT023 BKN045 BKN090 03/M01 A3011 RMK SC3SC2AC1 SLP208

CYWG;2007-11-05 21:17;CYWG 052117Z 33026G33KT 10SM -SHSN BKN021 BKN045 RMK SC6SC2 TCU EMBD

CYWG;2007-11-05 21:37;CYWG 052137Z 33025G32KT 1SM R31/P6000FT/U R36/P6000FT/U -SHSN OVC020 01/ RMK SN5SC3

CYWG;2007-11-05 21:48;CYWG 052148Z 33021G28KT 10SM -SHSN SCT010 BKN061 OVC090 01/ RMK SF3SC3AC1

CYWG;2007-11-05 22:00;CYWG 052200Z 34020G28KT 15SM VCSH SCT006 BKN037 BKN060 BKN090 01/01 A3016 RMK SF2SC2SC1AC1 VIS E 5 SLP223

CYWG;2007-11-05 22:24;CYWG 052224Z 33019G28KT 2SM -SHSN SCT006 BKN045 OVC090 00/ RMK SF3SC3AC2

CYWG;2007-11-05 22:34;CYWG 052234Z 34020KT 10SM VCSH FEW010 BKN043 BKN090 01/ RMK SF2SC5AC1

CYWG;2007-11-05 23:00;CYWG 052300Z 33024G31KT 15SM FEW010 BKN021 OVC090 M00/M02 A3020 RMK SF1SC6AC2 SLP238

CYWG;2007-11-06 00:00;CYWG 060000Z 35014G19KT 15SM BKN019 OVC045 M01/M03 A3024 RMK SC6SC2 SLP254

CYWG;2007-11-06 01:00;CYWG 060100Z 34016G22KT 15SM BKN024 BKN043 M01/M04 A3026 RMK SC5SC2 SLP259

CYWG;2007-11-06 02:00;CYWG 060200Z 33014KT 15SM SCT024 BKN035 M02/M04 A3027 RMK SC3SC2 SLP263

CYWG;2007-11-06 03:00;CYWG 060300Z 32011G16KT 15SM BKN038 M02/M04 A3028 RMK SC7 SLP268

CYWG;2007-11-06 04:00;CYWG 060400Z 34014KT 15SM BKN042 M02/M04 A3030 RMK SC6 SLP273

CYWG;2007-11-06 05:00;CYWG 060500Z 33010KT 15SM SCT019 BKN053 M03/M05 A3032 RMK SC3SC3 SLP279

CYWG;2007-11-06 06:00;CYWG 060600Z 34009KT 15SM SCT015 BKN045 M03/M04 A3033 RMK SC3SC3 SLP286

CYWG;2007-11-06 07:00;CYWG 060700Z 34009KT 15SM BKN024 OVC052 M03/M04 A3035 RMK SC6SC2 SLP292

CYWG;2007-11-06 08:00;CYWG 060800Z 34010KT 15SM BKN022 OVC052 M03/M04 A3037 RMK SC6SC2 SLP298

CYWG;2007-11-06 09:00;CYWG 060900Z 35009KT 15SM -SN OVC017 M02/M04 A3038 RMK SC8 SLP300

CYWG;2007-11-06 09:51;CYWG 060951Z 03009KT 15SM -SN DRSN OVC010 M03/ RMK SC8

CYWG;2007-11-06 10:00;CYWG 061000Z 02011KT 10SM -SN DRSN OVC008 M03/M04 A3039 RMK SC8 SLP304

CYWG;2007-11-06 10:20;CYWG 061020Z 01010KT 12SM -SN DRSN SCT012 OVC016 M03/ RMK SC4SC4

CYWG;2007-11-06 11:00;CYWG 061100Z 02008KT 15SM -SN OVC022 M03/M05 A3041 RMK SC8 SLP310

CYWG;2007-11-06 11:49;CYWG 061149Z 36007KT 15SM OVC024 M03/ RMK SC8

CYWG;2007-11-06 12:00;CYWG 061200Z 36007KT 15SM OVC024 M03/M05 A3041 RMK SC8 SLP314

CYWG;2007-11-06 13:00;CYWG 061300Z 01006KT 15SM OVC026 M04/M06 A3042 RMK SC8 SLP316

CYWG;2007-11-06 14:00;CYWG 061400Z 36007KT 15SM BKN026 M04/M06 A3043 RMK SC6 SLP320

CYWG;2007-11-06 15:00;CYWG 061500Z 36008KT 15SM OVC028 M03/M07 A3044 RMK SC6 SLP323

CYWG;2007-11-06 16:00;CYWG 061600Z 35011KT 15SM OVC024 M03/M07 A3045 RMK SC8 SLP326

CYWG;2007-11-06 17:00;CYWG 061700Z 35007KT 15SM BKN024 OVC061 M02/M07 A3044 RMK SC5SC2 SLP324

CYWG;2007-11-06 18:00;CYWG 061800Z 32005KT 15SM BKN024 OVC090 M02/M07 A3044 RMK SC6AC1 SLP323

CYWG;2007-11-06 19:00;CYWG 061900Z 20002KT 15SM BKN024 OVC090 M02/M07 A3042 RMK SC5AC3 SLP317

CYWG;2007-11-06 20:00;CYWG 062000Z 22004KT 15SM OVC024 M02/M07 A3039 RMK SC8 SLP307

CYWG;2007-11-06 21:00;CYWG 062100Z 29005KT 15SM BKN024 OVC094 M02/M07 A3038 RMK SC7AC1 SLP302

CYWG;2007-11-06 22:00;CYWG 062200Z 23002KT 15SM BKN024 M02/M07 A3036 RMK SC7 SLP297

CYWG;2007-11-06 23:00;CYWG 062300Z 22003KT 15SM BKN026 M02/M07 A3035 RMK SC7 SLP293

CYWG;2007-11-07 00:00;CYWG 070000Z 17006KT 15SM OVC024 M02/M07 A3033 RMK SC8 SLP287

CYWG;2007-11-07 01:00;CYWG 070100Z 17009KT 15SM OVC024 M03/M07 A3031 RMK SC8 SLP278

CYWG;2007-11-07 02:00;CYWG 070200Z 18009KT 15SM BKN022 BKN240 M03/M06 A3029 RMK SC6CI2 SLP274

CYWG;2007-11-07 03:00;CYWG 070300Z 18007KT 15SM FEW022 OVC240 M03/M06 A3027 RMK SC2CI5 SLP265

CYWG;2007-11-07 04:00;CYWG 070400Z 18012KT 15SM BKN120 OVC240 M03/M06 A3024 RMK AC6CI2 SLP255

CYWG;2007-11-07 05:00;CYWG 070500Z 18012KT 15SM BKN093 OVC240 M03/M06 A3020 RMK AC6CI2 SLP241

CYWG;2007-11-07 06:00;CYWG 070600Z 18016KT 15SM BKN095 OVC240 M03/M06 A3019 RMK AC6CI2 SLP236

CYWG;2007-11-07 07:00;CYWG 070700Z 17015KT 15SM BKN090 OVC240 M03/M06 A3015 RMK AC6CI2 SLP224

CYWG;2007-11-07 08:00;CYWG 070800Z 18020G26KT 15SM BKN080 OVC240 M03/M06 A3009 RMK AC7CI1 SLP205

CYWG;2007-11-07 09:00;CYWG 070900Z 18019G25KT 15SM OVC080 M03/M05 A3005 RMK AC8 SLP191

CYWG;2007-11-07 10:00;CYWG 071000Z 17020G25KT 15SM VCSH FEW015 OVC072 M03/M05 A3002 RMK SC2AC6 VCSH NE SLP179

CYWG;2007-11-07 11:00;CYWG 071100Z 18020G25KT 15SM BKN069 OVC095 M03/M05 A2998 RMK AC6AC2 SLP167

CYWG;2007-11-07 12:00;CYWG 071200Z 18019G25KT 15SM BKN055 OVC240 M03/M05 A2996 RMK SC6CI1 SLP159

CYWG;2007-11-07 13:00;CYWG 071300Z 18014KT 15SM BKN067 OVC097 M03/M05 A2995 RMK AC6AC2 OBS TKN +14 SLP155

CYWG;2007-11-07 14:00;CYWG 071400Z 19013G19KT 15SM BKN067 BKN240 M03/M05 A2993 RMK AC6CI0 SLP151

CYWG;2007-11-07 15:00;CYWG 071500Z 18013G19KT 15SM FEW041 BKN090 M02/M05 A2990 RMK SC2AC5 SLP141

CYWG;2007-11-07 16:00;CYWG 071600Z 19014G19KT 15SM FEW090 FEW240 M01/M05 A2989 RMK AC1CI0 SLP135

CYWG;2007-11-07 17:00;CYWG 071700Z 19010G15KT 15SM FEW040 FEW090 FEW240 00/M04 A2988 RMK SC1AC1CI0 SLP133

CYWG;2007-11-07 18:00;CYWG 071800Z 21006KT 15SM FEW045 FEW080 01/M04 A2987 RMK SC1AC1 SLP129

CYWG;2007-11-07 19:00;CYWG 071900Z 26003KT 15SM FEW080 02/M04 A2985 RMK AC1 SLP122

CYWG;2007-11-07 20:00;CYWG 072000Z 30005KT 15SM FEW090 FEW250 04/M04 A2986 RMK AC1CI1 FU NW SLP123

CYWG;2007-11-07 21:00;CYWG 072100Z 32008KT 15SM FEW029 FEW049 BKN250 04/M03 A2987 RMK SC2SC1CI1 SLP127

CYWG;2007-11-07 22:00;CYWG 072200Z 36008KT 15SM FEW029 BKN049 03/M03 A2989 RMK SC1SC6 SLP133

CYWG;2007-11-07 23:00;CYWG 072300Z 31007KT 15SM OVC053 02/M03 A2990 RMK SC8 SLP138

CYWG;2007-11-08 00:00;CYWG 080000Z 34012KT 15SM SCT037 OVC051 02/M02 A2992 RMK SC3SC5 SLP144

CYWG;2007-11-08 01:00;CYWG 080100Z 33013KT 15SM OVC051 02/M02 A2993 RMK SC8 SLP148

CYWG;2007-11-08 02:00;CYWG 080200Z 33010KT 15SM OVC051 01/M01 A2994 RMK SC8 SLP152

CYWG;2007-11-08 03:00;CYWG 080300Z 32008KT 15SM BKN023 OVC051 01/M01 A2996 RMK SC5SC3 SLP157

CYWG;2007-11-08 04:00;CYWG 080400Z 33007KT 15SM OVC017 01/M01 A2995 RMK SC8 SLP156

CYWG;2007-11-08 05:00;CYWG 080500Z 33009KT 15SM OVC015 01/M01 A2997 RMK SC8 SLP161

CYWG;2007-11-08 05:26;CYWG 080526Z 33009KT 15SM OVC013 01/ RMK SC8

CYWG;2007-11-08 06:00;CYWG 080600Z 32008KT 15SM OVC015 01/M01 A2997 RMK SC8 SLP162

CYWG;2007-11-08 07:00;CYWG 080700Z 30009KT 15SM FEW015 OVC022 M00/M01 A2999 RMK SF2SC6 SLP166

CYWG;2007-11-08 08:00;CYWG 080800Z 30007KT 15SM OVC026 M00/M02 A2998 RMK SC8 SLP164

CYWG;2007-11-08 09:00;CYWG 080900Z 30006KT 15SM BKN040 OVC071 M01/M02 A2999 RMK SC6AC2 SLP166

CYWG;2007-11-08 10:00;CYWG 081000Z 29008KT 15SM OVC040 M01/M02 A2999 RMK SC8 SLP167

CYWG;2007-11-08 11:00;CYWG 081100Z 00000KT 15SM OVC040 M01/M02 A2999 RMK SC8 SLP166

CYWG;2007-11-08 12:00;CYWG 081200Z 30004KT 15SM BKN040 M02/M02 A2999 RMK SC7 SLP170

CYWG;2007-11-08 13:00;CYWG 081300Z 26004KT 15SM OVC040 M01/M03 A3000 RMK SC8 SLP172

CYWG;2007-11-08 14:00;CYWG 081400Z 27005KT 15SM BKN040 OVC076 M02/M03 A3001 RMK SC7AC1 SLP174

CYWG;2007-11-08 15:00;CYWG 081500Z 30002KT 15SM BKN038 OVC075 M01/M03 A3001 RMK SC7AC1 SLP176

CYWG;2007-11-08 16:00;CYWG 081600Z 00000KT 15SM OVC038 00/M03 A3001 RMK SC8 SLP176

CYWG;2007-11-08 17:00;CYWG 081700Z 16003KT 15SM FEW018 BKN036 OVC094 01/M03 A3001 RMK CU1SC6AC2 CU TR SLP174

CYWG;2007-11-08 18:00;CYWG 081800Z 15003KT 15SM FEW018 BKN038 OVC055 02/M03 A3000 RMK CU1SC7SC1 CU TR SLP171

CYWG;2007-11-08 19:00;CYWG 081900Z 21003KT 15SM FEW028 OVC042 02/M03 A2999 RMK CU2SC6 SLP168

CYWG;2007-11-08 20:00;CYWG 082000Z 21003KT 15SM BKN032 OVC037 03/M04 A2998 RMK SC6SC2 SLP164

CYWG;2007-11-08 21:00;CYWG 082100Z 23007KT 15SM OVC032 03/M04 A2998 RMK SC8 SLP163

CYWG;2007-11-08 22:00;CYWG 082200Z 20007KT 15SM OVC035 03/M03 A2998 RMK SC8 SLP163

CYWG;2007-11-08 22:54;CYWG 082254Z 22005KT 3SM -SN OVC022 02/ RMK SC8

CYWG;2007-11-08 23:00;CYWG 082300Z 22010KT 3SM -SN OVC022 02/M03 A2997 RMK SC8 SLP161

CYWG;2007-11-08 23:16;CYWG 082316Z 22005KT 6SM -SN OVC022 02/ RMK SC8

CYWG;2007-11-09 00:00;CYWG 090000Z 20006KT 2 1/2SM -SN OVC009 01/M00 A2997 RMK ST8 SLP163

CYWG;2007-11-09 00:15;CYWG 090015Z 17005KT 6SM -SN OVC009 01/ RMK ST8

CYWG;2007-11-09 00:30;CYWG 090030Z 16005KT 15SM -DZ OVC015 01/ RMK ST8

CYWG;2007-11-09 00:41;CYWG 090041Z 17006KT 15SM -SN OVC036 01/ RMK SC8

CYWG;2007-11-09 01:00;CYWG 090100Z 18007KT 15SM -SN OVC036 01/M01 A2995 RMK SC8 SLP154

CYWG;2007-11-09 01:17;CYWG 090117Z 18007KT 15SM OVC042 01/ RMK SC8

CYWG;2007-11-09 02:00;CYWG 090200Z 19010KT 15SM OVC040 02/M01 A2993 RMK SC8 SLP149

CYWG;2007-11-09 02:31;CYWG 090231Z 18009KT 15SM -SN OVC034 02/ RMK SC8

CYWG;2007-11-09 03:00;CYWG 090300Z 18012KT 15SM OVC034 01/M00 A2991 RMK SC8 SLP142

CYWG;2007-11-09 03:12;CYWG 090312Z 18011KT 6SM -SN OVC026 01/ RMK SC8

CYWG;2007-11-09 04:00;CYWG 090400Z 18012KT 15SM -SN OVC017 02/M00 A2988 RMK SC8 SLP132

CYWG;2007-11-09 04:33;CYWG 090433Z 19012KT 15SM OVC016 01/ RMK SC8

CYWG;2007-11-09 05:00;CYWG 090500Z 18014G19KT 4SM -SN OVC016 01/00 A2985 RMK SC8 SLP121

CYWG;2007-11-09 05:47;CYWG 090547Z 21010G18KT 6SM -TSSN OVC014 01/ RMK SC8 CB EMBDD

CYWG;2007-11-09 06:00;CYWG 090600Z 19012KT 12SM OVC012 01/01 A2984 RETS RMK SC8 SLP117

CYWG;2007-11-09 07:00;CYWG 090700Z 23009KT 15SM OVC015 02/02 A2983 RMK SC8 SLP114

CYWG;2007-11-09 08:00;CYWG 090800Z 28008KT 12SM OVC013 02/02 A2984 RMK SC8 SLP117

CYWG;2007-11-09 09:00;CYWG 090900Z 32016KT 12SM OVC010 02/02 A2987 RMK ST8 SLP127

CYWG;2007-11-09 09:27;CYWG 090927Z 32013KT 12SM OVC006 02/ RMK ST8

CYWG;2007-11-09 10:00;CYWG 091000Z 33013KT 5SM BR OVC004 02/02 A2990 RMK ST8 SLP135

CYWG;2007-11-09 11:00;CYWG 091100Z 36014G20KT 5SM BR OVC005 01/01 A2994 RMK ST8 SLP149

CYWG;2007-11-09 11:30;CYWG 091130Z 36014KT 4SM BR OVC002 01/ RMK ST8

CYWG;2007-11-09 11:42;CYWG 091142Z 36014KT 2 1/2SM BR OVC002 01/ RMK ST8

CYWG;2007-11-09 12:00;CYWG 091200Z 36015KT 4SM BR OVC002 01/01 A2999 RMK ST8 VIS NW 6 BR SLP168

CYWG;2007-11-09 12:03;CYWG 091203Z 36014KT 5SM BR OVC004 01/ RMK ST8

CYWG;2007-11-09 12:22;CYWG 091222Z 01017G25KT 9SM -DZ OVC006 01/ RMK ST8

CYWG;2007-11-09 13:00;CYWG 091300Z 36019G24KT 5SM -SG OVC005 00/00 A3003 RMK ST8 SLP181

CYWG;2007-11-09 14:00;CYWG 091400Z 36018G25KT 15SM OVC008 M00/M01 A3008 RMK ST8 SLP197

CYWG;2007-11-09 14:31;CYWG 091431Z 36016KT 15SM BKN010 OVC030 M00/ RMK ST7SC1

CYWG;2007-11-09 15:00;CYWG 091500Z 01015G20KT 15SM BKN012 OVC030 M00/M02 A3011 RMK ST7SC1 SLP210

CYWG;2007-11-09 15:24;CYWG 091524Z 01015G20KT 15SM FEW010 OVC016 M00/ RMK SF1ST7

CYWG;2007-11-09 16:00;CYWG 091600Z 36013KT 15SM FEW012 OVC022 M01/M02 A3015 RMK SF1SC7 SLP221

CYWG;2007-11-09 17:00;CYWG 091700Z 36014KT 15SM FEW011 BKN028 BKN046 M00/M02 A3016 RMK SF1SC5SC2 SLP225

CYWG;2007-11-09 18:00;CYWG 091800Z 01010G15KT 15SM FEW016 FEW046 SCT070 BKN210 01/M02 A3017 RMK SC1SC1AC1CI1 SLP229

CYWG;2007-11-09 19:00;CYWG 091900Z 02011KT 15SM FEW018 FEW034 BKN046 01/M03 A3018 RMK SC1SC2SC5 SLP231

CYWG;2007-11-09 20:00;CYWG 092000Z 03007KT 15SM SCT019 BKN046 01/M02 A3017 RMK SC4SC3 SLP228

CYWG;2007-11-09 21:00;CYWG 092100Z 05008KT 15SM BKN025 00/M03 A3016 RMK SC7 SLP226

CYWG;2007-11-09 22:00;CYWG 092200Z 05007KT 15SM BKN025 M00/M03 A3017 RMK SC7 SLP229

CYWG;2007-11-09 23:00;CYWG 092300Z 08005KT 15SM BKN027 BKN069 M01/M03 A3016 RMK SC6AC2 SLP227

CYWG;2007-11-10 00:00;CYWG 100000Z 09005KT 15SM OVC027 M01/M04 A3017 RMK SC8 SLP229

CYWG;2007-11-10 01:00;CYWG 100100Z 10004KT 15SM OVC027 M01/M03 A3016 RMK SC8 SLP227

CYWG;2007-11-10 02:00;CYWG 100200Z 10006KT 15SM OVC027 M01/M03 A3014 RMK SC8 SLP220

CYWG;2007-11-10 03:00;CYWG 100300Z 13006KT 15SM OVC027 M01/M03 A3012 RMK SC8 SLP213

CYWG;2007-11-10 04:00;CYWG 100400Z 12006KT 15SM OVC036 M01/M03 A3012 RMK SC8 SLP211

CYWG;2007-11-10 05:00;CYWG 100500Z 12006KT 15SM OVC019 M00/M02 A3011 RMK SC8 SLP208

CYWG;2007-11-10 05:39;CYWG 100539Z 13008KT 15SM BKN012 OVC034 M00/ RMK SC5SC3

CYWG;2007-11-10 06:00;CYWG 100600Z 14009KT 15SM SCT009 OVC034 M00/M01 A3007 RMK SC4SC4 SLP194

CYWG;2007-11-10 06:42;CYWG 100642Z 15010G15KT 15SM OVC028 M00/ RMK SC8

CYWG;2007-11-10 07:00;CYWG 100700Z 15011KT 15SM FEW009 BKN028 OVC090 00/M00 A3005 RMK SC1SC6AC2 SLP189

CYWG;2007-11-10 08:00;CYWG 100800Z 14011KT 15SM OVC030 01/M00 A3003 RMK SC8 SLP181

CYWG;2007-11-10 09:00;CYWG 100900Z 15014KT 15SM OVC028 01/M01 A2999 RMK SC8 SLP167

CYWG;2007-11-10 09:52;CYWG 100952Z 15016KT 15SM -SN OVC024 01/ RMK SC8

CYWG;2007-11-10 10:00;CYWG 101000Z 15015KT 15SM -SN OVC024 01/M01 A2993 RMK SC8 SLP149

CYWG;2007-11-10 10:51;CYWG 101051Z 15014G19KT 15SM OVC026 01/ RMK SC8

CYWG;2007-11-10 11:00;CYWG 101100Z 15015KT 15SM OVC019 01/M01 A2990 RMK SC8 SLP139

CYWG;2007-11-10 12:00;CYWG 101200Z 17015G20KT 15SM BKN017 OVC055 01/M00 A2987 RMK SC6SC2 SLP126

CYWG;2007-11-10 13:00;CYWG 101300Z 17016G22KT 15SM BKN015 OVC066 02/M00 A2984 RMK SC6AC2 SLP118

CYWG;2007-11-10 14:00;CYWG 101400Z 17020KT 12SM SCT017 OVC057 02/M00 A2981 RMK SC3SC5 SLP107

CYWG;2007-11-10 15:00;CYWG 101500Z 18015G20KT 15SM FEW020 OVC044 02/M00 A2981 RMK SC2SC6 SLP106

CYWG;2007-11-10 16:00;CYWG 101600Z 18013G21KT 15SM BKN021 OVC070 03/00 A2979 RMK SC5AC3 SLP098

CYWG;2007-11-10 17:00;CYWG 101700Z 19018KT 15SM OVC021 04/01 A2974 RMK SC8 SLP084

CYWG;2007-11-10 18:00;CYWG 101800Z 20014G20KT 15SM OVC021 04/01 A2972 RMK SC8 SLP075

CYWG;2007-11-10 19:00;CYWG 101900Z 19014KT 15SM BKN021 OVC074 05/01 A2968 RMK SC6AC2 SLP061

CYWG;2007-11-10 20:00;CYWG 102000Z 20011KT 15SM OVC023 05/01 A2966 RMK SC8 SLP054

CYWG;2007-11-10 21:00;CYWG 102100Z 19011G17KT 15SM OVC025 06/02 A2964 RMK SC8 SLP046

CYWG;2007-11-10 22:00;CYWG 102200Z 18008KT 15SM SCT027 BKN080 06/02 A2963 RMK SC3AC0 SLP043

CYWG;2007-11-10 23:00;CYWG 102300Z 17007KT 15SM FEW080 SCT250 03/01 A2962 RMK AC2CI0 SLP039

CYWG;2007-11-10 23:16;CYWG 102316Z 16007KT 15SM FEW250 02/ RMK CI1

CYWG;2007-11-11 00:00;CYWG 110000Z 16007KT 15SM SCT250 02/01 A2962 RMK CI2 SLP041

CYWG;2007-11-11 01:00;CYWG 110100Z 15007KT 15SM SKC 02/01 A2961 RMK SLP038

CYWG;2007-11-11 02:00;CYWG 110200Z 15009KT 15SM SKC 02/01 A2961 RMK SLP036

CYWG;2007-11-11 03:00;CYWG 110300Z 17008KT 15SM SKC 01/00 A2960 RMK SLP034

CYWG;2007-11-11 04:00;CYWG 110400Z 18010KT 15SM SKC 02/01 A2959 RMK SLP031

CYWG;2007-11-11 05:00;CYWG 110500Z 18008KT 15SM SKC 01/01 A2958 RMK SLP029

CYWG;2007-11-11 06:00;CYWG 110600Z 17009KT 15SM BKN100 02/01 A2956 RMK AC6 SLP021

CYWG;2007-11-11 07:00;CYWG 110700Z 18008KT 15SM BKN100 02/01 A2957 RMK AC6 SLP024

CYWG;2007-11-11 08:00;CYWG 110800Z 17009KT 15SM BKN100 02/01 A2956 RMK AC6 SLP020

CYWG;2007-11-11 09:00;CYWG 110900Z 18008KT 10SM OVC090 03/02 A2955 RMK AC8 SLP017

CYWG;2007-11-11 10:00;CYWG 111000Z 18011KT 12SM OVC084 03/02 A2954 RMK AC8 SLP011

CYWG;2007-11-11 11:00;CYWG 111100Z CCA 14010KT 12SM BKN097 03/02 A2949 RMK AC6 SLP997

CYWG;2007-11-11 12:00;CYWG 111200Z 14007KT 12SM BKN096 02/02 A2948 RMK AC6 SLP993

CYWG;2007-11-11 13:00;CYWG 111300Z 17010KT 15SM BKN096 04/03 A2948 RMK AC6 SLP993

CYWG;2007-11-11 14:00;CYWG 111400Z 18014KT 15SM BKN088 BKN230 05/03 A2946 RMK AC6CI1 VIRGA S-SW SLP987

CYWG;2007-11-11 15:00;CYWG 111500Z 19013KT 15SM BKN083 OVC230 05/03 A2947 RMK AC6CI2 SLP990

CYWG;2007-11-11 15:41;CYWG 111541Z 20013KT 12SM -SHRA FEW052 BKN077 OVC230 06/ RMK SC2AC5CI1 ACC ASOCTD

CYWG;2007-11-11 16:00;CYWG 111600Z 20012KT 12SM -SHRA FEW052 OVC077 07/04 A2947 RMK SC2AC6 ACC ASOCTD SLP988

CYWG;2007-11-11 16:44;CYWG 111644Z 20011KT 15SM FEW030 BKN073 08/ RMK SC2AC5 ACC ASOCTD VIRGA ALQDS

CYWG;2007-11-11 17:00;CYWG 111700Z 21010KT 15SM FEW030 BKN073 08/06 A2949 RMK SC2AC4 ACC ASOCTD VIRGA N-SW SLP995

CYWG;2007-11-11 18:00;CYWG 111800Z 25016G27KT 15SM FEW030 FEW070 10/03 A2949 RMK SC1AC1 SLP994

CYWG;2007-11-11 19:00;CYWG 111900Z 27023G30KT 15SM BKN036 09/02 A2950 RMK SC6 SLP998

CYWG;2007-11-11 20:00;CYWG 112000Z 27018G29KT 15SM BKN040 09/01 A2951 RMK SC7 SLP001

CYWG;2007-11-11 21:00;CYWG 112100Z 27015G24KT 15SM BKN042 BKN069 09/01 A2953 RMK SC6AC2 SLP009

CYWG;2007-11-11 22:00;CYWG 112200Z 27022G29KT 15SM OVC040 08/01 A2954 RMK SC8 SLP013

CYWG;2007-11-11 23:00;CYWG 112300Z 28023G37KT 15SM OVC034 07/02 A2958 RMK SC8 SLP025

CYWG;2007-11-12 00:00;CYWG 120000Z 29022G30KT 15SM BKN032 07/01 A2961 RMK SC7 SLP037

CYWG;2007-11-12 01:00;CYWG 120100Z 29022G30KT 15SM OVC037 07/01 A2965 RMK SC8 SLP048

CYWG;2007-11-12 02:00;CYWG 120200Z 30020KT 15SM BKN037 07/01 A2966 RMK SC6 SLP053

CYWG;2007-11-12 03:00;CYWG 120300Z 30013G20KT 15SM OVC037 06/01 A2971 RMK SC8 SLP071

CYWG;2007-11-12 04:00;CYWG 120400Z 31018G24KT 15SM OVC037 06/00 A2976 RMK SC8 SLP085

CYWG;2007-11-12 05:00;CYWG 120500Z 30017KT 15SM OVC035 06/00 A2979 RMK SC8 SLP096

CYWG;2007-11-12 06:00;CYWG 120600Z 27009G18KT 15SM OVC033 05/M00 A2983 RMK SC8 SLP111

CYWG;2007-11-12 07:00;CYWG 120700Z 28010KT 15SM BKN033 OVC220 02/M03 A2987 RMK SC5CI2 SLP123

CYWG;2007-11-12 08:00;CYWG 120800Z 29008KT 15SM SCT220 M00/M04 A2990 RMK CI1 SLP134

CYWG;2007-11-12 09:00;CYWG 120900Z 26007KT 15SM FEW220 M01/M05 A2993 RMK CI0 SLP144

CYWG;2007-11-12 10:00;CYWG 121000Z 25007KT 15SM BKN220 M00/M05 A2994 RMK CI2 SLP149

CYWG;2007-11-12 11:00;CYWG 121100Z 26008KT 15SM BKN220 M01/M06 A2996 RMK CI2 SLP155

CYWG;2007-11-12 12:00;CYWG 121200Z 26007KT 15SM FEW220 M02/M07 A2997 RMK CI1 SLP160

CYWG;2007-11-12 13:00;CYWG 121300Z 23006KT 15SM SCT220 M04/M07 A2998 RMK CI1 SLP164

CYWG;2007-11-12 14:00;CYWG 121400Z 24007KT 15SM FEW220 M03/M07 A2997 RMK CI0 SLP161

CYWG;2007-11-12 15:00;CYWG 121500Z 24007KT 15SM FEW220 01/M07 A2999 RMK CI0 SLP164

CYWG;2007-11-12 16:00;CYWG 121600Z 21009KT 15SM FEW220 04/M06 A2997 RMK CI0 SLP159

CYWG;2007-11-12 17:00;CYWG 121700Z 23010KT 15SM FEW220 07/M05 A2996 RMK CI0 SLP156

CYWG;2007-11-12 18:00;CYWG 121800Z 23010G16KT 15SM BKN240 09/M04 A2993 RMK CI1 SLP145

CYWG;2007-11-12 19:00;CYWG 121900Z 23011KT 15SM FEW100 BKN240 10/M03 A2990 RMK AC2CI1 SLP135

CYWG;2007-11-12 20:00;CYWG 122000Z 23013KT 15SM BKN240 13/M03 A2987 RMK CI2 SLP124

CYWG;2007-11-12 21:00;CYWG 122100Z 23012KT 15SM SCT240 13/M04 A2984 RMK CI1 SLP114

CYWG;2007-11-12 22:00;CYWG 122200Z 21009G15KT 15SM SCT240 11/M04 A2980 RMK CI2 SLP102

CYWG;2007-11-12 23:00;CYWG 122300Z 21012G17KT 15SM FEW240 10/M04 A2978 RMK CI1 SLP095

CYWG;2007-11-13 00:00;CYWG 130000Z 19010KT 15SM BKN240 08/M04 A2975 RMK CI2 SLP085

CYWG;2007-11-13 01:00;CYWG 130100Z 19011G16KT 15SM BKN250 08/M03 A2970 RMK CI3 SLP070

CYWG;2007-11-13 02:00;CYWG 130200Z 19013KT 15SM OVC250 08/M02 A2965 RMK CI2 SLP053

CYWG;2007-11-13 03:00;CYWG 130300Z 19013G18KT 15SM OVC250 08/M01 A2961 RMK CI5 SLP036

CYWG;2007-11-13 04:00;CYWG 130400Z 19018G24KT 15SM OVC250 09/M00 A2957 RMK CI6 SLP023

CYWG;2007-11-13 05:00;CYWG 130500Z 19016G22KT 15SM SCT120 OVC250 09/00 A2951 RMK AC3CI2 PRESFR SLP002

CYWG;2007-11-13 06:00;CYWG 130600Z 19015KT 15SM SCT120 OVC250 08/01 A2944 RMK AC4CI2 PRESFR SLP977

CYWG;2007-11-13 07:00;CYWG 130700Z 19018G28KT 15SM SCT120 OVC240 09/02 A2938 RMK AC4CI2 PRESFR SLP955

CYWG;2007-11-13 08:00;CYWG 130800Z 19022G28KT 15SM SCT120 OVC240 08/01 A2933 RMK AC4CI3 SLP940

CYWG;2007-11-13 09:00;CYWG 130900Z 18024KT 15SM BKN078 OVC240 09/01 A2926 RMK AC5CI2 PRESFR SLP914

CYWG;2007-11-13 10:00;CYWG 131000Z 19016G25KT 15SM BKN096 OVC240 09/00 A2925 RMK AC6CI2 SLP909

CYWG;2007-11-13 11:00;CYWG 131100Z 20021KT 15SM BKN100 OVC240 09/00 A2920 RMK AC6CI2 SLP893

CYWG;2007-11-13 12:00;CYWG 131200Z 18015KT 15SM BKN100 OVC240 09/00 A2916 RMK AC6CI2 SLP880

CYWG;2007-11-13 13:00;CYWG 131300Z 20021G28KT 15SM BKN100 BKN240 10/00 A2914 RMK AC6CI2 SLP874

CYWG;2007-11-13 14:00;CYWG 131400Z 21016G21KT 15SM FEW080 BKN120 OVC240 11/M01 A2913 RMK AC1AC4CI2 SLP870

CYWG;2007-11-13 15:00;CYWG 131500Z 22013KT 15SM FEW080 SCT120 BKN240 11/M01 A2912 RMK AC1AC2CI1 SLP865

CYWG;2007-11-13 16:00;CYWG 131600Z 25019G27KT 15SM FEW120 FEW240 16/M00 A2911 RMK AC1CI1 SLP862

CYWG;2007-11-13 16:44;CYWG 131644Z 27032G42KT 15SM FEW120 16/ RMK AC2

CYWG;2007-11-13 17:00;CYWG 131700Z 26026G37KT 15SM FEW100 16/02 A2912 RMK AC2 SLP866

CYWG;2007-11-13 18:00;CYWG 131800Z 28029G36KT 15SM FEW100 SCT240 15/02 A2915 RMK AC2CI0 SLP875

CYWG;2007-11-13 19:00;CYWG 131900Z 28034G39KT 15SM FEW100 SCT240 14/01 A2916 RMK AC2CI1 SLP878

CYWG;2007-11-13 20:00;CYWG 132000Z 28029G38KT 15SM FEW050 FEW100 14/01 A2916 RMK SC1AC2 SLP878

CYWG;2007-11-13 21:00;CYWG 132100Z 28024G33KT 15SM FEW050 FEW100 FEW240 13/01 A2919 RMK CU1AC1CI0 SLP889

CYWG;2007-11-13 22:00;CYWG 132200Z 28025G31KT 15SM SCT064 BKN081 13/M01 A2921 RMK SC3AC3 SLP895

CYWG;2007-11-13 23:00;CYWG 132300Z 28020G35KT 15SM BKN069 BKN081 12/M02 A2923 RMK AC5AC2 SLP902

CYWG;2007-11-14 00:00;CYWG 140000Z 28018G30KT 15SM BKN076 09/M01 A2926 RMK AC5 SLP913

CYWG;2007-11-14 01:00;CYWG 140100Z 28024G29KT 15SM FEW049 BKN069 BKN094 08/01 A2928 RMK SC2AC2AC1 SLP922

CYWG;2007-11-14 02:00;CYWG 140200Z 29029G36KT 15SM SCT049 OVC065 07/01 A2929 RMK SC3AC5 SLP923

CYWG;2007-11-14 03:00;CYWG 140300Z 28022G29KT 15SM -RA BKN037 OVC081 06/02 A2930 RMK SC6AC2 SLP927

CYWG;2007-11-14 04:00;CYWG 140400Z 30014G20KT 15SM -RA BKN018 OVC037 04/04 A2930 RMK SC6SC2 SLP928

CYWG;2007-11-14 05:00;CYWG 140500Z 30014G19KT 15SM -RA BKN013 OVC081 03/03 A2932 RMK SC5AC3 SLP934

CYWG;2007-11-14 06:00;CYWG 140600Z 32018G24KT 15SM BKN015 OVC042 03/02 A2935 RMK SC6SC2 SLP943

CYWG;2007-11-14 06:06;CYWG 140606Z 32015G24KT 15SM VCSH BKN012 OVC064 03/ RMK SC6SC2

CYWG;2007-11-14 06:18;CYWG 140618Z 32019G25KT 15SM -RA BKN012 OVC064 03/ RMK SC6SC2 CIG RGD

CYWG;2007-11-14 06:25;CYWG 140625Z 32022G28KT 15SM -RA BKN012 OVC064 02/ RMK SC6SC2 CIG RGD

CYWG;2007-11-14 07:00;CYWG 140700Z 31017G24KT 15SM -RA SCT012 BKN019 OVC033 02/02 A2938 RMK SF2SC5SC2 SLP953

CYWG;2007-11-14 08:00;CYWG 140800Z 32020G27KT 15SM -SN BKN019 OVC033 01/M00 A2941 RMK SC6SC2 SLP965

CYWG;2007-11-14 09:00;CYWG 140900Z 31019G25KT 15SM -SN BKN017 OVC052 00/M01 A2945 RMK SC6SC2 SLP979

CYWG;2007-11-14 10:00;CYWG 141000Z 32018G26KT 15SM FEW013 SCT039 BKN210 M01/M03 A2949 RMK SF1SC2CI0 SLP992

CYWG;2007-11-14 10:26;CYWG 141026Z 32022KT 9SM -SN OVC020 M01/ RMK SC8

CYWG;2007-11-14 11:00;CYWG 141100Z 32025KT 9SM -SN OVC019 M01/M02 A2953 RMK SC8 SLP005

CYWG;2007-11-14 12:00;CYWG 141200Z 32023G29KT 6SM -SN DRSN BKN017 OVC065 M01/M02 A2956 RMK SC6SC2 SLP020

CYWG;2007-11-14 12:48;CYWG 141248Z 32021G26KT 6SM -SN DRSN BKN013 OVC070 M01/ RMK SC6AC2

CYWG;2007-11-14 13:00;CYWG 141300Z 33019G26KT 10SM -SN DRSN BKN013 OVC044 M01/M01 A2962 RMK SC6SC2 SLP038

CYWG;2007-11-14 13:31;CYWG 141331Z 33020G29KT 8SM -SN DRSN BKN016 OVC035 M01/ RMK SC6SC2

CYWG;2007-11-14 14:00;CYWG 141400Z 33021G28KT 4SM -SN DRSN OVC014 M01/M01 A2967 RMK SC8 SLP056

CYWG;2007-11-14 14:28;CYWG 141428Z 33022G27KT 10SM -SN DRSN BKN016 OVC040 M01/ RMK SC6SC2

CYWG;2007-11-14 14:41;CYWG 141441Z 33021G28KT 10SM -SN DRSN -FZDZ BKN014 OVC040 M01/ RMK SC6SC2

CYWG;2007-11-14 15:00;CYWG 141500Z 32025KT 12SM -SN DRSN BKN014 OVC040 M01/M02 A2974 RMK SC6SC2 REFZDZ PRESRR SLP081

CYWG;2007-11-14 15:16;CYWG 141516Z 33019G26KT 6SM -SN DRSN -FZDZ OVC014 M01/ RMK SC8 CIG RGD

CYWG;2007-11-14 15:31;CYWG 141531Z 33021G26KT 15SM OVC014 M00/ RMK SC8 REFZDZ CIG RGD

CYWG;2007-11-14 15:47;CYWG 141547Z 34022G28KT 15SM BKN016 OVC078 00/ RMK SC6AC2 REFZDZ

CYWG;2007-11-14 16:00;CYWG 141600Z 34022G28KT 15SM BKN019 OVC078 M00/M02 A2979 RMK SC6AC2 REFZDZ SLP098

CYWG;2007-11-14 17:00;CYWG 141700Z 33023G32KT 15SM BKN019 OVC050 M00/M04 A2984 RMK SC6SC2 SLP115

CYWG;2007-11-14 18:00;CYWG 141800Z 34024G29KT 15SM OVC022 M00/M04 A2988 RMK SC8 SLP129

CYWG;2007-11-14 19:00;CYWG 141900Z 34025G31KT 15SM OVC026 M00/M05 A2991 RMK SC7 SLP140

CYWG;2007-11-14 20:00;CYWG 142000Z 33023G29KT 15SM OVC028 M00/M05 A2994 RMK SC7 SLP149

CYWG;2007-11-14 21:00;CYWG 142100Z 33020G26KT 15SM OVC026 M00/M05 A2997 RMK SC8 SLP160

CYWG;2007-11-14 22:00;CYWG 142200Z 33018KT 15SM OVC022 M01/M04 A3000 RMK SC8 CIG RAG SLP171

CYWG;2007-11-14 23:00;CYWG 142300Z 33018G26KT 15SM OVC025 M01/M05 A3003 RMK SC8 SLP180

CYWG;2007-11-15 00:00;CYWG 150000Z 34012G18KT 15SM OVC028 M01/M05 A3005 RMK SC8 SLP190

CYWG;2007-11-15 01:00;CYWG 150100Z 33010KT 15SM BKN024 BKN045 M01/M04 A3006 RMK SC6SC1 SLP194

CYWG;2007-11-15 01:46;CYWG 150146Z 32011KT 15SM -SN OVC019 M01/ RMK SC8

CYWG;2007-11-15 02:00;CYWG 150200Z 30008KT 15SM -SN OVC019 M01/M02 A3007 RMK SC8 SLP197

CYWG;2007-11-15 03:00;CYWG 150300Z 31009KT 15SM -SN OVC019 M01/M02 A3008 RMK SC8 SLP198

CYWG;2007-11-15 04:00;CYWG 150400Z 32007KT 15SM -SN OVC017 M01/M02 A3007 RMK SC8 SLP197

CYWG;2007-11-15 05:00;CYWG 150500Z 31006KT 15SM -SN OVC022 M01/M01 A3008 RMK SC8 SLP199

CYWG;2007-11-15 06:00;CYWG 150600Z 29004KT 15SM -SN OVC023 M01/M02 A3008 RMK SC8 SLP200

CYWG;2007-11-15 06:10;CYWG 150610Z 32007KT 15SM BKN030 M01/ RMK SC7

CYWG;2007-11-15 07:00;CYWG 150700Z 30006KT 15SM BKN026 M01/M03 A3009 RMK SC7 SLP202

CYWG;2007-11-15 08:00;CYWG 150800Z 30009KT 15SM BKN026 M01/M04 A3010 RMK SC7 SLP205

CYWG;2007-11-15 09:00;CYWG 150900Z 28007KT 15SM BKN028 M01/M04 A3010 RMK SC7 SLP206

CYWG;2007-11-15 10:00;CYWG 151000Z 29007KT 15SM OVC030 M01/M04 A3010 RMK SC8 SLP205

CYWG;2007-11-15 11:00;CYWG 151100Z 29007KT 15SM OVC032 M01/M04 A3010 RMK SC8 SLP207

CYWG;2007-11-15 12:00;CYWG 151200Z 33008KT 15SM BKN032 OVC100 M02/M05 A3010 RMK SC7AC1 SLP208

CYWG;2007-11-15 13:00;CYWG 151300Z 33008KT 15SM BKN035 M02/M06 A3010 RMK SC6 SLP207

CYWG;2007-11-15 14:00;CYWG 151400Z 31004KT 15SM OVC037 M02/M04 A3011 RMK SC8 SLP210

CYWG;2007-11-15 15:00;CYWG 151500Z 28004KT 15SM OVC031 M01/M04 A3011 RMK SC8 SLP211

CYWG;2007-11-15 16:00;CYWG 151600Z 28006KT 15SM OVC031 M00/M06 A3011 RMK SC8 SLP210

CYWG;2007-11-15 17:00;CYWG 151700Z 23003KT 15SM BKN031 M00/M06 A3011 RMK SC6 SLP209

CYWG;2007-11-15 18:00;CYWG 151800Z 23004KT 15SM BKN027 M00/M06 A3009 RMK SC6 SLP203

CYWG;2007-11-15 19:00;CYWG 151900Z 18003KT 15SM BKN029 BKN090 01/M05 A3007 RMK SC6AC1 SLP197

CYWG;2007-11-15 20:00;CYWG 152000Z 19005KT 15SM SCT029 BKN090 BKN240 00/M05 A3005 RMK SC3AC2CI1 SLP190

CYWG;2007-11-15 21:00;CYWG 152100Z 19006KT 15SM SCT033 BKN094 BKN240 01/M05 A3004 RMK SC3AC2CI1 SLP185

CYWG;2007-11-15 22:00;CYWG 152200Z 17008KT 15SM FEW033 SCT085 BKN210 00/M06 A3002 RMK SC2AC2CI2 SLP179

CYWG;2007-11-15 23:00;CYWG 152300Z 14009KT 15SM BKN120 BKN210 M01/M05 A2999 RMK AC6CI1 SLP168

CYWG;2007-11-16 00:00;CYWG 160000Z 15009KT 15SM BKN120 OVC210 M01/M05 A2998 RMK AC7CI1 SLP165

CYWG;2007-11-16 01:00;CYWG 160100Z 15009KT 15SM OVC092 M01/M05 A2996 RMK AC8 SLP159

CYWG;2007-11-16 02:00;CYWG 160200Z 14011KT 15SM OVC100 M01/M05 A2995 RMK AC8 SLP156

CYWG;2007-11-16 03:00;CYWG 160300Z 16009KT 15SM OVC081 M01/M05 A2996 RMK AC8 SLP160

CYWG;2007-11-16 04:00;CYWG 160400Z 16008KT 15SM OVC090 M01/M05 A2996 RMK AC8 SLP157

CYWG;2007-11-16 05:00;CYWG 160500Z 14011KT 15SM OVC070 M01/M05 A2993 RMK AC8 SLP148

CYWG;2007-11-16 06:00;CYWG 160600Z 15010KT 15SM BKN015 OVC070 M01/M05 A2991 RMK SC6AC2 SLP140

CYWG;2007-11-16 06:44;CYWG 160644Z 15010KT 4SM -SN OVC013 M01/ RMK SC8

CYWG;2007-11-16 07:00;CYWG 160700Z 14008KT 4SM -SN OVC011 M01/M04 A2989 RMK SC8 SLP135

CYWG;2007-11-16 08:00;CYWG 160800Z 11011KT 6SM -SN OVC023 M02/M03 A2987 RMK SC8 SLP128

CYWG;2007-11-16 09:00;CYWG 160900Z 13010KT 15SM BKN037 OVC056 M01/M03 A2987 RMK SC6SC2 SLP126

CYWG;2007-11-16 10:00;CYWG 161000Z 13010KT 15SM SCT037 BKN080 OVC110 M01/M03 A2986 RMK SC2AC5AC1 SLP123

CYWG;2007-11-16 11:00;CYWG 161100Z 13009KT 15SM OVC070 M01/M04 A2985 RMK AC8 SLP122

CYWG;2007-11-16 12:00;CYWG 161200Z 10011KT 15SM BKN066 M01/M05 A2986 RMK AC7 SLP123

CYWG;2007-11-16 13:00;CYWG 161300Z 09009KT 15SM OVC090 M01/M05 A2987 RMK AC8 SLP127

CYWG;2007-11-16 14:00;CYWG 161400Z 10011KT 15SM OVC090 M01/M05 A2988 RMK AC8 SLP131

CYWG;2007-11-16 15:00;CYWG 161500Z 11011KT 15SM OVC090 M00/M05 A2988 RMK AC8 SLP132

CYWG;2007-11-16 16:00;CYWG 161600Z 11012KT 15SM SCT072 OVC090 00/M04 A2989 RMK AC3AC5 SLP134

CYWG;2007-11-16 17:00;CYWG 161700Z 09011KT 15SM SCT060 OVC093 01/M04 A2990 RMK AC3AC5 SLP136

CYWG;2007-11-16 18:00;CYWG 161800Z 08009G15KT 15SM OVC054 01/M04 A2990 RMK SC8 SLP137

CYWG;2007-11-16 19:00;CYWG 161900Z 09008KT 15SM SCT046 OVC063 01/M04 A2990 RMK SC3AC5 SLP139

CYWG;2007-11-16 20:00;CYWG 162000Z 09011KT 15SM SCT059 OVC084 01/M04 A2992 RMK SC3AC5 SLP144

CYWG;2007-11-16 21:00;CYWG 162100Z 06014KT 15SM BKN067 01/M04 A2992 RMK AC7 SLP145

CYWG;2007-11-16 22:00;CYWG 162200Z 08014KT 15SM BKN082 01/M05 A2994 RMK AC6 SLP150

CYWG;2007-11-16 23:00;CYWG 162300Z 07011KT 15SM BKN085 00/M05 A2996 RMK AC3 SLP156

CYWG;2007-11-17 00:00;CYWG 170000Z 07011KT 15SM SCT085 M01/M05 A2998 RMK AC2 SLP164

CYWG;2007-11-17 01:00;CYWG 170100Z 06007KT 15SM FEW085 M04/M06 A3000 RMK AC1 SLP171

CYWG;2007-11-17 02:00;CYWG 170200Z 06008KT 15SM FEW090 M06/M07 A3001 RMK AC1 SLP176

CYWG;2007-11-17 03:00;CYWG 170300Z 06008KT 15SM FEW040 FEW090 M05/M07 A3003 RMK SC1AC1 SLP184

CYWG;2007-11-17 04:00;CYWG 170400Z 05008KT 15SM SCT036 M05/M07 A3005 RMK SC3 SLP190

CYWG;2007-11-17 05:00;CYWG 170500Z 06008KT 15SM BKN034 M02/M06 A3006 RMK SC6 SLP195

CYWG;2007-11-17 06:00;CYWG 170600Z 07008KT 15SM BKN034 M02/M06 A3008 RMK SC7 SLP198

CYWG;2007-11-17 07:00;CYWG 170700Z 08008KT 15SM OVC031 M02/M07 A3010 RMK SC8 SLP205

CYWG;2007-11-17 08:00;CYWG 170800Z 09012KT 15SM OVC031 M02/M08 A3010 RMK SC8 SLP207

CYWG;2007-11-17 09:00;CYWG 170900Z 08010KT 15SM OVC031 M02/M09 A3012 RMK SC8 SLP214

CYWG;2007-11-17 10:00;CYWG 171000Z 09008KT 15SM SCT035 M03/M09 A3014 RMK SC3 SLP218

CYWG;2007-11-17 11:00;CYWG 171100Z 09005KT 15SM BKN033 M03/M09 A3015 RMK SC7 SLP223

CYWG;2007-11-17 12:00;CYWG 171200Z 06008KT 15SM FEW033 M07/M11 A3017 RMK SC2 SLP231

CYWG;2007-11-17 13:00;CYWG 171300Z 07007KT 15SM FEW033 FEW080 M07/M08 A3019 RMK SC1AC1 SLP238

CYWG;2007-11-17 14:00;CYWG 171400Z 09008KT 15SM FEW033 FEW080 M07/M08 A3021 RMK SC1AC1 SLP245

CYWG;2007-11-17 15:00;CYWG 171500Z 10010KT 15SM FEW080 M05/M07 A3023 RMK AC1 SLP252

CYWG;2007-11-17 16:00;CYWG 171600Z 10010KT 15SM FEW080 M04/M08 A3023 RMK AC1 SLP254

CYWG;2007-11-17 17:00;CYWG 171700Z 12009KT 15SM FEW030 M03/M07 A3024 RMK SC1 SLP255

CYWG;2007-11-17 18:00;CYWG 171800Z 11007KT 15SM SCT023 M02/M07 A3023 RMK SC3 SLP252

CYWG;2007-11-17 19:00;CYWG 171900Z 11007KT 15SM SCT026 M02/M07 A3023 RMK SC3 SLP251

CYWG;2007-11-17 20:00;CYWG 172000Z 10011KT 15SM SCT030 M01/M08 A3022 RMK SC3 SLP247

CYWG;2007-11-17 21:00;CYWG 172100Z 15008KT 15SM FEW032 M02/M08 A3021 RMK SC2 SLP245

CYWG;2007-11-17 22:00;CYWG 172200Z 12010KT 15SM FEW034 FEW090 FEW240 M02/M08 A3021 RMK SC1AC1CI1 SLP243

CYWG;2007-11-17 23:00;CYWG 172300Z 12008KT 15SM FEW090 FEW240 M05/M09 A3020 RMK AC1CI1 SLP242

CYWG;2007-11-18 00:00;CYWG 180000Z 10006KT 15SM SKC M07/M10 A3019 RMK SLP242

CYWG;2007-11-18 01:00;CYWG 180100Z 11006KT 15SM SKC M07/M10 A3018 RMK SLP237

CYWG;2007-11-18 02:00;CYWG 180200Z 15010KT 15SM SKC M05/M08 A3016 RMK SLP232

CYWG;2007-11-18 03:00;CYWG 180300Z 15011KT 15SM FEW250 M05/M08 A3015 RMK CI1 SLP225

CYWG;2007-11-18 04:00;CYWG 180400Z 16012KT 15SM BKN034 M05/M08 A3014 RMK SC2 SLP223

CYWG;2007-11-18 05:00;CYWG 180500Z 16009KT 15SM BKN036 M05/M08 A3014 RMK SC6 SLP222

CYWG;2007-11-18 06:00;CYWG 180600Z 15011KT 15SM BKN038 M05/M08 A3012 RMK SC7 SLP215

CYWG;2007-11-18 07:00;CYWG 180700Z 15013KT 15SM BKN040 M04/M08 A3009 RMK SC7 SLP205

CYWG;2007-11-18 08:00;CYWG 180800Z 17012KT 15SM OVC038 M03/M07 A3008 RMK SC8 SLP200

CYWG;2007-11-18 09:00;CYWG 180900Z 17016G21KT 15SM OVC034 M02/M07 A3005 RMK SC8 SLP191

CYWG;2007-11-18 10:00;CYWG 181000Z 17016KT 15SM OVC034 M02/M07 A3003 RMK SC8 SLP185

CYWG;2007-11-18 11:00;CYWG 181100Z 17015KT 15SM OVC028 M02/M07 A3001 RMK SC8 VIRGA SLP178

CYWG;2007-11-18 12:00;CYWG 181200Z 17021KT 15SM BKN028 OVC092 M01/M07 A2997 RMK ST7AS1 SLP164

CYWG;2007-11-18 13:00;CYWG 181300Z 16021KT 15SM BKN033 OVC071 M01/M06 A2994 RMK ST6AS2 SLP153

CYWG;2007-11-18 14:00;CYWG 181400Z 17019G26KT 15SM BKN033 OVC082 M01/M06 A2992 RMK ST7AS1 SLP148

CYWG;2007-11-18 15:00;CYWG 181500Z 18022G28KT 15SM BKN033 OVC082 M00/M05 A2990 RMK ST5AS3 SLP138

CYWG;2007-11-18 16:00;CYWG 181600Z 18027G32KT 15SM OVC025 00/M05 A2987 RMK ST8 SLP127

CYWG;2007-11-18 17:00;CYWG 181700Z 18027G32KT 15SM SCT025 OVC066 01/M04 A2983 RMK ST3AC5 SLP117

CYWG;2007-11-18 18:00;CYWG 181800Z 17024G32KT 15SM SCT052 BKN069 OVC081 01/M04 A2978 RMK ST3AC2AC2 SLP099

CYWG;2007-11-18 18:39;CYWG 181839Z CCA 16032G39KT 10SM -SN SCT027 BKN052 OVC070 01/ RMK SC3SC4AC1

CYWG;2007-11-18 18:47;CYWG 181847Z 17026G39KT 1 1/2SM -SN DRSN BKN025 OVC052 01/ RMK SC6SC2

CYWG;2007-11-18 18:53;CYWG 181853Z 17026G35KT 3/4SM R13/4500VP6000FT/D -SN DRSN OVC021 M00/ RMK SN4SC4

CYWG;2007-11-18 19:00;CYWG 181900Z 17025G31KT 3/4SM R13/4500FT/D -SN DRSN OVC021 M00/M00 A2972 RMK SN4SC4 PRSFR SLP078

CYWG;2007-11-18 19:14;CYWG 181914Z 17022G29KT 1/2SM R13/4000FT/D R36/3500V5500FT/D SN DRSN OVC034 M00/ RMK SN2SC6

CYWG;2007-11-18 19:21;CYWG 181921Z CCA 18022G27KT 3/4SM R13/3500VP6000FT/U R36/3500VP6000FT/U -SHSN DRSN VV003 M00/ RMK SN8 VIS VRBL 1/2-1

CYWG;2007-11-18 19:51;CYWG 181951Z 18019G30KT 3/4SM R13/P6000FT/U R36/P6000FT/U -SHSN DRSN VV006 M00/ RMK SN8

CYWG;2007-11-18 20:00;CYWG 182000Z 18023G28KT 3/4SM R13/P6000FT/N R36/P6000FT/N  DRSN VV006 M00/M00 A2970 RMK SN8 SLP071

CYWG;2007-11-18 20:03;CYWG 182003Z 18023G30KT 3SM -SG OVC017 M00/ RMK SC8

CYWG;2007-11-18 20:27;CYWG 182027Z 17024G33KT 8SM OVC008 M00/ RMK SC8

CYWG;2007-11-18 21:00;CYWG 182100Z 18026G32KT 8SM OVC008 00/00 A2966 RMK SC8 SLP057

CYWG;2007-11-18 22:00;CYWG 182200Z 18026G34KT 10SM OVC009 01/ A2961 RMK SC8 SLP039

CYWG;2007-11-18 23:00;CYWG 182300Z 19023G28KT 10SM OVC009 01/ A2961 RMK SC8 SLP038

CYWG;2007-11-19 00:00;CYWG 190000Z 18023G28KT 10SM OVC008 02/ A2956 RMK SC8 SLP022

CYWG;2007-11-19 00:28;CYWG 190028Z 19020G28KT 10SM -RA BKN008 OVC065 02/ RMK SC7SC1

CYWG;2007-11-19 01:00;CYWG 190100Z 19023G29KT 10SM -RA BKN008 OVC045 02/ A2955 RMK SF7SC1 SLP018

CYWG;2007-11-19 01:36;CYWG 190136Z 19017G26KT 10SM SCT008 OVC052 02/ RMK SF4SC4

CYWG;2007-11-19 02:00;CYWG 190200Z 19019G24KT 12SM FEW008 OVC052 03/ A2953 RMK SF2SC6 SLP010

CYWG;2007-11-19 03:00;CYWG 190300Z 20017KT 15SM SCT052 BKN100 03/ A2953 RMK SC4AC2 SLP009

CYWG;2007-11-19 04:00;CYWG 190400Z 23013KT 15SM FEW052 SCT079 BKN100 03/ A2955 RMK SC2AC2AC1 SLP017

CYWG;2007-11-19 05:00;CYWG 190500Z 26011KT 15SM SCT032 04/ A2955 RMK SC3 SLP017

CYWG;2007-11-19 06:00;CYWG 190600Z 24011G16KT 15SM FEW030 03/ A2956 RMK SC2 SLP021

CYWG;2007-11-19 07:00;CYWG 190700Z 25011KT 15SM BKN031 03/ A2957 RMK SC7 SLP025

CYWG;2007-11-19 08:00;CYWG 190800Z 22009KT 15SM OVC027 03/ A2958 RMK SC8 SLP026

CYWG;2007-11-19 09:00;CYWG 190900Z 24009KT 15SM OVC027 03/ A2960 RMK SC8 SLP033

CYWG;2007-11-19 10:00;CYWG 191000Z 25010G15KT 15SM OVC029 03/02 A2961 RMK SC8 SLP036

CYWG;2007-11-19 13:00;CYWG 191300Z 25013KT 15SM SCT032 BKN100 02/M01 A2964 RMK SC3AC4 SLP048

CYWG;2007-11-19 14:00;CYWG 191400Z 26012KT 15SM FEW035 BKN078 02/M01 A2966 RMK SC2AC3 SLP053

CYWG;2007-11-19 15:00;CYWG 191500Z 27014KT 15SM FEW045 BKN080 01/M02 A2967 RMK SC2AC2 SLP057

CYWG;2007-11-19 16:00;CYWG 191600Z 27015G21KT 15SM FEW045 SCT080 02/M01 A2968 RMK SC2AC2 SLP060

CYWG;2007-11-19 17:00;CYWG 191700Z 28018KT 15SM FEW045 FEW080 04/M01 A2970 RMK SC2AC1 SLP066

CYWG;2007-11-19 18:00;CYWG 191800Z 29021KT 15SM FEW020 SCT045 SCT080 04/M01 A2972 RMK CU1SC2AC1 SLP073

CYWG;2007-11-19 19:00;CYWG 191900Z 29017G22KT 15SM BKN029 BKN080 04/M01 A2973 RMK SC5AC1 SLP076

CYWG;2007-11-19 20:00;CYWG 192000Z 31013G18KT 15SM BKN031 BKN070 04/M01 A2974 RMK SC6AC1 SLP080

CYWG;2007-11-19 21:00;CYWG 192100Z 31010KT 15SM BKN046 OVC070 02/M01 A2977 RMK SC6AC2 SLP091

CYWG;2007-11-19 22:00;CYWG 192200Z 32010G18KT 15SM BKN044 BKN070 OVC210 02/M02 A2981 RMK SC6AC1CI0 SLP104

CYWG;2007-11-19 23:00;CYWG 192300Z 29009KT 15SM BKN044 BKN072 OVC210 01/M03 A2984 RMK SC6AC2CI0 SLP115

CYWG;2007-11-20 00:00;CYWG 200000Z 31012KT 15SM BKN046 OVC074 00/M03 A2987 RMK SC6AC2 SLP125

CYWG;2007-11-20 01:00;CYWG 200100Z 31008KT 15SM FEW046 M02/M04 A2989 RMK SC2 SLP133

CYWG;2007-11-20 02:00;CYWG 200200Z 31010KT 15SM FEW050 M03/M04 A2991 RMK SC2 SLP140

CYWG;2007-11-20 03:00;CYWG 200300Z 30010KT 15SM BKN032 M01/M03 A2993 RMK SC6 SLP146

CYWG;2007-11-20 04:00;CYWG 200400Z 30009KT 15SM OVC030 M01/M02 A2994 RMK SC8 SLP152

CYWG;2007-11-20 05:00;CYWG 200500Z 30009KT 15SM BKN025 M01/M02 A2997 RMK SC6 SLP161

CYWG;2007-11-20 06:00;CYWG 200600Z 31009KT 15SM BKN028 BKN043 M02/M03 A2999 RMK SC5SC2 SLP167

CYWG;2007-11-20 07:00;CYWG 200700Z 30009KT 15SM FEW028 SCT074 M04/M04 A3000 RMK SC2AC2 SLP171

CYWG;2007-11-20 08:00;CYWG 200800Z 31008KT 15SM FEW074 M04/M05 A3000 RMK AC2 SLP172

CYWG;2007-11-20 09:00;CYWG 200900Z 31007KT 15SM SCT029 SCT074 M04/M04 A3003 RMK SC3AC1 SLP181

CYWG;2007-11-20 10:00;CYWG 201000Z 31008KT 15SM BKN016 M04/M04 A3004 RMK SC6 SLP185

CYWG;2007-11-20 11:00;CYWG 201100Z 33007KT 15SM OVC016 M03/M03 A3004 RMK SC8 SLP187

CYWG;2007-11-20 12:00;CYWG 201200Z 29007KT 15SM OVC013 M03/M04 A3007 RMK SC8 SLP198

CYWG;2007-11-20 13:00;CYWG 201300Z 33010KT 15SM OVC010 M03/M03 A3008 RMK SC8 SLP200

CYWG;2007-11-20 14:00;CYWG 201400Z 34010KT 15SM OVC009 M03/M03 A3012 RMK SC8 SLP212

CYWG;2007-11-20 14:18;CYWG 201418Z 34010KT 15SM OVC010 M03/ RMK SC8

CYWG;2007-11-20 15:00;CYWG 201500Z 32011KT 15SM OVC010 M03/M03 A3014 RMK SC8 SLP220

CYWG;2007-11-20 15:52;CYWG 201552Z 32011KT 15SM -SN OVC010 M03/ RMK SC8

CYWG;2007-11-20 16:00;CYWG 201600Z 33013KT 15SM -SN OVC010 M03/M04 A3015 RMK SC8 SLP222

CYWG;2007-11-20 17:00;CYWG 201700Z 33011KT 15SM -SN OVC010 M02/M04 A3016 RMK SC8 SLP228

CYWG;2007-11-20 18:00;CYWG 201800Z 33013KT 15SM -SN BKN014 OVC056 M02/M05 A3017 RMK SC7SC1 SLP232

CYWG;2007-11-20 19:00;CYWG 201900Z 34010G16KT 15SM -SN BKN020 OVC087 M02/M06 A3019 RMK SC7AC1 SLP238

CYWG;2007-11-20 20:00;CYWG 202000Z 33012KT 15SM -SN OVC020 M03/M06 A3020 RMK SC8 SLP240

CYWG;2007-11-20 21:00;CYWG 202100Z 34013KT 15SM -SN BKN020 M03/M07 A3021 RMK SC7 SLP244

CYWG;2007-11-20 22:00;CYWG 202200Z 36011KT 15SM -SN BKN022 BKN090 M03/M07 A3022 RMK SC6AC1 SLP250

CYWG;2007-11-20 23:00;CYWG 202300Z 36008KT 8SM -SN BKN030 M04/M07 A3024 RMK SC7 SLP256

CYWG;2007-11-21 00:00;CYWG 210000Z 02010KT 15SM -SN BKN030 M05/M08 A3026 RMK SC7 SLP264

CYWG;2007-11-21 00:30;CYWG 210030Z 01006KT 15SM FEW023 FEW090 M07/ RMK SC2AC1

CYWG;2007-11-21 01:00;CYWG 210100Z 36006KT 15SM FEW023 M08/M09 A3028 RMK SC2 SLP270

CYWG;2007-11-21 02:00;CYWG 210200Z 35010KT 15SM SCT024 M07/M09 A3030 RMK SC2 SLP277

CYWG;2007-11-21 03:00;CYWG 210300Z 34009KT 15SM FEW090 M09/M10 A3033 RMK AC1 SLP287

CYWG;2007-11-21 04:00;CYWG 210400Z 33010KT 15SM FEW027 M09/M10 A3034 RMK SC2 SLP291

CYWG;2007-11-21 05:00;CYWG 210500Z 34010KT 15SM -SN OVC027 M09/M10 A3036 RMK SC8 SLP298

CYWG;2007-11-21 06:00;CYWG 210600Z 35011KT 15SM -SN OVC018 M08/M09 A3038 RMK SC8 SLP304

CYWG;2007-11-21 07:00;CYWG 210700Z 34013KT 15SM OVC018 M08/M09 A3039 RMK SC8 SLP308

CYWG;2007-11-21 08:00;CYWG 210800Z 34016KT 15SM -SN OVC018 M08/M10 A3040 RMK SC8 SLP312

CYWG;2007-11-21 09:00;CYWG 210900Z 35013KT 15SM -SN OVC018 M08/M10 A3042 RMK SC8 SLP318

CYWG;2007-11-21 10:00;CYWG 211000Z 36012KT 15SM -SN OVC015 M08/M10 A3043 RMK SC8 SLP322

CYWG;2007-11-21 11:00;CYWG 211100Z 01012KT 15SM -SN OVC015 M08/M10 A3045 RMK SC8 SLP328

CYWG;2007-11-21 12:00;CYWG 211200Z 03013KT 10SM -SN DRSN OVC015 M08/M10 A3046 RMK SC8 SLP334

CYWG;2007-11-21 13:00;CYWG 211300Z 02008KT 12SM -SN OVC017 M08/M11 A3049 RMK SC8 SLP342

CYWG;2007-11-21 14:00;CYWG 211400Z 01011KT 12SM -SN OVC015 M08/M11 A3051 RMK SC8 SLP349

CYWG;2007-11-21 15:00;CYWG 211500Z 03008KT 10SM -SN OVC015 M08/M11 A3053 RMK SC8 SLP357

CYWG;2007-11-21 16:00;CYWG 211600Z 02010KT 5SM -SN OVC015 M08/M11 A3054 RMK SC8 SLP363

CYWG;2007-11-21 17:00;CYWG 211700Z 03008KT 4SM -SN OVC015 M08/M10 A3054 RMK SC8 SLP362

CYWG;2007-11-21 18:00;CYWG 211800Z 01007KT 4SM -SN OVC015 M08/M11 A3053 RMK SC8 SLP357

CYWG;2007-11-21 19:00;CYWG 211900Z 01008KT 15SM -SN BKN013 M07/M11 A3052 RMK SC7 SLP353

CYWG;2007-11-21 19:45;CYWG 211945Z 03008KT 15SM BKN017 M07/ RMK SC6

CYWG;2007-11-21 20:00;CYWG 212000Z 03009KT 15SM BKN017 M07/M10 A3051 RMK SC6 SLP352

CYWG;2007-11-21 21:00;CYWG 212100Z 02011KT 15SM BKN020 M07/M11 A3051 RMK SC5 SLP351

CYWG;2007-11-21 22:00;CYWG 212200Z 03010KT 15SM BKN018 M08/M11 A3051 RMK SC5 SLP350

CYWG;2007-11-21 23:00;CYWG 212300Z 04006KT 15SM FEW018 SCT089 M10/M12 A3051 RMK SC2AC1 SLP352

CYWG;2007-11-22 00:00;CYWG 220000Z 02005KT 15SM FEW020 M11/M13 A3052 RMK SC2 SLP354

CYWG;2007-11-22 01:00;CYWG 220100Z 01004KT 15SM FEW089 M13/M14 A3053 RMK AC2 SLP357

CYWG;2007-11-22 02:00;CYWG 220200Z 05003KT 15SM SKC M12/M14 A3053 RMK SLP359

CYWG;2007-11-22 03:00;CYWG 220300Z 29003KT 15SM SKC M14/M14 A3053 RMK SLP360

CYWG;2007-11-22 04:00;CYWG 220400Z 35002KT 15SM SKC M14/M15 A3053 RMK SLP360

CYWG;2007-11-22 05:00;CYWG 220500Z 29002KT 15SM SKC M15/M16 A3052 RMK SLP356

CYWG;2007-11-22 06:00;CYWG 220600Z 31002KT 15SM SKC M17/M17 A3051 RMK SLP354

CYWG;2007-11-22 07:00;CYWG 220700Z 00000KT 15SM SKC M16/M17 A3051 RMK SLP352

CYWG;2007-11-22 08:00;CYWG 220800Z 00000KT 15SM SKC M16/M17 A3049 RMK SLP348

CYWG;2007-11-22 09:00;CYWG 220900Z 00000KT 15SM SKC M16/M16 A3049 RMK SLP347

CYWG;2007-11-22 10:00;CYWG 221000Z 00000KT 15SM SKC M17/M17 A3048 RMK SLP343

CYWG;2007-11-22 11:00;CYWG 221100Z 21002KT 15SM SKC M17/M18 A3047 RMK SLP341

CYWG;2007-11-22 12:00;CYWG 221200Z 21002KT 15SM SKC M16/M17 A3047 RMK SLP341

CYWG;2007-11-22 13:00;CYWG 221300Z 17004KT 15SM SKC M16/M16 A3046 RMK SLP338

CYWG;2007-11-22 14:00;CYWG 221400Z 17007KT 15SM SCT230 M16/M16 A3045 RMK CI0 SLP336

CYWG;2007-11-22 15:00;CYWG 221500Z 18006KT 12SM SCT230 M13/M14 A3044 RMK CI0 SLP332

CYWG;2007-11-22 16:00;CYWG 221600Z 19006KT 12SM FEW083 SCT230 M11/M12 A3043 RMK AC2CI0 IC SLP328

CYWG;2007-11-22 17:00;CYWG 221700Z 19009KT 15SM FEW080 SCT230 M09/M10 A3042 RMK AC2CI1 SLP326

CYWG;2007-11-22 18:00;CYWG 221800Z 21010KT 15SM BKN060 BKN090 M08/M10 A3040 RMK SC4AC1 SLP317

CYWG;2007-11-22 19:00;CYWG 221900Z 20012KT 15SM BKN062 M07/M10 A3038 RMK SC4 SLP308

CYWG;2007-11-22 20:00;CYWG 222000Z 19012KT 15SM BKN057 BKN075 M07/M11 A3034 RMK SC5AC2 SLP297

CYWG;2007-11-22 21:00;CYWG 222100Z 19013KT 15SM BKN047 OVC074 M05/M11 A3032 RMK SC6AC2 SLP286

CYWG;2007-11-22 22:00;CYWG 222200Z 19011G16KT 15SM BKN032 OVC075 M06/M10 A3030 RMK SC6AC2 SLP281

CYWG;2007-11-22 23:00;CYWG 222300Z 19010KT 12SM -SN BKN024 OVC075 M06/M10 A3029 RMK SC6AC2 SLP276

CYWG;2007-11-23 00:00;CYWG 230000Z 19012KT 12SM -SN OVC020 M05/M09 A3026 RMK SC8 SLP269

CYWG;2007-11-23 01:00;CYWG 230100Z 19010KT 15SM -SN BKN016 OVC052 M05/M08 A3024 RMK SC6SC2 SLP262

CYWG;2007-11-23 02:00;CYWG 230200Z 20009KT 15SM BKN023 M06/M07 A3021 RMK SC6 SLP251

CYWG;2007-11-23 03:00;CYWG 230300Z 21006KT 15SM OVC029 M05/M07 A3018 RMK SC7 SLP239

CYWG;2007-11-23 04:00;CYWG 230400Z 21009KT 15SM OVC034 M04/M07 A3017 RMK SC8 SLP237

CYWG;2007-11-23 05:00;CYWG 230500Z 20009KT 15SM SCT031 M05/M07 A3014 RMK SC3 SLP225

CYWG;2007-11-23 06:00;CYWG 230600Z 20011KT 15SM FEW080 M05/M08 A3011 RMK AC2 SLP212

CYWG;2007-11-23 07:00;CYWG 230700Z 21011KT 15SM BKN087 M06/M08 A3008 RMK AC4 SLP203

CYWG;2007-11-23 08:00;CYWG 230800Z 21010KT 15SM BKN076 M06/M08 A3006 RMK AC5 SLP195

CYWG;2007-11-23 09:00;CYWG 230900Z 23008KT 15SM BKN067 M06/M09 A3004 RMK AC6 SLP189

CYWG;2007-11-23 10:00;CYWG 231000Z 24007KT 15SM BKN060 M06/M08 A3003 RMK SC6 SLP185

CYWG;2007-11-23 11:00;CYWG 231100Z 24007KT 15SM -SN BKN032 BKN087 M06/M08 A3002 RMK SC5AC2 SLP181

CYWG;2007-11-23 12:00;CYWG 231200Z 24006KT 15SM BKN021 BKN090 M07/M08 A3000 RMK SC5AC1 SLP177

CYWG;2007-11-23 12:50;CYWG 231250Z 26006KT 15SM -SN BKN047 BKN090 M07/ RMK SC5AC2

CYWG;2007-11-23 13:00;CYWG 231300Z 26005KT 12SM -SN OVC047 M07/M08 A3000 RMK SC7 SLP175

CYWG;2007-11-23 14:00;CYWG 231400Z 29006KT 4SM -SN BKN020 OVC047 M06/M07 A3000 RMK SC5SC3 SLP176

CYWG;2007-11-23 14:40;CYWG 231440Z 31006KT 2SM -SN OVC024 M06/ RMK SC8

CYWG;2007-11-23 15:00;CYWG 231500Z CCB 30006KT 1 1/2SM -SN BKN013 OVC042 M05/M06 A3001 RMK SN5SC2SC2 SLP177

CYWG;2007-11-23 15:44;CYWG 231544Z 33010KT 1SM R31/P6000FT/D R36/P6000FT/N -SN BKN008 OVC042 RMK SN5SC2SC1

CYWG;2007-11-23 16:00;CYWG 231600Z 34011KT 1 1/2SM -SN BKN008 OVC042 M05/M05 A3002 RMK SN3SC4SC1 SLP181

CYWG;2007-11-23 16:17;CYWG 231617Z 33013KT 2 1/2SM -SN SCT017 OVC059 M05/ RMK SN2SC2SC4

CYWG;2007-11-23 16:46;CYWG 231646Z 33012KT 3SM -SN BKN019 OVC059 M05/ RMK SC6SC2

CYWG;2007-11-23 17:00;CYWG 231700Z 34012KT 6SM -SN SCT023 OVC059 M05/M06 A3003 RMK SC3SC5 SLP184

CYWG;2007-11-23 18:00;CYWG 231800Z 33010KT 6SM -SN SCT027 OVC081 M05/M06 A3002 RMK SC4AC4 SLP182

CYWG;2007-11-23 19:00;CYWG 231900Z 33010KT 5SM -SN BKN013 OVC032 M04/M06 A3002 RMK SC5SC3 SLP182

CYWG;2007-11-23 20:00;CYWG 232000Z 34007KT 15SM FEW013 FEW031 BKN250 M05/M07 A3002 RMK CF1SC2CI1 SLP181

CYWG;2007-11-23 20:23;CYWG 232023Z 35012KT 10SM -SN BKN017 BKN250 M04/ RMK SC6CI1

CYWG;2007-11-23 20:48;CYWG 232048Z 34006KT 15SM SCT022 M05/ RMK SC4 -SHSN ALQDS

CYWG;2007-11-23 21:00;CYWG 232100Z 35010KT 15SM SCT013 BKN250 M04/M06 A3002 RMK SC3CI1 -SHSN ALQDS SLP182

CYWG;2007-11-23 21:04;CYWG 232104Z 34009KT 10SM -SHSN BKN013 BKN250 M04/ RMK SC6CI1

CYWG;2007-11-23 21:30;CYWG 232130Z 34013KT 15SM FEW013 BKN027 M04/ RMK SC2SC2 -SHSN ALQDS

CYWG;2007-11-23 21:40;CYWG 232140Z 35011KT 10SM -SHSN FEW013 BKN027 BKN050 M04/ RMK CF2SC3SC2

CYWG;2007-11-23 22:00;CYWG 232200Z 34009G15KT 10SM -SHSN BKN025 BKN050 M05/M08 A3003 RMK SC5SC2 -SHSN ALQDS SLP184

CYWG;2007-11-23 22:30;CYWG 232230Z 32009KT 15SM BKN023 BKN050 M05/ RMK SC6SC2

CYWG;2007-11-23 23:00;CYWG 232300Z 31006KT 15SM BKN025 M06/M09 A3004 RMK SC7 SLP188

CYWG;2007-11-24 00:00;CYWG 240000Z 30011KT 15SM BKN027 M07/M09 A3005 RMK SC7 SLP192

CYWG;2007-11-24 01:00;CYWG 240100Z 29008KT 15SM FEW027 M12/M13 A3004 RMK SC1 SLP191

CYWG;2007-11-24 02:00;CYWG 240200Z 27006KT 15SM FEW027 M13/M14 A3003 RMK SC1 SLP188

CYWG;2007-11-24 03:00;CYWG 240300Z 26007KT 15SM SKC M12/M13 A3003 RMK SLP186

CYWG;2007-11-24 04:00;CYWG 240400Z 26007KT 15SM FEW020 M12/M13 A3002 RMK SC2 SLP183

CYWG;2007-11-24 05:00;CYWG 240500Z 25007KT 15SM -SN OVC024 M09/M11 A2999 RMK SC8 SLP176

CYWG;2007-11-24 06:00;CYWG 240600Z 23007KT 15SM -SHSN OVC024 M08/M10 A2997 RMK SC8 SLP167

CYWG;2007-11-24 07:00;CYWG 240700Z 22011KT 15SM -SHSN BKN022 M08/M10 A2994 RMK SC6 SLP155

CYWG;2007-11-24 07:29;CYWG 240729Z 22012KT 15SM SCT022 RMK SC2

CYWG;2007-11-24 08:00;CYWG 240800Z 23013KT 15SM SCT022 M09/M10 A2992 RMK SC2 SLP149

CYWG;2007-11-24 09:00;CYWG 240900Z 23012KT 15SM FEW022 SCT094 M09/M11 A2990 RMK SC1AC2 SLP141

CYWG;2007-11-24 10:00;CYWG 241000Z 23012G17KT 15SM BKN017 OVC090 M09/M11 A2988 RMK SC6AC2 SLP136

CYWG;2007-11-24 11:00;CYWG 241100Z 22011KT 15SM OVC015 M08/M10 A2985 RMK SC8 SLP125

CYWG;2007-11-24 12:00;CYWG 241200Z 21009G15KT 15SM OVC015 M08/M10 A2981 RMK SC8 SLP113

CYWG;2007-11-24 13:00;CYWG 241300Z 21009KT 15SM FEW022 BKN091 M07/M08 A2979 RMK SC2AC5 SLP105

CYWG;2007-11-24 14:00;CYWG 241400Z 20011KT 15SM FEW022 OVC097 M06/M08 A2977 RMK SC2AC6 SLP100

CYWG;2007-11-24 15:00;CYWG 241500Z 21010KT 15SM FEW022 SCT073 OVC086 M05/M07 A2977 RMK SC1AC2AC5 SLP097

CYWG;2007-11-24 16:00;CYWG 241600Z 20009KT 15SM SCT080 OVC088 M04/M06 A2975 RMK AS2AS6 SLP093

CYWG;2007-11-24 17:00;CYWG 241700Z 23009KT 15SM FEW022 SCT067 OVC083 M03/M05 A2974 RMK SC1AS2AS5 SLP090

CYWG;2007-11-24 18:00;CYWG 241800Z 26008KT 15SM SCT067 OVC074 M02/M05 A2973 RMK AS3AS5 SLP082

CYWG;2007-11-24 19:00;CYWG 241900Z 30010KT 15SM FEW059 OVC073 M01/M05 A2971 RMK SC1AS6 SLP076

CYWG;2007-11-24 20:00;CYWG 242000Z 30005KT 15SM FEW061 OVC100 M01/M04 A2970 RMK SC2AS5 SLP074

CYWG;2007-11-24 21:00;CYWG 242100Z 30006KT 15SM FEW040 SCT061 OVC080 M01/M04 A2971 RMK SC1SC2AS3 SLP077

CYWG;2007-11-24 22:00;CYWG 242200Z 34005KT 15SM SCT060 OVC085 M02/M04 A2973 RMK SC2AS6 SLP081

CYWG;2007-11-24 23:00;CYWG 242300Z 33003KT 15SM FEW070 OVC090 M03/M04 A2974 RMK AC2AS6 SLP085

CYWG;2007-11-25 00:00;CYWG 250000Z 34002KT 9SM -SHSN OVC050 M03/M04 A2974 RMK SC8 SLP086

CYWG;2007-11-25 01:00;CYWG 250100Z 01002KT 6SM -SHSN OVC026 M03/M04 A2973 RMK SC8 SLP082

CYWG;2007-11-25 01:44;CYWG 250144Z 01003KT 2SM -SN OVC018 M03/ RMK SC8

CYWG;2007-11-25 02:00;CYWG 250200Z 02003KT 2SM -SN OVC018 M03/M03 A2972 RMK SC8 SLP079

CYWG;2007-11-25 02:12;CYWG 250212Z 03005KT 1 1/2SM -SN VV013 M03/ RMK SN8

CYWG;2007-11-25 02:19;CYWG 250219Z 06006KT 1 1/4SM -SN VV008 M03/ RMK SN8

CYWG;2007-11-25 02:50;CYWG 250250Z 07008KT 2 1/2SM -SN VV008 M03/ RMK SN8

CYWG;2007-11-25 03:00;CYWG 250300Z 07009KT 2SM -SN OVC009 M03/M04 A2970 RMK SF8 SLP074

CYWG;2007-11-25 03:06;CYWG 250306Z 06010KT 2SM -SN OVC013 M03/ RMK SF8

CYWG;2007-11-25 04:00;CYWG 250400Z 08008KT 15SM -SN FEW007 BKN013 BKN055 M04/M05 A2970 RMK SF2SC3SC1 SLP072

CYWG;2007-11-25 04:41;CYWG 250441Z 08004KT 7SM FEW007 OVC017 M04/ RMK SF2SC6

CYWG;2007-11-25 05:00;CYWG 250500Z 07006KT 10SM FEW007 SCT020 OVC058 M04/M05 A2969 RMK SF2SC2SC3 SLP069

CYWG;2007-11-25 06:00;CYWG 250600Z 09004KT 10SM FEW007 FEW020 OVC080 M04/M05 A2968 RMK SF1SC2AS3 SLP066

CYWG;2007-11-25 07:00;CYWG 250700Z 07005KT 15SM FEW016 OVC080 M04/M05 A2967 RMK SF2AS3 SLP063

CYWG;2007-11-25 07:29;CYWG 250729Z 07005KT 6SM -SN BKN014 OVC080 M04/ RMK SC6AS2

CYWG;2007-11-25 08:00;CYWG 250800Z 08007KT 2SM -SN SCT014 OVC080 M04/M05 A2966 RMK SC3AS4 SLP057

CYWG;2007-11-25 08:39;CYWG 250839Z 07006KT 1 1/2SM -SN VV014 M04/ RMK SN8

CYWG;2007-11-25 09:00;CYWG 250900Z 08006KT 1SM R13/P6000FT/U R36/P6000FT/N -SN OVC080 M04/M05 A2965 RMK SN7AS1 SLP054

CYWG;2007-11-25 09:33;CYWG 250933Z 09008KT 4SM -SN FEW008 SCT025 OVC080 M04/ RMK SF2SC2AS5

CYWG;2007-11-25 10:00;CYWG 251000Z 08007KT 5SM -SN FEW008 BKN025 M04/M05 A2963 RMK SF2SC4 SLP046

CYWG;2007-11-25 11:00;CYWG 251100Z 09006KT 10SM OVC009 M05/M05 A2963 RMK SF8 SLP046

CYWG;2007-11-25 12:00;CYWG 251200Z 07009KT 12SM BKN011 OVC057 M04/M05 A2962 RMK SF6SC2 SLP043

CYWG;2007-11-25 13:00;CYWG 251300Z 09006KT 12SM BKN011 OVC055 M05/M05 A2961 RMK SF6SC2 SLP042

CYWG;2007-11-25 14:00;CYWG 251400Z 07006KT 12SM SCT008 OVC081 M05/M05 A2961 RMK SF4AS4 SLP041

CYWG;2007-11-25 15:00;CYWG 251500Z 06007KT 15SM OVC062 M05/M05 A2961 RMK SC8 SLP042

CYWG;2007-11-25 15:45;CYWG 251545Z 05007KT 10SM -SN BKN045 OVC074 M05/ RMK SC5AC3

CYWG;2007-11-25 16:00;CYWG 251600Z 05009KT 10SM -SN OVC039 M05/M06 A2962 RMK SC8 SLP045

CYWG;2007-11-25 16:36;CYWG 251636Z 05009KT 1SM R31/P6000FT/D R36/P6000FT/D -SN OVC014 M05/ RMK SN3ST5

CYWG;2007-11-25 17:00;CYWG 251700Z 05008KT 1SM R31/P6000FT/N R36/P6000FT/N -SN VV003 M04/M05 A2963 RMK SN8 SLP049

CYWG;2007-11-25 17:20;CYWG 251720Z CCA 04010KT 1SM R31/P6000FT/D R36/P6000FT/D -SN VV006 M05/ RMK SN8

CYWG;2007-11-25 17:39;CYWG 251739Z 04011KT 1SM R31/P6000FT/N R36/P6000FT/N -SN VV011 M04/ RMK SN8

CYWG;2007-11-25 18:00;CYWG 251800Z 04009KT 1SM R31/P6000FT/D R36/P6000FT/D -SN VV005 M05/M05 A2964 RMK SN8 SLP052

CYWG;2007-11-25 18:43;CYWG 251843Z 03010KT 1SM R31/P6000FT/U R36/P6000FT/N -SN VV007 M05/ RMK SN8

CYWG;2007-11-25 19:00;CYWG 251900Z 02010KT 1 1/2SM -SN VV008 M05/M06 A2966 RMK SN8 SLP058

CYWG;2007-11-25 19:17;CYWG 251917Z 03010KT 1SM R31/P6000FT/D R36/P6000FT/D -SN VV007 M05/ RMK SN8

CYWG;2007-11-25 20:00;CYWG 252000Z 01009KT 1SM R31/P6000FT/U R36/P6000FT/U -SN VV007 M05/M06 A2970 RMK SN8 VIS VRBL 3/4-11/4 SLP071

CYWG;2007-11-25 20:22;CYWG 252022Z 02010KT 8SM -SN BKN045 OVC070 M05/ RMK SC5AC3

CYWG;2007-11-25 21:00;CYWG 252100Z 36009KT 3SM -SN BKN040 OVC070 M05/M06 A2975 RMK SC6AC2 SLP089

CYWG;2007-11-25 22:00;CYWG 252200Z 36008KT 10SM -SN FEW009 BKN059 OVC094 M05/M06 A2980 RMK SF1SC5AC2 SLP104

CYWG;2007-11-25 23:00;CYWG 252300Z 01011KT 10SM -SN SCT012 OVC030 M06/M08 A2985 RMK SC4SC4 SLP123

CYWG;2007-11-26 00:00;CYWG 260000Z 01011KT 10SM -SN FEW020 SCT027 OVC031 M08/M10 A2990 RMK SF1SC2SC5 SLP140

CYWG;2007-11-26 01:00;CYWG 260100Z 36011KT 10SM -SN OVC027 M09/M11 A2992 RMK SC8 SLP147

CYWG;2007-11-26 02:00;CYWG 260200Z 36010KT 15SM -SN FEW024 OVC029 M10/M12 A2995 RMK SC2SC6 SLP158

CYWG;2007-11-26 03:00;CYWG 260300Z 34012KT 15SM -SN OVC029 M11/M13 A2999 RMK SC8 SLP172

CYWG;2007-11-26 04:00;CYWG 260400Z 33009KT 15SM -SN OVC029 M11/M13 A3001 RMK SC8 SLP179

CYWG;2007-11-26 05:00;CYWG 260500Z 34011KT 15SM -SN OVC029 M11/M13 A3003 RMK SC8 SLP185

CYWG;2007-11-26 06:00;CYWG 260600Z 34010KT 15SM -SN OVC033 M12/M14 A3006 RMK SC8 SLP196

CYWG;2007-11-26 07:00;CYWG 260700Z 32012KT 15SM -SN OVC042 M12/M14 A3008 RMK SC8 SLP205

CYWG;2007-11-26 08:00;CYWG 260800Z 33008KT 15SM -SN OVC044 M12/M14 A3009 RMK SC8 SLP209

CYWG;2007-11-26 09:00;CYWG 260900Z 35008KT 15SM OVC044 M12/M14 A3011 RMK SC8 SLP216

CYWG;2007-11-26 10:00;CYWG 261000Z 36003KT 15SM OVC042 M12/M14 A3012 RMK SC8 SLP218

CYWG;2007-11-26 11:00;CYWG 261100Z 31004KT 15SM OVC042 M12/M14 A3013 RMK SC8 SLP222

CYWG;2007-11-26 12:00;CYWG 261200Z 29003KT 15SM OVC040 M12/M14 A3013 RMK SC8 SLP222

CYWG;2007-11-26 13:00;CYWG 261300Z 26004KT 15SM OVC036 M12/M14 A3013 RMK SC8 SLP224

CYWG;2007-11-26 14:00;CYWG 261400Z 27003KT 15SM OVC030 M12/M14 A3013 RMK SC8 SLP223

CYWG;2007-11-26 14:53;CYWG 261453Z 24002KT 15SM -SN OVC028 M12/ RMK SC8

CYWG;2007-11-26 15:00;CYWG 261500Z 24003KT 15SM -SN OVC025 M11/M14 A3013 RMK SC8 SLP225

CYWG;2007-11-26 16:00;CYWG 261600Z 20005KT 12SM -SN OVC027 M11/M14 A3011 RMK SC8 SLP218

CYWG;2007-11-26 17:00;CYWG 261700Z 19006KT 12SM -SN OVC027 M10/M12 A3008 RMK SC8 SLP208

CYWG;2007-11-26 17:34;CYWG 261734Z 19009KT 1 1/2SM -SN OVC017 RMK SC8

CYWG;2007-11-26 18:00;CYWG 261800Z 21009KT 1 1/2SM -SN OVC015 M10/M12 A3006 RMK SC8 SLP200

CYWG;2007-11-26 18:03;CYWG 261803Z 20010KT 3/4SM R31/P6000FT/D R36/P6000FT/D -SN VV005 M10/ RMK SN8

CYWG;2007-11-26 18:23;CYWG 261823Z 21010KT 3/4SM R13/6000FT/U R36/5500FT/N -SN VV004 M10/ RMK SN8

CYWG;2007-11-26 18:33;CYWG 261833Z 21008KT 1SM R13/P6000FT/U R36/P6000FT/U -SN VV005 M10/ RMK SN8

CYWG;2007-11-26 18:47;CYWG 261847Z 23011KT 3/4SM R13/3000VP6000FT/D R36/P6000FT/D -SN VV002 M10/ RMK SN8

CYWG;2007-11-26 19:00;CYWG 261900Z 26011KT 1SM R31/6000FT/N R36/P6000FT/N -SN VV002 M11/M12 A3003 RMK SN8 SLP189

CYWG;2007-11-26 19:13;CYWG 261913Z 27010G16KT 3/4SM R31/6000FT/D R36/P6000FT/D -SN VV005 M11/ RMK SN8

CYWG;2007-11-26 20:00;CYWG 262000Z 30019KT 3/4SM R31/4000VP6000FT/D R36/4500VP6000FT/D -SN VV006 M12/M14 A3002 RMK SN8 SLP186

CYWG;2007-11-26 20:49;CYWG 262049Z CCA 29015KT 3/4SM R31/P6000FT/N R36/P6000FT/U -SN VV004 M13/ RMK SN8

CYWG;2007-11-26 21:00;CYWG 262100Z 29017KT 3/4SM R31/P6000FT/N R36/P6000FT/N -SN VV004 M12/M14 A3002 RMK SN8 SLP185

CYWG;2007-11-26 22:00;CYWG 262200Z 34018KT 1 1/2SM -SN VV008 M13/M15 A3005 RMK SN8 SLP197

CYWG;2007-11-26 22:26;CYWG 262226Z 34018G25KT 4SM BLSN BKN009 BKN044 M14/ RMK SN2SC2SC2

CYWG;2007-11-26 22:38;CYWG 262238Z 33018KT 8SM FEW009 FEW044 BKN082 M14/ RMK SC1SC2AC2 BLSN

CYWG;2007-11-26 23:00;CYWG 262300Z 33020KT 9SM FEW044 FEW082 M16/M18 A3010 RMK SC1AC1 SLP212

CYWG;2007-11-27 00:00;CYWG 270000Z 33014KT 12SM FEW058 M18/M21 A3014 RMK SC2 SLP229

CYWG;2007-11-27 01:00;CYWG 270100Z 34015KT 15SM SKC M18/M21 A3016 RMK SLP238

CYWG;2007-11-27 02:00;CYWG 270200Z 32012KT 15SM SKC M20/M23 A3019 RMK SLP247

CYWG;2007-11-27 03:00;CYWG 270300Z 32012KT 15SM SKC M21/M24 A3022 RMK SLP257

CYWG;2007-11-27 04:00;CYWG 270400Z 32014KT 15SM SKC M21/M29 A3025 RMK SLP268

CYWG;2007-11-27 05:00;CYWG 270500Z 33013KT 15SM SKC M22/M27 A3025 RMK SLP269

CYWG;2007-11-27 06:00;CYWG 270600Z 33009KT 15SM SKC M23/M27 A3027 RMK SLP274

CYWG;2007-11-27 07:00;CYWG 270700Z 31008KT 15SM SKC M23/M27 A3029 RMK SLP283

CYWG;2007-11-27 08:00;CYWG 270800Z 31009KT 15SM SKC M22/M26 A3031 RMK SLP287

CYWG;2007-11-27 09:00;CYWG 270900Z 28009KT 15SM SKC M24/M27 A3033 RMK SLP296

CYWG;2007-11-27 10:00;CYWG 271000Z 28008KT 15SM SCT092 M24/M28 A3035 RMK AC1 SLP302

CYWG;2007-11-27 11:00;CYWG 271100Z 31007KT 15SM SKC M25/M28 A3034 RMK SLP300

CYWG;2007-11-27 12:00;CYWG 271200Z 28006KT 15SM FEW090 FEW280 M26/M30 A3035 RMK AC1CI0 SLP305

CYWG;2007-11-27 13:00;CYWG 271300Z 25007KT 15SM FEW090 FEW280 M25/M29 A3036 RMK AC1CI0 SLP311

CYWG;2007-11-27 14:00;CYWG 271400Z 27006KT 15SM FEW090 BKN160 M25/M29 A3038 RMK AC1AC1 SLP315

CYWG;2007-11-27 15:00;CYWG 271500Z 29004KT 15SM SCT160 BKN280 M24/M27 A3038 RMK AC2CI0 FROIN SLP317

CYWG;2007-11-27 16:00;CYWG 271600Z 00000KT 15SM SCT150 BKN280 M22/M26 A3036 RMK AS2CS1 SLP310

CYWG;2007-11-27 17:00;CYWG 271700Z 00000KT 15SM FEW090 BKN280 M21/M25 A3036 RMK AC1CI1 SLP311

CYWG;2007-11-27 18:00;CYWG 271800Z 18005KT 15SM SCT095 OVC280 M19/M22 A3035 RMK AC2CI1 SLP304

CYWG;2007-11-27 19:00;CYWG 271900Z 12006KT 15SM BKN140 OVC280 M18/M22 A3031 RMK AC6CI2 SLP291

CYWG;2007-11-27 20:00;CYWG 272000Z 15008KT 15SM OVC140 M18/M22 A3029 RMK AC8 SLP286

CYWG;2007-11-27 21:00;CYWG 272100Z 17006KT 15SM OVC140 M18/M22 A3029 RMK AC8 SLP286

CYWG;2007-11-27 22:00;CYWG 272200Z 14003KT 15SM OVC092 M18/M22 A3029 RMK AC8 SLP284

CYWG;2007-11-27 23:00;CYWG 272300Z 12005KT 15SM OVC088 M17/M21 A3027 RMK AC8 SLP278

CYWG;2007-11-28 00:00;CYWG 280000Z 10005KT 15SM OVC078 M17/M20 A3026 RMK AC8 SLP277

CYWG;2007-11-28 01:00;CYWG 280100Z 07004KT 15SM OVC073 M16/M20 A3027 RMK AC8 SLP278

CYWG;2007-11-28 02:00;CYWG 280200Z 08006KT 15SM OVC052 M16/M20 A3025 RMK SC8 SLP274

CYWG;2007-11-28 03:00;CYWG 280300Z 09007KT 2SM -SN DRSN OVC020 M16/M19 A3022 RMK SN3SC5 SLP262

CYWG;2007-11-28 03:15;CYWG 280315Z 10008KT 1 1/2SM -SN DRSN VV015 M16/ RMK SN8

CYWG;2007-11-28 03:27;CYWG 280327Z 09008KT 1 1/2SM -SN DRSN VV015 M15/ RMK SN8

CYWG;2007-11-28 04:00;CYWG 280400Z 09008KT 1 1/2SM -SN DRSN VV015 M15/M17 A3019 RMK SN8 SLP251

CYWG;2007-11-28 05:00;CYWG 280500Z 10010KT 1 1/4SM -SN DRSN VV011 M15/M16 A3016 RMK SN8 SLP239

CYWG;2007-11-28 06:00;CYWG 280600Z 10010KT 2SM -SN DRSN OVC026 M14/M15 A3012 RMK SN6SC2 SLP223

CYWG;2007-11-28 07:00;CYWG 280700Z 11010KT 1 1/2SM -SN DRSN OVC020 M13/M14 A3009 RMK SN6SC2 SLP215

CYWG;2007-11-28 07:17;CYWG 280717Z 10010KT 1SM R13/P6000FT/N R36/P6000FT/D -SN DRSN VV012 M13/ RMK SN8

CYWG;2007-11-28 08:00;CYWG 280800Z 10010KT 3/4SM R13/P6000FT/U R36/P6000FT/U -SN DRSN VV006 M12/M15 A3006 RMK SN8 SLP204

CYWG;2007-11-28 09:00;CYWG 280900Z 12009KT 2SM -SN DRSN VV007 M12/M13 A3005 RMK SN8 /S01/ SLP200

CYWG;2007-11-28 09:12;CYWG 280912Z 12008KT 1 1/4SM -SN DRSN VV004 M12/ RMK SN8

CYWG;2007-11-28 09:36;CYWG 280936Z 11009KT 1 1/4SM -SN DRSN VV007 M12/ RMK SN8

CYWG;2007-11-28 10:00;CYWG 281000Z 11007KT 2SM -SN VV008 M12/M13 A3002 RMK SN8 SLP190

CYWG;2007-11-28 10:11;CYWG 281011Z 11007KT 1 3/4SM -SN VV015 M12/ RMK SN8

CYWG;2007-11-28 11:00;CYWG 281100Z 11007KT 1 1/2SM -SN OVC006 M12/M13 A3000 RMK SN6SC2 SLP183

CYWG;2007-11-28 11:15;CYWG 281115Z 11005KT 4SM -SN SCT006 SCT030 OVC047 M12/ RMK SC3SC1SC4

CYWG;2007-11-28 11:35;CYWG 281135Z 11005KT 8SM -SN BKN014 OVC047 M12/ RMK SC5SC3

CYWG;2007-11-28 12:00;CYWG 281200Z 10003KT 6SM -SN BKN014 M12/M13 A2999 RMK SN3SC4 SLP179

CYWG;2007-11-28 12:10;CYWG 281210Z 11004KT 2SM -SN VV002 M12/ RMK SN8

CYWG;2007-11-28 12:35;CYWG 281235Z 11003KT 1SM R31/P6000FT/D R36/P6000FT/D -SN VV004 M12/ RMK SN8

CYWG;2007-11-28 13:00;CYWG 281300Z 10002KT 1SM R31/P6000FT/U R36/P6000FT/N -SN VV004 M12/M13 A2997 RMK SN8 SLP173

CYWG;2007-11-28 14:00;CYWG 281400Z 02002KT 1SM R31/P6000FT/D R36/P6000FT/D -SN VV002 M12/M13 A2997 RMK SN8 SLP171

CYWG;2007-11-28 15:00;CYWG 281500Z 35002KT 1 1/2SM -SN OVC066 M12/M13 A2996 RMK SN6AC2 SLP168

CYWG;2007-11-28 15:34;CYWG 281534Z 33004KT 4SM -SN FEW014 BKN060 OVC280 M14/ RMK SN1SF1SC5CI0

CYWG;2007-11-28 16:00;CYWG 281600Z 33004KT 4SM -SN FEW014 SCT060 BKN280 M14/M15 A2996 RMK SF1SC2CI0 SLP167

CYWG;2007-11-28 17:00;CYWG 281700Z 31004KT 8SM -SN FEW014 BKN070 BKN280 M13/M14 A2994 RMK SF1AC3CI0 SLP162

CYWG;2007-11-28 17:44;CYWG 281744Z 30010KT 12SM FEW020 BKN065 BKN280 M12/ RMK SF1SC6CI0

CYWG;2007-11-28 18:00;CYWG 281800Z 29012KT 12SM FEW012 OVC063 M12/M14 A2993 RMK SF2SC6 SLP157

CYWG;2007-11-28 18:27;CYWG 281827Z 30012KT 4SM -SN OVC045 M12/ RMK SN5SC3

CYWG;2007-11-28 18:43;CYWG 281843Z 30011KT 2SM -SN VV006 M12/ RMK SN8

CYWG;2007-11-28 19:00;CYWG 281900Z 30011KT 2SM -SN VV013 M12/M13 A2992 RMK SN8 SLP152

CYWG;2007-11-28 19:41;CYWG 281941Z 29014KT 4SM -SN VV007 M13/ RMK SN8

CYWG;2007-11-28 20:00;CYWG 282000Z 29013KT 3SM -SN VV007 M13/M14 A2991 RMK SN8 SLP149

CYWG;2007-11-28 21:00;CYWG 282100Z 28013KT 6SM -SN FEW014 OVC040 M13/M14 A2991 RMK SC2SC6 SLP148

CYWG;2007-11-28 22:00;CYWG 282200Z 30016KT 5SM -SN SCT040 OVC093 M12/M14 A2991 RMK SC3AC5 SLP148

CYWG;2007-11-28 23:00;CYWG 282300Z 30016KT 6SM -SN FEW011 OVC095 M14/M15 A2992 RMK SC2AC6 SLP151

CYWG;2007-11-28 23:44;CYWG 282344Z 29012KT 12SM SCT026 OVC095 M15/ RMK SC3AC5

CYWG;2007-11-29 00:00;CYWG 290000Z 28011KT 15SM FEW023 BKN085 M16/M17 A2994 RMK SC2AC5 SLP160

CYWG;2007-11-29 01:00;CYWG 290100Z 29013KT 15SM FEW015 OVC062 M16/M18 A2994 RMK SC2SC6 SLP160

CYWG;2007-11-29 01:45;CYWG 290145Z 28012KT 10SM -SN OVC019 M17/ RMK SC8

CYWG;2007-11-29 02:00;CYWG 290200Z 28011KT 12SM -SN OVC019 M18/M19 A2994 RMK SC8 SLP160

CYWG;2007-11-29 03:00;CYWG 290300Z 27011KT 12SM -SN OVC021 M18/M19 A2994 RMK SC8 SLP161

CYWG;2007-11-29 04:00;CYWG 290400Z 29015KT 15SM FEW025 FEW240 M17/M18 A2994 RMK SC1CI0 SLP161

CYWG;2007-11-29 05:00;CYWG 290500Z 29017KT 15SM FEW240 M17/M18 A2994 RMK CI0 SLP163

CYWG;2007-11-29 06:00;CYWG 290600Z 29016KT 15SM BKN037 M16/M17 A2996 RMK SC5 SLP168

CYWG;2007-11-29 07:00;CYWG 290700Z 30016KT 15SM BKN030 M16/M17 A2997 RMK SC6 SLP171

CYWG;2007-11-29 08:00;CYWG 290800Z 30016G21KT 15SM FEW030 FEW090 M17/M19 A2998 RMK SC2AC1 SLP174

CYWG;2007-11-29 09:00;CYWG 290900Z 28012KT 15SM SCT037 M18/M20 A2999 RMK SC3 SLP181

CYWG;2007-11-29 10:00;CYWG 291000Z 28011KT 15SM SCT030 M21/M25 A3001 RMK SC3 SLP185

CYWG;2007-11-29 11:00;CYWG 291100Z 27009KT 15SM FEW030 M21/M26 A3002 RMK SC1 SLP189

CYWG;2007-11-29 12:00;CYWG 291200Z 26007KT 15SM FEW092 M22/M26 A3001 RMK AC1 SLP188

CYWG;2007-11-29 13:00;CYWG 291300Z 27007KT 15SM FEW250 M23/M27 A3001 RMK CI1 SLP189

CYWG;2007-11-29 14:00;CYWG 291400Z 28009KT 15SM FEW250 M23/M27 A3001 RMK CI1 SLP189

CYWG;2007-11-29 15:00;CYWG 291500Z 27007KT 15SM FEW089 SCT250 M23/M27 A3003 RMK AC1CI1 SLP195

CYWG;2007-11-29 16:00;CYWG 291600Z 27007KT 15SM FEW092 SCT250 M21/M25 A3004 RMK AC2CI2 SLP199

CYWG;2007-11-29 17:00;CYWG 291700Z 29014KT 15SM SCT085 BKN250 M20/M25 A3005 RMK AC4CI1 SLP202

CYWG;2007-11-29 18:00;CYWG 291800Z 30015KT 15SM SCT085 BKN250 M20/M24 A3004 RMK AC3CI2 SLP198

CYWG;2007-11-29 19:00;CYWG 291900Z 28015KT 15SM SCT085 BKN250 M19/M23 A3004 RMK AC4CI2 SLP199

CYWG;2007-11-29 20:00;CYWG 292000Z 29013KT 15SM FEW083 SCT250 M19/M24 A3004 RMK AC1CI1 SLP198

CYWG;2007-11-29 21:00;CYWG 292100Z 28009KT 15SM R36/3500VP6000FT/N FEW250 M19/M24 A3003 RMK CI1 CI TR SLP196

CYWG;2007-11-29 22:00;CYWG 292200Z 26006KT 15SM SKC M20/M25 A3004 RMK SLP197

CYWG;2007-11-29 23:00;CYWG 292300Z 25008KT 15SM SKC M20/M25 A3004 RMK SLP199

CYWG;2007-11-30 00:00;CYWG 300000Z 26009KT 15SM SKC M20/M25 A3006 RMK SLP206

CYWG;2007-11-30 01:00;CYWG 300100Z 27009KT 15SM FEW076 M21/M26 A3007 RMK AC1 SLP210

CYWG;2007-11-30 02:00;CYWG 300200Z 27010KT 15SM SKC M22/M26 A3007 RMK SLP210

CYWG;2007-11-30 03:00;CYWG 300300Z 29012KT 15SM SCT040 M21/M26 A3008 RMK SC4 SLP216

CYWG;2007-11-30 04:00;CYWG 300400Z 29013KT 15SM FEW040 SCT082 M22/M25 A3009 RMK SC2AC2 SLP219

CYWG;2007-11-30 05:00;CYWG 300500Z 29012KT 6SM -SN SCT036 BKN090 M22/M25 A3011 RMK SC4AC1 SLP226

CYWG;2007-11-30 06:00;CYWG 300600Z 28010KT 15SM FEW040 FEW090 M24/M27 A3014 RMK SC2AC1 SLP235

CYWG;2007-11-30 07:00;CYWG 300700Z 28009KT 15SM FEW040 M23/M27 A3015 RMK SC2 SLP237

CYWG;2007-11-30 08:00;CYWG 300800Z 26010KT 15SM FEW040 SCT085 M24/M28 A3016 RMK SC1AC2 SLP240

CYWG;2007-11-30 09:00;CYWG 300900Z 26010KT 15SM FEW085 M24/M28 A3016 RMK AC1 SLP241

CYWG;2007-11-30 10:00;CYWG 301000Z 26010KT 15SM SCT091 M24/M28 A3015 RMK AC2 SLP239

CYWG;2007-11-30 11:00;CYWG 301100Z 25011KT 15SM SCT091 M23/M27 A3015 RMK AC2 SLP239

CYWG;2007-11-30 12:00;CYWG 301200Z 24008KT 15SM FEW091 M23/M28 A3014 RMK AC0 SLP236

CYWG;2007-11-30 13:00;CYWG 301300Z 24009KT 15SM FEW088 M23/M27 A3013 RMK AC0 SLP233

CYWG;2007-11-30 14:00;CYWG 301400Z 23008KT 15SM BKN081 M22/M26 A3012 RMK AC6 SLP229

CYWG;2007-11-30 15:00;CYWG 301500Z 22008KT 15SM FEW085 M21/M26 A3012 RMK AC1 OBS TAKEN +9 SLP228

CYWG;2007-11-30 16:00;CYWG 301600Z 23009KT 15SM FEW090 M20/M25 A3013 RMK AC1 SLP232

CYWG;2007-11-30 17:00;CYWG 301700Z 25007KT 15SM SKC M20/M25 A3014 RMK SLP235

CYWG;2007-11-30 18:00;CYWG 301800Z 27010KT 15SM SKC M19/M24 A3015 RMK SLP238

CYWG;2007-11-30 19:00;CYWG 301900Z 28005KT 15SM SKC M19/M24 A3015 RMK SLP239

CYWG;2007-11-30 20:00;CYWG 302000Z 27005KT 15SM SKC M18/M24 A3017 RMK SLP246

CYWG;2007-11-30 21:00;CYWG 302100Z 23006KT 15SM SKC M18/M24 A3020 RMK SLP254

CYWG;2007-11-30 22:00;CYWG 302200Z 29002KT 15SM FEW090 M19/M24 A3019 RMK AC1 SLP251

CYWG;2007-11-30 23:00;CYWG 302300Z 19002KT 15SM SKC M21/M23 A3019 RMK SLP251

CYWG;2007-12-01 01:00;CYWG 010100Z 18008KT 15SM SKC M21/M24 A3018 RMK SLP248

CYWG;2007-12-01 02:00;CYWG 010200Z 19007KT 15SM SKC M21/M24 A3019 RMK SLP253

CYWG;2007-12-01 03:00;CYWG 010300Z 20005KT 15SM SKC M20/M24 A3021 RMK SLP259

CYWG;2007-12-01 04:00;CYWG 010400Z 17005KT 15SM SKC M21/M24 A3020 RMK SLP254

CYWG;2007-12-01 05:00;CYWG 010500Z 17005KT 15SM SKC M21/M25 A3020 RMK SLP256

CYWG;2007-12-01 06:00;CYWG 010600Z 18004KT 15SM FEW100 FEW240 M21/M24 A3020 RMK AC1CI1 SLP254

CYWG;2007-12-01 07:00;CYWG 010700Z 19003KT 15SM SCT110 BKN240 M22/M25 A3022 RMK AC3CI1 SLP259

CYWG;2007-12-01 08:00;CYWG 010800Z 17002KT 15SM SCT110 OVC240 M21/M24 A3021 RMK AC3CI2 SLP256

CYWG;2007-12-01 09:00;CYWG 010900Z 00000KT 15SM SCT110 OVC240 M22/M24 A3022 RMK AC3CI3 SLP259

CYWG;2007-12-01 10:00;CYWG 011000Z 00000KT 15SM FEW110 OVC240 M21/M24 A3022 RMK AC2CI3 SLP262

CYWG;2007-12-01 11:00;CYWG 011100Z 00000KT 15SM SCT110 OVC220 M20/M23 A3022 RMK AC4CI2 SLP261

CYWG;2007-12-01 12:00;CYWG 011200Z 02003KT 15SM BKN110 OVC220 M20/M22 A3020 RMK AC6CI1 SLP255

CYWG;2007-12-01 13:00;CYWG 011300Z 03005KT 15SM BKN091 OVC220 M20/M23 A3019 RMK AC6CI2 SLP252

CYWG;2007-12-01 14:00;CYWG 011400Z 05004KT 12SM BKN091 OVC220 M20/M23 A3018 RMK AC5CI1 SLP247

CYWG;2007-12-01 15:00;CYWG 011500Z 04005KT 15SM BKN110 OVC220 M19/M22 A3018 RMK AC6CI1 SLP248

CYWG;2007-12-01 16:00;CYWG 011600Z 04005KT 15SM BKN084 OVC220 M19/M21 A3018 RMK AC6CI0 SLP246

CYWG;2007-12-01 17:00;CYWG 011700Z 06006KT 15SM BKN067 OVC078 M17/M20 A3017 RMK AC5AC3 SLP245

CYWG;2007-12-01 18:00;CYWG 011800Z 03007KT 15SM OVC061 M16/M19 A3014 RMK SC8 SLP233

CYWG;2007-12-01 19:00;CYWG 011900Z 05009KT 15SM OVC050 M15/M18 A3010 RMK SC8 SLP220

CYWG;2007-12-01 19:19;CYWG 011919Z 05010KT 12SM -SN OVC048 M15/ RMK SC8

CYWG;2007-12-01 20:00;CYWG 012000Z 05010KT 4SM -SN OVC043 M14/M17 A3008 RMK SC8 SLP214

CYWG;2007-12-01 20:51;CYWG 012051Z 04010KT 2SM -SN OVC030 M14/ RMK SC8

CYWG;2007-12-01 21:00;CYWG 012100Z 05010KT 1 1/2SM -SN OVC027 M14/M16 A3006 RMK SC8 SLP203

CYWG;2007-12-01 22:00;CYWG 012200Z 04014KT 1 1/2SM -SN OVC015 M14/M16 A3003 RMK SC8 SLP196

CYWG;2007-12-01 23:00;CYWG 012300Z 04014KT 1 1/2SM -SN OVC017 M14/M15 A3002 RMK SC8 SLP190

CYWG;2007-12-02 00:00;CYWG 020000Z 04013G18KT 1 1/2SM -SN DRSN OVC019 M14/M15 A3001 RMK SC8 SLP188

CYWG;2007-12-02 01:00;CYWG 020100Z 04014KT 1 1/2SM -SN DRSN OVC023 M14/M15 A2999 RMK SC8 SLP180

CYWG;2007-12-02 01:25;CYWG 020125Z 04015KT 3SM -SN DRSN OVC028 M14/ RMK SC8

CYWG;2007-12-02 02:00;CYWG 020200Z 04015KT 5SM -SN DRSN OVC023 M14/M15 A2999 RMK SC8 SLP180

CYWG;2007-12-02 02:17;CYWG 020217Z 04015KT 2SM -SN DRSN OVC020 M14/ RMK SC8

CYWG;2007-12-02 03:00;CYWG 020300Z 03017KT 2SM -SN DRSN OVC023 M14/M15 A2998 RMK SC8 SLP177

CYWG;2007-12-02 04:00;CYWG 020400Z 03014KT 2SM -SN DRSN OVC022 M13/M14 A2998 RMK SC8 SLP177

CYWG;2007-12-02 05:00;CYWG 020500Z 03013KT 2SM -SN DRSN OVC020 M14/M15 A2999 RMK SC8 SLP178

CYWG;2007-12-02 06:00;CYWG 020600Z 03014KT 2SM -SN DRSN OVC020 M14/M15 A2997 RMK SC8 SLP173

CYWG;2007-12-02 07:00;CYWG 020700Z 03012KT 2SM -SN DRSN OVC020 M14/M15 A2998 RMK SC8 SLP174

CYWG;2007-12-02 08:00;CYWG 020800Z 03013KT 2SM -SN DRSN OVC027 M14/M15 A2996 RMK SC8 SLP170

CYWG;2007-12-02 09:00;CYWG 020900Z 01010G15KT 6SM -SN DRSN OVC025 M14/M16 A3000 RMK SC8 SLP181

CYWG;2007-12-02 10:00;CYWG 021000Z 36011KT 10SM -SN DRSN OVC023 M15/M16 A3001 RMK SC8 SLP185

CYWG;2007-12-02 11:00;CYWG 021100Z 36012KT 4SM -SN DRSN OVC026 M15/M17 A3002 RMK SC7 SLP189

CYWG;2007-12-02 12:00;CYWG 021200Z 35011KT 2SM -SN DRSN OVC011 M15/M17 A3005 RMK SC8 SLP197

CYWG;2007-12-02 12:29;CYWG 021229Z 35012KT 3SM -SN DRSN OVC017 M15/ RMK SC8

CYWG;2007-12-02 13:00;CYWG 021300Z 34013KT 1 1/2SM -SN DRSN OVC011 M15/M17 A3007 RMK SC8 SLP205

CYWG;2007-12-02 13:33;CYWG 021333Z 35011KT 1 1/2SM -SN DRSN OVC009 M15/ RMK SC8

CYWG;2007-12-02 14:00;CYWG 021400Z 34012G17KT 1 1/2SM -SN DRSN OVC011 M15/M17 A3009 RMK SC8 SLP211

CYWG;2007-12-02 14:21;CYWG 021421Z 34012KT 1SM R13/P6000FT/U R36/P6000FT/U -SN DRSN OVC007 M15/ RMK SC8

CYWG;2007-12-02 15:00;CYWG 021500Z 35012KT 1SM R13/P6000FT/D R36/P6000FT/D -SN DRSN OVC009 M15/M17 A3011 RMK SC8 SLP218

CYWG;2007-12-02 15:34;CYWG 021534Z 34010KT 2SM -SN DRSN OVC011 M15/ RMK SC8

CYWG;2007-12-02 16:00;CYWG 021600Z 34012KT 2 1/2SM -SN DRSN OVC013 M15/M17 A3013 RMK SC8 SLP226

CYWG;2007-12-02 16:47;CYWG 021647Z 34012KT 4SM -SN DRSN BKN013 OVC081 M15/ RMK SC6AC2

CYWG;2007-12-02 17:00;CYWG 021700Z 34010KT 6SM R36/3000VP6000FT/N -SN DRSN BKN013 OVC081 M15/M17 A3015 RMK SC6AC2 SLP231

CYWG;2007-12-02 18:00;CYWG 021800Z 33011KT 10SM -SN DRSN BKN012 OVC074 M15/M17 A3015 RMK SC6AC2 SLP233

CYWG;2007-12-02 19:00;CYWG 021900Z 33012KT 15SM FEW012 FEW074 BKN250 M15/M17 A3016 RMK SC2AC1CI1 SLP234

CYWG;2007-12-02 20:00;CYWG 022000Z 32011KT 15SM FEW250 M15/M18 A3016 RMK CI1 SLP237

CYWG;2007-12-02 21:00;CYWG 022100Z 31010KT 15SM FEW250 M16/M19 A3019 RMK CI0 SLP245

CYWG;2007-12-02 22:00;CYWG 022200Z 31010KT 15SM FEW250 M16/M20 A3021 RMK CI0 SLP253

CYWG;2007-12-02 23:00;CYWG 022300Z 31011KT 15SM FEW250 M18/M21 A3025 RMK CI1 SLP265

CYWG;2007-12-03 00:00;CYWG 030000Z 29009KT 15SM FEW250 M21/M24 A3026 RMK CI1 SLP274

CYWG;2007-12-03 01:00;CYWG 030100Z 31007KT 15SM SKC M23/M26 A3027 RMK SLP275

CYWG;2007-12-03 02:00;CYWG 030200Z 00000KT 15SM SKC M22/M24 A3027 RMK SLP276

CYWG;2007-12-03 03:00;CYWG 030300Z 27005KT 15SM SKC M23/M25 A3029 RMK SLP284

CYWG;2007-12-03 04:00;CYWG 030400Z 28007KT 15SM BKN086 M21/M24 A3030 RMK AC4 SLP288

CYWG;2007-12-03 05:00;CYWG 030500Z 29004KT 15SM BKN069 M20/M23 A3030 RMK AC3 SLP288

CYWG;2007-12-03 06:00;CYWG 030600Z 00000KT 15SM BKN085 M22/M24 A3031 RMK AC6 SLP290

CYWG;2007-12-03 07:00;CYWG 030700Z 00000KT 15SM BKN066 M20/M23 A3031 RMK AC7 SLP289

CYWG;2007-12-03 08:00;CYWG 030800Z 00000KT 15SM OVC061 M19/M21 A3031 RMK SC8 SLP290

CYWG;2007-12-03 09:00;CYWG 030900Z 33002KT 15SM OVC079 M18/M20 A3033 RMK AC8 SLP295

CYWG;2007-12-03 10:00;CYWG 031000Z 00000KT 15SM BKN077 M18/M20 A3030 RMK AC5 SLP287

CYWG;2007-12-03 11:00;CYWG 031100Z 06003KT 15SM OVC077 M18/M20 A3030 RMK AC6 SLP286

CYWG;2007-12-03 12:00;CYWG 031200Z 09005KT 15SM SCT075 OVC230 M17/M19 A3029 RMK AC3CI2 SLP284

CYWG;2007-12-03 13:00;CYWG 031300Z 10004KT 15SM BKN070 OVC230 M16/M18 A3031 RMK AC5CI2 SLP289

CYWG;2007-12-03 14:00;CYWG 031400Z 10006KT 15SM BKN070 OVC230 M16/M18 A3031 RMK AC6CI2 SLP289

CYWG;2007-12-03 15:00;CYWG 031500Z 12006KT 12SM -SN BKN027 OVC070 M16/M18 A3030 RMK SC5AC3 SLP286

CYWG;2007-12-03 15:47;CYWG 031547Z 09004KT 15SM SCT042 OVC094 M15/ RMK SC3AC5

CYWG;2007-12-03 16:00;CYWG 031600Z 08007KT 15SM SCT042 OVC094 M15/M18 A3031 RMK SC4AC4 SLP291

CYWG;2007-12-03 17:00;CYWG 031700Z 08006KT 12SM -SN SCT032 OVC089 M15/M17 A3031 RMK SC3AC3 SLP290

CYWG;2007-12-03 18:00;CYWG 031800Z 08007KT 12SM -SN FEW043 BKN075 OVC220 M14/M17 A3028 RMK SC2AC3CI1 SLP278

CYWG;2007-12-03 19:00;CYWG 031900Z 09004KT 12SM -SN FEW026 BKN074 OVC220 M13/M15 A3028 RMK SC2AC5CI1 SLP280

CYWG;2007-12-03 20:00;CYWG 032000Z 07007KT 7SM -SN FEW010 BKN054 BKN087 M13/M15 A3028 RMK SC2AC3AC2 SLP279

CYWG;2007-12-03 21:00;CYWG 032100Z 04009KT 12SM -SN SCT016 BKN089 M14/M16 A3029 RMK SC3AC3 SLP280

CYWG;2007-12-03 22:00;CYWG 032200Z 06008KT 15SM SCT012 BKN090 M14/M16 A3029 RMK SC3AC2 SLP280

CYWG;2007-12-03 23:00;CYWG 032300Z 04008KT 15SM FEW015 BKN090 M15/M17 A3029 RMK SC2AC3 SLP283

CYWG;2007-12-04 00:00;CYWG 040000Z 04008KT 15SM SCT060 BKN090 M16/M18 A3032 RMK SC3AC3 SLP294

CYWG;2007-12-04 01:00;CYWG 040100Z 04007KT 15SM BKN065 OVC090 M15/M17 A3033 RMK SC5AC3 SLP297

CYWG;2007-12-04 02:00;CYWG 040200Z 06008KT 15SM BKN065 OVC091 M13/M14 A3032 RMK SC5AC3 SLP291

CYWG;2007-12-04 03:00;CYWG 040300Z 08007KT 15SM BKN065 OVC091 M12/M14 A3031 RMK SC5AC3 SLP286

CYWG;2007-12-04 04:00;CYWG 040400Z 10011KT 15SM OVC083 M12/M13 A3029 RMK AC8 SLP279

CYWG;2007-12-04 05:00;CYWG 040500Z 10011KT 10SM -SN SCT033 OVC083 M12/M13 A3026 RMK SC3AC5 SLP270

CYWG;2007-12-04 06:00;CYWG 040600Z 09008KT 4SM -SN OVC020 M12/M13 A3026 RMK SC8 SLP269

CYWG;2007-12-04 07:00;CYWG 040700Z 09010KT 4SM -SN OVC021 M12/M13 A3025 RMK SC8 SLP264

CYWG;2007-12-04 07:34;CYWG 040734Z 09008KT 2SM -SN OVC011 M12/ RMK SN3SC5

CYWG;2007-12-04 07:48;CYWG 040748Z 09009KT 1 1/2SM -SN VV008 RMK SN8

CYWG;2007-12-04 08:00;CYWG 040800Z 10009KT 1 1/2SM -SN DRSN VV008 M12/M13 A3023 RMK SN8 SLP260

CYWG;2007-12-04 09:00;CYWG 040900Z 10011KT 1 1/2SM -SN DRSN VV009 M12/M13 A3022 RMK SN8 /S02/ SLP256

CYWG;2007-12-04 10:00;CYWG 041000Z 10011KT 1 1/2SM -SN DRSN VV009 M12/M13 A3020 RMK SN8 SLP248

CYWG;2007-12-04 10:25;CYWG 041025Z 10010G15KT 1SM R13/P6000FT/U R36/P6000FT/U -SN DRSN VV006 M12/ RMK SN8

CYWG;2007-12-04 11:00;CYWG 041100Z 10011KT 1SM R13/P6000FT/U R36/P6000FT/N -SN DRSN VV009 M12/M13 A3017 RMK SN8 /S04/ SLP240

CYWG;2007-12-04 11:58;CYWG 041158Z 11014KT 1SM R13/P6000FT/D R36/P6000FT/D -SN VV004 M12/ RMK SN8

CYWG;2007-12-04 12:00;CYWG 041200Z 10013KT 1SM R13/P6000FT/D R36/P6000FT/D -SN DRSN VV004 M12/M13 A3014 RMK SN8 VIS VRBL 3/4-11/4 /S04/ SLP229

CYWG;2007-12-04 13:00;CYWG 041300Z 11014KT 3/4SM R13/P6000FT/D R36/P6000FT/D -SN DRSN VV009 M12/M13 A3010 RMK SN8 SLP216

CYWG;2007-12-04 14:00;CYWG 041400Z 09013KT 1SM R13/P6000FT/U R36/P6000FT/U -SN DRSN VV005 M11/M12 A3011 RMK SN8 SLP218

CYWG;2007-12-04 14:42;CYWG 041442Z 09012KT 1/2SM R13/P6000FT/D R36/P6000FT/D SN DRSN VV004 M11/ RMK SN8

CYWG;2007-12-04 15:00;CYWG 041500Z 09014KT 1/2SM R13/6000FT/D R36/6000FT/D SN DRSN VV004 M11/M12 A3011 RMK SN8 SLP216

CYWG;2007-12-04 15:50;CYWG 041550Z 09013G18KT 1SM R13/P6000FT/U R36/P6000FT/N -SN DRSN VV005 M11/ RMK SN8

CYWG;2007-12-04 16:00;CYWG 041600Z 10014KT 1SM R13/P6000FT/D R36/P6000FT/D -SN DRSN VV005 M11/M12 A3009 RMK SN8 SLP210

CYWG;2007-12-04 16:11;CYWG 041611Z 09015KT 1/2SM R13/5000FT/D R36/5500FT/D SN DRSN VV003 M11/ RMK SN8

CYWG;2007-12-04 16:41;CYWG 041641Z 09014KT 3/4SM R13/P6000FT/U R36/P6000FT/U -SN DRSN VV004 M11/ RMK SN8

CYWG;2007-12-04 17:00;CYWG 041700Z 09015KT 3/4SM R13/P6000FT/D R36/P6000FT/D -SN DRSN VV007 M11/M12 A3009 RMK SN8 SLP211

CYWG;2007-12-04 17:39;CYWG 041739Z 09013KT 1 1/2SM -SN OVC083 M11/ RMK SN4AC4 VSBY N 1

CYWG;2007-12-04 17:50;CYWG 041750Z 10014KT 2 1/2SM -SN DRSN OVC083 M11/ RMK SN3AC5 VSBY N 1

CYWG;2007-12-04 18:00;CYWG 041800Z 09012KT 2 1/2SM -SN DRSN OVC083 M11/M12 A3009 RMK SN3AC5 VSBY N1 E4 SLP209

CYWG;2007-12-04 19:00;CYWG 041900Z 08014KT 1SM R13/P6000FT/N R36/P6000FT/N -SN DRSN VV014 M11/M12 A3008 RMK SN8 SLP205

CYWG;2007-12-04 19:22;CYWG 041922Z 08014G19KT 7SM DRSN BKN020 OVC065 M10/ RMK SC5SC3

CYWG;2007-12-04 19:56;CYWG 041956Z CCA 07015G22KT 2SM -SN DRSN VV008 M10/ RMK SN8

CYWG;2007-12-04 20:00;CYWG 042000Z 07011G18KT 1SM R13/P6000FT/N R36/P6000FT/N -SN DRSN VV005 M10/M12 A3007 RMK SN8 SLP203

CYWG;2007-12-04 20:34;CYWG 042034Z 07015KT 3SM -SN DRSN OVC004 M10/ RMK ST8

CYWG;2007-12-04 21:00;CYWG 042100Z 06016KT 6SM -SN DRSN FEW004 OVC031 M11/M12 A3008 RMK SF1SC7 SLP207

CYWG;2007-12-04 22:00;CYWG 042200Z 05015KT 4SM -SN DRSN OVC037 M11/M12 A3012 RMK SC8 SLP220

CYWG;2007-12-04 23:00;CYWG 042300Z 05017KT 4SM -SN DRSN OVC035 M12/M13 A3015 RMK SC8 SLP230

CYWG;2007-12-05 00:00;CYWG 050000Z 04012KT 12SM -SN DRSN OVC018 M12/M13 A3019 RMK ST8 SLP243

CYWG;2007-12-05 00:15;CYWG 050015Z 05013KT 12SM DRSN OVC018 M12/ RMK ST8

CYWG;2007-12-05 01:00;CYWG 050100Z 04011KT 15SM BKN060 M13/M15 A3021 RMK SC6 SLP250

CYWG;2007-12-05 02:00;CYWG 050200Z 03013KT 15SM SCT050 M16/M17 A3023 RMK SC3 SLP259

CYWG;2007-12-05 03:00;CYWG 050300Z 03011KT 15SM FEW050 M17/M18 A3025 RMK SC2 SLP268

CYWG;2007-12-05 04:00;CYWG 050400Z 03010KT 15SM SKC M18/M19 A3028 RMK SLP276

CYWG;2007-12-05 05:00;CYWG 050500Z 02011KT 15SM SKC M19/M20 A3030 RMK SLP282

CYWG;2007-12-05 06:00;CYWG 050600Z 01009KT 15SM SKC M21/M22 A3031 RMK SLP288

CYWG;2007-12-05 07:00;CYWG 050700Z 02008KT 4SM BR SKC M23/M27 A3032 RMK SLP292

CYWG;2007-12-05 08:00;CYWG 050800Z 01005KT 6SM BR SKC M23/M26 A3033 RMK SLP294

CYWG;2007-12-05 09:00;CYWG 050900Z 29007KT 6SM BR SKC M25/M29 A3035 RMK VIS E 2 SLP304

CYWG;2007-12-05 09:48;CYWG 050948Z 30007KT 2SM BR FEW001 M27/ RMK SF1 VIS NW 6

CYWG;2007-12-05 10:00;CYWG 051000Z 30006KT 2SM BR FEW001 M27/M31 A3035 RMK SF2 VIS NW 6 SLP304

CYWG;2007-12-05 10:23;CYWG 051023Z 32005KT 15SM SKC M28/ RMK VIS E-SE 4BR

CYWG;2007-12-05 11:00;CYWG 051100Z 32004KT 4SM BR SKC M28/M31 A3035 RMK SLP305

CYWG;2007-12-05 12:00;CYWG 051200Z 32004KT 15SM R36/4500VP6000FT/D BCFG SKC M29/M32 A3035 RMK SLP306

CYWG;2007-12-05 13:00;CYWG 051300Z 28003KT 6SM BR SKC M27/M31 A3034 RMK SLP301

CYWG;2007-12-05 14:00;CYWG 051400Z 27005KT 6SM BR SKC M27/M31 A3033 RMK VSBY E 3 SLP299

CYWG;2007-12-05 14:22;CYWG 051422Z 28007KT 2SM BR SKC M27/ RMK VSBY E 1

CYWG;2007-12-05 14:49;CYWG 051449Z 26003KT 1SM R13/P6000FT/N R36/P6000FT/N IC BR SKC M27/ RMK IC

CYWG;2007-12-05 15:00;CYWG 051500Z 27004KT 1SM R13/P6000FT/N R36/P6000FT/N IC SKC M27/M31 A3033 RMK IC SLP300

CYWG;2007-12-05 15:23;CYWG 051523Z 27006KT 1SM R36/P6000FT/N IC FEW001 M26/ RMK SF1 IC

CYWG;2007-12-05 15:53;CYWG 051553Z 27003KT 3SM IC FEW240 RMK CI0 IC VSB N 1 TWR VSB 6

CYWG;2007-12-05 16:00;CYWG 051600Z 27003KT 3SM IC FEW240 M25/M28 A3031 RMK CI0 IC VSB N 1 SLP293

CYWG;2007-12-05 17:00;CYWG 051700Z 27006KT 3SM IC FEW240 M23/M26 A3031 RMK CI0 IC SLP292

CYWG;2007-12-05 18:00;CYWG 051800Z 26004KT 8SM FEW240 M21/M23 A3027 RMK CI1 IC PRESFR SLP280

CYWG;2007-12-05 19:00;CYWG 051900Z 26006KT 12SM SKC M21/M23 A3025 RMK IC SLP272

CYWG;2007-12-05 20:00;CYWG 052000Z CCA 23005KT 15SM SKC M18/M21 A3022 RMK IC SLP262

CYWG;2007-12-05 20:40;CYWG 052040Z 19005KT 15SM SKC M19/

CYWG;2007-12-05 21:00;CYWG 052100Z 20006KT 15SM SKC M19/M22 A3017 RMK SLP247

CYWG;2007-12-05 22:00;CYWG 052200Z 19007KT 15SM FEW100 M21/M24 A3015 RMK AC1 SLP240

CYWG;2007-12-05 23:00;CYWG 052300Z 18007KT 15SM FEW100 M22/M26 A3013 RMK AC1 SLP233

CYWG;2007-12-06 00:00;CYWG 060000Z 18012KT 15SM SCT081 M22/M25 A3009 RMK AC3 SLP223

CYWG;2007-12-06 00:21;CYWG 060021Z 19013KT 6SM IC BKN081 M22/ RMK AC6

CYWG;2007-12-06 01:00;CYWG 060100Z 19011KT 10SM BKN100 M21/M24 A3007 RMK AC6 IC SLP215

CYWG;2007-12-06 02:00;CYWG 060200Z 20012KT 15SM BKN096 M20/M23 A3005 RMK AC6 SLP208

CYWG;2007-12-06 03:00;CYWG 060300Z 18011KT 15SM BKN096 M21/M24 A3001 RMK AC7 SLP192

CYWG;2007-12-06 04:00;CYWG 060400Z 18012KT 15SM OVC090 M20/M24 A2996 RMK AC8 SLP177

CYWG;2007-12-06 05:00;CYWG 060500Z 18012KT 15SM BKN089 M20/M24 A2994 RMK AC6 SLP168

CYWG;2007-12-06 06:00;CYWG 060600Z 18016KT 15SM OVC086 M20/M23 A2990 RMK AC8 SLP153

CYWG;2007-12-06 07:00;CYWG 060700Z 19015KT 15SM OVC048 M19/M21 A2987 RMK SC8 SLP140

CYWG;2007-12-06 07:10;CYWG 060710Z 19017KT 6SM -SN OVC040 M19/ RMK SC8

CYWG;2007-12-06 07:22;CYWG 060722Z 19015KT 2SM -SN OVC010 M19/ RMK SN3SC5

CYWG;2007-12-06 08:00;CYWG 060800Z 19015KT 4SM -SN OVC018 M18/M21 A2985 RMK SC8 SLP134

CYWG;2007-12-06 09:00;CYWG 060900Z 19011G16KT 4SM -SN OVC019 M18/M20 A2982 RMK SC8 SLP122

CYWG;2007-12-06 09:40;CYWG 060940Z 19011KT 2SM -SN BR OVC058 M18/ RMK SN2SC6

CYWG;2007-12-06 10:00;CYWG 061000Z 20014KT 3SM -SN BR BKN035 OVC062 M17/M20 A2980 RMK SN2SC3SC3 SLP117

CYWG;2007-12-06 10:23;CYWG 061023Z 20013KT 6SM -SN BKN035 OVC052 M17/ RMK SC5SC3

CYWG;2007-12-06 11:00;CYWG 061100Z 21008KT 6SM -SN OVC040 M17/M19 A2980 RMK SC8 SLP116

CYWG;2007-12-06 12:00;CYWG 061200Z 21006KT 12SM -SN OVC048 M16/M18 A2979 RMK SC8 SLP114

CYWG;2007-12-06 12:34;CYWG 061234Z 22006KT 4SM -SN OVC012 M16/ RMK SC8

CYWG;2007-12-06 13:00;CYWG 061300Z 23007KT 2SM -SN VV010 M15/M16 A2979 RMK SN8 SLP114

CYWG;2007-12-06 13:32;CYWG 061332Z 26007KT 6SM -SN OVC084 M14/ RMK AC8

CYWG;2007-12-06 13:52;CYWG 061352Z 27006KT 10SM -SN BKN013 OVC084 M14/ RMK SC6AC2

CYWG;2007-12-06 14:00;CYWG 061400Z 27006KT 10SM -SN SCT018 BKN049 OVC084 M14/M15 A2979 RMK SC3SC2AC3 SLP113

CYWG;2007-12-06 15:00;CYWG 061500Z 30010KT 4SM -SN OVC020 M13/M15 A2980 RMK SC8 SLP113

CYWG;2007-12-06 15:22;CYWG 061522Z 30012KT 2SM -SN OVC016 RMK SC8

CYWG;2007-12-06 15:23;CYWG 061523Z 30012KT 2SM -SN OVC016 M12/ RMK SC8

CYWG;2007-12-06 16:00;CYWG 061600Z 32014KT 2 1/2SM -SN OVC016 M12/M13 A2981 RMK SC8 SLP119

CYWG;2007-12-06 16:17;CYWG 061617Z 32013KT 6SM -SN DRSN OVC020 M13/ RMK SC8

CYWG;2007-12-06 17:00;CYWG 061700Z 31013KT 12SM -SN DRSN FEW020 BKN039 M13/M14 A2982 RMK SC1SC6 SLP121

CYWG;2007-12-06 17:28;CYWG 061728Z 31012KT 15SM DRSN FEW012 FEW040 BKN120 BKN250 M13/ RMK SC1SC1AC2CI2

CYWG;2007-12-06 18:00;CYWG 061800Z 31013KT 15SM DRSN FEW013 FEW041 BKN120 BKN250 M13/M15 A2981 RMK SC1SC2AC4CI1 SLP119

CYWG;2007-12-06 19:00;CYWG 061900Z 28009KT 15SM FEW012 BKN120 BKN250 M13/M15 A2980 RMK CF2AC4CI1 SLP115

CYWG;2007-12-06 20:00;CYWG 062000Z 28011KT 15SM FEW012 SCT120 BKN250 M12/M16 A2980 RMK CF1AC3CI2 SLP113

CYWG;2007-12-06 21:00;CYWG 062100Z 26008KT 15SM FEW012 SCT120 BKN250 M14/M17 A2979 RMK CF1AC2CI1 SLP112

CYWG;2007-12-06 22:00;CYWG 062200Z 23007KT 15SM SCT120 BKN250 M15/M18 A2978 RMK AC3CI1 SLP107

CYWG;2007-12-06 23:00;CYWG 062300Z 22006KT 15SM FEW120 BKN250 M15/M18 A2976 RMK AC2CI2 SLP100

CYWG;2007-12-07 00:00;CYWG 070000Z 22011KT 15SM FEW120 BKN250 M16/M18 A2975 RMK AC2CI2 SLP096

CYWG;2007-12-07 01:00;CYWG 070100Z 23013KT 15SM SCT120 BKN250 M16/M18 A2974 RMK AC3CI2 SLP095

CYWG;2007-12-07 02:00;CYWG 070200Z 23012KT 15SM BKN070 BKN120 M16/M19 A2974 RMK AC5AC2 SLP095

CYWG;2007-12-07 03:00;CYWG 070300Z 29018KT 15SM SCT070 SCT120 BKN250 M15/M17 A2976 RMK AC3AC1CI2 SLP098

CYWG;2007-12-07 04:00;CYWG 070400Z 31015KT 15SM BKN095 M17/M19 A2979 RMK AC6 SLP110

CYWG;2007-12-07 05:00;CYWG 070500Z 30018KT 15SM DRSN SCT086 BKN250 M18/M20 A2982 RMK AC3CI2 SLP120

CYWG;2007-12-07 06:00;CYWG 070600Z 31016G21KT 15SM DRSN BKN094 BKN250 M18/M20 A2986 RMK AC5CI2 SLP133

CYWG;2007-12-07 07:00;CYWG 070700Z 32016G24KT 15SM DRSN SCT100 BKN250 M18/M22 A2989 RMK AC2CI3 SLP144

CYWG;2007-12-07 08:00;CYWG 070800Z 31014KT 10SM DRSN SCT100 BKN250 M20/M24 A2991 RMK AC2CI2 BR SLP152

CYWG;2007-12-07 09:00;CYWG 070900Z 29011KT 15SM DRSN FEW100 M22/M27 A2994 RMK AC2 SLP164

CYWG;2007-12-07 10:00;CYWG 071000Z 29011KT 15SM SKC M23/M28 A2994 RMK SLP165

CYWG;2007-12-07 11:00;CYWG 071100Z 28009KT 15SM SKC M24/M28 A2995 RMK SLP168

CYWG;2007-12-07 12:00;CYWG 071200Z 25007KT 15SM SKC M25/M29 A2996 RMK SLP171

CYWG;2007-12-07 13:00;CYWG 071300Z 27007KT 15SM SKC M26/M30 A2996 RMK SLP173

CYWG;2007-12-07 14:00;CYWG 071400Z 27007KT 15SM BKN120 M24/M28 A2996 RMK AC5 SLP173

CYWG;2007-12-07 15:00;CYWG 071500Z 26005KT 15SM BKN120 M23/M27 A2998 RMK AC6 SLP178

CYWG;2007-12-07 16:00;CYWG 071600Z 23004KT 15SM BKN120 M22/M27 A2998 RMK AC4 IC SLP178

CYWG;2007-12-07 16:37;CYWG 071637Z 23008KT 15SM BKN120 M21/ RMK AC4

CYWG;2007-12-07 17:00;CYWG 071700Z 24005KT 12SM -SN SCT033 BKN120 M21/M25 A2999 RMK SC3AC2 SLP182

CYWG;2007-12-07 18:00;CYWG 071800Z 24006KT 3SM -SN FEW030 OVC120 M20/M24 A2998 RMK SC2AC3 SLP178

CYWG;2007-12-07 18:30;CYWG 071830Z 23006KT 10SM -SN FEW019 BKN042 OVC120 M19/ RMK SC2SC2AC2

CYWG;2007-12-07 19:00;CYWG 071900Z 23005KT 6SM -SN SCT022 OVC090 M19/M23 A2998 RMK SC3AC4 SLP179

CYWG;2007-12-07 20:00;CYWG 072000Z 25007KT 3SM -SN FEW022 OVC073 M18/M22 A3000 RMK SC2AC4 SLP186

CYWG;2007-12-07 21:00;CYWG 072100Z 26005KT 6SM IC FEW016 FEW073 BKN210 M18/M21 A3002 RMK SC1AC1CI1 SLP192

CYWG;2007-12-07 22:00;CYWG 072200Z 29004KT 15SM SCT021 M19/M23 A3005 RMK SC1 SLP202

CYWG;2007-12-07 23:00;CYWG 072300Z 27006KT 15SM FEW031 M21/M24 A3008 RMK SC1 SLP213

CYWG;2007-12-08 00:00;CYWG 080000Z 27008KT 15SM SKC M22/M24 A3011 RMK SLP226

CYWG;2007-12-08 01:00;CYWG 080100Z 29008KT 15SM SKC M25/M27 A3015 RMK SLP238

CYWG;2007-12-08 02:00;CYWG 080200Z 29007KT 15SM SKC M26/M29 A3017 RMK SLP247

CYWG;2007-12-08 03:00;CYWG 080300Z 28008KT 15SM SKC M26/M29 A3021 RMK SLP260

CYWG;2007-12-08 04:00;CYWG 080400Z 27008KT 15SM SKC M24/M26 A3023 RMK SLP269

CYWG;2007-12-08 05:00;CYWG 080500Z 26008KT 15SM FEW080 M25/M29 A3028 RMK AC1 SLP283

CYWG;2007-12-08 06:00;CYWG 080600Z 28007KT 15SM SKC M26/M30 A3030 RMK SLP291

CYWG;2007-12-08 07:00;CYWG 080700Z 26008KT 15SM FEW090 M25/M29 A3033 RMK AC0 SLP300

CYWG;2007-12-08 08:00;CYWG 080800Z 29007KT 15SM FEW070 FEW120 M27/M31 A3035 RMK AC1AC1 SLP307

CYWG;2007-12-08 09:00;CYWG 080900Z 28008KT 15SM FEW023 M28/M31 A3037 RMK SC2 SLP314

CYWG;2007-12-08 10:00;CYWG 081000Z 27006KT 15SM SKC M28/M33 A3037 RMK SLP315

CYWG;2007-12-08 11:00;CYWG 081100Z 27004KT 15SM SKC M28/M31 A3038 RMK SLP319

CYWG;2007-12-08 12:00;CYWG 081200Z 24007KT 15SM SKC M27/M30 A3040 RMK SLP326

CYWG;2007-12-08 13:00;CYWG 081300Z 25007KT 15SM SKC M26/M30 A3042 RMK SLP334

CYWG;2007-12-08 14:00;CYWG 081400Z 28008KT 15SM FEW020 M29/M33 A3044 RMK SC1 SLP339

CYWG;2007-12-08 15:00;CYWG 081500Z 25003KT 15SM FEW020 M28/M32 A3045 RMK SC1 SLP343

CYWG;2007-12-08 16:00;CYWG 081600Z 25005KT 15SM FEW020 M25/M28 A3045 RMK SC1 SLP346

CYWG;2007-12-08 17:00;CYWG 081700Z 27010KT 15SM SKC M24/M28 A3047 RMK SLP350

CYWG;2007-12-08 18:00;CYWG 081800Z 27007KT 15SM SKC M24/M28 A3046 RMK SLP346

CYWG;2007-12-08 19:00;CYWG 081900Z 26003KT 15SM SKC M24/M28 A3045 RMK SLP345

CYWG;2007-12-08 20:00;CYWG 082000Z 24008KT 15SM SKC M22/M27 A3046 RMK SLP346

CYWG;2007-12-08 21:00;CYWG 082100Z 25004KT 15SM SKC M22/M26 A3044 RMK SLP339

CYWG;2007-12-08 22:00;CYWG 082200Z 26004KT 15SM SKC M21/M26 A3044 RMK SLP340

CYWG;2007-12-08 23:00;CYWG 082300Z 20005KT 15SM SKC M22/M27 A3045 RMK SLP341

CYWG;2007-12-09 00:00;CYWG 090000Z 19007KT 15SM SKC M24/M28 A3045 RMK SLP342

CYWG;2007-12-09 01:00;CYWG 090100Z 22007KT 15SM SKC M24/M28 A3043 RMK SLP336

CYWG;2007-12-09 02:00;CYWG 090200Z 22005KT 15SM SKC M24/M27 A3042 RMK SLP334

CYWG;2007-12-09 03:00;CYWG 090300Z 21006KT 15SM SKC M24/M28 A3042 RMK SLP333

CYWG;2007-12-09 04:00;CYWG 090400Z 21007KT 15SM SKC M25/M28 A3041 RMK IC SLP331

CYWG;2007-12-09 05:00;CYWG 090500Z 19009KT 15SM SKC M26/M30 A3040 RMK IC SLP328

CYWG;2007-12-09 06:00;CYWG 090600Z 21007KT 15SM SKC M25/M29 A3040 RMK IC OBS TAKEN H+12 SLP326

CYWG;2007-12-09 07:00;CYWG 090700Z 21007KT 15SM SKC M25/M28 A3038 RMK SLP320

CYWG;2007-12-09 08:00;CYWG 090800Z 20008KT 15SM SKC M25/M29 A3037 RMK FROIN SLP315

CYWG;2007-12-09 09:00;CYWG 090900Z 19008KT 15SM SKC M25/M29 A3035 RMK FROIN SLP310

CYWG;2007-12-09 10:00;CYWG 091000Z 20012KT 15SM SKC M25/M28 A3033 RMK SLP301

CYWG;2007-12-09 11:00;CYWG 091100Z 20013KT 15SM SKC M25/M29 A3030 RMK SLP293

CYWG;2007-12-09 12:00;CYWG 091200Z 19007KT 15SM SKC M25/M28 A3028 RMK SLP284

CYWG;2007-12-09 13:00;CYWG 091300Z 20012KT 15SM SKC M24/M27 A3025 RMK SLP276

CYWG;2007-12-09 14:00;CYWG 091400Z 19012KT 15SM SKC M23/M27 A3022 RMK SLP265

CYWG;2007-12-09 15:00;CYWG 091500Z 19010KT 15SM FEW230 M23/M26 A3022 RMK CI0 SLP262

CYWG;2007-12-09 16:00;CYWG 091600Z 19013KT 15SM FEW230 M21/M24 A3021 RMK CI0 SLP259

CYWG;2007-12-09 17:00;CYWG 091700Z 19012KT 15SM FEW230 M20/M23 A3020 RMK CI0 SLP256

CYWG;2007-12-09 18:00;CYWG 091800Z 19013KT 15SM FEW230 M19/M22 A3017 RMK CI1 SLP245

CYWG;2007-12-09 19:00;CYWG 091900Z 19015KT 15SM FEW230 M18/M21 A3014 RMK CI1 SLP235

CYWG;2007-12-09 20:00;CYWG 092000Z 20010KT 15SM BKN230 M15/M18 A3012 RMK CI2 SLP227

CYWG;2007-12-09 21:00;CYWG 092100Z 19015KT 15SM FEW092 BKN230 M14/M17 A3010 RMK AC2CI1 SLP220

CYWG;2007-12-09 22:00;CYWG 092200Z 20013KT 15SM FEW095 M15/M18 A3009 RMK AC1 SLP218

CYWG;2007-12-09 23:00;CYWG 092300Z 20015KT 15SM FEW095 M15/M18 A3008 RMK AC1 SLP213

CYWG;2007-12-10 00:00;CYWG 100000Z 19011G16KT 15SM SKC M16/M19 A3007 RMK SLP210

CYWG;2007-12-10 01:00;CYWG 100100Z 19011KT 15SM SKC M18/M21 A3006 RMK SLP207

CYWG;2007-12-10 02:00;CYWG 100200Z 19012KT 15SM SKC M18/M21 A3004 RMK SLP201

CYWG;2007-12-10 03:00;CYWG 100300Z 18010KT 15SM SKC M19/M22 A3004 RMK SLP200

CYWG;2007-12-10 04:00;CYWG 100400Z 18010KT 15SM SKC M20/M23 A3003 RMK SLP198

CYWG;2007-12-10 05:00;CYWG 100500Z 18008KT 15SM SKC M20/M23 A3003 RMK SLP198

CYWG;2007-12-10 06:00;CYWG 100600Z 18010KT 15SM SKC M20/M22 A3003 RMK SLP197

CYWG;2007-12-10 07:00;CYWG 100700Z 18011KT 15SM SKC M19/M22 A3002 RMK SLP192

CYWG;2007-12-10 08:00;CYWG 100800Z 18011KT 15SM BKN002 M19/M22 A3000 RMK SF3 SLP186

CYWG;2007-12-10 08:19;CYWG 100819Z 17011KT 15SM FEW001 BKN008 M20/ RMK SF2SF1

CYWG;2007-12-10 08:35;CYWG 100835Z 17011KT 15SM FEW001 BKN120 M19/ RMK SF1AC0

CYWG;2007-12-10 09:00;CYWG 100900Z 18012KT 15SM SCT080 M19/M21 A2999 RMK AC4 SLP180

CYWG;2007-12-10 09:31;CYWG 100931Z 18012KT 15SM FEW002 SCT009 BKN080 M18/ RMK SF2SF2AC1

CYWG;2007-12-10 10:00;CYWG 101000Z 18014KT 9SM FEW002 FEW009 BKN080 M18/M20 A2998 RMK SF1SF1AC2 BR FROIN SLP176

CYWG;2007-12-10 11:00;CYWG 101100Z 18011KT 9SM SCT002 BKN080 M18/M20 A2997 RMK SF3AC1 BR SLP174

CYWG;2007-12-10 12:00;CYWG 101200Z 18010KT 6SM BR BKN080 M17/M19 A2996 RMK AC3 SLP170

CYWG;2007-12-10 13:00;CYWG 101300Z 18010KT 6SM BR BKN080 M16/M18 A2995 RMK AC5 SLP167

CYWG;2007-12-10 14:00;CYWG 101400Z 18014KT 6SM BR BKN080 M15/M17 A2994 RMK AC6 SLP163

CYWG;2007-12-10 15:00;CYWG 101500Z 18015KT 4SM BR BKN080 OVC250 M15/M17 A2994 RMK AC5CI1 SLP162

CYWG;2007-12-10 16:00;CYWG 101600Z 19012KT 4SM BR BKN080 OVC250 M15/M16 A2994 RMK AC6CI0 SLP163

CYWG;2007-12-10 17:00;CYWG 101700Z 18013G18KT 5SM BR BKN080 OVC250 M14/M16 A2993 RMK AC6CI0 SLP160

CYWG;2007-12-10 18:00;CYWG 101800Z 19015KT 10SM BKN099 OVC250 M14/M15 A2993 RMK AC7CI0 BR SLP160

CYWG;2007-12-10 19:00;CYWG 101900Z 18010G16KT 10SM OVC090 M13/M15 A2993 RMK AC8 BR SLP158

CYWG;2007-12-10 20:00;CYWG 102000Z 19010KT 10SM BKN095 OVC250 M13/M15 A2992 RMK AC6CI2 SLP156

CYWG;2007-12-10 21:00;CYWG 102100Z 18011KT 15SM SCT095 OVC250 M13/ A2991 RMK AC4CI1 SLP151

CYWG;2007-12-10 22:00;CYWG 102200Z 20009KT 10SM FEW095 BKN250 M13/M15 A2993 RMK AC2CI1 SLP158

CYWG;2007-12-10 23:00;CYWG 102300Z 20011KT 15SM FEW250 M14/M15 A2995 RMK CI0 SLP165

CYWG;2007-12-11 00:00;CYWG 110000Z 21007KT 15SM FEW250 M15/M16 A2997 RMK CI0 SLP173

CYWG;2007-12-11 01:00;CYWG 110100Z 23006KT 15SM SKC M16/M17 A2998 RMK SLP176

CYWG;2007-12-11 02:00;CYWG 110200Z 29010KT 15SM FEW080 M17/M18 A2998 RMK AC2 SLP176

CYWG;2007-12-11 03:00;CYWG 110300Z 29009KT 15SM SKC M19/M19 A2999 RMK SLP180

CYWG;2007-12-11 04:00;CYWG 110400Z 28009KT 15SM SKC M19/M19 A3000 RMK SLP184

CYWG;2007-12-11 05:00;CYWG 110500Z 27008KT 15SM FEW092 M18/M19 A3003 RMK AC2 SLP192

CYWG;2007-12-11 06:00;CYWG 110600Z 28010KT 15SM SKC M18/M19 A3006 RMK SLP202

CYWG;2007-12-11 07:00;CYWG 110700Z 29010KT 15SM SKC M18/M19 A3005 RMK SLP201

CYWG;2007-12-11 08:00;CYWG 110800Z 28011KT 15SM SKC M19/M20 A3007 RMK SLP208

CYWG;2007-12-11 09:00;CYWG 110900Z 27008KT 15SM SKC M18/M19 A3011 RMK SLP219

CYWG;2007-12-11 10:00;CYWG 111000Z 27009KT 15SM SKC M18/M18 A3011 RMK SLP220

CYWG;2007-12-11 11:00;CYWG 111100Z 28011KT 15SM -SN SCT026 M18/M19 A3011 RMK SC4 SLP219

CYWG;2007-12-11 12:00;CYWG 111200Z 28009KT 15SM BKN031 M18/M20 A3012 RMK SC7 SLP225

CYWG;2007-12-11 13:00;CYWG 111300Z 27008KT 15SM BKN056 M18/M20 A3015 RMK SC7 SLP235

CYWG;2007-12-11 14:00;CYWG 111400Z 27007KT 15SM BKN061 M17/M19 A3015 RMK SC7 SLP235

CYWG;2007-12-11 15:00;CYWG 111500Z 27009KT 15SM BKN063 M17/M18 A3015 RMK SC6 SLP235

CYWG;2007-12-11 16:00;CYWG 111600Z 28010KT 15SM FEW059 M17/M19 A3016 RMK SC2 SLP238

CYWG;2007-12-11 17:00;CYWG 111700Z 26008KT 15SM FEW090 M16/M18 A3018 RMK AC1 SLP245

CYWG;2007-12-11 18:00;CYWG 111800Z 26006KT 15SM FEW026 FEW090 M15/M17 A3018 RMK SC1AC2 SLP244

CYWG;2007-12-11 19:00;CYWG 111900Z 27005KT 15SM FEW022 BKN090 M13/M15 A3016 RMK SC2AC2 SLP236

CYWG;2007-12-11 20:00;CYWG 112000Z 26005KT 15SM FEW020 SCT090 M12/M14 A3015 RMK SC1AC2 SLP234

CYWG;2007-12-11 21:00;CYWG 112100Z CCA 25005KT 15SM FEW023 FEW097 M12/M14 A3015 RMK SC1AC1 SLP234

CYWG;2007-12-11 22:00;CYWG 112200Z 21006KT 15SM FEW100 M13/M15 A3016 RMK AC1 SLP236

CYWG;2007-12-11 23:00;CYWG 112300Z 23003KT 15SM FEW100 M13/M14 A3016 RMK AC1 SLP237

CYWG;2007-12-12 00:00;CYWG 120000Z 21006KT 15SM BKN068 M13/M14 A3016 RMK AC7 SLP239

CYWG;2007-12-12 01:00;CYWG 120100Z 19005KT 15SM BKN064 M13/M14 A3016 RMK SC7 SLP238

CYWG;2007-12-12 02:00;CYWG 120200Z 21006KT 15SM BKN062 M12/ A3015 RMK SC7 SLP234

CYWG;2007-12-12 03:00;CYWG 120300Z 22005KT 15SM BKN060 M12/M13 A3014 RMK SC7 SLP229

CYWG;2007-12-12 04:00;CYWG 120400Z 23004KT 15SM BKN050 M11/M12 A3012 RMK SC7 VIRGA DST SE SLP224

CYWG;2007-12-12 05:00;CYWG 120500Z 22007KT 15SM FEW046 M12/M14 A3012 RMK SC2 SLP222

CYWG;2007-12-12 06:00;CYWG 120600Z 22005KT 15SM FEW050 FEW090 M13/M13 A3011 RMK SC1AC1 SLP220

CYWG;2007-12-12 07:00;CYWG 120700Z 20005KT 15SM BKN038 M15/M15 A3012 RMK SC5 SLP221

CYWG;2007-12-12 08:00;CYWG 120800Z 19006KT 15SM FEW032 M16/M16 A3010 RMK SC1 SLP216

CYWG;2007-12-12 09:00;CYWG 120900Z 16004KT 15SM FEW001 SCT035 M18/M19 A3010 RMK SF1SC2 SLP215

CYWG;2007-12-12 10:00;CYWG 121000Z 17007KT 15SM FEW002 BKN025 M16/M16 A3009 RMK SF2SC4 SLP214

CYWG;2007-12-12 11:00;CYWG 121100Z 17004KT 15SM FEW002 BKN100 M16/M16 A3008 RMK SF1AC6 SLP210

CYWG;2007-12-12 12:00;CYWG 121200Z 17005KT 15SM FEW025 BKN100 BKN210 M15/M16 A3006 RMK SC2AC3CI0 SLP200

CYWG;2007-12-12 13:00;CYWG 121300Z 11006KT 15SM FEW025 SCT100 BKN210 M14/M14 A3003 RMK SC2AC2CI1 SLP191

CYWG;2007-12-12 14:00;CYWG 121400Z 18007KT 15SM FEW025 SCT100 BKN210 M14/M15 A3002 RMK SC1AC3CI1 SLP188

CYWG;2007-12-12 15:00;CYWG 121500Z 16011KT 15SM BKN100 BKN210 M13/M14 A2999 RMK AC5CI1 SLP176

CYWG;2007-12-12 16:00;CYWG 121600Z 17012KT 15SM BKN110 BKN250 M12/M13 A2997 RMK AC5CI2 SLP171

CYWG;2007-12-12 17:00;CYWG 121700Z 17014KT 15SM BKN110 BKN250 M11/M12 A2993 RMK AC5CI1 SLP158

CYWG;2007-12-12 18:00;CYWG 121800Z 17019KT 15SM SCT110 OVC250 M10/M12 A2988 RMK AC4CI2 SLP140

CYWG;2007-12-12 19:00;CYWG 121900Z 17017KT 15SM SCT110 OVC250 M09/M11 A2985 RMK AC4CI3 SLP128

CYWG;2007-12-12 20:00;CYWG 122000Z 17020G25KT 15SM SCT110 OVC250 M08/M10 A2981 RMK AC3CI2 SLP115

CYWG;2007-12-12 21:00;CYWG 122100Z 17021G26KT 15SM BKN096 OVC210 M07/M09 A2976 RMK AC5CI3 SLP099

CYWG;2007-12-12 22:00;CYWG 122200Z 18022KT 15SM FEW079 SCT096 OVC210 M07/M09 A2975 RMK AC1AC2CI5 SLP096

CYWG;2007-12-12 23:00;CYWG 122300Z 18021G28KT 8SM BKN055 BKN096 OVC210 M08/M09 A2974 RMK SC5AC2CI2 SLP092

CYWG;2007-12-12 23:36;CYWG 122336Z 17019KT 1 1/2SM -SN VV007 M08/ RMK SN8

CYWG;2007-12-13 00:00;CYWG 130000Z 18018KT 1SM R13/P6000FT/D R36/P6000FT/D -SN VV005 M08/M08 A2971 RMK SN8 SLP080

CYWG;2007-12-13 00:48;CYWG 130048Z 18016KT 1 1/2SM -SN DRSN VV007 M08/ RMK SN8

CYWG;2007-12-13 01:00;CYWG 130100Z 18017KT 1 1/2SM -SN DRSN VV007 M08/M08 A2967 RMK SN8 SLP067

CYWG;2007-12-13 01:19;CYWG 130119Z 18016KT 3/4SM R13/P6000FT/N R36/P6000FT/U -SN BLSN VV004 M08/ RMK SN8

CYWG;2007-12-13 02:00;CYWG 130200Z 17016KT 3/4SM R13/P6000FT/D R36/P6000FT/D -SN BLSN VV004 M07/M07 A2963 RMK SN8 SLP054

CYWG;2007-12-13 02:27;CYWG 130227Z 18015G20KT 3/4SM R13/P6000FT/N R36/P6000FT/D -SN BLSN VV003 M07/ RMK SN8

CYWG;2007-12-13 03:00;CYWG 130300Z 18014G19KT 3/4SM R13/P6000FT/U R36/P6000FT/U -SN BLSN VV003 M07/M07 A2959 RMK SN8 SLP037

CYWG;2007-12-13 03:19;CYWG 130319Z 17014KT 2SM -SN DRSN VV004 M07/ RMK SN8

CYWG;2007-12-13 03:35;CYWG 130335Z 17014KT 4SM -SN BKN006 OVC079 M07/ RMK SN2SF3AC3

CYWG;2007-12-13 04:00;CYWG 130400Z 17015KT 5SM -SN BKN006 OVC079 M07/M07 A2954 RMK SF5AC3 SLP023

CYWG;2007-12-13 04:18;CYWG 130418Z 17013KT 10SM BKN008 OVC017 M06/ RMK SF6SC2

CYWG;2007-12-13 05:00;CYWG 130500Z 17012KT 15SM BKN007 OVC015 M06/M06 A2952 RMK SF5SC3 SLP014

CYWG;2007-12-13 05:25;CYWG 130525Z 16010KT 15SM -SN BKN007 OVC013 M06/ RMK SF5SC3

CYWG;2007-12-13 06:00;CYWG 130600Z 17014KT 10SM -SN BKN007 OVC013 M05/M05 A2949 RMK SF5SC3 /S03/ SLP004

CYWG;2007-12-13 06:28;CYWG 130628Z 16012KT 5SM -SN -FZDZ BKN007 OVC013 M05/ RMK SF6SC2

CYWG;2007-12-13 07:00;CYWG 130700Z 14010KT 3SM -SN -FZDZ BKN006 OVC017 M05/M05 A2946 RMK SF6SC2 SLP993

CYWG;2007-12-13 07:33;CYWG 130733Z CCA 13006KT 2SM -SN BKN017 OVC035 M05/ RMK SC5SC3 REFZDZ

CYWG;2007-12-13 08:00;CYWG 130800Z 12004KT 1SM R13/P6000FT/D R36/P6000FT/U -SN OVC015 M04/M04 A2944 RMK SN2SC6 SLP988

CYWG;2007-12-13 08:13;CYWG 130813Z 07004KT 1/2SM R13/P6000FT/D R36/P6000FT/D SN VV005 M04/ RMK SN8

CYWG;2007-12-13 09:00;CYWG 130900Z 01015KT 3/4SM R31/P6000FT/D R36/P6000FT/U -SN DRSN OVC013 M05/M05 A2947 RMK SN5SC3 /S02/ SLP993

CYWG;2007-12-13 09:38;CYWG 130938Z 36013G18KT 3/4SM R31/3500VP6000FT/D R36/3500VP6000FT/N -SN DRSN VV005 M06/ RMK SN8

CYWG;2007-12-13 10:00;CYWG 131000Z 36015KT 1SM R31/4500VP6000FT/U R36/P6000FT/D -SN DRSN VV008 M06/M06 A2951 RMK SN8 SLP006

CYWG;2007-12-13 10:19;CYWG 131019Z 34015KT 1SM R31/P6000FT/U R36/P6000FT/U -SN DRSN OVC011 RMK SN6SF2

CYWG;2007-12-13 10:43;CYWG 131043Z 36014G20KT 1 1/2SM -SN BLSN OVC008 M06/ RMK SN4SF4

CYWG;2007-12-13 11:00;CYWG 131100Z 34024G29KT 1SM R31/P6000FT/U R36/P6000FT/D -SN BLSN OVC009 M08/M08 A2956 RMK SN2SC6 /S04/ SLP024

CYWG;2007-12-13 11:14;CYWG 131114Z 34025G31KT 1/2SM R31/4000VP6000FT/D R36/P6000FT/U -SN BLSN OVC009 M09/ RMK SN2SC6

CYWG;2007-12-13 11:33;CYWG 131133Z 34025G31KT 1/2SM R31/3500VP6000FT/N R36/4000VP6000FT/U -SN BLSN FEW009 OVC017 M10/ RMK SF2SC6

CYWG;2007-12-13 11:48;CYWG 131148Z 34023G28KT 2SM -SN BLSN FEW009 OVC017 M11/ RMK SF2SC6

CYWG;2007-12-13 12:00;CYWG 131200Z 34027KT 2SM -SN BLSN FEW007 OVC017 M11/M12 A2963 RMK SF2SC6 PRESRR SLP050

CYWG;2007-12-13 12:20;CYWG 131220Z 34022G31KT 1SM R31/P6000FT/N R36/P6000FT/U -SN BLSN BKN019 BKN070 M12/ RMK SC5AC2 PRESRR

CYWG;2007-12-13 12:35;CYWG 131235Z 34028KT 3/4SM R31/4500VP6000FT/N R36/P6000FT/U -SN BLSN BKN011 OVC071 M13/ RMK SN1SC4AC2 PRESRR

CYWG;2007-12-13 13:00;CYWG 131300Z 34019G28KT 1SM R31/P6000FT/U R36/P6000FT/N -SN BLSN BKN011 OVC070 M14/M15 A2970 RMK BLSN1SC4AC3 VIS VRB 1/2-2 ROOF VIS 5 PRESRR SLP073

CYWG;2007-12-13 13:28;CYWG 131328Z 34026KT 1 1/2SM -SN BLSN BKN024 OVC076 M14/ RMK SC5AC2 VIS VRB 3/4-3 ROOF VIS 6 PRESRR

CYWG;2007-12-13 13:46;CYWG 131346Z 34021G28KT 3SM -SN BLSN BKN024 OVC076 M15/ RMK SC6AC2 ROOF VIS 8 PRESRR

CYWG;2007-12-13 14:00;CYWG 131400Z 34020G25KT 3SM -SN BLSN BKN024 BKN067 M15/M16 A2976 RMK SC6AC1 VIS VRB 1-5 ROOF VIS 10 PRESRR SLP095

CYWG;2007-12-13 14:40;CYWG 131440Z 33022KT 3SM BLSN BKN025 BKN070 M16/ RMK SC5AC1 VIS VRB 1-5 ROOF VIS 12

CYWG;2007-12-13 15:00;CYWG 131500Z 33022KT 3SM BLSN BKN025 BKN070 BKN250 M17/M18 A2983 RMK SC6AC1CI0 VIS VRB 1-5 ROOF VIS 10 SLP120

CYWG;2007-12-13 15:38;CYWG 131538Z 33021G27KT 3SM -SN BLSN BKN027 OVC250 M17/ RMK SC7CI0 ROOF VIS 6 PRESRR

CYWG;2007-12-13 16:00;CYWG 131600Z 33019G24KT 6SM -SN DRSN BKN027 OVC250 M17/M19 A2989 RMK SC7CI0 PRESRR SLP141

CYWG;2007-12-13 16:33;CYWG 131633Z CCA 34019KT 12SM DRSN FEW250 M18/ RMK CI1 PRESRR

CYWG;2007-12-13 17:00;CYWG 131700Z 35017KT 15SM DRSN FEW250 M17/M19 A2993 RMK CI1 SLP155

CYWG;2007-12-13 18:00;CYWG 131800Z 36018KT 12SM DRSN FEW250 M16/M18 A2996 RMK CI1 SLP166

CYWG;2007-12-13 19:00;CYWG 131900Z CCA 35019KT 15SM DRSN FEW030 FEW250 M16/M18 A3001 RMK SC1CI1 SLP181

CYWG;2007-12-13 20:00;CYWG 132000Z 35020KT 15SM DRSN FEW030 FEW210 M16/M18 A3004 RMK SC1CI1 SLP193

CYWG;2007-12-13 21:00;CYWG 132100Z 36012G18KT 15SM DRSN SKC M17/M19 A3009 RMK SLP210

CYWG;2007-12-13 22:00;CYWG 132200Z 35012KT 15SM DRSN SKC M18/M21 A3014 RMK SLP227

CYWG;2007-12-13 23:00;CYWG 132300Z 36009KT 15SM DRSN SKC M20/M24 A3018 RMK SLP239

CYWG;2007-12-14 00:00;CYWG 140000Z 34009KT 15SM SKC M24/M29 A3022 RMK PRESRR SLP259

CYWG;2007-12-14 01:00;CYWG 140100Z 34007KT 15SM SKC M25/M29 A3025 RMK SLP269

CYWG;2007-12-14 02:00;CYWG 140200Z 34007KT 15SM SKC M27/M31 A3029 RMK SLP281

CYWG;2007-12-14 03:00;CYWG 140300Z 32005KT 15SM SKC M27/M28 A3032 RMK SLP296

CYWG;2007-12-14 04:00;CYWG 140400Z 28007KT 15SM SKC M28/M33 A3035 RMK SLP306

CYWG;2007-12-14 05:00;CYWG 140500Z 33007KT 15SM SKC M31/M36 A3036 RMK SLP311

CYWG;2007-12-14 06:00;CYWG 140600Z 34006KT 15SM SKC M30/M33 A3038 RMK SLP319

CYWG;2007-12-14 07:00;CYWG 140700Z 31004KT 15SM SKC M28/M32 A3040 RMK SLP324

CYWG;2007-12-14 08:00;CYWG 140800Z 29004KT 15SM SKC M31/M34 A3040 RMK SLP326

CYWG;2007-12-14 08:09;CYWG 140809Z 29005KT 15SM SKC M31/

CYWG;2007-12-14 09:00;CYWG 140900Z 30004KT 15SM SKC M30/M35 A3042 RMK SLP332

CYWG;2007-12-14 10:00;CYWG 141000Z 00000KT 15SM SKC M32/M35 A3041 RMK SLP330

CYWG;2007-12-14 11:00;CYWG 141100Z 01002KT 15SM SKC M31/M33 A3042 RMK SLP331

CYWG;2007-12-14 12:00;CYWG 141200Z 00000KT 15SM SKC M32/M37 A3042 RMK IC SLP337

CYWG;2007-12-14 13:00;CYWG 141300Z 00000KT 15SM SKC M32/M35 A3042 RMK IC SLP337

CYWG;2007-12-14 14:00;CYWG 141400Z 18006KT 15SM FEW080 M29/M33 A3043 RMK AC2 IC SLP339

CYWG;2007-12-14 15:00;CYWG 141500Z 18006KT 15SM FEW080 M28/M31 A3042 RMK AC1 IC SLP336

CYWG;2007-12-14 16:00;CYWG 141600Z 18007KT 12SM VCFG FEW080 M26/M29 A3042 RMK AC1 IC VSBY N 2 SLP336

CYWG;2007-12-14 17:00;CYWG 141700Z 19009KT 12SM FEW080 M24/M27 A3041 RMK AC2 IC SLP334

CYWG;2007-12-14 18:00;CYWG 141800Z 18010KT 15SM FEW080 M23/M26 A3039 RMK AC2 IC SLP325

CYWG;2007-12-14 19:00;CYWG 141900Z 18009KT 15SM FEW095 M23/M25 A3038 RMK AC2 SLP320

CYWG;2007-12-14 20:00;CYWG 142000Z 18012KT 15SM BKN095 M22/M25 A3035 RMK AC4 SLP310

CYWG;2007-12-14 21:00;CYWG 142100Z 17012KT 15SM BKN100 M20/M23 A3031 RMK AC4 SLP295

CYWG;2007-12-14 22:00;CYWG 142200Z 18013KT 15SM FEW100 M20/M24 A3029 RMK AC2 SLP290

CYWG;2007-12-14 23:00;CYWG 142300Z 18014KT 15SM FEW100 M20/M23 A3028 RMK AC2 SLP287

CYWG;2007-12-15 00:00;CYWG 150000Z 17016KT 15SM SCT100 M20/M23 A3026 RMK AC3 SLP280

CYWG;2007-12-15 01:00;CYWG 150100Z 18017KT 10SM -SN SCT030 OVC099 M19/M22 A3023 RMK SC3AC5 SLP270

CYWG;2007-12-15 01:29;CYWG 150129Z 18018KT 15SM SCT027 OVC099 M19/ RMK SC3AC5

CYWG;2007-12-15 01:46;CYWG 150146Z 18018KT 6SM -SN SCT027 OVC099 M19/ RMK SC3AC5

CYWG;2007-12-15 02:00;CYWG 150200Z 18020KT 6SM -SN SCT030 OVC087 M18/M21 A3021 RMK SC4AC4 SLP263

CYWG;2007-12-15 02:47;CYWG 150247Z 18019KT 2SM -SN BKN025 OVC087 M18/ RMK SN2SC3AC3

CYWG;2007-12-15 03:00;CYWG 150300Z 18020KT 2SM -SN BKN025 OVC087 M18/M20 A3018 RMK SN3SC3AC2 SLP250

CYWG;2007-12-15 03:27;CYWG 150327Z 18019G24KT 1SM R13/P6000FT/U R36/P6000FT/D -SN DRSN VV011 M18/ RMK SN8

CYWG;2007-12-15 03:53;CYWG 150353Z 19016KT 1SM R13/P6000FT/N R36/P6000FT/N -SN DRSN VV004 M18/ RMK SN8

CYWG;2007-12-15 04:00;CYWG 150400Z 18015KT 2SM -SN DRSN OVC065 M18/M20 A3017 RMK SN5SC3 SLP245

CYWG;2007-12-15 05:00;CYWG 150500Z 19018KT 2SM -SN DRSN BKN047 M17/M19 A3015 RMK SN2SC5 SLP239

CYWG;2007-12-15 06:00;CYWG 150600Z 19017KT 10SM -SN SCT046 OVC090 M17/M19 A3013 RMK SC4AC4 SLP231

CYWG;2007-12-15 06:28;CYWG 150628Z 19016G21KT 15SM BKN049 M17/ RMK SC7

CYWG;2007-12-15 07:00;CYWG 150700Z 18015KT 15SM BKN049 M17/M19 A3010 RMK SC7 SLP220

CYWG;2007-12-15 08:00;CYWG 150800Z 19013G19KT 15SM FEW049 BKN087 M17/M19 A3008 RMK SC2AC5 SLP214

CYWG;2007-12-15 09:00;CYWG 150900Z 18014KT 15SM FEW036 SCT089 M17/M20 A3008 RMK SC2AC2 SLP211

CYWG;2007-12-15 10:00;CYWG 151000Z 19013KT 15SM OVC100 M17/M19 A3006 RMK AC8 SLP205

CYWG;2007-12-15 10:51;CYWG 151051Z 19012KT 15SM -SN BKN017 OVC024 M17/ RMK SC5SC3

CYWG;2007-12-15 11:00;CYWG 151100Z 19012KT 15SM -SN BKN017 OVC024 M17/M19 A3003 RMK SC5SC3 SLP197

CYWG;2007-12-15 12:00;CYWG 151200Z 20009KT 8SM -SN OVC017 M16/M17 A3004 RMK SC8 SLP197

CYWG;2007-12-15 12:14;CYWG 151214Z 20008KT 2SM -SN OVC017 M16/ RMK SN3SC5

CYWG;2007-12-15 12:17;CYWG 151217Z 20008KT 3/4SM R13/P6000FT/D R36/P6000FT/D -SN VV002 M16/ RMK SN8

CYWG;2007-12-15 12:48;CYWG 151248Z 21005KT 1 1/2SM -SN VV007 M15/ RMK SN8

CYWG;2007-12-15 13:00;CYWG 151300Z 22005KT 2SM -SN VV006 M15/M17 A3004 RMK SN8 SLP197

CYWG;2007-12-15 13:04;CYWG 151304Z 21005KT 4SM -SN OVC006 M15/ RMK SN2SC6

CYWG;2007-12-15 14:00;CYWG 151400Z 25003KT 10SM -SN OVC005 M15/M16 A3004 RMK ST8 SLP198

CYWG;2007-12-15 14:21;CYWG 151421Z 29003KT 10SM FEW004 OVC024 M15/ RMK SF2SC6

CYWG;2007-12-15 15:00;CYWG 151500Z 30003KT 12SM OVC015 M15/M16 A3005 RMK SC8 SLP201

CYWG;2007-12-15 15:15;CYWG 151515Z 31004KT 5SM -SN OVC015 M15/ RMK SC8

CYWG;2007-12-15 16:00;CYWG 151600Z 31002KT 4SM -SN OVC017 M15/M16 A3006 RMK SC8 SLP203

CYWG;2007-12-15 16:15;CYWG 151615Z 30003KT 12SM -SN FEW009 BKN016 BKN021 M17/ RMK SF1SC4SC2

CYWG;2007-12-15 17:00;CYWG 151700Z 30002KT 15SM FEW017 BKN100 M15/M16 A3006 RMK SC2AC3 SLP205

CYWG;2007-12-15 18:00;CYWG 151800Z 29003KT 15SM FEW017 BKN100 M15/M16 A3006 RMK SC1AC4 SLP201

CYWG;2007-12-15 19:00;CYWG 151900Z 29004KT 15SM FEW100 M15/M17 A3005 RMK AC2 SLP199

CYWG;2007-12-15 20:00;CYWG 152000Z 30005KT 15SM FEW100 M15/M17 A3004 RMK AC1 SLP196

CYWG;2007-12-15 21:00;CYWG 152100Z 29005KT 15SM FEW100 M16/M16 A3004 RMK AC1 SLP197

CYWG;2007-12-15 22:00;CYWG 152200Z 27004KT 15SM FEW020 FEW120 M14/M15 A3005 RMK SC1AC1 SLP200

CYWG;2007-12-15 23:00;CYWG 152300Z 27004KT 15SM BKN024 M17/M17 A3006 RMK SC6 SLP202

CYWG;2007-12-15 23:22;CYWG 152322Z 28004KT 10SM -SN BKN030 M17/ RMK SC7

CYWG;2007-12-16 00:00;CYWG 160000Z 23002KT 12SM -SN BKN027 M18/M19 A3005 RMK SC7 SLP200

CYWG;2007-12-16 01:00;CYWG 160100Z 27002KT 12SM -SN OVC025 M16/M16 A3005 RMK SC8 SLP199

CYWG;2007-12-16 02:00;CYWG 160200Z 29004KT 8SM -SN OVC023 M13/M13 A3006 RMK SC8 SLP204

CYWG;2007-12-16 03:00;CYWG 160300Z 29002KT 10SM -SN OVC023 M13/M13 A3006 RMK SC8 SLP201

CYWG;2007-12-16 04:00;CYWG 160400Z 00000KT 8SM -SN OVC025 M12/M13 A3006 RMK SC8 SLP200

CYWG;2007-12-16 05:00;CYWG 160500Z 00000KT 15SM -SN OVC021 M12/M12 A3006 RMK SC8 SLP201

CYWG;2007-12-16 06:00;CYWG 160600Z 22004KT 15SM -SN OVC023 M12/M12 A3006 RMK SC8 SLP200

CYWG;2007-12-16 07:00;CYWG 160700Z 21005KT 8SM -SN OVC019 M12/M12 A3005 RMK SC8 SLP198

CYWG;2007-12-16 08:00;CYWG 160800Z 22005KT 10SM -SN OVC023 M12/M13 A3004 RMK SC8 SLP195

CYWG;2007-12-16 09:00;CYWG 160900Z 21005KT 12SM -SN OVC021 M12/M13 A3004 RMK SC8 SLP194

CYWG;2007-12-16 10:00;CYWG 161000Z 19005KT 15SM FEW021 M16/M16 A3003 RMK SC2 SLP192

CYWG;2007-12-16 11:00;CYWG 161100Z 18006KT 15SM FEW024 M17/M18 A3003 RMK SC1 SLP192

CYWG;2007-12-16 11:11;CYWG 161111Z 18006KT 15SM FEW001 SCT024 M17/ RMK SF2SC1 VSBY NE-E 2 MI

CYWG;2007-12-16 12:00;CYWG 161200Z 20007KT 4SM BR SCT001 M18/M18 A3002 RMK SF2 VIS N - NE 2 SLP192

CYWG;2007-12-16 13:00;CYWG 161300Z 18007KT 5SM IC BR BKN001 M19/M19 A3001 RMK SF2 VIS LWR N SLP188

CYWG;2007-12-16 13:32;CYWG 161332Z 18008KT 10SM FEW001 M19/ RMK SF0 BR IC

CYWG;2007-12-16 14:00;CYWG 161400Z 17007KT 10SM FEW001 M21/M21 A3001 RMK SF0 BR SLP187

CYWG;2007-12-16 14:39;CYWG 161439Z 18007KT 10SM FEW002 M19/ RMK SF0 IC

CYWG;2007-12-16 15:00;CYWG 161500Z 18009KT 10SM R13/4500VP6000FT/D FEW002 M18/M19 A3001 RMK SF1 IC SLP185

CYWG;2007-12-16 16:00;CYWG 161600Z 18010KT 8SM FEW002 M19/M19 A3001 RMK SF1 IC SLP185

CYWG;2007-12-16 17:00;CYWG 161700Z 18013KT 8SM FEW100 SCT240 M17/M17 A2998 RMK AC1CI0 IC SLP176

CYWG;2007-12-16 18:00;CYWG 161800Z 18013KT 12SM SCT085 SCT240 M16/M16 A2995 RMK AC2CI0 IC SLP164

CYWG;2007-12-16 18:39;CYWG 161839Z 18015KT 15SM BKN085 M15/ RMK AC6

CYWG;2007-12-16 19:00;CYWG 161900Z 17015KT 15SM BKN085 M15/M16 A2992 RMK AC6 SLP153

CYWG;2007-12-16 20:00;CYWG 162000Z 17015G20KT 15SM FEW085 BKN240 M14/M14 A2990 RMK AC1CI0 SLP147

CYWG;2007-12-16 21:00;CYWG 162100Z 18016KT 15SM FEW004 SCT012 BKN240 M13/M14 A2989 RMK SF2SC2CI0 SLP141

CYWG;2007-12-16 22:00;CYWG 162200Z 17020G29KT 15SM FEW006 FEW080 SCT240 M14/M14 A2986 RMK SF1AC1CI0 SLP132

CYWG;2007-12-16 22:23;CYWG 162223Z CCA 16018KT 8SM -SN BKN007 M13/ RMK SF7

CYWG;2007-12-16 22:24;CYWG 162224Z 16018KT 8SM -SN BKN007 RMK SF7

CYWG;2007-12-16 22:47;CYWG 162247Z 16015G20KT 2SM -SN OVC006 M13/ RMK SF8

CYWG;2007-12-16 23:00;CYWG 162300Z 16015KT 2SM -SN OVC006 M12/M13 A2984 RMK SF8 SLP127

CYWG;2007-12-16 23:23;CYWG 162323Z 16017KT 3SM -SN BR OVC006 M12/ RMK SF8 FROIN

CYWG;2007-12-16 23:36;CYWG 162336Z 17016KT 4SM -SN BR SCT002 OVC005 RMK SF4SF4

CYWG;2007-12-17 00:00;CYWG 170000Z 16019G24KT 4SM -SN BR SCT002 OVC006 M12/M12 A2981 RMK SF4SF4 SLP116

CYWG;2007-12-17 01:00;CYWG 170100Z 16018KT 4SM -SN BR OVC006 M12/M12 A2979 RMK SF8 SLP110

CYWG;2007-12-17 02:00;CYWG 170200Z 17019KT 8SM -SN SCT006 OVC035 M11/M11 A2976 RMK SF3SC5 SLP100

CYWG;2007-12-17 02:42;CYWG 170242Z 18018G24KT 15SM OVC033 M11/ RMK SC8

CYWG;2007-12-17 03:00;CYWG 170300Z 18021G26KT 15SM OVC033 M11/M11 A2973 RMK SC8 SLP088

CYWG;2007-12-17 04:00;CYWG 170400Z 18018KT 4SM BR OVC026 M10/M11 A2970 RMK ST8 SLP080

CYWG;2007-12-17 05:00;CYWG 170500Z 18017KT 3SM -SN BR OVC022 M10/M10 A2969 RMK ST8 SLP077

CYWG;2007-12-17 06:00;CYWG 170600Z 18014KT 12SM OVC022 M09/M09 A2969 RMK ST8 SLP073

CYWG;2007-12-17 07:00;CYWG 170700Z 20009KT 15SM OVC022 M08/M09 A2969 RMK ST8 SLP073

CYWG;2007-12-17 08:00;CYWG 170800Z 25008KT 15SM OVC018 M07/M07 A2969 RMK ST8 SLP075

CYWG;2007-12-17 09:00;CYWG 170900Z 28009KT 15SM OVC018 M06/M07 A2970 RMK ST8 SLP077

CYWG;2007-12-17 10:00;CYWG 171000Z 30009KT 15SM OVC021 M07/M08 A2972 RMK ST8 SLP081

CYWG;2007-12-17 11:00;CYWG 171100Z 31011KT 15SM OVC021 M07/M08 A2972 RMK ST8 SLP083

CYWG;2007-12-17 12:00;CYWG 171200Z 29010KT 15SM BKN019 BKN250 M10/M11 A2974 RMK SC5CI0 SLP092

CYWG;2007-12-17 13:00;CYWG 171300Z 27008KT 15SM FEW020 SCT250 M11/M11 A2977 RMK SC2CI1 SLP099

CYWG;2007-12-17 14:00;CYWG 171400Z 30008KT 15SM FEW020 FEW250 M14/M14 A2977 RMK SC1CI0 SLP101

CYWG;2007-12-17 15:00;CYWG 171500Z 30007KT 15SM BKN005 BKN250 M15/M16 A2980 RMK SC3CI1 SLP112

CYWG;2007-12-17 16:00;CYWG 171600Z 31006KT 8SM BKN005 BKN250 M15/M15 A2981 RMK SC3CI1 VSBL NE 3 SLP115

CYWG;2007-12-17 16:35;CYWG 171635Z 27006KT 15SM SCT005 SCT250 RMK SC2CI1

CYWG;2007-12-17 17:00;CYWG 171700Z 26005KT 15SM FEW005 M12/M12 A2982 RMK SC1 SLP120

CYWG;2007-12-17 18:00;CYWG 171800Z 30005KT 15SM SKC M13/M14 A2982 RMK SLP118

CYWG;2007-12-17 19:00;CYWG 171900Z 34003KT 15SM SKC M13/M14 A2981 RMK SLP113

CYWG;2007-12-17 20:00;CYWG 172000Z 30003KT 15SM SKC M13/M14 A2981 RMK SLP114

CYWG;2007-12-17 21:00;CYWG 172100Z 29004KT 15SM FEW010 M13/M14 A2982 RMK ST1 SLP117

CYWG;2007-12-17 22:00;CYWG 172200Z 27002KT 15SM FEW250 M13/M14 A2984 RMK CI1 SLP123

CYWG;2007-12-17 23:00;CYWG 172300Z 28003KT 15SM FEW250 M15/M15 A2984 RMK CI1 SLP124

CYWG;2007-12-18 00:00;CYWG 180000Z 29003KT 5SM BR FEW250 M17/M17 A2985 RMK CI1 SLP129

CYWG;2007-12-18 01:00;CYWG 180100Z 30003KT 15SM FEW250 M18/M19 A2986 RMK CI1 SLP133

CYWG;2007-12-18 02:00;CYWG 180200Z 04004KT 3SM BR FEW250 M19/M19 A2985 RMK CI2 SLP130

CYWG;2007-12-18 02:43;CYWG 180243Z 06006KT 3SM BR FEW003 SCT095 M19/ RMK ST2AC1

CYWG;2007-12-18 03:00;CYWG 180300Z 05005KT 3SM BR FEW003 FEW095 M18/M19 A2983 RMK ST1AC2 SLP127

CYWG;2007-12-18 04:00;CYWG 180400Z 06003KT 3SM BR FEW100 M18/M18 A2984 RMK AC2 SLP130

CYWG;2007-12-18 05:00;CYWG 180500Z 00000KT 15SM SKC M19/M20 A2986 RMK FG SLP134

CYWG;2007-12-18 06:00;CYWG 180600Z 00000KT 6SM BR SKC M20/M21 A2987 RMK SLP138

CYWG;2007-12-18 07:00;CYWG 180700Z 07004KT 3SM BR SKC M20/M22 A2986 RMK SLP134

CYWG;2007-12-18 08:00;CYWG 180800Z 08002KT 15SM FEW093 M18/M20 A2986 RMK AC1 SLP134

CYWG;2007-12-18 09:00;CYWG 180900Z 07005KT 3SM BR SKC M19/M21 A2986 RMK FG2 SLP135

CYWG;2007-12-18 10:00;CYWG 181000Z 06004KT 4SM BR FEW100 M18/M21 A2987 RMK AC1 SLP136

CYWG;2007-12-18 11:00;CYWG 181100Z 10009KT 3SM BR BKN002 BKN093 M13/M15 A2985 RMK ST5AC2 SLP130

CYWG;2007-12-18 12:00;CYWG 181200Z 13002KT 2SM BR BKN002 OVC096 M12/M13 A2984 RMK ST5AC2 SLP128

CYWG;2007-12-18 12:34;CYWG 181234Z 10006KT 4SM BR SCT002 BKN089 M11/ RMK ST3AC2

CYWG;2007-12-18 13:00;CYWG 181300Z 10006KT 8SM FEW002 OVC089 M11/M11 A2986 RMK ST2AC5 BR SLP132

CYWG;2007-12-18 14:00;CYWG 181400Z 10009KT 12SM FEW002 BKN084 OVC220 M11/M11 A2985 RMK ST1AC4CI2 SLP131

CYWG;2007-12-18 15:00;CYWG 181500Z 10007KT 10SM SCT002 BKN076 OVC220 M10/M10 A2987 RMK SF2AC3CI1 BR SLP135

CYWG;2007-12-18 16:00;CYWG 181600Z 11007KT 12SM FEW002 BKN088 OVC220 M09/M09 A2987 RMK SF1AC4CI1 BR SLP136

CYWG;2007-12-18 17:00;CYWG 181700Z 11007KT 15SM FEW008 BKN076 OVC220 M08/M08 A2989 RMK SF1AC4CI1 SLP142

CYWG;2007-12-18 18:00;CYWG 181800Z 12010KT 15SM FEW010 SCT056 BKN220 M08/M08 A2987 RMK SF2SC2CI1 SLP138

CYWG;2007-12-18 19:00;CYWG 181900Z 12008KT 15SM SCT009 BKN070 BKN220 M07/M08 A2987 RMK SF2AC3CI0 SLP135

CYWG;2007-12-18 20:00;CYWG 182000Z 11007KT 15SM FEW009 BKN031 BKN057 M06/M07 A2986 RMK SF2SC3SC2 SLP132

CYWG;2007-12-18 21:00;CYWG 182100Z 12008KT 12SM -SN SCT009 BKN026 BKN053 M06/M06 A2986 RMK SF3SC2SC2 SLP132

CYWG;2007-12-18 22:00;CYWG 182200Z 11006KT 15SM -SN FEW009 BKN021 BKN059 M05/M06 A2987 RMK SF2SC3SC2 SLP135

CYWG;2007-12-18 22:38;CYWG 182238Z 09007KT 15SM BKN023 BKN076 M06/ RMK SC5AC2

CYWG;2007-12-18 23:00;CYWG 182300Z 09007KT 15SM SCT008 BKN031 BKN081 M06/M06 A2987 RMK SF3SC2AC1 SLP136

CYWG;2007-12-19 00:00;CYWG 190000Z 10007KT 15SM FEW008 SCT043 BKN084 M06/M06 A2989 RMK SF2SC2AC1 SLP139

CYWG;2007-12-19 00:43;CYWG 190043Z 09004KT 15SM BKN007 M08/ RMK SF6

CYWG;2007-12-19 01:00;CYWG 190100Z 09004KT 15SM OVC010 M09/M09 A2990 RMK SF7 SLP142

CYWG;2007-12-19 02:00;CYWG 190200Z 12007KT 12SM OVC010 M06/M06 A2990 RMK SF8 BR SLP144

CYWG;2007-12-19 03:00;CYWG 190300Z 15006KT 15SM OVC012 M06/M06 A2990 RMK SF8 SLP142

CYWG;2007-12-19 04:00;CYWG 190400Z 14008KT 12SM OVC012 M06/M06 A2989 RMK SF8 SLP140

CYWG;2007-12-19 04:34;CYWG 190434Z 15006KT 10SM OVC009 M06/ RMK SF8

CYWG;2007-12-19 05:00;CYWG 190500Z 16005KT 10SM OVC008 M06/M06 A2990 RMK SF8 SLP144

CYWG;2007-12-19 06:00;CYWG 190600Z 16007KT 10SM OVC009 M06/M06 A2991 RMK SF8 SLP146

CYWG;2007-12-19 07:00;CYWG 190700Z 16007KT 10SM OVC008 M06/M06 A2991 RMK ST8 SLP144

CYWG;2007-12-19 08:00;CYWG 190800Z 16008KT 10SM OVC007 M06/M06 A2991 RMK ST8 SLP146

CYWG;2007-12-19 09:00;CYWG 190900Z 14011KT 4SM BR OVC005 M07/M07 A2990 RMK ST8 SLP142

CYWG;2007-12-19 10:00;CYWG 191000Z 15012KT 4SM BR OVC005 M07/M07 A2990 RMK ST8 SLP140

CYWG;2007-12-19 11:00;CYWG 191100Z 18011KT 2SM BR OVC004 M08/M08 A2991 RMK ST8 SLP146

CYWG;2007-12-19 11:40;CYWG 191140Z 20011KT 2 1/2SM BR OVC003 M11/ RMK ST8

CYWG;2007-12-19 11:48;CYWG 191148Z 20009KT 1SM R13/P6000FT/D R36/4000VP6000FT/D BR OVC002 M12/ RMK FG3ST5

CYWG;2007-12-19 11:51;CYWG 191151Z 18007KT 3/4SM R13/P6000FT/D R36/3000VP6000FT/D -SN BR OVC002 M13/ RMK FG4ST4

CYWG;2007-12-19 12:00;CYWG 191200Z 18008KT 1/2SM R13/2800VP6000FT/D R36/2600FT/N -SN FZFG VV001 M13/M13 A2992 RMK FG8 SLP151

CYWG;2007-12-19 12:12;CYWG 191212Z 17006KT 3/4SM R13/2800V5000FT/U R36/3000VP6000FT/U IC BR OVC001 M13/ RMK FG6ST2

CYWG;2007-12-19 13:00;CYWG 191300Z 17006KT 1SM R13/P6000FT/N R36/P6000FT/D IC BR OVC001 M13/M14 A2991 RMK FG2ST6 SLP146

CYWG;2007-12-19 14:00;CYWG 191400Z CCA 19008KT 1 1/2SM IC BR BKN002 M13/M14 A2991 RMK FG1SF4 VIS SW - W 1/2 E 3 SLP147

CYWG;2007-12-19 14:37;CYWG 191437Z 18007KT 2SM IC BR BKN002 BKN220 M15/ RMK SF2CI1

CYWG;2007-12-19 15:00;CYWG 191500Z 18007KT 2SM IC BR SCT001 BKN220 M14/M15 A2991 RMK SF1CI1 SLP148

CYWG;2007-12-19 15:21;CYWG 191521Z 16007KT 4SM BR SCT005 BKN220 M14/ RMK SF1CI1

CYWG;2007-12-19 16:00;CYWG 191600Z 18009KT 2SM BR BKN005 OVC220 M13/M14 A2990 RMK SF2CI1 SLP146

CYWG;2007-12-19 16:21;CYWG 191621Z 18010KT 2SM BR OVC004 M12/ RMK ST8

CYWG;2007-12-19 16:29;CYWG 191629Z 18012KT 1 3/4SM BR OVC003 M12/ RMK ST8

CYWG;2007-12-19 16:41;CYWG 191641Z 18010KT 1 1/4SM -SG BR OVC002 M12/ RMK ST8

CYWG;2007-12-19 17:00;CYWG 191700Z 16011KT 1 1/2SM -SG BR OVC004 M12/M12 A2988 RMK ST8 SLP139

CYWG;2007-12-19 17:32;CYWG 191732Z 18008KT 2 1/2SM -SG BR OVC005 M11/ RMK ST8

CYWG;2007-12-19 18:00;CYWG 191800Z 18008KT 2 1/2SM -SG BR OVC005 M12/M12 A2987 RMK ST8 SLP131

CYWG;2007-12-19 18:31;CYWG 191831Z 18008KT 2 1/2SM BR SCT002 OVC200 M12/ RMK SF2CI3

CYWG;2007-12-19 19:00;CYWG 191900Z 18008KT 3SM BR SCT002 OVC200 M12/M12 A2986 RMK SF2CI3 SLP130

CYWG;2007-12-19 20:00;CYWG 192000Z 16011KT 6SM BR FEW002 BKN200 M11/M11 A2983 RMK SF2CI4 SLP121

CYWG;2007-12-19 21:00;CYWG 192100Z 15015KT 6SM BR SCT065 BKN093 OVC200 M09/M10 A2981 RMK SC3AC2CI2 SLP112

CYWG;2007-12-19 22:00;CYWG 192200Z 16008KT 6SM BR SCT011 BKN025 OVC093 M09/M09 A2981 RMK SC3SC3AC2 SLP113

CYWG;2007-12-19 23:00;CYWG 192300Z 14016KT 6SM BR BKN025 OVC073 M07/M08 A2978 RMK SC5AC3 SLP103

CYWG;2007-12-20 00:00;CYWG 200000Z 16013KT 6SM BR BKN059 OVC200 M06/M06 A2979 RMK SC6CI2 MOON DMLY VSBL SLP106

CYWG;2007-12-20 01:00;CYWG 200100Z 15013KT 6SM BR BKN065 OVC200 M05/M06 A2977 RMK SC6CI2 MOON DMLY VSBL SLP099

CYWG;2007-12-20 02:00;CYWG 200200Z 15014KT 10SM BKN062 OVC200 M04/M05 A2974 RMK SC6CI2 MOON DMLY VSBL BR SLP091

CYWG;2007-12-20 03:00;CYWG 200300Z 15016KT 10SM OVC068 M03/M04 A2972 RMK AC8 BR SLP082

CYWG;2007-12-20 04:00;CYWG 200400Z 17015KT 10SM OVC085 M03/M05 A2971 RMK AC8 BR SLP079

CYWG;2007-12-20 05:00;CYWG 200500Z 16012KT 10SM BKN094 M03/M05 A2971 RMK AC5 BR SLP078

CYWG;2007-12-20 06:00;CYWG 200600Z 17016KT 15SM BKN084 M03/M05 A2972 RMK AC6 BR SLP081

CYWG;2007-12-20 07:00;CYWG 200700Z 17018G27KT 10SM BKN091 M03/M05 A2970 RMK AC6 BR SLP074

CYWG;2007-12-20 08:00;CYWG 200800Z 18019KT 10SM OVC097 M03/M05 A2969 RMK AC8 BR SLP070

CYWG;2007-12-20 09:00;CYWG 200900Z 19018G27KT 10SM BKN098 M03/M05 A2969 RMK AC6 BR SLP069

CYWG;2007-12-20 10:00;CYWG 201000Z 18021G27KT 5SM BR BKN025 M04/M06 A2967 RMK SC3 SLP065

CYWG;2007-12-20 11:00;CYWG 201100Z 18022G27KT 5SM BR FEW025 M05/M06 A2967 RMK SC2 SLP062

CYWG;2007-12-20 12:00;CYWG 201200Z 18019G26KT 3SM BR FEW015 BKN025 OVC200 M05/M06 A2965 RMK SC2SC3CI0 SLP056

CYWG;2007-12-20 13:00;CYWG 201300Z 18023KT 3SM BR SCT025 BKN200 M05/M06 A2965 RMK SC3CI1 SLP055

CYWG;2007-12-20 14:00;CYWG 201400Z 17019G26KT 3SM BR SCT200 M06/M07 A2963 RMK CI1 SLP050

CYWG;2007-12-20 15:00;CYWG 201500Z 18022KT 3SM BR SCT200 M06/M07 A2963 RMK CI1 SLP049

CYWG;2007-12-20 16:00;CYWG 201600Z 18020G26KT 3SM BR FEW002 FEW200 M06/M07 A2964 RMK SF1CI0 SLP051

CYWG;2007-12-20 16:41;CYWG 201641Z 18021G26KT 2 1/2SM BR BKN007 M06/ RMK SF5

CYWG;2007-12-20 17:00;CYWG 201700Z 18017G24KT 2 1/2SM BR OVC006 M06/M06 A2964 RMK SF6 SLP050

CYWG;2007-12-20 17:11;CYWG 201711Z 18016G22KT 1 1/2SM BR OVC006 M06/ RMK SF6

CYWG;2007-12-20 18:00;CYWG 201800Z 17017KT 2SM BR OVC006 M05/M05 A2961 RMK SF6 SLP043

CYWG;2007-12-20 19:00;CYWG 201900Z 18017KT 2 1/2SM BR BKN008 OVC200 M04/M05 A2961 RMK SF4CI1 SLP040

CYWG;2007-12-20 19:38;CYWG 201938Z 18016KT 3SM BR SCT094 OVC200 M05/ RMK AC3CI3

CYWG;2007-12-20 20:00;CYWG 202000Z 18020KT 3SM BR SCT094 OVC200 M05/M05 A2959 RMK FG2AC2CI2 SLP036

CYWG;2007-12-20 21:00;CYWG 202100Z 17016KT 6SM BR BKN093 OVC200 M04/M05 A2958 RMK AC5CI2 SLP030

CYWG;2007-12-20 22:00;CYWG 202200Z 18014KT 6SM BR SCT025 OVC077 M03/M04 A2959 RMK ST3AC5 SLP035

CYWG;2007-12-20 23:00;CYWG 202300Z 17013KT 6SM BR SCT025 BKN075 M03/M04 A2957 RMK ST3AC2 SLP027

CYWG;2007-12-21 00:00;CYWG 210000Z 18019KT 6SM BR SCT025 OVC088 M03/M04 A2957 RMK ST4AC3 SLP027

CYWG;2007-12-21 01:00;CYWG 210100Z 18021G27KT 6SM BR BKN039 OVC200 M02/M03 A2957 RMK SC5CI1 SLP028

CYWG;2007-12-21 02:00;CYWG 210200Z 18016KT 6SM BR SCT025 OVC069 M03/M03 A2959 RMK SC3AC2 SLP034

CYWG;2007-12-21 03:00;CYWG 210300Z 19013G19KT 6SM BR SCT025 OVC078 M03/M04 A2960 RMK SC3AC2 SLP037

CYWG;2007-12-21 04:00;CYWG 210400Z 18011KT 6SM BR FEW025 BKN087 M03/M03 A2960 RMK SC2AC4 SLP037

CYWG;2007-12-21 05:00;CYWG 210500Z 19011KT 8SM FEW025 SCT087 M04/M04 A2961 RMK SC1AC2 SLP042

CYWG;2007-12-21 06:00;CYWG 210600Z 19011KT 8SM SCT080 M04/M05 A2962 RMK AC2 SLP044

CYWG;2007-12-21 07:00;CYWG 210700Z 19011KT 8SM FEW090 M05/M05 A2962 RMK AC2 SLP045

CYWG;2007-12-21 08:00;CYWG 210800Z 19007KT 8SM SKC M05/M06 A2964 RMK SLP052

CYWG;2007-12-21 09:00;CYWG 210900Z 19011KT 5SM BR FEW080 M06/M06 A2966 RMK AC2 SLP059

CYWG;2007-12-21 10:00;CYWG 211000Z 19005KT 3SM BR FEW080 M07/M07 A2967 RMK AC2 SLP064

CYWG;2007-12-21 11:00;CYWG 211100Z 00000KT 2SM R36/2800FT/N BR SKC M11/M11 A2968 RMK SLP067

CYWG;2007-12-21 12:00;CYWG 211200Z 16003KT 2SM BR SKC M12/M12 A2969 RMK FG2 SLP071

CYWG;2007-12-21 12:41;CYWG 211241Z 29004KT 1SM R13/P6000FT/U R36/P6000FT/D BR BKN088 RMK FG2AC3

CYWG;2007-12-21 13:00;CYWG 211300Z 31002KT 1 1/2SM BR BKN086 M11/M11 A2972 RMK FG2AC5 SLP079

CYWG;2007-12-21 14:00;CYWG 211400Z 32008KT 2SM BR SCT002 OVC086 M10/M10 A2974 RMK FG2SF2AC4 SLP085

CYWG;2007-12-21 15:00;CYWG 211500Z 01003KT 3SM BR SCT005 OVC090 M09/M09 A2977 RMK SF3AC5 SLP097

CYWG;2007-12-21 16:00;CYWG 211600Z 02009KT 3SM BR SCT006 OVC090 M09/M09 A2980 RMK SF4AC4 SLP107

CYWG;2007-12-21 17:00;CYWG 211700Z 01009KT 4SM BR SCT006 OVC095 M09/M10 A2983 RMK SF4AC4 SLP115

CYWG;2007-12-21 17:15;CYWG 211715Z 02009KT 4SM BR BKN006 OVC065 RMK SF6SC2

CYWG;2007-12-21 18:00;CYWG 211800Z 01010KT 5SM BR BKN006 OVC065 M09/M10 A2983 RMK SF6SC2 SLP116

CYWG;2007-12-21 19:00;CYWG 211900Z 02009KT 7SM BKN010 BKN025 OVC086 M08/M09 A2984 RMK SF5SC2AC1 SLP120

CYWG;2007-12-21 20:00;CYWG 212000Z 03008KT 7SM OVC008 M08/M08 A2986 RMK ST8 SLP126

CYWG;2007-12-21 21:00;CYWG 212100Z CCA 03008KT 6SM -SN BR OVC008 M07/M08 A2989 RMK ST8 SLP138

CYWG;2007-12-21 22:00;CYWG 212200Z 01007KT 6SM -SN BR OVC008 M07/M07 A2991 RMK ST8 SLP146

CYWG;2007-12-21 23:00;CYWG 212300Z 36007KT 5SM -SN BR OVC007 M07/M07 A2993 RMK ST8 SLP150

CYWG;2007-12-21 23:46;CYWG 212346Z 33007KT 1 1/2SM -SN BR OVC008 M07/ RMK SN2ST6

CYWG;2007-12-22 00:00;CYWG 220000Z 35008KT 1 1/2SM -SN DRSN BR OVC008 M07/M07 A2994 RMK SN2ST6 SLP158

CYWG;2007-12-22 00:28;CYWG 220028Z 34009KT 3SM -SN BR OVC013 M07/ RMK SN2SF6

CYWG;2007-12-22 01:00;CYWG 220100Z 33010KT 1 1/2SM -SN BR VV006 M07/M07 A2995 RMK SN8 SLP161

CYWG;2007-12-22 01:08;CYWG 220108Z 32011KT 1SM R31/P6000FT/D R36/P6000FT/D -SN BR VV006 M07/ RMK SN8

CYWG;2007-12-22 02:00;CYWG 220200Z 32014KT 1SM R31/P6000FT/U R36/P6000FT/D -SN VV006 M07/M07 A2996 RMK SN8 SLP162

CYWG;2007-12-22 02:43;CYWG 220243Z 32012KT 1 1/2SM -SN VV010 M07/ RMK SN8

CYWG;2007-12-22 03:00;CYWG 220300Z 32013KT 1 1/2SM -SN VV010 M07/M07 A2996 RMK SN8 SLP163

CYWG;2007-12-22 03:11;CYWG 220311Z 32013KT 1 1/2SM -SN VV008 M07/ RMK SN8

CYWG;2007-12-22 04:00;CYWG 220400Z 32013KT 1SM R31/P6000FT/N R36/P6000FT/N -SN DRSN VV006 M07/M07 A2996 RMK SN8 SLP163

CYWG;2007-12-22 05:00;CYWG 220500Z 31012KT 1 1/2SM -SN DRSN VV008 M07/M07 A2997 RMK SN8 /S03/ SLP168

CYWG;2007-12-22 05:10;CYWG 220510Z 31011KT 1 1/2SM -SN DRSN VV010 M07/ RMK SN8

CYWG;2007-12-22 05:49;CYWG 220549Z 31010KT 1SM R31/P6000FT/D R36/P6000FT/D -SN VV008 M07/ RMK SN8

CYWG;2007-12-22 06:00;CYWG 220600Z 31010KT 1SM R31/P6000FT/U R36/P6000FT/U -SN VV008 M07/M07 A2999 RMK SN8 /S04/ SLP172

CYWG;2007-12-22 07:00;CYWG 220700Z 31010KT 2SM -SN VV014 M07/M07 A2998 RMK SN8 SLP171

CYWG;2007-12-22 07:38;CYWG 220738Z 31012KT 2SM -SN OVC019 M06/ RMK SN5SC3

CYWG;2007-12-22 08:00;CYWG 220800Z 31012KT 2SM -SN OVC015 M06/M07 A2998 RMK SN3SC5 SLP169

CYWG;2007-12-22 08:38;CYWG 220838Z 29016KT 1SM R31/P6000FT/U R36/P6000FT/U -SN DRSN VV007 M08/ RMK SN8

CYWG;2007-12-22 09:00;CYWG 220900Z 30019KT 1 1/2SM -SN DRSN VV009 M08/M08 A2998 RMK SN8 /S03/ SLP169

CYWG;2007-12-22 09:18;CYWG 220918Z 30018KT 2SM -SN DRSN OVC012 M08/ RMK SN4SC4

CYWG;2007-12-22 10:00;CYWG 221000Z 29017KT 1 1/2SM -SN DRSN OVC015 M10/M11 A2997 RMK SN4SC4 SLP168

CYWG;2007-12-22 11:00;CYWG 221100Z 29018KT 1 1/2SM -SN DRSN OVC011 M12/M12 A2997 RMK SN5ST3 /S06/ SLP166

CYWG;2007-12-22 11:12;CYWG 221112Z 28016KT 5SM -SN DRSN OVC018 M12/ RMK SC8

CYWG;2007-12-22 12:00;CYWG 221200Z 28018KT 3SM -SN DRSN OVC021 M13/M15 A2997 RMK SC8 SLP167

CYWG;2007-12-22 13:00;CYWG 221300Z 29016KT 3SM -SN DRSN OVC015 M14/M15 A2996 RMK SC8 SLP164

CYWG;2007-12-22 14:00;CYWG 221400Z 28017KT 3SM -SN DRSN OVC020 M14/M15 A2994 RMK SC8 SLP158

CYWG;2007-12-22 14:24;CYWG 221424Z 28015KT 2SM -SN DRSN OVC017 M15/ RMK SC8

CYWG;2007-12-22 15:00;CYWG 221500Z 28017KT 2SM -SN DRSN VV013 M15/M16 A2993 RMK SN8 SLP157

CYWG;2007-12-22 16:00;CYWG 221600Z 28014KT 2 1/2SM -SN DRSN BKN016 OVC045 M15/M16 A2993 RMK SN2SC2SC3 OCNL BLSN SLP155

CYWG;2007-12-22 16:19;CYWG 221619Z 28015KT 4SM -SN DRSN BKN018 BKN045 BKN100 RMK SC5SC2AC1 OCNL BLSN

CYWG;2007-12-22 17:00;CYWG 221700Z 28018KT 4SM -SN DRSN BKN027 BKN100 M15/M16 A2990 RMK SC5AC2 SLP147

CYWG;2007-12-22 18:00;CYWG 221800Z 28015KT 8SM DRSN BKN023 BKN100 M14/M15 A2989 RMK SC5AC2 OCNL BLSN SLP141

CYWG;2007-12-22 19:00;CYWG 221900Z 28014KT 10SM DRSN BKN014 BKN100 M13/M14 A2987 RMK SC5AC2 OCNL BLSN SLP134

CYWG;2007-12-22 20:00;CYWG 222000Z 31015KT 8SM DRSN BKN022 BKN100 M09/M10 A2985 RMK SC5AC2 OCNL BLSN SLP127

CYWG;2007-12-22 21:00;CYWG 222100Z 32017KT 5SM -SN DRSN BKN015 OVC100 M09/M10 A2984 RMK SC6AC2 OCNL BLSN SLP123

CYWG;2007-12-22 22:00;CYWG 222200Z 34014G21KT 6SM -SN DRSN BKN018 OVC100 M10/M12 A2985 RMK SC6AC2 OCNL BLSN SLP127

CYWG;2007-12-22 23:00;CYWG 222300Z 32018KT 6SM -SN DRSN BKN022 OVC100 M11/M12 A2986 RMK SC6AC2 OCNL BLSN SLP130

CYWG;2007-12-23 00:00;CYWG 230000Z 33017KT 8SM -SN DRSN BKN022 OVC100 M12/M13 A2986 RMK SC6AC2 SLP133

CYWG;2007-12-23 01:00;CYWG 230100Z 33017KT 8SM -SN DRSN OVC022 M12/M13 A2986 RMK SC8 OCNL BLSN SLP132

CYWG;2007-12-23 02:00;CYWG 230200Z 33018KT 8SM -SN DRSN SCT026 OVC047 M12/M14 A2986 RMK SC3SC5 OCNL BLSN SLP131

CYWG;2007-12-23 03:00;CYWG 230300Z 33016KT 10SM -SN DRSN BKN022 BKN041 OVC056 M12/M14 A2984 RMK SC5SC2SC2 OCNL BLSN SLP128

CYWG;2007-12-23 04:00;CYWG 230400Z 34015KT 12SM -SN DRSN OVC020 M12/M13 A2984 RMK SC8 SLP128

CYWG;2007-12-23 04:26;CYWG 230426Z 35016KT 2 1/2SM -SN DRSN OVC018 M12/ RMK SC8 OCNL BLSN

CYWG;2007-12-23 05:00;CYWG 230500Z 34017KT 2 1/2SM -SN DRSN OVC018 M12/M14 A2985 RMK SC8 OCNL BLSN SLP129

CYWG;2007-12-23 06:00;CYWG 230600Z 34015G21KT 2SM -SN DRSN OVC018 M13/M14 A2984 RMK SC8 OCNL BLSN SLP125

CYWG;2007-12-23 06:13;CYWG 230613Z 34018KT 3SM -SN DRSN OVC018 M13/ RMK SC8 OCNL BLSN

CYWG;2007-12-23 07:00;CYWG 230700Z 34015KT 6SM -SN DRSN OVC020 M14/M15 A2984 RMK SC8 SLP125

CYWG;2007-12-23 08:00;CYWG 230800Z 34014KT 15SM -SN DRSN OVC047 M15/M16 A2984 RMK SC8 SLP126

CYWG;2007-12-23 09:00;CYWG 230900Z 34014KT 15SM -SN DRSN OVC019 M15/M17 A2985 RMK SC8 SLP129

CYWG;2007-12-23 10:00;CYWG 231000Z 34015KT 6SM -SN DRSN OVC033 M15/M16 A2985 RMK SC8 SLP128

CYWG;2007-12-23 11:00;CYWG 231100Z 35017KT 10SM -SN DRSN BKN023 OVC080 M15/M16 A2985 RMK SC6AC2 SLP128

CYWG;2007-12-23 12:00;CYWG 231200Z 34016G21KT 10SM -SN DRSN OVC066 M15/M16 A2986 RMK SC8 SLP131

CYWG;2007-12-23 13:00;CYWG 231300Z 35017G22KT 10SM -SN DRSN OVC039 M15/M16 A2987 RMK SC8 SLP137

CYWG;2007-12-23 14:00;CYWG 231400Z 34021KT 10SM -SN DRSN FEW015 OVC041 M15/M16 A2987 RMK SC2SC6 SLP136

CYWG;2007-12-23 15:00;CYWG 231500Z 35018KT 10SM -SN DRSN SCT016 OVC043 M16/M17 A2988 RMK SC3SC5 SLP141

CYWG;2007-12-23 16:00;CYWG 231600Z 36017KT 10SM -SN DRSN SCT024 BKN059 M16/M17 A2989 RMK SC3SC4 SLP143

CYWG;2007-12-23 16:32;CYWG 231632Z 35017KT 15SM FEW022 SCT059 M16/ RMK SC1SC2

CYWG;2007-12-23 17:00;CYWG 231700Z 35019KT 15SM FEW015 SCT059 BKN091 M16/M17 A2990 RMK SC1SC2AC2 SLP148

CYWG;2007-12-23 18:00;CYWG 231800Z 35017G22KT 15SM DRSN FEW015 BKN059 BKN080 M16/M17 A2990 RMK SC2SC3AC2 SLP149

CYWG;2007-12-23 19:00;CYWG 231900Z 34019KT 15SM DRSN FEW015 SCT050 BKN080 M16/M18 A2990 RMK SC2SC2AC2 SLP149

CYWG;2007-12-23 20:00;CYWG 232000Z 35016KT 15SM FEW080 SCT250 M16/M17 A2992 RMK AC2CI1 SLP153

CYWG;2007-12-23 21:00;CYWG 232100Z 35013KT 15SM FEW100 FEW210 M15/M17 A2993 RMK AC1CI1 SLP160

CYWG;2007-12-23 22:00;CYWG 232200Z 36010KT 15SM FEW090 FEW210 M15/M17 A2996 RMK AC1CI1 SLP167

CYWG;2007-12-23 22:46;CYWG 232246Z 36011KT 10SM BKN012 OVC020 RMK SC6SC2

CYWG;2007-12-23 23:00;CYWG 232300Z 36009G15KT 10SM BKN012 OVC025 M15/M17 A2999 RMK SC7SC1 SLP177

CYWG;2007-12-24 00:00;CYWG 240000Z 36011KT 10SM OVC009 M15/M16 A2999 RMK SC6 SLP178

CYWG;2007-12-24 00:44;CYWG 240044Z 36012KT 6SM -SN SCT002 OVC007 M15/ RMK ST3SC5

CYWG;2007-12-24 01:00;CYWG 240100Z 34011KT 6SM -SN SCT002 BKN008 M15/M16 A3000 RMK ST3SC2 MOON DMLY VSBL SLP183

CYWG;2007-12-24 01:26;CYWG 240126Z 32014G19KT 4SM -SN BLSN SCT001 BKN007 M15/ RMK ST2SC3

CYWG;2007-12-24 01:42;CYWG 240142Z 34016KT 1 1/2SM -SN BLSN VV002 M14/ RMK SN8 MOONH DMLY VSBL

CYWG;2007-12-24 01:54;CYWG 240154Z 34014KT 4SM -SN BLSN SCT002 BKN007 M14/ RMK ST2SC3

CYWG;2007-12-24 02:00;CYWG 240200Z 34014KT 5SM -SN BLSN SCT002 BKN007 M15/M15 A3001 RMK ST2SC3 MOON DMLY VSBL SLP184

CYWG;2007-12-24 02:32;CYWG 240232Z 34012KT 6SM -SN DRSN SCT002 BKN012 M15/ RMK ST2ST4 MOON DMLY VSBL

CYWG;2007-12-24 03:00;CYWG 240300Z 34011KT 10SM -SN DRSN SCT002 OVC007 M15/M16 A3002 RMK ST2ST6 MOON DMLY VSBL SLP188

CYWG;2007-12-24 04:00;CYWG 240400Z 34009KT 10SM -SN DRSN OVC006 M15/M15 A3001 RMK ST8 MOON DMLY VSBL SLP186

CYWG;2007-12-24 05:00;CYWG 240500Z 32010KT 10SM -SN OVC007 M15/M15 A3002 RMK ST8 MOON DMLY VSBL SLP189

CYWG;2007-12-24 06:00;CYWG 240600Z 31006KT 8SM -SN BKN006 OVC012 M16/M16 A3001 RMK ST6SC2 SLP186

CYWG;2007-12-24 07:00;CYWG 240700Z 31004KT 12SM -SN BKN009 BKN015 M16/M17 A2999 RMK ST6SC2 SLP178

CYWG;2007-12-24 07:30;CYWG 240730Z 32004KT 10SM -SN BKN012 BKN017 M16/ RMK SC5SC2

CYWG;2007-12-24 08:00;CYWG 240800Z 30006KT 6SM -SN SCT002 OVC009 M15/M16 A2999 RMK SF3ST5 SLP180

CYWG;2007-12-24 09:00;CYWG 240900Z 27003KT 6SM -SN FEW002 OVC009 M15/M16 A2997 RMK SF2ST6 SLP173

CYWG;2007-12-24 10:00;CYWG 241000Z 27003KT 6SM -SN FEW002 OVC007 M15/M16 A2996 RMK SF2ST6 SLP170

CYWG;2007-12-24 11:00;CYWG 241100Z 23002KT 6SM -SN OVC003 M15/M15 A2994 RMK ST8 SLP161

CYWG;2007-12-24 11:12;CYWG 241112Z 21003KT 3SM -SN OVC002 M15/ RMK ST8

CYWG;2007-12-24 11:28;CYWG 241128Z 21005KT 3SM -SN OVC003 M15/ RMK ST8

CYWG;2007-12-24 12:00;CYWG 241200Z 21006KT 4SM -SN OVC004 M15/M16 A2993 RMK ST8 MOON DMLY VSBL SLP156

CYWG;2007-12-24 13:00;CYWG 241300Z 18007KT 2SM -SN SCT001 OVC004 M15/M16 A2989 RMK ST3ST5 MOON DMLY VSBL SLP145

CYWG;2007-12-24 14:00;CYWG 241400Z 17009KT 2SM -SN OVC003 M15/M15 A2987 RMK ST8 SLP138

CYWG;2007-12-24 14:34;CYWG 241434Z 17009KT 1 1/2SM -SN OVC002 M15/ RMK ST8 FROIN

CYWG;2007-12-24 14:49;CYWG 241449Z 17012KT 1SM R13/P6000FT/N R36/P6000FT/D -SN BR OVC001 M14/ RMK ST8 FROIN

CYWG;2007-12-24 15:00;CYWG 241500Z 17012KT 1SM R13/P6000FT/D R36/6000FT/N -SN BR OVC002 M14/M15 A2983 RMK ST8 FROIN SLP125

CYWG;2007-12-24 15:28;CYWG 241528Z 18014KT 2SM -SN BR BKN004 BKN080 M14/ RMK ST5AC2 FROIN

CYWG;2007-12-24 16:00;CYWG 241600Z 18012KT 2SM -SN BR BKN002 OVC080 M14/M15 A2982 RMK ST7AC1 FROIN SUN DMLY VSBL SLP121

CYWG;2007-12-24 16:18;CYWG 241618Z 18016KT 2SM -SN BR BKN005 OVC080 RMK ST6AC2 FROIN SUN DMLY VSBL

CYWG;2007-12-24 16:44;CYWG 241644Z 18012G19KT 3SM -SN BR BKN006 BKN080 OVC200 RMK ST6AC1CI2

CYWG;2007-12-24 17:00;CYWG 241700Z 17015KT 6SM -SN DRSN BR SCT006 BKN080 BKN200 M14/M15 A2979 RMK ST3AC2CI2 SLP109

CYWG;2007-12-24 17:42;CYWG 241742Z 18013G19KT 15SM DRSN FEW005 BKN080 BKN200 M14/ RMK ST2AC2CI1

CYWG;2007-12-24 18:00;CYWG 241800Z 18015G21KT 15SM DRSN FEW005 BKN080 BKN200 M14/M15 A2976 RMK ST2AC2CI1 SLP100

CYWG;2007-12-24 18:33;CYWG 241833Z 17019KT 4SM -SN DRSN SCT003 BKN080 BKN200 M13/ RMK ST3AC2CI1

CYWG;2007-12-24 19:00;CYWG 241900Z 18018G25KT 6SM -SN DRSN SCT004 BKN080 BKN200 M13/M14 A2971 RMK ST4AC2CI2 SLP085

CYWG;2007-12-24 19:32;CYWG 241932Z 18021G26KT 3SM -SN DRSN SCT003 OVC080 M13/ RMK SN2ST2AC5

CYWG;2007-12-24 20:00;CYWG 242000Z 18023G28KT 3SM -SN DRSN OVC080 M12/M13 A2967 RMK SN4AC4 SLP070

CYWG;2007-12-24 21:00;CYWG 242100Z 18022G28KT 6SM -SN DRSN FEW004 OVC050 M11/M12 A2964 RMK ST2SC6 SLP058

CYWG;2007-12-24 21:21;CYWG 242121Z 18026G32KT 12SM DRSN OVC050 M11/ RMK SC8

CYWG;2007-12-24 22:00;CYWG 242200Z 18023G32KT 6SM -SN DRSN OVC034 M10/M11 A2962 RMK SC8 SLP052

CYWG;2007-12-24 22:48;CYWG 242248Z 18021KT 2 1/2SM -SN DRSN OVC063 M10/ RMK SC8

CYWG;2007-12-24 23:00;CYWG 242300Z 18020G27KT 4SM DRSN BR OVC063 M10/M11 A2962 RMK SC8 SLP050

CYWG;2007-12-25 00:00;CYWG 250000Z 19018KT 6SM DRSN BR OVC071 M10/M10 A2962 RMK AC8 SLP049

CYWG;2007-12-25 01:00;CYWG 250100Z 19020G27KT 6SM DRSN BR OVC071 M09/M10 A2962 RMK AC8 SLP049

CYWG;2007-12-25 02:00;CYWG 250200Z 19015KT 15SM DRSN OVC075 M09/M09 A2961 RMK AC8 SLP045

CYWG;2007-12-25 03:00;CYWG 250300Z 19010KT 15SM BKN087 M08/M09 A2961 RMK AC7 SLP044

CYWG;2007-12-25 04:00;CYWG 250400Z 20007KT 15SM SCT090 BKN120 M08/M08 A2963 RMK AC2AC3 SLP051

CYWG;2007-12-25 04:35;CYWG 250435Z 19006KT 12SM -SN OVC120 M08/ RMK AC7

CYWG;2007-12-25 05:00;CYWG 250500Z 22004KT 12SM OVC120 M07/M07 A2964 RMK AC6 SLP054

CYWG;2007-12-25 06:00;CYWG 250600Z 27007KT 15SM BKN120 M07/M07 A2967 RMK AC6 SLP065

CYWG;2007-12-25 07:00;CYWG 250700Z 30009KT 12SM BKN120 M09/M10 A2970 RMK AC6 SLP076

CYWG;2007-12-25 08:00;CYWG 250800Z 31010KT 12SM BKN120 BKN260 M10/M10 A2972 RMK AC4CI2 SLP084

CYWG;2007-12-25 09:00;CYWG 250900Z 29008KT 12SM SCT093 M12/M13 A2977 RMK AC3 SLP100

CYWG;2007-12-25 10:00;CYWG 251000Z 27008KT 15SM FEW093 M12/M13 A2978 RMK AC2 SLP105

CYWG;2007-12-25 11:00;CYWG 251100Z 29010KT 12SM FEW100 M14/M15 A2981 RMK AC1 BR FROIN SLP114

CYWG;2007-12-25 12:00;CYWG 251200Z 29005KT 15SM FEW025 SCT100 M15/M16 A2983 RMK SC2AC1 SLP122

CYWG;2007-12-25 13:00;CYWG 251300Z 25005KT 15SM BKN009 OVC023 M13/M14 A2987 RMK SF6SC2 SLP134

CYWG;2007-12-25 13:29;CYWG 251329Z 27005KT 15SM OVC011 M12/ RMK SC8

CYWG;2007-12-25 14:00;CYWG 251400Z 31003KT 15SM OVC013 M12/M12 A2989 RMK SC8 SLP143

CYWG;2007-12-25 15:00;CYWG 251500Z 28005KT 10SM OVC011 M11/M11 A2993 RMK SC8 SLP155

CYWG;2007-12-25 16:00;CYWG 251600Z 28005KT 8SM OVC012 M10/M10 A2996 RMK SC8 SLP164

CYWG;2007-12-25 16:43;CYWG 251643Z 31006KT 6SM BR OVC009 M09/ RMK SC8

CYWG;2007-12-25 17:00;CYWG 251700Z 32009KT 6SM BR OVC010 M09/M09 A2998 RMK SC8 SLP170

CYWG;2007-12-25 18:00;CYWG 251800Z 34010KT 8SM OVC014 M08/M09 A3000 RMK SC8 SLP177

CYWG;2007-12-25 18:06;CYWG 251806Z 34010KT 10SM OVC016 M08/ RMK SC8

CYWG;2007-12-25 18:51;CYWG 251851Z 35007KT 5SM -SN BR SCT011 OVC018 M08/ RMK SC3SC5

CYWG;2007-12-25 19:00;CYWG 251900Z 35007KT 5SM -SN BR SCT011 OVC020 M08/M08 A3001 RMK SC3SC5 SLP180

CYWG;2007-12-25 19:26;CYWG 251926Z 36007KT 8SM FEW014 OVC020 M08/ RMK SC2SC6

CYWG;2007-12-25 19:52;CYWG 251952Z 36009KT 8SM -SN OVC020 M08/ RMK SC8

CYWG;2007-12-25 20:00;CYWG 252000Z 36008KT 6SM -SN OVC020 M08/M09 A3002 RMK SC8 SLP184

CYWG;2007-12-25 20:46;CYWG 252046Z 02008KT 10SM SCT014 OVC020 M08/ RMK SC3SC5

CYWG;2007-12-25 21:00;CYWG 252100Z 02009KT 10SM -SN OVC014 M08/M10 A3005 RMK SC8 SLP194

CYWG;2007-12-25 22:00;CYWG 252200Z 03010KT 15SM OVC018 M09/M11 A3007 RMK SC8 SLP201

CYWG;2007-12-25 23:00;CYWG 252300Z 01010KT 15SM OVC020 M10/M12 A3009 RMK SC8 SLP207

CYWG;2007-12-25 23:47;CYWG 252347Z 02010KT 15SM -SN BKN026 OVC072 M10/ RMK SC6AC2

CYWG;2007-12-26 00:00;CYWG 260000Z 03011KT 15SM -SN FEW015 BKN028 OVC070 M10/M13 A3012 RMK SC1SC4AC3 SLP220

CYWG;2007-12-26 01:00;CYWG 260100Z 03013KT 15SM -SN FEW030 OVC070 M11/M14 A3012 RMK SC2AC6 SLP223

CYWG;2007-12-26 02:00;CYWG 260200Z 03011KT 10SM -SN SCT049 OVC068 M12/M14 A3015 RMK SC3AC5 SLP231

CYWG;2007-12-26 03:00;CYWG 260300Z 02010KT 8SM -SN SCT045 OVC070 M12/M14 A3016 RMK SC4AC4 SLP232

CYWG;2007-12-26 04:00;CYWG 260400Z 03012KT 9SM -SN BKN050 OVC070 M12/M14 A3015 RMK SC6AC2 SLP230

CYWG;2007-12-26 05:00;CYWG 260500Z 03009KT 9SM -SN FEW040 BKN070 OVC110 M13/M14 A3016 RMK SC2AC5AC2 SLP232

CYWG;2007-12-26 06:00;CYWG 260600Z 03010KT 15SM FEW038 OVC070 M13/M15 A3016 RMK SC2AC6 SLP234

CYWG;2007-12-26 06:33;CYWG 260633Z 03011KT 9SM -SHSN OVC034 M13/ RMK SC8

CYWG;2007-12-26 07:00;CYWG 260700Z 05010KT 9SM -SHSN OVC034 M14/M15 A3015 RMK SC8 SLP231

CYWG;2007-12-26 08:00;CYWG 260800Z 03008KT 9SM -SN BKN034 OVC070 M14/M15 A3015 RMK SC6AC2 SLP230

CYWG;2007-12-26 09:00;CYWG 260900Z 02007KT 9SM -SN BKN041 OVC070 M15/M15 A3015 RMK SC5AC3 SLP230

CYWG;2007-12-26 10:00;CYWG 261000Z 03006KT 9SM -SN BKN039 OVC070 M15/M16 A3014 RMK SC6AC2 SLP228

CYWG;2007-12-26 11:00;CYWG 261100Z 01007KT 9SM -SN BKN039 OVC070 M15/M16 A3014 RMK SC6AC2 SLP227

CYWG;2007-12-26 12:00;CYWG 261200Z 05009KT 15SM -SN BKN039 OVC070 M16/M16 A3012 RMK SC6AC2 SLP221

CYWG;2007-12-26 13:00;CYWG 261300Z 08004KT 15SM -SN BKN034 OVC070 M15/M16 A3011 RMK SC7AC1 SLP219

CYWG;2007-12-26 14:00;CYWG 261400Z 03006KT 15SM -SN SCT034 OVC070 M15/M16 A3011 RMK SC4AC4 SLP218

CYWG;2007-12-26 14:29;CYWG 261429Z 09005KT 15SM SCT033 BKN070 M15/ RMK SC4AC3

CYWG;2007-12-26 15:00;CYWG 261500Z 03005KT 15SM -SN BKN033 BKN068 M15/M16 A3011 RMK SC5AC2 SLP219

CYWG;2007-12-26 15:33;CYWG 261533Z 03006KT 15SM BKN033 BKN068 M15/ RMK SC5AC2

CYWG;2007-12-26 16:00;CYWG 261600Z 05006KT 15SM BKN033 BKN074 M16/M16 A3012 RMK SC6AC2 SLP222

CYWG;2007-12-26 17:00;CYWG 261700Z 03004KT 15SM SCT033 BKN039 M15/M16 A3011 RMK SC3SC4 SLP219

CYWG;2007-12-26 18:00;CYWG 261800Z 35004KT 15SM BKN037 BKN055 M16/M17 A3010 RMK SC6SC1 SLP217

CYWG;2007-12-26 19:00;CYWG 261900Z 02003KT 15SM BKN037 BKN055 M15/M16 A3008 RMK SC6SC1 SLP208

CYWG;2007-12-26 20:00;CYWG 262000Z 03005KT 15SM SCT035 BKN084 M14/M15 A3006 RMK SC4AC3 SLP203

CYWG;2007-12-26 21:00;CYWG 262100Z 01004KT 15SM SCT033 BKN084 M14/M15 A3006 RMK SC4AC3 SLP202

CYWG;2007-12-26 22:00;CYWG 262200Z 02003KT 15SM BKN033 BKN084 M13/M15 A3007 RMK SC6AC2 SLP205

CYWG;2007-12-26 23:00;CYWG 262300Z 34003KT 15SM BKN035 BKN087 M14/M15 A3007 RMK SC6AC2 SLP204

CYWG;2007-12-27 00:00;CYWG 270000Z 03004KT 15SM OVC033 M13/M14 A3008 RMK SC8 SLP210

CYWG;2007-12-27 01:00;CYWG 270100Z 04004KT 15SM BKN035 OVC075 M13/M14 A3009 RMK SC6AC2 SLP213

CYWG;2007-12-27 02:00;CYWG 270200Z 05002KT 15SM OVC033 M13/M14 A3009 RMK SC8 SLP212

CYWG;2007-12-27 03:00;CYWG 270300Z 11002KT 15SM BKN033 OVC075 M13/M14 A3007 RMK SC6AC2 SLP206

CYWG;2007-12-27 04:00;CYWG 270400Z 34003KT 15SM OVC030 M13/M14 A3008 RMK SC8 SLP209

CYWG;2007-12-27 05:00;CYWG 270500Z 27002KT 15SM OVC028 M13/M14 A3009 RMK SC8 SLP210

CYWG;2007-12-27 06:00;CYWG 270600Z 25002KT 15SM FEW030 BKN100 M14/M14 A3008 RMK SC2AC2 SLP210

CYWG;2007-12-27 07:00;CYWG 270700Z 00000KT 15SM SCT028 M16/M16 A3009 RMK SC3 SLP212

CYWG;2007-12-27 08:00;CYWG 270800Z 23002KT 15SM BKN028 M17/M17 A3010 RMK SC6 SLP215

CYWG;2007-12-27 09:00;CYWG 270900Z 21002KT 15SM SCT028 SCT100 M17/M18 A3011 RMK SC3AC1 SLP221

CYWG;2007-12-27 10:00;CYWG 271000Z 00000KT 15SM SCT018 SCT100 M17/M18 A3012 RMK SC3AC1 SLP223

CYWG;2007-12-27 11:00;CYWG 271100Z 16003KT 15SM OVC016 M16/M17 A3012 RMK SC8 SLP224

CYWG;2007-12-27 11:18;CYWG 271118Z 17003KT 15SM OVC014 RMK SC8

CYWG;2007-12-27 12:00;CYWG 271200Z 18003KT 15SM -SN OVC014 M14/M14 A3012 RMK SC8 SLP223

CYWG;2007-12-27 13:00;CYWG 271300Z 18003KT 6SM -SN OVC016 M13/M13 A3013 RMK SC8 SLP225

CYWG;2007-12-27 14:00;CYWG 271400Z 20003KT 10SM -SN OVC014 M12/M13 A3014 RMK SC8 SLP227

CYWG;2007-12-27 15:00;CYWG 271500Z 21002KT 6SM -SN OVC014 M12/M13 A3014 RMK SC8 SLP229

CYWG;2007-12-27 16:00;CYWG 271600Z 18003KT 5SM -SN OVC018 M11/M12 A3015 RMK SC7 SLP232

CYWG;2007-12-27 17:00;CYWG 271700Z 18005KT 12SM -SN BKN014 OVC270 M11/M12 A3016 RMK SC5CI1 SLP236

CYWG;2007-12-27 18:00;CYWG 271800Z 17004KT 15SM -SN OVC014 M10/M11 A3015 RMK SC8 SLP230

CYWG;2007-12-27 19:00;CYWG 271900Z 18005KT 15SM -SN OVC012 M09/M11 A3014 RMK SC8 SLP228

CYWG;2007-12-27 20:00;CYWG 272000Z 19005KT 9SM -SN OVC012 M10/M11 A3015 RMK SC8 SLP230

CYWG;2007-12-27 21:00;CYWG 272100Z 17006KT 9SM -SN OVC012 M09/M10 A3016 RMK SC8 SLP234

CYWG;2007-12-27 22:00;CYWG 272200Z 18006KT 15SM -SN OVC010 M09/M10 A3017 RMK SC8 SLP238

CYWG;2007-12-27 22:45;CYWG 272245Z 19005KT 12SM -SN OVC009 M09/ RMK SC8

CYWG;2007-12-27 23:00;CYWG 272300Z 20005KT 12SM -SN BKN009 BKN030 M09/M10 A3018 RMK SC5SC1 SLP241

CYWG;2007-12-28 00:00;CYWG 280000Z 18006KT 9SM -SN SCT018 M11/M11 A3018 RMK SC4 SLP241

CYWG;2007-12-28 01:00;CYWG 280100Z 17005KT 12SM FEW018 M13/M13 A3018 RMK SC2 SLP240

CYWG;2007-12-28 02:00;CYWG 280200Z 15007KT 12SM FEW018 FEW090 SCT150 M14/M14 A3017 RMK SC1AC2AC1 SLP238

CYWG;2007-12-28 03:00;CYWG 280300Z 18008KT 9SM FEW015 FEW090 SCT150 M14/M14 A3017 RMK SC2AC1AC1 FROIN MIFG SLP238

CYWG;2007-12-28 04:00;CYWG 280400Z 18008KT 7SM FEW003 M13/M13 A3017 RMK SF2 FROIN BR SLP237

CYWG;2007-12-28 05:00;CYWG 280500Z 18010KT 9SM FEW001 FEW012 M13/M14 A3016 RMK SF1SF1 FROIN BR SLP235

CYWG;2007-12-28 06:00;CYWG 280600Z 18008KT 15SM FEW010 FEW030 M14/M14 A3016 RMK SF1SC1 SLP235

CYWG;2007-12-28 06:39;CYWG 280639Z 17008KT 9SM -SHSN OVC007 M13/ RMK SC8

CYWG;2007-12-28 07:00;CYWG 280700Z 18010KT 9SM -SHSN OVC012 M11/M12 A3016 RMK SC8 SLP233

CYWG;2007-12-28 07:46;CYWG 280746Z 18010KT 9SM -SHSN OVC009 M11/ RMK SC8

CYWG;2007-12-28 08:00;CYWG 280800Z 18009KT 9SM -SHSN OVC010 M11/M11 A3016 RMK SC8 SLP233

CYWG;2007-12-28 08:07;CYWG 280807Z 17008KT 9SM -SHSN OVC009 M11/ RMK SC8

CYWG;2007-12-28 09:00;CYWG 280900Z 17009KT 9SM -SHSN OVC008 M10/M11 A3016 RMK SC8 SLP231

CYWG;2007-12-28 10:00;CYWG 281000Z 17011KT 9SM -SHSN OVC008 M10/M10 A3014 RMK SC8 SLP226

CYWG;2007-12-28 11:00;CYWG 281100Z 18009KT 9SM -SHSN OVC007 M09/M10 A3012 RMK SC8 SLP219

CYWG;2007-12-28 12:00;CYWG 281200Z 17014KT 15SM -SN OVC005 M09/M09 A3010 RMK ST8 SLP213

CYWG;2007-12-28 13:00;CYWG 281300Z 17011KT 15SM -SN OVC005 M09/M09 A3009 RMK ST8 SLP209

CYWG;2007-12-28 14:00;CYWG 281400Z 17012KT 15SM OVC006 M09/M09 A3008 RMK ST8 SLP206

CYWG;2007-12-28 15:00;CYWG 281500Z 17010KT 15SM OVC006 M09/M09 A3007 RMK ST8 SLP202

CYWG;2007-12-28 15:27;CYWG 281527Z 17011KT 10SM -SN OVC006 M09/ RMK ST8

CYWG;2007-12-28 16:00;CYWG 281600Z 17009G15KT 6SM -SN OVC006 M09/M09 A3006 RMK ST8 SLP199

CYWG;2007-12-28 17:00;CYWG 281700Z 18010G15KT 15SM -SN OVC006 M09/M09 A3005 RMK ST8 SLP196

CYWG;2007-12-28 18:00;CYWG 281800Z 17013KT 15SM -SN BKN010 OVC033 M08/M09 A3002 RMK SF6SC2 SLP187

CYWG;2007-12-28 18:30;CYWG 281830Z 17011KT 6SM -SN BR BKN009 OVC033 M08/ RMK SF6SC2

CYWG;2007-12-28 19:00;CYWG 281900Z 18011KT 6SM -SN BR BKN010 OVC037 M08/M09 A3000 RMK SF6SC2 SLP181

CYWG;2007-12-28 19:40;CYWG 281940Z 16010KT 6SM -SN BR BKN012 OVC038 M08/ RMK SF5SC3

CYWG;2007-12-28 20:00;CYWG 282000Z 18010KT 3SM -SN BR BKN012 OVC050 M08/M09 A2999 RMK SF6SC2 SLP176

CYWG;2007-12-28 20:52;CYWG 282052Z 17009KT 1 1/2SM -SN BR OVC012 M08/ RMK SN3SC5

CYWG;2007-12-28 21:00;CYWG 282100Z 17009KT 1 1/2SM -SN BR OVC012 M08/M08 A2997 RMK SN3SC4 SLP168

CYWG;2007-12-28 22:00;CYWG 282200Z 17011KT 4SM -SN BR OVC012 M08/M09 A2997 RMK SC7 SLP168

CYWG;2007-12-28 22:36;CYWG 282236Z 18008KT 2SM -SN BR OVC032 M09/ RMK SN2SC6

CYWG;2007-12-28 23:00;CYWG 282300Z 17007KT 6SM -SN OVC028 M09/M10 A2996 RMK SC8 OBS TKN 00+16 SLP165

CYWG;2007-12-29 00:00;CYWG 290000Z 17007KT 5SM -SN OVC016 M09/M10 A2996 RMK SC8 SLP164

CYWG;2007-12-29 01:00;CYWG 290100Z 15007KT 12SM SCT024 M11/M11 A2994 RMK SC3 SLP158

CYWG;2007-12-29 02:00;CYWG 290200Z 18006KT 10SM -SN BKN012 OVC058 M11/M11 A2993 RMK SC6SC2 SLP156

CYWG;2007-12-29 03:00;CYWG 290300Z 19008KT 10SM -SN BKN009 OVC029 M09/M10 A2992 RMK SC7SC1 SLP150

CYWG;2007-12-29 04:00;CYWG 290400Z 18008KT 6SM -SN BR OVC006 M10/M10 A2991 RMK SC8 SLP146

CYWG;2007-12-29 05:00;CYWG 290500Z 20006KT 10SM -SN BKN008 BKN028 OVC043 M09/M10 A2990 RMK SC5SC2SC1 SLP144

CYWG;2007-12-29 05:25;CYWG 290525Z 19008KT 10SM -SN SCT010 BKN028 OVC043 RMK SC3SC3SC2

CYWG;2007-12-29 06:00;CYWG 290600Z 20007KT 10SM -SN SCT007 BKN028 OVC051 M09/M10 A2989 RMK SC3SC3SC2 SLP140

CYWG;2007-12-29 07:00;CYWG 290700Z 18008KT 10SM -SN SCT010 OVC038 M09/M10 A2989 RMK SC3SC5 SLP139

CYWG;2007-12-29 08:00;CYWG 290800Z 18008KT 6SM -SN SCT010 OVC048 M09/M10 A2988 RMK SC3SC5 SLP136

CYWG;2007-12-29 09:00;CYWG 290900Z 19007KT 10SM -SN FEW010 OVC048 M09/M10 A2987 RMK SC2SC6 SLP134

CYWG;2007-12-29 10:00;CYWG 291000Z 18007KT 15SM FEW010 BKN046 M10/M10 A2987 RMK SC2SC6 SLP133

CYWG;2007-12-29 11:00;CYWG 291100Z 18009KT 15SM FEW010 BKN034 BKN093 M11/M12 A2986 RMK SC1SC4AC1 SLP128

CYWG;2007-12-29 12:00;CYWG 291200Z 18006KT 15SM FEW019 SCT051 M13/M13 A2986 RMK SC2SC0 SLP132

CYWG;2007-12-29 13:00;CYWG 291300Z 19006KT 15SM SCT043 BKN099 M14/M14 A2986 RMK SC3AC2 SLP131

CYWG;2007-12-29 14:00;CYWG 291400Z 18011KT 15SM SCT038 BKN097 M14/M14 A2986 RMK SC2AC4 SLP130

CYWG;2007-12-29 15:00;CYWG 291500Z 18009KT 15SM SCT036 BKN095 M14/M15 A2986 RMK SC2AC2 FG BNK E QUAD OVR CITY SLP130

CYWG;2007-12-29 16:00;CYWG 291600Z 17011KT 5SM BR BKN093 M13/M13 A2986 RMK AC7 VIS S QUAD 3 SLP132

CYWG;2007-12-29 16:25;CYWG 291625Z 18012KT 1 1/2SM BR BKN003 OVC093 M12/ RMK FG2ST3AC3 VIS VRBL 1-2

CYWG;2007-12-29 17:00;CYWG 291700Z 18010KT 1SM R13/P6000FT/D R36/P6000FT/D BR BKN003 OVC093 M11/M11 A2986 RMK FG2ST5AC2 VIS VRBL 3/4-11/4 SLP131

CYWG;2007-12-29 17:44;CYWG 291744Z 18013KT 2SM BR OVC002 M11/ RMK FG2ST6 VIS VRBL 11/2-21/2

CYWG;2007-12-29 18:00;CYWG 291800Z 18013KT 4SM BR OVC002 M10/M10 A2985 RMK ST8 SLP126

CYWG;2007-12-29 18:19;CYWG 291819Z 18014KT 7SM OVC006 M10/ RMK ST8 BR

CYWG;2007-12-29 18:30;CYWG 291830Z 18014G19KT 10SM SCT008 BKN085 M10/ RMK ST2AC3

CYWG;2007-12-29 19:00;CYWG 291900Z 17015KT 10SM SCT008 BKN096 M10/M11 A2983 RMK ST4AC2 BR SLP119

CYWG;2007-12-29 19:17;CYWG 291917Z 17016KT 10SM -SN BKN010 OVC096 M10/ RMK ST5AC2

CYWG;2007-12-29 19:42;CYWG 291942Z 18013KT 10SM -SN BKN009 OVC096 M10/ RMK ST7AC1

CYWG;2007-12-29 20:00;CYWG 292000Z 17013KT 15SM -SN OVC008 M10/M10 A2982 RMK ST8 SLP116

CYWG;2007-12-29 21:00;CYWG 292100Z 17012G17KT 10SM -SN OVC007 M10/M10 A2982 RMK ST8 SLP115

CYWG;2007-12-29 22:00;CYWG 292200Z 17018KT 15SM -SN OVC008 M09/M10 A2982 RMK ST8 SLP117

CYWG;2007-12-29 23:00;CYWG 292300Z 17014KT 10SM -SN DRSN OVC009 M09/M10 A2983 RMK ST8 SLP118

CYWG;2007-12-30 00:00;CYWG 300000Z 17013G18KT 10SM -SN DRSN OVC008 M09/M10 A2983 RMK ST8 SLP119

CYWG;2007-12-30 01:00;CYWG 300100Z 18012KT 10SM -SN OVC008 M09/M10 A2982 RMK ST8 SLP117

CYWG;2007-12-30 02:00;CYWG 300200Z 18011KT 10SM -SN OVC008 M09/M10 A2982 RMK ST8 SLP117

CYWG;2007-12-30 03:00;CYWG 300300Z 15014KT 15SM -SN OVC007 M09/M10 A2981 RMK ST8 SLP115

CYWG;2007-12-30 04:00;CYWG 300400Z 17012KT 10SM -SN OVC008 M09/M09 A2980 RMK ST8 SLP113

CYWG;2007-12-30 05:00;CYWG 300500Z 16013KT 10SM -SN OVC010 M08/M09 A2979 RMK ST8 SLP109

CYWG;2007-12-30 06:00;CYWG 300600Z 18014KT 10SM -SN OVC014 M08/M09 A2979 RMK ST8 SLP105

CYWG;2007-12-30 07:00;CYWG 300700Z 16015KT 15SM OVC014 M08/M10 A2977 RMK SC8 SLP100

CYWG;2007-12-30 08:00;CYWG 300800Z 15012KT 15SM OVC012 M08/M09 A2976 RMK SC8 SLP097

CYWG;2007-12-30 09:00;CYWG 300900Z 15012KT 15SM OVC010 M08/M09 A2976 RMK SC8 SLP096

CYWG;2007-12-30 10:00;CYWG 301000Z 15012KT 15SM OVC009 M08/M09 A2975 RMK SC8 SLP091

CYWG;2007-12-30 11:00;CYWG 301100Z 16012KT 15SM OVC008 M08/M09 A2974 RMK SC8 SLP090

CYWG;2007-12-30 11:06;CYWG 301106Z 15012KT 10SM -SN OVC008 RMK SC8

CYWG;2007-12-30 11:36;CYWG 301136Z 15012KT 2SM -SN OVC009 M09/ RMK SC8

CYWG;2007-12-30 11:52;CYWG 301152Z 14012KT 1 1/4SM -SN OVC010 M09/ RMK SN2SC6

CYWG;2007-12-30 12:00;CYWG 301200Z 14010KT 1 1/4SM -SN OVC010 M09/M09 A2973 RMK SN2SC4 SLP085

CYWG;2007-12-30 12:29;CYWG 301229Z 15010KT 4SM -SN BKN013 M09/ RMK SC6

CYWG;2007-12-30 13:00;CYWG 301300Z 15008KT 6SM -SN OVC016 M09/M09 A2974 RMK SC8 SLP087

CYWG;2007-12-30 13:51;CYWG 301351Z 15011KT 7SM -SN OVC014 M08/ RMK SC8

CYWG;2007-12-30 14:00;CYWG 301400Z 14011KT 8SM -SN OVC014 M08/M09 A2972 RMK SC8 SLP081

CYWG;2007-12-30 15:00;CYWG 301500Z 15009KT 10SM -SN OVC010 M08/M09 A2972 RMK SC8 SLP081

CYWG;2007-12-30 16:00;CYWG 301600Z 15008KT 10SM -SN OVC014 M08/M09 A2971 RMK SC8 SLP080

CYWG;2007-12-30 16:21;CYWG 301621Z 15008KT 8SM -SN OVC016 M08/ RMK SC8

CYWG;2007-12-30 17:00;CYWG 301700Z 16010KT 7SM -SN OVC018 M08/M09 A2970 RMK SC8 SLP077

CYWG;2007-12-30 18:00;CYWG 301800Z 16008KT 8SM -SN OVC014 M07/M09 A2969 RMK SC8 SLP071

CYWG;2007-12-30 18:36;CYWG 301836Z 17006KT 8SM -SN OVC017 M07/ RMK SC8

CYWG;2007-12-30 19:00;CYWG 301900Z 16005KT 7SM -SN OVC018 M07/M09 A2967 RMK SC8 SLP065

CYWG;2007-12-30 20:00;CYWG 302000Z 17005KT 7SM -SN OVC018 M07/M08 A2966 RMK SC8 SLP061

CYWG;2007-12-30 21:00;CYWG 302100Z 17004KT 5SM -SN OVC015 M07/M08 A2967 RMK SC8 SLP064

CYWG;2007-12-30 21:19;CYWG 302119Z 18003KT 5SM -SN OVC014 M07/ RMK SC8

CYWG;2007-12-30 21:44;CYWG 302144Z 15002KT 3SM -SN OVC021 M07/ RMK SC8

CYWG;2007-12-30 22:00;CYWG 302200Z 00000KT 4SM -SN OVC018 M07/M08 A2968 RMK SC8 SLP068

CYWG;2007-12-30 23:00;CYWG 302300Z 34003KT 4SM -SN OVC017 M08/M08 A2969 RMK SC8 OBS TAKEN +13 SLP072

CYWG;2007-12-31 00:00;CYWG 310000Z 35002KT 4SM -SN OVC017 M08/M08 A2970 RMK SC8 SLP075

CYWG;2007-12-31 01:00;CYWG 310100Z 35004KT 4SM -SN OVC013 M08/M09 A2971 RMK SC8 SLP077

CYWG;2007-12-31 02:00;CYWG 310200Z 34005KT 4SM -SN BKN019 OVC050 M10/M10 A2972 RMK SC6SC2 SLP080

CYWG;2007-12-31 03:00;CYWG 310300Z 31005KT 4SM -SN BR SCT020 OVC050 M13/M13 A2973 RMK SC3SC5 SLP087

CYWG;2007-12-31 04:00;CYWG 310400Z 32003KT 4SM -SN BR SCT015 OVC065 M12/M13 A2974 RMK SC3SC5 SLP088

CYWG;2007-12-31 05:00;CYWG 310500Z 31007KT 4SM -SN BR SCT015 OVC050 M14/M14 A2974 RMK SC3SC5 SLP091

CYWG;2007-12-31 05:41;CYWG 310541Z 30006KT 4SM BR FEW015 BKN050 OVC090 RMK SC2SC2AC2

CYWG;2007-12-31 06:00;CYWG 310600Z 29004KT 4SM BR FEW015 BKN050 OVC095 M13/M14 A2976 RMK SF2SC2AC3 SLP097

CYWG;2007-12-31 07:00;CYWG 310700Z 30006KT 6SM BR SCT015 OVC050 M13/M14 A2976 RMK SC3SC5 SLP097

CYWG;2007-12-31 07:48;CYWG 310748Z 30006KT 6SM -SN BR SCT015 OVC033 RMK SC3SC5

CYWG;2007-12-31 08:00;CYWG 310800Z 31006KT 6SM -SN BR FEW015 BKN029 OVC090 M14/M14 A2978 RMK SC2SC3AC2 SLP102

CYWG;2007-12-31 09:00;CYWG 310900Z 31007KT 8SM -SN FEW015 BKN044 OVC090 M12/M12 A2980 RMK SC2SC4AC1 SLP111

CYWG;2007-12-31 10:00;CYWG 311000Z 32010KT 10SM -SN FEW015 OVC054 M11/M11 A2983 RMK SC2SC6 SLP118

CYWG;2007-12-31 11:00;CYWG 311100Z 32013KT 15SM BKN054 M11/M12 A2984 RMK SC7 SLP124

CYWG;2007-12-31 12:00;CYWG 311200Z 31011KT 15SM BKN062 M14/M15 A2987 RMK SC6 SLP133

CYWG;2007-12-31 13:00;CYWG 311300Z 30011KT 15SM SCT071 M16/M16 A2990 RMK AC4 SLP144

CYWG;2007-12-31 14:00;CYWG 311400Z 31012KT 15SM BKN065 M14/M15 A2992 RMK SC5 SLP152

CYWG;2007-12-31 15:00;CYWG 311500Z 32012KT 15SM BKN065 M15/M16 A2995 RMK SC6 SLP163

CYWG;2007-12-31 16:00;CYWG 311600Z 32012KT 15SM BKN060 M15/M16 A2998 RMK SC6 SLP173

CYWG;2007-12-31 17:00;CYWG 311700Z 31012KT 15SM DRSN BKN074 M14/M15 A2999 RMK AC6 SLP178

CYWG;2007-12-31 18:00;CYWG 311800Z 31014KT 15SM DRSN BKN075 M14/M15 A3001 RMK AC6 SLP183

CYWG;2007-12-31 19:00;CYWG 311900Z 31014KT 15SM DRSN FEW078 M15/M16 A3002 RMK AC2 SLP187

CYWG;2007-12-31 20:00;CYWG 312000Z 31012KT 15SM DRSN FEW092 M15/M17 A3003 RMK AC1 SLP192

CYWG;2007-12-31 21:00;CYWG 312100Z 30012KT 15SM DRSN FEW100 M16/M17 A3006 RMK AC1 SLP202

CYWG;2007-12-31 22:00;CYWG 312200Z 31015KT 15SM DRSN FEW100 M16/M18 A3009 RMK AC1 SLP210

CYWG;2007-12-31 23:00;CYWG 312300Z 31013KT 15SM DRSN FEW023 SCT100 M17/M18 A3012 RMK SC1AC2 SLP220

CYWG;2007-12-31 23:38;CYWG 312338Z 31015KT 12SM -SN DRSN BKN023 BKN088 M16/ RMK SC6AC1

